raw_text,station_id,observation_time,latitude,longitude,temp_c,dewpoint_c,wind_dir_degrees,wind_speed_kt,wind_gust_kt,visibility_statute_mi,altim_in_hg,sea_level_pressure_mb,corrected,auto,auto_station,maintenance_indicator_on,no_signal,lightning_sensor_off,freezing_rain_sensor_off,present_weather_sensor_off,wx_string,sky_cover,cloud_base_ft_agl,sky_cover,cloud_base_ft_agl,sky_cover,cloud_base_ft_agl,sky_cover,cloud_base_ft_agl,flight_category,three_hr_pressure_tendency_mb,maxT_c,minT_c,maxT24hr_c,minT24hr_c,precip_in,pcp3hr_in,pcp6hr_in,pcp24hr_in,snow_in,vert_vis_ft,metar_type,elevation_m
UTO8 M M M 120/-04/-07/2424+32/M/ PK WND 2543 0311Z SOG 44 5006 90MM,UTO8,2023-06-07T04:43:00Z,,,,,,,,3.11,,,,,,,,,,,,,,,,,,,,,,,,,,,,,,,,METAR,
KEVM 070442Z AUTO 00000KT 10SM OVC070 12/05 A3004 RMK AO2,KEVM,2023-06-07T04:42:00Z,47.42,-92.5,12.0,5.0,0,0,,10.0,30.041338,,,TRUE,TRUE,,,,,,,OVC,7000,,,,,,,VFR,,,,,,,,,,,,METAR,419.0
CYYL 070442Z AUTO 09005G15KT 040V200 1 1/2SM +TSRA BR SCT026 OVC033 21/19 A2981 RMK VIS VRB 3/4-3 SLP102 DENSITY ALT 2300FT,CYYL,2023-06-07T04:42:00Z,56.87,-101.07,21.0,19.0,90,5,15,1.5,29.811024,1010.2,,TRUE,,,,,,,+TSRA BR,SCT,2600,OVC,3300,,,,,IFR,,,,,,,,,,,,SPECI,351.0
KOAJ 070441Z AUTO 20004KT 1/4SM FG FEW002 SCT008 SCT011 18/17 A2978 RMK AO2,KOAJ,2023-06-07T04:41:00Z,34.82,-77.62,18.0,17.0,200,4,,0.25,29.778543,,,TRUE,TRUE,,,,,,FG,FEW,200,SCT,800,SCT,1100,,,LIFR,,,,,,,,,,,,SPECI,26.0
KMTH 070441Z AUTO 13004KT 10SM SCT024 SCT032 28/23 A2989 RMK AO2 T02780228,KMTH,2023-06-07T04:41:00Z,24.73,-81.05,27.8,22.8,130,4,,10.0,29.890747,,,TRUE,TRUE,,,,,,,SCT,2400,SCT,3200,,,,,VFR,,,,,,,,,,,,SPECI,1.0
CYUX 070441Z AUTO 16009KT 8SM OVC002 M01/ A3013 RMK DP MISG SLP207,CYUX,2023-06-07T04:41:00Z,68.77,-81.22,-1.0,,160,9,,8.0,30.129921,1020.7,,TRUE,,,,,,,,OVC,200,,,,,,,LIFR,,,,,,,,,,,,SPECI,8.0
CYRQ 070441Z AUTO 34008KT 9SM BKN076 OVC100 11/09 A2958 RMK SLP022,CYRQ,2023-06-07T04:41:00Z,46.35,-72.68,11.0,9.0,340,8,,9.0,29.58071,1002.2,,TRUE,,,,,,,,BKN,7600,OVC,10000,,,,,VFR,,,,,,,,,,,,SPECI,58.0
PKWA 070440Z AUTO 09012KT 7SM SCT019 SCT024 31/25 A2983 RMK AO2 T03080251 TSNO,PKWA,2023-06-07T04:40:00Z,8.72,167.72,30.8,25.1,90,12,,7.0,29.828741,,,TRUE,TRUE,,,TRUE,,,,SCT,1900,SCT,2400,,,,,VFR,,,,,,,,,,,,METAR,6.0
PHTO 070440Z 26009KT 10SM FEW023 BKN046 OVC055 22/21 A3007 RMK AO2 RAB11E40 P0005 T02220211,PHTO,2023-06-07T04:40:00Z,19.72,-155.05,22.2,21.1,260,9,,10.0,30.070866,,,,TRUE,,,,,,,FEW,2300,BKN,4600,OVC,5500,,,VFR,,,,,,0.05,,,,,,SPECI,9.0
PADQ 070440Z 05006KT 1SM BR OVC002 07/07 A2984 RMK AO2 T00720072,PADQ,2023-06-07T04:40:00Z,57.75,-152.5,7.2,7.2,50,6,,1.0,29.840551,,,,TRUE,,,,,,BR,OVC,200,,,,,,,LIFR,,,,,,,,,,,,SPECI,5.0
PACD 070440Z AUTO 14016KT 2SM -RA BR BKN011 OVC017 07/06 A2956 RMK AO2 P0001 T00670056 TSNO,PACD,2023-06-07T04:40:00Z,55.22,-162.72,6.7,5.6,140,16,,2.0,29.56004,,,TRUE,TRUE,,,TRUE,,,-RA BR,BKN,1100,OVC,1700,,,,,IFR,,,,,,0.01,,,,,,SPECI,23.0
KVBG 070440Z AUTO 00000KT 10SM FEW008 SCT019 BKN034 OVC070 13/13 A2993 RMK AO2 SLP138 TSNO $,KVBG,2023-06-07T04:40:00Z,34.73,-120.58,13.0,13.0,0,0,,10.0,29.929134,1013.8,,TRUE,TRUE,TRUE,,TRUE,,,,FEW,800,SCT,1900,BKN,3400,OVC,7000,VFR,,,,,,,,,,,,SPECI,96.0
KSBD 070440Z AUTO 26006KT 10SM BKN036 OVC045 16/08 A2993 RMK AO2 T01570081,KSBD,2023-06-07T04:40:00Z,34.08,-117.25,15.7,8.1,260,6,,10.0,29.929134,,,TRUE,TRUE,,,,,,,BKN,3600,OVC,4500,,,,,VFR,,,,,,,,,,,,METAR,353.0
KQFX 070440Z AUTO 12002KT 9999 OVC030 23/16 A2980 RMK A02 TSNO,KQFX,2023-06-07T04:40:00Z,,,23.0,16.0,120,2,,6.21,29.799213,,,TRUE,TRUE,,,TRUE,,,,OVC,3000,,,,,,,MVFR,,,,,,,,,,,,METAR,
KQFW 070440Z AUTO 16006G11KT 9999 CLR 26/14 A2962 RMK A02 TSNO,KQFW,2023-06-07T04:40:00Z,,,26.0,14.0,160,6,11,6.21,29.619095,,,TRUE,TRUE,,,TRUE,,,,CLR,,,,,,,,VFR,,,,,,,,,,,,METAR,
KQFV 070440Z AUTO 27004KT 9999 CLR 26/14 A2981 RMK A02 TSNO,KQFV,2023-06-07T04:40:00Z,,,26.0,14.0,270,4,,6.21,29.811024,,,TRUE,TRUE,,,TRUE,,,,CLR,,,,,,,,VFR,,,,,,,,,,,,METAR,
KQFU 070440Z AUTO 18005KT 8000 HZ OVC024 22/16 A2984 RMK A02 TSNO,KQFU,2023-06-07T04:40:00Z,,,22.0,16.0,180,5,,4.97,29.840551,,,TRUE,TRUE,,,TRUE,,,HZ,OVC,2400,,,,,,,MVFR,,,,,,,,,,,,METAR,
KQFT 070440Z AUTO 18003KT 9999 OVC029 23/17 A2979 RMK A02 TSNO,KQFT,2023-06-07T04:40:00Z,,,23.0,17.0,180,3,,6.21,29.790354,,,TRUE,TRUE,,,TRUE,,,,OVC,2900,,,,,,,MVFR,,,,,,,,,,,,METAR,
KQFB 070440Z AUTO 30007G12KT 9999 FEW220 28/13 A2985 RMK A02 TSNO,KQFB,2023-06-07T04:40:00Z,,,28.0,13.0,300,7,12,6.21,29.84941,,,TRUE,TRUE,,,TRUE,,,,FEW,22000,,,,,,,VFR,,,,,,,,,,,,METAR,
KQEX 070440Z AUTO 15003KT 9999 CLR 27/14 A2972 RMK A02 TSNO,KQEX,2023-06-07T04:40:00Z,,,27.0,14.0,150,3,,6.21,29.719488,,,TRUE,TRUE,,,TRUE,,,,CLR,,,,,,,,VFR,,,,,,,,,,,,METAR,
KQEW 070440Z AUTO 24005G11KT 9999 // FEW210 26/16 A2979 RMK A02 TSNO,KQEW,2023-06-07T04:40:00Z,,,26.0,16.0,240,5,11,6.21,29.790354,,,TRUE,TRUE,,,TRUE,,,,FEW,21000,,,,,,,VFR,,,,,,,,,,,,METAR,
KQEV 070440Z AUTO 20004KT 9999 BKN031 25/17 A2978 RMK A02 TSNO,KQEV,2023-06-07T04:40:00Z,,,25.0,17.0,200,4,,6.21,29.778543,,,TRUE,TRUE,,,TRUE,,,,BKN,3100,,,,,,,VFR,,,,,,,,,,,,METAR,
KQEQ 070440Z AUTO 19004KT 6000 HZ OVC022 22/19 A2983 RMK A02 TSNO,KQEQ,2023-06-07T04:40:00Z,,,22.0,19.0,190,4,,3.73,29.828741,,,TRUE,TRUE,,,TRUE,,,HZ,OVC,2200,,,,,,,MVFR,,,,,,,,,,,,METAR,
KQEP 070440Z AUTO 15001KT 8000 HZ OVC024 23/16 A2983 RMK A02 TSNO,KQEP,2023-06-07T04:40:00Z,,,23.0,16.0,150,1,,4.97,29.828741,,,TRUE,TRUE,,,TRUE,,,HZ,OVC,2400,,,,,,,MVFR,,,,,,,,,,,,METAR,
KQEN 070440Z AUTO 25006G14KT 9999 CLR 23/11 A2984 RMK A02 TSNO,KQEN,2023-06-07T04:40:00Z,,,23.0,11.0,250,6,14,6.21,29.840551,,,TRUE,TRUE,,,TRUE,,,,CLR,,,,,,,,VFR,,,,,,,,,,,,METAR,
KQEJ 070440Z AUTO 22008G12KT 9999 CLR 25/14 A2975 RMK A02 TSNO,KQEJ,2023-06-07T04:40:00Z,,,25.0,14.0,220,8,12,6.21,29.749016,,,TRUE,TRUE,,,TRUE,,,,CLR,,,,,,,,VFR,,,,,,,,,,,,METAR,
KQEI 070440Z AUTO 19005G11KT 9999 CLR 26/14 A2977 RMK A02 TSNO,KQEI,2023-06-07T04:40:00Z,,,26.0,14.0,190,5,11,6.21,29.769686,,,TRUE,TRUE,,,TRUE,,,,CLR,,,,,,,,VFR,,,,,,,,,,,,METAR,
KPEZ 070440Z AUTO 00000KT 10SM CLR 24/22 A2988 RMK AO2 T02400215,KPEZ,2023-06-07T04:40:00Z,28.95,-98.52,24.0,21.5,0,0,,10.0,29.878937,,,TRUE,TRUE,,,,,,,CLR,,,,,,,,VFR,,,,,,,,,,,,METAR,126.0
KOWP 070440Z AUTO 00000KT 10SM CLR 21/16 A2996 RMK AO2 T02070163,KOWP,2023-06-07T04:40:00Z,36.18,-96.15,20.7,16.3,0,0,,10.0,29.958662,,,TRUE,TRUE,,,,,,,CLR,,,,,,,,VFR,,,,,,,,,,,,METAR,267.0
KMTK 070440Z AUTO 17005KT 10SM CLR 25/21 A2988 RMK A01,KMTK,2023-06-07T04:40:00Z,,,25.0,21.0,170,5,,10.0,29.878937,,,TRUE,TRUE,,,,,,,CLR,,,,,,,,VFR,,,,,,,,,,,,METAR,
KJYL 070440Z AUTO 21003KT 10SM CLR 21/18 A2984 RMK AO2 T02130175,KJYL,2023-06-07T04:40:00Z,32.65,-81.6,21.3,17.5,210,3,,10.0,29.840551,,,TRUE,TRUE,,,,,,,CLR,,,,,,,,VFR,,,,,,,,,,,,METAR,54.0
KJQF 070440Z AUTO 00000KT 7SM CLR 16/13 A2985 RMK AO2,KJQF,2023-06-07T04:40:00Z,35.38,-80.72,16.0,13.0,0,0,,7.0,29.84941,,,TRUE,TRUE,,,,,,,CLR,,,,,,,,VFR,,,,,,,,,,,,METAR,204.0
KIKT 070440Z AUTO 15006KT 10SM SCT020 BKN031 BKN037 25/22 A2989 RMK A01,KIKT,2023-06-07T04:40:00Z,28.52,-88.28,25.0,22.0,150,6,,10.0,29.890747,,,TRUE,TRUE,,,,,,,SCT,2000,BKN,3100,BKN,3700,,,VFR,,,,,,,,,,,,METAR,36.0
KIER 070440Z AUTO 00000KT 10SM CLR 21/21 A2988 RMK AO2 T02100210,KIER,2023-06-07T04:40:00Z,31.73,-93.1,21.0,21.0,0,0,,10.0,29.878937,,,TRUE,TRUE,,,,,,,CLR,,,,,,,,VFR,,,,,,,,,,,,METAR,35.0
KHRF 070440Z AUTO 20008G15KT 10SM 21/09 A2990 RMK AO2,KHRF,2023-06-07T04:40:00Z,46.25,-114.13,21.0,9.0,200,8,15,10.0,29.899607,,,TRUE,TRUE,,,,,,,,,,,,,,,,,,,,,,,,,,,METAR,1112.0
KGVW 070440Z AUTO 07010KT 10SM SCT060 26/20 A2988 RMK A01,KGVW,2023-06-07T04:40:00Z,29.13,-94.55,26.0,20.0,70,10,,10.0,29.878937,,,TRUE,TRUE,,,,,,,SCT,6000,,,,,,,VFR,,,,,,,,,,,,METAR,37.0
KGUL 070440Z AUTO 09003KT 9SM CLR 26/21 A2986 RMK A01,KGUL,2023-06-07T04:40:00Z,27.3,-93.53,26.0,21.0,90,3,,9.0,29.861221,,,TRUE,TRUE,,,,,,,CLR,,,,,,,,VFR,,,,,,,,,,,,METAR,20.0
KDSF 070440Z AUTO 13005KT 10SM CLR A2989 RMK A01,KDSF,2023-06-07T04:40:00Z,28.35,-88.27,,,130,5,,10.0,29.890747,,,TRUE,TRUE,,,,,,,CLR,,,,,,,,VFR,,,,,,,,,,,,METAR,40.0
KBML 070440Z AUTO 10SM -RA FEW025 OVC031 11/07 A2951 RMK AO2 P0000 T01060072,KBML,2023-06-07T04:40:00Z,44.58,-71.18,10.6,7.2,,,,10.0,29.509842,,,TRUE,TRUE,,,,,,-RA,FEW,2500,OVC,3100,,,,,VFR,,,,,,0.005,,,,,,SPECI,344.0
KBIX 070440Z AUTO 09003KT 10SM SCT024 BKN041 23/21 A2986 RMK AO2 SLP114 $,KBIX,2023-06-07T04:40:00Z,30.42,-88.92,23.0,21.0,90,3,,10.0,29.861221,1011.4,,TRUE,TRUE,TRUE,,,,,,SCT,2400,BKN,4100,,,,,VFR,,,,,,,,,,,,SPECI,4.0
KAXS 070440Z AUTO 09006KT 10SM CLR 22/17 A2997 RMK AO2 T02170167,KAXS,2023-06-07T04:40:00Z,34.7,-99.33,21.7,16.7,90,6,,10.0,29.970472,,,TRUE,TRUE,,,,,,,CLR,,,,,,,,VFR,,,,,,,,,,,,METAR,433.0
KATP 070440Z AUTO 16008G13KT 100V180 9SM FEW023 FEW034 26/21 A2988 RMK A01,KATP,2023-06-07T04:40:00Z,27.2,-90.03,26.0,21.0,160,8,13,9.0,29.878937,,,TRUE,TRUE,,,,,,,FEW,2300,FEW,3400,,,,,VFR,,,,,,,,,,,,METAR,50.0
K9L2 070440Z AUTO 21017G26KT 10SM BKN120 15/06 A2982 RMK AO2 LTG DSNT NW SLP084,K9L2,2023-06-07T04:40:00Z,34.98,-117.87,15.0,6.0,210,17,26,10.0,29.819881,1008.4,,TRUE,TRUE,,,,,,,BKN,12000,,,,,,,VFR,,,,,,,,,,,,SPECI,697.0
ETEB 070440Z AUTO 07003KT 9999 OVC006 12/12 A3005 RMK AO2 OVC V BKN SLP189 $,ETEB,2023-06-07T04:40:00Z,49.32,10.63,12.0,12.0,70,3,,6.21,30.050198,1018.9,,TRUE,TRUE,TRUE,,,,,,OVC,600,,,,,,,IFR,,,,,,,,,,,,SPECI,466.0
EHEH 070440Z AUTO 02008KT 340V060 9999 OVC100 13/10 Q1020 BLU NOSIG,EHEH,2023-06-07T04:40:00Z,51.45,5.38,13.0,10.0,20,8,,6.21,30.11811,,,TRUE,,,TRUE,,,,,OVC,10000,,,,,,,VFR,,,,,,,,,,,,SPECI,20.0
PACZ 070439Z AUTO VRB05KT 10SM FEW024 SCT110 10/05 A2971 RMK AO2 SLP063,PACZ,2023-06-07T04:39:00Z,61.78,-166.03,10.0,5.0,0,5,,10.0,29.71063,1006.3,,TRUE,TRUE,,,,,,,FEW,2400,SCT,11000,,,,,VFR,,,,,,,,,,,,SPECI,129.0
KONT 070439Z 26010KT 10SM SCT025 SCT045 BKN130 15/10 A2992 RMK AO2 T01500100,KONT,2023-06-07T04:39:00Z,34.05,-117.58,15.0,10.0,260,10,,10.0,29.920275,,,,TRUE,,,,,,,SCT,2500,SCT,4500,BKN,13000,,,VFR,,,,,,,,,,,,SPECI,279.0
KAVX 070439Z AUTO 24004KT 10SM SCT005 SCT023 SCT120 12/11 A2994 RMK AO2 T01170106 $,KAVX,2023-06-07T04:39:00Z,33.4,-118.42,11.7,10.6,240,4,,10.0,29.940945,,,TRUE,TRUE,TRUE,,,,,,SCT,500,SCT,2300,SCT,12000,,,VFR,,,,,,,,,,,,SPECI,482.0
K2V6 070439Z AUTO 16005KT 10SM 15/06 A3002 RMK AO2,K2V6,2023-06-07T04:39:00Z,40.1,-102.72,15.0,6.0,160,5,,10.0,30.02067,,,TRUE,TRUE,,,,,,,,,,,,,,,,,,,,,,,,,,,METAR,1257.0
CYAY 070439Z AUTO 02018G23KT 6SM -RA BR OVC004 03/03 A2987 RMK SLP120,CYAY,2023-06-07T04:39:00Z,51.38,-56.07,3.0,3.0,20,18,23,6.0,29.870079,1012.0,,TRUE,,,,,,,-RA BR,OVC,400,,,,,,,LIFR,,,,,,,,,,,,SPECI,23.0
WSSL 070438Z 27004KT 220V310 9999 VCSH FEW015 FEW018TCU SCT040 28/25 Q1011,WSSL,2023-06-07T04:38:00Z,1.42,103.87,28.0,25.0,270,4,,6.21,29.852362,,,,,,,,,,VCSH,FEW,1500,FEW,1800,SCT,4000,,,VFR,,,,,,,,,,,,SPECI,11.0
SAAR 070438Z 00000KT 0500 R20/1800D FG OVC020 18/18 Q1015,SAAR,2023-06-07T04:38:00Z,-32.92,-60.77,18.0,18.0,0,0,,0.31,29.970472,,,,,,,,,,FG,OVC,2000,,,,,,,LIFR,,,,,,,,,,,,SPECI,24.0
KSFY 070438Z AUTO 07005KT 7SM SCT050 SCT085 18/17 A2990 RMK AO2,KSFY,2023-06-07T04:38:00Z,42.05,-90.12,18.0,17.0,70,5,,7.0,29.899607,,,TRUE,TRUE,,,,,,,SCT,5000,SCT,8500,,,,,VFR,,,,,,,,,,,,SPECI,188.0
KSDB 070438Z AUTO 18012G19KT 1/4SM FG BKN002 OVC005 08/07 A2994 RMK AO2 T00780067,KSDB,2023-06-07T04:38:00Z,34.75,-118.72,7.8,6.7,180,12,19,0.25,29.940945,,,TRUE,TRUE,,,,,,FG,BKN,200,OVC,500,,,,,LIFR,,,,,,,,,,,,METAR,1377.0
KSAW 070438Z AUTO 02006KT 10SM CLR 08/01 A3002 RMK AO2 T00810007,KSAW,2023-06-07T04:38:00Z,46.35,-87.4,8.1,0.7,20,6,,10.0,30.02067,,,TRUE,TRUE,,,,,,,CLR,,,,,,,,VFR,,,,,,,,,,,,METAR,359.0
KNCA 070438Z 20004KT 2 1/2SM BR CLR 18/18 A2977 RMK AO2 T01830178,KNCA,2023-06-07T04:38:00Z,34.72,-77.45,18.3,17.8,200,4,,2.5,29.769686,,,,TRUE,,,,,,BR,CLR,,,,,,,,IFR,,,,,,,,,,,,SPECI,9.0
KFHU 070438Z AUTO 23006KT 10SM CLR 23/M02 A3001 RMK AO2 SLP098,KFHU,2023-06-07T04:38:00Z,31.58,-110.35,23.0,-2.0,230,6,,10.0,30.008858,1009.8,,TRUE,TRUE,,,,,,,CLR,,,,,,,,VFR,,,,,,,,,,,,SPECI,1424.0
KAXN 070438Z AUTO 16010KT 3SM -RA BR SCT039 BKN065 OVC110 20/18 A2993 RMK AO2 WSHFT 0422 LTG DSNT SE AND S RAB04 TSB0356E0357B04E07B08E11B12E13B16E30B35E36 P0020 T02000178,KAXN,2023-06-07T04:38:00Z,45.87,-95.4,20.0,17.8,160,10,,3.0,29.929134,,,TRUE,TRUE,,,,,,-RA BR,SCT,3900,BKN,6500,OVC,11000,,,MVFR,,,,,,0.2,,,,,,SPECI,433.0
CYMT 070438Z AUTO 36014G23KT 6SM HZ OVC140 11/01 A2978 RMK SLP096,CYMT,2023-06-07T04:38:00Z,49.77,-74.52,11.0,1.0,360,14,23,6.0,29.778543,1009.6,,TRUE,,,,,,,HZ,OVC,14000,,,,,,,VFR,,,,,,,,,,,,SPECI,388.0
CYHU 070438Z AUTO 36012G19KT 9SM -RA OVC071 13/09 A2962 RMK SLP032 DENSITY ALT 300FT,CYHU,2023-06-07T04:38:00Z,45.52,-73.42,13.0,9.0,360,12,19,9.0,29.619095,1003.2,,TRUE,,,,,,,-RA,OVC,7100,,,,,,,VFR,,,,,,,,,,,,SPECI,26.0
PAWD 070437Z AUTO 19004KT 10SM -RA SCT011 BKN026 OVC049 09/08 A2992 RMK AO2 P0001 T00940078 TSNO,PAWD,2023-06-07T04:37:00Z,60.12,-149.42,9.4,7.8,190,4,,10.0,29.920275,,,TRUE,TRUE,,,TRUE,,,-RA,SCT,1100,BKN,2600,OVC,4900,,,MVFR,,,,,,0.01,,,,,,METAR,3.0
KFLO 070437Z 34006KT 8SM -TSRA FEW050 SCT090 BKN120 20/16 A2983 RMK AO2 PK WND 26026/0404 LTG DSNT SE-W RAB09 TSE0354B0356E0358B06E08B13E16B17E19B20E22B23E24B25E26B28E32B3 7 P0000 T02000161,KFLO,2023-06-07T04:37:00Z,34.18,-79.73,20.0,16.1,340,6,,8.0,29.828741,,,,TRUE,,,,,,-TSRA,FEW,5000,SCT,9000,BKN,12000,,,VFR,,,,,,0.005,,,,,,METAR,43.0
KCQM 070437Z AUTO 00000KT 10SM SCT070 14/03 A3002 RMK AO2,KCQM,2023-06-07T04:37:00Z,47.82,-92.68,14.0,3.0,0,0,,10.0,30.02067,,,TRUE,TRUE,,,,,,,SCT,7000,,,,,,,VFR,,,,,,,,,,,,METAR,406.0
KCKC 070437Z AUTO 02004KT 10SM CLR 08/M04 A3006 RMK AO2,KCKC,2023-06-07T04:37:00Z,47.83,-90.38,8.0,-4.0,20,4,,10.0,30.059055,,,TRUE,TRUE,,,,,,,CLR,,,,,,,,VFR,,,,,,,,,,,,METAR,544.0
RJFY 070436Z 26010KT 9999 FEW035 BKN200 25/18 Q1010 RMK 1CU035 A2984,RJFY,2023-06-07T04:36:00Z,31.37,130.83,25.0,18.0,260,10,,6.21,29.822834,,,,,,,,,,,FEW,3500,BKN,20000,,,,,VFR,,,,,,,,,,,,SPECI,59.0
NZCM 070436Z AUTO 14026G36KT 9999 OVC075 M14/M19 A2879 RMK AO2 PK WND 13036/0435 WSHFT 0432 PRESFR SLP757 T11371191,NZCM,2023-06-07T04:36:00Z,-77.85,166.67,-13.7,-19.1,140,26,36,6.21,28.78937,975.7,,TRUE,TRUE,,,,,,,OVC,7500,,,,,,,VFR,,,,,,,,,,,,SPECI,24.0
KRUT 070436Z AUTO 31004KT 6SM BR FEW011 SCT017 OVC027 11/11 A2963 RMK AO2 RAB11E30 P0000 $,KRUT,2023-06-07T04:36:00Z,43.53,-72.95,11.0,11.0,310,4,,6.0,29.630905,,,TRUE,TRUE,TRUE,,,,,BR,FEW,1100,SCT,1700,OVC,2700,,,MVFR,,,,,,0.005,,,,,,METAR,238.0
KPOU 070436Z AUTO 00000KT M1/4SM FG VV004 09/09 A2964 RMK AO2 T00940089,KPOU,2023-06-07T04:36:00Z,41.63,-73.88,9.4,8.9,0,0,,0.25,29.639763,,,TRUE,TRUE,,,,,,FG,OVX,0,,,,,,,LIFR,,,,,,,,,,,400,METAR,45.0
KI69 070436Z AUTO 00000KT 10SM SCT075 SCT100 BKN120 16/15 A2987 RMK AO1 T01600145,KI69,2023-06-07T04:36:00Z,39.08,-84.22,16.0,14.5,0,0,,10.0,29.870079,,,TRUE,TRUE,,,,,,,SCT,7500,SCT,10000,BKN,12000,,,VFR,,,,,,,,,,,,METAR,238.0
KCCR 070436Z AUTO 25010KT 10SM SCT017 15/11 A2989 RMK AO2 T01500111,KCCR,2023-06-07T04:36:00Z,38.0,-122.05,15.0,11.1,250,10,,10.0,29.890747,,,TRUE,TRUE,,,,,,,SCT,1700,,,,,,,VFR,,,,,,,,,,,,METAR,6.0
KBWI 070436Z 04005KT 2SM HZ SCT035 BKN090 21/09 A2970 RMK AO2 T02060094,KBWI,2023-06-07T04:36:00Z,39.17,-76.68,20.6,9.4,40,5,,2.0,29.698818,,,,TRUE,,,,,,HZ,SCT,3500,BKN,9000,,,,,IFR,,,,,,,,,,,,METAR,42.0
KAUM 070436Z AUTO 00000KT 10SM CLR 21/18 A2992 RMK AO2,KAUM,2023-06-07T04:36:00Z,43.67,-92.92,21.0,18.0,0,0,,10.0,29.920275,,,TRUE,TRUE,,,,,,,CLR,,,,,,,,VFR,,,,,,,,,,,,SPECI,376.0
ETSN 070436Z 00000KT 0800 VCFG FEW030 09/09 Q1018 AMB AMB BECMG BLU+,ETSN,2023-06-07T04:36:00Z,48.72,11.22,9.0,9.0,0,0,,0.5,30.059055,,,,,,,,,,VCFG,FEW,3000,,,,,,,LIFR,,,,,,,,,,,,SPECI,378.0
TJPS 070435Z AUTO 06004KT 10SM 27/24 A2999 RMK AO2 TSNO,TJPS,2023-06-07T04:35:00Z,18.02,-66.57,27.0,24.0,60,4,,10.0,29.991142,,,TRUE,TRUE,,,TRUE,,,,,,,,,,,,,,,,,,,,,,,,METAR,12.0
PHSF 070435Z AUTO 28004KT 4SM BR SCT002 BKN011 OVC020 15/14 A3037 RMK AO2 SLP189 $,PHSF,2023-06-07T04:35:00Z,19.77,-155.55,15.0,14.0,280,4,,4.0,30.369095,1018.9,,TRUE,TRUE,TRUE,,,,,BR,SCT,200,BKN,1100,OVC,2000,,,MVFR,,,,,,,,,,,,SPECI,1863.0
PAPM 070435Z AUTO 12015KT 10SM OVC010 09/07 A2968 RMK AO2,PAPM,2023-06-07T04:35:00Z,59.02,-161.82,9.0,7.0,120,15,,10.0,29.681103,,,TRUE,TRUE,,,,,,,OVC,1000,,,,,,,MVFR,,,,,,,,,,,,METAR,4.0
PAKX 070435Z AUTO 21003KT 10SM OVC060 11/05 A2980 RMK AO2,PAKX,2023-06-07T04:35:00Z,60.2,-154.32,11.0,5.0,210,3,,10.0,29.799213,,,TRUE,TRUE,,,,,,,OVC,6000,,,,,,,VFR,,,,,,,,,,,,METAR,88.0
PAAD 070435Z 07012KT 10SM CLR 00/M01 A2999 RMK AO2 T00031010 PWINO,PAAD,2023-06-07T04:35:00Z,70.13,-146.28,0.3,-1.0,70,12,,10.0,29.991142,,,,TRUE,,,,,TRUE,,CLR,,,,,,,,VFR,,,,,,,,,,,,METAR,8.0
KZPH 070435Z AUTO 14003KT 10SM CLR 23/19 A2992 RMK A02 T02260193,KZPH,2023-06-07T04:35:00Z,28.23,-82.15,22.6,19.3,140,3,,10.0,29.920275,,,TRUE,TRUE,,,,,,,CLR,,,,,,,,VFR,,,,,,,,,,,,METAR,26.0
KZER 070435Z AUTO 01006KT 5SM HZ CLR 13/05 A2974 RMK AO2,KZER,2023-06-07T04:35:00Z,40.7,-76.37,13.0,5.0,10,6,,5.0,29.740158,,,TRUE,TRUE,,,,,,HZ,CLR,,,,,,,,MVFR,,,,,,,,,,,,SPECI,518.0
KY70 070435Z AUTO 07004KT 10SM CLR 14/04 A2992 RMK AO2 T01400035,KY70,2023-06-07T04:35:00Z,42.93,-85.07,14.0,3.5,70,4,,10.0,29.920275,,,TRUE,TRUE,,,,,,,CLR,,,,,,,,VFR,,,,,,,,,,,,METAR,247.0
KY63 070435Z AUTO 13012G16KT 10SM -RA SCT075 OVC120 22/19 A2989 RMK AO2 LTG DSNT NW THRU E T02150190,KY63,2023-06-07T04:35:00Z,45.98,-96.0,21.5,19.0,130,12,16,10.0,29.890747,,,TRUE,TRUE,,,,,,-RA,SCT,7500,OVC,12000,,,,,VFR,,,,,,,,,,,,METAR,367.0
KY51 070435Z AUTO 11005KT 10SM CLR 19/17 A2994 RMK AO1 T01880167,KY51,2023-06-07T04:35:00Z,43.58,-90.9,18.8,16.7,110,5,,10.0,29.940945,,,TRUE,TRUE,,,,,,,CLR,,,,,,,,VFR,,,,,,,,,,,,METAR,390.0
KY49 070435Z AUTO 13005KT 10SM CLR 18/12 A2996 RMK AO2 T01770124,KY49,2023-06-07T04:35:00Z,47.15,-94.65,17.7,12.4,130,5,,10.0,29.958662,,,TRUE,TRUE,,,,,,,CLR,,,,,,,,VFR,,,,,,,,,,,,METAR,413.0
KY23 070435Z AUTO 04005KT 10SM CLR 19/13 A2997 RMK AO2 T01910125,KY23,2023-06-07T04:35:00Z,45.3,-91.63,19.1,12.5,40,5,,10.0,29.970472,,,TRUE,TRUE,,,,,,,CLR,,,,,,,,VFR,,,,,,,,,,,,METAR,322.0
KY19 070435Z AUTO 16005KT 10SM CLR 23/17 A2989 RMK AO2,KY19,2023-06-07T04:35:00Z,46.77,-100.9,23.0,17.0,160,5,,10.0,29.890747,,,TRUE,TRUE,,,,,,,CLR,,,,,,,,VFR,,,,,,,,,,,,METAR,591.0
KXSA 070435Z AUTO 25004KT 10SM CLR 17/13 A2971 RMK AO2 T01690127,KXSA,2023-06-07T04:35:00Z,37.87,-76.9,16.9,12.7,250,4,,10.0,29.71063,,,TRUE,TRUE,,,,,,,CLR,,,,,,,,VFR,,,,,,,,,,,,SPECI,41.0
KXLL 070435Z AUTO 28003KT 5SM HZ CLR 16/06 A2971 RMK AO2,KXLL,2023-06-07T04:35:00Z,40.57,-75.48,16.0,6.0,280,3,,5.0,29.71063,,,TRUE,TRUE,,,,,,HZ,CLR,,,,,,,,MVFR,,,,,,,,,,,,SPECI,118.0
KX60 070435Z AUTO 00000KT 22/19 A2991 RMK AO2,KX60,2023-06-07T04:35:00Z,29.35,-82.47,22.0,19.0,0,0,,,29.911417,,,TRUE,TRUE,,,,,,,,,,,,,,,,,,,,,,,,,,,SPECI,21.0
KX07 070435Z AUTO 11004KT 10SM CLR 23/21 A2992 RMK A01,KX07,2023-06-07T04:35:00Z,27.9,-81.62,23.0,21.0,110,4,,10.0,29.920275,,,TRUE,TRUE,,,,,,,CLR,,,,,,,,VFR,,,,,,,,,,,,METAR,36.0
KWYS 070435Z AUTO VRB05KT 10SM BKN120 12/10 A3011 RMK AO2,KWYS,2023-06-07T04:35:00Z,44.68,-111.12,12.0,10.0,0,5,,10.0,30.109253,,,TRUE,TRUE,,,,,,,BKN,12000,,,,,,,VFR,,,,,,,,,,,,METAR,2025.0
KWWR 070435Z AUTO 21004KT 10SM CLR 16/13 A3001 RMK AO2 LTG DSNT W,KWWR,2023-06-07T04:35:00Z,36.45,-99.52,16.0,13.0,210,4,,10.0,30.008858,,,TRUE,TRUE,,,,,,,CLR,,,,,,,,VFR,,,,,,,,,,,,METAR,664.0
KWDR 070435Z AUTO 00000KT 10SM CLR 22/16 A2987 RMK AO2 LTG DSNT SE,KWDR,2023-06-07T04:35:00Z,33.98,-83.67,22.0,16.0,0,0,,10.0,29.870079,,,TRUE,TRUE,,,,,,,CLR,,,,,,,,VFR,,,,,,,,,,,,SPECI,280.0
KWDG 070435Z AUTO 00000KT 10SM CLR 19/17 A2993 RMK AO2 LTG DSNT W,KWDG,2023-06-07T04:35:00Z,36.37,-97.78,19.0,17.0,0,0,,10.0,29.929134,,,TRUE,TRUE,,,,,,,CLR,,,,,,,,VFR,,,,,,,,,,,,METAR,352.0
KW96 070435Z AUTO 00000KT 10SM CLR 17/13 A2972 RMK AO1 T01650132,KW96,2023-06-07T04:35:00Z,37.5,-77.12,16.5,13.2,0,0,,10.0,29.719488,,,TRUE,TRUE,,,,,,,CLR,,,,,,,,VFR,,,,,,,,,,,,METAR,35.0
KW81 070435Z AUTO 30005KT 10SM CLR 19/10 A2976 RMK AO1 T01910097,KW81,2023-06-07T04:35:00Z,37.18,-78.1,19.1,9.7,300,5,,10.0,29.760826,,,TRUE,TRUE,,,,,,,CLR,,,,,,,,VFR,,,,,,,,,,,,METAR,121.0
KW78 070435Z AUTO 00000KT 10SM CLR 16/14 A2978 RMK AO1 T01570137,KW78,2023-06-07T04:35:00Z,36.7,-78.85,15.7,13.7,0,0,,10.0,29.778543,,,TRUE,TRUE,,,,,,,CLR,,,,,,,,VFR,,,,,,,,,,,,METAR,120.0
KW75 070435Z AUTO 25004KT 10SM CLR 20/12 A2970 RMK AO1 T01970123,KW75,2023-06-07T04:35:00Z,37.6,-76.45,19.7,12.3,250,4,,10.0,29.698818,,,TRUE,TRUE,,,,,,,CLR,,,,,,,,VFR,,,,,,,,,,,,SPECI,8.0
KW63 070435Z AUTO 00000KT 10SM CLR 20/12 A2977 RMK AO1,KW63,2023-06-07T04:35:00Z,36.6,-78.55,20.0,12.0,0,0,,10.0,29.769686,,,TRUE,TRUE,,,,,,,CLR,,,,,,,,VFR,,,,,,,,,,,,SPECI,126.0
KW31 070435Z AUTO 24004KT 10SM CLR 20/13 A2975 RMK AO1 T01960130,KW31,2023-06-07T04:35:00Z,36.95,-78.18,19.6,13.0,240,4,,10.0,29.749016,,,TRUE,TRUE,,,,,,,CLR,,,,,,,,VFR,,,,,,,,,,,,SPECI,159.0
KW22 070435Z AUTO 00000KT 10SM FEW045 SCT060 BKN070 16/13 A2981 RMK AO2,KW22,2023-06-07T04:35:00Z,39.0,-80.27,16.0,13.0,0,0,,10.0,29.811024,,,TRUE,TRUE,,,,,,,FEW,4500,SCT,6000,BKN,7000,,,VFR,,,,,,,,,,,,SPECI,497.0
KW13 070435Z AUTO 23004KT 10SM CLR 18/10 A2980 RMK AO1 T01750095,KW13,2023-06-07T04:35:00Z,38.08,-78.95,17.5,9.5,230,4,,10.0,29.799213,,,TRUE,TRUE,,,,,,,CLR,,,,,,,,VFR,,,,,,,,,,,,SPECI,440.0
KVYS 070435Z AUTO 08008KT 10SM BKN055 BKN085 OVC100 19/14 A2991 RMK AO2 P0001 T01850137,KVYS,2023-06-07T04:35:00Z,41.35,-89.15,18.5,13.7,80,8,,10.0,29.911417,,,TRUE,TRUE,,,,,,,BKN,5500,BKN,8500,OVC,10000,,,VFR,,,,,,0.01,,,,,,SPECI,198.0
KVWU 070435Z AUTO 00000KT 10SM CLR 19/13 A2994 RMK AO2,KVWU,2023-06-07T04:35:00Z,48.15,-94.52,19.0,13.0,0,0,,10.0,29.940945,,,TRUE,TRUE,,,,,,,CLR,,,,,,,,VFR,,,,,,,,,,,,METAR,359.0
KVTP 070435Z AUTO 26013G18KT 10SM CLR 05/02 A3033 RMK AO2,KVTP,2023-06-07T04:35:00Z,37.5,-105.17,5.0,2.0,260,13,18,10.0,30.33071,,,TRUE,TRUE,,,,,,,CLR,,,,,,,,VFR,,,,,,,,,,,,METAR,3086.0
KVTI 070435Z AUTO 00000KT 2SM BR CLR 19/19 A2990 RMK AO2 T01900190,KVTI,2023-06-07T04:35:00Z,42.22,-92.02,19.0,19.0,0,0,,2.0,29.899607,,,TRUE,TRUE,,,,,,BR,CLR,,,,,,,,IFR,,,,,,,,,,,,SPECI,256.0
KVQQ 070435Z AUTO 00000KT 10SM FEW080 SCT095 BKN120 22/22 A2990 RMK AO2,KVQQ,2023-06-07T04:35:00Z,30.22,-81.88,22.0,22.0,0,0,,10.0,29.899607,,,TRUE,TRUE,,,,,,,FEW,8000,SCT,9500,BKN,12000,,,VFR,,,,,,,,,,,,METAR,21.0
KVPC 070435Z AUTO 00000KT 10SM SCT047 BKN055 21/20 A2987 RMK AO2,KVPC,2023-06-07T04:35:00Z,34.1,-84.85,21.0,20.0,0,0,,10.0,29.870079,,,TRUE,TRUE,,,,,,,SCT,4700,BKN,5500,,,,,VFR,,,,,,,,,,,,SPECI,234.0
KVOA 070435Z AUTO VRB05KT 10SM CLR 26/21 A2989 RMK A01,KVOA,2023-06-07T04:35:00Z,29.23,-87.78,26.0,21.0,0,5,,10.0,29.890747,,,TRUE,TRUE,,,,,,,CLR,,,,,,,,VFR,,,,,,,,,,,,METAR,53.0
KVNW 070435Z AUTO 03004KT 10SM SCT055 SCT070 17/09 A2988 RMK AO2,KVNW,2023-06-07T04:35:00Z,40.87,-84.62,17.0,9.0,30,4,,10.0,29.878937,,,TRUE,TRUE,,,,,,,SCT,5500,SCT,7000,,,,,VFR,,,,,,,,,,,,METAR,238.0
KVNC 070435Z AUTO 07004KT 10SM CLR 24/24 A2991 RMK AO2,KVNC,2023-06-07T04:35:00Z,27.07,-82.43,24.0,24.0,70,4,,10.0,29.911417,,,TRUE,TRUE,,,,,,,CLR,,,,,,,,VFR,,,,,,,,,,,,METAR,4.0
KVLL 070435Z AUTO 35004KT 10SM CLR 15/03 A2991 RMK AO2 T01470025,KVLL,2023-06-07T04:35:00Z,42.55,-83.18,14.7,2.5,350,4,,10.0,29.911417,,,TRUE,TRUE,,,,,,,CLR,,,,,,,,VFR,,,,,,,,,,,,METAR,214.0
KVKY 070435Z AUTO 00000KT 10SM CLR A2990 RMK A01,KVKY,2023-06-07T04:35:00Z,29.25,-88.43,,,0,0,,10.0,29.899607,,,TRUE,TRUE,,,,,,,CLR,,,,,,,,VFR,,,,,,,,,,,,METAR,32.0
KVKS 070435Z AUTO 17004KT 10SM CLR 22/M38 A2987 RMK A01,KVKS,2023-06-07T04:35:00Z,32.23,-90.93,22.0,-38.0,170,4,,10.0,29.870079,,,TRUE,TRUE,,,,,,,CLR,,,,,,,,VFR,,,,,,,,,,,,METAR,31.0
KVHN 070435Z AUTO 02010KT 10SM SCT120 18/13 A3010 RMK AO2 LTG DSNT NE T01830134,KVHN,2023-06-07T04:35:00Z,31.07,-104.78,18.3,13.4,20,10,,10.0,30.100393,,,TRUE,TRUE,,,,,,,SCT,12000,,,,,,,VFR,,,,,,,,,,,,SPECI,1200.0
KVGC 070435Z AUTO 00000KT 1/2SM FG VV005 07/ A2972 RMK AO2,KVGC,2023-06-07T04:35:00Z,42.85,-75.57,7.0,,0,0,,0.5,29.719488,,,TRUE,TRUE,,,,,,FG,OVX,0,,,,,,,LIFR,,,,,,,,,,,500,METAR,346.0
KVER 070435Z AUTO 00000KT 10SM CLR 21/14 A2991 RMK AO2 T02130142,KVER,2023-06-07T04:35:00Z,38.95,-92.68,21.3,14.2,0,0,,10.0,29.911417,,,TRUE,TRUE,,,,,,,CLR,,,,,,,,VFR,,,,,,,,,,,,SPECI,209.0
KVDI 070435Z AUTO 24007KT 10SM CLR 25/18 A2986 RMK AO2,KVDI,2023-06-07T04:35:00Z,32.2,-82.37,25.0,18.0,240,7,,10.0,29.861221,,,TRUE,TRUE,,,,,,,CLR,,,,,,,,VFR,,,,,,,,,,,,METAR,81.0
KVDF 070435Z AUTO 00000KT 10SM CLR 23/21 A2991 RMK AO2,KVDF,2023-06-07T04:35:00Z,28.02,-82.33,23.0,21.0,0,0,,10.0,29.911417,,,TRUE,TRUE,,,,,,,CLR,,,,,,,,VFR,,,,,,,,,,,,METAR,5.0
KVCV 070435Z AUTO 19016KT 10SM SCT110 15/06 A2989 RMK AO2,KVCV,2023-06-07T04:35:00Z,34.58,-117.38,15.0,6.0,190,16,,10.0,29.890747,,,TRUE,TRUE,,,,,,,SCT,11000,,,,,,,VFR,,,,,,,,,,,,METAR,871.0
KVBW 070435Z AUTO 00000KT 10SM CLR 16/11 A2978 RMK AO1 T01640106,KVBW,2023-06-07T04:35:00Z,38.37,-78.97,16.4,10.6,0,0,,10.0,29.778543,,,TRUE,TRUE,,,,,,,CLR,,,,,,,,VFR,,,,,,,,,,,,SPECI,362.0
KVAF 070435Z AUTO 08006KT 10SM CLR 26/19 A2989 RMK A01,KVAF,2023-06-07T04:35:00Z,27.35,-94.63,26.0,19.0,80,6,,10.0,29.890747,,,TRUE,TRUE,,,,,,,CLR,,,,,,,,VFR,,,,,,,,,,,,METAR,38.0
KUYF 070435Z AUTO 35003KT 10SM CLR 16/10 A2986 RMK AO2,KUYF,2023-06-07T04:35:00Z,39.93,-83.47,16.0,10.0,350,3,,10.0,29.861221,,,TRUE,TRUE,,,,,,,CLR,,,,,,,,VFR,,,,,,,,,,,,SPECI,326.0
KUXL 070435Z AUTO 00000KT 10SM CLR 22/21 A2987 RMK AO2 T02240209,KUXL,2023-06-07T04:35:00Z,30.13,-93.38,22.4,20.9,0,0,,10.0,29.870079,,,TRUE,TRUE,,,,,,,CLR,,,,,,,,VFR,,,,,,,,,,,,SPECI,2.0
KUVA 070435Z AUTO 00000KT 22/22 A2992 RMK AO2 T02200220 PWINO,KUVA,2023-06-07T04:35:00Z,29.22,-99.75,22.0,22.0,0,0,,,29.920275,,,TRUE,TRUE,,,,,TRUE,,,,,,,,,,,,,,,,,,,,,,METAR,285.0
KUUV 070435Z AUTO 00000KT 10SM CLR 20/11 A2993 RMK AO2,KUUV,2023-06-07T04:35:00Z,38.23,-91.17,20.0,11.0,0,0,,10.0,29.929134,,,TRUE,TRUE,,,,,,,CLR,,,,,,,,VFR,,,,,,,,,,,,SPECI,284.0
KUTA 070435Z AUTO 34003KT 10SM CLR 21/21 A2988 RMK AO2 T02120212 $,KUTA,2023-06-07T04:35:00Z,34.68,-90.35,21.2,21.2,340,3,,10.0,29.878937,,,TRUE,TRUE,TRUE,,,,,,CLR,,,,,,,,VFR,,,,,,,,,,,,METAR,58.0
KUSE 070435Z AUTO 02006KT 10SM CLR 13/05 A2990 RMK AO2,KUSE,2023-06-07T04:35:00Z,41.62,-84.13,13.0,5.0,20,6,,10.0,29.899607,,,TRUE,TRUE,,,,,,,CLR,,,,,,,,VFR,,,,,,,,,,,,METAR,237.0
KUOX 070435Z AUTO 00000KT 10SM CLR 20/19 A2990 RMK AO2,KUOX,2023-06-07T04:35:00Z,34.38,-89.53,20.0,19.0,0,0,,10.0,29.899607,,,TRUE,TRUE,,,,,,,CLR,,,,,,,,VFR,,,,,,,,,,,,METAR,123.0
KUNV 070435Z AUTO 00000KT 7SM SCT070 SCT100 15/04 A2976 RMK AO2 T01450038,KUNV,2023-06-07T04:35:00Z,40.85,-77.83,14.5,3.8,0,0,,7.0,29.760826,,,TRUE,TRUE,,,,,,,SCT,7000,SCT,10000,,,,,VFR,,,,,,,,,,,,SPECI,365.0
KUNU 070435Z AUTO 00000KT 10SM CLR 15/05 A2997 RMK AO2 T01460045,KUNU,2023-06-07T04:35:00Z,43.42,-88.7,14.6,4.5,0,0,,10.0,29.970472,,,TRUE,TRUE,,,,,,,CLR,,,,,,,,VFR,,,,,,,,,,,,METAR,281.0
KUNI 070435Z AUTO 30003KT 10SM CLR 18/13 A2983 RMK AO2 T01840125,KUNI,2023-06-07T04:35:00Z,39.22,-82.23,18.4,12.5,300,3,,10.0,29.828741,,,TRUE,TRUE,,,,,,,CLR,,,,,,,,VFR,,,,,,,,,,,,SPECI,232.0
KUMP 070435Z AUTO 00000KT 10SM BKN065 BKN070 OVC090 20/15 A2988 RMK AO2 T01950151,KUMP,2023-06-07T04:35:00Z,39.93,-86.05,19.5,15.1,0,0,,10.0,29.878937,,,TRUE,TRUE,,,,,,,BKN,6500,BKN,7000,OVC,9000,,,VFR,,,,,,,,,,,,METAR,247.0
KULM 070435Z AUTO 09005KT 10SM CLR 24/16 A2989 RMK AO2,KULM,2023-06-07T04:35:00Z,44.32,-94.5,24.0,16.0,90,5,,10.0,29.890747,,,TRUE,TRUE,,,,,,,CLR,,,,,,,,VFR,,,,,,,,,,,,METAR,305.0
KUKT 070435Z AUTO 01005KT 5SM HZ CLR 16/07 A2970 RMK A01,KUKT,2023-06-07T04:35:00Z,40.43,-75.38,16.0,7.0,10,5,,5.0,29.698818,,,TRUE,TRUE,,,,,,HZ,CLR,,,,,,,,MVFR,,,,,,,,,,,,METAR,156.0
KUKL 070435Z AUTO 24004KT 10SM CLR 19/16 A2994 RMK AO2 T01930156,KUKL,2023-06-07T04:35:00Z,38.3,-95.73,19.3,15.6,240,4,,10.0,29.940945,,,TRUE,TRUE,,,,,,,CLR,,,,,,,,VFR,,,,,,,,,,,,SPECI,357.0
KUES 070435Z AUTO 05004KT 10SM CLR 13/02 A2996 RMK AO2,KUES,2023-06-07T04:35:00Z,43.05,-88.25,13.0,2.0,50,4,,10.0,29.958662,,,TRUE,TRUE,,,,,,,CLR,,,,,,,,VFR,,,,,,,,,,,,METAR,273.0
KUCY 070435Z AUTO 00000KT 10SM 18/18 A2986 RMK A01,KUCY,2023-06-07T04:35:00Z,36.38,-88.98,18.0,18.0,0,0,,10.0,29.861221,,,TRUE,TRUE,,,,,,,,,,,,,,,,,,,,,,,,,,,METAR,97.0
KUBE 070435Z AUTO 04007KT 10SM SCT070 16/12 A2998 RMK AO2,KUBE,2023-06-07T04:35:00Z,45.5,-91.98,16.0,12.0,40,7,,10.0,29.97933,,,TRUE,TRUE,,,,,,,SCT,7000,,,,,,,VFR,,,,,,,,,,,,METAR,376.0
KU64 070435Z AUTO 15015KT 10SM BKN120 14/04 A3011 RMK AO2 T01410040 $,KU64,2023-06-07T04:35:00Z,,,14.1,4.0,150,15,,10.0,30.109253,,,TRUE,TRUE,TRUE,,,,,,BKN,12000,,,,,,,VFR,,,,,,,,,,,,METAR,
KU55 070435Z AUTO 10011KT 10SM FEW055 SCT075 BKN095 18/M04 A3004 RMK A01,KU55,2023-06-07T04:35:00Z,37.85,-112.38,18.0,-4.0,100,11,,10.0,30.041338,,,TRUE,TRUE,,,,,,,FEW,5500,SCT,7500,BKN,9500,,,VFR,,,,,,,,,,,,METAR,2060.0
KU42 070435Z AUTO 00000KT 10SM SCT110 20/06 A2995 RMK AO1 T02000057,KU42,2023-06-07T04:35:00Z,40.62,-111.98,20.0,5.7,0,0,,10.0,29.949802,,,TRUE,TRUE,,,,,,,SCT,11000,,,,,,,VFR,,,,,,,,,,,,METAR,1399.0
KTZR 070435Z AUTO 35004KT 10SM CLR 15/12 A2986 RMK AO2 T01470120,KTZR,2023-06-07T04:35:00Z,39.9,-83.13,14.7,12.0,350,4,,10.0,29.861221,,,TRUE,TRUE,,,,,,,CLR,,,,,,,,VFR,,,,,,,,,,,,SPECI,275.0
KTYQ 070435Z AUTO 00000KT 10SM OVC110 19/13 A2989 RMK AO2 T01860132,KTYQ,2023-06-07T04:35:00Z,40.03,-86.25,18.6,13.2,0,0,,10.0,29.890747,,,TRUE,TRUE,,,,,,,OVC,11000,,,,,,,VFR,,,,,,,,,,,,SPECI,279.0
KTYL 070435Z AUTO 26005KT 10SM CLR 14/M08 A3003 RMK AO2,KTYL,2023-06-07T04:35:00Z,34.45,-110.12,14.0,-8.0,260,5,,10.0,30.029528,,,TRUE,TRUE,,,,,,,CLR,,,,,,,,VFR,,,,,,,,,,,,METAR,1748.0
KTWT 070435Z AUTO 00000KT 10SM CLR 19/15 A2987 RMK AO2,KTWT,2023-06-07T04:35:00Z,37.55,-87.95,19.0,15.0,0,0,,10.0,29.870079,,,TRUE,TRUE,,,,,,,CLR,,,,,,,,VFR,,,,,,,,,,,,METAR,113.0
KTWM 070435Z AUTO 05003KT 10SM SCT070 120 11/01 A3003 RMK AO2,KTWM,2023-06-07T04:35:00Z,47.05,-91.75,11.0,1.0,50,3,,10.0,30.029528,,,TRUE,TRUE,,,,,,,SCT,7000,,,,,,,VFR,,,,,,,,,,,,METAR,331.0
KTVY 070435Z AUTO 12005G15KT 10SM CLR 22/00 A2990 RMK AO2,KTVY,2023-06-07T04:35:00Z,40.62,-112.35,22.0,0.0,120,5,15,10.0,29.899607,,,TRUE,TRUE,,,,,,,CLR,,,,,,,,VFR,,,,,,,,,,,,METAR,1310.0
KTVK 070435Z AUTO 00000KT 10SM CLR 21/17 A2991 RMK AO2,KTVK,2023-06-07T04:35:00Z,40.68,-92.9,21.0,17.0,0,0,,10.0,29.911417,,,TRUE,TRUE,,,,,,,CLR,,,,,,,,VFR,,,,,,,,,,,,SPECI,311.0
KTVI 070435Z AUTO 00000KT 10SM CLR 21/21 A2992 RMK AO2,KTVI,2023-06-07T04:35:00Z,30.9,-83.88,21.0,21.0,0,0,,10.0,29.920275,,,TRUE,TRUE,,,,,,,CLR,,,,,,,,VFR,,,,,,,,,,,,SPECI,74.0
KTTS 070435Z AUTO 16004KT 3SM HZ CLR 23/20 A2990 RMK AO2 SLP129 $,KTTS,2023-06-07T04:35:00Z,28.58,-80.67,23.0,20.0,160,4,,3.0,29.899607,1012.9,,TRUE,TRUE,TRUE,,,,,HZ,CLR,,,,,,,,MVFR,,,,,,,,,,,,SPECI,1.0
KTTF 070435Z AUTO 00000KT 7SM CLR 14/01 A2988 RMK AO2 T01400010,KTTF,2023-06-07T04:35:00Z,41.93,-83.42,14.0,1.0,0,0,,7.0,29.878937,,,TRUE,TRUE,,,,,,,CLR,,,,,,,,VFR,,,,,,,,,,,,METAR,186.0
KTSP 070435Z AUTO 28008KT 9SM OVC010 12/11 A2992 RMK AO2,KTSP,2023-06-07T04:35:00Z,35.13,-118.43,12.0,11.0,280,8,,9.0,29.920275,,,TRUE,TRUE,,,,,,,OVC,1000,,,,,,,MVFR,,,,,,,,,,,,METAR,1209.0
KTQV 070435Z AUTO 30005KT 10SM CLR 21/10 A2979 RMK A01,KTQV,2023-06-07T04:35:00Z,36.0,-78.93,21.0,10.0,300,5,,10.0,29.790354,,,TRUE,TRUE,,,,,,,CLR,,,,,,,,VFR,,,,,,,,,,,,METAR,230.0
KTQK 070435Z AUTO 16008KT 10SM CLR 18/15 A3000 RMK AO2 T01850152,KTQK,2023-06-07T04:35:00Z,38.47,-100.88,18.5,15.2,160,8,,10.0,30.0,,,TRUE,TRUE,,,,,,,CLR,,,,,,,,VFR,,,,,,,,,,,,SPECI,906.0
KTQH 070435Z AUTO 00000KT 2 1/2SM BR CLR 20/17 A2995 RMK AO2 VIS 1/2V5,KTQH,2023-06-07T04:35:00Z,35.93,-95.0,20.0,17.0,0,0,,2.5,29.949802,,,TRUE,TRUE,,,,,,BR,CLR,,,,,,,,IFR,,,,,,,,,,,,METAR,265.0
KTPF 070435Z AUTO 17006KT 10SM BKN110 26/21 A2991 RMK AO2,KTPF,2023-06-07T04:35:00Z,27.92,-82.45,26.0,21.0,170,6,,10.0,29.911417,,,TRUE,TRUE,,,,,,,BKN,11000,,,,,,,VFR,,,,,,,,,,,,SPECI,1.0
KTOC 070435Z AUTO 29004KT 10SM CLR 22/15 A2986 RMK AO2 T02160145,KTOC,2023-06-07T04:35:00Z,34.6,-83.3,21.6,14.5,290,4,,10.0,29.861221,,,TRUE,TRUE,,,,,,,CLR,,,,,,,,VFR,,,,,,,,,,,,SPECI,292.0
KTOB 070435Z AUTO 05003KT 10SM CLR 21/16 A2993 RMK AO2,KTOB,2023-06-07T04:35:00Z,44.02,-92.82,21.0,16.0,50,3,,10.0,29.929134,,,TRUE,TRUE,,,,,,,CLR,,,,,,,,VFR,,,,,,,,,,,,SPECI,394.0
KTNU 070435Z AUTO 00000KT 5SM BR SCT085 SCT110 20/20 A2988 RMK A01,KTNU,2023-06-07T04:35:00Z,41.67,-93.02,20.0,20.0,0,0,,5.0,29.878937,,,TRUE,TRUE,,,,,,BR,SCT,8500,SCT,11000,,,,,MVFR,,,,,,,,,,,,SPECI,287.0
KTNB 070435Z AUTO 00000KT 7SM CLR 10/10 A2995 RMK AO2 T01010100,KTNB,2023-06-07T04:35:00Z,36.2,-81.65,10.1,10.0,0,0,,7.0,29.949802,,,TRUE,TRUE,,,,,,,CLR,,,,,,,,VFR,,,,,,,,,,,,METAR,958.0
KTMT 070435Z AUTO 05003KT 10SM SCT110 15/04 A2997 RMK AO2 LTG DSNT W T01450044,KTMT,2023-06-07T04:35:00Z,39.47,-117.2,14.5,4.4,50,3,,10.0,29.970472,,,TRUE,TRUE,,,,,,,SCT,11000,,,,,,,VFR,,,,,,,,,,,,METAR,1748.0
KTMK 070435Z AUTO 26004KT 10SM CLR 13/09 A2979 RMK AO2,KTMK,2023-06-07T04:35:00Z,45.42,-123.82,13.0,9.0,260,4,,10.0,29.790354,,,TRUE,TRUE,,,,,,,CLR,,,,,,,,VFR,,,,,,,,,,,,METAR,8.0
KTME 070435Z AUTO 00000KT 6SM BR CLR 22/22 A2990 RMK AO2,KTME,2023-06-07T04:35:00Z,29.8,-95.9,22.0,22.0,0,0,,6.0,29.899607,,,TRUE,TRUE,,,,,,BR,CLR,,,,,,,,VFR,,,,,,,,,,,,METAR,49.0
KTMA 070435Z AUTO 00000KT 10SM CLR 23/20 A2991 RMK AO2 T02340205 $,KTMA,2023-06-07T04:35:00Z,31.43,-83.48,23.4,20.5,0,0,,10.0,29.911417,,,TRUE,TRUE,TRUE,,,,,,CLR,,,,,,,,VFR,,,,,,,,,,,,METAR,105.0
KTKX 070435Z AUTO 24003KT 6SM HZ CLR 20/15 A2987 RMK AO2,KTKX,2023-06-07T04:35:00Z,36.22,-90.03,20.0,15.0,240,3,,6.0,29.870079,,,TRUE,TRUE,,,,,,HZ,CLR,,,,,,,,VFR,,,,,,,,,,,,METAR,73.0
KTKV 070435Z AUTO 10004KT 10SM CLR 15/04 A3002 RMK AO2 T01520043 PWINO,KTKV,2023-06-07T04:35:00Z,45.47,-89.82,15.2,4.3,100,4,,10.0,30.02067,,,TRUE,TRUE,,,,,TRUE,,CLR,,,,,,,,VFR,,,,,,,,,,,,METAR,449.0
KTKC 070435Z AUTO 14006KT 10SM CLR 24/17 A2989 RMK AO2,KTKC,2023-06-07T04:35:00Z,44.25,-95.62,24.0,17.0,140,6,,10.0,29.890747,,,TRUE,TRUE,,,,,,,CLR,,,,,,,,VFR,,,,,,,,,,,,METAR,408.0
KTIP 070435Z AUTO 06004KT 7SM -RA BKN070 BKN080 OVC120 19/16 A2990 RMK AO2 T01920155,KTIP,2023-06-07T04:35:00Z,40.28,-88.15,19.2,15.5,60,4,,7.0,29.899607,,,TRUE,TRUE,,,,,,-RA,BKN,7000,BKN,8000,OVC,12000,,,VFR,,,,,,,,,,,,SPECI,224.0
KTIF 070435Z AUTO 20007KT 10SM CLR 20/14 A2998 RMK AO2 T01960136,KTIF,2023-06-07T04:35:00Z,41.97,-100.57,19.6,13.6,200,7,,10.0,29.97933,,,TRUE,TRUE,,,,,,,CLR,,,,,,,,VFR,,,,,,,,,,,,SPECI,888.0
KTHA 070435Z AUTO 00000KT 10SM FEW033 SCT039 BKN048 17/14 A2989 RMK A01,KTHA,2023-06-07T04:35:00Z,35.38,-86.25,17.0,14.0,0,0,,10.0,29.890747,,,TRUE,TRUE,,,,,,,FEW,3300,SCT,3900,BKN,4800,,,VFR,,,,,,,,,,,,METAR,333.0
KTEX 070435Z AUTO 12008KT 10SM -RA BKN070 BKN085 06/03 A3032 RMK AO2 LTG DSNT W,KTEX,2023-06-07T04:35:00Z,37.95,-107.9,6.0,3.0,120,8,,10.0,30.318897,,,TRUE,TRUE,,,,,,-RA,BKN,7000,BKN,8500,,,,,VFR,,,,,,,,,,,,METAR,2760.0
KTEW 070435Z AUTO 00000KT 10SM CLR 12/04 A2992 RMK AO2 T01150042,KTEW,2023-06-07T04:35:00Z,42.57,-84.42,11.5,4.2,0,0,,10.0,29.920275,,,TRUE,TRUE,,,,,,,CLR,,,,,,,,VFR,,,,,,,,,,,,METAR,281.0
KTCY 070435Z AUTO 34009KT 10SM CLR 17/12 A2984 RMK A01,KTCY,2023-06-07T04:35:00Z,37.68,-121.43,17.0,12.0,340,9,,10.0,29.840551,,,TRUE,TRUE,,,,,,,CLR,,,,,,,,VFR,,,,,,,,,,,,METAR,51.0
KTBX 070435Z AUTO 10SM CLR 12/06 A3022 RMK AO2,KTBX,2023-06-07T04:35:00Z,43.47,-108.23,12.0,6.0,,,,10.0,30.221457,,,TRUE,TRUE,,,,,,,CLR,,,,,,,,VFR,,,,,,,,,,,,METAR,2230.0
KTBR 070435Z AUTO 22003KT 10SM CLR 21/17 A2984 RMK AO2 LTG DSNT NE T02120170 PWINO,KTBR,2023-06-07T04:35:00Z,32.48,-81.73,21.2,17.0,220,3,,10.0,29.840551,,,TRUE,TRUE,,,,,TRUE,,CLR,,,,,,,,VFR,,,,,,,,,,,,SPECI,54.0
KTAZ 070435Z AUTO 09003KT 10SM BKN090 OVC110 23/13 A2988 RMK AO2 T02320131,KTAZ,2023-06-07T04:35:00Z,39.53,-89.33,23.2,13.1,90,3,,10.0,29.878937,,,TRUE,TRUE,,,,,,,BKN,9000,OVC,11000,,,,,VFR,,,,,,,,,,,,SPECI,188.0
KT89 070435Z AUTO 14004KT 10SM CLR 27/14 A2994 RMK A01,KT89,2023-06-07T04:35:00Z,29.27,-103.68,27.0,14.0,140,4,,10.0,29.940945,,,TRUE,TRUE,,,,,,,CLR,,,,,,,,VFR,,,,,,,,,,,,METAR,801.0
KT82 070435Z AUTO 00000KT 10SM CLR 20/18 A2995 RMK AO2 T02010176,KT82,2023-06-07T04:35:00Z,30.25,-98.92,20.1,17.6,0,0,,10.0,29.949802,,,TRUE,TRUE,,,,,,,CLR,,,,,,,,VFR,,,,,,,,,,,,METAR,509.0
KT78 070435Z AUTO 00000KT 5SM BR CLR 20/20 A2987 RMK AO2,KT78,2023-06-07T04:35:00Z,30.08,-94.7,20.0,20.0,0,0,,5.0,29.870079,,,TRUE,TRUE,,,,,,BR,CLR,,,,,,,,MVFR,,,,,,,,,,,,METAR,21.0
KT74 070435Z AUTO 10SM CLR 20/19 A2990 RMK AO2 T02020194,KT74,2023-06-07T04:35:00Z,30.57,-97.45,20.2,19.4,,,,10.0,29.899607,,,TRUE,TRUE,,,,,,,CLR,,,,,,,,VFR,,,,,,,,,,,,SPECI,169.0
KT69 070435Z AUTO 19004KT 10SM CLR 23/22 A2987 RMK A01,KT69,2023-06-07T04:35:00Z,28.03,-97.55,23.0,22.0,190,4,,10.0,29.870079,,,TRUE,TRUE,,,,,,,CLR,,,,,,,,VFR,,,,,,,,,,,,METAR,15.0
KT41 070435Z AUTO 00000KT 4SM BR CLR 21/20 A2988 RMK AO2 T02100197,KT41,2023-06-07T04:35:00Z,29.67,-95.07,21.0,19.7,0,0,,4.0,29.878937,,,TRUE,TRUE,,,,,,BR,CLR,,,,,,,,MVFR,,,,,,,,,,,,SPECI,8.0
KT35 070435Z AUTO 14003KT 10SM CLR 24/19 A2989 RMK AO2 T02420191,KT35,2023-06-07T04:35:00Z,30.88,-96.97,24.2,19.1,140,3,,10.0,29.890747,,,TRUE,TRUE,,,,,,,CLR,,,,,,,,VFR,,,,,,,,,,,,METAR,122.0
KT20 070435Z AUTO 00000KT 10SM CLR 23/21 A2988 RMK AO2 T02270212,KT20,2023-06-07T04:35:00Z,29.52,-97.47,22.7,21.2,0,0,,10.0,29.878937,,,TRUE,TRUE,,,,,,,CLR,,,,,,,,VFR,,,,,,,,,,,,METAR,107.0
KSZY 070435Z AUTO 00000KT 9SM CLR 20/19 A2988 RMK A01,KSZY,2023-06-07T04:35:00Z,35.2,-88.5,20.0,19.0,0,0,,9.0,29.878937,,,TRUE,TRUE,,,,,,,CLR,,,,,,,,VFR,,,,,,,,,,,,METAR,184.0
KSZT 070435Z AUTO 00000KT 10SM CLR 16/08 A2981 RMK AO2,KSZT,2023-06-07T04:35:00Z,48.3,-116.57,16.0,8.0,0,0,,10.0,29.811024,,,TRUE,TRUE,,,,,,,CLR,,,,,,,,VFR,,,,,,,,,,,,METAR,649.0
KSYM 070435Z AUTO VRB06KT 10SM FEW050 SCT060 OVC075 17/13 A2987 RMK AO2,KSYM,2023-06-07T04:35:00Z,38.22,-83.58,17.0,13.0,0,6,,10.0,29.870079,,,TRUE,TRUE,,,,,,,FEW,5000,SCT,6000,OVC,7500,,,VFR,,,,,,,,,,,,METAR,307.0
KSYI 070435Z AUTO 11003KT 10SM CLR 17/16 A2988 RMK A01,KSYI,2023-06-07T04:35:00Z,35.57,-86.45,17.0,16.0,110,3,,10.0,29.878937,,,TRUE,TRUE,,,,,,,CLR,,,,,,,,VFR,,,,,,,,,,,,METAR,244.0
KSYF 070435Z AUTO 15009KT 10SM CLR 17/13 A3000 RMK AO2 T01700129 PWINO,KSYF,2023-06-07T04:35:00Z,39.77,-101.8,17.0,12.9,150,9,,10.0,30.0,,,TRUE,TRUE,,,,,TRUE,,CLR,,,,,,,,VFR,,,,,,,,,,,,METAR,1041.0
KSXU 070435Z AUTO 28017G21KT 10SM TSRA SCT037 BKN060 OVC065 14/13 A3015 RMK AO2 LTG DSNT ALQDS P0002 T01430127,KSXU,2023-06-07T04:35:00Z,34.93,-104.65,14.3,12.7,280,17,21,10.0,30.15059,,,TRUE,TRUE,,,,,,TSRA,SCT,3700,BKN,6000,OVC,6500,,,VFR,,,,,,0.02,,,,,,SPECI,1465.0
KSXK 070435Z AUTO 15005KT 10SM FEW060 FEW075 23/16 A2987 RMK AO2,KSXK,2023-06-07T04:35:00Z,42.98,-96.17,23.0,16.0,150,5,,10.0,29.870079,,,TRUE,TRUE,,,,,,,FEW,6000,FEW,7500,,,,,VFR,,,,,,,,,,,,METAR,430.0
KSWW 070435Z AUTO 18006KT 10SM CLR 21/15 A3002 RMK AO2 T02080149,KSWW,2023-06-07T04:35:00Z,32.47,-100.47,20.8,14.9,180,6,,10.0,30.02067,,,TRUE,TRUE,,,,,,,CLR,,,,,,,,VFR,,,,,,,,,,,,METAR,718.0
KSVE 070435Z AUTO 30013G17KT 10SM SCT120 14/11 A2992 RMK AO2,KSVE,2023-06-07T04:35:00Z,40.37,-120.57,14.0,11.0,300,13,17,10.0,29.920275,,,TRUE,TRUE,,,,,,,SCT,12000,,,,,,,VFR,,,,,,,,,,,,METAR,1263.0
KSVC 070435Z AUTO 12006KT 10SM CLR 20/05 A3004 RMK AO2 T02000045,KSVC,2023-06-07T04:35:00Z,32.63,-108.15,20.0,4.5,120,6,,10.0,30.041338,,,TRUE,TRUE,,,,,,,CLR,,,,,,,,VFR,,,,,,,,,,,,METAR,1638.0
KSUZ 070435Z AUTO 00000KT 10SM SCT038 BKN046 BKN050 22/22 A2989 RMK A01,KSUZ,2023-06-07T04:35:00Z,34.58,-92.48,22.0,22.0,0,0,,10.0,29.890747,,,TRUE,TRUE,,,,,,,SCT,3800,BKN,4600,BKN,5000,,,VFR,,,,,,,,,,,,METAR,114.0
KSUW 070435Z AUTO 06004KT 10SM CLR 09/05 A3004 RMK AO2 T00860046,KSUW,2023-06-07T04:35:00Z,46.68,-92.1,8.6,4.6,60,4,,10.0,30.041338,,,TRUE,TRUE,,,,,,,CLR,,,,,,,,VFR,,,,,,,,,,,,METAR,205.0
KSUA 070435Z AUTO 00000KT 10SM CLR 24/20 A2994 RMK AO2 T02400195,KSUA,2023-06-07T04:35:00Z,27.18,-80.22,24.0,19.5,0,0,,10.0,29.940945,,,TRUE,TRUE,,,,,,,CLR,,,,,,,,VFR,,,,,,,,,,,,SPECI,4.0
KSTK 070435Z AUTO 12009KT 10SM SCT070 BKN080 BKN120 19/12 A2999 RMK AO2,KSTK,2023-06-07T04:35:00Z,40.62,-103.27,19.0,12.0,120,9,,10.0,29.991142,,,TRUE,TRUE,,,,,,,SCT,7000,BKN,8000,BKN,12000,,,VFR,,,,,,,,,,,,METAR,1228.0
KSTF 070435Z AUTO 00000KT 7SM CLR 27/27 A2987 RMK AO2,KSTF,2023-06-07T04:35:00Z,33.43,-88.85,27.0,27.0,0,0,,7.0,29.870079,,,TRUE,TRUE,,,,,,,CLR,,,,,,,,VFR,,,,,,,,,,,,METAR,99.0
KSTE 070435Z AUTO 06003KT 10SM CLR 16/04 A3000 RMK AO2 T01600036,KSTE,2023-06-07T04:35:00Z,44.55,-89.53,16.0,3.6,60,3,,10.0,30.0,,,TRUE,TRUE,,,,,,,CLR,,,,,,,,VFR,,,,,,,,,,,,METAR,335.0
KSRR 070435Z AUTO 30013G16KT 7SM VCTS -RA FEW009 SCT023 BKN047 10/10 A3028 RMK AO2 LTG DSNT NW-NE P0001,KSRR,2023-06-07T04:35:00Z,33.47,-105.52,10.0,10.0,300,13,16,7.0,30.280512,,,TRUE,TRUE,,,,,,VCTS -RA,FEW,900,SCT,2300,BKN,4700,,,VFR,,,,,,0.01,,,,,,METAR,2063.0
KSRE 070435Z AUTO 34005KT 10SM CLR 22/18 A2993 RMK AO2,KSRE,2023-06-07T04:35:00Z,35.27,-96.68,22.0,18.0,340,5,,10.0,29.929134,,,TRUE,TRUE,,,,,,,CLR,,,,,,,,VFR,,,,,,,,,,,,METAR,306.0
KSRB 070435Z AUTO 00000KT 10SM CLR 13/13 A2989 RMK AO2,KSRB,2023-06-07T04:35:00Z,36.05,-85.53,13.0,13.0,0,0,,10.0,29.890747,,,TRUE,TRUE,,,,,,,CLR,,,,,,,,VFR,,,,,,,,,,,,METAR,303.0
KSQL 070435Z AUTO 00000KT 10SM OVC034 17/10 A2990 RMK AO2,KSQL,2023-06-07T04:35:00Z,37.52,-122.25,17.0,10.0,0,0,,10.0,29.899607,,,TRUE,TRUE,,,,,,,OVC,3400,,,,,,,VFR,,,,,,,,,,,,METAR,1.0
KSPK 070435Z AUTO 12019G27KT 10SM SCT120 19/06 A2993 RMK AO2,KSPK,2023-06-07T04:35:00Z,40.15,-111.67,19.0,6.0,120,19,27,10.0,29.929134,,,TRUE,TRUE,,,,,,,SCT,12000,,,,,,,VFR,,,,,,,,,,,,METAR,1381.0
KSPF 070435Z AUTO 20008KT 10SM CLR 20/11 A2996 RMK AO2,KSPF,2023-06-07T04:35:00Z,44.47,-103.78,20.0,11.0,200,8,,10.0,29.958662,,,TRUE,TRUE,,,,,,,CLR,,,,,,,,VFR,,,,,,,,,,,,METAR,1191.0
KSPA 070435Z AUTO 00000KT 10SM CLR 17/16 A2983 RMK AO2 LTG DSNT SE,KSPA,2023-06-07T04:35:00Z,34.92,-81.95,17.0,16.0,0,0,,10.0,29.828741,,,TRUE,TRUE,,,,,,,CLR,,,,,,,,VFR,,,,,,,,,,,,METAR,242.0
KSOW 070435Z AUTO 00000KT 10SM CLR 14/M07 A3007 RMK AO2,KSOW,2023-06-07T04:35:00Z,34.27,-110.0,14.0,-7.0,0,0,,10.0,30.070866,,,TRUE,TRUE,,,,,,,CLR,,,,,,,,VFR,,,,,,,,,,,,METAR,1954.0
KSOA 070435Z AUTO 06005KT 10SM 24/16 A3000 RMK AO2,KSOA,2023-06-07T04:35:00Z,30.58,-100.65,24.0,16.0,60,5,,10.0,30.0,,,TRUE,TRUE,,,,,,,,,,,,,,,,,,,,,,,,,,,METAR,654.0
KSNL 070435Z AUTO 00000KT 10SM CLR 22/17 A2994 RMK AO2 T02210170,KSNL,2023-06-07T04:35:00Z,35.35,-96.95,22.1,17.0,0,0,,10.0,29.940945,,,TRUE,TRUE,,,,,,,CLR,,,,,,,,VFR,,,,,,,,,,,,SPECI,327.0
KSNK 070435Z AUTO 00000KT 10SM CLR 22/14 A3001 RMK AO2 T02240140,KSNK,2023-06-07T04:35:00Z,32.7,-100.95,22.4,14.0,0,0,,10.0,30.008858,,,TRUE,TRUE,,,,,,,CLR,,,,,,,,VFR,,,,,,,,,,,,METAR,738.0
KSNH 070435Z AUTO 00000KT 6SM BR SCT055 20/20 A2987 RMK A01,KSNH,2023-06-07T04:35:00Z,35.17,-88.22,20.0,20.0,0,0,,6.0,29.870079,,,TRUE,TRUE,,,,,,BR,SCT,5500,,,,,,,VFR,,,,,,,,,,,,METAR,142.0
KSNC 070435Z AUTO 30009G14KT 9SM CLR 13/06 A2960 RMK AO2,KSNC,2023-06-07T04:35:00Z,41.38,-72.5,13.0,6.0,300,9,14,9.0,29.601377,,,TRUE,TRUE,,,,,,,CLR,,,,,,,,VFR,,,,,,,,,,,,METAR,114.0
KSMS 070435Z AUTO 00000G16KT 9SM TS FEW021 BKN040 OVC100 20/19 A2983 RMK AO2 LTG DSNT ALQDS,KSMS,2023-06-07T04:35:00Z,34.0,-80.37,20.0,19.0,0,0,16,9.0,29.828741,,,TRUE,TRUE,,,,,,TS,FEW,2100,BKN,4000,OVC,10000,,,VFR,,,,,,,,,,,,METAR,53.0
KSME 070435Z AUTO 00000KT 9SM CLR 17/16 A2985 RMK AO2 LTG DSNT SE,KSME,2023-06-07T04:35:00Z,37.05,-84.62,17.0,16.0,0,0,,9.0,29.84941,,,TRUE,TRUE,,,,,,,CLR,,,,,,,,VFR,,,,,,,,,,,,METAR,279.0
KSMD 070435Z AUTO 03004KT 10SM BKN050 OVC060 16/11 A2990 RMK A01,KSMD,2023-06-07T04:35:00Z,41.15,-85.15,16.0,11.0,30,4,,10.0,29.899607,,,TRUE,TRUE,,,,,,,BKN,5000,OVC,6000,,,,,VFR,,,,,,,,,,,,METAR,252.0
KSLH 070435Z AUTO 00000KT 10SM CLR 11/08 A2995 RMK AO2,KSLH,2023-06-07T04:35:00Z,45.65,-84.52,11.0,8.0,0,0,,10.0,29.949802,,,TRUE,TRUE,,,,,,,CLR,,,,,,,,VFR,,,,,,,,,,,,METAR,193.0
KSLB 070435Z AUTO 15006KT 10SM CLR 22/16 A2991 RMK AO2,KSLB,2023-06-07T04:35:00Z,42.6,-95.23,22.0,16.0,150,6,,10.0,29.911417,,,TRUE,TRUE,,,,,,,CLR,,,,,,,,VFR,,,,,,,,,,,,SPECI,450.0
KSJX 070435Z AUTO 34003KT 10SM CLR 11/07 A2998 RMK AO2 T01140065,KSJX,2023-06-07T04:35:00Z,45.7,-85.57,11.4,6.5,340,3,,10.0,29.97933,,,TRUE,TRUE,,,,,,,CLR,,,,,,,,VFR,,,,,,,,,,,,METAR,202.0
KSJS 070435Z AUTO 31005KT 10SM OVC070 20/12 A2984 RMK AO2 T02000120,KSJS,2023-06-07T04:35:00Z,37.75,-82.63,20.0,12.0,310,5,,10.0,29.840551,,,TRUE,TRUE,,,,,,,OVC,7000,,,,,,,VFR,,,,,,,,,,,,METAR,359.0
KSIK 070435Z AUTO 00000KT 10SM CLR 20/13 A2988 RMK AO2,KSIK,2023-06-07T04:35:00Z,36.9,-89.57,20.0,13.0,0,0,,10.0,29.878937,,,TRUE,TRUE,,,,,,,CLR,,,,,,,,VFR,,,,,,,,,,,,SPECI,95.0
KSHL 070435Z AUTO 13004KT 10SM CLR 22/17 A2987 RMK AO2,KSHL,2023-06-07T04:35:00Z,43.22,-95.83,22.0,17.0,130,4,,10.0,29.870079,,,TRUE,TRUE,,,,,,,CLR,,,,,,,,VFR,,,,,,,,,,,,SPECI,430.0
KSHD 070435Z AUTO 21003KT 10SM CLR 18/10 A2981 RMK AO2 T01750096,KSHD,2023-06-07T04:35:00Z,38.27,-78.9,17.5,9.6,210,3,,10.0,29.811024,,,TRUE,TRUE,,,,,,,CLR,,,,,,,,VFR,,,,,,,,,,,,METAR,360.0
KSGS 070435Z AUTO 08004KT 10SM SCT100 23/15 A2992 RMK AO2 T02300145,KSGS,2023-06-07T04:35:00Z,44.87,-93.03,23.0,14.5,80,4,,10.0,29.920275,,,TRUE,TRUE,,,,,,,SCT,10000,,,,,,,VFR,,,,,,,,,,,,METAR,250.0
KSFQ 070435Z AUTO 23003KT 10SM CLR 19/14 A2973 RMK AO2 T01870144,KSFQ,2023-06-07T04:35:00Z,36.68,-76.6,18.7,14.4,230,3,,10.0,29.731298,,,TRUE,TRUE,,,,,,,CLR,,,,,,,,VFR,,,,,,,,,,,,METAR,19.0
KSEZ 070435Z AUTO 26006KT 10SM CLR 20/M08 A2997 RMK AO2,KSEZ,2023-06-07T04:35:00Z,34.85,-111.78,20.0,-8.0,260,6,,10.0,29.970472,,,TRUE,TRUE,,,,,,,CLR,,,,,,,,VFR,,,,,,,,,,,,METAR,1455.0
KSEP 070435Z AUTO 00000KT 1 1/2SM VV007 22/18 A2997 RMK AO2 VIS 1/2V5 T02150179,KSEP,2023-06-07T04:35:00Z,32.22,-98.17,21.5,17.9,0,0,,1.5,29.970472,,,TRUE,TRUE,,,,,,,OVX,0,,,,,,,LIFR,,,,,,,,,,,700,METAR,399.0
KSEM 070435Z AUTO 00000KT 10SM FEW055 21/21 A2989 RMK AO2,KSEM,2023-06-07T04:35:00Z,32.35,-86.98,21.0,21.0,0,0,,10.0,29.890747,,,TRUE,TRUE,,,,,,,FEW,5500,,,,,,,VFR,,,,,,,,,,,,METAR,48.0
KSEF 070435Z AUTO 10005KT 10SM CLR 24/22 A2992 RMK AO2 T02370219,KSEF,2023-06-07T04:35:00Z,27.45,-81.35,23.7,21.9,100,5,,10.0,29.920275,,,TRUE,TRUE,,,,,,,CLR,,,,,,,,VFR,,,,,,,,,,,,SPECI,17.0
KSEE 070435Z AUTO 5/84000006KT 10SM BKN026 OVC030 16/11 A2993 RMK AO2,KSEE,2023-06-07T04:35:00Z,32.82,-116.97,16.0,11.0,0,6,,10.0,29.929134,,,TRUE,TRUE,,,,,,,BKN,2600,OVC,3000,,,,,MVFR,,,,,,,,,,,,METAR,113.0
KSDA 070435Z AUTO 00000KT 10SM CLR 20/17 A2988 RMK AO2,KSDA,2023-06-07T04:35:00Z,40.75,-95.42,20.0,17.0,0,0,,10.0,29.878937,,,TRUE,TRUE,,,,,,,CLR,,,,,,,,VFR,,,,,,,,,,,,SPECI,293.0
KSCX 070435Z AUTO 00000KT 10SM SCT027 OVC055 16/13 A2990 RMK A01,KSCX,2023-06-07T04:35:00Z,36.45,-84.58,16.0,13.0,0,0,,10.0,29.899607,,,TRUE,TRUE,,,,,,,SCT,2700,OVC,5500,,,,,VFR,,,,,,,,,,,,METAR,462.0
KSCD 070435Z AUTO 00000KT 10SM BKN100 OVC120 20/19 A2990 RMK AO2 T02000185,KSCD,2023-06-07T04:35:00Z,33.17,-86.3,20.0,18.5,0,0,,10.0,29.899607,,,TRUE,TRUE,,,,,,,BKN,10000,OVC,12000,,,,,VFR,,,,,,,,,,,,METAR,164.0
KSBS 070435Z AUTO 00000KT 10SM BKN120 12/07 A3012 RMK AO1 T01220070,KSBS,2023-06-07T04:35:00Z,40.52,-106.87,12.2,7.0,0,0,,10.0,30.121063,,,TRUE,TRUE,,,,,,,BKN,12000,,,,,,,VFR,,,,,,,,,,,,METAR,2097.0
KSBO 070435Z AUTO 27006KT 10SM CLR 24/17 A2986 RMK AO2 LTG DSNT W,KSBO,2023-06-07T04:35:00Z,32.62,-82.37,24.0,17.0,270,6,,10.0,29.861221,,,TRUE,TRUE,,,,,,,CLR,,,,,,,,VFR,,,,,,,,,,,,METAR,98.0
KSAZ 070435Z AUTO 12004KT 10SM CLR 19/13 A2994 RMK AO2,KSAZ,2023-06-07T04:35:00Z,46.37,-94.8,19.0,13.0,120,4,,10.0,29.940945,,,TRUE,TRUE,,,,,,,CLR,,,,,,,,VFR,,,,,,,,,,,,METAR,391.0
KSAR 070435Z AUTO 00000KT 10SM CLR 23/12 A2989 RMK AO2 T02310120,KSAR,2023-06-07T04:35:00Z,38.15,-89.7,23.1,12.0,0,0,,10.0,29.890747,,,TRUE,TRUE,,,,,,,CLR,,,,,,,,VFR,,,,,,,,,,,,METAR,162.0
KSAA 070435Z AUTO 00000KT 10SM BKN085 OVC120 13/05 A3013 RMK AO2 LTG DSNT N,KSAA,2023-06-07T04:35:00Z,41.45,-106.8,13.0,5.0,0,0,,10.0,30.129921,,,TRUE,TRUE,,,,,,,BKN,8500,OVC,12000,,,,,VFR,,,,,,,,,,,,METAR,2093.0
KS52 070435Z AUTO 00000KT 10SM SCT080 BKN110 22/03 A2983 RMK AO2 T02160033,KS52,2023-06-07T04:35:00Z,48.42,-120.15,21.6,3.3,0,0,,10.0,29.828741,,,TRUE,TRUE,,,,,,,SCT,8000,BKN,11000,,,,,VFR,,,,,,,,,,,,METAR,517.0
KS39 070435Z AUTO 35007KT 10SM CLR 22/M01 A2985 RMK AO2,KS39,2023-06-07T04:35:00Z,44.28,-120.9,22.0,-1.0,350,7,,10.0,29.84941,,,TRUE,TRUE,,,,,,,CLR,,,,,,,,VFR,,,,,,,,,,,,METAR,987.0
KS33 070435Z AUTO 02009KT 10SM CLR A2985 RMK AO2,KS33,2023-06-07T04:35:00Z,44.67,-121.15,,,20,9,,10.0,29.84941,,,TRUE,TRUE,,,,,,,CLR,,,,,,,,VFR,,,,,,,,,,,,METAR,739.0
KS32 070435Z AUTO 13007KT 10SM SCT065 SCT110 23/22 A2988 RMK AO2 TSNO,KS32,2023-06-07T04:35:00Z,47.42,-98.1,23.0,22.0,130,7,,10.0,29.878937,,,TRUE,TRUE,,,TRUE,,,,SCT,6500,SCT,11000,,,,,VFR,,,,,,,,,,,,METAR,435.0
KS25 070435Z AUTO 00000KT 10SM CLR 22/15 A2987 RMK AO2,KS25,2023-06-07T04:35:00Z,47.8,-103.25,22.0,15.0,0,0,,10.0,29.870079,,,TRUE,TRUE,,,,,,,CLR,,,,,,,,VFR,,,,,,,,,,,,METAR,632.0
KS24 070435Z AUTO 02006KT 6SM HZ BKN024 12/06 A2988 RMK AO2,KS24,2023-06-07T04:35:00Z,41.3,-83.03,12.0,6.0,20,6,,6.0,29.878937,,,TRUE,TRUE,,,,,,HZ,BKN,2400,,,,,,,MVFR,,,,,,,,,,,,METAR,203.0
KS12 070435Z AUTO 33004KT 10SM CLR 25/11 A2971 RMK AO2,KS12,2023-06-07T04:35:00Z,,,25.0,11.0,330,4,,10.0,29.71063,,,TRUE,TRUE,,,,,,,CLR,,,,,,,,VFR,,,,,,,,,,,,METAR,
KRZT 070435Z AUTO 00000KT 10SM CLR 15/13 A2986 RMK AO2 PWINO,KRZT,2023-06-07T04:35:00Z,39.43,-83.02,15.0,13.0,0,0,,10.0,29.861221,,,TRUE,TRUE,,,,,TRUE,,CLR,,,,,,,,VFR,,,,,,,,,,,,METAR,217.0
KRZR 070435Z AUTO 00000KT 10SM FEW060 17/17 A2986 RMK A01,KRZR,2023-06-07T04:35:00Z,35.22,-84.8,17.0,17.0,0,0,,10.0,29.861221,,,TRUE,TRUE,,,,,,,FEW,6000,,,,,,,VFR,,,,,,,,,,,,METAR,259.0
KRZN 070435Z AUTO 08003KT 10SM CLR 15/07 A3000 RMK AO2 T01530065,KRZN,2023-06-07T04:35:00Z,45.82,-92.37,15.3,6.5,80,3,,10.0,30.0,,,TRUE,TRUE,,,,,,,CLR,,,,,,,,VFR,,,,,,,,,,,,METAR,301.0
KRZL 070435Z AUTO 35005KT 10SM CLR 16/10 A2991 RMK AO2,KRZL,2023-06-07T04:35:00Z,40.95,-87.18,16.0,10.0,350,5,,10.0,29.911417,,,TRUE,TRUE,,,,,,,CLR,,,,,,,,VFR,,,,,,,,,,,,METAR,210.0
KRYW 070435Z AUTO 00000KT 3/4SM HZ VV005 24/19 A2993 RMK AO2 VIS 1/2V2 1/2 T02360185,KRYW,2023-06-07T04:35:00Z,30.5,-97.97,23.6,18.5,0,0,,0.75,29.929134,,,TRUE,TRUE,,,,,,HZ,OVX,0,,,,,,,LIFR,,,,,,,,,,,500,METAR,370.0
KRWV 070435Z AUTO 00000KT 10SM CLR 22/20 A2991 RMK AO2 T02220199,KRWV,2023-06-07T04:35:00Z,30.52,-96.7,22.2,19.9,0,0,,10.0,29.911417,,,TRUE,TRUE,,,,,,,CLR,,,,,,,,VFR,,,,,,,,,,,,METAR,116.0
KRVL 070435Z AUTO 00000KT 5SM HZ CLR 16/05 A2974 RMK AO2,KRVL,2023-06-07T04:35:00Z,40.68,-77.63,16.0,5.0,0,0,,5.0,29.740158,,,TRUE,TRUE,,,,,,HZ,CLR,,,,,,,,MVFR,,,,,,,,,,,,METAR,250.0
KRVJ 070435Z AUTO 24009KT 10SM CLR 25/18 A2986 RMK AO2 LTG DSNT NE T02470178,KRVJ,2023-06-07T04:35:00Z,32.07,-82.15,24.7,17.8,240,9,,10.0,29.861221,,,TRUE,TRUE,,,,,,,CLR,,,,,,,,VFR,,,,,,,,,,,,METAR,60.0
KRVF 070435Z AUTO 00000KT 10SM BKN075 BKN100 17/11 A3003 RMK AO2 LTG DSNT S,KRVF,2023-06-07T04:35:00Z,45.53,-112.3,17.0,11.0,0,0,,10.0,30.029528,,,TRUE,TRUE,,,,,,,BKN,7500,BKN,10000,,,,,VFR,,,,,,,,,,,,METAR,1445.0
KRUG 070435Z AUTO 10007KT 10SM CLR 22/19 A2985 RMK AO2,KRUG,2023-06-07T04:35:00Z,48.38,-100.02,22.0,19.0,100,7,,10.0,29.84941,,,TRUE,TRUE,,,,,,,CLR,,,,,,,,VFR,,,,,,,,,,,,METAR,469.0
KRTS 070435Z AUTO 26005KT 10SM CLR 13/06 A2995 RMK AO2,KRTS,2023-06-07T04:35:00Z,39.67,-119.88,13.0,6.0,260,5,,10.0,29.949802,,,TRUE,TRUE,,,,,,,CLR,,,,,,,,VFR,,,,,,,,,,,,METAR,1537.0
KRSN 070435Z AUTO 00000KT 8SM CLR 20/20 A2988 RMK AO2 T02030203 $,KRSN,2023-06-07T04:35:00Z,32.52,-92.58,20.3,20.3,0,0,,8.0,29.878937,,,TRUE,TRUE,TRUE,,,,,,CLR,,,,,,,,VFR,,,,,,,,,,,,METAR,86.0
KRRT 070435Z AUTO 11005KT 10SM SCT110 21/18 A2992 RMK AO2,KRRT,2023-06-07T04:35:00Z,48.93,-95.33,21.0,18.0,110,5,,10.0,29.920275,,,TRUE,TRUE,,,,,,,SCT,11000,,,,,,,VFR,,,,,,,,,,,,METAR,327.0
KRQB 070435Z AUTO 28003KT 10SM CLR 11/07 A2994 RMK AO2 T01090070,KRQB,2023-06-07T04:35:00Z,43.72,-85.5,10.9,7.0,280,3,,10.0,29.940945,,,TRUE,TRUE,,,,,,,CLR,,,,,,,,VFR,,,,,,,,,,,,METAR,282.0
KRPJ 070435Z AUTO 05006KT 10SM SCT100 BKN120 17/07 A2993 RMK AO2 T01670068 TSNO,KRPJ,2023-06-07T04:35:00Z,41.88,-89.08,16.7,6.8,50,6,,10.0,29.929134,,,TRUE,TRUE,,,TRUE,,,,SCT,10000,BKN,12000,,,,,VFR,,,,,,,,,,,,SPECI,234.0
KRPH 070435Z AUTO 08003KT 10SM CLR 20/19 A2992 RMK AO2 T02000194 $,KRPH,2023-06-07T04:35:00Z,33.12,-98.55,20.0,19.4,80,3,,10.0,29.920275,,,TRUE,TRUE,TRUE,,,,,,CLR,,,,,,,,VFR,,,,,,,,,,,,METAR,341.0
KRPD 070435Z AUTO 03007KT 10SM CLR 18/13 A2998 RMK AO2 T01760132,KRPD,2023-06-07T04:35:00Z,45.42,-91.77,17.6,13.2,30,7,,10.0,29.97933,,,TRUE,TRUE,,,,,,,CLR,,,,,,,,VFR,,,,,,,,,,,,METAR,334.0
KROX 070435Z AUTO 14005KT 10SM CLR 22/18 A2990 RMK AO2,KROX,2023-06-07T04:35:00Z,48.85,-95.7,22.0,18.0,140,5,,10.0,29.899607,,,TRUE,TRUE,,,,,,,CLR,,,,,,,,VFR,,,,,,,,,,,,METAR,320.0
KROS 070435Z AUTO 02004KT 10SM CLR 18/12 A2997 RMK AO2 T01750120,KROS,2023-06-07T04:35:00Z,45.7,-92.95,17.5,12.0,20,4,,10.0,29.970472,,,TRUE,TRUE,,,,,,,CLR,,,,,,,,VFR,,,,,,,,,,,,METAR,282.0
KRNP 070435Z AUTO 00000KT 10SM CLR 10/04 A2992 RMK AO2 T00970040,KRNP,2023-06-07T04:35:00Z,43.0,-84.13,9.7,4.0,0,0,,10.0,29.920275,,,TRUE,TRUE,,,,,,,CLR,,,,,,,,VFR,,,,,,,,,,,,METAR,224.0
KRNH 070435Z AUTO 06005KT 10SM OVC080 19/16 A2995 RMK AO2 T01920164,KRNH,2023-06-07T04:35:00Z,45.15,-92.53,19.2,16.4,60,5,,10.0,29.949802,,,TRUE,TRUE,,,,,,,OVC,8000,,,,,,,VFR,,,,,,,,,,,,SPECI,302.0
KRNC 070435Z AUTO 00000KT 10SM 16/14 A2989 RMK A01,KRNC,2023-06-07T04:35:00Z,35.7,-85.85,16.0,14.0,0,0,,10.0,29.890747,,,TRUE,TRUE,,,,,,,,,,,,,,,,,,,,,,,,,,,METAR,310.0
KRMY 070435Z AUTO 00000KT 10SM CLR 11/07 A2991 RMK AO2 T01060070,KRMY,2023-06-07T04:35:00Z,42.25,-84.95,10.6,7.0,0,0,,10.0,29.911417,,,TRUE,TRUE,,,,,,,CLR,,,,,,,,VFR,,,,,,,,,,,,METAR,285.0
KRMN 070435Z AUTO 30004KT 10SM BKN120 21/08 A2973 RMK AO2 T02070082,KRMN,2023-06-07T04:35:00Z,38.4,-77.45,20.7,8.2,300,4,,10.0,29.731298,,,TRUE,TRUE,,,,,,,BKN,12000,,,,,,,VFR,,,,,,,,,,,,METAR,50.0
KRLD 070435Z AUTO 27004KT 10SM CLR 24/02 A2972 RMK AO2 T02440015,KRLD,2023-06-07T04:35:00Z,46.3,-119.3,24.4,1.5,270,4,,10.0,29.719488,,,TRUE,TRUE,,,,,,,CLR,,,,,,,,VFR,,,,,,,,,,,,METAR,118.0
KRKW 070435Z AUTO VRB05KT 10SM CLR 19/12 A2990 RMK A01,KRKW,2023-06-07T04:35:00Z,35.92,-84.68,19.0,12.0,0,5,,10.0,29.899607,,,TRUE,TRUE,,,,,,,CLR,,,,,,,,VFR,,,,,,,,,,,,METAR,505.0
KRKR 070435Z AUTO 00000KT 5SM BR CLR 21/20 A2990 RMK AO2,KRKR,2023-06-07T04:35:00Z,35.02,-94.62,21.0,20.0,0,0,,5.0,29.899607,,,TRUE,TRUE,,,,,,BR,CLR,,,,,,,,MVFR,,,,,,,,,,,,METAR,136.0
KRID 070435Z AUTO 00000KT 10SM 16/13 A2987 RMK AO2 PWINO,KRID,2023-06-07T04:35:00Z,39.75,-84.85,16.0,13.0,0,0,,10.0,29.870079,,,TRUE,TRUE,,,,,TRUE,,,,,,,,,,,,,,,,,,,,,,METAR,346.0
KRGK 070435Z AUTO 09005KT 10SM CLR 22/14 A2991 RMK AO2,KRGK,2023-06-07T04:35:00Z,44.58,-92.48,22.0,14.0,90,5,,10.0,29.911417,,,TRUE,TRUE,,,,,,,CLR,,,,,,,,VFR,,,,,,,,,,,,SPECI,238.0
KRGA 070435Z AUTO 25004KT 10SM OVC110 21/12 A2986 RMK AO2,KRGA,2023-06-07T04:35:00Z,37.63,-84.33,21.0,12.0,250,4,,10.0,29.861221,,,TRUE,TRUE,,,,,,,OVC,11000,,,,,,,VFR,,,,,,,,,,,,SPECI,301.0
KRFI 070435Z AUTO 00000KT 10SM CLR 23/22 A2990 RMK AO2 T02320215,KRFI,2023-06-07T04:35:00Z,32.15,-94.85,23.2,21.5,0,0,,10.0,29.899607,,,TRUE,TRUE,,,,,,,CLR,,,,,,,,VFR,,,,,,,,,,,,METAR,133.0
KREG 070435Z AUTO 00000KT 10SM CLR 21/21 A2988 RMK AO2 T02140210,KREG,2023-06-07T04:35:00Z,30.17,-90.93,21.4,21.0,0,0,,10.0,29.878937,,,TRUE,TRUE,,,,,,,CLR,,,,,,,,VFR,,,,,,,,,,,,SPECI,3.0
KRDK 070435Z AUTO 00000KT 10SM FEW090 21/15 A2990 RMK AO2,KRDK,2023-06-07T04:35:00Z,41.02,-95.27,21.0,15.0,0,0,,10.0,29.899607,,,TRUE,TRUE,,,,,,,FEW,9000,,,,,,,VFR,,,,,,,,,,,,SPECI,317.0
KRCX 070435Z AUTO 05005KT 10SM BKN047 17/12 A3000 RMK AO2 T01710122,KRCX,2023-06-07T04:35:00Z,45.5,-91.0,17.1,12.2,50,5,,10.0,30.0,,,TRUE,TRUE,,,,,,,BKN,4700,,,,,,,VFR,,,,,,,,,,,,METAR,373.0
KRCV 070435Z AUTO 27022G30KT 10SM -DZ BKN070 OVC100 10/03 A3027 RMK AO2 LTG DSNT E T01000034,KRCV,2023-06-07T04:35:00Z,37.72,-106.35,10.0,3.4,270,22,30,10.0,30.268702,,,TRUE,TRUE,,,,,,-DZ,BKN,7000,OVC,10000,,,,,VFR,,,,,,,,,,,,METAR,2418.0
KRCR 070435Z AUTO 00000KT 8SM FEW049 16/16 A2989 RMK AO2,KRCR,2023-06-07T04:35:00Z,41.07,-86.18,16.0,16.0,0,0,,8.0,29.890747,,,TRUE,TRUE,,,,,,,FEW,4900,,,,,,,VFR,,,,,,,,,,,,SPECI,240.0
KRCE 070435Z AUTO 05005KT 10SM BKN055 BKN070 BKN080 20/17 A2996 RMK AO2,KRCE,2023-06-07T04:35:00Z,35.48,-97.82,20.0,17.0,50,5,,10.0,29.958662,,,TRUE,TRUE,,,,,,,BKN,5500,BKN,7000,BKN,8000,,,VFR,,,,,,,,,,,,METAR,412.0
KRBW 070435Z AUTO 20003KT 10SM CLR 20/19 A2983 RMK AO2 LTG DSNT NE AND NW,KRBW,2023-06-07T04:35:00Z,32.92,-80.63,20.0,19.0,200,3,,10.0,29.828741,,,TRUE,TRUE,,,,,,,CLR,,,,,,,,VFR,,,,,,,,,,,,METAR,30.0
KRBO 070435Z AUTO 14004KT 10SM CLR A2987 RMK AO2,KRBO,2023-06-07T04:35:00Z,27.78,-97.68,,,140,4,,10.0,29.870079,,,TRUE,TRUE,,,,,,,CLR,,,,,,,,VFR,,,,,,,,,,,,METAR,24.0
KRAW 070435Z AUTO 00000KT 10SM CLR 18/12 A2993 RMK AO2,KRAW,2023-06-07T04:35:00Z,38.35,-93.35,18.0,12.0,0,0,,10.0,29.929134,,,TRUE,TRUE,,,,,,,CLR,,,,,,,,VFR,,,,,,,,,,,,SPECI,285.0
KRAS 070435Z AUTO 14006KT 10SM CLR 26/21 A2988 RMK AO2 T02620212,KRAS,2023-06-07T04:35:00Z,27.82,-97.08,26.2,21.2,140,6,,10.0,29.878937,,,TRUE,TRUE,,,,,,,CLR,,,,,,,,VFR,,,,,,,,,,,,METAR,3.0
KPZZ 070435Z AUTO 18003KT 10SM CLR 26/19 A2987 RMK A01,KPZZ,2023-06-07T04:35:00Z,28.43,-91.03,26.0,19.0,180,3,,10.0,29.870079,,,TRUE,TRUE,,,,,,,CLR,,,,,,,,VFR,,,,,,,,,,,,METAR,25.0
KPZQ 070435Z AUTO 28003KT 10SM CLR 12/10 A2995 RMK AO2 T01220095,KPZQ,2023-06-07T04:35:00Z,45.4,-83.82,12.2,9.5,280,3,,10.0,29.949802,,,TRUE,TRUE,,,,,,,CLR,,,,,,,,VFR,,,,,,,,,,,,METAR,199.0
KPYX 070435Z AUTO 15007KT 10SM CLR 14/11 A2999 RMK AO2 T01430109,KPYX,2023-06-07T04:35:00Z,36.42,-100.75,14.3,10.9,150,7,,10.0,29.991142,,,TRUE,TRUE,,,,,,,CLR,,,,,,,,VFR,,,,,,,,,,,,METAR,890.0
KPXE 070435Z AUTO 24005KT 10SM CLR 23/18 A2989 RMK AO2 T02280180,KPXE,2023-06-07T04:35:00Z,32.52,-83.77,22.8,18.0,240,5,,10.0,29.890747,,,TRUE,TRUE,,,,,,,CLR,,,,,,,,VFR,,,,,,,,,,,,METAR,126.0
KPWD 070435Z AUTO 07008KT 10SM CLR 20/15 A2987 RMK AO2,KPWD,2023-06-07T04:35:00Z,48.78,-104.52,20.0,15.0,70,8,,10.0,29.870079,,,TRUE,TRUE,,,,,,,CLR,,,,,,,,VFR,,,,,,,,,,,,METAR,690.0
KPWC 070435Z AUTO 10006KT 10SM CLR 16/10 A2999 RMK AO2,KPWC,2023-06-07T04:35:00Z,46.72,-94.38,16.0,10.0,100,6,,10.0,29.991142,,,TRUE,TRUE,,,,,,,CLR,,,,,,,,VFR,,,,,,,,,,,,METAR,394.0
KPVJ 070435Z AUTO 00000KT 10SM CLR 20/16 A2993 RMK AO2 T01950160,KPVJ,2023-06-07T04:35:00Z,34.72,-97.22,19.5,16.0,0,0,,10.0,29.929134,,,TRUE,TRUE,,,,,,,CLR,,,,,,,,VFR,,,,,,,,,,,,METAR,287.0
KPVF 070435Z AUTO 00000KT 10SM CLR 14/13 A2991 RMK AO1,KPVF,2023-06-07T04:35:00Z,38.72,-120.75,14.0,13.0,0,0,,10.0,29.911417,,,TRUE,TRUE,,,,,,,CLR,,,,,,,,VFR,,,,,,,,,,,,METAR,788.0
KPVE 070435Z AUTO 00000KT 4SM BR CLR 19/19 A2988 RMK A01,KPVE,2023-06-07T04:35:00Z,35.65,-88.2,19.0,19.0,0,0,,4.0,29.878937,,,TRUE,TRUE,,,,,,BR,CLR,,,,,,,,MVFR,,,,,,,,,,,,METAR,146.0
KPVB 070435Z AUTO 07006KT 10SM BKN040 BKN047 OVC075 21/16 A2992 RMK AO1 T02060157,KPVB,2023-06-07T04:35:00Z,42.68,-90.43,20.6,15.7,70,6,,10.0,29.920275,,,TRUE,TRUE,,,,,,,BKN,4000,BKN,4700,OVC,7500,,,VFR,,,,,,,,,,,,METAR,311.0
KPUJ 070435Z AUTO 00000KT 10SM CLR 21/16 A2990 RMK AO2,KPUJ,2023-06-07T04:35:00Z,33.92,-84.93,21.0,16.0,0,0,,10.0,29.899607,,,TRUE,TRUE,,,,,,,CLR,,,,,,,,VFR,,,,,,,,,,,,METAR,385.0
KPTT 070435Z AUTO 21005KT 10SM CLR 18/18 A2998 RMK AO2 LTG DSNT W T01820179,KPTT,2023-06-07T04:35:00Z,37.7,-98.75,18.2,17.9,210,5,,10.0,29.97933,,,TRUE,TRUE,,,,,,,CLR,,,,,,,,VFR,,,,,,,,,,,,METAR,594.0
KPTS 070435Z AUTO 00000KT 10SM CLR 19/18 A2992 RMK AO2 T01930175 PWINO,KPTS,2023-06-07T04:35:00Z,37.45,-94.73,19.3,17.5,0,0,,10.0,29.920275,,,TRUE,TRUE,,,,,TRUE,,CLR,,,,,,,,VFR,,,,,,,,,,,,METAR,286.0
KPTD 070435Z AUTO 21004KT 4SM BR BKN043 OVC080 09/09 A2968 RMK AO2,KPTD,2023-06-07T04:35:00Z,44.68,-74.95,9.0,9.0,210,4,,4.0,29.681103,,,TRUE,TRUE,,,,,,BR,BKN,4300,OVC,8000,,,,,MVFR,,,,,,,,,,,,METAR,144.0
KPTB 070435Z AUTO 26005KT 10SM CLR 18/12 A2974 RMK AO2 T01820123,KPTB,2023-06-07T04:35:00Z,37.17,-77.52,18.2,12.3,260,5,,10.0,29.740158,,,TRUE,TRUE,,,,,,,CLR,,,,,,,,VFR,,,,,,,,,,,,METAR,56.0
KPSO 070435Z AUTO 00000KT 10SM SCT070 BKN080 09/08 A3027 RMK AO2 T00900084,KPSO,2023-06-07T04:35:00Z,37.28,-107.05,9.0,8.4,0,0,,10.0,30.268702,,,TRUE,TRUE,,,,,,,SCT,7000,BKN,8000,,,,,VFR,,,,,,,,,,,,METAR,2332.0
KPSN 070435Z AUTO 00000KT 10SM FEW042 SCT049 21/20 A2988 RMK AO2,KPSN,2023-06-07T04:35:00Z,31.78,-95.7,21.0,20.0,0,0,,10.0,29.878937,,,TRUE,TRUE,,,,,,,FEW,4200,SCT,4900,,,,,VFR,,,,,,,,,,,,METAR,124.0
KPSK 070435Z AUTO 25004KT 10SM CLR 16/10 A2986 RMK AO2 T01600102,KPSK,2023-06-07T04:35:00Z,37.13,-80.67,16.0,10.2,250,4,,10.0,29.861221,,,TRUE,TRUE,,,,,,,CLR,,,,,,,,VFR,,,,,,,,,,,,SPECI,629.0
KPRS 070435Z AUTO 03016G22KT 10SM CLR 25/13 A2996 RMK AO2 LTG DSNT E T02460132,KPRS,2023-06-07T04:35:00Z,29.63,-104.35,24.6,13.2,30,16,22,10.0,29.958662,,,TRUE,TRUE,,,,,,,CLR,,,,,,,,VFR,,,,,,,,,,,,METAR,890.0
KPRO 070435Z AUTO 19006KT 10SM CLR 22/18 A2989 RMK AO2 T02150175,KPRO,2023-06-07T04:35:00Z,41.83,-94.17,21.5,17.5,190,6,,10.0,29.890747,,,TRUE,TRUE,,,,,,,CLR,,,,,,,,VFR,,,,,,,,,,,,METAR,308.0
KPRG 070435Z AUTO 35004KT 7SM -RA SCT041 BKN075 OVC085 19/17 A2990 RMK AO2 P0002 T01860165,KPRG,2023-06-07T04:35:00Z,39.7,-87.67,18.6,16.5,350,4,,7.0,29.899607,,,TRUE,TRUE,,,,,,-RA,SCT,4100,BKN,7500,OVC,8500,,,VFR,,,,,,0.02,,,,,,SPECI,197.0
KPPQ 070435Z AUTO 00000KT 10SM SCT085 SCT110 23/16 A2989 RMK AO2 T02270155,KPPQ,2023-06-07T04:35:00Z,39.63,-90.78,22.7,15.5,0,0,,10.0,29.890747,,,TRUE,TRUE,,,,,,,SCT,8500,SCT,11000,,,,,VFR,,,,,,,,,,,,SPECI,215.0
KPPO 070435Z AUTO 35005KT 10SM SCT110 15/11 A2991 RMK AO2 T01450111,KPPO,2023-06-07T04:35:00Z,41.57,-86.73,14.5,11.1,350,5,,10.0,29.911417,,,TRUE,TRUE,,,,,,,SCT,11000,,,,,,,VFR,,,,,,,,,,,,METAR,242.0
KPPA 070435Z AUTO 13008KT 10SM 18/16 A3003 RMK AO2 LTG DSNT NW T01840161,KPPA,2023-06-07T04:35:00Z,35.62,-101.0,18.4,16.1,130,8,,10.0,30.029528,,,TRUE,TRUE,,,,,,,,,,,,,,,,,,,,,,,,,,,METAR,989.0
KPOY 070435Z AUTO 31009KT 10SM -DZ CLR 14/09 A3003 RMK AO2 LTG DSNT E AND SE,KPOY,2023-06-07T04:35:00Z,44.87,-108.8,14.0,9.0,310,9,,10.0,30.029528,,,TRUE,TRUE,,,,,,-DZ,CLR,,,,,,,,VFR,,,,,,,,,,,,METAR,1547.0
KPOV 070435Z AUTO 34005KT 10SM CLR 12/05 A2982 RMK AO2 T01200051 PWINO,KPOV,2023-06-07T04:35:00Z,41.22,-81.25,12.0,5.1,340,5,,10.0,29.819881,,,TRUE,TRUE,,,,,TRUE,,CLR,,,,,,,,VFR,,,,,,,,,,,,METAR,363.0
KPO1 070435Z AUTO 02012KT 10SM CLR 22/16 A2986 RMK AO2,KPO1,2023-06-07T04:35:00Z,48.13,-105.17,22.0,16.0,20,12,,10.0,29.861221,,,TRUE,TRUE,,,,,,,CLR,,,,,,,,VFR,,,,,,,,,,,,METAR,621.0
KPNT 070435Z AUTO 06009KT 10SM BKN065 18/10 A2991 RMK AO2 T01770102,KPNT,2023-06-07T04:35:00Z,40.92,-88.62,17.7,10.2,60,9,,10.0,29.911417,,,TRUE,TRUE,,,,,,,BKN,6500,,,,,,,VFR,,,,,,,,,,,,SPECI,199.0
KPNM 070435Z AUTO 05005KT 10SM CLR 18/11 A2996 RMK AO2,KPNM,2023-06-07T04:35:00Z,45.53,-93.6,18.0,11.0,50,5,,10.0,29.958662,,,TRUE,TRUE,,,,,,,CLR,,,,,,,,VFR,,,,,,,,,,,,METAR,298.0
KPNA 070435Z AUTO 00000KT 10SM CLR 11/06 A3014 RMK AO2,KPNA,2023-06-07T04:35:00Z,42.8,-109.8,11.0,6.0,0,0,,10.0,30.138779,,,TRUE,TRUE,,,,,,,CLR,,,,,,,,VFR,,,,,,,,,,,,METAR,2158.0
KPMV 070435Z AUTO 18005KT 10SM CLR 22/15 A2991 RMK AO2 T02200152,KPMV,2023-06-07T04:35:00Z,40.95,-95.92,22.0,15.2,180,5,,10.0,29.911417,,,TRUE,TRUE,,,,,,,CLR,,,,,,,,VFR,,,,,,,,,,,,METAR,365.0
KPMU 070435Z AUTO 00000KT 9SM FEW040 21/20 A2988 RMK AO2,KPMU,2023-06-07T04:35:00Z,34.37,-89.9,21.0,20.0,0,0,,9.0,29.878937,,,TRUE,TRUE,,,,,,,FEW,4000,,,,,,,VFR,,,,,,,,,,,,SPECI,67.0
KPLU 070435Z AUTO 00000KT 10SM CLR 18/09 A2979 RMK AO2,KPLU,2023-06-07T04:35:00Z,47.1,-122.28,18.0,9.0,0,0,,10.0,29.790354,,,TRUE,TRUE,,,,,,,CLR,,,,,,,,VFR,,,,,,,,,,,,METAR,164.0
KPLR 070435Z AUTO 00000KT 10SM FEW055 19/19 A2988 RMK A01,KPLR,2023-06-07T04:35:00Z,33.57,-86.25,19.0,19.0,0,0,,10.0,29.878937,,,TRUE,TRUE,,,,,,,FEW,5500,,,,,,,VFR,,,,,,,,,,,,METAR,145.0
KPLD 070435Z AUTO 00000KT 3SM BR BKN045 A2987 RMK AO2,KPLD,2023-06-07T04:35:00Z,40.45,-84.98,,,0,0,,3.0,29.870079,,,TRUE,TRUE,,,,,,BR,BKN,4500,,,,,,,MVFR,,,,,,,,,,,,METAR,282.0
KPKV 070435Z AUTO 00000KT 10SM CLR 24/21 A2988 RMK AO2 T02370214,KPKV,2023-06-07T04:35:00Z,28.65,-96.68,23.7,21.4,0,0,,10.0,29.878937,,,TRUE,TRUE,,,,,,,CLR,,,,,,,,VFR,,,,,,,,,,,,METAR,8.0
KPJC 070435Z AUTO 00000KT 10SM CLR 09/06 A2979 RMK AO2,KPJC,2023-06-07T04:35:00Z,40.8,-80.17,9.0,6.0,0,0,,10.0,29.790354,,,TRUE,TRUE,,,,,,,CLR,,,,,,,,VFR,,,,,,,,,,,,SPECI,273.0
KPIM 070435Z AUTO 25004KT 10SM CLR 22/17 A2990 RMK AO2 T02200171,KPIM,2023-06-07T04:35:00Z,32.83,-84.88,22.0,17.1,250,4,,10.0,29.899607,,,TRUE,TRUE,,,,,,,CLR,,,,,,,,VFR,,,,,,,,,,,,SPECI,274.0
KPHT 070435Z AUTO 00000KT 10SM 18/15 A2987 RMK A01,KPHT,2023-06-07T04:35:00Z,36.33,-88.38,18.0,15.0,0,0,,10.0,29.870079,,,TRUE,TRUE,,,,,,,,,,,,,,,,,,,,,,,,,,,METAR,172.0
KPHN 070435Z AUTO 00000KT 10SM CLR 08/03 A2988 RMK AO2,KPHN,2023-06-07T04:35:00Z,42.92,-82.52,8.0,3.0,0,0,,10.0,29.878937,,,TRUE,TRUE,,,,,,,CLR,,,,,,,,VFR,,,,,,,,,,,,METAR,195.0
KPEX 070435Z AUTO 10010KT 10SM BKN095 22/15 A2992 RMK AO2 LTG DSNT S,KPEX,2023-06-07T04:35:00Z,45.37,-94.73,22.0,15.0,100,10,,10.0,29.920275,,,TRUE,TRUE,,,,,,,BKN,9500,,,,,,,VFR,,,,,,,,,,,,METAR,359.0
KPEQ 070435Z AUTO 25028G36KT 10SM VCTS SCT080 BKN090 BKN120 24/13 A3002 RMK AO2 LTG DSNT S THRU NW T02360132,KPEQ,2023-06-07T04:35:00Z,31.38,-103.52,23.6,13.2,250,28,36,10.0,30.02067,,,TRUE,TRUE,,,,,,VCTS,SCT,8000,BKN,9000,BKN,12000,,,VFR,,,,,,,,,,,,METAR,794.0
KPEA 070435Z AUTO 19003KT 7SM SCT100 19/19 A2989 RMK AO2 T01950187,KPEA,2023-06-07T04:35:00Z,41.4,-92.95,19.5,18.7,190,3,,7.0,29.890747,,,TRUE,TRUE,,,,,,,SCT,10000,,,,,,,VFR,,,,,,,,,,,,SPECI,264.0
KPDC 070435Z AUTO 00000KT 7SM BKN039 BKN046 20/17 A2990 RMK AO2 T01960174,KPDC,2023-06-07T04:35:00Z,43.02,-91.12,19.6,17.4,0,0,,7.0,29.899607,,,TRUE,TRUE,,,,,,,BKN,3900,BKN,4600,,,,,VFR,,,,,,,,,,,,METAR,201.0
KPCZ 070435Z AUTO 36003KT 10SM CLR 15/07 A2999 RMK AO2 T01500073,KPCZ,2023-06-07T04:35:00Z,44.33,-89.02,15.0,7.3,360,3,,10.0,29.991142,,,TRUE,TRUE,,,,,,,CLR,,,,,,,,VFR,,,,,,,,,,,,SPECI,248.0
KPCW 070435Z AUTO 03008G14KT 7SM OVC027 16/06 A2987 RMK AO2,KPCW,2023-06-07T04:35:00Z,41.52,-82.87,16.0,6.0,30,8,14,7.0,29.870079,,,TRUE,TRUE,,,,,,,OVC,2700,,,,,,,MVFR,,,,,,,,,,,,METAR,179.0
KPCM 070435Z AUTO 00000KT 10SM CLR 24/21 A2994 RMK AO2,KPCM,2023-06-07T04:35:00Z,28.0,-82.17,24.0,21.0,0,0,,10.0,29.940945,,,TRUE,TRUE,,,,,,,CLR,,,,,,,,VFR,,,,,,,,,,,,METAR,43.0
KPBX 070435Z AUTO 00000KT 10SM OVC070 20/10 A2984 RMK AO2 T01960104,KPBX,2023-06-07T04:35:00Z,37.57,-82.57,19.6,10.4,0,0,,10.0,29.840551,,,TRUE,TRUE,,,,,,,OVC,7000,,,,,,,VFR,,,,,,,,,,,,SPECI,447.0
KPBH 070435Z AUTO 06003KT 10SM CLR 15/10 A3001 RMK AO2 T01500098,KPBH,2023-06-07T04:35:00Z,45.7,-90.4,15.0,9.8,60,3,,10.0,30.008858,,,TRUE,TRUE,,,,,,,CLR,,,,,,,,VFR,,,,,,,,,,,,SPECI,445.0
KPAN 070435Z AUTO 26006KT 10SM CLR 19/M08 A3001 RMK AO2 PWINO TSNO,KPAN,2023-06-07T04:35:00Z,34.25,-111.33,19.0,-8.0,260,6,,10.0,30.008858,,,TRUE,TRUE,,,TRUE,,TRUE,,CLR,,,,,,,,VFR,,,,,,,,,,,,METAR,1575.0
KP52 070435Z AUTO 23008KT 10SM CLR 22/M07 A2989 RMK AO2,KP52,2023-06-07T04:35:00Z,34.73,-112.03,22.0,-7.0,230,8,,10.0,29.890747,,,TRUE,TRUE,,,,,,,CLR,,,,,,,,VFR,,,,,,,,,,,,METAR,1085.0
KP08 070435Z AUTO 24008KT 10SM CLR 26/M01 A2981 RMK AO2,KP08,2023-06-07T04:35:00Z,32.93,-111.43,26.0,-1.0,240,8,,10.0,29.811024,,,TRUE,TRUE,,,,,,,CLR,,,,,,,,VFR,,,,,,,,,,,,METAR,477.0
KOZW 070435Z AUTO 00000KT 10SM CLR 10/04 A2992 RMK AO2 T00960040,KOZW,2023-06-07T04:35:00Z,42.62,-83.98,9.6,4.0,0,0,,10.0,29.920275,,,TRUE,TRUE,,,,,,,CLR,,,,,,,,VFR,,,,,,,,,,,,SPECI,288.0
KOZS 070435Z AUTO 21003KT 10SM CLR 21/10 A2993 RMK AO2,KOZS,2023-06-07T04:35:00Z,37.97,-92.68,21.0,10.0,210,3,,10.0,29.929134,,,TRUE,TRUE,,,,,,,CLR,,,,,,,,VFR,,,,,,,,,,,,METAR,321.0
KOZA 070435Z AUTO 07005KT 10SM CLR 24/13 A3000 RMK AO2,KOZA,2023-06-07T04:35:00Z,30.73,-101.2,24.0,13.0,70,5,,10.0,30.0,,,TRUE,TRUE,,,,,,,CLR,,,,,,,,VFR,,,,,,,,,,,,METAR,721.0
KOYM 070435Z AUTO 00000KT 7SM SCT042 BKN100 OVC110 11/06 A2981 RMK AO2 PWINO,KOYM,2023-06-07T04:35:00Z,41.42,-78.5,11.0,6.0,0,0,,7.0,29.811024,,,TRUE,TRUE,,,,,TRUE,,SCT,4200,BKN,10000,OVC,11000,,,VFR,,,,,,,,,,,,METAR,582.0
KOXV 070435Z AUTO 00000KT 10SM BKN075 OVC120 21/18 A2988 RMK AO2,KOXV,2023-06-07T04:35:00Z,41.28,-93.12,21.0,18.0,0,0,,10.0,29.878937,,,TRUE,TRUE,,,,,,,BKN,7500,OVC,12000,,,,,VFR,,,,,,,,,,,,METAR,280.0
KOXI 070435Z AUTO 35005KT 10SM CLR 14/12 A2990 RMK AO1,KOXI,2023-06-07T04:35:00Z,41.33,-86.67,14.0,12.0,350,5,,10.0,29.899607,,,TRUE,TRUE,,,,,,,CLR,,,,,,,,VFR,,,,,,,,,,,,METAR,208.0
KOWX 070435Z AUTO 05007KT 10SM CLR 15/07 A2990 RMK AO1,KOWX,2023-06-07T04:35:00Z,41.03,-83.98,15.0,7.0,50,7,,10.0,29.899607,,,TRUE,TRUE,,,,,,,CLR,,,,,,,,VFR,,,,,,,,,,,,SPECI,232.0
KOWI 070435Z AUTO 18003KT 10SM FEW046 OVC055 20/18 A2992 RMK AO2 PWINO,KOWI,2023-06-07T04:35:00Z,38.53,-95.25,20.0,18.0,180,3,,10.0,29.920275,,,TRUE,TRUE,,,,,TRUE,,FEW,4600,OVC,5500,,,,,VFR,,,,,,,,,,,,METAR,292.0
KOVL 070435Z AUTO 10006KT 7SM CLR 24/16 A2989 RMK AO2,KOVL,2023-06-07T04:35:00Z,44.78,-95.03,24.0,16.0,100,6,,7.0,29.890747,,,TRUE,TRUE,,,,,,,CLR,,,,,,,,VFR,,,,,,,,,,,,METAR,329.0
KOUN 070435Z AUTO 07004KT 10SM CLR 22/16 A2994 RMK AO2 T02160156,KOUN,2023-06-07T04:35:00Z,35.25,-97.47,21.6,15.6,70,4,,10.0,29.940945,,,TRUE,TRUE,,,,,,,CLR,,,,,,,,VFR,,,,,,,,,,,,METAR,359.0
KOSC 070435Z AUTO 32006KT 10SM OVC070 11/03 A2990 RMK AO2 T01080033,KOSC,2023-06-07T04:35:00Z,44.45,-83.4,10.8,3.3,320,6,,10.0,29.899607,,,TRUE,TRUE,,,,,,,OVC,7000,,,,,,,VFR,,,,,,,,,,,,METAR,191.0
KOSA 070435Z AUTO 00000KT 10SM SCT060 BKN070 22/20 A2990 RMK AO2 P0001 T02170205,KOSA,2023-06-07T04:35:00Z,33.1,-94.97,21.7,20.5,0,0,,10.0,29.899607,,,TRUE,TRUE,,,,,,,SCT,6000,BKN,7000,,,,,VFR,,,,,,0.01,,,,,,METAR,108.0
KORS 070435Z AUTO 00000KT 10SM CLR 17/05 A2978 RMK AO2,KORS,2023-06-07T04:35:00Z,48.7,-122.92,17.0,5.0,0,0,,10.0,29.778543,,,TRUE,TRUE,,,,,,,CLR,,,,,,,,VFR,,,,,,,,,,,,METAR,7.0
KORK 070435Z AUTO 00000KT 10SM SCT032 BKN048 23/17 A2989 RMK AO2,KORK,2023-06-07T04:35:00Z,34.83,-92.25,23.0,17.0,0,0,,10.0,29.890747,,,TRUE,TRUE,,,,,,,SCT,3200,BKN,4800,,,,,VFR,,,,,,,,,,,,METAR,166.0
KORG 070435Z AUTO 00000KT 7SM CLR 22/20 A2989 RMK AO2 T02160202,KORG,2023-06-07T04:35:00Z,30.07,-93.8,21.6,20.2,0,0,,7.0,29.890747,,,TRUE,TRUE,,,,,,,CLR,,,,,,,,VFR,,,,,,,,,,,,METAR,2.0
KOQN 070435Z AUTO 33003KT 5SM HZ CLR 17/06 A2971 RMK AO2,KOQN,2023-06-07T04:35:00Z,39.98,-75.58,17.0,6.0,330,3,,5.0,29.71063,,,TRUE,TRUE,,,,,,HZ,CLR,,,,,,,,MVFR,,,,,,,,,,,,METAR,141.0
KOPN 070435Z AUTO 00000KT 10SM CLR 21/13 A2990 RMK AO2,KOPN,2023-06-07T04:35:00Z,32.95,-84.27,21.0,13.0,0,0,,10.0,29.899607,,,TRUE,TRUE,,,,,,,CLR,,,,,,,,VFR,,,,,,,,,,,,SPECI,241.0
KOPL 070435Z AUTO 06004KT 10SM SCT002 BKN047 OVC065 23/19 A2988 RMK AO2 T02270191,KOPL,2023-06-07T04:35:00Z,30.55,-92.1,22.7,19.1,60,4,,10.0,29.878937,,,TRUE,TRUE,,,,,,,SCT,200,BKN,4700,OVC,6500,,,VFR,,,,,,,,,,,,METAR,22.0
KOOA 070435Z AUTO 07003KT 10SM CLR 22/17 A2989 RMK AO2 T02230166,KOOA,2023-06-07T04:35:00Z,41.23,-92.5,22.3,16.6,70,3,,10.0,29.890747,,,TRUE,TRUE,,,,,,,CLR,,,,,,,,VFR,,,,,,,,,,,,SPECI,256.0
KONZ 070435Z AUTO 36006KT 7SM CLR 15/01 A2988 RMK AO2 T01500012,KONZ,2023-06-07T04:35:00Z,42.1,-83.15,15.0,1.2,360,6,,7.0,29.878937,,,TRUE,TRUE,,,,,,,CLR,,,,,,,,VFR,,,,,,,,,,,,METAR,179.0
KONP 070435Z AUTO 19003KT 5SM BR CLR 10/08 A2984 RMK AO2,KONP,2023-06-07T04:35:00Z,44.57,-124.05,10.0,8.0,190,3,,5.0,29.840551,,,TRUE,TRUE,,,,,,BR,CLR,,,,,,,,MVFR,,,,,,,,,,,,SPECI,43.0
KONM 070435Z AUTO 19011KT 10SM DZ SCT050 SCT075 SCT110 15/12 A3011 RMK AO2 LTG DSNT NE AND E T01500117,KONM,2023-06-07T04:35:00Z,34.02,-106.9,15.0,11.7,190,11,,10.0,30.109253,,,TRUE,TRUE,,,,,,DZ,SCT,5000,SCT,7500,SCT,11000,,,VFR,,,,,,,,,,,,METAR,1467.0
KONL 070435Z AUTO 21005KT 10SM CLR 19/15 A2993 RMK AO2 T01940147,KONL,2023-06-07T04:35:00Z,42.47,-98.68,19.4,14.7,210,5,,10.0,29.929134,,,TRUE,TRUE,,,,,,,CLR,,,,,,,,VFR,,,,,,,,,,,,SPECI,619.0
KONA 070435Z AUTO 00000KT 10SM SCT047 21/15 A2992 RMK AO2,KONA,2023-06-07T04:35:00Z,44.07,-91.7,21.0,15.0,0,0,,10.0,29.920275,,,TRUE,TRUE,,,,,,,SCT,4700,,,,,,,VFR,,,,,,,,,,,,METAR,200.0
KOMH 070435Z AUTO 24006KT 10SM SCT110 18/10 A2977 RMK AO2,KOMH,2023-06-07T04:35:00Z,38.25,-78.05,18.0,10.0,240,6,,10.0,29.769686,,,TRUE,TRUE,,,,,,,SCT,11000,,,,,,,VFR,,,,,,,,,,,,SPECI,136.0
KOLZ 070435Z AUTO 07004KT 2SM BR CLR 18/18 A2991 RMK A01,KOLZ,2023-06-07T04:35:00Z,42.67,-91.97,18.0,18.0,70,4,,2.0,29.911417,,,TRUE,TRUE,,,,,,BR,CLR,,,,,,,,IFR,,,,,,,,,,,,SPECI,328.0
KOLV 070435Z AUTO 00000KT 10SM CLR 21/19 A2992 RMK A01,KOLV,2023-06-07T04:35:00Z,34.98,-89.78,21.0,19.0,0,0,,10.0,29.920275,,,TRUE,TRUE,,,,,,,CLR,,,,,,,,VFR,,,,,,,,,,,,METAR,124.0
KOLG 070435Z AUTO 05008KT 10SM CLR 11/02 A3001 RMK AO1,KOLG,2023-06-07T04:35:00Z,46.3,-91.82,11.0,2.0,50,8,,10.0,30.008858,,,TRUE,TRUE,,,,,,,CLR,,,,,,,,VFR,,,,,,,,,,,,METAR,334.0
KOKZ 070435Z AUTO 00000KT 10SM CLR 20/17 A2985 RMK AO2 LTG DSNT E T02010168,KOKZ,2023-06-07T04:35:00Z,32.97,-82.83,20.1,16.8,0,0,,10.0,29.84941,,,TRUE,TRUE,,,,,,,CLR,,,,,,,,VFR,,,,,,,,,,,,SPECI,128.0
KOKV 070435Z AUTO 29008KT 10SM CLR 19/10 A2973 RMK AO2,KOKV,2023-06-07T04:35:00Z,39.13,-78.15,19.0,10.0,290,8,,10.0,29.731298,,,TRUE,TRUE,,,,,,,CLR,,,,,,,,VFR,,,,,,,,,,,,SPECI,213.0
KOKM 070435Z AUTO 26003KT 10SM CLR 20/16 A2993 RMK AO2 T02040159,KOKM,2023-06-07T04:35:00Z,35.67,-95.95,20.4,15.9,260,3,,10.0,29.929134,,,TRUE,TRUE,,,,,,,CLR,,,,,,,,VFR,,,,,,,,,,,,SPECI,215.0
KOJA 070435Z AUTO 00000KT 10SM CLR 19/16 A2997 RMK AO2 T01880162,KOJA,2023-06-07T04:35:00Z,35.55,-98.67,18.8,16.2,0,0,,10.0,29.970472,,,TRUE,TRUE,,,,,,,CLR,,,,,,,,VFR,,,,,,,,,,,,METAR,490.0
KOIN 070435Z AUTO 22003KT 10SM CLR 19/14 A3002 RMK AO1 T01890143,KOIN,2023-06-07T04:35:00Z,39.83,-100.53,18.9,14.3,220,3,,10.0,30.02067,,,TRUE,TRUE,,,,,,,CLR,,,,,,,,VFR,,,,,,,,,,,,SPECI,810.0
KOIC 070435Z AUTO 00000KT 5SM BR SCT095 06/05 A2975 RMK AO2 T00550049,KOIC,2023-06-07T04:35:00Z,42.57,-75.52,5.5,4.9,0,0,,5.0,29.749016,,,TRUE,TRUE,,,,,,BR,SCT,9500,,,,,,,MVFR,,,,,,,,,,,,SPECI,311.0
KOGS 070435Z AUTO VRB03KT 7SM FEW024 SCT047 OVC095 13/09 A2966 RMK AO2,KOGS,2023-06-07T04:35:00Z,44.67,-75.47,13.0,9.0,0,3,,7.0,29.660433,,,TRUE,TRUE,,,,,,,FEW,2400,SCT,4700,OVC,9500,,,VFR,,,,,,,,,,,,SPECI,88.0
KOGA 070435Z AUTO 15008KT 10SM CLR 21/12 A2999 RMK AO2 T02050124,KOGA,2023-06-07T04:35:00Z,41.12,-101.77,20.5,12.4,150,8,,10.0,29.991142,,,TRUE,TRUE,,,,,,,CLR,,,,,,,,VFR,,,,,,,,,,,,SPECI,991.0
KOEO 070435Z AUTO 05006KT 10SM CLR 19/15 A2998 RMK AO2 T01890147 PWINO,KOEO,2023-06-07T04:35:00Z,45.32,-92.7,18.9,14.7,50,6,,10.0,29.97933,,,TRUE,TRUE,,,,,TRUE,,CLR,,,,,,,,VFR,,,,,,,,,,,,METAR,269.0
KOEL 070435Z AUTO 14007KT 10SM CLR 18/14 A2999 RMK AO1 T01750135,KOEL,2023-06-07T04:35:00Z,39.12,-100.82,17.5,13.5,140,7,,10.0,29.991142,,,TRUE,TRUE,,,,,,,CLR,,,,,,,,VFR,,,,,,,,,,,,METAR,924.0
KOEB 070435Z AUTO 06004KT 10SM CLR 13/06 A2991 RMK AO2 T01270055,KOEB,2023-06-07T04:35:00Z,41.92,-85.05,12.7,5.5,60,4,,10.0,29.911417,,,TRUE,TRUE,,,,,,,CLR,,,,,,,,VFR,,,,,,,,,,,,METAR,291.0
KOCQ 070435Z AUTO 03004KT 10SM CLR 12/05 A2999 RMK AO1 T01240049,KOCQ,2023-06-07T04:35:00Z,44.87,-87.92,12.4,4.9,30,4,,10.0,29.991142,,,TRUE,TRUE,,,,,,,CLR,,,,,,,,VFR,,,,,,,,,,,,METAR,181.0
KOBE 070435Z AUTO 00000KT 10SM CLR 22/21 A2991 RMK AO2,KOBE,2023-06-07T04:35:00Z,27.27,-80.85,22.0,21.0,0,0,,10.0,29.911417,,,TRUE,TRUE,,,,,,,CLR,,,,,,,,VFR,,,,,,,,,,,,SPECI,11.0
KOAR 070435Z AUTO 00000KT 10SM OVC027 14/12 A2989 RMK AO2 PWINO,KOAR,2023-06-07T04:35:00Z,36.67,-121.77,14.0,12.0,0,0,,10.0,29.890747,,,TRUE,TRUE,,,,,TRUE,,OVC,2700,,,,,,,MVFR,,,,,,,,,,,,METAR,41.0
KO86 070435Z AUTO 18005KT 10SM 19/13 A2988 RMK A01,KO86,2023-06-07T04:35:00Z,40.98,-122.7,19.0,13.0,180,5,,10.0,29.878937,,,TRUE,TRUE,,,,,,,,,,,,,,,,,,,,,,,,,,,SPECI,729.0
KO32 070435Z AUTO 00000KT 8SM -RA OVC050 23/15 A2978 RMK AO2 RAB0355 P0000 T02310148 $,KO32,2023-06-07T04:35:00Z,36.67,-119.45,23.1,14.8,0,0,,8.0,29.778543,,,TRUE,TRUE,TRUE,,,,,-RA,OVC,5000,,,,,,,VFR,,,,,,0.005,,,,,,METAR,117.0
KO22 070435Z AUTO 00000KT 10SM SCT050 15/12 A2986 RMK A01,KO22,2023-06-07T04:35:00Z,38.03,-120.42,15.0,12.0,0,0,,10.0,29.861221,,,TRUE,TRUE,,,,,,,SCT,5000,,,,,,,VFR,,,,,,,,,,,,METAR,637.0
KNUQ 070435Z AUTO 12005KT 10SM OVC035 17/11 A2989 RMK AO2,KNUQ,2023-06-07T04:35:00Z,37.4,-122.05,17.0,11.0,120,5,,10.0,29.890747,,,TRUE,TRUE,,,,,,,OVC,3500,,,,,,,VFR,,,,,,,,,,,,METAR,9.0
KNRN 070435Z AUTO 22004KT 10SM CLR 19/14 A3000 RMK AO2,KNRN,2023-06-07T04:35:00Z,39.85,-99.9,19.0,14.0,220,4,,10.0,30.0,,,TRUE,TRUE,,,,,,,CLR,,,,,,,,VFR,,,,,,,,,,,,SPECI,726.0
KNOW 070435Z AUTO 29007KT 10SM CLR 19/02 A2980 RMK AO2 T01870023,KNOW,2023-06-07T04:35:00Z,48.13,-123.4,18.7,2.3,290,7,,10.0,29.799213,,,TRUE,TRUE,,,,,,,CLR,,,,,,,,VFR,,,,,,,,,,,,METAR,3.0
KN79 070435Z AUTO 00000KT 10SM CLR 12/08 A2971 RMK AO2 T01200082,KN79,2023-06-07T04:35:00Z,,,12.0,8.2,0,0,,10.0,29.71063,,,TRUE,TRUE,,,,,,,CLR,,,,,,,,VFR,,,,,,,,,,,,METAR,
KN38 070435Z AUTO 34009KT 5SM HZ FEW041 BKN048 BKN055 11/05 A2976 RMK AO2,KN38,2023-06-07T04:35:00Z,41.73,-77.4,11.0,5.0,340,9,,5.0,29.760826,,,TRUE,TRUE,,,,,,HZ,FEW,4100,BKN,4800,BKN,5500,,,MVFR,,,,,,,,,,,,SPECI,576.0
KN03 070435Z AUTO 00000KT 5SM BR CLR 07/05 A2974 RMK AO2,KN03,2023-06-07T04:35:00Z,42.6,-76.22,7.0,5.0,0,0,,5.0,29.740158,,,TRUE,TRUE,,,,,,BR,CLR,,,,,,,,MVFR,,,,,,,,,,,,SPECI,361.0
KMZZ 070435Z AUTO 00000KT 10SM SCT100 SCT120 17/15 A2988 RMK AO2 T01720151,KMZZ,2023-06-07T04:35:00Z,40.48,-85.68,17.2,15.1,0,0,,10.0,29.878937,,,TRUE,TRUE,,,,,,,SCT,10000,SCT,12000,,,,,VFR,,,,,,,,,,,,METAR,260.0
KMZH 070435Z AUTO 06003KT 10SM CLR 11/04 A3002 RMK AO2,KMZH,2023-06-07T04:35:00Z,46.42,-92.8,11.0,4.0,60,3,,10.0,30.02067,,,TRUE,TRUE,,,,,,,CLR,,,,,,,,VFR,,,,,,,,,,,,METAR,331.0
KMYZ 070435Z AUTO 00000KT 10SM CLR 20/17 A2993 RMK AO2,KMYZ,2023-06-07T04:35:00Z,39.85,-96.63,20.0,17.0,0,0,,10.0,29.929134,,,TRUE,TRUE,,,,,,,CLR,,,,,,,,VFR,,,,,,,,,,,,SPECI,388.0
KMYJ 070435Z AUTO 23006KT 10SM CLR 18/14 A2989 RMK AO2,KMYJ,2023-06-07T04:35:00Z,39.15,-91.82,18.0,14.0,230,6,,10.0,29.890747,,,TRUE,TRUE,,,,,,,CLR,,,,,,,,VFR,,,,,,,,,,,,METAR,249.0
KMWO 070435Z AUTO 27003KT 7SM HZ CLR 16/ A2987 RMK AO2 T0157////,KMWO,2023-06-07T04:35:00Z,39.53,-84.4,15.7,,270,3,,7.0,29.870079,,,TRUE,TRUE,,,,,,HZ,CLR,,,,,,,,VFR,,,,,,,,,,,,METAR,197.0
KMWM 070435Z AUTO 11005KT 10SM CLR 23/15 A2990 RMK AO2,KMWM,2023-06-07T04:35:00Z,43.9,-95.1,23.0,15.0,110,5,,10.0,29.899607,,,TRUE,TRUE,,,,,,,CLR,,,,,,,,VFR,,,,,,,,,,,,METAR,427.0
KMWC 070435Z AUTO 04004KT 10SM CLR 13/03 A2997 RMK AO2,KMWC,2023-06-07T04:35:00Z,43.12,-88.03,13.0,3.0,40,4,,10.0,29.970472,,,TRUE,TRUE,,,,,,,CLR,,,,,,,,VFR,,,,,,,,,,,,SPECI,225.0
KMWA 070435Z AUTO 00000KT 10SM CLR 20/16 A2988 RMK AO2 T01990163,KMWA,2023-06-07T04:35:00Z,37.77,-89.02,19.9,16.3,0,0,,10.0,29.878937,,,TRUE,TRUE,,,,,,,CLR,,,,,,,,VFR,,,,,,,,,,,,METAR,142.0
KMVE 070435Z AUTO 12007KT 10SM CLR 24/17 A2989 RMK AO2 LTG DSNT N,KMVE,2023-06-07T04:35:00Z,44.97,-95.72,24.0,17.0,120,7,,10.0,29.890747,,,TRUE,TRUE,,,,,,,CLR,,,,,,,,VFR,,,,,,,,,,,,METAR,319.0
KMUT 070435Z AUTO 00000KT 10SM CLR 20/17 A2988 RMK AO2,KMUT,2023-06-07T04:35:00Z,41.37,-91.15,20.0,17.0,0,0,,10.0,29.878937,,,TRUE,TRUE,,,,,,,CLR,,,,,,,,VFR,,,,,,,,,,,,METAR,166.0
KMTV 070435Z AUTO 00000KT 10SM CLR 15/13 A2985 RMK AO2 LTG DSNT S T01450131,KMTV,2023-06-07T04:35:00Z,36.63,-80.02,14.5,13.1,0,0,,10.0,29.84941,,,TRUE,TRUE,,,,,,,CLR,,,,,,,,VFR,,,,,,,,,,,,SPECI,276.0
KMRJ 070435Z AUTO 10007KT 10SM CLR 20/12 A2995 RMK AO2 PWINO,KMRJ,2023-06-07T04:35:00Z,42.88,-90.23,20.0,12.0,100,7,,10.0,29.949802,,,TRUE,TRUE,,,,,TRUE,,CLR,,,,,,,,VFR,,,,,,,,,,,,SPECI,350.0
KMRC 070435Z AUTO 00000KT 10SM FEW003 19/19 A2987 RMK A01,KMRC,2023-06-07T04:35:00Z,35.55,-87.18,19.0,19.0,0,0,,10.0,29.870079,,,TRUE,TRUE,,,,,,,FEW,300,,,,,,,VFR,,,,,,,,,,,,METAR,205.0
KMQW 070435Z AUTO 26004KT 10SM CLR 24/18 A2987 RMK AO2 T02370178,KMQW,2023-06-07T04:35:00Z,32.1,-82.88,23.7,17.8,260,4,,10.0,29.870079,,,TRUE,TRUE,,,,,,,CLR,,,,,,,,VFR,,,,,,,,,,,,SPECI,62.0
KMQS 070435Z AUTO 00000KT 4SM HZ CLR 16/07 A2972 RMK AO2,KMQS,2023-06-07T04:35:00Z,39.98,-75.87,16.0,7.0,0,0,,4.0,29.719488,,,TRUE,TRUE,,,,,,HZ,CLR,,,,,,,,MVFR,,,,,,,,,,,,METAR,200.0
KMQJ 070435Z AUTO 01003KT 10SM BKN060 BKN070 OVC090 18/14 A2988 RMK AO1,KMQJ,2023-06-07T04:35:00Z,39.85,-85.9,18.0,14.0,10,3,,10.0,29.878937,,,TRUE,TRUE,,,,,,,BKN,6000,BKN,7000,OVC,9000,,,VFR,,,,,,,,,,,,METAR,262.0
KMPZ 070435Z AUTO 03004KT 10SM CLR 22/13 A2989 RMK AO2,KMPZ,2023-06-07T04:35:00Z,40.95,-91.52,22.0,13.0,30,4,,10.0,29.890747,,,TRUE,TRUE,,,,,,,CLR,,,,,,,,VFR,,,,,,,,,,,,METAR,222.0
KMPR 070435Z AUTO 16004KT 10SM CLR 18/16 A2996 RMK AO2 T01780157,KMPR,2023-06-07T04:35:00Z,38.35,-97.68,17.8,15.7,160,4,,10.0,29.958662,,,TRUE,TRUE,,,,,,,CLR,,,,,,,,VFR,,,,,,,,,,,,SPECI,455.0
KMOX 070435Z AUTO 07013G18KT 10SM CLR 24/14 A2991 RMK AO2 LTG DSNT NE AND E,KMOX,2023-06-07T04:35:00Z,45.57,-95.97,24.0,14.0,70,13,18,10.0,29.911417,,,TRUE,TRUE,,,,,,,CLR,,,,,,,,VFR,,,,,,,,,,,,METAR,346.0
KMOP 070435Z AUTO 00000KT 10SM CLR 09/07 A2993 RMK AO2 T00930073,KMOP,2023-06-07T04:35:00Z,43.62,-84.73,9.3,7.3,0,0,,10.0,29.929134,,,TRUE,TRUE,,,,,,,CLR,,,,,,,,VFR,,,,,,,,,,,,METAR,229.0
KMNZ 070435Z AUTO 00000KT 10SM SCT110 22/18 A2995 RMK AO2 T02180184,KMNZ,2023-06-07T04:35:00Z,31.67,-98.15,21.8,18.4,0,0,,10.0,29.949802,,,TRUE,TRUE,,,,,,,SCT,11000,,,,,,,VFR,,,,,,,,,,,,METAR,397.0
KMNV 070435Z AUTO 00000KT 10SM FEW075 18/16 A2988 RMK A01,KMNV,2023-06-07T04:35:00Z,35.55,-84.38,18.0,16.0,0,0,,10.0,29.878937,,,TRUE,TRUE,,,,,,,FEW,7500,,,,,,,VFR,,,,,,,,,,,,METAR,306.0
KMNI 070435Z AUTO 02003KT 10SM TS CLR 20/17 A2983 RMK AO2 LTG DSNT NE THRU S,KMNI,2023-06-07T04:35:00Z,33.58,-80.22,20.0,17.0,20,3,,10.0,29.828741,,,TRUE,TRUE,,,,,,TS,CLR,,,,,,,,VFR,,,,,,,,,,,,SPECI,29.0
KMNH 070435Z AUTO 21004KT 10SM CLR 11/06 A3016 RMK AO2 LTG DSNT SE,KMNH,2023-06-07T04:35:00Z,39.22,-104.65,11.0,6.0,210,4,,10.0,30.159449,,,TRUE,TRUE,,,,,,,CLR,,,,,,,,VFR,,,,,,,,,,,,SPECI,2152.0
KMMU 070435Z AUTO 30004KT 7SM OVC049 15/08 A2966 RMK AO2,KMMU,2023-06-07T04:35:00Z,40.78,-74.42,15.0,8.0,300,4,,7.0,29.660433,,,TRUE,TRUE,,,,,,,OVC,4900,,,,,,,VFR,,,,,,,,,,,,METAR,55.0
KMMI 070435Z AUTO 00000KT 10SM SCT060 17/17 A2989 RMK A01,KMMI,2023-06-07T04:35:00Z,35.4,-84.57,17.0,17.0,0,0,,10.0,29.890747,,,TRUE,TRUE,,,,,,,SCT,6000,,,,,,,VFR,,,,,,,,,,,,METAR,252.0
KMMH 070435Z AUTO 28007KT 10SM CLR 10/M01 A2999 RMK AO2 T00981015,KMMH,2023-06-07T04:35:00Z,37.62,-118.83,9.8,-1.5,280,7,,10.0,29.991142,,,TRUE,TRUE,,,,,,,CLR,,,,,,,,VFR,,,,,,,,,,,,SPECI,2167.0
KMLJ 070435Z AUTO 00000KT 10SM CLR 22/16 A2984 RMK AO2,KMLJ,2023-06-07T04:35:00Z,33.15,-83.25,22.0,16.0,0,0,,10.0,29.840551,,,TRUE,TRUE,,,,,,,CLR,,,,,,,,VFR,,,,,,,,,,,,SPECI,115.0
KMLE 070435Z AUTO 00000KT 10SM CLR 22/16 A2990 RMK AO2 T02210163,KMLE,2023-06-07T04:35:00Z,41.2,-96.12,22.1,16.3,0,0,,10.0,29.899607,,,TRUE,TRUE,,,,,,,CLR,,,,,,,,VFR,,,,,,,,,,,,METAR,318.0
KMKS 070435Z AUTO 25004KT 10SM VCTS SCT085 BKN110 21/18 A2983 RMK AO2 LTG DSNT N AND NW,KMKS,2023-06-07T04:35:00Z,33.18,-80.03,21.0,18.0,250,4,,10.0,29.828741,,,TRUE,TRUE,,,,,,VCTS,SCT,8500,BKN,11000,,,,,VFR,,,,,,,,,,,,SPECI,22.0
KMKN 070435Z AUTO 19003KT 10SM 21/18 A2995 RMK AO2 T02060177,KMKN,2023-06-07T04:35:00Z,31.92,-98.6,20.6,17.7,190,3,,10.0,29.949802,,,TRUE,TRUE,,,,,,,,,,,,,,,,,,,,,,,,,,,SPECI,428.0
KMKJ 070435Z AUTO 25005KT 10SM CLR 12/09 A2992 RMK AO2 T01220088,KMKJ,2023-06-07T04:35:00Z,36.88,-81.33,12.2,8.8,250,5,,10.0,29.920275,,,TRUE,TRUE,,,,,,,CLR,,,,,,,,VFR,,,,,,,,,,,,METAR,777.0
KMJQ 070435Z AUTO 11004KT 10SM CLR 22/16 A2991 RMK AO2 PWINO,KMJQ,2023-06-07T04:35:00Z,43.63,-94.98,22.0,16.0,110,4,,10.0,29.911417,,,TRUE,TRUE,,,,,TRUE,,CLR,,,,,,,,VFR,,,,,,,,,,,,METAR,439.0
KMJD 070435Z AUTO 00000KT 9SM CLR 21/21 A2988 RMK AO2,KMJD,2023-06-07T04:35:00Z,30.48,-89.65,21.0,21.0,0,0,,9.0,29.878937,,,TRUE,TRUE,,,,,,,CLR,,,,,,,,VFR,,,,,,,,,,,,METAR,17.0
KMHP 070435Z AUTO 30005KT 10SM BKN075 25/17 A2985 RMK AO2 LTG DSNT NE T02480171,KMHP,2023-06-07T04:35:00Z,32.37,-82.08,24.8,17.1,300,5,,10.0,29.84941,,,TRUE,TRUE,,,,,,,BKN,7500,,,,,,,VFR,,,,,,,,,,,,SPECI,60.0
KMHL 070435Z AUTO 00000KT 10SM CLR 20/13 A2992 RMK AO2,KMHL,2023-06-07T04:35:00Z,39.1,-93.2,20.0,13.0,0,0,,10.0,29.920275,,,TRUE,TRUE,,,,,,,CLR,,,,,,,,VFR,,,,,,,,,,,,SPECI,236.0
KMGR 070435Z AUTO 29003KT 10SM CLR 23/20 A2991 RMK AO2 T02250202,KMGR,2023-06-07T04:35:00Z,31.08,-83.8,22.5,20.2,290,3,,10.0,29.911417,,,TRUE,TRUE,,,,,,,CLR,,,,,,,,VFR,,,,,,,,,,,,METAR,86.0
KMGN 070435Z AUTO 00000KT 10SM CLR 12/05 A2995 RMK AO2 T01220056,KMGN,2023-06-07T04:35:00Z,45.43,-84.92,12.2,5.6,0,0,,10.0,29.949802,,,TRUE,TRUE,,,,,,,CLR,,,,,,,,VFR,,,,,,,,,,,,SPECI,205.0
KMGG 070435Z AUTO 06008KT 10SM OVC110 22/14 A2994 RMK AO2 T02190140,KMGG,2023-06-07T04:35:00Z,45.23,-93.98,21.9,14.0,60,8,,10.0,29.940945,,,TRUE,TRUE,,,,,,,OVC,11000,,,,,,,VFR,,,,,,,,,,,,METAR,310.0
KMGC 070435Z AUTO 00000KT 10SM CLR 13/11 A2992 RMK AO2,KMGC,2023-06-07T04:35:00Z,41.7,-86.82,13.0,11.0,0,0,,10.0,29.920275,,,TRUE,TRUE,,,,,,,CLR,,,,,,,,VFR,,,,,,,,,,,,METAR,199.0
KMFV 070435Z AUTO 25005KT 10SM CLR 19/11 A2969 RMK AO2 T01870110,KMFV,2023-06-07T04:35:00Z,37.63,-75.77,18.7,11.0,250,5,,10.0,29.68996,,,TRUE,TRUE,,,,,,,CLR,,,,,,,,VFR,,,,,,,,,,,,METAR,13.0
KMEZ 070435Z AUTO 00000KT 9SM CLR 18/18 A2993 RMK AO2 T01810181,KMEZ,2023-06-07T04:35:00Z,34.55,-94.2,18.1,18.1,0,0,,9.0,29.929134,,,TRUE,TRUE,,,,,,,CLR,,,,,,,,VFR,,,,,,,,,,,,METAR,320.0
KMEV 070435Z AUTO 00000KT 10SM FEW026 SCT033 BKN042 07/04 A2993 RMK AO2,KMEV,2023-06-07T04:35:00Z,38.98,-119.75,7.0,4.0,0,0,,10.0,29.929134,,,TRUE,TRUE,,,,,,,FEW,2600,SCT,3300,BKN,4200,,,VFR,,,,,,,,,,,,METAR,1437.0
KMDZ 070435Z AUTO 09005KT 10SM CLR 15/09 A2999 RMK AO2 T01500085 PWINO,KMDZ,2023-06-07T04:35:00Z,45.1,-90.3,15.0,8.5,90,5,,10.0,29.991142,,,TRUE,TRUE,,,,,TRUE,,CLR,,,,,,,,VFR,,,,,,,,,,,,SPECI,446.0
KMDS 070435Z AUTO 18006KT 10SM CLR 23/17 A2989 RMK AO2,KMDS,2023-06-07T04:35:00Z,44.02,-97.08,23.0,17.0,180,6,,10.0,29.890747,,,TRUE,TRUE,,,,,,,CLR,,,,,,,,VFR,,,,,,,,,,,,SPECI,524.0
KMDQ 070435Z AUTO 00000KT 7SM CLR 20/18 A2989 RMK A02 T02010185,KMDQ,2023-06-07T04:35:00Z,34.87,-86.55,20.1,18.5,0,0,,7.0,29.890747,,,TRUE,TRUE,,,,,,,CLR,,,,,,,,VFR,,,,,,,,,,,,SPECI,221.0
KMCJ 070435Z AUTO 00000KT 10SM CLR 24/20 A2987 RMK A01,KMCJ,2023-06-07T04:35:00Z,29.72,-95.4,24.0,20.0,0,0,,10.0,29.870079,,,TRUE,TRUE,,,,,,,CLR,,,,,,,,VFR,,,,,,,,,,,,METAR,70.0
KMCD 070435Z AUTO 02005KT 10SM CLR 11/06 A2996 RMK AO2 T01130063,KMCD,2023-06-07T04:35:00Z,45.85,-84.63,11.3,6.3,20,5,,10.0,29.958662,,,TRUE,TRUE,,,,,,,CLR,,,,,,,,VFR,,,,,,,,,,,,METAR,228.0
KMCC 070435Z AUTO 14007KT 10SM CLR 17/12 A2983 RMK AO2,KMCC,2023-06-07T04:35:00Z,38.67,-121.4,17.0,12.0,140,7,,10.0,29.828741,,,TRUE,TRUE,,,,,,,CLR,,,,,,,,VFR,,,,,,,,,,,,METAR,21.0
KMBY 070435Z AUTO 22003KT 10SM CLR 22/09 A2990 RMK AO2,KMBY,2023-06-07T04:35:00Z,39.47,-92.43,22.0,9.0,220,3,,10.0,29.899607,,,TRUE,TRUE,,,,,,,CLR,,,,,,,,VFR,,,,,,,,,,,,METAR,263.0
KMBT 070435Z AUTO 00000KT 10SM FEW047 BKN060 20/13 A2986 RMK A01,KMBT,2023-06-07T04:35:00Z,35.88,-86.38,20.0,13.0,0,0,,10.0,29.861221,,,TRUE,TRUE,,,,,,,FEW,4700,BKN,6000,,,,,VFR,,,,,,,,,,,,METAR,187.0
KMAW 070435Z AUTO 00000KT 10SM CLR 22/11 A2989 RMK AO1,KMAW,2023-06-07T04:35:00Z,36.6,-90.0,22.0,11.0,0,0,,10.0,29.890747,,,TRUE,TRUE,,,,,,,CLR,,,,,,,,VFR,,,,,,,,,,,,SPECI,88.0
KMAO 070435Z AUTO 29008KT 10SM VCTS BKN055 BKN070 22/21 A2983 RMK AO2 LTG DSNT SW AND W,KMAO,2023-06-07T04:35:00Z,34.18,-79.33,22.0,21.0,290,8,,10.0,29.828741,,,TRUE,TRUE,,,,,,VCTS,BKN,5500,BKN,7000,,,,,VFR,,,,,,,,,,,,SPECI,27.0
KMAN 070435Z AUTO 00000KT 10SM FEW018 SCT032 BKN050 19/14 A2986 RMK A01,KMAN,2023-06-07T04:35:00Z,43.58,-116.52,19.0,14.0,0,0,,10.0,29.861221,,,TRUE,TRUE,,,,,,,FEW,1800,SCT,3200,BKN,5000,,,VFR,,,,,,,,,,,,METAR,773.0
KM75 070435Z AUTO 23007KT 10SM CLR 20/19 A2990 RMK A01,KM75,2023-06-07T04:35:00Z,48.37,-107.92,20.0,19.0,230,7,,10.0,29.899607,,,TRUE,TRUE,,,,,,,CLR,,,,,,,,VFR,,,,,,,,,,,,METAR,687.0
KM54 070435Z AUTO 00000KT 10SM SCT032 BKN041 17/14 A2985 RMK A01,KM54,2023-06-07T04:35:00Z,36.18,-86.32,17.0,14.0,0,0,,10.0,29.84941,,,TRUE,TRUE,,,,,,,SCT,3200,BKN,4100,,,,,VFR,,,,,,,,,,,,METAR,168.0
KM40 070435Z AUTO 00000KT 8SM CLR 20/21 A2989 RMK AO2,KM40,2023-06-07T04:35:00Z,33.87,-88.48,20.0,21.0,0,0,,8.0,29.890747,,,TRUE,TRUE,,,,,,,CLR,,,,,,,,VFR,,,,,,,,,,,,METAR,68.0
KM30 070435Z AUTO 00000KT 10SM CLR 19/14 A2989 RMK AO2 T01850135,KM30,2023-06-07T04:35:00Z,37.18,-88.75,18.5,13.5,0,0,,10.0,29.890747,,,TRUE,TRUE,,,,,,,CLR,,,,,,,,VFR,,,,,,,,,,,,METAR,116.0
KM25 070435Z AUTO 00000KT 10SM CLR 18/14 A2989 RMK AO2 PWINO,KM25,2023-06-07T04:35:00Z,36.77,-88.58,18.0,14.0,0,0,,10.0,29.890747,,,TRUE,TRUE,,,,,TRUE,,CLR,,,,,,,,VFR,,,,,,,,,,,,METAR,157.0
KM21 070435Z AUTO 00000KT 10SM CLR 17/15 A2987 RMK AO2 T01740152,KM21,2023-06-07T04:35:00Z,37.22,-87.15,17.4,15.2,0,0,,10.0,29.870079,,,TRUE,TRUE,,,,,,,CLR,,,,,,,,VFR,,,,,,,,,,,,METAR,127.0
KM08 070435Z AUTO 00000KT 8SM CLR 20/19 A2988 RMK A01,KM08,2023-06-07T04:35:00Z,35.22,-89.05,20.0,19.0,0,0,,8.0,29.878937,,,TRUE,TRUE,,,,,,,CLR,,,,,,,,VFR,,,,,,,,,,,,METAR,149.0
KM04 070435Z AUTO 00000KT 10SM 20/18 A2988 RMK A01,KM04,2023-06-07T04:35:00Z,35.58,-89.58,20.0,18.0,0,0,,10.0,29.878937,,,TRUE,TRUE,,,,,,,,,,,,,,,,,,,,,,,,,,,METAR,83.0
KM02 070435Z AUTO 00000KT 10SM FEW024 FEW043 OVC065 18/15 A2989 RMK A01,KM02,2023-06-07T04:35:00Z,36.13,-87.43,18.0,15.0,0,0,,10.0,29.890747,,,TRUE,TRUE,,,,,,,FEW,2400,FEW,4300,OVC,6500,,,VFR,,,,,,,,,,,,METAR,268.0
KM01 070435Z AUTO 34003KT 7SM CLR 20/20 A2986 RMK AO2 T02040200 $,KM01,2023-06-07T04:35:00Z,35.2,-90.05,20.4,20.0,340,3,,7.0,29.861221,,,TRUE,TRUE,TRUE,,,,,,CLR,,,,,,,,VFR,,,,,,,,,,,,METAR,68.0
KLYV 070435Z AUTO 00000KT 10SM CLR 21/14 A2990 RMK AO2,KLYV,2023-06-07T04:35:00Z,43.62,-96.22,21.0,14.0,0,0,,10.0,29.899607,,,TRUE,TRUE,,,,,,,CLR,,,,,,,,VFR,,,,,,,,,,,,METAR,435.0
KLYO 070435Z AUTO 21003KT 10SM CLR 19/15 A2997 RMK AO2 T01910155,KLYO,2023-06-07T04:35:00Z,38.35,-98.23,19.1,15.5,210,3,,10.0,29.970472,,,TRUE,TRUE,,,,,,,CLR,,,,,,,,VFR,,,,,,,,,,,,SPECI,515.0
KLXY 070435Z AUTO 22004KT 10SM CLR 24/18 A2989 RMK AO2 T02360184,KLXY,2023-06-07T04:35:00Z,31.63,-96.52,23.6,18.4,220,4,,10.0,29.890747,,,TRUE,TRUE,,,,,,,CLR,,,,,,,,VFR,,,,,,,,,,,,METAR,164.0
KLXN 070435Z AUTO 20004KT 10SM BKN110 21/15 A2997 RMK AO2 T02120145,KLXN,2023-06-07T04:35:00Z,40.78,-99.77,21.2,14.5,200,4,,10.0,29.970472,,,TRUE,TRUE,,,,,,,BKN,11000,,,,,,,VFR,,,,,,,,,,,,METAR,734.0
KLXL 070435Z AUTO 07003KT 10SM CLR 17/12 A2995 RMK AO2 LTG DSNT W,KLXL,2023-06-07T04:35:00Z,45.95,-94.33,17.0,12.0,70,3,,10.0,29.949802,,,TRUE,TRUE,,,,,,,CLR,,,,,,,,VFR,,,,,,,,,,,,METAR,335.0
KLWB 070435Z AUTO 00000KT 10SM CLR 14/11 A2984 RMK AO2 T01410110,KLWB,2023-06-07T04:35:00Z,37.87,-80.4,14.1,11.0,0,0,,10.0,29.840551,,,TRUE,TRUE,,,,,,,CLR,,,,,,,,VFR,,,,,,,,,,,,METAR,702.0
KLWA 070435Z AUTO 00000KT 10SM CLR 13/13 A2991 RMK AO2 T01260126,KLWA,2023-06-07T04:35:00Z,42.35,-86.25,12.6,12.6,0,0,,10.0,29.911417,,,TRUE,TRUE,,,,,,,CLR,,,,,,,,VFR,,,,,,,,,,,,METAR,199.0
KLVN 070435Z AUTO 07003KT 10SM CLR 21/15 A2992 RMK AO2,KLVN,2023-06-07T04:35:00Z,44.63,-93.23,21.0,15.0,70,3,,10.0,29.920275,,,TRUE,TRUE,,,,,,,CLR,,,,,,,,VFR,,,,,,,,,,,,METAR,292.0
KLVL 070435Z AUTO 27003KT 10SM CLR 19/14 A2976 RMK AO1 T01940138,KLVL,2023-06-07T04:35:00Z,36.78,-77.8,19.4,13.8,270,3,,10.0,29.760826,,,TRUE,TRUE,,,,,,,CLR,,,,,,,,VFR,,,,,,,,,,,,METAR,98.0
KLUX 070435Z AUTO 35003KT 10SM CLR 17/17 A2983 RMK AO2 LTG DSNT SE,KLUX,2023-06-07T04:35:00Z,34.5,-81.95,17.0,17.0,350,3,,10.0,29.828741,,,TRUE,TRUE,,,,,,,CLR,,,,,,,,VFR,,,,,,,,,,,,SPECI,213.0
KLUV 070435Z AUTO 12007KT 10SM CLR 21/13 A3003 RMK AO2,KLUV,2023-06-07T04:35:00Z,32.75,-101.92,21.0,13.0,120,7,,10.0,30.029528,,,TRUE,TRUE,,,,,,,CLR,,,,,,,,VFR,,,,,,,,,,,,METAR,910.0
KLUM 070435Z 00000KT 10SM SCT080 21/12 A2994 RMK AO2 T02140117 PWINO,KLUM,2023-06-07T04:35:00Z,44.9,-91.87,21.4,11.7,0,0,,10.0,29.940945,,,,TRUE,,,,,TRUE,,SCT,8000,,,,,,,VFR,,,,,,,,,,,,SPECI,271.0
KLUL 070435Z AUTO 00000KT 10SM CLR 23/22 A2990 RMK A02 T02280218,KLUL,2023-06-07T04:35:00Z,31.67,-89.17,22.8,21.8,0,0,,10.0,29.899607,,,TRUE,TRUE,,,,,,,CLR,,,,,,,,VFR,,,,,,,,,,,,METAR,74.0
KLUG 070435Z AUTO 00000KT 10SM CLR 17/17 A2988 RMK A01,KLUG,2023-06-07T04:35:00Z,35.52,-86.8,17.0,17.0,0,0,,10.0,29.878937,,,TRUE,TRUE,,,,,,,CLR,,,,,,,,VFR,,,,,,,,,,,,METAR,218.0
KLUD 070435Z AUTO 00000KT 10SM CLR 21/17 A2992 RMK AO2 T02060165,KLUD,2023-06-07T04:35:00Z,33.25,-97.58,20.6,16.5,0,0,,10.0,29.920275,,,TRUE,TRUE,,,,,,,CLR,,,,,,,,VFR,,,,,,,,,,,,METAR,319.0
KLUA 070435Z AUTO 19004KT 10SM CLR 17/08 A2977 RMK AO2,KLUA,2023-06-07T04:35:00Z,38.67,-78.5,17.0,8.0,190,4,,10.0,29.769686,,,TRUE,TRUE,,,,,,,CLR,,,,,,,,VFR,,,,,,,,,,,,METAR,273.0
KLRY 070435Z AUTO 00000KT 10SM CLR 20/18 A2994 RMK AO2,KLRY,2023-06-07T04:35:00Z,38.62,-94.35,20.0,18.0,0,0,,10.0,29.940945,,,TRUE,TRUE,,,,,,,CLR,,,,,,,,VFR,,,,,,,,,,,,METAR,272.0
KLRU 070435Z AUTO 18007KT 10SM SCT120 22/10 A3001 RMK AO2 T02150096,KLRU,2023-06-07T04:35:00Z,32.28,-106.92,21.5,9.6,180,7,,10.0,30.008858,,,TRUE,TRUE,,,,,,,SCT,12000,,,,,,,VFR,,,,,,,,,,,,SPECI,1355.0
KLRO 070435Z AUTO 21012G18KT 8SM CLR 24/19 A2981 RMK AO2 LTG DSNT NW,KLRO,2023-06-07T04:35:00Z,32.9,-79.78,24.0,19.0,210,12,18,8.0,29.811024,,,TRUE,TRUE,,,,,,,CLR,,,,,,,,VFR,,,,,,,,,,,,METAR,3.0
KLRJ 070435Z AUTO 20003KT 10SM CLR 22/17 A2987 RMK AO2,KLRJ,2023-06-07T04:35:00Z,42.77,-96.2,22.0,17.0,200,3,,10.0,29.870079,,,TRUE,TRUE,,,,,,,CLR,,,,,,,,VFR,,,,,,,,,,,,SPECI,363.0
KLQK 070435Z AUTO 00000KT 10SM CLR 18/18 A2984 RMK AO2 T01790177,KLQK,2023-06-07T04:35:00Z,34.82,-82.7,17.9,17.7,0,0,,10.0,29.840551,,,TRUE,TRUE,,,,,,,CLR,,,,,,,,VFR,,,,,,,,,,,,SPECI,291.0
KLOT 070435Z AUTO 02009KT 10SM OVC049 17/05 A2992 RMK AO2,KLOT,2023-06-07T04:35:00Z,41.6,-88.1,17.0,5.0,20,9,,10.0,29.920275,,,TRUE,TRUE,,,,,,,OVC,4900,,,,,,,VFR,,,,,,,,,,,,METAR,205.0
KLOM 070435Z AUTO 00000KT 4SM HZ BKN032 OVC045 12/09 A2970 RMK AO2 T01190088,KLOM,2023-06-07T04:35:00Z,40.13,-75.27,11.9,8.8,0,0,,4.0,29.698818,,,TRUE,TRUE,,,,,,HZ,BKN,3200,OVC,4500,,,,,MVFR,,,,,,,,,,,,SPECI,87.0
KLNQ 070435Z AUTO 00000KT 10SM CLR 24/22 A2989 RMK AO2 T02430216,KLNQ,2023-06-07T04:35:00Z,29.35,-89.43,24.3,21.6,0,0,,10.0,29.890747,,,TRUE,TRUE,,,,,,,CLR,,,,,,,,VFR,,,,,,,,,,,,SPECI,1.0
KLNP 070435Z AUTO 25005KT 10SM BKN060 BKN075 OVC090 15/08 A2992 RMK AO2,KLNP,2023-06-07T04:35:00Z,36.98,-82.52,15.0,8.0,250,5,,10.0,29.920275,,,TRUE,TRUE,,,,,,,BKN,6000,BKN,7500,OVC,9000,,,VFR,,,,,,,,,,,,METAR,817.0
KLNN 070435Z AUTO 03004KT 7SM CLR 13/10 A2984 RMK AO1 T01280095,KLNN,2023-06-07T04:35:00Z,41.68,-81.38,12.8,9.5,30,4,,7.0,29.840551,,,TRUE,TRUE,,,,,,,CLR,,,,,,,,VFR,,,,,,,,,,,,SPECI,190.0
KLNL 070435Z AUTO 00000KT 10SM CLR 08/07 A3005 RMK AO2 T00790070,KLNL,2023-06-07T04:35:00Z,46.15,-89.22,7.9,7.0,0,0,,10.0,30.050198,,,TRUE,TRUE,,,,,,,CLR,,,,,,,,VFR,,,,,,,,,,,,SPECI,517.0
KLNC 070435Z AUTO 00000KT 10SM CLR 22/19 A2991 RMK AO2 T02230188,KLNC,2023-06-07T04:35:00Z,32.58,-96.72,22.3,18.8,0,0,,10.0,29.911417,,,TRUE,TRUE,,,,,,,CLR,,,,,,,,VFR,,,,,,,,,,,,METAR,152.0
KLNA 070435Z AUTO 11003KT 10SM CLR 27/23 A2992 RMK AO2 T02680227,KLNA,2023-06-07T04:35:00Z,26.6,-80.08,26.8,22.7,110,3,,10.0,29.920275,,,TRUE,TRUE,,,,,,,CLR,,,,,,,,VFR,,,,,,,,,,,,SPECI,3.0
KLMS 070435Z AUTO 00000KT 10SM FEW050 21/20 A2992 RMK AO2,KLMS,2023-06-07T04:35:00Z,,,21.0,20.0,0,0,,10.0,29.920275,,,TRUE,TRUE,,,,,,,FEW,5000,,,,,,,VFR,,,,,,,,,,,,METAR,
KLMO 070435Z AUTO 00000KT 10SM CLR 17/11 A3004 RMK AO2 T01720110,KLMO,2023-06-07T04:35:00Z,40.17,-105.17,17.2,11.0,0,0,,10.0,30.041338,,,TRUE,TRUE,,,,,,,CLR,,,,,,,,VFR,,,,,,,,,,,,METAR,1535.0
KLLN 070435Z AUTO 12009KT 10SM FEW049 BKN060 BKN070 21/12 A3005 RMK AO2,KLLN,2023-06-07T04:35:00Z,33.55,-102.37,21.0,12.0,120,9,,10.0,30.050198,,,TRUE,TRUE,,,,,,,FEW,4900,BKN,6000,BKN,7000,,,VFR,,,,,,,,,,,,METAR,1071.0
KLKU 070435Z AUTO 27006KT 10SM CLR 18/11 A2976 RMK AO2 T01850106,KLKU,2023-06-07T04:35:00Z,38.02,-77.97,18.5,10.6,270,6,,10.0,29.760826,,,TRUE,TRUE,,,,,,,CLR,,,,,,,,VFR,,,,,,,,,,,,SPECI,146.0
KLKR 070435Z AUTO 00000KT 10SM OVC070 19/17 A2983 RMK AO2,KLKR,2023-06-07T04:35:00Z,34.72,-80.85,19.0,17.0,0,0,,10.0,29.828741,,,TRUE,TRUE,,,,,,,OVC,7000,,,,,,,VFR,,,,,,,,,,,,METAR,166.0
KLJF 070435Z AUTO 09008KT 10SM CLR 22/15 A2991 RMK AO2,KLJF,2023-06-07T04:35:00Z,45.1,-94.52,22.0,15.0,90,8,,10.0,29.911417,,,TRUE,TRUE,,,,,,,CLR,,,,,,,,VFR,,,,,,,,,,,,METAR,347.0
KLHM 070435Z AUTO 14006KT 10SM CLR 18/12 A2983 RMK AO1,KLHM,2023-06-07T04:35:00Z,38.92,-121.35,18.0,12.0,140,6,,10.0,29.828741,,,TRUE,TRUE,,,,,,,CLR,,,,,,,,VFR,,,,,,,,,,,,METAR,36.0
KLHB 070435Z AUTO 00000KT 10SM CLR 24/20 A2990 RMK AO2 T02350203,KLHB,2023-06-07T04:35:00Z,30.87,-96.62,23.5,20.3,0,0,,10.0,29.899607,,,TRUE,TRUE,,,,,,,CLR,,,,,,,,VFR,,,,,,,,,,,,METAR,83.0
KLGC 070435Z AUTO 00000KT 10SM CLR 20/17 A2989 RMK AO2 T02040165,KLGC,2023-06-07T04:35:00Z,33.0,-85.07,20.4,16.5,0,0,,10.0,29.890747,,,TRUE,TRUE,,,,,,,CLR,,,,,,,,VFR,,,,,,,,,,,,SPECI,209.0
KLDM 070435Z AUTO 02005KT 10SM CLR 12/07 A2995 RMK AO2 T01210066,KLDM,2023-06-07T04:35:00Z,43.97,-86.4,12.1,6.6,20,5,,10.0,29.949802,,,TRUE,TRUE,,,,,,,CLR,,,,,,,,VFR,,,,,,,,,,,,METAR,194.0
KLCQ 070435Z AUTO 28004KT 10SM SCT070 SCT095 22/18 A2990 RMK AO2,KLCQ,2023-06-07T04:35:00Z,30.18,-82.58,22.0,18.0,280,4,,10.0,29.899607,,,TRUE,TRUE,,,,,,,SCT,7000,SCT,9500,,,,,VFR,,,,,,,,,,,,SPECI,59.0
KLCG 070435Z AUTO 17006KT 10SM CLR 23/11 A2990 RMK AO2 T02250112,KLCG,2023-06-07T04:35:00Z,42.25,-96.98,22.5,11.2,170,6,,10.0,29.899607,,,TRUE,TRUE,,,,,,,CLR,,,,,,,,VFR,,,,,,,,,,,,METAR,434.0
KLBO 070435Z AUTO 00000KT 10SM CLR 20/10 A2995 RMK AO2,KLBO,2023-06-07T04:35:00Z,37.65,-92.65,20.0,10.0,0,0,,10.0,29.949802,,,TRUE,TRUE,,,,,,,CLR,,,,,,,,VFR,,,,,,,,,,,,METAR,399.0
KLBE 070435Z AUTO 00000KT 10SM CLR 14/05 A2979 RMK AO2,KLBE,2023-06-07T04:35:00Z,40.27,-79.4,14.0,5.0,0,0,,10.0,29.790354,,,TRUE,TRUE,,,,,,,CLR,,,,,,,,VFR,,,,,,,,,,,,METAR,345.0
KLAM 070435Z AUTO 36005KT 10SM OVC004 10/10 A3026 RMK AO2 LTG DSNT E - S RAE0431 CIG 003V007 P0000 T01020097 $,KLAM,2023-06-07T04:35:00Z,35.87,-106.27,10.2,9.7,360,5,,10.0,30.259842,,,TRUE,TRUE,TRUE,,,,,,OVC,400,,,,,,,LIFR,,,,,,0.005,,,,,,METAR,2166.0
KLAL 070435Z AUTO 00000KT 10SM CLR 23/19 A2992 RMK AO2 T02330186,KLAL,2023-06-07T04:35:00Z,27.98,-82.02,23.3,18.6,0,0,,10.0,29.920275,,,TRUE,TRUE,,,,,,,CLR,,,,,,,,VFR,,,,,,,,,,,,SPECI,39.0
KL35 070435Z AUTO 23003KT 10SM BKN120 09/00 A3000 RMK AO2,KL35,2023-06-07T04:35:00Z,34.27,-116.85,9.0,0.0,230,3,,10.0,30.0,,,TRUE,TRUE,,,,,,,BKN,12000,,,,,,,VFR,,,,,,,,,,,,METAR,2062.0
KL18 070435Z AUTO 24004KT 10SM OVC030 14/12 A2994 RMK AO2,KL18,2023-06-07T04:35:00Z,33.35,-117.25,14.0,12.0,240,4,,10.0,29.940945,,,TRUE,TRUE,,,,,,,OVC,3000,,,,,,,MVFR,,,,,,,,,,,,SPECI,215.0
KKY8 070435Z AUTO 00000KT 10SM FEW075 OVC100 21/17 A2984 RMK A01,KKY8,2023-06-07T04:35:00Z,37.95,-86.87,21.0,17.0,0,0,,10.0,29.840551,,,TRUE,TRUE,,,,,,,FEW,7500,OVC,10000,,,,,VFR,,,,,,,,,,,,METAR,124.0
KKNB 070435Z AUTO 00000KT 10SM CLR 18/M05 A2994 RMK A01,KKNB,2023-06-07T04:35:00Z,37.02,-112.53,18.0,-5.0,0,0,,10.0,29.940945,,,TRUE,TRUE,,,,,,,CLR,,,,,,,,VFR,,,,,,,,,,,,METAR,1476.0
KK88 070435Z AUTO 00000KT 10SM CLR 19/18 A2995 RMK AO1 T01900179,KK88,2023-06-07T04:35:00Z,37.87,-95.38,19.0,17.9,0,0,,10.0,29.949802,,,TRUE,TRUE,,,,,,,CLR,,,,,,,,VFR,,,,,,,,,,,,METAR,308.0
KK82 070435Z AUTO 14003KT 10SM CLR 20/16 A2996 RMK AO2 T02000160,KK82,2023-06-07T04:35:00Z,39.77,-98.8,20.0,16.0,140,3,,10.0,29.958662,,,TRUE,TRUE,,,,,,,CLR,,,,,,,,VFR,,,,,,,,,,,,SPECI,548.0
KK70 070435Z AUTO 00000KT 10SM FEW022 FEW040 27/M35 A2988 RMK AO2,KK70,2023-06-07T04:35:00Z,25.32,-80.28,27.0,-35.0,0,0,,10.0,29.878937,,,TRUE,TRUE,,,,,,,FEW,2200,FEW,4000,,,,,VFR,,,,,,,,,,,,METAR,20.0
KJZP 070435Z AUTO 31004KT 10SM CLR 21/15 A2990 RMK AO2 T02100151,KJZP,2023-06-07T04:35:00Z,34.45,-84.47,21.0,15.1,310,4,,10.0,29.899607,,,TRUE,TRUE,,,,,,,CLR,,,,,,,,VFR,,,,,,,,,,,,SPECI,462.0
KJZI 070435Z AUTO 23009G16KT 10SM CLR 23/21 A2983 RMK AO2 LTG DSNT N,KJZI,2023-06-07T04:35:00Z,32.7,-80.0,23.0,21.0,230,9,16,10.0,29.828741,,,TRUE,TRUE,,,,,,,CLR,,,,,,,,VFR,,,,,,,,,,,,METAR,5.0
KJYR 070435Z AUTO 00000KT 10SM CLR 22/14 A2993 RMK AO2,KJYR,2023-06-07T04:35:00Z,40.9,-97.62,22.0,14.0,0,0,,10.0,29.929134,,,TRUE,TRUE,,,,,,,CLR,,,,,,,,VFR,,,,,,,,,,,,METAR,508.0
KJYO 070435Z AUTO 30007KT 10SM SCT080 20/12 A2974 RMK AO2,KJYO,2023-06-07T04:35:00Z,39.07,-77.57,20.0,12.0,300,7,,10.0,29.740158,,,TRUE,TRUE,,,,,,,SCT,8000,,,,,,,VFR,,,,,,,,,,,,SPECI,112.0
KJYM 070435Z AUTO 05005KT 10SM CLR 12/04 A2991 RMK AO2 T01160036,KJYM,2023-06-07T04:35:00Z,41.92,-84.58,11.6,3.6,50,5,,10.0,29.911417,,,TRUE,TRUE,,,,,,,CLR,,,,,,,,VFR,,,,,,,,,,,,METAR,357.0
KJYG 070435Z AUTO 10004KT 10SM CLR 23/16 A2989 RMK AO2 TSNO,KJYG,2023-06-07T04:35:00Z,43.98,-94.55,23.0,16.0,100,4,,10.0,29.890747,,,TRUE,TRUE,,,TRUE,,,,CLR,,,,,,,,VFR,,,,,,,,,,,,METAR,323.0
KJWY 070435Z AUTO 00000KT 10SM OVC110 22/20 A2993 RMK AO2 T02150196,KJWY,2023-06-07T04:35:00Z,32.45,-96.92,21.5,19.6,0,0,,10.0,29.929134,,,TRUE,TRUE,,,,,,,OVC,11000,,,,,,,VFR,,,,,,,,,,,,METAR,211.0
KJWN 070435Z AUTO 00000KT 9SM CLR 18/15 A2986 RMK AO2,KJWN,2023-06-07T04:35:00Z,36.18,-86.88,18.0,15.0,0,0,,9.0,29.861221,,,TRUE,TRUE,,,,,,,CLR,,,,,,,,VFR,,,,,,,,,,,,METAR,149.0
KJWG 070435Z AUTO 34005KT 10SM CLR 19/17 A2999 RMK AO2 T01850167,KJWG,2023-06-07T04:35:00Z,35.87,-98.42,18.5,16.7,340,5,,10.0,29.991142,,,TRUE,TRUE,,,,,,,CLR,,,,,,,,VFR,,,,,,,,,,,,METAR,469.0
KJVY 070435Z AUTO 36004KT 10SM CLR 23/15 A2983 RMK AO2,KJVY,2023-06-07T04:35:00Z,38.37,-85.73,23.0,15.0,360,4,,10.0,29.828741,,,TRUE,TRUE,,,,,,,CLR,,,,,,,,VFR,,,,,,,,,,,,METAR,141.0
KJVW 070435Z AUTO 00000KT 10SM CLR 21/21 A2989 RMK AO2,KJVW,2023-06-07T04:35:00Z,32.3,-90.42,21.0,21.0,0,0,,10.0,29.890747,,,TRUE,TRUE,,,,,,,CLR,,,,,,,,VFR,,,,,,,,,,,,METAR,73.0
KJVL 070435Z AUTO 06010KT 10SM SCT060 BKN075 OVC095 18/M05 A2993 RMK AO2,KJVL,2023-06-07T04:35:00Z,42.62,-89.05,18.0,-5.0,60,10,,10.0,29.929134,,,TRUE,TRUE,,,,,,,SCT,6000,BKN,7500,OVC,9500,,,VFR,,,,,,,,,,,,METAR,244.0
KJTC 070435Z AUTO 24007KT 10SM CLR 12/M06 A3011 RMK AO2,KJTC,2023-06-07T04:35:00Z,34.13,-109.32,12.0,-6.0,240,7,,10.0,30.109253,,,TRUE,TRUE,,,,,,,CLR,,,,,,,,VFR,,,,,,,,,,,,METAR,2148.0
KJSV 070435Z AUTO 00000KT 6SM -RA CLR A2990 RMK AO2,KJSV,2023-06-07T04:35:00Z,35.43,-94.8,,,0,0,,6.0,29.899607,,,TRUE,TRUE,,,,,,-RA,CLR,,,,,,,,VFR,,,,,,,,,,,,SPECI,158.0
KJSO 070435Z AUTO 00000KT 10SM CLR 24/19 A2992 RMK AO2 T02360190 TSNO,KJSO,2023-06-07T04:35:00Z,31.87,-95.22,23.6,19.0,0,0,,10.0,29.920275,,,TRUE,TRUE,,,TRUE,,,,CLR,,,,,,,,VFR,,,,,,,,,,,,METAR,204.0
KJRO 070435Z AUTO 27006KT 10SM SCT100 SCT110 17/13 A2986 RMK AO2,KJRO,2023-06-07T04:35:00Z,38.98,-82.58,17.0,13.0,270,6,,10.0,29.861221,,,TRUE,TRUE,,,,,,,SCT,10000,SCT,11000,,,,,VFR,,,,,,,,,,,,METAR,224.0
KJPX 070435Z AUTO 31004KT 7SM SCT095 11/07 A2959 RMK AO2 T01050073,KJPX,2023-06-07T04:35:00Z,40.95,-72.25,10.5,7.3,310,4,,7.0,29.589567,,,TRUE,TRUE,,,,,,,SCT,9500,,,,,,,VFR,,,,,,,,,,,,METAR,10.0
KJOT 070435Z AUTO 04006KT 10SM SCT110 18/07 A2992 RMK AO2 T01760066,KJOT,2023-06-07T04:35:00Z,41.52,-88.18,17.6,6.6,40,6,,10.0,29.920275,,,TRUE,TRUE,,,,,,,SCT,11000,,,,,,,VFR,,,,,,,,,,,,METAR,175.0
KJMR 070435Z AUTO 06004KT 10SM OVC090 13/06 A3002 RMK AO2,KJMR,2023-06-07T04:35:00Z,45.88,-93.27,13.0,6.0,60,4,,10.0,30.02067,,,TRUE,TRUE,,,,,,,OVC,9000,,,,,,,VFR,,,,,,,,,,,,SPECI,301.0
KJKJ 070435Z AUTO 16014KT 10SM -DZ SCT100 23/18 A2987 RMK AO2 TSNO,KJKJ,2023-06-07T04:35:00Z,46.83,-96.67,23.0,18.0,160,14,,10.0,29.870079,,,TRUE,TRUE,,,TRUE,,,-DZ,SCT,10000,,,,,,,VFR,,,,,,,,,,,,METAR,280.0
KJKA 070435Z AUTO 00000KT 8SM FEW017 SCT022 22/22 A2988 RMK AO2,KJKA,2023-06-07T04:35:00Z,30.28,-87.67,22.0,22.0,0,0,,8.0,29.878937,,,TRUE,TRUE,,,,,,,FEW,1700,SCT,2200,,,,,VFR,,,,,,,,,,,,SPECI,5.0
KJHN 070435Z AUTO 13007KT 10SM VCTS CLR 18/15 A3000 RMK AO2 LTG DSNT SW AND W T01800153,KJHN,2023-06-07T04:35:00Z,37.58,-101.73,18.0,15.3,130,7,,10.0,30.0,,,TRUE,TRUE,,,,,,VCTS,CLR,,,,,,,,VFR,,,,,,,,,,,,SPECI,1013.0
KJFZ 070435Z AUTO 23004KT 10SM SCT090 17/10 A2991 RMK AO2 T01730100,KJFZ,2023-06-07T04:35:00Z,37.07,-81.8,17.3,10.0,230,4,,10.0,29.911417,,,TRUE,TRUE,,,,,,,SCT,9000,,,,,,,VFR,,,,,,,,,,,,METAR,809.0
KJFX 070435Z AUTO 00000KT 9SM CLR 20/20 A2988 RMK AO2,KJFX,2023-06-07T04:35:00Z,33.9,-87.32,20.0,20.0,0,0,,9.0,29.878937,,,TRUE,TRUE,,,,,,,CLR,,,,,,,,VFR,,,,,,,,,,,,METAR,144.0
KJES 070435Z AUTO 00000KT 10SM CLR 23/19 A2990 RMK AO2,KJES,2023-06-07T04:35:00Z,31.55,-81.88,23.0,19.0,0,0,,10.0,29.899607,,,TRUE,TRUE,,,,,,,CLR,,,,,,,,VFR,,,,,,,,,,,,METAR,26.0
KJDD 070435Z AUTO 00000KT 10SM CLR 22/21 A2989 RMK AO2,KJDD,2023-06-07T04:35:00Z,32.75,-95.5,22.0,21.0,0,0,,10.0,29.890747,,,TRUE,TRUE,,,,,,,CLR,,,,,,,,VFR,,,,,,,,,,,,METAR,127.0
KJCA 070435Z AUTO 26005KT 10SM CLR 19/18 A2986 RMK AO2 T01910185,KJCA,2023-06-07T04:35:00Z,34.18,-83.57,19.1,18.5,260,5,,10.0,29.861221,,,TRUE,TRUE,,,,,,,CLR,,,,,,,,VFR,,,,,,,,,,,,SPECI,287.0
KJAU 070435Z AUTO 00000KT 10SM CLR 16/14 A2992 RMK A01,KJAU,2023-06-07T04:35:00Z,36.33,-84.17,16.0,14.0,0,0,,10.0,29.920275,,,TRUE,TRUE,,,,,,,CLR,,,,,,,,VFR,,,,,,,,,,,,METAR,350.0
KJAS 070435Z AUTO 00000KT 8SM OVC050 22/22 A2987 RMK AO2,KJAS,2023-06-07T04:35:00Z,30.88,-94.03,22.0,22.0,0,0,,8.0,29.870079,,,TRUE,TRUE,,,,,,,OVC,5000,,,,,,,VFR,,,,,,,,,,,,METAR,60.0
KJAQ 070435Z AUTO 27006KT 10SM CLR 15/15 A2988 RMK AO1 T01470147,KJAQ,2023-06-07T04:35:00Z,38.37,-120.8,14.7,14.7,270,6,,10.0,29.878937,,,TRUE,TRUE,,,,,,,CLR,,,,,,,,VFR,,,,,,,,,,,,METAR,518.0
KIZA 070435Z AUTO 28003KT 9SM OVC013 13/13 A2992 RMK AO2,KIZA,2023-06-07T04:35:00Z,34.6,-120.07,13.0,13.0,280,3,,9.0,29.920275,,,TRUE,TRUE,,,,,,,OVC,1300,,,,,,,MVFR,,,,,,,,,,,,SPECI,200.0
KIYA 070435Z AUTO 00000KT 22/20 A2988 RMK AO2 T02190197 PWINO,KIYA,2023-06-07T04:35:00Z,29.98,-92.08,21.9,19.7,0,0,,,29.878937,,,TRUE,TRUE,,,,,TRUE,,,,,,,,,,,,,,,,,,,,,,METAR,4.0
KIWA 070435Z AUTO 33008KT 10SM CLR 28/M02 A2980 RMK AO2 T02831022,KIWA,2023-06-07T04:35:00Z,33.3,-111.65,28.3,-2.2,330,8,,10.0,29.799213,,,TRUE,TRUE,,,,,,,CLR,,,,,,,,VFR,,,,,,,,,,,,METAR,420.0
KIUA 070435Z AUTO 25003KT 7SM SCT050 SCT075 OVC085 10/06 A2976 RMK AO2 T00950060,KIUA,2023-06-07T04:35:00Z,42.92,-77.33,9.5,6.0,250,3,,7.0,29.760826,,,TRUE,TRUE,,,,,,,SCT,5000,SCT,7500,OVC,8500,,,VFR,,,,,,,,,,,,METAR,248.0
KISQ 070435Z AUTO 35007KT 10SM CLR 08/03 A2999 RMK AO2 T00840027,KISQ,2023-06-07T04:35:00Z,45.97,-86.17,8.4,2.7,350,7,,10.0,29.991142,,,TRUE,TRUE,,,,,,,CLR,,,,,,,,VFR,,,,,,,,,,,,METAR,206.0
KIRS 070435Z AUTO 07003KT 10SM CLR 15/01 A2991 RMK AO2 T01470012,KIRS,2023-06-07T04:35:00Z,41.8,-85.43,14.7,1.2,70,3,,10.0,29.911417,,,TRUE,TRUE,,,,,,,CLR,,,,,,,,VFR,,,,,,,,,,,,METAR,282.0
KIOB 070435Z AUTO 06006KT 10SM SCT070 OVC090 21/11 A2988 RMK AO2 PWINO,KIOB,2023-06-07T04:35:00Z,38.05,-83.98,21.0,11.0,60,6,,10.0,29.878937,,,TRUE,TRUE,,,,,TRUE,,SCT,7000,OVC,9000,,,,,VFR,,,,,,,,,,,,METAR,301.0
KINJ 070435Z AUTO 00000KT 10SM CLR 22/21 A2991 RMK AO2 T02150212,KINJ,2023-06-07T04:35:00Z,32.08,-97.1,21.5,21.2,0,0,,10.0,29.911417,,,TRUE,TRUE,,,,,,,CLR,,,,,,,,VFR,,,,,,,,,,,,METAR,208.0
KINF 070435Z AUTO 00000KT 10SM CLR 22/21 A2992 RMK AO2,KINF,2023-06-07T04:35:00Z,28.8,-82.32,22.0,21.0,0,0,,10.0,29.920275,,,TRUE,TRUE,,,,,,,CLR,,,,,,,,VFR,,,,,,,,,,,,METAR,14.0
KIMS 070435Z AUTO 06004KT 10SM BKN090 OVC120 21/13 A2986 RMK AO2,KIMS,2023-06-07T04:35:00Z,38.75,-85.47,21.0,13.0,60,4,,10.0,29.861221,,,TRUE,TRUE,,,,,,,BKN,9000,OVC,12000,,,,,VFR,,,,,,,,,,,,METAR,244.0
KIKW 070435Z AUTO 34003KT 10SM CLR 08/07 A2992 RMK AO2 T00830069,KIKW,2023-06-07T04:35:00Z,43.67,-84.27,8.3,6.9,340,3,,10.0,29.920275,,,TRUE,TRUE,,,,,,,CLR,,,,,,,,VFR,,,,,,,,,,,,METAR,190.0
KIKV 070435Z AUTO 00000KT 6SM BR FEW095 OVC120 20/19 A2989 RMK AO2,KIKV,2023-06-07T04:35:00Z,41.68,-93.57,20.0,19.0,0,0,,6.0,29.890747,,,TRUE,TRUE,,,,,,BR,FEW,9500,OVC,12000,,,,,VFR,,,,,,,,,,,,SPECI,270.0
KIKK 070435Z AUTO 04007KT 10SM SCT120 17/10 A2992 RMK AO2 T01650095 PWINO,KIKK,2023-06-07T04:35:00Z,41.07,-87.85,16.5,9.5,40,7,,10.0,29.920275,,,TRUE,TRUE,,,,,TRUE,,SCT,12000,,,,,,,VFR,,,,,,,,,,,,SPECI,188.0
KIKG 070435Z AUTO 00000KT 10SM CLR 23/21 A2987 RMK AO2 T02300211,KIKG,2023-06-07T04:35:00Z,27.55,-98.03,23.0,21.1,0,0,,10.0,29.870079,,,TRUE,TRUE,,,,,,,CLR,,,,,,,,VFR,,,,,,,,,,,,METAR,37.0
KIJX 070435Z AUTO 00000KT SCT060 SCT070 OVC110 23/14 A2987 RMK AO2 T02290139,KIJX,2023-06-07T04:35:00Z,39.77,-90.25,22.9,13.9,0,0,,,29.870079,,,TRUE,TRUE,,,,,,,SCT,6000,SCT,7000,OVC,11000,,,,,,,,,,,,,,,METAR,187.0
KIIY 070435Z AUTO 28006KT 10SM CLR 21/17 A2984 RMK AO2 T02080167,KIIY,2023-06-07T04:35:00Z,33.78,-82.82,20.8,16.7,280,6,,10.0,29.840551,,,TRUE,TRUE,,,,,,,CLR,,,,,,,,VFR,,,,,,,,,,,,SPECI,192.0
KIIB 070435Z AUTO 00000KT 1 1/2SM BR VV007 18/17 A2991 RMK AO2 T01750173,KIIB,2023-06-07T04:35:00Z,42.45,-91.95,17.5,17.3,0,0,,1.5,29.911417,,,TRUE,TRUE,,,,,,BR,OVX,0,,,,,,,LIFR,,,,,,,,,,,700,METAR,294.0
KIGQ 070435Z AUTO 03005KT 10SM CLR 15/09 A2992 RMK AO2 T01540092,KIGQ,2023-06-07T04:35:00Z,41.53,-87.53,15.4,9.2,30,5,,10.0,29.920275,,,TRUE,TRUE,,,,,,,CLR,,,,,,,,VFR,,,,,,,,,,,,METAR,187.0
KIFP 070435Z AUTO 17012G18KT 10SM CLR 30/M07 A2969 RMK AO2,KIFP,2023-06-07T04:35:00Z,35.15,-114.57,30.0,-7.0,170,12,18,10.0,29.68996,,,TRUE,TRUE,,,,,,,CLR,,,,,,,,VFR,,,,,,,,,,,,METAR,210.0
KIFA 070435Z AUTO 09003KT 10SM CLR 20/19 A2991 RMK AO2 T02000191,KIFA,2023-06-07T04:35:00Z,42.47,-93.27,20.0,19.1,90,3,,10.0,29.911417,,,TRUE,TRUE,,,,,,,CLR,,,,,,,,VFR,,,,,,,,,,,,METAR,344.0
KIDP 070435Z AUTO 00000KT 10SM CLR 20/16 A2993 RMK AO2 T01980164,KIDP,2023-06-07T04:35:00Z,37.17,-95.78,19.8,16.4,0,0,,10.0,29.929134,,,TRUE,TRUE,,,,,,,CLR,,,,,,,,VFR,,,,,,,,,,,,METAR,252.0
KICL 070435Z AUTO 00000KT 10SM CLR 19/19 A2991 RMK AO2,KICL,2023-06-07T04:35:00Z,40.72,-95.02,19.0,19.0,0,0,,10.0,29.911417,,,TRUE,TRUE,,,,,,,CLR,,,,,,,,VFR,,,,,,,,,,,,METAR,299.0
KIBM 070435Z AUTO 14005KT 10SM SCT060 15/12 A3004 RMK AO2 T01460120,KIBM,2023-06-07T04:35:00Z,41.18,-103.68,14.6,12.0,140,5,,10.0,30.041338,,,TRUE,TRUE,,,,,,,SCT,6000,,,,,,,VFR,,,,,,,,,,,,METAR,1494.0
KI95 070435Z AUTO 03004KT 10SM SCT050 OVC060 15/10 A2986 RMK A01,KI95,2023-06-07T04:35:00Z,,,15.0,10.0,30,4,,10.0,29.861221,,,TRUE,TRUE,,,,,,,SCT,5000,OVC,6000,,,,,VFR,,,,,,,,,,,,METAR,
KI75 070435Z AUTO 19004KT 10SM CLR 21/17 A2990 RMK AO2 T02140171,KI75,2023-06-07T04:35:00Z,41.05,-93.68,21.4,17.1,190,4,,10.0,29.899607,,,TRUE,TRUE,,,,,,,CLR,,,,,,,,VFR,,,,,,,,,,,,METAR,336.0
KI74 070435Z AUTO 00000KT 7SM CLR 12/12 A2986 RMK AO2,KI74,2023-06-07T04:35:00Z,40.12,-83.75,12.0,12.0,0,0,,7.0,29.861221,,,TRUE,TRUE,,,,,,,CLR,,,,,,,,VFR,,,,,,,,,,,,METAR,322.0
KI68 070435Z AUTO 00000KT 9SM FEW041 SCT065 BKN085 17/14 A2985 RMK AO2,KI68,2023-06-07T04:35:00Z,39.47,-84.25,17.0,14.0,0,0,,9.0,29.84941,,,TRUE,TRUE,,,,,,,FEW,4100,SCT,6500,BKN,8500,,,VFR,,,,,,,,,,,,METAR,274.0
KI67 070435Z AUTO 00000KT 10SM OVC090 17/13 A2986 RMK AO1,KI67,2023-06-07T04:35:00Z,39.25,-84.78,17.0,13.0,0,0,,10.0,29.861221,,,TRUE,TRUE,,,,,,,OVC,9000,,,,,,,VFR,,,,,,,,,,,,METAR,177.0
KI63 070435Z AUTO 00000KT 10SM BKN095 22/13 A2987 RMK AO2 T02150132,KI63,2023-06-07T04:35:00Z,39.98,-90.8,21.5,13.2,0,0,,10.0,29.870079,,,TRUE,TRUE,,,,,,,BKN,9500,,,,,,,VFR,,,,,,,,,,,,METAR,221.0
KI35 070435Z AUTO 00000KT 10SM BKN070 17/13 A2991 RMK AO2 T01690131,KI35,2023-06-07T04:35:00Z,36.87,-83.37,16.9,13.1,0,0,,10.0,29.911417,,,TRUE,TRUE,,,,,,,BKN,7000,,,,,,,VFR,,,,,,,,,,,,METAR,467.0
KI23 070435Z AUTO 35003KT 10SM CLR 15/14 A2985 RMK AO1,KI23,2023-06-07T04:35:00Z,39.57,-83.42,15.0,14.0,350,3,,10.0,29.84941,,,TRUE,TRUE,,,,,,,CLR,,,,,,,,VFR,,,,,,,,,,,,METAR,298.0
KI19 070435Z AUTO 00000KT 2 1/2SM BR BKN070 15/15 A2985 RMK AO2,KI19,2023-06-07T04:35:00Z,39.7,-83.98,15.0,15.0,0,0,,2.5,29.84941,,,TRUE,TRUE,,,,,,BR,BKN,7000,,,,,,,IFR,,,,,,,,,,,,METAR,285.0
KI16 070435Z AUTO 10SM SCT070 OVC080 15/14 A2989 RMK AO2 T01530140 PNO,KI16,2023-06-07T04:35:00Z,37.6,-81.57,15.3,14.0,,,,10.0,29.890747,,,TRUE,TRUE,,,,,,,SCT,7000,OVC,8000,,,,,VFR,,,,,,,,,,,,SPECI,528.0
KHZX 070435Z AUTO 09005KT 10SM CLR 11/04 A3001 RMK AO2,KHZX,2023-06-07T04:35:00Z,46.62,-93.32,11.0,4.0,90,5,,10.0,30.008858,,,TRUE,TRUE,,,,,,,CLR,,,,,,,,VFR,,,,,,,,,,,,METAR,374.0
KHZL 070435Z AUTO 00000KT CLR 13/05 A2975 RMK AO2 PWINO,KHZL,2023-06-07T04:35:00Z,40.98,-76.0,13.0,5.0,0,0,,,29.749016,,,TRUE,TRUE,,,,,TRUE,,CLR,,,,,,,,,,,,,,,,,,,,SPECI,481.0
KHZE 070435Z AUTO 16007KT 10SM 22/16 A2988 RMK AO2,KHZE,2023-06-07T04:35:00Z,47.28,-101.58,22.0,16.0,160,7,,10.0,29.878937,,,TRUE,TRUE,,,,,,,,,,,,,,,,,,,,,,,,,,,SPECI,542.0
KHZD 070435Z AUTO 00000KT 10SM CLR 18/16 A2987 RMK A01,KHZD,2023-06-07T04:35:00Z,36.08,-88.47,18.0,16.0,0,0,,10.0,29.870079,,,TRUE,TRUE,,,,,,,CLR,,,,,,,,VFR,,,,,,,,,,,,METAR,147.0
KHYX 070435Z AUTO 00000KT 7SM CLR 10/04 A2991 RMK AO2 T01010037,KHYX,2023-06-07T04:35:00Z,43.43,-83.87,10.1,3.7,0,0,,7.0,29.911417,,,TRUE,TRUE,,,,,,,CLR,,,,,,,,VFR,,,,,,,,,,,,SPECI,181.0
KHYW 070435Z AUTO 00000KT 10SM VCTS CLR 21/19 A2981 RMK AO2 LTG DSNT SW THRU NW,KHYW,2023-06-07T04:35:00Z,33.83,-79.12,21.0,19.0,0,0,,10.0,29.811024,,,TRUE,TRUE,,,,,,VCTS,CLR,,,,,,,,VFR,,,,,,,,,,,,METAR,10.0
KHXD 070435Z AUTO 22010G21KT 170V250 10SM CLR 25/21 A2985 RMK AO2,KHXD,2023-06-07T04:35:00Z,32.22,-80.7,25.0,21.0,220,10,21,10.0,29.84941,,,TRUE,TRUE,,,,,,,CLR,,,,,,,,VFR,,,,,,,,,,,,METAR,5.0
KHWY 070435Z AUTO 21004KT 10SM SCT090 OVC110 19/10 A2974 RMK AO2 T01900103,KHWY,2023-06-07T04:35:00Z,38.58,-77.72,19.0,10.3,210,4,,10.0,29.740158,,,TRUE,TRUE,,,,,,,SCT,9000,OVC,11000,,,,,VFR,,,,,,,,,,,,SPECI,93.0
KHVS 070435Z AUTO 00000KT 10SM VCTS FEW032 SCT039 BKN045 22/14 A2983 RMK AO2 LTG DSNT E-SW,KHVS,2023-06-07T04:35:00Z,34.4,-80.12,22.0,14.0,0,0,,10.0,29.828741,,,TRUE,TRUE,,,,,,VCTS,FEW,3200,SCT,3900,BKN,4500,,,VFR,,,,,,,,,,,,METAR,110.0
KHVE 070435Z AUTO 05020G27KT 10SM CLR 18/08 A2992 RMK AO2,KHVE,2023-06-07T04:35:00Z,38.42,-110.7,18.0,8.0,50,20,27,10.0,29.920275,,,TRUE,TRUE,,,,,,,CLR,,,,,,,,VFR,,,,,,,,,,,,METAR,1351.0
KHVC 070435Z AUTO 00000KT 9SM CLR 17/17 A2987 RMK AO2,KHVC,2023-06-07T04:35:00Z,,,17.0,17.0,0,0,,9.0,29.870079,,,TRUE,TRUE,,,,,,,CLR,,,,,,,,VFR,,,,,,,,,,,,METAR,
KHUM 070435Z AUTO 00000KT 7SM CLR 22/21 A2988 RMK AO2 T02160212,KHUM,2023-06-07T04:35:00Z,29.57,-90.67,21.6,21.2,0,0,,7.0,29.878937,,,TRUE,TRUE,,,,,,,CLR,,,,,,,,VFR,,,,,,,,,,,,METAR,1.0
KHTH 070435Z AUTO 32006KT 10SM CLR 16/09 A2988 RMK A01,KHTH,2023-06-07T04:35:00Z,38.55,-118.63,16.0,9.0,320,6,,10.0,29.878937,,,TRUE,TRUE,,,,,,,CLR,,,,,,,,VFR,,,,,,,,,,,,METAR,1281.0
KHSP 070435Z AUTO 27009KT 10SM BKN085 15/10 A2988 RMK AO2 T01470098,KHSP,2023-06-07T04:35:00Z,37.95,-79.82,14.7,9.8,270,9,,10.0,29.878937,,,TRUE,TRUE,,,,,,,BKN,8500,,,,,,,VFR,,,,,,,,,,,,SPECI,1148.0
KHSG 070435Z AUTO 33003KT 10SM VCTS SCT120 16/11 A3001 RMK AO2 LTG DSNT NE THRU SE T01600109,KHSG,2023-06-07T04:35:00Z,43.72,-108.38,16.0,10.9,330,3,,10.0,30.008858,,,TRUE,TRUE,,,,,,VCTS,SCT,12000,,,,,,,VFR,,,,,,,,,,,,METAR,1497.0
KHSD 070435Z AUTO 04005KT 8SM FEW060 BKN100 19/19 A2995 RMK A01,KHSD,2023-06-07T04:35:00Z,35.6,-97.72,19.0,19.0,40,5,,8.0,29.949802,,,TRUE,TRUE,,,,,,,FEW,6000,BKN,10000,,,,,VFR,,,,,,,,,,,,METAR,358.0
KHSB 070435Z AUTO 00000KT M1/4SM HZ VV000 22/12 A2988 RMK AO2 T02170124,KHSB,2023-06-07T04:35:00Z,37.82,-88.55,21.7,12.4,0,0,,0.25,29.878937,,,TRUE,TRUE,,,,,,HZ,OVX,0,,,,,,,LIFR,,,,,,,,,,,0,METAR,118.0
KHRX 070435Z AUTO 10SM SCT095 20/15 A3005 RMK AO2 T01950152 TSNO,KHRX,2023-06-07T04:35:00Z,34.87,-102.33,19.5,15.2,,,,10.0,30.050198,,,TRUE,TRUE,,,TRUE,,,,SCT,9500,,,,,,,VFR,,,,,,,,,,,,METAR,1153.0
KHQZ 070435Z AUTO 00000KT 10SM CLR 22/19 A2990 RMK AO1 T02170191,KHQZ,2023-06-07T04:35:00Z,32.75,-96.53,21.7,19.1,0,0,,10.0,29.899607,,,TRUE,TRUE,,,,,,,CLR,,,,,,,,VFR,,,,,,,,,,,,METAR,136.0
KHQU 070435Z AUTO 00000KT 4SM BR SCT065 SCT070 19/18 A2983 RMK AO2 LTG DSNT E T01880184,KHQU,2023-06-07T04:35:00Z,33.53,-82.52,18.8,18.4,0,0,,4.0,29.828741,,,TRUE,TRUE,,,,,,BR,SCT,6500,SCT,7000,,,,,MVFR,,,,,,,,,,,,METAR,141.0
KHQG 070435Z AUTO 15012KT 10SM CLR 19/15 A3000 RMK AO2 LTG DSNT SW T01860153 PWINO,KHQG,2023-06-07T04:35:00Z,37.17,-101.37,18.6,15.3,150,12,,10.0,30.0,,,TRUE,TRUE,,,,,TRUE,,CLR,,,,,,,,VFR,,,,,,,,,,,,METAR,956.0
KHQG 070435Z AUTO 15012KT 10SM CLR 19/15 A3000 RMK AO2 LTG DSNT SW T01860153 PWINO,KHQG,2023-06-07T04:35:00Z,37.17,-101.37,18.6,15.3,150,12,,10.0,30.0,,,TRUE,TRUE,,,,,TRUE,,CLR,,,,,,,,VFR,,,,,,,,,,,,METAR,956.0
KHPT 070435Z AUTO 00000KT 7SM CLR 18/17 A2990 RMK AO2,KHPT,2023-06-07T04:35:00Z,42.72,-93.23,18.0,17.0,0,0,,7.0,29.899607,,,TRUE,TRUE,,,,,,,CLR,,,,,,,,VFR,,,,,,,,,,,,METAR,354.0
KHOE 070435Z AUTO 23003KT 10SM CLR 21/19 A2990 RMK AO2 T02170196,KHOE,2023-06-07T04:35:00Z,31.05,-82.78,21.7,19.6,230,3,,10.0,29.899607,,,TRUE,TRUE,,,,,,,CLR,,,,,,,,VFR,,,,,,,,,,,,METAR,56.0
KHOB 070435Z AUTO 11006KT 10SM FEW050 21/12 A3004 RMK AO2 LTG DSNT S AND NW,KHOB,2023-06-07T04:35:00Z,32.67,-103.22,21.0,12.0,110,6,,10.0,30.041338,,,TRUE,TRUE,,,,,,,FEW,5000,,,,,,,VFR,,,,,,,,,,,,METAR,1112.0
KHNR 070435Z AUTO 00000KT 10SM BKN120 22/16 A2990 RMK A01,KHNR,2023-06-07T04:35:00Z,41.58,-95.33,22.0,16.0,0,0,,10.0,29.899607,,,TRUE,TRUE,,,,,,,BKN,12000,,,,,,,VFR,,,,,,,,,,,,METAR,364.0
KHMZ 070435Z AUTO 00000KT 10SM CLR 11/05 A2977 RMK AO2 T01060045,KHMZ,2023-06-07T04:35:00Z,40.08,-78.52,10.6,4.5,0,0,,10.0,29.769686,,,TRUE,TRUE,,,,,,,CLR,,,,,,,,VFR,,,,,,,,,,,,METAR,351.0
KHMT 070435Z AUTO 23008KT 10SM CLR 13/11 A2993 RMK AO2 T01320107,KHMT,2023-06-07T04:35:00Z,33.73,-117.02,13.2,10.7,230,8,,10.0,29.929134,,,TRUE,TRUE,,,,,,,CLR,,,,,,,,VFR,,,,,,,,,,,,METAR,462.0
KHMP 070435Z AUTO 00000KT 10SM CLR 18/17 A2991 RMK AO2 T01840171,KHMP,2023-06-07T04:35:00Z,33.38,-84.33,18.4,17.1,0,0,,10.0,29.911417,,,TRUE,TRUE,,,,,,,CLR,,,,,,,,VFR,,,,,,,,,,,,METAR,263.0
KHLX 070435Z AUTO 22004KT 10SM CLR 15/08 A2989 RMK AO2 T01530075,KHLX,2023-06-07T04:35:00Z,36.77,-80.82,15.3,7.5,220,4,,10.0,29.890747,,,TRUE,TRUE,,,,,,,CLR,,,,,,,,VFR,,,,,,,,,,,,METAR,819.0
KHLB 070435Z AUTO 00000KT 10SM FEW048 BKN075 OVC085 18/14 A2987 RMK A01,KHLB,2023-06-07T04:35:00Z,39.35,-85.27,18.0,14.0,0,0,,10.0,29.870079,,,TRUE,TRUE,,,,,,,FEW,4800,BKN,7500,OVC,8500,,,VFR,,,,,,,,,,,,METAR,297.0
KHJH 070435Z AUTO 20006KT 10SM CLR 24/16 A2993 RMK AO2 T02350155,KHJH,2023-06-07T04:35:00Z,40.15,-97.58,23.5,15.5,200,6,,10.0,29.929134,,,TRUE,TRUE,,,,,,,CLR,,,,,,,,VFR,,,,,,,,,,,,METAR,449.0
KHHG 070435Z AUTO 00000KT 7SM SCT050 16/16 A2988 RMK AO2 T01580158,KHHG,2023-06-07T04:35:00Z,40.85,-85.45,15.8,15.8,0,0,,7.0,29.878937,,,TRUE,TRUE,,,,,,,SCT,5000,,,,,,,VFR,,,,,,,,,,,,METAR,247.0
KHHF 070435Z AUTO 28004KT 10SM CLR 19/14 A3000 RMK AO2 LTG DSNT W T01870140,KHHF,2023-06-07T04:35:00Z,35.9,-100.4,18.7,14.0,280,4,,10.0,30.0,,,TRUE,TRUE,,,,,,,CLR,,,,,,,,VFR,,,,,,,,,,,,METAR,729.0
KHFJ 070435Z AUTO 00000KT 10SM CLR 18/14 A2995 RMK AO2,KHFJ,2023-06-07T04:35:00Z,36.9,-94.02,18.0,14.0,0,0,,10.0,29.949802,,,TRUE,TRUE,,,,,,,CLR,,,,,,,,VFR,,,,,,,,,,,,METAR,398.0
KHEQ 070435Z AUTO 15006KT 10SM CLR 17/13 A3001 RMK AO2,KHEQ,2023-06-07T04:35:00Z,40.57,-102.28,17.0,13.0,150,6,,10.0,30.008858,,,TRUE,TRUE,,,,,,,CLR,,,,,,,,VFR,,,,,,,,,,,,METAR,1136.0
KHEG 070435Z AUTO 18003KT 10SM FEW037 SCT050 BKN075 24/20 A2992 RMK AO2,KHEG,2023-06-07T04:35:00Z,30.28,-81.8,24.0,20.0,180,3,,10.0,29.920275,,,TRUE,TRUE,,,,,,,FEW,3700,SCT,5000,BKN,7500,,,VFR,,,,,,,,,,,,METAR,25.0
KHDL 070435Z AUTO 00000KT 10SM OVC049 23/21 A2990 RMK AO2,KHDL,2023-06-07T04:35:00Z,31.37,-85.32,23.0,21.0,0,0,,10.0,29.899607,,,TRUE,TRUE,,,,,,,OVC,4900,,,,,,,VFR,,,,,,,,,,,,METAR,109.0
KHDE 070435Z AUTO 21004KT 10SM CLR 20/15 A2996 RMK AO2 T01970148,KHDE,2023-06-07T04:35:00Z,40.45,-99.33,19.7,14.8,210,4,,10.0,29.958662,,,TRUE,TRUE,,,,,,,CLR,,,,,,,,VFR,,,,,,,,,,,,METAR,703.0
KHDC 070435Z AUTO 00000KT 10SM CLR 21/21 A2989 RMK AO2 T02100205,KHDC,2023-06-07T04:35:00Z,30.52,-90.42,21.0,20.5,0,0,,10.0,29.890747,,,TRUE,TRUE,,,,,,,CLR,,,,,,,,VFR,,,,,,,,,,,,METAR,12.0
KHCR 070435Z AUTO 08004KT 10SM OVC100 13/07 A3003 RMK AO2,KHCR,2023-06-07T04:35:00Z,40.48,-111.43,13.0,7.0,80,4,,10.0,30.029528,,,TRUE,TRUE,,,,,,,OVC,10000,,,,,,,VFR,,,,,,,,,,,,METAR,1708.0
KHCO 070435Z AUTO 12007KT 10SM CLR 24/21 A2985 RMK AO2,KHCO,2023-06-07T04:35:00Z,48.75,-96.93,24.0,21.0,120,7,,10.0,29.84941,,,TRUE,TRUE,,,,,,,CLR,,,,,,,,VFR,,,,,,,,,,,,METAR,250.0
KHCD 070435Z AUTO 06006KT 10SM CLR 23/17 A2992 RMK AO2 T02270172,KHCD,2023-06-07T04:35:00Z,44.87,-94.38,22.7,17.2,60,6,,10.0,29.920275,,,TRUE,TRUE,,,,,,,CLR,,,,,,,,VFR,,,,,,,,,,,,METAR,320.0
KHBV 070435Z AUTO 16004KT 10SM CLR 24/21 A2989 RMK AO2 T02380207,KHBV,2023-06-07T04:35:00Z,27.35,-98.73,23.8,20.7,160,4,,10.0,29.890747,,,TRUE,TRUE,,,,,,,CLR,,,,,,,,VFR,,,,,,,,,,,,SPECI,200.0
KHAI 070435Z AUTO 00000KT 10SM CLR 14/08 A2991 RMK AO2 T01370075,KHAI,2023-06-07T04:35:00Z,41.97,-85.6,13.7,7.5,0,0,,10.0,29.911417,,,TRUE,TRUE,,,,,,,CLR,,,,,,,,VFR,,,,,,,,,,,,METAR,250.0
KHAF 070435Z AUTO 18007KT 9SM OVC014 14/12 A2992 RMK AO2,KHAF,2023-06-07T04:35:00Z,37.52,-122.5,14.0,12.0,180,7,,9.0,29.920275,,,TRUE,TRUE,,,,,,,OVC,1400,,,,,,,MVFR,,,,,,,,,,,,METAR,11.0
KHAE 070435Z AUTO 26003KT 10SM CLR 20/12 A2988 RMK AO2,KHAE,2023-06-07T04:35:00Z,39.73,-91.45,20.0,12.0,260,3,,10.0,29.878937,,,TRUE,TRUE,,,,,,,CLR,,,,,,,,VFR,,,,,,,,,,,,SPECI,230.0
KGZS 070435Z AUTO 00000KT 10SM SCT045 BKN050 OVC085 18/18 A2988 RMK A01,KGZS,2023-06-07T04:35:00Z,35.15,-87.05,18.0,18.0,0,0,,10.0,29.878937,,,TRUE,TRUE,,,,,,,SCT,4500,BKN,5000,OVC,8500,,,VFR,,,,,,,,,,,,METAR,198.0
KGZL 070435Z AUTO 00000KT 9SM 22/19 A2990 RMK AO2,KGZL,2023-06-07T04:35:00Z,35.28,-95.1,22.0,19.0,0,0,,9.0,29.899607,,,TRUE,TRUE,,,,,,,,,,,,,,,,,,,,,,,,,,,METAR,176.0
KGYY 070435Z AUTO 01008KT 10SM FEW060 SCT110 15/12 A2991 RMK AO2,KGYY,2023-06-07T04:35:00Z,41.62,-87.42,15.0,12.0,10,8,,10.0,29.911417,,,TRUE,TRUE,,,,,,,FEW,6000,SCT,11000,,,,,VFR,,,,,,,,,,,,METAR,179.0
KGYL 070435Z AUTO 06003KT 10SM CLR 22/18 A2991 RMK AO2 T02180176,KGYL,2023-06-07T04:35:00Z,44.77,-94.08,21.8,17.6,60,3,,10.0,29.911417,,,TRUE,TRUE,,,,,,,CLR,,,,,,,,VFR,,,,,,,,,,,,SPECI,304.0
KGYI 070435Z AUTO 09005KT 10SM CLR 19/18 A2993 RMK AO2 T01900176 TSNO,KGYI,2023-06-07T04:35:00Z,33.72,-96.67,19.0,17.6,90,5,,10.0,29.929134,,,TRUE,TRUE,,,TRUE,,,,CLR,,,,,,,,VFR,,,,,,,,,,,,METAR,227.0
KGYH 070435Z AUTO 00000KT 10SM CLR 21/18 A2984 RMK A02 LTG DSNT SE T02080182,KGYH,2023-06-07T04:35:00Z,34.75,-82.38,20.8,18.2,0,0,,10.0,29.840551,,,TRUE,TRUE,,,,,,,CLR,,,,,,,,VFR,,,,,,,,,,,,METAR,283.0
KGYF 070435Z AUTO 12005KT 10SM SCT023 26/20 A2987 RMK AO2 T02560204,KGYF,2023-06-07T04:35:00Z,26.13,-94.9,25.6,20.4,120,5,,10.0,29.870079,,,TRUE,TRUE,,,,,,,SCT,2300,,,,,,,VFR,,,,,,,,,,,,METAR,65.0
KGYB 070435Z AUTO 00000KT 10SM CLR 23/20 A2991 RMK AO2 T02270195,KGYB,2023-06-07T04:35:00Z,30.17,-96.98,22.7,19.5,0,0,,10.0,29.911417,,,TRUE,TRUE,,,,,,,CLR,,,,,,,,VFR,,,,,,,,,,,,METAR,140.0
KGWR 070435Z AUTO 14007KT 10SM CLR 25/18 A2987 RMK A01,KGWR,2023-06-07T04:35:00Z,46.22,-97.65,25.0,18.0,140,7,,10.0,29.870079,,,TRUE,TRUE,,,,,,,CLR,,,,,,,,VFR,,,,,,,,,,,,METAR,381.0
KGWB 070435Z AUTO 04004KT 10SM SCT055 14/07 A2990 RMK AO2,KGWB,2023-06-07T04:35:00Z,41.3,-85.07,14.0,7.0,40,4,,10.0,29.899607,,,TRUE,TRUE,,,,,,,SCT,5500,,,,,,,VFR,,,,,,,,,,,,METAR,268.0
KGVT 070435Z AUTO 00000KT 10SM CLR 22/20 A2990 RMK AO2 TSNO T02190196,KGVT,2023-06-07T04:35:00Z,33.07,-96.07,21.9,19.6,0,0,,10.0,29.899607,,,TRUE,TRUE,,,TRUE,,,,CLR,,,,,,,,VFR,,,,,,,,,,,,METAR,165.0
KGVE 070435Z AUTO 29003KT 10SM CLR 21/10 A2975 RMK AO1 T02100095,KGVE,2023-06-07T04:35:00Z,38.15,-78.17,21.0,9.5,290,3,,10.0,29.749016,,,TRUE,TRUE,,,,,,,CLR,,,,,,,,VFR,,,,,,,,,,,,METAR,138.0
KGRY 070435Z AUTO 21004KT 10SM FEW020 SCT042 SCT055 25/21 A2988 RMK A01,KGRY,2023-06-07T04:35:00Z,27.63,-90.45,25.0,21.0,210,4,,10.0,29.878937,,,TRUE,TRUE,,,,,,,FEW,2000,SCT,4200,SCT,5500,,,VFR,,,,,,,,,,,,METAR,58.0
KGRN 070435Z AUTO 18005KT 10SM CLR 18/12 A2998 RMK AO2 T01750122,KGRN,2023-06-07T04:35:00Z,42.8,-102.17,17.5,12.2,180,5,,10.0,29.97933,,,TRUE,TRUE,,,,,,,CLR,,,,,,,,VFR,,,,,,,,,,,,METAR,1080.0
KGPM 070435Z AUTO 00000KT 10SM CLR 24/17 A2991 RMK AO2 T02400167,KGPM,2023-06-07T04:35:00Z,32.7,-97.05,24.0,16.7,0,0,,10.0,29.911417,,,TRUE,TRUE,,,,,,,CLR,,,,,,,,VFR,,,,,,,,,,,,METAR,178.0
KGPH 070435Z AUTO 00000KT 10SM CLR 21/18 A2990 RMK AO2,KGPH,2023-06-07T04:35:00Z,39.33,-94.32,21.0,18.0,0,0,,10.0,29.899607,,,TRUE,TRUE,,,,,,,CLR,,,,,,,,VFR,,,,,,,,,,,,METAR,233.0
KGPC 070435Z AUTO 35006KT 10SM OVC080 20/13 A2988 RMK AO2 T02050132,KGPC,2023-06-07T04:35:00Z,39.63,-86.82,20.5,13.2,350,6,,10.0,29.878937,,,TRUE,TRUE,,,,,,,OVC,8000,,,,,,,VFR,,,,,,,,,,,,METAR,254.0
KGOO 070435Z AUTO 14004KT 10SM BKN008 13/12 A2990 RMK A01,KGOO,2023-06-07T04:35:00Z,39.22,-121.0,13.0,12.0,140,4,,10.0,29.899607,,,TRUE,TRUE,,,,,,,BKN,800,,,,,,,IFR,,,,,,,,,,,,METAR,950.0
KGNT 070435Z AUTO 31005KT 10SM OVC120 13/07 A3016 RMK AO2 LTG DSNT E T01330066,KGNT,2023-06-07T04:35:00Z,35.17,-107.9,13.3,6.6,310,5,,10.0,30.159449,,,TRUE,TRUE,,,,,,,OVC,12000,,,,,,,VFR,,,,,,,,,,,,SPECI,1988.0
KGNG 070435Z AUTO 04005KT 10SM FEW055 SCT070 OVC100 20/11 A2990 RMK AO2,KGNG,2023-06-07T04:35:00Z,42.92,-114.77,20.0,11.0,40,5,,10.0,29.899607,,,TRUE,TRUE,,,,,,,FEW,5500,SCT,7000,OVC,10000,,,VFR,,,,,,,,,,,,METAR,1128.0
KGNB 070435Z AUTO 20005KT 10SM CLR 10/04 A3020 RMK AO2 T00950044,KGNB,2023-06-07T04:35:00Z,40.08,-105.92,9.5,4.4,200,5,,10.0,30.200787,,,TRUE,TRUE,,,,,,,CLR,,,,,,,,VFR,,,,,,,,,,,,METAR,2500.0
KGMJ 070435Z AUTO 00000KT 6SM BR CLR 20/20 A2992 RMK AO2,KGMJ,2023-06-07T04:35:00Z,36.6,-94.73,20.0,20.0,0,0,,6.0,29.920275,,,TRUE,TRUE,,,,,,BR,CLR,,,,,,,,VFR,,,,,,,,,,,,METAR,251.0
KGLY 070435Z AUTO 00000KT 8SM FEW055 18/15 A2991 RMK AO2,KGLY,2023-06-07T04:35:00Z,38.35,-93.68,18.0,15.0,0,0,,8.0,29.911417,,,TRUE,TRUE,,,,,,,FEW,5500,,,,,,,VFR,,,,,,,,,,,,METAR,247.0
KGLW 070435Z AUTO 00000KT 7SM CLR 16/15 A2987 RMK AO2 T01610150,KGLW,2023-06-07T04:35:00Z,37.03,-85.95,16.1,15.0,0,0,,7.0,29.870079,,,TRUE,TRUE,,,,,,,CLR,,,,,,,,VFR,,,,,,,,,,,,METAR,216.0
KGKT 070435Z AUTO 00000KT 10SM OVC060 17/13 A2988 RMK A01,KGKT,2023-06-07T04:35:00Z,35.85,-83.53,17.0,13.0,0,0,,10.0,29.878937,,,TRUE,TRUE,,,,,,,OVC,6000,,,,,,,VFR,,,,,,,,,,,,METAR,305.0
KGIC 070435Z AUTO 20003KT 10SM CLR 18/11 A2986 RMK AO1,KGIC,2023-06-07T04:35:00Z,45.95,-116.12,18.0,11.0,200,3,,10.0,29.861221,,,TRUE,TRUE,,,,,,,CLR,,,,,,,,VFR,,,,,,,,,,,,METAR,1002.0
KGHW 070435Z AUTO 02013G17KT 10SM TS CLR 22/17 A2996 RMK AO2 LTG DSNT NW,KGHW,2023-06-07T04:35:00Z,45.63,-95.32,22.0,17.0,20,13,17,10.0,29.958662,,,TRUE,TRUE,,,,,,TS,CLR,,,,,,,,VFR,,,,,,,,,,,,SPECI,423.0
KGHG 070435Z AUTO 00000KT 10SM FEW045 SCT060 BKN075 13/10 A2953 RMK AO2,KGHG,2023-06-07T04:35:00Z,42.1,-70.67,13.0,10.0,0,0,,10.0,29.530512,,,TRUE,TRUE,,,,,,,FEW,4500,SCT,6000,BKN,7500,,,VFR,,,,,,,,,,,,METAR,3.0
KGGP 070435Z AUTO 35007KT 10SM -RA SCT075 OVC100 18/12 A2989 RMK AO2,KGGP,2023-06-07T04:35:00Z,40.72,-86.37,18.0,12.0,350,7,,10.0,29.890747,,,TRUE,TRUE,,,,,,-RA,SCT,7500,OVC,10000,,,,,VFR,,,,,,,,,,,,METAR,224.0
KGGI 070435Z AUTO 08003KT 7SM SCT120 21/20 A2990 RMK AO2 T02080195,KGGI,2023-06-07T04:35:00Z,41.72,-92.73,20.8,19.5,80,3,,7.0,29.899607,,,TRUE,TRUE,,,,,,,SCT,12000,,,,,,,VFR,,,,,,,,,,,,METAR,305.0
KGGF 070435Z AUTO 14008KT 10SM CLR 19/14 A2999 RMK AO2,KGGF,2023-06-07T04:35:00Z,40.87,-101.73,19.0,14.0,140,8,,10.0,29.991142,,,TRUE,TRUE,,,,,,,CLR,,,,,,,,VFR,,,,,,,,,,,,METAR,1044.0
KGGE 070435Z AUTO 26006KT 10SM VCTS CLR 21/17 A2981 RMK AO2 LTG DSNT NW,KGGE,2023-06-07T04:35:00Z,33.32,-79.32,21.0,17.0,260,6,,10.0,29.811024,,,TRUE,TRUE,,,,,,VCTS,CLR,,,,,,,,VFR,,,,,,,,,,,,SPECI,9.0
KGDJ 070435Z AUTO 00000KT 10SM CLR 21/18 A2993 RMK AO2 T02080178,KGDJ,2023-06-07T04:35:00Z,32.45,-97.82,20.8,17.8,0,0,,10.0,29.929134,,,TRUE,TRUE,,,,,,,CLR,,,,,,,,VFR,,,,,,,,,,,,METAR,235.0
KGDB 070435Z AUTO 09005KT 10SM CLR 25/17 A2990 RMK AO2 T02500170,KGDB,2023-06-07T04:35:00Z,44.75,-95.55,25.0,17.0,90,5,,10.0,29.899607,,,TRUE,TRUE,,,,,,,CLR,,,,,,,,VFR,,,,,,,,,,,,METAR,316.0
KGDA 070435Z AUTO 00000KT 10SM CLR 18/14 A2988 RMK AO2 T01770137 PWINO,KGDA,2023-06-07T04:35:00Z,37.33,-88.1,17.7,13.7,0,0,,10.0,29.878937,,,TRUE,TRUE,,,,,TRUE,,CLR,,,,,,,,VFR,,,,,,,,,,,,METAR,199.0
KGCY 070435Z AUTO 00000KT 10SM CLR 16/09 A2989 RMK A01,KGCY,2023-06-07T04:35:00Z,36.2,-82.82,16.0,9.0,0,0,,10.0,29.890747,,,TRUE,TRUE,,,,,,,CLR,,,,,,,,VFR,,,,,,,,,,,,METAR,488.0
KGCM 070435Z AUTO 00000KT 8SM CLR 20/19 A2992 RMK AO2,KGCM,2023-06-07T04:35:00Z,36.3,-95.48,20.0,19.0,0,0,,8.0,29.920275,,,TRUE,TRUE,,,,,,,CLR,,,,,,,,VFR,,,,,,,,,,,,METAR,215.0
KGCD 070435Z AUTO 33005KT 10SM CLR 20/06 A2987 RMK AO2 T01980055,KGCD,2023-06-07T04:35:00Z,44.4,-118.97,19.8,5.5,330,5,,10.0,29.870079,,,TRUE,TRUE,,,,,,,CLR,,,,,,,,VFR,,,,,,,,,,,,METAR,1122.0
KGBG 070435Z AUTO 00000KT 10SM OVC110 22/14 A2990 RMK AO2 T02150136 TSNO,KGBG,2023-06-07T04:35:00Z,40.93,-90.43,21.5,13.6,0,0,,10.0,29.899607,,,TRUE,TRUE,,,TRUE,,,,OVC,11000,,,,,,,VFR,,,,,,,,,,,,METAR,230.0
KGAO 070435Z AUTO 05003KT 10SM CLR 24/21 A2988 RMK AO2 T02370211,KGAO,2023-06-07T04:35:00Z,29.45,-90.27,23.7,21.1,50,3,,10.0,29.878937,,,TRUE,TRUE,,,,,,,CLR,,,,,,,,VFR,,,,,,,,,,,,METAR,0.0
KGAF 070435Z AUTO 13007KT 4SM BR CLR 22/22 A2985 RMK AO2,KGAF,2023-06-07T04:35:00Z,48.4,-97.37,22.0,22.0,130,7,,4.0,29.84941,,,TRUE,TRUE,,,,,,BR,CLR,,,,,,,,MVFR,,,,,,,,,,,,SPECI,250.0
KFZG 070435Z AUTO 25003KT 10SM CLR 24/19 A2990 RMK AO2 T02350185,KFZG,2023-06-07T04:35:00Z,31.68,-83.27,23.5,18.5,250,3,,10.0,29.899607,,,TRUE,TRUE,,,,,,,CLR,,,,,,,,VFR,,,,,,,,,,,,METAR,105.0
KFYJ 070435Z AUTO 00000KT 10SM CLR 17/13 A2971 RMK AO1 T01670130,KFYJ,2023-06-07T04:35:00Z,37.52,-76.77,16.7,13.0,0,0,,10.0,29.71063,,,TRUE,TRUE,,,,,,,CLR,,,,,,,,VFR,,,,,,,,,,,,METAR,3.0
KFYG 070435Z AUTO 00000KT 9SM CLR 19/16 A2988 RMK AO2,KFYG,2023-06-07T04:35:00Z,38.58,-91.0,19.0,16.0,0,0,,9.0,29.878937,,,TRUE,TRUE,,,,,,,CLR,,,,,,,,VFR,,,,,,,,,,,,METAR,147.0
KFYE 070435Z AUTO 00000KT 8SM CLR 20/19 A2988 RMK A01,KFYE,2023-06-07T04:35:00Z,35.2,-89.38,20.0,19.0,0,0,,8.0,29.878937,,,TRUE,TRUE,,,,,,,CLR,,,,,,,,VFR,,,,,,,,,,,,METAR,133.0
KFXY 070435Z AUTO 11003KT 10SM CLR 21/17 A2990 RMK AO2,KFXY,2023-06-07T04:35:00Z,43.23,-93.62,21.0,17.0,110,3,,10.0,29.899607,,,TRUE,TRUE,,,,,,,CLR,,,,,,,,VFR,,,,,,,,,,,,METAR,366.0
KFWS 070435Z AUTO 00000KT 10SM CLR 21/19 A2992 RMK AO2 T02100195,KFWS,2023-06-07T04:35:00Z,32.57,-97.3,21.0,19.5,0,0,,10.0,29.920275,,,TRUE,TRUE,,,,,,,CLR,,,,,,,,VFR,,,,,,,,,,,,METAR,211.0
KFWC 070435Z AUTO 02005KT 10SM CLR 20/13 A2986 RMK AO1 T01950134,KFWC,2023-06-07T04:35:00Z,38.38,-88.42,19.5,13.4,20,5,,10.0,29.861221,,,TRUE,TRUE,,,,,,,CLR,,,,,,,,VFR,,,,,,,,,,,,METAR,131.0
KFWB 070435Z AUTO 00000KT 9SM BKN041 OVC085 20/13 A2995 RMK AO2,KFWB,2023-06-07T04:35:00Z,36.7,-93.4,20.0,13.0,0,0,,9.0,29.949802,,,TRUE,TRUE,,,,,,,BKN,4100,OVC,8500,,,,,VFR,,,,,,,,,,,,METAR,392.0
KFTN 070435Z AUTO 11005KT 10SM CLR 26/18 A2988 RMK A01,KFTN,2023-06-07T04:35:00Z,28.22,-100.02,26.0,18.0,110,5,,10.0,29.878937,,,TRUE,TRUE,,,,,,,CLR,,,,,,,,VFR,,,,,,,,,,,,SPECI,236.0
KFSW 070435Z AUTO 06004KT 10SM 23/15 A2987 RMK AO2,KFSW,2023-06-07T04:35:00Z,40.67,-91.32,23.0,15.0,60,4,,10.0,29.870079,,,TRUE,TRUE,,,,,,,,,,,,,,,,,,,,,,,,,,,METAR,219.0
KFSE 070435Z AUTO 14008KT 10SM CLR 21/16 A2991 RMK AO2,KFSE,2023-06-07T04:35:00Z,47.58,-95.77,21.0,16.0,140,8,,10.0,29.911417,,,TRUE,TRUE,,,,,,,CLR,,,,,,,,VFR,,,,,,,,,,,,METAR,389.0
KFRR 070435Z AUTO 00000KT 10SM SCT050 BKN070 20/11 A2975 RMK AO1,KFRR,2023-06-07T04:35:00Z,38.92,-78.25,20.0,11.0,0,0,,10.0,29.749016,,,TRUE,TRUE,,,,,,,SCT,5000,BKN,7000,,,,,VFR,,,,,,,,,,,,SPECI,213.0
KFRH 070435Z AUTO 28003KT 10SM SCT085 OVC110 23/10 A2985 RMK AO1,KFRH,2023-06-07T04:35:00Z,38.5,-86.63,23.0,10.0,280,3,,10.0,29.84941,,,TRUE,TRUE,,,,,,,SCT,8500,OVC,11000,,,,,VFR,,,,,,,,,,,,SPECI,241.0
KFPY 070435Z AUTO 00000KT 10SM CLR 21/20 A2991 RMK AO2 T02100195,KFPY,2023-06-07T04:35:00Z,30.07,-83.57,21.0,19.5,0,0,,10.0,29.911417,,,TRUE,TRUE,,,,,,,CLR,,,,,,,,VFR,,,,,,,,,,,,METAR,12.0
KFPK 070435Z AUTO 00000KT 10SM CLR 09/05 A2991 RMK AO2 T00880053,KFPK,2023-06-07T04:35:00Z,42.57,-84.82,8.8,5.3,0,0,,10.0,29.911417,,,TRUE,TRUE,,,,,,,CLR,,,,,,,,VFR,,,,,,,,,,,,METAR,269.0
KFOT 070435Z AUTO 30005KT 10SM FEW015 BKN110 12/12 A2988 RMK AO1,KFOT,2023-06-07T04:35:00Z,40.55,-124.13,12.0,12.0,300,5,,10.0,29.878937,,,TRUE,TRUE,,,,,,,FEW,1500,BKN,11000,,,,,VFR,,,,,,,,,,,,METAR,118.0
KFOA 070435Z AUTO 35004KT 10SM CLR 23/13 A2987 RMK AO2,KFOA,2023-06-07T04:35:00Z,38.67,-88.45,23.0,13.0,350,4,,10.0,29.870079,,,TRUE,TRUE,,,,,,,CLR,,,,,,,,VFR,,,,,,,,,,,,METAR,141.0
KFMM 070435Z AUTO 10SM CLR 17/15 A3002 RMK AO2 LTG DSNT S,KFMM,2023-06-07T04:35:00Z,40.33,-103.8,17.0,15.0,,,,10.0,30.02067,,,TRUE,TRUE,,,,,,,CLR,,,,,,,,VFR,,,,,,,,,,,,METAR,1376.0
KFLY 070435Z AUTO 34005KT 10SM 14/07 A3014 RMK AO2 LTG DSNT SE T01400070,KFLY,2023-06-07T04:35:00Z,38.95,-104.57,14.0,7.0,340,5,,10.0,30.138779,,,TRUE,TRUE,,,,,,,,,,,,,,,,,,,,,,,,,,,METAR,2096.0
KFKS 070435Z AUTO 01003KT 10SM CLR 12/08 A2997 RMK AO2 T01240079,KFKS,2023-06-07T04:35:00Z,44.63,-86.2,12.4,7.9,10,3,,10.0,29.970472,,,TRUE,TRUE,,,,,,,CLR,,,,,,,,VFR,,,,,,,,,,,,METAR,189.0
KFKR 070435Z AUTO 36006KT 7SM FEW045 SCT060 BKN070 20/13 A2987 RMK AO2,KFKR,2023-06-07T04:35:00Z,40.27,-86.57,20.0,13.0,360,6,,7.0,29.870079,,,TRUE,TRUE,,,,,,,FEW,4500,SCT,6000,BKN,7000,,,VFR,,,,,,,,,,,,METAR,260.0
KFKN 070435Z AUTO 00000KT 10SM CLR 16/13 A2973 RMK AO2 T01550134,KFKN,2023-06-07T04:35:00Z,36.7,-76.9,15.5,13.4,0,0,,10.0,29.731298,,,TRUE,TRUE,,,,,,,CLR,,,,,,,,VFR,,,,,,,,,,,,METAR,9.0
KFKA 070435Z AUTO 00000KT 9SM CLR 18/18 A2992 RMK AO2,KFKA,2023-06-07T04:35:00Z,43.68,-92.17,18.0,18.0,0,0,,9.0,29.920275,,,TRUE,TRUE,,,,,,,CLR,,,,,,,,VFR,,,,,,,,,,,,METAR,388.0
KFIN 070435Z AUTO 18005KT 10SM BKN085 23/19 A2991 RMK AO2 T02290193,KFIN,2023-06-07T04:35:00Z,29.47,-81.2,22.9,19.3,180,5,,10.0,29.911417,,,TRUE,TRUE,,,,,,,BKN,8500,,,,,,,VFR,,,,,,,,,,,,METAR,10.0
KFHB 070435Z AUTO 21012KT 10SM CLR 24/23 A2989 RMK AO2,KFHB,2023-06-07T04:35:00Z,30.62,-81.47,24.0,23.0,210,12,,10.0,29.890747,,,TRUE,TRUE,,,,,,,CLR,,,,,,,,VFR,,,,,,,,,,,,METAR,4.0
KFFX 070435Z AUTO 04003KT 10SM CLR 14/09 A2993 RMK AO2 T01410093,KFFX,2023-06-07T04:35:00Z,43.43,-86.0,14.1,9.3,40,3,,10.0,29.929134,,,TRUE,TRUE,,,,,,,CLR,,,,,,,,VFR,,,,,,,,,,,,METAR,234.0
KFFM 070435Z AUTO 12008KT 10SM SCT085 SCT100 23/19 A2988 RMK AO2 LTG DSNT NW,KFFM,2023-06-07T04:35:00Z,46.28,-96.15,23.0,19.0,120,8,,10.0,29.878937,,,TRUE,TRUE,,,,,,,SCT,8500,SCT,10000,,,,,VFR,,,,,,,,,,,,SPECI,362.0
KFFL 070435Z AUTO 06005KT 10SM BKN060 OVC110 21/18 A2988 RMK A01,KFFL,2023-06-07T04:35:00Z,41.05,-91.97,21.0,18.0,60,5,,10.0,29.878937,,,TRUE,TRUE,,,,,,,BKN,6000,OVC,11000,,,,,VFR,,,,,,,,,,,,METAR,240.0
KFET 070435Z AUTO 20006KT 10SM CLR 25/15 A2991 RMK AO2 T02520145,KFET,2023-06-07T04:35:00Z,41.45,-96.52,25.2,14.5,200,6,,10.0,29.911417,,,TRUE,TRUE,,,,,,,CLR,,,,,,,,VFR,,,,,,,,,,,,METAR,366.0
KFEP 070435Z AUTO 00000KT 10SM BKN095 16/14 A2995 RMK AO2 T01630142,KFEP,2023-06-07T04:35:00Z,42.25,-89.58,16.3,14.2,0,0,,10.0,29.949802,,,TRUE,TRUE,,,,,,,BKN,9500,,,,,,,VFR,,,,,,,,,,,,METAR,255.0
KFDW 070435Z AUTO 00000KT 7SM CLR 20/19 A2983 RMK AO1 LTG DSNT E,KFDW,2023-06-07T04:35:00Z,34.32,-81.12,20.0,19.0,0,0,,7.0,29.828741,,,TRUE,TRUE,,,,,,,CLR,,,,,,,,VFR,,,,,,,,,,,,SPECI,174.0
KFBR 070435Z AUTO 11008KT 10SM CLR 13/07 A3014 RMK AO2 T01300073,KFBR,2023-06-07T04:35:00Z,41.4,-110.4,13.0,7.3,110,8,,10.0,30.138779,,,TRUE,TRUE,,,,,,,CLR,,,,,,,,VFR,,,,,,,,,,,,METAR,2140.0
KFBL 070435Z AUTO 00000KT 10SM CLR 22/16 A2992 RMK AO2,KFBL,2023-06-07T04:35:00Z,44.33,-93.32,22.0,16.0,0,0,,10.0,29.920275,,,TRUE,TRUE,,,,,,,CLR,,,,,,,,VFR,,,,,,,,,,,,SPECI,318.0
KF70 070435Z AUTO 21004KT 10SM BKN023 13/11 A2994 RMK AO2,KF70,2023-06-07T04:35:00Z,33.57,-117.13,13.0,11.0,210,4,,10.0,29.940945,,,TRUE,TRUE,,,,,,,BKN,2300,,,,,,,MVFR,,,,,,,,,,,,METAR,406.0
KF46 070435Z AUTO 09004KT 10SM CLR 21/21 A2990 RMK AO2 T02080208,KF46,2023-06-07T04:35:00Z,32.93,-96.43,20.8,20.8,90,4,,10.0,29.899607,,,TRUE,TRUE,,,,,,,CLR,,,,,,,,VFR,,,,,,,,,,,,METAR,175.0
KF44 070435Z AUTO 00000KT 10SM CLR 22/21 A2988 RMK AO2,KF44,2023-06-07T04:35:00Z,32.17,-95.83,22.0,21.0,0,0,,10.0,29.878937,,,TRUE,TRUE,,,,,,,CLR,,,,,,,,VFR,,,,,,,,,,,,METAR,137.0
KF17 070435Z AUTO 00000KT 10SM CLR 22/20 A2990 RMK AO2,KF17,2023-06-07T04:35:00Z,31.83,-94.15,22.0,20.0,0,0,,10.0,29.899607,,,TRUE,TRUE,,,,,,,CLR,,,,,,,,VFR,,,,,,,,,,,,METAR,93.0
KF05 070435Z AUTO 09003KT 10SM CLR 22/18 A2996 RMK AO2 T02180182,KF05,2023-06-07T04:35:00Z,34.23,-99.28,21.8,18.2,90,3,,10.0,29.958662,,,TRUE,TRUE,,,,,,,CLR,,,,,,,,VFR,,,,,,,,,,,,METAR,384.0
KF00 070435Z AUTO 00000KT 7SM CLR 20/19 A2991 RMK AO2 T01950194,KF00,2023-06-07T04:35:00Z,33.62,-96.18,19.5,19.4,0,0,,7.0,29.911417,,,TRUE,TRUE,,,,,,,CLR,,,,,,,,VFR,,,,,,,,,,,,METAR,189.0
KEZZ 070435Z AUTO 00000KT 10SM CLR A2992 RMK AO2,KEZZ,2023-06-07T04:35:00Z,39.72,-94.28,,,0,0,,10.0,29.920275,,,TRUE,TRUE,,,,,,,CLR,,,,,,,,VFR,,,,,,,,,,,,METAR,317.0
KEZP 070435Z AUTO 08004KT 10SM CLR 26/20 A2987 RMK A01,KEZP,2023-06-07T04:35:00Z,28.22,-92.8,26.0,20.0,80,4,,10.0,29.870079,,,TRUE,TRUE,,,,,,,CLR,,,,,,,,VFR,,,,,,,,,,,,METAR,30.0
KEZM 070435Z AUTO 25003KT 10SM CLR 23/17 A2988 RMK AO2,KEZM,2023-06-07T04:35:00Z,32.22,-83.13,23.0,17.0,250,3,,10.0,29.878937,,,TRUE,TRUE,,,,,,,CLR,,,,,,,,VFR,,,,,,,,,,,,METAR,86.0
KEZF 070435Z AUTO 27003KT 10SM BKN120 19/11 A2971 RMK AO2 T01930108,KEZF,2023-06-07T04:35:00Z,38.27,-77.45,19.3,10.8,270,3,,10.0,29.71063,,,TRUE,TRUE,,,,,,,BKN,12000,,,,,,,VFR,,,,,,,,,,,,METAR,26.0
KEVU 070435Z AUTO 21003KT 7SM CLR 24/17 A2991 RMK AO2 T02420177,KEVU,2023-06-07T04:35:00Z,40.35,-94.92,24.2,17.7,210,3,,7.0,29.911417,,,TRUE,TRUE,,,,,,,CLR,,,,,,,,VFR,,,,,,,,,,,,METAR,351.0
KETN 070435Z AUTO 00000KT 10SM CLR 18/18 A2995 RMK AO2 T01820177,KETN,2023-06-07T04:35:00Z,32.42,-98.82,18.2,17.7,0,0,,10.0,29.949802,,,TRUE,TRUE,,,,,,,CLR,,,,,,,,VFR,,,,,,,,,,,,METAR,445.0
KETB 070435Z AUTO 04004KT 10SM CLR 12/03 A2996 RMK AO2,KETB,2023-06-07T04:35:00Z,43.42,-88.13,12.0,3.0,40,4,,10.0,29.958662,,,TRUE,TRUE,,,,,,,CLR,,,,,,,,VFR,,,,,,,,,,,,METAR,269.0
KERY 070435Z AUTO 34006KT 10SM CLR 09/02 A2999 RMK AO2 T00870022,KERY,2023-06-07T04:35:00Z,46.3,-85.45,8.7,2.2,340,6,,10.0,29.991142,,,TRUE,TRUE,,,,,,,CLR,,,,,,,,VFR,,,,,,,,,,,,METAR,261.0
KERV 070435Z AUTO 00000KT 10SM CLR 20/19 A2994 RMK AO2 T02020186,KERV,2023-06-07T04:35:00Z,29.98,-99.08,20.2,18.6,0,0,,10.0,29.940945,,,TRUE,TRUE,,,,,,,CLR,,,,,,,,VFR,,,,,,,,,,,,METAR,483.0
KEQA 070435Z AUTO 00000KT 10SM CLR 20/16 A2995 RMK AO2,KEQA,2023-06-07T04:35:00Z,37.78,-96.82,20.0,16.0,0,0,,10.0,29.949802,,,TRUE,TRUE,,,,,,,CLR,,,,,,,,VFR,,,,,,,,,,,,METAR,422.0
KEOK 070435Z AUTO 00000KT 10SM FEW050 OVC065 22/15 A2987 RMK A01,KEOK,2023-06-07T04:35:00Z,40.47,-91.42,22.0,15.0,0,0,,10.0,29.870079,,,TRUE,TRUE,,,,,,,FEW,5000,OVC,6500,,,,,VFR,,,,,,,,,,,,METAR,206.0
KEOE 070435Z AUTO 00000KT 10SM VCTS CLR 20/19 A2985 RMK AO2,KEOE,2023-06-07T04:35:00Z,34.32,-81.63,20.0,19.0,0,0,,10.0,29.84941,,,TRUE,TRUE,,,,,,VCTS,CLR,,,,,,,,VFR,,,,,,,,,,,,METAR,166.0
KEMV 070435Z AUTO 25003KT 10SM CLR 18/13 A2975 RMK AO2 T01770128,KEMV,2023-06-07T04:35:00Z,36.68,-77.48,17.7,12.8,250,3,,10.0,29.749016,,,TRUE,TRUE,,,,,,,CLR,,,,,,,,VFR,,,,,,,,,,,,SPECI,35.0
KEMM 070435Z AUTO 10SM SCT100 12/06 A3014 RMK AO2 TSNO,KEMM,2023-06-07T04:35:00Z,41.82,-110.55,12.0,6.0,,,,10.0,30.138779,,,TRUE,TRUE,,,TRUE,,,,SCT,10000,,,,,,,VFR,,,,,,,,,,,,METAR,2219.0
KELO 070435Z AUTO 00000KT 10SM BKN090 12/01 A3006 RMK AO2,KELO,2023-06-07T04:35:00Z,47.82,-91.83,12.0,1.0,0,0,,10.0,30.059055,,,TRUE,TRUE,,,,,,,BKN,9000,,,,,,,VFR,,,,,,,,,,,,METAR,438.0
KELK 070435Z AUTO 06004KT 10SM CLR 18/17 A2998 RMK AO2 SLP439 T01820171 $,KELK,2023-06-07T04:35:00Z,35.43,-99.4,18.2,17.1,60,4,,10.0,29.97933,1043.9,,TRUE,TRUE,TRUE,,,,,,CLR,,,,,,,,VFR,,,,,,,,,,,,METAR,603.0
KELA 070435Z AUTO 15003KT 10SM BKN044 23/21 A2989 RMK AO2 T02250208,KELA,2023-06-07T04:35:00Z,29.6,-96.32,22.5,20.8,150,3,,10.0,29.890747,,,TRUE,TRUE,,,,,,,BKN,4400,,,,,,,VFR,,,,,,,,,,,,METAR,56.0
KEKX 070435Z AUTO 24004KT 10SM SCT110 19/14 A2985 RMK AO2 T01930140,KEKX,2023-06-07T04:35:00Z,37.68,-85.92,19.3,14.0,240,4,,10.0,29.84941,,,TRUE,TRUE,,,,,,,SCT,11000,,,,,,,VFR,,,,,,,,,,,,METAR,234.0
KEKS 070435Z AUTO VRB06KT 10SM FEW023 SCT035 BKN075 13/12 A3008 RMK AO2 LTG DSNT W,KEKS,2023-06-07T04:35:00Z,45.27,-111.65,13.0,12.0,0,6,,10.0,30.079725,,,TRUE,TRUE,,,,,,,FEW,2300,SCT,3500,BKN,7500,,,VFR,,,,,,,,,,,,METAR,1636.0
KEKM 070435Z 28003KT 7SM CLR 13/13 A2991 RMK AO2 T01300130 $,KEKM,2023-06-07T04:35:00Z,41.72,-86.0,13.0,13.0,280,3,,7.0,29.911417,,,,TRUE,TRUE,,,,,,CLR,,,,,,,,VFR,,,,,,,,,,,,METAR,236.0
KEKE 070435Z AUTO 12003KT 10SM CLR 26/19 A2980 RMK A01,KEKE,2023-06-07T04:35:00Z,28.5,-91.58,26.0,19.0,120,3,,10.0,29.799213,,,TRUE,TRUE,,,,,,,CLR,,,,,,,,VFR,,,,,,,,,,,,METAR,31.0
KEIK 070435Z AUTO 34003KT 10SM CLR 16/12 A3002 RMK AO2 T01580117,KEIK,2023-06-07T04:35:00Z,40.02,-105.05,15.8,11.7,340,3,,10.0,30.02067,,,TRUE,TRUE,,,,,,,CLR,,,,,,,,VFR,,,,,,,,,,,,METAR,1551.0
KEGT 070435Z AUTO 00000KT 10SM CLR 18/15 A2995 RMK AO2 T01800149,KEGT,2023-06-07T04:35:00Z,37.32,-97.38,18.0,14.9,0,0,,10.0,29.949802,,,TRUE,TRUE,,,,,,,CLR,,,,,,,,VFR,,,,,,,,,,,,METAR,387.0
KEFT 070435Z AUTO 06006KT 10SM BKN037 OVC090 18/09 A2993 RMK AO2 T01810086,KEFT,2023-06-07T04:35:00Z,42.62,-89.6,18.1,8.6,60,6,,10.0,29.929134,,,TRUE,TRUE,,,,,,,BKN,3700,OVC,9000,,,,,VFR,,,,,,,,,,,,METAR,332.0
KEFK 070435Z AUTO 31005KT 5SM -RA SCT016 BKN032 OVC043 11/10 A2958 RMK AO2 T01050097,KEFK,2023-06-07T04:35:00Z,44.88,-72.23,10.5,9.7,310,5,,5.0,29.58071,,,TRUE,TRUE,,,,,,-RA,SCT,1600,BKN,3200,OVC,4300,,,MVFR,,,,,,,,,,,,METAR,282.0
KEDU 070435Z AUTO 00000KT 10SM CLR 17/11 A2983 RMK AO1,KEDU,2023-06-07T04:35:00Z,38.53,-121.78,17.0,11.0,0,0,,10.0,29.828741,,,TRUE,TRUE,,,,,,,CLR,,,,,,,,VFR,,,,,,,,,,,,METAR,20.0
KEDN 070435Z AUTO 00000KT 10SM CLR 21/21 A2990 RMK AO2 T02060206 PWINO,KEDN,2023-06-07T04:35:00Z,31.3,-85.9,20.6,20.6,0,0,,10.0,29.899607,,,TRUE,TRUE,,,,,TRUE,,CLR,,,,,,,,VFR,,,,,,,,,,,,METAR,103.0
KEDJ 070435Z AUTO 00000KT 8SM FEW031 BKN041 OVC050 14/13 A2988 RMK A01,KEDJ,2023-06-07T04:35:00Z,40.37,-83.82,14.0,13.0,0,0,,8.0,29.878937,,,TRUE,TRUE,,,,,,,FEW,3100,BKN,4100,OVC,5000,,,VFR,,,,,,,,,,,,METAR,341.0
KEDC 070435Z AUTO 00000KT 22/20 A2989 RMK AO2,KEDC,2023-06-07T04:35:00Z,30.4,-97.57,22.0,20.0,0,0,,,29.890747,,,TRUE,TRUE,,,,,,,,,,,,,,,,,,,,,,,,,,,METAR,184.0
KECU 070435Z AUTO 12006KT 10SM BKN060 BKN085 22/17 A3001 RMK AO2,KECU,2023-06-07T04:35:00Z,29.95,-100.17,22.0,17.0,120,6,,10.0,30.008858,,,TRUE,TRUE,,,,,,,BKN,6000,BKN,8500,,,,,VFR,,,,,,,,,,,,METAR,725.0
KECS 070435Z AUTO 11010KT 10SM CLR 20/07 A2999 RMK AO2 LTG DSNT W,KECS,2023-06-07T04:35:00Z,43.88,-104.32,20.0,7.0,110,10,,10.0,29.991142,,,TRUE,TRUE,,,,,,,CLR,,,,,,,,VFR,,,,,,,,,,,,METAR,1273.0
KEBS 070435Z AUTO 00000KT 10SM CLR 19/19 A2988 RMK AO2,KEBS,2023-06-07T04:35:00Z,42.43,-93.87,19.0,19.0,0,0,,10.0,29.878937,,,TRUE,TRUE,,,,,,,CLR,,,,,,,,VFR,,,,,,,,,,,,METAR,340.0
KEBG 070435Z AUTO 15004KT 10SM CLR 23/22 A2987 RMK AO2 T02310221,KEBG,2023-06-07T04:35:00Z,26.45,-98.13,23.1,22.1,150,4,,10.0,29.870079,,,TRUE,TRUE,,,,,,,CLR,,,,,,,,VFR,,,,,,,,,,,,METAR,21.0
KEBA 070435Z AUTO 28003KT 10SM CLR 21/17 A2983 RMK AO2 T02150171,KEBA,2023-06-07T04:35:00Z,34.1,-82.82,21.5,17.1,280,3,,10.0,29.828741,,,TRUE,TRUE,,,,,,,CLR,,,,,,,,VFR,,,,,,,,,,,,METAR,180.0
KE77 070435Z AUTO 25009KT 10SM CLR 25/00 A2995 RMK AO2,KE77,2023-06-07T04:35:00Z,,,25.0,0.0,250,9,,10.0,29.949802,,,TRUE,TRUE,,,,,,,CLR,,,,,,,,VFR,,,,,,,,,,,,METAR,
KE41 070435Z AUTO 08006KT 10SM CLR 23/14 A3001 RMK AO2 T02330139,KE41,2023-06-07T04:35:00Z,31.2,-101.47,23.3,13.9,80,6,,10.0,30.008858,,,TRUE,TRUE,,,,,,,CLR,,,,,,,,VFR,,,,,,,,,,,,METAR,825.0
KE38 070435Z AUTO 33009G14KT 10SM BKN055 BKN065 OVC120 23/08 A3016 RMK AO2 LTG DSNT N AND S T02310082,KE38,2023-06-07T04:35:00Z,30.38,-103.68,23.1,8.2,330,9,14,10.0,30.159449,,,TRUE,TRUE,,,,,,,BKN,5500,BKN,6500,OVC,12000,,,VFR,,,,,,,,,,,,METAR,1372.0
KE16 070435Z AUTO 26004KT 10SM OVC033 15/10 A2992 RMK AO2 PWINO PNO,KE16,2023-06-07T04:35:00Z,37.08,-121.6,15.0,10.0,260,4,,10.0,29.920275,,,TRUE,TRUE,,,,,TRUE,,OVC,3300,,,,,,,VFR,,,,,,,,,,,,METAR,84.0
KE11 070435Z AUTO 13006KT 10SM CLR 21/13 A3004 RMK AO2 T02100134,KE11,2023-06-07T04:35:00Z,32.33,-102.53,21.0,13.4,130,6,,10.0,30.041338,,,TRUE,TRUE,,,,,,,CLR,,,,,,,,VFR,,,,,,,,,,,,METAR,966.0
KDZJ 070435Z AUTO 00000KT 5SM BR CLR 16/16 A2992 RMK AO2 LTG DSNT SE T01600158,KDZJ,2023-06-07T04:35:00Z,34.85,-84.0,16.0,15.8,0,0,,5.0,29.920275,,,TRUE,TRUE,,,,,,BR,CLR,,,,,,,,MVFR,,,,,,,,,,,,METAR,578.0
KDZB 070435Z AUTO 00000KT 10SM CLR 21/18 A2991 RMK AO2 T02140184,KDZB,2023-06-07T04:35:00Z,30.53,-98.37,21.4,18.4,0,0,,10.0,29.911417,,,TRUE,TRUE,,,,,,,CLR,,,,,,,,VFR,,,,,,,,,,,,METAR,329.0
KDYT 070435Z AUTO 06009KT 10SM SCT060 OVC070 09/06 A3003 RMK AO2,KDYT,2023-06-07T04:35:00Z,46.72,-92.03,9.0,6.0,60,9,,10.0,30.029528,,,TRUE,TRUE,,,,,,,SCT,6000,OVC,7000,,,,,VFR,,,,,,,,,,,,METAR,185.0
KDYB 070435Z AUTO 00000KT 8SM VCTS FEW075 FEW095 20/20 A2982 RMK AO2 LTG DSNT N AND W,KDYB,2023-06-07T04:35:00Z,33.07,-80.28,20.0,20.0,0,0,,8.0,29.819881,,,TRUE,TRUE,,,,,,VCTS,FEW,7500,FEW,9500,,,,,VFR,,,,,,,,,,,,METAR,15.0
KDYA 070435Z AUTO 00000KT 10SM CLR 21/18 A2989 RMK AO2 T02140180,KDYA,2023-06-07T04:35:00Z,32.47,-87.95,21.4,18.0,0,0,,10.0,29.890747,,,TRUE,TRUE,,,,,,,CLR,,,,,,,,VFR,,,,,,,,,,,,METAR,33.0
KDXX 070435Z AUTO 12009KT 10SM CLR 27/16 A2989 RMK AO2,KDXX,2023-06-07T04:35:00Z,44.98,-96.18,27.0,16.0,120,9,,10.0,29.890747,,,TRUE,TRUE,,,,,,,CLR,,,,,,,,VFR,,,,,,,,,,,,SPECI,327.0
KDWX 070435Z AUTO 36006KT 10SM SCT090 15/07 A3012 RMK AO2 T01460071,KDWX,2023-06-07T04:35:00Z,41.03,-107.5,14.6,7.1,360,6,,10.0,30.121063,,,TRUE,TRUE,,,,,,,SCT,9000,,,,,,,VFR,,,,,,,,,,,,METAR,1974.0
KDWA 070435Z AUTO 20004KT 10SM BKN039 18/12 A2983 RMK AO2,KDWA,2023-06-07T04:35:00Z,38.58,-121.85,18.0,12.0,200,4,,10.0,29.828741,,,TRUE,TRUE,,,,,,,BKN,3900,,,,,,,VFR,,,,,,,,,,,,METAR,28.0
KDVO 070435Z AUTO 26004KT 10SM SCT018 SCT029 SCT120 15/12 A2989 RMK AO2,KDVO,2023-06-07T04:35:00Z,38.15,-122.55,15.0,12.0,260,4,,10.0,29.890747,,,TRUE,TRUE,,,,,,,SCT,1800,SCT,2900,SCT,12000,,,VFR,,,,,,,,,,,,METAR,1.0
KDUX 070435Z AUTO 13005KT 10SM CLR 18/14 A3003 RMK AO2 T01760143,KDUX,2023-06-07T04:35:00Z,35.85,-102.02,17.6,14.3,130,5,,10.0,30.029528,,,TRUE,TRUE,,,,,,,CLR,,,,,,,,VFR,,,,,,,,,,,,METAR,1129.0
KDUH 070435Z AUTO 00000KT 10SM CLR 11/06 A2990 RMK AO2 T01110059,KDUH,2023-06-07T04:35:00Z,41.73,-83.65,11.1,5.9,0,0,,10.0,29.899607,,,TRUE,TRUE,,,,,,,CLR,,,,,,,,VFR,,,,,,,,,,,,METAR,203.0
KDUC 070435Z AUTO 11007KT 10SM SCT065 BKN085 OVC120 21/16 A2996 RMK AO2 P0001 T02090164,KDUC,2023-06-07T04:35:00Z,34.47,-97.97,20.9,16.4,110,7,,10.0,29.958662,,,TRUE,TRUE,,,,,,,SCT,6500,BKN,8500,OVC,12000,,,VFR,,,,,,0.01,,,,,,METAR,339.0
KDUA 070435Z AUTO 00000KT 10SM CLR 21/16 A2993 RMK AO2,KDUA,2023-06-07T04:35:00Z,33.95,-96.4,21.0,16.0,0,0,,10.0,29.929134,,,TRUE,TRUE,,,,,,,CLR,,,,,,,,VFR,,,,,,,,,,,,METAR,209.0
KDTL 070435Z AUTO 15007KT 10SM OVC100 20/18 A2991 RMK AO2,KDTL,2023-06-07T04:35:00Z,46.82,-95.88,20.0,18.0,150,7,,10.0,29.911417,,,TRUE,TRUE,,,,,,,OVC,10000,,,,,,,VFR,,,,,,,,,,,,METAR,425.0
KDTA 070435Z AUTO 06014G19KT 10SM SCT090 BKN120 22/03 A2986 RMK AO1,KDTA,2023-06-07T04:35:00Z,39.38,-112.5,22.0,3.0,60,14,19,10.0,29.861221,,,TRUE,TRUE,,,,,,,SCT,9000,BKN,12000,,,,,VFR,,,,,,,,,,,,SPECI,1452.0
KDRM 070435Z AUTO 02003KT 10SM CLR 15/07 A2995 RMK AO2 T01510071,KDRM,2023-06-07T04:35:00Z,46.0,-83.75,15.1,7.1,20,3,,10.0,29.949802,,,TRUE,TRUE,,,,,,,CLR,,,,,,,,VFR,,,,,,,,,,,,SPECI,201.0
KDRI 070435Z AUTO 00000KT 10SM CLR 24/21 A2988 RMK AO2 T02410211 $,KDRI,2023-06-07T04:35:00Z,30.83,-93.33,24.1,21.1,0,0,,10.0,29.878937,,,TRUE,TRUE,TRUE,,,,,,CLR,,,,,,,,VFR,,,,,,,,,,,,METAR,59.0
KDQH 070435Z AUTO 25004KT 10SM CLR 23/19 A2990 RMK AO2 T02330186,KDQH,2023-06-07T04:35:00Z,31.48,-82.87,23.3,18.6,250,4,,10.0,29.899607,,,TRUE,TRUE,,,,,,,CLR,,,,,,,,VFR,,,,,,,,,,,,METAR,76.0
KDNV 070435Z AUTO 01006KT 7SM SCT050 BKN090 OVC110 20/14 A2989 RMK AO2 T01980137,KDNV,2023-06-07T04:35:00Z,40.2,-87.6,19.8,13.7,10,6,,7.0,29.890747,,,TRUE,TRUE,,,,,,,SCT,5000,BKN,9000,OVC,11000,,,VFR,,,,,,,,,,,,METAR,208.0
KDNS 070435Z AUTO 00000KT 10SM CLR 22/16 A2991 RMK AO2,KDNS,2023-06-07T04:35:00Z,41.98,-95.37,22.0,16.0,0,0,,10.0,29.911417,,,TRUE,TRUE,,,,,,,CLR,,,,,,,,VFR,,,,,,,,,,,,METAR,382.0
KDNN 070435Z AUTO 00000KT 10SM CLR 19/17 A2987 RMK AO2 T01920165,KDNN,2023-06-07T04:35:00Z,34.72,-84.87,19.2,16.5,0,0,,10.0,29.870079,,,TRUE,TRUE,,,,,,,CLR,,,,,,,,VFR,,,,,,,,,,,,METAR,216.0
KDNA 070435Z AUTO 13005KT 10SM CLR 21/10 A3001 RMK AO2,KDNA,2023-06-07T04:35:00Z,31.88,-106.7,21.0,10.0,130,5,,10.0,30.008858,,,TRUE,TRUE,,,,,,,CLR,,,,,,,,VFR,,,,,,,,,,,,METAR,1254.0
KDLZ 070435Z AUTO 02005KT 10SM CLR 15/05 A2987 RMK AO2,KDLZ,2023-06-07T04:35:00Z,40.28,-83.12,15.0,5.0,20,5,,10.0,29.870079,,,TRUE,TRUE,,,,,,,CLR,,,,,,,,VFR,,,,,,,,,,,,SPECI,287.0
KDLP 070435Z AUTO 18008KT 10SM FEW095 26/21 A2979 RMK A01,KDLP,2023-06-07T04:35:00Z,29.12,-89.55,26.0,21.0,180,8,,10.0,29.790354,,,TRUE,TRUE,,,,,,,FEW,9500,,,,,,,VFR,,,,,,,,,,,,METAR,31.0
KDLO 070435Z AUTO 25009KT 10SM OVC060 16/09 A2983 RMK AO2 T01620088,KDLO,2023-06-07T04:35:00Z,35.75,-119.23,16.2,8.8,250,9,,10.0,29.828741,,,TRUE,TRUE,,,,,,,OVC,6000,,,,,,,VFR,,,,,,,,,,,,METAR,97.0
KDLL 070435Z AUTO 08003KT 10SM OVC075 19/07 A2996 RMK AO2 T01880074,KDLL,2023-06-07T04:35:00Z,43.52,-89.77,18.8,7.4,80,3,,10.0,29.958662,,,TRUE,TRUE,,,,,,,OVC,7500,,,,,,,VFR,,,,,,,,,,,,METAR,297.0
KDKX 070435Z AUTO 00000KT 10SM CLR 16/15 A2987 RMK A01,KDKX,2023-06-07T04:35:00Z,35.97,-83.87,16.0,15.0,0,0,,10.0,29.870079,,,TRUE,TRUE,,,,,,,CLR,,,,,,,,VFR,,,,,,,,,,,,METAR,253.0
KDKR 070435Z AUTO 00000KT 10SM CLR 21/21 A2989 RMK AO2,KDKR,2023-06-07T04:35:00Z,31.3,-95.4,21.0,21.0,0,0,,10.0,29.890747,,,TRUE,TRUE,,,,,,,CLR,,,,,,,,VFR,,,,,,,,,,,,METAR,105.0
KDKB 070435Z AUTO 05007KT 10SM BKN060 OVC120 16/07 A2993 RMK AO2 T01620073,KDKB,2023-06-07T04:35:00Z,41.93,-88.7,16.2,7.3,50,7,,10.0,29.929134,,,TRUE,TRUE,,,,,,,BKN,6000,OVC,12000,,,,,VFR,,,,,,,,,,,,METAR,277.0
KDEH 070435Z AUTO 06003KT 6SM BR FEW037 FEW047 BKN085 19/19 A2991 RMK AO2,KDEH,2023-06-07T04:35:00Z,43.27,-91.73,19.0,19.0,60,3,,6.0,29.911417,,,TRUE,TRUE,,,,,,BR,FEW,3700,FEW,4700,BKN,8500,,,VFR,,,,,,,,,,,,METAR,348.0
KDCY 070435Z AUTO 36006KT 10SM OVC100 24/12 A2985 RMK AO2 T02430121,KDCY,2023-06-07T04:35:00Z,38.7,-87.13,24.3,12.1,360,6,,10.0,29.84941,,,TRUE,TRUE,,,,,,,OVC,10000,,,,,,,VFR,,,,,,,,,,,,METAR,143.0
KDCM 070435Z AUTO 00000KT 10SM TS CLR 18/17 A2984 RMK AO2 LTG DSNT SE,KDCM,2023-06-07T04:35:00Z,34.78,-81.2,18.0,17.0,0,0,,10.0,29.840551,,,TRUE,TRUE,,,,,,TS,CLR,,,,,,,,VFR,,,,,,,,,,,,METAR,191.0
KD95 070435Z AUTO 00000KT 10SM OVC036 08/04 A2991 RMK AO2 T00820040,KD95,2023-06-07T04:35:00Z,43.07,-83.27,8.2,4.0,0,0,,10.0,29.911417,,,TRUE,TRUE,,,,,,,OVC,3600,,,,,,,VFR,,,,,,,,,,,,METAR,253.0
KD73 070435Z AUTO 00000KT 7SM HZ SCT060 19/ A2987 RMK AO2 T0190////,KD73,2023-06-07T04:35:00Z,33.78,-83.7,19.0,,0,0,,7.0,29.870079,,,TRUE,TRUE,,,,,,HZ,SCT,6000,,,,,,,VFR,,,,,,,,,,,,METAR,254.0
KD60 070435Z AUTO 17009KT 10SM CLR 21/15 A2989 RMK AO2,KD60,2023-06-07T04:35:00Z,48.38,-102.9,21.0,15.0,170,9,,10.0,29.890747,,,TRUE,TRUE,,,,,,,CLR,,,,,,,,VFR,,,,,,,,,,,,METAR,682.0
KD57 070435Z AUTO 31004KT 10SM CLR 18/15 A2988 RMK AO2,KD57,2023-06-07T04:35:00Z,46.82,-101.87,18.0,15.0,310,4,,10.0,29.878937,,,TRUE,TRUE,,,,,,,CLR,,,,,,,,VFR,,,,,,,,,,,,METAR,636.0
KD55 070435Z AUTO 14007KT 8SM SCT095 21/21 A2988 RMK AO2,KD55,2023-06-07T04:35:00Z,48.75,-98.4,21.0,21.0,140,7,,8.0,29.878937,,,TRUE,TRUE,,,,,,,SCT,9500,,,,,,,VFR,,,,,,,,,,,,SPECI,488.0
KD50 070435Z AUTO 32009KT 10SM CLR 24/14 A2986 RMK AO2,KD50,2023-06-07T04:35:00Z,48.93,-103.3,24.0,14.0,320,9,,10.0,29.861221,,,TRUE,TRUE,,,,,,,CLR,,,,,,,,VFR,,,,,,,,,,,,SPECI,591.0
KD39 070435Z AUTO 26004KT 10SM -VCTSRA BKN039 BKN050 OVC095 22/16 A2997 RMK AO2 LTG DSNT ALQDS T02200160,KD39,2023-06-07T04:35:00Z,45.7,-94.93,22.0,16.0,260,4,,10.0,29.970472,,,TRUE,TRUE,,,,,,VCTS -RA,BKN,3900,BKN,5000,OVC,9500,,,VFR,,,,,,,,,,,,METAR,378.0
KD25 070435Z AUTO 06004KT 10SM OVC110 13/07 A3003 RMK AO2 T01270072,KD25,2023-06-07T04:35:00Z,46.12,-89.88,12.7,7.2,60,4,,10.0,30.029528,,,TRUE,TRUE,,,,,,,OVC,11000,,,,,,,VFR,,,,,,,,,,,,METAR,490.0
KCZT 070435Z AUTO 10SM CLR 25/18 A2986 RMK AO2,KCZT,2023-06-07T04:35:00Z,28.52,-99.82,25.0,18.0,,,,10.0,29.861221,,,TRUE,TRUE,,,,,,,CLR,,,,,,,,VFR,,,,,,,,,,,,METAR,176.0
KCZL 070435Z AUTO 00000KT 10SM CLR 20/17 A2989 RMK AO2,KCZL,2023-06-07T04:35:00Z,34.47,-84.93,20.0,17.0,0,0,,10.0,29.890747,,,TRUE,TRUE,,,,,,,CLR,,,,,,,,VFR,,,,,,,,,,,,METAR,197.0
KCYD 070435Z AUTO 13004KT 10SM CLR 25/21 A2990 RMK A02 LTG DSNT W T02520206,KCYD,2023-06-07T04:35:00Z,28.17,-89.22,25.2,20.6,130,4,,10.0,29.899607,,,TRUE,TRUE,,,,,,,CLR,,,,,,,,VFR,,,,,,,,,,,,METAR,30.0
KCXW 070435Z AUTO 03004KT 8SM FEW021 SCT034 OVC075 21/15 A2988 RMK A01,KCXW,2023-06-07T04:35:00Z,35.02,-92.55,21.0,15.0,30,4,,8.0,29.878937,,,TRUE,TRUE,,,,,,,FEW,2100,SCT,3400,OVC,7500,,,VFR,,,,,,,,,,,,METAR,84.0
KCXU 070435Z AUTO 00000KT 10SM CLR 21/19 A2991 RMK AO1 T02090189,KCXU,2023-06-07T04:35:00Z,31.22,-84.23,20.9,18.9,0,0,,10.0,29.911417,,,TRUE,TRUE,,,,,,,CLR,,,,,,,,VFR,,,,,,,,,,,,METAR,48.0
KCXP 070435Z AUTO 23003KT 10SM CLR 14/05 A2994 RMK AO2,KCXP,2023-06-07T04:35:00Z,39.18,-119.73,14.0,5.0,230,3,,10.0,29.940945,,,TRUE,TRUE,,,,,,,CLR,,,,,,,,VFR,,,,,,,,,,,,METAR,1431.0
KCXE 070435Z AUTO 10SM CLR 19/13 A2978 RMK AO1 T01900125,KCXE,2023-06-07T04:35:00Z,36.78,-78.5,19.0,12.5,,,,10.0,29.778543,,,TRUE,TRUE,,,,,,,CLR,,,,,,,,VFR,,,,,,,,,,,,METAR,154.0
KCWV 070435Z AUTO 27004KT 10SM SCT075 25/18 A2985 RMK AO2 LTG DSNT NE T02520178,KCWV,2023-06-07T04:35:00Z,32.2,-81.87,25.2,17.8,270,4,,10.0,29.84941,,,TRUE,TRUE,,,,,,,SCT,7500,,,,,,,VFR,,,,,,,,,,,,METAR,32.0
KCWF 070435Z AUTO 04003KT 10SM SCT049 23/21 A2987 RMK AO2 T02340206,KCWF,2023-06-07T04:35:00Z,30.22,-93.15,23.4,20.6,40,3,,10.0,29.870079,,,TRUE,TRUE,,,,,,,SCT,4900,,,,,,,VFR,,,,,,,,,,,,METAR,4.0
KCWC 070435Z AUTO 12010KT 10SM CLR 23/17 A2994 RMK AO2 T02250169,KCWC,2023-06-07T04:35:00Z,33.85,-98.48,22.5,16.9,120,10,,10.0,29.940945,,,TRUE,TRUE,,,,,,,CLR,,,,,,,,VFR,,,,,,,,,,,,METAR,304.0
KCWA 070435Z AUTO 00000KT 10SM CLR 13/08 A3001 RMK AO2,KCWA,2023-06-07T04:35:00Z,44.78,-89.67,13.0,8.0,0,0,,10.0,30.008858,,,TRUE,TRUE,,,,,,,CLR,,,,,,,,VFR,,,,,,,,,,,,SPECI,387.0
KCVX 070435Z AUTO 33003KT 10SM CLR 13/07 A2997 RMK AO2 T01340065,KCVX,2023-06-07T04:35:00Z,45.3,-85.27,13.4,6.5,330,3,,10.0,29.970472,,,TRUE,TRUE,,,,,,,CLR,,,,,,,,VFR,,,,,,,,,,,,METAR,196.0
KCVH 070435Z AUTO 00000KT 10SM OVC029 15/11 A2992 RMK A01,KCVH,2023-06-07T04:35:00Z,36.9,-121.42,15.0,11.0,0,0,,10.0,29.920275,,,TRUE,TRUE,,,,,,,OVC,2900,,,,,,,MVFR,,,,,,,,,,,,METAR,68.0
KCVC 070435Z AUTO 00000KT 7SM CLR 19/18 A2986 RMK AO2,KCVC,2023-06-07T04:35:00Z,33.63,-83.85,19.0,18.0,0,0,,7.0,29.861221,,,TRUE,TRUE,,,,,,,CLR,,,,,,,,VFR,,,,,,,,,,,,METAR,240.0
KCUH 070435Z AUTO 00000KT 10SM CLR 18/17 A2993 RMK AO2 T01760171,KCUH,2023-06-07T04:35:00Z,35.95,-96.77,17.6,17.1,0,0,,10.0,29.929134,,,TRUE,TRUE,,,,,,,CLR,,,,,,,,VFR,,,,,,,,,,,,METAR,274.0
KCTY 070435Z AUTO 00000KT 10SM CLR 20/19 A2991 RMK AO2,KCTY,2023-06-07T04:35:00Z,29.63,-83.1,20.0,19.0,0,0,,10.0,29.911417,,,TRUE,TRUE,,,,,,,CLR,,,,,,,,VFR,,,,,,,,,,,,METAR,12.0
KCTJ 070435Z AUTO 00000KT 10SM SCT110 20/16 A2993 RMK AO2 T01980158,KCTJ,2023-06-07T04:35:00Z,33.63,-85.15,19.8,15.8,0,0,,10.0,29.929134,,,TRUE,TRUE,,,,,,,SCT,11000,,,,,,,VFR,,,,,,,,,,,,METAR,351.0
KCSQ 070435Z AUTO 07005KT 10SM CLR 20/19 A2991 RMK AO2,KCSQ,2023-06-07T04:35:00Z,41.02,-94.37,20.0,19.0,70,5,,10.0,29.911417,,,TRUE,TRUE,,,,,,,CLR,,,,,,,,VFR,,,,,,,,,,,,METAR,394.0
KCRX 070435Z AUTO 00000KT 8SM CLR 20/20 A2988 RMK AO2,KCRX,2023-06-07T04:35:00Z,34.92,-88.6,20.0,20.0,0,0,,8.0,29.878937,,,TRUE,TRUE,,,,,,,CLR,,,,,,,,VFR,,,,,,,,,,,,METAR,128.0
KCQW 070435Z AUTO 00000KT 10SM FEW038 FEW047 SCT080 18/14 A2981 RMK AO2 LTG DSNT S AND SW,KCQW,2023-06-07T04:35:00Z,34.72,-79.95,18.0,14.0,0,0,,10.0,29.811024,,,TRUE,TRUE,,,,,,,FEW,3800,FEW,4700,SCT,8000,,,VFR,,,,,,,,,,,,METAR,67.0
KCQF 070435Z AUTO 00000KT 10SM CLR 20/20 A2989 RMK AO2,KCQF,2023-06-07T04:35:00Z,30.47,-87.88,20.0,20.0,0,0,,10.0,29.890747,,,TRUE,TRUE,,,,,,,CLR,,,,,,,,VFR,,,,,,,,,,,,METAR,21.0
KCQB 070435Z AUTO 29006KT 10SM CLR 20/16 A2994 RMK AO2 T01980160,KCQB,2023-06-07T04:35:00Z,35.72,-96.82,19.8,16.0,290,6,,10.0,29.940945,,,TRUE,TRUE,,,,,,,CLR,,,,,,,,VFR,,,,,,,,,,,,METAR,298.0
KCPW 070435Z AUTO 30008KT 5SM -SN OVC008 00/00 A3052 RMK AO2 LTG DSNT E SE AND W P0008,KCPW,2023-06-07T04:35:00Z,37.45,-106.8,0.0,0.0,300,8,,5.0,30.519686,,,TRUE,TRUE,,,,,,-SN,OVC,800,,,,,,,IFR,,,,,,0.08,,,,,,METAR,3570.0
KCPU 070435Z AUTO 33006KT 10SM CLR 16/11 A2986 RMK AO2 T01560108,KCPU,2023-06-07T04:35:00Z,38.15,-120.65,15.6,10.8,330,6,,10.0,29.861221,,,TRUE,TRUE,,,,,,,CLR,,,,,,,,VFR,,,,,,,,,,,,METAR,400.0
KCPT 070435Z AUTO 05005KT 10SM CLR 23/21 A2992 RMK A01,KCPT,2023-06-07T04:35:00Z,32.35,-97.43,23.0,21.0,50,5,,10.0,29.920275,,,TRUE,TRUE,,,,,,,CLR,,,,,,,,VFR,,,,,,,,,,,,METAR,260.0
KCPP 070435Z AUTO 00000KT 10SM CLR 21/17 A2985 RMK AO2,KCPP,2023-06-07T04:35:00Z,,,21.0,17.0,0,0,,10.0,29.84941,,,TRUE,TRUE,,,,,,,CLR,,,,,,,,VFR,,,,,,,,,,,,METAR,
KCPK 070435Z AUTO 00000KT 10SM CLR 16/14 A2972 RMK AO2 T01570138,KCPK,2023-06-07T04:35:00Z,36.67,-76.32,15.7,13.8,0,0,,10.0,29.719488,,,TRUE,TRUE,,,,,,,CLR,,,,,,,,VFR,,,,,,,,,,,,SPECI,4.0
KCPF 070435Z AUTO 22003KT 10SM BKN070 18/11 A2986 RMK AO2,KCPF,2023-06-07T04:35:00Z,37.38,-83.27,18.0,11.0,220,3,,10.0,29.861221,,,TRUE,TRUE,,,,,,,BKN,7000,,,,,,,VFR,,,,,,,,,,,,SPECI,382.0
KCOQ 070435Z AUTO 08005KT 10SM CLR 10/02 A3001 RMK AO2 TSNO,KCOQ,2023-06-07T04:35:00Z,46.7,-92.5,10.0,2.0,80,5,,10.0,30.008858,,,TRUE,TRUE,,,TRUE,,,,CLR,,,,,,,,VFR,,,,,,,,,,,,SPECI,390.0
KCOM 070435Z AUTO 00000KT 10SM CLR 20/17 A2995 RMK AO2 T01950170,KCOM,2023-06-07T04:35:00Z,31.83,-99.4,19.5,17.0,0,0,,10.0,29.949802,,,TRUE,TRUE,,,,,,,CLR,,,,,,,,VFR,,,,,,,,,,,,METAR,516.0
KCNI 070435Z AUTO 00000KT 7SM HZ CLR 20/17 A2989 RMK AO2 LTG DSNT NE T02000175,KCNI,2023-06-07T04:35:00Z,34.32,-84.42,20.0,17.5,0,0,,7.0,29.890747,,,TRUE,TRUE,,,,,,HZ,CLR,,,,,,,,VFR,,,,,,,,,,,,METAR,371.0
KCNC 070435Z AUTO 00000KT 10SM FEW100 SCT120 22/18 A2989 RMK AO2,KCNC,2023-06-07T04:35:00Z,41.02,-93.37,22.0,18.0,0,0,,10.0,29.890747,,,TRUE,TRUE,,,,,,,FEW,10000,SCT,12000,,,,,VFR,,,,,,,,,,,,METAR,319.0
KCNB 070435Z AUTO 12005KT 10SM CLR 24/15 A2989 RMK AO2 T02350151,KCNB,2023-06-07T04:35:00Z,44.73,-96.27,23.5,15.1,120,5,,10.0,29.890747,,,TRUE,TRUE,,,,,,,CLR,,,,,,,,VFR,,,,,,,,,,,,METAR,363.0
KCMR 070435Z AUTO 22007KT 10SM CLR 13/M12 A3007 RMK AO2,KCMR,2023-06-07T04:35:00Z,35.3,-112.2,13.0,-12.0,220,7,,10.0,30.070866,,,TRUE,TRUE,,,,,,,CLR,,,,,,,,VFR,,,,,,,,,,,,METAR,2039.0
KCMD 070435Z AUTO 00000KT 9SM CLR 20/19 A2991 RMK AO2,KCMD,2023-06-07T04:35:00Z,34.27,-86.85,20.0,19.0,0,0,,9.0,29.911417,,,TRUE,TRUE,,,,,,,CLR,,,,,,,,VFR,,,,,,,,,,,,METAR,294.0
KCLW 070435Z AUTO 00000KT 10SM CLR 25/20 A2990 RMK AO2,KCLW,2023-06-07T04:35:00Z,27.98,-82.75,25.0,20.0,0,0,,10.0,29.899607,,,TRUE,TRUE,,,,,,,CLR,,,,,,,,VFR,,,,,,,,,,,,METAR,21.0
KCLS 070435Z AUTO 00000KT 10SM CLR 20/05 A2976 RMK AO2,KCLS,2023-06-07T04:35:00Z,46.68,-122.98,20.0,5.0,0,0,,10.0,29.760826,,,TRUE,TRUE,,,,,,,CLR,,,,,,,,VFR,,,,,,,,,,,,METAR,52.0
KCLK 070435Z AUTO 00000KT 10SM CLR 18/17 A2998 RMK AO2,KCLK,2023-06-07T04:35:00Z,35.53,-98.93,18.0,17.0,0,0,,10.0,29.97933,,,TRUE,TRUE,,,,,,,CLR,,,,,,,,VFR,,,,,,,,,,,,METAR,489.0
KCLI 070435Z AUTO 02003KT 10SM CLR 12/06 A3000 RMK AO2 T01210062,KCLI,2023-06-07T04:35:00Z,44.62,-88.73,12.1,6.2,20,3,,10.0,30.0,,,TRUE,TRUE,,,,,,,CLR,,,,,,,,VFR,,,,,,,,,,,,METAR,248.0
KCKZ 070435Z AUTO 00000KT 5SM HZ SCT018 OVC065 13/07 A2970 RMK AO2,KCKZ,2023-06-07T04:35:00Z,40.38,-75.28,13.0,7.0,0,0,,5.0,29.698818,,,TRUE,TRUE,,,,,,HZ,SCT,1800,OVC,6500,,,,,MVFR,,,,,,,,,,,,METAR,160.0
KCKP 070435Z AUTO 00000KT 10SM CLR 22/18 A2989 RMK AO2 T02200176,KCKP,2023-06-07T04:35:00Z,42.73,-95.55,22.0,17.6,0,0,,10.0,29.890747,,,TRUE,TRUE,,,,,,,CLR,,,,,,,,VFR,,,,,,,,,,,,SPECI,369.0
KCKN 070435Z AUTO 14007KT 10SM CLR 23/18 A2987 RMK AO2,KCKN,2023-06-07T04:35:00Z,47.85,-96.62,23.0,18.0,140,7,,10.0,29.870079,,,TRUE,TRUE,,,,,,,CLR,,,,,,,,VFR,,,,,,,,,,,,METAR,272.0
KCKM 070435Z AUTO 00000KT 10SM 22/22 A2988 RMK A01,KCKM,2023-06-07T04:35:00Z,34.3,-90.52,22.0,22.0,0,0,,10.0,29.878937,,,TRUE,TRUE,,,,,,,,,,,,,,,,,,,,,,,,,,,METAR,52.0
KCKI 070435Z AUTO 00000KT 10SM SCT020 SCT055 SCT095 21/17 A2983 RMK AO2 LTG DSNT NW THRU NE,KCKI,2023-06-07T04:35:00Z,33.72,-79.85,21.0,17.0,0,0,,10.0,29.828741,,,TRUE,TRUE,,,,,,,SCT,2000,SCT,5500,SCT,9500,,,VFR,,,,,,,,,,,,METAR,19.0
KCKF 070435Z AUTO 23004KT 10SM CLR 24/17 A2991 RMK AO2 T02360172,KCKF,2023-06-07T04:35:00Z,31.98,-83.77,23.6,17.2,230,4,,10.0,29.911417,,,TRUE,TRUE,,,,,,,CLR,,,,,,,,VFR,,,,,,,,,,,,METAR,92.0
KCJR 070435Z AUTO 00000KT 10SM BKN110 21/09 A2974 RMK AO2 T02070093,KCJR,2023-06-07T04:35:00Z,38.53,-77.87,20.7,9.3,0,0,,10.0,29.740158,,,TRUE,TRUE,,,,,,,BKN,11000,,,,,,,VFR,,,,,,,,,,,,METAR,90.0
KCIN 070435Z AUTO 03003KT 10SM FEW085 FEW110 21/17 A2989 RMK AO2,KCIN,2023-06-07T04:35:00Z,42.03,-94.78,21.0,17.0,30,3,,10.0,29.890747,,,TRUE,TRUE,,,,,,,FEW,8500,FEW,11000,,,,,VFR,,,,,,,,,,,,METAR,365.0
KCHK 070435Z AUTO 13004KT 10SM CLR 21/17 A2993 RMK AO2 T02080174,KCHK,2023-06-07T04:35:00Z,35.1,-97.97,20.8,17.4,130,4,,10.0,29.929134,,,TRUE,TRUE,,,,,,,CLR,,,,,,,,VFR,,,,,,,,,,,,METAR,346.0
KCGF 070435Z AUTO 00000KT 5SM HZ CLR 13/09 A2986 RMK AO2 T01250086,KCGF,2023-06-07T04:35:00Z,41.57,-81.47,12.5,8.6,0,0,,5.0,29.861221,,,TRUE,TRUE,,,,,,HZ,CLR,,,,,,,,MVFR,,,,,,,,,,,,METAR,265.0
KCGC 070435Z AUTO 00000KT 10SM SCT060 22/20 A2991 RMK AO2,KCGC,2023-06-07T04:35:00Z,28.87,-82.57,22.0,20.0,0,0,,10.0,29.911417,,,TRUE,TRUE,,,,,,,SCT,6000,,,,,,,VFR,,,,,,,,,,,,SPECI,3.0
KCFS 070435Z AUTO 00000KT 7SM CLR 08/04 A2991 RMK AO2 T00790041,KCFS,2023-06-07T04:35:00Z,43.47,-83.45,7.9,4.1,0,0,,7.0,29.911417,,,TRUE,TRUE,,,,,,,CLR,,,,,,,,VFR,,,,,,,,,,,,SPECI,214.0
KCFO 070435Z AUTO 21006KT 10SM CLR 17/10 A3006 RMK AO2 LTG DSNT SE T01690095,KCFO,2023-06-07T04:35:00Z,39.78,-104.55,16.9,9.5,210,6,,10.0,30.059055,,,TRUE,TRUE,,,,,,,CLR,,,,,,,,VFR,,,,,,,,,,,,METAR,1672.0
KCFJ 070435Z AUTO 00000KT 10SM SCT070 BKN085 OVC100 19/09 A2988 RMK AO2 T01850088,KCFJ,2023-06-07T04:35:00Z,39.98,-86.92,18.5,8.8,0,0,,10.0,29.878937,,,TRUE,TRUE,,,,,,,SCT,7000,BKN,8500,OVC,10000,,,VFR,,,,,,,,,,,,METAR,243.0
KCFE 070435Z AUTO 06009KT 9SM SCT100 OVC120 22/14 A2992 RMK AO2,KCFE,2023-06-07T04:35:00Z,45.17,-93.85,22.0,14.0,60,9,,9.0,29.920275,,,TRUE,TRUE,,,,,,,SCT,10000,OVC,12000,,,,,VFR,,,,,,,,,,,,SPECI,292.0
KCFD 070435Z AUTO 15005KT 10SM CLR 23/20 A2992 RMK AO2 T02250195,KCFD,2023-06-07T04:35:00Z,30.72,-96.33,22.5,19.5,150,5,,10.0,29.920275,,,TRUE,TRUE,,,,,,,CLR,,,,,,,,VFR,,,,,,,,,,,,METAR,106.0
KCEY 070435Z AUTO 00000KT 10SM CLR 19/14 A2989 RMK A01,KCEY,2023-06-07T04:35:00Z,36.67,-88.37,19.0,14.0,0,0,,10.0,29.890747,,,TRUE,TRUE,,,,,,,CLR,,,,,,,,VFR,,,,,,,,,,,,SPECI,172.0
KCDN 070435Z AUTO 00000KT 10SM FEW065 SCT075 BKN090 19/18 A2984 RMK AO2 LTG DSNT E AND SE,KCDN,2023-06-07T04:35:00Z,34.28,-80.57,19.0,18.0,0,0,,10.0,29.840551,,,TRUE,TRUE,,,,,,,FEW,6500,SCT,7500,BKN,9000,,,VFR,,,,,,,,,,,,METAR,90.0
KCDI 070435Z AUTO 00000KT 10SM SCT070 SCT090 16/07 A2984 RMK AO2 T01630067,KCDI,2023-06-07T04:35:00Z,39.97,-81.58,16.3,6.7,0,0,,10.0,29.840551,,,TRUE,TRUE,,,,,,,SCT,7000,SCT,9000,,,,,VFR,,,,,,,,,,,,SPECI,241.0
KCDH 070435Z AUTO 00000KT 4SM HZ CLR 23/20 A2988 RMK AO2,KCDH,2023-06-07T04:35:00Z,33.62,-92.77,23.0,20.0,0,0,,4.0,29.878937,,,TRUE,TRUE,,,,,,HZ,CLR,,,,,,,,MVFR,,,,,,,,,,,,SPECI,38.0
KCDD 070435Z AUTO 00000KT 10SM OVC070 14/05 A3006 RMK AO2,KCDD,2023-06-07T04:35:00Z,48.27,-92.48,14.0,5.0,0,0,,10.0,30.059055,,,TRUE,TRUE,,,,,,,OVC,7000,,,,,,,VFR,,,,,,,,,,,,METAR,344.0
KCDA 070435Z AUTO 27008G14KT 10SM RA SCT019 SCT028 OVC060 10/08 A2957 RMK AO2 T01010082,KCDA,2023-06-07T04:35:00Z,44.57,-72.02,10.1,8.2,270,8,14,10.0,29.568897,,,TRUE,TRUE,,,,,,RA,SCT,1900,SCT,2800,OVC,6000,,,VFR,,,,,,,,,,,,SPECI,357.0
KCCY 070435Z AUTO 06006KT 4SM BR CLR 19/18 A2991 RMK AO2,KCCY,2023-06-07T04:35:00Z,43.07,-92.62,19.0,18.0,60,6,,4.0,29.911417,,,TRUE,TRUE,,,,,,BR,CLR,,,,,,,,MVFR,,,,,,,,,,,,METAR,340.0
KCCU 070435Z AUTO 00000KT 10SM CLR 07/00 A3044 RMK AO2,KCCU,2023-06-07T04:35:00Z,39.48,-106.15,7.0,0.0,0,0,,10.0,30.43996,,,TRUE,TRUE,,,,,,,CLR,,,,,,,,VFR,,,,,,,,,,,,METAR,3672.0
KCCO 070435Z AUTO 00000KT 10SM CLR 21/16 A2989 RMK AO2 T02090164,KCCO,2023-06-07T04:35:00Z,33.32,-84.77,20.9,16.4,0,0,,10.0,29.890747,,,TRUE,TRUE,,,,,,,CLR,,,,,,,,VFR,,,,,,,,,,,,SPECI,290.0
KCCB 070435Z AUTO 27010KT 10SM 15/10 A2992 RMK AO2,KCCB,2023-06-07T04:35:00Z,34.12,-117.68,15.0,10.0,270,10,,10.0,29.920275,,,TRUE,TRUE,,,,,,,,,,,,,,,,,,,,,,,,,,,METAR,440.0
KCCA 070435Z AUTO 00000KT 7SM FEW070 17/17 A2992 RMK AO2,KCCA,2023-06-07T04:35:00Z,35.6,-92.45,17.0,17.0,0,0,,7.0,29.920275,,,TRUE,TRUE,,,,,,,FEW,7000,,,,,,,VFR,,,,,,,,,,,,SPECI,152.0
KCBK 070435Z AUTO 13004KT 10SM CLR 18/14 A3001 RMK AO2 T01780140,KCBK,2023-06-07T04:35:00Z,39.43,-101.05,17.8,14.0,130,4,,10.0,30.008858,,,TRUE,TRUE,,,,,,,CLR,,,,,,,,VFR,,,,,,,,,,,,METAR,970.0
KCBG 070435Z AUTO 03005KT 10SM OVC085 19/08 A2996 RMK AO2,KCBG,2023-06-07T04:35:00Z,45.57,-93.27,19.0,8.0,30,5,,10.0,29.958662,,,TRUE,TRUE,,,,,,,OVC,8500,,,,,,,VFR,,,,,,,,,,,,SPECI,285.0
KCBF 070435Z AUTO 21006KT 10SM CLR 25/13 A2988 RMK AO2,KCBF,2023-06-07T04:35:00Z,41.27,-95.77,25.0,13.0,210,6,,10.0,29.878937,,,TRUE,TRUE,,,,,,,CLR,,,,,,,,VFR,,,,,,,,,,,,SPECI,379.0
KCAV 070435Z AUTO 14004KT 10SM FEW037 SCT045 20/18 A2990 RMK A01,KCAV,2023-06-07T04:35:00Z,42.75,-93.77,20.0,18.0,140,4,,10.0,29.899607,,,TRUE,TRUE,,,,,,,FEW,3700,SCT,4500,,,,,VFR,,,,,,,,,,,,METAR,352.0
KCAD 070435Z AUTO 00000KT 10SM CLR 08/04 A2995 RMK AO2 T00770040,KCAD,2023-06-07T04:35:00Z,44.27,-85.42,7.7,4.0,0,0,,10.0,29.949802,,,TRUE,TRUE,,,,,,,CLR,,,,,,,,VFR,,,,,,,,,,,,METAR,397.0
KC83 070435Z AUTO 27007G12KT 10SM CLR 16/11 A2985 RMK AO2,KC83,2023-06-07T04:35:00Z,37.83,-121.62,16.0,11.0,270,7,12,10.0,29.84941,,,TRUE,TRUE,,,,,,,CLR,,,,,,,,VFR,,,,,,,,,,,,METAR,16.0
KC65 070435Z AUTO 00000KT 10SM FEW032 FEW040 15/12 A2989 RMK A01,KC65,2023-06-07T04:35:00Z,41.37,-86.3,15.0,12.0,0,0,,10.0,29.890747,,,TRUE,TRUE,,,,,,,FEW,3200,FEW,4000,,,,,VFR,,,,,,,,,,,,METAR,241.0
KC62 070435Z AUTO 05003KT 10SM BKN050 BKN060 15/08 A2991 RMK AO2 T01470083,KC62,2023-06-07T04:35:00Z,41.47,-85.25,14.7,8.3,50,3,,10.0,29.911417,,,TRUE,TRUE,,,,,,,BKN,5000,BKN,6000,,,,,VFR,,,,,,,,,,,,METAR,304.0
KC35 070435Z AUTO 08005KT 10SM SCT060 OVC070 19/07 A2995 RMK AO2 T01860071 PWINO,KC35,2023-06-07T04:35:00Z,43.53,-89.98,18.6,7.1,80,5,,10.0,29.949802,,,TRUE,TRUE,,,,,TRUE,,SCT,6000,OVC,7000,,,,,VFR,,,,,,,,,,,,SPECI,272.0
KC29 070435Z AUTO 08007KT 10SM OVC060 19/08 A2995 RMK AO1 T01890077,KC29,2023-06-07T04:35:00Z,43.12,-89.53,18.9,7.7,80,7,,10.0,29.949802,,,TRUE,TRUE,,,,,,,OVC,6000,,,,,,,VFR,,,,,,,,,,,,SPECI,282.0
KC09 070435Z AUTO 00000KT 10SM SCT110 17/09 A2991 RMK AO2 T01730090,KC09,2023-06-07T04:35:00Z,41.43,-88.42,17.3,9.0,0,0,,10.0,29.911417,,,TRUE,TRUE,,,,,,,SCT,11000,,,,,,,VFR,,,,,,,,,,,,METAR,179.0
KC07 070435Z AUTO 10003KT 10SM SCT050 BKN075 07/02 A3034 RMK AO2 LTG DSNT N AND W,KC07,2023-06-07T04:35:00Z,40.35,-106.7,7.0,2.0,100,3,,10.0,30.339567,,,TRUE,TRUE,,,,,,,SCT,5000,BKN,7500,,,,,VFR,,,,,,,,,,,,METAR,3224.0
KBYY 070435Z AUTO 00000KT 10SM CLR 21/20 A2989 RMK AO2 T02140201,KBYY,2023-06-07T04:35:00Z,28.97,-95.87,21.4,20.1,0,0,,10.0,29.890747,,,TRUE,TRUE,,,,,,,CLR,,,,,,,,VFR,,,,,,,,,,,,METAR,12.0
KBYL 070435Z AUTO 00000KT 10SM CLR 15/13 A2989 RMK AO1,KBYL,2023-06-07T04:35:00Z,36.8,-84.2,15.0,13.0,0,0,,10.0,29.890747,,,TRUE,TRUE,,,,,,,CLR,,,,,,,,VFR,,,,,,,,,,,,SPECI,355.0
KBXK 070435Z AUTO 21008KT 9SM CLR 24/M01 A2977 RMK A01,KBXK,2023-06-07T04:35:00Z,33.42,-112.68,24.0,-1.0,210,8,,9.0,29.769686,,,TRUE,TRUE,,,,,,,CLR,,,,,,,,VFR,,,,,,,,,,,,SPECI,303.0
KBXA 070435Z AUTO 00000KT 10SM CLR 22/20 A2990 RMK AO2 T02150200,KBXA,2023-06-07T04:35:00Z,30.82,-89.87,21.5,20.0,0,0,,10.0,29.899607,,,TRUE,TRUE,,,,,,,CLR,,,,,,,,VFR,,,,,,,,,,,,METAR,35.0
KBWW 070435Z AUTO 14008KT 10SM CLR 20/12 A2992 RMK AO2,KBWW,2023-06-07T04:35:00Z,46.17,-103.3,20.0,12.0,140,8,,10.0,29.920275,,,TRUE,TRUE,,,,,,,CLR,,,,,,,,VFR,,,,,,,,,,,,SPECI,911.0
KBWP 070435Z AUTO 14008KT 10SM FEW042 24/18 A2986 RMK AO2,KBWP,2023-06-07T04:35:00Z,46.25,-96.62,24.0,18.0,140,8,,10.0,29.861221,,,TRUE,TRUE,,,,,,,FEW,4200,,,,,,,VFR,,,,,,,,,,,,METAR,294.0
KBVU 070435Z AUTO 18006KT 10SM CLR 26/M11 A2974 RMK AO2,KBVU,2023-06-07T04:35:00Z,35.95,-114.87,26.0,-11.0,180,6,,10.0,29.740158,,,TRUE,TRUE,,,,,,,CLR,,,,,,,,VFR,,,,,,,,,,,,SPECI,654.0
KBVS 070435Z AUTO 27003KT 10SM CLR 16/08 A2979 RMK A01,KBVS,2023-06-07T04:35:00Z,48.47,-122.42,16.0,8.0,270,3,,10.0,29.790354,,,TRUE,TRUE,,,,,,,CLR,,,,,,,,VFR,,,,,,,,,,,,METAR,31.0
KBVN 070435Z AUTO 00000KT 10SM CLR 20/15 A2992 RMK AO2 T01950148,KBVN,2023-06-07T04:35:00Z,41.73,-98.05,19.5,14.8,0,0,,10.0,29.920275,,,TRUE,TRUE,,,,,,,CLR,,,,,,,,VFR,,,,,,,,,,,,METAR,547.0
KBVI 070435Z AUTO 35003KT 10SM CLR 15/05 A2980 RMK AO2 T01480049,KBVI,2023-06-07T04:35:00Z,40.77,-80.37,14.8,4.9,350,3,,10.0,29.799213,,,TRUE,TRUE,,,,,,,CLR,,,,,,,,VFR,,,,,,,,,,,,METAR,387.0
KBUU 070435Z AUTO 00000KT 10SM OVC100 14/06 A2995 RMK AO2 T01380063 PWINO,KBUU,2023-06-07T04:35:00Z,42.68,-88.3,13.8,6.3,0,0,,10.0,29.949802,,,TRUE,TRUE,,,,,TRUE,,OVC,10000,,,,,,,VFR,,,,,,,,,,,,METAR,238.0
KBTN 070435Z AUTO 09004KT 10SM CLR 22/21 A2985 RMK AO2,KBTN,2023-06-07T04:35:00Z,45.82,-97.75,22.0,21.0,90,4,,10.0,29.84941,,,TRUE,TRUE,,,,,,,CLR,,,,,,,,VFR,,,,,,,,,,,,METAR,400.0
KBTA 070435Z AUTO 19004KT 10SM CLR 24/15 A2991 RMK AO2 T02350150,KBTA,2023-06-07T04:35:00Z,41.42,-96.12,23.5,15.0,190,4,,10.0,29.911417,,,TRUE,TRUE,,,,,,,CLR,,,,,,,,VFR,,,,,,,,,,,,METAR,400.0
KBRY 070435Z AUTO 00000KT 10SM OVC100 20/16 A2981 RMK AO2 T02030162,KBRY,2023-06-07T04:35:00Z,37.82,-85.5,20.3,16.2,0,0,,10.0,29.811024,,,TRUE,TRUE,,,,,,,OVC,10000,,,,,,,VFR,,,,,,,,,,,,SPECI,192.0
KBRG 070435Z AUTO 13012KT 10SM TS SCT085 OVC110 19/07 A3011 RMK AO2 LTG DSNT E T01940070,KBRG,2023-06-07T04:35:00Z,34.65,-106.83,19.4,7.0,130,12,,10.0,30.109253,,,TRUE,TRUE,,,,,,TS,SCT,8500,OVC,11000,,,,,VFR,,,,,,,,,,,,METAR,1585.0
KBQX 070435Z AUTO 13006KT 10SM FEW031 FEW046 FEW055 26/20 A2989 RMK A01,KBQX,2023-06-07T04:35:00Z,28.5,-95.72,26.0,20.0,130,6,,10.0,29.890747,,,TRUE,TRUE,,,,,,,FEW,3100,FEW,4600,FEW,5500,,,VFR,,,,,,,,,,,,METAR,34.0
KBQP 070435Z AUTO 00000KT 19/17 A2990 RMK AO2 T01900172 PWINO,KBQP,2023-06-07T04:35:00Z,32.75,-91.88,19.0,17.2,0,0,,,29.899607,,,TRUE,TRUE,,,,,TRUE,,,,,,,,,,,,,,,,,,,,,,SPECI,50.0
KBQK 070435Z AUTO 21008KT 10SM CLR 24/18 A2988 RMK AO2 T02380180,KBQK,2023-06-07T04:35:00Z,31.25,-81.47,23.8,18.0,210,8,,10.0,29.878937,,,TRUE,TRUE,,,,,,,CLR,,,,,,,,VFR,,,,,,,,,,,,METAR,7.0
KBPG 070435Z AUTO 09003KT 10SM CLR 21/15 A3001 RMK AO2 T02110150,KBPG,2023-06-07T04:35:00Z,32.22,-101.52,21.1,15.0,90,3,,10.0,30.008858,,,TRUE,TRUE,,,,,,,CLR,,,,,,,,VFR,,,,,,,,,,,,METAR,782.0
KBPC 070435Z AUTO 16011KT 10SM CLR 19/14 A3000 RMK AO2,KBPC,2023-06-07T04:35:00Z,35.88,-101.03,19.0,14.0,160,11,,10.0,30.0,,,TRUE,TRUE,,,,,,,CLR,,,,,,,,VFR,,,,,,,,,,,,METAR,844.0
KBOW 070435Z AUTO 00000KT 10SM CLR 22/21 A2992 RMK AO2,KBOW,2023-06-07T04:35:00Z,27.93,-81.77,22.0,21.0,0,0,,10.0,29.920275,,,TRUE,TRUE,,,,,,,CLR,,,,,,,,VFR,,,,,,,,,,,,SPECI,38.0
KBNW 070435Z AUTO 00000KT 10SM BKN110 22/19 A2988 RMK AO2,KBNW,2023-06-07T04:35:00Z,42.03,-93.83,22.0,19.0,0,0,,10.0,29.878937,,,TRUE,TRUE,,,,,,,BKN,11000,,,,,,,VFR,,,,,,,,,,,,METAR,350.0
KBNL 070435Z AUTO 00000KT 10SM SCT075 BKN085 20/18 A2982 RMK AO2 LTG DSNT E AND SE,KBNL,2023-06-07T04:35:00Z,33.25,-81.38,20.0,18.0,0,0,,10.0,29.819881,,,TRUE,TRUE,,,,,,,SCT,7500,BKN,8500,,,,,VFR,,,,,,,,,,,,METAR,76.0
KBMT 070435Z AUTO 00000KT 10SM CLR 21/21 A2987 RMK AO2 T02100205,KBMT,2023-06-07T04:35:00Z,30.07,-94.22,21.0,20.5,0,0,,10.0,29.870079,,,TRUE,TRUE,,,,,,,CLR,,,,,,,,VFR,,,,,,,,,,,,METAR,8.0
KBKT 070435Z AUTO 29005KT 10SM CLR 18/13 A2975 RMK AO1 T01820125,KBKT,2023-06-07T04:35:00Z,37.07,-77.95,18.2,12.5,290,5,,10.0,29.749016,,,TRUE,TRUE,,,,,,,CLR,,,,,,,,VFR,,,,,,,,,,,,SPECI,134.0
KBKS 070435Z AUTO 11003KT 10SM CLR 24/22 A2986 RMK AO2 SLP072 T02390218 $,KBKS,2023-06-07T04:35:00Z,27.2,-98.12,23.9,21.8,110,3,,10.0,29.861221,1007.2,,TRUE,TRUE,TRUE,,,,,,CLR,,,,,,,,VFR,,,,,,,,,,,,SPECI,34.0
KBKN 070435Z AUTO 02003KT 19/18 A2993 RMK AO2,KBKN,2023-06-07T04:35:00Z,36.75,-97.35,19.0,18.0,20,3,,,29.929134,,,TRUE,TRUE,,,,,,,,,,,,,,,,,,,,,,,,,,,SPECI,208.0
KBKD 070435Z AUTO 00000KT 7SM CLR 23/18 A2994 RMK AO2 T02250183,KBKD,2023-06-07T04:35:00Z,32.72,-98.88,22.5,18.3,0,0,,7.0,29.940945,,,TRUE,TRUE,,,,,,,CLR,,,,,,,,VFR,,,,,,,,,,,,METAR,383.0
KBJI 070435Z AUTO 13008KT 10SM CLR 19/13 A2994 RMK AO2 T01880127,KBJI,2023-06-07T04:35:00Z,47.5,-94.92,18.8,12.7,130,8,,10.0,29.940945,,,TRUE,TRUE,,,,,,,CLR,,,,,,,,VFR,,,,,,,,,,,,METAR,422.0
KBJC 070435Z AUTO 32006KT 10SM CLR 18/08 A3005 RMK AO2,KBJC,2023-06-07T04:35:00Z,39.9,-105.1,18.0,8.0,320,6,,10.0,30.050198,,,TRUE,TRUE,,,,,,,CLR,,,,,,,,VFR,,,,,,,,,,,,METAR,1694.0
KBIJ 070435Z AUTO 00000KT 10SM CLR 20/17 A2991 RMK AO2,KBIJ,2023-06-07T04:35:00Z,31.4,-84.9,20.0,17.0,0,0,,10.0,29.911417,,,TRUE,TRUE,,,,,,,CLR,,,,,,,,VFR,,,,,,,,,,,,METAR,63.0
KBIE 070435Z AUTO 19003KT 10SM CLR 23/15 A2992 RMK AO2 T02280147,KBIE,2023-06-07T04:35:00Z,40.28,-96.75,22.8,14.7,190,3,,10.0,29.920275,,,TRUE,TRUE,,,,,,,CLR,,,,,,,,VFR,,,,,,,,,,,,METAR,398.0
KBHC 070435Z AUTO 26003KT 10SM CLR 23/17 A2988 RMK AO2,KBHC,2023-06-07T04:35:00Z,31.72,-82.4,23.0,17.0,260,3,,10.0,29.878937,,,TRUE,TRUE,,,,,,,CLR,,,,,,,,VFR,,,,,,,,,,,,SPECI,61.0
KBGF 070435Z AUTO 00000KT 10SM BKN060 19/18 A2988 RMK A01,KBGF,2023-06-07T04:35:00Z,35.18,-86.07,19.0,18.0,0,0,,10.0,29.878937,,,TRUE,TRUE,,,,,,,BKN,6000,,,,,,,VFR,,,,,,,,,,,,METAR,295.0
KBGE 070435Z AUTO 00000KT 10SM CLR 21/20 A2991 RMK AO2 T02140198,KBGE,2023-06-07T04:35:00Z,30.97,-84.63,21.4,19.8,0,0,,10.0,29.911417,,,TRUE,TRUE,,,,,,,CLR,,,,,,,,VFR,,,,,,,,,,,,METAR,40.0
KBEC 070435Z AUTO 26004KT 10SM CLR 20/14 A2995 RMK AO2 T02020140,KBEC,2023-06-07T04:35:00Z,37.7,-97.22,20.2,14.0,260,4,,10.0,29.949802,,,TRUE,TRUE,,,,,,,CLR,,,,,,,,VFR,,,,,,,,,,,,SPECI,421.0
KBEA 070435Z AUTO 15003KT 10SM CLR 23/21 A2987 RMK AO2 T02250211,KBEA,2023-06-07T04:35:00Z,28.37,-97.78,22.5,21.1,150,3,,10.0,29.870079,,,TRUE,TRUE,,,,,,,CLR,,,,,,,,VFR,,,,,,,,,,,,SPECI,83.0
KBDU 070435Z AUTO 31003KT 10SM CLR 16/07 A3003 RMK AO2,KBDU,2023-06-07T04:35:00Z,40.03,-105.23,16.0,7.0,310,3,,10.0,30.029528,,,TRUE,TRUE,,,,,,,CLR,,,,,,,,VFR,,,,,,,,,,,,METAR,1614.0
KBDN 070435Z AUTO 35005KT 10SM CLR 22/M02 A2985 RMK AO2,KBDN,2023-06-07T04:35:00Z,44.1,-121.2,22.0,-2.0,350,5,,10.0,29.84941,,,TRUE,TRUE,,,,,,,CLR,,,,,,,,VFR,,,,,,,,,,,,METAR,1044.0
KBDH 070435Z AUTO 09007KT 10SM CLR 24/17 A2993 RMK AO2,KBDH,2023-06-07T04:35:00Z,45.12,-95.13,24.0,17.0,90,7,,10.0,29.929134,,,TRUE,TRUE,,,,,,,CLR,,,,,,,,VFR,,,,,,,,,,,,METAR,341.0
KBDG 070435Z AUTO 05005KT 10SM 15/05 A3012 RMK AO1 T01530049,KBDG,2023-06-07T04:35:00Z,37.58,-109.47,15.3,4.9,50,5,,10.0,30.121063,,,TRUE,TRUE,,,,,,,,,,,,,,,,,,,,,,,,,,,METAR,1778.0
KBCK 070435Z AUTO 11003KT 10SM BKN050 OVC065 20/12 A2994 RMK AO2 T02020117,KBCK,2023-06-07T04:35:00Z,44.25,-90.85,20.2,11.7,110,3,,10.0,29.940945,,,TRUE,TRUE,,,,,,,BKN,5000,OVC,6500,,,,,VFR,,,,,,,,,,,,METAR,256.0
KBCB 070435Z AUTO 00000KT 10SM CLR 16/13 A2989 RMK AO2 T01560126,KBCB,2023-06-07T04:35:00Z,37.22,-80.42,15.6,12.6,0,0,,10.0,29.890747,,,TRUE,TRUE,,,,,,,CLR,,,,,,,,VFR,,,,,,,,,,,,SPECI,642.0
KBBP 070435Z AUTO 20003KT 10SM VCTS CLR 17/16 A2982 RMK AO2 LTG DSNT S,KBBP,2023-06-07T04:35:00Z,34.62,-79.73,17.0,16.0,200,3,,10.0,29.819881,,,TRUE,TRUE,,,,,,VCTS,CLR,,,,,,,,VFR,,,,,,,,,,,,METAR,44.0
KBBG 070435Z AUTO 00000KT 10SM OVC044 17/13 A2995 RMK AO2,KBBG,2023-06-07T04:35:00Z,36.53,-93.2,17.0,13.0,0,0,,10.0,29.949802,,,TRUE,TRUE,,,,,,,OVC,4400,,,,,,,VFR,,,,,,,,,,,,METAR,403.0
KBBD 070435Z AUTO 07004KT 10SM CLR 21/17 A2995 RMK AO2,KBBD,2023-06-07T04:35:00Z,31.18,-99.32,21.0,17.0,70,4,,10.0,29.949802,,,TRUE,TRUE,,,,,,,CLR,,,,,,,,VFR,,,,,,,,,,,,METAR,554.0
KBBB 070435Z AUTO 14007KT 10SM CLR 24/17 A2989 RMK AO2,KBBB,2023-06-07T04:35:00Z,45.32,-95.65,24.0,17.0,140,7,,10.0,29.890747,,,TRUE,TRUE,,,,,,,CLR,,,,,,,,VFR,,,,,,,,,,,,SPECI,315.0
KBAX 070435Z AUTO 00000KT 10SM CLR 07/06 A2990 RMK AO2 T00730061,KBAX,2023-06-07T04:35:00Z,43.78,-82.98,7.3,6.1,0,0,,10.0,29.899607,,,TRUE,TRUE,,,,,,,CLR,,,,,,,,VFR,,,,,,,,,,,,SPECI,229.0
KBAM 070435Z AUTO 33007KT 10SM CLR 17/08 A2991 RMK AO1,KBAM,2023-06-07T04:35:00Z,40.6,-116.87,17.0,8.0,330,7,,10.0,29.911417,,,TRUE,TRUE,,,,,,,CLR,,,,,,,,VFR,,,,,,,,,,,,METAR,1381.0
KBAC 070435Z AUTO 12007KT 10SM CLR 22/21 A2988 RMK AO2,KBAC,2023-06-07T04:35:00Z,46.93,-98.02,22.0,21.0,120,7,,10.0,29.878937,,,TRUE,TRUE,,,,,,,CLR,,,,,,,,VFR,,,,,,,,,,,,SPECI,423.0
KAZE 070435Z AUTO 25005KT 10SM CLR 24/18 A2987 RMK AO2 T02390182,KAZE,2023-06-07T04:35:00Z,31.88,-82.65,23.9,18.2,250,5,,10.0,29.870079,,,TRUE,TRUE,,,,,,,CLR,,,,,,,,VFR,,,,,,,,,,,,METAR,78.0
KAZC 070435Z AUTO 10008KT 10SM CLR 15/M05 A2994 RMK AO2,KAZC,2023-06-07T04:35:00Z,36.97,-113.02,15.0,-5.0,100,8,,10.0,29.940945,,,TRUE,TRUE,,,,,,,CLR,,,,,,,,VFR,,,,,,,,,,,,METAR,1476.0
KAYS 070435Z AUTO 27004KT 10SM CLR 24/22 A2988 RMK AO2 T02380221,KAYS,2023-06-07T04:35:00Z,31.25,-82.4,23.8,22.1,270,4,,10.0,29.878937,,,TRUE,TRUE,,,,,,,CLR,,,,,,,,VFR,,,,,,,,,,,,SPECI,42.0
KAXX 070435Z AUTO 26016G24KT 10SM -RA SCT020 SCT027 OVC055 08/06 A3033 RMK AO2 T00810057,KAXX,2023-06-07T04:35:00Z,36.42,-105.28,8.1,5.7,260,16,24,10.0,30.33071,,,TRUE,TRUE,,,,,,-RA,SCT,2000,SCT,2700,OVC,5500,,,VFR,,,,,,,,,,,,METAR,2543.0
KAXV 070435Z AUTO 00000KT 3SM BR CLR 13/12 A2986 RMK AO2,KAXV,2023-06-07T04:35:00Z,40.5,-84.3,13.0,12.0,0,0,,3.0,29.861221,,,TRUE,TRUE,,,,,,BR,CLR,,,,,,,,MVFR,,,,,,,,,,,,SPECI,278.0
KAXH 070435Z AUTO 00000KT 7SM CLR 21/20 A2989 RMK AO2 T02090201,KAXH,2023-06-07T04:35:00Z,29.52,-95.48,20.9,20.1,0,0,,7.0,29.890747,,,TRUE,TRUE,,,,,,,CLR,,,,,,,,VFR,,,,,,,,,,,,METAR,18.0
KAXA 070435Z AUTO 20005KT 10SM CLR 22/20 A2989 RMK A01,KAXA,2023-06-07T04:35:00Z,43.07,-94.27,22.0,20.0,200,5,,10.0,29.890747,,,TRUE,TRUE,,,,,,,CLR,,,,,,,,VFR,,,,,,,,,,,,METAR,371.0
KAWG 070435Z AUTO 00000KT 9SM BKN120 21/18 A2987 RMK AO2,KAWG,2023-06-07T04:35:00Z,41.27,-91.67,21.0,18.0,0,0,,9.0,29.870079,,,TRUE,TRUE,,,,,,,BKN,12000,,,,,,,VFR,,,,,,,,,,,,METAR,229.0
KAVQ 070435Z AUTO 00000KT 10SM 27/M02 A2983 RMK AO2 T02691017,KAVQ,2023-06-07T04:35:00Z,32.4,-111.22,26.9,-1.7,0,0,,10.0,29.828741,,,TRUE,TRUE,,,,,,,,,,,,,,,,,,,,,,,,,,,METAR,618.0
KAVC 070435Z AUTO 28003KT 10SM CLR 19/14 A2981 RMK AO2 T01940139,KAVC,2023-06-07T04:35:00Z,36.68,-78.05,19.4,13.9,280,3,,10.0,29.811024,,,TRUE,TRUE,,,,,,,CLR,,,,,,,,VFR,,,,,,,,,,,,SPECI,119.0
KAUN 070435Z AUTO 08003KT 10SM CLR 15/12 A2987 RMK A01,KAUN,2023-06-07T04:35:00Z,38.95,-121.08,15.0,12.0,80,3,,10.0,29.870079,,,TRUE,TRUE,,,,,,,CLR,,,,,,,,VFR,,,,,,,,,,,,METAR,453.0
KAUH 070435Z AUTO 22004KT 10SM CLR 21/15 A2993 RMK AO2 T02140153,KAUH,2023-06-07T04:35:00Z,40.88,-98.0,21.4,15.3,220,4,,10.0,29.929134,,,TRUE,TRUE,,,,,,,CLR,,,,,,,,VFR,,,,,,,,,,,,METAR,549.0
KATW 070435Z AUTO 01005KT 10SM CLR 13/06 A2997 RMK AO2,KATW,2023-06-07T04:35:00Z,44.27,-88.52,13.0,6.0,10,5,,10.0,29.970472,,,TRUE,TRUE,,,,,,,CLR,,,,,,,,VFR,,,,,,,,,,,,SPECI,266.0
KATS 070435Z AUTO 23018KT 10SM FEW120 23/11 A3007 RMK AO2 LTG DSNT SE AND NW,KATS,2023-06-07T04:35:00Z,32.85,-104.47,23.0,11.0,230,18,,10.0,30.070866,,,TRUE,TRUE,,,,,,,FEW,12000,,,,,,,VFR,,,,,,,,,,,,SPECI,1073.0
KATA 070435Z AUTO 00000KT 9SM CLR 21/21 A2988 RMK AO2 SLP016 T02120207 $,KATA,2023-06-07T04:35:00Z,33.1,-94.2,21.2,20.7,0,0,,9.0,29.878937,1001.6,,TRUE,TRUE,TRUE,,,,,,CLR,,,,,,,,VFR,,,,,,,,,,,,METAR,85.0
KASW 070435Z AUTO 00000KT 10SM CLR 15/12 A2989 RMK AO2 T01550121,KASW,2023-06-07T04:35:00Z,41.27,-85.83,15.5,12.1,0,0,,10.0,29.890747,,,TRUE,TRUE,,,,,,,CLR,,,,,,,,VFR,,,,,,,,,,,,METAR,253.0
KASN 070435Z AUTO 00000KT 10SM CLR 21/19 A2988 RMK AO2 T02050193,KASN,2023-06-07T04:35:00Z,33.57,-86.05,20.5,19.3,0,0,,10.0,29.878937,,,TRUE,TRUE,,,,,,,CLR,,,,,,,,VFR,,,,,,,,,,,,METAR,159.0
KASL 070435Z AUTO 00000KT 9SM CLR 21/21 A2987 RMK AO2 T02110211 $,KASL,2023-06-07T04:35:00Z,32.52,-94.3,21.1,21.1,0,0,,9.0,29.870079,,,TRUE,TRUE,TRUE,,,,,,CLR,,,,,,,,VFR,,,,,,,,,,,,SPECI,104.0
KARW 070435Z AUTO 21007G14KT 10SM CLR 23/20 A2983 RMK AO2 LTG DSNT NE,KARW,2023-06-07T04:35:00Z,32.42,-80.63,23.0,20.0,210,7,14,10.0,29.828741,,,TRUE,TRUE,,,,,,,CLR,,,,,,,,VFR,,,,,,,,,,,,METAR,2.0
KARV 070435Z AUTO 00000KT 10SM BKN110 14/08 A3003 RMK AO2 T01360084,KARV,2023-06-07T04:35:00Z,45.92,-89.72,13.6,8.4,0,0,,10.0,30.029528,,,TRUE,TRUE,,,,,,,BKN,11000,,,,,,,VFR,,,,,,,,,,,,SPECI,494.0
KARM 070435Z AUTO 00000KT 10SM CLR 22/22 A2990 RMK AO2 T02220222 TSNO,KARM,2023-06-07T04:35:00Z,29.25,-96.15,22.2,22.2,0,0,,10.0,29.899607,,,TRUE,TRUE,,,TRUE,,,,CLR,,,,,,,,VFR,,,,,,,,,,,,METAR,29.0
KAQX 070435Z AUTO 00000KT 10SM CLR 20/19 A2981 RMK AO2 LTG DSNT NE,KAQX,2023-06-07T04:35:00Z,32.98,-81.27,20.0,19.0,0,0,,10.0,29.811024,,,TRUE,TRUE,,,,,,,CLR,,,,,,,,VFR,,,,,,,,,,,,SPECI,48.0
KAQO 070435Z AUTO 00000KT 10SM CLR 21/19 A2992 RMK AO2,KAQO,2023-06-07T04:35:00Z,30.78,-98.67,21.0,19.0,0,0,,10.0,29.920275,,,TRUE,TRUE,,,,,,,CLR,,,,,,,,VFR,,,,,,,,,,,,METAR,334.0
KAPY 070435Z AUTO 12005KT 10SM CLR 27/21 A2988 RMK AO2 T02680208 TSNO,KAPY,2023-06-07T04:35:00Z,26.97,-99.25,26.8,20.8,120,5,,10.0,29.878937,,,TRUE,TRUE,,,TRUE,,,,CLR,,,,,,,,VFR,,,,,,,,,,,,SPECI,129.0
KANW 070435Z AUTO 19006KT 10SM CLR 19/14 A2996 RMK AO2 T01850140,KANW,2023-06-07T04:35:00Z,42.57,-100.0,18.5,14.0,190,6,,10.0,29.958662,,,TRUE,TRUE,,,,,,,CLR,,,,,,,,VFR,,,,,,,,,,,,METAR,788.0
KANQ 070435Z AUTO 00000KT 10SM FEW017 SCT021 BKN048 15/05 A2990 RMK AO2,KANQ,2023-06-07T04:35:00Z,41.63,-85.08,15.0,5.0,0,0,,10.0,29.899607,,,TRUE,TRUE,,,,,,,FEW,1700,SCT,2100,BKN,4800,,,VFR,,,,,,,,,,,,SPECI,299.0
KANE 070435Z AUTO 06008KT 10SM SCT085 22/14 A2993 RMK AO2,KANE,2023-06-07T04:35:00Z,45.15,-93.22,22.0,14.0,60,8,,10.0,29.929134,,,TRUE,TRUE,,,,,,,SCT,8500,,,,,,,VFR,,,,,,,,,,,,SPECI,276.0
KAMN 070435Z AUTO 00000KT 10SM CLR 10/06 A2993 RMK AO2 T00950062,KAMN,2023-06-07T04:35:00Z,43.32,-84.68,9.5,6.2,0,0,,10.0,29.929134,,,TRUE,TRUE,,,,,,,CLR,,,,,,,,VFR,,,,,,,,,,,,SPECI,228.0
KALX 070435Z AUTO 00000KT 10SM CLR 21/21 A2990 RMK AO2 T02060205,KALX,2023-06-07T04:35:00Z,32.92,-85.97,20.6,20.5,0,0,,10.0,29.899607,,,TRUE,TRUE,,,,,,,CLR,,,,,,,,VFR,,,,,,,,,,,,METAR,198.0
KALN 070435Z AUTO 00000KT 10SM CLR 20/14 A2988 RMK AO2 T02030140,KALN,2023-06-07T04:35:00Z,38.88,-90.03,20.3,14.0,0,0,,10.0,29.878937,,,TRUE,TRUE,,,,,,,CLR,,,,,,,,VFR,,,,,,,,,,,,METAR,159.0
KALM 070435Z AUTO 09012G21KT 10SM FEW031 SCT043 BKN060 21/07 A3001 RMK AO2,KALM,2023-06-07T04:35:00Z,32.83,-105.98,21.0,7.0,90,12,21,10.0,30.008858,,,TRUE,TRUE,,,,,,,FEW,3100,SCT,4300,BKN,6000,,,VFR,,,,,,,,,,,,METAR,1267.0
KAJZ 070435Z AUTO 08010G14KT 10SM SCT060 BKN075 17/08 A3011 RMK AO2 T01720079 PWINO,KAJZ,2023-06-07T04:35:00Z,38.78,-108.07,17.2,7.9,80,10,14,10.0,30.109253,,,TRUE,TRUE,,,,,TRUE,,SCT,6000,BKN,7500,,,,,VFR,,,,,,,,,,,,METAR,1583.0
KAJR 070435Z AUTO 00000KT 10SM CLR 21/16 A2987 RMK AO2 T02050161,KAJR,2023-06-07T04:35:00Z,34.5,-83.55,20.5,16.1,0,0,,10.0,29.870079,,,TRUE,TRUE,,,,,,,CLR,,,,,,,,VFR,,,,,,,,,,,,SPECI,441.0
KAJG 070435Z AUTO 00000KT 10SM SCT120 24/13 A2986 RMK AO2 T02440134,KAJG,2023-06-07T04:35:00Z,38.62,-87.73,24.4,13.4,0,0,,10.0,29.861221,,,TRUE,TRUE,,,,,,,SCT,12000,,,,,,,VFR,,,,,,,,,,,,METAR,130.0
KAIO 070435Z AUTO 00000KT 10SM FEW110 21/18 A2988 RMK AO2,KAIO,2023-06-07T04:35:00Z,41.4,-95.03,21.0,18.0,0,0,,10.0,29.878937,,,TRUE,TRUE,,,,,,,FEW,11000,,,,,,,VFR,,,,,,,,,,,,SPECI,349.0
KAIK 070435Z AUTO 00000KT 10SM CLR 21/17 A2982 RMK AO2 LTG DSNT NE T02070165,KAIK,2023-06-07T04:35:00Z,33.65,-81.68,20.7,16.5,0,0,,10.0,29.819881,,,TRUE,TRUE,,,,,,,CLR,,,,,,,,VFR,,,,,,,,,,,,SPECI,155.0
KAIG 070435Z AUTO 00000KT 10SM CLR 11/05 A3002 RMK AO2 T01110051,KAIG,2023-06-07T04:35:00Z,45.15,-89.12,11.1,5.1,0,0,,10.0,30.02067,,,TRUE,TRUE,,,,,,,CLR,,,,,,,,VFR,,,,,,,,,,,,METAR,462.0
KAID 070435Z AUTO 21003KT 10SM -RA SCT075 OVC110 18/12 A2988 RMK AO2 T01760124,KAID,2023-06-07T04:35:00Z,40.12,-85.62,17.6,12.4,210,3,,10.0,29.878937,,,TRUE,TRUE,,,,,,-RA,SCT,7500,OVC,11000,,,,,VFR,,,,,,,,,,,,METAR,277.0
KAHQ 070435Z AUTO 21004KT 10SM 23/14 A2991 RMK AO2 T02270137,KAHQ,2023-06-07T04:35:00Z,41.23,-96.6,22.7,13.7,210,4,,10.0,29.911417,,,TRUE,TRUE,,,,,,,,,,,,,,,,,,,,,,,,,,,METAR,372.0
KAGO 070435Z AUTO 00000KT 10SM FEW050 SCT120 21/20 A2987 RMK A01,KAGO,2023-06-07T04:35:00Z,33.23,-93.22,21.0,20.0,0,0,,10.0,29.870079,,,TRUE,TRUE,,,,,,,FEW,5000,SCT,12000,,,,,VFR,,,,,,,,,,,,SPECI,91.0
KAGI 070435Z AUTO 11005KT 10SM CLR 25/19 A2987 RMK AO2 T02550192,KAGI,2023-06-07T04:35:00Z,27.55,-92.45,25.5,19.2,110,5,,10.0,29.870079,,,TRUE,TRUE,,,,,,,CLR,,,,,,,,VFR,,,,,,,,,,,,METAR,41.0
KAFK 070435Z AUTO 22006KT 10SM CLR 23/16 A2991 RMK AO2 T02250155,KAFK,2023-06-07T04:35:00Z,40.6,-95.85,22.5,15.5,220,6,,10.0,29.911417,,,TRUE,TRUE,,,,,,,CLR,,,,,,,,VFR,,,,,,,,,,,,METAR,353.0
KAEJ 070435Z AUTO 00000KT 10SM CLR 08/04 A3024 RMK AO2 T00770037,KAEJ,2023-06-07T04:35:00Z,38.82,-106.12,7.7,3.7,0,0,,10.0,30.239174,,,TRUE,TRUE,,,,,,,CLR,,,,,,,,VFR,,,,,,,,,,,,METAR,2420.0
KAEG 070435Z AUTO 03021G27KT 10SM -RA SCT043 BKN075 OVC085 14/10 A3013 RMK AO2 LTG DSNT SE T01410097,KAEG,2023-06-07T04:35:00Z,35.13,-106.8,14.1,9.7,30,21,27,10.0,30.129921,,,TRUE,TRUE,,,,,,-RA,SCT,4300,BKN,7500,OVC,8500,,,VFR,,,,,,,,,,,,METAR,1771.0
KADU 070435Z AUTO 00000KT 10SM SCT027 SCT045 SCT090 20/17 A2990 RMK AO2 PWINO,KADU,2023-06-07T04:35:00Z,41.7,-94.92,20.0,17.0,0,0,,10.0,29.899607,,,TRUE,TRUE,,,,,TRUE,,SCT,2700,SCT,4500,SCT,9000,,,VFR,,,,,,,,,,,,SPECI,391.0
KADT 070435Z AUTO 17007KT 10SM CLR 21/13 A3003 RMK AO2 T02050128,KADT,2023-06-07T04:35:00Z,39.83,-101.05,20.5,12.8,170,7,,10.0,30.029528,,,TRUE,TRUE,,,,,,,CLR,,,,,,,,VFR,,,,,,,,,,,,METAR,899.0
KADS 070435Z AUTO 00000KT 10SM CLR 23/16 A2991 RMK AO2 T02270162,KADS,2023-06-07T04:35:00Z,32.97,-96.83,22.7,16.2,0,0,,10.0,29.911417,,,TRUE,TRUE,,,,,,,CLR,,,,,,,,VFR,,,,,,,,,,,,METAR,198.0
KADM 070435Z AUTO 00000KT 10SM FEW048 FEW120 20/19 A2991 RMK AO2,KADM,2023-06-07T04:35:00Z,34.3,-97.02,20.0,19.0,0,0,,10.0,29.911417,,,TRUE,TRUE,,,,,,,FEW,4800,FEW,12000,,,,,VFR,,,,,,,,,,,,SPECI,223.0
KADH 070435Z AUTO 00000KT 10SM CLR 21/18 A2994 RMK AO2,KADH,2023-06-07T04:35:00Z,34.8,-96.67,21.0,18.0,0,0,,10.0,29.940945,,,TRUE,TRUE,,,,,,,CLR,,,,,,,,VFR,,,,,,,,,,,,METAR,301.0
KADC 070435Z AUTO 12007KT 10SM SCT110 21/13 A2993 RMK AO2 PWINO TSNO,KADC,2023-06-07T04:35:00Z,46.45,-95.22,21.0,13.0,120,7,,10.0,29.929134,,,TRUE,TRUE,,,TRUE,,TRUE,,SCT,11000,,,,,,,VFR,,,,,,,,,,,,METAR,416.0
KACQ 070435Z AUTO 09006KT 10SM CLR 20/16 A2992 RMK AO2,KACQ,2023-06-07T04:35:00Z,44.07,-93.55,20.0,16.0,90,6,,10.0,29.920275,,,TRUE,TRUE,,,,,,,CLR,,,,,,,,VFR,,,,,,,,,,,,SPECI,339.0
KACP 070435Z AUTO 00000KT 5SM BR CLR 21/19 A2987 RMK AO2,KACP,2023-06-07T04:35:00Z,30.75,-92.68,21.0,19.0,0,0,,5.0,29.870079,,,TRUE,TRUE,,,,,,BR,CLR,,,,,,,,MVFR,,,,,,,,,,,,METAR,31.0
KACJ 070435Z AUTO 21004KT 10SM CLR 22/19 A2990 RMK AO2 T02230189,KACJ,2023-06-07T04:35:00Z,32.12,-84.18,22.3,18.9,210,4,,10.0,29.899607,,,TRUE,TRUE,,,,,,,CLR,,,,,,,,VFR,,,,,,,,,,,,SPECI,140.0
KACB 070435Z AUTO 00000KT 10SM CLR 08/06 A2996 RMK AO2 T00810064,KACB,2023-06-07T04:35:00Z,44.98,-85.2,8.1,6.4,0,0,,10.0,29.958662,,,TRUE,TRUE,,,,,,,CLR,,,,,,,,VFR,,,,,,,,,,,,SPECI,189.0
KAAA 070435Z AUTO 03004KT 10SM OVC080 23/15 A2990 RMK AO2 T02270154,KAAA,2023-06-07T04:35:00Z,40.17,-89.33,22.7,15.4,30,4,,10.0,29.899607,,,TRUE,TRUE,,,,,,,OVC,8000,,,,,,,VFR,,,,,,,,,,,,METAR,179.0
KA39 070435Z AUTO 24007KT 10SM CLR 26/00 A2981 RMK AO2,KA39,2023-06-07T04:35:00Z,32.98,-111.92,26.0,0.0,240,7,,10.0,29.811024,,,TRUE,TRUE,,,,,,,CLR,,,,,,,,VFR,,,,,,,,,,,,METAR,391.0
K9V9 070435Z AUTO 00000KT 10SM CLR 22/14 A2989 RMK AO2 T02160138,K9V9,2023-06-07T04:35:00Z,43.77,-99.32,21.6,13.8,0,0,,10.0,29.890747,,,TRUE,TRUE,,,,,,,CLR,,,,,,,,VFR,,,,,,,,,,,,SPECI,511.0
K9S9 070435Z AUTO 00000KT 10SM CLR 22/01 A2981 RMK AO2 PWINO,K9S9,2023-06-07T04:35:00Z,45.45,-119.68,22.0,1.0,0,0,,10.0,29.811024,,,TRUE,TRUE,,,,,TRUE,,CLR,,,,,,,,VFR,,,,,,,,,,,,METAR,498.0
K9MN 070435Z AUTO 09003KT 10SM CLR 23/16 A2993 RMK AO1 T02250155,K9MN,2023-06-07T04:35:00Z,44.02,-92.48,22.5,15.5,90,3,,10.0,29.929134,,,TRUE,TRUE,,,,,,,CLR,,,,,,,,VFR,,,,,,,,,,,,METAR,308.0
K9A5 070435Z AUTO 00000KT 7SM CLR 18/17 A2989 RMK AO2 T01780173,K9A5,2023-06-07T04:35:00Z,34.68,-85.28,17.8,17.3,0,0,,7.0,29.890747,,,TRUE,TRUE,,,,,,,CLR,,,,,,,,VFR,,,,,,,,,,,,METAR,234.0
K96D 070435Z AUTO 00000KT 10SM CLR 22/22 A2984 RMK AO2,K96D,2023-06-07T04:35:00Z,48.93,-97.9,22.0,22.0,0,0,,10.0,29.840551,,,TRUE,TRUE,,,,,,,CLR,,,,,,,,VFR,,,,,,,,,,,,SPECI,290.0
K8W2 070435Z AUTO 00000KT 10SM CLR 18/11 A2978 RMK AO1 T01750105,K8W2,2023-06-07T04:35:00Z,38.65,-78.7,17.5,10.5,0,0,,10.0,29.778543,,,TRUE,TRUE,,,,,,,CLR,,,,,,,,VFR,,,,,,,,,,,,SPECI,295.0
K8T6 070435Z AUTO 16004KT 10SM CLR 24/23 A2987 RMK AO2,K8T6,2023-06-07T04:35:00Z,28.37,-98.12,24.0,23.0,160,4,,10.0,29.870079,,,TRUE,TRUE,,,,,,,CLR,,,,,,,,VFR,,,,,,,,,,,,METAR,39.0
K8A0 070435Z AUTO 28003KT 10SM CLR 22/18 A2989 RMK AO2,K8A0,2023-06-07T04:35:00Z,34.23,-86.25,22.0,18.0,280,3,,10.0,29.890747,,,TRUE,TRUE,,,,,,,CLR,,,,,,,,VFR,,,,,,,,,,,,SPECI,313.0
K82V 070435Z AUTO 14007KT 10SM 14/10 A3004 RMK AO2,K82V,2023-06-07T04:35:00Z,41.15,-104.13,14.0,10.0,140,7,,10.0,30.041338,,,TRUE,TRUE,,,,,,,,,,,,,,,,,,,,,,,,,,,SPECI,1563.0
K82C 070435Z AUTO 00000KT 10SM BKN075 18/05 A2996 RMK AO2 T01810046,K82C,2023-06-07T04:35:00Z,43.83,-90.13,18.1,4.6,0,0,,10.0,29.958662,,,TRUE,TRUE,,,,,,,BKN,7500,,,,,,,VFR,,,,,,,,,,,,METAR,273.0
K81R 070435Z AUTO 00000KT 10SM OVC120 21/20 A2994 RMK AO2 T02060198,K81R,2023-06-07T04:35:00Z,31.23,-98.72,20.6,19.8,0,0,,10.0,29.940945,,,TRUE,TRUE,,,,,,,OVC,12000,,,,,,,VFR,,,,,,,,,,,,METAR,381.0
K7W4 070435Z AUTO 10SM CLR 18/12 A2974 RMK AO1 T01790122,K7W4,2023-06-07T04:35:00Z,37.97,-77.75,17.9,12.2,,,,10.0,29.740158,,,TRUE,TRUE,,,,,,,CLR,,,,,,,,VFR,,,,,,,,,,,,SPECI,115.0
K7L2 070435Z AUTO 14006KT 10SM CLR 23/16 A2990 RMK AO2,K7L2,2023-06-07T04:35:00Z,46.22,-100.25,23.0,16.0,140,6,,10.0,29.899607,,,TRUE,TRUE,,,,,,,CLR,,,,,,,,VFR,,,,,,,,,,,,METAR,541.0
K7BM 070435Z AUTO 26007KT 10SM CLR 08/02 A3033 RMK AO2 LTG DSNT S,K7BM,2023-06-07T04:35:00Z,38.78,-106.22,8.0,2.0,260,7,,10.0,30.33071,,,TRUE,TRUE,,,,,,,CLR,,,,,,,,VFR,,,,,,,,,,,,METAR,2996.0
K77S 070435Z AUTO 00000KT 10SM CLR 22/13 A2973 RMK A01,K77S,2023-06-07T04:35:00Z,43.93,-123.0,22.0,13.0,0,0,,10.0,29.731298,,,TRUE,TRUE,,,,,,,CLR,,,,,,,,VFR,,,,,,,,,,,,METAR,161.0
K6S2 070435Z AUTO 20007KT 8SM OVC009 12/12 A2987 RMK AO2 LTG DSNT S,K6S2,2023-06-07T04:35:00Z,43.98,-124.12,12.0,12.0,200,7,,8.0,29.870079,,,TRUE,TRUE,,,,,,,OVC,900,,,,,,,IFR,,,,,,,,,,,,METAR,16.0
K6S0 070435Z AUTO 19003KT 10SM BKN110 15/14 A3004 RMK A01,K6S0,2023-06-07T04:35:00Z,45.8,-109.97,15.0,14.0,190,3,,10.0,30.041338,,,TRUE,TRUE,,,,,,,BKN,11000,,,,,,,VFR,,,,,,,,,,,,METAR,1364.0
K6R3 070435Z AUTO 00000KT 5SM BR CLR 21/20 A2989 RMK AO2 T02080201,K6R3,2023-06-07T04:35:00Z,30.35,-95.0,20.8,20.1,0,0,,5.0,29.890747,,,TRUE,TRUE,,,,,,BR,CLR,,,,,,,,MVFR,,,,,,,,,,,,SPECI,44.0
K6P9 070435Z AUTO 18003KT 10SM CLR 20/16 A2995 RMK AO2 T01950162,K6P9,2023-06-07T04:35:00Z,32.43,-98.6,19.5,16.2,180,3,,10.0,29.949802,,,TRUE,TRUE,,,,,,,CLR,,,,,,,,VFR,,,,,,,,,,,,METAR,451.0
K6L4 070435Z AUTO 23003KT 10SM FEW065 SCT075 OVC100 20/12 A2983 RMK AO2,K6L4,2023-06-07T04:35:00Z,37.85,-81.92,20.0,12.0,230,3,,10.0,29.828741,,,TRUE,TRUE,,,,,,,FEW,6500,SCT,7500,OVC,10000,,,VFR,,,,,,,,,,,,METAR,504.0
K6B9 070435Z AUTO 00000KT 8SM FEW032 SCT070 BKN085 10/08 A2972 RMK AO2,K6B9,2023-06-07T04:35:00Z,42.92,-76.43,10.0,8.0,0,0,,8.0,29.719488,,,TRUE,TRUE,,,,,,,FEW,3200,SCT,7000,BKN,8500,,,VFR,,,,,,,,,,,,SPECI,306.0
K6B0 070435Z AUTO 31003KT 4SM DZ BKN012 OVC019 11/11 A2962 RMK AO2 T01070107,K6B0,2023-06-07T04:35:00Z,43.98,-73.1,10.7,10.7,310,3,,4.0,29.619095,,,TRUE,TRUE,,,,,,DZ,BKN,1200,OVC,1900,,,,,MVFR,,,,,,,,,,,,METAR,149.0
K6A2 070435Z AUTO 28004KT 10SM CLR 23/13 A2989 RMK AO2,K6A2,2023-06-07T04:35:00Z,33.23,-84.27,23.0,13.0,280,4,,10.0,29.890747,,,TRUE,TRUE,,,,,,,CLR,,,,,,,,VFR,,,,,,,,,,,,METAR,290.0
K6A1 070435Z AUTO 28007KT 10SM CLR 23/17 A2990 RMK AO2 T02300171,K6A1,2023-06-07T04:35:00Z,32.57,-84.25,23.0,17.1,280,7,,10.0,29.899607,,,TRUE,TRUE,,,,,,,CLR,,,,,,,,VFR,,,,,,,,,,,,SPECI,198.0
K66R 070435Z AUTO 00000KT 10SM SCT027 SCT045 22/20 A2990 RMK AO2 T02200204,K66R,2023-06-07T04:35:00Z,29.65,-96.52,22.0,20.4,0,0,,10.0,29.899607,,,TRUE,TRUE,,,,,,,SCT,2700,SCT,4500,,,,,VFR,,,,,,,,,,,,SPECI,70.0
K65S 070435Z AUTO 00000KT 10SM CLR 21/06 A2981 RMK AO2,K65S,2023-06-07T04:35:00Z,48.73,-116.3,21.0,6.0,0,0,,10.0,29.811024,,,TRUE,TRUE,,,,,,,CLR,,,,,,,,VFR,,,,,,,,,,,,METAR,708.0
K63S 070435Z AUTO 05006KT 10SM FEW065 FEW075 FEW095 18/04 A2982 RMK A01,K63S,2023-06-07T04:35:00Z,48.53,-117.88,18.0,4.0,50,6,,10.0,29.819881,,,TRUE,TRUE,,,,,,,FEW,6500,FEW,7500,FEW,9500,,,VFR,,,,,,,,,,,,METAR,571.0
K5T9 070435Z AUTO 11005KT 10SM CLR 26/21 A2986 RMK A01,K5T9,2023-06-07T04:35:00Z,28.85,-100.52,26.0,21.0,110,5,,10.0,29.861221,,,TRUE,TRUE,,,,,,,CLR,,,,,,,,VFR,,,,,,,,,,,,METAR,269.0
K5SM 070435Z AUTO 23014G17KT 10SM -DZ SCT041 BKN049 OVC055 06/00 A3039 RMK AO2 LTG DSNT N SE AND NW,K5SM,2023-06-07T04:35:00Z,39.43,-107.38,6.0,0.0,230,14,17,10.0,30.389763,,,TRUE,TRUE,,,,,,-DZ,SCT,4100,BKN,4900,OVC,5500,,,VFR,,,,,,,,,,,,SPECI,3229.0
K5H4 070435Z AUTO 00000KT 10SM CLR 23/15 A2987 RMK AO2,K5H4,2023-06-07T04:35:00Z,47.78,-99.93,23.0,15.0,0,0,,10.0,29.870079,,,TRUE,TRUE,,,,,,,CLR,,,,,,,,VFR,,,,,,,,,,,,SPECI,490.0
K5C1 070435Z AUTO 00000KT 10SM CLR 19/19 A2993 RMK AO1,K5C1,2023-06-07T04:35:00Z,29.72,-98.7,19.0,19.0,0,0,,10.0,29.929134,,,TRUE,TRUE,,,,,,,CLR,,,,,,,,VFR,,,,,,,,,,,,METAR,422.0
K5A6 070435Z AUTO 00000KT 5SM BR 20/20 A2988 RMK AO2 T02010198,K5A6,2023-06-07T04:35:00Z,33.47,-89.73,20.1,19.8,0,0,,5.0,29.878937,,,TRUE,TRUE,,,,,,BR,,,,,,,,,,,,,,,,,,,,,METAR,109.0
K57C 070435Z AUTO 00000KT BKN095 14/05 A2995 RMK AO2 T01380047 PWINO,K57C,2023-06-07T04:35:00Z,42.8,-88.37,13.8,4.7,0,0,,,29.949802,,,TRUE,TRUE,,,,,TRUE,,BKN,9500,,,,,,,,,,,,,,,,,,,SPECI,454.0
K54J 070435Z AUTO 00000KT 10SM BKN011 22/21 A2991 RMK AO2 LTG DSNT S T02220211,K54J,2023-06-07T04:35:00Z,30.73,-86.15,22.2,21.1,0,0,,10.0,29.911417,,,TRUE,TRUE,,,,,,,BKN,1100,,,,,,,MVFR,,,,,,,,,,,,SPECI,87.0
K54A 070435Z AUTO 09004KT 10SM CLR 23/22 A2988 RMK AO2,K54A,2023-06-07T04:35:00Z,26.85,-82.25,23.0,22.0,90,4,,10.0,29.878937,,,TRUE,TRUE,,,,,,,CLR,,,,,,,,VFR,,,,,,,,,,,,METAR,2.0
K4V1 070435Z AUTO 25013KT 10SM CLR 15/08 A3009 RMK AO2 T01460075,K4V1,2023-06-07T04:35:00Z,37.7,-104.78,14.6,7.5,250,13,,10.0,30.088583,,,TRUE,TRUE,,,,,,,CLR,,,,,,,,VFR,,,,,,,,,,,,METAR,1847.0
K4V0 070435Z AUTO 23008KT 10SM SCT090 OVC120 16/09 A3008 RMK AO2 LTG DSNT W T01550086,K4V0,2023-06-07T04:35:00Z,40.1,-108.77,15.5,8.6,230,8,,10.0,30.079725,,,TRUE,TRUE,,,,,,,SCT,9000,OVC,12000,,,,,VFR,,,,,,,,,,,,METAR,1602.0
K4S2 070435Z AUTO 00000KT 10SM CLR 19/08 A2973 RMK AO2,K4S2,2023-06-07T04:35:00Z,45.68,-121.55,19.0,8.0,0,0,,10.0,29.731298,,,TRUE,TRUE,,,,,,,CLR,,,,,,,,VFR,,,,,,,,,,,,METAR,183.0
K4S1 070435Z AUTO 18004KT 11/11 A2991 RMK AO2 PWINO,K4S1,2023-06-07T04:35:00Z,42.42,-124.42,11.0,11.0,180,4,,,29.911417,,,TRUE,TRUE,,,,,TRUE,,,,,,,,,,,,,,,,,,,,,,METAR,7.0
K4R5 070435Z AUTO 00000KT 10SM OVC110 09/04 A3004 RMK AO2 T00860040,K4R5,2023-06-07T04:35:00Z,46.78,-90.77,8.6,4.0,0,0,,10.0,30.041338,,,TRUE,TRUE,,,,,,,OVC,11000,,,,,,,VFR,,,,,,,,,,,,METAR,195.0
K4O4 070435Z AUTO 03004KT 6SM BR FEW030 SCT037 SCT050 21/21 A2990 RMK AO2,K4O4,2023-06-07T04:35:00Z,33.92,-94.87,21.0,21.0,30,4,,6.0,29.899607,,,TRUE,TRUE,,,,,,BR,FEW,3000,SCT,3700,SCT,5000,,,VFR,,,,,,,,,,,,METAR,148.0
K4M9 070435Z AUTO 32003KT 9SM CLR 21/21 A2990 RMK AO2 PWINO,K4M9,2023-06-07T04:35:00Z,36.4,-90.65,21.0,21.0,320,3,,9.0,29.899607,,,TRUE,TRUE,,,,,TRUE,,CLR,,,,,,,,VFR,,,,,,,,,,,,SPECI,86.0
K4I3 070435Z AUTO 34007KT 10SM CLR 15/05 A2988 RMK AO2,K4I3,2023-06-07T04:35:00Z,40.33,-82.53,15.0,5.0,340,7,,10.0,29.878937,,,TRUE,TRUE,,,,,,,CLR,,,,,,,,VFR,,,,,,,,,,,,METAR,361.0
K4F2 070435Z AUTO 00000KT 7SM CLR 21/21 A2989 RMK AO2 T02100205,K4F2,2023-06-07T04:35:00Z,32.18,-94.3,21.0,20.5,0,0,,7.0,29.890747,,,TRUE,TRUE,,,,,,,CLR,,,,,,,,VFR,,,,,,,,,,,,METAR,76.0
K4BM 070435Z AUTO 21004KT 10SM SCT060 SCT075 SCT090 06/00 A3042 RMK AO2 LTG DSNT S,K4BM,2023-06-07T04:35:00Z,39.05,-105.52,6.0,0.0,210,4,,10.0,30.41929,,,TRUE,TRUE,,,,,,,SCT,6000,SCT,7500,SCT,9000,,,VFR,,,,,,,,,,,,SPECI,3432.0
K4A9 070435Z AUTO 00000KT 7SM CLR 19/18 A2988 RMK AO2 T01870177,K4A9,2023-06-07T04:35:00Z,34.47,-85.72,18.7,17.7,0,0,,7.0,29.878937,,,TRUE,TRUE,,,,,,,CLR,,,,,,,,VFR,,,,,,,,,,,,METAR,273.0
K4A6 070435Z AUTO 00000KT 10SM FEW030 SCT035 OVC055 20/20 A2988 RMK AO2,K4A6,2023-06-07T04:35:00Z,34.68,-86.0,20.0,20.0,0,0,,10.0,29.878937,,,TRUE,TRUE,,,,,,,FEW,3000,SCT,3500,OVC,5500,,,VFR,,,,,,,,,,,,SPECI,191.0
K49A 070435Z AUTO 34003KT 4SM BR CLR 17/17 A2989 RMK AO2,K49A,2023-06-07T04:35:00Z,34.63,-84.53,17.0,17.0,340,3,,4.0,29.890747,,,TRUE,TRUE,,,,,,BR,CLR,,,,,,,,MVFR,,,,,,,,,,,,SPECI,449.0
K48A 070435Z AUTO 24007KT 10SM CLR 24/18 A2987 RMK AO2 T02400183,K48A,2023-06-07T04:35:00Z,32.4,-83.27,24.0,18.3,240,7,,10.0,29.870079,,,TRUE,TRUE,,,,,,,CLR,,,,,,,,VFR,,,,,,,,,,,,METAR,115.0
K46U 070435Z AUTO 11009KT 10SM OVC034 14/07 A3007 RMK A01,K46U,2023-06-07T04:35:00Z,43.18,-111.05,14.0,7.0,110,9,,10.0,30.070866,,,TRUE,TRUE,,,,,,,OVC,3400,,,,,,,VFR,,,,,,,,,,,,METAR,1718.0
K46D 070435Z AUTO 17004KT 10SM CLR 23/21 A2988 RMK AO2,K46D,2023-06-07T04:35:00Z,47.45,-99.15,23.0,21.0,170,4,,10.0,29.878937,,,TRUE,TRUE,,,,,,,CLR,,,,,,,,VFR,,,,,,,,,,,,SPECI,488.0
K42J 070435Z AUTO 15004KT 10SM FEW036 BKN044 OVC110 21/21 A2990 RMK A01,K42J,2023-06-07T04:35:00Z,29.85,-82.05,21.0,21.0,150,4,,10.0,29.899607,,,TRUE,TRUE,,,,,,,FEW,3600,BKN,4400,OVC,11000,,,VFR,,,,,,,,,,,,SPECI,57.0
K41U 070435Z AUTO 33005KT 10SM CLR 17/04 A2996 RMK AO1 T01720043,K41U,2023-06-07T04:35:00Z,39.33,-111.6,17.2,4.3,330,5,,10.0,29.958662,,,TRUE,TRUE,,,,,,,CLR,,,,,,,,VFR,,,,,,,,,,,,METAR,1676.0
K40U 070435Z AUTO 23014G20KT 10SM BKN090 BKN120 16/04 A3009 RMK AO2 T01630044,K40U,2023-06-07T04:35:00Z,40.98,-109.68,16.3,4.4,230,14,20,10.0,30.088583,,,TRUE,TRUE,,,,,,,BKN,9000,BKN,12000,,,,,VFR,,,,,,,,,,,,METAR,1882.0
K3T5 070435Z AUTO 09004KT 10SM CLR 23/22 A2988 RMK AO2 T02330223 $,K3T5,2023-06-07T04:35:00Z,29.9,-96.95,23.3,22.3,90,4,,10.0,29.878937,,,TRUE,TRUE,TRUE,,,,,,CLR,,,,,,,,VFR,,,,,,,,,,,,METAR,96.0
K3S8 070435Z AUTO 17003KT 10SM CLR 24/11 A2982 RMK AO2,K3S8,2023-06-07T04:35:00Z,42.5,-123.4,24.0,11.0,170,3,,10.0,29.819881,,,TRUE,TRUE,,,,,,,CLR,,,,,,,,VFR,,,,,,,,,,,,METAR,339.0
K3R7 070435Z AUTO 00000KT 10SM SCT022 24/20 A2987 RMK AO2 T02350203,K3R7,2023-06-07T04:35:00Z,30.25,-92.67,23.5,20.3,0,0,,10.0,29.870079,,,TRUE,TRUE,,,,,,,SCT,2200,,,,,,,VFR,,,,,,,,,,,,METAR,5.0
K3N8 070435Z AUTO 13009KT 10SM BKN075 OVC100 21/18 A2990 RMK AO2 LTG DSNT W T02130175,K3N8,2023-06-07T04:35:00Z,47.25,-95.92,21.3,17.5,130,9,,10.0,29.899607,,,TRUE,TRUE,,,,,,,BKN,7500,OVC,10000,,,,,VFR,,,,,,,,,,,,METAR,379.0
K3LF 070435Z AUTO 00000KT 10SM OVC110 23/13 A2989 RMK AO2 T02340126,K3LF,2023-06-07T04:35:00Z,39.17,-89.67,23.4,12.6,0,0,,10.0,29.890747,,,TRUE,TRUE,,,,,,,OVC,11000,,,,,,,VFR,,,,,,,,,,,,METAR,207.0
K3K3 070435Z AUTO 13007KT 10SM 17/13 A3000 RMK AO2,K3K3,2023-06-07T04:35:00Z,38.0,-101.75,17.0,13.0,130,7,,10.0,30.0,,,TRUE,TRUE,,,,,,,,,,,,,,,,,,,,,,,,,,,SPECI,1010.0
K3F3 070435Z AUTO 08006KT 10SM CLR 23/21 A2992 RMK AO2 T02270212,K3F3,2023-06-07T04:35:00Z,32.07,-93.77,22.7,21.2,80,6,,10.0,29.920275,,,TRUE,TRUE,,,,,,,CLR,,,,,,,,VFR,,,,,,,,,,,,SPECI,96.0
K3D2 070435Z AUTO 35008KT 10SM CLR 10/07 A2999 RMK AO2 T01020071,K3D2,2023-06-07T04:35:00Z,45.13,-87.18,10.2,7.1,350,8,,10.0,29.991142,,,TRUE,TRUE,,,,,,,CLR,,,,,,,,VFR,,,,,,,,,,,,METAR,233.0
K3AU 070435Z AUTO 00000KT 10SM CLR 18/13 A2995 RMK AO2,K3AU,2023-06-07T04:35:00Z,37.67,-97.08,18.0,13.0,0,0,,10.0,29.949802,,,TRUE,TRUE,,,,,,,CLR,,,,,,,,VFR,,,,,,,,,,,,METAR,403.0
K35A 070435Z AUTO 00000KT 7SM CLR 18/17 A2986 RMK A02 LTG DSNT SE T01790172,K35A,2023-06-07T04:35:00Z,34.68,-81.63,17.9,17.2,0,0,,7.0,29.861221,,,TRUE,TRUE,,,,,,,CLR,,,,,,,,VFR,,,,,,,,,,,,SPECI,186.0
K33V 070435Z AUTO 30003KT 10SM CLR 08/05 A3020 RMK AO1,K33V,2023-06-07T04:35:00Z,40.75,-106.28,8.0,5.0,300,3,,10.0,30.200787,,,TRUE,TRUE,,,,,,,CLR,,,,,,,,VFR,,,,,,,,,,,,METAR,2486.0
K33N 070435Z AUTO 03007KT 4SM HZ SCT022 BKN026 OVC110 18/10 A2968 RMK A01,K33N,2023-06-07T04:35:00Z,39.22,-75.6,18.0,10.0,30,7,,4.0,29.681103,,,TRUE,TRUE,,,,,,HZ,SCT,2200,BKN,2600,OVC,11000,,,MVFR,,,,,,,,,,,,METAR,17.0
K2V5 070435Z AUTO 14005KT 10SM CLR 17/12 A3001 RMK AO2,K2V5,2023-06-07T04:35:00Z,40.1,-102.25,17.0,12.0,140,5,,10.0,30.008858,,,TRUE,TRUE,,,,,,,CLR,,,,,,,,VFR,,,,,,,,,,,,METAR,1117.0
K2R9 070435Z AUTO 17003KT 10SM CLR A2988 RMK AO2,K2R9,2023-06-07T04:35:00Z,28.82,-97.87,,,170,3,,10.0,29.878937,,,TRUE,TRUE,,,,,,,CLR,,,,,,,,VFR,,,,,,,,,,,,SPECI,88.0
K2P2 070435Z AUTO 01009G14KT 10SM BKN110 11/07 A2999 RMK AO2 T01110073,K2P2,2023-06-07T04:35:00Z,45.38,-86.92,11.1,7.3,10,9,14,10.0,29.991142,,,TRUE,TRUE,,,,,,,BKN,11000,,,,,,,VFR,,,,,,,,,,,,METAR,182.0
K2M2 070435Z AUTO 00000KT 10SM FEW040 BKN047 BKN055 19/17 A2989 RMK A01,K2M2,2023-06-07T04:35:00Z,35.23,-87.25,19.0,17.0,0,0,,10.0,29.890747,,,TRUE,TRUE,,,,,,,FEW,4000,BKN,4700,BKN,5500,,,VFR,,,,,,,,,,,,METAR,286.0
K2J9 070435Z AUTO 00000KT 10SM CLR 21/21 A2992 RMK AO2,K2J9,2023-06-07T04:35:00Z,30.6,-84.55,21.0,21.0,0,0,,10.0,29.920275,,,TRUE,TRUE,,,,,,,CLR,,,,,,,,VFR,,,,,,,,,,,,SPECI,62.0
K2J5 070435Z AUTO 00000KT 10SM CLR 20/17 A2983 RMK AO2 LTG DSNT E T01970168,K2J5,2023-06-07T04:35:00Z,32.9,-81.97,19.7,16.8,0,0,,10.0,29.828741,,,TRUE,TRUE,,,,,,,CLR,,,,,,,,VFR,,,,,,,,,,,,METAR,72.0
K2IS 070435Z AUTO 14005KT 23/22 A2992 RMK AO2 PWINO T02330221,K2IS,2023-06-07T04:35:00Z,26.73,-81.05,23.3,22.1,140,5,,,29.920275,,,TRUE,TRUE,,,,,TRUE,,,,,,,,,,,,,,,,,,,,,,SPECI,5.0
K2I0 070435Z AUTO 00000KT 10SM CLR 20/16 A2987 RMK AO2 T02020163,K2I0,2023-06-07T04:35:00Z,37.35,-87.4,20.2,16.3,0,0,,10.0,29.870079,,,TRUE,TRUE,,,,,,,CLR,,,,,,,,VFR,,,,,,,,,,,,SPECI,127.0
K2G9 070435Z AUTO 31007KT 10SM CLR 12/03 A2980 RMK AO2,K2G9,2023-06-07T04:35:00Z,40.03,-79.02,12.0,3.0,310,7,,10.0,29.799213,,,TRUE,TRUE,,,,,,,CLR,,,,,,,,VFR,,,,,,,,,,,,METAR,677.0
K2G2 070435Z AUTO 29004KT 10SM 12/05 A2981 RMK A01,K2G2,2023-06-07T04:35:00Z,40.37,-80.7,12.0,5.0,290,4,,10.0,29.811024,,,TRUE,TRUE,,,,,,,,,,,,,,,,,,,,,,,,,,,METAR,365.0
K2D5 070435Z AUTO 06004KT 9SM FEW029 SCT036 BKN055 22/17 A2986 RMK AO2,K2D5,2023-06-07T04:35:00Z,46.17,-98.08,22.0,17.0,60,4,,9.0,29.861221,,,TRUE,TRUE,,,,,,,FEW,2900,SCT,3600,BKN,5500,,,VFR,,,,,,,,,,,,METAR,407.0
K2C8 070435Z AUTO 00000KT 5SM BR FEW045 SCT060 BKN070 23/23 A2984 RMK AO2,K2C8,2023-06-07T04:35:00Z,48.78,-97.63,23.0,23.0,0,0,,5.0,29.840551,,,TRUE,TRUE,,,,,,BR,FEW,4500,SCT,6000,BKN,7000,,,MVFR,,,,,,,,,,,,METAR,271.0
K2A0 070435Z AUTO 00000KT 10SM CLR 17/15 A2987 RMK A01,K2A0,2023-06-07T04:35:00Z,35.48,-84.93,17.0,15.0,0,0,,10.0,29.870079,,,TRUE,TRUE,,,,,,,CLR,,,,,,,,VFR,,,,,,,,,,,,METAR,219.0
K28J 070435Z AUTO 00000KT 10SM SCT041 BKN049 OVC080 22/18 A2991 RMK AO2,K28J,2023-06-07T04:35:00Z,29.65,-81.68,22.0,18.0,0,0,,10.0,29.911417,,,TRUE,TRUE,,,,,,,SCT,4100,BKN,4900,OVC,8000,,,VFR,,,,,,,,,,,,SPECI,9.0
K24J 070435Z AUTO 00000KT 9SM SCT060 19/19 A2990 RMK A01,K24J,2023-06-07T04:35:00Z,30.3,-83.03,19.0,19.0,0,0,,9.0,29.899607,,,TRUE,TRUE,,,,,,,SCT,6000,,,,,,,VFR,,,,,,,,,,,,SPECI,30.0
K22N 070435Z AUTO 00000KT 5SM HZ OVC040 10/06 A2971 RMK AO2,K22N,2023-06-07T04:35:00Z,40.8,-75.77,10.0,6.0,0,0,,5.0,29.71063,,,TRUE,TRUE,,,,,,HZ,OVC,4000,,,,,,,MVFR,,,,,,,,,,,,SPECI,159.0
K21D 070435Z AUTO 05006KT 10SM CLR 20/15 A2994 RMK AO2,K21D,2023-06-07T04:35:00Z,45.0,-92.85,20.0,15.0,50,6,,10.0,29.940945,,,TRUE,TRUE,,,,,,,CLR,,,,,,,,VFR,,,,,,,,,,,,SPECI,281.0
K20V 070435Z AUTO 00000KT 10SM CLR 12/05 A3017 RMK AO2,K20V,2023-06-07T04:35:00Z,40.05,-106.37,12.0,5.0,0,0,,10.0,30.171259,,,TRUE,TRUE,,,,,,,CLR,,,,,,,,VFR,,,,,,,,,,,,SPECI,2259.0
K20U 070435Z AUTO 16006KT 10SM CLR 17/16 A2991 RMK AO2,K20U,2023-06-07T04:35:00Z,46.93,-103.98,17.0,16.0,160,6,,10.0,29.911417,,,TRUE,TRUE,,,,,,,CLR,,,,,,,,VFR,,,,,,,,,,,,SPECI,839.0
K1V6 070435Z AUTO 29012G22KT 10SM CLR 15/10 A3007 RMK AO2 LTG DSNT E,K1V6,2023-06-07T04:35:00Z,38.43,-105.1,15.0,10.0,290,12,22,10.0,30.070866,,,TRUE,TRUE,,,,,,,CLR,,,,,,,,VFR,,,,,,,,,,,,METAR,1658.0
K1U7 070435Z AUTO 12003KT 10SM CLR 13/11 A3005 RMK A01,K1U7,2023-06-07T04:35:00Z,42.25,-111.33,13.0,11.0,120,3,,10.0,30.050198,,,TRUE,TRUE,,,,,,,CLR,,,,,,,,VFR,,,,,,,,,,,,METAR,1808.0
K1S5 070435Z AUTO 03006KT 10SM CLR 21/06 A2975 RMK AO2 T02060057,K1S5,2023-06-07T04:35:00Z,46.33,-119.97,20.6,5.7,30,6,,10.0,29.749016,,,TRUE,TRUE,,,,,,,CLR,,,,,,,,VFR,,,,,,,,,,,,SPECI,228.0
K1R8 070435Z AUTO 00000KT 10SM OVC021 20/20 A2989 RMK AO2,K1R8,2023-06-07T04:35:00Z,30.87,-87.82,20.0,20.0,0,0,,10.0,29.890747,,,TRUE,TRUE,,,,,,,OVC,2100,,,,,,,MVFR,,,,,,,,,,,,SPECI,76.0
K1R7 070435Z AUTO 00000KT 10SM CLR 20/20 A2991 RMK AO2 PWINO,K1R7,2023-06-07T04:35:00Z,31.6,-90.42,20.0,20.0,0,0,,10.0,29.911417,,,TRUE,TRUE,,,,,TRUE,,CLR,,,,,,,,VFR,,,,,,,,,,,,SPECI,142.0
K1P1 070435Z AUTO 28008KT 10SM SCT041 OVC080 12/09 A2954 RMK AO2 T01200088,K1P1,2023-06-07T04:35:00Z,43.78,-71.75,12.0,8.8,280,8,,10.0,29.53937,,,TRUE,TRUE,,,,,,,SCT,4100,OVC,8000,,,,,VFR,,,,,,,,,,,,METAR,155.0
K1M5 070435Z AUTO 00000KT 10SM CLR 17/15 A2987 RMK A01,K1M5,2023-06-07T04:35:00Z,36.6,-86.48,17.0,15.0,0,0,,10.0,29.870079,,,TRUE,TRUE,,,,,,,CLR,,,,,,,,VFR,,,,,,,,,,,,METAR,239.0
K1H2 070435Z AUTO 00000KT 10SM OVC110 22/14 A2989 RMK AO2 T02220144,K1H2,2023-06-07T04:35:00Z,39.07,-88.53,22.2,14.4,0,0,,10.0,29.890747,,,TRUE,TRUE,,,,,,,OVC,11000,,,,,,,VFR,,,,,,,,,,,,SPECI,174.0
K1F0 070435Z AUTO 00000KT 10SM CLR 22/16 A2992 RMK AO2 T02180158,K1F0,2023-06-07T04:35:00Z,34.15,-97.12,21.8,15.8,0,0,,10.0,29.920275,,,TRUE,TRUE,,,,,,,CLR,,,,,,,,VFR,,,,,,,,,,,,METAR,256.0
K1D8 070435Z AUTO 00000KT 10SM CLR 23/17 A2985 RMK AO2,K1D8,2023-06-07T04:35:00Z,,,23.0,17.0,0,0,,10.0,29.84941,,,TRUE,TRUE,,,,,,,CLR,,,,,,,,VFR,,,,,,,,,,,,METAR,
K1A9 070435Z AUTO 00000KT 10SM CLR 20/18 A2989 RMK AO2 T02020175,K1A9,2023-06-07T04:35:00Z,32.43,-86.52,20.2,17.5,0,0,,10.0,29.890747,,,TRUE,TRUE,,,,,,,CLR,,,,,,,,VFR,,,,,,,,,,,,METAR,65.0
K1A6 070435Z AUTO 00000KT 10SM CLR 15/12 A2990 RMK AO2 T01460121,K1A6,2023-06-07T04:35:00Z,36.62,-83.73,14.6,12.1,0,0,,10.0,29.899607,,,TRUE,TRUE,,,,,,,CLR,,,,,,,,VFR,,,,,,,,,,,,SPECI,348.0
K19S 070435Z AUTO 14010KT 10SM CLR 19/17 A3001 RMK AO2 T01900166,K19S,2023-06-07T04:35:00Z,37.48,-100.83,19.0,16.6,140,10,,10.0,30.008858,,,TRUE,TRUE,,,,,,,CLR,,,,,,,,VFR,,,,,,,,,,,,SPECI,886.0
K18H 070435Z AUTO 00000KT 10SM CLR 27/20 A2986 RMK A01,K18H,2023-06-07T04:35:00Z,26.13,-92.03,27.0,20.0,0,0,,10.0,29.861221,,,TRUE,TRUE,,,,,,,CLR,,,,,,,,VFR,,,,,,,,,,,,METAR,30.0
K18A 070435Z AUTO 00000KT 2SM BR CLR 19/17 A2991 RMK AO2 VIS 1V5 T01910172,K18A,2023-06-07T04:35:00Z,34.35,-83.13,19.1,17.2,0,0,,2.0,29.911417,,,TRUE,TRUE,,,,,,BR,CLR,,,,,,,,IFR,,,,,,,,,,,,METAR,260.0
K17J 070435Z AUTO 00000KT 10SM CLR 21/19 A2991 RMK AO2 T02070187,K17J,2023-06-07T04:35:00Z,31.0,-84.87,20.7,18.7,0,0,,10.0,29.911417,,,TRUE,TRUE,,,,,,,CLR,,,,,,,,VFR,,,,,,,,,,,,SPECI,42.0
K15M 070435Z AUTO 00000KT 4SM BR CLR 20/20 A2990 RMK AO2 T01970197 $,K15M,2023-06-07T04:35:00Z,34.77,-88.17,19.7,19.7,0,0,,4.0,29.899607,,,TRUE,TRUE,TRUE,,,,,BR,CLR,,,,,,,,MVFR,,,,,,,,,,,,SPECI,192.0
K14Y 070435Z AUTO 12005KT 10SM SCT075 BKN120 20/15 A2995 RMK AO2 LTG DSNT W,K14Y,2023-06-07T04:35:00Z,45.9,-94.87,20.0,15.0,120,5,,10.0,29.949802,,,TRUE,TRUE,,,,,,,SCT,7500,BKN,12000,,,,,VFR,,,,,,,,,,,,SPECI,404.0
K13K 070435Z AUTO 28009KT 10SM CLR 19/17 A2996 RMK AO2 T01880167,K13K,2023-06-07T04:35:00Z,37.85,-96.3,18.8,16.7,280,9,,10.0,29.958662,,,TRUE,TRUE,,,,,,,CLR,,,,,,,,VFR,,,,,,,,,,,,METAR,367.0
K11R 070435Z AUTO 00000KT 10SM CLR 23/20 A2990 RMK AO2 T02290200,K11R,2023-06-07T04:35:00Z,30.22,-96.37,22.9,20.0,0,0,,10.0,29.899607,,,TRUE,TRUE,,,,,,,CLR,,,,,,,,VFR,,,,,,,,,,,,METAR,87.0
K10G 070435Z AUTO 33005KT 10SM CLR 13/03 A2986 RMK AO2,K10G,2023-06-07T04:35:00Z,40.53,-81.95,13.0,3.0,330,5,,10.0,29.861221,,,TRUE,TRUE,,,,,,,CLR,,,,,,,,VFR,,,,,,,,,,,,SPECI,371.0
K0VG 070435Z AUTO 00000KT 10SM CLR 13/12 A2990 RMK AO2,K0VG,2023-06-07T04:35:00Z,36.65,-83.22,13.0,12.0,0,0,,10.0,29.899607,,,TRUE,TRUE,,,,,,,CLR,,,,,,,,VFR,,,,,,,,,,,,SPECI,426.0
K0V4 070435Z AUTO 17005KT 10SM CLR 18/12 A2978 RMK AO1,K0V4,2023-06-07T04:35:00Z,37.15,-79.02,18.0,12.0,170,5,,10.0,29.778543,,,TRUE,TRUE,,,,,,,CLR,,,,,,,,VFR,,,,,,,,,,,,METAR,186.0
K0S9 070435Z AUTO 00000KT 10SM CLR 18/04 A2979 RMK AO2,K0S9,2023-06-07T04:35:00Z,48.05,-122.82,18.0,4.0,0,0,,10.0,29.790354,,,TRUE,TRUE,,,,,,,CLR,,,,,,,,VFR,,,,,,,,,,,,METAR,33.0
K0R0 070435Z AUTO 00000KT A2992 RMK AO2 PWINO TSNO,K0R0,2023-06-07T04:35:00Z,31.3,-89.82,,,0,0,,,29.920275,,,TRUE,TRUE,,,TRUE,,TRUE,,,,,,,,,,,,,,,,,,,,,,METAR,76.0
K0J4 070435Z AUTO 00000KT 10SM BKN015 22/19 A2992 RMK AO2 T02170189,K0J4,2023-06-07T04:35:00Z,31.05,-86.32,21.7,18.9,0,0,,10.0,29.920275,,,TRUE,TRUE,,,,,,,BKN,1500,,,,,,,MVFR,,,,,,,,,,,,SPECI,96.0
K0F2 070435Z AUTO 10SM CLR 20/17 A2992 RMK AO2 T01970170,K0F2,2023-06-07T04:35:00Z,33.6,-97.78,19.7,17.0,,,,10.0,29.920275,,,TRUE,TRUE,,,,,,,CLR,,,,,,,,VFR,,,,,,,,,,,,SPECI,330.0
K0D8 070435Z AUTO 00000KT 10SM CLR 23/13 A2990 RMK A01,K0D8,2023-06-07T04:35:00Z,44.98,-99.95,23.0,13.0,0,0,,10.0,29.899607,,,TRUE,TRUE,,,,,,,CLR,,,,,,,,VFR,,,,,,,,,,,,METAR,629.0
K0A9 070435Z AUTO 00000KT 10SM 13/11 A2989 RMK AO2,K0A9,2023-06-07T04:35:00Z,36.37,-82.17,13.0,11.0,0,0,,10.0,29.890747,,,TRUE,TRUE,,,,,,,,,,,,,,,,,,,,,,,,,,,METAR,479.0
K0A0 070435Z AUTO 10018G25KT 10SM CLR 19/10 A3003 RMK AO2,K0A0,2023-06-07T04:35:00Z,32.98,-106.97,19.0,10.0,100,18,25,10.0,30.029528,,,TRUE,TRUE,,,,,,,CLR,,,,,,,,VFR,,,,,,,,,,,,METAR,1401.0
K08D 070435Z AUTO 00000KT 10SM FEW050 21/17 A2988 RMK AO2,K08D,2023-06-07T04:35:00Z,48.3,-102.4,21.0,17.0,0,0,,10.0,29.878937,,,TRUE,TRUE,,,,,,,FEW,5000,,,,,,,VFR,,,,,,,,,,,,SPECI,683.0
K06D 070435Z AUTO 00000KT 10SM SCT120 21/19 A2988 RMK AO2,K06D,2023-06-07T04:35:00Z,48.88,-99.62,21.0,19.0,0,0,,10.0,29.878937,,,TRUE,TRUE,,,,,,,SCT,12000,,,,,,,VFR,,,,,,,,,,,,METAR,554.0
K06C 070435Z AUTO 01003KT 10SM SCT080 OVC110 16/04 A2992 RMK AO2 T01610040,K06C,2023-06-07T04:35:00Z,41.98,-88.1,16.1,4.0,10,3,,10.0,29.920275,,,TRUE,TRUE,,,,,,,SCT,8000,OVC,11000,,,,,VFR,,,,,,,,,,,,SPECI,243.0
K04V 070435Z AUTO 03004KT 10SM SCT070 BKN095 12/05 A3025 RMK AO2,K04V,2023-06-07T04:35:00Z,38.1,-106.17,12.0,5.0,30,4,,10.0,30.250984,,,TRUE,TRUE,,,,,,,SCT,7000,BKN,9500,,,,,VFR,,,,,,,,,,,,METAR,2389.0
YPJT 070434Z AUTO 00000KT 9999 // SCT017 BKN027 BKN031 13/10 Q1019,YPJT,2023-06-07T04:34:00Z,-32.1,115.88,13.0,10.0,0,0,,6.21,30.088583,,,TRUE,,,,,,,,SCT,1700,BKN,2700,BKN,3100,,,MVFR,,,,,,,,,,,,SPECI,29.0
RCKH 070434Z 22011KT 190V260 9999 FEW010 SCT016 BKN025 32/25 Q1010 NOSIG RMK 21011KT/R09 A2983,RCKH,2023-06-07T04:34:00Z,22.57,120.33,32.0,25.0,220,11,,6.21,29.822834,,,,,,TRUE,,,,,FEW,1000,SCT,1600,BKN,2500,,,MVFR,,,-1.1,,,,,,,,,METAR,6.0
KGPT 070434Z AUTO 00000KT 10SM SCT026 BKN033 BKN045 24/22 A2988 RMK AO2 T02390217,KGPT,2023-06-07T04:34:00Z,30.42,-89.08,23.9,21.7,0,0,,10.0,29.878937,,,TRUE,TRUE,,,,,,,SCT,2600,BKN,3300,BKN,4500,,,VFR,,,,,,,,,,,,METAR,5.0
LEMD 070433Z 14007KT 8000 RA OVC040 17/14 Q1014 NOSIG,LEMD,2023-06-07T04:33:00Z,40.45,-3.57,17.0,14.0,140,7,,4.97,29.940945,,,,,,TRUE,,,,RA,OVC,4000,,,,,,,MVFR,,,,,,,,,,,,SPECI,589.0
KXVG 070433Z AUTO 10004KT 10SM CLR 16/08 A2997 RMK AO2,KXVG,2023-06-07T04:33:00Z,46.98,-94.2,16.0,8.0,100,4,,10.0,29.970472,,,TRUE,TRUE,,,,,,,CLR,,,,,,,,VFR,,,,,,,,,,,,SPECI,407.0
KOWA 070433Z AUTO 00000KT 10SM SCT120 21/17 A2991 RMK AO2,KOWA,2023-06-07T04:33:00Z,44.12,-93.25,21.0,17.0,0,0,,10.0,29.911417,,,TRUE,TRUE,,,,,,,SCT,12000,,,,,,,VFR,,,,,,,,,,,,SPECI,345.0
KORB 070433Z AUTO 14003KT 10SM CLR 14/06 A3001 RMK AO2,KORB,2023-06-07T04:33:00Z,48.02,-92.87,14.0,6.0,140,3,,10.0,30.008858,,,TRUE,TRUE,,,,,,,CLR,,,,,,,,VFR,,,,,,,,,,,,SPECI,407.0
KFOZ 070433Z AUTO 13003KT 10SM CLR 17/11 A3004 RMK AO2,KFOZ,2023-06-07T04:33:00Z,47.77,-93.65,17.0,11.0,130,3,,10.0,30.041338,,,TRUE,TRUE,,,,,,,CLR,,,,,,,,VFR,,,,,,,,,,,,SPECI,412.0
KDVP 070433Z AUTO 00000KT 10SM SCT090 SCT120 23/16 A2992 RMK AO2 T02250158,KDVP,2023-06-07T04:33:00Z,43.98,-95.78,22.5,15.8,0,0,,10.0,29.920275,,,TRUE,TRUE,,,,,,,SCT,9000,SCT,12000,,,,,VFR,,,,,,,,,,,,SPECI,493.0
KAQP 070433Z AUTO 16008KT 10SM 25/15 A2987 RMK AO2 LTG D P0001,KAQP,2023-06-07T04:33:00Z,45.22,-96.0,25.0,15.0,160,8,,10.0,29.870079,,,TRUE,TRUE,,,,,,,,,,,,,,,,,,,,,0.01,,,,,,METAR,312.0
CYOW 070433Z 32011KT 2SM FU VV027 13/06 A2968 RMK FU8 SLP054 DENSITY ALT 600FT,CYOW,2023-06-07T04:33:00Z,45.32,-75.67,13.0,6.0,320,11,,2.0,29.681103,1005.4,,,,,,,,,FU,OVX,0,,,,,,,LIFR,,,,,,,,,,,2700,SPECI,111.0
PAPH 070431Z AUTO 14014KT 10SM OVC014 08/07 A2968 RMK AO2,PAPH,2023-06-07T04:31:00Z,56.95,-158.62,8.0,7.0,140,14,,10.0,29.681103,,,TRUE,TRUE,,,,,,,OVC,1400,,,,,,,MVFR,,,,,,,,,,,,METAR,29.0
KTAN 070431Z AUTO 1 3/4SM BR FEW100 11/10 A2953 RMK AO2 RAE08 P0001 T01110100 $,KTAN,2023-06-07T04:31:00Z,41.88,-71.02,11.1,10.0,,,,1.75,29.530512,,,TRUE,TRUE,TRUE,,,,,BR,FEW,10000,,,,,,,IFR,,,,,,0.01,,,,,,METAR,8.0
KSMX 070431Z AUTO 36003KT 8SM BKN009 OVC015 13/13 A2993 RMK AO2 CIG 006V013 T01330133,KSMX,2023-06-07T04:31:00Z,34.9,-120.45,13.3,13.3,360,3,,8.0,29.929134,,,TRUE,TRUE,,,,,,,BKN,900,OVC,1500,,,,,IFR,,,,,,,,,,,,METAR,73.0
KHIF 070431Z 11016G21KT 10SM -DZ FEW060 OVC100 19/08 A2994 RMK AO2A DZB31 SLP083,KHIF,2023-06-07T04:31:00Z,41.12,-111.97,19.0,8.0,110,16,21,10.0,29.940945,1008.3,,,TRUE,,,,,,-DZ,FEW,6000,OVC,10000,,,,,VFR,,,,,,,,,,,,SPECI,1461.0
KELM 070431Z AUTO 00000KT 2 1/2SM HZ OVC040 11/07 A2974 RMK AO2 T01060067,KELM,2023-06-07T04:31:00Z,42.15,-76.9,10.6,6.7,0,0,,2.5,29.740158,,,TRUE,TRUE,,,,,,HZ,OVC,4000,,,,,,,IFR,,,,,,,,,,,,METAR,287.0
KDWH 070431Z AUTO 00000KT 1 1/2SM BR CLR 21/21 A2988 RMK AO2 T02110206,KDWH,2023-06-07T04:31:00Z,30.07,-95.55,21.1,20.6,0,0,,1.5,29.878937,,,TRUE,TRUE,,,,,,BR,CLR,,,,,,,,IFR,,,,,,,,,,,,METAR,46.0
CYSJ 070431Z 33007KT 3SM -DZ BR OVC004 08/08 A2931 RMK SF8 SLP928,CYSJ,2023-06-07T04:31:00Z,45.32,-65.88,8.0,8.0,330,7,,3.0,29.309055,992.8,,,,,,,,,-DZ BR,OVC,400,,,,,,,LIFR,,,,,,,,,,,,SPECI,89.0
CYFC 070431Z AUTO VRB02KT 5SM -RA BR SCT015 OVC020 08/07 A2932 RMK SLP932,CYFC,2023-06-07T04:31:00Z,45.87,-66.53,8.0,7.0,0,2,,5.0,29.320866,993.2,,TRUE,,,,,,,-RA BR,SCT,1500,OVC,2000,,,,,MVFR,,,,,,,,,,,,SPECI,16.0
ZYTX 070430Z 16005MPS 120V190 9999 FEW040 24/15 Q0999 NOSIG,ZYTX,2023-06-07T04:30:00Z,41.63,123.48,24.0,15.0,160,10,,6.21,29.498032,,,,,,TRUE,,,,,FEW,4000,,,,,,,VFR,,,,,,,,,,,,METAR,56.0
ZYTL 070430Z 13006MPS CAVOK 28/16 Q1001 NOSIG,ZYTL,2023-06-07T04:30:00Z,38.97,121.55,28.0,16.0,130,12,,6.21,29.557087,,,,,,TRUE,,,,,CAVOK,,,,,,,,VFR,,,,,,,,,,,,METAR,33.0
ZWWW 070430Z 34003MPS 300V030 CAVOK 34/05 Q1013 NOSIG,ZWWW,2023-06-07T04:30:00Z,43.9,87.47,34.0,5.0,340,6,,6.21,29.911417,,,,,,TRUE,,,,,CAVOK,,,,,,,,VFR,,,,,,,,,,,,METAR,654.0
ZSSS 070430Z 18004MPS 130V220 9999 BKN020 25/21 Q1009 NOSIG,ZSSS,2023-06-07T04:30:00Z,31.2,121.33,25.0,21.0,180,8,,6.21,29.793306,,,,,,TRUE,,,,,BKN,2000,,,,,,,MVFR,,,,,,,,,,,,METAR,2.0
ZSPD 070430Z 17004MPS 9999 BKN015 24/21 Q1009 NOSIG,ZSPD,2023-06-07T04:30:00Z,31.15,121.8,24.0,21.0,170,8,,6.21,29.793306,,,,,,TRUE,,,,,BKN,1500,,,,,,,MVFR,,,,,,,,,,,,METAR,4.0
ZSHC 070430Z VRB01MPS 4000 BR FEW014 BKN033 26/22 Q1009 NOSIG,ZSHC,2023-06-07T04:30:00Z,30.22,120.43,26.0,22.0,0,2,,2.49,29.793306,,,,,,TRUE,,,,BR,FEW,1400,BKN,3300,,,,,IFR,,,,,,,,,,,,METAR,8.0
ZMCK 070430Z 32011G17MPS 290V350 CAVOK 18/M02 Q1016 NOSIG RMK QFE647.0 26,ZMCK,2023-06-07T04:30:00Z,47.65,106.82,18.0,-2.0,320,21,33,6.21,30.0,,,,,,TRUE,,,,,CAVOK,,,,,,,,VFR,,,,,,,,,,,,METAR,1366.0
ZGGG 070430Z 14003MPS 110V170 9999 -TSRA FEW030CB BKN036 32/27 Q1008 RESHRA BECMG AT0510 TSRA,ZGGG,2023-06-07T04:30:00Z,23.4,113.3,32.0,27.0,140,6,,6.21,29.763779,,,,,,,,,,-TSRA,FEW,3000,BKN,3600,,,,,VFR,,,,,,,,,,,,METAR,11.0
ZBYN 070430Z 22004MPS 180V290 CAVOK 29/09 Q1008 NOSIG,ZBYN,2023-06-07T04:30:00Z,37.73,112.63,29.0,9.0,220,8,,6.21,29.763779,,,,,,TRUE,,,,,CAVOK,,,,,,,,VFR,,,,,,,,,,,,METAR,778.0
ZBTJ 070430Z 22003MPS 150V280 CAVOK 37/11 Q0997 NOSIG,ZBTJ,2023-06-07T04:30:00Z,39.12,117.35,37.0,11.0,220,6,,6.21,29.438976,,,,,,TRUE,,,,,CAVOK,,,,,,,,VFR,,,,,,,,,,,,METAR,4.0
ZBAD 070430Z 21004MPS 160V260 CAVOK 38/10 Q0997 NOSIG,ZBAD,2023-06-07T04:30:00Z,39.5,116.42,38.0,10.0,210,8,,6.21,29.438976,,,,,,TRUE,,,,,CAVOK,,,,,,,,VFR,,,,,,,,,,,,METAR,25.0
ZBAA 070430Z 21003MPS 160V270 9999 FEW050TCU 37/09 Q0996 NOSIG,ZBAA,2023-06-07T04:30:00Z,40.07,116.6,37.0,9.0,210,6,,6.21,29.409449,,,,,,TRUE,,,,,FEW,5000,,,,,,,VFR,,,,,,,,,,,,METAR,31.0
YWLM 070430Z 06010KT 9999 FEW035 21/12 Q1023,YWLM,2023-06-07T04:30:00Z,-32.8,151.83,21.0,12.0,60,10,,6.21,30.206694,,,,,,,,,,,FEW,3500,,,,,,,VFR,,,,,,,,,,,,METAR,7.0
YSTW 070430Z AUTO 25004KT 200V290 9999 // NCD 22/10 Q1023 RF00.0/000.0,YSTW,2023-06-07T04:30:00Z,-31.08,150.85,22.0,10.0,250,4,,6.21,30.206694,,,TRUE,,,,,,,,CLR,,,,,,,,VFR,,,,,,,,,,,,SPECI,404.0
YSSY 070430Z 02016KT 9999 FEW030 20/11 Q1023,YSSY,2023-06-07T04:30:00Z,-33.95,151.17,20.0,11.0,20,16,,6.21,30.206694,,,,,,,,,,,FEW,3000,,,,,,,VFR,,,,,,,,,,,,METAR,3.0
YSRI 070430Z AUTO 01009KT 9999 // NCD 20/15 Q1022 RF00.0/000.0,YSRI,2023-06-07T04:30:00Z,-33.6,150.77,20.0,15.0,10,9,,6.21,30.177166,,,TRUE,,,,,,,,CLR,,,,,,,,VFR,,,,,,,,,,,,SPECI,19.0
YSNF 070430Z AUTO 14013KT 9999 // SCT020 BKN024 BKN048 18/14 Q1018,YSNF,2023-06-07T04:30:00Z,-29.03,167.93,18.0,14.0,140,13,,6.21,30.059055,,,TRUE,,,,,,,,SCT,2000,BKN,2400,BKN,4800,,,MVFR,,,,,,,,,,,,SPECI,113.0
YSDU 070430Z AUTO 01013KT 9999 // SCT042 22/11 Q1021 RF00.0/000.0,YSDU,2023-06-07T04:30:00Z,-32.22,148.57,22.0,11.0,10,13,,6.21,30.147638,,,TRUE,,,,,,,,SCT,4200,,,,,,,VFR,,,,,,,,,,,,SPECI,285.0
YSCB 070430Z AUTO 11005KT 9999 // OVC025 16/12 Q1022 RF00.0/000.8,YSCB,2023-06-07T04:30:00Z,-35.3,149.18,16.0,12.0,110,5,,6.21,30.177166,,,TRUE,,,,,,,,OVC,2500,,,,,,,MVFR,,,,,,,,,,,,SPECI,577.0
YPXM 070430Z AUTO 13014KT 9999 // SCT020 OVC038 25/20 Q1015,YPXM,2023-06-07T04:30:00Z,-10.45,105.68,25.0,20.0,130,14,,6.21,29.970472,,,TRUE,,,,,,,,SCT,2000,OVC,3800,,,,,VFR,,,,,,,,,,,,SPECI,262.0
YPWR 070430Z AUTO 29016KT 9999 // NCD 22/10 Q1010 RF00.0/000.2,YPWR,2023-06-07T04:30:00Z,-31.15,136.82,22.0,10.0,290,16,,6.21,29.822834,,,TRUE,,,,,,,,CLR,,,,,,,,VFR,,,,,,,,,,,,METAR,169.0
YPTN 070430Z AUTO 11009KT 9999 // BKN054 BKN066 35/20 Q1012,YPTN,2023-06-07T04:30:00Z,-14.52,132.38,35.0,20.0,110,9,,6.21,29.88189,,,TRUE,,,,,,,,BKN,5400,BKN,6600,,,,,VFR,,,,,,,,,,,,SPECI,135.0
YPPH 070430Z 19003KT 9999 -DZ FEW018 SCT036 BKN058 14/09 Q1019,YPPH,2023-06-07T04:30:00Z,-31.93,115.98,14.0,9.0,190,3,,6.21,30.088583,,,,,,,,,,-DZ,FEW,1800,SCT,3600,BKN,5800,,,VFR,,,,,,,,,,,,METAR,16.0
YPPD 070430Z AUTO 09006KT 050V110 9999 // NCD 27/05 Q1017 RF00.0/000.0,YPPD,2023-06-07T04:30:00Z,-20.37,118.62,27.0,5.0,90,6,,6.21,30.029528,,,TRUE,,,,,,,,CLR,,,,,,,,VFR,,,,,,,,,,,,SPECI,6.0
YPLM 070430Z AUTO 11010KT 9999 // NCD 22/10 Q1020 RF00.0/000.0,YPLM,2023-06-07T04:30:00Z,-22.23,114.08,22.0,10.0,110,10,,6.21,30.11811,,,TRUE,,,,,,,,CLR,,,,,,,,VFR,,,,,,,,,,,,SPECI,5.0
YPKU 070430Z AUTO 11006KT 070V180 9999 // NCD 33/13 Q1013 RF00.0/000.0,YPKU,2023-06-07T04:30:00Z,-15.77,128.7,33.0,13.0,110,6,,6.21,29.911417,,,TRUE,,,,,,,,CLR,,,,,,,,VFR,,,,,,,,,,,,SPECI,42.0
YPKG 070430Z AUTO 27014KT 9999 // BKN041 BKN051 12/02 Q1017,YPKG,2023-06-07T04:30:00Z,-30.78,121.45,12.0,2.0,270,14,,6.21,30.029528,,,TRUE,,,,,,,,BKN,4100,BKN,5100,,,,,VFR,,,,,,,,,,,,SPECI,372.0
YPGV 070430Z AUTO 11013KT 9999 // BKN022 29/23 Q1012 RF00.0/000.0,YPGV,2023-06-07T04:30:00Z,-12.27,136.82,29.0,23.0,110,13,,6.21,29.88189,,,TRUE,,,,,,,,BKN,2200,,,,,,,MVFR,,,,,,,,,,,,SPECI,53.0
YPEA 070430Z 17004KT 120V190 9999 FEW015 BKN040 15/09 Q1019,YPEA,2023-06-07T04:30:00Z,-31.67,116.02,15.0,9.0,170,4,,6.21,30.088583,,,,,,,,,,,FEW,1500,BKN,4000,,,,,VFR,,,,,,,,,,,,METAR,38.0
YPDN 070430Z 06009KT 9999 BKN044 33/22 Q1012,YPDN,2023-06-07T04:30:00Z,-12.42,130.9,33.0,22.0,60,9,,6.21,29.88189,,,,,,,,,,,BKN,4400,,,,,,,VFR,,,,,,,,,,,,METAR,32.0
YPCC 070430Z AUTO 10011KT 9999 // SCT049 OVC057 28/22 Q1014,YPCC,2023-06-07T04:30:00Z,-12.18,96.83,28.0,22.0,100,11,,6.21,29.940945,,,TRUE,,,,,,,,SCT,4900,OVC,5700,,,,,VFR,,,,,,,,,,,,SPECI,3.0
YPAD 070430Z 34015KT 9999 FEW030 BKN100 20/16 Q1006 RF00.0/000.0,YPAD,2023-06-07T04:30:00Z,-34.95,138.52,20.0,16.0,340,15,,6.21,29.704725,,,,,,,,,,,FEW,3000,BKN,10000,,,,,VFR,,,,,,,,,,,,SPECI,2.0
YMML 070430Z 02020KT 9999 -RA FEW020 SCT045 OVC099 15/14 Q1013,YMML,2023-06-07T04:30:00Z,-37.67,144.82,15.0,14.0,20,20,,6.21,29.911417,,,,,,,,,,-RA,FEW,2000,SCT,4500,OVC,9900,,,VFR,,,,,,,,,,,,METAR,115.0
YMLT 070430Z AUTO 33007KT 9999 // SCT037 16/11 Q1017 RF00.0/000.0,YMLT,2023-06-07T04:30:00Z,-41.53,147.2,16.0,11.0,330,7,,6.21,30.029528,,,TRUE,,,,,,,,SCT,3700,,,,,,,VFR,,,,,,,,,,,,SPECI,167.0
YMHB 070430Z 36010KT 9999 FEW032 SCT180 BKN280 18/10 Q1016 RF00.0/000.0,YMHB,2023-06-07T04:30:00Z,-42.83,147.52,18.0,10.0,360,10,,6.21,30.0,,,,,,,,,,,FEW,3200,SCT,18000,BKN,28000,,,VFR,,,,,,,,,,,,SPECI,2.0
YMAV 070430Z AUTO 03010KT 9999 -RA SCT070 OVC090 OVC105 16/14 Q1012,YMAV,2023-06-07T04:30:00Z,-38.03,144.48,16.0,14.0,30,10,,6.21,29.88189,,,TRUE,,,,,,,-RA,SCT,7000,OVC,9000,OVC,10500,,,VFR,,,,,,,,,,,,METAR,11.0
YLHI 070430Z AUTO 11008KT 9999 // SCT011 SCT032 OVC042 16/14 Q1025,YLHI,2023-06-07T04:30:00Z,-31.53,159.07,16.0,14.0,110,8,,6.21,30.265747,,,TRUE,,,,,,,,SCT,1100,SCT,3200,OVC,4200,,,VFR,,,,,,,,,,,,METAR,2.0
YHID 070430Z AUTO 12020KT 9999 // SCT021 BKN026 BKN034 29/24 Q1011,YHID,2023-06-07T04:30:00Z,-10.58,142.3,29.0,24.0,120,20,,6.21,29.852362,,,TRUE,,,,,,,,SCT,2100,BKN,2600,BKN,3400,,,MVFR,,,,,,,,,,,,METAR,5.0
YGLA 070430Z AUTO 09014KT 9999 // BKN053 24/11 Q1020 RF00.0/000.0,YGLA,2023-06-07T04:30:00Z,-23.87,151.22,24.0,11.0,90,14,,6.21,30.11811,,,TRUE,,,,,,,,BKN,5300,,,,,,,VFR,,,,,,,,,,,,METAR,17.0
YGEL 070430Z AUTO 13005KT 080V160 9999 // SCT061 18/11 Q1021,YGEL,2023-06-07T04:30:00Z,-28.8,114.7,18.0,11.0,130,5,,6.21,30.147638,,,TRUE,,,,,,,,SCT,6100,,,,,,,VFR,,,,,,,,,,,,METAR,32.0
YFRT 070430Z AUTO 28025KT 9999 // SCT043 15/03 Q1013 RF00.0/000.0,YFRT,2023-06-07T04:30:00Z,-30.83,128.12,15.0,3.0,280,25,,6.21,29.911417,,,TRUE,,,,,,,,SCT,4300,,,,,,,VFR,,,,,,,,,,,,SPECI,159.0
YCIN 070430Z AUTO 18005KT 9999 // OVC087 29/18 Q1014 RF00.0/000.0,YCIN,2023-06-07T04:30:00Z,-17.58,123.83,29.0,18.0,180,5,,6.21,29.940945,,,TRUE,,,,,,,,OVC,8700,,,,,,,VFR,,,,,,,,,,,,SPECI,83.0
YCFS 070430Z AUTO 09006KT 9999 // NCD 20/13 Q1024 RF00.0/000.0,YCFS,2023-06-07T04:30:00Z,-30.32,153.12,20.0,13.0,90,6,,6.21,30.236221,,,TRUE,,,,,,,,CLR,,,,,,,,VFR,,,,,,,,,,,,METAR,2.0
YBWW 070430Z AUTO 06013KT 9999 // SCT041 20/09 Q1023 RF00.0/000.4,YBWW,2023-06-07T04:30:00Z,-27.55,151.8,20.0,9.0,60,13,,6.21,30.206694,,,TRUE,,,,,,,,SCT,4100,,,,,,,VFR,,,,,,,,,,,,METAR,460.0
YBTL 070430Z 09013KT 9999 VCSH FEW015 SCT025 BKN044 26/19 Q1017,YBTL,2023-06-07T04:30:00Z,-19.25,146.75,26.0,19.0,90,13,,6.21,30.029528,,,,,,,,,,VCSH,FEW,1500,SCT,2500,BKN,4400,,,VFR,,,,,,,,,,,,METAR,4.0
YBSU 070430Z AUTO 15011KT 9999 // NCD 21/13 Q1023 RF00.0/000.0,YBSU,2023-06-07T04:30:00Z,-26.6,153.08,21.0,13.0,150,11,,6.21,30.206694,,,TRUE,,,,,,,,CLR,,,,,,,,VFR,,,,,,,,,,,,METAR,4.0
YBRM 070430Z AUTO 19006KT 9999 // BKN053 27/13 Q1016 RF00.0/000.0,YBRM,2023-06-07T04:30:00Z,-17.93,122.23,27.0,13.0,190,6,,6.21,30.0,,,TRUE,,,,,,,,BKN,5300,,,,,,,VFR,,,,,,,,,,,,SPECI,11.0
YBRK 070430Z AUTO 08007KT 9999 // BKN050 24/13 Q1020 RF00.0/000.0,YBRK,2023-06-07T04:30:00Z,-23.37,150.47,24.0,13.0,80,7,,6.21,30.11811,,,TRUE,,,,,,,,BKN,5000,,,,,,,VFR,,,,,,,,,,,,SPECI,10.0
YBMA 070430Z AUTO 34005KT 9999 // SCT067 31/11 Q1016 RF00.0/000.0,YBMA,2023-06-07T04:30:00Z,-20.67,139.48,31.0,11.0,340,5,,6.21,30.0,,,TRUE,,,,,,,,SCT,6700,,,,,,,VFR,,,,,,,,,,,,SPECI,346.0
YBLN 070430Z AUTO 23008KT 9999 // SCT041 OVC057 15/08 Q1018,YBLN,2023-06-07T04:30:00Z,-33.68,115.4,15.0,8.0,230,8,,6.21,30.059055,,,TRUE,,,,,,,,SCT,4100,OVC,5700,,,,,VFR,,,,,,,,,,,,METAR,17.0
YBHM 070430Z AUTO 15018KT 9999 // SCT027 SCT047 23/20 Q1018,YBHM,2023-06-07T04:30:00Z,-20.35,148.95,23.0,20.0,150,18,,6.21,30.059055,,,TRUE,,,,,,,,SCT,2700,SCT,4700,,,,,VFR,,,,,,,,,,,,SPECI,4.0
YBCS 070430Z AUTO 13014KT 9999 // NCD 28/19 Q1015 RF00.0/000.2,YBCS,2023-06-07T04:30:00Z,-16.87,145.75,28.0,19.0,130,14,,6.21,29.970472,,,TRUE,,,,,,,,CLR,,,,,,,,VFR,,,,,,,,,,,,SPECI,2.0
YBCG 070430Z AUTO 14009KT 9999 // NCD 21/12 Q1023 RF00.0/000.2,YBCG,2023-06-07T04:30:00Z,-28.17,153.5,21.0,12.0,140,9,,6.21,30.206694,,,TRUE,,,,,,,,CLR,,,,,,,,VFR,,,,,,,,,,,,SPECI,5.0
YBBN 070430Z 12009KT 9999 FEW035 22/13 Q1023,YBBN,2023-06-07T04:30:00Z,-27.38,153.13,22.0,13.0,120,9,,6.21,30.206694,,,,,,,,,,,FEW,3500,,,,,,,VFR,,,,,,,,,,,,METAR,3.0
YBAS 070430Z AUTO 29007KT 9999 // ////// 22/15 Q1017 RF00.0////./ GENERATED FROM 07/06/2023 04:25 MESSAGE,YBAS,2023-06-07T04:30:00Z,-23.8,133.9,22.0,15.0,290,7,,6.21,30.029528,,,TRUE,,,,,,,RA SS,,,,,,,,,,,,,,,,,,,,,SPECI,549.0
YAMB 070430Z 10007KT 9999 FEW030 SCT041 BKN056 22/12 Q1023 RF00.0/000.0,YAMB,2023-06-07T04:30:00Z,-27.63,152.72,22.0,12.0,100,7,,6.21,30.206694,,,,,,,,,,,FEW,3000,SCT,4100,BKN,5600,,,VFR,,,,,,,,,,,,SPECI,26.0
WSSS 070430Z 17009KT 9999 VCSH FEW018TCU SCT150 BKN300 31/25 Q1011 NOSIG,WSSS,2023-06-07T04:30:00Z,1.37,103.97,31.0,25.0,170,9,,6.21,29.852362,,,,,,TRUE,,,,VCSH,FEW,1800,SCT,15000,BKN,30000,,,VFR,,,,,,,,,,,,METAR,17.0
WMKP 070430Z VRB02KT 9999 FEW017CB SCT020 32/24 Q1010 NOSIG,WMKP,2023-06-07T04:30:00Z,5.28,100.27,32.0,24.0,0,2,,6.21,29.822834,,,,,,TRUE,,,,,FEW,1700,SCT,2000,,,,,VFR,,,,,,,,,,,,METAR,4.0
WMKK 070430Z 14008KT 9999 SCT018 31/26 Q1010 NOSIG,WMKK,2023-06-07T04:30:00Z,2.75,101.72,31.0,26.0,140,8,,6.21,29.822834,,,,,,TRUE,,,,,SCT,1800,,,,,,,VFR,,,,,,,,,,,,METAR,21.0
WIPP 070430Z 13006KT 5000N BKN010 32/25 Q1010 NOSIG,WIPP,2023-06-07T04:30:00Z,-2.88,104.7,32.0,25.0,130,6,,3.11,29.822834,,,,,,TRUE,,,,,BKN,1000,,,,,,,MVFR,,,,,,,,,,,,METAR,7.0
WIOO 070430Z 08004KT 9999 FEW012 31/25 Q1010 NOSIG,WIOO,2023-06-07T04:30:00Z,-0.15,109.4,31.0,25.0,80,4,,6.21,29.822834,,,,,,TRUE,,,,,FEW,1200,,,,,,,VFR,,,,,,,,,,,,METAR,4.0
WIMM 070430Z 01008KT 340V040 9999 SCT018 31/25 Q1010 NOSIG,WIMM,2023-06-07T04:30:00Z,3.57,98.67,31.0,25.0,10,8,,6.21,29.822834,,,,,,TRUE,,,,,SCT,1800,,,,,,,VFR,,,,,,,,,,,,METAR,27.0
WILL 070430Z 00000KT 8000 BKN014 29/24 Q1011 NOSIG,WILL,2023-06-07T04:30:00Z,-5.25,105.18,29.0,24.0,0,0,,4.97,29.852362,,,,,,TRUE,,,,,BKN,1400,,,,,,,MVFR,,,,,,,,,,,,METAR,83.0
WIII 070430Z 06006KT 020V110 7000 FEW022 32/24 Q1010 NOSIG,WIII,2023-06-07T04:30:00Z,-6.13,106.67,32.0,24.0,60,6,,4.35,29.822834,,,,,,TRUE,,,,,FEW,2200,,,,,,,MVFR,,,,,,,,,,,,METAR,9.0
WIHH 070430Z 11006KT 5000 HZ SCT020 32/22 Q1010 NOSIG ,WIHH,2023-06-07T04:30:00Z,-6.27,106.88,32.0,22.0,110,6,,3.11,29.822834,,,,,,TRUE,,,,HZ,SCT,2000,,,,,,,MVFR,,,,,,,,,,,,METAR,26.0
WIEE 070430Z 25003KT 200V310 9999 FEW020 SCT150 29/24 Q1011 NOSIG,WIEE,2023-06-07T04:30:00Z,-0.78,100.28,29.0,24.0,250,3,,6.21,29.852362,,,,,,TRUE,,,,,FEW,2000,SCT,15000,,,,,VFR,,,,,,,,,,,,METAR,5.0
WIDN 070430Z 19011KT 9999 SCT017 31/26 Q1011 NOSIG,WIDN,2023-06-07T04:30:00Z,0.92,104.53,31.0,26.0,190,11,,6.21,29.852362,,,,,,TRUE,,,,,SCT,1700,,,,,,,VFR,,,,,,,,,,,,METAR,18.0
WIDD 070430Z 20007KT 9999 SCT014 32/22 Q1012 NOSIG,WIDD,2023-06-07T04:30:00Z,1.12,104.12,32.0,22.0,200,7,,6.21,29.88189,,,,,,TRUE,,,,,SCT,1400,,,,,,,VFR,,,,,,,,,,,,METAR,26.0
WBSB 070430Z 34005KT 9999 SCT015 FEW016CB SCT140 BKN300 32/27 Q1010 NOSIG,WBSB,2023-06-07T04:30:00Z,4.93,114.92,32.0,27.0,340,5,,6.21,29.822834,,,,,,TRUE,,,,,SCT,1500,FEW,1600,SCT,14000,BKN,30000,VFR,,,,,,,,,,,,METAR,15.0
WBKK 070430Z VRB04KT 9999 FEW014 33/26 Q1010 NOSIG,WBKK,2023-06-07T04:30:00Z,5.93,116.05,33.0,26.0,0,4,,6.21,29.822834,,,,,,TRUE,,,,,FEW,1400,,,,,,,VFR,,,,,,,,,,,,METAR,9.0
WBGG 070430Z VRB03KT 9999 FEW018 31/25 Q1011 NOSIG,WBGG,2023-06-07T04:30:00Z,1.48,110.35,31.0,25.0,0,3,,6.21,29.852362,,,,,,TRUE,,,,,FEW,1800,,,,,,,VFR,,,,,,,,,,,,METAR,26.0
WAYY 070430Z 23006KT 9999 SCT015 32/27 Q1010 NOSIG,WAYY,2023-06-07T04:30:00Z,-4.53,136.88,32.0,27.0,230,6,,6.21,29.822834,,,,,,TRUE,,,,,SCT,1500,,,,,,,VFR,,,,,,,,,,,,METAR,32.0
WATT 070430Z 11010KT 9999 FEW018 32/22 Q1013 NOSIG,WATT,2023-06-07T04:30:00Z,-10.17,123.67,32.0,22.0,110,10,,6.21,29.911417,,,,,,TRUE,,,,,FEW,1800,,,,,,,VFR,,,,,,,,,,,,METAR,104.0
WARR 070430Z 10010KT 9999 FEW020 31/26 Q1011 NOSIG ,WARR,2023-06-07T04:30:00Z,-7.37,112.78,31.0,26.0,100,10,,6.21,29.852362,,,,,,TRUE,,,,,FEW,2000,,,,,,,VFR,,,,,,,,,,,,METAR,3.0
WAPP 070430Z 21006KT 9999 FEW016CB SCT017 32/26 Q1010 NOSIG RMK CB TO NW,WAPP,2023-06-07T04:30:00Z,-3.7,128.08,32.0,26.0,210,6,,6.21,29.822834,,,,,,TRUE,,,,,FEW,1600,SCT,1700,,,,,VFR,,,,,,,,,,,,METAR,20.0
WAMM 070430Z VRB05KT 9999 FEW019 33/24 Q1010 NOSIG,WAMM,2023-06-07T04:30:00Z,1.55,124.92,33.0,24.0,0,5,,6.21,29.822834,,,,,,TRUE,,,,,FEW,1900,,,,,,,VFR,,,,,,,,,,,,METAR,86.0
WALL 070430Z 22006KT 150V260 9999 FEW020 29/26 Q1011 NOSIG,WALL,2023-06-07T04:30:00Z,-1.27,116.9,29.0,26.0,220,6,,6.21,29.852362,,,,,,TRUE,,,,,FEW,2000,,,,,,,VFR,,,,,,,,,,,,METAR,3.0
WAJJ 070430Z 16007KT 9999 FEW013 35/23 Q1007 NOSIG,WAJJ,2023-06-07T04:30:00Z,-2.58,140.52,35.0,23.0,160,7,,6.21,29.734253,,,,,,TRUE,,,,,FEW,1300,,,,,,,VFR,,,,,,,,,,,,METAR,93.0
WAHS 070430Z 11010KT 080V140 8000 SCT014 32/23 Q1010 NOSIG,WAHS,2023-06-07T04:30:00Z,-6.98,110.38,32.0,23.0,110,10,,4.97,29.822834,,,,,,TRUE,,,,,SCT,1400,,,,,,,MVFR,,,,,,,,,,,,METAR,3.0
WADL 070430Z 13010KT 090V170 8000 SCT016 31/22 Q1013 NOSIG,WADL,2023-06-07T04:30:00Z,-8.75,116.28,31.0,22.0,130,10,,4.97,29.911417,,,,,,TRUE,,,,,SCT,1600,,,,,,,MVFR,,,,,,,,,,,,METAR,97.0
WADD 070430Z 11008KT 9999 FEW017 29/25 Q1012 NOSIG,WADD,2023-06-07T04:30:00Z,-8.73,115.17,29.0,25.0,110,8,,6.21,29.88189,,,,,,TRUE,,,,,FEW,1700,,,,,,,VFR,,,,,,,,,,,,METAR,3.0
WABB 070430Z 13011KT 160V100 9000 SCT018 BKN100 30/26 Q1009 NOSIG,WABB,2023-06-07T04:30:00Z,-1.18,136.12,30.0,26.0,130,11,,5.59,29.793306,,,,,,TRUE,,,,,SCT,1800,BKN,10000,,,,,VFR,,,,,,,,,,,,METAR,12.0
WAAA 070430Z 17003KT 090V220 9999 FEW019 33/20 Q1011 NOSIG,WAAA,2023-06-07T04:30:00Z,-5.07,119.55,33.0,20.0,170,3,,6.21,29.852362,,,,,,TRUE,,,,,FEW,1900,,,,,,,VFR,,,,,,,,,,,,METAR,13.0
VYYY 070430Z 21003KT 6000 BKN014 FEW018CB OVC090 27/26 Q1005,VYYY,2023-06-07T04:30:00Z,16.9,96.13,27.0,26.0,210,3,,3.73,29.675198,,,,,,,,,,,BKN,1400,FEW,1800,OVC,9000,,,MVFR,,,,,,,,,,,,METAR,31.0
VVVD 070430Z 07009KT 9999 FEW027 BKN050 30/26 Q1007 NOSIG,VVVD,2023-06-07T04:30:00Z,21.12,107.42,30.0,26.0,70,9,,6.21,29.734253,,,,,,TRUE,,,,,FEW,2700,BKN,5000,,,,,VFR,,,,,,,,,,,,METAR,8.0
VVTS 070430Z 21010KT 180V260 9999 FEW017 BKN050 31/26 Q1010 NOSIG,VVTS,2023-06-07T04:30:00Z,10.82,106.67,31.0,26.0,210,10,,6.21,29.822834,,,,,,TRUE,,,,,FEW,1700,BKN,5000,,,,,VFR,,,,,,,,,,,,METAR,10.0
VVPQ 070430Z VRB02KT 9000 -TSRA SCT015 FEW017CB SCT040 25/24 Q1010 NOSIG,VVPQ,2023-06-07T04:30:00Z,10.23,103.97,25.0,24.0,0,2,,5.59,29.822834,,,,,,TRUE,,,,-TSRA,SCT,1500,FEW,1700,SCT,4000,,,VFR,,,,,,,,,,,,METAR,8.0
VVPB 070430Z 10003KT 9999 FEW015 SCT050 32/25 Q1007 NOSIG,VVPB,2023-06-07T04:30:00Z,16.38,107.7,32.0,25.0,100,3,,6.21,29.734253,,,,,,TRUE,,,,,FEW,1500,SCT,5000,,,,,VFR,,,,,,,,,,,,METAR,15.0
VVNB 070430Z VRB04KT 9999 FEW039 33/24 Q1006 NOSIG,VVNB,2023-06-07T04:30:00Z,21.22,105.8,33.0,24.0,0,4,,6.21,29.704725,,,,,,TRUE,,,,,FEW,3900,,,,,,,VFR,,,,,,,,,,,,METAR,6.0
VVDN 070430Z 10004KT 050V160 9999 SCT015 SCT070 32/24 Q1007 NOSIG,VVDN,2023-06-07T04:30:00Z,16.03,108.2,32.0,24.0,100,4,,6.21,29.734253,,,,,,TRUE,,,,,SCT,1500,SCT,7000,,,,,VFR,,,,,,,,,,,,METAR,7.0
VVCT 070430Z 22010G26KT 190V260 8000 -SHRA SCT013 FEW015CB BKN050 25/25 Q1011 TEMPO FM0435 TL0510 3000 TSRA,VVCT,2023-06-07T04:30:00Z,10.08,105.72,25.0,25.0,220,10,26,4.97,29.852362,,,,,,,,,,-SHRA,SCT,1300,FEW,1500,BKN,5000,,,MVFR,,,,,,,,,,,,METAR,6.0
VVCR 070430Z 23006KT 9999 FEW015 34/24 Q1009 NOSIG,VVCR,2023-06-07T04:30:00Z,12.0,109.22,34.0,24.0,230,6,,6.21,29.793306,,,,,,TRUE,,,,,FEW,1500,,,,,,,VFR,,,,,,,,,,,,METAR,12.0
VVCI 070430Z 06003KT 350V120 9999 SCT039 33/24 Q1006 NOSIG,VVCI,2023-06-07T04:30:00Z,20.82,106.73,33.0,24.0,60,3,,6.21,29.704725,,,,,,TRUE,,,,,SCT,3900,,,,,,,VFR,,,,,,,,,,,,METAR,6.0
VTSS 070430Z 25010KT 9999 SCT020 33/24 Q1010 NOSIG,VTSS,2023-06-07T04:30:00Z,6.92,100.38,33.0,24.0,250,10,,6.21,29.822834,,,,,,TRUE,,,,,SCT,2000,,,,,,,VFR,,,,,,,,,,,,METAR,28.0
VTSP 070430Z 26018KT 9999 -RA SCT020 BKN100 29/26 Q1010 WS ALL RWY NOSIG,VTSP,2023-06-07T04:30:00Z,8.12,98.32,29.0,26.0,260,18,,6.21,29.822834,,,,,,TRUE,,,,-RA,SCT,2000,BKN,10000,,,,,VFR,,,,,,,,,,,,SPECI,12.0
VTCC 070430Z VRB04KT 9999 BKN032 30/24 Q1007 NOSIG,VTCC,2023-06-07T04:30:00Z,18.77,98.97,30.0,24.0,0,4,,6.21,29.734253,,,,,,TRUE,,,,,BKN,3200,,,,,,,VFR,,,,,,,,,,,,METAR,308.0
VTBU 070430Z 25010KT 9999 FEW020 SCT100 31/25 Q1009 NOSIG,VTBU,2023-06-07T04:30:00Z,12.68,101.0,31.0,25.0,250,10,,6.21,29.793306,,,,,,TRUE,,,,,FEW,2000,SCT,10000,,,,,VFR,,,,,,,,,,,,METAR,12.0
VTBS 070430Z 22011KT 190V260 9999 SCT030 33/23 Q1007 NOSIG,VTBS,2023-06-07T04:30:00Z,13.68,100.75,33.0,23.0,220,11,,6.21,29.734253,,,,,,TRUE,,,,,SCT,3000,,,,,,,VFR,,,,,,,,,,,,METAR,1.0
VTBD 070430Z 21009KT 180V260 9999 FEW020 SCT040 BKN080 33/24 Q1007 NOSIG,VTBD,2023-06-07T04:30:00Z,13.92,100.6,33.0,24.0,210,9,,6.21,29.734253,,,,,,TRUE,,,,,FEW,2000,SCT,4000,BKN,8000,,,VFR,,,,,,,,,,,,METAR,6.0
VQPR 070430Z VRB04KT 9999 FEW050 26/07 Q1018,VQPR,2023-06-07T04:30:00Z,27.4,89.43,26.0,7.0,0,4,,6.21,30.059055,,,,,,,,,,,FEW,5000,,,,,,,VFR,,,,,,,,,,,,METAR,2227.0
VOVZ 070430Z 24007KT 3500 HZ FEW018 SCT080 36/27 Q1003 NOSIG,VOVZ,2023-06-07T04:30:00Z,17.72,83.22,36.0,27.0,240,7,,2.17,29.616142,,,,,,TRUE,,,,HZ,FEW,1800,SCT,8000,,,,,IFR,,,,,,,,,,,,METAR,4.0
VOTV 070430Z 30006KT 5000 HZ FEW015 SCT080 FEW025CB 31/26 Q1010 NOSIG,VOTV,2023-06-07T04:30:00Z,8.48,76.92,31.0,26.0,300,6,,3.11,29.822834,,,,,,TRUE,,,,HZ,FEW,1500,SCT,8000,FEW,2500,,,MVFR,,,,,,,,,,,,METAR,9.0
VOTR 070430Z 27010G20KT 5000 HZ FEW016 SCT100 33/25 Q1008 BECMG 6000,VOTR,2023-06-07T04:30:00Z,10.77,78.72,33.0,25.0,270,10,20,3.11,29.763779,,,,,,,,,,HZ,FEW,1600,SCT,10000,,,,,MVFR,,,,,,,,,,,,METAR,90.0
VOTP 070430Z 34008KT 6000 SCT020 SCT100 33/22 Q1007 NOSIG,VOTP,2023-06-07T04:30:00Z,13.63,79.55,33.0,22.0,340,8,,3.73,29.734253,,,,,,TRUE,,,,,SCT,2000,SCT,10000,,,,,MVFR,,,,,,,,,,,,METAR,103.0
VORY 070430Z 24011KT 6000 NSC 37/28 Q1004 NOSIG,VORY,2023-06-07T04:30:00Z,17.1,81.82,37.0,28.0,240,11,,3.73,29.64567,,,,,,TRUE,,,,,CLR,,,,,,,,MVFR,,,,,,,,,,,,METAR,47.0
VOMM 070430Z 14008KT 4000 BR SCT020 FEW025CB SCT100 30/27 Q1006 NOSIG,VOMM,2023-06-07T04:30:00Z,13.0,80.17,30.0,27.0,140,8,,2.49,29.704725,,,,,,TRUE,,,,BR,SCT,2000,FEW,2500,SCT,10000,,,IFR,,,,,,,,,,,,METAR,7.0
VOML 070430Z 15003KT 8000 SCT012 FEW025CB 31/25 Q1009 NOSIG,VOML,2023-06-07T04:30:00Z,12.97,74.88,31.0,25.0,150,3,,4.97,29.793306,,,,,,TRUE,,,,,SCT,1200,FEW,2500,,,,,MVFR,,,,,,,,,,,,METAR,100.0
VOMD 070430Z 29006KT CAVOK 34/24 Q1008 NOSIG,VOMD,2023-06-07T04:30:00Z,9.83,78.08,34.0,24.0,290,6,,6.21,29.763779,,,,,,TRUE,,,,,CAVOK,,,,,,,,VFR,,,,,,,,,,,,METAR,135.0
VOKU 070430Z 26015KT 6000 FEW018 SCT080 31/19 Q1008 NOSIG,VOKU,2023-06-07T04:30:00Z,15.72,78.17,31.0,19.0,260,15,,3.73,29.763779,,,,,,TRUE,,,,,FEW,1800,SCT,8000,,,,,MVFR,,,,,,,,,,,,METAR,280.0
VOKN 070430Z 20004KT 6000 SCT012 SCT018 31/27 Q1010 NOSIG,VOKN,2023-06-07T04:30:00Z,11.92,75.55,31.0,27.0,200,4,,3.73,29.822834,,,,,,TRUE,,,,,SCT,1200,SCT,1800,,,,,MVFR,,,,,,,,,,,,METAR,105.0
VOHY 070430Z 29009KT 6000 SCT020 33/19 Q1009 NOSIG,VOHY,2023-06-07T04:30:00Z,17.45,78.47,33.0,19.0,290,9,,3.73,29.793306,,,,,,TRUE,,,,,SCT,2000,,,,,,,MVFR,,,,,,,,,,,,METAR,540.0
VOHS 070430Z 30012G22KT 6000 SCT020 32/22 Q1010 NOSIG,VOHS,2023-06-07T04:30:00Z,17.23,78.43,32.0,22.0,300,12,22,3.73,29.822834,,,,,,TRUE,,,,,SCT,2000,,,,,,,MVFR,,,,,,,,,,,,METAR,607.0
VOHB 070430Z 25009KT 8000 SCT015 29/22 Q1012,VOHB,2023-06-07T04:30:00Z,15.37,75.08,29.0,22.0,250,9,,4.97,29.88189,,,,,,,,,,,SCT,1500,,,,,,,MVFR,,,,,,,,,,,,METAR,661.0
VOGB 070430Z 31010KT 8000 NSC 33/23 Q1010,VOGB,2023-06-07T04:30:00Z,17.35,76.85,33.0,23.0,310,10,,4.97,29.822834,,,,,,,,,,,CLR,,,,,,,,MVFR,,,,,,,,,,,,METAR,458.0
VOGA 070430Z 27003KT 6000 FEW015 SCT020 31/21 Q1009 NOSIG,VOGA,2023-06-07T04:30:00Z,,,31.0,21.0,270,3,,3.73,29.793306,,,,,,TRUE,,,,,FEW,1500,SCT,2000,,,,,MVFR,,,,,,,,,,,,METAR,
VOCP 070430Z 26017KT 6000 FEW020 BKN090 32/21 Q1007 NOSIG,VOCP,2023-06-07T04:30:00Z,14.5,78.77,32.0,21.0,260,17,,3.73,29.734253,,,,,,TRUE,,,,,FEW,2000,BKN,9000,,,,,MVFR,,,,,,,,,,,,METAR,134.0
VOCL 070430Z 03002KT 6000 SCT015 FEW025CB BKN080 28/24 Q1010 NOSIG,VOCL,2023-06-07T04:30:00Z,11.13,75.95,28.0,24.0,30,2,,3.73,29.822834,,,,,,TRUE,,,,,SCT,1500,FEW,2500,BKN,8000,,,MVFR,,,,,,,,,,,,METAR,104.0
VOCI 070430Z 18003KT 4000 BR SCT012 FEW025CB BKN080 31/26 Q1010 TEMPO 3000 TSRA,VOCI,2023-06-07T04:30:00Z,10.15,76.4,31.0,26.0,180,3,,2.49,29.822834,,,,,,,,,,BR,SCT,1200,FEW,2500,BKN,8000,,,IFR,,,,,,,,,,,,METAR,8.0
VOCB 070430Z 18008KT 6000 SCT012 32/23 Q1010 NOSIG,VOCB,2023-06-07T04:30:00Z,11.02,77.03,32.0,23.0,180,8,,3.73,29.822834,,,,,,TRUE,,,,,SCT,1200,,,,,,,MVFR,,,,,,,,,,,,METAR,394.0
VOBZ 070430Z 22009KT 6000 NSC 35/25 Q1004 NOSIG,VOBZ,2023-06-07T04:30:00Z,16.52,80.78,35.0,25.0,220,9,,3.73,29.64567,,,,,,TRUE,,,,,CLR,,,,,,,,MVFR,,,,,,,,,,,,METAR,26.0
VOBL 070430Z 27012KT 6000 FEW010 SCT015 26/20 Q1014 NOSIG,VOBL,2023-06-07T04:30:00Z,13.2,77.7,26.0,20.0,270,12,,3.73,29.940945,,,,,,TRUE,,,,,FEW,1000,SCT,1500,,,,,MVFR,,,,,,,,,,,,METAR,908.0
VOBG 070430Z 27009KT 9999 SCT012 28/22 Q1015 NOSIG,VOBG,2023-06-07T04:30:00Z,12.95,77.65,28.0,22.0,270,9,,6.21,29.970472,,,,,,TRUE,,,,,SCT,1200,,,,,,,VFR,,,,,,,,,,,,METAR,884.0
VNKT 070430Z 34003KT 8000 FEW015 FEW025TCU SCT030 28/15 Q1014 NOSIG,VNKT,2023-06-07T04:30:00Z,27.68,85.37,28.0,15.0,340,3,,4.97,29.940945,,,,,,TRUE,,,,,FEW,1500,FEW,2500,SCT,3000,,,MVFR,,,,,,,,,,,,METAR,1334.0
VMMC 070430Z 13009KT 9999 FEW015 SCT025 30/26 Q1009 NOSIG,VMMC,2023-06-07T04:30:00Z,22.15,113.58,30.0,26.0,130,9,,6.21,29.793306,,,,,,TRUE,,,,,FEW,1500,SCT,2500,,,,,VFR,,,,,,,,,,,,METAR,1.0
VISM 070430Z 00000KT 6000 SCT040 SCT060 23/12 Q1016,VISM,2023-06-07T04:30:00Z,31.08,77.07,23.0,12.0,0,0,,3.73,30.0,,,,,,,,,,,SCT,4000,SCT,6000,,,,,MVFR,,,,,,,,,,,,METAR,1537.0
VIPT 070430Z 28002KT 5000 HZ NSC 34/16 Q1005,VIPT,2023-06-07T04:30:00Z,29.03,79.47,34.0,16.0,280,2,,3.11,29.675198,,,,,,,,,,HZ,CLR,,,,,,,,MVFR,,,,,,,,,,,,METAR,236.0
VILK 070430Z 35006KT 5000 HZ NSC 35/19 Q1004 NOSIG,VILK,2023-06-07T04:30:00Z,26.75,80.88,35.0,19.0,350,6,,3.11,29.64567,,,,,,TRUE,,,,HZ,CLR,,,,,,,,MVFR,,,,,,,,,,,,METAR,121.0
VIJP 070430Z 29007KT 6000 NSC 33/16 Q1008 NOSIG,VIJP,2023-06-07T04:30:00Z,26.82,75.8,33.0,16.0,290,7,,3.73,29.763779,,,,,,TRUE,,,,,CLR,,,,,,,,MVFR,,,,,,,,,,,,METAR,383.0
VIGG 070430Z 00000KT 6000 FEW035 SCT080 24/16 Q1012,VIGG,2023-06-07T04:30:00Z,32.17,76.25,24.0,16.0,0,0,,3.73,29.88189,,,,,,,,,,,FEW,3500,SCT,8000,,,,,MVFR,,,,,,,,,,,,METAR,760.0
VIDP 070430Z 26006KT 3200 DU NSC 31/16 Q1006 NOSIG,VIDP,2023-06-07T04:30:00Z,28.57,77.12,31.0,16.0,260,6,,1.99,29.704725,,,,,,TRUE,,,,DU,CLR,,,,,,,,IFR,,,,,,,,,,,,METAR,236.0
VIDN 070430Z 30003KT 6000 FEW080 30/13 Q1008,VIDN,2023-06-07T04:30:00Z,30.2,78.18,30.0,13.0,300,3,,3.73,29.763779,,,,,,,,,,,FEW,8000,,,,,,,MVFR,,,,,,,,,,,,METAR,550.0
VIAR 070430Z 08008KT 4000 HZ SCT030 FEW035CB OVC090 24/20 Q1008 NOSIG,VIAR,2023-06-07T04:30:00Z,31.7,74.8,24.0,20.0,80,8,,2.49,29.763779,,,,,,TRUE,,,,HZ,SCT,3000,FEW,3500,OVC,9000,,,IFR,,,,,,,,,,,,METAR,226.0
VHHH 070430Z 16013KT 120V180 9999 FEW015 SCT025 31/25 Q1009 NOSIG,VHHH,2023-06-07T04:30:00Z,22.32,113.92,31.0,25.0,160,13,,6.21,29.793306,,,,,,TRUE,,,,,FEW,1500,SCT,2500,,,,,VFR,,,,,,,,,,,,METAR,9.0
VGHS 070430Z 29005KT 4000 HZ SCT015 BKN100 34/25 Q1003 NOSIG,VGHS,2023-06-07T04:30:00Z,23.85,90.4,34.0,25.0,290,5,,2.49,29.616142,,,,,,TRUE,,,,HZ,SCT,1500,BKN,10000,,,,,IFR,,,,,,,,,,,,METAR,11.0
VETJ 070430Z 00000KT 5000 HZ SCT018 BKN100 35/25 Q1003 NOSIG,VETJ,2023-06-07T04:30:00Z,27.93,96.13,35.0,25.0,0,0,,3.11,29.616142,,,,,,TRUE,,,,HZ,SCT,1800,BKN,10000,,,,,MVFR,,,,,,,,,,,,METAR,244.0
VERP 070430Z 02004KT 5000 HZ SCT100 38/15 Q1004 NOSIG,VERP,2023-06-07T04:30:00Z,21.18,81.73,38.0,15.0,20,4,,3.11,29.64567,,,,,,TRUE,,,,HZ,SCT,10000,,,,,,,MVFR,,,,,,,,,,,,METAR,318.0
VERC 070430Z 32004KT 6000 FEW100 36/17 Q1008 NOSIG,VERC,2023-06-07T04:30:00Z,23.32,85.32,36.0,17.0,320,4,,3.73,29.763779,,,,,,TRUE,,,,,FEW,10000,,,,,,,MVFR,,,,,,,,,,,,METAR,646.0
VEPY 070430Z 00000KT 5000 HZ FEW015 26/17 Q1014 NOSIG,VEPY,2023-06-07T04:30:00Z,27.22,88.58,26.0,17.0,0,0,,3.11,29.940945,,,,,,TRUE,,,,HZ,FEW,1500,,,,,,,MVFR,,,,,,,,,,,,METAR,1399.0
VEPT 070430Z 29005KT 5000 HZ NSC 39/20 Q1002 NOSIG,VEPT,2023-06-07T04:30:00Z,25.6,85.08,39.0,20.0,290,5,,3.11,29.586615,,,,,,TRUE,,,,HZ,CLR,,,,,,,,MVFR,,,,,,,,,,,,METAR,53.0
VEMR 070430Z 02005KT 3500 HZ SCT020 SCT100 34/24 Q1004 BECMG 5000 HZ,VEMR,2023-06-07T04:30:00Z,25.88,93.77,34.0,24.0,20,5,,2.17,29.64567,,,,,,,,,,HZ,SCT,2000,SCT,10000,,,,,IFR,,,,,,,,,,,,METAR,147.0
VEMN 070430Z 14003KT 5000 HZ FEW020 BKN100 33/25 Q1003 NOSIG,VEMN,2023-06-07T04:30:00Z,27.47,95.02,33.0,25.0,140,3,,3.11,29.616142,,,,,,TRUE,,,,HZ,FEW,2000,BKN,10000,,,,,MVFR,,,,,,,,,,,,METAR,111.0
VELP 070430Z 00000KT 5000 HZ FEW020 SCT100 33/24 Q1005 NOSIG,VELP,2023-06-07T04:30:00Z,23.83,92.62,33.0,24.0,0,0,,3.11,29.675198,,,,,,TRUE,,,,HZ,FEW,2000,SCT,10000,,,,,MVFR,,,,,,,,,,,,METAR,429.0
VEIM 070430Z 31001KT 5000 HZ FEW018 SCT100 33/24 Q1008 NOSIG,VEIM,2023-06-07T04:30:00Z,24.77,93.9,33.0,24.0,310,1,,3.11,29.763779,,,,,,TRUE,,,,HZ,FEW,1800,SCT,10000,,,,,MVFR,,,,,,,,,,,,METAR,777.0
VEGY 070430Z 24004KT 5000 HZ NSC 39/16 Q1003 NOSIG,VEGY,2023-06-07T04:30:00Z,24.75,84.95,39.0,16.0,240,4,,3.11,29.616142,,,,,,TRUE,,,,HZ,CLR,,,,,,,,MVFR,,,,,,,,,,,,METAR,115.0
VEGT 070430Z 33003KT 4000 HZ FEW018 SCT100 35/29 Q1003 NOSIG,VEGT,2023-06-07T04:30:00Z,26.1,91.58,35.0,29.0,330,3,,2.49,29.616142,,,,,,TRUE,,,,HZ,FEW,1800,SCT,10000,,,,,IFR,,,,,,,,,,,,METAR,50.0
VEDG 070430Z 26005KT 3000 HZ FEW100 37/22 Q1002 NOSIG,VEDG,2023-06-07T04:30:00Z,23.62,87.25,37.0,22.0,260,5,,1.86,29.586615,,,,,,TRUE,,,,HZ,FEW,10000,,,,,,,IFR,,,,,,,,,,,,METAR,88.0
VECO 070430Z 07003KT 5000 HZ NSC 34/26 Q1003 NOSIG,VECO,2023-06-07T04:30:00Z,26.33,89.47,34.0,26.0,70,3,,3.11,29.616142,,,,,,TRUE,,,,HZ,CLR,,,,,,,,MVFR,,,,,,,,,,,,METAR,48.0
VECC 070430Z 24003KT 3500 HZ FEW020 SCT100 36/26 Q1002 NOSIG,VECC,2023-06-07T04:30:00Z,22.65,88.43,36.0,26.0,240,3,,2.17,29.586615,,,,,,TRUE,,,,HZ,FEW,2000,SCT,10000,,,,,IFR,,,,,,,,,,,,METAR,11.0
VEBS 070430Z 24005KT 4000 HZ FEW018 35/28 Q1004 BECMG 5000 HZ,VEBS,2023-06-07T04:30:00Z,20.25,85.82,35.0,28.0,240,5,,2.49,29.64567,,,,,,,,,,HZ,FEW,1800,,,,,,,IFR,,,,,,,,,,,,METAR,42.0
VEBN 070430Z 32003KT 3500 HZ NSC 40/17 Q1003 NOSIG,VEBN,2023-06-07T04:30:00Z,25.45,82.85,40.0,17.0,320,3,,2.17,29.616142,,,,,,TRUE,,,,HZ,CLR,,,,,,,,IFR,,,,,,,,,,,,METAR,81.0
VEBI 070430Z 14006KT 3000 HZ SCT020 SCT090 29/21 Q1010 NOSIG,VEBI,2023-06-07T04:30:00Z,25.7,91.98,29.0,21.0,140,6,,1.86,29.822834,,,,,,TRUE,,,,HZ,SCT,2000,SCT,9000,,,,,IFR,,,,,,,,,,,,METAR,892.0
VEAT 070430Z 21004KT 5000 HZ SCT020 BKN100 33/26 Q1003 NOSIG,VEAT,2023-06-07T04:30:00Z,23.88,91.25,33.0,26.0,210,4,,3.11,29.616142,,,,,,TRUE,,,,HZ,SCT,2000,BKN,10000,,,,,MVFR,,,,,,,,,,,,METAR,20.0
VDSV 070430Z VRB01KT 9999 SCT015 SCT040 29/26 Q1010,VDSV,2023-06-07T04:30:00Z,10.58,103.63,29.0,26.0,0,1,,6.21,29.822834,,,,,,,,,,,SCT,1500,SCT,4000,,,,,VFR,,,,,,,,,,,,METAR,1.0
VDSR 070430Z 19007KT 160V250 9999 SCT015 31/25 Q1008,VDSR,2023-06-07T04:30:00Z,13.42,103.8,31.0,25.0,190,7,,6.21,29.763779,,,,,,,,,,,SCT,1500,,,,,,,VFR,,,,,,,,,,,,METAR,16.0
VDPP 070430Z 20006KT 160V230 9999 SCT017 SCT040 32/26 Q1008,VDPP,2023-06-07T04:30:00Z,11.55,104.83,32.0,26.0,200,6,,6.21,29.763779,,,,,,,,,,,SCT,1700,SCT,4000,,,,,VFR,,,,,,,,,,,,METAR,10.0
VAUD 070430Z 18002KT 6000 NSC 31/22 Q1009 NOSIG,VAUD,2023-06-07T04:30:00Z,24.62,73.9,31.0,22.0,180,2,,3.73,29.793306,,,,,,TRUE,,,,,CLR,,,,,,,,MVFR,,,,,,,,,,,,METAR,506.0
VASU 070430Z 20009KT 6000 FEW025 SCT030 32/25 Q1008 NOSIG,VASU,2023-06-07T04:30:00Z,21.12,72.73,32.0,25.0,200,9,,3.73,29.763779,,,,,,TRUE,,,,,FEW,2500,SCT,3000,,,,,MVFR,,,,,,,,,,,,METAR,6.0
VANP 070430Z 36005KT 5000 HZ NSC 37/21 Q1006 NOSIG,VANP,2023-06-07T04:30:00Z,21.08,79.05,37.0,21.0,360,5,,3.11,29.704725,,,,,,TRUE,,,,HZ,CLR,,,,,,,,MVFR,,,,,,,,,,,,METAR,309.0
VAKP 070430Z 26006KT 8000 FEW020 29/20 Q1011,VAKP,2023-06-07T04:30:00Z,16.65,74.28,29.0,20.0,260,6,,4.97,29.852362,,,,,,,,,,,FEW,2000,,,,,,,MVFR,,,,,,,,,,,,METAR,612.0
VAJJ 070430Z 23005KT 5000 HZ SCT020 32/25 Q1007 NOSIG,VAJJ,2023-06-07T04:30:00Z,19.08,72.83,32.0,25.0,230,5,,3.11,29.734253,,,,,,TRUE,,,,HZ,SCT,2000,,,,,,,MVFR,,,,,,,,,,,,METAR,1.0
VAJB 070430Z 01005KT 6000 NSC 35/18 Q1007 NOSIG,VAJB,2023-06-07T04:30:00Z,23.18,80.05,35.0,18.0,10,5,,3.73,29.734253,,,,,,TRUE,,,,,CLR,,,,,,,,MVFR,,,,,,,,,,,,METAR,489.0
VAID 070430Z 30007KT 5000 HZ FEW100 32/21 Q1010 NOSIG,VAID,2023-06-07T04:30:00Z,22.72,75.8,32.0,21.0,300,7,,3.11,29.822834,,,,,,TRUE,,,,HZ,FEW,10000,,,,,,,MVFR,,,,,,,,,,,,METAR,564.0
VABP 070430Z 33012KT 6000 FEW100 34/12 Q1008 NOSIG,VABP,2023-06-07T04:30:00Z,23.28,77.33,34.0,12.0,330,12,,3.73,29.763779,,,,,,TRUE,,,,,FEW,10000,,,,,,,MVFR,,,,,,,,,,,,METAR,520.0
VABO 070430Z 21005KT 5000 HZ SCT020 SCT025 32/24 Q1007 NOSIG,VABO,2023-06-07T04:30:00Z,22.33,73.22,32.0,24.0,210,5,,3.11,29.734253,,,,,,TRUE,,,,HZ,SCT,2000,SCT,2500,,,,,MVFR,,,,,,,,,,,,METAR,36.0
VABB 070430Z 26009KT 4000 HZ FEW020 SCT025 32/25 Q1008 NOSIG,VABB,2023-06-07T04:30:00Z,19.1,72.87,32.0,25.0,260,9,,2.49,29.763779,,,,,,TRUE,,,,HZ,FEW,2000,SCT,2500,,,,,IFR,,,,,,,,,,,,METAR,14.0
VAAH 070430Z 23006KT 4000 FU FEW015 SCT020 32/23 Q1007 NOSIG,VAAH,2023-06-07T04:30:00Z,23.07,72.63,32.0,23.0,230,6,,2.49,29.734253,,,,,,TRUE,,,,FU,FEW,1500,SCT,2000,,,,,IFR,,,,,,,,,,,,METAR,52.0
UWWW 070430Z 29003MPS 250V320 CAVOK 17/08 Q1016 R33/CLRD60 NOSIG RMK QFE751/1002,UWWW,2023-06-07T04:30:00Z,53.5,50.17,17.0,8.0,290,6,,6.21,30.0,,,,,,TRUE,,,,,CAVOK,,,,,,,,VFR,,,,,,,,,,,,SPECI,124.0
UWUU 070430Z 30005MPS CAVOK 16/09 Q1012 R32L/0///60 NOSIG,UWUU,2023-06-07T04:30:00Z,54.57,55.87,16.0,9.0,300,10,,6.21,29.88189,,,,,,TRUE,,,,,CAVOK,,,,,,,,VFR,,,,,,,,,,,,SPECI,137.0
UWSG 070430Z 28003MPS CAVOK 14/09 Q1019 R26/CLRD70 NOSIG RMK QFE761/1015,UWSG,2023-06-07T04:30:00Z,51.72,46.17,14.0,9.0,280,6,,6.21,30.088583,,,,,,TRUE,,,,,CAVOK,,,,,,,,VFR,,,,,,,,,,,,METAR,31.0
UWPS 070430Z 25002MPS CAVOK 16/08 Q1019 R20/CLRD60 NOSIG RMK QFE746,UWPS,2023-06-07T04:30:00Z,54.12,45.2,16.0,8.0,250,4,,6.21,30.088583,,,,,,TRUE,,,,,CAVOK,,,,,,,,VFR,,,,,,,,,,,,METAR,206.0
UWOO 070430Z 33009MPS 9999 SCT040 17/08 Q1012 R26/60D NOSIG RMK QFE749/0998,UWOO,2023-06-07T04:30:00Z,51.8,55.47,17.0,8.0,330,17,,6.21,29.88189,,,,,,TRUE,,,,,SCT,4000,,,,,,,VFR,,,,,,,,,,,,METAR,90.0
UWLL 070430Z 30003MPS 270V330 CAVOK 18/07 Q1017 R20/090065 NOSIG RMK QFE752/1003,UWLL,2023-06-07T04:30:00Z,54.27,48.23,18.0,7.0,300,6,,6.21,30.029528,,,,,,TRUE,,,,,CAVOK,,,,,,,,VFR,,,,,,,,,,,,SPECI,119.0
UWKS 070430Z 30004MPS 9999 FEW040 16/09 Q1016 R24/010060 NOSIG RMK QFE748,UWKS,2023-06-07T04:30:00Z,56.08,47.35,16.0,9.0,300,8,,6.21,30.0,,,,,,TRUE,,,,,FEW,4000,,,,,,,VFR,,,,,,,,,,,,METAR,165.0
UWKE 070430Z 33004MPS CAVOK 17/07 Q1014 R03/090070 NOSIG RMK QFE744/0992,UWKE,2023-06-07T04:30:00Z,55.57,52.08,17.0,7.0,330,8,,6.21,29.940945,,,,,,TRUE,,,,,CAVOK,,,,,,,,VFR,,,,,,,,,,,,SPECI,193.0
UWKD 070430Z 32004MPS CAVOK 16/08 Q1016 R29/70D NOSIG RMK QFE750/1001,UWKD,2023-06-07T04:30:00Z,55.62,49.28,16.0,8.0,320,8,,6.21,30.0,,,,,,TRUE,,,,,CAVOK,,,,,,,,VFR,,,,,,,,,,,,METAR,114.0
UWGG 070430Z 30002MPS CAVOK 16/10 Q1017 R36R/090070 NOSIG,UWGG,2023-06-07T04:30:00Z,56.23,43.78,16.0,10.0,300,4,,6.21,30.029528,,,,,,TRUE,,,,,CAVOK,,,,,,,,VFR,,,,,,,,,,,,SPECI,73.0
UUYY 070430Z 35002MPS 320V030 9999 FEW026 12/05 Q1013 R36/61D NOSIG RMK QFE751/1001,UUYY,2023-06-07T04:30:00Z,61.65,50.83,12.0,5.0,350,4,,6.21,29.911417,,,,,,TRUE,,,,,FEW,2600,,,,,,,VFR,,,,,,,,,,,,METAR,107.0
UUWW 070430Z 26002MPS CAVOK 16/09 Q1020 R24/000065 NOSIG,UUWW,2023-06-07T04:30:00Z,55.6,37.27,16.0,9.0,260,4,,6.21,30.11811,,,,,,TRUE,,,,,CAVOK,,,,,,,,VFR,,,,,,,,,,,,SPECI,195.0
UUOO 070430Z 05002MPS 010V100 CAVOK 18/08 Q1021 R30/010070 NOSIG RMK QFE752,UUOO,2023-06-07T04:30:00Z,51.82,39.23,18.0,8.0,50,4,,6.21,30.147638,,,,,,TRUE,,,,,CAVOK,,,,,,,,VFR,,,,,,,,,,,,SPECI,154.0
UUOL 070430Z 28003MPS CAVOK 17/09 Q1021 R33/////// NOSIG,UUOL,2023-06-07T04:30:00Z,52.7,39.53,17.0,9.0,280,6,,6.21,30.147638,,,,,,TRUE,,,,,CAVOK,,,,,,,,VFR,,,,,,,,,,,,METAR,176.0
UUOK 070430Z 09002MPS 060V150 CAVOK 18/08 Q1022 R30/090060 NOSIG RMK QFE747/0997,UUOK,2023-06-07T04:30:00Z,51.75,36.28,18.0,8.0,90,4,,6.21,30.177166,,,,,,TRUE,,,,,CAVOK,,,,,,,,VFR,,,,,,,,,,,,METAR,203.0
UUOB 070430Z 22001MPS CAVOK 17/06 Q1021 R29/010070 NOSIG,UUOB,2023-06-07T04:30:00Z,50.65,36.58,17.0,6.0,220,2,,6.21,30.147638,,,,,,TRUE,,,,,CAVOK,,,,,,,,VFR,,,,,,,,,,,,METAR,218.0
UUMO 070430Z 26002MPS 230V290 CAVOK 15/09 Q1020 R25/CLRD60 NOSIG RMK QFE750/1000,UUMO,2023-06-07T04:30:00Z,55.52,37.5,15.0,9.0,260,4,,6.21,30.11811,,,,,,TRUE,,,,,CAVOK,,,,,,,,VFR,,,,,,,,,,,,METAR,167.0
UUEE 070430Z 22002MPS 190V250 CAVOK 16/09 Q1019 R24L/CLRD62 R24C/CLRD62 NOSIG,UUEE,2023-06-07T04:30:00Z,55.97,37.42,16.0,9.0,220,4,,6.21,30.088583,,,,,,TRUE,,,,,CAVOK,,,,,,,,VFR,,,,,,,,,,,,SPECI,186.0
UUDL 070430Z 25002MPS 200V270 CAVOK 15/09 Q1018 R23/010060 NOSIG RMK QFE755,UUDL,2023-06-07T04:30:00Z,57.57,40.17,15.0,9.0,250,4,,6.21,30.059055,,,,,,TRUE,,,,,CAVOK,,,,,,,,VFR,,,,,,,,,,,,METAR,88.0
UUDD 070430Z 28003MPS CAVOK 16/09 Q1020 R32L/CLRD60 NOSIG,UUDD,2023-06-07T04:30:00Z,55.4,37.9,16.0,9.0,280,6,,6.21,30.11811,,,,,,TRUE,,,,,CAVOK,,,,,,,,VFR,,,,,,,,,,,,METAR,165.0
UUBW 070430Z 26002MPS CAVOK 17/10 Q1020 R30/010060 NOSIG RMK QFE754,UUBW,2023-06-07T04:30:00Z,55.55,38.15,17.0,10.0,260,4,,6.21,30.11811,,,,,,TRUE,,,,,CAVOK,,,,,,,,VFR,,,,,,,,,,,,METAR,111.0
UUBP 070430Z 00000MPS CAVOK 18/08 Q1022 R34/////// NOSIG RMK QFE749/0999,UUBP,2023-06-07T04:30:00Z,53.22,34.18,18.0,8.0,0,0,,6.21,30.177166,,,,,,TRUE,,,,,CAVOK,,,,,,,,VFR,,,,,,,,,,,,SPECI,197.0
UUBC 070430Z VRB01MPS CAVOK 15/10 Q1021 R31/CLRD60 NOSIG RMK QFE749/0999,UUBC,2023-06-07T04:30:00Z,54.55,36.37,15.0,10.0,0,2,,6.21,30.147638,,,,,,TRUE,,,,,CAVOK,,,,,,,,VFR,,,,,,,,,,,,METAR,198.0
UTTT 070430Z 04006KT CAVOK 35/03 Q1011 R08R/CLRD70 NOSIG,UTTT,2023-06-07T04:30:00Z,41.27,69.27,35.0,3.0,40,6,,6.21,29.852362,,,,,,TRUE,,,,,CAVOK,,,,,,,,VFR,,,,,,,,,,,,METAR,429.0
UTST 070430Z 19006KT 160V220 CAVOK 32/02 Q1008 R25/CLRD70 NOSIG,UTST,2023-06-07T04:30:00Z,37.28,67.32,32.0,2.0,190,6,,6.21,29.763779,,,,,,TRUE,,,,,CAVOK,,,,,,,,VFR,,,,,,,,,,,,SPECI,311.0
UTSS 070430Z 12004KT 050V180 9999 NSC 33/05 Q1011 R09/CLRD70 NOSIG,UTSS,2023-06-07T04:30:00Z,39.7,66.98,33.0,5.0,120,4,,6.21,29.852362,,,,,,TRUE,,,,,CLR,,,,,,,,VFR,,,,,,,,,,,,SPECI,665.0
UTSK 070430Z VRB02KT CAVOK 32/06 Q1009 R16/CLRD70,UTSK,2023-06-07T04:30:00Z,38.8,65.77,32.0,6.0,0,2,,6.21,29.793306,,,,,,,,,,,CAVOK,,,,,,,,VFR,,,,,,,,,,,,SPECI,399.0
UTSB 070430Z 36006KT 330V030 CAVOK 35/10 Q1009 R01/CLRD70 NOSIG,UTSB,2023-06-07T04:30:00Z,39.77,64.48,35.0,10.0,360,6,,6.21,29.793306,,,,,,TRUE,,,,,CAVOK,,,,,,,,VFR,,,,,,,,,,,,SPECI,225.0
UTSA 070430Z 01006KT 8000 NSC 33/05 Q1010 R07/CLRD70 NOSIG,UTSA,2023-06-07T04:30:00Z,40.12,65.17,33.0,5.0,10,6,,4.97,29.822834,,,,,,TRUE,,,,,CLR,,,,,,,,MVFR,,,,,,,,,,,,SPECI,346.0
UTNU 070430Z 05010KT CAVOK 32/13 Q1010 R31/CLRD70 NOSIG,UTNU,2023-06-07T04:30:00Z,41.58,60.63,32.0,13.0,50,10,,6.21,29.822834,,,,,,TRUE,,,,,CAVOK,,,,,,,,VFR,,,,,,,,,,,,SPECI,97.0
UTNN 070430Z 32010KT CAVOK 31/13 Q1011 R33/CLRD60 NOSIG,UTNN,2023-06-07T04:30:00Z,42.48,59.63,31.0,13.0,320,10,,6.21,29.852362,,,,,,TRUE,,,,,CAVOK,,,,,,,,VFR,,,,,,,,,,,,SPECI,76.0
UTFN 070430Z 12006KT 090V160 9999 FEW050CB 32/04 Q1012 R28/CLRD70 NOSIG,UTFN,2023-06-07T04:30:00Z,40.98,71.57,32.0,4.0,120,6,,6.21,29.88189,,,,,,TRUE,,,,,FEW,5000,,,,,,,VFR,,,,,,,,,,,,METAR,477.0
UTFF 070430Z 01004KT 9999 NSC 30/09 Q1013 R18/CLRD70,UTFF,2023-06-07T04:30:00Z,40.37,71.73,30.0,9.0,10,4,,6.21,29.911417,,,,,,,,,,,CLR,,,,,,,,VFR,,,,,,,,,,,,METAR,612.0
UTDT 070430Z 09003MPS 030V150 9999 FEW130 35/06 Q1008 R35/CLRD70 RMK QFE717/0956,UTDT,2023-06-07T04:30:00Z,37.87,68.87,35.0,6.0,90,6,,6.21,29.763779,,,,,,,,,,,FEW,13000,,,,,,,VFR,,,,,,,,,,,,METAR,443.0
UTDL 070430Z 07007MPS 9999 NSC 30/07 Q1012 R08/CLRD70 NOSIG RMK QFE720/0960,UTDL,2023-06-07T04:30:00Z,40.22,69.7,30.0,7.0,70,14,,6.21,29.88189,,,,,,TRUE,,,,,CLR,,,,,,,,VFR,,,,,,,,,,,,SPECI,436.0
UTDK 070430Z VRB01MPS 9999 NSC 33/06 Q1011 R01/09//70 RMK QFE701/0935,UTDK,2023-06-07T04:30:00Z,37.98,69.8,33.0,6.0,0,2,,6.21,29.852362,,,,,,,,,,,CLR,,,,,,,,VFR,,,,,,,,,,,,METAR,675.0
UTDD 070430Z 09005MPS 9999 NSC 31/08 Q1012 R09/D NOSIG RMK QFE691/0922,UTDD,2023-06-07T04:30:00Z,38.53,68.82,31.0,8.0,90,10,,6.21,29.88189,,,,,,TRUE,,,,,CLR,,,,,,,,VFR,,,,,,,,,,,,METAR,785.0
USTR 070430Z VRB01MPS CAVOK 23/12 Q1003 R21/190063 R12/190063 NOSIG,USTR,2023-06-07T04:30:00Z,57.18,65.32,23.0,12.0,0,2,,6.21,29.616142,,,,,,TRUE,,,,,CAVOK,,,,,,,,VFR,,,,,,,,,,,,SPECI,93.0
USSS 070430Z 02004MPS 9999 -SHRA BKN007 OVC026CB 13/12 Q1006 R26L/250055 TEMPO BKN007 BKN020CB RMK QFE734/0978,USSS,2023-06-07T04:30:00Z,56.75,60.78,13.0,12.0,20,8,,6.21,29.704725,,,,,,,,,,-SHRA,BKN,700,OVC,2600,,,,,IFR,,,,,,,,,,,,SPECI,222.0
USRR 070430Z 20002MPS CAVOK 23/05 Q1007 R07/CLRD60 NOSIG RMK QFE750,USRR,2023-06-07T04:30:00Z,61.33,73.42,23.0,5.0,200,4,,6.21,29.734253,,,,,,TRUE,,,,,CAVOK,,,,,,,,VFR,,,,,,,,,,,,SPECI,52.0
USPP 070430Z 30003MPS 270V350 CAVOK 15/09 Q1010 R21/090060 NOSIG RMK QFE747,USPP,2023-06-07T04:30:00Z,57.92,56.02,15.0,9.0,300,6,,6.21,29.822834,,,,,,TRUE,,,,,CAVOK,,,,,,,,VFR,,,,,,,,,,,,SPECI,120.0
USNN 070430Z 05001MPS CAVOK 25/14 Q1005 R03/0///65 NOSIG RMK QFE750,USNN,2023-06-07T04:30:00Z,60.95,76.48,25.0,14.0,50,2,,6.21,29.675198,,,,,,TRUE,,,,,CAVOK,,,,,,,,VFR,,,,,,,,,,,,SPECI,52.0
USHH 070430Z 05001MPS 9999 -RA NSC 17/12 Q1007 R24/010060 NOSIG,USHH,2023-06-07T04:30:00Z,61.03,69.08,17.0,12.0,50,2,,6.21,29.734253,,,,,,TRUE,,,,-RA,CLR,,,,,,,,VFR,,,,,,,,,,,,METAR,46.0
USDA 070430Z 22008MPS 9999 SCT029 08/04 Q1000 R22/CLRD60 NOSIG RMK QFE749/0999,USDA,2023-06-07T04:30:00Z,71.2,72.05,8.0,4.0,220,16,,6.21,29.52756,,,,,,TRUE,,,,,SCT,2900,,,,,,,VFR,,,,,,,,,,,,METAR,5.0
USCM 070430Z 30004MPS 9999 SCT030CB 16/11 Q1007 R36/////// TEMPO VRB20MPS 2000 TSRA SQ VV005 RMK QFE717,USCM,2023-06-07T04:30:00Z,53.4,58.75,16.0,11.0,300,8,,6.21,29.734253,,,,,,,,,,,SCT,3000,,,,,,,VFR,,,,,,,,,,,,METAR,425.0
USCC 070430Z 27003MPS 250V320 9999 BKN013CB 19/17 Q1005 R27/120055 NOSIG RMK QFE734,USCC,2023-06-07T04:30:00Z,55.3,61.5,19.0,17.0,270,6,,6.21,29.675198,,,,,,TRUE,,,,,BKN,1300,,,,,,,MVFR,,,,,,,,,,,,SPECI,227.0
URWW 070430Z 34004MPS CAVOK 20/06 Q1021 R23/010070 NOSIG,URWW,2023-06-07T04:30:00Z,48.78,44.33,20.0,6.0,340,8,,6.21,30.147638,,,,,,TRUE,,,,,CAVOK,,,,,,,,VFR,,,,,,,,,,,,SPECI,131.0
URWI 070430Z AUTO 36002MPS 9999 // ///079/// 17/07 Q1020,URWI,2023-06-07T04:30:00Z,46.37,44.33,17.0,7.0,360,4,,6.21,30.11811,,,TRUE,,,,,,,,,,,,,,,,,,,,,,,,,,,,SPECI,145.0
URWA 070430Z 10005MPS CAVOK 22/08 Q1019 R09/010070 NOSIG RMK QFE766/1021,URWA,2023-06-07T04:30:00Z,46.28,47.98,22.0,8.0,100,10,,6.21,30.088583,,,,,,TRUE,,,,,CAVOK,,,,,,,,VFR,,,,,,,,,,,,SPECI,-19.0
URSS 070430Z 03003MPS 9999 BKN049 20/16 Q1016 R02/010070 R06/010070 NOSIG RMK R06/08003MPS QFE761,URSS,2023-06-07T04:30:00Z,43.45,39.92,20.0,16.0,30,6,,6.21,30.0,,,,,,TRUE,,,,,BKN,4900,,,,,,,VFR,,,,,,,,,,,,METAR,4.0
URRP 070430Z 30002MPS 260V330 CAVOK 16/11 Q1022 R05/CLRD70 NOSIG RMK QFE761/1015,URRP,2023-06-07T04:30:00Z,47.5,39.92,16.0,11.0,300,4,,6.21,30.177166,,,,,,TRUE,,,,,CAVOK,,,,,,,,VFR,,,,,,,,,,,,METAR,73.0
URMT 070430Z 07003MPS CAVOK 17/10 Q1021 R07/010070 NOSIG RMK QFE725,URMT,2023-06-07T04:30:00Z,45.12,42.12,17.0,10.0,70,6,,6.21,30.147638,,,,,,TRUE,,,,,CAVOK,,,,,,,,VFR,,,,,,,,,,,,SPECI,448.0
URMO 070430Z 08004MPS 9999 -SHRA SCT/// OVC039CB 13/11 Q1021 R09/290250 TEMPO 0300 -SHRA FG BKN002 BKN030CB RMK QFE722/0963,URMO,2023-06-07T04:30:00Z,43.2,44.6,13.0,11.0,80,8,,6.21,30.147638,,,,,,,,,,-SHRA,OVC,3900,,,,,,,VFR,,,,,,,,,,,,METAR,505.0
URMM 070430Z 27002MPS 9999 -SHRA OVC060CB 15/12 Q1021 R12/290150 NOSIG RMK QFE737/0983,URMM,2023-06-07T04:30:00Z,44.22,43.07,15.0,12.0,270,4,,6.21,30.147638,,,,,,TRUE,,,,-SHRA,OVC,6000,,,,,,,VFR,,,,,,,,,,,,SPECI,318.0
URML 070430Z 31002MPS 280V360 9999 FEW062CB 21/16 Q1018 R32/290060 NOSIG RMK QFE763/1017,URML,2023-06-07T04:30:00Z,42.82,47.65,21.0,16.0,310,4,,6.21,30.059055,,,,,,TRUE,,,,,FEW,6200,,,,,,,VFR,,,,,,,,,,,,SPECI,4.0
URMG 070430Z 26004MPS 9000 -SHRA FEW/// BKN048CB 14/13 Q1021 R26/290250 TEMPO 0300 -SHRA FG BKN002 BKN030CB RMK QFE751/1001,URMG,2023-06-07T04:30:00Z,43.38,45.7,14.0,13.0,260,8,,5.59,30.147638,,,,,,,,,,-SHRA,BKN,4800,,,,,,,VFR,,,,,,,,,,,,METAR,160.0
URKK 070430Z 05005MPS CAVOK 19/12 Q1019 R05R/CLRD70 NOSIG RMK QFE761,URKK,2023-06-07T04:30:00Z,45.03,39.15,19.0,12.0,50,10,,6.21,30.088583,,,,,,TRUE,,,,,CAVOK,,,,,,,,VFR,,,,,,,,,,,,SPECI,29.0
URKA 070430Z 07005MPS 9999 FEW/// 18/11 Q1019 R04/010070 TEMPO SCT040 RMK QFE760/1014,URKA,2023-06-07T04:30:00Z,45.0,37.35,18.0,11.0,70,10,,6.21,30.088583,,,,,,,,,,,,,,,,,,,,,,,,,,,,,,,SPECI,41.0
UOOO 070430Z 19007MPS CAVOK 15/06 Q1007 R19/CLRD60 NOSIG RMK QFE739/0986,UOOO,2023-06-07T04:30:00Z,69.32,87.33,15.0,6.0,190,14,,6.21,29.734253,,,,,,TRUE,,,,,CAVOK,,,,,,,,VFR,,,,,,,,,,,,SPECI,177.0
UNWW 070430Z VRB02MPS CAVOK 32/14 Q1010 R19/09//60 NOSIG RMK QFE731,UNWW,2023-06-07T04:30:00Z,53.82,86.88,32.0,14.0,0,4,,6.21,29.822834,,,,,,TRUE,,,,,CAVOK,,,,,,,,VFR,,,,,,,,,,,,SPECI,307.0
UNTT 070430Z 11003MPS CAVOK 32/15 Q1008 R21/090060 NOSIG RMK QFE740,UNTT,2023-06-07T04:30:00Z,56.38,85.22,32.0,15.0,110,6,,6.21,29.763779,,,,,,TRUE,,,,,CAVOK,,,,,,,,VFR,,,,,,,,,,,,METAR,179.0
UNOO 070430Z 17001MPS CAVOK 31/09 Q1005 R25/CLRD60 NOSIG RMK QFE746,UNOO,2023-06-07T04:30:00Z,54.97,73.32,31.0,9.0,170,2,,6.21,29.675198,,,,,,TRUE,,,,,CAVOK,,,,,,,,VFR,,,,,,,,,,,,SPECI,85.0
UNNT 070430Z 14003MPS CAVOK 34/13 Q1007 R25/090070 R34/090070 NOSIG RMK QFE745/0994,UNNT,2023-06-07T04:30:00Z,55.02,82.65,34.0,13.0,140,6,,6.21,29.734253,,,,,,TRUE,,,,,CAVOK,,,,,,,,VFR,,,,,,,,,,,,SPECI,106.0
UNKL 070430Z 13001MPS 9000 NSC 30/17 Q1012 R11/CLRD65 NOSIG RMK QFE734,UNKL,2023-06-07T04:30:00Z,56.17,92.48,30.0,17.0,130,2,,5.59,29.88189,,,,,,TRUE,,,,,CLR,,,,,,,,VFR,,,,,,,,,,,,SPECI,278.0
UNEE 070430Z 12003MPS CAVOK 31/15 Q1010 R23/CLRD60 NOSIG RMK QFE734,UNEE,2023-06-07T04:30:00Z,55.27,86.1,31.0,15.0,120,6,,6.21,29.822834,,,,,,TRUE,,,,,CAVOK,,,,,,,,VFR,,,,,,,,,,,,SPECI,261.0
UNBB 070430Z 19004MPS CAVOK 34/07 Q1009 R24/CLRD66 NOSIG RMK QFE734,UNBB,2023-06-07T04:30:00Z,53.37,83.53,34.0,7.0,190,8,,6.21,29.793306,,,,,,TRUE,,,,,CAVOK,,,,,,,,VFR,,,,,,,,,,,,SPECI,249.0
UNAA 070430Z 04002MPS 350V070 CAVOK 30/14 Q1012 R20/CLRD67 NOSIG RMK QFE737,UNAA,2023-06-07T04:30:00Z,53.75,91.4,30.0,14.0,40,4,,6.21,29.88189,,,,,,TRUE,,,,,CAVOK,,,,,,,,VFR,,,,,,,,,,,,SPECI,249.0
UMMS 070430Z VRB01MPS CAVOK 15/07 Q1020 NOSIG,UMMS,2023-06-07T04:30:00Z,53.88,28.03,15.0,7.0,0,2,,6.21,30.11811,,,,,,TRUE,,,,,CAVOK,,,,,,,,VFR,,,,,,,,,,,,METAR,196.0
UMKK 070430Z 00000MPS CAVOK 17/14 Q1019 R24/CLRD95 NOSIG RMK QFE763/1018,UMKK,2023-06-07T04:30:00Z,54.88,20.57,17.0,14.0,0,0,,6.21,30.088583,,,,,,TRUE,,,,,CAVOK,,,,,,,,VFR,,,,,,,,,,,,SPECI,6.0
UMIO 070430Z 24002MPS CAVOK 15/07 Q1021 NOSIG RMK QFE748/0997,UMIO,2023-06-07T04:30:00Z,54.43,30.3,15.0,7.0,240,4,,6.21,30.147638,,,,,,TRUE,,,,,CAVOK,,,,,,,,VFR,,,,,,,,,,,,METAR,189.0
UMGG 070430Z 10003MPS CAVOK 14/07 Q1022 NOSIG,UMGG,2023-06-07T04:30:00Z,52.53,31.02,14.0,7.0,100,6,,6.21,30.177166,,,,,,TRUE,,,,,CAVOK,,,,,,,,VFR,,,,,,,,,,,,METAR,135.0
ULWC 070430Z 00000MPS 9999 SCT026CB 08/07 Q1016 R21/190060 NOSIG RMK QFE752/1002,ULWC,2023-06-07T04:30:00Z,59.28,38.02,8.0,7.0,0,0,,6.21,30.0,,,,,,TRUE,,,,,SCT,2600,,,,,,,VFR,,,,,,,,,,,,METAR,113.0
ULPB 070430Z 00000MPS 7000 -RA OVC028 07/07 Q1014 RERA R19/290350 NOSIG RMK QFE757/1009,ULPB,2023-06-07T04:30:00Z,61.88,34.15,7.0,7.0,0,0,,4.35,29.940945,,,,,,TRUE,,,,-RA,OVC,2800,,,,,,,MVFR,,,,,,,,,,,,METAR,41.0
ULOO 070430Z 30005MPS CAVOK 14/10 Q1018 R19/090060 NOSIG RMK QFE759,ULOO,2023-06-07T04:30:00Z,57.78,28.4,14.0,10.0,300,10,,6.21,30.059055,,,,,,TRUE,,,,,CAVOK,,,,,,,,VFR,,,,,,,,,,,,SPECI,46.0
ULMM 070430Z 29004MPS CAVOK 06/M01 Q1016 R31/090070 NOSIG RMK QFE755,ULMM,2023-06-07T04:30:00Z,68.78,32.75,6.0,-1.0,290,8,,6.21,30.0,,,,,,TRUE,,,,,CAVOK,,,,,,,,VFR,,,,,,,,,,,,SPECI,79.0
ULLI 070430Z 31007MPS 9999 FEW026 13/08 Q1016 R88/190055 NOSIG,ULLI,2023-06-07T04:30:00Z,59.8,30.27,13.0,8.0,310,14,,6.21,30.0,,,,,,TRUE,,,,,FEW,2600,,,,,,,VFR,,,,,,,,,,,,SPECI,25.0
UIUU 070430Z 33006MPS 300V360 9000 NSC 21/M01 Q1014 R26/60D NOSIG RMK QFE716/0955,UIUU,2023-06-07T04:30:00Z,51.8,107.45,21.0,-1.0,330,12,,5.59,29.940945,,,,,,TRUE,,,,,CLR,,,,,,,,VFR,,,,,,,,,,,,METAR,508.0
UIII 070430Z 28002MPS 210V020 CAVOK 22/03 Q1015 R30/CLRD60 NOSIG RMK QFE717/0956,UIII,2023-06-07T04:30:00Z,52.27,104.37,22.0,3.0,280,4,,6.21,29.970472,,,,,,TRUE,,,,,CAVOK,,,,,,,,VFR,,,,,,,,,,,,SPECI,480.0
UIBB 070430Z 20003MPS 150V310 9999 NSC 23/09 Q1012 R30/CLRD60 NOSIG RMK QFE716/0955,UIBB,2023-06-07T04:30:00Z,56.37,101.7,23.0,9.0,200,6,,6.21,29.88189,,,,,,TRUE,,,,,CLR,,,,,,,,VFR,,,,,,,,,,,,SPECI,485.0
UIAA 070430Z 33007MPS 9999 SCT050CB 16/M02 Q1008 R29/CLRD70 NOSIG RMK QFE698/0930,UIAA,2023-06-07T04:30:00Z,52.02,113.32,16.0,-2.0,330,14,,6.21,29.763779,,,,,,TRUE,,,,,SCT,5000,,,,,,,VFR,,,,,,,,,,,,SPECI,650.0
UHWW 070430Z 19004MPS 150V250 9999 NSC 25/13 Q1003 R25L/0///70 NOSIG RMK QFE751,UHWW,2023-06-07T04:30:00Z,43.4,132.15,25.0,13.0,190,8,,6.21,29.616142,,,,,,TRUE,,,,,CLR,,,,,,,,VFR,,,,,,,,,,,,METAR,11.0
UHSS 070430Z 19005MPS 9999 NSC 23/12 Q1006 R19/70D NOSIG RMK QFE753/1004,UHSS,2023-06-07T04:30:00Z,46.88,142.72,23.0,12.0,190,10,,6.21,29.704725,,,,,,TRUE,,,,,CLR,,,,,,,,VFR,,,,,,,,,,,,METAR,14.0
UHPP 070430Z 11005MPS 080V140 9999 BKN070 13/02 Q1006 R34L/CLRD57 NOSIG RMK MT OBSC QFE751/1002,UHPP,2023-06-07T04:30:00Z,53.17,158.45,13.0,2.0,110,10,,6.21,29.704725,,,,,,TRUE,,,,,BKN,7000,,,,,,,VFR,,,,,,,,,,,,METAR,33.0
UHMD 070430Z 34004MPS 9999 SCT023 BKN033 06/03 Q1009 RMK QBB700 MT OBSC QFE755/1007,UHMD,2023-06-07T04:30:00Z,64.38,-173.23,6.0,3.0,340,8,,6.21,29.793306,,,,,,,,,,,SCT,2300,BKN,3300,,,,,VFR,,,,,,,,,,,,SPECI,40.0
UHMA 070430Z 06002MPS 360V090 CAVOK 13/02 Q1009 R01/70D NOSIG RMK MID 03003MPS END R01/02003G07MPS QFE753/1004,UHMA,2023-06-07T04:30:00Z,64.73,177.73,13.0,2.0,60,4,,6.21,29.793306,,,,,,TRUE,,,,,CAVOK,,,,,,,,VFR,,,,,,,,,,,,METAR,53.0
UHHH 070430Z 26003MPS 210V300 9999 SCT043CB 23/14 Q1002 R88/090060 TEMPO VRB09MPS 3100 -TSRA RMK QFE746/0994,UHHH,2023-06-07T04:30:00Z,48.52,135.18,23.0,14.0,260,6,,6.21,29.586615,,,,,,,,,,,SCT,4300,,,,,,,VFR,,,,,,,,,,,,METAR,74.0
UHBB 070430Z 11008MPS 9999 SCT033CB 22/09 Q0996 R18/090060 TEMPO 10010G16MPS RMK QFE731/0975,UHBB,2023-06-07T04:30:00Z,50.43,127.42,22.0,9.0,110,16,,6.21,29.409449,,,,,,,,,,,SCT,3300,,,,,,,VFR,,1.0,,,,,,,,,,METAR,185.0
UGTB 070430Z 11003KT 070V160 9999 SCT046CB BKN070 19/16 Q1019 NOSIG,UGTB,2023-06-07T04:30:00Z,41.67,44.95,19.0,16.0,110,3,,6.21,30.088583,,,,,,TRUE,,,,,SCT,4600,BKN,7000,,,,,VFR,,,,,,,,,,,,METAR,468.0
UGSB 070430Z 18004KT 140V210 9999 FEW020CB BKN034 19/17 Q1018 NOSIG,UGSB,2023-06-07T04:30:00Z,41.62,41.6,19.0,17.0,180,4,,6.21,30.059055,,,,,,TRUE,,,,,FEW,2000,BKN,3400,,,,,VFR,,,,,,,,,,,,METAR,32.0
UGMS 070430Z AUTO VRB02KT //// ////// 11/10 Q1023,UGMS,2023-06-07T04:30:00Z,43.05,42.75,11.0,10.0,0,2,,,30.206694,,,TRUE,,,,,,,,,,,,,,,,,,,,,,,,,,,,METAR,1442.0
UGKO 070430Z 36005KT 9999 RA BKN005 OVC110 17/16 Q1018 NOSIG,UGKO,2023-06-07T04:30:00Z,42.18,42.48,17.0,16.0,360,5,,6.21,30.059055,,,,,,TRUE,,,,RA,BKN,500,OVC,11000,,,,,IFR,,,,,,,,,,,,METAR,44.0
UGAM 070430Z AUTO VRB01KT //// ////// 15/15 Q1020,UGAM,2023-06-07T04:30:00Z,42.53,43.13,15.0,15.0,0,1,,,30.11811,,,TRUE,,,,,,,,,,,,,,,,,,,,,,,,,,,,METAR,544.0
UERR 070430Z 21004MPS 9999 SCT033 14/M03 Q1012 R25/CLRD60 NOSIG RMK QFE728/0971,UERR,2023-06-07T04:30:00Z,62.53,114.05,14.0,-3.0,210,8,,6.21,29.88189,,,,,,TRUE,,,,,SCT,3300,,,,,,,VFR,,,,,,,,,,,,SPECI,352.0
UERP 070430Z 12003MPS CAVOK 11/M03 Q1009 R17/090060 NOSIG RMK QFE712,UERP,2023-06-07T04:30:00Z,66.4,112.03,11.0,-3.0,120,6,,6.21,29.793306,,,,,,TRUE,,,,,CAVOK,,,,,,,,VFR,,,,,,,,,,,,SPECI,514.0
UEEE 070430Z 36004MPS CAVOK 22/06 Q1008 R05/09//60 NOSIG RMK QFE747,UEEE,2023-06-07T04:30:00Z,62.08,129.77,22.0,6.0,360,8,,6.21,29.763779,,,,,,TRUE,,,,,CAVOK,,,,,,,,VFR,,,,,,,,,,,,METAR,106.0
UDYZ 070430Z 23008KT 9999 SCT040CB 18/12 Q1016 NOSIG,UDYZ,2023-06-07T04:30:00Z,40.15,44.4,18.0,12.0,230,8,,6.21,30.0,,,,,,TRUE,,,,,SCT,4000,,,,,,,VFR,,,,,,,,,,,,METAR,851.0
UDSG 070430Z VRB02KT 9999 FEW049CB 12/09 Q1021 NOSIG,UDSG,2023-06-07T04:30:00Z,40.75,43.87,12.0,9.0,0,2,,6.21,30.147638,,,,,,TRUE,,,,,FEW,4900,,,,,,,VFR,,,,,,,,,,,,METAR,1515.0
UCFO 070430Z 34002MPS 9999 FEW050 29/06 Q1014 NOSIG,UCFO,2023-06-07T04:30:00Z,40.6,72.8,29.0,6.0,340,4,,6.21,29.940945,,,,,,TRUE,,,,,FEW,5000,,,,,,,VFR,,,,,,,,,,,,METAR,881.0
UCFM 070430Z 14002MPS 090V200 CAVOK 32/07 Q1012 NOSIG,UCFM,2023-06-07T04:30:00Z,43.07,74.48,32.0,7.0,140,4,,6.21,29.88189,,,,,,TRUE,,,,,CAVOK,,,,,,,,VFR,,,,,,,,,,,,METAR,632.0
UCFL 070430Z 10003MPS 040V140 9999 SCT030CB BKN100 19/06 Q1023,UCFL,2023-06-07T04:30:00Z,42.58,76.7,19.0,6.0,100,6,,6.21,30.206694,,,,,,,,,,,SCT,3000,BKN,10000,,,,,VFR,,,,,,,,,,,,METAR,1654.0
UBBZ 070430Z AUTO 00000KT 9999 // ///018/// 19/15 Q1019,UBBZ,2023-06-07T04:30:00Z,39.1,46.73,19.0,15.0,0,0,,6.21,30.088583,,,TRUE,,,,,,,,,,,,,,,,,,,,,,,,,,,,METAR,489.0
UBBN 070430Z VRB02KT 9999 NSC 22/09 Q1015 NOSIG RMK MT OP QFE687,UBBN,2023-06-07T04:30:00Z,39.18,45.45,22.0,9.0,0,2,,6.21,29.970472,,,,,,TRUE,,,,,CLR,,,,,,,,VFR,,,,,,,,,,,,METAR,857.0
UBBG 070430Z 19004KT 9999 BKN030 18/16 Q1018 NOSIG,UBBG,2023-06-07T04:30:00Z,40.73,46.32,18.0,16.0,190,4,,6.21,30.059055,,,,,,TRUE,,,,,BKN,3000,,,,,,,MVFR,,,,,,,,,,,,METAR,333.0
UBBF 070430Z AUTO VRB04KT 9999 // ///049/// 23/15 Q1017,UBBF,2023-06-07T04:30:00Z,39.6,47.2,23.0,15.0,0,4,,6.21,30.029528,,,TRUE,,,,,,,,,,,,,,,,,,,,,,,,,,,,METAR,370.0
UBBB 070430Z 34018KT 9999 FEW060CB 21/17 Q1017 NOSIG,UBBB,2023-06-07T04:30:00Z,40.47,50.07,21.0,17.0,340,18,,6.21,30.029528,,,,,,TRUE,,,,,FEW,6000,,,,,,,VFR,,,,,,,,,,,,METAR,94.0
UAUU 070430Z 35004MPS 310V020 CAVOK 27/14 Q1004 NOSIG RMK QFE738/0984,UAUU,2023-06-07T04:30:00Z,53.2,63.55,27.0,14.0,350,8,,6.21,29.64567,,,,,,TRUE,,,,,CAVOK,,,,,,,,VFR,,,,,,,,,,,,SPECI,177.0
UATT 070430Z 33009MPS 9999 BKN014 15/10 Q1010 TEMPO BKN005 RMK QFE737/0983,UATT,2023-06-07T04:30:00Z,50.25,57.2,15.0,10.0,330,17,,6.21,29.822834,,,,,,,,,,,BKN,1400,,,,,,,MVFR,,,,,,,,,,,,METAR,217.0
UATG 070430Z 36010MPS CAVOK 20/05 Q1016 WS R32 NOSIG RMK QFE764/1019,UATG,2023-06-07T04:30:00Z,47.12,51.83,20.0,5.0,360,19,,6.21,30.0,,,,,,TRUE,,,,,CAVOK,,,,,,,,VFR,,,,,,,,,,,,SPECI,-23.0
UATE 070430Z 04005MPS 9999 SCT053CB 22/15 Q1016 NOSIG RMK QFE760/1013,UATE,2023-06-07T04:30:00Z,43.87,51.1,22.0,15.0,40,10,,6.21,30.0,,,,,,TRUE,,,,,SCT,5300,,,,,,,VFR,,,,,,,,,,,,METAR,21.0
UASS 070430Z 13005MPS CAVOK 35/08 Q1007 NOSIG RMK QFE735/0980,UASS,2023-06-07T04:30:00Z,50.35,80.23,35.0,8.0,130,10,,6.21,29.734253,,,,,,TRUE,,,,,CAVOK,,,,,,,,VFR,,,,,,,,,,,,SPECI,215.0
UASP 070430Z 16004MPS 120V210 9999 FEW050CB 35/06 Q1005 NOSIG RMK QFE743/0991,UASP,2023-06-07T04:30:00Z,52.2,77.07,35.0,6.0,160,8,,6.21,29.675198,,,,,,TRUE,,,,,FEW,5000,,,,,,,VFR,,,,,,,,,,,,SPECI,122.0
UASK 070430Z 10003MPS 9999 FEW100 32/12 Q1009 NOSIG RMK QFE732/0976,UASK,2023-06-07T04:30:00Z,50.03,82.5,32.0,12.0,100,6,,6.21,29.793306,,,,,,TRUE,,,,,FEW,10000,,,,,,,VFR,,,,,,,,,,,,METAR,285.0
UARR 070430Z 33005MPS 300V360 CAVOK 19/08 Q1016 NOSIG RMK QFE758/1011,UARR,2023-06-07T04:30:00Z,51.15,51.53,19.0,8.0,330,10,,6.21,30.0,,,,,,TRUE,,,,,CAVOK,,,,,,,,VFR,,,,,,,,,,,,SPECI,33.0
UAOO 070430Z 20003MPS 150V230 CAVOK 37/03 Q1007 NOSIG RMK QFE743/0991,UAOO,2023-06-07T04:30:00Z,44.7,65.6,37.0,3.0,200,6,,6.21,29.734253,,,,,,TRUE,,,,,CAVOK,,,,,,,,VFR,,,,,,,,,,,,SPECI,130.0
UAKK 070430Z 31003MPS CAVOK 30/07 Q1008 NOSIG RMK QFE709/0946,UAKK,2023-06-07T04:30:00Z,49.68,73.35,30.0,7.0,310,6,,6.21,29.763779,,,,,,TRUE,,,,,CAVOK,,,,,,,,VFR,,,,,,,,,,,,SPECI,532.0
UAKD 070430Z 15003MPS 120V230 CAVOK 33/03 Q1007 NOSIG RMK QFE722/0963,UAKD,2023-06-07T04:30:00Z,47.7,67.73,33.0,3.0,150,6,,6.21,29.734253,,,,,,TRUE,,,,,CAVOK,,,,,,,,VFR,,,,,,,,,,,,SPECI,379.0
UAIT 070430Z 18003MPS 150V210 CAVOK 34/03 Q1010 NOSIG RMK QFE733/0977,UAIT,2023-06-07T04:30:00Z,43.32,68.55,34.0,3.0,180,6,,6.21,29.822834,,,,,,TRUE,,,,,CAVOK,,,,,,,,VFR,,,,,,,,,,,,METAR,301.0
UAII 070430Z VRB01MPS CAVOK 35/00 Q1011 NOSIG RMK QFE723/0964,UAII,2023-06-07T04:30:00Z,42.37,69.48,35.0,0.0,0,2,,6.21,29.852362,,,,,,TRUE,,,,,CAVOK,,,,,,,,VFR,,,,,,,,,,,,SPECI,410.0
UADD 070430Z 20003MPS 160V240 9999 NSC 33/M00 Q1013 NOSIG RMK QFE703/0937,UADD,2023-06-07T04:30:00Z,42.85,71.3,33.0,0.0,200,6,,6.21,29.911417,,,,,,TRUE,,,,,CLR,,,,,,,,VFR,,,,,,,,,,,,SPECI,663.0
UACP 070430Z 16007MPS CAVOK 31/12 Q1002 NOSIG RMK QFE739/0986,UACP,2023-06-07T04:30:00Z,54.78,69.18,31.0,12.0,160,14,,6.21,29.586615,,,,,,TRUE,,,,,CAVOK,,,,,,,,VFR,,,,,,,,,,,,SPECI,134.0
UACK 070430Z 18007MPS CAVOK 33/10 Q1004 NOSIG RMK QFE730/0973,UACK,2023-06-07T04:30:00Z,53.32,69.58,33.0,10.0,180,14,,6.21,29.64567,,,,,,TRUE,,,,,CAVOK,,,,,,,,VFR,,,,,,,,,,,,SPECI,261.0
UACC 070430Z VRB01MPS 9999 SCT043CB 30/09 Q1007 NOSIG RMK QFE724/0966,UACC,2023-06-07T04:30:00Z,51.02,71.47,30.0,9.0,0,2,,6.21,29.734253,,,,,,TRUE,,,,,SCT,4300,,,,,,,VFR,,,,,,,,,,,,METAR,354.0
UAAT 070430Z 09006G13MPS 020V130 9999 BKN050CB BKN100 30/08 Q1011 NOSIG RMK QFE707/0943,UAAT,2023-06-07T04:30:00Z,45.12,78.45,30.0,8.0,90,12,25,6.21,29.852362,,,,,,TRUE,,,,,BKN,5000,BKN,10000,,,,,VFR,,,,,,,,,,,,METAR,588.0
UAAH 070430Z 20004MPS 160V260 CAVOK 31/14 Q1009 NOSIG RMK QFE718/0957,UAAH,2023-06-07T04:30:00Z,46.9,75.0,31.0,14.0,200,8,,6.21,29.793306,,,,,,TRUE,,,,,CAVOK,,,,,,,,VFR,,,,,,,,,,,,SPECI,427.0
UAAA 070430Z 03002MPS 350V080 9999 FEW050CB BKN100 31/05 Q1013 NOSIG,UAAA,2023-06-07T04:30:00Z,43.35,77.03,31.0,5.0,30,4,,6.21,29.911417,,,,,,TRUE,,,,,FEW,5000,BKN,10000,,,,,VFR,,,,,,,,,,,,METAR,673.0
TFFR 070430Z AUTO 12003KT 9999 FEW020 26/24 Q1016,TFFR,2023-06-07T04:30:00Z,16.27,-61.53,26.0,24.0,120,3,,6.21,30.0,,,TRUE,,,,,,,,FEW,2000,,,,,,,VFR,,,,,,,,,,,,METAR,6.0
TFFF 070430Z AUTO 10010KT 9999 FEW021 SCT045 28/24 Q1015,TFFF,2023-06-07T04:30:00Z,14.6,-61.0,28.0,24.0,100,10,,6.21,29.970472,,,TRUE,,,,,,,,FEW,2100,SCT,4500,,,,,VFR,,,,,,,,,,,,METAR,3.0
SOCA 070430Z AUTO 26002KT 9999 ///TCU 24/24 Q1013,SOCA,2023-06-07T04:30:00Z,4.82,-52.37,24.0,24.0,260,2,,6.21,29.911417,,,TRUE,,,,,,,,,,,,,,,,,,,,,,,,,,,,METAR,7.0
SAEZ 070430Z 26005KT 1500 BR SCT032 BKN055 17/16 Q1015 NOSIG RMK PP000,SAEZ,2023-06-07T04:30:00Z,-34.82,-58.53,17.0,16.0,260,5,,0.93,29.970472,,,,,,TRUE,,,,BR,SCT,3200,BKN,5500,,,,,LIFR,,,,,,,,,,,,SPECI,16.0
ROAH 070430Z 21009KT 9999 FEW009 BKN/// 29/26 Q1011,ROAH,2023-06-07T04:30:00Z,26.18,127.65,29.0,26.0,210,9,,6.21,29.852362,,,,,,,,,,,FEW,900,,,,,,,VFR,,,,,,,,,,,,METAR,6.0
RKSI 070430Z 21011KT 9999 BKN025 22/17 Q1009 NOSIG,RKSI,2023-06-07T04:30:00Z,37.47,126.45,22.0,17.0,210,11,,6.21,29.793306,,,,,,TRUE,,,,,BKN,2500,,,,,,,MVFR,,,,,,,,,,,,METAR,7.0
RJTT 070430Z 12006KT 9999 FEW030 BKN/// 25/19 Q1006 NOSIG,RJTT,2023-06-07T04:30:00Z,35.55,139.77,25.0,19.0,120,6,,6.21,29.704725,,,,,,TRUE,,,,,FEW,3000,,,,,,,VFR,,,,,,,,,,,,METAR,5.0
RJGG 070430Z 26014KT 9999 FEW030 BKN/// 25/18 Q1007 NOSIG,RJGG,2023-06-07T04:30:00Z,34.87,136.8,25.0,18.0,260,14,,6.21,29.734253,,,,,,TRUE,,,,,FEW,3000,,,,,,,VFR,,,,,,,,,,,,METAR,5.0
RJFF 070430Z 31011KT 270V340 9999 FEW035 BKN/// 26/18 Q1011 NOSIG,RJFF,2023-06-07T04:30:00Z,33.58,130.45,26.0,18.0,310,11,,6.21,29.852362,,,,,,TRUE,,,,,FEW,3500,,,,,,,VFR,,,,,,,,,,,,METAR,7.0
RJCT 070430Z 28004KT 9999 -SHRA FEW010 BKN030 BKN100 23/14 Q1007 RMK 1ST010 5CU030 6AC100 A2976,RJCT,2023-06-07T04:30:00Z,42.88,143.17,23.0,14.0,280,4,,6.21,29.734253,,,,,,,,,,-SHRA,FEW,1000,BKN,3000,BKN,10000,,,MVFR,,,,,,,,,,,,METAR,79.0
RJCC 070430Z 17009KT 7000 -SHRA FEW003 BKN005 BKN040 16/15 Q1007,RJCC,2023-06-07T04:30:00Z,42.77,141.68,16.0,15.0,170,9,,4.35,29.734253,,,,,,,,,,-SHRA,FEW,300,BKN,500,BKN,4000,,,IFR,,,,,,,,,,,,METAR,19.0
RJBB 070430Z 29008KT 9999 FEW020 BKN/// 22/18 Q1010 NOSIG,RJBB,2023-06-07T04:30:00Z,34.43,135.25,22.0,18.0,290,8,,6.21,29.822834,,,,,,TRUE,,,,,FEW,2000,,,,,,,VFR,,,,,,,,,,,,METAR,8.0
RJAA 070430Z 05009KT 9999 FEW030 BKN/// 26/15 Q1007 NOSIG,RJAA,2023-06-07T04:30:00Z,35.77,140.38,26.0,15.0,50,9,,6.21,29.734253,,,,,,TRUE,,,,,FEW,3000,,,,,,,VFR,,,,,,,,,,,,METAR,36.0
RCTP 070430Z 29014KT 9999 FEW020 SCT030 32/28 Q1010 NOSIG RMK A2984,RCTP,2023-06-07T04:30:00Z,25.07,121.22,32.0,28.0,290,14,,6.21,29.822834,,,,,,TRUE,,,,,FEW,2000,SCT,3000,,,,,VFR,,,,,,,,,,,,METAR,33.0
RCSS 070430Z 31008KT 260V350 9999 FEW025 SCT050 34/25 Q1009 NOSIG RMK 30009KT/R10 A2982,RCSS,2023-06-07T04:30:00Z,25.07,121.55,34.0,25.0,310,8,,6.21,29.793306,,,,,,TRUE,,,,,FEW,2500,SCT,5000,,,,,VFR,,,,,,,,,,,,METAR,8.0
RCNN 070430Z 23012KT 9999 FEW014 SCT021 BKN200 32/23 Q1010 NOSIG RMK A2985,RCNN,2023-06-07T04:30:00Z,22.93,120.2,32.0,23.0,230,12,,6.21,29.822834,,,,,,TRUE,,,,,FEW,1400,SCT,2100,BKN,20000,,,VFR,,,,,,,,,,,,METAR,15.0
RCMQ 070430Z 27009KT 9999 FEW010 SCT020 30/25 Q1011 NOSIG RMK A2986,RCMQ,2023-06-07T04:30:00Z,24.27,120.62,30.0,25.0,270,9,,6.21,29.852362,,,,,,TRUE,,,,,FEW,1000,SCT,2000,,,,,VFR,,,,,,,,,,,,METAR,202.0
RCFN 070430Z 18008KT 140V230 9999 VCSH FEW010 SCT015 BKN020 30/28 Q1012 NOSIG RMK 16010KT/R04 A2989,RCFN,2023-06-07T04:30:00Z,22.77,121.1,30.0,28.0,180,8,,6.21,29.88189,,,,,,TRUE,,,,VCSH,FEW,1000,SCT,1500,BKN,2000,,,MVFR,,,,,,,,,,,,METAR,42.0
OTBD 070430Z 29004KT 230V330 CAVOK 35/18 Q1004 NOSIG,OTBD,2023-06-07T04:30:00Z,25.25,51.57,35.0,18.0,290,4,,6.21,29.64567,,,,,,TRUE,,,,,CAVOK,,,,,,,,VFR,,,,,,,,,,,,METAR,13.0
OPMT 070430Z 18008KT 5000 HZ NSC 31/19 Q1004 NOSIG,OPMT,2023-06-07T04:30:00Z,30.2,71.42,31.0,19.0,180,8,,3.11,29.64567,,,,,,TRUE,,,,HZ,CLR,,,,,,,,MVFR,,,,,,,,,,,,METAR,122.0
OPKC 070430Z 26009KT 6000 SCT020 BKN030 31/25 Q1004 NOSIG,OPKC,2023-06-07T04:30:00Z,24.9,67.13,31.0,25.0,260,9,,3.73,29.64567,,,,,,TRUE,,,,,SCT,2000,BKN,3000,,,,,MVFR,,,,,,,,,,,,METAR,20.0
OPIS 070430Z 11017KT 6000 FEW040 30/16 Q1007 TEMPO 13015G35KT 3000 TSRA FEW030CB,OPIS,2023-06-07T04:30:00Z,33.55,72.83,30.0,16.0,110,17,,3.73,29.734253,,,,,,,,,,,FEW,4000,,,,,,,MVFR,,,,,,,,,,,,METAR,542.0
OIZI 070430Z 00000KT 8000 NSC 36/10 Q1008,OIZI,2023-06-07T04:30:00Z,27.23,60.72,36.0,10.0,0,0,,4.97,29.763779,,,,,,,,,,,CLR,,,,,,,,MVFR,,,,,,,,,,,,METAR,622.0
OIZH 070430Z 03012KT CAVOK 32/M03 Q1015 A2999 NOSIG,OIZH,2023-06-07T04:30:00Z,29.47,60.92,32.0,-3.0,30,12,,6.21,29.970472,,,,,,TRUE,,,,,CAVOK,,,,,,,,VFR,,,,,,,,,,,,METAR,1378.0
OIZB 070430Z 35027G37KT 5000 SA NSC 36/00 Q1006,OIZB,2023-06-07T04:30:00Z,31.1,61.55,36.0,0.0,350,27,37,3.11,29.704725,,,,,,,,,,SA,CLR,,,,,,,,MVFR,,,,,,,,,,,,METAR,483.0
OIYY 070430Z 34010KT 7000 FEW100 SCT200 28/09 Q1016,OIYY,2023-06-07T04:30:00Z,31.9,54.28,28.0,9.0,340,10,,4.35,30.0,,,,,,,,,,,FEW,10000,SCT,20000,,,,,MVFR,,,,,,,,,,,,METAR,1226.0
OITT 070430Z 08008KT 9999 FEW030TCU SCT080 20/10 Q1018 A3006,OITT,2023-06-07T04:30:00Z,38.13,46.23,20.0,10.0,80,8,,6.21,30.059055,,,,,,,,,,,FEW,3000,SCT,8000,,,,,VFR,,,,,,,,,,,,METAR,1353.0
OITL 070430Z 07016KT 9999 FEW010 BKN030 14/09 Q1020,OITL,2023-06-07T04:30:00Z,38.33,48.42,14.0,9.0,70,16,,6.21,30.11811,,,,,,,,,,,FEW,1000,BKN,3000,,,,,MVFR,,,,,,,,,,,,METAR,1314.0
OISS 070430Z 00000KT CAVOK 27/07 Q1016 A3002,OISS,2023-06-07T04:30:00Z,29.53,52.58,27.0,7.0,0,0,,6.21,30.0,,,,,,,,,,,CAVOK,,,,,,,,VFR,,,,,,,,,,,,METAR,1484.0
OISL 070430Z 00000KT CAVOK 32/10 Q1008 A2979,OISL,2023-06-07T04:30:00Z,27.67,54.37,32.0,10.0,0,0,,6.21,29.763779,,,,,,,,,,,CAVOK,,,,,,,,VFR,,,,,,,,,,,,METAR,804.0
OINZ 070430Z 17008KT 8000 FEW015 BKN035 OVC100 22/21 Q1015,OINZ,2023-06-07T04:30:00Z,36.63,53.2,22.0,21.0,170,8,,4.97,29.970472,,,,,,,,,,,FEW,1500,BKN,3500,OVC,10000,,,MVFR,,,,,,,,,,,,METAR,8.0
OIMM 070430Z 04004KT CAVOK 30/16 Q1015 A3000 NOSIG,OIMM,2023-06-07T04:30:00Z,36.23,59.63,30.0,16.0,40,4,,6.21,29.970472,,,,,,TRUE,,,,,CAVOK,,,,,,,,VFR,,,,,,,,,,,,METAR,995.0
OIKK 070430Z 11004KT CAVOK 28/08 Q1018 A3007,OIKK,2023-06-07T04:30:00Z,30.25,56.97,28.0,8.0,110,4,,6.21,30.059055,,,,,,,,,,,CAVOK,,,,,,,,VFR,,,,,,,,,,,,METAR,1749.0
OIKB 070430Z 09006KT 6000 NSC 35/22 Q1003 A2962,OIKB,2023-06-07T04:30:00Z,27.22,56.37,35.0,22.0,90,6,,3.73,29.616142,,,,,,,,,,,CLR,,,,,,,,MVFR,,,,,,,,,,,,METAR,6.0
OIII 070430Z 15004KT 9999 FEW035CB FEW040 SCT090 28/08 Q1015 A3000,OIII,2023-06-07T04:30:00Z,35.68,51.3,28.0,8.0,150,4,,6.21,29.970472,,,,,,,,,,,FEW,3500,FEW,4000,SCT,9000,,,VFR,,,,,,,,,,,,METAR,1182.0
OIGG 070430Z 23006KT 6000 -RA FEW010CB BKN025 OVC060 21/21 Q1016,OIGG,2023-06-07T04:30:00Z,37.33,49.6,21.0,21.0,230,6,,3.73,30.0,,,,,,,,,,-RA,FEW,1000,BKN,2500,OVC,6000,,,MVFR,,,,,,,,,,,,METAR,-16.0
OIFM 070430Z 34006KT CAVOK 28/05 Q1018 A3006,OIFM,2023-06-07T04:30:00Z,32.75,51.87,28.0,5.0,340,6,,6.21,30.059055,,,,,,,,,,,CAVOK,,,,,,,,VFR,,,,,,,,,,,,METAR,1539.0
OICC 070430Z 20008KT CAVOK 21/03 Q1017 A3005,OICC,2023-06-07T04:30:00Z,34.35,47.17,21.0,3.0,200,8,,6.21,30.029528,,,,,,,,,,,CAVOK,,,,,,,,VFR,,,,,,,,,,,,METAR,1310.0
OIBK 070430Z 28008KT 5000 HZ NSC 32/27 Q1003,OIBK,2023-06-07T04:30:00Z,26.53,53.98,32.0,27.0,280,8,,3.11,29.616142,,,,,,,,,,HZ,CLR,,,,,,,,MVFR,,,,,,,,,,,,METAR,27.0
OIBB 070430Z 29008KT 9999 FEW040 SCT080 31/25 Q1004 A2965,OIBB,2023-06-07T04:30:00Z,28.93,50.83,31.0,25.0,290,8,,6.21,29.64567,,,,,,,,,,,FEW,4000,SCT,8000,,,,,VFR,,,,,,,,,,,,METAR,15.0
OIAW 070430Z 29004KT CAVOK 36/12 Q1004,OIAW,2023-06-07T04:30:00Z,31.33,48.77,36.0,12.0,290,4,,6.21,29.64567,,,,,,,,,,,CAVOK,,,,,,,,VFR,,,,,,,,,,,,METAR,25.0
OBBI 070430Z 31008KT CAVOK 34/18 Q1005 NOSIG,OBBI,2023-06-07T04:30:00Z,26.27,50.63,34.0,18.0,310,8,,6.21,29.675198,,,,,,TRUE,,,,,CAVOK,,,,,,,,VFR,,,,,,,,,,,,METAR,6.0
NZWN 070430Z AUTO 15013KT 9999 BKN029/// 11/07 Q1029,NZWN,2023-06-07T04:30:00Z,-41.32,174.8,11.0,7.0,150,13,,6.21,30.383858,,,TRUE,,,,,,,,BKN,2900,,,,,,,MVFR,,,,,,,,,,,,METAR,12.0
NZCH 070430Z AUTO 06009KT 9999 NCD 09/06 Q1029,NZCH,2023-06-07T04:30:00Z,-43.48,172.52,9.0,6.0,60,9,,6.21,30.383858,,,TRUE,,,,,,,,CLR,,,,,,,,VFR,,,,,,,,,,,,METAR,36.0
NZAA 070430Z AUTO 15008KT 9999 SCT047/// 15/09 Q1022,NZAA,2023-06-07T04:30:00Z,-37.02,174.8,15.0,9.0,150,8,,6.21,30.177166,,,TRUE,,,,,,,,SCT,4700,,,,,,,VFR,,,,,,,,,,,,METAR,7.0
NWWW 070430Z AUTO 16011KT CAVOK 23/14 Q1016 NOSIG,NWWW,2023-06-07T04:30:00Z,-22.02,166.22,23.0,14.0,160,11,,6.21,30.0,,,TRUE,,,TRUE,,,,,CAVOK,,,,,,,,VFR,,,,,,,,,,,,METAR,16.0
NTAA 070430Z VRB02KT 9999 FEW026 26/20 Q1014 NOSIG,NTAA,2023-06-07T04:30:00Z,-17.55,-149.62,26.0,20.0,0,2,,6.21,29.940945,,,,,,TRUE,,,,,FEW,2600,,,,,,,VFR,,,,,,,,,,,,METAR,2.0
NLWW 070430Z AUTO 08008KT 040V130 9999 BKN021/// BKN031/// BKN043/// 28/25 Q1010 TEMPO 4000 SHRA BKN014 SCT020CB,NLWW,2023-06-07T04:30:00Z,-13.23,-176.18,28.0,25.0,80,8,,6.21,29.822834,,,TRUE,,,,,,,,BKN,2100,BKN,3100,BKN,4300,,,MVFR,,,,,,,,,,,,METAR,24.0
NFTF 070430Z VRB01KT 9999 -RA FEW007 FEW015TCU OVC100 22/21 Q1014 RMK SPECI CEASE,NFTF,2023-06-07T04:30:00Z,-21.23,-175.15,22.0,21.0,0,1,,6.21,29.940945,,,,,,,,,,-RA,FEW,700,FEW,1500,OVC,10000,,,VFR,,,,,,,,,,,,METAR,38.0
NCRG 070430Z AUTO 13005KT 080V190 9999 NCD 23/17 Q1018,NCRG,2023-06-07T04:30:00Z,-21.2,-159.82,23.0,17.0,130,5,,6.21,30.059055,,,TRUE,,,,,,,,CLR,,,,,,,,VFR,,,,,,,,,,,,METAR,7.0
LZZI 070430Z VRB02KT 9999 FEW003 SCT010 OVC030 15/15 Q1016,LZZI,2023-06-07T04:30:00Z,49.23,18.62,15.0,15.0,0,2,,6.21,30.0,,,,,,,,,,,FEW,300,SCT,1000,OVC,3000,,,MVFR,,,,,,,,,,,,METAR,311.0
LZTT 070430Z 12003KT 6000 -RA BKN003 OVC023 13/13 Q1017,LZTT,2023-06-07T04:30:00Z,49.07,20.25,13.0,13.0,120,3,,3.73,30.029528,,,,,,,,,,-RA,BKN,300,OVC,2300,,,,,LIFR,,,,,,,,,,,,METAR,693.0
LZPP 070430Z VRB01KT 9999 SCT022 BKN047 17/16 Q1016,LZPP,2023-06-07T04:30:00Z,48.62,17.83,17.0,16.0,0,1,,6.21,30.0,,,,,,,,,,,SCT,2200,BKN,4700,,,,,VFR,,,,,,,,,,,,METAR,160.0
LZKZ 070430Z 00000KT 6000 -RA FEW004 OVC017 16/16 Q1017 NOSIG,LZKZ,2023-06-07T04:30:00Z,48.67,21.23,16.0,16.0,0,0,,3.73,30.029528,,,,,,TRUE,,,,-RA,FEW,400,OVC,1700,,,,,MVFR,,,,,,,,,,,,METAR,227.0
LZIB 070430Z 03003KT 360V060 9999 FEW010 SCT014 BKN041 17/16 Q1016 NOSIG,LZIB,2023-06-07T04:30:00Z,48.17,17.22,17.0,16.0,30,3,,6.21,30.0,,,,,,TRUE,,,,,FEW,1000,SCT,1400,BKN,4100,,,VFR,,,,,,,,,,,,METAR,129.0
LYVR 070430Z AUTO 20005KT 9999 BKN049/// OVC088/// 17/15 Q1017,LYVR,2023-06-07T04:30:00Z,45.13,21.32,17.0,15.0,200,5,,6.21,30.029528,,,TRUE,,,,,,,,BKN,4900,OVC,8800,,,,,VFR,,,,,,,,,,,,METAR,82.0
LYTV 070430Z 00000KT CAVOK 16/15 Q1015 NOSIG,LYTV,2023-06-07T04:30:00Z,42.4,18.72,16.0,15.0,0,0,,6.21,29.970472,,,,,,TRUE,,,,,CAVOK,,,,,,,,VFR,,,,,,,,,,,,METAR,3.0
LYPG 070430Z 34003KT 310V010 CAVOK 19/13 Q1015 NOSIG,LYPG,2023-06-07T04:30:00Z,42.37,19.25,19.0,13.0,340,3,,6.21,29.970472,,,,,,TRUE,,,,,CAVOK,,,,,,,,VFR,,,,,,,,,,,,METAR,32.0
LYNI 070430Z VRB01KT 9999 FEW003 17/14 Q1017 NOSIG,LYNI,2023-06-07T04:30:00Z,43.33,21.85,17.0,14.0,0,1,,6.21,30.029528,,,,,,TRUE,,,,,FEW,300,,,,,,,VFR,,,,,,,,,,,,METAR,197.0
LYKV 070430Z 00000KT 2000 BR OVC006 16/16 Q1017 BECMG 6000 NSW,LYKV,2023-06-07T04:30:00Z,43.82,20.58,16.0,16.0,0,0,,1.24,30.029528,,,,,,,,,,BR,OVC,600,,,,,,,IFR,,,,,,,,,,,,METAR,209.0
LYBT 070430Z 25003KT 220V280 6000 NSC 17/17 Q1016 NOSIG,LYBT,2023-06-07T04:30:00Z,44.93,20.25,17.0,17.0,250,3,,3.73,30.0,,,,,,TRUE,,,,,CLR,,,,,,,,MVFR,,,,,,,,,,,,METAR,78.0
LYBE 070430Z 26005KT 8000 BKN005 18/17 Q1016 BECMG BKN010,LYBE,2023-06-07T04:30:00Z,44.82,20.28,18.0,17.0,260,5,,4.97,30.0,,,,,,,,,,,BKN,500,,,,,,,IFR,,,,,,,,,,,,SPECI,93.0
LWSK 070430Z 15002KT 9999 SCT100 17/13 Q1017 NOSIG,LWSK,2023-06-07T04:30:00Z,41.97,21.63,17.0,13.0,150,2,,6.21,30.029528,,,,,,TRUE,,,,,SCT,10000,,,,,,,VFR,,,,,,,,,,,,METAR,232.0
LWOH 070430Z 33001KT CAVOK 14/12 Q1018,LWOH,2023-06-07T04:30:00Z,41.18,20.75,14.0,12.0,330,1,,6.21,30.059055,,,,,,,,,,,CAVOK,,,,,,,,VFR,,,,,,,,,,,,METAR,700.0
LUKK 070430Z 00000KT CAVOK 15/08 Q1021 NOSIG,LUKK,2023-06-07T04:30:00Z,46.93,28.93,15.0,8.0,0,0,,6.21,30.147638,,,,,,TRUE,,,,,CAVOK,,,,,,,,VFR,,,,,,,,,,,,METAR,102.0
LRTR 070430Z 00000KT 9999 -RA SCT046 16/16 Q1016,LRTR,2023-06-07T04:30:00Z,45.82,21.33,16.0,16.0,0,0,,6.21,30.0,,,,,,,,,,-RA,SCT,4600,,,,,,,VFR,,,,,,,,,,,,METAR,104.0
LRTM 070430Z 10004KT 9999 -RA FEW012 SCT033 16/14 Q1019,LRTM,2023-06-07T04:30:00Z,46.47,24.42,16.0,14.0,100,4,,6.21,30.088583,,,,,,,,,,-RA,FEW,1200,SCT,3300,,,,,VFR,,,,,,,,,,,,METAR,289.0
LRTC 070430Z AUTO VRB01KT 9000 SCT230/// 15/09 Q1021,LRTC,2023-06-07T04:30:00Z,45.07,28.72,15.0,9.0,0,1,,5.59,30.147638,,,TRUE,,,,,,,,SCT,23000,,,,,,,VFR,,,,,,,,,,,,METAR,52.0
LRSV 070430Z 17011KT CAVOK 17/07 Q1019,LRSV,2023-06-07T04:30:00Z,47.68,26.35,17.0,7.0,170,11,,6.21,30.088583,,,,,,,,,,,CAVOK,,,,,,,,VFR,,,,,,,,,,,,METAR,406.0
LRSM 070430Z 11006KT 9999 FEW010 17/16 Q1017,LRSM,2023-06-07T04:30:00Z,47.7,22.88,17.0,16.0,110,6,,6.21,30.029528,,,,,,,,,,,FEW,1000,,,,,,,VFR,,,,,,,,,,,,METAR,123.0
LRSB 070430Z 16007KT 9999 SCT080 15/11 Q1018,LRSB,2023-06-07T04:30:00Z,45.78,24.08,15.0,11.0,160,7,,6.21,30.059055,,,,,,,,,,,SCT,8000,,,,,,,VFR,,,,,,,,,,,,METAR,442.0
LROP 070430Z 06008KT CAVOK 15/12 Q1020 NOSIG,LROP,2023-06-07T04:30:00Z,44.57,26.1,15.0,12.0,60,8,,6.21,30.11811,,,,,,TRUE,,,,,CAVOK,,,,,,,,VFR,,,,,,,,,,,,METAR,92.0
LROD 070430Z 10005KT 9999 BKN046 17/15 Q1017,LROD,2023-06-07T04:30:00Z,47.03,21.88,17.0,15.0,100,5,,6.21,30.029528,,,,,,,,,,,BKN,4600,,,,,,,VFR,,,,,,,,,,,,METAR,132.0
LRIA 070430Z 10005KT CAVOK 16/08 Q1020,LRIA,2023-06-07T04:30:00Z,47.17,27.62,16.0,8.0,100,5,,6.21,30.11811,,,,,,,,,,,CAVOK,,,,,,,,VFR,,,,,,,,,,,,METAR,71.0
LRCV 070430Z 05012KT CAVOK 16/12 Q1018,LRCV,2023-06-07T04:30:00Z,44.32,23.88,16.0,12.0,50,12,,6.21,30.059055,,,,,,,,,,,CAVOK,,,,,,,,VFR,,,,,,,,,,,,METAR,192.0
LRCL 070430Z 11004KT 9999 BKN060 16/15 Q1019,LRCL,2023-06-07T04:30:00Z,46.78,23.68,16.0,15.0,110,4,,6.21,30.088583,,,,,,,,,,,BKN,6000,,,,,,,VFR,,,,,,,,,,,,METAR,313.0
LRCK 070430Z 36005KT CAVOK 16/13 Q1020 NOSIG,LRCK,2023-06-07T04:30:00Z,44.37,28.48,16.0,13.0,360,5,,6.21,30.11811,,,,,,TRUE,,,,,CAVOK,,,,,,,,VFR,,,,,,,,,,,,METAR,108.0
LRBS 070430Z 06006KT CAVOK 14/12 Q1020 NOSIG,LRBS,2023-06-07T04:30:00Z,44.5,26.08,14.0,12.0,60,6,,6.21,30.11811,,,,,,TRUE,,,,,CAVOK,,,,,,,,VFR,,,,,,,,,,,,METAR,91.0
LRBM 070430Z 09004KT 9999 BKN050 16/16 Q1018,LRBM,2023-06-07T04:30:00Z,47.67,23.47,16.0,16.0,90,4,,6.21,30.059055,,,,,,,,,,,BKN,5000,,,,,,,VFR,,,,,,,,,,,,METAR,180.0
LRBC 070430Z 17010KT CAVOK 15/06 Q1020,LRBC,2023-06-07T04:30:00Z,46.52,26.92,15.0,6.0,170,10,,6.21,30.11811,,,,,,,,,,,CAVOK,,,,,,,,VFR,,,,,,,,,,,,METAR,183.0
LRAR 070430Z 13004KT 9999 OVC042 17/15 Q1016,LRAR,2023-06-07T04:30:00Z,46.18,21.27,17.0,15.0,130,4,,6.21,30.0,,,,,,,,,,,OVC,4200,,,,,,,VFR,,,,,,,,,,,,METAR,102.0
LQTZ 070430Z VRB02KT 1800 BR BKN003 OVC010 15/15 Q1016,LQTZ,2023-06-07T04:30:00Z,44.47,18.73,15.0,15.0,0,2,,1.12,30.0,,,,,,,,,,BR,BKN,300,OVC,1000,,,,,LIFR,,,,,,,,,,,,METAR,242.0
LQSA 070430Z VRB01KT 9999 FEW010 12/12 Q1018 NOSIG,LQSA,2023-06-07T04:30:00Z,43.82,18.32,12.0,12.0,0,1,,6.21,30.059055,,,,,,TRUE,,,,,FEW,1000,,,,,,,VFR,,,,,,,,,,,,METAR,505.0
LQMO 070430Z VRB01KT 9999 FEW040 15/14 Q1015,LQMO,2023-06-07T04:30:00Z,43.28,17.83,15.0,14.0,0,1,,6.21,29.970472,,,,,,,,,,,FEW,4000,,,,,,,VFR,,,,,,,,,,,,METAR,49.0
LQBK 070430Z VRB01KT 9999 3000N FEW002 SCT025 14/14 Q1017 NOSIG,LQBK,2023-06-07T04:30:00Z,44.93,17.3,14.0,14.0,0,1,,6.21,30.029528,,,,,,TRUE,,,,,FEW,200,SCT,2500,,,,,VFR,,,,,,,,,,,,METAR,114.0
LPPT 070430Z 16007KT 140V200 9999 FEW008 20/18 Q1008,LPPT,2023-06-07T04:30:00Z,38.77,-9.13,20.0,18.0,160,7,,6.21,29.763779,,,,,,,,,,,FEW,800,,,,,,,VFR,,,,,,,,,,,,METAR,98.0
LPPS 070430Z 22016KT 9999 SCT014 20/18 Q1004,LPPS,2023-06-07T04:30:00Z,33.07,-16.35,20.0,18.0,220,16,,6.21,29.64567,,,,,,,,,,,SCT,1400,,,,,,,VFR,,,,,,,,,,,,METAR,89.0
LPPR 070430Z 11007KT 9999 FEW007 SCT030 BKN045 19/17 Q1008,LPPR,2023-06-07T04:30:00Z,41.23,-8.68,19.0,17.0,110,7,,6.21,29.763779,,,,,,,,,,,FEW,700,SCT,3000,BKN,4500,,,VFR,,,,,,,,,,,,METAR,64.0
LPPD 070430Z 36015KT 9999 SCT007 BKN012 18/16 Q1001,LPPD,2023-06-07T04:30:00Z,37.73,-25.68,18.0,16.0,360,15,,6.21,29.557087,,,,,,,,,,,SCT,700,BKN,1200,,,,,MVFR,,,,,,,,,,,,METAR,62.0
LPMA 070430Z 22018KT 9999 SCT013 21/18 Q1004,LPMA,2023-06-07T04:30:00Z,32.7,-16.77,21.0,18.0,220,18,,6.21,29.64567,,,,,,,,,,,SCT,1300,,,,,,,VFR,,,,,,,,,,,,METAR,54.0
LPFR 070430Z 09008KT 9999 SCT020 21/18 Q1008,LPFR,2023-06-07T04:30:00Z,37.02,-7.97,21.0,18.0,90,8,,6.21,29.763779,,,,,,,,,,,SCT,2000,,,,,,,VFR,,,,,,,,,,,,METAR,3.0
LPAZ 070430Z 33013KT 9999 FEW011 SCT018 18/17 Q1001,LPAZ,2023-06-07T04:30:00Z,36.97,-25.17,18.0,17.0,330,13,,6.21,29.557087,,,,,,,,,,,FEW,1100,SCT,1800,,,,,VFR,,,,,,,,,,,,METAR,96.0
LKTB 070430Z VRB02KT 9999 FEW048 15/13 Q1016 NOSIG,LKTB,2023-06-07T04:30:00Z,49.15,16.68,15.0,13.0,0,2,,6.21,30.0,,,,,,TRUE,,,,,FEW,4800,,,,,,,VFR,,,,,,,,,,,,METAR,233.0
LKPR 070430Z 27003KT 240V300 CAVOK 14/14 Q1018 NOSIG,LKPR,2023-06-07T04:30:00Z,50.1,14.27,14.0,14.0,270,3,,6.21,30.059055,,,,,,TRUE,,,,,CAVOK,,,,,,,,VFR,,,,,,,,,,,,METAR,364.0
LKPD 070430Z 00000KT 6000 FEW003 14/13 Q1017 NOSIG RMK WHT WHT,LKPD,2023-06-07T04:30:00Z,50.02,15.73,14.0,13.0,0,0,,3.73,30.029528,,,,,,TRUE,,,,,FEW,300,,,,,,,MVFR,,,,,,,,,,,,METAR,226.0
LKNA 070430Z 32005KT 2000 BR FEW002 SCT060 BKN190 14/13 Q1017 NOSIG RMK YLO YLO,LKNA,2023-06-07T04:30:00Z,49.17,16.12,14.0,13.0,320,5,,1.24,30.029528,,,,,,TRUE,,,,BR,FEW,200,SCT,6000,BKN,19000,,,IFR,,,,,,,,,,,,METAR,460.0
LKMT 070430Z VRB02KT 9999 FEW024 SCT035 16/14 Q1016 NOSIG,LKMT,2023-06-07T04:30:00Z,49.68,18.12,16.0,14.0,0,2,,6.21,30.0,,,,,,TRUE,,,,,FEW,2400,SCT,3500,,,,,VFR,,,,,,,,,,,,METAR,251.0
LKCV 070430Z 19001KT 8000 NSC 14/14 Q1017 NOSIG RMK BLU BLU,LKCV,2023-06-07T04:30:00Z,49.93,15.38,14.0,14.0,190,1,,4.97,30.029528,,,,,,TRUE,,,,,CLR,,,,,,,,MVFR,,,,,,,,,,,,METAR,234.0
LJPZ 070430Z AUTO 12006KT 9999 NCD 16/15 Q1016,LJPZ,2023-06-07T04:30:00Z,45.47,13.62,16.0,15.0,120,6,,6.21,30.0,,,TRUE,,,,,,,,CLR,,,,,,,,VFR,,,,,,,,,,,,METAR,2.0
LJMB 070430Z AUTO 00000KT 0450 R32/0400N FG VV002 15/14 Q1017,LJMB,2023-06-07T04:30:00Z,46.47,15.67,15.0,14.0,0,0,,0.28,30.029528,,,TRUE,,,,,,,FG,OVX,0,,,,,,,LIFR,,,,,,,,,,,200,METAR,263.0
LJLJ 070430Z 28005KT 9999 FEW002 14/13 Q1017 NOSIG,LJLJ,2023-06-07T04:30:00Z,46.22,14.47,14.0,13.0,280,5,,6.21,30.029528,,,,,,TRUE,,,,,FEW,200,,,,,,,VFR,,,,,,,,,,,,METAR,363.0
LJCE 070430Z AUTO 29004KT 0450 R09/0600U FG VV002 15/15 Q1017,LJCE,2023-06-07T04:30:00Z,45.9,15.52,15.0,15.0,290,4,,0.28,30.029528,,,TRUE,,,,,,,FG,OVX,0,,,,,,,LIFR,,,,,,,,,,,200,METAR,153.0
LHBP 070430Z 09003KT 9999 SCT024 BKN100 16/14 Q1016 NOSIG,LHBP,2023-06-07T04:30:00Z,47.43,19.27,16.0,14.0,90,3,,6.21,30.0,,,,,,TRUE,,,,,SCT,2400,BKN,10000,,,,,VFR,,,,,,,,,,,,METAR,141.0
LFYR 070430Z AUTO VRB02KT CAVOK 13/10 Q1015,LFYR,2023-06-07T04:30:00Z,47.32,1.68,13.0,10.0,0,2,,6.21,29.970472,,,TRUE,,,,,,,,CAVOK,,,,,,,,VFR,,,,,,,,,,,,METAR,83.0
LFVP 070430Z AUTO 06010KT 0700 0650 R26/0800D FG VV/// 05/05 Q1003,LFVP,2023-06-07T04:30:00Z,46.77,-56.18,5.0,5.0,60,10,,0.43,29.616142,,,TRUE,,,,,,,FG,OVX,0,,,,,,,LIFR,,,,,,,,,,,,SPECI,5.0
LFTW 070430Z AUTO VRB02KT 7000 FEW013 SCT026 18/17 Q1015 NOSIG,LFTW,2023-06-07T04:30:00Z,43.75,4.42,18.0,17.0,0,2,,4.35,29.970472,,,TRUE,,,TRUE,,,,,FEW,1300,SCT,2600,,,,,MVFR,,,,,,,,,,,,METAR,91.0
LFTH 070430Z AUTO VRB01KT 9999 SCT020 17/16 Q1015 NOSIG,LFTH,2023-06-07T04:30:00Z,43.1,6.15,17.0,16.0,0,1,,6.21,29.970472,,,TRUE,,,TRUE,,,,,SCT,2000,,,,,,,VFR,,,,,,,,,,,,METAR,3.0
LFSX 070430Z AUTO 06001KT CAVOK 11/10 Q1016,LFSX,2023-06-07T04:30:00Z,47.77,6.35,11.0,10.0,60,1,,6.21,30.0,,,TRUE,,,,,,,,CAVOK,,,,,,,,VFR,,,,,,,,,,,,METAR,266.0
LFST 070430Z AUTO 33004KT CAVOK 14/10 Q1017 NOSIG,LFST,2023-06-07T04:30:00Z,48.53,7.63,14.0,10.0,330,4,,6.21,30.029528,,,TRUE,,,TRUE,,,,,CAVOK,,,,,,,,VFR,,,,,,,,,,,,METAR,149.0
LFSO 070430Z AUTO 06003KT CAVOK 13/07 Q1017,LFSO,2023-06-07T04:30:00Z,48.57,5.97,13.0,7.0,60,3,,6.21,30.029528,,,TRUE,,,,,,,,CAVOK,,,,,,,,VFR,,,,,,,,,,,,METAR,328.0
LFSN 070430Z AUTO VRB01KT CAVOK 14/08 Q1017,LFSN,2023-06-07T04:30:00Z,48.68,6.22,14.0,8.0,0,1,,6.21,30.029528,,,TRUE,,,,,,,,CAVOK,,,,,,,,VFR,,,,,,,,,,,,METAR,214.0
LFSL 070430Z AUTO VRB01KT CAVOK 12/11 Q1014 NOSIG,LFSL,2023-06-07T04:30:00Z,45.03,1.48,12.0,11.0,0,1,,6.21,29.940945,,,TRUE,,,TRUE,,,,,CAVOK,,,,,,,,VFR,,,,,,,,,,,,METAR,300.0
LFSI 070430Z AUTO 09006KT CAVOK 15/09 Q1016,LFSI,2023-06-07T04:30:00Z,48.62,4.9,15.0,9.0,90,6,,6.21,30.0,,,TRUE,,,,,,,,CAVOK,,,,,,,,VFR,,,,,,,,,,,,METAR,136.0
LFSG 070430Z AUTO 02004KT CAVOK 12/08 Q1017,LFSG,2023-06-07T04:30:00Z,48.33,6.07,12.0,8.0,20,4,,6.21,30.029528,,,TRUE,,,,,,,,CAVOK,,,,,,,,VFR,,,,,,,,,,,,METAR,320.0
LFSD 070430Z AUTO 36006KT 330V040 CAVOK 17/09 Q1015,LFSD,2023-06-07T04:30:00Z,47.27,5.08,17.0,9.0,360,6,,6.21,29.970472,,,TRUE,,,,,,,,CAVOK,,,,,,,,VFR,,,,,,,,,,,,METAR,218.0
LFSB 070430Z AUTO 17001KT CAVOK 12/10 Q1017 NOSIG,LFSB,2023-06-07T04:30:00Z,47.6,7.52,12.0,10.0,170,1,,6.21,30.029528,,,TRUE,,,TRUE,,,,,CAVOK,,,,,,,,VFR,,,,,,,,,,,,METAR,262.0
LFRZ 070430Z AUTO 03006KT CAVOK 15/13 Q1014 BECMG 09010KT,LFRZ,2023-06-07T04:30:00Z,47.32,-2.17,15.0,13.0,30,6,,6.21,29.940945,,,TRUE,,,,,,,,CAVOK,,,,,,,,VFR,,,,,,,,,,,,SPECI,2.0
LFRV 070430Z AUTO 03011KT 6000 NSC 12/11 Q1015,LFRV,2023-06-07T04:30:00Z,47.72,-2.72,12.0,11.0,30,11,,3.73,29.970472,,,TRUE,,,,,,,,CLR,,,,,,,,MVFR,,,,,,,,,,,,METAR,132.0
LFRT 070430Z AUTO 05008KT 3900 BR OVC004 13/12 Q1017,LFRT,2023-06-07T04:30:00Z,48.53,-2.85,13.0,12.0,50,8,,2.42,30.029528,,,TRUE,,,,,,,BR,OVC,400,,,,,,,LIFR,,,,,,,,,,,,METAR,134.0
LFRS 070430Z AUTO 04004KT 360V080 CAVOK 17/13 Q1014 NOSIG,LFRS,2023-06-07T04:30:00Z,47.17,-1.6,17.0,13.0,40,4,,6.21,29.940945,,,TRUE,,,TRUE,,,,,CAVOK,,,,,,,,VFR,,,,,,,,,,,,METAR,26.0
LFRQ 070430Z AUTO 03008KT 9000 NSC 12/11 Q1015,LFRQ,2023-06-07T04:30:00Z,47.97,-4.17,12.0,11.0,30,8,,5.59,29.970472,,,TRUE,,,,,,,,CLR,,,,,,,,VFR,,,,,,,,,,,,METAR,94.0
LFRN 070430Z AUTO 34004KT 8000 NSC 11/11 Q1016 NOSIG,LFRN,2023-06-07T04:30:00Z,48.07,-1.73,11.0,11.0,340,4,,4.97,30.0,,,TRUE,,,TRUE,,,,,CLR,,,,,,,,MVFR,,,,,,,,,,,,METAR,35.0
LFRM 070430Z AUTO 02005KT CAVOK 16/12 Q1016,LFRM,2023-06-07T04:30:00Z,47.95,0.2,16.0,12.0,20,5,,6.21,30.0,,,TRUE,,,,,,,,CAVOK,,,,,,,,VFR,,,,,,,,,,,,METAR,51.0
LFRL 070430Z AUTO 06010KT 5000 BR OVC005 13/12 Q1016,LFRL,2023-06-07T04:30:00Z,48.27,-4.43,13.0,12.0,60,10,,3.11,30.0,,,TRUE,,,,,,,BR,OVC,500,,,,,,,IFR,,,,,,,,,,,,METAR,80.0
LFRK 070430Z AUTO 02003KT 350V060 4800 BR BKN006 13/12 Q1018,LFRK,2023-06-07T04:30:00Z,49.17,-0.45,13.0,12.0,20,3,,2.98,30.059055,,,TRUE,,,,,,,BR,BKN,600,,,,,,,IFR,,,,,,,,,,,,METAR,66.0
LFRJ 070430Z AUTO 07012KT 4600 BR OVC003 12/12 Q1016,LFRJ,2023-06-07T04:30:00Z,48.52,-4.15,12.0,12.0,70,12,,2.86,30.0,,,TRUE,,,,,,,BR,OVC,300,,,,,,,LIFR,,,,,,,,,,,,METAR,109.0
LFRI 070430Z AUTO 06004KT 9000 NSC 14/12 Q1014,LFRI,2023-06-07T04:30:00Z,46.7,-1.37,14.0,12.0,60,4,,5.59,29.940945,,,TRUE,,,,,,,,CLR,,,,,,,,VFR,,,,,,,,,,,,METAR,89.0
LFRH 070430Z AUTO 05009KT CAVOK 13/11 Q1015 NOSIG,LFRH,2023-06-07T04:30:00Z,47.77,-3.45,13.0,11.0,50,9,,6.21,29.970472,,,TRUE,,,TRUE,,,,,CAVOK,,,,,,,,VFR,,,,,,,,,,,,METAR,46.0
LFRG 070430Z AUTO 04005KT 3200 BR FEW003 11/11 Q1018,LFRG,2023-06-07T04:30:00Z,49.37,0.15,11.0,11.0,40,5,,1.99,30.059055,,,TRUE,,,,,,,BR,FEW,300,,,,,,,IFR,,,,,,,,,,,,METAR,146.0
LFRD 070430Z AUTO 04004KT 5000 BR OVC007 13/12 Q1017 NOSIG,LFRD,2023-06-07T04:30:00Z,48.58,-2.07,13.0,12.0,40,4,,3.11,30.029528,,,TRUE,,,TRUE,,,,BR,OVC,700,,,,,,,IFR,,,,,,,,,,,,METAR,56.0
LFRC 070430Z AUTO 07017KT 2400 BR OVC002 11/11 Q1019,LFRC,2023-06-07T04:30:00Z,49.63,-1.47,11.0,11.0,70,17,,1.49,30.088583,,,TRUE,,,,,,,BR,OVC,200,,,,,,,LIFR,,,,,,,,,,,,METAR,137.0
LFRB 070430Z AUTO 05012KT 6000 OVC005 12/12 Q1016 NOSIG,LFRB,2023-06-07T04:30:00Z,48.45,-4.42,12.0,12.0,50,12,,3.73,30.0,,,TRUE,,,TRUE,,,,,OVC,500,,,,,,,IFR,,,,,,,,,,,,METAR,91.0
LFQQ 070430Z AUTO 36006KT 6000 NSC 12/11 Q1019 NOSIG,LFQQ,2023-06-07T04:30:00Z,50.57,3.1,12.0,11.0,360,6,,3.73,30.088583,,,TRUE,,,TRUE,,,,,CLR,,,,,,,,MVFR,,,,,,,,,,,,METAR,43.0
LFQB 070430Z AUTO 00000KT CAVOK 12/09 Q1016,LFQB,2023-06-07T04:30:00Z,48.32,4.02,12.0,9.0,0,0,,6.21,30.0,,,TRUE,,,,,,,,CAVOK,,,,,,,,VFR,,,,,,,,,,,,METAR,107.0
LFQA 070430Z AUTO 28002KT CAVOK 09/08 Q1017,LFQA,2023-06-07T04:30:00Z,49.2,4.15,9.0,8.0,280,2,,6.21,30.029528,,,TRUE,,,,,,,,CAVOK,,,,,,,,VFR,,,,,,,,,,,,METAR,92.0
LFPV 070430Z AUTO 02009KT CAVOK 14/11 Q1017 NOSIG,LFPV,2023-06-07T04:30:00Z,48.77,2.2,14.0,11.0,20,9,,6.21,30.029528,,,TRUE,,,TRUE,,,,,CAVOK,,,,,,,,VFR,,,,,,,,,,,,METAR,171.0
LFPT 070430Z AUTO 02003KT 6000 NSC 13/11 Q1017,LFPT,2023-06-07T04:30:00Z,49.1,2.03,13.0,11.0,20,3,,3.73,30.029528,,,TRUE,,,,,,,,CLR,,,,,,,,MVFR,,,,,,,,,,,,METAR,91.0
LFPO 070430Z AUTO 01006KT CAVOK 14/12 Q1017 NOSIG,LFPO,2023-06-07T04:30:00Z,48.72,2.38,14.0,12.0,10,6,,6.21,30.029528,,,TRUE,,,TRUE,,,,,CAVOK,,,,,,,,VFR,,,,,,,,,,,,METAR,88.0
LFPN 070430Z AUTO 32004KT 300V360 CAVOK 13/11 Q1017,LFPN,2023-06-07T04:30:00Z,48.75,2.12,13.0,11.0,320,4,,6.21,30.029528,,,TRUE,,,,,,,,CAVOK,,,,,,,,VFR,,,,,,,,,,,,METAR,152.0
LFPM 070430Z AUTO 34006KT 7000 NSC 13/10 Q1016,LFPM,2023-06-07T04:30:00Z,48.62,2.67,13.0,10.0,340,6,,4.35,30.0,,,TRUE,,,,,,,,CLR,,,,,,,,MVFR,,,,,,,,,,,,METAR,91.0
LFPG 070430Z 01010KT 6000 NSC 12/11 Q1017 NOSIG,LFPG,2023-06-07T04:30:00Z,49.02,2.53,12.0,11.0,10,10,,3.73,30.029528,,,,,,TRUE,,,,,CLR,,,,,,,,MVFR,,,,,,,,,,,,METAR,107.0
LFPB 070430Z AUTO 36005KT 320V030 9000 NSC 13/11 Q1017 NOSIG,LFPB,2023-06-07T04:30:00Z,48.97,2.42,13.0,11.0,360,5,,5.59,30.029528,,,TRUE,,,TRUE,,,,,CLR,,,,,,,,VFR,,,,,,,,,,,,METAR,50.0
LFOZ 070430Z AUTO 03004KT 360V070 CAVOK 15/12 Q1016,LFOZ,2023-06-07T04:30:00Z,47.9,2.17,15.0,12.0,30,4,,6.21,30.0,,,TRUE,,,,,,,,CAVOK,,,,,,,,VFR,,,,,,,,,,,,METAR,121.0
LFOV 070430Z AUTO 36007KT CAVOK 13/12 Q1016,LFOV,2023-06-07T04:30:00Z,48.03,-0.75,13.0,12.0,360,7,,6.21,30.0,,,TRUE,,,,,,,,CAVOK,,,,,,,,VFR,,,,,,,,,,,,METAR,99.0
LFOT 070430Z AUTO 07007KT CAVOK 15/11 Q1015 NOSIG,LFOT,2023-06-07T04:30:00Z,47.43,0.72,15.0,11.0,70,7,,6.21,29.970472,,,TRUE,,,TRUE,,,,,CAVOK,,,,,,,,VFR,,,,,,,,,,,,METAR,107.0
LFOP 070430Z AUTO 03010KT 5000 BR NSC 12/11 Q1018,LFOP,2023-06-07T04:30:00Z,49.37,1.17,12.0,11.0,30,10,,3.11,30.059055,,,TRUE,,,,,,,BR,CLR,,,,,,,,MVFR,,,,,,,,,,,,METAR,149.0
LFOK 070430Z AUTO 03007KT CAVOK 12/10 Q1016 NOSIG,LFOK,2023-06-07T04:30:00Z,48.78,4.15,12.0,10.0,30,7,,6.21,30.0,,,TRUE,,,TRUE,,,,,CAVOK,,,,,,,,VFR,,,,,,,,,,,,METAR,166.0
LFOJ 070430Z AUTO 35005KT CAVOK 11/10 Q1015 NOSIG,LFOJ,2023-06-07T04:30:00Z,47.98,1.75,11.0,10.0,350,5,,6.21,29.970472,,,TRUE,,,TRUE,,,,,CAVOK,,,,,,,,VFR,,,,,,,,,,,,METAR,122.0
LFOH 070430Z AUTO 07009KT 3600 BR BKN004 12/12 Q1018,LFOH,2023-06-07T04:30:00Z,49.52,0.08,12.0,12.0,70,9,,2.24,30.059055,,,TRUE,,,,,,,BR,BKN,400,,,,,,,LIFR,,,,,,,,,,,,METAR,87.0
LFOE 070430Z AUTO 05006KT 6000 NSC 12/11 Q1018 TEMPO BKN008,LFOE,2023-06-07T04:30:00Z,49.02,1.22,12.0,11.0,50,6,,3.73,30.059055,,,TRUE,,,,,,,,CLR,,,,,,,,MVFR,,,,,,,,,,,,SPECI,132.0
LFOB 070430Z AUTO 35004KT 300V040 6000 OVC006 12/11 Q1018 BECMG NSC,LFOB,2023-06-07T04:30:00Z,49.47,2.12,12.0,11.0,350,4,,3.73,30.059055,,,TRUE,,,,,,,,OVC,600,,,,,,,IFR,,,,,,,,,,,,SPECI,99.0
LFOA 070430Z AUTO 00000KT CAVOK 13/10 Q1015 NOSIG,LFOA,2023-06-07T04:30:00Z,47.05,2.63,13.0,10.0,0,0,,6.21,29.970472,,,TRUE,,,TRUE,,,,,CAVOK,,,,,,,,VFR,,,,,,,,,,,,METAR,174.0
LFMY 070430Z AUTO 05004KT 9000 OVC024 18/17 Q1015,LFMY,2023-06-07T04:30:00Z,43.6,5.1,18.0,17.0,50,4,,5.59,29.970472,,,TRUE,,,,,,,,OVC,2400,,,,,,,MVFR,,,,,,,,,,,,METAR,57.0
LFMV 070430Z AUTO VRB02KT 9999 SCT022 17/15 Q1015 TEMPO 4000 BR,LFMV,2023-06-07T04:30:00Z,43.9,4.9,17.0,15.0,0,2,,6.21,29.970472,,,TRUE,,,,,,,,SCT,2200,,,,,,,VFR,,,,,,,,,,,,SPECI,33.0
LFMU 070430Z AUTO 03006KT CAVOK 17/16 Q1014 TEMPO BKN004 BKN020,LFMU,2023-06-07T04:30:00Z,43.32,3.35,17.0,16.0,30,6,,6.21,29.940945,,,TRUE,,,,,,,,CAVOK,,,,,,,,VFR,,,,,,,,,,,,METAR,14.0
LFMT 070430Z AUTO 03006KT 9999 BKN017 BKN022 18/17 Q1015 TEMPO BKN008 BKN020,LFMT,2023-06-07T04:30:00Z,43.57,3.97,18.0,17.0,30,6,,6.21,29.970472,,,TRUE,,,,,,,,BKN,1700,BKN,2200,,,,,MVFR,,,,,,,,,,,,SPECI,1.0
LFMP 070430Z AUTO 24004KT 9999 BKN014 16/15 Q1014 NOSIG,LFMP,2023-06-07T04:30:00Z,42.73,2.87,16.0,15.0,240,4,,6.21,29.940945,,,TRUE,,,TRUE,,,,,BKN,1400,,,,,,,MVFR,,,,,,,,,,,,METAR,41.0
LFMO 070430Z AUTO 30002KT 9999 BKN014 18/17 Q1015 BECMG SCT050,LFMO,2023-06-07T04:30:00Z,44.13,4.87,18.0,17.0,300,2,,6.21,29.970472,,,TRUE,,,,,,,,BKN,1400,,,,,,,MVFR,,,,,,,,,,,,METAR,56.0
LFMN 070430Z 34005KT 9999 FEW013 BKN200 19/14 Q1015 NOSIG,LFMN,2023-06-07T04:30:00Z,43.65,7.2,19.0,14.0,340,5,,6.21,29.970472,,,,,,TRUE,,,,,FEW,1300,BKN,20000,,,,,VFR,,,,,,,,,,,,METAR,4.0
LFML 070430Z AUTO 13005KT 9999 FEW024 19/17 Q1015 NOSIG,LFML,2023-06-07T04:30:00Z,43.45,5.22,19.0,17.0,130,5,,6.21,29.970472,,,TRUE,,,TRUE,,,,,FEW,2400,,,,,,,VFR,,,,,,,,,,,,METAR,20.0
LFMK 070430Z AUTO 11005KT 060V150 9999 FEW007 BKN013 18/17 Q1014 NOSIG,LFMK,2023-06-07T04:30:00Z,43.22,2.32,18.0,17.0,110,5,,6.21,29.940945,,,TRUE,,,TRUE,,,,,FEW,700,BKN,1300,,,,,MVFR,,,,,,,,,,,,METAR,124.0
LFMI 070430Z AUTO 13004KT CAVOK 19/18 Q1015 NOSIG,LFMI,2023-06-07T04:30:00Z,43.52,4.93,19.0,18.0,130,4,,6.21,29.970472,,,TRUE,,,TRUE,,,,,CAVOK,,,,,,,,VFR,,,,,,,,,,,,METAR,20.0
LFMH 070430Z AUTO 00000KT CAVOK 11/10 Q1016,LFMH,2023-06-07T04:30:00Z,45.52,4.28,11.0,10.0,0,0,,6.21,30.0,,,TRUE,,,,,,,,CAVOK,,,,,,,,VFR,,,,,,,,,,,,METAR,400.0
LFMD 070430Z AUTO 01003KT 330V060 CAVOK 17/15 Q1015 TEMPO BKN012,LFMD,2023-06-07T04:30:00Z,43.53,6.95,17.0,15.0,10,3,,6.21,29.970472,,,TRUE,,,,,,,,CAVOK,,,,,,,,VFR,,,,,,,,,,,,SPECI,2.0
LFMC 070430Z AUTO 10001KT 9999 ////// 16/15 Q1016,LFMC,2023-06-07T04:30:00Z,43.37,6.38,16.0,15.0,100,1,,6.21,30.0,,,TRUE,,,,,,,,,,,,,,,,,,,,,,,,,,,,METAR,79.0
LFLY 070430Z AUTO 13002KT CAVOK 14/14 Q1015 NOSIG,LFLY,2023-06-07T04:30:00Z,45.72,4.95,14.0,14.0,130,2,,6.21,29.970472,,,TRUE,,,TRUE,,,,,CAVOK,,,,,,,,VFR,,,,,,,,,,,,METAR,197.0
LFLX 070430Z AUTO 03005KT CAVOK 12/10 Q1015 NOSIG,LFLX,2023-06-07T04:30:00Z,46.87,1.73,12.0,10.0,30,5,,6.21,29.970472,,,TRUE,,,TRUE,,,,,CAVOK,,,,,,,,VFR,,,,,,,,,,,,METAR,157.0
LFLW 070430Z AUTO 10004KT CAVOK 09/09 Q1016,LFLW,2023-06-07T04:30:00Z,44.88,2.42,9.0,9.0,100,4,,6.21,30.0,,,TRUE,,,,,,,,CAVOK,,,,,,,,VFR,,,,,,,,,,,,METAR,638.0
LFLS 070430Z AUTO 06005KT 7000 BKN011 14/14 Q1016 TEMPO 4000 BR BECMG NSC,LFLS,2023-06-07T04:30:00Z,45.37,5.32,14.0,14.0,60,5,,4.35,30.0,,,TRUE,,,,,,,,BKN,1100,,,,,,,MVFR,,,,,,,,,,,,SPECI,386.0
LFLP 070430Z AUTO 36003KT CAVOK 14/11 Q1017 NOSIG,LFLP,2023-06-07T04:30:00Z,45.92,6.1,14.0,11.0,360,3,,6.21,30.029528,,,TRUE,,,TRUE,,,,,CAVOK,,,,,,,,VFR,,,,,,,,,,,,METAR,460.0
LFLN 070430Z AUTO 13001KT 7000 NSC 11/10 Q1015,LFLN,2023-06-07T04:30:00Z,46.42,4.02,11.0,10.0,130,1,,4.35,29.970472,,,TRUE,,,,,,,,CLR,,,,,,,,MVFR,,,,,,,,,,,,METAR,238.0
LFLL 070430Z 14005KT CAVOK 17/15 Q1015 NOSIG,LFLL,2023-06-07T04:30:00Z,45.72,5.07,17.0,15.0,140,5,,6.21,29.970472,,,,,,TRUE,,,,,CAVOK,,,,,,,,VFR,,,,,,,,,,,,METAR,234.0
LFLC 070430Z AUTO 34002KT CAVOK 12/10 Q1015 NOSIG,LFLC,2023-06-07T04:30:00Z,45.78,3.17,12.0,10.0,340,2,,6.21,29.970472,,,TRUE,,,TRUE,,,,,CAVOK,,,,,,,,VFR,,,,,,,,,,,,METAR,325.0
LFLB 070430Z AUTO 13002KT CAVOK 14/14 Q1016 NOSIG,LFLB,2023-06-07T04:30:00Z,45.63,5.87,14.0,14.0,130,2,,6.21,30.0,,,TRUE,,,TRUE,,,,,CAVOK,,,,,,,,VFR,,,,,,,,,,,,METAR,234.0
LFKS 070430Z AUTO 27005KT CAVOK 18/15 Q1016,LFKS,2023-06-07T04:30:00Z,41.92,9.4,18.0,15.0,270,5,,6.21,30.0,,,TRUE,,,,,,,,CAVOK,,,,,,,,VFR,,,,,,,,,,,,METAR,22.0
LFKJ 070430Z AUTO 04005KT 010V070 CAVOK 16/13 Q1016 NOSIG,LFKJ,2023-06-07T04:30:00Z,41.92,8.8,16.0,13.0,40,5,,6.21,30.0,,,TRUE,,,TRUE,,,,,CAVOK,,,,,,,,VFR,,,,,,,,,,,,METAR,9.0
LFKF 070430Z AUTO VRB02KT CAVOK 15/14 Q1016 TEMPO BKN008,LFKF,2023-06-07T04:30:00Z,41.5,9.08,15.0,14.0,0,2,,6.21,30.0,,,TRUE,,,,,,,,CAVOK,,,,,,,,VFR,,,,,,,,,,,,SPECI,15.0
LFKC 070430Z AUTO 16004KT CAVOK 16/14 Q1016 NOSIG,LFKC,2023-06-07T04:30:00Z,42.52,8.8,16.0,14.0,160,4,,6.21,30.0,,,TRUE,,,TRUE,,,,,CAVOK,,,,,,,,VFR,,,,,,,,,,,,METAR,38.0
LFKB 070430Z AUTO 22004KT CAVOK 16/15 Q1016 NOSIG,LFKB,2023-06-07T04:30:00Z,42.55,9.48,16.0,15.0,220,4,,6.21,30.0,,,TRUE,,,TRUE,,,,,CAVOK,,,,,,,,VFR,,,,,,,,,,,,METAR,7.0
LFJR 070430Z AUTO VRB02KT CAVOK 15/12 Q1015,LFJR,2023-06-07T04:30:00Z,47.57,-0.32,15.0,12.0,0,2,,6.21,29.970472,,,TRUE,,,,,,,,CAVOK,,,,,,,,VFR,,,,,,,,,,,,METAR,50.0
LFJL 070430Z AUTO 07005KT CAVOK 13/08 Q1018 NOSIG,LFJL,2023-06-07T04:30:00Z,48.97,6.25,13.0,8.0,70,5,,6.21,30.059055,,,TRUE,,,TRUE,,,,,CAVOK,,,,,,,,VFR,,,,,,,,,,,,METAR,259.0
LFGJ 070430Z AUTO 05004KT CAVOK 14/10 Q1015,LFGJ,2023-06-07T04:30:00Z,47.05,5.43,14.0,10.0,50,4,,6.21,29.970472,,,TRUE,,,,,,,,CAVOK,,,,,,,,VFR,,,,,,,,,,,,METAR,191.0
LFCR 070430Z AUTO 10003KT CAVOK 10/10 Q1016 NOSIG,LFCR,2023-06-07T04:30:00Z,44.4,2.47,10.0,10.0,100,3,,6.21,30.0,,,TRUE,,,TRUE,,,,,CAVOK,,,,,,,,VFR,,,,,,,,,,,,METAR,576.0
LFCK 070430Z AUTO 11009KT CAVOK 17/13 Q1014,LFCK,2023-06-07T04:30:00Z,43.55,2.28,17.0,13.0,110,9,,6.21,29.940945,,,TRUE,,,,,,,,CAVOK,,,,,,,,VFR,,,,,,,,,,,,METAR,223.0
LFBZ 070430Z AUTO 09003KT CAVOK 17/17 Q1010 NOSIG,LFBZ,2023-06-07T04:30:00Z,43.47,-1.53,17.0,17.0,90,3,,6.21,29.822834,,,TRUE,,,TRUE,,,,,CAVOK,,,,,,,,VFR,,,,,,,,,,,,METAR,70.0
LFBY 070430Z AUTO 08004KT 9000 // ////// 16/16 Q1011,LFBY,2023-06-07T04:30:00Z,43.68,-1.07,16.0,16.0,80,4,,5.59,29.852362,,,TRUE,,,,,,,,,,,,,,,,,,,,,,,,,,,,METAR,32.0
LFBX 070430Z AUTO 11001KT 4200 BR FEW001 11/11 Q1014,LFBX,2023-06-07T04:30:00Z,45.2,0.82,11.0,11.0,110,1,,2.61,29.940945,,,TRUE,,,,,,,BR,FEW,100,,,,,,,IFR,,,,,,,,,,,,METAR,97.0
LFBU 070430Z AUTO 00000KT CAVOK 14/12 Q1014,LFBU,2023-06-07T04:30:00Z,45.72,0.22,14.0,12.0,0,0,,6.21,29.940945,,,TRUE,,,,,,,,CAVOK,,,,,,,,VFR,,,,,,,,,,,,METAR,124.0
LFBT 070430Z AUTO 22002KT CAVOK 13/13 Q1013 TEMPO 4000 BR,LFBT,2023-06-07T04:30:00Z,43.18,0.0,13.0,13.0,220,2,,6.21,29.911417,,,TRUE,,,,,,,,CAVOK,,,,,,,,VFR,,,,,,,,,,,,SPECI,359.0
LFBP 070430Z AUTO 13001KT CAVOK 16/15 Q1012 NOSIG,LFBP,2023-06-07T04:30:00Z,43.38,-0.42,16.0,15.0,130,1,,6.21,29.88189,,,TRUE,,,TRUE,,,,,CAVOK,,,,,,,,VFR,,,,,,,,,,,,METAR,182.0
LFBO 070430Z AUTO VRB03KT CAVOK 16/15 Q1013 TEMPO 4000 BR BKN006,LFBO,2023-06-07T04:30:00Z,43.62,1.37,16.0,15.0,0,3,,6.21,29.911417,,,TRUE,,,,,,,,CAVOK,,,,,,,,VFR,,,,,,,,,,,,SPECI,150.0
LFBM 070430Z AUTO 08004KT CAVOK 14/14 Q1012 NOSIG,LFBM,2023-06-07T04:30:00Z,43.92,-0.5,14.0,14.0,80,4,,6.21,29.88189,,,TRUE,,,TRUE,,,,,CAVOK,,,,,,,,VFR,,,,,,,,,,,,METAR,56.0
LFBL 070430Z AUTO 04004KT CAVOK 15/13 Q1015 NOSIG,LFBL,2023-06-07T04:30:00Z,45.87,1.17,15.0,13.0,40,4,,6.21,29.970472,,,TRUE,,,TRUE,,,,,CAVOK,,,,,,,,VFR,,,,,,,,,,,,METAR,402.0
LFBI 070430Z AUTO 17003KT CAVOK 14/12 Q1014 NOSIG,LFBI,2023-06-07T04:30:00Z,46.58,0.32,14.0,12.0,170,3,,6.21,29.940945,,,TRUE,,,TRUE,,,,,CAVOK,,,,,,,,VFR,,,,,,,,,,,,METAR,117.0
LFBH 070430Z AUTO 10006KT CAVOK 16/13 Q1013 NOSIG,LFBH,2023-06-07T04:30:00Z,46.18,-1.2,16.0,13.0,100,6,,6.21,29.911417,,,TRUE,,,TRUE,,,,,CAVOK,,,,,,,,VFR,,,,,,,,,,,,METAR,18.0
LFBG 070430Z AUTO 08004KT CAVOK 15/14 Q1014,LFBG,2023-06-07T04:30:00Z,45.67,-0.32,15.0,14.0,80,4,,6.21,29.940945,,,TRUE,,,,,,,,CAVOK,,,,,,,,VFR,,,,,,,,,,,,METAR,28.0
LFBF 070430Z AUTO 00000KT CAVOK 16/15 Q1013,LFBF,2023-06-07T04:30:00Z,43.53,1.37,16.0,15.0,0,0,,6.21,29.911417,,,TRUE,,,,,,,,CAVOK,,,,,,,,VFR,,,,,,,,,,,,METAR,159.0
LFBE 070430Z AUTO 09002KT 1300 0600 R27/2100D BCFG NSC 13/12 Q1013 BECMG 9999 NSW,LFBE,2023-06-07T04:30:00Z,44.82,0.52,13.0,12.0,90,2,,0.81,29.911417,,,TRUE,,,,,,,BCFG,CLR,,,,,,,,LIFR,,,,,,,,,,,,METAR,49.0
LFBD 070430Z AUTO 09007KT CAVOK 18/14 Q1013 NOSIG,LFBD,2023-06-07T04:30:00Z,44.82,-0.7,18.0,14.0,90,7,,6.21,29.911417,,,TRUE,,,TRUE,,,,,CAVOK,,,,,,,,VFR,,,,,,,,,,,,METAR,48.0
LFBC 070430Z AUTO VRB02KT CAVOK 16/14 Q1012,LFBC,2023-06-07T04:30:00Z,44.52,-1.12,16.0,14.0,0,2,,6.21,29.88189,,,TRUE,,,,,,,,CAVOK,,,,,,,,VFR,,,,,,,,,,,,METAR,22.0
LFBA 070430Z AUTO 12004KT CAVOK 13/13 Q1013,LFBA,2023-06-07T04:30:00Z,44.17,0.6,13.0,13.0,120,4,,6.21,29.911417,,,TRUE,,,,,,,,CAVOK,,,,,,,,VFR,,,,,,,,,,,,METAR,68.0
LFAT 070430Z AUTO 07008KT 040V100 CAVOK 12/10 Q1019,LFAT,2023-06-07T04:30:00Z,50.52,1.62,12.0,10.0,70,8,,6.21,30.088583,,,TRUE,,,,,,,,CAVOK,,,,,,,,VFR,,,,,,,,,,,,METAR,2.0
LFAQ 070430Z AUTO 02011KT 4800 BR NSC 12/12 Q1018,LFAQ,2023-06-07T04:30:00Z,49.97,2.7,12.0,12.0,20,11,,2.98,30.059055,,,TRUE,,,,,,,BR,CLR,,,,,,,,IFR,,,,,,,,,,,,METAR,107.0
LFAC 070430Z AUTO 04013KT 9999 OVC010 12/10 Q1021,LFAC,2023-06-07T04:30:00Z,50.97,1.95,12.0,10.0,40,13,,6.21,30.147638,,,TRUE,,,,,,,,OVC,1000,,,,,,,MVFR,,,,,,,,,,,,METAR,3.0
LEZL 070430Z 03008KT 9999 -RA NSC 20/18 Q1009 NOSIG,LEZL,2023-06-07T04:30:00Z,37.42,-5.9,20.0,18.0,30,8,,6.21,29.793306,,,,,,TRUE,,,,-RA,CLR,,,,,,,,VFR,,,,,,,,,,,,METAR,26.0
LEZG 070430Z 11009KT 9999 FEW070 19/15 Q1013,LEZG,2023-06-07T04:30:00Z,41.67,-1.02,19.0,15.0,110,9,,6.21,29.911417,,,,,,,,,,,FEW,7000,,,,,,,VFR,,,,,,,,,,,,METAR,245.0
LEXJ 070430Z 00000KT CAVOK 18/18 Q1009,LEXJ,2023-06-07T04:30:00Z,43.42,-3.82,18.0,18.0,0,0,,6.21,29.793306,,,,,,,,,,,CAVOK,,,,,,,,VFR,,,,,,,,,,,,METAR,1.0
LEVX 070430Z 18003KT 120V220 7000 BCFG RA FEW003 17/17 Q1008 TEMPO 3000 SHRA BR,LEVX,2023-06-07T04:30:00Z,42.23,-8.62,17.0,17.0,180,3,,4.35,29.763779,,,,,,,,,,BCFG RA,FEW,300,,,,,,,MVFR,,,,,,,,,,,,SPECI,253.0
LEVT 070430Z VRB01KT 9999 FEW030 14/13 Q1012,LEVT,2023-06-07T04:30:00Z,42.87,-2.72,14.0,13.0,0,1,,6.21,29.88189,,,,,,,,,,,FEW,3000,,,,,,,VFR,,,,,,,,,,,,METAR,501.0
LEVS 070430Z AUTO VRB01KT 6000 BKN033 17/13 Q1014,LEVS,2023-06-07T04:30:00Z,40.37,-3.78,17.0,13.0,0,1,,3.73,29.940945,,,TRUE,,,,,,,,BKN,3300,,,,,,,MVFR,,,,,,,,,,,,METAR,683.0
LEVD 070430Z AUTO 19006KT 8000 RA FEW030 16/14 Q1012,LEVD,2023-06-07T04:30:00Z,41.72,-4.85,16.0,14.0,190,6,,4.97,29.88189,,,TRUE,,,,,,,RA,FEW,3000,,,,,,,MVFR,,,,,,,,,,,,METAR,844.0
LEVC 070430Z 33008KT 9999 SCT025 19/14 Q1014 NOSIG,LEVC,2023-06-07T04:30:00Z,39.5,-0.47,19.0,14.0,330,8,,6.21,29.940945,,,,,,TRUE,,,,,SCT,2500,,,,,,,VFR,,,,,,,,,,,,METAR,58.0
LETU 070430Z AUTO VRB02KT CAVOK 18/15 Q1013,LETU,2023-06-07T04:30:00Z,,,18.0,15.0,0,2,,6.21,29.911417,,,TRUE,,,,,,,,CAVOK,,,,,,,,VFR,,,,,,,,,,,,METAR,
LETO 070430Z 11005KT 070V170 6000 -RA OVC039 17/14 Q1014 NOSIG,LETO,2023-06-07T04:30:00Z,40.48,-3.47,17.0,14.0,110,5,,3.73,29.940945,,,,,,TRUE,,,,-RA,OVC,3900,,,,,,,MVFR,,,,,,,,,,,,METAR,598.0
LETL 070430Z AUTO 13003KT CAVOK 12/10 Q1017,LETL,2023-06-07T04:30:00Z,40.42,-1.22,12.0,10.0,130,3,,6.21,30.029528,,,TRUE,,,,,,,,CAVOK,,,,,,,,VFR,,,,,,,,,,,,METAR,1024.0
LEST 070430Z 11003KT 080V160 8000 3500S -RA BCFG FEW009 FEW035TCU 16/16 Q1009 TEMPO 3000 SHRA BR,LEST,2023-06-07T04:30:00Z,42.88,-8.42,16.0,16.0,110,3,,4.97,29.793306,,,,,,,,,,BCFG -RA,FEW,900,FEW,3500,,,,,MVFR,,,,,,,,,,,,SPECI,363.0
LESO 070430Z VRB01KT CAVOK 19/17 Q1010,LESO,2023-06-07T04:30:00Z,43.35,-1.8,19.0,17.0,0,1,,6.21,29.822834,,,,,,,,,,,CAVOK,,,,,,,,VFR,,,,,,,,,,,,METAR,3.0
LESB 070430Z AUTO 01004KT 9999 FEW018/// 18/15 Q1015,LESB,2023-06-07T04:30:00Z,39.6,2.7,18.0,15.0,10,4,,6.21,29.970472,,,TRUE,,,,,,,,FEW,1800,,,,,,,VFR,,,,,,,,,,,,METAR,48.0
LESA 070430Z AUTO 25006KT 6000 -RA NSC 16/15 Q1013,LESA,2023-06-07T04:30:00Z,40.95,-5.5,16.0,15.0,250,6,,3.73,29.911417,,,TRUE,,,,,,,-RA,CLR,,,,,,,,MVFR,,,,,,,,,,,,METAR,788.0
LERT 070430Z 12011KT 080V150 9999 FEW045 23/13 Q1009 NOSIG,LERT,2023-06-07T04:30:00Z,36.63,-6.33,23.0,13.0,120,11,,6.21,29.793306,,,,,,TRUE,,,,,FEW,4500,,,,,,,VFR,,,,,,,,,,,,METAR,27.0
LERS 070430Z AUTO 04004KT 9999 FEW015 18/16 Q1014,LERS,2023-06-07T04:30:00Z,41.13,1.17,18.0,16.0,40,4,,6.21,29.940945,,,TRUE,,,,,,,,FEW,1500,,,,,,,VFR,,,,,,,,,,,,METAR,68.0
LEPP 070430Z VRB01KT 9999 FEW040 14/12 Q1014,LEPP,2023-06-07T04:30:00Z,42.77,-1.65,14.0,12.0,0,1,,6.21,29.940945,,,,,,,,,,,FEW,4000,,,,,,,VFR,,,,,,,,,,,,METAR,448.0
LEPA 070430Z 07003KT 9999 FEW016 17/16 Q1014 NOSIG,LEPA,2023-06-07T04:30:00Z,39.55,2.73,17.0,16.0,70,3,,6.21,29.940945,,,,,,TRUE,,,,,FEW,1600,,,,,,,VFR,,,,,,,,,,,,METAR,8.0
LEMO 070430Z 05003KT 020V080 CAVOK 20/14 Q1009 NOSIG,LEMO,2023-06-07T04:30:00Z,37.17,-5.62,20.0,14.0,50,3,,6.21,29.793306,,,,,,TRUE,,,,,CAVOK,,,,,,,,VFR,,,,,,,,,,,,METAR,82.0
LEMI 070430Z AUTO 35005KT CAVOK 19/17 Q1014,LEMI,2023-06-07T04:30:00Z,37.8,-1.12,19.0,17.0,350,5,,6.21,29.940945,,,TRUE,,,,,,,,CAVOK,,,,,,,,VFR,,,,,,,,,,,,METAR,193.0
LEMH 070430Z 09004KT 9999 FEW015 19/17 Q1015,LEMH,2023-06-07T04:30:00Z,39.87,4.22,19.0,17.0,90,4,,6.21,29.970472,,,,,,,,,,,FEW,1500,,,,,,,VFR,,,,,,,,,,,,METAR,82.0
LEMG 070430Z 33005KT 9999 FEW060 BKN080 19/15 Q1012 NOSIG,LEMG,2023-06-07T04:30:00Z,36.67,-4.47,19.0,15.0,330,5,,6.21,29.88189,,,,,,TRUE,,,,,FEW,6000,BKN,8000,,,,,VFR,,,,,,,,,,,,METAR,5.0
LELO 070430Z AUTO 06007KT 030V110 CAVOK 18/14 Q1013,LELO,2023-06-07T04:30:00Z,42.45,-2.32,18.0,14.0,60,7,,6.21,29.911417,,,TRUE,,,,,,,,CAVOK,,,,,,,,VFR,,,,,,,,,,,,METAR,352.0
LELN 070430Z AUTO 15006KT 9999 BKN027 BKN035 BKN044 18/13 Q1013,LELN,2023-06-07T04:30:00Z,42.58,-5.65,18.0,13.0,150,6,,6.21,29.911417,,,TRUE,,,,,,,,BKN,2700,BKN,3500,BKN,4400,,,MVFR,,,,,,,,,,,,METAR,911.0
LELL 070430Z AUTO VRB01KT 9999 SCT025 17/15 Q1015,LELL,2023-06-07T04:30:00Z,41.52,2.1,17.0,15.0,0,1,,6.21,29.970472,,,TRUE,,,,,,,,SCT,2500,,,,,,,VFR,,,,,,,,,,,,METAR,136.0
LELC 070430Z AUTO 01007KT 9000 NSC 22/19 Q1013,LELC,2023-06-07T04:30:00Z,37.77,-0.8,22.0,19.0,10,7,,5.59,29.911417,,,TRUE,,,,,,,,CLR,,,,,,,,VFR,,,,,,,,,,,,METAR,3.0
LEJR 070430Z VRB02KT CAVOK 20/15 Q1008,LEJR,2023-06-07T04:30:00Z,36.75,-6.07,20.0,15.0,0,2,,6.21,29.763779,,,,,,,,,,,CAVOK,,,,,,,,VFR,,,,,,,,,,,,METAR,25.0
LEIB 070430Z 10003KT 060V130 9999 BKN016 21/17 Q1014 NOSIG,LEIB,2023-06-07T04:30:00Z,38.87,1.38,21.0,17.0,100,3,,6.21,29.940945,,,,,,TRUE,,,,,BKN,1600,,,,,,,MVFR,,,,,,,,,,,,METAR,4.0
LEHC 070430Z AUTO 09007KT CAVOK 16/13 Q1014,LEHC,2023-06-07T04:30:00Z,42.08,-0.32,16.0,13.0,90,7,,6.21,29.940945,,,TRUE,,,,,,,,CAVOK,,,,,,,,VFR,,,,,,,,,,,,METAR,540.0
LEGR 070430Z 11004KT 080V140 9999 -RA FEW070 BKN098 18/17 Q1013,LEGR,2023-06-07T04:30:00Z,37.18,-3.78,18.0,17.0,110,4,,6.21,29.911417,,,,,,,,,,-RA,FEW,7000,BKN,9800,,,,,VFR,,,,,,,,,,,,METAR,560.0
LEGE 070430Z 19003KT 9999 FEW010 15/15 Q1014,LEGE,2023-06-07T04:30:00Z,41.9,2.77,15.0,15.0,190,3,,6.21,29.940945,,,,,,,,,,,FEW,1000,,,,,,,VFR,,,,,,,,,,,,METAR,140.0
LEDA 070430Z AUTO 06010KT CAVOK 17/14 Q1015,LEDA,2023-06-07T04:30:00Z,41.73,0.53,17.0,14.0,60,10,,6.21,29.970472,,,TRUE,,,,,,,,CAVOK,,,,,,,,VFR,,,,,,,,,,,,METAR,352.0
LECO 070430Z VRB01KT 9000 -RA FEW045 18/18 Q1009 TEMPO 3000 SHRA SCT030TCU,LECO,2023-06-07T04:30:00Z,43.3,-8.37,18.0,18.0,0,1,,5.59,29.793306,,,,,,,,,,-RA,FEW,4500,,,,,,,VFR,,,,,,,,,,,,SPECI,80.0
LECH 070430Z AUTO 00000KT 7000 NCD 15/13 Q1015,LECH,2023-06-07T04:30:00Z,40.2,0.07,15.0,13.0,0,0,,4.35,29.970472,,,TRUE,,,,,,,,CLR,,,,,,,,MVFR,,,,,,,,,,,,METAR,360.0
LEBT 070430Z AUTO 35003KT 300V020 9999 SCT028 16/13 Q1014,LEBT,2023-06-07T04:30:00Z,39.58,-0.45,16.0,13.0,350,3,,6.21,29.940945,,,TRUE,,,,,,,,SCT,2800,,,,,,,VFR,,,,,,,,,,,,METAR,50.0
LEBR 070430Z AUTO 13005KT CAVOK 18/14 Q1013,LEBR,2023-06-07T04:30:00Z,42.2,-1.43,18.0,14.0,130,5,,6.21,29.911417,,,TRUE,,,,,,,,CAVOK,,,,,,,,VFR,,,,,,,,,,,,METAR,347.0
LEBL 070430Z 32006KT 9999 FEW015 SCT025 19/16 Q1014 NOSIG,LEBL,2023-06-07T04:30:00Z,41.28,2.07,19.0,16.0,320,6,,6.21,29.940945,,,,,,TRUE,,,,,FEW,1500,SCT,2500,,,,,VFR,,,,,,,,,,,,METAR,2.0
LEBG 070430Z AUTO 03008KT CAVOK 14/13 Q1013,LEBG,2023-06-07T04:30:00Z,42.37,-3.62,14.0,13.0,30,8,,6.21,29.911417,,,TRUE,,,,,,,,CAVOK,,,,,,,,VFR,,,,,,,,,,,,METAR,892.0
LEBB 070430Z 10006KT CAVOK 19/17 Q1010 NOSIG,LEBB,2023-06-07T04:30:00Z,43.28,-2.92,19.0,17.0,100,6,,6.21,29.822834,,,,,,TRUE,,,,,CAVOK,,,,,,,,VFR,,,,,,,,,,,,METAR,38.0
LEBA 070430Z AUTO 08006KT 9999 -RA FEW049 18/17 Q1011,LEBA,2023-06-07T04:30:00Z,37.85,-4.83,18.0,17.0,80,6,,6.21,29.852362,,,TRUE,,,,,,,-RA,FEW,4900,,,,,,,VFR,,,,,,,,,,,,METAR,88.0
LEAS 070430Z VRB02KT 4000 BR BKN003 18/18 Q1008 TEMPO 1500 BCFG,LEAS,2023-06-07T04:30:00Z,43.57,-6.03,18.0,18.0,0,2,,2.49,29.763779,,,,,,,,,,BR,BKN,300,,,,,,,LIFR,,,,,,,,,,,,SPECI,120.0
LEAM 070430Z 33007KT 300V030 9999 FEW070 23/12 Q1011,LEAM,2023-06-07T04:30:00Z,36.85,-2.37,23.0,12.0,330,7,,6.21,29.852362,,,,,,,,,,,FEW,7000,,,,,,,VFR,,,,,,,,,,,,METAR,16.0
LEAL 070430Z 32005KT CAVOK 20/17 Q1014 NOSIG,LEAL,2023-06-07T04:30:00Z,38.27,-0.55,20.0,17.0,320,5,,6.21,29.940945,,,,,,TRUE,,,,,CAVOK,,,,,,,,VFR,,,,,,,,,,,,METAR,26.0
LEAG 070430Z AUTO 07008KT 9999 FEW021/// 20/17 Q1011,LEAG,2023-06-07T04:30:00Z,36.12,-5.45,20.0,17.0,70,8,,6.21,29.852362,,,TRUE,,,,,,,,FEW,2100,,,,,,,VFR,,,,,,,,,,,,METAR,4.0
LEAB 070430Z VRB02KT CAVOK 16/10 Q1015 NOSIG,LEAB,2023-06-07T04:30:00Z,38.95,-1.85,16.0,10.0,0,2,,6.21,29.970472,,,,,,TRUE,,,,,CAVOK,,,,,,,,VFR,,,,,,,,,,,,METAR,704.0
LDZD 070430Z 00000KT CAVOK 16/16 Q1016 NOSIG,LDZD,2023-06-07T04:30:00Z,44.1,15.33,16.0,16.0,0,0,,6.21,30.0,,,,,,TRUE,,,,,CAVOK,,,,,,,,VFR,,,,,,,,,,,,METAR,82.0
LDZA 070430Z VRB01KT 0300 R04/0275N R22/0225N FG VV001 15/15 Q1016 BECMG 1500 BR BKN005,LDZA,2023-06-07T04:30:00Z,45.72,16.07,15.0,15.0,0,1,,0.19,30.0,,,,,,,,,,FG,OVX,0,,,,,,,LIFR,,,,,,,,,,,100,SPECI,103.0
LDSP 070430Z 29003KT CAVOK 19/16 Q1015 NOSIG,LDSP,2023-06-07T04:30:00Z,43.53,16.3,19.0,16.0,290,3,,6.21,29.970472,,,,,,TRUE,,,,,CAVOK,,,,,,,,VFR,,,,,,,,,,,,METAR,16.0
LDRI 070430Z 00000KT CAVOK 16/16 Q1016,LDRI,2023-06-07T04:30:00Z,45.22,14.57,16.0,16.0,0,0,,6.21,30.0,,,,,,,,,,,CAVOK,,,,,,,,VFR,,,,,,,,,,,,METAR,80.0
LDPL 070430Z VRB02KT CAVOK 17/15 Q1016 NOSIG,LDPL,2023-06-07T04:30:00Z,44.88,13.92,17.0,15.0,0,2,,6.21,30.0,,,,,,TRUE,,,,,CAVOK,,,,,,,,VFR,,,,,,,,,,,,METAR,63.0
LDOS 070430Z 29004KT 250V310 0400 FG VV002 16/16 Q1016,LDOS,2023-06-07T04:30:00Z,45.47,18.82,16.0,16.0,290,4,,0.25,30.0,,,,,,,,,,FG,OVX,0,,,,,,,LIFR,,,,,,,,,,,200,METAR,82.0
LDDU 070430Z 07004KT 030V110 CAVOK 20/13 Q1015 NOSIG,LDDU,2023-06-07T04:30:00Z,42.57,18.27,20.0,13.0,70,4,,6.21,29.970472,,,,,,TRUE,,,,,CAVOK,,,,,,,,VFR,,,,,,,,,,,,METAR,156.0
LCPH 070430Z 31004KT 270V330 9999 FEW008 24/19 Q1011 NOSIG,LCPH,2023-06-07T04:30:00Z,34.72,32.47,24.0,19.0,310,4,,6.21,29.852362,,,,,,TRUE,,,,,FEW,800,,,,,,,VFR,,,,,,,,,,,,METAR,8.0
LCLK 070430Z VRB01KT CAVOK 25/16 Q1011 NOSIG,LCLK,2023-06-07T04:30:00Z,34.87,33.62,25.0,16.0,0,1,,6.21,29.852362,,,,,,TRUE,,,,,CAVOK,,,,,,,,VFR,,,,,,,,,,,,METAR,2.0
LBWN 070430Z 06005KT 9999 FEW030 17/14 Q1019 TEMPO 5000 BR,LBWN,2023-06-07T04:30:00Z,43.22,27.82,17.0,14.0,60,5,,6.21,30.088583,,,,,,,,,,,FEW,3000,,,,,,,VFR,,,,,,,,,,,,SPECI,74.0
LBSF 070430Z 10010KT 9999 SCT086 15/09 Q1019 NOSIG,LBSF,2023-06-07T04:30:00Z,42.65,23.37,15.0,9.0,100,10,,6.21,30.088583,,,,,,TRUE,,,,,SCT,8600,,,,,,,VFR,,,,,,,,,,,,METAR,592.0
LBPD 070430Z AUTO 11004KT 9000 FEW005/// 15/15 Q1019 NOSIG,LBPD,2023-06-07T04:30:00Z,42.05,24.85,15.0,15.0,110,4,,5.59,30.088583,,,TRUE,,,TRUE,,,,,FEW,500,,,,,,,VFR,,,,,,,,,,,,METAR,182.0
LBGO 070430Z AUTO 08004KT 9999 NCD 15/13 Q1018 NOSIG,LBGO,2023-06-07T04:30:00Z,43.15,25.72,15.0,13.0,80,4,,6.21,30.059055,,,TRUE,,,TRUE,,,,,CLR,,,,,,,,VFR,,,,,,,,,,,,METAR,84.0
LBBG 070430Z AUTO VRB01KT 9999 NCD 18/14 Q1019 NOSIG,LBBG,2023-06-07T04:30:00Z,42.57,27.52,18.0,14.0,0,1,,6.21,30.088583,,,TRUE,,,TRUE,,,,,CLR,,,,,,,,VFR,,,,,,,,,,,,METAR,41.0
KXNX 070430Z AUTO 00000KT 10SM SCT040 18/15 A2991 RMK A01,KXNX,2023-06-07T04:30:00Z,36.38,-86.42,18.0,15.0,0,0,,10.0,29.911417,,,TRUE,TRUE,,,,,,,SCT,4000,,,,,,,VFR,,,,,,,,,,,,METAR,178.0
KXBP 070430Z AUTO 00000KT 10SM CLR 20/17 A2994 RMK AO2 T02030165,KXBP,2023-06-07T04:30:00Z,33.18,-97.83,20.3,16.5,0,0,,10.0,29.940945,,,TRUE,TRUE,,,,,,,CLR,,,,,,,,VFR,,,,,,,,,,,,METAR,256.0
KVES 070430Z AUTO 00000KT 4SM BR CLR 14/14 A2986 RMK AO2,KVES,2023-06-07T04:30:00Z,40.2,-84.53,14.0,14.0,0,0,,4.0,29.861221,,,TRUE,TRUE,,,,,,BR,CLR,,,,,,,,MVFR,,,,,,,,,,,,METAR,308.0
KU69 070430Z AUTO 19007KT 10SM FEW023 SCT075 OVC100 13/08 A3012 RMK A01,KU69,2023-06-07T04:30:00Z,40.2,-110.38,13.0,8.0,190,7,,10.0,30.121063,,,TRUE,TRUE,,,,,,,FEW,2300,SCT,7500,OVC,10000,,,VFR,,,,,,,,,,,,METAR,1776.0
KU68 070430Z AUTO 34016KT 10SM SCT070 BKN110 17/13 A2998 RMK AO2 LTG DSNT E AND SE,KU68,2023-06-07T04:30:00Z,44.92,-108.45,17.0,13.0,340,16,,10.0,29.97933,,,TRUE,TRUE,,,,,,,SCT,7000,BKN,11000,,,,,VFR,,,,,,,,,,,,METAR,1244.0
KTXW 070430Z AUTO 13007KT 10SM CLR 26/22 A2987 RMK AO2,KTXW,2023-06-07T04:30:00Z,26.18,-97.97,26.0,22.0,130,7,,10.0,29.870079,,,TRUE,TRUE,,,,,,,CLR,,,,,,,,VFR,,,,,,,,,,,,METAR,21.0
KSUT 070430Z AUTO 26004KT 10SM CLR 20/17 A2981 RMK AO2 T01970170,KSUT,2023-06-07T04:30:00Z,33.93,-78.08,19.7,17.0,260,4,,10.0,29.811024,,,TRUE,TRUE,,,,,,,CLR,,,,,,,,VFR,,,,,,,,,,,,METAR,6.0
KS71 070430Z AUTO 00000KT 10SM 18/16 A2996 ,KS71,2023-06-07T04:30:00Z,48.6,-109.25,18.0,16.0,0,0,,10.0,29.958662,,,TRUE,,,,,,,,,,,,,,,,,,,,,,,,,,,,METAR,736.0
KS21 070430Z AUTO 10SM CLR 18/02 A2994 RMK AO2,KS21,2023-06-07T04:30:00Z,43.88,-121.45,18.0,2.0,,,,10.0,29.940945,,,TRUE,TRUE,,,,,,,CLR,,,,,,,,VFR,,,,,,,,,,,,METAR,1269.0
KRYN 070430Z AUTO 28010KT 10SM FEW041 SCT048 25/M01 A2985 RMK AO2,KRYN,2023-06-07T04:30:00Z,32.15,-111.17,25.0,-1.0,280,10,,10.0,29.84941,,,TRUE,TRUE,,,,,,,FEW,4100,SCT,4800,,,,,VFR,,,,,,,,,,,,METAR,731.0
KRHP 070430Z AUTO 00000KT 10SM CLR 15/14 A2992 RMK AO2 T01470135,KRHP,2023-06-07T04:30:00Z,35.18,-83.85,14.7,13.5,0,0,,10.0,29.920275,,,TRUE,TRUE,,,,,,,CLR,,,,,,,,VFR,,,,,,,,,,,,METAR,515.0
KRCZ 070430Z AUTO 00000KT 10SM CLR 19/13 A2982 RMK AO2 T01880132,KRCZ,2023-06-07T04:30:00Z,34.88,-79.77,18.8,13.2,0,0,,10.0,29.819881,,,TRUE,TRUE,,,,,,,CLR,,,,,,,,VFR,,,,,,,,,,,,METAR,110.0
KQEY 070430Z AUTO 29006KT 9999 BKN036 25/16 A2954 RMK A02 TSNO,KQEY,2023-06-07T04:30:00Z,,,25.0,16.0,290,6,,6.21,29.53937,,,TRUE,TRUE,,,TRUE,,,,BKN,3600,,,,,,,VFR,,,,,,,,,,,,METAR,
KQER 070430Z AUTO 19003G12KT 9999 CLR 26/14 A2974 RMK A02 TSNO,KQER,2023-06-07T04:30:00Z,,,26.0,14.0,190,3,12,6.21,29.740158,,,TRUE,TRUE,,,TRUE,,,,CLR,,,,,,,,VFR,,,,,,,,,,,,METAR,
KPVW 070430Z AUTO 15005KT 10SM CLR 18/15 A3005 RMK AO2 LTG DSNT W T01760145,KPVW,2023-06-07T04:30:00Z,34.17,-101.72,17.6,14.5,150,5,,10.0,30.050198,,,TRUE,TRUE,,,,,,,CLR,,,,,,,,VFR,,,,,,,,,,,,METAR,1029.0
KMQI 070430Z AUTO 27004KT 10SM CLR 20/17 A2975 RMK AO2 T01990168,KMQI,2023-06-07T04:30:00Z,35.92,-75.7,19.9,16.8,270,4,,10.0,29.749016,,,TRUE,TRUE,,,,,,,CLR,,,,,,,,VFR,,,,,,,,,,,,METAR,3.0
KMIO 070430Z AUTO 00000KT 10SM BKN060 OVC070 21/19 A2993 RMK AO2,KMIO,2023-06-07T04:30:00Z,36.92,-94.88,21.0,19.0,0,0,,10.0,29.929134,,,TRUE,TRUE,,,,,,,BKN,6000,OVC,7000,,,,,VFR,,,,,,,,,,,,METAR,245.0
KM91 070430Z AUTO 00000KT 10SM CLR 17/14 A2987 RMK A01,KM91,2023-06-07T04:30:00Z,36.53,-86.92,17.0,14.0,0,0,,10.0,29.870079,,,TRUE,TRUE,,,,,,,CLR,,,,,,,,VFR,,,,,,,,,,,,METAR,214.0
KLHZ 070430Z AUTO 24004KT 10SM CLR 18/12 A2979 RMK AO2,KLHZ,2023-06-07T04:30:00Z,36.02,-78.33,18.0,12.0,240,4,,10.0,29.790354,,,TRUE,TRUE,,,,,,,CLR,,,,,,,,VFR,,,,,,,,,,,,METAR,104.0
KIXA 070430Z AUTO 22004KT 10SM CLR 15/15 A2975 RMK AO2,KIXA,2023-06-07T04:30:00Z,36.33,-77.63,15.0,15.0,220,4,,10.0,29.749016,,,TRUE,TRUE,,,,,,,CLR,,,,,,,,VFR,,,,,,,,,,,,METAR,43.0
KHNZ 070430Z AUTO 24004KT 10SM CLR 16/13 A2979 RMK AO2 T01550127,KHNZ,2023-06-07T04:30:00Z,36.37,-78.53,15.5,12.7,240,4,,10.0,29.790354,,,TRUE,TRUE,,,,,,,CLR,,,,,,,,VFR,,,,,,,,,,,,METAR,158.0
KGWW 070430Z AUTO 00000KT 7SM CLR 16/16 A2979 RMK AO2 T01550155,KGWW,2023-06-07T04:30:00Z,35.47,-77.97,15.5,15.5,0,0,,7.0,29.790354,,,TRUE,TRUE,,,,,,,CLR,,,,,,,,VFR,,,,,,,,,,,,METAR,40.0
KGNC 070430Z AUTO 13005KT 10SM CLR 22/12 A3008 RMK AO2 T02230123,KGNC,2023-06-07T04:30:00Z,32.68,-102.65,22.3,12.3,130,5,,10.0,30.079725,,,TRUE,TRUE,,,,,,,CLR,,,,,,,,VFR,,,,,,,,,,,,METAR,1002.0
KFYM 070430Z AUTO 00000KT 9SM CLR 20/18 A2991 RMK A01,KFYM,2023-06-07T04:30:00Z,35.07,-86.57,20.0,18.0,0,0,,9.0,29.911417,,,TRUE,TRUE,,,,,,,CLR,,,,,,,,VFR,,,,,,,,,,,,METAR,297.0
KFSK 070430Z AUTO 22004KT 10SM CLR 19/16 A2993 RMK AO2 T01910162,KFSK,2023-06-07T04:30:00Z,37.8,-94.77,19.1,16.2,220,4,,10.0,29.929134,,,TRUE,TRUE,,,,,,,CLR,,,,,,,,VFR,,,,,,,,,,,,METAR,276.0
KFFA 070430Z AUTO 00000KT 10SM CLR 19/17 A2973 RMK AO2 T01930171,KFFA,2023-06-07T04:30:00Z,36.02,-75.67,19.3,17.1,0,0,,10.0,29.731298,,,TRUE,TRUE,,,,,,,CLR,,,,,,,,VFR,,,,,,,,,,,,METAR,2.0
KFDK 070430Z AUTO 00000KT 7SM OVC042 18/07 A2973 RMK AO2,KFDK,2023-06-07T04:30:00Z,39.42,-77.37,18.0,7.0,0,0,,7.0,29.731298,,,TRUE,TRUE,,,,,,,OVC,4200,,,,,,,VFR,,,,,,,,,,,,SPECI,82.0
KEYF 070430Z AUTO 17004KT 10SM CLR 19/18 A2980 RMK AO2 T01920181,KEYF,2023-06-07T04:30:00Z,34.6,-78.58,19.2,18.1,170,4,,10.0,29.799213,,,TRUE,TRUE,,,,,,,CLR,,,,,,,,VFR,,,,,,,,,,,,METAR,39.0
KEXX 070430Z AUTO 00000KT 7SM CLR 15/13 A2982 RMK AO2 T01500132,KEXX,2023-06-07T04:30:00Z,35.78,-80.3,15.0,13.2,0,0,,7.0,29.819881,,,TRUE,TRUE,,,,,,,CLR,,,,,,,,VFR,,,,,,,,,,,,METAR,221.0
KEHA 070430Z AUTO 14008KT 10SM CLR 18/15 A3003 RMK AO2 T01820151,KEHA,2023-06-07T04:30:00Z,37.0,-101.87,18.2,15.1,140,8,,10.0,30.029528,,,TRUE,TRUE,,,,,,,CLR,,,,,,,,VFR,,,,,,,,,,,,METAR,1103.0
KEAN 070430Z AUTO 16005KT 10SM CLR 14/11 A2999 RMK AO2 LTG DSNT NW T01420105,KEAN,2023-06-07T04:30:00Z,42.05,-104.93,14.2,10.5,160,5,,10.0,29.991142,,,TRUE,TRUE,,,,,,,CLR,,,,,,,,VFR,,,,,,,,,,,,METAR,1452.0
KDVK 070430Z AUTO 00000KT 10SM SCT100 OVC120 20/12 A2987 RMK AO2,KDVK,2023-06-07T04:30:00Z,37.58,-84.77,20.0,12.0,0,0,,10.0,29.870079,,,TRUE,TRUE,,,,,,,SCT,10000,OVC,12000,,,,,VFR,,,,,,,,,,,,METAR,309.0
KCGS 070430Z AUTO 34009G22KT 7SM CLR 22/09 A2971 RMK AO2 T02210094,KCGS,2023-06-07T04:30:00Z,38.98,-76.92,22.1,9.4,340,9,22,7.0,29.71063,,,TRUE,TRUE,,,,,,,CLR,,,,,,,,VFR,,,,,,,,,,,,SPECI,15.0
KBVX 070430Z AUTO 28003KT 10SM CLR 17/16 A2992 RMK AO2,KBVX,2023-06-07T04:30:00Z,35.73,-91.65,17.0,16.0,280,3,,10.0,29.920275,,,TRUE,TRUE,,,,,,,CLR,,,,,,,,VFR,,,,,,,,,,,,METAR,137.0
KBMC 070430Z AUTO 14013KT 10SM CLR 23/01 A2989 RMK AO1 T02320008,KBMC,2023-06-07T04:30:00Z,41.55,-112.07,23.2,0.8,140,13,,10.0,29.890747,,,TRUE,TRUE,,,,,,,CLR,,,,,,,,VFR,,,,,,,,,,,,METAR,1289.0
KANK 070430Z AUTO 25007KT 10SM BKN120 11/05 A3029 RMK AO1 T01140053,KANK,2023-06-07T04:30:00Z,38.53,-106.05,11.4,5.3,250,7,,10.0,30.28937,,,TRUE,TRUE,,,,,,,BKN,12000,,,,,,,VFR,,,,,,,,,,,,METAR,2293.0
KAFP 070430Z AUTO 00000KT 10SM CLR 16/14 A2981 RMK AO2 T01580140,KAFP,2023-06-07T04:30:00Z,35.02,-80.08,15.8,14.0,0,0,,10.0,29.811024,,,TRUE,TRUE,,,,,,,CLR,,,,,,,,VFR,,,,,,,,,,,,METAR,91.0
KAFO 070430Z AUTO 00000KT 10SM SCT120 09/07 A3008 RMK AO2 LTG DSNT E,KAFO,2023-06-07T04:30:00Z,42.72,-110.95,9.0,7.0,0,0,,10.0,30.079725,,,TRUE,TRUE,,,,,,,SCT,12000,,,,,,,VFR,,,,,,,,,,,,METAR,1881.0
K3U3 070430Z AUTO 00000KT 10SM 14/09 A3002 ,K3U3,2023-06-07T04:30:00Z,46.15,-112.87,14.0,9.0,0,0,,10.0,30.02067,,,TRUE,,,,,,,,,,,,,,,,,,,,,,,,,,,,METAR,1534.0
K38S 070430Z AUTO 20003KT 6SM 14/13 A3003 ,K38S,2023-06-07T04:30:00Z,46.38,-112.77,14.0,13.0,200,3,,6.0,30.029528,,,TRUE,,,,,,,,,,,,,,,,,,,,,,,,,,,,METAR,1430.0
K1S3 070430Z AUTO 28008KT 10SM 23/18 A2990 ,K1S3,2023-06-07T04:30:00Z,46.27,-106.62,23.0,18.0,280,8,,10.0,29.899607,,,TRUE,,,,,,,,,,,,,,,,,,,,,,,,,,,,METAR,831.0
K1A5 070430Z AUTO 00000KT 7SM CLR 14/13 A2996 RMK AO2 T01360131,K1A5,2023-06-07T04:30:00Z,35.22,-83.42,13.6,13.1,0,0,,7.0,29.958662,,,TRUE,TRUE,,,,,,,CLR,,,,,,,,VFR,,,,,,,,,,,,METAR,611.0
HRYR 070430Z VRB02KT 9999 SCT025 SCT100 19/15 Q1022 NOSIG,HRYR,2023-06-07T04:30:00Z,-1.97,30.13,19.0,15.0,0,2,,6.21,30.177166,,,,,,TRUE,,,,,SCT,2500,SCT,10000,,,,,VFR,,,,,,,,,,,,METAR,1493.0
HECA 070430Z 06008KT CAVOK 22/18 Q1011 NOSIG,HECA,2023-06-07T04:30:00Z,30.12,31.4,22.0,18.0,60,8,,6.21,29.852362,,,,,,TRUE,,,,,CAVOK,,,,,,,,VFR,,,,,,,,,,,,METAR,68.0
GQNO 070430Z 33007KT 8000 NSC 22/21 Q1012 NOSIG,GQNO,2023-06-07T04:30:00Z,18.3,-15.97,22.0,21.0,330,7,,4.97,29.88189,,,,,,TRUE,,,,,CLR,,,,,,,,MVFR,,,,,,,,,,,,METAR,1.0
GOBD 070430Z 34009KT 8000 NSC 23/23 Q1012 NOSIG,GOBD,2023-06-07T04:30:00Z,14.67,-17.07,23.0,23.0,340,9,,4.97,29.88189,,,,,,TRUE,,,,,CLR,,,,,,,,MVFR,,,,,,,,,,,,METAR,90.0
GMTT 070430Z 09011KT 7000 FEW040 BKN100 21/20 Q1008 NOSIG,GMTT,2023-06-07T04:30:00Z,35.72,-5.9,21.0,20.0,90,11,,4.35,29.763779,,,,,,TRUE,,,,,FEW,4000,BKN,10000,,,,,MVFR,,,,,,,,,,,,METAR,19.0
GMMX 070430Z VRB01KT CAVOK 21/11 Q1011 NOSIG,GMMX,2023-06-07T04:30:00Z,31.62,-8.03,21.0,11.0,0,1,,6.21,29.852362,,,,,,TRUE,,,,,CAVOK,,,,,,,,VFR,,,,,,,,,,,,METAR,465.0
GMMN 070430Z 18003KT 9999 FEW020 BKN200 21/15 Q1010 NOSIG,GMMN,2023-06-07T04:30:00Z,33.37,-7.58,21.0,15.0,180,3,,6.21,29.822834,,,,,,TRUE,,,,,FEW,2000,BKN,20000,,,,,VFR,,,,,,,,,,,,METAR,196.0
GMME 070430Z 00000KT 5000 BKN016 21/19 Q1008 NOSIG,GMME,2023-06-07T04:30:00Z,34.05,-6.77,21.0,19.0,0,0,,3.11,29.763779,,,,,,TRUE,,,,,BKN,1600,,,,,,,MVFR,,,,,,,,,,,,METAR,84.0
GMFO 070430Z 23003KT 9999 FEW026 SCT053 BKN100 21/15 Q1011 NOSIG,GMFO,2023-06-07T04:30:00Z,34.78,-1.92,21.0,15.0,230,3,,6.21,29.852362,,,,,,TRUE,,,,,FEW,2600,SCT,5300,BKN,10000,,,VFR,,,,,,,,,,,,METAR,452.0
GMFF 070430Z VRB01KT 9999 FEW030 SCT100 BKN200 21/19 Q1012 NOSIG,GMFF,2023-06-07T04:30:00Z,33.92,-4.97,21.0,19.0,0,1,,6.21,29.88189,,,,,,TRUE,,,,,FEW,3000,SCT,10000,BKN,20000,,,VFR,,,,,,,,,,,,METAR,575.0
GMAD 070430Z 26005KT CAVOK 20/10 Q1011,GMAD,2023-06-07T04:30:00Z,30.32,-9.42,20.0,10.0,260,5,,6.21,29.852362,,,,,,,,,,,CAVOK,,,,,,,,VFR,,,,,,,,,,,,METAR,66.0
GEML 070430Z 09004KT 050V120 9999 BKN008 BKN019 21/21 Q1011,GEML,2023-06-07T04:30:00Z,35.27,-2.95,21.0,21.0,90,4,,6.21,29.852362,,,,,,,,,,,BKN,800,BKN,1900,,,,,IFR,,,,,,,,,,,,METAR,48.0
GECE 070430Z AUTO 09006KT 050V140 9999 SCT006/// SCT015/// BKN024/// 21/20 Q1011,GECE,2023-06-07T04:30:00Z,35.88,-5.3,21.0,20.0,90,6,,6.21,29.852362,,,TRUE,,,,,,,,SCT,600,SCT,1500,BKN,2400,,,MVFR,,,,,,,,,,,,METAR,2.0
GCXO 070430Z AUTO 12004KT 9999 FEW060 18/18 Q1011,GCXO,2023-06-07T04:30:00Z,28.48,-16.35,18.0,18.0,120,4,,6.21,29.852362,,,TRUE,,,,,,,,FEW,6000,,,,,,,VFR,,,,,,,,,,,,METAR,623.0
GCTS 070430Z 28011KT 9999 SCT050 23/17 Q1009 NOSIG,GCTS,2023-06-07T04:30:00Z,28.05,-16.57,23.0,17.0,280,11,,6.21,29.793306,,,,,,TRUE,,,,,SCT,5000,,,,,,,VFR,,,,,,,,,,,,METAR,59.0
GCRR 070430Z AUTO 22007KT 9999 FEW023 BKN029 BKN035 22/19 Q1010,GCRR,2023-06-07T04:30:00Z,28.95,-13.58,22.0,19.0,220,7,,6.21,29.822834,,,TRUE,,,,,,,,FEW,2300,BKN,2900,BKN,3500,,,MVFR,,,,,,,,,,,,METAR,9.0
GCLP 070430Z 32005KT CAVOK 24/19 Q1009 NOSIG,GCLP,2023-06-07T04:30:00Z,27.92,-15.38,24.0,19.0,320,5,,6.21,29.793306,,,,,,TRUE,,,,,CAVOK,,,,,,,,VFR,,,,,,,,,,,,METAR,16.0
GCLA 070430Z AUTO 04005KT 340V080 9999 BKN041 OVC049 24/17 Q1008,GCLA,2023-06-07T04:30:00Z,28.62,-17.75,24.0,17.0,40,5,,6.21,29.763779,,,TRUE,,,,,,,,BKN,4100,OVC,4900,,,,,VFR,,,,,,,,,,,,METAR,20.0
GCHI 070430Z AUTO 21011KT 170V250 9999 FEW026 23/19 Q1009,GCHI,2023-06-07T04:30:00Z,27.82,-17.88,23.0,19.0,210,11,,6.21,29.793306,,,TRUE,,,,,,,,FEW,2600,,,,,,,VFR,,,,,,,,,,,,METAR,21.0
GCGM 070430Z AUTO 25009KT 210V290 9999 SCT012 BKN020 OVC027 22/20 Q1010 RMK R09/25010KT ARP/25011KT,GCGM,2023-06-07T04:30:00Z,28.03,-17.22,22.0,20.0,250,9,,6.21,29.822834,,,TRUE,,,,,,,,SCT,1200,BKN,2000,OVC,2700,,,MVFR,,,,,,,,,,,,METAR,217.0
GCFV 070430Z AUTO 25006KT CAVOK 24/19 Q1010,GCFV,2023-06-07T04:30:00Z,28.43,-13.87,24.0,19.0,250,6,,6.21,29.822834,,,TRUE,,,,,,,,CAVOK,,,,,,,,VFR,,,,,,,,,,,,METAR,11.0
GABS 070430Z 22006KT CAVOK 26/23 Q1012 NOSIG,GABS,2023-06-07T04:30:00Z,12.53,-7.95,26.0,23.0,220,6,,6.21,29.88189,,,,,,TRUE,,,,,CAVOK,,,,,,,,VFR,,,,,,,,,,,,METAR,375.0
FMMI 070430Z 19004KT 150V210 9000 FEW010 15/14 Q1025 NOSIG,FMMI,2023-06-07T04:30:00Z,-18.8,47.47,15.0,14.0,190,4,,5.59,30.265747,,,,,,TRUE,,,,,FEW,1000,,,,,,,VFR,,,,,,,,,,,,METAR,1269.0
FMEP 070430Z AUTO 04005KT 360V080 CAVOK 24/12 Q1021 BECMG 12015KT,FMEP,2023-06-07T04:30:00Z,-21.32,55.42,24.0,12.0,40,5,,6.21,30.147638,,,TRUE,,,,,,,,CAVOK,,,,,,,,VFR,,,,,,,,,,,,METAR,21.0
FMEE 070430Z AUTO 13012KT 9999 FEW027 24/20 Q1021 NOSIG,FMEE,2023-06-07T04:30:00Z,-20.88,55.52,24.0,20.0,130,12,,6.21,30.147638,,,TRUE,,,TRUE,,,,,FEW,2700,,,,,,,VFR,,,,,,,,,,,,METAR,20.0
FMCZ 070430Z AUTO 16013KT 9999 FEW025 29/23 Q1016 NOSIG,FMCZ,2023-06-07T04:30:00Z,-12.8,45.27,29.0,23.0,160,13,,6.21,30.0,,,TRUE,,,TRUE,,,,,FEW,2500,,,,,,,VFR,,,,,,,,,,,,METAR,7.0
FAOR 070430Z 33008KT 0400 R03R/0500N R03L/0450D FG VV001 11/11 Q1027 TEMPO 0250,FAOR,2023-06-07T04:30:00Z,-26.13,28.23,11.0,11.0,330,8,,0.25,30.324802,,,,,,,,,,FG,OVX,0,,,,,,,LIFR,,,,,,,,,,,100,METAR,1684.0
EPZG 070430Z 36004KT 320V030 CAVOK 15/10 Q1018,EPZG,2023-06-07T04:30:00Z,52.13,15.77,15.0,10.0,360,4,,6.21,30.059055,,,,,,,,,,,CAVOK,,,,,,,,VFR,,,,,,,,,,,,METAR,59.0
EPWR 070430Z 31002KT CAVOK 15/12 Q1018,EPWR,2023-06-07T04:30:00Z,51.1,16.88,15.0,12.0,310,2,,6.21,30.059055,,,,,,,,,,,CAVOK,,,,,,,,VFR,,,,,,,,,,,,METAR,118.0
EPWA 070430Z 05004KT 360V100 CAVOK 19/07 Q1018 NOSIG,EPWA,2023-06-07T04:30:00Z,52.17,20.97,19.0,7.0,50,4,,6.21,30.059055,,,,,,TRUE,,,,,CAVOK,,,,,,,,VFR,,,,,,,,,,,,METAR,107.0
EPSY 070430Z 02003KT CAVOK 15/08 Q1019,EPSY,2023-06-07T04:30:00Z,53.47,20.93,15.0,8.0,20,3,,6.21,30.088583,,,,,,,,,,,CAVOK,,,,,,,,VFR,,,,,,,,,,,,METAR,136.0
EPSC 070430Z 01004KT 340V040 CAVOK 14/07 Q1019,EPSC,2023-06-07T04:30:00Z,53.58,14.9,14.0,7.0,10,4,,6.21,30.088583,,,,,,,,,,,CAVOK,,,,,,,,VFR,,,,,,,,,,,,METAR,47.0
EPRZ 070430Z 10007KT 9999 OVC003 16/15 Q1017,EPRZ,2023-06-07T04:30:00Z,50.1,22.02,16.0,15.0,100,7,,6.21,30.029528,,,,,,,,,,,OVC,300,,,,,,,LIFR,,,,,,,,,,,,METAR,206.0
EPRA 070430Z VRB01KT CAVOK 15/14 Q1017,EPRA,2023-06-07T04:30:00Z,51.38,21.22,15.0,14.0,0,1,,6.21,30.029528,,,,,,,,,,,CAVOK,,,,,,,,VFR,,,,,,,,,,,,METAR,182.0
EPPO 070430Z 08003KT 020V090 CAVOK 20/08 Q1018,EPPO,2023-06-07T04:30:00Z,52.42,16.83,20.0,8.0,80,3,,6.21,30.059055,,,,,,,,,,,CAVOK,,,,,,,,VFR,,,,,,,,,,,,METAR,87.0
EPMO 070430Z 02003KT CAVOK 15/08 Q1018,EPMO,2023-06-07T04:30:00Z,52.45,20.65,15.0,8.0,20,3,,6.21,30.059055,,,,,,,,,,,CAVOK,,,,,,,,VFR,,,,,,,,,,,,METAR,102.0
EPLL 070430Z VRB01KT CAVOK 17/13 Q1017,EPLL,2023-06-07T04:30:00Z,51.72,19.4,17.0,13.0,0,1,,6.21,30.029528,,,,,,,,,,,CAVOK,,,,,,,,VFR,,,,,,,,,,,,METAR,176.0
EPLB 070430Z 11002KT CAVOK 17/15 Q1018,EPLB,2023-06-07T04:30:00Z,51.23,22.72,17.0,15.0,110,2,,6.21,30.059055,,,,,,,,,,,CAVOK,,,,,,,,VFR,,,,,,,,,,,,METAR,206.0
EPKT 070430Z VRB01KT CAVOK 15/14 Q1017,EPKT,2023-06-07T04:30:00Z,50.47,19.08,15.0,14.0,0,1,,6.21,30.029528,,,,,,,,,,,CAVOK,,,,,,,,VFR,,,,,,,,,,,,METAR,296.0
EPKK 070430Z 03006KT 9999 BKN008 16/15 Q1017,EPKK,2023-06-07T04:30:00Z,50.07,19.8,16.0,15.0,30,6,,6.21,30.029528,,,,,,,,,,,BKN,800,,,,,,,IFR,,,,,,,,,,,,METAR,237.0
EPGD 070430Z VRB01KT CAVOK 13/09 Q1019,EPGD,2023-06-07T04:30:00Z,54.37,18.47,13.0,9.0,0,1,,6.21,30.088583,,,,,,,,,,,CAVOK,,,,,,,,VFR,,,,,,,,,,,,METAR,136.0
EPBY 070430Z VRB02KT CAVOK 16/09 Q1018,EPBY,2023-06-07T04:30:00Z,53.1,18.0,16.0,9.0,0,2,,6.21,30.059055,,,,,,,,,,,CAVOK,,,,,,,,VFR,,,,,,,,,,,,METAR,66.0
EKYT 070430Z AUTO 20003KT 7000 OVC005/// 11/11 Q1019,EKYT,2023-06-07T04:30:00Z,57.1,9.87,11.0,11.0,200,3,,4.35,30.088583,,,TRUE,,,,,,,,OVC,500,,,,,,,IFR,,,,,,,,,,,,SPECI,2.0
EINN 070430Z 06004KT 9999 MIFG FEW012 09/08 Q1022 NOSIG,EINN,2023-06-07T04:30:00Z,52.7,-8.92,9.0,8.0,60,4,,6.21,30.177166,,,,,,TRUE,,,,MIFG,FEW,1200,,,,,,,VFR,,,,,,,,,,,,METAR,20.0
EIKN 070430Z 10006KT CAVOK 09/09 Q1023 NOSIG,EIKN,2023-06-07T04:30:00Z,53.92,-8.82,9.0,9.0,100,6,,6.21,30.206694,,,,,,TRUE,,,,,CAVOK,,,,,,,,VFR,,,,,,,,,,,,METAR,201.0
EIDW 070430Z 08008KT 9000 FEW007 11/10 Q1023 TEMPO 4000,EIDW,2023-06-07T04:30:00Z,53.42,-6.28,11.0,10.0,80,8,,5.59,30.206694,,,,,,,,,,,FEW,700,,,,,,,VFR,,,,,,,,,,,,SPECI,75.0
EICK 070430Z 05006KT 9000 FEW010 09/08 Q1021 NOSIG,EICK,2023-06-07T04:30:00Z,51.85,-8.47,9.0,8.0,50,6,,5.59,30.147638,,,,,,TRUE,,,,,FEW,1000,,,,,,,VFR,,,,,,,,,,,,METAR,158.0
DTTJ 070430Z 05007KT 9999 FEW20 SCT026 21/18 Q1015 NOSIG,DTTJ,2023-06-07T04:30:00Z,33.87,10.77,21.0,18.0,50,7,,6.21,29.970472,,,,,,TRUE,,,,,SCT,2600,,,,,,,VFR,,,,,,,,,,,,METAR,3.0
DTTA 070430Z VRB02KT 9999 SCT026 18/17 Q1016,DTTA,2023-06-07T04:30:00Z,36.85,10.22,18.0,17.0,0,2,,6.21,30.0,,,,,,,,,,,SCT,2600,,,,,,,VFR,,,,,,,,,,,,METAR,4.0
DTNH 070430Z 28003KT 9999 FEW026 SCT033 18/17 Q1016 NOSIG,DTNH,2023-06-07T04:30:00Z,36.07,10.43,18.0,17.0,280,3,,6.21,30.0,,,,,,TRUE,,,,,FEW,2600,SCT,3300,,,,,VFR,,,,,,,,,,,,METAR,1.0
DTMB 070430Z 24002KT 8000 SCT023 SCT026 19/19 Q1016,DTMB,2023-06-07T04:30:00Z,35.77,10.75,19.0,19.0,240,2,,4.97,30.0,,,,,,,,,,,SCT,2300,SCT,2600,,,,,MVFR,,,,,,,,,,,,METAR,1.0
DIAP 070430Z 21008KT 9999 SCT012 27/27 Q1012 NOSIG,DIAP,2023-06-07T04:30:00Z,5.25,-3.92,27.0,27.0,210,8,,6.21,29.88189,,,,,,TRUE,,,,,SCT,1200,,,,,,,VFR,,,,,,,,,,,,METAR,4.0
DAOO 070430Z 34003KT 9999 SCT026 BKN100 21/18 Q1010,DAOO,2023-06-07T04:30:00Z,35.62,-0.62,21.0,18.0,340,3,,6.21,29.822834,,,,,,,,,,,SCT,2600,BKN,10000,,,,,VFR,,,,,,,,,,,,METAR,87.0
DAON 070430Z VRB02KT 9999 SCT026 21/16 Q1010,DAON,2023-06-07T04:30:00Z,35.02,-1.47,21.0,16.0,0,2,,6.21,29.822834,,,,,,,,,,,SCT,2600,,,,,,,VFR,,,,,,,,,,,,METAR,245.0
DABC 070430Z 17003KT CAVOK 15/13 Q1017,DABC,2023-06-07T04:30:00Z,36.27,6.62,15.0,13.0,170,3,,6.21,30.029528,,,,,,,,,,,CAVOK,,,,,,,,VFR,,,,,,,,,,,,METAR,686.0
DABB 070430Z VRB01KT 0400 FG FEW016 15/15 Q1014,DABB,2023-06-07T04:30:00Z,36.82,7.82,15.0,15.0,0,1,,0.25,29.940945,,,,,,,,,,FG,FEW,1600,,,,,,,LIFR,,,,,,,,,,,,METAR,3.0
DAAT 070430Z 34005KT CAVOK 21/M08 Q1017,DAAT,2023-06-07T04:30:00Z,22.82,5.47,21.0,-8.0,340,5,,6.21,30.029528,,,,,,,,,,,CAVOK,,,,,,,,VFR,,,,,,,,,,,,METAR,1376.0
DAAG 070430Z 04002KT 7000 FEW016 SCT200 17/16 Q1012,DAAG,2023-06-07T04:30:00Z,36.68,3.22,17.0,16.0,40,2,,4.35,29.88189,,,,,,,,,,,FEW,1600,SCT,20000,,,,,MVFR,,,,,,,,,,,,METAR,18.0
CYHZ 070430Z 20005KT 1/4SM R23/2200V2600FT/N FG VV002 10/10 A2929 RMK FG8 SLP923 DENSITY ALT 800FT,CYHZ,2023-06-07T04:30:00Z,44.87,-63.5,10.0,10.0,200,5,,0.25,29.291338,992.3,,,,,,,,,FG,OVX,0,,,,,,,LIFR,,,,,,,,,,,200,SPECI,136.0
CWPF 070430Z AUTO 33001KT 17/07 RMK AO1 SLP087 T01670071 56007,CWPF,2023-06-07T04:30:00Z,48.43,-123.43,16.7,7.1,330,1,,,,1008.7,,TRUE,TRUE,,,,,,,,,,,,,,,,-0.7,,,,,,,,,,,METAR,5.0
BKPR 070430Z 04003KT 4000 BR SCT008 BKN070 16/16 Q1017 NOSIG,BKPR,2023-06-07T04:30:00Z,42.58,21.03,16.0,16.0,40,3,,2.49,30.029528,,,,,,TRUE,,,,BR,SCT,800,BKN,7000,,,,,IFR,,,,,,,,,,,,METAR,545.0
BIKF 070430Z 27004KT 9999 OVC014 04/02 Q1025,BIKF,2023-06-07T04:30:00Z,63.98,-22.6,4.0,2.0,270,4,,6.21,30.265747,,,,,,,,,,,OVC,1400,,,,,,,MVFR,,,,,,,,,,,,METAR,49.0
KMTN 070429Z AUTO 00000KT 7SM OVC046 17/13 A2972 RMK AO2,KMTN,2023-06-07T04:29:00Z,39.32,-76.42,17.0,13.0,0,0,,7.0,29.719488,,,TRUE,TRUE,,,,,,,OVC,4600,,,,,,,VFR,,,,,,,,,,,,SPECI,2.0
KFME 070429Z AUTO 00000KT CLR 16/12 A2973 RMK AO1,KFME,2023-06-07T04:29:00Z,39.08,-76.77,16.0,12.0,0,0,,,29.731298,,,TRUE,TRUE,,,,,,,CLR,,,,,,,,,,,,,,,,,,,,SPECI,43.0
KACV 070429Z AUTO 00000KT 10SM OVC009 12/11 A2990 RMK AO2 T01220106,KACV,2023-06-07T04:29:00Z,40.98,-124.1,12.2,10.6,0,0,,10.0,29.899607,,,TRUE,TRUE,,,,,,,OVC,900,,,,,,,IFR,,,,,,,,,,,,METAR,63.0
K2W6 070429Z AUTO 27004KT 10SM CLR 18/12 A2971 RMK AO1,K2W6,2023-06-07T04:29:00Z,38.32,-76.55,18.0,12.0,270,4,,10.0,29.71063,,,TRUE,TRUE,,,,,,,CLR,,,,,,,,VFR,,,,,,,,,,,,SPECI,40.0
PAEH 070428Z AUTO 05012G18KT 010V130 10SM OVC010 08/08 A2966 RMK AO2 PK WND 04027/0356 SLP046,PAEH,2023-06-07T04:28:00Z,58.65,-162.07,8.0,8.0,50,12,18,10.0,29.660433,1004.6,,TRUE,TRUE,,,,,,,OVC,1000,,,,,,,MVFR,,,,,,,,,,,,METAR,101.0
KUDG 070428Z AUTO 18009KT 10SM 23/16 A2983 RMK AO2 LTG DSNT SE AND SW TSE0358B06E17 $,KUDG,2023-06-07T04:28:00Z,34.45,-79.88,23.0,16.0,180,9,,10.0,29.828741,,,TRUE,TRUE,TRUE,,,,,,,,,,,,,,,,,,,,,,,,,,SPECI,57.0
KOTH 070428Z 22007KT 6SM BR OVC016 12/10 A2992 RMK AO2,KOTH,2023-06-07T04:28:00Z,43.42,-124.25,12.0,10.0,220,7,,6.0,29.920275,,,,TRUE,,,,,,BR,OVC,1600,,,,,,,MVFR,,,,,,,,,,,,SPECI,3.0
CYPD 070428Z AUTO 11009G15KT 1 3/4SM BR OVC003 08/08 A2937 RMK VIS VRB 1 1/4-2 1/2 SLP950,CYPD,2023-06-07T04:28:00Z,45.67,-61.37,8.0,8.0,110,9,15,1.75,29.371063,995.0,,TRUE,,,,,,,BR,OVC,300,,,,,,,LIFR,,,,,,,,,,,,SPECI,106.0
CYGP 070428Z 07011G23KT 2SM -DZRA OVC004 07/07 A2946 RMK ST8 SLP981,CYGP,2023-06-07T04:28:00Z,48.77,-64.47,7.0,7.0,70,11,23,2.0,29.459646,998.1,,,,,,,,,-DZ -RA,OVC,400,,,,,,,LIFR,,,,,,,,,,,,SPECI,31.0
LIBA 070427Z 29004KT 1500 BR SCT002 17/16 Q1016 RMK SCT VIS MIN 1500 WIND THR11 29005KT WIND THR29 /////KT AMB,LIBA,2023-06-07T04:27:00Z,41.53,15.72,17.0,16.0,290,4,,0.93,30.0,,,,,,,,,,BR,SCT,200,,,,,,,LIFR,,,,,,,,,,,,METAR,55.0
LHPP 070427Z AUTO 00000KT 0650 FG OVC001 16/16 Q1016,LHPP,2023-06-07T04:27:00Z,45.98,18.23,16.0,16.0,0,0,,0.4,30.0,,,TRUE,,,,,,,FG,OVC,100,,,,,,,LIFR,,,,,,,,,,,,SPECI,193.0
KEUL 070427Z AUTO 12005KT 10SM -RA FEW050 BKN100 OVC120 18/14 A2985 RMK AO2 LTG DSNT NE AND W TSB05E10B14E15B25E27RAB05 PRESRR P0000,KEUL,2023-06-07T04:27:00Z,43.63,-116.62,18.0,14.0,120,5,,10.0,29.84941,,,TRUE,TRUE,,,,,,-RA,FEW,5000,BKN,10000,OVC,12000,,,VFR,,,,,,0.005,,,,,,SPECI,741.0
KDLN 070427Z AUTO 17015G21KT 10SM TS OVC043 14/10 A3006 RMK AO2 WSHFT 0413 LTG DSNT S TSB0355E0357B03E04B11E12B14E18B19E21B22E23B26 T01440100,KDLN,2023-06-07T04:27:00Z,45.25,-112.55,14.4,10.0,170,15,21,10.0,30.059055,,,TRUE,TRUE,,,,,,TS,OVC,4300,,,,,,,VFR,,,,,,,,,,,,SPECI,1586.0
KCKB 070427Z AUTO 00000KT 10SM OVC009 17/12 A2979 RMK AO2 T01720122,KCKB,2023-06-07T04:27:00Z,39.3,-80.22,17.2,12.2,0,0,,10.0,29.790354,,,TRUE,TRUE,,,,,,,OVC,900,,,,,,,IFR,,,,,,,,,,,,SPECI,368.0
CYWK 070427Z AUTO 04012G23KT 9SM -RA OVC009 04/03 A2992 RMK SLP158,CYWK,2023-06-07T04:27:00Z,52.92,-66.87,4.0,3.0,40,12,23,9.0,29.920275,1015.8,,TRUE,,,,,,,-RA,OVC,900,,,,,,,IFR,,,,,,,,,,,,SPECI,547.0
KVVV 070426Z AUTO 12011KT 10SM CLR 25/17 A2987 RMK AO2 LTG DSNT NE,KVVV,2023-06-07T04:26:00Z,45.3,-96.42,25.0,17.0,120,11,,10.0,29.870079,,,TRUE,TRUE,,,,,,,CLR,,,,,,,,VFR,,,,,,,,,,,,METAR,334.0
EHKD 070426Z AUTO 02008KT 340V060 9999 BKN013 12/09 Q1022 GRN NOSIG,EHKD,2023-06-07T04:26:00Z,52.92,4.77,12.0,9.0,20,8,,6.21,30.177166,,,TRUE,,,TRUE,,,,,BKN,1300,,,,,,,MVFR,,,,,,,,,,,,SPECI,1.0
SCAT 070425Z AUTO 26003KT 9999 OVC014/// 14/11 Q1016,SCAT,2023-06-07T04:25:00Z,-27.27,-70.77,14.0,11.0,260,3,,6.21,30.0,,,TRUE,,,,,,,,OVC,1400,,,,,,,MVFR,,,,,,,,,,,,SPECI,209.0
OPPS 070425Z 05006KT 6000 HZ NSC 29/16 Q1006,OPPS,2023-06-07T04:25:00Z,33.98,71.52,29.0,16.0,50,6,,3.73,29.704725,,,,,,,,,,HZ,CLR,,,,,,,,MVFR,,,,,,,,,,,,METAR,356.0
OPLA 070425Z 05010KT 6000 SCT040 SCT100 28/16 Q1007 TEMPO 31015G30KT 2000 TSRA FEW030CB RMK QFE982 A29.76,OPLA,2023-06-07T04:25:00Z,31.52,74.4,28.0,16.0,50,10,,3.73,29.734253,,,,,,,,,,,SCT,4000,SCT,10000,,,,,MVFR,,,,,,,,,,,,METAR,217.0
LTCK 070425Z 28007KT 9999 FEW035 SCT080 13/09 Q1017 RMK RWY11 26007KT,LTCK,2023-06-07T04:25:00Z,38.75,41.67,13.0,9.0,280,7,,6.21,30.029528,,,,,,,,,,,FEW,3500,SCT,8000,,,,,VFR,,,,,,,,,,,,METAR,1267.0
KW29 070425Z AUTO 03005KT 7SM SCT031 20/13 A2969 RMK AO2 T02000134,KW29,2023-06-07T04:25:00Z,38.98,-76.33,20.0,13.4,30,5,,7.0,29.68996,,,TRUE,TRUE,,,,,,,SCT,3100,,,,,,,VFR,,,,,,,,,,,,SPECI,1.0
KVUJ 070425Z AUTO 00000KT 7SM CLR 14/12 A2987 RMK AO2 T01360121,KVUJ,2023-06-07T04:25:00Z,35.42,-80.15,13.6,12.1,0,0,,7.0,29.870079,,,TRUE,TRUE,,,,,,,CLR,,,,,,,,VFR,,,,,,,,,,,,METAR,174.0
KUKF 070425Z AUTO 00000KT 10SM CLR 13/11 A2991 RMK AO2,KUKF,2023-06-07T04:25:00Z,36.22,-81.1,13.0,11.0,0,0,,10.0,29.911417,,,TRUE,TRUE,,,,,,,CLR,,,,,,,,VFR,,,,,,,,,,,,METAR,383.0
KTTA 070425Z AUTO 00000KT 5SM BR CLR 14/14 A2980 RMK AO2 T01380138,KTTA,2023-06-07T04:25:00Z,35.58,-79.1,13.8,13.8,0,0,,5.0,29.799213,,,TRUE,TRUE,,,,,,BR,CLR,,,,,,,,MVFR,,,,,,,,,,,,METAR,71.0
KTDF 070425Z AUTO 00000KT 10SM CLR 13/12 A2982 RMK AO2,KTDF,2023-06-07T04:25:00Z,36.28,-78.98,13.0,12.0,0,0,,10.0,29.819881,,,TRUE,TRUE,,,,,,,CLR,,,,,,,,VFR,,,,,,,,,,,,METAR,180.0
KSVH 070425Z AUTO 31003KT 7SM CLR 16/12 A2984 RMK AO2 T01620117,KSVH,2023-06-07T04:25:00Z,35.75,-80.95,16.2,11.7,310,3,,7.0,29.840551,,,TRUE,TRUE,,,,,,,CLR,,,,,,,,VFR,,,,,,,,,,,,METAR,286.0
KSIF 070425Z AUTO 00000KT 7SM CLR 16/15 A2982 RMK AO2 T01590147,KSIF,2023-06-07T04:25:00Z,36.43,-79.85,15.9,14.7,0,0,,7.0,29.819881,,,TRUE,TRUE,,,,,,,CLR,,,,,,,,VFR,,,,,,,,,,,,METAR,206.0
KSCR 070425Z AUTO 00000KT 10SM CLR 13/13 A2981 RMK AO2 T01320132,KSCR,2023-06-07T04:25:00Z,35.7,-79.5,13.2,13.2,0,0,,10.0,29.811024,,,TRUE,TRUE,,,,,,,CLR,,,,,,,,VFR,,,,,,,,,,,,METAR,182.0
KS85 070425Z AUTO 03005KT 10SM 21/16 A2984 RMK A01 Culbertson ,KS85,2023-06-07T04:25:00Z,48.15,-104.5,21.0,16.0,30,5,,10.0,29.840551,,,TRUE,TRUE,,,,,,,,,,,,,,,,,,,,,,,,,,,METAR,596.0
KRUQ 070425Z AUTO 00000KT 5SM BR CLR 14/13 A2982 RMK AO2 T01350127,KRUQ,2023-06-07T04:25:00Z,35.65,-80.52,13.5,12.7,0,0,,5.0,29.819881,,,TRUE,TRUE,,,,,,BR,CLR,,,,,,,,MVFR,,,,,,,,,,,,METAR,231.0
KPGV 070425Z AUTO 00000KT 7SM CLR 15/15 A2976 RMK AO2,KPGV,2023-06-07T04:25:00Z,35.63,-77.4,15.0,15.0,0,0,,7.0,29.760826,,,TRUE,TRUE,,,,,,,CLR,,,,,,,,VFR,,,,,,,,,,,,METAR,6.0
KONX 070425Z AUTO 20003KT CLR 18/12 A2973 RMK AO2 T01760119 PWINO,KONX,2023-06-07T04:25:00Z,36.4,-76.02,17.6,11.9,200,3,,,29.731298,,,TRUE,TRUE,,,,,TRUE,,CLR,,,,,,,,,,,,,,,,,,,,METAR,4.0
KOCW 070425Z AUTO 00000KT 10SM CLR 16/14 A2976 RMK AO2 T01610141,KOCW,2023-06-07T04:25:00Z,35.57,-77.05,16.1,14.1,0,0,,10.0,29.760826,,,TRUE,TRUE,,,,,,,CLR,,,,,,,,VFR,,,,,,,,,,,,METAR,10.0
KMWK 070425Z AUTO 00000KT 10SM CLR 15/12 A2987 RMK AO2 T01520117,KMWK,2023-06-07T04:25:00Z,36.47,-80.55,15.2,11.7,0,0,,10.0,29.870079,,,TRUE,TRUE,,,,,,,CLR,,,,,,,,VFR,,,,,,,,,,,,METAR,374.0
KMRN 070425Z AUTO 00000KT 10SM CLR 13/12 A2988 RMK AO2 T01320116,KMRN,2023-06-07T04:25:00Z,35.82,-81.62,13.2,11.6,0,0,,10.0,29.878937,,,TRUE,TRUE,,,,,,,CLR,,,,,,,,VFR,,,,,,,,,,,,METAR,375.0
KMCZ 070425Z AUTO 00000KT 10SM CLR 15/13 A2976 RMK AO2 T01480135,KMCZ,2023-06-07T04:25:00Z,,,14.8,13.5,0,0,,10.0,29.760826,,,TRUE,TRUE,,,,,,,CLR,,,,,,,,VFR,,,,,,,,,,,,METAR,
KJNX 070425Z AUTO 00000KT 7SM CLR 15/14 A2979 RMK AO2,KJNX,2023-06-07T04:25:00Z,35.53,-78.38,15.0,14.0,0,0,,7.0,29.790354,,,TRUE,TRUE,,,,,,,CLR,,,,,,,,VFR,,,,,,,,,,,,METAR,41.0
KISO 070425Z AUTO 00000KT 7SM CLR 16/15 A2978 RMK AO2 T01560146,KISO,2023-06-07T04:25:00Z,35.32,-77.62,15.6,14.6,0,0,,7.0,29.778543,,,TRUE,TRUE,,,,,,,CLR,,,,,,,,VFR,,,,,,,,,,,,METAR,27.0
KIPJ 070425Z AUTO 00000KT 7SM CLR 14/13 A2985 RMK AO2 T01410128,KIPJ,2023-06-07T04:25:00Z,35.48,-81.17,14.1,12.8,0,0,,7.0,29.84941,,,TRUE,TRUE,,,,,,,CLR,,,,,,,,VFR,,,,,,,,,,,,METAR,266.0
KHRJ 070425Z AUTO 00000KT 5SM BR SCT090 15/15 A2980 RMK AO2 T01530145,KHRJ,2023-06-07T04:25:00Z,35.38,-78.73,15.3,14.5,0,0,,5.0,29.799213,,,TRUE,TRUE,,,,,,BR,SCT,9000,,,,,,,MVFR,,,,,,,,,,,,METAR,55.0
KHBI 070425Z AUTO 00000KT 7SM CLR 14/11 A2984 RMK AO2 T01420113,KHBI,2023-06-07T04:25:00Z,35.65,-79.9,14.2,11.3,0,0,,7.0,29.840551,,,TRUE,TRUE,,,,,,,CLR,,,,,,,,VFR,,,,,,,,,,,,METAR,199.0
KGEV 070425Z AUTO 26004KT 10SM CLR 17/06 A2994 RMK AO2 T01660063,KGEV,2023-06-07T04:25:00Z,36.43,-81.42,16.6,6.3,260,4,,10.0,29.940945,,,TRUE,TRUE,,,,,,,CLR,,,,,,,,VFR,,,,,,,,,,,,METAR,961.0
KFQD 070425Z AUTO 36005KT 10SM CLR 20/10 A2986 RMK AO2,KFQD,2023-06-07T04:25:00Z,35.42,-81.93,20.0,10.0,360,5,,10.0,29.861221,,,TRUE,TRUE,,,,,,,CLR,,,,,,,,VFR,,,,,,,,,,,,METAR,325.0
KESN 070425Z AUTO 36005KT 10SM BKN110 19/13 A2968 RMK AO2 T01900127 $,KESN,2023-06-07T04:25:00Z,38.8,-76.07,19.0,12.7,360,5,,10.0,29.681103,,,TRUE,TRUE,TRUE,,,,,,BKN,11000,,,,,,,VFR,,,,,,,,,,,,SPECI,14.0
KEHO 070425Z AUTO 00000KT 7SM CLR 17/12 A2984 RMK AO2 T01680124,KEHO,2023-06-07T04:25:00Z,35.25,-81.6,16.8,12.4,0,0,,7.0,29.840551,,,TRUE,TRUE,,,,,,,CLR,,,,,,,,VFR,,,,,,,,,,,,METAR,261.0
KEDE 070425Z AUTO 00000KT 10SM CLR 19/17 A2975 RMK AO2 T01920173,KEDE,2023-06-07T04:25:00Z,36.03,-76.57,19.2,17.3,0,0,,10.0,29.749016,,,TRUE,TRUE,,,,,,,CLR,,,,,,,,VFR,,,,,,,,,,,,METAR,4.0
KDPL 070425Z AUTO 00000KT 5SM BR CLR 15/14 A2979 RMK AO2,KDPL,2023-06-07T04:25:00Z,35.0,-77.97,15.0,14.0,0,0,,5.0,29.790354,,,TRUE,TRUE,,,,,,BR,CLR,,,,,,,,MVFR,,,,,,,,,,,,METAR,39.0
KDMW 070425Z AUTO 03004KT 5SM HZ CLR 18/10 A2973 RMK AO2,KDMW,2023-06-07T04:25:00Z,39.6,-77.0,18.0,10.0,30,4,,5.0,29.731298,,,TRUE,TRUE,,,,,,HZ,CLR,,,,,,,,MVFR,,,,,,,,,,,,SPECI,239.0
KCTZ 070425Z AUTO 00000KT 10SM CLR 17/17 A2979 RMK AO2 T01720172,KCTZ,2023-06-07T04:25:00Z,34.98,-78.37,17.2,17.2,0,0,,10.0,29.790354,,,TRUE,TRUE,,,,,,,CLR,,,,,,,,VFR,,,,,,,,,,,,METAR,43.0
KCPC 070425Z AUTO 00000KT 10SM CLR 20/18 A2981 RMK AO2 T01950180,KCPC,2023-06-07T04:25:00Z,34.28,-78.72,19.5,18.0,0,0,,10.0,29.811024,,,TRUE,TRUE,,,,,,,CLR,,,,,,,,VFR,,,,,,,,,,,,METAR,27.0
KCII 070425Z AUTO 00000KT 10SM 16/10 A2999 RMK A01 ,KCII,2023-06-07T04:25:00Z,47.83,-112.17,16.0,10.0,0,0,,10.0,29.991142,,,TRUE,TRUE,,,,,,,,,,,,,,,,,,,,,,,,,,,METAR,1202.0
KCGE 070425Z AUTO 27005KT 10SM BKN095 OVC110 21/14 A2966 RMK A01,KCGE,2023-06-07T04:25:00Z,38.53,-76.03,21.0,14.0,270,5,,10.0,29.660433,,,TRUE,TRUE,,,,,,,BKN,9500,OVC,11000,,,,,VFR,,,,,,,,,,,,SPECI,5.0
KCBE 070425Z AUTO 32006KT 10SM CLR 18/09 A2981 RMK AO2 T01780090,KCBE,2023-06-07T04:25:00Z,39.62,-78.77,17.8,9.0,320,6,,10.0,29.811024,,,TRUE,TRUE,,,,,,,CLR,,,,,,,,VFR,,,,,,,,,,,,SPECI,226.0
KASJ 070425Z AUTO 00000KT 10SM CLR 16/16 A2975 RMK AO2 T01610155,KASJ,2023-06-07T04:25:00Z,36.28,-77.17,16.1,15.5,0,0,,10.0,29.749016,,,TRUE,TRUE,,,,,,,CLR,,,,,,,,VFR,,,,,,,,,,,,METAR,20.0
KACZ 070425Z AUTO 00000KT 1/2SM FG BKN002 BKN011 OVC075 18/18 A2978 RMK AO2 T01780176,KACZ,2023-06-07T04:25:00Z,,,17.8,17.6,0,0,,0.5,29.778543,,,TRUE,TRUE,,,,,,FG,BKN,200,BKN,1100,OVC,7500,,,LIFR,,,,,,,,,,,,METAR,
K7W6 070425Z AUTO 00000KT 7SM CLR 18/18 A2975 RMK AO2 T01800175,K7W6,2023-06-07T04:25:00Z,35.55,-75.95,18.0,17.5,0,0,,7.0,29.749016,,,TRUE,TRUE,,,,,,,CLR,,,,,,,,VFR,,,,,,,,,,,,METAR,1.0
K6S8 070425Z AUTO 30005KT 10SM 16/15 A2999 RMK A01 LAUREL,K6S8,2023-06-07T04:25:00Z,45.7,-108.77,16.0,15.0,300,5,,10.0,29.991142,,,TRUE,TRUE,,,,,,,,,,,,,,,,,,,,,,,,,,,SPECI,1072.0
K4U6 070425Z AUTO 11010KT 10SM 22/15 A2983 RMK A01 Circle ,K4U6,2023-06-07T04:25:00Z,47.42,-105.57,22.0,15.0,110,10,,10.0,29.828741,,,TRUE,TRUE,,,,,,,,,,,,,,,,,,,,,,,,,,,METAR,739.0
K2G4 070425Z AUTO VRB05KT 8SM CLR 13/09 A2983 RMK AO2,K2G4,2023-06-07T04:25:00Z,39.58,-79.33,13.0,9.0,0,5,,8.0,29.828741,,,TRUE,TRUE,,,,,,,CLR,,,,,,,,VFR,,,,,,,,,,,,SPECI,908.0
K24A 070425Z AUTO 00000KT 10SM CLR 17/12 A2996 RMK AO2 T01710122,K24A,2023-06-07T04:25:00Z,35.32,-83.2,17.1,12.2,0,0,,10.0,29.958662,,,TRUE,TRUE,,,,,,,CLR,,,,,,,,VFR,,,,,,,,,,,,METAR,864.0
EHWO 070425Z AUTO 04007KT 360V100 9999 OVC160 12/09 Q1020 BLU,EHWO,2023-06-07T04:25:00Z,51.45,4.33,12.0,9.0,40,7,,6.21,30.11811,,,TRUE,,,,,,,,OVC,16000,,,,,,,VFR,,,,,,,,,,,,METAR,15.0
EHVL 070425Z AUTO 03011KT 9999 OVC014 11/08 Q1022 GRN,EHVL,2023-06-07T04:25:00Z,53.28,5.08,11.0,8.0,30,11,,6.21,30.177166,,,TRUE,,,,,,,,OVC,1400,,,,,,,MVFR,,,,,,,,,,,,METAR,2.0
EHVK 070425Z AUTO 01005KT 340V050 9999 OVC120 13/09 Q1020 BLU,EHVK,2023-06-07T04:25:00Z,51.65,5.7,13.0,9.0,10,5,,6.21,30.11811,,,TRUE,,,,,,,,OVC,12000,,,,,,,VFR,,,,,,,,,,,,METAR,20.0
EHSC 070425Z AUTO 04019KT 9999 ///////// 12/11 Q1022 W14/H11,EHSC,2023-06-07T04:25:00Z,51.93,3.67,12.0,11.0,40,19,,6.21,30.177166,,,TRUE,,,,,,,,,,,,,,,,,,,,,,,,,,,,METAR,19.0
EHSA 070425Z AUTO 03018KT 9999 ///////// 12/09 Q1021 W12/H15,EHSA,2023-06-07T04:25:00Z,52.0,3.28,12.0,9.0,30,18,,6.21,30.147638,,,TRUE,,,,,,,,,,,,,,,,,,,,,,,,,,,,METAR,18.0
EHRD 070425Z AUTO 03007KT 350V070 9999 OVC009 12/10 Q1021 TEMPO SCT009,EHRD,2023-06-07T04:25:00Z,51.95,4.45,12.0,10.0,30,7,,6.21,30.147638,,,TRUE,,,,,,,,OVC,900,,,,,,,IFR,,,,,,,,,,,,METAR,-4.0
EHPG 070425Z AUTO 04013KT 350V060 9999 BKN010 12/09 Q1022,EHPG,2023-06-07T04:25:00Z,52.37,3.35,12.0,9.0,40,13,,6.21,30.177166,,,TRUE,,,,,,,,BKN,1000,,,,,,,MVFR,,,,,,,,,,,,METAR,24.0
EHMG 070425Z AUTO 03012KT 9999 OVC011 11/08 Q1023,EHMG,2023-06-07T04:25:00Z,53.62,4.97,11.0,8.0,30,12,,6.21,30.206694,,,TRUE,,,,,,,,OVC,1100,,,,,,,MVFR,,,,,,,,,,,,METAR,30.0
EHMA 070425Z AUTO VRB08KT 9999 OVC010 11/09 Q1022,EHMA,2023-06-07T04:25:00Z,53.5,5.95,11.0,9.0,0,8,,6.21,30.177166,,,TRUE,,,,,,,,OVC,1000,,,,,,,MVFR,,,,,,,,,,,,METAR,27.0
EHLW 070425Z AUTO 03007KT 330V070 9999 OVC012 11/09 Q1022 GRN,EHLW,2023-06-07T04:25:00Z,53.22,5.75,11.0,9.0,30,7,,6.21,30.177166,,,TRUE,,,,,,,,OVC,1200,,,,,,,MVFR,,,,,,,,,,,,METAR,1.0
EHLE 070425Z AUTO 02006KT 350V050 9999 FEW010 10/09 Q1022 BECMG BKN010,EHLE,2023-06-07T04:25:00Z,52.45,5.52,10.0,9.0,20,6,,6.21,30.177166,,,TRUE,,,,,,,,FEW,1000,,,,,,,VFR,,,,,,,,,,,,METAR,-3.0
EHKV 070425Z AUTO 03016KT 9999 OVC013 11/08 Q1023,EHKV,2023-06-07T04:25:00Z,53.27,3.63,11.0,8.0,30,16,,6.21,30.206694,,,TRUE,,,,,,,,OVC,1300,,,,,,,MVFR,,,,,,,,,,,,METAR,28.0
EHJR 070425Z AUTO 04014KT //// // ///////// 11/08 Q1023 RE// W13/H11,EHJR,2023-06-07T04:25:00Z,53.22,3.22,11.0,8.0,40,14,,,30.206694,,,TRUE,,,,,,,,,,,,,,,,,,,,,,,,,,,,METAR,31.0
EHJA 070425Z AUTO 04012KT 9999 FEW009/// OVC010/// 11/08 Q1023,EHJA,2023-06-07T04:25:00Z,53.82,2.95,11.0,8.0,40,12,,6.21,30.206694,,,TRUE,,,,,,,,FEW,900,OVC,1000,,,,,MVFR,,,,,,,,,,,,METAR,34.0
EHGR 070425Z AUTO 02007KT 330V050 9999 OVC130 12/10 Q1020 BLU,EHGR,2023-06-07T04:25:00Z,51.55,4.93,12.0,10.0,20,7,,6.21,30.11811,,,TRUE,,,,,,,,OVC,13000,,,,,,,VFR,,,,,,,,,,,,METAR,12.0
EHGG 070425Z AUTO 01004KT 330V040 9999 OVC011 11/09 Q1021,EHGG,2023-06-07T04:25:00Z,53.12,6.57,11.0,9.0,10,4,,6.21,30.147638,,,TRUE,,,,,,,,OVC,1100,,,,,,,MVFR,,,,,,,,,,,,METAR,2.0
EHFS 070425Z AUTO 01014KT 340V040 9999 NSC 12/10 Q1020,EHFS,2023-06-07T04:25:00Z,51.45,3.6,12.0,10.0,10,14,,6.21,30.11811,,,TRUE,,,,,,,,CLR,,,,,,,,VFR,,,,,,,,,,,,METAR,1.0
EHFD 070425Z AUTO VRB13KT 9999 BKN008/// BKN009/// 11/08 Q1023,EHFD,2023-06-07T04:25:00Z,54.85,4.7,11.0,8.0,0,13,,6.21,30.206694,,,TRUE,,,,,,,,BKN,800,BKN,900,,,,,IFR,,,,,,,,,,,,METAR,24.0
EHDV 070425Z AUTO 01014KT 9999 SCT009/// OVC010/// 10/08 Q1024,EHDV,2023-06-07T04:25:00Z,54.32,2.93,10.0,8.0,10,14,,6.21,30.236221,,,TRUE,,,,,,,,SCT,900,OVC,1000,,,,,MVFR,,,,,,,,,,,,METAR,36.0
EHDL 070425Z AUTO 03007KT 320V100 9999 OVC120 11/09 Q1021 BLU,EHDL,2023-06-07T04:25:00Z,52.07,5.88,11.0,9.0,30,7,,6.21,30.147638,,,TRUE,,,,,,,,OVC,12000,,,,,,,VFR,,,,,,,,,,,,METAR,49.0
EHBK 070425Z AUTO 03006KT 350V060 CAVOK 14/11 Q1019,EHBK,2023-06-07T04:25:00Z,50.92,5.77,14.0,11.0,30,6,,6.21,30.088583,,,TRUE,,,,,,,,CAVOK,,,,,,,,VFR,,,,,,,,,,,,METAR,112.0
EHAM 070425Z 04010KT 360V070 9999 BKN010 12/09 Q1021 NOSIG,EHAM,2023-06-07T04:25:00Z,52.32,4.78,12.0,9.0,40,10,,6.21,30.147638,,,,,,TRUE,,,,,BKN,1000,,,,,,,MVFR,,,,,,,,,,,,METAR,-2.0
EHAK 070425Z AUTO 36018KT 320V050 9999 SCT008/// OVC009/// 10/08 Q1023,EHAK,2023-06-07T04:25:00Z,55.38,3.82,10.0,8.0,360,18,,6.21,30.206694,,,TRUE,,,,,,,,SCT,800,OVC,900,,,,,IFR,,,,,,,,,,,,METAR,33.0
EGUN 070425Z AUTO 04006KT 9999 OVC022 10/10 A3020 RMK AO2 CIG 020 RWY28 SLP230 $,EGUN,2023-06-07T04:25:00Z,52.37,0.48,10.0,10.0,40,6,,6.21,30.200787,1023.0,,TRUE,TRUE,TRUE,,,,,,OVC,2200,,,,,,,MVFR,,,,,,,,,,,,METAR,10.0
EBLB 070425Z AUTO VRB01KT 9999 FEW130/// 07/06 Q1020 BLU,EBLB,2023-06-07T04:25:00Z,50.47,6.17,7.0,6.0,0,1,,6.21,30.11811,,,TRUE,,,,,,,,FEW,13000,,,,,,,VFR,,,,,,,,,,,,METAR,563.0
EBFS 070425Z AUTO 07004KT 9999 FEW130/// BKN150/// 14/11 Q1019 BLU,EBFS,2023-06-07T04:25:00Z,50.23,4.65,14.0,11.0,70,4,,6.21,30.088583,,,TRUE,,,,,,,,FEW,13000,BKN,15000,,,,,VFR,,,,,,,,,,,,METAR,276.0
EBFN 070425Z AUTO 03011KT 9999 BKN009/// 12/11 Q1020 GRN,EBFN,2023-06-07T04:25:00Z,51.08,2.65,12.0,11.0,30,11,,6.21,30.11811,,,TRUE,,,,,,,,BKN,900,,,,,,,IFR,,,,,,,,,,,,METAR,9.0
EBDT 070425Z AUTO 02004KT 9999 FEW070/// BKN160/// BKN190/// 14/11 Q1019 BLU,EBDT,2023-06-07T04:25:00Z,51.02,5.07,14.0,11.0,20,4,,6.21,30.088583,,,TRUE,,,,,,,,FEW,7000,BKN,16000,BKN,19000,,,VFR,,,,,,,,,,,,METAR,25.0
EBCV 070425Z AUTO 02005KT 9999 SCT090/// BKN110/// 13/11 Q1019 BLU,EBCV,2023-06-07T04:25:00Z,50.57,3.82,13.0,11.0,20,5,,6.21,30.088583,,,TRUE,,,,,,,,SCT,9000,BKN,11000,,,,,VFR,,,,,,,,,,,,METAR,56.0
EBBL 070425Z AUTO 02004KT 9999 FEW066/// 13/10 Q1019 BLU,EBBL,2023-06-07T04:25:00Z,51.17,5.47,13.0,10.0,20,4,,6.21,30.088583,,,TRUE,,,,,,,,FEW,6600,,,,,,,VFR,,,,,,,,,,,,METAR,50.0
EBBE 070425Z AUTO 03004KT 9000 BKN160/// 12/11 Q1019 BLU,EBBE,2023-06-07T04:25:00Z,50.75,4.77,12.0,11.0,30,4,,5.59,30.088583,,,TRUE,,,,,,,,BKN,16000,,,,,,,VFR,,,,,,,,,,,,METAR,127.0
CYCA 070425Z AUTO 04008KT 1 3/4SM -RA BR OVC003 02/02 A3014 RMK VIS VRB 1 1/2-2 1/2 SLP210,CYCA,2023-06-07T04:25:00Z,53.68,-57.03,2.0,2.0,40,8,,1.75,30.138779,1021.0,,TRUE,,,,,,,-RA BR,OVC,300,,,,,,,LIFR,,,,,,,,,,,,SPECI,12.0
PAVC 070424Z AUTO 11010KT 10SM -RA OVC004 06/06 A2962 RMK AO2 PNO $,PAVC,2023-06-07T04:24:00Z,55.12,-162.27,6.0,6.0,110,10,,10.0,29.619095,,,TRUE,TRUE,TRUE,,,,,-RA,OVC,400,,,,,,,LIFR,,,,,,,,,,,,SPECI,48.0
KTRK 070424Z AUTO 00000KT 10SM CLR 08/03 A2999 RMK AO2,KTRK,2023-06-07T04:24:00Z,39.32,-120.13,8.0,3.0,0,0,,10.0,29.991142,,,TRUE,TRUE,,,,,,,CLR,,,,,,,,VFR,,,,,,,,,,,,SPECI,1800.0
CYIO 070424Z AUTO 32007KT 9SM BKN019 BKN028 BKN034 OVC110 00/M01 A3009 RMK SLP196,CYIO,2023-06-07T04:24:00Z,72.68,-77.97,0.0,-1.0,320,7,,9.0,30.088583,1019.6,,TRUE,,,,,,,,BKN,1900,BKN,2800,BKN,3400,OVC,11000,MVFR,,,,,,,,,,,,SPECI,61.0
KIAD 070423Z 29012KT 10SM BKN120 BKN250 22/11 A2972 RMK AO2 T02170106,KIAD,2023-06-07T04:23:00Z,38.93,-77.45,21.7,10.6,290,12,,10.0,29.719488,,,,TRUE,,,,,,,BKN,12000,BKN,25000,,,,,VFR,,,,,,,,,,,,SPECI,90.0
KHUL 070423Z AUTO 36007KT 9SM -RA BKN015 BKN022 OVC040 09/08 A2933 RMK AO2 P0000 T00940078,KHUL,2023-06-07T04:23:00Z,46.12,-67.8,9.4,7.8,360,7,,9.0,29.329725,,,TRUE,TRUE,,,,,,-RA,BKN,1500,BKN,2200,OVC,4000,,,MVFR,,,,,,0.005,,,,,,SPECI,148.0
MYCB 070422Z AUTO 16007KT 110V210 9999 SCT007 //////CB 26/25 A2994,MYCB,2023-06-07T04:22:00Z,24.32,-75.45,26.0,25.0,160,7,,6.21,29.940945,,,TRUE,,,,,,,,SCT,700,,,,,,,VFR,,,,,,,,,,,,SPECI,2.0
KHHW 070422Z AUTO 03003KT 10SM CLR 19/17 A2991 RMK AO2,KHHW,2023-06-07T04:22:00Z,34.03,-95.55,19.0,17.0,30,3,,10.0,29.911417,,,TRUE,TRUE,,,,,,,CLR,,,,,,,,VFR,,,,,,,,,,,,METAR,178.0
KAIT 070422Z AUTO 08005KT 10SM SCT080 12/05 A3000 RMK AO2,KAIT,2023-06-07T04:22:00Z,46.53,-93.67,12.0,5.0,80,5,,10.0,30.0,,,TRUE,TRUE,,,,,,,SCT,8000,,,,,,,VFR,,,,,,,,,,,,METAR,367.0
CYMH 070422Z AUTO 03010G15KT 1 3/4SM -RA BR OVC003 03/03 A3004 RMK SLP176,CYMH,2023-06-07T04:22:00Z,52.3,-55.82,3.0,3.0,30,10,15,1.75,30.041338,1017.6,,TRUE,,,,,,,-RA BR,OVC,300,,,,,,,LIFR,,,,,,,,,,,,SPECI,18.0
CYKL 070422Z AUTO 06011KT 7SM BKN044 OVC060 06/M00 A3009 RMK SLP214,CYKL,2023-06-07T04:22:00Z,54.8,-66.8,6.0,0.0,60,11,,7.0,30.088583,1021.4,,TRUE,,,,,,,,BKN,4400,OVC,6000,,,,,VFR,,,,,,,,,,,,SPECI,507.0
KAPS 070421Z AUTO 00000KT 10SM CLR 21/21 A2989 RMK AO2,KAPS,2023-06-07T04:21:00Z,30.08,-90.58,21.0,21.0,0,0,,10.0,29.890747,,,TRUE,TRUE,,,,,,,CLR,,,,,,,,VFR,,,,,,,,,,,,SPECI,1.0
CYYG 070421Z 12010KT 3SM -SHRADZ BR OVC005 09/08 A2929 RMK SF8 CVCTV CLD EMBD SLP921,CYYG,2023-06-07T04:21:00Z,46.28,-63.12,9.0,8.0,120,10,,3.0,29.291338,992.1,,,,,,,,,-SHRA -SHDZ BR,OVC,500,,,,,,,IFR,,,,,,,,,,,,SPECI,48.0
CYEK 070421Z AUTO 15009KT 9SM -RA BKN014 OVC022 03/02 A2990 RMK SLP126,CYEK,2023-06-07T04:21:00Z,61.1,-94.07,3.0,2.0,150,9,,9.0,29.899607,1012.6,,TRUE,,,,,,,-RA,BKN,1400,OVC,2200,,,,,MVFR,,,,,,,,,,,,SPECI,7.0
PASO 070420Z AUTO 00000KT 10SM BKN006 OVC046 09/09 A2988 RMK AO2 RAE04 P0000 T00940094 TSNO,PASO,2023-06-07T04:20:00Z,59.45,-151.7,9.4,9.4,0,0,,10.0,29.878937,,,TRUE,TRUE,,,TRUE,,,,BKN,600,OVC,4600,,,,,IFR,,,,,,0.005,,,,,,SPECI,20.0
PADU 070420Z 17005KT 10SM OVC023 A2946 RMK AO2 $,PADU,2023-06-07T04:20:00Z,53.9,-166.53,,,170,5,,10.0,29.459646,,,,TRUE,TRUE,,,,,,OVC,2300,,,,,,,MVFR,,,,,,,,,,,,SPECI,4.0
LTFM 070420Z 05016KT 9999 SCT017 18/14 Q1018 NOSIG RMK RWY17L 06015KT RWY34L 05012KT RWY16R 05016KT RWY36 05014KT RWY18 06014KT,LTFM,2023-06-07T04:20:00Z,41.27,28.75,18.0,14.0,50,16,,6.21,30.059055,,,,,,TRUE,,,,,SCT,1700,,,,,,,VFR,,,,,,,,,,,,METAR,99.0
LTFJ 070420Z 06011KT 9999 BKN018 18/16 Q1017 NOSIG RMK RWY24 04007KT 010V080,LTFJ,2023-06-07T04:20:00Z,40.9,29.3,18.0,16.0,60,11,,6.21,30.029528,,,,,,TRUE,,,,,BKN,1800,,,,,,,MVFR,,,,,,,,,,,,METAR,83.0
LTFE 070420Z 11003KT 080V140 CAVOK 19/17 Q1012 NOSIG RMK RWY10 13003KT 080V160,LTFE,2023-06-07T04:20:00Z,37.25,27.67,19.0,17.0,110,3,,6.21,29.88189,,,,,,TRUE,,,,,CAVOK,,,,,,,,VFR,,,,,,,,,,,,METAR,6.0
LTFC 070420Z VRB02KT CAVOK 15/12 Q1017 RMK RWY23 VRB02KT,LTFC,2023-06-07T04:20:00Z,37.87,30.38,15.0,12.0,0,2,,6.21,30.029528,,,,,,,,,,,CAVOK,,,,,,,,VFR,,,,,,,,,,,,METAR,862.0
LTCS 070420Z 06012KT CAVOK 23/07 Q1012 RMK RWY22 03010KT SKC,LTCS,2023-06-07T04:20:00Z,37.45,38.9,23.0,7.0,60,12,,6.21,29.88189,,,,,,,,,,,CAVOK,,,,,,,,VFR,,,,,,,,,,,,METAR,825.0
LTCJ 070420Z 20006KT CAVOK 20/10 Q1011 NOSIG RMK RWY20 19008KT 4AC100,LTCJ,2023-06-07T04:20:00Z,37.93,41.12,20.0,10.0,200,6,,6.21,29.852362,,,,,,TRUE,,,,,CAVOK,,,,,,,,VFR,,,,,,,,,,,,METAR,559.0
LTCG 070420Z VRB01KT 9999 SCT011 BKN025 20/18 Q1019 NOSIG RMK RWY29 08002KT,LTCG,2023-06-07T04:20:00Z,41.0,39.77,20.0,18.0,0,1,,6.21,30.088583,,,,,,TRUE,,,,,SCT,1100,BKN,2500,,,,,MVFR,,,,,,,,,,,,METAR,28.0
LTCE 070420Z 00000KT 9999 FEW040 11/06 Q1022 NOSIG RMK RWY08R VRB02KT RWY26R VRB02KT RWY08L VRB01KT 2CU040,LTCE,2023-06-07T04:20:00Z,39.95,41.17,11.0,6.0,0,0,,6.21,30.177166,,,,,,TRUE,,,,,FEW,4000,,,,,,,VFR,,,,,,,,,,,,METAR,1758.0
LTCC 070420Z 31006KT 290V350 CAVOK 24/07 Q1012 NOSIG RMK RWY16 /////KT SKC,LTCC,2023-06-07T04:20:00Z,37.88,40.2,24.0,7.0,310,6,,6.21,29.88189,,,,,,TRUE,,,,,CAVOK,,,,,,,,VFR,,,,,,,,,,,,METAR,676.0
LTBU 070420Z 03010KT CAVOK 16/14 Q1017 RMK RWY22 02008KT,LTBU,2023-06-07T04:20:00Z,41.13,27.92,16.0,14.0,30,10,,6.21,30.029528,,,,,,,,,,,CAVOK,,,,,,,,VFR,,,,,,,,,,,,METAR,165.0
LTBS 070420Z 04004KT 9999 FEW100 20/18 Q1011 NOSIG RMK RWY19 36004KT 2AC100,LTBS,2023-06-07T04:20:00Z,36.7,28.78,20.0,18.0,40,4,,6.21,29.852362,,,,,,TRUE,,,,,FEW,10000,,,,,,,VFR,,,,,,,,,,,,METAR,2.0
LTBR 070420Z 00000KT 8000 NSC 17/15 Q1016 NOSIG RMK RWY07 00000KT,LTBR,2023-06-07T04:20:00Z,40.25,29.57,17.0,15.0,0,0,,4.97,30.0,,,,,,TRUE,,,,,CLR,,,,,,,,MVFR,,,,,,,,,,,,METAR,233.0
LTBJ 070420Z 00000KT 9000 NSC 19/18 Q1013 NOSIG RMK RWY16 VRB01KT,LTBJ,2023-06-07T04:20:00Z,38.28,27.15,19.0,18.0,0,0,,5.59,29.911417,,,,,,TRUE,,,,,CLR,,,,,,,,VFR,,,,,,,,,,,,METAR,123.0
LTBA 070420Z 05014KT 9999 BKN018 19/14 Q1017 RMK RWY23 06012KT,LTBA,2023-06-07T04:20:00Z,40.97,28.82,19.0,14.0,50,14,,6.21,30.029528,,,,,,,,,,,BKN,1800,,,,,,,MVFR,,,,,,,,,,,,METAR,33.0
LTAZ 070420Z 00000KT 9999 FEW016 13/11 Q1020 RMK RWY29 VRB02KT,LTAZ,2023-06-07T04:20:00Z,38.77,34.52,13.0,11.0,0,0,,6.21,30.11811,,,,,,,,,,,FEW,1600,,,,,,,VFR,,,,,,,,,,,,METAR,944.0
LTAU 070420Z 00000KT CAVOK 14/10 Q1019 NOSIG RMK RWY07 08003KT 020V140,LTAU,2023-06-07T04:20:00Z,38.77,35.48,14.0,10.0,0,0,,6.21,30.088583,,,,,,TRUE,,,,,CAVOK,,,,,,,,VFR,,,,,,,,,,,,METAR,1053.0
LTAT 070420Z 20002KT CAVOK 18/09 Q1016 NOSIG RMK RWY03 VRB02KT,LTAT,2023-06-07T04:20:00Z,38.43,38.08,18.0,9.0,200,2,,6.21,30.0,,,,,,TRUE,,,,,CAVOK,,,,,,,,VFR,,,,,,,,,,,,METAR,850.0
LTAP 070420Z 00000KT 9999 FEW040 14/11 Q1019 NOSIG RMK RWY23 00000KT,LTAP,2023-06-07T04:20:00Z,40.83,35.52,14.0,11.0,0,0,,6.21,30.088583,,,,,,TRUE,,,,,FEW,4000,,,,,,,VFR,,,,,,,,,,,,METAR,536.0
LTAJ 070420Z 36006KT 330V030 CAVOK 25/08 Q1011 NOSIG RMK RWY10 35008KT 320V020 SKC,LTAJ,2023-06-07T04:20:00Z,36.95,37.48,25.0,8.0,360,6,,6.21,29.852362,,,,,,TRUE,,,,,CAVOK,,,,,,,,VFR,,,,,,,,,,,,METAR,684.0
LTAI 070420Z 33007KT 250V360 CAVOK 24/15 Q1011 NOSIG RMK RWY18C 33004KT 290V350 RWY36R 33007KT RWY18L 33005KT,LTAI,2023-06-07T04:20:00Z,36.9,30.8,24.0,15.0,330,7,,6.21,29.852362,,,,,,TRUE,,,,,CAVOK,,,,,,,,VFR,,,,,,,,,,,,METAR,50.0
LTAG 070420Z 00000KT 9999 SCT035 22/18 Q1010 NOSIG RMK 3CU035,LTAG,2023-06-07T04:20:00Z,37.0,35.42,22.0,18.0,0,0,,6.21,29.822834,,,,,,TRUE,,,,,SCT,3500,,,,,,,VFR,,,,,,,,,,,,METAR,62.0
LTAF 070420Z VRB02KT 9999 SCT035 22/20 Q1011 NOSIG RMK RWY23 VRB01KT 3CU035,LTAF,2023-06-07T04:20:00Z,36.98,35.28,22.0,20.0,0,2,,6.21,29.852362,,,,,,TRUE,,,,,SCT,3500,,,,,,,VFR,,,,,,,,,,,,METAR,19.0
LTAC 070420Z VRB02KT CAVOK 14/12 Q1019 NOSIG RMK RWY21L 34004KT RWY03L VRB02KT RWY21R 36004KT,LTAC,2023-06-07T04:20:00Z,40.12,32.98,14.0,12.0,0,2,,6.21,30.088583,,,,,,TRUE,,,,,CAVOK,,,,,,,,VFR,,,,,,,,,,,,METAR,952.0
LSZS 070420Z AUTO 20002KT CAVOK 04/04 Q1021,LSZS,2023-06-07T04:20:00Z,46.53,9.88,4.0,4.0,200,2,,6.21,30.147638,,,TRUE,,,,,,,,CAVOK,,,,,,,,VFR,,,,,,,,,,,,METAR,1708.0
LSZR 070420Z 09002KT CAVOK 12/11 Q1018 RMK A,LSZR,2023-06-07T04:20:00Z,47.48,9.57,12.0,11.0,90,2,,6.21,30.059055,,,,,,,,,,,CAVOK,,,,,,,,VFR,,,,,,,,,,,,METAR,396.0
LSZL 070420Z AUTO 00000KT 9999NDV FEW014 16/15 Q1018 RMK,LSZL,2023-06-07T04:20:00Z,46.17,8.88,16.0,15.0,0,0,,,30.059055,,,TRUE,,,,,,,,FEW,1400,,,,,,,,,,,,,,,,,,,SPECI,198.0
LSZH 070420Z VRB01KT CAVOK 11/08 Q1018 NOSIG,LSZH,2023-06-07T04:20:00Z,47.48,8.53,11.0,8.0,0,1,,6.21,30.059055,,,,,,TRUE,,,,,CAVOK,,,,,,,,VFR,,,,,,,,,,,,METAR,424.0
LSZG 070420Z AUTO 05002KT CAVOK 14/11 Q1017,LSZG,2023-06-07T04:20:00Z,47.17,7.42,14.0,11.0,50,2,,6.21,30.029528,,,TRUE,,,,,,,,CAVOK,,,,,,,,VFR,,,,,,,,,,,,METAR,428.0
LSZC 070420Z AUTO 26003KT CAVOK 12/09 Q1017,LSZC,2023-06-07T04:20:00Z,46.97,8.38,12.0,9.0,260,3,,6.21,30.029528,,,TRUE,,,,,,,,CAVOK,,,,,,,,VFR,,,,,,,,,,,,METAR,445.0
LSZB 070420Z 19001KT 9999 SCT110 09/08 Q1017,LSZB,2023-06-07T04:20:00Z,46.92,7.5,9.0,8.0,190,1,,6.21,30.029528,,,,,,,,,,,SCT,11000,,,,,,,VFR,,,,,,,,,,,,METAR,510.0
LSZA 070420Z AUTO 01002KT 9999 NSC 14/14 Q1018,LSZA,2023-06-07T04:20:00Z,46.0,8.92,14.0,14.0,10,2,,6.21,30.059055,,,TRUE,,,,,,,,CLR,,,,,,,,VFR,,,,,,,,,,,,METAR,276.0
LSMP 070420Z AUTO VRB02KT 9999NDV SCT100 BKN120 12/09 Q1017 RMK,LSMP,2023-06-07T04:20:00Z,46.83,6.92,12.0,9.0,0,2,,,30.029528,,,TRUE,,,,,,,,SCT,10000,BKN,12000,,,,,,,,,,,,,,,,,METAR,490.0
LSMM 070420Z AUTO 08003KT 030V110 9999NDV FEW110 10/10 Q1017 RMK,LSMM,2023-06-07T04:20:00Z,46.75,8.12,10.0,10.0,80,3,,,30.029528,,,TRUE,,,,,,,,FEW,11000,,,,,,,,,,,,,,,,,,,METAR,570.0
LSME 070420Z AUTO 00000KT 9999NDV NCD 11/10 Q1017 RMK,LSME,2023-06-07T04:20:00Z,47.1,8.3,11.0,10.0,0,0,,,30.029528,,,TRUE,,,,,,,,CLR,,,,,,,,,,,,,,,,,,,,METAR,427.0
LSMD 070420Z AUTO 31003KT 9999NDV NCD 12/09 Q1017 RMK,LSMD,2023-06-07T04:20:00Z,47.4,8.65,12.0,9.0,310,3,,,30.029528,,,TRUE,,,,,,,,CLR,,,,,,,,,,,,,,,,,,,,METAR,436.0
LSMA 070420Z AUTO 19001KT 9999NDV NCD 11/09 Q1017 RMK,LSMA,2023-06-07T04:20:00Z,46.95,8.28,11.0,9.0,190,1,,,30.029528,,,TRUE,,,,,,,,CLR,,,,,,,,,,,,,,,,,,,,METAR,441.0
LSGS 070420Z AUTO 09003KT 9999 SCT110 16/10 Q1017,LSGS,2023-06-07T04:20:00Z,46.22,7.32,16.0,10.0,90,3,,6.21,30.029528,,,TRUE,,,,,,,,SCT,11000,,,,,,,VFR,,,,,,,,,,,,METAR,482.0
LSGG 070420Z VRB01KT CAVOK 13/09 Q1016 NOSIG,LSGG,2023-06-07T04:20:00Z,46.25,6.12,13.0,9.0,0,1,,6.21,30.0,,,,,,TRUE,,,,,CAVOK,,,,,,,,VFR,,,,,,,,,,,,METAR,411.0
LSGC 070420Z AUTO 04001KT CAVOK 10/07 Q1018,LSGC,2023-06-07T04:20:00Z,47.08,6.8,10.0,7.0,40,1,,6.21,30.059055,,,TRUE,,,,,,,,CAVOK,,,,,,,,VFR,,,,,,,,,,,,METAR,1018.0
LOWW 070420Z VRB02KT 9999 SHRA FEW004 BKN006 FEW025TCU 17/16 Q1016 BECMG NSW BKN020,LOWW,2023-06-07T04:20:00Z,48.12,16.57,17.0,16.0,0,2,,6.21,30.0,,,,,,,,,,SHRA,FEW,400,BKN,600,FEW,2500,,,IFR,,,,,,,,,,,,SPECI,179.0
LOWS 070420Z AUTO 17004KT 9999 FEW120 11/10 Q1018 NOSIG,LOWS,2023-06-07T04:20:00Z,47.78,13.02,11.0,10.0,170,4,,6.21,30.059055,,,TRUE,,,TRUE,,,,,FEW,12000,,,,,,,VFR,,,,,,,,,,,,METAR,427.0
LOWL 070420Z AUTO 23003KT 9999 FEW040 BKN060 15/13 Q1017 NOSIG,LOWL,2023-06-07T04:20:00Z,48.22,14.18,15.0,13.0,230,3,,6.21,30.029528,,,TRUE,,,TRUE,,,,,FEW,4000,BKN,6000,,,,,VFR,,,,,,,,,,,,METAR,290.0
LOWK 070420Z AUTO VRB01KT 9999 FEW002 BKN007 OVC022 14/14 Q1018 TEMPO BKN012,LOWK,2023-06-07T04:20:00Z,46.65,14.32,14.0,14.0,0,1,,6.21,30.059055,,,TRUE,,,,,,,,FEW,200,BKN,700,OVC,2200,,,IFR,,,,,,,,,,,,SPECI,450.0
LOWI 070420Z VRB02KT 9999 FEW070 11/10 Q1019 NOSIG,LOWI,2023-06-07T04:20:00Z,47.27,11.33,11.0,10.0,0,2,,6.21,30.088583,,,,,,TRUE,,,,,FEW,7000,,,,,,,VFR,,,,,,,,,,,,METAR,570.0
LOWG 070420Z 24002KT 9999 FEW001 BKN055 14/14 Q1017 NOSIG,LOWG,2023-06-07T04:20:00Z,47.0,15.43,14.0,14.0,240,2,,6.21,30.029528,,,,,,TRUE,,,,,FEW,100,BKN,5500,,,,,VFR,,,,,,,,,,,,METAR,337.0
LLBG 070420Z VRB03KT 9999 FEW024 SCT028 23/17 Q1011 NOSIG,LLBG,2023-06-07T04:20:00Z,32.0,34.88,23.0,17.0,0,3,,6.21,29.852362,,,,,,TRUE,,,,,FEW,2400,SCT,2800,,,,,VFR,,,,,,,,,,,,METAR,35.0
LIRZ 070420Z AUTO 01002KT 9999 SCT004/// SCT030/// 15/14 Q1017,LIRZ,2023-06-07T04:20:00Z,43.1,12.5,15.0,14.0,10,2,,6.21,30.029528,,,TRUE,,,,,,,,SCT,400,SCT,3000,,,,,VFR,,,,,,,,,,,,METAR,206.0
LIRQ 070420Z 21003KT 9999 BKN025 18/17 Q1017,LIRQ,2023-06-07T04:20:00Z,43.8,11.2,18.0,17.0,210,3,,6.21,30.029528,,,,,,,,,,,BKN,2500,,,,,,,MVFR,,,,,,,,,,,,METAR,33.0
LIRN 070420Z VRB01KT 8000 FEW050 19/17 Q1016 NOSIG,LIRN,2023-06-07T04:20:00Z,40.88,14.3,19.0,17.0,0,1,,4.97,30.0,,,,,,TRUE,,,,,FEW,5000,,,,,,,MVFR,,,,,,,,,,,,METAR,76.0
LIRF 070420Z 03003KT CAVOK 15/15 Q1016 NOSIG,LIRF,2023-06-07T04:20:00Z,41.78,12.23,15.0,15.0,30,3,,6.21,30.0,,,,,,TRUE,,,,,CAVOK,,,,,,,,VFR,,,,,,,,,,,,METAR,2.0
LIRA 070420Z 08004KT CAVOK 17/14 Q1016,LIRA,2023-06-07T04:20:00Z,41.8,12.58,17.0,14.0,80,4,,6.21,30.0,,,,,,,,,,,CAVOK,,,,,,,,VFR,,,,,,,,,,,,METAR,101.0
LIPZ 070420Z 03005KT 6000 NSC 17/16 Q1016 NOSIG,LIPZ,2023-06-07T04:20:00Z,45.5,12.35,17.0,16.0,30,5,,3.73,30.0,,,,,,TRUE,,,,,CLR,,,,,,,,MVFR,,,,,,,,,,,,METAR,3.0
LIPY 070420Z AUTO 22003KT 9999 NCD 16/15 Q1016,LIPY,2023-06-07T04:20:00Z,43.62,13.37,16.0,15.0,220,3,,6.21,30.0,,,TRUE,,,,,,,,CLR,,,,,,,,VFR,,,,,,,,,,,,METAR,11.0
LIPX 070420Z 03003KT 9999 SCT050 17/15 Q1016,LIPX,2023-06-07T04:20:00Z,45.38,10.87,17.0,15.0,30,3,,6.21,30.0,,,,,,,,,,,SCT,5000,,,,,,,VFR,,,,,,,,,,,,METAR,67.0
LIPR 070420Z AUTO VRB01KT 9999 NCD 16/14 Q1016,LIPR,2023-06-07T04:20:00Z,44.02,12.62,16.0,14.0,0,1,,6.21,30.0,,,TRUE,,,,,,,,CLR,,,,,,,,VFR,,,,,,,,,,,,METAR,10.0
LIPQ 070420Z AUTO 03004KT 9999 NCD 16/16 Q1016,LIPQ,2023-06-07T04:20:00Z,45.82,13.47,16.0,16.0,30,4,,6.21,30.0,,,TRUE,,,,,,,,CLR,,,,,,,,VFR,,,,,,,,,,,,METAR,6.0
LIPO 070420Z AUTO 01003KT 9999 BKN052/// BKN061/// BKN100/// 19/17 Q1016,LIPO,2023-06-07T04:20:00Z,45.42,10.33,19.0,17.0,10,3,,6.21,30.0,,,TRUE,,,,,,,,BKN,5200,BKN,6100,BKN,10000,,,VFR,,,,,,,,,,,,METAR,104.0
LIPH 070420Z AUTO VRB01KT 8000 FEW015/// SCT140/// 17/17 Q1016,LIPH,2023-06-07T04:20:00Z,45.63,12.18,17.0,17.0,0,1,,4.97,30.0,,,TRUE,,,,,,,,FEW,1500,SCT,14000,,,,,MVFR,,,,,,,,,,,,METAR,10.0
LIPE 070420Z 24003KT 9999 SCT005 16/15 Q1016,LIPE,2023-06-07T04:20:00Z,44.52,11.3,16.0,15.0,240,3,,6.21,30.0,,,,,,,,,,,SCT,500,,,,,,,VFR,,,,,,,,,,,,METAR,37.0
LIMZ 070420Z AUTO 01004KT 9999 VCTS BKN044/// 16/15 Q1017,LIMZ,2023-06-07T04:20:00Z,44.53,7.62,16.0,15.0,10,4,,6.21,30.029528,,,TRUE,,,,,,,VCTS,BKN,4400,,,,,,,VFR,,,,,,,,,,,,METAR,377.0
LIMW 070420Z AUTO 06003KT 360V120 9999 BKN041/// OVC110/// 15/12 Q1018,LIMW,2023-06-07T04:20:00Z,45.73,7.37,15.0,12.0,60,3,,6.21,30.059055,,,TRUE,,,,,,,,BKN,4100,OVC,11000,,,,,VFR,,,,,,,,,,,,METAR,554.0
LIML 070420Z VRB02KT 6000 -TSRA FEW020CB BKN060 17/16 Q1017 RETSRA NOSIG,LIML,2023-06-07T04:20:00Z,45.47,9.27,17.0,16.0,0,2,,3.73,30.029528,,,,,,TRUE,,,,-TSRA,FEW,2000,BKN,6000,,,,,MVFR,,,,,,,,,,,,METAR,109.0
LIMJ 070420Z 05004KT 9999 FEW015 FEW020TCU BKN040 20/17 Q1016,LIMJ,2023-06-07T04:20:00Z,44.42,8.83,20.0,17.0,50,4,,6.21,30.0,,,,,,,,,,,FEW,1500,FEW,2000,BKN,4000,,,VFR,,,,,,,,,,,,METAR,3.0
LIMF 070420Z 32007KT 9999 -SHRA SCT020 BKN030 16/14 Q1018,LIMF,2023-06-07T04:20:00Z,45.22,7.65,16.0,14.0,320,7,,6.21,30.059055,,,,,,,,,,-SHRA,SCT,2000,BKN,3000,,,,,MVFR,,,,,,,,,,,,METAR,295.0
LIME 070420Z 01004KT 9999 -RA SCT045 16/15 Q1017 NOSIG,LIME,2023-06-07T04:20:00Z,45.67,9.7,16.0,15.0,10,4,,6.21,30.029528,,,,,,TRUE,,,,-RA,SCT,4500,,,,,,,VFR,,,,,,,,,,,,METAR,239.0
LIMC 070420Z 31006KT 280V340 9999 BKN070 16/14 Q1017 NOSIG,LIMC,2023-06-07T04:20:00Z,45.62,8.72,16.0,14.0,310,6,,6.21,30.029528,,,,,,TRUE,,,,,BKN,7000,,,,,,,VFR,,,,,,,,,,,,METAR,221.0
LIEO 070420Z 22003KT 190V250 CAVOK 16/16 Q1016,LIEO,2023-06-07T04:20:00Z,40.88,9.52,16.0,16.0,220,3,,6.21,30.0,,,,,,,,,,,CAVOK,,,,,,,,VFR,,,,,,,,,,,,METAR,8.0
LIEE 070420Z 02002KT CAVOK 16/15 Q1016,LIEE,2023-06-07T04:20:00Z,39.25,9.07,16.0,15.0,20,2,,6.21,30.0,,,,,,,,,,,CAVOK,,,,,,,,VFR,,,,,,,,,,,,METAR,1.0
LIEA 070420Z 01002KT 9999 MIFG NSC 15/15 Q1016,LIEA,2023-06-07T04:20:00Z,40.62,8.28,15.0,15.0,10,2,,6.21,30.0,,,,,,,,,,MIFG,CLR,,,,,,,,VFR,,,,,,,,,,,,METAR,22.0
LICR 070420Z AUTO 01009KT 9999 OVC095/// 20/17 Q1016,LICR,2023-06-07T04:20:00Z,38.07,15.65,20.0,17.0,10,9,,6.21,30.0,,,TRUE,,,,,,,,OVC,9500,,,,,,,VFR,,,,,,,,,,,,METAR,16.0
LICJ 070420Z 14004KT CAVOK 18/17 Q1016,LICJ,2023-06-07T04:20:00Z,38.17,13.08,18.0,17.0,140,4,,6.21,30.0,,,,,,,,,,,CAVOK,,,,,,,,VFR,,,,,,,,,,,,METAR,20.0
LICD 070420Z AUTO 04007KT 9999 FEW010/// 19/18 Q1015,LICD,2023-06-07T04:20:00Z,35.5,12.62,19.0,18.0,40,7,,6.21,29.970472,,,TRUE,,,,,,,,FEW,1000,,,,,,,VFR,,,,,,,,,,,,METAR,20.0
LICC 070420Z 27004KT 9999 BKN090 20/17 Q1015,LICC,2023-06-07T04:20:00Z,37.47,15.05,20.0,17.0,270,4,,6.21,29.970472,,,,,,,,,,,BKN,9000,,,,,,,VFR,,,,,,,,,,,,METAR,6.0
LICB 070420Z AUTO 02002KT 9999 BKN075/// 18/15 Q1016,LICB,2023-06-07T04:20:00Z,37.0,14.62,18.0,15.0,20,2,,6.21,30.0,,,TRUE,,,,,,,,BKN,7500,,,,,,,VFR,,,,,,,,,,,,METAR,212.0
LICA 070420Z AUTO VRB01KT 9999 FEW016/// SCT018/// BKN100/// 20/19 Q1016,LICA,2023-06-07T04:20:00Z,38.9,16.25,20.0,19.0,0,1,,6.21,30.0,,,TRUE,,,,,,,,FEW,1600,SCT,1800,BKN,10000,,,VFR,,,,,,,,,,,,METAR,7.0
LIBR 070420Z 34006KT 9999 -RA FEW045 21/19 Q1015,LIBR,2023-06-07T04:20:00Z,40.65,17.95,21.0,19.0,340,6,,6.21,29.970472,,,,,,,,,,-RA,FEW,4500,,,,,,,VFR,,,,,,,,,,,,METAR,5.0
LIBP 070420Z AUTO 23003KT 9999 NCD 15/15 Q1016,LIBP,2023-06-07T04:20:00Z,42.42,14.18,15.0,15.0,230,3,,6.21,30.0,,,TRUE,,,,,,,,CLR,,,,,,,,VFR,,,,,,,,,,,,METAR,10.0
LIBD 070420Z 23002KT 8000 SCT020 19/18 Q1015,LIBD,2023-06-07T04:20:00Z,41.13,16.77,19.0,18.0,230,2,,4.97,29.970472,,,,,,,,,,,SCT,2000,,,,,,,MVFR,,,,,,,,,,,,METAR,42.0
LGTS 070420Z VRB02KT CAVOK 17/15 Q1017 NOSIG,LGTS,2023-06-07T04:20:00Z,40.52,22.97,17.0,15.0,0,2,,6.21,30.029528,,,,,,TRUE,,,,,CAVOK,,,,,,,,VFR,,,,,,,,,,,,METAR,4.0
LGSR 070420Z 27004KT CAVOK 19/17 Q1013,LGSR,2023-06-07T04:20:00Z,36.4,25.48,19.0,17.0,270,4,,6.21,29.911417,,,,,,,,,,,CAVOK,,,,,,,,VFR,,,,,,,,,,,,METAR,31.0
LGSO 070420Z AUTO 34007KT //// // ////// 21/16 Q1014 RE//,LGSO,2023-06-07T04:20:00Z,37.42,24.95,21.0,16.0,340,7,,,29.940945,,,TRUE,,,,,,,,,,,,,,,,,,,,,,,,,,,,SPECI,71.0
LGSA 070420Z 00000KT 9999 FEW015 SCT100 19/17 Q1013,LGSA,2023-06-07T04:20:00Z,35.53,24.13,19.0,17.0,0,0,,6.21,29.911417,,,,,,,,,,,FEW,1500,SCT,10000,,,,,VFR,,,,,,,,,,,,METAR,122.0
LGRX 070420Z 00000KT 9999 FEW025 18/14 Q1014,LGRX,2023-06-07T04:20:00Z,38.17,21.42,18.0,14.0,0,0,,6.21,29.940945,,,,,,,,,,,FEW,2500,,,,,,,VFR,,,,,,,,,,,,METAR,16.0
LGRP 070420Z 23006KT 9999 FEW018 22/19 Q1011 NOSIG,LGRP,2023-06-07T04:20:00Z,36.4,28.08,22.0,19.0,230,6,,6.21,29.852362,,,,,,TRUE,,,,,FEW,1800,,,,,,,VFR,,,,,,,,,,,,METAR,3.0
LGPZ 070420Z 14001KT 9999 FEW013 20/17 Q1014,LGPZ,2023-06-07T04:20:00Z,38.92,20.77,20.0,17.0,140,1,,6.21,29.940945,,,,,,,,,,,FEW,1300,,,,,,,VFR,,,,,,,,,,,,METAR,3.0
LGMT 070420Z 32004KT CAVOK 21/18 Q1014,LGMT,2023-06-07T04:20:00Z,39.05,26.6,21.0,18.0,320,4,,6.21,29.940945,,,,,,,,,,,CAVOK,,,,,,,,VFR,,,,,,,,,,,,METAR,4.0
LGMK 070420Z 01015KT 9999 FEW009 19/14 Q1013,LGMK,2023-06-07T04:20:00Z,37.43,25.35,19.0,14.0,10,15,,6.21,29.911417,,,,,,,,,,,FEW,900,,,,,,,VFR,,,,,,,,,,,,METAR,126.0
LGLM 070420Z 03014KT CAVOK 18/15 Q1015,LGLM,2023-06-07T04:20:00Z,39.92,25.23,18.0,15.0,30,14,,6.21,29.970472,,,,,,,,,,,CAVOK,,,,,,,,VFR,,,,,,,,,,,,METAR,4.0
LGKZ 070420Z AUTO VRB02KT //// // ////// 14/10 Q1018 RE//,LGKZ,2023-06-07T04:20:00Z,40.28,21.83,14.0,10.0,0,2,,,30.059055,,,TRUE,,,,,,,,,,,,,,,,,,,,,,,,,,,,SPECI,615.0
LGKV 070420Z 07003KT CAVOK 16/12 Q1016,LGKV,2023-06-07T04:20:00Z,40.92,24.62,16.0,12.0,70,3,,6.21,30.0,,,,,,,,,,,CAVOK,,,,,,,,VFR,,,,,,,,,,,,METAR,5.0
LGKR 070420Z 00000KT CAVOK 21/17 Q1013 NOSIG,LGKR,2023-06-07T04:20:00Z,39.62,19.92,21.0,17.0,0,0,,6.21,29.911417,,,,,,TRUE,,,,,CAVOK,,,,,,,,VFR,,,,,,,,,,,,METAR,2.0
LGKP 070420Z 31009KT 9999 FEW020 21/19 Q1012,LGKP,2023-06-07T04:20:00Z,35.42,27.15,21.0,19.0,310,9,,6.21,29.88189,,,,,,,,,,,FEW,2000,,,,,,,VFR,,,,,,,,,,,,METAR,20.0
LGKL 070420Z 00000KT 9999 FEW025 17/15 Q1014,LGKL,2023-06-07T04:20:00Z,37.07,22.02,17.0,15.0,0,0,,6.21,29.940945,,,,,,,,,,,FEW,2500,,,,,,,VFR,,,,,,,,,,,,METAR,4.0
LGKF 070420Z 00000KT 9999 FEW030 20/17 Q1014,LGKF,2023-06-07T04:20:00Z,38.12,20.5,20.0,17.0,0,0,,6.21,29.940945,,,,,,,,,,,FEW,3000,,,,,,,VFR,,,,,,,,,,,,METAR,14.0
LGIR 070420Z VRB02KT 9999 FEW025 19/18 Q1014 NOSIG,LGIR,2023-06-07T04:20:00Z,35.33,25.17,19.0,18.0,0,2,,6.21,29.940945,,,,,,TRUE,,,,,FEW,2500,,,,,,,VFR,,,,,,,,,,,,METAR,37.0
LGIO 070420Z AUTO VRB01KT //// // ////// 14/14 Q1016 RE//,LGIO,2023-06-07T04:20:00Z,39.7,20.82,14.0,14.0,0,1,,,30.0,,,TRUE,,,,,,,,,,,,,,,,,,,,,,,,,,,,METAR,476.0
LGEL 070420Z 34010KT CAVOK 21/11 Q1014,LGEL,2023-06-07T04:20:00Z,38.07,23.55,21.0,11.0,340,10,,6.21,29.940945,,,,,,,,,,,CAVOK,,,,,,,,VFR,,,,,,,,,,,,METAR,21.0
LGBL 070420Z 26005KT CAVOK 17/11 Q1016,LGBL,2023-06-07T04:20:00Z,39.22,22.8,17.0,11.0,260,5,,6.21,30.0,,,,,,,,,,,CAVOK,,,,,,,,VFR,,,,,,,,,,,,METAR,13.0
LGAV 070420Z 10003KT 9999 FEW025 17/11 Q1015 NOSIG,LGAV,2023-06-07T04:20:00Z,37.93,23.95,17.0,11.0,100,3,,6.21,29.970472,,,,,,TRUE,,,,,FEW,2500,,,,,,,VFR,,,,,,,,,,,,METAR,83.0
LGAL 070420Z 04010KT CAVOK 18/12 Q1016,LGAL,2023-06-07T04:20:00Z,40.85,25.95,18.0,12.0,40,10,,6.21,30.0,,,,,,,,,,,CAVOK,,,,,,,,VFR,,,,,,,,,,,,METAR,5.0
LGAD 070420Z 00000KT 9999 FEW025 18/15 Q1014,LGAD,2023-06-07T04:20:00Z,37.92,21.28,18.0,15.0,0,0,,6.21,29.940945,,,,,,,,,,,FEW,2500,,,,,,,VFR,,,,,,,,,,,,METAR,8.0
LCRA 070420Z 32002KT CAVOK 23/18 Q1011 NOSIG,LCRA,2023-06-07T04:20:00Z,34.58,32.98,23.0,18.0,320,2,,6.21,29.852362,,,,,,TRUE,,,,,CAVOK,,,,,,,,VFR,,,,,,,,,,,,METAR,23.0
LCEN 070420Z 29012KT 9999 FEW025 23/12 Q1011 NOSIG RMK RWY11 29009KT,LCEN,2023-06-07T04:20:00Z,35.15,33.5,23.0,12.0,290,12,,6.21,29.852362,,,,,,TRUE,,,,,FEW,2500,,,,,,,VFR,,,,,,,,,,,,METAR,91.0
LATI 070420Z 18003KT 9999 FEW050 SCT130 18/17 Q1015 NOSIG,LATI,2023-06-07T04:20:00Z,41.42,19.72,18.0,17.0,180,3,,6.21,29.970472,,,,,,TRUE,,,,,FEW,5000,SCT,13000,,,,,VFR,,,,,,,,,,,,METAR,32.0
KY31 070420Z AUTO 28009KT 10SM CLR 08/03 A2992 RMK AO2,KY31,2023-06-07T04:20:00Z,44.25,-84.18,8.0,3.0,280,9,,10.0,29.920275,,,TRUE,TRUE,,,,,,,CLR,,,,,,,,VFR,,,,,,,,,,,,METAR,264.0
KW40 070420Z AUTO 00000KT 5SM BR CLR 15/14 A2979 RMK AO2 T01550139,KW40,2023-06-07T04:20:00Z,35.22,-78.03,15.5,13.9,0,0,,5.0,29.790354,,,TRUE,TRUE,,,,,,BR,CLR,,,,,,,,MVFR,,,,,,,,,,,,METAR,50.0
KMHV 070420Z AUTO 22014G19KT 10SM BKN110 16/08 A2983 RMK AO2,KMHV,2023-06-07T04:20:00Z,35.07,-118.15,16.0,8.0,220,14,19,10.0,29.828741,,,TRUE,TRUE,,,,,,,BKN,11000,,,,,,,VFR,,,,,,,,,,,,SPECI,841.0
KHWD 070420Z AUTO 31009KT 10SM OVC030 16/12 A2988 RMK AO2 T01560117,KHWD,2023-06-07T04:20:00Z,37.67,-122.12,15.6,11.7,310,9,,10.0,29.878937,,,TRUE,TRUE,,,,,,,OVC,3000,,,,,,,MVFR,,,,,,,,,,,,SPECI,9.0
KGZN 070420Z AUTO 15003KT 10SM FEW049 FEW055 21/18 A2994 RMK AO2,KGZN,2023-06-07T04:20:00Z,32.37,-99.02,21.0,18.0,150,3,,10.0,29.940945,,,TRUE,TRUE,,,,,,,FEW,4900,FEW,5500,,,,,VFR,,,,,,,,,,,,METAR,522.0
KETC 070420Z AUTO 00000KT 4SM BR CLR 15/15 A2976 RMK AO2 T01490146,KETC,2023-06-07T04:20:00Z,35.93,-77.55,14.9,14.6,0,0,,4.0,29.760826,,,TRUE,TRUE,,,,,,BR,CLR,,,,,,,,MVFR,,,,,,,,,,,,METAR,15.0
EYVI 070420Z VRB02KT CAVOK 15/07 Q1020 NOSIG,EYVI,2023-06-07T04:20:00Z,54.63,25.28,15.0,7.0,0,2,,6.21,30.11811,,,,,,TRUE,,,,,CAVOK,,,,,,,,VFR,,,,,,,,,,,,METAR,180.0
EYSA 070420Z 26003KT CAVOK 15/08 Q1020 NOSIG,EYSA,2023-06-07T04:20:00Z,55.9,23.4,15.0,8.0,260,3,,6.21,30.11811,,,,,,TRUE,,,,,CAVOK,,,,,,,,VFR,,,,,,,,,,,,METAR,135.0
EYPA 070420Z VRB01KT CAVOK 14/09 Q1020,EYPA,2023-06-07T04:20:00Z,55.97,21.08,14.0,9.0,0,1,,6.21,30.11811,,,,,,,,,,,CAVOK,,,,,,,,VFR,,,,,,,,,,,,METAR,15.0
EYKA 070420Z 00000KT CAVOK 13/09 Q1020,EYKA,2023-06-07T04:20:00Z,54.97,24.08,13.0,9.0,0,0,,6.21,30.11811,,,,,,,,,,,CAVOK,,,,,,,,VFR,,,,,,,,,,,,METAR,68.0
EVVA 070420Z AUTO 00000KT 0250 FG VV001 08/08 Q1020,EVVA,2023-06-07T04:20:00Z,57.35,21.55,8.0,8.0,0,0,,0.16,30.11811,,,TRUE,,,,,,,FG,OVX,0,,,,,,,LIFR,,,,,,,,,,,100,METAR,1.0
EVRA 070420Z VRB02KT CAVOK 14/09 Q1019 NOSIG,EVRA,2023-06-07T04:20:00Z,56.92,23.97,14.0,9.0,0,2,,6.21,30.088583,,,,,,TRUE,,,,,CAVOK,,,,,,,,VFR,,,,,,,,,,,,METAR,7.0
EVLA 070420Z AUTO 07002KT 9999 FEW001/// 10/09 Q1020,EVLA,2023-06-07T04:20:00Z,56.52,21.1,10.0,9.0,70,2,,6.21,30.11811,,,TRUE,,,,,,,,FEW,100,,,,,,,VFR,,,,,,,,,,,,METAR,5.0
EVGA 070420Z 00000KT CAVOK 12/09 Q1019 NOSIG,EVGA,2023-06-07T04:20:00Z,56.78,24.85,12.0,9.0,0,0,,6.21,30.088583,,,,,,TRUE,,,,,CAVOK,,,,,,,,VFR,,,,,,,,,,,,METAR,61.0
ETWM 070420Z 03006KT 9999 BKN004 09/09 Q1021 YLO,ETWM,2023-06-07T04:20:00Z,52.72,7.33,9.0,9.0,30,6,,6.21,30.147638,,,,,,,,,,,BKN,400,,,,,,,LIFR,,,,,,,,,,,,METAR,18.0
ETSL 070420Z 18004KT 9999 08/07 Q1018 BLU+BLU+,ETSL,2023-06-07T04:20:00Z,48.18,10.87,8.0,7.0,180,4,,6.21,30.059055,,,,,,,,,,,,,,,,,,,,,,,,,,,,,,,METAR,548.0
ETSI 070420Z 21002KT 9999 VCFG MIFG FEW002 10/09 Q1018 BLU+BLU+,ETSI,2023-06-07T04:20:00Z,48.72,11.53,10.0,9.0,210,2,,6.21,30.059055,,,,,,,,,,VCFG MIFG,FEW,200,,,,,,,VFR,,,,,,,,,,,,METAR,366.0
ETSH 070420Z 36002KT 9999 FEW070 BKN100 16/12 Q1018 BLU BLU,ETSH,2023-06-07T04:20:00Z,51.77,13.17,16.0,12.0,360,2,,6.21,30.059055,,,,,,,,,,,FEW,7000,BKN,10000,,,,,VFR,,,,,,,,,,,,METAR,79.0
ETSB 070420Z 02005KT 9999 FEW060 BKN100 15/04 Q1019 BLU,ETSB,2023-06-07T04:20:00Z,50.17,7.07,15.0,4.0,20,5,,6.21,30.088583,,,,,,,,,,,FEW,6000,BKN,10000,,,,,VFR,,,,,,,,,,,,METAR,477.0
ETNW 070420Z 33005KT 9999 BKN085 13/10 Q1020 BLU BLU TEMPO WHT,ETNW,2023-06-07T04:20:00Z,52.45,9.42,13.0,10.0,330,5,,6.21,30.11811,,,,,,,,,,,BKN,8500,,,,,,,VFR,,,,,,,,,,,,METAR,57.0
ETNT 070420Z AUTO 36004KT //// // ////// 11/09 Q1021 ///,ETNT,2023-06-07T04:20:00Z,53.53,7.67,11.0,9.0,360,4,,,30.147638,,,TRUE,,,,,,,,,,,,,,,,,,,,,,,,,,,,METAR,5.0
ETNS 070420Z 29007KT 8000 BKN006 10/09 Q1020 YLO YLO BECMG GRN,ETNS,2023-06-07T04:20:00Z,54.47,9.52,10.0,9.0,290,7,,4.97,30.11811,,,,,,,,,,,BKN,600,,,,,,,IFR,,,,,,,,,,,,METAR,22.0
ETNN 070420Z 27003KT 9999 BKN090 15/11 Q1019 BLU,ETNN,2023-06-07T04:20:00Z,50.82,6.67,15.0,11.0,270,3,,6.21,30.088583,,,,,,,,,,,BKN,9000,,,,,,,VFR,,,,,,,,,,,,METAR,108.0
ETNH 070420Z 28005KT 9999 BKN005 10/10 Q1020 YLO YLO BECMG GRN,ETNH,2023-06-07T04:20:00Z,54.32,9.55,10.0,10.0,280,5,,6.21,30.11811,,,,,,,,,,,BKN,500,,,,,,,IFR,,,,,,,,,,,,METAR,6.0
ETND 070420Z 01004KT 9999 BKN085 11/10 Q1020 BLU BLU,ETND,2023-06-07T04:20:00Z,52.58,8.35,11.0,10.0,10,4,,6.21,30.11811,,,,,,,,,,,BKN,8500,,,,,,,VFR,,,,,,,,,,,,METAR,37.0
ETMN 070420Z 35003KT 9999 BKN008 10/09 Q1021 GRN GRN,ETMN,2023-06-07T04:20:00Z,53.77,8.67,10.0,9.0,350,3,,6.21,30.147638,,,,,,,,,,,BKN,800,,,,,,,IFR,,,,,,,,,,,,METAR,23.0
ETHS 070420Z 02002KT 9999 FEW090 SCT130 13/10 Q1020 BLACKBLU+BLU+ TEMPO BLU,ETHS,2023-06-07T04:20:00Z,52.92,10.18,13.0,10.0,20,2,,6.21,30.11811,,,,,,,,,,,FEW,9000,SCT,13000,,,,,VFR,,,,,,,,,,,,METAR,71.0
ETHN 070420Z VRB01KT 9999 FEW005 BKN017 12/11 Q1018 WHT WHT,ETHN,2023-06-07T04:20:00Z,49.38,9.97,12.0,11.0,0,1,,6.21,30.059055,,,,,,,,,,,FEW,500,BKN,1700,,,,,MVFR,,,,,,,,,,,,METAR,466.0
ETHL 070420Z 21002KT 9999 MIFG FEW300 10/09 Q1018 BLU+BLU+,ETHL,2023-06-07T04:20:00Z,48.22,9.92,10.0,9.0,210,2,,6.21,30.059055,,,,,,,,,,MIFG,FEW,30000,,,,,,,VFR,,,,,,,,,,,,METAR,536.0
ETHF 070420Z 30003KT 9999 SCT039 BKN080 15/12 Q1018 BLU,ETHF,2023-06-07T04:20:00Z,51.12,9.28,15.0,12.0,300,3,,6.21,30.059055,,,,,,,,,,,SCT,3900,BKN,8000,,,,,VFR,,,,,,,,,,,,METAR,171.0
ETHC 070420Z 33003KT 9999 BKN080 16/11 Q1019 BLU BLU,ETHC,2023-06-07T04:20:00Z,52.6,10.02,16.0,11.0,330,3,,6.21,30.088583,,,,,,,,,,,BKN,8000,,,,,,,VFR,,,,,,,,,,,,METAR,35.0
ETHB 070420Z 35003KT 9999 FEW012 BKN080 OVC120 13/11 Q1020 BLU BLU,ETHB,2023-06-07T04:20:00Z,52.27,9.07,13.0,11.0,350,3,,6.21,30.11811,,,,,,,,,,,FEW,1200,BKN,8000,OVC,12000,,,VFR,,,,,,,,,,,,METAR,69.0
ETHA 070420Z 27003KT 9999 FEW100 07/07 Q1018 BLU+BLU+,ETHA,2023-06-07T04:20:00Z,47.83,10.87,7.0,7.0,270,3,,6.21,30.059055,,,,,,,,,,,FEW,10000,,,,,,,VFR,,,,,,,,,,,,METAR,738.0
ETGG 070420Z AUTO 28009KT 9999 // ////// 11/09 Q1020 ///,ETGG,2023-06-07T04:20:00Z,54.83,9.5,11.0,9.0,280,9,,6.21,30.11811,,,TRUE,,,,,,,,,,,,,,,,,,,,,,,,,,,,METAR,33.0
ESUT 070420Z AUTO 09003KT 9999 BKN018/// BKN026/// OVC038/// 03/00 Q1019,ESUT,2023-06-07T04:20:00Z,65.8,15.08,3.0,0.0,90,3,,6.21,30.088583,,,TRUE,,,,,,,,BKN,1800,BKN,2600,OVC,3800,,,MVFR,,,,,,,,,,,,METAR,457.0
ESUP 070420Z AUTO 32005KT 280V350 9999 // FEW037/// BKN072/// OVC100/// 06/03 Q1017 REUP,ESUP,2023-06-07T04:20:00Z,67.25,23.07,6.0,3.0,320,5,,6.21,30.029528,,,TRUE,,,,,,,,FEW,3700,BKN,7200,OVC,10000,,,VFR,,,,,,,,,,,,METAR,164.0
ESTL 070420Z AUTO 11002KT 9999 NCD 09/09 Q1019,ESTL,2023-06-07T04:20:00Z,56.07,13.2,9.0,9.0,110,2,,6.21,30.088583,,,TRUE,,,,,,,,CLR,,,,,,,,VFR,,,,,,,,,,,,METAR,39.0
ESTA 070420Z 13003KT CAVOK 09/07 Q1019,ESTA,2023-06-07T04:20:00Z,56.28,12.83,9.0,7.0,130,3,,6.21,30.088583,,,,,,,,,,,CAVOK,,,,,,,,VFR,,,,,,,,,,,,METAR,19.0
ESSV 070420Z 09008KT CAVOK 13/11 Q1019,ESSV,2023-06-07T04:20:00Z,57.67,18.35,13.0,11.0,90,8,,6.21,30.088583,,,,,,,,,,,CAVOK,,,,,,,,VFR,,,,,,,,,,,,METAR,38.0
ESST 070420Z VRB03KT CAVOK 12/06 Q1022,ESST,2023-06-07T04:20:00Z,60.15,12.98,12.0,6.0,0,3,,6.21,30.177166,,,,,,,,,,,CAVOK,,,,,,,,VFR,,,,,,,,,,,,METAR,110.0
ESSP 070420Z AUTO 07006KT 9999 NCD 12/06 Q1021,ESSP,2023-06-07T04:20:00Z,58.58,16.25,12.0,6.0,70,6,,6.21,30.147638,,,TRUE,,,,,,,,CLR,,,,,,,,VFR,,,,,,,,,,,,METAR,3.0
ESSL 070420Z 04003KT CAVOK 11/08 Q1021,ESSL,2023-06-07T04:20:00Z,58.4,15.67,11.0,8.0,40,3,,6.21,30.147638,,,,,,,,,,,CAVOK,,,,,,,,VFR,,,,,,,,,,,,METAR,51.0
ESSD 070420Z AUTO 23002KT 9999 BKN076/// 09/06 Q1023,ESSD,2023-06-07T04:20:00Z,60.42,15.5,9.0,6.0,230,2,,6.21,30.206694,,,TRUE,,,,,,,,BKN,7600,,,,,,,VFR,,,,,,,,,,,,METAR,151.0
ESSB 070420Z 03004KT 360V060 CAVOK 11/02 Q1022,ESSB,2023-06-07T04:20:00Z,59.35,17.93,11.0,2.0,30,4,,6.21,30.177166,,,,,,,,,,,CAVOK,,,,,,,,VFR,,,,,,,,,,,,METAR,14.0
ESSA 070420Z 03007KT CAVOK 09/02 Q1022 NOSIG,ESSA,2023-06-07T04:20:00Z,59.65,17.93,9.0,2.0,30,7,,6.21,30.177166,,,,,,TRUE,,,,,CAVOK,,,,,,,,VFR,,,,,,,,,,,,METAR,36.0
ESPE 070420Z AUTO 30007KT 9999 FEW058/// BKN078/// 06/01 Q1018,ESPE,2023-06-07T04:20:00Z,65.88,20.15,6.0,1.0,300,7,,6.21,30.059055,,,TRUE,,,,,,,,FEW,5800,BKN,7800,,,,,VFR,,,,,,,,,,,,METAR,182.0
ESPA 070420Z VRB02KT CAVOK 08/05 Q1018,ESPA,2023-06-07T04:20:00Z,65.53,22.12,8.0,5.0,0,2,,6.21,30.059055,,,,,,,,,,,CAVOK,,,,,,,,VFR,,,,,,,,,,,,METAR,12.0
ESOW 070420Z AUTO 02006KT 9999 NCD 10/02 Q1022,ESOW,2023-06-07T04:20:00Z,59.58,16.63,10.0,2.0,20,6,,6.21,30.177166,,,TRUE,,,,,,,,CLR,,,,,,,,VFR,,,,,,,,,,,,METAR,7.0
ESOK 070420Z AUTO 05007KT 9999 NCD 13/06 Q1021,ESOK,2023-06-07T04:20:00Z,59.45,13.33,13.0,6.0,50,7,,6.21,30.147638,,,TRUE,,,,,,,,CLR,,,,,,,,VFR,,,,,,,,,,,,METAR,101.0
ESOH 070420Z VRB03KT 9999 NSC 12/06 Q1022,ESOH,2023-06-07T04:20:00Z,60.02,13.58,12.0,6.0,0,3,,6.21,30.177166,,,,,,,,,,,CLR,,,,,,,,VFR,,,,,,,,,,,,METAR,145.0
ESOE 070420Z 03005KT CAVOK 11/05 Q1021,ESOE,2023-06-07T04:20:00Z,59.22,15.05,11.0,5.0,30,5,,6.21,30.147638,,,,,,,,,,,CAVOK,,,,,,,,VFR,,,,,,,,,,,,METAR,57.0
ESNZ 070420Z 22003KT 9000 FEW016 SCT021 04/M09 Q1022 REDZ,ESNZ,2023-06-07T04:20:00Z,63.18,14.5,4.0,-9.0,220,3,,5.59,30.177166,,,,,,,,,,,FEW,1600,SCT,2100,,,,,VFR,,,,,,,,,,,,METAR,360.0
ESNX 070420Z 30010KT CAVOK 04/M01 Q1018,ESNX,2023-06-07T04:20:00Z,65.58,19.28,4.0,-1.0,300,10,,6.21,30.059055,,,,,,,,,,,CAVOK,,,,,,,,VFR,,,,,,,,,,,,METAR,380.0
ESNV 070420Z 28005KT CAVOK 04/00 Q1020,ESNV,2023-06-07T04:20:00Z,64.58,16.83,4.0,0.0,280,5,,6.21,30.11811,,,,,,,,,,,CAVOK,,,,,,,,VFR,,,,,,,,,,,,METAR,348.0
ESNU 070420Z 30009KT CAVOK 07/02 Q1019,ESNU,2023-06-07T04:20:00Z,63.78,20.28,7.0,2.0,300,9,,6.21,30.088583,,,,,,,,,,,CAVOK,,,,,,,,VFR,,,,,,,,,,,,METAR,8.0
ESNS 070420Z 29007KT CAVOK 08/01 Q1018,ESNS,2023-06-07T04:20:00Z,64.62,21.07,8.0,1.0,290,7,,6.21,30.059055,,,,,,,,,,,CAVOK,,,,,,,,VFR,,,,,,,,,,,,METAR,41.0
ESNQ 070420Z VRB02KT CAVOK 03/00 Q1016,ESNQ,2023-06-07T04:20:00Z,67.82,20.33,3.0,0.0,0,2,,6.21,30.0,,,,,,,,,,,CAVOK,,,,,,,,VFR,,,,,,,,,,,,METAR,447.0
ESNO 070420Z 30010KT CAVOK 07/02 Q1020,ESNO,2023-06-07T04:20:00Z,63.4,18.97,7.0,2.0,300,10,,6.21,30.11811,,,,,,,,,,,CAVOK,,,,,,,,VFR,,,,,,,,,,,,METAR,100.0
ESNN 070420Z 29008KT CAVOK 08/02 Q1023,ESNN,2023-06-07T04:20:00Z,62.52,17.43,8.0,2.0,290,8,,6.21,30.206694,,,,,,,,,,,CAVOK,,,,,,,,VFR,,,,,,,,,,,,METAR,4.0
ESNL 070420Z 29008KT CAVOK 06/M01 Q1020,ESNL,2023-06-07T04:20:00Z,64.55,18.72,6.0,-1.0,290,8,,6.21,30.11811,,,,,,,,,,,CAVOK,,,,,,,,VFR,,,,,,,,,,,,METAR,220.0
ESNK 070420Z 35005KT CAVOK 07/01 Q1022,ESNK,2023-06-07T04:20:00Z,63.03,17.77,7.0,1.0,350,5,,6.21,30.177166,,,,,,,,,,,CAVOK,,,,,,,,VFR,,,,,,,,,,,,METAR,4.0
ESNG 070420Z VRB02KT 9999 BKN078 05/01 Q1017,ESNG,2023-06-07T04:20:00Z,67.13,20.82,5.0,1.0,0,2,,6.21,30.029528,,,,,,,,,,,BKN,7800,,,,,,,VFR,,,,,,,,,,,,METAR,300.0
ESND 070420Z VRB02KT CAVOK 04/02 Q1023,ESND,2023-06-07T04:20:00Z,62.05,14.42,4.0,2.0,0,2,,6.21,30.206694,,,,,,,,,,,CAVOK,,,,,,,,VFR,,,,,,,,,,,,METAR,352.0
ESMX 070420Z 00000KT CAVOK 13/09 Q1019,ESMX,2023-06-07T04:20:00Z,56.92,14.72,13.0,9.0,0,0,,6.21,30.088583,,,,,,,,,,,CAVOK,,,,,,,,VFR,,,,,,,,,,,,METAR,176.0
ESMT 070420Z 07005KT CAVOK 10/08 Q1019,ESMT,2023-06-07T04:20:00Z,56.68,12.82,10.0,8.0,70,5,,6.21,30.088583,,,,,,,,,,,CAVOK,,,,,,,,VFR,,,,,,,,,,,,METAR,24.0
ESMS 070420Z AUTO 00000KT 9999 NCD 10/10 Q1019,ESMS,2023-06-07T04:20:00Z,55.53,13.37,10.0,10.0,0,0,,6.21,30.088583,,,TRUE,,,,,,,,CLR,,,,,,,,VFR,,,,,,,,,,,,METAR,68.0
ESMQ 070420Z 34005KT CAVOK 13/09 Q1018,ESMQ,2023-06-07T04:20:00Z,56.68,16.3,13.0,9.0,340,5,,6.21,30.059055,,,,,,,,,,,CAVOK,,,,,,,,VFR,,,,,,,,,,,,METAR,3.0
ESMK 070420Z 00000KT CAVOK 12/09 Q1019,ESMK,2023-06-07T04:20:00Z,55.92,14.08,12.0,9.0,0,0,,6.21,30.088583,,,,,,,,,,,CAVOK,,,,,,,,VFR,,,,,,,,,,,,METAR,20.0
ESKS 070420Z AUTO VRB03KT 9999 SCT055/// 07/02 Q1022,ESKS,2023-06-07T04:20:00Z,61.17,12.83,7.0,2.0,0,3,,6.21,30.177166,,,TRUE,,,,,,,,SCT,5500,,,,,,,VFR,,,,,,,,,,,,METAR,503.0
ESKN 070420Z 05004KT 360V080 CAVOK 11/04 Q1021,ESKN,2023-06-07T04:20:00Z,58.78,16.92,11.0,4.0,50,4,,6.21,30.147638,,,,,,,,,,,CAVOK,,,,,,,,VFR,,,,,,,,,,,,METAR,41.0
ESKM 070420Z AUTO 34006KT 9999 BKN068/// 07/04 Q1023,ESKM,2023-06-07T04:20:00Z,60.97,14.52,7.0,4.0,340,6,,6.21,30.206694,,,TRUE,,,,,,,,BKN,6800,,,,,,,VFR,,,,,,,,,,,,METAR,184.0
ESIB 070420Z VRB02KT CAVOK 11/10 Q1019,ESIB,2023-06-07T04:20:00Z,58.42,12.7,11.0,10.0,0,2,,6.21,30.088583,,,,,,,,,,,CAVOK,,,,,,,,VFR,,,,,,,,,,,,METAR,51.0
ESIA 070420Z AUTO 08007KT 9999 NCD 13/09 Q1020,ESIA,2023-06-07T04:20:00Z,58.52,14.5,13.0,9.0,80,7,,6.21,30.11811,,,TRUE,,,,,,,,CLR,,,,,,,,VFR,,,,,,,,,,,,METAR,94.0
ESGT 070420Z AUTO VRB02KT 9999 R15///// R33///// NCD 08/08 Q1020,ESGT,2023-06-07T04:20:00Z,58.32,12.33,8.0,8.0,0,2,,6.21,30.11811,,,TRUE,,,,,,,,CLR,,,,,,,,VFR,,,,,,,,,,,,METAR,40.0
ESGP 070420Z AUTO 05001KT 9999 NCD 09/08 Q1019,ESGP,2023-06-07T04:20:00Z,57.77,11.87,9.0,8.0,50,1,,6.21,30.088583,,,TRUE,,,,,,,,CLR,,,,,,,,VFR,,,,,,,,,,,,METAR,15.0
ESGJ 070420Z 01005KT CAVOK 10/08 Q1019,ESGJ,2023-06-07T04:20:00Z,57.77,14.07,10.0,8.0,10,5,,6.21,30.088583,,,,,,,,,,,CAVOK,,,,,,,,VFR,,,,,,,,,,,,METAR,224.0
ESGG 070420Z 08005KT CAVOK 12/09 Q1019,ESGG,2023-06-07T04:20:00Z,57.67,12.3,12.0,9.0,80,5,,6.21,30.088583,,,,,,,,,,,CAVOK,,,,,,,,VFR,,,,,,,,,,,,METAR,152.0
ESDF 070420Z 00000KT CAVOK 11/10 Q1019,ESDF,2023-06-07T04:20:00Z,56.27,15.27,11.0,10.0,0,0,,6.21,30.088583,,,,,,,,,,,CAVOK,,,,,,,,VFR,,,,,,,,,,,,METAR,52.0
ESCM 070420Z AUTO 02004KT 9999 NCD 10/05 Q1022,ESCM,2023-06-07T04:20:00Z,59.88,17.6,10.0,5.0,20,4,,6.21,30.177166,,,TRUE,,,,,,,,CLR,,,,,,,,VFR,,,,,,,,,,,,METAR,21.0
ESCF 070420Z 06008KT CAVOK 12/08 Q1020,ESCF,2023-06-07T04:20:00Z,58.38,15.52,12.0,8.0,60,8,,6.21,30.11811,,,,,,,,,,,CAVOK,,,,,,,,VFR,,,,,,,,,,,,METAR,86.0
ENZV 070420Z 35005KT 9999 SCT006 09/08 Q1022,ENZV,2023-06-07T04:20:00Z,58.88,5.63,9.0,8.0,350,5,,6.21,30.177166,,,,,,,,,,,SCT,600,,,,,,,VFR,,,,,,,,,,,,METAR,7.0
ENWV 070420Z AUTO 33018KT 9999NDV OVC015/// 10/07 Q1024 W///S4,ENWV,2023-06-07T04:20:00Z,56.28,3.4,10.0,7.0,330,18,,,30.236221,,,TRUE,,,,,,,,OVC,1500,,,,,,,,,,,,,,,,,,,METAR,30.0
ENVD 070420Z 28011KT 9999 SCT027 BKN059 05/00 Q1016,ENVD,2023-06-07T04:20:00Z,70.07,29.85,5.0,0.0,280,11,,6.21,30.0,,,,,,,,,,,SCT,2700,BKN,5900,,,,,VFR,,,,,,,,,,,,METAR,39.0
ENVA 070420Z 10004KT 090V180 9999 SCT025 BKN054 08/07 Q1023 RMK WIND 670FT 20008KT,ENVA,2023-06-07T04:20:00Z,63.47,10.92,8.0,7.0,100,4,,6.21,30.206694,,,,,,,,,,,SCT,2500,BKN,5400,,,,,VFR,,,0.8,,,,,,,,,SPECI,12.0
ENUN 070420Z 26020KT 9999 -SHRA BKN010 06/04 Q1015 W07/S4,ENUN,2023-06-07T04:20:00Z,,,6.0,4.0,260,20,,6.21,29.970472,,,,,,,,,,-SHRA,BKN,1000,,,,,,,MVFR,,,,,,,,,,,,METAR,
ENUG 070420Z AUTO 31010KT 290V050 9999NDV SCT017/// SCT055/// 03/00 Q1015 W///S4,ENUG,2023-06-07T04:20:00Z,71.3,22.25,3.0,0.0,310,10,,,29.970472,,,TRUE,,,,,,,,SCT,1700,SCT,5500,,,,,,,,,,,,,,,,,METAR,30.0
ENTO 070420Z 36007KT 2500 BR BKN002 12/12 Q1020 TEMPO 0500 FG VV002,ENTO,2023-06-07T04:20:00Z,59.2,10.27,12.0,12.0,360,7,,1.55,30.11811,,,,,,,,,,BR,BKN,200,,,,,,,LIFR,,,,,,,,,,,,SPECI,84.0
ENTC 070420Z 20006KT 9999 VCSH FEW012 BKN024 04/01 Q1018 RMK WIND 2600FT VRB03KT,ENTC,2023-06-07T04:20:00Z,69.68,18.92,4.0,1.0,200,6,,6.21,30.059055,,,,,,,,,,VCSH,FEW,1200,BKN,2400,,,,,MVFR,,,,,,,,,,,,SPECI,9.0
ENST 070420Z 19014KT 9999 -RA FEW007 SCT012 BKN017 07/05 Q1019 RMK WIND 300FT 19020KT,ENST,2023-06-07T04:20:00Z,65.97,12.47,7.0,5.0,190,14,,6.21,30.088583,,,,,,,,,,-RA,FEW,700,SCT,1200,BKN,1700,,,MVFR,,,,,,,,,,,,SPECI,17.0
ENSS 070420Z AUTO 30012KT 9999 FEW026/// OVC061/// 05/01 Q1015 RMK WIND 0500FT 28016KT,ENSS,2023-06-07T04:20:00Z,70.35,31.05,5.0,1.0,300,12,,6.21,29.970472,,,TRUE,,,,,,,,FEW,2600,OVC,6100,,,,,VFR,,,,,,,,,,,,SPECI,13.0
ENSR 070420Z 11005KT 9999 FEW021 SCT040 BKN076 05/03 Q1018 RMK WIND RWY32 10006KT WIND 1118FT VRB02KT,ENSR,2023-06-07T04:20:00Z,69.78,20.97,5.0,3.0,110,5,,6.21,30.059055,,,,,,,,,,,FEW,2100,SCT,4000,BKN,7600,,,VFR,,0.6,,,,,,,,,,SPECI,5.0
ENSL 070420Z AUTO 31014KT 270V330 9999NDV OVC023/// 11/05 Q1025 W08/S3,ENSL,2023-06-07T04:20:00Z,58.37,1.9,11.0,5.0,310,14,,,30.265747,,,TRUE,,,,,,,,OVC,2300,,,,,,,,,,,,,,,,,,,METAR,50.0
ENSK 070420Z 14005KT 9999 FEW016 SCT032 05/02 Q1018,ENSK,2023-06-07T04:20:00Z,68.57,15.02,5.0,2.0,140,5,,6.21,30.059055,,,,,,,,,,,FEW,1600,SCT,3200,,,,,VFR,,,,,,,,,,,,METAR,3.0
ENSH 070420Z 19015KT 9999 -RA SCT009 BKN019 06/04 Q1017 RMK WIND 0150FT 17016KT,ENSH,2023-06-07T04:20:00Z,68.25,14.67,6.0,4.0,190,15,,6.21,30.029528,,,,,,,,,,-RA,SCT,900,BKN,1900,,,,,MVFR,,,,,,,,,,,,SPECI,9.0
ENSG 070420Z 00000KT CAVOK 08/05 Q1021 RMK WIND 3806FT 09007KT,ENSG,2023-06-07T04:20:00Z,61.15,7.13,8.0,5.0,0,0,,6.21,30.147638,,,,,,,,,,,CAVOK,,,,,,,,VFR,,,,,,,,,,,,SPECI,493.0
ENSF 070420Z AUTO 30008KT 9999NDV OVC032/// ///// Q//// W///S4,ENSF,2023-06-07T04:20:00Z,61.25,1.85,,,300,8,,,,,,TRUE,,,,,,,,OVC,3200,,,,,,,,,,,,,,,,,,,METAR,15.0
ENSE 070420Z AUTO 33007KT //// OVC027/// 10/07 Q1024 W///S3,ENSE,2023-06-07T04:20:00Z,61.45,2.15,10.0,7.0,330,7,,,30.236221,,,TRUE,,,,,,,,OVC,2700,,,,,,,,,,,,,,,,,,,METAR,10.0
ENSD 070420Z VRB02KT 9999 FEW010 BKN014 08/06 Q1023 RMK WIND RWY26 26004KT WIND 1140FT VRB01KT,ENSD,2023-06-07T04:20:00Z,61.82,6.12,8.0,6.0,0,2,,6.21,30.206694,,,,,,,,,,,FEW,1000,BKN,1400,,,,,MVFR,,,,,,,,,,,,SPECI,61.0
ENSB 070420Z 26008KT 9999 FEW020 03/M00 Q1013 RMK WIND 1400FT 15003KT,ENSB,2023-06-07T04:20:00Z,78.25,15.47,3.0,0.0,260,8,,6.21,29.911417,,,,,,,,,,,FEW,2000,,,,,,,VFR,,,,,,,,,,,,SPECI,30.0
ENRY 070420Z AUTO 04004KT 9999 NCD 12/09 Q1020,ENRY,2023-06-07T04:20:00Z,59.37,10.77,12.0,9.0,40,4,,6.21,30.11811,,,TRUE,,,,,,,,CLR,,,,,,,,VFR,,,,,,,,,,,,METAR,45.0
ENRS 070420Z AUTO 22014KT 9999 -RA BKN008/// BKN016/// OVC030/// 07/06 Q1015,ENRS,2023-06-07T04:20:00Z,67.52,12.1,7.0,6.0,220,14,,6.21,29.970472,,,TRUE,,,,,,,-RA,BKN,800,BKN,1600,OVC,3000,,,IFR,,,,,,,,,,,,METAR,4.0
ENRO 070420Z VRB02KT CAVOK 02/00 Q1022,ENRO,2023-06-07T04:20:00Z,62.57,11.33,2.0,0.0,0,2,,6.21,30.177166,,,,,,,,,,,CAVOK,,,,,,,,VFR,,,,,,,,,,,,METAR,624.0
ENRM 070420Z 22014KT 9999 -SHRA FEW006 SCT009 BKN013 08/06 Q1021,ENRM,2023-06-07T04:20:00Z,64.83,11.13,8.0,6.0,220,14,,6.21,30.147638,,,,,,,,,,-SHRA,FEW,600,SCT,900,BKN,1300,,,MVFR,,,,,,,,,,,,METAR,4.0
ENRA 070420Z VRB01KT 9999 -RA FEW015 BKN024 04/03 Q1020,ENRA,2023-06-07T04:20:00Z,66.37,14.3,4.0,3.0,0,1,,6.21,30.11811,,,,,,,,,,-RA,FEW,1500,BKN,2400,,,,,MVFR,,,,,,,,,,,,METAR,66.0
ENQR 070420Z AUTO 27005KT 9999NDV OVC030/// 10/07 Q1024 W11/S3,ENQR,2023-06-07T04:20:00Z,61.52,2.22,10.0,7.0,270,5,,,30.236221,,,TRUE,,,,,,,,OVC,3000,,,,,,,,,,,,,,,,,,,METAR,10.0
ENQC 070420Z AUTO 34012KT 9999NDV NCD 10/08 Q1023 W///S3,ENQC,2023-06-07T04:20:00Z,60.88,3.62,10.0,8.0,340,12,,,30.206694,,,TRUE,,,,,,,,CLR,,,,,,,,,,,,,,,,,,,,METAR,20.0
ENQA 070420Z AUTO 01015KT 9999NDV FEW009/// 10/08 Q1024 W12/S3,ENQA,2023-06-07T04:20:00Z,60.65,3.72,10.0,8.0,10,15,,,30.236221,,,TRUE,,,,,,,,FEW,900,,,,,,,,,,,,,,,,,,,METAR,90.0
ENOV 070420Z VRB02KT 9999 BKN013 OVC022 08/05 Q1024 RMK WIND RWY24 11003KT WIND 2090FT 31003KT,ENOV,2023-06-07T04:20:00Z,62.17,6.07,8.0,5.0,0,2,,6.21,30.236221,,,,,,,,,,,BKN,1300,OVC,2200,,,,,MVFR,,-0.3,,,,,,,,,,SPECI,72.0
ENOL 070420Z 23010KT 7000 -RADZ SCT008 BKN020 08/07 Q1022 TEMPO 3000 RADZ BR BKN008,ENOL,2023-06-07T04:20:00Z,63.7,9.6,8.0,7.0,230,10,,4.35,30.177166,,,,,,,,,,-RA -DZ,SCT,800,BKN,2000,,,,,MVFR,,,,,,,,,,,,SPECI,9.0
ENNM 070420Z AUTO VRB04KT 9999 OVC020/// 08/05 Q1021,ENNM,2023-06-07T04:20:00Z,64.47,11.57,8.0,5.0,0,4,,6.21,30.147638,,,TRUE,,,,,,,,OVC,2000,,,,,,,MVFR,,,,,,,,,,,,METAR,2.0
ENNE 070420Z 29019KT 8000 SCT005 BKN012 07/06 Q1017 W///S3,ENNE,2023-06-07T04:20:00Z,66.03,8.08,7.0,6.0,290,19,,4.97,30.029528,,,,,,,,,,,SCT,500,BKN,1200,,,,,MVFR,,,,,,,,,,,,METAR,10.0
ENNA 070420Z 29007KT 260V340 9999 FEW048 SCT057 BKN072 06/M01 Q1017 RMK WIND 1800FT 29016KT,ENNA,2023-06-07T04:20:00Z,70.07,24.97,6.0,-1.0,290,7,,6.21,30.029528,,,,,,,,,,,FEW,4800,SCT,5700,BKN,7200,,,VFR,,,,,,,,,,,,SPECI,12.0
ENMS 070420Z VRB03KT 9999 BKN057 06/04 Q1020 RMK WIND 412FT 16005KT,ENMS,2023-06-07T04:20:00Z,65.78,13.22,6.0,4.0,0,3,,6.21,30.11811,,,,,,,,,,,BKN,5700,,,,,,,VFR,,,,,,,,,,,,SPECI,44.0
ENML 070420Z 24005KT 9999 FEW023 BKN035 09/07 Q1023,ENML,2023-06-07T04:20:00Z,62.75,7.27,9.0,7.0,240,5,,6.21,30.206694,,,,,,,,,,,FEW,2300,BKN,3500,,,,,VFR,,,,,,,,,,,,METAR,3.0
ENMH 070420Z 28011KT 240V310 9999 FEW020 SCT033 BKN051 05/01 Q1015,ENMH,2023-06-07T04:20:00Z,71.02,27.82,5.0,1.0,280,11,,6.21,29.970472,,,,,,,,,,,FEW,2000,SCT,3300,BKN,5100,,,VFR,,,,,,,,,,,,METAR,10.0
ENLK 070420Z 16006KT 9999 -RA FEW007 SCT011 BKN014 06/04 Q1017,ENLK,2023-06-07T04:20:00Z,68.15,13.62,6.0,4.0,160,6,,6.21,30.029528,,,,,,,,,,-RA,FEW,700,SCT,1100,BKN,1400,,,MVFR,,,,,,,,,,,,METAR,26.0
ENLE 070420Z 33019KT 9999 BKN018 09/06 Q1024 W11/S4,ENLE,2023-06-07T04:20:00Z,56.53,3.22,9.0,6.0,330,19,,6.21,30.236221,,,,,,,,,,,BKN,1800,,,,,,,MVFR,,,,,,,,,,,,METAR,10.0
ENLA 070420Z AUTO 30015KT 9999NDV OVC019/// 10/06 Q1023 W///S3,ENLA,2023-06-07T04:20:00Z,57.1,2.83,10.0,6.0,300,15,,,30.206694,,,TRUE,,,,,,,,OVC,1900,,,,,,,,,,,,,,,,,,,METAR,10.0
ENKR 070420Z AUTO 30009KT 9999 SCT055/// 05/M01 Q1016 RMK WIND 731FT 29017KT,ENKR,2023-06-07T04:20:00Z,69.72,29.88,5.0,-1.0,300,9,,6.21,30.0,,,TRUE,,,,,,,,SCT,5500,,,,,,,VFR,,,,,,,,,,,,SPECI,86.0
ENKB 070420Z VRB02KT 9999 BKN016 09/05 Q1023 RMK WIND 745FT 22008KT,ENKB,2023-06-07T04:20:00Z,63.12,7.82,9.0,5.0,0,2,,6.21,30.206694,,,,,,,,,,,BKN,1600,,,,,,,MVFR,,,,,,,,,,,,SPECI,62.0
ENJS 070420Z 36011KT 9999 BKN025 10/07 Q1024 W11/S/,ENJS,2023-06-07T04:20:00Z,,,10.0,7.0,360,11,,6.21,30.236221,,,,,,,,,,,BKN,2500,,,,,,,MVFR,,,,,,,,,,,,METAR,
ENHV 070420Z 29010KT 9999 BKN018TCU 05/01 Q1016,ENHV,2023-06-07T04:20:00Z,71.02,25.97,5.0,1.0,290,10,,6.21,30.0,,,,,,,,,,,BKN,1800,,,,,,,MVFR,,,,,,,,,,,,METAR,13.0
ENHM 070420Z AUTO 36009KT 340V100 //// BKN036/// 10/10 Q1024 W10/S/,ENHM,2023-06-07T04:20:00Z,59.57,2.23,10.0,10.0,360,9,,,30.236221,,,TRUE,,,,,,,,BKN,3600,,,,,,,,,,,,,,,,,,,METAR,10.0
ENHK 070420Z AUTO 30010KT 9999 FEW026/// BKN033/// 05/01 Q1017,ENHK,2023-06-07T04:20:00Z,70.48,22.13,5.0,1.0,300,10,,6.21,30.029528,,,TRUE,,,,,,,,FEW,2600,BKN,3300,,,,,VFR,,,,,,,,,,,,METAR,6.0
ENHF 070420Z 24009KT 9999 VCSH FEW014 SCT021 BKN035 04/02 Q1016 RMK WIND 1254FT 26011KT,ENHF,2023-06-07T04:20:00Z,70.67,23.67,4.0,2.0,240,9,,6.21,30.0,,,,,,,,,,VCSH,FEW,1400,SCT,2100,BKN,3500,,,VFR,,,,,,,,,,,,SPECI,79.0
ENHD 070420Z 35016KT 9999 BKN006 09/07 Q1022,ENHD,2023-06-07T04:20:00Z,59.35,5.22,9.0,7.0,350,16,,6.21,30.177166,,,,,,,,,,,BKN,600,,,,,,,IFR,,,,,,,,,,,,METAR,22.0
ENGM 070420Z 03006KT CAVOK 12/04 Q1021 NOSIG,ENGM,2023-06-07T04:20:00Z,60.2,11.07,12.0,4.0,30,6,,6.21,30.147638,,,,,,TRUE,,,,,CAVOK,,,,,,,,VFR,,,,,,,,,,,,METAR,204.0
ENGC 070420Z 34008KT 9999 FEW015 BKN032 10/07 Q1024 W08/S3,ENGC,2023-06-07T04:20:00Z,61.02,2.02,10.0,7.0,340,8,,6.21,30.236221,,,,,,,,,,,FEW,1500,BKN,3200,,,,,VFR,,,,,,,,,,,,SPECI,10.0
ENFL 070420Z 00000KT 9999 FEW007 08/08 Q1023,ENFL,2023-06-07T04:20:00Z,61.57,5.02,8.0,8.0,0,0,,6.21,30.206694,,,,,,,,,,,FEW,700,,,,,,,VFR,,,,,,,,,,,,METAR,1.0
ENFB 070420Z AUTO 28007KT 9999NDV OVC032/// ///// Q//// W///S4,ENFB,2023-06-07T04:20:00Z,61.2,1.83,,,280,7,,,,,,TRUE,,,,,,,,OVC,3200,,,,,,,,,,,,,,,,,,,SPECI,10.0
ENEV 070420Z 22004KT 170V260 9999 SCT021 BKN041 05/02 Q1018 RMK WIND 1400FT 23013KT,ENEV,2023-06-07T04:20:00Z,68.48,16.67,5.0,2.0,220,4,,6.21,30.059055,,,,,,,,,,,SCT,2100,BKN,4100,,,,,VFR,,,,,,,,,,,,SPECI,26.0
ENDU 070420Z VRB03KT 9999 -RA FEW005 BKN012 OVC025 04/03 Q1018 RMK WIND 1100FT VRB02KT WIND 2200FT 19003KT,ENDU,2023-06-07T04:20:00Z,69.05,18.55,4.0,3.0,0,3,,6.21,30.059055,,,,,,,,,,-RA,FEW,500,BKN,1200,OVC,2500,,,MVFR,,,,,,,,,,,,SPECI,65.0
ENDR 070420Z AUTO 25013KT 3500NDV -SHRA BKN007/// BKN100/// 07/07 Q1021 W///S3,ENDR,2023-06-07T04:20:00Z,64.35,7.77,7.0,7.0,250,13,,,30.147638,,,TRUE,,,,,,,-SHRA,BKN,700,BKN,10000,,,,,,,,,,,,,,,,,SPECI,10.0
ENCN 070420Z 06005KT CAVOK 10/09 Q1019,ENCN,2023-06-07T04:20:00Z,58.2,8.07,10.0,9.0,60,5,,6.21,30.088583,,,,,,,,,,,CAVOK,,,,,,,,VFR,,,,,,,,,,,,METAR,17.0
ENBV 070420Z AUTO 30017KT 9999 -RA SCT020/// BKN031/// BKN060/// 04/01 Q1015,ENBV,2023-06-07T04:20:00Z,70.87,29.02,4.0,1.0,300,17,,6.21,29.970472,,,TRUE,,,,,,,-RA,SCT,2000,BKN,3100,BKN,6000,,,VFR,,,,,,,,,,,,METAR,13.0
ENBS 070420Z AUTO 28011KT 9999 FEW018/// SCT028/// BKN037/// 03/01 Q1015,ENBS,2023-06-07T04:20:00Z,70.62,29.68,3.0,1.0,280,11,,6.21,29.970472,,,TRUE,,,,,,,,FEW,1800,SCT,2800,BKN,3700,,,VFR,,,,,,,,,,,,METAR,144.0
ENBR 070420Z 34005KT 9999 FEW010 08/08 Q1022 NOSIG RMK WIND 1200FT 34014KT,ENBR,2023-06-07T04:20:00Z,60.28,5.22,8.0,8.0,340,5,,6.21,30.177166,,,,,,TRUE,,,,,FEW,1000,,,,,,,VFR,,,,,,,,,,,,SPECI,49.0
ENBO 070420Z 11011KT 9000 -RA VV017 05/04 Q1018,ENBO,2023-06-07T04:20:00Z,67.27,14.37,5.0,4.0,110,11,,5.59,30.059055,,,,,,,,,,-RA,OVX,0,,,,,,,LIFR,,,,,,,,,,,1700,METAR,13.0
ENBN 070420Z 19009KT 9999 -RA SCT005 BKN008 07/06 Q1020,ENBN,2023-06-07T04:20:00Z,65.47,12.22,7.0,6.0,190,9,,6.21,30.11811,,,,,,,,,,-RA,SCT,500,BKN,800,,,,,IFR,,,,,,,,,,,,METAR,3.0
ENBL 070420Z 03003KT 9999 FEW000 06/05 Q1022,ENBL,2023-06-07T04:20:00Z,61.4,5.77,6.0,5.0,30,3,,6.21,30.177166,,,,,,,,,,,FEW,0,,,,,,,VFR,,,,,,,,,,,,METAR,313.0
ENAT 070420Z 14003KT 110V180 9999 SCT034 BKN045 07/M00 Q1017 RMK WIND 700FT VRB02KT,ENAT,2023-06-07T04:20:00Z,69.97,23.37,7.0,0.0,140,3,,6.21,30.029528,,,,,,,,,,,SCT,3400,BKN,4500,,,,,VFR,,,,,,,,,,,,SPECI,3.0
ENAN 070420Z 18005KT 9999 BKN020 05/03 Q1018,ENAN,2023-06-07T04:20:00Z,69.3,16.13,5.0,3.0,180,5,,6.21,30.059055,,,,,,,,,,,BKN,2000,,,,,,,MVFR,,,,,,,,,,,,METAR,13.0
ENAL 070420Z 18005KT 9999 SCT019 BKN025 09/07 Q1023,ENAL,2023-06-07T04:20:00Z,62.57,6.12,9.0,7.0,180,5,,6.21,30.206694,,,,,,,,,,,SCT,1900,BKN,2500,,,,,MVFR,,,,,,,,,,,,METAR,21.0
ELLX 070420Z 06007KT CAVOK 13/06 Q1018 NOSIG,ELLX,2023-06-07T04:20:00Z,49.63,6.2,13.0,6.0,60,7,,6.21,30.059055,,,,,,TRUE,,,,,CAVOK,,,,,,,,VFR,,,,,,,,,,,,METAR,374.0
EKVG 070420Z AUTO 35007KT 9999 -DZ OVC008/// 08/07 Q1025 RMK OVC014/// WIND SKEID 29017KT,EKVG,2023-06-07T04:20:00Z,62.07,-7.27,8.0,7.0,350,7,,6.21,30.265747,,,TRUE,,,,,,,-DZ,OVC,800,,,,,,,IFR,,,,,,,,,,,,SPECI,89.0
EKVD 070420Z AUTO 29006KT 250V310 //// ///////// 10/08 Q1020,EKVD,2023-06-07T04:20:00Z,55.43,9.32,10.0,8.0,290,6,,,30.11811,,,TRUE,,,,,,,,,,,,,,,,,,,,,,,,,,,,SPECI,41.0
EKSP 070420Z 29005KT 9000 OVC006 10/09 Q1020 NOSIG,EKSP,2023-06-07T04:20:00Z,55.22,9.27,10.0,9.0,290,5,,5.59,30.11811,,,,,,TRUE,,,,,OVC,600,,,,,,,IFR,,,,,,,,,,,,METAR,40.0
EKSB 070420Z 28005KT 230V310 9999 BKN007 10/09 Q1020,EKSB,2023-06-07T04:20:00Z,54.97,9.8,10.0,9.0,280,5,,6.21,30.11811,,,,,,,,,,,BKN,700,,,,,,,IFR,,,,,,,,,,,,METAR,23.0
EKRS 070420Z AUTO 20001KT 9999 NCD 09/09 Q1020,EKRS,2023-06-07T04:20:00Z,55.42,11.8,9.0,9.0,200,1,,6.21,30.11811,,,TRUE,,,,,,,,CLR,,,,,,,,VFR,,,,,,,,,,,,METAR,34.0
EKRN 070420Z AUTO 34001KT 9999 FEW003/// 13/12 Q1019,EKRN,2023-06-07T04:20:00Z,55.07,14.75,13.0,12.0,340,1,,6.21,30.088583,,,TRUE,,,,,,,,FEW,300,,,,,,,VFR,,,,,,,,,,,,METAR,14.0
EKRK 070420Z AUTO 27001KT 9999 NCD 11/09 Q1019,EKRK,2023-06-07T04:20:00Z,55.58,12.13,11.0,9.0,270,1,,6.21,30.088583,,,TRUE,,,,,,,,CLR,,,,,,,,VFR,,,,,,,,,,,,METAR,40.0
EKKA 070420Z AUTO 25002KT 9999 OVC004/// 09/08 Q1019,EKKA,2023-06-07T04:20:00Z,56.3,9.12,9.0,8.0,250,2,,6.21,30.088583,,,TRUE,,,,,,,,OVC,400,,,,,,,LIFR,,,,,,,,,,,,METAR,50.0
EKEB 070420Z AUTO 29008KT 9000 OVC005/// 10/09 Q1020,EKEB,2023-06-07T04:20:00Z,55.52,8.55,10.0,9.0,290,8,,5.59,30.11811,,,TRUE,,,,,,,,OVC,500,,,,,,,IFR,,,,,,,,,,,,METAR,29.0
EKCH 070420Z AUTO 26003KT 9999 NCD 13/09 Q1019 NOSIG,EKCH,2023-06-07T04:20:00Z,55.62,12.67,13.0,9.0,260,3,,6.21,30.088583,,,TRUE,,,TRUE,,,,,CLR,,,,,,,,VFR,,,,,,,,,,,,METAR,4.0
EKBI 070420Z AUTO 27004KT 230V300 8000 OVC004/// 10/09 Q1020,EKBI,2023-06-07T04:20:00Z,55.73,9.15,10.0,9.0,270,4,,4.97,30.11811,,,TRUE,,,,,,,,OVC,400,,,,,,,LIFR,,,,,,,,,,,,METAR,67.0
EKAH 070420Z AUTO 30003KT 0200 R10R/0450N R28L/0300N FG VV001 08/07 Q1020,EKAH,2023-06-07T04:20:00Z,56.28,10.62,8.0,7.0,300,3,,0.12,30.11811,,,TRUE,,,,,,,FG,OVX,0,,,,,,,LIFR,,,,,,,,,,,100,SPECI,25.0
EGYM 070420Z AUTO 03005KT //// // OVC021/// 10/07 Q1023,EGYM,2023-06-07T04:20:00Z,52.63,0.57,10.0,7.0,30,5,,,30.206694,,,TRUE,,,,,,,,OVC,2100,,,,,,,,,,,,,,,,,,,METAR,25.0
EGYH 070420Z AUTO 10009KT //// // OVC018/// 11/08 Q1023,EGYH,2023-06-07T04:20:00Z,52.87,0.15,11.0,8.0,100,9,,,30.206694,,,TRUE,,,,,,,,OVC,1800,,,,,,,,,,,,,,,,,,,METAR,5.0
EGYE 070420Z AUTO 05005KT //// ///////// ///// Q////,EGYE,2023-06-07T04:20:00Z,52.97,-0.57,,,50,5,,,,,,TRUE,,,,,,,,,,,,,,,,,,,,,,,,,,,,METAR,105.0
EGYD 070420Z AUTO 03005KT 9999 OVC021/// 10/07 Q1024,EGYD,2023-06-07T04:20:00Z,53.03,-0.5,10.0,7.0,30,5,,6.21,30.236221,,,TRUE,,,,,,,,OVC,2100,,,,,,,MVFR,,,,,,,,,,,,METAR,65.0
EGXZ 070420Z AUTO 05006KT 9999 OVC021/// 10/06 Q1025,EGXZ,2023-06-07T04:20:00Z,54.2,-1.38,10.0,6.0,50,6,,6.21,30.265747,,,TRUE,,,,,,,,OVC,2100,,,,,,,MVFR,,,,,,,,,,,,METAR,24.0
EGXW 070420Z AUTO 05006KT 9999 OVC021/// 10/07 Q1024,EGXW,2023-06-07T04:20:00Z,53.18,-0.52,10.0,7.0,50,6,,6.21,30.236221,,,TRUE,,,,,,,,OVC,2100,,,,,,,MVFR,,,,,,,,,,,,METAR,70.0
EGXV 070420Z AUTO 02003KT 9999 OVC022/// 10/07 Q1024,EGXV,2023-06-07T04:20:00Z,53.87,-0.45,10.0,7.0,20,3,,6.21,30.236221,,,TRUE,,,,,,,,OVC,2200,,,,,,,MVFR,,,,,,,,,,,,METAR,6.0
EGXT 070420Z AUTO 04006KT 9999 OVC015/// 10/07 Q1023,EGXT,2023-06-07T04:20:00Z,52.62,-0.47,10.0,7.0,40,6,,6.21,30.206694,,,TRUE,,,,,,,,OVC,1500,,,,,,,MVFR,,,,,,,,,,,,METAR,74.0
EGXS 070420Z AUTO 06012KT 9999 OVC021/// 11/07 Q1024,EGXS,2023-06-07T04:20:00Z,53.48,0.15,11.0,7.0,60,12,,6.21,30.236221,,,TRUE,,,,,,,,OVC,2100,,,,,,,MVFR,,,,,,,,,,,,METAR,6.0
EGXE 070420Z AUTO 05005KT 9999 OVC020/// 10/06 Q1025,EGXE,2023-06-07T04:20:00Z,54.28,-1.52,10.0,6.0,50,5,,6.21,30.265747,,,TRUE,,,,,,,,OVC,2000,,,,,,,MVFR,,,,,,,,,,,,METAR,30.0
EGWU 070420Z AUTO 05009KT 9999 OVC015/// 11/07 Q1022,EGWU,2023-06-07T04:20:00Z,51.55,-0.42,11.0,7.0,50,9,,6.21,30.177166,,,TRUE,,,,,,,,OVC,1500,,,,,,,MVFR,,,,,,,,,,,,METAR,33.0
EGWC 070420Z AUTO 06007KT //// ///////// ///// Q////,EGWC,2023-06-07T04:20:00Z,52.63,-2.3,,,60,7,,,,,,TRUE,,,,,,,,,,,,,,,,,,,,,,,,,,,,METAR,79.0
EGVP 070420Z AUTO 03006KT 9999 NCD 09/07 Q1021,EGVP,2023-06-07T04:20:00Z,51.13,-1.57,9.0,7.0,30,6,,6.21,30.147638,,,TRUE,,,,,,,,CLR,,,,,,,,VFR,,,,,,,,,,,,METAR,80.0
EGVO 070420Z AUTO 03010KT 9999 OVC012/// 10/07 Q1021,EGVO,2023-06-07T04:20:00Z,51.23,-0.95,10.0,7.0,30,10,,6.21,30.147638,,,TRUE,,,,,,,,OVC,1200,,,,,,,MVFR,,,,,,,,,,,,METAR,118.0
EGVN 070420Z 05009KT 9999 OVC017 10/06 Q1022 TEMPO BKN014 RMK WHT TEMPO GRN,EGVN,2023-06-07T04:20:00Z,51.77,-1.58,10.0,6.0,50,9,,6.21,30.177166,,,,,,,,,,,OVC,1700,,,,,,,MVFR,,,,,,,,,,,,METAR,83.0
EGUW 070420Z AUTO 04008KT 9999 OVC013/// 10/07 Q1022,EGUW,2023-06-07T04:20:00Z,52.12,0.97,10.0,7.0,40,8,,6.21,30.177166,,,TRUE,,,,,,,,OVC,1300,,,,,,,MVFR,,,,,,,,,,,,METAR,86.0
EGUB 070420Z AUTO 04008KT 9999 OVC015/// 10/07 Q1022,EGUB,2023-06-07T04:20:00Z,51.62,-1.08,10.0,7.0,40,8,,6.21,30.177166,,,TRUE,,,,,,,,OVC,1500,,,,,,,MVFR,,,,,,,,,,,,METAR,56.0
EGTE 070420Z 03008KT CAVOK 09/07 Q1021,EGTE,2023-06-07T04:20:00Z,50.73,-3.42,9.0,7.0,30,8,,6.21,30.147638,,,,,,,,,,,CAVOK,,,,,,,,VFR,,,,,,,,,,,,METAR,30.0
EGSY 070420Z AUTO 05011KT 9999 FEW020/// 09/06 Q1022,EGSY,2023-06-07T04:20:00Z,51.4,-3.43,9.0,6.0,50,11,,6.21,30.177166,,,TRUE,,,,,,,,FEW,2000,,,,,,,VFR,,,,,,,,,,,,METAR,46.0
EGSS 070420Z AUTO 05009KT 9999 OVC012 10/07 Q1023,EGSS,2023-06-07T04:20:00Z,51.88,0.22,10.0,7.0,50,9,,6.21,30.206694,,,TRUE,,,,,,,,OVC,1200,,,,,,,MVFR,,,,,,,,,,,,METAR,101.0
EGSH 070420Z AUTO 03006KT 9999 OVC018/// 11/07 Q1023,EGSH,2023-06-07T04:20:00Z,52.68,1.28,11.0,7.0,30,6,,6.21,30.206694,,,TRUE,,,,,,,,OVC,1800,,,,,,,MVFR,,,,,,,,,,,,METAR,21.0
EGQM 070420Z AUTO 06004KT 9999 OVC018/// 10/07 Q1026,EGQM,2023-06-07T04:20:00Z,55.42,-1.6,10.0,7.0,60,4,,6.21,30.295275,,,TRUE,,,,,,,,OVC,1800,,,,,,,MVFR,,,,,,,,,,,,METAR,24.0
EGQK 070420Z AUTO 00000KT 9999 FEW048/// 07/07 Q1026,EGQK,2023-06-07T04:20:00Z,57.65,-3.57,7.0,7.0,0,0,,6.21,30.295275,,,TRUE,,,,,,,,FEW,4800,,,,,,,VFR,,,,,,,,,,,,METAR,5.0
EGQA 070420Z AUTO 28002KT 9999 // OVC035/// 07/06 Q1026,EGQA,2023-06-07T04:20:00Z,57.83,-3.95,7.0,6.0,280,2,,6.21,30.295275,,,TRUE,,,,,,,,OVC,3500,,,,,,,VFR,,,,,,,,,,,,METAR,4.0
EGPU 070420Z AUTO 00000KT 9999 OVC023/// 10/10 Q1025,EGPU,2023-06-07T04:20:00Z,56.5,-6.88,10.0,10.0,0,0,,6.21,30.265747,,,TRUE,,,,,,,,OVC,2300,,,,,,,MVFR,,,,,,,,,,,,METAR,12.0
EGPO 070420Z AUTO 35004KT 9999 FEW013/// SCT020/// BKN034/// 08/07 Q1026,EGPO,2023-06-07T04:20:00Z,58.22,-6.32,8.0,7.0,350,4,,6.21,30.295275,,,TRUE,,,,,,,,FEW,1300,SCT,2000,BKN,3400,,,VFR,,,,,,,,,,,,METAR,10.0
EGPL 070420Z AUTO 06005KT 9999 NCD 07/06 Q1025,EGPL,2023-06-07T04:20:00Z,57.47,-7.37,7.0,6.0,60,5,,6.21,30.265747,,,TRUE,,,,,,,,CLR,,,,,,,,VFR,,,,,,,,,,,,METAR,3.0
EGPK 070420Z 05004KT 020V110 CAVOK 07/06 Q1025,EGPK,2023-06-07T04:20:00Z,55.5,-4.58,7.0,6.0,50,4,,6.21,30.265747,,,,,,,,,,,CAVOK,,,,,,,,VFR,,,,,,,,,,,,METAR,14.0
EGPI 070420Z AUTO 11007KT 9999 SCT023/// 10/08 Q1025,EGPI,2023-06-07T04:20:00Z,55.68,-6.25,10.0,8.0,110,7,,6.21,30.265747,,,TRUE,,,,,,,,SCT,2300,,,,,,,VFR,,,,,,,,,,,,METAR,17.0
EGPH 070420Z 08004KT 9999 OVC015 10/07 Q1026,EGPH,2023-06-07T04:20:00Z,55.95,-3.35,10.0,7.0,80,4,,6.21,30.295275,,,,,,,,,,,OVC,1500,,,,,,,MVFR,,,,,,,,,,,,METAR,29.0
EGPF 070420Z AUTO 08005KT 9999 BKN017 OVC044 10/08 Q1026,EGPF,2023-06-07T04:20:00Z,55.87,-4.42,10.0,8.0,80,5,,6.21,30.295275,,,TRUE,,,,,,,,BKN,1700,OVC,4400,,,,,MVFR,,,,,,,,,,,,METAR,8.0
EGPD 070420Z AUTO 11003KT 9999 OVC018 10/07 Q1026 NOSIG,EGPD,2023-06-07T04:20:00Z,57.2,-2.22,10.0,7.0,110,3,,6.21,30.295275,,,TRUE,,,TRUE,,,,,OVC,1800,,,,,,,MVFR,,,,,,,,,,,,METAR,65.0
EGPC 070420Z AUTO 00000KT 9999 OVC042/// 07/06 Q1026,EGPC,2023-06-07T04:20:00Z,58.45,-3.08,7.0,6.0,0,0,,6.21,30.295275,,,TRUE,,,,,,,,OVC,4200,,,,,,,VFR,,,,,,,,,,,,METAR,38.0
EGPB 070420Z AUTO 32006KT 9999 BKN008/// BKN022/// OVC041/// 10/09 Q1025,EGPB,2023-06-07T04:20:00Z,59.87,-1.3,10.0,9.0,320,6,,6.21,30.265747,,,TRUE,,,,,,,,BKN,800,BKN,2200,OVC,4100,,,IFR,,,,,,,,,,,,METAR,2.0
EGPA 070420Z AUTO 00000KT 9999 OVC040/// 09/06 Q1026,EGPA,2023-06-07T04:20:00Z,58.95,-2.9,9.0,6.0,0,0,,6.21,30.295275,,,TRUE,,,,,,,,OVC,4000,,,,,,,VFR,,,,,,,,,,,,METAR,15.0
EGOV 070420Z AUTO 04009KT 9999 NCD 10/06 Q1023,EGOV,2023-06-07T04:20:00Z,53.25,-4.53,10.0,6.0,40,9,,6.21,30.206694,,,TRUE,,,,,,,,CLR,,,,,,,,VFR,,,,,,,,,,,,METAR,11.0
EGOS 070420Z AUTO 06006KT 9999 OVC018/// 10/06 Q1024,EGOS,2023-06-07T04:20:00Z,52.8,-2.67,10.0,6.0,60,6,,6.21,30.236221,,,TRUE,,,,,,,,OVC,1800,,,,,,,MVFR,,,,,,,,,,,,METAR,76.0
EGOP 070420Z AUTO 08006KT 9999 NCD 09/06 Q1021,EGOP,2023-06-07T04:20:00Z,51.72,-4.37,9.0,6.0,80,6,,6.21,30.147638,,,TRUE,,,,,,,,CLR,,,,,,,,VFR,,,,,,,,,,,,METAR,8.0
EGOM 070420Z AUTO 08006KT 9999 OVC007/// 08/06 Q1025,EGOM,2023-06-07T04:20:00Z,55.05,-2.55,8.0,6.0,80,6,,6.21,30.265747,,,TRUE,,,,,,,,OVC,700,,,,,,,IFR,,,,,,,,,,,,METAR,286.0
EGNX 070420Z 03006KT 010V070 9999 BKN017 09/07 Q1024,EGNX,2023-06-07T04:20:00Z,52.82,-1.32,9.0,7.0,30,6,,6.21,30.236221,,,,,,,,,,,BKN,1700,,,,,,,MVFR,,,,,,,,,,,,METAR,91.0
EGNT 070420Z 08003KT 9999 BKN020 10/06 Q1026,EGNT,2023-06-07T04:20:00Z,55.03,-1.7,10.0,6.0,80,3,,6.21,30.295275,,,,,,,,,,,BKN,2000,,,,,,,MVFR,,,,,,,,,,,,METAR,77.0
EGNS 070420Z 09010KT 9999 FEW018 BKN024 12/08 Q1024,EGNS,2023-06-07T04:20:00Z,54.08,-4.63,12.0,8.0,90,10,,6.21,30.236221,,,,,,,,,,,FEW,1800,BKN,2400,,,,,MVFR,,,,,,,,,,,,METAR,18.0
EGNM 070420Z 06005KT 040V100 9999 SCT013 BKN018 09/06 Q1024,EGNM,2023-06-07T04:20:00Z,53.87,-1.65,9.0,6.0,60,5,,6.21,30.236221,,,,,,,,,,,SCT,1300,BKN,1800,,,,,MVFR,,,,,,,,,,,,METAR,221.0
EGNJ 070420Z AUTO 04007KT 9999 OVC021/// 11/08 Q1024,EGNJ,2023-06-07T04:20:00Z,53.57,-0.35,11.0,8.0,40,7,,6.21,30.236221,,,TRUE,,,,,,,,OVC,2100,,,,,,,MVFR,,,,,,,,,,,,METAR,23.0
EGMD 070420Z AUTO 03010KT 9999 BKN010/// 10/09 Q1021,EGMD,2023-06-07T04:20:00Z,50.95,0.93,10.0,9.0,30,10,,6.21,30.147638,,,TRUE,,,,,,,,BKN,1000,,,,,,,MVFR,,,,,,,,,,,,METAR,4.0
EGLL 070420Z AUTO 06010KT 9999 OVC015 11/07 Q1022 TEMPO BKN014,EGLL,2023-06-07T04:20:00Z,51.48,-0.45,11.0,7.0,60,10,,6.21,30.177166,,,TRUE,,,,,,,,OVC,1500,,,,,,,MVFR,,,,,,,,,,,,SPECI,26.0
EGLF 070420Z AUTO 04009KT 360V070 9999 OVC013/// 10/07 Q1022,EGLF,2023-06-07T04:20:00Z,51.28,-0.77,10.0,7.0,40,9,,6.21,30.177166,,,TRUE,,,,,,,,OVC,1300,,,,,,,MVFR,,,,,,,,,,,,METAR,65.0
EGLC 070420Z AUTO 06010KT 020V090 9999 BKN014 11/07 Q1023,EGLC,2023-06-07T04:20:00Z,51.5,0.05,11.0,7.0,60,10,,6.21,30.206694,,,TRUE,,,,,,,,BKN,1400,,,,,,,MVFR,,,,,,,,,,,,METAR,10.0
EGKK 070420Z 04009KT 9999 BKN012 11/09 Q1021,EGKK,2023-06-07T04:20:00Z,51.13,-0.18,11.0,9.0,40,9,,6.21,30.147638,,,,,,,,,,,BKN,1200,,,,,,,MVFR,,,,,,,,,,,,METAR,58.0
EGJJ 070420Z AUTO 07020KT 030V100 7000 OVC004/// 12/12 Q1017,EGJJ,2023-06-07T04:20:00Z,49.22,-2.2,12.0,12.0,70,20,,4.35,30.029528,,,TRUE,,,,,,,,OVC,400,,,,,,,LIFR,,,,,,,,,,,,METAR,84.0
EGJB 070420Z 06012KT 6000 BKN004 12/11 Q1018,EGJB,2023-06-07T04:20:00Z,49.42,-2.6,12.0,11.0,60,12,,3.73,30.059055,,,,,,,,,,,BKN,400,,,,,,,LIFR,,,,,,,,,,,,METAR,102.0
EGHQ 070420Z AUTO 09008KT 9999 NCD 10/08 Q1020,EGHQ,2023-06-07T04:20:00Z,50.43,-5.0,10.0,8.0,90,8,,6.21,30.11811,,,TRUE,,,,,,,,CLR,,,,,,,,VFR,,,,,,,,,,,,METAR,101.0
EGGW 070420Z AUTO 05009KT 9999 OVC012 09/07 Q1023,EGGW,2023-06-07T04:20:00Z,51.87,-0.37,9.0,7.0,50,9,,6.21,30.206694,,,TRUE,,,,,,,,OVC,1200,,,,,,,MVFR,,,,,,,,,,,,METAR,159.0
EGGP 070420Z 10007KT 9999 OVC023 11/05 Q1024,EGGP,2023-06-07T04:20:00Z,53.33,-2.85,11.0,5.0,100,7,,6.21,30.236221,,,,,,,,,,,OVC,2300,,,,,,,MVFR,,,,,,,,,,,,METAR,23.0
EGGD 070420Z AUTO 05012KT 9999 OVC014 09/06 Q1022,EGGD,2023-06-07T04:20:00Z,51.37,-2.72,9.0,6.0,50,12,,6.21,30.177166,,,TRUE,,,,,,,,OVC,1400,,,,,,,MVFR,,,,,,,,,,,,METAR,182.0
EGFF 070420Z AUTO 06011KT 9999 BKN020 10/06 Q1022,EGFF,2023-06-07T04:20:00Z,51.38,-3.35,10.0,6.0,60,11,,6.21,30.177166,,,TRUE,,,,,,,,BKN,2000,,,,,,,MVFR,,,,,,,,,,,,METAR,65.0
EGDY 070420Z 04005KT 9999 SKC 08/06 Q1021 BLU,EGDY,2023-06-07T04:20:00Z,51.0,-2.63,8.0,6.0,40,5,,6.21,30.147638,,,,,,,,,,,SKC,,,,,,,,VFR,,,,,,,,,,,,METAR,21.0
EGDR 070420Z AUTO 05009KT 9999 NCD 11/09 Q1019,EGDR,2023-06-07T04:20:00Z,50.08,-5.25,11.0,9.0,50,9,,6.21,30.088583,,,TRUE,,,,,,,,CLR,,,,,,,,VFR,,,,,,,,,,,,METAR,74.0
EGDM 070420Z AUTO 03008KT 9999 NCD 08/06 Q1021,EGDM,2023-06-07T04:20:00Z,51.17,-1.75,8.0,6.0,30,8,,6.21,30.147638,,,TRUE,,,,,,,,CLR,,,,,,,,VFR,,,,,,,,,,,,METAR,122.0
EGCK 070420Z AUTO VRB02KT 9999 FEW020/// 10/09 Q1023,EGCK,2023-06-07T04:20:00Z,53.1,-4.33,10.0,9.0,0,2,,6.21,30.206694,,,TRUE,,,,,,,,FEW,2000,,,,,,,VFR,,,,,,,,,,,,METAR,6.0
EGCC 070420Z AUTO 06005KT 030V130 9999 OVC018 10/06 Q1024,EGCC,2023-06-07T04:20:00Z,53.35,-2.27,10.0,6.0,60,5,,6.21,30.236221,,,TRUE,,,,,,,,OVC,1800,,,,,,,MVFR,,,,,,,,,,,,METAR,78.0
EGBB 070420Z 06006KT 9999 OVC018 10/06 Q1023,EGBB,2023-06-07T04:20:00Z,52.47,-1.75,10.0,6.0,60,6,,6.21,30.206694,,,,,,,,,,,OVC,1800,,,,,,,MVFR,,,,,,,,,,,,METAR,91.0
EGAC 070420Z AUTO VRB02KT 7000 BKN007 11/10 Q1025,EGAC,2023-06-07T04:20:00Z,54.62,-5.87,11.0,10.0,0,2,,4.35,30.265747,,,TRUE,,,,,,,,BKN,700,,,,,,,IFR,,,,,,,,,,,,METAR,2.0
EGAA 070420Z AUTO 11005KT 9999 NCD 09/09 Q1024,EGAA,2023-06-07T04:20:00Z,54.65,-6.22,9.0,9.0,110,5,,6.21,30.236221,,,TRUE,,,,,,,,CLR,,,,,,,,VFR,,,,,,,,,,,,METAR,65.0
EFVA 070420Z AUTO 32004KT 280V350 CAVOK 09/05 Q1019,EFVA,2023-06-07T04:20:00Z,63.05,21.77,9.0,5.0,320,4,,6.21,30.088583,,,TRUE,,,,,,,,CAVOK,,,,,,,,VFR,,,,,,,,,,,,METAR,4.0
EFUT 070420Z 33007KT CAVOK 08/04 Q1018,EFUT,2023-06-07T04:20:00Z,60.88,26.93,8.0,4.0,330,7,,6.21,30.059055,,,,,,,,,,,CAVOK,,,,,,,,VFR,,,,,,,,,,,,METAR,104.0
EFTU 070420Z AUTO 31005KT 280V340 CAVOK 09/04 Q1021,EFTU,2023-06-07T04:20:00Z,60.52,22.27,9.0,4.0,310,5,,6.21,30.147638,,,TRUE,,,,,,,,CAVOK,,,,,,,,VFR,,,,,,,,,,,,METAR,47.0
EFTP 070420Z AUTO 27003KT 220V320 9999 SCT017 08/04 Q1019,EFTP,2023-06-07T04:20:00Z,61.42,23.62,8.0,4.0,270,3,,6.21,30.088583,,,TRUE,,,,,,,,SCT,1700,,,,,,,VFR,,,,,,,,,,,,METAR,111.0
EFSI 070420Z AUTO 29004KT 260V320 3700 BR OVC002 06/06 Q1019,EFSI,2023-06-07T04:20:00Z,62.7,22.83,6.0,6.0,290,4,,2.3,30.088583,,,TRUE,,,,,,,BR,OVC,200,,,,,,,LIFR,,,,,,,,,,,,METAR,90.0
EFSA 070420Z 31011KT 9999 SCT014 OVC041 09/06 Q1016,EFSA,2023-06-07T04:20:00Z,61.95,28.93,9.0,6.0,310,11,,6.21,30.0,,,,,,,,,,,SCT,1400,OVC,4100,,,,,VFR,,,,,,,,,,,,METAR,90.0
EFRO 070420Z 25004KT 230V320 9999 FEW022 09/03 Q1016,EFRO,2023-06-07T04:20:00Z,66.57,25.82,9.0,3.0,250,4,,6.21,30.0,,,,,,,,,,,FEW,2200,,,,,,,VFR,,,,,,,,,,,,METAR,201.0
EFPO 070420Z AUTO 30006KT CAVOK 10/07 Q1020,EFPO,2023-06-07T04:20:00Z,61.47,21.8,10.0,7.0,300,6,,6.21,30.11811,,,TRUE,,,,,,,,CAVOK,,,,,,,,VFR,,,,,,,,,,,,METAR,10.0
EFOU 070420Z AUTO 24003KT 200V270 CAVOK 08/06 Q1018,EFOU,2023-06-07T04:20:00Z,64.92,25.37,8.0,6.0,240,3,,6.21,30.059055,,,TRUE,,,,,,,,CAVOK,,,,,,,,VFR,,,,,,,,,,,,METAR,15.0
EFMI 070420Z AUTO 29006KT 250V320 CAVOK 09/05 Q1018,EFMI,2023-06-07T04:20:00Z,61.68,27.2,9.0,5.0,290,6,,6.21,30.059055,,,TRUE,,,,,,,,CAVOK,,,,,,,,VFR,,,,,,,,,,,,METAR,99.0
EFMA 070420Z 35005KT 320V020 CAVOK 12/06 Q1022,EFMA,2023-06-07T04:20:00Z,60.12,19.9,12.0,6.0,350,5,,6.21,30.177166,,,,,,,,,,,CAVOK,,,,,,,,VFR,,,,,,,,,,,,METAR,6.0
EFLP 070420Z AUTO 32009KT 290V350 CAVOK 09/05 Q1017,EFLP,2023-06-07T04:20:00Z,61.03,28.15,9.0,5.0,320,9,,6.21,30.029528,,,TRUE,,,,,,,,CAVOK,,,,,,,,VFR,,,,,,,,,,,,METAR,102.0
EFKU 070420Z AUTO 32009KT 9999 -SHRA SCT007 BKN027 BKN047 07/06 Q1017,EFKU,2023-06-07T04:20:00Z,63.02,27.8,7.0,6.0,320,9,,6.21,30.029528,,,TRUE,,,,,,,-SHRA,SCT,700,BKN,2700,BKN,4700,,,MVFR,,,,,,,,,,,,METAR,92.0
EFKT 070420Z AUTO 34004KT 300V010 CAVOK 06/03 Q1016,EFKT,2023-06-07T04:20:00Z,67.7,24.85,6.0,3.0,340,4,,6.21,30.0,,,TRUE,,,,,,,,CAVOK,,,,,,,,VFR,,,,,,,,,,,,METAR,190.0
EFKS 070420Z AUTO 17002KT CAVOK 07/03 Q1016,EFKS,2023-06-07T04:20:00Z,66.0,29.23,7.0,3.0,170,2,,6.21,30.0,,,TRUE,,,,,,,,CAVOK,,,,,,,,VFR,,,,,,,,,,,,METAR,270.0
EFKK 070420Z AUTO 26004KT 230V340 9999 SCT035 09/03 Q1019,EFKK,2023-06-07T04:20:00Z,63.72,23.13,9.0,3.0,260,4,,6.21,30.088583,,,TRUE,,,,,,,,SCT,3500,,,,,,,VFR,,,,,,,,,,,,METAR,25.0
EFKI 070420Z AUTO 08004KT 050V130 CAVOK 08/03 Q1017,EFKI,2023-06-07T04:20:00Z,64.27,27.67,8.0,3.0,80,4,,6.21,30.029528,,,TRUE,,,,,,,,CAVOK,,,,,,,,VFR,,,,,,,,,,,,METAR,132.0
EFKE 070420Z AUTO 26004KT 210V290 CAVOK 09/04 Q1017,EFKE,2023-06-07T04:20:00Z,65.78,24.57,9.0,4.0,260,4,,6.21,30.029528,,,TRUE,,,,,,,,CAVOK,,,,,,,,VFR,,,,,,,,,,,,METAR,15.0
EFJY 070420Z AUTO 29007KT CAVOK 08/03 Q1018,EFJY,2023-06-07T04:20:00Z,62.4,25.68,8.0,3.0,290,7,,6.21,30.059055,,,TRUE,,,,,,,,CAVOK,,,,,,,,VFR,,,,,,,,,,,,METAR,139.0
EFJO 070420Z AUTO 35005KT 310V020 9999 BKN042 10/06 Q1015,EFJO,2023-06-07T04:20:00Z,62.67,29.62,10.0,6.0,350,5,,6.21,29.970472,,,TRUE,,,,,,,,BKN,4200,,,,,,,VFR,,,,,,,,,,,,METAR,118.0
EFIV 070420Z AUTO 01005KT 300V030 9999 -SHRA OVC045 05/00 Q1017,EFIV,2023-06-07T04:20:00Z,68.62,27.42,5.0,0.0,10,5,,6.21,30.029528,,,TRUE,,,,,,,-SHRA,OVC,4500,,,,,,,VFR,,,,,,,,,,,,METAR,145.0
EFHK 070420Z 30006KT CAVOK 09/03 Q1019 NOSIG,EFHK,2023-06-07T04:20:00Z,60.32,24.97,9.0,3.0,300,6,,6.21,30.088583,,,,,,TRUE,,,,,CAVOK,,,,,,,,VFR,,,,,,,,,,,,METAR,56.0
EFHA 070420Z AUTO 32004KT 9999 OVC044 08/01 Q1019,EFHA,2023-06-07T04:20:00Z,61.85,24.8,8.0,1.0,320,4,,6.21,30.088583,,,TRUE,,,,,,,,OVC,4400,,,,,,,VFR,,,,,,,,,,,,METAR,144.0
EFET 070420Z AUTO 04005KT 9999 -SHRA SCT009 OVC021 03/02 Q1016,EFET,2023-06-07T04:20:00Z,68.37,23.43,3.0,2.0,40,5,,6.21,30.0,,,TRUE,,,,,,,-SHRA,SCT,900,OVC,2100,,,,,MVFR,,,,,,,,,,,,METAR,300.0
EETU 070420Z AUTO 32005KT 9999 BKN078/// 11/08 Q1019,EETU,2023-06-07T04:20:00Z,58.32,26.68,11.0,8.0,320,5,,6.21,30.088583,,,TRUE,,,,,,,,BKN,7800,,,,,,,VFR,,,,,,,,,,,,METAR,67.0
EETN 070420Z 33006KT CAVOK 11/05 Q1020 NOSIG,EETN,2023-06-07T04:20:00Z,59.4,24.82,11.0,5.0,330,6,,6.21,30.11811,,,,,,TRUE,,,,,CAVOK,,,,,,,,VFR,,,,,,,,,,,,METAR,41.0
EEPU 070420Z AUTO 01003KT 340V050 9999 FEW072/// SCT100/// 10/08 Q1020,EEPU,2023-06-07T04:20:00Z,58.42,24.47,10.0,8.0,10,3,,6.21,30.11811,,,TRUE,,,,,,,,FEW,7200,SCT,10000,,,,,VFR,,,,,,,,,,,,METAR,13.0
EEKE 070420Z 06003KT 030V100 CAVOK 12/09 Q1020,EEKE,2023-06-07T04:20:00Z,58.23,22.52,12.0,9.0,60,3,,6.21,30.11811,,,,,,,,,,,CAVOK,,,,,,,,VFR,,,,,,,,,,,,METAR,4.0
EEKA 070420Z 01009KT CAVOK 12/07 Q1021,EEKA,2023-06-07T04:20:00Z,58.98,22.83,12.0,7.0,10,9,,6.21,30.147638,,,,,,,,,,,CAVOK,,,,,,,,VFR,,,,,,,,,,,,METAR,6.0
EDXW 070420Z AUTO 31010KT 9999 // OVC008/// 11/09 Q1020,EDXW,2023-06-07T04:20:00Z,54.92,8.33,11.0,9.0,310,10,,6.21,30.11811,,,TRUE,,,,,,,,OVC,800,,,,,,,IFR,,,,,,,,,,,,METAR,8.0
EDWE 070420Z AUTO 36005KT 9999 // OVC012/// 11/09 Q1021,EDWE,2023-06-07T04:20:00Z,53.38,7.23,11.0,9.0,360,5,,6.21,30.147638,,,TRUE,,,,,,,,OVC,1200,,,,,,,MVFR,,,,,,,,,,,,SPECI,0.0
EDVK 070420Z AUTO 35003KT 260V030 9999 // FEW025/// SCT044/// BKN053/// 14/12 Q1019,EDVK,2023-06-07T04:20:00Z,51.4,9.37,14.0,12.0,350,3,,6.21,30.088583,,,TRUE,,,,,,,,FEW,2500,SCT,4400,BKN,5300,,,VFR,,,,,,,,,,,,METAR,277.0
EDVE 070420Z AUTO 35004KT 9999 FEW043/// BKN062/// OVC071/// 15/13 Q1019,EDVE,2023-06-07T04:20:00Z,52.32,10.55,15.0,13.0,350,4,,6.21,30.088583,,,TRUE,,,,,,,,FEW,4300,BKN,6200,OVC,7100,,,VFR,,,,,,,,,,,,METAR,83.0
EDTY 070420Z AUTO 00000KT 9999 // SCT018/// 09/09 Q1018,EDTY,2023-06-07T04:20:00Z,49.12,9.78,9.0,9.0,0,0,,6.21,30.059055,,,TRUE,,,,,,,,SCT,1800,,,,,,,VFR,,,,,,,,,,,,SPECI,398.0
EDTL 070420Z AUTO VRB03KT 9999 // NCD 13/10 Q1017,EDTL,2023-06-07T04:20:00Z,48.37,7.83,13.0,10.0,0,3,,6.21,30.029528,,,TRUE,,,,,,,,CLR,,,,,,,,VFR,,,,,,,,,,,,METAR,152.0
EDSB 070420Z 02005KT CAVOK 14/11 Q1016,EDSB,2023-06-07T04:20:00Z,48.78,8.08,14.0,11.0,20,5,,6.21,30.0,,,,,,,,,,,CAVOK,,,,,,,,VFR,,,,,,,,,,,,METAR,122.0
EDQM 070420Z AUTO 04005KT 1600 // VV/// 13/13 Q1019,EDQM,2023-06-07T04:20:00Z,50.3,11.85,13.0,13.0,40,5,,0.99,30.088583,,,TRUE,,,,,,,,OVX,0,,,,,,,LIFR,,,,,,,,,,,,METAR,578.0
EDNY 070420Z 05004KT CAVOK 11/09 Q1017,EDNY,2023-06-07T04:20:00Z,47.67,9.52,11.0,9.0,50,4,,6.21,30.029528,,,,,,,,,,,CAVOK,,,,,,,,VFR,,,,,,,,,,,,METAR,411.0
EDMO 070420Z AUTO 22002KT 9999 // NCD 08/07 Q1018,EDMO,2023-06-07T04:20:00Z,48.07,11.27,8.0,7.0,220,2,,6.21,30.059055,,,TRUE,,,,,,,,CLR,,,,,,,,VFR,,,,,,,,,,,,METAR,587.0
EDMA 070420Z AUTO 00000KT 0750 R25/0900D // NCD 09/08 Q1018,EDMA,2023-06-07T04:20:00Z,48.42,10.92,9.0,8.0,0,0,,0.47,30.059055,,,TRUE,,,,,,,,CLR,,,,,,,,LIFR,,,,,,,,,,,,METAR,462.0
EDLW 070420Z 04003KT CAVOK 14/11 Q1020,EDLW,2023-06-07T04:20:00Z,51.52,7.62,14.0,11.0,40,3,,6.21,30.11811,,,,,,,,,,,CAVOK,,,,,,,,VFR,,,,,,,,,,,,SPECI,122.0
EDLV 070420Z 03005KT 350V090 CAVOK 13/10 Q1020,EDLV,2023-06-07T04:20:00Z,51.6,6.15,13.0,10.0,30,5,,6.21,30.11811,,,,,,,,,,,CAVOK,,,,,,,,VFR,,,,,,,,,,,,METAR,27.0
EDLP 070420Z VRB02KT CAVOK 13/11 Q1019,EDLP,2023-06-07T04:20:00Z,51.62,8.62,13.0,11.0,0,2,,6.21,30.088583,,,,,,,,,,,CAVOK,,,,,,,,VFR,,,,,,,,,,,,METAR,211.0
EDLN 070420Z AUTO 33004KT 9999 // FEW093/// OVC130/// 15/12 Q1019,EDLN,2023-06-07T04:20:00Z,51.23,6.5,15.0,12.0,330,4,,6.21,30.088583,,,TRUE,,,,,,,,FEW,9300,OVC,13000,,,,,VFR,,,,,,,,,,,,METAR,38.0
EDJA 070420Z 12001KT CAVOK 08/07 Q1018,EDJA,2023-06-07T04:20:00Z,47.98,10.23,8.0,7.0,120,1,,6.21,30.059055,,,,,,,,,,,CAVOK,,,,,,,,VFR,,,,,,,,,,,,METAR,625.0
EDHL 070420Z VRB02KT CAVOK 10/09 Q1020,EDHL,2023-06-07T04:20:00Z,53.8,10.72,10.0,9.0,0,2,,6.21,30.11811,,,,,,,,,,,CAVOK,,,,,,,,VFR,,,,,,,,,,,,METAR,13.0
EDHK 070420Z AUTO 27006KT 3200 // SCT002/// OVC004/// 08/08 Q1021,EDHK,2023-06-07T04:20:00Z,54.38,10.15,8.0,8.0,270,6,,1.99,30.147638,,,TRUE,,,,,,,,SCT,200,OVC,400,,,,,LIFR,,,,,,,,,,,,METAR,24.0
EDHI 070420Z 34005KT 310V010 9999 FEW007 11/10 Q1021,EDHI,2023-06-07T04:20:00Z,53.53,9.83,11.0,10.0,340,5,,6.21,30.147638,,,,,,,,,,,FEW,700,,,,,,,VFR,,,,,,,,,,,,METAR,5.0
EDGS 070420Z AUTO 02005KT 9999 // SCT057/// OVC096/// 14/10 Q1019,EDGS,2023-06-07T04:20:00Z,50.7,8.08,14.0,10.0,20,5,,6.21,30.088583,,,TRUE,,,,,,,,SCT,5700,OVC,9600,,,,,VFR,,,,,,,,,,,,SPECI,595.0
EDFM 070420Z VRB01KT CAVOK 14/10 Q1018,EDFM,2023-06-07T04:20:00Z,49.47,8.52,14.0,10.0,0,1,,6.21,30.059055,,,,,,,,,,,CAVOK,,,,,,,,VFR,,,,,,,,,,,,METAR,94.0
EDFH 070420Z 03004KT CAVOK 13/06 Q1019,EDFH,2023-06-07T04:20:00Z,49.95,7.27,13.0,6.0,30,4,,6.21,30.088583,,,,,,,,,,,CAVOK,,,,,,,,VFR,,,,,,,,,,,,METAR,494.0
EDDW 070420Z AUTO 36005KT 320V030 CAVOK 11/09 Q1021 NOSIG,EDDW,2023-06-07T04:20:00Z,53.03,8.8,11.0,9.0,360,5,,6.21,30.147638,,,TRUE,,,TRUE,,,,,CAVOK,,,,,,,,VFR,,,,,,,,,,,,METAR,5.0
EDDV 070420Z AUTO 31005KT CAVOK 13/10 Q1020 NOSIG,EDDV,2023-06-07T04:20:00Z,52.47,9.68,13.0,10.0,310,5,,6.21,30.11811,,,TRUE,,,TRUE,,,,,CAVOK,,,,,,,,VFR,,,,,,,,,,,,METAR,53.0
EDDS 070420Z AUTO 00000KT CAVOK 11/08 Q1018,EDDS,2023-06-07T04:20:00Z,48.68,9.22,11.0,8.0,0,0,,6.21,30.059055,,,TRUE,,,,,,,,CAVOK,,,,,,,,VFR,,,,,,,,,,,,METAR,374.0
EDDR 070420Z AUTO 06005KT CAVOK 13/08 Q1018,EDDR,2023-06-07T04:20:00Z,49.22,7.1,13.0,8.0,60,5,,6.21,30.059055,,,TRUE,,,,,,,,CAVOK,,,,,,,,VFR,,,,,,,,,,,,METAR,317.0
EDDP 070420Z AUTO 32004KT 7000 -RA NSC 15/15 Q1018,EDDP,2023-06-07T04:20:00Z,51.43,12.23,15.0,15.0,320,4,,4.35,30.059055,,,TRUE,,,,,,,-RA,CLR,,,,,,,,MVFR,,,,,,,,,,,,METAR,129.0
EDDN 070420Z AUTO VRB01KT 9999 OVC016 12/11 Q1018 NOSIG,EDDN,2023-06-07T04:20:00Z,49.5,11.05,12.0,11.0,0,1,,6.21,30.059055,,,TRUE,,,TRUE,,,,,OVC,1600,,,,,,,MVFR,,,,,,,,,,,,METAR,312.0
EDDM 070420Z AUTO 20003KT 180V250 CAVOK 10/10 Q1018 NOSIG,EDDM,2023-06-07T04:20:00Z,48.35,11.82,10.0,10.0,200,3,,6.21,30.059055,,,TRUE,,,TRUE,,,,,CAVOK,,,,,,,,VFR,,,,,,,,,,,,METAR,445.0
EDDL 070420Z AUTO 01006KT CAVOK 16/11 Q1019 NOSIG,EDDL,2023-06-07T04:20:00Z,51.3,6.77,16.0,11.0,10,6,,6.21,30.088583,,,TRUE,,,TRUE,,,,,CAVOK,,,,,,,,VFR,,,,,,,,,,,,METAR,37.0
EDDK 070420Z AUTO VRB02KT CAVOK 14/12 Q1019 NOSIG,EDDK,2023-06-07T04:20:00Z,50.87,7.15,14.0,12.0,0,2,,6.21,30.088583,,,TRUE,,,TRUE,,,,,CAVOK,,,,,,,,VFR,,,,,,,,,,,,METAR,92.0
EDDH 070420Z AUTO 33006KT 0900 0500 R05/P2000N R15/0800N FG BKN002 09/09 Q1020 TEMPO 0400,EDDH,2023-06-07T04:20:00Z,53.63,10.0,9.0,9.0,330,6,,0.56,30.11811,,,TRUE,,,,,,,FG,BKN,200,,,,,,,LIFR,,,,,,,,,,,,METAR,8.0
EDDG 070420Z AUTO 01006KT 340V040 CAVOK 13/09 Q1020 NOSIG,EDDG,2023-06-07T04:20:00Z,52.13,7.7,13.0,9.0,10,6,,6.21,30.11811,,,TRUE,,,TRUE,,,,,CAVOK,,,,,,,,VFR,,,,,,,,,,,,METAR,46.0
EDDF 070420Z AUTO VRB01KT CAVOK 14/08 Q1018,EDDF,2023-06-07T04:20:00Z,50.05,8.6,14.0,8.0,0,1,,6.21,30.059055,,,TRUE,,,,,,,,CAVOK,,,,,,,,VFR,,,,,,,,,,,,METAR,113.0
EDDE 070420Z AUTO VRB01KT 6000 FEW005 BKN043 14/13 Q1019,EDDE,2023-06-07T04:20:00Z,50.98,10.97,14.0,13.0,0,1,,3.73,30.088583,,,TRUE,,,,,,,,FEW,500,BKN,4300,,,,,MVFR,,,,,,,,,,,,METAR,314.0
EDDC 070420Z AUTO 33003KT 280V360 CAVOK 16/14 Q1018 NOSIG,EDDC,2023-06-07T04:20:00Z,51.13,13.75,16.0,14.0,330,3,,6.21,30.059055,,,TRUE,,,TRUE,,,,,CAVOK,,,,,,,,VFR,,,,,,,,,,,,METAR,227.0
EDDB 070420Z AUTO 03005KT CAVOK 18/07 Q1018 NOSIG,EDDB,2023-06-07T04:20:00Z,52.38,13.53,18.0,7.0,30,5,,6.21,30.059055,,,TRUE,,,TRUE,,,,,CAVOK,,,,,,,,VFR,,,,,,,,,,,,METAR,48.0
EDBC 070420Z AUTO VRB02KT 9999 // OVC110/// 15/13 Q1019,EDBC,2023-06-07T04:20:00Z,51.85,11.42,15.0,13.0,0,2,,6.21,30.088583,,,TRUE,,,,,,,,OVC,11000,,,,,,,VFR,,,,,,,,,,,,METAR,178.0
EDAH 070420Z AUTO 34005KT 9999 // NCD 16/12 Q1019,EDAH,2023-06-07T04:20:00Z,53.87,14.15,16.0,12.0,340,5,,6.21,30.088583,,,TRUE,,,,,,,,CLR,,,,,,,,VFR,,,,,,,,,,,,METAR,22.0
EDAC 070420Z AUTO 00000KT 5000 // FEW052/// SCT062/// OVC081/// 14/14 Q1018,EDAC,2023-06-07T04:20:00Z,50.98,12.5,14.0,14.0,0,0,,3.11,30.059055,,,TRUE,,,,,,,,FEW,5200,SCT,6200,OVC,8100,,,MVFR,,,,,,,,,,,,METAR,193.0
EBOS 070420Z 04012KT 9999 SCT010 12/10 Q1021 TEMPO SCT008 BKN010,EBOS,2023-06-07T04:20:00Z,51.2,2.87,12.0,10.0,40,12,,6.21,30.147638,,,,,,,,,,,SCT,1000,,,,,,,VFR,,,,,,,,,,,,METAR,5.0
EBLG 070420Z 04006KT CAVOK 14/11 Q1019 NOSIG,EBLG,2023-06-07T04:20:00Z,50.63,5.45,14.0,11.0,40,6,,6.21,30.088583,,,,,,TRUE,,,,,CAVOK,,,,,,,,VFR,,,,,,,,,,,,METAR,187.0
EBCI 070420Z 04005KT CAVOK 13/11 Q1019 NOSIG,EBCI,2023-06-07T04:20:00Z,50.47,4.45,13.0,11.0,40,5,,6.21,30.088583,,,,,,TRUE,,,,,CAVOK,,,,,,,,VFR,,,,,,,,,,,,METAR,176.0
EBBR 070420Z 01003KT CAVOK 10/09 Q1020 NOSIG,EBBR,2023-06-07T04:20:00Z,50.9,4.52,10.0,9.0,10,3,,6.21,30.11811,,,,,,TRUE,,,,,CAVOK,,,,,,,,VFR,,,,,,,,,,,,METAR,49.0
EBAW 070420Z AUTO 02006KT CAVOK 12/09 Q1020,EBAW,2023-06-07T04:20:00Z,51.2,4.47,12.0,9.0,20,6,,6.21,30.11811,,,TRUE,,,,,,,,CAVOK,,,,,,,,VFR,,,,,,,,,,,,METAR,7.0
RKSV 070419Z 10003KT 9999 BKN005 OVC010 19/17 A2986 RMK CIG005,RKSV,2023-06-07T04:19:00Z,37.77,126.37,19.0,17.0,100,3,,6.21,29.861221,,,,,,,,,,,BKN,500,OVC,1000,,,,,IFR,,,,,,,,,,,,SPECI,250.0
PANW 070419Z AUTO 11007KT 10SM -RA BKN022 OVC030 09/07 A2978 RMK AO2 P0000,PANW,2023-06-07T04:19:00Z,59.45,-157.32,9.0,7.0,110,7,,10.0,29.778543,,,TRUE,TRUE,,,,,,-RA,BKN,2200,OVC,3000,,,,,MVFR,,,,,,0.005,,,,,,METAR,100.0
PAKH 070419Z AUTO 8SM -RA OVC017 08/07 A2978 RMK AO2 P0000 $,PAKH,2023-06-07T04:19:00Z,56.93,-154.18,8.0,7.0,,,,8.0,29.778543,,,TRUE,TRUE,TRUE,,,,,-RA,OVC,1700,,,,,,,MVFR,,,,,,0.005,,,,,,SPECI,15.0
KSLR 070419Z AUTO 01006KT 10SM CLR 24/21 A2991 RMK AO2,KSLR,2023-06-07T04:19:00Z,33.17,-95.62,24.0,21.0,10,6,,10.0,29.911417,,,TRUE,TRUE,,,,,,,CLR,,,,,,,,VFR,,,,,,,,,,,,SPECI,144.0
KMRT 070419Z AUTO 05004KT 10SM CLR 16/07 A2987 RMK AO1,KMRT,2023-06-07T04:19:00Z,40.22,-83.35,16.0,7.0,50,4,,10.0,29.870079,,,TRUE,TRUE,,,,,,,CLR,,,,,,,,VFR,,,,,,,,,,,,METAR,302.0
KMNE 070419Z AUTO 00000KT 10SM CLR 22/21 A2990 RMK AO2,KMNE,2023-06-07T04:19:00Z,32.65,-93.3,22.0,21.0,0,0,,10.0,29.899607,,,TRUE,TRUE,,,,,,,CLR,,,,,,,,VFR,,,,,,,,,,,,SPECI,84.0
KDUB 070419Z AUTO 34003KT 10SM SCT085 11/06 A3013 RMK AO2,KDUB,2023-06-07T04:19:00Z,43.55,-109.68,11.0,6.0,340,3,,10.0,30.129921,,,TRUE,TRUE,,,,,,,SCT,8500,,,,,,,VFR,,,,,,,,,,,,SPECI,2205.0
CYZX 070419Z 26005KT 3SM BR OVC004 09/09 A2930 RMK SF8 DENSITY ALT 305FT SLP923,CYZX,2023-06-07T04:19:00Z,44.98,-64.92,9.0,9.0,260,5,,3.0,29.300198,992.3,,,,,,,,,BR,OVC,400,,,,,,,LIFR,,,,,,,,,,,,SPECI,28.0
CYYY 070419Z 03019G27KT 3SM -RA BR OVC007 08/08 A2951 RMK SF8 SLP997,CYYY,2023-06-07T04:19:00Z,48.6,-68.22,8.0,8.0,30,19,27,3.0,29.509842,999.7,,,,,,,,,-RA BR,OVC,700,,,,,,,IFR,,,,,,,,,,,,SPECI,43.0
PHLI 070418Z 05011KT 10SM SCT022 BKN030 26/21 A3008 RMK AO2 T02560211,PHLI,2023-06-07T04:18:00Z,21.97,-159.33,25.6,21.1,50,11,,10.0,30.079725,,,,TRUE,,,,,,,SCT,2200,BKN,3000,,,,,MVFR,,,,,,,,,,,,SPECI,32.0
KSSC 070418Z 34010G15KT 10SM TS SCT042 BKN070CB 19/17 A2982 RMK AO2A TSB15 SLP098,KSSC,2023-06-07T04:18:00Z,33.97,-80.47,19.0,17.0,340,10,15,10.0,29.819881,1009.8,,,TRUE,,,,,,TS,SCT,4200,BKN,7000,,,,,VFR,,,,,,,,,,,,METAR,71.0
KQDG 070418Z AUTO 35005KT 9999 FEW065 SCT090 OVC110 18/15 A2973 RMK AO2 LTG DSNT S AND NW RAE18 SLP069 $,KQDG,2023-06-07T04:18:00Z,,,18.0,15.0,350,5,,6.21,29.731298,1006.9,,TRUE,TRUE,TRUE,,,,,,FEW,6500,SCT,9000,OVC,11000,,,VFR,,,,,,,,,,,,SPECI,
KMQB 070418Z AUTO 05005KT 10SM BKN080 26/16 A2990 RMK AO2,KMQB,2023-06-07T04:18:00Z,40.52,-90.65,26.0,16.0,50,5,,10.0,29.899607,,,TRUE,TRUE,,,,,,,BKN,8000,,,,,,,VFR,,,,,,,,,,,,METAR,205.0
KCAR 070418Z AUTO 34008G17KT 10SM -RA SCT014 OVC036 09/08 A2936 RMK AO2 P0002 T00890078,KCAR,2023-06-07T04:18:00Z,46.87,-68.02,8.9,7.8,340,8,17,10.0,29.359253,,,TRUE,TRUE,,,,,,-RA,SCT,1400,OVC,3600,,,,,VFR,,,,,,0.02,,,,,,SPECI,189.0
PAMY 070417Z AUTO 12010KT 10SM BKN014 OVC110 08/06 A2967 RMK AO2,PAMY,2023-06-07T04:17:00Z,60.37,-166.27,8.0,6.0,120,10,,10.0,29.66929,,,TRUE,TRUE,,,,,,,BKN,1400,OVC,11000,,,,,MVFR,,,,,,,,,,,,METAR,14.0
KROW 070417Z AUTO 21016G25KT 10SM FEW075 24/10 A3003 RMK AO2 PK WND 22026/0410 WSHFT 0357 T02440100,KROW,2023-06-07T04:17:00Z,33.3,-104.5,24.4,10.0,210,16,25,10.0,30.029528,,,TRUE,TRUE,,,,,,,FEW,7500,,,,,,,VFR,,,,,,,,,,,,METAR,1105.0
KGDP 070417Z AUTO 25021G35KT 7SM -RA FEW002 FEW034 OVC085 14/11 RMK AO2 PK WND 25035/0414 P0002 T01440111 $,KGDP,2023-06-07T04:17:00Z,31.83,-104.82,14.4,11.1,250,21,35,7.0,,,,TRUE,TRUE,TRUE,,,,,-RA,FEW,200,FEW,3400,OVC,8500,,,VFR,,,,,,0.02,,,,,,METAR,1664.0
CYYT 070417Z 17011KT 3SM -DZ BR OVC003 08/08 A2973 RMK FG2ST6 SLP073,CYYT,2023-06-07T04:17:00Z,47.62,-52.73,8.0,8.0,170,11,,3.0,29.731298,1007.3,,,,,,,,,-DZ BR,OVC,300,,,,,,,LIFR,,,,,,,,,,,,SPECI,128.0
PASN 070416Z AUTO 12014KT -RA OVC003 04/04 A2942 RMK AO2 P0001 T00440039 TSNO $,PASN,2023-06-07T04:16:00Z,57.15,-170.22,4.4,3.9,120,14,,,29.421259,,,TRUE,TRUE,TRUE,,TRUE,,,-RA,OVC,300,,,,,,,,,,,,,0.01,,,,,,METAR,8.0
PALU 070416Z AUTO 07001KT 10SM SCT008 BKN070 03/03 A2990 RMK AO2 SLP126,PALU,2023-06-07T04:16:00Z,68.88,-166.1,3.0,3.0,70,1,,10.0,29.899607,1012.6,,TRUE,TRUE,,,,,,,SCT,800,BKN,7000,,,,,VFR,,,,,,,,,,,,METAR,8.0
KW99 070416Z AUTO 00000KT 10SM CLR 19/13 A2979 RMK AO2,KW99,2023-06-07T04:16:00Z,39.0,-79.15,19.0,13.0,0,0,,10.0,29.790354,,,TRUE,TRUE,,,,,,,CLR,,,,,,,,VFR,,,,,,,,,,,,METAR,288.0
KDDH 070416Z AUTO 10/09 A2963 RMK AO2 RAEMM P0001 T01000089 PWINO $,KDDH,2023-06-07T04:16:00Z,42.9,-73.25,10.0,8.9,,,,,29.630905,,,TRUE,TRUE,TRUE,,,,TRUE,,,,,,,,,,,,,,,,0.01,,,,,,METAR,241.0
K40B 070416Z AUTO VRB03KT 08/08 A2944 RMK AO1 SLP974 T00820082 57008 P0000,K40B,2023-06-07T04:16:00Z,46.62,-69.52,8.2,8.2,0,3,,,29.438976,997.4,,TRUE,TRUE,,,,,,,,,,,,,,,,-0.8,,,,,0.005,,,,,,SPECI,344.0
CYQI 070416Z 27011G17KT 2 1/2SM -RA BR OVC002 09/09 A2935 RMK ST8 SLP940,CYQI,2023-06-07T04:16:00Z,43.83,-66.08,9.0,9.0,270,11,17,2.5,29.350393,994.0,,,,,,,,,-RA BR,OVC,200,,,,,,,LIFR,,,,,,,,,,,,SPECI,37.0
RJSH 070415Z 04007KT 360V080 9999 FEW015 BKN030 FEW030CB BKN080 20/14 Q1007 RMK 1CU015 5CU030 1CB030 7AC080 A2975 CB 20KM SE MOV NE,RJSH,2023-06-07T04:15:00Z,40.55,141.47,20.0,14.0,40,7,,6.21,29.734253,,,,,,,,,,,FEW,1500,BKN,3000,FEW,3000,BKN,8000,MVFR,,,,,,,,,,,,SPECI,46.0
LMML 070415Z 02004KT 9999 FEW015 19/17 Q1015 NOSIG,LMML,2023-06-07T04:15:00Z,35.85,14.47,19.0,17.0,20,4,,6.21,29.970472,,,,,,TRUE,,,,,FEW,1500,,,,,,,VFR,,,,,,,,,,,,METAR,78.0
LIRP 070415Z 11003KT 9999 SCT025 16/16 Q1016 NOSIG,LIRP,2023-06-07T04:15:00Z,43.68,10.38,16.0,16.0,110,3,,6.21,30.0,,,,,,TRUE,,,,,SCT,2500,,,,,,,VFR,,,,,,,,,,,,METAR,1.0
LHSN 070415Z 08004KT CAVOK 16/16 Q1016 NOSIG RMK BLU,LHSN,2023-06-07T04:15:00Z,47.12,20.23,16.0,16.0,80,4,,6.21,30.0,,,,,,TRUE,,,,,CAVOK,,,,,,,,VFR,,,,,,,,,,,,METAR,89.0
LHSM 070415Z AUTO 33003KT 9999 FEW007 OVC020 17/17 Q1016,LHSM,2023-06-07T04:15:00Z,46.68,17.17,17.0,17.0,330,3,,6.21,30.0,,,TRUE,,,,,,,,FEW,700,OVC,2000,,,,,MVFR,,,,,,,,,,,,METAR,119.0
LHPR 070415Z AUTO 26003KT 4100 RA OVC012 //////TCU 16/16 Q1016 RERA NOSIG,LHPR,2023-06-07T04:15:00Z,47.63,17.82,16.0,16.0,260,3,,2.55,30.0,,,TRUE,,,TRUE,,,,RA,OVC,1200,,,,,,,IFR,,,,,,,,,,,,METAR,127.0
LHPA 070415Z 26002KT 0500 R34/0550D FG OVC002 16/16 Q1016 NOSIG RMK RED,LHPA,2023-06-07T04:15:00Z,47.35,17.5,16.0,16.0,260,2,,0.31,30.0,,,,,,TRUE,,,,FG,OVC,200,,,,,,,LIFR,,,,,,,,,,,,METAR,143.0
LHKE 070415Z 12002KT CAVOK 16/13 Q1016 NOSIG RMK BLU,LHKE,2023-06-07T04:15:00Z,46.92,19.75,16.0,13.0,120,2,,6.21,30.0,,,,,,TRUE,,,,,CAVOK,,,,,,,,VFR,,,,,,,,,,,,METAR,113.0
LHDC 070415Z AUTO 09006KT 9999 BKN041 BKN076 17/16 Q1017 NOSIG,LHDC,2023-06-07T04:15:00Z,47.48,21.62,17.0,16.0,90,6,,6.21,30.029528,,,TRUE,,,TRUE,,,,,BKN,4100,BKN,7600,,,,,VFR,,,,,,,,,,,,METAR,105.0
KLZZ 070415Z AUTO 36003KT 10SM CLR 21/20 A2990 RMK AO2 T02140198,KLZZ,2023-06-07T04:15:00Z,31.1,-98.2,21.4,19.8,360,3,,10.0,29.899607,,,TRUE,TRUE,,,,,,,CLR,,,,,,,,VFR,,,,,,,,,,,,SPECI,356.0
KK62 070415Z AUTO 07004KT 10SM SCT100 SCT120 17/12 A2985 RMK AO2,KK62,2023-06-07T04:15:00Z,38.7,-84.4,17.0,12.0,70,4,,10.0,29.84941,,,TRUE,TRUE,,,,,,,SCT,10000,SCT,12000,,,,,VFR,,,,,,,,,,,,METAR,274.0
KGLE 070415Z AUTO 35003KT 10SM CLR 18/17 A2993 RMK AO2 T01800171 PWINO,KGLE,2023-06-07T04:15:00Z,33.65,-97.2,18.0,17.1,350,3,,10.0,29.929134,,,TRUE,TRUE,,,,,TRUE,,CLR,,,,,,,,VFR,,,,,,,,,,,,SPECI,250.0
KFGX 070415Z AUTO 12003KT 7SM -DZ BKN070 OVC095 16/14 A2987 RMK AO2 T01630137,KFGX,2023-06-07T04:15:00Z,38.55,-83.75,16.3,13.7,120,3,,7.0,29.870079,,,TRUE,TRUE,,,,,,-DZ,BKN,7000,OVC,9500,,,,,VFR,,,,,,,,,,,,METAR,279.0
KETH 070415Z AUTO 11008KT 10SM CLR 24/17 A2988 RMK AO2 LTG DSNT E,KETH,2023-06-07T04:15:00Z,45.78,-96.55,24.0,17.0,110,8,,10.0,29.878937,,,TRUE,TRUE,,,,,,,CLR,,,,,,,,VFR,,,,,,,,,,,,SPECI,309.0
KBWD 070415Z AUTO 00000KT 5SM FEW028 SCT037 19/18 A2995 RMK AO1,KBWD,2023-06-07T04:15:00Z,31.8,-98.95,19.0,18.0,0,0,,5.0,29.949802,,,TRUE,TRUE,,,,,,,FEW,2800,SCT,3700,,,,,MVFR,,,,,,,,,,,,SPECI,420.0
K9D7 070415Z AUTO 16004KT 10SM FEW110 21/21 A2988 RMK AO2 TSNO,K9D7,2023-06-07T04:15:00Z,48.48,-99.23,21.0,21.0,160,4,,10.0,29.878937,,,TRUE,TRUE,,,TRUE,,,,FEW,11000,,,,,,,VFR,,,,,,,,,,,,SPECI,451.0
K6I2 070415Z AUTO 20004KT 10SM SCT120 22/13 A2986 RMK AO2,K6I2,2023-06-07T04:15:00Z,37.63,-85.25,22.0,13.0,200,4,,10.0,29.861221,,,TRUE,TRUE,,,,,,,SCT,12000,,,,,,,VFR,,,,,,,,,,,,METAR,258.0
K5R8 070415Z AUTO 00000KT 10SM CLR 21/20 A2988 RMK AO2 T02080196,K5R8,2023-06-07T04:15:00Z,30.43,-93.47,20.8,19.6,0,0,,10.0,29.878937,,,TRUE,TRUE,,,,,,,CLR,,,,,,,,VFR,,,,,,,,,,,,SPECI,26.0
ETIH 070415Z AUTO 00000KT 9999 OVC015 12/10 A3006 RMK AO2 SLP180 $,ETIH,2023-06-07T04:15:00Z,49.22,11.83,12.0,10.0,0,0,,6.21,30.059055,1018.0,,TRUE,TRUE,TRUE,,,,,,OVC,1500,,,,,,,MVFR,,,,,,,,,,,,SPECI,436.0
KFVE 070414Z AUTO 35015G27KT 10SM -RA OVC015 09/06 A2938 RMK AO2 PK WND 35027/0411 RAB0359 P0000 T00890061,KFVE,2023-06-07T04:14:00Z,47.28,-68.3,8.9,6.1,350,15,27,10.0,29.379921,,,TRUE,TRUE,,,,,,-RA,OVC,1500,,,,,,,MVFR,,,,,,0.005,,,,,,METAR,299.0
RKTE 070413Z 19003KT 9999 BKN035 BKN250 24/18 A2979 RMK CIG035 RWY16 1311,RKTE,2023-06-07T04:13:00Z,36.57,127.5,24.0,18.0,190,3,,6.21,29.790354,,,,,,,,,,,BKN,3500,BKN,25000,,,,,VFR,,,,,,,,,,,,SPECI,78.0
CYQM 070413Z 29004KT 3/4SM R06/P6000FT/N R29/P6000FT/U -DZ BR OVC004 08/08 A2927 RMK ST8 SLP917,CYQM,2023-06-07T04:13:00Z,46.12,-64.67,8.0,8.0,290,4,,0.75,29.27067,991.7,,,,,,,,,-DZ BR,OVC,400,,,,,,,LIFR,,,,,,,,,,,,SPECI,67.0
CYGV 070413Z AUTO 05022G28KT 6SM -RA BR FEW010 OVC015 10/09 A2959 RMK SLP022,CYGV,2023-06-07T04:13:00Z,50.28,-63.62,10.0,9.0,50,22,28,6.0,29.589567,1002.2,,TRUE,,,,,,,-RA BR,FEW,1000,OVC,1500,,,,,MVFR,,,,,,,,,,,,SPECI,32.0
KAPC 070412Z AUTO 28011KT 10SM BKN022 BKN120 A2988 RMK AO2 $,KAPC,2023-06-07T04:12:00Z,38.2,-122.28,,,280,11,,10.0,29.878937,,,TRUE,TRUE,TRUE,,,,,,BKN,2200,BKN,12000,,,,,MVFR,,,,,,,,,,,,METAR,5.0
CZBF 070411Z AUTO 04015G25KT 1 3/4SM -RA BR OVC004 07/07 A2937 RMK SLP950,CZBF,2023-06-07T04:11:00Z,47.62,-65.75,7.0,7.0,40,15,25,1.75,29.371063,995.0,,TRUE,,,,,,,-RA BR,OVC,400,,,,,,,LIFR,,,,,,,,,,,,SPECI,60.0
VCRI 070410Z 25015KT 9999 FEW018 31/27 Q1009 NOSIG,VCRI,2023-06-07T04:10:00Z,6.28,81.13,31.0,27.0,250,15,,6.21,29.793306,,,,,,TRUE,,,,,FEW,1800,,,,,,,VFR,,,,,,,,,,,,METAR,50.0
VCBI 070410Z 24009KT 9999 FEW012 BKN015 30/26 Q1010 NOSIG,VCBI,2023-06-07T04:10:00Z,7.17,79.88,30.0,26.0,240,9,,6.21,29.822834,,,,,,TRUE,,,,,FEW,1200,BKN,1500,,,,,MVFR,,,,,,,,,,,,METAR,10.0
SCJO 070410Z AUTO VRB02KT 0400 FG VV001 02/02 Q1019,SCJO,2023-06-07T04:10:00Z,-40.6,-73.05,2.0,2.0,0,2,,0.25,30.088583,,,TRUE,,,,,,,FG,OVX,0,,,,,,,LIFR,,,,,,,,,,,100,SPECI,61.0
PAPB 070410Z AUTO 13018G23KT 1 1/2SM BR OVC003 07/05 A2941 RMK AO2 T00670050 TSNO $,PAPB,2023-06-07T04:10:00Z,56.58,-169.67,6.7,5.0,130,18,23,1.5,29.409449,,,TRUE,TRUE,TRUE,,TRUE,,,BR,OVC,300,,,,,,,LIFR,,,,,,,,,,,,SPECI,33.0
MKJP 070410Z 14007KT 4000 TSRA FEW018 BKN020CB 26/25 Q1013,MKJP,2023-06-07T04:10:00Z,17.93,-76.78,26.0,25.0,140,7,,2.49,29.911417,,,,,,,,,,TSRA,FEW,1800,BKN,2000,,,,,IFR,,,,,,,,,,,,SPECI,3.0
KVVS 070410Z AUTO 06003KT 10SM CLR 13/08 A2981 RMK AO2 T01310085,KVVS,2023-06-07T04:10:00Z,39.95,-79.65,13.1,8.5,60,3,,10.0,29.811024,,,TRUE,TRUE,,,,,,,CLR,,,,,,,,VFR,,,,,,,,,,,,METAR,386.0
KRND 070410Z AUTO 00000KT 4SM HZ CLR 23/20 A2986 RMK AO2 SLP104 TSNO $,KRND,2023-06-07T04:10:00Z,29.53,-98.27,23.0,20.0,0,0,,4.0,29.861221,1010.4,,TRUE,TRUE,TRUE,,TRUE,,,HZ,CLR,,,,,,,,MVFR,,,,,,,,,,,,SPECI,224.0
KOLY 070410Z AUTO 36003KT 10SM SCT120 25/10 A2987 RMK AO2 T02470099 PWINO,KOLY,2023-06-07T04:10:00Z,38.72,-88.18,24.7,9.9,360,3,,10.0,29.870079,,,TRUE,TRUE,,,,,TRUE,,SCT,12000,,,,,,,VFR,,,,,,,,,,,,METAR,144.0
KDED 070410Z AUTO 12004KT 10SM CLR 22/18 A2993 RMK AO2 T02250185,KDED,2023-06-07T04:10:00Z,29.07,-81.28,22.5,18.5,120,4,,10.0,29.929134,,,TRUE,TRUE,,,,,,,CLR,,,,,,,,VFR,,,,,,,,,,,,METAR,21.0
KBLU 070410Z AUTO 02003KT 10SM SCT001 09/08 A2997 RMK AO2 T00940083 $,KBLU,2023-06-07T04:10:00Z,39.28,-120.7,9.4,8.3,20,3,,10.0,29.970472,,,TRUE,TRUE,TRUE,,,,,,SCT,100,,,,,,,VFR,,,,,,,,,,,,METAR,1605.0
KNSI 070407Z AUTO 22005KT 10SM OVC029 14/11 A2992 RMK AO2 T01390111 $,KNSI,2023-06-07T04:07:00Z,33.23,-119.45,13.9,11.1,220,5,,10.0,29.920275,,,TRUE,TRUE,TRUE,,,,,,OVC,2900,,,,,,,MVFR,,,,,,,,,,,,SPECI,161.0
KHIE 070407Z AUTO 00000KT 5SM -RA BR BKN022 BKN027 OVC042 10/09 A2954 RMK AO2 P0002 T01000089,KHIE,2023-06-07T04:07:00Z,44.37,-71.55,10.0,8.9,0,0,,5.0,29.53937,,,TRUE,TRUE,,,,,,-RA BR,BKN,2200,BKN,2700,OVC,4200,,,MVFR,,,,,,0.02,,,,,,METAR,321.0
RJSO 070405Z 28003KT 220V320 9999 -SHRA FEW030 SCT040 FEW040CB BKN100 18/15 Q1008 RETS RMK 1CU030 3CU040 1CB040 7AC100 A2978 CB 30KM E MOV NE,RJSO,2023-06-07T04:05:00Z,41.22,141.12,18.0,15.0,280,3,,6.21,29.763779,,,,,,,,,,-SHRA,FEW,3000,SCT,4000,FEW,4000,BKN,10000,VFR,,,,,,,,,,,,METAR,7.0
KHMN 070405Z AUTO 08018G35KT 10SM FEW026 FEW070 BKN110 19/10 A3002 RMK AO2 DZB0356E05 PRESRR SLP105 $,KHMN,2023-06-07T04:05:00Z,32.85,-106.1,19.0,10.0,80,18,35,10.0,30.02067,1010.5,,TRUE,TRUE,TRUE,,,,,,FEW,2600,FEW,7000,BKN,11000,,,VFR,,,,,,,,,,,,SPECI,1240.0
RJOI 0607 DH0400/PPH 0.00,RJOI,2023-06-07T04:04:05Z,34.13,132.23,,,,,,,,,,,,,,,,,,,,,,,,,,,,,,,,,,,,,,SPECI,2.0
FAGG 070404Z VRB02KT CAVOK 11/03 Q1008,FAGG,2023-06-07T04:04:00Z,-34.0,22.37,11.0,3.0,0,2,,6.21,29.763779,,,,,,,,,,,CAVOK,,,,,,,,VFR,,,,,,,,,,,,SPECI,196.0
SVVL 070403Z AUTO ///01KT NCD ///// Q////,SVVL,2023-06-07T04:03:00Z,9.33,-70.58,,,,,,,,,,TRUE,,,,,,,,CLR,,,,,,,,,,,,,,,,,,,,METAR,575.0
SVVA 070403Z AUTO 06001KT NCD 23/23 Q1016,SVVA,2023-06-07T04:03:00Z,10.15,-67.92,23.0,23.0,60,1,,,30.0,,,TRUE,,,,,,,,CLR,,,,,,,,,,,,,,,,,,,,METAR,428.0
SVSR 070403Z AUTO NIL,SVSR,2023-06-07T04:03:00Z,7.87,-67.43,,,,,,,,,,TRUE,,,,,,,,,,,,,,,,,,,,,,,,,,,,METAR,49.0
SVSA 070403Z AUTO NIL,SVSA,2023-06-07T04:03:00Z,7.83,-72.45,,,,,,,,,,TRUE,,,,,,,,,,,,,,,,,,,,,,,,,,,,METAR,383.0
SVPR 070403Z AUTO 12005KT NCD 25/22 Q1016,SVPR,2023-06-07T04:03:00Z,8.3,-62.77,25.0,22.0,120,5,,,30.0,,,TRUE,,,,,,,,CLR,,,,,,,,,,,,,,,,,,,,METAR,140.0
SVPA 070403Z AUTO NIL,SVPA,2023-06-07T04:03:00Z,5.62,-67.6,,,,,,,,,,TRUE,,,,,,,,,,,,,,,,,,,,,,,,,,,,METAR,77.0
SVMT 070403Z AUTO 04001KT NCD 25/25 Q1015,SVMT,2023-06-07T04:03:00Z,9.75,-63.17,25.0,25.0,40,1,,,29.970472,,,TRUE,,,,,,,,CLR,,,,,,,,,,,,,,,,,,,,METAR,67.0
SVMI 070403Z AUTO 08005KT NCD 27/22 Q1014,SVMI,2023-06-07T04:03:00Z,10.6,-67.0,27.0,22.0,80,5,,,29.940945,,,TRUE,,,,,,,,CLR,,,,,,,,,,,,,,,,,,,,METAR,48.0
SVMG 070403Z AUTO 09007KT NCD 27/26 Q1015,SVMG,2023-06-07T04:03:00Z,10.92,-63.97,27.0,26.0,90,7,,,29.970472,,,TRUE,,,,,,,,CLR,,,,,,,,,,,,,,,,,,,,METAR,16.0
SVMC 070403Z AUTO 09001KT NCD 28/25 Q1010,SVMC,2023-06-07T04:03:00Z,10.57,-71.72,28.0,25.0,90,1,,,29.822834,,,TRUE,,,,,,,,CLR,,,,,,,,,,,,,,,,,,,,METAR,76.0
SVLO 070403Z AUTO NIL,SVLO,2023-06-07T04:03:00Z,11.8,-66.18,,,,,,,,,,TRUE,,,,,,,,,,,,,,,,,,,,,,,,,,,,METAR,3.0
SVJM 070403Z AUTO 02001KT NCD 21/21 Q1015,SVJM,2023-06-07T04:03:00Z,9.92,-67.38,21.0,21.0,20,1,,,29.970472,,,TRUE,,,,,,,,CLR,,,,,,,,,,,,,,,,,,,,METAR,448.0
SVGU 070403Z AUTO 03003KT NCD 23/23 Q1015,SVGU,2023-06-07T04:03:00Z,9.03,-69.75,23.0,23.0,30,3,,,29.970472,,,TRUE,,,,,,,,CLR,,,,,,,,,,,,,,,,,,,,METAR,165.0
SVGD 070403Z AUTO 13001KT NCD 24/24 Q1015,SVGD,2023-06-07T04:03:00Z,7.22,-70.75,24.0,24.0,130,1,,,29.970472,,,TRUE,,,,,,,,CLR,,,,,,,,,,,,,,,,,,,,METAR,129.0
SVFM 070403Z AUTO NIL,SVFM,2023-06-07T04:03:00Z,10.48,-66.83,,,,,,,,,,TRUE,,,,,,,,,,,,,,,,,,,,,,,,,,,,METAR,852.0
SVCS 070403Z AUTO 33003KT NCD 21/20 Q1018,SVCS,2023-06-07T04:03:00Z,10.3,-66.82,21.0,20.0,330,3,,,30.059055,,,TRUE,,,,,,,,CLR,,,,,,,,,,,,,,,,,,,,METAR,656.0
SVCB 070403Z AUTO 12003KT NCD 25/24 Q1014,SVCB,2023-06-07T04:03:00Z,8.12,-63.53,25.0,24.0,120,3,,,29.940945,,,TRUE,,,,,,,,CLR,,,,,,,,,,,,,,,,,,,,METAR,47.0
SVBS 070403Z AUTO 03001KT NCD 21/20 Q1017,SVBS,2023-06-07T04:03:00Z,10.25,-67.65,21.0,20.0,30,1,,,30.029528,,,TRUE,,,,,,,,CLR,,,,,,,,,,,,,,,,,,,,METAR,435.0
SVBM 070403Z AUTO 10007KT NCD 23/21 Q1016,SVBM,2023-06-07T04:03:00Z,10.05,-69.37,23.0,21.0,100,7,,,30.0,,,TRUE,,,,,,,,CLR,,,,,,,,,,,,,,,,,,,,METAR,624.0
SVBI 070403Z AUTO /////KT NCD 26/24 Q1018,SVBI,2023-06-07T04:03:00Z,8.62,-70.22,26.0,24.0,,,,,30.059055,,,TRUE,,,,,,,,CLR,,,,,,,,,,,,,,,,,,,,METAR,185.0
SVBC 070403Z AUTO 19005KT NCD 26/26 Q1015,SVBC,2023-06-07T04:03:00Z,10.12,-64.68,26.0,26.0,190,5,,,29.970472,,,TRUE,,,,,,,,CLR,,,,,,,,,,,,,,,,,,,,METAR,7.0
KBGM 070403Z AUTO 31004KT 4SM HZ OVC045 11/06 A2973 RMK AO2 T01110061,KBGM,2023-06-07T04:03:00Z,42.22,-75.98,11.1,6.1,310,4,,4.0,29.731298,,,TRUE,TRUE,,,,,,HZ,OVC,4500,,,,,,,MVFR,,,,,,,,,,,,SPECI,485.0
CYNM 070403Z AUTO 35008KT 6SM HZ CLR 11/02 A2991 RMK SLP138,CYNM,2023-06-07T04:03:00Z,49.77,-77.78,11.0,2.0,350,8,,6.0,29.911417,1013.8,,TRUE,,,,,,,HZ,CLR,,,,,,,,VFR,,,,,,,,,,,,SPECI,276.0
PAHX 070402Z AUTO 00000KT 10SM -RA OVC060 13/08 A2980 RMK AO2 SLP091 P0001 T01330083,PAHX,2023-06-07T04:02:00Z,62.7,-159.57,13.3,8.3,0,0,,10.0,29.799213,1009.1,,TRUE,TRUE,,,,,,-RA,OVC,6000,,,,,,,VFR,,,,,,0.01,,,,,,METAR,20.0
KSDM 070402Z AUTO 28006KT 10SM OVC028 16/11 A2992 RMK AO2 T01560106,KSDM,2023-06-07T04:02:00Z,32.58,-117.0,15.6,10.6,280,6,,10.0,29.920275,,,TRUE,TRUE,,,,,,,OVC,2800,,,,,,,MVFR,,,,,,,,,,,,SPECI,161.0
KFYV 070402Z AUTO 18003KT 3SM BR FEW007 18/17 A2996 RMK AO2 T01780167,KFYV,2023-06-07T04:02:00Z,36.02,-94.17,17.8,16.7,180,3,,3.0,29.958662,,,TRUE,TRUE,,,,,,BR,FEW,700,,,,,,,MVFR,,,,,,,,,,,,SPECI,377.0
PAFS 070401Z AUTO VRB04KT 10SM SCT090 BKN110 19/03 A2979 RMK AO2 SLP091 T01890033,PAFS,2023-06-07T04:01:00Z,63.02,-154.35,18.9,3.3,0,4,,10.0,29.790354,1009.1,,TRUE,TRUE,,,,,,,SCT,9000,BKN,11000,,,,,VFR,,,,,,,,,,,,METAR,131.0
PABR 070401Z 06015KT 1/2SM R08/2600V5000FT FG OVC002 01/M01 A3003 RMK AO2 T00111006,PABR,2023-06-07T04:01:00Z,71.28,-156.78,1.1,-0.6,60,15,,0.5,30.029528,,,,TRUE,,,,,,FG,OVC,200,,,,,,,LIFR,,,,,,,,,,,,SPECI,6.0
ZYHB 070400Z 25008MPS 210V280 CAVOK 27/13 Q0995 NOSIG,ZYHB,2023-06-07T04:00:00Z,45.62,126.25,27.0,13.0,250,16,,6.21,29.379921,,,,,,TRUE,,,,,CAVOK,,,,,,,,VFR,,,,,,,,,,,,METAR,134.0
ZYCC 070400Z 24009G15MPS CAVOK 27/09 Q0998 NOSIG,ZYCC,2023-06-07T04:00:00Z,43.98,125.68,27.0,9.0,240,17,29,6.21,29.468504,,,,,,TRUE,,,,,CAVOK,,,,,,,,VFR,,,,,,,,,,,,METAR,211.0
ZWSH 070400Z 25005MPS 9999 SCT040 24/04 Q1018 NOSIG,ZWSH,2023-06-07T04:00:00Z,39.55,76.02,24.0,4.0,250,10,,6.21,30.059055,,,,,,TRUE,,,,,SCT,4000,,,,,,,VFR,,,,,,,,,,,,METAR,1374.0
ZUUU 070400Z 13003MPS 050V200 CAVOK 29/17 Q1012 NOSIG,ZUUU,2023-06-07T04:00:00Z,30.58,103.95,29.0,17.0,130,6,,6.21,29.88189,,,,,,TRUE,,,,,CAVOK,,,,,,,,VFR,,,,,,,,,,,,METAR,494.0
ZUTF 070400Z 08002MPS 360V140 CAVOK 26/17 Q1012 NOSIG,ZUTF,2023-06-07T04:00:00Z,30.3,104.43,26.0,17.0,80,4,,6.21,29.88189,,,,,,TRUE,,,,,CAVOK,,,,,,,,VFR,,,,,,,,,,,,METAR,443.0
ZUGY 070400Z 25003MPS 210V310 9999 BKN040 28/20 Q1014 NOSIG,ZUGY,2023-06-07T04:00:00Z,26.53,106.8,28.0,20.0,250,6,,6.21,29.940945,,,,,,TRUE,,,,,BKN,4000,,,,,,,VFR,,,,,,,,,,,,METAR,1130.0
ZUCK 070400Z 17002MPS CAVOK 24/20 Q1012 NOSIG,ZUCK,2023-06-07T04:00:00Z,29.72,106.63,24.0,20.0,170,4,,6.21,29.88189,,,,,,TRUE,,,,,CAVOK,,,,,,,,VFR,,,,,,,,,,,,METAR,416.0
ZSQD 070400Z 16006MPS 130V190 CAVOK 31/19 Q1003 NOSIG,ZSQD,2023-06-07T04:00:00Z,36.27,120.38,31.0,19.0,160,12,,6.21,29.616142,,,,,,TRUE,,,,,CAVOK,,,,,,,,VFR,,,,,,,,,,,,METAR,8.0
ZSOF 070400Z 02002MPS 330V080 CAVOK 29/20 Q1008 NOSIG,ZSOF,2023-06-07T04:00:00Z,31.98,116.97,29.0,20.0,20,4,,6.21,29.763779,,,,,,TRUE,,,,,CAVOK,,,,,,,,VFR,,,,,,,,,,,,METAR,23.0
ZSNJ 070400Z 24003MPS 200V280 9999 FEW030 29/21 Q1008 NOSIG,ZSNJ,2023-06-07T04:00:00Z,31.75,118.87,29.0,21.0,240,6,,6.21,29.763779,,,,,,TRUE,,,,,FEW,3000,,,,,,,VFR,,,,,,,,,,,,METAR,27.0
ZSNB 070400Z 15004MPS 5000 BR FEW009 SCT020 24/21 Q1010 NOSIG,ZSNB,2023-06-07T04:00:00Z,29.83,121.47,24.0,21.0,150,8,,3.11,29.822834,,,,,,TRUE,,,,BR,FEW,900,SCT,2000,,,,,MVFR,,,,,,,,,,,,METAR,5.0
ZSFZ 070400Z 11003MPS 080V150 9999 SCT009 BKN017 29/25 Q1010 NOSIG,ZSFZ,2023-06-07T04:00:00Z,25.93,119.67,29.0,25.0,110,6,,6.21,29.822834,,,,,,TRUE,,,,,SCT,900,BKN,1700,,,,,MVFR,,,,,,,,,,,,METAR,14.0
ZSAM 070400Z 21003MPS 160V270 9999 SCT026 FEW026TCU 33/26 Q1010 NOSIG,ZSAM,2023-06-07T04:00:00Z,24.53,118.13,33.0,26.0,210,6,,6.21,29.822834,,,,,,TRUE,,,,,SCT,2600,FEW,2600,,,,,VFR,,,,,,,,,,,,METAR,13.0
ZPPP 070400Z 25006MPS 9999 SCT023 21/15 Q1021 NOSIG,ZPPP,2023-06-07T04:00:00Z,25.0,102.65,21.0,15.0,250,12,,6.21,30.147638,,,,,,TRUE,,,,,SCT,2300,,,,,,,VFR,,,,,,,,,,,,METAR,1885.0
ZMUB 070400Z 33009G14MPS CAVOK 17/M02 Q1016 NOSIG RMK QFE655.0 25,ZMUB,2023-06-07T04:00:00Z,47.83,106.75,17.0,-2.0,330,17,27,6.21,30.0,,,,,,TRUE,,,,,CAVOK,,,,,,,,VFR,,,,,,,,,,,,METAR,1300.0
ZLXY 070400Z VRB01MPS CAVOK 29/18 Q1009 NOSIG,ZLXY,2023-06-07T04:00:00Z,34.43,108.75,29.0,18.0,0,2,,6.21,29.793306,,,,,,TRUE,,,,,CAVOK,,,,,,,,VFR,,,,,,,,,,,,METAR,478.0
ZLLL 070400Z VRB01MPS 9999 SCT020 24/03 Q1021 NOSIG,ZLLL,2023-06-07T04:00:00Z,36.52,103.62,24.0,3.0,0,2,,6.21,30.147638,,,,,,TRUE,,,,,SCT,2000,,,,,,,VFR,,,,,,,,,,,,METAR,1939.0
ZJSY 070400Z 36001MPS 9999 FEW012 SCT050 27/25 Q1007 NOSIG,ZJSY,2023-06-07T04:00:00Z,18.3,109.42,27.0,25.0,360,2,,6.21,29.734253,,,,,,TRUE,,,,,FEW,1200,SCT,5000,,,,,VFR,,,,,,,,,,,,METAR,27.0
ZJHK 070400Z 21003MPS 170V230 9999 FEW026 30/25 Q1007 NOSIG,ZJHK,2023-06-07T04:00:00Z,19.93,110.43,30.0,25.0,210,6,,6.21,29.734253,,,,,,TRUE,,,,,FEW,2600,,,,,,,VFR,,,,,,,,,,,,METAR,21.0
ZHHH 070400Z 21003MPS 180V240 CAVOK 26/19 Q1009 NOSIG,ZHHH,2023-06-07T04:00:00Z,30.78,114.22,26.0,19.0,210,6,,6.21,29.793306,,,,,,TRUE,,,,,CAVOK,,,,,,,,VFR,,,,,,,,,,,,METAR,33.0
ZHCC 070400Z 20002MPS 170V240 CAVOK 33/19 Q1005 NOSIG,ZHCC,2023-06-07T04:00:00Z,34.52,113.83,33.0,19.0,200,4,,6.21,29.675198,,,,,,TRUE,,,,,CAVOK,,,,,,,,VFR,,,,,,,,,,,,METAR,149.0
ZGSZ 070400Z 18006MPS 9999 FEW020CB SCT020 32/26 Q1009 NOSIG,ZGSZ,2023-06-07T04:00:00Z,22.63,113.8,32.0,26.0,180,12,,6.21,29.793306,,,,,,TRUE,,,,,FEW,2000,SCT,2000,,,,,VFR,,,,,,,,,,,,METAR,18.0
ZGOW 070400Z 14003MPS 090V200 9999 FEW023 FEW026TCU 32/25 Q1010 NOSIG,ZGOW,2023-06-07T04:00:00Z,23.55,116.5,32.0,25.0,140,6,,6.21,29.822834,,,,,,TRUE,,,,,FEW,2300,FEW,2600,,,,,VFR,,,,,,,,,,,,METAR,4.0
ZGNN 070400Z 36003MPS 9999 -SHRA SCT020 FEW023CB 28/27 Q1007 NOSIG,ZGNN,2023-06-07T04:00:00Z,22.62,108.17,28.0,27.0,360,6,,6.21,29.734253,,,,,,TRUE,,,,-SHRA,SCT,2000,FEW,2300,,,,,VFR,,,,,,,,,,,,METAR,128.0
ZGKL 070400Z VRB01MPS 9999 FEW026 SCT053 BKN066 30/23 Q1009 NOSIG,ZGKL,2023-06-07T04:00:00Z,25.22,110.03,30.0,23.0,0,2,,6.21,29.793306,,,,,,TRUE,,,,,FEW,2600,SCT,5300,BKN,6600,,,VFR,,,,,,,,,,,,METAR,151.0
ZGHA 070400Z 21002MPS 130V290 9999 FEW040 31/22 Q1009 NOSIG,ZGHA,2023-06-07T04:00:00Z,28.18,113.22,31.0,22.0,210,4,,6.21,29.793306,,,,,,TRUE,,,,,FEW,4000,,,,,,,VFR,,,,,,,,,,,,METAR,61.0
ZBSJ 070400Z 25008MPS CAVOK 37/10 Q0999 NOSIG,ZBSJ,2023-06-07T04:00:00Z,38.28,114.7,37.0,10.0,250,16,,6.21,29.498032,,,,,,TRUE,,,,,CAVOK,,,,,,,,VFR,,,,,,,,,,,,METAR,70.0
ZBHH 070400Z 33008G13MPS 300V030 9999 FEW040 29/05 Q1009 NOSIG,ZBHH,2023-06-07T04:00:00Z,40.85,111.82,29.0,5.0,330,16,25,6.21,29.793306,,,,,,TRUE,,,,,FEW,4000,,,,,,,VFR,,,,,,,,,,,,METAR,1081.0
WSAP 070400Z 17015KT 8000 -SHRA FEW014 FEW017CB SCT018TCU 29/24 Q1011,WSAP,2023-06-07T04:00:00Z,1.37,103.92,29.0,24.0,170,15,,4.97,29.852362,,,,,,,,,,-SHRA,FEW,1400,FEW,1700,SCT,1800,,,MVFR,,,,,,,,,,,,METAR,20.0
WMSA 070400Z 15011KT 120V190 9999 FEW018 32/24 Q1010,WMSA,2023-06-07T04:00:00Z,3.13,101.55,32.0,24.0,150,11,,6.21,29.822834,,,,,,,,,,,FEW,1800,,,,,,,VFR,,,,,,,,,,,,METAR,19.0
WMKN 070400Z VRB03KT 9999 FEW020 31/27 Q1010,WMKN,2023-06-07T04:00:00Z,5.37,103.1,31.0,27.0,0,3,,6.21,29.822834,,,,,,,,,,,FEW,2000,,,,,,,VFR,,,,,,,,,,,,METAR,12.0
WMKM 070400Z 16006KT 110V230 8000 FEW020 30/26 Q1011,WMKM,2023-06-07T04:00:00Z,2.27,102.25,30.0,26.0,160,6,,4.97,29.852362,,,,,,,,,,,FEW,2000,,,,,,,MVFR,,,,,,,,,,,,METAR,9.0
WMKL 070400Z VRB03KT 9999 FEW020 31/26 Q1011,WMKL,2023-06-07T04:00:00Z,6.32,99.72,31.0,26.0,0,3,,6.21,29.852362,,,,,,,,,,,FEW,2000,,,,,,,VFR,,,,,,,,,,,,METAR,4.0
WMKJ 070400Z 00000KT 9999 TS FEW017CB SCT018 28/25 Q1011 RESHRA,WMKJ,2023-06-07T04:00:00Z,1.63,103.67,28.0,25.0,0,0,,6.21,29.852362,,,,,,,,,,TS,FEW,1700,SCT,1800,,,,,VFR,,,,,,,,,,,,METAR,38.0
WMKI 070400Z 22006KT 160V260 9999 FEW020 32/25 Q1010,WMKI,2023-06-07T04:00:00Z,4.57,101.08,32.0,25.0,220,6,,6.21,29.822834,,,,,,,,,,,FEW,2000,,,,,,,VFR,,,,,,,,,,,,METAR,37.0
WMKE 070400Z VRB05KT 9999 SCT017 31/26 Q1009,WMKE,2023-06-07T04:00:00Z,4.53,103.43,31.0,26.0,0,5,,6.21,29.793306,,,,,,,,,,,SCT,1700,,,,,,,VFR,,,,,,,,,,,,METAR,5.0
WMKD 070400Z 18007KT 090V250 9999 FEW019 33/25 Q1010 NOSIG,WMKD,2023-06-07T04:00:00Z,3.77,103.22,33.0,25.0,180,7,,6.21,29.822834,,,,,,TRUE,,,,,FEW,1900,,,,,,,VFR,,,,,,,,,,,,METAR,18.0
WMKC 070400Z 36006KT 310V060 9999 FEW018 31/27 Q1010,WMKC,2023-06-07T04:00:00Z,6.17,102.28,31.0,27.0,360,6,,6.21,29.822834,,,,,,,,,,,FEW,1800,,,,,,,VFR,,,,,,,,,,,,METAR,7.0
WMKB 070400Z VRB03KT 9999 FEW020 31/26 Q1010 NOSIG,WMKB,2023-06-07T04:00:00Z,5.47,100.38,31.0,26.0,0,3,,6.21,29.822834,,,,,,TRUE,,,,,FEW,2000,,,,,,,VFR,,,,,,,,,,,,METAR,4.0
WMKA 070400Z 27005KT 220V320 9999 FEW020 32/25 Q1010,WMKA,2023-06-07T04:00:00Z,6.2,100.4,32.0,25.0,270,5,,6.21,29.822834,,,,,,,,,,,FEW,2000,,,,,,,VFR,,,,,,,,,,,,METAR,5.0
WMBA 070400Z VRB04KT 9999 SCT021 32/25 Q1010,WMBA,2023-06-07T04:00:00Z,4.22,100.7,32.0,25.0,0,4,,6.21,29.822834,,,,,,,,,,,SCT,2100,,,,,,,VFR,,,,,,,,,,,,METAR,9.0
WMAU 070400Z 10008KT 050V130 9999 SCT020 31/28 Q1010,WMAU,2023-06-07T04:00:00Z,2.38,103.88,31.0,28.0,100,8,,6.21,29.822834,,,,,,,,,,,SCT,2000,,,,,,,VFR,,,,,,,,,,,,METAR,5.0
WIBB 070400Z 19006KT 160V220 9000 FEW009 28/24 Q1010,WIBB,2023-06-07T04:00:00Z,0.47,101.45,28.0,24.0,190,6,,5.59,29.822834,,,,,,,,,,,FEW,900,,,,,,,VFR,,,,,,,,,,,,METAR,41.0
WBKW 070400Z VRB10KT 9999 VCTS VCSH FEW016CB SCT017 30/26 Q1011,WBKW,2023-06-07T04:00:00Z,4.32,118.12,30.0,26.0,0,10,,6.21,29.852362,,,,,,,,,,VCTS VCSH,FEW,1600,SCT,1700,,,,,VFR,,,,,,,,,,,,METAR,17.0
WBKT 070400Z 08005KT 010V140 9999 FEW014 FEW015CB 31/25 Q1011,WBKT,2023-06-07T04:00:00Z,6.92,116.83,31.0,25.0,80,5,,6.21,29.852362,,,,,,,,,,,FEW,1400,FEW,1500,,,,,VFR,,,,,,,,,,,,METAR,11.0
WBKS 070400Z VRB03KT 9999 FEW016 31/25 Q1010,WBKS,2023-06-07T04:00:00Z,5.9,118.07,31.0,25.0,0,3,,6.21,29.822834,,,,,,,,,,,FEW,1600,,,,,,,VFR,,,,,,,,,,,,METAR,13.0
WBKL 070400Z VRB02KT 9999 FEW014 FEW017CB 31/24 Q1010,WBKL,2023-06-07T04:00:00Z,5.3,115.25,31.0,24.0,0,2,,6.21,29.822834,,,,,,,,,,,FEW,1400,FEW,1700,,,,,VFR,,,,,,,,,,,,METAR,29.0
WBGY 070400Z VRB03KT 9999 FEW018 30/26 Q1011,WBGY,2023-06-07T04:00:00Z,1.22,111.45,30.0,26.0,0,3,,6.21,29.852362,,,,,,,,,,,FEW,1800,,,,,,,VFR,,,,,,,,,,,,METAR,13.0
WBGS 070400Z VRB05KT 9999 SCT018 33/25 Q1011,WBGS,2023-06-07T04:00:00Z,2.27,111.98,33.0,25.0,0,5,,6.21,29.852362,,,,,,,,,,,SCT,1800,,,,,,,VFR,,,,,,,,,,,,METAR,26.0
WBGR 070400Z VRB06KT 9999 SCT016 33/27 Q1010,WBGR,2023-06-07T04:00:00Z,4.32,113.98,33.0,27.0,0,6,,6.21,29.822834,,,,,,,,,,,SCT,1600,,,,,,,VFR,,,,,,,,,,,,METAR,18.0
WBGB 070400Z 14004KT 9999 SCT016 33/26 Q1011,WBGB,2023-06-07T04:00:00Z,3.12,113.02,33.0,26.0,140,4,,6.21,29.852362,,,,,,,,,,,SCT,1600,,,,,,,VFR,,,,,,,,,,,,METAR,34.0
WAQQ 070400Z 11002KT 9999 SCT015 27/25 Q1012,WAQQ,2023-06-07T04:00:00Z,3.33,117.57,27.0,25.0,110,2,,6.21,29.88189,,,,,,,,,,,SCT,1500,,,,,,,VFR,,,,,,,,,,,,METAR,6.0
WAOO 070400Z 11005KT 9999 FEW020 33/24 Q1010 NOSIG,WAOO,2023-06-07T04:00:00Z,-3.45,114.77,33.0,24.0,110,5,,6.21,29.822834,,,,,,TRUE,,,,,FEW,2000,,,,,,,VFR,,,,,,,,,,,,METAR,23.0
WAKK 070400Z 17011KT 9999 BKN015 30/26 Q1009 NOSIG,WAKK,2023-06-07T04:00:00Z,-8.52,140.42,30.0,26.0,170,11,,6.21,29.793306,,,,,,TRUE,,,,,BKN,1500,,,,,,,MVFR,,,,,,,,,,,,METAR,5.0
VYNT 070400Z 22010KT 7000 SCT020 FEW024TCU SCT120 32/24 Q1005 NOSIG,VYNT,2023-06-07T04:00:00Z,19.62,96.2,32.0,24.0,220,10,,4.35,29.675198,,,,,,TRUE,,,,,SCT,2000,FEW,2400,SCT,12000,,,MVFR,,,,,,,,,,,,METAR,610.0
VTUW 070400Z VRB02KT 9999 BKN025 31/25 Q1008 NOSIG,VTUW,2023-06-07T04:00:00Z,17.38,104.63,31.0,25.0,0,2,,6.21,29.763779,,,,,,TRUE,,,,,BKN,2500,,,,,,,MVFR,,,,,,,,,,,,METAR,167.0
VTUV 070400Z 23006KT 9000 FEW015 SCT030 29/25 Q1008 NOSIG,VTUV,2023-06-07T04:00:00Z,16.12,103.78,29.0,25.0,230,6,,5.59,29.763779,,,,,,TRUE,,,,,FEW,1500,SCT,3000,,,,,VFR,,,,,,,,,,,,METAR,136.0
VTUU 070400Z 23005KT 180V290 9999 -RA SCT020 BKN045 29/26 Q1009 NOSIG,VTUU,2023-06-07T04:00:00Z,15.25,104.87,29.0,26.0,230,5,,6.21,29.793306,,,,,,TRUE,,,,-RA,SCT,2000,BKN,4500,,,,,VFR,,,,,,,,,,,,METAR,119.0
VTUQ 070400Z 22007KT 170V270 9999 SCT030 33/23 Q1008 NOSIG,VTUQ,2023-06-07T04:00:00Z,14.95,102.32,33.0,23.0,220,7,,6.21,29.763779,,,,,,TRUE,,,,,SCT,3000,,,,,,,VFR,,,,,,,,,,,,METAR,225.0
VTUO 070400Z 20009KT 9999 SCT025 31/25 Q1008 NOSIG,VTUO,2023-06-07T04:00:00Z,15.23,103.25,31.0,25.0,200,9,,6.21,29.763779,,,,,,TRUE,,,,,SCT,2500,,,,,,,VFR,,,,,,,,,,,,METAR,182.0
VTUL 070400Z 10004KT 010V170 9999 SCT030 31/25 Q1007 NOSIG,VTUL,2023-06-07T04:00:00Z,17.43,101.72,31.0,25.0,100,4,,6.21,29.734253,,,,,,TRUE,,,,,SCT,3000,,,,,,,VFR,,,,,,,,,,,,METAR,257.0
VTUK 070400Z 22006KT 160V280 9999 BKN025 30/25 Q1008 NOSIG,VTUK,2023-06-07T04:00:00Z,16.47,102.78,30.0,25.0,220,6,,6.21,29.763779,,,,,,TRUE,,,,,BKN,2500,,,,,,,MVFR,,,,,,,,,,,,METAR,190.0
VTUI 070400Z VRB02KT 9999 FEW015 BKN030 BKN080 30/25 Q1008 NOSIG,VTUI,2023-06-07T04:00:00Z,17.2,104.12,30.0,25.0,0,2,,6.21,29.763779,,,,,,TRUE,,,,,FEW,1500,BKN,3000,BKN,8000,,,MVFR,,,,,,,,,,,,METAR,162.0
VTUD 070400Z VRB03KT 9999 FEW020 30/24 Q1007 NOSIG,VTUD,2023-06-07T04:00:00Z,17.37,102.78,30.0,24.0,0,3,,6.21,29.734253,,,,,,TRUE,,,,,FEW,2000,,,,,,,VFR,,,,,,,,,,,,METAR,177.0
VTSY 070400Z 07004KT 010V180 9999 FEW030 31/22 Q1012 NOSIG,VTSY,2023-06-07T04:00:00Z,5.78,101.15,31.0,22.0,70,4,,6.21,29.88189,,,,,,TRUE,,,,,FEW,3000,,,,,,,VFR,,,,,,,,,,,,METAR,225.0
VTST 070400Z 17005KT 140V200 9999 SCT025 30/27 Q1010 NOSIG,VTST,2023-06-07T04:00:00Z,7.52,99.62,30.0,27.0,170,5,,6.21,29.822834,,,,,,TRUE,,,,,SCT,2500,,,,,,,VFR,,,,,,,,,,,,METAR,17.0
VTSR 070400Z 18003KT 5000 -RA BR BKN020 24/22 Q1011 RERA NOSIG,VTSR,2023-06-07T04:00:00Z,9.78,98.58,24.0,22.0,180,3,,3.11,29.852362,,,,,,TRUE,,,,-RA BR,BKN,2000,,,,,,,MVFR,,,,,,,,,,,,METAR,23.0
VTSM 070400Z 27009KT 9999 FEW020 32/25 Q1010 NOSIG,VTSM,2023-06-07T04:00:00Z,9.55,100.07,32.0,25.0,270,9,,6.21,29.822834,,,,,,TRUE,,,,,FEW,2000,,,,,,,VFR,,,,,,,,,,,,METAR,12.0
VTSG 070400Z 28005KT 9999 -RA FEW020CB SCT040 BKN070 25/25 Q1011 RETSRA NOSIG,VTSG,2023-06-07T04:00:00Z,8.1,98.98,25.0,25.0,280,5,,6.21,29.852362,,,,,,TRUE,,,,-RA,FEW,2000,SCT,4000,BKN,7000,,,VFR,,,,,,,,,,,,METAR,32.0
VTSF 070400Z VRB03KT 9999 SCT018 35/25 Q1009 NOSIG,VTSF,2023-06-07T04:00:00Z,8.53,99.95,35.0,25.0,0,3,,6.21,29.793306,,,,,,TRUE,,,,,SCT,1800,,,,,,,VFR,,,,,,,,,,,,METAR,6.0
VTSE 070400Z 25010KT 9000 -RA FEW020 BKN100 27/24 Q1009 NOSIG,VTSE,2023-06-07T04:00:00Z,10.72,99.37,27.0,24.0,250,10,,5.59,29.793306,,,,,,TRUE,,,,-RA,FEW,2000,BKN,10000,,,,,VFR,,,,,,,,,,,,METAR,8.0
VTSC 070400Z 02003KT 330V050 9999 FEW020 32/25 Q1011 NOSIG,VTSC,2023-06-07T04:00:00Z,6.52,101.75,32.0,25.0,20,3,,6.21,29.852362,,,,,,TRUE,,,,,FEW,2000,,,,,,,VFR,,,,,,,,,,,,METAR,5.0
VTSB 070400Z 28005KT 240V320 9999 4000W -RA FEW018CB SCT020 30/26 Q1009 TEMPO TL0425 1500 +TSRA,VTSB,2023-06-07T04:00:00Z,9.12,99.15,30.0,26.0,280,5,,6.21,29.793306,,,,,,,,,,-RA,FEW,1800,SCT,2000,,,,,VFR,,,,,,,,,,,,METAR,10.0
VTPT 070400Z /////KT 9999 BKN026 33/25 Q1007 NOSIG,VTPT,2023-06-07T04:00:00Z,16.88,99.25,33.0,25.0,,,,6.21,29.734253,,,,,,TRUE,,,,,BKN,2600,,,,,,,MVFR,,,,,,,,,,,,METAR,148.0
VTPP 070400Z 17007KT 9999 BKN020 31/25 Q1007 NOSIG,VTPP,2023-06-07T04:00:00Z,16.78,100.28,31.0,25.0,170,7,,6.21,29.734253,,,,,,TRUE,,,,,BKN,2000,,,,,,,MVFR,,,,,,,,,,,,METAR,45.0
VTPO 070400Z 15003KT 9999 BKN035 30/25 Q1007 NOSIG,VTPO,2023-06-07T04:00:00Z,17.23,99.82,30.0,25.0,150,3,,6.21,29.734253,,,,,,TRUE,,,,,BKN,3500,,,,,,,VFR,,,,,,,,,,,,METAR,58.0
VTPM 070400Z VRB03KT 9999 FEW025 BKN045 30/25 Q1007 NOSIG,VTPM,2023-06-07T04:00:00Z,16.7,98.53,30.0,25.0,0,3,,6.21,29.734253,,,,,,TRUE,,,,,FEW,2500,BKN,4500,,,,,VFR,,,,,,,,,,,,METAR,211.0
VTPH 070400Z VRB07KT 9999 SCT040 30/23 Q1008 NOSIG,VTPH,2023-06-07T04:00:00Z,12.63,99.95,30.0,23.0,0,7,,6.21,29.763779,,,,,,TRUE,,,,,SCT,4000,,,,,,,VFR,,,,,,,,,,,,METAR,12.0
VTPB 070400Z 16007KT 130V190 6000 FEW030 32/26 Q1007 NOSIG,VTPB,2023-06-07T04:00:00Z,16.67,101.2,32.0,26.0,160,7,,3.73,29.734253,,,,,,TRUE,,,,,FEW,3000,,,,,,,MVFR,,,,,,,,,,,,METAR,134.0
VTCT 070400Z 10004KT 8000 FEW013 SCT020 25/25 Q1008 NOSIG,VTCT,2023-06-07T04:00:00Z,19.95,99.88,25.0,25.0,100,4,,4.97,29.763779,,,,,,TRUE,,,,,FEW,1300,SCT,2000,,,,,MVFR,,,,,,,,,,,,METAR,389.0
VTCP 070400Z 13004KT 050V180 9999 FEW044 32/25 Q1007 NOSIG,VTCP,2023-06-07T04:00:00Z,18.13,100.17,32.0,25.0,130,4,,6.21,29.734253,,,,,,TRUE,,,,,FEW,4400,,,,,,,VFR,,,,,,,,,,,,METAR,166.0
VTCN 070400Z 14005KT 110V180 9999 FEW015 BKN020 28/25 Q1007 NOSIG,VTCN,2023-06-07T04:00:00Z,18.82,100.78,28.0,25.0,140,5,,6.21,29.734253,,,,,,TRUE,,,,,FEW,1500,BKN,2000,,,,,MVFR,,,,,,,,,,,,METAR,211.0
VTCL 070400Z VRB02KT 9999 BKN025 29/25 Q1007 NOSIG,VTCL,2023-06-07T04:00:00Z,18.27,99.52,29.0,25.0,0,2,,6.21,29.734253,,,,,,TRUE,,,,,BKN,2500,,,,,,,MVFR,,,,,,,,,,,,METAR,240.0
VTCH 070400Z VRB03KT 9000 FEW015 BKN025 29/24 Q1007 NOSIG,VTCH,2023-06-07T04:00:00Z,19.3,97.98,29.0,24.0,0,3,,5.59,29.734253,,,,,,TRUE,,,,,FEW,1500,BKN,2500,,,,,MVFR,,,,,,,,,,,,METAR,266.0
VTBO 070400Z 17002KT 5000 RA BR FEW012 BKN100 25/24 Q1010,VTBO,2023-06-07T04:00:00Z,12.28,102.32,25.0,24.0,170,2,,3.11,29.822834,,,,,,,,,,RA BR,FEW,1200,BKN,10000,,,,,MVFR,,,,,,,,,,,,METAR,25.0
VRMH 070400Z 30011KT 9999 FEW017 FEW018CB BKN110 29/26 Q1012 CB WNW,VRMH,2023-06-07T04:00:00Z,6.75,73.17,29.0,26.0,300,11,,6.21,29.88189,,,,,,,,,,,FEW,1700,FEW,1800,BKN,11000,,,VFR,,,,,,,,,,,,METAR,1.0
VRMG 070400Z 17006KT 9999 SCT018TCU 31/26 Q1012 NOSIG,VRMG,2023-06-07T04:00:00Z,-0.7,73.15,31.0,26.0,170,6,,6.21,29.88189,,,,,,TRUE,,,,,SCT,1800,,,,,,,VFR,,,,,,,,,,,,METAR,2.0
VOTK 070400Z 25006KT 6000 FEW020 33/21 Q1008 NOSIG,VOTK,2023-06-07T04:00:00Z,8.72,78.02,33.0,21.0,250,6,,3.73,29.763779,,,,,,TRUE,,,,,FEW,2000,,,,,,,MVFR,,,,,,,,,,,,METAR,25.0
VOSM 070400Z 27005KT 6000 FEW020 31/22 Q1009 NOSIG,VOSM,2023-06-07T04:00:00Z,11.78,78.07,31.0,22.0,270,5,,3.73,29.793306,,,,,,TRUE,,,,,FEW,2000,,,,,,,MVFR,,,,,,,,,,,,METAR,301.0
VOMY 070400Z 25009KT 8000 SCT015 27/22 Q1014,VOMY,2023-06-07T04:00:00Z,12.23,76.65,27.0,22.0,250,9,,4.97,29.940945,,,,,,,,,,,SCT,1500,,,,,,,MVFR,,,,,,,,,,,,METAR,727.0
VOJV 070400Z 30008KT 6000 FEW015 30/22 Q1012,VOJV,2023-06-07T04:00:00Z,15.17,76.63,30.0,22.0,300,8,,3.73,29.88189,,,,,,,,,,,FEW,1500,,,,,,,MVFR,,,,,,,,,,,,METAR,508.0
VOBM 070400Z 30009KT 6000 SCT012 28/21 Q1014,VOBM,2023-06-07T04:00:00Z,15.85,74.62,28.0,21.0,300,9,,3.73,29.940945,,,,,,,,,,,SCT,1200,,,,,,,MVFR,,,,,,,,,,,,METAR,758.0
VLVT 070400Z 09006KT 7000 BKN010 BKN083 29/25 Q1007 NOSIG,VLVT,2023-06-07T04:00:00Z,17.98,102.57,29.0,25.0,90,6,,4.35,29.734253,,,,,,TRUE,,,,,BKN,1000,BKN,8300,,,,,MVFR,,,,,,,,,,,,METAR,171.0
VLSK 070400Z 27004KT 7000 DZ SCT017 OVC093 27/24 Q1010 NOSIG,VLSK,2023-06-07T04:00:00Z,16.55,104.75,27.0,24.0,270,4,,4.35,29.822834,,,,,,TRUE,,,,DZ,SCT,1700,OVC,9300,,,,,MVFR,,,,,,,,,,,,METAR,148.0
VLPS 070400Z 14006KT 9999 FEW017 BKN050 27/25 Q1009 NOSIG,VLPS,2023-06-07T04:00:00Z,15.13,105.78,27.0,25.0,140,6,,6.21,29.793306,,,,,,TRUE,,,,,FEW,1700,BKN,5000,,,,,VFR,,,,,,,,,,,,METAR,102.0
VLLN 070400Z 27002KT 9999 SCT020 30/24 Q1009 NOSIG,VLLN,2023-06-07T04:00:00Z,20.97,101.4,30.0,24.0,270,2,,6.21,29.793306,,,,,,TRUE,,,,,SCT,2000,,,,,,,VFR,,,,,,,,,,,,METAR,548.0
VLLB 070400Z 36004KT 9999 SCT020 SCT060 31/24 Q1007 NOSIG,VLLB,2023-06-07T04:00:00Z,19.9,102.17,31.0,24.0,360,4,,6.21,29.734253,,,,,,TRUE,,,,,SCT,2000,SCT,6000,,,,,VFR,,,,,,,,,,,,METAR,297.0
VIBR 070400Z 00000KT 7000 SCT035 BKN080 20/12 Q1014,VIBR,2023-06-07T04:00:00Z,31.82,77.15,20.0,12.0,0,0,,4.35,29.940945,,,,,,,,,,,SCT,3500,BKN,8000,,,,,MVFR,,,,,,,,,,,,METAR,1089.0
VGEG 070400Z 23010KT 4000 RA SCT009 FEW028CB OVC090 28/27 Q1004 NOSIG,VGEG,2023-06-07T04:00:00Z,22.23,91.82,28.0,27.0,230,10,,2.49,29.64567,,,,,,TRUE,,,,RA,SCT,900,FEW,2800,OVC,9000,,,IFR,,,,,,,,,,,,METAR,7.0
VELR 070400Z 36002KT 4000 HZ SCT018 BKN090 33/27 Q1004,VELR,2023-06-07T04:00:00Z,27.3,94.1,33.0,27.0,360,2,,2.49,29.64567,,,,,,,,,,HZ,SCT,1800,BKN,9000,,,,,IFR,,,,,,,,,,,,METAR,101.0
VEKI 070400Z VRB03KT 4000 HZ NSC 35/20 Q1003 NOSIG,VEKI,2023-06-07T04:00:00Z,26.78,83.88,35.0,20.0,0,3,,2.49,29.616142,,,,,,TRUE,,,,HZ,CLR,,,,,,,,IFR,,,,,,,,,,,,METAR,81.0
VEJS 070400Z 27003KT 3500 HZ SCT020 BKN100 30/23 Q1004,VEJS,2023-06-07T04:00:00Z,22.82,86.17,30.0,23.0,270,3,,2.17,29.64567,,,,,,,,,,HZ,SCT,2000,BKN,10000,,,,,IFR,,,,,,,,,,,,METAR,151.0
VARK 070400Z 24008KT 6000 SCT020 31/24 Q1007 NOSIG,VARK,2023-06-07T04:00:00Z,22.3,70.77,31.0,24.0,240,8,,3.73,29.734253,,,,,,TRUE,,,,,SCT,2000,,,,,,,MVFR,,,,,,,,,,,,METAR,125.0
VAPR 070400Z 24012KT 6000 FEW020 SCT025 32/25 Q1007 NOSIG,VAPR,2023-06-07T04:00:00Z,21.63,69.67,32.0,25.0,240,12,,3.73,29.734253,,,,,,TRUE,,,,,FEW,2000,SCT,2500,,,,,MVFR,,,,,,,,,,,,METAR,8.0
UWOR 070400Z 29008MPS 9999 BKN046 18/15 Q1007 R25/CLRD65 NOSIG RMK QFE732/0976,UWOR,2023-06-07T04:00:00Z,51.07,58.6,18.0,15.0,290,16,,6.21,29.734253,,,,,,TRUE,,,,,BKN,4600,,,,,,,VFR,,,,,,,,,,,,METAR,270.0
UWLW 070400Z 31005MPS CAVOK 17/09 Q1016 R02/CLRD60 NOSIG RMK QFE755/1007,UWLW,2023-06-07T04:00:00Z,54.4,48.8,17.0,9.0,310,10,,6.21,30.0,,,,,,TRUE,,,,,CAVOK,,,,,,,,VFR,,,,,,,,,,,,METAR,67.0
UTAV 070400Z 06004KT CAVOK 33/07 Q1008 R31/CLRD70 NOSIG,UTAV,2023-06-07T04:00:00Z,39.08,63.62,33.0,7.0,60,4,,6.21,29.763779,,,,,,TRUE,,,,,CAVOK,,,,,,,,VFR,,,,,,,,,,,,METAR,187.0
UTAT 070400Z 03008KT CAVOK 31/13 Q1010 R08/CLRD70 NOSIG,UTAT,2023-06-07T04:00:00Z,41.77,59.83,31.0,13.0,30,8,,6.21,29.822834,,,,,,TRUE,,,,,CAVOK,,,,,,,,VFR,,,,,,,,,,,,METAR,84.0
UTAM 070400Z 22008KT CAVOK 31/07 Q1008 R88/CLRD70 NOSIG,UTAM,2023-06-07T04:00:00Z,37.62,61.9,31.0,7.0,220,8,,6.21,29.763779,,,,,,TRUE,,,,,CAVOK,,,,,,,,VFR,,,,,,,,,,,,METAR,218.0
UTAK 070400Z 34008KT CAVOK 21/17 Q1014 R34L/CLRD70 NOSIG,UTAK,2023-06-07T04:00:00Z,40.05,53.0,21.0,17.0,340,8,,6.21,29.940945,,,,,,TRUE,,,,,CAVOK,,,,,,,,VFR,,,,,,,,,,,,METAR,83.0
UTAA 070400Z 31008KT 280V340 9999 FEW050CB SCT050 BKN100 31/15 Q1012 R88/70D NOSIG,UTAA,2023-06-07T04:00:00Z,37.98,58.37,31.0,15.0,310,8,,6.21,29.88189,,,,,,TRUE,,,,,FEW,5000,SCT,5000,BKN,10000,,,VFR,,,,,,,,,,,,METAR,207.0
URMN 070400Z 09001MPS 9999 -SHRA BKN008 BKN026CB 14/13 Q1020 R24/////// NOSIG RMK MT OBSC QFE728,URMN,2023-06-07T04:00:00Z,43.52,43.63,14.0,13.0,90,2,,6.21,30.11811,,,,,,TRUE,,,,-SHRA,BKN,800,BKN,2600,,,,,IFR,,,,,,,,,,,,METAR,424.0
UMOO 070400Z 18002MPS CAVOK 13/08 Q1022 NOSIG,UMOO,2023-06-07T04:00:00Z,53.95,30.1,13.0,8.0,180,4,,6.21,30.177166,,,,,,TRUE,,,,,CAVOK,,,,,,,,VFR,,,,,,,,,,,,METAR,188.0
UMMG 070400Z VRB01MPS CAVOK 13/09 Q1020 NOSIG,UMMG,2023-06-07T04:00:00Z,53.6,24.05,13.0,9.0,0,2,,6.21,30.11811,,,,,,TRUE,,,,,CAVOK,,,,,,,,VFR,,,,,,,,,,,,METAR,125.0
UMBB 070400Z 09003MPS 7000 SCT050 SCT100 14/08 Q1018 NOSIG,UMBB,2023-06-07T04:00:00Z,52.12,23.9,14.0,8.0,90,6,,4.35,30.059055,,,,,,TRUE,,,,,SCT,5000,SCT,10000,,,,,MVFR,,,,,,,,,,,,METAR,138.0
UHMM 070400Z 22007MPS 9999 BKN040CB 18/04 Q1010 WS R10 R10/70D NOSIG RMK QFE742 R28/26006MPS,UHMM,2023-06-07T04:00:00Z,59.92,150.72,18.0,4.0,220,14,,6.21,29.822834,,,,,,TRUE,,,,,BKN,4000,,,,,,,VFR,,,,,,,,,,,,METAR,175.0
UBEE 070400Z 10004KT 9999 SCT040 BKN083 21/17 Q1017 NOSIG,UBEE,2023-06-07T04:00:00Z,40.63,47.13,21.0,17.0,100,4,,6.21,30.029528,,,,,,TRUE,,,,,SCT,4000,BKN,8300,,,,,VFR,,,,,,,,,,,,METAR,14.0
UBBY 070400Z 08006KT 6000 -TSRA SCT030CB OVC045 15/15 Q1021 NOSIG RMK MT OBSC,UBBY,2023-06-07T04:00:00Z,41.57,46.67,15.0,15.0,80,6,,3.73,30.147638,,,,,,TRUE,,,,-TSRA,SCT,3000,OVC,4500,,,,,MVFR,,,,,,,,,,,,METAR,383.0
UBBQ 070400Z 00000KT 9999 BKN063 18/16 Q1018 NOSIG RMK MT OBSC,UBBQ,2023-06-07T04:00:00Z,40.82,47.72,18.0,16.0,0,0,,6.21,30.059055,,,,,,TRUE,,,,,BKN,6300,,,,,,,VFR,,,,,,,,,,,,METAR,339.0
UBBL 070400Z VRB02KT 9999 BKN100 23/17 Q1017 NOSIG RMK MT OP,UBBL,2023-06-07T04:00:00Z,38.75,48.82,23.0,17.0,0,2,,6.21,30.029528,,,,,,TRUE,,,,,BKN,10000,,,,,,,VFR,,,,,,,,,,,,METAR,-11.0
TTPP 070400Z 00000KT 9999 FEW018 26/24 Q1015 NOSIG,TTPP,2023-06-07T04:00:00Z,10.58,-61.35,26.0,24.0,0,0,,6.21,29.970472,,,,,,TRUE,,,,,FEW,1800,,,,,,,VFR,,,,,,,,,,,,METAR,11.0
TTCP 070400Z 07003KT 9999 FEW018 27/24 Q1014 NOSIG,TTCP,2023-06-07T04:00:00Z,11.15,-60.85,27.0,24.0,70,3,,6.21,29.940945,,,,,,TRUE,,,,,FEW,1800,,,,,,,VFR,,,,,,,,,,,,METAR,13.0
TNCM 070400Z 09009KT 060V130 9999 FEW016 28/25 Q1017 ,TNCM,2023-06-07T04:00:00Z,18.05,-63.12,28.0,25.0,90,9,,6.21,30.029528,,,,,,,,,,,FEW,1600,,,,,,,VFR,,,,,,,,,,,,METAR,9.0
TNCC 070400Z 11009KT 080V140 9999 FEW018 28/25 Q1012 NOSIG,TNCC,2023-06-07T04:00:00Z,12.2,-68.97,28.0,25.0,110,9,,6.21,29.88189,,,,,,TRUE,,,,,FEW,1800,,,,,,,VFR,,,,,,,,,,,,METAR,10.0
TLPL 070400Z 09016KT 9999 BKN022 28/26 Q1015 NOSIG,TLPL,2023-06-07T04:00:00Z,13.75,-60.95,28.0,26.0,90,16,,6.21,29.970472,,,,,,TRUE,,,,,BKN,2200,,,,,,,MVFR,,,,,,,,,,,,METAR,13.0
TGPY 070400Z 09012KT 9999 FEW019 28/25 Q1014 NOSIG,TGPY,2023-06-07T04:00:00Z,12.0,-61.78,28.0,25.0,90,12,,6.21,29.940945,,,,,,TRUE,,,,,FEW,1900,,,,,,,VFR,,,,,,,,,,,,METAR,12.0
TBPB 070400Z 08011KT 9999 SCT022 27/25 Q1015 NOSIG,TBPB,2023-06-07T04:00:00Z,13.07,-59.48,27.0,25.0,80,11,,6.21,29.970472,,,,,,TRUE,,,,,SCT,2200,,,,,,,VFR,,,,,,,,,,,,METAR,55.0
TAPA 070400Z 11006KT 050V150 9999 SCT020 27/24 Q1016 NOSIG,TAPA,2023-06-07T04:00:00Z,17.13,-61.78,27.0,24.0,110,6,,6.21,30.0,,,,,,TRUE,,,,,SCT,2000,,,,,,,VFR,,,,,,,,,,,,METAR,15.0
SYCJ 070400Z 00000KT 9999 FEW016 25/25 Q1014 NOSIG,SYCJ,2023-06-07T04:00:00Z,6.5,-58.25,25.0,25.0,0,0,,6.21,29.940945,,,,,,TRUE,,,,,FEW,1600,,,,,,,VFR,,,,,,,,,,,,METAR,30.0
SUMU 070400Z 33004KT 9999 BKN030 BKN090 18/18 Q1014 NOSIG,SUMU,2023-06-07T04:00:00Z,-34.83,-56.02,18.0,18.0,330,4,,6.21,29.940945,,,,,,TRUE,,,,,BKN,3000,BKN,9000,,,,,MVFR,,,,,,,,,,,,METAR,32.0
SULS 070400Z 33007KT CAVOK 20/17 Q1013,SULS,2023-06-07T04:00:00Z,-34.87,-55.1,20.0,17.0,330,7,,6.21,29.911417,,,,,,,,,,,CAVOK,,,,,,,,VFR,,,,,,,,,,,,METAR,22.0
SPZO 070400Z 28002KT 9999 NSC 08/02 Q1033 NOSIG RMK BIRD HAZARD RWY 10/28 PP000,SPZO,2023-06-07T04:00:00Z,-13.55,-71.93,8.0,2.0,280,2,,6.21,30.501968,,,,,,TRUE,,,,,CLR,,,,,,,,VFR,,,,,,,,,,,,METAR,3249.0
SPUR 070400Z 19008KT 9999 SCT040 SCT100 25/21 Q1014 RMK BIRD HAZARD RWY 19/01 PP000,SPUR,2023-06-07T04:00:00Z,-5.17,-80.58,25.0,21.0,190,8,,6.21,29.940945,,,,,,,,,,,SCT,4000,SCT,10000,,,,,VFR,,,,,,,,,,,,SPECI,55.0
SPTN 070400Z 16004KT 140V220 9999 OVC026 16/13 Q1017 RMK PP000,SPTN,2023-06-07T04:00:00Z,-18.03,-70.28,16.0,13.0,160,4,,6.21,30.029528,,,,,,,,,,,OVC,2600,,,,,,,MVFR,,,,,,,,,,,,METAR,459.0
SPSO 070400Z 08003KT 9999 BKN026 18/15 Q1015 RMK PP000,SPSO,2023-06-07T04:00:00Z,-13.73,-76.22,18.0,15.0,80,3,,6.21,29.970472,,,,,,,,,,,BKN,2600,,,,,,,MVFR,,,,,,,,,,,,METAR,8.0
SPRU 070400Z 13006KT 5000 BR NSC 22/20 Q1014 RMK PP000,SPRU,2023-06-07T04:00:00Z,-8.08,-79.12,22.0,20.0,130,6,,3.11,29.940945,,,,,,,,,,BR,CLR,,,,,,,,MVFR,,,,,,,,,,,,SPECI,23.0
SPQU 070400Z 01006KT CAVOK 11/M08 Q1029 RMK PP000,SPQU,2023-06-07T04:00:00Z,-16.33,-71.57,11.0,-8.0,10,6,,6.21,30.383858,,,,,,,,,,,CAVOK,,,,,,,,VFR,,,,,,,,,,,,METAR,2527.0
SPQT 070400Z VRB01KT 9999 FEW003 BKN100 23/22 Q1014 NOSIG RMK PP000,SPQT,2023-06-07T04:00:00Z,-3.78,-73.32,23.0,22.0,0,1,,6.21,29.940945,,,,,,TRUE,,,,,FEW,300,BKN,10000,,,,,VFR,,,,,,,,,,,,METAR,92.0
SPJC 070400Z 16011KT 9999 BKN023 23/18 Q1014 TREND NOSIG PP000,SPJC,2023-06-07T04:00:00Z,-12.02,-77.12,23.0,18.0,160,11,,6.21,29.940945,,,,,,TRUE,,,,,BKN,2300,,,,,,,MVFR,,,,,,,,,,,,METAR,26.0
SPHI 070400Z 17010KT CAVOK 24/20 Q1014 RMK BIRD HAZARD RWY 19/01 PP000,SPHI,2023-06-07T04:00:00Z,-6.78,-79.82,24.0,20.0,170,10,,6.21,29.940945,,,,,,,,,,,CAVOK,,,,,,,,VFR,,,,,,,,,,,,SPECI,33.0
SMJP 070400Z 00000KT 2500 BR SCT003 24/24 Q1014 NOSIG,SMJP,2023-06-07T04:00:00Z,5.45,-55.18,24.0,24.0,0,0,,1.55,29.940945,,,,,,TRUE,,,,BR,SCT,300,,,,,,,IFR,,,,,,,,,,,,METAR,14.0
SLVR 070400Z 35004KT 9999 FEW025 22/21 Q1014,SLVR,2023-06-07T04:00:00Z,-17.63,-63.13,22.0,21.0,350,4,,6.21,29.940945,,,,,,,,,,,FEW,2500,,,,,,,VFR,,,,,,,,,,,,METAR,377.0
SLLP 070400Z 02004KT 9999 NSC 03/M11 Q1040,SLLP,2023-06-07T04:00:00Z,-16.52,-68.17,3.0,-11.0,20,4,,6.21,30.708662,,,,,,,,,,,CLR,,,,,,,,VFR,,,,,,,,,,,,METAR,4061.0
SLCB 070400Z VRB02KT 9999 NSC 10/00 Q1025,SLCB,2023-06-07T04:00:00Z,-17.42,-66.18,10.0,0.0,0,2,,6.21,30.265747,,,,,,,,,,,CLR,,,,,,,,VFR,,,,,,,,,,,,METAR,2560.0
SKVP 070400Z 00000KT 9999 FEW015 SCT200 26/25 Q1012 RMK A2990,SKVP,2023-06-07T04:00:00Z,10.43,-73.25,26.0,25.0,0,0,,6.21,29.88189,,,,,,,,,,,FEW,1500,SCT,20000,,,,,VFR,,,,,,,,,,,,SPECI,137.0
SKSP 070400Z 03006KT 9999 FEW017 BKN200 29/26 Q1012 RMK A2990,SKSP,2023-06-07T04:00:00Z,12.58,-81.72,29.0,26.0,30,6,,6.21,29.88189,,,,,,,,,,,FEW,1700,BKN,20000,,,,,VFR,,,,,,,,,,,,METAR,6.0
SKSM 070400Z 07004KT 9999 FEW020 BKN080 27/24 Q1012 RMK A2989,SKSM,2023-06-07T04:00:00Z,11.12,-74.22,27.0,24.0,70,4,,6.21,29.88189,,,,,,,,,,,FEW,2000,BKN,8000,,,,,VFR,,,,,,,,,,,,METAR,5.0
SKRG 070400Z VRB02KT 9999 BKN010 SCT080 15/15 Q1028 NOSIG RMK A3036,SKRG,2023-06-07T04:00:00Z,6.17,-75.42,15.0,15.0,0,2,,6.21,30.35433,,,,,,TRUE,,,,,BKN,1000,SCT,8000,,,,,MVFR,,,,,,,,,,,,METAR,2132.0
SKPE 070400Z 10006KT 9999 FEW020 SCT090 21/18 Q1019 RMK A3012,SKPE,2023-06-07T04:00:00Z,4.82,-75.73,21.0,18.0,100,6,,6.21,30.088583,,,,,,,,,,,FEW,2000,SCT,9000,,,,,VFR,,,,,,,,,,,,METAR,1341.0
SKMR 070400Z VRB02KT 9999 FEW015 27/26 Q1011 RMK A2987,SKMR,2023-06-07T04:00:00Z,8.82,-75.83,27.0,26.0,0,2,,6.21,29.852362,,,,,,,,,,,FEW,1500,,,,,,,VFR,,,,,,,,,,,,SPECI,12.0
SKLT 070400Z 00000KT 9999 FEW010 BKN080 24/24 Q1013 RMK A2994,SKLT,2023-06-07T04:00:00Z,-4.2,-69.93,24.0,24.0,0,0,,6.21,29.911417,,,,,,,,,,,FEW,1000,BKN,8000,,,,,VFR,,,,,,,,,,,,METAR,78.0
SKCL 070400Z 19004KT 9999 FEW023 BKN120 21/20 Q1018 NOSIG RMK A3007,SKCL,2023-06-07T04:00:00Z,3.53,-76.37,21.0,20.0,190,4,,6.21,30.059055,,,,,,TRUE,,,,,FEW,2300,BKN,12000,,,,,VFR,,,,,,,,,,,,METAR,967.0
SKCG 070400Z 02004KT 350V050 9999 DZ FEW015 29/26 Q1011 RMK A2984,SKCG,2023-06-07T04:00:00Z,10.43,-75.52,29.0,26.0,20,4,,6.21,29.852362,,,,,,,,,,DZ,FEW,1500,,,,,,,VFR,,,,,,,,,,,,METAR,6.0
SKCC 070400Z VRB02KT 9999 FEW025 25/20 Q1014 RMK A2995,SKCC,2023-06-07T04:00:00Z,7.92,-72.52,25.0,20.0,0,2,,6.21,29.940945,,,,,,,,,,,FEW,2500,,,,,,,VFR,,,,,,,,,,,,METAR,308.0
SKBQ 070400Z 02005KT 9999 SCT012 SCT080 29/27 Q1011 NOSIG RMK A2988,SKBQ,2023-06-07T04:00:00Z,10.87,-74.77,29.0,27.0,20,5,,6.21,29.852362,,,,,,TRUE,,,,,SCT,1200,SCT,8000,,,,,VFR,,,,,,,,,,,,METAR,23.0
SKBO 070400Z 06004KT 9999 BKN018 13/10 Q1030 NOSIG RMK A3042,SKBO,2023-06-07T04:00:00Z,4.7,-74.15,13.0,10.0,60,4,,6.21,30.413385,,,,,,TRUE,,,,,BKN,1800,,,,,,,MVFR,,,,,,,,,,,,METAR,2547.0
SKBG 070400Z 00000KT 9999 FEW010 BKN040 21/20 Q1017 RMK A3005,SKBG,2023-06-07T04:00:00Z,7.13,-73.18,21.0,20.0,0,0,,6.21,30.029528,,,,,,,,,,,FEW,1000,BKN,4000,,,,,VFR,,,,,,,,,,,,METAR,1187.0
SKAR 070400Z 00000KT 9999 SCT023 SCT100 21/21 Q1019 RMK A3009,SKAR,2023-06-07T04:00:00Z,4.45,-75.77,21.0,21.0,0,0,,6.21,30.088583,,,,,,,,,,,SCT,2300,SCT,10000,,,,,VFR,,,,,,,,,,,,METAR,1214.0
SGES 070400Z 09005KT CAVOK 16/14 Q1018,SGES,2023-06-07T04:00:00Z,-25.45,-54.85,16.0,14.0,90,5,,6.21,30.059055,,,,,,,,,,,CAVOK,,,,,,,,VFR,,,,,,,,,,,,METAR,256.0
SGAS 070400Z 09006KT CAVOK 20/17 Q1015,SGAS,2023-06-07T04:00:00Z,-25.25,-57.52,20.0,17.0,90,6,,6.21,29.970472,,,,,,,,,,,CAVOK,,,,,,,,VFR,,,,,,,,,,,,METAR,83.0
SEQM 070400Z 02004KT 9999 OVC005 14/13 Q1029 NOSIG RMK A3038,SEQM,2023-06-07T04:00:00Z,-0.12,-78.35,14.0,13.0,20,4,,6.21,30.383858,,,,,,TRUE,,,,,OVC,500,,,,,,,IFR,,,,,,,,,,,,METAR,2386.0
SEMT 070400Z 18003KT 9999 BKN023 25/23 Q1013,SEMT,2023-06-07T04:00:00Z,-0.95,-80.67,25.0,23.0,180,3,,6.21,29.911417,,,,,,,,,,,BKN,2300,,,,,,,MVFR,,,,,,,,,,,,METAR,13.0
SEGU 070400Z 24007KT 230V290 9999 FEW026 BKN100 26/23 Q1012 NOSIG RMK A2990,SEGU,2023-06-07T04:00:00Z,-2.15,-79.88,26.0,23.0,240,7,,6.21,29.88189,,,,,,TRUE,,,,,FEW,2600,BKN,10000,,,,,VFR,,,,,,,,,,,,METAR,6.0
SCVM 070400Z 21003KT 9999 BKN070 12/09 Q1015,SCVM,2023-06-07T04:00:00Z,-32.95,-71.48,12.0,9.0,210,3,,6.21,29.970472,,,,,,,,,,,BKN,7000,,,,,,,VFR,,,,,,,,,,,,METAR,136.0
SCVD 070400Z AUTO VRB02KT 0500 R35/0600 FG VV002 06/06 Q1019,SCVD,2023-06-07T04:00:00Z,-39.65,-73.08,6.0,6.0,0,2,,0.31,30.088583,,,TRUE,,,,,,,FG,OVX,0,,,,,,,LIFR,,,,,,,,,,,200,METAR,19.0
SCTN 070400Z AUTO VRB02KT //// R/////// FEW024 05/05 Q1019,SCTN,2023-06-07T04:00:00Z,-42.92,-72.7,5.0,5.0,0,2,,,30.088583,,,TRUE,,,,,,,,FEW,2400,,,,,,,,,,,,,,,,,,,METAR,8.0
SCTE 070400Z 00000KT 4000 BR FEW004 02/02 Q1019 NOSIG,SCTE,2023-06-07T04:00:00Z,-41.43,-73.08,2.0,2.0,0,0,,2.49,30.088583,,,,,,TRUE,,,,BR,FEW,400,,,,,,,IFR,,,,,,,,,,,,METAR,85.0
SCSN 070400Z AUTO 14003KT 090V200 9999 NCD 13/09 Q1015,SCSN,2023-06-07T04:00:00Z,-33.65,-71.62,13.0,9.0,140,3,,6.21,29.970472,,,TRUE,,,,,,,,CLR,,,,,,,,VFR,,,,,,,,,,,,METAR,73.0
SCSE 070400Z AUTO 09003KT 9999 BKN240/// 12/11 Q1016,SCSE,2023-06-07T04:00:00Z,-29.92,-71.2,12.0,11.0,90,3,,6.21,30.0,,,TRUE,,,,,,,,BKN,24000,,,,,,,VFR,,,,,,,,,,,,METAR,141.0
SCQP 070400Z 17003KT CAVOK 04/04 Q1019,SCQP,2023-06-07T04:00:00Z,-38.92,-72.65,4.0,4.0,170,3,,6.21,30.088583,,,,,,,,,,,CAVOK,,,,,,,,VFR,,,,,,,,,,,,METAR,97.0
SCPQ 070400Z AUTO 35003KT //// R35/P2000N NCD 03/03 Q1018,SCPQ,2023-06-07T04:00:00Z,-42.33,-73.72,3.0,3.0,350,3,,1.24,30.059055,,,TRUE,,,,,,,,CLR,,,,,,,,IFR,,,,,,,,,,,,METAR,166.0
SCON 070400Z AUTO 30003KT 240V360 9999 FEW075/// BKN190/// BKN220/// 06/04 Q1018,SCON,2023-06-07T04:00:00Z,-43.13,-73.62,6.0,4.0,300,3,,6.21,30.059055,,,TRUE,,,,,,,,FEW,7500,BKN,19000,BKN,22000,,,VFR,,,,,,,,,,,,METAR,11.0
SCMK 070400Z AUTO 33011KT //// // FEW030/// SCT076/// BKN230/// 08/06 Q1017,SCMK,2023-06-07T04:00:00Z,-43.9,-73.73,8.0,6.0,330,11,,,30.029528,,,TRUE,,,,,,,,FEW,3000,SCT,7600,BKN,23000,,,,,,,,,,,,,,,METAR,22.0
SCIP 070400Z 17012KT 9999 SCT032 18/11 Q1013 NOSIG,SCIP,2023-06-07T04:00:00Z,-27.17,-109.43,18.0,11.0,170,12,,6.21,29.911417,,,,,,TRUE,,,,,SCT,3200,,,,,,,VFR,,,,,,,,,,,,METAR,48.0
SCIE 070400Z 17004KT CAVOK 11/09 Q1018,SCIE,2023-06-07T04:00:00Z,-36.77,-73.07,11.0,9.0,170,4,,6.21,30.059055,,,,,,,,,,,CAVOK,,,,,,,,VFR,,,,,,,,,,,,METAR,8.0
SCIC 070400Z AUTO VRB01KT //// R/////// OVC009 12/12 Q1016,SCIC,2023-06-07T04:00:00Z,-34.97,-71.22,12.0,12.0,0,1,,,30.0,,,TRUE,,,,,,,,OVC,900,,,,,,,,,,,,,,,,,,,METAR,230.0
SCFT 070400Z AUTO 29006KT 9999 SCT060/// 04/00 Q1017,SCFT,2023-06-07T04:00:00Z,-43.18,-71.85,4.0,0.0,290,6,,6.21,30.029528,,,TRUE,,,,,,,,SCT,6000,,,,,,,VFR,,,,,,,,,,,,METAR,345.0
SCFA 070400Z 07005KT 9999 FEW019 14/10 Q1016 NOSIG,SCFA,2023-06-07T04:00:00Z,-23.43,-70.43,14.0,10.0,70,5,,6.21,30.0,,,,,,TRUE,,,,,FEW,1900,,,,,,,VFR,,,,,,,,,,,,METAR,113.0
SCEL 070400Z VRB01KT 8000 NSC 12/05 Q1015 NOSIG,SCEL,2023-06-07T04:00:00Z,-33.38,-70.78,12.0,5.0,0,1,,4.97,29.970472,,,,,,TRUE,,,,,CLR,,,,,,,,MVFR,,,,,,,,,,,,METAR,478.0
SCDA 070400Z 10009KT 9999 OVC030 18/11 Q1016,SCDA,2023-06-07T04:00:00Z,-20.53,-70.17,18.0,11.0,100,9,,6.21,30.0,,,,,,,,,,,OVC,3000,,,,,,,MVFR,,,,,,,,,,,,METAR,41.0
SCCY 070400Z AUTO 09005KT 030V120 9999 BKN049 06/00 Q1012,SCCY,2023-06-07T04:00:00Z,-45.58,-72.1,6.0,0.0,90,5,,6.21,29.88189,,,TRUE,,,,,,,,BKN,4900,,,,,,,VFR,,,,,,,,,,,,METAR,301.0
SCCI 070400Z 30019KT CAVOK 04/02 Q0989 NOSIG,SCCI,2023-06-07T04:00:00Z,-53.0,-70.85,4.0,2.0,300,19,,6.21,29.202755,,,,,,TRUE,,,,,CAVOK,,,,,,,,VFR,,,,,,,,,,,,METAR,37.0
SCCF 070400Z AUTO 11016KT 9999 NCD 08/M24 Q1028,SCCF,2023-06-07T04:00:00Z,-22.5,-68.9,8.0,-24.0,110,16,,6.21,30.35433,,,TRUE,,,,,,,,CLR,,,,,,,,VFR,,,,,,,,,,,,METAR,2290.0
SCAR 070400Z 23006KT 9999 OVC022 19/15 Q1016,SCAR,2023-06-07T04:00:00Z,-18.35,-70.33,19.0,15.0,230,6,,6.21,30.0,,,,,,,,,,,OVC,2200,,,,,,,MVFR,,,,,,,,,,,,METAR,57.0
SCAP 070400Z AUTO /////KT ///V/// //// // ////// ///// Q////,SCAP,2023-06-07T04:00:00Z,-43.62,-71.8,,,,,,,,,,TRUE,,,,,,,,,,,,,,,,,,,,,,,,,,,,METAR,252.0
SBVT 070400Z 31001KT CAVOK 16/15 Q1021,SBVT,2023-06-07T04:00:00Z,-20.25,-40.28,16.0,15.0,310,1,,6.21,30.147638,,,,,,,,,,,CAVOK,,,,,,,,VFR,,,,,,,,,,,,METAR,4.0
SBUR 070400Z 05007KT CAVOK 18/11 Q1021,SBUR,2023-06-07T04:00:00Z,-19.77,-47.97,18.0,11.0,50,7,,6.21,30.147638,,,,,,,,,,,CAVOK,,,,,,,,VFR,,,,,,,,,,,,METAR,807.0
SBUL 070400Z 10008KT CAVOK 16/10 Q1022,SBUL,2023-06-07T04:00:00Z,-18.87,-48.22,16.0,10.0,100,8,,6.21,30.177166,,,,,,,,,,,CAVOK,,,,,,,,VFR,,,,,,,,,,,,METAR,945.0
SBTU 070400Z AUTO /////KT ///V/// //// // ///////// ///// Q1015,SBTU,2023-06-07T04:00:00Z,-3.78,-49.72,,,,,,,29.970472,,,TRUE,,,,,,,,,,,,,,,,,,,,,,,,,,,,METAR,250.0
SBTE 070400Z 36003KT CAVOK 26/23 Q1013,SBTE,2023-06-07T04:00:00Z,-5.05,-42.82,26.0,23.0,360,3,,6.21,29.911417,,,,,,,,,,,CAVOK,,,,,,,,VFR,,,,,,,,,,,,METAR,60.0
SBSV 070400Z 14012KT 9999 SCT015 FEW025TCU BKN070 25/22 Q1018,SBSV,2023-06-07T04:00:00Z,-12.9,-38.32,25.0,22.0,140,12,,6.21,30.059055,,,,,,,,,,,SCT,1500,FEW,2500,BKN,7000,,,VFR,,,,,,,,,,,,METAR,9.0
SBSR 070400Z 00000KT CAVOK 18/11 Q1020,SBSR,2023-06-07T04:00:00Z,-20.8,-49.4,18.0,11.0,0,0,,6.21,30.11811,,,,,,,,,,,CAVOK,,,,,,,,VFR,,,,,,,,,,,,METAR,537.0
SBSP 070400Z AUTO 16003KT 9000 NCD 13/12 Q1024,SBSP,2023-06-07T04:00:00Z,-23.62,-46.65,13.0,12.0,160,3,,5.59,30.236221,,,TRUE,,,,,,,,CLR,,,,,,,,VFR,,,,,,,,,,,,METAR,802.0
SBSN 070400Z 07005KT CAVOK 27/25 Q1013,SBSN,2023-06-07T04:00:00Z,-2.42,-54.78,27.0,25.0,70,5,,6.21,29.911417,,,,,,,,,,,CAVOK,,,,,,,,VFR,,,,,,,,,,,,METAR,57.0
SBSL 070400Z 08003KT CAVOK 27/26 Q1013,SBSL,2023-06-07T04:00:00Z,-2.58,-44.23,27.0,26.0,80,3,,6.21,29.911417,,,,,,,,,,,CAVOK,,,,,,,,VFR,,,,,,,,,,,,METAR,53.0
SBSG 070400Z 15003KT 100V190 9999 FEW011 SCT065 25/23 Q1015,SBSG,2023-06-07T04:00:00Z,-5.77,-35.37,25.0,23.0,150,3,,6.21,29.970472,,,,,,,,,,,FEW,1100,SCT,6500,,,,,VFR,,,,,,,,,,,,METAR,83.0
SBSC 070400Z 35005KT CAVOK 15/15 Q1021,SBSC,2023-06-07T04:00:00Z,-22.92,-43.72,15.0,15.0,350,5,,6.21,30.147638,,,,,,,,,,,CAVOK,,,,,,,,VFR,,,,,,,,,,,,METAR,6.0
SBRP 070400Z 15003KT CAVOK 15/12 Q1020,SBRP,2023-06-07T04:00:00Z,-21.13,-47.77,15.0,12.0,150,3,,6.21,30.11811,,,,,,,,,,,CAVOK,,,,,,,,VFR,,,,,,,,,,,,METAR,550.0
SBRJ 070400Z 33004KT CAVOK 20/18 Q1021,SBRJ,2023-06-07T04:00:00Z,-22.9,-43.17,20.0,18.0,330,4,,6.21,30.147638,,,,,,,,,,,CAVOK,,,,,,,,VFR,,,,,,,,,,,,METAR,6.0
SBRF 070400Z 20003KT 9999 SCT016 BKN050 24/23 Q1015,SBRF,2023-06-07T04:00:00Z,-8.13,-34.92,24.0,23.0,200,3,,6.21,29.970472,,,,,,,,,,,SCT,1600,BKN,5000,,,,,VFR,,,,,,,,,,,,METAR,10.0
SBRB 070400Z 00000KT CAVOK 24/23 Q1014,SBRB,2023-06-07T04:00:00Z,-9.87,-67.88,24.0,23.0,0,0,,6.21,29.940945,,,,,,,,,,,CAVOK,,,,,,,,VFR,,,,,,,,,,,,METAR,190.0
SBPV 070400Z 33002KT 9999 FEW025 FEW030TCU BKN100 24/23 Q1013,SBPV,2023-06-07T04:00:00Z,-8.72,-63.9,24.0,23.0,330,2,,6.21,29.911417,,,,,,,,,,,FEW,2500,FEW,3000,BKN,10000,,,VFR,,,,,,,,,,,,METAR,89.0
SBPS 070400Z 26005KT 9999 SCT025 20/18 Q1020,SBPS,2023-06-07T04:00:00Z,-16.43,-39.07,20.0,18.0,260,5,,6.21,30.11811,,,,,,,,,,,SCT,2500,,,,,,,VFR,,,,,,,,,,,,METAR,44.0
SBPL 070400Z 19007KT 9999 FEW030 SCT070 23/20 Q1018,SBPL,2023-06-07T04:00:00Z,-9.37,-40.57,23.0,20.0,190,7,,6.21,30.059055,,,,,,,,,,,FEW,3000,SCT,7000,,,,,VFR,,,,,,,,,,,,METAR,386.0
SBPJ 070400Z 13004KT 9999 FEW030 23/18 Q1015,SBPJ,2023-06-07T04:00:00Z,-10.28,-48.37,23.0,18.0,130,4,,6.21,29.970472,,,,,,,,,,,FEW,3000,,,,,,,VFR,,,,,,,,,,,,METAR,226.0
SBPA 070400Z 00000KT CAVOK 14/13 Q1018,SBPA,2023-06-07T04:00:00Z,-30.0,-51.17,14.0,13.0,0,0,,6.21,30.059055,,,,,,,,,,,CAVOK,,,,,,,,VFR,,,,,,,,,,,,METAR,3.0
SBNT 070400Z 15004KT 9999 SCT013 BKN070 25/24 Q1014,SBNT,2023-06-07T04:00:00Z,-5.92,-35.25,25.0,24.0,150,4,,6.21,29.940945,,,,,,,,,,,SCT,1300,BKN,7000,,,,,VFR,,,,,,,,,,,,METAR,51.0
SBMQ 070400Z 04006KT 9999 VCSH SCT012 SCT020 FEW060TCU 27/27 Q1013,SBMQ,2023-06-07T04:00:00Z,0.05,-51.07,27.0,27.0,40,6,,6.21,29.911417,,,,,,,,,,VCSH,SCT,1200,SCT,2000,FEW,6000,,,VFR,,,,,,,,,,,,METAR,15.0
SBMO 070400Z 19003KT 9999 BKN015 BKN070 22/22 Q1016,SBMO,2023-06-07T04:00:00Z,-9.52,-35.78,22.0,22.0,190,3,,6.21,30.0,,,,,,,,,,,BKN,1500,BKN,7000,,,,,MVFR,,,,,,,,,,,,METAR,116.0
SBMN 070400Z 16001KT CAVOK 26/25 Q1014,SBMN,2023-06-07T04:00:00Z,-3.13,-59.98,26.0,25.0,160,1,,6.21,29.940945,,,,,,,,,,,CAVOK,,,,,,,,VFR,,,,,,,,,,,,METAR,71.0
SBMK 070400Z 00000KT CAVOK 13/09 Q1021,SBMK,2023-06-07T04:00:00Z,-16.7,-43.82,13.0,9.0,0,0,,6.21,30.147638,,,,,,,,,,,CAVOK,,,,,,,,VFR,,,,,,,,,,,,METAR,665.0
SBMG 070400Z 11009KT CAVOK 16/12 Q1019,SBMG,2023-06-07T04:00:00Z,-23.48,-52.02,16.0,12.0,110,9,,6.21,30.088583,,,,,,,,,,,CAVOK,,,,,,,,VFR,,,,,,,,,,,,METAR,543.0
SBME 070400Z 34003KT CAVOK 16/16 Q1021,SBME,2023-06-07T04:00:00Z,-22.35,-41.77,16.0,16.0,340,3,,6.21,30.147638,,,,,,,,,,,CAVOK,,,,,,,,VFR,,,,,,,,,,,,METAR,2.0
SBMA 070400Z 00000KT CAVOK 23/23 Q1013,SBMA,2023-06-07T04:00:00Z,-5.37,-49.13,23.0,23.0,0,0,,6.21,29.911417,,,,,,,,,,,CAVOK,,,,,,,,VFR,,,,,,,,,,,,METAR,110.0
SBLO 070400Z 24002KT CAVOK 16/13 Q1021,SBLO,2023-06-07T04:00:00Z,-23.33,-51.12,16.0,13.0,240,2,,6.21,30.147638,,,,,,,,,,,CAVOK,,,,,,,,VFR,,,,,,,,,,,,METAR,563.0
SBLE 070400Z AUTO VRB01KT 9999 FEW022 SCT037 19/18 Q1021,SBLE,2023-06-07T04:00:00Z,-12.48,-41.28,19.0,18.0,0,1,,6.21,30.147638,,,TRUE,,,,,,,,FEW,2200,SCT,3700,,,,,VFR,,,,,,,,,,,,METAR,495.0
SBLB 070400Z AUTO 17005KT 9999 NCD 23/16 Q1021 W///S3,SBLB,2023-06-07T04:00:00Z,-22.1,-39.92,23.0,16.0,170,5,,6.21,30.147638,,,TRUE,,,,,,,,CLR,,,,,,,,VFR,,,,,,,,,,,,METAR,10.0
SBKP 070400Z 13010KT CAVOK 15/13 Q1022,SBKP,2023-06-07T04:00:00Z,-23.0,-47.13,15.0,13.0,130,10,,6.21,30.177166,,,,,,,,,,,CAVOK,,,,,,,,VFR,,,,,,,,,,,,METAR,659.0
SBKG 070400Z 10003KT 9999 SCT015 22/20 Q1018,SBKG,2023-06-07T04:00:00Z,-7.27,-35.88,22.0,20.0,100,3,,6.21,30.059055,,,,,,,,,,,SCT,1500,,,,,,,VFR,,,,,,,,,,,,METAR,499.0
SBJU 070400Z 00000KT CAVOK 24/20 Q1019,SBJU,2023-06-07T04:00:00Z,-7.22,-39.27,24.0,20.0,0,0,,6.21,30.088583,,,,,,,,,,,CAVOK,,,,,,,,VFR,,,,,,,,,,,,METAR,407.0
SBJP 070400Z 18004KT CAVOK 25/24 Q1015,SBJP,2023-06-07T04:00:00Z,-7.15,-34.95,25.0,24.0,180,4,,6.21,29.970472,,,,,,,,,,,CAVOK,,,,,,,,VFR,,,,,,,,,,,,METAR,66.0
SBIZ 070400Z 18002KT CAVOK 24/20 Q1014,SBIZ,2023-06-07T04:00:00Z,-5.52,-47.45,24.0,20.0,180,2,,6.21,29.940945,,,,,,,,,,,CAVOK,,,,,,,,VFR,,,,,,,,,,,,METAR,131.0
SBIP 070400Z AUTO VRB02KT CAVOK 12/09 Q1022,SBIP,2023-06-07T04:00:00Z,-19.47,-42.48,12.0,9.0,0,2,,6.21,30.177166,,,TRUE,,,,,,,,CAVOK,,,,,,,,VFR,,,,,,,,,,,,METAR,240.0
SBGR 070400Z 00000KT 6000 NSC 12/12 Q1023,SBGR,2023-06-07T04:00:00Z,-23.42,-46.47,12.0,12.0,0,0,,3.73,30.206694,,,,,,,,,,,CLR,,,,,,,,MVFR,,,,,,,,,,,,METAR,745.0
SBGO 070400Z 00000KT CAVOK 19/14 Q1020,SBGO,2023-06-07T04:00:00Z,-16.62,-49.22,19.0,14.0,0,0,,6.21,30.11811,,,,,,,,,,,CAVOK,,,,,,,,VFR,,,,,,,,,,,,METAR,740.0
SBGL 070400Z 35002KT 5000 BR NSC 18/17 Q1021,SBGL,2023-06-07T04:00:00Z,-22.82,-43.25,18.0,17.0,350,2,,3.11,30.147638,,,,,,,,,,BR,CLR,,,,,,,,MVFR,,,,,,,,,,,,METAR,3.0
SBFZ 070400Z 11007KT 9999 SCT017 27/24 Q1014,SBFZ,2023-06-07T04:00:00Z,-3.77,-38.52,27.0,24.0,110,7,,6.21,29.940945,,,,,,,,,,,SCT,1700,,,,,,,VFR,,,,,,,,,,,,METAR,32.0
SBFN 070400Z AUTO 11008KT 080V140 9999 ///////// 26/24 Q1014,SBFN,2023-06-07T04:00:00Z,-3.85,-32.42,26.0,24.0,110,8,,6.21,29.940945,,,TRUE,,,,,,,,,,,,,,,,,,,,,,,,,,,,METAR,52.0
SBFL 070400Z 32008KT CAVOK 18/18 Q1020,SBFL,2023-06-07T04:00:00Z,-27.67,-48.53,18.0,18.0,320,8,,6.21,30.11811,,,,,,,,,,,CAVOK,,,,,,,,VFR,,,,,,,,,,,,METAR,5.0
SBFI 070400Z 09002KT CAVOK 16/15 Q1018,SBFI,2023-06-07T04:00:00Z,-25.6,-54.48,16.0,15.0,90,2,,6.21,30.059055,,,,,,,,,,,CAVOK,,,,,,,,VFR,,,,,,,,,,,,METAR,233.0
SBEG 070400Z 00000KT CAVOK 25/25 Q1013,SBEG,2023-06-07T04:00:00Z,-3.03,-60.03,25.0,25.0,0,0,,6.21,29.911417,,,,,,,,,,,CAVOK,,,,,,,,VFR,,,,,,,,,,,,METAR,69.0
SBDN 070400Z 12003KT CAVOK 15/13 Q1019,SBDN,2023-06-07T04:00:00Z,-22.18,-51.43,15.0,13.0,120,3,,6.21,30.088583,,,,,,,,,,,CAVOK,,,,,,,,VFR,,,,,,,,,,,,METAR,438.0
SBCZ 070400Z 30003KT CAVOK 23/23 Q1014,SBCZ,2023-06-07T04:00:00Z,-7.58,-72.77,23.0,23.0,300,3,,6.21,29.940945,,,,,,,,,,,CAVOK,,,,,,,,VFR,,,,,,,,,,,,METAR,193.0
SBCY 070400Z 00000KT CAVOK 20/15 Q1015,SBCY,2023-06-07T04:00:00Z,-15.65,-56.12,20.0,15.0,0,0,,6.21,29.970472,,,,,,,,,,,CAVOK,,,,,,,,VFR,,,,,,,,,,,,METAR,182.0
SBCT 070400Z 11002KT 9999 BKN013 BKN023 14/13 Q1024,SBCT,2023-06-07T04:00:00Z,-25.52,-49.17,14.0,13.0,110,2,,6.21,30.236221,,,,,,,,,,,BKN,1300,BKN,2300,,,,,MVFR,,,,,,,,,,,,METAR,914.0
SBCG 070400Z 08008KT CAVOK 18/12 Q1018,SBCG,2023-06-07T04:00:00Z,-20.47,-54.67,18.0,12.0,80,8,,6.21,30.059055,,,,,,,,,,,CAVOK,,,,,,,,VFR,,,,,,,,,,,,METAR,556.0
SBCF 070400Z 13004KT CAVOK 13/09 Q1023,SBCF,2023-06-07T04:00:00Z,-19.63,-43.97,13.0,9.0,130,4,,6.21,30.206694,,,,,,,,,,,CAVOK,,,,,,,,VFR,,,,,,,,,,,,METAR,825.0
SBBV 070400Z 32004KT CAVOK 24/23 Q1014,SBBV,2023-06-07T04:00:00Z,2.85,-60.7,24.0,23.0,320,4,,6.21,29.940945,,,,,,,,,,,CAVOK,,,,,,,,VFR,,,,,,,,,,,,METAR,80.0
SBBR 070400Z 19003KT CAVOK 16/11 Q1022,SBBR,2023-06-07T04:00:00Z,-15.87,-47.92,16.0,11.0,190,3,,6.21,30.177166,,,,,,,,,,,CAVOK,,,,,,,,VFR,,,,,,,,,,,,METAR,1051.0
SBBH 070400Z 00000KT CAVOK 12/07 Q1023,SBBH,2023-06-07T04:00:00Z,-19.85,-43.95,12.0,7.0,0,0,,6.21,30.206694,,,,,,,,,,,CAVOK,,,,,,,,VFR,,,,,,,,,,,,METAR,799.0
SBBG 070400Z AUTO 02007KT CAVOK 18/16 Q1017,SBBG,2023-06-07T04:00:00Z,-31.38,-54.12,18.0,16.0,20,7,,6.21,30.029528,,,TRUE,,,,,,,,CAVOK,,,,,,,,VFR,,,,,,,,,,,,METAR,182.0
SBBE 070400Z 13007KT CAVOK 25/23 Q1014,SBBE,2023-06-07T04:00:00Z,-1.37,-48.47,25.0,23.0,130,7,,6.21,29.940945,,,,,,,,,,,CAVOK,,,,,,,,VFR,,,,,,,,,,,,METAR,16.0
SBAR 070400Z 27003KT 9999 SCT019 BKN080 24/23 Q1016,SBAR,2023-06-07T04:00:00Z,-10.98,-37.07,24.0,23.0,270,3,,6.21,30.0,,,,,,,,,,,SCT,1900,BKN,8000,,,,,VFR,,,,,,,,,,,,METAR,4.0
SBAN 070400Z 08007KT CAVOK 17/12 Q1022,SBAN,2023-06-07T04:00:00Z,-16.22,-48.97,17.0,12.0,80,7,,6.21,30.177166,,,,,,,,,,,CAVOK,,,,,,,,VFR,,,,,,,,,,,,METAR,1131.0
SAZS 070400Z 32010KT 9999 SCT032 05/00 Q1018 RMK PP///,SAZS,2023-06-07T04:00:00Z,-41.15,-71.17,5.0,0.0,320,10,,6.21,30.059055,,,,,,,,,,,SCT,3200,,,,,,,VFR,,,,,,,,,,,,SPECI,843.0
SAZN 070400Z 32008KT CAVOK 09/00 Q1019,SAZN,2023-06-07T04:00:00Z,-38.95,-68.15,9.0,0.0,320,8,,6.21,30.088583,,,,,,,,,,,CAVOK,,,,,,,,VFR,,,,,,,,,,,,METAR,273.0
SAZM 070400Z 26003KT 210V280 CAVOK 12/11 Q1014 RMK PP///,SAZM,2023-06-07T04:00:00Z,-37.92,-57.57,12.0,11.0,260,3,,6.21,29.940945,,,,,,,,,,,CAVOK,,,,,,,,VFR,,,,,,,,,,,,SPECI,17.0
SAWH 070400Z 03005KT CAVOK 04/02 Q0985 RMK PP999,SAWH,2023-06-07T04:00:00Z,-54.85,-68.3,4.0,2.0,30,5,,6.21,29.084646,,,,,,,,,,,CAVOK,,,,,,,,VFR,,,,,,,,,,,,METAR,22.0
SAWG 070400Z 29013KT 9999 SCT025 SCT200 04/M02 Q0994,SAWG,2023-06-07T04:00:00Z,-51.62,-69.27,4.0,-2.0,290,13,,6.21,29.350393,,,,,,,,,,,SCT,2500,SCT,20000,,,,,VFR,,,,,,,,,,,,METAR,15.0
SAWE 070400Z 30015KT CAVOK 02/00 Q0988 RMK PP000,SAWE,2023-06-07T04:00:00Z,-53.78,-67.75,2.0,0.0,300,15,,6.21,29.17323,,,,,,,,,,,CAVOK,,,,,,,,VFR,,,,,,,,,,,,SPECI,22.0
SAVC 070400Z 28033G46KT CAVOK 10/M03 Q1007 RMK PP000,SAVC,2023-06-07T04:00:00Z,-45.78,-67.47,10.0,-3.0,280,33,46,6.21,29.734253,,,,,,,,,,,CAVOK,,,,,,,,VFR,,,,,,,,,,,,SPECI,58.0
SASJ 070400Z 29005KT CAVOK 14/14 Q1015 RMK PP000,SASJ,2023-06-07T04:00:00Z,-24.38,-65.1,14.0,14.0,290,5,,6.21,29.970472,,,,,,,,,,,CAVOK,,,,,,,,VFR,,,,,,,,,,,,SPECI,913.0
SASA 070400Z 23004KT CAVOK 10/09 Q1018 RMK PP000,SASA,2023-06-07T04:00:00Z,-24.85,-65.48,10.0,9.0,230,4,,6.21,30.059055,,,,,,,,,,,CAVOK,,,,,,,,VFR,,,,,,,,,,,,SPECI,1235.0
SARL 070400Z 05003KT CAVOK 18/16 Q1016,SARL,2023-06-07T04:00:00Z,-29.68,-57.15,18.0,16.0,50,3,,6.21,30.0,,,,,,,,,,,CAVOK,,,,,,,,VFR,,,,,,,,,,,,METAR,70.0
SARI 070400Z 09003KT CAVOK 16/15 Q1018 RMK PP000,SARI,2023-06-07T04:00:00Z,-25.73,-54.47,16.0,15.0,90,3,,6.21,30.059055,,,,,,,,,,,CAVOK,,,,,,,,VFR,,,,,,,,,,,,SPECI,268.0
SARF 070400Z 05007KT CAVOK 21/17 Q1014,SARF,2023-06-07T04:00:00Z,-26.22,-58.22,21.0,17.0,50,7,,6.21,29.940945,,,,,,,,,,,CAVOK,,,,,,,,VFR,,,,,,,,,,,,METAR,65.0
SARE 070400Z 06005KT CAVOK 19/16 Q1015 RMK PP///,SARE,2023-06-07T04:00:00Z,-27.43,-59.05,19.0,16.0,60,5,,6.21,29.970472,,,,,,,,,,,CAVOK,,,,,,,,VFR,,,,,,,,,,,,SPECI,52.0
SARC 070400Z 07003KT CAVOK 21/17 Q1015,SARC,2023-06-07T04:00:00Z,-27.43,-58.77,21.0,17.0,70,3,,6.21,29.970472,,,,,,,,,,,CAVOK,,,,,,,,VFR,,,,,,,,,,,,METAR,60.0
SAOC 070400Z 20005KT CAVOK 13/11 Q1016,SAOC,2023-06-07T04:00:00Z,-33.08,-64.27,13.0,11.0,200,5,,6.21,30.0,,,,,,,,,,,CAVOK,,,,,,,,VFR,,,,,,,,,,,,METAR,422.0
SAME 070400Z 18008KT CAVOK 13/07 Q1020,SAME,2023-06-07T04:00:00Z,-32.82,-68.78,13.0,7.0,180,8,,6.21,30.11811,,,,,,,,,,,CAVOK,,,,,,,,VFR,,,,,,,,,,,,METAR,709.0
SADF 070400Z VRB02KT 4000 MIFG BR BKN040 17/16 Q1015 RMK PP000,SADF,2023-06-07T04:00:00Z,-34.45,-58.58,17.0,16.0,0,2,,2.49,29.970472,,,,,,,,,,MIFG BR,BKN,4000,,,,,,,IFR,,,,,,,,,,,,METAR,4.0
SACO 070400Z 25006KT CAVOK 14/12 Q1016 NOSIG RMK PP000,SACO,2023-06-07T04:00:00Z,-31.32,-64.22,14.0,12.0,250,6,,6.21,30.0,,,,,,TRUE,,,,,CAVOK,,,,,,,,VFR,,,,,,,,,,,,SPECI,474.0
SABE 070400Z VRB02KT CAVOK 20/17 Q1015 BECMG 20005KT 7000 OVC035 RMK PP000,SABE,2023-06-07T04:00:00Z,-34.57,-58.42,20.0,17.0,0,2,,6.21,29.970472,,,,,,,,,,,CAVOK,,,,,,,,VFR,,,0.5,,,,,,,,,SPECI,3.0
RPVP 070400Z 18006KT 9999 TS VCSH FEW017CB SCT080 32/27 Q1011 RMK A2985 CB/VCSH W-N,RPVP,2023-06-07T04:00:00Z,9.75,118.75,32.0,27.0,180,6,,6.21,29.852362,,,,,,,,,,TS VCSH,FEW,1700,SCT,8000,,,,,VFR,,,,,,,,,,,,METAR,15.0
RPVM 070400Z 19004KT 130V250 9999 FEW020 BKN300 32/25 Q1011 NOSIG RMK A2985,RPVM,2023-06-07T04:00:00Z,10.32,123.98,32.0,25.0,190,4,,6.21,29.852362,,,,,,TRUE,,,,,FEW,2000,BKN,30000,,,,,VFR,,,,,,,,,,,,METAR,9.0
RPVD 070400Z 22008KT 9999 -TSRA SCT014CB 28/25 Q1011 RMK A2985 CB OHD/SE-SW,RPVD,2023-06-07T04:00:00Z,9.33,123.3,28.0,25.0,220,8,,6.21,29.852362,,,,,,,,,,-TSRA,SCT,1400,,,,,,,VFR,,,,,,,,,,,,METAR,11.0
RPMZ 070400Z 24006KT 210V280 9999 FEW016CB SCT090 BKN300 30/25 Q1011 RMK A2985 CB N-NE,RPMZ,2023-06-07T04:00:00Z,6.92,122.07,30.0,25.0,240,6,,6.21,29.852362,,,,,,,,,,,FEW,1600,SCT,9000,BKN,30000,,,VFR,,,,,,,,,,,,METAR,8.0
RPMR 070400Z 26007KT 220V300 9000 -RA SCT018CB BKN080 27/25 Q1011 RMK A2985 CB NNE/NW,RPMR,2023-06-07T04:00:00Z,6.05,125.1,27.0,25.0,260,7,,5.59,29.852362,,,,,,,,,,-RA,SCT,1800,BKN,8000,,,,,VFR,,,,,,,,,,,,METAR,47.0
RPMD 070400Z 08004KT 9999 FEW020 SCT260 31/25 Q1010 RMK A2983,RPMD,2023-06-07T04:00:00Z,7.12,125.65,31.0,25.0,80,4,,6.21,29.822834,,,,,,,,,,,FEW,2000,SCT,26000,,,,,VFR,,,,,,,,,,,,METAR,19.0
RPLL 070400Z 31006KT 280V350 9999 SCT025 32/26 Q1009 NOSIG RMK A2980,RPLL,2023-06-07T04:00:00Z,14.52,121.0,32.0,26.0,310,6,,6.21,29.793306,,,,,,TRUE,,,,,SCT,2500,,,,,,,VFR,,,,,,,,,,,,METAR,15.0
RPLI 070400Z 25007KT 200V290 9999 FEW016CB SCT017 BKN280 32/27 Q1010 NOSIG RMK A2983 CB NNW,RPLI,2023-06-07T04:00:00Z,18.17,120.52,32.0,27.0,250,7,,6.21,29.822834,,,,,,TRUE,,,,,FEW,1600,SCT,1700,BKN,28000,,,VFR,,,,,,,,,,,,METAR,5.0
RPLC 070400Z 18004KT 6000 SCT020 33/25 Q1011 NOSIG RMK A2985,RPLC,2023-06-07T04:00:00Z,15.18,120.55,33.0,25.0,180,4,,3.73,29.852362,,,,,,TRUE,,,,,SCT,2000,,,,,,,MVFR,,,,,,,,,,,,METAR,138.0
RPLB 070400Z 22005KT 190V250 8000 -RA SCT018 BKN080 30/26 Q1011 NOSIG RMK A2985,RPLB,2023-06-07T04:00:00Z,14.8,120.27,30.0,26.0,220,5,,4.97,29.852362,,,,,,TRUE,,,,-RA,SCT,1800,BKN,8000,,,,,MVFR,,,,,,,,,,,,METAR,19.0
ROYN 070400Z AUTO 19013KT 9999 FEW015 30/25 Q1011,ROYN,2023-06-07T04:00:00Z,24.47,122.97,30.0,25.0,190,13,,6.21,29.852362,,,TRUE,,,,,,,,FEW,1500,,,,,,,VFR,,,,,,,,,,,,METAR,21.0
RORY 070400Z AUTO 24007KT 9999 NSC 28/26 Q1011,RORY,2023-06-07T04:00:00Z,27.05,128.4,28.0,26.0,240,7,,6.21,29.852362,,,TRUE,,,,,,,,CLR,,,,,,,,VFR,,,,,,,,,,,,METAR,13.0
RORT 070400Z AUTO 19011KT 9999 SCT009 BKN010 29/25 Q1011,RORT,2023-06-07T04:00:00Z,24.63,124.7,29.0,25.0,190,11,,6.21,29.852362,,,TRUE,,,,,,,,SCT,900,BKN,1000,,,,,MVFR,,,,,,,,,,,,METAR,9.0
RORS 070400Z 20009KT 160V230 9999 FEW010 29/25 Q1011,RORS,2023-06-07T04:00:00Z,24.82,125.15,29.0,25.0,200,9,,6.21,29.852362,,,,,,,,,,,FEW,1000,,,,,,,VFR,,,,,,,,,,,,METAR,13.0
RORK 070400Z AUTO 20008KT 170V250 9999 NCD 29/24 Q1012,RORK,2023-06-07T04:00:00Z,25.93,131.32,29.0,24.0,200,8,,6.21,29.88189,,,TRUE,,,,,,,,CLR,,,,,,,,VFR,,,,,,,,,,,,METAR,11.0
ROMY 070400Z 20012KT 9999 FEW020 29/23 Q1011,ROMY,2023-06-07T04:00:00Z,24.78,125.27,29.0,23.0,200,12,,6.21,29.852362,,,,,,,,,,,FEW,2000,,,,,,,VFR,,,,,,,,,,,,METAR,38.0
ROMD 070400Z AUTO 24006KT 180V300 9999 FEW018 30/25 Q1013,ROMD,2023-06-07T04:00:00Z,25.83,131.25,30.0,25.0,240,6,,6.21,29.911417,,,TRUE,,,,,,,,FEW,1800,,,,,,,VFR,,,,,,,,,,,,METAR,45.0
ROIG 070400Z 17010KT 9999 FEW011 SCT019 BKN022 29/25 Q1011,ROIG,2023-06-07T04:00:00Z,24.38,124.23,29.0,25.0,170,10,,6.21,29.852362,,,,,,,,,,,FEW,1100,SCT,1900,BKN,2200,,,MVFR,,,,,,,,,,,,METAR,37.0
RKTU 070400Z 22002KT 9999 BKN035 BKN200 24/16 Q1009,RKTU,2023-06-07T04:00:00Z,36.7,127.5,24.0,16.0,220,2,,6.21,29.793306,,,,,,,,,,,BKN,3500,BKN,20000,,,,,VFR,,,,,,,,,,,,METAR,46.0
RKTN 070400Z 32006KT CAVOK 27/13 Q1009,RKTN,2023-06-07T04:00:00Z,35.88,128.65,27.0,13.0,320,6,,6.21,29.793306,,,,,,,,,,,CAVOK,,,,,,,,VFR,,,,,,,,,,,,METAR,25.0
RKSS 070400Z 16007KT 7000 BKN024 OVC200 22/16 Q1009 NOSIG,RKSS,2023-06-07T04:00:00Z,37.55,126.78,22.0,16.0,160,7,,4.35,29.793306,,,,,,TRUE,,,,,BKN,2400,OVC,20000,,,,,MVFR,,,,,,,,,,,,METAR,18.0
RKSM 070400Z 20006KT 9999 BKN025 BKN030 22/16 A2981,RKSM,2023-06-07T04:00:00Z,37.43,127.12,22.0,16.0,200,6,,6.21,29.811024,,,,,,,,,,,BKN,2500,BKN,3000,,,,,MVFR,,,,,,,,,,,,METAR,18.0
RKPK 070400Z 21013KT CAVOK 25/14 Q1009,RKPK,2023-06-07T04:00:00Z,35.17,128.93,25.0,14.0,210,13,,6.21,29.793306,,,,,,,,,,,CAVOK,,,,,,,,VFR,,,,,,,,,,,,METAR,3.0
RKPC 070400Z 30008KT 250V330 CAVOK 20/17 Q1011 NOSIG,RKPC,2023-06-07T04:00:00Z,33.5,126.48,20.0,17.0,300,8,,6.21,29.852362,,,,,,TRUE,,,,,CAVOK,,,,,,,,VFR,,,,,,,,,,,,METAR,23.0
RKNY 070400Z 12009KT 080V160 CAVOK 25/14 Q1006 NOSIG,RKNY,2023-06-07T04:00:00Z,38.07,128.67,25.0,14.0,120,9,,6.21,29.704725,,,,,,TRUE,,,,,CAVOK,,,,,,,,VFR,,,,,,,,,,,,METAR,76.0
RKJB 070400Z 21007KT CAVOK 24/16 Q1010 NOSIG,RKJB,2023-06-07T04:00:00Z,34.98,126.38,24.0,16.0,210,7,,6.21,29.822834,,,,,,TRUE,,,,,CAVOK,,,,,,,,VFR,,,,,,,,,,,,METAR,16.0
RJTO 070400Z 03007KT 330V090 9999 FEW025 BKN/// 22/16 Q1007,RJTO,2023-06-07T04:00:00Z,34.77,139.37,22.0,16.0,30,7,,6.21,29.734253,,,,,,,,,,,FEW,2500,,,,,,,VFR,,,,,,,,,,,,METAR,37.0
RJTI 070400Z 12005KT 080V140 9999 FEW030 BKN/// 27/19 Q1006,RJTI,2023-06-07T04:00:00Z,35.63,139.83,27.0,19.0,120,5,,6.21,29.704725,,,,,,,,,,,FEW,3000,,,,,,,VFR,,,,,,,,,,,,METAR,4.0
RJTF 070400Z VRB05KT 9999 FEW020 BKN/// 29/15 Q1006,RJTF,2023-06-07T04:00:00Z,35.67,139.52,29.0,15.0,0,5,,6.21,29.704725,,,,,,,,,,,FEW,2000,,,,,,,VFR,,,,,,,,,,,,METAR,37.0
RJSY 070400Z 26012KT 9999 FEW040 SCT090 23/17 Q1008,RJSY,2023-06-07T04:00:00Z,38.82,139.78,23.0,17.0,260,12,,6.21,29.763779,,,,,,,,,,,FEW,4000,SCT,9000,,,,,VFR,,,,,,,,,,,,METAR,17.0
RJSS 070400Z 13008KT 080V170 9999 SCT050 23/17 Q1006,RJSS,2023-06-07T04:00:00Z,38.13,140.92,23.0,17.0,130,8,,6.21,29.704725,,,,,,,,,,,SCT,5000,,,,,,,VFR,,,,,,,,,,,,METAR,5.0
RJSR 070400Z 24010KT 180V280 9999 FEW015 SCT020 FEW020CB 23/17 Q1007,RJSR,2023-06-07T04:00:00Z,40.18,140.37,23.0,17.0,240,10,,6.21,29.734253,,,,,,,,,,,FEW,1500,SCT,2000,FEW,2000,,,VFR,,,,,,,,,,,,METAR,83.0
RJSN 070400Z 26016KT 9999 FEW030 24/16 Q1009,RJSN,2023-06-07T04:00:00Z,37.95,139.12,24.0,16.0,260,16,,6.21,29.793306,,,,,,,,,,,FEW,3000,,,,,,,VFR,,,,,,,,,,,,METAR,4.0
RJSM 070400Z 34008KT 9999 -SHRA FEW020 FEW025CB BKN030 BKN100 18/14 Q1007 RETS,RJSM,2023-06-07T04:00:00Z,40.7,141.37,18.0,14.0,340,8,,6.21,29.734253,,,,,,,,,,-SHRA,FEW,2000,FEW,2500,BKN,3000,BKN,10000,MVFR,,,,,,,,,,,,METAR,31.0
RJSK 070400Z 25010KT 210V290 9999 FEW015 BKN020 23/17 Q1008,RJSK,2023-06-07T04:00:00Z,39.62,140.22,23.0,17.0,250,10,,6.21,29.763779,,,,,,,,,,,FEW,1500,BKN,2000,,,,,MVFR,,,,,,,,,,,,METAR,95.0
RJSI 070400Z 30009KT 250V340 9999 FEW040 SCT050 26/14 Q1006,RJSI,2023-06-07T04:00:00Z,39.42,141.13,26.0,14.0,300,9,,6.21,29.704725,,,,,,,,,,,FEW,4000,SCT,5000,,,,,VFR,,,,,,,,,,,,METAR,89.0
RJSF 070400Z 34009KT 300V010 9999 FEW020 25/14 Q1008,RJSF,2023-06-07T04:00:00Z,37.22,140.42,25.0,14.0,340,9,,6.21,29.763779,,,,,,,,,,,FEW,2000,,,,,,,VFR,,,,,,,,,,,,METAR,373.0
RJSC 070400Z 35008KT 320V040 9999 FEW040 BKN050 26/17 Q1007,RJSC,2023-06-07T04:00:00Z,38.42,140.37,26.0,17.0,350,8,,6.21,29.734253,,,,,,,,,,,FEW,4000,BKN,5000,,,,,VFR,,,,,,,,,,,,METAR,104.0
RJSA 070400Z 20005KT 9999 FEW001 SCT030 BKN050 17/16 Q1008,RJSA,2023-06-07T04:00:00Z,40.72,140.68,17.0,16.0,200,5,,6.21,29.763779,,,,,,,,,,,FEW,100,SCT,3000,BKN,5000,,,VFR,,,,,,,,,,,,METAR,196.0
RJOY 070400Z 26009KT 210V300 9999 FEW030 BKN/// 25/17 Q1010,RJOY,2023-06-07T04:00:00Z,34.6,135.6,25.0,17.0,260,9,,6.21,29.822834,,,,,,,,,,,FEW,3000,,,,,,,VFR,,,,,,,,,,,,METAR,10.0
RJOW 070400Z 30008KT 9999 FEW030 OVC/// 23/18 Q1010,RJOW,2023-06-07T04:00:00Z,34.67,131.8,23.0,18.0,300,8,,6.21,29.822834,,,,,,,,,,,FEW,3000,,,,,,,VFR,,,,,,,,,,,,METAR,54.0
RJOT 070400Z 30008KT 260V330 9999 FEW025 BKN/// 25/17 Q1011,RJOT,2023-06-07T04:00:00Z,34.22,134.02,25.0,17.0,300,8,,6.21,29.852362,,,,,,,,,,,FEW,2500,,,,,,,VFR,,,,,,,,,,,,METAR,181.0
RJOS 070400Z 04010KT 9999 FEW030 BKN/// 24/17 Q1010,RJOS,2023-06-07T04:00:00Z,34.12,134.62,24.0,17.0,40,10,,6.21,29.822834,,,,,,,,,,,FEW,3000,,,,,,,VFR,,,,,,,,,,,,METAR,3.0
RJOR 070400Z 34006KT 9999 FEW030 BKN/// 23/17 Q1010,RJOR,2023-06-07T04:00:00Z,35.52,134.17,23.0,17.0,340,6,,6.21,29.822834,,,,,,,,,,,FEW,3000,,,,,,,VFR,,,,,,,,,,,,METAR,11.0
RJOO 070400Z 19008KT 150V240 9999 FEW020 BKN/// 25/16 Q1010,RJOO,2023-06-07T04:00:00Z,34.78,135.43,25.0,16.0,190,8,,6.21,29.822834,,,,,,,,,,,FEW,2000,,,,,,,VFR,,,,,,,,,,,,METAR,11.0
RJOM 070400Z 27003KT 200V310 9999 FEW020 BKN/// 21/17 Q1011,RJOM,2023-06-07T04:00:00Z,33.82,132.68,21.0,17.0,270,3,,6.21,29.852362,,,,,,,,,,,FEW,2000,,,,,,,VFR,,,,,,,,,,,,METAR,3.0
RJOK 070400Z 14004KT 090V200 9999 FEW030 BKN/// 23/19 Q1010,RJOK,2023-06-07T04:00:00Z,33.53,133.67,23.0,19.0,140,4,,6.21,29.822834,,,,,,,,,,,FEW,3000,,,,,,,VFR,,,,,,,,,,,,METAR,7.0
RJOH 070400Z 25009KT 9999 FEW035 BKN250 27/17 Q1009,RJOH,2023-06-07T04:00:00Z,35.48,133.25,27.0,17.0,250,9,,6.21,29.793306,,,,,,,,,,,FEW,3500,BKN,25000,,,,,VFR,,,,,,,,,,,,METAR,6.0
RJOC 070400Z 26015KT 9999 FEW030 BKN/// 24/18 Q1009,RJOC,2023-06-07T04:00:00Z,35.42,132.88,24.0,18.0,260,15,,6.21,29.793306,,,,,,,,,,,FEW,3000,,,,,,,VFR,,,,,,,,,,,,METAR,2.0
RJOB 070400Z 20006KT 160V260 9999 FEW025 BKN/// 24/18 Q1011,RJOB,2023-06-07T04:00:00Z,34.75,133.85,24.0,18.0,200,6,,6.21,29.852362,,,,,,,,,,,FEW,2500,,,,,,,VFR,,,,,,,,,,,,METAR,242.0
RJOA 070400Z VRB03KT 9999 FEW020 BKN/// 23/18 Q1011,RJOA,2023-06-07T04:00:00Z,34.43,132.92,23.0,18.0,0,3,,6.21,29.852362,,,,,,,,,,,FEW,2000,,,,,,,VFR,,,,,,,,,,,,METAR,318.0
RJNW 070400Z 26008KT 9999 FEW030 SCT/// 23/17 Q1009,RJNW,2023-06-07T04:00:00Z,37.3,136.97,23.0,17.0,260,8,,6.21,29.793306,,,,,,,,,,,FEW,3000,,,,,,,VFR,,,,,,,,,,,,METAR,222.0
RJNT 070400Z 28007KT 200V330 9999 FEW030 BKN/// 26/15 Q1008,RJNT,2023-06-07T04:00:00Z,36.63,137.18,26.0,15.0,280,7,,6.21,29.763779,,,,,,,,,,,FEW,3000,,,,,,,VFR,,,,,,,,,,,,METAR,30.0
RJNS 070400Z 24006KT 190V280 9999 FEW015 BKN/// 25/18 Q1008,RJNS,2023-06-07T04:00:00Z,34.8,138.18,25.0,18.0,240,6,,6.21,29.763779,,,,,,,,,,,FEW,1500,,,,,,,VFR,,,,,,,,,,,,METAR,133.0
RJNK 070400Z 28009KT 9999 FEW030 BKN250 22/17 Q1009,RJNK,2023-06-07T04:00:00Z,36.38,136.42,22.0,17.0,280,9,,6.21,29.793306,,,,,,,,,,,FEW,3000,BKN,25000,,,,,VFR,,,,,,,,,,,,METAR,7.0
RJKI 070400Z AUTO 31004KT 280V360 9999 FEW013 OVC036 26/23 Q1011,RJKI,2023-06-07T04:00:00Z,28.32,129.92,26.0,23.0,310,4,,6.21,29.852362,,,TRUE,,,,,,,,FEW,1300,OVC,3600,,,,,VFR,,,,,,,,,,,,METAR,6.0
RJKA 070400Z 08004KT 9999 FEW010 BKN015 BKN030 26/23 Q1011,RJKA,2023-06-07T04:00:00Z,28.42,129.72,26.0,23.0,80,4,,6.21,29.852362,,,,,,,,,,,FEW,1000,BKN,1500,BKN,3000,,,MVFR,,,,,,,,,,,,METAR,7.0
RJFU 070400Z 01003KT 300V060 9999 FEW030 BKN/// 26/19 Q1011,RJFU,2023-06-07T04:00:00Z,32.92,129.92,26.0,19.0,10,3,,6.21,29.852362,,,,,,,,,,,FEW,3000,,,,,,,VFR,,,,,,,,,,,,METAR,2.0
RJFT 070400Z 31004KT 270V340 9999 FEW035 BKN/// 25/18 Q1011,RJFT,2023-06-07T04:00:00Z,32.83,130.85,25.0,18.0,310,4,,6.21,29.852362,,,,,,,,,,,FEW,3500,,,,,,,VFR,,,,,,,,,,,,METAR,188.0
RJFS 070400Z 18006KT 9999 FEW035 BKN/// 23/19 Q1011,RJFS,2023-06-07T04:00:00Z,33.15,130.3,23.0,19.0,180,6,,6.21,29.852362,,,,,,,,,,,FEW,3500,,,,,,,VFR,,,,,,,,,,,,METAR,2.0
RJFR 070400Z 10005KT 9999 FEW030 BKN/// 23/19 Q1010,RJFR,2023-06-07T04:00:00Z,33.83,131.03,23.0,19.0,100,5,,6.21,29.822834,,,,,,,,,,,FEW,3000,,,,,,,VFR,,,,,,,,,,,,METAR,9.0
RJFO 070400Z 07005KT 9999 FEW020 BKN/// 21/19 Q1011,RJFO,2023-06-07T04:00:00Z,33.47,131.73,21.0,19.0,70,5,,6.21,29.852362,,,,,,,,,,,FEW,2000,,,,,,,VFR,,,,,,,,,,,,METAR,3.0
RJFM 070400Z 12006KT 9999 FEW025 BKN/// 24/20 Q1010,RJFM,2023-06-07T04:00:00Z,31.87,131.43,24.0,20.0,120,6,,6.21,29.822834,,,,,,,,,,,FEW,2500,,,,,,,VFR,,,,,,,,,,,,METAR,10.0
RJFK 070400Z 18004KT 120V280 9999 FEW035 BKN/// 26/19 Q1012,RJFK,2023-06-07T04:00:00Z,31.8,130.72,26.0,19.0,180,4,,6.21,29.88189,,,,,,,,,,,FEW,3500,,,,,,,VFR,,,,,,,,,,,,METAR,271.0
RJFG 070400Z VRB03KT 9999 FEW014 SCT017 BKN150 23/20 Q1012,RJFG,2023-06-07T04:00:00Z,30.62,130.98,23.0,20.0,0,3,,6.21,29.88189,,,,,,,,,,,FEW,1400,SCT,1700,BKN,15000,,,VFR,,,,,,,,,,,,METAR,234.0
RJFE 070400Z 18006KT 160V220 9999 FEW020 BKN/// 23/20 Q1011,RJFE,2023-06-07T04:00:00Z,32.67,128.82,23.0,20.0,180,6,,6.21,29.852362,,,,,,,,,,,FEW,2000,,,,,,,VFR,,,,,,,,,,,,METAR,80.0
RJEC 070400Z 17007KT 9999 FEW020 SCT040 BKN100 20/14 Q1006,RJEC,2023-06-07T04:00:00Z,43.67,142.43,20.0,14.0,170,7,,6.21,29.704725,,,,,,,,,,,FEW,2000,SCT,4000,BKN,10000,,,VFR,,,,,,,,,,,,METAR,209.0
RJEB 070400Z 09004KT 050V120 9999 FEW040 SCT060 20/16 Q1005,RJEB,2023-06-07T04:00:00Z,44.3,143.4,20.0,16.0,90,4,,6.21,29.675198,,,,,,,,,,,FEW,4000,SCT,6000,,,,,VFR,,,,,,,,,,,,METAR,24.0
RJDT 070400Z VRB04KT CAVOK 26/14 Q1010,RJDT,2023-06-07T04:00:00Z,34.28,129.32,26.0,14.0,0,4,,6.21,29.822834,,,,,,,,,,,CAVOK,,,,,,,,VFR,,,,,,,,,,,,METAR,61.0
RJDC 070400Z 13005KT 9999 FEW025 BKN/// 23/19 Q1011,RJDC,2023-06-07T04:00:00Z,33.92,131.27,23.0,19.0,130,5,,6.21,29.852362,,,,,,,,,,,FEW,2500,,,,,,,VFR,,,,,,,,,,,,METAR,5.0
RJDB 070400Z AUTO 22010KT 200V260 9999 NSC 23/19 Q1011,RJDB,2023-06-07T04:00:00Z,33.75,129.78,23.0,19.0,220,10,,6.21,29.852362,,,TRUE,,,,,,,,CLR,,,,,,,,VFR,,,,,,,,,,,,METAR,13.0
RJCW 070400Z 01007KT 9999 FEW040 BKN/// 16/13 Q1005,RJCW,2023-06-07T04:00:00Z,45.4,141.8,16.0,13.0,10,7,,6.21,29.675198,,,,,,,,,,,FEW,4000,,,,,,,VFR,,,,,,,,,,,,METAR,11.0
RJCO 070400Z 16010KT 9999 -SHRA FEW015 SCT050 BKN120 19/16 Q1007,RJCO,2023-06-07T04:00:00Z,43.12,141.37,19.0,16.0,160,10,,6.21,29.734253,,,,,,,,,,-SHRA,FEW,1500,SCT,5000,BKN,12000,,,VFR,,,,,,,,,,,,METAR,7.0
RJCN 070400Z 08008KT 7000 FEW004 BKN007 BKN012 16/14 Q1007,RJCN,2023-06-07T04:00:00Z,43.57,144.97,16.0,14.0,80,8,,4.35,29.734253,,,,,,,,,,,FEW,400,BKN,700,BKN,1200,,,IFR,,,,,,,,,,,,METAR,62.0
RJCM 070400Z 14004KT 070V190 9999 FEW015 SCT030 BKN/// 26/15 Q1004,RJCM,2023-06-07T04:00:00Z,43.88,144.17,26.0,15.0,140,4,,6.21,29.64567,,,,,,,,,,,FEW,1500,SCT,3000,,,,,VFR,,,,,,,,,,,,METAR,30.0
RJCK 070400Z 04003KT 340V120 9999 FEW004 SCT006 BKN008 18/16 Q1007,RJCK,2023-06-07T04:00:00Z,43.03,144.18,18.0,16.0,40,3,,6.21,29.734253,,,,,,,,,,,FEW,400,SCT,600,BKN,800,,,IFR,,,,,,,,,,,,METAR,94.0
RJCH 070400Z 15003KT 110V180 6000 -SHRA FEW002 BKN004 BKN012 16/15 Q1007,RJCH,2023-06-07T04:00:00Z,41.77,140.82,16.0,15.0,150,3,,3.73,29.734253,,,,,,,,,,-SHRA,FEW,200,BKN,400,BKN,1200,,,LIFR,,,,,,,,,,,,METAR,36.0
RJCB 070400Z 20007KT 160V230 9999 FEW020 SCT030 BKN/// 21/17 Q1006,RJCB,2023-06-07T04:00:00Z,42.72,143.22,21.0,17.0,200,7,,6.21,29.704725,,,,,,,,,,,FEW,2000,SCT,3000,,,,,VFR,,,,,,,,,,,,METAR,149.0
RJBT 070400Z 03006KT 330V100 9999 FEW035 BKN/// 25/16 Q1009,RJBT,2023-06-07T04:00:00Z,35.5,134.8,25.0,16.0,30,6,,6.21,29.793306,,,,,,,,,,,FEW,3500,,,,,,,VFR,,,,,,,,,,,,METAR,172.0
RJBE 070400Z 23009KT 9999 FEW020 BKN/// 23/18 Q1010,RJBE,2023-06-07T04:00:00Z,34.63,135.23,23.0,18.0,230,9,,6.21,29.822834,,,,,,,,,,,FEW,2000,,,,,,,VFR,,,,,,,,,,,,METAR,5.0
RJBD 070400Z 30011KT 270V330 9999 FEW025 BKN/// 23/18 Q1010,RJBD,2023-06-07T04:00:00Z,33.67,135.37,23.0,18.0,300,11,,6.21,29.822834,,,,,,,,,,,FEW,2500,,,,,,,VFR,,,,,,,,,,,,METAR,91.0
RJAW 070400Z 16009KT 120V200 9999 SCT015 29/24 Q1015 RMK 4CU015 A2997 WIND BY EQPT/25,RJAW,2023-06-07T04:00:00Z,24.78,141.32,29.0,24.0,160,9,,6.21,29.970472,,,,,,,,,,,SCT,1500,,,,,,,VFR,,,,,,,,,,,,METAR,116.0
RJAH 070400Z 07011KT 9999 FEW030 BKN250 26/14 Q1007,RJAH,2023-06-07T04:00:00Z,36.17,140.42,26.0,14.0,70,11,,6.21,29.734253,,,,,,,,,,,FEW,3000,BKN,25000,,,,,VFR,,,,,,,,,,,,METAR,31.0
RJAF 070400Z 33005KT 290V020 9999 FEW050 SCT070 BKN/// 23/12 Q1009,RJAF,2023-06-07T04:00:00Z,36.17,137.92,23.0,12.0,330,5,,6.21,29.793306,,,,,,,,,,,FEW,5000,SCT,7000,,,,,VFR,,,,,,,,,,,,METAR,652.0
PLCH 070400Z 08004KT 9999 FEW020 29/25 Q1009,PLCH,2023-06-07T04:00:00Z,1.98,-157.35,29.0,25.0,80,4,,6.21,29.793306,,,,,,,,,,,FEW,2000,,,,,,,VFR,,,,,,,,,,,,METAR,5.0
OTHH 070400Z 28009KT 9000 NSC 33/21 Q1004 NOSIG,OTHH,2023-06-07T04:00:00Z,25.27,51.6,33.0,21.0,280,9,,5.59,29.64567,,,,,,TRUE,,,,,CLR,,,,,,,,VFR,,,,,,,,,,,,METAR,3.0
OSLK 070400Z 06004KT 9999 FEW030 20/16 Q1011,OSLK,2023-06-07T04:00:00Z,35.4,35.95,20.0,16.0,60,4,,6.21,29.852362,,,,,,,,,,,FEW,3000,,,,,,,VFR,,,,,,,,,,,,METAR,47.0
OSKL 070400Z 05008KT 8000 25/05 Q1007,OSKL,2023-06-07T04:00:00Z,37.03,41.2,25.0,5.0,50,8,,4.97,29.734253,,,,,,,,,,,,,,,,,,,,,,,,,,,,,,,METAR,443.0
OSDI 070400Z 22010KT CAVOK 18/13 Q1013,OSDI,2023-06-07T04:00:00Z,33.42,36.52,18.0,13.0,220,10,,6.21,29.911417,,,,,,,,,,,CAVOK,,,,,,,,VFR,,,,,,,,,,,,METAR,614.0
OSAP 070400Z 26004KT CAVOK 21/18 Q1011,OSAP,2023-06-07T04:00:00Z,36.17,37.22,21.0,18.0,260,4,,6.21,29.852362,,,,,,,,,,,CAVOK,,,,,,,,VFR,,,,,,,,,,,,METAR,390.0
ORSU 070400Z VRB02KT CAVOK 25/09 Q1013,ORSU,2023-06-07T04:00:00Z,35.57,45.32,25.0,9.0,0,2,,6.21,29.911417,,,,,,,,,,,CAVOK,,,,,,,,VFR,,,,,,,,,,,,METAR,760.0
ORMM 070400Z 27012KT 6000 FEW040 SCT100 35/11 Q1005 NOSIG,ORMM,2023-06-07T04:00:00Z,30.53,47.67,35.0,11.0,270,12,,3.73,29.675198,,,,,,TRUE,,,,,FEW,4000,SCT,10000,,,,,MVFR,,,,,,,,,,,,METAR,2.0
ORBI 070400Z 00000KT 7000 NSC 27/12 Q1006 NOSIG,ORBI,2023-06-07T04:00:00Z,33.27,44.23,27.0,12.0,0,0,,4.35,29.704725,,,,,,TRUE,,,,,CLR,,,,,,,,MVFR,,,,,,,,,,,,METAR,37.0
OPST 070400Z 05012KT 3000 TSRA FEW030CB SCT040 BKN100 21/19 Q1007 TEMPO 05015G25KT 2000 91%,OPST,2023-06-07T04:00:00Z,32.53,74.37,21.0,19.0,50,12,,1.86,29.734253,,,,,,,,,,TSRA,FEW,3000,SCT,4000,BKN,10000,,,IFR,,,,,,,,,,,,METAR,234.0
OPSK 070400Z 13012KT 4000 HZ NSC 32/17 Q1003 NOSIG,OPSK,2023-06-07T04:00:00Z,27.72,68.8,32.0,17.0,130,12,,2.49,29.616142,,,,,,TRUE,,,,HZ,CLR,,,,,,,,IFR,,,,,,,,,,,,METAR,62.0
OPNH 070400Z 13510KT 6000 BKN020 31/27 Q1003,OPNH,2023-06-07T04:00:00Z,26.22,68.38,31.0,27.0,135,10,,3.73,29.616142,,,,,,,,,,,BKN,2000,,,,,,,MVFR,,,,,,,,,,,,METAR,30.0
OMSJ 070400Z VRB02KT CAVOK 35/17 Q1004 NOSIG,OMSJ,2023-06-07T04:00:00Z,25.32,55.52,35.0,17.0,0,2,,6.21,29.64567,,,,,,TRUE,,,,,CAVOK,,,,,,,,VFR,,,,,,,,,,,,METAR,33.0
OMRK 070400Z 14002KT CAVOK 36/18 Q1004 A2967,OMRK,2023-06-07T04:00:00Z,25.62,55.93,36.0,18.0,140,2,,6.21,29.64567,,,,,,,,,,,CAVOK,,,,,,,,VFR,,,,,,,,,,,,METAR,18.0
OMFJ 070400Z 30013KT CAVOK 35/10 Q1003 A2963,OMFJ,2023-06-07T04:00:00Z,25.1,56.32,35.0,10.0,300,13,,6.21,29.616142,,,,,,,,,,,CAVOK,,,,,,,,VFR,,,,,,,,,,,,METAR,27.0
OMDW 070400Z 27003KT 220V300 9000 NSC 32/25 Q1005 NOSIG,OMDW,2023-06-07T04:00:00Z,24.9,55.17,32.0,25.0,270,3,,5.59,29.675198,,,,,,TRUE,,,,,CLR,,,,,,,,VFR,,,,,,,,,,,,METAR,34.0
OMDB 070400Z 21005KT 180V240 CAVOK 34/22 Q1004 NOSIG,OMDB,2023-06-07T04:00:00Z,25.25,55.37,34.0,22.0,210,5,,6.21,29.64567,,,,,,TRUE,,,,,CAVOK,,,,,,,,VFR,,,,,,,,,,,,METAR,5.0
OMAL 070400Z 11003KT 080V150 CAVOK 34/12 Q1006 BECMG 18008KT,OMAL,2023-06-07T04:00:00Z,24.25,55.6,34.0,12.0,110,3,,6.21,29.704725,,,,,,,,,,,CAVOK,,,,,,,,VFR,,,,,,,,,,,,METAR,247.0
OMAD 070400Z 28003KT 150V300 CAVOK 35/24 Q1004 NOSIG,OMAD,2023-06-07T04:00:00Z,24.42,54.47,35.0,24.0,280,3,,6.21,29.64567,,,,,,TRUE,,,,,CAVOK,,,,,,,,VFR,,,,,,,,,,,,METAR,9.0
OMAA 070400Z 30006KT 8000 NSC 33/26 Q1004 NOSIG,OMAA,2023-06-07T04:00:00Z,24.42,54.65,33.0,26.0,300,6,,4.97,29.64567,,,,,,TRUE,,,,,CLR,,,,,,,,MVFR,,,,,,,,,,,,METAR,13.0
OLBA 070400Z 11004KT 8000 SCT026 23/17 Q1013 NOSIG,OLBA,2023-06-07T04:00:00Z,33.82,35.48,23.0,17.0,110,4,,4.97,29.911417,,,,,,TRUE,,,,,SCT,2600,,,,,,,MVFR,,,,,,,,,,,,METAR,29.0
OKKK 070400Z 28004KT 7000 NSC 34/10 Q1006 NOSIG,OKKK,2023-06-07T04:00:00Z,,,34.0,10.0,280,4,,4.35,29.704725,,,,,,TRUE,,,,,CLR,,,,,,,,MVFR,,,,,,,,,,,,METAR,
OJAQ 070400Z 35009KT 8000 NSC 25/10 Q1009 NOSIG,OJAQ,2023-06-07T04:00:00Z,29.62,35.02,25.0,10.0,350,9,,4.97,29.793306,,,,,,TRUE,,,,,CLR,,,,,,,,MVFR,,,,,,,,,,,,METAR,45.0
OJAM 070400Z 25004KT 6000 NSC 21/08 Q1014 NOSIG,OJAM,2023-06-07T04:00:00Z,31.98,35.98,21.0,8.0,250,4,,3.73,29.940945,,,,,,TRUE,,,,,CLR,,,,,,,,MVFR,,,,,,,,,,,,METAR,765.0
OJAI 070400Z 00000KT 4000 HZ NSC 15/09 Q1014 NOSIG,OJAI,2023-06-07T04:00:00Z,31.72,36.0,15.0,9.0,0,0,,2.49,29.940945,,,,,,TRUE,,,,HZ,CLR,,,,,,,,IFR,,,,,,,,,,,,METAR,723.0
OIZJ 070400Z 31008KT 8000 NSC 34/24 Q1001,OIZJ,2023-06-07T04:00:00Z,25.65,57.8,34.0,24.0,310,8,,4.97,29.557087,,,,,,,,,,,CLR,,,,,,,,MVFR,,,,,,,,,,,,METAR,6.0
OIZC 070400Z 32010KT CAVOK 35/20 Q1000 A2954,OIZC,2023-06-07T04:00:00Z,25.45,60.38,35.0,20.0,320,10,,6.21,29.52756,,,,,,,,,,,CAVOK,,,,,,,,VFR,,,,,,,,,,,,METAR,13.0
OITZ 070400Z 30004KT CAVOK 17/12 Q1019 A3011,OITZ,2023-06-07T04:00:00Z,36.77,48.37,17.0,12.0,300,4,,6.21,30.088583,,,,,,,,,,,CAVOK,,,,,,,,VFR,,,,,,,,,,,,METAR,1630.0
OITR 070400Z 28006KT 9999 FEW040 20/07 Q1016 A3003,OITR,2023-06-07T04:00:00Z,37.67,45.07,20.0,7.0,280,6,,6.21,30.0,,,,,,,,,,,FEW,4000,,,,,,,VFR,,,,,,,,,,,,METAR,1312.0
OITP 070400Z 16012KT 9999 BKN040 24/16 Q1015,OITP,2023-06-07T04:00:00Z,39.6,47.88,24.0,16.0,160,12,,6.21,29.970472,,,,,,,,,,,BKN,4000,,,,,,,VFR,,,,,,,,,,,,METAR,72.0
OITM 070400Z 08008KT 9999 FEW035TCU SCT040 21/06 Q1016,OITM,2023-06-07T04:00:00Z,37.35,46.15,21.0,6.0,80,8,,6.21,30.0,,,,,,,,,,,FEW,3500,SCT,4000,,,,,VFR,,,,,,,,,,,,METAR,1340.0
OITK 070400Z 06008KT 9999 FEW040 20/08 Q1017 A3004,OITK,2023-06-07T04:00:00Z,38.42,44.98,20.0,8.0,60,8,,6.21,30.029528,,,,,,,,,,,FEW,4000,,,,,,,VFR,,,,,,,,,,,,METAR,1192.0
OISY 070400Z 00000KT 9999 FEW045 BKN200 22/00 Q1022,OISY,2023-06-07T04:00:00Z,30.7,51.55,22.0,0.0,0,0,,6.21,30.177166,,,,,,,,,,,FEW,4500,BKN,20000,,,,,VFR,,,,,,,,,,,,METAR,1800.0
OISR 070400Z 00000KT CAVOK 30/12 Q1007 A2975 NOSIG,OISR,2023-06-07T04:00:00Z,27.37,53.2,30.0,12.0,0,0,,6.21,29.734253,,,,,,TRUE,,,,,CAVOK,,,,,,,,VFR,,,,,,,,,,,,METAR,402.0
OISF 070400Z 00000KT CAVOK 26/04 Q1015 A2998,OISF,2023-06-07T04:00:00Z,28.9,53.72,26.0,4.0,0,0,,6.21,29.970472,,,,,,,,,,,CAVOK,,,,,,,,VFR,,,,,,,,,,,,METAR,1305.0
OINR 070400Z 32006KT 8000 -SHRA FEW022CB BKN026 21/20 Q1014,OINR,2023-06-07T04:00:00Z,36.9,50.67,21.0,20.0,320,6,,4.97,29.940945,,,,,,,,,,-SHRA,FEW,2200,BKN,2600,,,,,MVFR,,,,,,,,,,,,METAR,-19.0
OINN 070400Z 24004KT 1000 +DZ OVC009 21/21 Q1014,OINN,2023-06-07T04:00:00Z,36.67,51.47,21.0,21.0,240,4,,0.62,29.940945,,,,,,,,,,+DZ,OVC,900,,,,,,,LIFR,,,,,,,,,,,,METAR,-25.0
OING 070400Z 24006KT 8000 SCT030 OVC080 24/21 Q1016 TEMPO 5000 RA,OING,2023-06-07T04:00:00Z,36.9,54.4,24.0,21.0,240,6,,4.97,30.0,,,,,,,,,,,SCT,3000,OVC,8000,,,,,MVFR,,,,,,,,,,,,METAR,0.0
OINE 070400Z 00000KT 9999 SCT030 BKN090 24/21 Q1013,OINE,2023-06-07T04:00:00Z,37.38,55.45,24.0,21.0,0,0,,6.21,29.911417,,,,,,,,,,,SCT,3000,BKN,9000,,,,,VFR,,,,,,,,,,,,METAR,125.0
OIMS 070400Z 05010KT 9999 SCT035 SCT200 29/04 Q1016,OIMS,2023-06-07T04:00:00Z,36.17,57.6,29.0,4.0,50,10,,6.21,30.0,,,,,,,,,,,SCT,3500,SCT,20000,,,,,VFR,,,,,,,,,,,,METAR,920.0
OIMQ 070400Z 12010KT 9999 FEW040 30/M01 Q1015,OIMQ,2023-06-07T04:00:00Z,35.27,58.47,30.0,-1.0,120,10,,6.21,29.970472,,,,,,,,,,,FEW,4000,,,,,,,VFR,,,,,,,,,,,,METAR,1101.0
OIMN 070400Z 03004KT 9000 FEW012 SCT030CB OVC160 20/15 Q1019,OIMN,2023-06-07T04:00:00Z,37.48,57.3,20.0,15.0,30,4,,5.59,30.088583,,,,,,,,,,,FEW,1200,SCT,3000,OVC,16000,,,VFR,,,,,,,,,,,,METAR,1065.0
OIMJ 070400Z 03008KT 9999 FEW030CB SCT035 BKN200 25/10 Q1018,OIMJ,2023-06-07T04:00:00Z,36.43,55.1,25.0,10.0,30,8,,6.21,30.059055,,,,,,,,,,,FEW,3000,SCT,3500,BKN,20000,,,VFR,,,,,,,,,,,,METAR,1285.0
OIMD 070400Z 17004KT CAVOK 31/M01 Q1011,OIMD,2023-06-07T04:00:00Z,34.38,58.63,31.0,-1.0,170,4,,6.21,29.852362,,,,,,,,,,,CAVOK,,,,,,,,VFR,,,,,,,,,,,,METAR,1097.0
OIMB 070400Z 11010KT CAVOK 29/M08 Q1016 A3002,OIMB,2023-06-07T04:00:00Z,32.9,59.28,29.0,-8.0,110,10,,6.21,30.0,,,,,,,,,,,CAVOK,,,,,,,,VFR,,,,,,,,,,,,METAR,1512.0
OIKQ 070400Z 24008KT 5000 BR NSC 32/29 Q1002 NOSIG,OIKQ,2023-06-07T04:00:00Z,26.75,55.9,32.0,29.0,240,8,,3.11,29.586615,,,,,,TRUE,,,,BR,CLR,,,,,,,,MVFR,,,,,,,,,,,,METAR,9.0
OIIP 070400Z 31012KT 6000 SCT030 BKN100 18/12 Q1016 A3001,OIIP,2023-06-07T04:00:00Z,35.78,50.83,18.0,12.0,310,12,,3.73,30.0,,,,,,,,,,,SCT,3000,BKN,10000,,,,,MVFR,,,,,,,,,,,,METAR,1270.0
OIIK 070400Z 13002KT CAVOK 20/15 Q1017,OIIK,2023-06-07T04:00:00Z,36.25,50.05,20.0,15.0,130,2,,6.21,30.029528,,,,,,,,,,,CAVOK,,,,,,,,VFR,,,,,,,,,,,,METAR,1278.0
OIIE 070400Z 31018KT 9999 FEW030CB SCT035 BKN100 22/12 Q1015,OIIE,2023-06-07T04:00:00Z,35.42,51.15,22.0,12.0,310,18,,6.21,29.970472,,,,,,,,,,,FEW,3000,SCT,3500,BKN,10000,,,VFR,,,,,,,,,,,,METAR,993.0
OIHR 070400Z 05004KT 6000 FEW035 20/04 Q1019,OIHR,2023-06-07T04:00:00Z,34.13,49.85,20.0,4.0,50,4,,3.73,30.088583,,,,,,,,,,,FEW,3500,,,,,,,MVFR,,,,,,,,,,,,METAR,1658.0
OIHH 070400Z 30004KT CAVOK 18/10 Q1019 A3011,OIHH,2023-06-07T04:00:00Z,34.87,48.55,18.0,10.0,300,4,,6.21,30.088583,,,,,,,,,,,CAVOK,,,,,,,,VFR,,,,,,,,,,,,METAR,1742.0
OIFS 070400Z 16004KT 9999 FEW040 SCT190 20/04 Q1022,OIFS,2023-06-07T04:00:00Z,32.28,50.85,20.0,4.0,160,4,,6.21,30.177166,,,,,,,,,,,FEW,4000,SCT,19000,,,,,VFR,,,,,,,,,,,,METAR,2042.0
OICS 070400Z VRB02KT CAVOK 18/06 Q1018 A3007,OICS,2023-06-07T04:00:00Z,35.25,47.02,18.0,6.0,0,2,,6.21,30.059055,,,,,,,,,,,CAVOK,,,,,,,,VFR,,,,,,,,,,,,METAR,1369.0
OICM 070400Z 05002KT CAVOK 33/08 Q1008,OICM,2023-06-07T04:00:00Z,,,33.0,8.0,50,2,,6.21,29.763779,,,,,,,,,,,CAVOK,,,,,,,,VFR,,,,,,,,,,,,METAR,
OICK 070400Z 11004KT 9999 FEW090 BKN160 23/06 Q1014,OICK,2023-06-07T04:00:00Z,33.43,48.28,23.0,6.0,110,4,,6.21,29.940945,,,,,,,,,,,FEW,9000,BKN,16000,,,,,VFR,,,,,,,,,,,,METAR,1156.0
OICI 070400Z 13004KT 9999 FEW040 SCT080 BKN170 23/03 Q1017 A3004,OICI,2023-06-07T04:00:00Z,33.58,46.4,23.0,3.0,130,4,,6.21,30.029528,,,,,,,,,,,FEW,4000,SCT,8000,BKN,17000,,,VFR,,,,,,,,,,,,METAR,1323.0
OIBV 070400Z 27004KT 3000 BR NSC 31/28 Q1003,OIBV,2023-06-07T04:00:00Z,26.82,53.35,31.0,28.0,270,4,,1.86,29.616142,,,,,,,,,,BR,CLR,,,,,,,,IFR,,,,,,,,,,,,METAR,23.0
OIBS 070400Z 18006KT 4000 BR NSC 32/28 Q1003,OIBS,2023-06-07T04:00:00Z,25.9,54.55,32.0,28.0,180,6,,2.49,29.616142,,,,,,,,,,BR,CLR,,,,,,,,IFR,,,,,,,,,,,,METAR,4.0
OIBQ 070400Z 29008KT 8000 SCT040 BKN100 32/23 Q1004,OIBQ,2023-06-07T04:00:00Z,29.27,50.32,32.0,23.0,290,8,,4.97,29.64567,,,,,,,,,,,SCT,4000,BKN,10000,,,,,MVFR,,,,,,,,,,,,METAR,3.0
OIBP 070400Z 16004KT 4000 HZ NSC 31/21 Q1002 A2960,OIBP,2023-06-07T04:00:00Z,27.38,52.73,31.0,21.0,160,4,,2.49,29.586615,,,,,,,,,,HZ,CLR,,,,,,,,IFR,,,,,,,,,,,,METAR,13.0
OIBL 070400Z 00000KT 8000 NSC 32/25 Q1003,OIBL,2023-06-07T04:00:00Z,26.53,54.82,32.0,25.0,0,0,,4.97,29.616142,,,,,,,,,,,CLR,,,,,,,,MVFR,,,,,,,,,,,,METAR,25.0
OIBJ 070400Z AUTO 00000KT //// // ////// 36/09 Q1009,OIBJ,2023-06-07T04:00:00Z,27.82,52.35,36.0,9.0,0,0,,,29.793306,,,TRUE,,,,,,,,,,,,,,,,,,,,,,,,,,,,METAR,647.0
OIBH 070400Z 30006KT 7000 NSC 32/23 Q1004 A2966,OIBH,2023-06-07T04:00:00Z,27.2,54.32,32.0,23.0,300,6,,4.35,29.64567,,,,,,,,,,,CLR,,,,,,,,MVFR,,,,,,,,,,,,METAR,412.0
OIBA 070400Z 28006KT 2500 BR NSC 31/28 Q1002,OIBA,2023-06-07T04:00:00Z,25.88,55.03,31.0,28.0,280,6,,1.55,29.586615,,,,,,,,,,BR,CLR,,,,,,,,IFR,,,,,,,,,,,,METAR,7.0
OIAM 070400Z 30004KT 9999 FEW040 32/17 Q1004,OIAM,2023-06-07T04:00:00Z,30.55,49.15,32.0,17.0,300,4,,6.21,29.64567,,,,,,,,,,,FEW,4000,,,,,,,VFR,,,,,,,,,,,,METAR,7.0
OIAH 070400Z VRB02KT 8000 FEW050 SCT100 BKN190 29/09 Q1010,OIAH,2023-06-07T04:00:00Z,30.33,50.83,29.0,9.0,0,2,,4.97,29.822834,,,,,,,,,,,FEW,5000,SCT,10000,BKN,19000,,,MVFR,,,,,,,,,,,,METAR,730.0
OIAG 070400Z 33012KT CAVOK 34/11 Q1005,OIAG,2023-06-07T04:00:00Z,30.73,49.68,34.0,11.0,330,12,,6.21,29.675198,,,,,,,,,,,CAVOK,,,,,,,,VFR,,,,,,,,,,,,METAR,17.0
OIAA 070400Z 30010KT 7000 NSC 35/13 Q1005,OIAA,2023-06-07T04:00:00Z,30.35,48.22,35.0,13.0,300,10,,4.35,29.675198,,,,,,,,,,,CLR,,,,,,,,MVFR,,,,,,,,,,,,METAR,4.0
OEYN 070400Z 09010KT CAVOK 29/25 Q1005 NOSIG,OEYN,2023-06-07T04:00:00Z,24.13,38.07,29.0,25.0,90,10,,6.21,29.675198,,,,,,TRUE,,,,,CAVOK,,,,,,,,VFR,,,,,,,,,,,,METAR,20.0
OEWJ 070400Z 00000KT CAVOK 26/21 Q1008 NOSIG,OEWJ,2023-06-07T04:00:00Z,26.18,36.47,26.0,21.0,0,0,,6.21,29.763779,,,,,,TRUE,,,,,CAVOK,,,,,,,,VFR,,,,,,,,,,,,METAR,8.0
OEWD 070400Z 35006KT CAVOK 30/07 Q1010,OEWD,2023-06-07T04:00:00Z,20.5,45.2,30.0,7.0,350,6,,6.21,29.822834,,,,,,,,,,,CAVOK,,,,,,,,VFR,,,,,,,,,,,,METAR,629.0
OETR 070400Z 30010KT CAVOK 21/09 Q1012 NOSIG,OETR,2023-06-07T04:00:00Z,31.7,38.73,21.0,9.0,300,10,,6.21,29.88189,,,,,,TRUE,,,,,CAVOK,,,,,,,,VFR,,,,,,,,,,,,METAR,854.0
OETF 070400Z 24005KT 9999 FEW030 SCT080 23/16 Q1020 NOSIG,OETF,2023-06-07T04:00:00Z,21.47,40.53,23.0,16.0,240,5,,6.21,30.11811,,,,,,TRUE,,,,,FEW,3000,SCT,8000,,,,,VFR,,,,,,,,,,,,METAR,1460.0
OETB 070400Z 00000KT CAVOK 24/00 Q1013 NOSIG,OETB,2023-06-07T04:00:00Z,28.37,36.62,24.0,0.0,0,0,,6.21,29.911417,,,,,,TRUE,,,,,CAVOK,,,,,,,,VFR,,,,,,,,,,,,METAR,770.0
OESK 070400Z 27006KT CAVOK 26/M03 Q1013 NOSIG,OESK,2023-06-07T04:00:00Z,29.78,40.1,26.0,-3.0,270,6,,6.21,29.911417,,,,,,TRUE,,,,,CAVOK,,,,,,,,VFR,,,,,,,,,,,,METAR,671.0
OESH 070400Z 21006KT CAVOK 27/03 Q1010 NOSIG,OESH,2023-06-07T04:00:00Z,17.47,47.12,27.0,3.0,210,6,,6.21,29.822834,,,,,,TRUE,,,,,CAVOK,,,,,,,,VFR,,,,,,,,,,,,METAR,720.0
OERR 070400Z 32007KT CAVOK 26/M01 Q1008 NOSIG,OERR,2023-06-07T04:00:00Z,30.9,41.13,26.0,-1.0,320,7,,6.21,29.763779,,,,,,TRUE,,,,,CAVOK,,,,,,,,VFR,,,,,,,,,,,,METAR,554.0
OERK 070400Z 27006KT CAVOK 30/05 Q1012 NOSIG,OERK,2023-06-07T04:00:00Z,24.95,46.72,30.0,5.0,270,6,,6.21,29.88189,,,,,,TRUE,,,,,CAVOK,,,,,,,,VFR,,,,,,,,,,,,METAR,618.0
OERF 070400Z 22013KT CAVOK 30/10 Q1007 NOSIG,OERF,2023-06-07T04:00:00Z,29.62,43.48,30.0,10.0,220,13,,6.21,29.734253,,,,,,TRUE,,,,,CAVOK,,,,,,,,VFR,,,,,,,,,,,,METAR,441.0
OEPA 070400Z 24010KT 9999 BKN035 34/08 Q1008 NOSIG,OEPA,2023-06-07T04:00:00Z,28.33,46.12,34.0,8.0,240,10,,6.21,29.763779,,,,,,TRUE,,,,,BKN,3500,,,,,,,VFR,,,,,,,,,,,,METAR,361.0
OENG 070400Z 32004KT CAVOK 28/06 Q1016 NOSIG,OENG,2023-06-07T04:00:00Z,17.62,44.42,28.0,6.0,320,4,,6.21,30.0,,,,,,TRUE,,,,,CAVOK,,,,,,,,VFR,,,,,,,,,,,,METAR,1210.0
OEMN 070400Z 36002KT CAVOK 35/17 Q1010,OEMN,2023-06-07T04:00:00Z,,,35.0,17.0,360,2,,6.21,29.822834,,,,,,,,,,,CAVOK,,,,,,,,VFR,,,,,,,,,,,,METAR,
OEMA 070400Z VRB02KT CAVOK 31/12 Q1013 NOSIG,OEMA,2023-06-07T04:00:00Z,24.55,39.7,31.0,12.0,0,2,,6.21,29.911417,,,,,,TRUE,,,,,CAVOK,,,,,,,,VFR,,,,,,,,,,,,METAR,639.0
OEKM 070400Z 36004KT 9999 FEW022 21/09 Q1025 NOSIG,OEKM,2023-06-07T04:00:00Z,18.3,42.78,21.0,9.0,360,4,,6.21,30.265747,,,,,,TRUE,,,,,FEW,2200,,,,,,,VFR,,,,,,,,,,,,METAR,2038.0
OEKJ 070400Z 31007KT 9000 NSC 32/06 Q1013,OEKJ,2023-06-07T04:00:00Z,24.07,47.58,32.0,6.0,310,7,,5.59,29.911417,,,,,,,,,,,CLR,,,,,,,,VFR,,,,,,,,,,,,METAR,487.0
OEJN 070400Z 34008KT 9999 FEW040 31/26 Q1007 NOSIG,OEJN,2023-06-07T04:00:00Z,21.68,39.15,31.0,26.0,340,8,,6.21,29.734253,,,,,,TRUE,,,,,FEW,4000,,,,,,,VFR,,,,,,,,,,,,METAR,8.0
OEHL 070400Z 21010KT CAVOK 26/05 Q1014,OEHL,2023-06-07T04:00:00Z,27.43,41.68,26.0,5.0,210,10,,6.21,29.940945,,,,,,,,,,,CAVOK,,,,,,,,VFR,,,,,,,,,,,,METAR,1002.0
OEGT 070400Z 28004KT CAVOK 20/10 Q1011 NOSIG,OEGT,2023-06-07T04:00:00Z,31.42,37.27,20.0,10.0,280,4,,6.21,29.852362,,,,,,TRUE,,,,,CAVOK,,,,,,,,VFR,,,,,,,,,,,,METAR,512.0
OEGS 070400Z 22005KT CAVOK 27/17 Q1010,OEGS,2023-06-07T04:00:00Z,26.3,43.77,27.0,17.0,220,5,,6.21,29.822834,,,,,,,,,,,CAVOK,,,,,,,,VFR,,,,,,,,,,,,METAR,647.0
OEGN 070400Z 00000KT 9000 NSC 33/24 Q1008 NOSIG,OEGN,2023-06-07T04:00:00Z,16.9,42.58,33.0,24.0,0,0,,5.59,29.763779,,,,,,TRUE,,,,,CLR,,,,,,,,VFR,,,,,,,,,,,,METAR,5.0
OEDR 070400Z 28005KT CAVOK 33/09 Q1004,OEDR,2023-06-07T04:00:00Z,26.27,50.17,33.0,9.0,280,5,,6.21,29.64567,,,,,,,,,,,CAVOK,,,,,,,,VFR,,,,,,,,,,,,METAR,17.0
OEDM 070400Z 06007KT 9000 NSC 28/09 Q1014,OEDM,2023-06-07T04:00:00Z,24.45,44.12,28.0,9.0,60,7,,5.59,29.940945,,,,,,,,,,,CLR,,,,,,,,VFR,,,,,,,,,,,,METAR,922.0
OEDF 070400Z 31005KT CAVOK 32/07 Q1005 NOSIG,OEDF,2023-06-07T04:00:00Z,26.43,49.82,32.0,7.0,310,5,,6.21,29.675198,,,,,,TRUE,,,,,CAVOK,,,,,,,,VFR,,,,,,,,,,,,METAR,15.0
OEBH 070400Z 19005KT CAVOK 25/17 Q1016 NOSIG,OEBH,2023-06-07T04:00:00Z,19.98,42.62,25.0,17.0,190,5,,6.21,30.0,,,,,,TRUE,,,,,CAVOK,,,,,,,,VFR,,,,,,,,,,,,METAR,1167.0
OEBA 070400Z 25004KT 9999 FEW030 23/11 Q1021 NOSIG,OEBA,2023-06-07T04:00:00Z,20.3,41.63,23.0,11.0,250,4,,6.21,30.147638,,,,,,TRUE,,,,,FEW,3000,,,,,,,VFR,,,,,,,,,,,,METAR,1659.0
OEAO 070400Z 35002KT CAVOK 26/02 Q1013 NOSIG,OEAO,2023-06-07T04:00:00Z,26.48,38.12,26.0,2.0,350,2,,6.21,29.911417,,,,,,TRUE,,,,,CAVOK,,,,,,,,VFR,,,,,,,,,,,,METAR,615.0
OEAH 070400Z 31008KT CAVOK 34/07 Q1006 NOSIG,OEAH,2023-06-07T04:00:00Z,25.28,49.48,34.0,7.0,310,8,,6.21,29.704725,,,,,,TRUE,,,,,CAVOK,,,,,,,,VFR,,,,,,,,,,,,METAR,180.0
OEAB 070400Z 00000KT 9999 FEW020 20/12 Q1025 NOSIG,OEAB,2023-06-07T04:00:00Z,18.23,42.65,20.0,12.0,0,0,,6.21,30.265747,,,,,,TRUE,,,,,FEW,2000,,,,,,,VFR,,,,,,,,,,,,METAR,2092.0
NVVW 070400Z 13006KT 9999 SCT020 BKN120 25/18 Q1013,NVVW,2023-06-07T04:00:00Z,-19.45,169.22,25.0,18.0,130,6,,6.21,29.911417,,,,,,,,,,,SCT,2000,BKN,12000,,,,,VFR,,,,,,,,,,,,METAR,5.0
NVVV 070400Z 11008KT 9999 BKN020 FEW025TCU 23/21 Q1013 RESHRA,NVVV,2023-06-07T04:00:00Z,-17.68,168.3,23.0,21.0,110,8,,6.21,29.911417,,,,,,,,,,,BKN,2000,FEW,2500,,,,,MVFR,,,,,,,,,,,,METAR,23.0
NVSS 070400Z 15007KT 9999 FEW025 BKN120 27/20 Q1011,NVSS,2023-06-07T04:00:00Z,-15.52,167.22,27.0,20.0,150,7,,6.21,29.852362,,,,,,,,,,,FEW,2500,BKN,12000,,,,,VFR,,,,,,,,,,,,METAR,47.0
NSFA 070400Z 00000KT 9999 FEW018CB BKN020 28/27 Q1010 RMK CB TO NW,NSFA,2023-06-07T04:00:00Z,-13.83,-172.0,28.0,27.0,0,0,,6.21,29.822834,,,,,,,,,,,FEW,1800,BKN,2000,,,,,MVFR,,,,,,,,,,,,METAR,6.0
NIUE 070400Z AUTO 07009KT NCD 26/22 Q1013,NIUE,2023-06-07T04:00:00Z,-19.07,-169.92,26.0,22.0,70,9,,,29.911417,,,TRUE,,,,,,,,CLR,,,,,,,,,,,,,,,,,,,,METAR,22.0
NGTA 070400Z 06005KT 9999 FEW019 32/26 Q1007,NGTA,2023-06-07T04:00:00Z,1.37,173.13,32.0,26.0,60,5,,6.21,29.734253,,,,,,,,,,,FEW,1900,,,,,,,VFR,,,,,,,,,,,,METAR,8.0
NGFU 070400Z 08005KT 9999 FEW018TCU SCT310 32/27 Q1008,NGFU,2023-06-07T04:00:00Z,-8.52,179.18,32.0,27.0,80,5,,6.21,29.763779,,,,,,,,,,,FEW,1800,SCT,31000,,,,,VFR,,,,,,,,,,,,METAR,2.0
NFTV 070400Z 23003KT 9999 FEW017TCU BKN120 26/23 Q1011,NFTV,2023-06-07T04:00:00Z,-18.58,-173.97,26.0,23.0,230,3,,6.21,29.852362,,,,,,,,,,,FEW,1700,BKN,12000,,,,,VFR,,,,,,,,,,,,METAR,71.0
NFTL 070400Z 12005KT 9999 FEW008 SCT016TCU BKN100 25/24 Q1011,NFTL,2023-06-07T04:00:00Z,-19.78,-174.33,25.0,24.0,120,5,,6.21,29.852362,,,,,,,,,,,FEW,800,SCT,1600,BKN,10000,,,VFR,,,,,,,,,,,,METAR,10.0
NFNS 070400Z 21019KT 1000 +SHRA BKN015 OVC040 23/22 Q1013,NFNS,2023-06-07T04:00:00Z,-16.82,179.33,23.0,22.0,210,19,,0.62,29.911417,,,,,,,,,,+SHRA,BKN,1500,OVC,4000,,,,,LIFR,,,,,,,,,,,,METAR,4.0
NFNM 070400Z 00000KT 9999 SCT018TCU BKN048 OVC110 26/25 Q1011,NFNM,2023-06-07T04:00:00Z,-16.68,-179.87,26.0,25.0,0,0,,6.21,29.852362,,,,,,,,,,,SCT,1800,BKN,4800,OVC,11000,,,VFR,,,,,,,,,,,,METAR,21.0
NFNL 070400Z 25010KT 1500 +RA SCT022TCU BKN045 OVC100 23/21 Q1013,NFNL,2023-06-07T04:00:00Z,-16.47,179.33,23.0,21.0,250,10,,0.93,29.911417,,,,,,,,,,+RA,SCT,2200,BKN,4500,OVC,10000,,,LIFR,,,,,,,,,,,,SPECI,17.0
NFNA 070400Z 01004KT 9999 SCT016 SCT045 BKN100 24/22 Q101 RESHRA,NFNA,2023-06-07T04:00:00Z,-18.05,178.57,24.0,22.0,10,4,,6.21,,,,,,,,,,,,SCT,1600,SCT,4500,BKN,10000,,,VFR,,,,,,,,,,,,METAR,6.0
NFFN 070400Z 06007KT 9999 -RA FEW025TCU SCT047 BKN100 24/22 Q1012 TEMPO 5000 TSRA FEW018CB,NFFN,2023-06-07T04:00:00Z,-17.75,177.45,24.0,22.0,60,7,,6.21,29.88189,,,,,,,,,,-RA,FEW,2500,SCT,4700,BKN,10000,,,VFR,,,,,,,,,,,,METAR,14.0
NCSW 070400Z AUTO NIL,NCSW,2023-06-07T04:00:00Z,,,,,,,,,,,,TRUE,,,,,,,,,,,,,,,,,,,,,,,,,,,,METAR,
NCRK 070400Z AUTO NIL,NCRK,2023-06-07T04:00:00Z,-10.02,-161.1,,,,,,,,,,TRUE,,,,,,,,,,,,,,,,,,,,,,,,,,,,METAR,7.0
NCPY 070400Z AUTO 10010KT //// ////// 28/25 Q1011,NCPY,2023-06-07T04:00:00Z,-9.02,-158.03,28.0,25.0,100,10,,,29.852362,,,TRUE,,,,,,,,,,,,,,,,,,,,,,,,,,,,METAR,2.0
NCPL 070400Z AUTO NIL,NCPL,2023-06-07T04:00:00Z,1.98,-157.48,,,,,,,,,,TRUE,,,,,,,,,,,,,,,,,,,,,,,,,,,,METAR,3.0
NCPK 070400Z AUTO 12003KT //// ////// 29/25 Q1010,NCPK,2023-06-07T04:00:00Z,-10.9,-165.83,29.0,25.0,120,3,,,29.822834,,,TRUE,,,,,,,,,,,,,,,,,,,,,,,,,,,,METAR,5.0
NCNS 070400Z AUTO NIL,NCNS,2023-06-07T04:00:00Z,,,,,,,,,,,,TRUE,,,,,,,,,,,,,,,,,,,,,,,,,,,,METAR,
NCMR 070400Z AUTO 07001KT //// ////// ///// Q1016,NCMR,2023-06-07T04:00:00Z,-19.85,-157.7,,,70,1,,,30.0,,,TRUE,,,,,,,,,,,,,,,,,,,,,,,,,,,,METAR,8.0
NCMK 070400Z AUTO 20002KT //// ////// 23/20 Q1015,NCMK,2023-06-07T04:00:00Z,-20.15,-157.33,23.0,20.0,200,2,,,29.970472,,,TRUE,,,,,,,,,,,,,,,,,,,,,,,,,,,,METAR,13.0
NCMH 070400Z AUTO NIL,NCMH,2023-06-07T04:00:00Z,-10.38,-161.0,,,,,,,,,,TRUE,,,,,,,,,,,,,,,,,,,,,,,,,,,,METAR,1.0
NCMG 070400Z AUTO 12005KT //// ////// ///// Q////,NCMG,2023-06-07T04:00:00Z,-21.88,-157.9,,,120,5,,,,,,TRUE,,,,,,,,,,,,,,,,,,,,,,,,,,,,METAR,14.0
NCAT 070400Z AUTO NIL,NCAT,2023-06-07T04:00:00Z,-19.97,-158.12,,,,,,,,,,TRUE,,,,,,,,,,,,,,,,,,,,,,,,,,,,METAR,11.0
NCAI 070400Z AUTO 15006KT //// ////// 26/18 Q1016,NCAI,2023-06-07T04:00:00Z,-18.82,-159.77,26.0,18.0,150,6,,,30.0,,,TRUE,,,,,,,,,,,,,,,,,,,,,,,,,,,,METAR,7.0
MYSM 070400Z AUTO 19005KT 9999 -SHRA OVC140/// 25/24 A2997,MYSM,2023-06-07T04:00:00Z,24.05,-74.52,25.0,24.0,190,5,,6.21,29.970472,,,TRUE,,,,,,,-SHRA,OVC,14000,,,,,,,VFR,,,,,,,,,,,,METAR,5.0
MYNN 070400Z 14012KT 4000 +SHRA FEW012CB BKN016 BKN050 25/23 A2996,MYNN,2023-06-07T04:00:00Z,25.03,-77.47,25.0,23.0,140,12,,2.49,29.958662,,,,,,,,,,+SHRA,FEW,1200,BKN,1600,BKN,5000,,,IFR,,,,,,,,,,,,METAR,5.0
MYGF 070400Z AUTO 09003KT 9999 // NCD 23/21 A2993,MYGF,2023-06-07T04:00:00Z,26.55,-78.7,23.0,21.0,90,3,,6.21,29.929134,,,TRUE,,,,,,,,CLR,,,,,,,,VFR,,,,,,,,,,,,METAR,2.0
MROC 070400Z 08004KT CAVOK 22/20 A3004 NOSIG,MROC,2023-06-07T04:00:00Z,10.0,-84.22,22.0,20.0,80,4,,6.21,30.041338,,,,,,TRUE,,,,,CAVOK,,,,,,,,VFR,,,,,,,,,,,,METAR,900.0
MRLB 070400Z VRB02KT 9999 SCT040 SCT180 24/23 A2988,MRLB,2023-06-07T04:00:00Z,10.6,-85.55,24.0,23.0,0,2,,6.21,29.878937,,,,,,,,,,,SCT,4000,SCT,18000,,,,,VFR,,,,,,,,,,,,METAR,79.0
MPMG 070400Z AUTO 30004KT 270V330 //// R01///// // BKN210/// 26/23 Q1011,MPMG,2023-06-07T04:00:00Z,8.98,-79.57,26.0,23.0,300,4,,,29.852362,,,TRUE,,,,,,,,BKN,21000,,,,,,,,,,,,,,,,,,,SPECI,6.0
MNMG 070400Z 12008KT 9999 SCT021 SCT070 27/24 Q1011 A2986 NOSIG,MNMG,2023-06-07T04:00:00Z,12.15,-86.17,27.0,24.0,120,8,,6.21,29.852362,,,,,,TRUE,,,,,SCT,2100,SCT,7000,,,,,VFR,,,,,,,,,,,,METAR,59.0
MKJS 070400Z 32007KT 9999 -TSRA SCT020 BKN022CB 25/23 Q1015,MKJS,2023-06-07T04:00:00Z,18.5,-77.92,25.0,23.0,320,7,,6.21,29.970472,,,,,,,,,,-TSRA,SCT,2000,BKN,2200,,,,,MVFR,,,,,,,,,,,,METAR,3.0
MHTG 070400Z 24002KT 9999 SCT030 FEW032CB 22/19 Q1019 A3009 NOSIG,MHTG,2023-06-07T04:00:00Z,14.07,-87.22,22.0,19.0,240,2,,6.21,30.088583,,,,,,TRUE,,,,,SCT,3000,FEW,3200,,,,,VFR,,,,,,,,,,,,METAR,1001.0
MHRO 070400Z 10018KT 9999 FEW020 28/25 Q1011 A2986 NOSIG,MHRO,2023-06-07T04:00:00Z,16.32,-86.53,28.0,25.0,100,18,,6.21,29.852362,,,,,,TRUE,,,,,FEW,2000,,,,,,,VFR,,,,,,,,,,,,METAR,6.0
MHPR 070400Z 09006KT 9999 SCT046 FEW048CB 25/20 Q1016 A3002 NOSIG,MHPR,2023-06-07T04:00:00Z,14.38,-87.62,25.0,20.0,90,6,,6.21,30.0,,,,,,TRUE,,,,,SCT,4600,FEW,4800,,,,,VFR,,,,,,,,,,,,METAR,628.0
MHLM 070400Z 00000KT 9999 FEW026 26/24 Q1011 A2986 NOSIG,MHLM,2023-06-07T04:00:00Z,15.45,-87.93,26.0,24.0,0,0,,6.21,29.852362,,,,,,TRUE,,,,,FEW,2600,,,,,,,VFR,,,,,,,,,,,,METAR,32.0
MHLC 070400Z 00000KT 9999 FEW020 25/24 Q1010 A2983 NOSIG,MHLC,2023-06-07T04:00:00Z,15.75,-86.85,25.0,24.0,0,0,,6.21,29.822834,,,,,,TRUE,,,,,FEW,2000,,,,,,,VFR,,,,,,,,,,,,METAR,13.0
MHCA 070400Z 00000KT 9999 BKN028 24/21 Q1012,MHCA,2023-06-07T04:00:00Z,14.87,-85.78,24.0,21.0,0,0,,6.21,29.88189,,,,,,,,,,,BKN,2800,,,,,,,MVFR,,,,,,,,,,,,METAR,386.0
MGPB 070400Z 00000KT CAVOK 24/23 Q1010 A2983,MGPB,2023-06-07T04:00:00Z,15.73,-88.58,24.0,23.0,0,0,,6.21,29.822834,,,,,,,,,,,CAVOK,,,,,,,,VFR,,,,,,,,,,,,METAR,6.0
MGMM 070400Z 14004KT CAVOK 26/23 Q1012 A2988,MGMM,2023-06-07T04:00:00Z,16.9,-89.87,26.0,23.0,140,4,,6.21,29.88189,,,,,,,,,,,CAVOK,,,,,,,,VFR,,,,,,,,,,,,METAR,105.0
MGHT 070400Z 00000KT CAVOK 16/13 BKN200,MGHT,2023-06-07T04:00:00Z,15.32,-91.5,16.0,13.0,0,0,,6.21,,,,,,,,,,,,BKN,20000,,,,,,,VFR,,,,,,,,,,,,METAR,1875.0
MGGT 070400Z 00000KT 8000 FEW014 19/17 Q1021 A3015 BR FEW200 CB/LTNG DIST S,MGGT,2023-06-07T04:00:00Z,14.58,-90.53,19.0,17.0,0,0,,4.97,30.147638,,,,,,,,,,BR,FEW,1400,FEW,20000,,,,,MVFR,,,,,,,,,,,,METAR,1497.0
MDST 070400Z 10004KT 9999 FEW016 SCT300 26/24 Q1014,MDST,2023-06-07T04:00:00Z,19.4,-70.6,26.0,24.0,100,4,,6.21,29.940945,,,,,,,,,,,FEW,1600,SCT,30000,,,,,VFR,,,,,,,,,,,,METAR,175.0
MDSD 070400Z 15005KT 9999 FEW018 SCT300 25/25 Q1015,MDSD,2023-06-07T04:00:00Z,18.42,-69.67,25.0,25.0,150,5,,6.21,29.970472,,,,,,,,,,,FEW,1800,SCT,30000,,,,,VFR,,,,,,,,,,,,METAR,18.0
MDPC 070400Z 14004KT 9999 FEW018 SCT300 28/26 Q1016,MDPC,2023-06-07T04:00:00Z,18.57,-68.37,28.0,26.0,140,4,,6.21,30.0,,,,,,,,,,,FEW,1800,SCT,30000,,,,,VFR,,,,,,,,,,,,METAR,10.0
LPLA 070400Z /////KT 5000 BR SCT006 BKN016 17/16 Q1006,LPLA,2023-06-07T04:00:00Z,38.77,-27.1,17.0,16.0,,,,3.11,29.704725,,,,,,,,,,BR,SCT,600,BKN,1600,,,,,MVFR,,,,,,,,,,,,METAR,60.0
LPBJ 070400Z 15009KT 9999 -RA NSC 18/17 Q1009,LPBJ,2023-06-07T04:00:00Z,38.08,-7.93,18.0,17.0,150,9,,6.21,29.793306,,,,,,,,,,-RA,CLR,,,,,,,,VFR,,,,,,,,,,,,METAR,196.0
LKLN 070400Z AUTO VRB02KT 3100 // OVC005 14/13 Q1018,LKLN,2023-06-07T04:00:00Z,49.68,13.27,14.0,13.0,0,2,,1.93,30.059055,,,TRUE,,,,,,,,OVC,500,,,,,,,IFR,,,,,,,,,,,,METAR,353.0
LKKV 070400Z 19001KT 0800 R29/0600U FG SCT003 BKN020 11/10 Q1018,LKKV,2023-06-07T04:00:00Z,50.2,12.92,11.0,10.0,190,1,,0.5,30.059055,,,,,,,,,,FG,SCT,300,BKN,2000,,,,,LIFR,,,,,,,,,,,,METAR,600.0
LKKB 070400Z 28002KT 7000 NSC 15/14 Q1017 NOSIG,LKKB,2023-06-07T04:00:00Z,50.12,14.53,15.0,14.0,280,2,,4.35,30.029528,,,,,,TRUE,,,,,CLR,,,,,,,,MVFR,,,,,,,,,,,,METAR,281.0
LBWB 070400Z 35006KT 9999 BR FEW200 13/12 Q1019,LBWB,2023-06-07T04:00:00Z,43.42,28.18,13.0,12.0,350,6,,6.21,30.088583,,,,,,,,,,BR,FEW,20000,,,,,,,VFR,,,,,,,,,,,,METAR,190.0
LBPL 070400Z 09002KT 9999 FEW200 15/11 Q1017,LBPL,2023-06-07T04:00:00Z,43.45,24.5,15.0,11.0,90,2,,6.21,30.029528,,,,,,,,,,,FEW,20000,,,,,,,VFR,,,,,,,,,,,,METAR,93.0
LBPG 070400Z 34002KT 8000 BR FEW007 BKN200 12/11 Q1019,LBPG,2023-06-07T04:00:00Z,42.28,24.72,12.0,11.0,340,2,,4.97,30.088583,,,,,,,,,,BR,FEW,700,BKN,20000,,,,,MVFR,,,,,,,,,,,,METAR,198.0
LBIA 070400Z 13002KT 6000 BKN011 12/12 Q1019,LBIA,2023-06-07T04:00:00Z,42.45,26.35,12.0,12.0,130,2,,3.73,30.088583,,,,,,,,,,,BKN,1100,,,,,,,MVFR,,,,,,,,,,,,METAR,155.0
KSNS 070400Z 36010KT 10SM BKN029 OVC035 16/11 A2989 RMK AO2 T01610106,KSNS,2023-06-07T04:00:00Z,36.67,-121.6,16.1,10.6,360,10,,10.0,29.890747,,,,TRUE,,,,,,,BKN,2900,OVC,3500,,,,,MVFR,,,,,,,,,,,,SPECI,20.0
KNEL 070400Z AUTO 28003KT OVC050 16/06 A2966 RMK AO2 SLP041 T01560061 $,KNEL,2023-06-07T04:00:00Z,40.03,-74.33,15.6,6.1,280,3,,,29.660433,1004.1,,TRUE,TRUE,TRUE,,,,,,OVC,5000,,,,,,,,,,,,,,,,,,,METAR,26.0
KELD 070400Z AUTO 01007KT 10SM FEW048 SCT060 23/16 A2990 RMK AO2 T02280161,KELD,2023-06-07T04:00:00Z,33.22,-92.82,22.8,16.1,10,7,,10.0,29.899607,,,TRUE,TRUE,,,,,,,FEW,4800,SCT,6000,,,,,VFR,,,,,,,,,,,,SPECI,76.0
HTZA 070400Z 21010KT 9999 SCT018 BKN080 25/23 Q1016 NOSIG,HTZA,2023-06-07T04:00:00Z,-6.22,39.22,25.0,23.0,210,10,,6.21,30.0,,,,,,TRUE,,,,,SCT,1800,BKN,8000,,,,,VFR,,,,,,,,,,,,METAR,19.0
HTTB 070400Z 12010KT CAVOK 17/13 Q1021 NOSIG,HTTB,2023-06-07T04:00:00Z,-5.07,32.82,17.0,13.0,120,10,,6.21,30.147638,,,,,,TRUE,,,,,CAVOK,,,,,,,,VFR,,,,,,,,,,,,METAR,1185.0
HTSU 070400Z 00000KT 9999 FEW016 13/11 Q1025,HTSU,2023-06-07T04:00:00Z,-7.95,31.6,13.0,11.0,0,0,,6.21,30.265747,,,,,,,,,,,FEW,1600,,,,,,,VFR,,,,,,,,,,,,METAR,1820.0
HTSO 070400Z 12003KT 9999 FEW016 15/13 Q1023,HTSO,2023-06-07T04:00:00Z,-10.67,35.58,15.0,13.0,120,3,,6.21,30.206694,,,,,,,,,,,FEW,1600,,,,,,,VFR,,,,,,,,,,,,METAR,1058.0
HTMW 070400Z VRBO2KT 9999 FEW018 FEW019CB 18/14 Q1019 NOSIG,HTMW,2023-06-07T04:00:00Z,-2.43,32.92,18.0,14.0,,,,6.21,30.088583,,,,,,TRUE,,,,,FEW,1800,FEW,1900,,,,,VFR,,,,,,,,,,,,METAR,1144.0
HTMU 070400Z 00000KT 9999 FEW016 FEW018CB 19/17 Q1019,HTMU,2023-06-07T04:00:00Z,-1.5,33.8,19.0,17.0,0,0,,6.21,30.088583,,,,,,,,,,,FEW,1600,FEW,1800,,,,,VFR,,,,,,,,,,,,METAR,1154.0
HTMT 070400Z 18014KT 9999 FEW020 FEW021CB BKN070 23/22 Q1017 NOSIG,HTMT,2023-06-07T04:00:00Z,-10.33,40.18,23.0,22.0,180,14,,6.21,30.029528,,,,,,TRUE,,,,,FEW,2000,FEW,2100,BKN,7000,,,VFR,,,,,,,,,,,,METAR,114.0
HTMP 070400Z 00000KT 9999 FEW015 FEW017CB 18/14 Q1022,HTMP,2023-06-07T04:00:00Z,-6.35,31.08,18.0,14.0,0,0,,6.21,30.177166,,,,,,,,,,,FEW,1500,FEW,1700,,,,,VFR,,,,,,,,,,,,METAR,1073.0
HTMG 070400Z 00000KT 9999 FEW018 18/17 Q1018,HTMG,2023-06-07T04:00:00Z,-6.78,37.65,18.0,17.0,0,0,,6.21,30.059055,,,,,,,,,,,FEW,1800,,,,,,,VFR,,,,,,,,,,,,METAR,512.0
HTKJ 070400Z 00000KT 9999 SCT023 16/16 Q1022 NOSIG,HTKJ,2023-06-07T04:00:00Z,-3.42,37.07,16.0,16.0,0,0,,6.21,30.177166,,,,,,TRUE,,,,,SCT,2300,,,,,,,VFR,,,,,,,,,,,,METAR,893.0
HTKA 070400Z 09005KT 9999 FEW018 20/17 Q1017 NOSIG,HTKA,2023-06-07T04:00:00Z,-4.88,29.67,20.0,17.0,90,5,,6.21,30.029528,,,,,,TRUE,,,,,FEW,1800,,,,,,,VFR,,,,,,,,,,,,METAR,819.0
HTIR 070400Z 00000KT 9999 FEW018 13/10 Q1023,HTIR,2023-06-07T04:00:00Z,-7.67,35.75,13.0,10.0,0,0,,6.21,30.206694,,,,,,,,,,,FEW,1800,,,,,,,VFR,,,,,,,,,,,,METAR,1432.0
HTIB 070400Z VRB02KT CAVOK 17/14 Q1019,HTIB,2023-06-07T04:00:00Z,,,17.0,14.0,0,2,,6.21,30.088583,,,,,,,,,,,CAVOK,,,,,,,,VFR,,,,,,,,,,,,METAR,
HTDO 070400Z 08003KT 9999 FEW016 16/14 Q1021 NOSIG,HTDO,2023-06-07T04:00:00Z,-6.17,35.77,16.0,14.0,80,3,,6.21,30.147638,,,,,,TRUE,,,,,FEW,1600,,,,,,,VFR,,,,,,,,,,,,METAR,1119.0
HTDA 070400Z 23005KT 9999 FEW011 22/21 Q1017 NOSIG,HTDA,2023-06-07T04:00:00Z,-6.88,39.2,22.0,21.0,230,5,,6.21,30.029528,,,,,,TRUE,,,,,FEW,1100,,,,,,,VFR,,,,,,,,,,,,METAR,53.0
HTBU 070400Z 00000KT 9999 SCT014 FEW016CB BKN080 20/18 Q1018,HTBU,2023-06-07T04:00:00Z,-1.32,31.82,20.0,18.0,0,0,,6.21,30.059055,,,,,,,,,,,SCT,1400,FEW,1600,BKN,8000,,,VFR,,,,,,,,,,,,METAR,1144.0
HTAR 070400Z 20005KT 9999 FEW018 14/13 Q1025 NOSIG,HTAR,2023-06-07T04:00:00Z,-3.37,36.63,14.0,13.0,200,5,,6.21,30.265747,,,,,,TRUE,,,,,FEW,1800,,,,,,,VFR,,,,,,,,,,,,METAR,1386.0
HKWJ 070400Z 00000KT 9999 FEW019 23/20 Q1014,HKWJ,2023-06-07T04:00:00Z,1.75,40.08,23.0,20.0,0,0,,6.21,29.940945,,,,,,,,,,,FEW,1900,,,,,,,VFR,,,,,,,,,,,,METAR,254.0
HKNW 070400Z 00000KT 9999 BKN018 16/13 Q1026,HKNW,2023-06-07T04:00:00Z,-1.32,36.82,16.0,13.0,0,0,,6.21,30.295275,,,,,,,,,,,BKN,1800,,,,,,,MVFR,,,,,,,,,,,,METAR,1666.0
HKNK 070400Z 00000KT CAVOK 13/11,HKNK,2023-06-07T04:00:00Z,-0.3,36.17,13.0,11.0,0,0,,6.21,,,,,,,,,,,,CAVOK,,,,,,,,VFR,,,,,,,,,,,,METAR,1900.0
HKNI 070400Z 14003KT 9999 BKN016 15/13,HKNI,2023-06-07T04:00:00Z,-0.33,36.92,15.0,13.0,140,3,,6.21,,,,,,,,,,,,BKN,1600,,,,,,,MVFR,,,,,,,,,,,,METAR,1769.0
HKML 070400Z 00000KT 9999 FEW019 23/20 Q1015,HKML,2023-06-07T04:00:00Z,-3.22,40.1,23.0,20.0,0,0,,6.21,29.970472,,,,,,,,,,,FEW,1900,,,,,,,VFR,,,,,,,,,,,,METAR,20.0
HKME 070400Z 00000KT SKC 11/10,HKME,2023-06-07T04:00:00Z,0.07,37.65,11.0,10.0,0,0,,,,,,,,,,,,,,SKC,,,,,,,,,,,,,,,,,,,,METAR,1609.0
HKLO 070400Z 00000KT CAVOK 27/18 Q1012,HKLO,2023-06-07T04:00:00Z,3.12,35.62,27.0,18.0,0,0,,6.21,29.88189,,,,,,,,,,,CAVOK,,,,,,,,VFR,,,,,,,,,,,,METAR,503.0
HKKT 070400Z 00000KT CAVOK 14/13,HKKT,2023-06-07T04:00:00Z,0.97,34.97,14.0,13.0,0,0,,6.21,,,,,,,,,,,,CAVOK,,,,,,,,VFR,,,,,,,,,,,,METAR,1829.0
HKKI 070400Z 09004KT CAVOK 15/14 Q1019,HKKI,2023-06-07T04:00:00Z,-0.1,34.75,15.0,14.0,90,4,,6.21,30.088583,,,,,,,,,,,CAVOK,,,,,,,,VFR,,,,,,,,,,,,METAR,1152.0
HKJK 070400Z 00000KT 9999 FEW018 15/13 Q1024 NOSIG,HKJK,2023-06-07T04:00:00Z,-1.32,36.92,15.0,13.0,0,0,,6.21,30.236221,,,,,,TRUE,,,,,FEW,1800,,,,,,,VFR,,,,,,,,,,,,METAR,1615.0
HKGO 070400Z AUTO 08004KT 13/13 Q1031 A30.44,HKGO,2023-06-07T04:00:00Z,,,13.0,13.0,80,4,,,30.442913,,,TRUE,,,,,,,,,,,,,,,,,,,,,,,,,,,,METAR,
HKGA 070400Z 00000KT CAVOK 23/20 Q1015,HKGA,2023-06-07T04:00:00Z,-0.47,39.65,23.0,20.0,0,0,,6.21,29.970472,,,,,,,,,,,CAVOK,,,,,,,,VFR,,,,,,,,,,,,METAR,147.0
HKEM 070400Z 00000KT 9999 BKN014 17/14,HKEM,2023-06-07T04:00:00Z,-0.57,37.48,17.0,14.0,0,0,,6.21,,,,,,,,,,,,BKN,1400,,,,,,,MVFR,,,,,,,,,,,,METAR,1265.0
HKEL 070400Z 16003KT 9999 FEW015 BKN240 12/11 Q1026,HKEL,2023-06-07T04:00:00Z,0.4,35.23,12.0,11.0,160,3,,6.21,30.295275,,,,,,,,,,,FEW,1500,BKN,24000,,,,,VFR,,,,,,,,,,,,METAR,2116.0
HESW 070400Z 08015KT CAVOK 21/14 Q1008,HESW,2023-06-07T04:00:00Z,29.35,25.5,21.0,14.0,80,15,,6.21,29.763779,,,,,,,,,,,CAVOK,,,,,,,,VFR,,,,,,,,,,,,METAR,101.0
HESN 070400Z 00000KT CAVOK 29/04 Q1009 NOSIG,HESN,2023-06-07T04:00:00Z,23.97,32.82,29.0,4.0,0,0,,6.21,29.793306,,,,,,TRUE,,,,,CAVOK,,,,,,,,VFR,,,,,,,,,,,,METAR,197.0
HESH 070400Z 01008KT CAVOK 28/15 Q1008 NOSIG,HESH,2023-06-07T04:00:00Z,27.97,34.38,28.0,15.0,10,8,,6.21,29.763779,,,,,,TRUE,,,,,CAVOK,,,,,,,,VFR,,,,,,,,,,,,METAR,50.0
HESG 070400Z 11003KT CAVOK 28/01 Q1007 NOSIG,HESG,2023-06-07T04:00:00Z,26.33,31.75,28.0,1.0,110,3,,6.21,29.734253,,,,,,TRUE,,,,,CAVOK,,,,,,,,VFR,,,,,,,,,,,,METAR,70.0
HERT 070400Z 00000KT CAVOK 26/20 Q1008,HERT,2023-06-07T04:00:00Z,,,26.0,20.0,0,0,,6.21,29.763779,,,,,,,,,,,CAVOK,,,,,,,,VFR,,,,,,,,,,,,METAR,
HEPS 070400Z 07004KT CAVOK 22/00 Q1011 NOSIG,HEPS,2023-06-07T04:00:00Z,31.28,32.25,22.0,0.0,70,4,,6.21,29.852362,,,,,,TRUE,,,,,CAVOK,,,,,,,,VFR,,,,,,,,,,,,METAR,2.0
HEMM 070400Z 05007KT 9999 BKN020 21/18 Q1011 NOSIG,HEMM,2023-06-07T04:00:00Z,31.32,27.22,21.0,18.0,50,7,,6.21,29.852362,,,,,,TRUE,,,,,BKN,2000,,,,,,,MVFR,,,,,,,,,,,,METAR,26.0
HEMA 070400Z 26007KT CAVOK 29/M01 Q1009 NOSIG,HEMA,2023-06-07T04:00:00Z,25.55,34.58,29.0,-1.0,260,7,,6.21,29.793306,,,,,,TRUE,,,,,CAVOK,,,,,,,,VFR,,,,,,,,,,,,METAR,77.0
HELX 070400Z 00000KT CAVOK 27/04 Q1008 NOSIG,HELX,2023-06-07T04:00:00Z,25.67,32.7,27.0,4.0,0,0,,6.21,29.763779,,,,,,TRUE,,,,,CAVOK,,,,,,,,VFR,,,,,,,,,,,,METAR,86.0
HEIS 070400Z 05006KT CAVOK 21/18 Q1011,HEIS,2023-06-07T04:00:00Z,30.58,32.25,21.0,18.0,50,6,,6.21,29.852362,,,,,,,,,,,CAVOK,,,,,,,,VFR,,,,,,,,,,,,METAR,14.0
HEGN 070400Z 33006KT CAVOK 26/09 Q1009 NOSIG,HEGN,2023-06-07T04:00:00Z,27.18,33.8,26.0,9.0,330,6,,6.21,29.793306,,,,,,TRUE,,,,,CAVOK,,,,,,,,VFR,,,,,,,,,,,,METAR,14.0
HEBL 070400Z 00000KT CAVOK 29/15 Q1008 NOSIG,HEBL,2023-06-07T04:00:00Z,22.38,31.62,29.0,15.0,0,0,,6.21,29.763779,,,,,,TRUE,,,,,CAVOK,,,,,,,,VFR,,,,,,,,,,,,METAR,184.0
HEBA 070400Z 07005KT 3000 BR NSC 20/18 Q1011 NOSIG,HEBA,2023-06-07T04:00:00Z,30.92,29.7,20.0,18.0,70,5,,1.86,29.852362,,,,,,TRUE,,,,BR,CLR,,,,,,,,IFR,,,,,,,,,,,,METAR,41.0
HEAT 070400Z 05003KT CAVOK 24/03 Q1010 NOSIG,HEAT,2023-06-07T04:00:00Z,27.05,31.02,24.0,3.0,50,3,,6.21,29.822834,,,,,,TRUE,,,,,CAVOK,,,,,,,,VFR,,,,,,,,,,,,METAR,229.0
HCMM 070400Z 20012KT 9999 FEW020 27/24 Q1014,HCMM,2023-06-07T04:00:00Z,2.02,45.3,27.0,24.0,200,12,,6.21,29.940945,,,,,,,,,,,FEW,2000,,,,,,,VFR,,,,,,,,,,,,METAR,6.0
HCMF 070400Z 19008KT CAVOK 33/23 Q1006,HCMF,2023-06-07T04:00:00Z,11.27,49.13,33.0,23.0,190,8,,6.21,29.704725,,,,,,,,,,,CAVOK,,,,,,,,VFR,,,,,,,,,,,,METAR,8.0
GVSV 070400Z VRB02KT 9999 SCT020 25/21 Q1013 NOSIG,GVSV,2023-06-07T04:00:00Z,16.83,-25.07,25.0,21.0,0,2,,6.21,29.911417,,,,,,TRUE,,,,,SCT,2000,,,,,,,VFR,,,,,,,,,,,,METAR,16.0
GVNP 070400Z 03004KT 9999 FEW014 23/21 Q1014 NOSIG,GVNP,2023-06-07T04:00:00Z,14.95,-23.48,23.0,21.0,30,4,,6.21,29.940945,,,,,,TRUE,,,,,FEW,1400,,,,,,,VFR,,,,,,,,,,,,METAR,70.0
GVAC 070400Z 01005KT 9999 SCT013 BKN100 24/21 Q1014 NOSIG,GVAC,2023-06-07T04:00:00Z,16.73,-22.93,24.0,21.0,10,5,,6.21,29.940945,,,,,,TRUE,,,,,SCT,1300,BKN,10000,,,,,VFR,,,,,,,,,,,,METAR,54.0
GUCY 070400Z VRB02KT 9999 BKN015 28/25 Q1013 NOSIG,GUCY,2023-06-07T04:00:00Z,9.57,-13.62,28.0,25.0,0,2,,6.21,29.911417,,,,,,TRUE,,,,,BKN,1500,,,,,,,MVFR,,,,,,,,,,,,METAR,10.0
GQPP 070400Z 32006KT 6000 SCT006 21/21 Q1014 NOSIG,GQPP,2023-06-07T04:00:00Z,20.92,-17.02,21.0,21.0,320,6,,3.73,29.940945,,,,,,TRUE,,,,,SCT,600,,,,,,,MVFR,,,,,,,,,,,,METAR,5.0
GOSS 070400Z 36004KT 300V020 CAVOK 23/21 Q1012,GOSS,2023-06-07T04:00:00Z,16.05,-16.45,23.0,21.0,360,4,,6.21,29.88189,,,,,,,,,,,CAVOK,,,,,,,,VFR,,,,,,,,,,,,METAR,3.0
GOSP 070400Z 28002KT CAVOK 25/16 Q1011,GOSP,2023-06-07T04:00:00Z,16.68,-14.97,25.0,16.0,280,2,,6.21,29.852362,,,,,,,,,,,CAVOK,,,,,,,,VFR,,,,,,,,,,,,METAR,10.0
GOOY 070400Z 36014KT 9999 FEW013 25/23 Q1012,GOOY,2023-06-07T04:00:00Z,14.73,-17.5,25.0,23.0,360,14,,6.21,29.88189,,,,,,,,,,,FEW,1300,,,,,,,VFR,,,,,,,,,,,,METAR,21.0
GOOD 070400Z 36006KT CAVOK 25/22 Q1011,GOOD,2023-06-07T04:00:00Z,14.65,-16.22,25.0,22.0,360,6,,6.21,29.852362,,,,,,,,,,,CAVOK,,,,,,,,VFR,,,,,,,,,,,,METAR,9.0
GOGG 070400Z 32004KT CAVOK 25/23 Q1012,GOGG,2023-06-07T04:00:00Z,12.55,-16.27,25.0,23.0,320,4,,6.21,29.88189,,,,,,,,,,,CAVOK,,,,,,,,VFR,,,,,,,,,,,,METAR,24.0
GMTN 070400Z 06006KT 5000 FEW010 OVC016 20/18 Q1011 NOSIG,GMTN,2023-06-07T04:00:00Z,35.58,-5.32,20.0,18.0,60,6,,3.11,29.852362,,,,,,TRUE,,,,,FEW,1000,OVC,1600,,,,,MVFR,,,,,,,,,,,,METAR,10.0
GMTA 070400Z 08003KT 8000 SCT026 BKN100 21/17 Q1010 NOSIG,GMTA,2023-06-07T04:00:00Z,35.17,-3.85,21.0,17.0,80,3,,4.97,29.822834,,,,,,TRUE,,,,,SCT,2600,BKN,10000,,,,,MVFR,,,,,,,,,,,,METAR,14.0
GMMZ 070400Z VRB02KT 8000 FEW040 20/07 Q1013 NOSIG,GMMZ,2023-06-07T04:00:00Z,30.93,-6.9,20.0,7.0,0,2,,4.97,29.911417,,,,,,TRUE,,,,,FEW,4000,,,,,,,MVFR,,,,,,,,,,,,METAR,1139.0
GMMW 070400Z 01006KT 8000 SCT008 SCT098 20/18 Q1011 NOSIG,GMMW,2023-06-07T04:00:00Z,34.98,-3.02,20.0,18.0,10,6,,4.97,29.852362,,,,,,TRUE,,,,,SCT,800,SCT,9800,,,,,MVFR,,,,,,,,,,,,METAR,174.0
GMMI 070400Z AUTO 18003KT 8000 NSC 21/// Q1010 NOSIG,GMMI,2023-06-07T04:00:00Z,31.4,-9.68,,,180,3,,4.97,29.822834,,,TRUE,,,TRUE,,,,,CLR,,,,,,,,MVFR,,,0.0,,,,,,,,,METAR,102.0
GMMB 070400Z AUTO 15006KT 9999 BKN130/// OVC150/// 22/22 Q1009 NOSIG,GMMB,2023-06-07T04:00:00Z,33.65,-7.22,22.0,22.0,150,6,,6.21,29.793306,,,TRUE,,,TRUE,,,,,BKN,13000,OVC,15000,,,,,VFR,,,,,,,,,,,,METAR,191.0
GMFM 070400Z VRB01KT 8000 FEW016 SCT020 20/16 Q1011 NOSIG,GMFM,2023-06-07T04:00:00Z,33.87,-5.52,20.0,16.0,0,1,,4.97,29.852362,,,,,,TRUE,,,,,FEW,1600,SCT,2000,,,,,MVFR,,,,,,,,,,,,METAR,569.0
GMFK 070400Z 05005KT 9999 FEW033 25/06 Q1015 NOSIG,GMFK,2023-06-07T04:00:00Z,31.95,-4.4,25.0,6.0,50,5,,6.21,29.970472,,,,,,TRUE,,,,,FEW,3300,,,,,,,VFR,,,,,,,,,,,,METAR,1033.0
GMAT 070400Z 27012KT 9999 BKN008 OVC010 22/20 Q1011,GMAT,2023-06-07T04:00:00Z,28.43,-11.15,22.0,20.0,270,12,,6.21,29.852362,,,,,,,,,,,BKN,800,OVC,1000,,,,,IFR,,,,,,,,,,,,METAR,192.0
GLRB 070400Z 00000KT 9999 BKN011 25/24 Q1012 NOSIG,GLRB,2023-06-07T04:00:00Z,6.25,-10.35,25.0,24.0,0,0,,6.21,29.88189,,,,,,TRUE,,,,,BKN,1100,,,,,,,MVFR,,,,,,,,,,,,METAR,12.0
GFLL 070400Z 10006KT 9999 TS BKN010 FEW027CB 26/22 Q1012 RMK CB SE/NE,GFLL,2023-06-07T04:00:00Z,8.62,-13.18,26.0,22.0,100,6,,6.21,29.88189,,,,,,,,,,TS,BKN,1000,FEW,2700,,,,,MVFR,,,,,,,,,,,,SPECI,28.0
GBYD 070400Z 32006KT CAVOK 25/22 Q1011,GBYD,2023-06-07T04:00:00Z,13.33,-16.65,25.0,22.0,320,6,,6.21,29.852362,,,,,,,,,,,CAVOK,,,,,,,,VFR,,,,,,,,,,,,METAR,29.0
FZAA 070400Z 26006KT 6000 BKN014 23/20 Q1014 NOSIG,FZAA,2023-06-07T04:00:00Z,-4.38,15.45,23.0,20.0,260,6,,3.73,29.940945,,,,,,TRUE,,,,,BKN,1400,,,,,,,MVFR,,,,,,,,,,,,METAR,309.0
FYWH 070400Z 32006KT CAVOK 07/M02 Q1024 NOSIG,FYWH,2023-06-07T04:00:00Z,-22.47,17.47,7.0,-2.0,320,6,,6.21,30.236221,,,,,,TRUE,,,,,CAVOK,,,,,,,,VFR,,,,,,,,,,,,METAR,1699.0
FWKI 070400Z 10006KT 9999 FEW015 15/13 Q1023 TEMPO 4000 BR,FWKI,2023-06-07T04:00:00Z,-13.78,33.78,15.0,13.0,100,6,,6.21,30.206694,,,,,,,,,,,FEW,1500,,,,,,,VFR,,,,,,,,,,,,METAR,1225.0
FWCL 070400Z 10008KT 9999 FEW020 19/14 Q1022 NOSIG,FWCL,2023-06-07T04:00:00Z,-15.67,34.97,19.0,14.0,100,8,,6.21,30.177166,,,,,,TRUE,,,,,FEW,2000,,,,,,,VFR,,,,,,,,,,,,METAR,774.0
FTTJ 070400Z 22002KT CAVOK 24/23 Q1009 NOSIG,FTTJ,2023-06-07T04:00:00Z,12.13,15.03,24.0,23.0,220,2,,6.21,29.793306,,,,,,TRUE,,,,,CAVOK,,,,,,,,VFR,,,,,,,,,,,,METAR,295.0
FSIA 070400Z 13011KT 9999 SCT023 28/24 Q1013 NOSIG,FSIA,2023-06-07T04:00:00Z,-4.67,55.52,28.0,24.0,130,11,,6.21,29.911417,,,,,,TRUE,,,,,SCT,2300,,,,,,,VFR,,,,,,,,,,,,METAR,3.0
FQXA 070400Z 01004KT 0500 FG BKN020 20/20 Q1021,FQXA,2023-06-07T04:00:00Z,-25.05,33.62,20.0,20.0,10,4,,0.31,30.147638,,,,,,,,,,FG,BKN,2000,,,,,,,LIFR,,,,,,,,,,,,METAR,3.0
FQTT 070400Z 12003KT 9999 FEW020 21/20 Q1020,FQTT,2023-06-07T04:00:00Z,-16.1,33.63,21.0,20.0,120,3,,6.21,30.11811,,,,,,,,,,,FEW,2000,,,,,,,VFR,,,,,,,,,,,,METAR,146.0
FQQL 070400Z 00000KT 0200 FG VV/// 20/20 Q1020,FQQL,2023-06-07T04:00:00Z,-17.87,36.87,20.0,20.0,0,0,,0.12,30.11811,,,,,,,,,,FG,OVX,0,,,,,,,LIFR,,,,,,,,,,,,METAR,5.0
FQPB 070400Z 25007KT 9999 FEW020 SCT100 22/22 Q1018,FQPB,2023-06-07T04:00:00Z,-12.98,40.52,22.0,22.0,250,7,,6.21,30.059055,,,,,,,,,,,FEW,2000,SCT,10000,,,,,VFR,,,,,,,,,,,,METAR,101.0
FQNP 070400Z 19004KT 3000 BR FEW009 20/19 Q1020,FQNP,2023-06-07T04:00:00Z,-15.1,39.27,20.0,19.0,190,4,,1.86,30.11811,,,,,,,,,,BR,FEW,900,,,,,,,IFR,,,,,,,,,,,,METAR,434.0
FQMA 070400Z 04006KT CAVOK 16/15 Q1019 NOSIG,FQMA,2023-06-07T04:00:00Z,-25.92,32.57,16.0,15.0,40,6,,6.21,30.088583,,,,,,TRUE,,,,,CAVOK,,,,,,,,VFR,,,,,,,,,,,,METAR,34.0
FQLC 070400Z 06003KT CAVOK 13/12 Q1025,FQLC,2023-06-07T04:00:00Z,-13.27,35.25,13.0,12.0,60,3,,6.21,30.265747,,,,,,,,,,,CAVOK,,,,,,,,VFR,,,,,,,,,,,,METAR,1362.0
FQIN 070400Z 00000KT 9999 FEW020 18/17 Q1020,FQIN,2023-06-07T04:00:00Z,-23.87,35.38,18.0,17.0,0,0,,6.21,30.11811,,,,,,,,,,,FEW,2000,,,,,,,VFR,,,,,,,,,,,,METAR,10.0
FQCH 070400Z /////KT 0800S FG BKN010 BKN015 19/19 Q1024,FQCH,2023-06-07T04:00:00Z,-19.15,33.43,19.0,19.0,,,,0.5,30.236221,,,,,,,,,,FG,BKN,1000,BKN,1500,,,,,LIFR,,,,,,,,,,,,SPECI,695.0
FQBR 070400Z 32004KT 0200 FG VV/// 20/20 Q1019,FQBR,2023-06-07T04:00:00Z,-19.8,34.9,20.0,20.0,320,4,,0.12,30.088583,,,,,,,,,,FG,OVX,0,,,,,,,LIFR,,,,,,,,,,,,METAR,14.0
FPST 070400Z 20006KT 9999 FEW020 BKN040 25/23 Q1013 NOSIG,FPST,2023-06-07T04:00:00Z,0.37,6.72,25.0,23.0,200,6,,6.21,29.911417,,,,,,TRUE,,,,,FEW,2000,BKN,4000,,,,,VFR,,,,,,,,,,,,METAR,11.0
FOOL 070400Z 17010KT 9999 FEW011 26/22 Q1013 NOSIG,FOOL,2023-06-07T04:00:00Z,0.45,9.42,26.0,22.0,170,10,,6.21,29.911417,,,,,,TRUE,,,,,FEW,1100,,,,,,,VFR,,,,,,,,,,,,METAR,9.0
FNUE 070400Z AUTO 22004KT 9999 NCD 13/07 Q1022,FNUE,2023-06-07T04:00:00Z,-11.77,19.9,13.0,7.0,220,4,,6.21,30.177166,,,TRUE,,,,,,,,CLR,,,,,,,,VFR,,,,,,,,,,,,METAR,1354.0
FNUB 070400Z AUTO 19003KT 9999 ////// 16/06 Q1024,FNUB,2023-06-07T04:00:00Z,-14.93,13.57,16.0,6.0,190,3,,6.21,30.236221,,,TRUE,,,,,,,,,,,,,,,,,,,,,,,,,,,,METAR,1749.0
FNLU 070400Z AUTO 18004KT 140V210 9999 ////// 23/M29 Q1013,FNLU,2023-06-07T04:00:00Z,-8.85,13.22,23.0,-29.0,180,4,,6.21,29.911417,,,TRUE,,,,,,,,,,,,,,,,,,,,,,,,,,,,SPECI,75.0
FNHU 070400Z AUTO 11002KT 9999 // NCD 14/05 Q1022,FNHU,2023-06-07T04:00:00Z,-12.82,15.77,14.0,5.0,110,2,,6.21,30.177166,,,TRUE,,,,,,,,CLR,,,,,,,,VFR,,,,,,,,,,,,SPECI,1697.0
FNGI 070400Z AUTO VRB02KT 9999 // ////// 14/03 Q1020,FNGI,2023-06-07T04:00:00Z,-17.05,15.68,14.0,3.0,0,2,,6.21,30.11811,,,TRUE,,,,,,,,,,,,,,,,,,,,,,,,,,,,METAR,1116.0
FNCT 070400Z AUTO 25004KT //// ////// ///// Q////,FNCT,2023-06-07T04:00:00Z,-12.48,13.48,,,250,4,,,,,,TRUE,,,,,,,,,,,,,,,,,,,,,,,,,,,,METAR,6.0
FNCA 070400Z AUTO 00000KT 9999 OVC010 23/22 Q1013,FNCA,2023-06-07T04:00:00Z,-5.58,12.18,23.0,22.0,0,0,,6.21,29.911417,,,TRUE,,,,,,,,OVC,1000,,,,,,,MVFR,,,,,,,,,,,,METAR,14.0
FMSD 070400Z 30002KT 9999 FEW016 16/15 Q1021,FMSD,2023-06-07T04:00:00Z,-25.03,46.95,16.0,15.0,300,2,,6.21,30.147638,,,,,,,,,,,FEW,1600,,,,,,,VFR,,,,,,,,,,,,METAR,7.0
FMNN 070400Z 21002KT 9999 SCT020 23/// Q1016,FMNN,2023-06-07T04:00:00Z,-13.32,48.32,,,210,2,,6.21,30.0,,,,,,,,,,,SCT,2000,,,,,,,VFR,,,,,,,,,,,,METAR,10.0
FMNM 070400Z VRB01KT 9999 FEW040 22/19 Q1018 NOSIG,FMNM,2023-06-07T04:00:00Z,-15.67,46.35,22.0,19.0,0,1,,6.21,30.059055,,,,,,TRUE,,,,,FEW,4000,,,,,,,VFR,,,,,,,,,,,,METAR,18.0
FMNA 070400Z 14010KT 9999 FEW020 SCT040 24/20 Q1016,FMNA,2023-06-07T04:00:00Z,-12.33,49.28,24.0,20.0,140,10,,6.21,30.0,,,,,,,,,,,FEW,2000,SCT,4000,,,,,VFR,,,,,,,,,,,,METAR,108.0
FMMT 070400Z VRB02KT 6000 -RA FEW007 SCT017 BKN033 22/21 Q1020 TEMPO 3500 RA,FMMT,2023-06-07T04:00:00Z,-18.12,49.38,22.0,21.0,0,2,,3.73,30.11811,,,,,,,,,,-RA,FEW,700,SCT,1700,BKN,3300,,,MVFR,,,,,,,,,,,,METAR,13.0
FMCH 070400Z 13008KT 9999 SCT020 27/22 Q1017 NOSIG,FMCH,2023-06-07T04:00:00Z,-11.53,43.27,27.0,22.0,130,8,,6.21,30.029528,,,,,,TRUE,,,,,SCT,2000,,,,,,,VFR,,,,,,,,,,,,METAR,30.0
FKKD 070400Z 11004KT 9999 FEW004 BKN013 FEW016CB 25/24 Q1012 NOSIG,FKKD,2023-06-07T04:00:00Z,4.0,9.72,25.0,24.0,110,4,,6.21,29.88189,,,,,,TRUE,,,,,FEW,400,BKN,1300,FEW,1600,,,MVFR,,,,,,,,,,,,METAR,10.0
FIMP 070400Z 10007KT 9999 VCSH BKN016 SCT050 24/20 Q1022,FIMP,2023-06-07T04:00:00Z,-20.43,57.68,24.0,20.0,100,7,,6.21,30.177166,,,,,,,,,,VCSH,BKN,1600,SCT,5000,,,,,MVFR,,,,,,,,,,,,METAR,57.0
FGSL 070400Z VRB01KT 9999 FEW010 24/24 Q1013 NOSIG,FGSL,2023-06-07T04:00:00Z,3.75,8.72,24.0,24.0,0,1,,6.21,29.911417,,,,,,TRUE,,,,,FEW,1000,,,,,,,VFR,,,,,,,,,,,,METAR,23.0
FEFF 070400Z 00000KT 7000 FEW006 23/22 Q1012 NOSIG,FEFF,2023-06-07T04:00:00Z,4.4,18.52,23.0,22.0,0,0,,4.35,29.88189,,,,,,TRUE,,,,,FEW,600,,,,,,,MVFR,,,,,,,,,,,,METAR,364.0
FDST 070400Z AUTO 18006KT //// // ////// 20/17 Q1018,FDST,2023-06-07T04:00:00Z,-26.43,31.95,20.0,17.0,180,6,,,30.059055,,,TRUE,,,,,,,,,,,,,,,,,,,,,,,,,,,,METAR,642.0
FDPP 070400Z AUTO 33010KT //// // ////// 17/11 Q1026,FDPP,2023-06-07T04:00:00Z,-25.97,31.25,17.0,11.0,330,10,,,30.295275,,,TRUE,,,,,,,,,,,,,,,,,,,,,,,,,,,,METAR,1023.0
FDOT 070400Z AUTO 00000KT //// // ////// 10/10 Q1020,FDOT,2023-06-07T04:00:00Z,-26.7,31.43,10.0,10.0,0,0,,,30.11811,,,TRUE,,,,,,,,,,,,,,,,,,,,,,,,,,,,METAR,342.0
FDMY 070400Z AUTO 00000KT //// // ////// 12/12 Q1030,FDMY,2023-06-07T04:00:00Z,-25.88,31.52,12.0,12.0,0,0,,,30.413385,,,TRUE,,,,,,,,,,,,,,,,,,,,,,,,,,,,METAR,401.0
FDBB 070400Z AUTO 00000KT //// // ////// 10/09 Q1018,FDBB,2023-06-07T04:00:00Z,-26.8,31.93,10.0,9.0,0,0,,,30.059055,,,TRUE,,,,,,,,,,,,,,,,,,,,,,,,,,,,METAR,106.0
FCPP 070400Z 08003KT 6000 FEW008 22/21 Q1013 NOSIG,FCPP,2023-06-07T04:00:00Z,-4.82,11.9,22.0,21.0,80,3,,3.73,29.911417,,,,,,TRUE,,,,,FEW,800,,,,,,,MVFR,,,,,,,,,,,,METAR,18.0
FBSK 070400Z 12006KT 9999 BKN015 13/12 Q1022 NOSIG,FBSK,2023-06-07T04:00:00Z,-24.55,25.92,13.0,12.0,120,6,,6.21,30.177166,,,,,,TRUE,,,,,BKN,1500,,,,,,,MVFR,,,,,,,,,,,,METAR,1007.0
FBMN 070400Z VRB02KT CAVOK 17/04 Q1020,FBMN,2023-06-07T04:00:00Z,-19.97,23.42,17.0,4.0,0,2,,6.21,30.11811,,,,,,,,,,,CAVOK,,,,,,,,VFR,,,,,,,,,,,,METAR,946.0
FAVV 070400Z AUTO 01003KT //// // ////// 06/06 Q1027,FAVV,2023-06-07T04:00:00Z,-26.57,27.97,6.0,6.0,10,3,,,30.324802,,,TRUE,,,,,,,,,,,,,,,,,,,,,,,,,,,,METAR,1480.0
FAUT 070400Z 12002KT CAVOK 04/02 Q1015,FAUT,2023-06-07T04:00:00Z,-31.53,28.67,4.0,2.0,120,2,,6.21,29.970472,,,,,,,,,,,CAVOK,,,,,,,,VFR,,,,,,,,,,,,METAR,735.0
FAUP 070400Z 35013KT CAVOK 14/M03 Q1015 NOSIG,FAUP,2023-06-07T04:00:00Z,-28.38,21.27,14.0,-3.0,350,13,,6.21,29.970472,,,,,,TRUE,,,,,CAVOK,,,,,,,,VFR,,,,,,,,,,,,METAR,845.0
FASI 070400Z AUTO 09002KT //// // ////// 08/08 Q1029,FASI,2023-06-07T04:00:00Z,-26.25,28.4,8.0,8.0,90,2,,,30.383858,,,TRUE,,,,,,,,,,,,,,,,,,,,,,,,,,,,METAR,1627.0
FAPP 070400Z 21004KT 5000 BR NSC 08/08 Q1027 NOSIG,FAPP,2023-06-07T04:00:00Z,-23.83,29.45,8.0,8.0,210,4,,3.11,30.324802,,,,,,TRUE,,,,BR,CLR,,,,,,,,MVFR,,,,,,,,,,,,METAR,1238.0
FAPN 070400Z AUTO 26001KT //// // ////// 07/06 Q1024,FAPN,2023-06-07T04:00:00Z,-25.33,27.17,7.0,6.0,260,1,,,30.236221,,,TRUE,,,,,,,,,,,,,,,,,,,,,,,,,,,,METAR,1045.0
FAPE 070400Z 33004KT CAVOK 07/05 Q1010 NOSIG,FAPE,2023-06-07T04:00:00Z,-33.98,25.6,7.0,5.0,330,4,,6.21,29.822834,,,,,,TRUE,,,,,CAVOK,,,,,,,,VFR,,,,,,,,,,,,METAR,58.0
FAMM 070400Z 05011KT CAVOK 13/11 Q1023 NOSIG,FAMM,2023-06-07T04:00:00Z,-25.8,25.53,13.0,11.0,50,11,,6.21,30.206694,,,,,,TRUE,,,,,CAVOK,,,,,,,,VFR,,,,,,,,,,,,METAR,1280.0
FALW 070400Z AUTO 02010KT //// // ////// 12/11 Q1012,FALW,2023-06-07T04:00:00Z,-32.97,18.17,12.0,11.0,20,10,,,29.88189,,,TRUE,,,,,,,,,,,,,,,,,,,,,,,,,,,,METAR,31.0
FALE 070400Z VRB01KT CAVOK 10/08 Q1015 NOSIG,FALE,2023-06-07T04:00:00Z,-29.62,31.12,10.0,8.0,0,1,,6.21,29.970472,,,,,,TRUE,,,,,CAVOK,,,,,,,,VFR,,,,,,,,,,,,METAR,109.0
FALA 070400Z 21003KT 0800 FG OVC001 07/06 Q1026 NOSIG,FALA,2023-06-07T04:00:00Z,-25.93,27.92,7.0,6.0,210,3,,0.5,30.295275,,,,,,TRUE,,,,FG,OVC,100,,,,,,,LIFR,,,,,,,,,,,,METAR,1365.0
FAKN 070400Z 25003KT CAVOK 12/10 Q1023 NOSIG,FAKN,2023-06-07T04:00:00Z,-25.38,31.1,12.0,10.0,250,3,,6.21,30.206694,,,,,,TRUE,,,,,CAVOK,,,,,,,,VFR,,,,,,,,,,,,METAR,864.0
FAKM 070400Z 36010KT CAVOK 09/04 Q1019,FAKM,2023-06-07T04:00:00Z,-28.8,24.77,9.0,4.0,360,10,,6.21,30.088583,,,,,,,,,,,CAVOK,,,,,,,,VFR,,,,,,,,,,,,METAR,1203.0
FAJB 070400Z AUTO 10001KT //// // ////// 10/09 Q1026,FAJB,2023-06-07T04:00:00Z,-26.15,28.0,10.0,9.0,100,1,,,30.295275,,,TRUE,,,,,,,,,,,,,,,,,,,,,,,,,,,,METAR,1626.0
FAHS 070400Z AUTO 00000KT //// // ////// 14/13 Q1021,FAHS,2023-06-07T04:00:00Z,-24.37,31.03,14.0,13.0,0,0,,,30.147638,,,TRUE,,,,,,,,,,,,,,,,,,,,,,,,,,,,METAR,532.0
FAEL 070400Z 34007KT CAVOK 09/03 Q1012,FAEL,2023-06-07T04:00:00Z,-33.03,27.82,9.0,3.0,340,7,,6.21,29.88189,,,,,,,,,,,CAVOK,,,,,,,,VFR,,,,,,,,,,,,METAR,127.0
FACT 070400Z 36009KT 9999 FEW020 BKN030 10/09 Q1012 NOSIG,FACT,2023-06-07T04:00:00Z,-33.97,18.6,10.0,9.0,360,9,,6.21,29.88189,,,,,,TRUE,,,,,FEW,2000,BKN,3000,,,,,MVFR,,,,,,,,,,,,METAR,48.0
FABL 070400Z 00000KT CAVOK M00/M02 Q1023 NOSIG,FABL,2023-06-07T04:00:00Z,-29.1,26.3,0.0,-2.0,0,0,,6.21,30.206694,,,,,,TRUE,,,,,CAVOK,,,,,,,,VFR,,,,,,,,,,,,METAR,1348.0
EIME 070400Z 09005KT 9999 BKN010 09/09 Q1023,EIME,2023-06-07T04:00:00Z,53.3,-6.45,9.0,9.0,90,5,,6.21,30.206694,,,,,,,,,,,BKN,1000,,,,,,,MVFR,,,,,,,,,,,,METAR,90.0
DXXX 070400Z 00000KT 9999 FEW010 25/24 Q1012 NOSIG,DXXX,2023-06-07T04:00:00Z,6.17,1.25,25.0,24.0,0,0,,6.21,29.88189,,,,,,TRUE,,,,,FEW,1000,,,,,,,VFR,,,,,,,,,,,,METAR,22.0
DTTZ 070400Z 07006KT CAVOK 21/18 Q1015,DTTZ,2023-06-07T04:00:00Z,33.93,8.1,21.0,18.0,70,6,,6.21,29.970472,,,,,,,,,,,CAVOK,,,,,,,,VFR,,,,,,,,,,,,METAR,87.0
DTTX 070400Z 33003KT 310V020 9999 FEW020 SCT030 20/18 Q1016,DTTX,2023-06-07T04:00:00Z,34.72,10.68,20.0,18.0,330,3,,6.21,30.0,,,,,,,,,,,FEW,2000,SCT,3000,,,,,VFR,,,,,,,,,,,,METAR,17.0
DTTR 070400Z AUTO 04010KT NCD 20/15 Q1015,DTTR,2023-06-07T04:00:00Z,31.7,9.27,20.0,15.0,40,10,,,29.970472,,,TRUE,,,,,,,,CLR,,,,,,,,,,,,,,,,,,,,METAR,253.0
DTTN 070400Z AUTO /////KT NCD 15/14 Q1015,DTTN,2023-06-07T04:00:00Z,36.47,8.8,15.0,14.0,,,,,29.970472,,,TRUE,,,,,,,,CLR,,,,,,,,,,,,,,,,,,,,METAR,145.0
DTTL 070400Z 00000KT 8000 FEW020 17/16 Q1016,DTTL,2023-06-07T04:00:00Z,36.85,11.07,17.0,16.0,0,0,,4.97,30.0,,,,,,,,,,,FEW,2000,,,,,,,MVFR,,,,,,,,,,,,METAR,18.0
DTTK 070400Z VRB02KT 2000 BR BKN013 18/17 Q1016,DTTK,2023-06-07T04:00:00Z,35.67,10.08,18.0,17.0,0,2,,1.24,30.0,,,,,,,,,,BR,BKN,1300,,,,,,,IFR,,,,,,,,,,,,METAR,65.0
DTTG 070400Z 05005KT 5000 SCT020 18/18 Q1016 NOSIG,DTTG,2023-06-07T04:00:00Z,33.73,9.92,18.0,18.0,50,5,,3.11,30.0,,,,,,TRUE,,,,,SCT,2000,,,,,,,MVFR,,,,,,,,,,,,METAR,120.0
DTTF 070400Z 02008KT 010V080 6000 FEW020 BKN030 19/16 Q1017,DTTF,2023-06-07T04:00:00Z,34.42,8.82,19.0,16.0,20,8,,3.73,30.029528,,,,,,,,,,,FEW,2000,BKN,3000,,,,,MVFR,,,,,,,,,,,,METAR,314.0
DTTD 070400Z AUTO 05005KT 020V100 NCD 19/17 Q1016,DTTD,2023-06-07T04:00:00Z,32.32,10.4,19.0,17.0,50,5,,,30.0,,,TRUE,,,,,,,,CLR,,,,,,,,,,,,,,,,,,,,METAR,306.0
DTTB 070400Z 33002KT 6000 FEW020 16/15 Q1015,DTTB,2023-06-07T04:00:00Z,37.25,9.8,16.0,15.0,330,2,,3.73,29.970472,,,,,,,,,,,FEW,2000,,,,,,,MVFR,,,,,,,,,,,,METAR,4.0
DTKA 070400Z 08006KT 9999 FEW020 15/14 Q1015 NOSIG,DTKA,2023-06-07T04:00:00Z,36.98,8.88,15.0,14.0,80,6,,6.21,29.970472,,,,,,TRUE,,,,,FEW,2000,,,,,,,VFR,,,,,,,,,,,,METAR,70.0
DRRN 070400Z 24010KT CAVOK 30/17 Q1010 NOSIG,DRRN,2023-06-07T04:00:00Z,13.47,2.17,30.0,17.0,240,10,,6.21,29.822834,,,,,,TRUE,,,,,CAVOK,,,,,,,,VFR,,,,,,,,,,,,METAR,223.0
DNZA 070400Z 23006KT 9999 SCT009 24/22 Q1014,DNZA,2023-06-07T04:00:00Z,11.12,7.68,24.0,22.0,230,6,,6.21,29.940945,,,,,,,,,,,SCT,900,,,,,,,VFR,,,,,,,,,,,,METAR,655.0
DNPO 070400Z 00000KT 6000 BKN240M 24/24 Q1012 TEMPO 5000 BR,DNPO,2023-06-07T04:00:00Z,4.83,7.02,24.0,24.0,0,0,,3.73,29.88189,,,,,,,,,,,,,,,,,,,,,,,,,,,,,,,SPECI,17.0
DNMM 070400Z 34003KT 7000 TS FEW008 FEW018CB 24/23 Q1013 TEMPO 5000 BR,DNMM,2023-06-07T04:00:00Z,6.57,3.32,24.0,23.0,340,3,,4.35,29.911417,,,,,,,,,,TS,FEW,800,FEW,1800,,,,,MVFR,,,,,,,,,,,,SPECI,27.0
DNKN 070400Z 21015KT 9999 FEW011 27/23 Q1012 NOSIG,DNKN,2023-06-07T04:00:00Z,12.05,8.52,27.0,23.0,210,15,,6.21,29.88189,,,,,,TRUE,,,,,FEW,1100,,,,,,,VFR,,,,,,,,,,,,METAR,471.0
DNKA 070400Z 19008KT 9999 FEW009 22/16 Q1015,DNKA,2023-06-07T04:00:00Z,10.58,7.45,22.0,16.0,190,8,,6.21,29.970472,,,,,,,,,,,FEW,900,,,,,,,VFR,,,,,,,,,,,,METAR,631.0
DNIM 070400Z 00000KT 2000 HZ BKN010 24/23 Q1013,DNIM,2023-06-07T04:00:00Z,5.43,7.2,24.0,23.0,0,0,,1.24,29.911417,,,,,,,,,,HZ,BKN,1000,,,,,,,IFR,,,,,,,,,,,,METAR,113.0
DNIL 070400Z 13003KT 9999 FEW010 23/22 Q1013,DNIL,2023-06-07T04:00:00Z,8.43,4.48,23.0,22.0,130,3,,6.21,29.911417,,,,,,,,,,,FEW,1000,,,,,,,VFR,,,,,,,,,,,,METAR,341.0
DNAA 070400Z 23003KT 9999 FEW008 24/23 Q1013 NOSIG,DNAA,2023-06-07T04:00:00Z,9.0,7.27,24.0,23.0,230,3,,6.21,29.911417,,,,,,TRUE,,,,,FEW,800,,,,,,,VFR,,,,,,,,,,,,METAR,338.0
DIYO 070400Z 24004KT 6000 SCT010 24/24 Q1013 BECMG 4000 BR,DIYO,2023-06-07T04:00:00Z,6.9,-5.35,24.0,24.0,240,4,,3.73,29.911417,,,,,,,,,,,SCT,1000,,,,,,,MVFR,,,,,,,,,,,,METAR,202.0
DIBK 070400Z 20004KT 8000 NSC 24/24 Q1014 NOSIG,DIBK,2023-06-07T04:00:00Z,7.73,-5.07,24.0,24.0,200,4,,4.97,29.940945,,,,,,TRUE,,,,,CLR,,,,,,,,MVFR,,,,,,,,,,,,METAR,363.0
DGAA 070400Z 26007KT CAVOK 24/23 Q1012 NOSIG,DGAA,2023-06-07T04:00:00Z,5.58,-0.17,24.0,23.0,260,7,,6.21,29.88189,,,,,,TRUE,,,,,CAVOK,,,,,,,,VFR,,,,,,,,,,,,METAR,68.0
DFOO 070400Z 20005KT CAVOK 26/21 Q1012,DFOO,2023-06-07T04:00:00Z,11.17,-4.32,26.0,21.0,200,5,,6.21,29.88189,,,,,,,,,,,CAVOK,,,,,,,,VFR,,,,,,,,,,,,METAR,461.0
DBBB 070400Z VRB02KT 8000 SCT012 24/23 Q1012 NOSIG,DBBB,2023-06-07T04:00:00Z,6.35,2.38,24.0,23.0,0,2,,4.97,29.88189,,,,,,TRUE,,,,,SCT,1200,,,,,,,MVFR,,,,,,,,,,,,METAR,4.0
DAUZ 070400Z 02009KT 8000 NSC 21/11 Q1013,DAUZ,2023-06-07T04:00:00Z,28.05,9.63,21.0,11.0,20,9,,4.97,29.911417,,,,,,,,,,,CLR,,,,,,,,MVFR,,,,,,,,,,,,METAR,567.0
DAUU 070400Z 12006KT CAVOK 23/14 Q1013,DAUU,2023-06-07T04:00:00Z,31.92,5.4,23.0,14.0,120,6,,6.21,29.911417,,,,,,,,,,,CAVOK,,,,,,,,VFR,,,,,,,,,,,,METAR,147.0
DAUT 070400Z 10013KT CAVOK 27/07 Q1010,DAUT,2023-06-07T04:00:00Z,29.25,0.27,27.0,7.0,100,13,,6.21,29.822834,,,,,,,,,,,CAVOK,,,,,,,,VFR,,,,,,,,,,,,METAR,307.0
DAUO 070400Z 11007KT CAVOK 21/18 Q1015,DAUO,2023-06-07T04:00:00Z,33.5,6.78,21.0,18.0,110,7,,6.21,29.970472,,,,,,,,,,,CAVOK,,,,,,,,VFR,,,,,,,,,,,,METAR,55.0
DAUL 070400Z 15004KT 9999 SCT033 SCT100 22/07 Q1016,DAUL,2023-06-07T04:00:00Z,33.77,2.92,22.0,7.0,150,4,,6.21,30.0,,,,,,,,,,,SCT,3300,SCT,10000,,,,,VFR,,,,,,,,,,,,METAR,755.0
DAUK 070400Z 10004KT CAVOK 21/16 Q1014,DAUK,2023-06-07T04:00:00Z,33.08,6.08,21.0,16.0,100,4,,6.21,29.940945,,,,,,,,,,,CAVOK,,,,,,,,VFR,,,,,,,,,,,,METAR,83.0
DAUI 070400Z 07017KT 4000 DRSA NSC 28/05 Q1009,DAUI,2023-06-07T04:00:00Z,27.25,2.52,28.0,5.0,70,17,,2.49,29.793306,,,,,,,,,,DRSA,CLR,,,,,,,,IFR,,,,,,,,,,,,METAR,271.0
DAUH 070400Z 09008KT CAVOK 21/16 Q1013,DAUH,2023-06-07T04:00:00Z,31.67,6.15,21.0,16.0,90,8,,6.21,29.911417,,,,,,,,,,,CAVOK,,,,,,,,VFR,,,,,,,,,,,,METAR,141.0
DAUG 070400Z 13003KT CAVOK 22/09 Q1015,DAUG,2023-06-07T04:00:00Z,32.38,3.78,22.0,9.0,130,3,,6.21,29.970472,,,,,,,,,,,CAVOK,,,,,,,,VFR,,,,,,,,,,,,METAR,444.0
DAUE 070400Z 11005KT 080V150 CAVOK 24/11 Q1014,DAUE,2023-06-07T04:00:00Z,30.57,2.87,24.0,11.0,110,5,,6.21,29.940945,,,,,,,,,,,CAVOK,,,,,,,,VFR,,,,,,,,,,,,METAR,396.0
DAUB 070400Z 13004KT CAVOK 22/15 Q1016,DAUB,2023-06-07T04:00:00Z,34.78,5.73,22.0,15.0,130,4,,6.21,30.0,,,,,,,,,,,CAVOK,,,,,,,,VFR,,,,,,,,,,,,METAR,75.0
DAUA 070400Z 09012KT CAVOK 27/02 Q1008,DAUA,2023-06-07T04:00:00Z,27.83,-0.18,27.0,2.0,90,12,,6.21,29.763779,,,,,,,,,,,CAVOK,,,,,,,,VFR,,,,,,,,,,,,METAR,278.0
DAOY 070400Z 12018KT 8000 BKN026 20/11 Q1017,DAOY,2023-06-07T04:00:00Z,33.72,1.08,20.0,11.0,120,18,,4.97,30.029528,,,,,,,,,,,BKN,2600,,,,,,,MVFR,,,,,,,,,,,,METAR,1340.0
DAOV 070400Z 16004KT 9999 SCT030 BKN100 23/14 Q1013,DAOV,2023-06-07T04:00:00Z,35.2,0.15,23.0,14.0,160,4,,6.21,29.911417,,,,,,,,,,,SCT,3000,BKN,10000,,,,,VFR,,,,,,,,,,,,METAR,506.0
DAOR 070400Z 14011KT 4000 DU NSC 27/06 Q1013,DAOR,2023-06-07T04:00:00Z,31.65,-2.27,27.0,6.0,140,11,,2.49,29.911417,,,,,,,,,,DU,CLR,,,,,,,,IFR,,,,,,,,,,,,METAR,809.0
DAOL 070400Z 07008KT 8000 SCT030 SCT100 22/17 Q1010,DAOL,2023-06-07T04:00:00Z,35.53,-0.52,22.0,17.0,70,8,,4.97,29.822834,,,,,,,,,,,SCT,3000,SCT,10000,,,,,MVFR,,,,,,,,,,,,METAR,103.0
DAOI 070400Z 07005KT CAVOK 23/11 Q1012,DAOI,2023-06-07T04:00:00Z,36.22,1.32,23.0,11.0,70,5,,6.21,29.88189,,,,,,,,,,,CAVOK,,,,,,,,VFR,,,,,,,,,,,,METAR,141.0
DAOF 070400Z 29018KT CAVOK 23/11 Q1011,DAOF,2023-06-07T04:00:00Z,27.7,-8.17,23.0,11.0,290,18,,6.21,29.852362,,,,,,,,,,,CAVOK,,,,,,,,VFR,,,,,,,,,,,,METAR,441.0
DAOB 070400Z 20003KT 9999 FEW026 SCT220 19/11 Q1016,DAOB,2023-06-07T04:00:00Z,35.33,1.47,19.0,11.0,200,3,,6.21,30.0,,,,,,,,,,,FEW,2600,SCT,22000,,,,,VFR,,,,,,,,,,,,METAR,976.0
DABT 070400Z 00000KT CAVOK 14/12 Q1018,DABT,2023-06-07T04:00:00Z,35.75,6.32,14.0,12.0,0,0,,6.21,30.059055,,,,,,,,,,,CAVOK,,,,,,,,VFR,,,,,,,,,,,,METAR,813.0
DABS 070400Z 12005KT 9999 FEW033 13/13 Q1018,DABS,2023-06-07T04:00:00Z,35.43,8.12,13.0,13.0,120,5,,6.21,30.059055,,,,,,,,,,,FEW,3300,,,,,,,VFR,,,,,,,,,,,,METAR,806.0
DAAY 070400Z 21004KT 9999 SCT033 SCT100 23/08 Q1018,DAAY,2023-06-07T04:00:00Z,33.53,-0.25,23.0,8.0,210,4,,6.21,30.059055,,,,,,,,,,,SCT,3300,SCT,10000,,,,,VFR,,,,,,,,,,,,METAR,1116.0
DAAV 070400Z 16004KT 8000 FEW016 BKN200 18/16 Q1012,DAAV,2023-06-07T04:00:00Z,36.8,5.88,18.0,16.0,160,4,,4.97,29.88189,,,,,,,,,,,FEW,1600,BKN,20000,,,,,MVFR,,,,,,,,,,,,METAR,11.0
DAAS 070400Z 02003KT CAVOK 14/11 Q1018,DAAS,2023-06-07T04:00:00Z,36.18,5.33,14.0,11.0,20,3,,6.21,30.059055,,,,,,,,,,,CAVOK,,,,,,,,VFR,,,,,,,,,,,,METAR,1012.0
DAAP 070400Z 05004KT CAVOK 24/08 Q1014,DAAP,2023-06-07T04:00:00Z,26.72,8.62,24.0,8.0,50,4,,6.21,29.940945,,,,,,,,,,,CAVOK,,,,,,,,VFR,,,,,,,,,,,,METAR,542.0
DAAJ 070400Z 03013KT 8000 NSC 27/03 Q1013,DAAJ,2023-06-07T04:00:00Z,24.28,9.47,27.0,3.0,30,13,,4.97,29.911417,,,,,,,,,,,CLR,,,,,,,,MVFR,,,,,,,,,,,,METAR,962.0
DAAE 070400Z 22004KT 9999 FEW016 SCT090 18/16 Q1012,DAAE,2023-06-07T04:00:00Z,36.72,5.07,18.0,16.0,220,4,,6.21,29.88189,,,,,,,,,,,FEW,1600,SCT,9000,,,,,VFR,,,,,,,,,,,,METAR,1.0
CZZJ 070400Z AUTO 13005KT 19/03 RMK AO1 SLP118 T01880031 56007,CZZJ,2023-06-07T04:00:00Z,53.58,-116.47,18.8,3.1,130,5,,,,1011.8,,TRUE,TRUE,,,,,,,,,,,,,,,,-0.7,,,,,,,,,,,METAR,927.0
CZVL 070400Z AUTO 15002KT 9SM CLR 17/06 A2990 RMK SLP128 DENSITY ALT 3100FT,CZVL,2023-06-07T04:00:00Z,53.67,-113.85,17.0,6.0,150,2,,9.0,29.899607,1012.8,,TRUE,,,,,,,,CLR,,,,,,,,VFR,,,,,,,,,,,,METAR,685.0
CZUM 070400Z AUTO 04014G21KT 9SM -RA OVC010 03/02 A3001 RMK PCPN 0.8MM PAST HR SLP183,CZUM,2023-06-07T04:00:00Z,53.55,-64.1,3.0,2.0,40,14,21,9.0,30.008858,1018.3,,TRUE,,,,,,,-RA,OVC,1000,,,,,,,MVFR,,,,,,,,,,,,METAR,431.0
CZTB 070400Z AUTO 25003KT 09/06 RMK AO1 SLP188 T00860063 53006,CZTB,2023-06-07T04:00:00Z,48.37,-89.32,8.6,6.3,250,3,,,,1018.8,,TRUE,TRUE,,,,,,,,,,,,,,,,0.6,,,,,,,,,,,METAR,197.0
CZSP 070400Z AUTO 12010G17KT 08/08 RMK AO1 9PAST HR 1009 PK WND 13019/0326 SLP929 P0004 T00750081 50018,CZSP,2023-06-07T04:00:00Z,46.45,-62.58,7.5,8.1,120,10,17,,,992.9,,TRUE,TRUE,,,,,,,,,,,,,,,,1.8,,,,,0.04,,,,,,METAR,31.0
CZSM 070400Z AUTO 19003KT 17/02 RMK AO1 SLP074 T01720016 53007,CZSM,2023-06-07T04:00:00Z,60.03,-111.93,17.2,1.6,190,3,,,,1007.4,,TRUE,TRUE,,,,,,,,,,,,,,,,0.7,,,,,,,,,,,METAR,203.0
CZSJ 070400Z AUTO 12007KT 9SM OVC086 17/13 A2996 RMK SLP154 DENSITY ALT 1400FT,CZSJ,2023-06-07T04:00:00Z,53.07,-93.35,17.0,13.0,120,7,,9.0,29.958662,1015.4,,TRUE,,,,,,,,OVC,8600,,,,,,,VFR,,,,,,,,,,,,METAR,286.0
CZPS 070400Z AUTO 06003KT 17/05 RMK AO1 T01670046,CZPS,2023-06-07T04:00:00Z,52.43,-113.6,16.7,4.6,60,3,,,,,,TRUE,TRUE,,,,,,,,,,,,,,,,,,,,,,,,,,,METAR,953.0
CZPC 070400Z AUTO 10007KT 9SM CLR 14/08 A2998 RMK SLP151 DENSITY ALT 4700FT,CZPC,2023-06-07T04:00:00Z,49.52,-114.0,14.0,8.0,100,7,,9.0,29.97933,1015.1,,TRUE,,,,,,,,CLR,,,,,,,,VFR,,,,,,,,,,,,METAR,1187.0
CZOL 070400Z AUTO 13001KT 17/05 RMK AO1 T01740054,CZOL,2023-06-07T04:00:00Z,53.65,-113.35,17.4,5.4,130,1,,,,,,TRUE,TRUE,,,,,,,,,,,,,,,,,,,,,,,,,,,METAR,645.0
CZMJ 070400Z AUTO 34005KT 22/14 RMK AO1 SLP118 T02200141 53006,CZMJ,2023-06-07T04:00:00Z,50.33,-105.53,22.0,14.1,340,5,,,,1011.8,,TRUE,TRUE,,,,,,,,,,,,,,,,0.6,,,,,,,,,,,METAR,571.0
CZMD 070400Z AUTO 13004KT 090V180 9SM SCT060 OVC120 17/08 A3001 RMK SLP170 DENSITY ALT 1300FT,CZMD,2023-06-07T04:00:00Z,53.43,-91.77,17.0,8.0,130,4,,9.0,30.008858,1017.0,,TRUE,,,,,,,,SCT,6000,OVC,12000,,,,,VFR,,,,,,,,,,,,METAR,276.0
CZKD 070400Z AUTO 13006KT 19/18 RMK AO1 SLP116 T01900175 56008,CZKD,2023-06-07T04:00:00Z,56.03,-96.52,19.0,17.5,130,6,,,,1011.6,,TRUE,TRUE,,,,,,,,,,,,,,,,-0.8,,,,,,,,,,,METAR,190.0
CZHY 070400Z AUTO 18007KT 16/02 RMK AO1 SLP025 T01610015 58007,CZHY,2023-06-07T04:00:00Z,60.83,-115.78,16.1,1.5,180,7,,,,1002.5,,TRUE,TRUE,,,,,,,,,,,,,,,,-0.7,,,,,,,,,,,METAR,159.0
CZFS 070400Z AUTO 24008KT 10/09 RMK AO1 9PAST HR 6003 SLP989 P0004 T01000089 50050,CZFS,2023-06-07T04:00:00Z,61.77,-121.23,10.0,8.9,240,8,,,,998.9,,TRUE,TRUE,,,,,,,,,,,,,,,,5.0,,,,,0.04,,,,,,METAR,174.0
CZEV 070400Z AUTO 08007KT 19/02 RMK AO1 SLP133 T01870020 56003,CZEV,2023-06-07T04:00:00Z,68.32,-133.48,18.7,2.0,80,7,,,,1013.3,,TRUE,TRUE,,,,,,,,,,,,,,,,-0.3,,,,,,,,,,,METAR,92.0
CZEL 070400Z AUTO 33002KT 10/01 RMK AO1 SLP109 T01030012 51006,CZEL,2023-06-07T04:00:00Z,43.65,-80.42,10.3,1.2,330,2,,,,1010.9,,TRUE,TRUE,,,,,,,,,,,,,,,,0.6,,,,,,,,,,,METAR,370.0
CZDB 070400Z AUTO 15006KT 10/09 RMK AO1 1008 SLP917 T00980094 50006,CZDB,2023-06-07T04:00:00Z,45.42,-63.47,9.8,9.4,150,6,,,,991.7,,TRUE,TRUE,,,,,,,,,,,,,,,,0.6,,,,,,,,,,,METAR,38.0
CZCR 070400Z AUTO 32002KT 09/09 RMK AO1 0PAST HR 8005 SLP953 P0012 T00880088 50076,CZCR,2023-06-07T04:00:00Z,47.98,-66.33,8.8,8.8,320,2,,,,995.3,,TRUE,TRUE,,,,,,,,,,,,,,,,7.6,,,,,0.12,,,,,,METAR,39.0
CZCP 070400Z AUTO 08021KT ////SM ////// 01/M02 A2998,CZCP,2023-06-07T04:00:00Z,70.17,-124.68,1.0,-2.0,80,21,,,29.97933,,,TRUE,,,,,,,,,,,,,,,,,,,,,,,,,,,,METAR,23.0
CYZY 070400Z AUTO VRB04KT 9SM OVC130 18/M01 A2987 RMK SLP126 DENSITY ALT 3200FT,CYZY,2023-06-07T04:00:00Z,55.3,-123.13,18.0,-1.0,0,4,,9.0,29.870079,1012.6,,TRUE,,,,,,,,OVC,13000,,,,,,,VFR,,,,,,,,,,,,METAR,694.0
CYZV 070400Z 04011G20KT 15SM -SHRA OVC030 09/08 A2961 RMK SC8 SLP030,CYZV,2023-06-07T04:00:00Z,50.22,-66.27,9.0,8.0,40,11,20,15.0,29.610237,1003.0,,,,,,,,,-SHRA,OVC,3000,,,,,,,MVFR,,,,,,,,,,,,METAR,43.0
CYZU 070400Z 12008KT 15SM SKC 16/03 A2987 RMK LAST STFD OBS/NXT 071200Z SLP122 DENSITY ALT 3400FT,CYZU,2023-06-07T04:00:00Z,54.15,-115.78,16.0,3.0,120,8,,15.0,29.870079,1012.2,,,,,,,,,,SKC,,,,,,,,VFR,,,,,,,,,,,,METAR,785.0
CYZT 070400Z VRB02KT 20SM BKN210 14/05 A2994 RMK CI5 SLP142,CYZT,2023-06-07T04:00:00Z,50.68,-127.37,14.0,5.0,0,2,,20.0,29.940945,1014.2,,,,,,,,,,BKN,21000,,,,,,,VFR,,,,,,,,,,,,METAR,13.0
CYZS 070400Z 08002KT 1/8SM FG VV002 00/00 A3022 RMK FG8 SLP242,CYZS,2023-06-07T04:00:00Z,64.2,-83.35,0.0,0.0,80,2,,0.13,30.221457,1024.2,,,,,,,,,FG,OVX,0,,,,,,,LIFR,,,,,,,,,,,200,METAR,60.0
CYZR 070400Z AUTO 36010KT 6SM HZ CLR 14/07 A2987 RMK SLP118,CYZR,2023-06-07T04:00:00Z,43.0,-82.3,14.0,7.0,360,10,,6.0,29.870079,1011.8,,TRUE,,,,,,,HZ,CLR,,,,,,,,VFR,,,,,,,,,,,,METAR,181.0
CYZP 070400Z AUTO 27004KT 9SM SCT091 12/09 A3005 RMK SLP177,CYZP,2023-06-07T04:00:00Z,53.25,-131.82,12.0,9.0,270,4,,9.0,30.050198,1017.7,,TRUE,,,,,,,,SCT,9100,,,,,,,VFR,,,,,,,,,,,,METAR,7.0
CYZH 070400Z AUTO 16003KT 9SM CLR 15/08 A2983 RMK SLP112 DENSITY ALT 2500FT,CYZH,2023-06-07T04:00:00Z,55.28,-114.77,15.0,8.0,160,3,,9.0,29.828741,1011.2,,TRUE,,,,,,,,CLR,,,,,,,,VFR,,,,,,,,,,,,METAR,583.0
CYZF 070400Z CCA 15008KT 15SM FEW060 FEW120 BKN180 BKN240 09/07 A2958 RMK SC1AC1AC6CI1 SC TR AC TR FU SLP026,CYZF,2023-06-07T04:00:00Z,62.47,-114.45,9.0,7.0,150,8,,15.0,29.58071,1002.6,,,,,,,,,,FEW,6000,FEW,12000,BKN,18000,BKN,24000,VFR,,,,,,,,,,,,METAR,202.0
CYZE 070400Z AUTO 03008KT 9SM CLR 15/06 A2991 RMK SLP132,CYZE,2023-06-07T04:00:00Z,45.88,-82.57,15.0,6.0,30,8,,9.0,29.911417,1013.2,,TRUE,,,,,,,,CLR,,,,,,,,VFR,,,,,,,,,,,,METAR,189.0
CYYZ 070400Z 35011KT 15SM FEW160 15/03 A2981 RMK FU2 SLP096 DENSITY ALT 900FT,CYYZ,2023-06-07T04:00:00Z,43.67,-79.62,15.0,3.0,350,11,,15.0,29.811024,1009.6,,,,,,,,,,FEW,16000,,,,,,,VFR,,,,,,,,,,,,METAR,171.0
CYYW 070400Z AUTO 00000KT 9SM CLR 06/06 A3009 RMK SLP193,CYYW,2023-06-07T04:00:00Z,50.3,-88.9,6.0,6.0,0,0,,9.0,30.088583,1019.3,,TRUE,,,,,,,,CLR,,,,,,,,VFR,,,,,,,,,,,,METAR,320.0
CYYU 070400Z 36005KT 15SM FEW210 10/01 A3006 RMK CI1 CI TR SLP186,CYYU,2023-06-07T04:00:00Z,49.42,-82.47,10.0,1.0,360,5,,15.0,30.059055,1018.6,,,,,,,,,,FEW,21000,,,,,,,VFR,,,,,,,,,,,,METAR,228.0
CYYR 070400Z 04021G31KT 4SM -RA BR FEW007 OVC011 04/03 A3007 RMK SF2SF6 DENSITY ALT -1192FT CIG EST SLP186,CYYR,2023-06-07T04:00:00Z,53.32,-60.42,4.0,3.0,40,21,31,4.0,30.070866,1018.6,,,,,,,,,-RA BR,FEW,700,OVC,1100,,,,,MVFR,,,,,,,,,,,,METAR,42.0
CYYQ 070400Z 17013KT 15SM BKN020 BKN240 16/14 A2989 RMK SC5CI2 SLP125 DENSITY ALT 400FT,CYYQ,2023-06-07T04:00:00Z,58.75,-94.07,16.0,14.0,170,13,,15.0,29.890747,1012.5,,,,,,,,,,BKN,2000,BKN,24000,,,,,MVFR,,,,,,,,,,,,METAR,20.0
CYYN 070400Z AUTO 03014KT 9SM CLR 19/16 A2994 RMK SLP132 DENSITY ALT 3800FT,CYYN,2023-06-07T04:00:00Z,50.28,-107.68,19.0,16.0,30,14,,9.0,29.940945,1013.2,,TRUE,,,,,,,,CLR,,,,,,,,VFR,,,,,,,,,,,,METAR,814.0
CYYJ 070400Z 17004KT 130V190 30SM SKC 21/04 A2978 RMK SLP086 DENSITY ALT 900FT,CYYJ,2023-06-07T04:00:00Z,48.63,-123.42,21.0,4.0,170,4,,30.0,29.778543,1008.6,,,,,,,,,,SKC,,,,,,,,VFR,,,,,,,,,,,,METAR,16.0
CYYH 070400Z 05013KT 15SM FEW031 FEW039 BKN180 BKN200 02/01 A2998 RMK ST1SC1AS4CI2 ST TR SLP157,CYYH,2023-06-07T04:00:00Z,69.53,-93.57,2.0,1.0,50,13,,15.0,29.97933,1015.7,,,,,,,,,,FEW,3100,FEW,3900,BKN,18000,BKN,20000,VFR,,,,,,,,,,,,METAR,19.0
CYYF 070400Z 34007KT 15SM FEW130 17/03 A2980 RMK AC1 SLP094 DENSITY ALT 1900FT,CYYF,2023-06-07T04:00:00Z,49.47,-119.6,17.0,3.0,340,7,,15.0,29.799213,1009.4,,,,,,,,,,FEW,13000,,,,,,,VFR,,,,,,,,,,,,METAR,342.0
CYYE 070400Z 27007KT 30SM FEW080 SCT110 BKN220 15/M01 A2971 RMK CU1AC2CI3 SLP070 DENSITY ALT 1800FT,CYYE,2023-06-07T04:00:00Z,58.83,-122.58,15.0,-1.0,270,7,,30.0,29.71063,1007.0,,,,,,,,,,FEW,8000,SCT,11000,BKN,22000,,,VFR,,,,,,,,,,,,METAR,379.0
CYYD 070400Z 30005KT 25SM BKN220 17/04 A2995 RMK CI6 SLP149 DENSITY ALT 2400FT,CYYD,2023-06-07T04:00:00Z,54.82,-127.18,17.0,4.0,300,5,,25.0,29.949802,1014.9,,,,,,,,,,BKN,22000,,,,,,,VFR,,,,,,,,,,,,METAR,527.0
CYYC 070400Z 15012KT 20SM SKC 18/04 A2996 RMK SLP147 DENSITY ALT 4800FT,CYYC,2023-06-07T04:00:00Z,51.12,-114.02,18.0,4.0,150,12,,20.0,29.958662,1014.7,,,,,,,,,,SKC,,,,,,,,VFR,,,,,,,,,,,,METAR,1085.0
CYYB 070400Z AUTO 35005KT 9SM CLR 10/00 A2985 RMK SLP115,CYYB,2023-06-07T04:00:00Z,46.35,-79.42,10.0,0.0,350,5,,9.0,29.84941,1011.5,,TRUE,,,,,,,,CLR,,,,,,,,VFR,,,,,,,,,,,,METAR,360.0
CYXY 070400Z 15008KT 40SM FEW100 BKN240 13/04 A2981 RMK AC2CI4 SLP119 DENSITY ALT 2800FT,CYXY,2023-06-07T04:00:00Z,60.72,-135.07,13.0,4.0,150,8,,40.0,29.811024,1011.9,,,,,,,,,,FEW,10000,BKN,24000,,,,,VFR,,,,,,,,,,,,METAR,677.0
CYXX 070400Z 21006KT 30SM SKC 21/08 A2977 RMK SLP084 DENSITY ALT 1100FT,CYXX,2023-06-07T04:00:00Z,49.03,-122.38,21.0,8.0,210,6,,30.0,29.769686,1008.4,,,,,,,,,,SKC,,,,,,,,VFR,,,,,,,,,,,,METAR,54.0
CYXU 070400Z 33008KT 10SM BKN250 12/06 A2986 RMK FU5 SLP113,CYXU,2023-06-07T04:00:00Z,43.03,-81.15,12.0,6.0,330,8,,10.0,29.861221,1011.3,,,,,,,,,,BKN,25000,,,,,,,VFR,,,,,,,,,,,,METAR,278.0
CYXT 070400Z 25004KT 20SM FEW160 BKN220 18/03 A2996 RMK AC2CI4 SLP151 DENSITY ALT 1200FT,CYXT,2023-06-07T04:00:00Z,54.47,-128.57,18.0,3.0,250,4,,20.0,29.958662,1015.1,,,,,,,,,,FEW,16000,BKN,22000,,,,,VFR,,,,,,,,,,,,METAR,213.0
CYXS 070400Z AUTO 35003KT 9SM CLR 14/05 A2988 RMK SLP132 DENSITY ALT 2800FT,CYXS,2023-06-07T04:00:00Z,53.88,-122.68,14.0,5.0,350,3,,9.0,29.878937,1013.2,,TRUE,,,,,,,,CLR,,,,,,,,VFR,,,,,,,,,,,,METAR,685.0
CYXR 070400Z AUTO 34010KT 9SM CLR 12/03 A2991 RMK SLP133,CYXR,2023-06-07T04:00:00Z,47.7,-79.85,12.0,3.0,340,10,,9.0,29.911417,1013.3,,TRUE,,,,,,,,CLR,,,,,,,,VFR,,,,,,,,,,,,METAR,244.0
CYXL 070400Z 14004KT 15SM OVC048 15/10 A3004 RMK SC8 SLP181 DENSITY ALT 1500FT,CYXL,2023-06-07T04:00:00Z,50.12,-91.9,15.0,10.0,140,4,,15.0,30.041338,1018.1,,,,,,,,,,OVC,4800,,,,,,,VFR,,,,,,,,,,,,METAR,381.0
CYXJ 070400Z 22016G23KT 60SM SCT130 BKN200 18/M04 A2978 RMK AC4CC3 SLP095 DENSITY ALT 3400FT,CYXJ,2023-06-07T04:00:00Z,56.25,-120.73,18.0,-4.0,220,16,23,60.0,29.778543,1009.5,,,,,,,,,,SCT,13000,BKN,20000,,,,,VFR,,,,,,,,,,,,METAR,700.0
CYXH 070400Z AUTO 10004KT 9SM CLR 20/14 A2993 RMK SLP134 DENSITY ALT 3600FT,CYXH,2023-06-07T04:00:00Z,50.02,-110.72,20.0,14.0,100,4,,9.0,29.929134,1013.4,,TRUE,,,,,,,,CLR,,,,,,,,VFR,,,,,,,,,,,,METAR,717.0
CYXE 070400Z 01006KT 15SM FEW300 17/13 A2992 RMK CI2 SLP139 DENSITY ALT 2300FT,CYXE,2023-06-07T04:00:00Z,52.17,-106.7,17.0,13.0,10,6,,15.0,29.920275,1013.9,,,,,,,,,,FEW,30000,,,,,,,VFR,,,,,,,,,,,,METAR,504.0
CYXC 070400Z 18006KT 25SM FEW090 SCT250 21/05 A2984 RMK AC1CI3 AC TR SLP092 DENSITY ALT 4600FT,CYXC,2023-06-07T04:00:00Z,49.6,-115.78,21.0,5.0,180,6,,25.0,29.840551,1009.2,,,,,,,,,,FEW,9000,SCT,25000,,,,,VFR,,,,,,,,,,,,METAR,928.0
CYWL 070400Z 05003KT 15SM SKC 19/M05 A2992 RMK SLP136 DENSITY ALT 4300FT,CYWL,2023-06-07T04:00:00Z,52.18,-122.07,19.0,-5.0,50,3,,15.0,29.920275,1013.6,,,,,,,,,,SKC,,,,,,,,VFR,,,,,,,,,,,,METAR,942.0
CYWH 070400Z 22003KT 15SM SKC 18/07 A2980 RMK LAST STFD OBS/NXT 071300Z SLP092 DENSITY ALT 500FT,CYWH,2023-06-07T04:00:00Z,48.42,-123.38,18.0,7.0,220,3,,15.0,29.799213,1009.2,,,,,,,,,,SKC,,,,,,,,VFR,,,,,,,,,,,,METAR,4.0
CYWG 070400Z 11009KT 15SM FEW140 BKN200 24/20 A2984 RMK AC2CI3 SLP106 DENSITY ALT 2100FT,CYWG,2023-06-07T04:00:00Z,49.9,-97.23,24.0,20.0,110,9,,15.0,29.840551,1010.6,,,,,,,,,,FEW,14000,BKN,20000,,,,,VFR,,,,,,,,,,,,METAR,238.0
CYWE 070400Z AUTO 20010G15KT 7SM BKN048 12/07 A2955 RMK SLP023 DENSITY ALT 1600FT,CYWE,2023-06-07T04:00:00Z,64.18,-114.08,12.0,7.0,200,10,15,7.0,29.551182,1002.3,,TRUE,,,,,,,,BKN,4800,,,,,,,VFR,,,,,,,,,,,,METAR,374.0
CYVV 070400Z 04005KT 15SM SKC 14/03 A2987 RMK SLP117,CYVV,2023-06-07T04:00:00Z,44.75,-81.1,14.0,3.0,40,5,,15.0,29.870079,1011.7,,,,,,,,,,SKC,,,,,,,,VFR,,,,,,,,,,,,METAR,221.0
CYVT 070400Z AUTO 00000KT 9SM CLR 16/09 A2987 RMK SLP126 DENSITY ALT 2000FT,CYVT,2023-06-07T04:00:00Z,55.83,-108.42,16.0,9.0,0,0,,9.0,29.870079,1012.6,,TRUE,,,,,,,,CLR,,,,,,,,VFR,,,,,,,,,,,,METAR,438.0
CYVR 070400Z 30010KT 30SM SKC 17/11 A2977 RMK SLP083 DENSITY ALT 400FT,CYVR,2023-06-07T04:00:00Z,49.17,-123.17,17.0,11.0,300,10,,30.0,29.769686,1008.3,,,,,,,,,,SKC,,,,,,,,VFR,,,,,,,,,,,,METAR,2.0
CYVQ 070400Z 29016G25KT 15SM BKN014 BKN055 OVC075 12/10 A2973 RMK SC6SC1AC1 SLP075,CYVQ,2023-06-07T04:00:00Z,65.27,-126.78,12.0,10.0,290,16,25,15.0,29.731298,1007.5,,,,,,,,,,BKN,1400,BKN,5500,OVC,7500,,,MVFR,,,,,,,,,,,,METAR,63.0
CYVP 070400Z 32004KT 15SM FEW220 03/00 A3022 RMK CI2 SLP238,CYVP,2023-06-07T04:00:00Z,58.12,-68.42,3.0,0.0,320,4,,15.0,30.221457,1023.8,,,,,,,,,,FEW,22000,,,,,,,VFR,,,,,,,,,,,,METAR,28.0
CYVO 070400Z AUTO 36010KT 9SM FEW055 BKN068 11/M01 A2983 RMK SLP110,CYVO,2023-06-07T04:00:00Z,48.07,-77.77,11.0,-1.0,360,10,,9.0,29.828741,1011.0,,TRUE,,,,,,,,FEW,5500,BKN,6800,,,,,VFR,,,,,,,,,,,,METAR,329.0
CYVM 070400Z AUTO VRB02KT 9SM BKN140 M05/M07 A3020 RMK SLP227,CYVM,2023-06-07T04:00:00Z,67.55,-64.02,-5.0,-7.0,0,2,,9.0,30.200787,1022.7,,TRUE,,,,,,,,BKN,14000,,,,,,,VFR,,,,,,,,,,,,METAR,3.0
CYVL 070400Z AUTO 04012G17KT 9SM FEW045 SCT120 BKN160 09/06 A2977 RMK SLP099,CYVL,2023-06-07T04:00:00Z,67.02,-126.13,9.0,6.0,40,12,17,9.0,29.769686,1009.9,,TRUE,,,,,,,,FEW,4500,SCT,12000,BKN,16000,,,VFR,,,,,,,,,,,,METAR,261.0
CYVC 070400Z 00000KT 15SM FEW250 14/11 A2989 RMK CI2 SLP129 DENSITY ALT 1500FT,CYVC,2023-06-07T04:00:00Z,55.15,-105.27,14.0,11.0,0,0,,15.0,29.890747,1012.9,,,,,,,,,,FEW,25000,,,,,,,VFR,,,,,,,,,,,,METAR,378.0
CYUY 070400Z 36008KT 15SM SKC 12/02 A2989 RMK FU1 SLP129,CYUY,2023-06-07T04:00:00Z,48.2,-78.82,12.0,2.0,360,8,,15.0,29.890747,1012.9,,,,,,,,,,SKC,,,,,,,,VFR,,,,,,,,,,,,METAR,304.0
CYUL 070400Z 33005KT 15SM BKN072 OVC100 14/09 A2963 RMK AC6AC2 SLP037 DENSITY ALT 400FT,CYUL,2023-06-07T04:00:00Z,45.47,-73.73,14.0,9.0,330,5,,15.0,29.630905,1003.7,,,,,,,,,,BKN,7200,OVC,10000,,,,,VFR,,,,,,,,,,,,METAR,31.0
CYUB 070400Z 07008KT 15SM SCT100 BKN220 13/05 A2992 RMK AC4CI2 SLP136,CYUB,2023-06-07T04:00:00Z,69.43,-133.02,13.0,5.0,70,8,,15.0,29.920275,1013.6,,,,,,,,,,SCT,10000,BKN,22000,,,,,VFR,,,,,,,,,,,,METAR,5.0
CYUA 070400Z AUTO 30007KT ////SM NCD 04/02 A2992,CYUA,2023-06-07T04:00:00Z,68.92,-137.23,4.0,2.0,300,7,,,29.920275,,,TRUE,,,,,,,,CLR,,,,,,,,,,,,,,,,,,,,METAR,25.0
CYTZ 070400Z AUTO 34007KT 310V020 9SM CLR 17/04 A2980 RMK SLP092 DENSITY ALT 700FT,CYTZ,2023-06-07T04:00:00Z,43.63,-79.4,17.0,4.0,340,7,,9.0,29.799213,1009.2,,TRUE,,,,,,,,CLR,,,,,,,,VFR,,,,,,,,,,,,METAR,76.0
CYTS 070400Z 36008G15KT 15SM SKC 11/01 A3001 RMK SLP169,CYTS,2023-06-07T04:00:00Z,48.57,-81.37,11.0,1.0,360,8,15,15.0,30.008858,1016.9,,,,,,,,,,SKC,,,,,,,,VFR,,,,,,,,,,,,METAR,290.0
CYTR 070400Z 32005KT 4SM FU BKN031 BKN090 13/07 A2975 RMK FU4CU2AC1 DENSITY ALT 426FT SLP075,CYTR,2023-06-07T04:00:00Z,44.12,-77.52,13.0,7.0,320,5,,4.0,29.749016,1007.5,,,,,,,,,FU,BKN,3100,BKN,9000,,,,,MVFR,,,,,,,,,,,,METAR,80.0
CYTL 070400Z AUTO 13005KT 090V160 9SM CLR 16/04 A3007 RMK SLP191,CYTL,2023-06-07T04:00:00Z,53.82,-89.88,16.0,4.0,130,5,,9.0,30.070866,1019.1,,TRUE,,,,,,,,CLR,,,,,,,,VFR,,,,,,,,,,,,METAR,218.0
CYTH 070400Z VRB02KT 15SM BKN008 OVC160 20/19 A2982 RMK SC7AC1 SLP105 DENSITY ALT 1600FT,CYTH,2023-06-07T04:00:00Z,55.8,-97.83,20.0,19.0,0,2,,15.0,29.819881,1010.5,,,,,,,,,,BKN,800,OVC,16000,,,,,IFR,,,,,,,,,,,,METAR,212.0
CYTE 070400Z AUTO 23003KT 9SM OVC006 00/M00 A3025 RMK SLP248,CYTE,2023-06-07T04:00:00Z,64.22,-76.52,0.0,0.0,230,3,,9.0,30.250984,1024.8,,TRUE,,,,,,,,OVC,600,,,,,,,IFR,,,,,,,,,,,,METAR,49.0
CYSM 070400Z 19004KT 8SM FEW083 SCT130 SCT240 18/01 A2972 RMK AC2AC1CI1 FU SLP070 DENSITY ALT 1500FT,CYSM,2023-06-07T04:00:00Z,60.03,-111.92,18.0,1.0,190,4,,8.0,29.719488,1007.0,,,,,,,,,,FEW,8300,SCT,13000,SCT,24000,,,VFR,,,,,,,,,,,,METAR,203.0
CYSF 070400Z AUTO 12004KT 100V260 9SM CLR 14/10 A2979 RMK SLP098 DENSITY ALT 1100FT,CYSF,2023-06-07T04:00:00Z,59.25,-105.83,14.0,10.0,120,4,,9.0,29.790354,1009.8,,TRUE,,,,,,,,CLR,,,,,,,,VFR,,,,,,,,,,,,METAR,238.0
CYSC 070400Z AUTO 32007KT 9SM -RA FEW012 BKN019 BKN026 BKN047 10/09 A2955 RMK PCPN 0.8MM PAST HR SLP011,CYSC,2023-06-07T04:00:00Z,45.43,-71.68,10.0,9.0,320,7,,9.0,29.551182,1001.1,,TRUE,,,,,,,-RA,FEW,1200,BKN,1900,BKN,2600,BKN,4700,MVFR,,,,,,,,,,,,METAR,236.0
CYSB 070400Z 36006KT 15SM FEW230 12/M01 A2990 RMK CI2 SLP130,CYSB,2023-06-07T04:00:00Z,46.63,-80.8,12.0,-1.0,360,6,,15.0,29.899607,1013.0,,,,,,,,,,FEW,23000,,,,,,,VFR,,,,,,,,,,,,METAR,349.0
CYRV 070400Z AUTO 36004KT 320V050 9SM CLR 22/03 A2981 RMK SLP094 DENSITY ALT 2700FT,CYRV,2023-06-07T04:00:00Z,50.97,-118.17,22.0,3.0,360,4,,9.0,29.811024,1009.4,,TRUE,,,,,,,,CLR,,,,,,,,VFR,,,,,,,,,,,,METAR,456.0
CYRT 070400Z 13015KT 15SM BKN068 BKN130 OVC180 02/M00 A2999 RMK AC5AC2CI1 SLP160,CYRT,2023-06-07T04:00:00Z,62.82,-92.12,2.0,0.0,130,15,,15.0,29.991142,1016.0,,,,,,,,,,BKN,6800,BKN,13000,OVC,18000,,,VFR,,,,,,,,,,,,METAR,29.0
CYRJ 070400Z 01006KT 320V040 12SM -RA OVC028 10/08 A2968 RMK SC8 SLP056,CYRJ,2023-06-07T04:00:00Z,48.52,-72.27,10.0,8.0,10,6,,12.0,29.681103,1005.6,,,,,,,,,-RA,OVC,2800,,,,,,,MVFR,,,,,,,,,,,,METAR,173.0
CYRB 070400Z 31004KT 30SM OVC013 M02/M05 A3017 RMK SC8 SLP226,CYRB,2023-06-07T04:00:00Z,74.72,-94.97,-2.0,-5.0,310,4,,30.0,30.171259,1022.6,,,,,,,,,,OVC,1300,,,,,,,MVFR,,,,,,,,,,,,METAR,59.0
CYQZ 070400Z AUTO 31003KT 9SM CLR 17/06 A2986 RMK SLP121 DENSITY ALT 2600FT,CYQZ,2023-06-07T04:00:00Z,53.02,-122.52,17.0,6.0,310,3,,9.0,29.861221,1012.1,,TRUE,,,,,,,,CLR,,,,,,,,VFR,,,,,,,,,,,,METAR,548.0
CYQY 070400Z 15012G18KT 2SM -DZ BR OVC003 08/08 A2946 RMK ST8 SLP981,CYQY,2023-06-07T04:00:00Z,46.17,-60.03,8.0,8.0,150,12,18,2.0,29.459646,998.1,,,,,,,,,-DZ BR,OVC,300,,,,,,,LIFR,,,,,,,,,,,,METAR,58.0
CYQX 070400Z 10016G23KT 1/8SM R13/2200V2400FT/N R03/2200V2400FT/N -DZ FG VV001 07/07 A2972 RMK FG8 SLP069,CYQX,2023-06-07T04:00:00Z,48.95,-54.58,7.0,7.0,100,16,23,0.13,29.719488,1006.9,,,,,,,,,-DZ FG,OVX,0,,,,,,,LIFR,,,,,,,,,,,100,METAR,144.0
CYQW 070400Z AUTO 33004KT 9SM CLR 15/09 A2996 RMK SLP153 DENSITY ALT 2300FT,CYQW,2023-06-07T04:00:00Z,52.77,-108.25,15.0,9.0,330,4,,9.0,29.958662,1015.3,,TRUE,,,,,,,,CLR,,,,,,,,VFR,,,,,,,,,,,,METAR,545.0
CYQV 070400Z AUTO 07010G16KT 9SM CLR 21/16 A2985 RMK SLP113 DENSITY ALT 2800FT,CYQV,2023-06-07T04:00:00Z,51.27,-102.47,21.0,16.0,70,10,16,9.0,29.84941,1011.3,,TRUE,,,,,,,,CLR,,,,,,,,VFR,,,,,,,,,,,,METAR,493.0
CYQU 070400Z 28009KT 25SM FEW016 15/M03 A2983 RMK FU2 SLP112 DENSITY ALT 2900FT,CYQU,2023-06-07T04:00:00Z,55.18,-118.88,15.0,-3.0,280,9,,25.0,29.828741,1011.2,,,,,,,,,,FEW,1600,,,,,,,VFR,,,,,,,,,,,,METAR,668.0
CYQT 070400Z 27003KT 15SM BKN220 08/06 A3006 RMK CI6 SLP187,CYQT,2023-06-07T04:00:00Z,48.37,-89.32,8.0,6.0,270,3,,15.0,30.059055,1018.7,,,,,,,,,,BKN,22000,,,,,,,VFR,,,,,,,,,,,,METAR,197.0
CYQR 070400Z 33007KT 15SM FEW160 FEW300 20/17 A2986 RMK AC1CI1 SLP110 DENSITY ALT 3000FT,CYQR,2023-06-07T04:00:00Z,50.43,-104.67,20.0,17.0,330,7,,15.0,29.861221,1011.0,,,,,,,,,,FEW,16000,FEW,30000,,,,,VFR,,,,,,,,,,,,METAR,576.0
CYQQ 070400Z CCA 33009KT 20SM FEW250 23/02 A2981 RMK CI1 DENSITY ALT 1223FT DIST FU SE SLP095,CYQQ,2023-06-07T04:00:00Z,49.72,-124.9,23.0,2.0,330,9,,20.0,29.811024,1009.5,,,,,,,,,,FEW,25000,,,,,,,VFR,,,,,,,,,,,,METAR,24.0
CYQL 070400Z CCA 09004KT 25SM SCT300 15/09 A2995 RMK CI3 LAST STFD OBS/NXT 071200Z SLP147 DENSITY ALT 3700FT,CYQL,2023-06-07T04:00:00Z,49.63,-112.8,15.0,9.0,90,4,,25.0,29.949802,1014.7,,,,,,,,,,SCT,30000,,,,,,,VFR,,,,,,,,,,,,METAR,923.0
CYQK 070400Z 15009KT 20SM SCT110 BKN220 19/13 A2996 RMK AC3CI3 SLP149 DENSITY ALT 2100FT,CYQK,2023-06-07T04:00:00Z,49.78,-94.37,19.0,13.0,150,9,,20.0,29.958662,1014.9,,,,,,,,,,SCT,11000,BKN,22000,,,,,VFR,,,,,,,,,,,,METAR,413.0
CYQH 070400Z 26015KT 30SM BKN050 OVC110 11/03 A2979 RMK SC6AC2 SLP110 DENSITY ALT 2600FT,CYQH,2023-06-07T04:00:00Z,60.12,-128.82,11.0,3.0,260,15,,30.0,29.790354,1011.0,,,,,,,,,,BKN,5000,OVC,11000,,,,,VFR,,,,,,,,,,,,METAR,692.0
CYQG 070400Z AUTO 35005KT 8SM CLR 14/02 A2989 RMK SLP123,CYQG,2023-06-07T04:00:00Z,42.27,-82.97,14.0,2.0,350,5,,8.0,29.890747,1012.3,,TRUE,,,,,,,,CLR,,,,,,,,VFR,,,,,,,,,,,,METAR,189.0
CYQF 070400Z AUTO 15008KT 9SM CLR 17/04 A2993 RMK SLP145 DENSITY ALT 3900FT,CYQF,2023-06-07T04:00:00Z,52.17,-113.9,17.0,4.0,150,8,,9.0,29.929134,1014.5,,TRUE,,,,,,,,CLR,,,,,,,,VFR,,,,,,,,,,,,METAR,912.0
CYQD 070400Z AUTO VRB02KT 9SM CLR 20/19 A2982 RMK SLP100 DENSITY ALT 1800FT,CYQD,2023-06-07T04:00:00Z,53.97,-101.08,20.0,19.0,0,2,,9.0,29.819881,1010.0,,TRUE,,,,,,,,CLR,,,,,,,,VFR,,,,,,,,,,,,METAR,268.0
CYQB 070400Z VRB02KT 15SM BKN053 OVC090 12/07 A2954 RMK SC5AC3 INTMT -RA SLP008 DENSITY ALT 500FT,CYQB,2023-06-07T04:00:00Z,46.78,-71.38,12.0,7.0,0,2,,15.0,29.53937,1000.8,,,,,,,,,,BKN,5300,OVC,9000,,,,,VFR,,,,,,,,,,,,METAR,73.0
CYQA 070400Z AUTO 00000KT 9SM CLR 09/03 A2982 RMK SLP102,CYQA,2023-06-07T04:00:00Z,44.97,-79.3,9.0,3.0,0,0,,9.0,29.819881,1010.2,,TRUE,,,,,,,,CLR,,,,,,,,VFR,,,,,,,,,,,,METAR,277.0
CYPY 070400Z AUTO 00000KT 9SM CLR 16/08 A2977 RMK SLP088 DENSITY ALT 1300FT,CYPY,2023-06-07T04:00:00Z,58.77,-111.12,16.0,8.0,0,0,,9.0,29.769686,1008.8,,TRUE,,,,,,,,CLR,,,,,,,,VFR,,,,,,,,,,,,METAR,225.0
CYPX 070400Z AUTO 30010KT 9SM CLR 02/00 A3027 RMK SLP256,CYPX,2023-06-07T04:00:00Z,60.03,-77.27,2.0,0.0,300,10,,9.0,30.268702,1025.6,,TRUE,,,,,,,,CLR,,,,,,,,VFR,,,,,,,,,,,,METAR,10.0
CYPR 070400Z AUTO 35009KT 9SM SCT220 14/08 A3002 RMK SLP167,CYPR,2023-06-07T04:00:00Z,54.28,-130.45,14.0,8.0,350,9,,9.0,30.02067,1016.7,,TRUE,,,,,,,,SCT,22000,,,,,,,VFR,,,,,,,,,,,,METAR,30.0
CYPQ 070400Z AUTO 00000KT 9SM SCT076 SCT085 07/05 A2979 RMK SLP091,CYPQ,2023-06-07T04:00:00Z,44.22,-78.37,7.0,5.0,0,0,,9.0,29.790354,1009.1,,TRUE,,,,,,,,SCT,7600,SCT,8500,,,,,VFR,,,,,,,,,,,,METAR,190.0
CYPO 070400Z AUTO 12007KT 9SM CLR 13/06 A3020 RMK SLP230,CYPO,2023-06-07T04:00:00Z,54.98,-85.43,13.0,6.0,120,7,,9.0,30.200787,1023.0,,TRUE,,,,,,,,CLR,,,,,,,,VFR,,,,,,,,,,,,METAR,49.0
CYPL 070400Z AUTO 13008KT 9SM CLR 14/02 A3007 RMK SLP192,CYPL,2023-06-07T04:00:00Z,51.43,-90.22,14.0,2.0,130,8,,9.0,30.070866,1019.2,,TRUE,,,,,,,,CLR,,,,,,,,VFR,,,,,,,,,,,,METAR,390.0
CYPH 070400Z AUTO 35011KT 9SM CLR 03/00 A3027 RMK SLP255,CYPH,2023-06-07T04:00:00Z,58.47,-78.08,3.0,0.0,350,11,,9.0,30.268702,1025.5,,TRUE,,,,,,,,CLR,,,,,,,,VFR,,,,,,,,,,,,METAR,24.0
CYPG 070400Z CCA 12004KT 12SM BKN150 BKN170 OVC300 23/21 A2983 RMK AC5AC2CI1 DENSITY ALT 2422FT LAST OBS /NEXT 071100 UTC SLP098,CYPG,2023-06-07T04:00:00Z,49.9,-98.28,23.0,21.0,120,4,,12.0,29.828741,1009.8,,,,,,,,,,BKN,15000,BKN,17000,OVC,30000,,,VFR,,,,,,,,,,,,METAR,270.0
CYPE 070400Z 24006KT 12SM SCT220 15/M01 A2979 RMK CI4 SLP099 DENSITY ALT 2500FT,CYPE,2023-06-07T04:00:00Z,56.22,-117.45,15.0,-1.0,240,6,,12.0,29.790354,1009.9,,,,,,,,,,SCT,22000,,,,,,,VFR,,,,,,,,,,,,METAR,572.0
CYPA 070400Z 25006KT 210V290 15SM FEW100 FEW270 18/14 A2992 RMK AC1CI2 AC TR SLP135 DENSITY ALT 2100FT,CYPA,2023-06-07T04:00:00Z,53.22,-105.67,18.0,14.0,250,6,,15.0,29.920275,1013.5,,,,,,,,,,FEW,10000,FEW,27000,,,,,VFR,,,,,,,,,,,,METAR,428.0
CYOO 070400Z AUTO 34006KT 9SM FEW096 14/03 A2979 RMK SLP090,CYOO,2023-06-07T04:00:00Z,43.92,-78.9,14.0,3.0,340,6,,9.0,29.790354,1009.0,,TRUE,,,,,,,,FEW,9600,,,,,,,VFR,,,,,,,,,,,,METAR,136.0
CYOJ 070400Z 15004KT 130V200 15SM BKN075 BKN250 16/05 A2966 RMK FU6CS1 LAST STFD OBS/NXT 071300Z SLP054 DENSITY ALT 1800FT,CYOJ,2023-06-07T04:00:00Z,58.62,-117.17,16.0,5.0,150,4,,15.0,29.660433,1005.4,,,,,,,,,,BKN,7500,BKN,25000,,,,,VFR,,,,,,,,,,,,METAR,339.0
CYOD 070400Z 19003KT 15SM SKC 15/08 A2994 RMK DENSITY ALT 2363FT SLP145,CYOD,2023-06-07T04:00:00Z,54.4,-110.28,15.0,8.0,190,3,,15.0,29.940945,1014.5,,,,,,,,,,SKC,,,,,,,,VFR,,,,,,,,,,,,METAR,540.0
CYNE 070400Z AUTO 19003KT 9SM FEW096 SCT200 20/ A2984 RMK DP MISG SLP109 DENSITY ALT 1600FT,CYNE,2023-06-07T04:00:00Z,53.97,-97.83,20.0,,190,3,,9.0,29.840551,1010.9,,TRUE,,,,,,,,FEW,9600,SCT,20000,,,,,VFR,,,,,,,,,,,,METAR,220.0
CYNA 070400Z AUTO 06017G26KT 8SM OVC013 09/08 A2961 RMK SLP029,CYNA,2023-06-07T04:00:00Z,50.18,-61.78,9.0,8.0,60,17,26,8.0,29.610237,1002.9,,TRUE,,,,,,,,OVC,1300,,,,,,,MVFR,,,,,,,,,,,,METAR,9.0
CYMX 070400Z 29003KT 220V330 15SM OVC069 11/11 A2965 RMK AC8 SLP044,CYMX,2023-06-07T04:00:00Z,45.67,-74.03,11.0,11.0,290,3,,15.0,29.648623,1004.4,,,,,,,,,,OVC,6900,,,,,,,VFR,,,,,,,,,,,,METAR,78.0
CYMO 070400Z AUTO 33007KT 9SM CLR 07/01 A3005 RMK SLP179,CYMO,2023-06-07T04:00:00Z,51.28,-80.62,7.0,1.0,330,7,,9.0,30.050198,1017.9,,TRUE,,,,,,,,CLR,,,,,,,,VFR,,,,,,,,,,,,METAR,8.0
CYMM 070400Z AUTO 19005KT 9SM CLR 18/06 A2984 RMK SLP112 DENSITY ALT 2000FT,CYMM,2023-06-07T04:00:00Z,56.65,-111.22,18.0,6.0,190,5,,9.0,29.840551,1011.2,,TRUE,,,,,,,,CLR,,,,,,,,VFR,,,,,,,,,,,,METAR,371.0
CYMA 070400Z 05006KT 010V080 20SM FEW060 FEW090 OVC110 17/06 A2976 RMK CU1AC1AS6 SLP092 DENSITY ALT 2500FT,CYMA,2023-06-07T04:00:00Z,63.62,-135.87,17.0,6.0,50,6,,20.0,29.760826,1009.2,,,,,,,,,,FEW,6000,FEW,9000,OVC,11000,,,VFR,,,,,,,,,,,,METAR,519.0
CYLW 070400Z AUTO 00000KT 9SM CLR 20/04 A2982 RMK SLP098 DENSITY ALT 2500FT,CYLW,2023-06-07T04:00:00Z,49.95,-119.37,20.0,4.0,0,0,,9.0,29.819881,1009.8,,TRUE,,,,,,,,CLR,,,,,,,,VFR,,,,,,,,,,,,METAR,420.0
CYLL 070400Z 00000KT 15SM FEW260 16/09 A2995 RMK CI2 LAST STFD OBS/NXT 071300Z/// WND EST SLP154 DENSITY ALT 2800FT,CYLL,2023-06-07T04:00:00Z,53.32,-110.07,16.0,9.0,0,0,,15.0,29.949802,1015.4,,,,,,,,,,FEW,26000,,,,,,,VFR,,,,,,,,,,,,METAR,664.0
CYLH 070400Z AUTO 11009KT 9SM CLR 14/04 A3013 RMK SLP210,CYLH,2023-06-07T04:00:00Z,52.2,-87.93,14.0,4.0,110,9,,9.0,30.129921,1021.0,,TRUE,,,,,,,,CLR,,,,,,,,VFR,,,,,,,,,,,,METAR,245.0
CYKY 070400Z 02005KT 320V040 15SM FEW120 FEW240 16/09 A2996 RMK AC1CI1 AC TR SLP147 DENSITY ALT 2900FT,CYKY,2023-06-07T04:00:00Z,51.52,-109.17,16.0,9.0,20,5,,15.0,29.958662,1014.7,,,,,,,,,,FEW,12000,FEW,24000,,,,,VFR,,,,,,,,,,,,METAR,692.0
CYKP 070400Z AUTO 08004KT 050V140 9SM CLR 12/04 A3015 RMK SLP212,CYKP,2023-06-07T04:00:00Z,51.67,-85.9,12.0,4.0,80,4,,9.0,30.15059,1021.2,,TRUE,,,,,,,,CLR,,,,,,,,VFR,,,,,,,,,,,,METAR,181.0
CYKJ 070400Z AUTO VRB02KT 9SM CLR 13/11 A2986 RMK SLP123 DENSITY ALT 2000FT,CYKJ,2023-06-07T04:00:00Z,57.25,-105.62,13.0,11.0,0,2,,9.0,29.861221,1012.3,,TRUE,,,,,,,,CLR,,,,,,,,VFR,,,,,,,,,,,,METAR,519.0
CYKF 070400Z AUTO 31004KT 9SM CLR 10/02 A2985 RMK SLP108,CYKF,2023-06-07T04:00:00Z,43.47,-80.38,10.0,2.0,310,4,,9.0,29.84941,1010.8,,TRUE,,,,,,,,CLR,,,,,,,,VFR,,,,,,,,,,,,METAR,312.0
CYKA 070400Z 28003KT 240V350 40SM SKC 21/M03 A2981 RMK SLP098 DENSITY ALT 2300FT,CYKA,2023-06-07T04:00:00Z,50.7,-120.45,21.0,-3.0,280,3,,40.0,29.811024,1009.8,,,,,,,,,,SKC,,,,,,,,VFR,,,,,,,,,,,,METAR,344.0
CYJT 070400Z 09015G23KT 15SM BKN022 BKN044 14/10 A2956 RMK SC5SC2 SLP013 DENSITY ALT 400FT,CYJT,2023-06-07T04:00:00Z,48.55,-58.57,14.0,10.0,90,15,23,15.0,29.56004,1001.3,,,,,,,,,,BKN,2200,BKN,4400,,,,,MVFR,,,,,,,,,,,,METAR,7.0
CYIV 070400Z AUTO 11010G16KT 9SM BKN100 OVC120 16/15 A2990 RMK SLP131 DENSITY ALT 1200FT,CYIV,2023-06-07T04:00:00Z,53.85,-94.65,16.0,15.0,110,10,16,9.0,29.899607,1013.1,,TRUE,,,,,,,,BKN,10000,OVC,12000,,,,,VFR,,,,,,,,,,,,METAR,234.0
CYIN 070400Z AUTO 00000KT 9SM CLR 16/M01 A2994 RMK SLP131 DENSITY ALT 4700FT,CYIN,2023-06-07T04:00:00Z,51.27,-121.68,16.0,-1.0,0,0,,9.0,29.940945,1013.1,,TRUE,,,,,,,,CLR,,,,,,,,VFR,,,,,,,,,,,,METAR,1127.0
CYHY 070400Z 18008KT 12SM BKN110 15/02 A2960 RMK AC7 FU SLP030 DENSITY ALT 1100FT,CYHY,2023-06-07T04:00:00Z,60.83,-115.77,15.0,2.0,180,8,,12.0,29.601377,1003.0,,,,,,,,,,BKN,11000,,,,,,,VFR,,,,,,,,,,,,METAR,159.0
CYHM 070400Z 33007KT 15SM SCT250 12/02 A2981 RMK CI3 SLP098,CYHM,2023-06-07T04:00:00Z,43.17,-79.93,12.0,2.0,330,7,,15.0,29.811024,1009.8,,,,,,,,,,SCT,25000,,,,,,,VFR,,,,,,,,,,,,METAR,237.0
CYHK 070400Z AUTO 13010G15KT 9SM OVC100 05/02 A2991 RMK SLP136,CYHK,2023-06-07T04:00:00Z,68.62,-95.85,5.0,2.0,130,10,15,9.0,29.911417,1013.6,,TRUE,,,,,,,,OVC,10000,,,,,,,VFR,,,,,,,,,,,,METAR,36.0
CYHE 070400Z AUTO 22007KT 9SM CLR 22/08 A2976 RMK SLP078 DENSITY ALT 1200FT,CYHE,2023-06-07T04:00:00Z,49.37,-121.5,22.0,8.0,220,7,,9.0,29.760826,1007.8,,TRUE,,,,,,,,CLR,,,,,,,,VFR,,,,,,,,,,,,METAR,43.0
CYHD 070400Z AUTO 12008KT 9SM OVC039 16/11 A3002 RMK SLP171 DENSITY ALT 1700FT,CYHD,2023-06-07T04:00:00Z,49.82,-92.75,16.0,11.0,120,8,,9.0,30.02067,1017.1,,TRUE,,,,,,,,OVC,3900,,,,,,,VFR,,,,,,,,,,,,METAR,414.0
CYGX 070400Z 17008KT 15SM OVC015 16/15 A2992 RMK ST8 SLP139 DENSITY ALT 800FT,CYGX,2023-06-07T04:00:00Z,56.35,-94.7,16.0,15.0,170,8,,15.0,29.920275,1013.9,,,,,,,,,,OVC,1500,,,,,,,MVFR,,,,,,,,,,,,METAR,145.0
CYGW 070400Z AUTO 36005KT 9SM CLR 03/00 A3018 RMK SLP222,CYGW,2023-06-07T04:00:00Z,55.27,-77.77,3.0,0.0,360,5,,9.0,30.180119,1022.2,,TRUE,,,,,,,,CLR,,,,,,,,VFR,,,,,,,,,,,,METAR,13.0
CYGL 070400Z 01006KT 340V040 15SM OVC240 10/00 A3008 RMK CI8 SLP195,CYGL,2023-06-07T04:00:00Z,53.62,-77.7,10.0,0.0,10,6,,15.0,30.079725,1019.5,,,,,,,,,,OVC,24000,,,,,,,VFR,,,,,,,,,,,,METAR,192.0
CYFS 070400Z 26009G17KT 240V300 6SM -RA SCT018 BKN030 OVC044 10/09 A2948 RMK SC3SC4SC1 SLP990,CYFS,2023-06-07T04:00:00Z,61.75,-121.22,10.0,9.0,260,9,17,6.0,29.480314,999.0,,,,,,,,,-RA,SCT,1800,BKN,3000,OVC,4400,,,MVFR,,,,,,,,,,,,METAR,174.0
CYFB 070400Z VRB02KT 30SM OVC012 03/00 A3028 RMK SC8 SLP258,CYFB,2023-06-07T04:00:00Z,63.75,-68.55,3.0,0.0,0,2,,30.0,30.280512,1025.8,,,,,,,,,,OVC,1200,,,,,,,MVFR,,,,,,,,,,,,METAR,23.0
CYEV 070400Z 07007KT 15SM BKN130 BKN250 19/01 A2989 RMK AC6CI1 SLP127 DENSITY ALT 800FT,CYEV,2023-06-07T04:00:00Z,68.32,-133.5,19.0,1.0,70,7,,15.0,29.890747,1012.7,,,,,,,,,,BKN,13000,BKN,25000,,,,,VFR,,,,,,,,,,,,METAR,74.0
CYET 070400Z AUTO 14006KT 9SM CLR 19/03 A2987 RMK SLP116 DENSITY ALT 4300FT,CYET,2023-06-07T04:00:00Z,53.57,-116.47,19.0,3.0,140,6,,9.0,29.870079,1011.6,,TRUE,,,,,,,,CLR,,,,,,,,VFR,,,,,,,,,,,,METAR,925.0
CYER 070400Z AUTO 13008KT 9SM SCT240 09/07 A3015 RMK SLP213,CYER,2023-06-07T04:00:00Z,56.02,-87.68,9.0,7.0,130,8,,9.0,30.15059,1021.3,,TRUE,,,,,,,,SCT,24000,,,,,,,VFR,,,,,,,,,,,,METAR,11.0
CYEN 070400Z AUTO 23005KT 9SM BKN091 BKN120 25/16 A2984 RMK SLP097 DENSITY ALT 3700FT,CYEN,2023-06-07T04:00:00Z,49.22,-102.97,25.0,16.0,230,5,,9.0,29.840551,1009.7,,TRUE,,,,,,,,BKN,9100,BKN,12000,,,,,VFR,,,,,,,,,,,,METAR,580.0
CYEG 070400Z 14009KT 20SM SKC 16/05 A2991 RMK SLP133 DENSITY ALT 3100FT,CYEG,2023-06-07T04:00:00Z,53.3,-113.58,16.0,5.0,140,9,,20.0,29.911417,1013.3,,,,,,,,,,SKC,,,,,,,,VFR,,,,,,,,,,,,METAR,710.0
CYED 070400Z 16003KT 15SM FEW250 21/04 A2992 RMK CI1 DENSITY ALT 3607FT SLP127,CYED,2023-06-07T04:00:00Z,53.67,-113.47,21.0,4.0,160,3,,15.0,29.920275,1012.7,,,,,,,,,,FEW,25000,,,,,,,VFR,,,,,,,,,,,,METAR,688.0
CYDQ 070400Z AUTO 24013G18KT 9SM CLR 19/M03 A2981 RMK SLP102 DENSITY ALT 3200FT,CYDQ,2023-06-07T04:00:00Z,55.75,-120.18,19.0,-3.0,240,13,18,9.0,29.811024,1010.2,,TRUE,,,,,,,,CLR,,,,,,,,VFR,,,,,,,,,,,,METAR,658.0
CYDN 070400Z AUTO 00000KT 9SM BKN130 OVC160 21/19 A2984 RMK SLP107 DENSITY ALT 2100FT,CYDN,2023-06-07T04:00:00Z,51.1,-100.05,21.0,19.0,0,0,,9.0,29.840551,1010.7,,TRUE,,,,,,,,BKN,13000,OVC,16000,,,,,VFR,,,,,,,,,,,,METAR,302.0
CYDL 070400Z AUTO 00000KT 9SM OVC060 05/05 A2994 RMK SLP160,CYDL,2023-06-07T04:00:00Z,58.42,-130.02,5.0,5.0,0,0,,9.0,29.940945,1016.0,,TRUE,,,,,,,,OVC,6000,,,,,,,VFR,,,,,,,,,,,,METAR,804.0
CYDF 070400Z 04011G17KT 15SM OVC009 05/05 A2968 RMK SC8 SLP054,CYDF,2023-06-07T04:00:00Z,49.22,-57.4,5.0,5.0,40,11,17,15.0,29.681103,1005.4,,,,,,,,,,OVC,900,,,,,,,IFR,,,,,,,,,,,,METAR,15.0
CYDB 070400Z AUTO 13011G17KT 9SM CLR 18/M02 A2974 RMK SLP090 DENSITY ALT 3900FT,CYDB,2023-06-07T04:00:00Z,61.37,-139.02,18.0,-2.0,130,11,17,9.0,29.740158,1009.0,,TRUE,,,,,,,,CLR,,,,,,,,VFR,,,,,,,,,,,,METAR,807.0
CYCY 070400Z AUTO 00000KT 9SM BKN100 M04/M05 A3009 RMK SLP194,CYCY,2023-06-07T04:00:00Z,70.48,-68.52,-4.0,-5.0,0,0,,9.0,30.088583,1019.4,,TRUE,,,,,,,,BKN,10000,,,,,,,VFR,,,,,,,,,,,,METAR,73.0
CYCO 070400Z 03017KT 5SM -RA BR BKN004 OVC005 01/01 A2980 RMK SF6ST2 SLP095,CYCO,2023-06-07T04:00:00Z,67.82,-115.15,1.0,1.0,30,17,,5.0,29.799213,1009.5,,,,,,,,,-RA BR,BKN,400,OVC,500,,,,,LIFR,,,,,,,,,,,,METAR,20.0
CYCK 070400Z AUTO 02007KT 6SM HZ CLR 11/05 A2987 RMK SLP115,CYCK,2023-06-07T04:00:00Z,42.3,-82.08,11.0,5.0,20,7,,6.0,29.870079,1011.5,,TRUE,,,,,,,HZ,CLR,,,,,,,,VFR,,,,,,,,,,,,METAR,196.0
CYCG 070400Z 00000KT 15SM FEW210 18/07 A2979 RMK CC1 LAST STFD OBS/NXT 071300Z SLP085 DENSITY ALT 2600FT,CYCG,2023-06-07T04:00:00Z,49.28,-117.63,18.0,7.0,0,0,,15.0,29.790354,1008.5,,,,,,,,,,FEW,21000,,,,,,,VFR,,,,,,,,,,,,METAR,487.0
CYCD 070400Z 00000KT 30SM SKC 22/04 A2979 RMK LAST STFD OBS/NEXT 071300Z SLP088 DENSITY ALT 1100FT,CYCD,2023-06-07T04:00:00Z,49.05,-123.87,22.0,4.0,0,0,,30.0,29.790354,1008.8,,,,,,,,,,SKC,,,,,,,,VFR,,,,,,,,,,,,METAR,30.0
CYCB 070400Z 04020G26KT 15SM BKN003 OVC055 01/00 A2987 RMK SF5SC3 SLP118,CYCB,2023-06-07T04:00:00Z,69.1,-105.12,1.0,0.0,40,20,26,15.0,29.870079,1011.8,,,,,,,,,,BKN,300,OVC,5500,,,,,LIFR,,,,,,,,,,,,METAR,19.0
CYBX 070400Z 06029G40KT 4SM -RA BR SCT010 OVC020 07/06 A2984 RMK SC4SC4 SLP109,CYBX,2023-06-07T04:00:00Z,51.45,-57.18,7.0,6.0,60,29,40,4.0,29.840551,1010.9,,,,,,,,,-RA BR,SCT,1000,OVC,2000,,,,,MVFR,,,,,,,,,,,,METAR,32.0
CYBW 070400Z AUTO 14010KT 9SM CLR 16/04 A2996 RMK SLP148 DENSITY ALT 5000FT,CYBW,2023-06-07T04:00:00Z,51.1,-114.37,16.0,4.0,140,10,,9.0,29.958662,1014.8,,TRUE,,,,,,,,CLR,,,,,,,,VFR,,,,,,,,,,,,METAR,1197.0
CYBU 070400Z AUTO 34006KT 9SM FEW240 21/18 A2986 RMK SLP115 DENSITY ALT 2300FT,CYBU,2023-06-07T04:00:00Z,53.32,-104.0,21.0,18.0,340,6,,9.0,29.861221,1011.5,,TRUE,,,,,,,,FEW,24000,,,,,,,VFR,,,,,,,,,,,,METAR,369.0
CYBR 070400Z 08006KT 15SM BKN150 BKN220 23/19 A2983 RMK AC5CI1 SLP102 DENSITY ALT 2700FT,CYBR,2023-06-07T04:00:00Z,49.92,-99.95,23.0,19.0,80,6,,15.0,29.828741,1010.2,,,,,,,,,,BKN,15000,BKN,22000,,,,,VFR,,,,,,,,,,,,METAR,405.0
CYBL 070400Z 30007KT 30SM FEW250 22/00 A2983 RMK CI2 LAST STFD OBS/NEXT 071300Z SLP103 DENSITY ALT 1400FT,CYBL,2023-06-07T04:00:00Z,49.95,-125.27,22.0,0.0,300,7,,30.0,29.828741,1010.3,,,,,,,,,,FEW,25000,,,,,,,VFR,,,,,,,,,,,,METAR,94.0
CYBG 070400Z 26003KT 20SM -SHRA BKN031 BKN055 OVC090 09/08 A2962 RMK SC5SC2AC1 DENSITY ALT 447FT SLP034,CYBG,2023-06-07T04:00:00Z,48.33,-70.98,9.0,8.0,260,3,,20.0,29.619095,1003.4,,,,,,,,,-SHRA,BKN,3100,BKN,5500,OVC,9000,,,VFR,,,,,,,,,,,,METAR,151.0
CYBC 070400Z AUTO 02012G22KT 9SM BKN038 OVC046 10/08 A2955 RMK SLP008,CYBC,2023-06-07T04:00:00Z,49.13,-68.2,10.0,8.0,20,12,22,9.0,29.551182,1000.8,,TRUE,,,,,,,,BKN,3800,OVC,4600,,,,,VFR,,,,,,,,,,,,METAR,20.0
CYAT 070400Z AUTO 04006KT 9SM 06/01 A3018 RMK CLD MISG SLP223,CYAT,2023-06-07T04:00:00Z,52.93,-82.43,6.0,1.0,40,6,,9.0,30.180119,1022.3,,TRUE,,,,,,,,,,,,,,,,,,,,,,,,,,,,METAR,4.0
CYAM 070400Z 00000KT 20SM SCT240 08/07 A2997 RMK CI3 SLP156,CYAM,2023-06-07T04:00:00Z,46.48,-84.52,8.0,7.0,0,0,,20.0,29.970472,1015.6,,,,,,,,,,SCT,24000,,,,,,,VFR,,,,,,,,,,,,METAR,186.0
CYAH 070400Z AUTO 07004KT 9SM CLR 09/01 A3003 RMK SLP180,CYAH,2023-06-07T04:00:00Z,53.75,-73.67,9.0,1.0,70,4,,9.0,30.029528,1018.0,,TRUE,,,,,,,,CLR,,,,,,,,VFR,,,,,,,,,,,,METAR,298.0
CXZV 070400Z AUTO 02008G15KT 09/07 RMK AO1 3PAST HR 8009 PK WND 03025/0322 SLP023 P0001 T00860069 50003,CXZV,2023-06-07T04:00:00Z,50.22,-66.25,8.6,6.9,20,8,15,,,1002.3,,TRUE,TRUE,,,,,,,,,,,,,,,,0.3,,,,,0.01,,,,,,METAR,43.0
CXZC 070400Z AUTO 33003KT 07/01 RMK AO1 SLP186 T00700005 56011,CXZC,2023-06-07T04:00:00Z,51.3,-80.62,7.0,0.5,330,3,,,,1018.6,,TRUE,TRUE,,,,,,,,,,,,,,,,-1.1,,,,,,,,,,,METAR,8.0
CXYH 070400Z AUTO 31002KT 11/07 RMK AO1 6PAST HR 3004 SLP002 P0002 T01090071 50038,CXYH,2023-06-07T04:00:00Z,61.25,-123.75,10.9,7.1,310,2,,,,1000.2,,TRUE,TRUE,,,,,,,,,,,,,,,,3.8,,,,,0.02,,,,,,METAR,197.0
CXWN 070400Z AUTO 08002KT 22/22 RMK AO1 1006 SLP108 T02230217 50014,CXWN,2023-06-07T04:00:00Z,49.88,-97.13,22.3,21.7,80,2,,,,1010.8,,TRUE,TRUE,,,,,,,,,,,,,,,,1.4,,,,,,,,,,,METAR,232.0
CXWM 070400Z AUTO 13002KT 15/09 RMK AO1 T01530089,CXWM,2023-06-07T04:00:00Z,49.5,-112.12,15.3,8.9,130,2,,,,,,TRUE,TRUE,,,,,,,,,,,,,,,,,,,,,,,,,,,METAR,947.0
CXVW 070400Z AUTO 04004KT 18/02 RMK AO1 SLP104 T01780022 56001,CXVW,2023-06-07T04:00:00Z,55.1,-117.2,17.8,2.2,40,4,,,,1010.4,,TRUE,TRUE,,,,,,,,,,,,,,,,-0.1,,,,,,,,,,,METAR,696.0
CXVN 070400Z AUTO 34009KT 16/09 RMK AO1 SLP089 T01630093 50004,CXVN,2023-06-07T04:00:00Z,43.18,-79.4,16.3,9.3,340,9,,,,1008.9,,TRUE,TRUE,,,,,,,,,,,,,,,,0.4,,,,,,,,,,,METAR,86.0
CXVM 070400Z AUTO 12002KT 15/07 RMK AO1 T01510069,CXVM,2023-06-07T04:00:00Z,53.35,-110.88,15.1,6.9,120,2,,,,,,TRUE,TRUE,,,,,,,,,,,,,,,,,,,,,,,,,,,METAR,622.0
CXTV 070400Z AUTO 03007KT 15/04 RMK AO1 SLP133 T01520044 57003,CXTV,2023-06-07T04:00:00Z,68.75,-133.5,15.2,4.4,30,7,,,,1013.3,,TRUE,TRUE,,,,,,,,,,,,,,,,-0.3,,,,,,,,,,,METAR,91.0
CXTP 070400Z AUTO 07003KT 07/07 RMK AO1 6003 SLP066 T00660066 50006,CXTP,2023-06-07T04:00:00Z,48.55,-53.97,6.6,6.6,70,3,,,,1006.6,,TRUE,TRUE,,,,,,,,,,,,,,,,0.6,,,,,,,,,,,METAR,104.0
CXTO 070400Z AUTO 17/04 RMK AO1 SLP092 T01650035 50005,CXTO,2023-06-07T04:00:00Z,43.67,-79.4,16.5,3.5,,,,,,1009.2,,TRUE,TRUE,,,,,,,,,,,,,,,,0.5,,,,,,,,,,,METAR,115.0
CXTN 070400Z AUTO 07018KT 05/M04 RMK AO1 PK WND 07023/0347 SLP144 T00461040 56006,CXTN,2023-06-07T04:00:00Z,69.2,-122.35,4.6,-4.0,70,18,,,,1014.4,,TRUE,TRUE,,,,,,,,,,,,,,,,-0.6,,,,,,,,,,,METAR,564.0
CXTH 070400Z AUTO 10004KT 18/02 RMK AO1 T01820024,CXTH,2023-06-07T04:00:00Z,53.63,-111.68,18.2,2.4,100,4,,,,,,TRUE,TRUE,,,,,,,,,,,,,,,,,,,,,,,,,,,METAR,679.0
CXTD 070400Z AUTO 14006KT 08/07 RMK AO1 1005 SLP952 T00790074 50002,CXTD,2023-06-07T04:00:00Z,45.62,-61.68,7.9,7.4,140,6,,,,995.2,,TRUE,TRUE,,,,,,,,,,,,,,,,0.2,,,,,,,,,,,METAR,58.0
CXSP 070400Z AUTO 12003KT 15/05 RMK AO1 T01540048,CXSP,2023-06-07T04:00:00Z,54.02,-111.27,15.4,4.8,120,3,,,,,,TRUE,TRUE,,,,,,,,,,,,,,,,,,,,,,,,,,,METAR,652.0
CXSL 070400Z AUTO 15003KT 15/04 RMK AO1 T01530042,CXSL,2023-06-07T04:00:00Z,54.28,-112.5,15.3,4.2,150,3,,,,,,TRUE,TRUE,,,,,,,,,,,,,,,,,,,,,,,,,,,METAR,680.0
CXSH 070400Z AUTO 35007KT 11/08 RMK AO1 2PAST HR 8007 SLP029 P0001 T01140080 50002,CXSH,2023-06-07T04:00:00Z,46.55,-72.73,11.4,8.0,350,7,,,,1002.9,,TRUE,TRUE,,,,,,,,,,,,,,,,0.2,,,,,0.01,,,,,,METAR,106.0
CXSE 070400Z AUTO 12009KT M01/M03 RMK AO1 SLP216 T10081028 56008,CXSE,2023-06-07T04:00:00Z,73.77,-105.28,-0.8,-2.8,120,9,,,,1021.6,,TRUE,TRUE,,,,,,,,,,,,,,,,-0.8,,,,,,,,,,,METAR,11.0
CXSC 070400Z AUTO 00000KT 17/14 RMK AO1 T01710143,CXSC,2023-06-07T04:00:00Z,50.3,-110.08,17.1,14.3,0,0,,,,,,TRUE,TRUE,,,,,,,,,,,,,,,,,,,,,,,,,,,METAR,809.0
CXRL 070400Z AUTO 13002KT 14/07 RMK AO1 T01380068,CXRL,2023-06-07T04:00:00Z,54.5,-111.7,13.8,6.8,130,2,,,,,,TRUE,TRUE,,,,,,,,,,,,,,,,,,,,,,,,,,,METAR,585.0
CXRH 070400Z AUTO 14006G16KT 09/06 RMK AO1 PK WND 12025/0317 SLP031 T00930057 53008,CXRH,2023-06-07T04:00:00Z,49.57,-57.88,9.3,5.7,140,6,16,,,1003.1,,TRUE,TRUE,,,,,,,,,,,,,,,,0.8,,,,,,,,,,,METAR,68.0
CXRB 070400Z AUTO 33004KT M02/M05 RMK AO1 SOG 06 6009 SLP222 T10221052,CXRB,2023-06-07T04:00:00Z,74.72,-94.98,-2.2,-5.2,330,4,,,,1022.2,,TRUE,TRUE,,,,,,,,,,,,,,,,,,,,,,,,,,,METAR,30.0
CXPL 070400Z AUTO 05008KT 16/05 RMK AO1 T01590054,CXPL,2023-06-07T04:00:00Z,51.13,-111.7,15.9,5.4,50,8,,,,,,TRUE,TRUE,,,,,,,,,,,,,,,,,,,,,,,,,,,METAR,735.0
CXPC 070400Z AUTO 14/01 RMK AO1 SLP110 T01400014 50002,CXPC,2023-06-07T04:00:00Z,45.35,-80.05,14.0,1.4,,,,,,1011.0,,TRUE,TRUE,,,,,,,,,,,,,,,,0.2,,,,,,,,,,,METAR,176.0
CXPA 070400Z AUTO 26004KT 17/M02 RMK AO1 T01651022,CXPA,2023-06-07T04:00:00Z,55.62,-118.3,16.5,-2.2,260,4,,,,,,TRUE,TRUE,,,,,,,,,,,,,,,,,,,,,,,,,,,METAR,628.0
CXOY 070400Z AUTO 12005KT 13/07 RMK AO1 T01310070,CXOY,2023-06-07T04:00:00Z,51.35,-110.35,13.1,7.0,120,5,,,,,,TRUE,TRUE,,,,,,,,,,,,,,,,,,,,,,,,,,,METAR,784.0
CXOX 070400Z AUTO 28001KT 16/08 RMK AO1 SLP121 T01640075 57005,CXOX,2023-06-07T04:00:00Z,55.15,-105.27,16.4,7.5,280,1,,,,1012.1,,TRUE,TRUE,,,,,,,,,,,,,,,,-0.5,,,,,,,,,,,METAR,381.0
CXOL 070400Z AUTO 13009KT 15/04 RMK AO1 T01460040,CXOL,2023-06-07T04:00:00Z,51.77,-114.08,14.6,4.0,130,9,,,,,,TRUE,TRUE,,,,,,,,,,,,,,,,,,,,,,,,,,,METAR,1026.0
CXNP 070400Z AUTO 30004KT 09/09 RMK AO1 2PAST HR 2007 SLP913 P0001 T00920090 50008,CXNP,2023-06-07T04:00:00Z,45.75,-64.23,9.2,9.0,300,4,,,,991.3,,TRUE,TRUE,,,,,,,,,,,,,,,,0.8,,,,,0.01,,,,,,METAR,19.0
CXNM 070400Z AUTO 12013G19KT 05/05 RMK AO1 PK WND 13021/0325 T00510052,CXNM,2023-06-07T04:00:00Z,46.82,-60.67,5.1,5.2,120,13,19,,,,,TRUE,TRUE,,,,,,,,,,,,,,,,,,,,,,,,,,,METAR,452.0
CXMY 070400Z AUTO 08/08 RMK AO1 5PAST HR M P0002 T00820081 50018,CXMY,2023-06-07T04:00:00Z,44.98,-62.48,8.2,8.1,,,,,,,,TRUE,TRUE,,,,,,,,,,,,,,,,1.8,,,,,0.02,,,,,,METAR,37.0
CXMO 070400Z AUTO 14008KT 16/06 RMK AO1 T01580057,CXMO,2023-06-07T04:00:00Z,51.67,-112.68,15.8,5.7,140,8,,,,,,TRUE,TRUE,,,,,,,,,,,,,,,,,,,,,,,,,,,METAR,837.0
CXMM 070400Z AUTO 19005KT 18/06 RMK AO1 SLP113 T01800060 55002,CXMM,2023-06-07T04:00:00Z,56.65,-111.22,18.0,6.0,190,5,,,,1011.3,,TRUE,TRUE,,,,,,,,,,,,,,,,-0.2,,,,,,,,,,,METAR,372.0
CXMI 070400Z AUTO 21008KT 10/10 RMK AO1 SLP924 T01010095 51023,CXMI,2023-06-07T04:00:00Z,44.6,-63.53,10.1,9.5,210,8,,,,992.4,,TRUE,TRUE,,,,,,,,,,,,,,,,2.3,,,,,,,,,,,METAR,15.0
CXMG 070400Z AUTO 22012KT 19/M02 RMK AO1 PK WND 23021/0300 T01851020,CXMG,2023-06-07T04:00:00Z,56.97,-117.45,18.5,-2.0,220,12,,,,,,TRUE,TRUE,,,,,,,,,,,,,,,,,,,,,,,,,,,METAR,467.0
CXMD 070400Z AUTO 17002KT 22/18 RMK AO1 SLP103 T02200179 54000,CXMD,2023-06-07T04:00:00Z,49.18,-98.08,22.0,17.9,170,2,,,,1010.3,,TRUE,TRUE,,,,,,,,,,,,,,,,,,,,,,,,,,,METAR,297.0
CXLL 070400Z AUTO 11/08 RMK AO1 SLP016 T01140080 53009,CXLL,2023-06-07T04:00:00Z,61.12,-122.85,11.4,8.0,,,,,,1001.6,,TRUE,TRUE,,,,,,,,,,,,,,,,0.9,,,,,,,,,,,METAR,180.0
CXLC 070400Z AUTO 16013G19KT 11/07 RMK AO1 PK WND 18026/0348 SLP024 T01120067 53002,CXLC,2023-06-07T04:00:00Z,63.6,-113.85,11.2,6.7,160,13,19,,,1002.4,,TRUE,TRUE,,,,,,,,,,,,,,,,0.2,,,,,,,,,,,METAR,370.0
CXLB 070400Z AUTO 23008KT 11/10 RMK AO1 SLP921 T01070097 51012,CXLB,2023-06-07T04:00:00Z,44.37,-64.3,10.7,9.7,230,8,,,,992.1,,TRUE,TRUE,,,,,,,,,,,,,,,,1.2,,,,,,,,,,,METAR,4.0
CXKT 070400Z AUTO 23003KT 10/10 RMK AO1 1008 SLP918 T01000095 50002,CXKT,2023-06-07T04:00:00Z,45.07,-64.48,10.0,9.5,230,3,,,,991.8,,TRUE,TRUE,,,,,,,,,,,,,,,,0.2,,,,,,,,,,,METAR,48.0
CXKM 070400Z AUTO 12006KT 16/03 RMK AO1 T01640028,CXKM,2023-06-07T04:00:00Z,52.83,-111.87,16.4,2.8,120,6,,,,,,TRUE,TRUE,,,,,,,,,,,,,,,,,,,,,,,,,,,METAR,679.0
CXKI 070400Z AUTO 35005KT 12/03 RMK AO1 SLP134 T01230028 53010,CXKI,2023-06-07T04:00:00Z,48.13,-80.0,12.3,2.8,350,5,,,,1013.4,,TRUE,TRUE,,,,,,,,,,,,,,,,1.0,,,,,,,,,,,METAR,328.0
CXKE 070400Z AUTO 31005KT 13/08 RMK AO1 SLP055 T01260084 58002,CXKE,2023-06-07T04:00:00Z,45.0,-75.63,12.6,8.4,310,5,,,,1005.5,,TRUE,TRUE,,,,,,,,,,,,,,,,-0.2,,,,,,,,,,,METAR,99.0
CXKA 070400Z AUTO 36005KT 10/02 RMK AO1 SLP187 T01010017 51006,CXKA,2023-06-07T04:00:00Z,49.4,-82.45,10.1,1.7,360,5,,,,1018.7,,TRUE,TRUE,,,,,,,,,,,,,,,,0.6,,,,,,,,,,,METAR,221.0
CXIB 070400Z AUTO 15003KT 07/07 RMK AO1 2006 SLP972 T00650073 50007,CXIB,2023-06-07T04:00:00Z,46.67,-60.4,6.5,7.3,150,3,,,,997.2,,TRUE,TRUE,,,,,,,,,,,,,,,,0.7,,,,,,,,,,,METAR,6.0
CXHR 070400Z AUTO 14007KT 14/03 RMK AO1 T01430028,CXHR,2023-06-07T04:00:00Z,51.18,-112.5,14.3,2.8,140,7,,,,,,TRUE,TRUE,,,,,,,,,,,,,,,,,,,,,,,,,,,METAR,975.0
CXHP 070400Z AUTO 21002KT 17/05 RMK AO1 T01710054,CXHP,2023-06-07T04:00:00Z,55.4,-116.48,17.1,5.4,210,2,,,,,,TRUE,TRUE,,,,,,,,,,,,,,,,,,,,,,,,,,,METAR,601.0
CXHM 070400Z AUTO 33003KT 15/01 RMK AO1 SLP095 T01460012 50005,CXHM,2023-06-07T04:00:00Z,43.28,-79.9,14.6,1.2,330,3,,,,1009.5,,TRUE,TRUE,,,,,,,,,,,,,,,,0.5,,,,,,,,,,,METAR,105.0
CXHD 070400Z AUTO 10002KT 15/03 RMK AO1 T01500031,CXHD,2023-06-07T04:00:00Z,53.18,-112.25,15.0,3.1,100,2,,,,,,TRUE,TRUE,,,,,,,,,,,,,,,,,,,,,,,,,,,METAR,688.0
CXHA 070400Z AUTO 35001KT 13/03 RMK AO1 SLP118 T01270034 51009,CXHA,2023-06-07T04:00:00Z,42.03,-82.9,12.7,3.4,350,1,,,,1011.8,,TRUE,TRUE,,,,,,,,,,,,,,,,0.9,,,,,,,,,,,METAR,193.0
CXGH 070400Z AUTO 17010KT 23/19 RMK AO1 PK WND 15018/0306 SLP104 T02340191 51005,CXGH,2023-06-07T04:00:00Z,50.63,-97.0,23.4,19.1,170,10,,,,1010.4,,TRUE,TRUE,,,,,,,,,,,,,,,,0.5,,,,,,,,,,,METAR,217.0
CXFR 070400Z AUTO 23007KT 17/M02 RMK AO1 T01711022,CXFR,2023-06-07T04:00:00Z,56.08,-118.43,17.1,-2.2,230,7,,,,,,TRUE,TRUE,,,,,,,,,,,,,,,,,,,,,,,,,,,METAR,657.0
CXFM 070400Z AUTO 00000KT 16/11 RMK AO1 T01580106,CXFM,2023-06-07T04:00:00Z,49.48,-111.48,15.8,10.6,0,0,,,,,,TRUE,TRUE,,,,,,,,,,,,,,,,,,,,,,,,,,,METAR,884.0
CXET 070400Z AUTO 32002KT 10/07 RMK AO1 SLP107 T01020074 51005,CXET,2023-06-07T04:00:00Z,44.23,-79.78,10.2,7.4,320,2,,,,1010.7,,TRUE,TRUE,,,,,,,,,,,,,,,,0.5,,,,,,,,,,,METAR,250.0
CXEC 070400Z AUTO 20003KT 21/05 RMK AO1 SLP125 T02080049 57004,CXEC,2023-06-07T04:00:00Z,53.57,-113.52,20.8,4.9,200,3,,,,1012.5,,TRUE,TRUE,,,,,,,,,,,,,,,,-0.4,,,,,,,,,,,METAR,666.0
CXEA 070400Z AUTO 13006KT 16/13 RMK AO1 SLP153 T01560129 53003,CXEA,2023-06-07T04:00:00Z,50.63,-93.22,15.6,12.9,130,6,,,,1015.3,,TRUE,TRUE,,,,,,,,,,,,,,,,0.3,,,,,,,,,,,METAR,351.0
CXDW 070400Z AUTO 18004KT 22/18 RMK AO1 SLP103 T02220178 50001,CXDW,2023-06-07T04:00:00Z,49.4,-98.32,22.2,17.8,180,4,,,,1010.3,,TRUE,TRUE,,,,,,,,,,,,,,,,0.1,,,,,,,,,,,METAR,341.0
CXDK 070400Z AUTO 11/07 RMK AO1 6001 SLP026 T01110066 50012,CXDK,2023-06-07T04:00:00Z,61.27,-124.47,11.1,6.6,,,,,,1002.6,,TRUE,TRUE,,,,,,,,,,,,,,,,1.2,,,,,,,,,,,METAR,269.0
CXDI 070400Z AUTO 36005KT 13/02 RMK AO1 SLP098 T01250016 50008,CXDI,2023-06-07T04:00:00Z,42.87,-80.55,12.5,1.6,360,5,,,,1009.8,,TRUE,TRUE,,,,,,,,,,,,,,,,0.8,,,,,,,,,,,METAR,234.0
CXDE 070400Z AUTO 36011G17KT 06/04 RMK AO1 1PAST HR 3004 PK WND 01020/0301 SLP033 P0000 T00560043 50011,CXDE,2023-06-07T04:00:00Z,65.22,-123.43,5.6,4.3,360,11,17,,,1003.3,,TRUE,TRUE,,,,,,,,,,,,,,,,1.1,,,,,0.005,,,,,,METAR,208.0
CXDB 070400Z AUTO 13006KT 12/08 RMK AO1 T01180076,CXDB,2023-06-07T04:00:00Z,49.05,-112.82,11.8,7.6,130,6,,,,,,TRUE,TRUE,,,,,,,,,,,,,,,,,,,,,,,,,,,METAR,1311.0
CXCS 070400Z AUTO 09003KT 16/05 RMK AO1 T01550052,CXCS,2023-06-07T04:00:00Z,51.93,-110.72,15.5,5.2,90,3,,,,,,TRUE,TRUE,,,,,,,,,,,,,,,,,,,,,,,,,,,METAR,771.0
CXCP 070400Z AUTO 14006KT 13/06 RMK AO1 T01320061,CXCP,2023-06-07T04:00:00Z,50.28,-113.35,13.2,6.1,140,6,,,,,,TRUE,TRUE,,,,,,,,,,,,,,,,,,,,,,,,,,,METAR,999.0
CXCK 070400Z AUTO 16002KT 19/09 RMK AO1 SLP083 T01910092 55008,CXCK,2023-06-07T04:00:00Z,62.12,-136.2,19.1,9.2,160,2,,,,1008.3,,TRUE,TRUE,,,,,,,,,,,,,,,,-0.8,,,,,,,,,,,METAR,526.0
CXCD 070400Z AUTO 19005KT 17/M01 RMK AO1 T01711008,CXCD,2023-06-07T04:00:00Z,56.32,-119.75,17.1,-0.8,190,5,,,,,,TRUE,TRUE,,,,,,,,,,,,,,,,,,,,,,,,,,,METAR,628.0
CXCA 070400Z AUTO 36001KT 08/06 RMK AO1 SLP191 T00780056 53008,CXCA,2023-06-07T04:00:00Z,49.15,-88.35,7.8,5.6,360,1,,,,1019.1,,TRUE,TRUE,,,,,,,,,,,,,,,,0.8,,,,,,,,,,,METAR,228.0
CXBW 070400Z AUTO 16002KT 17/10 RMK AO1 T01680104,CXBW,2023-06-07T04:00:00Z,49.8,-112.3,16.8,10.4,160,2,,,,,,TRUE,TRUE,,,,,,,,,,,,,,,,,,,,,,,,,,,METAR,823.0
CXBR 070400Z AUTO 09004KT 15/07 RMK AO1 T01510072,CXBR,2023-06-07T04:00:00Z,49.62,-113.82,15.1,7.2,90,4,,,,,,TRUE,TRUE,,,,,,,,,,,,,,,,,,,,,,,,,,,METAR,1137.0
CXBO 070400Z AUTO 35004KT 14/07 RMK AO1 T01370073,CXBO,2023-06-07T04:00:00Z,46.83,-71.2,13.7,7.3,350,4,,,,,,TRUE,TRUE,,,,,,,,,,,,,,,,,,,,,,,,,,,METAR,8.0
CXBK 070400Z AUTO 32007KT 23/14 RMK AO1 SLP105 T02260139 53002,CXBK,2023-06-07T04:00:00Z,50.2,-104.7,22.6,13.9,320,7,,,,1010.5,,TRUE,TRUE,,,,,,,,,,,,,,,,0.2,,,,,,,,,,,METAR,585.0
CXBI 070400Z AUTO 34006KT 13/01 RMK AO1 SLP105 T01280014 50003,CXBI,2023-06-07T04:00:00Z,44.48,-79.55,12.8,1.4,340,6,,,,1010.5,,TRUE,TRUE,,,,,,,,,,,,,,,,0.3,,,,,,,,,,,METAR,287.0
CXBA 070400Z AUTO 08002KT 17/06 RMK AO1 T01720064,CXBA,2023-06-07T04:00:00Z,52.12,-110.1,17.2,6.4,80,2,,,,,,TRUE,TRUE,,,,,,,,,,,,,,,,,,,,,,,,,,,METAR,696.0
CXAK 070400Z AUTO 14009KT 14/03 RMK AO1 T01350030,CXAK,2023-06-07T04:00:00Z,52.35,-112.6,13.5,3.0,140,9,,,,,,TRUE,TRUE,,,,,,,,,,,,,,,,,,,,,,,,,,,METAR,799.0
CXAJ 070400Z AUTO 12001KT 14/06 RMK AO1 T01400063,CXAJ,2023-06-07T04:00:00Z,54.78,-112.82,14.0,6.3,120,1,,,,,,TRUE,TRUE,,,,,,,,,,,,,,,,,,,,,,,,,,,METAR,586.0
CXAG 070400Z AUTO 15002KT 14/05 RMK AO1 T01350051,CXAG,2023-06-07T04:00:00Z,53.92,-112.28,13.5,5.1,150,2,,,,,,TRUE,TRUE,,,,,,,,,,,,,,,,,,,,,,,,,,,METAR,632.0
CXAF 070400Z AUTO 00000KT 13/06 RMK AO1 T01330061,CXAF,2023-06-07T04:00:00Z,54.28,-112.97,13.3,6.1,0,0,,,,,,TRUE,TRUE,,,,,,,,,,,,,,,,,,,,,,,,,,,METAR,667.0
CWZW 070400Z AUTO 20001KT 10/06 RMK AO1 SLP136 T01000061 56011,CWZW,2023-06-07T04:00:00Z,60.17,-132.73,10.0,6.1,200,1,,,,1013.6,,TRUE,TRUE,,,,,,,,,,,,,,,,-1.1,,,,,,,,,,,METAR,683.0
CWZQ 070400Z AUTO 19008KT 10/06 RMK AO1 SLP954 T00970062 51012,CWZQ,2023-06-07T04:00:00Z,46.53,-61.05,9.7,6.2,190,8,,,,995.4,,TRUE,TRUE,,,,,,,,,,,,,,,,1.2,,,,,,,,,,,METAR,13.0
CWZO 070400Z AUTO 17003KT RMK AO1,CWZO,2023-06-07T04:00:00Z,48.57,-123.25,,,170,3,,,,,,TRUE,TRUE,,,,,,,,,,,,,,,,,,,,,,,,,,,METAR,5.0
CWZN 070400Z AUTO 09015KT 07/07 RMK AO1 PK WND 09019/0336 SLP035 T00680067 57004,CWZN,2023-06-07T04:00:00Z,47.37,-55.8,6.8,6.7,90,15,,,,1003.5,,TRUE,TRUE,,,,,,,,,,,,,,,,-0.4,,,,,,,,,,,METAR,63.0
CWZL 070400Z AUTO 35009KT 12/09 RMK AO1 SLP181 T01240092 56012,CWZL,2023-06-07T04:00:00Z,53.03,-131.6,12.4,9.2,350,9,,,,1018.1,,TRUE,TRUE,,,,,,,,,,,,,,,,-1.2,,,,,,,,,,,METAR,17.0
CWZG 070400Z AUTO 02003KT 17/02 RMK AO1 SLP115 T01670016 53004,CWZG,2023-06-07T04:00:00Z,51.2,-115.55,16.7,1.6,20,3,,,,1011.5,,TRUE,TRUE,,,,,,,,,,,,,,,,0.4,,,,,,,,,,,METAR,1402.0
CWZA 070400Z AUTO 05002KT 22/10 RMK AO1 SLP082 T02180098 56004,CWZA,2023-06-07T04:00:00Z,49.25,-121.77,21.8,9.8,50,2,,,,1008.2,,TRUE,TRUE,,,,,,,,,,,,,,,,-0.4,,,,,,,,,,,METAR,18.0
CWYY 070400Z AUTO 04004KT 23/04 RMK AO1 SLP081 T02300035 55003,CWYY,2023-06-07T04:00:00Z,49.03,-119.43,23.0,3.5,40,4,,,,1008.1,,TRUE,TRUE,,,,,,,,,,,,,,,,-0.3,,,,,,,,,,,METAR,284.0
CWYL 070400Z AUTO 00000KT 12/M02 RMK AO1 SLP131 T01221015 55001,CWYL,2023-06-07T04:00:00Z,51.45,-116.33,12.2,-1.5,0,0,,,,1013.1,,TRUE,TRUE,,,,,,,,,,,,,,,,-0.1,,,,,,,,,,,METAR,1602.0
CWYJ 070400Z AUTO 25002KT 19/04 RMK AO1 SLP090 T01930044 56010,CWYJ,2023-06-07T04:00:00Z,48.45,-123.3,19.3,4.4,250,2,,,,1009.0,,TRUE,TRUE,,,,,,,,,,,,,,,,-1.0,,,,,,,,,,,METAR,59.0
CWXL 070400Z AUTO 00000KT 18/12 RMK AO1 SLP144 T01770116 58004,CWXL,2023-06-07T04:00:00Z,49.73,-111.45,17.7,11.6,0,0,,,,1014.4,,TRUE,TRUE,,,,,,,,,,,,,,,,-0.4,,,,,,,,,,,METAR,815.0
CWXI 070400Z AUTO 06023KT 04/03 RMK AO1 PK WND 06030/0333 T00350028 58014,CWXI,2023-06-07T04:00:00Z,51.02,-57.1,3.5,2.8,60,23,,,,,,TRUE,TRUE,,,,,,,,,,,,,,,,-1.4,,,,,,,,,,,METAR,15.0
CWXC 070400Z AUTO 01006KT 08/07 RMK AO1 2PAST HR 6011 SLP042 P0001 T00750066 50008,CWXC,2023-06-07T04:00:00Z,48.88,-71.03,7.5,6.6,10,6,,,,1004.2,,TRUE,TRUE,,,,,,,,,,,,,,,,0.8,,,,,0.01,,,,,,METAR,306.0
CWXA 070400Z AUTO 00034KT 16/02 RMK AO1 SLP153 T01640020 53003,CWXA,2023-06-07T04:00:00Z,51.07,-115.07,16.4,2.0,0,34,,,,1015.3,,TRUE,TRUE,,,,,,,,,,,,,,,,0.3,,,,,,,,,,,METAR,1303.0
CWWZ 070400Z AUTO 32011KT 15/12 RMK AO1 SLP087 T01530121 50005,CWWZ,2023-06-07T04:00:00Z,43.25,-79.22,15.3,12.1,320,11,,,,1008.7,,TRUE,TRUE,,,,,,,,,,,,,,,,0.5,,,,,,,,,,,METAR,75.0
CWWS 070400Z AUTO 14009KT 15/14 RMK AO1 3PAST HR 8012 SLP106 P0001 T01490135 50365,CWWS,2023-06-07T04:00:00Z,52.82,-97.62,14.9,13.5,140,9,,,,1010.6,,TRUE,TRUE,,,,,,,,,,,,,,,,0.0,,,,,0.01,,,,,,METAR,220.0
CWWL 070400Z AUTO 33016KT 11/09 RMK AO1 PK WND 33019/0320 SLP162 T01120090 56014,CWWL,2023-06-07T04:00:00Z,53.5,-130.63,11.2,9.0,330,16,,,,1016.2,,TRUE,TRUE,,,,,,,,,,,,,,,,-1.4,,,,,,,,,,,METAR,8.0
CWWK 070400Z AUTO 14001KT 20/10 RMK AO1 SLP087 T01970101 56010,CWWK,2023-06-07T04:00:00Z,49.02,-122.78,19.7,10.1,140,1,,,,1008.7,,TRUE,TRUE,,,,,,,,,,,,,,,,-1.0,,,,,,,,,,,METAR,10.0
CWWF 070400Z AUTO 01006KT 21/14 RMK AO1 SLP101 T02070141 50006,CWWF,2023-06-07T04:00:00Z,49.7,-103.8,20.7,14.1,10,6,,,,1010.1,,TRUE,TRUE,,,,,,,,,,,,,,,,0.6,,,,,,,,,,,METAR,583.0
CWWE 070400Z AUTO 22005KT RMK AO1 2PAST HR 0008 P0001 50002,CWWE,2023-06-07T04:00:00Z,43.98,-64.67,,,220,5,,,,,,TRUE,TRUE,,,,,,,,,,,,,,,,0.2,,,,,0.01,,,,,,METAR,4.0
CWWB 070400Z AUTO 33013KT 17/02 RMK AO1 SLP093 T01740018 50004,CWWB,2023-06-07T04:00:00Z,43.3,-79.78,17.4,1.8,330,13,,,,1009.3,,TRUE,TRUE,,,,,,,,,,,,,,,,0.4,,,,,,,,,,,METAR,77.0
CWWA 070400Z AUTO 03001KT 23/03 RMK AO1 SLP085 T02270033 56014,CWWA,2023-06-07T04:00:00Z,49.35,-123.18,22.7,3.3,30,1,,,,1008.5,,TRUE,TRUE,,,,,,,,,,,,,,,,-1.4,,,,,,,,,,,METAR,172.0
CWVU 070400Z AUTO 24008KT 08/08 RMK AO1 0003 SLP930 T00840082 50002,CWVU,2023-06-07T04:00:00Z,44.28,-66.33,8.4,8.2,240,8,,,,993.0,,TRUE,TRUE,,,,,,,,,,,,,,,,0.2,,,,,,,,,,,METAR,4.0
CWVT 070400Z AUTO 00000KT 15/08 RMK AO1 SLP141 T01530083 58002,CWVT,2023-06-07T04:00:00Z,55.83,-108.42,15.3,8.3,0,0,,,,1014.1,,TRUE,TRUE,,,,,,,,,,,,,,,,-0.2,,,,,,,,,,,METAR,431.0
CWVQ 070400Z AUTO 33007KT 14/10 RMK AO1 8006 SLP040 T01350098 50002,CWVQ,2023-06-07T04:00:00Z,45.42,-73.92,13.5,9.8,330,7,,,,1004.0,,TRUE,TRUE,,,,,,,,,,,,,,,,0.2,,,,,,,,,,,METAR,38.0
CWVP 070400Z AUTO 05003KT 14/12 RMK AO1 SLP153 T01370121 51001,CWVP,2023-06-07T04:00:00Z,49.63,-109.52,13.7,12.1,50,3,,,,1015.3,,TRUE,TRUE,,,,,,,,,,,,,,,,0.1,,,,,,,,,,,METAR,1269.0
CWVN 070400Z AUTO 32004KT 19/16 RMK AO1 SLP116 T01880158 55002,CWVN,2023-06-07T04:00:00Z,49.07,-107.58,18.8,15.8,320,4,,,,1011.6,,TRUE,TRUE,,,,,,,,,,,,,,,,-0.2,,,,,,,,,,,METAR,792.0
CWVI 070400Z AUTO 04002KT 16/04 RMK AO1 SLP137 T01600044 55001,CWVI,2023-06-07T04:00:00Z,53.52,-112.1,16.0,4.4,40,2,,,,1013.7,,TRUE,TRUE,,,,,,,,,,,,,,,,-0.1,,,,,,,,,,,METAR,640.0
CWVF 070400Z AUTO 30016KT 20/09 RMK AO1 PK WND 30018/0300 T01960090,CWVF,2023-06-07T04:00:00Z,49.1,-123.3,19.6,9.0,300,16,,,,,,TRUE,TRUE,,,,,,,,,,,,,,,,,,,,,,,,,,,METAR,13.0
CWUX 070400Z AUTO 35006KT 10/07 RMK AO1 2PAST HR 8007 SLP035 P0001 T01010067 50018,CWUX,2023-06-07T04:00:00Z,48.3,-70.93,10.1,6.7,350,6,,,,1003.5,,TRUE,TRUE,,,,,,,,,,,,,,,,1.8,,,,,0.01,,,,,,METAR,150.0
CWUW 070400Z AUTO 22009KT ////SM ////// M04/M05 A3010,CWUW,2023-06-07T04:00:00Z,68.62,-71.12,-4.0,-5.0,220,9,,,30.100393,,,TRUE,,,,,,,,,,,,,,,,,,,,,,,,,,,,METAR,173.0
CWUS 070400Z AUTO 27002KT 22/M03 RMK AO1 SLP093 T02161028 55004,CWUS,2023-06-07T04:00:00Z,49.57,-119.65,21.6,-2.8,270,2,,,,1009.3,,TRUE,TRUE,,,,,,,,,,,,,,,,-0.4,,,,,,,,,,,METAR,455.0
CWTY 070400Z AUTO 32006KT 13/09 RMK AO1 SLP022 T01280090 58007,CWTY,2023-06-07T04:00:00Z,46.35,-72.52,12.8,9.0,320,6,,,,1002.2,,TRUE,TRUE,,,,,,,,,,,,,,,,-0.7,,,,,,,,,,,METAR,8.0
CWTT 070400Z AUTO 35003KT 09/08 RMK AO1 T00920079,CWTT,2023-06-07T04:00:00Z,45.27,-72.17,9.2,7.9,350,3,,,,,,TRUE,TRUE,,,,,,,,,,,,,,,,,,,,,,,,,,,METAR,210.0
CWTN 070400Z AUTO 26001KT 10/10 RMK AO1 7010 SLP000 T00990099 50007,CWTN,2023-06-07T04:00:00Z,47.07,-70.78,9.9,9.9,260,1,,,,1000.0,,TRUE,TRUE,,,,,,,,,,,,,,,,0.7,,,,,,,,,,,METAR,5.0
CWTG 070400Z AUTO 03015G27KT 09/08 RMK AO1 6PAST HR 8010 PK WND 03028/0326 SLP000 P0002 T00900081 50021,CWTG,2023-06-07T04:00:00Z,49.32,-67.37,9.0,8.1,30,15,27,,,1000.0,,TRUE,TRUE,,,,,,,,,,,,,,,,2.1,,,,,0.02,,,,,,METAR,6.0
CWTA 070400Z AUTO 34006KT 15/08 RMK AO1 SLP034 T01470075 58005,CWTA,2023-06-07T04:00:00Z,45.5,-73.58,14.7,7.5,340,6,,,,1003.4,,TRUE,TRUE,,,,,,,,,,,,,,,,-0.5,,,,,,,,,,,METAR,71.0
CWST 070400Z AUTO 04008G15KT 10/08 RMK AO1 8008 SLP994 T01000084 50011,CWST,2023-06-07T04:00:00Z,47.35,-70.02,10.0,8.4,40,8,15,,,999.4,,TRUE,TRUE,,,,,,,,,,,,,,,,1.1,,,,,,,,,,,METAR,31.0
CWSS 070400Z AUTO 34003KT 09/08 RMK AO1 1003 SLP937 T00890075 50002,CWSS,2023-06-07T04:00:00Z,45.2,-67.25,8.9,7.5,340,3,,,,993.7,,TRUE,TRUE,,,,,,,,,,,,,,,,0.2,,,,,,,,,,,METAR,27.0
CWSR 070400Z AUTO 22002KT 13/10 RMK AO1 SLP148 T01330101 53002,CWSR,2023-06-07T04:00:00Z,53.37,-107.55,13.3,10.1,220,2,,,,1014.8,,TRUE,TRUE,,,,,,,,,,,,,,,,0.2,,,,,,,,,,,METAR,589.0
CWSP 070400Z AUTO 29003KT 15/06 RMK AO1 SLP093 T01510055 56010,CWSP,2023-06-07T04:00:00Z,48.38,-123.92,15.1,5.5,290,3,,,,1009.3,,TRUE,TRUE,,,,,,,,,,,,,,,,-1.0,,,,,,,,,,,METAR,2.0
CWSL 070400Z AUTO 17002KT 18/02 RMK AO1 SLP104 T01780019 55005,CWSL,2023-06-07T04:00:00Z,50.7,-119.28,17.8,1.9,170,2,,,,1010.4,,TRUE,TRUE,,,,,,,,,,,,,,,,-0.5,,,,,,,,,,,METAR,353.0
CWSK 070400Z AUTO 00000KT 20/08 RMK AO1 SLP085 T01950075 55002,CWSK,2023-06-07T04:00:00Z,49.78,-123.17,19.5,7.5,0,0,,,,1008.5,,TRUE,TRUE,,,,,,,,,,,,,,,,-0.2,,,,,,,,,,,METAR,59.0
CWSG 070400Z AUTO 07010KT 07/06 RMK AO1 0PAST HR 8010 SLP992 P0004 T00650061 50115,CWSG,2023-06-07T04:00:00Z,49.12,-66.65,6.5,6.1,70,10,,,,999.2,,TRUE,TRUE,,,,,,,,,,,,,,,,0.0,,,,,0.04,,,,,,METAR,5.0
CWSF 070400Z AUTO 11011G16KT 07/07 RMK AO1 0PAST HR 7005 SLP995 P0016 T00710067 50214,CWSF,2023-06-07T04:00:00Z,49.25,-65.32,7.1,6.7,110,11,16,,,999.5,,TRUE,TRUE,,,,,,,,,,,,,,,,0.0,,,,,0.16,,,,,,METAR,15.0
CWSD 070400Z AUTO 09003KT 10/10 RMK AO1 2005 SLP916 T00950104 50003,CWSD,2023-06-07T04:00:00Z,46.43,-63.85,9.5,10.4,90,3,,,,991.6,,TRUE,TRUE,,,,,,,,,,,,,,,,0.3,,,,,,,,,,,METAR,12.0
CWSA 070400Z AUTO 18015KT 5SM BR 09/08 A2948 RMK CLD MISG SLP986,CWSA,2023-06-07T04:00:00Z,43.93,-60.0,9.0,8.0,180,15,,5.0,29.480314,998.6,,TRUE,,,,,,,BR,,,,,,,,,,,,,,,,,,,,,METAR,4.0
CWRZ 070400Z AUTO 08024KT 07/07 RMK AO1 PK WND 07029/0340 SLP961 T00700068 52003,CWRZ,2023-06-07T04:00:00Z,48.42,-64.32,7.0,6.8,80,24,,,,996.1,,TRUE,TRUE,,,,,,,,,,,,,,,,0.3,,,,,,,,,,,METAR,16.0
CWRY 070400Z AUTO 09003KT 12/09 RMK AO1 SLP156 T01210093 58003,CWRY,2023-06-07T04:00:00Z,49.12,-112.05,12.1,9.3,90,3,,,,1015.6,,TRUE,TRUE,,,,,,,,,,,,,,,,-0.3,,,,,,,,,,,METAR,1048.0
CWRX 070400Z AUTO ///// ////SM ////// M01/M01 A3014,CWRX,2023-06-07T04:00:00Z,69.07,-79.07,-1.0,-1.0,,,,,30.138779,,,TRUE,,,,,,,,,,,,,,,,,,,,,,,,,,,,METAR,39.0
CWRU 070400Z AUTO 01022G27KT 11/ RMK AO1 PK WND 01027/0359 SLP123 T0112 56016,CWRU,2023-06-07T04:00:00Z,50.12,-127.93,11.2,,10,22,27,,,1012.3,,TRUE,TRUE,,,,,,,,,,,,,,,,-1.6,,,,,,,,,,,METAR,76.0
CWRT 070400Z AUTO 16002KT 15/07 RMK AO1 SLP147 T01470070 53006,CWRT,2023-06-07T04:00:00Z,49.62,-114.47,14.7,7.0,160,2,,,,1014.7,,TRUE,TRUE,,,,,,,,,,,,,,,,0.6,,,,,,,,,,,METAR,1311.0
CWRN 070400Z AUTO 14017KT 08/07 RMK AO1 PK WND 14023/0316 SLP958 T00760074 51008,CWRN,2023-06-07T04:00:00Z,45.35,-60.98,7.6,7.4,140,17,,,,995.8,,TRUE,TRUE,,,,,,,,,,,,,,,,0.8,,,,,,,,,,,METAR,8.0
CWRM 070400Z AUTO 13004KT 16/06 RMK AO1 SLP106 T01590055 57005,CWRM,2023-06-07T04:00:00Z,52.42,-114.92,15.9,5.5,130,4,,,,1010.6,,TRUE,TRUE,,,,,,,,,,,,,,,,-0.5,,,,,,,,,,,METAR,986.0
CWRK 070400Z AUTO 32004KT 11/02 RMK AO1 SLP087 T01090017 50002,CWRK,2023-06-07T04:00:00Z,45.07,-77.87,10.9,1.7,320,4,,,,1008.7,,TRUE,TRUE,,,,,,,,,,,,,,,,0.2,,,,,,,,,,,METAR,328.0
CWRJ 070400Z AUTO 05005KT 18/14 RMK AO1 SLP134 T01800135 51003,CWRJ,2023-06-07T04:00:00Z,51.57,-107.92,18.0,13.5,50,5,,,,1013.4,,TRUE,TRUE,,,,,,,,,,,,,,,,0.3,,,,,,,,,,,METAR,586.0
CWRA 070400Z AUTO 05007KT 05/05 RMK AO1 0002 SLP058 T00450054 50002,CWRA,2023-06-07T04:00:00Z,46.65,-53.07,4.5,5.4,50,7,,,,1005.8,,TRUE,TRUE,,,,,,,,,,,,,,,,0.2,,,,,,,,,,,METAR,4.0
CWQV 070400Z AUTO 28004KT 11/ RMK AO1 T0110,CWQV,2023-06-07T04:00:00Z,48.27,-70.12,11.0,,280,4,,,,,,TRUE,TRUE,,,,,,,,,,,,,,,,,,,,,,,,,,,METAR,4.0
CWQS 070400Z AUTO 33002KT 11/08 RMK AO1 SLP180 T01080076 56011,CWQS,2023-06-07T04:00:00Z,53.32,-132.77,10.8,7.6,330,2,,,,1018.0,,TRUE,TRUE,,,,,,,,,,,,,,,,-1.1,,,,,,,,,,,METAR,10.0
CWQR 070400Z AUTO 05026KT 09/07 RMK AO1 PK WND 05032/0337 T00860071,CWQR,2023-06-07T04:00:00Z,50.22,-64.22,8.6,7.1,50,26,,,,,,TRUE,TRUE,,,,,,,,,,,,,,,,,,,,,,,,,,,METAR,9.0
CWQP 070400Z AUTO 29006KT 12/10 RMK AO1 SLP076 T01240095 58001,CWQP,2023-06-07T04:00:00Z,43.83,-77.15,12.4,9.5,290,6,,,,1007.6,,TRUE,TRUE,,,,,,,,,,,,,,,,-0.1,,,,,,,,,,,METAR,77.0
CWQO 070400Z AUTO 02015G20KT 09/07 RMK AO1 PK WND 00022/0347 T00860069,CWQO,2023-06-07T04:00:00Z,48.42,-68.9,8.6,6.9,20,15,20,,,,,TRUE,TRUE,,,,,,,,,,,,,,,,,,,,,,,,,,,METAR,7.0
CWQK 070400Z AUTO 27016KT 19/02 RMK AO1 PK WND 26018/0335 SLP088 T01860016 56010,CWQK,2023-06-07T04:00:00Z,48.3,-123.53,18.6,1.6,270,16,,,,1008.8,,TRUE,TRUE,,,,,,,,,,,,,,,,-1.0,,,,,,,,,,,METAR,5.0
CWQH 070400Z AUTO 33009KT 11/10 RMK AO1 3PAST HR 8005 SLP011 P0001 T01100099 50005,CWQH,2023-06-07T04:00:00Z,45.37,-71.82,11.0,9.9,330,9,,,,1001.1,,TRUE,TRUE,,,,,,,,,,,,,,,,0.5,,,,,0.01,,,,,,METAR,181.0
CWPZ 070400Z AUTO 31001KT 17/01 RMK AO1 SLP142 T01680012 55003,CWPZ,2023-06-07T04:00:00Z,54.38,-125.97,16.8,1.2,310,1,,,,1014.2,,TRUE,TRUE,,,,,,,,,,,,,,,,-0.3,,,,,,,,,,,METAR,715.0
CWPR 070400Z AUTO 33007KT 19/M05 RMK AO1 SLP104 T01921046 55000,CWPR,2023-06-07T04:00:00Z,49.47,-120.52,19.2,-4.6,330,7,,,,1010.4,,TRUE,TRUE,,,,,,,,,,,,,,,,0.0,,,,,,,,,,,METAR,703.0
CWPO 070400Z AUTO 18004KT 21/19 RMK AO1 SLP115 T02110193 55000,CWPO,2023-06-07T04:00:00Z,49.2,-98.9,21.1,19.3,180,4,,,,1011.5,,TRUE,TRUE,,,,,,,,,,,,,,,,0.0,,,,,,,,,,,METAR,471.0
CWPK 070400Z AUTO 04003KT 12/03 RMK AO1 SLP071 T01170034 58004,CWPK,2023-06-07T04:00:00Z,47.92,-74.62,11.7,3.4,40,3,,,,1007.1,,TRUE,TRUE,,,,,,,,,,,,,,,,-0.4,,,,,,,,,,,METAR,443.0
CWPE 070400Z AUTO 32003KT 09/08 RMK AO1 SLP930 T00900080 50003,CWPE,2023-06-07T04:00:00Z,45.07,-66.47,9.0,8.0,320,3,,,,993.0,,TRUE,TRUE,,,,,,,,,,,,,,,,0.3,,,,,,,,,,,METAR,9.0
CWPD 070400Z AUTO 05007G15KT 06/05 RMK AO1 SLP997 T00570051 58011,CWPD,2023-06-07T04:00:00Z,47.57,-71.22,5.7,5.1,50,7,15,,,999.7,,TRUE,TRUE,,,,,,,,,,,,,,,,-1.1,,,,,,,,,,,METAR,795.0
CWOY 070400Z AUTO 09005KT 22/17 RMK AO1 SLP107 T02200173 55001,CWOY,2023-06-07T04:00:00Z,51.77,-104.2,22.0,17.3,90,5,,,,1010.7,,TRUE,TRUE,,,,,,,,,,,,,,,,-0.1,,,,,,,,,,,METAR,557.0
CWOE 070400Z AUTO 26006KT 16/11 RMK AO1 SLP142 T01620110 53001,CWOE,2023-06-07T04:00:00Z,49.12,-110.47,16.2,11.0,260,6,,,,1014.2,,TRUE,TRUE,,,,,,,,,,,,,,,,0.1,,,,,,,,,,,METAR,931.0
CWOD 070400Z AUTO 01010G16KT 11/07 RMK AO1 8010 SLP063 T01110067 50004,CWOD,2023-06-07T04:00:00Z,48.85,-72.55,11.1,6.7,10,10,16,,,1006.3,,TRUE,TRUE,,,,,,,,,,,,,,,,0.4,,,,,,,,,,,METAR,150.0
CWOC 070400Z AUTO 05007KT 07/07 RMK AO1 5PAST HR 8004 SLP944 P0002 T00730066 50018,CWOC,2023-06-07T04:00:00Z,48.02,-65.32,7.3,6.6,50,7,,,,994.4,,TRUE,TRUE,,,,,,,,,,,,,,,,1.8,,,,,0.02,,,,,,METAR,42.0
CWOB 070400Z AUTO 02002KT ////SM ////// ///// A3022,CWOB,2023-06-07T04:00:00Z,63.33,-64.15,,,20,2,,,30.221457,,,TRUE,,,,,,,,,,,,,,,,,,,,,,,,,,,,METAR,369.0
CWNZ 070400Z AUTO 02002KT 09/01 RMK AO1 SLP202 T00860014 51010,CWNZ,2023-06-07T04:00:00Z,49.75,-84.17,8.6,1.4,20,2,,,,1020.2,,TRUE,TRUE,,,,,,,,,,,,,,,,1.0,,,,,,,,,,,METAR,261.0
CWNQ 070400Z AUTO 35005KT 13/09 RMK AO1 SLP022 T01270087 58006,CWNQ,2023-06-07T04:00:00Z,46.22,-72.65,12.7,8.7,350,5,,,,1002.2,,TRUE,TRUE,,,,,,,,,,,,,,,,-0.6,,,,,,,,,,,METAR,9.0
CWNP 070400Z AUTO 06002KT 17/04 RMK AO1 SLP087 T01710041 55002,CWNP,2023-06-07T04:00:00Z,50.27,-117.82,17.1,4.1,60,2,,,,1008.7,,TRUE,TRUE,,,,,,,,,,,,,,,,-0.2,,,,,,,,,,,METAR,517.0
CWNM 070400Z AUTO 19007KT 21/04 RMK AO1 SLP085 T02090036 53004,CWNM,2023-06-07T04:00:00Z,49.5,-117.3,20.9,3.6,190,7,,,,1008.5,,TRUE,TRUE,,,,,,,,,,,,,,,,0.4,,,,,,,,,,,METAR,533.0
CWNK 070400Z AUTO 14004KT 24/18 RMK AO1 SLP100 T02440175 56001,CWNK,2023-06-07T04:00:00Z,49.5,-98.03,24.4,17.5,140,4,,,,1010.0,,TRUE,TRUE,,,,,,,,,,,,,,,,-0.1,,,,,,,,,,,METAR,271.0
CWNH 070400Z AUTO 01014G24KT 08/08 RMK AO1 9PAST HR 7009 PK WND 35026/0313 SLP999 P0007 T00800080 50028,CWNH,2023-06-07T04:00:00Z,47.8,-69.53,8.0,8.0,10,14,24,,,999.9,,TRUE,TRUE,,,,,,,,,,,,,,,,2.8,,,,,0.07,,,,,,METAR,147.0
CWNE 070400Z AUTO 08015KT 07/07 RMK AO1 2005 PK WND 07020/0310 SLP920 T00710071 50002,CWNE,2023-06-07T04:00:00Z,47.07,-64.0,7.1,7.1,80,15,,,,992.0,,TRUE,TRUE,,,,,,,,,,,,,,,,0.2,,,,,,,,,,,METAR,5.0
CWND 070400Z AUTO 04010KT 02/01 RMK AO1 SLP116 T00210005 57010,CWND,2023-06-07T04:00:00Z,69.63,-135.43,2.1,0.5,40,10,,,,1011.6,,TRUE,TRUE,,,,,,,,,,,,,,,,-1.0,,,,,,,,,,,METAR,14.0
CWNC 070400Z AUTO 36003KT 12/04 RMK AO1 SLP079 T01230043 50005,CWNC,2023-06-07T04:00:00Z,43.95,-78.17,12.3,4.3,360,3,,,,1007.9,,TRUE,TRUE,,,,,,,,,,,,,,,,0.5,,,,,,,,,,,METAR,71.0
CWMT 070400Z AUTO 16010G15KT 11/08 RMK AO1 1PAST HR 7011 SLP976 P0000 T01090075 50003,CWMT,2023-06-07T04:00:00Z,63.13,-117.25,10.9,7.5,160,10,15,,,997.6,,TRUE,TRUE,,,,,,,,,,,,,,,,0.3,,,,,0.005,,,,,,METAR,274.0
CWMQ 070400Z AUTO 00000KT 18/15 RMK AO1 SLP139 T01780150 51001,CWMQ,2023-06-07T04:00:00Z,49.9,-109.47,17.8,15.0,0,0,,,,1013.9,,TRUE,TRUE,,,,,,,,,,,,,,,,0.1,,,,,,,,,,,METAR,767.0
CWMM 070400Z AUTO 26003KT 24/04 RMK AO1 SLP083 T02420035 56010,CWMM,2023-06-07T04:00:00Z,49.22,-122.68,24.2,3.5,260,3,,,,1008.3,,TRUE,TRUE,,,,,,,,,,,,,,,,-1.0,,,,,,,,,,,METAR,2.0
CWMJ 070400Z AUTO 34007KT 12/02 RMK AO1 SLP069 T01150020 58002,CWMJ,2023-06-07T04:00:00Z,46.27,-76.0,11.5,2.0,340,7,,,,1006.9,,TRUE,TRUE,,,,,,,,,,,,,,,,-0.2,,,,,,,,,,,METAR,198.0
CWME 070400Z AUTO 22008KT 19/08 RMK AO1 SLP133 T01880083 56007,CWME,2023-06-07T04:00:00Z,52.18,-127.47,18.8,8.3,220,8,,,,1013.3,,TRUE,TRUE,,,,,,,,,,,,,,,,-0.7,,,,,,,,,,,METAR,23.0
CWLY 070400Z AUTO 17003KT 110V180 9SM CLR 22/01 A2977 RMK SLP082 DENSITY ALT 1900FT,CWLY,2023-06-07T04:00:00Z,50.22,-121.58,22.0,1.0,170,3,,9.0,29.769686,1008.2,,TRUE,,,,,,,,CLR,,,,,,,,VFR,,,,,,,,,,,,METAR,228.0
CWLX 070400Z AUTO ///// ////SM ////// M03/M05 A3015,CWLX,2023-06-07T04:00:00Z,68.9,-75.15,-3.0,-5.0,,,,,30.15059,,,TRUE,,,,,,,,,,,,,,,,,,,,,,,,,,,,METAR,129.0
CWLS 070400Z AUTO 34002KT 09/02 RMK AO1 SLP115 T00930020 51006,CWLS,2023-06-07T04:00:00Z,43.97,-80.75,9.3,2.0,340,2,,,,1011.5,,TRUE,TRUE,,,,,,,,,,,,,,,,0.6,,,,,,,,,,,METAR,413.0
CWLP 070400Z AUTO 27018KT 11/09 RMK AO1 PK WND 27023/0333 SLP145 T01100094 57015,CWLP,2023-06-07T04:00:00Z,50.93,-127.63,11.0,9.4,270,18,,,,1014.5,,TRUE,TRUE,,,,,,,,,,,,,,,,-1.5,,,,,,,,,,,METAR,15.0
CWLM 070400Z AUTO 26009KT 21/03 RMK AO1 SLP092 T02080030 56011,CWLM,2023-06-07T04:00:00Z,48.42,-123.32,20.8,3.0,260,9,,,,1009.2,,TRUE,TRUE,,,,,,,,,,,,,,,,-1.1,,,,,,,,,,,METAR,62.0
CWLE 070400Z AUTO 01007KT 18/13 RMK AO1 SLP135 T01790134 51009,CWLE,2023-06-07T04:00:00Z,50.95,-107.15,17.9,13.4,10,7,,,,1013.5,,TRUE,TRUE,,,,,,,,,,,,,,,,0.9,,,,,,,,,,,METAR,666.0
CWLC 070400Z AUTO 32004KT 12/10 RMK AO1 T01230101,CWLC,2023-06-07T04:00:00Z,54.3,-130.62,12.3,10.1,320,4,,,,,,TRUE,TRUE,,,,,,,,,,,,,,,,,,,,,,,,,,,METAR,27.0
CWLB 070400Z AUTO 00000KT 15/10 RMK AO1 SLP136 T01530099 55002,CWLB,2023-06-07T04:00:00Z,54.77,-112.02,15.3,9.9,0,0,,,,1013.6,,TRUE,TRUE,,,,,,,,,,,,,,,,-0.2,,,,,,,,,,,METAR,561.0
CWKX 070400Z AUTO 35001KT 06/05 RMK AO1 SLP175 T00560051 57009,CWKX,2023-06-07T04:00:00Z,58.43,-130.02,5.6,5.1,350,1,,,,1017.5,,TRUE,TRUE,,,,,,,,,,,,,,,,-0.9,,,,,,,,,,,METAR,807.0
CWKO 070400Z AUTO 35005KT 18/11 RMK AO1 SLP125 T01820112 53002,CWKO,2023-06-07T04:00:00Z,49.17,-105.97,18.2,11.2,350,5,,,,1012.5,,TRUE,TRUE,,,,,,,,,,,,,,,,0.2,,,,,,,,,,,METAR,914.0
CWKM 070400Z AUTO 06002KT 040V100 ////SM FEW080 FEW090 02/01 A2999,CWKM,2023-06-07T04:00:00Z,69.6,-140.17,2.0,1.0,60,2,,,29.991142,,,TRUE,,,,,,,,FEW,8000,FEW,9000,,,,,,,,,,,,,,,,,METAR,8.0
CWKH 070400Z AUTO 21/M01 RMK AO1 SLP090 T02051011 56009,CWKH,2023-06-07T04:00:00Z,48.57,-123.55,20.5,-1.1,,,,,,1009.0,,TRUE,TRUE,,,,,,,,,,,,,,,,-0.9,,,,,,,,,,,METAR,327.0
CWKG 070400Z AUTO 26003KT 09/09 RMK AO1 SLP928 T00910088 51007,CWKG,2023-06-07T04:00:00Z,44.43,-65.2,9.1,8.8,260,3,,,,992.8,,TRUE,TRUE,,,,,,,,,,,,,,,,0.7,,,,,,,,,,,METAR,154.0
CWKD 070400Z AUTO 09/06 RMK AO1 SLP096 T00860057 58010,CWKD,2023-06-07T04:00:00Z,50.73,-71.02,8.6,5.7,,,,,,1009.6,,TRUE,TRUE,,,,,,,,,,,,,,,,-1.0,,,,,,,,,,,METAR,496.0
CWJX 070400Z AUTO 02007KT 17/10 RMK AO1 SLP139 T01690097 53003,CWJX,2023-06-07T04:00:00Z,50.88,-109.5,16.9,9.7,20,7,,,,1013.9,,TRUE,TRUE,,,,,,,,,,,,,,,,0.3,,,,,,,,,,,METAR,671.0
CWJW 070400Z AUTO 09003KT 13/M04 RMK AO1 2PAST HR 8002 SLP124 P0001 T01331042 50002,CWJW,2023-06-07T04:00:00Z,52.93,-118.03,13.3,-4.2,90,3,,,,1012.4,,TRUE,TRUE,,,,,,,,,,,,,,,,0.2,,,,,0.01,,,,,,METAR,1022.0
CWJV 070400Z AUTO 07002KT 21/02 RMK AO1 SLP099 T02070019 55005,CWJV,2023-06-07T04:00:00Z,50.22,-119.18,20.7,1.9,70,2,,,,1009.9,,TRUE,TRUE,,,,,,,,,,,,,,,,-0.5,,,,,,,,,,,METAR,487.0
CWJU 070400Z AUTO 10002KT 11/07 RMK AO1 SLP184 T01120074 56014,CWJU,2023-06-07T04:00:00Z,54.25,-133.07,11.2,7.4,100,2,,,,1018.4,,TRUE,TRUE,,,,,,,,,,,,,,,,-1.4,,,,,,,,,,,METAR,47.0
CWJR 070400Z AUTO 36001KT 21/06 RMK AO1 SLP084 T02090055 53002,CWJR,2023-06-07T04:00:00Z,49.03,-116.5,20.9,5.5,360,1,,,,1008.4,,TRUE,TRUE,,,,,,,,,,,,,,,,0.2,,,,,,,,,,,METAR,642.0
CWJI 070400Z AUTO 34004KT 20/16 RMK AO1 SLP114 T02010156 51006,CWJI,2023-06-07T04:00:00Z,49.72,-105.93,20.1,15.6,340,4,,,,1011.4,,TRUE,TRUE,,,,,,,,,,,,,,,,0.6,,,,,,,,,,,METAR,724.0
CWJH 070400Z AUTO 00000KT 19/16 RMK AO1 SLP108 T01910155 53004,CWJH,2023-06-07T04:00:00Z,56.32,-103.27,19.1,15.5,0,0,,,,1010.8,,TRUE,TRUE,,,,,,,,,,,,,,,,0.4,,,,,,,,,,,METAR,345.0
CWJD 070400Z AUTO 21003KT 19/18 RMK AO1 6007 SLP092 T01860181 50094,CWJD,2023-06-07T04:00:00Z,53.18,-99.27,18.6,18.1,210,3,,,,1009.2,,TRUE,TRUE,,,,,,,,,,,,,,,,9.4,,,,,,,,,,,METAR,222.0
CWJC 070400Z AUTO 15009KT 14/14 RMK AO1 SLP098 T01430139 58002,CWJC,2023-06-07T04:00:00Z,61.13,-100.9,14.3,13.9,150,9,,,,1009.8,,TRUE,TRUE,,,,,,,,,,,,,,,,-0.2,,,,,,,,,,,METAR,340.0
CWJB 070400Z AUTO 12/08 RMK AO1 T01210078,CWJB,2023-06-07T04:00:00Z,46.78,-71.28,12.1,7.8,,,,,,,,TRUE,TRUE,,,,,,,,,,,,,,,,,,,,,,,,,,,METAR,90.0
CWIZ 070400Z AUTO 36004KT 13/10 RMK AO1 T01250095 50004,CWIZ,2023-06-07T04:00:00Z,45.28,-73.33,12.5,9.5,360,4,,,,,,TRUE,TRUE,,,,,,,,,,,,,,,,0.4,,,,,,,,,,,METAR,45.0
CWIW 070400Z AUTO 34008KT 20/15 RMK AO1 SLP124 T02010150 51013,CWIW,2023-06-07T04:00:00Z,51.67,-105.4,20.1,15.0,340,8,,,,1012.4,,TRUE,TRUE,,,,,,,,,,,,,,,,1.3,,,,,,,,,,,METAR,524.0
CWIT 070400Z AUTO 27004KT 12/10 RMK AO1 8006 SLP033 T01180100 50003,CWIT,2023-06-07T04:00:00Z,45.17,-73.67,11.8,10.0,270,4,,,,1003.3,,TRUE,TRUE,,,,,,,,,,,,,,,,0.3,,,,,,,,,,,METAR,53.0
CWIS 070400Z AUTO 03010G15KT 06/05 RMK AO1 9PAST HR 8011 PK WND 04017/0347 SLP006 P0004 T00600052 50036,CWIS,2023-06-07T04:00:00Z,47.28,-70.63,6.0,5.2,30,10,15,,,1000.6,,TRUE,TRUE,,,,,,,,,,,,,,,,3.6,,,,,0.04,,,,,,METAR,720.0
CWIP 070400Z AUTO 01013G19KT 09/07 RMK AO1 2PAST HR M PK WND 02020/0338 P0001 T00850071 50006,CWIP,2023-06-07T04:00:00Z,50.17,-66.43,8.5,7.1,10,13,19,,,,,TRUE,TRUE,,,,,,,,,,,,,,,,0.6,,,,,0.01,,,,,,METAR,27.0
CWIL 070400Z AUTO ///// ////SM OVC060 06/03 A2983,CWIL,2023-06-07T04:00:00Z,68.32,-100.07,6.0,3.0,,,,,29.828741,,,TRUE,,,,,,,,OVC,6000,,,,,,,,,,,,,,,,,,,METAR,28.0
CWIK 070400Z AUTO 08004KT 23/16 RMK AO1 SLP101 T02260155 53004,CWIK,2023-06-07T04:00:00Z,50.37,-102.58,22.6,15.5,80,4,,,,1010.1,,TRUE,TRUE,,,,,,,,,,,,,,,,0.4,,,,,,,,,,,METAR,597.0
CWIJ 070400Z AUTO 07/ RMK AO1 T0072,CWIJ,2023-06-07T04:00:00Z,65.77,-111.23,7.2,,,,,,,,,TRUE,TRUE,,,,,,,,,,,,,,,,,,,,,,,,,,,METAR,490.0
CWII 070400Z AUTO 15011KT 23/19 RMK AO1 PK WND 11023/0300 SLP105 T02290189 50005,CWII,2023-06-07T04:00:00Z,50.7,-96.57,22.9,18.9,150,11,,,,1010.5,,TRUE,TRUE,,,,,,,,,,,,,,,,0.5,,,,,,,,,,,METAR,216.0
CWIG 070400Z AUTO 02018G27KT RMK AO1 PK WND 01030/0304,CWIG,2023-06-07T04:00:00Z,47.07,-70.53,,,20,18,27,,,,,TRUE,TRUE,,,,,,,,,,,,,,,,,,,,,,,,,,,METAR,12.0
CWID 070400Z AUTO 35004KT 14/06 RMK AO1 SLP004 T01420057 55005,CWID,2023-06-07T04:00:00Z,61.32,-117.6,14.2,5.7,350,4,,,,1000.4,,TRUE,TRUE,,,,,,,,,,,,,,,,-0.5,,,,,,,,,,,METAR,160.0
CWHV 070400Z AUTO 33004KT 10/09 RMK AO1 5PAST HR 6010 SLP994 P0002 T00960089 50013,CWHV,2023-06-07T04:00:00Z,46.2,-70.78,9.6,8.9,330,4,,,,999.4,,TRUE,TRUE,,,,,,,,,,,,,,,,1.3,,,,,0.02,,,,,,METAR,227.0
CWHT 070400Z AUTO 27008KT 14/01 RMK AO1 PK WND 28018/0341 SLP118 T01420008 53002,CWHT,2023-06-07T04:00:00Z,60.77,-137.58,14.2,0.8,270,8,,,,1011.8,,TRUE,TRUE,,,,,,,,,,,,,,,,0.2,,,,,,,,,,,METAR,601.0
CWHQ 070400Z AUTO 32004KT 11/09 RMK AO1 7PAST HR M P0003 T01050086 50017,CWHQ,2023-06-07T04:00:00Z,46.68,-71.97,10.5,8.6,320,4,,,,,,TRUE,TRUE,,,,,,,,,,,,,,,,1.7,,,,,0.03,,,,,,METAR,56.0
CWHP 070400Z AUTO 06021KT 05/05 RMK AO1 PK WND 05026/0310 SLP995 T00530049 53008,CWHP,2023-06-07T04:00:00Z,49.08,-61.7,5.3,4.9,60,21,,,,999.5,,TRUE,TRUE,,,,,,,,,,,,,,,,0.8,,,,,,,,,,,METAR,7.0
CWHO 070400Z AUTO 00000KT 01/01 RMK AO1 SLP247 T00100007 56001,CWHO,2023-06-07T04:00:00Z,55.45,-60.22,1.0,0.7,0,0,,,,1024.7,,TRUE,TRUE,,,,,,,,,,,,,,,,-0.1,,,,,,,,,,,METAR,16.0
CWHL 070400Z AUTO 28008KT 11/10 RMK AO1 SLP160 T01100096 56010,CWHL,2023-06-07T04:00:00Z,54.17,-130.35,11.0,9.6,280,8,,,,1016.0,,TRUE,TRUE,,,,,,,,,,,,,,,,-1.0,,,,,,,,,,,METAR,5.0
CWHI 070400Z AUTO 16009KT 15/03 RMK AO1 T01490033,CWHI,2023-06-07T04:00:00Z,51.7,-113.22,14.9,3.3,160,9,,,,,,TRUE,TRUE,,,,,,,,,,,,,,,,,,,,,,,,,,,METAR,906.0
CWGY 070400Z AUTO 10003KT 13/06 RMK AO1 SLP152 T01330058 52004,CWGY,2023-06-07T04:00:00Z,51.67,-110.2,13.3,5.8,100,3,,,,1015.2,,TRUE,TRUE,,,,,,,,,,,,,,,,0.4,,,,,,,,,,,METAR,709.0
CWGW 070400Z AUTO 12010G15KT 20/05 RMK AO1 PK WND 14018/0305 SLP113 T01960049 53007,CWGW,2023-06-07T04:00:00Z,49.75,-114.9,19.6,4.9,120,10,15,,,1011.3,,TRUE,TRUE,,,,,,,,,,,,,,,,0.7,,,,,,,,,,,METAR,1137.0
CWGR 070400Z AUTO 10017G22KT 07/06 RMK AO1 PK WND 10022/0322 SLP956 T00700055 51009,CWGR,2023-06-07T04:00:00Z,47.42,-61.77,7.0,5.5,100,17,22,,,995.6,,TRUE,TRUE,,,,,,,,,,,,,,,,0.9,,,,,,,,,,,METAR,4.0
CWGM 070400Z AUTO 00000KT 12/09 RMK AO1 SLP148 T01220094 55003,CWGM,2023-06-07T04:00:00Z,49.13,-113.8,12.2,9.4,0,0,,,,1014.8,,TRUE,TRUE,,,,,,,,,,,,,,,,-0.3,,,,,,,,,,,METAR,1292.0
CWGL 070400Z AUTO 34008KT 15/04 RMK AO1 SLP083 T01460035 50003,CWGL,2023-06-07T04:00:00Z,44.53,-79.22,14.6,3.5,340,8,,,,1008.3,,TRUE,TRUE,,,,,,,,,,,,,,,,0.3,,,,,,,,,,,METAR,220.0
CWGH 070400Z AUTO 00000KT 12/10 RMK AO1 SLP057 T01190102 58002,CWGH,2023-06-07T04:00:00Z,44.42,-75.85,11.9,10.2,0,0,,,,1005.7,,TRUE,TRUE,,,,,,,,,,,,,,,,-0.2,,,,,,,,,,,METAR,76.0
CWGD 070400Z AUTO 36004KT 10/07 RMK AO1 SLP121 T00960066 51004,CWGD,2023-06-07T04:00:00Z,43.77,-81.72,9.6,6.6,360,4,,,,1012.1,,TRUE,TRUE,,,,,,,,,,,,,,,,0.4,,,,,,,,,,,METAR,214.0
CWGB 070400Z AUTO 28012KT 19/ RMK AO1 SLP086 T0192 56014,CWGB,2023-06-07T04:00:00Z,49.35,-124.13,19.2,,280,12,,,,1008.6,,TRUE,TRUE,,,,,,,,,,,,,,,,-1.4,,,,,,,,,,,METAR,6.0
CWFQ 070400Z AUTO 34006KT 11/10 RMK AO1 8004 SLP026 T01080095 50006,CWFQ,2023-06-07T04:00:00Z,45.03,-72.85,10.8,9.5,340,6,,,,1002.6,,TRUE,TRUE,,,,,,,,,,,,,,,,0.6,,,,,,,,,,,METAR,190.0
CWFJ 070400Z AUTO 15003KT 15/09 RMK AO1 T01460090,CWFJ,2023-06-07T04:00:00Z,49.2,-113.27,14.6,9.0,150,3,,,,,,TRUE,TRUE,,,,,,,,,,,,,,,,,,,,,,,,,,,METAR,1142.0
CWFF 070400Z AUTO 31005KT 21/15 RMK AO1 SLP118 T02090150 53009,CWFF,2023-06-07T04:00:00Z,52.82,-104.6,20.9,15.0,310,5,,,,1011.8,,TRUE,TRUE,,,,,,,,,,,,,,,,0.9,,,,,,,,,,,METAR,482.0
CWEZ 070400Z AUTO 33002KT 22/03 RMK AO1 SLP079 T02160029 56014,CWEZ,2023-06-07T04:00:00Z,48.78,-123.05,21.6,2.9,330,2,,,,1007.9,,TRUE,TRUE,,,,,,,,,,,,,,,,-1.4,,,,,,,,,,,METAR,23.0
CWEW 070400Z AUTO 36006KT 13/08 RMK AO1 SLP040 T01340083 57003,CWEW,2023-06-07T04:00:00Z,45.82,-73.43,13.4,8.3,360,6,,,,1004.0,,TRUE,TRUE,,,,,,,,,,,,,,,,-0.3,,,,,,,,,,,METAR,17.0
CWER 070400Z AUTO 02010KT RMK AO1 PK WND 02020/0346,CWER,2023-06-07T04:00:00Z,47.0,-70.82,,,20,10,,,,,,TRUE,TRUE,,,,,,,,,,,,,,,,,,,,,,,,,,,METAR,4.0
CWEQ 070400Z AUTO 22009KT 20/18 RMK AO1 3PAST HR 3019 SLP118 P0001 T01950178 50008,CWEQ,2023-06-07T04:00:00Z,52.12,-101.22,19.5,17.8,220,9,,,,1011.8,,TRUE,TRUE,,,,,,,,,,,,,,,,0.8,,,,,0.01,,,,,,METAR,331.0
CWEP 070400Z AUTO 11012KT 08/08 RMK AO1 6PAST HR 1007 PK WND 11017/0301 SLP943 P0002 T00820075 50008,CWEP,2023-06-07T04:00:00Z,46.45,-61.98,8.2,7.5,110,12,,,,994.3,,TRUE,TRUE,,,,,,,,,,,,,,,,0.8,,,,,0.02,,,,,,METAR,9.0
CWEL 070400Z AUTO 25010KT 20/11 RMK AO1 PK WND 30018/0305 SLP084 T02000110 58015,CWEL,2023-06-07T04:00:00Z,49.22,-123.8,20.0,11.0,250,10,,,,1008.4,,TRUE,TRUE,,,,,,,,,,,,,,,,-1.5,,,,,,,,,,,METAR,0.0
CWEH 070400Z AUTO 02007KT 17/13 RMK AO1 SLP139 T01680134 58001,CWEH,2023-06-07T04:00:00Z,49.43,-108.98,16.8,13.4,20,7,,,,1013.9,,TRUE,TRUE,,,,,,,,,,,,,,,,-0.1,,,,,,,,,,,METAR,1077.0
CWEF 070400Z AUTO 14024KT 06/06 RMK AO1 PK WND 14028/0356 SLP975 T00600059 51014,CWEF,2023-06-07T04:00:00Z,47.22,-60.13,6.0,5.9,140,24,,,,997.5,,TRUE,TRUE,,,,,,,,,,,,,,,,1.4,,,,,,,,,,,METAR,27.0
CWEE 070400Z AUTO 12/04 RMK AO1 SLP066 T01190041 58007,CWEE,2023-06-07T04:00:00Z,49.27,-73.35,11.9,4.1,,,,,,1006.6,,TRUE,TRUE,,,,,,,,,,,,,,,,-0.7,,,,,,,,,,,METAR,302.0
CWEB 070400Z AUTO 00032KT 13/09 RMK AO1 SLP104 T01320094 57017,CWEB,2023-06-07T04:00:00Z,49.38,-126.55,13.2,9.4,0,32,,,,1010.4,,TRUE,TRUE,,,,,,,,,,,,,,,,-1.7,,,,,,,,,,,METAR,1.0
CWDZ 070400Z AUTO 14003KT 19/05 RMK AO1 SLP134 T01900053 53001,CWDZ,2023-06-07T04:00:00Z,51.43,-112.67,19.0,5.3,140,3,,,,1013.4,,TRUE,TRUE,,,,,,,,,,,,,,,,0.1,,,,,,,,,,,METAR,689.0
CWDV 070400Z AUTO 00000KT 10/07 RMK AO1 SLP194 T00980074 52011,CWDV,2023-06-07T04:00:00Z,49.02,-90.47,9.8,7.4,0,0,,,,1019.4,,TRUE,TRUE,,,,,,,,,,,,,,,,1.1,,,,,,,,,,,METAR,487.0
CWDQ 070400Z AUTO 35012G19KT 12/06 RMK AO1 PK WND 33020/0332 SLP040 T01160055 58009,CWDQ,2023-06-07T04:00:00Z,47.42,-72.78,11.6,5.5,350,12,19,,,1004.0,,TRUE,TRUE,,,,,,,,,,,,,,,,-0.9,,,,,,,,,,,METAR,174.0
CWDO 070400Z AUTO 10013G20KT 06/06 RMK AO1 2PAST HR 6008 PK WND 09028/0311 SLP066 P0005 T00560056 50044,CWDO,2023-06-07T04:00:00Z,49.68,-54.78,5.6,5.6,100,13,20,,,1006.6,,TRUE,TRUE,,,,,,,,,,,,,,,,4.4,,,,,0.05,,,,,,METAR,89.0
CWDM 070400Z AUTO 06017G26KT 04/04 RMK AO1 6002 PK WND 06032/0341 SLP059 T00440039 50076,CWDM,2023-06-07T04:00:00Z,50.47,-59.63,4.4,3.9,60,17,26,,,1005.9,,TRUE,TRUE,,,,,,,,,,,,,,,,7.6,,,,,,,,,,,METAR,2.0
CWDK 070400Z AUTO 12007KT 14/07 RMK AO1 SLP147 T01440072 55000,CWDK,2023-06-07T04:00:00Z,50.02,-113.62,14.4,7.2,120,7,,,,1014.7,,TRUE,TRUE,,,,,,,,,,,,,,,,0.0,,,,,,,,,,,METAR,1014.0
CWDJ 070400Z AUTO 35007KT 20/15 RMK AO1 SLP106 T02020150 53009,CWDJ,2023-06-07T04:00:00Z,50.4,-104.58,20.2,15.0,350,7,,,,1010.6,,TRUE,TRUE,,,,,,,,,,,,,,,,0.9,,,,,,,,,,,METAR,576.0
CWDC 070400Z AUTO 00000KT 13/06 RMK AO1 SLP102 T01310064 51002,CWDC,2023-06-07T04:00:00Z,59.57,-108.48,13.1,6.4,0,0,,,,1010.2,,TRUE,TRUE,,,,,,,,,,,,,,,,0.2,,,,,,,,,,,METAR,311.0
CWDA 070400Z AUTO 00006KT 04/ RMK AO1 T0042,CWDA,2023-06-07T04:00:00Z,50.72,-56.12,4.2,,0,6,,,,,,TRUE,TRUE,,,,,,,,,,,,,,,,,,,,,,,,,,,METAR,30.0
CWCT 070400Z AUTO 15004KT 12/05 RMK AO1 SLP160 T01190053 55001,CWCT,2023-06-07T04:00:00Z,52.07,-111.43,11.9,5.3,150,4,,,,1016.0,,TRUE,TRUE,,,,,,,,,,,,,,,,-0.1,,,,,,,,,,,METAR,793.0
CWCO 070400Z AUTO 36008KT 16/07 RMK AO1 SLP106 T01580073 50000,CWCO,2023-06-07T04:00:00Z,44.5,-80.22,15.8,7.3,360,8,,,,1010.6,,TRUE,TRUE,,,,,,,,,,,,,,,,0.0,,,,,,,,,,,METAR,182.0
CWCJ 070400Z AUTO 07003KT 11/04 RMK AO1 SLP186 T01120037 53013,CWCJ,2023-06-07T04:00:00Z,48.6,-86.28,11.2,3.7,70,3,,,,1018.6,,TRUE,TRUE,,,,,,,,,,,,,,,,1.3,,,,,,,,,,,METAR,207.0
CWCF 070400Z AUTO 08004KT 20/19 RMK AO1 5PAST HR 0017 SLP124 P0053 T01990192 50135,CWCF,2023-06-07T04:00:00Z,52.35,-97.03,19.9,19.2,80,4,,,,1012.4,,TRUE,TRUE,,,,,,,,,,,,,,,,0.0,,,,,0.53,,,,,,METAR,219.0
CWBZ 070400Z AUTO 25004KT 11/11 RMK AO1 8006 SLP040 T01140108 50054,CWBZ,2023-06-07T04:00:00Z,45.12,-74.28,11.4,10.8,250,4,,,,1004.0,,TRUE,TRUE,,,,,,,,,,,,,,,,5.4,,,,,,,,,,,METAR,49.0
CWBY 070400Z AUTO 06019G28KT 09/08 RMK AO1 6005 PK WND 04033/0310 SLP005 T00920084 50036,CWBY,2023-06-07T04:00:00Z,49.83,-64.28,9.2,8.4,60,19,28,,,1000.5,,TRUE,TRUE,,,,,,,,,,,,,,,,3.6,,,,,,,,,,,METAR,56.0
CWBV 070400Z AUTO 19015KT 07/07 RMK AO1 PK WND 19018/0329 SLP917 T00720072 51005,CWBV,2023-06-07T04:00:00Z,44.82,-62.33,7.2,7.2,190,15,,,,991.7,,TRUE,TRUE,,,,,,,,,,,,,,,,0.5,,,,,,,,,,,METAR,16.0
CWBU 070400Z AUTO 35005KT 20/17 RMK AO1 SLP110 T02030172 53009,CWBU,2023-06-07T04:00:00Z,53.33,-104.02,20.3,17.2,350,5,,,,1011.0,,TRUE,TRUE,,,,,,,,,,,,,,,,0.9,,,,,,,,,,,METAR,369.0
CWBT 070400Z AUTO 05008KT 10/09 RMK AO1 PK WND 06019/0318 SLP023 T01010086 50000,CWBT,2023-06-07T04:00:00Z,50.27,-64.23,10.1,8.6,50,8,,,,1002.3,,TRUE,TRUE,,,,,,,,,,,,,,,,0.0,,,,,,,,,,,METAR,12.0
CWBS 070400Z AUTO 34014KT 14/08 RMK AO1 PK WND 34023/0323 T01390084,CWBS,2023-06-07T04:00:00Z,46.18,-72.92,13.9,8.4,340,14,,,,,,TRUE,TRUE,,,,,,,,,,,,,,,,,,,,,,,,,,,METAR,3.0
CWBO 070400Z AUTO 12001KT 15/08 RMK AO1 SLP144 T01540079 56004,CWBO,2023-06-07T04:00:00Z,50.53,-111.83,15.4,7.9,120,1,,,,1014.4,,TRUE,TRUE,,,,,,,,,,,,,,,,-0.4,,,,,,,,,,,METAR,752.0
CWBK 070400Z AUTO 14014KT 10/08 RMK AO1 1007 SLP922 T00960082 50001,CWBK,2023-06-07T04:00:00Z,45.77,-62.67,9.6,8.2,140,14,,,,992.2,,TRUE,TRUE,,,,,,,,,,,,,,,,0.1,,,,,,,,,,,METAR,2.0
CWBA 070400Z AUTO 35004KT 11/04 RMK AO1 T01060036,CWBA,2023-06-07T04:00:00Z,46.72,-79.1,10.6,3.6,350,4,,,,,,TRUE,TRUE,,,,,,,,,,,,,,,,,,,,,,,,,,,METAR,181.0
CWAV 070400Z AUTO 12006KT 17/03 RMK AO1 SLP133 T01670029 53001,CWAV,2023-06-07T04:00:00Z,51.77,-114.67,16.7,2.9,120,6,,,,1013.3,,TRUE,TRUE,,,,,,,,,,,,,,,,0.1,,,,,,,,,,,METAR,1115.0
CWAR 070400Z AUTO 06014KT 09/09 RMK AO1 PK WND 07017/0351 SLP047 T00940090 58004,CWAR,2023-06-07T04:00:00Z,47.28,-54.0,9.4,9.0,60,14,,,,1004.7,,TRUE,TRUE,,,,,,,,,,,,,,,,-0.4,,,,,,,,,,,METAR,6.0
CWAQ 070400Z AUTO 30003KT 18/15 RMK AO1 SLP113 T01810147 53001,CWAQ,2023-06-07T04:00:00Z,49.05,-105.48,18.1,14.7,300,3,,,,1011.3,,TRUE,TRUE,,,,,,,,,,,,,,,,0.1,,,,,,,,,,,METAR,761.0
CWAJ 070400Z AUTO 33011G16KT RMK AO1 51008,CWAJ,2023-06-07T04:00:00Z,42.25,-81.9,,,330,11,16,,,,,TRUE,TRUE,,,,,,,,,,,,,,,,0.8,,,,,,,,,,,METAR,177.0
CWAF 070400Z AUTO 01019KT 09/07 RMK AO1 PK WND 01024/0346 T00870071,CWAF,2023-06-07T04:00:00Z,48.07,-69.55,8.7,7.1,10,19,,,,,,TRUE,TRUE,,,,,,,,,,,,,,,,,,,,,,,,,,,METAR,6.0
CTRA 070400Z AUTO 12003KT 18/14 RMK AO1 SLP156 T01820137 53006,CTRA,2023-06-07T04:00:00Z,49.67,-93.73,18.2,13.7,120,3,,,,1015.6,,TRUE,TRUE,,,,,,,,,,,,,,,,0.6,,,,,,,,,,,METAR,432.0
CTNK 070400Z AUTO 00000KT 06/02 RMK AO1 SLP100 T00570015 50004,CTNK,2023-06-07T04:00:00Z,45.53,-78.27,5.7,1.5,0,0,,,,1010.0,,TRUE,TRUE,,,,,,,,,,,,,,,,0.4,,,,,,,,,,,METAR,405.0
CTCK 070400Z AUTO 21004KT 11/10 RMK AO1 SLP043 T01140102 58006,CTCK,2023-06-07T04:00:00Z,45.25,-74.97,11.4,10.2,210,4,,,,1004.3,,TRUE,TRUE,,,,,,,,,,,,,,,,-0.6,,,,,,,,,,,METAR,84.0
CPSV 070400Z AUTO 29007KT 17/12 RMK AO1 T01660119,CPSV,2023-06-07T04:00:00Z,49.92,-110.92,16.6,11.9,290,7,,,,,,TRUE,TRUE,,,,,,,,,,,,,,,,,,,,,,,,,,,METAR,766.0
CPST 070400Z AUTO 15010KT 16/05 RMK AO1 T01570050,CPST,2023-06-07T04:00:00Z,51.03,-113.28,15.7,5.0,150,10,,,,,,TRUE,TRUE,,,,,,,,,,,,,,,,,,,,,,,,,,,METAR,1005.0
CPRY 070400Z AUTO 13005KT 15/10 RMK AO1 T01540098,CPRY,2023-06-07T04:00:00Z,49.48,-112.68,15.4,9.8,130,5,,,,,,TRUE,TRUE,,,,,,,,,,,,,,,,,,,,,,,,,,,METAR,947.0
CPRO 070400Z AUTO 22002KT 16/10 RMK AO1 T01580097,CPRO,2023-06-07T04:00:00Z,50.83,-112.05,15.8,9.7,220,2,,,,,,TRUE,TRUE,,,,,,,,,,,,,,,,,,,,,,,,,,,METAR,733.0
CPIN 070400Z AUTO 04015KT ////SM ////// ///// A////,CPIN,2023-06-07T04:00:00Z,,,,,40,15,,,,,,TRUE,,,,,,,,,,,,,,,,,,,,,,,,,,,,METAR,
CPFI 070400Z AUTO 22002KT 17/10 RMK AO1 T01710102,CPFI,2023-06-07T04:00:00Z,49.8,-112.03,17.1,10.2,220,2,,,,,,TRUE,TRUE,,,,,,,,,,,,,,,,,,,,,,,,,,,METAR,804.0
CPEH 070400Z AUTO 15/09 RMK AO1 T01540090,CPEH,2023-06-07T04:00:00Z,50.18,-112.43,15.4,9.0,,,,,,,,TRUE,TRUE,,,,,,,,,,,,,,,,,,,,,,,,,,,METAR,814.0
CPBT 070400Z AUTO 12004KT 13/08 RMK AO1 T01320081,CPBT,2023-06-07T04:00:00Z,49.53,-113.05,13.2,8.1,120,4,,,,,,TRUE,TRUE,,,,,,,,,,,,,,,,,,,,,,,,,,,METAR,998.0
CMGB 070400Z AUTO 33003KT 12/10 RMK AO1 2PAST HR 8004 SLP025 P0001 T01210103 50008,CMGB,2023-06-07T04:00:00Z,45.37,-72.77,12.1,10.3,330,3,,,,1002.5,,TRUE,TRUE,,,,,,,,,,,,,,,,0.8,,,,,0.01,,,,,,METAR,87.0
CMFM 070400Z AUTO 36003KT 07/05 RMK AO1 3PAST HR 7012 SLP009 P0001 T00660049 50005,CMFM,2023-06-07T04:00:00Z,47.32,-71.15,6.6,4.9,360,3,,,,1000.9,,TRUE,TRUE,,,,,,,,,,,,,,,,0.5,,,,,0.01,,,,,,METAR,663.0
CERM 070400Z AUTO 35008G15KT 10/07 RMK AO1 PK WND 02017/0342 SLP962 T00950068 58009,CERM,2023-06-07T04:00:00Z,47.42,-68.32,9.5,6.8,350,8,15,,,996.2,,TRUE,TRUE,,,,,,,,,,,,,,,,-0.9,,,,,,,,,,,METAR,151.0
CBBC 070400Z AUTO 00000KT 9SM CLR 17/09 A2995 RMK SLP143 DENSITY ALT 400FT,CBBC,2023-06-07T04:00:00Z,52.18,-128.15,17.0,9.0,0,0,,9.0,29.949802,1014.3,,TRUE,,,,,,,,CLR,,,,,,,,VFR,,,,,,,,,,,,METAR,36.0
CBAR 070400Z AUTO 09019KT ////SM ////// ///// A////,CBAR,2023-06-07T04:00:00Z,,,,,90,19,,,,,,TRUE,,,,,,,,,,,,,,,,,,,,,,,,,,,,METAR,
CAHR 070400Z AUTO 12007KT 09/09 RMK AO1 2009 SLP920 T00920087 50009,CAHR,2023-06-07T04:00:00Z,46.35,-63.17,9.2,8.7,120,7,,,,992.0,,TRUE,TRUE,,,,,,,,,,,,,,,,0.9,,,,,,,,,,,METAR,52.0
BIRK 070400Z 30004KT 270V330 9999 BKN015 05/02 Q1026,BIRK,2023-06-07T04:00:00Z,64.13,-21.93,5.0,2.0,300,4,,6.21,30.295275,,,,,,,,,,,BKN,1500,,,,,,,MVFR,,,,,,,,,,,,METAR,12.0
BIEG 070400Z 36003KT 9999 SCT010 BKN025 BKN040 05/03 Q1024,BIEG,2023-06-07T04:00:00Z,65.27,-14.4,5.0,3.0,360,3,,6.21,30.236221,,,,,,,,,,,SCT,1000,BKN,2500,BKN,4000,,,MVFR,,,,,,,,,,,,METAR,20.0
BIAR 070400Z 19003KT 9999 FEW009 02/01 Q1024,BIAR,2023-06-07T04:00:00Z,65.67,-18.07,2.0,1.0,190,3,,6.21,30.236221,,,,,,,,,,,FEW,900,,,,,,,VFR,,,,,,,,,,,,METAR,1.0
AYPY 070400Z 15015G25KT 9999 HZ FEW020 SCT030 31/26 Q1009 RMK/CB FM N TO E,AYPY,2023-06-07T04:00:00Z,-9.43,147.22,31.0,26.0,150,15,25,6.21,29.793306,,,,,,,,,,HZ,FEW,2000,SCT,3000,,,,,VFR,,,,,,,,,,,,METAR,44.0
AYNZ 070400Z 11010G15KT 9999 HZ SCT050 31/20 Q1009,AYNZ,2023-06-07T04:00:00Z,-6.57,146.72,31.0,20.0,110,10,15,6.21,29.793306,,,,,,,,,,HZ,SCT,5000,,,,,,,VFR,,,,,,,,,,,,METAR,74.0
AYMH 070400Z 26008KT 9999 HZ SCT040 25/15 Q1020,AYMH,2023-06-07T04:00:00Z,-5.83,144.3,25.0,15.0,260,8,,6.21,30.11811,,,,,,,,,,HZ,SCT,4000,,,,,,,VFR,,,,,,,,,,,,METAR,1634.0
ANYN 070400Z 02008KT 9999 FEW020 SCT100 BKN300 30/26 Q1009,ANYN,2023-06-07T04:00:00Z,-0.55,166.92,30.0,26.0,20,8,,6.21,29.793306,,,,,,,,,,,FEW,2000,SCT,10000,BKN,30000,,,VFR,,,,,,,,,,,,METAR,7.0
AGGH 070400Z 05010KT 9999 FEW019TCU FEW020CB 31/26 Q1008 ASSW SH TO ESE,AGGH,2023-06-07T04:00:00Z,-9.42,160.05,31.0,26.0,50,10,,6.21,29.763779,,,,,,,,,,SH,FEW,1900,FEW,2000,,,,,VFR,,,,,,,,,,,,METAR,6.0
RODE 070359Z AUTO A2989 RMK AO2 SLPNO PWINO TSNO $,RODE,2023-06-07T03:59:00Z,26.72,127.77,,,,,,,29.890747,,,TRUE,TRUE,TRUE,,TRUE,,TRUE,,,,,,,,,,,,,,,,,,,,,,METAR,69.0
PKMJ 070359Z 09005KT 15SM FEW045 SCT045 BKN110 OVC300 29/24 A2981 ,PKMJ,2023-06-07T03:59:00Z,7.07,171.27,29.0,24.0,90,5,,15.0,29.811024,,,,,,,,,,,FEW,4500,SCT,4500,BKN,11000,OVC,30000,VFR,,,,,,,,,,,,METAR,2.0
MUCF 070359Z AUTO 12003KT 26/24 Q1014,MUCF,2023-06-07T03:59:00Z,22.15,-80.4,26.0,24.0,120,3,,,29.940945,,,TRUE,,,,,,,,,,,,,,,,,,,,,,,,,,,,METAR,35.0
MTPP 070359Z AUTO 12007KT 9000 ////// 27/25 Q1014 A2994 NOSIG,MTPP,2023-06-07T03:59:00Z,18.57,-72.3,27.0,25.0,120,7,,5.59,29.940945,,,TRUE,,,TRUE,,,,,,,,,,,,,,,,,,,,,,,,,METAR,36.0
KSYN 070359Z AUTO 08004KT 10SM SCT110 21/16 A2992 RMK AO2,KSYN,2023-06-07T03:59:00Z,44.47,-93.02,21.0,16.0,80,4,,10.0,29.920275,,,TRUE,TRUE,,,,,,,SCT,11000,,,,,,,VFR,,,,,,,,,,,,SPECI,280.0
KP92 070359Z AUTO 00000KT 22/22 A2986 RMK AO1 SLP111 T02220217,KP92,2023-06-07T03:59:00Z,29.57,-91.53,22.2,21.7,0,0,,,29.861221,1011.1,,TRUE,TRUE,,,,,,,,,,,,,,,,,,,,,,,,,,,METAR,1.0
KOXD 070359Z AUTO 00000KT 10SM RA OVC080 19/14 A2987 RMK AO2,KOXD,2023-06-07T03:59:00Z,39.5,-84.78,19.0,14.0,0,0,,10.0,29.870079,,,TRUE,TRUE,,,,,,RA,OVC,8000,,,,,,,VFR,,,,,,,,,,,,SPECI,317.0
KNOZ 070359Z AUTO 14010KT 10SM CLR 28/07 A2973 RMK AO2 SLP017 T02780072,KNOZ,2023-06-07T03:59:00Z,32.53,-114.5,27.8,7.2,140,10,,10.0,29.731298,1001.7,,TRUE,TRUE,,,,,,,CLR,,,,,,,,VFR,,,,,,,,,,,,SPECI,78.0
KNGU 070359Z 23006KT 7SM FEW080 SCT250 22/13 A2974 RMK AO2 SLP069 T02170128 $,KNGU,2023-06-07T03:59:00Z,36.93,-76.27,21.7,12.8,230,6,,7.0,29.740158,1006.9,,,TRUE,TRUE,,,,,,FEW,8000,SCT,25000,,,,,VFR,,,,,,,,,,,,METAR,3.0
K04W 070359Z AUTO 03006KT 10SM CLR 13/06 A3000 RMK AO2,K04W,2023-06-07T03:59:00Z,46.02,-92.9,13.0,6.0,30,6,,10.0,30.0,,,TRUE,TRUE,,,,,,,CLR,,,,,,,,VFR,,,,,,,,,,,,SPECI,310.0
KROG 070358Z AUTO 00000KT 9SM CLR 18/17 A2997 RMK AO2 SLP134 T01830167 TSNO,KROG,2023-06-07T03:58:00Z,36.37,-94.1,18.3,16.7,0,0,,9.0,29.970472,1013.4,,TRUE,TRUE,,,TRUE,,,,CLR,,,,,,,,VFR,,,,,,,,,,,,METAR,407.0
KPRN 070358Z AUTO 00000KT 9SM CLR 19/19 A2989 RMK AO2 SLP068 T01890189,KPRN,2023-06-07T03:58:00Z,31.85,-86.62,18.9,18.9,0,0,,9.0,29.890747,1006.8,,TRUE,TRUE,,,,,,,CLR,,,,,,,,VFR,,,,,,,,,,,,METAR,137.0
KMRH 070358Z AUTO 24006KT 10SM OVC090 22/21 A2978 RMK AO2 LTG DSNT SE TSB22E24 SLP085 T02220206,KMRH,2023-06-07T03:58:00Z,34.73,-76.65,22.2,20.6,240,6,,10.0,29.778543,1008.5,,TRUE,TRUE,,,,,,,OVC,9000,,,,,,,VFR,,,,,,,,,,,,METAR,2.0
KMEI 070358Z AUTO 21003KT 10SM CLR 23/19 A2990 RMK AO2 SLP120 T02280194,KMEI,2023-06-07T03:58:00Z,32.33,-88.75,22.8,19.4,210,3,,10.0,29.899607,1012.0,,TRUE,TRUE,,,,,,,CLR,,,,,,,,VFR,,,,,,,,,,,,METAR,90.0
KEUF 070358Z AUTO 00000KT 10SM CLR 22/19 A2990 RMK AO2 SLP120 T02220189,KEUF,2023-06-07T03:58:00Z,31.95,-85.13,22.2,18.9,0,0,,10.0,29.899607,1012.0,,TRUE,TRUE,,,,,,,CLR,,,,,,,,VFR,,,,,,,,,,,,SPECI,87.0
KBKF 070358Z 18007KT 10SM SCT140 BKN220 14/09 A3006 RMK AO2A SLP122 T01370089,KBKF,2023-06-07T03:58:00Z,39.72,-104.75,13.7,8.9,180,7,,10.0,30.059055,1012.2,,,TRUE,,,,,,,SCT,14000,BKN,22000,,,,,VFR,,,,,,,,,,,,METAR,1703.0
KBCR 070358Z AUTO 00000KT 10SM CLR 20/19 A2991 RMK AO2 SLP085 T02000189,KBCR,2023-06-07T03:58:00Z,30.85,-85.6,20.0,18.9,0,0,,10.0,29.911417,1008.5,,TRUE,TRUE,,,,,,,CLR,,,,,,,,VFR,,,,,,,,,,,,METAR,26.0
PHNG 070357Z 06007KT 10SM FEW023 OVC065 28/21 A3003 RMK AO2 SLP165 T02830211,PHNG,2023-06-07T03:57:00Z,21.43,-157.77,28.3,21.1,60,7,,10.0,30.029528,1016.5,,,TRUE,,,,,,,FEW,2300,OVC,6500,,,,,VFR,,,,,,,,,,,,METAR,1.0
KNYL 070357Z 25007KT 7SM FEW250 27/06 A2972 RMK AO2 SLP061 T02720061,KNYL,2023-06-07T03:57:00Z,32.65,-114.62,27.2,6.1,250,7,,7.0,29.719488,1006.1,,,TRUE,,,,,,,FEW,25000,,,,,,,VFR,,,,,,,,,,,,SPECI,58.0
KNJW 070357Z AUTO 00000KT 10SM CLR 21/18 A2992 RMK AO2 SLP047 T02110183 $,KNJW,2023-06-07T03:57:00Z,32.78,-88.82,21.1,18.3,0,0,,10.0,29.920275,1004.7,,TRUE,TRUE,TRUE,,,,,,CLR,,,,,,,,VFR,,,,,,,,,,,,METAR,165.0
KNJM 070357Z AUTO 00000KT 6SM BR CLR 21/19 A2979 RMK AO2 TSE22 SLP090 T02060194,KNJM,2023-06-07T03:57:00Z,34.68,-77.02,20.6,19.4,0,0,,6.0,29.790354,1009.0,,TRUE,TRUE,,,,,,BR,CLR,,,,,,,,VFR,,,,,,,,,,,,METAR,5.0
KMNM 070357Z AUTO 02006KT 10SM CLR 12/04 A3001 RMK AO2 SLP181 T01220044 PNO $,KMNM,2023-06-07T03:57:00Z,45.12,-87.63,12.2,4.4,20,6,,10.0,30.008858,1018.1,,TRUE,TRUE,TRUE,,,,,,CLR,,,,,,,,VFR,,,,,,,,,,,,METAR,188.0
KFLG 070357Z AUTO 00000KT 10SM CLR 10/M05 A3008 RMK AO2 SLP098 T01001050,KFLG,2023-06-07T03:57:00Z,35.13,-111.67,10.0,-5.0,0,0,,10.0,30.079725,1009.8,,TRUE,TRUE,,,,,,,CLR,,,,,,,,VFR,,,,,,,,,,,,METAR,2134.0
KAQV 070357Z AUTO 00000KT 10SM CLR 21/19 A2987 RMK AO2 SLP110 T02110194,KAQV,2023-06-07T03:57:00Z,31.4,-93.3,21.1,19.4,0,0,,10.0,29.870079,1011.0,,TRUE,TRUE,,,,,,,CLR,,,,,,,,VFR,,,,,,,,,,,,METAR,123.0
TJSJ 070356Z 08005KT 10SM FEW028 FEW040 27/24 A3001 RMK AO2 SLP162 T02720239 403500256,TJSJ,2023-06-07T03:56:00Z,18.43,-66.02,27.2,23.9,80,5,,10.0,30.008858,1016.2,,,TRUE,,,,,,,FEW,2800,FEW,4000,,,,,VFR,,,,35.0,25.6,,,,,,,METAR,3.0
ROTM 070356Z 24009KT 9999 SCT020 BKN17 BKN190 28/26 A2989 RMK SLP108 T02780256,ROTM,2023-06-07T03:56:00Z,26.27,127.75,27.8,25.6,240,9,,6.21,29.890747,1010.8,,,,,,,,,,SCT,2000,BKN,19000,,,,,VFR,,,,,,,,,,,,METAR,80.0
PPIZ 070356Z AUTO 36011KT 10SM CLR 09/06 A2987 RMK AO2 SLP119 T00890056,PPIZ,2023-06-07T03:56:00Z,69.73,-163.0,8.9,5.6,360,11,,10.0,29.870079,1011.9,,TRUE,TRUE,,,,,,,CLR,,,,,,,,VFR,,,,,,,,,,,,METAR,5.0
PMDY 070356Z AUTO 10SM OVC025 24/19 A3024 RMK AO2 SLP241 T02390189 $,PMDY,2023-06-07T03:56:00Z,28.22,-177.37,23.9,18.9,,,,10.0,30.239174,1024.1,,TRUE,TRUE,TRUE,,,,,,OVC,2500,,,,,,,MVFR,,,,,,,,,,,,METAR,6.0
PHNY 070356Z AUTO 31006KT 10SM BKN016 OVC023 22/20 A3010 RMK AO2 RAE09 SLP175 P0000 T02170200,PHNY,2023-06-07T03:56:00Z,20.77,-156.95,21.7,20.0,310,6,,10.0,30.100393,1017.5,,TRUE,TRUE,,,,,,,BKN,1600,OVC,2300,,,,,MVFR,,,,,,0.005,,,,,,METAR,395.0
PGUA 070356Z 35009G18KT 10SM SCT015 30/26 A2993 RMK SLPNO WND DATA/ALSTG ESTMD,PGUA,2023-06-07T03:56:00Z,13.57,144.92,30.0,26.0,350,9,18,10.0,29.929134,,,,,,,,,,,SCT,1500,,,,,,,VFR,,,,,,,,,,,,METAR,159.0
PFYU 070356Z AUTO VRB03KT 10SM CLR 24/06 A2975 RMK AO2 SLPNO T02440056,PFYU,2023-06-07T03:56:00Z,66.57,-145.23,24.4,5.6,0,3,,10.0,29.749016,,,TRUE,TRUE,,,,,,,CLR,,,,,,,,VFR,,,,,,,,,,,,METAR,130.0
PFSH 070356Z AUTO 02008KT 10SM SCT110 16/06 A2978 RMK AO2 SLP085 T01610061,PFSH,2023-06-07T03:56:00Z,64.37,-161.22,16.1,6.1,20,8,,10.0,29.778543,1008.5,,TRUE,TRUE,,,,,,,SCT,11000,,,,,,,VFR,,,,,,,,,,,,METAR,6.0
PFNO 070356Z AUTO 25009KT 10SM FEW075 21/07 A2977 RMK AO2 SLP161 T02060067 $,PFNO,2023-06-07T03:56:00Z,66.82,-161.02,20.6,6.7,250,9,,10.0,29.769686,1016.1,,TRUE,TRUE,TRUE,,,,,,FEW,7500,,,,,,,VFR,,,,,,,,,,,,METAR,14.0
PFKT 070356Z AUTO 29008KT 10SM 12/04 A2983 RMK AO2 SLP100 T01170039 $,PFKT,2023-06-07T03:56:00Z,65.33,-166.47,11.7,3.9,290,8,,10.0,29.828741,1010.0,,TRUE,TRUE,TRUE,,,,,,,,,,,,,,,,,,,,,,,,,,METAR,8.0
PFEL 070356Z AUTO 15003KT 10SM OVC120 17/03 A2980 RMK AO2 SLP091 T01670033,PFEL,2023-06-07T03:56:00Z,64.62,-162.27,16.7,3.3,150,3,,10.0,29.799213,1009.1,,TRUE,TRUE,,,,,,,OVC,12000,,,,,,,VFR,,,,,,,,,,,,METAR,50.0
PAZK 070356Z AUTO 21009KT 10SM CLR 11/02 A2985 RMK AO2 SLP128 T01060017,PAZK,2023-06-07T03:56:00Z,61.93,-147.17,10.6,1.7,210,9,,10.0,29.84941,1012.8,,TRUE,TRUE,,,,,,,CLR,,,,,,,,VFR,,,,,,,,,,,,METAR,1002.0
PAWS 070356Z AUTO 00000KT 10SM CLR 14/07 A2992 RMK AO2 SLP135 T01390067,PAWS,2023-06-07T03:56:00Z,61.57,-149.53,13.9,6.7,0,0,,10.0,29.920275,1013.5,,TRUE,TRUE,,,,,,,CLR,,,,,,,,VFR,,,,,,,,,,,,METAR,102.0
PAWN 070356Z AUTO 35011KT 10SM FEW085 19/05 RMK AO2 SLPNO T01940050 $,PAWN,2023-06-07T03:56:00Z,67.57,-162.98,19.4,5.0,350,11,,10.0,,,,TRUE,TRUE,TRUE,,,,,,FEW,8500,,,,,,,VFR,,,,,,,,,,,,METAR,26.0
PAWM 070356Z AUTO 00000KT 9SM CLR 16/03 A2980 RMK AO2 SLPNO T01610028,PAWM,2023-06-07T03:56:00Z,64.68,-163.42,16.1,2.8,0,0,,9.0,29.799213,,,TRUE,TRUE,,,,,,,CLR,,,,,,,,VFR,,,,,,,,,,,,METAR,80.0
PAVD 070356Z 24005KT 10SM SCT030 BKN041 OVC100 12/07 RMK AO2 SLPNO A3008 T01170072 $,PAVD,2023-06-07T03:56:00Z,61.13,-146.25,11.7,7.2,240,5,,10.0,,,,,TRUE,TRUE,,,,,,SCT,3000,BKN,4100,OVC,10000,,,VFR,,,,,,,,,,,,METAR,21.0
PAUN 070356Z AUTO 32008KT 10SM BKN065 OVC090 11/05 A2979 RMK AO2 SLP091 T01060050 PNO $,PAUN,2023-06-07T03:56:00Z,63.88,-160.8,10.6,5.0,320,8,,10.0,29.790354,1009.1,,TRUE,TRUE,TRUE,,,,,,BKN,6500,OVC,9000,,,,,VFR,,,,,,,,,,,,METAR,4.0
PATQ 070356Z AUTO 08018KT 10SM CLR 08/03 A2998 RMK AO2 SLP154 T00830028 TSNO,PATQ,2023-06-07T03:56:00Z,70.47,-157.43,8.3,2.8,80,18,,10.0,29.97933,1015.4,,TRUE,TRUE,,,TRUE,,,,CLR,,,,,,,,VFR,,,,,,,,,,,,METAR,28.0
PATG 070356Z AUTO 10SM -RA BKN015 OVC021 09/08 A2972 RMK AO2 RAB01 SLPNO P0001 T00890078 $,PATG,2023-06-07T03:56:00Z,59.05,-160.38,8.9,7.8,,,,10.0,29.719488,,,TRUE,TRUE,TRUE,,,,,-RA,BKN,1500,OVC,2100,,,,,MVFR,,,,,,0.01,,,,,,METAR,1.0
PATE 070356Z AUTO 29007KT 10SM CLR 11/04 A2981 RMK AO2 SLP100 T01060044,PATE,2023-06-07T03:56:00Z,65.23,-166.33,10.6,4.4,290,7,,10.0,29.811024,1010.0,,TRUE,TRUE,,,,,,,CLR,,,,,,,,VFR,,,,,,,,,,,,METAR,93.0
PASX 070356Z AUTO 03005KT 10SM FEW100 12/08 A2991 RMK AO2 SLP133 T01220078,PASX,2023-06-07T03:56:00Z,60.48,-151.05,12.2,7.8,30,5,,10.0,29.911417,1013.3,,TRUE,TRUE,,,,,,,FEW,10000,,,,,,,VFR,,,,,,,,,,,,METAR,28.0
PASM 070356Z AUTO 09007KT 10SM BKN045 OVC055 13/06 A2976 RMK AO2 SLP084 T01330056,PASM,2023-06-07T03:56:00Z,62.07,-163.3,13.3,5.6,90,7,,10.0,29.760826,1008.4,,TRUE,TRUE,,,,,,,BKN,4500,OVC,5500,,,,,VFR,,,,,,,,,,,,METAR,108.0
PASL 070356Z AUTO 00000KT 10SM -RA FEW050 OVC070 13/06 A2984 RMK AO2 RAB49 SLP095 P0000 T01330061,PASL,2023-06-07T03:56:00Z,61.68,-157.15,13.3,6.1,0,0,,10.0,29.840551,1009.5,,TRUE,TRUE,,,,,,-RA,FEW,5000,OVC,7000,,,,,VFR,,,,,,0.005,,,,,,METAR,64.0
PASK 070356Z AUTO 26012KT 10SM OVC095 17/07 A2977 RMK AO2 SLP077 T01720072,PASK,2023-06-07T03:56:00Z,66.6,-160.0,17.2,7.2,260,12,,10.0,29.769686,1007.7,,TRUE,TRUE,,,,,,,OVC,9500,,,,,,,VFR,,,,,,,,,,,,METAR,3.0
PASD 070356Z AUTO 20003KT 10SM SCT020 OVC026 07/06 A2963 RMK AO2 SLP036 T00720056 PNO $,PASD,2023-06-07T03:56:00Z,55.33,-160.52,7.2,5.6,200,3,,10.0,29.630905,1003.6,,TRUE,TRUE,TRUE,,,,,,SCT,2000,OVC,2600,,,,,MVFR,,,,,,,,,,,,METAR,6.0
PARY 070356Z AUTO VRB06KT 10SM OVC100 17/06 A2977 RMK AO2 SLP086 T01720061 PNO $,PARY,2023-06-07T03:56:00Z,64.73,-155.47,17.2,6.1,0,6,,10.0,29.769686,1008.6,,TRUE,TRUE,TRUE,,,,,,OVC,10000,,,,,,,VFR,,,,,,,,,,,,METAR,185.0
PARS 070356Z AUTO 11006KT 10SM OVC080 13/07 A2974 RMK AO2 SLP075 T01330072 $,PARS,2023-06-07T03:56:00Z,61.77,-161.32,13.3,7.2,110,6,,10.0,29.740158,1007.5,,TRUE,TRUE,TRUE,,,,,,OVC,8000,,,,,,,VFR,,,,,,,,,,,,METAR,15.0
PARC 070356Z AUTO 10SM FEW110 16/05 A2985 RMK AO2 SLP130 T01560050 $,PARC,2023-06-07T03:56:00Z,68.12,-145.58,15.6,5.0,,,,10.0,29.84941,1013.0,,TRUE,TRUE,TRUE,,,,,,FEW,11000,,,,,,,VFR,,,,,,,,,,,,METAR,626.0
PAPN 070356Z AUTO 11018G23KT 9SM FEW039 SCT120 09/07 A2969 RMK AO2 SLPNO T00940067,PAPN,2023-06-07T03:56:00Z,57.58,-157.57,9.4,6.7,110,18,23,9.0,29.68996,,,TRUE,TRUE,,,,,,,FEW,3900,SCT,12000,,,,,VFR,,,,,,,,,,,,METAR,19.0
PAPG 070356Z 00000KT 10SM FEW027 BKN047 11/09 A3009 RMK AO2 SLP194 T01110089,PAPG,2023-06-07T03:56:00Z,56.82,-132.93,11.1,8.9,0,0,,10.0,30.088583,1019.4,,,TRUE,,,,,,,FEW,2700,BKN,4700,,,,,VFR,,,,,,,,,,,,METAR,24.0
PAOU 070356Z AUTO 14015KT 10SM OVC029 09/06 A2959 RMK AO2 SLP021 T00940061 PNO $,PAOU,2023-06-07T03:56:00Z,56.0,-161.17,9.4,6.1,140,15,,10.0,29.589567,1002.1,,TRUE,TRUE,TRUE,,,,,,OVC,2900,,,,,,,MVFR,,,,,,,,,,,,METAR,3.0
PAOO 070356Z AUTO FEW070 OVC100 12/06 A2970 RMK AO2 SLPNO T01170061 PWINO $,PAOO,2023-06-07T03:56:00Z,60.53,-165.08,11.7,6.1,,,,,29.698818,,,TRUE,TRUE,TRUE,,,,TRUE,,FEW,7000,OVC,10000,,,,,,,,,,,,,,,,,METAR,15.0
PAOH 070356Z AUTO 08004KT 9SM OVC045 11/08 A3008 RMK AO2 SLP186 T01060078 PNO $,PAOH,2023-06-07T03:56:00Z,58.1,-135.45,10.6,7.8,80,4,,9.0,30.079725,1018.6,,TRUE,TRUE,TRUE,,,,,,OVC,4500,,,,,,,VFR,,,,,,,,,,,,METAR,0.0
PANV 070356Z AUTO 11008KT 10SM 14/07 A2978 RMK AO2 SLP143 T01390067 TSNO $,PANV,2023-06-07T03:56:00Z,62.65,-160.18,13.9,6.7,110,8,,10.0,29.778543,1014.3,,TRUE,TRUE,TRUE,,TRUE,,,,,,,,,,,,,,,,,,,,,,,,METAR,91.0
PANI 070356Z AUTO 15013KT 10SM BKN041 OVC055 14/06 A2981 RMK AO2 SLP088 T01390056 $,PANI,2023-06-07T03:56:00Z,61.58,-159.53,13.9,5.6,150,13,,10.0,29.811024,1008.8,,TRUE,TRUE,TRUE,,,,,,BKN,4100,OVC,5500,,,,,VFR,,,,,,,,,,,,METAR,21.0
PAMO 070356Z AUTO 15005KT 10SM -RA BKN048 OVC060 13/04 A2976 RMK AO2 RAB51 SLP080 P0000 T01330039,PAMO,2023-06-07T03:56:00Z,62.1,-163.68,13.3,3.9,150,5,,10.0,29.760826,1008.0,,TRUE,TRUE,,,,,,-RA,BKN,4800,OVC,6000,,,,,VFR,,,,,,0.005,,,,,,METAR,93.0
PAMM 070356Z AUTO 00000KT 10SM CLR 13/09 A3007 RMK AO2 SLP276 T01330089 $,PAMM,2023-06-07T03:56:00Z,55.13,-131.58,13.3,8.9,0,0,,10.0,30.070866,1027.6,,TRUE,TRUE,TRUE,,,,,,CLR,,,,,,,,VFR,,,,,,,,,,,,METAR,0.0
PAMH 070356Z AUTO VRB05KT 10SM FEW100 19/04 A2977 RMK AO2 SLP078 T01890044,PAMH,2023-06-07T03:56:00Z,63.9,-152.28,18.9,4.4,0,5,,10.0,29.769686,1007.8,,TRUE,TRUE,,,,,,,FEW,10000,,,,,,,VFR,,,,,,,,,,,,METAR,200.0
PAMB 070356Z AUTO 13008KT 7SM -RA OVC020 09/08 A2975 RMK AO2 SLP077 P0002 T00890083 $,PAMB,2023-06-07T03:56:00Z,58.98,-159.05,8.9,8.3,130,8,,7.0,29.749016,1007.7,,TRUE,TRUE,TRUE,,,,,-RA,OVC,2000,,,,,,,MVFR,,,,,,0.02,,,,,,METAR,28.0
PALG 070356Z AUTO 10009G14KT 060V150 10SM FEW100 BKN110 13/07 A2974 RMK AO2 SLP073 T01280067,PALG,2023-06-07T03:56:00Z,61.53,-160.33,12.8,6.7,100,9,14,10.0,29.740158,1007.3,,TRUE,TRUE,,,,,,,FEW,10000,BKN,11000,,,,,VFR,,,,,,,,,,,,METAR,13.0
PAKP 070356Z AUTO 04010KT 10SM CLR 16/06 A2982 RMK AO2 SLP120 T01610061,PAKP,2023-06-07T03:56:00Z,68.13,-151.73,16.1,6.1,40,10,,10.0,29.819881,1012.0,,TRUE,TRUE,,,,,,,CLR,,,,,,,,VFR,,,,,,,,,,,,METAR,649.0
PAKI 070356Z AUTO 10SM FEW046 11/06 A2967 RMK AO2 SLP050 T01060056 $,PAKI,2023-06-07T03:56:00Z,59.93,-164.03,10.6,5.6,,,,10.0,29.66929,1005.0,,TRUE,TRUE,TRUE,,,,,,FEW,4600,,,,,,,VFR,,,,,,,,,,,,METAR,4.0
PAKF 070356Z AUTO 18010G22KT 6SM BR OVC009 07/06 A2954 RMK AO2 RAE47 CIG 007V012 SLP004 P0000 T00720056,PAKF,2023-06-07T03:56:00Z,54.85,-163.42,7.2,5.6,180,10,22,6.0,29.53937,1000.4,,TRUE,TRUE,,,,,,BR,OVC,900,,,,,,,IFR,,,,,,0.005,,,,,,METAR,2.0
PAJZ 070356Z AUTO 12014G23KT 8SM OVC047 11/06 A2982 RMK AO2 PK WND 12027/0312 SLP105 T01060056 $,PAJZ,2023-06-07T03:56:00Z,59.73,-157.27,10.6,5.6,120,14,23,8.0,29.819881,1010.5,,TRUE,TRUE,TRUE,,,,,,OVC,4700,,,,,,,VFR,,,,,,,,,,,,METAR,80.0
PAIN 070356Z AUTO 17005KT 10SM FEW100 17/02 A2983 RMK AO2 SLP109 T01670022 PNO $,PAIN,2023-06-07T03:56:00Z,63.73,-148.92,16.7,2.2,170,5,,10.0,29.828741,1010.9,,TRUE,TRUE,TRUE,,,,,,FEW,10000,,,,,,,VFR,,,,,,,,,,,,METAR,525.0
PAIK 070356Z AUTO 02007KT 10SM FEW035 OVC080 20/04 A2979 RMK AO2 SLP088 T02000039,PAIK,2023-06-07T03:56:00Z,66.98,-160.43,20.0,3.9,20,7,,10.0,29.790354,1008.8,,TRUE,TRUE,,,,,,,FEW,3500,OVC,8000,,,,,VFR,,,,,,,,,,,,METAR,49.0
PAIG 070356Z AUTO 07010KT 10SM BKN055 BKN070 09/06 A2977 RMK AO2 SLP088 T00940056 $,PAIG,2023-06-07T03:56:00Z,59.32,-155.9,9.4,5.6,70,10,,10.0,29.769686,1008.8,,TRUE,TRUE,TRUE,,,,,,BKN,5500,BKN,7000,,,,,VFR,,,,,,,,,,,,METAR,24.0
PAHY 070356Z AUTO 00000KT 10SM FEW034 13/07 A3006 RMK AO2 SLP177 T01280072 $,PAHY,2023-06-07T03:56:00Z,55.2,-132.83,12.8,7.2,0,0,,10.0,30.059055,1017.7,,TRUE,TRUE,TRUE,,,,,,FEW,3400,,,,,,,VFR,,,,,,,,,,,,METAR,0.0
PAHL 070356Z AUTO 35003KT 10SM BKN075 BKN110 20/07 A2977 RMK AO2 SLP084 T02000067,PAHL,2023-06-07T03:56:00Z,65.7,-156.35,20.0,6.7,350,3,,10.0,29.769686,1008.4,,TRUE,TRUE,,,,,,,BKN,7500,BKN,11000,,,,,VFR,,,,,,,,,,,,METAR,49.0
PAHC 070356Z AUTO 01005KT 10SM FEW044 BKN070 OVC085 13/08 A2977 RMK AO2 RAE40 SLP087 P0000 T01280083,PAHC,2023-06-07T03:56:00Z,62.18,-159.78,12.8,8.3,10,5,,10.0,29.769686,1008.7,,TRUE,TRUE,,,,,,,FEW,4400,BKN,7000,OVC,8500,,,VFR,,,,,,0.005,,,,,,METAR,21.0
PAGS 070356Z AUTO 00000KT 10SM OVC046 11/09 A3009 RMK AO2 SLP190 T01110089,PAGS,2023-06-07T03:56:00Z,58.42,-135.7,11.1,8.9,0,0,,10.0,30.088583,1019.0,,TRUE,TRUE,,,,,,,OVC,4600,,,,,,,VFR,,,,,,,,,,,,METAR,9.0
PAGN 070356Z AUTO 00000KT 10SM SCT048 10/08 A3010 RMK AO2 SLP180 T01000083,PAGN,2023-06-07T03:56:00Z,57.5,-134.58,10.0,8.3,0,0,,10.0,30.100393,1018.0,,TRUE,TRUE,,,,,,,SCT,4800,,,,,,,VFR,,,,,,,,,,,,METAR,2.0
PAGM 070356Z AUTO 09010KT 10SM BKN038 06/04 A2976 RMK AO2 SLP084 T00610039,PAGM,2023-06-07T03:56:00Z,63.77,-171.73,6.1,3.9,90,10,,10.0,29.760826,1008.4,,TRUE,TRUE,,,,,,,BKN,3800,,,,,,,VFR,,,,,,,,,,,,METAR,6.0
PAFM 070356Z AUTO 07005KT 10SM OVC080 21/04 A2980 RMK AO2 SLP095 T02060044,PAFM,2023-06-07T03:56:00Z,67.1,-157.85,20.6,4.4,70,5,,10.0,29.799213,1009.5,,TRUE,TRUE,,,,,,,OVC,8000,,,,,,,VFR,,,,,,,,,,,,METAR,79.0
PAFE 070356Z AUTO 04003KT 10SM BKN042 OVC065 12/08 A3010 RMK AO2 SLP206 T01220083 $,PAFE,2023-06-07T03:56:00Z,56.97,-133.92,12.2,8.3,40,3,,10.0,30.100393,1020.6,,TRUE,TRUE,TRUE,,,,,,BKN,4200,OVC,6500,,,,,VFR,,,,,,,,,,,,METAR,1.0
PADM 070356Z AUTO 08007KT 10SM OVC060 13/08 A2977 RMK AO2 RAB17E56 SLPNO P0000 T01280083,PADM,2023-06-07T03:56:00Z,61.87,-162.03,12.8,8.3,80,7,,10.0,29.769686,,,TRUE,TRUE,,,,,,,OVC,6000,,,,,,,VFR,,,,,,0.005,,,,,,METAR,17.0
PADL 070356Z 16006KT 10SM -RA FEW020 OVC045 10/08 A2975 RMK AO2 RAE00B18 SLP077 P0000 T01000083,PADL,2023-06-07T03:56:00Z,59.05,-158.5,10.0,8.3,160,6,,10.0,29.749016,1007.7,,,TRUE,,,,,,-RA,FEW,2000,OVC,4500,,,,,VFR,,,,,,0.005,,,,,,METAR,20.0
PADK 070356Z AUTO 22012KT BKN017 BKN022 OVC032 07/06 A2940 RMK AO2 SLP957 T00720056 PWINO $,PADK,2023-06-07T03:56:00Z,51.88,-176.65,7.2,5.6,220,12,,,29.40059,995.7,,TRUE,TRUE,TRUE,,,,TRUE,,BKN,1700,BKN,2200,OVC,3200,,,,,,,,,,,,,,,METAR,3.0
PACM 070356Z AUTO 11007KT FEW030 12/06 A2975 RMK AO2 SLP073 T01220056 PWINO $,PACM,2023-06-07T03:56:00Z,61.85,-165.57,12.2,5.6,110,7,,,29.749016,1007.3,,TRUE,TRUE,TRUE,,,,TRUE,,FEW,3000,,,,,,,,,,,,,,,,,,,METAR,3.0
PABV 070356Z AUTO 00000KT 10SM BKN110 13/08 A2992 RMK AO2 SLP137 T01330083,PABV,2023-06-07T03:56:00Z,61.42,-149.52,13.3,8.3,0,0,,10.0,29.920275,1013.7,,TRUE,TRUE,,,,,,,BKN,11000,,,,,,,VFR,,,,,,,,,,,,METAR,21.0
PABL 070356Z AUTO 24009KT 10SM CLR 19/02 A2978 RMK AO2 SLP085 T01940022,PABL,2023-06-07T03:56:00Z,65.98,-161.15,19.4,2.2,240,9,,10.0,29.778543,1008.5,,TRUE,TRUE,,,,,,,CLR,,,,,,,,VFR,,,,,,,,,,,,METAR,7.0
PAAK 070356Z AUTO 20013KT 10SM OVC018 07/05 A2946 RMK AO2 SLP977 T00670050,PAAK,2023-06-07T03:56:00Z,52.22,-174.2,6.7,5.0,200,13,,10.0,29.459646,997.7,,TRUE,TRUE,,,,,,,OVC,1800,,,,,,,MVFR,,,,,,,,,,,,METAR,11.0
KYKN 070356Z AUTO 00000KT 10SM CLR 25/13 A2988 RMK AO2 SLP119 T02500133,KYKN,2023-06-07T03:56:00Z,42.92,-97.37,25.0,13.3,0,0,,10.0,29.878937,1011.9,,TRUE,TRUE,,,,,,,CLR,,,,,,,,VFR,,,,,,,,,,,,METAR,388.0
KY50 070356Z AUTO 04005KT 10SM CLR 17/04 A2998 RMK AO2 SLP147 T01670044 $,KY50,2023-06-07T03:56:00Z,44.03,-89.3,16.7,4.4,40,5,,10.0,29.97933,1014.7,,TRUE,TRUE,TRUE,,,,,,CLR,,,,,,,,VFR,,,,,,,,,,,,METAR,261.0
KWWD 070356Z AUTO 36005KT 10SM SCT070 BKN090 BKN110 17/15 A2969 RMK AO2 SLP054 T01720150 $,KWWD,2023-06-07T03:56:00Z,39.02,-74.92,17.2,15.0,360,5,,10.0,29.68996,1005.4,,TRUE,TRUE,TRUE,,,,,,SCT,7000,BKN,9000,BKN,11000,,,VFR,,,,,,,,,,,,METAR,4.0
KWVL 070356Z AUTO 31006KT 10SM SCT050 OVC070 11/09 A2942 RMK AO2 RAE12 SLP989 P0001 T01110089,KWVL,2023-06-07T03:56:00Z,44.52,-69.67,11.1,8.9,310,6,,10.0,29.421259,998.9,,TRUE,TRUE,,,,,,,SCT,5000,OVC,7000,,,,,VFR,,,,,,0.01,,,,,,METAR,87.0
KWMC 070356Z AUTO 30005KT 10SM CLR 16/06 A2991 RMK AO2 SLP088 T01610061,KWMC,2023-06-07T03:56:00Z,40.9,-117.8,16.1,6.1,300,5,,10.0,29.911417,1008.8,,TRUE,TRUE,,,,,,,CLR,,,,,,,,VFR,,,,,,,,,,,,METAR,1311.0
KWJF 070356Z AUTO 24016G24KT 10SM OVC110 14/08 A2985 RMK AO2 PK WND 24028/0311 SLP102 T01440078,KWJF,2023-06-07T03:56:00Z,34.73,-118.22,14.4,7.8,240,16,24,10.0,29.84941,1010.2,,TRUE,TRUE,,,,,,,OVC,11000,,,,,,,VFR,,,,,,,,,,,,METAR,712.0
KVPZ 070356Z AUTO 31005KT 10SM SCT110 16/12 A2990 RMK AO2 SLP123 T01560117 PWINO $,KVPZ,2023-06-07T03:56:00Z,41.45,-87.0,15.6,11.7,310,5,,10.0,29.899607,1012.3,,TRUE,TRUE,TRUE,,,,TRUE,,SCT,11000,,,,,,,VFR,,,,,,,,,,,,METAR,235.0
KVIS 070356Z AUTO 20005KT 10SM FEW065 21/13 A2980 RMK AO2 SLP096 T02110128,KVIS,2023-06-07T03:56:00Z,36.32,-119.4,21.1,12.8,200,5,,10.0,29.799213,1009.6,,TRUE,TRUE,,,,,,,FEW,6500,,,,,,,VFR,,,,,,,,,,,,METAR,92.0
KVBT 070356Z AUTO 00000KT 10SM CLR 21/15 A2997 RMK AO2 SLP139 T02060150,KVBT,2023-06-07T03:56:00Z,36.35,-94.22,20.6,15.0,0,0,,10.0,29.970472,1013.9,,TRUE,TRUE,,,,,,,CLR,,,,,,,,VFR,,,,,,,,,,,,METAR,390.0
KUKI 070356Z AUTO 16005KT 10SM FEW060 BKN090 17/11 A2988 RMK AO2 LTG DSNT NE SLP111 T01720106,KUKI,2023-06-07T03:56:00Z,39.12,-123.2,17.2,10.6,160,5,,10.0,29.878937,1011.1,,TRUE,TRUE,,,,,,,FEW,6000,BKN,9000,,,,,VFR,,,,,,,,,,,,METAR,183.0
KUCP 070356Z AUTO 00000KT 10SM CLR 13/06 A2981 RMK AO2 SLP103 T01330061,KUCP,2023-06-07T03:56:00Z,41.03,-80.42,13.3,6.1,0,0,,10.0,29.811024,1010.3,,TRUE,TRUE,,,,,,,CLR,,,,,,,,VFR,,,,,,,,,,,,METAR,313.0
KTVF 070356Z AUTO 12010KT 10SM CLR 23/22 A2990 RMK AO2 SLP120 T02280222,KTVF,2023-06-07T03:56:00Z,48.07,-96.17,22.8,22.2,120,10,,10.0,29.899607,1012.0,,TRUE,TRUE,,,,,,,CLR,,,,,,,,VFR,,,,,,,,,,,,METAR,339.0
KTPH 070356Z AUTO 24006KT 10SM CLR 18/M07 A2988 RMK AO2 SLP053 T01781067,KTPH,2023-06-07T03:56:00Z,38.05,-117.08,17.8,-6.7,240,6,,10.0,29.878937,1005.3,,TRUE,TRUE,,,,,,,CLR,,,,,,,,VFR,,,,,,,,,,,,METAR,1647.0
KSXT 070356Z AUTO 32006KT 10SM BKN110 19/07 A2990 RMK AO2 SLP074 T01890072,KSXT,2023-06-07T03:56:00Z,42.6,-123.37,18.9,7.2,320,6,,10.0,29.899607,1007.4,,TRUE,TRUE,,,,,,,BKN,11000,,,,,,,VFR,,,,,,,,,,,,SPECI,1151.0
KSUE 070356Z AUTO 04007KT 10SM CLR 13/06 A3000 RMK AO2 SLP157 T01280056,KSUE,2023-06-07T03:56:00Z,44.85,-87.42,12.8,5.6,40,7,,10.0,30.0,1015.7,,TRUE,TRUE,,,,,,,CLR,,,,,,,,VFR,,,,,,,,,,,,METAR,215.0
KSRC 070356Z AUTO 00000KT 10SM CLR 20/17 A2990 RMK AO2 SLP124 T02000172,KSRC,2023-06-07T03:56:00Z,35.22,-91.73,20.0,17.2,0,0,,10.0,29.899607,1012.4,,TRUE,TRUE,,,,,,,CLR,,,,,,,,VFR,,,,,,,,,,,,METAR,80.0
KSQI 070356Z AUTO 08004KT 6SM BR SCT055 19/18 A2992 RMK AO2 SLP993 T01940183,KSQI,2023-06-07T03:56:00Z,41.75,-89.67,19.4,18.3,80,4,,6.0,29.920275,999.3,,TRUE,TRUE,,,,,,BR,SCT,5500,,,,,,,VFR,,,,,,,,,,,,METAR,196.0
KSPD 070356Z AUTO 18012G22KT 17/13 A3002 RMK AO1 PK WND 18029/0329 SLP112 T01670128,KSPD,2023-06-07T03:56:00Z,37.28,-102.62,16.7,12.8,180,12,22,,30.02067,1011.2,,TRUE,TRUE,,,,,,,,,,,,,,,,,,,,,,,,,,,METAR,1340.0
KSOP 070356Z AUTO 22004KT 6SM BR BKN080 16/14 A2981 RMK AO2 SLP098 T01610144,KSOP,2023-06-07T03:56:00Z,35.23,-79.4,16.1,14.4,220,4,,6.0,29.811024,1009.8,,TRUE,TRUE,,,,,,BR,BKN,8000,,,,,,,VFR,,,,,,,,,,,,METAR,135.0
KSMP 070356Z AUTO 23004KT 10SM CLR 18/06 A2993 RMK AO2 SLP108 T01780056,KSMP,2023-06-07T03:56:00Z,47.28,-121.33,17.8,5.6,230,4,,10.0,29.929134,1010.8,,TRUE,TRUE,,,,,,,CLR,,,,,,,,VFR,,,,,,,,,,,,SPECI,1206.0
KSMN 070356Z AUTO 09006KT 10SM CLR 17/11 A2995 RMK AO2 SLP837 T01670111,KSMN,2023-06-07T03:56:00Z,45.12,-113.87,16.7,11.1,90,6,,10.0,29.949802,983.7,,TRUE,TRUE,,,,,,,CLR,,,,,,,,VFR,,,,,,,,,,,,METAR,1228.0
KSLG 070356Z AUTO 00000KT 5SM BR CLR 19/19 A2996 RMK AO2 SLP132 T01890189,KSLG,2023-06-07T03:56:00Z,36.2,-94.48,18.9,18.9,0,0,,5.0,29.958662,1013.2,,TRUE,TRUE,,,,,,BR,CLR,,,,,,,,MVFR,,,,,,,,,,,,METAR,361.0
KSLE 070356Z AUTO 28005KT 10SM CLR 27/09 A2969 RMK AO2 SLP052 T02670094,KSLE,2023-06-07T03:56:00Z,44.9,-123.0,26.7,9.4,280,5,,10.0,29.68996,1005.2,,TRUE,TRUE,,,,,,,CLR,,,,,,,,VFR,,,,,,,,,,,,METAR,63.0
KSKX 070356Z AUTO 26013KT 10SM RA SCT045 OVC060 10/08 A3029 RMK AO2 PK WND 25031/0318 RAB11 SLP213 P0011 T01000083,KSKX,2023-06-07T03:56:00Z,36.45,-105.67,10.0,8.3,260,13,,10.0,30.28937,1021.3,,TRUE,TRUE,,,,,,RA,SCT,4500,OVC,6000,,,,,VFR,,,,,,0.11,,,,,,METAR,2163.0
KSHV 070356Z 25003KT 10SM SCT300 23/21 A2988 RMK SLPNO,KSHV,2023-06-07T03:56:00Z,32.45,-93.83,23.0,21.0,250,3,,10.0,29.878937,,,,,,,,,,,SCT,30000,,,,,,,VFR,,,,,,,,,,,,METAR,70.0
KSGU 070356Z AUTO 27005KT 10SM CLR 28/M07 A2976 RMK AO2 SLP039 T02781067,KSGU,2023-06-07T03:56:00Z,37.03,-113.52,27.8,-6.7,270,5,,10.0,29.760826,1003.9,,TRUE,TRUE,,,,,,,CLR,,,,,,,,VFR,,,,,,,,,,,,METAR,877.0
KSGT 070356Z AUTO 20003KT 10SM CLR 25/19 A2990 RMK AO2 SLP122 T02500194,KSGT,2023-06-07T03:56:00Z,34.6,-91.57,25.0,19.4,200,3,,10.0,29.899607,1012.2,,TRUE,TRUE,,,,,,,CLR,,,,,,,,VFR,,,,,,,,,,,,METAR,67.0
KSGJ 070356Z AUTO 10SM 25/19 A2992 RMK AO2 SLP130 T02500194 402890183 $,KSGJ,2023-06-07T03:56:00Z,29.97,-81.33,25.0,19.4,,,,10.0,29.920275,1013.0,,TRUE,TRUE,TRUE,,,,,,,,,,,,,,,,,,28.9,18.3,,,,,,,METAR,2.0
KSGH 070356Z AUTO 32003KT 5SM HZ CLR 15/ A2987 RMK AO2 SLP110 T0150 402780100,KSGH,2023-06-07T03:56:00Z,39.83,-83.83,15.0,,320,3,,5.0,29.870079,1011.0,,TRUE,TRUE,,,,,,HZ,CLR,,,,,,,,MVFR,,,,27.8,10.0,,,,,,,METAR,318.0
KSFZ 070356Z AUTO 31005KT 9SM FEW070 SCT110 13/09 A2957 RMK AO2 SLP013 T01280094,KSFZ,2023-06-07T03:56:00Z,41.92,-71.5,12.8,9.4,310,5,,9.0,29.568897,1001.3,,TRUE,TRUE,,,,,,,FEW,7000,SCT,11000,,,,,VFR,,,,,,,,,,,,METAR,129.0
KSFO 070356Z 21014G22KT 10SM FEW028 BKN033 BKN170 16/11 A2987 RMK AO2 SLP115 T01610111,KSFO,2023-06-07T03:56:00Z,37.62,-122.37,16.1,11.1,210,14,22,10.0,29.870079,1011.5,,,TRUE,,,,,,,FEW,2800,BKN,3300,BKN,17000,,,VFR,,,,,,,,,,,,METAR,2.0
KSFM 070356Z AUTO 29006KT 10SM -RA OVC070 13/09 A2952 RMK AO2 RAB44 SLP999 P0000 T01280089 402110083,KSFM,2023-06-07T03:56:00Z,43.38,-70.72,12.8,8.9,290,6,,10.0,29.518702,999.9,,TRUE,TRUE,,,,,,-RA,OVC,7000,,,,,,,VFR,,,,21.1,8.3,0.005,,,,,,METAR,70.0
KSDY 070356Z AUTO 33004KT 10SM CLR 22/15 A2985 RMK AO2 SLP099 T02170150,KSDY,2023-06-07T03:56:00Z,47.7,-104.2,21.7,15.0,330,4,,10.0,29.84941,1009.9,,TRUE,TRUE,,,,,,,CLR,,,,,,,,VFR,,,,,,,,,,,,METAR,600.0
KSDF 070356Z 25008KT 8SM FEW100 BKN130 OVC250 26/12 A2982 RMK AO2 SLP093 T02560122,KSDF,2023-06-07T03:56:00Z,38.18,-85.73,25.6,12.2,250,8,,8.0,29.819881,1009.3,,,TRUE,,,,,,,FEW,10000,BKN,13000,OVC,25000,,,VFR,,,,,,,,,,,,METAR,146.0
KSBP 070356Z AUTO 00000KT 10SM FEW013 OVC021 14/12 A2991 RMK AO2 RAE0259 SLP129 P0000 T01440117,KSBP,2023-06-07T03:56:00Z,35.23,-120.63,14.4,11.7,0,0,,10.0,29.911417,1012.9,,TRUE,TRUE,,,,,,,FEW,1300,OVC,2100,,,,,MVFR,,,,,,0.005,,,,,,METAR,52.0
KRKD 070356Z AUTO 28008KT 10SM -RA FEW039 SCT055 OVC075 11/10 A2943 RMK AO2 SLP967 P0001 T01110100,KRKD,2023-06-07T03:56:00Z,44.07,-69.1,11.1,10.0,280,8,,10.0,29.430119,996.7,,TRUE,TRUE,,,,,,-RA,FEW,3900,SCT,5500,OVC,7500,,,VFR,,,,,,0.01,,,,,,METAR,15.0
KRDM 070356Z 35007KT 10SM CLR 24/00 A2983 RMK AO2 SLP073 T02440000 PNO,KRDM,2023-06-07T03:56:00Z,44.25,-121.15,24.4,0.0,350,7,,10.0,29.828741,1007.3,,,TRUE,,,,,,,CLR,,,,,,,,VFR,,,,,,,,,,,,METAR,930.0
KPWT 070356Z AUTO 05006KT 10SM CLR 22/04 A2979 RMK AO2 SLP087 T02170039,KPWT,2023-06-07T03:56:00Z,47.5,-122.77,21.7,3.9,50,6,,10.0,29.790354,1008.7,,TRUE,TRUE,,,,,,,CLR,,,,,,,,VFR,,,,,,,,,,,,METAR,143.0
KPWG 070356Z AUTO 00000KT 10SM CLR 23/19 A2991 RMK AO2 SLP120 T02280194,KPWG,2023-06-07T03:56:00Z,31.48,-97.32,22.8,19.4,0,0,,10.0,29.911417,1012.0,,TRUE,TRUE,,,,,,,CLR,,,,,,,,VFR,,,,,,,,,,,,METAR,178.0
KPVU 070356Z AUTO 36011KT 10SM CLR 20/07 A2992 RMK AO2 SLP080 T02000067,KPVU,2023-06-07T03:56:00Z,40.22,-111.72,20.0,6.7,360,11,,10.0,29.920275,1008.0,,TRUE,TRUE,,,,,,,CLR,,,,,,,,VFR,,,,,,,,,,,,METAR,1370.0
KPVG 070356Z AUTO 8SM FEW090 14/14 A2974 RMK AO2 SLP072 T01390139 402720100 $,KPVG,2023-06-07T03:56:00Z,36.78,-76.45,13.9,13.9,,,,8.0,29.740158,1007.2,,TRUE,TRUE,TRUE,,,,,,FEW,9000,,,,,,,VFR,,,,27.2,10.0,,,,,,,METAR,7.0
KPVC 070356Z AUTO 21003KT 10SM SCT070 09/08 A2954 RMK AO2 SLP003 T00890078,KPVC,2023-06-07T03:56:00Z,42.07,-70.22,8.9,7.8,210,3,,10.0,29.53937,1000.3,,TRUE,TRUE,,,,,,,SCT,7000,,,,,,,VFR,,,,,,,,,,,,METAR,1.0
KPTV 070356Z AUTO 17004KT 10SM OVC055 19/11 A2983 RMK AO2 RAB01E15 SLP099 P0000 T01940111,KPTV,2023-06-07T03:56:00Z,36.02,-119.07,19.4,11.1,170,4,,10.0,29.828741,1009.9,,TRUE,TRUE,,,,,,,OVC,5500,,,,,,,VFR,,,,,,0.005,,,,,,METAR,132.0
KPTN 070356Z AUTO 00000KT 7SM CLR 22/21 A2988 RMK AO2 SLP119 T02170211 $,KPTN,2023-06-07T03:56:00Z,29.72,-91.33,21.7,21.1,0,0,,7.0,29.878937,1011.9,,TRUE,TRUE,TRUE,,,,,,CLR,,,,,,,,VFR,,,,,,,,,,,,METAR,2.0
KPRX 070356Z AUTO 00000KT 10SM -RA CLR 21/21 A2991 RMK AO2 SLP124 P0000 T02060206,KPRX,2023-06-07T03:56:00Z,33.63,-95.45,20.6,20.6,0,0,,10.0,29.911417,1012.4,,TRUE,TRUE,,,,,,-RA,CLR,,,,,,,,VFR,,,,,,0.005,,,,,,METAR,165.0
KPQI 070356Z AUTO 34012KT 9SM -RA OVC015 09/08 A2938 RMK AO2 SLP974 P0002 T00940083,KPQI,2023-06-07T03:56:00Z,46.68,-68.05,9.4,8.3,340,12,,9.0,29.379921,997.4,,TRUE,TRUE,,,,,,-RA,OVC,1500,,,,,,,MVFR,,,,,,0.02,,,,,,METAR,154.0
KPIB 070356Z AUTO 00000KT 10SM FEW055 21/21 A2991 RMK AO2 SLP127 T02110211,KPIB,2023-06-07T03:56:00Z,31.47,-89.33,21.1,21.1,0,0,,10.0,29.911417,1012.7,,TRUE,TRUE,,,,,,,FEW,5500,,,,,,,VFR,,,,,,,,,,,,METAR,91.0
KP60 070356Z AUTO 00000KT 10/05 A3020 RMK AO1 SLP165 T01000050,KP60,2023-06-07T03:56:00Z,44.55,-110.42,10.0,5.0,0,0,,,30.200787,1016.5,,TRUE,TRUE,,,,,,,,,,,,,,,,,,,,,,,,,,,METAR,2377.0
KP28 070356Z AUTO 03003KT 17/17 A2997 RMK AO1 SLP136 T01720167 $,KP28,2023-06-07T03:56:00Z,37.28,-98.55,17.2,16.7,30,3,,,29.970472,1013.6,,TRUE,TRUE,TRUE,,,,,,,,,,,,,,,,,,,,,,,,,,SPECI,469.0
KOWB 070356Z AUTO 21003KT 10SM CLR 21/16 A2986 RMK AO2 SLP108 T02110156,KOWB,2023-06-07T03:56:00Z,37.72,-87.17,21.1,15.6,210,3,,10.0,29.861221,1010.8,,TRUE,TRUE,,,,,,,CLR,,,,,,,,VFR,,,,,,,,,,,,METAR,121.0
KOTG 070356Z AUTO 17005KT 10SM CLR 24/16 A2992 RMK AO2 SLP121 T02390161 PNO $,KOTG,2023-06-07T03:56:00Z,43.65,-95.57,23.9,16.1,170,5,,10.0,29.920275,1012.1,,TRUE,TRUE,TRUE,,,,,,CLR,,,,,,,,VFR,,,,,,,,,,,,METAR,478.0
KOLU 070356Z AUTO 16005KT 10SM CLR 24/13 A2992 RMK AO2 SLP120 T02390128,KOLU,2023-06-07T03:56:00Z,41.45,-97.33,23.9,12.8,160,5,,10.0,29.920275,1012.0,,TRUE,TRUE,,,,,,,CLR,,,,,,,,VFR,,,,,,,,,,,,METAR,438.0
KOKK 070356Z AUTO 01006KT 10SM BKN110 20/12 A2989 RMK AO2 SLP115 T02000122 PNO $,KOKK,2023-06-07T03:56:00Z,40.53,-86.07,20.0,12.2,10,6,,10.0,29.890747,1011.5,,TRUE,TRUE,TRUE,,,,,,BKN,11000,,,,,,,VFR,,,,,,,,,,,,METAR,251.0
KOFK 070356Z AUTO 00000KT 10SM 21/13 A2991 RMK AO2 SLP114 T02110133,KOFK,2023-06-07T03:56:00Z,41.98,-97.43,21.1,13.3,0,0,,10.0,29.911417,1011.4,,TRUE,TRUE,,,,,,,,,,,,,,,,,,,,,,,,,,,METAR,476.0
KOCH 070356Z AUTO 00000KT 10SM CLR 22/22 A2989 RMK AO2 SLP123 T02220222,KOCH,2023-06-07T03:56:00Z,31.57,-94.72,22.2,22.2,0,0,,10.0,29.890747,1012.3,,TRUE,TRUE,,,,,,,CLR,,,,,,,,VFR,,,,,,,,,,,,METAR,105.0
KNYG 070356Z AUTO 29008KT 5SM HZ SCT110 21/13 A2971 RMK AO2 SLP063 T02110128 $,KNYG,2023-06-07T03:56:00Z,38.5,-77.3,21.1,12.8,290,8,,5.0,29.71063,1006.3,,TRUE,TRUE,TRUE,,,,,HZ,SCT,11000,,,,,,,MVFR,,,,,,,,,,,,METAR,2.0
KNXP 070356Z AUTO 27005KT 10SM CLR 23/M06 A2983 RMK AO2 SLP070 T02281061,KNXP,2023-06-07T03:56:00Z,34.28,-116.13,22.8,-6.1,270,5,,10.0,29.828741,1007.0,,TRUE,TRUE,,,,,,,CLR,,,,,,,,VFR,,,,,,,,,,,,SPECI,610.0
KNXF 070356Z AUTO 27006KT 10SM SCT020 SCT025 OVC040 17/12 A2992 RMK AO2 SLP217 T01670122 $,KNXF,2023-06-07T03:56:00Z,33.28,-117.45,16.7,12.2,270,6,,10.0,29.920275,1021.7,,TRUE,TRUE,TRUE,,,,,,SCT,2000,SCT,2500,OVC,4000,,,VFR,,,,,,,,,,,,METAR,28.0
KNUC 070356Z 29005KT OVC034 15/ A2994 RMK AO2 SLP135 T0150 $,KNUC,2023-06-07T03:56:00Z,33.02,-118.57,15.0,,290,5,,,29.940945,1013.5,,,TRUE,TRUE,,,,,,OVC,3400,,,,,,,,,,,,,,,,,,,SPECI,52.0
KNTU 070356Z 24006KT 10SM BKN210 BKN300 18/14 A2972 RMK AO2 SLP066 T01830139,KNTU,2023-06-07T03:56:00Z,36.82,-76.02,18.3,13.9,240,6,,10.0,29.719488,1006.6,,,TRUE,,,,,,,BKN,21000,BKN,30000,,,,,VFR,,,,,,,,,,,,SPECI,6.0
KNSE 070356Z 00000KT 10SM FEW035 SCT150 BKN250 21/19 A2989 RMK AO2 SLP108 T02110194 $,KNSE,2023-06-07T03:56:00Z,30.73,-87.02,21.1,19.4,0,0,,10.0,29.890747,1010.8,,,TRUE,TRUE,,,,,,FEW,3500,SCT,15000,BKN,25000,,,VFR,,,,,,,,,,,,SPECI,56.0
KNQI 070356Z 14005KT 10SM FEW250 23/22 A2986 RMK AO2 SLP108 T02330217 $,KNQI,2023-06-07T03:56:00Z,27.5,-97.82,23.3,21.7,140,5,,10.0,29.861221,1010.8,,,TRUE,TRUE,,,,,,FEW,25000,,,,,,,VFR,,,,,,,,,,,,METAR,15.0
KNPA 070356Z AUTO 00000KT 10SM FEW026 22/20 A2988 RMK AO2 SLP121 T02170200,KNPA,2023-06-07T03:56:00Z,30.35,-87.32,21.7,20.0,0,0,,10.0,29.878937,1012.1,,TRUE,TRUE,,,,,,,FEW,2600,,,,,,,VFR,,,,,,,,,,,,METAR,6.0
KNOG 070356Z AUTO 15004KT 10SM CLR 23/21 A2988 RMK AO2 SLP098 T02280211 TSNO PNO $,KNOG,2023-06-07T03:56:00Z,27.9,-98.05,22.8,21.1,150,4,,10.0,29.878937,1009.8,,TRUE,TRUE,TRUE,,TRUE,,,,CLR,,,,,,,,VFR,,,,,,,,,,,,METAR,72.0
KNMM 070356Z 13004KT 10SM FEW065 SCT200 22/19 A2990 RMK AO2 SLP132 T02170189 $,KNMM,2023-06-07T03:56:00Z,32.53,-88.53,21.7,18.9,130,4,,10.0,29.899607,1013.2,,,TRUE,TRUE,,,,,,FEW,6500,SCT,20000,,,,,VFR,,,,,,,,,,,,METAR,94.0
KNLC 070356Z 24012KT 10SM SCT070 BKN140 22/11 A2979 RMK AO2 SLP087 RH/49 T02170106,KNLC,2023-06-07T03:56:00Z,36.32,-119.95,21.7,10.6,240,12,,10.0,29.790354,1008.7,,,TRUE,,,,,,,SCT,7000,BKN,14000,,,,,VFR,,,,,,,,,,,,SPECI,69.0
KNKT 070356Z 25004KT 10SM CLR 20/20 A2979 RMK AO2 SLP083 T02000200,KNKT,2023-06-07T03:56:00Z,34.9,-76.88,20.0,20.0,250,4,,10.0,29.790354,1008.3,,,TRUE,,,,,,,CLR,,,,,,,,VFR,,,,,,,,,,,,METAR,8.0
KNJK 070356Z 28020KT 10SM CLR 25/07 A2972 RMK AO2 SLP079 T02500072 $,KNJK,2023-06-07T03:56:00Z,32.82,-115.67,25.0,7.2,280,20,,10.0,29.719488,1007.9,,,TRUE,TRUE,,,,,,CLR,,,,,,,,VFR,,,,,,,,,,,,METAR,-15.0
KNID 070356Z 18014KT 10SM FEW070 SCT120 BKN200 21/08 A2973 RMK AO2 SLP055 T02110083 $,KNID,2023-06-07T03:56:00Z,35.68,-117.68,21.1,8.3,180,14,,10.0,29.731298,1005.5,,,TRUE,TRUE,,,,,,FEW,7000,SCT,12000,BKN,20000,,,VFR,,,,,,,,,,,,METAR,682.0
KNGP 070356Z 14007KT 10SM FEW022 FEW250 27/21 A2986 RMK AO2 SLP112 T02670211,KNGP,2023-06-07T03:56:00Z,27.68,-97.28,26.7,21.1,140,7,,10.0,29.861221,1011.2,,,TRUE,,,,,,,FEW,2200,FEW,25000,,,,,VFR,,,,,,,,,,,,SPECI,5.0
KNFL 070356Z 36004KT 10SM FEW070 BKN120 BKN150 BKN180 18/07 A2985 RMK AO2 SLP083 CB DSNT E T01830072,KNFL,2023-06-07T03:56:00Z,39.42,-118.7,18.3,7.2,360,4,,10.0,29.84941,1008.3,,,TRUE,,,,,,,FEW,7000,BKN,12000,BKN,15000,BKN,18000,VFR,,,,,,,,,,,,SPECI,1199.0
KNFE 070356Z AUTO 00000KT 10SM CLR 19/12 A2973 RMK AO2 SLP070 T01940122,KNFE,2023-06-07T03:56:00Z,36.7,-76.13,19.4,12.2,0,0,,10.0,29.731298,1007.0,,TRUE,TRUE,,,,,,,CLR,,,,,,,,VFR,,,,,,,,,,,,METAR,4.0
KNDZ 070356Z 13004KT 10SM FEW030 SCT150 BKN250 23/21 A2989 RMK AO2 SLP108 T02280206 $,KNDZ,2023-06-07T03:56:00Z,30.7,-87.02,22.8,20.6,130,4,,10.0,29.890747,1010.8,,,TRUE,TRUE,,,,,,FEW,3000,SCT,15000,BKN,25000,,,VFR,,,,,,,,,,,,METAR,51.0
KNBC 070356Z AUTO 20006KT 10SM CLR 24/21 A2984 RMK AO2 SLP104 T02440206,KNBC,2023-06-07T03:56:00Z,32.47,-80.72,24.4,20.6,200,6,,10.0,29.840551,1010.4,,TRUE,TRUE,,,,,,,CLR,,,,,,,,VFR,,,,,,,,,,,,METAR,9.0
KMYR 070356Z AUTO 25007KT 10SM CLR 23/19 A2981 RMK AO2 SLP093 T02280194,KMYR,2023-06-07T03:56:00Z,33.68,-78.92,22.8,19.4,250,7,,10.0,29.811024,1009.3,,TRUE,TRUE,,,,,,,CLR,,,,,,,,VFR,,,,,,,,,,,,METAR,7.0
KMVN 070356Z AUTO 00000KT 10SM CLR 18/16 A2988 RMK AO2 SLP117 T01830156,KMVN,2023-06-07T03:56:00Z,38.32,-88.87,18.3,15.6,0,0,,10.0,29.878937,1011.7,,TRUE,TRUE,,,,,,,CLR,,,,,,,,VFR,,,,,,,,,,,,METAR,145.0
KMTW 070356Z AUTO 35005KT 10SM CLR 13/04 A2998 RMK AO2 SLP152 T01330039,KMTW,2023-06-07T03:56:00Z,44.12,-87.67,13.3,3.9,350,5,,10.0,29.97933,1015.2,,TRUE,TRUE,,,,,,,CLR,,,,,,,,VFR,,,,,,,,,,,,METAR,197.0
KMRF 070356Z AUTO 32015G22KT 10SM BKN110 21/08 A3012 RMK AO2 PK WND 30028/0311 WSHFT 0308 SLP133 T02110083,KMRF,2023-06-07T03:56:00Z,30.37,-104.02,21.1,8.3,320,15,22,10.0,30.121063,1013.3,,TRUE,TRUE,,,,,,,BKN,11000,,,,,,,VFR,,,,,,,,,,,,METAR,1476.0
KMQY 070356Z AUTO 00000KT 9SM CLR 19/14 A2990 RMK AO2 SLP126 T01890139,KMQY,2023-06-07T03:56:00Z,36.02,-86.52,18.9,13.9,0,0,,9.0,29.899607,1012.6,,TRUE,TRUE,,,,,,,CLR,,,,,,,,VFR,,,,,,,,,,,,METAR,156.0
KMOB 070356Z 00000KT 10SM FEW025 21/19 A2990 RMK AO2 SLP121 T02110194,KMOB,2023-06-07T03:56:00Z,30.68,-88.25,21.1,19.4,0,0,,10.0,29.899607,1012.1,,,TRUE,,,,,,,FEW,2500,,,,,,,VFR,,,,,,,,,,,,METAR,67.0
KMML 070356Z AUTO 14005KT 10SM CLR 24/17 A2990 RMK AO2 SLP117 T02440172 $,KMML,2023-06-07T03:56:00Z,44.45,-95.82,24.4,17.2,140,5,,10.0,29.899607,1011.7,,TRUE,TRUE,TRUE,,,,,,CLR,,,,,,,,VFR,,,,,,,,,,,,METAR,358.0
KMKY 070356Z AUTO 10SM CLR 24/23 A2992 RMK AO2 SLP131 T02440228 403110217 TSNO PNO $,KMKY,2023-06-07T03:56:00Z,26.0,-81.67,24.4,22.8,,,,10.0,29.920275,1013.1,,TRUE,TRUE,TRUE,,TRUE,,,,CLR,,,,,,,,VFR,,,,31.1,21.7,,,,,,,METAR,2.0
KMKT 070356Z AUTO 08007KT 10SM CLR 24/18 A2991 RMK AO2 SLP123 T02390178,KMKT,2023-06-07T03:56:00Z,44.22,-93.92,23.9,17.8,80,7,,10.0,29.911417,1012.3,,TRUE,TRUE,,,,,,,CLR,,,,,,,,VFR,,,,,,,,,,,,METAR,309.0
KMHS 070356Z AUTO VRB03KT 10SM BKN100 16/12 A2990 RMK AO2 RAB26E37 SLP115 P0000 T01560122,KMHS,2023-06-07T03:56:00Z,41.32,-122.32,15.6,12.2,0,3,,10.0,29.899607,1011.5,,TRUE,TRUE,,,,,,,BKN,10000,,,,,,,VFR,,,,,,0.005,,,,,,METAR,1080.0
KMEH 070356Z AUTO 00000KT 10SM CLR 17/07 A2989 RMK AO2 SLP097 T01670072,KMEH,2023-06-07T03:56:00Z,45.52,-118.42,16.7,7.2,0,0,,10.0,29.890747,1009.7,,TRUE,TRUE,,,,,,,CLR,,,,,,,,VFR,,,,,,,,,,,,METAR,1138.0
KMDT 070356Z 33003KT 4SM HZ FU FEW050 19/07 A2972 RMK AO2 SLP061 T01890072,KMDT,2023-06-07T03:56:00Z,40.2,-76.77,18.9,7.2,330,3,,4.0,29.719488,1006.1,,,TRUE,,,,,,HZ FU,FEW,5000,,,,,,,MVFR,,,,,,,,,,,,METAR,91.0
KMBL 070356Z AUTO 00000KT 10SM CLR 08/07 A2995 RMK AO2 SLP144 T00830072 402280078,KMBL,2023-06-07T03:56:00Z,44.27,-86.25,8.3,7.2,0,0,,10.0,29.949802,1014.4,,TRUE,TRUE,,,,,,,CLR,,,,,,,,VFR,,,,22.8,7.8,,,,,,,METAR,187.0
KM19 070356Z AUTO 00000KT 10SM CLR 22/14 A2990 RMK AO2 SLP123 T02170144 PNO $,KM19,2023-06-07T03:56:00Z,35.65,-91.17,21.7,14.4,0,0,,10.0,29.899607,1012.3,,TRUE,TRUE,TRUE,,,,,,CLR,,,,,,,,VFR,,,,,,,,,,,,METAR,72.0
KLZU 070356Z AUTO 00000KT 10SM CLR 20/18 A2988 RMK AO2 SLP118 T02000183 403060194,KLZU,2023-06-07T03:56:00Z,33.98,-83.97,20.0,18.3,0,0,,10.0,29.878937,1011.8,,TRUE,TRUE,,,,,,,CLR,,,,,,,,VFR,,,,30.6,19.4,,,,,,,METAR,316.0
KLWS 070356Z 00000KT 10SM CLR 29/06 A2973 RMK AO2 SLP057 T02890056,KLWS,2023-06-07T03:56:00Z,46.37,-117.02,28.9,5.6,0,0,,10.0,29.731298,1005.7,,,TRUE,,,,,,,CLR,,,,,,,,VFR,,,,,,,,,,,,METAR,435.0
KLRD 070356Z 12009KT 10SM CLR 28/19 A2985 RMK AO2 SLP105 T02780189,KLRD,2023-06-07T03:56:00Z,27.55,-99.47,27.8,18.9,120,9,,10.0,29.84941,1010.5,,,TRUE,,,,,,,CLR,,,,,,,,VFR,,,,,,,,,,,,METAR,150.0
KLNR 070356Z AUTO 08006KT 10SM OVC075 21/12 A2993 RMK AO2 SLP125 T02110117,KLNR,2023-06-07T03:56:00Z,43.22,-90.18,21.1,11.7,80,6,,10.0,29.929134,1012.5,,TRUE,TRUE,,,,,,,OVC,7500,,,,,,,VFR,,,,,,,,,,,,METAR,218.0
KLGD 070356Z AUTO 30012KT 10SM CLR 24/07 A2981 RMK AO2 SLP074 T02440072,KLGD,2023-06-07T03:56:00Z,45.28,-118.0,24.4,7.2,300,12,,10.0,29.811024,1007.4,,TRUE,TRUE,,,,,,,CLR,,,,,,,,VFR,,,,,,,,,,,,METAR,827.0
KLEW 070356Z AUTO 30005KT 10SM -RA OVC070 12/09 A2949 RMK AO2 RAB31 SLP991 P0000 T01220089,KLEW,2023-06-07T03:56:00Z,44.03,-70.28,12.2,8.9,300,5,,10.0,29.489174,999.1,,TRUE,TRUE,,,,,,-RA,OVC,7000,,,,,,,VFR,,,,,,0.005,,,,,,METAR,81.0
KLCI 070356Z AUTO 27010G14KT 10SM FEW045 SCT055 OVC070 13/08 A2954 RMK AO2 RAB35E56 SLP002 P0000 T01330083,KLCI,2023-06-07T03:56:00Z,43.57,-71.42,13.3,8.3,270,10,14,10.0,29.53937,1000.2,,TRUE,TRUE,,,,,,,FEW,4500,SCT,5500,OVC,7000,,,VFR,,,,,,0.005,,,,,,METAR,166.0
KLBT 070356Z AUTO 00000KT 8SM CLR 18/17 A2980 RMK AO2 SLP088 T01830172,KLBT,2023-06-07T03:56:00Z,34.6,-79.07,18.3,17.2,0,0,,8.0,29.799213,1008.8,,TRUE,TRUE,,,,,,,CLR,,,,,,,,VFR,,,,,,,,,,,,METAR,37.0
KLBL 070356Z AUTO 14011KT 10SM CLR 20/16 A3000 RMK AO2 SLP132 T02000156,KLBL,2023-06-07T03:56:00Z,37.03,-100.97,20.0,15.6,140,11,,10.0,30.0,1013.2,,TRUE,TRUE,,,,,,,CLR,,,,,,,,VFR,,,,,,,,,,,,METAR,877.0
KLAS 070356Z 17011G18KT 10SM FEW220 28/M11 A2972 RMK AO2 SLP039 T02831106,KLAS,2023-06-07T03:56:00Z,36.07,-115.17,28.3,-10.6,170,11,18,10.0,29.719488,1003.9,,,TRUE,,,,,,,FEW,22000,,,,,,,VFR,,,,,,,,,,,,METAR,662.0
KKLS 070356Z AUTO 01003KT CLR 26/08 A2973 RMK AO2 SLP072 T02560078 PWINO $,KKLS,2023-06-07T03:56:00Z,46.12,-122.9,25.6,7.8,10,3,,,29.731298,1007.2,,TRUE,TRUE,TRUE,,,,TRUE,,CLR,,,,,,,,,,,,,,,,,,,,METAR,4.0
KJXN 070356Z AUTO 00000KT 10SM CLR 09/06 A2992 RMK AO2 SLP129 T00890061,KJXN,2023-06-07T03:56:00Z,42.27,-84.47,8.9,6.1,0,0,,10.0,29.920275,1012.9,,TRUE,TRUE,,,,,,,CLR,,,,,,,,VFR,,,,,,,,,,,,METAR,303.0
KJRB 070356Z AUTO 00000KT 5SM HZ CLR 18/09 A2966 RMK AO2 SLP042 T01830089 402720172,KJRB,2023-06-07T03:56:00Z,40.7,-74.02,18.3,8.9,0,0,,5.0,29.660433,1004.2,,TRUE,TRUE,,,,,,HZ,CLR,,,,,,,,MVFR,,,,27.2,17.2,,,,,,,METAR,2.0
KJMS 070356Z AUTO 20003KT 10SM FEW120 23/16 A2987 RMK AO2 SLP104 T02330156,KJMS,2023-06-07T03:56:00Z,46.93,-98.67,23.3,15.6,200,3,,10.0,29.870079,1010.4,,TRUE,TRUE,,,,,,,FEW,12000,,,,,,,VFR,,,,,,,,,,,,METAR,455.0
KJHW 070356Z AUTO 34006KT 10SM CLR 12/08 A2982 RMK AO2 SLP099 T01220078 PNO $,KJHW,2023-06-07T03:56:00Z,42.15,-79.27,12.2,7.8,340,6,,10.0,29.819881,1009.9,,TRUE,TRUE,TRUE,,,,,,CLR,,,,,,,,VFR,,,,,,,,,,,,METAR,520.0
KJAX 070356Z 18007KT 10SM FEW090 FEW250 24/19 A2990 RMK AO2 SLP124 T02390189,KJAX,2023-06-07T03:56:00Z,30.5,-81.68,23.9,18.9,180,7,,10.0,29.899607,1012.4,,,TRUE,,,,,,,FEW,9000,FEW,25000,,,,,VFR,,,,,,,,,,,,METAR,8.0
KJAC 070356Z AUTO 00000KT 10SM CLR 13/06 A3008 RMK AO2 SLP139 T01330061,KJAC,2023-06-07T03:56:00Z,43.62,-110.73,13.3,6.1,0,0,,10.0,30.079725,1013.9,,TRUE,TRUE,,,,,,,CLR,,,,,,,,VFR,,,,,,,,,,,,METAR,1967.0
KIWD 070356Z AUTO 07004KT 10SM SCT110 12/07 A3004 RMK AO2 SLP174 T01170067,KIWD,2023-06-07T03:56:00Z,46.52,-90.12,11.7,6.7,70,4,,10.0,30.041338,1017.4,,TRUE,TRUE,,,,,,,SCT,11000,,,,,,,VFR,,,,,,,,,,,,METAR,373.0
KITH 070356Z AUTO 36003KT 4SM HZ CLR 11/07 A2976 RMK AO2 SLP075 T01060067 401780078,KITH,2023-06-07T03:56:00Z,42.48,-76.45,10.6,6.7,360,3,,4.0,29.760826,1007.5,,TRUE,TRUE,,,,,,HZ,CLR,,,,,,,,MVFR,,,,17.8,7.8,,,,,,,METAR,338.0
KISP 070356Z 33009KT 6SM HZ OVC046 15/08 A2962 RMK AO2 SLP029 LAST T01500078,KISP,2023-06-07T03:56:00Z,40.8,-73.1,15.0,7.8,330,9,,6.0,29.619095,1002.9,,,TRUE,,,,,,HZ,OVC,4600,,,,,,,VFR,,,,,,,,,,,,METAR,25.0
KISM 070356Z AUTO 13005KT 10SM CLR 24/19 A2994 RMK AO2 SLP137 T02390194 PNO $,KISM,2023-06-07T03:56:00Z,28.28,-81.43,23.9,19.4,130,5,,10.0,29.940945,1013.7,,TRUE,TRUE,TRUE,,,,,,CLR,,,,,,,,VFR,,,,,,,,,,,,METAR,25.0
KINW 070356Z AUTO 24009KT 10SM CLR 19/M09 A2994 RMK AO2 SLP063 T01891089 $,KINW,2023-06-07T03:56:00Z,35.03,-110.72,18.9,-8.9,240,9,,10.0,29.940945,1006.3,,TRUE,TRUE,TRUE,,,,,,CLR,,,,,,,,VFR,,,,,,,,,,,,METAR,1492.0
KILE 070356Z AUTO 00000KT 10SM CLR 22/19 A2991 RMK AO2 SLP118 T02170189,KILE,2023-06-07T03:56:00Z,31.08,-97.68,21.7,18.9,0,0,,10.0,29.911417,1011.8,,TRUE,TRUE,,,,,,,CLR,,,,,,,,VFR,,,,,,,,,,,,METAR,256.0
KHYS 070356Z AUTO 18004KT 10SM CLR 21/15 A2998 RMK AO2 SLP136 T02060150 $,KHYS,2023-06-07T03:56:00Z,38.85,-99.27,20.6,15.0,180,4,,10.0,29.97933,1013.6,,TRUE,TRUE,TRUE,,,,,,CLR,,,,,,,,VFR,,,,,,,,,,,,METAR,607.0
KHYI 070356Z 00000KT 10SM CLR 21/21 A2990 RMK AO2 SLP116 T02110206,KHYI,2023-06-07T03:56:00Z,29.88,-97.87,21.1,20.6,0,0,,10.0,29.899607,1011.6,,,TRUE,,,,,,,CLR,,,,,,,,VFR,,,,,,,,,,,,METAR,180.0
KHYA 070356Z AUTO 00000KT 4SM BR BKN090 10/10 A2953 RMK AO2 SLP000 T01000100,KHYA,2023-06-07T03:56:00Z,41.67,-70.27,10.0,10.0,0,0,,4.0,29.530512,1000.0,,TRUE,TRUE,,,,,,BR,BKN,9000,,,,,,,MVFR,,,,,,,,,,,,METAR,11.0
KHWV 070356Z AUTO 34005KT 5SM HZ OVC055 13/08 A2962 RMK AO2 SLP030 T01280083,KHWV,2023-06-07T03:56:00Z,40.82,-72.87,12.8,8.3,340,5,,5.0,29.619095,1003.0,,TRUE,TRUE,,,,,,HZ,OVC,5500,,,,,,,MVFR,,,,,,,,,,,,METAR,20.0
KHPN 070356Z 30006KT 3SM FU FEW046 13/08 A2964 RMK AO2 SLP035 T01330078,KHPN,2023-06-07T03:56:00Z,41.07,-73.7,13.3,7.8,300,6,,3.0,29.639763,1003.5,,,TRUE,,,,,,FU,FEW,4600,,,,,,,MVFR,,,,,,,,,,,,METAR,113.0
KHND 070356Z AUTO 17012KT 10SM CLR 27/M11 A2976 RMK AO2 SLP065 T02721106,KHND,2023-06-07T03:56:00Z,35.98,-115.13,27.2,-10.6,170,12,,10.0,29.760826,1006.5,,TRUE,TRUE,,,,,,,CLR,,,,,,,,VFR,,,,,,,,,,,,METAR,740.0
KHNB 070356Z AUTO 27003KT 10SM BKN110 23/14 A2985 RMK AO2 SLP103 T02280144,KHNB,2023-06-07T03:56:00Z,38.25,-86.95,22.8,14.4,270,3,,10.0,29.84941,1010.3,,TRUE,TRUE,,,,,,,BKN,11000,,,,,,,VFR,,,,,,,,,,,,METAR,159.0
KHEZ 070356Z AUTO 16003KT 10SM CLR 23/21 A2990 RMK AO2 SLP121 T02280206,KHEZ,2023-06-07T03:56:00Z,31.62,-91.3,22.8,20.6,160,3,,10.0,29.899607,1012.1,,TRUE,TRUE,,,,,,,CLR,,,,,,,,VFR,,,,,,,,,,,,METAR,82.0
KHEF 070356Z AUTO 30007KT 10SM OVC110 22/11 A2972 RMK AO2 SLP068 T02170111 402780083,KHEF,2023-06-07T03:56:00Z,38.72,-77.52,21.7,11.1,300,7,,10.0,29.719488,1006.8,,TRUE,TRUE,,,,,,,OVC,11000,,,,,,,VFR,,,,27.8,8.3,,,,,,,METAR,53.0
KHDN 070356Z AUTO 00000KT 10SM BKN085 BKN110 15/06 A3011 RMK AO2 SLP124 T01500061,KHDN,2023-06-07T03:56:00Z,40.48,-107.22,15.0,6.1,0,0,,10.0,30.109253,1012.4,,TRUE,TRUE,,,,,,,BKN,8500,BKN,11000,,,,,VFR,,,,,,,,,,,,METAR,2012.0
KGXY 070356Z AUTO 03004KT 10SM CLR 18/13 A3002 RMK AO2 SLP134 T01830133,KGXY,2023-06-07T03:56:00Z,40.43,-104.62,18.3,13.3,30,4,,10.0,30.02067,1013.4,,TRUE,TRUE,,,,,,,CLR,,,,,,,,VFR,,,,,,,,,,,,METAR,1420.0
KGVQ 070356Z AUTO 26003KT 6SM HZ OVC024 13/06 A2979 RMK AO2 SLP087 T01280061,KGVQ,2023-06-07T03:56:00Z,43.03,-78.17,12.8,6.1,260,3,,6.0,29.790354,1008.7,,TRUE,TRUE,,,,,,HZ,OVC,2400,,,,,,,MVFR,,,,,,,,,,,,METAR,279.0
KGUC 070356Z AUTO 23011G21KT 10SM CLR 13/04 A3019 RMK AO2 SLP152 T01330044,KGUC,2023-06-07T03:56:00Z,38.52,-106.93,13.3,4.4,230,11,21,10.0,30.188976,1015.2,,TRUE,TRUE,,,,,,,CLR,,,,,,,,VFR,,,,,,,,,,,,METAR,2337.0
KGTU 070356Z AUTO 00000KT 10SM CLR 22/20 A2992 RMK AO2 SLP124 T02220200,KGTU,2023-06-07T03:56:00Z,30.68,-97.68,22.2,20.0,0,0,,10.0,29.920275,1012.4,,TRUE,TRUE,,,,,,,CLR,,,,,,,,VFR,,,,,,,,,,,,METAR,232.0
KGTR 070356Z AUTO 20003KT 10SM CLR 22/21 A2988 RMK AO2 SLP124 T02170211,KGTR,2023-06-07T03:56:00Z,33.45,-88.58,21.7,21.1,200,3,,10.0,29.878937,1012.4,,TRUE,TRUE,,,,,,,CLR,,,,,,,,VFR,,,,,,,,,,,,METAR,80.0
KGRD 070356Z AUTO 35003KT 7SM CLR 19/18 A2985 RMK AO2 SLP101 T01940183,KGRD,2023-06-07T03:56:00Z,34.25,-82.15,19.4,18.3,350,3,,7.0,29.84941,1010.1,,TRUE,TRUE,,,,,,,CLR,,,,,,,,VFR,,,,,,,,,,,,METAR,188.0
KGPZ 070356Z AUTO VRB06KT 10SM CLR 14/03 A3003 RMK AO2 SLP169 T01440028,KGPZ,2023-06-07T03:56:00Z,47.22,-93.52,14.4,2.8,0,6,,10.0,30.029528,1016.9,,TRUE,TRUE,,,,,,,CLR,,,,,,,,VFR,,,,,,,,,,,,METAR,410.0
KGON 070356Z AUTO 29007KT 6SM FU OVC100 16/06 A2958 RMK AO2 SLP016 T01610061 $,KGON,2023-06-07T03:56:00Z,41.33,-72.05,16.1,6.1,290,7,,6.0,29.58071,1001.6,,TRUE,TRUE,TRUE,,,,,FU,OVC,10000,,,,,,,VFR,,,,,,,,,,,,METAR,2.0
KGNR 070356Z AUTO 33012G19KT 08/07 A2940 RMK AO1 SLP961 P0002 T00830072,KGNR,2023-06-07T03:56:00Z,45.47,-69.55,8.3,7.2,330,12,19,,29.40059,996.1,,TRUE,TRUE,,,,,,,,,,,,,,,,,,,,,0.02,,,,,,METAR,426.0
KGNA 070356Z AUTO 00000KT 07/04 A3006 RMK AO1 SLP183 T00670044,KGNA,2023-06-07T03:56:00Z,47.75,-90.35,6.7,4.4,0,0,,,30.059055,1018.3,,TRUE,TRUE,,,,,,,,,,,,,,,,,,,,,,,,,,,METAR,186.0
KGFL 070356Z AUTO 27006KT 3SM BR CLR 11/09 A2965 RMK AO2 T01060094,KGFL,2023-06-07T03:56:00Z,43.33,-73.62,10.6,9.4,270,6,,3.0,29.648623,,,TRUE,TRUE,,,,,,BR,CLR,,,,,,,,MVFR,,,,,,,,,,,,METAR,99.0
KGDV 070356Z AUTO 05004KT 10SM CLR 24/15 A2987 RMK AO2 SLP093 T02390150 TSNO,KGDV,2023-06-07T03:56:00Z,47.13,-104.8,23.9,15.0,50,4,,10.0,29.870079,1009.3,,TRUE,TRUE,,,TRUE,,,,CLR,,,,,,,,VFR,,,,,,,,,,,,METAR,749.0
KGBD 070356Z AUTO 20006KT 10SM CLR 20/17 A2998 RMK AO2 SLP136 T02000167,KGBD,2023-06-07T03:56:00Z,38.35,-98.87,20.0,16.7,200,6,,10.0,29.97933,1013.6,,TRUE,TRUE,,,,,,,CLR,,,,,,,,VFR,,,,,,,,,,,,METAR,573.0
KGAI 070356Z AUTO 00000KT 10SM SCT085 18/11 A2972 RMK AO2 SLP074 T01780106,KGAI,2023-06-07T03:56:00Z,39.17,-77.17,17.8,10.6,0,0,,10.0,29.719488,1007.4,,TRUE,TRUE,,,,,,,SCT,8500,,,,,,,VFR,,,,,,,,,,,,METAR,151.0
KGAD 070356Z AUTO 00000KT 10SM CLR 21/21 A2988 RMK AO2 SLP116 T02110206 PNO $,KGAD,2023-06-07T03:56:00Z,33.97,-86.08,21.1,20.6,0,0,,10.0,29.878937,1011.6,,TRUE,TRUE,TRUE,,,,,,CLR,,,,,,,,VFR,,,,,,,,,,,,METAR,169.0
KFSD 070356Z 00000KT 10SM FEW130 SCT250 26/13 A2988 RMK AO2 SLP106 T02610128,KFSD,2023-06-07T03:56:00Z,43.58,-96.75,26.1,12.8,0,0,,10.0,29.878937,1010.6,,,TRUE,,,,,,,FEW,13000,SCT,25000,,,,,VFR,,,,,,,,,,,,METAR,433.0
KFRM 070356Z AUTO 07005KT 10SM CLR 23/16 A2991 RMK AO2 SLP123 T02330161,KFRM,2023-06-07T03:56:00Z,43.63,-94.42,23.3,16.1,70,5,,10.0,29.911417,1012.3,,TRUE,TRUE,,,,,,,CLR,,,,,,,,VFR,,,,,,,,,,,,METAR,353.0
KFOD 070356Z AUTO 00000KT 10SM BKN120 21/18 A2990 RMK AO2 SLP130 T02110183,KFOD,2023-06-07T03:56:00Z,42.53,-94.17,21.1,18.3,0,0,,10.0,29.899607,1013.0,,TRUE,TRUE,,,,,,,BKN,12000,,,,,,,VFR,,,,,,,,,,,,METAR,347.0
KFNL 070356Z 35006KT 10SM CLR 16/12 A3004 RMK AO2 SLP127 T01610117,KFNL,2023-06-07T03:56:00Z,40.45,-105.02,16.1,11.7,350,6,,10.0,30.041338,1012.7,,,TRUE,,,,,,,CLR,,,,,,,,VFR,,,,,,,,,,,,METAR,1529.0
KFLP 070356Z AUTO 00000KT 7SM CLR 18/15 A2993 RMK AO2 SLP131 T01830150,KFLP,2023-06-07T03:56:00Z,36.28,-92.58,18.3,15.0,0,0,,7.0,29.929134,1013.1,,TRUE,TRUE,,,,,,,CLR,,,,,,,,VFR,,,,,,,,,,,,METAR,215.0
KFKL 070356Z AUTO 00000KT 10SM CLR 13/07 A2982 RMK AO2 SLP092 T01280067,KFKL,2023-06-07T03:56:00Z,41.37,-79.87,12.8,6.7,0,0,,10.0,29.819881,1009.2,,TRUE,TRUE,,,,,,,CLR,,,,,,,,VFR,,,,,,,,,,,,METAR,468.0
KFCI 070356Z AUTO 27006KT 10SM CLR 19/13 RMK AO2 SLPNO T01940133 402610111 $,KFCI,2023-06-07T03:56:00Z,37.4,-77.52,19.4,13.3,270,6,,10.0,,,,TRUE,TRUE,TRUE,,,,,,CLR,,,,,,,,VFR,,,,26.1,11.1,,,,,,,METAR,63.0
KFAM 070356Z AUTO 00000KT 10SM CLR 18/14 A2993 RMK AO2 SLP137 T01830144,KFAM,2023-06-07T03:56:00Z,37.77,-90.42,18.3,14.4,0,0,,10.0,29.929134,1013.7,,TRUE,TRUE,,,,,,,CLR,,,,,,,,VFR,,,,,,,,,,,,METAR,276.0
KEWK 070356Z AUTO 20007KT 10SM CLR 21/17 A2997 RMK AO2 SLP134 T02060172,KEWK,2023-06-07T03:56:00Z,38.05,-97.27,20.6,17.2,200,7,,10.0,29.970472,1013.4,,TRUE,TRUE,,,,,,,CLR,,,,,,,,VFR,,,,,,,,,,,,METAR,468.0
KESC 070356Z AUTO 32003KT 10SM CLR 09/04 A3001 RMK AO2 SLP168 T00890039,KESC,2023-06-07T03:56:00Z,45.72,-87.08,8.9,3.9,320,3,,10.0,30.008858,1016.8,,TRUE,TRUE,,,,,,,CLR,,,,,,,,VFR,,,,,,,,,,,,METAR,180.0
KENV 070356Z AUTO 00000KT 10SM CLR 21/05 A2988 RMK AO2 SLP082 T02060050 PNO $,KENV,2023-06-07T03:56:00Z,40.72,-114.02,20.6,5.0,0,0,,10.0,29.878937,1008.2,,TRUE,TRUE,TRUE,,,,,,CLR,,,,,,,,VFR,,,,,,,,,,,,METAR,1291.0
KELZ 070356Z AUTO 33005KT 5SM HZ BKN048 OVC070 12/04 A2980 RMK AO2 SLP085 T01170044,KELZ,2023-06-07T03:56:00Z,42.1,-77.98,11.7,4.4,330,5,,5.0,29.799213,1008.5,,TRUE,TRUE,,,,,,HZ,BKN,4800,OVC,7000,,,,,MVFR,,,,,,,,,,,,METAR,639.0
KEKY 070356Z AUTO 21005KT 10SM CLR 21/18 A2990 RMK AO2 SLP971 T02110178,KEKY,2023-06-07T03:56:00Z,33.32,-86.93,21.1,17.8,210,5,,10.0,29.899607,997.1,,TRUE,TRUE,,,,,,,CLR,,,,,,,,VFR,,,,,,,,,,,,METAR,213.0
KEKQ 070356Z AUTO 00000KT 10SM CLR 17/13 A2991 RMK AO2 SLP116 T01670133 402890128,KEKQ,2023-06-07T03:56:00Z,36.85,-84.85,16.7,13.3,0,0,,10.0,29.911417,1011.6,,TRUE,TRUE,,,,,,,CLR,,,,,,,,VFR,,,,28.9,12.8,,,,,,,METAR,291.0
KEKO 070356Z AUTO 06007KT 10SM CLR 17/08 A2989 RMK AO2 SLP078 T01720078 $,KEKO,2023-06-07T03:56:00Z,40.82,-115.78,17.2,7.8,60,7,,10.0,29.890747,1007.8,,TRUE,TRUE,TRUE,,,,,,CLR,,,,,,,,VFR,,,,,,,,,,,,METAR,1541.0
KEHR 070356Z AUTO 26004KT 10SM CLR 19/15 A2987 RMK AO2 SLPNO T01940150 $,KEHR,2023-06-07T03:56:00Z,37.82,-87.67,19.4,15.0,260,4,,10.0,29.870079,,,TRUE,TRUE,TRUE,,,,,,CLR,,,,,,,,VFR,,,,,,,,,,,,METAR,117.0
KEGE 070356Z AUTO 31003KT 10SM CLR 16/08 A3012 RMK AO2 SLP105 T01560078,KEGE,2023-06-07T03:56:00Z,39.63,-106.92,15.6,7.8,310,3,,10.0,30.121063,1010.5,,TRUE,TRUE,,,,,,,CLR,,,,,,,,VFR,,,,,,,,,,,,METAR,1993.0
KEEN 070356Z AUTO 00000KT 7SM FEW055 BKN070 OVC110 11/11 A2959 RMK AO2 SLP025 T01110106 $,KEEN,2023-06-07T03:56:00Z,42.88,-72.27,11.1,10.6,0,0,,7.0,29.589567,1002.5,,TRUE,TRUE,TRUE,,,,,,FEW,5500,BKN,7000,OVC,11000,,,VFR,,,,,,,,,,,,METAR,143.0
KEED 070356Z AUTO 20014KT 10SM CLR 30/M03 A2969 RMK AO2 SLP021 T03001033,KEED,2023-06-07T03:56:00Z,34.77,-114.62,30.0,-3.3,200,14,,10.0,29.68996,1002.1,,TRUE,TRUE,,,,,,,CLR,,,,,,,,VFR,,,,,,,,,,,,METAR,271.0
KEAU 070356Z AUTO 03005KT 10SM CLR 21/14 A2994 RMK AO2 SLP133 T02060139,KEAU,2023-06-07T03:56:00Z,44.87,-91.48,20.6,13.9,30,5,,10.0,29.940945,1013.3,,TRUE,TRUE,,,,,,,CLR,,,,,,,,VFR,,,,,,,,,,,,METAR,271.0
KEAR 070356Z AUTO 18006KT 10SM CLR 21/16 A2996 RMK AO2 SLP128 T02110161,KEAR,2023-06-07T03:56:00Z,40.72,-99.0,21.1,16.1,180,6,,10.0,29.958662,1012.8,,TRUE,TRUE,,,,,,,CLR,,,,,,,,VFR,,,,,,,,,,,,METAR,649.0
KDYR 070356Z AUTO 00000KT 10SM CLR 20/17 A2989 RMK AO2 SLP124 T02000167,KDYR,2023-06-07T03:56:00Z,36.0,-89.4,20.0,16.7,0,0,,10.0,29.890747,1012.4,,TRUE,TRUE,,,,,,,CLR,,,,,,,,VFR,,,,,,,,,,,,METAR,98.0
KDWU 070356Z AUTO 00000KT 10SM -RA SCT065 OVC085 19/19 A2984 RMK AO2 RAB0259 SLP103 P0000 T01940194 402780094,KDWU,2023-06-07T03:56:00Z,38.55,-82.73,19.4,19.4,0,0,,10.0,29.840551,1010.3,,TRUE,TRUE,,,,,,-RA,SCT,6500,OVC,8500,,,,,VFR,,,,27.8,9.4,0.005,,,,,,METAR,165.0
KDVL 070356Z AUTO 11007KT 10SM CLR 24/18 A2987 RMK AO2 SLP120 T02440178,KDVL,2023-06-07T03:56:00Z,48.12,-98.92,24.4,17.8,110,7,,10.0,29.870079,1012.0,,TRUE,TRUE,,,,,,,CLR,,,,,,,,VFR,,,,,,,,,,,,METAR,439.0
KDUG 070356Z AUTO 18005KT 10SM CLR 21/M09 A2994 RMK AO2 SLP072 T02061094 TSNO $,KDUG,2023-06-07T03:56:00Z,31.47,-109.6,20.6,-9.4,180,5,,10.0,29.940945,1007.2,,TRUE,TRUE,TRUE,,TRUE,,,,CLR,,,,,,,,VFR,,,,,,,,,,,,SPECI,1260.0
KDIK 070356Z AUTO 17006KT 10SM CLR 19/13 A2989 RMK AO2 SLP101 T01890133,KDIK,2023-06-07T03:56:00Z,46.8,-102.8,18.9,13.3,170,6,,10.0,29.890747,1010.1,,TRUE,TRUE,,,,,,,CLR,,,,,,,,VFR,,,,,,,,,,,,METAR,788.0
KDIJ 070356Z AUTO 00000KT 10SM CLR 14/06 A3006 RMK AO2 SLP121 T01390061,KDIJ,2023-06-07T03:56:00Z,43.75,-111.1,13.9,6.1,0,0,,10.0,30.059055,1012.1,,TRUE,TRUE,,,,,,,CLR,,,,,,,,VFR,,,,,,,,,,,,METAR,1896.0
KDAY 070356Z 00000KT 5SM BR CLR 16/14 A2987 RMK AO2 SLP108 T01560139,KDAY,2023-06-07T03:56:00Z,39.9,-84.22,15.6,13.9,0,0,,5.0,29.870079,1010.8,,,TRUE,,,,,,BR,CLR,,,,,,,,MVFR,,,,,,,,,,,,METAR,303.0
KD07 070356Z AUTO 15008KT 23/12 A2991 RMK AO1 SLP109 T02280122 $,KD07,2023-06-07T03:56:00Z,45.03,-102.02,22.8,12.2,150,8,,,29.911417,1010.9,,TRUE,TRUE,TRUE,,,,,,,,,,,,,,,,,,,,,,,,,,METAR,786.0
KCXY 070356Z AUTO 03004KT 4SM HZ OVC050 21/06 A2972 RMK AO2 SLP064 T02060056,KCXY,2023-06-07T03:56:00Z,40.22,-76.85,20.6,5.6,30,4,,4.0,29.719488,1006.4,,TRUE,TRUE,,,,,,HZ,OVC,5000,,,,,,,MVFR,,,,,,,,,,,,METAR,102.0
KCWI 070356Z AUTO 09007KT 9SM BKN070 OVC080 20/18 A2991 RMK AO2 SLP125 T02000178,KCWI,2023-06-07T03:56:00Z,41.82,-90.32,20.0,17.8,90,7,,9.0,29.911417,1012.5,,TRUE,TRUE,,,,,,,BKN,7000,OVC,8000,,,,,VFR,,,,,,,,,,,,METAR,212.0
KCVO 070356Z AUTO 31012KT 10SM CLR 24/08 A2972 RMK AO2 SLP063 T02390083,KCVO,2023-06-07T03:56:00Z,44.5,-123.28,23.9,8.3,310,12,,10.0,29.719488,1006.3,,TRUE,TRUE,,,,,,,CLR,,,,,,,,VFR,,,,,,,,,,,,METAR,75.0
KCVN 070356Z AUTO 11007KT 10SM CLR 18/14 A3007 RMK AO2 SLP148 T01830139,KCVN,2023-06-07T03:56:00Z,34.42,-103.07,18.3,13.9,110,7,,10.0,30.070866,1014.8,,TRUE,TRUE,,,,,,,CLR,,,,,,,,VFR,,,,,,,,,,,,METAR,1278.0
KCTB 070356Z AUTO 08003KT 10SM CLR 16/09 A2999 RMK AO2 SLP142 T01610094,KCTB,2023-06-07T03:56:00Z,48.6,-112.37,16.1,9.4,80,3,,10.0,29.991142,1014.2,,TRUE,TRUE,,,,,,,CLR,,,,,,,,VFR,,,,,,,,,,,,METAR,1172.0
KCOE 070356Z AUTO 00000KT 10SM CLR 23/08 A2981 RMK AO2 SLP092 T02330083 PNO $,KCOE,2023-06-07T03:56:00Z,47.77,-116.82,23.3,8.3,0,0,,10.0,29.811024,1009.2,,TRUE,TRUE,TRUE,,,,,,CLR,,,,,,,,VFR,,,,,,,,,,,,METAR,693.0
KCOD 070356Z AUTO 35003KT 10SM FEW110 16/14 A3006 RMK AO2 SLP134 T01610139,KCOD,2023-06-07T03:56:00Z,44.52,-109.02,16.1,13.9,350,3,,10.0,30.059055,1013.4,,TRUE,TRUE,,,,,,,FEW,11000,,,,,,,VFR,,,,,,,,,,,,METAR,1550.0
KCIU 070356Z AUTO 34006KT 10SM CLR 10/05 A2998 RMK AO2 SLP151 T01000050,KCIU,2023-06-07T03:56:00Z,46.25,-84.47,10.0,5.0,340,6,,10.0,29.97933,1015.1,,TRUE,TRUE,,,,,,,CLR,,,,,,,,VFR,,,,,,,,,,,,METAR,242.0
KCHS 070356Z 21010KT 10SM FEW040 FEW065 22/18 A2982 RMK AO2 TSE17 SLP098 OCNL LTGIC DSNT N CB DSNT N T02170183,KCHS,2023-06-07T03:56:00Z,32.9,-80.03,21.7,18.3,210,10,,10.0,29.819881,1009.8,,,TRUE,,,,,,,FEW,4000,FEW,6500,,,,,VFR,,,,,,,,,,,,METAR,12.0
KCGZ 070356Z AUTO 22009KT 10SM CLR 28/01 A2978 RMK AO2 SLP069 T02830011 PNO $,KCGZ,2023-06-07T03:56:00Z,32.95,-111.77,28.3,1.1,220,9,,10.0,29.778543,1006.9,,TRUE,TRUE,TRUE,,,,,,CLR,,,,,,,,VFR,,,,,,,,,,,,METAR,444.0
KCEC 070356Z AUTO 16007KT 10SM OVC014 11/11 A2991 RMK AO2 SLP129 T01110106,KCEC,2023-06-07T03:56:00Z,41.78,-124.23,11.1,10.6,160,7,,10.0,29.911417,1012.9,,TRUE,TRUE,,,,,,,OVC,1400,,,,,,,MVFR,,,,,,,,,,,,METAR,17.0
KCAE 070356Z 33005KT 10SM BKN150 25/18 A2980 RMK AO2 LTG DSNT NE SLP086 CB DSNT NE T02500178 $,KCAE,2023-06-07T03:56:00Z,33.93,-81.12,25.0,17.8,330,5,,10.0,29.799213,1008.6,,,TRUE,TRUE,,,,,,BKN,15000,,,,,,,VFR,,,,,,,,,,,,METAR,69.0
KBZN 070356Z 21005KT 10SM FEW050 SCT090 19/12 A2999 RMK AO2 SLP121 T01940117,KBZN,2023-06-07T03:56:00Z,45.78,-111.17,19.4,11.7,210,5,,10.0,29.991142,1012.1,,,TRUE,,,,,,,FEW,5000,SCT,9000,,,,,VFR,,,,,,,,,,,,METAR,1349.0
KBTP 070356Z AUTO 00000KT 10SM CLR 14/05 A2980 RMK AO2 SLP094 T01390050 TSNO $,KBTP,2023-06-07T03:56:00Z,40.77,-79.95,13.9,5.0,0,0,,10.0,29.799213,1009.4,,TRUE,TRUE,TRUE,,TRUE,,,,CLR,,,,,,,,VFR,,,,,,,,,,,,METAR,375.0
KBOK 070356Z AUTO 16003KT 10SM BKN009 OVC120 12/11 A2992 RMK AO2 SLP131 T01220111,KBOK,2023-06-07T03:56:00Z,42.07,-124.28,12.2,11.1,160,3,,10.0,29.920275,1013.1,,TRUE,TRUE,,,,,,,BKN,900,OVC,12000,,,,,IFR,,,,,,,,,,,,METAR,140.0
KBMI 070356Z AUTO 01007KT 9SM OVC070 21/17 A2993 RMK AO2 SLP124 T02110167,KBMI,2023-06-07T03:56:00Z,40.47,-88.92,21.1,16.7,10,7,,9.0,29.929134,1012.4,,TRUE,TRUE,,,,,,,OVC,7000,,,,,,,VFR,,,,,,,,,,,,METAR,262.0
KBLM 070356Z AUTO 31004KT 4SM HZ FEW045 16/09 A2967 RMK AO2 SLP047 T01610089,KBLM,2023-06-07T03:56:00Z,40.17,-74.12,16.1,8.9,310,4,,4.0,29.66929,1004.7,,TRUE,TRUE,,,,,,HZ,FEW,4500,,,,,,,MVFR,,,,,,,,,,,,METAR,45.0
KBKX 070356Z AUTO 13007KT 10SM BKN120 23/16 A2990 RMK AO2 SLP124 T02330161,KBKX,2023-06-07T03:56:00Z,44.3,-96.82,23.3,16.1,130,7,,10.0,29.899607,1012.4,,TRUE,TRUE,,,,,,,BKN,12000,,,,,,,VFR,,,,,,,,,,,,METAR,494.0
KBJJ 070356Z AUTO 36008KT 7SM CLR 12/06 A2985 RMK AO2 SLP106 T01170056,KBJJ,2023-06-07T03:56:00Z,40.87,-81.88,11.7,5.6,360,8,,7.0,29.84941,1010.6,,TRUE,TRUE,,,,,,,CLR,,,,,,,,VFR,,,,,,,,,,,,METAR,338.0
KBIH 070356Z AUTO 14011KT 10SM CLR 20/M03 A2978 RMK AO2 SLP044 T02001028,KBIH,2023-06-07T03:56:00Z,37.37,-118.35,20.0,-2.8,140,11,,10.0,29.778543,1004.4,,TRUE,TRUE,,,,,,,CLR,,,,,,,,VFR,,,,,,,,,,,,METAR,1252.0
KBID 070356Z AUTO 31006KT 6SM HZ CLR 13/07 A2958 RMK AO2 SLP018 T01330072 401890133,KBID,2023-06-07T03:56:00Z,41.17,-71.58,13.3,7.2,310,6,,6.0,29.58071,1001.8,,TRUE,TRUE,,,,,,HZ,CLR,,,,,,,,VFR,,,,18.9,13.3,,,,,,,METAR,32.0
KBHB 070356Z AUTO 29005KT 10SM BKN020 OVC025 11/10 A2939 RMK AO2 RAB17E30 SLP955 P0000 T01060100 401500106,KBHB,2023-06-07T03:56:00Z,44.45,-68.37,10.6,10.0,290,5,,10.0,29.388779,995.5,,TRUE,TRUE,,,,,,,BKN,2000,OVC,2500,,,,,MVFR,,,,15.0,10.6,0.005,,,,,,METAR,21.0
KAWO 070356Z AUTO 31011KT 10SM CLR 21/04 A2978 RMK AO2 SLP088 T02060044,KAWO,2023-06-07T03:56:00Z,48.17,-122.17,20.6,4.4,310,11,,10.0,29.778543,1008.8,,TRUE,TRUE,,,,,,,CLR,,,,,,,,VFR,,,,,,,,,,,,METAR,38.0
KASH 070356Z AUTO 28006KT 10SM FEW120 15/08 A2956 RMK AO2 SLP014 T01500078,KASH,2023-06-07T03:56:00Z,42.78,-71.52,15.0,7.8,280,6,,10.0,29.56004,1001.4,,TRUE,TRUE,,,,,,,FEW,12000,,,,,,,VFR,,,,,,,,,,,,METAR,56.0
KART 070356Z AUTO 00000KT 3SM BR SCT090 09/08 A2971 RMK AO2 SLP061 T00890083,KART,2023-06-07T03:56:00Z,43.98,-76.03,8.9,8.3,0,0,,3.0,29.71063,1006.1,,TRUE,TRUE,,,,,,BR,SCT,9000,,,,,,,MVFR,,,,,,,,,,,,METAR,100.0
KARG 070356Z AUTO 28003KT 10SM CLR 22/13 A2990 RMK AO2 SLP122 T02220128,KARG,2023-06-07T03:56:00Z,36.12,-90.92,22.2,12.8,280,3,,10.0,29.899607,1012.2,,TRUE,TRUE,,,,,,,CLR,,,,,,,,VFR,,,,,,,,,,,,METAR,82.0
KAND 070356Z AUTO 34004KT 10SM CLR 22/18 A2984 RMK AO2 SLP096 T02170183,KAND,2023-06-07T03:56:00Z,34.5,-82.72,21.7,18.3,340,4,,10.0,29.840551,1009.6,,TRUE,TRUE,,,,,,,CLR,,,,,,,,VFR,,,,,,,,,,,,METAR,233.0
KALK 070356Z AUTO 22004KT 10SM CLR 21/M01 A3000 RMK AO2 SLP064 T02111011,KALK,2023-06-07T03:56:00Z,31.6,-110.43,21.1,-1.1,220,4,,10.0,30.0,1006.4,,TRUE,TRUE,,,,,,,CLR,,,,,,,,VFR,,,,,,,,,,,,METAR,1451.0
KAJO 070356Z AUTO 26008G15KT 10SM BKN045 16/11 A2991 RMK AO2 SLP124 T01560106,KAJO,2023-06-07T03:56:00Z,33.9,-117.6,15.6,10.6,260,8,15,10.0,29.911417,1012.4,,TRUE,TRUE,,,,,,,BKN,4500,,,,,,,VFR,,,,,,,,,,,,METAR,161.0
KAIZ 070356Z AUTO 00000KT 10SM CLR 18/17 RMK AO2 SLPNO T01830167 $,KAIZ,2023-06-07T03:56:00Z,38.1,-92.53,18.3,16.7,0,0,,10.0,,,,TRUE,TRUE,TRUE,,,,,,CLR,,,,,,,,VFR,,,,,,,,,,,,METAR,263.0
KAFJ 070356Z AUTO 32005KT 10SM CLR 16/07 A2984 RMK AO2 SLP098 T01560072,KAFJ,2023-06-07T03:56:00Z,40.13,-80.28,15.6,7.2,320,5,,10.0,29.840551,1009.8,,TRUE,TRUE,,,,,,,CLR,,,,,,,,VFR,,,,,,,,,,,,METAR,360.0
KADF 070356Z AUTO 00000KT 10SM CLR 21/19 A2990 RMK AO2 SLP123 T02060194,KADF,2023-06-07T03:56:00Z,34.1,-93.07,20.6,19.4,0,0,,10.0,29.899607,1012.3,,TRUE,TRUE,,,,,,,CLR,,,,,,,,VFR,,,,,,,,,,,,METAR,54.0
K8D3 070356Z AUTO 08010KT 26/18 A2985 RMK AO1 SLP086 T02560178,K8D3,2023-06-07T03:56:00Z,45.67,-96.98,25.6,17.8,80,10,,,29.84941,1008.6,,TRUE,TRUE,,,,,,,,,,,,,,,,,,,,,,,,,,,METAR,535.0
K79J 070356Z AUTO 00000KT 10SM CLR 22/19 A2990 RMK AO2 SLP118 T02220189,K79J,2023-06-07T03:56:00Z,31.32,-86.4,22.2,18.9,0,0,,10.0,29.899607,1011.8,,TRUE,TRUE,,,,,,,CLR,,,,,,,,VFR,,,,,,,,,,,,METAR,93.0
K2WX 070356Z AUTO 10010KT 22/11 A2988 RMK AO1 SLP093 T02220111,K2WX,2023-06-07T03:56:00Z,45.6,-103.55,22.2,11.1,100,10,,,29.878937,1009.3,,TRUE,TRUE,,,,,,,,,,,,,,,,,,,,,,,,,,,METAR,925.0
K1M4 070356Z AUTO 00000KT 10SM BKN048 21/21 A2993 RMK AO2 TSE0257 SLP118 T02110211 PNO $,K1M4,2023-06-07T03:56:00Z,34.28,-87.6,21.1,21.1,0,0,,10.0,29.929134,1011.8,,TRUE,TRUE,TRUE,,,,,,BKN,4800,,,,,,,VFR,,,,,,,,,,,,METAR,283.0
TXKF 070355Z 28010KT 9999 FEW030 SCT046 21/15 Q1012 ,TXKF,2023-06-07T03:55:00Z,32.37,-64.68,21.0,15.0,280,10,,6.21,29.88189,,,,,,,,,,,FEW,3000,SCT,4600,,,,,VFR,,,,,,,,,,,,METAR,4.0
TNCE 070355Z AUTO 10008KT 050V150 //// // ///////// 28/24 Q1016 RE//,TNCE,2023-06-07T03:55:00Z,17.48,-62.97,28.0,24.0,100,8,,,30.0,,,TRUE,,,,,,,,,,,,,,,,,,,,,,,,,,,,METAR,38.0
TNCB 070355Z AUTO 10012KT 070V140 9999 NCD 28/25 Q1012,TNCB,2023-06-07T03:55:00Z,12.13,-68.28,28.0,25.0,100,12,,6.21,29.88189,,,TRUE,,,,,,,,CLR,,,,,,,,VFR,,,,,,,,,,,,METAR,6.0
RODN 070355Z 24006KT 10SM FEW085 SCT110 SCT130 BKN150 BKN180 BKN210 29/23 A2985 RMK AO2A SLP113 T02910233 FZRANO $,RODN,2023-06-07T03:55:00Z,26.35,127.77,29.1,23.3,240,6,,10.0,29.84941,1011.3,,,TRUE,TRUE,,,TRUE,,,FEW,8500,SCT,11000,SCT,13000,BKN,15000,VFR,,,,,,,,,,,,METAR,38.0
RKSO 070355Z 00000KT 6SM HZ OVC031 24/19 A2980 RMK AO2A SLP095 T02370194 $,RKSO,2023-06-07T03:55:00Z,37.08,127.02,23.7,19.4,0,0,,6.0,29.799213,1009.5,,,TRUE,TRUE,,,,,HZ,OVC,3100,,,,,,,VFR,,,,,,,,,,,,SPECI,10.0
RKSG 070355Z 00000KT 6SM BR BKN034 25/21 A2979 RMK AO2A SLP090 T02450214 $,RKSG,2023-06-07T03:55:00Z,36.97,127.02,24.5,21.4,0,0,,6.0,29.790354,1009.0,,,TRUE,TRUE,,,,,BR,BKN,3400,,,,,,,VFR,,,,,,,,,,,,METAR,12.0
RKJK 070355Z 24008KT 7SM FEW080 FEW110 SCT130 SCT150 BKN180 BKN200 23/17 A2980 RMK AO2A SLP095 T02250165 $,RKJK,2023-06-07T03:55:00Z,35.9,126.62,22.5,16.5,240,8,,7.0,29.799213,1009.5,,,TRUE,TRUE,,,,,,FEW,8000,FEW,11000,SCT,13000,SCT,15000,VFR,,,,,,,,,,,,METAR,8.0
RJTY 070355Z 06005KT 10SM FEW030 BKN200 27/16 A2976 RMK AO2A SLP078 T02680155 $,RJTY,2023-06-07T03:55:00Z,35.75,139.33,26.8,15.5,60,5,,10.0,29.760826,1007.8,,,TRUE,TRUE,,,,,,FEW,3000,BKN,20000,,,,,VFR,,,,,,,,,,,,METAR,136.0
PWAK 070355Z AUTO 07015G19KT 8SM CLR 30/22 A2998 RMK AO2 SLP158 T03020223,PWAK,2023-06-07T03:55:00Z,19.28,166.62,30.2,22.3,70,15,19,8.0,29.97933,1015.8,,TRUE,TRUE,,,,,,,CLR,,,,,,,,VFR,,,,,,,,,,,,METAR,7.0
PTTP 070355Z 06003KT 15SM SCT017TCU BKN120 OVC300 29/27 A2984 RMK SHRAB20E49 TCU ALQDS SLP105 T02870267,PTTP,2023-06-07T03:55:00Z,6.97,158.22,28.7,26.7,60,3,,15.0,29.840551,1010.5,,,,,,,,,,SCT,1700,BKN,12000,OVC,30000,,,VFR,,,,,,,,,,,,METAR,36.0
PHHI 070355Z AUTO 06009KT 10SM BKN055 25/18 A3007 RMK AO2 SLP174 T02510180 $,PHHI,2023-06-07T03:55:00Z,21.48,-158.05,25.1,18.0,60,9,,10.0,30.070866,1017.4,,TRUE,TRUE,TRUE,,,,,,BKN,5500,,,,,,,VFR,,,,,,,,,,,,METAR,246.0
PAWG 070355Z 00000KT 10SM SCT038 BKN050 OVC060 13/07 A3014,PAWG,2023-06-07T03:55:00Z,56.48,-132.37,13.0,7.0,0,0,,10.0,30.138779,,,,,,,,,,,SCT,3800,BKN,5000,OVC,6000,,,VFR,,,,,,,,,,,,METAR,6.0
PATL 070355Z AUTO VRB05KT 10SM BKN075 16/04 A2981 RMK AO2 SLP093 T01580044,PATL,2023-06-07T03:55:00Z,62.9,-155.97,15.8,4.4,0,5,,10.0,29.811024,1009.3,,TRUE,TRUE,,,,,,,BKN,7500,,,,,,,VFR,,,,,,,,,,,,METAR,261.0
PATC 070355Z AUTO 19001KT 10SM BKN080 08/05 A2982 RMK AO2 SLP100 T00800054,PATC,2023-06-07T03:55:00Z,65.57,-167.92,8.0,5.4,190,1,,10.0,29.819881,1010.0,,TRUE,TRUE,,,,,,,BKN,8000,,,,,,,VFR,,,,,,,,,,,,METAR,77.0
PASY 070355Z AUTO M M M M 07/04 A2931,PASY,2023-06-07T03:55:00Z,52.72,174.12,7.0,4.0,,,,,29.309055,,,TRUE,,,,,,,,,,,,,,,,,,,,,,,,,,,,METAR,6.0
PASV 070355Z AUTO 16009G18KT 10SM SCT055 OVC110 12/02 A2980 RMK AO2 LTG DSNT NE SLP089 T01160024,PASV,2023-06-07T03:55:00Z,61.1,-155.57,11.6,2.4,160,9,18,10.0,29.799213,1008.9,,TRUE,TRUE,,,,,,,SCT,5500,OVC,11000,,,,,VFR,,,,,,,,,,,,METAR,462.0
PAIM 070355Z AUTO 23006KT 10SM VCTS FEW090 SCT140 BKN150 21/04 A2974 RMK AO2 SLP062 T02060041,PAIM,2023-06-07T03:55:00Z,66.0,-153.7,20.6,4.1,230,6,,10.0,29.740158,1006.2,,TRUE,TRUE,,,,,,VCTS,FEW,9000,SCT,14000,BKN,15000,,,VFR,,,,,,,,,,,,METAR,309.0
PAFR 070355Z AUTO 10003KT 9SM OVC085 13/05 A2991 RMK AO2 SLP135 T01310045 $,PAFR,2023-06-07T03:55:00Z,61.27,-149.65,13.1,4.5,100,3,,9.0,29.911417,1013.5,,TRUE,TRUE,TRUE,,,,,,OVC,8500,,,,,,,VFR,,,,,,,,,,,,METAR,106.0
PAFB 070355Z AUTO 35007KT 10SM CLR 26/03 A2970 RMK AO2 SLP061 T02550034 FZRANO $,PAFB,2023-06-07T03:55:00Z,64.83,-147.62,25.5,3.4,350,7,,10.0,29.698818,1006.1,,TRUE,TRUE,TRUE,,,TRUE,,,CLR,,,,,,,,VFR,,,,,,,,,,,,METAR,137.0
PAEI 070355Z AUTO 28008KT 10SM BKN120 26/02 A2967 RMK AO2 SLP048 T02550022 $,PAEI,2023-06-07T03:55:00Z,64.67,-147.1,25.5,2.2,280,8,,10.0,29.66929,1004.8,,TRUE,TRUE,TRUE,,,,,,BKN,12000,,,,,,,VFR,,,,,,,,,,,,METAR,166.0
PAED 070355Z 00000KT 10SM -RA FEW060 BKN080 OVC100 13/09 A2989 RMK AO2A SLP118 T01250086 $,PAED,2023-06-07T03:55:00Z,61.25,-149.83,12.5,8.6,0,0,,10.0,29.890747,1011.8,,,TRUE,TRUE,,,,,-RA,FEW,6000,BKN,8000,OVC,10000,,,VFR,,,,,,,,,,,,SPECI,54.0
OTBH 070355Z 30008KT 9000 HZ CLR 31/24 A2965 Q1004 RMK AO2A SLP041 T03050244 FZRANO VISNO RWY16 $,OTBH,2023-06-07T03:55:00Z,25.12,51.32,30.5,24.4,300,8,,5.59,29.64567,1004.1,,,TRUE,TRUE,,,TRUE,,HZ,CLR,,,,,,,,VFR,,,,,,,,,,,,METAR,40.0
OPFA 070355Z 09004KT 4000 HZ NSC 32/18 Q1006 NOSIG,OPFA,2023-06-07T03:55:00Z,31.37,73.0,32.0,18.0,90,4,,2.49,29.704725,,,,,,TRUE,,,,HZ,CLR,,,,,,,,IFR,,,,,,,,,,,,METAR,180.0
OKAS 070355Z 31006KT 4000 HZ SCT150 34/08 A2972 RMK AO2A SLP058 T03440082 FZRANO $,OKAS,2023-06-07T03:55:00Z,29.35,47.52,34.4,8.2,310,6,,2.49,29.719488,1005.8,,,TRUE,TRUE,,,TRUE,,HZ,SCT,15000,,,,,,,IFR,,,,,,,,,,,,METAR,144.0
OEPS 070355Z AUTO 30005KT 9999 CLR 31/07 A2993 RMK AO2 SLP102 WND DATA ESTMD T03050072,OEPS,2023-06-07T03:55:00Z,24.07,47.58,30.5,7.2,300,5,,6.21,29.929134,1010.2,,TRUE,TRUE,,,,,,,CLR,,,,,,,,VFR,,,,,,,,,,,,METAR,503.0
LIVT 070355Z AUTO 06002KT //// 17/16 Q1016,LIVT,2023-06-07T03:55:00Z,45.68,13.75,17.0,16.0,60,2,,,30.0,,,TRUE,,,,,,,,,,,,,,,,,,,,,,,,,,,,METAR,20.0
LIVP 070355Z VRB03KT 9999 FEW020 SCT050 07/02 Q1021 RMK SCT MON LIB VAL MAR CLD VIS MIN 9999,LIVP,2023-06-07T03:55:00Z,46.15,11.03,7.0,2.0,0,3,,6.21,30.147638,,,,,,,,,,,FEW,2000,SCT,5000,,,,,VFR,,,,,,,,,,,,METAR,2099.0
LIVM 070355Z AUTO /////KT //// ///// Q////,LIVM,2023-06-07T03:55:00Z,44.45,12.3,,,,,,,,,,TRUE,,,,,,,,,,,,,,,,,,,,,,,,,,,,METAR,6.0
LIVF 070355Z 22004KT 9999 FEW025 15/10 Q1015,LIVF,2023-06-07T03:55:00Z,43.52,12.72,15.0,10.0,220,4,,6.21,29.970472,,,,,,,,,,,FEW,2500,,,,,,,VFR,,,,,,,,,,,,METAR,549.0
LIVE 070355Z 02003KT CAVOK 09/06 Q1019 RMK SCT SCT080 VIS MIN 9999,LIVE,2023-06-07T03:55:00Z,46.82,10.5,9.0,6.0,20,3,,6.21,30.088583,,,,,,,,,,,CAVOK,,,,,,,,VFR,,,,,,,,,,,,METAR,1684.0
LIVD 070355Z AUTO VRB01KT //// 08/08 Q1021,LIVD,2023-06-07T03:55:00Z,46.72,12.22,8.0,8.0,0,1,,,30.147638,,,TRUE,,,,,,,,,,,,,,,,,,,,,,,,,,,,METAR,1221.0
LIVC 070355Z AUTO 34008KT //// 06/04 Q1023,LIVC,2023-06-07T03:55:00Z,44.2,10.68,6.0,4.0,340,8,,,30.206694,,,TRUE,,,,,,,,,,,,,,,,,,,,,,,,,,,,METAR,2139.0
LIRS 070355Z 04004KT 9999 FEW013 15/12 Q1016 RMK FEW VIS MIN 6000N WIND THR03 05004KT WIND THR21 04003KT WHT,LIRS,2023-06-07T03:55:00Z,42.75,11.07,15.0,12.0,40,4,,6.21,30.0,,,,,,,,,,,FEW,1300,,,,,,,VFR,,,,,,,,,,,,METAR,3.0
LIRM 070355Z 34003KT 8000 SCT050 15/14 Q1016 RMK SCT VIS MIN 8000 WIND THR06 34003KT BLU,LIRM,2023-06-07T03:55:00Z,41.05,14.07,15.0,14.0,340,3,,4.97,30.0,,,,,,,,,,,SCT,5000,,,,,,,MVFR,,,,,,,,,,,,METAR,6.0
LIRK 070355Z AUTO /////KT //// ///// Q////,LIRK,2023-06-07T03:55:00Z,42.47,12.97,,,,,,,,,,TRUE,,,,,,,,,,,,,,,,,,,,,,,,,,,,METAR,1721.0
LIRE 070355Z 03004KT CAVOK 17/16 Q1016 RMK SKC VIS MIN 9999 WIND THR13 03003KT WIND THR31 /////KT BLU,LIRE,2023-06-07T03:55:00Z,41.65,12.43,17.0,16.0,30,4,,6.21,30.0,,,,,,,,,,,CAVOK,,,,,,,,VFR,,,,,,,,,,,,METAR,16.0
LIQC 070355Z 00000KT 9999 FEW020 21/18 Q1017 RMK FEW QUK 1 QUL 0 VIS MAR 15 KM VIS MIN 9999,LIQC,2023-06-07T03:55:00Z,40.55,14.2,21.0,18.0,0,0,,6.21,30.029528,,,,,,,,,,,FEW,2000,,,,,,,VFR,,,,,,,,,,,,SPECI,154.0
LIPS 070355Z 01002KT 6000 SCT050 17/17 Q1016 RMK BKN SCT180 VIS MIN 6000 WIND THR26 28002KT WIND THR08 33002KT WHT,LIPS,2023-06-07T03:55:00Z,45.68,12.1,17.0,17.0,10,2,,3.73,30.0,,,,,,,,,,,SCT,5000,,,,,,,MVFR,,,,,,,,,,,,METAR,42.0
LIPL 070355Z 01002KT 9999 BKN050 20/20 Q1016 RMK BKN VIS MIN 9999 WIND THR31 /////KT WIND THR13 36002KT BLU,LIPL,2023-06-07T03:55:00Z,45.42,10.27,20.0,20.0,10,2,,6.21,30.0,,,,,,,,,,,BKN,5000,,,,,,,VFR,,,,,,,,,,,,METAR,96.0
LIPI 070355Z 03004KT CAVOK 15/14 Q1015 RMK SKC VIS MIN 9999 WIND THR06 03005KT WIND THR24 05002KT BLU,LIPI,2023-06-07T03:55:00Z,45.97,13.05,15.0,14.0,30,4,,6.21,29.970472,,,,,,,,,,,CAVOK,,,,,,,,VFR,,,,,,,,,,,,SPECI,49.0
LIPC 070355Z 25003KT 9999 SCT005 OVC020 15/14 Q1016 RMK OVC VIS MIN 9999 WIND THR11 26003KT WIND THR29 20001KT WHT,LIPC,2023-06-07T03:55:00Z,44.22,12.3,15.0,14.0,250,3,,6.21,30.0,,,,,,,,,,,SCT,500,OVC,2000,,,,,MVFR,,,0.1,,,,,,,,,METAR,10.0
LIPA 070355Z 05002KT CAVOK 16/16 Q1016 RMK SKC VIS MIN 9999 WIND THR05 /////KT WIND THR23 /////KT A3001 BLU,LIPA,2023-06-07T03:55:00Z,46.02,12.58,16.0,16.0,50,2,,6.21,30.0,,,,,,,,,,,CAVOK,,,,,,,,VFR,,,,,,,,,,,,SPECI,113.0
LIED 070355Z 35002KT 9999 FEW003 14/12 Q1015 RMK FEW VIS MIN 9999 WIND THR35 /////KT WIND THR17 36001KT BLU,LIED,2023-06-07T03:55:00Z,39.35,8.97,14.0,12.0,350,2,,6.21,29.970472,,,,,,,,,,,FEW,300,,,,,,,VFR,,,,,,,,,,,,METAR,26.0
LIEB 070355Z 33008KT CAVOK 17/14 Q1015 RMK SKC QUK 1 QUL 0 VIS MAR 25 KM MON LIB VIS MIN 9999,LIEB,2023-06-07T03:55:00Z,39.93,9.72,17.0,14.0,330,8,,6.21,29.970472,,,,,,,,,,,CAVOK,,,,,,,,VFR,,,,,,,,,,,,METAR,126.0
LICZ 070355Z 27005KT 8000 SCT040 BKN080 17/17 Q1015 RMK BKN VIS MIN 8000 WIND THR28 28005KT WIND THR10 28004KT A2998 BLU,LICZ,2023-06-07T03:55:00Z,37.4,14.92,17.0,17.0,270,5,,4.97,29.970472,,,,,,,,,,,SCT,4000,BKN,8000,,,,,MVFR,,,,,,,,,,,,METAR,22.0
LICT 070355Z 10003KT 9999 FEW022 16/13 Q1016 RMK SCT VIS MIN 9999 WIND THR13 12003KT BLU,LICT,2023-06-07T03:55:00Z,37.92,12.5,16.0,13.0,100,3,,6.21,30.0,,,,,,,,,,,FEW,2200,,,,,,,VFR,,,,,,,,,,,,METAR,4.0
LIBV 070355Z 02003KT 2800 BR SCT006 SCT050 17/17 Q1015 RMK OVC VIS MIN 2800 WIND THR32 02004KT WIND THR14 /////KT YLO,LIBV,2023-06-07T03:55:00Z,40.77,16.93,17.0,17.0,20,3,,1.74,29.970472,,,,,,,,,,BR,SCT,600,SCT,5000,,,,,IFR,,,,,,,,,,,,METAR,344.0
LIBQ 070355Z AUTO VRB02KT //// 12/07 Q1021,LIBQ,2023-06-07T03:55:00Z,39.32,16.38,12.0,7.0,0,2,,,30.147638,,,TRUE,,,,,,,,,,,,,,,,,,,,,,,,,,,,METAR,1660.0
LIBN 070355Z 10002KT 8000 -RA FEW018 21/21 Q1015 RMK OVC SCT080 BKN100 VIS MIN 8000 WIND THR14 05002KT WIND THR32 /////KT BLU,LIBN,2023-06-07T03:55:00Z,40.23,18.13,21.0,21.0,100,2,,4.97,29.970472,,,,,,,,,,-RA,FEW,1800,,,,,,,MVFR,,,,,,,,,,,,METAR,46.0
KXNO 070355Z AUTO 18003KT 10SM CLR 22/21 A2980 RMK AO2 SLP091 T02150208 $,KXNO,2023-06-07T03:55:00Z,33.62,-81.07,21.5,20.8,180,3,,10.0,29.799213,1009.1,,TRUE,TRUE,TRUE,,,,,,CLR,,,,,,,,VFR,,,,,,,,,,,,METAR,94.0
KXMR 070355Z AUTO 16008KT 10SM CLR 25/19 A2990 RMK AO2 SLP128 T02450186 $,KXMR,2023-06-07T03:55:00Z,28.47,-80.57,24.5,18.6,160,8,,10.0,29.899607,1012.8,,TRUE,TRUE,TRUE,,,,,,CLR,,,,,,,,VFR,,,,,,,,,,,,METAR,5.0
KXIF 070355Z AUTO 00000KT 10SM CLR 16/06 A2972 RMK AO2 SLP063 T01570059 $,KXIF,2023-06-07T03:55:00Z,,,15.7,5.9,0,0,,10.0,29.719488,1006.3,,TRUE,TRUE,TRUE,,,,,,CLR,,,,,,,,VFR,,,,,,,,,,,,METAR,
KWRI 070355Z 33004KT 5SM HZ BKN047 15/07 A2967 RMK AO2A SLP046 T01530066,KWRI,2023-06-07T03:55:00Z,40.02,-74.58,15.3,6.6,330,4,,5.0,29.66929,1004.6,,,TRUE,,,,,,HZ,BKN,4700,,,,,,,MVFR,,,,,,,,,,,,METAR,35.0
KWRB 070355Z AUTO 25008KT 10SM CLR 25/18 A2986 RMK AO2 SLP111 T02520176,KWRB,2023-06-07T03:55:00Z,32.63,-83.58,25.2,17.6,250,8,,10.0,29.861221,1011.1,,TRUE,TRUE,,,,,,,CLR,,,,,,,,VFR,,,,,,,,,,,,METAR,82.0
KVPS 070355Z AUTO 00000KT 10SM FEW220 24/21 A2989 RMK AO2 SLP128 T02420213 $,KVPS,2023-06-07T03:55:00Z,30.47,-86.52,24.2,21.3,0,0,,10.0,29.890747,1012.8,,TRUE,TRUE,TRUE,,,,,,FEW,22000,,,,,,,VFR,,,,,,,,,,,,METAR,21.0
KVOK 070355Z 10007KT 10SM SCT055 OVC070 18/03 A2994 RMK AO2A SLP139 T01750034,KVOK,2023-06-07T03:55:00Z,43.93,-90.27,17.5,3.4,100,7,,10.0,29.940945,1013.9,,,TRUE,,,,,,,SCT,5500,OVC,7000,,,,,VFR,,,,,,,,,,,,METAR,278.0
KVAD 070355Z AUTO 29004KT 10SM CLR 23/19 A2989 RMK AO2 SLP122 T02340191 $,KVAD,2023-06-07T03:55:00Z,30.97,-83.2,23.4,19.1,290,4,,10.0,29.890747,1012.2,,TRUE,TRUE,TRUE,,,,,,CLR,,,,,,,,VFR,,,,,,,,,,,,METAR,70.0
KTIK 070355Z 06006KT 10SM OVC120 22/16 A2992 RMK AO2A SLP127 T02200160 $,KTIK,2023-06-07T03:55:00Z,35.4,-97.38,22.0,16.0,60,6,,10.0,29.920275,1012.7,,,TRUE,TRUE,,,,,,OVC,12000,,,,,,,VFR,,,,,,,,,,,,METAR,387.0
KTHM 070355Z AUTO 00000KT 10SM 23/11 A2986 RMK Thompson Falls ,KTHM,2023-06-07T03:55:00Z,47.57,-115.28,23.0,11.0,0,0,,10.0,29.861221,,,TRUE,,,,,,,,,,,,,,,,,,,,,,,,,,,,METAR,751.0
KTDR 070355Z AUTO 21003KT 10SM CLR 25/24 A2986 RMK AO2 SLP115 T02510235 $,KTDR,2023-06-07T03:55:00Z,30.05,-85.52,25.1,23.5,210,3,,10.0,29.861221,1011.5,,TRUE,TRUE,TRUE,,,,,,CLR,,,,,,,,VFR,,,,,,,,,,,,METAR,4.0
KTCM 070355Z AUTO 03004KT 10SM CLR 22/04 A2977 RMK AO2 SLP083 T02230039 $,KTCM,2023-06-07T03:55:00Z,47.13,-122.47,22.3,3.9,30,4,,10.0,29.769686,1008.3,,TRUE,TRUE,TRUE,,,,,,CLR,,,,,,,,VFR,,,,,,,,,,,,METAR,87.0
KTBN 070355Z AUTO 22003KT 9SM CLR 18/15 A2992 RMK AO2 SLP126 T01780150,KTBN,2023-06-07T03:55:00Z,37.73,-92.13,17.8,15.0,220,3,,9.0,29.920275,1012.6,,TRUE,TRUE,,,,,,,CLR,,,,,,,,VFR,,,,,,,,,,,,METAR,349.0
KT70 070355Z AUTO 10007KT 8SM CLR 25/19 A2987 RMK AO2 SLP102 T02540188 $,KT70,2023-06-07T03:55:00Z,29.12,-100.48,25.4,18.8,100,7,,8.0,29.870079,1010.2,,TRUE,TRUE,TRUE,,,,,,CLR,,,,,,,,VFR,,,,,,,,,,,,METAR,296.0
KSZL 070355Z 20003KT 10SM SCT200 19/14 A2990 RMK AO2A SLP121 T01900140 $,KSZL,2023-06-07T03:55:00Z,38.73,-93.53,19.0,14.0,200,3,,10.0,29.899607,1012.1,,,TRUE,TRUE,,,,,,SCT,20000,,,,,,,VFR,,,,,,,,,,,,METAR,259.0
KSXS 070355Z AUTO 00000KT 10SM SCT220 21/20 A2989 RMK AO2 SLP120 T02120197,KSXS,2023-06-07T03:55:00Z,31.37,-85.85,21.2,19.7,0,0,,10.0,29.890747,1012.0,,TRUE,TRUE,,,,,,,SCT,22000,,,,,,,VFR,,,,,,,,,,,,METAR,120.0
KSVN 070355Z AUTO 21007KT 10SM CLR 24/17 A2983 RMK AO2 SLP104 T02370167 $,KSVN,2023-06-07T03:55:00Z,32.02,-81.12,23.7,16.7,210,7,,10.0,29.828741,1010.4,,TRUE,TRUE,TRUE,,,,,,CLR,,,,,,,,VFR,,,,,,,,,,,,METAR,13.0
KSUU 070355Z AUTO 24020KT 10SM CLR 16/11 A2982 RMK AO2 SLP104 T01580105 $,KSUU,2023-06-07T03:55:00Z,38.27,-121.93,15.8,10.5,240,20,,10.0,29.819881,1010.4,,TRUE,TRUE,TRUE,,,,,,CLR,,,,,,,,VFR,,,,,,,,,,,,METAR,9.0
KSLI 070355Z 22005KT 10SM FEW020 BKN043 16/11 A2989 RMK AO2A SLP125 T01550113,KSLI,2023-06-07T03:55:00Z,33.78,-118.03,15.5,11.3,220,5,,10.0,29.890747,1012.5,,,TRUE,,,,,,,FEW,2000,BKN,4300,,,,,VFR,,,,,,,,,,,,METAR,8.0
KSKF 070355Z AUTO 00000KT 10SM CLR 22/22 A2986 RMK AO2 SLP105 T02200215 $,KSKF,2023-06-07T03:55:00Z,29.38,-98.57,22.0,21.5,0,0,,10.0,29.861221,1010.5,,TRUE,TRUE,TRUE,,,,,,CLR,,,,,,,,VFR,,,,,,,,,,,,METAR,214.0
KSKA 070355Z AUTO 31007KT 10SM CLR 22/01 A2980 RMK AO2 SLP074 T02150012 $,KSKA,2023-06-07T03:55:00Z,47.62,-117.67,21.5,1.2,310,7,,10.0,29.799213,1007.4,,TRUE,TRUE,TRUE,,,,,,CLR,,,,,,,,VFR,,,,,,,,,,,,METAR,754.0
KSHM 070355Z AUTO 35005KT 10SM CLR 16/10 A3007 RMK AO2 SLP122 T01620103 $,KSHM,2023-06-07T03:55:00Z,38.8,-104.52,16.2,10.3,350,5,,10.0,30.070866,1012.2,,TRUE,TRUE,TRUE,,,,,,CLR,,,,,,,,VFR,,,,,,,,,,,,METAR,1900.0
KSEQ 070355Z AUTO 00000KT 10SM CLR 23/21 A2986 RMK AO2 SLP108 T02280212,KSEQ,2023-06-07T03:55:00Z,29.57,-97.9,22.8,21.2,0,0,,10.0,29.861221,1010.8,,TRUE,TRUE,,,,,,,CLR,,,,,,,,VFR,,,,,,,,,,,,METAR,160.0
KSDC 070355Z AUTO 00000KT 7SM BKN090 OVC120 10/07 A2976 RMK AO2,KSDC,2023-06-07T03:55:00Z,43.23,-77.12,10.0,7.0,0,0,,7.0,29.760826,,,TRUE,TRUE,,,,,,,BKN,9000,OVC,12000,,,,,VFR,,,,,,,,,,,,METAR,127.0
KSCK 070355Z AUTO 31015G21KT 10SM CLR 17/11 A2984 RMK AO2 SLP104 T01720111,KSCK,2023-06-07T03:55:00Z,37.88,-121.22,17.2,11.1,310,15,21,10.0,29.840551,1010.4,,TRUE,TRUE,,,,,,,CLR,,,,,,,,VFR,,,,,,,,,,,,METAR,8.0
KS34 070355Z AUTO 00000KT 10SM 22/M05 A2985 RMK Plains ,KS34,2023-06-07T03:55:00Z,47.47,-114.9,22.0,-5.0,0,0,,10.0,29.84941,,,TRUE,,,,,,,,,,,,,,,,,,,,,,,,,,,,METAR,750.0
KRYM 070355Z AUTO 08006KT 10SM FEW100 19/14 A2994 RMK AO2 SLP140 T01870135 $,KRYM,2023-06-07T03:55:00Z,46.08,-94.37,18.7,13.5,80,6,,10.0,29.940945,1014.0,,TRUE,TRUE,TRUE,,,,,,FEW,10000,,,,,,,VFR,,,,,,,,,,,,METAR,344.0
KRNO 070355Z 02006KT 10SM FEW070 SCT110 BKN200 18/04 A2990 RMK AO2 SLP083 T01780044,KRNO,2023-06-07T03:55:00Z,39.5,-119.77,17.8,4.4,20,6,,10.0,29.899607,1008.3,,,TRUE,,,,,,,FEW,7000,SCT,11000,BKN,20000,,,VFR,,,,,,,,,,,,METAR,1344.0
KRIV 070355Z 34006KT 10SM FEW040 FEW120 BKN200 14/09 A2990 RMK AO2A SLP120 T01430093,KRIV,2023-06-07T03:55:00Z,33.87,-117.23,14.3,9.3,340,6,,10.0,29.899607,1012.0,,,TRUE,,,,,,,FEW,4000,FEW,12000,BKN,20000,,,VFR,,,,,,,,,,,,METAR,454.0
KRDR 070355Z 08006KT 10SM OVC110 24/18 A2983 RMK AO2A SLP101 T02420181 $,KRDR,2023-06-07T03:55:00Z,47.93,-97.4,24.2,18.1,80,6,,10.0,29.828741,1010.1,,,TRUE,TRUE,,,,,,OVC,11000,,,,,,,VFR,,,,,,,,,,,,METAR,276.0
KRCA 070355Z AUTO 19004KT 10SM CLR 21/14 A2990 RMK AO2 SLP103 T02090136 $,KRCA,2023-06-07T03:55:00Z,44.15,-103.12,20.9,13.6,190,4,,10.0,29.899607,1010.3,,TRUE,TRUE,TRUE,,,,,,CLR,,,,,,,,VFR,,,,,,,,,,,,METAR,993.0
KQVF 070355Z AUTO VRB03KT 9999 FEW027 SCT048 25/22 A2999 RMK AO2 SLP158 WND DATA ESTMD T02470224,KQVF,2023-06-07T03:55:00Z,,,24.7,22.4,0,3,,6.21,29.991142,1015.8,,TRUE,TRUE,,,,,,,FEW,2700,SCT,4800,,,,,VFR,,,,,,,,,,,,METAR,
KQTZ 070355Z 32003KT 8000 HZ FEW200 SCT250 30/13 A2971 RMK SLP057,KQTZ,2023-06-07T03:55:00Z,,,30.0,13.0,320,3,,4.97,29.71063,1005.7,,,,,,,,,HZ,FEW,20000,SCT,25000,,,,,MVFR,,,,,,,,,,,,METAR,
KQN3 070355Z 23004KT 9999 CLR 30/18 A2985 RMK AO2A SLP088 T02970178,KQN3,2023-06-07T03:55:00Z,,,29.7,17.8,230,4,,6.21,29.84941,1008.8,,,TRUE,,,,,,,CLR,,,,,,,,VFR,,,,,,,,,,,,METAR,
KQHY 070355Z AUTO 00000KT 10SM FEW015 FEW020 OVC220 25/22 A2989 RMK AO2 SLP128 T02510220,KQHY,2023-06-07T03:55:00Z,,,25.1,22.0,0,0,,10.0,29.890747,1012.8,,TRUE,TRUE,,,,,,,FEW,1500,FEW,2000,OVC,22000,,,VFR,,,,,,,,,,,,METAR,
KQD3 070355Z AUTO 00000KT 9000 HZ CLR 33/25 A2976 RMK AO2 SLP062 WND DATA ESTMD T03310249,KQD3,2023-06-07T03:55:00Z,,,33.1,24.9,0,0,,5.59,29.760826,1006.2,,TRUE,TRUE,,,,,,HZ,CLR,,,,,,,,VFR,,,,,,,,,,,,METAR,
KQAZ 070355Z AUTO 26004G13KT 9999 CLR 32/M01 A2979 RMK AO2 SLP077 WND DATA ESTMD T03211013,KQAZ,2023-06-07T03:55:00Z,,,32.1,-1.3,260,4,13,6.21,29.790354,1007.7,,TRUE,TRUE,,,,,,,CLR,,,,,,,,VFR,,,,,,,,,,,,METAR,
KPSM 070355Z 27006KT 10SM -RA FEW049 OVC070 14/08 A2952 RMK AO2A RAB23 SLP999 P0000 T01400082,KPSM,2023-06-07T03:55:00Z,43.08,-70.82,14.0,8.2,270,6,,10.0,29.518702,999.9,,,TRUE,,,,,,-RA,FEW,4900,OVC,7000,,,,,VFR,,,,,,0.005,,,,,,METAR,34.0
KPOE 070355Z AUTO 10004KT 10SM FEW060 24/19 A2987 RMK AO2 LTG DSNT SE SLP114 T02400193,KPOE,2023-06-07T03:55:00Z,31.05,-93.2,24.0,19.3,100,4,,10.0,29.870079,1011.4,,TRUE,TRUE,,,,,,,FEW,6000,,,,,,,VFR,,,,,,,,,,,,METAR,98.0
KPOB 070355Z AUTO 00000KT 9SM CLR 15/13 A2978 RMK AO2 SLP086 T01540129 $,KPOB,2023-06-07T03:55:00Z,35.17,-79.02,15.4,12.9,0,0,,9.0,29.778543,1008.6,,TRUE,TRUE,TRUE,,,,,,CLR,,,,,,,,VFR,,,,,,,,,,,,METAR,57.0
KPHP 070355Z AUTO 10003KT 10SM CLR 21/13 A2989 RMK AO2 SLP101 T02110133,KPHP,2023-06-07T03:55:00Z,44.05,-101.6,21.1,13.3,100,3,,10.0,29.890747,1010.1,,TRUE,TRUE,,,,,,,CLR,,,,,,,,VFR,,,,,,,,,,,,METAR,673.0
KPAM 070355Z AUTO 20004KT 10SM CLR 24/22 A2989 RMK AO2 SLP125 T02400217 $,KPAM,2023-06-07T03:55:00Z,30.07,-85.57,24.0,21.7,200,4,,10.0,29.890747,1012.5,,TRUE,TRUE,TRUE,,,,,,CLR,,,,,,,,VFR,,,,,,,,,,,,METAR,4.0
KP58 070355Z AUTO 30005KT 11/08 A2989 RMK AO1 SLP120 T01110078,KP58,2023-06-07T03:55:00Z,44.02,-82.8,11.1,7.8,300,5,,,29.890747,1012.0,,TRUE,TRUE,,,,,,,,,,,,,,,,,,,,,,,,,,,METAR,180.0
KOZR 070355Z AUTO 00000KT 10SM CLR 21/18 A2989 RMK AO2 SLP121 T02120184,KOZR,2023-06-07T03:55:00Z,31.28,-85.72,21.2,18.4,0,0,,10.0,29.890747,1012.1,,TRUE,TRUE,,,,,,,CLR,,,,,,,,VFR,,,,,,,,,,,,METAR,90.0
KOFF 070355Z 00000KT 10SM CLR 25/16 A2992 RMK AO2A SLP127 T02470161 $,KOFF,2023-06-07T03:55:00Z,41.12,-95.92,24.7,16.1,0,0,,10.0,29.920275,1012.7,,,TRUE,TRUE,,,,,,CLR,,,,,,,,VFR,,,,,,,,,,,,METAR,308.0
KNTD 070355Z 29003KT 7SM FEW020 SCT045 OVC100 15/13 A2992 RMK AO2 SLP133 T01500128 VISNO S $,KNTD,2023-06-07T03:55:00Z,34.12,-119.12,15.0,12.8,290,3,,7.0,29.920275,1013.3,,,TRUE,TRUE,,,,,,FEW,2000,SCT,4500,OVC,10000,,,VFR,,,,,,,,,,,,METAR,1.0
KNKX 070355Z 26004KT 10SM OVC031 16/11 A2992 RMK AO2 SLP128 T01560111,KNKX,2023-06-07T03:55:00Z,32.87,-117.13,15.6,11.1,260,4,,10.0,29.920275,1012.8,,,TRUE,,,,,,,OVC,3100,,,,,,,VFR,,,,,,,,,,,,METAR,138.0
KNBG 070355Z 00000KT 10SM FEW030 SCT250 21/21 A2988 RMK AO2 SLP117 T02110206 $,KNBG,2023-06-07T03:55:00Z,29.83,-90.02,21.1,20.6,0,0,,10.0,29.878937,1011.7,,,TRUE,TRUE,,,,,,FEW,3000,SCT,25000,,,,,VFR,,,,,,,,,,,,METAR,0.0
KMXF 070355Z AUTO 19003KT 10SM CLR 21/16 A2986 RMK AO2 SLP113 T02090159,KMXF,2023-06-07T03:55:00Z,32.38,-86.37,20.9,15.9,190,3,,10.0,29.861221,1011.3,,TRUE,TRUE,,,,,,,CLR,,,,,,,,VFR,,,,,,,,,,,,METAR,47.0
KMUO 070355Z 34008KT 10SM BKN120 OVC150 19/11 A2979 RMK AO2A SLP066 T01910111 $,KMUO,2023-06-07T03:55:00Z,43.03,-115.87,19.1,11.1,340,8,,10.0,29.790354,1006.6,,,TRUE,TRUE,,,,,,BKN,12000,OVC,15000,,,,,VFR,,,,,,,,,,,,METAR,915.0
KMUI 070355Z AUTO 36006KT 7SM OVC020 17/05 A2970 RMK AO2 SLP058 T01680048,KMUI,2023-06-07T03:55:00Z,40.43,-76.57,16.8,4.8,360,6,,7.0,29.698818,1005.8,,TRUE,TRUE,,,,,,,OVC,2000,,,,,,,MVFR,,,,,,,,,,,,METAR,146.0
KMTC 070355Z AUTO 33005KT 10SM CLR 11/03 A2986 RMK AO2 SLP116 T01080026,KMTC,2023-06-07T03:55:00Z,42.62,-82.83,10.8,2.6,330,5,,10.0,29.861221,1011.6,,TRUE,TRUE,,,,,,,CLR,,,,,,,,VFR,,,,,,,,,,,,METAR,177.0
KMMT 070355Z AUTO 00000KT 10SM CLR 22/19 A2979 RMK AO2 LTG DSNT NE AND SE SLP089 T02200186 $,KMMT,2023-06-07T03:55:00Z,33.92,-80.8,22.0,18.6,0,0,,10.0,29.790354,1008.9,,TRUE,TRUE,TRUE,,,,,,CLR,,,,,,,,VFR,,,,,,,,,,,,METAR,76.0
KMKG 070355Z AUTO 01006KT 8SM CLR 17/09 A2992 RMK AO2 SLP129 T01670094,KMKG,2023-06-07T03:55:00Z,43.17,-86.23,16.7,9.4,10,6,,8.0,29.920275,1012.9,,TRUE,TRUE,,,,,,,CLR,,,,,,,,VFR,,,,,,,,,,,,METAR,190.0
KMIB 070355Z AUTO 24003KT 10SM CLR 23/17 A2981 RMK AO2 SLP089 T02270169 $,KMIB,2023-06-07T03:55:00Z,48.42,-101.35,22.7,16.9,240,3,,10.0,29.811024,1008.9,,TRUE,TRUE,TRUE,,,,,,CLR,,,,,,,,VFR,,,,,,,,,,,,SPECI,505.0
KMGE 070355Z AUTO 29004KT 10SM CLR 21/18 A2986 RMK AO2 SLP103 T02130181 $,KMGE,2023-06-07T03:55:00Z,33.92,-84.52,21.3,18.1,290,4,,10.0,29.861221,1010.3,,TRUE,TRUE,TRUE,,,,,,CLR,,,,,,,,VFR,,,,,,,,,,,,METAR,309.0
KMCF 070355Z AUTO 15004KT 10SM CLR 25/21 A2986 RMK AO2 SLP114 T02540206 FZRANO $,KMCF,2023-06-07T03:55:00Z,27.85,-82.52,25.4,20.6,150,4,,10.0,29.861221,1011.4,,TRUE,TRUE,TRUE,,,TRUE,,,CLR,,,,,,,,VFR,,,,,,,,,,,,METAR,3.0
KLUF 070355Z AUTO 21014KT 10SM CLR 29/M07 A2973 RMK AO2 SLP052 T02911070 $,KLUF,2023-06-07T03:55:00Z,33.53,-112.37,29.1,-7.0,210,14,,10.0,29.731298,1005.2,,TRUE,TRUE,TRUE,,,,,,CLR,,,,,,,,VFR,,,,,,,,,,,,METAR,333.0
KLTS 070355Z 05006KT 10SM CLR 21/17 A2992 RMK AO2A SLP118 T02100172 $,KLTS,2023-06-07T03:55:00Z,34.67,-99.27,21.0,17.2,50,6,,10.0,29.920275,1011.8,,,TRUE,TRUE,,,,,,CLR,,,,,,,,VFR,,,,,,,,,,,,METAR,416.0
KLSV 070355Z AUTO 13014KT 10SM CLR 29/M09 A2968 RMK AO2 SLP026 T02901086 $,KLSV,2023-06-07T03:55:00Z,36.23,-115.05,29.0,-8.6,130,14,,10.0,29.681103,1002.6,,TRUE,TRUE,TRUE,,,,,,CLR,,,,,,,,VFR,,,,,,,,,,,,METAR,563.0
KLSF 070355Z AUTO 00000KT 10SM CLR 21/19 A2986 RMK AO2 SLP115 T02110185 $,KLSF,2023-06-07T03:55:00Z,32.32,-84.97,21.1,18.5,0,0,,10.0,29.861221,1011.5,,TRUE,TRUE,TRUE,,,,,,CLR,,,,,,,,VFR,,,,,,,,,,,,METAR,68.0
KLRF 070355Z AUTO 00000KT 10SM CLR 21/18 A2987 RMK AO2 SLP115 T02100176,KLRF,2023-06-07T03:55:00Z,34.92,-92.12,21.0,17.6,0,0,,10.0,29.870079,1011.5,,TRUE,TRUE,,,,,,,CLR,,,,,,,,VFR,,,,,,,,,,,,METAR,85.0
KLOR 070355Z AUTO 00000KT 9SM CLR 21/19 A2989 RMK AO2 SLP103 T02110192 $,KLOR,2023-06-07T03:55:00Z,31.35,-85.75,21.1,19.2,0,0,,9.0,29.890747,1010.3,,TRUE,TRUE,TRUE,,,,,,CLR,,,,,,,,VFR,,,,,,,,,,,,METAR,92.0
KLLJ 070355Z AUTO 09003KT 10SM CLR 15/12 A2998 RMK AO2 SLP105 T01500117,KLLJ,2023-06-07T03:55:00Z,44.52,-114.22,15.0,11.7,90,3,,10.0,29.97933,1010.5,,TRUE,TRUE,,,,,,,CLR,,,,,,,,VFR,,,,,,,,,,,,METAR,1535.0
KLIC 070355Z AUTO 11003KT 10SM SCT060 16/13 A3006 RMK AO2 SLP119 T01560128,KLIC,2023-06-07T03:55:00Z,39.27,-103.67,15.6,12.8,110,3,,10.0,30.059055,1011.9,,TRUE,TRUE,,,,,,,SCT,6000,,,,,,,VFR,,,,,,,,,,,,METAR,1635.0
KLHW 070355Z AUTO 18005KT 10SM CLR 23/19 A2984 RMK AO2 SLP107 T02320193 $,KLHW,2023-06-07T03:55:00Z,31.88,-81.57,23.2,19.3,180,5,,10.0,29.840551,1010.7,,TRUE,TRUE,TRUE,,,,,,CLR,,,,,,,,VFR,,,,,,,,,,,,METAR,14.0
KLGF 070355Z AUTO 24015KT M M CLR 29/04 A2970 RMK AO2 SLP054 T02890044 RVRNO PWINO TSNO $,KLGF,2023-06-07T03:55:00Z,32.87,-114.4,28.9,4.4,240,15,,,29.698818,1005.4,,TRUE,TRUE,TRUE,,TRUE,,TRUE,,CLR,,,,,,,,,,,,,,,,,,,,METAR,118.0
KLFI 070355Z 24008KT 10SM CLR 20/15 A2971 RMK AO2A SLP067 T02000152 $,KLFI,2023-06-07T03:55:00Z,37.08,-76.33,20.0,15.2,240,8,,10.0,29.71063,1006.7,,,TRUE,TRUE,,,,,,CLR,,,,,,,,VFR,,,,,,,,,,,,METAR,2.0
KLCK 070355Z AUTO 28006KT 7SM SCT060 SCT080 18/13 A2984 RMK AO2 T01770134,KLCK,2023-06-07T03:55:00Z,39.82,-82.92,17.7,13.4,280,6,,7.0,29.840551,,,TRUE,TRUE,,,,,,,SCT,6000,SCT,8000,,,,,VFR,,,,,,,,,,,,METAR,225.0
KIRK 070355Z AUTO 24003KT 10SM CLR 19/15 A2990 RMK AO2 SLP122 T01890150,KIRK,2023-06-07T03:55:00Z,40.1,-92.55,18.9,15.0,240,3,,10.0,29.899607,1012.2,,TRUE,TRUE,,,,,,,CLR,,,,,,,,VFR,,,,,,,,,,,,METAR,292.0
KINS 070355Z AUTO 18007KT 10SM CLR 25/M13 A2976 RMK AO2 SLP032 T02501132,KINS,2023-06-07T03:55:00Z,36.58,-115.68,25.0,-13.2,180,7,,10.0,29.760826,1003.2,,TRUE,TRUE,,,,,,,CLR,,,,,,,,VFR,,,,,,,,,,,,METAR,954.0
KIAB 070355Z AUTO 26006KT 10SM CLR 21/15 A2993 RMK AO2 SLP126 T02110147 $,KIAB,2023-06-07T03:55:00Z,37.62,-97.27,21.1,14.7,260,6,,10.0,29.929134,1012.6,,TRUE,TRUE,TRUE,,,,,,CLR,,,,,,,,VFR,,,,,,,,,,,,METAR,413.0
KHUA 070355Z AUTO 00000KT 10SM CLR 21/20 A2988 RMK AO2 SLP113 T02100203,KHUA,2023-06-07T03:55:00Z,34.68,-86.68,21.0,20.3,0,0,,10.0,29.878937,1011.3,,TRUE,TRUE,,,,,,,CLR,,,,,,,,VFR,,,,,,,,,,,,METAR,200.0
KHST 070355Z AUTO 00000KT 10SM CLR 26/23 A2991 RMK AO2 SLP132 T02600229,KHST,2023-06-07T03:55:00Z,25.48,-80.37,26.0,22.9,0,0,,10.0,29.911417,1013.2,,TRUE,TRUE,,,,,,,CLR,,,,,,,,VFR,,,,,,,,,,,,METAR,1.0
KHRT 070355Z 19003KT 10SM SCT020 BKN200 24/21 A2988 RMK AO2A SLP120 T02430212,KHRT,2023-06-07T03:55:00Z,30.42,-86.68,24.3,21.2,190,3,,10.0,29.878937,1012.0,,,TRUE,,,,,,,SCT,2000,BKN,20000,,,,,VFR,,,,,,,,,,,,METAR,10.0
KHOP 070355Z AUTO 00000KT 10SM CLR 21/16 A2987 RMK AO2 SLP112 T02080160,KHOP,2023-06-07T03:55:00Z,36.67,-87.5,20.8,16.0,0,0,,10.0,29.870079,1011.2,,TRUE,TRUE,,,,,,,CLR,,,,,,,,VFR,,,,,,,,,,,,METAR,170.0
KHON 070355Z AUTO 22003KT 10SM CLR 24/13 A2985 RMK AO2 RAB30E39 SLP098 P0000 T02390133,KHON,2023-06-07T03:55:00Z,44.38,-98.23,23.9,13.3,220,3,,10.0,29.84941,1009.8,,TRUE,TRUE,,,,,,,CLR,,,,,,,,VFR,,,,,,0.005,,,,,,METAR,391.0
KHLR 070355Z AUTO 32003KT 10SM SCT120 23/18 A2991 RMK AO2 SLP118 T02290178,KHLR,2023-06-07T03:55:00Z,31.13,-97.72,22.9,17.8,320,3,,10.0,29.911417,1011.8,,TRUE,TRUE,,,,,,,SCT,12000,,,,,,,VFR,,,,,,,,,,,,METAR,271.0
KHFF 070355Z AUTO 00000KT 5SM HZ SCT075 SCT085 17/14 A2979 RMK AO2 LTG DSNT SW SLP088 T01700135 $,KHFF,2023-06-07T03:55:00Z,35.03,-79.5,17.0,13.5,0,0,,5.0,29.790354,1008.8,,TRUE,TRUE,TRUE,,,,,HZ,SCT,7500,SCT,8500,,,,,MVFR,,,,,,,,,,,,METAR,100.0
KHEY 070355Z AUTO 00000KT 10SM CLR 21/20 A2987 RMK AO2 SLP114 T02120197,KHEY,2023-06-07T03:55:00Z,31.35,-85.65,21.2,19.7,0,0,,10.0,29.870079,1011.4,,TRUE,TRUE,,,,,,,CLR,,,,,,,,VFR,,,,,,,,,,,,METAR,95.0
KGXF 070355Z 22010KT 10SM CLR 27/M07 A2975 RMK AO2A SLP062 T02741069 FZRANO $,KGXF,2023-06-07T03:55:00Z,32.88,-112.72,27.4,-6.9,220,10,,10.0,29.749016,1006.2,,,TRUE,TRUE,,,TRUE,,,CLR,,,,,,,,VFR,,,,,,,,,,,,METAR,261.0
KGXA 070355Z AUTO 35004KT 10SM SCT160 14/07 A2983 RMK AO2 SLP086 WND DATA ESTMD T01440067,KGXA,2023-06-07T03:55:00Z,34.57,-117.67,14.4,6.7,350,4,,10.0,29.828741,1008.6,,TRUE,TRUE,,,,,,,SCT,16000,,,,,,,VFR,,,,,,,,,,,,METAR,927.0
KGUS 070355Z AUTO 02007KT 10SM CLR 19/12 A2985 RMK AO2 SLP107 T01910124 $,KGUS,2023-06-07T03:55:00Z,40.63,-86.15,19.1,12.4,20,7,,10.0,29.84941,1010.7,,TRUE,TRUE,TRUE,,,,,,CLR,,,,,,,,VFR,,,,,,,,,,,,METAR,245.0
KGUR 070355Z AUTO 11004KT 10SM CLR 16/14 A2995 RMK AO2 SLP126 T01640140,KGUR,2023-06-07T03:55:00Z,42.25,-104.72,16.4,14.0,110,4,,10.0,29.949802,1012.6,,TRUE,TRUE,,,,,,,CLR,,,,,,,,VFR,,,,,,,,,,,,METAR,1341.0
KGTB 070355Z 00000KT 6SM HZ SCT080 BKN100 10/08 A2968 RMK AO2A SLP051 T00990083,KGTB,2023-06-07T03:55:00Z,44.07,-75.72,9.9,8.3,0,0,,6.0,29.681103,1005.1,,,TRUE,,,,,,HZ,SCT,8000,BKN,10000,,,,,VFR,,,,,,,,,,,,SPECI,206.0
KGSB 070355Z 00000KT 6SM HZ CLR 18/15 A2976 RMK AO2A SLP081 WND DATA ESTMD T01770148 $,KGSB,2023-06-07T03:55:00Z,35.33,-77.93,17.7,14.8,0,0,,6.0,29.760826,1008.1,,,TRUE,TRUE,,,,,HZ,CLR,,,,,,,,VFR,,,,,,,,,,,,METAR,33.0
KGRK 070355Z AUTO 34003KT 10SM CLR 22/18 A2991 RMK AO2 SLP119 T02210183,KGRK,2023-06-07T03:55:00Z,31.07,-97.83,22.1,18.3,340,3,,10.0,29.911417,1011.9,,TRUE,TRUE,,,,,,,CLR,,,,,,,,VFR,,,,,,,,,,,,METAR,311.0
KGRF 070355Z AUTO 34005KT 10SM CLR 23/04 A2975 RMK AO2 SLP076 T02300035 $,KGRF,2023-06-07T03:55:00Z,47.07,-122.57,23.0,3.5,340,5,,10.0,29.749016,1007.6,,TRUE,TRUE,TRUE,,,,,,CLR,,,,,,,,VFR,,,,,,,,,,,,METAR,91.0
KGPI 070355Z 28003KT 10SM CLR 19/10 A2984 RMK AO2 SLP087 T01940100 VISNO NE,KGPI,2023-06-07T03:55:00Z,48.32,-114.25,19.4,10.0,280,3,,10.0,29.840551,1008.7,,,TRUE,,,,,,,CLR,,,,,,,,VFR,,,,,,,,,,,,METAR,903.0
KGOV 070355Z AUTO 00000KT 10SM CLR 07/03 A2995 RMK AO2 SLP150 T00660027 402290065 $,KGOV,2023-06-07T03:55:00Z,44.68,-84.73,6.6,2.7,0,0,,10.0,29.949802,1015.0,,TRUE,TRUE,TRUE,,,,,,CLR,,,,,,,,VFR,,,,22.9,6.5,,,,,,,METAR,350.0
KGFA 070355Z AUTO 17004KT 10SM CLR 16/13 A2998 RMK AO2 SLP153 T01580127 $,KGFA,2023-06-07T03:55:00Z,47.5,-111.18,15.8,12.7,170,4,,10.0,29.97933,1015.3,,TRUE,TRUE,TRUE,,,,,,CLR,,,,,,,,VFR,,,,,,,,,,,,METAR,1058.0
KFTK 070355Z AUTO 23003KT 10SM FEW100 SCT120 18/13 A2983 RMK AO2 SLP098 T01840130 $,KFTK,2023-06-07T03:55:00Z,37.9,-85.97,18.4,13.0,230,3,,10.0,29.828741,1009.8,,TRUE,TRUE,TRUE,,,,,,FEW,10000,SCT,12000,,,,,VFR,,,,,,,,,,,,METAR,225.0
KFSI 070355Z AUTO 07008KT 10SM FEW065 19/17 A2991 RMK AO2 SLP121 T01940170 FZRANO $,KFSI,2023-06-07T03:55:00Z,34.65,-98.4,19.4,17.0,70,8,,10.0,29.911417,1012.1,,TRUE,TRUE,TRUE,,,TRUE,,,FEW,6500,,,,,,,VFR,,,,,,,,,,,,METAR,360.0
KFRI 070355Z AUTO 00000KT 10SM CLR 22/17 A2992 RMK AO2 SLP122 T02180172 $,KFRI,2023-06-07T03:55:00Z,39.05,-96.77,21.8,17.2,0,0,,10.0,29.920275,1012.2,,TRUE,TRUE,TRUE,,,,,,CLR,,,,,,,,VFR,,,,,,,,,,,,METAR,232.0
KFFO 070355Z 00000KT 6SM BR BKN085 BKN180 FEW180 15/14 A2983 RMK AO2A SLP100 T01540143,KFFO,2023-06-07T03:55:00Z,39.83,-84.03,15.4,14.3,0,0,,6.0,29.828741,1010.0,,,TRUE,,,,,,BR,BKN,8500,BKN,18000,FEW,18000,,,VFR,,,,,,,,,,,,METAR,250.0
KFEW 070355Z AUTO 22008KT 10SM FEW070 OVC110 13/10 A3007 RMK AO2 RAE21RAB31E41 SLP121 P0000 T01320098 $,KFEW,2023-06-07T03:55:00Z,41.13,-104.87,13.2,9.8,220,8,,10.0,30.070866,1012.1,,TRUE,TRUE,TRUE,,,,,,FEW,7000,OVC,11000,,,,,VFR,,,,,,0.005,,,,,,METAR,1877.0
KFBG 070355Z AUTO 00000KT 7SM CLR 17/12 A2977 RMK AO2 SLP082 T01650124 $,KFBG,2023-06-07T03:55:00Z,35.12,-78.92,16.5,12.4,0,0,,7.0,29.769686,1008.2,,TRUE,TRUE,TRUE,,,,,,CLR,,,,,,,,VFR,,,,,,,,,,,,METAR,69.0
KFAF 070355Z AUTO 26004KT 10SM FEW090 22/13 A2970 RMK AO2 SLP061 T02170133 $,KFAF,2023-06-07T03:55:00Z,37.13,-76.62,21.7,13.3,260,4,,10.0,29.698818,1006.1,,TRUE,TRUE,TRUE,,,,,,FEW,9000,,,,,,,VFR,,,,,,,,,,,,METAR,3.0
KEND 070355Z 00000KT 10SM FEW160 20/16 A2992 RMK AO2A SLP122 T02010155 $,KEND,2023-06-07T03:55:00Z,36.33,-97.92,20.1,15.5,0,0,,10.0,29.920275,1012.2,,,TRUE,TRUE,,,,,,FEW,16000,,,,,,,VFR,,,,,,,,,,,,METAR,392.0
KEGI 070355Z AUTO 00000KT 10SM CLR 21/19 A2989 RMK AO2 SLP121 T02050191 $,KEGI,2023-06-07T03:55:00Z,30.65,-86.52,20.5,19.1,0,0,,10.0,29.890747,1012.1,,TRUE,TRUE,TRUE,,,,,,CLR,,,,,,,,VFR,,,,,,,,,,,,METAR,59.0
KEDW 070355Z 23017KT 30SM OVC130 15/08 A2981 RMK AO2A PK WND 23026/25 SLP083 T01520077,KEDW,2023-06-07T03:55:00Z,34.9,-117.87,15.2,7.7,230,17,,30.0,29.811024,1008.3,,,TRUE,,,,,,,OVC,13000,,,,,,,VFR,,,,,,,,,,,,METAR,698.0
KEAT 070355Z AUTO 00000KT 10SM CLR 26/07 A2975 RMK AO2 SLP067 T02560067,KEAT,2023-06-07T03:55:00Z,47.4,-120.2,25.6,6.7,0,0,,10.0,29.749016,1006.7,,TRUE,TRUE,,,,,,,CLR,,,,,,,,VFR,,,,,,,,,,,,METAR,375.0
KDYS 070355Z AUTO 16005KT 10SM CLR 21/16 A2993 RMK AO2 SLP097 T02100164,KDYS,2023-06-07T03:55:00Z,32.42,-99.83,21.0,16.4,160,5,,10.0,29.929134,1009.7,,TRUE,TRUE,,,,,,,CLR,,,,,,,,VFR,,,,,,,,,,,,METAR,544.0
KDOV 070355Z AUTO 01012KT 9SM SCT100 17/15 A2967 RMK AO2 SLP051 T01720145 402740133,KDOV,2023-06-07T03:55:00Z,39.12,-75.47,17.2,14.5,10,12,,9.0,29.66929,1005.1,,TRUE,TRUE,,,,,,,SCT,10000,,,,,,,VFR,,,,27.4,13.3,,,,,,,METAR,6.0
KDMA 070355Z 24011G16KT 10SM CLR 27/02 A2983 RMK AO2A SLP055 T02730024 $,KDMA,2023-06-07T03:55:00Z,32.17,-110.88,27.3,2.4,240,11,16,10.0,29.828741,1005.5,,,TRUE,TRUE,,,,,,CLR,,,,,,,,VFR,,,,,,,,,,,,METAR,804.0
KDLH 070355Z 09007KT 10SM BKN065 11/02 A3003 RMK AO2 SLP175 T01110017,KDLH,2023-06-07T03:55:00Z,46.85,-92.2,11.1,1.7,90,7,,10.0,30.029528,1017.5,,,TRUE,,,,,,,BKN,6500,,,,,,,VFR,,,,,,,,,,,,METAR,434.0
KDLF 070355Z AUTO 14004KT 10SM CLR 26/18 A2985 RMK AO2 SLP096 T02590180 $,KDLF,2023-06-07T03:55:00Z,29.37,-100.78,25.9,18.0,140,4,,10.0,29.84941,1009.6,,TRUE,TRUE,TRUE,,,,,,CLR,,,,,,,,VFR,,,,,,,,,,,,METAR,328.0
KDAA 070355Z AUTO 00000KT 10SM CLR 18/11 A2968 RMK AO2 SLP053 T01830109 $,KDAA,2023-06-07T03:55:00Z,38.72,-77.17,18.3,10.9,0,0,,10.0,29.681103,1005.3,,TRUE,TRUE,TRUE,,,,,,CLR,,,,,,,,VFR,,,,,,,,,,,,METAR,17.0
KCWN 070355Z AUTO 30006KT 10SM SCT230 15/04 A3007 RMK AO2 SLP022 T01470044 $,KCWN,2023-06-07T03:55:00Z,38.75,-104.85,14.7,4.4,300,6,,10.0,30.070866,1002.2,,TRUE,TRUE,TRUE,,,,,,SCT,23000,,,,,,,VFR,,,,,,,,,,,,METAR,2040.0
KCVS 070355Z AUTO 11005KT 10SM SCT065 19/17 A3005 RMK AO2 SLP123 T01880169 $,KCVS,2023-06-07T03:55:00Z,34.37,-103.32,18.8,16.9,110,5,,10.0,30.050198,1012.3,,TRUE,TRUE,TRUE,,,,,,SCT,6500,,,,,,,VFR,,,,,,,,,,,,METAR,1305.0
KCOF 070355Z AUTO 16009KT 10SM CLR 26/20 A2990 RMK AO2 SLP130 T02550196 $,KCOF,2023-06-07T03:55:00Z,28.23,-80.6,25.5,19.6,160,9,,10.0,29.899607,1013.0,,TRUE,TRUE,TRUE,,,,,,CLR,,,,,,,,VFR,,,,,,,,,,,,METAR,1.0
KCNW 070355Z 02004KT 10SM SCT060 22/19 A2990,KCNW,2023-06-07T03:55:00Z,31.63,-97.07,22.0,19.0,20,4,,10.0,29.899607,,,,,,,,,,,SCT,6000,,,,,,,VFR,,,,,,,,,,,,METAR,139.0
KCNK 070355Z AUTO 22007KT 10SM CLR 23/15 A2994 RMK AO2 SLP122 T02280150,KCNK,2023-06-07T03:55:00Z,39.55,-97.65,22.8,15.0,220,7,,10.0,29.940945,1012.2,,TRUE,TRUE,,,,,,,CLR,,,,,,,,VFR,,,,,,,,,,,,METAR,445.0
KCMY 070355Z AUTO 00000KT 10SM BKN050 OVC070 19/15 A2992 RMK AO2 SLP132 T01940152 FZRANO $,KCMY,2023-06-07T03:55:00Z,43.97,-90.73,19.4,15.2,0,0,,10.0,29.920275,1013.2,,TRUE,TRUE,TRUE,,,TRUE,,,BKN,5000,OVC,7000,,,,,VFR,,,,,,,,,,,,METAR,253.0
KCMA 070355Z AUTO 00000KT 10SM FEW050 SCT070 OVC110 16/12 A2991 RMK AO2 RAE10 SLP137 P0000 T01560122,KCMA,2023-06-07T03:55:00Z,34.22,-119.1,15.6,12.2,0,0,,10.0,29.911417,1013.7,,TRUE,TRUE,,,,,,,FEW,5000,SCT,7000,OVC,11000,,,VFR,,,,,,0.005,,,,,,METAR,20.0
KCBM 070355Z 00000KT 10SM SCT200 24/20 A2984 RMK AO2A SLP108 ALSTG/SLP ESTMD $,KCBM,2023-06-07T03:55:00Z,33.65,-88.45,24.0,20.0,0,0,,10.0,29.840551,1010.8,,,TRUE,TRUE,,,,,,SCT,20000,,,,,,,VFR,,,,,,,,,,,,METAR,59.0
KCAO 070355Z AUTO 20010KT 10SM CLR 18/14 A3005 RMK AO2 LTG DSNT NE SLP122 T01780139,KCAO,2023-06-07T03:55:00Z,36.45,-103.15,17.8,13.9,200,10,,10.0,30.050198,1012.2,,TRUE,TRUE,,,,,,,CLR,,,,,,,,VFR,,,,,,,,,,,,METAR,1517.0
KBYS 070355Z AUTO 25020KT 10SM CLR 20/07 A2973 RMK AO2 SLP049 T02020072 $,KBYS,2023-06-07T03:55:00Z,35.28,-116.63,20.2,7.2,250,20,,10.0,29.731298,1004.9,,TRUE,TRUE,TRUE,,,,,,CLR,,,,,,,,VFR,,,,,,,,,,,,METAR,717.0
KBLV 070355Z 00000KT 10SM BKN140 22/14 A2986 RMK AO2A SLP111 T02200139 $,KBLV,2023-06-07T03:55:00Z,38.53,-89.83,22.0,13.9,0,0,,10.0,29.861221,1011.1,,,TRUE,TRUE,,,,,,BKN,14000,,,,,,,VFR,,,,,,,,,,,,METAR,134.0
KBIF 070355Z 02008KT 10SM FEW240 21/11 A3001 RMK SLPNO ALSTG WND DATA ESTMD $,KBIF,2023-06-07T03:55:00Z,31.85,-106.38,21.0,11.0,20,8,,10.0,30.008858,,,,,TRUE,,,,,,FEW,24000,,,,,,,VFR,,,,,,,,,,,,METAR,1201.0
KBAD 070355Z AUTO 15003KT 10SM CLR 22/19 A2987 RMK AO2 SLP118 T02230191,KBAD,2023-06-07T03:55:00Z,32.5,-93.67,22.3,19.1,150,3,,10.0,29.870079,1011.8,,TRUE,TRUE,,,,,,,CLR,,,,,,,,VFR,,,,,,,,,,,,SPECI,49.0
KBAB 070355Z 13008KT 10SM CLR 18/13 A2981 RMK AO2A SLP097 T01810130 $,KBAB,2023-06-07T03:55:00Z,39.13,-121.43,18.1,13.0,130,8,,10.0,29.811024,1009.7,,,TRUE,TRUE,,,,,,CLR,,,,,,,,VFR,,,,,,,,,,,,METAR,31.0
KAST 070355Z AUTO VRB03KT 10SM CLR 18/07 A2976 RMK AO2 SLP078 T01780072,KAST,2023-06-07T03:55:00Z,46.15,-123.88,17.8,7.2,0,3,,10.0,29.760826,1007.8,,TRUE,TRUE,,,,,,,CLR,,,,,,,,VFR,,,,,,,,,,,,METAR,3.0
KANJ 070355Z AUTO 33004KT 10SM CLR 11/06 A2997 RMK AO2 SLP147 T01060056,KANJ,2023-06-07T03:55:00Z,46.47,-84.37,10.6,5.6,330,4,,10.0,29.970472,1014.7,,TRUE,TRUE,,,,,,,CLR,,,,,,,,VFR,,,,,,,,,,,,METAR,220.0
KAFF 070355Z AUTO 35004KT 10SM FEW150 BKN170 13/09 A3010 RMK AO2 SLP124 T01320085,KAFF,2023-06-07T03:55:00Z,38.97,-104.82,13.2,8.5,350,4,,10.0,30.100393,1012.4,,TRUE,TRUE,,,,,,,FEW,15000,BKN,17000,,,,,VFR,,,,,,,,,,,,METAR,2003.0
KADW 070355Z AUTO 30009KT 10SM CLR 23/10 A2967 RMK AO2 SLP052 T02250103 $,KADW,2023-06-07T03:55:00Z,38.82,-76.87,22.5,10.3,300,9,,10.0,29.66929,1005.2,,TRUE,TRUE,TRUE,,,,,,CLR,,,,,,,,VFR,,,,,,,,,,,,METAR,87.0
KABH 070355Z AUTO 09008KT 10SM CLR 14/11 A3008 RMK AO2 SLP130 T01440110,KABH,2023-06-07T03:55:00Z,38.75,-104.3,14.4,11.0,90,8,,10.0,30.079725,1013.0,,TRUE,TRUE,,,,,,,CLR,,,,,,,,VFR,,,,,,,,,,,,METAR,1838.0
KAAT 070355Z AUTO 19012KT 10SM CLR 18/06 A2989 RMK AO2 SLP085 T01780061,KAAT,2023-06-07T03:55:00Z,41.48,-120.57,17.8,6.1,190,12,,10.0,29.890747,1008.5,,TRUE,TRUE,,,,,,,CLR,,,,,,,,VFR,,,,,,,,,,,,METAR,1336.0
K4MR 070355Z AUTO 14005KT 10SM CLR 20/15 A3001 RMK AO2 LTG DSNT NW-N SLP089 T01970147 $,K4MR,2023-06-07T03:55:00Z,34.3,-103.8,19.7,14.7,140,5,,10.0,30.008858,1008.9,,TRUE,TRUE,TRUE,,,,,,CLR,,,,,,,,VFR,,,,,,,,,,,,METAR,1339.0
K2DP 070355Z AUTO M 10SM M M M RMK AO2 LTG DSNT S SLPNO $,K2DP,2023-06-07T03:55:00Z,35.68,-75.9,,,,,,10.0,,,,TRUE,TRUE,TRUE,,,,,,,,,,,,,,,,,,,,,,,,,,METAR,1.0
K1YT 070355Z AUTO 12007KT 10SM CLR 25/M07 A2973 RMK AO2 SLP061 T02511075 $,K1YT,2023-06-07T03:55:00Z,46.67,-120.45,25.1,-7.5,120,7,,10.0,29.731298,1006.1,,TRUE,TRUE,TRUE,,,,,,CLR,,,,,,,,VFR,,,,,,,,,,,,METAR,423.0
K1OW 070355Z AUTO 13005KT 10SM SCT060 16/12 A3016 RMK AO2 SLP162 T01570123 $,K1OW,2023-06-07T03:55:00Z,40.88,-104.0,15.7,12.3,130,5,,10.0,30.159449,1016.2,,TRUE,TRUE,TRUE,,,,,,SCT,6000,,,,,,,VFR,,,,,,,,,,,,METAR,1650.0
K1ON 070355Z AUTO 16006KT 10SM SCT150 25/17 A2982 RMK AO2 SLP094 T02470167 $,K1ON,2023-06-07T03:55:00Z,,,24.7,16.7,160,6,,10.0,29.819881,1009.4,,TRUE,TRUE,TRUE,,,,,,SCT,15000,,,,,,,VFR,,,,,,,,,,,,METAR,
K1OM 070355Z AUTO 29011KT 10SM BKN160 OVC240 16/13 A2996 RMK AO2 SLP131 T01580129 $,K1OM,2023-06-07T03:55:00Z,47.33,-108.93,15.8,12.9,290,11,,10.0,29.958662,1013.1,,TRUE,TRUE,TRUE,,,,,,BKN,16000,OVC,24000,,,,,VFR,,,,,,,,,,,,METAR,1088.0
K1NW 070355Z AUTO 14009KT 10SM M 17/14 A3000 RMK AO2 SLP110 T01700135 $,K1NW,2023-06-07T03:55:00Z,40.63,-103.83,17.0,13.5,140,9,,10.0,30.0,1011.0,,TRUE,TRUE,TRUE,,,,,,,,,,,,,,,,,,,,,,,,,,METAR,1461.0
K1NN 070355Z AUTO 21005KT 9SM CLR 23/17 A2983 RMK AO2 SLP095 T02340171 $,K1NN,2023-06-07T03:55:00Z,,,23.4,17.1,210,5,,9.0,29.828741,1009.5,,TRUE,TRUE,TRUE,,,,,,CLR,,,,,,,,VFR,,,,,,,,,,,,METAR,
K1MW 070355Z AUTO 14009KT 10SM FEW065 BKN090 18/13 A2999 RMK AO2 SLP113 T01790128 $,K1MW,2023-06-07T03:55:00Z,40.7,-103.48,17.9,12.8,140,9,,10.0,29.991142,1011.3,,TRUE,TRUE,TRUE,,,,,,FEW,6500,BKN,9000,,,,,VFR,,,,,,,,,,,,METAR,1338.0
K1MN 070355Z AUTO 21007KT 10SM CLR 23/18 A2983 RMK AO2 SLP094 T02250180 $,K1MN,2023-06-07T03:55:00Z,,,22.5,18.0,210,7,,10.0,29.828741,1009.4,,TRUE,TRUE,TRUE,,,,,,CLR,,,,,,,,VFR,,,,,,,,,,,,METAR,
K1MM 070355Z AUTO 20004KT 10SM FEW210 14/12 A3001 RMK AO2 SLP148 T01370116 $,K1MM,2023-06-07T03:55:00Z,47.02,-109.63,13.7,11.6,200,4,,10.0,30.008858,1014.8,,TRUE,TRUE,TRUE,,,,,,FEW,21000,,,,,,,VFR,,,,,,,,,,,,METAR,1256.0
K1LN 070355Z AUTO 21007KT 8SM CLR 22/17 A2984 RMK AO2 SLP095 T02200167 $,K1LN,2023-06-07T03:55:00Z,,,22.0,16.7,210,7,,8.0,29.840551,1009.5,,TRUE,TRUE,TRUE,,,,,,CLR,,,,,,,,VFR,,,,,,,,,,,,METAR,
K1LM 070355Z AUTO 35005KT 10SM OVC210 13/12 A3002 RMK AO2 SLP142 T01280122 $,K1LM,2023-06-07T03:55:00Z,46.7,-109.73,12.8,12.2,350,5,,10.0,30.02067,1014.2,,TRUE,TRUE,TRUE,,,,,,OVC,21000,,,,,,,VFR,,,,,,,,,,,,METAR,1417.0
K1KW 070355Z AUTO 15007KT 10SM CLR 16/13 M RMK AO2 SLPNO T01580129 $,K1KW,2023-06-07T03:55:00Z,41.13,-103.48,15.8,12.9,150,7,,10.0,,,,TRUE,TRUE,TRUE,,,,,,CLR,,,,,,,,VFR,,,,,,,,,,,,METAR,1443.0
K1JW 070355Z AUTO 13009KT 10SM CLR 17/11 M RMK AO2 SLPNO T01730113 $,K1JW,2023-06-07T03:55:00Z,40.97,-103.2,17.3,11.3,130,9,,10.0,,,,TRUE,TRUE,TRUE,,,,,,CLR,,,,,,,,VFR,,,,,,,,,,,,METAR,1382.0
K1JN 070355Z AUTO 22007KT 10SM CLR 22/17 A2985 RMK AO2 SLP101 T02170171 $,K1JN,2023-06-07T03:55:00Z,,,21.7,17.1,220,7,,10.0,29.84941,1010.1,,TRUE,TRUE,TRUE,,,,,,CLR,,,,,,,,VFR,,,,,,,,,,,,METAR,
K1JM 070355Z AUTO 16003KT 10SM CLR 14/11 A2996 RMK AO2 SLP150 T01440108 $,K1JM,2023-06-07T03:55:00Z,47.75,-111.55,14.4,10.8,160,3,,10.0,29.958662,1015.0,,TRUE,TRUE,TRUE,,,,,,CLR,,,,,,,,VFR,,,,,,,,,,,,METAR,1154.0
K1IW 070355Z AUTO 15009KT 10SM CLR 32/27 A2999 RMK AO2 SLPNO T03190273 $,K1IW,2023-06-07T03:55:00Z,41.05,-102.87,31.9,27.3,150,9,,10.0,29.991142,,,TRUE,TRUE,TRUE,,,,,,CLR,,,,,,,,VFR,,,,,,,,,,,,METAR,1294.0
K1IN 070355Z AUTO 14003KT 10SM CLR 24/16 A2986 RMK AO2 SLP103 T02420162 $,K1IN,2023-06-07T03:55:00Z,,,24.2,16.2,140,3,,10.0,29.861221,1010.3,,TRUE,TRUE,TRUE,,,,,,CLR,,,,,,,,VFR,,,,,,,,,,,,METAR,
K1IM 070355Z AUTO 15003KT 10SM SCT060 BKN130 14/13 A2995 RMK AO2 SLP144 T01390129 $,K1IM,2023-06-07T03:55:00Z,47.32,-111.47,13.9,12.9,150,3,,10.0,29.949802,1014.4,,TRUE,TRUE,TRUE,,,,,,SCT,6000,BKN,13000,,,,,VFR,,,,,,,,,,,,METAR,1110.0
K1HW 070355Z AUTO 14006KT 10SM CLR 16/13 A2998 RMK AO2 SLP115 T01560125 $,K1HW,2023-06-07T03:55:00Z,41.32,-102.83,15.6,12.5,140,6,,10.0,29.97933,1011.5,,TRUE,TRUE,TRUE,,,,,,CLR,,,,,,,,VFR,,,,,,,,,,,,METAR,1265.0
K1HN 070355Z AUTO 12005KT 10SM CLR 22/16 A2983 RMK AO2 SLP097 T02200156 $,K1HN,2023-06-07T03:55:00Z,,,22.0,15.6,120,5,,10.0,29.828741,1009.7,,TRUE,TRUE,TRUE,,,,,,CLR,,,,,,,,VFR,,,,,,,,,,,,METAR,
K1HM 070355Z AUTO 00000KT 10SM CLR 15/10 A2997 RMK AO2 SLP149 T01530099 $,K1HM,2023-06-07T03:55:00Z,47.7,-111.95,15.3,9.9,0,0,,10.0,29.970472,1014.9,,TRUE,TRUE,TRUE,,,,,,CLR,,,,,,,,VFR,,,,,,,,,,,,METAR,1181.0
K1GN 070355Z AUTO 14003KT 10SM CLR 24/18 A2984 RMK AO2 SLP103 T02420184 $,K1GN,2023-06-07T03:55:00Z,,,24.2,18.4,140,3,,10.0,29.840551,1010.3,,TRUE,TRUE,TRUE,,,,,,CLR,,,,,,,,VFR,,,,,,,,,,,,METAR,
K1GM 070355Z AUTO 29003KT 10SM CLR 14/09 M RMK AO2 SLPNO T01390091 $,K1GM,2023-06-07T03:55:00Z,47.33,-112.1,13.9,9.1,290,3,,10.0,,,,TRUE,TRUE,TRUE,,,,,,CLR,,,,,,,,VFR,,,,,,,,,,,,METAR,1317.0
K1FW 070355Z AUTO 00000KT 10SM CLR 16/12 A3000 RMK AO2 SLP111 T01640122 $,K1FW,2023-06-07T03:55:00Z,41.37,-103.48,16.4,12.2,0,0,,10.0,30.0,1011.1,,TRUE,TRUE,TRUE,,,,,,CLR,,,,,,,,VFR,,,,,,,,,,,,METAR,1451.0
K1FM 070355Z AUTO 28006KT 10SM CLR 14/10 A3001 RMK AO2 SLP156 T01390095 $,K1FM,2023-06-07T03:55:00Z,47.6,-112.32,13.9,9.5,280,6,,10.0,30.008858,1015.6,,TRUE,TRUE,TRUE,,,,,,CLR,,,,,,,,VFR,,,,,,,,,,,,METAR,1344.0
K1EW 070355Z AUTO 22003KT 10SM BKN065 18/11 A3002 RMK AO2 SLP113 T01750113 $,K1EW,2023-06-07T03:55:00Z,41.12,-103.98,17.5,11.3,220,3,,10.0,30.02067,1011.3,,TRUE,TRUE,TRUE,,,,,,BKN,6500,,,,,,,VFR,,,,,,,,,,,,METAR,1609.0
K1EN 070355Z AUTO 14003KT 10SM CLR 23/17 A2966 RMK AO2 SLP041 T02300170 $,K1EN,2023-06-07T03:55:00Z,,,23.0,17.0,140,3,,10.0,29.660433,1004.1,,TRUE,TRUE,TRUE,,,,,,CLR,,,,,,,,VFR,,,,,,,,,,,,METAR,
K1EM 070355Z AUTO 22004KT 10SM CLR 15/12 A2998 RMK AO2 SLP142 T01530122 $,K1EM,2023-06-07T03:55:00Z,47.45,-109.42,15.3,12.2,220,4,,10.0,29.97933,1014.2,,TRUE,TRUE,TRUE,,,,,,CLR,,,,,,,,VFR,,,,,,,,,,,,METAR,1118.0
K1DN 070355Z AUTO 00000KT 10SM CLR 24/15 A2840 RMK AO2 SLP603 T02410150 $,K1DN,2023-06-07T03:55:00Z,,,24.1,15.0,0,0,,10.0,28.399607,960.3,,TRUE,TRUE,TRUE,,,,,,CLR,,,,,,,,VFR,,,,,,,,,,,,METAR,
K1DM 070355Z AUTO 25006KT 10SM CLR 16/13 A2999 RMK AO2 SLP148 T01580125 $,K1DM,2023-06-07T03:55:00Z,47.37,-109.8,15.8,12.5,250,6,,10.0,29.991142,1014.8,,TRUE,TRUE,TRUE,,,,,,CLR,,,,,,,,VFR,,,,,,,,,,,,METAR,1093.0
K1CW 070355Z AUTO 14016KT 10SM CLR 19/10 A2999 RMK AO2 SLP107 T01910104 $,K1CW,2023-06-07T03:55:00Z,41.58,-103.57,19.1,10.4,140,16,,10.0,29.991142,1010.7,,TRUE,TRUE,TRUE,,,,,,CLR,,,,,,,,VFR,,,,,,,,,,,,METAR,1370.0
K1CN 070355Z AUTO 00000KT 10SM CLR 23/15 A2986 RMK AO2 SLP104 T02330146 $,K1CN,2023-06-07T03:55:00Z,,,23.3,14.6,0,0,,10.0,29.861221,1010.4,,TRUE,TRUE,TRUE,,,,,,CLR,,,,,,,,VFR,,,,,,,,,,,,METAR,
K1CM 070355Z AUTO 00000KT 10SM FEW230 14/13 A3002 RMK AO2 SLP156 T01370129 $,K1CM,2023-06-07T03:55:00Z,47.1,-110.17,13.7,12.9,0,0,,10.0,30.02067,1015.6,,TRUE,TRUE,TRUE,,,,,,FEW,23000,,,,,,,VFR,,,,,,,,,,,,METAR,1338.0
K1BW 070355Z AUTO 18008KT 10SM FEW055 15/12 A3007 RMK AO2 SLP134 T01500116 $,K1BW,2023-06-07T03:55:00Z,41.52,-104.0,15.0,11.6,180,8,,10.0,30.070866,1013.4,,TRUE,TRUE,TRUE,,,,,,FEW,5500,,,,,,,VFR,,,,,,,,,,,,METAR,1606.0
K1BN 070355Z AUTO 22006KT 10SM CLR 24/14 A2984 RMK AO2 SLP096 T02390137 $,K1BN,2023-06-07T03:55:00Z,,,23.9,13.7,220,6,,10.0,29.840551,1009.6,,TRUE,TRUE,TRUE,,,,,,CLR,,,,,,,,VFR,,,,,,,,,,,,METAR,
K1AN 070355Z AUTO 14004KT 10SM CLR 26/17 A2979 RMK AO2 SLP096 T02560170 $,K1AN,2023-06-07T03:55:00Z,,,25.6,17.0,140,4,,10.0,29.790354,1009.6,,TRUE,TRUE,TRUE,,,,,,CLR,,,,,,,,VFR,,,,,,,,,,,,METAR,
K1AM 070355Z AUTO 00000KT 10SM CLR 13/11 A2999 RMK AO2 SLP154 T01340113 $,K1AM,2023-06-07T03:55:00Z,47.28,-110.8,13.4,11.3,0,0,,10.0,29.991142,1015.4,,TRUE,TRUE,TRUE,,,,,,CLR,,,,,,,,VFR,,,,,,,,,,,,METAR,1228.0
FJDG 070355Z 15013G20KT 9999 FEW020 FEW080 SCT250 28/25 A2990 RMK SLP122 T02830246,FJDG,2023-06-07T03:55:00Z,-7.32,72.42,28.3,24.6,150,13,20,6.21,29.899607,1012.2,,,,,,,,,,FEW,2000,FEW,8000,SCT,25000,,,VFR,,,,,,,,,,,,METAR,3.0
ETOU 070355Z COR 27003KT 9999 SCT065 OVC100 15/08 A3006 RMK AO2A SLP180 T01470145 COR 0403,ETOU,2023-06-07T03:55:00Z,50.03,8.32,14.7,8.0,270,3,,6.21,30.059055,1018.0,TRUE,,TRUE,,,,,,,SCT,6500,OVC,10000,,,,,VFR,,,,,,,,,,,,METAR,141.0
ETIK 070355Z AUTO 00000KT 9999 OVC030 11/10 A3006 RMK AO2 SLP181 T01130099,ETIK,2023-06-07T03:55:00Z,49.47,10.38,11.3,9.9,0,0,,6.21,30.059055,1018.1,,TRUE,TRUE,,,,,,,OVC,3000,,,,,,,MVFR,,,,,,,,,,,,METAR,326.0
ETIC 070355Z AUTO 00000KT 9999 BKN017 OVC024 12/11 A3004 RMK AO2 SLP175 T01180113 $,ETIC,2023-06-07T03:55:00Z,49.7,11.93,11.8,11.3,0,0,,6.21,30.041338,1017.5,,TRUE,TRUE,TRUE,,,,,,BKN,1700,OVC,2400,,,,,MVFR,,,,,,,,,,,,METAR,414.0
ETAR 070355Z AUTO 00000KT 9999 CLR 07/07 A3006 RMK AO2 SLP182 T00740067,ETAR,2023-06-07T03:55:00Z,49.43,7.58,7.4,6.7,0,0,,6.21,30.059055,1018.2,,TRUE,TRUE,,,,,,,CLR,,,,,,,,VFR,,,,,,,,,,,,METAR,231.0
ETAD 070355Z AUTO 00000KT 9999 CLR 12/05 A3006 RMK AO2 SLP168 T01240051,ETAD,2023-06-07T03:55:00Z,49.98,6.7,12.4,5.1,0,0,,6.21,30.059055,1016.8,,TRUE,TRUE,,,,,,,CLR,,,,,,,,VFR,,,,,,,,,,,,METAR,365.0
EHHW 070355Z AUTO 01010KT 330V030 9999 OVC010/// 11/09 Q1022,EHHW,2023-06-07T03:55:00Z,54.03,6.03,11.0,9.0,10,10,,6.21,30.177166,,,TRUE,,,,,,,,OVC,1000,,,,,,,MVFR,,,,,,,,,,,,METAR,10.0
EGVA 070355Z AUTO 04008KT 9999 OVC019 10/08 A3017 RMK AO2 CIG 018 RWY27 SLP221 T01000078 FZRANO $,EGVA,2023-06-07T03:55:00Z,51.67,-1.78,10.0,7.8,40,8,,6.21,30.171259,1022.1,,TRUE,TRUE,TRUE,,,TRUE,,,OVC,1900,,,,,,,MVFR,,,,,,,,,,,,METAR,84.0
EGUL 070355Z 05003KT 9999 OVC021 10/10 A3020 RMK AO2A SLP230 T01020100 $,EGUL,2023-06-07T03:55:00Z,52.42,0.57,10.2,10.0,50,3,,6.21,30.200787,1023.0,,,TRUE,TRUE,,,,,,OVC,2100,,,,,,,MVFR,,,,,,,,,,,,METAR,8.0
BGTL 070355Z AUTO 18016KT 9999 FEW032 OVC042 M03/M07 A3003 RMK AO2 SLP155 T10281073 400001029 TSNO $,BGTL,2023-06-07T03:55:00Z,76.53,-68.75,-2.8,-7.3,180,16,,6.21,30.029528,1015.5,,TRUE,TRUE,TRUE,,TRUE,,,,FEW,3200,OVC,4200,,,,,VFR,,,,,-2.9,,,,,,,METAR,79.0
PHOG 070354Z 05016G25KT 10SM FEW020 SCT035 27/19 A3002 RMK AO2 SLP170 T02720189,PHOG,2023-06-07T03:54:00Z,20.9,-156.43,27.2,18.9,50,16,25,10.0,30.02067,1017.0,,,TRUE,,,,,,,FEW,2000,SCT,3500,,,,,VFR,,,,,,,,,,,,METAR,14.0
PHMK 070354Z 05014G21KT 10SM FEW044 26/20 A3005 RMK AO2 SLP178 T02610200,PHMK,2023-06-07T03:54:00Z,21.15,-157.1,26.1,20.0,50,14,21,10.0,30.050198,1017.8,,,TRUE,,,,,,,FEW,4400,,,,,,,VFR,,,,,,,,,,,,METAR,135.0
PGUM 070354Z 08018G23KT 10SM SCT025 32/24 A2986 RMK AO2 SLP101 T03170239,PGUM,2023-06-07T03:54:00Z,13.48,144.8,31.7,23.9,80,18,23,10.0,29.861221,1010.1,,,TRUE,,,,,,,SCT,2500,,,,,,,VFR,,,,,,,,,,,,METAR,74.0
PGSN 070354Z 07015KT 10SM SCT019 31/27 A2986 RMK AO2 SLP132 T03110272,PGSN,2023-06-07T03:54:00Z,15.12,145.72,31.1,27.2,70,15,,10.0,29.861221,1013.2,,,TRUE,,,,,,,SCT,1900,,,,,,,VFR,,,,,,,,,,,,METAR,65.0
PAKN 070354Z 18010KT 10SM SCT040 BKN050 OVC090 14/06 A2971 RMK AO2 SLP061 T01440056,PAKN,2023-06-07T03:54:00Z,58.68,-156.65,14.4,5.6,180,10,,10.0,29.71063,1006.1,,,TRUE,,,,,,,SCT,4000,BKN,5000,OVC,9000,,,VFR,,,,,,,,,,,,METAR,20.0
PAHN 070354Z AUTO 08008G17KT 040V110 BKN022 BKN029 OVC060 12/08 A3005 RMK AO2 SLP179 T01170078 TSNO $,PAHN,2023-06-07T03:54:00Z,59.25,-135.52,11.7,7.8,80,8,17,,30.050198,1017.9,,TRUE,TRUE,TRUE,,TRUE,,,,BKN,2200,BKN,2900,OVC,6000,,,,,,,,,,,,,,,METAR,15.0
MMLO 070354Z 00000KT 8SM FEW030 SCT090 SCT250 24/08 A3019 RMK 8/463,MMLO,2023-06-07T03:54:00Z,21.0,-101.47,24.0,8.0,0,0,,8.0,30.188976,,,,,,,,,,,FEW,3000,SCT,9000,SCT,25000,,,VFR,,,,,,,,,,,,METAR,1805.0
KWLD 070354Z AUTO 22003KT 10SM CLR 18/17 A2997 RMK AO2 SLP137 T01830167,KWLD,2023-06-07T03:54:00Z,37.17,-97.03,18.3,16.7,220,3,,10.0,29.970472,1013.7,,TRUE,TRUE,,,,,,,CLR,,,,,,,,VFR,,,,,,,,,,,,METAR,351.0
KWAL 070354Z AUTO 26008KT 6SM HZ CLR 22/13 A2968 RMK AO2 SLP049 T02170133,KWAL,2023-06-07T03:54:00Z,37.93,-75.47,21.7,13.3,260,8,,6.0,29.681103,1004.9,,TRUE,TRUE,,,,,,HZ,CLR,,,,,,,,VFR,,,,,,,,,,,,METAR,10.0
KVTA 070354Z AUTO 36004KT 10SM FEW060 18/07 A2984 RMK AO2 SLP100 T01780072,KVTA,2023-06-07T03:54:00Z,40.02,-82.47,17.8,7.2,360,4,,10.0,29.840551,1010.0,,TRUE,TRUE,,,,,,,FEW,6000,,,,,,,VFR,,,,,,,,,,,,METAR,268.0
KVSF 070354Z AUTO 31010KT 10SM BKN075 OVC090 13/08 A2960 RMK AO2 SLP021 T01330078,KVSF,2023-06-07T03:54:00Z,43.35,-72.52,13.3,7.8,310,10,,10.0,29.601377,1002.1,,TRUE,TRUE,,,,,,,BKN,7500,OVC,9000,,,,,VFR,,,,,,,,,,,,METAR,176.0
KVAY 070354Z AUTO 34005KT 3SM HZ SCT048 OVC100 18/06 A2969 RMK AO2 SLP052 T01830061,KVAY,2023-06-07T03:54:00Z,39.93,-74.83,18.3,6.1,340,5,,3.0,29.68996,1005.2,,TRUE,TRUE,,,,,,HZ,SCT,4800,OVC,10000,,,,,MVFR,,,,,,,,,,,,METAR,15.0
KUZA 070354Z AUTO 00000KT 7SM CLR 18/16 A2983 RMK AO2 SLP089 T01830161,KUZA,2023-06-07T03:54:00Z,34.98,-81.05,18.3,16.1,0,0,,7.0,29.828741,1008.9,,TRUE,TRUE,,,,,,,CLR,,,,,,,,VFR,,,,,,,,,,,,METAR,198.0
KUIN 070354Z AUTO 23003KT 10SM CLR 24/11 A2988 RMK AO2 SLP110 T02390111,KUIN,2023-06-07T03:54:00Z,39.95,-91.2,23.9,11.1,230,3,,10.0,29.878937,1011.0,,TRUE,TRUE,,,,,,,CLR,,,,,,,,VFR,,,,,,,,,,,,METAR,233.0
KTQE 070354Z AUTO 16005KT 10SM CLR 22/13 A2989 RMK AO2 SLP107 T02170128,KTQE,2023-06-07T03:54:00Z,41.77,-96.18,21.7,12.8,160,5,,10.0,29.890747,1010.7,,TRUE,TRUE,,,,,,,CLR,,,,,,,,VFR,,,,,,,,,,,,METAR,312.0
KTAD 070354Z AUTO 25010KT 10SM CLR 13/08 A3008 RMK AO2 SLP125 T01280083,KTAD,2023-06-07T03:54:00Z,37.27,-104.33,12.8,8.3,250,10,,10.0,30.079725,1012.5,,TRUE,TRUE,,,,,,,CLR,,,,,,,,VFR,,,,,,,,,,,,METAR,1751.0
KSYR 070354Z 30003KT 4SM FU FEW085 BKN100 BKN180 14/06 A2972 RMK AO2 SLP061 FU BKN180 T01390056,KSYR,2023-06-07T03:54:00Z,43.12,-76.1,13.9,5.6,300,3,,4.0,29.719488,1006.1,,,TRUE,,,,,,FU,FEW,8500,BKN,10000,BKN,18000,,,MVFR,,,,,,,,,,,,METAR,125.0
KSUS 070354Z 00000KT 9SM CLR 19/16 A2988 RMK AO2 SLP111 T01890156,KSUS,2023-06-07T03:54:00Z,38.65,-90.65,18.9,15.6,0,0,,9.0,29.878937,1011.1,,,TRUE,,,,,,,CLR,,,,,,,,VFR,,,,,,,,,,,,METAR,140.0
KSLC 070354Z 09005KT 10SM -RA SCT065 BKN095 OVC110 21/13 A2994 RMK AO2 RAB18 SLP086 P0001 T02060133 $,KSLC,2023-06-07T03:54:00Z,40.77,-111.97,20.6,13.3,90,5,,10.0,29.940945,1008.6,,,TRUE,TRUE,,,,,-RA,SCT,6500,BKN,9500,OVC,11000,,,VFR,,,,,,0.01,,,,,,METAR,1286.0
KSET 070354Z AUTO 36003KT 10SM CLR 21/14 A2987 RMK AO2 SLP109 T02110144,KSET,2023-06-07T03:54:00Z,38.93,-90.43,21.1,14.4,360,3,,10.0,29.870079,1010.9,,TRUE,TRUE,,,,,,,CLR,,,,,,,,VFR,,,,,,,,,,,,METAR,133.0
KSBY 070354Z AUTO 02007KT 7SM FEW085 SCT110 21/13 A2967 RMK AO2 SLP050 T02060133,KSBY,2023-06-07T03:54:00Z,38.33,-75.5,20.6,13.3,20,7,,7.0,29.66929,1005.0,,TRUE,TRUE,,,,,,,FEW,8500,SCT,11000,,,,,VFR,,,,,,,,,,,,METAR,14.0
KSBN 070354Z AUTO 36004KT 10SM CLR 14/12 A2991 RMK AO2 SLP125 T01440117,KSBN,2023-06-07T03:54:00Z,41.7,-86.32,14.4,11.7,360,4,,10.0,29.911417,1012.5,,TRUE,TRUE,,,,,,,CLR,,,,,,,,VFR,,,,,,,,,,,,METAR,236.0
KRST 070354Z AUTO 16003KT 10SM CLR 21/17 A2992 RMK AO2 SLP125 T02060167,KRST,2023-06-07T03:54:00Z,43.9,-92.5,20.6,16.7,160,3,,10.0,29.920275,1012.5,,TRUE,TRUE,,,,,,,CLR,,,,,,,,VFR,,,,,,,,,,,,METAR,398.0
KRSP 070354Z AUTO 02004KT 10SM CLR 17/04 A2976 RMK AO2 SLP069 T01670039 $,KRSP,2023-06-07T03:54:00Z,39.65,-77.47,16.7,3.9,20,4,,10.0,29.760826,1006.9,,TRUE,TRUE,TRUE,,,,,,CLR,,,,,,,,VFR,,,,,,,,,,,,METAR,555.0
KROC 070354Z 24003KT 5SM HZ OVC041 11/07 A2977 RMK AO2 SLP083 T01110072,KROC,2023-06-07T03:54:00Z,43.12,-77.68,11.1,7.2,240,3,,5.0,29.769686,1008.3,,,TRUE,,,,,,HZ,OVC,4100,,,,,,,MVFR,,,,,,,,,,,,METAR,166.0
KROA 070354Z 25004KT 10SM SCT250 21/11 A2983 RMK AO2 SLP090 T02060111 $,KROA,2023-06-07T03:54:00Z,37.32,-79.97,20.6,11.1,250,4,,10.0,29.828741,1009.0,,,TRUE,TRUE,,,,,,SCT,25000,,,,,,,VFR,,,,,,,,,,,,METAR,349.0
KRKS 070354Z AUTO 08008KT 10SM FEW120 14/07 A3011 RMK AO2 SLP123 T01390067,KRKS,2023-06-07T03:54:00Z,41.6,-109.07,13.9,6.7,80,8,,10.0,30.109253,1012.3,,TRUE,TRUE,,,,,,,FEW,12000,,,,,,,VFR,,,,,,,,,,,,METAR,2062.0
KRIC 070354Z 28006KT 8SM BKN250 21/12 A2973 RMK AO2 SLP070 T02110122 $,KRIC,2023-06-07T03:54:00Z,37.52,-77.32,21.1,12.2,280,6,,8.0,29.731298,1007.0,,,TRUE,TRUE,,,,,,BKN,25000,,,,,,,VFR,,,,,,,,,,,,METAR,51.0
KRFD 070354Z VRB05KT 10SM SCT110 OVC250 18/07 A2994 RMK AO2 SLP135 T01780072 $,KRFD,2023-06-07T03:54:00Z,42.2,-89.1,17.8,7.2,0,5,,10.0,29.940945,1013.5,,,TRUE,TRUE,,,,,,SCT,11000,OVC,25000,,,,,VFR,,,,,,,,,,,,METAR,222.0
KRDG 070354Z AUTO 23003KT 3SM HZ OVC049 16/06 A2970 RMK AO2 SLP060 T01610061,KRDG,2023-06-07T03:54:00Z,40.37,-75.97,16.1,6.1,230,3,,3.0,29.698818,1006.0,,TRUE,TRUE,,,,,,HZ,OVC,4900,,,,,,,MVFR,,,,,,,,,,,,METAR,101.0
KRBL 070354Z AUTO 08006KT 10SM BKN100 22/13 A2983 RMK AO2 LTG DSNT NW SLP097 T02220128,KRBL,2023-06-07T03:54:00Z,40.15,-122.25,22.2,12.8,80,6,,10.0,29.828741,1009.7,,TRUE,TRUE,,,,,,,BKN,10000,,,,,,,VFR,,,,,,,,,,,,METAR,107.0
KPTW 070354Z AUTO 00000KT 2 1/2SM HZ OVC045 14/07 A2972 RMK AO2 SLP059 T01390072,KPTW,2023-06-07T03:54:00Z,40.23,-75.55,13.9,7.2,0,0,,2.5,29.719488,1005.9,,TRUE,TRUE,,,,,,HZ,OVC,4500,,,,,,,IFR,,,,,,,,,,,,METAR,88.0
KPSF 070354Z AUTO 32006KT 6SM HZ CLR 10/07 A2963 RMK AO2 SLP020 T01000067,KPSF,2023-06-07T03:54:00Z,42.43,-73.28,10.0,6.7,320,6,,6.0,29.630905,1002.0,,TRUE,TRUE,,,,,,HZ,CLR,,,,,,,,VFR,,,,,,,,,,,,METAR,352.0
KPNE 070354Z AUTO 34006KT 4SM HZ OVC043 17/06 A2970 RMK AO2 SLP056 T01670061,KPNE,2023-06-07T03:54:00Z,40.08,-75.02,16.7,6.1,340,6,,4.0,29.698818,1005.6,,TRUE,TRUE,,,,,,HZ,OVC,4300,,,,,,,MVFR,,,,,,,,,,,,METAR,32.0
KPLN 070354Z AUTO 29003KT 10SM CLR 09/06 A2996 RMK AO2 SLP149 T00890056,KPLN,2023-06-07T03:54:00Z,45.57,-84.8,8.9,5.6,290,3,,10.0,29.958662,1014.9,,TRUE,TRUE,,,,,,,CLR,,,,,,,,VFR,,,,,,,,,,,,METAR,215.0
KPIA 070354Z 05007KT 10SM -RA BKN080 OVC100 22/18 A2990 RMK AO2 RAB25 SLP118 P0000 T02220178,KPIA,2023-06-07T03:54:00Z,40.67,-89.68,22.2,17.8,50,7,,10.0,29.899607,1011.8,,,TRUE,,,,,,-RA,BKN,8000,OVC,10000,,,,,VFR,,,,,,0.005,,,,,,METAR,200.0
KPHL 070354Z 01008KT 4SM HZ SCT040 OVC100 19/06 A2970 RMK AO2 SLP056 T01940056 $,KPHL,2023-06-07T03:54:00Z,39.87,-75.23,19.4,5.6,10,8,,4.0,29.698818,1005.6,,,TRUE,TRUE,,,,,HZ,SCT,4000,OVC,10000,,,,,MVFR,,,,,,,,,,,,METAR,2.0
KPHF 070354Z AUTO 27007KT 10SM CLR 21/13 A2972 RMK AO2 SLP065 T02110128,KPHF,2023-06-07T03:54:00Z,37.13,-76.5,21.1,12.8,270,7,,10.0,29.719488,1006.5,,TRUE,TRUE,,,,,,,CLR,,,,,,,,VFR,,,,,,,,,,,,METAR,12.0
KORH 070354Z 33009KT 10SM CLR 13/07 A2958 RMK AO2 SLP014 T01280067 $,KORH,2023-06-07T03:54:00Z,42.27,-71.87,12.8,6.7,330,9,,10.0,29.58071,1001.4,,,TRUE,TRUE,,,,,,CLR,,,,,,,,VFR,,,,,,,,,,,,METAR,306.0
KOLS 070354Z AUTO 23006KT 10SM CLR 23/M03 A2993 RMK AO2 SLP067 T02281028,KOLS,2023-06-07T03:54:00Z,31.42,-110.85,22.8,-2.8,230,6,,10.0,29.929134,1006.7,,TRUE,TRUE,,,,,,,CLR,,,,,,,,VFR,,,,,,,,,,,,METAR,1194.0
KOLM 070354Z AUTO 03005KT 10SM CLR 22/04 A2978 RMK AO2 SLP082 T02170044,KOLM,2023-06-07T03:54:00Z,46.97,-122.9,21.7,4.4,30,5,,10.0,29.778543,1008.2,,TRUE,TRUE,,,,,,,CLR,,,,,,,,VFR,,,,,,,,,,,,METAR,58.0
KOFP 070354Z AUTO 25003KT 7SM CLR 18/13 A2974 RMK AO2 SLP070 T01780128,KOFP,2023-06-07T03:54:00Z,37.7,-77.43,17.8,12.8,250,3,,7.0,29.740158,1007.0,,TRUE,TRUE,,,,,,,CLR,,,,,,,,VFR,,,,,,,,,,,,METAR,63.0
KNAK 070354Z AUTO 36007KT 8SM CLR 22/14 A2968 RMK AO2 SLP053 T02220139,KNAK,2023-06-07T03:54:00Z,38.98,-76.48,22.2,13.9,360,7,,8.0,29.681103,1005.3,,TRUE,TRUE,,,,,,,CLR,,,,,,,,VFR,,,,,,,,,,,,METAR,2.0
KMVL 070354Z AUTO 33009KT 210V350 10SM -RA BKN048 OVC065 12/09 A2960 RMK AO2 SLP023 P0000 T01170089,KMVL,2023-06-07T03:54:00Z,44.53,-72.62,11.7,8.9,330,9,,10.0,29.601377,1002.3,,TRUE,TRUE,,,,,,-RA,BKN,4800,OVC,6500,,,,,VFR,,,,,,0.005,,,,,,METAR,226.0
KMTP 070354Z AUTO 30003KT 15/10 A2960 RMK AO1 SLP023 T01500100,KMTP,2023-06-07T03:54:00Z,41.07,-71.92,15.0,10.0,300,3,,,29.601377,1002.3,,TRUE,TRUE,,,,,,,,,,,,,,,,,,,,,,,,,,,METAR,2.0
KMRY 070354Z AUTO 07006KT 10SM OVC018 15/12 A2988 RMK AO2 SLP131 T01500122,KMRY,2023-06-07T03:54:00Z,36.58,-121.85,15.0,12.2,70,6,,10.0,29.878937,1013.1,,TRUE,TRUE,,,,,,,OVC,1800,,,,,,,MVFR,,,,,,,,,,,,METAR,51.0
KMOT 070354Z AUTO 22005KT 10SM CLR 26/14 A2983 RMK AO2 SLP090 T02560144,KMOT,2023-06-07T03:54:00Z,48.25,-101.27,25.6,14.4,220,5,,10.0,29.828741,1009.0,,TRUE,TRUE,,,,,,,CLR,,,,,,,,VFR,,,,,,,,,,,,METAR,507.0
KMKC 070354Z 22003KT 10SM CLR 25/18 A2990 RMK AO2 SLP117 T02500183,KMKC,2023-06-07T03:54:00Z,39.12,-94.6,25.0,18.3,220,3,,10.0,29.899607,1011.7,,,TRUE,,,,,,,CLR,,,,,,,,VFR,,,,,,,,,,,,METAR,228.0
KMIV 070354Z AUTO 35004KT 3SM HZ SCT031 BKN080 OVC120 18/11 A2969 RMK AO2 SLP052 T01780106,KMIV,2023-06-07T03:54:00Z,39.37,-75.08,17.8,10.6,350,4,,3.0,29.68996,1005.2,,TRUE,TRUE,,,,,,HZ,SCT,3100,BKN,8000,OVC,12000,,,MVFR,,,,,,,,,,,,METAR,18.0
KMGJ 070354Z AUTO 28003KT 9SM SCT050 11/06 A2966 RMK AO2 SLP042 T01110061,KMGJ,2023-06-07T03:54:00Z,41.52,-74.27,11.1,6.1,280,3,,9.0,29.660433,1004.2,,TRUE,TRUE,,,,,,,SCT,5000,,,,,,,VFR,,,,,,,,,,,,METAR,106.0
KMFI 070354Z AUTO 11006KT 10SM CLR 17/08 A2997 RMK AO2 SLP147 T01720083,KMFI,2023-06-07T03:54:00Z,44.63,-90.18,17.2,8.3,110,6,,10.0,29.970472,1014.7,,TRUE,TRUE,,,,,,,CLR,,,,,,,,VFR,,,,,,,,,,,,METAR,383.0
KMEM 070354Z 32003KT 10SM FEW250 24/19 A2989 RMK AO2 SLP116 T02390189,KMEM,2023-06-07T03:54:00Z,35.07,-89.98,23.9,18.9,320,3,,10.0,29.890747,1011.6,,,TRUE,,,,,,,FEW,25000,,,,,,,VFR,,,,,,,,,,,,METAR,78.0
KLYH 070354Z AUTO 00000KT 9SM CLR 20/11 A2980 RMK AO2 SLP083 T02000106 $,KLYH,2023-06-07T03:54:00Z,37.32,-79.2,20.0,10.6,0,0,,9.0,29.799213,1008.3,,TRUE,TRUE,TRUE,,,,,,CLR,,,,,,,,VFR,,,,,,,,,,,,METAR,282.0
KLWT 070354Z AUTO 21005KT 10SM FEW120 14/12 A3004 RMK AO2 SLP147 T01390122,KLWT,2023-06-07T03:54:00Z,47.05,-109.47,13.9,12.2,210,5,,10.0,30.041338,1014.7,,TRUE,TRUE,,,,,,,FEW,12000,,,,,,,VFR,,,,,,,,,,,,METAR,1254.0
KLWM 070354Z AUTO 27005KT 10SM BKN100 OVC110 15/06 A2955 RMK AO2 SLP007 T01500061,KLWM,2023-06-07T03:54:00Z,42.72,-71.13,15.0,6.1,270,5,,10.0,29.551182,1000.7,,TRUE,TRUE,,,,,,,BKN,10000,OVC,11000,,,,,VFR,,,,,,,,,,,,METAR,42.0
KLNK 070354Z AUTO 19005KT 10SM CLR 23/14 A2992 RMK AO2 SLP118 T02330139,KLNK,2023-06-07T03:54:00Z,40.85,-96.77,23.3,13.9,190,5,,10.0,29.920275,1011.8,,TRUE,TRUE,,,,,,,CLR,,,,,,,,VFR,,,,,,,,,,,,METAR,357.0
KLEX 070354Z 26005KT 9SM OVC100 23/13 A2984 RMK AO2 SLP095 T02280128,KLEX,2023-06-07T03:54:00Z,38.03,-84.6,22.8,12.8,260,5,,9.0,29.840551,1009.5,,,TRUE,,,,,,,OVC,10000,,,,,,,VFR,,,,,,,,,,,,METAR,294.0
KLAF 070354Z AUTO 01005KT 9SM OVC090 20/12 A2987 RMK AO2 SLP110 T02000117,KLAF,2023-06-07T03:54:00Z,40.42,-86.93,20.0,11.7,10,5,,9.0,29.870079,1011.0,,TRUE,TRUE,,,,,,,OVC,9000,,,,,,,VFR,,,,,,,,,,,,METAR,182.0
KJST 070354Z AUTO 30007KT 10SM CLR 13/03 A2979 RMK AO2 SLP080 T01280033,KJST,2023-06-07T03:54:00Z,40.32,-78.83,12.8,3.3,300,7,,10.0,29.790354,1008.0,,TRUE,TRUE,,,,,,,CLR,,,,,,,,VFR,,,,,,,,,,,,METAR,695.0
KJAN 070354Z 18004KT 10SM CLR 23/21 A2989 RMK AO2 SLP117 T02280206,KJAN,2023-06-07T03:54:00Z,32.32,-90.08,22.8,20.6,180,4,,10.0,29.890747,1011.7,,,TRUE,,,,,,,CLR,,,,,,,,VFR,,,,,,,,,,,,METAR,92.0
KIZG 070354Z AUTO 00000KT 10SM OVC060 11/09 A2951 RMK AO2 RAE41 SLP994 P0001 T01110094,KIZG,2023-06-07T03:54:00Z,43.98,-70.95,11.1,9.4,0,0,,10.0,29.509842,999.4,,TRUE,TRUE,,,,,,,OVC,6000,,,,,,,VFR,,,,,,0.01,,,,,,METAR,138.0
KISW 070354Z AUTO 09006KT 10SM CLR 17/07 A2998 RMK AO2 SLP150 T01720067,KISW,2023-06-07T03:54:00Z,44.37,-89.83,17.2,6.7,90,6,,10.0,29.97933,1015.0,,TRUE,TRUE,,,,,,,CLR,,,,,,,,VFR,,,,,,,,,,,,METAR,311.0
KIPT 070354Z AUTO 00000KT 3SM HZ OVC046 14/06 A2972 RMK AO2 SLP062 T01390061,KIPT,2023-06-07T03:54:00Z,41.25,-76.92,13.9,6.1,0,0,,3.0,29.719488,1006.2,,TRUE,TRUE,,,,,,HZ,OVC,4600,,,,,,,MVFR,,,,,,,,,,,,METAR,160.0
KINT 070354Z AUTO 00000KT 6SM FU CLR 17/12 A2985 RMK AO2 SLP097 T01670122,KINT,2023-06-07T03:54:00Z,36.13,-80.22,16.7,12.2,0,0,,6.0,29.84941,1009.7,,TRUE,TRUE,,,,,,FU,CLR,,,,,,,,VFR,,,,,,,,,,,,METAR,292.0
KINL 070354Z AUTO 13006KT 10SM OVC045 18/12 A2999 RMK AO2 SLP156 T01780117,KINL,2023-06-07T03:54:00Z,48.57,-93.4,17.8,11.7,130,6,,10.0,29.991142,1015.6,,TRUE,TRUE,,,,,,,OVC,4500,,,,,,,VFR,,,,,,,,,,,,METAR,353.0
KIND 070354Z 36005KT 10SM SCT075 BKN120 21/13 A2987 RMK AO2 SLP108 T02110133,KIND,2023-06-07T03:54:00Z,39.72,-86.27,21.1,13.3,360,5,,10.0,29.870079,1010.8,,,TRUE,,,,,,,SCT,7500,BKN,12000,,,,,VFR,,,,,,,,,,,,METAR,242.0
KIMT 070354Z AUTO 36004KT 10SM CLR 10/03 A3001 RMK AO2 SLP164 T01000033,KIMT,2023-06-07T03:54:00Z,45.82,-88.12,10.0,3.3,360,4,,10.0,30.008858,1016.4,,TRUE,TRUE,,,,,,,CLR,,,,,,,,VFR,,,,,,,,,,,,METAR,343.0
KILN 070354Z AUTO 00000KT 5SM HZ SCT055 BKN070 16/13 A2986 RMK AO2 RAE0259 SLP104 P0000 T01610133,KILN,2023-06-07T03:54:00Z,39.43,-83.8,16.1,13.3,0,0,,5.0,29.861221,1010.4,,TRUE,TRUE,,,,,,HZ,SCT,5500,BKN,7000,,,,,MVFR,,,,,,0.005,,,,,,METAR,325.0
KGSO 070354Z 00000KT 5SM HZ BKN250 18/12 A2982 RMK AO2 SLP091 T01780117,KGSO,2023-06-07T03:54:00Z,36.1,-79.95,17.8,11.7,0,0,,5.0,29.819881,1009.1,,,TRUE,,,,,,HZ,BKN,25000,,,,,,,MVFR,,,,,,,,,,,,METAR,275.0
KGED 070354Z AUTO 00000KT 7SM FEW090 BKN110 18/15 A2967 RMK AO2 SLP045 T01830150,KGED,2023-06-07T03:54:00Z,38.68,-75.37,18.3,15.0,0,0,,7.0,29.66929,1004.5,,TRUE,TRUE,,,,,,,FEW,9000,BKN,11000,,,,,VFR,,,,,,,,,,,,METAR,15.0
KGCN 070354Z AUTO 22004KT 10SM CLR 12/M09 A3005 RMK AO2 SLP089 T01171094,KGCN,2023-06-07T03:54:00Z,35.95,-112.15,11.7,-9.4,220,4,,10.0,30.050198,1008.9,,TRUE,TRUE,,,,,,,CLR,,,,,,,,VFR,,,,,,,,,,,,METAR,1993.0
KGCK 070354Z AUTO 13007KT 10SM CLR 19/16 A2998 RMK AO2 SLP124 T01890156,KGCK,2023-06-07T03:54:00Z,37.92,-100.72,18.9,15.6,130,7,,10.0,29.97933,1012.4,,TRUE,TRUE,,,,,,,CLR,,,,,,,,VFR,,,,,,,,,,,,METAR,877.0
KFZY 070354Z AUTO 29003KT 5SM HZ SCT050 OVC100 11/08 A2973 RMK AO2 SLP066 T01110078,KFZY,2023-06-07T03:54:00Z,43.35,-76.38,11.1,7.8,290,3,,5.0,29.731298,1006.6,,TRUE,TRUE,,,,,,HZ,SCT,5000,OVC,10000,,,,,MVFR,,,,,,,,,,,,METAR,143.0
KFWA 070354Z 05007KT 7SM FEW250 17/13 A2989 RMK AO2 SLP116 T01720133,KFWA,2023-06-07T03:54:00Z,40.98,-85.2,17.2,13.3,50,7,,7.0,29.890747,1011.6,,,TRUE,,,,,,,FEW,25000,,,,,,,VFR,,,,,,,,,,,,METAR,243.0
KFIG 070354Z AUTO 33006KT 5SM HZ OVC038 11/06 A2978 RMK AO2 SLP081 T01110056,KFIG,2023-06-07T03:54:00Z,41.05,-78.42,11.1,5.6,330,6,,5.0,29.778543,1008.1,,TRUE,TRUE,,,,,,HZ,OVC,3800,,,,,,,MVFR,,,,,,,,,,,,METAR,461.0
KFFZ 070354Z 27008KT 10SM CLR 29/M03 A2976 RMK AO2 SLP052 T02941028,KFFZ,2023-06-07T03:54:00Z,33.47,-111.72,29.4,-2.8,270,8,,10.0,29.760826,1005.2,,,TRUE,,,,,,,CLR,,,,,,,,VFR,,,,,,,,,,,,METAR,420.0
KEWN 070354Z AUTO 00000KT 8SM CLR 19/18 A2979 RMK AO2 SLP087 T01940183,KEWN,2023-06-07T03:54:00Z,35.07,-77.05,19.4,18.3,0,0,,8.0,29.790354,1008.7,,TRUE,TRUE,,,,,,,CLR,,,,,,,,VFR,,,,,,,,,,,,METAR,3.0
KEVV 070354Z AUTO 25004KT 8SM FU CLR 21/14 A2986 RMK AO2 SLP106 T02110144 $,KEVV,2023-06-07T03:54:00Z,38.05,-87.52,21.1,14.4,250,4,,8.0,29.861221,1010.6,,TRUE,TRUE,TRUE,,,,,FU,CLR,,,,,,,,VFR,,,,,,,,,,,,METAR,123.0
KEUG 070354Z 25007KT 10SM FEW120 BKN250 26/14 A2972 RMK AO2 SLP061 T02560139,KEUG,2023-06-07T03:54:00Z,44.13,-123.22,25.6,13.9,250,7,,10.0,29.719488,1006.1,,,TRUE,,,,,,,FEW,12000,BKN,25000,,,,,VFR,,,,,,,,,,,,METAR,109.0
KEFD 070354Z 00000KT 10SM FEW060 23/21 A2985,KEFD,2023-06-07T03:54:00Z,29.6,-95.17,23.0,21.0,0,0,,10.0,29.84941,,,,,,,,,,,FEW,6000,,,,,,,VFR,,,,,,,,,,,,METAR,9.0
KECG 070354Z AUTO 24006KT 10SM CLR 17/13 A2975 RMK AO2 SLP072 T01720133,KECG,2023-06-07T03:54:00Z,36.27,-76.18,17.2,13.3,240,6,,10.0,29.749016,1007.2,,TRUE,TRUE,,,,,,,CLR,,,,,,,,VFR,,,,,,,,,,,,METAR,2.0
KDYL 070354Z AUTO 35003KT 6SM HZ CLR 17/06 A2968 RMK AO2 SLP046 T01670056,KDYL,2023-06-07T03:54:00Z,40.33,-75.12,16.7,5.6,350,3,,6.0,29.681103,1004.6,,TRUE,TRUE,,,,,,HZ,CLR,,,,,,,,VFR,,,,,,,,,,,,METAR,121.0
KDSV 070354Z AUTO 21004KT 5SM HZ BKN042 OVC090 12/07 A2978 RMK AO2 SLP090 T01170067 $,KDSV,2023-06-07T03:54:00Z,42.57,-77.72,11.7,6.7,210,4,,5.0,29.778543,1009.0,,TRUE,TRUE,TRUE,,,,,HZ,BKN,4200,OVC,9000,,,,,MVFR,,,,,,,,,,,,METAR,195.0
KDSM 070354Z 00000KT 10SM FEW200 SCT250 23/17 A2989 RMK AO2 SLP114 T02280172,KDSM,2023-06-07T03:54:00Z,41.53,-93.67,22.8,17.2,0,0,,10.0,29.890747,1011.4,,,TRUE,,,,,,,FEW,20000,SCT,25000,,,,,VFR,,,,,,,,,,,,METAR,286.0
KDMH 070354Z AUTO 22/09 A2970 RMK AO1 SLP058 T02220094,KDMH,2023-06-07T03:54:00Z,39.28,-76.62,22.2,9.4,,,,,29.698818,1005.8,,TRUE,TRUE,,,,,,,,,,,,,,,,,,,,,,,,,,,METAR,4.0
KDEC 070354Z AUTO 04005KT 10SM OVC085 22/14 A2988 RMK AO2 SLP113 T02220139,KDEC,2023-06-07T03:54:00Z,39.83,-88.87,22.2,13.9,40,5,,10.0,29.878937,1011.3,,TRUE,TRUE,,,,,,,OVC,8500,,,,,,,VFR,,,,,,,,,,,,METAR,205.0
KCRW 070354Z VRB04KT 9SM BKN085 BKN110 19/14 A2980 RMK AO2 SLP084 T01890144,KCRW,2023-06-07T03:54:00Z,38.38,-81.58,18.9,14.4,0,4,,9.0,29.799213,1008.4,,,TRUE,,,,,,,BKN,8500,BKN,11000,,,,,VFR,,,,,,,,,,,,METAR,278.0
KCOU 070354Z AUTO 24004KT 10SM CLR 23/11 A2991 RMK AO2 SLP121 T02330111,KCOU,2023-06-07T03:54:00Z,38.82,-92.22,23.3,11.1,240,4,,10.0,29.911417,1012.1,,TRUE,TRUE,,,,,,,CLR,,,,,,,,VFR,,,,,,,,,,,,METAR,272.0
KCOS 070354Z 34006KT 10SM SCT160 BKN250 16/11 A3011 RMK AO2 SLP133 T01560106,KCOS,2023-06-07T03:54:00Z,38.82,-104.68,15.6,10.6,340,6,,10.0,30.109253,1013.3,,,TRUE,,,,,,,SCT,16000,BKN,25000,,,,,VFR,,,,,,,,,,,,METAR,1886.0
KCEU 070354Z AUTO 00000KT 10SM CLR 23/15 A2985 RMK AO2 SLP097 T02280150,KCEU,2023-06-07T03:54:00Z,34.67,-82.88,22.8,15.0,0,0,,10.0,29.84941,1009.7,,TRUE,TRUE,,,,,,,CLR,,,,,,,,VFR,,,,,,,,,,,,METAR,270.0
KBUY 070354Z AUTO 00000KT 6SM HZ CLR 17/14 A2981 RMK AO2 SLP089 T01720144,KBUY,2023-06-07T03:54:00Z,36.05,-79.47,17.2,14.4,0,0,,6.0,29.811024,1008.9,,TRUE,TRUE,,,,,,HZ,CLR,,,,,,,,VFR,,,,,,,,,,,,METAR,185.0
KBUF 070354Z 34006KT 8SM SCT085 15/07 A2978 RMK AO2 SLP083 FU SFC AND ALF T01500067 $,KBUF,2023-06-07T03:54:00Z,42.93,-78.73,15.0,6.7,340,6,,8.0,29.778543,1008.3,,,TRUE,TRUE,,,,,,SCT,8500,,,,,,,VFR,,,,,,,,,,,,METAR,217.0
KBTV 070354Z 32007KT 7SM -RA BKN070 OVC085 13/11 A2963 RMK AO2 SLP031 LAST P0000 T01280111,KBTV,2023-06-07T03:54:00Z,44.47,-73.15,12.8,11.1,320,7,,7.0,29.630905,1003.1,,,TRUE,,,,,,-RA,BKN,7000,OVC,8500,,,,,VFR,,,,,,0.005,,,,,,METAR,101.0
KBOS 070354Z 30011G17KT 10SM OVC085 17/07 A2955 RMK AO2 RAB17E26 SLP005 P0000 T01720067,KBOS,2023-06-07T03:54:00Z,42.37,-71.02,17.2,6.7,300,11,17,10.0,29.551182,1000.5,,,TRUE,,,,,,,OVC,8500,,,,,,,VFR,,,,,,0.005,,,,,,METAR,4.0
KBFL 070354Z 00000KT 4SM RA OVC055 19/12 A2983 RMK AO2 RAE0259B42 SLP098 P0001 T01890122,KBFL,2023-06-07T03:54:00Z,35.43,-119.05,18.9,12.2,0,0,,4.0,29.828741,1009.8,,,TRUE,,,,,,RA,OVC,5500,,,,,,,MVFR,,,,,,0.01,,,,,,METAR,146.0
KAVP 070354Z 00000KT 3SM HZ OVC039 12/07 A2972 RMK AO2 SLP057 T01220072,KAVP,2023-06-07T03:54:00Z,41.33,-75.72,12.2,7.2,0,0,,3.0,29.719488,1005.7,,,TRUE,,,,,,HZ,OVC,3900,,,,,,,MVFR,,,,,,,,,,,,METAR,290.0
KAVL 070354Z AUTO 02004KT 10SM CLR 19/11 A2992 RMK AO2 SLP107 T01890111,KAVL,2023-06-07T03:54:00Z,35.43,-82.53,18.9,11.1,20,4,,10.0,29.920275,1010.7,,TRUE,TRUE,,,,,,,CLR,,,,,,,,VFR,,,,,,,,,,,,METAR,646.0
KAUW 070354Z AUTO 09004KT 10SM CLR 17/09 A2998 RMK AO2 SLP153 T01720089,KAUW,2023-06-07T03:54:00Z,44.93,-89.62,17.2,8.9,90,4,,10.0,29.97933,1015.3,,TRUE,TRUE,,,,,,,CLR,,,,,,,,VFR,,,,,,,,,,,,METAR,367.0
KAPN 070354Z AUTO 35007KT 10SM BKN075 14/07 A2993 RMK AO2 SLP134 T01390072,KAPN,2023-06-07T03:54:00Z,45.07,-83.57,13.9,7.2,350,7,,10.0,29.929134,1013.4,,TRUE,TRUE,,,,,,,BKN,7500,,,,,,,VFR,,,,,,,,,,,,METAR,208.0
KALO 070354Z AUTO 05004KT 5SM BR CLR 19/18 A2988 RMK AO2 SLP114 T01940178,KALO,2023-06-07T03:54:00Z,42.55,-92.4,19.4,17.8,50,4,,5.0,29.878937,1011.4,,TRUE,TRUE,,,,,,BR,CLR,,,,,,,,MVFR,,,,,,,,,,,,METAR,264.0
KAKR 070354Z AUTO 35006KT 7SM CLR 14/05 A2983 RMK AO2 SLP095 T01390050,KAKR,2023-06-07T03:54:00Z,41.03,-81.47,13.9,5.0,350,6,,7.0,29.828741,1009.5,,TRUE,TRUE,,,,,,,CLR,,,,,,,,VFR,,,,,,,,,,,,METAR,319.0
KAKQ 070354Z AUTO 00000KT 9SM CLR 19/14 A2973 RMK AO2 SLP068 T01890139,KAKQ,2023-06-07T03:54:00Z,36.98,-77.0,18.9,13.9,0,0,,9.0,29.731298,1006.8,,TRUE,TRUE,,,,,,,CLR,,,,,,,,VFR,,,,,,,,,,,,METAR,34.0
KAKH 070354Z AUTO 00000KT 9SM SCT085 17/15 A2983 RMK AO2 SLP097 T01720150,KAKH,2023-06-07T03:54:00Z,35.2,-81.15,17.2,15.0,0,0,,9.0,29.828741,1009.7,,TRUE,TRUE,,,,,,,SCT,8500,,,,,,,VFR,,,,,,,,,,,,METAR,242.0
KACY 070354Z 30013G20KT 4SM -RA SCT049 OVC085 17/12 A2971 RMK AO2 RAB46 SLP061 P0000 T01720117 $,KACY,2023-06-07T03:54:00Z,39.45,-74.57,17.2,11.7,300,13,20,4.0,29.71063,1006.1,,,TRUE,TRUE,,,,,-RA,SCT,4900,OVC,8500,,,,,MVFR,,,,,,0.005,,,,,,METAR,18.0
KAAO 070354Z AUTO 23008KT 10SM CLR 22/14 A2995 RMK AO2 SLP131 T02170144,KAAO,2023-06-07T03:54:00Z,37.75,-97.22,21.7,14.4,230,8,,10.0,29.949802,1013.1,,TRUE,TRUE,,,,,,,CLR,,,,,,,,VFR,,,,,,,,,,,,METAR,429.0
K1V4 070354Z AUTO 12/09 A2955 RMK AO1 SLP001 T01170089,K1V4,2023-06-07T03:54:00Z,44.42,-72.02,11.7,8.9,,,,,29.551182,1000.1,,TRUE,TRUE,,,,,,,,,,,,,,,,,,,,,,,,,,,METAR,213.0
K12N 070354Z AUTO 00000KT 15/07 A2969 RMK AO1 SLP047 T01500072,K12N,2023-06-07T03:54:00Z,41.02,-74.73,15.0,7.2,0,0,,,29.68996,1004.7,,TRUE,TRUE,,,,,,,,,,,,,,,,,,,,,,,,,,,METAR,178.0
TJNR 070353Z AUTO 13005KT 9SM OVC018 27/24 A3002 RMK AO2 SLP167 T02670244 403170256,TJNR,2023-06-07T03:53:00Z,18.25,-65.63,26.7,24.4,130,5,,9.0,30.02067,1016.7,,TRUE,TRUE,,,,,,,OVC,1800,,,,,,,MVFR,,,,31.7,25.6,,,,,,,METAR,7.0
TISX 070353Z AUTO 10009KT 10SM BKN018 OVC026 28/24 A3001 RMK AO2 SLP162 T02830244 403220261,TISX,2023-06-07T03:53:00Z,17.7,-64.8,28.3,24.4,100,9,,10.0,30.008858,1016.2,,TRUE,TRUE,,,,,,,BKN,1800,OVC,2600,,,,,MVFR,,,,32.2,26.1,,,,,,,METAR,16.0
TIST 070353Z AUTO 10009KT 10SM FEW019 28/25 A3000 RMK AO2 SLP160 T02830250 403170272 TSNO $,TIST,2023-06-07T03:53:00Z,18.33,-64.98,28.3,25.0,100,9,,10.0,30.0,1016.0,,TRUE,TRUE,TRUE,,TRUE,,,,FEW,1900,,,,,,,VFR,,,,31.7,27.2,,,,,,,METAR,5.0
PTKK 070353Z 02007KT 15SM SCT012 BKN120 OVC280 29/27 A2983 RMK SLP101 T02890266,PTKK,2023-06-07T03:53:00Z,7.47,151.85,28.9,26.6,20,7,,15.0,29.828741,1010.1,,,,,,,,,,SCT,1200,BKN,12000,OVC,28000,,,VFR,,,,,,,,,,,,METAR,3.0
PKMR 070353Z 08004KT 15SM FEW014 SCT045 BKN110 OVC300 27/24 A2979 RMK SHRAB56E42 SLP090 T02690244,PKMR,2023-06-07T03:53:00Z,7.08,171.38,26.9,24.4,80,4,,15.0,29.790354,1009.0,,,,,,,,,,FEW,1400,SCT,4500,BKN,11000,OVC,30000,VFR,,,,,,,,,,,,METAR,7.0
PHNL 070353Z 07013KT 10SM FEW023 SCT045 BKN065 28/19 A3003 RMK AO2 SLP169 VCSH NE T02780194,PHNL,2023-06-07T03:53:00Z,21.33,-157.93,27.8,19.4,70,13,,10.0,30.029528,1016.9,,,TRUE,,,,,,,FEW,2300,SCT,4500,BKN,6500,,,VFR,,,,,,,,,,,,METAR,2.0
PHKO 070353Z 24007KT 10SM BKN070 28/19 A3001 RMK AO2 SLP162 T02780189,PHKO,2023-06-07T03:53:00Z,19.73,-156.05,27.8,18.9,240,7,,10.0,30.008858,1016.2,,,TRUE,,,,,,,BKN,7000,,,,,,,VFR,,,,,,,,,,,,METAR,11.0
PHJR 070353Z 06008KT 10SM CLR 28/17 A3005 RMK AO2 SLP180 T02780172,PHJR,2023-06-07T03:53:00Z,21.32,-158.07,27.8,17.2,60,8,,10.0,30.050198,1018.0,,,TRUE,,,,,,,CLR,,,,,,,,VFR,,,,,,,,,,,,METAR,9.0
PAYA 070353Z AUTO 16005KT 10SM OVC037 11/06 A3007 RMK AO2 SLP183 T01060061 TSNO,PAYA,2023-06-07T03:53:00Z,59.52,-139.67,10.6,6.1,160,5,,10.0,30.070866,1018.3,,TRUE,TRUE,,,TRUE,,,,OVC,3700,,,,,,,VFR,,,,,,,,,,,,METAR,9.0
PAWI 070353Z AUTO 04012KT 10SM CLR 05/02 A2995 RMK AO2 SLP143 T00500017 TSNO,PAWI,2023-06-07T03:53:00Z,70.63,-160.02,5.0,1.7,40,12,,10.0,29.949802,1014.3,,TRUE,TRUE,,,TRUE,,,,CLR,,,,,,,,VFR,,,,,,,,,,,,METAR,12.0
PAVL 070353Z AUTO 32004KT 10SM FEW085 10/02 A2979 RMK AO2 SLP086 T01000022 TSNO,PAVL,2023-06-07T03:53:00Z,67.73,-164.55,10.0,2.2,320,4,,10.0,29.790354,1008.6,,TRUE,TRUE,,,TRUE,,,,FEW,8500,,,,,,,VFR,,,,,,,,,,,,METAR,6.0
PATO 070353Z AUTO 10012G28KT 060V130 4SM -RA BR FEW022 BKN039 OVC047 08/06 A2998 RMK AO2 PK WND 10028/0352 SLP152 P0003 T00830061 TSNO,PATO,2023-06-07T03:53:00Z,60.78,-148.85,8.3,6.1,100,12,28,4.0,29.97933,1015.2,,TRUE,TRUE,,,TRUE,,,-RA BR,FEW,2200,BKN,3900,OVC,4700,,,MVFR,,,,,,0.03,,,,,,METAR,47.0
PATK 070353Z AUTO 00000KT 10SM BKN070 13/07 A2991 RMK AO2 SLP130 T01330067 TSNO,PATK,2023-06-07T03:53:00Z,62.32,-150.1,13.3,6.7,0,0,,10.0,29.911417,1013.0,,TRUE,TRUE,,,TRUE,,,,BKN,7000,,,,,,,VFR,,,,,,,,,,,,METAR,107.0
PASI 070353Z 33004KT 10SM FEW020 BKN044 OVC070 11/07 A3006 RMK AO2 SLP180 T01110072,PASI,2023-06-07T03:53:00Z,57.03,-135.35,11.1,7.2,330,4,,10.0,30.059055,1018.0,,,TRUE,,,,,,,FEW,2000,BKN,4400,OVC,7000,,,VFR,,,,,,,,,,,,METAR,2.0
PASC 070353Z 05015KT 10SM SCT100 04/01 A2999 RMK AO2 SLP158 T00440006,PASC,2023-06-07T03:53:00Z,70.2,-148.47,4.4,0.6,50,15,,10.0,29.991142,1015.8,,,TRUE,,,,,,,SCT,10000,,,,,,,VFR,,,,,,,,,,,,METAR,17.0
PAQT 070353Z AUTO 04013KT 10SM CLR 07/02 A3001 RMK AO2 SLP164 T00670022,PAQT,2023-06-07T03:53:00Z,70.22,-151.0,6.7,2.2,40,13,,10.0,30.008858,1016.4,,TRUE,TRUE,,,,,,,CLR,,,,,,,,VFR,,,,,,,,,,,,METAR,11.0
PAOT 070353Z 00000KT 7SM FEW080 13/04 A2975 RMK AO2 SLP074 T01280039,PAOT,2023-06-07T03:53:00Z,66.88,-162.6,12.8,3.9,0,0,,7.0,29.749016,1007.4,,,TRUE,,,,,,,FEW,8000,,,,,,,VFR,,,,,,,,,,,,METAR,3.0
PAOR 070353Z AUTO 25007KT 10SM CLR 22/M02 A2974 RMK AO2 SLP063 T02221022 TSNO,PAOR,2023-06-07T03:53:00Z,62.97,-141.93,22.2,-2.2,250,7,,10.0,29.740158,1006.3,,TRUE,TRUE,,,TRUE,,,,CLR,,,,,,,,VFR,,,,,,,,,,,,METAR,524.0
PAOM 070353Z 14006KT 10SM CLR 12/04 A2978 RMK AO2 SLP086 T01220044,PAOM,2023-06-07T03:53:00Z,64.5,-165.43,12.2,4.4,140,6,,10.0,29.778543,1008.6,,,TRUE,,,,,,,CLR,,,,,,,,VFR,,,,,,,,,,,,METAR,6.0
PANN 070353Z AUTO VRB05KT 10SM CLR 22/02 A2972 RMK AO2 SLP068 T02220022 TSNO,PANN,2023-06-07T03:53:00Z,64.55,-149.08,22.2,2.2,0,5,,10.0,29.719488,1006.8,,TRUE,TRUE,,,TRUE,,,,CLR,,,,,,,,VFR,,,,,,,,,,,,METAR,110.0
PANC 070353Z 15007KT 10SM -RA FEW040 BKN075 OVC090 11/07 A2991 RMK AO2 RAB07 SLP129 P0000 T01110067,PANC,2023-06-07T03:53:00Z,61.17,-150.02,11.1,6.7,150,7,,10.0,29.911417,1012.9,,,TRUE,,,,,,-RA,FEW,4000,BKN,7500,OVC,9000,,,VFR,,,,,,0.005,,,,,,METAR,39.0
PAMR 070353Z 00000KT 10SM OVC080 13/08 A2991 RMK AO2 SLP129 T01330078,PAMR,2023-06-07T03:53:00Z,61.22,-149.85,13.3,7.8,0,0,,10.0,29.911417,1012.9,,,TRUE,,,,,,,OVC,8000,,,,,,,VFR,,,,,,,,,,,,METAR,43.0
PAMC 070353Z AUTO 23009KT 9SM -RA SCT025 BKN070 OVC090 15/08 A2977 RMK AO2 RAB31 SLP084 P0000 T01500078 TSNO,PAMC,2023-06-07T03:53:00Z,62.97,-155.62,15.0,7.8,230,9,,9.0,29.769686,1008.4,,TRUE,TRUE,,,TRUE,,,-RA,SCT,2500,BKN,7000,OVC,9000,,,VFR,,,,,,0.005,,,,,,METAR,101.0
PALH 070353Z AUTO 19006KT 10SM -RA OVC080 12/07 A2992 RMK AO2 RAE17B43 SLP132 P0000 T01220067 TSNO,PALH,2023-06-07T03:53:00Z,61.18,-149.97,12.2,6.7,190,6,,10.0,29.920275,1013.2,,TRUE,TRUE,,,TRUE,,,-RA,OVC,8000,,,,,,,VFR,,,,,,0.005,,,,,,METAR,26.0
PAKW 070353Z AUTO 20004KT 10SM OVC031 12/07 A3006 RMK AO2 SLP178 T01220072 TSNO,PAKW,2023-06-07T03:53:00Z,55.58,-133.07,12.2,7.2,200,4,,10.0,30.059055,1017.8,,TRUE,TRUE,,,TRUE,,,,OVC,3100,,,,,,,VFR,,,,,,,,,,,,METAR,7.0
PAKV 070353Z AUTO VRB03KT 10SM CLR 18/03 A2981 RMK AO2 SLP095 T01830028 TSNO,PAKV,2023-06-07T03:53:00Z,64.33,-158.72,18.3,2.8,0,3,,10.0,29.811024,1009.5,,TRUE,TRUE,,,TRUE,,,,CLR,,,,,,,,VFR,,,,,,,,,,,,METAR,53.0
PAKT 070353Z 31005KT 10SM CLR 13/08 A3006 RMK AO2 SLP180 HARBOR WIND 27010KT T01280078,PAKT,2023-06-07T03:53:00Z,55.35,-131.72,12.8,7.8,310,5,,10.0,30.059055,1018.0,,,TRUE,,,,,,,CLR,,,,,,,,VFR,,,,,,,,,,,,METAR,27.0
PAJN 070353Z 08004KT 10SM FEW008 SCT026 OVC031 11/08 A3008 RMK AO2 RAE49 SLP187 THN SPTS INOVC P0000 T01110078,PAJN,2023-06-07T03:53:00Z,58.35,-134.55,11.1,7.8,80,4,,10.0,30.079725,1018.7,,,TRUE,,,,,,,FEW,800,SCT,2600,OVC,3100,,,VFR,,,,,,0.005,,,,,,METAR,6.0
PAIL 070353Z AUTO 11011G19KT 10SM BKN049 OVC060 09/04 A2984 RMK AO2 SLP107 T00940044 TSNO,PAIL,2023-06-07T03:53:00Z,59.75,-154.92,9.4,4.4,110,11,19,10.0,29.840551,1010.7,,TRUE,TRUE,,,TRUE,,,,BKN,4900,OVC,6000,,,,,VFR,,,,,,,,,,,,METAR,44.0
PAHO 070353Z 24004KT 10SM FEW050 BKN065 OVC080 11/07 A2988 RMK AO2 SLP119 T01110072,PAHO,2023-06-07T03:53:00Z,59.63,-151.48,11.1,7.2,240,4,,10.0,29.878937,1011.9,,,TRUE,,,,,,,FEW,5000,BKN,6500,OVC,8000,,,VFR,,,,,,,,,,,,METAR,6.0
PAGY 070353Z AUTO 21013KT 10SM OVC060 12/07 A3002 RMK AO2 SLP165 T01170067 TSNO,PAGY,2023-06-07T03:53:00Z,59.47,-135.32,11.7,6.7,210,13,,10.0,30.02067,1016.5,,TRUE,TRUE,,,TRUE,,,,OVC,6000,,,,,,,VFR,,,,,,,,,,,,METAR,7.0
PAGK 070353Z AUTO 17012G17KT 10SM CLR 17/02 A2986 RMK AO2 SLP111 T01720022 TSNO,PAGK,2023-06-07T03:53:00Z,62.15,-145.45,17.2,2.2,170,12,17,10.0,29.861221,1011.1,,TRUE,TRUE,,,TRUE,,,,CLR,,,,,,,,VFR,,,,,,,,,,,,METAR,481.0
PAFA 070353Z 36005KT 10SM BKN090 BKN110 BKN200 24/05 A2971 RMK AO2 SLP063 T02390050,PAFA,2023-06-07T03:53:00Z,64.8,-147.87,23.9,5.0,360,5,,10.0,29.71063,1006.3,,,TRUE,,,,,,,BKN,9000,BKN,11000,BKN,20000,,,VFR,,,,,,,,,,,,METAR,130.0
PAEN 070353Z 04009KT 10SM OVC075 11/08 A2989 RMK AO2 RAE03B39E48 SLP124 P0000 T01110078,PAEN,2023-06-07T03:53:00Z,60.57,-151.25,11.1,7.8,40,9,,10.0,29.890747,1012.4,,,TRUE,,,,,,,OVC,7500,,,,,,,VFR,,,,,,0.005,,,,,,METAR,30.0
PAEG 070353Z AUTO VRB06KT 10SM CLR 22/06 A2973 RMK AO2 SLP065 T02220061 TSNO,PAEG,2023-06-07T03:53:00Z,64.78,-141.15,22.2,6.1,0,6,,10.0,29.731298,1006.5,,TRUE,TRUE,,,TRUE,,,,CLR,,,,,,,,VFR,,,,,,,,,,,,METAR,273.0
PADE 070353Z AUTO 22012KT 10SM SCT075 19/06 A2976 RMK AO2 SLP077 T01890056 TSNO $,PADE,2023-06-07T03:53:00Z,66.07,-162.77,18.9,5.6,220,12,,10.0,29.760826,1007.7,,TRUE,TRUE,TRUE,,TRUE,,,,SCT,7500,,,,,,,VFR,,,,,,,,,,,,METAR,5.0
PACV 070353Z 14007KT 10SM OVC045 12/08 A3001 RMK AO2 SLP161 T01170078,PACV,2023-06-07T03:53:00Z,60.5,-145.47,11.7,7.8,140,7,,10.0,30.008858,1016.1,,,TRUE,,,,,,,OVC,4500,,,,,,,VFR,,,,,,,,,,,,METAR,15.0
PABT 070353Z 02003KT 10SM FEW050 FEW080 BKN100 22/07 A2974 RMK AO2 SLP075 T02220072,PABT,2023-06-07T03:53:00Z,66.92,-151.52,22.2,7.2,20,3,,10.0,29.740158,1007.5,,,TRUE,,,,,,,FEW,5000,FEW,8000,BKN,10000,,,VFR,,,,,,,,,,,,METAR,195.0
PABI 070353Z 23014KT 10SM FEW080 FEW130 FEW200 22/00 A2976 RMK AO2 SLP071 T02220000,PABI,2023-06-07T03:53:00Z,64.0,-145.72,22.2,0.0,230,14,,10.0,29.760826,1007.1,,,TRUE,,,,,,,FEW,8000,FEW,13000,FEW,20000,,,VFR,,,,,,,,,,,,METAR,388.0
PABE 070353Z 00000KT 10SM -RA BKN049 OVC060 14/06 A2971 RMK AO2 SLP062 P0000 T01390056,PABE,2023-06-07T03:53:00Z,60.78,-161.83,13.9,5.6,0,0,,10.0,29.71063,1006.2,,,TRUE,,,,,,-RA,BKN,4900,OVC,6000,,,,,VFR,,,,,,0.005,,,,,,METAR,28.0
PAAQ 070353Z AUTO 14014G21KT 10SM FEW120 14/04 A2990 RMK AO2 PK WND 13027/0322 SLP125 T01390039 TSNO,PAAQ,2023-06-07T03:53:00Z,61.6,-149.08,13.9,3.9,140,14,21,10.0,29.899607,1012.5,,TRUE,TRUE,,,TRUE,,,,FEW,12000,,,,,,,VFR,,,,,,,,,,,,METAR,68.0
MMMM 070353Z 21006KT 7SM SCT030 OVC080 23/13 A3016 RMK 8/46/ HZY CB NW,MMMM,2023-06-07T03:53:00Z,19.85,-101.03,23.0,13.0,210,6,,7.0,30.159449,,,,,,,,,,,SCT,3000,OVC,8000,,,,,VFR,,,,,,,,,,,,METAR,1840.0
KYKM 070353Z AUTO 00000KT 10SM CLR 25/04 A2975 RMK AO2 SLP067 T02500044,KYKM,2023-06-07T03:53:00Z,46.57,-120.53,25.0,4.4,0,0,,10.0,29.749016,1006.7,,TRUE,TRUE,,,,,,,CLR,,,,,,,,VFR,,,,,,,,,,,,METAR,319.0
KYIP 070353Z 01006KT 7SM CLR 14/03 A2990 RMK AO2 SLP120 T01390028,KYIP,2023-06-07T03:53:00Z,42.23,-83.53,13.9,2.8,10,6,,7.0,29.899607,1012.0,,,TRUE,,,,,,,CLR,,,,,,,,VFR,,,,,,,,,,,,METAR,215.0
KXNA 070353Z AUTO 00000KT 10SM CLR 19/16 A2996 RMK AO2 SLP130 T01890156,KXNA,2023-06-07T03:53:00Z,36.28,-94.3,18.9,15.6,0,0,,10.0,29.958662,1013.0,,TRUE,TRUE,,,,,,,CLR,,,,,,,,VFR,,,,,,,,,,,,METAR,390.0
KWVI 070353Z AUTO 30009KT 10SM BKN019 OVC027 14/10 A2991 RMK AO2 SLP127 T01440100,KWVI,2023-06-07T03:53:00Z,36.93,-121.78,14.4,10.0,300,9,,10.0,29.911417,1012.7,,TRUE,TRUE,,,,,,,BKN,1900,OVC,2700,,,,,MVFR,,,,,,,,,,,,METAR,47.0
KWST 070353Z AUTO 34005KT 4SM HZ CLR 13/07 A2957 RMK AO2 SLP013 T01330072,KWST,2023-06-07T03:53:00Z,41.35,-71.8,13.3,7.2,340,5,,4.0,29.568897,1001.3,,TRUE,TRUE,,,,,,HZ,CLR,,,,,,,,MVFR,,,,,,,,,,,,METAR,20.0
KWRL 070353Z AUTO 03012KT 10SM VCTS -RA SCT039 BKN070 OVC100 17/13 A2997 RMK AO2 WSHFT 0315 LTG DSNT NW RAB0259 2B52E53E53 SLP114 P0005 T01720128,KWRL,2023-06-07T03:53:00Z,43.97,-107.95,17.2,12.8,30,12,,10.0,29.970472,1011.4,,TRUE,TRUE,,,,,,VCTS -RA,SCT,3900,BKN,7000,OVC,10000,,,VFR,,,,,,0.05,,,,,,METAR,1281.0
KVUO 070353Z AUTO 30005KT 10SM CLR 27/08 A2971 RMK AO2 SLP059 T02670083,KVUO,2023-06-07T03:53:00Z,45.62,-122.65,26.7,8.3,300,5,,10.0,29.71063,1005.9,,TRUE,TRUE,,,,,,,CLR,,,,,,,,VFR,,,,,,,,,,,,METAR,7.0
KVRB 070353Z AUTO 00000KT 10SM CLR 21/18 A2993 RMK AO2 SLP134 T02110178,KVRB,2023-06-07T03:53:00Z,27.65,-80.42,21.1,17.8,0,0,,10.0,29.929134,1013.4,,TRUE,TRUE,,,,,,,CLR,,,,,,,,VFR,,,,,,,,,,,,METAR,7.0
KVLD 070353Z AUTO 00000KT 8SM CLR 22/21 A2991 RMK AO1 SLP134 T02220206,KVLD,2023-06-07T03:53:00Z,30.78,-83.27,22.2,20.6,0,0,,8.0,29.911417,1013.4,,TRUE,TRUE,,,,,,,CLR,,,,,,,,VFR,,,,,,,,,,,,METAR,59.0
KVIH 070353Z AUTO 22005KT 10SM CLR 18/13 A2993 RMK AO2 SLP125 T01830128,KVIH,2023-06-07T03:53:00Z,38.13,-91.77,18.3,12.8,220,5,,10.0,29.929134,1012.5,,TRUE,TRUE,,,,,,,CLR,,,,,,,,VFR,,,,,,,,,,,,METAR,342.0
KVGT 070353Z 16016G23KT 10SM CLR 29/M11 A2971 RMK AO2 PK WND 16028/0328 SLP050 T02941106,KVGT,2023-06-07T03:53:00Z,36.22,-115.2,29.4,-10.6,160,16,23,10.0,29.71063,1005.0,,,TRUE,,,,,,,CLR,,,,,,,,VFR,,,,,,,,,,,,METAR,664.0
KVEL 070353Z AUTO 22015G22KT 10SM OVC100 18/08 A3009 RMK AO2 SLP132 T01780078,KVEL,2023-06-07T03:53:00Z,40.45,-109.52,17.8,7.8,220,15,22,10.0,30.088583,1013.2,,TRUE,TRUE,,,,,,,OVC,10000,,,,,,,VFR,,,,,,,,,,,,METAR,1604.0
KVCB 070353Z AUTO 25005KT 10SM CLR 18/11 A2982 RMK AO2 SLP099 T01830111,KVCB,2023-06-07T03:53:00Z,38.38,-121.95,18.3,11.1,250,5,,10.0,29.819881,1009.9,,TRUE,TRUE,,,,,,,CLR,,,,,,,,VFR,,,,,,,,,,,,METAR,30.0
KUUU 070353Z AUTO 31009KT 5SM HZ CLR 13/09 A2956 RMK AO2 SLP009 T01280089 $,KUUU,2023-06-07T03:53:00Z,41.53,-71.28,12.8,8.9,310,9,,5.0,29.56004,1000.9,,TRUE,TRUE,TRUE,,,,,HZ,CLR,,,,,,,,MVFR,,,,,,,,,,,,METAR,45.0
KUTS 070353Z AUTO 19003KT 10SM CLR 24/20 A2989 RMK AO2 SLP115 T02440200,KUTS,2023-06-07T03:53:00Z,30.75,-95.58,24.4,20.0,190,3,,10.0,29.890747,1011.5,,TRUE,TRUE,,,,,,,CLR,,,,,,,,VFR,,,,,,,,,,,,METAR,103.0
KUNO 070353Z AUTO 00000KT 9SM CLR 16/13 A2995 RMK AO2 SLP130 T01610128,KUNO,2023-06-07T03:53:00Z,36.88,-91.9,16.1,12.8,0,0,,9.0,29.949802,1013.0,,TRUE,TRUE,,,,,,,CLR,,,,,,,,VFR,,,,,,,,,,,,METAR,376.0
KUIL 070353Z AUTO 35005KT 10SM CLR 21/00 A2979 RMK AO2 SLP088 T02110000 $,KUIL,2023-06-07T03:53:00Z,47.93,-124.55,21.1,0.0,350,5,,10.0,29.790354,1008.8,,TRUE,TRUE,TRUE,,,,,,CLR,,,,,,,,VFR,,,,,,,,,,,,METAR,58.0
KUAO 070353Z AUTO 35005KT 10SM CLR 26/08 A2970 RMK AO2 SLP056 T02610083,KUAO,2023-06-07T03:53:00Z,45.25,-122.77,26.1,8.3,350,5,,10.0,29.698818,1005.6,,TRUE,TRUE,,,,,,,CLR,,,,,,,,VFR,,,,,,,,,,,,METAR,60.0
KTYS 070353Z 00000KT 10SM CLR 21/13 A2987 RMK AO2 SLP102 T02110133,KTYS,2023-06-07T03:53:00Z,35.82,-83.98,21.1,13.3,0,0,,10.0,29.870079,1010.2,,,TRUE,,,,,,,CLR,,,,,,,,VFR,,,,,,,,,,,,METAR,300.0
KTYR 070353Z AUTO 00000KT 10SM CLR 24/21 A2989 RMK AO2 SLP114 T02440206,KTYR,2023-06-07T03:53:00Z,32.37,-95.4,24.4,20.6,0,0,,10.0,29.890747,1011.4,,TRUE,TRUE,,,,,,,CLR,,,,,,,,VFR,,,,,,,,,,,,METAR,161.0
KTXK 070353Z AUTO 30003KT 10SM CLR 26/18 A2989 RMK AO2 SLP117 T02610183,KTXK,2023-06-07T03:53:00Z,33.45,-93.98,26.1,18.3,300,3,,10.0,29.890747,1011.7,,TRUE,TRUE,,,,,,,CLR,,,,,,,,VFR,,,,,,,,,,,,METAR,118.0
KTWF 070353Z AUTO 17004KT 10SM BKN120 17/12 A2989 RMK AO2 SLP075 T01670117,KTWF,2023-06-07T03:53:00Z,42.48,-114.48,16.7,11.7,170,4,,10.0,29.890747,1007.5,,TRUE,TRUE,,,,,,,BKN,12000,,,,,,,VFR,,,,,,,,,,,,METAR,1269.0
KTVR 070353Z AUTO 00000KT 10SM CLR 22/21 A2987 RMK AO2 SLP121 T02220211,KTVR,2023-06-07T03:53:00Z,32.35,-91.03,22.2,21.1,0,0,,10.0,29.870079,1012.1,,TRUE,TRUE,,,,,,,CLR,,,,,,,,VFR,,,,,,,,,,,,METAR,25.0
KTVL 070353Z AUTO 00000KT 10SM CLR 08/06 A2996 RMK AO2 SLP102 T00830056,KTVL,2023-06-07T03:53:00Z,38.9,-120.0,8.3,5.6,0,0,,10.0,29.958662,1010.2,,TRUE,TRUE,,,,,,,CLR,,,,,,,,VFR,,,,,,,,,,,,METAR,1907.0
KTVC 070353Z AUTO 00000KT 10SM CLR 11/07 A2995 RMK AO2 SLP143 T01060072,KTVC,2023-06-07T03:53:00Z,44.73,-85.58,10.6,7.2,0,0,,10.0,29.949802,1014.3,,TRUE,TRUE,,,,,,,CLR,,,,,,,,VFR,,,,,,,,,,,,METAR,188.0
KTUS 070353Z 26010KT 10SM CLR 28/03 A2985 RMK AO2 SLP058 T02780033,KTUS,2023-06-07T03:53:00Z,32.13,-110.95,27.8,3.3,260,10,,10.0,29.84941,1005.8,,,TRUE,,,,,,,CLR,,,,,,,,VFR,,,,,,,,,,,,METAR,776.0
KTUP 070353Z AUTO 00000KT 10SM CLR 23/19 A2988 RMK AO2 SLP112 T02330194 $,KTUP,2023-06-07T03:53:00Z,34.27,-88.77,23.3,19.4,0,0,,10.0,29.878937,1011.2,,TRUE,TRUE,TRUE,,,,,,CLR,,,,,,,,VFR,,,,,,,,,,,,METAR,107.0
KTUL 070353Z 35006KT 10SM FEW170 BKN250 22/18 A2992 RMK AO2 SLP124 T02220178,KTUL,2023-06-07T03:53:00Z,36.2,-95.88,22.2,17.8,350,6,,10.0,29.920275,1012.4,,,TRUE,,,,,,,FEW,17000,BKN,25000,,,,,VFR,,,,,,,,,,,,METAR,196.0
KTTN 070353Z AUTO 31004KT 3SM HZ OVC039 16/07 A2967 RMK AO2 SLP041 T01610067,KTTN,2023-06-07T03:53:00Z,40.28,-74.82,16.1,6.7,310,4,,3.0,29.66929,1004.1,,TRUE,TRUE,,,,,,HZ,OVC,3900,,,,,,,MVFR,,,,,,,,,,,,METAR,58.0
KTTD 070353Z 26006KT 10SM CLR 28/09 A2968 RMK AO2 SLP050 T02780094 $,KTTD,2023-06-07T03:53:00Z,45.55,-122.42,27.8,9.4,260,6,,10.0,29.681103,1005.0,,,TRUE,TRUE,,,,,,CLR,,,,,,,,VFR,,,,,,,,,,,,METAR,8.0
KTRL 070353Z AUTO 04004KT 10SM CLR 23/19 A2990 RMK AO2 SLP118 T02280194,KTRL,2023-06-07T03:53:00Z,32.72,-96.27,22.8,19.4,40,4,,10.0,29.899607,1011.8,,TRUE,TRUE,,,,,,,CLR,,,,,,,,VFR,,,,,,,,,,,,METAR,144.0
KTRI 070353Z 00000KT 10SM CLR 15/10 A2989 RMK AO2 SLP099 T01500100,KTRI,2023-06-07T03:53:00Z,36.48,-82.4,15.0,10.0,0,0,,10.0,29.890747,1009.9,,,TRUE,,,,,,,CLR,,,,,,,,VFR,,,,,,,,,,,,METAR,456.0
KTPA 070353Z 24004KT 10SM FEW140 SCT250 26/21 A2991 RMK AO2 SLP129 T02610206,KTPA,2023-06-07T03:53:00Z,27.97,-82.53,26.1,20.6,240,4,,10.0,29.911417,1012.9,,,TRUE,,,,,,,FEW,14000,SCT,25000,,,,,VFR,,,,,,,,,,,,METAR,2.0
KTOR 070353Z AUTO 10005KT 10SM CLR 18/13 A2996 RMK AO2 SLP105 T01780128,KTOR,2023-06-07T03:53:00Z,42.07,-104.15,17.8,12.8,100,5,,10.0,29.958662,1010.5,,TRUE,TRUE,,,,,,,CLR,,,,,,,,VFR,,,,,,,,,,,,METAR,1285.0
KTOP 070353Z AUTO 00000KT 9SM CLR 23/19 A2992 RMK AO2 SLP121 T02330189,KTOP,2023-06-07T03:53:00Z,39.07,-95.63,23.3,18.9,0,0,,9.0,29.920275,1012.1,,TRUE,TRUE,,,,,,,CLR,,,,,,,,VFR,,,,,,,,,,,,METAR,268.0
KTOI 070353Z AUTO 00000KT 10SM CLR 22/19 A2991 RMK AO2 SLP121 T02170189,KTOI,2023-06-07T03:53:00Z,31.85,-86.02,21.7,18.9,0,0,,10.0,29.911417,1012.1,,TRUE,TRUE,,,,,,,CLR,,,,,,,,VFR,,,,,,,,,,,,METAR,120.0
KTMB 070353Z AUTO 12004KT 10SM CLR 26/23 A2991 RMK AO2 SLP127 T02560233,KTMB,2023-06-07T03:53:00Z,25.65,-80.43,25.6,23.3,120,4,,10.0,29.911417,1012.7,,TRUE,TRUE,,,,,,,CLR,,,,,,,,VFR,,,,,,,,,,,,METAR,2.0
KTLH 070353Z AUTO 00000KT 10SM CLR 23/21 A2990 RMK AO2 SLP125 T02280206,KTLH,2023-06-07T03:53:00Z,30.4,-84.35,22.8,20.6,0,0,,10.0,29.899607,1012.5,,TRUE,TRUE,,,,,,,CLR,,,,,,,,VFR,,,,,,,,,,,,METAR,17.0
KTKI 070353Z AUTO 00000KT 10SM CLR 22/18 A2989 RMK AO2 SLP119 T02170178,KTKI,2023-06-07T03:53:00Z,33.18,-96.58,21.7,17.8,0,0,,10.0,29.890747,1011.9,,TRUE,TRUE,,,,,,,CLR,,,,,,,,VFR,,,,,,,,,,,,METAR,173.0
KTIW 070353Z AUTO 02008KT 10SM CLR 22/03 A2978 RMK AO2 SLP081 T02220028,KTIW,2023-06-07T03:53:00Z,47.27,-122.58,22.2,2.8,20,8,,10.0,29.778543,1008.1,,TRUE,TRUE,,,,,,,CLR,,,,,,,,VFR,,,,,,,,,,,,METAR,89.0
KTHV 070353Z AUTO 00000KT 3SM HZ OVC043 17/08 A2973 RMK AO2 SLP065 T01720078,KTHV,2023-06-07T03:53:00Z,39.92,-76.88,17.2,7.8,0,0,,3.0,29.731298,1006.5,,TRUE,TRUE,,,,,,HZ,OVC,4300,,,,,,,MVFR,,,,,,,,,,,,METAR,141.0
KTDZ 070353Z AUTO 05005KT 4SM HZ CLR 18/04 A2989 RMK AO2 SLP119 T01780044,KTDZ,2023-06-07T03:53:00Z,41.57,-83.48,17.8,4.4,50,5,,4.0,29.890747,1011.9,,TRUE,TRUE,,,,,,HZ,CLR,,,,,,,,MVFR,,,,,,,,,,,,METAR,189.0
KTCS 070353Z AUTO 06008KT 10SM CLR 18/11 A3002 RMK AO2 SLP095 T01830106,KTCS,2023-06-07T03:53:00Z,33.23,-107.27,18.3,10.6,60,8,,10.0,30.02067,1009.5,,TRUE,TRUE,,,,,,,CLR,,,,,,,,VFR,,,,,,,,,,,,METAR,1471.0
KTCL 070353Z AUTO 00000KT 9SM CLR 22/21 A2988 RMK AO2 SLP116 T02220206,KTCL,2023-06-07T03:53:00Z,33.22,-87.62,22.2,20.6,0,0,,9.0,29.878937,1011.6,,TRUE,TRUE,,,,,,,CLR,,,,,,,,VFR,,,,,,,,,,,,METAR,48.0
KTCC 070353Z AUTO 15004KT 10SM SCT070 19/16 A3000 RMK AO2 SLP111 T01890156,KTCC,2023-06-07T03:53:00Z,35.18,-103.6,18.9,15.6,150,4,,10.0,30.0,1011.1,,TRUE,TRUE,,,,,,,SCT,7000,,,,,,,VFR,,,,,,,,,,,,METAR,1233.0
KSWO 070353Z AUTO 00000KT 10SM CLR 20/18 A2996 RMK AO2 SLP132 T02000178,KSWO,2023-06-07T03:53:00Z,36.17,-97.08,20.0,17.8,0,0,,10.0,29.958662,1013.2,,TRUE,TRUE,,,,,,,CLR,,,,,,,,VFR,,,,,,,,,,,,METAR,293.0
KSTS 070353Z AUTO 26004KT 10SM OVC020 16/09 A2990 RMK AO2 SLP117 T01560094,KSTS,2023-06-07T03:53:00Z,38.5,-122.82,15.6,9.4,260,4,,10.0,29.899607,1011.7,,TRUE,TRUE,,,,,,,OVC,2000,,,,,,,MVFR,,,,,,,,,,,,METAR,35.0
KSTP 070353Z 07006KT 10SM SCT095 24/16 A2993 RMK AO2 SLP127 T02390161,KSTP,2023-06-07T03:53:00Z,44.93,-93.05,23.9,16.1,70,6,,10.0,29.929134,1012.7,,,TRUE,,,,,,,SCT,9500,,,,,,,VFR,,,,,,,,,,,,METAR,213.0
KSTJ 070353Z AUTO 16003KT 8SM CLR 24/18 A2991 RMK AO2 SLP119 T02390183,KSTJ,2023-06-07T03:53:00Z,39.77,-94.92,23.9,18.3,160,3,,8.0,29.911417,1011.9,,TRUE,TRUE,,,,,,,CLR,,,,,,,,VFR,,,,,,,,,,,,METAR,247.0
KSTC 070353Z 07008KT 10SM FEW100 20/14 A2994 RMK AO2 SLP144 T02000139,KSTC,2023-06-07T03:53:00Z,45.55,-94.05,20.0,13.9,70,8,,10.0,29.940945,1014.4,,,TRUE,,,,,,,FEW,10000,,,,,,,VFR,,,,,,,,,,,,METAR,302.0
KSSI 070353Z AUTO 19006KT 10SM CLR 26/19 A2989 RMK AO2 SLP121 T02610194,KSSI,2023-06-07T03:53:00Z,31.15,-81.38,26.1,19.4,190,6,,10.0,29.890747,1012.1,,TRUE,TRUE,,,,,,,CLR,,,,,,,,VFR,,,,,,,,,,,,METAR,6.0
KSSF 070353Z AUTO 00000KT 10SM CLR 23/22 A2986 RMK AO2 SLP102 T02330222 $,KSSF,2023-06-07T03:53:00Z,29.33,-98.47,23.3,22.2,0,0,,10.0,29.861221,1010.2,,TRUE,TRUE,TRUE,,,,,,CLR,,,,,,,,VFR,,,,,,,,,,,,METAR,175.0
KSRQ 070353Z AUTO 12005KT 10SM CLR 24/20 A2989 RMK AO2 SLP120 T02390200,KSRQ,2023-06-07T03:53:00Z,27.4,-82.57,23.9,20.0,120,5,,10.0,29.890747,1012.0,,TRUE,TRUE,,,,,,,CLR,,,,,,,,VFR,,,,,,,,,,,,METAR,5.0
KSPW 070353Z AUTO 00000KT 10SM CLR 24/17 A2990 RMK AO2 SLP113 T02440167,KSPW,2023-06-07T03:53:00Z,43.17,-95.22,24.4,16.7,0,0,,10.0,29.899607,1011.3,,TRUE,TRUE,,,,,,,CLR,,,,,,,,VFR,,,,,,,,,,,,METAR,407.0
KSPG 070353Z AUTO 00000KT 10SM CLR 27/21 A2989 RMK AO2 SLP120 T02670211 $,KSPG,2023-06-07T03:53:00Z,27.77,-82.63,26.7,21.1,0,0,,10.0,29.890747,1012.0,,TRUE,TRUE,TRUE,,,,,,CLR,,,,,,,,VFR,,,,,,,,,,,,METAR,1.0
KSPB 070353Z AUTO 33006KT 10SM CLR 27/06 A2969 RMK AO2 SLP055 T02670061,KSPB,2023-06-07T03:53:00Z,45.77,-122.87,26.7,6.1,330,6,,10.0,29.68996,1005.5,,TRUE,TRUE,,,,,,,CLR,,,,,,,,VFR,,,,,,,,,,,,METAR,15.0
KSNY 070353Z AUTO 14008KT 10SM CLR 16/11 A3000 RMK AO2 SLP119 T01610111 $,KSNY,2023-06-07T03:53:00Z,41.1,-102.98,16.1,11.1,140,8,,10.0,30.0,1011.9,,TRUE,TRUE,TRUE,,,,,,CLR,,,,,,,,VFR,,,,,,,,,,,,METAR,1307.0
KSNA 070353Z 23004KT 10SM OVC039 17/11 A2992 RMK AO2 SLP130 T01720111,KSNA,2023-06-07T03:53:00Z,33.67,-117.87,17.2,11.1,230,4,,10.0,29.920275,1013.0,,,TRUE,,,,,,,OVC,3900,,,,,,,VFR,,,,,,,,,,,,METAR,14.0
KSMQ 070353Z AUTO 31004KT 3SM HZ OVC050 14/08 A2966 RMK AO2 SLP041 T01440078,KSMQ,2023-06-07T03:53:00Z,40.62,-74.67,14.4,7.8,310,4,,3.0,29.660433,1004.1,,TRUE,TRUE,,,,,,HZ,OVC,5000,,,,,,,MVFR,,,,,,,,,,,,METAR,30.0
KSMF 070353Z 14008KT 10SM BKN150 BKN200 19/12 A2981 RMK AO2 SLP092 T01890122,KSMF,2023-06-07T03:53:00Z,38.7,-121.6,18.9,12.2,140,8,,10.0,29.811024,1009.2,,,TRUE,,,,,,,BKN,15000,BKN,20000,,,,,VFR,,,,,,,,,,,,METAR,7.0
KSLN 070353Z 11005KT 10SM CLR 20/16 A2995 RMK AO2 SLP130 T02000156 $,KSLN,2023-06-07T03:53:00Z,38.8,-97.65,20.0,15.6,110,5,,10.0,29.949802,1013.0,,,TRUE,TRUE,,,,,,CLR,,,,,,,,VFR,,,,,,,,,,,,METAR,377.0
KSJC 070353Z 23011KT 10SM FEW007 BKN036 16/11 A2987 RMK AO2 SLP116 T01610106,KSJC,2023-06-07T03:53:00Z,37.37,-121.92,16.1,10.6,230,11,,10.0,29.870079,1011.6,,,TRUE,,,,,,,FEW,700,BKN,3600,,,,,VFR,,,,,,,,,,,,METAR,13.0
KSIY 070353Z AUTO 27003KT 10SM SCT110 17/14 A2987 RMK AO2 LTG DSNT W AND NW TSE0256B0257E04B05E09B12E14 SLP108 T01720139,KSIY,2023-06-07T03:53:00Z,41.77,-122.47,17.2,13.9,270,3,,10.0,29.870079,1010.8,,TRUE,TRUE,,,,,,,SCT,11000,,,,,,,VFR,,,,,,,,,,,,METAR,807.0
KSHR 070353Z AUTO 29010KT 10SM BKN070 BKN090 BKN120 18/14 A3000 RMK AO2 SLP125 T01780139,KSHR,2023-06-07T03:53:00Z,44.77,-106.97,17.8,13.9,290,10,,10.0,30.0,1012.5,,TRUE,TRUE,,,,,,,BKN,7000,BKN,9000,BKN,12000,,,VFR,,,,,,,,,,,,METAR,1212.0
KSHN 070353Z AUTO 00000KT 10SM CLR 23/07 A2975 RMK AO2 SLP074 T02330072,KSHN,2023-06-07T03:53:00Z,47.23,-123.13,23.3,7.2,0,0,,10.0,29.749016,1007.4,,TRUE,TRUE,,,,,,,CLR,,,,,,,,VFR,,,,,,,,,,,,METAR,84.0
KSGR 070353Z AUTO 00000KT 10SM CLR 23/21 A2987 RMK AO2 SLP117 T02280206,KSGR,2023-06-07T03:53:00Z,29.62,-95.65,22.8,20.6,0,0,,10.0,29.870079,1011.7,,TRUE,TRUE,,,,,,,CLR,,,,,,,,VFR,,,,,,,,,,,,METAR,22.0
KSFB 070353Z AUTO 16007KT 10SM CLR 24/19 A2992 RMK AO2 SLP131 T02390189,KSFB,2023-06-07T03:53:00Z,28.77,-81.23,23.9,18.9,160,7,,10.0,29.920275,1013.1,,TRUE,TRUE,,,,,,,CLR,,,,,,,,VFR,,,,,,,,,,,,METAR,16.0
KSEG 070353Z AUTO 33006KT 4SM HZ OVC043 15/07 A2973 RMK AO2 SLP065 T01500072,KSEG,2023-06-07T03:53:00Z,40.82,-76.87,15.0,7.2,330,6,,4.0,29.731298,1006.5,,TRUE,TRUE,,,,,,HZ,OVC,4300,,,,,,,MVFR,,,,,,,,,,,,METAR,136.0
KSEA 070353Z 35008KT 10SM CLR 22/05 A2978 RMK AO2 SLP090 T02220050,KSEA,2023-06-07T03:53:00Z,47.45,-122.32,22.2,5.0,350,8,,10.0,29.778543,1009.0,,,TRUE,,,,,,,CLR,,,,,,,,VFR,,,,,,,,,,,,METAR,115.0
KSDL 070353Z AUTO 26009G19KT 10SM CLR 29/M05 A2977 RMK AO2 SLP055 T02941050,KSDL,2023-06-07T03:53:00Z,33.62,-111.92,29.4,-5.0,260,9,19,10.0,29.769686,1005.5,,TRUE,TRUE,,,,,,,CLR,,,,,,,,VFR,,,,,,,,,,,,METAR,438.0
KSBM 070353Z AUTO 01005KT 10SM CLR 12/03 A2996 RMK AO2 SLP144 T01220028,KSBM,2023-06-07T03:53:00Z,43.78,-87.85,12.2,2.8,10,5,,10.0,29.958662,1014.4,,TRUE,TRUE,,,,,,,CLR,,,,,,,,VFR,,,,,,,,,,,,METAR,225.0
KSBA 070353Z 00000KT 8SM -RA FEW015 SCT038 OVC095 14/13 A2991 RMK AO2 SLP129 P0004 T01440128 $,KSBA,2023-06-07T03:53:00Z,34.43,-119.85,14.4,12.8,0,0,,8.0,29.911417,1012.9,,,TRUE,TRUE,,,,,-RA,FEW,1500,SCT,3800,OVC,9500,,,VFR,,,,,,0.04,,,,,,METAR,2.0
KSAV 070353Z 20009KT 10SM FEW180 24/18 A2985 RMK AO2 SLP107 LAST T02440183,KSAV,2023-06-07T03:53:00Z,32.12,-81.2,24.4,18.3,200,9,,10.0,29.84941,1010.7,,,TRUE,,,,,,,FEW,18000,,,,,,,VFR,,,,,,,,,,,,METAR,10.0
KSAF 070353Z AUTO 06016KT 10SM -RA BKN065 OVC085 13/10 A3018 RMK AO2 SLP145 P0006 T01280100,KSAF,2023-06-07T03:53:00Z,35.62,-106.1,12.8,10.0,60,16,,10.0,30.180119,1014.5,,TRUE,TRUE,,,,,,-RA,BKN,6500,OVC,8500,,,,,VFR,,,,,,0.06,,,,,,METAR,1918.0
KSAC 070353Z AUTO 22005KT 10SM CLR 17/12 A2982 RMK AO2 SLP097 T01720122,KSAC,2023-06-07T03:53:00Z,38.5,-121.5,17.2,12.2,220,5,,10.0,29.819881,1009.7,,TRUE,TRUE,,,,,,,CLR,,,,,,,,VFR,,,,,,,,,,,,METAR,5.0
KRXE 070353Z AUTO 24006KT 10SM SCT090 19/08 A2997 RMK AO2 SLP106 T01890078,KRXE,2023-06-07T03:53:00Z,43.83,-111.8,18.9,7.8,240,6,,10.0,29.970472,1010.6,,TRUE,TRUE,,,,,,,SCT,9000,,,,,,,VFR,,,,,,,,,,,,METAR,1483.0
KRWL 070353Z AUTO 30006KT 10SM OVC120 15/08 A3010 RMK AO2 RAB12E44 SLP111 P0001 T01500083,KRWL,2023-06-07T03:53:00Z,41.8,-107.2,15.0,8.3,300,6,,10.0,30.100393,1011.1,,TRUE,TRUE,,,,,,,OVC,12000,,,,,,,VFR,,,,,,0.01,,,,,,METAR,2066.0
KRWI 070353Z AUTO 00000KT 9SM CLR 16/13 A2978 RMK AO2 SLP082 T01610133,KRWI,2023-06-07T03:53:00Z,35.85,-77.9,16.1,13.3,0,0,,9.0,29.778543,1008.2,,TRUE,TRUE,,,,,,,CLR,,,,,,,,VFR,,,,,,,,,,,,METAR,46.0
KRWF 070353Z AUTO 07006KT 10SM CLR 24/16 A2989 RMK AO2 SLPNO T02440161 $,KRWF,2023-06-07T03:53:00Z,44.55,-95.08,24.4,16.1,70,6,,10.0,29.890747,,,TRUE,TRUE,TRUE,,,,,,CLR,,,,,,,,VFR,,,,,,,,,,,,METAR,312.0
KRVS 070353Z AUTO 22003KT 10SM CLR 18/17 A2992 RMK AO2 SLP134 T01780167,KRVS,2023-06-07T03:53:00Z,36.05,-95.98,17.8,16.7,220,3,,10.0,29.920275,1013.4,,TRUE,TRUE,,,,,,,CLR,,,,,,,,VFR,,,,,,,,,,,,METAR,191.0
KRSW 070353Z AUTO 00000KT 10SM CLR 22/22 A2991 RMK AO2 SLP126 T02220217,KRSW,2023-06-07T03:53:00Z,26.53,-81.75,22.2,21.7,0,0,,10.0,29.911417,1012.6,,TRUE,TRUE,,,,,,,CLR,,,,,,,,VFR,,,,,,,,,,,,METAR,8.0
KRSL 070353Z AUTO 17007KT 10SM CLR 21/15 A2995 RMK AO2 SLP127 T02060150,KRSL,2023-06-07T03:53:00Z,38.87,-98.82,20.6,15.0,170,7,,10.0,29.949802,1012.7,,TRUE,TRUE,,,,,,,CLR,,,,,,,,VFR,,,,,,,,,,,,METAR,569.0
KRQE 070353Z AUTO 05004KT 10SM CLR 12/07 A3009 RMK AO2 SLP092 T01170067,KRQE,2023-06-07T03:53:00Z,35.65,-109.07,11.7,6.7,50,4,,10.0,30.088583,1009.2,,TRUE,TRUE,,,,,,,CLR,,,,,,,,VFR,,,,,,,,,,,,METAR,2056.0
KRNT 070353Z AUTO 33009KT 10SM CLR 23/09 A2976 RMK AO2 SLP083 T02330089,KRNT,2023-06-07T03:53:00Z,47.5,-122.22,23.3,8.9,330,9,,10.0,29.760826,1008.3,,TRUE,TRUE,,,,,,,CLR,,,,,,,,VFR,,,,,,,,,,,,METAR,7.0
KRNM 070353Z AUTO 29006KT 10SM OVC023 14/11 A2992 RMK AO2 SLP122 T01440106,KRNM,2023-06-07T03:53:00Z,33.03,-116.92,14.4,10.6,290,6,,10.0,29.920275,1012.2,,TRUE,TRUE,,,,,,,OVC,2300,,,,,,,MVFR,,,,,,,,,,,,METAR,423.0
KRMG 070353Z AUTO 00000KT 8SM CLR 22/18 A2986 RMK AO2 SLP100 T02170183,KRMG,2023-06-07T03:53:00Z,34.35,-85.17,21.7,18.3,0,0,,8.0,29.861221,1010.0,,TRUE,TRUE,,,,,,,CLR,,,,,,,,VFR,,,,,,,,,,,,METAR,196.0
KRME 070353Z AUTO 28005KT 5SM BR FEW049 SCT120 11/08 A2972 RMK AO2 SLP062 T01060083,KRME,2023-06-07T03:53:00Z,43.22,-75.4,10.6,8.3,280,5,,5.0,29.719488,1006.2,,TRUE,TRUE,,,,,,BR,FEW,4900,SCT,12000,,,,,MVFR,,,,,,,,,,,,METAR,146.0
KRKP 070353Z AUTO 16005KT 7SM CLR 26/21 A2986 RMK AO2 SLP114 T02560211,KRKP,2023-06-07T03:53:00Z,28.08,-97.05,25.6,21.1,160,5,,7.0,29.861221,1011.4,,TRUE,TRUE,,,,,,,CLR,,,,,,,,VFR,,,,,,,,,,,,METAR,8.0
KRIW 070353Z AUTO 31009KT 10SM FEW080 BKN100 17/10 A3004 RMK AO2 LTG DSNT E SLP116 T01720100,KRIW,2023-06-07T03:53:00Z,43.07,-108.43,17.2,10.0,310,9,,10.0,30.041338,1011.6,,TRUE,TRUE,,,,,,,FEW,8000,BKN,10000,,,,,VFR,,,,,,,,,,,,METAR,1662.0
KRIL 070353Z AUTO 04004KT 10SM CLR 17/08 A3003 RMK AO2 SLP109 T01720078,KRIL,2023-06-07T03:53:00Z,39.53,-107.73,17.2,7.8,40,4,,10.0,30.029528,1010.9,,TRUE,TRUE,,,,,,,CLR,,,,,,,,VFR,,,,,,,,,,,,METAR,1683.0
KRHI 070353Z AUTO 07006KT 10SM CLR 14/04 A3002 RMK AO2 SLP165 T01390039,KRHI,2023-06-07T03:53:00Z,45.63,-89.48,13.9,3.9,70,6,,10.0,30.02067,1016.5,,TRUE,TRUE,,,,,,,CLR,,,,,,,,VFR,,,,,,,,,,,,METAR,493.0
KRDD 070353Z 14009KT 10SM BKN080 OVC110 22/12 A2981 RMK AO2 LTG DSNT SW AND W SLP091 T02220122,KRDD,2023-06-07T03:53:00Z,40.52,-122.3,22.2,12.2,140,9,,10.0,29.811024,1009.1,,,TRUE,,,,,,,BKN,8000,OVC,11000,,,,,VFR,,,,,,,,,,,,METAR,152.0
KRBG 070353Z AUTO 28004KT 10SM CLR 26/09 A2975 RMK AO2 SLP069 T02610089,KRBG,2023-06-07T03:53:00Z,43.23,-123.35,26.1,8.9,280,4,,10.0,29.749016,1006.9,,TRUE,TRUE,,,,,,,CLR,,,,,,,,VFR,,,,,,,,,,,,METAR,152.0
KRBD 070353Z AUTO 05005KT 10SM CLR 24/19 A2990 RMK AO2 SLP115 T02390194,KRBD,2023-06-07T03:53:00Z,32.68,-96.87,23.9,19.4,50,5,,10.0,29.899607,1011.5,,TRUE,TRUE,,,,,,,CLR,,,,,,,,VFR,,,,,,,,,,,,METAR,200.0
KRAL 070353Z AUTO 27008KT 10SM CLR 15/09 A2990 RMK AO2 SLP116 T01500094,KRAL,2023-06-07T03:53:00Z,33.95,-117.45,15.0,9.4,270,8,,10.0,29.899607,1011.6,,TRUE,TRUE,,,,,,,CLR,,,,,,,,VFR,,,,,,,,,,,,METAR,254.0
KRAC 070353Z AUTO 01009KT 10SM CLR 14/08 A2996 RMK AO2 SLP145 T01390078,KRAC,2023-06-07T03:53:00Z,42.77,-87.82,13.9,7.8,10,9,,10.0,29.958662,1014.5,,TRUE,TRUE,,,,,,,CLR,,,,,,,,VFR,,,,,,,,,,,,METAR,203.0
KPWA 070353Z AUTO 11008KT 10SM SCT055 BKN120 22/17 A2995 RMK AO2 SLP129 T02170167,KPWA,2023-06-07T03:53:00Z,35.53,-97.65,21.7,16.7,110,8,,10.0,29.949802,1012.9,,TRUE,TRUE,,,,,,,SCT,5500,BKN,12000,,,,,VFR,,,,,,,,,,,,METAR,390.0
KPUW 070353Z AUTO 01003KT 10SM CLR 22/04 A2982 RMK AO2 SLP081 T02170039,KPUW,2023-06-07T03:53:00Z,46.75,-117.12,21.7,3.9,10,3,,10.0,29.819881,1008.1,,TRUE,TRUE,,,,,,,CLR,,,,,,,,VFR,,,,,,,,,,,,METAR,774.0
KPUC 070353Z AUTO 02011KT 10SM CLR 13/08 A3005 RMK AO2 SLP117 T01330083,KPUC,2023-06-07T03:53:00Z,39.62,-110.75,13.3,8.3,20,11,,10.0,30.050198,1011.7,,TRUE,TRUE,,,,,,,CLR,,,,,,,,VFR,,,,,,,,,,,,METAR,1777.0
KPUB 070353Z 27011KT 10SM CLR 16/10 A3000 RMK AO2 SLP112 T01610100,KPUB,2023-06-07T03:53:00Z,38.28,-104.5,16.1,10.0,270,11,,10.0,30.0,1011.2,,,TRUE,,,,,,,CLR,,,,,,,,VFR,,,,,,,,,,,,METAR,1441.0
KPTK 070353Z 03002KT 5SM HZ CLR 12/03 A2990 RMK SLPNO LAST,KPTK,2023-06-07T03:53:00Z,42.67,-83.42,12.0,3.0,30,2,,5.0,29.899607,,,,,,,,,,HZ,CLR,,,,,,,,MVFR,,,,,,,,,,,,METAR,295.0
KPSX 070353Z AUTO 15004KT 10SM CLR 25/21 A2987 RMK AO2 SLP116 T02500206,KPSX,2023-06-07T03:53:00Z,28.72,-96.25,25.0,20.6,150,4,,10.0,29.870079,1011.6,,TRUE,TRUE,,,,,,,CLR,,,,,,,,VFR,,,,,,,,,,,,METAR,4.0
KPSP 070353Z 33012G23KT 10SM CLR 23/08 A2975 RMK AO2 PK WND 33027/0258 SLP072 T02330083,KPSP,2023-06-07T03:53:00Z,33.82,-116.5,23.3,8.3,330,12,23,10.0,29.749016,1007.2,,,TRUE,,,,,,,CLR,,,,,,,,VFR,,,,,,,,,,,,METAR,123.0
KPSC 070353Z 32007KT 10SM CLR 23/10 A2970 RMK AO2 SLP053 T02330100,KPSC,2023-06-07T03:53:00Z,46.27,-119.12,23.3,10.0,320,7,,10.0,29.698818,1005.3,,,TRUE,,,,,,,CLR,,,,,,,,VFR,,,,,,,,,,,,METAR,121.0
KPRC 070353Z 21005KT 10SM CLR 16/M03 A2996 RMK AO2 SLP075 T01611028,KPRC,2023-06-07T03:53:00Z,34.65,-112.42,16.1,-2.8,210,5,,10.0,29.958662,1007.5,,,TRUE,,,,,,,CLR,,,,,,,,VFR,,,,,,,,,,,,METAR,1528.0
KPRB 070353Z AUTO 23007KT 10SM OVC012 13/10 A2991 RMK AO2 SLP124 T01330100 $,KPRB,2023-06-07T03:53:00Z,35.67,-120.63,13.3,10.0,230,7,,10.0,29.911417,1012.4,,TRUE,TRUE,TRUE,,,,,,OVC,1200,,,,,,,MVFR,,,,,,,,,,,,METAR,249.0
KPQL 070353Z AUTO 00000KT 10SM FEW023 21/19 A2988 RMK AO2 SLP121 T02060194,KPQL,2023-06-07T03:53:00Z,30.47,-88.53,20.6,19.4,0,0,,10.0,29.878937,1012.1,,TRUE,TRUE,,,,,,,FEW,2300,,,,,,,VFR,,,,,,,,,,,,METAR,4.0
KPOF 070353Z AUTO 00000KT 10SM CLR 19/16 A2988 RMK AO2 SLP115 T01940161,KPOF,2023-06-07T03:53:00Z,36.77,-90.32,19.4,16.1,0,0,,10.0,29.878937,1011.5,,TRUE,TRUE,,,,,,,CLR,,,,,,,,VFR,,,,,,,,,,,,METAR,99.0
KPNS 070353Z AUTO 00000KT 10SM CLR 24/21 A2989 RMK AO2 SLP121 T02390206,KPNS,2023-06-07T03:53:00Z,30.48,-87.18,23.9,20.6,0,0,,10.0,29.890747,1012.1,,TRUE,TRUE,,,,,,,CLR,,,,,,,,VFR,,,,,,,,,,,,METAR,34.0
KPNC 070353Z AUTO 00000KT 10SM CLR 20/18 A2995 RMK AO2 SLP130 T02000178,KPNC,2023-06-07T03:53:00Z,36.73,-97.1,20.0,17.8,0,0,,10.0,29.949802,1013.0,,TRUE,TRUE,,,,,,,CLR,,,,,,,,VFR,,,,,,,,,,,,METAR,304.0
KPMP 070353Z AUTO 11004KT 10SM CLR 26/22 A2991 RMK AO2 SLP130 T02610222,KPMP,2023-06-07T03:53:00Z,26.25,-80.12,26.1,22.2,110,4,,10.0,29.911417,1013.0,,TRUE,TRUE,,,,,,,CLR,,,,,,,,VFR,,,,,,,,,,,,METAR,4.0
KPMD 070353Z 22018G24KT 10SM OVC100 14/07 A2986 RMK AO2 SLP096 T01440067,KPMD,2023-06-07T03:53:00Z,34.63,-118.08,14.4,6.7,220,18,24,10.0,29.861221,1009.6,,,TRUE,,,,,,,OVC,10000,,,,,,,VFR,,,,,,,,,,,,METAR,764.0
KPKD 070353Z AUTO 13007KT 10SM CLR 20/12 A2994 RMK AO2 SLP136 T02000122,KPKD,2023-06-07T03:53:00Z,46.9,-95.07,20.0,12.2,130,7,,10.0,29.940945,1013.6,,TRUE,TRUE,,,,,,,CLR,,,,,,,,VFR,,,,,,,,,,,,METAR,439.0
KPKB 070353Z AUTO 32004KT 9SM CLR 18/14 A2982 RMK AO2 SLP091 T01830139,KPKB,2023-06-07T03:53:00Z,39.35,-81.43,18.3,13.9,320,4,,9.0,29.819881,1009.1,,TRUE,TRUE,,,,,,,CLR,,,,,,,,VFR,,,,,,,,,,,,METAR,245.0
KPIR 070353Z AUTO 00000KT 10SM CLR 24/12 A2986 RMK AO2 SLP097 T02390122,KPIR,2023-06-07T03:53:00Z,44.38,-100.28,23.9,12.2,0,0,,10.0,29.861221,1009.7,,TRUE,TRUE,,,,,,,CLR,,,,,,,,VFR,,,,,,,,,,,,METAR,524.0
KPIL 070353Z AUTO 12003KT 10SM CLR 25/22 A2987 RMK AO2 SLP113 T02500217,KPIL,2023-06-07T03:53:00Z,26.17,-97.33,25.0,21.7,120,3,,10.0,29.870079,1011.3,,TRUE,TRUE,,,,,,,CLR,,,,,,,,VFR,,,,,,,,,,,,METAR,5.0
KPIH 070353Z 13010KT 10SM CLR 18/07 A2993 RMK AO2 TSE0255 SLP091 T01830067,KPIH,2023-06-07T03:53:00Z,42.92,-112.57,18.3,6.7,130,10,,10.0,29.929134,1009.1,,,TRUE,,,,,,,CLR,,,,,,,,VFR,,,,,,,,,,,,METAR,1357.0
KPIE 070353Z 00000KT 10SM CLR 25/22 A2990 RMK AO2 SLP125 T02500217,KPIE,2023-06-07T03:53:00Z,27.92,-82.68,25.0,21.7,0,0,,10.0,29.899607,1012.5,,,TRUE,,,,,,,CLR,,,,,,,,VFR,,,,,,,,,,,,METAR,1.0
KPHD 070353Z AUTO 30003KT 10SM CLR 14/04 A2984 RMK AO2 SLP100 T01390044,KPHD,2023-06-07T03:53:00Z,40.47,-81.42,13.9,4.4,300,3,,10.0,29.840551,1010.0,,TRUE,TRUE,,,,,,,CLR,,,,,,,,VFR,,,,,,,,,,,,METAR,272.0
KPGD 070353Z AUTO 12004KT 10SM CLR 23/21 A2992 RMK AO2 SLP131 T02280206,KPGD,2023-06-07T03:53:00Z,26.92,-82.0,22.8,20.6,120,4,,10.0,29.920275,1013.1,,TRUE,TRUE,,,,,,,CLR,,,,,,,,VFR,,,,,,,,,,,,METAR,7.0
KPGA 070353Z AUTO 25008KT 10SM CLR 27/M09 A2983 RMK AO2 SLP031 T02721089,KPGA,2023-06-07T03:53:00Z,36.92,-111.45,27.2,-8.9,250,8,,10.0,29.828741,1003.1,,TRUE,TRUE,,,,,,,CLR,,,,,,,,VFR,,,,,,,,,,,,METAR,1310.0
KPEO 070353Z AUTO 00000KT 3SM HZ CLR 10/06 A2976 RMK AO2 SLP078 T01000056,KPEO,2023-06-07T03:53:00Z,42.65,-77.05,10.0,5.6,0,0,,3.0,29.760826,1007.8,,TRUE,TRUE,,,,,,HZ,CLR,,,,,,,,MVFR,,,,,,,,,,,,METAR,268.0
KPDX 070353Z 28010KT 10SM FEW250 27/09 A2970 RMK AO2 SLP055 T02670094,KPDX,2023-06-07T03:53:00Z,45.6,-122.62,26.7,9.4,280,10,,10.0,29.698818,1005.5,,,TRUE,,,,,,,FEW,25000,,,,,,,VFR,,,,,,,,,,,,METAR,7.0
KPDT 070353Z AUTO 34005KT 10SM CLR 23/08 A2976 RMK AO2 SLP061 T02280078,KPDT,2023-06-07T03:53:00Z,45.7,-118.83,22.8,7.8,340,5,,10.0,29.760826,1006.1,,TRUE,TRUE,,,,,,,CLR,,,,,,,,VFR,,,,,,,,,,,,METAR,453.0
KPDK 070353Z 26003KT 10SM FEW050 21/18 A2988 RMK AO2 SLP099 T02110183 $,KPDK,2023-06-07T03:53:00Z,33.88,-84.3,21.1,18.3,260,3,,10.0,29.878937,1009.9,,,TRUE,TRUE,,,,,,FEW,5000,,,,,,,VFR,,,,,,,,,,,,METAR,299.0
KPBI 070353Z 14006KT 10SM FEW024 26/22 A2993 RMK AO2 SLP133 T02610217 $,KPBI,2023-06-07T03:53:00Z,26.68,-80.1,26.1,21.7,140,6,,10.0,29.929134,1013.3,,,TRUE,TRUE,,,,,,FEW,2400,,,,,,,VFR,,,,,,,,,,,,METAR,4.0
KPBG 070353Z AUTO 27003KT 6SM BR FEW036 BKN070 OVC090 12/10 A2963 RMK AO2 RAB01E23 SLP034 P0001 T01170100,KPBG,2023-06-07T03:53:00Z,44.65,-73.47,11.7,10.0,270,3,,6.0,29.630905,1003.4,,TRUE,TRUE,,,,,,BR,FEW,3600,BKN,7000,OVC,9000,,,VFR,,,,,,0.01,,,,,,METAR,61.0
KPBF 070353Z AUTO 00000KT 10SM CLR 24/21 A2989 RMK AO2 SLP119 T02390206,KPBF,2023-06-07T03:53:00Z,34.18,-91.93,23.9,20.6,0,0,,10.0,29.890747,1011.9,,TRUE,TRUE,,,,,,,CLR,,,,,,,,VFR,,,,,,,,,,,,METAR,63.0
KPAH 070353Z 00000KT 9SM CLR 19/17 A2987 RMK AO2 SLP110 T01940167,KPAH,2023-06-07T03:53:00Z,37.07,-88.77,19.4,16.7,0,0,,9.0,29.870079,1011.0,,,TRUE,,,,,,,CLR,,,,,,,,VFR,,,,,,,,,,,,METAR,125.0
KPAE 070353Z AUTO 34003KT 10SM CLR 20/04 A2981 RMK AO2 SLP091 T02000044,KPAE,2023-06-07T03:53:00Z,47.92,-122.28,20.0,4.4,340,3,,10.0,29.811024,1009.1,,TRUE,TRUE,,,,,,,CLR,,,,,,,,VFR,,,,,,,,,,,,METAR,166.0
KP68 070353Z AUTO 33008KT 16/06 A2992 RMK AO1 SLP063 T01560056,KP68,2023-06-07T03:53:00Z,39.6,-116.0,15.6,5.6,330,8,,,29.920275,1006.3,,TRUE,TRUE,,,,,,,,,,,,,,,,,,,,,,,,,,,METAR,1813.0
KOXB 070353Z AUTO 00000KT 6SM HZ BKN120 20/13 A2968 RMK AO2 SLP050 T02000128,KOXB,2023-06-07T03:53:00Z,38.32,-75.12,20.0,12.8,0,0,,6.0,29.681103,1005.0,,TRUE,TRUE,,,,,,HZ,BKN,12000,,,,,,,VFR,,,,,,,,,,,,METAR,2.0
KOWD 070353Z AUTO 24005KT 10SM OVC070 14/09 A2956 RMK AO2 SLP009 T01390094 $,KOWD,2023-06-07T03:53:00Z,42.18,-71.17,13.9,9.4,240,5,,10.0,29.56004,1000.9,,TRUE,TRUE,TRUE,,,,,,OVC,7000,,,,,,,VFR,,,,,,,,,,,,METAR,14.0
KOVS 070353Z AUTO 03003KT 8SM SCT070 21/17 A2992 RMK AO2 SLPNO T02060167,KOVS,2023-06-07T03:53:00Z,43.15,-90.68,20.6,16.7,30,3,,8.0,29.920275,,,TRUE,TRUE,,,,,,,SCT,7000,,,,,,,VFR,,,,,,,,,,,,METAR,205.0
KOVE 070353Z AUTO 11007KT 10SM FEW110 21/12 A2982 RMK AO2 SLP099 T02110122,KOVE,2023-06-07T03:53:00Z,39.5,-121.62,21.1,12.2,110,7,,10.0,29.819881,1009.9,,TRUE,TRUE,,,,,,,FEW,11000,,,,,,,VFR,,,,,,,,,,,,METAR,56.0
KOTM 070353Z AUTO 22005KT 10SM OVC120 22/16 A2988 RMK AO2 SLP111 T02170161,KOTM,2023-06-07T03:53:00Z,41.1,-92.45,21.7,16.1,220,5,,10.0,29.878937,1011.1,,TRUE,TRUE,,,,,,,OVC,12000,,,,,,,VFR,,,,,,,,,,,,METAR,254.0
KOSU 070353Z AUTO 02006KT 10SM BKN060 BKN075 19/09 A2985 RMK AO2 SLP102 T01890089,KOSU,2023-06-07T03:53:00Z,40.08,-83.08,18.9,8.9,20,6,,10.0,29.84941,1010.2,,TRUE,TRUE,,,,,,,BKN,6000,BKN,7500,,,,,VFR,,,,,,,,,,,,METAR,276.0
KOSH 070353Z AUTO 06006KT 10SM CLR 18/06 A2996 RMK AO2 SLP138 T01780056 $,KOSH,2023-06-07T03:53:00Z,43.98,-88.55,17.8,5.6,60,6,,10.0,29.958662,1013.8,,TRUE,TRUE,TRUE,,,,,,CLR,,,,,,,,VFR,,,,,,,,,,,,METAR,239.0
KORL 070353Z AUTO 14006KT 10SM CLR 24/18 A2992 RMK AO2 SLP135 T02390183,KORL,2023-06-07T03:53:00Z,28.55,-81.33,23.9,18.3,140,6,,10.0,29.920275,1013.5,,TRUE,TRUE,,,,,,,CLR,,,,,,,,VFR,,,,,,,,,,,,METAR,32.0
KOQT 070353Z AUTO 00000KT 8SM CLR 19/14 A2989 RMK AO2 SLP108 T01890139,KOQT,2023-06-07T03:53:00Z,36.02,-84.23,18.9,13.9,0,0,,8.0,29.890747,1010.8,,TRUE,TRUE,,,,,,,CLR,,,,,,,,VFR,,,,,,,,,,,,METAR,276.0
KOPF 070353Z AUTO 12004KT 10SM CLR 25/23 A2992 RMK AO2 SLP133 T02500228 $,KOPF,2023-06-07T03:53:00Z,25.92,-80.28,25.0,22.8,120,4,,10.0,29.920275,1013.3,,TRUE,TRUE,TRUE,,,,,,CLR,,,,,,,,VFR,,,,,,,,,,,,METAR,1.0
KONO 070353Z AUTO 00000KT 10SM CLR 28/11 A2974 RMK AO2 SLP051 T02830106,KONO,2023-06-07T03:53:00Z,44.02,-117.02,28.3,10.6,0,0,,10.0,29.740158,1005.1,,TRUE,TRUE,,,,,,,CLR,,,,,,,,VFR,,,,,,,,,,,,METAR,668.0
KOMK 070353Z AUTO 30008KT 10SM CLR 20/02 A2980 RMK AO2 SLP083 T02000022,KOMK,2023-06-07T03:53:00Z,48.47,-119.52,20.0,2.2,300,8,,10.0,29.799213,1008.3,,TRUE,TRUE,,,,,,,CLR,,,,,,,,VFR,,,,,,,,,,,,METAR,395.0
KOLF 070353Z AUTO 03010KT 10SM CLR 24/16 A2984 RMK AO2 SLP092 T02390156,KOLF,2023-06-07T03:53:00Z,48.1,-105.58,23.9,15.6,30,10,,10.0,29.840551,1009.2,,TRUE,TRUE,,,,,,,CLR,,,,,,,,VFR,,,,,,,,,,,,METAR,605.0
KOJC 070353Z AUTO 00000KT 10SM CLR 23/17 A2993 RMK AO2 SLP122 T02280172,KOJC,2023-06-07T03:53:00Z,38.85,-94.73,22.8,17.2,0,0,,10.0,29.929134,1012.2,,TRUE,TRUE,,,,,,,CLR,,,,,,,,VFR,,,,,,,,,,,,METAR,328.0
KOGD 070353Z AUTO 10SM FEW120 23/05 A2988 RMK AO2 PK WND 06028/0313 SLP059 T02330050,KOGD,2023-06-07T03:53:00Z,41.2,-112.02,23.3,5.0,,,,10.0,29.878937,1005.9,,TRUE,TRUE,,,,,,,FEW,12000,,,,,,,VFR,,,,,,,,,,,,METAR,1356.0
KOGB 070353Z AUTO 18006KT 10SM -RA BKN070 22/18 A2982 RMK AO2 LTG DSNT E RAB0254E10B29 TSB0255E0259B02E04B06E08B11E12 SLP096 P0002 T02220183 $,KOGB,2023-06-07T03:53:00Z,33.47,-80.85,22.2,18.3,180,6,,10.0,29.819881,1009.6,,TRUE,TRUE,TRUE,,,,,-RA,BKN,7000,,,,,,,VFR,,,,,,0.02,,,,,,METAR,59.0
KODX 070353Z AUTO 21003KT 10SM CLR 20/16 A2993 RMK AO2 SLP123 T02000156,KODX,2023-06-07T03:53:00Z,41.62,-98.95,20.0,15.6,210,3,,10.0,29.929134,1012.3,,TRUE,TRUE,,,,,,,CLR,,,,,,,,VFR,,,,,,,,,,,,METAR,628.0
KODO 070353Z AUTO 10007KT 10SM CLR 25/12 A3001 RMK AO2 SLP117 T02500117,KODO,2023-06-07T03:53:00Z,31.92,-102.4,25.0,11.7,100,7,,10.0,30.008858,1011.7,,TRUE,TRUE,,,,,,,CLR,,,,,,,,VFR,,,,,,,,,,,,METAR,912.0
KOAK 070353Z 26010KT 10SM FEW014 BKN030 BKN160 16/11 A2990 RMK AO2 SLP126 T01560106,KOAK,2023-06-07T03:53:00Z,37.72,-122.23,15.6,10.6,260,10,,10.0,29.899607,1012.6,,,TRUE,,,,,,,FEW,1400,BKN,3000,BKN,16000,,,MVFR,,,,,,,,,,,,METAR,3.0
KNUW 070353Z 00000KT 10SM SCT250 15/07 A2980 RMK AO2 SLP093 T01500072 VISNO $,KNUW,2023-06-07T03:53:00Z,48.35,-122.65,15.0,7.2,0,0,,10.0,29.799213,1009.3,,,TRUE,TRUE,,,,,,SCT,25000,,,,,,,VFR,,,,,,,,,,,,METAR,14.0
KNUI 070353Z AUTO 27004KT 5SM HZ CLR 21/13 A2968 RMK AO2 SLP051 T02110128,KNUI,2023-06-07T03:53:00Z,38.15,-76.43,21.1,12.8,270,4,,5.0,29.681103,1005.1,,TRUE,TRUE,,,,,,HZ,CLR,,,,,,,,MVFR,,,,,,,,,,,,METAR,4.0
KNRS 070353Z 23004KT 10SM FEW025 BKN038 BKN250 17/12 A2993 RMK AO2 SLP134 T01670117,KNRS,2023-06-07T03:53:00Z,32.57,-117.12,16.7,11.7,230,4,,10.0,29.929134,1013.4,,,TRUE,,,,,,,FEW,2500,BKN,3800,BKN,25000,,,VFR,,,,,,,,,,,,METAR,15.0
KNQX 070353Z AUTO 14003KT 10SM SCT047 A2991 RMK AO2 SLP129 $,KNQX,2023-06-07T03:53:00Z,24.57,-81.67,,,140,3,,10.0,29.911417,1012.9,,TRUE,TRUE,TRUE,,,,,,SCT,4700,,,,,,,VFR,,,,,,,,,,,,SPECI,2.0
KNIP 070353Z AUTO 20008KT 10SM FEW080 SCT110 26/21 A2992 RMK AO2 SLP126 T02610206,KNIP,2023-06-07T03:53:00Z,30.23,-81.67,26.1,20.6,200,8,,10.0,29.920275,1012.6,,TRUE,TRUE,,,,,,,FEW,8000,SCT,11000,,,,,VFR,,,,,,,,,,,,METAR,3.0
KNFG 070353Z 00000KT 10SM OVC036 17/12 A2992 RMK AO2 SLP131 T01670117 $,KNFG,2023-06-07T03:53:00Z,33.3,-117.35,16.7,11.7,0,0,,10.0,29.920275,1013.1,,,TRUE,TRUE,,,,,,OVC,3600,,,,,,,VFR,,,,,,,,,,,,METAR,21.0
KNEW 070353Z AUTO 12004KT 10SM CLR 26/21 A2988 RMK AO2 SLP112 T02560211,KNEW,2023-06-07T03:53:00Z,30.05,-90.03,25.6,21.1,120,4,,10.0,29.878937,1011.2,,TRUE,TRUE,,,,,,,CLR,,,,,,,,VFR,,,,,,,,,,,,METAR,1.0
KMYV 070353Z AUTO 14006KT 10SM CLR 18/14 A2981 RMK AO2 SLP099 T01830144 $,KMYV,2023-06-07T03:53:00Z,39.1,-121.57,18.3,14.4,140,6,,10.0,29.811024,1009.9,,TRUE,TRUE,TRUE,,,,,,CLR,,,,,,,,VFR,,,,,,,,,,,,METAR,18.0
KMYF 070353Z 24005KT 10SM BKN030 16/11 A2992 RMK AO2 SLP131 T01560111,KMYF,2023-06-07T03:53:00Z,32.82,-117.13,15.6,11.1,240,5,,10.0,29.920275,1013.1,,,TRUE,,,,,,,BKN,3000,,,,,,,MVFR,,,,,,,,,,,,METAR,128.0
KMWT 070353Z AUTO 00000KT 10SM CLR 21/18 A2990 RMK AO2 SLP113 T02060183,KMWT,2023-06-07T03:53:00Z,34.55,-93.58,20.6,18.3,0,0,,10.0,29.899607,1011.3,,TRUE,TRUE,,,,,,,CLR,,,,,,,,VFR,,,,,,,,,,,,METAR,220.0
KMWL 070353Z AUTO 07003KT 10SM CLR 23/18 A2990 RMK AO2 SLP112 T02280183,KMWL,2023-06-07T03:53:00Z,32.78,-98.07,22.8,18.3,70,3,,10.0,29.899607,1011.2,,TRUE,TRUE,,,,,,,CLR,,,,,,,,VFR,,,,,,,,,,,,METAR,288.0
KMVY 070353Z AUTO 31005KT 4SM BR BKN095 12/10 A2955 RMK AO2 SLP005 T01220100,KMVY,2023-06-07T03:53:00Z,41.4,-70.62,12.2,10.0,310,5,,4.0,29.551182,1000.5,,TRUE,TRUE,,,,,,BR,BKN,9500,,,,,,,MVFR,,,,,,,,,,,,METAR,18.0
KMTO 070353Z AUTO 04003KT 9SM FEW080 OVC095 22/13 A2986 RMK AO2 RAB0259E13 SLP106 P0000 T02220128,KMTO,2023-06-07T03:53:00Z,39.47,-88.27,22.2,12.8,40,3,,9.0,29.861221,1010.6,,TRUE,TRUE,,,,,,,FEW,8000,OVC,9500,,,,,VFR,,,,,,0.005,,,,,,METAR,216.0
KMTJ 070353Z AUTO 16015G23KT 10SM OVC110 14/07 A3015 RMK AO2 PK WND 17033/0309 RAE32 SLP139 P0000 T01390072,KMTJ,2023-06-07T03:53:00Z,38.5,-107.9,13.9,7.2,160,15,23,10.0,30.15059,1013.9,,TRUE,TRUE,,,,,,,OVC,11000,,,,,,,VFR,,,,,,0.005,,,,,,METAR,1755.0
KMSY 070353Z 00000KT 10SM FEW030 BKN110 BKN250 24/22 A2988 RMK AO2 SLP120 OCNL LTGIC DSNT S CB DSNT S T02390217,KMSY,2023-06-07T03:53:00Z,30.0,-90.25,23.9,21.7,0,0,,10.0,29.878937,1012.0,,,TRUE,,,,,,,FEW,3000,BKN,11000,BKN,25000,,,VFR,,,,,,,,,,,,METAR,0.0
KMSS 070353Z AUTO 20005KT 5SM BR SCT085 10/08 A2969 RMK AO2 SLP055 T01000083,KMSS,2023-06-07T03:53:00Z,44.93,-74.85,10.0,8.3,200,5,,5.0,29.68996,1005.5,,TRUE,TRUE,,,,,,BR,SCT,8500,,,,,,,MVFR,,,,,,,,,,,,METAR,60.0
KMSP 070353Z 07006KT 9SM FEW150 FEW250 24/16 A2992 RMK AO2 SLP128 T02440156,KMSP,2023-06-07T03:53:00Z,44.88,-93.23,24.4,15.6,70,6,,9.0,29.920275,1012.8,,,TRUE,,,,,,,FEW,15000,FEW,25000,,,,,VFR,,,,,,,,,,,,METAR,255.0
KMSO 070353Z 07008KT 10SM SCT110 25/11 A2986 RMK AO2 SLP091 T02500106,KMSO,2023-06-07T03:53:00Z,46.92,-114.1,25.0,10.6,70,8,,10.0,29.861221,1009.1,,,TRUE,,,,,,,SCT,11000,,,,,,,VFR,,,,,,,,,,,,METAR,974.0
KMSN 070353Z 08007KT 10SM BKN065 OVC080 18/07 A2995 RMK AO2 SLP138 LAST T01830072,KMSN,2023-06-07T03:53:00Z,43.13,-89.35,18.3,7.2,80,7,,10.0,29.949802,1013.8,,,TRUE,,,,,,,BKN,6500,OVC,8000,,,,,VFR,,,,,,,,,,,,METAR,262.0
KMSL 070353Z AUTO 00000KT 8SM CLR 22/19 A2988 RMK AO2 SLP112 T02170194,KMSL,2023-06-07T03:53:00Z,34.75,-87.6,21.7,19.4,0,0,,8.0,29.878937,1011.2,,TRUE,TRUE,,,,,,,CLR,,,,,,,,VFR,,,,,,,,,,,,METAR,170.0
KMRB 070353Z AUTO 28007KT 8SM SCT080 18/11 A2972 RMK AO2 SLP060 T01780111,KMRB,2023-06-07T03:53:00Z,39.4,-77.98,17.8,11.1,280,7,,8.0,29.719488,1006.0,,TRUE,TRUE,,,,,,,SCT,8000,,,,,,,VFR,,,,,,,,,,,,METAR,165.0
KMPO 070353Z AUTO 30004KT 4SM HZ OVC044 11/06 A2972 RMK AO2 SLP059 T01060061,KMPO,2023-06-07T03:53:00Z,41.13,-75.38,10.6,6.1,300,4,,4.0,29.719488,1005.9,,TRUE,TRUE,,,,,,HZ,OVC,4400,,,,,,,MVFR,,,,,,,,,,,,METAR,576.0
KMOD 070353Z 33013KT 10SM CLR 18/12 A2982 RMK AO2 SLP097 T01830117,KMOD,2023-06-07T03:53:00Z,37.62,-120.95,18.3,11.7,330,13,,10.0,29.819881,1009.7,,,TRUE,,,,,,,CLR,,,,,,,,VFR,,,,,,,,,,,,METAR,25.0
KMNN 070353Z AUTO 03005KT 10SM CLR 14/06 A2987 RMK AO2 SLP114 T01440061,KMNN,2023-06-07T03:53:00Z,40.62,-83.07,14.4,6.1,30,5,,10.0,29.870079,1011.4,,TRUE,TRUE,,,,,,,CLR,,,,,,,,VFR,,,,,,,,,,,,METAR,301.0
KMMV 070353Z AUTO 25007KT 10SM CLR 22/11 A2969 RMK AO2 SLP054 T02170111,KMMV,2023-06-07T03:53:00Z,45.2,-123.13,21.7,11.1,250,7,,10.0,29.68996,1005.4,,TRUE,TRUE,,,,,,,CLR,,,,,,,,VFR,,,,,,,,,,,,METAR,48.0
KMMK 070353Z AUTO 00000KT 10SM CLR 13/06 A2961 RMK AO2 SLP025 T01330061 $,KMMK,2023-06-07T03:53:00Z,41.52,-72.83,13.3,6.1,0,0,,10.0,29.610237,1002.5,,TRUE,TRUE,TRUE,,,,,,CLR,,,,,,,,VFR,,,,,,,,,,,,METAR,30.0
KMLU 070353Z AUTO 00000KT 10SM CLR 22/20 A2988 RMK AO2 SLP115 T02220200,KMLU,2023-06-07T03:53:00Z,32.52,-92.03,22.2,20.0,0,0,,10.0,29.878937,1011.5,,TRUE,TRUE,,,,,,,CLR,,,,,,,,VFR,,,,,,,,,,,,METAR,22.0
KMLT 070353Z AUTO 34010G16KT 10SM -RA OVC023 11/09 A2939 RMK AO2 RAB06 SLP959 P0001 T01110089,KMLT,2023-06-07T03:53:00Z,45.65,-68.7,11.1,8.9,340,10,16,10.0,29.388779,995.9,,TRUE,TRUE,,,,,,-RA,OVC,2300,,,,,,,MVFR,,,,,,0.01,,,,,,METAR,121.0
KMLS 070353Z AUTO 28008KT 10SM OVC090 26/13 A2984 RMK AO2 LTG DSNT S-NW TSB30E32 SLP083 T02610128,KMLS,2023-06-07T03:53:00Z,46.43,-105.88,26.1,12.8,280,8,,10.0,29.840551,1008.3,,TRUE,TRUE,,,,,,,OVC,9000,,,,,,,VFR,,,,,,,,,,,,METAR,800.0
KMLP 070353Z AUTO 34003KT 10SM CLR 17/03 A3002 RMK AO2 SLP066 T01670028,KMLP,2023-06-07T03:53:00Z,47.45,-115.67,16.7,2.8,340,3,,10.0,30.02067,1006.6,,TRUE,TRUE,,,,,,,CLR,,,,,,,,VFR,,,,,,,,,,,,METAR,1837.0
KMLC 070353Z AUTO 00000KT 10SM CLR 21/19 A2992 RMK AO2 LTG DSNT W SLP123 T02060194,KMLC,2023-06-07T03:53:00Z,34.88,-95.78,20.6,19.4,0,0,,10.0,29.920275,1012.3,,TRUE,TRUE,,,,,,,CLR,,,,,,,,VFR,,,,,,,,,,,,METAR,231.0
KMLB 070353Z AUTO 16005KT 10SM CLR 24/19 A2992 RMK AO2 SLP131 T02440189,KMLB,2023-06-07T03:53:00Z,28.1,-80.65,24.4,18.9,160,5,,10.0,29.920275,1013.1,,TRUE,TRUE,,,,,,,CLR,,,,,,,,VFR,,,,,,,,,,,,METAR,7.0
KMKO 070353Z AUTO 07004KT 10SM CLR 23/17 A2994 RMK AO2 SLP129 T02330167,KMKO,2023-06-07T03:53:00Z,35.65,-95.37,23.3,16.7,70,4,,10.0,29.940945,1012.9,,TRUE,TRUE,,,,,,,CLR,,,,,,,,VFR,,,,,,,,,,,,METAR,184.0
KMKL 070353Z AUTO 21003KT 6SM BR CLR 19/18 A2989 RMK AO2 SLP117 T01890183,KMKL,2023-06-07T03:53:00Z,35.6,-88.92,18.9,18.3,210,3,,6.0,29.890747,1011.7,,TRUE,TRUE,,,,,,BR,CLR,,,,,,,,VFR,,,,,,,,,,,,METAR,130.0
KMIW 070353Z AUTO 09005KT 10SM FEW120 19/18 A2989 RMK AO2 SLP115 T01940178 $,KMIW,2023-06-07T03:53:00Z,42.12,-92.92,19.4,17.8,90,5,,10.0,29.890747,1011.5,,TRUE,TRUE,TRUE,,,,,,FEW,12000,,,,,,,VFR,,,,,,,,,,,,METAR,296.0
KMIE 070353Z AUTO 33003KT 9SM SCT090 BKN110 19/14 A2988 RMK AO2 SLP109 T01890139,KMIE,2023-06-07T03:53:00Z,40.23,-85.4,18.9,13.9,330,3,,9.0,29.878937,1010.9,,TRUE,TRUE,,,,,,,SCT,9000,BKN,11000,,,,,VFR,,,,,,,,,,,,METAR,286.0
KMIC 070353Z 04004KT 8SM CLR 23/16 A2992 RMK AO2 SLP127 T02280161,KMIC,2023-06-07T03:53:00Z,45.07,-93.35,22.8,16.1,40,4,,8.0,29.920275,1012.7,,,TRUE,,,,,,,CLR,,,,,,,,VFR,,,,,,,,,,,,METAR,263.0
KMIA 070353Z 11006KT 10SM FEW025 BKN250 25/24 A2991 RMK AO2 SLP130 T02500239 $,KMIA,2023-06-07T03:53:00Z,25.8,-80.32,25.0,23.9,110,6,,10.0,29.911417,1013.0,,,TRUE,TRUE,,,,,,FEW,2500,BKN,25000,,,,,VFR,,,,,,,,,,,,METAR,1.0
KMHT 070353Z 28007KT 10SM SCT085 OVC110 16/07 A2954 RMK AO2 SLP013 T01560067,KMHT,2023-06-07T03:53:00Z,42.93,-71.43,15.6,6.7,280,7,,10.0,29.53937,1001.3,,,TRUE,,,,,,,SCT,8500,OVC,11000,,,,,VFR,,,,,,,,,,,,METAR,68.0
KMHE 070353Z AUTO 22004KT 10SM CLR 26/16 A2987 RMK AO2 SLP102 T02560156,KMHE,2023-06-07T03:53:00Z,43.77,-98.03,25.6,15.6,220,4,,10.0,29.870079,1010.2,,TRUE,TRUE,,,,,,,CLR,,,,,,,,VFR,,,,,,,,,,,,METAR,397.0
KMGY 070353Z AUTO 00000KT 7SM FEW070 SCT095 BKN110 16/14 A2985 RMK AO2 SLP103 T01610139,KMGY,2023-06-07T03:53:00Z,39.6,-84.23,16.1,13.9,0,0,,7.0,29.84941,1010.3,,TRUE,TRUE,,,,,,,FEW,7000,SCT,9500,BKN,11000,,,VFR,,,,,,,,,,,,METAR,290.0
KMGW 070353Z AUTO 00000KT 7SM FEW070 17/12 A2981 RMK AO2 SLP087 T01670122,KMGW,2023-06-07T03:53:00Z,39.65,-79.92,16.7,12.2,0,0,,7.0,29.811024,1008.7,,TRUE,TRUE,,,,,,,FEW,7000,,,,,,,VFR,,,,,,,,,,,,METAR,375.0
KMGM 070353Z AUTO 22004KT 10SM CLR 22/18 A2989 RMK AO2 SLP118 T02170183,KMGM,2023-06-07T03:53:00Z,32.3,-86.4,21.7,18.3,220,4,,10.0,29.890747,1011.8,,TRUE,TRUE,,,,,,,CLR,,,,,,,,VFR,,,,,,,,,,,,METAR,64.0
KMFR 070353Z AUTO 16011KT 10SM BKN110 25/12 A2977 RMK AO2 WSHFT 0308 LTG DSNT SE AND S RAE06 SLP069 P0000 T02500122,KMFR,2023-06-07T03:53:00Z,42.38,-122.87,25.0,12.2,160,11,,10.0,29.769686,1006.9,,TRUE,TRUE,,,,,,,BKN,11000,,,,,,,VFR,,,,,,0.005,,,,,,METAR,397.0
KMFE 070353Z 13007KT 10SM CLR 26/22 A2987 RMK AO2 SLP113 T02560217 $,KMFE,2023-06-07T03:53:00Z,26.18,-98.25,25.6,21.7,130,7,,10.0,29.870079,1011.3,,,TRUE,TRUE,,,,,,CLR,,,,,,,,VFR,,,,,,,,,,,,METAR,29.0
KMER 070353Z 31010KT 10SM CLR 22/13 A2980,KMER,2023-06-07T03:53:00Z,37.38,-120.57,22.0,13.0,310,10,,10.0,29.799213,,,,,,,,,,,CLR,,,,,,,,VFR,,,,,,,,,,,,METAR,58.0
KMDW 070353Z 01009KT 10SM OVC160 17/06 A2992 RMK AO2 SLP123 T01670056,KMDW,2023-06-07T03:53:00Z,41.78,-87.75,16.7,5.6,10,9,,10.0,29.920275,1012.3,,,TRUE,,,,,,,OVC,16000,,,,,,,VFR,,,,,,,,,,,,METAR,186.0
KMCW 070353Z AUTO 00000KT 10SM CLR 21/17 A2992 RMK AO2 SLP120 T02060172,KMCW,2023-06-07T03:53:00Z,43.15,-93.33,20.6,17.2,0,0,,10.0,29.920275,1012.0,,TRUE,TRUE,,,,,,,CLR,,,,,,,,VFR,,,,,,,,,,,,METAR,363.0
KMCO 070353Z 16006KT 10SM FEW250 23/19 A2993 RMK AO2 SLP132 T02280189,KMCO,2023-06-07T03:53:00Z,28.42,-81.33,22.8,18.9,160,6,,10.0,29.929134,1013.2,,,TRUE,,,,,,,FEW,25000,,,,,,,VFR,,,,,,,,,,,,METAR,27.0
KMCN 070353Z AUTO 26007KT 10SM CLR 24/17 A2987 RMK AO2 SLP109 T02440172,KMCN,2023-06-07T03:53:00Z,32.68,-83.65,24.4,17.2,260,7,,10.0,29.870079,1010.9,,TRUE,TRUE,,,,,,,CLR,,,,,,,,VFR,,,,,,,,,,,,METAR,104.0
KMCK 070353Z AUTO 18006KT 10SM CLR 20/14 A2998 RMK AO2 SLP130 T02000139,KMCK,2023-06-07T03:53:00Z,40.2,-100.58,20.0,13.9,180,6,,10.0,29.97933,1013.0,,TRUE,TRUE,,,,,,,CLR,,,,,,,,VFR,,,,,,,,,,,,METAR,780.0
KMCI 070353Z 19004KT 10SM SCT250 23/18 A2992 RMK AO2 SLP120 T02280178,KMCI,2023-06-07T03:53:00Z,39.3,-94.73,22.8,17.8,190,4,,10.0,29.920275,1012.0,,,TRUE,,,,,,,SCT,25000,,,,,,,VFR,,,,,,,,,,,,METAR,308.0
KMCE 070353Z AUTO 32012KT 10SM SCT040 BKN049 22/13 A2980 RMK AO2 SLP089 T02170128,KMCE,2023-06-07T03:53:00Z,37.28,-120.5,21.7,12.8,320,12,,10.0,29.799213,1008.9,,TRUE,TRUE,,,,,,,SCT,4000,BKN,4900,,,,,VFR,,,,,,,,,,,,METAR,49.0
KMCB 070353Z AUTO 00000KT 10SM CLR 21/19 A2989 RMK AO2 SLP117 T02060194,KMCB,2023-06-07T03:53:00Z,31.18,-90.47,20.6,19.4,0,0,,10.0,29.890747,1011.7,,TRUE,TRUE,,,,,,,CLR,,,,,,,,VFR,,,,,,,,,,,,METAR,124.0
KMBS 070353Z 00000KT 7SM CLR 11/04 A2992 RMK AO2 SLP131 T01110044,KMBS,2023-06-07T03:53:00Z,43.53,-84.08,11.1,4.4,0,0,,7.0,29.920275,1013.1,,,TRUE,,,,,,,CLR,,,,,,,,VFR,,,,,,,,,,,,METAR,201.0
KMAI 070353Z AUTO 00000KT 10SM CLR 21/20 A2990 RMK AO2 SLP122 T02110200,KMAI,2023-06-07T03:53:00Z,30.83,-85.18,21.1,20.0,0,0,,10.0,29.899607,1012.2,,TRUE,TRUE,,,,,,,CLR,,,,,,,,VFR,,,,,,,,,,,,METAR,33.0
KMAF 070353Z 10007KT 10SM CLR 24/13 A3001 RMK AO2 SLP118 T02390128,KMAF,2023-06-07T03:53:00Z,31.95,-102.2,23.9,12.8,100,7,,10.0,30.008858,1011.8,,,TRUE,,,,,,,CLR,,,,,,,,VFR,,,,,,,,,,,,METAR,874.0
KMAE 070353Z AUTO 29010KT 10SM BKN075 23/13 A2980 RMK AO2 SLP087 T02280133,KMAE,2023-06-07T03:53:00Z,36.98,-120.12,22.8,13.3,290,10,,10.0,29.799213,1008.7,,TRUE,TRUE,,,,,,,BKN,7500,,,,,,,VFR,,,,,,,,,,,,METAR,77.0
KLXV 070353Z AUTO 10003KT 10SM CLR 06/02 A3031 RMK AO2 SLP111 T00610022,KLXV,2023-06-07T03:53:00Z,39.23,-106.32,6.1,2.2,100,3,,10.0,30.31004,1011.1,,TRUE,TRUE,,,,,,,CLR,,,,,,,,VFR,,,,,,,,,,,,METAR,3027.0
KLXT 070353Z AUTO 00000KT 10SM CLR 23/18 A2992 RMK AO2 SLP123 T02280178,KLXT,2023-06-07T03:53:00Z,38.97,-94.37,22.8,17.8,0,0,,10.0,29.920275,1012.3,,TRUE,TRUE,,,,,,,CLR,,,,,,,,VFR,,,,,,,,,,,,METAR,306.0
KLWV 070353Z AUTO 02006KT 10SM BKN090 BKN120 24/13 A2986 RMK AO2 SLP106 T02390133,KLWV,2023-06-07T03:53:00Z,38.77,-87.6,23.9,13.3,20,6,,10.0,29.861221,1010.6,,TRUE,TRUE,,,,,,,BKN,9000,BKN,12000,,,,,VFR,,,,,,,,,,,,METAR,128.0
KLWD 070353Z AUTO 00000KT 10SM CLR 23/14 A2991 RMK AO2 SLP118 T02330144,KLWD,2023-06-07T03:53:00Z,40.63,-93.9,23.3,14.4,0,0,,10.0,29.911417,1011.8,,TRUE,TRUE,,,,,,,CLR,,,,,,,,VFR,,,,,,,,,,,,METAR,345.0
KLVS 070353Z AUTO 20011KT 5SM RA BR OVC050 10/08 A3026 RMK AO2 SLP169 P0021 T01000083,KLVS,2023-06-07T03:53:00Z,35.65,-105.13,10.0,8.3,200,11,,5.0,30.259842,1016.9,,TRUE,TRUE,,,,,,RA BR,OVC,5000,,,,,,,MVFR,,,,,,0.21,,,,,,METAR,2095.0
KLVM 070353Z AUTO 11007KT 10SM SCT085 OVC110 17/13 A3003 RMK AO2 SLP129 T01670128,KLVM,2023-06-07T03:53:00Z,45.7,-110.43,16.7,12.8,110,7,,10.0,30.029528,1012.9,,TRUE,TRUE,,,,,,,SCT,8500,OVC,11000,,,,,VFR,,,,,,,,,,,,METAR,1418.0
KLVK 070353Z 28011KT 10SM OVC027 16/11 A2987 RMK AO2 SLP111 T01560111,KLVK,2023-06-07T03:53:00Z,37.7,-121.82,15.6,11.1,280,11,,10.0,29.870079,1011.1,,,TRUE,,,,,,,OVC,2700,,,,,,,MVFR,,,,,,,,,,,,METAR,120.0
KLVJ 070353Z AUTO 7SM CLR 23/21 A2988 RMK AO2 SLP117 T02280206,KLVJ,2023-06-07T03:53:00Z,29.52,-95.25,22.8,20.6,,,,7.0,29.878937,1011.7,,TRUE,TRUE,,,,,,,CLR,,,,,,,,VFR,,,,,,,,,,,,METAR,11.0
KLUK 070353Z AUTO 00000KT 4SM HZ BKN090 BKN100 17/14 A2986 RMK AO2 SLP106 T01720144,KLUK,2023-06-07T03:53:00Z,39.1,-84.42,17.2,14.4,0,0,,4.0,29.861221,1010.6,,TRUE,TRUE,,,,,,HZ,BKN,9000,BKN,10000,,,,,MVFR,,,,,,,,,,,,METAR,144.0
KLSE 070353Z AUTO 09003KT 8SM SCT060 22/17 A2991 RMK AO2 SLP118 T02220167,KLSE,2023-06-07T03:53:00Z,43.88,-91.25,22.2,16.7,90,3,,8.0,29.911417,1011.8,,TRUE,TRUE,,,,,,,SCT,6000,,,,,,,VFR,,,,,,,,,,,,METAR,198.0
KLPR 070353Z AUTO 36004KT 5SM HZ CLR 14/07 A2987 RMK AO2 SLP111 T01390067,KLPR,2023-06-07T03:53:00Z,41.35,-82.18,13.9,6.7,360,4,,5.0,29.870079,1011.1,,TRUE,TRUE,,,,,,HZ,CLR,,,,,,,,MVFR,,,,,,,,,,,,METAR,241.0
KLOZ 070353Z AUTO 00000KT 7SM CLR 18/13 A2988 RMK AO2 SLP106 T01830133 $,KLOZ,2023-06-07T03:53:00Z,37.08,-84.07,18.3,13.3,0,0,,7.0,29.878937,1010.6,,TRUE,TRUE,TRUE,,,,,,CLR,,,,,,,,VFR,,,,,,,,,,,,METAR,361.0
KLOU 070353Z AUTO 00000KT 8SM SCT120 23/13 A2982 RMK AO2 SLP093 T02280133,KLOU,2023-06-07T03:53:00Z,38.22,-85.67,22.8,13.3,0,0,,8.0,29.819881,1009.3,,TRUE,TRUE,,,,,,,SCT,12000,,,,,,,VFR,,,,,,,,,,,,METAR,165.0
KLOL 070353Z AUTO 00000KT 10SM BKN110 16/09 A2987 RMK AO2 SLP090 T01560089,KLOL,2023-06-07T03:53:00Z,40.07,-118.57,15.6,8.9,0,0,,10.0,29.870079,1009.0,,TRUE,TRUE,,,,,,,BKN,11000,,,,,,,VFR,,,,,,,,,,,,METAR,1191.0
KLNS 070353Z AUTO 36003KT 3SM HZ OVC041 18/07 A2972 RMK AO2 SLP061 T01780072,KLNS,2023-06-07T03:53:00Z,40.12,-76.3,17.8,7.2,360,3,,3.0,29.719488,1006.1,,TRUE,TRUE,,,,,,HZ,OVC,4100,,,,,,,MVFR,,,,,,,,,,,,METAR,122.0
KLND 070353Z AUTO 20006KT 10SM BKN110 18/06 A3001 RMK AO2 SLP102 T01780061,KLND,2023-06-07T03:53:00Z,42.82,-108.73,17.8,6.1,200,6,,10.0,30.008858,1010.2,,TRUE,TRUE,,,,,,,BKN,11000,,,,,,,VFR,,,,,,,,,,,,METAR,1700.0
KLMT 070353Z AUTO A2988 RMK AO2 SLPNO PWINO $,KLMT,2023-06-07T03:53:00Z,42.15,-121.72,,,,,,,29.878937,,,TRUE,TRUE,TRUE,,,,TRUE,,,,,,,,,,,,,,,,,,,,,,METAR,1246.0
KLLQ 070353Z AUTO 00000KT 10SM CLR 23/20 A2989 RMK AO2 SLP117 T02330200,KLLQ,2023-06-07T03:53:00Z,33.63,-91.75,23.3,20.0,0,0,,10.0,29.890747,1011.7,,TRUE,TRUE,,,,,,,CLR,,,,,,,,VFR,,,,,,,,,,,,METAR,86.0
KLKV 070353Z AUTO 02007KT 10SM BKN100 15/12 A2989 RMK AO2 SLP087 T01500122,KLKV,2023-06-07T03:53:00Z,42.17,-120.4,15.0,12.2,20,7,,10.0,29.890747,1008.7,,TRUE,TRUE,,,,,,,BKN,10000,,,,,,,VFR,,,,,,,,,,,,METAR,1440.0
KLIT 070353Z 00000KT 10SM BKN250 25/18 A2989 RMK AO2 SLP120 T02500178,KLIT,2023-06-07T03:53:00Z,34.73,-92.23,25.0,17.8,0,0,,10.0,29.890747,1012.0,,,TRUE,,,,,,,BKN,25000,,,,,,,VFR,,,,,,,,,,,,METAR,77.0
KLHX 070353Z AUTO 36004KT 10SM CLR 17/11 A2998 RMK AO2 SLP105 T01720111,KLHX,2023-06-07T03:53:00Z,38.05,-103.52,17.2,11.1,360,4,,10.0,29.97933,1010.5,,TRUE,TRUE,,,,,,,CLR,,,,,,,,VFR,,,,,,,,,,,,METAR,1289.0
KLHQ 070353Z AUTO 00000KT 8SM OVC080 19/11 A2985 RMK AO2 SLP101 T01940106,KLHQ,2023-06-07T03:53:00Z,39.75,-82.67,19.4,10.6,0,0,,8.0,29.84941,1010.1,,TRUE,TRUE,,,,,,,OVC,8000,,,,,,,VFR,,,,,,,,,,,,METAR,259.0
KLGB 070353Z 31008KT 10SM FEW033 BKN043 BKN110 17/10 A2991 RMK AO2 SLP129 T01670100,KLGB,2023-06-07T03:53:00Z,33.82,-118.15,16.7,10.0,310,8,,10.0,29.911417,1012.9,,,TRUE,,,,,,,FEW,3300,BKN,4300,BKN,11000,,,VFR,,,,,,,,,,,,METAR,10.0
KLFT 070353Z AUTO 00000KT 10SM CLR 23/22 A2987 RMK AO2 SLP115 T02330222,KLFT,2023-06-07T03:53:00Z,30.2,-91.97,23.3,22.2,0,0,,10.0,29.870079,1011.5,,TRUE,TRUE,,,,,,,CLR,,,,,,,,VFR,,,,,,,,,,,,METAR,9.0
KLFK 070353Z AUTO 35003KT 10SM CLR 23/22 A2988 RMK AO2 SLP113 T02280217,KLFK,2023-06-07T03:53:00Z,31.23,-94.75,22.8,21.7,350,3,,10.0,29.878937,1011.3,,TRUE,TRUE,,,,,,,CLR,,,,,,,,VFR,,,,,,,,,,,,METAR,87.0
KLEE 070353Z AUTO 17007KT 10SM CLR 26/19 A2993 RMK AO2 SLP133 T02610194,KLEE,2023-06-07T03:53:00Z,28.82,-81.82,26.1,19.4,170,7,,10.0,29.929134,1013.3,,TRUE,TRUE,,,,,,,CLR,,,,,,,,VFR,,,,,,,,,,,,METAR,21.0
KLEB 070353Z AUTO 27004KT 10SM BKN046 BKN055 OVC065 14/08 A2957 RMK AO2 SLP008 T01390083,KLEB,2023-06-07T03:53:00Z,43.63,-72.3,13.9,8.3,270,4,,10.0,29.568897,1000.8,,TRUE,TRUE,,,,,,,BKN,4600,BKN,5500,OVC,6500,,,VFR,,,,,,,,,,,,METAR,169.0
KLCH 070353Z 30004KT 10SM CLR 22/22 A2987 RMK AO2 SLP122 T02220217,KLCH,2023-06-07T03:53:00Z,30.13,-93.22,22.2,21.7,300,4,,10.0,29.870079,1012.2,,,TRUE,,,,,,,CLR,,,,,,,,VFR,,,,,,,,,,,,METAR,2.0
KLBF 070353Z AUTO 00000KT 10SM CLR 18/15 A2998 RMK AO2 SLP127 T01780150,KLBF,2023-06-07T03:53:00Z,41.12,-100.67,17.8,15.0,0,0,,10.0,29.97933,1012.7,,TRUE,TRUE,,,,,,,CLR,,,,,,,,VFR,,,,,,,,,,,,METAR,843.0
KLBB 070353Z 12005KT 10SM FEW250 21/15 A3004 RMK AO2 SLP128 T02060150,KLBB,2023-06-07T03:53:00Z,33.67,-101.82,20.6,15.0,120,5,,10.0,30.041338,1012.8,,,TRUE,,,,,,,FEW,25000,,,,,,,VFR,,,,,,,,,,,,METAR,996.0
KLAX 070353Z 25008KT 10SM FEW035 OVC045 16/12 A2992 RMK AO2 SLP129 T01560117,KLAX,2023-06-07T03:53:00Z,33.93,-118.38,15.6,11.7,250,8,,10.0,29.920275,1012.9,,,TRUE,,,,,,,FEW,3500,OVC,4500,,,,,VFR,,,,,,,,,,,,METAR,30.0
KLAW 070353Z AUTO 06011KT 10SM CLR 23/16 A2994 RMK AO2 SLP125 T02280161,KLAW,2023-06-07T03:53:00Z,34.55,-98.42,22.8,16.1,60,11,,10.0,29.940945,1012.5,,TRUE,TRUE,,,,,,,CLR,,,,,,,,VFR,,,,,,,,,,,,METAR,328.0
KLAR 070353Z AUTO 24007KT 10SM CLR 11/08 A3012 RMK AO2 SLP110 T01110083,KLAR,2023-06-07T03:53:00Z,41.32,-105.67,11.1,8.3,240,7,,10.0,30.121063,1011.0,,TRUE,TRUE,,,,,,,CLR,,,,,,,,VFR,,,,,,,,,,,,METAR,2217.0
KLAN 070353Z AUTO 00000KT 8SM CLR 12/06 A2993 RMK AO2 SLP134 T01220056 $,KLAN,2023-06-07T03:53:00Z,42.78,-84.58,12.2,5.6,0,0,,8.0,29.929134,1013.4,,TRUE,TRUE,TRUE,,,,,,CLR,,,,,,,,VFR,,,,,,,,,,,,METAR,261.0
KLAA 070353Z AUTO 20007KT 10SM BKN065 BKN080 OVC100 20/14 A2998 RMK AO2 LTG DSNT S SLP107 T02000144,KLAA,2023-06-07T03:53:00Z,38.07,-102.68,20.0,14.4,200,7,,10.0,29.97933,1010.7,,TRUE,TRUE,,,,,,,BKN,6500,BKN,8000,OVC,10000,,,VFR,,,,,,,,,,,,METAR,1129.0
KJLN 070353Z AUTO 00000KT 9SM CLR 22/16 A2994 RMK AO2 SLP129 T02170156,KJLN,2023-06-07T03:53:00Z,37.15,-94.5,21.7,15.6,0,0,,9.0,29.940945,1012.9,,TRUE,TRUE,,,,,,,CLR,,,,,,,,VFR,,,,,,,,,,,,METAR,297.0
KJKL 070353Z AUTO 00000KT 7SM FEW070 BKN100 21/11 A2985 RMK AO2 SLP097 T02060106,KJKL,2023-06-07T03:53:00Z,37.6,-83.32,20.6,10.6,0,0,,7.0,29.84941,1009.7,,TRUE,TRUE,,,,,,,FEW,7000,BKN,10000,,,,,VFR,,,,,,,,,,,,METAR,414.0
KJER 070353Z AUTO 32003KT 6SM -RA OVC090 18/11 A2989 RMK AO2 RAB39 TSB52E53 SLP089 P0003 T01830106 $,KJER,2023-06-07T03:53:00Z,42.72,-114.45,18.3,10.6,320,3,,6.0,29.890747,1008.9,,TRUE,TRUE,TRUE,,,,,-RA,OVC,9000,,,,,,,VFR,,,,,,0.03,,,,,,METAR,1226.0
KJEF 070353Z AUTO 00000KT 10SM CLR 21/15 A2990 RMK AO2 SLP110 T02110150 $,KJEF,2023-06-07T03:53:00Z,38.6,-92.15,21.1,15.0,0,0,,10.0,29.899607,1011.0,,TRUE,TRUE,TRUE,,,,,,CLR,,,,,,,,VFR,,,,,,,,,,,,METAR,167.0
KJBR 070353Z AUTO 32003KT 10SM CLR 21/11 A2990 RMK AO2 SLP121 T02110111 $,KJBR,2023-06-07T03:53:00Z,35.83,-90.65,21.1,11.1,320,3,,10.0,29.899607,1012.1,,TRUE,TRUE,TRUE,,,,,,CLR,,,,,,,,VFR,,,,,,,,,,,,METAR,79.0
KIXD 070353Z AUTO 19003KT 9SM CLR 23/18 A2993 RMK AO2 SLP124 T02280183,KIXD,2023-06-07T03:53:00Z,38.82,-94.88,22.8,18.3,190,3,,9.0,29.929134,1012.4,,TRUE,TRUE,,,,,,,CLR,,,,,,,,VFR,,,,,,,,,,,,METAR,322.0
KIWI 070353Z AUTO 28004KT 10SM OVC075 12/09 A2947 RMK AO2 SLP980 T01220089,KIWI,2023-06-07T03:53:00Z,43.97,-69.72,12.2,8.9,280,4,,10.0,29.471457,998.0,,TRUE,TRUE,,,,,,,OVC,7500,,,,,,,VFR,,,,,,,,,,,,METAR,16.0
KITR 070353Z AUTO 15008KT 10SM FEW100 16/13 A3003 RMK AO2 SLP122 T01610128,KITR,2023-06-07T03:53:00Z,39.23,-102.28,16.1,12.8,150,8,,10.0,30.029528,1012.2,,TRUE,TRUE,,,,,,,FEW,10000,,,,,,,VFR,,,,,,,,,,,,METAR,1285.0
KIPL 070353Z AUTO 28013KT 10SM CLR 24/08 A2970 RMK AO2 SLP055 T02440078,KIPL,2023-06-07T03:53:00Z,32.83,-115.58,24.4,7.8,280,13,,10.0,29.698818,1005.5,,TRUE,TRUE,,,,,,,CLR,,,,,,,,VFR,,,,,,,,,,,,METAR,-16.0
KINK 070353Z AUTO 11008KT 10SM CLR 27/10 A2995 RMK AO2 SLP097 T02670100,KINK,2023-06-07T03:53:00Z,31.78,-103.2,26.7,10.0,110,8,,10.0,29.949802,1009.7,,TRUE,TRUE,,,,,,,CLR,,,,,,,,VFR,,,,,,,,,,,,METAR,857.0
KIML 070353Z AUTO 14004KT 10SM CLR 18/14 A3000 RMK AO2 SLP133 T01780139,KIML,2023-06-07T03:53:00Z,40.52,-101.62,17.8,13.9,140,4,,10.0,30.0,1013.3,,TRUE,TRUE,,,,,,,CLR,,,,,,,,VFR,,,,,,,,,,,,METAR,997.0
KILM 070353Z AUTO 22005KT 10SM CLR 22/18 A2980 RMK AO2 SLP090 T02170183,KILM,2023-06-07T03:53:00Z,34.27,-77.9,21.7,18.3,220,5,,10.0,29.799213,1009.0,,TRUE,TRUE,,,,,,,CLR,,,,,,,,VFR,,,,,,,,,,,,METAR,9.0
KIDA 070353Z AUTO 21009KT 10SM CLR A2996 RMK AO2 SLPNO $,KIDA,2023-06-07T03:53:00Z,43.52,-112.07,,,210,9,,10.0,29.958662,,,TRUE,TRUE,TRUE,,,,,,CLR,,,,,,,,VFR,,,,,,,,,,,,METAR,1444.0
KICT 070353Z 24004KT 10SM SCT200 19/16 A2995 RMK AO2 SLP129 T01940156,KICT,2023-06-07T03:53:00Z,37.65,-97.43,19.4,15.6,240,4,,10.0,29.949802,1012.9,,,TRUE,,,,,,,SCT,20000,,,,,,,VFR,,,,,,,,,,,,METAR,428.0
KICR 070353Z AUTO 15006KT 10SM CLR 23/13 A2991 RMK AO2 SLP112 T02280133,KICR,2023-06-07T03:53:00Z,43.38,-99.85,22.8,13.3,150,6,,10.0,29.911417,1011.2,,TRUE,TRUE,,,,,,,CLR,,,,,,,,VFR,,,,,,,,,,,,METAR,618.0
KIAH 070353Z 00000KT 10SM SCT250 21/19 A2987 RMK AO2 SLP115 T02110194,KIAH,2023-06-07T03:53:00Z,30.0,-95.37,21.1,19.4,0,0,,10.0,29.870079,1011.5,,,TRUE,,,,,,,SCT,25000,,,,,,,VFR,,,,,,,,,,,,METAR,27.0
KIAG 070353Z AUTO 33007KT 6SM HZ FEW055 SCT090 15/07 A2978 RMK AO2 SLP085 T01500067,KIAG,2023-06-07T03:53:00Z,43.12,-78.93,15.0,6.7,330,7,,6.0,29.778543,1008.5,,TRUE,TRUE,,,,,,HZ,FEW,5500,SCT,9000,,,,,VFR,,,,,,,,,,,,METAR,179.0
KHZY 070353Z AUTO 34003KT 7SM CLR 13/08 A2984 RMK AO2 SLP100 T01330083,KHZY,2023-06-07T03:53:00Z,41.78,-80.7,13.3,8.3,340,3,,7.0,29.840551,1010.0,,TRUE,TRUE,,,,,,,CLR,,,,,,,,VFR,,,,,,,,,,,,METAR,279.0
KHYR 070353Z AUTO 03005KT 10SM CLR 13/06 A3001 RMK AO2 SLP162 T01280061,KHYR,2023-06-07T03:53:00Z,46.02,-91.45,12.8,6.1,30,5,,10.0,30.008858,1016.2,,TRUE,TRUE,,,,,,,CLR,,,,,,,,VFR,,,,,,,,,,,,METAR,369.0
KHWO 070353Z AUTO 00000KT CLR 26/23 A2993 RMK AO2 SLP135 T02560228,KHWO,2023-06-07T03:53:00Z,26.0,-80.23,25.6,22.8,0,0,,,29.929134,1013.5,,TRUE,TRUE,,,,,,,CLR,,,,,,,,,,,,,,,,,,,,METAR,2.0
KHVR 070353Z AUTO 20006KT 10SM CLR 18/14 A2994 RMK AO2 SLP130 T01780139,KHVR,2023-06-07T03:53:00Z,48.55,-109.77,17.8,13.9,200,6,,10.0,29.940945,1013.0,,TRUE,TRUE,,,,,,,CLR,,,,,,,,VFR,,,,,,,,,,,,METAR,789.0
KHVN 070353Z AUTO 31007KT 6SM HZ CLR 15/08 A2961 RMK AO2 SLP027 T01500083,KHVN,2023-06-07T03:53:00Z,41.27,-72.88,15.0,8.3,310,7,,6.0,29.610237,1002.7,,TRUE,TRUE,,,,,,HZ,CLR,,,,,,,,VFR,,,,,,,,,,,,METAR,4.0
KHUF 070353Z 36003KT 10SM OVC080 23/12 A2987 RMK AO2 SLP109 T02330117,KHUF,2023-06-07T03:53:00Z,39.45,-87.32,23.3,11.7,360,3,,10.0,29.870079,1010.9,,,TRUE,,,,,,,OVC,8000,,,,,,,VFR,,,,,,,,,,,,METAR,174.0
KHSV 070353Z 24003KT 10SM FEW250 22/19 A2989 RMK AO2 SLP112 T02220194,KHSV,2023-06-07T03:53:00Z,34.65,-86.78,22.2,19.4,240,3,,10.0,29.890747,1011.2,,,TRUE,,,,,,,FEW,25000,,,,,,,VFR,,,,,,,,,,,,METAR,190.0
KHSI 070353Z AUTO 00000KT 10SM CLR 23/15 A2995 RMK AO2 SLP124 T02330150 $,KHSI,2023-06-07T03:53:00Z,40.6,-98.43,23.3,15.0,0,0,,10.0,29.949802,1012.4,,TRUE,TRUE,TRUE,,,,,,CLR,,,,,,,,VFR,,,,,,,,,,,,METAR,592.0
KHRO 070353Z AUTO 27003KT 10SM CLR 17/12 A2996 RMK AO2 SLP132 T01720117,KHRO,2023-06-07T03:53:00Z,36.27,-93.15,17.2,11.7,270,3,,10.0,29.958662,1013.2,,TRUE,TRUE,,,,,,,CLR,,,,,,,,VFR,,,,,,,,,,,,METAR,417.0
KHRI 070353Z AUTO 09003KT 10SM CLR 25/08 A2971 RMK AO2 SLP054 T02500078 $,KHRI,2023-06-07T03:53:00Z,45.83,-119.27,25.0,7.8,90,3,,10.0,29.71063,1005.4,,TRUE,TRUE,TRUE,,,,,,CLR,,,,,,,,VFR,,,,,,,,,,,,METAR,194.0
KHQM 070353Z AUTO 27003KT 10SM CLR 18/09 A2977 RMK AO2 SLP084 T01780094,KHQM,2023-06-07T03:53:00Z,46.97,-123.93,17.8,9.4,270,3,,10.0,29.769686,1008.4,,TRUE,TRUE,,,,,,,CLR,,,,,,,,VFR,,,,,,,,,,,,METAR,4.0
KHOU 070353Z 00000KT 10SM FEW250 24/21 A2986 RMK AO2 SLP118 T02390211,KHOU,2023-06-07T03:53:00Z,29.63,-95.28,23.9,21.1,0,0,,10.0,29.861221,1011.8,,,TRUE,,,,,,,FEW,25000,,,,,,,VFR,,,,,,,,,,,,METAR,13.0
KHOT 070353Z AUTO 00000KT 7SM CLR 22/21 A2991 RMK AO2 SLP120 T02220206,KHOT,2023-06-07T03:53:00Z,34.48,-93.1,22.2,20.6,0,0,,7.0,29.911417,1012.0,,TRUE,TRUE,,,,,,,CLR,,,,,,,,VFR,,,,,,,,,,,,METAR,153.0
KHLN 070353Z AUTO 27006KT 10SM CLR 17/11 A2998 RMK AO2 SLP144 T01720106,KHLN,2023-06-07T03:53:00Z,46.6,-111.98,17.2,10.6,270,6,,10.0,29.97933,1014.4,,TRUE,TRUE,,,,,,,CLR,,,,,,,,VFR,,,,,,,,,,,,METAR,1178.0
KHLG 070353Z AUTO 34006KT 10SM CLR 16/06 A2982 RMK AO2 SLP093 T01560056,KHLG,2023-06-07T03:53:00Z,40.17,-80.65,15.6,5.6,340,6,,10.0,29.819881,1009.3,,TRUE,TRUE,,,,,,,CLR,,,,,,,,VFR,,,,,,,,,,,,METAR,365.0
KHLC 070353Z AUTO 00000KT 10SM CLR 22/16 A2998 RMK AO2 SLP130 T02170156,KHLC,2023-06-07T03:53:00Z,39.37,-99.83,21.7,15.6,0,0,,10.0,29.97933,1013.0,,TRUE,TRUE,,,,,,,CLR,,,,,,,,VFR,,,,,,,,,,,,METAR,667.0
KHKY 070353Z AUTO 29004KT 7SM CLR 19/09 A2985 RMK AO2 SLP089 T01890089,KHKY,2023-06-07T03:53:00Z,35.75,-81.38,18.9,8.9,290,4,,7.0,29.84941,1008.9,,TRUE,TRUE,,,,,,,CLR,,,,,,,,VFR,,,,,,,,,,,,METAR,357.0
KHKS 070353Z AUTO 17004KT 10SM CLR 22/20 A2989 RMK AO2 SLP114 T02170200,KHKS,2023-06-07T03:53:00Z,32.33,-90.22,21.7,20.0,170,4,,10.0,29.890747,1011.4,,TRUE,TRUE,,,,,,,CLR,,,,,,,,VFR,,,,,,,,,,,,METAR,103.0
KHKA 070353Z AUTO 30003KT CLR 22/14 A2988 RMK AO2 SLP114 T02220144 $,KHKA,2023-06-07T03:53:00Z,35.93,-89.83,22.2,14.4,300,3,,,29.878937,1011.4,,TRUE,TRUE,TRUE,,,,,,CLR,,,,,,,,,,,,,,,,,,,,METAR,78.0
KHJO 070353Z AUTO 24006KT 10SM SCT060 BKN075 23/11 A2979 RMK AO2 SLPNO T02280111,KHJO,2023-06-07T03:53:00Z,36.32,-119.62,22.8,11.1,240,6,,10.0,29.790354,,,TRUE,TRUE,,,,,,,SCT,6000,BKN,7500,,,,,VFR,,,,,,,,,,,,METAR,73.0
KHIO 070353Z 33005KT 10SM CLR 24/11 A2970 RMK AO2 SLP055 T02440106,KHIO,2023-06-07T03:53:00Z,45.55,-122.95,24.4,10.6,330,5,,10.0,29.698818,1005.5,,,TRUE,,,,,,,CLR,,,,,,,,VFR,,,,,,,,,,,,METAR,62.0
KHIB 070353Z AUTO 14006KT 10SM CLR 11/03 A3002 RMK AO2 SLP171 T01060033,KHIB,2023-06-07T03:53:00Z,47.38,-92.83,10.6,3.3,140,6,,10.0,30.02067,1017.1,,TRUE,TRUE,,,,,,,CLR,,,,,,,,VFR,,,,,,,,,,,,METAR,409.0
KHHR 070353Z 28005KT 10SM BKN045 OVC110 18/11 A2992 RMK AO2 SLP131 T01830111,KHHR,2023-06-07T03:53:00Z,33.92,-118.33,18.3,11.1,280,5,,10.0,29.920275,1013.1,,,TRUE,,,,,,,BKN,4500,OVC,11000,,,,,VFR,,,,,,,,,,,,METAR,21.0
KHGR 070353Z AUTO 32005KT 10SM CLR 19/04 A2973 RMK AO2 SLP071 T01890039,KHGR,2023-06-07T03:53:00Z,39.7,-77.73,18.9,3.9,320,5,,10.0,29.731298,1007.1,,TRUE,TRUE,,,,,,,CLR,,,,,,,,VFR,,,,,,,,,,,,METAR,206.0
KHFD 070353Z 33006KT 8SM FEW075 15/07 A2960 RMK AO2 RAB13E30 SLP024 P0000 T01500067,KHFD,2023-06-07T03:53:00Z,41.73,-72.65,15.0,6.7,330,6,,8.0,29.601377,1002.4,,,TRUE,,,,,,,FEW,7500,,,,,,,VFR,,,,,,0.005,,,,,,METAR,3.0
KHEI 070353Z AUTO 00000KT 10SM CLR 19/14 A2992 RMK AO2 SLP111 T01890139,KHEI,2023-06-07T03:53:00Z,46.02,-102.65,18.9,13.9,0,0,,10.0,29.920275,1011.1,,TRUE,TRUE,,,,,,,CLR,,,,,,,,VFR,,,,,,,,,,,,METAR,824.0
KHBR 070353Z AUTO 11009KT 9SM CLR 21/18 A2995 RMK AO2 SLP126 T02110183,KHBR,2023-06-07T03:53:00Z,34.98,-99.05,21.1,18.3,110,9,,9.0,29.949802,1012.6,,TRUE,TRUE,,,,,,,CLR,,,,,,,,VFR,,,,,,,,,,,,METAR,475.0
KHBG 070353Z AUTO 00000KT 10SM CLR 22/21 A2990 RMK AO2 SLP122 T02220211,KHBG,2023-06-07T03:53:00Z,31.27,-89.25,22.2,21.1,0,0,,10.0,29.899607,1012.2,,TRUE,TRUE,,,,,,,CLR,,,,,,,,VFR,,,,,,,,,,,,METAR,45.0
KHAO 070353Z AUTO 00000KT 5SM BR BKN080 16/15 A2986 RMK AO2 SLP109 T01610150,KHAO,2023-06-07T03:53:00Z,39.37,-84.52,16.1,15.0,0,0,,5.0,29.861221,1010.9,,TRUE,TRUE,,,,,,BR,BKN,8000,,,,,,,MVFR,,,,,,,,,,,,METAR,185.0
KGZH 070353Z AUTO 00000KT 7SM CLR 20/19 A2991 RMK AO2 SLP124 P0013 T02000189 $,KGZH,2023-06-07T03:53:00Z,31.42,-87.05,20.0,18.9,0,0,,7.0,29.911417,1012.4,,TRUE,TRUE,TRUE,,,,,,CLR,,,,,,,,VFR,,,,,,0.13,,,,,,METAR,77.0
KGWO 070353Z AUTO 00000KT 10SM CLR 23/20 A2988 RMK AO2 SLP115 T02330200,KGWO,2023-06-07T03:53:00Z,33.5,-90.08,23.3,20.0,0,0,,10.0,29.878937,1011.5,,TRUE,TRUE,,,,,,,CLR,,,,,,,,VFR,,,,,,,,,,,,METAR,42.0
KGVL 070353Z AUTO 31003KT 8SM CLR 23/17 A2990 RMK AO2 SLP107 T02280167,KGVL,2023-06-07T03:53:00Z,34.27,-83.83,22.8,16.7,310,3,,8.0,29.899607,1010.7,,TRUE,TRUE,,,,,,,CLR,,,,,,,,VFR,,,,,,,,,,,,METAR,387.0
KGUY 070353Z AUTO 13006KT 10SM CLR 20/17 A2998 RMK AO2 SLP111 T02000167,KGUY,2023-06-07T03:53:00Z,36.68,-101.5,20.0,16.7,130,6,,10.0,29.97933,1011.1,,TRUE,TRUE,,,,,,,CLR,,,,,,,,VFR,,,,,,,,,,,,METAR,950.0
KGUP 070353Z AUTO 06008KT 10SM CLR 12/09 A3007 RMK AO2 SLP058 T01170089,KGUP,2023-06-07T03:53:00Z,35.52,-108.8,11.7,8.9,60,8,,10.0,30.070866,1005.8,,TRUE,TRUE,,,,,,,CLR,,,,,,,,VFR,,,,,,,,,,,,METAR,1972.0
KGTF 070353Z 21004KT 10SM SCT070 13/12 A2999 RMK AO2 SLP151 T01330117,KGTF,2023-06-07T03:53:00Z,47.47,-111.38,13.3,11.7,210,4,,10.0,29.991142,1015.1,,,TRUE,,,,,,,SCT,7000,,,,,,,VFR,,,,,,,,,,,,METAR,1117.0
KGSP 070353Z AUTO 00000KT 5SM BR CLR 18/17 A2985 RMK AO2 SLP098 T01830172,KGSP,2023-06-07T03:53:00Z,34.9,-82.22,18.3,17.2,0,0,,5.0,29.84941,1009.8,,TRUE,TRUE,,,,,,BR,CLR,,,,,,,,MVFR,,,,,,,,,,,,METAR,285.0
KGSH 070353Z AUTO 01004KT 8SM CLR 16/12 A2989 RMK AO2 SLP119 T01610122,KGSH,2023-06-07T03:53:00Z,41.53,-85.78,16.1,12.2,10,4,,8.0,29.890747,1011.9,,TRUE,TRUE,,,,,,,CLR,,,,,,,,VFR,,,,,,,,,,,,METAR,252.0
KGRR 070353Z 08003KT 10SM CLR 14/08 A2992 RMK AO2 SLP128 LAST T01390083,KGRR,2023-06-07T03:53:00Z,42.88,-85.52,13.9,8.3,80,3,,10.0,29.920275,1012.8,,,TRUE,,,,,,,CLR,,,,,,,,VFR,,,,,,,,,,,,METAR,239.0
KGRI 070353Z AUTO 21008KT 10SM CLR 26/14 A2994 RMK AO2 SLP123 T02560139,KGRI,2023-06-07T03:53:00Z,40.97,-98.32,25.6,13.9,210,8,,10.0,29.940945,1012.3,,TRUE,TRUE,,,,,,,CLR,,,,,,,,VFR,,,,,,,,,,,,METAR,562.0
KGRB 070353Z 05009KT 10SM CLR 16/09 A2998 RMK AO2 SLP150 T01560094,KGRB,2023-06-07T03:53:00Z,44.48,-88.13,15.6,9.4,50,9,,10.0,29.97933,1015.0,,,TRUE,,,,,,,CLR,,,,,,,,VFR,,,,,,,,,,,,METAR,209.0
KGOK 070353Z AUTO 10007KT 10SM SCT055 BKN120 21/17 A2994 RMK AO2 SLP131 T02060172 $,KGOK,2023-06-07T03:53:00Z,35.85,-97.4,20.6,17.2,100,7,,10.0,29.940945,1013.1,,TRUE,TRUE,TRUE,,,,,,SCT,5500,BKN,12000,,,,,VFR,,,,,,,,,,,,METAR,326.0
KGNV 070353Z AUTO 00000KT 10SM SCT060 23/19 A2993 RMK AO2 SLP134 T02330189,KGNV,2023-06-07T03:53:00Z,29.7,-82.28,23.3,18.9,0,0,,10.0,29.929134,1013.4,,TRUE,TRUE,,,,,,,SCT,6000,,,,,,,VFR,,,,,,,,,,,,METAR,41.0
KGMU 070353Z AUTO 00000KT 10SM CLR 22/19 A2986 RMK AO2 SLP101 T02170194,KGMU,2023-06-07T03:53:00Z,34.85,-82.35,21.7,19.4,0,0,,10.0,29.861221,1010.1,,TRUE,TRUE,,,,,,,CLR,,,,,,,,VFR,,,,,,,,,,,,METAR,309.0
KGLR 070353Z AUTO 00000KT 10SM CLR 13/06 A2996 RMK AO2 SLP144 T01330056,KGLR,2023-06-07T03:53:00Z,45.02,-84.68,13.3,5.6,0,0,,10.0,29.958662,1014.4,,TRUE,TRUE,,,,,,,CLR,,,,,,,,VFR,,,,,,,,,,,,METAR,403.0
KGLH 070353Z AUTO 00000KT 10SM CLR 23/21 A2987 RMK AO2 SLP121 T02280211,KGLH,2023-06-07T03:53:00Z,33.47,-90.98,22.8,21.1,0,0,,10.0,29.870079,1012.1,,TRUE,TRUE,,,,,,,CLR,,,,,,,,VFR,,,,,,,,,,,,METAR,40.0
KGLD 070353Z AUTO 15007KT 10SM CLR 18/13 A3001 RMK AO2 SLP125 T01780133,KGLD,2023-06-07T03:53:00Z,39.37,-101.7,17.8,13.3,150,7,,10.0,30.008858,1012.5,,TRUE,TRUE,,,,,,,CLR,,,,,,,,VFR,,,,,,,,,,,,METAR,1111.0
KGKY 070353Z AUTO 00000KT 10SM CLR 21/19 A2990 RMK AO2 SLP115 T02110189 $,KGKY,2023-06-07T03:53:00Z,32.67,-97.1,21.1,18.9,0,0,,10.0,29.899607,1011.5,,TRUE,TRUE,TRUE,,,,,,CLR,,,,,,,,VFR,,,,,,,,,,,,METAR,189.0
KGKJ 070353Z AUTO 02004KT 7SM CLR 12/07 A2981 RMK AO2 SLP090 T01170067,KGKJ,2023-06-07T03:53:00Z,41.63,-80.22,11.7,6.7,20,4,,7.0,29.811024,1009.0,,TRUE,TRUE,,,,,,,CLR,,,,,,,,VFR,,,,,,,,,,,,METAR,428.0
KGJT 070353Z 12009KT 10SM BKN110 20/07 A3001 RMK AO2 SLP099 T02000072,KGJT,2023-06-07T03:53:00Z,39.13,-108.53,20.0,7.2,120,9,,10.0,30.008858,1009.9,,,TRUE,,,,,,,BKN,11000,,,,,,,VFR,,,,,,,,,,,,METAR,1475.0
KGIF 070353Z AUTO 19005KT 10SM CLR 24/20 A2993 RMK AO2 SLP134 T02390200,KGIF,2023-06-07T03:53:00Z,28.07,-81.75,23.9,20.0,190,5,,10.0,29.929134,1013.4,,TRUE,TRUE,,,,,,,CLR,,,,,,,,VFR,,,,,,,,,,,,METAR,44.0
KGGW 070353Z AUTO 05011KT 10SM CLR 23/16 A2985 RMK AO2 SLP093 T02330156 $,KGGW,2023-06-07T03:53:00Z,48.22,-106.62,23.3,15.6,50,11,,10.0,29.84941,1009.3,,TRUE,TRUE,TRUE,,,,,,CLR,,,,,,,,VFR,,,,,,,,,,,,METAR,698.0
KGGG 070353Z AUTO 00000KT 10SM CLR 23/22 A2988 RMK AO2 SLP112 T02330217,KGGG,2023-06-07T03:53:00Z,32.38,-94.72,23.3,21.7,0,0,,10.0,29.878937,1011.2,,TRUE,TRUE,,,,,,,CLR,,,,,,,,VFR,,,,,,,,,,,,METAR,107.0
KGFK 070353Z 15008KT 10SM FEW080 BKN150 25/18 A2984 RMK AO2 SLP099 T02500183,KGFK,2023-06-07T03:53:00Z,47.95,-97.18,25.0,18.3,150,8,,10.0,29.840551,1009.9,,,TRUE,,,,,,,FEW,8000,BKN,15000,,,,,VFR,,,,,,,,,,,,METAR,256.0
KGEZ 070353Z AUTO 04004KT 9SM BKN080 OVC090 21/13 A2986 RMK AO2 SLP105 T02110128,KGEZ,2023-06-07T03:53:00Z,39.58,-85.8,21.1,12.8,40,4,,9.0,29.861221,1010.5,,TRUE,TRUE,,,,,,,BKN,8000,OVC,9000,,,,,VFR,,,,,,,,,,,,METAR,245.0
KGEY 070353Z AUTO 32018KT 10SM BKN100 19/14 A2994 RMK AO2 PK WND 31032/0311 LTG DSNT S SLP104 T01940144,KGEY,2023-06-07T03:53:00Z,44.52,-108.08,19.4,14.4,320,18,,10.0,29.940945,1010.4,,TRUE,TRUE,,,,,,,BKN,10000,,,,,,,VFR,,,,,,,,,,,,METAR,1191.0
KGEG 070353Z 32006KT 10SM BKN250 26/01 A2981 RMK AO2 SLP077 T02560011,KGEG,2023-06-07T03:53:00Z,47.62,-117.53,25.6,1.1,320,6,,10.0,29.811024,1007.7,,,TRUE,,,,,,,BKN,25000,,,,,,,VFR,,,,,,,,,,,,METAR,718.0
KGCC 070353Z AUTO 00000KT 10SM CLR 17/13 A2996 RMK AO2 SLP103 T01720133,KGCC,2023-06-07T03:53:00Z,44.33,-105.55,17.2,13.3,0,0,,10.0,29.958662,1010.3,,TRUE,TRUE,,,,,,,CLR,,,,,,,,VFR,,,,,,,,,,,,METAR,1328.0
KGAG 070353Z AUTO 00000KT 10SM CLR 17/14 A2998 RMK AO2 SLP129 T01720144,KGAG,2023-06-07T03:53:00Z,36.3,-99.77,17.2,14.4,0,0,,10.0,29.97933,1012.9,,TRUE,TRUE,,,,,,,CLR,,,,,,,,VFR,,,,,,,,,,,,METAR,670.0
KFXE 070353Z 12004KT 10SM CLR 26/23 A2991 RMK AO2 SLP131 T02610228 $,KFXE,2023-06-07T03:53:00Z,26.2,-80.18,26.1,22.8,120,4,,10.0,29.911417,1013.1,,,TRUE,TRUE,,,,,,CLR,,,,,,,,VFR,,,,,,,,,,,,METAR,3.0
KFWN 070353Z AUTO 30003KT 4SM HZ OVC050 14/08 A2969 RMK AO2 SLP051 T01390078,KFWN,2023-06-07T03:53:00Z,41.2,-74.63,13.9,7.8,300,3,,4.0,29.68996,1005.1,,TRUE,TRUE,,,,,,HZ,OVC,5000,,,,,,,MVFR,,,,,,,,,,,,METAR,129.0
KFUL 070353Z 19003KT 10SM FEW036 17/11 A2991 RMK AO2 SLP126 T01670106,KFUL,2023-06-07T03:53:00Z,33.87,-117.98,16.7,10.6,190,3,,10.0,29.911417,1012.6,,,TRUE,,,,,,,FEW,3600,,,,,,,VFR,,,,,,,,,,,,METAR,23.0
KFTY 070353Z 00000KT 10SM FEW055 22/19 A2988 RMK AO2 TSB0256E0257B0258E0259B00E03B05E07B09E11 SLP107 T02170194,KFTY,2023-06-07T03:53:00Z,33.78,-84.52,21.7,19.4,0,0,,10.0,29.878937,1010.7,,,TRUE,,,,,,,FEW,5500,,,,,,,VFR,,,,,,,,,,,,METAR,245.0
KFTW 070353Z 03003KT 10SM CLR 24/17 A2989 RMK AO2 SLP113 T02440167,KFTW,2023-06-07T03:53:00Z,32.83,-97.37,24.4,16.7,30,3,,10.0,29.890747,1011.3,,,TRUE,,,,,,,CLR,,,,,,,,VFR,,,,,,,,,,,,METAR,213.0
KFST 070353Z AUTO 08007KT 10SM CLR 25/12 A2996 RMK AO2 SLP098 T02500122,KFST,2023-06-07T03:53:00Z,30.92,-102.92,25.0,12.2,80,7,,10.0,29.958662,1009.8,,TRUE,TRUE,,,,,,,CLR,,,,,,,,VFR,,,,,,,,,,,,METAR,917.0
KFSM 070353Z AUTO 00000KT 10SM CLR 26/19 A2990 RMK AO2 SLP120 T02560194,KFSM,2023-06-07T03:53:00Z,35.33,-94.37,25.6,19.4,0,0,,10.0,29.899607,1012.0,,TRUE,TRUE,,,,,,,CLR,,,,,,,,VFR,,,,,,,,,,,,METAR,136.0
KFRG 070353Z AUTO 31004KT 4SM HZ BKN046 16/09 A2964 RMK AO2 SLP036 T01560094,KFRG,2023-06-07T03:53:00Z,40.73,-73.42,15.6,9.4,310,4,,4.0,29.639763,1003.6,,TRUE,TRUE,,,,,,HZ,BKN,4600,,,,,,,MVFR,,,,,,,,,,,,METAR,23.0
KFPR 070353Z AUTO 00000KT 10SM CLR 21/20 A2992 RMK AO2 SLP132 T02110200,KFPR,2023-06-07T03:53:00Z,27.5,-80.38,21.1,20.0,0,0,,10.0,29.920275,1013.2,,TRUE,TRUE,,,,,,,CLR,,,,,,,,VFR,,,,,,,,,,,,METAR,7.0
KFOK 070353Z AUTO 31008KT 4SM HZ OVC050 13/09 A2962 RMK AO2 SLP030 T01280094,KFOK,2023-06-07T03:53:00Z,40.85,-72.62,12.8,9.4,310,8,,4.0,29.619095,1003.0,,TRUE,TRUE,,,,,,HZ,OVC,5000,,,,,,,MVFR,,,,,,,,,,,,METAR,13.0
KFOE 070353Z AUTO 20005KT 10SM CLR 22/18 A2993 RMK AO2 SLP125 T02170183 $,KFOE,2023-06-07T03:53:00Z,38.93,-95.65,21.7,18.3,200,5,,10.0,29.929134,1012.5,,TRUE,TRUE,TRUE,,,,,,CLR,,,,,,,,VFR,,,,,,,,,,,,METAR,315.0
KFNT 070353Z AUTO 00000KT 7SM FEW038 08/04 A2991 RMK AO2 SLP131 T00830039,KFNT,2023-06-07T03:53:00Z,42.97,-83.75,8.3,3.9,0,0,,7.0,29.911417,1013.1,,TRUE,TRUE,,,,,,,FEW,3800,,,,,,,VFR,,,,,,,,,,,,METAR,235.0
KFNB 070353Z AUTO 08003KT 10SM CLR 22/18 A2991 RMK AO2 SLP119 T02170183,KFNB,2023-06-07T03:53:00Z,40.07,-95.58,21.7,18.3,80,3,,10.0,29.911417,1011.9,,TRUE,TRUE,,,,,,,CLR,,,,,,,,VFR,,,,,,,,,,,,METAR,301.0
KFMY 070353Z AUTO 11004KT 10SM CLR 23/21 A2990 RMK AO2 SLP126 T02330211,KFMY,2023-06-07T03:53:00Z,26.58,-81.87,23.3,21.1,110,4,,10.0,29.899607,1012.6,,TRUE,TRUE,,,,,,,CLR,,,,,,,,VFR,,,,,,,,,,,,METAR,4.0
KFMN 070353Z AUTO 09013G21KT 10SM CLR 16/08 A3007 RMK AO2 SLP135 T01610083,KFMN,2023-06-07T03:53:00Z,36.75,-108.23,16.1,8.3,90,13,21,10.0,30.070866,1013.5,,TRUE,TRUE,,,,,,,CLR,,,,,,,,VFR,,,,,,,,,,,,METAR,1677.0
KFLL 070353Z 12008KT 10SM SCT023 SCT250 26/23 A2991 RMK AO2 SLP127 T02610228 $,KFLL,2023-06-07T03:53:00Z,26.07,-80.15,26.1,22.8,120,8,,10.0,29.911417,1012.7,,,TRUE,TRUE,,,,,,SCT,2300,SCT,25000,,,,,VFR,,,,,,,,,,,,METAR,1.0
KFLD 070353Z AUTO 05006KT 10SM CLR 16/05 A2996 RMK AO2 SLP144 T01610050,KFLD,2023-06-07T03:53:00Z,43.77,-88.48,16.1,5.0,50,6,,10.0,29.958662,1014.4,,TRUE,TRUE,,,,,,,CLR,,,,,,,,VFR,,,,,,,,,,,,METAR,242.0
KFHR 070353Z AUTO 00000KT 10SM CLR 17/05 A2980 RMK AO2 SLP089 T01720050 $,KFHR,2023-06-07T03:53:00Z,48.52,-123.03,17.2,5.0,0,0,,10.0,29.799213,1008.9,,TRUE,TRUE,TRUE,,,,,,CLR,,,,,,,,VFR,,,,,,,,,,,,METAR,34.0
KFFT 070353Z AUTO 36006KT 8SM OVC090 23/13 A2984 RMK AO2 SLPNO T02330133,KFFT,2023-06-07T03:53:00Z,38.18,-84.9,23.3,13.3,360,6,,8.0,29.840551,,,TRUE,TRUE,,,,,,,OVC,9000,,,,,,,VFR,,,,,,,,,,,,METAR,235.0
KFFC 070353Z AUTO 00000KT 10SM CLR 20/17 A2988 RMK AO2 SLP113 T02000167,KFFC,2023-06-07T03:53:00Z,33.35,-84.57,20.0,16.7,0,0,,10.0,29.878937,1011.3,,TRUE,TRUE,,,,,,,CLR,,,,,,,,VFR,,,,,,,,,,,,METAR,242.0
KFDY 070353Z AUTO 04009KT 10SM CLR 18/08 A2987 RMK AO2 SLP107 T01780083,KFDY,2023-06-07T03:53:00Z,41.02,-83.67,17.8,8.3,40,9,,10.0,29.870079,1010.7,,TRUE,TRUE,,,,,,,CLR,,,,,,,,VFR,,,,,,,,,,,,METAR,247.0
KFDR 070353Z AUTO 07004KT 10SM CLR 23/16 A2992 RMK AO2 SLP112 T02280161,KFDR,2023-06-07T03:53:00Z,34.35,-98.98,22.8,16.1,70,4,,10.0,29.920275,1011.2,,TRUE,TRUE,,,,,,,CLR,,,,,,,,VFR,,,,,,,,,,,,METAR,378.0
KFCM 070353Z AUTO 07006KT 7SM CLR 23/16 A2991 RMK AO2 SLP122 T02330161,KFCM,2023-06-07T03:53:00Z,44.83,-93.47,23.3,16.1,70,6,,7.0,29.911417,1012.2,,TRUE,TRUE,,,,,,,CLR,,,,,,,,VFR,,,,,,,,,,,,METAR,276.0
KFAY 070353Z 00000KT 6SM HZ BKN070 BKN090 21/12 A2979 RMK AO2 SLP080 T02060117,KFAY,2023-06-07T03:53:00Z,34.98,-78.88,20.6,11.7,0,0,,6.0,29.790354,1008.0,,,TRUE,,,,,,HZ,BKN,7000,BKN,9000,,,,,VFR,,,,,,,,,,,,METAR,57.0
KFAT 070353Z 31010KT 10SM SCT055 BKN130 OVC200 25/13 A2978 RMK AO2 SLP081 T02500128,KFAT,2023-06-07T03:53:00Z,36.78,-119.72,25.0,12.8,310,10,,10.0,29.778543,1008.1,,,TRUE,,,,,,,SCT,5500,BKN,13000,OVC,20000,,,VFR,,,,,,,,,,,,METAR,102.0
KFAR 070353Z 15012KT 10SM BKN100 24/19 A2985 RMK AO2 WSHFT 0258 LTG DSNT N AND SE RAE51 TSB00E01B02E06B07E09B11E13B15E19 SLP103 P0012 T02440189,KFAR,2023-06-07T03:53:00Z,46.9,-96.82,24.4,18.9,150,12,,10.0,29.84941,1010.3,,,TRUE,,,,,,,BKN,10000,,,,,,,VFR,,,,,,0.12,,,,,,METAR,276.0
KEYW 070353Z AUTO 14004KT 10SM CLR 28/23 A2991 RMK AO2 SLP133 T02830228,KEYW,2023-06-07T03:53:00Z,24.55,-81.75,28.3,22.8,140,4,,10.0,29.911417,1013.3,,TRUE,TRUE,,,,,,,CLR,,,,,,,,VFR,,,,,,,,,,,,METAR,1.0
KEYE 070353Z AUTO 01003KT 9SM SCT075 OVC110 21/14 A2987 RMK AO2 SLP108 T02060139,KEYE,2023-06-07T03:53:00Z,39.83,-86.3,20.6,13.9,10,3,,9.0,29.870079,1010.8,,TRUE,TRUE,,,,,,,SCT,7500,OVC,11000,,,,,VFR,,,,,,,,,,,,METAR,248.0
KEWB 070353Z AUTO VRB03KT 5SM BR SCT075 11/10 A2956 RMK AO2 SLP008 T01060100,KEWB,2023-06-07T03:53:00Z,41.68,-70.95,10.6,10.0,0,3,,5.0,29.56004,1000.8,,TRUE,TRUE,,,,,,BR,SCT,7500,,,,,,,MVFR,,,,,,,,,,,,METAR,22.0
KEVW 070353Z AUTO 03012KT 10SM SCT110 12/07 A3010 RMK AO2 RAE0258 SLP113 P0000 T01220072 $,KEVW,2023-06-07T03:53:00Z,41.27,-111.03,12.2,7.2,30,12,,10.0,30.100393,1011.3,,TRUE,TRUE,TRUE,,,,,,SCT,11000,,,,,,,VFR,,,,,,0.005,,,,,,METAR,2178.0
KESF 070353Z AUTO 00000KT 10SM CLR 21/20 A2987 RMK AO2 SLP113 T02110200,KESF,2023-06-07T03:53:00Z,31.4,-92.28,21.1,20.0,0,0,,10.0,29.870079,1011.3,,TRUE,TRUE,,,,,,,CLR,,,,,,,,VFR,,,,,,,,,,,,METAR,27.0
KEQY 070353Z AUTO 00000KT 8SM CLR 19/13 A2981 RMK AO2 SLP095 T01940133,KEQY,2023-06-07T03:53:00Z,35.02,-80.62,19.4,13.3,0,0,,8.0,29.811024,1009.5,,TRUE,TRUE,,,,,,,CLR,,,,,,,,VFR,,,,,,,,,,,,METAR,205.0
KEPH 070353Z AUTO 35004KT 10SM CLR 26/01 A2976 RMK AO2 SLP067 T02610006,KEPH,2023-06-07T03:53:00Z,47.3,-119.52,26.1,0.6,350,4,,10.0,29.760826,1006.7,,TRUE,TRUE,,,,,,,CLR,,,,,,,,VFR,,,,,,,,,,,,METAR,382.0
KENW 070353Z AUTO 01007KT 10SM OVC100 16/06 A2994 RMK AO2 SLP138 T01560061,KENW,2023-06-07T03:53:00Z,42.6,-87.93,15.6,6.1,10,7,,10.0,29.940945,1013.8,,TRUE,TRUE,,,,,,,OVC,10000,,,,,,,VFR,,,,,,,,,,,,METAR,222.0
KEMP 070353Z AUTO 14005KT 10SM CLR 19/17 A2994 RMK AO2 SLP132 T01940172,KEMP,2023-06-07T03:53:00Z,38.33,-96.2,19.4,17.2,140,5,,10.0,29.940945,1013.2,,TRUE,TRUE,,,,,,,CLR,,,,,,,,VFR,,,,,,,,,,,,METAR,366.0
KELY 070353Z AUTO 16007KT 10SM CLR 12/M06 A2996 RMK AO2 SLP064 T01221061 $,KELY,2023-06-07T03:53:00Z,39.3,-114.85,12.2,-6.1,160,7,,10.0,29.958662,1006.4,,TRUE,TRUE,TRUE,,,,,,CLR,,,,,,,,VFR,,,,,,,,,,,,METAR,1906.0
KELN 070353Z AUTO 08004KT 10SM CLR 21/09 A2979 RMK AO2 SLP078 T02110089,KELN,2023-06-07T03:53:00Z,47.03,-120.53,21.1,8.9,80,4,,10.0,29.790354,1007.8,,TRUE,TRUE,,,,,,,CLR,,,,,,,,VFR,,,,,,,,,,,,METAR,532.0
KEET 070353Z AUTO 21004KT 10SM CLR 22/18 A2989 RMK AO2 SLP115 T02220178 $,KEET,2023-06-07T03:53:00Z,33.18,-86.78,22.2,17.8,210,4,,10.0,29.890747,1011.5,,TRUE,TRUE,TRUE,,,,,,CLR,,,,,,,,VFR,,,,,,,,,,,,METAR,172.0
KEEO 070353Z AUTO 23005KT 10SM CLR 14/06 A3011 RMK AO2 SLP123 T01440056,KEEO,2023-06-07T03:53:00Z,40.05,-107.88,14.4,5.6,230,5,,10.0,30.109253,1012.3,,TRUE,TRUE,,,,,,,CLR,,,,,,,,VFR,,,,,,,,,,,,METAR,1957.0
KECP 070353Z AUTO 00000KT 10SM CLR 23/21 A2989 RMK AO1 SLP133 T02280206 $,KECP,2023-06-07T03:53:00Z,30.35,-85.8,22.8,20.6,0,0,,10.0,29.890747,1013.3,,TRUE,TRUE,TRUE,,,,,,CLR,,,,,,,,VFR,,,,,,,,,,,,METAR,17.0
KDXR 070353Z AUTO VRB03KT 6SM HZ CLR 13/07 A2965 RMK AO2 SLP037 T01330067,KDXR,2023-06-07T03:53:00Z,41.37,-73.48,13.3,6.7,0,3,,6.0,29.648623,1003.7,,TRUE,TRUE,,,,,,HZ,CLR,,,,,,,,VFR,,,,,,,,,,,,METAR,138.0
KDVT 070353Z 25009KT 10SM CLR 29/M06 A2976 RMK AO2 SLP053 T02891056,KDVT,2023-06-07T03:53:00Z,33.68,-112.07,28.9,-5.6,250,9,,10.0,29.760826,1005.3,,,TRUE,,,,,,,CLR,,,,,,,,VFR,,,,,,,,,,,,METAR,454.0
KDUJ 070353Z AUTO 36006KT 4SM HZ 14/06 A2979 RMK AO2 SLP078 T01440056 $,KDUJ,2023-06-07T03:53:00Z,41.17,-78.9,14.4,5.6,360,6,,4.0,29.790354,1007.8,,TRUE,TRUE,TRUE,,,,,HZ,,,,,,,,,,,,,,,,,,,,,METAR,552.0
KDTW 070353Z 36004KT 6SM HZ FEW250 14/02 A2990 RMK AO2 SLP122 T01440017,KDTW,2023-06-07T03:53:00Z,42.23,-83.33,14.4,1.7,360,4,,6.0,29.899607,1012.2,,,TRUE,,,,,,HZ,FEW,25000,,,,,,,VFR,,,,,,,,,,,,METAR,192.0
KDTS 070353Z AUTO 20003KT 10SM CLR 26/21 A2989 RMK AO2 SLP122 T02560211,KDTS,2023-06-07T03:53:00Z,30.4,-86.47,25.6,21.1,200,3,,10.0,29.890747,1012.2,,TRUE,TRUE,,,,,,,CLR,,,,,,,,VFR,,,,,,,,,,,,METAR,5.0
KDTO 070353Z AUTO 00000KT 10SM CLR 21/18 A2990 RMK AO2 SLP116 T02110178,KDTO,2023-06-07T03:53:00Z,33.2,-97.2,21.1,17.8,0,0,,10.0,29.899607,1011.6,,TRUE,TRUE,,,,,,,CLR,,,,,,,,VFR,,,,,,,,,,,,METAR,199.0
KDTN 070353Z AUTO 00000KT 10SM CLR 25/21 A2988 RMK AO2 SLP116 T02500206,KDTN,2023-06-07T03:53:00Z,32.55,-93.75,25.0,20.6,0,0,,10.0,29.878937,1011.6,,TRUE,TRUE,,,,,,,CLR,,,,,,,,VFR,,,,,,,,,,,,METAR,53.0
KDRT 070353Z AUTO 14006KT 10SM CLR 28/16 A2986 RMK AO2 SLP101 T02780161,KDRT,2023-06-07T03:53:00Z,29.37,-100.92,27.8,16.1,140,6,,10.0,29.861221,1010.1,,TRUE,TRUE,,,,,,,CLR,,,,,,,,VFR,,,,,,,,,,,,METAR,303.0
KDRO 070353Z AUTO 08005KT 10SM SCT080 BKN100 11/09 A3019 RMK AO2 RAB20E43 SLP160 P0000 T01110094 $,KDRO,2023-06-07T03:53:00Z,37.15,-107.77,11.1,9.4,80,5,,10.0,30.188976,1016.0,,TRUE,TRUE,TRUE,,,,,,SCT,8000,BKN,10000,,,,,VFR,,,,,,0.005,,,,,,METAR,2021.0
KDRA 070353Z AUTO 29007KT 10SM CLR 23/M09 A2976 RMK AO2 SLP033 T02331094,KDRA,2023-06-07T03:53:00Z,36.62,-116.03,23.3,-9.4,290,7,,10.0,29.760826,1003.3,,TRUE,TRUE,,,,,,,CLR,,,,,,,,VFR,,,,,,,,,,,,METAR,988.0
KDNL 070353Z AUTO VRB04KT 10SM CLR 23/17 A2983 RMK AO2 SLP096 T02280167 $,KDNL,2023-06-07T03:53:00Z,33.47,-82.03,22.8,16.7,0,4,,10.0,29.828741,1009.6,,TRUE,TRUE,TRUE,,,,,,CLR,,,,,,,,VFR,,,,,,,,,,,,METAR,126.0
KDMO 070353Z AUTO 21006KT 10SM CLR 23/12 A2992 RMK AO2 SLP123 T02330117 $,KDMO,2023-06-07T03:53:00Z,38.72,-93.17,23.3,11.7,210,6,,10.0,29.920275,1012.3,,TRUE,TRUE,TRUE,,,,,,CLR,,,,,,,,VFR,,,,,,,,,,,,METAR,271.0
KDMN 070353Z AUTO 18005G21KT 10SM CLR 25/07 A2995 RMK AO2 SLP064 T02500067,KDMN,2023-06-07T03:53:00Z,32.27,-107.72,25.0,6.7,180,5,21,10.0,29.949802,1006.4,,TRUE,TRUE,,,,,,,CLR,,,,,,,,VFR,,,,,,,,,,,,METAR,1310.0
KDLS 070353Z AUTO 04006KT 10SM CLR 26/02 A2968 RMK AO2 SLP049 T02610017,KDLS,2023-06-07T03:53:00Z,45.62,-121.17,26.1,1.7,40,6,,10.0,29.681103,1004.9,,TRUE,TRUE,,,,,,,CLR,,,,,,,,VFR,,,,,,,,,,,,METAR,71.0
KDKK 070353Z AUTO 00000KT 10SM BKN075 11/09 A2980 RMK AO2 SLP090 T01110089,KDKK,2023-06-07T03:53:00Z,42.5,-79.28,11.1,8.9,0,0,,10.0,29.799213,1009.0,,TRUE,TRUE,,,,,,,BKN,7500,,,,,,,VFR,,,,,,,,,,,,METAR,205.0
KDHT 070353Z AUTO 15009KT 10SM SCT095 BKN110 19/14 A3002 RMK AO2 SLP117 T01890139,KDHT,2023-06-07T03:53:00Z,36.02,-102.55,18.9,13.9,150,9,,10.0,30.02067,1011.7,,TRUE,TRUE,,,,,,,SCT,9500,BKN,11000,,,,,VFR,,,,,,,,,,,,METAR,1217.0
KDHN 070353Z AUTO 22004KT 10SM CLR 23/18 A2994 RMK AO2 SLP132 T02280183,KDHN,2023-06-07T03:53:00Z,31.32,-85.45,22.8,18.3,220,4,,10.0,29.940945,1013.2,,TRUE,TRUE,,,,,,,CLR,,,,,,,,VFR,,,,,,,,,,,,METAR,113.0
KDGW 070353Z AUTO 12005KT 10SM CLR 16/11 A3000 RMK AO2 SLP112 T01610111,KDGW,2023-06-07T03:53:00Z,42.8,-105.38,16.1,11.1,120,5,,10.0,30.0,1011.2,,TRUE,TRUE,,,,,,,CLR,,,,,,,,VFR,,,,,,,,,,,,METAR,1503.0
KDFW 070353Z 00000KT 10SM FEW170 SCT250 24/17 A2988 RMK AO2 SLP111 T02390167,KDFW,2023-06-07T03:53:00Z,32.9,-97.02,23.9,16.7,0,0,,10.0,29.878937,1011.1,,,TRUE,,,,,,,FEW,17000,SCT,25000,,,,,VFR,,,,,,,,,,,,METAR,168.0
KDFI 070353Z AUTO 02005KT 10SM CLR 16/05 A2989 RMK AO2 SLP117 T01610050,KDFI,2023-06-07T03:53:00Z,41.33,-84.43,16.1,5.0,20,5,,10.0,29.890747,1011.7,,TRUE,TRUE,,,,,,,CLR,,,,,,,,VFR,,,,,,,,,,,,METAR,215.0
KDEW 070353Z AUTO 32005KT 10SM CLR 18/07 A2981 RMK AO2 SLP082 T01830067,KDEW,2023-06-07T03:53:00Z,47.97,-117.43,18.3,6.7,320,5,,10.0,29.811024,1008.2,,TRUE,TRUE,,,,,,,CLR,,,,,,,,VFR,,,,,,,,,,,,METAR,672.0
KDET 070353Z 33004KT 5SM HZ CLR 17/01 A2989 RMK AO2 SLP119 T01670006,KDET,2023-06-07T03:53:00Z,42.4,-83.02,16.7,0.6,330,4,,5.0,29.890747,1011.9,,,TRUE,,,,,,HZ,CLR,,,,,,,,MVFR,,,,,,,,,,,,METAR,190.0
KDEQ 070353Z AUTO 00000KT 10SM CLR 22/19 A2989 RMK AO2 SLP114 T02220194,KDEQ,2023-06-07T03:53:00Z,34.05,-94.4,22.2,19.4,0,0,,10.0,29.890747,1011.4,,TRUE,TRUE,,,,,,,CLR,,,,,,,,VFR,,,,,,,,,,,,METAR,107.0
KDEN 070353Z 19011KT 10SM FEW160 BKN220 16/11 A3004 RMK AO2 SLP114 T01560106,KDEN,2023-06-07T03:53:00Z,39.85,-104.65,15.6,10.6,190,11,,10.0,30.041338,1011.4,,,TRUE,,,,,,,FEW,16000,BKN,22000,,,,,VFR,,,,,,,,,,,,METAR,1656.0
KDCU 070353Z AUTO 17004KT 7SM CLR 19/18 A2989 RMK AO2 SLP115 T01940183,KDCU,2023-06-07T03:53:00Z,34.65,-86.95,19.4,18.3,170,4,,7.0,29.890747,1011.5,,TRUE,TRUE,,,,,,,CLR,,,,,,,,VFR,,,,,,,,,,,,METAR,180.0
KDBQ 070353Z AUTO 10005KT 6SM BR SCT110 19/17 A2991 RMK AO2 SLP123 T01940172,KDBQ,2023-06-07T03:53:00Z,42.4,-90.7,19.4,17.2,100,5,,6.0,29.911417,1012.3,,TRUE,TRUE,,,,,,BR,SCT,11000,,,,,,,VFR,,,,,,,,,,,,METAR,317.0
KDAN 070353Z AUTO 00000KT 10SM CLR 17/14 A2981 RMK AO2 SLP083 T01670144 $,KDAN,2023-06-07T03:53:00Z,36.57,-79.33,16.7,14.4,0,0,,10.0,29.811024,1008.3,,TRUE,TRUE,TRUE,,,,,,CLR,,,,,,,,VFR,,,,,,,,,,,,METAR,170.0
KDAL 070353Z 00000KT 10SM FEW150 FEW250 24/17 A2989 RMK AO2 SLP114 T02390172,KDAL,2023-06-07T03:53:00Z,32.85,-96.85,23.9,17.2,0,0,,10.0,29.890747,1011.4,,,TRUE,,,,,,,FEW,15000,FEW,25000,,,,,VFR,,,,,,,,,,,,METAR,148.0
KDAB 070353Z 19004KT 10SM FEW060 FEW110 24/19 A2992 RMK AO2 SLP132 T02390189 $,KDAB,2023-06-07T03:53:00Z,29.18,-81.07,23.9,18.9,190,4,,10.0,29.920275,1013.2,,,TRUE,TRUE,,,,,,FEW,6000,FEW,11000,,,,,VFR,,,,,,,,,,,,METAR,8.0
KCYS 070353Z 22009KT 10SM FEW070 BKN100 14/10 A3006 RMK AO2 RAB0254E49 SLP107 P0000 T01390100,KCYS,2023-06-07T03:53:00Z,41.15,-104.8,13.9,10.0,220,9,,10.0,30.059055,1010.7,,,TRUE,,,,,,,FEW,7000,BKN,10000,,,,,VFR,,,,,,0.005,,,,,,METAR,1868.0
KCXO 070353Z AUTO 00000KT 10SM CLR 20/19 A2989 RMK AO2 SLP117 T02000194,KCXO,2023-06-07T03:53:00Z,30.35,-95.42,20.0,19.4,0,0,,10.0,29.890747,1011.7,,TRUE,TRUE,,,,,,,CLR,,,,,,,,VFR,,,,,,,,,,,,METAR,69.0
KCUT 070353Z AUTO 00000KT 10SM CLR 16/08 A3007 RMK AO2 SLP119 T01610083,KCUT,2023-06-07T03:53:00Z,43.73,-103.62,16.1,8.3,0,0,,10.0,30.070866,1011.9,,TRUE,TRUE,,,,,,,CLR,,,,,,,,VFR,,,,,,,,,,,,METAR,1700.0
KCUB 070353Z AUTO 32003KT 10SM CLR 25/18 A2981 RMK AO2 LTG DSNT NE SLP092 T02500178,KCUB,2023-06-07T03:53:00Z,33.97,-81.0,25.0,17.8,320,3,,10.0,29.811024,1009.2,,TRUE,TRUE,,,,,,,CLR,,,,,,,,VFR,,,,,,,,,,,,METAR,55.0
KCSV 070353Z AUTO 00000KT 9SM CLR 16/13 A2993 RMK AO2 SLP119 T01560128,KCSV,2023-06-07T03:53:00Z,35.95,-85.08,15.6,12.8,0,0,,9.0,29.929134,1011.9,,TRUE,TRUE,,,,,,,CLR,,,,,,,,VFR,,,,,,,,,,,,METAR,569.0
KCSM 070353Z 10004KT 10SM FEW120 19/17 A2997 RMK AO2 SLP129 T01890172,KCSM,2023-06-07T03:53:00Z,35.35,-99.2,18.9,17.2,100,4,,10.0,29.970472,1012.9,,,TRUE,,,,,,,FEW,12000,,,,,,,VFR,,,,,,,,,,,,METAR,586.0
KCRS 070353Z AUTO 10003KT 10SM CLR 25/21 A2990 RMK AO2 SLP120 T02500206,KCRS,2023-06-07T03:53:00Z,32.03,-96.4,25.0,20.6,100,3,,10.0,29.899607,1012.0,,TRUE,TRUE,,,,,,,CLR,,,,,,,,VFR,,,,,,,,,,,,METAR,136.0
KCRQ 070353Z AUTO 25007KT 10SM FEW021 OVC035 17/12 A2991 RMK AO2 SLP128 T01670117,KCRQ,2023-06-07T03:53:00Z,33.13,-117.28,16.7,11.7,250,7,,10.0,29.911417,1012.8,,TRUE,TRUE,,,,,,,FEW,2100,OVC,3500,,,,,VFR,,,,,,,,,,,,METAR,96.0
KCRG 070353Z AUTO 15003KT 10SM OVC070 24/21 A2991 RMK AO2 RAB05E24 SLP129 P0013 T02440211,KCRG,2023-06-07T03:53:00Z,30.33,-81.52,24.4,21.1,150,3,,10.0,29.911417,1012.9,,TRUE,TRUE,,,,,,,OVC,7000,,,,,,,VFR,,,,,,0.13,,,,,,METAR,12.0
KCRE 070353Z AUTO 26003KT 10SM CLR 22/18 A2980 RMK AO1 SLP090 T02220183,KCRE,2023-06-07T03:53:00Z,33.82,-78.72,22.2,18.3,260,3,,10.0,29.799213,1009.0,,TRUE,TRUE,,,,,,,CLR,,,,,,,,VFR,,,,,,,,,,,,METAR,9.0
KCPS 070353Z AUTO 00000KT 10SM CLR 22/16 A2987 RMK AO2 SLP112 T02170156,KCPS,2023-06-07T03:53:00Z,38.53,-90.15,21.7,15.6,0,0,,10.0,29.870079,1011.2,,TRUE,TRUE,,,,,,,CLR,,,,,,,,VFR,,,,,,,,,,,,METAR,125.0
KCPR 070353Z AUTO 00000KT 10SM CLR 15/13 A2999 RMK AO2 SLP100 T01500128,KCPR,2023-06-07T03:53:00Z,42.9,-106.47,15.0,12.8,0,0,,10.0,29.991142,1010.0,,TRUE,TRUE,,,,,,,CLR,,,,,,,,VFR,,,,,,,,,,,,METAR,1623.0
KCOT 070353Z AUTO 10005KT 10SM CLR 27/19 A2986 RMK AO2 SLP104 T02720194,KCOT,2023-06-07T03:53:00Z,28.45,-99.22,27.2,19.4,100,5,,10.0,29.861221,1010.4,,TRUE,TRUE,,,,,,,CLR,,,,,,,,VFR,,,,,,,,,,,,METAR,144.0
KCNY 070353Z AUTO 03018G27KT 10SM SCT110 18/09 A2993 RMK AO2 PK WND 04035/0328 RAB0256E18 SLP081 P0000 T01830094 $,KCNY,2023-06-07T03:53:00Z,38.77,-109.75,18.3,9.4,30,18,27,10.0,29.929134,1008.1,,TRUE,TRUE,TRUE,,,,,,SCT,11000,,,,,,,VFR,,,,,,0.005,,,,,,METAR,1392.0
KCNO 070353Z AUTO 26010KT 10SM BKN046 16/09 A2992 RMK AO2 SLP128 LAST T01560094,KCNO,2023-06-07T03:53:00Z,33.98,-117.62,15.6,9.4,260,10,,10.0,29.920275,1012.8,,TRUE,TRUE,,,,,,,BKN,4600,,,,,,,VFR,,,,,,,,,,,,METAR,191.0
KCNM 070353Z AUTO 28018G25KT 10SM OVC085 23/10 A3002 RMK AO2 WSHFT 0329 SLP114 T02330100,KCNM,2023-06-07T03:53:00Z,32.33,-104.25,23.3,10.0,280,18,25,10.0,30.02067,1011.4,,TRUE,TRUE,,,,,,,OVC,8500,,,,,,,VFR,,,,,,,,,,,,METAR,993.0
KCMX 070353Z AUTO 00000KT 10SM CLR 09/06 A3004 RMK AO2 SLP175 T00890056,KCMX,2023-06-07T03:53:00Z,47.17,-88.48,8.9,5.6,0,0,,10.0,30.041338,1017.5,,TRUE,TRUE,,,,,,,CLR,,,,,,,,VFR,,,,,,,,,,,,METAR,326.0
KCMI 070353Z 05010KT 8SM OVC070 20/14 A2989 RMK AO2 RAB41E50 SLP116 P0000 T02000144,KCMI,2023-06-07T03:53:00Z,40.03,-88.27,20.0,14.4,50,10,,8.0,29.890747,1011.6,,,TRUE,,,,,,,OVC,7000,,,,,,,VFR,,,,,,0.005,,,,,,METAR,227.0
KCLM 070353Z AUTO 23004KT 10SM CLR 19/06 A2982 RMK AO2 SLP096 T01940056,KCLM,2023-06-07T03:53:00Z,48.12,-123.5,19.4,5.6,230,4,,10.0,29.819881,1009.6,,TRUE,TRUE,,,,,,,CLR,,,,,,,,VFR,,,,,,,,,,,,METAR,81.0
KCLL 070353Z AUTO 15004KT 10SM CLR 24/19 A2989 RMK AO2 SLP116 T02440189,KCLL,2023-06-07T03:53:00Z,30.58,-96.37,24.4,18.9,150,4,,10.0,29.890747,1011.6,,TRUE,TRUE,,,,,,,CLR,,,,,,,,VFR,,,,,,,,,,,,METAR,96.0
KCHO 070353Z AUTO 29003KT 9SM CLR 21/09 A2976 RMK AO2 SLP071 T02110089 PWINO,KCHO,2023-06-07T03:53:00Z,38.13,-78.45,21.1,8.9,290,3,,9.0,29.760826,1007.1,,TRUE,TRUE,,,,,TRUE,,CLR,,,,,,,,VFR,,,,,,,,,,,,METAR,193.0
KCHA 070353Z 34003KT 10SM CLR 22/16 A2988 RMK AO2 SLP108 LAST T02170156,KCHA,2023-06-07T03:53:00Z,35.03,-85.2,21.7,15.6,340,3,,10.0,29.878937,1010.8,,,TRUE,,,,,,,CLR,,,,,,,,VFR,,,,,,,,,,,,METAR,203.0
KCGI 070353Z AUTO 00000KT 10SM CLR 18/16 A2988 RMK AO2 SLP114 T01830156,KCGI,2023-06-07T03:53:00Z,37.23,-89.58,18.3,15.6,0,0,,10.0,29.878937,1011.4,,TRUE,TRUE,,,,,,,CLR,,,,,,,,VFR,,,,,,,,,,,,METAR,103.0
KCEZ 070353Z AUTO 17007KT 10SM CLR 14/07 A3007 RMK AO2 SLP117 T01390072,KCEZ,2023-06-07T03:53:00Z,37.3,-108.63,13.9,7.2,170,7,,10.0,30.070866,1011.7,,TRUE,TRUE,,,,,,,CLR,,,,,,,,VFR,,,,,,,,,,,,METAR,1801.0
KCEW 070353Z AUTO 00000KT 4SM BR CLR 21/20 A2991 RMK AO2 SLP126 T02060200,KCEW,2023-06-07T03:53:00Z,30.78,-86.52,20.6,20.0,0,0,,4.0,29.911417,1012.6,,TRUE,TRUE,,,,,,BR,CLR,,,,,,,,MVFR,,,,,,,,,,,,METAR,47.0
KCDW 070353Z 00000KT 5SM HZ OVC042 17/07 A2967 RMK AO2 SLP051 T01670067,KCDW,2023-06-07T03:53:00Z,40.88,-74.28,16.7,6.7,0,0,,5.0,29.66929,1005.1,,,TRUE,,,,,,HZ,OVC,4200,,,,,,,MVFR,,,,,,,,,,,,METAR,52.0
KCDS 070353Z AUTO 10004KT 10SM CLR 22/16 A2997 RMK AO2 SLP125 T02220161,KCDS,2023-06-07T03:53:00Z,34.43,-100.28,22.2,16.1,100,4,,10.0,29.970472,1012.5,,TRUE,TRUE,,,,,,,CLR,,,,,,,,VFR,,,,,,,,,,,,METAR,595.0
KCDR 070353Z AUTO 14009KT 10SM CLR 18/12 A2994 RMK AO2 SLP118 T01780122 $,KCDR,2023-06-07T03:53:00Z,42.83,-103.1,17.8,12.2,140,9,,10.0,29.940945,1011.8,,TRUE,TRUE,TRUE,,,,,,CLR,,,,,,,,VFR,,,,,,,,,,,,METAR,1002.0
KCDC 070353Z AUTO 19005KT 10SM CLR 17/M06 A2993 RMK AO2 SLP064 T01721061 $,KCDC,2023-06-07T03:53:00Z,37.7,-113.1,17.2,-6.1,190,5,,10.0,29.929134,1006.4,,TRUE,TRUE,TRUE,,,,,,CLR,,,,,,,,VFR,,,,,,,,,,,,METAR,1703.0
KCAG 070353Z AUTO 00000KT 10SM BKN100 13/06 A3008 RMK AO2 SLP126 T01280056,KCAG,2023-06-07T03:53:00Z,40.5,-107.52,12.8,5.6,0,0,,10.0,30.079725,1012.6,,TRUE,TRUE,,,,,,,BKN,10000,,,,,,,VFR,,,,,,,,,,,,METAR,1888.0
KBYI 070353Z AUTO 07006KT 10SM CLR 19/07 A2988 RMK AO2 SLP079 T01890072,KBYI,2023-06-07T03:53:00Z,42.55,-113.77,18.9,7.2,70,6,,10.0,29.878937,1007.9,,TRUE,TRUE,,,,,,,CLR,,,,,,,,VFR,,,,,,,,,,,,METAR,1263.0
KBYG 070353Z AUTO 31004KT 10SM BKN110 19/13 A3003 RMK AO2 LTG DSNT E SLP112 T01890133,KBYG,2023-06-07T03:53:00Z,44.38,-106.72,18.9,13.3,310,4,,10.0,30.029528,1011.2,,TRUE,TRUE,,,,,,,BKN,11000,,,,,,,VFR,,,,,,,,,,,,METAR,1503.0
KBWG 070353Z AUTO 00000KT 7SM CLR 21/13 A2987 RMK AO2 SLP110 T02110128,KBWG,2023-06-07T03:53:00Z,36.97,-86.42,21.1,12.8,0,0,,7.0,29.870079,1011.0,,TRUE,TRUE,,,,,,,CLR,,,,,,,,VFR,,,,,,,,,,,,METAR,159.0
KBVY 070353Z AUTO 29008KT 10SM BKN100 BKN120 15/07 A2953 RMK AO2 RAE10 SLP994 P0000 T01500067,KBVY,2023-06-07T03:53:00Z,42.58,-70.92,15.0,6.7,290,8,,10.0,29.530512,999.4,,TRUE,TRUE,,,,,,,BKN,10000,BKN,12000,,,,,VFR,,,,,,0.005,,,,,,METAR,28.0
KBVO 070353Z AUTO 00000KT 10SM CLR 19/16 A2994 RMK AO2 SLP128 T01940161,KBVO,2023-06-07T03:53:00Z,36.77,-96.02,19.4,16.1,0,0,,10.0,29.940945,1012.8,,TRUE,TRUE,,,,,,,CLR,,,,,,,,VFR,,,,,,,,,,,,METAR,210.0
KBUR 070353Z 18006KT 10SM OVC033 16/09 A2991 RMK AO2 SLP120 T01560089 $,KBUR,2023-06-07T03:53:00Z,34.2,-118.37,15.6,8.9,180,6,,10.0,29.911417,1012.0,,,TRUE,TRUE,,,,,,OVC,3300,,,,,,,VFR,,,,,,,,,,,,METAR,221.0
KBTR 070353Z 00000KT 10SM SCT060 23/19 A2989 RMK AO2 SLP119 T02280194,KBTR,2023-06-07T03:53:00Z,30.53,-91.15,22.8,19.4,0,0,,10.0,29.890747,1011.9,,,TRUE,,,,,,,SCT,6000,,,,,,,VFR,,,,,,,,,,,,METAR,20.0
KBTM 070353Z AUTO 10SM FEW120 14/13 A3004 RMK AO2 SLP131 T01390128 $,KBTM,2023-06-07T03:53:00Z,45.97,-112.5,13.9,12.8,,,,10.0,30.041338,1013.1,,TRUE,TRUE,TRUE,,,,,,FEW,12000,,,,,,,VFR,,,,,,,,,,,,METAR,1680.0
KBTL 070353Z AUTO 00000KT 10SM CLR 14/08 A2992 RMK AO2 SLP127 T01390083,KBTL,2023-06-07T03:53:00Z,42.32,-85.25,13.9,8.3,0,0,,10.0,29.920275,1012.7,,TRUE,TRUE,,,,,,,CLR,,,,,,,,VFR,,,,,,,,,,,,METAR,282.0
KBRO 070353Z 10003KT 10SM CLR 25/23 A2986 RMK AO2 SLP111 T02500228,KBRO,2023-06-07T03:53:00Z,25.92,-97.42,25.0,22.8,100,3,,10.0,29.861221,1011.1,,,TRUE,,,,,,,CLR,,,,,,,,VFR,,,,,,,,,,,,METAR,6.0
KBRL 070353Z AUTO 02004KT 10SM FEW110 23/16 A2988 RMK AO2 SLP111 T02280161,KBRL,2023-06-07T03:53:00Z,40.77,-91.13,22.8,16.1,20,4,,10.0,29.878937,1011.1,,TRUE,TRUE,,,,,,,FEW,11000,,,,,,,VFR,,,,,,,,,,,,METAR,208.0
KBRD 070353Z AUTO 08005KT 9SM CLR 17/11 A2997 RMK AO2 SLP147 T01670106,KBRD,2023-06-07T03:53:00Z,46.4,-94.13,16.7,10.6,80,5,,9.0,29.970472,1014.7,,TRUE,TRUE,,,,,,,CLR,,,,,,,,VFR,,,,,,,,,,,,METAR,372.0
KBPT 070353Z AUTO 00000KT 10SM CLR 21/19 A2987 RMK AO2 SLP113 T02110194,KBPT,2023-06-07T03:53:00Z,29.95,-94.03,21.1,19.4,0,0,,10.0,29.870079,1011.3,,TRUE,TRUE,,,,,,,CLR,,,,,,,,VFR,,,,,,,,,,,,METAR,6.0
KBPK 070353Z AUTO 00000KT 10SM CLR 19/15 A2992 RMK AO2 SLP124 T01890150,KBPK,2023-06-07T03:53:00Z,36.37,-92.47,18.9,15.0,0,0,,10.0,29.920275,1012.4,,TRUE,TRUE,,,,,,,CLR,,,,,,,,VFR,,,,,,,,,,,,METAR,279.0
KBPI 070353Z AUTO 07009KT 10SM CLR 11/08 A3013 RMK AO2 SLP125 T01110083,KBPI,2023-06-07T03:53:00Z,42.58,-110.1,11.1,8.3,70,9,,10.0,30.129921,1012.5,,TRUE,TRUE,,,,,,,CLR,,,,,,,,VFR,,,,,,,,,,,,METAR,2120.0
KBOI 070353Z 10011KT 10SM -RA FEW070 BKN100 BKN120 18/13 A2986 RMK AO2 PK WND 18027/0309 WSHFT 0257 LTG DSNT N AND NE AND SW RAB0257 TSE0255B0256E14B15E18B20E22B26E27B39E40 SLP088 P0002 T01780133,KBOI,2023-06-07T03:53:00Z,43.57,-116.23,17.8,13.3,100,11,,10.0,29.861221,1008.8,,,TRUE,,,,,,-RA,FEW,7000,BKN,10000,BKN,12000,,,VFR,,,,,,0.02,,,,,,METAR,860.0
KBNO 070353Z AUTO 06005KT 10SM CLR 19/10 A2986 RMK AO2 SLP072 T01940100,KBNO,2023-06-07T03:53:00Z,43.6,-118.95,19.4,10.0,60,5,,10.0,29.861221,1007.2,,TRUE,TRUE,,,,,,,CLR,,,,,,,,VFR,,,,,,,,,,,,METAR,1263.0
KBNA 070353Z 00000KT 7SM CLR 23/11 A2989 RMK AO2 SLP115 T02330111,KBNA,2023-06-07T03:53:00Z,36.12,-86.68,23.3,11.1,0,0,,7.0,29.890747,1011.5,,,TRUE,,,,,,,CLR,,,,,,,,VFR,,,,,,,,,,,,METAR,168.0
KBMQ 070353Z AUTO 05003KT 10SM CLR 23/20 A2993 RMK AO2 SLP119 T02330200,KBMQ,2023-06-07T03:53:00Z,30.73,-98.23,23.3,20.0,50,3,,10.0,29.929134,1011.9,,TRUE,TRUE,,,,,,,CLR,,,,,,,,VFR,,,,,,,,,,,,METAR,387.0
KBMG 070353Z 01005KT 7SM -RA BKN085 22/13 A2987 RMK AO2 RAB43 SLP107 P0000 T02170133,KBMG,2023-06-07T03:53:00Z,39.15,-86.62,21.7,13.3,10,5,,7.0,29.870079,1010.7,,,TRUE,,,,,,-RA,BKN,8500,,,,,,,VFR,,,,,,0.005,,,,,,METAR,254.0
KBLI 070353Z 00000KT 10SM CLR 18/13 A2978 RMK AO2 SLP090 T01780133,KBLI,2023-06-07T03:53:00Z,48.8,-122.53,17.8,13.3,0,0,,10.0,29.778543,1009.0,,,TRUE,,,,,,,CLR,,,,,,,,VFR,,,,,,,,,,,,METAR,46.0
KBKV 070353Z AUTO 00000KT 10SM CLR 22/21 A2992 RMK AO2 SLP129 T02220206,KBKV,2023-06-07T03:53:00Z,28.47,-82.45,22.2,20.6,0,0,,10.0,29.920275,1012.9,,TRUE,TRUE,,,,,,,CLR,,,,,,,,VFR,,,,,,,,,,,,METAR,21.0
KBKL 070353Z 01007KT 4SM HZ CLR 16/09 A2984 RMK AO2 SLP105 T01560094,KBKL,2023-06-07T03:53:00Z,41.53,-81.67,15.6,9.4,10,7,,4.0,29.840551,1010.5,,,TRUE,,,,,,HZ,CLR,,,,,,,,MVFR,,,,,,,,,,,,METAR,177.0
KBKE 070353Z AUTO 29010KT 10SM SCT085 21/09 A2982 RMK AO2 SLP074 T02060089,KBKE,2023-06-07T03:53:00Z,44.85,-117.82,20.6,8.9,290,10,,10.0,29.819881,1007.4,,TRUE,TRUE,,,,,,,SCT,8500,,,,,,,VFR,,,,,,,,,,,,METAR,1025.0
KBIV 070353Z AUTO 10003KT 10SM CLR 16/08 A2991 RMK AO2 SLP127 T01560083,KBIV,2023-06-07T03:53:00Z,42.75,-86.1,15.6,8.3,100,3,,10.0,29.911417,1012.7,,TRUE,TRUE,,,,,,,CLR,,,,,,,,VFR,,,,,,,,,,,,METAR,207.0
KBIL 070353Z 24007KT 10SM FEW120 BKN250 18/12 A2998 RMK AO2 SLP126 OCNL LTG CB DSNT NE-SE T01780122,KBIL,2023-06-07T03:53:00Z,45.8,-108.55,17.8,12.2,240,7,,10.0,29.97933,1012.6,,,TRUE,,,,,,,FEW,12000,BKN,25000,,,,,VFR,,,,,,,,,,,,METAR,1089.0
KBHM 070353Z 00000KT 10SM CLR 22/19 A2991 RMK AO2 SLP119 T02220189,KBHM,2023-06-07T03:53:00Z,33.57,-86.75,22.2,18.9,0,0,,10.0,29.911417,1011.9,,,TRUE,,,,,,,CLR,,,,,,,,VFR,,,,,,,,,,,,METAR,191.0
KBGR 070353Z 30006KT 10SM BKN040 OVC070 11/09 A2940 RMK AO2 SLP953 T01110089,KBGR,2023-06-07T03:53:00Z,44.8,-68.82,11.1,8.9,300,6,,10.0,29.40059,995.3,,,TRUE,,,,,,,BKN,4000,OVC,7000,,,,,VFR,,,,,,,,,,,,METAR,45.0
KBFM 070353Z AUTO 26003KT 10SM CLR 21/19 A2990 RMK AO2 SLP124 T02110194,KBFM,2023-06-07T03:53:00Z,30.62,-88.07,21.1,19.4,260,3,,10.0,29.899607,1012.4,,TRUE,TRUE,,,,,,,CLR,,,,,,,,VFR,,,,,,,,,,,,METAR,7.0
KBFI 070353Z 33003KT 10SM CLR 23/06 A2977 RMK AO2 SLP080 T02330056,KBFI,2023-06-07T03:53:00Z,47.55,-122.32,23.3,5.6,330,3,,10.0,29.769686,1008.0,,,TRUE,,,,,,,CLR,,,,,,,,VFR,,,,,,,,,,,,METAR,7.0
KBFF 070353Z AUTO 11006KT 10SM CLR 19/13 A2997 RMK AO2 SLP107 T01890128,KBFF,2023-06-07T03:53:00Z,41.87,-103.6,18.9,12.8,110,6,,10.0,29.970472,1010.7,,TRUE,TRUE,,,,,,,CLR,,,,,,,,VFR,,,,,,,,,,,,METAR,1204.0
KBFD 070353Z AUTO 30003KT 5SM HZ OVC045 11/05 A2980 RMK AO2 SLP082 T01060050,KBFD,2023-06-07T03:53:00Z,41.8,-78.63,10.6,5.0,300,3,,5.0,29.799213,1008.2,,TRUE,TRUE,,,,,,HZ,OVC,4500,,,,,,,MVFR,,,,,,,,,,,,METAR,642.0
KBDE 070353Z AUTO 13010KT 10SM CLR 20/14 A2994 RMK AO2 SLP138 T02000139,KBDE,2023-06-07T03:53:00Z,48.73,-94.62,20.0,13.9,130,10,,10.0,29.940945,1013.8,,TRUE,TRUE,,,,,,,CLR,,,,,,,,VFR,,,,,,,,,,,,METAR,330.0
KBCE 070353Z AUTO 13008KT 10SM BKN110 16/M05 A3008 RMK AO2 SLP069 T01561050,KBCE,2023-06-07T03:53:00Z,37.7,-112.15,15.6,-5.0,130,8,,10.0,30.079725,1006.9,,TRUE,TRUE,,,,,,,BKN,11000,,,,,,,VFR,,,,,,,,,,,,METAR,2311.0
KBBW 070353Z AUTO 00000KT 10SM CLR 19/17 A2996 RMK AO2 SLP125 T01890167,KBBW,2023-06-07T03:53:00Z,41.43,-99.63,18.9,16.7,0,0,,10.0,29.958662,1012.5,,TRUE,TRUE,,,,,,,CLR,,,,,,,,VFR,,,,,,,,,,,,METAR,771.0
KBAF 070353Z AUTO 34005KT 10SM CLR 12/06 A2960 RMK AO2 SLP023 T01220061,KBAF,2023-06-07T03:53:00Z,42.17,-72.72,12.2,6.1,340,5,,10.0,29.601377,1002.3,,TRUE,TRUE,,,,,,,CLR,,,,,,,,VFR,,,,,,,,,,,,METAR,80.0
KAZO 070353Z AUTO 00000KT 10SM CLR 15/09 A2991 RMK AO2 SLP127 T01500089,KAZO,2023-06-07T03:53:00Z,42.23,-85.55,15.0,8.9,0,0,,10.0,29.911417,1012.7,,TRUE,TRUE,,,,,,,CLR,,,,,,,,VFR,,,,,,,,,,,,METAR,264.0
KAWM 070353Z AUTO 34003KT 9SM CLR 21/18 A2988 RMK AO2 SLP113 T02110183,KAWM,2023-06-07T03:53:00Z,35.13,-90.23,21.1,18.3,340,3,,9.0,29.878937,1011.3,,TRUE,TRUE,,,,,,,CLR,,,,,,,,VFR,,,,,,,,,,,,METAR,64.0
KAUS 070353Z 25003KT 10SM SCT120 23/21 A2988 RMK AO2 SLP110 T02280206 $,KAUS,2023-06-07T03:53:00Z,30.18,-97.68,22.8,20.6,250,3,,10.0,29.878937,1011.0,,,TRUE,TRUE,,,,,,SCT,12000,,,,,,,VFR,,,,,,,,,,,,METAR,148.0
KAUG 070353Z AUTO 27006KT 10SM BKN065 OVC085 11/09 A2945 RMK AO2 RAE41 SLP974 P0001 T01110089,KAUG,2023-06-07T03:53:00Z,44.32,-69.8,11.1,8.9,270,6,,10.0,29.450787,997.4,,TRUE,TRUE,,,,,,,BKN,6500,OVC,8500,,,,,VFR,,,,,,0.01,,,,,,METAR,107.0
KATY 070353Z AUTO 14003KT 10SM CLR 24/15 A2989 RMK AO2 SLP106 T02440150,KATY,2023-06-07T03:53:00Z,44.9,-97.15,24.4,15.0,140,3,,10.0,29.890747,1010.6,,TRUE,TRUE,,,,,,,CLR,,,,,,,,VFR,,,,,,,,,,,,METAR,531.0
KASX 070353Z AUTO 06006KT 10SM BKN120 09/06 A3005 RMK AO2 SLP178 T00940056,KASX,2023-06-07T03:53:00Z,46.55,-90.92,9.4,5.6,60,6,,10.0,30.050198,1017.8,,TRUE,TRUE,,,,,,,BKN,12000,,,,,,,VFR,,,,,,,,,,,,METAR,249.0
KASE 070353Z AUTO 21007KT 10SM CLR 11/04 A3016 RMK AO2 SLP106 T01110039,KASE,2023-06-07T03:53:00Z,39.23,-106.87,11.1,3.9,210,7,,10.0,30.159449,1010.6,,TRUE,TRUE,,,,,,,CLR,,,,,,,,VFR,,,,,,,,,,,,METAR,2384.0
KASD 070353Z AUTO 00000KT 10SM CLR 22/21 A2988 RMK AO2 SLP117 T02220211,KASD,2023-06-07T03:53:00Z,30.35,-89.82,22.2,21.1,0,0,,10.0,29.878937,1011.7,,TRUE,TRUE,,,,,,,CLR,,,,,,,,VFR,,,,,,,,,,,,METAR,8.0
KARB 070353Z AUTO 02004KT 6SM HZ CLR 13/04 A2990 RMK AO2 SLP122 T01280039,KARB,2023-06-07T03:53:00Z,42.22,-83.73,12.8,3.9,20,4,,6.0,29.899607,1012.2,,TRUE,TRUE,,,,,,HZ,CLR,,,,,,,,VFR,,,,,,,,,,,,METAR,251.0
KARA 070353Z AUTO 00000KT 10SM CLR 23/20 A2987 RMK AO2 SLP114 T02330200,KARA,2023-06-07T03:53:00Z,30.03,-91.88,23.3,20.0,0,0,,10.0,29.870079,1011.4,,TRUE,TRUE,,,,,,,CLR,,,,,,,,VFR,,,,,,,,,,,,METAR,5.0
KAPF 070353Z AUTO 06005KT 10SM FEW027 24/23 A2990 RMK AO2 SLP125 T02440228 PWINO,KAPF,2023-06-07T03:53:00Z,26.15,-81.77,24.4,22.8,60,5,,10.0,29.899607,1012.5,,TRUE,TRUE,,,,,TRUE,,FEW,2700,,,,,,,VFR,,,,,,,,,,,,METAR,2.0
KAPA 070353Z 17006KT 10SM SCT140 BKN200 15/08 A3008 RMK AO2 SLP137 T01500078,KAPA,2023-06-07T03:53:00Z,39.57,-104.85,15.0,7.8,170,6,,10.0,30.079725,1013.7,,,TRUE,,,,,,,SCT,14000,BKN,20000,,,,,VFR,,,,,,,,,,,,METAR,1791.0
KAOO 070353Z AUTO 10SM CLR 16/03 A2977 RMK AO2 SLP073 T01560033 $,KAOO,2023-06-07T03:53:00Z,40.3,-78.32,15.6,3.3,,,,10.0,29.769686,1007.3,,TRUE,TRUE,TRUE,,,,,,CLR,,,,,,,,VFR,,,,,,,,,,,,METAR,450.0
KAOH 070353Z AUTO 06004KT 9SM FEW060 17/11 A2987 RMK AO2 SLP108 T01670106,KAOH,2023-06-07T03:53:00Z,40.7,-84.02,16.7,10.6,60,4,,9.0,29.870079,1010.8,,TRUE,TRUE,,,,,,,FEW,6000,,,,,,,VFR,,,,,,,,,,,,METAR,294.0
KANB 070353Z AUTO 00000KT 10SM CLR 21/19 A2988 RMK AO2 SLP108 T02060189,KANB,2023-06-07T03:53:00Z,33.58,-85.85,20.6,18.9,0,0,,10.0,29.878937,1010.8,,TRUE,TRUE,,,,,,,CLR,,,,,,,,VFR,,,,,,,,,,,,METAR,187.0
KAMW 070353Z AUTO 00000KT 10SM BKN120 21/18 A2989 RMK AO2 SLP111 T02060183,KAMW,2023-06-07T03:53:00Z,41.98,-93.62,20.6,18.3,0,0,,10.0,29.890747,1011.1,,TRUE,TRUE,,,,,,,BKN,12000,,,,,,,VFR,,,,,,,,,,,,METAR,282.0
KAMG 070353Z AUTO 26005KT 9SM CLR 25/19 A2988 RMK AO2 SLP116 T02500194,KAMG,2023-06-07T03:53:00Z,31.53,-82.5,25.0,19.4,260,5,,9.0,29.878937,1011.6,,TRUE,TRUE,,,,,,,CLR,,,,,,,,VFR,,,,,,,,,,,,METAR,61.0
KAMA 070353Z 14009KT 10SM FEW090 19/13 A3003 RMK AO2 SLP124 T01890133,KAMA,2023-06-07T03:53:00Z,35.22,-101.72,18.9,13.3,140,9,,10.0,30.029528,1012.4,,,TRUE,,,,,,,FEW,9000,,,,,,,VFR,,,,,,,,,,,,METAR,1102.0
KALW 070353Z AUTO 15007KT 10SM CLR 26/12 A2973 RMK AO2 SLP059 T02610117,KALW,2023-06-07T03:53:00Z,46.1,-118.28,26.1,11.7,150,7,,10.0,29.731298,1005.9,,TRUE,TRUE,,,,,,,CLR,,,,,,,,VFR,,,,,,,,,,,,METAR,355.0
KALI 070353Z AUTO 16005KT 10SM CLR 22/21 A2986 RMK AO2 SLP107 T02170211,KALI,2023-06-07T03:53:00Z,27.73,-98.02,21.7,21.1,160,5,,10.0,29.861221,1010.7,,TRUE,TRUE,,,,,,,CLR,,,,,,,,VFR,,,,,,,,,,,,METAR,52.0
KAKO 070353Z AUTO 14011KT 10SM SCT070 18/11 A3004 RMK AO2 SLP124 T01780111,KAKO,2023-06-07T03:53:00Z,40.17,-103.22,17.8,11.1,140,11,,10.0,30.041338,1012.4,,TRUE,TRUE,,,,,,,SCT,7000,,,,,,,VFR,,,,,,,,,,,,METAR,1431.0
KAIA 070353Z AUTO 14007KT 10SM CLR 14/11 A2998 RMK AO2 SLP117 T01440111,KAIA,2023-06-07T03:53:00Z,42.05,-102.8,14.4,11.1,140,7,,10.0,29.97933,1011.7,,TRUE,TRUE,,,,,,,CLR,,,,,,,,VFR,,,,,,,,,,,,METAR,1198.0
KAGS 070353Z 25005KT 10SM VCTS CLR 21/17 A2981 RMK AO2 SLP091 T02060167,KAGS,2023-06-07T03:53:00Z,33.37,-81.97,20.6,16.7,250,5,,10.0,29.811024,1009.1,,,TRUE,,,,,,VCTS,CLR,,,,,,,,VFR,,,,,,,,,,,,METAR,40.0
KAGC 070353Z 34006KT 10SM CLR 16/05 A2979 RMK AO2 SLP085 T01610050,KAGC,2023-06-07T03:53:00Z,40.35,-79.92,16.1,5.0,340,6,,10.0,29.790354,1008.5,,,TRUE,,,,,,,CLR,,,,,,,,VFR,,,,,,,,,,,,METAR,380.0
KAFW 070353Z 02005KT 10SM SCT170 SCT250 22/17 A2990 RMK AO2 SLP111 T02220167,KAFW,2023-06-07T03:53:00Z,32.97,-97.32,22.2,16.7,20,5,,10.0,29.899607,1011.1,,,TRUE,,,,,,,SCT,17000,SCT,25000,,,,,VFR,,,,,,,,,,,,METAR,208.0
KAEX 070353Z 18003KT 10SM CLR 23/20 A2987 RMK AO2 SLP117 T02330200,KAEX,2023-06-07T03:53:00Z,31.33,-92.57,23.3,20.0,180,3,,10.0,29.870079,1011.7,,,TRUE,,,,,,,CLR,,,,,,,,VFR,,,,,,,,,,,,METAR,25.0
KADG 070353Z AUTO 02006KT 10SM CLR 14/06 A2991 RMK AO2 SLP127 T01390056 $,KADG,2023-06-07T03:53:00Z,41.87,-84.08,13.9,5.6,20,6,,10.0,29.911417,1012.7,,TRUE,TRUE,TRUE,,,,,,CLR,,,,,,,,VFR,,,,,,,,,,,,METAR,244.0
KACK 070353Z AUTO 29006KT 6SM BR FEW065 FEW100 13/11 RMK AO2 SLPNO T01280106 $,KACK,2023-06-07T03:53:00Z,41.25,-70.07,12.8,10.6,290,6,,6.0,,,,TRUE,TRUE,TRUE,,,,,BR,FEW,6500,FEW,10000,,,,,VFR,,,,,,,,,,,,METAR,12.0
KABY 070353Z AUTO 21004KT 10SM CLR 22/18 A2991 RMK AO2 SLP126 T02220178,KABY,2023-06-07T03:53:00Z,31.53,-84.2,22.2,17.8,210,4,,10.0,29.911417,1012.6,,TRUE,TRUE,,,,,,,CLR,,,,,,,,VFR,,,,,,,,,,,,METAR,60.0
KABR 070353Z AUTO 07006KT 10SM OVC095 26/17 A2986 RMK AO2 SLP099 T02560167,KABR,2023-06-07T03:53:00Z,45.45,-98.42,25.6,16.7,70,6,,10.0,29.861221,1009.9,,TRUE,TRUE,,,,,,,OVC,9500,,,,,,,VFR,,,,,,,,,,,,METAR,397.0
KAAF 070353Z AUTO 00000KT 10SM CLR 22/21 A2989 RMK AO2 SLP122 T02220206,KAAF,2023-06-07T03:53:00Z,29.73,-85.03,22.2,20.6,0,0,,10.0,29.890747,1012.2,,TRUE,TRUE,,,,,,,CLR,,,,,,,,VFR,,,,,,,,,,,,METAR,5.0
PABA 070352Z AUTO 05012KT 10SM BKN110 02/00 A3002 RMK AO2 SLP171 T00170000 FZRANO,PABA,2023-06-07T03:52:00Z,70.13,-143.58,1.7,0.0,50,12,,10.0,30.02067,1017.1,,TRUE,TRUE,,,,TRUE,,,BKN,11000,,,,,,,VFR,,,,,,,,,,,,METAR,1.0
KVTN 070352Z AUTO 17005KT 10SM CLR 20/14 A2994 RMK AO2 SLP119 T02000144,KVTN,2023-06-07T03:52:00Z,42.87,-100.55,20.0,14.4,170,5,,10.0,29.940945,1011.9,,TRUE,TRUE,,,,,,,CLR,,,,,,,,VFR,,,,,,,,,,,,METAR,790.0
KTRM 070352Z AUTO 34015G24KT 8SM CLR 24/08 A2969 RMK AO2 SLP057 T02390083 $,KTRM,2023-06-07T03:52:00Z,33.63,-116.17,23.9,8.3,340,15,24,8.0,29.68996,1005.7,,TRUE,TRUE,TRUE,,,,,,CLR,,,,,,,,VFR,,,,,,,,,,,,METAR,-39.0
KTOL 070352Z 03004KT 10SM CLR 14/06 A2989 RMK AO2 SLP117 T01440061,KTOL,2023-06-07T03:52:00Z,41.58,-83.8,14.4,6.1,30,4,,10.0,29.890747,1011.7,,,TRUE,,,,,,,CLR,,,,,,,,VFR,,,,,,,,,,,,METAR,206.0
KSUX 070352Z AUTO 10SM FEW095 23/15 A2988 RMK AO2 SLP128 T02280150 $,KSUX,2023-06-07T03:52:00Z,42.38,-96.38,22.8,15.0,,,,10.0,29.878937,1012.8,,TRUE,TRUE,TRUE,,,,,,FEW,9500,,,,,,,VFR,,,,,,,,,,,,METAR,332.0
KSPS 070352Z 10004KT 10SM CLR 22/18 A2991 RMK AO2 SLP115 T02220183,KSPS,2023-06-07T03:52:00Z,33.98,-98.5,22.2,18.3,100,4,,10.0,29.911417,1011.5,,,TRUE,,,,,,,CLR,,,,,,,,VFR,,,,,,,,,,,,METAR,310.0
KSPI 070352Z AUTO 9SM SCT090 SCT110 24/14 A2987 RMK AO2 SLP110 T02390139,KSPI,2023-06-07T03:52:00Z,39.85,-89.68,23.9,13.9,,,,9.0,29.870079,1011.0,,TRUE,TRUE,,,,,,,SCT,9000,SCT,11000,,,,,VFR,,,,,,,,,,,,METAR,179.0
KSGF 070352Z 00000KT 9SM CLR 19/13 A2994 RMK AO2 SLP127 T01940133 $,KSGF,2023-06-07T03:52:00Z,37.23,-93.38,19.4,13.3,0,0,,9.0,29.940945,1012.7,,,TRUE,TRUE,,,,,,CLR,,,,,,,,VFR,,,,,,,,,,,,METAR,387.0
KREO 070352Z AUTO 07019G27KT 15/11 A2989 RMK AO1 PK WND 07027/0352 WSHFT 0239 SLP094 P0006 T01500111,KREO,2023-06-07T03:52:00Z,42.58,-117.87,15.0,11.1,70,19,27,,29.890747,1009.4,,TRUE,TRUE,,,,,,,,,,,,,,,,,,,,,0.06,,,,,,METAR,1237.0
KRAP 070352Z 19003KT 10SM CLR 18/14 A2992 RMK AO2 SLP110 T01830139,KRAP,2023-06-07T03:52:00Z,44.05,-103.05,18.3,13.9,190,3,,10.0,29.920275,1011.0,,,TRUE,,,,,,,CLR,,,,,,,,VFR,,,,,,,,,,,,METAR,965.0
KPYM 070352Z AUTO 26004KT 10SM BKN055 BKN090 BKN110 12/11 A2955 RMK AO2 SLP008 T01170106,KPYM,2023-06-07T03:52:00Z,41.92,-70.73,11.7,10.6,260,4,,10.0,29.551182,1000.8,,TRUE,TRUE,,,,,,,BKN,5500,BKN,9000,BKN,11000,,,VFR,,,,,,,,,,,,METAR,42.0
KPWK 070352Z AUTO 36007KT 10SM CLR 16/03 A2994 RMK AO2 SLP136 T01560033,KPWK,2023-06-07T03:52:00Z,42.12,-87.9,15.6,3.3,360,7,,10.0,29.940945,1013.6,,TRUE,TRUE,,,,,,,CLR,,,,,,,,VFR,,,,,,,,,,,,METAR,194.0
KP69 070352Z AUTO 00000KT 20/17 A2975 RMK AO1 SLP055 T02000167,KP69,2023-06-07T03:52:00Z,46.15,-115.6,20.0,16.7,0,0,,,29.749016,1005.5,,TRUE,TRUE,,,,,,,,,,,,,,,,,,,,,,,,,,,METAR,447.0
KORE 070352Z AUTO 30005KT 7SM FEW120 13/07 A2960 RMK AO2 SLP023 T01330072,KORE,2023-06-07T03:52:00Z,42.57,-72.28,13.3,7.2,300,5,,7.0,29.601377,1002.3,,TRUE,TRUE,,,,,,,FEW,12000,,,,,,,VFR,,,,,,,,,,,,METAR,165.0
KOMA 070352Z 16004KT 10SM SCT250 25/17 A2989 RMK AO2 SLP113 T02500167,KOMA,2023-06-07T03:52:00Z,41.32,-95.9,25.0,16.7,160,4,,10.0,29.890747,1011.3,,,TRUE,,,,,,,SCT,25000,,,,,,,VFR,,,,,,,,,,,,METAR,299.0
KOKC 070352Z 08005KT 10SM FEW060 SCT120 BKN250 22/17 A2995 RMK AO2 SLP129 T02220167 $,KOKC,2023-06-07T03:52:00Z,35.38,-97.6,22.2,16.7,80,5,,10.0,29.949802,1012.9,,,TRUE,TRUE,,,,,,FEW,6000,SCT,12000,BKN,25000,,,VFR,,,,,,,,,,,,METAR,391.0
KOKB 070352Z AUTO 26006KT 10SM OVC037 17/12 A2991 RMK AO2 SLP129 T01670122,KOKB,2023-06-07T03:52:00Z,33.22,-117.35,16.7,12.2,260,6,,10.0,29.911417,1012.9,,TRUE,TRUE,,,,,,,OVC,3700,,,,,,,VFR,,,,,,,,,,,,METAR,7.0
KNZY 070352Z 26004KT 10SM SCT018 BKN100 16/13 A2992 RMK AO2 SLP130 T01610128,KNZY,2023-06-07T03:52:00Z,32.7,-117.22,16.1,12.8,260,4,,10.0,29.920275,1013.0,,,TRUE,,,,,,,SCT,1800,BKN,10000,,,,,VFR,,,,,,,,,,,,METAR,4.0
KNRB 070352Z 18010KT 10SM -RA SCT060 BKN100 25/22 A2991 RMK AO2 RAB46 SLP127 P0000 T02500217,KNRB,2023-06-07T03:52:00Z,30.38,-81.42,25.0,21.7,180,10,,10.0,29.911417,1012.7,,,TRUE,,,,,,-RA,SCT,6000,BKN,10000,,,,,VFR,,,,,,0.005,,,,,,METAR,4.0
KNHK 070352Z AUTO 24009KT 6SM HZ CLR 22/13 A2968 RMK AO2 SLP052 T02170133 $,KNHK,2023-06-07T03:52:00Z,38.28,-76.4,21.7,13.3,240,9,,6.0,29.681103,1005.2,,TRUE,TRUE,TRUE,,,,,HZ,CLR,,,,,,,,VFR,,,,,,,,,,,,METAR,5.0
KNFW 070352Z 03003KT 10SM SCT150 BKN250 24/17 A2990 RMK AO2 SLP110 T02440172 VISNO S $,KNFW,2023-06-07T03:52:00Z,32.78,-97.43,24.4,17.2,30,3,,10.0,29.899607,1011.0,,,TRUE,TRUE,,,,,,SCT,15000,BKN,25000,,,,,VFR,,,,,,,,,,,,METAR,188.0
KN60 070352Z AUTO 00000KT 22/13 A2986 RMK AO1 SLP099 T02220133,KN60,2023-06-07T03:52:00Z,47.65,-101.43,22.2,13.3,0,0,,,29.861221,1009.9,,TRUE,TRUE,,,,,,,,,,,,,,,,,,,,,,,,,,,METAR,582.0
KMWH 070352Z 02005KT 10SM CLR 26/02 A2976 RMK AO2 SLP070 T02560022,KMWH,2023-06-07T03:52:00Z,47.2,-119.32,25.6,2.2,20,5,,10.0,29.760826,1007.0,,,TRUE,,,,,,,CLR,,,,,,,,VFR,,,,,,,,,,,,METAR,355.0
KMLI 070352Z AUTO 00000KT 8SM OVC100 21/18 A2989 RMK AO2 RAE14 SLP115 P0000 T02110183,KMLI,2023-06-07T03:52:00Z,41.45,-90.52,21.1,18.3,0,0,,8.0,29.890747,1011.5,,TRUE,TRUE,,,,,,,OVC,10000,,,,,,,VFR,,,,,,0.005,,,,,,METAR,174.0
KMLF 070352Z AUTO 15007KT 10SM CLR 18/M06 A2988 RMK AO2 SLP055 T01781056,KMLF,2023-06-07T03:52:00Z,38.42,-113.02,17.8,-5.6,150,7,,10.0,29.878937,1005.5,,TRUE,TRUE,,,,,,,CLR,,,,,,,,VFR,,,,,,,,,,,,METAR,1537.0
KMKE 070352Z 02011G17KT 10SM BKN160 OVC250 15/07 A2994 RMK AO2 SLP140 T01500067,KMKE,2023-06-07T03:52:00Z,42.95,-87.9,15.0,6.7,20,11,17,10.0,29.940945,1014.0,,,TRUE,,,,,,,BKN,16000,OVC,25000,,,,,VFR,,,,,,,,,,,,METAR,203.0
KMHK 070352Z AUTO 00000KT 10SM CLR 21/17 A2992 RMK AO2 SLP124 T02060167,KMHK,2023-06-07T03:52:00Z,39.13,-96.68,20.6,16.7,0,0,,10.0,29.920275,1012.4,,TRUE,TRUE,,,,,,,CLR,,,,,,,,VFR,,,,,,,,,,,,METAR,320.0
KMFD 070352Z 34006KT 7SM CLR 13/05 A2987 RMK AO2 SLP110 T01280050,KMFD,2023-06-07T03:52:00Z,40.82,-82.52,12.8,5.0,340,6,,7.0,29.870079,1011.0,,,TRUE,,,,,,,CLR,,,,,,,,VFR,,,,,,,,,,,,METAR,394.0
KMEB 070352Z AUTO 24003KT 8SM BKN095 19/16 A2980 RMK AO2 SLP089 T01890161,KMEB,2023-06-07T03:52:00Z,34.78,-79.37,18.9,16.1,240,3,,8.0,29.799213,1008.9,,TRUE,TRUE,,,,,,,BKN,9500,,,,,,,VFR,,,,,,,,,,,,METAR,65.0
KMDH 070352Z AUTO 00000KT 5SM HZ CLR 19/16 A2988 RMK AO2 SLP115 T01890156,KMDH,2023-06-07T03:52:00Z,37.78,-89.25,18.9,15.6,0,0,,5.0,29.878937,1011.5,,TRUE,TRUE,,,,,,HZ,CLR,,,,,,,,MVFR,,,,,,,,,,,,METAR,122.0
KMBG 070352Z AUTO 12005KT 10SM CLR 24/14 A2985 RMK AO2 SLP095 T02390139,KMBG,2023-06-07T03:52:00Z,45.55,-100.42,23.9,13.9,120,5,,10.0,29.84941,1009.5,,TRUE,TRUE,,,,,,,CLR,,,,,,,,VFR,,,,,,,,,,,,METAR,515.0
KLWC 070352Z AUTO 00000KT 6SM BR CLR 20/18 A2992 RMK AO1 SLP123 T02000183,KLWC,2023-06-07T03:52:00Z,39.02,-95.22,20.0,18.3,0,0,,6.0,29.920275,1012.3,,TRUE,TRUE,,,,,,BR,CLR,,,,,,,,VFR,,,,,,,,,,,,METAR,252.0
KIOW 070352Z AUTO 00000KT 7SM CLR 21/19 A2990 RMK AO2 RAE0255 SLP119 P0000 T02060189,KIOW,2023-06-07T03:52:00Z,41.63,-91.55,20.6,18.9,0,0,,7.0,29.899607,1011.9,,TRUE,TRUE,,,,,,,CLR,,,,,,,,VFR,,,,,,0.005,,,,,,METAR,199.0
KIJD 070352Z AUTO 00000KT 5SM HZ CLR 12/08 A2960 RMK AO2 SLP022 T01220083,KIJD,2023-06-07T03:52:00Z,41.75,-72.18,12.2,8.3,0,0,,5.0,29.601377,1002.2,,TRUE,TRUE,,,,,,HZ,CLR,,,,,,,,MVFR,,,,,,,,,,,,METAR,73.0
KIEN 070352Z AUTO 00000KT 10SM CLR 18/12 A2995 RMK AO2 SLP115 T01830117,KIEN,2023-06-07T03:52:00Z,43.03,-102.52,18.3,11.7,0,0,,10.0,29.949802,1011.5,,TRUE,TRUE,,,,,,,CLR,,,,,,,,VFR,,,,,,,,,,,,METAR,1002.0
KHUT 070352Z AUTO 17004KT 10SM CLR 20/17 A2996 RMK AO2 SLP124 T02000167,KHUT,2023-06-07T03:52:00Z,38.07,-97.87,20.0,16.7,170,4,,10.0,29.958662,1012.4,,TRUE,TRUE,,,,,,,CLR,,,,,,,,VFR,,,,,,,,,,,,METAR,464.0
KHRL 070352Z 13003KT 10SM CLR 23/22 A2986 RMK AO2 SLP111 T02280222,KHRL,2023-06-07T03:52:00Z,26.23,-97.65,22.8,22.2,130,3,,10.0,29.861221,1011.1,,,TRUE,,,,,,,CLR,,,,,,,,VFR,,,,,,,,,,,,METAR,9.0
KGLS 070352Z AUTO 00000KT 10SM CLR 26/22 A2987 RMK AO2 SLP114 T02560217,KGLS,2023-06-07T03:52:00Z,29.27,-94.87,25.6,21.7,0,0,,10.0,29.870079,1011.4,,TRUE,TRUE,,,,,,,CLR,,,,,,,,VFR,,,,,,,,,,,,METAR,2.0
KFIT 070352Z AUTO 30005KT 9SM FEW070 FEW100 SCT120 13/08 A2957 RMK AO2 SLP013 T01330078,KFIT,2023-06-07T03:52:00Z,42.55,-71.75,13.3,7.8,300,5,,9.0,29.568897,1001.3,,TRUE,TRUE,,,,,,,FEW,7000,FEW,10000,SCT,12000,,,VFR,,,,,,,,,,,,METAR,102.0
KFCS 070352Z 31007KT 9999 SCT035 SCT180 BKN250 16/07 A3007 RMK AO2A SLP056 T01610071,KFCS,2023-06-07T03:52:00Z,38.67,-104.77,16.1,7.1,310,7,,6.21,30.070866,1005.6,,,TRUE,,,,,,,SCT,3500,SCT,18000,BKN,25000,,,VFR,,,,,,,,,,,,METAR,1789.0
KEST 070352Z AUTO 10003KT 8SM CLR 21/19 A2990 RMK AO2 SLP115 T02110194,KEST,2023-06-07T03:52:00Z,43.4,-94.75,21.1,19.4,100,3,,8.0,29.899607,1011.5,,TRUE,TRUE,,,,,,,CLR,,,,,,,,VFR,,,,,,,,,,,,METAR,401.0
KDVN 070352Z AUTO 09004KT 7SM BKN080 21/17 A2991 RMK AO2 SLP120 T02110172,KDVN,2023-06-07T03:52:00Z,41.62,-90.58,21.1,17.2,90,4,,7.0,29.911417,1012.0,,TRUE,TRUE,,,,,,,BKN,8000,,,,,,,VFR,,,,,,,,,,,,METAR,227.0
KDPA 070352Z 02006KT 10SM FEW120 17/07 A2992 RMK AO2 SLP127 T01670067 $,KDPA,2023-06-07T03:52:00Z,41.88,-88.25,16.7,6.7,20,6,,10.0,29.920275,1012.7,,,TRUE,TRUE,,,,,,FEW,12000,,,,,,,VFR,,,,,,,,,,,,METAR,228.0
KDDC 070352Z AUTO 14008KT 7SM CLR 19/16 A2999 RMK AO2 SLP130 T01890156,KDDC,2023-06-07T03:52:00Z,37.77,-99.97,18.9,15.6,140,8,,7.0,29.991142,1013.0,,TRUE,TRUE,,,,,,,CLR,,,,,,,,VFR,,,,,,,,,,,,METAR,786.0
KDCA 070352Z 29010KT 9SM FEW090 BKN250 24/11 A2970 RMK AO2 SLP056 T02390106 $,KDCA,2023-06-07T03:52:00Z,38.85,-77.03,23.9,10.6,290,10,,9.0,29.698818,1005.6,,,TRUE,TRUE,,,,,,FEW,9000,BKN,25000,,,,,VFR,,,,,,,,,,,,METAR,4.0
KCVG 070352Z 08005KT 6SM HZ OVC085 18/16 A2985 RMK AO2 SLP099 T01830156,KCVG,2023-06-07T03:52:00Z,39.05,-84.67,18.3,15.6,80,5,,6.0,29.84941,1009.9,,,TRUE,,,,,,HZ,OVC,8500,,,,,,,VFR,,,,,,,,,,,,METAR,264.0
KCQX 070352Z AUTO 00000KT 10SM BKN090 12/09 A2954 RMK AO2 SLP003 T01220094,KCQX,2023-06-07T03:52:00Z,41.68,-70.0,12.2,9.4,0,0,,10.0,29.53937,1000.3,,TRUE,TRUE,,,,,,,BKN,9000,,,,,,,VFR,,,,,,,,,,,,METAR,17.0
KCNU 070352Z AUTO 27004KT 10SM CLR 21/17 A2994 RMK AO2 SLP128 T02110172,KCNU,2023-06-07T03:52:00Z,37.67,-95.48,21.1,17.2,270,4,,10.0,29.940945,1012.8,,TRUE,TRUE,,,,,,,CLR,,,,,,,,VFR,,,,,,,,,,,,METAR,301.0
KCLT 070352Z 31003KT 7SM SCT085 19/14 A2983 RMK AO2 SLP108 OCNL LTG DSNT SE CB DSNT SE T01940144,KCLT,2023-06-07T03:52:00Z,35.22,-80.95,19.4,14.4,310,3,,7.0,29.828741,1010.8,,,TRUE,,,,,,,SCT,8500,,,,,,,VFR,,,,,,,,,,,,METAR,223.0
KCKV 070352Z AUTO 00000KT 9SM CLR 22/14 A2988 RMK AO2 SLP111 T02170139,KCKV,2023-06-07T03:52:00Z,36.62,-87.42,21.7,13.9,0,0,,9.0,29.878937,1011.1,,TRUE,TRUE,,,,,,,CLR,,,,,,,,VFR,,,,,,,,,,,,METAR,166.0
KCID 070352Z 00000KT 6SM BR CLR 21/18 A2988 RMK AO2 SLP113 T02060183,KCID,2023-06-07T03:52:00Z,41.88,-91.72,20.6,18.3,0,0,,6.0,29.878937,1011.3,,,TRUE,,,,,,BR,CLR,,,,,,,,VFR,,,,,,,,,,,,METAR,257.0
KCFV 070352Z AUTO 36005KT 10SM CLR 22/17 A2992 RMK AO2 SLP123 T02170172,KCFV,2023-06-07T03:52:00Z,37.08,-95.57,21.7,17.2,360,5,,10.0,29.920275,1012.3,,TRUE,TRUE,,,,,,,CLR,,,,,,,,VFR,,,,,,,,,,,,METAR,228.0
KBLH 070352Z AUTO 25009KT 10SM CLR 29/02 A2970 RMK AO2 SLP049 T02940017,KBLH,2023-06-07T03:52:00Z,33.62,-114.72,29.4,1.7,250,9,,10.0,29.698818,1004.9,,TRUE,TRUE,,,,,,,CLR,,,,,,,,VFR,,,,,,,,,,,,METAR,119.0
KBLF 070352Z AUTO 26005KT 10SM CLR 14/09 A2990 RMK AO2 SLP102 T01440094,KBLF,2023-06-07T03:52:00Z,37.3,-81.2,14.4,9.4,260,5,,10.0,29.899607,1010.2,,TRUE,TRUE,,,,,,,CLR,,,,,,,,VFR,,,,,,,,,,,,METAR,871.0
KBKB 070352Z AUTO 00000KT OVC110 21/19 A2986 RMK AO2 RAB15E41 SLP136 P0001 T02110194 $,KBKB,2023-06-07T03:52:00Z,31.02,-92.92,21.1,19.4,0,0,,,29.861221,1013.6,,TRUE,TRUE,TRUE,,,,,,OVC,11000,,,,,,,,,,,,,0.01,,,,,,METAR,74.0
KBIS 070352Z 11003KT 10SM CLR 23/17 A2987 RMK AO2 SLP105 T02280167,KBIS,2023-06-07T03:52:00Z,46.77,-100.75,22.8,16.7,110,3,,10.0,29.870079,1010.5,,,TRUE,,,,,,,CLR,,,,,,,,VFR,,,,,,,,,,,,METAR,506.0
KBDR 070352Z AUTO 30009KT 9SM CLR 14/07 A2962 RMK AO2 SLP030 T01390072,KBDR,2023-06-07T03:52:00Z,41.17,-73.13,13.9,7.2,300,9,,9.0,29.619095,1003.0,,TRUE,TRUE,,,,,,,CLR,,,,,,,,VFR,,,,,,,,,,,,METAR,5.0
KBAN 070352Z AUTO 00000KT 10SM CLR 08/01 A2997 RMK AO2 SLP104 T00780011 PWINO $,KBAN,2023-06-07T03:52:00Z,38.35,-119.52,7.8,1.1,0,0,,10.0,29.970472,1010.4,,TRUE,TRUE,TRUE,,,,TRUE,,CLR,,,,,,,,VFR,,,,,,,,,,,,METAR,2067.0
KATL 070352Z 31004KT 10SM FEW065 SCT200 SCT250 24/18 A2988 RMK AO2 SLP107 T02390178,KATL,2023-06-07T03:52:00Z,33.63,-84.45,23.9,17.8,310,4,,10.0,29.878937,1010.7,,,TRUE,,,,,,,FEW,6500,SCT,20000,SCT,25000,,,VFR,,,,,,,,,,,,METAR,309.0
KARR 070352Z AUTO 04007KT 9SM CLR 17/07 A2992 RMK AO2 SLP126 T01720067,KARR,2023-06-07T03:52:00Z,41.77,-88.48,17.2,6.7,40,7,,9.0,29.920275,1012.6,,TRUE,TRUE,,,,,,,CLR,,,,,,,,VFR,,,,,,,,,,,,METAR,213.0
KAQW 070352Z AUTO 32003KT 3SM BR BKN047 11/09 A2965 RMK AO2 SLP039 T01060089,KAQW,2023-06-07T03:52:00Z,42.7,-73.17,10.6,8.9,320,3,,3.0,29.648623,1003.9,,TRUE,TRUE,,,,,,BR,BKN,4700,,,,,,,MVFR,,,,,,,,,,,,METAR,196.0
KALS 070352Z AUTO 24013KT 10SM SCT110 12/04 A3020 RMK AO2 SLP151 T01220044,KALS,2023-06-07T03:52:00Z,37.43,-105.87,12.2,4.4,240,13,,10.0,30.200787,1015.1,,TRUE,TRUE,,,,,,,SCT,11000,,,,,,,VFR,,,,,,,,,,,,METAR,2299.0
KAFN 070352Z AUTO VRB03KT 8SM SCT050 BKN070 OVC095 13/08 A2959 RMK AO2 SLP022 T01280078,KAFN,2023-06-07T03:52:00Z,42.8,-72.0,12.8,7.8,0,3,,8.0,29.589567,1002.2,,TRUE,TRUE,,,,,,,SCT,5000,BKN,7000,OVC,9500,,,VFR,,,,,,,,,,,,METAR,308.0
KABQ 070352Z 02010KT 10SM FEW070 SCT100 BKN200 21/06 A3007 RMK AO2 SLP111 T02060056,KABQ,2023-06-07T03:52:00Z,35.05,-106.62,20.6,5.6,20,10,,10.0,30.070866,1011.1,,,TRUE,,,,,,,FEW,7000,SCT,10000,BKN,20000,,,VFR,,,,,,,,,,,,METAR,1620.0
KABI 070352Z 17004KT 10SM CLR 22/17 A2996 RMK AO2 SLP122 T02170172,KABI,2023-06-07T03:52:00Z,32.42,-99.68,21.7,17.2,170,4,,10.0,29.958662,1012.2,,,TRUE,,,,,,,CLR,,,,,,,,VFR,,,,,,,,,,,,METAR,543.0
PTYA 070351Z VRB06KT 12SM SCT016 BKN130 OVC300 30/27 A2983 RMK SLP101 T02970266,PTYA,2023-06-07T03:51:00Z,9.48,138.08,29.7,26.6,0,6,,12.0,29.828741,1010.1,,,,,,,,,,SCT,1600,BKN,13000,OVC,30000,,,VFR,,,,,,,,,,,,METAR,4.0
PHBK 070351Z AUTO 26006KT 10SM SCT060 27/19 A3003 RMK AO2 SLP172 T02670189,PHBK,2023-06-07T03:51:00Z,22.03,-159.78,26.7,18.9,260,6,,10.0,30.029528,1017.2,,TRUE,TRUE,,,,,,,SCT,6000,,,,,,,VFR,,,,,,,,,,,,METAR,5.0
PAMD 070351Z AUTO 09016KT 5SM -RA BR OVC008 08/08 A2994 RMK AO2 RAE12B32 SLP127 T00830078 PNO $,PAMD,2023-06-07T03:51:00Z,59.43,-146.3,8.3,7.8,90,16,,5.0,29.940945,1012.7,,TRUE,TRUE,TRUE,,,,,-RA BR,OVC,800,,,,,,,IFR,,,,,,,,,,,,METAR,20.0
MUGM 070351Z 32007KT 10SM FEW090 BKN250 27/24 A2994 RMK AO2 SLP139 T02720244 $,MUGM,2023-06-07T03:51:00Z,19.9,-75.2,27.2,24.4,320,7,,10.0,29.940945,1013.9,,,TRUE,TRUE,,,,,,FEW,9000,BKN,25000,,,,,VFR,,,,,,,,,,,,METAR,21.0
KYNG 070351Z 32007KT 8SM SCT250 13/06 A2981 RMK AO2 SLP090 T01280061,KYNG,2023-06-07T03:51:00Z,41.25,-80.67,12.8,6.1,320,7,,8.0,29.811024,1009.0,,,TRUE,,,,,,,SCT,25000,,,,,,,VFR,,,,,,,,,,,,METAR,356.0
KXWA 070351Z AUTO 00000KT 10SM CLR 25/12 A2988 RMK AO2 SLP105 T02500122 $,KXWA,2023-06-07T03:51:00Z,48.27,-103.75,25.0,12.2,0,0,,10.0,29.878937,1010.5,,TRUE,TRUE,TRUE,,,,,,CLR,,,,,,,,VFR,,,,,,,,,,,,METAR,717.0
KVNY 070351Z VRB04KT 10SM OVC034 17/10 A2990 RMK AO2 SLP121 T01670100,KVNY,2023-06-07T03:51:00Z,34.22,-118.48,16.7,10.0,0,4,,10.0,29.899607,1012.1,,,TRUE,,,,,,,OVC,3400,,,,,,,VFR,,,,,,,,,,,,METAR,241.0
KVCT 070351Z AUTO 16005KT 10SM CLR 24/21 A2988 RMK AO2 SLP116 T02390211,KVCT,2023-06-07T03:51:00Z,28.87,-96.93,23.9,21.1,160,5,,10.0,29.878937,1011.6,,TRUE,TRUE,,,,,,,CLR,,,,,,,,VFR,,,,,,,,,,,,METAR,33.0
KUGN 070351Z AUTO 35003KT 10SM OVC100 14/ A2993 RMK AO2 SLP130 T0144 $,KUGN,2023-06-07T03:51:00Z,42.42,-87.87,14.4,,350,3,,10.0,29.929134,1013.0,,TRUE,TRUE,TRUE,,,,,,OVC,10000,,,,,,,VFR,,,,,,,,,,,,METAR,217.0
KTPL 070351Z AUTO 00000KT CLR 23/19 A2990 RMK AO2 SLP114 T02280189 PWINO RVRNO $,KTPL,2023-06-07T03:51:00Z,31.15,-97.4,22.8,18.9,0,0,,,29.899607,1011.4,,TRUE,TRUE,TRUE,,,,TRUE,,CLR,,,,,,,,,,,,,,,,,,,,METAR,206.0
KTEB 070351Z 34005KT 4SM HZ OVC036 16/08 A2965 RMK AO2 SLP039 T01610083,KTEB,2023-06-07T03:51:00Z,40.87,-74.05,16.1,8.3,340,5,,4.0,29.648623,1003.9,,,TRUE,,,,,,HZ,OVC,3600,,,,,,,MVFR,,,,,,,,,,,,METAR,3.0
KSTL 070351Z 00000KT 8SM BKN160 OVC250 24/12 A2988 RMK AO2 SLP107 T02440122,KSTL,2023-06-07T03:51:00Z,38.75,-90.37,24.4,12.2,0,0,,8.0,29.878937,1010.7,,,TRUE,,,,,,,BKN,16000,OVC,25000,,,,,VFR,,,,,,,,,,,,METAR,163.0
KSNT 070351Z AUTO 00000KT 12/08 A3003 RMK AO1 SLP099 T01220078,KSNT,2023-06-07T03:51:00Z,44.17,-114.93,12.2,7.8,0,0,,,30.029528,1009.9,,TRUE,TRUE,,,,,,,,,,,,,,,,,,,,,,,,,,,METAR,1980.0
KSMO 070351Z 22006KT 10SM BKN042 OVC100 16/11 A2992 RMK AO2 SLP129 T01610106,KSMO,2023-06-07T03:51:00Z,34.02,-118.45,16.1,10.6,220,6,,10.0,29.920275,1012.9,,,TRUE,,,,,,,BKN,4200,OVC,10000,,,,,VFR,,,,,,,,,,,,METAR,56.0
KSLK 070351Z AUTO 34004KT 5SM BR OVC065 09/07 A2967 RMK AO2 SLP046 T00890072,KSLK,2023-06-07T03:51:00Z,44.4,-74.2,8.9,7.2,340,4,,5.0,29.66929,1004.6,,TRUE,TRUE,,,,,,BR,OVC,6500,,,,,,,MVFR,,,,,,,,,,,,METAR,502.0
KSJT 070351Z AUTO 08007KT 10SM CLR 23/17 A2994 RMK AO2 SLP116 T02280167,KSJT,2023-06-07T03:51:00Z,31.37,-100.5,22.8,16.7,80,7,,10.0,29.940945,1011.6,,TRUE,TRUE,,,,,,,CLR,,,,,,,,VFR,,,,,,,,,,,,METAR,582.0
KSAT 070351Z 00000KT 10SM FEW250 23/20 A2989 RMK AO2 SLP105 T02330200,KSAT,2023-06-07T03:51:00Z,29.53,-98.48,23.3,20.0,0,0,,10.0,29.890747,1010.5,,,TRUE,,,,,,,FEW,25000,,,,,,,VFR,,,,,,,,,,,,METAR,246.0
KSAN 070351Z 26005KT 10SM FEW025 SCT100 SCT250 17/12 A2994 RMK AO2 SLP137 T01720117 $,KSAN,2023-06-07T03:51:00Z,32.73,-117.18,17.2,11.7,260,5,,10.0,29.940945,1013.7,,,TRUE,TRUE,,,,,,FEW,2500,SCT,10000,SCT,25000,,,VFR,,,,,,,,,,,,METAR,3.0
KSAD 070351Z AUTO 30013KT 10SM CLR 29/M04 A2979 RMK AO2 SLP029 T02891044,KSAD,2023-06-07T03:51:00Z,32.85,-109.63,28.9,-4.4,300,13,,10.0,29.790354,1002.9,,TRUE,TRUE,,,,,,,CLR,,,,,,,,VFR,,,,,,,,,,,,METAR,937.0
KRDU 070351Z 00000KT 7SM FEW080 FEW250 17/13 A2980 RMK AO2 SLP086 T01720128,KRDU,2023-06-07T03:51:00Z,35.9,-78.78,17.2,12.8,0,0,,7.0,29.799213,1008.6,,,TRUE,,,,,,,FEW,8000,FEW,25000,,,,,VFR,,,,,,,,,,,,METAR,121.0
KPWM 070351Z 28009KT 10SM OVC075 12/08 A2950 RMK AO2 SLP989 T01220083,KPWM,2023-06-07T03:51:00Z,43.65,-70.3,12.2,8.3,280,9,,10.0,29.500984,998.9,,,TRUE,,,,,,,OVC,7500,,,,,,,VFR,,,,,,,,,,,,METAR,15.0
KPVD 070351Z 31006KT 6SM HZ FEW070 SCT095 OVC130 14/08 A2957 RMK AO2 SLP013 LAST T01390083 $,KPVD,2023-06-07T03:51:00Z,41.72,-71.43,13.9,8.3,310,6,,6.0,29.568897,1001.3,,,TRUE,TRUE,,,,,HZ,FEW,7000,SCT,9500,OVC,13000,,,VFR,,,,,,,,,,,,METAR,15.0
KPIT 070351Z 33007KT 10SM FEW180 SCT250 16/05 A2979 RMK AO2 SLP090 T01560050,KPIT,2023-06-07T03:51:00Z,40.47,-80.2,15.6,5.0,330,7,,10.0,29.790354,1009.0,,,TRUE,,,,,,,FEW,18000,SCT,25000,,,,,VFR,,,,,,,,,,,,METAR,339.0
KPHX 070351Z 28014G21KT 10SM FEW140 31/M03 A2973 RMK AO2 SLP048 T03061028,KPHX,2023-06-07T03:51:00Z,33.43,-112.02,30.6,-2.8,280,14,21,10.0,29.731298,1004.8,,,TRUE,,,,,,,FEW,14000,,,,,,,VFR,,,,,,,,,,,,METAR,338.0
KP59 070351Z AUTO 00000KT 08/06 A3004 RMK AO1 SLP177 T00780056 $,KP59,2023-06-07T03:51:00Z,47.47,-87.88,7.8,5.6,0,0,,,30.041338,1017.7,,TRUE,TRUE,TRUE,,,,,,,,,,,,,,,,,,,,,,,,,,METAR,185.0
KOXR 070351Z 33003KT 10SM -RA FEW035 SCT050 OVC100 15/13 A2991 RMK AO2 SLP128 P0001 T01500128,KOXR,2023-06-07T03:51:00Z,34.2,-119.2,15.0,12.8,330,3,,10.0,29.911417,1012.8,,,TRUE,,,,,,-RA,FEW,3500,SCT,5000,OVC,10000,,,VFR,,,,,,0.01,,,,,,METAR,12.0
KOXC 070351Z AUTO 27005KT 6SM BR CLR 09/08 A2963 RMK AO2 SLP047 T00940078,KOXC,2023-06-07T03:51:00Z,41.47,-73.13,9.4,7.8,270,5,,6.0,29.630905,1004.7,,TRUE,TRUE,,,,,,BR,CLR,,,,,,,,VFR,,,,,,,,,,,,METAR,211.0
KORF 070351Z 22007KT 9SM CLR 21/13 A2972 RMK AO2 SLP064 T02060133,KORF,2023-06-07T03:51:00Z,36.9,-76.2,20.6,13.3,220,7,,9.0,29.719488,1006.4,,,TRUE,,,,,,,CLR,,,,,,,,VFR,,,,,,,,,,,,METAR,5.0
KORD 070351Z 01008KT 10SM FEW100 BKN150 OVC250 17/04 A2992 RMK AO2 SLP128 T01670039 $,KORD,2023-06-07T03:51:00Z,41.95,-87.93,16.7,3.9,10,8,,10.0,29.920275,1012.8,,,TRUE,TRUE,,,,,,FEW,10000,BKN,15000,OVC,25000,,,VFR,,,,,,,,,,,,METAR,202.0
KOCF 070351Z AUTO 36005KT 10SM BKN065 23/19 A2992 RMK AO2 SLP131 T02330189 $,KOCF,2023-06-07T03:51:00Z,29.17,-82.22,23.3,18.9,360,5,,10.0,29.920275,1013.1,,TRUE,TRUE,TRUE,,,,,,BKN,6500,,,,,,,VFR,,,,,,,,,,,,METAR,24.0
KNYC 070351Z AUTO VRB03KT 3SM HZ OVC047 18/07 A2968 RMK AO2 SLP040 T01780072 $,KNYC,2023-06-07T03:51:00Z,40.78,-73.97,17.8,7.2,0,3,,3.0,29.681103,1004.0,,TRUE,TRUE,TRUE,,,,,HZ,OVC,4700,,,,,,,MVFR,,,,,,,,,,,,METAR,33.0
KNBT 070351Z AUTO 23005KT 10SM CLR 24/20 A2977 RMK AO2 SLP086 T02390200,KNBT,2023-06-07T03:51:00Z,35.02,-76.47,23.9,20.0,230,5,,10.0,29.769686,1008.6,,TRUE,TRUE,,,,,,,CLR,,,,,,,,VFR,,,,,,,,,,,,METAR,5.0
KMYL 070351Z AUTO VRB04KT 10SM CLR 18/09 A2990 RMK AO2 SLP084 T01830094,KMYL,2023-06-07T03:51:00Z,44.9,-116.1,18.3,9.4,0,4,,10.0,29.899607,1008.4,,TRUE,TRUE,,,,,,,CLR,,,,,,,,VFR,,,,,,,,,,,,METAR,1532.0
KMWN 070351Z 33028G45KT 0000 SN -PL FZFG VV000 M00/M00 RMK VRY LGT GICG,KMWN,2023-06-07T03:51:00Z,44.27,-71.3,0.0,0.0,330,28,45,0.0,,,,,,,,,,,SN -PL FZFG,OVX,0,,,,,,,LIFR,,,,,,,,,,,0,METAR,1911.0
KMPV 070351Z AUTO 31008KT 9SM -RA SCT029 BKN040 OVC060 11/08 A2963 RMK AO2 RAE0254B43 SLP033 P0000 T01060083,KMPV,2023-06-07T03:51:00Z,44.2,-72.57,10.6,8.3,310,8,,9.0,29.630905,1003.3,,TRUE,TRUE,,,,,,-RA,SCT,2900,BKN,4000,OVC,6000,,,VFR,,,,,,0.005,,,,,,METAR,336.0
KLGU 070351Z AUTO 14010KT 10SM CLR 22/05 A2993 RMK AO2 PK WND 16026/0259 SLP086 T02170050,KLGU,2023-06-07T03:51:00Z,41.78,-111.85,21.7,5.0,140,10,,10.0,29.929134,1008.6,,TRUE,TRUE,,,,,,,CLR,,,,,,,,VFR,,,,,,,,,,,,METAR,1359.0
KLGA 070351Z 33012G18KT 2 1/2SM HZ OVC045 18/08 A2964 RMK AO2 SFC VIS 4 SLP037 T01830078,KLGA,2023-06-07T03:51:00Z,40.78,-73.88,18.3,7.8,330,12,18,2.5,29.639763,1003.7,,,TRUE,,,,,,HZ,OVC,4500,,,,,,,IFR,,,,,,,,,,,,METAR,9.0
KJFK 070351Z 01007KT 4SM FU HZ OVC041 17/08 A2965 RMK AO2 SLP040 T01670083,KJFK,2023-06-07T03:51:00Z,40.63,-73.77,16.7,8.3,10,7,,4.0,29.648623,1004.0,,,TRUE,,,,,,FU HZ,OVC,4100,,,,,,,MVFR,,,,,,,,,,,,METAR,3.0
KJCT 070351Z AUTO 00000KT 10SM CLR 24/18 A2994 RMK AO2 SLP102 T02390183,KJCT,2023-06-07T03:51:00Z,30.5,-99.77,23.9,18.3,0,0,,10.0,29.940945,1010.2,,TRUE,TRUE,,,,,,,CLR,,,,,,,,VFR,,,,,,,,,,,,METAR,522.0
KILG 070351Z 36005KT 3SM HZ OVC046 18/09 A2971 RMK AO2 SLP059 T01780094,KILG,2023-06-07T03:51:00Z,39.67,-75.6,17.8,9.4,360,5,,3.0,29.71063,1005.9,,,TRUE,,,,,,HZ,OVC,4600,,,,,,,MVFR,,,,,,,,,,,,METAR,22.0
KIGM 070351Z AUTO 23009KT 10SM CLR 22/M01 A2984 RMK AO2 SLP037 T02221006,KIGM,2023-06-07T03:51:00Z,35.25,-113.93,22.2,-0.6,230,9,,10.0,29.840551,1003.7,,TRUE,TRUE,,,,,,,CLR,,,,,,,,VFR,,,,,,,,,,,,METAR,1045.0
KHTS 070351Z 32007KT 8SM OVC080 22/13 A2982 RMK AO2 RAB21E35 SLP089 P0000 T02220128,KHTS,2023-06-07T03:51:00Z,38.37,-82.55,22.2,12.8,320,7,,8.0,29.819881,1008.9,,,TRUE,,,,,,,OVC,8000,,,,,,,VFR,,,,,,0.005,,,,,,METAR,252.0
KHSE 070351Z AUTO 26007KT 9SM CLR 21/21 A2976 RMK AO2 LTG DSNT E SLP077 T02110206,KHSE,2023-06-07T03:51:00Z,35.23,-75.62,21.1,20.6,260,7,,9.0,29.760826,1007.7,,TRUE,TRUE,,,,,,,CLR,,,,,,,,VFR,,,,,,,,,,,,METAR,4.0
KHDO 070351Z AUTO 05004KT 10SM CLR 22/20 A2990 RMK AO2 SLP109 T02170200 $,KHDO,2023-06-07T03:51:00Z,29.37,-99.17,21.7,20.0,50,4,,10.0,29.899607,1010.9,,TRUE,TRUE,TRUE,,,,,,CLR,,,,,,,,VFR,,,,,,,,,,,,METAR,280.0
KEWR 070351Z 33008KT 4SM HZ OVC050 19/08 A2965 RMK AO2 SLP041 T01890078 $,KEWR,2023-06-07T03:51:00Z,40.68,-74.17,18.9,7.8,330,8,,4.0,29.648623,1004.1,,,TRUE,TRUE,,,,,HZ,OVC,5000,,,,,,,MVFR,,,,,,,,,,,,METAR,2.0
KERI 070351Z AUTO 00000KT 5SM BR CLR 12/10 A2981 RMK AO2 SLP095 T01220100,KERI,2023-06-07T03:51:00Z,42.08,-80.18,12.2,10.0,0,0,,5.0,29.811024,1009.5,,TRUE,TRUE,,,,,,BR,CLR,,,,,,,,MVFR,,,,,,,,,,,,METAR,222.0
KELP 070351Z 34004KT 10SM FEW110 FEW140 BKN220 23/11 A2998 RMK AO2 SLP081 T02280106,KELP,2023-06-07T03:51:00Z,31.82,-106.35,22.8,10.6,340,4,,10.0,29.97933,1008.1,,,TRUE,,,,,,,FEW,11000,FEW,14000,BKN,22000,,,VFR,,,,,,,,,,,,METAR,1205.0
KEKN 070351Z AUTO 00000KT 9SM SCT047 BKN070 14/11 A2983 RMK AO2 LTG DSNT SW SLP096 T01440111,KEKN,2023-06-07T03:51:00Z,38.88,-79.85,14.4,11.1,0,0,,9.0,29.828741,1009.6,,TRUE,TRUE,,,,,,,SCT,4700,BKN,7000,,,,,VFR,,,,,,,,,,,,METAR,596.0
KDAW 070351Z AUTO 29007KT 10SM FEW080 OVC095 14/08 A2951 RMK AO2 RAB35E44 SLP991 P0000 T01390083,KDAW,2023-06-07T03:51:00Z,43.28,-70.92,13.9,8.3,290,7,,10.0,29.509842,999.1,,TRUE,TRUE,,,,,,,FEW,8000,OVC,9500,,,,,VFR,,,,,,0.005,,,,,,METAR,100.0
KCSG 070351Z AUTO 27006KT 10SM CLR 24/18 A2989 RMK AO2 SLP114 T02390178,KCSG,2023-06-07T03:51:00Z,32.52,-84.95,23.9,17.8,270,6,,10.0,29.890747,1011.4,,TRUE,TRUE,,,,,,,CLR,,,,,,,,VFR,,,,,,,,,,,,METAR,120.0
KCRP 070351Z 17005KT 10SM FEW021 SCT250 24/22 A2986 RMK AO2 SLP110 T02390222,KCRP,2023-06-07T03:51:00Z,27.77,-97.5,23.9,22.2,170,5,,10.0,29.861221,1011.0,,,TRUE,,,,,,,FEW,2100,SCT,25000,,,,,VFR,,,,,,,,,,,,METAR,11.0
KCON 070351Z AUTO 30007KT 10SM FEW065 BKN085 OVC100 14/08 A2955 RMK AO2 SLP005 T01390078,KCON,2023-06-07T03:51:00Z,43.2,-71.5,13.9,7.8,300,7,,10.0,29.551182,1000.5,,TRUE,TRUE,,,,,,,FEW,6500,BKN,8500,OVC,10000,,,VFR,,,,,,,,,,,,METAR,102.0
KCMH 070351Z 36007KT 10SM BKN065 19/10 A2984 RMK AO2 SLP100 T01940100,KCMH,2023-06-07T03:51:00Z,40.0,-82.88,19.4,10.0,360,7,,10.0,29.840551,1010.0,,,TRUE,,,,,,,BKN,6500,,,,,,,VFR,,,,,,,,,,,,METAR,257.0
KCLE 070351Z 36008KT 6SM HZ FEW250 15/06 A2984 RMK AO2 SLP117 T01500061,KCLE,2023-06-07T03:51:00Z,41.42,-81.85,15.0,6.1,360,8,,6.0,29.840551,1011.7,,,TRUE,,,,,,HZ,FEW,25000,,,,,,,VFR,,,,,,,,,,,,METAR,237.0
KCDJ 070351Z AUTO 00000KT 22/17 A2991 RMK AO1 SLP115 T02170172,KCDJ,2023-06-07T03:51:00Z,39.82,-93.57,21.7,17.2,0,0,,,29.911417,1011.5,,TRUE,TRUE,,,,,,,,,,,,,,,,,,,,,,,,,,,METAR,234.0
KCAK 070351Z 34006KT 7SM SCT230 12/04 A2983 RMK AO2 SLP097 T01170044,KCAK,2023-06-07T03:51:00Z,40.92,-81.45,11.7,4.4,340,6,,7.0,29.828741,1009.7,,,TRUE,,,,,,,SCT,23000,,,,,,,VFR,,,,,,,,,,,,METAR,369.0
KBKW 070351Z AUTO 23006KT 9SM CLR 16/11 A2987 RMK AO2 SLP090 T01610111,KBKW,2023-06-07T03:51:00Z,37.8,-81.12,16.1,11.1,230,6,,9.0,29.870079,1009.0,,TRUE,TRUE,,,,,,,CLR,,,,,,,,VFR,,,,,,,,,,,,METAR,762.0
KBHK 070351Z AUTO 13005KT 10SM CLR 18/11 A2991 RMK AO2 SLP104 T01780111,KBHK,2023-06-07T03:51:00Z,46.35,-104.25,17.8,11.1,130,5,,10.0,29.911417,1010.4,,TRUE,TRUE,,,,,,,CLR,,,,,,,,VFR,,,,,,,,,,,,METAR,904.0
KBGD 070351Z AUTO 11007KT 10SM OVC110 23/14 A3002 RMK AO2 SLP125 T02280144,KBGD,2023-06-07T03:51:00Z,35.7,-101.4,22.8,14.4,110,7,,10.0,30.02067,1012.5,,TRUE,TRUE,,,,,,,OVC,11000,,,,,,,VFR,,,,,,,,,,,,METAR,928.0
KBED 070351Z AUTO 29006KT 10SM SCT085 BKN120 16/07 A2954 RMK AO2 SLP014 T01560072,KBED,2023-06-07T03:51:00Z,42.47,-71.3,15.6,7.2,290,6,,10.0,29.53937,1001.4,,TRUE,TRUE,,,,,,,SCT,8500,BKN,12000,,,,,VFR,,,,,,,,,,,,METAR,39.0
KBDL 070351Z 35003KT 8SM FEW110 FEW250 13/06 A2960 RMK AO2 SLP024 T01330061,KBDL,2023-06-07T03:51:00Z,41.93,-72.68,13.3,6.1,350,3,,8.0,29.601377,1002.4,,,TRUE,,,,,,,FEW,11000,FEW,25000,,,,,VFR,,,,,,,,,,,,METAR,52.0
KBAZ 070351Z AUTO 00000KT 10SM CLR 22/21 A2987 RMK AO2 RAB00E10 SLP108 P0000 T02220206,KBAZ,2023-06-07T03:51:00Z,29.72,-98.05,22.2,20.6,0,0,,10.0,29.870079,1010.8,,TRUE,TRUE,,,,,,,CLR,,,,,,,,VFR,,,,,,0.005,,,,,,METAR,199.0
KATT 070351Z AUTO 00000KT 10SM CLR 24/19 A2990 RMK AO2 SLP111 T02440189,KATT,2023-06-07T03:51:00Z,30.32,-97.77,24.4,18.9,0,0,,10.0,29.899607,1011.1,,TRUE,TRUE,,,,,,,CLR,,,,,,,,VFR,,,,,,,,,,,,METAR,203.0
KALB 070351Z 27007KT 3SM HZ BKN110 OVC210 11/08 A2966 RMK AO2 SFC VIS 4 SLP044 FU OVC210 T01110083 $,KALB,2023-06-07T03:51:00Z,42.75,-73.8,11.1,8.3,270,7,,3.0,29.660433,1004.4,,,TRUE,TRUE,,,,,HZ,BKN,11000,OVC,21000,,,,,MVFR,,,,,,,,,,,,METAR,82.0
KAHN 070351Z AUTO 00000KT 10SM CLR 21/17 A2986 RMK AO2 SLP104 T02060167,KAHN,2023-06-07T03:51:00Z,33.95,-83.33,20.6,16.7,0,0,,10.0,29.861221,1010.4,,TRUE,TRUE,,,,,,,CLR,,,,,,,,VFR,,,,,,,,,,,,METAR,241.0
KACT 070351Z 02004KT 10SM FEW060 21/19 A2989 RMK AO2 SLP115 T02060189,KACT,2023-06-07T03:51:00Z,31.62,-97.23,20.6,18.9,20,4,,10.0,29.890747,1011.5,,,TRUE,,,,,,,FEW,6000,,,,,,,VFR,,,,,,,,,,,,METAR,150.0
KABE 070351Z 33007KT 4SM HZ BKN036 15/06 A2969 RMK AO2 SLP053 T01500061,KABE,2023-06-07T03:51:00Z,40.65,-75.45,15.0,6.1,330,7,,4.0,29.68996,1005.3,,,TRUE,,,,,,HZ,BKN,3600,,,,,,,MVFR,,,,,,,,,,,,METAR,117.0
K6R6 070351Z AUTO 15006KT 24/15 A2997 RMK AO1 SLP117 T02390150,K6R6,2023-06-07T03:51:00Z,30.05,-102.22,23.9,15.0,150,6,,,29.970472,1011.7,,TRUE,TRUE,,,,,,,,,,,,,,,,,,,,,,,,,,,METAR,702.0
TJBQ 070350Z 00000KT 10SM CLR 27/24 A3002,TJBQ,2023-06-07T03:50:00Z,18.5,-67.13,27.0,24.0,0,0,,10.0,30.02067,,,,,,,,,,,CLR,,,,,,,,VFR,,,,,,,,,,,,METAR,69.0
PTSA 070350Z 09006KT 10SM BKN022CB BKN130 BKN300 31/24 A2978 RMK CB NW MOV W TCU NE,PTSA,2023-06-07T03:50:00Z,5.35,162.95,31.0,24.0,90,6,,10.0,29.778543,,,,,,,,,,,BKN,2200,BKN,13000,BKN,30000,,,MVFR,,,,,,,,,,,,METAR,3.0
PTRO 070350Z 29009G24KT 6SM -SHRA BKN014CB BKN110 OVC290 24/23 A2983 RMK CB OHD AND ALQDS,PTRO,2023-06-07T03:50:00Z,7.37,134.55,24.0,23.0,290,9,24,6.0,29.828741,,,,,,,,,,-SHRA,BKN,1400,BKN,11000,OVC,29000,,,MVFR,,,,,,,,,,,,METAR,30.0
PGWT 070350Z 07015KT 7SM SCT016 30/24,PGWT,2023-06-07T03:50:00Z,14.98,145.62,30.0,24.0,70,15,,7.0,,,,,,,,,,,,SCT,1600,,,,,,,VFR,,,,,,,,,,,,METAR,84.0
PGRO 070350Z COR 09016G23KT 7SM SCT016 BKN100 29/24 A2983,PGRO,2023-06-07T03:50:00Z,14.18,145.25,29.0,24.0,90,16,23,7.0,29.828741,,TRUE,,,,,,,,,SCT,1600,BKN,10000,,,,,VFR,,,,,,,,,,,,METAR,181.0
OOSA 070350Z VRB02KT 9999 FEW025 30/25 Q1007 NOSIG,OOSA,2023-06-07T03:50:00Z,17.03,54.1,30.0,25.0,0,2,,6.21,29.734253,,,,,,TRUE,,,,,FEW,2500,,,,,,,VFR,,,,,,,,,,,,METAR,20.0
OOMS 070350Z 23007KT 190V260 CAVOK 40/13 Q1003 NOSIG,OOMS,2023-06-07T03:50:00Z,23.58,58.28,40.0,13.0,230,7,,6.21,29.616142,,,,,,TRUE,,,,,CAVOK,,,,,,,,VFR,,,,,,,,,,,,METAR,8.0
OOKB 070350Z AUTO 14003KT 090V230 CAVOK 40/08 Q1003 NOSIG,OOKB,2023-06-07T03:50:00Z,26.17,56.23,40.0,8.0,140,3,,6.21,29.616142,,,TRUE,,,TRUE,,,,,CAVOK,,,,,,,,VFR,,,,,,,,,,,,METAR,30.0
OODQ 070350Z AUTO 22019KT CAVOK ////// 29/26 Q1006 NOSIG,OODQ,2023-06-07T03:50:00Z,19.52,57.65,29.0,26.0,220,19,,6.21,29.704725,,,TRUE,,,TRUE,,,,,CAVOK,,,,,,,,VFR,,,,,,,,,,,,METAR,116.0
OOAD 070350Z 25006KT 210V290 CAVOK 35/17 Q1008 NOSIG,OOAD,2023-06-07T03:50:00Z,22.5,57.37,35.0,17.0,250,6,,6.21,29.763779,,,,,,TRUE,,,,,CAVOK,,,,,,,,VFR,,,,,,,,,,,,METAR,327.0
NSTU 070350Z 10017KT 8SM -SHRA SCT016TCU BKN040 OVC220 28/26 A2985 RMK SHRAB45 TCU W-N AND OHD SLP108 T02790263,NSTU,2023-06-07T03:50:00Z,-14.33,-170.72,27.9,26.3,100,17,,8.0,29.84941,1010.8,,,,,,,,,-SHRA,SCT,1600,BKN,4000,OVC,22000,,,VFR,,,,,,,,,,,,METAR,8.0
MUVR 070350Z 16005KT 8000 FEW025 SCT100 22/21 Q1013,MUVR,2023-06-07T03:50:00Z,23.03,-81.43,22.0,21.0,160,5,,4.97,29.911417,,,,,,,,,,,FEW,2500,SCT,10000,,,,,MVFR,,,,,,,,,,,,METAR,65.0
MUSC 070350Z VRB02KT 9000 FEW030 BKN100 25/23 Q1014,MUSC,2023-06-07T03:50:00Z,22.5,-79.92,25.0,23.0,0,2,,5.59,29.940945,,,,,,,,,,,FEW,3000,BKN,10000,,,,,VFR,,,,,,,,,,,,METAR,97.0
MUHG 070350Z 01005KT 350V050 9000 FEW020 BKN135 23/22 Q1015,MUHG,2023-06-07T03:50:00Z,20.78,-76.32,23.0,22.0,10,5,,5.59,29.970472,,,,,,,,,,,FEW,2000,BKN,13500,,,,,VFR,,,,,,,,,,,,METAR,100.0
MUHA 070350Z 08002KT 9000 FEW025 BKN200 24/24 Q1013,MUHA,2023-06-07T03:50:00Z,22.98,-82.42,24.0,24.0,80,2,,5.59,29.911417,,,,,,,,,,,FEW,2500,BKN,20000,,,,,VFR,,,,,,,,,,,,METAR,61.0
MUCU 070350Z 33008KT 8000 VCTS BKN020CB 25/23 Q1014,MUCU,2023-06-07T03:50:00Z,19.97,-75.83,25.0,23.0,330,8,,4.97,29.940945,,,,,,,,,,VCTS,BKN,2000,,,,,,,MVFR,,,,,,,,,,,,METAR,70.0
MUCM 070350Z 14005KT 060V210 6000 -RA OVC018 22/21 Q1016,MUCM,2023-06-07T03:50:00Z,21.42,-77.85,22.0,21.0,140,5,,3.73,30.0,,,,,,,,,,-RA,OVC,1800,,,,,,,MVFR,,,,,,,,,,,,METAR,125.0
MUCL 070350Z AUTO 14003KT 26/23 Q1013,MUCL,2023-06-07T03:50:00Z,21.63,-81.55,26.0,23.0,140,3,,,29.911417,,,TRUE,,,,,,,,,,,,,,,,,,,,,,,,,,,,METAR,5.0
MUCC 070350Z 13006KT 9000 SCT020CB 25/24 Q1014,MUCC,2023-06-07T03:50:00Z,22.47,-78.33,25.0,24.0,130,6,,5.59,29.940945,,,,,,,,,,,SCT,2000,,,,,,,VFR,,,,,,,,,,,,METAR,7.0
MSLP 070350Z 08003KT 9999 SCT020 FEW037CB BKN050 27/25 Q1011 A2987 NOSIG RMK CB W,MSLP,2023-06-07T03:50:00Z,13.43,-89.05,27.0,25.0,80,3,,6.21,29.852362,,,,,,TRUE,,,,,SCT,2000,FEW,3700,BKN,5000,,,VFR,,,,,,,,,,,,METAR,25.0
MMTO 070350Z 25003KT 10SM BKN020 13/11 A3037 RMK 8/400 DSNT LTGIC S,MMTO,2023-06-07T03:50:00Z,19.35,-99.57,13.0,11.0,250,3,,10.0,30.369095,,,,,,,,,,,BKN,2000,,,,,,,MVFR,,,,,,,,,,,,METAR,2582.0
LXGB 070350Z 08010KT 9999 -RA FEW015 OVC100 20/18 Q1011 RMK BLU,LXGB,2023-06-07T03:50:00Z,36.15,-5.33,20.0,18.0,80,10,,6.21,29.852362,,,,,,,,,,-RA,FEW,1500,OVC,10000,,,,,VFR,,,,,,,,,,,,METAR,5.0
LTFO 070350Z 11003KT 060V130 9999 BKN012 BKN028 20/16 Q1018,LTFO,2023-06-07T03:50:00Z,41.18,40.85,20.0,16.0,110,3,,6.21,30.059055,,,,,,,,,,,BKN,1200,BKN,2800,,,,,MVFR,,,,,,,,,,,,METAR,5.0
LTFH 070350Z 00000KT CAVOK 18/14 Q1019 NOSIG,LTFH,2023-06-07T03:50:00Z,41.27,36.57,18.0,14.0,0,0,,6.21,30.088583,,,,,,TRUE,,,,,CAVOK,,,,,,,,VFR,,,,,,,,,,,,METAR,7.0
LTFG 070350Z 06004KT 020V090 CAVOK 19/17 Q1011,LTFG,2023-06-07T03:50:00Z,36.3,32.3,19.0,17.0,60,4,,6.21,29.852362,,,,,,,,,,,CAVOK,,,,,,,,VFR,,,,,,,,,,,,METAR,26.0
LTFD 070350Z 08015KT CAVOK 20/14 Q1014,LTFD,2023-06-07T03:50:00Z,39.55,27.02,20.0,14.0,80,15,,6.21,29.940945,,,,,,,,,,,CAVOK,,,,,,,,VFR,,,,,,,,,,,,METAR,15.0
LTFB 070350Z 00000KT 3900 BR FEW008 18/18 Q1013,LTFB,2023-06-07T03:50:00Z,37.95,27.33,18.0,18.0,0,0,,2.42,29.911417,,,,,,,,,,BR,FEW,800,,,,,,,IFR,,,,,,,,,,,,METAR,3.0
LTDA 070350Z 30006KT 280V010 CAVOK 21/18 Q1010 NOSIG,LTDA,2023-06-07T03:50:00Z,36.37,36.28,21.0,18.0,300,6,,6.21,29.822834,,,,,,TRUE,,,,,CAVOK,,,,,,,,VFR,,,,,,,,,,,,METAR,80.0
LTCW 070350Z 14003KT 100V180 9999 FEW030 SCT180 13/08 Q1021,LTCW,2023-06-07T03:50:00Z,37.55,44.23,13.0,8.0,140,3,,6.21,30.147638,,,,,,,,,,,FEW,3000,SCT,18000,,,,,VFR,,,,,,,,,,,,METAR,1852.0
LTCV 070350Z VRB02KT 9999 FEW035 SCT100 26/10 Q1010,LTCV,2023-06-07T03:50:00Z,37.37,42.07,26.0,10.0,0,2,,6.21,29.822834,,,,,,,,,,,FEW,3500,SCT,10000,,,,,VFR,,,,,,,,,,,,METAR,620.0
LTCT 070350Z VRB01KT 9999 SCT040 BKN100 19/08 Q1017,LTCT,2023-06-07T03:50:00Z,39.98,43.87,19.0,8.0,0,1,,6.21,30.029528,,,,,,,,,,,SCT,4000,BKN,10000,,,,,VFR,,,,,,,,,,,,METAR,936.0
LTCR 070350Z 01009KT CAVOK 27/07 Q1009,LTCR,2023-06-07T03:50:00Z,37.22,40.63,27.0,7.0,10,9,,6.21,29.793306,,,,,,,,,,,CAVOK,,,,,,,,VFR,,,,,,,,,,,,METAR,529.0
LTCP 070350Z 36003KT 310V040 CAVOK 24/06 Q1012,LTCP,2023-06-07T03:50:00Z,37.73,38.47,24.0,6.0,360,3,,6.21,29.88189,,,,,,,,,,,CAVOK,,,,,,,,VFR,,,,,,,,,,,,METAR,672.0
LTCO 070350Z VRB02KT 9999 SCT080 12/07 Q1020,LTCO,2023-06-07T03:50:00Z,39.65,43.03,12.0,7.0,0,2,,6.21,30.11811,,,,,,,,,,,SCT,8000,,,,,,,VFR,,,,,,,,,,,,METAR,1657.0
LTCN 070350Z 06004KT 9999 FEW040 20/13 Q1012,LTCN,2023-06-07T03:50:00Z,37.53,36.95,20.0,13.0,60,4,,6.21,29.88189,,,,,,,,,,,FEW,4000,,,,,,,VFR,,,,,,,,,,,,METAR,505.0
LTCM 070350Z 24004KT CAVOK 14/13 Q1019,LTCM,2023-06-07T03:50:00Z,42.02,35.07,14.0,13.0,240,4,,6.21,30.088583,,,,,,,,,,,CAVOK,,,,,,,,VFR,,,,,,,,,,,,METAR,7.0
LTCL 070350Z 06005KT 030V090 CAVOK 25/09 Q1012,LTCL,2023-06-07T03:50:00Z,37.98,41.83,25.0,9.0,60,5,,6.21,29.88189,,,,,,,,,,,CAVOK,,,,,,,,VFR,,,,,,,,,,,,METAR,602.0
LTCI 070350Z 09004KT 050V130 9999 SCT030 14/09 Q1022 NOSIG,LTCI,2023-06-07T03:50:00Z,38.47,43.33,14.0,9.0,90,4,,6.21,30.177166,,,,,,TRUE,,,,,SCT,3000,,,,,,,VFR,,,,,,,,,,,,METAR,1654.0
LTCF 070350Z 20003KT 110V260 9999 FEW035 SCT080 09/06 Q1022 NOSIG,LTCF,2023-06-07T03:50:00Z,40.57,43.12,9.0,6.0,200,3,,6.21,30.177166,,,,,,TRUE,,,,,FEW,3500,SCT,8000,,,,,VFR,,,,,,,,,,,,METAR,1794.0
LTCD 070350Z 00000KT CAVOK 10/09 Q1020 NOSIG,LTCD,2023-06-07T03:50:00Z,39.72,39.52,10.0,9.0,0,0,,6.21,30.11811,,,,,,TRUE,,,,,CAVOK,,,,,,,,VFR,,,,,,,,,,,,METAR,1146.0
LTCB 070350Z 03001KT 9999 SCT035 19/17 Q1018 NOSIG,LTCB,2023-06-07T03:50:00Z,40.97,38.07,19.0,17.0,30,1,,6.21,30.059055,,,,,,TRUE,,,,,SCT,3500,,,,,,,VFR,,,,,,,,,,,,METAR,5.0
LTCA 070350Z VRB02KT CAVOK 16/11 Q1016 NOSIG,LTCA,2023-06-07T03:50:00Z,38.6,39.28,16.0,11.0,0,2,,6.21,30.0,,,,,,TRUE,,,,,CAVOK,,,,,,,,VFR,,,,,,,,,,,,METAR,887.0
LTBY 070350Z VRB01KT 5000 BR NSC 13/13 Q1018,LTBY,2023-06-07T03:50:00Z,39.82,30.52,13.0,13.0,0,1,,3.11,30.059055,,,,,,,,,,BR,CLR,,,,,,,,MVFR,,,,,,,,,,,,METAR,788.0
LTBQ 070350Z VRB02KT 8000 BKN010 OVC020 17/16 Q1017 TEMPO 3000 BR BKN008 OVC015,LTBQ,2023-06-07T03:50:00Z,40.73,30.07,17.0,16.0,0,2,,4.97,30.029528,,,,,,,,,,,BKN,1000,OVC,2000,,,,,MVFR,,,,,,,,,,,,METAR,51.0
LTBO 070350Z 10005KT 060V130 9999 FEW040 17/13 Q1017,LTBO,2023-06-07T03:50:00Z,38.67,29.47,17.0,13.0,100,5,,6.21,30.029528,,,,,,,,,,,FEW,4000,,,,,,,VFR,,,,,,,,,,,,METAR,868.0
LTBH 070350Z 11006KT CAVOK 17/14 Q1015,LTBH,2023-06-07T03:50:00Z,40.13,26.42,17.0,14.0,110,6,,6.21,29.970472,,,,,,,,,,,CAVOK,,,,,,,,VFR,,,,,,,,,,,,METAR,8.0
LTBF 070350Z 00000KT CAVOK 15/15 Q1016 NOSIG,LTBF,2023-06-07T03:50:00Z,39.62,27.92,15.0,15.0,0,0,,6.21,30.0,,,,,,TRUE,,,,,CAVOK,,,,,,,,VFR,,,,,,,,,,,,METAR,95.0
LTBD 070350Z 08003KT 9999 2000NE BR NSC 19/16 Q1013,LTBD,2023-06-07T03:50:00Z,37.82,27.88,19.0,16.0,80,3,,6.21,29.911417,,,,,,,,,,BR,CLR,,,,,,,,VFR,,,,,,,,,,,,METAR,29.0
LTAY 070350Z 00000KT CAVOK 15/13 Q1017 NOSIG,LTAY,2023-06-07T03:50:00Z,37.78,29.7,15.0,13.0,0,0,,6.21,30.029528,,,,,,TRUE,,,,,CAVOK,,,,,,,,VFR,,,,,,,,,,,,METAR,851.0
LTAW 070350Z 00000KT 9999 FEW040 16/12 Q1019,LTAW,2023-06-07T03:50:00Z,40.3,36.37,16.0,12.0,0,0,,6.21,30.088583,,,,,,,,,,,FEW,4000,,,,,,,VFR,,,,,,,,,,,,METAR,561.0
LTAR 070350Z 32004KT 300V360 CAVOK 09/08 Q1021,LTAR,2023-06-07T03:50:00Z,39.8,36.9,9.0,8.0,320,4,,6.21,30.147638,,,,,,,,,,,CAVOK,,,,,,,,VFR,,,,,,,,,,,,METAR,1601.0
LTAN 070350Z 36009KT CAVOK 14/11 Q1019 NOSIG,LTAN,2023-06-07T03:50:00Z,37.97,32.55,14.0,11.0,360,9,,6.21,30.088583,,,,,,TRUE,,,,,CAVOK,,,,,,,,VFR,,,,,,,,,,,,METAR,1029.0
LTAE 070350Z 03003KT 360V080 CAVOK 14/12 Q1019 NOSIG RMK RWY21 07004KT 020V130,LTAE,2023-06-07T03:50:00Z,40.07,32.57,14.0,12.0,30,3,,6.21,30.088583,,,,,,TRUE,,,,,CAVOK,,,,,,,,VFR,,,,,,,,,,,,METAR,836.0
LOXZ 070350Z 22004KT 9999 FEW004 SCT060 11/10 Q1018,LOXZ,2023-06-07T03:50:00Z,47.2,14.75,11.0,10.0,220,4,,6.21,30.059055,,,,,,,,,,,FEW,400,SCT,6000,,,,,VFR,,,,,,,,,,,,METAR,678.0
LLIB 070350Z AUTO VRB02KT 9999 FEW025 18/16 Q1011,LLIB,2023-06-07T03:50:00Z,32.98,35.57,18.0,16.0,0,2,,6.21,29.852362,,,TRUE,,,,,,,,FEW,2500,,,,,,,VFR,,,,,,,,,,,,METAR,268.0
LLER 070350Z 36012KT CAVOK 24/10 Q1011,LLER,2023-06-07T03:50:00Z,29.72,35.02,24.0,10.0,360,12,,6.21,29.852362,,,,,,,,,,,CAVOK,,,,,,,,VFR,,,,,,,,,,,,METAR,88.0
LIMP 070350Z VRB01KT 6000 NSC 15/14 Q1016,LIMP,2023-06-07T03:50:00Z,44.82,10.3,15.0,14.0,0,1,,3.73,30.0,,,,,,,,,,,CLR,,,,,,,,MVFR,,,,,,,,,,,,METAR,41.0
LGZA 070350Z 00000KT 9999 FEW018 18/15 Q1014,LGZA,2023-06-07T03:50:00Z,37.75,20.88,18.0,15.0,0,0,,6.21,29.940945,,,,,,,,,,,FEW,1800,,,,,,,VFR,,,,,,,,,,,,METAR,3.0
LGSM 070350Z VRB03KT CAVOK 20/17 Q1012,LGSM,2023-06-07T03:50:00Z,37.68,26.92,20.0,17.0,0,3,,6.21,29.88189,,,,,,,,,,,CAVOK,,,,,,,,VFR,,,,,,,,,,,,METAR,5.0
LGPA 070350Z VRB03KT CAVOK 19/16 Q1013,LGPA,2023-06-07T03:50:00Z,37.02,25.1,19.0,16.0,0,3,,6.21,29.911417,,,,,,,,,,,CAVOK,,,,,,,,VFR,,,,,,,,,,,,METAR,42.0
LGNX 070350Z 34004KT CAVOK 20/16 Q1013,LGNX,2023-06-07T03:50:00Z,37.08,25.37,20.0,16.0,340,4,,6.21,29.911417,,,,,,,,,,,CAVOK,,,,,,,,VFR,,,,,,,,,,,,METAR,3.0
LGKO 070350Z 36003KT CAVOK 20/17 Q1012,LGKO,2023-06-07T03:50:00Z,36.8,27.08,20.0,17.0,360,3,,6.21,29.88189,,,,,,,,,,,CAVOK,,,,,,,,VFR,,,,,,,,,,,,METAR,130.0
LGHI 070350Z 00000KT CAVOK 19/17 Q1012,LGHI,2023-06-07T03:50:00Z,38.33,26.13,19.0,17.0,0,0,,6.21,29.88189,,,,,,,,,,,CAVOK,,,,,,,,VFR,,,,,,,,,,,,METAR,6.0
KRYY 070350Z AUTO 00000KT 10SM FEW050 22/18 A2989 RMK AO2 SLP110 T02170183 403170194 $,KRYY,2023-06-07T03:50:00Z,34.02,-84.6,21.7,18.3,0,0,,10.0,29.890747,1011.0,,TRUE,TRUE,TRUE,,,,,,FEW,5000,,,,,,,VFR,,,,31.7,19.4,,,,,,,METAR,306.0
KDAG 070350Z AUTO 27020G27KT 10SM CLR 22/02 A2977 RMK AO2 PK WND 26028/0331 SLP064 T02170017,KDAG,2023-06-07T03:50:00Z,34.85,-116.78,21.7,1.7,270,20,27,10.0,29.769686,1006.4,,TRUE,TRUE,,,,,,,CLR,,,,,,,,VFR,,,,,,,,,,,,METAR,584.0
KAAS 070350Z AUTO 24003KT 10SM SCT120 20/13 A2991 RMK AO1,KAAS,2023-06-07T03:50:00Z,37.35,-85.32,20.0,13.0,240,3,,10.0,29.911417,,,TRUE,TRUE,,,,,,,SCT,12000,,,,,,,VFR,,,,,,,,,,,,SPECI,270.0
FHAW 070350Z 15008KT 9999 FEW025 25/18 Q1015 NOSIG RMK BLU BLU,FHAW,2023-06-07T03:50:00Z,-7.97,-14.4,25.0,18.0,150,8,,6.21,29.970472,,,,,,TRUE,,,,,FEW,2500,,,,,,,VFR,,,,,,,,,,,,METAR,79.0
ETNG 070350Z 28001KT CAVOK 14/12 Q1019,ETNG,2023-06-07T03:50:00Z,50.97,6.03,14.0,12.0,280,1,,6.21,30.088583,,,,,,,,,,,CAVOK,,,,,,,,VFR,,,,,,,,,,,,METAR,76.0
ENOA 070350Z 34013KT 9999 FEW010 10/08 Q1024 W///S3,ENOA,2023-06-07T03:50:00Z,60.5,2.83,10.0,8.0,340,13,,6.21,30.236221,,,,,,,,,,,FEW,1000,,,,,,,VFR,,,,,,,,,,,,METAR,5.0
ENHE 070350Z 26018KT 9999 BKN020 08/06 Q1018 W///S3,ENHE,2023-06-07T03:50:00Z,65.33,2.33,8.0,6.0,260,18,,6.21,30.059055,,,,,,,,,,,BKN,2000,,,,,,,MVFR,,,,,,,,,,,,METAR,10.0
EGYP 070350Z 25022KT 9999 BKN018 05/04 Q0985,EGYP,2023-06-07T03:50:00Z,-51.82,-58.45,5.0,4.0,250,22,,6.21,29.084646,,,,,,,,,,,BKN,1800,,,,,,,MVFR,,,,,,,,,,,,METAR,70.0
EGXC 070350Z 03004KT 9999 OVC022 11/07 Q1024 RMK WHT,EGXC,2023-06-07T03:50:00Z,53.1,-0.17,11.0,7.0,30,4,,6.21,30.236221,,,,,,,,,,,OVC,2200,,,,,,,MVFR,,,,,,,,,,,,METAR,9.0
EGQS 070350Z 11001KT 9999 FEW015 BKN048 08/06 Q1025 RMK BLU,EGQS,2023-06-07T03:50:00Z,57.72,-3.32,8.0,6.0,110,1,,6.21,30.265747,,,,,,,,,,,FEW,1500,BKN,4800,,,,,VFR,,,,,,,,,,,,METAR,6.0
EGQL 070350Z 13004KT 9999 OVC014 11/07 Q1026 RMK GRN,EGQL,2023-06-07T03:50:00Z,56.38,-2.87,11.0,7.0,130,4,,6.21,30.295275,,,,,,,,,,,OVC,1400,,,,,,,MVFR,,,,,,,,,,,,METAR,11.0
EGPE 070350Z 00000KT 9999 FEW006 SCT047 06/06 Q1026,EGPE,2023-06-07T03:50:00Z,57.53,-4.05,6.0,6.0,0,0,,6.21,30.295275,,,,,,,,,,,FEW,600,SCT,4700,,,,,VFR,,,,,,,,,,,,METAR,7.0
EEEI 070350Z AUTO VRB02KT CAVOK 10/07 Q1020,EEEI,2023-06-07T03:50:00Z,59.27,24.2,10.0,7.0,0,2,,6.21,30.11811,,,TRUE,,,,,,,,CAVOK,,,,,,,,VFR,,,,,,,,,,,,METAR,19.0
BGSF 070350Z AUTO 29017KT 5000NDV -SN FEW027/// BKN037/// OVC043/// M03/M07 Q1019,BGSF,2023-06-07T03:50:00Z,67.0,-50.72,-3.0,-7.0,290,17,,,30.088583,,,TRUE,,,,,,,-SN,FEW,2700,BKN,3700,OVC,4300,,,,,,,,,,,,,,,METAR,75.0
BGKK 070350Z AUTO 00000KT 4000NDV -SN OVC021/// 00/M01 Q1019,BGKK,2023-06-07T03:50:00Z,65.57,-37.13,0.0,-1.0,0,0,,,30.088583,,,TRUE,,,,,,,-SN,OVC,2100,,,,,,,,,,,,,,,,,,,METAR,37.0
BGJN 070350Z AUTO 28005KT 9999NDV -SN OVC013/// M01/M02 Q1018,BGJN,2023-06-07T03:50:00Z,69.25,-51.07,-1.0,-2.0,280,5,,,30.059055,,,TRUE,,,,,,,-SN,OVC,1300,,,,,,,,,,,,,,,,,,,METAR,22.0
BGGH 070350Z AUTO 35007KT 9999 FEW014/// OVC025/// M01/M01 Q1022,BGGH,2023-06-07T03:50:00Z,64.2,-51.68,-1.0,-1.0,350,7,,6.21,30.177166,,,TRUE,,,,,,,,FEW,1400,OVC,2500,,,,,MVFR,,,,,,,,,,,,METAR,76.0
BGBW 070350Z AUTO 22003KT 9999NDV SCT009/// OVC011/// 05/03 Q1021,BGBW,2023-06-07T03:50:00Z,61.17,-45.42,5.0,3.0,220,3,,,30.147638,,,TRUE,,,,,,,,SCT,900,OVC,1100,,,,,,,,,,,,,,,,,METAR,49.0
MMAS 070349Z 29002KT 8SM SCT050 BKN100 23/03 A3013 RMK 8/430,MMAS,2023-06-07T03:49:00Z,21.7,-102.32,23.0,3.0,290,2,,8.0,30.129921,,,,,,,,,,,SCT,5000,BKN,10000,,,,,VFR,,,,,,,,,,,,METAR,1866.0
MMTG 070348Z 30006KT 10SM SKC 27/20 A2991 RMK ISOLD CI,MMTG,2023-06-07T03:48:00Z,16.57,-93.03,27.0,20.0,300,6,,10.0,29.911417,,,,,,,,,,,SKC,,,,,,,,VFR,,,,,,,,,,,,METAR,463.0
MMCZ 070348Z 15004KT 7SM FEW015 SCT140 28/24 A2987 RMK 8/530,MMCZ,2023-06-07T03:48:00Z,20.52,-86.92,28.0,24.0,150,4,,7.0,29.870079,,,,,,,,,,,FEW,1500,SCT,14000,,,,,VFR,,,,,,,,,,,,METAR,7.0
KJDN 070348Z AUTO 26005KT 21/17 A2989 RMK AO1 SLP107 T02110172,KJDN,2023-06-07T03:48:00Z,47.33,-106.95,21.1,17.2,260,5,,,29.890747,1010.7,,TRUE,TRUE,,,,,,,,,,,,,,,,,,,,,,,,,,,METAR,802.0
MMMX 070347Z 09008KT 10SM SCT020 BKN080 21/09 A3028 NOSIG RMK 8/530,MMMX,2023-06-07T03:47:00Z,19.43,-99.08,21.0,9.0,90,8,,10.0,30.280512,,,,,,TRUE,,,,,SCT,2000,BKN,8000,,,,,VFR,,,,,,,,,,,,METAR,2224.0
MMGL 070347Z 25007KT 10SM SKC 25/10 A3007,MMGL,2023-06-07T03:47:00Z,20.52,-103.32,25.0,10.0,250,7,,10.0,30.070866,,,,,,,,,,,SKC,,,,,,,,VFR,,,,,,,,,,,,METAR,1531.0
KSUN 070347Z 12011G18KT 10SM -RA SCT070 BKN110 16/11 A3000,KSUN,2023-06-07T03:47:00Z,43.5,-114.28,16.0,11.0,120,11,18,10.0,30.0,,,,,,,,,,-RA,SCT,7000,BKN,11000,,,,,VFR,,,,,,,,,,,,METAR,1619.0
KRPX 070347Z AUTO 10SM 18/13 A2990 RMK Roundup ,KRPX,2023-06-07T03:47:00Z,46.47,-108.55,18.0,13.0,,,,10.0,29.899607,,,TRUE,,,,,,,,,,,,,,,,,,,,,,,,,,,,METAR,1062.0
KRHV 070347Z 27010KT 10SM BKN040 17/10 A2988,KRHV,2023-06-07T03:47:00Z,37.33,-121.82,17.0,10.0,270,10,,10.0,29.878937,,,,,,,,,,,BKN,4000,,,,,,,VFR,,,,,,,,,,,,METAR,37.0
KPOC 070347Z 25008KT 10SM OVC024 15/12 A2993 RMK LAST,KPOC,2023-06-07T03:47:00Z,34.1,-117.77,15.0,12.0,250,8,,10.0,29.929134,,,,,,,,,,,OVC,2400,,,,,,,MVFR,,,,,,,,,,,,METAR,304.0
KPAO 070347Z 23010G17KT 10SM SCT025 BKN120 16/11 A2988 RMK LAST,KPAO,2023-06-07T03:47:00Z,37.47,-122.12,16.0,11.0,230,10,17,10.0,29.878937,,,,,,,,,,,SCT,2500,BKN,12000,,,,,VFR,,,,,,,,,,,,METAR,2.0
KGYR 070347Z VRB04KT 10SM SKC 28/M02 A2974 RMK LAST,KGYR,2023-06-07T03:47:00Z,33.42,-112.37,28.0,-2.0,0,4,,10.0,29.740158,,,,,,,,,,,SKC,,,,,,,,VFR,,,,,,,,,,,,METAR,292.0
KCQT 070347Z AUTO 25003KT 10SM BKN040 OVC110 17/11 A2992 RMK AO2 SLP131 T01670106 $,KCQT,2023-06-07T03:47:00Z,34.02,-118.28,16.7,10.6,250,3,,10.0,29.920275,1013.1,,TRUE,TRUE,TRUE,,,,,,BKN,4000,OVC,11000,,,,,VFR,,,,,,,,,,,,METAR,51.0
KCHD 070347Z 26008KT 10SM CLR 30/M04 A2975 RMK LAST,KCHD,2023-06-07T03:47:00Z,33.27,-111.82,30.0,-4.0,260,8,,10.0,29.749016,,,,,,,,,,,CLR,,,,,,,,VFR,,,,,,,,,,,,METAR,378.0
PALP 070345Z 05010KT 10SM SCT100 04/00 A3002 RMK LAST,PALP,2023-06-07T03:45:00Z,70.33,-150.93,4.0,0.0,50,10,,10.0,30.02067,,,,,,,,,,,SCT,10000,,,,,,,VFR,,,,,,,,,,,,METAR,4.0
MMVR 070345Z 00000KT 7SM SKC 27/24 A2987,MMVR,2023-06-07T03:45:00Z,19.15,-96.18,27.0,24.0,0,0,,7.0,29.870079,,,,,,,,,,,SKC,,,,,,,,VFR,,,,,,,,,,,,METAR,26.0
KSWF 070345Z 36006KT 5SM HZ VV010 11/07 A2966,KSWF,2023-06-07T03:45:00Z,41.5,-74.08,11.0,7.0,360,6,,5.0,29.660433,,,,,,,,,,HZ,OVX,0,,,,,,,LIFR,,,,,,,,,,,1000,METAR,139.0
MMPS 070344Z 14005KT 7SM SCT030 SCT100 27/22 A2989 RMK 8/460 HZY,MMPS,2023-06-07T03:44:00Z,15.87,-97.08,27.0,22.0,140,5,,7.0,29.890747,,,,,,,,,,,SCT,3000,SCT,10000,,,,,VFR,,,,,,,,,,,,METAR,65.0
MMPR 070344Z 17004KT 8SM FEW035 26/22 A2988 RMK 8/500,MMPR,2023-06-07T03:44:00Z,20.67,-105.25,26.0,22.0,170,4,,8.0,29.878937,,,,,,,,,,,FEW,3500,,,,,,,VFR,,,,,,,,,,,,METAR,6.0
MMMZ 070344Z 00000KT 10SM BKN240 24/21 A2988 RMK 8/002,MMMZ,2023-06-07T03:44:00Z,23.17,-106.27,24.0,21.0,0,0,,10.0,29.878937,,,,,,,,,,,BKN,24000,,,,,,,VFR,,,,,,,,,,,,METAR,7.0
MMCL 070344Z 19005KT 10SM SCT070 SCT230 26/21 A2986 RMK 8/034 HZY,MMCL,2023-06-07T03:44:00Z,24.77,-107.47,26.0,21.0,190,5,,10.0,29.861221,,,,,,,,,,,SCT,7000,SCT,23000,,,,,VFR,,,,,,,,,,,,METAR,35.0
MMML 070342Z 29003KT 10SM BKN200 28/01 A2972 RMK 8/008,MMML,2023-06-07T03:42:00Z,32.62,-115.23,28.0,1.0,290,3,,10.0,29.719488,,,,,,,,,,,BKN,20000,,,,,,,VFR,,,,,,,,,,,,METAR,21.0
MMMD 070342Z 03004KT 6SM FEW015 27/23 A2987 RMK 8/500 HZY,MMMD,2023-06-07T03:42:00Z,20.95,-89.65,27.0,23.0,30,4,,6.0,29.870079,,,,,,,,,,,FEW,1500,,,,,,,VFR,,,,,,,,,,,,METAR,10.0
MMTJ 070341Z 31004KT 8SM OVC025 16/12 A2995 RMK 8/5// BINOVC,MMTJ,2023-06-07T03:41:00Z,32.53,-116.97,16.0,12.0,310,4,,8.0,29.949802,,,,,,,,,,,OVC,2500,,,,,,,MVFR,,,,,,,,,,,,METAR,150.0
MMSM 070341Z 04010KT 7SM FEW020 BKN080 19/10 A3027 RMK 8/460 HZY CI,MMSM,2023-06-07T03:41:00Z,19.75,-99.02,19.0,10.0,40,10,,7.0,30.268702,,,,,,,,,,,FEW,2000,BKN,8000,,,,,VFR,,,,,,,,,,,,METAR,2250.0
MMLP 070341Z 19012KT 10SM SKC 18/11 A2990 NOSIG,MMLP,2023-06-07T03:41:00Z,24.07,-110.37,18.0,11.0,190,12,,10.0,29.899607,,,,,,TRUE,,,,,SKC,,,,,,,,VFR,,,,,,,,,,,,METAR,16.0
MMCS 070341Z 12005KT 10SM FEW030 FEW100 BKN200 20/13 A3000 RMK 8/463,MMCS,2023-06-07T03:41:00Z,31.63,-106.42,20.0,13.0,120,5,,10.0,30.0,,,,,,,,,,,FEW,3000,FEW,10000,BKN,20000,,,VFR,,,,,,,,,,,,METAR,1194.0
MMZC 070340Z E21008KT 10SM BKN100 21/08 A3020 RMK 8/050,MMZC,2023-06-07T03:40:00Z,22.9,-102.68,21.0,8.0,210,8,,10.0,30.200787,,,,,,,,,,,BKN,10000,,,,,,,VFR,,,,,,,,,,,,METAR,2175.0
MMUN 070340Z 15008KT 7SM SCT015 SCT250 28/23 A2988 RMK 8/108 ISOL MDT CU,MMUN,2023-06-07T03:40:00Z,21.03,-86.85,28.0,23.0,150,8,,7.0,29.878937,,,,,,,,,,,SCT,1500,SCT,25000,,,,,VFR,,,,,,,,,,,,METAR,13.0
MMTM 070340Z E12005KT 8SM FEW220 28/24 A2988 RMK 8/002 SC,MMTM,2023-06-07T03:40:00Z,22.28,-97.87,28.0,24.0,120,5,,8.0,29.878937,,,,,,,,,,,FEW,22000,,,,,,,VFR,,,,,,,,,,,,METAR,21.0
MMTC 070340Z 27007KT 8SM BKN100 BKN250 28/08 A2995 RMK 8/063 SC,MMTC,2023-06-07T03:40:00Z,25.57,-103.4,28.0,8.0,270,7,,8.0,29.949802,,,,,,,,,,,BKN,10000,BKN,25000,,,,,VFR,,,,,,,,,,,,METAR,1128.0
MMSP 070340Z 10008KT 8SM FEW025 19/12 A3017 RMK 8/500,MMSP,2023-06-07T03:40:00Z,22.25,-100.93,19.0,12.0,100,8,,8.0,30.171259,,,,,,,,,,,FEW,2500,,,,,,,VFR,,,,,,,,,,,,METAR,1841.0
MMSD 070340Z 29003KT 10SM FEW200 25/09 A2984 RMK 8/004,MMSD,2023-06-07T03:40:00Z,23.15,-109.72,25.0,9.0,290,3,,10.0,29.840551,,,,,,,,,,,FEW,20000,,,,,,,VFR,,,,,,,,,,,,METAR,107.0
MMQT 070340Z 12016KT 7SM BKN020 BKN070 20/14 A3024 RMK 8/460,MMQT,2023-06-07T03:40:00Z,20.62,-100.18,20.0,14.0,120,16,,7.0,30.239174,,,,,,,,,,,BKN,2000,BKN,7000,,,,,MVFR,,,,,,,,,,,,METAR,1909.0
MMMY 070340Z 12006KT 12SM SKC 26/20 A2986,MMMY,2023-06-07T03:40:00Z,25.77,-100.1,26.0,20.0,120,6,,12.0,29.861221,,,,,,,,,,,SKC,,,,,,,,VFR,,,,,,,,,,,,METAR,382.0
MMLM 070340Z 15006KT 10SM OVC220 26/20 A2984 RMK 8/007,MMLM,2023-06-07T03:40:00Z,25.68,-109.08,26.0,20.0,150,6,,10.0,29.840551,,,,,,,,,,,OVC,22000,,,,,,,VFR,,,,,,,,,,,,METAR,6.0
MMHO 070340Z 26006KT 10SM FEW200 27/13 A2984 RMK 8/008 HZY,MMHO,2023-06-07T03:40:00Z,29.08,-111.05,27.0,13.0,260,6,,10.0,29.840551,,,,,,,,,,,FEW,20000,,,,,,,VFR,,,,,,,,,,,,METAR,186.0
MMCP 070340Z 09008KT 7SM FEW030 28/24 A2987 RMK 8/100,MMCP,2023-06-07T03:40:00Z,19.82,-90.5,28.0,24.0,90,8,,7.0,29.870079,,,,,,,,,,,FEW,3000,,,,,,,VFR,,,,,,,,,,,,METAR,9.0
MMAN 070340Z 13004KT 10SM SKC 27/19 A2989,MMAN,2023-06-07T03:40:00Z,25.87,-100.23,27.0,19.0,130,4,,10.0,29.890747,,,,,,,,,,,SKC,,,,,,,,VFR,,,,,,,,,,,,METAR,447.0
MMAA 070340Z 00000KT 5SM FEW015 SCT090 28/22 A2986 RMK 8/130 HZY ISOL CI,MMAA,2023-06-07T03:40:00Z,16.75,-99.75,28.0,22.0,0,0,,5.0,29.861221,,,,,,,,,,,FEW,1500,SCT,9000,,,,,MVFR,,,,,,,,,,,,METAR,5.0
KRQO 070335Z AUTO 10004KT 19/17 A2998 RMK AO2 T01920174,KRQO,2023-06-07T03:35:00Z,35.47,-98.0,19.2,17.4,100,4,,,29.97933,,,TRUE,TRUE,,,,,,,,,,,,,,,,,,,,,,,,,,,METAR,431.0
KRCM 070335Z AUTO 18003KT 10SM CLR 21/14 A2991 RMK AO2,KRCM,2023-06-07T03:35:00Z,38.78,-93.8,21.0,14.0,180,3,,10.0,29.911417,,,TRUE,TRUE,,,,,,,CLR,,,,,,,,VFR,,,,,,,,,,,,METAR,242.0
KOLE 070335Z AUTO 32003KT 7SM OVC048 11/06 A2980 RMK AO2,KOLE,2023-06-07T03:35:00Z,42.23,-78.37,11.0,6.0,320,3,,7.0,29.799213,,,TRUE,TRUE,,,,,,,OVC,4800,,,,,,,VFR,,,,,,,,,,,,METAR,651.0
KIDI 070335Z AUTO VRB04KT 10SM SCT024 BKN035 OVC050 15/05 A2982 RMK A01,KIDI,2023-06-07T03:35:00Z,40.63,-79.1,15.0,5.0,0,4,,10.0,29.819881,,,TRUE,TRUE,,,,,,,SCT,2400,BKN,3500,OVC,5000,,,VFR,,,,,,,,,,,,METAR,425.0
VYMD 070330Z 18003KT 6000 BKN018 FEW020CB BKN100 27/26 Q1005,VYMD,2023-06-07T03:30:00Z,21.7,95.98,27.0,26.0,180,3,,3.73,29.675198,,,,,,,,,,,BKN,1800,FEW,2000,BKN,10000,,,MVFR,,,,,,,,,,,,METAR,87.0
VOGO 070330Z 02004KT 6000 SCT020 30/25 Q1008 NOSIG,VOGO,2023-06-07T03:30:00Z,15.38,73.83,30.0,25.0,20,4,,3.73,29.763779,,,,,,TRUE,,,,,SCT,2000,,,,,,,MVFR,,,,,,,,,,,,METAR,56.0
VABV 070330Z 21008KT 6000 FEW020 32/25 Q1007,VABV,2023-06-07T03:30:00Z,21.75,72.2,32.0,25.0,210,8,,3.73,29.734253,,,,,,,,,,,FEW,2000,,,,,,,MVFR,,,,,,,,,,,,METAR,8.0
RKSU 070330Z 17002KT 8000 HZ BKN032 23/15 A2985 RMK CIG032,RKSU,2023-06-07T03:30:00Z,37.42,127.62,23.0,15.0,170,2,,4.97,29.84941,,,,,,,,,,HZ,BKN,3200,,,,,,,MVFR,,,,,,,,,,,,SPECI,43.0
HKMO 070330Z 24003KT 9999 FEW019 22/21 Q1015 NOSIG,HKMO,2023-06-07T03:30:00Z,-4.02,39.62,22.0,21.0,240,3,,6.21,29.970472,,,,,,TRUE,,,,,FEW,1900,,,,,,,VFR,,,,,,,,,,,,METAR,55.0
FDSK 070330Z VRB02KT CAVOK 11/10 Q1020 NOSIG,FDSK,2023-06-07T03:30:00Z,-26.35,31.72,11.0,10.0,0,2,,6.21,30.11811,,,,,,TRUE,,,,,CAVOK,,,,,,,,VFR,,,,,,,,,,,,METAR,323.0
