raw_text,station_id,observation_time,latitude,longitude,temp_c,dewpoint_c,wind_dir_degrees,wind_speed_kt,wind_gust_kt,visibility_statute_mi,altim_in_hg,sea_level_pressure_mb,corrected,auto,auto_station,maintenance_indicator_on,no_signal,lightning_sensor_off,freezing_rain_sensor_off,present_weather_sensor_off,wx_string,sky_cover,cloud_base_ft_agl,sky_cover,cloud_base_ft_agl,sky_cover,cloud_base_ft_agl,sky_cover,cloud_base_ft_agl,flight_category,three_hr_pressure_tendency_mb,maxT_c,minT_c,maxT24hr_c,minT24hr_c,precip_in,pcp3hr_in,pcp6hr_in,pcp24hr_in,snow_in,vert_vis_ft,metar_type,elevation_m
LMML 170845Z 29018KT 9999 FEW029 20/12 Q1014 NOSIG,LMML,2023-05-17T08:45:00Z,35.85,14.47,20.0,12.0,290,18,,6.21,29.940945,,,,,,TRUE,,,,,FEW,2900,,,,,,,VFR,,,,,,,,,,,,METAR,78.0
KSWF 170845Z 04009KT 10SM BKN060 11/06 A2964,KSWF,2023-05-17T08:45:00Z,41.5,-74.08,11.0,6.0,40,9,,10.0,29.639763,,,,,,,,,,,BKN,6000,,,,,,,VFR,,,,,,,,,,,,METAR,139.0
KMHK 170844Z AUTO 00000KT 2 1/2SM BR FEW005 11/09 A2998 RMK AO2 T01060094,KMHK,2023-05-17T08:44:00Z,39.13,-96.68,10.6,9.4,0,0,,2.5,29.97933,,,TRUE,TRUE,,,,,,BR,FEW,500,,,,,,,IFR,,,,,,,,,,,,SPECI,320.0
CYQV 170844Z AUTO 34015G21KT 3/4SM HZ OVC024 12/04 A2984 RMK SLP116 DENSITY ALT 1900FT,CYQV,2023-05-17T08:44:00Z,51.27,-102.47,12.0,4.0,340,15,21,0.75,29.840551,1011.6,,TRUE,,,,,,,HZ,OVC,2400,,,,,,,LIFR,,,,,,,,,,,,SPECI,493.0
CYHK 170844Z AUTO 36014G19KT 9SM BKN009 OVC013 00/M01 A2988 RMK ICE PAST HR SLP126,CYHK,2023-05-17T08:44:00Z,68.62,-95.85,0.0,-1.0,360,14,19,9.0,29.878937,1012.6,,TRUE,,,,,,,,BKN,900,OVC,1300,,,,,IFR,,,,,,,,,,,,SPECI,36.0
YLHI 170843Z AUTO 20021G34KT 9999 -SHRA SCT019 BKN023 BKN027 18/14 Q1006,YLHI,2023-05-17T08:43:00Z,-31.53,159.07,18.0,14.0,200,21,34,6.21,29.704725,,,TRUE,,,,,,,-SHRA,SCT,1900,BKN,2300,BKN,2700,,,MVFR,,,,,,,,,,,,SPECI,2.0
KWLD 170843Z AUTO 29003KT 3SM BR CLR 13/13 A2999 RMK AO2 T01280128,KWLD,2023-05-17T08:43:00Z,37.17,-97.03,12.8,12.8,290,3,,3.0,29.991142,,,TRUE,TRUE,,,,,,BR,CLR,,,,,,,,MVFR,,,,,,,,,,,,SPECI,351.0
KRYY 170843Z AUTO 27006KT 10SM BKN007 19/18 A2984 RMK AO2 CIG 004V009 $,KRYY,2023-05-17T08:43:00Z,34.02,-84.6,19.0,18.0,270,6,,10.0,29.840551,,,TRUE,TRUE,TRUE,,,,,,BKN,700,,,,,,,IFR,,,,,,,,,,,,SPECI,306.0
KHSE 170843Z AUTO 25011G18KT 6SM BR FEW018 FEW095 BKN120 22/22 A2967 RMK AO2 PK WND 23026/0759 LTG DSNT E RAB0758E09 TSB02E22 P0000 T02170217,KHSE,2023-05-17T08:43:00Z,35.23,-75.62,21.7,21.7,250,11,18,6.0,29.66929,,,TRUE,TRUE,,,,,,BR,FEW,1800,FEW,9500,BKN,12000,,,VFR,,,,,,0.005,,,,,,METAR,4.0
KCPS 170843Z AUTO 00000KT 2SM BR FEW004 13/13 A2989 RMK AO2 T01330128,KCPS,2023-05-17T08:43:00Z,38.53,-90.15,13.3,12.8,0,0,,2.0,29.890747,,,TRUE,TRUE,,,,,,BR,FEW,400,,,,,,,IFR,,,,,,,,,,,,SPECI,125.0
CYCB 170843Z 32006KT 15SM FEW006 SCT015 BKN070 BKN140 M03/M05 A3011 RMK CF1SC3AC1AC1 SLP200,CYCB,2023-05-17T08:43:00Z,69.1,-105.12,-3.0,-5.0,320,6,,15.0,30.109253,1020.0,,,,,,,,,,FEW,600,SCT,1500,BKN,7000,BKN,14000,VFR,,,,,,,,,,,,SPECI,19.0
KVIH 170842Z AUTO 29005KT 4SM BR CLR 14/13 A2993 RMK AO2 T01390133,KVIH,2023-05-17T08:42:00Z,38.13,-91.77,13.9,13.3,290,5,,4.0,29.929134,,,TRUE,TRUE,,,,,,BR,CLR,,,,,,,,MVFR,,,,,,,,,,,,SPECI,342.0
KJAN 170842Z AUTO 00000KT 10SM BKN028 21/20 A2985 RMK AO2 LTG DSNT NE AND E RAE15 TSE01 P0018 T02110200,KJAN,2023-05-17T08:42:00Z,32.32,-90.08,21.1,20.0,0,0,,10.0,29.84941,,,TRUE,TRUE,,,,,,,BKN,2800,,,,,,,MVFR,,,,,,0.18,,,,,,METAR,92.0
KI69 170842Z AUTO 00000KT 10SM CLR 10/09 A2985 RMK AO1,KI69,2023-05-17T08:42:00Z,39.08,-84.22,10.0,9.0,0,0,,10.0,29.84941,,,TRUE,TRUE,,,,,,,CLR,,,,,,,,VFR,,,,,,,,,,,,METAR,238.0
KFFT 170842Z AUTO 00000KT 1 1/2SM BR CLR 11/11 A2985 RMK AO2 T01110106,KFFT,2023-05-17T08:42:00Z,38.18,-84.9,11.1,10.6,0,0,,1.5,29.84941,,,TRUE,TRUE,,,,,,BR,CLR,,,,,,,,IFR,,,,,,,,,,,,SPECI,235.0
KCHA 170842Z AUTO 00000KT 10SM BKN004 20/18 A2982 RMK AO2 T02000183 $,KCHA,2023-05-17T08:42:00Z,35.03,-85.2,20.0,18.3,0,0,,10.0,29.819881,,,TRUE,TRUE,TRUE,,,,,,BKN,400,,,,,,,LIFR,,,,,,,,,,,,METAR,203.0
KAVX 170842Z AUTO 19003KT 2 1/2SM HZ CLR 11/08 A2997 RMK AO2 T01110083,KAVX,2023-05-17T08:42:00Z,33.4,-118.42,11.1,8.3,190,3,,2.5,29.970472,,,TRUE,TRUE,,,,,,HZ,CLR,,,,,,,,IFR,,,,,,,,,,,,SPECI,482.0
KAKH 170842Z AUTO 00000KT 9SM FEW002 18/17 A2973 RMK AO2 T01780172,KAKH,2023-05-17T08:42:00Z,35.2,-81.15,17.8,17.2,0,0,,9.0,29.731298,,,TRUE,TRUE,,,,,,,FEW,200,,,,,,,VFR,,,,,,,,,,,,SPECI,242.0
CYNM 170842Z AUTO 33011KT 9SM BKN014 OVC046 M05/M07 A2996 RMK SLP166,CYNM,2023-05-17T08:42:00Z,49.77,-77.78,-5.0,-7.0,330,11,,9.0,29.958662,1016.6,,TRUE,,,,,,,,BKN,1400,OVC,4600,,,,,MVFR,,,,,,,,,,,,SPECI,276.0
CYEG 170842Z 22004KT 4SM FU BKN054 02/M03 A3016 RMK FU1FU6 SLP229,CYEG,2023-05-17T08:42:00Z,53.3,-113.58,2.0,-3.0,220,4,,4.0,30.159449,1022.9,,,,,,,,,FU,BKN,5400,,,,,,,MVFR,,,,,,,,,,,,SPECI,710.0
PFCL 170841Z AUTO 16016KT 10SM OVC029 04/03 A3011 RMK AO2 RAE10 P0000 TSNO,PFCL,2023-05-17T08:41:00Z,58.83,-158.53,4.0,3.0,160,16,,10.0,30.109253,,,TRUE,TRUE,,,TRUE,,,,OVC,2900,,,,,,,MVFR,,,,,,0.005,,,,,,SPECI,23.0
PAOU 170841Z AUTO 19008KT 10SM -RA BKN011 OVC021 03/02 A3012 RMK AO2 PNO $,PAOU,2023-05-17T08:41:00Z,56.0,-161.17,3.0,2.0,190,8,,10.0,30.121063,,,TRUE,TRUE,TRUE,,,,,-RA,BKN,1100,OVC,2100,,,,,MVFR,,,,,,,,,,,,SPECI,3.0
PAOO 170841Z AUTO BKN004 OVC007 M01/M01 A2996 RMK AO2 PWINO FZRANO TSNO $,PAOO,2023-05-17T08:41:00Z,60.53,-165.08,-1.0,-1.0,,,,,29.958662,,,TRUE,TRUE,TRUE,,TRUE,TRUE,TRUE,,BKN,400,OVC,700,,,,,,,,,,,,,,,,,SPECI,15.0
NZCM 170841Z AUTO 04014KT 9999 -SN BKN050 OVC090 M17/M22 A2895 RMK AO2 SNB0841 SLP811 T11681215,NZCM,2023-05-17T08:41:00Z,-77.85,166.67,-16.8,-21.5,40,14,,6.21,28.948818,981.1,,TRUE,TRUE,,,,,,-SN,BKN,5000,OVC,9000,,,,,VFR,,,,,,,,,,,,SPECI,24.0
KMSV 170841Z AUTO 33014G24KT 10SM SCT027 08/03 A2967 RMK AO2,KMSV,2023-05-17T08:41:00Z,41.7,-74.78,8.0,3.0,330,14,24,10.0,29.66929,,,TRUE,TRUE,,,,,,,SCT,2700,,,,,,,VFR,,,,,,,,,,,,SPECI,427.0
KMDH 170841Z AUTO 00000KT 3/4SM BR VV003 14/13 A2989 RMK AO2 T01390133,KMDH,2023-05-17T08:41:00Z,37.78,-89.25,13.9,13.3,0,0,,0.75,29.890747,,,TRUE,TRUE,,,,,,BR,OVX,0,,,,,,,LIFR,,,,,,,,,,,300,SPECI,122.0
KLEX 170841Z 00000KT 1 3/4SM BR CLR 12/11 A2986 RMK AO2 T01220106,KLEX,2023-05-17T08:41:00Z,38.03,-84.6,12.2,10.6,0,0,,1.75,29.861221,,,,TRUE,,,,,,BR,CLR,,,,,,,,IFR,,,,,,,,,,,,SPECI,294.0
KGPI 170841Z AUTO 03007KT 3SM HZ CLR 15/06 A3008 RMK AO2 LTG DSNT S T01500056,KGPI,2023-05-17T08:41:00Z,48.32,-114.25,15.0,5.6,30,7,,3.0,30.079725,,,TRUE,TRUE,,,,,,HZ,CLR,,,,,,,,MVFR,,,,,,,,,,,,SPECI,903.0
FAUP 170841Z 36001KT CAVOK 22/M00 Q1019 NOSIG,FAUP,2023-05-17T08:41:00Z,-28.38,21.27,22.0,0.0,360,1,,6.21,30.088583,,,,,,TRUE,,,,,CAVOK,,,,,,,,VFR,,,,,,,,,,,,SPECI,845.0
CYYL 170841Z AUTO 07009KT 5SM -RA BR OVC004 04/04 A2978 RMK SLP104,CYYL,2023-05-17T08:41:00Z,56.87,-101.07,4.0,4.0,70,9,,5.0,29.778543,1010.4,,TRUE,,,,,,,-RA BR,OVC,400,,,,,,,LIFR,,,,,,,,,,,,SPECI,351.0
CYXR 170841Z AUTO 34014KT 9SM -SN SCT025 OVC032 M01/M05 A3000 RMK SLP176,CYXR,2023-05-17T08:41:00Z,47.7,-79.85,-1.0,-5.0,340,14,,9.0,30.0,1017.6,,TRUE,,,,,,,-SN,SCT,2500,OVC,3200,,,,,VFR,,,,,,,,,,,,SPECI,244.0
CYIV 170841Z AUTO 12014G22KT 9SM OVC096 07/M02 A2987 RMK SLP128,CYIV,2023-05-17T08:41:00Z,53.85,-94.65,7.0,-2.0,120,14,22,9.0,29.870079,1012.8,,TRUE,,,,,,,,OVC,9600,,,,,,,VFR,,,,,,,,,,,,SPECI,234.0
PKWA 170840Z AUTO 08009KT 10SM SCT022 SCT031 28/24 A2986 RMK AO2 T02810237 TSNO,PKWA,2023-05-17T08:40:00Z,8.72,167.72,28.1,23.7,80,9,,10.0,29.861221,,,TRUE,TRUE,,,TRUE,,,,SCT,2200,SCT,3100,,,,,VFR,,,,,,,,,,,,METAR,6.0
PHSF 170840Z AUTO 00000KT 1/2SM R09/1800VP6000FT FG VV003 11/11 A3042 RMK AO2 SLP185 $,PHSF,2023-05-17T08:40:00Z,19.77,-155.55,11.0,11.0,0,0,,0.5,30.41929,1018.5,,TRUE,TRUE,TRUE,,,,,FG,OVX,0,,,,,,,LIFR,,,,,,,,,,,300,SPECI,1863.0
PHNG 170840Z 12006KT 10SM FEW023 BKN028 OVC060 25/19 A3010 RMK AO2 T02500194 $,PHNG,2023-05-17T08:40:00Z,21.43,-157.77,25.0,19.4,120,6,,10.0,30.100393,,,,TRUE,TRUE,,,,,,FEW,2300,BKN,2800,OVC,6000,,,MVFR,,,,,,,,,,,,SPECI,1.0
PAVD 170840Z AUTO 09004KT SCT014 OVC045 06/05 A3036 RMK AO2 TSNO $,PAVD,2023-05-17T08:40:00Z,61.13,-146.25,6.0,5.0,90,4,,,30.360237,,,TRUE,TRUE,TRUE,,TRUE,,,,SCT,1400,OVC,4500,,,,,,,,,,,,,,,,,METAR,21.0
KTRK 170840Z AUTO 00000KT 10SM CLR 03/01 A3025 RMK AO2,KTRK,2023-05-17T08:40:00Z,39.32,-120.13,3.0,1.0,0,0,,10.0,30.250984,,,TRUE,TRUE,,,,,,,CLR,,,,,,,,VFR,,,,,,,,,,,,SPECI,1800.0
KTOI 170840Z AUTO 00000KT 1/4SM FG VV002 20/18 A2983 RMK AO2 RAE05 P0000 T02000183,KTOI,2023-05-17T08:40:00Z,31.85,-86.02,20.0,18.3,0,0,,0.25,29.828741,,,TRUE,TRUE,,,,,,FG,OVX,0,,,,,,,LIFR,,,,,,0.005,,,,,200,SPECI,120.0
KSBD 170840Z AUTO 00000KT 10SM CLR 16/11 A2997 RMK AO2 T01620107,KSBD,2023-05-17T08:40:00Z,34.08,-117.25,16.2,10.7,0,0,,10.0,29.970472,,,TRUE,TRUE,,,,,,,CLR,,,,,,,,VFR,,,,,,,,,,,,SPECI,353.0
KQFX 170840Z AUTO 27003G12KT 9999 CLR 29/10 A2986 RMK A02 TSNO,KQFX,2023-05-17T08:40:00Z,,,29.0,10.0,270,3,12,6.21,29.861221,,,TRUE,TRUE,,,TRUE,,,,CLR,,,,,,,,VFR,,,,,,,,,,,,METAR,
KQFW 170840Z AUTO 22008G19KT 9999 CLR 27/08 A2971 RMK A02 TSNO,KQFW,2023-05-17T08:40:00Z,,,27.0,8.0,220,8,19,6.21,29.71063,,,TRUE,TRUE,,,TRUE,,,,CLR,,,,,,,,VFR,,,,,,,,,,,,METAR,
KQFV 170840Z AUTO 22004G12KT 9999 CLR 26/10 A2993 RMK A02 TSNO,KQFV,2023-05-17T08:40:00Z,,,26.0,10.0,220,4,12,6.21,29.929134,,,TRUE,TRUE,,,TRUE,,,,CLR,,,,,,,,VFR,,,,,,,,,,,,METAR,
KQFU 170840Z AUTO 19006G13KT 9999 BKN030 24/17 A2994 RMK A02 TSNO,KQFU,2023-05-17T08:40:00Z,,,24.0,17.0,190,6,13,6.21,29.940945,,,TRUE,TRUE,,,TRUE,,,,BKN,3000,,,,,,,MVFR,,,,,,,,,,,,METAR,
KQFT 170840Z AUTO 17006G11KT 9999 CLR 28/12 A2987 RMK A02 TSNO,KQFT,2023-05-17T08:40:00Z,,,28.0,12.0,170,6,11,6.21,29.870079,,,TRUE,TRUE,,,TRUE,,,,CLR,,,,,,,,VFR,,,,,,,,,,,,METAR,
KQFB 170840Z AUTO 20002G10KT 9999 CLR 28/16 A2996 RMK A02 TSNO,KQFB,2023-05-17T08:40:00Z,,,28.0,16.0,200,2,10,6.21,29.958662,,,TRUE,TRUE,,,TRUE,,,,CLR,,,,,,,,VFR,,,,,,,,,,,,METAR,
KQEY 170840Z AUTO 32002KT 9999 CLR 28/13 A2960 RMK A02 TSNO,KQEY,2023-05-17T08:40:00Z,,,28.0,13.0,320,2,,6.21,29.601377,,,TRUE,TRUE,,,TRUE,,,,CLR,,,,,,,,VFR,,,,,,,,,,,,METAR,
KQEX 170840Z AUTO 18010G19KT 9999 CLR 30/12 A2977 RMK A02 TSNO,KQEX,2023-05-17T08:40:00Z,,,30.0,12.0,180,10,19,6.21,29.769686,,,TRUE,TRUE,,,TRUE,,,,CLR,,,,,,,,VFR,,,,,,,,,,,,METAR,
KQEW 170840Z AUTO 24002G11KT 9999 // CLR 31/08 A2984 RMK A02 TSNO,KQEW,2023-05-17T08:40:00Z,,,31.0,8.0,240,2,11,6.21,29.840551,,,TRUE,TRUE,,,TRUE,,,,CLR,,,,,,,,VFR,,,,,,,,,,,,METAR,
KQEV 170840Z AUTO 22007G15KT 9999 CLR 28/09 A2985 RMK A02 TSNO,KQEV,2023-05-17T08:40:00Z,,,28.0,9.0,220,7,15,6.21,29.84941,,,TRUE,TRUE,,,TRUE,,,,CLR,,,,,,,,VFR,,,,,,,,,,,,METAR,
KQEQ 170840Z AUTO 24008G16KT 9999 OVC022 23/19 A2994 RMK A02 TSNO,KQEQ,2023-05-17T08:40:00Z,,,23.0,19.0,240,8,16,6.21,29.940945,,,TRUE,TRUE,,,TRUE,,,,OVC,2200,,,,,,,MVFR,,,,,,,,,,,,METAR,
KQEP 170840Z AUTO 22006G15KT 9999 CLR 27/12 A2991 RMK A02 TSNO,KQEP,2023-05-17T08:40:00Z,,,27.0,12.0,220,6,15,6.21,29.911417,,,TRUE,TRUE,,,TRUE,,,,CLR,,,,,,,,VFR,,,,,,,,,,,,METAR,
KQEN 170840Z AUTO 26006G17KT 9999 CLR 23/07 A2994 RMK A02 TSNO,KQEN,2023-05-17T08:40:00Z,,,23.0,7.0,260,6,17,6.21,29.940945,,,TRUE,TRUE,,,TRUE,,,,CLR,,,,,,,,VFR,,,,,,,,,,,,METAR,
KQEJ 170840Z AUTO 20007G17KT 9999 CLR 27/08 A2984 RMK A02 TSNO,KQEJ,2023-05-17T08:40:00Z,,,27.0,8.0,200,7,17,6.21,29.840551,,,TRUE,TRUE,,,TRUE,,,,CLR,,,,,,,,VFR,,,,,,,,,,,,METAR,
KQEI 170840Z AUTO 15004G10KT 9999 CLR 28/06 A2987 RMK A02 TSNO,KQEI,2023-05-17T08:40:00Z,,,28.0,6.0,150,4,10,6.21,29.870079,,,TRUE,TRUE,,,TRUE,,,,CLR,,,,,,,,VFR,,,,,,,,,,,,METAR,
KPO1 170840Z AUTO 24005KT 10SM BKN080 15/13 A2984 RMK AO2,KPO1,2023-05-17T08:40:00Z,48.13,-105.17,15.0,13.0,240,5,,10.0,29.840551,,,TRUE,TRUE,,,,,,,BKN,8000,,,,,,,VFR,,,,,,,,,,,,SPECI,621.0
KPGD 170840Z AUTO 00000KT 8SM BKN015 23/22 A2990 RMK AO2 T02280222,KPGD,2023-05-17T08:40:00Z,26.92,-82.0,22.8,22.2,0,0,,8.0,29.899607,,,TRUE,TRUE,,,,,,,BKN,1500,,,,,,,MVFR,,,,,,,,,,,,SPECI,7.0
KNQX 170840Z AUTO 00000KT 10SM FEW047 A2991 RMK AO2 TSB01E34 $,KNQX,2023-05-17T08:40:00Z,24.57,-81.67,,,0,0,,10.0,29.911417,,,TRUE,TRUE,TRUE,,,,,,FEW,4700,,,,,,,VFR,,,,,,,,,,,,SPECI,2.0
KMTK 170840Z AUTO 28009KT 10SM CLR 26/22 A2986 RMK A01,KMTK,2023-05-17T08:40:00Z,,,26.0,22.0,280,9,,10.0,29.861221,,,TRUE,TRUE,,,,,,,CLR,,,,,,,,VFR,,,,,,,,,,,,METAR,
KLOR 170840Z AUTO 00000KT 1 3/8SM BR OVC001 20/19 A2982 RMK AO2 VIS 1 3/8V4 SLP080,KLOR,2023-05-17T08:40:00Z,31.35,-85.75,20.0,19.0,0,0,,1.38,29.819881,1008.0,,TRUE,TRUE,,,,,,BR,OVC,100,,,,,,,LIFR,,,,,,,,,,,,SPECI,92.0
KLLQ 170840Z AUTO 29005KT 10SM BKN018 BKN065 22/19 A2984 RMK AO2 T02170194,KLLQ,2023-05-17T08:40:00Z,33.63,-91.75,21.7,19.4,290,5,,10.0,29.840551,,,TRUE,TRUE,,,,,,,BKN,1800,BKN,6500,,,,,MVFR,,,,,,,,,,,,SPECI,86.0
KJQF 170840Z AUTO 00000KT 10SM CLR 18/17 A2976 RMK AO2,KJQF,2023-05-17T08:40:00Z,35.38,-80.72,18.0,17.0,0,0,,10.0,29.760826,,,TRUE,TRUE,,,,,,,CLR,,,,,,,,VFR,,,,,,,,,,,,SPECI,204.0
KHRF 170840Z AUTO 19009KT 10SM CLR 13/08 A3011 RMK AO2,KHRF,2023-05-17T08:40:00Z,46.25,-114.13,13.0,8.0,190,9,,10.0,30.109253,,,TRUE,TRUE,,,,,,,CLR,,,,,,,,VFR,,,,,,,,,,,,METAR,1112.0
KGVW 170840Z AUTO 33008KT 10SM OVC048 24/20 A2990 RMK A01,KGVW,2023-05-17T08:40:00Z,29.13,-94.55,24.0,20.0,330,8,,10.0,29.899607,,,TRUE,TRUE,,,,,,,OVC,4800,,,,,,,VFR,,,,,,,,,,,,METAR,37.0
KGUL 170840Z AUTO 00000KT 10SM CLR 25/22 A2990 RMK A01,KGUL,2023-05-17T08:40:00Z,27.3,-93.53,25.0,22.0,0,0,,10.0,29.899607,,,TRUE,TRUE,,,,,,,CLR,,,,,,,,VFR,,,,,,,,,,,,METAR,20.0
KGNG 170840Z AUTO 23004KT 10SM FEW060 FEW070 BKN120 13/10 A3011 RMK AO2,KGNG,2023-05-17T08:40:00Z,42.92,-114.77,13.0,10.0,230,4,,10.0,30.109253,,,TRUE,TRUE,,,,,,,FEW,6000,FEW,7000,BKN,12000,,,VFR,,,,,,,,,,,,METAR,1128.0
KDSF 170840Z AUTO 23010KT 9SM FEW013 25/23 A2987 RMK A01,KDSF,2023-05-17T08:40:00Z,28.35,-88.27,25.0,23.0,230,10,,9.0,29.870079,,,TRUE,TRUE,,,,,,,FEW,1300,,,,,,,VFR,,,,,,,,,,,,METAR,40.0
KBFD 170840Z AUTO 02004KT 10SM BKN016 OVC021 08/04 A2976 RMK AO2 T00830039,KBFD,2023-05-17T08:40:00Z,41.8,-78.63,8.3,3.9,20,4,,10.0,29.760826,,,TRUE,TRUE,,,,,,,BKN,1600,OVC,2100,,,,,MVFR,,,,,,,,,,,,SPECI,642.0
KATP 170840Z AUTO 00000KT 9SM FEW018 SCT025 BKN037 26/22 A2990 RMK A01,KATP,2023-05-17T08:40:00Z,27.2,-90.03,26.0,22.0,0,0,,9.0,29.899607,,,TRUE,TRUE,,,,,,,FEW,1800,SCT,2500,BKN,3700,,,VFR,,,,,,,,,,,,SPECI,50.0
ETIH 170840Z AUTO 31006KT 9999 OVC030 10/02 A3018 RMK AO2 SLP227 $,ETIH,2023-05-17T08:40:00Z,49.22,11.83,10.0,2.0,310,6,,6.21,30.180119,1022.7,,TRUE,TRUE,TRUE,,,,,,OVC,3000,,,,,,,MVFR,,,,,,,,,,,,SPECI,436.0
CYYB 170840Z AUTO 36008G15KT 3SM -SN FEW014 BKN027 OVC032 M02/M04 A2995 RMK SLP163,CYYB,2023-05-17T08:40:00Z,46.35,-79.42,-2.0,-4.0,360,8,15,3.0,29.949802,1016.3,,TRUE,,,,,,,-SN,FEW,1400,BKN,2700,OVC,3200,,,MVFR,,,,,,,,,,,,SPECI,360.0
KMRT 170839Z AUTO 36006KT 10SM CLR 10/06 A2985 RMK AO1,KMRT,2023-05-17T08:39:00Z,40.22,-83.35,10.0,6.0,360,6,,10.0,29.84941,,,TRUE,TRUE,,,,,,,CLR,,,,,,,,VFR,,,,,,,,,,,,SPECI,302.0
KLXT 170839Z AUTO 24004KT 3SM BR BKN090 12/12 A2995 RMK AO2 T01170117,KLXT,2023-05-17T08:39:00Z,38.97,-94.37,11.7,11.7,240,4,,3.0,29.949802,,,TRUE,TRUE,,,,,,BR,BKN,9000,,,,,,,MVFR,,,,,,,,,,,,METAR,306.0
KI35 170839Z AUTO 29003KT 10SM BKN012 OVC019 17/17 A2985 RMK AO2,KI35,2023-05-17T08:39:00Z,36.87,-83.37,17.0,17.0,290,3,,10.0,29.84941,,,TRUE,TRUE,,,,,,,BKN,1200,OVC,1900,,,,,MVFR,,,,,,,,,,,,SPECI,467.0
KFSM 170839Z AUTO 33008KT 10SM OVC030 19/15 A2991 RMK AO2 T01890150,KFSM,2023-05-17T08:39:00Z,35.33,-94.37,18.9,15.0,330,8,,10.0,29.911417,,,TRUE,TRUE,,,,,,,OVC,3000,,,,,,,MVFR,,,,,,,,,,,,METAR,136.0
K2V6 170839Z AUTO 00000KT 10SM 08/07 A3006 RMK AO2,K2V6,2023-05-17T08:39:00Z,40.1,-102.72,8.0,7.0,0,0,,10.0,30.059055,,,TRUE,TRUE,,,,,,,,,,,,,,,,,,,,,,,,,,,METAR,1257.0
CYQW 170839Z AUTO 28007KT 2 1/2SM HZ CLR 08/02 A3003 RMK SLP189,CYQW,2023-05-17T08:39:00Z,52.77,-108.25,8.0,2.0,280,7,,2.5,30.029528,1018.9,,TRUE,,,,,,,HZ,CLR,,,,,,,,IFR,,,,,,,,,,,,SPECI,545.0
CYPR 170839Z AUTO 31002KT 3/8SM FG VV001 09/09 A3010 RMK SLP195,CYPR,2023-05-17T08:39:00Z,54.28,-130.45,9.0,9.0,310,2,,0.38,30.100393,1019.5,,TRUE,,,,,,,FG,OVX,0,,,,,,,LIFR,,,,,,,,,,,100,SPECI,30.0
CWIL 170839Z AUTO ///// ////SM OVC015 M00/M01 A2999,CWIL,2023-05-17T08:39:00Z,68.32,-100.07,0.0,-1.0,,,,,29.991142,,,TRUE,,,,,,,,OVC,1500,,,,,,,,,,,,,,,,,,,SPECI,28.0
KSAW 170838Z AUTO 02009KT 10SM CLR 01/M01 A3005 RMK AO2 T00051015,KSAW,2023-05-17T08:38:00Z,46.35,-87.4,0.5,-1.5,20,9,,10.0,30.050198,,,TRUE,TRUE,,,,,,,CLR,,,,,,,,VFR,,,,,,,,,,,,METAR,359.0
KOLF 170838Z AUTO 35021G32KT 2SM HZ BKN011 18/11 A2984 RMK AO2 PK WND 34032/0837 T01780106,KOLF,2023-05-17T08:38:00Z,48.1,-105.58,17.8,10.6,350,21,32,2.0,29.840551,,,TRUE,TRUE,,,,,,HZ,BKN,1100,,,,,,,IFR,,,,,,,,,,,,METAR,605.0
KHOT 170838Z AUTO 26004KT 10SM SCT022 SCT029 OVC044 20/17 A2988 RMK AO2 T02000167,KHOT,2023-05-17T08:38:00Z,34.48,-93.1,20.0,16.7,260,4,,10.0,29.878937,,,TRUE,TRUE,,,,,,,SCT,2200,SCT,2900,OVC,4400,,,VFR,,,,,,,,,,,,METAR,153.0
KEKY 170838Z AUTO 27003KT 2 1/2SM BR OVC002 A2985 RMK AO2 VIS 2V4 FZRANO $,KEKY,2023-05-17T08:38:00Z,33.32,-86.93,,,270,3,,2.5,29.84941,,,TRUE,TRUE,TRUE,,,TRUE,,BR,OVC,200,,,,,,,LIFR,,,,,,,,,,,,SPECI,213.0
CYSJ 170838Z 03003KT 360V080 15SM FEW007 BKN030 BKN100 05/04 A2948 RMK SF1SC4AC2 SLP987,CYSJ,2023-05-17T08:38:00Z,45.32,-65.88,5.0,4.0,30,3,,15.0,29.480314,998.7,,,,,,,,,,FEW,700,BKN,3000,BKN,10000,,,MVFR,,,,,,,,,,,,SPECI,89.0
KMSL 170837Z AUTO 00000KT 10SM OVC014 21/19 A2983 RMK AO2 LTG DSNT SW T02110194 PWINO,KMSL,2023-05-17T08:37:00Z,34.75,-87.6,21.1,19.4,0,0,,10.0,29.828741,,,TRUE,TRUE,,,,,TRUE,,OVC,1400,,,,,,,MVFR,,,,,,,,,,,,SPECI,170.0
KLWC 170837Z AUTO 00000KT 3SM BR SCT095 11/10 A2996 RMK AO1 T01060100,KLWC,2023-05-17T08:37:00Z,39.02,-95.22,10.6,10.0,0,0,,3.0,29.958662,,,TRUE,TRUE,,,,,,BR,SCT,9500,,,,,,,MVFR,,,,,,,,,,,,SPECI,252.0
KLOU 170837Z AUTO 00000KT 2 1/2SM BR CLR 11/11 A2986 RMK AO2 VIS 1 1/4V5 T01110106,KLOU,2023-05-17T08:37:00Z,38.22,-85.67,11.1,10.6,0,0,,2.5,29.861221,,,TRUE,TRUE,,,,,,BR,CLR,,,,,,,,IFR,,,,,,,,,,,,SPECI,165.0
KLHX 170837Z AUTO 30013KT 10SM VCTS -RA OVC065 14/11 A3011 RMK AO2 RAB00 P0000 T01440111,KLHX,2023-05-17T08:37:00Z,38.05,-103.52,14.4,11.1,300,13,,10.0,30.109253,,,TRUE,TRUE,,,,,,VCTS -RA,OVC,6500,,,,,,,VFR,,,,,,0.005,,,,,,SPECI,1289.0
KLGB 170837Z 31003KT 5SM BR BKN006 14/12 A2997 RMK AO2 T01390122,KLGB,2023-05-17T08:37:00Z,33.82,-118.15,13.9,12.2,310,3,,5.0,29.970472,,,,TRUE,,,,,,BR,BKN,600,,,,,,,IFR,,,,,,,,,,,,SPECI,10.0
KJYG 170837Z AUTO 10004KT 10SM CLR 14/08 A2993 RMK AO2,KJYG,2023-05-17T08:37:00Z,43.98,-94.55,14.0,8.0,100,4,,10.0,29.929134,,,TRUE,TRUE,,,,,,,CLR,,,,,,,,VFR,,,,,,,,,,,,SPECI,323.0
KCKC 170837Z AUTO 07005KT 10SM CLR 02/M05 A3004 RMK AO2,KCKC,2023-05-17T08:37:00Z,47.83,-90.38,2.0,-5.0,70,5,,10.0,30.041338,,,TRUE,TRUE,,,,,,,CLR,,,,,,,,VFR,,,,,,,,,,,,METAR,544.0
KBKW 170837Z AUTO 30004KT 10SM SCT013 12/11 A2983 RMK AO2 T01170111,KBKW,2023-05-17T08:37:00Z,37.8,-81.12,11.7,11.1,300,4,,10.0,29.828741,,,TRUE,TRUE,,,,,,,SCT,1300,,,,,,,VFR,,,,,,,,,,,,SPECI,762.0
KADC 170837Z AUTO 11006KT 10SM CLR 11/07 A2996 RMK AO2 PWINO TSNO,KADC,2023-05-17T08:37:00Z,46.45,-95.22,11.0,7.0,110,6,,10.0,29.958662,,,TRUE,TRUE,,,TRUE,,TRUE,,CLR,,,,,,,,VFR,,,,,,,,,,,,METAR,416.0
CYBQ 170837Z AUTO 08012G17KT 9SM SCT020 BKN030 OVC045 00/M01 A3001 RMK SLP184,CYBQ,2023-05-17T08:37:00Z,58.7,-98.5,0.0,-1.0,80,12,17,9.0,30.008858,1018.4,,TRUE,,,,,,,,SCT,2000,BKN,3000,OVC,4500,,,MVFR,,,,,,,,,,,,SPECI,272.0
PAMO 170836Z AUTO 17016KT 1/2SM -SN FZFG OVC004 M01/M01 A2991 RMK AO2 P0001 FZRANO,PAMO,2023-05-17T08:36:00Z,62.1,-163.68,-1.0,-1.0,170,16,,0.5,29.911417,,,TRUE,TRUE,,,,TRUE,,-SN FZFG,OVC,400,,,,,,,LIFR,,,,,,0.01,,,,,,METAR,93.0
PAMM 170836Z AUTO 00000KT 1/4SM FG OVC002 09/08 A3013 RMK AO2 $,PAMM,2023-05-17T08:36:00Z,55.13,-131.58,9.0,8.0,0,0,,0.25,30.129921,,,TRUE,TRUE,TRUE,,,,,FG,OVC,200,,,,,,,LIFR,,,,,,,,,,,,METAR,0.0
PABE 170836Z 17012KT 6SM -SN BR BKN008 OVC016 00/M01 A3001 RMK AO2 CIG 006V010 P0000 T00001006,PABE,2023-05-17T08:36:00Z,60.78,-161.83,0.0,-0.6,170,12,,6.0,30.008858,,,,TRUE,,,,,,-SN BR,BKN,800,OVC,1600,,,,,IFR,,,,,,0.005,,,,,,SPECI,28.0
KSJC 170836Z AUTO 32006KT 10SM FEW008 14/13 A2998 RMK AO2 T01390128,KSJC,2023-05-17T08:36:00Z,37.37,-121.92,13.9,12.8,320,6,,10.0,29.97933,,,TRUE,TRUE,,,,,,,FEW,800,,,,,,,VFR,,,,,,,,,,,,SPECI,13.0
KNEW 170836Z AUTO 17006KT 10SM BKN019 24/21 A2985 RMK AO2 T02440206 $,KNEW,2023-05-17T08:36:00Z,30.05,-90.03,24.4,20.6,170,6,,10.0,29.84941,,,TRUE,TRUE,TRUE,,,,,,BKN,1900,,,,,,,MVFR,,,,,,,,,,,,SPECI,1.0
KMVN 170836Z AUTO 00000KT 2SM -RA BR FEW003 12/12 A2988 RMK AO2 VIS 3/4V5 P0000,KMVN,2023-05-17T08:36:00Z,38.32,-88.87,12.0,12.0,0,0,,2.0,29.878937,,,TRUE,TRUE,,,,,,-RA BR,FEW,300,,,,,,,IFR,,,,,,0.005,,,,,,METAR,145.0
KLOT 170836Z AUTO 02012G19KT 10SM CLR 09/04 A2994 RMK AO2,KLOT,2023-05-17T08:36:00Z,41.6,-88.1,9.0,4.0,20,12,19,10.0,29.940945,,,TRUE,TRUE,,,,,,,CLR,,,,,,,,VFR,,,,,,,,,,,,SPECI,205.0
KGZH 170836Z AUTO 00000KT 5SM BR SCT002 19/18 A2984 RMK AO2 T01890178,KGZH,2023-05-17T08:36:00Z,31.42,-87.05,18.9,17.8,0,0,,5.0,29.840551,,,TRUE,TRUE,,,,,,BR,SCT,200,,,,,,,MVFR,,,,,,,,,,,,SPECI,77.0
KCKB 170836Z AUTO 21005KT 8SM OVC010 13/12 A2978 RMK AO2 CIG 007V013 T01330117,KCKB,2023-05-17T08:36:00Z,39.3,-80.22,13.3,11.7,210,5,,8.0,29.778543,,,TRUE,TRUE,,,,,,,OVC,1000,,,,,,,MVFR,,,,,,,,,,,,SPECI,368.0
KBBB 170836Z AUTO 13005KT 10SM CLR 15/08 A2994 RMK AO2,KBBB,2023-05-17T08:36:00Z,45.32,-95.65,15.0,8.0,130,5,,10.0,29.940945,,,TRUE,TRUE,,,,,,,CLR,,,,,,,,VFR,,,,,,,,,,,,SPECI,315.0
KAUM 170836Z AUTO 10005KT 10SM CLR 13/07 A2995 RMK AO2,KAUM,2023-05-17T08:36:00Z,43.67,-92.92,13.0,7.0,100,5,,10.0,29.949802,,,TRUE,TRUE,,,,,,,CLR,,,,,,,,VFR,,,,,,,,,,,,SPECI,376.0
CYDF 170836Z 04007KT 6SM -RA BR OVC010 03/03 A2939 RMK SC8 SLP955,CYDF,2023-05-17T08:36:00Z,49.22,-57.4,3.0,3.0,40,7,,6.0,29.388779,995.5,,,,,,,,,-RA BR,OVC,1000,,,,,,,MVFR,,,,,,,,,,,,SPECI,15.0
HAAB 17O800 17006KT 9999 BKN025 20/14 Q1028,HAAB,2023-05-17T08:35:51Z,8.97,38.78,20.0,14.0,170,6,,6.21,,,,,,,,,,,,BKN,2500,,,,,,,MVFR,,,,,,,,,,,,METAR,2319.0
TJPS 170835Z AUTO 00000KT 10SM 25/21 A2995 RMK AO2 TSNO,TJPS,2023-05-17T08:35:00Z,18.02,-66.57,25.0,21.0,0,0,,10.0,29.949802,,,TRUE,TRUE,,,TRUE,,,,,,,,,,,,,,,,,,,,,,,,METAR,12.0
PPIZ 170835Z AUTO 04019KT 1 1/2SM -SN BR SCT030 OVC036 M07/M07 A3021 RMK AO2 P0000 FZRANO,PPIZ,2023-05-17T08:35:00Z,69.73,-163.0,-7.0,-7.0,40,19,,1.5,30.209646,,,TRUE,TRUE,,,,TRUE,,-SN BR,SCT,3000,OVC,3600,,,,,IFR,,,,,,0.005,,,,,,SPECI,5.0
PHBK 170835Z AUTO 13003KT 10SM FEW023 BKN043 OVC065 23/18 A3012 RMK AO2 T02280178,PHBK,2023-05-17T08:35:00Z,22.03,-159.78,22.8,17.8,130,3,,10.0,30.121063,,,TRUE,TRUE,,,,,,,FEW,2300,BKN,4300,OVC,6500,,,VFR,,,,,,,,,,,,METAR,5.0
PAAD 170835Z 07016KT 10SM OVC006 M06/M06 A3018 RMK AO2 T10561063 PWINO,PAAD,2023-05-17T08:35:00Z,70.13,-146.28,-5.6,-6.3,70,16,,10.0,30.180119,,,,TRUE,,,,,TRUE,,OVC,600,,,,,,,IFR,,,,,,,,,,,,SPECI,8.0
KZPH 170835Z AUTO 00000KT 5SM BR SCT021 22/22 A2990 RMK A02 T02180216,KZPH,2023-05-17T08:35:00Z,28.23,-82.15,21.8,21.6,0,0,,5.0,29.899607,,,TRUE,TRUE,,,,,,BR,SCT,2100,,,,,,,MVFR,,,,,,,,,,,,METAR,26.0
KZER 170835Z AUTO 33007KT 300V000 10SM SCT070 10/03 A2968 RMK AO2,KZER,2023-05-17T08:35:00Z,40.7,-76.37,10.0,3.0,330,7,,10.0,29.681103,,,TRUE,TRUE,,,,,,,SCT,7000,,,,,,,VFR,,,,,,,,,,,,SPECI,518.0
KY70 170835Z AUTO 02004KT 10SM CLR 05/05 A2995 RMK AO2 T00540053,KY70,2023-05-17T08:35:00Z,42.93,-85.07,5.4,5.3,20,4,,10.0,29.949802,,,TRUE,TRUE,,,,,,,CLR,,,,,,,,VFR,,,,,,,,,,,,SPECI,247.0
KY63 170835Z AUTO 11009KT 10SM CLR 14/09 A2993 RMK AO2 T01380091,KY63,2023-05-17T08:35:00Z,45.98,-96.0,13.8,9.1,110,9,,10.0,29.929134,,,TRUE,TRUE,,,,,,,CLR,,,,,,,,VFR,,,,,,,,,,,,SPECI,367.0
KY51 170835Z AUTO 10006KT 10SM CLR 10/07 A2999 RMK AO1 T00960074,KY51,2023-05-17T08:35:00Z,43.58,-90.9,9.6,7.4,100,6,,10.0,29.991142,,,TRUE,TRUE,,,,,,,CLR,,,,,,,,VFR,,,,,,,,,,,,SPECI,390.0
KY49 170835Z AUTO 13005KT 10SM CLR 09/03 A2998 RMK AO2 LTG DSNT N T00930031,KY49,2023-05-17T08:35:00Z,47.15,-94.65,9.3,3.1,130,5,,10.0,29.97933,,,TRUE,TRUE,,,,,,,CLR,,,,,,,,VFR,,,,,,,,,,,,SPECI,413.0
KY31 170835Z AUTO 03003KT 10SM CLR 02/01 A2998 RMK AO2 T00220005,KY31,2023-05-17T08:35:00Z,44.25,-84.18,2.2,0.5,30,3,,10.0,29.97933,,,TRUE,TRUE,,,,,,,CLR,,,,,,,,VFR,,,,,,,,,,,,SPECI,264.0
KY23 170835Z AUTO 11007KT 10SM CLR 09/05 A3002 RMK AO2 T00890050,KY23,2023-05-17T08:35:00Z,45.3,-91.63,8.9,5.0,110,7,,10.0,30.02067,,,TRUE,TRUE,,,,,,,CLR,,,,,,,,VFR,,,,,,,,,,,,METAR,322.0
KY19 170835Z AUTO 22008KT 10SM CLR 13/07 A2991 RMK AO2,KY19,2023-05-17T08:35:00Z,46.77,-100.9,13.0,7.0,220,8,,10.0,29.911417,,,TRUE,TRUE,,,,,,,CLR,,,,,,,,VFR,,,,,,,,,,,,SPECI,591.0
KXSA 170835Z AUTO 00000KT 10SM -RA OVC075 18/18 A2965 RMK AO2 P0001 T01770177,KXSA,2023-05-17T08:35:00Z,37.87,-76.9,17.7,17.7,0,0,,10.0,29.648623,,,TRUE,TRUE,,,,,,-RA,OVC,7500,,,,,,,VFR,,,,,,0.01,,,,,,SPECI,41.0
KXNX 170835Z AUTO 34004KT 10SM OVC026 19/17 A2989 RMK A01,KXNX,2023-05-17T08:35:00Z,36.38,-86.42,19.0,17.0,340,4,,10.0,29.890747,,,TRUE,TRUE,,,,,,,OVC,2600,,,,,,,MVFR,,,,,,,,,,,,SPECI,178.0
KXLL 170835Z AUTO 33006KT 10SM CLR 14/05 A2966 RMK AO2,KXLL,2023-05-17T08:35:00Z,40.57,-75.48,14.0,5.0,330,6,,10.0,29.660433,,,TRUE,TRUE,,,,,,,CLR,,,,,,,,VFR,,,,,,,,,,,,SPECI,118.0
KX60 170835Z AUTO 00000KT 4SM BR CLR 20/20 A2987 RMK AO2 T02010198,KX60,2023-05-17T08:35:00Z,29.35,-82.47,20.1,19.8,0,0,,4.0,29.870079,,,TRUE,TRUE,,,,,,BR,CLR,,,,,,,,MVFR,,,,,,,,,,,,SPECI,21.0
KX07 170835Z AUTO 00000KT 8SM CLR 21/21 A2989 RMK A01,KX07,2023-05-17T08:35:00Z,27.9,-81.62,21.0,21.0,0,0,,8.0,29.890747,,,TRUE,TRUE,,,,,,,CLR,,,,,,,,VFR,,,,,,,,,,,,SPECI,36.0
KWYS 170835Z AUTO 00000KT 10SM FEW043 BKN060 OVC090 03/03 A3022 RMK AO2,KWYS,2023-05-17T08:35:00Z,44.68,-111.12,3.0,3.0,0,0,,10.0,30.221457,,,TRUE,TRUE,,,,,,,FEW,4300,BKN,6000,OVC,9000,,,VFR,,,,,,,,,,,,METAR,2025.0
KWWR 170835Z AUTO 15005KT 10SM SCT110 13/11 A3005 RMK AO2,KWWR,2023-05-17T08:35:00Z,36.45,-99.52,13.0,11.0,150,5,,10.0,30.050198,,,TRUE,TRUE,,,,,,,SCT,11000,,,,,,,VFR,,,,,,,,,,,,SPECI,664.0
KWDR 170835Z AUTO 00000KT 10SM BKN007 18/18 A2982 RMK AO2,KWDR,2023-05-17T08:35:00Z,33.98,-83.67,18.0,18.0,0,0,,10.0,29.819881,,,TRUE,TRUE,,,,,,,BKN,700,,,,,,,IFR,,,,,,,,,,,,METAR,280.0
KWDG 170835Z AUTO 32004KT 7SM CLR 11/11 A2998 RMK AO2,KWDG,2023-05-17T08:35:00Z,36.37,-97.78,11.0,11.0,320,4,,7.0,29.97933,,,TRUE,TRUE,,,,,,,CLR,,,,,,,,VFR,,,,,,,,,,,,SPECI,352.0
KW96 170835Z AUTO 00000KT 10SM SCT041 OVC049 18/17 A2965 RMK AO1 T01750174,KW96,2023-05-17T08:35:00Z,37.5,-77.12,17.5,17.4,0,0,,10.0,29.648623,,,TRUE,TRUE,,,,,,,SCT,4100,OVC,4900,,,,,VFR,,,,,,,,,,,,METAR,35.0
KW81 170835Z AUTO 31004KT 10SM OVC090 18/16 A2967 RMK AO1 T01750160,KW81,2023-05-17T08:35:00Z,37.18,-78.1,17.5,16.0,310,4,,10.0,29.66929,,,TRUE,TRUE,,,,,,,OVC,9000,,,,,,,VFR,,,,,,,,,,,,SPECI,121.0
KW78 170835Z AUTO 00000KT 10SM SCT095 18/17 A2969 RMK AO1 T01750167,KW78,2023-05-17T08:35:00Z,36.7,-78.85,17.5,16.7,0,0,,10.0,29.68996,,,TRUE,TRUE,,,,,,,SCT,9500,,,,,,,VFR,,,,,,,,,,,,SPECI,120.0
KW75 170835Z AUTO 00000KT 10SM OVC045 18/17 A2964 RMK AO1 T01820170,KW75,2023-05-17T08:35:00Z,37.6,-76.45,18.2,17.0,0,0,,10.0,29.639763,,,TRUE,TRUE,,,,,,,OVC,4500,,,,,,,VFR,,,,,,,,,,,,SPECI,8.0
KW63 170835Z AUTO 00000KT 10SM SCT060 SCT095 18/18 A2967 RMK AO1,KW63,2023-05-17T08:35:00Z,36.6,-78.55,18.0,18.0,0,0,,10.0,29.66929,,,TRUE,TRUE,,,,,,,SCT,6000,SCT,9500,,,,,VFR,,,,,,,,,,,,SPECI,126.0
KW43 170835Z AUTO 23005KT 10SM CLR 13/08 A3003 RMK AO2,KW43,2023-05-17T08:35:00Z,44.67,-104.57,13.0,8.0,230,5,,10.0,30.029528,,,TRUE,TRUE,,,,,,,CLR,,,,,,,,VFR,,,,,,,,,,,,SPECI,1292.0
KW31 170835Z AUTO 10SM OVC100 M35/M35 A2967 RMK AO1 T13531353,KW31,2023-05-17T08:35:00Z,36.95,-78.18,-35.3,-35.3,,,,10.0,29.66929,,,TRUE,TRUE,,,,,,,OVC,10000,,,,,,,VFR,,,,,,,,,,,,SPECI,159.0
KW22 170835Z AUTO 22005KT 6SM BR BKN007 OVC010 12/12 A2979 RMK AO2,KW22,2023-05-17T08:35:00Z,39.0,-80.27,12.0,12.0,220,5,,6.0,29.790354,,,TRUE,TRUE,,,,,,BR,BKN,700,OVC,1000,,,,,IFR,,,,,,,,,,,,SPECI,497.0
KW13 170835Z AUTO 00000KT 10SM CLR 14/11 A2973 RMK AO1 T01430106,KW13,2023-05-17T08:35:00Z,38.08,-78.95,14.3,10.6,0,0,,10.0,29.731298,,,TRUE,TRUE,,,,,,,CLR,,,,,,,,VFR,,,,,,,,,,,,SPECI,440.0
KVYS 170835Z AUTO 04008KT 10SM CLR 10/05 A2993 RMK AO2 T01020048,KVYS,2023-05-17T08:35:00Z,41.35,-89.15,10.2,4.8,40,8,,10.0,29.929134,,,TRUE,TRUE,,,,,,,CLR,,,,,,,,VFR,,,,,,,,,,,,SPECI,198.0
KVVV 170835Z AUTO 08003KT 7SM CLR 13/10 A2991 RMK AO2,KVVV,2023-05-17T08:35:00Z,45.3,-96.42,13.0,10.0,80,3,,7.0,29.911417,,,TRUE,TRUE,,,,,,,CLR,,,,,,,,VFR,,,,,,,,,,,,SPECI,334.0
KVTP 170835Z AUTO 09004KT 10SM SCT060 SCT080 SCT090 04/02 A3037 RMK AO2,KVTP,2023-05-17T08:35:00Z,37.5,-105.17,4.0,2.0,90,4,,10.0,30.369095,,,TRUE,TRUE,,,,,,,SCT,6000,SCT,8000,SCT,9000,,,VFR,,,,,,,,,,,,METAR,3086.0
KVTI 170835Z AUTO 09010KT 10SM SCT075 15/10 A2993 RMK AO2 T01460098,KVTI,2023-05-17T08:35:00Z,42.22,-92.02,14.6,9.8,90,10,,10.0,29.929134,,,TRUE,TRUE,,,,,,,SCT,7500,,,,,,,VFR,,,,,,,,,,,,METAR,256.0
KVQQ 170835Z AUTO 21003KT 10SM CLR 22/22 A2983 RMK AO2,KVQQ,2023-05-17T08:35:00Z,30.22,-81.88,22.0,22.0,210,3,,10.0,29.828741,,,TRUE,TRUE,,,,,,,CLR,,,,,,,,VFR,,,,,,,,,,,,METAR,21.0
KVPC 170835Z AUTO 00000KT 7SM SCT008 BKN040 OVC110 19/19 A2983 RMK AO2,KVPC,2023-05-17T08:35:00Z,34.1,-84.85,19.0,19.0,0,0,,7.0,29.828741,,,TRUE,TRUE,,,,,,,SCT,800,BKN,4000,OVC,11000,,,VFR,,,,,,,,,,,,SPECI,234.0
KVOA 170835Z AUTO 26009KT 1/2SM HZ OVC005 23/17 A2987 RMK A01,KVOA,2023-05-17T08:35:00Z,29.23,-87.78,23.0,17.0,260,9,,0.5,29.870079,,,TRUE,TRUE,,,,,,HZ,OVC,500,,,,,,,LIFR,,,,,,,,,,,,SPECI,53.0
KVNW 170835Z AUTO 05006KT 10SM CLR 11/06 A2989 RMK AO2,KVNW,2023-05-17T08:35:00Z,40.87,-84.62,11.0,6.0,50,6,,10.0,29.890747,,,TRUE,TRUE,,,,,,,CLR,,,,,,,,VFR,,,,,,,,,,,,SPECI,238.0
KVNC 170835Z AUTO 00000KT 10SM BKN016 BKN023 BKN028 24/24 A2990 RMK AO2,KVNC,2023-05-17T08:35:00Z,27.07,-82.43,24.0,24.0,0,0,,10.0,29.899607,,,TRUE,TRUE,,,,,,,BKN,1600,BKN,2300,BKN,2800,,,MVFR,,,,,,,,,,,,SPECI,4.0
KVLL 170835Z AUTO 36005KT 10SM CLR 07/01 A2995 RMK AO2 T00650012,KVLL,2023-05-17T08:35:00Z,42.55,-83.18,6.5,1.2,360,5,,10.0,29.949802,,,TRUE,TRUE,,,,,,,CLR,,,,,,,,VFR,,,,,,,,,,,,SPECI,214.0
KVKY 170835Z AUTO 11007KT 4SM HZ FEW035 FEW047 BKN060 A2988 RMK A01,KVKY,2023-05-17T08:35:00Z,29.25,-88.43,,,110,7,,4.0,29.878937,,,TRUE,TRUE,,,,,,HZ,FEW,3500,FEW,4700,BKN,6000,,,MVFR,,,,,,,,,,,,SPECI,32.0
KVKS 170835Z AUTO 00000KT 8SM FEW036 BKN043 OVC055 22/M38 A2984 RMK A01,KVKS,2023-05-17T08:35:00Z,32.23,-90.93,22.0,-38.0,0,0,,8.0,29.840551,,,TRUE,TRUE,,,,,,,FEW,3600,BKN,4300,OVC,5500,,,VFR,,,,,,,,,,,,METAR,31.0
KVJI 170835Z AUTO 02005KT 10SM OVC016 16/14 A2984 RMK AO2 T01570138,KVJI,2023-05-17T08:35:00Z,36.68,-82.03,15.7,13.8,20,5,,10.0,29.840551,,,TRUE,TRUE,,,,,,,OVC,1600,,,,,,,MVFR,,,,,,,,,,,,SPECI,636.0
KVHN 170835Z AUTO 24007KT 10SM CLR 18/11 A3010 RMK AO2 T01750109,KVHN,2023-05-17T08:35:00Z,31.07,-104.78,17.5,10.9,240,7,,10.0,30.100393,,,TRUE,TRUE,,,,,,,CLR,,,,,,,,VFR,,,,,,,,,,,,SPECI,1200.0
KVGC 170835Z AUTO 36011G18KT 10SM OVC023 03/M01 A2977 RMK AO2,KVGC,2023-05-17T08:35:00Z,42.85,-75.57,3.0,-1.0,360,11,18,10.0,29.769686,,,TRUE,TRUE,,,,,,,OVC,2300,,,,,,,MVFR,,,,,,,,,,,,SPECI,346.0
KVER 170835Z AUTO 00000KT 2 1/2SM BR BKN100 15/15 A2993 RMK AO2 T01470147,KVER,2023-05-17T08:35:00Z,38.95,-92.68,14.7,14.7,0,0,,2.5,29.929134,,,TRUE,TRUE,,,,,,BR,BKN,10000,,,,,,,IFR,,,,,,,,,,,,METAR,209.0
KVDI 170835Z AUTO 24003KT 10SM CLR 21/20 A2981 RMK AO2,KVDI,2023-05-17T08:35:00Z,32.2,-82.37,21.0,20.0,240,3,,10.0,29.811024,,,TRUE,TRUE,,,,,,,CLR,,,,,,,,VFR,,,,,,,,,,,,SPECI,81.0
KVDF 170835Z AUTO 00000KT 3SM BR CLR 22/21 A2990 RMK AO2,KVDF,2023-05-17T08:35:00Z,28.02,-82.33,22.0,21.0,0,0,,3.0,29.899607,,,TRUE,TRUE,,,,,,BR,CLR,,,,,,,,MVFR,,,,,,,,,,,,METAR,5.0
KVCV 170835Z AUTO 13005KT 10SM CLR 19/01 A3005 RMK AO2,KVCV,2023-05-17T08:35:00Z,34.58,-117.38,19.0,1.0,130,5,,10.0,30.050198,,,TRUE,TRUE,,,,,,,CLR,,,,,,,,VFR,,,,,,,,,,,,METAR,871.0
KVBW 170835Z AUTO 00000KT 10SM CLR 13/13 A2971 RMK AO1 T01260126,KVBW,2023-05-17T08:35:00Z,38.37,-78.97,12.6,12.6,0,0,,10.0,29.71063,,,TRUE,TRUE,,,,,,,CLR,,,,,,,,VFR,,,,,,,,,,,,SPECI,362.0
KVAF 170835Z AUTO 25005KT 10SM FEW018 25/20 A2991 RMK A01,KVAF,2023-05-17T08:35:00Z,27.35,-94.63,25.0,20.0,250,5,,10.0,29.911417,,,TRUE,TRUE,,,,,,,FEW,1800,,,,,,,VFR,,,,,,,,,,,,METAR,38.0
KUYF 170835Z AUTO 36006KT 10SM CLR 11/05 A2984 RMK AO2,KUYF,2023-05-17T08:35:00Z,39.93,-83.47,11.0,5.0,360,6,,10.0,29.840551,,,TRUE,TRUE,,,,,,,CLR,,,,,,,,VFR,,,,,,,,,,,,METAR,326.0
KUXL 170835Z AUTO 00000KT 10SM SCT045 SCT050 22/21 A2989 RMK AO2 T02200207,KUXL,2023-05-17T08:35:00Z,30.13,-93.38,22.0,20.7,0,0,,10.0,29.890747,,,TRUE,TRUE,,,,,,,SCT,4500,SCT,5000,,,,,VFR,,,,,,,,,,,,SPECI,2.0
KUVA 170835Z AUTO 00000KT 7SM CLR 18/18 A2998 RMK AO2 T01760176,KUVA,2023-05-17T08:35:00Z,29.22,-99.75,17.6,17.6,0,0,,7.0,29.97933,,,TRUE,TRUE,,,,,,,CLR,,,,,,,,VFR,,,,,,,,,,,,METAR,285.0
KUUV 170835Z AUTO 27003KT 4SM BR CLR 13/13 A2993 RMK AO2,KUUV,2023-05-17T08:35:00Z,38.23,-91.17,13.0,13.0,270,3,,4.0,29.929134,,,TRUE,TRUE,,,,,,BR,CLR,,,,,,,,MVFR,,,,,,,,,,,,SPECI,284.0
KUTA 170835Z AUTO 04006KT 10SM FEW013 OVC037 21/20 A2985 RMK AO2 T02080201 $,KUTA,2023-05-17T08:35:00Z,34.68,-90.35,20.8,20.1,40,6,,10.0,29.84941,,,TRUE,TRUE,TRUE,,,,,,FEW,1300,OVC,3700,,,,,VFR,,,,,,,,,,,,SPECI,58.0
KUSE 170835Z AUTO 04006KT 10SM CLR 08/02 A2991 RMK AO2,KUSE,2023-05-17T08:35:00Z,41.62,-84.13,8.0,2.0,40,6,,10.0,29.911417,,,TRUE,TRUE,,,,,,,CLR,,,,,,,,VFR,,,,,,,,,,,,METAR,237.0
KUOX 170835Z AUTO 00000KT 10SM SCT010 BKN015 OVC110 18/18 A2986 RMK AO2 LTG DSNT SE AND S,KUOX,2023-05-17T08:35:00Z,34.38,-89.53,18.0,18.0,0,0,,10.0,29.861221,,,TRUE,TRUE,,,,,,,SCT,1000,BKN,1500,OVC,11000,,,MVFR,,,,,,,,,,,,SPECI,123.0
KUNV 170835Z AUTO 01004KT 10SM SCT070 SCT090 12/06 A2971 RMK AO2 T01210055,KUNV,2023-05-17T08:35:00Z,40.85,-77.83,12.1,5.5,10,4,,10.0,29.71063,,,TRUE,TRUE,,,,,,,SCT,7000,SCT,9000,,,,,VFR,,,,,,,,,,,,SPECI,365.0
KUNI 170835Z AUTO 00000KT 2SM BR CLR 10/09 A2980 RMK AO2 T01010092,KUNI,2023-05-17T08:35:00Z,39.22,-82.23,10.1,9.2,0,0,,2.0,29.799213,,,TRUE,TRUE,,,,,,BR,CLR,,,,,,,,IFR,,,,,,,,,,,,SPECI,232.0
KUMP 170835Z AUTO 00000KT 7SM CLR 12/12 A2986 RMK AO2 T01160116,KUMP,2023-05-17T08:35:00Z,39.93,-86.05,11.6,11.6,0,0,,7.0,29.861221,,,TRUE,TRUE,,,,,,,CLR,,,,,,,,VFR,,,,,,,,,,,,SPECI,247.0
KULM 170835Z AUTO 00000KT 10SM CLR 14/08 A2994 RMK AO2,KULM,2023-05-17T08:35:00Z,44.32,-94.5,14.0,8.0,0,0,,10.0,29.940945,,,TRUE,TRUE,,,,,,,CLR,,,,,,,,VFR,,,,,,,,,,,,SPECI,305.0
KUKT 170835Z AUTO 02008KT 10SM CLR 15/05 A2963 RMK A01,KUKT,2023-05-17T08:35:00Z,40.43,-75.38,15.0,5.0,20,8,,10.0,29.630905,,,TRUE,TRUE,,,,,,,CLR,,,,,,,,VFR,,,,,,,,,,,,SPECI,156.0
KUKL 170835Z AUTO 31006KT 5SM BR CLR 12/11 A2998 RMK AO2 T01220113,KUKL,2023-05-17T08:35:00Z,38.3,-95.73,12.2,11.3,310,6,,5.0,29.97933,,,TRUE,TRUE,,,,,,BR,CLR,,,,,,,,MVFR,,,,,,,,,,,,SPECI,357.0
KUES 170835Z AUTO 02003KT 10SM CLR 04/M01 A3001 RMK AO2,KUES,2023-05-17T08:35:00Z,43.05,-88.25,4.0,-1.0,20,3,,10.0,30.008858,,,TRUE,TRUE,,,,,,,CLR,,,,,,,,VFR,,,,,,,,,,,,SPECI,273.0
KUCY 170835Z AUTO 01004KT 10SM OVC029 19/18 A2985 RMK A01,KUCY,2023-05-17T08:35:00Z,36.38,-88.98,19.0,18.0,10,4,,10.0,29.84941,,,TRUE,TRUE,,,,,,,OVC,2900,,,,,,,MVFR,,,,,,,,,,,,SPECI,97.0
KUBE 170835Z AUTO 09006KT 10SM CLR 07/05 A3001 RMK AO2,KUBE,2023-05-17T08:35:00Z,45.5,-91.98,7.0,5.0,90,6,,10.0,30.008858,,,TRUE,TRUE,,,,,,,CLR,,,,,,,,VFR,,,,,,,,,,,,SPECI,376.0
KU69 170835Z AUTO 28007KT 10SM CLR 11/01 A3018 RMK A01,KU69,2023-05-17T08:35:00Z,40.2,-110.38,11.0,1.0,280,7,,10.0,30.180119,,,TRUE,TRUE,,,,,,,CLR,,,,,,,,VFR,,,,,,,,,,,,METAR,1776.0
KU64 170835Z AUTO 26010KT 10SM FEW220 10/02 A3021 RMK AO2 T01000020 $,KU64,2023-05-17T08:35:00Z,,,10.0,2.0,260,10,,10.0,30.209646,,,TRUE,TRUE,TRUE,,,,,,FEW,22000,,,,,,,VFR,,,,,,,,,,,,METAR,
KU55 170835Z AUTO 17005KT 10SM FEW046 SCT055 SCT065 07/05 A3027 RMK A01,KU55,2023-05-17T08:35:00Z,37.85,-112.38,7.0,5.0,170,5,,10.0,30.268702,,,TRUE,TRUE,,,,,,,FEW,4600,SCT,5500,SCT,6500,,,VFR,,,,,,,,,,,,METAR,2060.0
KU42 170835Z AUTO 00000KT 10SM CLR 14/04 A3013 RMK AO1 T01360039,KU42,2023-05-17T08:35:00Z,40.62,-111.98,13.6,3.9,0,0,,10.0,30.129921,,,TRUE,TRUE,,,,,,,CLR,,,,,,,,VFR,,,,,,,,,,,,SPECI,1399.0
KTZR 170835Z AUTO 36006KT 10SM CLR 12/07 A2984 RMK AO2 T01150070,KTZR,2023-05-17T08:35:00Z,39.9,-83.13,11.5,7.0,360,6,,10.0,29.840551,,,TRUE,TRUE,,,,,,,CLR,,,,,,,,VFR,,,,,,,,,,,,SPECI,275.0
KTYQ 170835Z AUTO 33003KT 10SM CLR 12/10 A2986 RMK AO2 T01150102,KTYQ,2023-05-17T08:35:00Z,40.03,-86.25,11.5,10.2,330,3,,10.0,29.861221,,,TRUE,TRUE,,,,,,,CLR,,,,,,,,VFR,,,,,,,,,,,,SPECI,279.0
KTYL 170835Z AUTO 20006KT 10SM FEW029 SCT060 13/11 A3019 RMK AO2,KTYL,2023-05-17T08:35:00Z,34.45,-110.12,13.0,11.0,200,6,,10.0,30.188976,,,TRUE,TRUE,,,,,,,FEW,2900,SCT,6000,,,,,VFR,,,,,,,,,,,,METAR,1748.0
KTXW 170835Z AUTO 00000KT 10SM CLR 23/22 A2990 RMK AO2 T02310221,KTXW,2023-05-17T08:35:00Z,26.18,-97.97,23.1,22.1,0,0,,10.0,29.899607,,,TRUE,TRUE,,,,,,,CLR,,,,,,,,VFR,,,,,,,,,,,,SPECI,21.0
KTWT 170835Z AUTO 00000KT 5SM BR CLR 14/13 A2988 RMK AO2,KTWT,2023-05-17T08:35:00Z,37.55,-87.95,14.0,13.0,0,0,,5.0,29.878937,,,TRUE,TRUE,,,,,,BR,CLR,,,,,,,,MVFR,,,,,,,,,,,,METAR,113.0
KTWM 170835Z AUTO 00000KT 10SM CLR 02/01 A3004 RMK AO2,KTWM,2023-05-17T08:35:00Z,47.05,-91.75,2.0,1.0,0,0,,10.0,30.041338,,,TRUE,TRUE,,,,,,,CLR,,,,,,,,VFR,,,,,,,,,,,,SPECI,331.0
KTVY 170835Z AUTO 17003KT 10SM CLR 14/05 A3011 RMK AO2,KTVY,2023-05-17T08:35:00Z,40.62,-112.35,14.0,5.0,170,3,,10.0,30.109253,,,TRUE,TRUE,,,,,,,CLR,,,,,,,,VFR,,,,,,,,,,,,SPECI,1310.0
KTVK 170835Z AUTO 00000KT 10SM CLR 13/11 A2992 RMK AO2,KTVK,2023-05-17T08:35:00Z,40.68,-92.9,13.0,11.0,0,0,,10.0,29.920275,,,TRUE,TRUE,,,,,,,CLR,,,,,,,,VFR,,,,,,,,,,,,SPECI,311.0
KTVI 170835Z AUTO 00000KT 7SM CLR 18/18 A2985 RMK AO2,KTVI,2023-05-17T08:35:00Z,30.9,-83.88,18.0,18.0,0,0,,7.0,29.84941,,,TRUE,TRUE,,,,,,,CLR,,,,,,,,VFR,,,,,,,,,,,,METAR,74.0
KTTF 170835Z AUTO 36003KT 10SM CLR 07/01 A2991 RMK AO2 T00670005,KTTF,2023-05-17T08:35:00Z,41.93,-83.42,6.7,0.5,360,3,,10.0,29.911417,,,TRUE,TRUE,,,,,,,CLR,,,,,,,,VFR,,,,,,,,,,,,SPECI,186.0
KTSP 170835Z AUTO 00000KT 10SM CLR 10/05 A3013 RMK AO2,KTSP,2023-05-17T08:35:00Z,35.13,-118.43,10.0,5.0,0,0,,10.0,30.129921,,,TRUE,TRUE,,,,,,,CLR,,,,,,,,VFR,,,,,,,,,,,,SPECI,1209.0
KTQV 170835Z AUTO 24006KT 10SM OVC005 19/18 A2970 RMK A01,KTQV,2023-05-17T08:35:00Z,36.0,-78.93,19.0,18.0,240,6,,10.0,29.698818,,,TRUE,TRUE,,,,,,,OVC,500,,,,,,,IFR,,,,,,,,,,,,SPECI,230.0
KTQK 170835Z AUTO 11008KT 10SM CLR 12/10 A3005 RMK AO2 T01160104,KTQK,2023-05-17T08:35:00Z,38.47,-100.88,11.6,10.4,110,8,,10.0,30.050198,,,TRUE,TRUE,,,,,,,CLR,,,,,,,,VFR,,,,,,,,,,,,METAR,906.0
KTQH 170835Z AUTO 35003KT 10SM SCT005 SCT013 OVC029 16/14 A2995 RMK AO2,KTQH,2023-05-17T08:35:00Z,35.93,-95.0,16.0,14.0,350,3,,10.0,29.949802,,,TRUE,TRUE,,,,,,,SCT,500,SCT,1300,OVC,2900,,,MVFR,,,,,,,,,,,,SPECI,265.0
KTOC 170835Z AUTO 26005KT 10SM CLR 20/18 A2978 RMK AO2 T01990179,KTOC,2023-05-17T08:35:00Z,34.6,-83.3,19.9,17.9,260,5,,10.0,29.778543,,,TRUE,TRUE,,,,,,,CLR,,,,,,,,VFR,,,,,,,,,,,,METAR,292.0
KTOB 170835Z AUTO 06004KT 10SM CLR 09/06 A2996 RMK AO2,KTOB,2023-05-17T08:35:00Z,44.02,-92.82,9.0,6.0,60,4,,10.0,29.958662,,,TRUE,TRUE,,,,,,,CLR,,,,,,,,VFR,,,,,,,,,,,,SPECI,394.0
KTNU 170835Z AUTO 00000KT 10SM CLR 14/10 A2990 RMK A01,KTNU,2023-05-17T08:35:00Z,41.67,-93.02,14.0,10.0,0,0,,10.0,29.899607,,,TRUE,TRUE,,,,,,,CLR,,,,,,,,VFR,,,,,,,,,,,,SPECI,287.0
KTNB 170835Z AUTO 31011G17KT 10SM SCT012 BKN017 OVC039 15/14 A2983 RMK AO2 T01530135,KTNB,2023-05-17T08:35:00Z,36.2,-81.65,15.3,13.5,310,11,17,10.0,29.828741,,,TRUE,TRUE,,,,,,,SCT,1200,BKN,1700,OVC,3900,,,MVFR,,,,,,,,,,,,SPECI,958.0
KTMT 170835Z AUTO 00000KT 10SM SCT120 09/01 A3020 RMK AO2 T00880011,KTMT,2023-05-17T08:35:00Z,39.47,-117.2,8.8,1.1,0,0,,10.0,30.200787,,,TRUE,TRUE,,,,,,,SCT,12000,,,,,,,VFR,,,,,,,,,,,,METAR,1748.0
KTMK 170835Z AUTO 00000KT 9SM OVC004 13/13 A3010 RMK AO2,KTMK,2023-05-17T08:35:00Z,45.42,-123.82,13.0,13.0,0,0,,9.0,30.100393,,,TRUE,TRUE,,,,,,,OVC,400,,,,,,,LIFR,,,,,,,,,,,,SPECI,8.0
KTME 170835Z AUTO 00000KT 10SM 20/20 A2993 RMK AO2,KTME,2023-05-17T08:35:00Z,29.8,-95.9,20.0,20.0,0,0,,10.0,29.929134,,,TRUE,TRUE,,,,,,,,,,,,,,,,,,,,,,,,,,,SPECI,49.0
KTMA 170835Z AUTO 25003KT 10SM FEW160 20/20 A2985 RMK AO2 T02000200 $,KTMA,2023-05-17T08:35:00Z,31.43,-83.48,20.0,20.0,250,3,,10.0,29.84941,,,TRUE,TRUE,TRUE,,,,,,FEW,16000,,,,,,,VFR,,,,,,,,,,,,SPECI,105.0
KTKX 170835Z AUTO 01004KT 4SM BR OVC029 20/18 A2986 RMK AO2,KTKX,2023-05-17T08:35:00Z,36.22,-90.03,20.0,18.0,10,4,,4.0,29.861221,,,TRUE,TRUE,,,,,,BR,OVC,2900,,,,,,,MVFR,,,,,,,,,,,,SPECI,73.0
KTKV 170835Z AUTO 00000KT 10SM CLR 03/M03 A3004 RMK AO2 T00301027 PWINO,KTKV,2023-05-17T08:35:00Z,45.47,-89.82,3.0,-2.7,0,0,,10.0,30.041338,,,TRUE,TRUE,,,,,TRUE,,CLR,,,,,,,,VFR,,,,,,,,,,,,METAR,449.0
KTKC 170835Z AUTO 00000KT 10SM BKN055 OVC120 14/11 A2993 RMK AO2,KTKC,2023-05-17T08:35:00Z,44.25,-95.62,14.0,11.0,0,0,,10.0,29.929134,,,TRUE,TRUE,,,,,,,BKN,5500,OVC,12000,,,,,VFR,,,,,,,,,,,,SPECI,408.0
KTIP 170835Z AUTO 02007KT 10SM CLR 11/07 A2989 RMK AO2 T01110071,KTIP,2023-05-17T08:35:00Z,40.28,-88.15,11.1,7.1,20,7,,10.0,29.890747,,,TRUE,TRUE,,,,,,,CLR,,,,,,,,VFR,,,,,,,,,,,,SPECI,224.0
KTIF 170835Z AUTO 00000KT 10SM CLR 08/06 A3004 RMK AO2 T00800063,KTIF,2023-05-17T08:35:00Z,41.97,-100.57,8.0,6.3,0,0,,10.0,30.041338,,,TRUE,TRUE,,,,,,,CLR,,,,,,,,VFR,,,,,,,,,,,,SPECI,888.0
KTHA 170835Z AUTO 00000KT 10SM FEW008 SCT011 OVC021 19/18 A2984 RMK A01,KTHA,2023-05-17T08:35:00Z,35.38,-86.25,19.0,18.0,0,0,,10.0,29.840551,,,TRUE,TRUE,,,,,,,FEW,800,SCT,1100,OVC,2100,,,MVFR,,,,,,,,,,,,SPECI,333.0
KTEX 170835Z AUTO 13008KT 10SM CLR 06/M01 A3035 RMK AO2,KTEX,2023-05-17T08:35:00Z,37.95,-107.9,6.0,-1.0,130,8,,10.0,30.351377,,,TRUE,TRUE,,,,,,,CLR,,,,,,,,VFR,,,,,,,,,,,,SPECI,2760.0
KTEW 170835Z AUTO 00000KT 10SM CLR 06/03 A2994 RMK AO2 T00640027,KTEW,2023-05-17T08:35:00Z,42.57,-84.42,6.4,2.7,0,0,,10.0,29.940945,,,TRUE,TRUE,,,,,,,CLR,,,,,,,,VFR,,,,,,,,,,,,SPECI,281.0
KTCY 170835Z AUTO 28005KT 10SM CLR 23/M01 A2990 RMK A01,KTCY,2023-05-17T08:35:00Z,37.68,-121.43,23.0,-1.0,280,5,,10.0,29.899607,,,TRUE,TRUE,,,,,,,CLR,,,,,,,,VFR,,,,,,,,,,,,METAR,51.0
KTBX 170835Z AUTO 10SM CLR 12/00 A3028 RMK AO2,KTBX,2023-05-17T08:35:00Z,43.47,-108.23,12.0,0.0,,,,10.0,30.280512,,,TRUE,TRUE,,,,,,,CLR,,,,,,,,VFR,,,,,,,,,,,,SPECI,2230.0
KTBR 170835Z AUTO 24003KT 10SM CLR 21/19 A2979 RMK AO2 T02060186 PWINO,KTBR,2023-05-17T08:35:00Z,32.48,-81.73,20.6,18.6,240,3,,10.0,29.790354,,,TRUE,TRUE,,,,,TRUE,,CLR,,,,,,,,VFR,,,,,,,,,,,,METAR,54.0
KTAZ 170835Z AUTO 26005KT 10SM CLR 14/12 A2987 RMK AO2 T01420123 PWINO,KTAZ,2023-05-17T08:35:00Z,39.53,-89.33,14.2,12.3,260,5,,10.0,29.870079,,,TRUE,TRUE,,,,,TRUE,,CLR,,,,,,,,VFR,,,,,,,,,,,,METAR,188.0
KT89 170835Z AUTO 00000KT 10SM CLR 20/14 A2999 RMK A01,KT89,2023-05-17T08:35:00Z,29.27,-103.68,20.0,14.0,0,0,,10.0,29.991142,,,TRUE,TRUE,,,,,,,CLR,,,,,,,,VFR,,,,,,,,,,,,SPECI,801.0
KT82 170835Z AUTO 00000KT 10SM CLR 17/16 A2998 RMK AO2 T01690160,KT82,2023-05-17T08:35:00Z,30.25,-98.92,16.9,16.0,0,0,,10.0,29.97933,,,TRUE,TRUE,,,,,,,CLR,,,,,,,,VFR,,,,,,,,,,,,METAR,509.0
KT78 170835Z AUTO 00000KT 10SM FEW042 20/20 A2989 RMK AO2,KT78,2023-05-17T08:35:00Z,30.08,-94.7,20.0,20.0,0,0,,10.0,29.890747,,,TRUE,TRUE,,,,,,,FEW,4200,,,,,,,VFR,,,,,,,,,,,,METAR,21.0
KT74 170835Z AUTO 10SM CLR 17/17 A2993 RMK AO2 T01750172,KT74,2023-05-17T08:35:00Z,30.57,-97.45,17.5,17.2,,,,10.0,29.929134,,,TRUE,TRUE,,,,,,,CLR,,,,,,,,VFR,,,,,,,,,,,,SPECI,169.0
KT69 170835Z AUTO 00000KT 5SM BR CLR 20/20 A2992 RMK A01,KT69,2023-05-17T08:35:00Z,28.03,-97.55,20.0,20.0,0,0,,5.0,29.920275,,,TRUE,TRUE,,,,,,BR,CLR,,,,,,,,MVFR,,,,,,,,,,,,SPECI,15.0
KT41 170835Z AUTO 29005KT 10SM CLR 21/19 A2991 RMK AO2 T02050194,KT41,2023-05-17T08:35:00Z,29.67,-95.07,20.5,19.4,290,5,,10.0,29.911417,,,TRUE,TRUE,,,,,,,CLR,,,,,,,,VFR,,,,,,,,,,,,SPECI,8.0
KT35 170835Z AUTO 00000KT 10SM CLR 20/19 A2992 RMK AO2 T01950189,KT35,2023-05-17T08:35:00Z,30.88,-96.97,19.5,18.9,0,0,,10.0,29.920275,,,TRUE,TRUE,,,,,,,CLR,,,,,,,,VFR,,,,,,,,,,,,METAR,122.0
KT20 170835Z AUTO 00000KT 5SM BR CLR 20/19 A2992 RMK AO2 T01950194,KT20,2023-05-17T08:35:00Z,29.52,-97.47,19.5,19.4,0,0,,5.0,29.920275,,,TRUE,TRUE,,,,,,BR,CLR,,,,,,,,MVFR,,,,,,,,,,,,METAR,107.0
KSZY 170835Z AUTO 00000KT 8SM OVC013 19/18 A2984 RMK A01,KSZY,2023-05-17T08:35:00Z,35.2,-88.5,19.0,18.0,0,0,,8.0,29.840551,,,TRUE,TRUE,,,,,,,OVC,1300,,,,,,,MVFR,,,,,,,,,,,,SPECI,184.0
KSZT 170835Z AUTO 04005KT 10SM CLR 16/11 A3007 RMK AO2,KSZT,2023-05-17T08:35:00Z,48.3,-116.57,16.0,11.0,40,5,,10.0,30.070866,,,TRUE,TRUE,,,,,,,CLR,,,,,,,,VFR,,,,,,,,,,,,SPECI,649.0
KSYN 170835Z AUTO 07004KT 10SM CLR 09/06 A2996 RMK AO2 T00880060,KSYN,2023-05-17T08:35:00Z,44.47,-93.02,8.8,6.0,70,4,,10.0,29.958662,,,TRUE,TRUE,,,,,,,CLR,,,,,,,,VFR,,,,,,,,,,,,SPECI,280.0
KSYM 170835Z AUTO 00000KT 3SM BR FEW060 13/13 A2986 RMK AO2,KSYM,2023-05-17T08:35:00Z,38.22,-83.58,13.0,13.0,0,0,,3.0,29.861221,,,TRUE,TRUE,,,,,,BR,FEW,6000,,,,,,,MVFR,,,,,,,,,,,,SPECI,307.0
KSYI 170835Z AUTO 01005KT 10SM SCT012 BKN022 OVC039 19/18 A2984 RMK A01,KSYI,2023-05-17T08:35:00Z,35.57,-86.45,19.0,18.0,10,5,,10.0,29.840551,,,TRUE,TRUE,,,,,,,SCT,1200,BKN,2200,OVC,3900,,,MVFR,,,,,,,,,,,,SPECI,244.0
KSYF 170835Z AUTO 00000KT 7SM CLR A3005 RMK AO2 PWINO,KSYF,2023-05-17T08:35:00Z,39.77,-101.8,,,0,0,,7.0,30.050198,,,TRUE,TRUE,,,,,TRUE,,CLR,,,,,,,,VFR,,,,,,,,,,,,SPECI,1041.0
KSXU 170835Z AUTO 16005KT 10SM CLR 14/12 A3012 RMK AO2 T01440115,KSXU,2023-05-17T08:35:00Z,34.93,-104.65,14.4,11.5,160,5,,10.0,30.121063,,,TRUE,TRUE,,,,,,,CLR,,,,,,,,VFR,,,,,,,,,,,,SPECI,1465.0
KSXK 170835Z AUTO 27006KT 10SM OVC075 15/08 A2993 RMK AO2,KSXK,2023-05-17T08:35:00Z,42.98,-96.17,15.0,8.0,270,6,,10.0,29.929134,,,TRUE,TRUE,,,,,,,OVC,7500,,,,,,,VFR,,,,,,,,,,,,SPECI,430.0
KSWW 170835Z AUTO 21007KT 10SM CLR 19/16 A3001 RMK AO2 T01870156,KSWW,2023-05-17T08:35:00Z,32.47,-100.47,18.7,15.6,210,7,,10.0,30.008858,,,TRUE,TRUE,,,,,,,CLR,,,,,,,,VFR,,,,,,,,,,,,SPECI,718.0
KSVE 170835Z AUTO 29004KT 10SM CLR 11/04 A3012 RMK AO2,KSVE,2023-05-17T08:35:00Z,40.37,-120.57,11.0,4.0,290,4,,10.0,30.121063,,,TRUE,TRUE,,,,,,,CLR,,,,,,,,VFR,,,,,,,,,,,,SPECI,1263.0
KSVC 170835Z AUTO 24003KT 10SM CLR 14/12 A3018 RMK AO2 T01400118,KSVC,2023-05-17T08:35:00Z,32.63,-108.15,14.0,11.8,240,3,,10.0,30.180119,,,TRUE,TRUE,,,,,,,CLR,,,,,,,,VFR,,,,,,,,,,,,METAR,1638.0
KSUZ 170835Z AUTO 00000KT 10SM OVC021 21/20 A2986 RMK A01,KSUZ,2023-05-17T08:35:00Z,34.58,-92.48,21.0,20.0,0,0,,10.0,29.861221,,,TRUE,TRUE,,,,,,,OVC,2100,,,,,,,MVFR,,,,,,,,,,,,SPECI,114.0
KSUW 170835Z AUTO 06006KT 10SM SCT110 03/02 A3005 RMK AO2 T00320016,KSUW,2023-05-17T08:35:00Z,46.68,-92.1,3.2,1.6,60,6,,10.0,30.050198,,,TRUE,TRUE,,,,,,,SCT,11000,,,,,,,VFR,,,,,,,,,,,,SPECI,205.0
KSUN 170835Z AUTO 33009KT 10SM CLR 09/01 A3018 RMK AO2,KSUN,2023-05-17T08:35:00Z,43.5,-114.28,9.0,1.0,330,9,,10.0,30.180119,,,TRUE,TRUE,,,,,,,CLR,,,,,,,,VFR,,,,,,,,,,,,SPECI,1619.0
KSUA 170835Z AUTO 21003KT 10SM SCT095 24/20 A2989 RMK AO2 T02400199,KSUA,2023-05-17T08:35:00Z,27.18,-80.22,24.0,19.9,210,3,,10.0,29.890747,,,TRUE,TRUE,,,,,,,SCT,9500,,,,,,,VFR,,,,,,,,,,,,METAR,4.0
KSTK 170835Z AUTO 32004KT 10SM CLR 11/11 A3004 RMK AO2,KSTK,2023-05-17T08:35:00Z,40.62,-103.27,11.0,11.0,320,4,,10.0,30.041338,,,TRUE,TRUE,,,,,,,CLR,,,,,,,,VFR,,,,,,,,,,,,METAR,1228.0
KSTF 170835Z AUTO 00000KT 2 1/2SM BR FEW120 21/21 A2981 RMK AO2 LTG DSNT W AND NW,KSTF,2023-05-17T08:35:00Z,33.43,-88.85,21.0,21.0,0,0,,2.5,29.811024,,,TRUE,TRUE,,,,,,BR,FEW,12000,,,,,,,IFR,,,,,,,,,,,,SPECI,99.0
KSTE 170835Z AUTO 07005KT 10SM CLR 06/00 A3005 RMK AO2 T00550000,KSTE,2023-05-17T08:35:00Z,44.55,-89.53,5.5,0.0,70,5,,10.0,30.050198,,,TRUE,TRUE,,,,,,,CLR,,,,,,,,VFR,,,,,,,,,,,,METAR,335.0
KSRR 170835Z AUTO 22007KT 10SM BKN090 OVC110 12/05 A3024 RMK AO2 LTG DSNT W,KSRR,2023-05-17T08:35:00Z,33.47,-105.52,12.0,5.0,220,7,,10.0,30.239174,,,TRUE,TRUE,,,,,,,BKN,9000,OVC,11000,,,,,VFR,,,,,,,,,,,,METAR,2063.0
KSRE 170835Z AUTO 32003KT 8SM OVC030 17/14 A2997 RMK AO2,KSRE,2023-05-17T08:35:00Z,35.27,-96.68,17.0,14.0,320,3,,8.0,29.970472,,,TRUE,TRUE,,,,,,,OVC,3000,,,,,,,MVFR,,,,,,,,,,,,SPECI,306.0
KSRB 170835Z AUTO 00000KT 10SM OVC025 18/18 A2985 RMK AO2,KSRB,2023-05-17T08:35:00Z,36.05,-85.53,18.0,18.0,0,0,,10.0,29.84941,,,TRUE,TRUE,,,,,,,OVC,2500,,,,,,,MVFR,,,,,,,,,,,,SPECI,303.0
KSQL 170835Z AUTO 31004KT 8SM CLR 13/10 A2999 RMK AO2,KSQL,2023-05-17T08:35:00Z,37.52,-122.25,13.0,10.0,310,4,,8.0,29.991142,,,TRUE,TRUE,,,,,,,CLR,,,,,,,,VFR,,,,,,,,,,,,SPECI,1.0
KSPK 170835Z AUTO 11011KT 10SM FEW043 FEW050 12/04 A3013 RMK AO2,KSPK,2023-05-17T08:35:00Z,40.15,-111.67,12.0,4.0,110,11,,10.0,30.129921,,,TRUE,TRUE,,,,,,,FEW,4300,FEW,5000,,,,,VFR,,,,,,,,,,,,METAR,1381.0
KSPF 170835Z AUTO 22004KT 10SM CLR 15/09 A3000 RMK AO2,KSPF,2023-05-17T08:35:00Z,44.47,-103.78,15.0,9.0,220,4,,10.0,30.0,,,TRUE,TRUE,,,,,,,CLR,,,,,,,,VFR,,,,,,,,,,,,SPECI,1191.0
KSPA 170835Z AUTO 26004KT 10SM CLR 18/17 A2974 RMK AO2,KSPA,2023-05-17T08:35:00Z,34.92,-81.95,18.0,17.0,260,4,,10.0,29.740158,,,TRUE,TRUE,,,,,,,CLR,,,,,,,,VFR,,,,,,,,,,,,SPECI,242.0
KSOW 170835Z AUTO 00000KT 10SM FEW080 FEW090 12/08 A3022 RMK AO2,KSOW,2023-05-17T08:35:00Z,34.27,-110.0,12.0,8.0,0,0,,10.0,30.221457,,,TRUE,TRUE,,,,,,,FEW,8000,FEW,9000,,,,,VFR,,,,,,,,,,,,SPECI,1954.0
KSOA 170835Z AUTO 00000KT 10SM CLR 16/16 A3005 RMK AO2,KSOA,2023-05-17T08:35:00Z,30.58,-100.65,16.0,16.0,0,0,,10.0,30.050198,,,TRUE,TRUE,,,,,,,CLR,,,,,,,,VFR,,,,,,,,,,,,SPECI,654.0
KSNK 170835Z AUTO 00000KT 10SM SCT095 17/17 A3001 RMK AO2 T01730169,KSNK,2023-05-17T08:35:00Z,32.7,-100.95,17.3,16.9,0,0,,10.0,30.008858,,,TRUE,TRUE,,,,,,,SCT,9500,,,,,,,VFR,,,,,,,,,,,,SPECI,738.0
KSNC 170835Z AUTO 33011G17KT 280V020 10SM FEW100 16/06 A2957 RMK AO2,KSNC,2023-05-17T08:35:00Z,41.38,-72.5,16.0,6.0,330,11,17,10.0,29.568897,,,TRUE,TRUE,,,,,,,FEW,10000,,,,,,,VFR,,,,,,,,,,,,SPECI,114.0
KSMS 170835Z AUTO 00000KT 10SM CLR 22/21 A2974 RMK AO2,KSMS,2023-05-17T08:35:00Z,34.0,-80.37,22.0,21.0,0,0,,10.0,29.740158,,,TRUE,TRUE,,,,,,,CLR,,,,,,,,VFR,,,,,,,,,,,,METAR,53.0
KSME 170835Z AUTO 00000KT 10SM CLR 15/15 A2984 RMK AO2,KSME,2023-05-17T08:35:00Z,37.05,-84.62,15.0,15.0,0,0,,10.0,29.840551,,,TRUE,TRUE,,,,,,,CLR,,,,,,,,VFR,,,,,,,,,,,,SPECI,279.0
KSMD 170835Z AUTO 05004KT 10SM CLR 11/07 A2990 RMK A01,KSMD,2023-05-17T08:35:00Z,41.15,-85.15,11.0,7.0,50,4,,10.0,29.899607,,,TRUE,TRUE,,,,,,,CLR,,,,,,,,VFR,,,,,,,,,,,,METAR,252.0
KSLR 170835Z AUTO 00000KT 10SM SCT036 19/17 A2995 RMK AO2 T01900174,KSLR,2023-05-17T08:35:00Z,33.17,-95.62,19.0,17.4,0,0,,10.0,29.949802,,,TRUE,TRUE,,,,,,,SCT,3600,,,,,,,VFR,,,,,,,,,,,,METAR,144.0
KSLH 170835Z AUTO 07009KT 10SM CLR 03/00 A3003 RMK AO2,KSLH,2023-05-17T08:35:00Z,45.65,-84.52,3.0,0.0,70,9,,10.0,30.029528,,,TRUE,TRUE,,,,,,,CLR,,,,,,,,VFR,,,,,,,,,,,,SPECI,193.0
KSLB 170835Z AUTO 30010KT 10SM CLR 14/08 A2993 RMK AO2,KSLB,2023-05-17T08:35:00Z,42.6,-95.23,14.0,8.0,300,10,,10.0,29.929134,,,TRUE,TRUE,,,,,,,CLR,,,,,,,,VFR,,,,,,,,,,,,SPECI,450.0
KSJX 170835Z AUTO 04005KT 10SM CLR 03/01 A3004 RMK AO2 T00320010,KSJX,2023-05-17T08:35:00Z,45.7,-85.57,3.2,1.0,40,5,,10.0,30.041338,,,TRUE,TRUE,,,,,,,CLR,,,,,,,,VFR,,,,,,,,,,,,SPECI,202.0
KSJS 170835Z AUTO 00000KT 7SM SCT001 14/14 A2985 RMK AO2 T01360136,KSJS,2023-05-17T08:35:00Z,37.75,-82.63,13.6,13.6,0,0,,7.0,29.84941,,,TRUE,TRUE,,,,,,,SCT,100,,,,,,,VFR,,,,,,,,,,,,METAR,359.0
KSIK 170835Z AUTO 00000KT 7SM CLR 17/16 A2989 RMK AO2,KSIK,2023-05-17T08:35:00Z,36.9,-89.57,17.0,16.0,0,0,,7.0,29.890747,,,TRUE,TRUE,,,,,,,CLR,,,,,,,,VFR,,,,,,,,,,,,SPECI,95.0
KSHL 170835Z AUTO 31005KT 10SM BKN060 OVC075 13/09 A2991 RMK AO2,KSHL,2023-05-17T08:35:00Z,43.22,-95.83,13.0,9.0,310,5,,10.0,29.911417,,,TRUE,TRUE,,,,,,,BKN,6000,OVC,7500,,,,,VFR,,,,,,,,,,,,SPECI,430.0
KSHD 170835Z AUTO 00000KT 10SM CLR 13/11 A2974 RMK AO2 T01310106,KSHD,2023-05-17T08:35:00Z,38.27,-78.9,13.1,10.6,0,0,,10.0,29.740158,,,TRUE,TRUE,,,,,,,CLR,,,,,,,,VFR,,,,,,,,,,,,SPECI,360.0
KSGS 170835Z AUTO 08003KT 10SM CLR 12/04 A2997 RMK AO2 T01190035,KSGS,2023-05-17T08:35:00Z,44.87,-93.03,11.9,3.5,80,3,,10.0,29.970472,,,TRUE,TRUE,,,,,,,CLR,,,,,,,,VFR,,,,,,,,,,,,SPECI,250.0
KSFY 170835Z AUTO 06008KT 10SM SCT080 09/03 A2996 RMK AO2,KSFY,2023-05-17T08:35:00Z,42.05,-90.12,9.0,3.0,60,8,,10.0,29.958662,,,TRUE,TRUE,,,,,,,SCT,8000,,,,,,,VFR,,,,,,,,,,,,SPECI,188.0
KSFQ 170835Z AUTO 27008KT 10SM BKN010 OVC014 20/20 A2965 RMK AO2 T01970197,KSFQ,2023-05-17T08:35:00Z,36.68,-76.6,19.7,19.7,270,8,,10.0,29.648623,,,TRUE,TRUE,,,,,,,BKN,1000,OVC,1400,,,,,MVFR,,,,,,,,,,,,SPECI,19.0
KSEZ 170835Z AUTO 03007KT 10SM CLR 17/07 A3014 RMK AO2,KSEZ,2023-05-17T08:35:00Z,34.85,-111.78,17.0,7.0,30,7,,10.0,30.138779,,,TRUE,TRUE,,,,,,,CLR,,,,,,,,VFR,,,,,,,,,,,,SPECI,1455.0
KSEP 170835Z AUTO 00000KT 10SM CLR 17/15 A2998 RMK AO2 T01660152,KSEP,2023-05-17T08:35:00Z,32.22,-98.17,16.6,15.2,0,0,,10.0,29.97933,,,TRUE,TRUE,,,,,,,CLR,,,,,,,,VFR,,,,,,,,,,,,METAR,399.0
KSEM 170835Z AUTO 00000KT 9SM FEW043 BKN050 19/19 A2982 RMK AO2,KSEM,2023-05-17T08:35:00Z,32.35,-86.98,19.0,19.0,0,0,,9.0,29.819881,,,TRUE,TRUE,,,,,,,FEW,4300,BKN,5000,,,,,VFR,,,,,,,,,,,,SPECI,48.0
KSEF 170835Z AUTO 28004KT 10SM CLR 23/ A2989 RMK AO2 T0225////,KSEF,2023-05-17T08:35:00Z,27.45,-81.35,22.5,,280,4,,10.0,29.890747,,,TRUE,TRUE,,,,,,,CLR,,,,,,,,VFR,,,,,,,,,,,,METAR,17.0
KSEE 170835Z AUTO 29004KT 10SM OVC007 14/13 A2995 RMK AO2,KSEE,2023-05-17T08:35:00Z,32.82,-116.97,14.0,13.0,290,4,,10.0,29.949802,,,TRUE,TRUE,,,,,,,OVC,700,,,,,,,IFR,,,,,,,,,,,,SPECI,113.0
KSDC 170835Z AUTO 01006KT 10SM OVC039 04/M02 A2986 RMK AO2,KSDC,2023-05-17T08:35:00Z,43.23,-77.12,4.0,-2.0,10,6,,10.0,29.861221,,,TRUE,TRUE,,,,,,,OVC,3900,,,,,,,VFR,,,,,,,,,,,,SPECI,127.0
KSDA 170835Z AUTO 00000KT 10SM CLR 12/11 A2993 RMK AO2,KSDA,2023-05-17T08:35:00Z,40.75,-95.42,12.0,11.0,0,0,,10.0,29.929134,,,TRUE,TRUE,,,,,,,CLR,,,,,,,,VFR,,,,,,,,,,,,SPECI,293.0
KSCX 170835Z AUTO 03005KT 10SM SCT027 OVC060 16/16 A2986 RMK A01,KSCX,2023-05-17T08:35:00Z,36.45,-84.58,16.0,16.0,30,5,,10.0,29.861221,,,TRUE,TRUE,,,,,,,SCT,2700,OVC,6000,,,,,VFR,,,,,,,,,,,,SPECI,462.0
KSCD 170835Z AUTO 00000KT 10SM CLR 18/18 A2984 RMK AO2 T01830181,KSCD,2023-05-17T08:35:00Z,33.17,-86.3,18.3,18.1,0,0,,10.0,29.840551,,,TRUE,TRUE,,,,,,,CLR,,,,,,,,VFR,,,,,,,,,,,,SPECI,164.0
KSBS 170835Z AUTO 00000KT 10SM CLR 05/04 A3022 RMK AO1 T00490040,KSBS,2023-05-17T08:35:00Z,40.52,-106.87,4.9,4.0,0,0,,10.0,30.221457,,,TRUE,TRUE,,,,,,,CLR,,,,,,,,VFR,,,,,,,,,,,,SPECI,2097.0
KSBO 170835Z AUTO 28004KT 10SM CLR 21/21 A2981 RMK AO2,KSBO,2023-05-17T08:35:00Z,32.62,-82.37,21.0,21.0,280,4,,10.0,29.811024,,,TRUE,TRUE,,,,,,,CLR,,,,,,,,VFR,,,,,,,,,,,,SPECI,98.0
KSAZ 170835Z AUTO 12003KT 10SM CLR 11/05 A2998 RMK AO2,KSAZ,2023-05-17T08:35:00Z,46.37,-94.8,11.0,5.0,120,3,,10.0,29.97933,,,TRUE,TRUE,,,,,,,CLR,,,,,,,,VFR,,,,,,,,,,,,SPECI,391.0
KSAR 170835Z AUTO 28003KT 5SM BR CLR 14/14 A2991 RMK AO2 T01390139,KSAR,2023-05-17T08:35:00Z,38.15,-89.7,13.9,13.9,280,3,,5.0,29.911417,,,TRUE,TRUE,,,,,,BR,CLR,,,,,,,,MVFR,,,,,,,,,,,,METAR,162.0
KSAA 170835Z AUTO 15005KT 10SM CLR 06/01 A3019 RMK AO2,KSAA,2023-05-17T08:35:00Z,41.45,-106.8,6.0,1.0,150,5,,10.0,30.188976,,,TRUE,TRUE,,,,,,,CLR,,,,,,,,VFR,,,,,,,,,,,,SPECI,2093.0
KS52 170835Z AUTO 00000KT 10SM SCT070 SCT090 BKN110 11/09 A3008 RMK AO2 T01100094,KS52,2023-05-17T08:35:00Z,48.42,-120.15,11.0,9.4,0,0,,10.0,30.079725,,,TRUE,TRUE,,,,,,,SCT,7000,SCT,9000,BKN,11000,,,VFR,,,,,,,,,,,,METAR,517.0
KS39 170835Z AUTO 00000KT 10SM CLR 12/10 A3012 RMK AO2,KS39,2023-05-17T08:35:00Z,44.28,-120.9,12.0,10.0,0,0,,10.0,30.121063,,,TRUE,TRUE,,,,,,,CLR,,,,,,,,VFR,,,,,,,,,,,,METAR,987.0
KS33 170835Z AUTO 16005KT 10SM CLR A3010 RMK AO2,KS33,2023-05-17T08:35:00Z,44.67,-121.15,,,160,5,,10.0,30.100393,,,TRUE,TRUE,,,,,,,CLR,,,,,,,,VFR,,,,,,,,,,,,METAR,739.0
KS32 170835Z AUTO 17004KT 10SM SCT028 SCT070 OVC080 12/07 A2990 RMK AO2 TSNO,KS32,2023-05-17T08:35:00Z,47.42,-98.1,12.0,7.0,170,4,,10.0,29.899607,,,TRUE,TRUE,,,TRUE,,,,SCT,2800,SCT,7000,OVC,8000,,,VFR,,,,,,,,,,,,SPECI,435.0
KS25 170835Z AUTO 00000KT 10SM SCT080 SCT095 14/09 A2984 RMK AO2,KS25,2023-05-17T08:35:00Z,47.8,-103.25,14.0,9.0,0,0,,10.0,29.840551,,,TRUE,TRUE,,,,,,,SCT,8000,SCT,9500,,,,,VFR,,,,,,,,,,,,SPECI,632.0
KS24 170835Z AUTO 02008KT 10SM FEW055 09/06 A2988 RMK AO2,KS24,2023-05-17T08:35:00Z,41.3,-83.03,9.0,6.0,20,8,,10.0,29.878937,,,TRUE,TRUE,,,,,,,FEW,5500,,,,,,,VFR,,,,,,,,,,,,SPECI,203.0
KS12 170835Z AUTO 00000KT 10SM CLR 16/13 A3002 RMK AO2 LTG DSNT S,KS12,2023-05-17T08:35:00Z,,,16.0,13.0,0,0,,10.0,30.02067,,,TRUE,TRUE,,,,,,,CLR,,,,,,,,VFR,,,,,,,,,,,,METAR,
KRZT 170835Z AUTO 30008KT 10SM CLR 12/11 A2983 RMK AO2 PWINO,KRZT,2023-05-17T08:35:00Z,39.43,-83.02,12.0,11.0,300,8,,10.0,29.828741,,,TRUE,TRUE,,,,,TRUE,,CLR,,,,,,,,VFR,,,,,,,,,,,,SPECI,217.0
KRZR 170835Z AUTO 22003KT 9SM BKN007 BKN011 OVC033 20/20 A2980 RMK A01,KRZR,2023-05-17T08:35:00Z,35.22,-84.8,20.0,20.0,220,3,,9.0,29.799213,,,TRUE,TRUE,,,,,,,BKN,700,BKN,1100,OVC,3300,,,IFR,,,,,,,,,,,,SPECI,259.0
KRZL 170835Z AUTO 36007KT 10SM OVC095 10/06 A2991 RMK AO2,KRZL,2023-05-17T08:35:00Z,40.95,-87.18,10.0,6.0,360,7,,10.0,29.911417,,,TRUE,TRUE,,,,,,,OVC,9500,,,,,,,VFR,,,,,,,,,,,,METAR,210.0
KRYW 170835Z AUTO 30003KT 10SM CLR 19/17 A2995 RMK AO2 T01930167,KRYW,2023-05-17T08:35:00Z,30.5,-97.97,19.3,16.7,300,3,,10.0,29.949802,,,TRUE,TRUE,,,,,,,CLR,,,,,,,,VFR,,,,,,,,,,,,METAR,370.0
KRYN 170835Z AUTO 10005KT 10SM CLR 23/09 A2998 RMK AO2,KRYN,2023-05-17T08:35:00Z,32.15,-111.17,23.0,9.0,100,5,,10.0,29.97933,,,TRUE,TRUE,,,,,,,CLR,,,,,,,,VFR,,,,,,,,,,,,SPECI,731.0
KRWV 170835Z AUTO 00000KT 10SM CLR 19/18 A2993 RMK AO2 T01880181,KRWV,2023-05-17T08:35:00Z,30.52,-96.7,18.8,18.1,0,0,,10.0,29.929134,,,TRUE,TRUE,,,,,,,CLR,,,,,,,,VFR,,,,,,,,,,,,METAR,116.0
KRVL 170835Z AUTO 00000KT 10SM CLR 14/10 A2968 RMK AO2,KRVL,2023-05-17T08:35:00Z,40.68,-77.63,14.0,10.0,0,0,,10.0,29.681103,,,TRUE,TRUE,,,,,,,CLR,,,,,,,,VFR,,,,,,,,,,,,SPECI,250.0
KRVJ 170835Z AUTO 00000KT 10SM CLR 20/ A2981 RMK AO2 T0203////,KRVJ,2023-05-17T08:35:00Z,32.07,-82.15,20.3,,0,0,,10.0,29.811024,,,TRUE,TRUE,,,,,,,CLR,,,,,,,,VFR,,,,,,,,,,,,METAR,60.0
KRVF 170835Z AUTO 00000KT 10SM FEW065 10/05 A3018 RMK AO2,KRVF,2023-05-17T08:35:00Z,45.53,-112.3,10.0,5.0,0,0,,10.0,30.180119,,,TRUE,TRUE,,,,,,,FEW,6500,,,,,,,VFR,,,,,,,,,,,,METAR,1445.0
KRUG 170835Z AUTO 19006KT 10SM CLR 13/08 A2985 RMK AO2,KRUG,2023-05-17T08:35:00Z,48.38,-100.02,13.0,8.0,190,6,,10.0,29.84941,,,TRUE,TRUE,,,,,,,CLR,,,,,,,,VFR,,,,,,,,,,,,SPECI,469.0
KRTS 170835Z AUTO 34010KT 10SM CLR 10/01 A3017 RMK AO2,KRTS,2023-05-17T08:35:00Z,39.67,-119.88,10.0,1.0,340,10,,10.0,30.171259,,,TRUE,TRUE,,,,,,,CLR,,,,,,,,VFR,,,,,,,,,,,,SPECI,1537.0
KRSN 170835Z AUTO 00000KT 10SM FEW046 20/20 A2987 RMK AO2 T01950195 $,KRSN,2023-05-17T08:35:00Z,32.52,-92.58,19.5,19.5,0,0,,10.0,29.870079,,,TRUE,TRUE,TRUE,,,,,,FEW,4600,,,,,,,VFR,,,,,,,,,,,,SPECI,86.0
KRRT 170835Z AUTO 14004KT 10SM CLR 10/06 A2992 RMK AO2,KRRT,2023-05-17T08:35:00Z,48.93,-95.33,10.0,6.0,140,4,,10.0,29.920275,,,TRUE,TRUE,,,,,,,CLR,,,,,,,,VFR,,,,,,,,,,,,SPECI,327.0
KRQB 170835Z AUTO 00000KT 10SM CLR 03/00 A2997 RMK AO2 T00281003,KRQB,2023-05-17T08:35:00Z,43.72,-85.5,2.8,-0.3,0,0,,10.0,29.970472,,,TRUE,TRUE,,,,,,,CLR,,,,,,,,VFR,,,,,,,,,,,,SPECI,282.0
KRPJ 170835Z AUTO 05010KT 10SM BKN080 08/03 A2996 RMK AO2 T00810027 TSNO,KRPJ,2023-05-17T08:35:00Z,41.88,-89.08,8.1,2.7,50,10,,10.0,29.958662,,,TRUE,TRUE,,,TRUE,,,,BKN,8000,,,,,,,VFR,,,,,,,,,,,,SPECI,234.0
KRPH 170835Z AUTO 00000KT 10SM CLR 15/15 A2994 RMK AO2 T01500150 $,KRPH,2023-05-17T08:35:00Z,33.12,-98.55,15.0,15.0,0,0,,10.0,29.940945,,,TRUE,TRUE,TRUE,,,,,,CLR,,,,,,,,VFR,,,,,,,,,,,,SPECI,341.0
KRPD 170835Z AUTO 06007KT 10SM CLR 08/05 A3002 RMK AO2 T00810047,KRPD,2023-05-17T08:35:00Z,45.42,-91.77,8.1,4.7,60,7,,10.0,30.02067,,,TRUE,TRUE,,,,,,,CLR,,,,,,,,VFR,,,,,,,,,,,,SPECI,334.0
KROX 170835Z AUTO 14005KT 10SM CLR 11/04 A2991 RMK AO2,KROX,2023-05-17T08:35:00Z,48.85,-95.7,11.0,4.0,140,5,,10.0,29.911417,,,TRUE,TRUE,,,,,,,CLR,,,,,,,,VFR,,,,,,,,,,,,SPECI,320.0
KROS 170835Z AUTO 05005KT 10SM BKN110 09/05 A3001 RMK AO2 T00910046,KROS,2023-05-17T08:35:00Z,45.7,-92.95,9.1,4.6,50,5,,10.0,30.008858,,,TRUE,TRUE,,,,,,,BKN,11000,,,,,,,VFR,,,,,,,,,,,,SPECI,282.0
KRNP 170835Z AUTO 00000KT 10SM CLR 06/01 A2996 RMK AO2 T00560008,KRNP,2023-05-17T08:35:00Z,43.0,-84.13,5.6,0.8,0,0,,10.0,29.958662,,,TRUE,TRUE,,,,,,,CLR,,,,,,,,VFR,,,,,,,,,,,,SPECI,224.0
KRNH 170835Z AUTO 08004KT 10SM CLR 09/06 A2999 RMK AO2 T00850057,KRNH,2023-05-17T08:35:00Z,45.15,-92.53,8.5,5.7,80,4,,10.0,29.991142,,,TRUE,TRUE,,,,,,,CLR,,,,,,,,VFR,,,,,,,,,,,,METAR,302.0
KRNC 170835Z AUTO 00000KT 10SM FEW019 BKN026 OVC049 19/17 A2985 RMK A01,KRNC,2023-05-17T08:35:00Z,35.7,-85.85,19.0,17.0,0,0,,10.0,29.84941,,,TRUE,TRUE,,,,,,,FEW,1900,BKN,2600,OVC,4900,,,MVFR,,,,,,,,,,,,SPECI,310.0
KRMY 170835Z AUTO 00000KT 10SM CLR 08/04 A2993 RMK AO2 T00800035,KRMY,2023-05-17T08:35:00Z,42.25,-84.95,8.0,3.5,0,0,,10.0,29.929134,,,TRUE,TRUE,,,,,,,CLR,,,,,,,,VFR,,,,,,,,,,,,SPECI,285.0
KRMN 170835Z AUTO 00000KT 10SM BKN110 20/19 A2966 RMK AO2 T02020190,KRMN,2023-05-17T08:35:00Z,38.4,-77.45,20.2,19.0,0,0,,10.0,29.660433,,,TRUE,TRUE,,,,,,,BKN,11000,,,,,,,VFR,,,,,,,,,,,,SPECI,50.0
KRLD 170835Z AUTO 00000KT 7SM CLR 16/16 A3002 RMK AO2 T01600157,KRLD,2023-05-17T08:35:00Z,46.3,-119.3,16.0,15.7,0,0,,7.0,30.02067,,,TRUE,TRUE,,,,,,,CLR,,,,,,,,VFR,,,,,,,,,,,,METAR,118.0
KRKW 170835Z AUTO 35004KT 10SM SCT010 BKN017 OVC041 16/16 A2985 RMK A01,KRKW,2023-05-17T08:35:00Z,35.92,-84.68,16.0,16.0,350,4,,10.0,29.84941,,,TRUE,TRUE,,,,,,,SCT,1000,BKN,1700,OVC,4100,,,MVFR,,,,,,,,,,,,SPECI,505.0
KRKR 170835Z AUTO 34005KT 10SM OVC027 17/14 A2992 RMK AO2,KRKR,2023-05-17T08:35:00Z,35.02,-94.62,17.0,14.0,340,5,,10.0,29.920275,,,TRUE,TRUE,,,,,,,OVC,2700,,,,,,,MVFR,,,,,,,,,,,,SPECI,136.0
KRID 170835Z AUTO 30004KT 7SM CLR 10/10 A2985 RMK AO2,KRID,2023-05-17T08:35:00Z,39.75,-84.85,10.0,10.0,300,4,,7.0,29.84941,,,TRUE,TRUE,,,,,,,CLR,,,,,,,,VFR,,,,,,,,,,,,SPECI,346.0
KRGK 170835Z AUTO 09004KT 10SM CLR 10/03 A2996 RMK AO2,KRGK,2023-05-17T08:35:00Z,44.58,-92.48,10.0,3.0,90,4,,10.0,29.958662,,,TRUE,TRUE,,,,,,,CLR,,,,,,,,VFR,,,,,,,,,,,,SPECI,238.0
KRGA 170835Z AUTO 27003KT 5SM BR SCT004 SCT100 13/13 A2988 RMK AO2,KRGA,2023-05-17T08:35:00Z,37.63,-84.33,13.0,13.0,270,3,,5.0,29.878937,,,TRUE,TRUE,,,,,,BR,SCT,400,SCT,10000,,,,,MVFR,,,,,,,,,,,,METAR,301.0
KREG 170835Z AUTO 00000KT 4SM BR CLR 22/21 A2985 RMK AO2 T02180212,KREG,2023-05-17T08:35:00Z,30.17,-90.93,21.8,21.2,0,0,,4.0,29.84941,,,TRUE,TRUE,,,,,,BR,CLR,,,,,,,,MVFR,,,,,,,,,,,,SPECI,3.0
KRDK 170835Z AUTO 00000KT 10SM CLR 10/10 A2994 RMK AO2,KRDK,2023-05-17T08:35:00Z,41.02,-95.27,10.0,10.0,0,0,,10.0,29.940945,,,TRUE,TRUE,,,,,,,CLR,,,,,,,,VFR,,,,,,,,,,,,SPECI,317.0
KRCX 170835Z AUTO 00000KT 10SM CLR 05/04 A3004 RMK AO2 T00460040,KRCX,2023-05-17T08:35:00Z,45.5,-91.0,4.6,4.0,0,0,,10.0,30.041338,,,TRUE,TRUE,,,,,,,CLR,,,,,,,,VFR,,,,,,,,,,,,SPECI,373.0
KRCV 170835Z AUTO 23009KT 10SM CLR 10/M01 A3026 RMK AO2 T00961011,KRCV,2023-05-17T08:35:00Z,37.72,-106.35,9.6,-1.1,230,9,,10.0,30.259842,,,TRUE,TRUE,,,,,,,CLR,,,,,,,,VFR,,,,,,,,,,,,METAR,2418.0
KRCR 170835Z AUTO 00000KT 10SM FEW038 OVC065 11/10 A2989 RMK AO2,KRCR,2023-05-17T08:35:00Z,41.07,-86.18,11.0,10.0,0,0,,10.0,29.890747,,,TRUE,TRUE,,,,,,,FEW,3800,OVC,6500,,,,,VFR,,,,,,,,,,,,SPECI,240.0
KRCE 170835Z AUTO 25004KT 2 1/2SM BR FEW022 BKN040 BKN045 13/12 A2999 RMK AO2,KRCE,2023-05-17T08:35:00Z,35.48,-97.82,13.0,12.0,250,4,,2.5,29.991142,,,TRUE,TRUE,,,,,,BR,FEW,2200,BKN,4000,BKN,4500,,,IFR,,,,,,,,,,,,SPECI,412.0
KRBW 170835Z AUTO 22004KT 10SM CLR 20/20 A2978 RMK AO2,KRBW,2023-05-17T08:35:00Z,32.92,-80.63,20.0,20.0,220,4,,10.0,29.778543,,,TRUE,TRUE,,,,,,,CLR,,,,,,,,VFR,,,,,,,,,,,,SPECI,30.0
KRBO 170835Z AUTO 00000KT 10SM CLR 20/20 A2992 RMK AO2 T02020201,KRBO,2023-05-17T08:35:00Z,27.78,-97.68,20.2,20.1,0,0,,10.0,29.920275,,,TRUE,TRUE,,,,,,,CLR,,,,,,,,VFR,,,,,,,,,,,,SPECI,24.0
KRAW 170835Z AUTO 00000KT 1 1/4SM BR BKN003 BKN008 OVC080 12/12 A2995 RMK AO2,KRAW,2023-05-17T08:35:00Z,38.35,-93.35,12.0,12.0,0,0,,1.25,29.949802,,,TRUE,TRUE,,,,,,BR,BKN,300,BKN,800,OVC,8000,,,LIFR,,,,,,,,,,,,SPECI,285.0
KRAS 170835Z AUTO 03003KT 10SM CLR 23/21 A2992 RMK AO2 T02280209,KRAS,2023-05-17T08:35:00Z,27.82,-97.08,22.8,20.9,30,3,,10.0,29.920275,,,TRUE,TRUE,,,,,,,CLR,,,,,,,,VFR,,,,,,,,,,,,SPECI,3.0
KPZQ 170835Z AUTO 06006G14KT 020V080 10SM CLR 02/M01 A3005 RMK AO2 T00181012,KPZQ,2023-05-17T08:35:00Z,45.4,-83.82,1.8,-1.2,60,6,14,10.0,30.050198,,,TRUE,TRUE,,,,,,,CLR,,,,,,,,VFR,,,,,,,,,,,,SPECI,199.0
KPYX 170835Z AUTO 12005KT 10SM CLR 13/10 A2999 RMK AO2 T01280103,KPYX,2023-05-17T08:35:00Z,36.42,-100.75,12.8,10.3,120,5,,10.0,29.991142,,,TRUE,TRUE,,,,,,,CLR,,,,,,,,VFR,,,,,,,,,,,,METAR,890.0
KPXE 170835Z AUTO 30003KT 10SM SCT006 19/ A2983 RMK AO2 T0189////,KPXE,2023-05-17T08:35:00Z,32.52,-83.77,18.9,,300,3,,10.0,29.828741,,,TRUE,TRUE,,,,,,,SCT,600,,,,,,,VFR,,,,,,,,,,,,METAR,126.0
KPWD 170835Z AUTO 32010KT 10SM -RA 16/12 A2984 RMK AO2,KPWD,2023-05-17T08:35:00Z,48.78,-104.52,16.0,12.0,320,10,,10.0,29.840551,,,TRUE,TRUE,,,,,,-RA,,,,,,,,,,,,,,,,,,,,,METAR,690.0
KPWC 170835Z AUTO 14004KT 10SM CLR 08/03 A3002 RMK AO2,KPWC,2023-05-17T08:35:00Z,46.72,-94.38,8.0,3.0,140,4,,10.0,30.02067,,,TRUE,TRUE,,,,,,,CLR,,,,,,,,VFR,,,,,,,,,,,,SPECI,394.0
KPVW 170835Z AUTO 00000KT 10SM CLR 17/12 A3001 RMK AO2 T01650118,KPVW,2023-05-17T08:35:00Z,34.17,-101.72,16.5,11.8,0,0,,10.0,30.008858,,,TRUE,TRUE,,,,,,,CLR,,,,,,,,VFR,,,,,,,,,,,,METAR,1029.0
KPVJ 170835Z AUTO 00000KT 7SM CLR 13/13 A2997 RMK AO2 T01300130,KPVJ,2023-05-17T08:35:00Z,34.72,-97.22,13.0,13.0,0,0,,7.0,29.970472,,,TRUE,TRUE,,,,,,,CLR,,,,,,,,VFR,,,,,,,,,,,,SPECI,287.0
KPVF 170835Z AUTO 08006KT 10SM CLR 20/03 A3004 RMK AO1,KPVF,2023-05-17T08:35:00Z,38.72,-120.75,20.0,3.0,80,6,,10.0,30.041338,,,TRUE,TRUE,,,,,,,CLR,,,,,,,,VFR,,,,,,,,,,,,METAR,788.0
KPVE 170835Z AUTO 01005KT 10SM BKN023 OVC035 19/17 A2985 RMK A01,KPVE,2023-05-17T08:35:00Z,35.65,-88.2,19.0,17.0,10,5,,10.0,29.84941,,,TRUE,TRUE,,,,,,,BKN,2300,OVC,3500,,,,,MVFR,,,,,,,,,,,,SPECI,146.0
KPVB 170835Z AUTO 05008KT 10SM CLR 09/01 A2998 RMK AO1 T00900009,KPVB,2023-05-17T08:35:00Z,42.68,-90.43,9.0,0.9,50,8,,10.0,29.97933,,,TRUE,TRUE,,,,,,,CLR,,,,,,,,VFR,,,,,,,,,,,,SPECI,311.0
KPUJ 170835Z AUTO 00000KT 7SM BKN006 18/18 A2985 RMK AO2,KPUJ,2023-05-17T08:35:00Z,33.92,-84.93,18.0,18.0,0,0,,7.0,29.84941,,,TRUE,TRUE,,,,,,,BKN,600,,,,,,,IFR,,,,,,,,,,,,SPECI,385.0
KPTT 170835Z AUTO 24003KT 7SM SCT075 SCT080 SCT120 13/12 A3002 RMK AO2 T01250122,KPTT,2023-05-17T08:35:00Z,37.7,-98.75,12.5,12.2,240,3,,7.0,30.02067,,,TRUE,TRUE,,,,,,,SCT,7500,SCT,8000,SCT,12000,,,VFR,,,,,,,,,,,,SPECI,594.0
KPTS 170835Z AUTO 00000KT 10SM OVC031 16/16 A2995 RMK AO2 T01610160 PWINO,KPTS,2023-05-17T08:35:00Z,37.45,-94.73,16.1,16.0,0,0,,10.0,29.949802,,,TRUE,TRUE,,,,,TRUE,,OVC,3100,,,,,,,VFR,,,,,,,,,,,,METAR,286.0
KPTD 170835Z AUTO 01005KT 10SM OVC060 01/M02 A2983 RMK AO2,KPTD,2023-05-17T08:35:00Z,44.68,-74.95,1.0,-2.0,10,5,,10.0,29.828741,,,TRUE,TRUE,,,,,,,OVC,6000,,,,,,,VFR,,,,,,,,,,,,SPECI,144.0
KPTB 170835Z AUTO 00000KT 10SM BKN007 OVC012 19/18 A2967 RMK AO2 T01880181,KPTB,2023-05-17T08:35:00Z,37.17,-77.52,18.8,18.1,0,0,,10.0,29.66929,,,TRUE,TRUE,,,,,,,BKN,700,OVC,1200,,,,,IFR,,,,,,,,,,,,SPECI,56.0
KPSO 170835Z AUTO 00000KT 10SM SCT100 11/02 A3024 RMK AO2 LTG DSNT W T01110021,KPSO,2023-05-17T08:35:00Z,37.28,-107.05,11.1,2.1,0,0,,10.0,30.239174,,,TRUE,TRUE,,,,,,,SCT,10000,,,,,,,VFR,,,,,,,,,,,,SPECI,2332.0
KPSN 170835Z AUTO 00000KT 10SM BKN038 OVC043 16/16 A2990 RMK AO2,KPSN,2023-05-17T08:35:00Z,31.78,-95.7,16.0,16.0,0,0,,10.0,29.899607,,,TRUE,TRUE,,,,,,,BKN,3800,OVC,4300,,,,,VFR,,,,,,,,,,,,SPECI,124.0
KPSK 170835Z AUTO 34003KT 10SM OVC018 15/14 A2979 RMK AO2 T01500140,KPSK,2023-05-17T08:35:00Z,37.13,-80.67,15.0,14.0,340,3,,10.0,29.790354,,,TRUE,TRUE,,,,,,,OVC,1800,,,,,,,MVFR,,,,,,,,,,,,SPECI,629.0
KPRS 170835Z AUTO 02007KT 10SM CLR 20/15 A3003 RMK AO2 T02030148,KPRS,2023-05-17T08:35:00Z,29.63,-104.35,20.3,14.8,20,7,,10.0,30.029528,,,TRUE,TRUE,,,,,,,CLR,,,,,,,,VFR,,,,,,,,,,,,METAR,890.0
KPRO 170835Z AUTO 29005KT 10SM CLR 13/08 A2992 RMK AO2 T01260081,KPRO,2023-05-17T08:35:00Z,41.83,-94.17,12.6,8.1,290,5,,10.0,29.920275,,,TRUE,TRUE,,,,,,,CLR,,,,,,,,VFR,,,,,,,,,,,,METAR,308.0
KPRG 170835Z AUTO 27003KT 10SM CLR 11/11 A2987 RMK AO2 T01120112,KPRG,2023-05-17T08:35:00Z,39.7,-87.67,11.2,11.2,270,3,,10.0,29.870079,,,TRUE,TRUE,,,,,,,CLR,,,,,,,,VFR,,,,,,,,,,,,SPECI,197.0
KPPQ 170835Z AUTO 26004KT 10SM CLR 14/13 A2990 RMK AO2 T01400130,KPPQ,2023-05-17T08:35:00Z,39.63,-90.78,14.0,13.0,260,4,,10.0,29.899607,,,TRUE,TRUE,,,,,,,CLR,,,,,,,,VFR,,,,,,,,,,,,SPECI,215.0
KPPO 170835Z AUTO 36005KT 10SM CLR 09/09 A2991 RMK AO2 T00910091,KPPO,2023-05-17T08:35:00Z,41.57,-86.73,9.1,9.1,360,5,,10.0,29.911417,,,TRUE,TRUE,,,,,,,CLR,,,,,,,,VFR,,,,,,,,,,,,METAR,242.0
KPPA 170835Z AUTO 18008KT 17/15 A3002 RMK AO2 T01670145 PWINO,KPPA,2023-05-17T08:35:00Z,35.62,-101.0,16.7,14.5,180,8,,,30.02067,,,TRUE,TRUE,,,,,TRUE,,,,,,,,,,,,,,,,,,,,,,SPECI,989.0
KPOY 170835Z AUTO 35010KT 10SM SCT095 12/02 A3009 RMK AO2,KPOY,2023-05-17T08:35:00Z,44.87,-108.8,12.0,2.0,350,10,,10.0,30.088583,,,TRUE,TRUE,,,,,,,SCT,9500,,,,,,,VFR,,,,,,,,,,,,SPECI,1547.0
KPOV 170835Z AUTO 36005KT 10SM BKN016 09/05 A2982 RMK AO2 T00870053 PWINO,KPOV,2023-05-17T08:35:00Z,41.22,-81.25,8.7,5.3,360,5,,10.0,29.819881,,,TRUE,TRUE,,,,,TRUE,,BKN,1600,,,,,,,MVFR,,,,,,,,,,,,SPECI,363.0
KPNM 170835Z AUTO 00000KT 10SM CLR 09/04 A2999 RMK AO2,KPNM,2023-05-17T08:35:00Z,45.53,-93.6,9.0,4.0,0,0,,10.0,29.991142,,,TRUE,TRUE,,,,,,,CLR,,,,,,,,VFR,,,,,,,,,,,,SPECI,298.0
KPNA 170835Z AUTO 32004KT 10SM CLR 03/00 A3025 RMK AO2,KPNA,2023-05-17T08:35:00Z,42.8,-109.8,3.0,0.0,320,4,,10.0,30.250984,,,TRUE,TRUE,,,,,,,CLR,,,,,,,,VFR,,,,,,,,,,,,SPECI,2158.0
KPMV 170835Z AUTO 30005KT 10SM CLR 14/06 A2995 RMK AO2 T01350063,KPMV,2023-05-17T08:35:00Z,40.95,-95.92,13.5,6.3,300,5,,10.0,29.949802,,,TRUE,TRUE,,,,,,,CLR,,,,,,,,VFR,,,,,,,,,,,,SPECI,365.0
KPMU 170835Z AUTO 00000KT 9SM BKN007 OVC012 20/20 A2983 RMK AO2 LTG DSNT SE,KPMU,2023-05-17T08:35:00Z,34.37,-89.9,20.0,20.0,0,0,,9.0,29.828741,,,TRUE,TRUE,,,,,,,BKN,700,OVC,1200,,,,,IFR,,,,,,,,,,,,METAR,67.0
KPLU 170835Z AUTO 00000KT 10SM CLR 15/13 A3007 RMK AO2,KPLU,2023-05-17T08:35:00Z,47.1,-122.28,15.0,13.0,0,0,,10.0,30.070866,,,TRUE,TRUE,,,,,,,CLR,,,,,,,,VFR,,,,,,,,,,,,SPECI,164.0
KPLR 170835Z AUTO 00000KT 2 1/2SM BR OVC003 20/20 A2984 RMK A01,KPLR,2023-05-17T08:35:00Z,33.57,-86.25,20.0,20.0,0,0,,2.5,29.840551,,,TRUE,TRUE,,,,,,BR,OVC,300,,,,,,,LIFR,,,,,,,,,,,,SPECI,145.0
KPKV 170835Z AUTO 29003KT 5SM BR CLR 20/19 A2992 RMK AO2 T02010192,KPKV,2023-05-17T08:35:00Z,28.65,-96.68,20.1,19.2,290,3,,5.0,29.920275,,,TRUE,TRUE,,,,,,BR,CLR,,,,,,,,MVFR,,,,,,,,,,,,SPECI,8.0
KPJC 170835Z AUTO 32004KT 10SM CLR 10/06 A2977 RMK AO2,KPJC,2023-05-17T08:35:00Z,40.8,-80.17,10.0,6.0,320,4,,10.0,29.769686,,,TRUE,TRUE,,,,,,,CLR,,,,,,,,VFR,,,,,,,,,,,,SPECI,273.0
KPIM 170835Z AUTO 00000KT 1/2SM FG OVC003 19/18 A2984 RMK AO2 T01860177,KPIM,2023-05-17T08:35:00Z,32.83,-84.88,18.6,17.7,0,0,,0.5,29.840551,,,TRUE,TRUE,,,,,,FG,OVC,300,,,,,,,LIFR,,,,,,,,,,,,METAR,274.0
KPHT 170835Z AUTO 00000KT 10SM OVC025 18/17 A2986 RMK A01,KPHT,2023-05-17T08:35:00Z,36.33,-88.38,18.0,17.0,0,0,,10.0,29.861221,,,TRUE,TRUE,,,,,,,OVC,2500,,,,,,,MVFR,,,,,,,,,,,,SPECI,172.0
KPHN 170835Z AUTO 00000KT 10SM CLR 04/01 A2993 RMK AO2,KPHN,2023-05-17T08:35:00Z,42.92,-82.52,4.0,1.0,0,0,,10.0,29.929134,,,TRUE,TRUE,,,,,,,CLR,,,,,,,,VFR,,,,,,,,,,,,SPECI,195.0
KPEZ 170835Z AUTO 31003KT 10SM CLR 21/20 A2994 RMK AO2 T02100202,KPEZ,2023-05-17T08:35:00Z,28.95,-98.52,21.0,20.2,310,3,,10.0,29.940945,,,TRUE,TRUE,,,,,,,CLR,,,,,,,,VFR,,,,,,,,,,,,SPECI,126.0
KPEX 170835Z AUTO 09007KT 10SM CLR 12/07 A2996 RMK AO2,KPEX,2023-05-17T08:35:00Z,45.37,-94.73,12.0,7.0,90,7,,10.0,29.958662,,,TRUE,TRUE,,,,,,,CLR,,,,,,,,VFR,,,,,,,,,,,,SPECI,359.0
KPEQ 170835Z AUTO 00000KT 10SM CLR 18/11 A2999 RMK AO2 T01790112,KPEQ,2023-05-17T08:35:00Z,31.38,-103.52,17.9,11.2,0,0,,10.0,29.991142,,,TRUE,TRUE,,,,,,,CLR,,,,,,,,VFR,,,,,,,,,,,,SPECI,794.0
KPEA 170835Z AUTO 27004KT 10SM CLR 13/11 A2991 RMK AO2 T01330113,KPEA,2023-05-17T08:35:00Z,41.4,-92.95,13.3,11.3,270,4,,10.0,29.911417,,,TRUE,TRUE,,,,,,,CLR,,,,,,,,VFR,,,,,,,,,,,,SPECI,264.0
KPDC 170835Z AUTO 10006KT 10SM CLR 11/05 A2997 RMK AO2 T01080054,KPDC,2023-05-17T08:35:00Z,43.02,-91.12,10.8,5.4,100,6,,10.0,29.970472,,,TRUE,TRUE,,,,,,,CLR,,,,,,,,VFR,,,,,,,,,,,,SPECI,201.0
KPCZ 170835Z AUTO 03004KT 10SM CLR 06/M01 A3004 RMK AO2 T00571010,KPCZ,2023-05-17T08:35:00Z,44.33,-89.02,5.7,-1.0,30,4,,10.0,30.041338,,,TRUE,TRUE,,,,,,,CLR,,,,,,,,VFR,,,,,,,,,,,,SPECI,248.0
KPCW 170835Z AUTO 03012G17KT 10SM SCT050 SCT055 10/03 A2987 RMK AO2,KPCW,2023-05-17T08:35:00Z,41.52,-82.87,10.0,3.0,30,12,17,10.0,29.870079,,,TRUE,TRUE,,,,,,,SCT,5000,SCT,5500,,,,,VFR,,,,,,,,,,,,METAR,179.0
KPCM 170835Z AUTO 00000KT 10SM SCT021 A2991 RMK AO2,KPCM,2023-05-17T08:35:00Z,28.0,-82.17,,,0,0,,10.0,29.911417,,,TRUE,TRUE,,,,,,,SCT,2100,,,,,,,VFR,,,,,,,,,,,,SPECI,43.0
KPCD 170835Z AUTO 27003KT 7SM OVC120 14/14 A2989 RMK AO2 T01410141,KPCD,2023-05-17T08:35:00Z,37.87,-89.87,14.1,14.1,270,3,,7.0,29.890747,,,TRUE,TRUE,,,,,,,OVC,12000,,,,,,,VFR,,,,,,,,,,,,METAR,112.0
KPBX 170835Z AUTO 27004KT 1 1/4SM BR OVC003 14/14 A2985 RMK AO2 T01370137,KPBX,2023-05-17T08:35:00Z,37.57,-82.57,13.7,13.7,270,4,,1.25,29.84941,,,TRUE,TRUE,,,,,,BR,OVC,300,,,,,,,LIFR,,,,,,,,,,,,METAR,447.0
KPBH 170835Z AUTO 00000KT 10SM CLR 03/00 A3003 RMK AO2 T00261002,KPBH,2023-05-17T08:35:00Z,45.7,-90.4,2.6,-0.2,0,0,,10.0,30.029528,,,TRUE,TRUE,,,,,,,CLR,,,,,,,,VFR,,,,,,,,,,,,SPECI,445.0
KPAN 170835Z AUTO 00000KT 10SM CLR 13/09 A3017 RMK AO2 PWINO TSNO,KPAN,2023-05-17T08:35:00Z,34.25,-111.33,13.0,9.0,0,0,,10.0,30.171259,,,TRUE,TRUE,,,TRUE,,TRUE,,CLR,,,,,,,,VFR,,,,,,,,,,,,SPECI,1575.0
KP52 170835Z AUTO 00000KT 10SM CLR 16/08 A3007 RMK AO2,KP52,2023-05-17T08:35:00Z,34.73,-112.03,16.0,8.0,0,0,,10.0,30.070866,,,TRUE,TRUE,,,,,,,CLR,,,,,,,,VFR,,,,,,,,,,,,METAR,1085.0
KP08 170835Z AUTO 07009KT 10SM CLR 24/13 A2994 RMK AO2,KP08,2023-05-17T08:35:00Z,32.93,-111.43,24.0,13.0,70,9,,10.0,29.940945,,,TRUE,TRUE,,,,,,,CLR,,,,,,,,VFR,,,,,,,,,,,,METAR,477.0
KOZW 170835Z AUTO 35003KT 10SM CLR 06/03 A2993 RMK AO2 T00550025,KOZW,2023-05-17T08:35:00Z,42.62,-83.98,5.5,2.5,350,3,,10.0,29.929134,,,TRUE,TRUE,,,,,,,CLR,,,,,,,,VFR,,,,,,,,,,,,SPECI,288.0
KOZS 170835Z AUTO 29005KT 2 1/2SM BR OVC002 15/15 A2995 RMK AO2,KOZS,2023-05-17T08:35:00Z,37.97,-92.68,15.0,15.0,290,5,,2.5,29.949802,,,TRUE,TRUE,,,,,,BR,OVC,200,,,,,,,LIFR,,,,,,,,,,,,METAR,321.0
KOZA 170835Z AUTO 34003KT 10SM CLR 15/15 A3003 RMK AO2,KOZA,2023-05-17T08:35:00Z,30.73,-101.2,15.0,15.0,340,3,,10.0,30.029528,,,TRUE,TRUE,,,,,,,CLR,,,,,,,,VFR,,,,,,,,,,,,METAR,721.0
KOYM 170835Z AUTO 02003KT 10SM BKN018 OVC110 08/05 A2978 RMK AO2 PWINO,KOYM,2023-05-17T08:35:00Z,41.42,-78.5,8.0,5.0,20,3,,10.0,29.778543,,,TRUE,TRUE,,,,,TRUE,,BKN,1800,OVC,11000,,,,,MVFR,,,,,,,,,,,,SPECI,582.0
KOXV 170835Z AUTO 27006KT 10SM CLR 13/10 A2990 RMK AO2,KOXV,2023-05-17T08:35:00Z,41.28,-93.12,13.0,10.0,270,6,,10.0,29.899607,,,TRUE,TRUE,,,,,,,CLR,,,,,,,,VFR,,,,,,,,,,,,METAR,280.0
KOXI 170835Z AUTO 34004KT 10SM CLR 08/07 A2990 RMK AO1,KOXI,2023-05-17T08:35:00Z,41.33,-86.67,8.0,7.0,340,4,,10.0,29.899607,,,TRUE,TRUE,,,,,,,CLR,,,,,,,,VFR,,,,,,,,,,,,METAR,208.0
KOXD 170835Z AUTO 00000KT 10SM CLR 14/11 A2985 RMK AO2 T01400112,KOXD,2023-05-17T08:35:00Z,39.5,-84.78,14.0,11.2,0,0,,10.0,29.84941,,,TRUE,TRUE,,,,,,,CLR,,,,,,,,VFR,,,,,,,,,,,,SPECI,317.0
KOWX 170835Z AUTO 03010G15KT 10SM CLR 09/05 A2991 RMK AO1,KOWX,2023-05-17T08:35:00Z,41.03,-83.98,9.0,5.0,30,10,15,10.0,29.911417,,,TRUE,TRUE,,,,,,,CLR,,,,,,,,VFR,,,,,,,,,,,,SPECI,232.0
KOWI 170835Z AUTO 00000KT M1/4SM FG VV000 11/11 A2995 RMK AO2,KOWI,2023-05-17T08:35:00Z,38.53,-95.25,11.0,11.0,0,0,,0.25,29.949802,,,TRUE,TRUE,,,,,,FG,OVX,0,,,,,,,LIFR,,,,,,,,,,,0,SPECI,292.0
KOVL 170835Z AUTO 12007KT 10SM CLR 15/07 A2994 RMK AO2,KOVL,2023-05-17T08:35:00Z,44.78,-95.03,15.0,7.0,120,7,,10.0,29.940945,,,TRUE,TRUE,,,,,,,CLR,,,,,,,,VFR,,,,,,,,,,,,SPECI,329.0
KOUN 170835Z AUTO 28003KT 7SM CLR 13/12 A2996 RMK AO2 T01320120,KOUN,2023-05-17T08:35:00Z,35.25,-97.47,13.2,12.0,280,3,,7.0,29.958662,,,TRUE,TRUE,,,,,,,CLR,,,,,,,,VFR,,,,,,,,,,,,METAR,359.0
KOSC 170835Z AUTO 05012KT 10SM BKN019 BKN025 04/00 A3001 RMK AO2 T00390000,KOSC,2023-05-17T08:35:00Z,44.45,-83.4,3.9,0.0,50,12,,10.0,30.008858,,,TRUE,TRUE,,,,,,,BKN,1900,BKN,2500,,,,,MVFR,,,,,,,,,,,,METAR,191.0
KOSA 170835Z AUTO 31006KT 10SM OVC034 19/17 A2991 RMK AO2 T01880166,KOSA,2023-05-17T08:35:00Z,33.1,-94.97,18.8,16.6,310,6,,10.0,29.911417,,,TRUE,TRUE,,,,,,,OVC,3400,,,,,,,VFR,,,,,,,,,,,,SPECI,108.0
KORS 170835Z AUTO 18007KT 10SM CLR 14/12 A3003 RMK AO2,KORS,2023-05-17T08:35:00Z,48.7,-122.92,14.0,12.0,180,7,,10.0,30.029528,,,TRUE,TRUE,,,,,,,CLR,,,,,,,,VFR,,,,,,,,,,,,SPECI,7.0
KORK 170835Z AUTO 05010KT 10SM BKN019 OVC025 21/19 A2986 RMK AO2,KORK,2023-05-17T08:35:00Z,34.83,-92.25,21.0,19.0,50,10,,10.0,29.861221,,,TRUE,TRUE,,,,,,,BKN,1900,OVC,2500,,,,,MVFR,,,,,,,,,,,,METAR,166.0
KORG 170835Z AUTO 00000KT 10SM CLR 22/20 A2990 RMK AO2 T02180200,KORG,2023-05-17T08:35:00Z,30.07,-93.8,21.8,20.0,0,0,,10.0,29.899607,,,TRUE,TRUE,,,,,,,CLR,,,,,,,,VFR,,,,,,,,,,,,SPECI,2.0
KOQN 170835Z AUTO 32005KT 10SM CLR 17/08 A2961 RMK AO2,KOQN,2023-05-17T08:35:00Z,39.98,-75.58,17.0,8.0,320,5,,10.0,29.610237,,,TRUE,TRUE,,,,,,,CLR,,,,,,,,VFR,,,,,,,,,,,,METAR,141.0
KOPN 170835Z AUTO 29003KT 10SM SCT003 SCT007 18/16 A2986 RMK AO2,KOPN,2023-05-17T08:35:00Z,32.95,-84.27,18.0,16.0,290,3,,10.0,29.861221,,,TRUE,TRUE,,,,,,,SCT,300,SCT,700,,,,,VFR,,,,,,,,,,,,METAR,241.0
KOPL 170835Z AUTO 00000KT 10SM CLR 22/20 A2986 RMK AO2 T02180200,KOPL,2023-05-17T08:35:00Z,30.55,-92.1,21.8,20.0,0,0,,10.0,29.861221,,,TRUE,TRUE,,,,,,,CLR,,,,,,,,VFR,,,,,,,,,,,,METAR,22.0
KOOA 170835Z AUTO 27005KT 10SM CLR 14/10 A2990 RMK AO2 T01400102,KOOA,2023-05-17T08:35:00Z,41.23,-92.5,14.0,10.2,270,5,,10.0,29.899607,,,TRUE,TRUE,,,,,,,CLR,,,,,,,,VFR,,,,,,,,,,,,SPECI,256.0
KONZ 170835Z AUTO 03005KT 10SM CLR 08/03 A2991 RMK AO2 T00790025,KONZ,2023-05-17T08:35:00Z,42.1,-83.15,7.9,2.5,30,5,,10.0,29.911417,,,TRUE,TRUE,,,,,,,CLR,,,,,,,,VFR,,,,,,,,,,,,SPECI,179.0
KONP 170835Z AUTO 02004KT 3SM BR OVC002 11/11 A3011 RMK AO2,KONP,2023-05-17T08:35:00Z,44.57,-124.05,11.0,11.0,20,4,,3.0,30.109253,,,TRUE,TRUE,,,,,,BR,OVC,200,,,,,,,LIFR,,,,,,,,,,,,SPECI,43.0
KONM 170835Z AUTO 00000KT 10SM SCT120 18/06 A3011 RMK AO2 T01770062,KONM,2023-05-17T08:35:00Z,34.02,-106.9,17.7,6.2,0,0,,10.0,30.109253,,,TRUE,TRUE,,,,,,,SCT,12000,,,,,,,VFR,,,,,,,,,,,,SPECI,1467.0
KONL 170835Z AUTO 25003KT 10SM CLR 12/06 A3000 RMK AO2 T01190063,KONL,2023-05-17T08:35:00Z,42.47,-98.68,11.9,6.3,250,3,,10.0,30.0,,,TRUE,TRUE,,,,,,,CLR,,,,,,,,VFR,,,,,,,,,,,,SPECI,619.0
KONA 170835Z AUTO 15004KT 10SM CLR 12/07 A2997 RMK AO2,KONA,2023-05-17T08:35:00Z,44.07,-91.7,12.0,7.0,150,4,,10.0,29.970472,,,TRUE,TRUE,,,,,,,CLR,,,,,,,,VFR,,,,,,,,,,,,SPECI,200.0
KOMH 170835Z AUTO 22003KT 10SM OVC110 16/16 A2969 RMK AO2,KOMH,2023-05-17T08:35:00Z,38.25,-78.05,16.0,16.0,220,3,,10.0,29.68996,,,TRUE,TRUE,,,,,,,OVC,11000,,,,,,,VFR,,,,,,,,,,,,METAR,136.0
KOLZ 170835Z AUTO 10014G19KT 10SM BKN075 12/07 A2995 RMK A01,KOLZ,2023-05-17T08:35:00Z,42.67,-91.97,12.0,7.0,100,14,19,10.0,29.949802,,,TRUE,TRUE,,,,,,,BKN,7500,,,,,,,VFR,,,,,,,,,,,,SPECI,328.0
KOLV 170835Z AUTO 02006KT 10SM 19/19 A2985 RMK A01,KOLV,2023-05-17T08:35:00Z,34.98,-89.78,19.0,19.0,20,6,,10.0,29.84941,,,TRUE,TRUE,,,,,,,,,,,,,,,,,,,,,,,,,,,METAR,124.0
KOLG 170835Z AUTO 02005KT 10SM SCT110 01/00 A3003 RMK AO1,KOLG,2023-05-17T08:35:00Z,46.3,-91.82,1.0,0.0,20,5,,10.0,30.029528,,,TRUE,TRUE,,,,,,,SCT,11000,,,,,,,VFR,,,,,,,,,,,,METAR,334.0
KOLE 170835Z AUTO 03006KT 10SM OVC008 02/02 A2978 RMK AO2,KOLE,2023-05-17T08:35:00Z,42.23,-78.37,2.0,2.0,30,6,,10.0,29.778543,,,TRUE,TRUE,,,,,,,OVC,800,,,,,,,IFR,,,,,,,,,,,,METAR,651.0
KOKZ 170835Z AUTO 28004KT 10SM CLR 19/18 A2980 RMK AO2 T01890183,KOKZ,2023-05-17T08:35:00Z,32.97,-82.83,18.9,18.3,280,4,,10.0,29.799213,,,TRUE,TRUE,,,,,,,CLR,,,,,,,,VFR,,,,,,,,,,,,METAR,128.0
KOKV 170835Z AUTO 22005KT 10SM CLR 13/08 A2968 RMK AO2,KOKV,2023-05-17T08:35:00Z,39.13,-78.15,13.0,8.0,220,5,,10.0,29.681103,,,TRUE,TRUE,,,,,,,CLR,,,,,,,,VFR,,,,,,,,,,,,METAR,213.0
KOKM 170835Z AUTO 02005KT 10SM SCT014 OVC029 17/17 A2996 RMK AO2 T01740171,KOKM,2023-05-17T08:35:00Z,35.67,-95.95,17.4,17.1,20,5,,10.0,29.958662,,,TRUE,TRUE,,,,,,,SCT,1400,OVC,2900,,,,,MVFR,,,,,,,,,,,,METAR,215.0
KOJA 170835Z AUTO 00000KT 5SM BR CLR 13/12 A3001 RMK AO2 T01300124,KOJA,2023-05-17T08:35:00Z,35.55,-98.67,13.0,12.4,0,0,,5.0,30.008858,,,TRUE,TRUE,,,,,,BR,CLR,,,,,,,,MVFR,,,,,,,,,,,,SPECI,490.0
KOIN 170835Z AUTO 00000KT 10SM CLR 12/09 A3007 RMK AO1 T01230086,KOIN,2023-05-17T08:35:00Z,39.83,-100.53,12.3,8.6,0,0,,10.0,30.070866,,,TRUE,TRUE,,,,,,,CLR,,,,,,,,VFR,,,,,,,,,,,,METAR,810.0
KOIC 170835Z AUTO 01005G08KT 10SM SCT015 OVC026 04/02 A2978 RMK AO2 T00370015,KOIC,2023-05-17T08:35:00Z,42.57,-75.52,3.7,1.5,10,5,8,10.0,29.778543,,,TRUE,TRUE,,,,,,,SCT,1500,OVC,2600,,,,,MVFR,,,,,,,,,,,,SPECI,311.0
KOGS 170835Z AUTO 35012KT 10SM OVC050 02/M04 A2982 RMK AO2,KOGS,2023-05-17T08:35:00Z,44.67,-75.47,2.0,-4.0,350,12,,10.0,29.819881,,,TRUE,TRUE,,,,,,,OVC,5000,,,,,,,VFR,,,,,,,,,,,,SPECI,88.0
KOGA 170835Z AUTO 00000KT 10SM CLR 10/10 A3004 RMK AO2 T00970096,KOGA,2023-05-17T08:35:00Z,41.12,-101.77,9.7,9.6,0,0,,10.0,30.041338,,,TRUE,TRUE,,,,,,,CLR,,,,,,,,VFR,,,,,,,,,,,,SPECI,991.0
KOEO 170835Z AUTO 09006KT 10SM CLR 09/05 A3002 RMK AO2 T00930047,KOEO,2023-05-17T08:35:00Z,45.32,-92.7,9.3,4.7,90,6,,10.0,30.02067,,,TRUE,TRUE,,,,,,,CLR,,,,,,,,VFR,,,,,,,,,,,,SPECI,269.0
KOEL 170835Z AUTO 15006KT 10SM SCT080 11/09 A3004 RMK AO1 T01110091,KOEL,2023-05-17T08:35:00Z,39.12,-100.82,11.1,9.1,150,6,,10.0,30.041338,,,TRUE,TRUE,,,,,,,SCT,8000,,,,,,,VFR,,,,,,,,,,,,SPECI,924.0
KOEB 170835Z AUTO 05007KT 10SM CLR 09/04 A2992 RMK AO2 T00850037,KOEB,2023-05-17T08:35:00Z,41.92,-85.05,8.5,3.7,50,7,,10.0,29.920275,,,TRUE,TRUE,,,,,,,CLR,,,,,,,,VFR,,,,,,,,,,,,METAR,291.0
KOCQ 170835Z AUTO 04004KT 10SM CLR 03/M01 A3004 RMK AO1 T00311014,KOCQ,2023-05-17T08:35:00Z,44.87,-87.92,3.1,-1.4,40,4,,10.0,30.041338,,,TRUE,TRUE,,,,,,,CLR,,,,,,,,VFR,,,,,,,,,,,,SPECI,181.0
KOBE 170835Z AUTO 26003KT 10SM SCT055 BKN120 23/22 A2987 RMK AO2,KOBE,2023-05-17T08:35:00Z,27.27,-80.85,23.0,22.0,260,3,,10.0,29.870079,,,TRUE,TRUE,,,,,,,SCT,5500,BKN,12000,,,,,VFR,,,,,,,,,,,,METAR,11.0
KOAR 170835Z AUTO 26009KT 3/4SM OVC003 11/10 A2999 RMK AO2 PWINO,KOAR,2023-05-17T08:35:00Z,36.67,-121.77,11.0,10.0,260,9,,0.75,29.991142,,,TRUE,TRUE,,,,,TRUE,,OVC,300,,,,,,,LIFR,,,,,,,,,,,,METAR,41.0
KO86 170835Z AUTO 27006KT 10SM 13/07 A3007 RMK A01,KO86,2023-05-17T08:35:00Z,40.98,-122.7,13.0,7.0,270,6,,10.0,30.070866,,,TRUE,TRUE,,,,,,,,,,,,,,,,,,,,,,,,,,,METAR,729.0
KO69 170835Z AUTO 33003KT 1 1/2SM BR OVC003 10/10 A2998 RMK A01,KO69,2023-05-17T08:35:00Z,38.25,-122.6,10.0,10.0,330,3,,1.5,29.97933,,,TRUE,TRUE,,,,,,BR,OVC,300,,,,,,,LIFR,,,,,,,,,,,,METAR,26.0
KO32 170835Z AUTO 00000KT 10SM CLR 20/16 A2988 RMK AO2 T02020155 $,KO32,2023-05-17T08:35:00Z,36.67,-119.45,20.2,15.5,0,0,,10.0,29.878937,,,TRUE,TRUE,TRUE,,,,,,CLR,,,,,,,,VFR,,,,,,,,,,,,SPECI,117.0
KO22 170835Z AUTO 00000KT 10SM CLR 14/08 A2999 RMK A01,KO22,2023-05-17T08:35:00Z,38.03,-120.42,14.0,8.0,0,0,,10.0,29.991142,,,TRUE,TRUE,,,,,,,CLR,,,,,,,,VFR,,,,,,,,,,,,SPECI,637.0
KNUQ 170835Z AUTO 33007KT 10SM SCT009 14/12 A2999 RMK AO2,KNUQ,2023-05-17T08:35:00Z,37.4,-122.05,14.0,12.0,330,7,,10.0,29.991142,,,TRUE,TRUE,,,,,,,SCT,900,,,,,,,VFR,,,,,,,,,,,,METAR,9.0
KNRN 170835Z AUTO 00000KT 10SM CLR 11/08 A3005 RMK AO2,KNRN,2023-05-17T08:35:00Z,39.85,-99.9,11.0,8.0,0,0,,10.0,30.050198,,,TRUE,TRUE,,,,,,,CLR,,,,,,,,VFR,,,,,,,,,,,,METAR,726.0
KNOW 170835Z AUTO 28010KT 10SM BKN004 OVC008 12/12 A3007 RMK AO2 T01160116,KNOW,2023-05-17T08:35:00Z,48.13,-123.4,11.6,11.6,280,10,,10.0,30.070866,,,TRUE,TRUE,,,,,,,BKN,400,OVC,800,,,,,LIFR,,,,,,,,,,,,METAR,3.0
KN79 170835Z AUTO 35008KT 10SM CLR 11/06 A2968 RMK AO2 T01100058,KN79,2023-05-17T08:35:00Z,,,11.0,5.8,350,8,,10.0,29.681103,,,TRUE,TRUE,,,,,,,CLR,,,,,,,,VFR,,,,,,,,,,,,SPECI,
KN38 170835Z AUTO 36007G13KT 10SM OVC015 06/04 A2974 RMK AO2,KN38,2023-05-17T08:35:00Z,41.73,-77.4,6.0,4.0,360,7,13,10.0,29.740158,,,TRUE,TRUE,,,,,,,OVC,1500,,,,,,,MVFR,,,,,,,,,,,,SPECI,576.0
KN03 170835Z AUTO 03007KT 10SM SCT027 OVC033 04/00 A2978 RMK AO2,KN03,2023-05-17T08:35:00Z,42.6,-76.22,4.0,0.0,30,7,,10.0,29.778543,,,TRUE,TRUE,,,,,,,SCT,2700,OVC,3300,,,,,VFR,,,,,,,,,,,,SPECI,361.0
KMZZ 170835Z AUTO 05009KT 10SM CLR 11/07 A2989 RMK AO2 T01120074,KMZZ,2023-05-17T08:35:00Z,40.48,-85.68,11.2,7.4,50,9,,10.0,29.890747,,,TRUE,TRUE,,,,,,,CLR,,,,,,,,VFR,,,,,,,,,,,,SPECI,260.0
KMZH 170835Z AUTO 00000KT 10SM BKN100 03/01 A3002 RMK AO2,KMZH,2023-05-17T08:35:00Z,46.42,-92.8,3.0,1.0,0,0,,10.0,30.02067,,,TRUE,TRUE,,,,,,,BKN,10000,,,,,,,VFR,,,,,,,,,,,,METAR,331.0
KMYZ 170835Z AUTO 00000KT 4SM BR OVC100 11/11 A2998 RMK AO2,KMYZ,2023-05-17T08:35:00Z,39.85,-96.63,11.0,11.0,0,0,,4.0,29.97933,,,TRUE,TRUE,,,,,,BR,OVC,10000,,,,,,,MVFR,,,,,,,,,,,,METAR,388.0
KMYJ 170835Z AUTO 25004KT 7SM CLR 12/12 A2991 RMK AO2,KMYJ,2023-05-17T08:35:00Z,39.15,-91.82,12.0,12.0,250,4,,7.0,29.911417,,,TRUE,TRUE,,,,,,,CLR,,,,,,,,VFR,,,,,,,,,,,,SPECI,249.0
KMWO 170835Z AUTO 00000KT 4SM HZ CLR 10/ A2985 RMK AO2 T0100////,KMWO,2023-05-17T08:35:00Z,39.53,-84.4,10.0,,0,0,,4.0,29.84941,,,TRUE,TRUE,,,,,,HZ,CLR,,,,,,,,MVFR,,,,,,,,,,,,SPECI,197.0
KMWM 170835Z AUTO 08005KT 10SM CLR 13/09 A2993 RMK AO2,KMWM,2023-05-17T08:35:00Z,43.9,-95.1,13.0,9.0,80,5,,10.0,29.929134,,,TRUE,TRUE,,,,,,,CLR,,,,,,,,VFR,,,,,,,,,,,,SPECI,427.0
KMWC 170835Z AUTO 03009G14KT 10SM CLR 06/M02 A3002 RMK AO2,KMWC,2023-05-17T08:35:00Z,43.12,-88.03,6.0,-2.0,30,9,14,10.0,30.02067,,,TRUE,TRUE,,,,,,,CLR,,,,,,,,VFR,,,,,,,,,,,,SPECI,225.0
KMWA 170835Z AUTO 00000KT 7SM CLR 14/14 A2990 RMK AO2 T01410141,KMWA,2023-05-17T08:35:00Z,37.77,-89.02,14.1,14.1,0,0,,7.0,29.899607,,,TRUE,TRUE,,,,,,,CLR,,,,,,,,VFR,,,,,,,,,,,,SPECI,142.0
KMVE 170835Z AUTO 12005KT 10SM CLR 13/09 A2993 RMK AO2,KMVE,2023-05-17T08:35:00Z,44.97,-95.72,13.0,9.0,120,5,,10.0,29.929134,,,TRUE,TRUE,,,,,,,CLR,,,,,,,,VFR,,,,,,,,,,,,SPECI,319.0
KMUT 170835Z AUTO 06006KT 10SM CLR 13/09 A2993 RMK AO2,KMUT,2023-05-17T08:35:00Z,41.37,-91.15,13.0,9.0,60,6,,10.0,29.929134,,,TRUE,TRUE,,,,,,,CLR,,,,,,,,VFR,,,,,,,,,,,,SPECI,166.0
KMTV 170835Z AUTO 00000KT 10SM SCT037 17/15 A2976 RMK AO2 T01660145,KMTV,2023-05-17T08:35:00Z,36.63,-80.02,16.6,14.5,0,0,,10.0,29.760826,,,TRUE,TRUE,,,,,,,SCT,3700,,,,,,,VFR,,,,,,,,,,,,METAR,276.0
KMRJ 170835Z AUTO 06003KT 10SM CLR 08/00 A3001 RMK AO2 PWINO,KMRJ,2023-05-17T08:35:00Z,42.88,-90.23,8.0,0.0,60,3,,10.0,30.008858,,,TRUE,TRUE,,,,,TRUE,,CLR,,,,,,,,VFR,,,,,,,,,,,,SPECI,350.0
KMQW 170835Z AUTO 00000KT 10SM CLR 19/19 A2982 RMK AO2 T01930185,KMQW,2023-05-17T08:35:00Z,32.1,-82.88,19.3,18.5,0,0,,10.0,29.819881,,,TRUE,TRUE,,,,,,,CLR,,,,,,,,VFR,,,,,,,,,,,,METAR,62.0
KMQS 170835Z AUTO 31011KT 10SM 16/12 A2962 RMK AO2,KMQS,2023-05-17T08:35:00Z,39.98,-75.87,16.0,12.0,310,11,,10.0,29.619095,,,TRUE,TRUE,,,,,,,,,,,,,,,,,,,,,,,,,,,SPECI,200.0
KMQJ 170835Z AUTO 30003KT 7SM CLR 10/10 A2986 RMK AO1,KMQJ,2023-05-17T08:35:00Z,39.85,-85.9,10.0,10.0,300,3,,7.0,29.861221,,,TRUE,TRUE,,,,,,,CLR,,,,,,,,VFR,,,,,,,,,,,,SPECI,262.0
KMQB 170835Z AUTO 01007KT 10SM CLR 13/10 A2990 RMK AO2 T01250102,KMQB,2023-05-17T08:35:00Z,40.52,-90.65,12.5,10.2,10,7,,10.0,29.899607,,,TRUE,TRUE,,,,,,,CLR,,,,,,,,VFR,,,,,,,,,,,,METAR,205.0
KMPZ 170835Z AUTO 01007KT 10SM CLR 13/10 A2990 RMK AO2,KMPZ,2023-05-17T08:35:00Z,40.95,-91.52,13.0,10.0,10,7,,10.0,29.899607,,,TRUE,TRUE,,,,,,,CLR,,,,,,,,VFR,,,,,,,,,,,,SPECI,222.0
KMPR 170835Z AUTO 00000KT 7SM SCT002 SCT100 11/11 A3000 RMK AO2 T01120106,KMPR,2023-05-17T08:35:00Z,38.35,-97.68,11.2,10.6,0,0,,7.0,30.0,,,TRUE,TRUE,,,,,,,SCT,200,SCT,10000,,,,,VFR,,,,,,,,,,,,METAR,455.0
KMOX 170835Z AUTO 12009KT 10SM CLR 14/06 A2993 RMK AO2,KMOX,2023-05-17T08:35:00Z,45.57,-95.97,14.0,6.0,120,9,,10.0,29.929134,,,TRUE,TRUE,,,,,,,CLR,,,,,,,,VFR,,,,,,,,,,,,SPECI,346.0
KMOP 170835Z AUTO 01003KT 10SM SCT027 06/04 A2997 RMK AO2 T00580036,KMOP,2023-05-17T08:35:00Z,43.62,-84.73,5.8,3.6,10,3,,10.0,29.970472,,,TRUE,TRUE,,,,,,,SCT,2700,,,,,,,VFR,,,,,,,,,,,,SPECI,229.0
KMNZ 170835Z AUTO 27005KT 10SM CLR 18/18 A2996 RMK AO2 T01760176,KMNZ,2023-05-17T08:35:00Z,31.67,-98.15,17.6,17.6,270,5,,10.0,29.958662,,,TRUE,TRUE,,,,,,,CLR,,,,,,,,VFR,,,,,,,,,,,,METAR,397.0
KMNV 170835Z AUTO 33007KT 6SM HZ 18/ A2982 RMK A01,KMNV,2023-05-17T08:35:00Z,35.55,-84.38,18.0,,330,7,,6.0,29.819881,,,TRUE,TRUE,,,,,,HZ,,,,,,,,,,,,,,,,,,,,,SPECI,306.0
KMNI 170835Z AUTO 21004KT 10SM CLR 21/19 A2974 RMK AO2,KMNI,2023-05-17T08:35:00Z,33.58,-80.22,21.0,19.0,210,4,,10.0,29.740158,,,TRUE,TRUE,,,,,,,CLR,,,,,,,,VFR,,,,,,,,,,,,SPECI,29.0
KMNH 170835Z AUTO 21009KT 10SM SCT070 SCT080 SCT100 10/07 A3022 RMK AO2,KMNH,2023-05-17T08:35:00Z,39.22,-104.65,10.0,7.0,210,9,,10.0,30.221457,,,TRUE,TRUE,,,,,,,SCT,7000,SCT,8000,SCT,10000,,,VFR,,,,,,,,,,,,SPECI,2152.0
KMMU 170835Z AUTO 33011G16KT 10SM CLR 16/05 A2961 RMK AO2,KMMU,2023-05-17T08:35:00Z,40.78,-74.42,16.0,5.0,330,11,16,10.0,29.610237,,,TRUE,TRUE,,,,,,,CLR,,,,,,,,VFR,,,,,,,,,,,,METAR,55.0
KMMI 170835Z AUTO 00000KT 10SM BKN004 BKN019 OVC025 20/20 A2984 RMK A01,KMMI,2023-05-17T08:35:00Z,35.4,-84.57,20.0,20.0,0,0,,10.0,29.840551,,,TRUE,TRUE,,,,,,,BKN,400,BKN,1900,OVC,2500,,,LIFR,,,,,,,,,,,,SPECI,252.0
KMMH 170835Z AUTO 01003KT 10SM CLR 05/M01 A3029 RMK AO2 T00511007,KMMH,2023-05-17T08:35:00Z,37.62,-118.83,5.1,-0.7,10,3,,10.0,30.28937,,,TRUE,TRUE,,,,,,,CLR,,,,,,,,VFR,,,,,,,,,,,,METAR,2167.0
KMLJ 170835Z AUTO 00000KT 8SM CLR 19/19 A2979 RMK AO2,KMLJ,2023-05-17T08:35:00Z,33.15,-83.25,19.0,19.0,0,0,,8.0,29.790354,,,TRUE,TRUE,,,,,,,CLR,,,,,,,,VFR,,,,,,,,,,,,METAR,115.0
KMLE 170835Z AUTO 00000KT 10SM CLR 11/08 A2995 RMK AO2 T01110081,KMLE,2023-05-17T08:35:00Z,41.2,-96.12,11.1,8.1,0,0,,10.0,29.949802,,,TRUE,TRUE,,,,,,,CLR,,,,,,,,VFR,,,,,,,,,,,,SPECI,318.0
KMKS 170835Z AUTO 24006KT 10SM CLR 21/20 A2976 RMK AO2,KMKS,2023-05-17T08:35:00Z,33.18,-80.03,21.0,20.0,240,6,,10.0,29.760826,,,TRUE,TRUE,,,,,,,CLR,,,,,,,,VFR,,,,,,,,,,,,SPECI,22.0
KMKN 170835Z AUTO 26003KT 10SM 18/17 A2996 RMK AO2 T01800172,KMKN,2023-05-17T08:35:00Z,31.92,-98.6,18.0,17.2,260,3,,10.0,29.958662,,,TRUE,TRUE,,,,,,,,,,,,,,,,,,,,,,,,,,,METAR,428.0
KMKJ 170835Z AUTO 28006KT 10SM OVC013 14/12 A2985 RMK AO2 T01390121,KMKJ,2023-05-17T08:35:00Z,36.88,-81.33,13.9,12.1,280,6,,10.0,29.84941,,,TRUE,TRUE,,,,,,,OVC,1300,,,,,,,MVFR,,,,,,,,,,,,METAR,777.0
KMJD 170835Z AUTO 00000KT 9SM BKN018 20/20 A2984 RMK AO2 LTG DSNT S,KMJD,2023-05-17T08:35:00Z,30.48,-89.65,20.0,20.0,0,0,,9.0,29.840551,,,TRUE,TRUE,,,,,,,BKN,1800,,,,,,,MVFR,,,,,,,,,,,,SPECI,17.0
KMIO 170835Z AUTO 00000KT 10SM OVC030 17/17 A2995 RMK AO2,KMIO,2023-05-17T08:35:00Z,36.92,-94.88,17.0,17.0,0,0,,10.0,29.949802,,,TRUE,TRUE,,,,,,,OVC,3000,,,,,,,MVFR,,,,,,,,,,,,SPECI,245.0
KMHR 170835Z AUTO 13004KT 10SM CLR 15/12 A2991 RMK A01,KMHR,2023-05-17T08:35:00Z,38.55,-121.28,15.0,12.0,130,4,,10.0,29.911417,,,TRUE,TRUE,,,,,,,CLR,,,,,,,,VFR,,,,,,,,,,,,METAR,30.0
KMHP 170835Z AUTO 27005KT 10SM CLR 21/20 A2980 RMK AO2 T02130201,KMHP,2023-05-17T08:35:00Z,32.37,-82.08,21.3,20.1,270,5,,10.0,29.799213,,,TRUE,TRUE,,,,,,,CLR,,,,,,,,VFR,,,,,,,,,,,,METAR,60.0
KMHL 170835Z AUTO 00000KT 4SM BR CLR 13/13 A2994 RMK AO2,KMHL,2023-05-17T08:35:00Z,39.1,-93.2,13.0,13.0,0,0,,4.0,29.940945,,,TRUE,TRUE,,,,,,BR,CLR,,,,,,,,MVFR,,,,,,,,,,,,METAR,236.0
KMGR 170835Z AUTO 23004KT 10SM CLR 19/19 A2985 RMK AO2 T01930192,KMGR,2023-05-17T08:35:00Z,31.08,-83.8,19.3,19.2,230,4,,10.0,29.84941,,,TRUE,TRUE,,,,,,,CLR,,,,,,,,VFR,,,,,,,,,,,,METAR,86.0
KMGN 170835Z AUTO 07005KT 10SM CLR 02/00 A3001 RMK AO2 T00251006,KMGN,2023-05-17T08:35:00Z,45.43,-84.92,2.5,-0.6,70,5,,10.0,30.008858,,,TRUE,TRUE,,,,,,,CLR,,,,,,,,VFR,,,,,,,,,,,,SPECI,205.0
KMGG 170835Z AUTO 07007KT 10SM CLR 11/06 A2999 RMK AO2 T01120056,KMGG,2023-05-17T08:35:00Z,45.23,-93.98,11.2,5.6,70,7,,10.0,29.991142,,,TRUE,TRUE,,,,,,,CLR,,,,,,,,VFR,,,,,,,,,,,,SPECI,310.0
KMGC 170835Z AUTO 00000KT 10SM CLR 08/07 A2992 RMK AO2,KMGC,2023-05-17T08:35:00Z,41.7,-86.82,8.0,7.0,0,0,,10.0,29.920275,,,TRUE,TRUE,,,,,,,CLR,,,,,,,,VFR,,,,,,,,,,,,SPECI,199.0
KMFV 170835Z AUTO 00000KT 5SM DZ SCT007 BKN026 OVC034 15/14 A2963 RMK AO2 P0002 T01460138,KMFV,2023-05-17T08:35:00Z,37.63,-75.77,14.6,13.8,0,0,,5.0,29.630905,,,TRUE,TRUE,,,,,,DZ,SCT,700,BKN,2600,OVC,3400,,,MVFR,,,,,,0.02,,,,,,SPECI,13.0
KMEZ 170835Z AUTO 32004KT 10SM BKN018 17/16 A2991 RMK AO2 T01720155 $,KMEZ,2023-05-17T08:35:00Z,34.55,-94.2,17.2,15.5,320,4,,10.0,29.911417,,,TRUE,TRUE,TRUE,,,,,,BKN,1800,,,,,,,MVFR,,,,,,,,,,,,METAR,320.0
KMEV 170835Z AUTO 10006KT 10SM SCT055 07/02 A3015 RMK AO2,KMEV,2023-05-17T08:35:00Z,38.98,-119.75,7.0,2.0,100,6,,10.0,30.15059,,,TRUE,TRUE,,,,,,,SCT,5500,,,,,,,VFR,,,,,,,,,,,,SPECI,1437.0
KMER 170835Z AUTO 35005KT 10SM CLR 18/08 A2991 RMK AO1,KMER,2023-05-17T08:35:00Z,37.38,-120.57,18.0,8.0,350,5,,10.0,29.911417,,,TRUE,TRUE,,,,,,,CLR,,,,,,,,VFR,,,,,,,,,,,,SPECI,58.0
KMDZ 170835Z AUTO 09006KT 10SM CLR 03/00 A3002 RMK AO2 T00270000 PWINO,KMDZ,2023-05-17T08:35:00Z,45.1,-90.3,2.7,0.0,90,6,,10.0,30.02067,,,TRUE,TRUE,,,,,TRUE,,CLR,,,,,,,,VFR,,,,,,,,,,,,SPECI,446.0
KMDS 170835Z AUTO 29007KT 10SM CLR 15/07 A2995 RMK AO2,KMDS,2023-05-17T08:35:00Z,44.02,-97.08,15.0,7.0,290,7,,10.0,29.949802,,,TRUE,TRUE,,,,,,,CLR,,,,,,,,VFR,,,,,,,,,,,,SPECI,524.0
KMDQ 170835Z AUTO 10SM BKN008 OVC020 19/19 A2985 RMK A02 T01950191,KMDQ,2023-05-17T08:35:00Z,34.87,-86.55,19.5,19.1,,,,10.0,29.84941,,,TRUE,TRUE,,,,,,,BKN,800,OVC,2000,,,,,IFR,,,,,,,,,,,,METAR,221.0
KMDD 170835Z AUTO 22006KT 10SM CLR 19/14 A3002 RMK AO2 T01950144,KMDD,2023-05-17T08:35:00Z,32.03,-102.1,19.5,14.4,220,6,,10.0,30.02067,,,TRUE,TRUE,,,,,,,CLR,,,,,,,,VFR,,,,,,,,,,,,SPECI,853.0
KMCJ 170835Z AUTO 31005KT 10SM OVC039 21/19 A2989 RMK A01,KMCJ,2023-05-17T08:35:00Z,29.72,-95.4,21.0,19.0,310,5,,10.0,29.890747,,,TRUE,TRUE,,,,,,,OVC,3900,,,,,,,VFR,,,,,,,,,,,,SPECI,70.0
KMCD 170835Z AUTO 05010KT 10SM CLR 01/M02 A3004 RMK AO2 T00131021,KMCD,2023-05-17T08:35:00Z,45.85,-84.63,1.3,-2.1,50,10,,10.0,30.041338,,,TRUE,TRUE,,,,,,,CLR,,,,,,,,VFR,,,,,,,,,,,,SPECI,228.0
KMCC 170835Z AUTO 14005KT 10SM CLR 18/12 A2991 RMK AO2,KMCC,2023-05-17T08:35:00Z,38.67,-121.4,18.0,12.0,140,5,,10.0,29.911417,,,TRUE,TRUE,,,,,,,CLR,,,,,,,,VFR,,,,,,,,,,,,METAR,21.0
KMBY 170835Z AUTO 25005KT 10SM CLR 13/10 A2992 RMK AO2,KMBY,2023-05-17T08:35:00Z,39.47,-92.43,13.0,10.0,250,5,,10.0,29.920275,,,TRUE,TRUE,,,,,,,CLR,,,,,,,,VFR,,,,,,,,,,,,METAR,263.0
KMBT 170835Z AUTO 36005KT 7SM SCT007 OVC023 19/18 A2984 RMK A01,KMBT,2023-05-17T08:35:00Z,35.88,-86.38,19.0,18.0,360,5,,7.0,29.840551,,,TRUE,TRUE,,,,,,,SCT,700,OVC,2300,,,,,MVFR,,,,,,,,,,,,SPECI,187.0
KMBO 170835Z AUTO 00000KT 7SM FEW021 BKN037 BKN046 20/20 A2985 RMK AO2 LTG DSNT NE-SE,KMBO,2023-05-17T08:35:00Z,32.43,-90.1,20.0,20.0,0,0,,7.0,29.84941,,,TRUE,TRUE,,,,,,,FEW,2100,BKN,3700,BKN,4600,,,VFR,,,,,,,,,,,,METAR,98.0
KMAW 170835Z AUTO 36003KT 7SM OVC027 20/16 A2990 RMK AO1,KMAW,2023-05-17T08:35:00Z,36.6,-90.0,20.0,16.0,360,3,,7.0,29.899607,,,TRUE,TRUE,,,,,,,OVC,2700,,,,,,,MVFR,,,,,,,,,,,,METAR,88.0
KMAO 170835Z AUTO 21007KT 10SM SCT020 21/21 A2972 RMK AO2,KMAO,2023-05-17T08:35:00Z,34.18,-79.33,21.0,21.0,210,7,,10.0,29.719488,,,TRUE,TRUE,,,,,,,SCT,2000,,,,,,,VFR,,,,,,,,,,,,METAR,27.0
KMAN 170835Z AUTO 00000KT 10SM BKN110 15/11 A3006 RMK A01,KMAN,2023-05-17T08:35:00Z,43.58,-116.52,15.0,11.0,0,0,,10.0,30.059055,,,TRUE,TRUE,,,,,,,BKN,11000,,,,,,,VFR,,,,,,,,,,,,SPECI,773.0
KM75 170835Z AUTO 33009G15KT 9SM FEW034 BKN055 OVC090 15/13 A2995 RMK A01,KM75,2023-05-17T08:35:00Z,48.37,-107.92,15.0,13.0,330,9,15,9.0,29.949802,,,TRUE,TRUE,,,,,,,FEW,3400,BKN,5500,OVC,9000,,,VFR,,,,,,,,,,,,SPECI,687.0
KM40 170835Z AUTO 00000KT 6SM BR FEW110 20/20 A2983 RMK AO2,KM40,2023-05-17T08:35:00Z,33.87,-88.48,20.0,20.0,0,0,,6.0,29.828741,,,TRUE,TRUE,,,,,,BR,FEW,11000,,,,,,,VFR,,,,,,,,,,,,METAR,68.0
KM30 170835Z AUTO 00000KT 3SM BR CLR 15/14 A2989 RMK AO2 T01450140,KM30,2023-05-17T08:35:00Z,37.18,-88.75,14.5,14.0,0,0,,3.0,29.890747,,,TRUE,TRUE,,,,,,BR,CLR,,,,,,,,MVFR,,,,,,,,,,,,SPECI,116.0
KM25 170835Z AUTO 01003KT 10SM CLR 16/15 A2988 RMK AO2 PWINO,KM25,2023-05-17T08:35:00Z,36.77,-88.58,16.0,15.0,10,3,,10.0,29.878937,,,TRUE,TRUE,,,,,TRUE,,CLR,,,,,,,,VFR,,,,,,,,,,,,METAR,157.0
KM21 170835Z AUTO 00000KT 1 3/4SM BR VV007 13/13 A2987 RMK AO2 T01310130,KM21,2023-05-17T08:35:00Z,37.22,-87.15,13.1,13.0,0,0,,1.75,29.870079,,,TRUE,TRUE,,,,,,BR,OVX,0,,,,,,,LIFR,,,,,,,,,,,700,METAR,127.0
KM08 170835Z AUTO 33003KT 10SM OVC023 19/18 A2984 RMK A01,KM08,2023-05-17T08:35:00Z,35.22,-89.05,19.0,18.0,330,3,,10.0,29.840551,,,TRUE,TRUE,,,,,,,OVC,2300,,,,,,,MVFR,,,,,,,,,,,,SPECI,149.0
KM02 170835Z AUTO 02007KT 10SM OVC023 17/16 A2985 RMK A01,KM02,2023-05-17T08:35:00Z,36.13,-87.43,17.0,16.0,20,7,,10.0,29.84941,,,TRUE,TRUE,,,,,,,OVC,2300,,,,,,,MVFR,,,,,,,,,,,,SPECI,268.0
KM01 170835Z AUTO 03003KT 10SM SCT095 19/18 A2983 RMK AO2 T01860180 $,KM01,2023-05-17T08:35:00Z,35.2,-90.05,18.6,18.0,30,3,,10.0,29.828741,,,TRUE,TRUE,TRUE,,,,,,SCT,9500,,,,,,,VFR,,,,,,,,,,,,METAR,68.0
KLYV 170835Z AUTO 33003KT 10SM CLR 12/07 A2994 RMK AO2,KLYV,2023-05-17T08:35:00Z,43.62,-96.22,12.0,7.0,330,3,,10.0,29.940945,,,TRUE,TRUE,,,,,,,CLR,,,,,,,,VFR,,,,,,,,,,,,SPECI,435.0
KLYO 170835Z AUTO 00000KT 5SM BR SCT110 12/11 A3001 RMK AO2 T01230115,KLYO,2023-05-17T08:35:00Z,38.35,-98.23,12.3,11.5,0,0,,5.0,30.008858,,,TRUE,TRUE,,,,,,BR,SCT,11000,,,,,,,MVFR,,,,,,,,,,,,METAR,515.0
KLXY 170835Z AUTO 00000KT 10SM CLR 19/17 A2992 RMK AO2 T01900169,KLXY,2023-05-17T08:35:00Z,31.63,-96.52,19.0,16.9,0,0,,10.0,29.920275,,,TRUE,TRUE,,,,,,,CLR,,,,,,,,VFR,,,,,,,,,,,,METAR,164.0
KLXN 170835Z AUTO 34003KT 10SM CLR 09/08 A3003 RMK AO2 T00880080,KLXN,2023-05-17T08:35:00Z,40.78,-99.77,8.8,8.0,340,3,,10.0,30.029528,,,TRUE,TRUE,,,,,,,CLR,,,,,,,,VFR,,,,,,,,,,,,SPECI,734.0
KLXL 170835Z AUTO 11003KT 10SM CLR 10/03 A2998 RMK AO2,KLXL,2023-05-17T08:35:00Z,45.95,-94.33,10.0,3.0,110,3,,10.0,29.97933,,,TRUE,TRUE,,,,,,,CLR,,,,,,,,VFR,,,,,,,,,,,,SPECI,335.0
KLWB 170835Z AUTO 00000KT 10SM CLR 11/10 A2982 RMK AO2 T01070098,KLWB,2023-05-17T08:35:00Z,37.87,-80.4,10.7,9.8,0,0,,10.0,29.819881,,,TRUE,TRUE,,,,,,,CLR,,,,,,,,VFR,,,,,,,,,,,,SPECI,702.0
KLWA 170835Z AUTO 04004KT 10SM CLR 08/07 A2994 RMK AO2 T00810066,KLWA,2023-05-17T08:35:00Z,42.35,-86.25,8.1,6.6,40,4,,10.0,29.940945,,,TRUE,TRUE,,,,,,,CLR,,,,,,,,VFR,,,,,,,,,,,,SPECI,199.0
KLVN 170835Z AUTO 08004KT 10SM CLR 09/05 A2997 RMK AO2,KLVN,2023-05-17T08:35:00Z,44.63,-93.23,9.0,5.0,80,4,,10.0,29.970472,,,TRUE,TRUE,,,,,,,CLR,,,,,,,,VFR,,,,,,,,,,,,SPECI,292.0
KLUX 170835Z AUTO 24003KT 10SM CLR 19/18 A2975 RMK AO2,KLUX,2023-05-17T08:35:00Z,34.5,-81.95,19.0,18.0,240,3,,10.0,29.749016,,,TRUE,TRUE,,,,,,,CLR,,,,,,,,VFR,,,,,,,,,,,,METAR,213.0
KLUV 170835Z AUTO 34008KT 10SM CLR 18/13 A3004 RMK AO2,KLUV,2023-05-17T08:35:00Z,32.75,-101.92,18.0,13.0,340,8,,10.0,30.041338,,,TRUE,TRUE,,,,,,,CLR,,,,,,,,VFR,,,,,,,,,,,,METAR,910.0
KLUM 170835Z 05006KT 10SM CLR 10/02 A3000 RMK AO2 T01000022 PWINO,KLUM,2023-05-17T08:35:00Z,44.9,-91.87,10.0,2.2,50,6,,10.0,30.0,,,,TRUE,,,,,TRUE,,CLR,,,,,,,,VFR,,,,,,,,,,,,SPECI,271.0
KLUL 170835Z AUTO 00000KT 10SM SCT002 19/ A2983 RMK A02 T0191////,KLUL,2023-05-17T08:35:00Z,31.67,-89.17,19.1,,0,0,,10.0,29.828741,,,TRUE,TRUE,,,,,,,SCT,200,,,,,,,VFR,,,,,,,,,,,,METAR,74.0
KLUG 170835Z AUTO 35004KT 10SM SCT016 OVC024 19/19 A2984 RMK A01,KLUG,2023-05-17T08:35:00Z,35.52,-86.8,19.0,19.0,350,4,,10.0,29.840551,,,TRUE,TRUE,,,,,,,SCT,1600,OVC,2400,,,,,MVFR,,,,,,,,,,,,SPECI,218.0
KLUD 170835Z AUTO 00000KT 10SM CLR 17/15 A2995 RMK AO2 T01670145,KLUD,2023-05-17T08:35:00Z,33.25,-97.58,16.7,14.5,0,0,,10.0,29.949802,,,TRUE,TRUE,,,,,,,CLR,,,,,,,,VFR,,,,,,,,,,,,METAR,319.0
KLUA 170835Z AUTO 00000KT 10SM CLR 11/10 A2970 RMK AO2,KLUA,2023-05-17T08:35:00Z,38.67,-78.5,11.0,10.0,0,0,,10.0,29.698818,,,TRUE,TRUE,,,,,,,CLR,,,,,,,,VFR,,,,,,,,,,,,METAR,273.0
KLRY 170835Z AUTO 00000KT 1/2SM FG BKN004 12/11 A2998 RMK AO2,KLRY,2023-05-17T08:35:00Z,38.62,-94.35,12.0,11.0,0,0,,0.5,29.97933,,,TRUE,TRUE,,,,,,FG,BKN,400,,,,,,,LIFR,,,,,,,,,,,,METAR,272.0
KLRU 170835Z AUTO 28014G19KT 10SM OVC100 19/13 A3012 RMK AO2 T01880125,KLRU,2023-05-17T08:35:00Z,32.28,-106.92,18.8,12.5,280,14,19,10.0,30.121063,,,TRUE,TRUE,,,,,,,OVC,10000,,,,,,,VFR,,,,,,,,,,,,SPECI,1355.0
KLRJ 170835Z AUTO 00000KT 10SM BKN075 13/09 A2993 RMK AO2,KLRJ,2023-05-17T08:35:00Z,42.77,-96.2,13.0,9.0,0,0,,10.0,29.929134,,,TRUE,TRUE,,,,,,,BKN,7500,,,,,,,VFR,,,,,,,,,,,,SPECI,363.0
KLQK 170835Z AUTO 27004KT 10SM CLR 18/18 A2976 RMK AO2 T01830183,KLQK,2023-05-17T08:35:00Z,34.82,-82.7,18.3,18.3,270,4,,10.0,29.760826,,,TRUE,TRUE,,,,,,,CLR,,,,,,,,VFR,,,,,,,,,,,,SPECI,291.0
KLOM 170835Z AUTO 34003KT 10SM SCT100 16/06 A2961 RMK AO2 T01610065,KLOM,2023-05-17T08:35:00Z,40.13,-75.27,16.1,6.5,340,3,,10.0,29.610237,,,TRUE,TRUE,,,,,,,SCT,10000,,,,,,,VFR,,,,,,,,,,,,SPECI,87.0
KLNQ 170835Z AUTO 00000KT 10SM OVC100 24/21 A2986 RMK AO2 T02350214,KLNQ,2023-05-17T08:35:00Z,29.35,-89.43,23.5,21.4,0,0,,10.0,29.861221,,,TRUE,TRUE,,,,,,,OVC,10000,,,,,,,VFR,,,,,,,,,,,,METAR,1.0
KLNP 170835Z AUTO 32007KT 10SM OVC002 13/12 A2988 RMK AO2,KLNP,2023-05-17T08:35:00Z,36.98,-82.52,13.0,12.0,320,7,,10.0,29.878937,,,TRUE,TRUE,,,,,,,OVC,200,,,,,,,LIFR,,,,,,,,,,,,METAR,817.0
KLNN 170835Z AUTO 05008G16KT 10SM OVC023 09/04 A2986 RMK AO1 T00850040,KLNN,2023-05-17T08:35:00Z,41.68,-81.38,8.5,4.0,50,8,16,10.0,29.861221,,,TRUE,TRUE,,,,,,,OVC,2300,,,,,,,MVFR,,,,,,,,,,,,SPECI,190.0
KLNL 170835Z AUTO 00000KT 10SM CLR M01/M02 A3006 RMK AO2 T10111017,KLNL,2023-05-17T08:35:00Z,46.15,-89.22,-1.1,-1.7,0,0,,10.0,30.059055,,,TRUE,TRUE,,,,,,,CLR,,,,,,,,VFR,,,,,,,,,,,,SPECI,517.0
KLNC 170835Z AUTO 00000KT 10SM CLR 16/15 A2994 RMK AO2 T01550148,KLNC,2023-05-17T08:35:00Z,32.58,-96.72,15.5,14.8,0,0,,10.0,29.940945,,,TRUE,TRUE,,,,,,,CLR,,,,,,,,VFR,,,,,,,,,,,,METAR,152.0
KLNA 170835Z AUTO 21003KT 10SM CLR 24/22 A2989 RMK AO2 T02420216,KLNA,2023-05-17T08:35:00Z,26.6,-80.08,24.2,21.6,210,3,,10.0,29.890747,,,TRUE,TRUE,,,,,,,CLR,,,,,,,,VFR,,,,,,,,,,,,SPECI,3.0
KLMS 170835Z AUTO 24006KT 9SM FEW011 FEW037 BKN045 20/20 A2987 RMK AO2 LTG DSNT SW-N,KLMS,2023-05-17T08:35:00Z,,,20.0,20.0,240,6,,9.0,29.870079,,,TRUE,TRUE,,,,,,,FEW,1100,FEW,3700,BKN,4500,,,VFR,,,,,,,,,,,,SPECI,
KLMO 170835Z AUTO 27004KT 10SM CLR 10/07 A3013 RMK AO2 T01020067,KLMO,2023-05-17T08:35:00Z,40.17,-105.17,10.2,6.7,270,4,,10.0,30.129921,,,TRUE,TRUE,,,,,,,CLR,,,,,,,,VFR,,,,,,,,,,,,SPECI,1535.0
KLLN 170835Z AUTO 36006KT 10SM SCT029 SCT055 BKN070 17/13 A3005 RMK AO2,KLLN,2023-05-17T08:35:00Z,33.55,-102.37,17.0,13.0,360,6,,10.0,30.050198,,,TRUE,TRUE,,,,,,,SCT,2900,SCT,5500,BKN,7000,,,VFR,,,,,,,,,,,,SPECI,1071.0
KLKU 170835Z AUTO 29003KT 10SM OVC110 17/15 A2968 RMK AO2 T01670154,KLKU,2023-05-17T08:35:00Z,38.02,-77.97,16.7,15.4,290,3,,10.0,29.681103,,,TRUE,TRUE,,,,,,,OVC,11000,,,,,,,VFR,,,,,,,,,,,,METAR,146.0
KLKR 170835Z AUTO 00000KT 7SM CLR 18/18 A2974 RMK AO2,KLKR,2023-05-17T08:35:00Z,34.72,-80.85,18.0,18.0,0,0,,7.0,29.740158,,,TRUE,TRUE,,,,,,,CLR,,,,,,,,VFR,,,,,,,,,,,,METAR,166.0
KLJF 170835Z AUTO 09006KT 10SM CLR 12/07 A2995 RMK AO2,KLJF,2023-05-17T08:35:00Z,45.1,-94.52,12.0,7.0,90,6,,10.0,29.949802,,,TRUE,TRUE,,,,,,,CLR,,,,,,,,VFR,,,,,,,,,,,,SPECI,347.0
KLHM 170835Z AUTO 09003KT 10SM CLR 17/10 A2991 RMK AO1,KLHM,2023-05-17T08:35:00Z,38.92,-121.35,17.0,10.0,90,3,,10.0,29.911417,,,TRUE,TRUE,,,,,,,CLR,,,,,,,,VFR,,,,,,,,,,,,SPECI,36.0
KLHB 170835Z AUTO 00000KT 10SM CLR 19/19 A2993 RMK AO2 T01930186,KLHB,2023-05-17T08:35:00Z,30.87,-96.62,19.3,18.6,0,0,,10.0,29.929134,,,TRUE,TRUE,,,,,,,CLR,,,,,,,,VFR,,,,,,,,,,,,SPECI,83.0
KLGC 170835Z AUTO 00000KT 4SM BR CLR 18/17 A2984 RMK AO2 T01750170,KLGC,2023-05-17T08:35:00Z,33.0,-85.07,17.5,17.0,0,0,,4.0,29.840551,,,TRUE,TRUE,,,,,,BR,CLR,,,,,,,,MVFR,,,,,,,,,,,,METAR,209.0
KLDM 170835Z AUTO 03003KT 10SM CLR 04/00 A2999 RMK AO2 T00401005,KLDM,2023-05-17T08:35:00Z,43.97,-86.4,4.0,-0.5,30,3,,10.0,29.991142,,,TRUE,TRUE,,,,,,,CLR,,,,,,,,VFR,,,,,,,,,,,,SPECI,194.0
KLCQ 170835Z AUTO 22003KT 7SM SCT004 21/21 A2984 RMK AO2,KLCQ,2023-05-17T08:35:00Z,30.18,-82.58,21.0,21.0,220,3,,7.0,29.840551,,,TRUE,TRUE,,,,,,,SCT,400,,,,,,,VFR,,,,,,,,,,,,METAR,59.0
KLCG 170835Z AUTO 00000KT 10SM CLR 09/08 A2996 RMK AO2 T00940076,KLCG,2023-05-17T08:35:00Z,42.25,-96.98,9.4,7.6,0,0,,10.0,29.958662,,,TRUE,TRUE,,,,,,,CLR,,,,,,,,VFR,,,,,,,,,,,,SPECI,434.0
KLBO 170835Z AUTO 31005KT 3SM BR BKN003 BKN045 OVC080 15/15 A2995 RMK AO2,KLBO,2023-05-17T08:35:00Z,37.65,-92.65,15.0,15.0,310,5,,3.0,29.949802,,,TRUE,TRUE,,,,,,BR,BKN,300,BKN,4500,OVC,8000,,,LIFR,,,,,,,,,,,,METAR,399.0
KLBE 170835Z AUTO 21006KT 7SM BKN080 13/12 A2975 RMK AO2,KLBE,2023-05-17T08:35:00Z,40.27,-79.4,13.0,12.0,210,6,,7.0,29.749016,,,TRUE,TRUE,,,,,,,BKN,8000,,,,,,,VFR,,,,,,,,,,,,SPECI,345.0
KLAM 170835Z AUTO 19007KT 10SM OVC100 13/06 A3022 RMK AO2 T01270060 $,KLAM,2023-05-17T08:35:00Z,35.87,-106.27,12.7,6.0,190,7,,10.0,30.221457,,,TRUE,TRUE,TRUE,,,,,,OVC,10000,,,,,,,VFR,,,,,,,,,,,,SPECI,2166.0
KLAL 170835Z AUTO 00000KT 10SM CLR 22/22 A2989 RMK AO2 T02210215,KLAL,2023-05-17T08:35:00Z,27.98,-82.02,22.1,21.5,0,0,,10.0,29.890747,,,TRUE,TRUE,,,,,,,CLR,,,,,,,,VFR,,,,,,,,,,,,METAR,39.0
KL35 170835Z AUTO 00000KT 10SM CLR 06/M02 A3027 RMK AO2,KL35,2023-05-17T08:35:00Z,34.27,-116.85,6.0,-2.0,0,0,,10.0,30.268702,,,TRUE,TRUE,,,,,,,CLR,,,,,,,,VFR,,,,,,,,,,,,SPECI,2062.0
KL18 170835Z AUTO 00000KT 5SM BR OVC002 14/14 A2997 RMK AO2,KL18,2023-05-17T08:35:00Z,33.35,-117.25,14.0,14.0,0,0,,5.0,29.970472,,,TRUE,TRUE,,,,,,BR,OVC,200,,,,,,,LIFR,,,,,,,,,,,,METAR,215.0
KL08 170835Z AUTO 00000KT 10SM SCT049 BKN060 24/07 A2984 RMK AO2,KL08,2023-05-17T08:35:00Z,33.27,-116.32,24.0,7.0,0,0,,10.0,29.840551,,,TRUE,TRUE,,,,,,,SCT,4900,BKN,6000,,,,,VFR,,,,,,,,,,,,SPECI,156.0
KKY8 170835Z AUTO 00000KT 9SM CLR 12/12 A2987 RMK A01,KKY8,2023-05-17T08:35:00Z,37.95,-86.87,12.0,12.0,0,0,,9.0,29.870079,,,TRUE,TRUE,,,,,,,CLR,,,,,,,,VFR,,,,,,,,,,,,METAR,124.0
KKNB 170835Z AUTO 02004KT 10SM BKN110 15/09 A3019 RMK A01,KKNB,2023-05-17T08:35:00Z,37.02,-112.53,15.0,9.0,20,4,,10.0,30.188976,,,TRUE,TRUE,,,,,,,BKN,11000,,,,,,,VFR,,,,,,,,,,,,METAR,1476.0
KK88 170835Z AUTO 00000KT 1/2SM VV005 12/12 A2999 RMK AO1 T01230121,KK88,2023-05-17T08:35:00Z,37.87,-95.38,12.3,12.1,0,0,,0.5,29.991142,,,TRUE,TRUE,,,,,,,OVX,0,,,,,,,LIFR,,,,,,,,,,,500,METAR,308.0
KK82 170835Z AUTO 14005KT 10SM CLR 11/09 A3002 RMK AO2 T01140094,KK82,2023-05-17T08:35:00Z,39.77,-98.8,11.4,9.4,140,5,,10.0,30.02067,,,TRUE,TRUE,,,,,,,CLR,,,,,,,,VFR,,,,,,,,,,,,SPECI,548.0
KK70 170835Z AUTO 21004KT 10SM FEW042 FEW050 22/21 A2989 RMK AO2 LTG DSNT NE,KK70,2023-05-17T08:35:00Z,25.32,-80.28,22.0,21.0,210,4,,10.0,29.890747,,,TRUE,TRUE,,,,,,,FEW,4200,FEW,5000,,,,,VFR,,,,,,,,,,,,SPECI,20.0
KK62 170835Z AUTO 29005KT 10SM CLR 11/09 A2984 RMK AO2,KK62,2023-05-17T08:35:00Z,38.7,-84.4,11.0,9.0,290,5,,10.0,29.840551,,,TRUE,TRUE,,,,,,,CLR,,,,,,,,VFR,,,,,,,,,,,,SPECI,274.0
KJZP 170835Z AUTO 30005KT 4SM BR OVC002 18/18 A2985 RMK AO2 T01780175,KJZP,2023-05-17T08:35:00Z,34.45,-84.47,17.8,17.5,300,5,,4.0,29.84941,,,TRUE,TRUE,,,,,,BR,OVC,200,,,,,,,LIFR,,,,,,,,,,,,METAR,462.0
KJZI 170835Z AUTO 25006KT 10SM CLR 23/22 A2977 RMK AO2,KJZI,2023-05-17T08:35:00Z,32.7,-80.0,23.0,22.0,250,6,,10.0,29.769686,,,TRUE,TRUE,,,,,,,CLR,,,,,,,,VFR,,,,,,,,,,,,METAR,5.0
KJYR 170835Z AUTO 00000KT 10SM CLR 09/06 A2999 RMK AO2,KJYR,2023-05-17T08:35:00Z,40.9,-97.62,9.0,6.0,0,0,,10.0,29.991142,,,TRUE,TRUE,,,,,,,CLR,,,,,,,,VFR,,,,,,,,,,,,SPECI,508.0
KJYO 170835Z AUTO 00000KT 10SM CLR 15/12 A2968 RMK AO2,KJYO,2023-05-17T08:35:00Z,39.07,-77.57,15.0,12.0,0,0,,10.0,29.681103,,,TRUE,TRUE,,,,,,,CLR,,,,,,,,VFR,,,,,,,,,,,,METAR,112.0
KJYM 170835Z AUTO 04003KT 10SM SCT100 BKN120 07/05 A2991 RMK AO2 T00720046,KJYM,2023-05-17T08:35:00Z,41.92,-84.58,7.2,4.6,40,3,,10.0,29.911417,,,TRUE,TRUE,,,,,,,SCT,10000,BKN,12000,,,,,VFR,,,,,,,,,,,,SPECI,357.0
KJYL 170835Z AUTO 26003KT 7SM CLR 21/20 A2979 RMK AO2 T02100203,KJYL,2023-05-17T08:35:00Z,32.65,-81.6,21.0,20.3,260,3,,7.0,29.790354,,,TRUE,TRUE,,,,,,,CLR,,,,,,,,VFR,,,,,,,,,,,,SPECI,54.0
KJWY 170835Z AUTO 00000KT 10SM CLR 15/15 A2996 RMK AO2 T01530145,KJWY,2023-05-17T08:35:00Z,32.45,-96.92,15.3,14.5,0,0,,10.0,29.958662,,,TRUE,TRUE,,,,,,,CLR,,,,,,,,VFR,,,,,,,,,,,,METAR,211.0
KJWN 170835Z AUTO 31003KT 10SM OVC032 18/16 A2984 RMK AO2,KJWN,2023-05-17T08:35:00Z,36.18,-86.88,18.0,16.0,310,3,,10.0,29.840551,,,TRUE,TRUE,,,,,,,OVC,3200,,,,,,,VFR,,,,,,,,,,,,SPECI,149.0
KJWG 170835Z AUTO 00000KT 1 1/4SM BR VV007 11/11 A3003 RMK AO2 T01140110,KJWG,2023-05-17T08:35:00Z,35.87,-98.42,11.4,11.0,0,0,,1.25,30.029528,,,TRUE,TRUE,,,,,,BR,OVX,0,,,,,,,LIFR,,,,,,,,,,,700,SPECI,469.0
KJVY 170835Z AUTO 00000KT 3SM CLR 10/10 A2983 RMK AO2 PWINO,KJVY,2023-05-17T08:35:00Z,38.37,-85.73,10.0,10.0,0,0,,3.0,29.828741,,,TRUE,TRUE,,,,,TRUE,,CLR,,,,,,,,MVFR,,,,,,,,,,,,METAR,141.0
KJVL 170835Z AUTO 05008G14KT 10SM CLR 07/00 A2999 RMK AO2,KJVL,2023-05-17T08:35:00Z,42.62,-89.05,7.0,0.0,50,8,14,10.0,29.991142,,,TRUE,TRUE,,,,,,,CLR,,,,,,,,VFR,,,,,,,,,,,,SPECI,244.0
KJTC 170835Z AUTO 19005KT 10SM BKN120 09/06 A3026 RMK AO2,KJTC,2023-05-17T08:35:00Z,34.13,-109.32,9.0,6.0,190,5,,10.0,30.259842,,,TRUE,TRUE,,,,,,,BKN,12000,,,,,,,VFR,,,,,,,,,,,,SPECI,2148.0
KJSV 170835Z AUTO 00000KT 10SM BKN012 OVC035 18/17 A2992 RMK AO2,KJSV,2023-05-17T08:35:00Z,35.43,-94.8,18.0,17.0,0,0,,10.0,29.920275,,,TRUE,TRUE,,,,,,,BKN,1200,OVC,3500,,,,,MVFR,,,,,,,,,,,,METAR,158.0
KJSO 170835Z AUTO 01003KT 10SM CLR 18/16 A2993 RMK AO2 T01760160 TSNO,KJSO,2023-05-17T08:35:00Z,31.87,-95.22,17.6,16.0,10,3,,10.0,29.929134,,,TRUE,TRUE,,,TRUE,,,,CLR,,,,,,,,VFR,,,,,,,,,,,,SPECI,204.0
KJRO 170835Z AUTO 00000KT 5SM BR CLR 11/10 A2982 RMK AO2,KJRO,2023-05-17T08:35:00Z,38.98,-82.58,11.0,10.0,0,0,,5.0,29.819881,,,TRUE,TRUE,,,,,,BR,CLR,,,,,,,,MVFR,,,,,,,,,,,,METAR,224.0
KJPX 170835Z AUTO 35010KT 10SM SCT120 16/05 A2954 RMK AO2 T01600050,KJPX,2023-05-17T08:35:00Z,40.95,-72.25,16.0,5.0,350,10,,10.0,29.53937,,,TRUE,TRUE,,,,,,,SCT,12000,,,,,,,VFR,,,,,,,,,,,,METAR,10.0
KJOT 170835Z AUTO 03008KT 10SM SCT090 10/04 A2994 RMK AO2 T01030040,KJOT,2023-05-17T08:35:00Z,41.52,-88.18,10.3,4.0,30,8,,10.0,29.940945,,,TRUE,TRUE,,,,,,,SCT,9000,,,,,,,VFR,,,,,,,,,,,,METAR,175.0
KJMR 170835Z AUTO 00000KT 10SM CLR 07/02 A3003 RMK AO2,KJMR,2023-05-17T08:35:00Z,45.88,-93.27,7.0,2.0,0,0,,10.0,30.029528,,,TRUE,TRUE,,,,,,,CLR,,,,,,,,VFR,,,,,,,,,,,,SPECI,301.0
KJKJ 170835Z AUTO 15004KT 10SM CLR 13/05 A2991 RMK AO2 TSNO,KJKJ,2023-05-17T08:35:00Z,46.83,-96.67,13.0,5.0,150,4,,10.0,29.911417,,,TRUE,TRUE,,,TRUE,,,,CLR,,,,,,,,VFR,,,,,,,,,,,,SPECI,280.0
KJKA 170835Z AUTO 00000KT 10SM CLR 21/21 A2982 RMK AO2 LTG DSNT SW,KJKA,2023-05-17T08:35:00Z,30.28,-87.67,21.0,21.0,0,0,,10.0,29.819881,,,TRUE,TRUE,,,,,,,CLR,,,,,,,,VFR,,,,,,,,,,,,METAR,5.0
KJHN 170835Z AUTO 05005KT 10SM BKN090 BKN120 15/14 A3002 RMK AO2 T01450135,KJHN,2023-05-17T08:35:00Z,37.58,-101.73,14.5,13.5,50,5,,10.0,30.02067,,,TRUE,TRUE,,,,,,,BKN,9000,BKN,12000,,,,,VFR,,,,,,,,,,,,METAR,1013.0
KJFZ 170835Z AUTO 32003KT 4SM BR OVC003 14/14 A2986 RMK AO2 T01350135,KJFZ,2023-05-17T08:35:00Z,37.07,-81.8,13.5,13.5,320,3,,4.0,29.861221,,,TRUE,TRUE,,,,,,BR,OVC,300,,,,,,,LIFR,,,,,,,,,,,,METAR,809.0
KJFX 170835Z AUTO 00000KT 1 1/2SM BR OVC002 18/18 A2984 RMK AO2 LTG DSNT W VIS 1/4V5,KJFX,2023-05-17T08:35:00Z,33.9,-87.32,18.0,18.0,0,0,,1.5,29.840551,,,TRUE,TRUE,,,,,,BR,OVC,200,,,,,,,LIFR,,,,,,,,,,,,SPECI,144.0
KJES 170835Z AUTO 00000KT 7SM CLR 21/19 A2984 RMK AO2,KJES,2023-05-17T08:35:00Z,31.55,-81.88,21.0,19.0,0,0,,7.0,29.840551,,,TRUE,TRUE,,,,,,,CLR,,,,,,,,VFR,,,,,,,,,,,,SPECI,26.0
KJDD 170835Z AUTO 00000KT 10SM SCT039 17/16 A2992 RMK AO2,KJDD,2023-05-17T08:35:00Z,32.75,-95.5,17.0,16.0,0,0,,10.0,29.920275,,,TRUE,TRUE,,,,,,,SCT,3900,,,,,,,VFR,,,,,,,,,,,,SPECI,127.0
KJCA 170835Z AUTO 30008KT 280V340 10SM BKN010 19/ A2981 RMK AO2 T0186////,KJCA,2023-05-17T08:35:00Z,34.18,-83.57,18.6,,300,8,,10.0,29.811024,,,TRUE,TRUE,,,,,,,BKN,1000,,,,,,,MVFR,,,,,,,,,,,,SPECI,287.0
KJAS 170835Z AUTO 00000KT 10SM FEW050 20/20 A2988 RMK AO2,KJAS,2023-05-17T08:35:00Z,30.88,-94.03,20.0,20.0,0,0,,10.0,29.878937,,,TRUE,TRUE,,,,,,,FEW,5000,,,,,,,VFR,,,,,,,,,,,,SPECI,60.0
KJAQ 170835Z AUTO 00000KT 10SM CLR 21/09 A2998 RMK AO1 T02050089,KJAQ,2023-05-17T08:35:00Z,38.37,-120.8,20.5,8.9,0,0,,10.0,29.97933,,,TRUE,TRUE,,,,,,,CLR,,,,,,,,VFR,,,,,,,,,,,,SPECI,518.0
KIZA 170835Z AUTO 29004KT 3/4SM UP BR OVC002 12/12 A2997 RMK AO2,KIZA,2023-05-17T08:35:00Z,34.6,-120.07,12.0,12.0,290,4,,0.75,29.970472,,,TRUE,TRUE,,,,,,BR UP,OVC,200,,,,,,,LIFR,,,,,,,,,,,,SPECI,200.0
KIYA 170835Z AUTO 24003KT 7SM CLR 23/21 A2986 RMK AO2 T02310210 PWINO,KIYA,2023-05-17T08:35:00Z,29.98,-92.08,23.1,21.0,240,3,,7.0,29.861221,,,TRUE,TRUE,,,,,TRUE,,CLR,,,,,,,,VFR,,,,,,,,,,,,SPECI,4.0
KIWA 170835Z AUTO 10010KT 10SM CLR 25/14 A2992 RMK AO2 T02470137,KIWA,2023-05-17T08:35:00Z,33.3,-111.65,24.7,13.7,100,10,,10.0,29.920275,,,TRUE,TRUE,,,,,,,CLR,,,,,,,,VFR,,,,,,,,,,,,METAR,420.0
KIUA 170835Z AUTO 02010KT 10SM SCT021 OVC037 03/M01 A2984 RMK AO2 T00331008,KIUA,2023-05-17T08:35:00Z,42.92,-77.33,3.3,-0.8,20,10,,10.0,29.840551,,,TRUE,TRUE,,,,,,,SCT,2100,OVC,3700,,,,,VFR,,,,,,,,,,,,SPECI,248.0
KIRS 170835Z AUTO 06006KT 10SM CLR 10/03 A2991 RMK AO2 T00970025,KIRS,2023-05-17T08:35:00Z,41.8,-85.43,9.7,2.5,60,6,,10.0,29.911417,,,TRUE,TRUE,,,,,,,CLR,,,,,,,,VFR,,,,,,,,,,,,SPECI,282.0
KIOB 170835Z AUTO 27004KT 11/11 A2987 RMK AO2 PWINO,KIOB,2023-05-17T08:35:00Z,38.05,-83.98,11.0,11.0,270,4,,,29.870079,,,TRUE,TRUE,,,,,TRUE,,,,,,,,,,,,,,,,,,,,,,SPECI,301.0
KINJ 170835Z AUTO 06005KT 10SM CLR 17/17 A2993 RMK AO2 T01670167,KINJ,2023-05-17T08:35:00Z,32.08,-97.1,16.7,16.7,60,5,,10.0,29.929134,,,TRUE,TRUE,,,,,,,CLR,,,,,,,,VFR,,,,,,,,,,,,SPECI,208.0
KINF 170835Z AUTO 19003KT 3SM BR OVC085 21/21 A2989 RMK AO2,KINF,2023-05-17T08:35:00Z,28.8,-82.32,21.0,21.0,190,3,,3.0,29.890747,,,TRUE,TRUE,,,,,,BR,OVC,8500,,,,,,,MVFR,,,,,,,,,,,,SPECI,14.0
KIMS 170835Z AUTO 00000KT 10SM CLR 12/11 A2988 RMK AO2,KIMS,2023-05-17T08:35:00Z,38.75,-85.47,12.0,11.0,0,0,,10.0,29.878937,,,TRUE,TRUE,,,,,,,CLR,,,,,,,,VFR,,,,,,,,,,,,METAR,244.0
KIMM 170835Z AUTO 21004KT 10SM CLR 29/29 A2988 RMK AO2,KIMM,2023-05-17T08:35:00Z,26.43,-81.4,29.0,29.0,210,4,,10.0,29.878937,,,TRUE,TRUE,,,,,,,CLR,,,,,,,,VFR,,,,,,,,,,,,SPECI,11.0
KIKW 170835Z AUTO 00000KT 10SM CLR 05/03 A2997 RMK AO2 T00460029,KIKW,2023-05-17T08:35:00Z,43.67,-84.27,4.6,2.9,0,0,,10.0,29.970472,,,TRUE,TRUE,,,,,,,CLR,,,,,,,,VFR,,,,,,,,,,,,METAR,190.0
KIKV 170835Z AUTO 00000KT 8SM CLR 11/10 A2992 RMK AO2,KIKV,2023-05-17T08:35:00Z,41.68,-93.57,11.0,10.0,0,0,,8.0,29.920275,,,TRUE,TRUE,,,,,,,CLR,,,,,,,,VFR,,,,,,,,,,,,SPECI,270.0
KIKK 170835Z AUTO 04007KT 10SM OVC090 10/05 A2992 RMK AO2 T00980050 PWINO,KIKK,2023-05-17T08:35:00Z,41.07,-87.85,9.8,5.0,40,7,,10.0,29.920275,,,TRUE,TRUE,,,,,TRUE,,OVC,9000,,,,,,,VFR,,,,,,,,,,,,SPECI,188.0
KIKG 170835Z AUTO 00000KT 7SM CLR 19/18 A2992 RMK AO2 T01860181,KIKG,2023-05-17T08:35:00Z,27.55,-98.03,18.6,18.1,0,0,,7.0,29.920275,,,TRUE,TRUE,,,,,,,CLR,,,,,,,,VFR,,,,,,,,,,,,SPECI,37.0
KIJX 170835Z AUTO 23005KT 10SM CLR 13/13 A2988 RMK AO2 T01330133,KIJX,2023-05-17T08:35:00Z,39.77,-90.25,13.3,13.3,230,5,,10.0,29.878937,,,TRUE,TRUE,,,,,,,CLR,,,,,,,,VFR,,,,,,,,,,,,SPECI,187.0
KIIY 170835Z AUTO 24006KT 10SM CLR 19/18 A2979 RMK AO2 T01890179,KIIY,2023-05-17T08:35:00Z,33.78,-82.82,18.9,17.9,240,6,,10.0,29.790354,,,TRUE,TRUE,,,,,,,CLR,,,,,,,,VFR,,,,,,,,,,,,METAR,192.0
KIIB 170835Z AUTO 09013KT 10SM CLR 12/07 A2996 RMK AO2 T01220074,KIIB,2023-05-17T08:35:00Z,42.45,-91.95,12.2,7.4,90,13,,10.0,29.958662,,,TRUE,TRUE,,,,,,,CLR,,,,,,,,VFR,,,,,,,,,,,,SPECI,294.0
KIGQ 170835Z AUTO 02008G14KT 10SM SCT100 09/05 A2993 RMK AO2 T00860046,KIGQ,2023-05-17T08:35:00Z,41.53,-87.53,8.6,4.6,20,8,14,10.0,29.929134,,,TRUE,TRUE,,,,,,,SCT,10000,,,,,,,VFR,,,,,,,,,,,,SPECI,187.0
KIFP 170835Z AUTO VRB03KT 10SM CLR 27/07 A2988 RMK AO2,KIFP,2023-05-17T08:35:00Z,35.15,-114.57,27.0,7.0,0,3,,10.0,29.878937,,,TRUE,TRUE,,,,,,,CLR,,,,,,,,VFR,,,,,,,,,,,,SPECI,210.0
KIFA 170835Z AUTO 05004KT 10SM CLR 15/11 A2993 RMK AO2 T01460105,KIFA,2023-05-17T08:35:00Z,42.47,-93.27,14.6,10.5,50,4,,10.0,29.929134,,,TRUE,TRUE,,,,,,,CLR,,,,,,,,VFR,,,,,,,,,,,,SPECI,344.0
KIER 170835Z AUTO 32007KT 10SM BKN055 21/20 A2988 RMK AO2 T02120195,KIER,2023-05-17T08:35:00Z,31.73,-93.1,21.2,19.5,320,7,,10.0,29.878937,,,TRUE,TRUE,,,,,,,BKN,5500,,,,,,,VFR,,,,,,,,,,,,SPECI,35.0
KIDP 170835Z AUTO 26004KT 7SM OVC030 16/15 A2997 RMK AO2 T01650154,KIDP,2023-05-17T08:35:00Z,37.17,-95.78,16.5,15.4,260,4,,7.0,29.970472,,,TRUE,TRUE,,,,,,,OVC,3000,,,,,,,MVFR,,,,,,,,,,,,METAR,252.0
KICL 170835Z AUTO 00000KT 10SM CLR 11/11 A2995 RMK AO2,KICL,2023-05-17T08:35:00Z,40.72,-95.02,11.0,11.0,0,0,,10.0,29.949802,,,TRUE,TRUE,,,,,,,CLR,,,,,,,,VFR,,,,,,,,,,,,SPECI,299.0
KIBM 170835Z AUTO 24005KT 10SM CLR 11/10 A3009 RMK AO2 T01110095,KIBM,2023-05-17T08:35:00Z,41.18,-103.68,11.1,9.5,240,5,,10.0,30.088583,,,TRUE,TRUE,,,,,,,CLR,,,,,,,,VFR,,,,,,,,,,,,SPECI,1494.0
KI95 170835Z AUTO 02004KT 10SM BKN043 10/08 A2985 RMK A01,KI95,2023-05-17T08:35:00Z,,,10.0,8.0,20,4,,10.0,29.84941,,,TRUE,TRUE,,,,,,,BKN,4300,,,,,,,VFR,,,,,,,,,,,,SPECI,
KI75 170835Z AUTO 27005KT 10SM CLR 13/11 A2991 RMK AO2 T01270106,KI75,2023-05-17T08:35:00Z,41.05,-93.68,12.7,10.6,270,5,,10.0,29.911417,,,TRUE,TRUE,,,,,,,CLR,,,,,,,,VFR,,,,,,,,,,,,SPECI,336.0
KI74 170835Z AUTO 01005KT 10SM CLR 10/07 A2985 RMK AO2,KI74,2023-05-17T08:35:00Z,40.12,-83.75,10.0,7.0,10,5,,10.0,29.84941,,,TRUE,TRUE,,,,,,,CLR,,,,,,,,VFR,,,,,,,,,,,,METAR,322.0
KI68 170835Z AUTO 00000KT 11/10 A2985 RMK AO1 T01070102,KI68,2023-05-17T08:35:00Z,39.47,-84.25,10.7,10.2,0,0,,,29.84941,,,TRUE,TRUE,,,,,,,,,,,,,,,,,,,,,,,,,,,SPECI,274.0
KI67 170835Z AUTO 00000KT 10SM CLR 10/09 A2985 RMK AO1,KI67,2023-05-17T08:35:00Z,39.25,-84.78,10.0,9.0,0,0,,10.0,29.84941,,,TRUE,TRUE,,,,,,,CLR,,,,,,,,VFR,,,,,,,,,,,,METAR,177.0
KI63 170835Z AUTO 27005KT 10SM CLR 15/10 A2987 RMK AO2 T01460098,KI63,2023-05-17T08:35:00Z,39.98,-90.8,14.6,9.8,270,5,,10.0,29.870079,,,TRUE,TRUE,,,,,,,CLR,,,,,,,,VFR,,,,,,,,,,,,SPECI,221.0
KI23 170835Z AUTO 31007KT 10SM CLR 11/10 A2982 RMK AO1,KI23,2023-05-17T08:35:00Z,39.57,-83.42,11.0,10.0,310,7,,10.0,29.819881,,,TRUE,TRUE,,,,,,,CLR,,,,,,,,VFR,,,,,,,,,,,,SPECI,298.0
KI19 170835Z AUTO 00000KT 6SM BR FEW036 SCT060 BKN090 11/11 A2982 RMK AO2,KI19,2023-05-17T08:35:00Z,39.7,-83.98,11.0,11.0,0,0,,6.0,29.819881,,,TRUE,TRUE,,,,,,BR,FEW,3600,SCT,6000,BKN,9000,,,VFR,,,,,,,,,,,,SPECI,285.0
KHZX 170835Z AUTO 09003KT 10SM BKN100 03/01 A3002 RMK AO2,KHZX,2023-05-17T08:35:00Z,46.62,-93.32,3.0,1.0,90,3,,10.0,30.02067,,,TRUE,TRUE,,,,,,,BKN,10000,,,,,,,VFR,,,,,,,,,,,,METAR,374.0
KHZR 170835Z AUTO 28005KT 10SM CLR 22/22 A2985 RMK AO2 T02220216,KHZR,2023-05-17T08:35:00Z,30.72,-91.48,22.2,21.6,280,5,,10.0,29.84941,,,TRUE,TRUE,,,,,,,CLR,,,,,,,,VFR,,,,,,,,,,,,SPECI,11.0
KHZL 170835Z AUTO 34008KT 310V010 10SM SCT020 SCT060 08/04 A2971 RMK AO2,KHZL,2023-05-17T08:35:00Z,40.98,-76.0,8.0,4.0,340,8,,10.0,29.71063,,,TRUE,TRUE,,,,,,,SCT,2000,SCT,6000,,,,,VFR,,,,,,,,,,,,SPECI,481.0
KHZE 170835Z AUTO 19011KT 10SM CLR 16/07 A2988 RMK AO2,KHZE,2023-05-17T08:35:00Z,47.28,-101.58,16.0,7.0,190,11,,10.0,29.878937,,,TRUE,TRUE,,,,,,,CLR,,,,,,,,VFR,,,,,,,,,,,,SPECI,542.0
KHZD 170835Z AUTO 00000KT 10SM OVC027 19/16 A2986 RMK A01,KHZD,2023-05-17T08:35:00Z,36.08,-88.47,19.0,16.0,0,0,,10.0,29.861221,,,TRUE,TRUE,,,,,,,OVC,2700,,,,,,,MVFR,,,,,,,,,,,,SPECI,147.0
KHYX 170835Z AUTO 05007KT 10SM CLR 05/02 A2996 RMK AO2 T00500023,KHYX,2023-05-17T08:35:00Z,43.43,-83.87,5.0,2.3,50,7,,10.0,29.958662,,,TRUE,TRUE,,,,,,,CLR,,,,,,,,VFR,,,,,,,,,,,,SPECI,181.0
KHYW 170835Z AUTO 00000KT 10SM CLR 20/18 A2974 RMK AO2,KHYW,2023-05-17T08:35:00Z,33.83,-79.12,20.0,18.0,0,0,,10.0,29.740158,,,TRUE,TRUE,,,,,,,CLR,,,,,,,,VFR,,,,,,,,,,,,SPECI,10.0
KHXD 170835Z AUTO 25005KT 10SM CLR 23/21 A2979 RMK AO2,KHXD,2023-05-17T08:35:00Z,32.22,-80.7,23.0,21.0,250,5,,10.0,29.790354,,,TRUE,TRUE,,,,,,,CLR,,,,,,,,VFR,,,,,,,,,,,,METAR,5.0
KHWY 170835Z AUTO 00000KT 10SM BKN120 15/13 A2967 RMK AO2 T01480125,KHWY,2023-05-17T08:35:00Z,38.58,-77.72,14.8,12.5,0,0,,10.0,29.66929,,,TRUE,TRUE,,,,,,,BKN,12000,,,,,,,VFR,,,,,,,,,,,,SPECI,93.0
KHVS 170835Z AUTO 00000KT 10SM FEW034 SCT042 BKN050 20/18 A2973 RMK AO2 LTG DSNT E,KHVS,2023-05-17T08:35:00Z,34.4,-80.12,20.0,18.0,0,0,,10.0,29.731298,,,TRUE,TRUE,,,,,,,FEW,3400,SCT,4200,BKN,5000,,,VFR,,,,,,,,,,,,METAR,110.0
KHVE 170835Z AUTO 04004KT 10SM CLR 11/03 A3011 RMK AO2,KHVE,2023-05-17T08:35:00Z,38.42,-110.7,11.0,3.0,40,4,,10.0,30.109253,,,TRUE,TRUE,,,,,,,CLR,,,,,,,,VFR,,,,,,,,,,,,SPECI,1351.0
KHVC 170835Z AUTO 00000KT 8SM CLR 15/15 A2986 RMK AO2,KHVC,2023-05-17T08:35:00Z,,,15.0,15.0,0,0,,8.0,29.861221,,,TRUE,TRUE,,,,,,,CLR,,,,,,,,VFR,,,,,,,,,,,,SPECI,
KHUM 170835Z AUTO 24003KT 7SM CLR 23/22 A2986 RMK AO2 T02270218,KHUM,2023-05-17T08:35:00Z,29.57,-90.67,22.7,21.8,240,3,,7.0,29.861221,,,TRUE,TRUE,,,,,,,CLR,,,,,,,,VFR,,,,,,,,,,,,METAR,1.0
KHTH 170835Z AUTO 00000KT 10SM CLR 16/03 A3012 RMK A01,KHTH,2023-05-17T08:35:00Z,38.55,-118.63,16.0,3.0,0,0,,10.0,30.121063,,,TRUE,TRUE,,,,,,,CLR,,,,,,,,VFR,,,,,,,,,,,,METAR,1281.0
KHSG 170835Z AUTO 27009KT 10SM SCT080 10/05 A3008 RMK AO2 T01040052,KHSG,2023-05-17T08:35:00Z,43.72,-108.38,10.4,5.2,270,9,,10.0,30.079725,,,TRUE,TRUE,,,,,,,SCT,8000,,,,,,,VFR,,,,,,,,,,,,METAR,1497.0
KHSD 170835Z AUTO 22003KT 7SM CLR 13/13 A2998 RMK A01,KHSD,2023-05-17T08:35:00Z,35.6,-97.72,13.0,13.0,220,3,,7.0,29.97933,,,TRUE,TRUE,,,,,,,CLR,,,,,,,,VFR,,,,,,,,,,,,SPECI,358.0
KHSB 170835Z AUTO 00000KT 5SM HZ CLR 16/13 A2989 RMK AO2 T01600129,KHSB,2023-05-17T08:35:00Z,37.82,-88.55,16.0,12.9,0,0,,5.0,29.890747,,,TRUE,TRUE,,,,,,HZ,CLR,,,,,,,,MVFR,,,,,,,,,,,,SPECI,118.0
KHRX 170835Z AUTO 00000KT 10SM CLR 16/13 A3007 RMK AO2 T01630126,KHRX,2023-05-17T08:35:00Z,34.87,-102.33,16.3,12.6,0,0,,10.0,30.070866,,,TRUE,TRUE,,,,,,,CLR,,,,,,,,VFR,,,,,,,,,,,,METAR,1153.0
KHQZ 170835Z AUTO 00000KT 10SM CLR 16/14 A2994 RMK AO1 T01570142,KHQZ,2023-05-17T08:35:00Z,32.75,-96.53,15.7,14.2,0,0,,10.0,29.940945,,,TRUE,TRUE,,,,,,,CLR,,,,,,,,VFR,,,,,,,,,,,,SPECI,136.0
KHQU 170835Z AUTO 24004KT 10SM CLR 20/18 A2978 RMK AO2 T02020176,KHQU,2023-05-17T08:35:00Z,33.53,-82.52,20.2,17.6,240,4,,10.0,29.778543,,,TRUE,TRUE,,,,,,,CLR,,,,,,,,VFR,,,,,,,,,,,,SPECI,141.0
KHQG 170835Z AUTO 07006KT 10SM CLR 14/12 A3002 RMK AO2 T01430120 PWINO,KHQG,2023-05-17T08:35:00Z,37.17,-101.37,14.3,12.0,70,6,,10.0,30.02067,,,TRUE,TRUE,,,,,TRUE,,CLR,,,,,,,,VFR,,,,,,,,,,,,SPECI,956.0
KHQG 170835Z AUTO 07006KT 10SM CLR 14/12 A3002 RMK AO2 T01430120 PWINO,KHQG,2023-05-17T08:35:00Z,37.17,-101.37,14.3,12.0,70,6,,10.0,30.02067,,,TRUE,TRUE,,,,,TRUE,,CLR,,,,,,,,VFR,,,,,,,,,,,,SPECI,956.0
KHPT 170835Z AUTO 05005KT 10SM CLR 12/08 A2992 RMK AO2,KHPT,2023-05-17T08:35:00Z,42.72,-93.23,12.0,8.0,50,5,,10.0,29.920275,,,TRUE,TRUE,,,,,,,CLR,,,,,,,,VFR,,,,,,,,,,,,SPECI,354.0
KHOE 170835Z AUTO 00000KT 7SM CLR 21/20 A2984 RMK AO2 T02080200,KHOE,2023-05-17T08:35:00Z,31.05,-82.78,20.8,20.0,0,0,,7.0,29.840551,,,TRUE,TRUE,,,,,,,CLR,,,,,,,,VFR,,,,,,,,,,,,SPECI,56.0
KHNR 170835Z AUTO 33004KT 10SM CLR 11/09 A2994 RMK A01,KHNR,2023-05-17T08:35:00Z,41.58,-95.33,11.0,9.0,330,4,,10.0,29.940945,,,TRUE,TRUE,,,,,,,CLR,,,,,,,,VFR,,,,,,,,,,,,SPECI,364.0
KHMZ 170835Z AUTO 30009KT 10SM CLR 13/09 A2971 RMK AO2 T01280085,KHMZ,2023-05-17T08:35:00Z,40.08,-78.52,12.8,8.5,300,9,,10.0,29.71063,,,TRUE,TRUE,,,,,,,CLR,,,,,,,,VFR,,,,,,,,,,,,SPECI,351.0
KHMT 170835Z AUTO 00000KT 10SM CLR 15/11 A2998 RMK AO2 T01550112,KHMT,2023-05-17T08:35:00Z,33.73,-117.02,15.5,11.2,0,0,,10.0,29.97933,,,TRUE,TRUE,,,,,,,CLR,,,,,,,,VFR,,,,,,,,,,,,METAR,462.0
KHMP 170835Z AUTO 28003KT 10SM OVC005 19/18 A2987 RMK AO2 T01880184,KHMP,2023-05-17T08:35:00Z,33.38,-84.33,18.8,18.4,280,3,,10.0,29.870079,,,TRUE,TRUE,,,,,,,OVC,500,,,,,,,IFR,,,,,,,,,,,,METAR,263.0
KHLX 170835Z AUTO 33013G17KT 10SM SCT008 BKN013 OVC019 15/13 A2980 RMK AO2 T01450131,KHLX,2023-05-17T08:35:00Z,36.77,-80.82,14.5,13.1,330,13,17,10.0,29.799213,,,TRUE,TRUE,,,,,,,SCT,800,BKN,1300,OVC,1900,,,MVFR,,,,,,,,,,,,METAR,819.0
KHLB 170835Z AUTO 00000KT 6SM BR OVC090 10/10 A2985 RMK A01,KHLB,2023-05-17T08:35:00Z,39.35,-85.27,10.0,10.0,0,0,,6.0,29.84941,,,TRUE,TRUE,,,,,,BR,OVC,9000,,,,,,,VFR,,,,,,,,,,,,METAR,297.0
KHJH 170835Z AUTO 00000KT 4SM BR CLR 11/11 A3000 RMK AO2 T01070105,KHJH,2023-05-17T08:35:00Z,40.15,-97.58,10.7,10.5,0,0,,4.0,30.0,,,TRUE,TRUE,,,,,,BR,CLR,,,,,,,,MVFR,,,,,,,,,,,,SPECI,449.0
KHHG 170835Z AUTO 10004KT 10SM CLR 11/07 A2989 RMK AO2 T01090069,KHHG,2023-05-17T08:35:00Z,40.85,-85.45,10.9,6.9,100,4,,10.0,29.890747,,,TRUE,TRUE,,,,,,,CLR,,,,,,,,VFR,,,,,,,,,,,,SPECI,247.0
KHHF 170835Z AUTO 13004KT 10SM CLR 14/12 A2999 RMK AO2 T01410123,KHHF,2023-05-17T08:35:00Z,35.9,-100.4,14.1,12.3,130,4,,10.0,29.991142,,,TRUE,TRUE,,,,,,,CLR,,,,,,,,VFR,,,,,,,,,,,,SPECI,729.0
KHFY 170835Z AUTO 00000KT 10SM CLR 12/12 A2986 RMK AO2 T01220120,KHFY,2023-05-17T08:35:00Z,39.63,-86.08,12.2,12.0,0,0,,10.0,29.861221,,,TRUE,TRUE,,,,,,,CLR,,,,,,,,VFR,,,,,,,,,,,,SPECI,250.0
KHEQ 170835Z AUTO 00000KT 7SM CLR 11/09 A3005 RMK AO2,KHEQ,2023-05-17T08:35:00Z,40.57,-102.28,11.0,9.0,0,0,,7.0,30.050198,,,TRUE,TRUE,,,,,,,CLR,,,,,,,,VFR,,,,,,,,,,,,SPECI,1136.0
KHEG 170835Z AUTO 20003KT 9SM CLR 21/21 A2985 RMK AO2,KHEG,2023-05-17T08:35:00Z,30.28,-81.8,21.0,21.0,200,3,,9.0,29.84941,,,TRUE,TRUE,,,,,,,CLR,,,,,,,,VFR,,,,,,,,,,,,METAR,25.0
KHDL 170835Z AUTO 00000KT M1/4SM FG OVC002 20/20 A2983 RMK AO2,KHDL,2023-05-17T08:35:00Z,31.37,-85.32,20.0,20.0,0,0,,0.25,29.828741,,,TRUE,TRUE,,,,,,FG,OVC,200,,,,,,,LIFR,,,,,,,,,,,,METAR,109.0
KHDE 170835Z AUTO 00000KT 10SM CLR 10/07 A3002 RMK AO2 T01030072,KHDE,2023-05-17T08:35:00Z,40.45,-99.33,10.3,7.2,0,0,,10.0,30.02067,,,TRUE,TRUE,,,,,,,CLR,,,,,,,,VFR,,,,,,,,,,,,SPECI,703.0
KHDC 170835Z AUTO 00000KT 10SM CLR 21/21 A2984 RMK AO2 T02140205,KHDC,2023-05-17T08:35:00Z,30.52,-90.42,21.4,20.5,0,0,,10.0,29.840551,,,TRUE,TRUE,,,,,,,CLR,,,,,,,,VFR,,,,,,,,,,,,METAR,12.0
KHCR 170835Z AUTO 10SM CLR 06/01 A3019 RMK AO2,KHCR,2023-05-17T08:35:00Z,40.48,-111.43,6.0,1.0,,,,10.0,30.188976,,,TRUE,TRUE,,,,,,,CLR,,,,,,,,VFR,,,,,,,,,,,,METAR,1708.0
KHCO 170835Z AUTO 14008KT 10SM 12/03 A2988 RMK AO2,KHCO,2023-05-17T08:35:00Z,48.75,-96.93,12.0,3.0,140,8,,10.0,29.878937,,,TRUE,TRUE,,,,,,,,,,,,,,,,,,,,,,,,,,,SPECI,250.0
KHCD 170835Z AUTO 07004KT 10SM CLR 13/08 A2997 RMK AO2 T01260080,KHCD,2023-05-17T08:35:00Z,44.87,-94.38,12.6,8.0,70,4,,10.0,29.970472,,,TRUE,TRUE,,,,,,,CLR,,,,,,,,VFR,,,,,,,,,,,,SPECI,320.0
KHBV 170835Z AUTO 00000KT 10SM SCT100 21/20 A2994 RMK AO2 T02050197,KHBV,2023-05-17T08:35:00Z,27.35,-98.73,20.5,19.7,0,0,,10.0,29.940945,,,TRUE,TRUE,,,,,,,SCT,10000,,,,,,,VFR,,,,,,,,,,,,METAR,200.0
KHAI 170835Z AUTO 05003KT 10SM CLR 10/05 A2992 RMK AO2 T01020052,KHAI,2023-05-17T08:35:00Z,41.97,-85.6,10.2,5.2,50,3,,10.0,29.920275,,,TRUE,TRUE,,,,,,,CLR,,,,,,,,VFR,,,,,,,,,,,,SPECI,250.0
KHAF 170835Z AUTO 01003KT 3SM BR OVC003 11/11 A3000 RMK AO2,KHAF,2023-05-17T08:35:00Z,37.52,-122.5,11.0,11.0,10,3,,3.0,30.0,,,TRUE,TRUE,,,,,,BR,OVC,300,,,,,,,LIFR,,,,,,,,,,,,SPECI,11.0
KHAE 170835Z AUTO 00000KT 10SM CLR 12/10 A2990 RMK AO2,KHAE,2023-05-17T08:35:00Z,39.73,-91.45,12.0,10.0,0,0,,10.0,29.899607,,,TRUE,TRUE,,,,,,,CLR,,,,,,,,VFR,,,,,,,,,,,,METAR,230.0
KGZS 170835Z AUTO 00000KT 20/20 RMK A01,KGZS,2023-05-17T08:35:00Z,35.15,-87.05,20.0,20.0,0,0,,,,,,TRUE,TRUE,,,,,,,,,,,,,,,,,,,,,,,,,,,SPECI,198.0
KGZL 170835Z AUTO 36006KT 10SM OVC029 18/16 A2993 RMK AO2,KGZL,2023-05-17T08:35:00Z,35.28,-95.1,18.0,16.0,360,6,,10.0,29.929134,,,TRUE,TRUE,,,,,,,OVC,2900,,,,,,,MVFR,,,,,,,,,,,,SPECI,176.0
KGYI 170835Z AUTO 00000KT 7SM CLR 15/12 A2996 RMK AO2 T01450116 TSNO,KGYI,2023-05-17T08:35:00Z,33.72,-96.67,14.5,11.6,0,0,,7.0,29.958662,,,TRUE,TRUE,,,TRUE,,,,CLR,,,,,,,,VFR,,,,,,,,,,,,SPECI,227.0
KGYH 170835Z AUTO 26008KT 10SM CLR 19/18 A2976 RMK A02 T01890180,KGYH,2023-05-17T08:35:00Z,34.75,-82.38,18.9,18.0,260,8,,10.0,29.760826,,,TRUE,TRUE,,,,,,,CLR,,,,,,,,VFR,,,,,,,,,,,,SPECI,283.0
KGYF 170835Z AUTO 19008KT 10SM CLR A2989 RMK AO2,KGYF,2023-05-17T08:35:00Z,26.13,-94.9,,,190,8,,10.0,29.890747,,,TRUE,TRUE,,,,,,,CLR,,,,,,,,VFR,,,,,,,,,,,,METAR,65.0
KGYB 170835Z AUTO 00000KT 7SM CLR 19/18 A2994 RMK AO2 T01850180,KGYB,2023-05-17T08:35:00Z,30.17,-96.98,18.5,18.0,0,0,,7.0,29.940945,,,TRUE,TRUE,,,,,,,CLR,,,,,,,,VFR,,,,,,,,,,,,SPECI,140.0
KGWR 170835Z AUTO 20003KT 7SM FEW003 FEW080 OVC090 14/14 A2991 RMK A01,KGWR,2023-05-17T08:35:00Z,46.22,-97.65,14.0,14.0,200,3,,7.0,29.911417,,,TRUE,TRUE,,,,,,,FEW,300,FEW,8000,OVC,9000,,,VFR,,,,,,,,,,,,SPECI,381.0
KGWO 170835Z AUTO 09004KT 9SM VCTS FEW012 BKN110 22/20 A2982 RMK AO2 LTG DSNT NE AND E AND W RAB01E18 TSE29 P0024 T02170200,KGWO,2023-05-17T08:35:00Z,33.5,-90.08,21.7,20.0,90,4,,9.0,29.819881,,,TRUE,TRUE,,,,,,VCTS,FEW,1200,BKN,11000,,,,,VFR,,,,,,0.24,,,,,,METAR,42.0
KGWB 170835Z AUTO 06004KT 10SM CLR 08/06 A2991 RMK AO2,KGWB,2023-05-17T08:35:00Z,41.3,-85.07,8.0,6.0,60,4,,10.0,29.911417,,,TRUE,TRUE,,,,,,,CLR,,,,,,,,VFR,,,,,,,,,,,,METAR,268.0
KGVT 170835Z AUTO 00000KT 10SM CLR 16/16 A2993 RMK AO2 TSNO T01600157,KGVT,2023-05-17T08:35:00Z,33.07,-96.07,16.0,15.7,0,0,,10.0,29.929134,,,TRUE,TRUE,,,TRUE,,,,CLR,,,,,,,,VFR,,,,,,,,,,,,METAR,165.0
KGVE 170835Z AUTO 00000KT 10SM OVC110 17/14 A2967 RMK AO1 T01670139,KGVE,2023-05-17T08:35:00Z,38.15,-78.17,16.7,13.9,0,0,,10.0,29.66929,,,TRUE,TRUE,,,,,,,OVC,11000,,,,,,,VFR,,,,,,,,,,,,METAR,138.0
KGRY 170835Z AUTO VRB03KT 10SM FEW060 FEW070 27/22 A2989 RMK A01,KGRY,2023-05-17T08:35:00Z,27.63,-90.45,27.0,22.0,0,3,,10.0,29.890747,,,TRUE,TRUE,,,,,,,FEW,6000,FEW,7000,,,,,VFR,,,,,,,,,,,,SPECI,58.0
KGRN 170835Z AUTO 00000KT 10SM CLR 08/07 A3002 RMK AO2 T00800070,KGRN,2023-05-17T08:35:00Z,42.8,-102.17,8.0,7.0,0,0,,10.0,30.02067,,,TRUE,TRUE,,,,,,,CLR,,,,,,,,VFR,,,,,,,,,,,,SPECI,1080.0
KGPM 170835Z AUTO 00000KT 10SM CLR 18/15 A2995 RMK AO2 T01820145,KGPM,2023-05-17T08:35:00Z,32.7,-97.05,18.2,14.5,0,0,,10.0,29.949802,,,TRUE,TRUE,,,,,,,CLR,,,,,,,,VFR,,,,,,,,,,,,SPECI,178.0
KGPH 170835Z AUTO 00000KT 10SM CLR 11/11 A2994 RMK AO2,KGPH,2023-05-17T08:35:00Z,39.33,-94.32,11.0,11.0,0,0,,10.0,29.940945,,,TRUE,TRUE,,,,,,,CLR,,,,,,,,VFR,,,,,,,,,,,,METAR,233.0
KGPC 170835Z AUTO 32004KT 7SM CLR 12/11 A2986 RMK AO2 T01200114,KGPC,2023-05-17T08:35:00Z,39.63,-86.82,12.0,11.4,320,4,,7.0,29.861221,,,TRUE,TRUE,,,,,,,CLR,,,,,,,,VFR,,,,,,,,,,,,METAR,254.0
KGOO 170835Z AUTO 10005KT 10SM CLR 20/01 A3005 RMK A01,KGOO,2023-05-17T08:35:00Z,39.22,-121.0,20.0,1.0,100,5,,10.0,30.050198,,,TRUE,TRUE,,,,,,,CLR,,,,,,,,VFR,,,,,,,,,,,,SPECI,950.0
KGNT 170835Z AUTO 00000KT 10SM BKN100 10/07 A3023 RMK AO2 T01020072,KGNT,2023-05-17T08:35:00Z,35.17,-107.9,10.2,7.2,0,0,,10.0,30.230314,,,TRUE,TRUE,,,,,,,BKN,10000,,,,,,,VFR,,,,,,,,,,,,SPECI,1988.0
KGNB 170835Z AUTO 14003KT 10SM CLR 02/01 A3032 RMK AO2 T00160006,KGNB,2023-05-17T08:35:00Z,40.08,-105.92,1.6,0.6,140,3,,10.0,30.318897,,,TRUE,TRUE,,,,,,,CLR,,,,,,,,VFR,,,,,,,,,,,,METAR,2500.0
KGMJ 170835Z AUTO 00000KT 9SM OVC024 17/17 A2994 RMK AO2,KGMJ,2023-05-17T08:35:00Z,36.6,-94.73,17.0,17.0,0,0,,9.0,29.940945,,,TRUE,TRUE,,,,,,,OVC,2400,,,,,,,MVFR,,,,,,,,,,,,METAR,251.0
KGLY 170835Z AUTO 00000KT M1/4SM FG VV000 12/12 A2994 RMK AO2,KGLY,2023-05-17T08:35:00Z,38.35,-93.68,12.0,12.0,0,0,,0.25,29.940945,,,TRUE,TRUE,,,,,,FG,OVX,0,,,,,,,LIFR,,,,,,,,,,,0,METAR,247.0
KGLW 170835Z AUTO 00000KT 10SM CLR 15/15 A2987 RMK AO2 T01530153,KGLW,2023-05-17T08:35:00Z,37.03,-85.95,15.3,15.3,0,0,,10.0,29.870079,,,TRUE,TRUE,,,,,,,CLR,,,,,,,,VFR,,,,,,,,,,,,METAR,216.0
KGKT 170835Z AUTO 00000KT 10SM FEW023 BKN029 OVC048 18/18 A2982 RMK A01,KGKT,2023-05-17T08:35:00Z,35.85,-83.53,18.0,18.0,0,0,,10.0,29.819881,,,TRUE,TRUE,,,,,,,FEW,2300,BKN,2900,OVC,4800,,,MVFR,,,,,,,,,,,,SPECI,305.0
KGIC 170835Z AUTO 00000KT 10SM CLR 09/08 A3010 RMK AO1,KGIC,2023-05-17T08:35:00Z,45.95,-116.12,9.0,8.0,0,0,,10.0,30.100393,,,TRUE,TRUE,,,,,,,CLR,,,,,,,,VFR,,,,,,,,,,,,SPECI,1002.0
KGHW 170835Z AUTO 09009KT 10SM CLR 12/08 A2996 RMK AO2,KGHW,2023-05-17T08:35:00Z,45.63,-95.32,12.0,8.0,90,9,,10.0,29.958662,,,TRUE,TRUE,,,,,,,CLR,,,,,,,,VFR,,,,,,,,,,,,SPECI,423.0
KGHG 170835Z AUTO 02007KT 330V040 10SM BKN016 BKN090 OVC110 13/09 A2957 RMK AO2,KGHG,2023-05-17T08:35:00Z,42.1,-70.67,13.0,9.0,20,7,,10.0,29.568897,,,TRUE,TRUE,,,,,,,BKN,1600,BKN,9000,OVC,11000,,,MVFR,,,,,,,,,,,,SPECI,3.0
KGGW 170835Z AUTO 36025G36KT 1 1/2SM HZ SCT011 BKN120 17/07 A2985 RMK AO2 PK WND 01036/0832 T01670067,KGGW,2023-05-17T08:35:00Z,48.22,-106.62,16.7,6.7,360,25,36,1.5,29.84941,,,TRUE,TRUE,,,,,,HZ,SCT,1100,BKN,12000,,,,,IFR,,,,,,,,,,,,METAR,698.0
KGGI 170835Z AUTO 32003KT 10SM CLR 15/10 A2991 RMK AO2 T01520100,KGGI,2023-05-17T08:35:00Z,41.72,-92.73,15.2,10.0,320,3,,10.0,29.911417,,,TRUE,TRUE,,,,,,,CLR,,,,,,,,VFR,,,,,,,,,,,,SPECI,305.0
KGGF 170835Z AUTO 23005KT 7SM CLR 10/10 A3004 RMK AO2,KGGF,2023-05-17T08:35:00Z,40.87,-101.73,10.0,10.0,230,5,,7.0,30.041338,,,TRUE,TRUE,,,,,,,CLR,,,,,,,,VFR,,,,,,,,,,,,SPECI,1044.0
KGGE 170835Z AUTO 22005KT 10SM CLR 21/20 A2975 RMK AO2,KGGE,2023-05-17T08:35:00Z,33.32,-79.32,21.0,20.0,220,5,,10.0,29.749016,,,TRUE,TRUE,,,,,,,CLR,,,,,,,,VFR,,,,,,,,,,,,METAR,9.0
KGDJ 170835Z AUTO 00000KT 10SM CLR 16/15 A2996 RMK AO2 T01570152,KGDJ,2023-05-17T08:35:00Z,32.45,-97.82,15.7,15.2,0,0,,10.0,29.958662,,,TRUE,TRUE,,,,,,,CLR,,,,,,,,VFR,,,,,,,,,,,,SPECI,235.0
KGDB 170835Z AUTO 09005KT 10SM CLR 15/10 A2994 RMK AO2 T01470104,KGDB,2023-05-17T08:35:00Z,44.75,-95.55,14.7,10.4,90,5,,10.0,29.940945,,,TRUE,TRUE,,,,,,,CLR,,,,,,,,VFR,,,,,,,,,,,,SPECI,316.0
KGDA 170835Z AUTO 00000KT 10SM CLR 14/14 A2988 RMK AO2 T01410137 PWINO,KGDA,2023-05-17T08:35:00Z,37.33,-88.1,14.1,13.7,0,0,,10.0,29.878937,,,TRUE,TRUE,,,,,TRUE,,CLR,,,,,,,,VFR,,,,,,,,,,,,METAR,199.0
KGCY 170835Z AUTO 32004KT 10SM BKN007 OVC013 17/16 A2982 RMK A01,KGCY,2023-05-17T08:35:00Z,36.2,-82.82,17.0,16.0,320,4,,10.0,29.819881,,,TRUE,TRUE,,,,,,,BKN,700,OVC,1300,,,,,IFR,,,,,,,,,,,,SPECI,488.0
KGCM 170835Z AUTO 32005KT 10SM OVC022 17/16 A2995 RMK AO2,KGCM,2023-05-17T08:35:00Z,36.3,-95.48,17.0,16.0,320,5,,10.0,29.949802,,,TRUE,TRUE,,,,,,,OVC,2200,,,,,,,MVFR,,,,,,,,,,,,METAR,215.0
KGCD 170835Z AUTO 11006KT 10SM SCT120 13/08 A3012 RMK AO2 T01340079,KGCD,2023-05-17T08:35:00Z,44.4,-118.97,13.4,7.9,110,6,,10.0,30.121063,,,TRUE,TRUE,,,,,,,SCT,12000,,,,,,,VFR,,,,,,,,,,,,SPECI,1122.0
KGBG 170835Z AUTO 06010KT 10SM CLR 13/08 A2992 RMK AO2 T01280077,KGBG,2023-05-17T08:35:00Z,40.93,-90.43,12.8,7.7,60,10,,10.0,29.920275,,,TRUE,TRUE,,,,,,,CLR,,,,,,,,VFR,,,,,,,,,,,,SPECI,230.0
KGAO 170835Z AUTO 26006KT 10SM CLR 26/23 A2986 RMK AO2 T02600225,KGAO,2023-05-17T08:35:00Z,29.45,-90.27,26.0,22.5,260,6,,10.0,29.861221,,,TRUE,TRUE,,,,,,,CLR,,,,,,,,VFR,,,,,,,,,,,,METAR,0.0
KGAF 170835Z AUTO 16006KT 10SM CLR 09/03 A2989 RMK AO2,KGAF,2023-05-17T08:35:00Z,48.4,-97.37,9.0,3.0,160,6,,10.0,29.890747,,,TRUE,TRUE,,,,,,,CLR,,,,,,,,VFR,,,,,,,,,,,,SPECI,250.0
KFZG 170835Z AUTO 00000KT 10SM CLR 20/19 A2983 RMK AO2 T01950187,KFZG,2023-05-17T08:35:00Z,31.68,-83.27,19.5,18.7,0,0,,10.0,29.828741,,,TRUE,TRUE,,,,,,,CLR,,,,,,,,VFR,,,,,,,,,,,,METAR,105.0
KFYM 170835Z AUTO 36004KT 10SM SCT005 SCT012 OVC019 20/20 A2986 RMK A01,KFYM,2023-05-17T08:35:00Z,35.07,-86.57,20.0,20.0,360,4,,10.0,29.861221,,,TRUE,TRUE,,,,,,,SCT,500,SCT,1200,OVC,1900,,,MVFR,,,,,,,,,,,,SPECI,297.0
KFYJ 170835Z AUTO 00000KT 10SM OVC045 18/17 A2965 RMK AO1 T01810171,KFYJ,2023-05-17T08:35:00Z,37.52,-76.77,18.1,17.1,0,0,,10.0,29.648623,,,TRUE,TRUE,,,,,,,OVC,4500,,,,,,,VFR,,,,,,,,,,,,METAR,3.0
KFYG 170835Z AUTO 00000KT M1/4SM FG BKN060 BKN075 OVC120 14/14 A2990 RMK AO2,KFYG,2023-05-17T08:35:00Z,38.58,-91.0,14.0,14.0,0,0,,0.25,29.899607,,,TRUE,TRUE,,,,,,FG,BKN,6000,BKN,7500,OVC,12000,,,LIFR,,,,,,,,,,,,METAR,147.0
KFYE 170835Z AUTO 00000KT 9SM FEW021 19/18 A2985 RMK A01,KFYE,2023-05-17T08:35:00Z,35.2,-89.38,19.0,18.0,0,0,,9.0,29.84941,,,TRUE,TRUE,,,,,,,FEW,2100,,,,,,,VFR,,,,,,,,,,,,SPECI,133.0
KFXY 170835Z AUTO 07003KT 10SM CLR 13/07 A2993 RMK AO2,KFXY,2023-05-17T08:35:00Z,43.23,-93.62,13.0,7.0,70,3,,10.0,29.929134,,,TRUE,TRUE,,,,,,,CLR,,,,,,,,VFR,,,,,,,,,,,,SPECI,366.0
KFWS 170835Z AUTO 00000KT 5SM BR CLR 15/14 A2995 RMK AO2 T01520144,KFWS,2023-05-17T08:35:00Z,32.57,-97.3,15.2,14.4,0,0,,5.0,29.949802,,,TRUE,TRUE,,,,,,BR,CLR,,,,,,,,MVFR,,,,,,,,,,,,SPECI,211.0
KFWC 170835Z AUTO 00000KT 3SM BR CLR 13/13 A2987 RMK AO1 T01300128,KFWC,2023-05-17T08:35:00Z,38.38,-88.42,13.0,12.8,0,0,,3.0,29.870079,,,TRUE,TRUE,,,,,,BR,CLR,,,,,,,,MVFR,,,,,,,,,,,,SPECI,131.0
KFWB 170835Z AUTO 00000KT 9SM OVC007 16/16 A2994 RMK AO2,KFWB,2023-05-17T08:35:00Z,36.7,-93.4,16.0,16.0,0,0,,9.0,29.940945,,,TRUE,TRUE,,,,,,,OVC,700,,,,,,,IFR,,,,,,,,,,,,METAR,392.0
KFVX 170835Z AUTO 00000KT 10SM SCT065 OVC095 18/18 A2967 RMK AO2 T01790178,KFVX,2023-05-17T08:35:00Z,37.35,-78.43,17.9,17.8,0,0,,10.0,29.66929,,,TRUE,TRUE,,,,,,,SCT,6500,OVC,9500,,,,,VFR,,,,,,,,,,,,SPECI,129.0
KFTN 170835Z AUTO 03004KT 9SM CLR 20/19 A2996 RMK A01,KFTN,2023-05-17T08:35:00Z,28.22,-100.02,20.0,19.0,30,4,,9.0,29.958662,,,TRUE,TRUE,,,,,,,CLR,,,,,,,,VFR,,,,,,,,,,,,SPECI,236.0
KFTK 170835Z AUTO 00000KT 5/8SM R18/2800V4000FT BR CLR 11/11 A2985 RMK AO2 SLP108 $,KFTK,2023-05-17T08:35:00Z,37.9,-85.97,11.0,11.0,0,0,,0.63,29.84941,1010.8,,TRUE,TRUE,TRUE,,,,,BR,CLR,,,,,,,,LIFR,,,,,,,,,,,,SPECI,225.0
KFSW 170835Z AUTO 35003KT 10SM 14/11 A2988 RMK AO2,KFSW,2023-05-17T08:35:00Z,40.67,-91.32,14.0,11.0,350,3,,10.0,29.878937,,,TRUE,TRUE,,,,,,,,,,,,,,,,,,,,,,,,,,,SPECI,219.0
KFSE 170835Z AUTO 14007KT 10SM CLR 12/04 A2992 RMK AO2,KFSE,2023-05-17T08:35:00Z,47.58,-95.77,12.0,4.0,140,7,,10.0,29.920275,,,TRUE,TRUE,,,,,,,CLR,,,,,,,,VFR,,,,,,,,,,,,SPECI,389.0
KFRH 170835Z AUTO 00000KT 7SM CLR 10/08 A2987 RMK AO1,KFRH,2023-05-17T08:35:00Z,38.5,-86.63,10.0,8.0,0,0,,7.0,29.870079,,,TRUE,TRUE,,,,,,,CLR,,,,,,,,VFR,,,,,,,,,,,,SPECI,241.0
KFPY 170835Z AUTO 00000KT 7SM SCT019 22/21 A2985 RMK AO2 T02200212,KFPY,2023-05-17T08:35:00Z,30.07,-83.57,22.0,21.2,0,0,,7.0,29.84941,,,TRUE,TRUE,,,,,,,SCT,1900,,,,,,,VFR,,,,,,,,,,,,METAR,12.0
KFPK 170835Z AUTO 01003KT 10SM CLR 06/02 A2993 RMK AO2 T00580020,KFPK,2023-05-17T08:35:00Z,42.57,-84.82,5.8,2.0,10,3,,10.0,29.929134,,,TRUE,TRUE,,,,,,,CLR,,,,,,,,VFR,,,,,,,,,,,,SPECI,269.0
KFOT 170835Z AUTO 00000KT 3SM OVC002 10/10 A3003 RMK AO1,KFOT,2023-05-17T08:35:00Z,40.55,-124.13,10.0,10.0,0,0,,3.0,30.029528,,,TRUE,TRUE,,,,,,,OVC,200,,,,,,,LIFR,,,,,,,,,,,,METAR,118.0
KFOA 170835Z AUTO 30008KT 10SM CLR 15/14 A2988 RMK AO2,KFOA,2023-05-17T08:35:00Z,38.67,-88.45,15.0,14.0,300,8,,10.0,29.878937,,,TRUE,TRUE,,,,,,,CLR,,,,,,,,VFR,,,,,,,,,,,,SPECI,141.0
KFMM 170835Z AUTO 25007KT 10SM CLR 11/11 A3007 RMK AO2,KFMM,2023-05-17T08:35:00Z,40.33,-103.8,11.0,11.0,250,7,,10.0,30.070866,,,TRUE,TRUE,,,,,,,CLR,,,,,,,,VFR,,,,,,,,,,,,SPECI,1376.0
KFLY 170835Z AUTO 32003KT 10SM OVC060 11/08 A3022 RMK AO2 T01050084,KFLY,2023-05-17T08:35:00Z,38.95,-104.57,10.5,8.4,320,3,,10.0,30.221457,,,TRUE,TRUE,,,,,,,OVC,6000,,,,,,,VFR,,,,,,,,,,,,SPECI,2096.0
KFKS 170835Z AUTO 01003KT 10SM CLR 04/01 A3001 RMK AO2 T00430010,KFKS,2023-05-17T08:35:00Z,44.63,-86.2,4.3,1.0,10,3,,10.0,30.008858,,,TRUE,TRUE,,,,,,,CLR,,,,,,,,VFR,,,,,,,,,,,,SPECI,189.0
KFKR 170835Z AUTO 34006KT 10SM FEW032 SCT039 OVC110 12/09 A2986 RMK AO2,KFKR,2023-05-17T08:35:00Z,40.27,-86.57,12.0,9.0,340,6,,10.0,29.861221,,,TRUE,TRUE,,,,,,,FEW,3200,SCT,3900,OVC,11000,,,VFR,,,,,,,,,,,,SPECI,260.0
KFKN 170835Z AUTO 27008KT 10SM BKN010 OVC014 19/19 A2965 RMK AO2 T01910188,KFKN,2023-05-17T08:35:00Z,36.7,-76.9,19.1,18.8,270,8,,10.0,29.648623,,,TRUE,TRUE,,,,,,,BKN,1000,OVC,1400,,,,,MVFR,,,,,,,,,,,,SPECI,9.0
KFIN 170835Z AUTO 00000KT 10SM CLR 21/21 A2986 RMK AO2 T02100209,KFIN,2023-05-17T08:35:00Z,29.47,-81.2,21.0,20.9,0,0,,10.0,29.861221,,,TRUE,TRUE,,,,,,,CLR,,,,,,,,VFR,,,,,,,,,,,,METAR,10.0
KFHB 170835Z AUTO 23009KT 10SM CLR 23/ A2982 RMK AO2,KFHB,2023-05-17T08:35:00Z,30.62,-81.47,23.0,,230,9,,10.0,29.819881,,,TRUE,TRUE,,,,,,,CLR,,,,,,,,VFR,,,,,,,,,,,,METAR,4.0
KFGX 170835Z AUTO 00000KT 10SM CLR 11/11 A2986 RMK AO2 T01110108,KFGX,2023-05-17T08:35:00Z,38.55,-83.75,11.1,10.8,0,0,,10.0,29.861221,,,TRUE,TRUE,,,,,,,CLR,,,,,,,,VFR,,,,,,,,,,,,SPECI,279.0
KFGN 170835Z AUTO 16006KT 10SM SCT110 11/04 A2994 RMK AO2,KFGN,2023-05-17T08:35:00Z,49.32,-94.9,11.0,4.0,160,6,,10.0,29.940945,,,TRUE,TRUE,,,,,,,SCT,11000,,,,,,,VFR,,,,,,,,,,,,SPECI,327.0
KFFX 170835Z AUTO 03003KT 10SM CLR 05/01 A2997 RMK AO2 T00480013,KFFX,2023-05-17T08:35:00Z,43.43,-86.0,4.8,1.3,30,3,,10.0,29.970472,,,TRUE,TRUE,,,,,,,CLR,,,,,,,,VFR,,,,,,,,,,,,SPECI,234.0
KFFM 170835Z AUTO 12008KT 10SM CLR 16/08 A2992 RMK AO2,KFFM,2023-05-17T08:35:00Z,46.28,-96.15,16.0,8.0,120,8,,10.0,29.920275,,,TRUE,TRUE,,,,,,,CLR,,,,,,,,VFR,,,,,,,,,,,,SPECI,362.0
KFFL 170835Z AUTO 00000KT 10SM OVC090 14/09 A2989 RMK A01,KFFL,2023-05-17T08:35:00Z,41.05,-91.97,14.0,9.0,0,0,,10.0,29.890747,,,TRUE,TRUE,,,,,,,OVC,9000,,,,,,,VFR,,,,,,,,,,,,SPECI,240.0
KFET 170835Z AUTO 28004KT 10SM CLR 12/09 A2996 RMK AO2 T01170087,KFET,2023-05-17T08:35:00Z,41.45,-96.52,11.7,8.7,280,4,,10.0,29.958662,,,TRUE,TRUE,,,,,,,CLR,,,,,,,,VFR,,,,,,,,,,,,SPECI,366.0
KFEP 170835Z AUTO 07005KT 10SM CLR 08/04 A2999 RMK AO2 T00790044,KFEP,2023-05-17T08:35:00Z,42.25,-89.58,7.9,4.4,70,5,,10.0,29.991142,,,TRUE,TRUE,,,,,,,CLR,,,,,,,,VFR,,,,,,,,,,,,SPECI,255.0
KFDW 170835Z AUTO 26003KT 10SM CLR 20/17 A2974 RMK AO1,KFDW,2023-05-17T08:35:00Z,34.32,-81.12,20.0,17.0,260,3,,10.0,29.740158,,,TRUE,TRUE,,,,,,,CLR,,,,,,,,VFR,,,,,,,,,,,,METAR,174.0
KFDK 170835Z AUTO 14004KT 7SM CLR 17/11 A2965 RMK AO2,KFDK,2023-05-17T08:35:00Z,39.42,-77.37,17.0,11.0,140,4,,7.0,29.648623,,,TRUE,TRUE,,,,,,,CLR,,,,,,,,VFR,,,,,,,,,,,,SPECI,82.0
KFBR 170835Z AUTO 25010KT 10SM CLR 08/00 A3027 RMK AO2 T00791001,KFBR,2023-05-17T08:35:00Z,41.4,-110.4,7.9,-0.1,250,10,,10.0,30.268702,,,TRUE,TRUE,,,,,,,CLR,,,,,,,,VFR,,,,,,,,,,,,METAR,2140.0
KFBL 170835Z AUTO 04004KT 10SM CLR 12/07 A2995 RMK AO2,KFBL,2023-05-17T08:35:00Z,44.33,-93.32,12.0,7.0,40,4,,10.0,29.949802,,,TRUE,TRUE,,,,,,,CLR,,,,,,,,VFR,,,,,,,,,,,,SPECI,318.0
KF70 170835Z AUTO 00000KT 10SM CLR 15/13 A2997 RMK AO2,KF70,2023-05-17T08:35:00Z,33.57,-117.13,15.0,13.0,0,0,,10.0,29.970472,,,TRUE,TRUE,,,,,,,CLR,,,,,,,,VFR,,,,,,,,,,,,METAR,406.0
KF46 170835Z AUTO 00000KT 10SM CLR 17/17 A2994 RMK AO2 T01680168,KF46,2023-05-17T08:35:00Z,32.93,-96.43,16.8,16.8,0,0,,10.0,29.940945,,,TRUE,TRUE,,,,,,,CLR,,,,,,,,VFR,,,,,,,,,,,,SPECI,175.0
KF44 170835Z AUTO 01004KT 10SM CLR 18/16 A2991 RMK AO2,KF44,2023-05-17T08:35:00Z,32.17,-95.83,18.0,16.0,10,4,,10.0,29.911417,,,TRUE,TRUE,,,,,,,CLR,,,,,,,,VFR,,,,,,,,,,,,SPECI,137.0
KF17 170835Z AUTO 00000KT 10SM CLR 19/17 A2991 RMK AO2,KF17,2023-05-17T08:35:00Z,31.83,-94.15,19.0,17.0,0,0,,10.0,29.911417,,,TRUE,TRUE,,,,,,,CLR,,,,,,,,VFR,,,,,,,,,,,,SPECI,93.0
KF05 170835Z AUTO 07003KT 10SM CLR 17/16 A2996 RMK AO2 T01650160,KF05,2023-05-17T08:35:00Z,34.23,-99.28,16.5,16.0,70,3,,10.0,29.958662,,,TRUE,TRUE,,,,,,,CLR,,,,,,,,VFR,,,,,,,,,,,,METAR,384.0
KF00 170835Z AUTO 31004KT 10SM CLR 16/16 A2994 RMK AO2 T01580156,KF00,2023-05-17T08:35:00Z,33.62,-96.18,15.8,15.6,310,4,,10.0,29.940945,,,TRUE,TRUE,,,,,,,CLR,,,,,,,,VFR,,,,,,,,,,,,SPECI,189.0
KEZZ 170835Z AUTO 27006KT 10SM CLR 13/11 A2995 RMK AO2 T01260112,KEZZ,2023-05-17T08:35:00Z,39.72,-94.28,12.6,11.2,270,6,,10.0,29.949802,,,TRUE,TRUE,,,,,,,CLR,,,,,,,,VFR,,,,,,,,,,,,METAR,317.0
KEZP 170835Z AUTO 29009KT 10SM SCT049 BKN055 BKN090 25/21 A2990 RMK A01,KEZP,2023-05-17T08:35:00Z,28.22,-92.8,25.0,21.0,290,9,,10.0,29.899607,,,TRUE,TRUE,,,,,,,SCT,4900,BKN,5500,BKN,9000,,,VFR,,,,,,,,,,,,METAR,30.0
KEZM 170835Z AUTO 00000KT 10SM CLR 19/19 A2982 RMK AO2,KEZM,2023-05-17T08:35:00Z,32.22,-83.13,19.0,19.0,0,0,,10.0,29.819881,,,TRUE,TRUE,,,,,,,CLR,,,,,,,,VFR,,,,,,,,,,,,SPECI,86.0
KEZF 170835Z AUTO 00000KT 10SM OVC100 17/17 A2965 RMK AO2 T01740174,KEZF,2023-05-17T08:35:00Z,38.27,-77.45,17.4,17.4,0,0,,10.0,29.648623,,,TRUE,TRUE,,,,,,,OVC,10000,,,,,,,VFR,,,,,,,,,,,,SPECI,26.0
KEVU 170835Z AUTO 28005KT 10SM CLR 14/11 A2993 RMK AO2 T01440112,KEVU,2023-05-17T08:35:00Z,40.35,-94.92,14.4,11.2,280,5,,10.0,29.929134,,,TRUE,TRUE,,,,,,,CLR,,,,,,,,VFR,,,,,,,,,,,,METAR,351.0
KEVM 170835Z AUTO 00000KT 10SM CLR 02/00 A3003 RMK AO2 T00180003,KEVM,2023-05-17T08:35:00Z,47.42,-92.5,1.8,0.3,0,0,,10.0,30.029528,,,TRUE,TRUE,,,,,,,CLR,,,,,,,,VFR,,,,,,,,,,,,SPECI,419.0
KETB 170835Z AUTO 01004KT 10SM CLR 03/00 A3001 RMK AO2,KETB,2023-05-17T08:35:00Z,43.42,-88.13,3.0,0.0,10,4,,10.0,30.008858,,,TRUE,TRUE,,,,,,,CLR,,,,,,,,VFR,,,,,,,,,,,,SPECI,269.0
KERY 170835Z AUTO 03004KT 10SM CLR 00/M03 A3004 RMK AO2 T10031030,KERY,2023-05-17T08:35:00Z,46.3,-85.45,-0.3,-3.0,30,4,,10.0,30.041338,,,TRUE,TRUE,,,,,,,CLR,,,,,,,,VFR,,,,,,,,,,,,SPECI,261.0
KERV 170835Z AUTO 00000KT 4SM BR CLR 16/16 A2998 RMK AO2 T01590158,KERV,2023-05-17T08:35:00Z,29.98,-99.08,15.9,15.8,0,0,,4.0,29.97933,,,TRUE,TRUE,,,,,,BR,CLR,,,,,,,,MVFR,,,,,,,,,,,,SPECI,483.0
KEQA 170835Z AUTO 00000KT 1/4SM FG OVC002 13/12 A2999 RMK AO2,KEQA,2023-05-17T08:35:00Z,37.78,-96.82,13.0,12.0,0,0,,0.25,29.991142,,,TRUE,TRUE,,,,,,FG,OVC,200,,,,,,,LIFR,,,,,,,,,,,,METAR,422.0
KEOK 170835Z AUTO 32005KT 10SM OVC095 14/11 A2988 RMK A01,KEOK,2023-05-17T08:35:00Z,40.47,-91.42,14.0,11.0,320,5,,10.0,29.878937,,,TRUE,TRUE,,,,,,,OVC,9500,,,,,,,VFR,,,,,,,,,,,,SPECI,206.0
KEOE 170835Z AUTO 26005KT 10SM CLR 19/18 A2977 RMK AO2,KEOE,2023-05-17T08:35:00Z,34.32,-81.63,19.0,18.0,260,5,,10.0,29.769686,,,TRUE,TRUE,,,,,,,CLR,,,,,,,,VFR,,,,,,,,,,,,SPECI,166.0
KENL 170835Z AUTO 00000KT 3SM BR CLR 14/14 A2989 RMK AO2 T01370137,KENL,2023-05-17T08:35:00Z,38.52,-89.1,13.7,13.7,0,0,,3.0,29.890747,,,TRUE,TRUE,,,,,,BR,CLR,,,,,,,,MVFR,,,,,,,,,,,,METAR,161.0
KEMV 170835Z AUTO 26003KT 10SM SCT007 BKN070 OVC090 19/18 A2967 RMK AO2 T01850180,KEMV,2023-05-17T08:35:00Z,36.68,-77.48,18.5,18.0,260,3,,10.0,29.66929,,,TRUE,TRUE,,,,,,,SCT,700,BKN,7000,OVC,9000,,,VFR,,,,,,,,,,,,SPECI,35.0
KEMM 170835Z AUTO 33009KT 10SM CLR 06/01 A3025 RMK AO2 TSNO,KEMM,2023-05-17T08:35:00Z,41.82,-110.55,6.0,1.0,330,9,,10.0,30.250984,,,TRUE,TRUE,,,TRUE,,,,CLR,,,,,,,,VFR,,,,,,,,,,,,SPECI,2219.0
KELO 170835Z AUTO 00000KT 10SM CLR 01/M01 A3004 RMK AO2,KELO,2023-05-17T08:35:00Z,47.82,-91.83,1.0,-1.0,0,0,,10.0,30.041338,,,TRUE,TRUE,,,,,,,CLR,,,,,,,,VFR,,,,,,,,,,,,SPECI,438.0
KELK 170835Z AUTO 11004KT 7SM CLR 14/14 A2999 RMK AO2 SLP441 T01410141 $,KELK,2023-05-17T08:35:00Z,35.43,-99.4,14.1,14.1,110,4,,7.0,29.991142,1044.1,,TRUE,TRUE,TRUE,,,,,,CLR,,,,,,,,VFR,,,,,,,,,,,,SPECI,603.0
KELA 170835Z AUTO 00000KT 7SM SCT120 20/19 A2992 RMK AO2 T01980193,KELA,2023-05-17T08:35:00Z,29.6,-96.32,19.8,19.3,0,0,,7.0,29.920275,,,TRUE,TRUE,,,,,,,SCT,12000,,,,,,,VFR,,,,,,,,,,,,SPECI,56.0
KEKX 170835Z AUTO 00000KT 1 3/4SM BR VV007 11/11 A2988 RMK AO2 VIS 1/2V5 T01120112,KEKX,2023-05-17T08:35:00Z,37.68,-85.92,11.2,11.2,0,0,,1.75,29.878937,,,TRUE,TRUE,,,,,,BR,OVX,0,,,,,,,LIFR,,,,,,,,,,,700,METAR,234.0
KEKS 170835Z AUTO 15008KT 10SM FEW055 SCT070 BKN095 10/06 A3021 RMK AO2,KEKS,2023-05-17T08:35:00Z,45.27,-111.65,10.0,6.0,150,8,,10.0,30.209646,,,TRUE,TRUE,,,,,,,FEW,5500,SCT,7000,BKN,9500,,,VFR,,,,,,,,,,,,SPECI,1636.0
KEKE 170835Z AUTO 22011KT 10SM CLR 25/22 A2981 RMK A01,KEKE,2023-05-17T08:35:00Z,28.5,-91.58,25.0,22.0,220,11,,10.0,29.811024,,,TRUE,TRUE,,,,,,,CLR,,,,,,,,VFR,,,,,,,,,,,,SPECI,31.0
KEIK 170835Z AUTO 00000KT 10SM CLR 09/07 A3011 RMK AO2 T00910071,KEIK,2023-05-17T08:35:00Z,40.02,-105.05,9.1,7.1,0,0,,10.0,30.109253,,,TRUE,TRUE,,,,,,,CLR,,,,,,,,VFR,,,,,,,,,,,,SPECI,1551.0
KEHA 170835Z AUTO 25009KT 10SM SCT095 18/11 A3004 RMK AO2 T01780112,KEHA,2023-05-17T08:35:00Z,37.0,-101.87,17.8,11.2,250,9,,10.0,30.041338,,,TRUE,TRUE,,,,,,,SCT,9500,,,,,,,VFR,,,,,,,,,,,,METAR,1103.0
KEGV 170835Z AUTO 00000KT 10SM CLR M01/M02 A3004 RMK AO2 T10151018,KEGV,2023-05-17T08:35:00Z,45.93,-89.27,-1.5,-1.8,0,0,,10.0,30.041338,,,TRUE,TRUE,,,,,,,CLR,,,,,,,,VFR,,,,,,,,,,,,METAR,499.0
KEGT 170835Z AUTO 00000KT 1/2SM BR OVC002 10/10 A2999 RMK AO2 T01020098,KEGT,2023-05-17T08:35:00Z,37.32,-97.38,10.2,9.8,0,0,,0.5,29.991142,,,TRUE,TRUE,,,,,,BR,OVC,200,,,,,,,LIFR,,,,,,,,,,,,METAR,387.0
KEFT 170835Z AUTO 06010KT 10SM CLR 08/02 A2997 RMK AO2 T00750017,KEFT,2023-05-17T08:35:00Z,42.62,-89.6,7.5,1.7,60,10,,10.0,29.970472,,,TRUE,TRUE,,,,,,,CLR,,,,,,,,VFR,,,,,,,,,,,,SPECI,332.0
KEFK 170835Z AUTO 35008KT 10SM BKN028 OVC041 02/M03 A2972 RMK AO2 T00161026,KEFK,2023-05-17T08:35:00Z,44.88,-72.23,1.6,-2.6,350,8,,10.0,29.719488,,,TRUE,TRUE,,,,,,,BKN,2800,OVC,4100,,,,,MVFR,,,,,,,,,,,,SPECI,282.0
KEDU 170835Z AUTO 00000KT 10SM CLR 15/11 A2991 RMK AO1,KEDU,2023-05-17T08:35:00Z,38.53,-121.78,15.0,11.0,0,0,,10.0,29.911417,,,TRUE,TRUE,,,,,,,CLR,,,,,,,,VFR,,,,,,,,,,,,METAR,20.0
KEDN 170835Z AUTO 00000KT 1 1/2SM OVC002 19/19 A2983 RMK AO2 T01920192 PWINO,KEDN,2023-05-17T08:35:00Z,31.3,-85.9,19.2,19.2,0,0,,1.5,29.828741,,,TRUE,TRUE,,,,,TRUE,,OVC,200,,,,,,,LIFR,,,,,,,,,,,,SPECI,103.0
KEDJ 170835Z AUTO 04008KT 10SM FEW036 BKN043 OVC080 10/08 A2987 RMK A01,KEDJ,2023-05-17T08:35:00Z,40.37,-83.82,10.0,8.0,40,8,,10.0,29.870079,,,TRUE,TRUE,,,,,,,FEW,3600,BKN,4300,OVC,8000,,,VFR,,,,,,,,,,,,SPECI,341.0
KEDC 170835Z AUTO 00000KT 3SM BR CLR 18/18 A2992 RMK AO2,KEDC,2023-05-17T08:35:00Z,30.4,-97.57,18.0,18.0,0,0,,3.0,29.920275,,,TRUE,TRUE,,,,,,BR,CLR,,,,,,,,MVFR,,,,,,,,,,,,SPECI,184.0
KECU 170835Z AUTO 00000KT 10SM CLR 16/16 A3005 RMK AO2,KECU,2023-05-17T08:35:00Z,29.95,-100.17,16.0,16.0,0,0,,10.0,30.050198,,,TRUE,TRUE,,,,,,,CLR,,,,,,,,VFR,,,,,,,,,,,,SPECI,725.0
KECS 170835Z AUTO 00000KT 10SM CLR 13/05 A3004 RMK AO2,KECS,2023-05-17T08:35:00Z,43.88,-104.32,13.0,5.0,0,0,,10.0,30.041338,,,TRUE,TRUE,,,,,,,CLR,,,,,,,,VFR,,,,,,,,,,,,SPECI,1273.0
KEBS 170835Z AUTO 00000KT 10SM CLR 13/09 A2991 RMK AO2,KEBS,2023-05-17T08:35:00Z,42.43,-93.87,13.0,9.0,0,0,,10.0,29.911417,,,TRUE,TRUE,,,,,,,CLR,,,,,,,,VFR,,,,,,,,,,,,SPECI,340.0
KEBG 170835Z AUTO 00000KT 10SM CLR 22/22 A2990 RMK AO2 T02200216,KEBG,2023-05-17T08:35:00Z,26.45,-98.13,22.0,21.6,0,0,,10.0,29.899607,,,TRUE,TRUE,,,,,,,CLR,,,,,,,,VFR,,,,,,,,,,,,METAR,21.0
KEBA 170835Z AUTO 28005KT 10SM CLR 19/18 A2977 RMK AO2 T01900180,KEBA,2023-05-17T08:35:00Z,34.1,-82.82,19.0,18.0,280,5,,10.0,29.769686,,,TRUE,TRUE,,,,,,,CLR,,,,,,,,VFR,,,,,,,,,,,,METAR,180.0
KE42 170835Z AUTO 16007KT 7SM CLR 16/13 A3000 RMK AO2 T01640130,KE42,2023-05-17T08:35:00Z,36.22,-101.2,16.4,13.0,160,7,,7.0,30.0,,,TRUE,TRUE,,,,,,,CLR,,,,,,,,VFR,,,,,,,,,,,,METAR,942.0
KE41 170835Z AUTO 17005KT 10SM CLR 16/14 A3002 RMK AO2 T01600141,KE41,2023-05-17T08:35:00Z,31.2,-101.47,16.0,14.1,170,5,,10.0,30.02067,,,TRUE,TRUE,,,,,,,CLR,,,,,,,,VFR,,,,,,,,,,,,SPECI,825.0
KE38 170835Z AUTO 22008KT 10SM CLR 14/11 A3015 RMK AO2 T01370106,KE38,2023-05-17T08:35:00Z,30.38,-103.68,13.7,10.6,220,8,,10.0,30.15059,,,TRUE,TRUE,,,,,,,CLR,,,,,,,,VFR,,,,,,,,,,,,SPECI,1372.0
KE16 170835Z AUTO 15005KT 10SM CLR 13/10 A3000 RMK AO2 PWINO PNO,KE16,2023-05-17T08:35:00Z,37.08,-121.6,13.0,10.0,150,5,,10.0,30.0,,,TRUE,TRUE,,,,,TRUE,,CLR,,,,,,,,VFR,,,,,,,,,,,,SPECI,84.0
KE11 170835Z AUTO 22003KT 10SM CLR 18/13 A3003 RMK AO2 T01810127,KE11,2023-05-17T08:35:00Z,32.33,-102.53,18.1,12.7,220,3,,10.0,30.029528,,,TRUE,TRUE,,,,,,,CLR,,,,,,,,VFR,,,,,,,,,,,,METAR,966.0
KDZJ 170835Z AUTO 00000KT 10SM SCT010 OVC014 18/18 A2985 RMK AO2 T01780177,KDZJ,2023-05-17T08:35:00Z,34.85,-84.0,17.8,17.7,0,0,,10.0,29.84941,,,TRUE,TRUE,,,,,,,SCT,1000,OVC,1400,,,,,MVFR,,,,,,,,,,,,METAR,578.0
KDZB 170835Z AUTO 00000KT 10SM CLR 17/16 A2996 RMK AO2 T01700162,KDZB,2023-05-17T08:35:00Z,30.53,-98.37,17.0,16.2,0,0,,10.0,29.958662,,,TRUE,TRUE,,,,,,,CLR,,,,,,,,VFR,,,,,,,,,,,,SPECI,329.0
KDYT 170835Z AUTO 04006KT 10SM OVC110 03/02 A3005 RMK AO2,KDYT,2023-05-17T08:35:00Z,46.72,-92.03,3.0,2.0,40,6,,10.0,30.050198,,,TRUE,TRUE,,,,,,,OVC,11000,,,,,,,VFR,,,,,,,,,,,,SPECI,185.0
KDYB 170835Z AUTO VRB04KT 9SM FEW037 21/21 A2975 RMK AO2,KDYB,2023-05-17T08:35:00Z,33.07,-80.28,21.0,21.0,0,4,,9.0,29.749016,,,TRUE,TRUE,,,,,,,FEW,3700,,,,,,,VFR,,,,,,,,,,,,SPECI,15.0
KDYA 170835Z AUTO 00000KT 10SM CLR A2983 RMK AO2,KDYA,2023-05-17T08:35:00Z,32.47,-87.95,,,0,0,,10.0,29.828741,,,TRUE,TRUE,,,,,,,CLR,,,,,,,,VFR,,,,,,,,,,,,METAR,33.0
KDXX 170835Z AUTO 00000KT 10SM CLR 12/09 A2993 RMK AO2,KDXX,2023-05-17T08:35:00Z,44.98,-96.18,12.0,9.0,0,0,,10.0,29.929134,,,TRUE,TRUE,,,,,,,CLR,,,,,,,,VFR,,,,,,,,,,,,SPECI,327.0
KDWX 170835Z AUTO 00000KT 10SM CLR 04/02 A3023 RMK AO2 T00400024,KDWX,2023-05-17T08:35:00Z,41.03,-107.5,4.0,2.4,0,0,,10.0,30.230314,,,TRUE,TRUE,,,,,,,CLR,,,,,,,,VFR,,,,,,,,,,,,METAR,1974.0
KDWA 170835Z AUTO 00000KT 10SM FEW036 SCT048 BKN055 17/12 A2992 RMK AO2,KDWA,2023-05-17T08:35:00Z,38.58,-121.85,17.0,12.0,0,0,,10.0,29.920275,,,TRUE,TRUE,,,,,,,FEW,3600,SCT,4800,BKN,5500,,,VFR,,,,,,,,,,,,METAR,28.0
KDVO 170835Z AUTO 33005KT 10SM CLR 10/10 A2997 RMK AO2,KDVO,2023-05-17T08:35:00Z,38.15,-122.55,10.0,10.0,330,5,,10.0,29.970472,,,TRUE,TRUE,,,,,,,CLR,,,,,,,,VFR,,,,,,,,,,,,SPECI,1.0
KDUX 170835Z AUTO 24008KT 10SM CLR 15/12 A3004 RMK AO2 T01500121,KDUX,2023-05-17T08:35:00Z,35.85,-102.02,15.0,12.1,240,8,,10.0,30.041338,,,TRUE,TRUE,,,,,,,CLR,,,,,,,,VFR,,,,,,,,,,,,SPECI,1129.0
KDUH 170835Z AUTO 00000KT 10SM CLR 07/01 A2991 RMK AO2 T00710013,KDUH,2023-05-17T08:35:00Z,41.73,-83.65,7.1,1.3,0,0,,10.0,29.911417,,,TRUE,TRUE,,,,,,,CLR,,,,,,,,VFR,,,,,,,,,,,,SPECI,203.0
KDUC 170835Z AUTO 00000KT 10SM CLR 15/14 A2999 RMK AO2 T01450137,KDUC,2023-05-17T08:35:00Z,34.47,-97.97,14.5,13.7,0,0,,10.0,29.991142,,,TRUE,TRUE,,,,,,,CLR,,,,,,,,VFR,,,,,,,,,,,,METAR,339.0
KDUA 170835Z AUTO 33003KT 10SM CLR 16/13 A2996 RMK AO2,KDUA,2023-05-17T08:35:00Z,33.95,-96.4,16.0,13.0,330,3,,10.0,29.958662,,,TRUE,TRUE,,,,,,,CLR,,,,,,,,VFR,,,,,,,,,,,,SPECI,209.0
KDTL 170835Z AUTO 13013KT 10SM BKN043 OVC095 13/07 A2994 RMK AO2,KDTL,2023-05-17T08:35:00Z,46.82,-95.88,13.0,7.0,130,13,,10.0,29.940945,,,TRUE,TRUE,,,,,,,BKN,4300,OVC,9500,,,,,VFR,,,,,,,,,,,,SPECI,425.0
KDTA 170835Z AUTO 07008KT 10SM CLR 13/06 A3013 RMK AO1,KDTA,2023-05-17T08:35:00Z,39.38,-112.5,13.0,6.0,70,8,,10.0,30.129921,,,TRUE,TRUE,,,,,,,CLR,,,,,,,,VFR,,,,,,,,,,,,METAR,1452.0
KDRM 170835Z AUTO 06004KT 10SM CLR 01/M03 A3004 RMK AO2 T00081028,KDRM,2023-05-17T08:35:00Z,46.0,-83.75,0.8,-2.8,60,4,,10.0,30.041338,,,TRUE,TRUE,,,,,,,CLR,,,,,,,,VFR,,,,,,,,,,,,SPECI,201.0
KDRI 170835Z AUTO 33004KT 10SM FEW035 21/21 A2990 RMK AO2 T02120208 $,KDRI,2023-05-17T08:35:00Z,30.83,-93.33,21.2,20.8,330,4,,10.0,29.899607,,,TRUE,TRUE,TRUE,,,,,,FEW,3500,,,,,,,VFR,,,,,,,,,,,,SPECI,59.0
KDQH 170835Z AUTO 00000KT 10SM CLR 19/18 A2984 RMK AO2 T01940176,KDQH,2023-05-17T08:35:00Z,31.48,-82.87,19.4,17.6,0,0,,10.0,29.840551,,,TRUE,TRUE,,,,,,,CLR,,,,,,,,VFR,,,,,,,,,,,,METAR,76.0
KDNV 170835Z AUTO 36009KT 10SM CLR 11/08 A2988 RMK AO2 T01100082,KDNV,2023-05-17T08:35:00Z,40.2,-87.6,11.0,8.2,360,9,,10.0,29.878937,,,TRUE,TRUE,,,,,,,CLR,,,,,,,,VFR,,,,,,,,,,,,SPECI,208.0
KDNS 170835Z AUTO 11003KT 10SM BKN080 09/09 A2995 RMK AO2,KDNS,2023-05-17T08:35:00Z,41.98,-95.37,9.0,9.0,110,3,,10.0,29.949802,,,TRUE,TRUE,,,,,,,BKN,8000,,,,,,,VFR,,,,,,,,,,,,SPECI,382.0
KDNN 170835Z AUTO 00000KT 10SM BKN034 OVC070 19/19 A2983 RMK AO2 T01890187,KDNN,2023-05-17T08:35:00Z,34.72,-84.87,18.9,18.7,0,0,,10.0,29.828741,,,TRUE,TRUE,,,,,,,BKN,3400,OVC,7000,,,,,VFR,,,,,,,,,,,,SPECI,216.0
KDNA 170835Z AUTO 06005KT 10SM SCT120 19/11 A3011 RMK AO2,KDNA,2023-05-17T08:35:00Z,31.88,-106.7,19.0,11.0,60,5,,10.0,30.109253,,,TRUE,TRUE,,,,,,,SCT,12000,,,,,,,VFR,,,,,,,,,,,,SPECI,1254.0
KDLZ 170835Z AUTO 35004KT 10SM CLR 10/06 A2984 RMK AO2,KDLZ,2023-05-17T08:35:00Z,40.28,-83.12,10.0,6.0,350,4,,10.0,29.840551,,,TRUE,TRUE,,,,,,,CLR,,,,,,,,VFR,,,,,,,,,,,,SPECI,287.0
KDLP 170835Z AUTO 01024KT 1 1/2SM HZ SCT030 SCT043 OVC055 22/19 A2977 RMK A01 VIS 1V2,KDLP,2023-05-17T08:35:00Z,29.12,-89.55,22.0,19.0,10,24,,1.5,29.769686,,,TRUE,TRUE,,,,,,HZ,SCT,3000,SCT,4300,OVC,5500,,,IFR,,,,,,,,,,,,SPECI,31.0
KDLO 170835Z AUTO 16004KT 10SM CLR 18/13 A2991 RMK AO2 T01810132,KDLO,2023-05-17T08:35:00Z,35.75,-119.23,18.1,13.2,160,4,,10.0,29.911417,,,TRUE,TRUE,,,,,,,CLR,,,,,,,,VFR,,,,,,,,,,,,METAR,97.0
KDLL 170835Z AUTO 08004KT 10SM CLR 08/05 A3002 RMK AO2 T00760050,KDLL,2023-05-17T08:35:00Z,43.52,-89.77,7.6,5.0,80,4,,10.0,30.02067,,,TRUE,TRUE,,,,,,,CLR,,,,,,,,VFR,,,,,,,,,,,,SPECI,297.0
KDKX 170835Z AUTO 00000KT 10SM FEW025 OVC034 18/17 A2982 RMK A01,KDKX,2023-05-17T08:35:00Z,35.97,-83.87,18.0,17.0,0,0,,10.0,29.819881,,,TRUE,TRUE,,,,,,,FEW,2500,OVC,3400,,,,,VFR,,,,,,,,,,,,SPECI,253.0
KDKR 170835Z AUTO 00000KT 9SM CLR 18/18 A2991 RMK AO2,KDKR,2023-05-17T08:35:00Z,31.3,-95.4,18.0,18.0,0,0,,9.0,29.911417,,,TRUE,TRUE,,,,,,,CLR,,,,,,,,VFR,,,,,,,,,,,,SPECI,105.0
KDKB 170835Z AUTO 04007KT 10SM CLR 07/03 A2996 RMK AO2 T00690026,KDKB,2023-05-17T08:35:00Z,41.93,-88.7,6.9,2.6,40,7,,10.0,29.958662,,,TRUE,TRUE,,,,,,,CLR,,,,,,,,VFR,,,,,,,,,,,,SPECI,277.0
KDEH 170835Z AUTO 11008KT 10SM OVC029 12/09 A2995 RMK AO2,KDEH,2023-05-17T08:35:00Z,43.27,-91.73,12.0,9.0,110,8,,10.0,29.949802,,,TRUE,TRUE,,,,,,,OVC,2900,,,,,,,MVFR,,,,,,,,,,,,METAR,348.0
KDCY 170835Z AUTO 00000KT 10SM CLR 13/11 A2987 RMK AO2 T01300109,KDCY,2023-05-17T08:35:00Z,38.7,-87.13,13.0,10.9,0,0,,10.0,29.870079,,,TRUE,TRUE,,,,,,,CLR,,,,,,,,VFR,,,,,,,,,,,,SPECI,143.0
KDBN 170835Z AUTO 00000KT 10SM CLR 20/18 A2983 RMK AO2,KDBN,2023-05-17T08:35:00Z,32.57,-82.98,20.0,18.0,0,0,,10.0,29.828741,,,TRUE,TRUE,,,,,,,CLR,,,,,,,,VFR,,,,,,,,,,,,METAR,90.0
KD95 170835Z AUTO 00000KT 10SM CLR 02/02 A2995 RMK AO2 T00190019,KD95,2023-05-17T08:35:00Z,43.07,-83.27,1.9,1.9,0,0,,10.0,29.949802,,,TRUE,TRUE,,,,,,,CLR,,,,,,,,VFR,,,,,,,,,,,,SPECI,253.0
KD73 170835Z AUTO 29003KT 5SM HZ BKN004 19/ A2981 RMK AO2 T0186////,KD73,2023-05-17T08:35:00Z,33.78,-83.7,18.6,,290,3,,5.0,29.811024,,,TRUE,TRUE,,,,,,HZ,BKN,400,,,,,,,LIFR,,,,,,,,,,,,SPECI,254.0
KD60 170835Z AUTO 00000KT 10SM CLR 12/06 A2984 RMK AO2,KD60,2023-05-17T08:35:00Z,48.38,-102.9,12.0,6.0,0,0,,10.0,29.840551,,,TRUE,TRUE,,,,,,,CLR,,,,,,,,VFR,,,,,,,,,,,,SPECI,682.0
KD57 170835Z AUTO 18007KT 10SM CLR 12/06 A2989 RMK AO2,KD57,2023-05-17T08:35:00Z,46.82,-101.87,12.0,6.0,180,7,,10.0,29.890747,,,TRUE,TRUE,,,,,,,CLR,,,,,,,,VFR,,,,,,,,,,,,SPECI,636.0
KD50 170835Z AUTO 19011KT 10SM CLR 15/07 A2980 RMK AO2,KD50,2023-05-17T08:35:00Z,48.93,-103.3,15.0,7.0,190,11,,10.0,29.799213,,,TRUE,TRUE,,,,,,,CLR,,,,,,,,VFR,,,,,,,,,,,,SPECI,591.0
KD39 170835Z AUTO 08009KT 10SM CLR 11/06 A2997 RMK AO2 T01050060,KD39,2023-05-17T08:35:00Z,45.7,-94.93,10.5,6.0,80,9,,10.0,29.970472,,,TRUE,TRUE,,,,,,,CLR,,,,,,,,VFR,,,,,,,,,,,,SPECI,378.0
KD25 170835Z AUTO 00000KT 10SM CLR 00/00 A3004 RMK AO2 T00020002,KD25,2023-05-17T08:35:00Z,46.12,-89.88,0.2,0.2,0,0,,10.0,30.041338,,,TRUE,TRUE,,,,,,,CLR,,,,,,,,VFR,,,,,,,,,,,,METAR,490.0
KCZT 170835Z AUTO 10SM CLR 18/18 A2994 RMK AO2,KCZT,2023-05-17T08:35:00Z,28.52,-99.82,18.0,18.0,,,,10.0,29.940945,,,TRUE,TRUE,,,,,,,CLR,,,,,,,,VFR,,,,,,,,,,,,METAR,176.0
KCZL 170835Z AUTO 26003KT 7SM BKN004 19/19 A2985 RMK AO2,KCZL,2023-05-17T08:35:00Z,34.47,-84.93,19.0,19.0,260,3,,7.0,29.84941,,,TRUE,TRUE,,,,,,,BKN,400,,,,,,,LIFR,,,,,,,,,,,,SPECI,197.0
KCYD 170835Z AUTO 27010KT 10SM SCT014 26/22 A2989 RMK A02 LTG DSNT E T02630221,KCYD,2023-05-17T08:35:00Z,28.17,-89.22,26.3,22.1,270,10,,10.0,29.890747,,,TRUE,TRUE,,,,,,,SCT,1400,,,,,,,VFR,,,,,,,,,,,,METAR,30.0
KCXW 170835Z AUTO 03006KT 10SM OVC022 21/M39 A2986 RMK A01,KCXW,2023-05-17T08:35:00Z,35.02,-92.55,21.0,-39.0,30,6,,10.0,29.861221,,,TRUE,TRUE,,,,,,,OVC,2200,,,,,,,MVFR,,,,,,,,,,,,SPECI,84.0
KCXU 170835Z AUTO 00000KT 10SM CLR 20/19 A2984 RMK AO1 T02000190,KCXU,2023-05-17T08:35:00Z,31.22,-84.23,20.0,19.0,0,0,,10.0,29.840551,,,TRUE,TRUE,,,,,,,CLR,,,,,,,,VFR,,,,,,,,,,,,SPECI,48.0
KCXP 170835Z AUTO 33004KT 10SM CLR 12/01 A3016 RMK AO2,KCXP,2023-05-17T08:35:00Z,39.18,-119.73,12.0,1.0,330,4,,10.0,30.159449,,,TRUE,TRUE,,,,,,,CLR,,,,,,,,VFR,,,,,,,,,,,,METAR,1431.0
KCXE 170835Z AUTO 00000KT 10SM BKN090 18/18 A2968 RMK AO1 T01760176,KCXE,2023-05-17T08:35:00Z,36.78,-78.5,17.6,17.6,0,0,,10.0,29.681103,,,TRUE,TRUE,,,,,,,BKN,9000,,,,,,,VFR,,,,,,,,,,,,SPECI,154.0
KCWV 170835Z AUTO 00000KT 7SM CLR 22/21 A2980 RMK AO2 T02150210,KCWV,2023-05-17T08:35:00Z,32.2,-81.87,21.5,21.0,0,0,,7.0,29.799213,,,TRUE,TRUE,,,,,,,CLR,,,,,,,,VFR,,,,,,,,,,,,SPECI,32.0
KCWF 170835Z AUTO 33006KT 10SM CLR 23/21 A2988 RMK AO2 T02270205,KCWF,2023-05-17T08:35:00Z,30.22,-93.15,22.7,20.5,330,6,,10.0,29.878937,,,TRUE,TRUE,,,,,,,CLR,,,,,,,,VFR,,,,,,,,,,,,SPECI,4.0
KCWC 170835Z AUTO 07003KT 10SM CLR 16/14 A2997 RMK AO2 T01550143,KCWC,2023-05-17T08:35:00Z,33.85,-98.48,15.5,14.3,70,3,,10.0,29.970472,,,TRUE,TRUE,,,,,,,CLR,,,,,,,,VFR,,,,,,,,,,,,METAR,304.0
KCWA 170835Z AUTO 06007KT 10SM CLR 03/M01 A3005 RMK AO2,KCWA,2023-05-17T08:35:00Z,44.78,-89.67,3.0,-1.0,60,7,,10.0,30.050198,,,TRUE,TRUE,,,,,,,CLR,,,,,,,,VFR,,,,,,,,,,,,SPECI,387.0
KCVX 170835Z AUTO 00000KT 10SM CLR 05/M01 A3002 RMK AO2 T00461011,KCVX,2023-05-17T08:35:00Z,45.3,-85.27,4.6,-1.1,0,0,,10.0,30.02067,,,TRUE,TRUE,,,,,,,CLR,,,,,,,,VFR,,,,,,,,,,,,SPECI,196.0
KCVH 170835Z AUTO 00000KT 10SM CLR 11/10 A3000 RMK A01,KCVH,2023-05-17T08:35:00Z,36.9,-121.42,11.0,10.0,0,0,,10.0,30.0,,,TRUE,TRUE,,,,,,,CLR,,,,,,,,VFR,,,,,,,,,,,,SPECI,68.0
KCVC 170835Z AUTO 00000KT 5SM BR BKN005 18/18 A2980 RMK AO2,KCVC,2023-05-17T08:35:00Z,33.63,-83.85,18.0,18.0,0,0,,5.0,29.799213,,,TRUE,TRUE,,,,,,BR,BKN,500,,,,,,,IFR,,,,,,,,,,,,SPECI,240.0
KCUH 170835Z AUTO 00000KT 10SM OVC034 17/16 A2996 RMK AO2 T01720158,KCUH,2023-05-17T08:35:00Z,35.95,-96.77,17.2,15.8,0,0,,10.0,29.958662,,,TRUE,TRUE,,,,,,,OVC,3400,,,,,,,VFR,,,,,,,,,,,,SPECI,274.0
KCTY 170835Z AUTO 00000KT 10SM CLR 20/20 A2986 RMK AO2,KCTY,2023-05-17T08:35:00Z,29.63,-83.1,20.0,20.0,0,0,,10.0,29.861221,,,TRUE,TRUE,,,,,,,CLR,,,,,,,,VFR,,,,,,,,,,,,SPECI,12.0
KCTJ 170835Z AUTO 00000KT 10SM SCT095 18/17 A2988 RMK AO2 T01750172,KCTJ,2023-05-17T08:35:00Z,33.63,-85.15,17.5,17.2,0,0,,10.0,29.878937,,,TRUE,TRUE,,,,,,,SCT,9500,,,,,,,VFR,,,,,,,,,,,,SPECI,351.0
KCSQ 170835Z AUTO 31005KT 10SM CLR 12/12 A2992 RMK AO2,KCSQ,2023-05-17T08:35:00Z,41.02,-94.37,12.0,12.0,310,5,,10.0,29.920275,,,TRUE,TRUE,,,,,,,CLR,,,,,,,,VFR,,,,,,,,,,,,METAR,394.0
KCRX 170835Z AUTO 00000KT 10SM SCT008 BKN033 OVC042 20/20 A2984 RMK AO2,KCRX,2023-05-17T08:35:00Z,34.92,-88.6,20.0,20.0,0,0,,10.0,29.840551,,,TRUE,TRUE,,,,,,,SCT,800,BKN,3300,OVC,4200,,,VFR,,,,,,,,,,,,SPECI,128.0
KCQW 170835Z AUTO 00000KT 6SM BR CLR 19/19 A2973 RMK AO2,KCQW,2023-05-17T08:35:00Z,34.72,-79.95,19.0,19.0,0,0,,6.0,29.731298,,,TRUE,TRUE,,,,,,BR,CLR,,,,,,,,VFR,,,,,,,,,,,,SPECI,67.0
KCQM 170835Z AUTO 00000KT 10SM CLR 05/M02 A3001 RMK AO2,KCQM,2023-05-17T08:35:00Z,47.82,-92.68,5.0,-2.0,0,0,,10.0,30.008858,,,TRUE,TRUE,,,,,,,CLR,,,,,,,,VFR,,,,,,,,,,,,SPECI,406.0
KCQF 170835Z AUTO 00000KT 4SM BR CLR 19/19 A2983 RMK AO2 P0001,KCQF,2023-05-17T08:35:00Z,30.47,-87.88,19.0,19.0,0,0,,4.0,29.828741,,,TRUE,TRUE,,,,,,BR,CLR,,,,,,,,MVFR,,,,,,0.01,,,,,,SPECI,21.0
KCPW 170835Z AUTO 01005KT 10SM OVC060 03/M02 A3051 RMK AO2,KCPW,2023-05-17T08:35:00Z,37.45,-106.8,3.0,-2.0,10,5,,10.0,30.510826,,,TRUE,TRUE,,,,,,,OVC,6000,,,,,,,VFR,,,,,,,,,,,,METAR,3570.0
KCPU 170835Z AUTO 00000KT 10SM CLR 16/09 A2997 RMK AO2 T01570088,KCPU,2023-05-17T08:35:00Z,38.15,-120.65,15.7,8.8,0,0,,10.0,29.970472,,,TRUE,TRUE,,,,,,,CLR,,,,,,,,VFR,,,,,,,,,,,,METAR,400.0
KCPT 170835Z AUTO 04004KT 10SM CLR 17/17 A2995 RMK A01,KCPT,2023-05-17T08:35:00Z,32.35,-97.43,17.0,17.0,40,4,,10.0,29.949802,,,TRUE,TRUE,,,,,,,CLR,,,,,,,,VFR,,,,,,,,,,,,SPECI,260.0
KCPK 170835Z AUTO 26009KT 10SM OVC011 20/18 A2963 RMK AO2 T01960183,KCPK,2023-05-17T08:35:00Z,36.67,-76.32,19.6,18.3,260,9,,10.0,29.630905,,,TRUE,TRUE,,,,,,,OVC,1100,,,,,,,MVFR,,,,,,,,,,,,METAR,4.0
KCPF 170835Z AUTO 00000KT 5SM BR OVC100 13/13 A2986 RMK AO2,KCPF,2023-05-17T08:35:00Z,37.38,-83.27,13.0,13.0,0,0,,5.0,29.861221,,,TRUE,TRUE,,,,,,BR,OVC,10000,,,,,,,MVFR,,,,,,,,,,,,SPECI,382.0
KCOQ 170835Z AUTO 09003KT 10SM CLR 02/00 A3001 RMK AO2 TSNO,KCOQ,2023-05-17T08:35:00Z,46.7,-92.5,2.0,0.0,90,3,,10.0,30.008858,,,TRUE,TRUE,,,TRUE,,,,CLR,,,,,,,,VFR,,,,,,,,,,,,SPECI,390.0
KCOM 170835Z AUTO 00000KT 10SM CLR 16/15 A2997 RMK AO2 T01620148,KCOM,2023-05-17T08:35:00Z,31.83,-99.4,16.2,14.8,0,0,,10.0,29.970472,,,TRUE,TRUE,,,,,,,CLR,,,,,,,,VFR,,,,,,,,,,,,SPECI,516.0
KCNI 170835Z AUTO 29004KT 10SM SCT004 SCT055 BKN080 18/18 A2984 RMK AO2 T01800176,KCNI,2023-05-17T08:35:00Z,34.32,-84.42,18.0,17.6,290,4,,10.0,29.840551,,,TRUE,TRUE,,,,,,,SCT,400,SCT,5500,BKN,8000,,,VFR,,,,,,,,,,,,SPECI,371.0
KCNC 170835Z AUTO 27007KT 10SM OVC090 13/12 A2990 RMK AO2,KCNC,2023-05-17T08:35:00Z,41.02,-93.37,13.0,12.0,270,7,,10.0,29.899607,,,TRUE,TRUE,,,,,,,OVC,9000,,,,,,,VFR,,,,,,,,,,,,METAR,319.0
KCNB 170835Z AUTO 00000KT 10SM CLR 14/10 A2993 RMK AO2 T01370095,KCNB,2023-05-17T08:35:00Z,44.73,-96.27,13.7,9.5,0,0,,10.0,29.929134,,,TRUE,TRUE,,,,,,,CLR,,,,,,,,VFR,,,,,,,,,,,,SPECI,363.0
KCMR 170835Z AUTO 15006KT 10SM CLR 07/06 A3023 RMK AO2,KCMR,2023-05-17T08:35:00Z,35.3,-112.2,7.0,6.0,150,6,,10.0,30.230314,,,TRUE,TRUE,,,,,,,CLR,,,,,,,,VFR,,,,,,,,,,,,SPECI,2039.0
KCMD 170835Z AUTO 21004KT 10SM FEW006 OVC021 19/19 A2986 RMK AO2,KCMD,2023-05-17T08:35:00Z,34.27,-86.85,19.0,19.0,210,4,,10.0,29.861221,,,TRUE,TRUE,,,,,,,FEW,600,OVC,2100,,,,,MVFR,,,,,,,,,,,,SPECI,294.0
KCLW 170835Z AUTO 00000KT 10SM SCT018 23/20 A2988 RMK AO2,KCLW,2023-05-17T08:35:00Z,27.98,-82.75,23.0,20.0,0,0,,10.0,29.878937,,,TRUE,TRUE,,,,,,,SCT,1800,,,,,,,VFR,,,,,,,,,,,,SPECI,21.0
KCLS 170835Z AUTO 00000KT 10SM CLR 14/14 A3006 RMK AO2,KCLS,2023-05-17T08:35:00Z,46.68,-122.98,14.0,14.0,0,0,,10.0,30.059055,,,TRUE,TRUE,,,,,,,CLR,,,,,,,,VFR,,,,,,,,,,,,SPECI,52.0
KCLK 170835Z AUTO 09006KT 7SM CLR 13/12 A3001 RMK AO2,KCLK,2023-05-17T08:35:00Z,35.53,-98.93,13.0,12.0,90,6,,7.0,30.008858,,,TRUE,TRUE,,,,,,,CLR,,,,,,,,VFR,,,,,,,,,,,,SPECI,489.0
KCLI 170835Z AUTO 06006KT 10SM CLR 04/M01 A3006 RMK AO2 T00351012,KCLI,2023-05-17T08:35:00Z,44.62,-88.73,3.5,-1.2,60,6,,10.0,30.059055,,,TRUE,TRUE,,,,,,,CLR,,,,,,,,VFR,,,,,,,,,,,,SPECI,248.0
KCKZ 170835Z AUTO 34006KT 10SM OVC100 15/04 A2963 RMK AO2,KCKZ,2023-05-17T08:35:00Z,40.38,-75.28,15.0,4.0,340,6,,10.0,29.630905,,,TRUE,TRUE,,,,,,,OVC,10000,,,,,,,VFR,,,,,,,,,,,,METAR,160.0
KCKP 170835Z AUTO 00000KT 10SM CLR 10/09 A2994 RMK AO2 T00950094,KCKP,2023-05-17T08:35:00Z,42.73,-95.55,9.5,9.4,0,0,,10.0,29.940945,,,TRUE,TRUE,,,,,,,CLR,,,,,,,,VFR,,,,,,,,,,,,METAR,369.0
KCKN 170835Z AUTO 14006KT 10SM CLR 12/05 A2989 RMK AO2,KCKN,2023-05-17T08:35:00Z,47.85,-96.62,12.0,5.0,140,6,,10.0,29.890747,,,TRUE,TRUE,,,,,,,CLR,,,,,,,,VFR,,,,,,,,,,,,SPECI,272.0
KCKM 170835Z AUTO 03007KT 3SM BR 20/20 A2984 RMK A01,KCKM,2023-05-17T08:35:00Z,34.3,-90.52,20.0,20.0,30,7,,3.0,29.840551,,,TRUE,TRUE,,,,,,BR,,,,,,,,,,,,,,,,,,,,,SPECI,52.0
KCKI 170835Z AUTO 20003KT 10SM CLR 21/17 A2973 RMK AO2,KCKI,2023-05-17T08:35:00Z,33.72,-79.85,21.0,17.0,200,3,,10.0,29.731298,,,TRUE,TRUE,,,,,,,CLR,,,,,,,,VFR,,,,,,,,,,,,METAR,19.0
KCKF 170835Z AUTO 24004KT 10SM CLR 19/18 A2984 RMK AO2 T01930183,KCKF,2023-05-17T08:35:00Z,31.98,-83.77,19.3,18.3,240,4,,10.0,29.840551,,,TRUE,TRUE,,,,,,,CLR,,,,,,,,VFR,,,,,,,,,,,,SPECI,92.0
KCJR 170835Z AUTO 00000KT 10SM SCT120 15/14 A2967 RMK AO2 T01500142,KCJR,2023-05-17T08:35:00Z,38.53,-77.87,15.0,14.2,0,0,,10.0,29.66929,,,TRUE,TRUE,,,,,,,SCT,12000,,,,,,,VFR,,,,,,,,,,,,SPECI,90.0
KCIN 170835Z AUTO 29006KT 10SM OVC080 13/09 A2992 RMK AO2,KCIN,2023-05-17T08:35:00Z,42.03,-94.78,13.0,9.0,290,6,,10.0,29.920275,,,TRUE,TRUE,,,,,,,OVC,8000,,,,,,,VFR,,,,,,,,,,,,METAR,365.0
KCIC 170835Z AUTO 00000KT 10SM CLR 22/07 A2993 RMK AO1,KCIC,2023-05-17T08:35:00Z,39.78,-121.85,22.0,7.0,0,0,,10.0,29.929134,,,TRUE,TRUE,,,,,,,CLR,,,,,,,,VFR,,,,,,,,,,,,SPECI,72.0
KCHK 170835Z AUTO 34004KT 4SM CLR 12/12 A2997 RMK AO2 T01210120,KCHK,2023-05-17T08:35:00Z,35.1,-97.97,12.1,12.0,340,4,,4.0,29.970472,,,TRUE,TRUE,,,,,,,CLR,,,,,,,,MVFR,,,,,,,,,,,,SPECI,346.0
KCGF 170835Z AUTO 03009KT 10SM BKN023 08/05 A2987 RMK AO2 T00760050,KCGF,2023-05-17T08:35:00Z,41.57,-81.47,7.6,5.0,30,9,,10.0,29.870079,,,TRUE,TRUE,,,,,,,BKN,2300,,,,,,,MVFR,,,,,,,,,,,,METAR,265.0
KCGC 170835Z AUTO 00000KT 10SM OVC095 21/20 A2988 RMK AO2,KCGC,2023-05-17T08:35:00Z,28.87,-82.57,21.0,20.0,0,0,,10.0,29.878937,,,TRUE,TRUE,,,,,,,OVC,9500,,,,,,,VFR,,,,,,,,,,,,SPECI,3.0
KCFS 170835Z AUTO 00000KT 10SM CLR 05/01 A2996 RMK AO2 T00460012,KCFS,2023-05-17T08:35:00Z,43.47,-83.45,4.6,1.2,0,0,,10.0,29.958662,,,TRUE,TRUE,,,,,,,CLR,,,,,,,,VFR,,,,,,,,,,,,SPECI,214.0
KCFO 170835Z AUTO 21009KT 10SM CLR 13/09 A3014 RMK AO2 T01260085,KCFO,2023-05-17T08:35:00Z,39.78,-104.55,12.6,8.5,210,9,,10.0,30.138779,,,TRUE,TRUE,,,,,,,CLR,,,,,,,,VFR,,,,,,,,,,,,METAR,1672.0
KCFJ 170835Z AUTO 29003KT 7SM CLR 10/08 A2987 RMK AO2 T00980075,KCFJ,2023-05-17T08:35:00Z,39.98,-86.92,9.8,7.5,290,3,,7.0,29.870079,,,TRUE,TRUE,,,,,,,CLR,,,,,,,,VFR,,,,,,,,,,,,SPECI,243.0
KCFE 170835Z AUTO 06006KT 10SM OVC090 11/06 A2997 RMK AO2,KCFE,2023-05-17T08:35:00Z,45.17,-93.85,11.0,6.0,60,6,,10.0,29.970472,,,TRUE,TRUE,,,,,,,OVC,9000,,,,,,,VFR,,,,,,,,,,,,SPECI,292.0
KCFD 170835Z AUTO 00000KT 10SM CLR 19/19 A2994 RMK AO2 T01900190,KCFD,2023-05-17T08:35:00Z,30.72,-96.33,19.0,19.0,0,0,,10.0,29.940945,,,TRUE,TRUE,,,,,,,CLR,,,,,,,,VFR,,,,,,,,,,,,SPECI,106.0
KCEY 170835Z AUTO 35005KT 10SM CLR 17/17 A2988 RMK A01,KCEY,2023-05-17T08:35:00Z,36.67,-88.37,17.0,17.0,350,5,,10.0,29.878937,,,TRUE,TRUE,,,,,,,CLR,,,,,,,,VFR,,,,,,,,,,,,SPECI,172.0
KCDN 170835Z AUTO 26007KT 10SM CLR 23/18 A2974 RMK AO2,KCDN,2023-05-17T08:35:00Z,34.28,-80.57,23.0,18.0,260,7,,10.0,29.740158,,,TRUE,TRUE,,,,,,,CLR,,,,,,,,VFR,,,,,,,,,,,,SPECI,90.0
KCDI 170835Z AUTO 00000KT 4SM BR BKN100 09/09 A2979 RMK AO2 T00920092,KCDI,2023-05-17T08:35:00Z,39.97,-81.58,9.2,9.2,0,0,,4.0,29.790354,,,TRUE,TRUE,,,,,,BR,BKN,10000,,,,,,,MVFR,,,,,,,,,,,,SPECI,241.0
KCDH 170835Z AUTO 00000KT 10SM CLR 18/18 A2986 RMK AO2,KCDH,2023-05-17T08:35:00Z,33.62,-92.77,18.0,18.0,0,0,,10.0,29.861221,,,TRUE,TRUE,,,,,,,CLR,,,,,,,,VFR,,,,,,,,,,,,SPECI,38.0
KCDA 170835Z AUTO 30009KT 10SM OVC021 02/M01 A2968 RMK AO2 T00241010,KCDA,2023-05-17T08:35:00Z,44.57,-72.02,2.4,-1.0,300,9,,10.0,29.681103,,,TRUE,TRUE,,,,,,,OVC,2100,,,,,,,MVFR,,,,,,,,,,,,SPECI,357.0
KCCY 170835Z AUTO 09011KT 10SM CLR 13/10 A2994 RMK AO2,KCCY,2023-05-17T08:35:00Z,43.07,-92.62,13.0,10.0,90,11,,10.0,29.940945,,,TRUE,TRUE,,,,,,,CLR,,,,,,,,VFR,,,,,,,,,,,,METAR,340.0
KCCU 170835Z AUTO 27006KT 10SM CLR 04/M01 A3048 RMK AO2,KCCU,2023-05-17T08:35:00Z,39.48,-106.15,4.0,-1.0,270,6,,10.0,30.481298,,,TRUE,TRUE,,,,,,,CLR,,,,,,,,VFR,,,,,,,,,,,,METAR,3672.0
KCCO 170835Z AUTO 00000KT 7SM OVC003 18/18 A2985 RMK AO2 T01830178,KCCO,2023-05-17T08:35:00Z,33.32,-84.77,18.3,17.8,0,0,,7.0,29.84941,,,TRUE,TRUE,,,,,,,OVC,300,,,,,,,LIFR,,,,,,,,,,,,SPECI,290.0
KCCB 170835Z AUTO 00000KT 10SM 16/13 A2996 RMK AO2,KCCB,2023-05-17T08:35:00Z,34.12,-117.68,16.0,13.0,0,0,,10.0,29.958662,,,TRUE,TRUE,,,,,,,,,,,,,,,,,,,,,,,,,,,METAR,440.0
KCCA 170835Z AUTO 00000KT 10SM SCT021 BKN031 OVC038 20/18 A2990 RMK AO2,KCCA,2023-05-17T08:35:00Z,35.6,-92.45,20.0,18.0,0,0,,10.0,29.899607,,,TRUE,TRUE,,,,,,,SCT,2100,BKN,3100,OVC,3800,,,VFR,,,,,,,,,,,,SPECI,152.0
KCBG 170835Z AUTO 00000KT 10SM CLR 10/01 A2999 RMK AO2,KCBG,2023-05-17T08:35:00Z,45.57,-93.27,10.0,1.0,0,0,,10.0,29.991142,,,TRUE,TRUE,,,,,,,CLR,,,,,,,,VFR,,,,,,,,,,,,SPECI,285.0
KCBF 170835Z AUTO 29005KT 10SM CLR 15/04 A2993 RMK AO2,KCBF,2023-05-17T08:35:00Z,41.27,-95.77,15.0,4.0,290,5,,10.0,29.929134,,,TRUE,TRUE,,,,,,,CLR,,,,,,,,VFR,,,,,,,,,,,,SPECI,379.0
KCAV 170835Z AUTO 09009KT 10SM BKN075 BKN120 13/10 A2992 RMK A01,KCAV,2023-05-17T08:35:00Z,42.75,-93.77,13.0,10.0,90,9,,10.0,29.920275,,,TRUE,TRUE,,,,,,,BKN,7500,BKN,12000,,,,,VFR,,,,,,,,,,,,METAR,352.0
KCAD 170835Z AUTO 00000KT 10SM CLR 01/M02 A2997 RMK AO2 T00101016,KCAD,2023-05-17T08:35:00Z,44.27,-85.42,1.0,-1.6,0,0,,10.0,29.970472,,,TRUE,TRUE,,,,,,,CLR,,,,,,,,VFR,,,,,,,,,,,,SPECI,397.0
KC99 170835Z AUTO 30009G18KT 10SM CLR 02/M01 A3040 RMK AO2,KC99,2023-05-17T08:35:00Z,39.87,-105.55,2.0,-1.0,300,9,18,10.0,30.398623,,,TRUE,TRUE,,,,,,,CLR,,,,,,,,VFR,,,,,,,,,,,,METAR,3334.0
KC83 170835Z AUTO 24016KT 10SM CLR 22/06 A2991 RMK AO2,KC83,2023-05-17T08:35:00Z,37.83,-121.62,22.0,6.0,240,16,,10.0,29.911417,,,TRUE,TRUE,,,,,,,CLR,,,,,,,,VFR,,,,,,,,,,,,SPECI,16.0
KC75 170835Z AUTO 00000KT 10SM CLR 11/06 A2993 RMK AO2 T01050063 PWINO,KC75,2023-05-17T08:35:00Z,41.02,-89.38,10.5,6.3,0,0,,10.0,29.929134,,,TRUE,TRUE,,,,,TRUE,,CLR,,,,,,,,VFR,,,,,,,,,,,,METAR,166.0
KC65 170835Z AUTO 00000KT 10SM BKN060 09/07 A2989 RMK A01,KC65,2023-05-17T08:35:00Z,41.37,-86.3,9.0,7.0,0,0,,10.0,29.890747,,,TRUE,TRUE,,,,,,,BKN,6000,,,,,,,VFR,,,,,,,,,,,,SPECI,241.0
KC62 170835Z AUTO 09003KT 10SM CLR 09/06 A2990 RMK AO2 T00930068,KC62,2023-05-17T08:35:00Z,41.47,-85.25,9.3,6.8,90,3,,10.0,29.899607,,,TRUE,TRUE,,,,,,,CLR,,,,,,,,VFR,,,,,,,,,,,,SPECI,304.0
KC35 170835Z AUTO 08004KT 10SM CLR 08/02 A3002 RMK AO2 T00780022 PWINO,KC35,2023-05-17T08:35:00Z,43.53,-89.98,7.8,2.2,80,4,,10.0,30.02067,,,TRUE,TRUE,,,,,TRUE,,CLR,,,,,,,,VFR,,,,,,,,,,,,SPECI,272.0
KC29 170835Z AUTO 06006KT 10SM CLR 07/03 A3002 RMK AO1 T00730026,KC29,2023-05-17T08:35:00Z,43.12,-89.53,7.3,2.6,60,6,,10.0,30.02067,,,TRUE,TRUE,,,,,,,CLR,,,,,,,,VFR,,,,,,,,,,,,SPECI,282.0
KC09 170835Z AUTO 03003KT 10SM BKN090 10/05 A2993 RMK AO2 T01000045,KC09,2023-05-17T08:35:00Z,41.43,-88.42,10.0,4.5,30,3,,10.0,29.929134,,,TRUE,TRUE,,,,,,,BKN,9000,,,,,,,VFR,,,,,,,,,,,,METAR,179.0
KC07 170835Z AUTO 26003KT 10SM CLR 03/00 A3040 RMK AO2,KC07,2023-05-17T08:35:00Z,40.35,-106.7,3.0,0.0,260,3,,10.0,30.398623,,,TRUE,TRUE,,,,,,,CLR,,,,,,,,VFR,,,,,,,,,,,,SPECI,3224.0
KBYY 170835Z AUTO 00000KT 7SM CLR 18/18 A2991 RMK AO2 T01900187,KBYY,2023-05-17T08:35:00Z,28.97,-95.87,19.0,18.7,0,0,,7.0,29.911417,,,TRUE,TRUE,,,,,,,CLR,,,,,,,,VFR,,,,,,,,,,,,SPECI,12.0
KBYL 170835Z AUTO 00000KT 5SM BKN008 OVC013 15/15 A2986 RMK AO1,KBYL,2023-05-17T08:35:00Z,36.8,-84.2,15.0,15.0,0,0,,5.0,29.861221,,,TRUE,TRUE,,,,,,,BKN,800,OVC,1300,,,,,IFR,,,,,,,,,,,,METAR,355.0
KBXK 170835Z AUTO 10007KT 10SM CLR 24/16 A2991 RMK A01,KBXK,2023-05-17T08:35:00Z,33.42,-112.68,24.0,16.0,100,7,,10.0,29.911417,,,TRUE,TRUE,,,,,,,CLR,,,,,,,,VFR,,,,,,,,,,,,SPECI,303.0
KBXA 170835Z AUTO 00000KT 7SM CLR 20/19 A2985 RMK AO2 T02020190,KBXA,2023-05-17T08:35:00Z,30.82,-89.87,20.2,19.0,0,0,,7.0,29.84941,,,TRUE,TRUE,,,,,,,CLR,,,,,,,,VFR,,,,,,,,,,,,SPECI,35.0
KBWW 170835Z AUTO 19014KT 10SM SCT070 13/11 A2992 RMK AO2,KBWW,2023-05-17T08:35:00Z,46.17,-103.3,13.0,11.0,190,14,,10.0,29.920275,,,TRUE,TRUE,,,,,,,SCT,7000,,,,,,,VFR,,,,,,,,,,,,SPECI,911.0
KBWP 170835Z AUTO 11007KT 10SM FEW060 OVC100 15/06 A2990 RMK AO2,KBWP,2023-05-17T08:35:00Z,46.25,-96.62,15.0,6.0,110,7,,10.0,29.899607,,,TRUE,TRUE,,,,,,,FEW,6000,OVC,10000,,,,,VFR,,,,,,,,,,,,METAR,294.0
KBVU 170835Z AUTO 35004KT 10SM CLR 22/09 A2997 RMK AO2,KBVU,2023-05-17T08:35:00Z,35.95,-114.87,22.0,9.0,350,4,,10.0,29.970472,,,TRUE,TRUE,,,,,,,CLR,,,,,,,,VFR,,,,,,,,,,,,SPECI,654.0
KBVS 170835Z AUTO 00000KT 10SM CLR 12/12 A3007 RMK A01,KBVS,2023-05-17T08:35:00Z,48.47,-122.42,12.0,12.0,0,0,,10.0,30.070866,,,TRUE,TRUE,,,,,,,CLR,,,,,,,,VFR,,,,,,,,,,,,SPECI,31.0
KBVN 170835Z AUTO 33004KT 10SM CLR 07/07 A2999 RMK AO2 T00730068,KBVN,2023-05-17T08:35:00Z,41.73,-98.05,7.3,6.8,330,4,,10.0,29.991142,,,TRUE,TRUE,,,,,,,CLR,,,,,,,,VFR,,,,,,,,,,,,SPECI,547.0
KBVI 170835Z AUTO 01004KT 10SM CLR 12/06 A2978 RMK AO2 T01170055,KBVI,2023-05-17T08:35:00Z,40.77,-80.37,11.7,5.5,10,4,,10.0,29.778543,,,TRUE,TRUE,,,,,,,CLR,,,,,,,,VFR,,,,,,,,,,,,SPECI,387.0
KBUU 170835Z AUTO 01004KT 10SM CLR 06/00 A2999 RMK AO2 T00550002 PWINO,KBUU,2023-05-17T08:35:00Z,42.68,-88.3,5.5,0.2,10,4,,10.0,29.991142,,,TRUE,TRUE,,,,,TRUE,,CLR,,,,,,,,VFR,,,,,,,,,,,,METAR,238.0
KBTN 170835Z AUTO 18006KT 8SM OVC080 12/12 A2990 RMK AO2,KBTN,2023-05-17T08:35:00Z,45.82,-97.75,12.0,12.0,180,6,,8.0,29.899607,,,TRUE,TRUE,,,,,,,OVC,8000,,,,,,,VFR,,,,,,,,,,,,SPECI,400.0
KBTA 170835Z AUTO 32006KT 10SM CLR 14/07 A2995 RMK AO2 T01400066,KBTA,2023-05-17T08:35:00Z,41.42,-96.12,14.0,6.6,320,6,,10.0,29.949802,,,TRUE,TRUE,,,,,,,CLR,,,,,,,,VFR,,,,,,,,,,,,SPECI,400.0
KBRY 170835Z AUTO 00000KT 1/2SM FG VV001 11/11 A2985 RMK AO2 T01130113 $,KBRY,2023-05-17T08:35:00Z,37.82,-85.5,11.3,11.3,0,0,,0.5,29.84941,,,TRUE,TRUE,TRUE,,,,,FG,OVX,0,,,,,,,LIFR,,,,,,,,,,,100,SPECI,192.0
KBRG 170835Z AUTO 00000KT 10SM OVC120 14/05 A3014 RMK AO2 T01430053,KBRG,2023-05-17T08:35:00Z,34.65,-106.83,14.3,5.3,0,0,,10.0,30.138779,,,TRUE,TRUE,,,,,,,OVC,12000,,,,,,,VFR,,,,,,,,,,,,SPECI,1585.0
KBQX 170835Z AUTO 31006KT 10SM FEW023 BKN041 OVC060 25/19 A2992 RMK A01,KBQX,2023-05-17T08:35:00Z,28.5,-95.72,25.0,19.0,310,6,,10.0,29.920275,,,TRUE,TRUE,,,,,,,FEW,2300,BKN,4100,OVC,6000,,,VFR,,,,,,,,,,,,METAR,34.0
KBQP 170835Z AUTO 27005KT 20/20 A2986 RMK AO2 T02010195 PWINO,KBQP,2023-05-17T08:35:00Z,32.75,-91.88,20.1,19.5,270,5,,,29.861221,,,TRUE,TRUE,,,,,TRUE,,,,,,,,,,,,,,,,,,,,,,METAR,50.0
KBQK 170835Z AUTO 25007KT 10SM CLR 22/21 A2982 RMK AO2 T02200208,KBQK,2023-05-17T08:35:00Z,31.25,-81.47,22.0,20.8,250,7,,10.0,29.819881,,,TRUE,TRUE,,,,,,,CLR,,,,,,,,VFR,,,,,,,,,,,,METAR,7.0
KBPG 170835Z AUTO 18004KT 10SM CLR 18/15 A3000 RMK AO2 T01820152,KBPG,2023-05-17T08:35:00Z,32.22,-101.52,18.2,15.2,180,4,,10.0,30.0,,,TRUE,TRUE,,,,,,,CLR,,,,,,,,VFR,,,,,,,,,,,,SPECI,782.0
KBPC 170835Z AUTO 00000KT 10SM CLR 15/12 A3000 RMK AO2,KBPC,2023-05-17T08:35:00Z,35.88,-101.03,15.0,12.0,0,0,,10.0,30.0,,,TRUE,TRUE,,,,,,,CLR,,,,,,,,VFR,,,,,,,,,,,,METAR,844.0
KBOW 170835Z AUTO 00000KT 10SM CLR 23/21 A2989 RMK AO2,KBOW,2023-05-17T08:35:00Z,27.93,-81.77,23.0,21.0,0,0,,10.0,29.890747,,,TRUE,TRUE,,,,,,,CLR,,,,,,,,VFR,,,,,,,,,,,,SPECI,38.0
KBNW 170835Z AUTO 35007G19KT 310V050 10SM BKN080 14/09 A2991 RMK AO2,KBNW,2023-05-17T08:35:00Z,42.03,-93.83,14.0,9.0,350,7,19,10.0,29.911417,,,TRUE,TRUE,,,,,,,BKN,8000,,,,,,,VFR,,,,,,,,,,,,SPECI,350.0
KBNL 170835Z AUTO 24006KT 10SM OVC120 21/18 A2976 RMK AO2,KBNL,2023-05-17T08:35:00Z,33.25,-81.38,21.0,18.0,240,6,,10.0,29.760826,,,TRUE,TRUE,,,,,,,OVC,12000,,,,,,,VFR,,,,,,,,,,,,METAR,76.0
KBMT 170835Z AUTO 32004KT 10SM CLR 20/20 A2989 RMK AO2 T02030198,KBMT,2023-05-17T08:35:00Z,30.07,-94.22,20.3,19.8,320,4,,10.0,29.890747,,,TRUE,TRUE,,,,,,,CLR,,,,,,,,VFR,,,,,,,,,,,,SPECI,8.0
KBKT 170835Z AUTO 31005KT 10SM SCT070 OVC100 18/18 A2967 RMK AO1 T01780178,KBKT,2023-05-17T08:35:00Z,37.07,-77.95,17.8,17.8,310,5,,10.0,29.66929,,,TRUE,TRUE,,,,,,,SCT,7000,OVC,10000,,,,,VFR,,,,,,,,,,,,SPECI,134.0
KBKS 170835Z AUTO 35003KT 9SM CLR 20/20 A2990 RMK AO2 SLP086 T02050205 $,KBKS,2023-05-17T08:35:00Z,27.2,-98.12,20.5,20.5,350,3,,9.0,29.899607,1008.6,,TRUE,TRUE,TRUE,,,,,,CLR,,,,,,,,VFR,,,,,,,,,,,,SPECI,34.0
KBKN 170835Z AUTO 26005KT OVC032 12/12 A2998 RMK AO2,KBKN,2023-05-17T08:35:00Z,36.75,-97.35,12.0,12.0,260,5,,,29.97933,,,TRUE,TRUE,,,,,,,OVC,3200,,,,,,,,,,,,,,,,,,,SPECI,208.0
KBKD 170835Z AUTO 00000KT 7SM CLR 17/16 A2996 RMK AO2 T01690159,KBKD,2023-05-17T08:35:00Z,32.72,-98.88,16.9,15.9,0,0,,7.0,29.958662,,,TRUE,TRUE,,,,,,,CLR,,,,,,,,VFR,,,,,,,,,,,,METAR,383.0
KBJI 170835Z AUTO 15006KT CLR 09/06 A2996 RMK AO2 T00920059,KBJI,2023-05-17T08:35:00Z,47.5,-94.92,9.2,5.9,150,6,,,29.958662,,,TRUE,TRUE,,,,,,,CLR,,,,,,,,,,,,,,,,,,,,SPECI,422.0
KBJC 170835Z AUTO 27005KT 10SM CLR 11/05 A3014 RMK AO2,KBJC,2023-05-17T08:35:00Z,39.9,-105.1,11.0,5.0,270,5,,10.0,30.138779,,,TRUE,TRUE,,,,,,,CLR,,,,,,,,VFR,,,,,,,,,,,,SPECI,1694.0
KBIJ 170835Z AUTO 00000KT 2 1/2SM BR OVC001 18/17 A2983 RMK AO2,KBIJ,2023-05-17T08:35:00Z,31.4,-84.9,18.0,17.0,0,0,,2.5,29.828741,,,TRUE,TRUE,,,,,,BR,OVC,100,,,,,,,LIFR,,,,,,,,,,,,SPECI,63.0
KBIE 170835Z AUTO 29003KT 7SM CLR 12/11 A2998 RMK AO2 T01150105,KBIE,2023-05-17T08:35:00Z,40.28,-96.75,11.5,10.5,290,3,,7.0,29.97933,,,TRUE,TRUE,,,,,,,CLR,,,,,,,,VFR,,,,,,,,,,,,METAR,398.0
KBHC 170835Z AUTO 23004KT 10SM CLR 19/18 A2982 RMK AO2,KBHC,2023-05-17T08:35:00Z,31.72,-82.4,19.0,18.0,230,4,,10.0,29.819881,,,TRUE,TRUE,,,,,,,CLR,,,,,,,,VFR,,,,,,,,,,,,METAR,61.0
KBGF 170835Z AUTO 00000KT 10SM FEW010 OVC017 19/19 A2983 RMK A01,KBGF,2023-05-17T08:35:00Z,35.18,-86.07,19.0,19.0,0,0,,10.0,29.828741,,,TRUE,TRUE,,,,,,,FEW,1000,OVC,1700,,,,,MVFR,,,,,,,,,,,,SPECI,295.0
KBGE 170835Z AUTO 00000KT 10SM CLR 20/20 A2984 RMK AO2 T02010195,KBGE,2023-05-17T08:35:00Z,30.97,-84.63,20.1,19.5,0,0,,10.0,29.840551,,,TRUE,TRUE,,,,,,,CLR,,,,,,,,VFR,,,,,,,,,,,,METAR,40.0
KBFR 170835Z AUTO 00000KT 10SM CLR 11/08 A2986 RMK AO2,KBFR,2023-05-17T08:35:00Z,38.83,-86.45,11.0,8.0,0,0,,10.0,29.861221,,,TRUE,TRUE,,,,,,,CLR,,,,,,,,VFR,,,,,,,,,,,,SPECI,223.0
KBEC 170835Z AUTO 00000KT 10SM CLR 14/14 A2999 RMK AO2 T01350135,KBEC,2023-05-17T08:35:00Z,37.7,-97.22,13.5,13.5,0,0,,10.0,29.991142,,,TRUE,TRUE,,,,,,,CLR,,,,,,,,VFR,,,,,,,,,,,,METAR,421.0
KBEA 170835Z AUTO 29003KT 10SM CLR 19/18 A2992 RMK AO2 T01900181 PWINO,KBEA,2023-05-17T08:35:00Z,28.37,-97.78,19.0,18.1,290,3,,10.0,29.920275,,,TRUE,TRUE,,,,,TRUE,,CLR,,,,,,,,VFR,,,,,,,,,,,,METAR,83.0
KBDU 170835Z AUTO 23005KT 10SM CLR 12/04 A3011 RMK AO2,KBDU,2023-05-17T08:35:00Z,40.03,-105.23,12.0,4.0,230,5,,10.0,30.109253,,,TRUE,TRUE,,,,,,,CLR,,,,,,,,VFR,,,,,,,,,,,,SPECI,1614.0
KBDN 170835Z AUTO 00000KT 10SM CLR 13/08 A3011 RMK AO2,KBDN,2023-05-17T08:35:00Z,44.1,-121.2,13.0,8.0,0,0,,10.0,30.109253,,,TRUE,TRUE,,,,,,,CLR,,,,,,,,VFR,,,,,,,,,,,,METAR,1044.0
KBDH 170835Z AUTO 09007KT 10SM CLR 14/08 A2997 RMK AO2,KBDH,2023-05-17T08:35:00Z,45.12,-95.13,14.0,8.0,90,7,,10.0,29.970472,,,TRUE,TRUE,,,,,,,CLR,,,,,,,,VFR,,,,,,,,,,,,SPECI,341.0
KBDG 170835Z AUTO 33007KT 10SM 11/02 A3021 RMK AO1 T01120018,KBDG,2023-05-17T08:35:00Z,37.58,-109.47,11.2,1.8,330,7,,10.0,30.209646,,,TRUE,TRUE,,,,,,,,,,,,,,,,,,,,,,,,,,,METAR,1778.0
KBCK 170835Z AUTO 10005KT 10SM CLR 09/04 A3001 RMK AO2 T00930035,KBCK,2023-05-17T08:35:00Z,44.25,-90.85,9.3,3.5,100,5,,10.0,30.008858,,,TRUE,TRUE,,,,,,,CLR,,,,,,,,VFR,,,,,,,,,,,,SPECI,256.0
KBCB 170835Z AUTO 31004KT 10SM SCT026 SCT032 15/15 A2982 RMK AO2 T01500150,KBCB,2023-05-17T08:35:00Z,37.22,-80.42,15.0,15.0,310,4,,10.0,29.819881,,,TRUE,TRUE,,,,,,,SCT,2600,SCT,3200,,,,,VFR,,,,,,,,,,,,METAR,642.0
KBBP 170835Z AUTO 00000KT 10SM SCT027 19/19 A2973 RMK AO2,KBBP,2023-05-17T08:35:00Z,34.62,-79.73,19.0,19.0,0,0,,10.0,29.731298,,,TRUE,TRUE,,,,,,,SCT,2700,,,,,,,VFR,,,,,,,,,,,,SPECI,44.0
KBBG 170835Z AUTO 00000KT 10SM OVC004 15/15 A2994 RMK AO2,KBBG,2023-05-17T08:35:00Z,36.53,-93.2,15.0,15.0,0,0,,10.0,29.940945,,,TRUE,TRUE,,,,,,,OVC,400,,,,,,,LIFR,,,,,,,,,,,,METAR,403.0
KBBD 170835Z AUTO 00000KT 10SM CLR 18/17 A2997 RMK AO2,KBBD,2023-05-17T08:35:00Z,31.18,-99.32,18.0,17.0,0,0,,10.0,29.970472,,,TRUE,TRUE,,,,,,,CLR,,,,,,,,VFR,,,,,,,,,,,,SPECI,554.0
KBAX 170835Z AUTO 05006KT 10SM CLR 03/02 A2996 RMK AO2 T00330017,KBAX,2023-05-17T08:35:00Z,43.78,-82.98,3.3,1.7,50,6,,10.0,29.958662,,,TRUE,TRUE,,,,,,,CLR,,,,,,,,VFR,,,,,,,,,,,,SPECI,229.0
KBAM 170835Z AUTO 19004KT 10SM CLR 10/00 A3011 RMK AO1,KBAM,2023-05-17T08:35:00Z,40.6,-116.87,10.0,0.0,190,4,,10.0,30.109253,,,TRUE,TRUE,,,,,,,CLR,,,,,,,,VFR,,,,,,,,,,,,METAR,1381.0
KBAC 170835Z AUTO 19004KT 9SM BKN080 13/11 A2991 RMK AO2,KBAC,2023-05-17T08:35:00Z,46.93,-98.02,13.0,11.0,190,4,,9.0,29.911417,,,TRUE,TRUE,,,,,,,BKN,8000,,,,,,,VFR,,,,,,,,,,,,SPECI,423.0
KAZE 170835Z AUTO 24003KT 10SM CLR 20/19 A2981 RMK AO2 T02000191,KAZE,2023-05-17T08:35:00Z,31.88,-82.65,20.0,19.1,240,3,,10.0,29.811024,,,TRUE,TRUE,,,,,,,CLR,,,,,,,,VFR,,,,,,,,,,,,SPECI,78.0
KAZC 170835Z AUTO 21004KT 10SM SCT120 16/10 A3017 RMK AO2,KAZC,2023-05-17T08:35:00Z,36.97,-113.02,16.0,10.0,210,4,,10.0,30.171259,,,TRUE,TRUE,,,,,,,SCT,12000,,,,,,,VFR,,,,,,,,,,,,METAR,1476.0
KAYS 170835Z AUTO 25005KT 7SM BKN004 21/21 A2982 RMK AO2 T02120205,KAYS,2023-05-17T08:35:00Z,31.25,-82.4,21.2,20.5,250,5,,7.0,29.819881,,,TRUE,TRUE,,,,,,,BKN,400,,,,,,,LIFR,,,,,,,,,,,,METAR,42.0
KAXX 170835Z AUTO 00000KT 7SM BKN003 BKN006 04/03 A3033 RMK AO2 T00350029,KAXX,2023-05-17T08:35:00Z,36.42,-105.28,3.5,2.9,0,0,,7.0,30.33071,,,TRUE,TRUE,,,,,,,BKN,300,BKN,600,,,,,LIFR,,,,,,,,,,,,METAR,2543.0
KAXV 170835Z AUTO 03005KT 10SM CLR 10/06 A2986 RMK AO2,KAXV,2023-05-17T08:35:00Z,40.5,-84.3,10.0,6.0,30,5,,10.0,29.861221,,,TRUE,TRUE,,,,,,,CLR,,,,,,,,VFR,,,,,,,,,,,,SPECI,278.0
KAXS 170835Z AUTO 10007KT 10SM CLR 17/15 A2999 RMK AO2 T01660145,KAXS,2023-05-17T08:35:00Z,34.7,-99.33,16.6,14.5,100,7,,10.0,29.991142,,,TRUE,TRUE,,,,,,,CLR,,,,,,,,VFR,,,,,,,,,,,,SPECI,433.0
KAXH 170835Z AUTO 00000KT 7SM CLR 19/18 A2992 RMK AO2 T01900182,KAXH,2023-05-17T08:35:00Z,29.52,-95.48,19.0,18.2,0,0,,7.0,29.920275,,,TRUE,TRUE,,,,,,,CLR,,,,,,,,VFR,,,,,,,,,,,,METAR,18.0
KAXA 170835Z AUTO 04007KT 10SM CLR 14/11 A2991 RMK A01,KAXA,2023-05-17T08:35:00Z,43.07,-94.27,14.0,11.0,40,7,,10.0,29.911417,,,TRUE,TRUE,,,,,,,CLR,,,,,,,,VFR,,,,,,,,,,,,SPECI,371.0
KAWG 170835Z AUTO 06009KT 10SM CLR 13/13 A2990 RMK AO2,KAWG,2023-05-17T08:35:00Z,41.27,-91.67,13.0,13.0,60,9,,10.0,29.899607,,,TRUE,TRUE,,,,,,,CLR,,,,,,,,VFR,,,,,,,,,,,,METAR,229.0
KAVQ 170835Z AUTO 33004KT 10SM 25/10 A2996 RMK AO2 T02450101,KAVQ,2023-05-17T08:35:00Z,32.4,-111.22,24.5,10.1,330,4,,10.0,29.958662,,,TRUE,TRUE,,,,,,,,,,,,,,,,,,,,,,,,,,,SPECI,618.0
KAVC 170835Z AUTO 00000KT 10SM SCT005 BKN055 19/19 A2972 RMK AO2 T01860185,KAVC,2023-05-17T08:35:00Z,36.68,-78.05,18.6,18.5,0,0,,10.0,29.719488,,,TRUE,TRUE,,,,,,,SCT,500,BKN,5500,,,,,VFR,,,,,,,,,,,,SPECI,119.0
KAUN 170835Z AUTO 09009KT 10SM CLR 20/05 A2998 RMK A01,KAUN,2023-05-17T08:35:00Z,38.95,-121.08,20.0,5.0,90,9,,10.0,29.97933,,,TRUE,TRUE,,,,,,,CLR,,,,,,,,VFR,,,,,,,,,,,,SPECI,453.0
KAUH 170835Z AUTO 00000KT 10SM CLR 09/04 A3000 RMK AO2 T00900038,KAUH,2023-05-17T08:35:00Z,40.88,-98.0,9.0,3.8,0,0,,10.0,30.0,,,TRUE,TRUE,,,,,,,CLR,,,,,,,,VFR,,,,,,,,,,,,METAR,549.0
KATW 170835Z AUTO 02008KT 10SM CLR 00/M06 A3002 RMK AO2,KATW,2023-05-17T08:35:00Z,44.27,-88.52,0.0,-6.0,20,8,,10.0,30.02067,,,TRUE,TRUE,,,,,,,CLR,,,,,,,,VFR,,,,,,,,,,,,SPECI,266.0
KATS 170835Z AUTO 12006KT 10SM CLR 19/08 A3004 RMK AO2,KATS,2023-05-17T08:35:00Z,32.85,-104.47,19.0,8.0,120,6,,10.0,30.041338,,,TRUE,TRUE,,,,,,,CLR,,,,,,,,VFR,,,,,,,,,,,,SPECI,1073.0
KATA 170835Z AUTO 30005KT 9SM SCT037 17/16 A2988 RMK AO2 SLP017 T01680165 $,KATA,2023-05-17T08:35:00Z,33.1,-94.2,16.8,16.5,300,5,,9.0,29.878937,1001.7,,TRUE,TRUE,TRUE,,,,,,SCT,3700,,,,,,,VFR,,,,,,,,,,,,METAR,85.0
KASW 170835Z AUTO 09004KT 7SM CLR 10/06 A2989 RMK AO2 T00990067,KASW,2023-05-17T08:35:00Z,41.27,-85.83,9.9,6.7,90,4,,7.0,29.890747,,,TRUE,TRUE,,,,,,,CLR,,,,,,,,VFR,,,,,,,,,,,,METAR,253.0
KASN 170835Z AUTO 22004KT 10SM OVC004 20/19 A2984 RMK AO2 T01990194,KASN,2023-05-17T08:35:00Z,33.57,-86.05,19.9,19.4,220,4,,10.0,29.840551,,,TRUE,TRUE,,,,,,,OVC,400,,,,,,,LIFR,,,,,,,,,,,,METAR,159.0
KASL 170835Z AUTO 33003KT 10SM CLR 17/17 A2987 RMK AO2 T01730169 $,KASL,2023-05-17T08:35:00Z,32.52,-94.3,17.3,16.9,330,3,,10.0,29.870079,,,TRUE,TRUE,TRUE,,,,,,CLR,,,,,,,,VFR,,,,,,,,,,,,SPECI,104.0
KARW 170835Z AUTO 23005KT 10SM CLR 22/20 A2978 RMK AO2,KARW,2023-05-17T08:35:00Z,32.42,-80.63,22.0,20.0,230,5,,10.0,29.778543,,,TRUE,TRUE,,,,,,,CLR,,,,,,,,VFR,,,,,,,,,,,,SPECI,2.0
KARV 170835Z AUTO 00000KT 10SM CLR 01/M02 A3004 RMK AO2 T00091025,KARV,2023-05-17T08:35:00Z,45.92,-89.72,0.9,-2.5,0,0,,10.0,30.041338,,,TRUE,TRUE,,,,,,,CLR,,,,,,,,VFR,,,,,,,,,,,,SPECI,494.0
KARM 170835Z AUTO 31003KT 7SM CLR 18/18 A2993 RMK AO2 T01820182 TSNO,KARM,2023-05-17T08:35:00Z,29.25,-96.15,18.2,18.2,310,3,,7.0,29.929134,,,TRUE,TRUE,,,TRUE,,,,CLR,,,,,,,,VFR,,,,,,,,,,,,SPECI,29.0
KAQX 170835Z AUTO 00000KT 10SM BKN120 21/20 A2976 RMK AO2,KAQX,2023-05-17T08:35:00Z,32.98,-81.27,21.0,20.0,0,0,,10.0,29.760826,,,TRUE,TRUE,,,,,,,BKN,12000,,,,,,,VFR,,,,,,,,,,,,SPECI,48.0
KAQO 170835Z AUTO 00000KT 9SM BKN050 18/17 A2995 RMK AO2,KAQO,2023-05-17T08:35:00Z,30.78,-98.67,18.0,17.0,0,0,,9.0,29.949802,,,TRUE,TRUE,,,,,,,BKN,5000,,,,,,,VFR,,,,,,,,,,,,SPECI,334.0
KAPY 170835Z AUTO 01003KT 5SM BR SCT080 22/22 A2992 RMK AO2 T02220218 TSNO,KAPY,2023-05-17T08:35:00Z,26.97,-99.25,22.2,21.8,10,3,,5.0,29.920275,,,TRUE,TRUE,,,TRUE,,,BR,SCT,8000,,,,,,,MVFR,,,,,,,,,,,,METAR,129.0
KAPS 170835Z AUTO 24003KT 10SM CLR 23/21 A2985 RMK AO2,KAPS,2023-05-17T08:35:00Z,30.08,-90.58,23.0,21.0,240,3,,10.0,29.84941,,,TRUE,TRUE,,,,,,,CLR,,,,,,,,VFR,,,,,,,,,,,,METAR,1.0
KANW 170835Z AUTO 21006KT 10SM CLR 09/06 A3002 RMK AO2 T00890060,KANW,2023-05-17T08:35:00Z,42.57,-100.0,8.9,6.0,210,6,,10.0,30.02067,,,TRUE,TRUE,,,,,,,CLR,,,,,,,,VFR,,,,,,,,,,,,SPECI,788.0
KANQ 170835Z AUTO 06005KT 10SM FEW034 FEW041 09/05 A2990 RMK AO2,KANQ,2023-05-17T08:35:00Z,41.63,-85.08,9.0,5.0,60,5,,10.0,29.899607,,,TRUE,TRUE,,,,,,,FEW,3400,FEW,4100,,,,,VFR,,,,,,,,,,,,SPECI,299.0
KANE 170835Z AUTO 09004KT 10SM CLR 11/04 A2998 RMK AO2,KANE,2023-05-17T08:35:00Z,45.15,-93.22,11.0,4.0,90,4,,10.0,29.97933,,,TRUE,TRUE,,,,,,,CLR,,,,,,,,VFR,,,,,,,,,,,,SPECI,276.0
KAMN 170835Z AUTO 00000KT 10SM CLR 03/02 A2996 RMK AO2 T00250020,KAMN,2023-05-17T08:35:00Z,43.32,-84.68,2.5,2.0,0,0,,10.0,29.958662,,,TRUE,TRUE,,,,,,,CLR,,,,,,,,VFR,,,,,,,,,,,,SPECI,228.0
KALX 170835Z AUTO 00000KT 1/2SM FG OVC002 19/19 A2983 RMK AO2 T01870186,KALX,2023-05-17T08:35:00Z,32.92,-85.97,18.7,18.6,0,0,,0.5,29.828741,,,TRUE,TRUE,,,,,,FG,OVC,200,,,,,,,LIFR,,,,,,,,,,,,METAR,198.0
KALN 170835Z AUTO 00000KT 3SM BR CLR 14/13 A2990 RMK AO2 T01350132,KALN,2023-05-17T08:35:00Z,38.88,-90.03,13.5,13.2,0,0,,3.0,29.899607,,,TRUE,TRUE,,,,,,BR,CLR,,,,,,,,MVFR,,,,,,,,,,,,SPECI,159.0
KALM 170835Z AUTO 25008KT 10SM BKN075 OVC090 18/07 A3009 RMK AO2,KALM,2023-05-17T08:35:00Z,32.83,-105.98,18.0,7.0,250,8,,10.0,30.088583,,,TRUE,TRUE,,,,,,,BKN,7500,OVC,9000,,,,,VFR,,,,,,,,,,,,SPECI,1267.0
KAJZ 170835Z AUTO 04003KT 10SM CLR 12/03 A3014 RMK AO2 T01150025 PWINO,KAJZ,2023-05-17T08:35:00Z,38.78,-108.07,11.5,2.5,40,3,,10.0,30.138779,,,TRUE,TRUE,,,,,TRUE,,CLR,,,,,,,,VFR,,,,,,,,,,,,METAR,1583.0
KAJR 170835Z AUTO 26005KT 10SM SCT005 19/19 A2980 RMK AO2 T01910191,KAJR,2023-05-17T08:35:00Z,34.5,-83.55,19.1,19.1,260,5,,10.0,29.799213,,,TRUE,TRUE,,,,,,,SCT,500,,,,,,,VFR,,,,,,,,,,,,METAR,441.0
KAJG 170835Z AUTO 26005KT 10SM CLR 14/13 A2987 RMK AO2 T01350128,KAJG,2023-05-17T08:35:00Z,38.62,-87.73,13.5,12.8,260,5,,10.0,29.870079,,,TRUE,TRUE,,,,,,,CLR,,,,,,,,VFR,,,,,,,,,,,,SPECI,130.0
KAIT 170835Z AUTO 00000KT 10SM CLR 04/02 A3001 RMK AO2,KAIT,2023-05-17T08:35:00Z,46.53,-93.67,4.0,2.0,0,0,,10.0,30.008858,,,TRUE,TRUE,,,,,,,CLR,,,,,,,,VFR,,,,,,,,,,,,SPECI,367.0
KAIO 170835Z AUTO 00000KT 10SM OVC090 10/10 A2992 RMK AO2,KAIO,2023-05-17T08:35:00Z,41.4,-95.03,10.0,10.0,0,0,,10.0,29.920275,,,TRUE,TRUE,,,,,,,OVC,9000,,,,,,,VFR,,,,,,,,,,,,METAR,349.0
KAIK 170835Z AUTO 25006KT 10SM CLR 20/17 A2976 RMK AO2 T02040171,KAIK,2023-05-17T08:35:00Z,33.65,-81.68,20.4,17.1,250,6,,10.0,29.760826,,,TRUE,TRUE,,,,,,,CLR,,,,,,,,VFR,,,,,,,,,,,,SPECI,155.0
KAIG 170835Z AUTO 00000KT 10SM CLR 01/M03 A3004 RMK AO2 T00131026,KAIG,2023-05-17T08:35:00Z,45.15,-89.12,1.3,-2.6,0,0,,10.0,30.041338,,,TRUE,TRUE,,,,,,,CLR,,,,,,,,VFR,,,,,,,,,,,,SPECI,462.0
KAID 170835Z AUTO 00000KT 5SM BR CLR 10/09 A2986 RMK AO2 T01040088,KAID,2023-05-17T08:35:00Z,40.12,-85.62,10.4,8.8,0,0,,5.0,29.861221,,,TRUE,TRUE,,,,,,BR,CLR,,,,,,,,MVFR,,,,,,,,,,,,METAR,277.0
KAHQ 170835Z AUTO 34004KT 10SM A2996 RMK AO2,KAHQ,2023-05-17T08:35:00Z,41.23,-96.6,,,340,4,,10.0,29.958662,,,TRUE,TRUE,,,,,,,,,,,,,,,,,,,,,,,,,,,METAR,372.0
KAGO 170835Z AUTO 00000KT 8SM FEW045 17/16 A2986 RMK A01,KAGO,2023-05-17T08:35:00Z,33.23,-93.22,17.0,16.0,0,0,,8.0,29.861221,,,TRUE,TRUE,,,,,,,FEW,4500,,,,,,,VFR,,,,,,,,,,,,SPECI,91.0
KAGI 170835Z AUTO 21007KT 10SM CLR 25/20 A2989 RMK AO2 T02540199,KAGI,2023-05-17T08:35:00Z,27.55,-92.45,25.4,19.9,210,7,,10.0,29.890747,,,TRUE,TRUE,,,,,,,CLR,,,,,,,,VFR,,,,,,,,,,,,SPECI,41.0
KAFO 170835Z AUTO 00000KT 10SM CLR 05/02 A3022 RMK AO2,KAFO,2023-05-17T08:35:00Z,42.72,-110.95,5.0,2.0,0,0,,10.0,30.221457,,,TRUE,TRUE,,,,,,,CLR,,,,,,,,VFR,,,,,,,,,,,,SPECI,1881.0
KAFK 170835Z AUTO 29007KT 10SM CLR 14/09 A2995 RMK AO2 T01380090,KAFK,2023-05-17T08:35:00Z,40.6,-95.85,13.8,9.0,290,7,,10.0,29.949802,,,TRUE,TRUE,,,,,,,CLR,,,,,,,,VFR,,,,,,,,,,,,METAR,353.0
KAEL 170835Z AUTO 08004KT 10SM 13/07 A2995 RMK AO2,KAEL,2023-05-17T08:35:00Z,43.68,-93.37,13.0,7.0,80,4,,10.0,29.949802,,,TRUE,TRUE,,,,,,,,,,,,,,,,,,,,,,,,,,,METAR,382.0
KAEJ 170835Z AUTO 30011KT 10SM CLR 07/01 A3028 RMK AO2 T00700010,KAEJ,2023-05-17T08:35:00Z,38.82,-106.12,7.0,1.0,300,11,,10.0,30.280512,,,TRUE,TRUE,,,,,,,CLR,,,,,,,,VFR,,,,,,,,,,,,METAR,2420.0
KAEG 170835Z AUTO 00000KT 10SM SCT100 14/08 A3017 RMK AO2 T01380082,KAEG,2023-05-17T08:35:00Z,35.13,-106.8,13.8,8.2,0,0,,10.0,30.171259,,,TRUE,TRUE,,,,,,,SCT,10000,,,,,,,VFR,,,,,,,,,,,,SPECI,1771.0
KADU 170835Z AUTO 00000KT 10SM SCT050 SCT065 BKN085 09/07 A2993 RMK AO2 PWINO,KADU,2023-05-17T08:35:00Z,41.7,-94.92,9.0,7.0,0,0,,10.0,29.929134,,,TRUE,TRUE,,,,,TRUE,,SCT,5000,SCT,6500,BKN,8500,,,VFR,,,,,,,,,,,,METAR,391.0
KADT 170835Z AUTO 00000KT 10SM CLR 10/09 A3009 RMK AO2 T01010086,KADT,2023-05-17T08:35:00Z,39.83,-101.05,10.1,8.6,0,0,,10.0,30.088583,,,TRUE,TRUE,,,,,,,CLR,,,,,,,,VFR,,,,,,,,,,,,SPECI,899.0
KADS 170835Z AUTO 00000KT 10SM CLR 17/14 A2995 RMK AO2 T01710140,KADS,2023-05-17T08:35:00Z,32.97,-96.83,17.1,14.0,0,0,,10.0,29.949802,,,TRUE,TRUE,,,,,,,CLR,,,,,,,,VFR,,,,,,,,,,,,METAR,198.0
KADM 170835Z AUTO 00000KT 9SM CLR 13/13 A2995 RMK AO2,KADM,2023-05-17T08:35:00Z,34.3,-97.02,13.0,13.0,0,0,,9.0,29.949802,,,TRUE,TRUE,,,,,,,CLR,,,,,,,,VFR,,,,,,,,,,,,METAR,223.0
KADH 170835Z AUTO 29005KT 7SM OVC028 13/13 A2996 RMK AO2,KADH,2023-05-17T08:35:00Z,34.8,-96.67,13.0,13.0,290,5,,7.0,29.958662,,,TRUE,TRUE,,,,,,,OVC,2800,,,,,,,MVFR,,,,,,,,,,,,METAR,301.0
KACQ 170835Z AUTO 07006KT 10SM CLR 12/05 A2996 RMK AO2,KACQ,2023-05-17T08:35:00Z,44.07,-93.55,12.0,5.0,70,6,,10.0,29.958662,,,TRUE,TRUE,,,,,,,CLR,,,,,,,,VFR,,,,,,,,,,,,SPECI,339.0
KACP 170835Z AUTO 00000KT 7SM CLR 20/18 A2987 RMK AO2,KACP,2023-05-17T08:35:00Z,30.75,-92.68,20.0,18.0,0,0,,7.0,29.870079,,,TRUE,TRUE,,,,,,,CLR,,,,,,,,VFR,,,,,,,,,,,,SPECI,31.0
KACJ 170835Z AUTO 25003KT 10SM CLR 19/19 A2983 RMK AO2 T01880188,KACJ,2023-05-17T08:35:00Z,32.12,-84.18,18.8,18.8,250,3,,10.0,29.828741,,,TRUE,TRUE,,,,,,,CLR,,,,,,,,VFR,,,,,,,,,,,,SPECI,140.0
KACB 170835Z AUTO 00000KT 10SM CLR 00/M01 A3002 RMK AO2 T00001009,KACB,2023-05-17T08:35:00Z,44.98,-85.2,0.0,-0.9,0,0,,10.0,30.02067,,,TRUE,TRUE,,,,,,,CLR,,,,,,,,VFR,,,,,,,,,,,,SPECI,189.0
KAAS 170835Z AUTO 00000KT 1 1/4SM SCT008 13/13 A2992 RMK AO1,KAAS,2023-05-17T08:35:00Z,37.35,-85.32,13.0,13.0,0,0,,1.25,29.920275,,,TRUE,TRUE,,,,,,,SCT,800,,,,,,,IFR,,,,,,,,,,,,SPECI,270.0
KAAA 170835Z AUTO 03004KT 10SM CLR 14/10 A2989 RMK AO2 T01380103,KAAA,2023-05-17T08:35:00Z,40.17,-89.33,13.8,10.3,30,4,,10.0,29.890747,,,TRUE,TRUE,,,,,,,CLR,,,,,,,,VFR,,,,,,,,,,,,METAR,179.0
KA39 170835Z AUTO 16006KT 10SM CLR 25/12 A2995 RMK AO2,KA39,2023-05-17T08:35:00Z,32.98,-111.92,25.0,12.0,160,6,,10.0,29.949802,,,TRUE,TRUE,,,,,,,CLR,,,,,,,,VFR,,,,,,,,,,,,SPECI,391.0
K9V9 170835Z AUTO 00000KT 10SM CLR 09/08 A2998 RMK AO2 T00920077,K9V9,2023-05-17T08:35:00Z,43.77,-99.32,9.2,7.7,0,0,,10.0,29.97933,,,TRUE,TRUE,,,,,,,CLR,,,,,,,,VFR,,,,,,,,,,,,METAR,511.0
K9MN 170835Z AUTO 00000KT 10SM CLR 12/05 A2997 RMK AO1 T01230046,K9MN,2023-05-17T08:35:00Z,44.02,-92.48,12.3,4.6,0,0,,10.0,29.970472,,,TRUE,TRUE,,,,,,,CLR,,,,,,,,VFR,,,,,,,,,,,,METAR,308.0
K9D7 170835Z AUTO 15007KT 7SM CLR 11/11 A2988 RMK AO2 TSNO,K9D7,2023-05-17T08:35:00Z,48.48,-99.23,11.0,11.0,150,7,,7.0,29.878937,,,TRUE,TRUE,,,TRUE,,,,CLR,,,,,,,,VFR,,,,,,,,,,,,SPECI,451.0
K9A5 170835Z AUTO 00000KT 5SM SCT004 BKN055 OVC110 18/18 A2984 RMK AO2 T01800180,K9A5,2023-05-17T08:35:00Z,34.68,-85.28,18.0,18.0,0,0,,5.0,29.840551,,,TRUE,TRUE,,,,,,,SCT,400,BKN,5500,OVC,11000,,,MVFR,,,,,,,,,,,,SPECI,234.0
K96D 170835Z AUTO 15007KT 10SM CLR 13/02 A2985 RMK AO2,K96D,2023-05-17T08:35:00Z,48.93,-97.9,13.0,2.0,150,7,,10.0,29.84941,,,TRUE,TRUE,,,,,,,CLR,,,,,,,,VFR,,,,,,,,,,,,SPECI,290.0
K8W2 170835Z AUTO 08003KT 10SM CLR A2972 RMK AO1,K8W2,2023-05-17T08:35:00Z,38.65,-78.7,,,80,3,,10.0,29.719488,,,TRUE,TRUE,,,,,,,CLR,,,,,,,,VFR,,,,,,,,,,,,METAR,295.0
K8T6 170835Z AUTO 00000KT 9SM OVC023 18/18 A2993 RMK AO2,K8T6,2023-05-17T08:35:00Z,28.37,-98.12,18.0,18.0,0,0,,9.0,29.929134,,,TRUE,TRUE,,,,,,,OVC,2300,,,,,,,MVFR,,,,,,,,,,,,METAR,39.0
K8B0 170835Z AUTO 00000KT 10SM BKN049 OVC055 00/M02 A2959 RMK AO2,K8B0,2023-05-17T08:35:00Z,44.98,-70.65,0.0,-2.0,0,0,,10.0,29.589567,,,TRUE,TRUE,,,,,,,BKN,4900,OVC,5500,,,,,VFR,,,,,,,,,,,,SPECI,552.0
K8A3 170835Z AUTO 03003KT 8SM SCT006 BKN010 OVC017 17/16 A2986 RMK A01,K8A3,2023-05-17T08:35:00Z,36.42,-85.32,17.0,16.0,30,3,,8.0,29.861221,,,TRUE,TRUE,,,,,,,SCT,600,BKN,1000,OVC,1700,,,MVFR,,,,,,,,,,,,SPECI,413.0
K8A0 170835Z AUTO 00000KT 7SM BKN011 OVC019 18/17 A2985 RMK AO2,K8A0,2023-05-17T08:35:00Z,34.23,-86.25,18.0,17.0,0,0,,7.0,29.84941,,,TRUE,TRUE,,,,,,,BKN,1100,OVC,1900,,,,,MVFR,,,,,,,,,,,,METAR,313.0
K82V 170835Z AUTO 21004KT 10SM 09/08 A3010 RMK AO2,K82V,2023-05-17T08:35:00Z,41.15,-104.13,9.0,8.0,210,4,,10.0,30.100393,,,TRUE,TRUE,,,,,,,,,,,,,,,,,,,,,,,,,,,SPECI,1563.0
K82C 170835Z AUTO 09005KT 10SM CLR 08/02 A3003 RMK AO2 T00790019,K82C,2023-05-17T08:35:00Z,43.83,-90.13,7.9,1.9,90,5,,10.0,30.029528,,,TRUE,TRUE,,,,,,,CLR,,,,,,,,VFR,,,,,,,,,,,,METAR,273.0
K81R 170835Z AUTO 00000KT 10SM CLR 17/17 A2997 RMK AO2 T01710166,K81R,2023-05-17T08:35:00Z,31.23,-98.72,17.1,16.6,0,0,,10.0,29.970472,,,TRUE,TRUE,,,,,,,CLR,,,,,,,,VFR,,,,,,,,,,,,SPECI,381.0
K7W4 170835Z AUTO 4SM BKN001 OVC095 18/18 A2967 RMK AO1 T01760176,K7W4,2023-05-17T08:35:00Z,37.97,-77.75,17.6,17.6,,,,4.0,29.66929,,,TRUE,TRUE,,,,,,,BKN,100,OVC,9500,,,,,LIFR,,,,,,,,,,,,SPECI,115.0
K7L2 170835Z AUTO 10004KT 10SM FEW042 SCT050 SCT055 10/10 A2994 RMK AO2,K7L2,2023-05-17T08:35:00Z,46.22,-100.25,10.0,10.0,100,4,,10.0,29.940945,,,TRUE,TRUE,,,,,,,FEW,4200,SCT,5000,SCT,5500,,,VFR,,,,,,,,,,,,SPECI,541.0
K7BM 170835Z AUTO 25005KT 10SM CLR 08/M02 A3036 RMK AO2,K7BM,2023-05-17T08:35:00Z,38.78,-106.22,8.0,-2.0,250,5,,10.0,30.360237,,,TRUE,TRUE,,,,,,,CLR,,,,,,,,VFR,,,,,,,,,,,,METAR,2996.0
K77S 170835Z AUTO 00000KT 10SM SCT030 SCT036 BKN045 16/13 A3003 RMK A01,K77S,2023-05-17T08:35:00Z,43.93,-123.0,16.0,13.0,0,0,,10.0,30.029528,,,TRUE,TRUE,,,,,,,SCT,3000,SCT,3600,BKN,4500,,,VFR,,,,,,,,,,,,SPECI,161.0
K6S2 170835Z AUTO 36005KT 9SM OVC003 12/12 A3007 RMK AO2,K6S2,2023-05-17T08:35:00Z,43.98,-124.12,12.0,12.0,360,5,,9.0,30.070866,,,TRUE,TRUE,,,,,,,OVC,300,,,,,,,LIFR,,,,,,,,,,,,SPECI,16.0
K6S0 170835Z AUTO 25017KT 10SM CLR 15/06 A3009 RMK A01,K6S0,2023-05-17T08:35:00Z,45.8,-109.97,15.0,6.0,250,17,,10.0,30.088583,,,TRUE,TRUE,,,,,,,CLR,,,,,,,,VFR,,,,,,,,,,,,METAR,1364.0
K6R3 170835Z AUTO 00000KT 7SM CLR 20/20 A2991 RMK AO2 T02000195,K6R3,2023-05-17T08:35:00Z,30.35,-95.0,20.0,19.5,0,0,,7.0,29.911417,,,TRUE,TRUE,,,,,,,CLR,,,,,,,,VFR,,,,,,,,,,,,SPECI,44.0
K6P9 170835Z AUTO 00000KT 15/14 A2996 RMK AO2 T01480140,K6P9,2023-05-17T08:35:00Z,32.43,-98.6,14.8,14.0,0,0,,,29.958662,,,TRUE,TRUE,,,,,,,,,,,,,,,,,,,,,,,,,,,METAR,451.0
K6L4 170835Z AUTO 00000KT 1 1/2SM BR SCT006 13/13 A2983 RMK AO2 VIS 1/2V5,K6L4,2023-05-17T08:35:00Z,37.85,-81.92,13.0,13.0,0,0,,1.5,29.828741,,,TRUE,TRUE,,,,,,BR,SCT,600,,,,,,,IFR,,,,,,,,,,,,SPECI,504.0
K6I2 170835Z AUTO 00000KT M1/4SM FG OVC001 12/12 A2988 RMK AO2,K6I2,2023-05-17T08:35:00Z,37.63,-85.25,12.0,12.0,0,0,,0.25,29.878937,,,TRUE,TRUE,,,,,,FG,OVC,100,,,,,,,LIFR,,,,,,,,,,,,SPECI,258.0
K6B9 170835Z AUTO 36005G10KT 10SM BKN023 OVC034 04/01 A2980 RMK AO2,K6B9,2023-05-17T08:35:00Z,42.92,-76.43,4.0,1.0,360,5,10,10.0,29.799213,,,TRUE,TRUE,,,,,,,BKN,2300,OVC,3400,,,,,MVFR,,,,,,,,,,,,SPECI,306.0
K6B0 170835Z AUTO 34007KT 10SM SCT028 OVC039 04/00 A2972 RMK AO2 T00400003,K6B0,2023-05-17T08:35:00Z,43.98,-73.1,4.0,0.3,340,7,,10.0,29.719488,,,TRUE,TRUE,,,,,,,SCT,2800,OVC,3900,,,,,VFR,,,,,,,,,,,,SPECI,149.0
K6A2 170835Z AUTO 30005KT 10SM BKN004 A2984 RMK AO2,K6A2,2023-05-17T08:35:00Z,33.23,-84.27,,,300,5,,10.0,29.840551,,,TRUE,TRUE,,,,,,,BKN,400,,,,,,,LIFR,,,,,,,,,,,,SPECI,290.0
K6A1 170835Z AUTO 29005KT 10SM OVC005 19/19 A2984 RMK AO2 T01930193,K6A1,2023-05-17T08:35:00Z,32.57,-84.25,19.3,19.3,290,5,,10.0,29.840551,,,TRUE,TRUE,,,,,,,OVC,500,,,,,,,IFR,,,,,,,,,,,,METAR,198.0
K66R 170835Z AUTO 00000KT 10SM SCT120 A2993 RMK AO2,K66R,2023-05-17T08:35:00Z,29.65,-96.52,,,0,0,,10.0,29.929134,,,TRUE,TRUE,,,,,,,SCT,12000,,,,,,,VFR,,,,,,,,,,,,METAR,70.0
K65S 170835Z AUTO 00000KT 10SM FEW050 FEW070 14/13 A3008 RMK AO2,K65S,2023-05-17T08:35:00Z,48.73,-116.3,14.0,13.0,0,0,,10.0,30.079725,,,TRUE,TRUE,,,,,,,FEW,5000,FEW,7000,,,,,VFR,,,,,,,,,,,,METAR,708.0
K63S 170835Z AUTO 00000KT 10SM OVC090 12/11 A3006 RMK A01,K63S,2023-05-17T08:35:00Z,48.53,-117.88,12.0,11.0,0,0,,10.0,30.059055,,,TRUE,TRUE,,,,,,,OVC,9000,,,,,,,VFR,,,,,,,,,,,,METAR,571.0
K5T9 170835Z AUTO 00000KT 10SM FEW044 19/19 A2994 RMK A01,K5T9,2023-05-17T08:35:00Z,28.85,-100.52,19.0,19.0,0,0,,10.0,29.940945,,,TRUE,TRUE,,,,,,,FEW,4400,,,,,,,VFR,,,,,,,,,,,,METAR,269.0
K5SM 170835Z AUTO 00000KT 10SM CLR 04/M04 A3045 RMK AO2,K5SM,2023-05-17T08:35:00Z,39.43,-107.38,4.0,-4.0,0,0,,10.0,30.448818,,,TRUE,TRUE,,,,,,,CLR,,,,,,,,VFR,,,,,,,,,,,,SPECI,3229.0
K5R8 170835Z AUTO 00000KT 10SM CLR 21/20 A2989 RMK AO2 T02050197,K5R8,2023-05-17T08:35:00Z,30.43,-93.47,20.5,19.7,0,0,,10.0,29.890747,,,TRUE,TRUE,,,,,,,CLR,,,,,,,,VFR,,,,,,,,,,,,METAR,26.0
K5H4 170835Z AUTO 21005KT 9SM CLR 13/13 A2989 RMK AO2,K5H4,2023-05-17T08:35:00Z,47.78,-99.93,13.0,13.0,210,5,,9.0,29.890747,,,TRUE,TRUE,,,,,,,CLR,,,,,,,,VFR,,,,,,,,,,,,SPECI,490.0
K5C1 170835Z AUTO 00000KT 10SM CLR 17/17 A2996 RMK AO1,K5C1,2023-05-17T08:35:00Z,29.72,-98.7,17.0,17.0,0,0,,10.0,29.958662,,,TRUE,TRUE,,,,,,,CLR,,,,,,,,VFR,,,,,,,,,,,,SPECI,422.0
K5A6 170835Z AUTO 00000KT 7SM -TSRA 20/20 A2985 RMK AO2 LTG DSNT ALQS T02000195,K5A6,2023-05-17T08:35:00Z,33.47,-89.73,20.0,19.5,0,0,,7.0,29.84941,,,TRUE,TRUE,,,,,,-TSRA,,,,,,,,,,,,,,,,,,,,,SPECI,109.0
K57C 170835Z AUTO 03007KT 10SM CLR 05/00 A2999 RMK AO2 T00541002,K57C,2023-05-17T08:35:00Z,42.8,-88.37,5.4,-0.2,30,7,,10.0,29.991142,,,TRUE,TRUE,,,,,,,CLR,,,,,,,,VFR,,,,,,,,,,,,SPECI,454.0
K54J 170835Z AUTO 00000KT 7SM CLR 20/19 A2985 RMK AO2 T01960192,K54J,2023-05-17T08:35:00Z,30.73,-86.15,19.6,19.2,0,0,,7.0,29.84941,,,TRUE,TRUE,,,,,,,CLR,,,,,,,,VFR,,,,,,,,,,,,METAR,87.0
K54A 170835Z AUTO 00000KT 7SM CLR 22/22 A2988 RMK AO2,K54A,2023-05-17T08:35:00Z,26.85,-82.25,22.0,22.0,0,0,,7.0,29.878937,,,TRUE,TRUE,,,,,,,CLR,,,,,,,,VFR,,,,,,,,,,,,SPECI,2.0
K4V1 170835Z AUTO 36008KT 10SM CLR 13/09 A3017 RMK AO2 T01330089,K4V1,2023-05-17T08:35:00Z,37.7,-104.78,13.3,8.9,360,8,,10.0,30.171259,,,TRUE,TRUE,,,,,,,CLR,,,,,,,,VFR,,,,,,,,,,,,METAR,1847.0
K4V0 170835Z AUTO 00000KT 10SM CLR 07/04 A3016 RMK AO2 T00690036,K4V0,2023-05-17T08:35:00Z,40.1,-108.77,6.9,3.6,0,0,,10.0,30.159449,,,TRUE,TRUE,,,,,,,CLR,,,,,,,,VFR,,,,,,,,,,,,METAR,1602.0
K4S2 170835Z AUTO 19003KT 10SM CLR 17/12 A3002 RMK AO2,K4S2,2023-05-17T08:35:00Z,45.68,-121.55,17.0,12.0,190,3,,10.0,30.02067,,,TRUE,TRUE,,,,,,,CLR,,,,,,,,VFR,,,,,,,,,,,,METAR,183.0
K4S1 170835Z AUTO 30003KT 4SM BR SCT004 11/11 A3004 RMK AO2,K4S1,2023-05-17T08:35:00Z,42.42,-124.42,11.0,11.0,300,3,,4.0,30.041338,,,TRUE,TRUE,,,,,,BR,SCT,400,,,,,,,MVFR,,,,,,,,,,,,METAR,7.0
K4R5 170835Z AUTO 00000KT 10SM SCT120 00/00 A3006 RMK AO2 T10041004,K4R5,2023-05-17T08:35:00Z,46.78,-90.77,-0.4,-0.4,0,0,,10.0,30.059055,,,TRUE,TRUE,,,,,,,SCT,12000,,,,,,,VFR,,,,,,,,,,,,SPECI,195.0
K4O4 170835Z AUTO 32006KT 8SM OVC032 19/18 A2991 RMK AO2,K4O4,2023-05-17T08:35:00Z,33.92,-94.87,19.0,18.0,320,6,,8.0,29.911417,,,TRUE,TRUE,,,,,,,OVC,3200,,,,,,,VFR,,,,,,,,,,,,SPECI,148.0
K4M9 170835Z AUTO 36007KT 10SM OVC031 20/17 A2989 RMK AO2 PWINO,K4M9,2023-05-17T08:35:00Z,36.4,-90.65,20.0,17.0,360,7,,10.0,29.890747,,,TRUE,TRUE,,,,,TRUE,,OVC,3100,,,,,,,VFR,,,,,,,,,,,,SPECI,86.0
K4I3 170835Z AUTO 34006KT 10SM CLR 10/06 A2983 RMK AO2,K4I3,2023-05-17T08:35:00Z,40.33,-82.53,10.0,6.0,340,6,,10.0,29.828741,,,TRUE,TRUE,,,,,,,CLR,,,,,,,,VFR,,,,,,,,,,,,SPECI,361.0
K4F2 170835Z AUTO 00000KT 10SM CLR 17/17 A2990 RMK AO2 T01720168,K4F2,2023-05-17T08:35:00Z,32.18,-94.3,17.2,16.8,0,0,,10.0,29.899607,,,TRUE,TRUE,,,,,,,CLR,,,,,,,,VFR,,,,,,,,,,,,METAR,76.0
K4BM 170835Z AUTO 17005KT 10SM CLR 02/00 A3045 RMK AO2,K4BM,2023-05-17T08:35:00Z,39.05,-105.52,2.0,0.0,170,5,,10.0,30.448818,,,TRUE,TRUE,,,,,,,CLR,,,,,,,,VFR,,,,,,,,,,,,METAR,3432.0
K4A9 170835Z AUTO 24003KT 10SM OVC008 19/18 A2983 RMK AO2 T01890182,K4A9,2023-05-17T08:35:00Z,34.47,-85.72,18.9,18.2,240,3,,10.0,29.828741,,,TRUE,TRUE,,,,,,,OVC,800,,,,,,,IFR,,,,,,,,,,,,METAR,273.0
K4A6 170835Z AUTO 25004KT 8SM -DZ OVC008 20/20 A2984 RMK AO2,K4A6,2023-05-17T08:35:00Z,34.68,-86.0,20.0,20.0,250,4,,8.0,29.840551,,,TRUE,TRUE,,,,,,-DZ,OVC,800,,,,,,,IFR,,,,,,,,,,,,SPECI,191.0
K49A 170835Z AUTO VRB04KT 10SM BKN012 OVC016 18/18 A2984 RMK AO2,K49A,2023-05-17T08:35:00Z,34.63,-84.53,18.0,18.0,0,4,,10.0,29.840551,,,TRUE,TRUE,,,,,,,BKN,1200,OVC,1600,,,,,MVFR,,,,,,,,,,,,METAR,449.0
K46U 170835Z AUTO 12007KT 10SM CLR 07/03 A3022 RMK A01,K46U,2023-05-17T08:35:00Z,43.18,-111.05,7.0,3.0,120,7,,10.0,30.221457,,,TRUE,TRUE,,,,,,,CLR,,,,,,,,VFR,,,,,,,,,,,,SPECI,1718.0
K46D 170835Z AUTO 18006KT 10SM CLR 13/11 A2991 RMK AO2,K46D,2023-05-17T08:35:00Z,47.45,-99.15,13.0,11.0,180,6,,10.0,29.911417,,,TRUE,TRUE,,,,,,,CLR,,,,,,,,VFR,,,,,,,,,,,,SPECI,488.0
K42J 170835Z AUTO 24005KT 6SM BR 21/21 A2985 RMK A01,K42J,2023-05-17T08:35:00Z,29.85,-82.05,21.0,21.0,240,5,,6.0,29.84941,,,TRUE,TRUE,,,,,,BR,,,,,,,,,,,,,,,,,,,,,METAR,57.0
K41U 170835Z AUTO 21003KT 10SM CLR 08/05 A3019 RMK AO1 T00790047,K41U,2023-05-17T08:35:00Z,39.33,-111.6,7.9,4.7,210,3,,10.0,30.188976,,,TRUE,TRUE,,,,,,,CLR,,,,,,,,VFR,,,,,,,,,,,,METAR,1676.0
K40U 170835Z AUTO 27005KT 10SM CLR 02/00 A3022 RMK AO2 T00161003,K40U,2023-05-17T08:35:00Z,40.98,-109.68,1.6,-0.3,270,5,,10.0,30.221457,,,TRUE,TRUE,,,,,,,CLR,,,,,,,,VFR,,,,,,,,,,,,SPECI,1882.0
K3T5 170835Z AUTO 00000KT 10SM CLR 20/20 A2991 RMK AO2 T01960196 $,K3T5,2023-05-17T08:35:00Z,29.9,-96.95,19.6,19.6,0,0,,10.0,29.911417,,,TRUE,TRUE,TRUE,,,,,,CLR,,,,,,,,VFR,,,,,,,,,,,,SPECI,96.0
K3S8 170835Z AUTO 00000KT 10SM CLR 17/11 A3005 RMK AO2,K3S8,2023-05-17T08:35:00Z,42.5,-123.4,17.0,11.0,0,0,,10.0,30.050198,,,TRUE,TRUE,,,,,,,CLR,,,,,,,,VFR,,,,,,,,,,,,SPECI,339.0
K3R7 170835Z AUTO 00000KT 10SM CLR 22/22 A2987 RMK AO2 T02200220,K3R7,2023-05-17T08:35:00Z,30.25,-92.67,22.0,22.0,0,0,,10.0,29.870079,,,TRUE,TRUE,,,,,,,CLR,,,,,,,,VFR,,,,,,,,,,,,SPECI,5.0
K3N8 170835Z AUTO 14007KT 10SM CLR 12/06 A2992 RMK AO2 T01210061,K3N8,2023-05-17T08:35:00Z,47.25,-95.92,12.1,6.1,140,7,,10.0,29.920275,,,TRUE,TRUE,,,,,,,CLR,,,,,,,,VFR,,,,,,,,,,,,SPECI,379.0
K3LF 170835Z AUTO 27003KT 10SM CLR 14/13 A2990 RMK AO2 T01410130,K3LF,2023-05-17T08:35:00Z,39.17,-89.67,14.1,13.0,270,3,,10.0,29.899607,,,TRUE,TRUE,,,,,,,CLR,,,,,,,,VFR,,,,,,,,,,,,METAR,207.0
K3L4 170835Z AUTO 29007KT 6SM BR OVC050 25/24 A2986 RMK A01,K3L4,2023-05-17T08:35:00Z,29.8,-92.8,25.0,24.0,290,7,,6.0,29.861221,,,TRUE,TRUE,,,,,,BR,OVC,5000,,,,,,,VFR,,,,,,,,,,,,SPECI,1.0
K3K3 170835Z AUTO 09006KT 10SM BKN110 13/11 A3003 RMK AO2,K3K3,2023-05-17T08:35:00Z,38.0,-101.75,13.0,11.0,90,6,,10.0,30.029528,,,TRUE,TRUE,,,,,,,BKN,11000,,,,,,,VFR,,,,,,,,,,,,METAR,1010.0
K3F3 170835Z AUTO 06004KT 10SM CLR 19/18 A2993 RMK AO2 T01920178,K3F3,2023-05-17T08:35:00Z,32.07,-93.77,19.2,17.8,60,4,,10.0,29.929134,,,TRUE,TRUE,,,,,,,CLR,,,,,,,,VFR,,,,,,,,,,,,METAR,96.0
K3D2 170835Z AUTO 01006KT 10SM CLR 04/01 A3003 RMK AO2 T00350011,K3D2,2023-05-17T08:35:00Z,45.13,-87.18,3.5,1.1,10,6,,10.0,30.029528,,,TRUE,TRUE,,,,,,,CLR,,,,,,,,VFR,,,,,,,,,,,,METAR,233.0
K3AU 170835Z AUTO 00000KT 4SM BR CLR 12/10 A2999 RMK AO2,K3AU,2023-05-17T08:35:00Z,37.67,-97.08,12.0,10.0,0,0,,4.0,29.991142,,,TRUE,TRUE,,,,,,BR,CLR,,,,,,,,MVFR,,,,,,,,,,,,SPECI,403.0
K35A 170835Z AUTO 00000KT 10SM CLR 18/17 A2978 RMK A02 T01810175,K35A,2023-05-17T08:35:00Z,34.68,-81.63,18.1,17.5,0,0,,10.0,29.778543,,,TRUE,TRUE,,,,,,,CLR,,,,,,,,VFR,,,,,,,,,,,,METAR,186.0
K33V 170835Z AUTO 14007KT 10SM CLR 01/00 A3028 RMK AO1,K33V,2023-05-17T08:35:00Z,40.75,-106.28,1.0,0.0,140,7,,10.0,30.280512,,,TRUE,TRUE,,,,,,,CLR,,,,,,,,VFR,,,,,,,,,,,,METAR,2486.0
K33N 170835Z AUTO 27004KT 10SM SCT055 SCT075 SCT110 17/14 A2959 RMK A01,K33N,2023-05-17T08:35:00Z,39.22,-75.6,17.0,14.0,270,4,,10.0,29.589567,,,TRUE,TRUE,,,,,,,SCT,5500,SCT,7500,SCT,11000,,,VFR,,,,,,,,,,,,SPECI,17.0
K2V5 170835Z AUTO 07005KT 10SM CLR 10/10 A3006 RMK AO2,K2V5,2023-05-17T08:35:00Z,40.1,-102.25,10.0,10.0,70,5,,10.0,30.059055,,,TRUE,TRUE,,,,,,,CLR,,,,,,,,VFR,,,,,,,,,,,,METAR,1117.0
K2R9 170835Z AUTO 00000KT 5SM BR CLR 19/19 A2994 RMK AO2 T01900185,K2R9,2023-05-17T08:35:00Z,28.82,-97.87,19.0,18.5,0,0,,5.0,29.940945,,,TRUE,TRUE,,,,,,BR,CLR,,,,,,,,MVFR,,,,,,,,,,,,SPECI,88.0
K2P2 170835Z AUTO 04005KT 10SM SCT110 04/01 A3004 RMK AO2 T00350011,K2P2,2023-05-17T08:35:00Z,45.38,-86.92,3.5,1.1,40,5,,10.0,30.041338,,,TRUE,TRUE,,,,,,,SCT,11000,,,,,,,VFR,,,,,,,,,,,,METAR,182.0
K2J9 170835Z AUTO 00000KT 10SM CLR 19/19 A2985 RMK AO2,K2J9,2023-05-17T08:35:00Z,30.6,-84.55,19.0,19.0,0,0,,10.0,29.84941,,,TRUE,TRUE,,,,,,,CLR,,,,,,,,VFR,,,,,,,,,,,,METAR,62.0
K2J5 170835Z AUTO 25004KT 10SM SCT120 21/18 A2979 RMK AO2 T02110180,K2J5,2023-05-17T08:35:00Z,32.9,-81.97,21.1,18.0,250,4,,10.0,29.790354,,,TRUE,TRUE,,,,,,,SCT,12000,,,,,,,VFR,,,,,,,,,,,,SPECI,72.0
K2IS 170835Z AUTO 25004KT 10SM BKN110 21/20 A2988 RMK AO2 LTG DSNT NW T02150202,K2IS,2023-05-17T08:35:00Z,26.73,-81.05,21.5,20.2,250,4,,10.0,29.878937,,,TRUE,TRUE,,,,,,,BKN,11000,,,,,,,VFR,,,,,,,,,,,,METAR,5.0
K2I0 170835Z AUTO 00000KT 7SM CLR 16/15 A2988 RMK AO2 T01570145,K2I0,2023-05-17T08:35:00Z,37.35,-87.4,15.7,14.5,0,0,,7.0,29.878937,,,TRUE,TRUE,,,,,,,CLR,,,,,,,,VFR,,,,,,,,,,,,METAR,127.0
K2G9 170835Z AUTO 26008G15KT 10SM SCT017 10/08 A2975 RMK AO2,K2G9,2023-05-17T08:35:00Z,40.03,-79.02,10.0,8.0,260,8,15,10.0,29.749016,,,TRUE,TRUE,,,,,,,SCT,1700,,,,,,,VFR,,,,,,,,,,,,METAR,677.0
K2G4 170835Z AUTO VRB04G11KT 4SM BR SCT008 BKN075 OVC090 09/09 A2977 RMK AO2,K2G4,2023-05-17T08:35:00Z,39.58,-79.33,9.0,9.0,0,4,11,4.0,29.769686,,,TRUE,TRUE,,,,,,BR,SCT,800,BKN,7500,OVC,9000,,,MVFR,,,,,,,,,,,,SPECI,908.0
K2G2 170835Z AUTO 35005KT 10SM 11/08 A2977 RMK A01,K2G2,2023-05-17T08:35:00Z,40.37,-80.7,11.0,8.0,350,5,,10.0,29.769686,,,TRUE,TRUE,,,,,,,,,,,,,,,,,,,,,,,,,,,METAR,365.0
K2D5 170835Z AUTO 00000KT 2SM BR OVC080 12/12 A2992 RMK AO2,K2D5,2023-05-17T08:35:00Z,46.17,-98.08,12.0,12.0,0,0,,2.0,29.920275,,,TRUE,TRUE,,,,,,BR,OVC,8000,,,,,,,IFR,,,,,,,,,,,,SPECI,407.0
K2C8 170835Z AUTO 17007KT 10SM OVC095 13/04 A2986 RMK AO2,K2C8,2023-05-17T08:35:00Z,48.78,-97.63,13.0,4.0,170,7,,10.0,29.861221,,,TRUE,TRUE,,,,,,,OVC,9500,,,,,,,VFR,,,,,,,,,,,,SPECI,271.0
K2A0 170835Z AUTO 00000KT 9SM BKN024 OVC029 20/20 A2981 RMK A01,K2A0,2023-05-17T08:35:00Z,35.48,-84.93,20.0,20.0,0,0,,9.0,29.811024,,,TRUE,TRUE,,,,,,,BKN,2400,OVC,2900,,,,,MVFR,,,,,,,,,,,,SPECI,219.0
K28J 170835Z AUTO 00000KT 9SM CLR 19/18 A2986 RMK AO2,K28J,2023-05-17T08:35:00Z,29.65,-81.68,19.0,18.0,0,0,,9.0,29.861221,,,TRUE,TRUE,,,,,,,CLR,,,,,,,,VFR,,,,,,,,,,,,METAR,9.0
K24J 170835Z AUTO 00000KT 5SM BR BKN003 BKN043 22/22 A2984 RMK A01,K24J,2023-05-17T08:35:00Z,30.3,-83.03,22.0,22.0,0,0,,5.0,29.840551,,,TRUE,TRUE,,,,,,BR,BKN,300,BKN,4300,,,,,LIFR,,,,,,,,,,,,METAR,30.0
K22N 170835Z AUTO 35003KT 10SM CLR 12/04 A2967 RMK AO2,K22N,2023-05-17T08:35:00Z,40.8,-75.77,12.0,4.0,350,3,,10.0,29.66929,,,TRUE,TRUE,,,,,,,CLR,,,,,,,,VFR,,,,,,,,,,,,SPECI,159.0
K21D 170835Z AUTO 07004KT 10SM CLR 08/03 A2999 RMK AO2,K21D,2023-05-17T08:35:00Z,45.0,-92.85,8.0,3.0,70,4,,10.0,29.991142,,,TRUE,TRUE,,,,,,,CLR,,,,,,,,VFR,,,,,,,,,,,,SPECI,281.0
K20V 170835Z AUTO 00000KT 10SM SCT090 03/01 A3029 RMK AO2,K20V,2023-05-17T08:35:00Z,40.05,-106.37,3.0,1.0,0,0,,10.0,30.28937,,,TRUE,TRUE,,,,,,,SCT,9000,,,,,,,VFR,,,,,,,,,,,,SPECI,2259.0
K20U 170835Z AUTO 15008KT 10SM CLR 12/11 A2990 RMK AO2,K20U,2023-05-17T08:35:00Z,46.93,-103.98,12.0,11.0,150,8,,10.0,29.899607,,,TRUE,TRUE,,,,,,,CLR,,,,,,,,VFR,,,,,,,,,,,,SPECI,839.0
K1V6 170835Z AUTO 33004KT 10SM CLR 14/10 A3015 RMK AO2,K1V6,2023-05-17T08:35:00Z,38.43,-105.1,14.0,10.0,330,4,,10.0,30.15059,,,TRUE,TRUE,,,,,,,CLR,,,,,,,,VFR,,,,,,,,,,,,SPECI,1658.0
K1U7 170835Z AUTO 29007KT 10SM CLR 06/05 A3019 RMK A01,K1U7,2023-05-17T08:35:00Z,42.25,-111.33,6.0,5.0,290,7,,10.0,30.188976,,,TRUE,TRUE,,,,,,,CLR,,,,,,,,VFR,,,,,,,,,,,,METAR,1808.0
K1S5 170835Z AUTO 00000KT 7SM CLR 15/14 A3003 RMK AO2 T01460143,K1S5,2023-05-17T08:35:00Z,46.33,-119.97,14.6,14.3,0,0,,7.0,30.029528,,,TRUE,TRUE,,,,,,,CLR,,,,,,,,VFR,,,,,,,,,,,,METAR,228.0
K1R8 170835Z AUTO 00000KT 9SM SCT050 BKN055 20/19 A2983 RMK AO2,K1R8,2023-05-17T08:35:00Z,30.87,-87.82,20.0,19.0,0,0,,9.0,29.828741,,,TRUE,TRUE,,,,,,,SCT,5000,BKN,5500,,,,,VFR,,,,,,,,,,,,METAR,76.0
K1R7 170835Z AUTO 00000KT 10SM FEW080 20/20 A2986 RMK AO2 PWINO,K1R7,2023-05-17T08:35:00Z,31.6,-90.42,20.0,20.0,0,0,,10.0,29.861221,,,TRUE,TRUE,,,,,TRUE,,FEW,8000,,,,,,,VFR,,,,,,,,,,,,METAR,142.0
K1P1 170835Z AUTO 30008KT 10SM SCT050 06/00 A2965 RMK AO2 T00580000,K1P1,2023-05-17T08:35:00Z,43.78,-71.75,5.8,0.0,300,8,,10.0,29.648623,,,TRUE,TRUE,,,,,,,SCT,5000,,,,,,,VFR,,,,,,,,,,,,SPECI,155.0
K1M5 170835Z AUTO 36006KT 10SM OVC026 18/17 A2985 RMK A01,K1M5,2023-05-17T08:35:00Z,36.6,-86.48,18.0,17.0,360,6,,10.0,29.84941,,,TRUE,TRUE,,,,,,,OVC,2600,,,,,,,MVFR,,,,,,,,,,,,SPECI,239.0
K1H2 170835Z AUTO 00000KT 10SM CLR 13/13 A2989 RMK AO2 T01320126,K1H2,2023-05-17T08:35:00Z,39.07,-88.53,13.2,12.6,0,0,,10.0,29.890747,,,TRUE,TRUE,,,,,,,CLR,,,,,,,,VFR,,,,,,,,,,,,METAR,174.0
K1F0 170835Z AUTO 00000KT 7SM CLR 13/12 A2996 RMK AO2 T01290123,K1F0,2023-05-17T08:35:00Z,34.15,-97.12,12.9,12.3,0,0,,7.0,29.958662,,,TRUE,TRUE,,,,,,,CLR,,,,,,,,VFR,,,,,,,,,,,,SPECI,256.0
K1A9 170835Z AUTO 00000KT 10SM CLR 20/20 A2983 RMK AO2 T01950195,K1A9,2023-05-17T08:35:00Z,32.43,-86.52,19.5,19.5,0,0,,10.0,29.828741,,,TRUE,TRUE,,,,,,,CLR,,,,,,,,VFR,,,,,,,,,,,,SPECI,65.0
K1A6 170835Z AUTO 32007KT 10SM SCT016 SCT020 OVC032 17/15 A2985 RMK AO2 T01710152,K1A6,2023-05-17T08:35:00Z,36.62,-83.73,17.1,15.2,320,7,,10.0,29.84941,,,TRUE,TRUE,,,,,,,SCT,1600,SCT,2000,OVC,3200,,,VFR,,,,,,,,,,,,METAR,348.0
K18H 170835Z AUTO 30004KT 10SM CLR 25/21 A2989 RMK A01,K18H,2023-05-17T08:35:00Z,26.13,-92.03,25.0,21.0,300,4,,10.0,29.890747,,,TRUE,TRUE,,,,,,,CLR,,,,,,,,VFR,,,,,,,,,,,,METAR,30.0
K18A 170835Z AUTO 27005KT 7SM CLR 19/18 A2986 RMK AO2 T01860179,K18A,2023-05-17T08:35:00Z,34.35,-83.13,18.6,17.9,270,5,,7.0,29.861221,,,TRUE,TRUE,,,,,,,CLR,,,,,,,,VFR,,,,,,,,,,,,SPECI,260.0
K17J 170835Z AUTO 00000KT 3 1/2SM BR CLR 19/19 A2984 RMK AO2 T01930185,K17J,2023-05-17T08:35:00Z,31.0,-84.87,19.3,18.5,0,0,,3.5,29.840551,,,TRUE,TRUE,,,,,,BR,CLR,,,,,,,,MVFR,,,,,,,,,,,,METAR,42.0
K15M 170835Z AUTO 36003KT 1 3/4SM RA BR SCT005 BKN029 OVC036 20/20 A2984 RMK AO2 RAB0802 P0001 T01950195 $,K15M,2023-05-17T08:35:00Z,34.77,-88.17,19.5,19.5,360,3,,1.75,29.840551,,,TRUE,TRUE,TRUE,,,,,RA BR,SCT,500,BKN,2900,OVC,3600,,,IFR,,,,,,0.01,,,,,,METAR,192.0
K14Y 170835Z AUTO 10005KT 10SM CLR 10/05 A2998 RMK AO2,K14Y,2023-05-17T08:35:00Z,45.9,-94.87,10.0,5.0,100,5,,10.0,29.97933,,,TRUE,TRUE,,,,,,,CLR,,,,,,,,VFR,,,,,,,,,,,,SPECI,404.0
K13K 170835Z AUTO 29004KT 3 1/2SM BR CLR 12/12 A2999 RMK AO2 T01240123,K13K,2023-05-17T08:35:00Z,37.85,-96.3,12.4,12.3,290,4,,3.5,29.991142,,,TRUE,TRUE,,,,,,BR,CLR,,,,,,,,MVFR,,,,,,,,,,,,METAR,367.0
K10G 170835Z AUTO 36008KT 10SM CLR 11/06 A2982 RMK AO2,K10G,2023-05-17T08:35:00Z,40.53,-81.95,11.0,6.0,360,8,,10.0,29.819881,,,TRUE,TRUE,,,,,,,CLR,,,,,,,,VFR,,,,,,,,,,,,SPECI,371.0
K0V4 170835Z AUTO 25003KT 10SM SCT046 SCT090 17/17 A2970 RMK AO1,K0V4,2023-05-17T08:35:00Z,37.15,-79.02,17.0,17.0,250,3,,10.0,29.698818,,,TRUE,TRUE,,,,,,,SCT,4600,SCT,9000,,,,,VFR,,,,,,,,,,,,METAR,186.0
K0S9 170835Z AUTO 00000KT 3SM BR CLR 13/12 A3005 RMK AO2,K0S9,2023-05-17T08:35:00Z,48.05,-122.82,13.0,12.0,0,0,,3.0,30.050198,,,TRUE,TRUE,,,,,,BR,CLR,,,,,,,,MVFR,,,,,,,,,,,,SPECI,33.0
K0F2 170835Z AUTO 10SM CLR 14/14 A2996 RMK AO2 T01440139,K0F2,2023-05-17T08:35:00Z,33.6,-97.78,14.4,13.9,,,,10.0,29.958662,,,TRUE,TRUE,,,,,,,CLR,,,,,,,,VFR,,,,,,,,,,,,METAR,330.0
K0E0 170835Z AUTO 36003KT 10SM SCT085 BKN110 09/08 A3020 RMK AO2 T00870081,K0E0,2023-05-17T08:35:00Z,34.98,-106.0,8.7,8.1,360,3,,10.0,30.200787,,,TRUE,TRUE,,,,,,,SCT,8500,BKN,11000,,,,,VFR,,,,,,,,,,,,SPECI,1887.0
K0A9 170835Z AUTO 26007KT 10SM SCT011 BKN019 OVC075 18/17 A2981 RMK AO2,K0A9,2023-05-17T08:35:00Z,36.37,-82.17,18.0,17.0,260,7,,10.0,29.811024,,,TRUE,TRUE,,,,,,,SCT,1100,BKN,1900,OVC,7500,,,MVFR,,,,,,,,,,,,SPECI,479.0
K0A0 170835Z AUTO 15004KT 10SM FEW120 16/13 A3011 RMK AO2,K0A0,2023-05-17T08:35:00Z,32.98,-106.97,16.0,13.0,150,4,,10.0,30.109253,,,TRUE,TRUE,,,,,,,FEW,12000,,,,,,,VFR,,,,,,,,,,,,SPECI,1401.0
K08D 170835Z AUTO 20005KT 10SM CLR 13/06 A2985 RMK AO2,K08D,2023-05-17T08:35:00Z,48.3,-102.4,13.0,6.0,200,5,,10.0,29.84941,,,TRUE,TRUE,,,,,,,CLR,,,,,,,,VFR,,,,,,,,,,,,SPECI,683.0
K06D 170835Z AUTO 19004KT 10SM CLR 11/09 A2986 RMK AO2,K06D,2023-05-17T08:35:00Z,48.88,-99.62,11.0,9.0,190,4,,10.0,29.861221,,,TRUE,TRUE,,,,,,,CLR,,,,,,,,VFR,,,,,,,,,,,,SPECI,554.0
K06C 170835Z AUTO 03005KT 10SM CLR 08/04 A2995 RMK AO2 T00770040,K06C,2023-05-17T08:35:00Z,41.98,-88.1,7.7,4.0,30,5,,10.0,29.949802,,,TRUE,TRUE,,,,,,,CLR,,,,,,,,VFR,,,,,,,,,,,,METAR,243.0
K04V 170835Z AUTO 30009KT 10SM 11/00 A3028 RMK AO2,K04V,2023-05-17T08:35:00Z,38.1,-106.17,11.0,0.0,300,9,,10.0,30.280512,,,TRUE,TRUE,,,,,,,,,,,,,,,,,,,,,,,,,,,SPECI,2389.0
CYBW 170835Z AUTO 36006KT 5SM HZ OVC071 11/01 A3021 RMK LTNG DIST NW SLP246,CYBW,2023-05-17T08:35:00Z,51.1,-114.37,11.0,1.0,360,6,,5.0,30.209646,1024.6,,TRUE,,,,,,,HZ,OVC,7100,,,,,,,MVFR,,,,,,,,,,,,SPECI,1197.0
PAWM 170834Z AUTO 09006KT 8SM SCT015 OVC035 01/00 A2998 RMK AO2 SNE08 P0000 FZRANO,PAWM,2023-05-17T08:34:00Z,64.68,-163.42,1.0,0.0,90,6,,8.0,29.97933,,,TRUE,TRUE,,,,TRUE,,,SCT,1500,OVC,3500,,,,,VFR,,,,,,0.005,,,,,,SPECI,80.0
KPRN 170834Z AUTO 00000KT 3SM BR OVC001 18/18 A2983 RMK AO2 T01830183,KPRN,2023-05-17T08:34:00Z,31.85,-86.62,18.3,18.3,0,0,,3.0,29.828741,,,TRUE,TRUE,,,,,,BR,OVC,100,,,,,,,LIFR,,,,,,,,,,,,SPECI,137.0
KPPF 170834Z AUTO 30003KT 10SM OVC029 17/14 A2998 RMK AO2 T01670144,KPPF,2023-05-17T08:34:00Z,37.33,-95.5,16.7,14.4,300,3,,10.0,29.97933,,,TRUE,TRUE,,,,,,,OVC,2900,,,,,,,MVFR,,,,,,,,,,,,METAR,265.0
KMNE 170834Z AUTO 00000KT 10SM CLR 18/18 A2989 RMK AO2,KMNE,2023-05-17T08:34:00Z,32.65,-93.3,18.0,18.0,0,0,,10.0,29.890747,,,TRUE,TRUE,,,,,,,CLR,,,,,,,,VFR,,,,,,,,,,,,SPECI,84.0
KHHW 170834Z AUTO 00000KT 10SM OVC031 18/16 A2993 RMK AO2,KHHW,2023-05-17T08:34:00Z,34.03,-95.55,18.0,16.0,0,0,,10.0,29.929134,,,TRUE,TRUE,,,,,,,OVC,3100,,,,,,,VFR,,,,,,,,,,,,SPECI,178.0
KGVL 170834Z AUTO 28007KT 10SM SCT007 19/17 A2983 RMK AO2 T01890172 $,KGVL,2023-05-17T08:34:00Z,34.27,-83.83,18.9,17.2,280,7,,10.0,29.828741,,,TRUE,TRUE,TRUE,,,,,,SCT,700,,,,,,,VFR,,,,,,,,,,,,METAR,387.0
KEKQ 170834Z AUTO 01003KT 10SM SCT011 BKN043 16/15 A2989 RMK AO2,KEKQ,2023-05-17T08:34:00Z,36.85,-84.85,16.0,15.0,10,3,,10.0,29.890747,,,TRUE,TRUE,,,,,,,SCT,1100,BKN,4300,,,,,VFR,,,,,,,,,,,,METAR,291.0
KDCU 170834Z AUTO 00000KT 7SM BKN007 BKN070 19/18 A2984 RMK AO2 T01940183,KDCU,2023-05-17T08:34:00Z,34.65,-86.95,19.4,18.3,0,0,,7.0,29.840551,,,TRUE,TRUE,,,,,,,BKN,700,BKN,7000,,,,,IFR,,,,,,,,,,,,METAR,180.0
EBFS 170834Z 01005KT 9999 SCT015 SCT060 10/07 Q1027 WHT WHT TEMPO BLU,EBFS,2023-05-17T08:34:00Z,50.23,4.65,10.0,7.0,10,5,,6.21,30.324802,,,,,,,,,,,SCT,1500,SCT,6000,,,,,VFR,,,,,,,,,,,,METAR,276.0
KXVG 170833Z AUTO 13005KT 10SM CLR 07/02 A2999 RMK AO2,KXVG,2023-05-17T08:33:00Z,46.98,-94.2,7.0,2.0,130,5,,10.0,29.991142,,,TRUE,TRUE,,,,,,,CLR,,,,,,,,VFR,,,,,,,,,,,,SPECI,407.0
KOWA 170833Z AUTO 06004KT 10SM CLR 12/06 A2995 RMK AO2,KOWA,2023-05-17T08:33:00Z,44.12,-93.25,12.0,6.0,60,4,,10.0,29.949802,,,TRUE,TRUE,,,,,,,CLR,,,,,,,,VFR,,,,,,,,,,,,SPECI,345.0
KORB 170833Z AUTO 13003KT 10SM CLR 06/00 A2999 RMK AO2,KORB,2023-05-17T08:33:00Z,48.02,-92.87,6.0,0.0,130,3,,10.0,29.991142,,,TRUE,TRUE,,,,,,,CLR,,,,,,,,VFR,,,,,,,,,,,,SPECI,407.0
KOCF 170833Z AUTO 00000KT 9SM BKN095 21/21 A2988 RMK AO2 $,KOCF,2023-05-17T08:33:00Z,29.17,-82.22,21.0,21.0,0,0,,9.0,29.878937,,,TRUE,TRUE,TRUE,,,,,,BKN,9500,,,,,,,VFR,,,,,,,,,,,,METAR,24.0
KLUK 170833Z AUTO 21003KT 1/4SM R21L/2200VP6000FT FG VV003 07/07 A2984 RMK AO2 T00720072,KLUK,2023-05-17T08:33:00Z,39.1,-84.42,7.2,7.2,210,3,,0.25,29.840551,,,TRUE,TRUE,,,,,,FG,OVX,0,,,,,,,LIFR,,,,,,,,,,,300,SPECI,144.0
KFOZ 170833Z AUTO 15005KT 10SM CLR 08/02 A3004 RMK AO2,KFOZ,2023-05-17T08:33:00Z,47.77,-93.65,8.0,2.0,150,5,,10.0,30.041338,,,TRUE,TRUE,,,,,,,CLR,,,,,,,,VFR,,,,,,,,,,,,SPECI,412.0
KDVP 170833Z AUTO 32003KT 10SM CLR 13/09 A2994 RMK AO2 T01250088,KDVP,2023-05-17T08:33:00Z,43.98,-95.78,12.5,8.8,320,3,,10.0,29.940945,,,TRUE,TRUE,,,,,,,CLR,,,,,,,,VFR,,,,,,,,,,,,SPECI,493.0
KDUB 170833Z AUTO 28009KT 10SM CLR 04/M01 A3022 RMK AO2,KDUB,2023-05-17T08:33:00Z,43.55,-109.68,4.0,-1.0,280,9,,10.0,30.221457,,,TRUE,TRUE,,,,,,,CLR,,,,,,,,VFR,,,,,,,,,,,,METAR,2205.0
KCDD 170833Z AUTO 00000KT 10SM CLR 02/00 A3004 RMK AO2 PWINO,KCDD,2023-05-17T08:33:00Z,48.27,-92.48,2.0,0.0,0,0,,10.0,30.041338,,,TRUE,TRUE,,,,,TRUE,,CLR,,,,,,,,VFR,,,,,,,,,,,,SPECI,344.0
KAQP 170833Z AUTO 17006KT 10SM 15/09 A2992 RMK AO2,KAQP,2023-05-17T08:33:00Z,45.22,-96.0,15.0,9.0,170,6,,10.0,29.920275,,,TRUE,TRUE,,,,,,,,,,,,,,,,,,,,,,,,,,,SPECI,312.0
KACV 170833Z AUTO 00000KT 2 1/2SM R32/5500VP6000FT BR OVC002 11/11 A3004 RMK AO2 T01110106,KACV,2023-05-17T08:33:00Z,40.98,-124.1,11.1,10.6,0,0,,2.5,30.041338,,,TRUE,TRUE,,,,,,BR,OVC,200,,,,,,,LIFR,,,,,,,,,,,,SPECI,63.0
KABY 170833Z AUTO 00000KT 2SM BR OVC002 19/18 A2984 RMK AO2 T01890183,KABY,2023-05-17T08:33:00Z,31.53,-84.2,18.9,18.3,0,0,,2.0,29.840551,,,TRUE,TRUE,,,,,,BR,OVC,200,,,,,,,LIFR,,,,,,,,,,,,SPECI,60.0
CWSA 170833Z AUTO 21020G27KT 1 1/4SM BR 09/09 A2951 RMK CLD MISG SLP996,CWSA,2023-05-17T08:33:00Z,43.93,-60.0,9.0,9.0,210,20,27,1.25,29.509842,999.6,,TRUE,,,,,,,BR,,,,,,,,,,,,,,,,,,,,,SPECI,4.0
RJSH 170832Z 07003KT 040V110 2300 R25/0450VP1800D BCFG BR FEW001 SCT004 BKN230 13/11 Q1009 RMK 2ST001 4ST004 A2980 R0600,RJSH,2023-05-17T08:32:00Z,40.55,141.47,13.0,11.0,70,3,,1.43,29.793306,,,,,,,,,,BCFG BR,FEW,100,SCT,400,BKN,23000,,,IFR,,,,,,,,,,,,METAR,46.0
LHDC 170832Z AUTO 20007KT 2800 +SHRA BKN007 16/16 Q1012,LHDC,2023-05-17T08:32:00Z,47.48,21.62,16.0,16.0,200,7,,1.74,29.88189,,,TRUE,,,,,,,+SHRA,BKN,700,,,,,,,IFR,,,,,,,,,,,,SPECI,105.0
CYTH 170832Z 08009KT 15SM OVC043 03/03 A2980 RMK SC8 PRESFR SLP106,CYTH,2023-05-17T08:32:00Z,55.8,-97.83,3.0,3.0,80,9,,15.0,29.799213,1010.6,,,,,,,,,,OVC,4300,,,,,,,VFR,,,,,,,,,,,,SPECI,212.0
CYMH 170832Z AUTO 13004KT 6SM -SN OVC009 M01/M01 A2952 RMK SLP999,CYMH,2023-05-17T08:32:00Z,52.3,-55.82,-1.0,-1.0,130,4,,6.0,29.518702,999.9,,TRUE,,,,,,,-SN,OVC,900,,,,,,,IFR,,,,,,,,,,,,SPECI,18.0
RKSQ 170831Z 20010G021KT 8000 BR BKN003 18/16 A2992 RMK CIG003,RKSQ,2023-05-17T08:31:00Z,37.67,125.7,18.0,16.0,200,10,21,4.97,29.920275,,,,,,,,,,BR,BKN,300,,,,,,,LIFR,,,,,,,,,,,,SPECI,6.0
PASM 170831Z AUTO 16014G19KT 3SM -SN BR OVC005 M01/M01 A2994 RMK AO2 P0000 FZRANO,PASM,2023-05-17T08:31:00Z,62.07,-163.3,-1.0,-1.0,160,14,19,3.0,29.940945,,,TRUE,TRUE,,,,TRUE,,-SN BR,OVC,500,,,,,,,IFR,,,,,,0.005,,,,,,METAR,108.0
PAKI 170831Z AUTO 2 1/2SM -SN BR BKN005 BKN010 OVC014 M01/M01 A2998 RMK AO2 CIG 004V009 P0000 FZRANO $,PAKI,2023-05-17T08:31:00Z,59.93,-164.03,-1.0,-1.0,,,,2.5,29.97933,,,TRUE,TRUE,TRUE,,,TRUE,,-SN BR,BKN,500,BKN,1000,OVC,1400,,,IFR,,,,,,0.005,,,,,,METAR,4.0
CYKJ 170831Z AUTO 31008KT OVC011 03/03 A2988 RMK WX MISG VIS MISG SLP146,CYKJ,2023-05-17T08:31:00Z,57.25,-105.62,3.0,3.0,310,8,,,29.878937,1014.6,,TRUE,,,,,,,,OVC,1100,,,,,,,,,,,,,,,,,,,SPECI,519.0
ZYTX 170830Z 02002MPS 350V050 9999 -RA OVC033 14/13 Q1010 NOSIG,ZYTX,2023-05-17T08:30:00Z,41.63,123.48,14.0,13.0,20,4,,6.21,29.822834,,,,,,TRUE,,,,-RA,OVC,3300,,,,,,,VFR,,,,,,,,,,,,METAR,56.0
ZYTL 170830Z 10004MPS 070V130 CAVOK 18/14 Q1008 NOSIG,ZYTL,2023-05-17T08:30:00Z,38.97,121.55,18.0,14.0,100,8,,6.21,29.763779,,,,,,TRUE,,,,,CAVOK,,,,,,,,VFR,,,,,,,,,,,,METAR,33.0
ZWWW 170830Z 36002MPS 260V050 CAVOK 24/M01 Q1014 NOSIG,ZWWW,2023-05-17T08:30:00Z,43.9,87.47,24.0,-1.0,360,4,,6.21,29.940945,,,,,,TRUE,,,,,CAVOK,,,,,,,,VFR,,,,,,,,,,,,METAR,654.0
ZSSS 170830Z 15006MPS 8000 -SHRA BKN010 FEW030CB BKN040 21/21 Q1003 RESHRA NOSIG,ZSSS,2023-05-17T08:30:00Z,31.2,121.33,21.0,21.0,150,12,,4.97,29.616142,,,,,,TRUE,,,,-SHRA,BKN,1000,FEW,3000,BKN,4000,,,MVFR,,,,,,,,,,,,METAR,2.0
ZSPD 170830Z 16007MPS 5000 SHRA BR BKN008 SCT030CB 21/20 Q1004 NOSIG,ZSPD,2023-05-17T08:30:00Z,31.15,121.8,21.0,20.0,160,14,,3.11,29.64567,,,,,,TRUE,,,,SHRA BR,BKN,800,SCT,3000,,,,,IFR,,,,,,,,,,,,METAR,4.0
ZSHC 170830Z 25002MPS 8000 SCT005 BKN030 23/23 Q1003 NOSIG,ZSHC,2023-05-17T08:30:00Z,30.22,120.43,23.0,23.0,250,4,,4.97,29.616142,,,,,,TRUE,,,,,SCT,500,BKN,3000,,,,,MVFR,,,,,,,,,,,,METAR,8.0
ZMCK 170830Z 24005MPS 210V270 9999 FEW030CB BKN033 15/M05 Q1010 NOSIG RMK QFE642.8 25 MOP,ZMCK,2023-05-17T08:30:00Z,47.65,106.82,15.0,-5.0,240,10,,6.21,29.822834,,,,,,TRUE,,,,,FEW,3000,BKN,3300,,,,,VFR,,,,,,,,,,,,METAR,1366.0
ZGGG 170830Z 06003MPS 9999 -TSRA FEW030CB BKN033 27/26 Q1003 RESHRA BECMG AT0850 1600 +TSRA,ZGGG,2023-05-17T08:30:00Z,23.4,113.3,27.0,26.0,60,6,,6.21,29.616142,,,,,,,,,,-TSRA,FEW,3000,BKN,3300,,,,,VFR,,,,,,,,,,,,METAR,11.0
ZBYN 170830Z 31007MPS 270V330 CAVOK 29/M02 Q1008 NOSIG,ZBYN,2023-05-17T08:30:00Z,37.73,112.63,29.0,-2.0,310,14,,6.21,29.763779,,,,,,TRUE,,,,,CAVOK,,,,,,,,VFR,,,,,,,,,,,,METAR,778.0
ZBTJ 170830Z 08006MPS 8000 BKN020 20/16 Q1008 NOSIG,ZBTJ,2023-05-17T08:30:00Z,39.12,117.35,20.0,16.0,80,12,,4.97,29.763779,,,,,,TRUE,,,,,BKN,2000,,,,,,,MVFR,,,,,,,,,,,,METAR,4.0
ZBAD 170830Z 12005MPS 9999 BKN030 23/16 Q1008 NOSIG,ZBAD,2023-05-17T08:30:00Z,39.5,116.42,23.0,16.0,120,10,,6.21,29.763779,,,,,,TRUE,,,,,BKN,3000,,,,,,,MVFR,,,,,,,,,,,,METAR,25.0
ZBAA 170830Z 10003MPS 060V150 CAVOK 25/13 Q1007 NOSIG,ZBAA,2023-05-17T08:30:00Z,40.07,116.6,25.0,13.0,100,6,,6.21,29.734253,,,,,,TRUE,,,,,CAVOK,,,,,,,,VFR,,,,,,,,,,,,METAR,31.0
YWLM 170830Z 24011KT 9999 -SHRA FEW015 SCT025 BKN053 13/11 Q1021,YWLM,2023-05-17T08:30:00Z,-32.8,151.83,13.0,11.0,240,11,,6.21,30.147638,,,,,,,,,,-SHRA,FEW,1500,SCT,2500,BKN,5300,,,VFR,,,,,,,,,,,,METAR,7.0
YSTW 170830Z AUTO 17011KT 9999 // NCD 11/06 Q1021 RF00.0/000.0,YSTW,2023-05-17T08:30:00Z,-31.08,150.85,11.0,6.0,170,11,,6.21,30.147638,,,TRUE,,,,,,,,CLR,,,,,,,,VFR,,,,,,,,,,,,METAR,404.0
YSSY 170830Z AUTO 20018KT 9999 -SHRA SCT022 SCT053 BKN069 14/11 Q1022,YSSY,2023-05-17T08:30:00Z,-33.95,151.17,14.0,11.0,200,18,,6.21,30.177166,,,TRUE,,,,,,,-SHRA,SCT,2200,SCT,5300,BKN,6900,,,VFR,,,,,,,,,,,,METAR,3.0
YSRI 170830Z AUTO 19005KT 9999 // SCT098 13/08 Q1023 RF00.0/000.0,YSRI,2023-05-17T08:30:00Z,-33.6,150.77,13.0,8.0,190,5,,6.21,30.206694,,,TRUE,,,,,,,,SCT,9800,,,,,,,VFR,,,,,,,,,,,,SPECI,19.0
YSNF 170830Z AUTO 05019G30KT 9999 // OVC013 20/18 Q1009 RF00.0/000.0,YSNF,2023-05-17T08:30:00Z,-29.03,167.93,20.0,18.0,50,19,30,6.21,29.793306,,,TRUE,,,,,,,,OVC,1300,,,,,,,MVFR,,,,,,,,,,,,SPECI,113.0
YSDU 170830Z AUTO 20007KT 9999 // NCD 13/04 Q1021 RF00.0/000.0,YSDU,2023-05-17T08:30:00Z,-32.22,148.57,13.0,4.0,200,7,,6.21,30.147638,,,TRUE,,,,,,,,CLR,,,,,,,,VFR,,,,,,,,,,,,SPECI,285.0
YSCB 170830Z AUTO 11008KT 9999 // NCD 06/02 Q1024 RF00.0/000.0,YSCB,2023-05-17T08:30:00Z,-35.3,149.18,6.0,2.0,110,8,,6.21,30.236221,,,TRUE,,,,,,,,CLR,,,,,,,,VFR,,,,,,,,,,,,SPECI,577.0
YPXM 170830Z AUTO 12010KT 9999 // NCD 26/20 Q1013 RF00.0/000.0,YPXM,2023-05-17T08:30:00Z,-10.45,105.68,26.0,20.0,120,10,,6.21,29.911417,,,TRUE,,,,,,,,CLR,,,,,,,,VFR,,,,,,,,,,,,SPECI,262.0
YPWR 170830Z AUTO 19008KT 9999 // NCD 15/03 Q1025 RF00.0/000.0,YPWR,2023-05-17T08:30:00Z,-31.15,136.82,15.0,3.0,190,8,,6.21,30.265747,,,TRUE,,,,,,,,CLR,,,,,,,,VFR,,,,,,,,,,,,METAR,169.0
YPTN 170830Z AUTO 15006KT 9999 // SCT035 SCT057 OVC076 26/11 Q1014,YPTN,2023-05-17T08:30:00Z,-14.52,132.38,26.0,11.0,150,6,,6.21,29.940945,,,TRUE,,,,,,,,SCT,3500,SCT,5700,OVC,7600,,,VFR,,,,,,,,,,,,SPECI,135.0
YPPH 170830Z 11008KT CAVOK 25/07 Q1021,YPPH,2023-05-17T08:30:00Z,-31.93,115.98,25.0,7.0,110,8,,6.21,30.147638,,,,,,,,,,,CAVOK,,,,,,,,VFR,,,,,,,,,,,,METAR,16.0
YPPD 170830Z AUTO 02015KT 9999 // NCD 27/16 Q1014 RF00.0/000.0,YPPD,2023-05-17T08:30:00Z,-20.37,118.62,27.0,16.0,20,15,,6.21,29.940945,,,TRUE,,,,,,,,CLR,,,,,,,,VFR,,,,,,,,,,,,SPECI,6.0
YPLM 170830Z AUTO 05005KT 9999 // NCD 28/03 Q1016 RF00.0/000.0,YPLM,2023-05-17T08:30:00Z,-22.23,114.08,28.0,3.0,50,5,,6.21,30.0,,,TRUE,,,,,,,,CLR,,,,,,,,VFR,,,,,,,,,,,,SPECI,5.0
YPKU 170830Z AUTO 16007KT 9999 // ////// 29/11 Q1014 RF00.0/000.0,YPKU,2023-05-17T08:30:00Z,-15.77,128.7,29.0,11.0,160,7,,6.21,29.940945,,,TRUE,,,,,,,,,,,,,,,,,,,,,,,,,,,,METAR,42.0
YPKG 170830Z AUTO 09008KT 9999 // NCD 21/04 Q1025 RF00.0/000.0,YPKG,2023-05-17T08:30:00Z,-30.78,121.45,21.0,4.0,90,8,,6.21,30.265747,,,TRUE,,,,,,,,CLR,,,,,,,,VFR,,,,,,,,,,,,METAR,372.0
YPJT 170830Z AUTO 11009KT 9999 // NCD 24/09 Q1022 RF00.0/000.0,YPJT,2023-05-17T08:30:00Z,-32.1,115.88,24.0,9.0,110,9,,6.21,30.177166,,,TRUE,,,,,,,,CLR,,,,,,,,VFR,,,,,,,,,,,,METAR,29.0
YPGV 170830Z AUTO 15012KT 9999 // SCT035 26/20 Q1013 RF00.0/000.0,YPGV,2023-05-17T08:30:00Z,-12.27,136.82,26.0,20.0,150,12,,6.21,29.911417,,,TRUE,,,,,,,,SCT,3500,,,,,,,VFR,,,,,,,,,,,,METAR,53.0
YPEA 170830Z AUTO 12006KT 9999 // NCD 25/05 Q1021 RF00.0/000.0,YPEA,2023-05-17T08:30:00Z,-31.67,116.02,25.0,5.0,120,6,,6.21,30.147638,,,TRUE,,,,,,,,CLR,,,,,,,,VFR,,,,,,,,,,,,SPECI,38.0
YPDN 170830Z 35007KT CAVOK 30/19 Q1013 TO ENE-E,YPDN,2023-05-17T08:30:00Z,-12.42,130.9,30.0,19.0,350,7,,6.21,29.911417,,,,,,,,,,,CAVOK,,,,,,,,VFR,,,,,,,,,,,,SPECI,32.0
YPCC 170830Z AUTO 14015KT 9999 // NCD 29/22 Q1013 RF00.0/000.0,YPCC,2023-05-17T08:30:00Z,-12.18,96.83,29.0,22.0,140,15,,6.21,29.911417,,,TRUE,,,,,,,,CLR,,,,,,,,VFR,,,,,,,,,,,,SPECI,3.0
YPAD 170830Z 17006KT CAVOK 11/03 Q1027,YPAD,2023-05-17T08:30:00Z,-34.95,138.52,11.0,3.0,170,6,,6.21,30.324802,,,,,,,,,,,CAVOK,,,,,,,,VFR,,,,,,,,,,,,METAR,2.0
YMML 170830Z 18006KT 9999 FEW040 09/05 Q1026 NEXT MANUAL OBSERVATION AFTER 1030Z,YMML,2023-05-17T08:30:00Z,-37.67,144.82,9.0,5.0,180,6,,6.21,30.295275,,,,,,,,,,VA,FEW,4000,,,,,,,VFR,,,,,,,,,,,,METAR,115.0
YMLT 170830Z AUTO 03001KT 9999 // NCD 05/M01 Q1026 RF00.0/000.0,YMLT,2023-05-17T08:30:00Z,-41.53,147.2,5.0,-1.0,30,1,,6.21,30.295275,,,TRUE,,,,,,,,CLR,,,,,,,,VFR,,,,,,,,,,,,METAR,167.0
YMHB 170830Z 32004KT 9999 FEW040 05/03 Q1026,YMHB,2023-05-17T08:30:00Z,-42.83,147.52,5.0,3.0,320,4,,6.21,30.295275,,,,,,,,,,,FEW,4000,,,,,,,VFR,,,,,,,,,,,,METAR,2.0
YMAV 170830Z AUTO 17007KT 9999 // OVC054 10/05 Q1026 RF00.0/000.0,YMAV,2023-05-17T08:30:00Z,-38.03,144.48,10.0,5.0,170,7,,6.21,30.295275,,,TRUE,,,,,,,,OVC,5400,,,,,,,VFR,,,,,,,,,,,,METAR,11.0
YHID 170830Z AUTO 12006KT 9999 // NCD 28/25 Q1011 RF00.0/000.0,YHID,2023-05-17T08:30:00Z,-10.58,142.3,28.0,25.0,120,6,,6.21,29.852362,,,TRUE,,,,,,,,CLR,,,,,,,,VFR,,,,,,,,,,,,METAR,5.0
YGLA 170830Z AUTO 00000KT 9999 // NCD 20/13 Q1016 RF00.0/000.0,YGLA,2023-05-17T08:30:00Z,-23.87,151.22,20.0,13.0,0,0,,6.21,30.0,,,TRUE,,,,,,,,CLR,,,,,,,,VFR,,,,,,,,,,,,METAR,17.0
YGEL 170830Z AUTO 23007KT 9999 // NCD 25/07 Q1018 RF00.0/000.0,YGEL,2023-05-17T08:30:00Z,-28.8,114.7,25.0,7.0,230,7,,6.21,30.059055,,,TRUE,,,,,,,,CLR,,,,,,,,VFR,,,,,,,,,,,,METAR,32.0
YFRT 170830Z AUTO 11009KT 9999 // NCD 19/08 Q1026 RF00.0/000.4,YFRT,2023-05-17T08:30:00Z,-30.83,128.12,19.0,8.0,110,9,,6.21,30.295275,,,TRUE,,,,,,,,CLR,,,,,,,,VFR,,,,,,,,,,,,METAR,159.0
YCIN 170830Z AUTO 03005KT 9999 // NCD 31/12 Q1013 RF00.0/000.0,YCIN,2023-05-17T08:30:00Z,-17.58,123.83,31.0,12.0,30,5,,6.21,29.911417,,,TRUE,,,,,,,,CLR,,,,,,,,VFR,,,,,,,,,,,,METAR,83.0
YCFS 170830Z AUTO 23012KT 9999 // ////// 15/10 Q1019 RF00.0/000.0,YCFS,2023-05-17T08:30:00Z,-30.32,153.12,15.0,10.0,230,12,,6.21,30.088583,,,TRUE,,,,,,,,,,,,,,,,,,,,,,,,,,,,METAR,2.0
YBWW 170830Z AUTO 15002KT 9999 // SCT052 BKN066 BKN077 15/10 Q1017,YBWW,2023-05-17T08:30:00Z,-27.55,151.8,15.0,10.0,150,2,,6.21,30.029528,,,TRUE,,,,,,,,SCT,5200,BKN,6600,BKN,7700,,,VFR,,,,,,,,,,,,METAR,460.0
YBTL 170830Z AUTO 07006KT 9999 // SCT110 23/16 Q1015 RF00.0/000.2,YBTL,2023-05-17T08:30:00Z,-19.25,146.75,23.0,16.0,70,6,,6.21,29.970472,,,TRUE,,,,,,,,SCT,11000,,,,,,,VFR,,,,,,,,,,,,SPECI,4.0
YBSU 170830Z AUTO 19007KT 9999 // BKN083 19/14 Q1016 RF00.0/000.0,YBSU,2023-05-17T08:30:00Z,-26.6,153.08,19.0,14.0,190,7,,6.21,30.0,,,TRUE,,,,,,,,BKN,8300,,,,,,,VFR,,,,,,,,,,,,METAR,4.0
YBRM 170830Z AUTO 30005KT 9999 // NCD 29/13 Q1014 RF00.0/000.0,YBRM,2023-05-17T08:30:00Z,-17.93,122.23,29.0,13.0,300,5,,6.21,29.940945,,,TRUE,,,,,,,,CLR,,,,,,,,VFR,,,,,,,,,,,,SPECI,11.0
YBRK 170830Z AUTO 24005KT 9999 // NCD 20/07 Q1015 RF00.0/000.2,YBRK,2023-05-17T08:30:00Z,-23.37,150.47,20.0,7.0,240,5,,6.21,29.970472,,,TRUE,,,,,,,,CLR,,,,,,,,VFR,,,,,,,,,,,,SPECI,10.0
YBMA 170830Z AUTO 18008KT 9999 // NCD 23/03 Q1018 RF00.0/000.0,YBMA,2023-05-17T08:30:00Z,-20.67,139.48,23.0,3.0,180,8,,6.21,30.059055,,,TRUE,,,,,,,,CLR,,,,,,,,VFR,,,,,,,,,,,,SPECI,346.0
YBLN 170830Z AUTO 11007KT 9999 // NCD 22/11 Q1023 RF00.0/000.0,YBLN,2023-05-17T08:30:00Z,-33.68,115.4,22.0,11.0,110,7,,6.21,30.206694,,,TRUE,,,,,,,,CLR,,,,,,,,VFR,,,,,,,,,,,,METAR,17.0
YBHM 170830Z AUTO 12009KT 9999 // NCD 22/13 Q1015 RF00.0/000.0,YBHM,2023-05-17T08:30:00Z,-20.35,148.95,22.0,13.0,120,9,,6.21,29.970472,,,TRUE,,,,,,,,CLR,,,,,,,,VFR,,,,,,,,,,,,METAR,4.0
YBCS 170830Z AUTO 17009KT 9999 // BKN041 BKN051 OVC069 24/20 Q1013,YBCS,2023-05-17T08:30:00Z,-16.87,145.75,24.0,20.0,170,9,,6.21,29.911417,,,TRUE,,,,,,,,BKN,4100,BKN,5100,OVC,6900,,,VFR,,,,,,,,,,,,SPECI,2.0
YBCG 170830Z AUTO 18010KT 9999 // NCD 18/11 Q1017 RF00.0/000.0,YBCG,2023-05-17T08:30:00Z,-28.17,153.5,18.0,11.0,180,10,,6.21,30.029528,,,TRUE,,,,,,,,CLR,,,,,,,,VFR,,,,,,,,,,,,SPECI,5.0
YBBN 170830Z 15004KT 9999 FEW045 18/11 Q1016,YBBN,2023-05-17T08:30:00Z,-27.38,153.13,18.0,11.0,150,4,,6.21,30.0,,,,,,,,,,,FEW,4500,,,,,,,VFR,,,,,,,,,,,,METAR,3.0
YBAS 170830Z AUTO 12008KT 9999 // NCD 18/00 Q1023 RF00.0/000.0,YBAS,2023-05-17T08:30:00Z,-23.8,133.9,18.0,0.0,120,8,,6.21,30.206694,,,TRUE,,,,,,,,CLR,,,,,,,,VFR,,,,,,,,,,,,SPECI,549.0
YAMB 170830Z 18005KT CAVOK 15/10 Q1016,YAMB,2023-05-17T08:30:00Z,-27.63,152.72,15.0,10.0,180,5,,6.21,30.0,,,,,,,,,,,CAVOK,,,,,,,,VFR,,,,,,,,,,,,METAR,26.0
WSSS 170830Z 32003KT 270V040 9999 FEW018 FEW020TCU SCT060 27/26 Q1009 NOSIG,WSSS,2023-05-17T08:30:00Z,1.37,103.97,27.0,26.0,320,3,,6.21,29.793306,,,,,,TRUE,,,,,FEW,1800,FEW,2000,SCT,6000,,,VFR,,,,,,,,,,,,METAR,17.0
WMKP 170830Z VRB03KT 9999 FEW017CB 32/26 Q1009 NOSIG,WMKP,2023-05-17T08:30:00Z,5.28,100.27,32.0,26.0,0,3,,6.21,29.793306,,,,,,TRUE,,,,,FEW,1700,,,,,,,VFR,,,,,,,,,,,,METAR,4.0
WMKK 170830Z VRB04KT 9999 FEW018 33/26 Q1009 NOSIG,WMKK,2023-05-17T08:30:00Z,2.75,101.72,33.0,26.0,0,4,,6.21,29.793306,,,,,,TRUE,,,,,FEW,1800,,,,,,,VFR,,,,,,,,,,,,METAR,21.0
WIPP 170830Z 11011KT 9999 FEW010CB BKN010 33/25 Q1008 CB OVER THE FIELD TEMPO FM0840 TL0910 3000 TSRA,WIPP,2023-05-17T08:30:00Z,-2.88,104.7,33.0,25.0,110,11,,6.21,29.763779,,,,,,,,,,,FEW,1000,BKN,1000,,,,,MVFR,,,,,,,,,,,,METAR,7.0
WIOO 170830Z 26006KT 9999 FEW12CB SCT013 33/24 Q1008 NOSIG,WIOO,2023-05-17T08:30:00Z,-0.15,109.4,33.0,24.0,260,6,,6.21,29.763779,,,,,,TRUE,,,,,SCT,1300,,,,,,,VFR,,,,,,,,,,,,METAR,4.0
WIMM 170830Z 01011KT 8000 SCT018 32/26 Q1008 NOSIG,WIMM,2023-05-17T08:30:00Z,3.57,98.67,32.0,26.0,10,11,,4.97,29.763779,,,,,,TRUE,,,,,SCT,1800,,,,,,,MVFR,,,,,,,,,,,,METAR,27.0
WILL 170830Z 10008KT 8000 SCT014 32/24 Q1009 NOSIG,WILL,2023-05-17T08:30:00Z,-5.25,105.18,32.0,24.0,100,8,,4.97,29.793306,,,,,,TRUE,,,,,SCT,1400,,,,,,,MVFR,,,,,,,,,,,,METAR,83.0
WIII 170830Z 05013KT 9999 FEW020 33/21 Q1009 NOSIG,WIII,2023-05-17T08:30:00Z,-6.13,106.67,33.0,21.0,50,13,,6.21,29.793306,,,,,,TRUE,,,,,FEW,2000,,,,,,,VFR,,,,,,,,,,,,METAR,9.0
WIHH 170830Z 03010KT 6000 FEW020 32/21 Q1009 NOSIG ,WIHH,2023-05-17T08:30:00Z,-6.27,106.88,32.0,21.0,30,10,,3.73,29.793306,,,,,,TRUE,,,,,FEW,2000,,,,,,,MVFR,,,,,,,,,,,,METAR,26.0
WIEE 170830Z 22004KT 160V280 9999 SCT020 31/26 Q1010 NOSIG,WIEE,2023-05-17T08:30:00Z,-0.78,100.28,31.0,26.0,220,4,,6.21,29.822834,,,,,,TRUE,,,,,SCT,2000,,,,,,,VFR,,,,,,,,,,,,METAR,5.0
WIDN 170830Z 01004KT 9999 SCT017 27/25 Q1010 NOSIG,WIDN,2023-05-17T08:30:00Z,0.92,104.53,27.0,25.0,10,4,,6.21,29.822834,,,,,,TRUE,,,,,SCT,1700,,,,,,,VFR,,,,,,,,,,,,METAR,18.0
WIDD 170830Z 23003KT 9999 FEW013CB FEW014 27/25 Q1011 NOSIG RMK CB TO S,WIDD,2023-05-17T08:30:00Z,1.12,104.12,27.0,25.0,230,3,,6.21,29.852362,,,,,,TRUE,,,,,FEW,1300,FEW,1400,,,,,VFR,,,,,,,,,,,,METAR,26.0
WBSB 170830Z 28007KT 9999 FEW016 FEW017CB BKN300 33/27 Q1009 NOSIG,WBSB,2023-05-17T08:30:00Z,4.93,114.92,33.0,27.0,280,7,,6.21,29.793306,,,,,,TRUE,,,,,FEW,1600,FEW,1700,BKN,30000,,,VFR,,,,,,,,,,,,METAR,15.0
WBKK 170830Z VRB02KT 9999 FEW014 FEW016CB 32/26 Q1009 NOSIG,WBKK,2023-05-17T08:30:00Z,5.93,116.05,32.0,26.0,0,2,,6.21,29.793306,,,,,,TRUE,,,,,FEW,1400,FEW,1600,,,,,VFR,,,,,,,,,,,,METAR,9.0
WBGG 170830Z 07008KT 030V130 9999 SCT020 29/24 Q1009 RETS NOSIG,WBGG,2023-05-17T08:30:00Z,1.48,110.35,29.0,24.0,70,8,,6.21,29.793306,,,,,,TRUE,,,,,SCT,2000,,,,,,,VFR,,,,,,,,,,,,METAR,26.0
WATT 170830Z 33003KT 9999 SCT017 28/24 Q1012 NOSIG,WATT,2023-05-17T08:30:00Z,-10.17,123.67,28.0,24.0,330,3,,6.21,29.88189,,,,,,TRUE,,,,,SCT,1700,,,,,,,VFR,,,,,,,,,,,,METAR,104.0
WARR 170830Z 04008KT 9999 FEW020 30/22 Q1010 NOSIG ,WARR,2023-05-17T08:30:00Z,-7.37,112.78,30.0,22.0,40,8,,6.21,29.822834,,,,,,TRUE,,,,,FEW,2000,,,,,,,VFR,,,,,,,,,,,,METAR,3.0
WAQQ 170830Z 15002KT 9999 FEW015 BKN100 30/25 Q1009 NOSIG,WAQQ,2023-05-17T08:30:00Z,3.33,117.57,30.0,25.0,150,2,,6.21,29.793306,,,,,,TRUE,,,,,FEW,1500,BKN,10000,,,,,VFR,,,,,,,,,,,,METAR,6.0
WAPP 170830Z 19003KT 130V240 9999 SCT017 28/25 Q1011 NOSIG,WAPP,2023-05-17T08:30:00Z,-3.7,128.08,28.0,25.0,190,3,,6.21,29.852362,,,,,,TRUE,,,,,SCT,1700,,,,,,,VFR,,,,,,,,,,,,METAR,20.0
WAOO 170830Z 19004KT 9999 SCT018 33/23 Q1008 NOSIG,WAOO,2023-05-17T08:30:00Z,-3.45,114.77,33.0,23.0,190,4,,6.21,29.763779,,,,,,TRUE,,,,,SCT,1800,,,,,,,VFR,,,,,,,,,,,,METAR,23.0
WAMM 170830Z 26003KT 180V340 9999 SCT020 31/24 Q1010 NOSIG ,WAMM,2023-05-17T08:30:00Z,1.55,124.92,31.0,24.0,260,3,,6.21,29.822834,,,,,,TRUE,,,,,SCT,2000,,,,,,,VFR,,,,,,,,,,,,METAR,86.0
WALL 170830Z 09003KT 9999 FEW020 29/4 Q1010 NOSIG,WALL,2023-05-17T08:30:00Z,-1.27,116.9,29.0,,90,3,,6.21,29.822834,,,,,,TRUE,,,,,FEW,2000,,,,,,,VFR,,,,,,,,,,,,METAR,3.0
WAJJ 170830Z 00000KT 9000 FEW013 25/22 Q1009 NOSIG,WAJJ,2023-05-17T08:30:00Z,-2.58,140.52,25.0,22.0,0,0,,5.59,29.793306,,,,,,TRUE,,,,,FEW,1300,,,,,,,VFR,,,,,,,,,,,,METAR,93.0
WAHS 170830Z 09008KT 8000 FEW014 33/19 Q1009 NOSIG,WAHS,2023-05-17T08:30:00Z,-6.98,110.38,33.0,19.0,90,8,,4.97,29.793306,,,,,,TRUE,,,,,FEW,1400,,,,,,,MVFR,,,,,,,,,,,,METAR,3.0
WADL 170830Z 15008KT 120V180 8000 SCT016 29/21 Q1012 NOSIG,WADL,2023-05-17T08:30:00Z,-8.75,116.28,29.0,21.0,150,8,,4.97,29.88189,,,,,,TRUE,,,,,SCT,1600,,,,,,,MVFR,,,,,,,,,,,,METAR,97.0
WADD 170830Z 14010KT 9999 FEW017 28/23 Q1011 NOSIG,WADD,2023-05-17T08:30:00Z,-8.73,115.17,28.0,23.0,140,10,,6.21,29.852362,,,,,,TRUE,,,,,FEW,1700,,,,,,,VFR,,,,,,,,,,,,METAR,3.0
WABB 170830Z VRB02KT 9999 FEW018 30/25 Q1009 NOSIG,WABB,2023-05-17T08:30:00Z,-1.18,136.12,30.0,25.0,0,2,,6.21,29.793306,,,,,,TRUE,,,,,FEW,1800,,,,,,,VFR,,,,,,,,,,,,METAR,12.0
WAAA 170830Z 26008KT 240V310 9999 FEW019 30/25 Q1011 NOSIG,WAAA,2023-05-17T08:30:00Z,-5.07,119.55,30.0,25.0,260,8,,6.21,29.852362,,,,,,TRUE,,,,,FEW,1900,,,,,,,VFR,,,,,,,,,,,,METAR,13.0
VYYY 170830Z 25010KT 7000 BKN018 FEW025TCU 34/26 Q1008,VYYY,2023-05-17T08:30:00Z,16.9,96.13,34.0,26.0,250,10,,4.35,29.763779,,,,,,,,,,,BKN,1800,FEW,2500,,,,,MVFR,,,,,,,,,,,,METAR,31.0
VYMD 170830Z 14004KT 7000 SCT025 37/23 Q1007 NOSIG,VYMD,2023-05-17T08:30:00Z,21.7,95.98,37.0,23.0,140,4,,4.35,29.734253,,,,,,TRUE,,,,,SCT,2500,,,,,,,MVFR,,,,,,,,,,,,METAR,87.0
VVVD 170830Z 18012KT CAVOK 34/25 Q1001 NOSIG,VVVD,2023-05-17T08:30:00Z,21.12,107.42,34.0,25.0,180,12,,6.21,29.557087,,,,,,TRUE,,,,,CAVOK,,,,,,,,VFR,,,,,,,,,,,,METAR,8.0
VVTS 170830Z 19013KT 9000 VCTS SCT017 FEW020CB SCT050 31/27 Q1008 NOSIG,VVTS,2023-05-17T08:30:00Z,10.82,106.67,31.0,27.0,190,13,,5.59,29.763779,,,,,,TRUE,,,,VCTS,SCT,1700,FEW,2000,SCT,5000,,,VFR,,,,,,,,,,,,METAR,10.0
VVPQ 170830Z 26010KT 9999 FEW017 33/25 Q1008 NOSIG,VVPQ,2023-05-17T08:30:00Z,10.23,103.97,33.0,25.0,260,10,,6.21,29.763779,,,,,,TRUE,,,,,FEW,1700,,,,,,,VFR,,,,,,,,,,,,METAR,8.0
VVPB 170830Z 09008KT 9999 FEW017 36/23 Q1006 NOSIG,VVPB,2023-05-17T08:30:00Z,16.38,107.7,36.0,23.0,90,8,,6.21,29.704725,,,,,,TRUE,,,,,FEW,1700,,,,,,,VFR,,,,,,,,,,,,METAR,15.0
VVNB 170830Z 25006KT 180V310 CAVOK 39/21 Q1000 NOSIG,VVNB,2023-05-17T08:30:00Z,21.22,105.8,39.0,21.0,250,6,,6.21,29.52756,,,,,,TRUE,,,,,CAVOK,,,,,,,,VFR,,,,,,,,,,,,METAR,6.0
VVDN 170830Z 08006KT 030V130 9999 FEW015 33/25 Q1005 NOSIG,VVDN,2023-05-17T08:30:00Z,16.03,108.2,33.0,25.0,80,6,,6.21,29.675198,,,,,,TRUE,,,,,FEW,1500,,,,,,,VFR,,,,,,,,,,,,METAR,7.0
VVCT 170830Z 25005KT 220V280 9999 FEW017 FEW020CB BKN050 30/26 Q1008 NOSIG,VVCT,2023-05-17T08:30:00Z,10.08,105.72,30.0,26.0,250,5,,6.21,29.763779,,,,,,TRUE,,,,,FEW,1700,FEW,2000,BKN,5000,,,VFR,,,,,,,,,,,,METAR,6.0
VVCR 170830Z 24010KT 9999 FEW015 35/24 Q1008 NOSIG,VVCR,2023-05-17T08:30:00Z,12.0,109.22,35.0,24.0,240,10,,6.21,29.763779,,,,,,TRUE,,,,,FEW,1500,,,,,,,VFR,,,,,,,,,,,,METAR,12.0
VVCI 170830Z 23006KT 170V270 CAVOK 38/21 Q1001 NOSIG,VVCI,2023-05-17T08:30:00Z,20.82,106.73,38.0,21.0,230,6,,6.21,29.557087,,,,,,TRUE,,,,,CAVOK,,,,,,,,VFR,,,,,,,,,,,,METAR,6.0
VTSS 170830Z 25010KT 2000 +TSRA FEW016CB BKN018 OVC090 25/23 Q1009 BECMG TL0840 5000 TSRA,VTSS,2023-05-17T08:30:00Z,6.92,100.38,25.0,23.0,250,10,,1.24,29.793306,,,,,,,,,,+TSRA,FEW,1600,BKN,1800,OVC,9000,,,IFR,,,,,,,,,,,,SPECI,28.0
VTSP 170830Z 30009KT 9999 FEW020 32/25 Q1009 NOSIG,VTSP,2023-05-17T08:30:00Z,8.12,98.32,32.0,25.0,300,9,,6.21,29.793306,,,,,,TRUE,,,,,FEW,2000,,,,,,,VFR,,,,,,,,,,,,METAR,12.0
VTCC 170830Z 18005KT 130V250 9999 FEW035 35/21 Q1008 NOSIG,VTCC,2023-05-17T08:30:00Z,18.77,98.97,35.0,21.0,180,5,,6.21,29.763779,,,,,,TRUE,,,,,FEW,3500,,,,,,,VFR,,,,,,,,,,,,METAR,308.0
VTBU 170830Z 21009KT 9999 FEW020 34/25 Q1008 NOSIG,VTBU,2023-05-17T08:30:00Z,12.68,101.0,34.0,25.0,210,9,,6.21,29.763779,,,,,,TRUE,,,,,FEW,2000,,,,,,,VFR,,,,,,,,,,,,METAR,12.0
VTBS 170830Z 19009KT 9999 FEW020 35/23 Q1007 NOSIG,VTBS,2023-05-17T08:30:00Z,13.68,100.75,35.0,23.0,190,9,,6.21,29.734253,,,,,,TRUE,,,,,FEW,2000,,,,,,,VFR,,,,,,,,,,,,METAR,1.0
VTBD 170830Z 31010KT 270V350 9999 FEW020 38/21 Q1007 NOSIG,VTBD,2023-05-17T08:30:00Z,13.92,100.6,38.0,21.0,310,10,,6.21,29.734253,,,,,,TRUE,,,,,FEW,2000,,,,,,,VFR,,,,,,,,,,,,METAR,6.0
VQPR 170830Z 15010KT 8000 SCT030 BKN070 22/08 Q1018,VQPR,2023-05-17T08:30:00Z,27.4,89.43,22.0,8.0,150,10,,4.97,30.059055,,,,,,,,,,,SCT,3000,BKN,7000,,,,,MVFR,,,,,,,,,,,,METAR,2227.0
VOVZ 170830Z 22011KT 4500 HZ FEW018 SCT080 34/27 Q1007 NOSIG,VOVZ,2023-05-17T08:30:00Z,17.72,83.22,34.0,27.0,220,11,,2.8,29.734253,,,,,,TRUE,,,,HZ,FEW,1800,SCT,8000,,,,,IFR,,,,,,,,,,,,METAR,4.0
VOTV 170830Z 30012KT 5000 HZ FEW015 FEW025TCU 34/26 Q1008 NOSIG,VOTV,2023-05-17T08:30:00Z,8.48,76.92,34.0,26.0,300,12,,3.11,29.763779,,,,,,TRUE,,,,HZ,FEW,1500,FEW,2500,,,,,MVFR,,,,,,,,,,,,METAR,9.0
VOTR 170830Z 28004KT 7000 FEW016 SCT100 37/25 Q1007 NOSIG,VOTR,2023-05-17T08:30:00Z,10.77,78.72,37.0,25.0,280,4,,4.35,29.734253,,,,,,TRUE,,,,,FEW,1600,SCT,10000,,,,,MVFR,,,,,,,,,,,,METAR,90.0
VOTP 170830Z 12008KT 6000 FEW020 40/17 Q1006 NOSIG,VOTP,2023-05-17T08:30:00Z,13.63,79.55,40.0,17.0,120,8,,3.73,29.704725,,,,,,TRUE,,,,,FEW,2000,,,,,,,MVFR,,,,,,,,,,,,METAR,103.0
VOTK 170830Z 16010G20KT 6000 FEW020 38/22 Q1007 NOSIG,VOTK,2023-05-17T08:30:00Z,8.72,78.02,38.0,22.0,160,10,20,3.73,29.734253,,,,,,TRUE,,,,,FEW,2000,,,,,,,MVFR,,,,,,,,,,,,METAR,25.0
VOSR 170830Z 30016KT 5000 FU NSC 33/23 Q1009 NOSIG,VOSR,2023-05-17T08:30:00Z,16.0,73.53,33.0,23.0,300,16,,3.11,29.793306,,,,,,TRUE,,,,FU,CLR,,,,,,,,MVFR,,,,,,,,,,,,METAR,62.0
VORY 170830Z 11007KT 6000 SCT020 40/27 Q1005 NOSIG,VORY,2023-05-17T08:30:00Z,17.1,81.82,40.0,27.0,110,7,,3.73,29.675198,,,,,,TRUE,,,,,SCT,2000,,,,,,,MVFR,,,,,,,,,,,,METAR,47.0
VOPC 170830Z 17005KT 6000 FEW020 36/27 Q1008 NOSIG,VOPC,2023-05-17T08:30:00Z,11.97,79.82,36.0,27.0,170,5,,3.73,29.763779,,,,,,TRUE,,,,,FEW,2000,,,,,,,MVFR,,,,,,,,,,,,METAR,43.0
VOPB 170830Z 23009KT 6000 SCT014 33/21 Q1010 NOSIG,VOPB,2023-05-17T08:30:00Z,11.63,92.73,33.0,21.0,230,9,,3.73,29.822834,,,,,,TRUE,,,,,SCT,1400,,,,,,,MVFR,,,,,,,,,,,,METAR,1.0
VOMM 170830Z 20010KT 5000 HZ FEW020 37/30 Q1006 NOSIG,VOMM,2023-05-17T08:30:00Z,13.0,80.17,37.0,30.0,200,10,,3.11,29.704725,,,,,,TRUE,,,,HZ,FEW,2000,,,,,,,MVFR,,,,,,,,,,,,METAR,7.0
VOML 170830Z 28010KT 9999 FEW015 34/25 Q1009 NOSIG,VOML,2023-05-17T08:30:00Z,12.97,74.88,34.0,25.0,280,10,,6.21,29.793306,,,,,,TRUE,,,,,FEW,1500,,,,,,,VFR,,,,,,,,,,,,METAR,100.0
VOMD 170830Z 26004KT 7000 FEW025 39/23 Q1007 NOSIG,VOMD,2023-05-17T08:30:00Z,9.83,78.08,39.0,23.0,260,4,,4.35,29.734253,,,,,,TRUE,,,,,FEW,2500,,,,,,,MVFR,,,,,,,,,,,,METAR,135.0
VOKU 170830Z 27010KT 6000 FEW020 40/07 Q1008 NOSIG,VOKU,2023-05-17T08:30:00Z,15.72,78.17,40.0,7.0,270,10,,3.73,29.763779,,,,,,TRUE,,,,,FEW,2000,,,,,,,MVFR,,,,,,,,,,,,METAR,280.0
VOKN 170830Z 29008KT 6000 SCT012 35/27 Q1008 NOSIG,VOKN,2023-05-17T08:30:00Z,11.92,75.55,35.0,27.0,290,8,,3.73,29.763779,,,,,,TRUE,,,,,SCT,1200,,,,,,,MVFR,,,,,,,,,,,,METAR,105.0
VOHY 170830Z 31006KT 6000 FEW020 37/12 Q1011 NOSIG,VOHY,2023-05-17T08:30:00Z,17.45,78.47,37.0,12.0,310,6,,3.73,29.852362,,,,,,TRUE,,,,,FEW,2000,,,,,,,MVFR,,,,,,,,,,,,METAR,540.0
VOHS 170830Z 30010KT 6000 FEW015 36/13 Q1013 NOSIG,VOHS,2023-05-17T08:30:00Z,17.23,78.43,36.0,13.0,300,10,,3.73,29.911417,,,,,,TRUE,,,,,FEW,1500,,,,,,,MVFR,,,,,,,,,,,,METAR,607.0
VOHB 170830Z 26010KT 9999 FEW015 37/07 Q1012,VOHB,2023-05-17T08:30:00Z,15.37,75.08,37.0,7.0,260,10,,6.21,29.88189,,,,,,,,,,,FEW,1500,,,,,,,VFR,,,,,,,,,,,,METAR,661.0
VOGO 170830Z 30013KT 6000 FEW030 33/24 Q1008 NOSIG,VOGO,2023-05-17T08:30:00Z,15.38,73.83,33.0,24.0,300,13,,3.73,29.763779,,,,,,TRUE,,,,,FEW,3000,,,,,,,MVFR,,,,,,,,,,,,METAR,56.0
VOCP 170830Z 01004KT 6000 FEW020 40/12 Q1006 NOSIG,VOCP,2023-05-17T08:30:00Z,14.5,78.77,40.0,12.0,10,4,,3.73,29.704725,,,,,,TRUE,,,,,FEW,2000,,,,,,,MVFR,,,,,,,,,,,,METAR,134.0
VOCL 170830Z 25010KT 6000 FEW015 SCT018 33/22 Q1009 NOSIG,VOCL,2023-05-17T08:30:00Z,11.13,75.95,33.0,22.0,250,10,,3.73,29.793306,,,,,,TRUE,,,,,FEW,1500,SCT,1800,,,,,MVFR,,,,,,,,,,,,METAR,104.0
VOCI 170830Z 27007KT 5000 HZ SCT015 SCT020 35/27 Q1008 NOSIG,VOCI,2023-05-17T08:30:00Z,10.15,76.4,35.0,27.0,270,7,,3.11,29.763779,,,,,,TRUE,,,,HZ,SCT,1500,SCT,2000,,,,,MVFR,,,,,,,,,,,,METAR,8.0
VOCB 170830Z 25004KT 6000 FEW015 36/22 Q1010 NOSIG,VOCB,2023-05-17T08:30:00Z,11.02,77.03,36.0,22.0,250,4,,3.73,29.822834,,,,,,TRUE,,,,,FEW,1500,,,,,,,MVFR,,,,,,,,,,,,METAR,394.0
VOBZ 170830Z 09007KT 6000 SCT020 38/26 Q1005 NOSIG,VOBZ,2023-05-17T08:30:00Z,16.52,80.78,38.0,26.0,90,7,,3.73,29.675198,,,,,,TRUE,,,,,SCT,2000,,,,,,,MVFR,,,,,,,,,,,,METAR,26.0
VOBM 170830Z 19008KT 9999 FEW012 37/11 Q1014,VOBM,2023-05-17T08:30:00Z,15.85,74.62,37.0,11.0,190,8,,6.21,29.940945,,,,,,,,,,,FEW,1200,,,,,,,VFR,,,,,,,,,,,,METAR,758.0
VOBL 170830Z 29003KT 9999 FEW015 SCT020 34/13 Q1014 NOSIG,VOBL,2023-05-17T08:30:00Z,13.2,77.7,34.0,13.0,290,3,,6.21,29.940945,,,,,,TRUE,,,,,FEW,1500,SCT,2000,,,,,VFR,,,,,,,,,,,,METAR,908.0
VOBG 170830Z VRB02KT 9999 SCT012 35/16 Q1014 NOSIG,VOBG,2023-05-17T08:30:00Z,12.95,77.65,35.0,16.0,0,2,,6.21,29.940945,,,,,,TRUE,,,,,SCT,1200,,,,,,,VFR,,,,,,,,,,,,METAR,884.0
VNKT 170830Z 21014KT 7000 FEW015 FEW025CB SCT030 BKN100 26/16 Q1014 NOSIG CB TO NE E AND SW,VNKT,2023-05-17T08:30:00Z,27.68,85.37,26.0,16.0,210,14,,4.35,29.940945,,,,,,TRUE,,,,,FEW,1500,FEW,2500,SCT,3000,BKN,10000,MVFR,,,,,,,,,,,,METAR,1334.0
VMMC 170830Z 19007KT 9999 FEW006 SCT015 27/26 Q1005 NOSIG,VMMC,2023-05-17T08:30:00Z,22.15,113.58,27.0,26.0,190,7,,6.21,29.675198,,,,,,TRUE,,,,,FEW,600,SCT,1500,,,,,VFR,,,,,,,,,,,,METAR,1.0
VLVT 170830Z 24006KT 8000 SCT020 37/25 Q1006 NOSIG,VLVT,2023-05-17T08:30:00Z,17.98,102.57,37.0,25.0,240,6,,4.97,29.704725,,,,,,TRUE,,,,,SCT,2000,,,,,,,MVFR,,,,,,,,,,,,METAR,171.0
VISM 170830Z 32008KT 6000 SCT030 29/10 Q1017,VISM,2023-05-17T08:30:00Z,31.08,77.07,29.0,10.0,320,8,,3.73,30.029528,,,,,,,,,,,SCT,3000,,,,,,,MVFR,,,,,,,,,,,,METAR,1537.0
VIPT 170830Z 29007KT 2000 DU FEW030 SCT100 36/19 Q1005,VIPT,2023-05-17T08:30:00Z,29.03,79.47,36.0,19.0,290,7,,1.24,29.675198,,,,,,,,,,DU,FEW,3000,SCT,10000,,,,,IFR,,,,,,,,,,,,METAR,236.0
VILK 170830Z 30007KT 5000 HZ NSC 41/18 Q1004 NOSIG,VILK,2023-05-17T08:30:00Z,26.75,80.88,41.0,18.0,300,7,,3.11,29.64567,,,,,,TRUE,,,,HZ,CLR,,,,,,,,MVFR,,,,,,,,,,,,METAR,121.0
VILD 170830Z VRB01KT 5000 HZ FEW040 40/12 Q1006,VILD,2023-05-17T08:30:00Z,30.85,75.95,40.0,12.0,0,1,,3.11,29.704725,,,,,,,,,,HZ,FEW,4000,,,,,,,MVFR,,,,,,,,,,,,METAR,270.0
VIJP 170830Z 27010KT 3500 HZ SCT030 39/18 Q1008 NOSIG,VIJP,2023-05-17T08:30:00Z,26.82,75.8,39.0,18.0,270,10,,2.17,29.763779,,,,,,TRUE,,,,HZ,SCT,3000,,,,,,,IFR,,,,,,,,,,,,METAR,383.0
VIAR 170830Z 26005KT 6000 NSC 40/09 Q1005 NOSIG,VIAR,2023-05-17T08:30:00Z,31.7,74.8,40.0,9.0,260,5,,3.73,29.675198,,,,,,TRUE,,,,,CLR,,,,,,,,MVFR,,,,,,,,,,,,METAR,226.0
VHHH 170830Z 19013KT 9999 FEW009 SCT020 30/25 Q1005 NOSIG,VHHH,2023-05-17T08:30:00Z,22.32,113.92,30.0,25.0,190,13,,6.21,29.675198,,,,,,TRUE,,,,,FEW,900,SCT,2000,,,,,VFR,,,,,,,,,,,,METAR,9.0
VGHS 170830Z 08007KT 4000 HZ FEW015 SCT120 31/22 Q1008 NOSIG,VGHS,2023-05-17T08:30:00Z,23.85,90.4,31.0,22.0,80,7,,2.49,29.763779,,,,,,TRUE,,,,HZ,FEW,1500,SCT,12000,,,,,IFR,,,,,,,,,,,,METAR,11.0
VERU 170830Z 07008KT 6000 NSW SCT020 BKN100 25/22 Q1008 NOSIG,VERU,2023-05-17T08:30:00Z,26.13,89.92,25.0,22.0,70,8,,3.73,29.763779,,,,,,TRUE,,,,,SCT,2000,BKN,10000,,,,,MVFR,,,,,,,,,,,,METAR,45.0
VERP 170830Z 26010KT 6000 SCT025 41/13 Q1006 NOSIG,VERP,2023-05-17T08:30:00Z,21.18,81.73,41.0,13.0,260,10,,3.73,29.704725,,,,,,TRUE,,,,,SCT,2500,,,,,,,MVFR,,,,,,,,,,,,METAR,318.0
VERC 170830Z 32003KT 6000 FEW020 SCT100 40/16 Q1009 NOSIG,VERC,2023-05-17T08:30:00Z,23.32,85.32,40.0,16.0,320,3,,3.73,29.793306,,,,,,TRUE,,,,,FEW,2000,SCT,10000,,,,,MVFR,,,,,,,,,,,,METAR,646.0
VEPT 170830Z 07005KT 5000 HZ NSC 37/27 Q1005 NOSIG,VEPT,2023-05-17T08:30:00Z,25.6,85.08,37.0,27.0,70,5,,3.11,29.675198,,,,,,TRUE,,,,HZ,CLR,,,,,,,,MVFR,,,,,,,,,,,,METAR,53.0
VEMR 170830Z 07003KT 6000 SCT020 BKN100 30/21 Q1010 NOSIG,VEMR,2023-05-17T08:30:00Z,25.88,93.77,30.0,21.0,70,3,,3.73,29.822834,,,,,,TRUE,,,,,SCT,2000,BKN,10000,,,,,MVFR,,,,,,,,,,,,METAR,147.0
VEMN 170830Z 11006KT 2000 -RA SCT008 SCT018 FEW025CB OVC090 22/21 Q1011 TEMPO 1500 RA,VEMN,2023-05-17T08:30:00Z,27.47,95.02,22.0,21.0,110,6,,1.24,29.852362,,,,,,,,,,-RA,SCT,800,SCT,1800,FEW,2500,OVC,9000,IFR,,,,,,,,,,,,METAR,111.0
VELR 170830Z 09005KT 4000 BR SCT020 BKN090 26/21 Q1010,VELR,2023-05-17T08:30:00Z,27.3,94.1,26.0,21.0,90,5,,2.49,29.822834,,,,,,,,,,BR,SCT,2000,BKN,9000,,,,,IFR,,,,,,,,,,,,METAR,101.0
VELP 170830Z 18003KT 1500 BR FEW006 SCT025 FEW030CB BKN100 23/22 Q1012 BECMG 3000 BR,VELP,2023-05-17T08:30:00Z,23.83,92.62,23.0,22.0,180,3,,0.93,29.88189,,,,,,,,,,BR,FEW,600,SCT,2500,FEW,3000,BKN,10000,LIFR,,,,,,,,,,,,METAR,429.0
VEJR 170830Z 23004KT 6000 FEW025 SCT030 39/15 Q1009,VEJR,2023-05-17T08:30:00Z,19.07,82.03,39.0,15.0,230,4,,3.73,29.793306,,,,,,,,,,,FEW,2500,SCT,3000,,,,,MVFR,,,,,,,,,,,,METAR,555.0
VEJH 170830Z 24004KT 5000 HZ FEW020 42/16 Q1005,VEJH,2023-05-17T08:30:00Z,21.92,84.03,42.0,16.0,240,4,,3.11,29.675198,,,,,,,,,,HZ,FEW,2000,,,,,,,MVFR,,,,,,,,,,,,METAR,231.0
VEIM 170830Z 29007KT 5000 HZ SCT018 BKN100 29/22 Q1013 NOSIG,VEIM,2023-05-17T08:30:00Z,24.77,93.9,29.0,22.0,290,7,,3.11,29.911417,,,,,,TRUE,,,,HZ,SCT,1800,BKN,10000,,,,,MVFR,,,,,,,,,,,,METAR,777.0
VEGY 170830Z 26008KT 4000 HZ FEW020 SCT100 41/17 Q1004 NOSIG,VEGY,2023-05-17T08:30:00Z,24.75,84.95,41.0,17.0,260,8,,2.49,29.64567,,,,,,TRUE,,,,HZ,FEW,2000,SCT,10000,,,,,IFR,,,,,,,,,,,,METAR,115.0
VEGT 170830Z 03007KT 5000 BR SCT018 BKN100 28/27 Q1009 NOSIG,VEGT,2023-05-17T08:30:00Z,26.1,91.58,28.0,27.0,30,7,,3.11,29.793306,,,,,,TRUE,,,,BR,SCT,1800,BKN,10000,,,,,MVFR,,,,,,,,,,,,METAR,50.0
VEDO 170830Z 34010KT 5000 HZ SCT020 FEW030CB BKN100 40/13 Q1005 NOSIG,VEDO,2023-05-17T08:30:00Z,24.45,86.7,40.0,13.0,340,10,,3.11,29.675198,,,,,,TRUE,,,,HZ,SCT,2000,FEW,3000,BKN,10000,,,MVFR,,,,,,,,,,,,METAR,244.0
VEDG 170830Z 13009KT 5000 HZ SCT100 39/20 Q1004 NOSIG,VEDG,2023-05-17T08:30:00Z,23.62,87.25,39.0,20.0,130,9,,3.11,29.64567,,,,,,TRUE,,,,HZ,SCT,10000,,,,,,,MVFR,,,,,,,,,,,,METAR,88.0
VECC 170830Z 18012KT 4000 HZ SCT020 36/28 Q1005 NOSIG,VECC,2023-05-17T08:30:00Z,22.65,88.43,36.0,28.0,180,12,,2.49,29.675198,,,,,,TRUE,,,,HZ,SCT,2000,,,,,,,IFR,,,,,,,,,,,,METAR,11.0
VEBS 170830Z 15014KT 5000 HZ NSC 37/30 Q1006 NOSIG,VEBS,2023-05-17T08:30:00Z,20.25,85.82,37.0,30.0,150,14,,3.11,29.704725,,,,,,TRUE,,,,HZ,CLR,,,,,,,,MVFR,,,,,,,,,,,,METAR,42.0
VEBN 170830Z 30005KT 3000 DU NSC 42/16 Q1005 NOSIG,VEBN,2023-05-17T08:30:00Z,25.45,82.85,42.0,16.0,300,5,,1.86,29.675198,,,,,,TRUE,,,,DU,CLR,,,,,,,,IFR,,,,,,,,,,,,METAR,81.0
VEBI 170830Z 29006KT 4000 HZ SCT018 BKN090 26/13 Q1013 NOSIG,VEBI,2023-05-17T08:30:00Z,25.7,91.98,26.0,13.0,290,6,,2.49,29.911417,,,,,,TRUE,,,,HZ,SCT,1800,BKN,9000,,,,,IFR,,,,,,,,,,,,METAR,892.0
VEAT 170830Z 14007KT 5000 BR FEW020 SCT100 26/23 Q1009 NOSIG,VEAT,2023-05-17T08:30:00Z,23.88,91.25,26.0,23.0,140,7,,3.11,29.793306,,,,,,TRUE,,,,BR,FEW,2000,SCT,10000,,,,,MVFR,,,,,,,,,,,,METAR,20.0
VDSV 170830Z 28012KT 9999 SCT015 33/25 Q1008,VDSV,2023-05-17T08:30:00Z,10.58,103.63,33.0,25.0,280,12,,6.21,29.763779,,,,,,,,,,,SCT,1500,,,,,,,VFR,,,,,,,,,,,,METAR,1.0
VDSR 170830Z 34011KT 290V360 9000 -TSRA SCT015 FEW017CB 29/24 Q1006 RMK CB:W,VDSR,2023-05-17T08:30:00Z,13.42,103.8,29.0,24.0,340,11,,5.59,29.704725,,,,,,,,,,-TSRA,SCT,1500,FEW,1700,,,,,VFR,,,,,,,,,,,,SPECI,16.0
VDPP 170830Z VRB05KT 9999 SCT017 38/20 Q1006,VDPP,2023-05-17T08:30:00Z,11.55,104.83,38.0,20.0,0,5,,6.21,29.704725,,,,,,,,,,,SCT,1700,,,,,,,VFR,,,,,,,,,,,,METAR,10.0
VAUD 170830Z 23010KT 6000 NSC 38/14 Q1010 NOSIG,VAUD,2023-05-17T08:30:00Z,24.62,73.9,38.0,14.0,230,10,,3.73,29.822834,,,,,,TRUE,,,,,CLR,,,,,,,,MVFR,,,,,,,,,,,,METAR,506.0
VASU 170830Z 18010KT 6000 FEW030 34/22 Q1009 NOSIG,VASU,2023-05-17T08:30:00Z,21.12,72.73,34.0,22.0,180,10,,3.73,29.793306,,,,,,TRUE,,,,,FEW,3000,,,,,,,MVFR,,,,,,,,,,,,METAR,6.0
VASD 170830Z 00008KT 6000 FEW025 37/10 Q1012 NOSIG,VASD,2023-05-17T08:30:00Z,19.68,74.38,37.0,10.0,0,8,,3.73,29.88189,,,,,,TRUE,,,,,FEW,2500,,,,,,,MVFR,,,,,,,,,,,,METAR,587.0
VAOZ 170830Z 27010KT 9999 FEW040 36/15 Q1013 NOSIG,VAOZ,2023-05-17T08:30:00Z,20.12,73.92,36.0,15.0,270,10,,6.21,29.911417,,,,,,TRUE,,,,,FEW,4000,,,,,,,VFR,,,,,,,,,,,,METAR,598.0
VANP 170830Z 34003KT 5000 HZ FEW020 SCT100 40/17 Q1008 NOSIG,VANP,2023-05-17T08:30:00Z,21.08,79.05,40.0,17.0,340,3,,3.11,29.763779,,,,,,TRUE,,,,HZ,FEW,2000,SCT,10000,,,,,MVFR,,,,,,,,,,,,METAR,309.0
VAKP 170830Z 24007KT 8000 NSC 36/06 Q1013,VAKP,2023-05-17T08:30:00Z,16.65,74.28,36.0,6.0,240,7,,4.97,29.911417,,,,,,,,,,,CLR,,,,,,,,MVFR,,,,,,,,,,,,METAR,612.0
VAJJ 170830Z 27009KT 5000 HZ FEW020 SCT025 32/25 Q1009 NOSIG,VAJJ,2023-05-17T08:30:00Z,19.08,72.83,32.0,25.0,270,9,,3.11,29.793306,,,,,,TRUE,,,,HZ,FEW,2000,SCT,2500,,,,,MVFR,,,,,,,,,,,,METAR,1.0
VAID 170830Z 22005KT 7000 FEW020 SCT025 37/17 Q1011 NOSIG,VAID,2023-05-17T08:30:00Z,22.72,75.8,37.0,17.0,220,5,,4.35,29.852362,,,,,,TRUE,,,,,FEW,2000,SCT,2500,,,,,MVFR,,,,,,,,,,,,METAR,564.0
VABP 170830Z 04005KT 6000 -TS SCT025 FEW030CB BKN100 36/13 Q1010 TEMPO 5000 -TSRA,VABP,2023-05-17T08:30:00Z,23.28,77.33,36.0,13.0,40,5,,3.73,29.822834,,,,,,,,,,-TS,SCT,2500,FEW,3000,BKN,10000,,,MVFR,,,,,,,,,,,,METAR,520.0
VABO 170830Z 23008KT 6000 NSC 38/22 Q1008 NOSIG,VABO,2023-05-17T08:30:00Z,22.33,73.22,38.0,22.0,230,8,,3.73,29.763779,,,,,,TRUE,,,,,CLR,,,,,,,,MVFR,,,,,,,,,,,,METAR,36.0
VABB 170830Z 27007G17KT 5000 HZ FEW020 34/25 Q1009 NOSIG,VABB,2023-05-17T08:30:00Z,19.1,72.87,34.0,25.0,270,7,17,3.11,29.793306,,,,,,TRUE,,,,HZ,FEW,2000,,,,,,,MVFR,,,,,,,,,,,,METAR,14.0
VAAH 170830Z 27003KT 6000 NSC 38/18 Q1008 NOSIG,VAAH,2023-05-17T08:30:00Z,23.07,72.63,38.0,18.0,270,3,,3.73,29.763779,,,,,,TRUE,,,,,CLR,,,,,,,,MVFR,,,,,,,,,,,,METAR,52.0
UWWW 170830Z 04008MPS 020V080 CAVOK 24/02 Q1020 R33/CLRD60 NOSIG RMK QFE754/1005,UWWW,2023-05-17T08:30:00Z,53.5,50.17,24.0,2.0,40,16,,6.21,30.11811,,,,,,TRUE,,,,,CAVOK,,,,,,,,VFR,,,,,,,,,,,,SPECI,124.0
UWUU 170830Z 06007MPS 030V110 CAVOK 23/04 Q1021 R32L/0///60 NOSIG,UWUU,2023-05-17T08:30:00Z,54.57,55.87,23.0,4.0,60,14,,6.21,30.147638,,,,,,TRUE,,,,,CAVOK,,,,,,,,VFR,,,,,,,,,,,,SPECI,137.0
UWSG 170830Z 04007MPS 010V070 CAVOK 24/10 Q1020 R08/CLRD70 NOSIG RMK QFE762/1016,UWSG,2023-05-17T08:30:00Z,51.72,46.17,24.0,10.0,40,14,,6.21,30.11811,,,,,,TRUE,,,,,CAVOK,,,,,,,,VFR,,,,,,,,,,,,METAR,31.0
UWPS 170830Z 06005MPS 9999 SCT033 21/06 Q1023 R02/CLRD60 NOSIG RMK QFE748,UWPS,2023-05-17T08:30:00Z,54.12,45.2,21.0,6.0,60,10,,6.21,30.206694,,,,,,TRUE,,,,,SCT,3300,,,,,,,VFR,,,,,,,,,,,,METAR,206.0
UWOO 170830Z 10012MPS 9000 NSC 25/03 Q1015 R08/60D NOSIG RMK QFE750/1001,UWOO,2023-05-17T08:30:00Z,51.8,55.47,25.0,3.0,100,23,,5.59,29.970472,,,,,,TRUE,,,,,CLR,,,,,,,,VFR,,,,,,,,,,,,METAR,90.0
UWLL 170830Z 04007MPS CAVOK 22/02 Q1022 R02/090065 NOSIG RMK QFE754/1006,UWLL,2023-05-17T08:30:00Z,54.27,48.23,22.0,2.0,40,14,,6.21,30.177166,,,,,,TRUE,,,,,CAVOK,,,,,,,,VFR,,,,,,,,,,,,METAR,119.0
UWKS 170830Z 09002MPS 020V150 CAVOK 23/04 Q1024 R06/010060 NOSIG RMK QFE753,UWKS,2023-05-17T08:30:00Z,56.08,47.35,23.0,4.0,90,4,,6.21,30.236221,,,,,,TRUE,,,,,CAVOK,,,,,,,,VFR,,,,,,,,,,,,METAR,165.0
UWKE 170830Z 04008G13MPS CAVOK 23/03 Q1022 R03/090070 NOSIG RMK QFE750/1000,UWKE,2023-05-17T08:30:00Z,55.57,52.08,23.0,3.0,40,16,25,6.21,30.177166,,,,,,TRUE,,,,,CAVOK,,,,,,,,VFR,,,,,,,,,,,,SPECI,193.0
UWKD 170830Z 06006MPS CAVOK 23/01 Q1023 R11/70D NOSIG RMK QFE757/1009,UWKD,2023-05-17T08:30:00Z,55.62,49.28,23.0,1.0,60,12,,6.21,30.206694,,,,,,TRUE,,,,,CAVOK,,,,,,,,VFR,,,,,,,,,,,,METAR,114.0
UWGG 170830Z VRB02MPS CAVOK 23/07 Q1025 R36R/090070 NOSIG,UWGG,2023-05-17T08:30:00Z,56.23,43.78,23.0,7.0,0,4,,6.21,30.265747,,,,,,TRUE,,,,,CAVOK,,,,,,,,VFR,,,,,,,,,,,,SPECI,73.0
UUYY 170830Z 19003MPS 120V250 9999 SCT030 24/02 Q1023 R18/61D NOSIG RMK QFE759/1012,UUYY,2023-05-17T08:30:00Z,61.65,50.83,24.0,2.0,190,6,,6.21,30.206694,,,,,,TRUE,,,,,SCT,3000,,,,,,,VFR,,,,,,,,,,,,METAR,107.0
UUWW 170830Z 16005MPS 130V200 CAVOK 21/04 Q1023 R24/000070 NOSIG,UUWW,2023-05-17T08:30:00Z,55.6,37.27,21.0,4.0,160,10,,6.21,30.206694,,,,,,TRUE,,,,,CAVOK,,,,,,,,VFR,,,,,,,,,,,,SPECI,195.0
UUOO 170830Z 13004MPS 090V160 CAVOK 22/08 Q1023 R30/010070 NOSIG RMK QFE754,UUOO,2023-05-17T08:30:00Z,51.82,39.23,22.0,8.0,130,8,,6.21,30.206694,,,,,,TRUE,,,,,CAVOK,,,,,,,,VFR,,,,,,,,,,,,SPECI,154.0
UUOL 170830Z AUTO 13001MPS 9999 NCD 21/07 Q1024,UUOL,2023-05-17T08:30:00Z,52.7,39.53,21.0,7.0,130,2,,6.21,30.236221,,,TRUE,,,,,,,,CLR,,,,,,,,VFR,,,,,,,,,,,,METAR,176.0
UUOK 170830Z 17003MPS 130V260 CAVOK 21/05 Q1023 R12/090060 NOSIG RMK QFE749/0999,UUOK,2023-05-17T08:30:00Z,51.75,36.28,21.0,5.0,170,6,,6.21,30.206694,,,,,,TRUE,,,,,CAVOK,,,,,,,,VFR,,,,,,,,,,,,METAR,203.0
UUOB 170830Z 06003G08MPS 360V120 CAVOK 20/07 Q1022 R11/010070 NOSIG,UUOB,2023-05-17T08:30:00Z,50.65,36.58,20.0,7.0,60,6,16,6.21,30.177166,,,,,,TRUE,,,,,CAVOK,,,,,,,,VFR,,,,,,,,,,,,METAR,218.0
UUMO 170830Z 18004MPS 140V230 CAVOK 21/06 Q1023 R25/CLRD60 NOSIG RMK QFE752/1003,UUMO,2023-05-17T08:30:00Z,55.52,37.5,21.0,6.0,180,8,,6.21,30.206694,,,,,,TRUE,,,,,CAVOK,,,,,,,,VFR,,,,,,,,,,,,METAR,167.0
UUEE 170830Z 16006MPS 140V210 CAVOK 21/05 Q1023 R06R/CLRD62 R06C/CLRD62 NOSIG,UUEE,2023-05-17T08:30:00Z,55.97,37.42,21.0,5.0,160,12,,6.21,30.206694,,,,,,TRUE,,,,,CAVOK,,,,,,,,VFR,,,,,,,,,,,,SPECI,186.0
UUDL 170830Z 20004MPS 160V240 9999 SCT044 22/05 Q1024 R23/010060 NOSIG RMK QFE759,UUDL,2023-05-17T08:30:00Z,57.57,40.17,22.0,5.0,200,8,,6.21,30.236221,,,,,,TRUE,,,,,SCT,4400,,,,,,,VFR,,,,,,,,,,,,METAR,88.0
UUDD 170830Z 17006MPS 140V210 CAVOK 22/06 Q1024 R88/CLRD60 NOSIG,UUDD,2023-05-17T08:30:00Z,55.4,37.9,22.0,6.0,170,12,,6.21,30.236221,,,,,,TRUE,,,,,CAVOK,,,,,,,,VFR,,,,,,,,,,,,SPECI,165.0
UUBW 170830Z 16004MPS 130V210 CAVOK 22/06 Q1023 R30/010060 NOSIG,UUBW,2023-05-17T08:30:00Z,55.55,38.15,22.0,6.0,160,8,,6.21,30.206694,,,,,,TRUE,,,,,CAVOK,,,,,,,,VFR,,,,,,,,,,,,METAR,111.0
UUBP 170830Z 16006MPS 9000 NSC 20/05 Q1022 R34/////// NOSIG RMK QFE749/0998,UUBP,2023-05-17T08:30:00Z,53.22,34.18,20.0,5.0,160,12,,5.59,30.177166,,,,,,TRUE,,,,,CLR,,,,,,,,VFR,,,,,,,,,,,,SPECI,197.0
UUBC 170830Z 17005MPS 150V210 CAVOK 21/04 Q1023 R13/CLRD60 NOSIG RMK QFE749/0999,UUBC,2023-05-17T08:30:00Z,54.55,36.37,21.0,4.0,170,10,,6.21,30.206694,,,,,,TRUE,,,,,CAVOK,,,,,,,,VFR,,,,,,,,,,,,METAR,198.0
UTTT 170830Z 25006KT 190V300 7000 SCT066CB 19/11 Q1016 R08R/29//50 NOSIG,UTTT,2023-05-17T08:30:00Z,41.27,69.27,19.0,11.0,250,6,,4.35,30.0,,,,,,TRUE,,,,,SCT,6600,,,,,,,MVFR,,,,,,,,,,,,METAR,429.0
UTST 170830Z 25016KT 9999 BKN058CB 23/11 Q1013 R25/CLRD70 TEMPO 24021G31KT,UTST,2023-05-17T08:30:00Z,37.28,67.32,23.0,11.0,250,16,,6.21,29.911417,,,,,,,,,,,BKN,5800,,,,,,,VFR,,,,,,,,,,,,SPECI,311.0
UTSS 170830Z 30006KT 280V340 9999 SCT011 BKN061CB 15/12 Q1016 R27/290450 TEMPO -TSRA,UTSS,2023-05-17T08:30:00Z,39.7,66.98,15.0,12.0,300,6,,6.21,30.0,,,,,,,,,,,SCT,1100,BKN,6100,,,,,VFR,,,,,,,,,,,,SPECI,665.0
UTSK 170830Z 36008KT 9999 BKN040CB 18/10 Q1016 R16/CLRD70,UTSK,2023-05-17T08:30:00Z,38.8,65.77,18.0,10.0,360,8,,6.21,30.0,,,,,,,,,,,BKN,4000,,,,,,,VFR,,,,,,,,,,,,SPECI,399.0
UTSB 170830Z 21006KT 150V260 9999 SCT033 21/07 Q1015 R01/CLRD70 NOSIG,UTSB,2023-05-17T08:30:00Z,39.77,64.48,21.0,7.0,210,6,,6.21,29.970472,,,,,,TRUE,,,,,SCT,3300,,,,,,,VFR,,,,,,,,,,,,SPECI,225.0
UTSA 170830Z 09002KT 9999 NSC 19/05 Q1016 R25/CLRD70 NOSIG,UTSA,2023-05-17T08:30:00Z,40.12,65.17,19.0,5.0,90,2,,6.21,30.0,,,,,,TRUE,,,,,CLR,,,,,,,,VFR,,,,,,,,,,,,SPECI,346.0
UTNU 170830Z 22014KT CAVOK 23/06 Q1013 R31/CLRD70 NODIG,UTNU,2023-05-17T08:30:00Z,41.58,60.63,23.0,6.0,220,14,,6.21,29.911417,,,,,,,,,,,CAVOK,,,,,,,,VFR,,,,,,,,,,,,SPECI,97.0
UTNN 170830Z 22012KT CAVOK 22/05 Q1011 R15/CLRD60 NOSIG,UTNN,2023-05-17T08:30:00Z,42.48,59.63,22.0,5.0,220,12,,6.21,29.852362,,,,,,TRUE,,,,,CAVOK,,,,,,,,VFR,,,,,,,,,,,,SPECI,76.0
UTFN 170830Z 20014KT 7000 FEW050CB 24/09 Q1011 R28/CLRD70 TEMPO 22016G26KT SCT050CB,UTFN,2023-05-17T08:30:00Z,40.98,71.57,24.0,9.0,200,14,,4.35,29.852362,,,,,,,,,,,FEW,5000,,,,,,,MVFR,,,,,,,,,,,,METAR,477.0
UTFF 170830Z 30012KT 270V340 9999 NSC 24/07 Q1012 R18/CLRD70,UTFF,2023-05-17T08:30:00Z,40.37,71.73,24.0,7.0,300,12,,6.21,29.88189,,,,,,,,,,,CLR,,,,,,,,VFR,,,,,,,,,,,,METAR,612.0
UTDT 170830Z 23003MPS 3500 HZ SCT016 BKN026 26/10 Q1010 R35/CLRD70 RMK QFE718/0958,UTDT,2023-05-17T08:30:00Z,37.87,68.87,26.0,10.0,230,6,,2.17,29.822834,,,,,,,,,,HZ,SCT,1600,BKN,2600,,,,,IFR,,,,,,,,,,,,METAR,443.0
UTDL 170830Z 26007MPS 9999 SCT066CB OVC086 20/07 Q1016 R26/CLRD70 NOSIG RMK QFE724/0965,UTDL,2023-05-17T08:30:00Z,40.22,69.7,20.0,7.0,260,14,,6.21,30.0,,,,,,TRUE,,,,,SCT,6600,OVC,8600,,,,,VFR,,,,,,,,,,,,SPECI,436.0
UTDK 170830Z VRB02MPS 2800 HZ BKN017 OVC024 25/11 Q1012 R01/09//70 RMK QFE702/0936,UTDK,2023-05-17T08:30:00Z,37.98,69.8,25.0,11.0,0,4,,1.74,29.88189,,,,,,,,,,HZ,BKN,1700,OVC,2400,,,,,IFR,,,,,,,,,,,,METAR,675.0
UTDD 170830Z 24003MPS 180V320 3900 HZ FEW020CB BKN026 23/11 Q1013 R09/D NOSIG RMK QFE691/0922,UTDD,2023-05-17T08:30:00Z,38.53,68.82,23.0,11.0,240,6,,2.42,29.911417,,,,,,TRUE,,,,HZ,FEW,2000,BKN,2600,,,,,IFR,,,,,,,,,,,,METAR,785.0
USTR 170830Z 10005MPS 050V140 CAVOK 15/M06 Q1028 R03/090065 R30/090065 NOSIG,USTR,2023-05-17T08:30:00Z,57.18,65.32,15.0,-6.0,100,10,,6.21,30.35433,,,,,,TRUE,,,,,CAVOK,,,,,,,,VFR,,,,,,,,,,,,SPECI,93.0
USSS 170830Z 11005MPS 080V150 CAVOK 19/M03 Q1026 R08L/010060 NOSIG RMK QFE749/0999,USSS,2023-05-17T08:30:00Z,56.75,60.78,19.0,-3.0,110,10,,6.21,30.295275,,,,,,TRUE,,,,,CAVOK,,,,,,,,VFR,,,,,,,,,,,,SPECI,222.0
USRR 170830Z 02005MPS 340V060 9999 SCT019 03/M03 Q1031 R25/CLRD60 NOSIG RMK QFE768,USRR,2023-05-17T08:30:00Z,61.33,73.42,3.0,-3.0,20,10,,6.21,30.442913,,,,,,TRUE,,,,,SCT,1900,,,,,,,VFR,,,,,,,,,,,,SPECI,52.0
USPP 170830Z 08004MPS 050V120 CAVOK 22/07 Q1024 R21/090060 NOSIG RMK QFE757,USPP,2023-05-17T08:30:00Z,57.92,56.02,22.0,7.0,80,8,,6.21,30.236221,,,,,,TRUE,,,,,CAVOK,,,,,,,,VFR,,,,,,,,,,,,SPECI,120.0
USNN 170830Z 35004MPS 9999 BKN025 03/M03 Q1029 R03/0///65 NOSIG RMK QFE768,USNN,2023-05-17T08:30:00Z,60.95,76.48,3.0,-3.0,350,8,,6.21,30.383858,,,,,,TRUE,,,,,BKN,2500,,,,,,,MVFR,,,,,,,,,,,,SPECI,52.0
USHH 170830Z 12002MPS CAVOK 13/M04 Q1030 R24/010060 NOSIG,USHH,2023-05-17T08:30:00Z,61.03,69.08,13.0,-4.0,120,4,,6.21,30.413385,,,,,,TRUE,,,,,CAVOK,,,,,,,,VFR,,,,,,,,,,,,METAR,46.0
USDA 170830Z 26009MPS CAVOK 02/M00 Q1016 R22/190055 NOSIG RMK QFE761/1015,USDA,2023-05-17T08:30:00Z,71.2,72.05,2.0,0.0,260,17,,6.21,30.0,,,,,,TRUE,,,,,CAVOK,,,,,,,,VFR,,,,,,,,,,,,METAR,5.0
USCM 170830Z 06009MPS 7000 SCT040 19/M00 Q1021 R36/090060 TEMPO 06017MPS RMK QFE727,USCM,2023-05-17T08:30:00Z,53.4,58.75,19.0,0.0,60,17,,4.35,30.147638,,,,,,,,,,,SCT,4000,,,,,,,MVFR,,,,,,,,,,,,METAR,425.0
USCC 170830Z 08005MPS CAVOK 19/M05 Q1025 R09/000060 NOSIG RMK QFE748,USCC,2023-05-17T08:30:00Z,55.3,61.5,19.0,-5.0,80,10,,6.21,30.265747,,,,,,TRUE,,,,,CAVOK,,,,,,,,VFR,,,,,,,,,,,,SPECI,227.0
URWW 170830Z 05007MPS CAVOK 22/05 Q1018 R05/010070 NOSIG,URWW,2023-05-17T08:30:00Z,48.78,44.33,22.0,5.0,50,14,,6.21,30.059055,,,,,,TRUE,,,,,CAVOK,,,,,,,,VFR,,,,,,,,,,,,SPECI,131.0
URWI 170830Z 05006MPS 020V100 9999 SCT/// 20/05 Q1016 R09/010065 TEMPO 06009G16MPS,URWI,2023-05-17T08:30:00Z,46.37,44.33,20.0,5.0,50,12,,6.21,30.0,,,,,,,,,,,,,,,,,,,,,,,,,,,,,,,SPECI,145.0
URWA 170830Z 30006MPS 280V340 CAVOK 20/06 Q1012 R27/010070 TEMPO 2000 TSRA SCT008 BKN020CB RMK QFE761/1014,URWA,2023-05-17T08:30:00Z,46.28,47.98,20.0,6.0,300,12,,6.21,29.88189,,,,,,,,,,,CAVOK,,,,,,,,VFR,,,,,,,,,,,,SPECI,-19.0
URSS 170830Z 17003MPS 9999 FEW020 18/13 Q1012 R02/010070 R06/010070 NOSIG RMK R06/18004MPS MT OBSC QFE758,URSS,2023-05-17T08:30:00Z,43.45,39.92,18.0,13.0,170,6,,6.21,29.88189,,,,,,TRUE,,,,,FEW,2000,,,,,,,VFR,,,,,,,,,,,,METAR,4.0
URRP 170830Z 08006MPS CAVOK 22/08 Q1019 R05/CLRD70 TEMPO 10009G16MPS RMK QFE759/1012,URRP,2023-05-17T08:30:00Z,47.5,39.92,22.0,8.0,80,12,,6.21,30.088583,,,,,,,,,,,CAVOK,,,,,,,,VFR,,0.9,,,,,,,,,,METAR,73.0
URMT 170830Z 05005MPS 9999 BKN033 17/08 Q1017 R07/010070 NOSIG RMK QFE723,URMT,2023-05-17T08:30:00Z,45.12,42.12,17.0,8.0,50,10,,6.21,30.029528,,,,,,TRUE,,,,,BKN,3300,,,,,,,VFR,,,,,,,,,,,,SPECI,448.0
URMO 170830Z 29004MPS 260V320 9999 BKN055 BKN077 16/05 Q1017 R27/010070 NOSIG RMK QFE718/0957,URMO,2023-05-17T08:30:00Z,43.2,44.6,16.0,5.0,290,8,,6.21,30.029528,,,,,,TRUE,,,,,BKN,5500,BKN,7700,,,,,VFR,,,,,,,,,,,,METAR,505.0
URMN 170830Z 03001MPS 9999 BKN031 17/07 Q1016 R24/010070 NOSIG RMK QFE725,URMN,2023-05-17T08:30:00Z,43.52,43.63,17.0,7.0,30,2,,6.21,30.0,,,,,,TRUE,,,,,BKN,3100,,,,,,,VFR,,,,,,,,,,,,SPECI,424.0
URMM 170830Z 30003MPS 9999 SCT048 18/07 Q1017 R30/090070 NOSIG RMK QFE734/0979,URMM,2023-05-17T08:30:00Z,44.22,43.07,18.0,7.0,300,6,,6.21,30.029528,,,,,,TRUE,,,,,SCT,4800,,,,,,,VFR,,,,,,,,,,,,METAR,318.0
URML 170830Z 32010MPS 9999 SCT040CB 19/10 Q1013 R32/290360 NOSIG RMK QFE760/1013,URML,2023-05-17T08:30:00Z,42.82,47.65,19.0,10.0,320,19,,6.21,29.911417,,,,,,TRUE,,,,,SCT,4000,,,,,,,VFR,,,,,,,,,,,,METAR,4.0
URMG 170830Z 29006MPS 260V340 9999 SCT/// 20/06 Q1015 R26/090070 NOSIG RMK QFE747/0996,URMG,2023-05-17T08:30:00Z,43.38,45.7,20.0,6.0,290,12,,6.21,29.970472,,,,,,TRUE,,,,,,,,,,,,,,,,,,,,,,,,,METAR,160.0
URKK 170830Z 07007MPS 9999 FEW/// 20/08 Q1016 R05R/CLRD70 NOSIG RMK QFE759,URKK,2023-05-17T08:30:00Z,45.03,39.15,20.0,8.0,70,14,,6.21,30.0,,,,,,TRUE,,,,,,,,,,,,,,,,,,,,,,,,,SPECI,29.0
URKA 170830Z 08009G14MPS 050V120 CAVOK 21/07 Q1015 R04/010070 NOSIG RMK QFE757/1010,URKA,2023-05-17T08:30:00Z,45.0,37.35,21.0,7.0,80,17,27,6.21,29.970472,,,,,,TRUE,,,,,CAVOK,,,,,,,,VFR,,,,,,,,,,,,METAR,41.0
UOOO 170830Z 26006MPS 5000 -SHSN BKN005 BKN017CB M01/M01 Q1022 R19/CLRD60 NOSIG RMK QFE750/1000,UOOO,2023-05-17T08:30:00Z,69.32,87.33,-1.0,-1.0,260,12,,3.11,30.177166,,,,,,TRUE,,,,-SHSN,BKN,500,BKN,1700,,,,,IFR,,,,,,,,,,,,SPECI,177.0
UNWW 170830Z 28003MPS 9999 BKN030CB 07/M03 Q1019 R01/09//55 NOSIG RMK QFE737,UNWW,2023-05-17T08:30:00Z,53.82,86.88,7.0,-3.0,280,6,,6.21,30.088583,,,,,,TRUE,,,,,BKN,3000,,,,,,,MVFR,,,,,,,,,,,,METAR,307.0
UNTT 170830Z VRB06G11MPS 9999 SCT036CB 05/M05 Q1019 R03/190055 NOSIG RMK QFE748,UNTT,2023-05-17T08:30:00Z,56.38,85.22,5.0,-5.0,0,12,21,6.21,30.088583,,,,,,TRUE,,,,,SCT,3600,,,,,,,VFR,,,,,,,,,,,,METAR,179.0
UNOO 170830Z 02005MPS CAVOK 12/M06 Q1026 R07/CLRD60 NOSIG RMK QFE761,UNOO,2023-05-17T08:30:00Z,54.97,73.32,12.0,-6.0,20,10,,6.21,30.295275,,,,,,TRUE,,,,,CAVOK,,,,,,,,VFR,,,,,,,,,,,,METAR,85.0
UNNT 170830Z 33007MPS 300V020 9999 OVC048 07/M04 Q1023 R34/090070 R25/090070 NOSIG RMK QFE757/1009,UNNT,2023-05-17T08:30:00Z,55.02,82.65,7.0,-4.0,330,14,,6.21,30.206694,,,,,,TRUE,,,,,OVC,4800,,,,,,,VFR,,,,,,,,,,,,SPECI,106.0
UNKL 170830Z 30009G17MPS 9999 -SHSN SCT029CB 04/M02 Q1012 R29/150060 NOSIG RMK QFE733,UNKL,2023-05-17T08:30:00Z,56.17,92.48,4.0,-2.0,300,17,33,6.21,29.88189,,,,,,TRUE,,,,-SHSN,SCT,2900,,,,,,,VFR,,,,,,,,,,,,METAR,278.0
UNEE 170830Z 31008MPS 9999 SCT030CB 06/M04 Q1019 R23/CLRD60 NOSIG RMK QFE741,UNEE,2023-05-17T08:30:00Z,55.27,86.1,6.0,-4.0,310,16,,6.21,30.088583,,,,,,TRUE,,,,,SCT,3000,,,,,,,VFR,,,,,,,,,,,,METAR,261.0
UNBB 170830Z 01006MPS CAVOK 08/M07 Q1021 R24/CLRD66 NOSIG RMK QFE743,UNBB,2023-05-17T08:30:00Z,53.37,83.53,8.0,-7.0,10,12,,6.21,30.147638,,,,,,TRUE,,,,,CAVOK,,,,,,,,VFR,,,,,,,,,,,,METAR,249.0
UNAA 170830Z 32004MPS CAVOK 09/M06 Q1015 R02/CLRD64 NOSIG RMK QFE739,UNAA,2023-05-17T08:30:00Z,53.75,91.4,9.0,-6.0,320,8,,6.21,29.970472,,,,,,TRUE,,,,,CAVOK,,,,,,,,VFR,,,,,,,,,,,,SPECI,249.0
UMMS 170830Z 14004MPS 9999 -RA SCT048 17/11 Q1017 NOSIG,UMMS,2023-05-17T08:30:00Z,53.88,28.03,17.0,11.0,140,8,,6.21,30.029528,,,,,,TRUE,,,,-RA,SCT,4800,,,,,,,VFR,,,,,,,,,,,,METAR,196.0
UMKK 170830Z 26005MPS 9999 SCT024 12/06 Q1017 R24/95D NOSIG RMK QFE761/1015,UMKK,2023-05-17T08:30:00Z,54.88,20.57,12.0,6.0,260,10,,6.21,30.029528,,,,,,TRUE,,,,,SCT,2400,,,,,,,VFR,,,,,,,,,,,,METAR,6.0
UMIO 170830Z 19004MPS 150V220 CAVOK 20/09 Q1018 NOSIG RMK QFE746/0994,UMIO,2023-05-17T08:30:00Z,54.43,30.3,20.0,9.0,190,8,,6.21,30.059055,,,,,,TRUE,,,,,CAVOK,,,,,,,,VFR,,,,,,,,,,,,METAR,189.0
UMII 170830Z 15004MPS CAVOK 19/06 Q1018 NOSIG,UMII,2023-05-17T08:30:00Z,55.13,30.35,19.0,6.0,150,8,,6.21,30.059055,,,,,,TRUE,,,,,CAVOK,,,,,,,,VFR,,,,,,,,,,,,METAR,208.0
UMGG 170830Z 15005G08MPS CAVOK 22/09 Q1018 NOSIG,UMGG,2023-05-17T08:30:00Z,52.53,31.02,22.0,9.0,150,10,16,6.21,30.059055,,,,,,TRUE,,,,,CAVOK,,,,,,,,VFR,,,,,,,,,,,,METAR,135.0
ULWC 170830Z 16007G12MPS CAVOK 22/05 Q1021 R21/010060 NOSIG RMK QFE756/1008,ULWC,2023-05-17T08:30:00Z,59.28,38.02,22.0,5.0,160,14,23,6.21,30.147638,,,,,,TRUE,,,,,CAVOK,,,,,,,,VFR,,,,,,,,,,,,METAR,113.0
ULPB 170830Z 22008MPS 180V250 9999 SCT049 20/09 Q1014 R19/09//60 NOSIG RMK QFE756/1009,ULPB,2023-05-17T08:30:00Z,61.88,34.15,20.0,9.0,220,16,,6.21,29.940945,,,,,,TRUE,,,,,SCT,4900,,,,,,,VFR,,,,,,,,,,,,METAR,41.0
ULOO 170830Z 17004MPS 120V210 9999 SCT021 17/11 Q1016 R19/090060 NOSIG RMK QFE758,ULOO,2023-05-17T08:30:00Z,57.78,28.4,17.0,11.0,170,8,,6.21,30.0,,,,,,TRUE,,,,,SCT,2100,,,,,,,VFR,,,,,,,,,,,,METAR,46.0
ULMM 170830Z 16005MPS CAVOK 15/06 Q1005 R13/090070 NOSIG RMK QFE747,ULMM,2023-05-17T08:30:00Z,68.78,32.75,15.0,6.0,160,10,,6.21,29.675198,,,,,,TRUE,,,,,CAVOK,,,,,,,,VFR,,,,,,,,,,,,SPECI,79.0
ULLI 170830Z 20007MPS 9999 OVC036 17/10 Q1014 R88/090060 NOSIG,ULLI,2023-05-17T08:30:00Z,59.8,30.27,17.0,10.0,200,14,,6.21,29.940945,,,,,,TRUE,,,,,OVC,3600,,,,,,,VFR,,,,,,,,,,,,SPECI,25.0
UIUU 170830Z 23007MPS 190V260 9999 FEW050CB 19/M04 Q1006 R26/CLRD60 NOSIG RMK QFE710/0947,UIUU,2023-05-17T08:30:00Z,51.8,107.45,19.0,-4.0,230,14,,6.21,29.704725,,,,,,TRUE,,,,,FEW,5000,,,,,,,VFR,,,,,,,,,,,,SPECI,508.0
UIII 170830Z 21003MPS 160V240 9999 SCT033CB 19/M06 Q1004 R30/CLRD60 NOSIG RMK QFE709/0945,UIII,2023-05-17T08:30:00Z,52.27,104.37,19.0,-6.0,210,6,,6.21,29.64567,,,,,,TRUE,,,,,SCT,3300,,,,,,,VFR,,,,,,,,,,,,SPECI,480.0
UIBB 170830Z 14003MPS 070V220 9999 SCT046 12/M01 Q1005 R30/210160 NOSIG RMK QFE711/0948,UIBB,2023-05-17T08:30:00Z,56.37,101.7,12.0,-1.0,140,6,,6.21,29.675198,,,,,,TRUE,,,,,SCT,4600,,,,,,,VFR,,,,,,,,,,,,SPECI,485.0
UIAA 170830Z 16004MPS 9999 SCT050CB 15/M08 Q1008 R29/CLRD70 NOSIG RMK QFE698/0930,UIAA,2023-05-17T08:30:00Z,52.02,113.32,15.0,-8.0,160,8,,6.21,29.763779,,,,,,TRUE,,,,,SCT,5000,,,,,,,VFR,,,,,,,,,,,,SPECI,650.0
UHWW 170830Z 34003MPS 9999 NSC 16/09 Q1009 R25L/0///70 NOSIG RMK QFE755,UHWW,2023-05-17T08:30:00Z,43.4,132.15,16.0,9.0,340,6,,6.21,29.793306,,,,,,TRUE,,,,,CLR,,,,,,,,VFR,,,,,,,,,,,,METAR,11.0
UHSS 170830Z 18005MPS 9999 SCT040 11/06 Q1007 R19/70D NOSIG RMK QFE754/1005,UHSS,2023-05-17T08:30:00Z,46.88,142.72,11.0,6.0,180,10,,6.21,29.734253,,,,,,TRUE,,,,,SCT,4000,,,,,,,VFR,,,,,,,,,,,,METAR,14.0
UHMM 170830Z 09011MPS 9999 SCT030 07/01 Q1022 R10/70D NOSIG RMK MT OBSC QFE751 R28/13008MPS,UHMM,2023-05-17T08:30:00Z,59.92,150.72,7.0,1.0,90,21,,6.21,30.177166,,,,,,TRUE,,,,,SCT,3000,,,,,,,VFR,,,,,,,,,,,,METAR,175.0
UHMA 170830Z 34003MPS CAVOK M01/M04 Q1028 R01/////// NOSIG RMK MID 35002MPS END R01/14001MPS QFE767/1023,UHMA,2023-05-17T08:30:00Z,64.73,177.73,-1.0,-4.0,340,6,,6.21,30.35433,,,,,,TRUE,,,,,CAVOK,,,,,,,,VFR,,,,,,,,,,,,METAR,53.0
UHHH 170830Z 22007MPS CAVOK 18/05 Q1005 R88/090060 NOSIG RMK QFE748/0997,UHHH,2023-05-17T08:30:00Z,48.52,135.18,18.0,5.0,220,14,,6.21,29.675198,,,,,,TRUE,,,,,CAVOK,,,,,,,,VFR,,,,,,,,,,,,METAR,74.0
UHBB 170830Z 02004MPS 9999 FEW033 17/M00 Q1006 R36/090060 NOSIG RMK QFE737/0983,UHBB,2023-05-17T08:30:00Z,50.43,127.42,17.0,0.0,20,8,,6.21,29.704725,,,,,,TRUE,,,,,FEW,3300,,,,,,,VFR,,,,,,,,,,,,METAR,185.0
UGTB 170830Z VRB03KT CAVOK 21/09 Q1012 NOSIG,UGTB,2023-05-17T08:30:00Z,41.67,44.95,21.0,9.0,0,3,,6.21,29.88189,,,,,,TRUE,,,,,CAVOK,,,,,,,,VFR,,,,,,,,,,,,METAR,468.0
UGSB 170830Z 27005KT CAVOK 17/14 Q1012 NOSIG,UGSB,2023-05-17T08:30:00Z,41.62,41.6,17.0,14.0,270,5,,6.21,29.88189,,,,,,TRUE,,,,,CAVOK,,,,,,,,VFR,,,,,,,,,,,,METAR,32.0
UGMS 170830Z 23004KT 180V330 9999 SCT100 17/M05 Q1014,UGMS,2023-05-17T08:30:00Z,43.05,42.75,17.0,-5.0,230,4,,6.21,29.940945,,,,,,,,,,,SCT,10000,,,,,,,VFR,,,,,,,,,,,,METAR,1442.0
UGKO 170830Z 28005KT 210V330 CAVOK 22/12 Q1010 NOSIG,UGKO,2023-05-17T08:30:00Z,42.18,42.48,22.0,12.0,280,5,,6.21,29.822834,,,,,,TRUE,,,,,CAVOK,,,,,,,,VFR,,,,,,,,,,,,METAR,44.0
UGAM 170830Z 28009KT 250V310 9999 FEW050 21/09 Q1011,UGAM,2023-05-17T08:30:00Z,42.53,43.13,21.0,9.0,280,9,,6.21,29.852362,,,,,,,,,,,FEW,5000,,,,,,,VFR,,,,,,,,,,,,METAR,544.0
UERR 170830Z 27004MPS 9999 SCT023 10/M05 Q1007 R25/CLRD60 NOSIG RMK QFE725/0966,UERR,2023-05-17T08:30:00Z,62.53,114.05,10.0,-5.0,270,8,,6.21,29.734253,,,,,,TRUE,,,,,SCT,2300,,,,,,,VFR,,,,,,,,,,,,METAR,352.0
UERP 170830Z 34006G11MPS 9999 BKN026CB BKN100 04/M03 Q1010 R35/190057 NOSIG RMK QFE713,UERP,2023-05-17T08:30:00Z,66.4,112.03,4.0,-3.0,340,12,21,6.21,29.822834,,,,,,TRUE,,,,,BKN,2600,BKN,10000,,,,,MVFR,,,,,,,,,,,,METAR,514.0
UEEE 170830Z 24001MPS CAVOK 13/M01 Q1002 R05/09//60 NOSIG RMK QFE743,UEEE,2023-05-17T08:30:00Z,62.08,129.77,13.0,-1.0,240,2,,6.21,29.586615,,,,,,TRUE,,,,,CAVOK,,,,,,,,VFR,,,,,,,,,,,,METAR,106.0
UDYZ 170830Z VRB03KT 9999 NSC 23/02 Q1010 NOSIG,UDYZ,2023-05-17T08:30:00Z,40.15,44.4,23.0,2.0,0,3,,6.21,29.822834,,,,,,TRUE,,,,,CLR,,,,,,,,VFR,,,,,,,,,,,,METAR,851.0
UDSG 170830Z 23005KT 210V280 9999 NSC 17/03 Q1014 NOSIG,UDSG,2023-05-17T08:30:00Z,40.75,43.87,17.0,3.0,230,5,,6.21,29.940945,,,,,,TRUE,,,,,CLR,,,,,,,,VFR,,,,,,,,,,,,METAR,1515.0
UCFO 170830Z 28006MPS 250V310 9000 SCT050 22/10 Q1013 TEMPO 27012G17MPS,UCFO,2023-05-17T08:30:00Z,40.6,72.8,22.0,10.0,280,12,,5.59,29.911417,,,,,,,,,,,SCT,5000,,,,,,,VFR,,,,,,,,,,,,METAR,881.0
UCFM 170830Z 25009MPS CAVOK 28/12 Q1010 TEMPO 24012G17MPS,UCFM,2023-05-17T08:30:00Z,43.07,74.48,28.0,12.0,250,17,,6.21,29.822834,,,,,,,,,,,CAVOK,,,,,,,,VFR,,,,,,,,,,,,METAR,632.0
UCFL 170830Z 11004MPS 070V130 9999 FEW030 SCT100 21/02 Q1016,UCFL,2023-05-17T08:30:00Z,42.58,76.7,21.0,2.0,110,8,,6.21,30.0,,,,,,,,,,,FEW,3000,SCT,10000,,,,,VFR,,,,,,,,,,,,METAR,1654.0
UBBZ 170830Z 05014KT 9999 FEW030 22/11 Q1011 NOSIG RMK MT OP,UBBZ,2023-05-17T08:30:00Z,39.1,46.73,22.0,11.0,50,14,,6.21,29.852362,,,,,,TRUE,,,,,FEW,3000,,,,,,,VFR,,,,,,,,,,,,METAR,489.0
UBBN 170830Z 05004KT 9999 NSC 24/03 Q1009 NOSIG RMK MT OP QFE682,UBBN,2023-05-17T08:30:00Z,39.18,45.45,24.0,3.0,50,4,,6.21,29.793306,,,,,,TRUE,,,,,CLR,,,,,,,,VFR,,,,,,,,,,,,SPECI,857.0
UBBG 170830Z VRB02KT 9999 BKN100 19/10 Q1012 NOSIG,UBBG,2023-05-17T08:30:00Z,40.73,46.32,19.0,10.0,0,2,,6.21,29.88189,,,,,,TRUE,,,,,BKN,10000,,,,,,,VFR,,,,,,,,,,,,METAR,333.0
UBBF 170830Z 03014KT 9999 FEW100 22/08 Q1011 NOSIG RMK MT OP,UBBF,2023-05-17T08:30:00Z,39.6,47.2,22.0,8.0,30,14,,6.21,29.852362,,,,,,TRUE,,,,,FEW,10000,,,,,,,VFR,,,,,,,,,,,,METAR,370.0
UBBB 170830Z 35016KT 9999 SCT048CB 15/12 Q1015 NOSIG,UBBB,2023-05-17T08:30:00Z,40.47,50.07,15.0,12.0,350,16,,6.21,29.970472,,,,,,TRUE,,,,,SCT,4800,,,,,,,VFR,,,,,,,,,,,,METAR,94.0
UAUU 170830Z 05009MPS 020V120 CAVOK 21/M02 Q1020 NOSIG RMK QFE749/0998,UAUU,2023-05-17T08:30:00Z,53.2,63.55,21.0,-2.0,50,17,,6.21,30.11811,,,,,,TRUE,,,,,CAVOK,,,,,,,,VFR,,,,,,,,,,,,SPECI,177.0
UATT 170830Z 06013G19MPS CAVOK 17/06 Q1010 TEMPO 05022MPS RMK QFE738/0984,UATT,2023-05-17T08:30:00Z,50.25,57.2,17.0,6.0,60,25,37,6.21,29.822834,,,,,,,,,,,CAVOK,,,,,,,,VFR,,,,,,,,,,,,METAR,217.0
UATG 170830Z 01006MPS 9999 SCT033CB 19/10 Q1007 NOSIG RMK QFE757/1009,UATG,2023-05-17T08:30:00Z,47.12,51.83,19.0,10.0,10,12,,6.21,29.734253,,,,,,TRUE,,,,,SCT,3300,,,,,,,VFR,,,,,,,,,,,,SPECI,-23.0
UATE 170830Z 31009G15MPS 270V340 9999 SCT060CB 17/08 Q1009 NOSIG RMK QFE755/1007,UATE,2023-05-17T08:30:00Z,43.87,51.1,17.0,8.0,310,17,29,6.21,29.793306,,,,,,TRUE,,,,,SCT,6000,,,,,,,VFR,,,,,,,,,,,,METAR,21.0
UASS 170830Z 36007G12MPS 340V040 CAVOK 21/01 Q1018 NOSIG RMK QFE743/0990,UASS,2023-05-17T08:30:00Z,50.35,80.23,21.0,1.0,360,14,23,6.21,30.059055,,,,,,TRUE,,,,,CAVOK,,,,,,,,VFR,,,,,,,,,,,,SPECI,215.0
UASP 170830Z 36007MPS CAVOK 16/M05 Q1022 NOSIG RMK QFE755/1007,UASP,2023-05-17T08:30:00Z,52.2,77.07,16.0,-5.0,360,14,,6.21,30.177166,,,,,,TRUE,,,,,CAVOK,,,,,,,,VFR,,,,,,,,,,,,SPECI,122.0
UASK 170830Z 31007MPS 9999 SCT046TCU BKN100 20/03 Q1017 NOSIG RMK QFE737/0983,UASK,2023-05-17T08:30:00Z,50.03,82.5,20.0,3.0,310,14,,6.21,30.029528,,,,,,TRUE,,,,,SCT,4600,BKN,10000,,,,,VFR,,,,,,,,,,,,METAR,285.0
UARR 170830Z 02010MPS CAVOK 23/02 Q1014 TEMPO 05013G18MPS RMK QFE757/1010,UARR,2023-05-17T08:30:00Z,51.15,51.53,23.0,2.0,20,19,,6.21,29.940945,,,,,,,,,,,CAVOK,,,,,,,,VFR,,,,,,,,,,,,SPECI,33.0
UAOO 170830Z 22010MPS 9999 SCT046CB 21/06 Q1012 NOSIG RMK QFE747/0996,UAOO,2023-05-17T08:30:00Z,44.7,65.6,21.0,6.0,220,19,,6.21,29.88189,,,,,,TRUE,,,,,SCT,4600,,,,,,,VFR,,,,,,,,,,,,SPECI,130.0
UAKK 170830Z 09003MPS 050V140 CAVOK 23/M03 Q1017 NOSIG RMK QFE715/0954,UAKK,2023-05-17T08:30:00Z,49.68,73.35,23.0,-3.0,90,6,,6.21,30.029528,,,,,,TRUE,,,,,CAVOK,,,,,,,,VFR,,,,,,,,,,,,SPECI,532.0
UAKD 170830Z 12005MPS 9999 BKN046CB 20/11 Q1012 NOSIG RMK QFE726/0968,UAKD,2023-05-17T08:30:00Z,47.7,67.73,20.0,11.0,120,10,,6.21,29.88189,,,,,,TRUE,,,,,BKN,4600,,,,,,,VFR,,,,,,,,,,,,SPECI,379.0
UAIT 170830Z 15005MPS 9999 BKN006 OVC026CB 15/13 Q1017 NOSIG RMK QBB200 QFE736/0981,UAIT,2023-05-17T08:30:00Z,43.32,68.55,15.0,13.0,150,10,,6.21,30.029528,,,,,,TRUE,,,,,BKN,600,OVC,2600,,,,,IFR,,,,,,,,,,,,METAR,301.0
UAII 170830Z 10003MPS 040V140 9999 -SHRA VCTS OVC028CB 16/13 Q1016 NOSIG RMK QFE726/0969,UAII,2023-05-17T08:30:00Z,42.37,69.48,16.0,13.0,100,6,,6.21,30.0,,,,,,TRUE,,,,-SHRA VCTS,OVC,2800,,,,,,,MVFR,,,,,,,,,,,,SPECI,410.0
UADD 170830Z 34009MPS 9999 BKN040CB OVC100 21/11 Q1015 NOSIG RMK QFE703/0938,UADD,2023-05-17T08:30:00Z,42.85,71.3,21.0,11.0,340,17,,6.21,29.970472,,,,,,TRUE,,,,,BKN,4000,OVC,10000,,,,,VFR,,,,,,,,,,,,SPECI,663.0
UACP 170830Z 07007MPS 040V100 CAVOK 14/M06 Q1026 NOSIG RMK QFE757/1009,UACP,2023-05-17T08:30:00Z,54.78,69.18,14.0,-6.0,70,14,,6.21,30.295275,,,,,,TRUE,,,,,CAVOK,,,,,,,,VFR,,,,,,,,,,,,SPECI,134.0
UACK 170830Z 10008MPS CAVOK 17/M01 Q1023 NOSIG RMK QFE743/0991,UACK,2023-05-17T08:30:00Z,53.32,69.58,17.0,-1.0,100,16,,6.21,30.206694,,,,,,TRUE,,,,,CAVOK,,,,,,,,VFR,,,,,,,,,,,,METAR,261.0
UACC 170830Z 07007MPS 040V110 9999 SCT036 23/02 Q1018 NOSIG RMK QFE732/0976,UACC,2023-05-17T08:30:00Z,51.02,71.47,23.0,2.0,70,14,,6.21,30.059055,,,,,,TRUE,,,,,SCT,3600,,,,,,,VFR,,,,,,,,,,,,METAR,354.0
UAAT 170830Z 02008MPS 9999 SCT200 28/02 Q1012 NOSIG RMK QFE708/0944,UAAT,2023-05-17T08:30:00Z,45.12,78.45,28.0,2.0,20,16,,6.21,29.88189,,,,,,TRUE,,,,,SCT,20000,,,,,,,VFR,,,,,,,,,,,,METAR,588.0
UAAH 170830Z 21004MPS 170V250 CAVOK 24/M01 Q1016 NOSIG RMK QFE723/0964,UAAH,2023-05-17T08:30:00Z,46.9,75.0,24.0,-1.0,210,8,,6.21,30.0,,,,,,TRUE,,,,,CAVOK,,,,,,,,VFR,,,,,,,,,,,,SPECI,427.0
UAAA 170830Z 07004MPS 020V100 9999 SCT050CB BKN100 OVC200 30/09 Q1010 NOSIG,UAAA,2023-05-17T08:30:00Z,43.35,77.03,30.0,9.0,70,8,,6.21,29.822834,,,,,,TRUE,,,,,SCT,5000,BKN,10000,OVC,20000,,,VFR,,,,,,,,,,,,METAR,673.0
TFFR 170830Z AUTO 10004KT CAVOK 25/23 Q1014 TEMPO 4000 SHRA SCT018TCU,TFFR,2023-05-17T08:30:00Z,16.27,-61.53,25.0,23.0,100,4,,6.21,29.940945,,,TRUE,,,,,,,,CAVOK,,,,,,,,VFR,,,,,,,,,,,,METAR,6.0
TFFF 170830Z AUTO VRB02KT 9999 FEW025 25/23 Q1013 TEMPO 4000 SHRA SCT018TCU,TFFF,2023-05-17T08:30:00Z,14.6,-61.0,25.0,23.0,0,2,,6.21,29.911417,,,TRUE,,,,,,,,FEW,2500,,,,,,,VFR,,,,,,,,,,,,METAR,3.0
SOCA 170830Z AUTO VRB01KT 1300 R08/1400D +RA BR FEW017/// BKN031/// BKN042/// ///TCU 23/23 Q1012 TEMPO TSRA SCT003 BKN010CB,SOCA,2023-05-17T08:30:00Z,4.82,-52.37,23.0,23.0,0,1,,0.81,29.88189,,,TRUE,,,,,,,+RA BR,FEW,1700,BKN,3100,BKN,4200,,,LIFR,,,,,,,,,,,,METAR,7.0
ROAH 170830Z 13019KT 9999 FEW023 BKN110 26/20 Q1011,ROAH,2023-05-17T08:30:00Z,26.18,127.65,26.0,20.0,130,19,,6.21,29.852362,,,,,,,,,,,FEW,2300,BKN,11000,,,,,VFR,,,,,,,,,,,,METAR,6.0
RKSI 170830Z 20017G36KT 170V230 9999 FEW030 22/18 Q1012 NOSIG,RKSI,2023-05-17T08:30:00Z,37.47,126.45,22.0,18.0,200,17,36,6.21,29.88189,,,,,,TRUE,,,,,FEW,3000,,,,,,,VFR,,,,,,,,,,,,METAR,7.0
RJTT 170830Z 19014KT CAVOK 26/18 Q1011 NOSIG,RJTT,2023-05-17T08:30:00Z,35.55,139.77,26.0,18.0,190,14,,6.21,29.852362,,,,,,TRUE,,,,,CAVOK,,,,,,,,VFR,,,,,,,,,,,,METAR,5.0
RJGG 170830Z 21007KT 9999 FEW030 25/20 Q1012 NOSIG,RJGG,2023-05-17T08:30:00Z,34.87,136.8,25.0,20.0,210,7,,6.21,29.88189,,,,,,TRUE,,,,,FEW,3000,,,,,,,VFR,,,,,,,,,,,,METAR,5.0
RJFF 170830Z 30005KT 250V330 CAVOK 26/12 Q1014 NOSIG,RJFF,2023-05-17T08:30:00Z,33.58,130.45,26.0,12.0,300,5,,6.21,29.940945,,,,,,TRUE,,,,,CAVOK,,,,,,,,VFR,,,,,,,,,,,,METAR,7.0
RJCC 170830Z 17010KT 9999 FEW010 BKN/// 11/07 Q1009,RJCC,2023-05-17T08:30:00Z,42.77,141.68,11.0,7.0,170,10,,6.21,29.793306,,,,,,,,,,,FEW,1000,,,,,,,VFR,,,,,,,,,,,,METAR,19.0
RJBB 170830Z 23011KT CAVOK 23/18 Q1014 NOSIG,RJBB,2023-05-17T08:30:00Z,34.43,135.25,23.0,18.0,230,11,,6.21,29.940945,,,,,,TRUE,,,,,CAVOK,,,,,,,,VFR,,,,,,,,,,,,METAR,8.0
RJAA 170830Z 22006KT CAVOK 27/16 Q1011 BECMG 26006KT,RJAA,2023-05-17T08:30:00Z,35.77,140.38,27.0,16.0,220,6,,6.21,29.852362,,,,,,,,,,,CAVOK,,,,,,,,VFR,,,,,,,,,,,,METAR,36.0
RCTP 170830Z 01004KT 340V050 9999 FEW020 SCT050 BKN160 30/25 Q1007 NOSIG RMK A2975,RCTP,2023-05-17T08:30:00Z,25.07,121.22,30.0,25.0,10,4,,6.21,29.734253,,,,,,TRUE,,,,,FEW,2000,SCT,5000,BKN,16000,,,VFR,,,,,,,,,,,,METAR,33.0
RCSS 170830Z 27009KT 9999 FEW025 SCT045 BKN080 29/21 Q1006 NOSIG RMK 27009KT/R10 A2973,RCSS,2023-05-17T08:30:00Z,25.07,121.55,29.0,21.0,270,9,,6.21,29.704725,,,,,,TRUE,,,,,FEW,2500,SCT,4500,BKN,8000,,,VFR,,,,,,,,,,,,METAR,8.0
RCNN 170830Z 26008KT 9999 FEW010 BKN200 29/23 Q1007 NOSIG RMK A2976,RCNN,2023-05-17T08:30:00Z,22.93,120.2,29.0,23.0,260,8,,6.21,29.734253,,,,,,TRUE,,,,,FEW,1000,BKN,20000,,,,,VFR,,,,,,,,,,,,METAR,15.0
RCMQ 170830Z 25006KT 9999 FEW010 BKN040 27/22 Q1008 NOSIG RMK A2977,RCMQ,2023-05-17T08:30:00Z,24.27,120.62,27.0,22.0,250,6,,6.21,29.763779,,,,,,TRUE,,,,,FEW,1000,BKN,4000,,,,,VFR,,,,,,,,,,,,METAR,202.0
RCKH 170830Z 21010KT 180V240 9999 FEW022 SCT260 31/24 Q1007 NOSIG RMK A2974,RCKH,2023-05-17T08:30:00Z,22.57,120.33,31.0,24.0,210,10,,6.21,29.734253,,,,,,TRUE,,,,,FEW,2200,SCT,26000,,,,,VFR,,,,,,,,,,,,METAR,6.0
RCFN 170830Z 14004KT 100V180 9999 VCSH FEW018 BKN028 BKN040 27/25 Q1008 NOSIG RMK A2978,RCFN,2023-05-17T08:30:00Z,22.77,121.1,27.0,25.0,140,4,,6.21,29.763779,,,,,,TRUE,,,,VCSH,FEW,1800,BKN,2800,BKN,4000,,,MVFR,,,,,,,,,,,,METAR,42.0
OTBD 170830Z 01010KT CAVOK 37/09 Q1007 NOSIG,OTBD,2023-05-17T08:30:00Z,25.25,51.57,37.0,9.0,10,10,,6.21,29.734253,,,,,,TRUE,,,,,CAVOK,,,,,,,,VFR,,,,,,,,,,,,METAR,13.0
OPMT 170830Z 18008KT 4000 HZ SCT100 39/20 Q1003 NOSIG,OPMT,2023-05-17T08:30:00Z,30.2,71.42,39.0,20.0,180,8,,2.49,29.616142,,,,,,TRUE,,,,HZ,SCT,10000,,,,,,,IFR,,,,,,,,,,,,METAR,122.0
OPKC 170830Z 24014KT 6000 SCT020 34/21 Q1008 TEMPO 24015G25KT,OPKC,2023-05-17T08:30:00Z,24.9,67.13,34.0,21.0,240,14,,3.73,29.763779,,,,,,,,,,,SCT,2000,,,,,,,MVFR,,,,,,,,,,,,SPECI,20.0
OPIS 170830Z 31007KT 7000 NSC 35/12 Q1007 NOSIG,OPIS,2023-05-17T08:30:00Z,33.55,72.83,35.0,12.0,310,7,,4.35,29.734253,,,,,,TRUE,,,,,CLR,,,,,,,,MVFR,,,,,,,,,,,,METAR,542.0
OIZH 170830Z 03014KT 4000 DU NSC 31/04 Q1014 A2994,OIZH,2023-05-17T08:30:00Z,29.47,60.92,31.0,4.0,30,14,,2.49,29.940945,,,,,,,,,,DU,CLR,,,,,,,,IFR,,,,,,,,,,,,METAR,1378.0
OIYY 170830Z 11002KT 6000 NSC 25/M02 Q1017,OIYY,2023-05-17T08:30:00Z,31.9,54.28,25.0,-2.0,110,2,,3.73,30.029528,,,,,,,,,,,CLR,,,,,,,,MVFR,,,,,,,,,,,,METAR,1226.0
OITT 170830Z 24006KT 9999 FEW030 19/02 Q1009 A2981,OITT,2023-05-17T08:30:00Z,38.13,46.23,19.0,2.0,240,6,,6.21,29.793306,,,,,,,,,,,FEW,3000,,,,,,,VFR,,,,,,,,,,,,METAR,1353.0
OITL 170830Z 19012KT 160V260 9999 FEW040 19/04 Q1013,OITL,2023-05-17T08:30:00Z,38.33,48.42,19.0,4.0,190,12,,6.21,29.911417,,,,,,,,,,,FEW,4000,,,,,,,VFR,,,,,,,,,,,,METAR,1314.0
OISS 170830Z 30004KT CAVOK 29/M03 Q1016 A3003,OISS,2023-05-17T08:30:00Z,29.53,52.58,29.0,-3.0,300,4,,6.21,30.0,,,,,,,,,,,CAVOK,,,,,,,,VFR,,,,,,,,,,,,METAR,1484.0
OISL 170830Z 28014KT CAVOK 34/M00 Q1010 A2983,OISL,2023-05-17T08:30:00Z,27.67,54.37,34.0,0.0,280,14,,6.21,29.822834,,,,,,,,,,,CAVOK,,,,,,,,VFR,,,,,,,,,,,,METAR,804.0
OINZ 170830Z 07010KT CAVOK 24/08 Q1011,OINZ,2023-05-17T08:30:00Z,36.63,53.2,24.0,8.0,70,10,,6.21,29.852362,,,,,,,,,,,CAVOK,,,,,,,,VFR,,,,,,,,,,,,METAR,8.0
OIMM 170830Z 13014KT 9999 BKN035 15/08 Q1017 A3004,OIMM,2023-05-17T08:30:00Z,36.23,59.63,15.0,8.0,130,14,,6.21,30.029528,,,,,,,,,,,BKN,3500,,,,,,,VFR,,,,,,,,,,,,METAR,995.0
OIMB 170830Z 29010KT 9999 FEW040 25/M09 Q1015 A2999,OIMB,2023-05-17T08:30:00Z,32.9,59.28,25.0,-9.0,290,10,,6.21,29.970472,,,,,,,,,,,FEW,4000,,,,,,,VFR,,,,,,,,,,,,METAR,1512.0
OIKK 170830Z 16004KT 9999 FEW040 25/M02 Q1018 A3007,OIKK,2023-05-17T08:30:00Z,30.25,56.97,25.0,-2.0,160,4,,6.21,30.059055,,,,,,,,,,,FEW,4000,,,,,,,VFR,,,,,,,,,,,,METAR,1749.0
OIKB 170830Z 19008KT 5000 HZ NSC 34/23 Q1005 A2968,OIKB,2023-05-17T08:30:00Z,27.22,56.37,34.0,23.0,190,8,,3.11,29.675198,,,,,,,,,,HZ,CLR,,,,,,,,MVFR,,,,,,,,,,,,METAR,6.0
OIIP 170830Z 00000KT CAVOK 21/M08 Q1014 A2996,OIIP,2023-05-17T08:30:00Z,35.78,50.83,21.0,-8.0,0,0,,6.21,29.940945,,,,,,,,,,,CAVOK,,,,,,,,VFR,,,,,,,,,,,,METAR,1270.0
OIII 170830Z 27008KT 9999 FEW040 21/M02 Q1015 A2999,OIII,2023-05-17T08:30:00Z,35.68,51.3,21.0,-2.0,270,8,,6.21,29.970472,,,,,,,,,,,FEW,4000,,,,,,,VFR,,,,,,,,,,,,METAR,1182.0
OIGG 170830Z 03010KT CAVOK 24/11 Q1009,OIGG,2023-05-17T08:30:00Z,37.33,49.6,24.0,11.0,30,10,,6.21,29.793306,,,,,,,,,,,CAVOK,,,,,,,,VFR,,,,,,,,,,,,METAR,-16.0
OIFM 170830Z 31004KT CAVOK 24/M06 Q1017 A3005,OIFM,2023-05-17T08:30:00Z,32.75,51.87,24.0,-6.0,310,4,,6.21,30.029528,,,,,,,,,,,CAVOK,,,,,,,,VFR,,,,,,,,,,,,METAR,1539.0
OICI 170830Z 21008KT CAVOK 25/M05 Q1018 A3006,OICI,2023-05-17T08:30:00Z,33.58,46.4,25.0,-5.0,210,8,,6.21,30.059055,,,,,,,,,,,CAVOK,,,,,,,,VFR,,,,,,,,,,,,METAR,1323.0
OICC 170830Z 18012KT CAVOK 25/M05 Q1016 A3000,OICC,2023-05-17T08:30:00Z,34.35,47.17,25.0,-5.0,180,12,,6.21,30.0,,,,,,,,,,,CAVOK,,,,,,,,VFR,,,,,,,,,,,,METAR,1310.0
OIBP 170830Z 30014KT CAVOK 40/10 Q1004 A2967,OIBP,2023-05-17T08:30:00Z,27.38,52.73,40.0,10.0,300,14,,6.21,29.64567,,,,,,,,,,,CAVOK,,,,,,,,VFR,,,,,,,,,,,,METAR,13.0
OIAW 170830Z 21004KT CAVOK 37/M01 Q1007,OIAW,2023-05-17T08:30:00Z,31.33,48.77,37.0,-1.0,210,4,,6.21,29.734253,,,,,,,,,,,CAVOK,,,,,,,,VFR,,,,,,,,,,,,METAR,25.0
OBBI 170830Z 36007KT CAVOK 34/12 Q1008 NOSIG,OBBI,2023-05-17T08:30:00Z,26.27,50.63,34.0,12.0,360,7,,6.21,29.763779,,,,,,TRUE,,,,,CAVOK,,,,,,,,VFR,,,,,,,,,,,,METAR,6.0
NZWN 170830Z AUTO 01008KT 9999 NCD 14/11 Q1016,NZWN,2023-05-17T08:30:00Z,-41.32,174.8,14.0,11.0,10,8,,6.21,30.0,,,TRUE,,,,,,,,CLR,,,,,,,,VFR,,,,,,,,,,,,METAR,12.0
NZCH 170830Z AUTO 27003KT 9999 NCD 09/08 Q1014,NZCH,2023-05-17T08:30:00Z,-43.48,172.52,9.0,8.0,270,3,,6.21,29.940945,,,TRUE,,,,,,,,CLR,,,,,,,,VFR,,,,,,,,,,,,METAR,36.0
NZAA 170830Z AUTO 04002KT 9999 NCD 12/11 Q1019,NZAA,2023-05-17T08:30:00Z,-37.02,174.8,12.0,11.0,40,2,,6.21,30.088583,,,TRUE,,,,,,,,CLR,,,,,,,,VFR,,,,,,,,,,,,METAR,7.0
NWWW 170830Z AUTO 02004KT 350V060 9999 FEW066 BKN078 BKN090 25/19 Q1010 NOSIG,NWWW,2023-05-17T08:30:00Z,-22.02,166.22,25.0,19.0,20,4,,6.21,29.822834,,,TRUE,,,TRUE,,,,,FEW,6600,BKN,7800,BKN,9000,,,VFR,,,,,,,,,,,,METAR,16.0
NTAA 170830Z AUTO 09001KT CAVOK 25/20 Q1015 NOSIG,NTAA,2023-05-17T08:30:00Z,-17.55,-149.62,25.0,20.0,90,1,,6.21,29.970472,,,TRUE,,,TRUE,,,,,CAVOK,,,,,,,,VFR,,,,,,,,,,,,METAR,2.0
NLWW 170830Z AUTO 16003KT 120V180 7000 -RA NCD 25/25 Q1012 TEMPO 3000 SHRA BKN009 FEW015CB SCT020TCU,NLWW,2023-05-17T08:30:00Z,-13.23,-176.18,25.0,25.0,160,3,,4.35,29.88189,,,TRUE,,,,,,,-RA,CLR,,,,,,,,MVFR,,,,,,,,,,,,METAR,24.0
NCRG 170830Z AUTO 16002KT 9999 NCD 20/16 Q1017,NCRG,2023-05-17T08:30:00Z,-21.2,-159.82,20.0,16.0,160,2,,6.21,30.029528,,,TRUE,,,,,,,,CLR,,,,,,,,VFR,,,,,,,,,,,,METAR,7.0
LZZI 170830Z 04007KT 020V080 9999 FEW014 BKN026 OVC035 11/08 Q1015,LZZI,2023-05-17T08:30:00Z,49.23,18.62,11.0,8.0,40,7,,6.21,29.970472,,,,,,,,,,,FEW,1400,BKN,2600,OVC,3500,,,MVFR,,,,,,,,,,,,METAR,311.0
LZTT 170830Z 12006KT 080V150 5000 RA BR FEW004 OVC016 12/11 Q1013 BECMG -RA,LZTT,2023-05-17T08:30:00Z,49.07,20.25,12.0,11.0,120,6,,3.11,29.911417,,,,,,,,,,RA BR,FEW,400,OVC,1600,,,,,MVFR,,,,,,,,,,,,SPECI,693.0
LZPP 170830Z 34015KT 9999 FEW022 BKN040 12/08 Q1013,LZPP,2023-05-17T08:30:00Z,48.62,17.83,12.0,8.0,340,15,,6.21,29.911417,,,,,,,,,,,FEW,2200,BKN,4000,,,,,VFR,,,,,,,,,,,,METAR,160.0
LZKZ 170830Z 01006KT 9999 -RA FEW018 SCT028 16/15 Q1011 NOSIG,LZKZ,2023-05-17T08:30:00Z,48.67,21.23,16.0,15.0,10,6,,6.21,29.852362,,,,,,TRUE,,,,-RA,FEW,1800,SCT,2800,,,,,VFR,,,,,,,,,,,,METAR,227.0
LZIB 170830Z 32013KT 9999 FEW010 SCT019 BKN027 11/07 Q1014 NOSIG,LZIB,2023-05-17T08:30:00Z,48.17,17.22,11.0,7.0,320,13,,6.21,29.940945,,,,,,TRUE,,,,,FEW,1000,SCT,1900,BKN,2700,,,MVFR,,,,,,,,,,,,METAR,129.0
LYVR 170830Z 14010KT 080V200 9999 FEW030 20/15 Q1011 NOSIG,LYVR,2023-05-17T08:30:00Z,45.13,21.32,20.0,15.0,140,10,,6.21,29.852362,,,,,,TRUE,,,,,FEW,3000,,,,,,,VFR,,,,,,,,,,,,METAR,82.0
LYTV 170830Z VRB03KT 9999 FEW040 BKN053 19/13 Q1010 NOSIG,LYTV,2023-05-17T08:30:00Z,42.4,18.72,19.0,13.0,0,3,,6.21,29.822834,,,,,,TRUE,,,,,FEW,4000,BKN,5300,,,,,VFR,,,,,,,,,,,,METAR,3.0
LYPG 170830Z 00000KT 9999 FEW024 SCT040 BKN080 17/13 Q1011 NOSIG,LYPG,2023-05-17T08:30:00Z,42.37,19.25,17.0,13.0,0,0,,6.21,29.852362,,,,,,TRUE,,,,,FEW,2400,SCT,4000,BKN,8000,,,VFR,,,,,,,,,,,,METAR,32.0
LYNI 170830Z 05006KT 340V100 9999 FEW033 SCT043 20/14 Q1010 TEMPO 15017KT 5000 TSRA SCT030CB SCT033,LYNI,2023-05-17T08:30:00Z,43.33,21.85,20.0,14.0,50,6,,6.21,29.822834,,,,,,,,,,,FEW,3300,SCT,4300,,,,,VFR,,,,,,,,,,,,METAR,197.0
LYKV 170830Z 14001KT 9999 SCT040 20/14 Q1010 NOSIG,LYKV,2023-05-17T08:30:00Z,43.82,20.58,20.0,14.0,140,1,,6.21,29.822834,,,,,,TRUE,,,,,SCT,4000,,,,,,,VFR,,,,,,,,,,,,METAR,209.0
LYBT 170830Z VRB03KT 9999 FEW018 20/15 Q1011 NOSIG,LYBT,2023-05-17T08:30:00Z,44.93,20.25,20.0,15.0,0,3,,6.21,29.852362,,,,,,TRUE,,,,,FEW,1800,,,,,,,VFR,,,,,,,,,,,,METAR,78.0
LYBE 170830Z 04004KT 330V130 9999 FEW033 20/12 Q1010 NOSIG,LYBE,2023-05-17T08:30:00Z,44.82,20.28,20.0,12.0,40,4,,6.21,29.822834,,,,,,TRUE,,,,,FEW,3300,,,,,,,VFR,,,,,,,,,,,,METAR,93.0
LWSK 170830Z 08002KT 9999 FEW033 21/14 Q1010 NOSIG,LWSK,2023-05-17T08:30:00Z,41.97,21.63,21.0,14.0,80,2,,6.21,29.822834,,,,,,TRUE,,,,,FEW,3300,,,,,,,VFR,,,,,,,,,,,,METAR,232.0
LWOH 170830Z 14004KT 9999 FEW040 16/08 Q1011,LWOH,2023-05-17T08:30:00Z,41.18,20.75,16.0,8.0,140,4,,6.21,29.852362,,,,,,,,,,,FEW,4000,,,,,,,VFR,,,,,,,,,,,,METAR,700.0
LUKK 170830Z 06004KT 030V090 CAVOK 20/12 Q1016 NOSIG,LUKK,2023-05-17T08:30:00Z,46.93,28.93,20.0,12.0,60,4,,6.21,30.0,,,,,,TRUE,,,,,CAVOK,,,,,,,,VFR,,,,,,,,,,,,METAR,102.0
LRTR 170830Z 19007KT 160V220 9999 SCT018 BKN035 19/16 Q1011 NOSIG,LRTR,2023-05-17T08:30:00Z,45.82,21.33,19.0,16.0,190,7,,6.21,29.852362,,,,,,TRUE,,,,,SCT,1800,BKN,3500,,,,,VFR,,,,,,,,,,,,METAR,104.0
LRTM 170830Z 23007KT 9999 -RA FEW034 FEW040CB SCT045 16/14 Q1013,LRTM,2023-05-17T08:30:00Z,46.47,24.42,16.0,14.0,230,7,,6.21,29.911417,,,,,,,,,,-RA,FEW,3400,FEW,4000,SCT,4500,,,VFR,,,,,,,,,,,,METAR,289.0
LRTC 170830Z 08007KT CAVOK 21/08 Q1015,LRTC,2023-05-17T08:30:00Z,45.07,28.72,21.0,8.0,80,7,,6.21,29.970472,,,,,,,,,,,CAVOK,,,,,,,,VFR,,,,,,,,,,,,METAR,52.0
LRSV 170830Z 14016KT CAVOK 22/10 Q1014,LRSV,2023-05-17T08:30:00Z,47.68,26.35,22.0,10.0,140,16,,6.21,29.940945,,,,,,,,,,,CAVOK,,,,,,,,VFR,,,,,,,,,,,,METAR,406.0
LRSM 170830Z 13006KT 9999 FEW030 19/16 Q1011,LRSM,2023-05-17T08:30:00Z,47.7,22.88,19.0,16.0,130,6,,6.21,29.852362,,,,,,,,,,,FEW,3000,,,,,,,VFR,,,,,,,,,,,,METAR,123.0
LRSB 170830Z 11004KT 7000 SHRA FEW017 SCT032CB BKN045 14/12 Q1013,LRSB,2023-05-17T08:30:00Z,45.78,24.08,14.0,12.0,110,4,,4.35,29.911417,,,,,,,,,,SHRA,FEW,1700,SCT,3200,BKN,4500,,,MVFR,,,,,,,,,,,,METAR,442.0
LROP 170830Z 09012KT 9999 FEW050CB 17/13 Q1014 NOSIG,LROP,2023-05-17T08:30:00Z,44.57,26.1,17.0,13.0,90,12,,6.21,29.940945,,,,,,TRUE,,,,,FEW,5000,,,,,,,VFR,,,,,,,,,,,,METAR,92.0
LROD 170830Z VRB02KT 8000 -RA SCT037 17/16 Q1011,LROD,2023-05-17T08:30:00Z,47.03,21.88,17.0,16.0,0,2,,4.97,29.852362,,,,,,,,,,-RA,SCT,3700,,,,,,,MVFR,,,,,,,,,,,,METAR,132.0
LRIA 170830Z 12009KT CAVOK 20/13 Q1016,LRIA,2023-05-17T08:30:00Z,47.17,27.62,20.0,13.0,120,9,,6.21,30.0,,,,,,,,,,,CAVOK,,,,,,,,VFR,,,,,,,,,,,,METAR,71.0
LRCV 170830Z 06016KT 9999 BKN042 17/12 Q1012,LRCV,2023-05-17T08:30:00Z,44.32,23.88,17.0,12.0,60,16,,6.21,29.88189,,,,,,,,,,,BKN,4200,,,,,,,VFR,,,,,,,,,,,,METAR,192.0
LRCL 170830Z 09003KT 050V120 9999 -RA FEW048 BKN067 14/10 Q1013,LRCL,2023-05-17T08:30:00Z,46.78,23.68,14.0,10.0,90,3,,6.21,29.911417,,,,,,,,,,-RA,FEW,4800,BKN,6700,,,,,VFR,,,,,,,,,,,,METAR,313.0
LRCK 170830Z 08014KT CAVOK 19/10 Q1015 NOSIG,LRCK,2023-05-17T08:30:00Z,44.37,28.48,19.0,10.0,80,14,,6.21,29.970472,,,,,,TRUE,,,,,CAVOK,,,,,,,,VFR,,,,,,,,,,,,METAR,108.0
LRBS 170830Z 08012KT 9999 -RA SCT047 17/12 Q1014 NOSIG,LRBS,2023-05-17T08:30:00Z,44.5,26.08,17.0,12.0,80,12,,6.21,29.940945,,,,,,TRUE,,,,-RA,SCT,4700,,,,,,,VFR,,,,,,,,,,,,METAR,91.0
LRBM 170830Z 09008KT 9999 FEW055 20/11 Q1012,LRBM,2023-05-17T08:30:00Z,47.67,23.47,20.0,11.0,90,8,,6.21,29.88189,,,,,,,,,,,FEW,5500,,,,,,,VFR,,,,,,,,,,,,METAR,180.0
LRBC 170830Z 16012KT CAVOK 21/09 Q1015,LRBC,2023-05-17T08:30:00Z,46.52,26.92,21.0,9.0,160,12,,6.21,29.970472,,,,,,,,,,,CAVOK,,,,,,,,VFR,,,,,,,,,,,,METAR,183.0
LRAR 170830Z 15008KT 9999 FEW017 BKN026 18/14 Q1011,LRAR,2023-05-17T08:30:00Z,46.18,21.27,18.0,14.0,150,8,,6.21,29.852362,,,,,,,,,,,FEW,1700,BKN,2600,,,,,MVFR,,,,,,,,,,,,METAR,102.0
LQTZ 170830Z VRB02KT 8000 FEW035 17/16 Q1010,LQTZ,2023-05-17T08:30:00Z,44.47,18.73,17.0,16.0,0,2,,4.97,29.822834,,,,,,,,,,,FEW,3500,,,,,,,MVFR,,,,,,,,,,,,METAR,242.0
LQSA 170830Z 19008KT 160V230 9999 FEW040 SCT055 17/06 Q1010 NOSIG,LQSA,2023-05-17T08:30:00Z,43.82,18.32,17.0,6.0,190,8,,6.21,29.822834,,,,,,TRUE,,,,,FEW,4000,SCT,5500,,,,,VFR,,,,,,,,,,,,METAR,505.0
LQMO 170830Z 35003KT 310V020 9999 FEW035 SCT050 BKN075 17/14 Q1008,LQMO,2023-05-17T08:30:00Z,43.28,17.83,17.0,14.0,350,3,,6.21,29.763779,,,,,,,,,,,FEW,3500,SCT,5000,BKN,7500,,,VFR,,,,,,,,,,,,METAR,49.0
LQBK 170830Z 35003KT 9999 SCT008 BKN015 15/15 Q1011 NOSIG,LQBK,2023-05-17T08:30:00Z,44.93,17.3,15.0,15.0,350,3,,6.21,29.852362,,,,,,TRUE,,,,,SCT,800,BKN,1500,,,,,MVFR,,,,,,,,,,,,METAR,114.0
LPPT 170830Z 05014KT CAVOK 21/02 Q1013,LPPT,2023-05-17T08:30:00Z,38.77,-9.13,21.0,2.0,50,14,,6.21,29.911417,,,,,,,,,,,CAVOK,,,,,,,,VFR,,,,,,,,,,,,METAR,98.0
LPPS 170830Z 01014KT 9999 SCT014 SCT030 20/13 Q1020,LPPS,2023-05-17T08:30:00Z,33.07,-16.35,20.0,13.0,10,14,,6.21,30.11811,,,,,,,,,,,SCT,1400,SCT,3000,,,,,VFR,,,,,,,,,,,,METAR,89.0
LPPR 170830Z 08016KT CAVOK 17/01 Q1016,LPPR,2023-05-17T08:30:00Z,41.23,-8.68,17.0,1.0,80,16,,6.21,30.0,,,,,,,,,,,CAVOK,,,,,,,,VFR,,,,,,,,,,,,METAR,64.0
LPPD 170830Z 35008KT 310V020 9999 FEW014 BKN040 19/16 Q1028,LPPD,2023-05-17T08:30:00Z,37.73,-25.68,19.0,16.0,350,8,,6.21,30.35433,,,,,,,,,,,FEW,1400,BKN,4000,,,,,VFR,,,,,,,,,,,,METAR,62.0
LPMA 170830Z 35010KT 310V010 9999 -SHRA SCT015 SCT030 18/14 Q1021,LPMA,2023-05-17T08:30:00Z,32.7,-16.77,18.0,14.0,350,10,,6.21,30.147638,,,,,,,,,,-SHRA,SCT,1500,SCT,3000,,,,,VFR,,,,,,,,,,,,METAR,54.0
LPHR 170830Z VRB02KT 9999 FEW012 19/16 Q1028,LPHR,2023-05-17T08:30:00Z,38.52,-28.72,19.0,16.0,0,2,,6.21,30.35433,,,,,,,,,,,FEW,1200,,,,,,,VFR,,,,,,,,,,,,METAR,39.0
LPFR 170830Z 07009KT CAVOK 21/14 Q1011,LPFR,2023-05-17T08:30:00Z,37.02,-7.97,21.0,14.0,70,9,,6.21,29.852362,,,,,,,,,,,CAVOK,,,,,,,,VFR,,,,,,,,,,,,METAR,3.0
LPFL 170830Z 22008KT 190V280 9999 FEW009 20/15 Q1028,LPFL,2023-05-17T08:30:00Z,39.45,-31.12,20.0,15.0,220,8,,6.21,30.35433,,,,,,,,,,,FEW,900,,,,,,,VFR,,,,,,,,,,,,METAR,35.0
LPCS 170830Z 07013G23KT 040V110 CAVOK 21/02 Q1012,LPCS,2023-05-17T08:30:00Z,38.73,-9.35,21.0,2.0,70,13,23,6.21,29.88189,,,,,,,,,,,CAVOK,,,,,,,,VFR,,,,,,,,,,,,METAR,99.0
LPAZ 170830Z 33011KT 9999 FEW012 SCT042 20/17 Q1027,LPAZ,2023-05-17T08:30:00Z,36.97,-25.17,20.0,17.0,330,11,,6.21,30.324802,,,,,,,,,,,FEW,1200,SCT,4200,,,,,VFR,,,,,,,,,,,,METAR,96.0
LKTB 170830Z 34011KT 9999 -RA FEW019 BKN049 08/05 Q1017 NOSIG,LKTB,2023-05-17T08:30:00Z,49.15,16.68,8.0,5.0,340,11,,6.21,30.029528,,,,,,TRUE,,,,-RA,FEW,1900,BKN,4900,,,,,VFR,,,,,,,,,,,,METAR,233.0
LKPR 170830Z 36014KT 9999 SCT027 10/04 Q1021 NOSIG,LKPR,2023-05-17T08:30:00Z,50.1,14.27,10.0,4.0,360,14,,6.21,30.147638,,,,,,TRUE,,,,,SCT,2700,,,,,,,VFR,,,,,,,,,,,,METAR,364.0
LKPD 170830Z 00000KT 9999 BKN026 BKN031 09/05 Q1020 NOSIG RMK BLU BLU,LKPD,2023-05-17T08:30:00Z,50.02,15.73,9.0,5.0,0,0,,6.21,30.11811,,,,,,TRUE,,,,,BKN,2600,BKN,3100,,,,,MVFR,,,,,,,,,,,,METAR,226.0
LKNA 170830Z 34017KT 9999 OVC048 08/04 Q1017 RMK BLACK,LKNA,2023-05-17T08:30:00Z,49.17,16.12,8.0,4.0,340,17,,6.21,30.029528,,,,,,,,,,,OVC,4800,,,,,,,VFR,,,,,,,,,,,,METAR,460.0
LKMT 170830Z 36010KT 310V030 9999 OVC010 08/07 Q1017 NOSIG,LKMT,2023-05-17T08:30:00Z,49.68,18.12,8.0,7.0,360,10,,6.21,30.029528,,,,,,TRUE,,,,,OVC,1000,,,,,,,MVFR,,,,,,,,,,,,METAR,251.0
LKKV 170830Z 32009KT 290V350 9999 BKN020 07/01 Q1021,LKKV,2023-05-17T08:30:00Z,50.2,12.92,7.0,1.0,320,9,,6.21,30.147638,,,,,,,,,,,BKN,2000,,,,,,,MVFR,,,,,,,,,,,,METAR,600.0
LKCV 170830Z 33011KT 9999 SCT022 BKN050 10/05 Q1020 NOSIG RMK BLU BLU,LKCV,2023-05-17T08:30:00Z,49.93,15.38,10.0,5.0,330,11,,6.21,30.11811,,,,,,TRUE,,,,,SCT,2200,BKN,5000,,,,,VFR,,,,,,,,,,,,METAR,234.0
LJPZ 170830Z 07015KT 030V110 9999 FEW060 BKN080 19/09 Q1010,LJPZ,2023-05-17T08:30:00Z,45.47,13.62,19.0,9.0,70,15,,6.21,29.822834,,,,,,,,,,,FEW,6000,BKN,8000,,,,,VFR,,,,,,,,,,,,METAR,2.0
LJMB 170830Z 36010KT 330V030 9999 BKN051 OVC093 13/08 Q1013,LJMB,2023-05-17T08:30:00Z,46.47,15.67,13.0,8.0,360,10,,6.21,29.911417,,,,,,,,,,,BKN,5100,OVC,9300,,,,,VFR,,,,,,,,,,,,METAR,263.0
LJLJ 170830Z 15003KT 130V190 9999 -RA FEW004 BKN060 12/10 Q1013 NOSIG,LJLJ,2023-05-17T08:30:00Z,46.22,14.47,12.0,10.0,150,3,,6.21,29.911417,,,,,,TRUE,,,,-RA,FEW,400,BKN,6000,,,,,VFR,,,,,,,,,,,,METAR,363.0
LJCE 170830Z 10006KT 070V130 9999 FEW010 OVC055 13/11 Q1013 RMK BLU,LJCE,2023-05-17T08:30:00Z,45.9,15.52,13.0,11.0,100,6,,6.21,29.911417,,,,,,,,,,,FEW,1000,OVC,5500,,,,,VFR,,,,,,,,,,,,METAR,153.0
LHBP 170830Z 16003KT 6000 -RA BKN006 OVC016 16/16 Q1010 TEMPO 4000 SHRA,LHBP,2023-05-17T08:30:00Z,47.43,19.27,16.0,16.0,160,3,,3.73,29.822834,,,,,,,,,,-RA,BKN,600,OVC,1600,,,,,IFR,,,,,,,,,,,,SPECI,141.0
LFYR 170830Z AUTO 04008KT 360V090 9999 SCT032 14/07 Q1025 TEMPO 03015G25KT,LFYR,2023-05-17T08:30:00Z,47.32,1.68,14.0,7.0,40,8,,6.21,30.265747,,,TRUE,,,,,,,,SCT,3200,,,,,,,VFR,,,,,,,,,,,,METAR,83.0
LFVP 170830Z AUTO 23017KT 0650 0550 R26/0900D FG VV/// 05/05 Q0997 TEMPO 2500 BR,LFVP,2023-05-17T08:30:00Z,46.77,-56.18,5.0,5.0,230,17,,0.4,29.438976,,,TRUE,,,,,,,FG,OVX,0,,,,,,,LIFR,,,,,,,,,,,,SPECI,5.0
LFTW 170830Z AUTO 01018KT 340V040 9000 NSC 16/04 Q1012 BECMG 36020G30KT,LFTW,2023-05-17T08:30:00Z,43.75,4.42,16.0,4.0,10,18,,5.59,29.88189,,,TRUE,,,,,,,,CLR,,,,,,,,VFR,,,,,,,,,,,,SPECI,91.0
LFTH 170830Z AUTO 14004KT 100V190 CAVOK 22/09 Q1009 NOSIG,LFTH,2023-05-17T08:30:00Z,43.1,6.15,22.0,9.0,140,4,,6.21,29.793306,,,TRUE,,,TRUE,,,,,CAVOK,,,,,,,,VFR,,,,,,,,,,,,METAR,3.0
LFSX 170830Z AUTO 04011KT 020V090 9999 BKN047 BKN054 12/02 Q1023,LFSX,2023-05-17T08:30:00Z,47.77,6.35,12.0,2.0,40,11,,6.21,30.206694,,,TRUE,,,,,,,,BKN,4700,BKN,5400,,,,,VFR,,,,,,,,,,,,METAR,266.0
LFST 170830Z AUTO 05016KT 9999 FEW029 SCT066 13/05 Q1024 NOSIG,LFST,2023-05-17T08:30:00Z,48.53,7.63,13.0,5.0,50,16,,6.21,30.236221,,,TRUE,,,TRUE,,,,,FEW,2900,SCT,6600,,,,,VFR,,,,,,,,,,,,METAR,149.0
LFSO 170830Z AUTO 04013KT 9999 SCT035 11/02 Q1025 NOSIG,LFSO,2023-05-17T08:30:00Z,48.57,5.97,11.0,2.0,40,13,,6.21,30.265747,,,TRUE,,,TRUE,,,,,SCT,3500,,,,,,,VFR,,,,,,,,,,,,METAR,328.0
LFSN 170830Z AUTO 03013KT 9999 SCT033 BKN039 12/04 Q1025,LFSN,2023-05-17T08:30:00Z,48.68,6.22,12.0,4.0,30,13,,6.21,30.265747,,,TRUE,,,,,,,,SCT,3300,BKN,3900,,,,,VFR,,,,,,,,,,,,METAR,214.0
LFSM 170830Z AUTO 06012KT 9999 SCT031 12/05 Q1022,LFSM,2023-05-17T08:30:00Z,47.48,6.78,12.0,5.0,60,12,,6.21,30.177166,,,TRUE,,,,,,,,SCT,3100,,,,,,,VFR,,,,,,,,,,,,METAR,317.0
LFSL 170830Z AUTO 36008KT 310V040 CAVOK 13/04 Q1021 TEMPO 01015G25KT,LFSL,2023-05-17T08:30:00Z,45.03,1.48,13.0,4.0,360,8,,6.21,30.147638,,,TRUE,,,,,,,,CAVOK,,,,,,,,VFR,,,,,,,,,,,,SPECI,300.0
LFSI 170830Z AUTO 05010KT 020V090 9999 SCT036 14/04 Q1025,LFSI,2023-05-17T08:30:00Z,48.62,4.9,14.0,4.0,50,10,,6.21,30.265747,,,TRUE,,,,,,,,SCT,3600,,,,,,,VFR,,,,,,,,,,,,METAR,136.0
LFSG 170830Z AUTO 04013KT 9999 FEW025 11/06 Q1024,LFSG,2023-05-17T08:30:00Z,48.33,6.07,11.0,6.0,40,13,,6.21,30.236221,,,TRUE,,,,,,,,FEW,2500,,,,,,,VFR,,,,,,,,,,,,METAR,320.0
LFSD 170830Z AUTO 02016KT 9999 FEW038 12/04 Q1022,LFSD,2023-05-17T08:30:00Z,47.27,5.08,12.0,4.0,20,16,,6.21,30.177166,,,TRUE,,,,,,,,FEW,3800,,,,,,,VFR,,,,,,,,,,,,METAR,218.0
LFSB 170830Z AUTO 36011KT 310V040 CAVOK 12/05 Q1022 NOSIG,LFSB,2023-05-17T08:30:00Z,47.6,7.52,12.0,5.0,360,11,,6.21,30.177166,,,TRUE,,,TRUE,,,,,CAVOK,,,,,,,,VFR,,,,,,,,,,,,METAR,262.0
LFRZ 170830Z AUTO 03006KT 360V060 CAVOK 15/08 Q1027 NOSIG,LFRZ,2023-05-17T08:30:00Z,47.32,-2.17,15.0,8.0,30,6,,6.21,30.324802,,,TRUE,,,TRUE,,,,,CAVOK,,,,,,,,VFR,,,,,,,,,,,,METAR,2.0
LFRV 170830Z AUTO 05006KT 360V090 CAVOK 15/09 Q1028,LFRV,2023-05-17T08:30:00Z,47.72,-2.72,15.0,9.0,50,6,,6.21,30.35433,,,TRUE,,,,,,,,CAVOK,,,,,,,,VFR,,,,,,,,,,,,METAR,132.0
LFRU 170830Z AUTO 06004KT 350V100 CAVOK 16/10 Q1029,LFRU,2023-05-17T08:30:00Z,48.6,-3.82,16.0,10.0,60,4,,6.21,30.383858,,,TRUE,,,,,,,,CAVOK,,,,,,,,VFR,,,,,,,,,,,,METAR,85.0
LFRT 170830Z AUTO VRB03KT CAVOK 15/10 Q1029,LFRT,2023-05-17T08:30:00Z,48.53,-2.85,15.0,10.0,0,3,,6.21,30.383858,,,TRUE,,,,,,,,CAVOK,,,,,,,,VFR,,,,,,,,,,,,METAR,134.0
LFRS 170830Z AUTO 06007KT 010V100 CAVOK 15/07 Q1027 NOSIG,LFRS,2023-05-17T08:30:00Z,47.17,-1.6,15.0,7.0,60,7,,6.21,30.324802,,,TRUE,,,TRUE,,,,,CAVOK,,,,,,,,VFR,,,,,,,,,,,,METAR,26.0
LFRQ 170830Z AUTO 07005KT 010V110 CAVOK 16/07 Q1029 NOSIG,LFRQ,2023-05-17T08:30:00Z,47.97,-4.17,16.0,7.0,70,5,,6.21,30.383858,,,TRUE,,,TRUE,,,,,CAVOK,,,,,,,,VFR,,,,,,,,,,,,METAR,94.0
LFRO 170830Z AUTO 05004KT 340V100 CAVOK 15/09 Q1029,LFRO,2023-05-17T08:30:00Z,48.75,-3.47,15.0,9.0,50,4,,6.21,30.383858,,,TRUE,,,,,,,,CAVOK,,,,,,,,VFR,,,,,,,,,,,,METAR,86.0
LFRN 170830Z AUTO 03007KT 350V060 CAVOK 16/09 Q1028 NOSIG,LFRN,2023-05-17T08:30:00Z,48.07,-1.73,16.0,9.0,30,7,,6.21,30.35433,,,TRUE,,,TRUE,,,,,CAVOK,,,,,,,,VFR,,,,,,,,,,,,METAR,35.0
LFRM 170830Z AUTO 03007KT 360V060 CAVOK 13/08 Q1027 NOSIG,LFRM,2023-05-17T08:30:00Z,47.95,0.2,13.0,8.0,30,7,,6.21,30.324802,,,TRUE,,,TRUE,,,,,CAVOK,,,,,,,,VFR,,,,,,,,,,,,METAR,51.0
LFRL 170830Z AUTO 07005KT 020V110 CAVOK 15/09 Q1029 NOSIG,LFRL,2023-05-17T08:30:00Z,48.27,-4.43,15.0,9.0,70,5,,6.21,30.383858,,,TRUE,,,TRUE,,,,,CAVOK,,,,,,,,VFR,,,,,,,,,,,,METAR,80.0
LFRK 170830Z AUTO 02006KT 350V070 CAVOK 15/06 Q1029 NOSIG,LFRK,2023-05-17T08:30:00Z,49.17,-0.45,15.0,6.0,20,6,,6.21,30.383858,,,TRUE,,,TRUE,,,,,CAVOK,,,,,,,,VFR,,,,,,,,,,,,METAR,66.0
LFRJ 170830Z AUTO 05005KT 360V100 CAVOK 15/08 Q1029 NOSIG,LFRJ,2023-05-17T08:30:00Z,48.52,-4.15,15.0,8.0,50,5,,6.21,30.383858,,,TRUE,,,TRUE,,,,,CAVOK,,,,,,,,VFR,,,,,,,,,,,,METAR,109.0
LFRI 170830Z AUTO 04007KT 010V070 CAVOK 14/08 Q1027 NOSIG,LFRI,2023-05-17T08:30:00Z,46.7,-1.37,14.0,8.0,40,7,,6.21,30.324802,,,TRUE,,,TRUE,,,,,CAVOK,,,,,,,,VFR,,,,,,,,,,,,METAR,89.0
LFRH 170830Z AUTO 06008KT 020V090 CAVOK 16/08 Q1028 NOSIG,LFRH,2023-05-17T08:30:00Z,47.77,-3.45,16.0,8.0,60,8,,6.21,30.35433,,,TRUE,,,TRUE,,,,,CAVOK,,,,,,,,VFR,,,,,,,,,,,,METAR,46.0
LFRG 170830Z AUTO 05006KT 360V090 CAVOK 14/06 Q1029 NOSIG,LFRG,2023-05-17T08:30:00Z,49.37,0.15,14.0,6.0,50,6,,6.21,30.383858,,,TRUE,,,TRUE,,,,,CAVOK,,,,,,,,VFR,,,,,,,,,,,,METAR,146.0
LFRD 170830Z AUTO 06005KT 340V120 9999 SCT020 15/10 Q1029 NOSIG,LFRD,2023-05-17T08:30:00Z,48.58,-2.07,15.0,10.0,60,5,,6.21,30.383858,,,TRUE,,,TRUE,,,,,SCT,2000,,,,,,,VFR,,,,,,,,,,,,METAR,56.0
LFRC 170830Z AUTO 06006KT 030V090 9999 SCT014 14/10 Q1029 NOSIG,LFRC,2023-05-17T08:30:00Z,49.63,-1.47,14.0,10.0,60,6,,6.21,30.383858,,,TRUE,,,TRUE,,,,,SCT,1400,,,,,,,VFR,,,,,,,,,,,,METAR,137.0
LFRB 170830Z AUTO 05006KT 020V090 CAVOK 15/10 Q1029 NOSIG,LFRB,2023-05-17T08:30:00Z,48.45,-4.42,15.0,10.0,50,6,,6.21,30.383858,,,TRUE,,,TRUE,,,,,CAVOK,,,,,,,,VFR,,,,,,,,,,,,METAR,91.0
LFQQ 170830Z AUTO 35005KT 290V030 9999 FEW028 SCT052 14/08 Q1028 NOSIG,LFQQ,2023-05-17T08:30:00Z,50.57,3.1,14.0,8.0,350,5,,6.21,30.35433,,,TRUE,,,TRUE,,,,,FEW,2800,SCT,5200,,,,,VFR,,,,,,,,,,,,METAR,43.0
LFQG 170830Z AUTO 04013KT 360V080 9999 BKN036 13/05 Q1024,LFQG,2023-05-17T08:30:00Z,47.0,3.1,13.0,5.0,40,13,,6.21,30.236221,,,TRUE,,,,,,,,BKN,3600,,,,,,,VFR,,,,,,,,,,,,METAR,172.0
LFQB 170830Z AUTO 04011KT 360V070 9999 SCT024 13/06 Q1026,LFQB,2023-05-17T08:30:00Z,48.32,4.02,13.0,6.0,40,11,,6.21,30.295275,,,TRUE,,,,,,,,SCT,2400,,,,,,,VFR,,,,,,,,,,,,METAR,107.0
LFQA 170830Z AUTO 02010KT 350V060 CAVOK 13/07 Q1027,LFQA,2023-05-17T08:30:00Z,49.2,4.15,13.0,7.0,20,10,,6.21,30.324802,,,TRUE,,,,,,,,CAVOK,,,,,,,,VFR,,,,,,,,,,,,METAR,92.0
LFPV 170830Z AUTO 03009KT 350V070 9999 FEW028 12/06 Q1027 NOSIG,LFPV,2023-05-17T08:30:00Z,48.77,2.2,12.0,6.0,30,9,,6.21,30.324802,,,TRUE,,,TRUE,,,,,FEW,2800,,,,,,,VFR,,,,,,,,,,,,METAR,171.0
LFPT 170830Z AUTO 05009KT 010V080 CAVOK 13/05 Q1028,LFPT,2023-05-17T08:30:00Z,49.1,2.03,13.0,5.0,50,9,,6.21,30.35433,,,TRUE,,,,,,,,CAVOK,,,,,,,,VFR,,,,,,,,,,,,METAR,91.0
LFPO 170830Z 04010KT 9999 FEW030 13/06 Q1027,LFPO,2023-05-17T08:30:00Z,48.72,2.38,13.0,6.0,40,10,,6.21,30.324802,,,,,,,,,,,FEW,3000,,,,,,,VFR,,,,,,,,,,,,METAR,88.0
LFPN 170830Z AUTO 05011KT 020V080 CAVOK 13/05 Q1027 NOSIG,LFPN,2023-05-17T08:30:00Z,48.75,2.12,13.0,5.0,50,11,,6.21,30.324802,,,TRUE,,,TRUE,,,,,CAVOK,,,,,,,,VFR,,,,,,,,,,,,METAR,152.0
LFPM 170830Z AUTO 05006KT 340V130 CAVOK 13/06 Q1027,LFPM,2023-05-17T08:30:00Z,48.62,2.67,13.0,6.0,50,6,,6.21,30.324802,,,TRUE,,,,,,,,CAVOK,,,,,,,,VFR,,,,,,,,,,,,METAR,91.0
LFPG 170830Z 02011KT 360V070 9999 FEW020 12/07 Q1028 NOSIG,LFPG,2023-05-17T08:30:00Z,49.02,2.53,12.0,7.0,20,11,,6.21,30.35433,,,,,,TRUE,,,,,FEW,2000,,,,,,,VFR,,,,,,,,,,,,METAR,107.0
LFPB 170830Z AUTO 02009KT 340V050 9999 FEW023 13/06 Q1028 NOSIG,LFPB,2023-05-17T08:30:00Z,48.97,2.42,13.0,6.0,20,9,,6.21,30.35433,,,TRUE,,,TRUE,,,,,FEW,2300,,,,,,,VFR,,,,,,,,,,,,METAR,50.0
LFOZ 170830Z AUTO 03011KT 340V060 9999 SCT031 13/05 Q1026,LFOZ,2023-05-17T08:30:00Z,47.9,2.17,13.0,5.0,30,11,,6.21,30.295275,,,TRUE,,,,,,,,SCT,3100,,,,,,,VFR,,,,,,,,,,,,METAR,121.0
LFOV 170830Z AUTO 02007KT 340V060 CAVOK 14/09 Q1027,LFOV,2023-05-17T08:30:00Z,48.03,-0.75,14.0,9.0,20,7,,6.21,30.324802,,,TRUE,,,,,,,,CAVOK,,,,,,,,VFR,,,,,,,,,,,,METAR,99.0
LFOT 170830Z AUTO 01007KT 320V070 9999 FEW027 14/08 Q1026 NOSIG,LFOT,2023-05-17T08:30:00Z,47.43,0.72,14.0,8.0,10,7,,6.21,30.295275,,,TRUE,,,TRUE,,,,,FEW,2700,,,,,,,VFR,,,,,,,,,,,,METAR,107.0
LFOP 170830Z AUTO 05007KT 010V090 CAVOK 13/05 Q1028 NOSIG,LFOP,2023-05-17T08:30:00Z,49.37,1.17,13.0,5.0,50,7,,6.21,30.35433,,,TRUE,,,TRUE,,,,,CAVOK,,,,,,,,VFR,,,,,,,,,,,,METAR,149.0
LFOK 170830Z AUTO 03012KT 360V060 CAVOK 12/07 Q1026 NOSIG,LFOK,2023-05-17T08:30:00Z,48.78,4.15,12.0,7.0,30,12,,6.21,30.295275,,,TRUE,,,TRUE,,,,,CAVOK,,,,,,,,VFR,,,,,,,,,,,,METAR,166.0
LFOJ 170830Z AUTO 03013KT 9999 BKN022 13/07 Q1026 NOSIG,LFOJ,2023-05-17T08:30:00Z,47.98,1.75,13.0,7.0,30,13,,6.21,30.295275,,,TRUE,,,TRUE,,,,,BKN,2200,,,,,,,MVFR,,,,,,,,,,,,METAR,122.0
LFOH 170830Z AUTO 05006KT 010V080 CAVOK 15/05 Q1029 NOSIG,LFOH,2023-05-17T08:30:00Z,49.52,0.08,15.0,5.0,50,6,,6.21,30.383858,,,TRUE,,,TRUE,,,,,CAVOK,,,,,,,,VFR,,,,,,,,,,,,METAR,87.0
LFOE 170830Z AUTO 05009KT 020V080 CAVOK 13/04 Q1028 NOSIG,LFOE,2023-05-17T08:30:00Z,49.02,1.22,13.0,4.0,50,9,,6.21,30.35433,,,TRUE,,,TRUE,,,,,CAVOK,,,,,,,,VFR,,,,,,,,,,,,METAR,132.0
LFOB 170830Z AUTO 05007KT 020V080 CAVOK 13/06 Q1028 NOSIG,LFOB,2023-05-17T08:30:00Z,49.47,2.12,13.0,6.0,50,7,,6.21,30.35433,,,TRUE,,,TRUE,,,,,CAVOK,,,,,,,,VFR,,,,,,,,,,,,METAR,99.0
LFOA 170830Z AUTO 04016KT 9999 FEW033 13/06 Q1025 TEMPO 02015G25KT,LFOA,2023-05-17T08:30:00Z,47.05,2.63,13.0,6.0,40,16,,6.21,30.265747,,,TRUE,,,,,,,,FEW,3300,,,,,,,VFR,,,,,,,,,,,,METAR,174.0
LFMY 170830Z AUTO 34018KT CAVOK 17/06 Q1010 BECMG 34015G25KT,LFMY,2023-05-17T08:30:00Z,43.6,5.1,17.0,6.0,340,18,,6.21,29.822834,,,TRUE,,,,,,,,CAVOK,,,,,,,,VFR,,,,,,,,,,,,METAR,57.0
LFMV 170830Z AUTO 35022G33KT 9000 NSC 16/04 Q1011 NOSIG,LFMV,2023-05-17T08:30:00Z,43.9,4.9,16.0,4.0,350,22,33,5.59,29.852362,,,TRUE,,,TRUE,,,,,CLR,,,,,,,,VFR,,,,,,,,,,,,METAR,33.0
LFMU 170830Z AUTO 33021KT CAVOK 17/02 Q1015 BECMG 32017G29KT,LFMU,2023-05-17T08:30:00Z,43.32,3.35,17.0,2.0,330,21,,6.21,29.970472,,,TRUE,,,,,,,,CAVOK,,,,,,,,VFR,,,,,,,,,,,,METAR,14.0
LFMT 170830Z AUTO 36017KT CAVOK 18/03 Q1013 BECMG 36017G29KT,LFMT,2023-05-17T08:30:00Z,43.57,3.97,18.0,3.0,360,17,,6.21,29.911417,,,TRUE,,,,,,,,CAVOK,,,,,,,,VFR,,,,,,,,,,,,SPECI,1.0
LFMP 170830Z AUTO 31028G43KT CAVOK 16/02 Q1015 NOSIG,LFMP,2023-05-17T08:30:00Z,42.73,2.87,16.0,2.0,310,28,43,6.21,29.970472,,,TRUE,,,TRUE,,,,,CAVOK,,,,,,,,VFR,,,,,,,,,,,,METAR,41.0
LFMO 170830Z AUTO 36027G41KT CAVOK 15/05 Q1013 NOSIG,LFMO,2023-05-17T08:30:00Z,44.13,4.87,15.0,5.0,360,27,41,6.21,29.911417,,,TRUE,,,TRUE,,,,,CAVOK,,,,,,,,VFR,,,,,,,,,,,,METAR,56.0
LFMN 170830Z 25006KT 9999 FEW066 SCT130 20/12 Q1009 NOSIG,LFMN,2023-05-17T08:30:00Z,43.65,7.2,20.0,12.0,250,6,,6.21,29.793306,,,,,,TRUE,,,,,FEW,6600,SCT,13000,,,,,VFR,,,,,,,,,,,,METAR,4.0
LFML 170830Z AUTO 33015KT CAVOK 18/06 Q1010 TEMPO 32015G25KT FEW060TCU,LFML,2023-05-17T08:30:00Z,43.45,5.22,18.0,6.0,330,15,,6.21,29.822834,,,TRUE,,,,,,,,CAVOK,,,,,,,,VFR,,,,,,,,,,,,SPECI,20.0
LFMK 170830Z AUTO 27018KT CAVOK 14/06 Q1019 TEMPO 27015G30KT,LFMK,2023-05-17T08:30:00Z,43.22,2.32,14.0,6.0,270,18,,6.21,30.088583,,,TRUE,,,,,,,,CAVOK,,,,,,,,VFR,,,,,,,,,,,,METAR,124.0
LFMI 170830Z AUTO 36019KT CAVOK 17/05 Q1011 BECMG 35025G35KT,LFMI,2023-05-17T08:30:00Z,43.52,4.93,17.0,5.0,360,19,,6.21,29.852362,,,TRUE,,,,,,,,CAVOK,,,,,,,,VFR,,,,,,,,,,,,METAR,20.0
LFMH 170830Z AUTO 34016KT CAVOK 11/04 Q1020,LFMH,2023-05-17T08:30:00Z,45.52,4.28,11.0,4.0,340,16,,6.21,30.11811,,,TRUE,,,,,,,,CAVOK,,,,,,,,VFR,,,,,,,,,,,,METAR,400.0
LFMD 170830Z AUTO 17005KT 120V230 CAVOK 21/11 Q1009 TEMPO 4000 SHRA SCT050TCU FEW060CB,LFMD,2023-05-17T08:30:00Z,43.53,6.95,21.0,11.0,170,5,,6.21,29.793306,,,TRUE,,,,,,,,CAVOK,,,,,,,,VFR,,,,,,,,,,,,SPECI,2.0
LFMC 170830Z AUTO VRB03KT 9999 ////// 19/09 Q1009,LFMC,2023-05-17T08:30:00Z,43.37,6.38,19.0,9.0,0,3,,6.21,29.793306,,,TRUE,,,,,,,,,,,,,,,,,,,,,,,,,,,,METAR,79.0
LFLY 170830Z AUTO 35018KT 9999 FEW035 13/05 Q1019 TEMPO 35020G30KT,LFLY,2023-05-17T08:30:00Z,45.72,4.95,13.0,5.0,350,18,,6.21,30.088583,,,TRUE,,,,,,,,FEW,3500,,,,,,,VFR,,,,,,,,,,,,SPECI,197.0
LFLX 170830Z AUTO 03015KT CAVOK 13/07 Q1025 NOSIG,LFLX,2023-05-17T08:30:00Z,46.87,1.73,13.0,7.0,30,15,,6.21,30.265747,,,TRUE,,,TRUE,,,,,CAVOK,,,,,,,,VFR,,,,,,,,,,,,METAR,157.0
LFLW 170830Z AUTO VRB03KT CAVOK 12/01 Q1019 NOSIG,LFLW,2023-05-17T08:30:00Z,44.88,2.42,12.0,1.0,0,3,,6.21,30.088583,,,TRUE,,,TRUE,,,,,CAVOK,,,,,,,,VFR,,,,,,,,,,,,METAR,638.0
LFLV 170830Z AUTO 35009KT 320V020 9999 FEW034 13/06 Q1022,LFLV,2023-05-17T08:30:00Z,46.17,3.38,13.0,6.0,350,9,,6.21,30.177166,,,TRUE,,,,,,,,FEW,3400,,,,,,,VFR,,,,,,,,,,,,METAR,248.0
LFLU 170830Z AUTO 35020KT 9999 FEW048 SCT230 13/06 Q1017,LFLU,2023-05-17T08:30:00Z,44.92,4.98,13.0,6.0,350,20,,6.21,30.029528,,,TRUE,,,,,,,,FEW,4800,SCT,23000,,,,,VFR,,,,,,,,,,,,METAR,162.0
LFLS 170830Z AUTO 35010KT 9999 FEW024 SCT038 11/06 Q1017 NOSIG,LFLS,2023-05-17T08:30:00Z,45.37,5.32,11.0,6.0,350,10,,6.21,30.029528,,,TRUE,,,TRUE,,,,,FEW,2400,SCT,3800,,,,,VFR,,,,,,,,,,,,METAR,386.0
LFLP 170830Z AUTO 02015KT 330V040 9000 NSC 12/05 Q1017 BECMG 02015G25KT,LFLP,2023-05-17T08:30:00Z,45.92,6.1,12.0,5.0,20,15,,5.59,30.029528,,,TRUE,,,,,,,,CLR,,,,,,,,VFR,,,,,,,,,,,,METAR,460.0
LFLN 170830Z AUTO 36010KT 330V030 9999 FEW040 13/05 Q1022 TEMPO 03015G25KT,LFLN,2023-05-17T08:30:00Z,46.42,4.02,13.0,5.0,360,10,,6.21,30.177166,,,TRUE,,,,,,,,FEW,4000,,,,,,,VFR,,,,,,,,,,,,METAR,238.0
LFLL 170830Z 36020KT 9999 FEW030 BKN230 12/05 Q1018 NOSIG,LFLL,2023-05-17T08:30:00Z,45.72,5.07,12.0,5.0,360,20,,6.21,30.059055,,,,,,TRUE,,,,,FEW,3000,BKN,23000,,,,,VFR,,,,,,,,,,,,METAR,234.0
LFLH 170830Z AUTO 03013G23KT 360V070 CAVOK 14/05 Q1022,LFLH,2023-05-17T08:30:00Z,46.83,4.82,14.0,5.0,30,13,23,6.21,30.177166,,,TRUE,,,,,,,,CAVOK,,,,,,,,VFR,,,,,,,,,,,,METAR,190.0
LFLC 170830Z AUTO 36013KT 330V030 9999 FEW031 12/04 Q1022 NOSIG,LFLC,2023-05-17T08:30:00Z,45.78,3.17,12.0,4.0,360,13,,6.21,30.177166,,,TRUE,,,TRUE,,,,,FEW,3100,,,,,,,VFR,,,,,,,,,,,,METAR,325.0
LFLB 170830Z AUTO 34015KT 9999 OVC041 13/05 Q1017 NOSIG,LFLB,2023-05-17T08:30:00Z,45.63,5.87,13.0,5.0,340,15,,6.21,30.029528,,,TRUE,,,TRUE,,,,,OVC,4100,,,,,,,VFR,,,,,,,,,,,,METAR,234.0
LFKS 170830Z AUTO 15008KT 9999 FEW084 21/12 Q1007,LFKS,2023-05-17T08:30:00Z,41.92,9.4,21.0,12.0,150,8,,6.21,29.734253,,,TRUE,,,,,,,,FEW,8400,,,,,,,VFR,,,,,,,,,,,,METAR,22.0
LFKJ 170830Z AUTO 20007KT 9999 SCT039 BKN049 21/13 Q1007 BECMG 30014KT,LFKJ,2023-05-17T08:30:00Z,41.92,8.8,21.0,13.0,200,7,,6.21,29.734253,,,TRUE,,,,,,,,SCT,3900,BKN,4900,,,,,VFR,,,,,,,,,,,,SPECI,9.0
LFKF 170830Z AUTO 25014KT 220V280 9999 BKN044 BKN056 OVC130 22/13 Q1007 TEMPO SHRA BKN040 FEW040TCU,LFKF,2023-05-17T08:30:00Z,41.5,9.08,22.0,13.0,250,14,,6.21,29.734253,,,TRUE,,,,,,,,BKN,4400,BKN,5600,OVC,13000,,,VFR,,,,,,,,,,,,SPECI,15.0
LFKC 170830Z AUTO 01008KT 340V040 9999 FEW036 SCT054 BKN064 19/10 Q1009 NOSIG,LFKC,2023-05-17T08:30:00Z,42.52,8.8,19.0,10.0,10,8,,6.21,29.793306,,,TRUE,,,TRUE,,,,,FEW,3600,SCT,5400,BKN,6400,,,VFR,,,,,,,,,,,,METAR,38.0
LFKB 170830Z AUTO 31011KT 270V340 9999 SCT064 BKN082 21/11 Q1007 TEMPO 4000 SHRA BKN030 FEW030TCU BKN060,LFKB,2023-05-17T08:30:00Z,42.55,9.48,21.0,11.0,310,11,,6.21,29.734253,,,TRUE,,,,,,,,SCT,6400,BKN,8200,,,,,VFR,,,,,,,,,,,,SPECI,7.0
LFJR 170830Z AUTO 05008KT 360V090 CAVOK 14/08 Q1027,LFJR,2023-05-17T08:30:00Z,47.57,-0.32,14.0,8.0,50,8,,6.21,30.324802,,,TRUE,,,,,,,,CAVOK,,,,,,,,VFR,,,,,,,,,,,,METAR,50.0
LFJL 170830Z AUTO 03012KT 350V050 9999 FEW030/// SCT046/// 12/05 Q1025 NOSIG,LFJL,2023-05-17T08:30:00Z,48.97,6.25,12.0,5.0,30,12,,6.21,30.265747,,,TRUE,,,TRUE,,,,,FEW,3000,SCT,4600,,,,,VFR,,,,,,,,,,,,METAR,259.0
LFHP 170830Z AUTO 01017KT 9999 BKN041 10/01 Q1018,LFHP,2023-05-17T08:30:00Z,45.07,3.77,10.0,1.0,10,17,,6.21,30.059055,,,TRUE,,,,,,,,BKN,4100,,,,,,,VFR,,,,,,,,,,,,METAR,829.0
LFGJ 170830Z AUTO 04016KT 9999 FEW037 13/06 Q1021 TEMPO 03015G27KT,LFGJ,2023-05-17T08:30:00Z,47.05,5.43,13.0,6.0,40,16,,6.21,30.147638,,,TRUE,,,,,,,,FEW,3700,,,,,,,VFR,,,,,,,,,,,,METAR,191.0
LFGA 170830Z AUTO 01012KT 9999 FEW031 12/06 Q1024,LFGA,2023-05-17T08:30:00Z,48.1,7.35,12.0,6.0,10,12,,6.21,30.236221,,,TRUE,,,,,,,,FEW,3100,,,,,,,VFR,,,,,,,,,,,,METAR,191.0
LFCR 170830Z AUTO 32007KT 280V360 CAVOK 11/04 Q1019 NOSIG,LFCR,2023-05-17T08:30:00Z,44.4,2.47,11.0,4.0,320,7,,6.21,30.088583,,,TRUE,,,TRUE,,,,,CAVOK,,,,,,,,VFR,,,,,,,,,,,,METAR,576.0
LFCK 170830Z AUTO 31011KT CAVOK 13/05 Q1020 TEMPO 33015G25KT,LFCK,2023-05-17T08:30:00Z,43.55,2.28,13.0,5.0,310,11,,6.21,30.11811,,,TRUE,,,,,,,,CAVOK,,,,,,,,VFR,,,,,,,,,,,,METAR,223.0
LFBZ 170830Z AUTO 07005KT 010V130 CAVOK 14/06 Q1024 NOSIG,LFBZ,2023-05-17T08:30:00Z,43.47,-1.53,14.0,6.0,70,5,,6.21,30.236221,,,TRUE,,,TRUE,,,,,CAVOK,,,,,,,,VFR,,,,,,,,,,,,METAR,70.0
LFBY 170830Z AUTO 08004KT 030V130 9999 // ////// 14/07 Q1024,LFBY,2023-05-17T08:30:00Z,43.68,-1.07,14.0,7.0,80,4,,6.21,30.236221,,,TRUE,,,,,,,,,,,,,,,,,,,,,,,,,,,,METAR,32.0
LFBX 170830Z AUTO 36010KT 310V060 CAVOK 15/05 Q1023,LFBX,2023-05-17T08:30:00Z,45.2,0.82,15.0,5.0,360,10,,6.21,30.206694,,,TRUE,,,,,,,,CAVOK,,,,,,,,VFR,,,,,,,,,,,,METAR,97.0
LFBU 170830Z AUTO 36014KT 350V050 CAVOK 13/06 Q1024 TEMPO 03015G25KT,LFBU,2023-05-17T08:30:00Z,45.72,0.22,13.0,6.0,360,14,,6.21,30.236221,,,TRUE,,,,,,,,CAVOK,,,,,,,,VFR,,,,,,,,,,,,METAR,124.0
LFBT 170830Z AUTO 36003KT 310V050 CAVOK 13/06 Q1023 NOSIG,LFBT,2023-05-17T08:30:00Z,43.18,0.0,13.0,6.0,360,3,,6.21,30.206694,,,TRUE,,,TRUE,,,,,CAVOK,,,,,,,,VFR,,,,,,,,,,,,METAR,359.0
LFBP 170830Z AUTO VRB02KT CAVOK 14/06 Q1023 NOSIG,LFBP,2023-05-17T08:30:00Z,43.38,-0.42,14.0,6.0,0,2,,6.21,30.206694,,,TRUE,,,TRUE,,,,,CAVOK,,,,,,,,VFR,,,,,,,,,,,,METAR,182.0
LFBO 170830Z AUTO 31010KT 9999 FEW036 14/05 Q1021 NOSIG,LFBO,2023-05-17T08:30:00Z,43.62,1.37,14.0,5.0,310,10,,6.21,30.147638,,,TRUE,,,TRUE,,,,,FEW,3600,,,,,,,VFR,,,,,,,,,,,,METAR,150.0
LFBM 170830Z AUTO 01006KT 340V060 CAVOK 15/06 Q1023 NOSIG,LFBM,2023-05-17T08:30:00Z,43.92,-0.5,15.0,6.0,10,6,,6.21,30.206694,,,TRUE,,,TRUE,,,,,CAVOK,,,,,,,,VFR,,,,,,,,,,,,METAR,56.0
LFBL 170830Z AUTO 03016KT 350V050 CAVOK 12/04 Q1023 TEMPO 03015G25KT,LFBL,2023-05-17T08:30:00Z,45.87,1.17,12.0,4.0,30,16,,6.21,30.206694,,,TRUE,,,,,,,,CAVOK,,,,,,,,VFR,,,,,,,,,,,,SPECI,402.0
LFBI 170830Z AUTO 04010KT CAVOK 13/08 Q1026 TEMPO 03015G25KT,LFBI,2023-05-17T08:30:00Z,46.58,0.32,13.0,8.0,40,10,,6.21,30.295275,,,TRUE,,,,,,,,CAVOK,,,,,,,,VFR,,,,,,,,,,,,SPECI,117.0
LFBH 170830Z AUTO 05011KT 020V080 CAVOK 15/08 Q1026 NOSIG,LFBH,2023-05-17T08:30:00Z,46.18,-1.2,15.0,8.0,50,11,,6.21,30.295275,,,TRUE,,,TRUE,,,,,CAVOK,,,,,,,,VFR,,,,,,,,,,,,METAR,18.0
LFBG 170830Z AUTO 02013KT CAVOK 14/06 Q1025 TEMPO 03015G25KT,LFBG,2023-05-17T08:30:00Z,45.67,-0.32,14.0,6.0,20,13,,6.21,30.265747,,,TRUE,,,,,,,,CAVOK,,,,,,,,VFR,,,,,,,,,,,,METAR,28.0
LFBF 170830Z AUTO 28005KT 240V310 9999 FEW037 13/05 Q1021,LFBF,2023-05-17T08:30:00Z,43.53,1.37,13.0,5.0,280,5,,6.21,30.147638,,,TRUE,,,,,,,,FEW,3700,,,,,,,VFR,,,,,,,,,,,,METAR,159.0
LFBE 170830Z AUTO 36007KT 320V050 CAVOK 15/08 Q1023 NOSIG,LFBE,2023-05-17T08:30:00Z,44.82,0.52,15.0,8.0,360,7,,6.21,30.206694,,,TRUE,,,TRUE,,,,,CAVOK,,,,,,,,VFR,,,,,,,,,,,,METAR,49.0
LFBD 170830Z AUTO 05014KT CAVOK 15/05 Q1024 NOSIG,LFBD,2023-05-17T08:30:00Z,44.82,-0.7,15.0,5.0,50,14,,6.21,30.236221,,,TRUE,,,TRUE,,,,,CAVOK,,,,,,,,VFR,,,,,,,,,,,,METAR,48.0
LFBC 170830Z AUTO 04010KT CAVOK 16/05 Q1024 NOSIG,LFBC,2023-05-17T08:30:00Z,44.52,-1.12,16.0,5.0,40,10,,6.21,30.236221,,,TRUE,,,TRUE,,,,,CAVOK,,,,,,,,VFR,,,,,,,,,,,,METAR,22.0
LFBA 170830Z AUTO 32009KT 290V350 CAVOK 14/07 Q1022 NOSIG,LFBA,2023-05-17T08:30:00Z,44.17,0.6,14.0,7.0,320,9,,6.21,30.177166,,,TRUE,,,TRUE,,,,,CAVOK,,,,,,,,VFR,,,,,,,,,,,,METAR,68.0
LFAT 170830Z AUTO VRB02KT CAVOK 14/09 Q1029 NOSIG,LFAT,2023-05-17T08:30:00Z,50.52,1.62,14.0,9.0,0,2,,6.21,30.383858,,,TRUE,,,TRUE,,,,,CAVOK,,,,,,,,VFR,,,,,,,,,,,,METAR,2.0
LFAQ 170830Z AUTO 01005KT 330V030 CAVOK 12/08 Q1028 NOSIG,LFAQ,2023-05-17T08:30:00Z,49.97,2.7,12.0,8.0,10,5,,6.21,30.35433,,,TRUE,,,TRUE,,,,,CAVOK,,,,,,,,VFR,,,,,,,,,,,,METAR,107.0
LFAC 170830Z AUTO VRB03KT 9999 SCT043 SCT056 OVC082 15/10 Q1029,LFAC,2023-05-17T08:30:00Z,50.97,1.95,15.0,10.0,0,3,,6.21,30.383858,,,TRUE,,,,,,,,SCT,4300,SCT,5600,OVC,8200,,,VFR,,,,,,,,,,,,METAR,3.0
LEZL 170830Z 36003KT 320V040 CAVOK 23/09 Q1011 NOSIG,LEZL,2023-05-17T08:30:00Z,37.42,-5.9,23.0,9.0,360,3,,6.21,29.852362,,,,,,TRUE,,,,,CAVOK,,,,,,,,VFR,,,,,,,,,,,,METAR,26.0
LEZG 170830Z 30020KT 280V340 CAVOK 15/02 Q1018,LEZG,2023-05-17T08:30:00Z,41.67,-1.02,15.0,2.0,300,20,,6.21,30.059055,,,,,,,,,,,CAVOK,,,,,,,,VFR,,,,,,,,,,,,METAR,245.0
LEXJ 170830Z VRB02KT 9999 FEW025 SCT057 16/09 Q1025,LEXJ,2023-05-17T08:30:00Z,43.42,-3.82,16.0,9.0,0,2,,6.21,30.265747,,,,,,,,,,,FEW,2500,SCT,5700,,,,,VFR,,,,,,,,,,,,METAR,1.0
LEVX 170830Z VRB06KT CAVOK 18/04 Q1018 NOSIG,LEVX,2023-05-17T08:30:00Z,42.23,-8.62,18.0,4.0,0,6,,6.21,30.059055,,,,,,TRUE,,,,,CAVOK,,,,,,,,VFR,,,,,,,,,,,,METAR,253.0
LEVT 170830Z 04016KT 360V080 9999 FEW040 12/03 Q1023,LEVT,2023-05-17T08:30:00Z,42.87,-2.72,12.0,3.0,40,16,,6.21,30.206694,,,,,,,,,,,FEW,4000,,,,,,,VFR,,,,,,,,,,,,METAR,501.0
LEVS 170830Z 03008G20KT 320V130 CAVOK 13/M02 Q1017,LEVS,2023-05-17T08:30:00Z,40.37,-3.78,13.0,-2.0,30,8,20,6.21,30.029528,,,,,,,,,,,CAVOK,,,,,,,,VFR,,,,,,,,,,,,METAR,683.0
LEVD 170830Z 06018KT CAVOK 11/03 Q1020,LEVD,2023-05-17T08:30:00Z,41.72,-4.85,11.0,3.0,60,18,,6.21,30.11811,,,,,,,,,,,CAVOK,,,,,,,,VFR,,,,,,,,,,,,METAR,844.0
LEVC 170830Z VRB02KT CAVOK 20/01 Q1015 NOSIG,LEVC,2023-05-17T08:30:00Z,39.5,-0.47,20.0,1.0,0,2,,6.21,29.970472,,,,,,TRUE,,,,,CAVOK,,,,,,,,VFR,,,,,,,,,,,,METAR,58.0
LETU 170830Z AUTO 33015KT 300V360 9999 NCD 15/02 Q1019,LETU,2023-05-17T08:30:00Z,,,15.0,2.0,330,15,,6.21,30.088583,,,TRUE,,,,,,,,CLR,,,,,,,,VFR,,,,,,,,,,,,METAR,
LETO 170830Z 04018KT 010V070 CAVOK 13/M00 Q1017 NOSIG,LETO,2023-05-17T08:30:00Z,40.48,-3.47,13.0,0.0,40,18,,6.21,30.029528,,,,,,TRUE,,,,,CAVOK,,,,,,,,VFR,,,,,,,,,,,,METAR,598.0
LETL 170830Z AUTO 35008KT 320V020 CAVOK 09/01 Q1018,LETL,2023-05-17T08:30:00Z,40.42,-1.22,9.0,1.0,350,8,,6.21,30.059055,,,TRUE,,,,,,,,CAVOK,,,,,,,,VFR,,,,,,,,,,,,METAR,1024.0
LESU 170830Z VRB02KT CAVOK 12/M04 Q1016,LESU,2023-05-17T08:30:00Z,42.33,1.4,12.0,-4.0,0,2,,6.21,30.0,,,,,,,,,,,CAVOK,,,,,,,,VFR,,,,,,,,,,,,METAR,802.0
LEST 170830Z 09006KT 050V140 CAVOK 13/04 Q1020 NOSIG,LEST,2023-05-17T08:30:00Z,42.88,-8.42,13.0,4.0,90,6,,6.21,30.11811,,,,,,TRUE,,,,,CAVOK,,,,,,,,VFR,,,,,,,,,,,,METAR,363.0
LESO 170830Z 01004KT 300V060 CAVOK 14/07 Q1024,LESO,2023-05-17T08:30:00Z,43.35,-1.8,14.0,7.0,10,4,,6.21,30.236221,,,,,,,,,,,CAVOK,,,,,,,,VFR,,,,,,,,,,,,METAR,3.0
LESB 170830Z AUTO 06007KT 030V100 9999 FEW051/// 20/09 Q1015,LESB,2023-05-17T08:30:00Z,39.6,2.7,20.0,9.0,60,7,,6.21,29.970472,,,TRUE,,,,,,,,FEW,5100,,,,,,,VFR,,,,,,,,,,,,METAR,48.0
LESA 170830Z 07014KT 050V110 CAVOK 10/01 Q1019,LESA,2023-05-17T08:30:00Z,40.95,-5.5,10.0,1.0,70,14,,6.21,30.088583,,,,,,,,,,,CAVOK,,,,,,,,VFR,,,,,,,,,,,,METAR,788.0
LERT 170830Z 13014KT 9999 FEW022 21/13 Q1011 NOSIG,LERT,2023-05-17T08:30:00Z,36.63,-6.33,21.0,13.0,130,14,,6.21,29.852362,,,,,,TRUE,,,,,FEW,2200,,,,,,,VFR,,,,,,,,,,,,METAR,27.0
LERS 170830Z VRB02KT CAVOK 19/02 Q1015,LERS,2023-05-17T08:30:00Z,41.13,1.17,19.0,2.0,0,2,,6.21,29.970472,,,,,,,,,,,CAVOK,,,,,,,,VFR,,,,,,,,,,,,METAR,68.0
LERI 170830Z 08010KT 050V120 9999 FEW030 20/11 Q1014 NOSIG,LERI,2023-05-17T08:30:00Z,37.95,-1.22,20.0,11.0,80,10,,6.21,29.940945,,,,,,TRUE,,,,,FEW,3000,,,,,,,VFR,,,,,,,,,,,,METAR,74.0
LEPP 170830Z 35015KT CAVOK 13/02 Q1021,LEPP,2023-05-17T08:30:00Z,42.77,-1.65,13.0,2.0,350,15,,6.21,30.147638,,,,,,,,,,,CAVOK,,,,,,,,VFR,,,,,,,,,,,,METAR,448.0
LEPA 170830Z 10008KT 060V150 9999 FEW030 20/11 Q1015 NOSIG,LEPA,2023-05-17T08:30:00Z,39.55,2.73,20.0,11.0,100,8,,6.21,29.970472,,,,,,TRUE,,,,,FEW,3000,,,,,,,VFR,,,,,,,,,,,,METAR,8.0
LEMO 170830Z 34005KT 290V020 CAVOK 22/12 Q1011 NOSIG,LEMO,2023-05-17T08:30:00Z,37.17,-5.62,22.0,12.0,340,5,,6.21,29.852362,,,,,,TRUE,,,,,CAVOK,,,,,,,,VFR,,,,,,,,,,,,METAR,82.0
LEMI 170830Z 06016KT 040V100 9999 SCT025 19/12 Q1014,LEMI,2023-05-17T08:30:00Z,37.8,-1.12,19.0,12.0,60,16,,6.21,29.940945,,,,,,,,,,,SCT,2500,,,,,,,VFR,,,,,,,,,,,,METAR,193.0
LEMH 170830Z 01019G29KT 330V040 9999 FEW035 18/07 Q1015,LEMH,2023-05-17T08:30:00Z,39.87,4.22,18.0,7.0,10,19,29,6.21,29.970472,,,,,,,,,,,FEW,3500,,,,,,,VFR,,,,,,,,,,,,METAR,82.0
LEMG 170830Z 27001KT CAVOK 21/09 Q1012 NOSIG,LEMG,2023-05-17T08:30:00Z,36.67,-4.47,21.0,9.0,270,1,,6.21,29.88189,,,,,,TRUE,,,,,CAVOK,,,,,,,,VFR,,,,,,,,,,,,METAR,5.0
LEMD 170830Z 03009G20KT 340V100 CAVOK 14/M01 Q1017 NOSIG,LEMD,2023-05-17T08:30:00Z,40.45,-3.57,14.0,-1.0,30,9,20,6.21,30.029528,,,,,,TRUE,,,,,CAVOK,,,,,,,,VFR,,,,,,,,,,,,METAR,589.0
LELO 170830Z 27009G19KT 230V320 CAVOK 14/02 Q1022,LELO,2023-05-17T08:30:00Z,42.45,-2.32,14.0,2.0,270,9,19,6.21,30.177166,,,,,,,,,,,CAVOK,,,,,,,,VFR,,,,,,,,,,,,METAR,352.0
LELN 170830Z 08004KT 030V140 CAVOK 11/M02 Q1021,LELN,2023-05-17T08:30:00Z,42.58,-5.65,11.0,-2.0,80,4,,6.21,30.147638,,,,,,,,,,,CAVOK,,,,,,,,VFR,,,,,,,,,,,,METAR,911.0
LELL 170830Z 00000KT CAVOK 19/M01 Q1014,LELL,2023-05-17T08:30:00Z,41.52,2.1,19.0,-1.0,0,0,,6.21,29.940945,,,,,,,,,,,CAVOK,,,,,,,,VFR,,,,,,,,,,,,METAR,136.0
LELC 170830Z 05017KT 020V080 9999 SCT023 BKN028 22/15 Q1014 NOSIG,LELC,2023-05-17T08:30:00Z,37.77,-0.8,22.0,15.0,50,17,,6.21,29.940945,,,,,,TRUE,,,,,SCT,2300,BKN,2800,,,,,MVFR,,,,,,,,,,,,METAR,3.0
LEJR 170830Z 18008KT 140V210 9999 FEW050 22/07 Q1011,LEJR,2023-05-17T08:30:00Z,36.75,-6.07,22.0,7.0,180,8,,6.21,29.852362,,,,,,,,,,,FEW,5000,,,,,,,VFR,,,,,,,,,,,,METAR,25.0
LEIB 170830Z 08010KT 050V110 9999 SCT025 21/12 Q1015 NOSIG,LEIB,2023-05-17T08:30:00Z,38.87,1.38,21.0,12.0,80,10,,6.21,29.970472,,,,,,TRUE,,,,,SCT,2500,,,,,,,VFR,,,,,,,,,,,,METAR,4.0
LEHC 170830Z 26009KT 210V290 CAVOK 14/02 Q1017,LEHC,2023-05-17T08:30:00Z,42.08,-0.32,14.0,2.0,260,9,,6.21,30.029528,,,,,,,,,,,CAVOK,,,,,,,,VFR,,,,,,,,,,,,METAR,540.0
LEGT 170830Z 05015KT 010V080 CAVOK 14/M00 Q1017,LEGT,2023-05-17T08:30:00Z,40.28,-3.72,14.0,0.0,50,15,,6.21,30.029528,,,,,,,,,,,CAVOK,,,,,,,,VFR,,,,,,,,,,,,METAR,619.0
LEGR 170830Z 02005KT 340V060 9999 FEW080 19/05 Q1013,LEGR,2023-05-17T08:30:00Z,37.18,-3.78,19.0,5.0,20,5,,6.21,29.911417,,,,,,,,,,,FEW,8000,,,,,,,VFR,,,,,,,,,,,,METAR,560.0
LEGE 170830Z VRB02KT CAVOK 17/04 Q1014,LEGE,2023-05-17T08:30:00Z,41.9,2.77,17.0,4.0,0,2,,6.21,29.940945,,,,,,,,,,,CAVOK,,,,,,,,VFR,,,,,,,,,,,,METAR,140.0
LEGA 170830Z 35004KT 290V030 CAVOK 17/04 Q1014,LEGA,2023-05-17T08:30:00Z,37.13,-3.62,17.0,4.0,350,4,,6.21,29.940945,,,,,,,,,,,CAVOK,,,,,,,,VFR,,,,,,,,,,,,METAR,684.0
LEEC 170830Z 35004KT 320V040 CAVOK 21/06 Q1012,LEEC,2023-05-17T08:30:00Z,37.32,-6.0,21.0,6.0,350,4,,6.21,29.88189,,,,,,,,,,,CAVOK,,,,,,,,VFR,,,,,,,,,,,,METAR,7.0
LEDA 170830Z 25010KT 230V290 CAVOK 15/04 Q1016,LEDA,2023-05-17T08:30:00Z,41.73,0.53,15.0,4.0,250,10,,6.21,30.0,,,,,,,,,,,CAVOK,,,,,,,,VFR,,,,,,,,,,,,METAR,352.0
LECV 170830Z 08010KT CAVOK 14/M08 Q1017,LECV,2023-05-17T08:30:00Z,40.68,-3.75,14.0,-8.0,80,10,,6.21,30.029528,,,,,,,,,,,CAVOK,,,,,,,,VFR,,,,,,,,,,,,METAR,995.0
LECO 170830Z 05004KT 340V110 9999 FEW032 16/05 Q1021 NOSIG,LECO,2023-05-17T08:30:00Z,43.3,-8.37,16.0,5.0,50,4,,6.21,30.147638,,,,,,TRUE,,,,,FEW,3200,,,,,,,VFR,,,,,,,,,,,,METAR,80.0
LECH 170830Z AUTO 04007KT 340V080 CAVOK 18/M01 Q1015,LECH,2023-05-17T08:30:00Z,40.2,0.07,18.0,-1.0,40,7,,6.21,29.970472,,,TRUE,,,,,,,,CAVOK,,,,,,,,VFR,,,,,,,,,,,,METAR,360.0
LEBZ 170830Z 05012KT 020V090 CAVOK 21/M01 Q1014,LEBZ,2023-05-17T08:30:00Z,38.87,-6.82,21.0,-1.0,50,12,,6.21,29.940945,,,,,,,,,,,CAVOK,,,,,,,,VFR,,,,,,,,,,,,METAR,183.0
LEBT 170830Z AUTO 17003KT CAVOK 21/M00 Q1015,LEBT,2023-05-17T08:30:00Z,39.58,-0.45,21.0,0.0,170,3,,6.21,29.970472,,,TRUE,,,,,,,,CAVOK,,,,,,,,VFR,,,,,,,,,,,,METAR,50.0
LEBR 170830Z AUTO 32016KT 9999 NCD 16/02 Q1018,LEBR,2023-05-17T08:30:00Z,42.2,-1.43,16.0,2.0,320,16,,6.21,30.059055,,,TRUE,,,,,,,,CLR,,,,,,,,VFR,,,,,,,,,,,,METAR,347.0
LEBL 170830Z 33010G21KT 300V010 CAVOK 18/03 Q1014 NOSIG,LEBL,2023-05-17T08:30:00Z,41.28,2.07,18.0,3.0,330,10,21,6.21,29.940945,,,,,,TRUE,,,,,CAVOK,,,,,,,,VFR,,,,,,,,,,,,METAR,2.0
LEBG 170830Z 06020KT 030V090 9999 FEW025 10/02 Q1021,LEBG,2023-05-17T08:30:00Z,42.37,-3.62,10.0,2.0,60,20,,6.21,30.147638,,,,,,,,,,,FEW,2500,,,,,,,VFR,,,,,,,,,,,,METAR,892.0
LEBB 170830Z 06005KT 020V160 9999 SCT048 16/07 Q1024 NOSIG,LEBB,2023-05-17T08:30:00Z,43.28,-2.92,16.0,7.0,60,5,,6.21,30.236221,,,,,,TRUE,,,,,SCT,4800,,,,,,,VFR,,,,,,,,,,,,METAR,38.0
LEBA 170830Z VRB01KT CAVOK 21/M01 Q1012,LEBA,2023-05-17T08:30:00Z,37.85,-4.83,21.0,-1.0,0,1,,6.21,29.88189,,,,,,,,,,,CAVOK,,,,,,,,VFR,,,,,,,,,,,,METAR,88.0
LEAS 170830Z 11008KT 070V160 9999 FEW027 16/11 Q1024 NOSIG,LEAS,2023-05-17T08:30:00Z,43.57,-6.03,16.0,11.0,110,8,,6.21,30.236221,,,,,,TRUE,,,,,FEW,2700,,,,,,,VFR,,,,,,,,,,,,METAR,120.0
LEAO 170830Z 05009KT 010V100 CAVOK 13/M01 Q1015,LEAO,2023-05-17T08:30:00Z,38.95,-3.73,13.0,-1.0,50,9,,6.21,29.970472,,,,,,,,,,,CAVOK,,,,,,,,VFR,,,,,,,,,,,,METAR,621.0
LEAM 170830Z 06015KT 030V100 9999 FEW100 23/05 Q1012,LEAM,2023-05-17T08:30:00Z,36.85,-2.37,23.0,5.0,60,15,,6.21,29.88189,,,,,,,,,,,FEW,10000,,,,,,,VFR,,,,,,,,,,,,METAR,16.0
LEAL 170830Z 09019KT 9999 FEW028 21/09 Q1014 NOSIG,LEAL,2023-05-17T08:30:00Z,38.27,-0.55,21.0,9.0,90,19,,6.21,29.940945,,,,,,TRUE,,,,,FEW,2800,,,,,,,VFR,,,,,,,,,,,,METAR,26.0
LEAG 170830Z AUTO 14008KT 100V170 CAVOK 19/15 Q1012,LEAG,2023-05-17T08:30:00Z,36.12,-5.45,19.0,15.0,140,8,,6.21,29.88189,,,TRUE,,,,,,,,CAVOK,,,,,,,,VFR,,,,,,,,,,,,METAR,4.0
LEAB 170830Z 05004KT 360V130 CAVOK 15/02 Q1016 NOSIG,LEAB,2023-05-17T08:30:00Z,38.95,-1.85,15.0,2.0,50,4,,6.21,30.0,,,,,,TRUE,,,,,CAVOK,,,,,,,,VFR,,,,,,,,,,,,METAR,704.0
LDZD 170830Z 11014KT 070V150 9999 -RA FEW020 BKN040 16/11 Q1009 TEMPO RA,LDZD,2023-05-17T08:30:00Z,44.1,15.33,16.0,11.0,110,14,,6.21,29.793306,,,,,,,,,,-RA,FEW,2000,BKN,4000,,,,,VFR,,,,,,,,,,,,SPECI,82.0
LDZA 170830Z 06008KT 350V120 9999 -RA BKN026 13/10 Q1012 TEMPO SHRA FEW025TCU BKN027,LDZA,2023-05-17T08:30:00Z,45.72,16.07,13.0,10.0,60,8,,6.21,29.88189,,,,,,,,,,-RA,BKN,2600,,,,,,,MVFR,,,,,,,,,,,,SPECI,103.0
LDSP 170830Z 04006KT 8000 RA FEW012 SCT030 OVC040 14/13 Q1008 NOSIG,LDSP,2023-05-17T08:30:00Z,43.53,16.3,14.0,13.0,40,6,,4.97,29.763779,,,,,,TRUE,,,,RA,FEW,1200,SCT,3000,OVC,4000,,,MVFR,,,,,,,,,,,,METAR,16.0
LDSB 170830Z 11015KT 0050 -RA FG VV002 12/11 Q1009,LDSB,2023-05-17T08:30:00Z,43.28,16.68,12.0,11.0,110,15,,0.03,29.793306,,,,,,,,,,-RA FG,OVX,0,,,,,,,LIFR,,,,,,,,,,,200,METAR,525.0
LDRI 170830Z 02011KT 310V090 9999 FEW026 SCT036 BKN050 17/08 Q1010,LDRI,2023-05-17T08:30:00Z,45.22,14.57,17.0,8.0,20,11,,6.21,29.822834,,,,,,,,,,,FEW,2600,SCT,3600,BKN,5000,,,VFR,,,,,,,,,,,,METAR,80.0
LDPL 170830Z 07012KT 030V090 9999 FEW048 17/11 Q1009 NOSIG,LDPL,2023-05-17T08:30:00Z,44.88,13.92,17.0,11.0,70,12,,6.21,29.793306,,,,,,TRUE,,,,,FEW,4800,,,,,,,VFR,,,,,,,,,,,,METAR,63.0
LDOS 170830Z 28004KT 220V350 7000 FEW010 BKN027 17/13 Q1011,LDOS,2023-05-17T08:30:00Z,45.47,18.82,17.0,13.0,280,4,,4.35,29.852362,,,,,,,,,,,FEW,1000,BKN,2700,,,,,MVFR,,,,,,,,,,,,METAR,82.0
LDDU 170830Z 12011KT 9999 -RA SCT023 BKN030 15/13 Q1009 TEMPO RA,LDDU,2023-05-17T08:30:00Z,42.57,18.27,15.0,13.0,120,11,,6.21,29.793306,,,,,,,,,,-RA,SCT,2300,BKN,3000,,,,,MVFR,,,,,,,,,,,,SPECI,156.0
LCPH 170830Z 26005KT 230V320 9999 FEW080 29/15 Q1007 NOSIG,LCPH,2023-05-17T08:30:00Z,34.72,32.47,29.0,15.0,260,5,,6.21,29.734253,,,,,,TRUE,,,,,FEW,8000,,,,,,,VFR,,,,,,,,,,,,METAR,8.0
LCLK 170830Z 18010KT 140V210 CAVOK 32/08 Q1006 NOSIG,LCLK,2023-05-17T08:30:00Z,34.87,33.62,32.0,8.0,180,10,,6.21,29.704725,,,,,,TRUE,,,,,CAVOK,,,,,,,,VFR,,,,,,,,,,,,METAR,2.0
LBWN 170830Z 10012KT 9999 FEW040 OVC045 18/07 Q1012 NOSIG,LBWN,2023-05-17T08:30:00Z,43.22,27.82,18.0,7.0,100,12,,6.21,29.88189,,,,,,TRUE,,,,,FEW,4000,OVC,4500,,,,,VFR,,,,,,,,,,,,METAR,74.0
LBSF 170830Z VRB02KT 9999 SCT023 BKN030 16/12 Q1011 NOSIG,LBSF,2023-05-17T08:30:00Z,42.65,23.37,16.0,12.0,0,2,,6.21,29.852362,,,,,,TRUE,,,,,SCT,2300,BKN,3000,,,,,MVFR,,,,,,,,,,,,METAR,592.0
LBPD 170830Z AUTO 00000KT 5000 +SHRA OVC065/// 15/15 Q1011 TEMPO 4000 TSRA FEW030CB,LBPD,2023-05-17T08:30:00Z,42.05,24.85,15.0,15.0,0,0,,3.11,29.852362,,,TRUE,,,,,,,+SHRA,OVC,6500,,,,,,,MVFR,,,,,,,,,,,,SPECI,182.0
LBGO 170830Z AUTO 09007KT 9999 FEW220/// 19/14 Q1010 NOSIG,LBGO,2023-05-17T08:30:00Z,43.15,25.72,19.0,14.0,90,7,,6.21,29.822834,,,TRUE,,,TRUE,,,,,FEW,22000,,,,,,,VFR,,,,,,,,,,,,METAR,84.0
LBBG 170830Z VRB02KT 8000 -RA FEW010 SCT029 BKN049 15/13 Q1012 RERA NOSIG,LBBG,2023-05-17T08:30:00Z,42.57,27.52,15.0,13.0,0,2,,4.97,29.88189,,,,,,TRUE,,,,-RA,FEW,1000,SCT,2900,BKN,4900,,,MVFR,,,,,,,,,,,,METAR,41.0
KXBP 170830Z AUTO 00000KT 10SM CLR 14/14 A2997 RMK AO2 T01420142,KXBP,2023-05-17T08:30:00Z,33.18,-97.83,14.2,14.2,0,0,,10.0,29.970472,,,TRUE,TRUE,,,,,,,CLR,,,,,,,,VFR,,,,,,,,,,,,METAR,256.0
KX26 170830Z AUTO 20003KT 10SM OVC065 23/21 A2987 RMK AO2 TSNO T02260208,KX26,2023-05-17T08:30:00Z,27.82,-80.5,22.6,20.8,200,3,,10.0,29.870079,,,TRUE,TRUE,,,TRUE,,,,OVC,6500,,,,,,,VFR,,,,,,,,,,,,SPECI,5.0
KVVS 170830Z AUTO 24005KT 10SM SCT006 SCT014 OVC095 13/11 A2977 RMK AO2 T01300115,KVVS,2023-05-17T08:30:00Z,39.95,-79.65,13.0,11.5,240,5,,10.0,29.769686,,,TRUE,TRUE,,,,,,,SCT,600,SCT,1400,OVC,9500,,,VFR,,,,,,,,,,,,SPECI,386.0
KVES 170830Z AUTO 04005KT 10SM CLR 11/05 A2986 RMK AO2,KVES,2023-05-17T08:30:00Z,40.2,-84.53,11.0,5.0,40,5,,10.0,29.861221,,,TRUE,TRUE,,,,,,,CLR,,,,,,,,VFR,,,,,,,,,,,,SPECI,308.0
KULS 170830Z AUTO 13008KT 10SM CLR 13/12 A3002 RMK AO2,KULS,2023-05-17T08:30:00Z,37.6,-101.37,13.0,12.0,130,8,,10.0,30.02067,,,TRUE,TRUE,,,,,,,CLR,,,,,,,,VFR,,,,,,,,,,,,SPECI,934.0
KU68 170830Z AUTO 27011KT 10SM CLR 13/04 A3004 RMK AO2,KU68,2023-05-17T08:30:00Z,44.92,-108.45,13.0,4.0,270,11,,10.0,30.041338,,,TRUE,TRUE,,,,,,,CLR,,,,,,,,VFR,,,,,,,,,,,,SPECI,1244.0
KTCL 170830Z AUTO 00000KT 5SM BR BKN007 21/20 A2982 RMK AO2 CIG 003V008 T02060200,KTCL,2023-05-17T08:30:00Z,33.22,-87.62,20.6,20.0,0,0,,5.0,29.819881,,,TRUE,TRUE,,,,,,BR,BKN,700,,,,,,,IFR,,,,,,,,,,,,METAR,48.0
KSUT 170830Z AUTO 24005KT 10SM SCT017 SCT025 SCT035 21/19 A2975 RMK AO2 T02060185,KSUT,2023-05-17T08:30:00Z,33.93,-78.08,20.6,18.5,240,5,,10.0,29.749016,,,TRUE,TRUE,,,,,,,SCT,1700,SCT,2500,SCT,3500,,,VFR,,,,,,,,,,,,SPECI,6.0
KSUS 170830Z AUTO 00000KT 1/2SM R08R/2000VP6000FT FG VV005 13/13 A2989 RMK AO2 T01280128,KSUS,2023-05-17T08:30:00Z,38.65,-90.65,12.8,12.8,0,0,,0.5,29.890747,,,TRUE,TRUE,,,,,,FG,OVX,0,,,,,,,LIFR,,,,,,,,,,,500,SPECI,140.0
KSNH 170830Z AUTO 00000KT 10SM SCT015 BKN021 OVC090 20/20 A2984 RMK A01,KSNH,2023-05-17T08:30:00Z,35.17,-88.22,20.0,20.0,0,0,,10.0,29.840551,,,TRUE,TRUE,,,,,,,SCT,1500,BKN,2100,OVC,9000,,,MVFR,,,,,,,,,,,,SPECI,142.0
KSBA 170830Z 12005KT 2 1/2SM BR OVC002 14/13 A2997 RMK AO2 T01390128 $,KSBA,2023-05-17T08:30:00Z,34.43,-119.85,13.9,12.8,120,5,,2.5,29.970472,,,,TRUE,TRUE,,,,,BR,OVC,200,,,,,,,LIFR,,,,,,,,,,,,METAR,2.0
KS21 170830Z AUTO 00000KT 10SM FEW003 OVC100 08/06 A3020 RMK AO2,KS21,2023-05-17T08:30:00Z,43.88,-121.45,8.0,6.0,0,0,,10.0,30.200787,,,TRUE,TRUE,,,,,,,FEW,300,OVC,10000,,,,,VFR,,,,,,,,,,,,METAR,1269.0
KRHP 170830Z AUTO 00000KT 10SM BKN006 OVC009 17/17 A2984 RMK AO2 T01730166,KRHP,2023-05-17T08:30:00Z,35.18,-83.85,17.3,16.6,0,0,,10.0,29.840551,,,TRUE,TRUE,,,,,,,BKN,600,OVC,900,,,,,IFR,,,,,,,,,,,,SPECI,515.0
KRCZ 170830Z AUTO 22004KT 10SM CLR 19/18 A2973 RMK AO2 T01900184,KRCZ,2023-05-17T08:30:00Z,34.88,-79.77,19.0,18.4,220,4,,10.0,29.731298,,,TRUE,TRUE,,,,,,,CLR,,,,,,,,VFR,,,,,,,,,,,,SPECI,110.0
KQER 170830Z AUTO 16008G14KT 9999 FEW055 25/14 A2985 RMK A02 TSNO,KQER,2023-05-17T08:30:00Z,,,25.0,14.0,160,8,14,6.21,29.84941,,,TRUE,TRUE,,,TRUE,,,,FEW,5500,,,,,,,VFR,,,,,,,,,,,,METAR,
KOXR 170830Z AUTO 25005KT 1SM BR VV002 13/13 A2997 RMK AO2 T01330133,KOXR,2023-05-17T08:30:00Z,34.2,-119.2,13.3,13.3,250,5,,1.0,29.970472,,,TRUE,TRUE,,,,,,BR,OVX,0,,,,,,,LIFR,,,,,,,,,,,200,SPECI,12.0
KOLY 170830Z AUTO 31003KT 10SM CLR 14/13 A2988 RMK AO2 T01400133 PWINO,KOLY,2023-05-17T08:30:00Z,38.72,-88.18,14.0,13.3,310,3,,10.0,29.878937,,,TRUE,TRUE,,,,,TRUE,,CLR,,,,,,,,VFR,,,,,,,,,,,,SPECI,144.0
KMRC 170830Z AUTO 00000KT 10SM BKN012 OVC019 19/19 A2983 RMK A01,KMRC,2023-05-17T08:30:00Z,35.55,-87.18,19.0,19.0,0,0,,10.0,29.828741,,,TRUE,TRUE,,,,,,,BKN,1200,OVC,1900,,,,,MVFR,,,,,,,,,,,,SPECI,205.0
KMQI 170830Z AUTO 27013G18KT 10SM SCT110 21/18 A2965 RMK AO2 T02100182,KMQI,2023-05-17T08:30:00Z,35.92,-75.7,21.0,18.2,270,13,18,10.0,29.648623,,,TRUE,TRUE,,,,,,,SCT,11000,,,,,,,VFR,,,,,,,,,,,,SPECI,3.0
KM91 170830Z AUTO 35005KT 10SM OVC030 17/17 A2985 RMK A01,KM91,2023-05-17T08:30:00Z,36.53,-86.92,17.0,17.0,350,5,,10.0,29.84941,,,TRUE,TRUE,,,,,,,OVC,3000,,,,,,,MVFR,,,,,,,,,,,,SPECI,214.0
KM54 170830Z AUTO 36006KT 10SM SCT023 BKN030 OVC045 19/17 A2983 RMK A01,KM54,2023-05-17T08:30:00Z,36.18,-86.32,19.0,17.0,360,6,,10.0,29.828741,,,TRUE,TRUE,,,,,,,SCT,2300,BKN,3000,OVC,4500,,,MVFR,,,,,,,,,,,,SPECI,168.0
KM04 170830Z AUTO 02005KT 10SM OVC026 19/18 A2986 RMK A01,KM04,2023-05-17T08:30:00Z,35.58,-89.58,19.0,18.0,20,5,,10.0,29.861221,,,TRUE,TRUE,,,,,,,OVC,2600,,,,,,,MVFR,,,,,,,,,,,,SPECI,83.0
KLSF 170830Z AUTO 00000KT 7SM OVC002 20/19 A2980 RMK AO2 SLP094 $,KLSF,2023-05-17T08:30:00Z,32.32,-84.97,20.0,19.0,0,0,,7.0,29.799213,1009.4,,TRUE,TRUE,TRUE,,,,,,OVC,200,,,,,,,LIFR,,,,,,,,,,,,METAR,68.0
KLHZ 170830Z AUTO 26004KT 10SM SCT010 SCT060 18/18 A2970 RMK AO2,KLHZ,2023-05-17T08:30:00Z,36.02,-78.33,18.0,18.0,260,4,,10.0,29.698818,,,TRUE,TRUE,,,,,,,SCT,1000,SCT,6000,,,,,VFR,,,,,,,,,,,,SPECI,104.0
KIXA 170830Z AUTO 23004KT 10SM SCT060 BKN090 BKN110 17/17 A2967 RMK AO2,KIXA,2023-05-17T08:30:00Z,36.33,-77.63,17.0,17.0,230,4,,10.0,29.66929,,,TRUE,TRUE,,,,,,,SCT,6000,BKN,9000,BKN,11000,,,VFR,,,,,,,,,,,,SPECI,43.0
KITH 170830Z AUTO 35008KT 10SM SCT023 05/01 A2978 RMK AO2,KITH,2023-05-17T08:30:00Z,42.48,-76.45,5.0,1.0,350,8,,10.0,29.778543,,,TRUE,TRUE,,,,,,,SCT,2300,,,,,,,VFR,,,,,,,,,,,,SPECI,338.0
KHNZ 170830Z AUTO 00000KT 10SM CLR 17/17 A2968 RMK AO2 T01680167,KHNZ,2023-05-17T08:30:00Z,36.37,-78.53,16.8,16.7,0,0,,10.0,29.681103,,,TRUE,TRUE,,,,,,,CLR,,,,,,,,VFR,,,,,,,,,,,,SPECI,158.0
KGWW 170830Z AUTO 22005KT 10SM SCT047 19/19 A2969 RMK AO2 T01870187,KGWW,2023-05-17T08:30:00Z,35.47,-77.97,18.7,18.7,220,5,,10.0,29.68996,,,TRUE,TRUE,,,,,,,SCT,4700,,,,,,,VFR,,,,,,,,,,,,SPECI,40.0
KGOP 170830Z AUTO 00000KT 10SM CLR 17/17 A2994 RMK AO2,KGOP,2023-05-17T08:30:00Z,31.42,-97.8,17.0,17.0,0,0,,10.0,29.940945,,,TRUE,TRUE,,,,,,,CLR,,,,,,,,VFR,,,,,,,,,,,,METAR,272.0
KGNC 170830Z AUTO 32003KT 10SM CLR 19/12 A3009 RMK AO2 T01890117,KGNC,2023-05-17T08:30:00Z,32.68,-102.65,18.9,11.7,320,3,,10.0,30.088583,,,TRUE,TRUE,,,,,,,CLR,,,,,,,,VFR,,,,,,,,,,,,METAR,1002.0
KFSK 170830Z AUTO 26004KT 5SM BR CLR 14/13 A2997 RMK AO2 T01350134,KFSK,2023-05-17T08:30:00Z,37.8,-94.77,13.5,13.4,260,4,,5.0,29.970472,,,TRUE,TRUE,,,,,,BR,CLR,,,,,,,,MVFR,,,,,,,,,,,,SPECI,276.0
KFFA 170830Z AUTO 25010G18KT 220V280 10SM -DZ SCT017 SCT090 SCT110 20/19 A2963 RMK AO2 T02010186,KFFA,2023-05-17T08:30:00Z,36.02,-75.67,20.1,18.6,250,10,18,10.0,29.630905,,,TRUE,TRUE,,,,,,-DZ,SCT,1700,SCT,9000,SCT,11000,,,VFR,,,,,,,,,,,,SPECI,2.0
KEYF 170830Z AUTO 21005KT 10SM CLR 20/18 A2973 RMK AO2 T01960184,KEYF,2023-05-17T08:30:00Z,34.6,-78.58,19.6,18.4,210,5,,10.0,29.731298,,,TRUE,TRUE,,,,,,,CLR,,,,,,,,VFR,,,,,,,,,,,,SPECI,39.0
KEXX 170830Z AUTO 00000KT 5SM BR CLR 17/17 A2973 RMK AO2 T01710171,KEXX,2023-05-17T08:30:00Z,35.78,-80.3,17.1,17.1,0,0,,5.0,29.731298,,,TRUE,TRUE,,,,,,BR,CLR,,,,,,,,MVFR,,,,,,,,,,,,SPECI,221.0
KETN 170830Z AUTO 00000KT 10SM CLR 13/ A2996 RMK AO2 T0135////,KETN,2023-05-17T08:30:00Z,32.42,-98.82,13.5,,0,0,,10.0,29.958662,,,TRUE,TRUE,,,,,,,CLR,,,,,,,,VFR,,,,,,,,,,,,SPECI,445.0
KEDE 170830Z AUTO 25009KT 10SM BKN040 BKN047 21/21 A2966 RMK AO2 T02050205,KEDE,2023-05-17T08:30:00Z,36.03,-76.57,20.5,20.5,250,9,,10.0,29.660433,,,TRUE,TRUE,,,,,,,BKN,4000,BKN,4700,,,,,VFR,,,,,,,,,,,,SPECI,4.0
KEAN 170830Z AUTO 00000KT 10SM CLR 11/07 A3007 RMK AO2 T01060070,KEAN,2023-05-17T08:30:00Z,42.05,-104.93,10.6,7.0,0,0,,10.0,30.070866,,,TRUE,TRUE,,,,,,,CLR,,,,,,,,VFR,,,,,,,,,,,,METAR,1452.0
KDVK 170830Z AUTO 00000KT 3SM BR SCT004 11/11 A2989 RMK AO2,KDVK,2023-05-17T08:30:00Z,37.58,-84.77,11.0,11.0,0,0,,3.0,29.890747,,,TRUE,TRUE,,,,,,BR,SCT,400,,,,,,,MVFR,,,,,,,,,,,,SPECI,309.0
KCQB 170830Z AUTO 30003KT 10SM SCT027 OVC037 17/15 A2997 RMK AO2 T01660145,KCQB,2023-05-17T08:30:00Z,35.72,-96.82,16.6,14.5,300,3,,10.0,29.970472,,,TRUE,TRUE,,,,,,,SCT,2700,OVC,3700,,,,,VFR,,,,,,,,,,,,SPECI,298.0
KCGS 170830Z AUTO 30005KT 10SM CLR 18/11 A2964 RMK AO2 T01810114,KCGS,2023-05-17T08:30:00Z,38.98,-76.92,18.1,11.4,300,5,,10.0,29.639763,,,TRUE,TRUE,,,,,,,CLR,,,,,,,,VFR,,,,,,,,,,,,SPECI,15.0
KBMC 170830Z AUTO 00000KT 10SM CLR 13/06 A3012 RMK AO1 T01270056,KBMC,2023-05-17T08:30:00Z,41.55,-112.07,12.7,5.6,0,0,,10.0,30.121063,,,TRUE,TRUE,,,,,,,CLR,,,,,,,,VFR,,,,,,,,,,,,METAR,1289.0
KANK 170830Z AUTO 10SM CLR 08/03 A3034 RMK AO1 T00790029,KANK,2023-05-17T08:30:00Z,38.53,-106.05,7.9,2.9,,,,10.0,30.339567,,,TRUE,TRUE,,,,,,,CLR,,,,,,,,VFR,,,,,,,,,,,,METAR,2293.0
KAFP 170830Z AUTO 00000KT 10SM CLR 19/18 A2973 RMK AO2 T01890183,KAFP,2023-05-17T08:30:00Z,35.02,-80.08,18.9,18.3,0,0,,10.0,29.731298,,,TRUE,TRUE,,,,,,,CLR,,,,,,,,VFR,,,,,,,,,,,,SPECI,91.0
K9S9 170830Z AUTO 00000KT 10SM BKN080 OVC110 17/17 A3007 RMK AO2 PWINO,K9S9,2023-05-17T08:30:00Z,45.45,-119.68,17.0,17.0,0,0,,10.0,30.070866,,,TRUE,TRUE,,,,,TRUE,,BKN,8000,OVC,11000,,,,,VFR,,,,,,,,,,,,METAR,498.0
K48A 170830Z AUTO 27004KT 10SM CLR 20/19 A2982 RMK AO2 T01950190,K48A,2023-05-17T08:30:00Z,32.4,-83.27,19.5,19.0,270,4,,10.0,29.819881,,,TRUE,TRUE,,,,,,,CLR,,,,,,,,VFR,,,,,,,,,,,,SPECI,115.0
K2M2 170830Z AUTO 34003KT 10SM OVC038 19/18 A2984 RMK A01,K2M2,2023-05-17T08:30:00Z,35.23,-87.25,19.0,18.0,340,3,,10.0,29.840551,,,TRUE,TRUE,,,,,,,OVC,3800,,,,,,,VFR,,,,,,,,,,,,SPECI,286.0
K1A5 170830Z AUTO 00000KT 5SM BR OVC004 17/17 A2987 RMK AO2 T01670165,K1A5,2023-05-17T08:30:00Z,35.22,-83.42,16.7,16.5,0,0,,5.0,29.870079,,,TRUE,TRUE,,,,,,BR,OVC,400,,,,,,,LIFR,,,,,,,,,,,,SPECI,611.0
K19S 170830Z AUTO 13009KT 7SM CLR 14/ A3004 RMK AO2 T0138////,K19S,2023-05-17T08:30:00Z,37.48,-100.83,13.8,,130,9,,7.0,30.041338,,,TRUE,TRUE,,,,,,,CLR,,,,,,,,VFR,,,,,,,,,,,,SPECI,886.0
K05U 170830Z AUTO 01004KT 10SM BKN110 12/03 A3021 RMK A01,K05U,2023-05-17T08:30:00Z,39.6,-116.0,12.0,3.0,10,4,,10.0,30.209646,,,TRUE,TRUE,,,,,,,BKN,11000,,,,,,,VFR,,,,,,,,,,,,SPECI,1813.0
HRYR 170830Z 15008KT 120V190 9999 BKN025 24/17 Q1023 NOSIG,HRYR,2023-05-17T08:30:00Z,-1.97,30.13,24.0,17.0,150,8,,6.21,30.206694,,,,,,TRUE,,,,,BKN,2500,,,,,,,MVFR,,,,,,,,,,,,METAR,1493.0
HKKI 170830Z 22005KT 9999 FEW025CB 27/18 Q1019,HKKI,2023-05-17T08:30:00Z,-0.1,34.75,27.0,18.0,220,5,,6.21,30.088583,,,,,,,,,,,FEW,2500,,,,,,,VFR,,,,,,,,,,,,METAR,1152.0
HECA 170830Z 28005KT 4000 HZ NSC 30/15 Q1009 NOSIG,HECA,2023-05-17T08:30:00Z,30.12,31.4,30.0,15.0,280,5,,2.49,29.793306,,,,,,TRUE,,,,HZ,CLR,,,,,,,,IFR,,,,,,,,,,,,METAR,68.0
GQNO 170830Z 33010KT 8000 NSC 22/19 Q1012 NOSIG,GQNO,2023-05-17T08:30:00Z,18.3,-15.97,22.0,19.0,330,10,,4.97,29.88189,,,,,,TRUE,,,,,CLR,,,,,,,,MVFR,,,,,,,,,,,,METAR,1.0
GOBD 170830Z 34012KT 8000 FEW012 24/21 Q1013 NOSIG,GOBD,2023-05-17T08:30:00Z,14.67,-17.07,24.0,21.0,340,12,,4.97,29.911417,,,,,,TRUE,,,,,FEW,1200,,,,,,,MVFR,,,,,,,,,,,,METAR,90.0
GMTT 170830Z 16004KT 110V210 7000 SCT016 SCT023TCU 20/17 Q1012 NOSIG,GMTT,2023-05-17T08:30:00Z,35.72,-5.9,20.0,17.0,160,4,,4.35,29.88189,,,,,,TRUE,,,,,SCT,1600,SCT,2300,,,,,MVFR,,,,,,,,,,,,METAR,19.0
GMMX 170830Z 26009KT 230V290 9999 BKN023 17/12 Q1015 NOSIG,GMMX,2023-05-17T08:30:00Z,31.62,-8.03,17.0,12.0,260,9,,6.21,29.970472,,,,,,TRUE,,,,,BKN,2300,,,,,,,MVFR,,,,,,,,,,,,METAR,465.0
GMMN 170830Z 23012KT 180V270 9999 SCT013 SCT026 19/14 Q1012 NOSIG,GMMN,2023-05-17T08:30:00Z,33.37,-7.58,19.0,14.0,230,12,,6.21,29.88189,,,,,,TRUE,,,,,SCT,1300,SCT,2600,,,,,VFR,,,,,,,,,,,,METAR,196.0
GMME 170830Z 23009KT 210V270 5000 OVC016 20/14 Q1011 NOSIG,GMME,2023-05-17T08:30:00Z,34.05,-6.77,20.0,14.0,230,9,,3.11,29.852362,,,,,,TRUE,,,,,OVC,1600,,,,,,,MVFR,,,,,,,,,,,,METAR,84.0
GMFO 170830Z 34011KT 9999 BKN080 BKN160 19/05 Q1010 NOSIG,GMFO,2023-05-17T08:30:00Z,34.78,-1.92,19.0,5.0,340,11,,6.21,29.822834,,,,,,TRUE,,,,,BKN,8000,BKN,16000,,,,,VFR,,,,,,,,,,,,METAR,452.0
GMFF 170830Z 25008KT 9999 -RA BKN026 SCT100 14/13 Q1013 NOSIG,GMFF,2023-05-17T08:30:00Z,33.92,-4.97,14.0,13.0,250,8,,6.21,29.911417,,,,,,TRUE,,,,-RA,BKN,2600,SCT,10000,,,,,MVFR,,,,,,,,,,,,METAR,575.0
GMAD 170830Z 26014KT 8000 FEW016 20/14 Q1014 NOSIG,GMAD,2023-05-17T08:30:00Z,30.32,-9.42,20.0,14.0,260,14,,4.97,29.940945,,,,,,TRUE,,,,,FEW,1600,,,,,,,MVFR,,,,,,,,,,,,METAR,66.0
GLRB 170830Z 03004KT 9999 SCT016 28/26 Q1012 NOSIG,GLRB,2023-05-17T08:30:00Z,6.25,-10.35,28.0,26.0,30,4,,6.21,29.88189,,,,,,TRUE,,,,,SCT,1600,,,,,,,VFR,,,,,,,,,,,,METAR,12.0
GEML 170830Z 05008KT 360V100 CAVOK 20/14 Q1012,GEML,2023-05-17T08:30:00Z,35.27,-2.95,20.0,14.0,50,8,,6.21,29.88189,,,,,,,,,,,CAVOK,,,,,,,,VFR,,,,,,,,,,,,METAR,48.0
GECE 170830Z AUTO 12003KT 9999 -SHRA FEW014/// SCT028/// BKN062/// 19/16 Q1012,GECE,2023-05-17T08:30:00Z,35.88,-5.3,19.0,16.0,120,3,,6.21,29.88189,,,TRUE,,,,,,,-SHRA,FEW,1400,SCT,2800,BKN,6200,,,VFR,,,,,,,,,,,,METAR,2.0
GCXO 170830Z 31018KT 9000 FEW007 BKN015 15/14 Q1020 NOSIG,GCXO,2023-05-17T08:30:00Z,28.48,-16.35,15.0,14.0,310,18,,5.59,30.11811,,,,,,TRUE,,,,,FEW,700,BKN,1500,,,,,MVFR,,,,,,,,,,,,METAR,623.0
GCTS 170830Z 05005KT 020V090 9999 SCT042 21/13 Q1019 NOSIG,GCTS,2023-05-17T08:30:00Z,28.05,-16.57,21.0,13.0,50,5,,6.21,30.088583,,,,,,TRUE,,,,,SCT,4200,,,,,,,VFR,,,,,,,,,,,,METAR,59.0
GCRR 170830Z 01015KT 9999 FEW025 BKN040 21/13 Q1018,GCRR,2023-05-17T08:30:00Z,28.95,-13.58,21.0,13.0,10,15,,6.21,30.059055,,,,,,,,,,,FEW,2500,BKN,4000,,,,,VFR,,,,,,,,,,,,METAR,9.0
GCLP 170830Z 36018KT 9999 FEW030 22/13 Q1019 NOSIG,GCLP,2023-05-17T08:30:00Z,27.92,-15.38,22.0,13.0,360,18,,6.21,30.088583,,,,,,TRUE,,,,,FEW,3000,,,,,,,VFR,,,,,,,,,,,,METAR,16.0
GCLA 170830Z 03009KT 350V070 9999 FEW028 BKN055 21/15 Q1020,GCLA,2023-05-17T08:30:00Z,28.62,-17.75,21.0,15.0,30,9,,6.21,30.11811,,,,,,,,,,,FEW,2800,BKN,5500,,,,,VFR,,,,,,,,,,,,METAR,20.0
GCHI 170830Z 02019KT 9999 FEW025 21/15 Q1020,GCHI,2023-05-17T08:30:00Z,27.82,-17.88,21.0,15.0,20,19,,6.21,30.11811,,,,,,,,,,,FEW,2500,,,,,,,VFR,,,,,,,,,,,,METAR,21.0
GCGM 170830Z VRB14G29KT 9999 FEW030 21/11 Q1019 RMK R09/34010G23KT 260V050 ARP/01014G25KT 320V070,GCGM,2023-05-17T08:30:00Z,28.03,-17.22,21.0,11.0,0,14,29,6.21,30.088583,,,,,,,,,,,FEW,3000,,,,,,,VFR,,,,,,,,,,,,METAR,217.0
GCFV 170830Z 03015KT 9999 FEW025 SCT040 21/14 Q1018,GCFV,2023-05-17T08:30:00Z,28.43,-13.87,21.0,14.0,30,15,,6.21,30.059055,,,,,,,,,,,FEW,2500,SCT,4000,,,,,VFR,,,,,,,,,,,,METAR,11.0
GABS 170830Z 36006KT 330V030 CAVOK 30/20 Q1014 NOSIG,GABS,2023-05-17T08:30:00Z,12.53,-7.95,30.0,20.0,360,6,,6.21,29.940945,,,,,,TRUE,,,,,CAVOK,,,,,,,,VFR,,,,,,,,,,,,METAR,375.0
FMMI 170830Z 35007KT 310V030 9999 FEW020 26/13 Q1021 NOSIG,FMMI,2023-05-17T08:30:00Z,-18.8,47.47,26.0,13.0,350,7,,6.21,30.147638,,,,,,TRUE,,,,,FEW,2000,,,,,,,VFR,,,,,,,,,,,,METAR,1269.0
FMEP 170830Z AUTO 14008KT 110V170 9999 SCT024 SCT036 OVC140 28/22 Q1015 BECMG 28010KT,FMEP,2023-05-17T08:30:00Z,-21.32,55.42,28.0,22.0,140,8,,6.21,29.970472,,,TRUE,,,,,,,,SCT,2400,SCT,3600,OVC,14000,,,VFR,,,,,,,,,,,,METAR,21.0
FMEE 170830Z AUTO 34013KT 9999 BKN022/// BKN031/// OVC060/// ///CB 28/23 Q1015 TEMPO 3000 SHRA,FMEE,2023-05-17T08:30:00Z,-20.88,55.52,28.0,23.0,340,13,,6.21,29.970472,,,TRUE,,,,,,,,BKN,2200,BKN,3100,OVC,6000,,,MVFR,,,,,,,,,,,,METAR,20.0
FMCZ 170830Z AUTO 19010KT CAVOK 30/22 Q1015 NOSIG,FMCZ,2023-05-17T08:30:00Z,-12.8,45.27,30.0,22.0,190,10,,6.21,29.970472,,,TRUE,,,TRUE,,,,,CAVOK,,,,,,,,VFR,,,,,,,,,,,,METAR,7.0
FAOR 170830Z 30009KT 250V320 9999 FEW009 13/07 Q1024 NOSIG,FAOR,2023-05-17T08:30:00Z,-26.13,28.23,13.0,7.0,300,9,,6.21,30.236221,,,,,,TRUE,,,,,FEW,900,,,,,,,VFR,,,,,,,,,,,,METAR,1684.0
EPZG 170830Z 30008KT 260V330 9999 BKN022 OVC043 11/06 Q1021,EPZG,2023-05-17T08:30:00Z,52.13,15.77,11.0,6.0,300,8,,6.21,30.147638,,,,,,,,,,,BKN,2200,OVC,4300,,,,,MVFR,,,,,,,,,,,,METAR,59.0
EPWR 170830Z 32011KT 9999 FEW020 10/06 Q1020,EPWR,2023-05-17T08:30:00Z,51.1,16.88,10.0,6.0,320,11,,6.21,30.11811,,,,,,,,,,,FEW,2000,,,,,,,VFR,,,,,,,,,,,,METAR,118.0
EPWA 170830Z 34010KT 9999 -RA SCT007 BKN040 13/12 Q1016 TEMPO BKN008,EPWA,2023-05-17T08:30:00Z,52.17,20.97,13.0,12.0,340,10,,6.21,30.0,,,,,,,,,,-RA,SCT,700,BKN,4000,,,,,VFR,,,,,,,,,,,,SPECI,107.0
EPSY 170830Z 01003KT 330V030 9999 BKN026 11/07 Q1017,EPSY,2023-05-17T08:30:00Z,53.47,20.93,11.0,7.0,10,3,,6.21,30.029528,,,,,,,,,,,BKN,2600,,,,,,,MVFR,,,,,,,,,,,,METAR,136.0
EPSC 170830Z 30015KT 9999 BKN033 10/02 Q1020,EPSC,2023-05-17T08:30:00Z,53.58,14.9,10.0,2.0,300,15,,6.21,30.11811,,,,,,,,,,,BKN,3300,,,,,,,VFR,,,,,,,,,,,,METAR,47.0
EPRZ 170830Z 27005KT 6000 -RA FEW002 BKN005 16/15 Q1012,EPRZ,2023-05-17T08:30:00Z,50.1,22.02,16.0,15.0,270,5,,3.73,29.88189,,,,,,,,,,-RA,FEW,200,BKN,500,,,,,IFR,,,,,,,,,,,,METAR,206.0
EPRA 170830Z 01010KT 8000 RA BKN005 OVC010 12/12 Q1014,EPRA,2023-05-17T08:30:00Z,51.38,21.22,12.0,12.0,10,10,,4.97,29.940945,,,,,,,,,,RA,BKN,500,OVC,1000,,,,,IFR,,,,,,,,,,,,METAR,182.0
EPPO 170830Z 29010KT 9999 BKN026 11/05 Q1019,EPPO,2023-05-17T08:30:00Z,52.42,16.83,11.0,5.0,290,10,,6.21,30.088583,,,,,,,,,,,BKN,2600,,,,,,,MVFR,,,,,,,,,,,,METAR,87.0
EPMO 170830Z 32009KT 290V350 8000 BKN006 11/11 Q1017,EPMO,2023-05-17T08:30:00Z,52.45,20.65,11.0,11.0,320,9,,4.97,30.029528,,,,,,,,,,,BKN,600,,,,,,,IFR,,,,,,,,,,,,METAR,102.0
EPLL 170830Z 31009KT 270V350 9999 FEW009 BKN014 11/09 Q1017,EPLL,2023-05-17T08:30:00Z,51.72,19.4,11.0,9.0,310,9,,6.21,30.029528,,,,,,,,,,,FEW,900,BKN,1400,,,,,MVFR,,,,,,,,,,,,METAR,176.0
EPLB 170830Z 03003KT 9999 SCT006 BKN009 SCT022CB 16/15 Q1013,EPLB,2023-05-17T08:30:00Z,51.23,22.72,16.0,15.0,30,3,,6.21,29.911417,,,,,,,,,,,SCT,600,BKN,900,SCT,2200,,,IFR,,,,,,,,,,,,METAR,206.0
EPKT 170830Z 34011KT 2900 -RADZ BR SCT003 OVC004 09/08 Q1016,EPKT,2023-05-17T08:30:00Z,50.47,19.08,9.0,8.0,340,11,,1.8,30.0,,,,,,,,,,-RA -DZ BR,SCT,300,OVC,400,,,,,LIFR,,,,,,,,,,,,METAR,296.0
EPKK 170830Z 32005KT 290V010 4000 -RA BR SCT004 OVC009 12/11 Q1015 RERA,EPKK,2023-05-17T08:30:00Z,50.07,19.8,12.0,11.0,320,5,,2.49,29.970472,,,,,,,,,,-RA BR,SCT,400,OVC,900,,,,,IFR,,,,,,,,,,,,METAR,237.0
EPGD 170830Z 26013KT 9999 BKN025 10/03 Q1017,EPGD,2023-05-17T08:30:00Z,54.37,18.47,10.0,3.0,260,13,,6.21,30.029528,,,,,,,,,,,BKN,2500,,,,,,,MVFR,,,,,,,,,,,,METAR,136.0
EPBY 170830Z 29011KT 250V320 9999 BKN026 12/06 Q1018,EPBY,2023-05-17T08:30:00Z,53.1,18.0,12.0,6.0,290,11,,6.21,30.059055,,,,,,,,,,,BKN,2600,,,,,,,MVFR,,,,,,,,,,,,METAR,66.0
EIWF 170830Z VRB01KT CAVOK 13/08 Q1031,EIWF,2023-05-17T08:30:00Z,52.18,-7.08,13.0,8.0,0,1,,6.21,30.442913,,,,,,,,,,,CAVOK,,,,,,,,VFR,,,,,,,,,,,,METAR,26.0
EISG 170830Z 19004KT 130V240 CAVOK 12/07 Q1029,EISG,2023-05-17T08:30:00Z,54.28,-8.6,12.0,7.0,190,4,,6.21,30.383858,,,,,,,,,,,CAVOK,,,,,,,,VFR,,,,,,,,,,,,METAR,1.0
EINN 170830Z 14005KT 9999 FEW020 BKN190 12/08 Q1030 NOSIG,EINN,2023-05-17T08:30:00Z,52.7,-8.92,12.0,8.0,140,5,,6.21,30.413385,,,,,,TRUE,,,,,FEW,2000,BKN,19000,,,,,VFR,,,,,,,,,,,,METAR,20.0
EIME 170830Z 25007KT CAVOK 14/10 Q1029,EIME,2023-05-17T08:30:00Z,53.3,-6.45,14.0,10.0,250,7,,6.21,30.383858,,,,,,,,,,,CAVOK,,,,,,,,VFR,,,,,,,,,,,,METAR,90.0
EIKN 170830Z 21006KT 150V250 9999 FEW018 BKN190 11/07 Q1029 NOSIG,EIKN,2023-05-17T08:30:00Z,53.92,-8.82,11.0,7.0,210,6,,6.21,30.383858,,,,,,TRUE,,,,,FEW,1800,BKN,19000,,,,,VFR,,,,,,,,,,,,METAR,201.0
EIDW 170830Z 26006KT 220V290 9999 FEW018 BKN200 14/08 Q1030 NOSIG,EIDW,2023-05-17T08:30:00Z,53.42,-6.28,14.0,8.0,260,6,,6.21,30.413385,,,,,,TRUE,,,,,FEW,1800,BKN,20000,,,,,VFR,,,,,,,,,,,,METAR,75.0
EIDL 170830Z 22013KT 9999 FEW014 12/05 Q1029,EIDL,2023-05-17T08:30:00Z,55.05,-8.33,12.0,5.0,220,13,,6.21,30.383858,,,,,,,,,,,FEW,1400,,,,,,,VFR,,,,,,,,,,,,METAR,2.0
EICK 170830Z 16002KT 9999 FEW045 BKN200 13/06 Q1030 NOSIG,EICK,2023-05-17T08:30:00Z,51.85,-8.47,13.0,6.0,160,2,,6.21,30.413385,,,,,,TRUE,,,,,FEW,4500,BKN,20000,,,,,VFR,,,,,,,,,,,,METAR,158.0
DTTJ 170830Z 08017KT CAVOK 23/08 Q1014 NOSIG,DTTJ,2023-05-17T08:30:00Z,33.87,10.77,23.0,8.0,80,17,,6.21,29.940945,,,,,,TRUE,,,,,CAVOK,,,,,,,,VFR,,,,,,,,,,,,METAR,3.0
DTTA 170830Z 27013KT 200V340 9999 SCT026 22/11 Q1014,DTTA,2023-05-17T08:30:00Z,36.85,10.22,22.0,11.0,270,13,,6.21,29.940945,,,,,,,,,,,SCT,2600,,,,,,,VFR,,,,,,,,,,,,METAR,4.0
DTNH 170830Z AUTO 29010KT 260V330 /// 22/08 Q1014,DTNH,2023-05-17T08:30:00Z,36.07,10.43,22.0,8.0,290,10,,,29.940945,,,TRUE,,,,,,,,,,,,,,,,,,,,,,,,,,,,METAR,1.0
DTMB 170830Z 30008KT 280V340 9999 FEW026 22/09 Q1014,DTMB,2023-05-17T08:30:00Z,35.77,10.75,22.0,9.0,300,8,,6.21,29.940945,,,,,,,,,,,FEW,2600,,,,,,,VFR,,,,,,,,,,,,METAR,1.0
DIAP 170830Z 24006KT 9999 SCT013 29/28 Q1012 NOSIG,DIAP,2023-05-17T08:30:00Z,5.25,-3.92,29.0,28.0,240,6,,6.21,29.88189,,,,,,TRUE,,,,,SCT,1300,,,,,,,VFR,,,,,,,,,,,,METAR,4.0
DAOO 170830Z 03007KT 9999 BKN023 19/07 Q1010,DAOO,2023-05-17T08:30:00Z,35.62,-0.62,19.0,7.0,30,7,,6.21,29.822834,,,,,,,,,,,BKN,2300,,,,,,,MVFR,,,,,,,,,,,,METAR,87.0
DAON 170830Z 35005KT 9999 SCT026 SCT233 20/01 Q1010,DAON,2023-05-17T08:30:00Z,35.02,-1.47,20.0,1.0,350,5,,6.21,29.822834,,,,,,,,,,,SCT,2600,SCT,23300,,,,,VFR,,,,,,,,,,,,METAR,245.0
DABC 170830Z VRB02KT 9999 FEW033 SCT233 16/07 Q1016,DABC,2023-05-17T08:30:00Z,36.27,6.62,16.0,7.0,0,2,,6.21,30.0,,,,,,,,,,,FEW,3300,SCT,23300,,,,,VFR,,,,,,,,,,,,METAR,686.0
DABB 170830Z 03003KT 310V110 9999 FEW020 21/12 Q1015,DABB,2023-05-17T08:30:00Z,36.82,7.82,21.0,12.0,30,3,,6.21,29.970472,,,,,,,,,,,FEW,2000,,,,,,,VFR,,,,,,,,,,,,METAR,3.0
DAAT 170830Z 13010KT 100V160 3000 HZ NSC 28/M05 Q1019,DAAT,2023-05-17T08:30:00Z,22.82,5.47,28.0,-5.0,130,10,,1.86,30.088583,,,,,,,,,,HZ,CLR,,,,,,,,IFR,,,,,,,,,,,,METAR,1376.0
DAAG 170830Z 06009KT 040V110 9999 FEW023 BKN200 21/12 Q1014,DAAG,2023-05-17T08:30:00Z,36.68,3.22,21.0,12.0,60,9,,6.21,29.940945,,,,,,,,,,,FEW,2300,BKN,20000,,,,,VFR,,,,,,,,,,,,METAR,18.0
CYQI 170830Z 35011KT 9SM FEW009 FEW018 OVC110 08/07 A2947 RMK SF1SC2AC5 SLP982,CYQI,2023-05-17T08:30:00Z,43.83,-66.08,8.0,7.0,350,11,,9.0,29.471457,998.2,,,,,,,,,,FEW,900,FEW,1800,OVC,11000,,,VFR,,,,,,,,,,,,SPECI,37.0
CWPF 170830Z AUTO 19003KT 14/10 RMK AO1 SLP168 T01370102 58001,CWPF,2023-05-17T08:30:00Z,48.43,-123.43,13.7,10.2,190,3,,,,1016.8,,TRUE,TRUE,,,,,,,,,,,,,,,,-0.1,,,,,,,,,,,METAR,5.0
BKPR 170830Z 08003KT 050V180 9999 FEW045 18/12 Q1011 NOSIG,BKPR,2023-05-17T08:30:00Z,42.58,21.03,18.0,12.0,80,3,,6.21,29.852362,,,,,,TRUE,,,,,FEW,4500,,,,,,,VFR,,,,,,,,,,,,METAR,545.0
BIKF 170830Z 25007KT 190V260 9999 VCSH FEW010 BKN022 08/05 Q1008,BIKF,2023-05-17T08:30:00Z,63.98,-22.6,8.0,5.0,250,7,,6.21,29.763779,,,,,,,,,,VCSH,FEW,1000,BKN,2200,,,,,MVFR,,,,,,,,,,,,METAR,49.0
UTO8 M M M 076/-05/-07/2723+29/M/M PK WND 2729 0755Z SOG 72 5002 10MM,UTO8,2023-05-17T08:29:00Z,,,,,,,,3.11,,,,,,,,,,,,,,,,,,,,,,,,,,,,,,,,SPECI,
PFKT 170829Z AUTO 02016G22KT 5SM -SN BR M02/M04 A3001 RMK AO2 P0000 FZRANO $,PFKT,2023-05-17T08:29:00Z,65.33,-166.47,-2.0,-4.0,20,16,22,5.0,30.008858,,,TRUE,TRUE,TRUE,,,TRUE,,-SN BR,,,,,,,,,,,,,,,0.005,,,,,,SPECI,8.0
PAVL 170829Z AUTO 06010KT 10SM OVC014 01/00 A2998 RMK AO2 T00110000 TSNO,PAVL,2023-05-17T08:29:00Z,67.73,-164.55,1.1,0.0,60,10,,10.0,29.97933,,,TRUE,TRUE,,,TRUE,,,,OVC,1400,,,,,,,MVFR,,,,,,,,,,,,SPECI,6.0
LTBS 170829Z 05008KT 360V100 9999 -SHRA SCT025 BKN100 21/17 Q1009 BECMG 22012KT RMK RWY19 VRB04KT 3CU025 6AC100,LTBS,2023-05-17T08:29:00Z,36.7,28.78,21.0,17.0,50,8,,6.21,29.793306,,,,,,,,,,-SHRA,SCT,2500,BKN,10000,,,,,VFR,,,,,,,,,,,,METAR,2.0
KNTD 170829Z AUTO 00000KT 3/4SM BR OVC003 13/13 A2998 RMK AO2 T01330133 $,KNTD,2023-05-17T08:29:00Z,34.12,-119.12,13.3,13.3,0,0,,0.75,29.97933,,,TRUE,TRUE,TRUE,,,,,BR,OVC,300,,,,,,,LIFR,,,,,,,,,,,,SPECI,1.0
KMTN 170829Z AUTO 28006KT 10SM CLR 16/12 A2963 RMK AO2,KMTN,2023-05-17T08:29:00Z,39.32,-76.42,16.0,12.0,280,6,,10.0,29.630905,,,TRUE,TRUE,,,,,,,CLR,,,,,,,,VFR,,,,,,,,,,,,SPECI,2.0
KFME 170829Z AUTO 00000KT CLR 15/12 A2966 RMK AO1,KFME,2023-05-17T08:29:00Z,39.08,-76.77,15.0,12.0,0,0,,,29.660433,,,TRUE,TRUE,,,,,,,CLR,,,,,,,,,,,,,,,,,,,,METAR,43.0
PACM 170828Z AUTO 25008KT SCT009 OVC030 01/ A2992 RMK AO2 PWINO FZRANO $,PACM,2023-05-17T08:28:00Z,61.85,-165.57,1.0,,250,8,,,29.920275,,,TRUE,TRUE,TRUE,,,TRUE,TRUE,,SCT,900,OVC,3000,,,,,,,,,,,,,,,,,SPECI,3.0
KSMX 170828Z AUTO 31003KT 5SM BR OVC002 12/12 A2999 RMK AO2 T01170117,KSMX,2023-05-17T08:28:00Z,34.9,-120.45,11.7,11.7,310,3,,5.0,29.991142,,,TRUE,TRUE,,,,,,BR,OVC,200,,,,,,,LIFR,,,,,,,,,,,,SPECI,73.0
KOQT 170828Z AUTO 00000KT 10SM BKN026 BKN030 OVC034 18/17 A2983 RMK AO2 T01830172,KOQT,2023-05-17T08:28:00Z,36.02,-84.23,18.3,17.2,0,0,,10.0,29.828741,,,TRUE,TRUE,,,,,,,BKN,2600,BKN,3000,OVC,3400,,,MVFR,,,,,,,,,,,,METAR,276.0
KNBT 170828Z AUTO 28006KT 10SM BKN029 BKN036 26/20 A2969 RMK AO2 T02560200,KNBT,2023-05-17T08:28:00Z,35.02,-76.47,25.6,20.0,280,6,,10.0,29.68996,,,TRUE,TRUE,,,,,,,BKN,2900,BKN,3600,,,,,MVFR,,,,,,,,,,,,SPECI,5.0
KHUT 170828Z AUTO 00000KT 6SM BR SCT100 10/09 A3000 RMK AO2 T01000094,KHUT,2023-05-17T08:28:00Z,38.07,-97.87,10.0,9.4,0,0,,6.0,30.0,,,TRUE,TRUE,,,,,,BR,SCT,10000,,,,,,,VFR,,,,,,,,,,,,SPECI,464.0
KBOK 170828Z AUTO 00000KT 3SM BR OVC002 11/11 A3005 RMK AO2,KBOK,2023-05-17T08:28:00Z,42.07,-124.28,11.0,11.0,0,0,,3.0,30.050198,,,TRUE,TRUE,,,,,,BR,OVC,200,,,,,,,LIFR,,,,,,,,,,,,SPECI,140.0
CYVP 170828Z 34007KT 4SM -FZDZ -SHSN BKN009 OVC016 M03/M03 A2965 RMK SN2SF4SC2 CVCTV CLD EMBD SLP044,CYVP,2023-05-17T08:28:00Z,58.12,-68.42,-3.0,-3.0,340,7,,4.0,29.648623,1004.4,,,,,,,,,-FZDZ -SHSN,BKN,900,OVC,1600,,,,,IFR,,,,,,,,,,,,SPECI,28.0
CYRJ 170828Z 31011KT 25SM BKN082 M01/M07 A2974 RMK AC7 SLP079,CYRJ,2023-05-17T08:28:00Z,48.52,-72.27,-1.0,-7.0,310,11,,25.0,29.740158,1007.9,,,,,,,,,,BKN,8200,,,,,,,VFR,,,,,,,,,,,,SPECI,173.0
PAIW 170827Z AUTO 01018KT 3SM -SN BR OVC010 M04/M06 A3009 RMK AO2 CIG 008V015 P0000 FZRANO,PAIW,2023-05-17T08:27:00Z,65.62,-168.1,-4.0,-6.0,10,18,,3.0,30.088583,,,TRUE,TRUE,,,,TRUE,,-SN BR,OVC,1000,,,,,,,MVFR,,,,,,0.005,,,,,,SPECI,6.0
KPHF 170827Z AUTO 27009KT 10SM BKN011 OVC080 19/18 A2963 RMK AO2 T01890183,KPHF,2023-05-17T08:27:00Z,37.13,-76.5,18.9,18.3,270,9,,10.0,29.630905,,,TRUE,TRUE,,,,,,,BKN,1100,OVC,8000,,,,,MVFR,,,,,,,,,,,,SPECI,12.0
KHNB 170827Z AUTO 00000KT 4SM BR CLR 12/12 A2988 RMK AO2,KHNB,2023-05-17T08:27:00Z,38.25,-86.95,12.0,12.0,0,0,,4.0,29.878937,,,TRUE,TRUE,,,,,,BR,CLR,,,,,,,,MVFR,,,,,,,,,,,,SPECI,159.0
KGKJ 170827Z AUTO 02008KT 10SM OVC015 08/04 A2980 RMK AO2 T00780044,KGKJ,2023-05-17T08:27:00Z,41.63,-80.22,7.8,4.4,20,8,,10.0,29.799213,,,TRUE,TRUE,,,,,,,OVC,1500,,,,,,,MVFR,,,,,,,,,,,,SPECI,428.0
KBTV 170827Z AUTO 01012G24KT 10SM FEW023 SCT028 BKN070 05/M03 A2974 RMK AO2 T00501028,KBTV,2023-05-17T08:27:00Z,44.47,-73.15,5.0,-2.8,10,12,24,10.0,29.740158,,,TRUE,TRUE,,,,,,,FEW,2300,SCT,2800,BKN,7000,,,VFR,,,,,,,,,,,,SPECI,101.0
KBKE 170827Z AUTO 00000KT 3SM BR CLR 08/08 A3011 RMK AO2 T00830078 $,KBKE,2023-05-17T08:27:00Z,44.85,-117.82,8.3,7.8,0,0,,3.0,30.109253,,,TRUE,TRUE,TRUE,,,,,BR,CLR,,,,,,,,MVFR,,,,,,,,,,,,SPECI,1025.0
KAKQ 170827Z AUTO 27005KT 8SM -RA OVC009 19/18 A2965 RMK AO2 RAB25 CIG 006V012 P0000 T01940183,KAKQ,2023-05-17T08:27:00Z,36.98,-77.0,19.4,18.3,270,5,,8.0,29.648623,,,TRUE,TRUE,,,,,,-RA,OVC,900,,,,,,,IFR,,,,,,0.005,,,,,,SPECI,34.0
CYVO 170827Z AUTO 33010G19KT 9SM OVC044 M04/M10 A2994 RMK SLP162,CYVO,2023-05-17T08:27:00Z,48.07,-77.77,-4.0,-10.0,330,10,19,9.0,29.940945,1016.2,,TRUE,,,,,,,,OVC,4400,,,,,,,VFR,,,,,,,,,,,,SPECI,329.0
CYCA 170827Z AUTO 11009G15KT 5SM -SN BKN025 OVC034 M00/M01 A2949 RMK SLP989,CYCA,2023-05-17T08:27:00Z,53.68,-57.03,0.0,-1.0,110,9,15,5.0,29.489174,998.9,,TRUE,,,,,,,-SN,BKN,2500,OVC,3400,,,,,MVFR,,,,,,,,,,,,SPECI,12.0
KNKT 170826Z 24004KT 10SM SCT028 22/21 A2970 RMK AO2 T02170211,KNKT,2023-05-17T08:26:00Z,34.9,-76.88,21.7,21.1,240,4,,10.0,29.698818,,,,TRUE,,,,,,,SCT,2800,,,,,,,VFR,,,,,,,,,,,,SPECI,8.0
KHEY 170826Z AUTO 00000KT 3/8SM FG VV000 19/19 A2980 RMK AO2 SLP091 RVRNO,KHEY,2023-05-17T08:26:00Z,31.35,-85.65,19.0,19.0,0,0,,0.38,29.799213,1009.1,,TRUE,TRUE,,,,,,FG,OVX,0,,,,,,,LIFR,,,,,,,,,,,0,SPECI,95.0
BGTL 170826Z AUTO 13003KT 9999 SCT013 M04/M09 A2941 RMK AO2 UPE05 SLP945 TSNO $,BGTL,2023-05-17T08:26:00Z,76.53,-68.75,-4.0,-9.0,130,3,,6.21,29.409449,994.5,,TRUE,TRUE,TRUE,,TRUE,,,,SCT,1300,,,,,,,VFR,,,,,,,,,,,,SPECI,79.0
PGUA 170825Z AUTO 06013KT 10SM SCT016 BKN026 OVC032 28/23 A2989 RMK AO2 CIG 016 RWY24L SLP112 $,PGUA,2023-05-17T08:25:00Z,13.57,144.92,28.0,23.0,60,13,,10.0,29.890747,1011.2,,TRUE,TRUE,TRUE,,,,,,SCT,1600,BKN,2600,OVC,3200,,,MVFR,,,,,,,,,,,,SPECI,159.0
PATO 170825Z AUTO VRB06KT 10SM FEW013 BKN028 OVC034 07/05 A3027 RMK AO2 T00670050 TSNO,PATO,2023-05-17T08:25:00Z,60.78,-148.85,6.7,5.0,0,6,,10.0,30.268702,,,TRUE,TRUE,,,TRUE,,,,FEW,1300,BKN,2800,OVC,3400,,,MVFR,,,,,,,,,,,,SPECI,47.0
PADU 170825Z AUTO 26008KT 9SM -RA BKN014 OVC023 02/00 A3024 RMK AO2 UPB03E10RAB10 P0000 FZRANO,PADU,2023-05-17T08:25:00Z,53.9,-166.53,2.0,0.0,260,8,,9.0,30.239174,,,TRUE,TRUE,,,,TRUE,,-RA,BKN,1400,OVC,2300,,,,,MVFR,,,,,,0.005,,,,,,SPECI,4.0
OPPS 170825Z 05010KT 5000 HZ FEW040 FEW100 SCT200 35/14 Q1007,OPPS,2023-05-17T08:25:00Z,33.98,71.52,35.0,14.0,50,10,,3.11,29.734253,,,,,,,,,,HZ,FEW,4000,FEW,10000,SCT,20000,,,MVFR,,,,,,,,,,,,METAR,356.0
OPLA 170825Z 33006KT 5000 HZ FEW100 40/10 Q1005 NOSIG RMK QFE980 A29.70,OPLA,2023-05-17T08:25:00Z,31.52,74.4,40.0,10.0,330,6,,3.11,29.675198,,,,,,TRUE,,,,HZ,FEW,10000,,,,,,,MVFR,,,,,,,,,,,,METAR,217.0
KWAL 170825Z AUTO 00000KT 4SM RA BR BKN043 OVC055 18/17 A2961 RMK AO2 P0010 T01780167,KWAL,2023-05-17T08:25:00Z,37.93,-75.47,17.8,16.7,0,0,,4.0,29.610237,,,TRUE,TRUE,,,,,,RA BR,BKN,4300,OVC,5500,,,,,MVFR,,,,,,0.1,,,,,,SPECI,10.0
KW40 170825Z AUTO 23006KT 7SM BR SCT120 20/20 A2969 RMK AO2 T02030197,KW40,2023-05-17T08:25:00Z,35.22,-78.03,20.3,19.7,230,6,,7.0,29.68996,,,TRUE,TRUE,,,,,,BR,SCT,12000,,,,,,,VFR,,,,,,,,,,,,SPECI,50.0
KW29 170825Z AUTO 32003KT 10SM CLR 19/14 A2962 RMK AO2 T01870140,KW29,2023-05-17T08:25:00Z,38.98,-76.33,18.7,14.0,320,3,,10.0,29.619095,,,TRUE,TRUE,,,,,,,CLR,,,,,,,,VFR,,,,,,,,,,,,SPECI,1.0
KVUJ 170825Z AUTO 22003KT 10SM CLR 17/17 A2977 RMK AO2 T01730169,KVUJ,2023-05-17T08:25:00Z,35.42,-80.15,17.3,16.9,220,3,,10.0,29.769686,,,TRUE,TRUE,,,,,,,CLR,,,,,,,,VFR,,,,,,,,,,,,SPECI,174.0
KUKF 170825Z AUTO 32003KT 10SM CLR 16/16 A2980 RMK AO2,KUKF,2023-05-17T08:25:00Z,36.22,-81.1,16.0,16.0,320,3,,10.0,29.799213,,,TRUE,TRUE,,,,,,,CLR,,,,,,,,VFR,,,,,,,,,,,,SPECI,383.0
KTTA 170825Z AUTO 24003KT 10SM SCT095 19/19 A2971 RMK AO2 T01850185,KTTA,2023-05-17T08:25:00Z,35.58,-79.1,18.5,18.5,240,3,,10.0,29.71063,,,TRUE,TRUE,,,,,,,SCT,9500,,,,,,,VFR,,,,,,,,,,,,SPECI,71.0
KTDF 170825Z AUTO 28004KT 10SM CLR 17/16 A2972 RMK AO2,KTDF,2023-05-17T08:25:00Z,36.28,-78.98,17.0,16.0,280,4,,10.0,29.719488,,,TRUE,TRUE,,,,,,,CLR,,,,,,,,VFR,,,,,,,,,,,,SPECI,180.0
KSVH 170825Z AUTO 00000KT 7SM CLR 17/17 A2973 RMK AO2 T01710165,KSVH,2023-05-17T08:25:00Z,35.75,-80.95,17.1,16.5,0,0,,7.0,29.731298,,,TRUE,TRUE,,,,,,,CLR,,,,,,,,VFR,,,,,,,,,,,,SPECI,286.0
KSIF 170825Z AUTO 00000KT 7SM SCT075 17/17 A2972 RMK AO2 T01700166,KSIF,2023-05-17T08:25:00Z,36.43,-79.85,17.0,16.6,0,0,,7.0,29.719488,,,TRUE,TRUE,,,,,,,SCT,7500,,,,,,,VFR,,,,,,,,,,,,SPECI,206.0
KSCR 170825Z AUTO 00000KT 10SM CLR 18/18 A2972 RMK AO2 T01800180,KSCR,2023-05-17T08:25:00Z,35.7,-79.5,18.0,18.0,0,0,,10.0,29.719488,,,TRUE,TRUE,,,,,,,CLR,,,,,,,,VFR,,,,,,,,,,,,SPECI,182.0
KRUQ 170825Z AUTO 21003KT 3SM BR CLR 17/16 A2973 RMK AO2 T01660163,KRUQ,2023-05-17T08:25:00Z,35.65,-80.52,16.6,16.3,210,3,,3.0,29.731298,,,TRUE,TRUE,,,,,,BR,CLR,,,,,,,,MVFR,,,,,,,,,,,,SPECI,231.0
KPOE 170825Z AUTO 34004KT 10SM SCT031 BKN040 OVC160 21/20 A2987 RMK AO2 SLP114,KPOE,2023-05-17T08:25:00Z,31.05,-93.2,21.0,20.0,340,4,,10.0,29.870079,1011.4,,TRUE,TRUE,,,,,,,SCT,3100,BKN,4000,OVC,16000,,,VFR,,,,,,,,,,,,SPECI,98.0
KPGV 170825Z AUTO 26003KT 10SM SCT120 19/19 A2967 RMK AO2,KPGV,2023-05-17T08:25:00Z,35.63,-77.4,19.0,19.0,260,3,,10.0,29.66929,,,TRUE,TRUE,,,,,,,SCT,12000,,,,,,,VFR,,,,,,,,,,,,METAR,6.0
KONX 170825Z AUTO 25008G14KT 10SM SCT013 BKN060 OVC110 20/20 A2963 RMK AO2 T01970197,KONX,2023-05-17T08:25:00Z,36.4,-76.02,19.7,19.7,250,8,14,10.0,29.630905,,,TRUE,TRUE,,,,,,,SCT,1300,BKN,6000,OVC,11000,,,VFR,,,,,,,,,,,,SPECI,4.0
KOCW 170825Z AUTO 22007KT 10SM CLR 20/18 A2967 RMK AO2 T01960181,KOCW,2023-05-17T08:25:00Z,35.57,-77.05,19.6,18.1,220,7,,10.0,29.66929,,,TRUE,TRUE,,,,,,,CLR,,,,,,,,VFR,,,,,,,,,,,,SPECI,10.0
KO05 170825Z AUTO 30005KT 10SM SCT032 BKN039 BKN055 09/01 A3016 RMK A01,KO05,2023-05-17T08:25:00Z,40.28,-121.23,9.0,1.0,300,5,,10.0,30.159449,,,TRUE,TRUE,,,,,,,SCT,3200,BKN,3900,BKN,5500,,,VFR,,,,,,,,,,,,METAR,1380.0
KMRN 170825Z AUTO 00000KT 10SM CLR 17/16 A2976 RMK AO2 T01700164,KMRN,2023-05-17T08:25:00Z,35.82,-81.62,17.0,16.4,0,0,,10.0,29.760826,,,TRUE,TRUE,,,,,,,CLR,,,,,,,,VFR,,,,,,,,,,,,SPECI,375.0
KMCZ 170825Z AUTO 23005KT 10SM BKN110 19/18 A2967 RMK AO2 T01910181,KMCZ,2023-05-17T08:25:00Z,,,19.1,18.1,230,5,,10.0,29.66929,,,TRUE,TRUE,,,,,,,BKN,11000,,,,,,,VFR,,,,,,,,,,,,SPECI,
KLFI 170825Z AUTO 29010KT 10SM SCT010 SCT055 OVC080 20/19 A2961 RMK AO2 SLP033 $,KLFI,2023-05-17T08:25:00Z,37.08,-76.33,20.0,19.0,290,10,,10.0,29.610237,1003.3,,TRUE,TRUE,TRUE,,,,,,SCT,1000,SCT,5500,OVC,8000,,,VFR,,,,,,,,,,,,SPECI,2.0
KJNX 170825Z AUTO 00000KT 4SM BR CLR 18/18 A2969 RMK AO2 LTG DSNT SE,KJNX,2023-05-17T08:25:00Z,35.53,-78.38,18.0,18.0,0,0,,4.0,29.68996,,,TRUE,TRUE,,,,,,BR,CLR,,,,,,,,MVFR,,,,,,,,,,,,SPECI,41.0
KISO 170825Z AUTO 30003KT 10SM SCT120 19/19 A2969 RMK AO2 T01930190,KISO,2023-05-17T08:25:00Z,35.32,-77.62,19.3,19.0,300,3,,10.0,29.68996,,,TRUE,TRUE,,,,,,,SCT,12000,,,,,,,VFR,,,,,,,,,,,,SPECI,27.0
KIPJ 170825Z AUTO 00000KT 4SM BR CLR 17/17 A2974 RMK AO2 T01670165,KIPJ,2023-05-17T08:25:00Z,35.48,-81.17,16.7,16.5,0,0,,4.0,29.740158,,,TRUE,TRUE,,,,,,BR,CLR,,,,,,,,MVFR,,,,,,,,,,,,SPECI,266.0
KHRJ 170825Z AUTO 00000KT 10SM CLR 19/19 A2972 RMK AO2 T01930189,KHRJ,2023-05-17T08:25:00Z,35.38,-78.73,19.3,18.9,0,0,,10.0,29.719488,,,TRUE,TRUE,,,,,,,CLR,,,,,,,,VFR,,,,,,,,,,,,SPECI,55.0
KHBI 170825Z AUTO 21003KT 10SM CLR 17/17 A2974 RMK AO2 T01730173,KHBI,2023-05-17T08:25:00Z,35.65,-79.9,17.3,17.3,210,3,,10.0,29.740158,,,TRUE,TRUE,,,,,,,CLR,,,,,,,,VFR,,,,,,,,,,,,SPECI,199.0
KGEV 170825Z AUTO 32007KT 5SM +DZ SCT009 BKN014 OVC021 14/13 A2983 RMK AO2 P0004 T01370131,KGEV,2023-05-17T08:25:00Z,36.43,-81.42,13.7,13.1,320,7,,5.0,29.828741,,,TRUE,TRUE,,,,,,+DZ,SCT,900,BKN,1400,OVC,2100,,,MVFR,,,,,,0.04,,,,,,SPECI,961.0
KESN 170825Z AUTO 31003KT 10SM OVC110 18/14 A2961 RMK AO2 T01800135,KESN,2023-05-17T08:25:00Z,38.8,-76.07,18.0,13.5,310,3,,10.0,29.610237,,,TRUE,TRUE,,,,,,,OVC,11000,,,,,,,VFR,,,,,,,,,,,,METAR,14.0
KEHO 170825Z AUTO 00000KT 10SM CLR 18/18 A2974 RMK AO2 T01760176,KEHO,2023-05-17T08:25:00Z,35.25,-81.6,17.6,17.6,0,0,,10.0,29.740158,,,TRUE,TRUE,,,,,,,CLR,,,,,,,,VFR,,,,,,,,,,,,SPECI,261.0
KDPL 170825Z AUTO 23005KT 10SM BKN120 20/20 A2970 RMK AO2,KDPL,2023-05-17T08:25:00Z,35.0,-77.97,20.0,20.0,230,5,,10.0,29.698818,,,TRUE,TRUE,,,,,,,BKN,12000,,,,,,,VFR,,,,,,,,,,,,SPECI,39.0
KDMW 170825Z AUTO 29004KT 10SM SCT100 17/12 A2965 RMK AO2,KDMW,2023-05-17T08:25:00Z,39.6,-77.0,17.0,12.0,290,4,,10.0,29.648623,,,TRUE,TRUE,,,,,,,SCT,10000,,,,,,,VFR,,,,,,,,,,,,SPECI,239.0
KCTZ 170825Z AUTO 21003KT 10SM SCT120 20/20 A2971 RMK AO2 T02010201,KCTZ,2023-05-17T08:25:00Z,34.98,-78.37,20.1,20.1,210,3,,10.0,29.71063,,,TRUE,TRUE,,,,,,,SCT,12000,,,,,,,VFR,,,,,,,,,,,,SPECI,43.0
KCPC 170825Z AUTO 17005KT 10SM CLR 21/19 A2973 RMK AO2 T02140192,KCPC,2023-05-17T08:25:00Z,34.28,-78.72,21.4,19.2,170,5,,10.0,29.731298,,,TRUE,TRUE,,,,,,,CLR,,,,,,,,VFR,,,,,,,,,,,,SPECI,27.0
KCGE 170825Z AUTO 29004KT 10SM FEW065 OVC100 18/18 A2962 RMK A01,KCGE,2023-05-17T08:25:00Z,38.53,-76.03,18.0,18.0,290,4,,10.0,29.619095,,,TRUE,TRUE,,,,,,,FEW,6500,OVC,10000,,,,,VFR,,,,,,,,,,,,SPECI,5.0
KCBE 170825Z AUTO 26007KT 10SM CLR 15/10 A2976 RMK AO2 T01500096,KCBE,2023-05-17T08:25:00Z,39.62,-78.77,15.0,9.6,260,7,,10.0,29.760826,,,TRUE,TRUE,,,,,,,CLR,,,,,,,,VFR,,,,,,,,,,,,METAR,226.0
KASJ 170825Z AUTO 25005KT 10SM SCT010 SCT048 BKN120 19/19 A2966 RMK AO2 T01860186,KASJ,2023-05-17T08:25:00Z,36.28,-77.17,18.6,18.6,250,5,,10.0,29.660433,,,TRUE,TRUE,,,,,,,SCT,1000,SCT,4800,BKN,12000,,,VFR,,,,,,,,,,,,SPECI,20.0
KACZ 170825Z AUTO 22004KT 10SM SCT120 21/19 A2971 RMK AO2 T02050192,KACZ,2023-05-17T08:25:00Z,,,20.5,19.2,220,4,,10.0,29.71063,,,TRUE,TRUE,,,,,,,SCT,12000,,,,,,,VFR,,,,,,,,,,,,SPECI,
K7W6 170825Z AUTO 24012G17KT 10SM -RA CLR 22/19 A2966 RMK AO2 T02150190,K7W6,2023-05-17T08:25:00Z,35.55,-75.95,21.5,19.0,240,12,17,10.0,29.660433,,,TRUE,TRUE,,,,,,-RA,CLR,,,,,,,,VFR,,,,,,,,,,,,SPECI,1.0
K24A 170825Z AUTO 32005KT 10SM SCT050 16/15 A2986 RMK AO2 T01580154,K24A,2023-05-17T08:25:00Z,35.32,-83.2,15.8,15.4,320,5,,10.0,29.861221,,,TRUE,TRUE,,,,,,,SCT,5000,,,,,,,VFR,,,,,,,,,,,,SPECI,864.0
ETAD 170825Z 36007KT 9999 FEW024 SCT034 BKN046 10/04 A3027 RMK AO2A SLP247 $,ETAD,2023-05-17T08:25:00Z,49.98,6.7,10.0,4.0,360,7,,6.21,30.268702,1024.7,,,TRUE,TRUE,,,,,,FEW,2400,SCT,3400,BKN,4600,,,VFR,,,,,,,,,,,,METAR,365.0
EHWO 170825Z AUTO 01009KT 290V060 9999 NCD 13/05 Q1028 BLU NOSIG,EHWO,2023-05-17T08:25:00Z,51.45,4.33,13.0,5.0,10,9,,6.21,30.35433,,,TRUE,,,TRUE,,,,,CLR,,,,,,,,VFR,,,,,,,,,,,,METAR,15.0
EHVL 170825Z AUTO 34013KT 9999 SCT035 11/02 Q1028 BLU,EHVL,2023-05-17T08:25:00Z,53.28,5.08,11.0,2.0,340,13,,6.21,30.35433,,,TRUE,,,,,,,,SCT,3500,,,,,,,VFR,,,,,,,,,,,,METAR,2.0
EHVK 170825Z AUTO 36008KT 300V030 9999 NCD 12/05 Q1027 BLU NOSIG,EHVK,2023-05-17T08:25:00Z,51.65,5.7,12.0,5.0,360,8,,6.21,30.324802,,,TRUE,,,TRUE,,,,,CLR,,,,,,,,VFR,,,,,,,,,,,,METAR,20.0
EHSC 170825Z AUTO 01012KT 9999 ///////// 11/06 Q1029 W12/H10,EHSC,2023-05-17T08:25:00Z,51.93,3.67,11.0,6.0,10,12,,6.21,30.383858,,,TRUE,,,,,,,,,,,,,,,,,,,,,,,,,,,,METAR,19.0
EHSA 170825Z AUTO 01011KT 9999 ///////// 10/06 Q1029 W10/H10,EHSA,2023-05-17T08:25:00Z,52.0,3.28,10.0,6.0,10,11,,6.21,30.383858,,,TRUE,,,,,,,,,,,,,,,,,,,,,,,,,,,,METAR,18.0
EHRD 170825Z AUTO 35010KT 300V040 9999 FEW027 12/05 Q1028 NOSIG,EHRD,2023-05-17T08:25:00Z,51.95,4.45,12.0,5.0,350,10,,6.21,30.35433,,,TRUE,,,TRUE,,,,,FEW,2700,,,,,,,VFR,,,,,,,,,,,,METAR,-4.0
EHPG 170825Z AUTO VRB05KT 9999 FEW018 10/06 Q1029,EHPG,2023-05-17T08:25:00Z,52.37,3.35,10.0,6.0,0,5,,6.21,30.383858,,,TRUE,,,,,,,,FEW,1800,,,,,,,VFR,,,,,,,,,,,,METAR,24.0
EHMG 170825Z AUTO 33010KT 9999 FEW029 BKN033 BKN037 09/02 Q1029,EHMG,2023-05-17T08:25:00Z,53.62,4.97,9.0,2.0,330,10,,6.21,30.383858,,,TRUE,,,,,,,,FEW,2900,BKN,3300,BKN,3700,,,VFR,,,,,,,,,,,,METAR,30.0
EHMA 170825Z AUTO 35018KT 9999 BKN031 BKN037 09/01 Q1027,EHMA,2023-05-17T08:25:00Z,53.5,5.95,9.0,1.0,350,18,,6.21,30.324802,,,TRUE,,,,,,,,BKN,3100,BKN,3700,,,,,VFR,,,,,,,,,,,,METAR,27.0
EHLW 170825Z AUTO 32011KT 300V020 9999 SCT026 BKN033 OVC037 10/04 Q1028 BLU,EHLW,2023-05-17T08:25:00Z,53.22,5.75,10.0,4.0,320,11,,6.21,30.35433,,,TRUE,,,,,,,,SCT,2600,BKN,3300,OVC,3700,,,VFR,,,,,,,,,,,,METAR,1.0
EHLE 170825Z AUTO 35010KT 310V030 9999 BKN033 10/03 Q1028 NOSIG,EHLE,2023-05-17T08:25:00Z,52.45,5.52,10.0,3.0,350,10,,6.21,30.35433,,,TRUE,,,TRUE,,,,,BKN,3300,,,,,,,VFR,,,,,,,,,,,,METAR,-3.0
EHKV 170825Z AUTO 35013KT 9999 SCT019 BKN023 BKN029 09/04 Q1029,EHKV,2023-05-17T08:25:00Z,53.27,3.63,9.0,4.0,350,13,,6.21,30.383858,,,TRUE,,,,,,,,SCT,1900,BKN,2300,BKN,2900,,,MVFR,,,,,,,,,,,,METAR,28.0
EHKD 170825Z AUTO 01008KT 330V060 9999 BKN030 11/03 Q1028 BLU NOSIG,EHKD,2023-05-17T08:25:00Z,52.92,4.77,11.0,3.0,10,8,,6.21,30.35433,,,TRUE,,,TRUE,,,,,BKN,3000,,,,,,,MVFR,,,,,,,,,,,,METAR,1.0
EHJR 170825Z AUTO 36013KT //// // ///////// 10/04 Q1029 RE// W11/H14,EHJR,2023-05-17T08:25:00Z,53.22,3.22,10.0,4.0,360,13,,,30.383858,,,TRUE,,,,,,,,,,,,,,,,,,,,,,,,,,,,METAR,31.0
EHJA 170825Z AUTO 33011KT 270V020 9999 SCT021/// BKN024/// OVC049/// 09/03 Q1029,EHJA,2023-05-17T08:25:00Z,53.82,2.95,9.0,3.0,330,11,,6.21,30.383858,,,TRUE,,,,,,,,SCT,2100,BKN,2400,OVC,4900,,,MVFR,,,,,,,,,,,,METAR,34.0
EHHW 170825Z AUTO 33014KT 290V350 9999 SCT030/// BKN034/// 08/00 Q1027,EHHW,2023-05-17T08:25:00Z,54.03,6.03,8.0,0.0,330,14,,6.21,30.324802,,,TRUE,,,,,,,,SCT,3000,BKN,3400,,,,,VFR,,,,,,,,,,,,METAR,10.0
EHGR 170825Z AUTO 01011KT 290V070 9999 SCT028 13/05 Q1028 BLU NOSIG,EHGR,2023-05-17T08:25:00Z,51.55,4.93,13.0,5.0,10,11,,6.21,30.35433,,,TRUE,,,TRUE,,,,,SCT,2800,,,,,,,VFR,,,,,,,,,,,,METAR,12.0
EHGG 170825Z AUTO 33006KT 270V020 9999 OVC033 10/02 Q1027 NOSIG,EHGG,2023-05-17T08:25:00Z,53.12,6.57,10.0,2.0,330,6,,6.21,30.324802,,,TRUE,,,TRUE,,,,,OVC,3300,,,,,,,VFR,,,,,,,,,,,,METAR,2.0
EHFS 170825Z AUTO 36012KT 330V030 9999 SCT023/// 13/07 Q1028,EHFS,2023-05-17T08:25:00Z,51.45,3.6,13.0,7.0,360,12,,6.21,30.35433,,,TRUE,,,,,,,,SCT,2300,,,,,,,VFR,,,,,,,,,,,,METAR,1.0
EHFD 170825Z AUTO 33020KT 9999 FEW023/// SCT033/// 08/00 Q1027,EHFD,2023-05-17T08:25:00Z,54.85,4.7,8.0,0.0,330,20,,6.21,30.324802,,,TRUE,,,,,,,,FEW,2300,SCT,3300,,,,,VFR,,,,,,,,,,,,METAR,24.0
EHEH 170825Z AUTO 32007KT 250V040 9999 BKN031 OVC036 12/05 Q1027 BLU NOSIG,EHEH,2023-05-17T08:25:00Z,51.45,5.38,12.0,5.0,320,7,,6.21,30.324802,,,TRUE,,,TRUE,,,,,BKN,3100,OVC,3600,,,,,VFR,,,,,,,,,,,,METAR,20.0
EHDV 170825Z AUTO 34015KT 9999 NSC 09/// Q1029,EHDV,2023-05-17T08:25:00Z,54.32,2.93,,,340,15,,6.21,30.383858,,,TRUE,,,,,,,,CLR,,,,,,,,VFR,,,,,,,,,,,,METAR,36.0
EHDL 170825Z AUTO 34011KT 260V030 9999 SCT035 12/04 Q1027 BLU,EHDL,2023-05-17T08:25:00Z,52.07,5.88,12.0,4.0,340,11,,6.21,30.324802,,,TRUE,,,,,,,,SCT,3500,,,,,,,VFR,,,,,,,,,,,,METAR,49.0
EHBK 170825Z AUTO 01010KT 330V050 9999 FEW022 13/07 Q1027,EHBK,2023-05-17T08:25:00Z,50.92,5.77,13.0,7.0,10,10,,6.21,30.324802,,,TRUE,,,,,,,,FEW,2200,,,,,,,VFR,,,,,,,,,,,,METAR,112.0
EHAM 170825Z 33009KT 300V010 9999 FEW030 12/04 Q1028 NOSIG,EHAM,2023-05-17T08:25:00Z,52.32,4.78,12.0,4.0,330,9,,6.21,30.35433,,,,,,TRUE,,,,,FEW,3000,,,,,,,VFR,,,,,,,,,,,,METAR,-2.0
EHAK 170825Z AUTO 35020KT 9999 FEW022/// SCT034/// BKN038/// 07/01 Q1027,EHAK,2023-05-17T08:25:00Z,55.38,3.82,7.0,1.0,350,20,,6.21,30.324802,,,TRUE,,,,,,,,FEW,2200,SCT,3400,BKN,3800,,,VFR,,,,,,,,,,,,METAR,33.0
EBLB 170825Z AUTO 35011KT 9999 FEW014/// BKN020/// 08/04 Q1026 WHT,EBLB,2023-05-17T08:25:00Z,50.47,6.17,8.0,4.0,350,11,,6.21,30.295275,,,TRUE,,,,,,,,FEW,1400,BKN,2000,,,,,MVFR,,,,,,,,,,,,METAR,563.0
EBFN 170825Z 01005KT 9999 SCT050 14/06 Q1028 BLU BLU,EBFN,2023-05-17T08:25:00Z,51.08,2.65,14.0,6.0,10,5,,6.21,30.35433,,,,,,,,,,,SCT,5000,,,,,,,VFR,,,,,,,,,,,,METAR,9.0
EBDT 170825Z AUTO 01012KT 9999 FEW025/// 13/06 Q1027 BLU,EBDT,2023-05-17T08:25:00Z,51.02,5.07,13.0,6.0,10,12,,6.21,30.324802,,,TRUE,,,,,,,,FEW,2500,,,,,,,VFR,,,,,,,,,,,,METAR,25.0
EBCV 170825Z AUTO 01005KT 9999 FEW095/// BKN110/// BKN220/// 12/08 Q1028 BLU,EBCV,2023-05-17T08:25:00Z,50.57,3.82,12.0,8.0,10,5,,6.21,30.35433,,,TRUE,,,,,,,,FEW,9500,BKN,11000,BKN,22000,,,VFR,,,,,,,,,,,,METAR,56.0
EBBL 170825Z 03008KT 9999 FEW027 SCT032 13/04 Q1027 BLU BLU,EBBL,2023-05-17T08:25:00Z,51.17,5.47,13.0,4.0,30,8,,6.21,30.324802,,,,,,,,,,,FEW,2700,SCT,3200,,,,,VFR,,,,,,,,,,,,METAR,50.0
EBBE 170825Z 35009KT 9999 FEW020 SCT025 12/07 Q1027 BLU BLU,EBBE,2023-05-17T08:25:00Z,50.75,4.77,12.0,7.0,350,9,,6.21,30.324802,,,,,,,,,,,FEW,2000,SCT,2500,,,,,VFR,,,,,,,,,,,,METAR,127.0
CYQY 170825Z 21009KT 15SM -RA OVC093 08/08 A2939 RMK AS8 SLP956,CYQY,2023-05-17T08:25:00Z,46.17,-60.03,8.0,8.0,210,9,,15.0,29.388779,995.6,,,,,,,,,-RA,OVC,9300,,,,,,,VFR,,,,,,,,,,,,SPECI,58.0
CYNE 170825Z AUTO 15008KT 9SM -RA FEW055 BKN094 OVC110 10/03 A2967 RMK PRESFR SLP058,CYNE,2023-05-17T08:25:00Z,53.97,-97.83,10.0,3.0,150,8,,9.0,29.66929,1005.8,,TRUE,,,,,,,-RA,FEW,5500,BKN,9400,OVC,11000,,,VFR,,,,,,,,,,,,SPECI,220.0
KHZY 170824Z AUTO VRB03KT 10SM FEW021 SCT031 08/03 A2985 RMK AO2 T00830028,KHZY,2023-05-17T08:24:00Z,41.78,-80.7,8.3,2.8,0,3,,10.0,29.84941,,,TRUE,TRUE,,,,,,,FEW,2100,SCT,3100,,,,,VFR,,,,,,,,,,,,SPECI,279.0
KCMA 170824Z AUTO 20003KT 4SM BR OVC004 15/13 A2997 RMK AO2 T01500133,KCMA,2023-05-17T08:24:00Z,34.22,-119.1,15.0,13.3,200,3,,4.0,29.970472,,,TRUE,TRUE,,,,,,BR,OVC,400,,,,,,,LIFR,,,,,,,,,,,,SPECI,20.0
CYYN 170824Z AUTO 03013KT 1 3/4SM HZ BKN029 11/04 A3003 RMK ICE MISG SLP182,CYYN,2023-05-17T08:24:00Z,50.28,-107.68,11.0,4.0,30,13,,1.75,30.029528,1018.2,,TRUE,,,,,,,HZ,BKN,2900,,,,,,,IFR,,,,,,,,,,,,SPECI,814.0
CYQX 170824Z 13012KT 15SM -RA VCFG BKN003 BKN027 OVC038 06/06 A2942 RMK SF5SC1SC2 CIG VRB 2-4 VIS SE-S 4 SLP968,CYQX,2023-05-17T08:24:00Z,48.95,-54.58,6.0,6.0,130,12,,15.0,29.421259,996.8,,,,,,,,,-RA VCFG,BKN,300,BKN,2700,OVC,3800,,,LIFR,,,,,,,,,,,,SPECI,144.0
CYHZ 170824Z 33008KT 6SM -RA BR OVC004 08/08 A2942 RMK SF8 SLP966,CYHZ,2023-05-17T08:24:00Z,44.87,-63.5,8.0,8.0,330,8,,6.0,29.421259,996.6,,,,,,,,,-RA BR,OVC,400,,,,,,,LIFR,,,,,,,,,,,,SPECI,136.0
SAWC 170823Z 34025G35KT 9999 VCSH FEW020 BKN060 04/01 Q0988,SAWC,2023-05-17T08:23:00Z,-50.28,-72.05,4.0,1.0,340,25,35,6.21,29.17323,,,,,,,,,,VCSH,FEW,2000,BKN,6000,,,,,VFR,,,,,,,,,,,,SPECI,204.0
PAOM 170823Z AUTO 08010KT 10SM OVC015 01/M01 A2995 RMK AO2 T00061006 TSNO,PAOM,2023-05-17T08:23:00Z,64.5,-165.43,0.6,-0.6,80,10,,10.0,29.949802,,,TRUE,TRUE,,,TRUE,,,,OVC,1500,,,,,,,MVFR,,,,,,,,,,,,SPECI,6.0
LTBG 170823Z 14006KT 9999 SCT035 BKN100 19/17 Q1010 RESHRA NOSIG RMK RWY18 14006KT,LTBG,2023-05-17T08:23:00Z,40.32,27.97,19.0,17.0,140,6,,6.21,29.822834,,,,,,TRUE,,,,,SCT,3500,BKN,10000,,,,,VFR,,,,,,,,,,,,METAR,42.0
KSET 170823Z AUTO 24004KT 4SM BR CLR 13/13 A2989 RMK AO2 T01330128,KSET,2023-05-17T08:23:00Z,38.93,-90.43,13.3,12.8,240,4,,4.0,29.890747,,,TRUE,TRUE,,,,,,BR,CLR,,,,,,,,MVFR,,,,,,,,,,,,SPECI,133.0
KAVP 170823Z AUTO 36010KT 10SM BKN026 09/04 A2970 RMK AO2 T00940044,KAVP,2023-05-17T08:23:00Z,41.33,-75.72,9.4,4.4,360,10,,10.0,29.698818,,,TRUE,TRUE,,,,,,,BKN,2600,,,,,,,MVFR,,,,,,,,,,,,SPECI,290.0
K2W6 170823Z AUTO 27003KT 10SM OVC095 17/16 A2965 RMK AO1,K2W6,2023-05-17T08:23:00Z,38.32,-76.55,17.0,16.0,270,3,,10.0,29.648623,,,TRUE,TRUE,,,,,,,OVC,9500,,,,,,,VFR,,,,,,,,,,,,SPECI,40.0
KTOP 170822Z AUTO 00000KT 4SM BR BKN090 12/12 A2996 RMK AO2 T01220117 $,KTOP,2023-05-17T08:22:00Z,39.07,-95.63,12.2,11.7,0,0,,4.0,29.958662,,,TRUE,TRUE,TRUE,,,,,BR,BKN,9000,,,,,,,MVFR,,,,,,,,,,,,SPECI,268.0
KSGR 170822Z AUTO 00000KT 3SM BR CLR 19/19 A2991 RMK AO2 T01940189,KSGR,2023-05-17T08:22:00Z,29.62,-95.65,19.4,18.9,0,0,,3.0,29.911417,,,TRUE,TRUE,,,,,,BR,CLR,,,,,,,,MVFR,,,,,,,,,,,,SPECI,22.0
KBFM 170822Z 26003KT 10SM CLR 21/19 A2985 RMK AO2 T02110194,KBFM,2023-05-17T08:22:00Z,30.62,-88.07,21.1,19.4,260,3,,10.0,29.84941,,,,TRUE,,,,,,,CLR,,,,,,,,VFR,,,,,,,,,,,,SPECI,7.0
PAEH 170821Z AUTO 01011KT 200V140 10SM SCT010 BKN022 OVC100 00/00 A3003 RMK AO2 SLP180,PAEH,2023-05-17T08:21:00Z,58.65,-162.07,0.0,0.0,10,11,,10.0,30.029528,1018.0,,TRUE,TRUE,,,,,,,SCT,1000,BKN,2200,OVC,10000,,,MVFR,,,,,,,,,,,,SPECI,101.0
LIBF 170821Z 20004KT 9999 RA SCT030 19/13 Q1006,LIBF,2023-05-17T08:21:00Z,41.42,15.53,19.0,13.0,200,4,,6.21,29.704725,,,,,,,,,,RA,SCT,3000,,,,,,,VFR,,,,,,,,,,,,SPECI,81.0
KSLK 170821Z AUTO 35007G14KT 320V030 10SM SCT012 OVC021 01/M03 A2972 RMK AO2 T00061028,KSLK,2023-05-17T08:21:00Z,44.4,-74.2,0.6,-2.8,350,7,14,10.0,29.719488,,,TRUE,TRUE,,,,,,,SCT,1200,OVC,2100,,,,,MVFR,,,,,,,,,,,,SPECI,502.0
KNIP 170821Z AUTO 23008KT 10SM SCT029 24/21 A2984 RMK AO2 T02390211 $,KNIP,2023-05-17T08:21:00Z,30.23,-81.67,23.9,21.1,230,8,,10.0,29.840551,,,TRUE,TRUE,TRUE,,,,,,SCT,2900,,,,,,,VFR,,,,,,,,,,,,SPECI,3.0
PATE 170820Z AUTO 01012KT 5SM -SN BR OVC012 M04/M05 A2999 RMK AO2 P0000 FZRANO,PATE,2023-05-17T08:20:00Z,65.23,-166.33,-4.0,-5.0,10,12,,5.0,29.991142,,,TRUE,TRUE,,,,TRUE,,-SN BR,OVC,1200,,,,,,,MVFR,,,,,,0.005,,,,,,METAR,93.0
PAAQ 170820Z AUTO 00000KT 10SM OVC032 08/02 A3024 RMK AO2 T00780017 TSNO,PAAQ,2023-05-17T08:20:00Z,61.6,-149.08,7.8,1.7,0,0,,10.0,30.239174,,,TRUE,TRUE,,,TRUE,,,,OVC,3200,,,,,,,VFR,,,,,,,,,,,,SPECI,68.0
LXGB 170820Z 13009KT 9999 -SHRA FEW018 OVC100 20/14 Q1012 TEMPO 7000 -SHRA SCT020,LXGB,2023-05-17T08:20:00Z,36.15,-5.33,20.0,14.0,130,9,,6.21,29.88189,,,,,,,,,,-SHRA,FEW,1800,OVC,10000,,,,,VFR,,,,,,,,,,,,METAR,5.0
LTFM 170820Z VRB01KT 9999 -SHRA FEW018TCU SCT028 BKN090 16/14 Q1012 NOSIG RMK RWY17L 00000KT RWY34L 28003KT 200V330 RWY16R VRB01KT RWY36 VRB03KT RWY18 00000KT,LTFM,2023-05-17T08:20:00Z,41.27,28.75,16.0,14.0,0,1,,6.21,29.88189,,,,,,TRUE,,,,-SHRA,FEW,1800,SCT,2800,BKN,9000,,,VFR,,,,,,,,,,,,METAR,99.0
LTFJ 170820Z 23005KT 100V260 7000 -SHRA FEW018CB BKN028 BKN090 17/17 Q1012 TEMPO 4000 TSRA RMK RWY24 19005KT,LTFJ,2023-05-17T08:20:00Z,40.9,29.3,17.0,17.0,230,5,,4.35,29.88189,,,,,,,,,,-SHRA,FEW,1800,BKN,2800,BKN,9000,,,MVFR,,,,,,,,,,,,METAR,83.0
LTFE 170820Z 25011KT 200V300 9999 FEW035 SCT200 26/16 Q1008 NOSIG RMK RWY10 26013KT,LTFE,2023-05-17T08:20:00Z,37.25,27.67,26.0,16.0,250,11,,6.21,29.763779,,,,,,TRUE,,,,,FEW,3500,SCT,20000,,,,,VFR,,,,,,,,,,,,METAR,6.0
LTFC 170820Z 21008KT 9999 TS FEW025CB BKN035 20/14 Q1013 RMK RWY23 29014G25KT 220V320,LTFC,2023-05-17T08:20:00Z,37.87,30.38,20.0,14.0,210,8,,6.21,29.911417,,,,,,,,,,TS,FEW,2500,BKN,3500,,,,,VFR,,,,,,,,,,,,METAR,862.0
LTCS 170820Z VRB05KT CAVOK 26/02 Q1013 RMK RWY22 VRB04KT 4CI200,LTCS,2023-05-17T08:20:00Z,37.45,38.9,26.0,2.0,0,5,,6.21,29.911417,,,,,,,,,,,CAVOK,,,,,,,,VFR,,,,,,,,,,,,METAR,825.0
LTCJ 170820Z 29004KT 240V330 CAVOK 27/07 Q1011 RMK RWY20 27004KT 210V330 3CI200,LTCJ,2023-05-17T08:20:00Z,37.93,41.12,27.0,7.0,290,4,,6.21,29.852362,,,,,,,,,,,CAVOK,,,,,,,,VFR,,,,,,,,,,,,METAR,559.0
LTCG 170820Z 33005KT 280V010 9999 FEW003 15/13 Q1013 NOSIG RMK RWY29 33006KT 300V360,LTCG,2023-05-17T08:20:00Z,41.0,39.77,15.0,13.0,330,5,,6.21,29.911417,,,,,,TRUE,,,,,FEW,300,,,,,,,VFR,,,,,,,,,,,,METAR,28.0
LTCE 170820Z 26017KT CAVOK 19/M03 Q1015 NOSIG RMK RWY08R 24015KT 190V260 RWY26R 26018KT RWY08L 25016KT 230V290 SKC,LTCE,2023-05-17T08:20:00Z,39.95,41.17,19.0,-3.0,260,17,,6.21,29.970472,,,,,,TRUE,,,,,CAVOK,,,,,,,,VFR,,,,,,,,,,,,METAR,1758.0
LTCC 170820Z VRB04KT CAVOK 26/08 Q1012 NOSIG RMK RWY16 VRB03KT 2CI200,LTCC,2023-05-17T08:20:00Z,37.88,40.2,26.0,8.0,0,4,,6.21,29.88189,,,,,,TRUE,,,,,CAVOK,,,,,,,,VFR,,,,,,,,,,,,METAR,676.0
LTBU 170820Z 11010KT 2800 -SHRA BR SCT004 BKN025 BKN080 16/15 Q1011 RMK RWY22 12005KT 080V160,LTBU,2023-05-17T08:20:00Z,41.13,27.92,16.0,15.0,110,10,,1.74,29.852362,,,,,,,,,,-SHRA BR,SCT,400,BKN,2500,BKN,8000,,,IFR,,,,,,,,,,,,METAR,165.0
LTBR 170820Z 02005KT 4500 -SHRA BR SCT030CB BKN035 17/17 Q1012 RETSRA NOSIG RMK RWY07 02006KT 340V050,LTBR,2023-05-17T08:20:00Z,40.25,29.57,17.0,17.0,20,5,,2.8,29.88189,,,,,,TRUE,,,,-SHRA BR,SCT,3000,BKN,3500,,,,,IFR,,,,,,,,,,,,METAR,233.0
LTBJ 170820Z 15007KT 090V190 9999 FEW030 25/14 Q1008 NOSIG RMK RWY16 17008KT 120V200,LTBJ,2023-05-17T08:20:00Z,38.28,27.15,25.0,14.0,150,7,,6.21,29.763779,,,,,,TRUE,,,,,FEW,3000,,,,,,,VFR,,,,,,,,,,,,METAR,123.0
LTBA 170820Z 06006KT 6000 SHRA FEW020CB BKN025 BKN070 16/15 Q1011 RMK RWY23 07005KT,LTBA,2023-05-17T08:20:00Z,40.97,28.82,16.0,15.0,60,6,,3.73,29.852362,,,,,,,,,,SHRA,FEW,2000,BKN,2500,BKN,7000,,,MVFR,,,,,,,,,,,,METAR,33.0
LTAZ 170820Z 36004KT 280V080 CAVOK 25/08 Q1012 RMK RWY29 VRB02KT,LTAZ,2023-05-17T08:20:00Z,38.77,34.52,25.0,8.0,360,4,,6.21,29.88189,,,,,,,,,,,CAVOK,,,,,,,,VFR,,,,,,,,,,,,METAR,944.0
LTAU 170820Z VRB02KT 9999 FEW040 SCT180 25/07 Q1012 NOSIG RMK RWY07 VRB03KT,LTAU,2023-05-17T08:20:00Z,38.77,35.48,25.0,7.0,0,2,,6.21,29.88189,,,,,,TRUE,,,,,FEW,4000,SCT,18000,,,,,VFR,,,,,,,,,,,,METAR,1053.0
LTAT 170820Z 10003KT 010V170 CAVOK 22/09 Q1013 NOSIG RMK RWY03 10004KT 060V180,LTAT,2023-05-17T08:20:00Z,38.43,38.08,22.0,9.0,100,3,,6.21,29.911417,,,,,,TRUE,,,,,CAVOK,,,,,,,,VFR,,0.4,,,,,,,,,,METAR,850.0
LTAP 170820Z 05012KT CAVOK 23/01 Q1011 NOSIG RMK RWY23 05014KT,LTAP,2023-05-17T08:20:00Z,40.83,35.52,23.0,1.0,50,12,,6.21,29.852362,,,,,,TRUE,,,,,CAVOK,,,,,,,,VFR,,,,,,,,,,,,METAR,536.0
LTAJ 170820Z 11003KT 070V190 CAVOK 26/M00 Q1011 NOSIG RMK RWY10 07005KT 030V110 SKC,LTAJ,2023-05-17T08:20:00Z,36.95,37.48,26.0,0.0,110,3,,6.21,29.852362,,,,,,TRUE,,,,,CAVOK,,,,,,,,VFR,,,,,,,,,,,,METAR,684.0
LTAI 170820Z 17005KT 120V200 9999 SCT030 BKN120 28/14 Q1007 NOSIG RMK RWY18C 16004KT 130V220 RWY36R 16005KT 110V190 RWY18L 15004KT 070V210,LTAI,2023-05-17T08:20:00Z,36.9,30.8,28.0,14.0,170,5,,6.21,29.734253,,,,,,TRUE,,,,,SCT,3000,BKN,12000,,,,,VFR,,,,,,,,,,,,METAR,50.0
LTAG 170820Z 11006KT CAVOK 33/02 Q1006 NOSIG RMK SKC,LTAG,2023-05-17T08:20:00Z,37.0,35.42,33.0,2.0,110,6,,6.21,29.704725,,,,,,TRUE,,,,,CAVOK,,,,,,,,VFR,,,,,,,,,,,,METAR,62.0
LTAF 170820Z VRB04KT CAVOK 34/07 Q1006 NOSIG RMK RWY23 VRB05KT SKC,LTAF,2023-05-17T08:20:00Z,36.98,35.28,34.0,7.0,0,4,,6.21,29.704725,,,,,,TRUE,,,,,CAVOK,,,,,,,,VFR,,,,,,,,,,,,METAR,19.0
LTAC 170820Z VRB03KT 9999 FEW040 BKN180 25/10 Q1011 NOSIG RMK RWY21L 35005KT 270V060 RWY03L 34005KT 280V030 RWY21R VRB03KT,LTAC,2023-05-17T08:20:00Z,40.12,32.98,25.0,10.0,0,3,,6.21,29.852362,,,,,,TRUE,,,,,FEW,4000,BKN,18000,,,,,VFR,,,,,,,,,,,,METAR,952.0
LSZS 170820Z 36012KT 330V040 9999 SCT040 BKN050 06/M03 Q1015 RMK F TL170,LSZS,2023-05-17T08:20:00Z,46.53,9.88,6.0,-3.0,360,12,,6.21,29.970472,,,,,,,,,,,SCT,4000,BKN,5000,,,,,VFR,,,,,,,,,,,,METAR,1708.0
LSZR 170820Z 02005KT 340V060 9999 FEW040 BKN058 09/05 Q1022 RMK E,LSZR,2023-05-17T08:20:00Z,47.48,9.57,9.0,5.0,20,5,,6.21,30.177166,,,,,,,,,,,FEW,4000,BKN,5800,,,,,VFR,,,,,,,,,,,,METAR,396.0
LSZL 170820Z VRB01KT 9999 BKN120 19/04 Q1011 RMK BLU,LSZL,2023-05-17T08:20:00Z,46.17,8.88,19.0,4.0,0,1,,6.21,29.852362,,,,,,,,,,,BKN,12000,,,,,,,VFR,,,,,,,,,,,,METAR,198.0
LSZH 170820Z 03009KT 360V070 9999 FEW032 SCT050 10/03 Q1022 NOSIG,LSZH,2023-05-17T08:20:00Z,47.48,8.53,10.0,3.0,30,9,,6.21,30.177166,,,,,,TRUE,,,,,FEW,3200,SCT,5000,,,,,VFR,,,,,,,,,,,,METAR,424.0
LSZG 170820Z 06017KT 9999 BKN060 12/03 Q1021,LSZG,2023-05-17T08:20:00Z,47.17,7.42,12.0,3.0,60,17,,6.21,30.147638,,,,,,,,,,,BKN,6000,,,,,,,VFR,,,,,,,,,,,,METAR,428.0
LSZC 170820Z 01006KT 330V050 9999 OVC035 10/04 Q1021,LSZC,2023-05-17T08:20:00Z,46.97,8.38,10.0,4.0,10,6,,6.21,30.147638,,,,,,,,,,,OVC,3500,,,,,,,VFR,,,,,,,,,,,,METAR,445.0
LSZB 170820Z 05009KT 300V090 9999 SCT028 BKN031 09/04 Q1020,LSZB,2023-05-17T08:20:00Z,46.92,7.5,9.0,4.0,50,9,,6.21,30.11811,,,,,,,,,,,SCT,2800,BKN,3100,,,,,VFR,,,,,,,,,,,,METAR,510.0
LSZA 170820Z AUTO VRB04KT 9999 NSC 19/07 Q1011,LSZA,2023-05-17T08:20:00Z,46.0,8.92,19.0,7.0,0,4,,6.21,29.852362,,,TRUE,,,,,,,,CLR,,,,,,,,VFR,,,,,,,,,,,,METAR,276.0
LSMP 170820Z 05017G27KT 010V080 9999 FEW046 11/03 Q1020 RMK BLU+,LSMP,2023-05-17T08:20:00Z,46.83,6.92,11.0,3.0,50,17,27,6.21,30.11811,,,,,,,,,,,FEW,4600,,,,,,,VFR,,,,,,,,,,,,METAR,490.0
LSMM 170820Z VRB08G20KT 9999 FEW016 BKN026 OVC032 07/04 Q1020 RMK BLU,LSMM,2023-05-17T08:20:00Z,46.75,8.12,7.0,4.0,0,8,20,6.21,30.11811,,,,,,,,,,,FEW,1600,BKN,2600,OVC,3200,,,MVFR,,,,,,,,,,,,METAR,570.0
LSMD 170820Z AUTO 08006KT 360V130 9999NDV FEW033 BKN064 10/03 Q1022 RMK,LSMD,2023-05-17T08:20:00Z,47.4,8.65,10.0,3.0,80,6,,,30.177166,,,TRUE,,,,,,,,FEW,3300,BKN,6400,,,,,,,,,,,,,,,,,METAR,436.0
LSGS 170820Z 23005KT 170V290 9999 FEW040 13/04 Q1016,LSGS,2023-05-17T08:20:00Z,46.22,7.32,13.0,4.0,230,5,,6.21,30.0,,,,,,,,,,,FEW,4000,,,,,,,VFR,,,,,,,,,,,,METAR,482.0
LSGG 170820Z 04022G34KT 9999 FEW035 12/03 Q1018 NOSIG,LSGG,2023-05-17T08:20:00Z,46.25,6.12,12.0,3.0,40,22,34,6.21,30.059055,,,,,,TRUE,,,,,FEW,3500,,,,,,,VFR,,,,,,,,,,,,METAR,411.0
LSGC 170820Z 04015G25KT 9999 BKN020 07/03 Q1019,LSGC,2023-05-17T08:20:00Z,47.08,6.8,7.0,3.0,40,15,25,6.21,30.088583,,,,,,,,,,,BKN,2000,,,,,,,MVFR,,,,,,,,,,,,METAR,1018.0
LOXZ 170820Z 18003KT 150V240 9999 -RA FEW005 BKN060 BKN090 09/06 Q1016 NOSIG,LOXZ,2023-05-17T08:20:00Z,47.2,14.75,9.0,6.0,180,3,,6.21,30.0,,,,,,TRUE,,,,-RA,FEW,500,BKN,6000,BKN,9000,,,VFR,,,,,,,,,,,,METAR,678.0
LOWW 170820Z 32018KT 9999 -RA FEW009 SCT014 BKN020 09/07 Q1016 TEMPO SHRA,LOWW,2023-05-17T08:20:00Z,48.12,16.57,9.0,7.0,320,18,,6.21,30.0,,,,,,,,,,-RA,FEW,900,SCT,1400,BKN,2000,,,MVFR,,,,,,,,,,,,METAR,179.0
LOWS 170820Z AUTO 30005KT 4000 -RA BR FEW005 SCT008 BKN010 07/06 Q1022 TEMPO BKN008,LOWS,2023-05-17T08:20:00Z,47.78,13.02,7.0,6.0,300,5,,2.49,30.177166,,,TRUE,,,,,,,-RA BR,FEW,500,SCT,800,BKN,1000,,,IFR,,,,,,,,,,,,METAR,427.0
LOWL 170820Z AUTO 27008KT 9999 -RA FEW022 SCT036 BKN050 09/06 Q1021 NOSIG,LOWL,2023-05-17T08:20:00Z,48.22,14.18,9.0,6.0,270,8,,6.21,30.147638,,,TRUE,,,TRUE,,,,-RA,FEW,2200,SCT,3600,BKN,5000,,,VFR,,,,,,,,,,,,METAR,290.0
LOWK 170820Z AUTO 30003KT 9999 -RA FEW012 BKN065 11/10 Q1015 TEMPO 01012KT,LOWK,2023-05-17T08:20:00Z,46.65,14.32,11.0,10.0,300,3,,6.21,29.970472,,,TRUE,,,,,,,-RA,FEW,1200,BKN,6500,,,,,VFR,,,,,,,,,,,,METAR,450.0
LOWI 170820Z VRB02KT 9999 FEW007 SCT015 BKN035 08/05 Q1020 NOSIG,LOWI,2023-05-17T08:20:00Z,47.27,11.33,8.0,5.0,0,2,,6.21,30.11811,,,,,,TRUE,,,,,FEW,700,SCT,1500,BKN,3500,,,VFR,,,,,,,,,,,,METAR,570.0
LOWG 170820Z 33013KT 9999 FEW060 14/05 Q1014 NOSIG,LOWG,2023-05-17T08:20:00Z,47.0,15.43,14.0,5.0,330,13,,6.21,29.940945,,,,,,TRUE,,,,,FEW,6000,,,,,,,VFR,,,,,,,,,,,,METAR,337.0
LLBG 170820Z 23005KT 190V270 CAVOK 32/13 Q1007 BECMG 5000 HZ NSC,LLBG,2023-05-17T08:20:00Z,32.0,34.88,32.0,13.0,230,5,,6.21,29.734253,,,,,,,,,,,CAVOK,,,,,,,,VFR,,,,,,,,,,,,METAR,35.0
LIRZ 170820Z AUTO VRB02KT 9999 SCT008/// BKN045/// 15/13 Q1006,LIRZ,2023-05-17T08:20:00Z,43.1,12.5,15.0,13.0,0,2,,6.21,29.704725,,,TRUE,,,,,,,,SCT,800,BKN,4500,,,,,VFR,,,,,,,,,,,,METAR,206.0
LIRQ 170820Z VRB03KT 9999 SCT040 BKN070 16/11 Q1007,LIRQ,2023-05-17T08:20:00Z,43.8,11.2,16.0,11.0,0,3,,6.21,29.734253,,,,,,,,,,,SCT,4000,BKN,7000,,,,,VFR,,,,,,,,,,,,METAR,33.0
LIRN 170820Z 21009KT 180V240 9999 FEW020 BKN040 17/14 Q1007 NOSIG,LIRN,2023-05-17T08:20:00Z,40.88,14.3,17.0,14.0,210,9,,6.21,29.734253,,,,,,TRUE,,,,,FEW,2000,BKN,4000,,,,,VFR,,,,,,,,,,,,METAR,76.0
LIRF 170820Z 28005KT 9999 SCT015 17/14 Q1005 NOSIG,LIRF,2023-05-17T08:20:00Z,41.78,12.23,17.0,14.0,280,5,,6.21,29.675198,,,,,,TRUE,,,,,SCT,1500,,,,,,,VFR,,,,,,,,,,,,METAR,2.0
LIRA 170820Z VRB02KT 8000 FEW010 BKN015 17/14 Q1005,LIRA,2023-05-17T08:20:00Z,41.8,12.58,17.0,14.0,0,2,,4.97,29.675198,,,,,,,,,,,FEW,1000,BKN,1500,,,,,MVFR,,,,,,,,,,,,METAR,101.0
LIPZ 170820Z 03004KT 360V060 9999 BKN070 16/11 Q1010 NOSIG,LIPZ,2023-05-17T08:20:00Z,45.5,12.35,16.0,11.0,30,4,,6.21,29.822834,,,,,,TRUE,,,,,BKN,7000,,,,,,,VFR,,,,,,,,,,,,METAR,3.0
LIPY 170820Z AUTO 08014G25KT 050V110 7000 RA OVC009/// 16/15 Q1006,LIPY,2023-05-17T08:20:00Z,43.62,13.37,16.0,15.0,80,14,25,4.35,29.704725,,,TRUE,,,,,,,RA,OVC,900,,,,,,,IFR,,,,,,,,,,,,METAR,11.0
LIPX 170820Z 31008KT 9999 FEW040 BKN070 16/13 Q1010,LIPX,2023-05-17T08:20:00Z,45.38,10.87,16.0,13.0,310,8,,6.21,29.822834,,,,,,,,,,,FEW,4000,BKN,7000,,,,,VFR,,,,,,,,,,,,METAR,67.0
LIPR 170820Z 07015KT 9999 BKN040 SCT050 16/13 Q1008,LIPR,2023-05-17T08:20:00Z,44.02,12.62,16.0,13.0,70,15,,6.21,29.763779,,,,,,,,,,,BKN,4000,SCT,5000,,,,,VFR,,,,,,,,,,,,METAR,10.0
LIPQ 170820Z AUTO 19004KT 9999 -RA OVC074/// 15/14 Q1010,LIPQ,2023-05-17T08:20:00Z,45.82,13.47,15.0,14.0,190,4,,6.21,29.822834,,,TRUE,,,,,,,-RA,OVC,7400,,,,,,,VFR,,,,,,,,,,,,METAR,6.0
LIPO 170820Z AUTO 26007KT 9999 BKN055/// 16/14 Q1011,LIPO,2023-05-17T08:20:00Z,45.42,10.33,16.0,14.0,260,7,,6.21,29.852362,,,TRUE,,,,,,,,BKN,5500,,,,,,,VFR,,,,,,,,,,,,METAR,104.0
LIPH 170820Z 26003KT 220V300 9999 -RA BKN070 16/14 Q1010,LIPH,2023-05-17T08:20:00Z,45.63,12.18,16.0,14.0,260,3,,6.21,29.822834,,,,,,,,,,-RA,BKN,7000,,,,,,,VFR,,,,,,,,,,,,METAR,10.0
LIPE 170820Z 30005KT 270V330 5000 RA BR SCT005 BKN010 13/13 Q1010,LIPE,2023-05-17T08:20:00Z,44.52,11.3,13.0,13.0,300,5,,3.11,29.822834,,,,,,,,,,RA BR,SCT,500,BKN,1000,,,,,MVFR,,,,,,,,,,,,METAR,37.0
LIMZ 170820Z AUTO 17007KT 140V200 9999 BKN061/// 15/10 Q1013,LIMZ,2023-05-17T08:20:00Z,44.53,7.62,15.0,10.0,170,7,,6.21,29.911417,,,TRUE,,,,,,,,BKN,6100,,,,,,,VFR,,,,,,,,,,,,METAR,377.0
LIMW 170820Z AUTO 09008KT 9999 BKN110/// BKN130/// 16/03 Q1012,LIMW,2023-05-17T08:20:00Z,45.73,7.37,16.0,3.0,90,8,,6.21,29.88189,,,TRUE,,,,,,,,BKN,11000,BKN,13000,,,,,VFR,,,,,,,,,,,,METAR,554.0
LIML 170820Z 18004KT 9999 -RA SCT015 BKN070 14/12 Q1012 NOSIG,LIML,2023-05-17T08:20:00Z,45.47,9.27,14.0,12.0,180,4,,6.21,29.88189,,,,,,TRUE,,,,-RA,SCT,1500,BKN,7000,,,,,VFR,,,,,,,,,,,,METAR,109.0
LIMJ 170820Z 03010KT 340V060 9999 SCT045 BKN080 19/07 Q1010,LIMJ,2023-05-17T08:20:00Z,44.42,8.83,19.0,7.0,30,10,,6.21,29.822834,,,,,,,,,,,SCT,4500,BKN,8000,,,,,VFR,,,,,,,,,,,,METAR,3.0
LIMF 170820Z VRB03KT 9999 SCT060 BKN080 17/09 Q1012,LIMF,2023-05-17T08:20:00Z,45.22,7.65,17.0,9.0,0,3,,6.21,29.88189,,,,,,,,,,,SCT,6000,BKN,8000,,,,,VFR,,,,,,,,,,,,METAR,295.0
LIME 170820Z 24004KT 220V280 9999 SCT025 BKN080 15/12 Q1012 NOSIG,LIME,2023-05-17T08:20:00Z,45.67,9.7,15.0,12.0,240,4,,6.21,29.88189,,,,,,TRUE,,,,,SCT,2500,BKN,8000,,,,,VFR,,,,,,,,,,,,METAR,239.0
LIMC 170820Z 16005KT 9999 FEW040 BKN070 15/12 Q1012 NOSIG,LIMC,2023-05-17T08:20:00Z,45.62,8.72,15.0,12.0,160,5,,6.21,29.88189,,,,,,TRUE,,,,,FEW,4000,BKN,7000,,,,,VFR,,,,,,,,,,,,METAR,221.0
LIEO 170820Z 27012KT 9999 SCT030 21/12 Q1008,LIEO,2023-05-17T08:20:00Z,40.88,9.52,21.0,12.0,270,12,,6.21,29.763779,,,,,,,,,,,SCT,3000,,,,,,,VFR,,,,,,,,,,,,METAR,8.0
LIEE 170820Z 30015KT 9999 FEW040 20/11 Q1010,LIEE,2023-05-17T08:20:00Z,39.25,9.07,20.0,11.0,300,15,,6.21,29.822834,,,,,,,,,,,FEW,4000,,,,,,,VFR,,,,,,,,,,,,METAR,1.0
LIEA 170820Z 31008KT 260V360 9999 FEW022 19/12 Q1010,LIEA,2023-05-17T08:20:00Z,40.62,8.28,19.0,12.0,310,8,,6.21,29.822834,,,,,,,,,,,FEW,2200,,,,,,,VFR,,,,,,,,,,,,METAR,22.0
LICR 170820Z AUTO 36010KT 9999 NCD 21/11 Q1010,LICR,2023-05-17T08:20:00Z,38.07,15.65,21.0,11.0,360,10,,6.21,29.822834,,,TRUE,,,,,,,,CLR,,,,,,,,VFR,,,,,,,,,,,,METAR,16.0
LICJ 170820Z 25019KT 9999 FEW020 SCT040 18/13 Q1011,LICJ,2023-05-17T08:20:00Z,38.17,13.08,18.0,13.0,250,19,,6.21,29.852362,,,,,,,,,,,FEW,2000,SCT,4000,,,,,VFR,,,,,,,,,,,,METAR,20.0
LICD 170820Z AUTO 26012KT 9999 NCD 20/13 Q1015,LICD,2023-05-17T08:20:00Z,35.5,12.62,20.0,13.0,260,12,,6.21,29.970472,,,TRUE,,,,,,,,CLR,,,,,,,,VFR,,,,,,,,,,,,METAR,20.0
LICC 170820Z 27014KT 9999 FEW040 21/13 Q1010,LICC,2023-05-17T08:20:00Z,37.47,15.05,21.0,13.0,270,14,,6.21,29.822834,,,,,,,,,,,FEW,4000,,,,,,,VFR,,,,,,,,,,,,METAR,6.0
LICB 170820Z AUTO 28019KT 9999 BKN018/// 18/12 Q1013,LICB,2023-05-17T08:20:00Z,37.0,14.62,18.0,12.0,280,19,,6.21,29.911417,,,TRUE,,,,,,,,BKN,1800,,,,,,,MVFR,,,,,,,,,,,,METAR,212.0
LICA 170820Z AUTO 25010KT 9999 FEW049/// SCT056/// 19/17 Q1010,LICA,2023-05-17T08:20:00Z,38.9,16.25,19.0,17.0,250,10,,6.21,29.822834,,,TRUE,,,,,,,,FEW,4900,SCT,5600,,,,,VFR,,,,,,,,,,,,METAR,7.0
LIBR 170820Z 19007KT CAVOK 19/13 Q1008,LIBR,2023-05-17T08:20:00Z,40.65,17.95,19.0,13.0,190,7,,6.21,29.763779,,,,,,,,,,,CAVOK,,,,,,,,VFR,,,,,,,,,,,,METAR,5.0
LIBP 170820Z AUTO 03005KT 9999 -RA SCT006/// OVC020/// 17/15 Q1005 RERA,LIBP,2023-05-17T08:20:00Z,42.42,14.18,17.0,15.0,30,5,,6.21,29.675198,,,TRUE,,,,,,,-RA,SCT,600,OVC,2000,,,,,MVFR,,,,,,,,,,,,METAR,10.0
LIBD 170820Z 17005KT 130V200 9999 SCT045 21/13 Q1007,LIBD,2023-05-17T08:20:00Z,41.13,16.77,21.0,13.0,170,5,,6.21,29.734253,,,,,,,,,,,SCT,4500,,,,,,,VFR,,,,,,,,,,,,METAR,42.0
LGTS 170820Z 27006KT 220V300 9000 FEW020 20/17 Q1009 NOSIG,LGTS,2023-05-17T08:20:00Z,40.52,22.97,20.0,17.0,270,6,,5.59,29.793306,,,,,,TRUE,,,,,FEW,2000,,,,,,,VFR,,,,,,,,,,,,METAR,4.0
LGSR 170820Z 26012KT 230V300 9999 SCT020 21/16 Q1010,LGSR,2023-05-17T08:20:00Z,36.4,25.48,21.0,16.0,260,12,,6.21,29.822834,,,,,,,,,,,SCT,2000,,,,,,,VFR,,,,,,,,,,,,METAR,31.0
LGSA 170820Z 28015G25KT 9999 FEW020 20/13 Q1011,LGSA,2023-05-17T08:20:00Z,35.53,24.13,20.0,13.0,280,15,25,6.21,29.852362,,,,,,,,,,,FEW,2000,,,,,,,VFR,,,,,,,,,,,,METAR,122.0
LGRX 170820Z 21010KT 9999 SCT020 20/14 Q1011,LGRX,2023-05-17T08:20:00Z,38.17,21.42,20.0,14.0,210,10,,6.21,29.852362,,,,,,,,,,,SCT,2000,,,,,,,VFR,,,,,,,,,,,,METAR,16.0
LGRP 170820Z 26015KT 9999 FEW018TCU SCT020 21/18 Q1009 NOSIG,LGRP,2023-05-17T08:20:00Z,36.4,28.08,21.0,18.0,260,15,,6.21,29.793306,,,,,,TRUE,,,,,FEW,1800,SCT,2000,,,,,VFR,,,,,,,,,,,,METAR,3.0
LGPZ 170820Z 00000KT 8000 -RA FEW018CB SCT030 BKN080 19/15 Q1011,LGPZ,2023-05-17T08:20:00Z,38.92,20.77,19.0,15.0,0,0,,4.97,29.852362,,,,,,,,,,-RA,FEW,1800,SCT,3000,BKN,8000,,,MVFR,,,,,,,,,,,,METAR,3.0
LGMT 170820Z 14006KT 9999 SCT025 24/17 Q1009,LGMT,2023-05-17T08:20:00Z,39.05,26.6,24.0,17.0,140,6,,6.21,29.793306,,,,,,,,,,,SCT,2500,,,,,,,VFR,,,,,,,,,,,,METAR,4.0
LGMK 170820Z 21004KT 9999 FEW020 21/14 Q1009,LGMK,2023-05-17T08:20:00Z,37.43,25.35,21.0,14.0,210,4,,6.21,29.793306,,,,,,,,,,,FEW,2000,,,,,,,VFR,,,,,,,,,,,,METAR,126.0
LGLM 170820Z 17008KT 9999 FEW030 23/17 Q1008,LGLM,2023-05-17T08:20:00Z,39.92,25.23,23.0,17.0,170,8,,6.21,29.763779,,,,,,,,,,,FEW,3000,,,,,,,VFR,,,,,,,,,,,,METAR,4.0
LGKV 170820Z 15005KT 9999 FEW030TCU SCT070 21/19 Q1009,LGKV,2023-05-17T08:20:00Z,40.92,24.62,21.0,19.0,150,5,,6.21,29.793306,,,,,,,,,,,FEW,3000,SCT,7000,,,,,VFR,,,,,,,,,,,,METAR,5.0
LGKR 170820Z 10005KT 9000 VCTS FEW010 FEW018CB BKN025 16/14 Q1010 NOSIG,LGKR,2023-05-17T08:20:00Z,39.62,19.92,16.0,14.0,100,5,,5.59,29.822834,,,,,,TRUE,,,,VCTS,FEW,1000,FEW,1800,BKN,2500,,,MVFR,,,,,,,,,,,,METAR,2.0
LGKP 170820Z 30022KT 9999 FEW015 20/16 Q1010,LGKP,2023-05-17T08:20:00Z,35.42,27.15,20.0,16.0,300,22,,6.21,29.822834,,,,,,,,,,,FEW,1500,,,,,,,VFR,,,,,,,,,,,,METAR,20.0
LGKO 170820Z 26007KT 9999 FEW020 20/17 Q1009,LGKO,2023-05-17T08:20:00Z,36.8,27.08,20.0,17.0,260,7,,6.21,29.793306,,,,,,,,,,,FEW,2000,,,,,,,VFR,,,,,,,,,,,,METAR,130.0
LGKL 170820Z 17005KT 9999 SCT020 SCT040 21/13 Q1012,LGKL,2023-05-17T08:20:00Z,37.07,22.02,21.0,13.0,170,5,,6.21,29.88189,,,,,,,,,,,SCT,2000,SCT,4000,,,,,VFR,,,,,,,,,,,,METAR,4.0
LGIR 170820Z 30017KT 9999 FEW020 22/12 Q1011 NOSIG,LGIR,2023-05-17T08:20:00Z,35.33,25.17,22.0,12.0,300,17,,6.21,29.852362,,,,,,TRUE,,,,,FEW,2000,,,,,,,VFR,,,,,,,,,,,,METAR,37.0
LGIO 170820Z 02006KT 9999 -RA FEW020TCU BKN030 BKN080 13/10 Q1012,LGIO,2023-05-17T08:20:00Z,39.7,20.82,13.0,10.0,20,6,,6.21,29.88189,,,,,,,,,,-RA,FEW,2000,BKN,3000,BKN,8000,,,MVFR,,,,,,,,,,,,METAR,476.0
LGBL 170820Z 29008KT 9999 FEW030 25/10 Q1009,LGBL,2023-05-17T08:20:00Z,39.22,22.8,25.0,10.0,290,8,,6.21,29.793306,,,,,,,,,,,FEW,3000,,,,,,,VFR,,,,,,,,,,,,METAR,13.0
LGAV 170820Z VRB03KT 9999 FEW025 23/12 Q1009 NOSIG,LGAV,2023-05-17T08:20:00Z,37.93,23.95,23.0,12.0,0,3,,6.21,29.793306,,,,,,TRUE,,,,,FEW,2500,,,,,,,VFR,,,,,,,,,,,,METAR,83.0
LGAL 170820Z 06008KT 9999 SCT030 19/17 Q1009,LGAL,2023-05-17T08:20:00Z,40.85,25.95,19.0,17.0,60,8,,6.21,29.793306,,,,,,,,,,,SCT,3000,,,,,,,VFR,,,,,,,,,,,,METAR,5.0
LGAD 170820Z 16005KT 9999 FEW018TCU SCT025 18/17 Q1011,LGAD,2023-05-17T08:20:00Z,37.92,21.28,18.0,17.0,160,5,,6.21,29.852362,,,,,,,,,,,FEW,1800,SCT,2500,,,,,VFR,,,,,,,,,,,,METAR,8.0
LCRA 170820Z 24007KT CAVOK 30/08 Q1007 NOSIG,LCRA,2023-05-17T08:20:00Z,34.58,32.98,30.0,8.0,240,7,,6.21,29.734253,,,,,,TRUE,,,,,CAVOK,,,,,,,,VFR,,,,,,,,,,,,METAR,23.0
LCEN 170820Z 25004KT CAVOK 32/02 Q1006 NOSIG RMK RWY11 22003KT,LCEN,2023-05-17T08:20:00Z,35.15,33.5,32.0,2.0,250,4,,6.21,29.704725,,,,,,TRUE,,,,,CAVOK,,,,,,,,VFR,,,,,,,,,,,,METAR,91.0
KMWT 170820Z AUTO 00000KT 10SM BKN023 BKN028 OVC037 19/16 A2987 RMK AO2 T01890156,KMWT,2023-05-17T08:20:00Z,34.55,-93.58,18.9,15.6,0,0,,10.0,29.870079,,,TRUE,TRUE,,,,,,,BKN,2300,BKN,2800,OVC,3700,,,MVFR,,,,,,,,,,,,SPECI,220.0
KMSO 170820Z 33003KT 10SM OVC060 14/11 A3011 RMK AO2 LTG DSNT SE T01440111,KMSO,2023-05-17T08:20:00Z,46.92,-114.1,14.4,11.1,330,3,,10.0,30.109253,,,,TRUE,,,,,,,OVC,6000,,,,,,,VFR,,,,,,,,,,,,SPECI,974.0
KMHV 170820Z AUTO 30011KT 10SM CLR 22/04 A3000 RMK AO2,KMHV,2023-05-17T08:20:00Z,35.07,-118.15,22.0,4.0,300,11,,10.0,30.0,,,TRUE,TRUE,,,,,,,CLR,,,,,,,,VFR,,,,,,,,,,,,SPECI,841.0
KGZN 170820Z AUTO 21005KT 10SM CLR 17/15 A2995 RMK AO2,KGZN,2023-05-17T08:20:00Z,32.37,-99.02,17.0,15.0,210,5,,10.0,29.949802,,,TRUE,TRUE,,,,,,,CLR,,,,,,,,VFR,,,,,,,,,,,,METAR,522.0
KETC 170820Z AUTO 24004KT 7SM SCT049 SCT060 19/18 A2967 RMK AO2 T01910182,KETC,2023-05-17T08:20:00Z,35.93,-77.55,19.1,18.2,240,4,,7.0,29.66929,,,TRUE,TRUE,,,,,,,SCT,4900,SCT,6000,,,,,VFR,,,,,,,,,,,,SPECI,15.0
EYVI 170820Z 03004KT 9999 -RA OVC045 13/12 Q1017 NOSIG,EYVI,2023-05-17T08:20:00Z,54.63,25.28,13.0,12.0,30,4,,6.21,30.029528,,,,,,TRUE,,,,-RA,OVC,4500,,,,,,,VFR,,,,,,,,,,,,METAR,180.0
EYSA 170820Z 20009KT 170V230 9999 SCT037 BKN057 12/06 Q1017 NOSIG,EYSA,2023-05-17T08:20:00Z,55.9,23.4,12.0,6.0,200,9,,6.21,30.029528,,,,,,TRUE,,,,,SCT,3700,BKN,5700,,,,,VFR,,,,,,,,,,,,METAR,135.0
EYPA 170820Z 21010KT 190V280 9999 OVC014 11/07 Q1016,EYPA,2023-05-17T08:20:00Z,55.97,21.08,11.0,7.0,210,10,,6.21,30.0,,,,,,,,,,,OVC,1400,,,,,,,MVFR,,,,,,,,,,,,METAR,15.0
EYKA 170820Z VRB01KT 9999 -RA SCT010 11/08 Q1017,EYKA,2023-05-17T08:20:00Z,54.97,24.08,11.0,8.0,0,1,,6.21,30.029528,,,,,,,,,,-RA,SCT,1000,,,,,,,VFR,,,,,,,,,,,,METAR,68.0
EVVA 170820Z AUTO 20020G31KT 180V240 9999 OVC013 10/08 Q1013,EVVA,2023-05-17T08:20:00Z,57.35,21.55,10.0,8.0,200,20,31,6.21,29.911417,,,TRUE,,,,,,,,OVC,1300,,,,,,,MVFR,,,,,,,,,,,,METAR,1.0
EVRA 170820Z 20012KT 170V230 9999 SCT048 13/04 Q1015 NOSIG,EVRA,2023-05-17T08:20:00Z,56.92,23.97,13.0,4.0,200,12,,6.21,29.970472,,,,,,TRUE,,,,,SCT,4800,,,,,,,VFR,,,,,,,,,,,,METAR,7.0
EVLA 170820Z AUTO 21018KT 9999 FEW014/// BKN028/// BKN043/// 11/08 Q1015,EVLA,2023-05-17T08:20:00Z,56.52,21.1,11.0,8.0,210,18,,6.21,29.970472,,,TRUE,,,,,,,,FEW,1400,BKN,2800,BKN,4300,,,MVFR,,,,,,,,,,,,METAR,5.0
EVGA 170820Z 19008KT 9999 OVC044 13/07 Q1016 NOSIG,EVGA,2023-05-17T08:20:00Z,56.78,24.85,13.0,7.0,190,8,,6.21,30.0,,,,,,TRUE,,,,,OVC,4400,,,,,,,VFR,,,,,,,,,,,,METAR,61.0
ETWM 170820Z 35005KT 9999 FEW036 BKN042 10/01 Q1027 BLU,ETWM,2023-05-17T08:20:00Z,52.72,7.33,10.0,1.0,350,5,,6.21,30.324802,,,,,,,,,,,FEW,3600,BKN,4200,,,,,VFR,,,,,,,,,,,,METAR,18.0
ETSN 170820Z 02005KT 9999 FEW033 SCT180 BKN220 12/05 Q1022 BLU+BLU+,ETSN,2023-05-17T08:20:00Z,48.72,11.22,12.0,5.0,20,5,,6.21,30.177166,,,,,,,,,,,FEW,3300,SCT,18000,BKN,22000,,,VFR,,,,,,,,,,,,METAR,378.0
ETSL 170820Z 02008KT 9999 FEW025 BKN160 09/02 Q1022 BLU BLU,ETSL,2023-05-17T08:20:00Z,48.18,10.87,9.0,2.0,20,8,,6.21,30.177166,,,,,,,,,,,FEW,2500,BKN,16000,,,,,VFR,,,,,,,,,,,,SPECI,548.0
ETSI 170820Z 36008KT 9999 FEW028 BKN280 10/03 Q1022 BLU+BLU TEMPO BLU+,ETSI,2023-05-17T08:20:00Z,48.72,11.53,10.0,3.0,360,8,,6.21,30.177166,,,,,,,,,,,FEW,2800,BKN,28000,,,,,VFR,,,,,,,,,,,,METAR,366.0
ETSH 170820Z 31011KT 9999 BKN030 BKN220 12/02 Q1022 BLU BLU TEMPO BLU+,ETSH,2023-05-17T08:20:00Z,51.77,13.17,12.0,2.0,310,11,,6.21,30.177166,,,,,,,,,,,BKN,3000,BKN,22000,,,,,MVFR,,,,,,,,,,,,METAR,79.0
ETSB 170820Z AUTO 01007KT //// // ////// 08/04 Q1025 ///,ETSB,2023-05-17T08:20:00Z,50.17,7.07,8.0,4.0,10,7,,,30.265747,,,TRUE,,,,,,,,,,,,,,,,,,,,,,,,,,,,METAR,477.0
ETNW 170820Z 33011KT 9999 BKN036 11/02 Q1025 BLU BLU+,ETNW,2023-05-17T08:20:00Z,52.45,9.42,11.0,2.0,330,11,,6.21,30.265747,,,,,,,,,,,BKN,3600,,,,,,,VFR,,,,,,,,,,,,SPECI,57.0
ETNT 170820Z 33009KT 9999 FEW020 BKN040 11/00 Q1026 BLACKBLU,ETNT,2023-05-17T08:20:00Z,53.53,7.67,11.0,0.0,330,9,,6.21,30.295275,,,,,,,,,,,FEW,2000,BKN,4000,,,,,VFR,,,,,,,,,,,,METAR,5.0
ETNS 170820Z 30018KT 9999 BKN035 09/01 Q1023 BLU BLU,ETNS,2023-05-17T08:20:00Z,54.47,9.52,9.0,1.0,300,18,,6.21,30.206694,,,,,,,,,,,BKN,3500,,,,,,,VFR,,,,,,,,,,,,METAR,22.0
ETNN 170820Z 34007KT 9999 SCT020 BKN035 11/05 Q1027 BLU BLU+ TEMPO BLU,ETNN,2023-05-17T08:20:00Z,50.82,6.67,11.0,5.0,340,7,,6.21,30.324802,,,,,,,,,,,SCT,2000,BKN,3500,,,,,VFR,,,,,,,,,,,,METAR,108.0
ETNL 170820Z 29018KT 9999 BKN035 10/00 Q1021 BLU BLU,ETNL,2023-05-17T08:20:00Z,53.92,12.27,10.0,0.0,290,18,,6.21,30.147638,,,,,,,,,,,BKN,3500,,,,,,,VFR,,,,,,,,,,,,METAR,40.0
ETNH 170820Z 29015KT 9999 BKN035 09/01 Q1023 BLU,ETNH,2023-05-17T08:20:00Z,54.32,9.55,9.0,1.0,290,15,,6.21,30.206694,,,,,,,,,,,BKN,3500,,,,,,,VFR,,,,,,,,,,,,SPECI,6.0
ETND 170820Z 32009KT 9999 BKN039 10/01 Q1026 BLU BLU,ETND,2023-05-17T08:20:00Z,52.58,8.35,10.0,1.0,320,9,,6.21,30.295275,,,,,,,,,,,BKN,3900,,,,,,,VFR,,,,,,,,,,,,SPECI,37.0
ETMN 170820Z 31015KT 9999 -SHRA SCT021 BKN032 07/03 Q1025 BLU BLU,ETMN,2023-05-17T08:20:00Z,53.77,8.67,7.0,3.0,310,15,,6.21,30.265747,,,,,,,,,,-SHRA,SCT,2100,BKN,3200,,,,,VFR,,,,,,,,,,,,METAR,23.0
ETHS 170820Z 34012KT 9999 BKN036 09/M00 Q1024 BLACKBLU BLU+ TEMPO BLU,ETHS,2023-05-17T08:20:00Z,52.92,10.18,9.0,0.0,340,12,,6.21,30.236221,,,,,,,,,,,BKN,3600,,,,,,,VFR,,,,,,,,,,,,METAR,71.0
ETHN 170820Z 01009KT 9999 SCT020 BKN220 09/03 Q1023 BLU+BLU+ BECMG BLU,ETHN,2023-05-17T08:20:00Z,49.38,9.97,9.0,3.0,10,9,,6.21,30.206694,,,,,,,,,,,SCT,2000,BKN,22000,,,,,VFR,,,,,,,,,,,,METAR,466.0
ETHL 170820Z 05011KT 9999 FEW020 BKN120 BKN210 09/02 Q1022 BLU BLU BECMG BLU+,ETHL,2023-05-17T08:20:00Z,48.22,9.92,9.0,2.0,50,11,,6.21,30.177166,,,,,,,,,,,FEW,2000,BKN,12000,BKN,21000,,,VFR,,,,,,,,,,,,METAR,536.0
ETHF 170820Z 33010KT 9999 FEW030 BKN043 10/02 Q1025 BLU BLU+ TEMPO BLU,ETHF,2023-05-17T08:20:00Z,51.12,9.28,10.0,2.0,330,10,,6.21,30.265747,,,,,,,,,,,FEW,3000,BKN,4300,,,,,VFR,,,,,,,,,,,,METAR,171.0
ETHC 170820Z 31010KT 9999 FEW035 BKN037 10/01 Q1025 BLU BLU+ TEMPO BLU,ETHC,2023-05-17T08:20:00Z,52.6,10.02,10.0,1.0,310,10,,6.21,30.265747,,,,,,,,,,,FEW,3500,BKN,3700,,,,,VFR,,,,,,,,,,,,METAR,35.0
ETHB 170820Z 34011KT 9999 BKN039 10/01 Q1025 BLU BLU,ETHB,2023-05-17T08:20:00Z,52.27,9.07,10.0,1.0,340,11,,6.21,30.265747,,,,,,,,,,,BKN,3900,,,,,,,VFR,,,,,,,,,,,,SPECI,69.0
ETHA 170820Z 36005KT 9999 SCT020 BKN050 06/03 Q1021 BLU BLU TEMPO WHT,ETHA,2023-05-17T08:20:00Z,47.83,10.87,6.0,3.0,360,5,,6.21,30.147638,,,,,,,,,,,SCT,2000,BKN,5000,,,,,VFR,,,,,,,,,,,,METAR,738.0
ETGG 170820Z AUTO 32027KT 9999 // ////// 10/03 Q1022 ///,ETGG,2023-05-17T08:20:00Z,54.83,9.5,10.0,3.0,320,27,,6.21,30.177166,,,TRUE,,,,,,,,,,,,,,,,,,,,,,,,,,,,METAR,33.0
ESUT 170820Z AUTO 32013KT 9999 OVC039/// 04/M01 Q1004,ESUT,2023-05-17T08:20:00Z,65.8,15.08,4.0,-1.0,320,13,,6.21,29.64567,,,TRUE,,,,,,,,OVC,3900,,,,,,,VFR,,,,,,,,,,,,METAR,457.0
ESUP 170820Z AUTO 14007KT 120V180 9999 -RA OVC006/// ///// Q1001,ESUP,2023-05-17T08:20:00Z,67.25,23.07,,,140,7,,6.21,29.557087,,,TRUE,,,,,,,-RA,OVC,600,,,,,,,IFR,,,,,,,,,,,,METAR,164.0
ESTL 170820Z 28019KT 9999 FEW034 SCT041 09/01 Q1016,ESTL,2023-05-17T08:20:00Z,56.07,13.2,9.0,1.0,280,19,,6.21,30.0,,,,,,,,,,,FEW,3400,SCT,4100,,,,,VFR,,,,,,,,,,,,METAR,39.0
ESTA 170820Z 29022KT 9999 BKN036 10/01 Q1015,ESTA,2023-05-17T08:20:00Z,56.28,12.83,10.0,1.0,290,22,,6.21,29.970472,,,,,,,,,,,BKN,3600,,,,,,,VFR,,,,,,,,,,,,METAR,19.0
ESSV 170820Z 22021KT 9999 SCT019 11/06 Q1008,ESSV,2023-05-17T08:20:00Z,57.67,18.35,11.0,6.0,220,21,,6.21,29.763779,,,,,,,,,,,SCT,1900,,,,,,,VFR,,,,,,,,,,,,METAR,38.0
ESST 170820Z 31014KT 280V340 9999 FEW041 09/02 Q1010,ESST,2023-05-17T08:20:00Z,60.15,12.98,9.0,2.0,310,14,,6.21,29.822834,,,,,,,,,,,FEW,4100,,,,,,,VFR,,,,,,,,,,,,METAR,110.0
ESSP 170820Z 30008KT 9999 -RA SCT010 OVC015 06/05 Q1007,ESSP,2023-05-17T08:20:00Z,58.58,16.25,6.0,5.0,300,8,,6.21,29.734253,,,,,,,,,,-RA,SCT,1000,OVC,1500,,,,,MVFR,,,,,,,,,,,,METAR,3.0
ESSL 170820Z 31010KT 9999 -RA FEW007 SCT009 OVC013 06/04 Q1008,ESSL,2023-05-17T08:20:00Z,58.4,15.67,6.0,4.0,310,10,,6.21,29.763779,,,,,,,,,,-RA,FEW,700,SCT,900,OVC,1300,,,MVFR,,,,,,,,,,,,METAR,51.0
ESSD 170820Z 34009KT 9999 BKN016 05/02 Q1007,ESSD,2023-05-17T08:20:00Z,60.42,15.5,5.0,2.0,340,9,,6.21,29.734253,,,,,,,,,,,BKN,1600,,,,,,,MVFR,,,,,,,,,,,,METAR,151.0
ESSB 170820Z 27010KT 9999 BKN005 08/07 Q1004,ESSB,2023-05-17T08:20:00Z,59.35,17.93,8.0,7.0,270,10,,6.21,29.64567,,,,,,,,,,,BKN,500,,,,,,,IFR,,,,,,,,,,,,METAR,14.0
ESSA 170820Z 34008KT 9999 BKN007 08/07 Q1004 BECMG BKN015,ESSA,2023-05-17T08:20:00Z,59.65,17.93,8.0,7.0,340,8,,6.21,29.64567,,,,,,,,,,,BKN,700,,,,,,,IFR,,,,,,,,,,,,METAR,36.0
ESPE 170820Z 31010KT 9000 -RA SCT005 BKN009 08/08 Q1000,ESPE,2023-05-17T08:20:00Z,65.88,20.15,8.0,8.0,310,10,,5.59,29.52756,,,,,,,,,,-RA,SCT,500,BKN,900,,,,,IFR,,,,,,,,,,,,METAR,182.0
ESPA 170820Z 13007KT 0800 R14/0450V0900U R32/0325V0600U FG -DZ VV002 07/07 Q1001,ESPA,2023-05-17T08:20:00Z,65.53,22.12,7.0,7.0,130,7,,0.5,29.557087,,,,,,,,,,-DZ FG,OVX,0,,,,,,,LIFR,,,,,,,,,,,200,METAR,12.0
ESOW 170820Z 33011KT 7000 DZ FEW006 BKN012 06/02 Q1007,ESOW,2023-05-17T08:20:00Z,59.58,16.63,6.0,2.0,330,11,,4.35,29.734253,,,,,,,,,,DZ,FEW,600,BKN,1200,,,,,MVFR,,,,,,,,,,,,METAR,7.0
ESOK 170820Z 32009KT CAVOK 06/02 Q1010,ESOK,2023-05-17T08:20:00Z,59.45,13.33,6.0,2.0,320,9,,6.21,29.822834,,,,,,,,,,,CAVOK,,,,,,,,VFR,,,,,,,,,,,,METAR,101.0
ESOH 170820Z 34010KT 310V030 9999 OVC082 07/02 Q1009,ESOH,2023-05-17T08:20:00Z,60.02,13.58,7.0,2.0,340,10,,6.21,29.793306,,,,,,,,,,,OVC,8200,,,,,,,VFR,,,,,,,,,,,,METAR,145.0
ESOE 170820Z AUTO 33013KT 310V010 9999 SCT018/// BKN027/// 06/03 Q1008 REDZ,ESOE,2023-05-17T08:20:00Z,59.22,15.05,6.0,3.0,330,13,,6.21,29.763779,,,TRUE,,,,,,,,SCT,1800,BKN,2700,,,,,MVFR,,,,,,,,,,,,METAR,57.0
ESNZ 170820Z 30017KT 9999 SCT020 04/M09 Q1006,ESNZ,2023-05-17T08:20:00Z,63.18,14.5,4.0,-9.0,300,17,,6.21,29.704725,,,,,,,,,,,SCT,2000,,,,,,,VFR,,,,,,,,,,,,METAR,360.0
ESNX 170820Z 29009KT 9999 -RA FEW003 OVC009 05/05 Q1000,ESNX,2023-05-17T08:20:00Z,65.58,19.28,5.0,5.0,290,9,,6.21,29.52756,,,,,,,,,,-RA,FEW,300,OVC,900,,,,,IFR,,,,,,,,,,,,METAR,380.0
ESNV 170820Z 30007KT 280V340 9999 -RA SCT011 OVC020 03/02 Q1003,ESNV,2023-05-17T08:20:00Z,64.58,16.83,3.0,2.0,300,7,,6.21,29.616142,,,,,,,,,,-RA,SCT,1100,OVC,2000,,,,,MVFR,,,,,,,,,,,,METAR,348.0
ESNU 170820Z 19006KT 1000 R14/1200N R32/1200U FG OVC002 08/07 Q1001,ESNU,2023-05-17T08:20:00Z,63.78,20.28,8.0,7.0,190,6,,0.62,29.557087,,,,,,,,,,FG,OVC,200,,,,,,,LIFR,,,,,,,,,,,,METAR,8.0
ESNS 170820Z 17007KT 140V200 9999 DZ OVC005 10/10 Q1000,ESNS,2023-05-17T08:20:00Z,64.62,21.07,10.0,10.0,170,7,,6.21,29.52756,,,,,,,,,,DZ,OVC,500,,,,,,,IFR,,,,,,,,,,,,METAR,41.0
ESNQ 170820Z AUTO 34013KT 9999 -RA FEW010/// OVC023/// 04/02 Q1001,ESNQ,2023-05-17T08:20:00Z,67.82,20.33,4.0,2.0,340,13,,6.21,29.557087,,,TRUE,,,,,,,-RA,FEW,1000,OVC,2300,,,,,MVFR,,,,,,,,,,,,METAR,447.0
ESNO 170820Z AUTO 32009KT 300V360 9999 DZ BKN008/// BKN012/// OVC016/// 06/06 Q1001,ESNO,2023-05-17T08:20:00Z,63.4,18.97,6.0,6.0,320,9,,6.21,29.557087,,,TRUE,,,,,,,DZ,BKN,800,BKN,1200,OVC,1600,,,IFR,,,,,,,,,,,,METAR,100.0
ESNN 170820Z 31012KT 9999 -RA FEW014 SCT040 04/02 Q1004,ESNN,2023-05-17T08:20:00Z,62.52,17.43,4.0,2.0,310,12,,6.21,29.64567,,,,,,,,,,-RA,FEW,1400,SCT,4000,,,,,VFR,,,,,,,,,,,,METAR,4.0
ESNL 170820Z 30007KT 3600 DZ FEW008 BKN010 OVC014 06/05 Q1001,ESNL,2023-05-17T08:20:00Z,64.55,18.72,6.0,5.0,300,7,,2.24,29.557087,,,,,,,,,,DZ,FEW,800,BKN,1000,OVC,1400,,,IFR,,,,,,,,,,,,METAR,220.0
ESNK 170820Z 33009KT 310V010 9999 -RA OVC009 03/02 Q1004,ESNK,2023-05-17T08:20:00Z,63.03,17.77,3.0,2.0,330,9,,6.21,29.64567,,,,,,,,,,-RA,OVC,900,,,,,,,IFR,,,,,,,,,,,,METAR,4.0
ESNG 170820Z 33013KT 8000 RA FEW003 BKN006 OVC017 07/06 Q1000,ESNG,2023-05-17T08:20:00Z,67.13,20.82,7.0,6.0,330,13,,4.97,29.52756,,,,,,,,,,RA,FEW,300,BKN,600,OVC,1700,,,IFR,,,,,,,,,,,,METAR,300.0
ESMX 170820Z 23014KT 9999 BKN035 BKN049 10/02 Q1010,ESMX,2023-05-17T08:20:00Z,56.92,14.72,10.0,2.0,230,14,,6.21,29.822834,,,,,,,,,,,BKN,3500,BKN,4900,,,,,VFR,,,,,,,,,,,,METAR,176.0
ESMT 170820Z 29015KT 9999 VCSH FEW015 SCT024 BKN058 07/05 Q1014,ESMT,2023-05-17T08:20:00Z,56.68,12.82,7.0,5.0,290,15,,6.21,29.940945,,,,,,,,,,VCSH,FEW,1500,SCT,2400,BKN,5800,,,VFR,,,,,,,,,,,,METAR,24.0
ESMS 170820Z 27020KT 9999 SCT040 09/M00 Q1017,ESMS,2023-05-17T08:20:00Z,55.53,13.37,9.0,0.0,270,20,,6.21,30.029528,,,,,,,,,,,SCT,4000,,,,,,,VFR,,,,,,,,,,,,METAR,68.0
ESMQ 170820Z 25016KT 9999 SCT039 11/02 Q1011,ESMQ,2023-05-17T08:20:00Z,56.68,16.3,11.0,2.0,250,16,,6.21,29.852362,,,,,,,,,,,SCT,3900,,,,,,,VFR,,,,,,,,,,,,METAR,3.0
ESMK 170820Z 26016KT 230V300 9999 SCT043 10/01 Q1015,ESMK,2023-05-17T08:20:00Z,55.92,14.08,10.0,1.0,260,16,,6.21,29.970472,,,,,,,,,,,SCT,4300,,,,,,,VFR,,,,,,,,,,,,METAR,20.0
ESKS 170820Z AUTO 33018G29KT 9999 BKN038/// BKN044/// 06/M01 Q1008,ESKS,2023-05-17T08:20:00Z,61.17,12.83,6.0,-1.0,330,18,29,6.21,29.763779,,,TRUE,,,,,,,,BKN,3800,BKN,4400,,,,,VFR,,,,,,,,,,,,METAR,503.0
ESKN 170820Z 28012KT 260V320 9999 -RA BKN010 07/05 Q1006,ESKN,2023-05-17T08:20:00Z,58.78,16.92,7.0,5.0,280,12,,6.21,29.704725,,,,,,,,,,-RA,BKN,1000,,,,,,,MVFR,,,,,,,,,,,,METAR,41.0
ESKM 170820Z AUTO 30009KT 9999 SCT078/// 06/02 Q1007,ESKM,2023-05-17T08:20:00Z,60.97,14.52,6.0,2.0,300,9,,6.21,29.734253,,,TRUE,,,,,,,,SCT,7800,,,,,,,VFR,,,,,,,,,,,,METAR,184.0
ESIB 170820Z 35019KT 9999 -SHRA SCT014TCU BKN023 05/03 Q1012,ESIB,2023-05-17T08:20:00Z,58.42,12.7,5.0,3.0,350,19,,6.21,29.88189,,,,,,,,,,-SHRA,SCT,1400,BKN,2300,,,,,MVFR,,,,,,,,,,,,METAR,51.0
ESIA 170820Z 32009KT 290V360 9999 -RA BKN014 05/04 Q1009,ESIA,2023-05-17T08:20:00Z,58.52,14.5,5.0,4.0,320,9,,6.21,29.793306,,,,,,,,,,-RA,BKN,1400,,,,,,,MVFR,,,,,,,,,,,,METAR,94.0
ESGT 170820Z 32012KT 9999 -RA FEW018 OVC028 05/02 Q1013,ESGT,2023-05-17T08:20:00Z,58.32,12.33,5.0,2.0,320,12,,6.21,29.911417,,,,,,,,,,-RA,FEW,1800,OVC,2800,,,,,MVFR,,,,,,,,,,,,METAR,40.0
ESGP 170820Z 35013KT 9999 BKN045 06/01 Q1015,ESGP,2023-05-17T08:20:00Z,57.77,11.87,6.0,1.0,350,13,,6.21,29.970472,,,,,,,,,,,BKN,4500,,,,,,,VFR,,,,,,,,,,,,METAR,15.0
ESGJ 170820Z 29011KT 9999 -SHRA BKN010 BKN025CB 03/03 Q1010,ESGJ,2023-05-17T08:20:00Z,57.77,14.07,3.0,3.0,290,11,,6.21,29.822834,,,,,,,,,,-SHRA,BKN,1000,BKN,2500,,,,,MVFR,,,,,,,,,,,,METAR,224.0
ESGG 170820Z 31007KT 300V360 9999 -RA BKN009 03/02 Q1014,ESGG,2023-05-17T08:20:00Z,57.67,12.3,3.0,2.0,310,7,,6.21,29.940945,,,,,,,,,,-RA,BKN,900,,,,,,,IFR,,,,,,,,,,,,METAR,152.0
ESDF 170820Z 28014KT 240V300 9999 SCT043 11/03 Q1012,ESDF,2023-05-17T08:20:00Z,56.27,15.27,11.0,3.0,280,14,,6.21,29.88189,,,,,,,,,,,SCT,4300,,,,,,,VFR,,,,,,,,,,,,METAR,52.0
ESCM 170820Z AUTO 34013KT 9999 OVC007/// 05/04 Q1005,ESCM,2023-05-17T08:20:00Z,59.88,17.6,5.0,4.0,340,13,,6.21,29.675198,,,TRUE,,,,,,,,OVC,700,,,,,,,IFR,,,,,,,,,,,,METAR,21.0
ESCF 170820Z 31008KT 9999 -SHRA FEW009 BKN015 05/04 Q1008,ESCF,2023-05-17T08:20:00Z,58.38,15.52,5.0,4.0,310,8,,6.21,29.763779,,,,,,,,,,-SHRA,FEW,900,BKN,1500,,,,,MVFR,,,,,,,,,,,,METAR,86.0
ENZV 170820Z 35014KT 9999 VCSH FEW016 SCT019 BKN048 07/04 Q1023,ENZV,2023-05-17T08:20:00Z,58.88,5.63,7.0,4.0,350,14,,6.21,30.206694,,,,,,,,,,VCSH,FEW,1600,SCT,1900,BKN,4800,,,VFR,,,,,,,,,,,,METAR,7.0
ENWV 170820Z AUTO 32019KT 9999NDV BKN029/// 07/00 Q1027 W///S4,ENWV,2023-05-17T08:20:00Z,56.28,3.4,7.0,0.0,320,19,,,30.324802,,,TRUE,,,,,,,,BKN,2900,,,,,,,,,,,,,,,,,,,METAR,30.0
ENVD 170820Z AUTO VRB02KT 9999 -RA OVC057/// 13/07 Q1003,ENVD,2023-05-17T08:20:00Z,70.07,29.85,13.0,7.0,0,2,,6.21,29.616142,,,TRUE,,,,,,,-RA,OVC,5700,,,,,,,VFR,,,,,,,,,,,,METAR,39.0
ENVA 170820Z 29020KT 9999 VCSH SCT017CB BKN023 07/05 Q1012 TEMPO 28022G32KT 4000 SHRA BKN012CB RMK WIND 670FT 29028KT,ENVA,2023-05-17T08:20:00Z,63.47,10.92,7.0,5.0,290,20,,6.21,29.88189,,,,,,,,,,VCSH,SCT,1700,BKN,2300,,,,,MVFR,,,,,,,,,,,,METAR,12.0
ENUN 170820Z 33026KT 9999 BKN030 03/M03 Q1012 W07/S5,ENUN,2023-05-17T08:20:00Z,,,3.0,-3.0,330,26,,6.21,29.88189,,,,,,,,,,,BKN,3000,,,,,,,MVFR,,,,,,,,,,,,METAR,
ENUG 170820Z AUTO 01008KT 9999NDV -RA BKN048/// BKN098/// 06/03 Q1005 W///S4,ENUG,2023-05-17T08:20:00Z,71.3,22.25,6.0,3.0,10,8,,,29.675198,,,TRUE,,,,,,,-RA,BKN,4800,BKN,9800,,,,,,,,,,,,,,,,,METAR,30.0
ENTO 170820Z 32016KT CAVOK 11/M05 Q1014 NOSIG,ENTO,2023-05-17T08:20:00Z,59.2,10.27,11.0,-5.0,320,16,,6.21,29.940945,,,,,,TRUE,,,,,CAVOK,,,,,,,,VFR,,,,,,,,,,,,METAR,84.0
ENTC 170820Z 06007KT 9999 FEW011 SCT018 BKN028 06/03 Q1007 NOSIG RMK WIND 2600FT 36012KT,ENTC,2023-05-17T08:20:00Z,69.68,18.92,6.0,3.0,60,7,,6.21,29.734253,,,,,,TRUE,,,,,FEW,1100,SCT,1800,BKN,2800,,,MVFR,,,,,,,,,,,,METAR,9.0
ENSS 170820Z AUTO VRB01KT 9999 BKN094/// 11/06 Q1003 RMK WIND 0500FT 23010KT,ENSS,2023-05-17T08:20:00Z,70.35,31.05,11.0,6.0,0,1,,6.21,29.616142,,,TRUE,,,,,,,,BKN,9400,,,,,,,VFR,,,,,,,,,,,,METAR,13.0
ENSR 170820Z AUTO 30008KT 260V330 9999 -RA BKN020/// OVC030/// 06/04 Q1006 RMK WIND RWY32 29006KT WIND 1118FT 29014KT,ENSR,2023-05-17T08:20:00Z,69.78,20.97,6.0,4.0,300,8,,6.21,29.704725,,,TRUE,,,,,,,-RA,BKN,2000,OVC,3000,,,,,MVFR,,,,,,,,,,,,METAR,5.0
ENSL 170820Z AUTO 30010KT 280V010 9999NDV BKN041/// 08/M02 Q1026 W06/S4,ENSL,2023-05-17T08:20:00Z,58.37,1.9,8.0,-2.0,300,10,,,30.295275,,,TRUE,,,,,,,,BKN,4100,,,,,,,,,,,,,,,,,,,METAR,50.0
ENSK 170820Z AUTO 13003KT 9999 FEW022/// SCT028/// BKN039/// 07/05 Q1007,ENSK,2023-05-17T08:20:00Z,68.57,15.02,7.0,5.0,130,3,,6.21,29.734253,,,TRUE,,,,,,,,FEW,2200,SCT,2800,BKN,3900,,,VFR,,,,,,,,,,,,METAR,3.0
ENSH 170820Z AUTO 34006KT 9999 -DZRA FEW019/// 08/05 Q1007 RMK WIND 0150FT 31008KT,ENSH,2023-05-17T08:20:00Z,68.25,14.67,8.0,5.0,340,6,,6.21,29.734253,,,TRUE,,,,,,,-DZ -RA,FEW,1900,,,,,,,VFR,,,,,,,,,,,,METAR,9.0
ENSG 170820Z AUTO 24013KT 200V260 9999 SCT027/// 05/M02 Q1017 RMK WIND 3806FT 28025KT,ENSG,2023-05-17T08:20:00Z,61.15,7.13,5.0,-2.0,240,13,,6.21,30.029528,,,TRUE,,,,,,,,SCT,2700,,,,,,,VFR,,,,,,,,,,,,METAR,493.0
ENSF 170820Z AUTO 35011KT 9999NDV BKN040/// ///// Q//// W///S5,ENSF,2023-05-17T08:20:00Z,61.25,1.85,,,350,11,,,,,,TRUE,,,,,,,,BKN,4000,,,,,,,,,,,,,,,,,,,METAR,15.0
ENSE 170820Z AUTO 34013KT //// BKN038/// 05/M02 Q1023 W///S6,ENSE,2023-05-17T08:20:00Z,61.45,2.15,5.0,-2.0,340,13,,,30.206694,,,TRUE,,,,,,,,BKN,3800,,,,,,,,,,,,,,,,,,,METAR,10.0
ENSD 170820Z 29012KT 250V320 9999 FEW023 SCT027 BKN038 05/00 Q1020 RMK WIND RWY26 27013KT WIND 1140FT VRB08KT,ENSD,2023-05-17T08:20:00Z,61.82,6.12,5.0,0.0,290,12,,6.21,30.11811,,,,,,,,,,,FEW,2300,SCT,2700,BKN,3800,,,VFR,,,,,,,,,,,,METAR,61.0
ENSB 170820Z VRB02KT 9999 FEW008 SCT013 BKN030 M02/M05 Q0998 RMK WIND 1400FT 20002KT,ENSB,2023-05-17T08:20:00Z,78.25,15.47,-2.0,-5.0,0,2,,6.21,29.468504,,,,,,,,,,,FEW,800,SCT,1300,BKN,3000,,,MVFR,,,0.2,,,,,,,,,METAR,30.0
ENRY 170820Z AUTO 31013KT 9999 NCD 11/M05 Q1013,ENRY,2023-05-17T08:20:00Z,59.37,10.77,11.0,-5.0,310,13,,6.21,29.911417,,,TRUE,,,,,,,,CLR,,,,,,,,VFR,,,,,,,,,,,,METAR,45.0
ENRS 170820Z AUTO 29005KT 260V320 9999 FEW037/// SCT108/// 09/03 Q1008,ENRS,2023-05-17T08:20:00Z,67.52,12.1,9.0,3.0,290,5,,6.21,29.763779,,,TRUE,,,,,,,,FEW,3700,SCT,10800,,,,,VFR,,,,,,,,,,,,METAR,4.0
ENRO 170820Z AUTO 31021KT 9999 -DZRA 04/M01 Q1009,ENRO,2023-05-17T08:20:00Z,62.57,11.33,4.0,-1.0,310,21,,6.21,29.793306,,,TRUE,,,,,,,-DZ -RA,,,,,,,,,,,,,,,,,,,,,METAR,624.0
ENRM 170820Z AUTO 30011KT 270V330 9999 FEW021/// 08/05 Q1009,ENRM,2023-05-17T08:20:00Z,64.83,11.13,8.0,5.0,300,11,,6.21,29.793306,,,TRUE,,,,,,,,FEW,2100,,,,,,,VFR,,,,,,,,,,,,METAR,4.0
ENRA 170820Z AUTO 35003KT 300V020 9999 -RA FEW038/// OVC064/// 06/02 Q1007,ENRA,2023-05-17T08:20:00Z,66.37,14.3,6.0,2.0,350,3,,6.21,29.734253,,,TRUE,,,,,,,-RA,FEW,3800,OVC,6400,,,,,VFR,,,,,,,,,,,,METAR,66.0
ENQR 170820Z AUTO 32012KT 9999NDV BKN030/// 05/M01 Q1023 W09/S5,ENQR,2023-05-17T08:20:00Z,61.52,2.22,5.0,-1.0,320,12,,,30.206694,,,TRUE,,,,,,,,BKN,3000,,,,,,,,,,,,,,,,,,,METAR,10.0
ENQC 170820Z AUTO 31014KT 9999NDV OVC033/// 08/M01 Q1022 W///S5,ENQC,2023-05-17T08:20:00Z,60.88,3.62,8.0,-1.0,310,14,,,30.177166,,,TRUE,,,,,,,,OVC,3300,,,,,,,,,,,,,,,,,,,METAR,20.0
ENQA 170820Z AUTO 33019KT 9999NDV OVC037/// 04/M03 Q1023 W10/S5,ENQA,2023-05-17T08:20:00Z,60.65,3.72,4.0,-3.0,330,19,,,30.206694,,,TRUE,,,,,,,,OVC,3700,,,,,,,,,,,,,,,,,,,METAR,90.0
ENOV 170820Z AUTO 20006KT 150V250 9999 SCT025/// OVC037/// 04/01 Q1020 REDZ RMK WIND RWY24 VRB03KT WIND 2090FT 29016KT,ENOV,2023-05-17T08:20:00Z,62.17,6.07,4.0,1.0,200,6,,6.21,30.11811,,,TRUE,,,,,,,,SCT,2500,OVC,3700,,,,,VFR,,,,,,,,,,,,METAR,72.0
ENOL 170820Z 31024G35KT VCSH SCT020 BKN040 07/03 Q1014 TEMPO 31022KT SHRA SCT015TCU BKN020,ENOL,2023-05-17T08:20:00Z,63.7,9.6,7.0,3.0,310,24,35,,29.940945,,,,,,,,,,VCSH,SCT,2000,BKN,4000,,,,,,,,,,,,,,,,,METAR,9.0
ENOA 170820Z 33015KT 9999 BKN035 05/M03 Q1023 W///S5,ENOA,2023-05-17T08:20:00Z,60.5,2.83,5.0,-3.0,330,15,,6.21,30.206694,,,,,,,,,,,BKN,3500,,,,,,,VFR,,,,,,,,,,,,METAR,5.0
ENNM 170820Z AUTO 23007KT 9999 -RA SCT013/// BKN016/// OVC024/// 06/04 Q1009,ENNM,2023-05-17T08:20:00Z,64.47,11.57,6.0,4.0,230,7,,6.21,29.793306,,,TRUE,,,,,,,-RA,SCT,1300,BKN,1600,OVC,2400,,,MVFR,,,,,,,,,,,,METAR,2.0
ENNE 170820Z 31031KT 9999 BKN015 04/M01 Q1011 W///S5,ENNE,2023-05-17T08:20:00Z,66.03,8.08,4.0,-1.0,310,31,,6.21,29.852362,,,,,,,,,,,BKN,1500,,,,,,,MVFR,,,,,,,,,,,,METAR,10.0
ENNA 170820Z AUTO 36011KT 9999 -RA OVC007/// 06/05 Q1004 RMK WIND 1800FT 01013KT,ENNA,2023-05-17T08:20:00Z,70.07,24.97,6.0,5.0,360,11,,6.21,29.64567,,,TRUE,,,,,,,-RA,OVC,700,,,,,,,IFR,,,,,,,,,,,,METAR,12.0
ENMS 170820Z AUTO 32004KT 260V010 9999 OVC033/// 07/00 Q1007 RMK WIND 412FT 23004KT,ENMS,2023-05-17T08:20:00Z,65.78,13.22,7.0,0.0,320,4,,6.21,29.734253,,,TRUE,,,,,,,,OVC,3300,,,,,,,VFR,,,,,,,,,,,,METAR,44.0
ENML 170820Z 28013KT 260V320 9999 FEW023 BKN045 05/01 Q1019,ENML,2023-05-17T08:20:00Z,62.75,7.27,5.0,1.0,280,13,,6.21,30.088583,,,,,,,,,,,FEW,2300,BKN,4500,,,,,VFR,,,,,,,,,,,,METAR,3.0
ENMH 170820Z AUTO 36006KT 3400 06/06 Q1004,ENMH,2023-05-17T08:20:00Z,71.02,27.82,6.0,6.0,360,6,,2.11,29.64567,,,TRUE,,,,,,,,,,,,,,,,,,,,,,,,,,,,METAR,10.0
ENLE 170820Z 30020KT 9999 FEW020 SCT040 08/02 Q1027 W09/S4,ENLE,2023-05-17T08:20:00Z,56.53,3.22,8.0,2.0,300,20,,6.21,30.324802,,,,,,,,,,,FEW,2000,SCT,4000,,,,,VFR,,,,,,,,,,,,METAR,10.0
ENLA 170820Z AUTO 28014KT 9999NDV BKN036/// 08/02 Q1026 W///S5,ENLA,2023-05-17T08:20:00Z,57.1,2.83,8.0,2.0,280,14,,,30.295275,,,TRUE,,,,,,,,BKN,3600,,,,,,,,,,,,,,,,,,,METAR,10.0
ENKR 170820Z 18012KT 9999 -RA FEW010 SCT022 BKN037 13/08 Q1004 RMK WIND 731FT 18014KT,ENKR,2023-05-17T08:20:00Z,69.72,29.88,13.0,8.0,180,12,,6.21,29.64567,,,,,,,,,,-RA,FEW,1000,SCT,2200,BKN,3700,,,VFR,,,,,,,,,,,,METAR,86.0
ENKB 170820Z 29016KT 9999 VCSH FEW011 SCT015 BKN026 05/02 Q1017 RMK WIND 745FT 31028KT,ENKB,2023-05-17T08:20:00Z,63.12,7.82,5.0,2.0,290,16,,6.21,30.029528,,,,,,,,,,VCSH,FEW,1100,SCT,1500,BKN,2600,,,MVFR,,,,,,,,,,,,METAR,62.0
ENJS 170820Z 32020KT 9999 VCSH BKN040 07/M02 Q1025 W08/S/,ENJS,2023-05-17T08:20:00Z,,,7.0,-2.0,320,20,,6.21,30.265747,,,,,,,,,,VCSH,BKN,4000,,,,,,,VFR,,,,,,,,,,,,METAR,
ENHV 170820Z AUTO 02014KT 9999 -RA SCT005/// OVC015/// 06/05 Q1005,ENHV,2023-05-17T08:20:00Z,71.02,25.97,6.0,5.0,20,14,,6.21,29.675198,,,TRUE,,,,,,,-RA,SCT,500,OVC,1500,,,,,MVFR,,,,,,,,,,,,METAR,13.0
ENHM 170820Z AUTO 33017KT //// SCT037/// BKN042/// 05/M01 Q1024 W08/S/,ENHM,2023-05-17T08:20:00Z,59.57,2.23,5.0,-1.0,330,17,,,30.236221,,,TRUE,,,,,,,,SCT,3700,BKN,4200,,,,,,,,,,,,,,,,,METAR,10.0
ENHK 170820Z AUTO 35008KT 310V010 9999 -RA 06/04 Q1006,ENHK,2023-05-17T08:20:00Z,70.48,22.13,6.0,4.0,350,8,,6.21,29.704725,,,TRUE,,,,,,,-RA,,,,,,,,,,,,,,,,,,,,,METAR,6.0
ENHF 170820Z AUTO 01008KT 9999 -RA FEW000/// SCT018/// 05/03 Q1005 RMK WIND 1254FT 01014KT,ENHF,2023-05-17T08:20:00Z,70.67,23.67,5.0,3.0,10,8,,6.21,29.675198,,,TRUE,,,,,,,-RA,FEW,0,SCT,1800,,,,,VFR,,,,,,,,,,,,METAR,79.0
ENHE 170820Z 33024KT 9999 OVC035 05/M03 Q1014 W///S5,ENHE,2023-05-17T08:20:00Z,65.33,2.33,5.0,-3.0,330,24,,6.21,29.940945,,,,,,,,,,,OVC,3500,,,,,,,VFR,,,,,,,,,,,,METAR,10.0
ENHD 170820Z 32015KT 9999 FEW026 BKN035 06/01 Q1023,ENHD,2023-05-17T08:20:00Z,59.35,5.22,6.0,1.0,320,15,,6.21,30.206694,,,,,,,,,,,FEW,2600,BKN,3500,,,,,VFR,,,,,,,,,,,,METAR,22.0
ENGM 170820Z 35012G22KT 300V020 CAVOK 10/M05 Q1011 TEMPO 34015G25KT,ENGM,2023-05-17T08:20:00Z,60.2,11.07,10.0,-5.0,350,12,22,6.21,29.852362,,,,,,,,,,,CAVOK,,,,,,,,VFR,,,,,,,,,,,,METAR,204.0
ENGC 170820Z 36013KT 9999 BKN035 06/M02 Q1023 W06/S5,ENGC,2023-05-17T08:20:00Z,61.02,2.02,6.0,-2.0,360,13,,6.21,30.206694,,,,,,,,,,,BKN,3500,,,,,,,VFR,,,,,,,,,,,,METAR,10.0
ENFL 170820Z 32015KT 9999 VCSH FEW017 SCT022 BKN035 06/M00 Q1021,ENFL,2023-05-17T08:20:00Z,61.57,5.02,6.0,0.0,320,15,,6.21,30.147638,,,,,,,,,,VCSH,FEW,1700,SCT,2200,BKN,3500,,,VFR,,,,,,,,,,,,METAR,1.0
ENFB 170820Z AUTO 34008KT 9999NDV BKN040/// ///// Q//// W///S5,ENFB,2023-05-17T08:20:00Z,61.2,1.83,,,340,8,,,,,,TRUE,,,,,,,,BKN,4000,,,,,,,,,,,,,,,,,,,METAR,10.0
ENEV 170820Z VRB02KT 9999 -DZ SCT017 BKN026 07/05 Q1007 RMK WIND 1400FT 33006KT,ENEV,2023-05-17T08:20:00Z,68.48,16.67,7.0,5.0,0,2,,6.21,29.734253,,,,,,,,,,-DZ,SCT,1700,BKN,2600,,,,,MVFR,,,,,,,,,,,,METAR,26.0
ENDU 170820Z 28007KT 9999 -RA FEW010 SCT020 BKN030 07/05 Q1006 NOSIG RMK WIND 1100FT 31009KT WIND 2200FT 33011KT,ENDU,2023-05-17T08:20:00Z,69.05,18.55,7.0,5.0,280,7,,6.21,29.704725,,,,,,TRUE,,,,-RA,FEW,1000,SCT,2000,BKN,3000,,,MVFR,,,,,,,,,,,,METAR,65.0
ENDR 170820Z AUTO 33028KT 9999NDV BKN028/// 05/00 Q1014 W///S6,ENDR,2023-05-17T08:20:00Z,64.35,7.77,5.0,0.0,330,28,,,29.940945,,,TRUE,,,,,,,,BKN,2800,,,,,,,,,,,,,,,,,,,METAR,10.0
ENCN 170820Z AUTO 31010KT 270V350 9999 NCD 11/M05 Q1018,ENCN,2023-05-17T08:20:00Z,58.2,8.07,11.0,-5.0,310,10,,6.21,30.059055,,,TRUE,,,,,,,,CLR,,,,,,,,VFR,,,,,,,,,,,,METAR,17.0
ENBV 170820Z AUTO 34003KT 9999 -RA FEW005/// OVC059/// 06/05 Q1004,ENBV,2023-05-17T08:20:00Z,70.87,29.02,6.0,5.0,340,3,,6.21,29.64567,,,TRUE,,,,,,,-RA,FEW,500,OVC,5900,,,,,VFR,,,,,,,,,,,,METAR,13.0
ENBS 170820Z AUTO VRB02KT 9999 BKN057/// OVC076/// 09/06 Q1003,ENBS,2023-05-17T08:20:00Z,70.62,29.68,9.0,6.0,0,2,,6.21,29.616142,,,TRUE,,,,,,,,BKN,5700,OVC,7600,,,,,VFR,,,,,,,,,,,,METAR,144.0
ENBR 170820Z 31014KT 9999 VCSH FEW017CB BKN039 06/02 Q1022 TEMPO SHRA BKN012CB RMK WIND 1200FT 32019KT,ENBR,2023-05-17T08:20:00Z,60.28,5.22,6.0,2.0,310,14,,6.21,30.177166,,,,,,,,,,VCSH,FEW,1700,BKN,3900,,,,,VFR,,,,,,,,,,,,METAR,49.0
ENBO 170820Z 28009KT 9999 FEW018 SCT037 BKN057 07/03 Q1008 TEMPO BKN012,ENBO,2023-05-17T08:20:00Z,67.27,14.37,7.0,3.0,280,9,,6.21,29.763779,,,,,,,,,,,FEW,1800,SCT,3700,BKN,5700,,,VFR,,,,,,,,,,,,METAR,13.0
ENBN 170820Z 21011KT 9999 VCSH FEW010 BKN015 07/04 Q1008,ENBN,2023-05-17T08:20:00Z,65.47,12.22,7.0,4.0,210,11,,6.21,29.763779,,,,,,,,,,VCSH,FEW,1000,BKN,1500,,,,,MVFR,,,,,,,,,,,,METAR,3.0
ENBL 170820Z AUTO 24005KT 170V270 9999 03/00 Q1019,ENBL,2023-05-17T08:20:00Z,61.4,5.77,3.0,0.0,240,5,,6.21,30.088583,,,TRUE,,,,,,,,,,,,,,,,,,,,,,,,,,,,METAR,313.0
ENAT 170820Z VRB02KT 9999 -RA SCT014 BKN020 07/07 Q1004 RMK WIND 700FT 35010KT,ENAT,2023-05-17T08:20:00Z,69.97,23.37,7.0,7.0,0,2,,6.21,29.64567,,,,,,,,,,-RA,SCT,1400,BKN,2000,,,,,MVFR,,,,,,,,,,,,METAR,3.0
ENAN 170820Z 36006KT 9999 FEW010 BKN030 08/04 Q1007,ENAN,2023-05-17T08:20:00Z,69.3,16.13,8.0,4.0,360,6,,6.21,29.734253,,,,,,,,,,,FEW,1000,BKN,3000,,,,,MVFR,,,,,,,,,,,,METAR,13.0
ENAL 170820Z 28009KT 9999 FEW030 BKN040 05/M00 Q1020,ENAL,2023-05-17T08:20:00Z,62.57,6.12,5.0,0.0,280,9,,6.21,30.11811,,,,,,,,,,,FEW,3000,BKN,4000,,,,,VFR,,,,,,,,,,,,METAR,21.0
ELLX 170820Z 01011KT 330V040 9999 SCT025 10/03 Q1026 NOSIG,ELLX,2023-05-17T08:20:00Z,49.63,6.2,10.0,3.0,10,11,,6.21,30.295275,,,,,,TRUE,,,,,SCT,2500,,,,,,,VFR,,,,,,,,,,,,METAR,374.0
EKYT 170820Z AUTO 32013KT 290V360 9999 NCD 09/M01 Q1018,EKYT,2023-05-17T08:20:00Z,57.1,9.87,9.0,-1.0,320,13,,6.21,30.059055,,,TRUE,,,,,,,,CLR,,,,,,,,VFR,,,,,,,,,,,,METAR,2.0
EKVG 170820Z AUTO 19010KT 9999 DZRA OVC006/// 08/08 Q1017 RMK BKN002/// OVC018/// WIND SKEID 21014G26KT 130V250,EKVG,2023-05-17T08:20:00Z,62.07,-7.27,8.0,8.0,190,10,,6.21,30.029528,,,TRUE,,,,,,,DZ RA,OVC,600,,,,,,,IFR,,,-1.4,,,,,,,,,METAR,89.0
EKSP 170820Z 30017G27KT 9999 BKN035 09/02 Q1021 TEMPO 30015G28KT,EKSP,2023-05-17T08:20:00Z,55.22,9.27,9.0,2.0,300,17,27,6.21,30.147638,,,,,,,,,,,BKN,3500,,,,,,,VFR,,,,,,,,,,,,METAR,40.0
EKSB 170820Z 30017KT 9999 SCT040 10/01 Q1021,EKSB,2023-05-17T08:20:00Z,54.97,9.8,10.0,1.0,300,17,,6.21,30.147638,,,,,,,,,,,SCT,4000,,,,,,,VFR,,,,,,,,,,,,METAR,23.0
EKRS 170820Z AUTO VRB16G28KT 9999 SCT043/// 08/01 Q1019,EKRS,2023-05-17T08:20:00Z,55.42,11.8,8.0,1.0,0,16,28,6.21,30.088583,,,TRUE,,,,,,,,SCT,4300,,,,,,,VFR,,,,,,,,,,,,METAR,34.0
EKRN 170820Z AUTO 26020KT 9999 BKN031/// 09/02 Q1018,EKRN,2023-05-17T08:20:00Z,55.07,14.75,9.0,2.0,260,20,,6.21,30.059055,,,TRUE,,,,,,,,BKN,3100,,,,,,,VFR,,,,,,,,,,,,METAR,14.0
EKRK 170820Z AUTO 28020KT 9999 BKN035/// 08/00 Q1018,EKRK,2023-05-17T08:20:00Z,55.58,12.13,8.0,0.0,280,20,,6.21,30.059055,,,TRUE,,,,,,,,BKN,3500,,,,,,,VFR,,,,,,,,,,,,METAR,40.0
EKKA 170820Z AUTO 31020KT 9999 BKN036/// 08/00 Q1020 TEMPO 31020G30KT,EKKA,2023-05-17T08:20:00Z,56.3,9.12,8.0,0.0,310,20,,6.21,30.11811,,,TRUE,,,,,,,,BKN,3600,,,,,,,VFR,,,,,,,,,,,,METAR,50.0
EKEB 170820Z 31021KT 9999 SCT033 08/02 Q1022,EKEB,2023-05-17T08:20:00Z,55.52,8.55,8.0,2.0,310,21,,6.21,30.177166,,,,,,,,,,,SCT,3300,,,,,,,VFR,,,,,,,,,,,,METAR,29.0
EKCH 170820Z AUTO 28015G28KT 260V320 9999 BKN042/// 09/M01 Q1018 TEMPO 29015G25KT,EKCH,2023-05-17T08:20:00Z,55.62,12.67,9.0,-1.0,280,15,28,6.21,30.059055,,,TRUE,,,,,,,,BKN,4200,,,,,,,VFR,,,,,,,,,,,,METAR,4.0
EKBI 170820Z AUTO 29022G32KT 9999 SCT036/// 09/M00 Q1020,EKBI,2023-05-17T08:20:00Z,55.73,9.15,9.0,0.0,290,22,32,6.21,30.11811,,,TRUE,,,,,,,,SCT,3600,,,,,,,VFR,,,,,,,,,,,,METAR,67.0
EGYH 170820Z AUTO 14005KT 9999 OVC032/// 13/08 Q1029,EGYH,2023-05-17T08:20:00Z,52.87,0.15,13.0,8.0,140,5,,6.21,30.383858,,,TRUE,,,,,,,,OVC,3200,,,,,,,VFR,,,,,,,,,,,,METAR,5.0
EGYE 170820Z AUTO 31004KT //// ///////// ///// Q////,EGYE,2023-05-17T08:20:00Z,52.97,-0.57,,,310,4,,,,,,TRUE,,,,,,,,,,,,,,,,,,,,,,,,,,,,METAR,105.0
EGYD 170820Z 03001KT 9999 FEW014 BKN035 12/09 Q1029 TEMPO SCT015 RMK BLU TEMPO WHT,EGYD,2023-05-17T08:20:00Z,53.03,-0.5,12.0,9.0,30,1,,6.21,30.383858,,,,,,,,,,,FEW,1400,BKN,3500,,,,,VFR,,,,,,,,,,,,METAR,65.0
EGXZ 170820Z AUTO 32003KT 9999 NCD 13/08 Q1029,EGXZ,2023-05-17T08:20:00Z,54.2,-1.38,13.0,8.0,320,3,,6.21,30.383858,,,TRUE,,,,,,,,CLR,,,,,,,,VFR,,,,,,,,,,,,METAR,24.0
EGXW 170820Z AUTO 27002KT 9999 FEW035/// OVC051/// 12/08 Q1029,EGXW,2023-05-17T08:20:00Z,53.18,-0.52,12.0,8.0,270,2,,6.21,30.383858,,,TRUE,,,,,,,,FEW,3500,OVC,5100,,,,,VFR,,,,,,,,,,,,METAR,70.0
EGXV 170820Z AUTO 18003KT 9999 SCT055/// 12/07 Q1029,EGXV,2023-05-17T08:20:00Z,53.87,-0.45,12.0,7.0,180,3,,6.21,30.383858,,,TRUE,,,,,,,,SCT,5500,,,,,,,VFR,,,,,,,,,,,,METAR,6.0
EGXT 170820Z 33006KT 9999 SCT014 BKN032 13/09 Q1029 RMK GRN,EGXT,2023-05-17T08:20:00Z,52.62,-0.47,13.0,9.0,330,6,,6.21,30.383858,,,,,,,,,,,SCT,1400,BKN,3200,,,,,VFR,,,,,,,,,,,,METAR,74.0
EGXS 170820Z 08006KT 9999 FEW033 OVC056 11/07 Q1029 RMK BLU,EGXS,2023-05-17T08:20:00Z,53.48,0.15,11.0,7.0,80,6,,6.21,30.383858,,,,,,,,,,,FEW,3300,OVC,5600,,,,,VFR,,,,,,,,,,,,METAR,6.0
EGXE 170820Z 03003KT 9999 FEW020 SCT250 13/08 Q1029 NOSIG RMK BLU BLU,EGXE,2023-05-17T08:20:00Z,54.28,-1.52,13.0,8.0,30,3,,6.21,30.383858,,,,,,TRUE,,,,,FEW,2000,SCT,25000,,,,,VFR,,,,,,,,,,,,METAR,30.0
EGWU 170820Z 25001KT 9999 FEW022 SCT300 13/08 Q1029 NOSIG RMK BLU BLU,EGWU,2023-05-17T08:20:00Z,51.55,-0.42,13.0,8.0,250,1,,6.21,30.383858,,,,,,TRUE,,,,,FEW,2200,SCT,30000,,,,,VFR,,,,,,,,,,,,METAR,33.0
EGVP 170820Z 33006KT 9999 FEW022 BKN300 12/07 Q1030 TEMPO SCT022 RMK BLU TEMPO WHT,EGVP,2023-05-17T08:20:00Z,51.13,-1.57,12.0,7.0,330,6,,6.21,30.413385,,,,,,,,,,,FEW,2200,BKN,30000,,,,,VFR,,,,,,,,,,,,METAR,80.0
EGVO 170820Z 32005KT 9999 FEW016 SCT300 12/08 Q1029 NOSIG RMK BLU BLU,EGVO,2023-05-17T08:20:00Z,51.23,-0.95,12.0,8.0,320,5,,6.21,30.383858,,,,,,TRUE,,,,,FEW,1600,SCT,30000,,,,,VFR,,,,,,,,,,,,METAR,118.0
EGVN 170820Z 01005KT 9999 FEW020 BKN300 13/08 Q1029 NOSIG RMK BLU BLU,EGVN,2023-05-17T08:20:00Z,51.77,-1.58,13.0,8.0,10,5,,6.21,30.383858,,,,,,TRUE,,,,,FEW,2000,BKN,30000,,,,,VFR,,,,,,,,,,,,METAR,83.0
EGUW 170820Z 10005KT 9999 FEW030 SCT080 BKN180 13/07 Q1029 NOSIG RMK BLU BLU,EGUW,2023-05-17T08:20:00Z,52.12,0.97,13.0,7.0,100,5,,6.21,30.383858,,,,,,TRUE,,,,,FEW,3000,SCT,8000,BKN,18000,,,VFR,,,,,,,,,,,,METAR,86.0
EGUB 170820Z 34005KT 9999 FEW015 BKN200 12/09 Q1029 NOSIG RMK BLU BLU,EGUB,2023-05-17T08:20:00Z,51.62,-1.08,12.0,9.0,340,5,,6.21,30.383858,,,,,,TRUE,,,,,FEW,1500,BKN,20000,,,,,VFR,,,,,,,,,,,,METAR,56.0
EGTK 170820Z 34006KT 300V010 9999 FEW022 12/08 Q1029,EGTK,2023-05-17T08:20:00Z,51.83,-1.32,12.0,8.0,340,6,,6.21,30.383858,,,,,,,,,,,FEW,2200,,,,,,,VFR,,,,,,,,,,,,METAR,78.0
EGTE 170820Z VRB03KT CAVOK 13/08 Q1030,EGTE,2023-05-17T08:20:00Z,50.73,-3.42,13.0,8.0,0,3,,6.21,30.413385,,,,,,,,,,,CAVOK,,,,,,,,VFR,,,,,,,,,,,,METAR,30.0
EGTC 170820Z 31005KT 270V360 9999 FEW020 12/09 Q1029,EGTC,2023-05-17T08:20:00Z,52.07,-0.62,12.0,9.0,310,5,,6.21,30.383858,,,,,,,,,,,FEW,2000,,,,,,,VFR,,,,,,,,,,,,METAR,110.0
EGSY 170820Z 29005KT 260V340 9999 FEW040 14/08 Q1030,EGSY,2023-05-17T08:20:00Z,51.4,-3.43,14.0,8.0,290,5,,6.21,30.413385,,,,,,,,,,,FEW,4000,,,,,,,VFR,,,,,,,,,,,,METAR,46.0
EGSS 170820Z AUTO 32004KT 270V010 9999 NCD 13/09 Q1029,EGSS,2023-05-17T08:20:00Z,51.88,0.22,13.0,9.0,320,4,,6.21,30.383858,,,TRUE,,,,,,,,CLR,,,,,,,,VFR,,,,,,,,,,,,METAR,101.0
EGSH 170820Z 08005KT 030V140 9999 FEW034 13/07 Q1029,EGSH,2023-05-17T08:20:00Z,52.68,1.28,13.0,7.0,80,5,,6.21,30.383858,,,,,,,,,,,FEW,3400,,,,,,,VFR,,,,,,,,,,,,METAR,21.0
EGSC 170820Z VRB03KT 9999 BKN015 13/09 Q1029,EGSC,2023-05-17T08:20:00Z,52.2,0.17,13.0,9.0,0,3,,6.21,30.383858,,,,,,,,,,,BKN,1500,,,,,,,MVFR,,,,,,,,,,,,METAR,19.0
EGQS 170820Z 27011KT 9999 FEW045 SCT250 13/07 Q1026 NOSIG RMK BLU BLU,EGQS,2023-05-17T08:20:00Z,57.72,-3.32,13.0,7.0,270,11,,6.21,30.295275,,,,,,TRUE,,,,,FEW,4500,SCT,25000,,,,,VFR,,,,,,,,,,,,METAR,6.0
EGQM 170820Z AUTO 25005KT 9999 BKN058/// 12/08 Q1028,EGQM,2023-05-17T08:20:00Z,55.42,-1.6,12.0,8.0,250,5,,6.21,30.35433,,,TRUE,,,,,,,,BKN,5800,,,,,,,VFR,,,,,,,,,,,,METAR,24.0
EGQK 170820Z AUTO 24009KT 9999 FEW028/// 14/07 Q1025,EGQK,2023-05-17T08:20:00Z,57.65,-3.57,14.0,7.0,240,9,,6.21,30.265747,,,TRUE,,,,,,,,FEW,2800,,,,,,,VFR,,,,,,,,,,,,METAR,5.0
EGPU 170820Z 23012KT 9999 FEW011 SCT026 11/09 Q1028,EGPU,2023-05-17T08:20:00Z,56.5,-6.88,11.0,9.0,230,12,,6.21,30.35433,,,,,,,,,,,FEW,1100,SCT,2600,,,,,VFR,,,,,,,,,,,,METAR,12.0
EGPO 170820Z 22010KT 9999 FEW021 SCT028 12/08 Q1024,EGPO,2023-05-17T08:20:00Z,58.22,-6.32,12.0,8.0,220,10,,6.21,30.236221,,,,,,,,,,,FEW,2100,SCT,2800,,,,,VFR,,,,,,,,,,,,METAR,10.0
EGPN 170820Z 24005KT 9999 FEW020 12/08 Q1027,EGPN,2023-05-17T08:20:00Z,56.45,-3.02,12.0,8.0,240,5,,6.21,30.324802,,,,,,,,,,,FEW,2000,,,,,,,VFR,,,,,,,,,,,,METAR,4.0
EGPL 170820Z 22016KT 9999 SCT008 SCT024 12/09 Q1025,EGPL,2023-05-17T08:20:00Z,57.47,-7.37,12.0,9.0,220,16,,6.21,30.265747,,,,,,,,,,,SCT,800,SCT,2400,,,,,VFR,,,,,,,,,,,,METAR,3.0
EGPK 170820Z 25005KT 210V300 9999 SCT012 BKN031 12/09 Q1029,EGPK,2023-05-17T08:20:00Z,55.5,-4.58,12.0,9.0,250,5,,6.21,30.383858,,,,,,,,,,,SCT,1200,BKN,3100,,,,,VFR,,,,,,,,,,,,METAR,14.0
EGPI 170820Z 26007KT 9999 SCT012 12/09 Q1029,EGPI,2023-05-17T08:20:00Z,55.68,-6.25,12.0,9.0,260,7,,6.21,30.383858,,,,,,,,,,,SCT,1200,,,,,,,VFR,,,,,,,,,,,,METAR,17.0
EGPH 170820Z 24008KT 220V290 9999 FEW020 14/09 Q1028,EGPH,2023-05-17T08:20:00Z,55.95,-3.35,14.0,9.0,240,8,,6.21,30.35433,,,,,,,,,,,FEW,2000,,,,,,,VFR,,,,,,,,,,,,METAR,29.0
EGPF 170820Z AUTO 24007KT 9999 FEW024 13/08 Q1028,EGPF,2023-05-17T08:20:00Z,55.87,-4.42,13.0,8.0,240,7,,6.21,30.35433,,,TRUE,,,,,,,,FEW,2400,,,,,,,VFR,,,,,,,,,,,,METAR,8.0
EGPE 170820Z 25008KT 210V270 9999 FEW020 14/07 Q1026,EGPE,2023-05-17T08:20:00Z,57.53,-4.05,14.0,7.0,250,8,,6.21,30.295275,,,,,,,,,,,FEW,2000,,,,,,,VFR,,,,,,,,,,,,METAR,7.0
EGPD 170820Z AUTO VRB03KT 9999 NCD 12/06 Q1026,EGPD,2023-05-17T08:20:00Z,57.2,-2.22,12.0,6.0,0,3,,6.21,30.295275,,,TRUE,,,,,,,,CLR,,,,,,,,VFR,,,,,,,,,,,,METAR,65.0
EGPC 170820Z AUTO 17008KT 120V230 9999 SCT022/// SCT027/// BKN031/// 11/06 Q1025,EGPC,2023-05-17T08:20:00Z,58.45,-3.08,11.0,6.0,170,8,,6.21,30.265747,,,TRUE,,,,,,,,SCT,2200,SCT,2700,BKN,3100,,,VFR,,,,,,,,,,,,METAR,38.0
EGPB 170820Z 24008KT 9999 BKN032 08/02 Q1025,EGPB,2023-05-17T08:20:00Z,59.87,-1.3,8.0,2.0,240,8,,6.21,30.265747,,,,,,,,,,,BKN,3200,,,,,,,VFR,,,,,,,,,,,,METAR,2.0
EGPA 170820Z 20010KT 9999 FEW016 BKN026 10/05 Q1025,EGPA,2023-05-17T08:20:00Z,58.95,-2.9,10.0,5.0,200,10,,6.21,30.265747,,,,,,,,,,,FEW,1600,BKN,2600,,,,,MVFR,,,,,,,,,,,,METAR,15.0
EGOW 170820Z 31010KT 9999 FEW016 SCT020 14/10 Q1030 RMK WHT,EGOW,2023-05-17T08:20:00Z,53.58,-3.05,14.0,10.0,310,10,,6.21,30.413385,,,,,,,,,,,FEW,1600,SCT,2000,,,,,VFR,,,,,,,,,,,,METAR,10.0
EGOV 170820Z 22005KT 9999 FEW014 SCT075 BKN190 12/10 Q1030 NOSIG RMK BLU BLU,EGOV,2023-05-17T08:20:00Z,53.25,-4.53,12.0,10.0,220,5,,6.21,30.413385,,,,,,TRUE,,,,,FEW,1400,SCT,7500,BKN,19000,,,VFR,,,,,,,,,,,,METAR,11.0
EGOS 170820Z 29010KT 9999 FEW016 SCT030 BKN250 13/08 Q1030 TEMPO SCT020 RMK BLU TEMPO WHT,EGOS,2023-05-17T08:20:00Z,52.8,-2.67,13.0,8.0,290,10,,6.21,30.413385,,,,,,,,,,,FEW,1600,SCT,3000,BKN,25000,,,VFR,,,,,,,,,,,,METAR,76.0
EGOM 170820Z AUTO 26010KT 9999 BKN006/// BKN049/// 10/07 Q1028,EGOM,2023-05-17T08:20:00Z,55.05,-2.55,10.0,7.0,260,10,,6.21,30.35433,,,TRUE,,,,,,,,BKN,600,BKN,4900,,,,,IFR,,,,,,,,,,,,SPECI,286.0
EGNX 170820Z 30006KT 260V340 9999 FEW015 BKN034 12/08 Q1029,EGNX,2023-05-17T08:20:00Z,52.82,-1.32,12.0,8.0,300,6,,6.21,30.383858,,,,,,,,,,,FEW,1500,BKN,3400,,,,,VFR,,,,,,,,,,,,METAR,91.0
EGNV 170820Z VRB03KT 9999 SCT019 12/07 Q1029,EGNV,2023-05-17T08:20:00Z,54.52,-1.42,12.0,7.0,0,3,,6.21,30.383858,,,,,,,,,,,SCT,1900,,,,,,,VFR,,,,,,,,,,,,METAR,36.0
EGNT 170820Z 29006KT 230V320 9999 FEW020 12/07 Q1028,EGNT,2023-05-17T08:20:00Z,55.03,-1.7,12.0,7.0,290,6,,6.21,30.35433,,,,,,,,,,,FEW,2000,,,,,,,VFR,,,,,,,,,,,,METAR,77.0
EGNS 170820Z 26005KT 160V320 9999 FEW018 13/08 Q1029 NOSIG,EGNS,2023-05-17T08:20:00Z,54.08,-4.63,13.0,8.0,260,5,,6.21,30.383858,,,,,,TRUE,,,,,FEW,1800,,,,,,,VFR,,,,,,,,,,,,METAR,18.0
EGNR 170820Z 32009KT 9999 SCT014 BKN021 12/08 Q1031,EGNR,2023-05-17T08:20:00Z,53.17,-2.98,12.0,8.0,320,9,,6.21,30.442913,,,,,,,,,,,SCT,1400,BKN,2100,,,,,MVFR,,,,,,,,,,,,METAR,11.0
EGNO 170820Z 32007KT 290V360 9999 SCT016 13/08 Q1029,EGNO,2023-05-17T08:20:00Z,53.75,-2.88,13.0,8.0,320,7,,6.21,30.383858,,,,,,,,,,,SCT,1600,,,,,,,VFR,,,,,,,,,,,,METAR,12.0
EGNM 170820Z 31005KT 9999 FEW012 SCT025 11/07 Q1029,EGNM,2023-05-17T08:20:00Z,53.87,-1.65,11.0,7.0,310,5,,6.21,30.383858,,,,,,,,,,,FEW,1200,SCT,2500,,,,,VFR,,,,,,,,,,,,METAR,221.0
EGNJ 170820Z 13004KT 100V160 9999 SCT022 BKN040 13/08 Q1029,EGNJ,2023-05-17T08:20:00Z,53.57,-0.35,13.0,8.0,130,4,,6.21,30.383858,,,,,,,,,,,SCT,2200,BKN,4000,,,,,VFR,,,,,,,,,,,,METAR,23.0
EGNH 170820Z 31009KT 9999 FEW009 SCT020 13/10 Q1030,EGNH,2023-05-17T08:20:00Z,53.77,-3.03,13.0,10.0,310,9,,6.21,30.413385,,,,,,,,,,,FEW,900,SCT,2000,,,,,VFR,,,,,,,,,,,,METAR,10.0
EGMD 170820Z 36005KT 310V050 CAVOK 14/11 Q1029,EGMD,2023-05-17T08:20:00Z,50.95,0.93,14.0,11.0,360,5,,6.21,30.383858,,,,,,,,,,,CAVOK,,,,,,,,VFR,,,,,,,,,,,,METAR,4.0
EGMC 170820Z VRB03KT CAVOK 14/09 Q1029,EGMC,2023-05-17T08:20:00Z,51.57,0.7,14.0,9.0,0,3,,6.21,30.383858,,,,,,,,,,,CAVOK,,,,,,,,VFR,,,,,,,,,,,,METAR,15.0
EGLL 170820Z AUTO VRB02KT 9999 NCD 14/08 Q1029,EGLL,2023-05-17T08:20:00Z,51.48,-0.45,14.0,8.0,0,2,,6.21,30.383858,,,TRUE,,,,,,,,CLR,,,,,,,,VFR,,,,,,,,,,,,METAR,26.0
EGLF 170820Z AUTO VRB03KT 9999 NCD 13/08 Q1029,EGLF,2023-05-17T08:20:00Z,51.28,-0.77,13.0,8.0,0,3,,6.21,30.383858,,,TRUE,,,,,,,,CLR,,,,,,,,VFR,,,,,,,,,,,,METAR,65.0
EGLC 170820Z AUTO VRB02KT 9999 NCD 14/08 Q1029,EGLC,2023-05-17T08:20:00Z,51.5,0.05,14.0,8.0,0,2,,6.21,30.383858,,,TRUE,,,,,,,,CLR,,,,,,,,VFR,,,,,,,,,,,,METAR,10.0
EGKK 170820Z 31003KT 280V030 CAVOK 13/08 Q1029,EGKK,2023-05-17T08:20:00Z,51.13,-0.18,13.0,8.0,310,3,,6.21,30.383858,,,,,,,,,,,CAVOK,,,,,,,,VFR,,,,,,,,,,,,METAR,58.0
EGKB 170820Z 35003KT 280V050 CAVOK 13/08 Q1029,EGKB,2023-05-17T08:20:00Z,51.32,0.02,13.0,8.0,350,3,,6.21,30.383858,,,,,,,,,,,CAVOK,,,,,,,,VFR,,,,,,,,,,,,METAR,183.0
EGKA 170820Z 35008KT 320V030 CAVOK 14/09 Q1029,EGKA,2023-05-17T08:20:00Z,50.83,-0.3,14.0,9.0,350,8,,6.21,30.383858,,,,,,,,,,,CAVOK,,,,,,,,VFR,,,,,,,,,,,,METAR,2.0
EGJJ 170820Z 07007KT 020V120 CAVOK 15/10 Q1029,EGJJ,2023-05-17T08:20:00Z,49.22,-2.2,15.0,10.0,70,7,,6.21,30.383858,,,,,,,,,,,CAVOK,,,,,,,,VFR,,,,,,,,,,,,METAR,84.0
EGJB 170820Z 03007KT CAVOK 14/10 Q1029,EGJB,2023-05-17T08:20:00Z,49.42,-2.6,14.0,10.0,30,7,,6.21,30.383858,,,,,,,,,,,CAVOK,,,,,,,,VFR,,,,,,,,,,,,METAR,102.0
EGJA 170820Z 03009KT CAVOK 13/10 Q1030,EGJA,2023-05-17T08:20:00Z,49.72,-2.2,13.0,10.0,30,9,,6.21,30.413385,,,,,,,,,,,CAVOK,,,,,,,,VFR,,,,,,,,,,,,METAR,83.0
EGHQ 170820Z 05004KT 010V080 CAVOK 13/10 Q1031,EGHQ,2023-05-17T08:20:00Z,50.43,-5.0,13.0,10.0,50,4,,6.21,30.442913,,,,,,,,,,,CAVOK,,,,,,,,VFR,,,,,,,,,,,,METAR,101.0
EGHI 170820Z 33005KT 280V030 9999 FEW022 14/08 Q1030,EGHI,2023-05-17T08:20:00Z,50.95,-1.35,14.0,8.0,330,5,,6.21,30.413385,,,,,,,,,,,FEW,2200,,,,,,,VFR,,,,,,,,,,,,METAR,13.0
EGHH 170820Z 03005KT 9999 FEW025 14/08 Q1030,EGHH,2023-05-17T08:20:00Z,50.78,-1.83,14.0,8.0,30,5,,6.21,30.413385,,,,,,,,,,,FEW,2500,,,,,,,VFR,,,,,,,,,,,,METAR,9.0
EGHE 170820Z 05010KT CAVOK 13/10 Q1030,EGHE,2023-05-17T08:20:00Z,49.92,-6.28,13.0,10.0,50,10,,6.21,30.413385,,,,,,,,,,,CAVOK,,,,,,,,VFR,,,,,,,,,,,,METAR,31.0
EGHC 170820Z 09009KT CAVOK 14/08 Q1030,EGHC,2023-05-17T08:20:00Z,50.1,-5.67,14.0,8.0,90,9,,6.21,30.413385,,,,,,,,,,,CAVOK,,,,,,,,VFR,,,,,,,,,,,,METAR,117.0
EGGW 170820Z 31006KT 280V350 9999 FEW018 13/09 Q1029,EGGW,2023-05-17T08:20:00Z,51.87,-0.37,13.0,9.0,310,6,,6.21,30.383858,,,,,,,,,,,FEW,1800,,,,,,,VFR,,,,,,,,,,,,METAR,159.0
EGGP 170820Z 30011KT 9999 SCT022 BKN029 13/08 Q1030,EGGP,2023-05-17T08:20:00Z,53.33,-2.85,13.0,8.0,300,11,,6.21,30.413385,,,,,,,,,,,SCT,2200,BKN,2900,,,,,MVFR,,,,,,,,,,,,METAR,23.0
EGGD 170820Z AUTO 32006KT 9999 NCD 12/07 Q1030,EGGD,2023-05-17T08:20:00Z,51.37,-2.72,12.0,7.0,320,6,,6.21,30.413385,,,TRUE,,,,,,,,CLR,,,,,,,,VFR,,,,,,,,,,,,METAR,182.0
EGFF 170820Z AUTO 32005KT 9999 NCD 14/08 Q1030,EGFF,2023-05-17T08:20:00Z,51.38,-3.35,14.0,8.0,320,5,,6.21,30.413385,,,TRUE,,,,,,,,CLR,,,,,,,,VFR,,,,,,,,,,,,METAR,65.0
EGEO 170820Z 23004KT 180V280 9999 SCT013 11/08 Q1028,EGEO,2023-05-17T08:20:00Z,56.47,-5.4,11.0,8.0,230,4,,6.21,30.35433,,,,,,,,,,,SCT,1300,,,,,,,VFR,,,,,,,,,,,,METAR,5.0
EGEC 170820Z VRB02KT 9999 FEW020 11/09 Q1028,EGEC,2023-05-17T08:20:00Z,55.43,-5.68,11.0,9.0,0,2,,6.21,30.35433,,,,,,,,,,,FEW,2000,,,,,,,VFR,,,,,,,,,,,,METAR,10.0
EGDY 170820Z 30003KT 9999 FEW040 BKN200 12/09 Q1030 NOSIG RMK BLU BLU,EGDY,2023-05-17T08:20:00Z,51.0,-2.63,12.0,9.0,300,3,,6.21,30.413385,,,,,,TRUE,,,,,FEW,4000,BKN,20000,,,,,VFR,,,,,,,,,,,,METAR,21.0
EGDR 170820Z 08009KT CAVOK 14/08 Q1030 NOSIG RMK BLU BLU,EGDR,2023-05-17T08:20:00Z,50.08,-5.25,14.0,8.0,80,9,,6.21,30.413385,,,,,,TRUE,,,,,CAVOK,,,,,,,,VFR,,,,,,,,,,,,METAR,74.0
EGDM 170820Z 36007KT 9999 FEW021 BKN350 13/08 Q1030 NOSIG RMK BLU BLU,EGDM,2023-05-17T08:20:00Z,51.17,-1.75,13.0,8.0,360,7,,6.21,30.413385,,,,,,TRUE,,,,,FEW,2100,BKN,35000,,,,,VFR,,,,,,,,,,,,METAR,122.0
EGCK 170820Z VRB02KT 9999 FEW035 13/09 Q1030,EGCK,2023-05-17T08:20:00Z,53.1,-4.33,13.0,9.0,0,2,,6.21,30.413385,,,,,,,,,,,FEW,3500,,,,,,,VFR,,,,,,,,,,,,METAR,6.0
EGCC 170820Z 34007KT 300V010 9999 SCT020 12/08 Q1030 NOSIG,EGCC,2023-05-17T08:20:00Z,53.35,-2.27,12.0,8.0,340,7,,6.21,30.413385,,,,,,TRUE,,,,,SCT,2000,,,,,,,VFR,,,,,,,,,,,,METAR,78.0
EGBJ 170820Z 00000KT 9999 FEW022 13/09 Q1031,EGBJ,2023-05-17T08:20:00Z,51.9,-2.17,13.0,9.0,0,0,,6.21,30.442913,,,,,,,,,,,FEW,2200,,,,,,,VFR,,,,,,,,,,,,METAR,27.0
EGBB 170820Z 33010KT 9999 SCT016 12/08 Q1030,EGBB,2023-05-17T08:20:00Z,52.47,-1.75,12.0,8.0,330,10,,6.21,30.413385,,,,,,,,,,,SCT,1600,,,,,,,VFR,,,,,,,,,,,,METAR,91.0
EGAE 170820Z 27006KT 240V320 CAVOK 12/09 Q1029,EGAE,2023-05-17T08:20:00Z,55.03,-7.15,12.0,9.0,270,6,,6.21,30.383858,,,,,,,,,,,CAVOK,,,,,,,,VFR,,,,,,,,,,,,METAR,9.0
EGAC 170820Z AUTO 22006KT 9999 NCD 13/06 Q1029,EGAC,2023-05-17T08:20:00Z,54.62,-5.87,13.0,6.0,220,6,,6.21,30.383858,,,TRUE,,,,,,,,CLR,,,,,,,,VFR,,,,,,,,,,,,METAR,2.0
EGAA 170820Z AUTO 23005KT 9999 NCD 12/07 Q1029,EGAA,2023-05-17T08:20:00Z,54.65,-6.22,12.0,7.0,230,5,,6.21,30.383858,,,TRUE,,,,,,,,CLR,,,,,,,,VFR,,,,,,,,,,,,METAR,65.0
EFVA 170820Z AUTO 19009KT 9999 OVC006 12/11 Q1002,EFVA,2023-05-17T08:20:00Z,63.05,21.77,12.0,11.0,190,9,,6.21,29.586615,,,TRUE,,,,,,,,OVC,600,,,,,,,IFR,,,,,,,,,,,,METAR,4.0
EFUT 170820Z 20010KT 160V230 9999 -DZ BKN006 11/10 Q1010,EFUT,2023-05-17T08:20:00Z,60.88,26.93,11.0,10.0,200,10,,6.21,29.822834,,,,,,,,,,-DZ,BKN,600,,,,,,,IFR,,,,,,,,,,,,METAR,104.0
EFTU 170820Z AUTO 19013KT 160V220 9999 OVC003 08/07 Q1006,EFTU,2023-05-17T08:20:00Z,60.52,22.27,8.0,7.0,190,13,,6.21,29.704725,,,TRUE,,,,,,,,OVC,300,,,,,,,LIFR,,,,,,,,,,,,METAR,47.0
EFTP 170820Z 18012KT 150V210 9999 FEW008 BKN010 12/10 Q1006,EFTP,2023-05-17T08:20:00Z,61.42,23.62,12.0,10.0,180,12,,6.21,29.704725,,,,,,,,,,,FEW,800,BKN,1000,,,,,MVFR,,,,,,,,,,,,METAR,111.0
EFSI 170820Z AUTO 17012KT 9999 OVC011 12/10 Q1003,EFSI,2023-05-17T08:20:00Z,62.7,22.83,12.0,10.0,170,12,,6.21,29.616142,,,TRUE,,,,,,,,OVC,1100,,,,,,,MVFR,,,,,,,,,,,,METAR,90.0
EFSA 170820Z AUTO 19010KT 160V220 9999 BKN004 OVC033 12/11 Q1010,EFSA,2023-05-17T08:20:00Z,61.95,28.93,12.0,11.0,190,10,,6.21,29.822834,,,TRUE,,,,,,,,BKN,400,OVC,3300,,,,,LIFR,,,,,,,,,,,,METAR,90.0
EFRO 170820Z 18008KT 7000 -DZ FEW002 BKN003 11/11 Q1003,EFRO,2023-05-17T08:20:00Z,66.57,25.82,11.0,11.0,180,8,,4.35,29.616142,,,,,,,,,,-DZ,FEW,200,BKN,300,,,,,LIFR,,,,,,,,,,,,METAR,201.0
EFPO 170820Z AUTO 16012KT 9999 -SHRA BKN009 OVC025 //////CB 12/10 Q1004,EFPO,2023-05-17T08:20:00Z,61.47,21.8,12.0,10.0,160,12,,6.21,29.64567,,,TRUE,,,,,,,-SHRA,BKN,900,OVC,2500,,,,,IFR,,,,,,,,,,,,METAR,10.0
EFOU 170820Z AUTO 16007KT 9999 BKN016 14/11 Q1004,EFOU,2023-05-17T08:20:00Z,64.92,25.37,14.0,11.0,160,7,,6.21,29.64567,,,TRUE,,,,,,,,BKN,1600,,,,,,,MVFR,,,,,,,,,,,,METAR,15.0
EFMI 170820Z AUTO 17010KT 130V210 9999 OVC009 13/11 Q1009,EFMI,2023-05-17T08:20:00Z,61.68,27.2,13.0,11.0,170,10,,6.21,29.793306,,,TRUE,,,,,,,,OVC,900,,,,,,,IFR,,,,,,,,,,,,METAR,99.0
EFMA 170820Z 18017KT 9999 BKN005 09/08 Q1004,EFMA,2023-05-17T08:20:00Z,60.12,19.9,9.0,8.0,180,17,,6.21,29.64567,,,,,,,,,,,BKN,500,,,,,,,IFR,,,,,,,,,,,,METAR,6.0
EFLP 170820Z AUTO 20011KT 9999 OVC008 12/10 Q1011,EFLP,2023-05-17T08:20:00Z,61.03,28.15,12.0,10.0,200,11,,6.21,29.852362,,,TRUE,,,,,,,,OVC,800,,,,,,,IFR,,,,,,,,,,,,METAR,102.0
EFKU 170820Z 17013KT 9999 BKN012 13/11 Q1007,EFKU,2023-05-17T08:20:00Z,63.02,27.8,13.0,11.0,170,13,,6.21,29.734253,,,,,,,,,,,BKN,1200,,,,,,,MVFR,,,,,,,,,,,,METAR,92.0
EFKT 170820Z AUTO 17008KT 4200 -SHRA OVC003 11/10 Q1002,EFKT,2023-05-17T08:20:00Z,67.7,24.85,11.0,10.0,170,8,,2.61,29.586615,,,TRUE,,,,,,,-SHRA,OVC,300,,,,,,,LIFR,,,,,,,,,,,,METAR,190.0
EFKS 170820Z AUTO 19009KT 9999 -SHRA OVC012 10/09 Q1006,EFKS,2023-05-17T08:20:00Z,66.0,29.23,10.0,9.0,190,9,,6.21,29.704725,,,TRUE,,,,,,,-SHRA,OVC,1200,,,,,,,MVFR,,,,,,,,,,,,METAR,270.0
EFKK 170820Z AUTO 16013KT 9999 -SHRA BKN015 OVC050 //////CB 14/11 Q1002,EFKK,2023-05-17T08:20:00Z,63.72,23.13,14.0,11.0,160,13,,6.21,29.586615,,,TRUE,,,,,,,-SHRA,BKN,1500,OVC,5000,,,,,MVFR,,,,,,,,,,,,METAR,25.0
EFKI 170820Z 17010KT 9999 OVC010 13/11 Q1006,EFKI,2023-05-17T08:20:00Z,64.27,27.67,13.0,11.0,170,10,,6.21,29.704725,,,,,,,,,,,OVC,1000,,,,,,,MVFR,,,,,,,,,,,,METAR,132.0
EFKE 170820Z AUTO 16006KT 130V190 9999 -SHRA OVC005 11/11 Q1003,EFKE,2023-05-17T08:20:00Z,65.78,24.57,11.0,11.0,160,6,,6.21,29.616142,,,TRUE,,,,,,,-SHRA,OVC,500,,,,,,,IFR,,,,,,,,,,,,METAR,15.0
EFJY 170820Z 18012KT 150V210 9999 SCT011 BKN022 13/10 Q1006,EFJY,2023-05-17T08:20:00Z,62.4,25.68,13.0,10.0,180,12,,6.21,29.704725,,,,,,,,,,,SCT,1100,BKN,2200,,,,,MVFR,,,,,,,,,,,,METAR,139.0
EFJO 170820Z AUTO 16011KT 9999 OVC009 12/11 Q1010,EFJO,2023-05-17T08:20:00Z,62.67,29.62,12.0,11.0,160,11,,6.21,29.822834,,,TRUE,,,,,,,,OVC,900,,,,,,,IFR,,,,,,,,,,,,METAR,118.0
EFIV 170820Z AUTO 18010KT 9999 OVC017 12/08 Q1003,EFIV,2023-05-17T08:20:00Z,68.62,27.42,12.0,8.0,180,10,,6.21,29.616142,,,TRUE,,,,,,,,OVC,1700,,,,,,,MVFR,,,,,,,,,,,,METAR,145.0
EFHK 170820Z 19014KT 9999 BKN009 11/09 Q1010 BECMG BKN010,EFHK,2023-05-17T08:20:00Z,60.32,24.97,11.0,9.0,190,14,,6.21,29.822834,,,,,,,,,,,BKN,900,,,,,,,IFR,,,,,,,,,,,,METAR,56.0
EFHA 170820Z AUTO 17009KT 9999 OVC013 12/10 Q1006,EFHA,2023-05-17T08:20:00Z,61.85,24.8,12.0,10.0,170,9,,6.21,29.704725,,,TRUE,,,,,,,,OVC,1300,,,,,,,MVFR,,,,,,,,,,,,METAR,144.0
EFET 170820Z AUTO 13003KT 9999 RA OVC005 09/09 Q1001,EFET,2023-05-17T08:20:00Z,68.37,23.43,9.0,9.0,130,3,,6.21,29.557087,,,TRUE,,,,,,,RA,OVC,500,,,,,,,IFR,,,,,,,,,,,,METAR,300.0
EETU 170820Z 23009KT 190V250 9999 BKN026 BKN043 16/10 Q1014,EETU,2023-05-17T08:20:00Z,58.32,26.68,16.0,10.0,230,9,,6.21,29.940945,,,,,,,,,,,BKN,2600,BKN,4300,,,,,MVFR,,,,,,,,,,,,METAR,67.0
EETN 170820Z 19018G28KT 170V230 9999 FEW026 13/07 Q1011 NOSIG,EETN,2023-05-17T08:20:00Z,59.4,24.82,13.0,7.0,190,18,28,6.21,29.852362,,,,,,TRUE,,,,,FEW,2600,,,,,,,VFR,,,,,,,,,,,,METAR,41.0
EEPU 170820Z AUTO 20017KT 160V220 9999 SCT018/// SCT022/// BKN100/// 12/07 Q1013,EEPU,2023-05-17T08:20:00Z,58.42,24.47,12.0,7.0,200,17,,6.21,29.911417,,,TRUE,,,,,,,,SCT,1800,SCT,2200,BKN,10000,,,VFR,,,,,,,,,,,,METAR,13.0
EEKE 170820Z 21019G29KT 9999 FEW018 OVC029 11/07 Q1012,EEKE,2023-05-17T08:20:00Z,58.23,22.52,11.0,7.0,210,19,29,6.21,29.88189,,,,,,,,,,,FEW,1800,OVC,2900,,,,,MVFR,,,,,,,,,,,,METAR,4.0
EDXW 170820Z 32021KT 9999 SCT029 09/02 Q1023,EDXW,2023-05-17T08:20:00Z,54.92,8.33,9.0,2.0,320,21,,6.21,30.206694,,,,,,,,,,,SCT,2900,,,,,,,VFR,,,,,,,,,,,,METAR,8.0
EDVK 170820Z 33007KT 290V020 9999 FEW029 BKN039 09/03 Q1025,EDVK,2023-05-17T08:20:00Z,51.4,9.37,9.0,3.0,330,7,,6.21,30.265747,,,,,,,,,,,FEW,2900,BKN,3900,,,,,VFR,,,,,,,,,,,,METAR,277.0
EDVE 170820Z 32009KT 290V360 9999 BKN036 BKN042 10/01 Q1024,EDVE,2023-05-17T08:20:00Z,52.32,10.55,10.0,1.0,320,9,,6.21,30.236221,,,,,,,,,,,BKN,3600,BKN,4200,,,,,VFR,,,,,,,,,,,,METAR,83.0
EDTY 170820Z 03006KT 340V070 9999 SCT022 BKN027 10/05 Q1023,EDTY,2023-05-17T08:20:00Z,49.12,9.78,10.0,5.0,30,6,,6.21,30.206694,,,,,,,,,,,SCT,2200,BKN,2700,,,,,MVFR,,,,,,,,,,,,METAR,398.0
EDTL 170820Z 02010KT 340V050 CAVOK 12/06 Q1024,EDTL,2023-05-17T08:20:00Z,48.37,7.83,12.0,6.0,20,10,,6.21,30.236221,,,,,,,,,,,CAVOK,,,,,,,,VFR,,,,,,,,,,,,METAR,152.0
EDSB 170820Z 02007KT 340V080 9999 SCT026 BKN032 11/06 Q1024,EDSB,2023-05-17T08:20:00Z,48.78,8.08,11.0,6.0,20,7,,6.21,30.236221,,,,,,,,,,,SCT,2600,BKN,3200,,,,,VFR,,,,,,,,,,,,METAR,122.0
EDQM 170820Z 35008KT 280V040 9999 FEW015 SCT018 BKN033 07/03 Q1022,EDQM,2023-05-17T08:20:00Z,50.3,11.85,7.0,3.0,350,8,,6.21,30.177166,,,,,,,,,,,FEW,1500,SCT,1800,BKN,3300,,,VFR,,,,,,,,,,,,METAR,578.0
EDNY 170820Z 03008KT 9999 FEW038 11/04 Q1022 RMK/J,EDNY,2023-05-17T08:20:00Z,47.67,9.52,11.0,4.0,30,8,,6.21,30.177166,,,,,,,,,,,FEW,3800,,,,,,,VFR,,,,,,,,,,,,METAR,411.0
EDMO 170820Z 03005KT 320V070 9999 FEW026 09/04 Q1022,EDMO,2023-05-17T08:20:00Z,48.07,11.27,9.0,4.0,30,5,,6.21,30.177166,,,,,,,,,,,FEW,2600,,,,,,,VFR,,,,,,,,,,,,METAR,587.0
EDMA 170820Z 02006KT 350V050 9999 SCT028 10/04 Q1022,EDMA,2023-05-17T08:20:00Z,48.42,10.92,10.0,4.0,20,6,,6.21,30.177166,,,,,,,,,,,SCT,2800,,,,,,,VFR,,,,,,,,,,,,METAR,462.0
EDLW 170820Z 33010KT 300V010 9999 FEW030 BKN037 10/04 Q1026,EDLW,2023-05-17T08:20:00Z,51.52,7.62,10.0,4.0,330,10,,6.21,30.295275,,,,,,,,,,,FEW,3000,BKN,3700,,,,,VFR,,,,,,,,,,,,METAR,122.0
EDLV 170820Z VRB05KT 9999 FEW020 SCT026 BKN037 11/06 Q1027,EDLV,2023-05-17T08:20:00Z,51.6,6.15,11.0,6.0,0,5,,6.21,30.324802,,,,,,,,,,,FEW,2000,SCT,2600,BKN,3700,,,VFR,,,,,,,,,,,,METAR,27.0
EDLP 170820Z 32006KT 280V020 9999 FEW013 SCT021 BKN038 10/03 Q1026,EDLP,2023-05-17T08:20:00Z,51.62,8.62,10.0,3.0,320,6,,6.21,30.295275,,,,,,,,,,,FEW,1300,SCT,2100,BKN,3800,,,VFR,,,,,,,,,,,,METAR,211.0
EDLN 170820Z 35006KT 320V020 9999 SCT038 11/04 Q1027,EDLN,2023-05-17T08:20:00Z,51.23,6.5,11.0,4.0,350,6,,6.21,30.324802,,,,,,,,,,,SCT,3800,,,,,,,VFR,,,,,,,,,,,,METAR,38.0
EDJA 170820Z 06008KT 030V090 9999 BKN027 08/03 Q1022,EDJA,2023-05-17T08:20:00Z,47.98,10.23,8.0,3.0,60,8,,6.21,30.177166,,,,,,,,,,,BKN,2700,,,,,,,MVFR,,,,,,,,,,,,METAR,625.0
EDHL 170820Z 30014KT 260V340 9999 SCT036 BKN042 09/01 Q1023,EDHL,2023-05-17T08:20:00Z,53.8,10.72,9.0,1.0,300,14,,6.21,30.206694,,,,,,,,,,,SCT,3600,BKN,4200,,,,,VFR,,,,,,,,,,,,METAR,13.0
EDHK 170820Z 31015KT 9999 BKN036 08/01 Q1023,EDHK,2023-05-17T08:20:00Z,54.38,10.15,8.0,1.0,310,15,,6.21,30.206694,,,,,,,,,,,BKN,3600,,,,,,,VFR,,,,,,,,,,,,METAR,24.0
EDHI 170820Z 31013KT 280V350 9999 SCT035 BKN040 09/02 Q1025,EDHI,2023-05-17T08:20:00Z,53.53,9.83,9.0,2.0,310,13,,6.21,30.265747,,,,,,,,,,,SCT,3500,BKN,4000,,,,,VFR,,,,,,,,,,,,METAR,5.0
EDGS 170820Z 33012KT 9999 SCT013 BKN021 BKN024 06/04 Q1024,EDGS,2023-05-17T08:20:00Z,50.7,8.08,6.0,4.0,330,12,,6.21,30.236221,,,,,,,,,,,SCT,1300,BKN,2100,BKN,2400,,,MVFR,,,,,,,,,,,,METAR,595.0
EDFM 170820Z 34008KT 320V030 9999 BKN033 12/05 Q1025,EDFM,2023-05-17T08:20:00Z,49.47,8.52,12.0,5.0,340,8,,6.21,30.265747,,,,,,,,,,,BKN,3300,,,,,,,VFR,,,,,,,,,,,,METAR,94.0
EDFH 170820Z 01009KT 340V040 9999 SCT015 09/05 Q1025,EDFH,2023-05-17T08:20:00Z,49.95,7.27,9.0,5.0,10,9,,6.21,30.265747,,,,,,,,,,,SCT,1500,,,,,,,VFR,,,,,,,,,,,,METAR,494.0
EDDW 170820Z AUTO 32011KT 290V360 9999 SCT035 OVC045 10/01 Q1026 TEMPO 32015G25KT,EDDW,2023-05-17T08:20:00Z,53.03,8.8,10.0,1.0,320,11,,6.21,30.295275,,,TRUE,,,,,,,,SCT,3500,OVC,4500,,,,,VFR,,,,,,,,,,,,METAR,5.0
EDDV 170820Z AUTO 32011KT 9999 SCT031 BKN041 10/03 Q1025 TEMPO 33015G25KT,EDDV,2023-05-17T08:20:00Z,52.47,9.68,10.0,3.0,320,11,,6.21,30.265747,,,TRUE,,,,,,,,SCT,3100,BKN,4100,,,,,VFR,,,,,,,,,,,,METAR,53.0
EDDS 170820Z AUTO 34009KT 300V010 9999 FEW024 11/05 Q1023 NOSIG,EDDS,2023-05-17T08:20:00Z,48.68,9.22,11.0,5.0,340,9,,6.21,30.206694,,,TRUE,,,TRUE,,,,,FEW,2400,,,,,,,VFR,,,,,,,,,,,,METAR,374.0
EDDR 170820Z AUTO 05010KT 9999 SCT024 BKN033 OVC046 10/05 Q1025 NOSIG,EDDR,2023-05-17T08:20:00Z,49.22,7.1,10.0,5.0,50,10,,6.21,30.265747,,,TRUE,,,TRUE,,,,,SCT,2400,BKN,3300,OVC,4600,,,VFR,,,,,,,,,,,,METAR,317.0
EDDP 170820Z AUTO 31012KT 290V350 9999 FEW029 BKN036 BKN043 10/03 Q1023,EDDP,2023-05-17T08:20:00Z,51.43,12.23,10.0,3.0,310,12,,6.21,30.206694,,,TRUE,,,,,,,,FEW,2900,BKN,3600,BKN,4300,,,VFR,,,,,,,,,,,,METAR,129.0
EDDN 170820Z AUTO 33008KT 300V020 9999 SCT028 10/04 Q1023 NOSIG,EDDN,2023-05-17T08:20:00Z,49.5,11.05,10.0,4.0,330,8,,6.21,30.206694,,,TRUE,,,TRUE,,,,,SCT,2800,,,,,,,VFR,,,,,,,,,,,,METAR,312.0
EDDM 170820Z AUTO 32006KT 260V010 CAVOK 10/04 Q1022 NOSIG,EDDM,2023-05-17T08:20:00Z,48.35,11.82,10.0,4.0,320,6,,6.21,30.177166,,,TRUE,,,TRUE,,,,,CAVOK,,,,,,,,VFR,,,,,,,,,,,,METAR,445.0
EDDL 170820Z AUTO 34009KT 9999 BKN035 BKN041 12/04 Q1027 NOSIG,EDDL,2023-05-17T08:20:00Z,51.3,6.77,12.0,4.0,340,9,,6.21,30.324802,,,TRUE,,,TRUE,,,,,BKN,3500,BKN,4100,,,,,VFR,,,,,,,,,,,,METAR,37.0
EDDK 170820Z AUTO VRB08KT 9999 FEW021 BKN035 BKN044 13/06 Q1026 BECMG 34010KT,EDDK,2023-05-17T08:20:00Z,50.87,7.15,13.0,6.0,0,8,,6.21,30.295275,,,TRUE,,,,,,,,FEW,2100,BKN,3500,BKN,4400,,,VFR,,,,,,,,,,,,METAR,92.0
EDDH 170820Z AUTO 30016KT 9999 SCT036 BKN045 09/02 Q1024 TEMPO 32015G25KT,EDDH,2023-05-17T08:20:00Z,53.63,10.0,9.0,2.0,300,16,,6.21,30.236221,,,TRUE,,,,,,,,SCT,3600,BKN,4500,,,,,VFR,,,,,,,,,,,,METAR,8.0
EDDG 170820Z AUTO 32009KT 290V350 9999 BKN035 10/02 Q1027 NOSIG,EDDG,2023-05-17T08:20:00Z,52.13,7.7,10.0,2.0,320,9,,6.21,30.324802,,,TRUE,,,TRUE,,,,,BKN,3500,,,,,,,VFR,,,,,,,,,,,,METAR,46.0
EDDF 170820Z AUTO 36009KT 320V050 9999 BKN044 12/03 Q1025 NOSIG,EDDF,2023-05-17T08:20:00Z,50.05,8.6,12.0,3.0,360,9,,6.21,30.265747,,,TRUE,,,TRUE,,,,,BKN,4400,,,,,,,VFR,,,,,,,,,,,,METAR,113.0
EDDE 170820Z AUTO 34009KT 300V010 9999 FEW026 BKN038 BKN044 10/05 Q1023,EDDE,2023-05-17T08:20:00Z,50.98,10.97,10.0,5.0,340,9,,6.21,30.206694,,,TRUE,,,,,,,,FEW,2600,BKN,3800,BKN,4400,,,VFR,,,,,,,,,,,,METAR,314.0
EDDC 170820Z AUTO 32011KT 290V360 9999 SCT024 SCT033 10/04 Q1022 NOSIG,EDDC,2023-05-17T08:20:00Z,51.13,13.75,10.0,4.0,320,11,,6.21,30.177166,,,TRUE,,,TRUE,,,,,SCT,2400,SCT,3300,,,,,VFR,,,,,,,,,,,,METAR,227.0
EDDB 170820Z AUTO 32011KT 280V360 9999 FEW033 11/02 Q1022 NOSIG,EDDB,2023-05-17T08:20:00Z,52.38,13.53,11.0,2.0,320,11,,6.21,30.177166,,,TRUE,,,TRUE,,,,,FEW,3300,,,,,,,VFR,,,,,,,,,,,,METAR,48.0
EDAH 170820Z 28015KT 250V310 9999 BKN035 11/02 Q1020,EDAH,2023-05-17T08:20:00Z,53.87,14.15,11.0,2.0,280,15,,6.21,30.11811,,,,,,,,,,,BKN,3500,,,,,,,VFR,,,,,,,,,,,,METAR,22.0
EDAC 170820Z 33010KT 9999 SCT030 BKN038 10/04 Q1023,EDAC,2023-05-17T08:20:00Z,50.98,12.5,10.0,4.0,330,10,,6.21,30.206694,,,,,,,,,,,SCT,3000,BKN,3800,,,,,VFR,,,,,,,,,,,,METAR,193.0
EBOS 170820Z 36006KT 330V040 9999 FEW020 SCT045 12/07 Q1029 NOSIG,EBOS,2023-05-17T08:20:00Z,51.2,2.87,12.0,7.0,360,6,,6.21,30.383858,,,,,,TRUE,,,,,FEW,2000,SCT,4500,,,,,VFR,,,,,,,,,,,,METAR,5.0
EBLG 170820Z 35006KT 270V040 9999 SCT012 SCT030 10/07 Q1027 NOSIG,EBLG,2023-05-17T08:20:00Z,50.63,5.45,10.0,7.0,350,6,,6.21,30.324802,,,,,,TRUE,,,,,SCT,1200,SCT,3000,,,,,VFR,,,,,,,,,,,,METAR,187.0
EBCI 170820Z 02008KT 350V060 9999 SCT015 SCT022 10/06 Q1028 NOSIG,EBCI,2023-05-17T08:20:00Z,50.47,4.45,10.0,6.0,20,8,,6.21,30.35433,,,,,,TRUE,,,,,SCT,1500,SCT,2200,,,,,VFR,,,,,,,,,,,,METAR,176.0
EBBR 170820Z 02009KT 9999 SCT032 12/07 Q1028 NOSIG,EBBR,2023-05-17T08:20:00Z,50.9,4.52,12.0,7.0,20,9,,6.21,30.35433,,,,,,TRUE,,,,,SCT,3200,,,,,,,VFR,,,,,,,,,,,,METAR,49.0
EBAW 170820Z 33010KT 300V010 9999 FEW032 14/06 Q1028 NOSIG,EBAW,2023-05-17T08:20:00Z,51.2,4.47,14.0,6.0,330,10,,6.21,30.35433,,,,,,TRUE,,,,,FEW,3200,,,,,,,VFR,,,,,,,,,,,,METAR,7.0
CYPD 170820Z AUTO 29006KT 9SM OVC007 08/08 A2939 RMK SLP958,CYPD,2023-05-17T08:20:00Z,45.67,-61.37,8.0,8.0,290,6,,9.0,29.388779,995.8,,TRUE,,,,,,,,OVC,700,,,,,,,IFR,,,,,,,,,,,,SPECI,106.0
CYLT 170820Z 34006KT 4SM -SN SCT008 BKN070 M14/M18 A2969 RMK ST3AC4 PCPN VRY LGT SLP059,CYLT,2023-05-17T08:20:00Z,82.52,-62.32,-14.0,-18.0,340,6,,4.0,29.68996,1005.9,,,,,,,,,-SN,SCT,800,BKN,7000,,,,,MVFR,,,,,,,,,,,,SPECI,9.0
CYAY 170820Z AUTO 09005KT 1 3/4SM -SN FEW003 OVC017 M00/M01 A2949 RMK SLP989,CYAY,2023-05-17T08:20:00Z,51.38,-56.07,0.0,-1.0,90,5,,1.75,29.489174,998.9,,TRUE,,,,,,,-SN,FEW,300,OVC,1700,,,,,IFR,,,,,,,,,,,,SPECI,23.0
KVLD 170819Z AUTO 00000KT 7SM FEW003 20/19 A2984 RMK AO1 T02000189,KVLD,2023-05-17T08:19:00Z,30.78,-83.27,20.0,18.9,0,0,,7.0,29.840551,,,TRUE,TRUE,,,,,,,FEW,300,,,,,,,VFR,,,,,,,,,,,,METAR,59.0
KFKL 170819Z AUTO VRB05KT 10SM BKN013 07/06 A2979 RMK AO2,KFKL,2023-05-17T08:19:00Z,41.37,-79.87,7.0,6.0,0,5,,10.0,29.790354,,,TRUE,TRUE,,,,,,,BKN,1300,,,,,,,MVFR,,,,,,,,,,,,METAR,468.0
EGVA 170819Z AUTO 36006KT 9999 SCT021 13/10 A3038 RMK AO2 DZB0755E04 SLPNO FZRANO $,EGVA,2023-05-17T08:19:00Z,51.67,-1.78,13.0,10.0,360,6,,6.21,30.380905,,,TRUE,TRUE,TRUE,,,TRUE,,,SCT,2100,,,,,,,VFR,,,,,,,,,,,,SPECI,84.0
CYUL 170819Z 33009KT 15SM FEW070 02/M03 A2978 RMK AC1 AC TR SLP087,CYUL,2023-05-17T08:19:00Z,45.47,-73.73,2.0,-3.0,330,9,,15.0,29.778543,1008.7,,,,,,,,,,FEW,7000,,,,,,,VFR,,,,,,,,,,,,SPECI,31.0
PAKH 170818Z AUTO 10SM -RA SCT018 BKN023 OVC033 04/02 A3029 RMK AO2 RAB05 P0000 TSNO $,PAKH,2023-05-17T08:18:00Z,56.93,-154.18,4.0,2.0,,,,10.0,30.28937,,,TRUE,TRUE,TRUE,,TRUE,,,-RA,SCT,1800,BKN,2300,OVC,3300,,,MVFR,,,,,,0.005,,,,,,SPECI,15.0
KDYS 170818Z AUTO 00000KT 10SM CLR 18/15 A2994 RMK AO2 RAB08E11DZB11E18 SLPNO $,KDYS,2023-05-17T08:18:00Z,32.42,-99.83,18.0,15.0,0,0,,10.0,29.940945,,,TRUE,TRUE,TRUE,,,,,,CLR,,,,,,,,VFR,,,,,,,,,,,,SPECI,544.0
CYGW 170818Z AUTO 33012G17KT 9SM -SN OVC025 M03/M05 A2996 RMK SLP149,CYGW,2023-05-17T08:18:00Z,55.27,-77.77,-3.0,-5.0,330,12,17,9.0,29.958662,1014.9,,TRUE,,,,,,,-SN,OVC,2500,,,,,,,MVFR,,,,,,,,,,,,SPECI,13.0
CYBX 170818Z 10012KT 8SM FEW009 BKN024 BKN041 OVC088 01/00 A2946 RMK ST2SC3SC2AC1 SLP980,CYBX,2023-05-17T08:18:00Z,51.45,-57.18,1.0,0.0,100,12,,8.0,29.459646,998.0,,,,,,,,,,FEW,900,BKN,2400,BKN,4100,OVC,8800,MVFR,,,,,,,,,,,,SPECI,32.0
MMZC 170817Z RTD E00000KT 10SM SCT100 17/03 A3025 RMK 8/030,MMZC,2023-05-17T08:17:00Z,22.9,-102.68,17.0,3.0,0,0,,10.0,30.250984,,,,,,,,,,,SCT,10000,,,,,,,VFR,,,,,,,,,,,,METAR,2175.0
RKNY 170816Z 26016G33KT 220V290 CAVOK 30/06 Q1009 NOSIG,RKNY,2023-05-17T08:16:00Z,38.07,128.67,30.0,6.0,260,16,33,6.21,29.793306,,,,,,TRUE,,,,,CAVOK,,,,,,,,VFR,,,,,,,,,,,,SPECI,76.0
PATQ 170816Z AUTO 07012KT 4SM -SN BR OVC010 M07/M08 A3026 RMK AO2 UPE00SNB00 CIG 008V014 P0000 FZRANO TSNO,PATQ,2023-05-17T08:16:00Z,70.47,-157.43,-7.0,-8.0,70,12,,4.0,30.259842,,,TRUE,TRUE,,,TRUE,TRUE,,-SN BR,OVC,1000,,,,,,,MVFR,,,,,,0.005,,,,,,SPECI,28.0
LTBI 170816Z 28014KT 250V310 9999 TS FEW030CB BKN035 18/15 Q1012 RETSRA NOSIG RMK RWY08 28017KT,LTBI,2023-05-17T08:16:00Z,39.77,30.57,18.0,15.0,280,14,,6.21,29.88189,,,,,,TRUE,,,,TS,FEW,3000,BKN,3500,,,,,VFR,,,,,,,,,,,,METAR,785.0
KNFE 170816Z AUTO VRB04KT 10SM BKN014 OVC024 21/18 A2963 RMK AO2 T02110183,KNFE,2023-05-17T08:16:00Z,36.7,-76.13,21.1,18.3,0,4,,10.0,29.630905,,,TRUE,TRUE,,,,,,,BKN,1400,OVC,2400,,,,,MVFR,,,,,,,,,,,,METAR,4.0
KFTY 170816Z 25004KT 10SM BKN007 BKN090 19/19 A2983 RMK AO2 T01940194,KFTY,2023-05-17T08:16:00Z,33.78,-84.52,19.4,19.4,250,4,,10.0,29.828741,,,,TRUE,,,,,,,BKN,700,BKN,9000,,,,,IFR,,,,,,,,,,,,SPECI,245.0
K40B 170816Z AUTO 00000KT M01/M01 A2959 RMK AO1 SLP035 T10051011 52013,K40B,2023-05-17T08:16:00Z,46.62,-69.52,-0.5,-1.1,0,0,,,29.589567,1003.5,,TRUE,TRUE,,,,,,,,,,,,,,,,1.3,,,,,,,,,,,METAR,344.0
K2DP 170816Z AUTO 24011KT 10SM -RA FEW100 BKN130 22/21 A2964 RMK AO2 LTG DSNT SE-S RAB16 SLPNO $,K2DP,2023-05-17T08:16:00Z,35.68,-75.9,22.0,21.0,240,11,,10.0,29.639763,,,TRUE,TRUE,TRUE,,,,,-RA,FEW,10000,BKN,13000,,,,,VFR,,,,,,,,,,,,METAR,1.0
SBSJ 170815Z 14002KT 3000 BR FEW002 11/11 Q1021,SBSJ,2023-05-17T08:15:00Z,-23.22,-45.87,11.0,11.0,140,2,,1.86,30.147638,,,,,,,,,,BR,FEW,200,,,,,,,IFR,,,,,,,,,,,,SPECI,640.0
PATC 170815Z AUTO 02027KT 1/4SM SN FG BKN006 OVC023 M05/M06 A3001 RMK AO2 PK WND 02030/0800 SLP169,PATC,2023-05-17T08:15:00Z,65.57,-167.92,-5.0,-6.0,20,27,,0.25,30.008858,1016.9,,TRUE,TRUE,,,,,,SN FG,BKN,600,OVC,2300,,,,,LIFR,,,,,,,,,,,,SPECI,77.0
LIRP 170815Z 27004KT 9999 FEW040 BKN060 14/14 Q1007 NOSIG,LIRP,2023-05-17T08:15:00Z,43.68,10.38,14.0,14.0,270,4,,6.21,29.734253,,,,,,TRUE,,,,,FEW,4000,BKN,6000,,,,,VFR,,,,,,,,,,,,METAR,1.0
LHSN 170815Z 15006KT 120V180 8000 BKN006 SCT050 OVC083 16/15 Q1010 NOSIG RMK YLO,LHSN,2023-05-17T08:15:00Z,47.12,20.23,16.0,15.0,150,6,,4.97,29.822834,,,,,,TRUE,,,,,BKN,600,SCT,5000,OVC,8300,,,IFR,,,,,,,,,,,,METAR,89.0
LHSM 170815Z AUTO 36019G35KT 330V030 9999 BKN014 11/09 Q1013 NOSIG,LHSM,2023-05-17T08:15:00Z,46.68,17.17,11.0,9.0,360,19,35,6.21,29.911417,,,TRUE,,,TRUE,,,,,BKN,1400,,,,,,,MVFR,,,,,,,,,,,,METAR,119.0
LHPR 170815Z AUTO 29012KT 270V330 9999 OVC007 12/11 Q1012 NOSIG,LHPR,2023-05-17T08:15:00Z,47.63,17.82,12.0,11.0,290,12,,6.21,29.88189,,,TRUE,,,TRUE,,,,,OVC,700,,,,,,,IFR,,,,,,,,,,,,METAR,127.0
LHPP 170815Z AUTO 33005KT 290V020 9999 BKN008 BKN057 OVC074 14/14 Q1011 RERA,LHPP,2023-05-17T08:15:00Z,45.98,18.23,14.0,14.0,330,5,,6.21,29.852362,,,TRUE,,,,,,,,BKN,800,BKN,5700,OVC,7400,,,IFR,,,,,,,,,,,,METAR,193.0
LHPA 170815Z 33014KT 4000 -DZ BR OVC005 10/09 Q1013 NOSIG RMK YLO,LHPA,2023-05-17T08:15:00Z,47.35,17.5,10.0,9.0,330,14,,2.49,29.911417,,,,,,TRUE,,,,-DZ BR,OVC,500,,,,,,,IFR,,,,,,,,,,,,METAR,143.0
LHKE 170815Z 26004KT 4000 -SHRA BR FEW005 FEW035TCU BKN070 16/15 Q1010 TEMPO 5000 BR RMK GRN,LHKE,2023-05-17T08:15:00Z,46.92,19.75,16.0,15.0,260,4,,2.49,29.822834,,,,,,,,,,-SHRA BR,FEW,500,FEW,3500,BKN,7000,,,IFR,,,,,,,,,,,,METAR,113.0
KUNU 170815Z AUTO 02004KT 10SM CLR 05/01 A3002 RMK AO2 T00450006,KUNU,2023-05-17T08:15:00Z,43.42,-88.7,4.5,0.6,20,4,,10.0,30.02067,,,TRUE,TRUE,,,,,,,CLR,,,,,,,,VFR,,,,,,,,,,,,SPECI,281.0
KRCM 170815Z AUTO 00000KT 3SM BR 12/12 A2994 RMK AO2 SKY OBSCURED,KRCM,2023-05-17T08:15:00Z,38.78,-93.8,12.0,12.0,0,0,,3.0,29.940945,,,TRUE,TRUE,,,,,,BR,,,,,,,,,,,,,,,,,,,,,SPECI,242.0
KOZR 170815Z AUTO 00000KT 3/8SM R06/2200V3000FT FG VV001 19/19 A2982 RMK AO2 SLP098,KOZR,2023-05-17T08:15:00Z,31.28,-85.72,19.0,19.0,0,0,,0.38,29.819881,1009.8,,TRUE,TRUE,,,,,,FG,OVX,0,,,,,,,LIFR,,,,,,,,,,,100,METAR,90.0
KMVL 170815Z AUTO 34008KT 10SM SCT026 BKN034 03/M01 A2970 RMK AO2 T00331006,KMVL,2023-05-17T08:15:00Z,44.53,-72.62,3.3,-0.6,340,8,,10.0,29.698818,,,TRUE,TRUE,,,,,,,SCT,2600,BKN,3400,,,,,VFR,,,,,,,,,,,,SPECI,226.0
KLZZ 170815Z AUTO 00000KT 10SM CLR 16/16 A2993 RMK AO2 T01600159,KLZZ,2023-05-17T08:15:00Z,31.1,-98.2,16.0,15.9,0,0,,10.0,29.929134,,,TRUE,TRUE,,,,,,,CLR,,,,,,,,VFR,,,,,,,,,,,,METAR,356.0
KJVW 170815Z AUTO 00000KT 4SM BR OVC037 20/20 A2985 RMK AO2 LTG DSNT N-E,KJVW,2023-05-17T08:15:00Z,32.3,-90.42,20.0,20.0,0,0,,4.0,29.84941,,,TRUE,TRUE,,,,,,BR,OVC,3700,,,,,,,MVFR,,,,,,,,,,,,SPECI,73.0
KISQ 170815Z AUTO 36006KT 10SM CLR 01/M02 A3004 RMK AO2 T00101016,KISQ,2023-05-17T08:15:00Z,45.97,-86.17,1.0,-1.6,360,6,,10.0,30.041338,,,TRUE,TRUE,,,,,,,CLR,,,,,,,,VFR,,,,,,,,,,,,METAR,206.0
KGLE 170815Z AUTO 35003KT 10SM CLR 14/13 A2997 RMK AO2 T01410127 PWINO,KGLE,2023-05-17T08:15:00Z,33.65,-97.2,14.1,12.7,350,3,,10.0,29.970472,,,TRUE,TRUE,,,,,TRUE,,CLR,,,,,,,,VFR,,,,,,,,,,,,SPECI,250.0
KEWN 170815Z AUTO 20003KT 10SM -RA SCT024 BKN110 21/19 A2970 RMK AO2 RAB04 P0000 T02110189,KEWN,2023-05-17T08:15:00Z,35.07,-77.05,21.1,18.9,200,3,,10.0,29.698818,,,TRUE,TRUE,,,,,,-RA,SCT,2400,BKN,11000,,,,,VFR,,,,,,0.005,,,,,,SPECI,3.0
KBWD 170815Z AUTO 00000KT 6SM CLR 15/15 A2997 RMK AO1,KBWD,2023-05-17T08:15:00Z,31.8,-98.95,15.0,15.0,0,0,,6.0,29.970472,,,TRUE,TRUE,,,,,,,CLR,,,,,,,,VFR,,,,,,,,,,,,METAR,420.0
PAMD 170814Z AUTO 28009KT 10SM SCT014 05/03 A3029 RMK AO2 PNO $,PAMD,2023-05-17T08:14:00Z,59.43,-146.3,5.0,3.0,280,9,,10.0,30.28937,,,TRUE,TRUE,TRUE,,,,,,SCT,1400,,,,,,,VFR,,,,,,,,,,,,SPECI,20.0
KNY0 170814Z AUTO 02007KT 10SM SCT042 04/M01 A2971 RMK AO2,KNY0,2023-05-17T08:14:00Z,42.98,-74.33,4.0,-1.0,20,7,,10.0,29.71063,,,TRUE,TRUE,,,,,,,SCT,4200,,,,,,,VFR,,,,,,,,,,,,METAR,266.0
KTUP 170813Z AUTO 23003KT 10SM BKN011 OVC017 21/18 A2983 RMK AO2 LTG DSNT NE T02110183 $,KTUP,2023-05-17T08:13:00Z,34.27,-88.77,21.1,18.3,230,3,,10.0,29.828741,,,TRUE,TRUE,TRUE,,,,,,BKN,1100,OVC,1700,,,,,MVFR,,,,,,,,,,,,SPECI,107.0
KFYV 170813Z AUTO 00000KT 10SM SCT013 OVC025 17/14 A2994 RMK AO2 T01720144,KFYV,2023-05-17T08:13:00Z,36.02,-94.17,17.2,14.4,0,0,,10.0,29.940945,,,TRUE,TRUE,,,,,,,SCT,1300,OVC,2500,,,,,MVFR,,,,,,,,,,,,SPECI,377.0
KEET 170813Z AUTO 00000KT 7SM BKN003 20/19 A2983 RMK AO2 CIG 002V006 T02000194,KEET,2023-05-17T08:13:00Z,33.18,-86.78,20.0,19.4,0,0,,7.0,29.828741,,,TRUE,TRUE,,,,,,,BKN,300,,,,,,,LIFR,,,,,,,,,,,,SPECI,172.0
PAMY 170812Z AUTO 30010KT 3SM BR OVC002 00/M01 A2994 RMK AO2 FZRANO PNO $,PAMY,2023-05-17T08:12:00Z,60.37,-166.27,0.0,-1.0,300,10,,3.0,29.940945,,,TRUE,TRUE,TRUE,,,TRUE,,BR,OVC,200,,,,,,,LIFR,,,,,,,,,,,,SPECI,14.0
KRNM 170812Z AUTO 00000KT M1/4SM FG VV001 12/12 A2997 RMK AO2 T01220117 $,KRNM,2023-05-17T08:12:00Z,33.03,-116.92,12.2,11.7,0,0,,0.25,29.970472,,,TRUE,TRUE,TRUE,,,,,FG,OVX,0,,,,,,,LIFR,,,,,,,,,,,100,METAR,423.0
KMKL 170812Z AUTO 02006KT 10SM OVC030 19/17 A2987 RMK AO2 T01940167 $,KMKL,2023-05-17T08:12:00Z,35.6,-88.92,19.4,16.7,20,6,,10.0,29.870079,,,TRUE,TRUE,TRUE,,,,,,OVC,3000,,,,,,,MVFR,,,,,,,,,,,,SPECI,130.0
KLRD 170812Z AUTO 00000KT 10SM SCT016 OVC075 23/20 A2993 RMK AO2,KLRD,2023-05-17T08:12:00Z,27.55,-99.47,23.0,20.0,0,0,,10.0,29.929134,,,TRUE,TRUE,,,,,,,SCT,1600,OVC,7500,,,,,VFR,,,,,,,,,,,,SPECI,150.0
CYMO 170812Z AUTO 01005KT 340V050 9SM -SN BKN027 OVC032 M03/M07 A3009 RMK SLP190,CYMO,2023-05-17T08:12:00Z,51.28,-80.62,-3.0,-7.0,10,5,,9.0,30.088583,1019.0,,TRUE,,,,,,,-SN,BKN,2700,OVC,3200,,,,,MVFR,,,,,,,,,,,,SPECI,8.0
KPDK 170811Z AUTO 28006KT 8SM FEW005 BKN100 19/18 A2982 RMK AO2 T01890183,KPDK,2023-05-17T08:11:00Z,33.88,-84.3,18.9,18.3,280,6,,8.0,29.819881,,,TRUE,TRUE,,,,,,,FEW,500,BKN,10000,,,,,VFR,,,,,,,,,,,,SPECI,299.0
KORF 170811Z 25004KT 6SM -RA BR BKN009 BKN016 OVC032 19/19 A2962 RMK AO2 P0000 T01940194,KORF,2023-05-17T08:11:00Z,36.9,-76.2,19.4,19.4,250,4,,6.0,29.619095,,,,TRUE,,,,,,-RA BR,BKN,900,BKN,1600,OVC,3200,,,IFR,,,,,,0.005,,,,,,SPECI,5.0
CYYZ 170811Z 35013KT 15SM FEW020 02/M03 A2989 RMK CF1 SLP127,CYYZ,2023-05-17T08:11:00Z,43.67,-79.62,2.0,-3.0,350,13,,15.0,29.890747,1012.7,,,,,,,,,,FEW,2000,,,,,,,VFR,,,,,,,,,,,,SPECI,171.0
VCRI 170810Z 20009KT 170V230 9999 FEW016 SCT018 32/29 Q1009 NOSIG,VCRI,2023-05-17T08:10:00Z,6.28,81.13,32.0,29.0,200,9,,6.21,29.793306,,,,,,TRUE,,,,,FEW,1600,SCT,1800,,,,,VFR,,,,,,,,,,,,METAR,50.0
VCBI 170810Z 24010KT 9999 SCT017 32/27 Q1010 NOSIG,VCBI,2023-05-17T08:10:00Z,7.17,79.88,32.0,27.0,240,10,,6.21,29.822834,,,,,,TRUE,,,,,SCT,1700,,,,,,,VFR,,,,,,,,,,,,METAR,10.0
KSXS 170810Z AUTO 00000KT 7/8SM BR VV001 19/19 A2983 RMK AO2 SLP100 RVRNO,KSXS,2023-05-17T08:10:00Z,31.37,-85.85,19.0,19.0,0,0,,0.88,29.828741,1010.0,,TRUE,TRUE,,,,,,BR,OVX,0,,,,,,,LIFR,,,,,,,,,,,100,SPECI,120.0
KMRY 170810Z AUTO 26004KT 10SM BKN004 11/11 A3000 RMK AO2 T01110106,KMRY,2023-05-17T08:10:00Z,36.58,-121.85,11.1,10.6,260,4,,10.0,30.0,,,TRUE,TRUE,,,,,,,BKN,400,,,,,,,LIFR,,,,,,,,,,,,SPECI,51.0
KMGW 170810Z AUTO 19005KT 5SM BR FEW008 13/12 A2978 RMK AO2 T01330122,KMGW,2023-05-17T08:10:00Z,39.65,-79.92,13.3,12.2,190,5,,5.0,29.778543,,,TRUE,TRUE,,,,,,BR,FEW,800,,,,,,,MVFR,,,,,,,,,,,,SPECI,375.0
KHRO 170810Z AUTO 00000KT 10SM FEW005 SCT016 OVC060 16/16 A2994 RMK AO2 T01610156,KHRO,2023-05-17T08:10:00Z,36.27,-93.15,16.1,15.6,0,0,,10.0,29.940945,,,TRUE,TRUE,,,,,,,FEW,500,SCT,1600,OVC,6000,,,VFR,,,,,,,,,,,,SPECI,417.0
KHOP 170810Z AUTO 33005KT 10SM SCT026 16/16 A2985 RMK AO2 SLP107,KHOP,2023-05-17T08:10:00Z,36.67,-87.5,16.0,16.0,330,5,,10.0,29.84941,1010.7,,TRUE,TRUE,,,,,,,SCT,2600,,,,,,,VFR,,,,,,,,,,,,SPECI,170.0
KFAF 170810Z AUTO 28007KT 10SM SCT009 BKN039 BKN080 20/19 A2961 RMK AO2 SLP030 $,KFAF,2023-05-17T08:10:00Z,37.13,-76.62,20.0,19.0,280,7,,10.0,29.610237,1003.0,,TRUE,TRUE,TRUE,,,,,,SCT,900,BKN,3900,BKN,8000,,,VFR,,,,,,,,,,,,SPECI,3.0
KDED 170810Z AUTO 24003KT 10SM CLR 23/21 A2988 RMK AO2 T02270208,KDED,2023-05-17T08:10:00Z,29.07,-81.28,22.7,20.8,240,3,,10.0,29.878937,,,TRUE,TRUE,,,,,,,CLR,,,,,,,,VFR,,,,,,,,,,,,METAR,21.0
ETEB 170810Z AUTO 02009KT 9999 BKN023 09/03 A3019 RMK AO2 BKN V FEW SLPNO $,ETEB,2023-05-17T08:10:00Z,49.32,10.63,9.0,3.0,20,9,,6.21,30.188976,,,TRUE,TRUE,TRUE,,,,,,BKN,2300,,,,,,,MVFR,,,,,,,,,,,,SPECI,466.0
KCEC 170809Z AUTO 00000KT 7SM OVC005 11/11 A3005 RMK AO2 T01110106,KCEC,2023-05-17T08:09:00Z,41.78,-124.23,11.1,10.6,0,0,,7.0,30.050198,,,TRUE,TRUE,,,,,,,OVC,500,,,,,,,IFR,,,,,,,,,,,,METAR,17.0
KCBM 170809Z 34003KT 10SM SCT060 BKN110 21/19 A2978 RMK AO2A RAE09 SLPNO ALSTG ESTMD $,KCBM,2023-05-17T08:09:00Z,33.65,-88.45,21.0,19.0,340,3,,10.0,29.778543,,,,TRUE,TRUE,,,,,,SCT,6000,BKN,11000,,,,,VFR,,,,,,,,,,,,SPECI,59.0
SBTU 170807Z AUTO 20005KT 180V250 9999 // FEW002/// BKN013/// OVC029/// 24/24 Q1014,SBTU,2023-05-17T08:07:00Z,-3.78,-49.72,24.0,24.0,200,5,,6.21,29.940945,,,TRUE,,,,,,,,FEW,200,BKN,1300,OVC,2900,,,MVFR,,,,,,,,,,,,SPECI,250.0
PHLI 170807Z AUTO 07012KT 10SM BKN030 23/19 A3013 RMK AO2 T02280194 TSNO,PHLI,2023-05-17T08:07:00Z,21.97,-159.33,22.8,19.4,70,12,,10.0,30.129921,,,TRUE,TRUE,,,TRUE,,,,BKN,3000,,,,,,,MVFR,,,,,,,,,,,,SPECI,32.0
PAWS 170807Z AUTO 00000KT 10SM OVC031 06/00 A3026 RMK AO2,PAWS,2023-05-17T08:07:00Z,61.57,-149.53,6.0,0.0,0,0,,10.0,30.259842,,,TRUE,TRUE,,,,,,,OVC,3100,,,,,,,VFR,,,,,,,,,,,,SPECI,102.0
KHKS 170807Z AUTO 23004KT 10SM SCT031 BKN055 BKN070 21/19 A2985 RMK AO2 LTG DSNT NE AND E TSE01 T02060194,KHKS,2023-05-17T08:07:00Z,32.33,-90.22,20.6,19.4,230,4,,10.0,29.84941,,,TRUE,TRUE,,,,,,,SCT,3100,BKN,5500,BKN,7000,,,VFR,,,,,,,,,,,,SPECI,103.0
CYVT 170807Z AUTO 33012G18KT 9SM SCT023 BKN033 OVC040 07/03 A2999 RMK SLP175,CYVT,2023-05-17T08:07:00Z,55.83,-108.42,7.0,3.0,330,12,18,9.0,29.991142,1017.5,,TRUE,,,,,,,,SCT,2300,BKN,3300,OVC,4000,,,VFR,,,,,,,,,,,,SPECI,438.0
KAHN 170806Z AUTO 27005KT 7SM BKN006 19/18 A2979 RMK AO2 T01890178,KAHN,2023-05-17T08:06:00Z,33.95,-83.33,18.9,17.8,270,5,,7.0,29.790354,,,TRUE,TRUE,,,,,,,BKN,600,,,,,,,IFR,,,,,,,,,,,,SPECI,241.0
KPVG 170805Z AUTO 10SM OVC010 19/19 A2964 RMK AO2 CIG 004V012 P0001 $,KPVG,2023-05-17T08:05:00Z,36.78,-76.45,19.0,19.0,,,,10.0,29.639763,,,TRUE,TRUE,TRUE,,,,,,OVC,1000,,,,,,,MVFR,,,,,,0.01,,,,,,SPECI,7.0
KGTB 170805Z AUTO 36005KT 10SM BKN023 01/M02 A2979 RMK AO2 SLP090,KGTB,2023-05-17T08:05:00Z,44.07,-75.72,1.0,-2.0,360,5,,10.0,29.790354,1009.0,,TRUE,TRUE,,,,,,,BKN,2300,,,,,,,MVFR,,,,,,,,,,,,SPECI,206.0
ETAR 170805Z AUTO 36008KT 9999 SCT028 BKN035 OVC050 10/04 A3027 RMK AO2 SLPNO $,ETAR,2023-05-17T08:05:00Z,49.43,7.58,10.0,4.0,360,8,,6.21,30.268702,,,TRUE,TRUE,TRUE,,,,,,SCT,2800,BKN,3500,OVC,5000,,,VFR,,,,,,,,,,,,SPECI,231.0
CYIO 170805Z AUTO VRB02KT 1 1/4SM -SN FEW011 OVC017 M04/M04 A2946 RMK SLP984,CYIO,2023-05-17T08:05:00Z,72.68,-77.97,-4.0,-4.0,0,2,,1.25,29.459646,998.4,,TRUE,,,,,,,-SN,FEW,1100,OVC,1700,,,,,IFR,,,,,,,,,,,,SPECI,61.0
KCLE 170804Z 01012KT 10SM BKN017 11/06 A2983 RMK AO2 T01060061 $,KCLE,2023-05-17T08:04:00Z,41.42,-81.85,10.6,6.1,10,12,,10.0,29.828741,,,,TRUE,TRUE,,,,,,BKN,1700,,,,,,,MVFR,,,,,,,,,,,,SPECI,237.0
PAPO 170803Z AUTO 02019G27KT 6SM -SN BR FEW015 BKN036 OVC070 M04/M06 A3010 RMK AO2 PK WND 02027/0800 FZRANO PNO $,PAPO,2023-05-17T08:03:00Z,68.35,-166.8,-4.0,-6.0,20,19,27,6.0,30.100393,,,TRUE,TRUE,TRUE,,,TRUE,,-SN BR,FEW,1500,BKN,3600,OVC,7000,,,VFR,,,,,,,,,,,,METAR,4.0
KJLN 170803Z AUTO 00000KT 3SM BR BKN004 OVC035 16/15 A2995 RMK AO2 T01560150,KJLN,2023-05-17T08:03:00Z,37.15,-94.5,15.6,15.0,0,0,,3.0,29.949802,,,TRUE,TRUE,,,,,,BR,BKN,400,OVC,3500,,,,,LIFR,,,,,,,,,,,,METAR,297.0
KJCT 170803Z AUTO 00000KT 7SM SCT002 17/17 A3000 RMK AO2 T01720172 $,KJCT,2023-05-17T08:03:00Z,30.5,-99.77,17.2,17.2,0,0,,7.0,30.0,,,TRUE,TRUE,TRUE,,,,,,SCT,200,,,,,,,VFR,,,,,,,,,,,,METAR,522.0
KJBR 170803Z AUTO 02003KT 10SM OVC030 21/16 A2989 RMK AO2 T02060156 $,KJBR,2023-05-17T08:03:00Z,35.83,-90.65,20.6,15.6,20,3,,10.0,29.890747,,,TRUE,TRUE,TRUE,,,,,,OVC,3000,,,,,,,MVFR,,,,,,,,,,,,METAR,79.0
KCLM 170803Z AUTO 23003KT 10SM OVC004 13/11 A3008 RMK AO2 T01280111,KCLM,2023-05-17T08:03:00Z,48.12,-123.5,12.8,11.1,230,3,,10.0,30.079725,,,TRUE,TRUE,,,,,,,OVC,400,,,,,,,LIFR,,,,,,,,,,,,METAR,81.0
CYXU 170803Z 02003KT 15SM SKC 02/M01 A2987 RMK SLP120,CYXU,2023-05-17T08:03:00Z,43.03,-81.15,2.0,-1.0,20,3,,15.0,29.870079,1012.0,,,,,,,,,,SKC,,,,,,,,VFR,,,,,,,,,,,,SPECI,278.0
PAHX 170802Z AUTO 00000KT 10SM OVC045 04/00 A3004 RMK AO2 SLP172 T00440000 400440039,PAHX,2023-05-17T08:02:00Z,62.7,-159.57,4.4,0.0,0,0,,10.0,30.041338,1017.2,,TRUE,TRUE,,,,,,,OVC,4500,,,,,,,VFR,,,,4.4,3.9,,,,,,,METAR,20.0
KBGM 170802Z AUTO 35013KT 10SM OVC016 06/01 A2972 RMK AO2 T00610011,KBGM,2023-05-17T08:02:00Z,42.22,-75.98,6.1,1.1,350,13,,10.0,29.719488,,,TRUE,TRUE,,,,,,,OVC,1600,,,,,,,MVFR,,,,,,,,,,,,METAR,485.0
CYQR 170802Z 35017G23KT 3/4SM R13/P6000FT/D FU VV010 13/04 A2989 RMK FU8 SLP126 DENSITY ALT 2100FT,CYQR,2023-05-17T08:02:00Z,50.43,-104.67,13.0,4.0,350,17,23,0.75,29.890747,1012.6,,,,,,,,,FU,OVX,0,,,,,,,LIFR,,,,,,,,,,,1000,SPECI,576.0
PAFS 170801Z AUTO 22004KT 10SM BKN080 06/M02 A3014 RMK AO2 SLP214 T00561022,PAFS,2023-05-17T08:01:00Z,63.02,-154.35,5.6,-2.2,220,4,,10.0,30.138779,1021.4,,TRUE,TRUE,,,,,,,BKN,8000,,,,,,,VFR,,,,,,,,,,,,METAR,131.0
LTBQ 170801Z VRB01KT 9999 -SHRA BKN030 BKN080 23/15 Q1011 NOSIG RMK RWY09 VRB01KT,LTBQ,2023-05-17T08:01:00Z,40.73,30.07,23.0,15.0,0,1,,6.21,29.852362,,,,,,TRUE,,,,-SHRA,BKN,3000,BKN,8000,,,,,MVFR,,,,,,,,,,,,SPECI,51.0
KTYS 170801Z 35007KT 10SM OVC014 19/17 A2981 RMK AO2 T01940172,KTYS,2023-05-17T08:01:00Z,35.82,-83.98,19.4,17.2,350,7,,10.0,29.811024,,,,TRUE,,,,,,,OVC,1400,,,,,,,MVFR,,,,,,,,,,,,METAR,300.0
KNGU 170801Z 27008KT 7SM -RA BKN008 BKN016 OVC034 20/18 A2964 RMK AO2 P0000 T02000183 $,KNGU,2023-05-17T08:01:00Z,36.93,-76.27,20.0,18.3,270,8,,7.0,29.639763,,,,TRUE,TRUE,,,,,-RA,BKN,800,BKN,1600,OVC,3400,,,IFR,,,,,,0.005,,,,,,SPECI,3.0
FAPE 170801Z 26021G32KT 9999 FEW020 17/11 Q1014 NOSIG,FAPE,2023-05-17T08:01:00Z,-33.98,25.6,17.0,11.0,260,21,32,6.21,29.940945,,,,,,TRUE,,,,,FEW,2000,,,,,,,VFR,,,,,,,,,,,,SPECI,58.0
CYQK 170801Z 15008KT 20SM BKN100 OVC230 10/M00 A2994 RMK AC6CC2 SLP147,CYQK,2023-05-17T08:01:00Z,49.78,-94.37,10.0,0.0,150,8,,20.0,29.940945,1014.7,,,,,,,,,,BKN,10000,OVC,23000,,,,,VFR,,,,,,,,,,,,SPECI,413.0
ZYHB 170800Z 28004MPS 240V320 CAVOK 22/M04 Q1008 NOSIG,ZYHB,2023-05-17T08:00:00Z,45.62,126.25,22.0,-4.0,280,8,,6.21,29.763779,,,,,,TRUE,,,,,CAVOK,,,,,,,,VFR,,,,,,,,,,,,METAR,134.0
ZYCC 170800Z 22005MPS 190V250 9999 SCT030 14/09 Q1010 NOSIG,ZYCC,2023-05-17T08:00:00Z,43.98,125.68,14.0,9.0,220,10,,6.21,29.822834,,,,,,TRUE,,,,,SCT,3000,,,,,,,VFR,,,,,,,,,,,,METAR,211.0
ZWSH 170800Z 12004MPS 080V150 8000 NSC 31/M02 Q1011 NOSIG,ZWSH,2023-05-17T08:00:00Z,39.55,76.02,31.0,-2.0,120,8,,4.97,29.852362,,,,,,TRUE,,,,,CLR,,,,,,,,MVFR,,,,,,,,,,,,METAR,1374.0
ZUUU 170800Z 20003MPS 8000 FEW040 29/18 Q1007 NOSIG,ZUUU,2023-05-17T08:00:00Z,30.58,103.95,29.0,18.0,200,6,,4.97,29.734253,,,,,,TRUE,,,,,FEW,4000,,,,,,,MVFR,,,,,,,,,,,,METAR,494.0
ZUTF 170800Z 24004MPS 7000 FEW033TCU FEW050 29/20 Q1006 NOSIG,ZUTF,2023-05-17T08:00:00Z,30.3,104.43,29.0,20.0,240,8,,4.35,29.704725,,,,,,TRUE,,,,,FEW,3300,FEW,5000,,,,,MVFR,,,,,,,,,,,,METAR,443.0
ZUGY 170800Z 06003MPS 9999 BKN046 28/17 Q1009 NOSIG,ZUGY,2023-05-17T08:00:00Z,26.53,106.8,28.0,17.0,60,6,,6.21,29.793306,,,,,,TRUE,,,,,BKN,4600,,,,,,,VFR,,,,,,,,,,,,METAR,1130.0
ZUCK 170800Z 33003MPS 260V020 9999 FEW050 33/16 Q1005 NOSIG,ZUCK,2023-05-17T08:00:00Z,29.72,106.63,33.0,16.0,330,6,,6.21,29.675198,,,,,,TRUE,,,,,FEW,5000,,,,,,,VFR,,,,,,,,,,,,METAR,416.0
ZSQD 170800Z 15009MPS CAVOK 23/17 Q1006 NOSIG,ZSQD,2023-05-17T08:00:00Z,36.27,120.38,23.0,17.0,150,17,,6.21,29.704725,,,,,,TRUE,,,,,CAVOK,,,,,,,,VFR,,,,,,,,,,,,METAR,8.0
ZSOF 170800Z 05002MPS 6000 BKN012 OVC033 22/20 Q1003 NOSIG,ZSOF,2023-05-17T08:00:00Z,31.98,116.97,22.0,20.0,50,4,,3.73,29.616142,,,,,,TRUE,,,,,BKN,1200,OVC,3300,,,,,MVFR,,,,,,,,,,,,METAR,23.0
ZSNJ 170800Z VRB01MPS 9999 BKN011 BKN040 22/22 Q1003 BECMG TL0930 SCT011 BKN040,ZSNJ,2023-05-17T08:00:00Z,31.75,118.87,22.0,22.0,0,2,,6.21,29.616142,,,,,,,,,,,BKN,1100,BKN,4000,,,,,MVFR,,,,,,,,,,,,METAR,27.0
ZSNB 170800Z 16005MPS 9999 SHRA FEW009 BKN020 24/21 Q1004 BECMG TL0900 -SHRA,ZSNB,2023-05-17T08:00:00Z,29.83,121.47,24.0,21.0,160,10,,6.21,29.64567,,,,,,,,,,SHRA,FEW,900,BKN,2000,,,,,MVFR,,,,,,,,,,,,METAR,5.0
ZSFZ 170800Z 19006MPS 9999 BKN020 BKN040 26/23 Q1006 NOSIG,ZSFZ,2023-05-17T08:00:00Z,25.93,119.67,26.0,23.0,190,12,,6.21,29.704725,,,,,,TRUE,,,,,BKN,2000,BKN,4000,,,,,MVFR,,,,,,,,,,,,METAR,14.0
ZSAM 170800Z 20005MPS 170V230 9999 FEW013 SCT020 29/25 Q1006 NOSIG,ZSAM,2023-05-17T08:00:00Z,24.53,118.13,29.0,25.0,200,10,,6.21,29.704725,,,,,,TRUE,,,,,FEW,1300,SCT,2000,,,,,VFR,,,,,,,,,,,,METAR,13.0
ZPPP 170800Z 24006G11MPS 180V290 9999 SCT030 27/06 Q1016 NOSIG,ZPPP,2023-05-17T08:00:00Z,25.0,102.65,27.0,6.0,240,12,21,6.21,30.0,,,,,,TRUE,,,,,SCT,3000,,,,,,,VFR,,,,,,,,,,,,METAR,1885.0
ZMUB 170800Z 27007G13MPS 220V310 9999 FEW030CB SCT033 15/M08 Q1010 NOSIG RMK QFE650.7 20 MOP,ZMUB,2023-05-17T08:00:00Z,47.83,106.75,15.0,-8.0,270,14,25,6.21,29.822834,,,,,,TRUE,,,,,FEW,3000,SCT,3300,,,,,VFR,,,,,,,,,,,,METAR,1300.0
ZLXY 170800Z 31003MPS CAVOK 29/14 Q1009 NOSIG,ZLXY,2023-05-17T08:00:00Z,34.43,108.75,29.0,14.0,310,6,,6.21,29.793306,,,,,,TRUE,,,,,CAVOK,,,,,,,,VFR,,,,,,,,,,,,METAR,478.0
ZLLL 170800Z 18006MPS 9999 FEW033CB 20/04 Q1020 NOSIG,ZLLL,2023-05-17T08:00:00Z,36.52,103.62,20.0,4.0,180,12,,6.21,30.11811,,,,,,TRUE,,,,,FEW,3300,,,,,,,VFR,,,,,,,,,,,,METAR,1939.0
ZJSY 170800Z 17002MPS 110V220 CAVOK 32/26 Q1006 NOSIG,ZJSY,2023-05-17T08:00:00Z,18.3,109.42,32.0,26.0,170,4,,6.21,29.704725,,,,,,TRUE,,,,,CAVOK,,,,,,,,VFR,,,,,,,,,,,,METAR,27.0
ZJHK 170800Z 02003MPS 360V060 CAVOK 35/25 Q1003 NOSIG,ZJHK,2023-05-17T08:00:00Z,19.93,110.43,35.0,25.0,20,6,,6.21,29.616142,,,,,,TRUE,,,,,CAVOK,,,,,,,,VFR,,,,,,,,,,,,METAR,21.0
ZHHH 170800Z VRB01MPS 9999 BKN026 25/21 Q1003 NOSIG,ZHHH,2023-05-17T08:00:00Z,30.78,114.22,25.0,21.0,0,2,,6.21,29.616142,,,,,,TRUE,,,,,BKN,2600,,,,,,,MVFR,,,,,,,,,,,,METAR,33.0
ZHCC 170800Z 06002MPS 350V140 CAVOK 32/16 Q1003 NOSIG,ZHCC,2023-05-17T08:00:00Z,34.52,113.83,32.0,16.0,60,4,,6.21,29.616142,,,,,,TRUE,,,,,CAVOK,,,,,,,,VFR,,,,,,,,,,,,METAR,149.0
ZGSZ 170800Z 16008MPS 9999 FEW040 30/26 Q1005 NOSIG,ZGSZ,2023-05-17T08:00:00Z,22.63,113.8,30.0,26.0,160,16,,6.21,29.675198,,,,,,TRUE,,,,,FEW,4000,,,,,,,VFR,,,,,,,,,,,,METAR,18.0
ZGOW 170800Z 20007MPS 9999 FEW023 SCT040 30/24 Q1006 BECMG AT0920 2500 SHRA,ZGOW,2023-05-17T08:00:00Z,23.55,116.5,30.0,24.0,200,14,,6.21,29.704725,,,,,,,,,,,FEW,2300,SCT,4000,,,,,VFR,,,,,,,,,,,,METAR,4.0
ZGNN 170800Z 11005MPS 080V150 CAVOK 35/27 Q1001 NOSIG,ZGNN,2023-05-17T08:00:00Z,22.62,108.17,35.0,27.0,110,10,,6.21,29.557087,,,,,,TRUE,,,,,CAVOK,,,,,,,,VFR,,,,,,,,,,,,METAR,128.0
ZGKL 170800Z VRB02MPS CAVOK 33/24 Q1003 NOSIG,ZGKL,2023-05-17T08:00:00Z,25.22,110.03,33.0,24.0,0,4,,6.21,29.616142,,,,,,TRUE,,,,,CAVOK,,,,,,,,VFR,,,,,,,,,,,,METAR,151.0
ZGHA 170800Z 31004MPS 270V340 9999 BKN030 29/19 Q1004 NOSIG,ZGHA,2023-05-17T08:00:00Z,28.18,113.22,29.0,19.0,310,8,,6.21,29.64567,,,,,,TRUE,,,,,BKN,3000,,,,,,,MVFR,,,,,,,,,,,,METAR,61.0
ZBSJ 170800Z 08005MPS 030V110 7000 SCT030 28/22 Q1004 NOSIG,ZBSJ,2023-05-17T08:00:00Z,38.28,114.7,28.0,22.0,80,10,,4.35,29.64567,,,,,,TRUE,,,,,SCT,3000,,,,,,,MVFR,,,,,,,,,,,,METAR,70.0
ZBHH 170800Z 32004G09MPS 280V360 9999 FEW040 23/M04 Q1012 NOSIG,ZBHH,2023-05-17T08:00:00Z,40.85,111.82,23.0,-4.0,320,8,17,6.21,29.88189,,,,,,TRUE,,,,,FEW,4000,,,,,,,VFR,,,,,,,,,,,,METAR,1081.0
WSSL 170800Z 15004KT 120V180 9000 -RA FEW015 SCT050 BKN150 27/25 Q1009,WSSL,2023-05-17T08:00:00Z,1.42,103.87,27.0,25.0,150,4,,5.59,29.793306,,,,,,,,,,-RA,FEW,1500,SCT,5000,BKN,15000,,,VFR,,,,,,,,,,,,METAR,11.0
WSAP 170800Z 03003KT 8000 -RA FEW015 FEW018TCU BKN160 27/24 Q1009,WSAP,2023-05-17T08:00:00Z,1.37,103.92,27.0,24.0,30,3,,4.97,29.793306,,,,,,,,,,-RA,FEW,1500,FEW,1800,BKN,16000,,,MVFR,,,,,,,,,,,,METAR,20.0
WMSA 170800Z 23005KT 190V260 9999 FEW017CB 31/25 Q1009 RETS,WMSA,2023-05-17T08:00:00Z,3.13,101.55,31.0,25.0,230,5,,6.21,29.793306,,,,,,,,,,,FEW,1700,,,,,,,VFR,,,,,,,,,,,,METAR,19.0
WMKN 170800Z 17006KT 140V270 9999 TS FEW017CB 31/23 Q1009,WMKN,2023-05-17T08:00:00Z,5.37,103.1,31.0,23.0,170,6,,6.21,29.793306,,,,,,,,,,TS,FEW,1700,,,,,,,VFR,,,,,,,,,,,,METAR,12.0
WMKM 170800Z 00000KT 9999 SCT021 31/27 Q1010,WMKM,2023-05-17T08:00:00Z,2.27,102.25,31.0,27.0,0,0,,6.21,29.822834,,,,,,,,,,,SCT,2100,,,,,,,VFR,,,,,,,,,,,,METAR,9.0
WMKL 170800Z 24005KT 160V320 9999 FEW020 31/25 Q1010,WMKL,2023-05-17T08:00:00Z,6.32,99.72,31.0,25.0,240,5,,6.21,29.822834,,,,,,,,,,,FEW,2000,,,,,,,VFR,,,,,,,,,,,,METAR,4.0
WMKJ 170800Z VRB02KT 9999 FEW018 29/23 Q1009,WMKJ,2023-05-17T08:00:00Z,1.63,103.67,29.0,23.0,0,2,,6.21,29.793306,,,,,,,,,,,FEW,1800,,,,,,,VFR,,,,,,,,,,,,METAR,38.0
WMKI 170800Z 24008KT 180V270 9999 FEW017CB SCT020 33/22 Q1009,WMKI,2023-05-17T08:00:00Z,4.57,101.08,33.0,22.0,240,8,,6.21,29.793306,,,,,,,,,,,FEW,1700,SCT,2000,,,,,VFR,,,,,,,,,,,,METAR,37.0
WMKE 170800Z 06004KT 010V150 9000 TSRA FEW014CB SCT017 29/26 Q1009,WMKE,2023-05-17T08:00:00Z,4.53,103.43,29.0,26.0,60,4,,5.59,29.793306,,,,,,,,,,TSRA,FEW,1400,SCT,1700,,,,,VFR,,,,,,,,,,,,METAR,5.0
WMKD 170800Z 09004KT 020V170 9999 TS FEW017CB 30/27 Q1009 RETSRA BECMG NSW,WMKD,2023-05-17T08:00:00Z,3.77,103.22,30.0,27.0,90,4,,6.21,29.793306,,,,,,,,,,TS,FEW,1700,,,,,,,VFR,,,,,,,,,,,,METAR,18.0
WMKC 170800Z 02008KT 330V070 9999 FEW017CB 32/27 Q1009,WMKC,2023-05-17T08:00:00Z,6.17,102.28,32.0,27.0,20,8,,6.21,29.793306,,,,,,,,,,,FEW,1700,,,,,,,VFR,,,,,,,,,,,,METAR,7.0
WMKB 170800Z 30009KT 250V340 9999 TS FEW017CB 32/27 Q1009 NOSIG,WMKB,2023-05-17T08:00:00Z,5.47,100.38,32.0,27.0,300,9,,6.21,29.793306,,,,,,TRUE,,,,TS,FEW,1700,,,,,,,VFR,,,,,,,,,,,,METAR,4.0
WMKA 170800Z 27011KT 220V300 9999 FEW020 32/26 Q1009,WMKA,2023-05-17T08:00:00Z,6.2,100.4,32.0,26.0,270,11,,6.21,29.793306,,,,,,,,,,,FEW,2000,,,,,,,VFR,,,,,,,,,,,,METAR,5.0
WMBA 170800Z VRB03KT 9999 FEW020 33/23 Q1009,WMBA,2023-05-17T08:00:00Z,4.22,100.7,33.0,23.0,0,3,,6.21,29.793306,,,,,,,,,,,FEW,2000,,,,,,,VFR,,,,,,,,,,,,METAR,9.0
WMAU 170800Z 34006KT 290V060 9999 TS FEW017CB SCT025 32/26 Q1009,WMAU,2023-05-17T08:00:00Z,2.38,103.88,32.0,26.0,340,6,,6.21,29.793306,,,,,,,,,,TS,FEW,1700,SCT,2500,,,,,VFR,,,,,,,,,,,,METAR,5.0
WBKW 170800Z 18004KT 130V250 9999 FEW017 31/27 Q1009,WBKW,2023-05-17T08:00:00Z,4.32,118.12,31.0,27.0,180,4,,6.21,29.793306,,,,,,,,,,,FEW,1700,,,,,,,VFR,,,,,,,,,,,,METAR,17.0
WBKT 170800Z 30006KT 250V350 9999 FEW014 FEW015CB 32/26 Q1009,WBKT,2023-05-17T08:00:00Z,6.92,116.83,32.0,26.0,300,6,,6.21,29.793306,,,,,,,,,,,FEW,1400,FEW,1500,,,,,VFR,,,,,,,,,,,,METAR,11.0
WBKS 170800Z 06005KT 010V100 9999 FEW016 FEW017CB 32/26 Q1009,WBKS,2023-05-17T08:00:00Z,5.9,118.07,32.0,26.0,60,5,,6.21,29.793306,,,,,,,,,,,FEW,1600,FEW,1700,,,,,VFR,,,,,,,,,,,,METAR,13.0
WBKL 170800Z VRB06KT 9999 FEW015 31/24 Q1009,WBKL,2023-05-17T08:00:00Z,5.3,115.25,31.0,24.0,0,6,,6.21,29.793306,,,,,,,,,,,FEW,1500,,,,,,,VFR,,,,,,,,,,,,METAR,29.0
WBGY 170800Z VRB02KT 9999 SCT022 35/27 Q1009,WBGY,2023-05-17T08:00:00Z,1.22,111.45,35.0,27.0,0,2,,6.21,29.793306,,,,,,,,,,,SCT,2200,,,,,,,VFR,,,,,,,,,,,,METAR,13.0
WBGS 170800Z 32008KT 280V020 9999 FEW015CB SCT018 32/25 Q1010,WBGS,2023-05-17T08:00:00Z,2.27,111.98,32.0,25.0,320,8,,6.21,29.822834,,,,,,,,,,,FEW,1500,SCT,1800,,,,,VFR,,,,,,,,,,,,METAR,26.0
WBGR 170800Z 29008KT 220V010 9999 SCT016 32/27 Q1009,WBGR,2023-05-17T08:00:00Z,4.32,113.98,32.0,27.0,290,8,,6.21,29.793306,,,,,,,,,,,SCT,1600,,,,,,,VFR,,,,,,,,,,,,METAR,18.0
WBGB 170800Z 29008KT 230V350 9999 FEW016 33/26 Q1010,WBGB,2023-05-17T08:00:00Z,3.12,113.02,33.0,26.0,290,8,,6.21,29.822834,,,,,,,,,,,FEW,1600,,,,,,,VFR,,,,,,,,,,,,METAR,34.0
WAYY 170800Z 23005KT 8000 SCT015 28/27 Q1011 NOSIG,WAYY,2023-05-17T08:00:00Z,-4.53,136.88,28.0,27.0,230,5,,4.97,29.852362,,,,,,TRUE,,,,,SCT,1500,,,,,,,MVFR,,,,,,,,,,,,METAR,32.0
VYNT 170800Z 16004KT 7000 SCT020 FEW024TCU SCT120 34/23 Q1009 NOSIG,VYNT,2023-05-17T08:00:00Z,19.62,96.2,34.0,23.0,160,4,,4.35,29.793306,,,,,,TRUE,,,,,SCT,2000,FEW,2400,SCT,12000,,,MVFR,,,,,,,,,,,,METAR,610.0
VTUW 170800Z 26007KT 220V300 8000 FEW040 37/18 Q1006 NOSIG,VTUW,2023-05-17T08:00:00Z,17.38,104.63,37.0,18.0,260,7,,4.97,29.704725,,,,,,TRUE,,,,,FEW,4000,,,,,,,MVFR,,,,,,,,,,,,METAR,167.0
VTUV 170800Z 27008KT 230V310 9000 SCT035 37/21 Q1007 NOSIG,VTUV,2023-05-17T08:00:00Z,16.12,103.78,37.0,21.0,270,8,,5.59,29.734253,,,,,,TRUE,,,,,SCT,3500,,,,,,,VFR,,,,,,,,,,,,METAR,136.0
VTUU 170800Z 24006KT 200V280 9000 FEW045 35/24 Q1007 NOSIG,VTUU,2023-05-17T08:00:00Z,15.25,104.87,35.0,24.0,240,6,,5.59,29.734253,,,,,,TRUE,,,,,FEW,4500,,,,,,,VFR,,,,,,,,,,,,METAR,119.0
VTUQ 170800Z 27006KT 210V320 9999 FEW035 37/15 Q1008 NOSIG,VTUQ,2023-05-17T08:00:00Z,14.95,102.32,37.0,15.0,270,6,,6.21,29.763779,,,,,,TRUE,,,,,FEW,3500,,,,,,,VFR,,,,,,,,,,,,METAR,225.0
VTUO 170800Z 26007KT 220V310 9000 SCT035 36/19 Q1007 NOSIG,VTUO,2023-05-17T08:00:00Z,15.23,103.25,36.0,19.0,260,7,,5.59,29.734253,,,,,,TRUE,,,,,SCT,3500,,,,,,,VFR,,,,,,,,,,,,METAR,182.0
VTUL 170800Z 32006KT 260V070 9999 SCT030 36/22 Q1007 NOSIG,VTUL,2023-05-17T08:00:00Z,17.43,101.72,36.0,22.0,320,6,,6.21,29.734253,,,,,,TRUE,,,,,SCT,3000,,,,,,,VFR,,,,,,,,,,,,METAR,257.0
VTUK 170800Z 25008KT 150V300 9999 FEW030 36/21 Q1008 NOSIG,VTUK,2023-05-17T08:00:00Z,16.47,102.78,36.0,21.0,250,8,,6.21,29.763779,,,,,,TRUE,,,,,FEW,3000,,,,,,,VFR,,,,,,,,,,,,METAR,190.0
VTUI 170800Z 26006KT 220V340 9999 SCT030 37/17 Q1006 NOSIG,VTUI,2023-05-17T08:00:00Z,17.2,104.12,37.0,17.0,260,6,,6.21,29.704725,,,,,,TRUE,,,,,SCT,3000,,,,,,,VFR,,,,,,,,,,,,METAR,162.0
VTUD 170800Z 25006KT 190V330 9999 FEW035 38/21 Q1006 NOSIG,VTUD,2023-05-17T08:00:00Z,17.37,102.78,38.0,21.0,250,6,,6.21,29.704725,,,,,,TRUE,,,,,FEW,3500,,,,,,,VFR,,,,,,,,,,,,METAR,177.0
VTSY 170800Z VRB03KT 9999 SCT030 33/23 Q1010 NOSIG,VTSY,2023-05-17T08:00:00Z,5.78,101.15,33.0,23.0,0,3,,6.21,29.822834,,,,,,TRUE,,,,,SCT,3000,,,,,,,VFR,,,,,,,,,,,,METAR,225.0
VTST 170800Z 31008KT 260V340 9999 VCSH FEW030 33/24 Q1009 NOSIG,VTST,2023-05-17T08:00:00Z,7.52,99.62,33.0,24.0,310,8,,6.21,29.793306,,,,,,TRUE,,,,VCSH,FEW,3000,,,,,,,VFR,,,,,,,,,,,,METAR,17.0
VTSR 170800Z VRB06KT 9999 FEW020 33/24 Q1011 NOSIG,VTSR,2023-05-17T08:00:00Z,9.78,98.58,33.0,24.0,0,6,,6.21,29.852362,,,,,,TRUE,,,,,FEW,2000,,,,,,,VFR,,,,,,,,,,,,METAR,23.0
VTSM 170800Z 32010KT 280V350 9999 FEW020 34/25 Q1011 NOSIG,VTSM,2023-05-17T08:00:00Z,9.55,100.07,34.0,25.0,320,10,,6.21,29.852362,,,,,,TRUE,,,,,FEW,2000,,,,,,,VFR,,,,,,,,,,,,METAR,12.0
VTSG 170800Z 26008KT 230V290 9999 FEW018CB SCT040 32/24 Q1010 NOSIG,VTSG,2023-05-17T08:00:00Z,8.1,98.98,32.0,24.0,260,8,,6.21,29.822834,,,,,,TRUE,,,,,FEW,1800,SCT,4000,,,,,VFR,,,,,,,,,,,,METAR,32.0
VTSF 170800Z 02007KT 270V060 9999 FEW016TCU SCT018 36/26 Q1009 NOSIG,VTSF,2023-05-17T08:00:00Z,8.53,99.95,36.0,26.0,20,7,,6.21,29.793306,,,,,,TRUE,,,,,FEW,1600,SCT,1800,,,,,VFR,,,,,,,,,,,,METAR,6.0
VTSE 170800Z 28010KT 240V310 9999 SCT020 37/22 Q1008 NOSIG,VTSE,2023-05-17T08:00:00Z,10.72,99.37,37.0,22.0,280,10,,6.21,29.763779,,,,,,TRUE,,,,,SCT,2000,,,,,,,VFR,,,,,,,,,,,,METAR,8.0
VTSC 170800Z 01010KT 9999 FEW022 33/26 Q1009 NOSIG,VTSC,2023-05-17T08:00:00Z,6.52,101.75,33.0,26.0,10,10,,6.21,29.793306,,,,,,TRUE,,,,,FEW,2200,,,,,,,VFR,,,,,,,,,,,,METAR,5.0
VTSB 170800Z 21020KT 6000 -TSRA FEW018CB SCT020 BKN100 30/23 Q1010 TEMPO TL0830 3000 TSRA,VTSB,2023-05-17T08:00:00Z,9.12,99.15,30.0,23.0,210,20,,3.73,29.822834,,,,,,,,,,-TSRA,FEW,1800,SCT,2000,BKN,10000,,,MVFR,,,,,,,,,,,,METAR,10.0
VTPT 170800Z /////KT 9999 SCT030 35/24 Q1009 NOSIG,VTPT,2023-05-17T08:00:00Z,16.88,99.25,35.0,24.0,,,,6.21,29.793306,,,,,,TRUE,,,,,SCT,3000,,,,,,,VFR,,,,,,,,,,,,METAR,148.0
VTPP 170800Z 30005KT 270V350 9999 SCT030 36/23 Q1007 NOSIG,VTPP,2023-05-17T08:00:00Z,16.78,100.28,36.0,23.0,300,5,,6.21,29.734253,,,,,,TRUE,,,,,SCT,3000,,,,,,,VFR,,,,,,,,,,,,METAR,45.0
VTPO 170800Z 24006KT 9999 FEW030 36/23 Q1007 NOSIG,VTPO,2023-05-17T08:00:00Z,17.23,99.82,36.0,23.0,240,6,,6.21,29.734253,,,,,,TRUE,,,,,FEW,3000,,,,,,,VFR,,,,,,,,,,,,METAR,58.0
VTPM 170800Z 27008KT 240V300 9999 FEW035 33/23 Q1010 NOSIG,VTPM,2023-05-17T08:00:00Z,16.7,98.53,33.0,23.0,270,8,,6.21,29.822834,,,,,,TRUE,,,,,FEW,3500,,,,,,,VFR,,,,,,,,,,,,METAR,211.0
VTPH 170800Z 13009KT 9999 FEW030 34/24 Q1008 NOSIG,VTPH,2023-05-17T08:00:00Z,12.63,99.95,34.0,24.0,130,9,,6.21,29.763779,,,,,,TRUE,,,,,FEW,3000,,,,,,,VFR,,,,,,,,,,,,METAR,12.0
VTPB 170800Z 32007KT 280V340 9999 FEW030 36/20 Q1007 NOSIG,VTPB,2023-05-17T08:00:00Z,16.67,101.2,36.0,20.0,320,7,,6.21,29.734253,,,,,,TRUE,,,,,FEW,3000,,,,,,,VFR,,,,,,,,,,,,METAR,134.0
VTCT 170800Z 03005KT 9999 SCT025 33/22 Q1008 NOSIG,VTCT,2023-05-17T08:00:00Z,19.95,99.88,33.0,22.0,30,5,,6.21,29.763779,,,,,,TRUE,,,,,SCT,2500,,,,,,,VFR,,,,,,,,,,,,METAR,389.0
VTCP 170800Z VRB03KT 9999 SCT030 36/21 Q1008 NOSIG,VTCP,2023-05-17T08:00:00Z,18.13,100.17,36.0,21.0,0,3,,6.21,29.763779,,,,,,TRUE,,,,,SCT,3000,,,,,,,VFR,,,,,,,,,,,,METAR,166.0
VTCN 170800Z VRB02KT 9999 FEW040 34/23 Q1007 NOSIG,VTCN,2023-05-17T08:00:00Z,18.82,100.78,34.0,23.0,0,2,,6.21,29.734253,,,,,,TRUE,,,,,FEW,4000,,,,,,,VFR,,,,,,,,,,,,METAR,211.0
VTCL 170800Z VRB04KT 9999 FEW025 36/20 Q1008 NOSIG,VTCL,2023-05-17T08:00:00Z,18.27,99.52,36.0,20.0,0,4,,6.21,29.763779,,,,,,TRUE,,,,,FEW,2500,,,,,,,VFR,,,,,,,,,,,,METAR,240.0
VTCH 170800Z VRB04KT 9999 SCT025 35/21 Q1009 NOSIG,VTCH,2023-05-17T08:00:00Z,19.3,97.98,35.0,21.0,0,4,,6.21,29.793306,,,,,,TRUE,,,,,SCT,2500,,,,,,,VFR,,,,,,,,,,,,METAR,266.0
VTBO 170800Z 21010KT 7000 SCT020 32/27 Q1009,VTBO,2023-05-17T08:00:00Z,12.28,102.32,32.0,27.0,210,10,,4.35,29.793306,,,,,,,,,,,SCT,2000,,,,,,,MVFR,,,,,,,,,,,,METAR,25.0
VRMM 170800Z 32006KT 9999 FEW019 BKN280 32/26 Q1010 NOSIG,VRMM,2023-05-17T08:00:00Z,4.2,73.52,32.0,26.0,320,6,,6.21,29.822834,,,,,,TRUE,,,,,FEW,1900,BKN,28000,,,,,VFR,,,,,,,,,,,,METAR,2.0
VRMH 170800Z 31005KT 9999 FEW018 33/27 Q1010,VRMH,2023-05-17T08:00:00Z,6.75,73.17,33.0,27.0,310,5,,6.21,29.822834,,,,,,,,,,,FEW,1800,,,,,,,VFR,,,,,,,,,,,,METAR,1.0
VRMG 170800Z 32011KT 9999 FEW018TCU BKN260 32/27 Q1011 NOSIG,VRMG,2023-05-17T08:00:00Z,-0.7,73.15,32.0,27.0,320,11,,6.21,29.852362,,,,,,TRUE,,,,,FEW,1800,BKN,26000,,,,,VFR,,,,,,,,,,,,METAR,2.0
VOSM 170800Z 25004KT 6000 SCT020 SCT100 36/22 Q1009 NOSIG,VOSM,2023-05-17T08:00:00Z,11.78,78.07,36.0,22.0,250,4,,3.73,29.793306,,,,,,TRUE,,,,,SCT,2000,SCT,10000,,,,,MVFR,,,,,,,,,,,,METAR,301.0
VOJV 170800Z 29008KT 7000 FEW015 37/09 Q1012,VOJV,2023-05-17T08:00:00Z,15.17,76.63,37.0,9.0,290,8,,4.35,29.88189,,,,,,,,,,,FEW,1500,,,,,,,MVFR,,,,,,,,,,,,METAR,508.0
VLSK 170800Z 18004KT 9000 SCT020 36/22 Q1008 NOSIG,VLSK,2023-05-17T08:00:00Z,16.55,104.75,36.0,22.0,180,4,,5.59,29.763779,,,,,,TRUE,,,,,SCT,2000,,,,,,,VFR,,,,,,,,,,,,METAR,148.0
VLPS 170800Z 22002KT 7000 SCT020 SCT050 37/24 Q1008 NOSIG,VLPS,2023-05-17T08:00:00Z,15.13,105.78,37.0,24.0,220,2,,4.35,29.763779,,,,,,TRUE,,,,,SCT,2000,SCT,5000,,,,,MVFR,,,,,,,,,,,,METAR,102.0
VLLN 170800Z 27006KT 9999 SCT020 34/20 Q1008 NOSIG,VLLN,2023-05-17T08:00:00Z,20.97,101.4,34.0,20.0,270,6,,6.21,29.763779,,,,,,TRUE,,,,,SCT,2000,,,,,,,VFR,,,,,,,,,,,,METAR,548.0
VLLB 170800Z 27006KT 9999 SCT020 SCT060 BKN080 37/21 Q1006 NOSIG,VLLB,2023-05-17T08:00:00Z,19.9,102.17,37.0,21.0,270,6,,6.21,29.704725,,,,,,TRUE,,,,,SCT,2000,SCT,6000,BKN,8000,,,VFR,,,,,,,,,,,,METAR,297.0
VIGG 170800Z 24003KT 6000 FEW035 FEW040CB 34/12 Q1010,VIGG,2023-05-17T08:00:00Z,32.17,76.25,34.0,12.0,240,3,,3.73,29.822834,,,,,,,,,,,FEW,3500,FEW,4000,,,,,MVFR,,,,,,,,,,,,METAR,760.0
VIDP 170800Z 26004KT 4000 HZ FEW030 SCT100 38/12 Q1007 NOSIG,VIDP,2023-05-17T08:00:00Z,28.57,77.12,38.0,12.0,260,4,,2.49,29.734253,,,,,,TRUE,,,,HZ,FEW,3000,SCT,10000,,,,,IFR,,,,,,,,,,,,METAR,236.0
VIDN 170800Z 21008KT 4000 HZ NSC 36/10 Q1009,VIDN,2023-05-17T08:00:00Z,30.2,78.18,36.0,10.0,210,8,,2.49,29.793306,,,,,,,,,,HZ,CLR,,,,,,,,IFR,,,,,,,,,,,,METAR,550.0
VGEG 170800Z 30022KT 5000 SCT016 FEW030CB BKN100 31/21 Q1011 TEMPO TS/RA,VGEG,2023-05-17T08:00:00Z,22.23,91.82,31.0,21.0,300,22,,3.11,29.852362,,,,,,,,,,,SCT,1600,FEW,3000,BKN,10000,,,MVFR,,,,,,,,,,,,METAR,7.0
VERK 170800Z 34003KT 6000 FEW020 40/13 Q1005,VERK,2023-05-17T08:00:00Z,22.22,84.87,40.0,13.0,340,3,,3.73,29.675198,,,,,,,,,,,FEW,2000,,,,,,,MVFR,,,,,,,,,,,,METAR,196.0
VEKI 170800Z 14006KT 5000 HZ NSC 35/21 Q1005 NOSIG,VEKI,2023-05-17T08:00:00Z,26.78,83.88,35.0,21.0,140,6,,3.11,29.675198,,,,,,TRUE,,,,HZ,CLR,,,,,,,,MVFR,,,,,,,,,,,,METAR,81.0
VEJS 170800Z 36002KT 6000 SCT020 41/13 Q1005,VEJS,2023-05-17T08:00:00Z,22.82,86.17,41.0,13.0,360,2,,3.73,29.675198,,,,,,,,,,,SCT,2000,,,,,,,MVFR,,,,,,,,,,,,METAR,151.0
VECO 170800Z 07005KT 5000 HZ OVC025 28/23 Q1008 NOSIG,VECO,2023-05-17T08:00:00Z,26.33,89.47,28.0,23.0,70,5,,3.11,29.763779,,,,,,TRUE,,,,HZ,OVC,2500,,,,,,,MVFR,,,,,,,,,,,,METAR,48.0
VEBU 170800Z 27008KT 6000 NSC 41/15 Q1006 NOSIG,VEBU,2023-05-17T08:00:00Z,21.98,82.12,41.0,15.0,270,8,,3.73,29.704725,,,,,,TRUE,,,,,CLR,,,,,,,,MVFR,,,,,,,,,,,,METAR,274.0
VARK 170800Z 28014KT 6000 NSC 39/19 Q1009 NOSIG,VARK,2023-05-17T08:00:00Z,22.3,70.77,39.0,19.0,280,14,,3.73,29.793306,,,,,,TRUE,,,,,CLR,,,,,,,,MVFR,,,,,,,,,,,,METAR,125.0
VAPR 170800Z 25012KT 6000 SCT020 33/25 Q1010 NOSIG,VAPR,2023-05-17T08:00:00Z,21.63,69.67,33.0,25.0,250,12,,3.73,29.822834,,,,,,TRUE,,,,,SCT,2000,,,,,,,MVFR,,,,,,,,,,,,METAR,8.0
VAKS 170800Z 25008KT 6000 SCT025 35/24 Q1010,VAKS,2023-05-17T08:00:00Z,21.32,70.32,35.0,24.0,250,8,,3.73,29.822834,,,,,,,,,,,SCT,2500,,,,,,,MVFR,,,,,,,,,,,,METAR,51.0
VAJL 170800Z 28007KT 7000 FEW025 38/21 Q1008 NOSIG,VAJL,2023-05-17T08:00:00Z,20.97,75.63,38.0,21.0,280,7,,4.35,29.763779,,,,,,TRUE,,,,,FEW,2500,,,,,,,MVFR,,,,,,,,,,,,METAR,257.0
VAJB 170800Z 35008KT 5000 HZ NSC 39/15 Q1009 NOSIG,VAJB,2023-05-17T08:00:00Z,23.18,80.05,39.0,15.0,350,8,,3.11,29.793306,,,,,,TRUE,,,,HZ,CLR,,,,,,,,MVFR,,,,,,,,,,,,METAR,489.0
VABV 170800Z 09013KT 6000 FEW025 35/25 Q1009 NOSIG,VABV,2023-05-17T08:00:00Z,21.75,72.2,35.0,25.0,90,13,,3.73,29.793306,,,,,,TRUE,,,,,FEW,2500,,,,,,,MVFR,,,,,,,,,,,,METAR,8.0
UWOR 170800Z 11010MPS 9999 -SHRA OVC047CB 17/06 Q1014 R07/CLRD65 NOSIG RMK QFE736/0981,UWOR,2023-05-17T08:00:00Z,51.07,58.6,17.0,6.0,110,19,,6.21,29.940945,,,,,,TRUE,,,,-SHRA,OVC,4700,,,,,,,VFR,,,,,,,,,,,,METAR,270.0
UWLW 170800Z 35006MPS CAVOK 23/08 Q1022 R02/CLRD60 NOSIG RMK QFE759/1013,UWLW,2023-05-17T08:00:00Z,54.4,48.8,23.0,8.0,350,12,,6.21,30.177166,,,,,,TRUE,,,,,CAVOK,,,,,,,,VFR,,,,,,,,,,,,METAR,67.0
UTAV 170800Z 01006KT CAVOK 22/04 Q1016 R31/CLRD70 NOSIG,UTAV,2023-05-17T08:00:00Z,39.08,63.62,22.0,4.0,10,6,,6.21,30.0,,,,,,TRUE,,,,,CAVOK,,,,,,,,VFR,,,,,,,,,,,,METAR,187.0
UTAT 170800Z 25014KT CAVOK 23/06 Q1012 R26/CLRD70 NOSIG,UTAT,2023-05-17T08:00:00Z,41.77,59.83,23.0,6.0,250,14,,6.21,29.88189,,,,,,TRUE,,,,,CAVOK,,,,,,,,VFR,,,,,,,,,,,,METAR,84.0
UTAM 170800Z 31004KT 9999 SCT036 BKN100 22/09 Q1017 R88/CLRD70 NOSIG,UTAM,2023-05-17T08:00:00Z,37.62,61.9,22.0,9.0,310,4,,6.21,30.029528,,,,,,TRUE,,,,,SCT,3600,BKN,10000,,,,,VFR,,,,,,,,,,,,METAR,218.0
UTAK 170800Z 22012KT CAVOK 20/12 Q1014 R16R/CLRD70 NOSIG,UTAK,2023-05-17T08:00:00Z,40.05,53.0,20.0,12.0,220,12,,6.21,29.940945,,,,,,TRUE,,,,,CAVOK,,,,,,,,VFR,,,,,,,,,,,,METAR,83.0
UTAA 170800Z 08004KT 9999 FEW050 23/03 Q1014 R88/70D NOSIG,UTAA,2023-05-17T08:00:00Z,37.98,58.37,23.0,3.0,80,4,,6.21,29.940945,,,,,,TRUE,,,,,FEW,5000,,,,,,,VFR,,,,,,,,,,,,METAR,207.0
UMOO 170800Z 14004MPS CAVOK 19/08 Q1019 NOSIG,UMOO,2023-05-17T08:00:00Z,53.95,30.1,19.0,8.0,140,8,,6.21,30.088583,,,,,,TRUE,,,,,CAVOK,,,,,,,,VFR,,,,,,,,,,,,METAR,188.0
UMMG 170800Z 01004MPS 4800 -RA BR OVC029 12/12 Q1015 NOSIG,UMMG,2023-05-17T08:00:00Z,53.6,24.05,12.0,12.0,10,8,,2.98,29.970472,,,,,,TRUE,,,,-RA BR,OVC,2900,,,,,,,IFR,,,,,,,,,,,,METAR,125.0
UMBB 170800Z 06003MPS 7000 OVC053CB 16/12 Q1012 NOSIG,UMBB,2023-05-17T08:00:00Z,52.12,23.9,16.0,12.0,60,6,,4.35,29.88189,,,,,,TRUE,,,,,OVC,5300,,,,,,,MVFR,,,,,,,,,,,,METAR,138.0
UHPP 170800Z 16007MPS 9999 FEW020 BKN080 05/02 Q1030 R16R/CLRD65 NOSIG RMK MT OBSC QFE769/1026,UHPP,2023-05-17T08:00:00Z,53.17,158.45,5.0,2.0,160,14,,6.21,30.413385,,,,,,TRUE,,,,,FEW,2000,BKN,8000,,,,,VFR,,,,,,,,,,,,METAR,33.0
UBEE 170800Z 34004KT 9999 SCT040 OVC100 21/11 Q1011 NOSIG,UBEE,2023-05-17T08:00:00Z,40.63,47.13,21.0,11.0,340,4,,6.21,29.852362,,,,,,TRUE,,,,,SCT,4000,OVC,10000,,,,,VFR,,,,,,,,,,,,METAR,14.0
UBBY 170800Z 35004KT 9999 FEW040CB BKN050 20/10 Q1014 NOSIG RMK MT OP,UBBY,2023-05-17T08:00:00Z,41.57,46.67,20.0,10.0,350,4,,6.21,29.940945,,,,,,TRUE,,,,,FEW,4000,BKN,5000,,,,,VFR,,,,,,,,,,,,METAR,383.0
UBBQ 170800Z 18004KT 9999 OVC100 20/10 Q1012 NOSIG RMK MT PT OBSC,UBBQ,2023-05-17T08:00:00Z,40.82,47.72,20.0,10.0,180,4,,6.21,29.88189,,,,,,TRUE,,,,,OVC,10000,,,,,,,VFR,,,,,,,,,,,,METAR,339.0
UBBL 170800Z 15009KT 9999 SCT100 23/09 Q1011 NOSIG RMK MT OP,UBBL,2023-05-17T08:00:00Z,38.75,48.82,23.0,9.0,150,9,,6.21,29.852362,,,,,,TRUE,,,,,SCT,10000,,,,,,,VFR,,,,,,,,,,,,METAR,-11.0
TTPP 170800Z 00000KT 9999 FEW016 25/23 Q1012 NOSIG,TTPP,2023-05-17T08:00:00Z,10.58,-61.35,25.0,23.0,0,0,,6.21,29.88189,,,,,,TRUE,,,,,FEW,1600,,,,,,,VFR,,,,,,,,,,,,METAR,11.0
TTCP 170800Z 05003KT 9999 FEW016 26/23 Q1012 NOSIG,TTCP,2023-05-17T08:00:00Z,11.15,-60.85,26.0,23.0,50,3,,6.21,29.88189,,,,,,TRUE,,,,,FEW,1600,,,,,,,VFR,,,,,,,,,,,,METAR,13.0
TNCM 170800Z 10006KT 070V140 9999 FEW016 27/24 Q1015 ,TNCM,2023-05-17T08:00:00Z,18.05,-63.12,27.0,24.0,100,6,,6.21,29.970472,,,,,,,,,,,FEW,1600,,,,,,,VFR,,,,,,,,,,,,METAR,9.0
TNCC 170800Z 10006KT 9999 OVC018 27/25 Q1012 NOSIG,TNCC,2023-05-17T08:00:00Z,12.2,-68.97,27.0,25.0,100,6,,6.21,29.88189,,,,,,TRUE,,,,,OVC,1800,,,,,,,MVFR,,,,,,,,,,,,METAR,10.0
TNCA 170800Z 10012KT 9999 FEW012 27/24 Q1011 NOSIG,TNCA,2023-05-17T08:00:00Z,12.5,-70.0,27.0,24.0,100,12,,6.21,29.852362,,,,,,TRUE,,,,,FEW,1200,,,,,,,VFR,,,,,,,,,,,,METAR,7.0
TLPL 170800Z 09013KT 9999 SCT025 27/23 Q1013 NOSIG,TLPL,2023-05-17T08:00:00Z,13.75,-60.95,27.0,23.0,90,13,,6.21,29.911417,,,,,,TRUE,,,,,SCT,2500,,,,,,,VFR,,,,,,,,,,,,METAR,13.0
TGPY 170800Z 09010KT 9999 FEW020 27/24 Q1012 NOSIG,TGPY,2023-05-17T08:00:00Z,12.0,-61.78,27.0,24.0,90,10,,6.21,29.88189,,,,,,TRUE,,,,,FEW,2000,,,,,,,VFR,,,,,,,,,,,,METAR,12.0
TBPB 170800Z 10006KT 9999 VCSH SCT018 26/23 Q1013 NOSIG,TBPB,2023-05-17T08:00:00Z,13.07,-59.48,26.0,23.0,100,6,,6.21,29.911417,,,,,,TRUE,,,,VCSH,SCT,1800,,,,,,,VFR,,,,,,,,,,,,METAR,55.0
TAPA 170800Z 12005KT 080V170 9999 FEW018 26/22 Q1014 NOSIG,TAPA,2023-05-17T08:00:00Z,17.13,-61.78,26.0,22.0,120,5,,6.21,29.940945,,,,,,TRUE,,,,,FEW,1800,,,,,,,VFR,,,,,,,,,,,,METAR,15.0
SYCJ 170800Z VRB02KT 9999 FEW016 SCT036 24/24 Q1011 NOSIG,SYCJ,2023-05-17T08:00:00Z,6.5,-58.25,24.0,24.0,0,2,,6.21,29.852362,,,,,,TRUE,,,,,FEW,1600,SCT,3600,,,,,VFR,,,,,,,,,,,,METAR,30.0
SVMI 170800Z 09005KT 9999 FEW016 SCT080 24/20 Q1013,SVMI,2023-05-17T08:00:00Z,10.6,-67.0,24.0,20.0,90,5,,6.21,29.911417,,,,,,,,,,,FEW,1600,SCT,8000,,,,,VFR,,,,,,,,,,,,METAR,48.0
SUMU 170800Z 02008KT CAVOK 14/13 Q1016 NOSIG,SUMU,2023-05-17T08:00:00Z,-34.83,-56.02,14.0,13.0,20,8,,6.21,30.0,,,,,,TRUE,,,,,CAVOK,,,,,,,,VFR,,,,,,,,,,,,METAR,32.0
SULS 170800Z 01004KT CAVOK 12/12 Q1017,SULS,2023-05-17T08:00:00Z,-34.87,-55.1,12.0,12.0,10,4,,6.21,30.029528,,,,,,,,,,,CAVOK,,,,,,,,VFR,,,,,,,,,,,,METAR,22.0
SPUR 170800Z 20003KT CAVOK 24/21 Q1012 RMK PP000,SPUR,2023-05-17T08:00:00Z,-5.17,-80.58,24.0,21.0,200,3,,6.21,29.88189,,,,,,,,,,,CAVOK,,,,,,,,VFR,,,,,,,,,,,,METAR,55.0
SPSO 170800Z 10004KT 7000 OVC030 20/16 Q1014 RMK PP000,SPSO,2023-05-17T08:00:00Z,-13.73,-76.22,20.0,16.0,100,4,,4.35,29.940945,,,,,,,,,,,OVC,3000,,,,,,,MVFR,,,,,,,,,,,,METAR,8.0
SPRU 170800Z 13004KT 5000 BR FEW015 22/20 Q1013 RMK PP000,SPRU,2023-05-17T08:00:00Z,-8.08,-79.12,22.0,20.0,130,4,,3.11,29.911417,,,,,,,,,,BR,FEW,1500,,,,,,,MVFR,,,,,,,,,,,,METAR,23.0
SPQT 170800Z 03003KT 9999 FEW003 BKN100 25/24 Q1011 NOSIG RMK PP000,SPQT,2023-05-17T08:00:00Z,-3.78,-73.32,25.0,24.0,30,3,,6.21,29.852362,,,,,,TRUE,,,,,FEW,300,BKN,10000,,,,,VFR,,,,,,,,,,,,METAR,92.0
SPJC 170800Z 14009KT 9999 BKN030 22/18 Q1013 NOSIG RMK PP000,SPJC,2023-05-17T08:00:00Z,-12.02,-77.12,22.0,18.0,140,9,,6.21,29.911417,,,,,,TRUE,,,,,BKN,3000,,,,,,,MVFR,,,,,,,,,,,,METAR,26.0
SPHI 170800Z 18008KT CAVOK 23/19 Q1012 RMK BIRD HAZARD RWY 19/01 PP000,SPHI,2023-05-17T08:00:00Z,-6.78,-79.82,23.0,19.0,180,8,,6.21,29.88189,,,,,,,,,,,CAVOK,,,,,,,,VFR,,,,,,,,,,,,METAR,33.0
SMJP 170800Z 11003KT 9999 -RA SCT003 SCT020 25/25 Q1012 NOSIG,SMJP,2023-05-17T08:00:00Z,5.45,-55.18,25.0,25.0,110,3,,6.21,29.88189,,,,,,TRUE,,,,-RA,SCT,300,SCT,2000,,,,,VFR,,,,,,,,,,,,METAR,14.0
SLVR 170800Z 02003KT 9999 FEW020 SCT070 18/17 Q1012,SLVR,2023-05-17T08:00:00Z,-17.63,-63.13,18.0,17.0,20,3,,6.21,29.88189,,,,,,,,,,,FEW,2000,SCT,7000,,,,,VFR,,,,,,,,,,,,METAR,377.0
SLLP 170800Z 01005KT 9999 NSC 03/M09 Q1038,SLLP,2023-05-17T08:00:00Z,-16.52,-68.17,3.0,-9.0,10,5,,6.21,30.649607,,,,,,,,,,,CLR,,,,,,,,VFR,,,,,,,,,,,,METAR,4061.0
SLCB 170800Z 00000KT 9999 NSC 09/04 Q1024,SLCB,2023-05-17T08:00:00Z,-17.42,-66.18,9.0,4.0,0,0,,6.21,30.236221,,,,,,,,,,,CLR,,,,,,,,VFR,,,,,,,,,,,,METAR,2560.0
SKSP 170800Z 06003KT 020V100 9999 FEW014 27/25 Q1011 RMK A2987,SKSP,2023-05-17T08:00:00Z,12.58,-81.72,27.0,25.0,60,3,,6.21,29.852362,,,,,,,,,,,FEW,1400,,,,,,,VFR,,,,,,,,,,,,METAR,6.0
SKRG 170800Z 33005KT 4000 RA BKN007 SCT080 14/14 Q1028 NOSIG RMK CB/S/W A3036,SKRG,2023-05-17T08:00:00Z,6.17,-75.42,14.0,14.0,330,5,,2.49,30.35433,,,,,,TRUE,,,,RA,BKN,700,SCT,8000,,,,,IFR,,,,,,,,,,,,METAR,2132.0
SKLT 170800Z VRB02KT 9999 BKN013 24/24 Q1011 RMK A2987,SKLT,2023-05-17T08:00:00Z,-4.2,-69.93,24.0,24.0,0,2,,6.21,29.852362,,,,,,,,,,,BKN,1300,,,,,,,MVFR,,,,,,,,,,,,METAR,78.0
SKCL 170800Z VRB02KT 9999 FEW023 BKN120 21/20 Q1017 NOSIG RMK A3005,SKCL,2023-05-17T08:00:00Z,3.53,-76.37,21.0,20.0,0,2,,6.21,30.029528,,,,,,TRUE,,,,,FEW,2300,BKN,12000,,,,,VFR,,,,,,,,,,,,METAR,967.0
SKCG 170800Z 19005KT CAVOK 28/25 Q1010 RMK A2983,SKCG,2023-05-17T08:00:00Z,10.43,-75.52,28.0,25.0,190,5,,6.21,29.822834,,,,,,,,,,,CAVOK,,,,,,,,VFR,,,,,,,,,,,,METAR,6.0
SKBQ 170800Z 17003KT 7000 VCFG FEW006 25/24 Q1011 NOSIG RMK A2988,SKBQ,2023-05-17T08:00:00Z,10.87,-74.77,25.0,24.0,170,3,,4.35,29.852362,,,,,,TRUE,,,,VCFG,FEW,600,,,,,,,MVFR,,,,,,,,,,,,METAR,23.0
SKBO 170800Z VRB02KT 9999 FEW017 BKN070 12/11 Q1028 NOSIG RMK A3037,SKBO,2023-05-17T08:00:00Z,4.7,-74.15,12.0,11.0,0,2,,6.21,30.35433,,,,,,TRUE,,,,,FEW,1700,BKN,7000,,,,,VFR,,,,,,,,,,,,METAR,2547.0
SGES 170800Z 00000KT 7000 NSC 10/10 Q1016,SGES,2023-05-17T08:00:00Z,-25.45,-54.85,10.0,10.0,0,0,,4.35,30.0,,,,,,,,,,,CLR,,,,,,,,MVFR,,,,,,,,,,,,METAR,256.0
SGAS 170800Z 06004KT CAVOK 16/12 Q1014,SGAS,2023-05-17T08:00:00Z,-25.25,-57.52,16.0,12.0,60,4,,6.21,29.940945,,,,,,,,,,,CAVOK,,,,,,,,VFR,,,,,,,,,,,,METAR,83.0
SEQM 170800Z 03002KT 9999 BKN005 BKN080 13/12 Q1028 NOSIG RMK A3035,SEQM,2023-05-17T08:00:00Z,-0.12,-78.35,13.0,12.0,30,2,,6.21,30.35433,,,,,,TRUE,,,,,BKN,500,BKN,8000,,,,,IFR,,,,,,,,,,,,METAR,2386.0
SEMT 170800Z 15002KT 9999 BKN030 24/23 Q1011 RMK A2987,SEMT,2023-05-17T08:00:00Z,-0.95,-80.67,24.0,23.0,150,2,,6.21,29.852362,,,,,,,,,,,BKN,3000,,,,,,,MVFR,,,,,,,,,,,,METAR,13.0
SEGU 170800Z METAR 20004KT 9999 FEW010 BKN020 BKN090 26/25 Q1010 NOSIG RMK A2984,SEGU,2023-05-17T08:00:00Z,-2.15,-79.88,26.0,25.0,200,4,,6.21,29.822834,,,,,,TRUE,,,,,FEW,1000,BKN,2000,BKN,9000,,,MVFR,,,,,,,,,,,,SPECI,6.0
SCVM 170800Z 13004KT 9999 BKN023 14/11 Q1017,SCVM,2023-05-17T08:00:00Z,-32.95,-71.48,14.0,11.0,130,4,,6.21,30.029528,,,,,,,,,,,BKN,2300,,,,,,,MVFR,,,,,,,,,,,,METAR,136.0
SCVD 170800Z AUTO VRB02KT 6000 R35///// BR BKN031 04/04 Q1018,SCVD,2023-05-17T08:00:00Z,-39.65,-73.08,4.0,4.0,0,2,,3.73,30.059055,,,TRUE,,,,,,,BR,BKN,3100,,,,,,,MVFR,,,,,,,,,,,,METAR,19.0
SCTN 170800Z AUTO 36020KT 9999 OVC027 10/08 Q1011,SCTN,2023-05-17T08:00:00Z,-42.92,-72.7,10.0,8.0,360,20,,6.21,29.852362,,,TRUE,,,,,,,,OVC,2700,,,,,,,MVFR,,,,,,,,,,,,METAR,8.0
SCTE 170800Z 02012KT 9999 OVC030 09/06 Q1014 NOSIG,SCTE,2023-05-17T08:00:00Z,-41.43,-73.08,9.0,6.0,20,12,,6.21,29.940945,,,,,,TRUE,,,,,OVC,3000,,,,,,,MVFR,,,,,,,,,,,,METAR,85.0
SCSN 170800Z AUTO 06003KT //// R/////// // NCD 14/13 Q1017,SCSN,2023-05-17T08:00:00Z,-33.65,-71.62,14.0,13.0,60,3,,,30.029528,,,TRUE,,,,,,,,CLR,,,,,,,,,,,,,,,,,,,,METAR,73.0
SCSE 170800Z AUTO 06002KT 9999 SCT042/// BKN051/// OVC110/// 15/11 Q1017,SCSE,2023-05-17T08:00:00Z,-29.92,-71.2,15.0,11.0,60,2,,6.21,30.029528,,,TRUE,,,,,,,,SCT,4200,BKN,5100,OVC,11000,,,VFR,,,,,,,,,,,,METAR,141.0
SCQP 170800Z 00000KT 0600 R01/0700N FG VV002 03/03 Q1018,SCQP,2023-05-17T08:00:00Z,-38.92,-72.65,3.0,3.0,0,0,,0.37,30.059055,,,,,,,,,,FG,OVX,0,,,,,,,LIFR,,,,,,,,,,,200,METAR,97.0
SCPQ 170800Z AUTO 36010KT 310V020 5000 RA BKN003 OVC009 09/09 Q1010,SCPQ,2023-05-17T08:00:00Z,-42.33,-73.72,9.0,9.0,360,10,,3.11,29.822834,,,TRUE,,,,,,,RA,BKN,300,OVC,900,,,,,LIFR,,,,,,,,,,,,METAR,166.0
SCON 170800Z AUTO 01009KT 9999 -RA FEW011/// BKN017/// OVC054/// 10/10 Q1009 RERA,SCON,2023-05-17T08:00:00Z,-43.13,-73.62,10.0,10.0,10,9,,6.21,29.793306,,,TRUE,,,,,,,-RA,FEW,1100,BKN,1700,OVC,5400,,,MVFR,,,,,,,,,,,,METAR,11.0
SCMK 170800Z AUTO 25006KT 190V310 //// // SCT033/// OVC045/// 10/09 Q1008,SCMK,2023-05-17T08:00:00Z,-43.9,-73.73,10.0,9.0,250,6,,,29.763779,,,TRUE,,,,,,,,SCT,3300,OVC,4500,,,,,,,,,,,,,,,,,METAR,22.0
SCJO 170800Z AUTO 04008KT 360V060 9999 OVC056/// 08/06 Q1016,SCJO,2023-05-17T08:00:00Z,-40.6,-73.05,8.0,6.0,40,8,,6.21,30.0,,,TRUE,,,,,,,,OVC,5600,,,,,,,VFR,,,,,,,,,,,,METAR,61.0
SCIP 170800Z 10012KT 9999 BKN030 20/14 Q1026 NOSIG,SCIP,2023-05-17T08:00:00Z,-27.17,-109.43,20.0,14.0,100,12,,6.21,30.295275,,,,,,TRUE,,,,,BKN,3000,,,,,,,MVFR,,,,,,,,,,,,METAR,48.0
SCIE 170800Z 21006KT 9999 OVC040 11/09 Q1018,SCIE,2023-05-17T08:00:00Z,-36.77,-73.07,11.0,9.0,210,6,,6.21,30.059055,,,,,,,,,,,OVC,4000,,,,,,,VFR,,,,,,,,,,,,METAR,8.0
SCIC 170800Z AUTO VRB02KT //// R/////// // NCD 14/10 Q1017,SCIC,2023-05-17T08:00:00Z,-34.97,-71.22,14.0,10.0,0,2,,,30.029528,,,TRUE,,,,,,,,CLR,,,,,,,,,,,,,,,,,,,,METAR,230.0
SCHR 170800Z AUTO 29015G25KT 270V330 9999 -RA FEW036 08/01 Q0995,SCHR,2023-05-17T08:00:00Z,-47.23,-72.58,8.0,1.0,290,15,25,6.21,29.379921,,,TRUE,,,,,,,-RA,FEW,3600,,,,,,,VFR,,,,,,,,,,,,METAR,203.0
SCFT 170800Z AUTO 26011G22KT 150V300 9999 -RA OVC046/// 09/04 Q1008,SCFT,2023-05-17T08:00:00Z,-43.18,-71.85,9.0,4.0,260,11,22,6.21,29.763779,,,TRUE,,,,,,,-RA,OVC,4600,,,,,,,VFR,,,,,,,,,,,,METAR,345.0
SCFA 170800Z 24003KT CAVOK 17/12 Q1016 NOSIG,SCFA,2023-05-17T08:00:00Z,-23.43,-70.43,17.0,12.0,240,3,,6.21,30.0,,,,,,TRUE,,,,,CAVOK,,,,,,,,VFR,,,,,,,,,,,,METAR,113.0
SCEL 170800Z 22003KT 8000 SCT017 BKN020 12/11 Q1018 NOSIG,SCEL,2023-05-17T08:00:00Z,-33.38,-70.78,12.0,11.0,220,3,,4.97,30.059055,,,,,,TRUE,,,,,SCT,1700,BKN,2000,,,,,MVFR,,,,,,,,,,,,METAR,478.0
SCDA 170800Z 18005KT CAVOK 17/12 Q1016,SCDA,2023-05-17T08:00:00Z,-20.53,-70.17,17.0,12.0,180,5,,6.21,30.0,,,,,,,,,,,CAVOK,,,,,,,,VFR,,,,,,,,,,,,METAR,41.0
SCCY 170800Z AUTO 04005KT 340V080 9999 -RA FEW037 BKN042 OVC048 07/04 Q1002 RERA,SCCY,2023-05-17T08:00:00Z,-45.58,-72.1,7.0,4.0,40,5,,6.21,29.586615,,,TRUE,,,,,,,-RA,FEW,3700,BKN,4200,OVC,4800,,,VFR,,,,,,,,,,,,METAR,301.0
SCCI 170800Z 32012KT CAVOK 02/M00 Q0983 NOSIG,SCCI,2023-05-17T08:00:00Z,-53.0,-70.85,2.0,0.0,320,12,,6.21,29.02559,,,,,,TRUE,,,,,CAVOK,,,,,,,,VFR,,,,,,,,,,,,METAR,37.0
SCCF 170800Z 11016KT CAVOK 04/M12 Q1026,SCCF,2023-05-17T08:00:00Z,-22.5,-68.9,4.0,-12.0,110,16,,6.21,30.295275,,,,,,,,,,,CAVOK,,,,,,,,VFR,,,,,,,,,,,,METAR,2290.0
SCAT 170800Z AUTO 06003KT 9999 OVC043/// 16/10 Q1017,SCAT,2023-05-17T08:00:00Z,-27.27,-70.77,16.0,10.0,60,3,,6.21,30.029528,,,TRUE,,,,,,,,OVC,4300,,,,,,,VFR,,,,,,,,,,,,METAR,209.0
SCAR 170800Z 14004KT 9999 OVC025 20/16 Q1015,SCAR,2023-05-17T08:00:00Z,-18.35,-70.33,20.0,16.0,140,4,,6.21,29.970472,,,,,,,,,,,OVC,2500,,,,,,,MVFR,,,,,,,,,,,,METAR,57.0
SCAP 170800Z AUTO VRB03KT 9999 -SHRA ////// 08/04 Q1009,SCAP,2023-05-17T08:00:00Z,-43.62,-71.8,8.0,4.0,0,3,,6.21,29.793306,,,TRUE,,,,,,,-SHRA,,,,,,,,,,,,,,,,,,,,,METAR,252.0
SBVT 170800Z 35001KT CAVOK 17/14 Q1015,SBVT,2023-05-17T08:00:00Z,-20.25,-40.28,17.0,14.0,350,1,,6.21,29.970472,,,,,,,,,,,CAVOK,,,,,,,,VFR,,,,,,,,,,,,METAR,4.0
SBUR 170800Z 07005KT 7000 NSC 14/07 Q1019,SBUR,2023-05-17T08:00:00Z,-19.77,-47.97,14.0,7.0,70,5,,4.35,30.088583,,,,,,,,,,,CLR,,,,,,,,MVFR,,,,,,,,,,,,METAR,807.0
SBUL 170800Z 11007KT CAVOK 14/06 Q1019,SBUL,2023-05-17T08:00:00Z,-18.87,-48.22,14.0,6.0,110,7,,6.21,30.088583,,,,,,,,,,,CAVOK,,,,,,,,VFR,,,,,,,,,,,,METAR,945.0
SBTE 170800Z 00000KT 9999 SCT014 BKN016 25/24 Q1011,SBTE,2023-05-17T08:00:00Z,-5.05,-42.82,25.0,24.0,0,0,,6.21,29.852362,,,,,,,,,,,SCT,1400,BKN,1600,,,,,MVFR,,,,,,,,,,,,METAR,60.0
SBSV 170800Z 27002KT 9999 FEW020 24/23 Q1014,SBSV,2023-05-17T08:00:00Z,-12.9,-38.32,24.0,23.0,270,2,,6.21,29.940945,,,,,,,,,,,FEW,2000,,,,,,,VFR,,,,,,,,,,,,METAR,9.0
SBSR 170800Z 15005KT CAVOK 14/10 Q1018,SBSR,2023-05-17T08:00:00Z,-20.8,-49.4,14.0,10.0,150,5,,6.21,30.059055,,,,,,,,,,,CAVOK,,,,,,,,VFR,,,,,,,,,,,,METAR,537.0
SBSP 170800Z AUTO 16005KT CAVOK 12/11 Q1021,SBSP,2023-05-17T08:00:00Z,-23.62,-46.65,12.0,11.0,160,5,,6.21,30.147638,,,TRUE,,,,,,,,CAVOK,,,,,,,,VFR,,,,,,,,,,,,METAR,802.0
SBSN 170800Z 09002KT 9999 VCTS FEW015 FEW020CB 25/25 Q1010,SBSN,2023-05-17T08:00:00Z,-2.42,-54.78,25.0,25.0,90,2,,6.21,29.822834,,,,,,,,,,VCTS,FEW,1500,FEW,2000,,,,,VFR,,,,,,,,,,,,METAR,57.0
SBSL 170800Z 00000KT 9999 SCT017 27/26 Q1011,SBSL,2023-05-17T08:00:00Z,-2.58,-44.23,27.0,26.0,0,0,,6.21,29.852362,,,,,,,,,,,SCT,1700,,,,,,,VFR,,,,,,,,,,,,METAR,53.0
SBSG 170800Z VRB02KT 9999 SCT020 BKN070 24/23 Q1012,SBSG,2023-05-17T08:00:00Z,-5.77,-35.37,24.0,23.0,0,2,,6.21,29.88189,,,,,,,,,,,SCT,2000,BKN,7000,,,,,VFR,,,,,,,,,,,,METAR,83.0
SBSC 170800Z 20006KT 9999 FEW020 SCT040 18/17 Q1018,SBSC,2023-05-17T08:00:00Z,-22.92,-43.72,18.0,17.0,200,6,,6.21,30.059055,,,,,,,,,,,FEW,2000,SCT,4000,,,,,VFR,,,,,,,,,,,,METAR,6.0
SBRP 170800Z 14003KT CAVOK 10/08 Q1018,SBRP,2023-05-17T08:00:00Z,-21.13,-47.77,10.0,8.0,140,3,,6.21,30.059055,,,,,,,,,,,CAVOK,,,,,,,,VFR,,,,,,,,,,,,METAR,550.0
SBRJ 170800Z 27003KT 9999 FEW020 BKN050 21/18 Q1017,SBRJ,2023-05-17T08:00:00Z,-22.9,-43.17,21.0,18.0,270,3,,6.21,30.029528,,,,,,,,,,,FEW,2000,BKN,5000,,,,,VFR,,,,,,,,,,,,METAR,6.0
SBRF 170800Z 23005KT 9999 BKN021 25/23 Q1013,SBRF,2023-05-17T08:00:00Z,-8.13,-34.92,25.0,23.0,230,5,,6.21,29.911417,,,,,,,,,,,BKN,2100,,,,,,,MVFR,,,,,,,,,,,,METAR,10.0
SBRB 170800Z 32002KT 8000 FEW002 SCT033 24/24 Q1012,SBRB,2023-05-17T08:00:00Z,-9.87,-67.88,24.0,24.0,320,2,,4.97,29.88189,,,,,,,,,,,FEW,200,SCT,3300,,,,,MVFR,,,,,,,,,,,,METAR,190.0
SBPV 170800Z 34001KT 9999 BKN005 24/23 Q1011,SBPV,2023-05-17T08:00:00Z,-8.72,-63.9,24.0,23.0,340,1,,6.21,29.852362,,,,,,,,,,,BKN,500,,,,,,,IFR,,,,,,,,,,,,METAR,89.0
SBPS 170800Z 26002KT 9999 FEW007 BKN020 BKN080 23/22 Q1014,SBPS,2023-05-17T08:00:00Z,-16.43,-39.07,23.0,22.0,260,2,,6.21,29.940945,,,,,,,,,,,FEW,700,BKN,2000,BKN,8000,,,MVFR,,,,,,,,,,,,METAR,44.0
SBPL 170800Z 18003KT CAVOK 23/21 Q1015,SBPL,2023-05-17T08:00:00Z,-9.37,-40.57,23.0,21.0,180,3,,6.21,29.970472,,,,,,,,,,,CAVOK,,,,,,,,VFR,,,,,,,,,,,,METAR,386.0
SBPJ 170800Z 07002KT 9999 FEW015 BKN080 25/24 Q1012,SBPJ,2023-05-17T08:00:00Z,-10.28,-48.37,25.0,24.0,70,2,,6.21,29.88189,,,,,,,,,,,FEW,1500,BKN,8000,,,,,VFR,,,,,,,,,,,,METAR,226.0
SBPA 170800Z VRB01KT 7000 NSC 11/11 Q1018,SBPA,2023-05-17T08:00:00Z,-30.0,-51.17,11.0,11.0,0,1,,4.35,30.059055,,,,,,,,,,,CLR,,,,,,,,MVFR,,,,,,,,,,,,METAR,3.0
SBNT 170800Z 16006KT 9999 -RA SCT007 SCT017 BKN070 24/24 Q1012,SBNT,2023-05-17T08:00:00Z,-5.92,-35.25,24.0,24.0,160,6,,6.21,29.88189,,,,,,,,,,-RA,SCT,700,SCT,1700,BKN,7000,,,VFR,,,,,,,,,,,,METAR,51.0
SBMQ 170800Z 32003KT 9999 FEW016 SCT020 26/26 Q1010,SBMQ,2023-05-17T08:00:00Z,0.05,-51.07,26.0,26.0,320,3,,6.21,29.822834,,,,,,,,,,,FEW,1600,SCT,2000,,,,,VFR,,,,,,,,,,,,METAR,15.0
SBMO 170800Z 30003KT 9999 BKN017 BKN090 23/23 Q1014,SBMO,2023-05-17T08:00:00Z,-9.52,-35.78,23.0,23.0,300,3,,6.21,29.940945,,,,,,,,,,,BKN,1700,BKN,9000,,,,,MVFR,,,,,,,,,,,,METAR,116.0
SBMN 170800Z 16002KT 9999 FEW008 SCT100 24/23 Q1013,SBMN,2023-05-17T08:00:00Z,-3.13,-59.98,24.0,23.0,160,2,,6.21,29.911417,,,,,,,,,,,FEW,800,SCT,10000,,,,,VFR,,,,,,,,,,,,METAR,71.0
SBMK 170800Z 00000KT CAVOK 16/11 Q1017,SBMK,2023-05-17T08:00:00Z,-16.7,-43.82,16.0,11.0,0,0,,6.21,30.029528,,,,,,,,,,,CAVOK,,,,,,,,VFR,,,,,,,,,,,,METAR,665.0
SBMG 170800Z 07011KT 060V120 CAVOK 16/11 Q1017,SBMG,2023-05-17T08:00:00Z,-23.48,-52.02,16.0,11.0,70,11,,6.21,30.029528,,,,,,,,,,,CAVOK,,,,,,,,VFR,,,,,,,,,,,,METAR,543.0
SBME 170800Z 17003KT 9999 BKN030 20/18 Q1016,SBME,2023-05-17T08:00:00Z,-22.35,-41.77,20.0,18.0,170,3,,6.21,30.0,,,,,,,,,,,BKN,3000,,,,,,,MVFR,,,,,,,,,,,,METAR,2.0
SBMA 170800Z 00000KT 9999 FEW012 BKN070 24/24 Q1012,SBMA,2023-05-17T08:00:00Z,-5.37,-49.13,24.0,24.0,0,0,,6.21,29.88189,,,,,,,,,,,FEW,1200,BKN,7000,,,,,VFR,,,,,,,,,,,,METAR,110.0
SBLO 170800Z 12006KT CAVOK 13/13 Q1019,SBLO,2023-05-17T08:00:00Z,-23.33,-51.12,13.0,13.0,120,6,,6.21,30.088583,,,,,,,,,,,CAVOK,,,,,,,,VFR,,,,,,,,,,,,METAR,563.0
SBLE 170800Z AUTO 00000KT 9999 OVC020 21/20 Q1017,SBLE,2023-05-17T08:00:00Z,-12.48,-41.28,21.0,20.0,0,0,,6.21,30.029528,,,TRUE,,,,,,,,OVC,2000,,,,,,,MVFR,,,,,,,,,,,,METAR,495.0
SBLB 170800Z AUTO 22033KT 9999 BKN036 24/15 Q1014 W///S5,SBLB,2023-05-17T08:00:00Z,-22.1,-39.92,24.0,15.0,220,33,,6.21,29.940945,,,TRUE,,,,,,,,BKN,3600,,,,,,,VFR,,,,,,,,,,,,METAR,10.0
SBKP 170800Z 14004KT CAVOK 13/11 Q1020,SBKP,2023-05-17T08:00:00Z,-23.0,-47.13,13.0,11.0,140,4,,6.21,30.11811,,,,,,,,,,,CAVOK,,,,,,,,VFR,,,,,,,,,,,,METAR,659.0
SBKG 170800Z 14003KT 9999 SCT015 22/21 Q1015,SBKG,2023-05-17T08:00:00Z,-7.27,-35.88,22.0,21.0,140,3,,6.21,29.970472,,,,,,,,,,,SCT,1500,,,,,,,VFR,,,,,,,,,,,,METAR,499.0
SBJV 170800Z 36001KT 8000 BKN035 14/14 Q1020,SBJV,2023-05-17T08:00:00Z,-26.22,-48.8,14.0,14.0,360,1,,4.97,30.11811,,,,,,,,,,,BKN,3500,,,,,,,MVFR,,,,,,,,,,,,METAR,3.0
SBJU 170800Z 00000KT 9999 FEW016 23/22 Q1016,SBJU,2023-05-17T08:00:00Z,-7.22,-39.27,23.0,22.0,0,0,,6.21,30.0,,,,,,,,,,,FEW,1600,,,,,,,VFR,,,,,,,,,,,,METAR,407.0
SBJP 170800Z 17004KT 140V200 9999 -RA BKN015 24/24 Q1013 RERA,SBJP,2023-05-17T08:00:00Z,-7.15,-34.95,24.0,24.0,170,4,,6.21,29.911417,,,,,,,,,,-RA,BKN,1500,,,,,,,MVFR,,,,,,,,,,,,METAR,66.0
SBIZ 170800Z 02002KT 0600 0300E FG VV003 26/25 Q1012,SBIZ,2023-05-17T08:00:00Z,-5.52,-47.45,26.0,25.0,20,2,,0.37,29.88189,,,,,,,,,,FG,OVX,0,,,,,,,LIFR,,,,,,,,,,,300,METAR,131.0
SBIP 170800Z AUTO 21004KT CAVOK 15/11 Q1017,SBIP,2023-05-17T08:00:00Z,-19.47,-42.48,15.0,11.0,210,4,,6.21,30.029528,,,TRUE,,,,,,,,CAVOK,,,,,,,,VFR,,,,,,,,,,,,METAR,240.0
SBGR 170800Z 11003KT 8000 BKN013 15/13 Q1021,SBGR,2023-05-17T08:00:00Z,-23.42,-46.47,15.0,13.0,110,3,,4.97,30.147638,,,,,,,,,,,BKN,1300,,,,,,,MVFR,,,,,,,,,,,,METAR,745.0
SBGO 170800Z 00000KT CAVOK 16/15 Q1018,SBGO,2023-05-17T08:00:00Z,-16.62,-49.22,16.0,15.0,0,0,,6.21,30.059055,,,,,,,,,,,CAVOK,,,,,,,,VFR,,,,,,,,,,,,METAR,740.0
SBGL 170800Z 31004KT 6000 -RA FEW009 BKN015 OVC030 19/18 Q1017,SBGL,2023-05-17T08:00:00Z,-22.82,-43.25,19.0,18.0,310,4,,3.73,30.029528,,,,,,,,,,-RA,FEW,900,BKN,1500,OVC,3000,,,MVFR,,,,,,,,,,,,METAR,3.0
SBFZ 170800Z 16004KT 9999 SCT020 26/25 Q1011,SBFZ,2023-05-17T08:00:00Z,-3.77,-38.52,26.0,25.0,160,4,,6.21,29.852362,,,,,,,,,,,SCT,2000,,,,,,,VFR,,,,,,,,,,,,METAR,32.0
SBFL 170800Z 30003KT 9999 BKN043 16/15 Q1020,SBFL,2023-05-17T08:00:00Z,-27.67,-48.53,16.0,15.0,300,3,,6.21,30.11811,,,,,,,,,,,BKN,4300,,,,,,,VFR,,,,,,,,,,,,METAR,5.0
SBFI 170800Z 09005KT CAVOK 14/12 Q1017,SBFI,2023-05-17T08:00:00Z,-25.6,-54.48,14.0,12.0,90,5,,6.21,30.029528,,,,,,,,,,,CAVOK,,,,,,,,VFR,,,,,,,,,,,,METAR,233.0
SBEG 170800Z 33001KT 9999 FEW010 SCT090 25/24 Q1012,SBEG,2023-05-17T08:00:00Z,-3.03,-60.03,25.0,24.0,330,1,,6.21,29.88189,,,,,,,,,,,FEW,1000,SCT,9000,,,,,VFR,,,,,,,,,,,,METAR,69.0
SBDN 170800Z 09007KT CAVOK 14/11 Q1018,SBDN,2023-05-17T08:00:00Z,-22.18,-51.43,14.0,11.0,90,7,,6.21,30.059055,,,,,,,,,,,CAVOK,,,,,,,,VFR,,,,,,,,,,,,METAR,438.0
SBCY 170800Z 31004KT CAVOK 19/18 Q1013,SBCY,2023-05-17T08:00:00Z,-15.65,-56.12,19.0,18.0,310,4,,6.21,29.911417,,,,,,,,,,,CAVOK,,,,,,,,VFR,,,,,,,,,,,,METAR,182.0
SBCT 170800Z 10003KT 060V130 9000 BKN017 09/09 Q1022,SBCT,2023-05-17T08:00:00Z,-25.52,-49.17,9.0,9.0,100,3,,5.59,30.177166,,,,,,,,,,,BKN,1700,,,,,,,MVFR,,,,,,,,,,,,METAR,914.0
SBCG 170800Z 09003KT 030V140 CAVOK 17/10 Q1016,SBCG,2023-05-17T08:00:00Z,-20.47,-54.67,17.0,10.0,90,3,,6.21,30.0,,,,,,,,,,,CAVOK,,,,,,,,VFR,,,,,,,,,,,,METAR,556.0
SBCF 170800Z 13007KT CAVOK 13/09 Q1019,SBCF,2023-05-17T08:00:00Z,-19.63,-43.97,13.0,9.0,130,7,,6.21,30.088583,,,,,,,,,,,CAVOK,,,,,,,,VFR,,,,,,,,,,,,METAR,825.0
SBBV 170800Z 16002KT 9999 VCTS SCT035 FEW040CB SCT090 24/23 Q1011,SBBV,2023-05-17T08:00:00Z,2.85,-60.7,24.0,23.0,160,2,,6.21,29.852362,,,,,,,,,,VCTS,SCT,3500,FEW,4000,SCT,9000,,,VFR,,,,,,,,,,,,METAR,80.0
SBBR 170800Z 31001KT CAVOK 16/13 Q1019,SBBR,2023-05-17T08:00:00Z,-15.87,-47.92,16.0,13.0,310,1,,6.21,30.088583,,,,,,,,,,,CAVOK,,,,,,,,VFR,,,,,,,,,,,,METAR,1051.0
SBBH 170800Z 00000KT CAVOK 12/08 Q1019,SBBH,2023-05-17T08:00:00Z,-19.85,-43.95,12.0,8.0,0,0,,6.21,30.088583,,,,,,,,,,,CAVOK,,,,,,,,VFR,,,,,,,,,,,,METAR,799.0
SBBG 170800Z AUTO 04013KT CAVOK 13/12 Q1017,SBBG,2023-05-17T08:00:00Z,-31.38,-54.12,13.0,12.0,40,13,,6.21,30.029528,,,TRUE,,,,,,,,CAVOK,,,,,,,,VFR,,,,,,,,,,,,METAR,182.0
SBBE 170800Z 00000KT CAVOK 24/23 Q1012,SBBE,2023-05-17T08:00:00Z,-1.37,-48.47,24.0,23.0,0,0,,6.21,29.88189,,,,,,,,,,,CAVOK,,,,,,,,VFR,,,,,,,,,,,,METAR,16.0
SBAR 170800Z 36003KT 9999 BKN021 24/23 Q1013,SBAR,2023-05-17T08:00:00Z,-10.98,-37.07,24.0,23.0,360,3,,6.21,29.911417,,,,,,,,,,,BKN,2100,,,,,,,MVFR,,,,,,,,,,,,METAR,4.0
SBAN 170800Z 11005KT CAVOK 16/13 Q1020,SBAN,2023-05-17T08:00:00Z,-16.22,-48.97,16.0,13.0,110,5,,6.21,30.11811,,,,,,,,,,,CAVOK,,,,,,,,VFR,,,,,,,,,,,,METAR,1131.0
SAZS 170800Z 29012KT 9999 FEW030 05/M02 Q1013 RMK PP///,SAZS,2023-05-17T08:00:00Z,-41.15,-71.17,5.0,-2.0,290,12,,6.21,29.911417,,,,,,,,,,,FEW,3000,,,,,,,VFR,,,,,,,,,,,,METAR,843.0
SAZN 170800Z 29007KT CAVOK 08/06 Q1011,SAZN,2023-05-17T08:00:00Z,-38.95,-68.15,8.0,6.0,290,7,,6.21,29.852362,,,,,,,,,,,CAVOK,,,,,,,,VFR,,,,,,,,,,,,METAR,273.0
SAZM 170800Z 34004KT 8000 NSC 12/11 Q1014 RMK PP///,SAZM,2023-05-17T08:00:00Z,-37.92,-57.57,12.0,11.0,340,4,,4.97,29.940945,,,,,,,,,,,CLR,,,,,,,,MVFR,,,,,,,,,,,,SPECI,17.0
SAWH 170800Z 33016G26KT 9999 BKN045 08/M01 Q0978 RERA RMK PP9999,SAWH,2023-05-17T08:00:00Z,-54.85,-68.3,8.0,-1.0,330,16,26,6.21,28.877953,,,,,,,,,,,BKN,4500,,,,,,,VFR,,,,,,,,,,,,METAR,22.0
SAWG 170800Z 29008KT CAVOK 02/M00 Q0988,SAWG,2023-05-17T08:00:00Z,-51.62,-69.27,2.0,0.0,290,8,,6.21,29.17323,,,,,,,,,,,CAVOK,,,,,,,,VFR,,,,,,,,,,,,METAR,15.0
SAWE 170800Z 28011KT CAVOK 03/01 Q0983 RMK PP000,SAWE,2023-05-17T08:00:00Z,-53.78,-67.75,3.0,1.0,280,11,,6.21,29.02559,,,,,,,,,,,CAVOK,,,,,,,,VFR,,,,,,,,,,,,SPECI,22.0
SAVC 170800Z 32010KT CAVOK 13/M02 Q1002 RMK PP000,SAVC,2023-05-17T08:00:00Z,-45.78,-67.47,13.0,-2.0,320,10,,6.21,29.586615,,,,,,,,,,,CAVOK,,,,,,,,VFR,,,,,,,,,,,,SPECI,58.0
SASJ 170800Z 34003KT 9999 BKN050 17/16 Q1012 RMK PP000,SASJ,2023-05-17T08:00:00Z,-24.38,-65.1,17.0,16.0,340,3,,6.21,29.88189,,,,,,,,,,,BKN,5000,,,,,,,VFR,,,,,,,,,,,,METAR,913.0
SASA 170800Z 00000KT 9999 FEW020 OVC040 16/15 Q1013 RMK PP000,SASA,2023-05-17T08:00:00Z,-24.85,-65.48,16.0,15.0,0,0,,6.21,29.911417,,,,,,,,,,,FEW,2000,OVC,4000,,,,,VFR,,,,,,,,,,,,SPECI,1235.0
SARP 170800Z 09004KT CAVOK 15/13 Q1015,SARP,2023-05-17T08:00:00Z,-27.38,-55.97,15.0,13.0,90,4,,6.21,29.970472,,,,,,,,,,,CAVOK,,,,,,,,VFR,,,,,,,,,,,,METAR,123.0
SARL 170800Z 09006KT CAVOK 14/13 Q1015,SARL,2023-05-17T08:00:00Z,-29.68,-57.15,14.0,13.0,90,6,,6.21,29.970472,,,,,,,,,,,CAVOK,,,,,,,,VFR,,,,,,,,,,,,METAR,70.0
SARI 170800Z 07005KT CAVOK 14/10 Q1016 RMK PP000,SARI,2023-05-17T08:00:00Z,-25.73,-54.47,14.0,10.0,70,5,,6.21,30.0,,,,,,,,,,,CAVOK,,,,,,,,VFR,,,,,,,,,,,,SPECI,268.0
SARF 170800Z 05006KT CAVOK 15/13 Q1013,SARF,2023-05-17T08:00:00Z,-26.22,-58.22,15.0,13.0,50,6,,6.21,29.911417,,,,,,,,,,,CAVOK,,,,,,,,VFR,,,,,,,,,,,,METAR,65.0
SARE 170800Z 06003KT CAVOK 11/10 Q1013 RMK PP///,SARE,2023-05-17T08:00:00Z,-27.43,-59.05,11.0,10.0,60,3,,6.21,29.911417,,,,,,,,,,,CAVOK,,,,,,,,VFR,,,,,,,,,,,,SPECI,52.0
SARC 170800Z 00000KT CAVOK 14/12 Q1013,SARC,2023-05-17T08:00:00Z,-27.43,-58.77,14.0,12.0,0,0,,6.21,29.911417,,,,,,,,,,,CAVOK,,,,,,,,VFR,,,,,,,,,,,,METAR,60.0
SAOC 170800Z 36010KT CAVOK 17/14 Q1009,SAOC,2023-05-17T08:00:00Z,-33.08,-64.27,17.0,14.0,360,10,,6.21,29.793306,,,,,,,,,,,CAVOK,,,,,,,,VFR,,,,,,,,,,,,METAR,422.0
SANT 170800Z 36004KT 9000 NSC 14/14 Q1007 RMK PP000,SANT,2023-05-17T08:00:00Z,-26.85,-65.1,14.0,14.0,360,4,,5.59,29.734253,,,,,,,,,,,CLR,,,,,,,,VFR,,,,,,,,,,,,SPECI,446.0
SAME 170800Z 00000KT 9999 FEW040 16/12 Q1009,SAME,2023-05-17T08:00:00Z,-32.82,-68.78,16.0,12.0,0,0,,6.21,29.793306,,,,,,,,,,,FEW,4000,,,,,,,VFR,,,,,,,,,,,,METAR,709.0
SAEZ 170800Z 01008KT CAVOK 18/13 Q1014 NOSIG RMK PP000,SAEZ,2023-05-17T08:00:00Z,-34.82,-58.53,18.0,13.0,10,8,,6.21,29.940945,,,,,,TRUE,,,,,CAVOK,,,,,,,,VFR,,,,,,,,,,,,SPECI,16.0
SADF 170800Z 08004KT CAVOK 12/11 Q1014 RMK PP000,SADF,2023-05-17T08:00:00Z,-34.45,-58.58,12.0,11.0,80,4,,6.21,29.940945,,,,,,,,,,,CAVOK,,,,,,,,VFR,,,,,,,,,,,,METAR,4.0
SACO 170800Z 04007KT CAVOK 17/14 Q1010 NOSIG RMK PP000,SACO,2023-05-17T08:00:00Z,-31.32,-64.22,17.0,14.0,40,7,,6.21,29.822834,,,,,,TRUE,,,,,CAVOK,,,,,,,,VFR,,,,,,,,,,,,METAR,474.0
SABE 170800Z 36008KT 340V040 CAVOK 18/14 Q1015 NOSIG RMK PP000,SABE,2023-05-17T08:00:00Z,-34.57,-58.42,18.0,14.0,360,8,,6.21,29.970472,,,,,,TRUE,,,,,CAVOK,,,,,,,,VFR,,,,,,,,,,,,SPECI,3.0
SAAR 170800Z 07007KT CAVOK 13/12 Q1012 RMK PP000,SAAR,2023-05-17T08:00:00Z,-32.92,-60.77,13.0,12.0,70,7,,6.21,29.88189,,,,,,,,,,,CAVOK,,,,,,,,VFR,,,,,,,,,,,,SPECI,24.0
RPVP 170800Z 09004KT 9999 FEW017CB SCT019 33/25 Q1009 RMK A2980 CB NE W,RPVP,2023-05-17T08:00:00Z,9.75,118.75,33.0,25.0,90,4,,6.21,29.793306,,,,,,,,,,,FEW,1700,SCT,1900,,,,,VFR,,,,,,,,,,,,METAR,15.0
RPVM 170800Z 15005KT 9999 FEW018CB BKN300 34/24 Q1009 NOSIG RMK A2980 CB NW,RPVM,2023-05-17T08:00:00Z,10.32,123.98,34.0,24.0,150,5,,6.21,29.793306,,,,,,TRUE,,,,,FEW,1800,BKN,30000,,,,,VFR,,,,,,,,,,,,METAR,9.0
RPVD 170800Z 02004KT 9999 VCSH FEW014CB SCT220 32/25 Q1008 RMK A2977 CB VCSH NW,RPVD,2023-05-17T08:00:00Z,9.33,123.3,32.0,25.0,20,4,,6.21,29.763779,,,,,,,,,,VCSH,FEW,1400,SCT,22000,,,,,VFR,,,,,,,,,,,,METAR,11.0
RPMZ 170800Z 26005KT 9000 -SHRA FEW016CB BKN090 26/25 Q1010 RETS RMK A2983 CB W,RPMZ,2023-05-17T08:00:00Z,6.92,122.07,26.0,25.0,260,5,,5.59,29.822834,,,,,,,,,,-SHRA,FEW,1600,BKN,9000,,,,,VFR,,,,,,,,,,,,METAR,8.0
RPMR 170800Z 13012KT 9999 FEW018CB SCT080 32/25 W1009 RMK A2980 CB SE NW,RPMR,2023-05-17T08:00:00Z,6.05,125.1,32.0,25.0,130,12,,6.21,,,,,,,,,,,,FEW,1800,SCT,8000,,,,,VFR,,,,,,,,,,,,METAR,47.0
"RPMD 170800Z 15007KT 9999 SCT015CB SCT290 33/24 Q1008 RMK A2977 CB E, SW NW",RPMD,2023-05-17T08:00:00Z,7.12,125.65,33.0,24.0,150,7,,6.21,29.763779,,,,,,,,,,,SCT,1500,SCT,29000,,,,,VFR,,,,,,,,,,,,METAR,19.0
RPLL 170800Z 27013KT 230V300 9999 FEW023CB SCT025 BKN100 32/26 Q1009 NOSIG RMK A2980 CB NE,RPLL,2023-05-17T08:00:00Z,14.52,121.0,32.0,26.0,270,13,,6.21,29.793306,,,,,,TRUE,,,,,FEW,2300,SCT,2500,BKN,10000,,,VFR,,,,,,,,,,,,METAR,15.0
RPLI 170800Z 23009KT 190V260 9999 FEW018 BKN280 33/26 Q1009 NOSIG RMK A2980,RPLI,2023-05-17T08:00:00Z,18.17,120.52,33.0,26.0,230,9,,6.21,29.793306,,,,,,TRUE,,,,,FEW,1800,BKN,28000,,,,,VFR,,,,,,,,,,,,SPECI,5.0
RPLC 170800Z 36008KT 4000 -TSRA FEW015CB SCT020 OVC100 28/25 Q1010 RMK A2983 CB N,RPLC,2023-05-17T08:00:00Z,15.18,120.55,28.0,25.0,360,8,,2.49,29.822834,,,,,,,,,,-TSRA,FEW,1500,SCT,2000,OVC,10000,,,IFR,,,,,,,,,,,,METAR,138.0
RPLB 170800Z 23008KT 9999 FEW020 SCT300 31/26 Q1009 NOSIG RMK A2980,RPLB,2023-05-17T08:00:00Z,14.8,120.27,31.0,26.0,230,8,,6.21,29.793306,,,,,,TRUE,,,,,FEW,2000,SCT,30000,,,,,VFR,,,,,,,,,,,,METAR,19.0
ROYN 170800Z AUTO 14012KT 9999 BKN004 BKN009 OVC012 25/24 Q1007,ROYN,2023-05-17T08:00:00Z,24.47,122.97,25.0,24.0,140,12,,6.21,29.734253,,,TRUE,,,,,,,,BKN,400,BKN,900,OVC,1200,,,LIFR,,,,,,,,,,,,METAR,21.0
RORY 170800Z AUTO 14012KT 9999 NSC 25/20 Q1013,RORY,2023-05-17T08:00:00Z,27.05,128.4,25.0,20.0,140,12,,6.21,29.911417,,,TRUE,,,,,,,,CLR,,,,,,,,VFR,,,,,,,,,,,,METAR,13.0
RORT 170800Z AUTO 14011KT 100V170 9999 SCT012 OVC016 24/23 Q1009,RORT,2023-05-17T08:00:00Z,24.63,124.7,24.0,23.0,140,11,,6.21,29.793306,,,TRUE,,,,,,,,SCT,1200,OVC,1600,,,,,MVFR,,,,,,,,,,,,METAR,9.0
RORS 170800Z 13015KT 7000 -SHRA FEW007 SCT012 BKN045 24/23 Q1009,RORS,2023-05-17T08:00:00Z,24.82,125.15,24.0,23.0,130,15,,4.35,29.793306,,,,,,,,,,-SHRA,FEW,700,SCT,1200,BKN,4500,,,MVFR,,,,,,,,,,,,METAR,13.0
RORK 170800Z AUTO 12016KT 9999 NSC 24/19 Q1014,RORK,2023-05-17T08:00:00Z,25.93,131.32,24.0,19.0,120,16,,6.21,29.940945,,,TRUE,,,,,,,,CLR,,,,,,,,VFR,,,,,,,,,,,,METAR,11.0
ROMY 170800Z 14013KT 8000 -SHRA FEW008 BKN012 BKN030 24/23 Q1009,ROMY,2023-05-17T08:00:00Z,24.78,125.27,24.0,23.0,140,13,,4.97,29.793306,,,,,,,,,,-SHRA,FEW,800,BKN,1200,BKN,3000,,,MVFR,,,,,,,,,,,,METAR,38.0
ROMD 170800Z AUTO 13007KT 040V190 9999 NSC 24/20 Q1014,ROMD,2023-05-17T08:00:00Z,25.83,131.25,24.0,20.0,130,7,,6.21,29.940945,,,TRUE,,,,,,,,CLR,,,,,,,,VFR,,,,,,,,,,,,METAR,45.0
ROIG 170800Z 14016KT 9999 VCSH FEW007 BKN010 25/24 Q1008,ROIG,2023-05-17T08:00:00Z,24.38,124.23,25.0,24.0,140,16,,6.21,29.763779,,,,,,,,,,VCSH,FEW,700,BKN,1000,,,,,MVFR,,,,,,,,,,,,METAR,37.0
RKTU 170800Z 27014KT CAVOK 29/12 Q1011,RKTU,2023-05-17T08:00:00Z,36.7,127.5,29.0,12.0,270,14,,6.21,29.852362,,,,,,,,,,,CAVOK,,,,,,,,VFR,,,,,,,,,,,,METAR,46.0
RKTN 170800Z 19009KT CAVOK 31/09 Q1011,RKTN,2023-05-17T08:00:00Z,35.88,128.65,31.0,9.0,190,9,,6.21,29.852362,,,,,,,,,,,CAVOK,,,,,,,,VFR,,,,,,,,,,,,METAR,25.0
RKSS 170800Z 21010KT 180V240 9999 SCT030 25/18 Q1012 NOSIG,RKSS,2023-05-17T08:00:00Z,37.55,126.78,25.0,18.0,210,10,,6.21,29.88189,,,,,,TRUE,,,,,SCT,3000,,,,,,,VFR,,,,,,,,,,,,METAR,18.0
RKSM 170800Z 23010KT 9999 FEW030 SCT200 27/14 A2990,RKSM,2023-05-17T08:00:00Z,37.43,127.12,27.0,14.0,230,10,,6.21,29.899607,,,,,,,,,,,FEW,3000,SCT,20000,,,,,VFR,,,,,,,,,,,,METAR,18.0
RKPK 170800Z 23011KT CAVOK 26/14 Q1013,RKPK,2023-05-17T08:00:00Z,35.17,128.93,26.0,14.0,230,11,,6.21,29.911417,,,,,,,,,,,CAVOK,,,,,,,,VFR,,,,,,,,,,,,METAR,3.0
RKPC 170800Z 15007KT 9999 FEW030 BKN200 24/15 Q1012 WS R07 R25 NOSIG,RKPC,2023-05-17T08:00:00Z,33.5,126.48,24.0,15.0,150,7,,6.21,29.88189,,,,,,TRUE,,,,,FEW,3000,BKN,20000,,,,,VFR,,,,,,,,,,,,METAR,23.0
RKJB 170800Z 22010KT CAVOK 25/18 Q1013 NOSIG,RKJB,2023-05-17T08:00:00Z,34.98,126.38,25.0,18.0,220,10,,6.21,29.911417,,,,,,TRUE,,,,,CAVOK,,,,,,,,VFR,,,,,,,,,,,,METAR,16.0
RJTO 170800Z 20020KT 9999 FEW015 24/20 Q1012,RJTO,2023-05-17T08:00:00Z,34.77,139.37,24.0,20.0,200,20,,6.21,29.88189,,,,,,,,,,,FEW,1500,,,,,,,VFR,,,,,,,,,,,,METAR,37.0
RJTF 170800Z 18007KT 150V210 9999 FEW030 27/15 Q1011,RJTF,2023-05-17T08:00:00Z,35.67,139.52,27.0,15.0,180,7,,6.21,29.852362,,,,,,,,,,,FEW,3000,,,,,,,VFR,,,,,,,,,,,,METAR,37.0
RJSY 170800Z 25015KT CAVOK 21/15 Q1012,RJSY,2023-05-17T08:00:00Z,38.82,139.78,21.0,15.0,250,15,,6.21,29.88189,,,,,,,,,,,CAVOK,,,,,,,,VFR,,,,,,,,,,,,METAR,17.0
RJSS 170800Z 09003KT 050V160 CAVOK 23/16 Q1009,RJSS,2023-05-17T08:00:00Z,38.13,140.92,23.0,16.0,90,3,,6.21,29.793306,,,,,,,,,,,CAVOK,,,,,,,,VFR,,,,,,,,,,,,METAR,5.0
RJSR 170800Z 27009KT 9999 FEW020 BKN025 20/15 Q1011,RJSR,2023-05-17T08:00:00Z,40.18,140.37,20.0,15.0,270,9,,6.21,29.852362,,,,,,,,,,,FEW,2000,BKN,2500,,,,,MVFR,,,,,,,,,,,,METAR,83.0
RJSN 170800Z 25014KT CAVOK 24/14 Q1013,RJSN,2023-05-17T08:00:00Z,37.95,139.12,24.0,14.0,250,14,,6.21,29.911417,,,,,,,,,,,CAVOK,,,,,,,,VFR,,,,,,,,,,,,METAR,4.0
RJSM 170800Z 07005KT 9999 PRFG FEW004 BKN230 14/11 Q1008,RJSM,2023-05-17T08:00:00Z,40.7,141.37,14.0,11.0,70,5,,6.21,29.763779,,,,,,,,,,PRFG,FEW,400,BKN,23000,,,,,VFR,,,,,,,,,,,,METAR,31.0
RJSK 170800Z 25012KT 220V280 9999 FEW020 BKN/// 20/15 Q1012,RJSK,2023-05-17T08:00:00Z,39.62,140.22,20.0,15.0,250,12,,6.21,29.88189,,,,,,,,,,,FEW,2000,,,,,,,VFR,,,,,,,,,,,,METAR,95.0
RJSI 170800Z 23008KT 190V270 CAVOK 25/13 Q1010,RJSI,2023-05-17T08:00:00Z,39.42,141.13,25.0,13.0,230,8,,6.21,29.822834,,,,,,,,,,,CAVOK,,,,,,,,VFR,,,,,,,,,,,,METAR,89.0
RJSF 170800Z 33013KT CAVOK 27/11 Q1013,RJSF,2023-05-17T08:00:00Z,37.22,140.42,27.0,11.0,330,13,,6.21,29.911417,,,,,,,,,,,CAVOK,,,,,,,,VFR,,,,,,,,,,,,METAR,373.0
RJSC 170800Z 25006KT 220V290 CAVOK 28/10 Q1011,RJSC,2023-05-17T08:00:00Z,38.42,140.37,28.0,10.0,250,6,,6.21,29.852362,,,,,,,,,,,CAVOK,,,,,,,,VFR,,,,,,,,,,,,METAR,104.0
RJSA 170800Z 25010KT CAVOK 24/15 Q1009,RJSA,2023-05-17T08:00:00Z,40.72,140.68,24.0,15.0,250,10,,6.21,29.793306,,,,,,,,,,,CAVOK,,,,,,,,VFR,,,,,,,,,,,,METAR,196.0
RJOY 170800Z 27009KT CAVOK 29/14 Q1014,RJOY,2023-05-17T08:00:00Z,34.6,135.6,29.0,14.0,270,9,,6.21,29.940945,,,,,,,,,,,CAVOK,,,,,,,,VFR,,,,,,,,,,,,METAR,10.0
RJOW 170800Z 29008KT CAVOK 25/11 Q1014,RJOW,2023-05-17T08:00:00Z,34.67,131.8,25.0,11.0,290,8,,6.21,29.940945,,,,,,,,,,,CAVOK,,,,,,,,VFR,,,,,,,,,,,,METAR,54.0
RJOT 170800Z 31006KT 270V350 CAVOK 29/13 Q1014,RJOT,2023-05-17T08:00:00Z,34.22,134.02,29.0,13.0,310,6,,6.21,29.940945,,,,,,,,,,,CAVOK,,,,,,,,VFR,,,,,,,,,,,,METAR,181.0
RJOS 170800Z 09011KT 9999 FEW030 22/16 Q1014,RJOS,2023-05-17T08:00:00Z,34.12,134.62,22.0,16.0,90,11,,6.21,29.940945,,,,,,,,,,,FEW,3000,,,,,,,VFR,,,,,,,,,,,,METAR,3.0
RJOR 170800Z VRB02KT 9999 FEW040 SCT/// 23/14 Q1014,RJOR,2023-05-17T08:00:00Z,35.52,134.17,23.0,14.0,0,2,,6.21,29.940945,,,,,,,,,,,FEW,4000,,,,,,,VFR,,,,,,,,,,,,METAR,11.0
RJOO 170800Z 19006KT 120V240 CAVOK 28/14 Q1014,RJOO,2023-05-17T08:00:00Z,34.78,135.43,28.0,14.0,190,6,,6.21,29.940945,,,,,,,,,,,CAVOK,,,,,,,,VFR,,,,,,,,,,,,METAR,11.0
RJOM 170800Z 26004KT 9999 FEW040 SCT/// 24/17 Q1014,RJOM,2023-05-17T08:00:00Z,33.82,132.68,24.0,17.0,260,4,,6.21,29.940945,,,,,,,,,,,FEW,4000,,,,,,,VFR,,,,,,,,,,,,METAR,3.0
RJOK 170800Z 18006KT 130V210 CAVOK 23/19 Q1015,RJOK,2023-05-17T08:00:00Z,33.53,133.67,23.0,19.0,180,6,,6.21,29.970472,,,,,,,,,,,CAVOK,,,,,,,,VFR,,,,,,,,,,,,METAR,7.0
RJOH 170800Z 25011KT 9999 FEW060 SCT280 28/11 Q1013,RJOH,2023-05-17T08:00:00Z,35.48,133.25,28.0,11.0,250,11,,6.21,29.911417,,,,,,,,,,,FEW,6000,SCT,28000,,,,,VFR,,,,,,,,,,,,METAR,6.0
RJOC 170800Z 24014KT 9999 FEW035 BKN/// 25/12 Q1014,RJOC,2023-05-17T08:00:00Z,35.42,132.88,25.0,12.0,240,14,,6.21,29.940945,,,,,,,,,,,FEW,3500,,,,,,,VFR,,,,,,,,,,,,METAR,2.0
RJOB 170800Z 20007KT CAVOK 28/12 Q1014,RJOB,2023-05-17T08:00:00Z,34.75,133.85,28.0,12.0,200,7,,6.21,29.940945,,,,,,,,,,,CAVOK,,,,,,,,VFR,,,,,,,,,,,,METAR,242.0
RJOA 170800Z 18003KT 130V220 CAVOK 27/13 Q1015,RJOA,2023-05-17T08:00:00Z,34.43,132.92,27.0,13.0,180,3,,6.21,29.970472,,,,,,,,,,,CAVOK,,,,,,,,VFR,,,,,,,,,,,,METAR,318.0
RJNW 170800Z 26007KT 220V310 CAVOK 25/15 Q1014,RJNW,2023-05-17T08:00:00Z,37.3,136.97,25.0,15.0,260,7,,6.21,29.940945,,,,,,,,,,,CAVOK,,,,,,,,VFR,,,,,,,,,,,,METAR,222.0
RJNT 170800Z 29006KT 260V320 9999 FEW050 27/13 Q1013,RJNT,2023-05-17T08:00:00Z,36.63,137.18,27.0,13.0,290,6,,6.21,29.911417,,,,,,,,,,,FEW,5000,,,,,,,VFR,,,,,,,,,,,,METAR,30.0
RJNS 170800Z 23007KT 200V270 9999 FEW030 26/16 Q1013,RJNS,2023-05-17T08:00:00Z,34.8,138.18,26.0,16.0,230,7,,6.21,29.911417,,,,,,,,,,,FEW,3000,,,,,,,VFR,,,,,,,,,,,,METAR,133.0
RJNK 170800Z 28008KT 9999 FEW280 23/13 Q1015,RJNK,2023-05-17T08:00:00Z,36.38,136.42,23.0,13.0,280,8,,6.21,29.970472,,,,,,,,,,,FEW,28000,,,,,,,VFR,,,,,,,,,,,,METAR,7.0
RJKI 170800Z AUTO 15009KT 110V180 9999 FEW025 SCT160 BKN170 23/17 Q1015,RJKI,2023-05-17T08:00:00Z,28.32,129.92,23.0,17.0,150,9,,6.21,29.970472,,,TRUE,,,,,,,,FEW,2500,SCT,16000,BKN,17000,,,VFR,,,,,,,,,,,,METAR,6.0
RJKA 170800Z 16015KT 9999 FEW027 BKN160 BKN/// 23/18 Q1014,RJKA,2023-05-17T08:00:00Z,28.42,129.72,23.0,18.0,160,15,,6.21,29.940945,,,,,,,,,,,FEW,2700,BKN,16000,,,,,VFR,,,,,,,,,,,,METAR,7.0
RJFU 170800Z 24010KT CAVOK 25/13 Q1014,RJFU,2023-05-17T08:00:00Z,32.92,129.92,25.0,13.0,240,10,,6.21,29.940945,,,,,,,,,,,CAVOK,,,,,,,,VFR,,,,,,,,,,,,METAR,2.0
RJFT 170800Z 20006KT 170V240 9999 FEW040 SCT070 BKN/// 27/14 Q1015,RJFT,2023-05-17T08:00:00Z,32.83,130.85,27.0,14.0,200,6,,6.21,29.970472,,,,,,,,,,,FEW,4000,SCT,7000,,,,,VFR,,,,,,,,,,,,METAR,188.0
RJFS 170800Z 19015KT 9999 FEW030 SCT080 BKN/// 24/16 Q1013,RJFS,2023-05-17T08:00:00Z,33.15,130.3,24.0,16.0,190,15,,6.21,29.911417,,,,,,,,,,,FEW,3000,SCT,8000,,,,,VFR,,,,,,,,,,,,METAR,2.0
RJFR 170800Z 14005KT 9999 FEW040 BKN/// 23/18 Q1014,RJFR,2023-05-17T08:00:00Z,33.83,131.03,23.0,18.0,140,5,,6.21,29.940945,,,,,,,,,,,FEW,4000,,,,,,,VFR,,,,,,,,,,,,METAR,9.0
RJFO 170800Z 02005KT 330V060 CAVOK 22/17 Q1014,RJFO,2023-05-17T08:00:00Z,33.47,131.73,22.0,17.0,20,5,,6.21,29.940945,,,,,,,,,,,CAVOK,,,,,,,,VFR,,,,,,,,,,,,METAR,3.0
RJFM 170800Z 16018KT 9999 FEW035 BKN/// 25/20 Q1014,RJFM,2023-05-17T08:00:00Z,31.87,131.43,25.0,20.0,160,18,,6.21,29.940945,,,,,,,,,,,FEW,3500,,,,,,,VFR,,,,,,,,,,,,METAR,10.0
RJFK 170800Z 19008KT CAVOK 25/13 Q1015,RJFK,2023-05-17T08:00:00Z,31.8,130.72,25.0,13.0,190,8,,6.21,29.970472,,,,,,,,,,,CAVOK,,,,,,,,VFR,,,,,,,,,,,,METAR,271.0
RJFG 170800Z 16008KT 9999 FEW025 BKN/// 22/17 Q1017,RJFG,2023-05-17T08:00:00Z,30.62,130.98,22.0,17.0,160,8,,6.21,30.029528,,,,,,,,,,,FEW,2500,,,,,,,VFR,,,,,,,,,,,,METAR,234.0
RJFE 170800Z 16007KT 130V200 9999 FEW015 BKN/// 22/19 Q1014,RJFE,2023-05-17T08:00:00Z,32.67,128.82,22.0,19.0,160,7,,6.21,29.940945,,,,,,,,,,,FEW,1500,,,,,,,VFR,,,,,,,,,,,,METAR,80.0
RJEC 170800Z 28009KT 9999 FEW060 BKN/// 23/13 Q1006,RJEC,2023-05-17T08:00:00Z,43.67,142.43,23.0,13.0,280,9,,6.21,29.704725,,,,,,,,,,,FEW,6000,,,,,,,VFR,,,,,,,,,,,,METAR,209.0
RJDT 170800Z 26007KT 200V290 9999 FEW025 BKN/// 25/19 Q1014,RJDT,2023-05-17T08:00:00Z,34.28,129.32,25.0,19.0,260,7,,6.21,29.940945,,,,,,,,,,,FEW,2500,,,,,,,VFR,,,,,,,,,,,,METAR,61.0
RJDC 170800Z 18004KT 130V220 CAVOK 24/18 Q1014,RJDC,2023-05-17T08:00:00Z,33.92,131.27,24.0,18.0,180,4,,6.21,29.940945,,,,,,,,,,,CAVOK,,,,,,,,VFR,,,,,,,,,,,,METAR,5.0
RJDB 170800Z AUTO 22005KT 160V300 9999 NCD 25/16 Q1014,RJDB,2023-05-17T08:00:00Z,33.75,129.78,25.0,16.0,220,5,,6.21,29.940945,,,TRUE,,,,,,,,CLR,,,,,,,,VFR,,,,,,,,,,,,METAR,13.0
RJCW 170800Z 21014KT 9999 FEW008 BKN011 15/13 Q1005,RJCW,2023-05-17T08:00:00Z,45.4,141.8,15.0,13.0,210,14,,6.21,29.675198,,,,,,,,,,,FEW,800,BKN,1100,,,,,MVFR,,,,,,,,,,,,METAR,11.0
RJCO 170800Z 13009KT 9999 FEW040 BKN230 18/11 Q1009,RJCO,2023-05-17T08:00:00Z,43.12,141.37,18.0,11.0,130,9,,6.21,29.793306,,,,,,,,,,,FEW,4000,BKN,23000,,,,,VFR,,,,,,,,,,,,METAR,7.0
RJCN 170800Z 09006KT 9999 FEW025 BKN/// 13/09 Q1006,RJCN,2023-05-17T08:00:00Z,43.57,144.97,13.0,9.0,90,6,,6.21,29.704725,,,,,,,,,,,FEW,2500,,,,,,,VFR,,,,,,,,,,,,METAR,62.0
RJCM 170800Z 03005KT 350V050 CAVOK 19/09 Q1005,RJCM,2023-05-17T08:00:00Z,43.88,144.17,19.0,9.0,30,5,,6.21,29.675198,,,,,,,,,,,CAVOK,,,,,,,,VFR,,,,,,,,,,,,METAR,30.0
RJCK 170800Z 19010KT 9999 PRFG FEW001 09/07 Q1007,RJCK,2023-05-17T08:00:00Z,43.03,144.18,9.0,7.0,190,10,,6.21,29.734253,,,,,,,,,,PRFG,FEW,100,,,,,,,VFR,,,,,,,,,,,,METAR,94.0
RJCH 170800Z 25011KT 7000 FEW015 15/13 Q1008,RJCH,2023-05-17T08:00:00Z,41.77,140.82,15.0,13.0,250,11,,4.35,29.763779,,,,,,,,,,,FEW,1500,,,,,,,MVFR,,,,,,,,,,,,METAR,36.0
RJCB 170800Z 16008KT CAVOK 13/08 Q1007,RJCB,2023-05-17T08:00:00Z,42.72,143.22,13.0,8.0,160,8,,6.21,29.734253,,,,,,,,,,,CAVOK,,,,,,,,VFR,,,,,,,,,,,,METAR,149.0
RJBT 170800Z 04005KT 010V070 9999 FEW050 26/11 Q1014,RJBT,2023-05-17T08:00:00Z,35.5,134.8,26.0,11.0,40,5,,6.21,29.940945,,,,,,,,,,,FEW,5000,,,,,,,VFR,,,,,,,,,,,,METAR,172.0
RJBE 170800Z 25009KT CAVOK 23/17 Q1014,RJBE,2023-05-17T08:00:00Z,34.63,135.23,23.0,17.0,250,9,,6.21,29.940945,,,,,,,,,,,CAVOK,,,,,,,,VFR,,,,,,,,,,,,METAR,5.0
RJBD 170800Z 26003KT 220V320 CAVOK 24/15 Q1015,RJBD,2023-05-17T08:00:00Z,33.67,135.37,24.0,15.0,260,3,,6.21,29.970472,,,,,,,,,,,CAVOK,,,,,,,,VFR,,,,,,,,,,,,METAR,91.0
RJAW 170800Z 08012KT 9999 SCT020 BKN/// 23/16 Q1017 RMK 4CU020 A3004 WIND BY EQPT/25,RJAW,2023-05-17T08:00:00Z,24.78,141.32,23.0,16.0,80,12,,6.21,30.029528,,,,,,,,,,,SCT,2000,,,,,,,VFR,,,,,,,,,,,,METAR,116.0
RJAH 170800Z 21008KT 9999 FEW030 29/11 Q1010,RJAH,2023-05-17T08:00:00Z,36.17,140.42,29.0,11.0,210,8,,6.21,29.822834,,,,,,,,,,,FEW,3000,,,,,,,VFR,,,,,,,,,,,,METAR,31.0
RJAF 170800Z 34008KT 9999 FEW060 28/07 Q1015,RJAF,2023-05-17T08:00:00Z,36.17,137.92,28.0,7.0,340,8,,6.21,29.970472,,,,,,,,,,,FEW,6000,,,,,,,VFR,,,,,,,,,,,,METAR,652.0
PLCH 170800Z VRB01KT 9999 FEW020 BKN300 28/25 Q1012,PLCH,2023-05-17T08:00:00Z,1.98,-157.35,28.0,25.0,0,1,,6.21,29.88189,,,,,,,,,,,FEW,2000,BKN,30000,,,,,VFR,,,,,,,,,,,,METAR,5.0
PASC 170800Z 05019KT 10SM OVC009 M05/M07 A3019 RMK AO2 CIG 008V012 T10501067,PASC,2023-05-17T08:00:00Z,70.2,-148.47,-5.0,-6.7,50,19,,10.0,30.188976,,,,TRUE,,,,,,,OVC,900,,,,,,,IFR,,,,,,,,,,,,METAR,17.0
OTHH 170800Z 05005KT CAVOK 35/13 Q1007 NOSIG,OTHH,2023-05-17T08:00:00Z,25.27,51.6,35.0,13.0,50,5,,6.21,29.734253,,,,,,TRUE,,,,,CAVOK,,,,,,,,VFR,,,,,,,,,,,,METAR,3.0
OSLK 170800Z 21006KT CAVOK 32/06 Q1006,OSLK,2023-05-17T08:00:00Z,35.4,35.95,32.0,6.0,210,6,,6.21,29.704725,,,,,,,,,,,CAVOK,,,,,,,,VFR,,,,,,,,,,,,METAR,47.0
OSKL 170800Z 16004KT CAVOK 30/M01 Q1011,OSKL,2023-05-17T08:00:00Z,37.03,41.2,30.0,-1.0,160,4,,6.21,29.852362,,,,,,,,,,,CAVOK,,,,,,,,VFR,,,,,,,,,,,,METAR,443.0
OSDI 170800Z 30002KT CAVOK 30/M04 Q1011,OSDI,2023-05-17T08:00:00Z,33.42,36.52,30.0,-4.0,300,2,,6.21,29.852362,,,,,,,,,,,CAVOK,,,,,,,,VFR,,,,,,,,,,,,METAR,614.0
ORSU 170800Z 13006KT CAVOK 27/02 Q1015,ORSU,2023-05-17T08:00:00Z,35.57,45.32,27.0,2.0,130,6,,6.21,29.970472,,,,,,,,,,,CAVOK,,,,,,,,VFR,,,,,,,,,,,,METAR,760.0
ORNI 170800Z 02005KT 7000 NSC 33/03 Q1009,ORNI,2023-05-17T08:00:00Z,31.98,44.4,33.0,3.0,20,5,,4.35,29.793306,,,,,,,,,,,CLR,,,,,,,,MVFR,,,,,,,,,,,,METAR,33.0
ORMM 170800Z 33006KT 300V010 CAVOK 35/M01 Q1009 NOSIG,ORMM,2023-05-17T08:00:00Z,30.53,47.67,35.0,-1.0,330,6,,6.21,29.793306,,,,,,TRUE,,,,,CAVOK,,,,,,,,VFR,,,,,,,,,,,,METAR,2.0
ORER 170800Z 23009KT 9000 NSC 30/00 Q1012,ORER,2023-05-17T08:00:00Z,36.23,43.97,30.0,0.0,230,9,,5.59,29.88189,,,,,,,,,,,CLR,,,,,,,,VFR,,,,,,,,,,,,METAR,399.0
ORBI 170800Z 22004KT 170V290 8000 NSC 34/05 Q1009,ORBI,2023-05-17T08:00:00Z,33.27,44.23,34.0,5.0,220,4,,4.97,29.793306,,,,,,,,,,,CLR,,,,,,,,MVFR,,,,,,,,,,,,METAR,37.0
OPST 170800Z 31006KT 5000 HZ NSC 37/13 Q1006 NOSIG 23%,OPST,2023-05-17T08:00:00Z,32.53,74.37,37.0,13.0,310,6,,3.11,29.704725,,,,,,TRUE,,,,HZ,CLR,,,,,,,,MVFR,,,,,,,,,,,,METAR,234.0
OPSK 170800Z 18010KT 5000 HZ NSC 39/22 Q1003 NOSIG,OPSK,2023-05-17T08:00:00Z,27.72,68.8,39.0,22.0,180,10,,3.11,29.616142,,,,,,TRUE,,,,HZ,CLR,,,,,,,,MVFR,,,,,,,,,,,,METAR,62.0
OPNH 170800Z 18012KT 6000 NSC 42/18 Q1003,OPNH,2023-05-17T08:00:00Z,26.22,68.38,42.0,18.0,180,12,,3.73,29.616142,,,,,,,,,,,CLR,,,,,,,,MVFR,,,,,,,,,,,,METAR,30.0
OMSJ 170800Z 25011KT CAVOK 39/07 Q1007 NOSIG,OMSJ,2023-05-17T08:00:00Z,25.32,55.52,39.0,7.0,250,11,,6.21,29.734253,,,,,,TRUE,,,,,CAVOK,,,,,,,,VFR,,,,,,,,,,,,METAR,33.0
OMRK 170800Z 28008KT 240V010 CAVOK 40/11 Q1006 A2973,OMRK,2023-05-17T08:00:00Z,25.62,55.93,40.0,11.0,280,8,,6.21,29.704725,,,,,,,,,,,CAVOK,,,,,,,,VFR,,,,,,,,,,,,METAR,18.0
OMFJ 170800Z 29019KT CAVOK 38/08 Q1005 A2970,OMFJ,2023-05-17T08:00:00Z,25.1,56.32,38.0,8.0,290,19,,6.21,29.675198,,,,,,,,,,,CAVOK,,,,,,,,VFR,,,,,,,,,,,,METAR,27.0
OMDW 170800Z 29008KT 260V320 CAVOK 39/11 Q1008 NOSIG,OMDW,2023-05-17T08:00:00Z,24.9,55.17,39.0,11.0,290,8,,6.21,29.763779,,,,,,TRUE,,,,,CAVOK,,,,,,,,VFR,,,,,,,,,,,,METAR,34.0
OMDB 170800Z 27009KT 160V320 CAVOK 38/14 Q1007 NOSIG,OMDB,2023-05-17T08:00:00Z,25.25,55.37,38.0,14.0,270,9,,6.21,29.734253,,,,,,TRUE,,,,,CAVOK,,,,,,,,VFR,,,,,,,,,,,,METAR,5.0
OMAL 170800Z 29007KT 260V340 CAVOK 39/07 Q1009 NOSIG,OMAL,2023-05-17T08:00:00Z,24.25,55.6,39.0,7.0,290,7,,6.21,29.793306,,,,,,TRUE,,,,,CAVOK,,,,,,,,VFR,,,,,,,,,,,,METAR,247.0
OMAD 170800Z 34006KT 300V030 CAVOK 38/10 Q1007 NOSIG,OMAD,2023-05-17T08:00:00Z,24.42,54.47,38.0,10.0,340,6,,6.21,29.734253,,,,,,TRUE,,,,,CAVOK,,,,,,,,VFR,,,,,,,,,,,,METAR,9.0
OMAA 170800Z 32009KT 290V350 CAVOK 38/09 Q1007 NOSIG,OMAA,2023-05-17T08:00:00Z,24.42,54.65,38.0,9.0,320,9,,6.21,29.734253,,,,,,TRUE,,,,,CAVOK,,,,,,,,VFR,,,,,,,,,,,,METAR,13.0
OLBA 170800Z 20013KT CAVOK 26/19 Q1008 NOSIG,OLBA,2023-05-17T08:00:00Z,33.82,35.48,26.0,19.0,200,13,,6.21,29.763779,,,,,,TRUE,,,,,CAVOK,,,,,,,,VFR,,,,,,,,,,,,METAR,29.0
OKKK 170800Z 07004KT 7000 NSC 36/08 Q1009 NOSIG,OKKK,2023-05-17T08:00:00Z,,,36.0,8.0,70,4,,4.35,29.793306,,,,,,TRUE,,,,,CLR,,,,,,,,MVFR,,,,,,,,,,,,METAR,
OJAQ 170800Z 00000KT 6000 NSC 35/15 Q1006 NOSIG,OJAQ,2023-05-17T08:00:00Z,29.62,35.02,35.0,15.0,0,0,,3.73,29.704725,,,,,,TRUE,,,,,CLR,,,,,,,,MVFR,,,,,,,,,,,,METAR,45.0
OJAM 170800Z 19003KT 5000 HZ NSC 33/M02 Q1012 NOSIG,OJAM,2023-05-17T08:00:00Z,31.98,35.98,33.0,-2.0,190,3,,3.11,29.88189,,,,,,TRUE,,,,HZ,CLR,,,,,,,,MVFR,,,,,,,,,,,,METAR,765.0
OJAI 170800Z 15010KT 5000 HZ NSC 32/00 Q1012 NOSIG,OJAI,2023-05-17T08:00:00Z,31.72,36.0,32.0,0.0,150,10,,3.11,29.88189,,,,,,TRUE,,,,HZ,CLR,,,,,,,,MVFR,,,,,,,,,,,,METAR,723.0
OIZJ 170800Z 26012KT 8000 NSC 33/25 Q1004,OIZJ,2023-05-17T08:00:00Z,25.65,57.8,33.0,25.0,260,12,,4.97,29.64567,,,,,,,,,,,CLR,,,,,,,,MVFR,,,,,,,,,,,,METAR,6.0
OIZI 170800Z 24010KT CAVOK 36/10 Q1009,OIZI,2023-05-17T08:00:00Z,27.23,60.72,36.0,10.0,240,10,,6.21,29.793306,,,,,,,,,,,CAVOK,,,,,,,,VFR,,,,,,,,,,,,METAR,622.0
OIZC 170800Z 14010KT CAVOK 37/21 Q1003 A2965,OIZC,2023-05-17T08:00:00Z,25.45,60.38,37.0,21.0,140,10,,6.21,29.616142,,,,,,,,,,,CAVOK,,,,,,,,VFR,,,,,,,,,,,,METAR,13.0
OIZB 170800Z 34027KT 5000 SA NSC 30/06 Q1010,OIZB,2023-05-17T08:00:00Z,31.1,61.55,30.0,6.0,340,27,,3.11,29.822834,,,,,,,,,,SA,CLR,,,,,,,,MVFR,,,,,,,,,,,,METAR,483.0
OITZ 170800Z 24006KT CAVOK 18/M01 Q1015 A2998,OITZ,2023-05-17T08:00:00Z,36.77,48.37,18.0,-1.0,240,6,,6.21,29.970472,,,,,,,,,,,CAVOK,,,,,,,,VFR,,,,,,,,,,,,METAR,1630.0
OITR 170800Z 13006KT CAVOK 20/02 Q1013 A2993,OITR,2023-05-17T08:00:00Z,37.67,45.07,20.0,2.0,130,6,,6.21,29.911417,,,,,,,,,,,CAVOK,,,,,,,,VFR,,,,,,,,,,,,METAR,1312.0
OITP 170800Z 06004KT CAVOK 22/14 Q1009,OITP,2023-05-17T08:00:00Z,39.6,47.88,22.0,14.0,60,4,,6.21,29.793306,,,,,,,,,,,CAVOK,,,,,,,,VFR,,,,,,,,,,,,METAR,72.0
OITM 170800Z 23004KT CAVOK 22/00 Q1014,OITM,2023-05-17T08:00:00Z,37.35,46.15,22.0,0.0,230,4,,6.21,29.940945,,,,,,,,,,,CAVOK,,,,,,,,VFR,,,,,,,,,,,,METAR,1340.0
OITK 170800Z 16006KT CAVOK 22/04 Q1012 A2990,OITK,2023-05-17T08:00:00Z,38.42,44.98,22.0,4.0,160,6,,6.21,29.88189,,,,,,,,,,,CAVOK,,,,,,,,VFR,,,,,,,,,,,,METAR,1192.0
OISY 170800Z 30010KT CAVOK 24/M13 Q1022,OISY,2023-05-17T08:00:00Z,30.7,51.55,24.0,-13.0,300,10,,6.21,30.177166,,,,,,,,,,,CAVOK,,,,,,,,VFR,,,,,,,,,,,,METAR,1800.0
OISR 170800Z 28014KT CAVOK 38/10 Q1010 A2983 NOSIG,OISR,2023-05-17T08:00:00Z,27.37,53.2,38.0,10.0,280,14,,6.21,29.822834,,,,,,TRUE,,,,,CAVOK,,,,,,,,VFR,,,,,,,,,,,,METAR,402.0
OISF 170800Z 35010KT CAVOK 29/M12 Q1016 A3001,OISF,2023-05-17T08:00:00Z,28.9,53.72,29.0,-12.0,350,10,,6.21,30.0,,,,,,,,,,,CAVOK,,,,,,,,VFR,,,,,,,,,,,,METAR,1305.0
OINR 170800Z 09010KT CAVOK 20/14 Q1010,OINR,2023-05-17T08:00:00Z,36.9,50.67,20.0,14.0,90,10,,6.21,29.822834,,,,,,,,,,,CAVOK,,,,,,,,VFR,,,,,,,,,,,,METAR,-19.0
OINN 170800Z 03010KT CAVOK 20/13 Q1011,OINN,2023-05-17T08:00:00Z,36.67,51.47,20.0,13.0,30,10,,6.21,29.852362,,,,,,,,,,,CAVOK,,,,,,,,VFR,,,,,,,,,,,,METAR,-25.0
OING 170800Z 13014KT CAVOK 25/08 Q1013 NOSIG,OING,2023-05-17T08:00:00Z,36.9,54.4,25.0,8.0,130,14,,6.21,29.911417,,,,,,TRUE,,,,,CAVOK,,,,,,,,VFR,,,,,,,,,,,,METAR,0.0
OINE 170800Z 34004KT CAVOK 25/09 Q1010,OINE,2023-05-17T08:00:00Z,37.38,55.45,25.0,9.0,340,4,,6.21,29.822834,,,,,,,,,,,CAVOK,,,,,,,,VFR,,,,,,,,,,,,METAR,125.0
OIMT 170800Z AUTO 32004KT //// // ////// 28/02 Q1012,OIMT,2023-05-17T08:00:00Z,33.67,56.88,28.0,2.0,320,4,,,29.88189,,,TRUE,,,,,,,,,,,,,,,,,,,,,,,,,,,,METAR,693.0
OIMS 170800Z 24006KT 9999 FEW035 21/06 Q1016,OIMS,2023-05-17T08:00:00Z,36.17,57.6,21.0,6.0,240,6,,6.21,30.0,,,,,,,,,,,FEW,3500,,,,,,,VFR,,,,,,,,,,,,METAR,920.0
OIMQ 170800Z 06004KT 9999 SCT035 22/05 Q1015,OIMQ,2023-05-17T08:00:00Z,35.27,58.47,22.0,5.0,60,4,,6.21,29.970472,,,,,,,,,,,SCT,3500,,,,,,,VFR,,,,,,,,,,,,METAR,1101.0
OIMN 170800Z 05004KT 9999 FEW025 15/02 Q1016,OIMN,2023-05-17T08:00:00Z,37.48,57.3,15.0,2.0,50,4,,6.21,30.0,,,,,,,,,,,FEW,2500,,,,,,,VFR,,,,,,,,,,,,METAR,1065.0
OIMJ 170800Z 22014KT CAVOK 18/M01 Q1016,OIMJ,2023-05-17T08:00:00Z,36.43,55.1,18.0,-1.0,220,14,,6.21,30.0,,,,,,,,,,,CAVOK,,,,,,,,VFR,,,,,,,,,,,,METAR,1285.0
OIMD 170800Z 00000KT 8000 FEW030 24/06 Q1011,OIMD,2023-05-17T08:00:00Z,34.38,58.63,24.0,6.0,0,0,,4.97,29.852362,,,,,,,,,,,FEW,3000,,,,,,,MVFR,,,,,,,,,,,,METAR,1097.0
OIKQ 170800Z 22016KT 8000 NSC 32/26 Q1005 NOSIG,OIKQ,2023-05-17T08:00:00Z,26.75,55.9,32.0,26.0,220,16,,4.97,29.675198,,,,,,TRUE,,,,,CLR,,,,,,,,MVFR,,,,,,,,,,,,METAR,9.0
OIIK 170800Z 20006KT CAVOK 20/M04 Q1016,OIIK,2023-05-17T08:00:00Z,36.25,50.05,20.0,-4.0,200,6,,6.21,30.0,,,,,,,,,,,CAVOK,,,,,,,,VFR,,,,,,,,,,,,METAR,1278.0
OIIE 170800Z 11006KT CAVOK 22/M03 Q1015,OIIE,2023-05-17T08:00:00Z,35.42,51.15,22.0,-3.0,110,6,,6.21,29.970472,,,,,,,,,,,CAVOK,,,,,,,,VFR,,,,,,,,,,,,METAR,993.0
OIHR 170800Z 09008KT CAVOK 20/M01 Q1017,OIHR,2023-05-17T08:00:00Z,34.13,49.85,20.0,-1.0,90,8,,6.21,30.029528,,,,,,,,,,,CAVOK,,,,,,,,VFR,,,,,,,,,,,,METAR,1658.0
OIHH 170800Z 03004KT CAVOK 19/01 Q1017 A3004,OIHH,2023-05-17T08:00:00Z,34.87,48.55,19.0,1.0,30,4,,6.21,30.029528,,,,,,,,,,,CAVOK,,,,,,,,VFR,,,,,,,,,,,,METAR,1742.0
OIFS 170800Z 02004KT CAVOK 22/M15 Q1020,OIFS,2023-05-17T08:00:00Z,32.28,50.85,22.0,-15.0,20,4,,6.21,30.11811,,,,,,,,,,,CAVOK,,,,,,,,VFR,,,,,,,,,,,,METAR,2042.0
OICS 170800Z 29004KT CAVOK 20/01 Q1016 A3001,OICS,2023-05-17T08:00:00Z,35.25,47.02,20.0,1.0,290,4,,6.21,30.0,,,,,,,,,,,CAVOK,,,,,,,,VFR,,,,,,,,,,,,METAR,1369.0
OICM 170800Z 12002KT CAVOK 35/M00 Q1007,OICM,2023-05-17T08:00:00Z,,,35.0,0.0,120,2,,6.21,29.734253,,,,,,,,,,,CAVOK,,,,,,,,VFR,,,,,,,,,,,,METAR,
OICK 170800Z 28008KT CAVOK 26/M01 Q1015,OICK,2023-05-17T08:00:00Z,33.43,48.28,26.0,-1.0,280,8,,6.21,29.970472,,,,,,,,,,,CAVOK,,,,,,,,VFR,,,,,,,,,,,,METAR,1156.0
OIBV 170800Z 30012KT CAVOK 38/12 Q1005,OIBV,2023-05-17T08:00:00Z,26.82,53.35,38.0,12.0,300,12,,6.21,29.675198,,,,,,,,,,,CAVOK,,,,,,,,VFR,,,,,,,,,,,,METAR,23.0
OIBS 170800Z 25010KT 7000 NSC 32/19 Q1006,OIBS,2023-05-17T08:00:00Z,25.9,54.55,32.0,19.0,250,10,,4.35,29.704725,,,,,,,,,,,CLR,,,,,,,,MVFR,,,,,,,,,,,,METAR,4.0
OIBQ 170800Z 01004KT CAVOK 31/16 Q1008,OIBQ,2023-05-17T08:00:00Z,29.27,50.32,31.0,16.0,10,4,,6.21,29.763779,,,,,,,,,,,CAVOK,,,,,,,,VFR,,,,,,,,,,,,METAR,3.0
OIBL 170800Z 22008KT CAVOK 35/20 Q1004,OIBL,2023-05-17T08:00:00Z,26.53,54.82,35.0,20.0,220,8,,6.21,29.64567,,,,,,,,,,,CAVOK,,,,,,,,VFR,,,,,,,,,,,,METAR,25.0
OIBK 170800Z 30014KT CAVOK 40/09 Q1005 NOSIG,OIBK,2023-05-17T08:00:00Z,26.53,53.98,40.0,9.0,300,14,,6.21,29.675198,,,,,,TRUE,,,,,CAVOK,,,,,,,,VFR,,,,,,,,,,,,METAR,27.0
OIBJ 170800Z AUTO 35006KT //// // ////// 35/04 Q1012,OIBJ,2023-05-17T08:00:00Z,27.82,52.35,35.0,4.0,350,6,,,29.88189,,,TRUE,,,,,,,,,,,,,,,,,,,,,,,,,,,,METAR,647.0
OIBH 170800Z 27006KT 7000 NSC 35/10 Q1008 A2977,OIBH,2023-05-17T08:00:00Z,27.2,54.32,35.0,10.0,270,6,,4.35,29.763779,,,,,,,,,,,CLR,,,,,,,,MVFR,,,,,,,,,,,,METAR,412.0
OIBB 170800Z 34006KT CAVOK 33/14 Q1007 A2976 NOSIG,OIBB,2023-05-17T08:00:00Z,28.93,50.83,33.0,14.0,340,6,,6.21,29.734253,,,,,,TRUE,,,,,CAVOK,,,,,,,,VFR,,,,,,,,,,,,METAR,15.0
OIBA 170800Z 26012KT 5000 HZ NSC 32/24 Q1005,OIBA,2023-05-17T08:00:00Z,25.88,55.03,32.0,24.0,260,12,,3.11,29.675198,,,,,,,,,,HZ,CLR,,,,,,,,MVFR,,,,,,,,,,,,METAR,7.0
OIAM 170800Z 22006KT 8000 NSC 36/04 Q1007,OIAM,2023-05-17T08:00:00Z,30.55,49.15,36.0,4.0,220,6,,4.97,29.734253,,,,,,,,,,,CLR,,,,,,,,MVFR,,,,,,,,,,,,METAR,7.0
OIAH 170800Z 28006KT CAVOK 32/02 Q1013,OIAH,2023-05-17T08:00:00Z,30.33,50.83,32.0,2.0,280,6,,6.21,29.911417,,,,,,,,,,,CAVOK,,,,,,,,VFR,,,,,,,,,,,,METAR,730.0
OIAG 170800Z 04004KT CAVOK 38/02 Q1009,OIAG,2023-05-17T08:00:00Z,30.73,49.68,38.0,2.0,40,4,,6.21,29.793306,,,,,,,,,,,CAVOK,,,,,,,,VFR,,,,,,,,,,,,METAR,17.0
OIAA 170800Z 28006KT CAVOK 37/00 Q1008,OIAA,2023-05-17T08:00:00Z,30.35,48.22,37.0,0.0,280,6,,6.21,29.763779,,,,,,,,,,,CAVOK,,,,,,,,VFR,,,,,,,,,,,,METAR,4.0
OEYN 170800Z 26006KT CAVOK 36/17 Q1005 NOSIG,OEYN,2023-05-17T08:00:00Z,24.13,38.07,36.0,17.0,260,6,,6.21,29.675198,,,,,,TRUE,,,,,CAVOK,,,,,,,,VFR,,,,,,,,,,,,METAR,20.0
OEWJ 170800Z 23006KT CAVOK 33/12 Q1007 NOSIG,OEWJ,2023-05-17T08:00:00Z,26.18,36.47,33.0,12.0,230,6,,6.21,29.734253,,,,,,TRUE,,,,,CAVOK,,,,,,,,VFR,,,,,,,,,,,,METAR,8.0
OEWD 170800Z 12011KT CAVOK 38/02 Q1009,OEWD,2023-05-17T08:00:00Z,20.5,45.2,38.0,2.0,120,11,,6.21,29.793306,,,,,,,,,,,CAVOK,,,,,,,,VFR,,,,,,,,,,,,METAR,629.0
OETR 170800Z 15016KT CAVOK 32/M03 Q1011 NOSIG,OETR,2023-05-17T08:00:00Z,31.7,38.73,32.0,-3.0,150,16,,6.21,29.852362,,,,,,TRUE,,,,,CAVOK,,,,,,,,VFR,,,,,,,,,,,,METAR,854.0
OETF 170800Z 01004KT CAVOK 33/00 Q1019 NOSIG,OETF,2023-05-17T08:00:00Z,21.47,40.53,33.0,0.0,10,4,,6.21,30.088583,,,,,,TRUE,,,,,CAVOK,,,,,,,,VFR,,,,,,,,,,,,METAR,1460.0
OETB 170800Z 27006KT CAVOK 33/M01 Q1011 NOSIG,OETB,2023-05-17T08:00:00Z,28.37,36.62,33.0,-1.0,270,6,,6.21,29.852362,,,,,,TRUE,,,,,CAVOK,,,,,,,,VFR,,,,,,,,,,,,METAR,770.0
OESK 170800Z 13012KT CAVOK 34/M02 Q1013 NOSIG,OESK,2023-05-17T08:00:00Z,29.78,40.1,34.0,-2.0,130,12,,6.21,29.911417,,,,,,TRUE,,,,,CAVOK,,,,,,,,VFR,,,,,,,,,,,,METAR,671.0
OESH 170800Z 17014KT CAVOK 40/09 Q1011 NOSIG,OESH,2023-05-17T08:00:00Z,17.47,47.12,40.0,9.0,170,14,,6.21,29.852362,,,,,,TRUE,,,,,CAVOK,,,,,,,,VFR,,,,,,,,,,,,METAR,720.0
OERR 170800Z 14012KT CAVOK 33/M06 Q1010 NOSIG,OERR,2023-05-17T08:00:00Z,30.9,41.13,33.0,-6.0,140,12,,6.21,29.822834,,,,,,TRUE,,,,,CAVOK,,,,,,,,VFR,,,,,,,,,,,,METAR,554.0
OERK 170800Z 13009KT CAVOK 37/00 Q1012 NOSIG,OERK,2023-05-17T08:00:00Z,24.95,46.72,37.0,0.0,130,9,,6.21,29.88189,,,,,,TRUE,,,,,CAVOK,,,,,,,,VFR,,,,,,,,,,,,METAR,618.0
OERF 170800Z 13013KT CAVOK 34/M01 Q1010 NOSIG,OERF,2023-05-17T08:00:00Z,29.62,43.48,34.0,-1.0,130,13,,6.21,29.822834,,,,,,TRUE,,,,,CAVOK,,,,,,,,VFR,,,,,,,,,,,,METAR,441.0
OEPA 170800Z 17012KT CAVOK 37/09 Q1010 NOSIG,OEPA,2023-05-17T08:00:00Z,28.33,46.12,37.0,9.0,170,12,,6.21,29.822834,,,,,,TRUE,,,,,CAVOK,,,,,,,,VFR,,,,,,,,,,,,METAR,361.0
OENG 170800Z 15004KT 9999 FEW030 36/09 Q1015 NOSIG,OENG,2023-05-17T08:00:00Z,17.62,44.42,36.0,9.0,150,4,,6.21,29.970472,,,,,,TRUE,,,,,FEW,3000,,,,,,,VFR,,,,,,,,,,,,METAR,1210.0
OEMN 170800Z 17002KT CAVOK 37/20 Q1009,OEMN,2023-05-17T08:00:00Z,,,37.0,20.0,170,2,,6.21,29.793306,,,,,,,,,,,CAVOK,,,,,,,,VFR,,,,,,,,,,,,METAR,
OEMA 170800Z VRB02KT CAVOK 36/06 Q1011 NOSIG,OEMA,2023-05-17T08:00:00Z,24.55,39.7,36.0,6.0,0,2,,6.21,29.852362,,,,,,TRUE,,,,,CAVOK,,,,,,,,VFR,,,,,,,,,,,,METAR,639.0
OEKM 170800Z 09009KT 9999 FEW022 29/01 Q1023 NOSIG,OEKM,2023-05-17T08:00:00Z,18.3,42.78,29.0,1.0,90,9,,6.21,30.206694,,,,,,TRUE,,,,,FEW,2200,,,,,,,VFR,,,,,,,,,,,,METAR,2038.0
OEKJ 170800Z 16019KT CAVOK 38/03 Q1014,OEKJ,2023-05-17T08:00:00Z,24.07,47.58,38.0,3.0,160,19,,6.21,29.940945,,,,,,,,,,,CAVOK,,,,,,,,VFR,,,,,,,,,,,,METAR,487.0
OEJN 170800Z 25008KT CAVOK 39/16 Q1006 NOSIG,OEJN,2023-05-17T08:00:00Z,21.68,39.15,39.0,16.0,250,8,,6.21,29.704725,,,,,,TRUE,,,,,CAVOK,,,,,,,,VFR,,,,,,,,,,,,METAR,8.0
OEHL 170800Z 18004KT 9999 FEW040 31/09 Q1013,OEHL,2023-05-17T08:00:00Z,27.43,41.68,31.0,9.0,180,4,,6.21,29.911417,,,,,,,,,,,FEW,4000,,,,,,,VFR,,,,,,,,,,,,METAR,1002.0
OEGT 170800Z 13012KT CAVOK 32/M06 Q1009 NOSIG,OEGT,2023-05-17T08:00:00Z,31.42,37.27,32.0,-6.0,130,12,,6.21,29.793306,,,,,,TRUE,,,,,CAVOK,,,,,,,,VFR,,,,,,,,,,,,METAR,512.0
OEGS 170800Z 16007KT CAVOK 35/09 Q1010,OEGS,2023-05-17T08:00:00Z,26.3,43.77,35.0,9.0,160,7,,6.21,29.822834,,,,,,,,,,,CAVOK,,,,,,,,VFR,,,,,,,,,,,,METAR,647.0
OEGN 170800Z 21010KT 9000 FEW030 37/24 Q1007 NOSIG,OEGN,2023-05-17T08:00:00Z,16.9,42.58,37.0,24.0,210,10,,5.59,29.734253,,,,,,TRUE,,,,,FEW,3000,,,,,,,VFR,,,,,,,,,,,,METAR,5.0
OEDR 170800Z 04009KT CAVOK 36/07 Q1007,OEDR,2023-05-17T08:00:00Z,26.27,50.17,36.0,7.0,40,9,,6.21,29.734253,,,,,,,,,,,CAVOK,,,,,,,,VFR,,,,,,,,,,,,METAR,17.0
OEDM 170800Z 18010KT 8000 NSC 37/00 Q1012,OEDM,2023-05-17T08:00:00Z,24.45,44.12,37.0,0.0,180,10,,4.97,29.88189,,,,,,,,,,,CLR,,,,,,,,MVFR,,,,,,,,,,,,METAR,922.0
OEDF 170800Z 08008KT CAVOK 38/06 Q1008 NOSIG,OEDF,2023-05-17T08:00:00Z,26.43,49.82,38.0,6.0,80,8,,6.21,29.763779,,,,,,TRUE,,,,,CAVOK,,,,,,,,VFR,,,,,,,,,,,,METAR,15.0
OEBH 170800Z 36002KT CAVOK 36/11 Q1014 NOSIG,OEBH,2023-05-17T08:00:00Z,19.98,42.62,36.0,11.0,360,2,,6.21,29.940945,,,,,,TRUE,,,,,CAVOK,,,,,,,,VFR,,,,,,,,,,,,METAR,1167.0
OEBA 170800Z 26004KT CAVOK 32/M08 Q1019 NOSIG,OEBA,2023-05-17T08:00:00Z,20.3,41.63,32.0,-8.0,260,4,,6.21,30.088583,,,,,,TRUE,,,,,CAVOK,,,,,,,,VFR,,,,,,,,,,,,METAR,1659.0
OEAO 170800Z 00000KT CAVOK 35/05 Q1011 NOSIG,OEAO,2023-05-17T08:00:00Z,26.48,38.12,35.0,5.0,0,0,,6.21,29.852362,,,,,,TRUE,,,,,CAVOK,,,,,,,,VFR,,,,,,,,,,,,METAR,615.0
OEAH 170800Z 05011KT CAVOK 38/02 Q1009 NOSIG,OEAH,2023-05-17T08:00:00Z,25.28,49.48,38.0,2.0,50,11,,6.21,29.793306,,,,,,TRUE,,,,,CAVOK,,,,,,,,VFR,,,,,,,,,,,,METAR,180.0
OEAB 170800Z 00000KT CAVOK 29/01 Q1024 NOSIG,OEAB,2023-05-17T08:00:00Z,18.23,42.65,29.0,1.0,0,0,,6.21,30.236221,,,,,,TRUE,,,,,CAVOK,,,,,,,,VFR,,,,,,,,,,,,METAR,2092.0
NVVV 170800Z 15003KT 9999 SCT020 BKN040 24/23 Q1010,NVVV,2023-05-17T08:00:00Z,-17.68,168.3,24.0,23.0,150,3,,6.21,29.822834,,,,,,,,,,,SCT,2000,BKN,4000,,,,,VFR,,,,,,,,,,,,METAR,23.0
NSFA 170800Z 17004KT 9999 FEW020 SCT048 BKN140 26/25 Q1013,NSFA,2023-05-17T08:00:00Z,-13.83,-172.0,26.0,25.0,170,4,,6.21,29.911417,,,,,,,,,,,FEW,2000,SCT,4800,BKN,14000,,,VFR,,,,,,,,,,,,METAR,6.0
NIUE 170800Z AUTO 15003KT NCD 20/19 Q1016,NIUE,2023-05-17T08:00:00Z,-19.07,-169.92,20.0,19.0,150,3,,,30.0,,,TRUE,,,,,,,,CLR,,,,,,,,,,,,,,,,,,,,METAR,22.0
NGTA 170800Z 06003KT 9999 FEW020 29/25 Q1009,NGTA,2023-05-17T08:00:00Z,1.37,173.13,29.0,25.0,60,3,,6.21,29.793306,,,,,,,,,,,FEW,2000,,,,,,,VFR,,,,,,,,,,,,METAR,8.0
NGFU 170800Z 00000KT 9999 FEW018TCU BKN300 29/26 Q1010,NGFU,2023-05-17T08:00:00Z,-8.52,179.18,29.0,26.0,0,0,,6.21,29.822834,,,,,,,,,,,FEW,1800,BKN,30000,,,,,VFR,,,,,,,,,,,,METAR,2.0
NFTF 170800Z 10011KT 9999 FEW016 23/19 Q1018,NFTF,2023-05-17T08:00:00Z,-21.23,-175.15,23.0,19.0,100,11,,6.21,30.059055,,,,,,,,,,,FEW,1600,,,,,,,VFR,,,,,,,,,,,,METAR,38.0
NFNA 170800Z VRB01KT 9999 SCT020 SCT045 25/23 Q1013,NFNA,2023-05-17T08:00:00Z,-18.05,178.57,25.0,23.0,0,1,,6.21,29.911417,,,,,,,,,,,SCT,2000,SCT,4500,,,,,VFR,,,,,,,,,,,,METAR,6.0
NFFN 170800Z 15007KT 9999 FEW030 25/21 Q1013 NOSIG,NFFN,2023-05-17T08:00:00Z,-17.75,177.45,25.0,21.0,150,7,,6.21,29.911417,,,,,,TRUE,,,,,FEW,3000,,,,,,,VFR,,,,,,,,,,,,METAR,14.0
NCSW 170800Z AUTO NIL,NCSW,2023-05-17T08:00:00Z,,,,,,,,,,,,TRUE,,,,,,,,,,,,,,,,,,,,,,,,,,,,METAR,
NCRK 170800Z AUTO NIL,NCRK,2023-05-17T08:00:00Z,-10.02,-161.1,,,,,,,,,,TRUE,,,,,,,,,,,,,,,,,,,,,,,,,,,,METAR,7.0
NCPY 170800Z AUTO NIL,NCPY,2023-05-17T08:00:00Z,-9.02,-158.03,,,,,,,,,,TRUE,,,,,,,,,,,,,,,,,,,,,,,,,,,,METAR,2.0
NCPL 170800Z AUTO NIL,NCPL,2023-05-17T08:00:00Z,1.98,-157.48,,,,,,,,,,TRUE,,,,,,,,,,,,,,,,,,,,,,,,,,,,METAR,3.0
NCPK 170800Z AUTO NIL,NCPK,2023-05-17T08:00:00Z,-10.9,-165.83,,,,,,,,,,TRUE,,,,,,,,,,,,,,,,,,,,,,,,,,,,METAR,5.0
NCNS 170800Z AUTO NIL,NCNS,2023-05-17T08:00:00Z,,,,,,,,,,,,TRUE,,,,,,,,,,,,,,,,,,,,,,,,,,,,METAR,
NCMR 170800Z AUTO 09005KT //// ////// ///// Q1016,NCMR,2023-05-17T08:00:00Z,-19.85,-157.7,,,90,5,,,30.0,,,TRUE,,,,,,,,,,,,,,,,,,,,,,,,,,,,METAR,8.0
NCMK 170800Z AUTO 13005KT //// ////// 24/16 Q1015,NCMK,2023-05-17T08:00:00Z,-20.15,-157.33,24.0,16.0,130,5,,,29.970472,,,TRUE,,,,,,,,,,,,,,,,,,,,,,,,,,,,METAR,13.0
NCMH 170800Z AUTO NIL,NCMH,2023-05-17T08:00:00Z,-10.38,-161.0,,,,,,,,,,TRUE,,,,,,,,,,,,,,,,,,,,,,,,,,,,METAR,1.0
NCMG 170800Z AUTO 11002KT //// ////// ///// Q////,NCMG,2023-05-17T08:00:00Z,-21.88,-157.9,,,110,2,,,,,,TRUE,,,,,,,,,,,,,,,,,,,,,,,,,,,,METAR,14.0
NCAT 170800Z AUTO NIL,NCAT,2023-05-17T08:00:00Z,-19.97,-158.12,,,,,,,,,,TRUE,,,,,,,,,,,,,,,,,,,,,,,,,,,,METAR,11.0
NCAI 170800Z AUTO 13011KT //// ////// 25/20 Q1015,NCAI,2023-05-17T08:00:00Z,-18.82,-159.77,25.0,20.0,130,11,,,29.970472,,,TRUE,,,,,,,,,,,,,,,,,,,,,,,,,,,,METAR,7.0
MYGF 170800Z AUTO 20002KT //// R06///// // FEW023/// 22/20 A2989,MYGF,2023-05-17T08:00:00Z,26.55,-78.7,22.0,20.0,200,2,,,29.890747,,,TRUE,,,,,,,,FEW,2300,,,,,,,,,,,,,,,,,,,METAR,2.0
MROC 170800Z 33003KT 9999 3000SW BCFG NSC 21/19 A2999 NOSIG,MROC,2023-05-17T08:00:00Z,10.0,-84.22,21.0,19.0,330,3,,6.21,29.991142,,,,,,TRUE,,,,BCFG,CLR,,,,,,,,VFR,,,,,,,,,,,,METAR,900.0
MPTO 170800Z VRB01KT 9999 SCT017 SCT090 25/25 Q1013 NOSIG,MPTO,2023-05-17T08:00:00Z,9.05,-79.38,25.0,25.0,0,1,,6.21,29.911417,,,,,,TRUE,,,,,SCT,1700,SCT,9000,,,,,VFR,,,,,,,,,,,,METAR,7.0
MPMG 170800Z AUTO 23003KT 200V260 //// R01///// // OVC160/// 26/25 Q1010,MPMG,2023-05-17T08:00:00Z,8.98,-79.57,26.0,25.0,230,3,,,29.822834,,,TRUE,,,,,,,,OVC,16000,,,,,,,,,,,,,,,,,,,METAR,6.0
MKJS 170800Z VRB02KT 9999 FEW022 25/22 Q1012,MKJS,2023-05-17T08:00:00Z,18.5,-77.92,25.0,22.0,0,2,,6.21,29.88189,,,,,,,,,,,FEW,2200,,,,,,,VFR,,,,,,,,,,,,METAR,3.0
MKJP 170800Z 36005KT 9999 FEW022 28/24 Q1012,MKJP,2023-05-17T08:00:00Z,17.93,-76.78,28.0,24.0,360,5,,6.21,29.88189,,,,,,,,,,,FEW,2200,,,,,,,VFR,,,,,,,,,,,,METAR,3.0
MHTG 170800Z 00000KT 9999 FEW028 20/18 Q1019 A3009 NOSIG,MHTG,2023-05-17T08:00:00Z,14.07,-87.22,20.0,18.0,0,0,,6.21,30.088583,,,,,,TRUE,,,,,FEW,2800,,,,,,,VFR,,,,,,,,,,,,METAR,1001.0
MHLM 170800Z 20005KT 9999 FEW028 25/24 Q1013 A2992 NOSIG,MHLM,2023-05-17T08:00:00Z,15.45,-87.93,25.0,24.0,200,5,,6.21,29.911417,,,,,,TRUE,,,,,FEW,2800,,,,,,,VFR,,,,,,,,,,,,METAR,32.0
MDST 170800Z 00000KT 9999 SCT014 BKN070 22/21 Q1014,MDST,2023-05-17T08:00:00Z,19.4,-70.6,22.0,21.0,0,0,,6.21,29.940945,,,,,,,,,,,SCT,1400,BKN,7000,,,,,VFR,,,,,,,,,,,,METAR,175.0
MDSD 170800Z 00000KT 9999 SCT016 BKN300 24/24 Q1014,MDSD,2023-05-17T08:00:00Z,18.42,-69.67,24.0,24.0,0,0,,6.21,29.940945,,,,,,,,,,,SCT,1600,BKN,30000,,,,,VFR,,,,,,,,,,,,METAR,18.0
MDPC 170800Z 00000KT 9999 FEW018 BKN300 25/23 Q1014,MDPC,2023-05-17T08:00:00Z,18.57,-68.37,25.0,23.0,0,0,,6.21,29.940945,,,,,,,,,,,FEW,1800,BKN,30000,,,,,VFR,,,,,,,,,,,,METAR,10.0
LPST 170800Z 06007KT 350V100 CAVOK 19/04 Q1012,LPST,2023-05-17T08:00:00Z,38.82,-9.33,19.0,4.0,60,7,,6.21,29.88189,,,,,,,,,,,CAVOK,,,,,,,,VFR,,,,,,,,,,,,METAR,129.0
LPOV 170800Z 08007KT 020V150 CAVOK 18/09 Q1015,LPOV,2023-05-17T08:00:00Z,40.92,-8.65,18.0,9.0,80,7,,6.21,29.970472,,,,,,,,,,,CAVOK,,,,,,,,VFR,,,,,,,,,,,,METAR,16.0
LPMT 170800Z 03012KT 9999 FEW045 17/07 Q1012,LPMT,2023-05-17T08:00:00Z,38.7,-9.05,17.0,7.0,30,12,,6.21,29.88189,,,,,,,,,,,FEW,4500,,,,,,,VFR,,,,,,,,,,,,METAR,4.0
LPMR 170800Z 07008KT CAVOK 16/05 Q1014,LPMR,2023-05-17T08:00:00Z,39.82,-8.88,16.0,5.0,70,8,,6.21,29.940945,,,,,,,,,,,CAVOK,,,,,,,,VFR,,,,,,,,,,,,METAR,50.0
LPLA 170800Z /////KT 9000 -DZ SCT007 BKN015 BKN024 19/18 Q1028,LPLA,2023-05-17T08:00:00Z,38.77,-27.1,19.0,18.0,,,,5.59,30.35433,,,,,,,,,,-DZ,SCT,700,BKN,1500,BKN,2400,,,MVFR,,,,,,,,,,,,METAR,60.0
LPBJ 170800Z 09010KT 9999 FEW048 20/01 Q1012,LPBJ,2023-05-17T08:00:00Z,38.08,-7.93,20.0,1.0,90,10,,6.21,29.88189,,,,,,,,,,,FEW,4800,,,,,,,VFR,,,,,,,,,,,,METAR,196.0
LPAR 170800Z 04012KT 010V070 CAVOK 20/02 Q1013,LPAR,2023-05-17T08:00:00Z,38.88,-9.03,20.0,2.0,40,12,,6.21,29.911417,,,,,,,,,,,CAVOK,,,,,,,,VFR,,,,,,,,,,,,METAR,2.0
LOAV 170800Z 30014G25KT 9999 FEW008 BKN020 10/08,LOAV,2023-05-17T08:00:00Z,47.97,16.27,10.0,8.0,300,14,25,6.21,,,,,,,,,,,,FEW,800,BKN,2000,,,,,MVFR,,,,,,,,,,,,METAR,232.0
LOAN 170800Z 32011G25KT 8000 -RA FEW010 SCT020 BKN030,LOAN,2023-05-17T08:00:00Z,47.85,16.25,,,320,11,25,4.97,,,,,,,,,,,-RA,FEW,1000,SCT,2000,BKN,3000,,,MVFR,,,,,,,,,,,,METAR,266.0
LKVO 170800Z 35008KT 320V040 9999 SCT024 11/05 Q1021,LKVO,2023-05-17T08:00:00Z,50.22,14.4,11.0,5.0,350,8,,6.21,30.147638,,,,,,,,,,,SCT,2400,,,,,,,VFR,,,,,,,,,,,,METAR,275.0
LKLN 170800Z AUTO VRB04KT 9999 FEW035 10/02 Q1022,LKLN,2023-05-17T08:00:00Z,49.68,13.27,10.0,2.0,0,4,,6.21,30.177166,,,TRUE,,,,,,,,FEW,3500,,,,,,,VFR,,,,,,,,,,,,METAR,353.0
LKKU 170800Z 36017KT 9999 FEW013 OVC028 09/07 Q1015,LKKU,2023-05-17T08:00:00Z,49.05,17.45,9.0,7.0,360,17,,6.21,29.970472,,,,,,,,,,,FEW,1300,OVC,2800,,,,,MVFR,,,,,,,,,,,,METAR,176.0
LKKB 170800Z 35005KT 320V020 9999 BKN025 10/04 Q1021 NOSIG,LKKB,2023-05-17T08:00:00Z,50.12,14.53,10.0,4.0,350,5,,6.21,30.147638,,,,,,TRUE,,,,,BKN,2500,,,,,,,MVFR,,,,,,,,,,,,METAR,281.0
KOWP 170800Z AUTO 00000KT 10SM OVC033 18/16 A2999 RMK AO2 T01810160,KOWP,2023-05-17T08:00:00Z,36.18,-96.15,18.1,16.0,0,0,,10.0,29.991142,,,TRUE,TRUE,,,,,,,OVC,3300,,,,,,,VFR,,,,,,,,,,,,METAR,267.0
KNEL 170800Z AUTO 30004KT CLR 17/13 A2955 RMK AO2 SLP004 T01670128 $,KNEL,2023-05-17T08:00:00Z,40.03,-74.33,16.7,12.8,300,4,,,29.551182,1000.4,,TRUE,TRUE,TRUE,,,,,,CLR,,,,,,,,,,,,,,,,,,,,METAR,26.0
KGFA 170800Z AUTO 22008KT 10SM SCT041 BKN050 OVC090 11/10 A3015 RMK AO2 LTG DSNT W RAE00 SLP196 $,KGFA,2023-05-17T08:00:00Z,47.5,-111.18,11.0,10.0,220,8,,10.0,30.15059,1019.6,,TRUE,TRUE,TRUE,,,,,,SCT,4100,BKN,5000,OVC,9000,,,VFR,,,,,,,,,,,,METAR,1058.0
KBPK 170800Z AUTO 00000KT 10SM SCT021 OVC060 17/16 A2991 RMK AO2 T01720161,KBPK,2023-05-17T08:00:00Z,36.37,-92.47,17.2,16.1,0,0,,10.0,29.911417,,,TRUE,TRUE,,,,,,,SCT,2100,OVC,6000,,,,,VFR,,,,,,,,,,,,METAR,279.0
HUEN 170800Z 20006KT 9999 SCT022 FEW024CB 27/22 Q1019 NOSIG,HUEN,2023-05-17T08:00:00Z,0.03,32.45,27.0,22.0,200,6,,6.21,30.088583,,,,,,TRUE,,,,,SCT,2200,FEW,2400,,,,,VFR,,,,,,,,,,,,METAR,1147.0
HTZA 170800Z 16020KT 9999 SCT020 30/24 Q1016 NOSIG,HTZA,2023-05-17T08:00:00Z,-6.22,39.22,30.0,24.0,160,20,,6.21,30.0,,,,,,TRUE,,,,,SCT,2000,,,,,,,VFR,,,,,,,,,,,,METAR,19.0
HTTB 170800Z 12015KT 9999 FEW022 26/17 Q1022 NOSIG,HTTB,2023-05-17T08:00:00Z,-5.07,32.82,26.0,17.0,120,15,,6.21,30.177166,,,,,,TRUE,,,,,FEW,2200,,,,,,,VFR,,,,,,,,,,,,METAR,1185.0
HTSU 170800Z 09004KT 9999 FEW022 FEW024CB 23/15 Q1027,HTSU,2023-05-17T08:00:00Z,-7.95,31.6,23.0,15.0,90,4,,6.21,30.324802,,,,,,,,,,,FEW,2200,FEW,2400,,,,,VFR,,,,,,,,,,,,METAR,1820.0
HTSO 170800Z 00000KT 9999 BKN020 22/16 Q1024,HTSO,2023-05-17T08:00:00Z,-10.67,35.58,22.0,16.0,0,0,,6.21,30.236221,,,,,,,,,,,BKN,2000,,,,,,,MVFR,,,,,,,,,,,,METAR,1058.0
HTMW 170800Z 11010KT 9999 FEW024 FEW025CB BKN100 27/17 Q1020 NOSIG,HTMW,2023-05-17T08:00:00Z,-2.43,32.92,27.0,17.0,110,10,,6.21,30.11811,,,,,,TRUE,,,,,FEW,2400,FEW,2500,BKN,10000,,,VFR,,,,,,,,,,,,METAR,1144.0
HTMU 170800Z 10010KT 9999 FEW028 FEW030CB 28/17 Q1020,HTMU,2023-05-17T08:00:00Z,-1.5,33.8,28.0,17.0,100,10,,6.21,30.11811,,,,,,,,,,,FEW,2800,FEW,3000,,,,,VFR,,,,,,,,,,,,METAR,1154.0
HTMT 170800Z 15012KT 9999 SCT022 28/22 Q1017 NOSIG,HTMT,2023-05-17T08:00:00Z,-10.33,40.18,28.0,22.0,150,12,,6.21,30.029528,,,,,,TRUE,,,,,SCT,2200,,,,,,,VFR,,,,,,,,,,,,METAR,114.0
HTMP 170800Z 09007KT 9999 FEW025 27/18 Q1022,HTMP,2023-05-17T08:00:00Z,-6.35,31.08,27.0,18.0,90,7,,6.21,30.177166,,,,,,,,,,,FEW,2500,,,,,,,VFR,,,,,,,,,,,,METAR,1073.0
HTMG 170800Z 00000KT 9999 BKN022 23/21 Q1019,HTMG,2023-05-17T08:00:00Z,-6.78,37.65,23.0,21.0,0,0,,6.21,30.088583,,,,,,,,,,,BKN,2200,,,,,,,MVFR,,,,,,,,,,,,METAR,512.0
HTKJ 170800Z 06005KT 9999 BKN028 26/19 Q1022 NOSIG,HTKJ,2023-05-17T08:00:00Z,-3.42,37.07,26.0,19.0,60,5,,6.21,30.177166,,,,,,TRUE,,,,,BKN,2800,,,,,,,MVFR,,,,,,,,,,,,METAR,893.0
HTKA 170800Z 09008KT 9999 FEW023 FEW024CB 29/21 Q1018 NOSIG,HTKA,2023-05-17T08:00:00Z,-4.88,29.67,29.0,21.0,90,8,,6.21,30.059055,,,,,,TRUE,,,,,FEW,2300,FEW,2400,,,,,VFR,,,,,,,,,,,,METAR,819.0
HTIR 170800Z 00000KT 9999 BKN027 FEW029CB 24/16 Q1024,HTIR,2023-05-17T08:00:00Z,-7.67,35.75,24.0,16.0,0,0,,6.21,30.236221,,,,,,,,,,,BKN,2700,FEW,2900,,,,,MVFR,,,,,,,,,,,,METAR,1432.0
HTIB 170800Z 16008KT 9999 FEW025 26/18 Q1018,HTIB,2023-05-17T08:00:00Z,,,26.0,18.0,160,8,,6.21,30.059055,,,,,,,,,,,FEW,2500,,,,,,,VFR,,,,,,,,,,,,METAR,
HTDO 170800Z 05006KT 9999 BKN023 25/17 Q1022 NOSIG,HTDO,2023-05-17T08:00:00Z,-6.17,35.77,25.0,17.0,50,6,,6.21,30.177166,,,,,,TRUE,,,,,BKN,2300,,,,,,,MVFR,,,,,,,,,,,,METAR,1119.0
HTDA 170800Z 16012KT 9999 FEW025 SCT028 31/22 Q1017 NOSIG,HTDA,2023-05-17T08:00:00Z,-6.88,39.2,31.0,22.0,160,12,,6.21,30.029528,,,,,,TRUE,,,,,FEW,2500,SCT,2800,,,,,VFR,,,,,,,,,,,,METAR,53.0
HTBU 170800Z 12005KT 9999 SCT016 FEW018CB BKN080 26/21 Q1019 NOSIG,HTBU,2023-05-17T08:00:00Z,-1.32,31.82,26.0,21.0,120,5,,6.21,30.088583,,,,,,TRUE,,,,,SCT,1600,FEW,1800,BKN,8000,,,VFR,,,,,,,,,,,,METAR,1144.0
HTAR 170800Z 11005KT 9999 BKN023 21/17 Q1026 NOSIG,HTAR,2023-05-17T08:00:00Z,-3.37,36.63,21.0,17.0,110,5,,6.21,30.295275,,,,,,TRUE,,,,,BKN,2300,,,,,,,MVFR,,,,,,,,,,,,METAR,1386.0
HRZA 170800Z 11004KT 9999 BKN025 23/19 Q1023 NOSIG,HRZA,2023-05-17T08:00:00Z,-2.47,28.92,23.0,19.0,110,4,,6.21,30.206694,,,,,,TRUE,,,,,BKN,2500,,,,,,,MVFR,,,,,,,,,,,,METAR,1591.0
HKWJ 170800Z 17008KT 9999 BKN033 32/21 Q1014,HKWJ,2023-05-17T08:00:00Z,1.75,40.08,32.0,21.0,170,8,,6.21,29.940945,,,,,,,,,,,BKN,3300,,,,,,,VFR,,,,,,,,,,,,METAR,254.0
HKNW 170800Z 00000KT 9999 FEW012 BKN021 BKN080 19/15 Q1027,HKNW,2023-05-17T08:00:00Z,-1.32,36.82,19.0,15.0,0,0,,6.21,30.324802,,,,,,,,,,,FEW,1200,BKN,2100,BKN,8000,,,MVFR,,,,,,,,,,,,METAR,1666.0
HKNK 170800Z 00000KT 9999 FEW025 SCT230 22/15,HKNK,2023-05-17T08:00:00Z,-0.3,36.17,22.0,15.0,0,0,,6.21,,,,,,,,,,,,FEW,2500,SCT,23000,,,,,VFR,,,,,,,,,,,,METAR,1900.0
HKNI 170800Z 15004KT 9999 BKN019 20/16,HKNI,2023-05-17T08:00:00Z,-0.33,36.92,20.0,16.0,150,4,,6.21,,,,,,,,,,,,BKN,1900,,,,,,,MVFR,,,,,,,,,,,,METAR,1769.0
HKMO 170800Z 17013KT 9999 BKN026 30/24 Q1015 NOSIG,HKMO,2023-05-17T08:00:00Z,-4.02,39.62,30.0,24.0,170,13,,6.21,29.970472,,,,,,TRUE,,,,,BKN,2600,,,,,,,MVFR,,,,,,,,,,,,METAR,55.0
HKML 170800Z 18010KT 9999 BKN022 30/25 Q1015,HKML,2023-05-17T08:00:00Z,-3.22,40.1,30.0,25.0,180,10,,6.21,29.970472,,,,,,,,,,,BKN,2200,,,,,,,MVFR,,,,,,,,,,,,METAR,20.0
HKME 170800Z 16004KT 9999 BKN017 21/17,HKME,2023-05-17T08:00:00Z,0.07,37.65,21.0,17.0,160,4,,6.21,,,,,,,,,,,,BKN,1700,,,,,,,MVFR,,,,,,,,,,,,METAR,1609.0
HKLU 170800Z 18008KT 9999 BKN024 31/24 Q1014,HKLU,2023-05-17T08:00:00Z,-2.25,40.92,31.0,24.0,180,8,,6.21,29.940945,,,,,,,,,,,BKN,2400,,,,,,,MVFR,,,,,,,,,,,,METAR,6.0
HKLO 170800Z 13007KT CAVOK 31/18 Q1012,HKLO,2023-05-17T08:00:00Z,3.12,35.62,31.0,18.0,130,7,,6.21,29.88189,,,,,,,,,,,CAVOK,,,,,,,,VFR,,,,,,,,,,,,METAR,503.0
HKKT 170800Z 00000KT 9999 FEW023 25/19,HKKT,2023-05-17T08:00:00Z,0.97,34.97,25.0,19.0,0,0,,6.21,,,,,,,,,,,,FEW,2300,,,,,,,VFR,,,,,,,,,,,,METAR,1829.0
HKJK 170800Z 14005KT 9999 BKN022 20/16 Q1026 NOSIG,HKJK,2023-05-17T08:00:00Z,-1.32,36.92,20.0,16.0,140,5,,6.21,30.295275,,,,,,TRUE,,,,,BKN,2200,,,,,,,MVFR,,,,,,,,,,,,METAR,1615.0
HKGO 170800Z AUTO 09004KT 17/15 Q1026 A30.31,HKGO,2023-05-17T08:00:00Z,,,17.0,15.0,90,4,,,30.295275,,,TRUE,,,,,,,,,,,,,,,,,,,,,,,,,,,,METAR,
HKGA 170800Z 18022KT 9999 BKN025 31/21 Q1015,HKGA,2023-05-17T08:00:00Z,-0.47,39.65,31.0,21.0,180,22,,6.21,29.970472,,,,,,,,,,,BKN,2500,,,,,,,MVFR,,,,,,,,,,,,METAR,147.0
HKEM 170800Z 19002KT 9999 BKN020 20/16,HKEM,2023-05-17T08:00:00Z,-0.57,37.48,20.0,16.0,190,2,,6.21,,,,,,,,,,,,BKN,2000,,,,,,,MVFR,,,,,,,,,,,,METAR,1265.0
HETR 170800Z 27009KT 4000 HZ NSC 26/21 Q1007,HETR,2023-05-17T08:00:00Z,28.22,33.65,26.0,21.0,270,9,,2.49,29.734253,,,,,,,,,,HZ,CLR,,,,,,,,IFR,,,,,,,,,,,,METAR,35.0
HESX 170800Z 30006KT 6000 NSC 28/14 Q1009 NOSIG,HESX,2023-05-17T08:00:00Z,,,28.0,14.0,300,6,,3.73,29.793306,,,,,,TRUE,,,,,CLR,,,,,,,,MVFR,,,,,,,,,,,,METAR,
HESW 170800Z 32017KT CAVOK 25/10 Q1013,HESW,2023-05-17T08:00:00Z,29.35,25.5,25.0,10.0,320,17,,6.21,29.911417,,,,,,,,,,,CAVOK,,,,,,,,VFR,,,,,,,,,,,,METAR,101.0
HESN 170800Z 01010KT CAVOK 36/03 Q1009 NOSIG,HESN,2023-05-17T08:00:00Z,23.97,32.82,36.0,3.0,10,10,,6.21,29.793306,,,,,,TRUE,,,,,CAVOK,,,,,,,,VFR,,,,,,,,,,,,METAR,197.0
HESH 170800Z 14004KT 9999 FEW020 31/18 Q1008 NOSIG,HESH,2023-05-17T08:00:00Z,27.97,34.38,31.0,18.0,140,4,,6.21,29.763779,,,,,,TRUE,,,,,FEW,2000,,,,,,,VFR,,,,,,,,,,,,METAR,50.0
HESG 170800Z 31004KT CAVOK 33/01 Q1007 NOSIG,HESG,2023-05-17T08:00:00Z,26.33,31.75,33.0,1.0,310,4,,6.21,29.734253,,,,,,TRUE,,,,,CAVOK,,,,,,,,VFR,,,,,,,,,,,,METAR,70.0
HEPS 170800Z 03004KT CAVOK 23/21 Q1008 NOSIG,HEPS,2023-05-17T08:00:00Z,31.28,32.25,23.0,21.0,30,4,,6.21,29.763779,,,,,,TRUE,,,,,CAVOK,,,,,,,,VFR,,,,,,,,,,,,METAR,2.0
HEMM 170800Z 29016KT 9999 SCT020 SCT100 22/16 Q1013 NOSIG,HEMM,2023-05-17T08:00:00Z,31.32,27.22,22.0,16.0,290,16,,6.21,29.911417,,,,,,TRUE,,,,,SCT,2000,SCT,10000,,,,,VFR,,,,,,,,,,,,METAR,26.0
HEMA 170800Z 35017KT CAVOK 34/12 Q1008 NOSIG,HEMA,2023-05-17T08:00:00Z,25.55,34.58,34.0,12.0,350,17,,6.21,29.763779,,,,,,TRUE,,,,,CAVOK,,,,,,,,VFR,,,,,,,,,,,,METAR,77.0
HELX 170800Z 32002KT CAVOK 37/04 Q1008 NOSIG,HELX,2023-05-17T08:00:00Z,25.67,32.7,37.0,4.0,320,2,,6.21,29.763779,,,,,,TRUE,,,,,CAVOK,,,,,,,,VFR,,,,,,,,,,,,METAR,86.0
HEIS 170800Z 28006KT CAVOK 27/14 Q1008,HEIS,2023-05-17T08:00:00Z,30.58,32.25,27.0,14.0,280,6,,6.21,29.763779,,,,,,,,,,,CAVOK,,,,,,,,VFR,,,,,,,,,,,,METAR,14.0
HEGN 170800Z 36004KT CAVOK 34/11 Q1007 NOSIG,HEGN,2023-05-17T08:00:00Z,27.18,33.8,34.0,11.0,360,4,,6.21,29.734253,,,,,,TRUE,,,,,CAVOK,,,,,,,,VFR,,,,,,,,,,,,METAR,14.0
HECP 170800Z 30005KT CAVOK 29/14 Q1010 NOSIG,HECP,2023-05-17T08:00:00Z,30.07,31.83,29.0,14.0,300,5,,6.21,29.822834,,,,,,TRUE,,,,,CAVOK,,,,,,,,VFR,,,,,,,,,,,,METAR,240.0
HEBL 170800Z 34004KT CAVOK 33/02 Q1009 NOSIG,HEBL,2023-05-17T08:00:00Z,22.38,31.62,33.0,2.0,340,4,,6.21,29.793306,,,,,,TRUE,,,,,CAVOK,,,,,,,,VFR,,,,,,,,,,,,METAR,184.0
HEBA 170800Z 31008KT CAVOK 25/16 Q1010 NOSIG,HEBA,2023-05-17T08:00:00Z,30.92,29.7,25.0,16.0,310,8,,6.21,29.822834,,,,,,TRUE,,,,,CAVOK,,,,,,,,VFR,,,,,,,,,,,,METAR,41.0
HEAX 170800Z 31008KT 9999 SCT020 25/17 Q1009 NOSIG,HEAX,2023-05-17T08:00:00Z,31.18,29.93,25.0,17.0,310,8,,6.21,29.793306,,,,,,TRUE,,,,,SCT,2000,,,,,,,VFR,,,,,,,,,,,,METAR,-2.0
HEAT 170800Z 31007KT CAVOK 34/07 Q1011 NOSIG,HEAT,2023-05-17T08:00:00Z,27.05,31.02,34.0,7.0,310,7,,6.21,29.852362,,,,,,TRUE,,,,,CAVOK,,,,,,,,VFR,,,,,,,,,,,,METAR,229.0
HDAM 170800Z 080/11KT 9999 FEW023 37/21 Q1009,HDAM,2023-05-17T08:00:00Z,11.55,43.17,37.0,21.0,,,,6.21,29.793306,,,,,,,,,,,FEW,2300,,,,,,,VFR,,,,,,,,,,,,METAR,6.0
HCMM 170800Z 20011KT 9999 SCT025 31/27 Q1013,HCMM,2023-05-17T08:00:00Z,2.02,45.3,31.0,27.0,200,11,,6.21,29.911417,,,,,,,,,,,SCT,2500,,,,,,,VFR,,,,,,,,,,,,METAR,6.0
HCMF 170800Z 02010KT 9999 FEW033 31/28 Q1007,HCMF,2023-05-17T08:00:00Z,11.27,49.13,31.0,28.0,20,10,,6.21,29.734253,,,,,,,,,,,FEW,3300,,,,,,,VFR,,,,,,,,,,,,METAR,8.0
HBBA 170800Z VRB03KT 9999 FEW025TCU28/21 Q1016 NOSIG,HBBA,2023-05-17T08:00:00Z,-3.32,29.32,28.0,21.0,0,3,,6.21,30.0,,,,,,TRUE,,,,,,,,,,,,,,,,,,,,,,,,,METAR,777.0
GVSV 170800Z 05014KT 9999 FEW022 23/18 Q1014 NOSIG,GVSV,2023-05-17T08:00:00Z,16.83,-25.07,23.0,18.0,50,14,,6.21,29.940945,,,,,,TRUE,,,,,FEW,2200,,,,,,,VFR,,,,,,,,,,,,METAR,16.0
GVNP 170800Z 01013KT 9999 SCT018 23/17 Q1014 NOSIG,GVNP,2023-05-17T08:00:00Z,14.95,-23.48,23.0,17.0,10,13,,6.21,29.940945,,,,,,TRUE,,,,,SCT,1800,,,,,,,VFR,,,,,,,,,,,,METAR,70.0
GVBA 170800Z 03011KT 9999 BKN014 23/18 Q1015 NOSIG,GVBA,2023-05-17T08:00:00Z,16.13,-22.88,23.0,18.0,30,11,,6.21,29.970472,,,,,,TRUE,,,,,BKN,1400,,,,,,,MVFR,,,,,,,,,,,,METAR,23.0
GVAC 170800Z 04012KT 9999 BKN014 23/17 Q1015 NOSIG,GVAC,2023-05-17T08:00:00Z,16.73,-22.93,23.0,17.0,40,12,,6.21,29.970472,,,,,,TRUE,,,,,BKN,1400,,,,,,,MVFR,,,,,,,,,,,,METAR,54.0
GUCY 170800Z 34008KT 9999 FEW015 SCT110 29/24 Q1012 NOSIG,GUCY,2023-05-17T08:00:00Z,9.57,-13.62,29.0,24.0,340,8,,6.21,29.88189,,,,,,TRUE,,,,,FEW,1500,SCT,11000,,,,,VFR,,,,,,,,,,,,METAR,10.0
GQPP 170800Z 02014KT 7000 NSC 20/15 Q1015 NOSIG,GQPP,2023-05-17T08:00:00Z,20.92,-17.02,20.0,15.0,20,14,,4.35,29.970472,,,,,,TRUE,,,,,CLR,,,,,,,,MVFR,,,,,,,,,,,,METAR,5.0
GOTT 170800Z 29006KT CAVOK 31/18 Q1011,GOTT,2023-05-17T08:00:00Z,13.73,-13.65,31.0,18.0,290,6,,6.21,29.852362,,,,,,,,,,,CAVOK,,,,,,,,VFR,,,,,,,,,,,,METAR,53.0
GOTK 170800Z 18004KT CAVOK 27/23 Q1012,GOTK,2023-05-17T08:00:00Z,12.57,-12.22,27.0,23.0,180,4,,6.21,29.88189,,,,,,,,,,,CAVOK,,,,,,,,VFR,,,,,,,,,,,,METAR,165.0
GOSS 170800Z 34006KT 300V030 CAVOK 23/21 Q1013,GOSS,2023-05-17T08:00:00Z,16.05,-16.45,23.0,21.0,340,6,,6.21,29.911417,,,,,,,,,,,CAVOK,,,,,,,,VFR,,,,,,,,,,,,METAR,3.0
GOSP 170800Z 28004KT CAVOK 23/20 Q1012,GOSP,2023-05-17T08:00:00Z,16.68,-14.97,23.0,20.0,280,4,,6.21,29.88189,,,,,,,,,,,CAVOK,,,,,,,,VFR,,,,,,,,,,,,METAR,10.0
GOSM 170800Z 32008KT CAVOK 28/15 Q1011,GOSM,2023-05-17T08:00:00Z,15.6,-13.33,28.0,15.0,320,8,,6.21,29.852362,,,,,,,,,,,CAVOK,,,,,,,,VFR,,,,,,,,,,,,METAR,28.0
GOOY 170800Z 32012KT 9999 BKN013 24/21 Q1012,GOOY,2023-05-17T08:00:00Z,14.73,-17.5,24.0,21.0,320,12,,6.21,29.88189,,,,,,,,,,,BKN,1300,,,,,,,MVFR,,,,,,,,,,,,METAR,21.0
GOOK 170800Z 36006KT CAVOK 24/21 Q1012,GOOK,2023-05-17T08:00:00Z,14.15,-16.07,24.0,21.0,360,6,,6.21,29.88189,,,,,,,,,,,CAVOK,,,,,,,,VFR,,,,,,,,,,,,METAR,8.0
GOOG 170800Z 36004KT CAVOK 25/18 Q1010,GOOG,2023-05-17T08:00:00Z,15.4,-15.08,25.0,18.0,360,4,,6.21,29.822834,,,,,,,,,,,CAVOK,,,,,,,,VFR,,,,,,,,,,,,METAR,38.0
GOOD 170800Z 34006KT CAVOK 24/22 Q1012,GOOD,2023-05-17T08:00:00Z,14.65,-16.22,24.0,22.0,340,6,,6.21,29.88189,,,,,,,,,,,CAVOK,,,,,,,,VFR,,,,,,,,,,,,METAR,9.0
GOGS 170800Z 36006KT 9999 SCT013 25/22 Q1012,GOGS,2023-05-17T08:00:00Z,12.4,-16.75,25.0,22.0,360,6,,6.21,29.88189,,,,,,,,,,,SCT,1300,,,,,,,VFR,,,,,,,,,,,,METAR,13.0
GOGK 170800Z 28004KT CAVOK 27/22 Q1010,GOGK,2023-05-17T08:00:00Z,12.9,-14.97,27.0,22.0,280,4,,6.21,29.822834,,,,,,,,,,,CAVOK,,,,,,,,VFR,,,,,,,,,,,,METAR,37.0
GMTN 170800Z 22003KT 150V290 4000 TSRA SCT017CB BKN023 17/14 Q1012 NOSIG,GMTN,2023-05-17T08:00:00Z,35.58,-5.32,17.0,14.0,220,3,,2.49,29.88189,,,,,,TRUE,,,,TSRA,SCT,1700,BKN,2300,,,,,IFR,,,,,,,,,,,,METAR,10.0
GMTA 170800Z 36011KT 7000 SCT013 FEW030CB OVC090 20/16 Q1011 NOSIG,GMTA,2023-05-17T08:00:00Z,35.17,-3.85,20.0,16.0,360,11,,4.35,29.852362,,,,,,TRUE,,,,,SCT,1300,FEW,3000,OVC,9000,,,MVFR,,,,,,,,,,,,METAR,14.0
GMMZ 170800Z 30021KT 9999 FEW040 19/01 Q1011 NOSIG,GMMZ,2023-05-17T08:00:00Z,30.93,-6.9,19.0,1.0,300,21,,6.21,29.852362,,,,,,TRUE,,,,,FEW,4000,,,,,,,VFR,,,,,,,,,,,,METAR,1139.0
GMMW 170800Z 03012KT 9999 FEW019 BKN100 19/12 Q1011,GMMW,2023-05-17T08:00:00Z,34.98,-3.02,19.0,12.0,30,12,,6.21,29.852362,,,,,,,,,,,FEW,1900,BKN,10000,,,,,VFR,,,,,,,,,,,,METAR,174.0
GMML 170800Z 03016KT 8000 BKN030 20/16 Q1017 NOSIG,GMML,2023-05-17T08:00:00Z,27.13,-13.23,20.0,16.0,30,16,,4.97,30.029528,,,,,,TRUE,,,,,BKN,3000,,,,,,,MVFR,,,,,,,,,,,,METAR,63.0
GMMH 170800Z 06023KT CAVOK 19/14 Q1016 NOSIG,GMMH,2023-05-17T08:00:00Z,23.72,-15.93,19.0,14.0,60,23,,6.21,30.0,,,,,,TRUE,,,,,CAVOK,,,,,,,,VFR,,,,,,,,,,,,METAR,11.0
GMMD 170800Z 18007KT 9999 BKN030TCU FEW033CB 14/12 Q1014 NOSIG,GMMD,2023-05-17T08:00:00Z,32.4,-6.32,14.0,12.0,180,7,,6.21,29.940945,,,,,,TRUE,,,,,BKN,3000,FEW,3300,,,,,MVFR,,,,,,,,,,,,METAR,515.0
GMMC 170800Z 26008KT 8000 SCT016 SCT100 19/14 Q1012,GMMC,2023-05-17T08:00:00Z,33.57,-7.67,19.0,14.0,260,8,,4.97,29.88189,,,,,,,,,,,SCT,1600,SCT,10000,,,,,MVFR,,,,,,,,,,,,METAR,62.0
GMMB 170800Z 22010KT 4000 BR BKN013 SCT100 19/17 Q1012 NOSIG,GMMB,2023-05-17T08:00:00Z,33.65,-7.22,19.0,17.0,220,10,,2.49,29.88189,,,,,,TRUE,,,,BR,BKN,1300,SCT,10000,,,,,IFR,,,,,,,,,,,,METAR,191.0
GMFM 170800Z 18007KT 6000 -RA FEW013 SCT016 BKN100 14/12 Q1013 NOSIG,GMFM,2023-05-17T08:00:00Z,33.87,-5.52,14.0,12.0,180,7,,3.73,29.911417,,,,,,TRUE,,,,-RA,FEW,1300,SCT,1600,BKN,10000,,,MVFR,,,,,,,,,,,,METAR,569.0
GMFK 170800Z 34022KT 9999 BKN033 FEW040CB 18/06 Q1010 NOSIG,GMFK,2023-05-17T08:00:00Z,31.95,-4.4,18.0,6.0,340,22,,6.21,29.822834,,,,,,TRUE,,,,,BKN,3300,FEW,4000,,,,,VFR,,,,,,,,,,,,METAR,1033.0
GMFB 170800Z 04010KT 9999 BKN030 17/10 Q1010 NOSIG,GMFB,2023-05-17T08:00:00Z,32.52,-1.98,17.0,10.0,40,10,,6.21,29.822834,,,,,,TRUE,,,,,BKN,3000,,,,,,,MVFR,,,,,,,,,,,,METAR,1106.0
GMAT 170800Z 02016KT 8000 BKN016 18/12 Q1016 NOSIG,GMAT,2023-05-17T08:00:00Z,28.43,-11.15,18.0,12.0,20,16,,4.97,30.0,,,,,,TRUE,,,,,BKN,1600,,,,,,,MVFR,,,,,,,,,,,,METAR,192.0
GMAG 170800Z 34014KT 6000 BKN020 17/10 Q1015 NOSIG,GMAG,2023-05-17T08:00:00Z,29.03,-10.05,17.0,10.0,340,14,,3.73,29.970472,,,,,,TRUE,,,,,BKN,2000,,,,,,,MVFR,,,,,,,,,,,,METAR,333.0
GGOV 170800Z VRB03KT 6000 NSC 25/22 Q1012 NOSIG,GGOV,2023-05-17T08:00:00Z,11.88,-15.65,25.0,22.0,0,3,,3.73,29.88189,,,,,,TRUE,,,,,CLR,,,,,,,,MVFR,,,,,,,,,,,,METAR,31.0
GFLL 170800Z 07004KT 9999 BKN010 26/24 Q1011,GFLL,2023-05-17T08:00:00Z,8.62,-13.18,26.0,24.0,70,4,,6.21,29.852362,,,,,,,,,,,BKN,1000,,,,,,,MVFR,,,,,,,,,,,,METAR,28.0
GBYD 170800Z 36006KT 9999 FEW010 SCT200 24/21 Q1012,GBYD,2023-05-17T08:00:00Z,13.33,-16.65,24.0,21.0,360,6,,6.21,29.88189,,,,,,,,,,,FEW,1000,SCT,20000,,,,,VFR,,,,,,,,,,,,SPECI,29.0
GAKD 170800Z 34002KT 9999 FEW030 31/22 Q1012,GAKD,2023-05-17T08:00:00Z,14.48,-11.4,31.0,22.0,340,2,,6.21,29.88189,,,,,,,,,,,FEW,3000,,,,,,,VFR,,,,,,,,,,,,METAR,53.0
FYWW 170800Z 05006KT 9999 FEW040 SCT090 18/07 Q1024,FYWW,2023-05-17T08:00:00Z,-22.57,17.1,18.0,7.0,50,6,,6.21,30.236221,,,,,,,,,,,FEW,4000,SCT,9000,,,,,VFR,,,,,,,,,,,,METAR,1672.0
FYWH 170800Z 00000KT CAVOK 18/10 Q1025 NOSIG,FYWH,2023-05-17T08:00:00Z,-22.47,17.47,18.0,10.0,0,0,,6.21,30.265747,,,,,,TRUE,,,,,CAVOK,,,,,,,,VFR,,,,,,,,,,,,METAR,1699.0
FYWE 170800Z VRB02KT 9999 FEW040 18/08 Q1025,FYWE,2023-05-17T08:00:00Z,-22.62,17.08,18.0,8.0,0,2,,6.21,30.265747,,,,,,,,,,,FEW,4000,,,,,,,VFR,,,,,,,,,,,,METAR,1700.0
FYWB 170800Z 05002KT 9999 OVC003 12/11 Q1019,FYWB,2023-05-17T08:00:00Z,-22.98,14.65,12.0,11.0,50,2,,6.21,30.088583,,,,,,,,,,,OVC,300,,,,,,,LIFR,,,,,,,,,,,,METAR,87.0
FYRU 170800Z 14006KT CAVOK ///// Q////,FYRU,2023-05-17T08:00:00Z,-17.95,19.72,,,140,6,,6.21,,,,,,,,,,,,CAVOK,,,,,,,,VFR,,,,,,,,,,,,METAR,1104.0
FYOA 170800Z 16004KT CAVOK 20/04 Q1018,FYOA,2023-05-17T08:00:00Z,-17.88,15.97,20.0,4.0,160,4,,6.21,30.059055,,,,,,,,,,,CAVOK,,,,,,,,VFR,,,,,,,,,,,,METAR,1099.0
FYLZ 170800Z AUTO 18005KT //// // ////// 15/11 Q1017,FYLZ,2023-05-17T08:00:00Z,-26.68,15.25,15.0,11.0,180,5,,,30.029528,,,TRUE,,,,,,,,,,,,,,,,,,,,,,,,,,,,METAR,129.0
FYKT 170800Z 29004KT CAVOK 21/04 Q1020,FYKT,2023-05-17T08:00:00Z,-26.53,18.12,21.0,4.0,290,4,,6.21,30.11811,,,,,,,,,,,CAVOK,,,,,,,,VFR,,,,,,,,,,,,METAR,1064.0
FYKM 170800Z 21003KT CAVOK 23/11 Q1020,FYKM,2023-05-17T08:00:00Z,-17.63,24.18,23.0,11.0,210,3,,6.21,30.11811,,,,,,,,,,,CAVOK,,,,,,,,VFR,,,,,,,,,,,,METAR,959.0
FWKI 170800Z 07009KT CAVOK 22/12 Q1023 NOSIG,FWKI,2023-05-17T08:00:00Z,-13.78,33.78,22.0,12.0,70,9,,6.21,30.206694,,,,,,TRUE,,,,,CAVOK,,,,,,,,VFR,,,,,,,,,,,,METAR,1225.0
FWCL 170800Z 06004KT 9999 FEW020 24/16 Q1022 NOSIG,FWCL,2023-05-17T08:00:00Z,-15.67,34.97,24.0,16.0,60,4,,6.21,30.177166,,,,,,TRUE,,,,,FEW,2000,,,,,,,VFR,,,,,,,,,,,,METAR,774.0
FVRG 170800Z 06009KT 020V120 CAVOK 20/12 Q1026 NOSIG,FVRG,2023-05-17T08:00:00Z,-17.93,31.1,20.0,12.0,60,9,,6.21,30.295275,,,,,,TRUE,,,,,CAVOK,,,,,,,,VFR,,,,,,,,,,,,METAR,1490.0
FVJN 170800Z 06010KT CAVOK 24/13 Q1024 NOSIG,FVJN,2023-05-17T08:00:00Z,-20.02,28.63,24.0,13.0,60,10,,6.21,30.236221,,,,,,TRUE,,,,,CAVOK,,,,,,,,VFR,,,,,,,,,,,,METAR,1331.0
FVFA 170800Z 06006KT 020V090 CAVOK 24/12 Q1021 NOSIG,FVFA,2023-05-17T08:00:00Z,-18.1,25.85,24.0,12.0,60,6,,6.21,30.147638,,,,,,TRUE,,,,,CAVOK,,,,,,,,VFR,,,,,,,,,,,,METAR,1069.0
FTTJ 170800Z 20008KT 8000 NSC 33/22 Q1010 NOSIG,FTTJ,2023-05-17T08:00:00Z,12.13,15.03,33.0,22.0,200,8,,4.97,29.822834,,,,,,TRUE,,,,,CLR,,,,,,,,MVFR,,,,,,,,,,,,METAR,295.0
FTTD 170800Z 00000KT 9999 SCT030 25/22 Q1015,FTTD,2023-05-17T08:00:00Z,8.62,16.07,25.0,22.0,0,0,,6.21,29.970472,,,,,,,,,,,SCT,3000,,,,,,,VFR,,,,,,,,,,,,METAR,420.0
FTTC 170800Z 22012KT CAVOK 37/// Q1012,FTTC,2023-05-17T08:00:00Z,13.83,20.85,,,220,12,,6.21,29.88189,,,,,,,,,,,CAVOK,,,,,,,,VFR,,,,,,,,,,,,METAR,548.0
FTTA 170800Z 18008KT CAVOK 28/23 Q1012,FTTA,2023-05-17T08:00:00Z,9.15,18.37,28.0,23.0,180,8,,6.21,29.88189,,,,,,,,,,,CAVOK,,,,,,,,VFR,,,,,,,,,,,,METAR,361.0
FSIA 170800Z 13014KT 9999 FEW022 31/24 Q1012 NOSIG,FSIA,2023-05-17T08:00:00Z,-4.67,55.52,31.0,24.0,130,14,,6.21,29.88189,,,,,,TRUE,,,,,FEW,2200,,,,,,,VFR,,,,,,,,,,,,METAR,3.0
FQXA 170800Z 35010KT 320V030 9999 FEW020 24/18 Q1018,FQXA,2023-05-17T08:00:00Z,-25.05,33.62,24.0,18.0,350,10,,6.21,30.059055,,,,,,,,,,,FEW,2000,,,,,,,VFR,,,,,,,,,,,,METAR,3.0
FQVL 170800Z 08008KT 9999 SCT020 27/22 Q1018,FQVL,2023-05-17T08:00:00Z,-22.0,35.32,27.0,22.0,80,8,,6.21,30.059055,,,,,,,,,,,SCT,2000,,,,,,,VFR,,,,,,,,,,,,METAR,15.0
FQTT 170800Z 20006KT 8000 BKN020 26/20 Q1020 RMK HZ,FQTT,2023-05-17T08:00:00Z,-16.1,33.63,26.0,20.0,200,6,,4.97,30.11811,,,,,,,,,,,BKN,2000,,,,,,,MVFR,,,,,,,,,,,,METAR,146.0
FQQL 170800Z 19004KT 9999 BKN018 27/22 Q1019,FQQL,2023-05-17T08:00:00Z,-17.87,36.87,27.0,22.0,190,4,,6.21,30.088583,,,,,,,,,,,BKN,1800,,,,,,,MVFR,,,,,,,,,,,,METAR,5.0
FQPB 170800Z 16009KT 120V180 9999 FEW020 29/19 Q1018,FQPB,2023-05-17T08:00:00Z,-12.98,40.52,29.0,19.0,160,9,,6.21,30.059055,,,,,,,,,,,FEW,2000,,,,,,,VFR,,,,,,,,,,,,METAR,101.0
FQNC 170800Z 24009KT 9999 BKN020 27/21 Q1018,FQNC,2023-05-17T08:00:00Z,-14.48,40.72,27.0,21.0,240,9,,6.21,30.059055,,,,,,,,,,,BKN,2000,,,,,,,MVFR,,,,,,,,,,,,METAR,112.0
FQMA 170800Z 34010KT CAVOK 24/16 Q1015 NOSIG,FQMA,2023-05-17T08:00:00Z,-25.92,32.57,24.0,16.0,340,10,,6.21,29.970472,,,,,,TRUE,,,,,CAVOK,,,,,,,,VFR,,,,,,,,,,,,METAR,34.0
FQLC 170800Z 14015KT 9999 FEW025 21/13 Q1025,FQLC,2023-05-17T08:00:00Z,-13.27,35.25,21.0,13.0,140,15,,6.21,30.265747,,,,,,,,,,,FEW,2500,,,,,,,VFR,,,,,,,,,,,,METAR,1362.0
FQCH 170800Z /////KT 9999 BKN015 21/17 Q1023,FQCH,2023-05-17T08:00:00Z,-19.15,33.43,21.0,17.0,,,,6.21,30.206694,,,,,,,,,,,BKN,1500,,,,,,,MVFR,,,,,,,,,,,,METAR,695.0
FQBR 170800Z 31006KT 9999 FEW018 27/18 Q1018,FQBR,2023-05-17T08:00:00Z,-19.8,34.9,27.0,18.0,310,6,,6.21,30.059055,,,,,,,,,,,FEW,1800,,,,,,,VFR,,,,,,,,,,,,METAR,14.0
FPST 170800Z 16010KT 9999 FEW020CB BKN100 28/24 Q1013 NOSIG,FPST,2023-05-17T08:00:00Z,0.37,6.72,28.0,24.0,160,10,,6.21,29.911417,,,,,,TRUE,,,,,FEW,2000,BKN,10000,,,,,VFR,,,,,,,,,,,,METAR,11.0
FOON 170800Z /////KT 9999 SCT011 25/23 Q1015,FOON,2023-05-17T08:00:00Z,-1.65,13.43,25.0,23.0,,,,6.21,29.970472,,,,,,,,,,,SCT,1100,,,,,,,VFR,,,,,,,,,,,,METAR,440.0
FOOL 170800Z 16012KT 130V190 9999 SCT012 29/24 Q1013 NOSIG,FOOL,2023-05-17T08:00:00Z,0.45,9.42,29.0,24.0,160,12,,6.21,29.911417,,,,,,TRUE,,,,,SCT,1200,,,,,,,VFR,,,,,,,,,,,,METAR,9.0
FOOG 170800Z 16009KT 130V190 9000 SCT008 FEW020CB 28/25 Q1012,FOOG,2023-05-17T08:00:00Z,-0.7,8.75,28.0,25.0,160,9,,5.59,29.88189,,,,,,,,,,,SCT,800,FEW,2000,,,,,VFR,,,,,,,,,,,,METAR,4.0
FNLU 170800Z 16008KT 130V200 8000 FEW018 28/22 Q1013 NOSIG,FNLU,2023-05-17T08:00:00Z,-8.85,13.22,28.0,22.0,160,8,,4.97,29.911417,,,,,,TRUE,,,,,FEW,1800,,,,,,,MVFR,,,,,,,,,,,,METAR,75.0
FMSD 170800Z 28012KT 9999 FEW020 25/19 Q1016,FMSD,2023-05-17T08:00:00Z,-25.03,46.95,25.0,19.0,280,12,,6.21,30.0,,,,,,,,,,,FEW,2000,,,,,,,VFR,,,,,,,,,,,,METAR,7.0
FMNN 170800Z 18002KT 9999 FEW020 32/// Q1015,FMNN,2023-05-17T08:00:00Z,-13.32,48.32,,,180,2,,6.21,29.970472,,,,,,,,,,,FEW,2000,,,,,,,VFR,,,,,,,,,,,,SPECI,10.0
FMNM 170800Z 33004KT 250V020 CAVOK 30/21 Q1016 NOSIG,FMNM,2023-05-17T08:00:00Z,-15.67,46.35,30.0,21.0,330,4,,6.21,30.0,,,,,,TRUE,,,,,CAVOK,,,,,,,,VFR,,,,,,,,,,,,METAR,18.0
FMNA 170800Z 14004KT 9999 SCT020 31/21 Q1014,FMNA,2023-05-17T08:00:00Z,-12.33,49.28,31.0,21.0,140,4,,6.21,29.940945,,,,,,,,,,,SCT,2000,,,,,,,VFR,,,,,,,,,,,,METAR,108.0
FMMT 170800Z VRB04KT 9999 FEW017 31/21 Q1014 NOSIG,FMMT,2023-05-17T08:00:00Z,-18.12,49.38,31.0,21.0,0,4,,6.21,29.940945,,,,,,TRUE,,,,,FEW,1700,,,,,,,VFR,,,,,,,,,,,,METAR,13.0
FLKK 170800Z 07008KT CAVOK 22/12 Q1023 NSG,FLKK,2023-05-17T08:00:00Z,-15.32,28.45,22.0,12.0,70,8,,6.21,30.206694,,,,,,TRUE,,,,,CAVOK,,,,,,,,VFR,,,,,,,,,,,,METAR,1149.0
FKYS 170800Z 26004KT 220V300 9999 BKN006 25/24 Q1019 BECMG BKN011,FKYS,2023-05-17T08:00:00Z,3.82,11.52,25.0,24.0,260,4,,6.21,30.088583,,,,,,,,,,,BKN,600,,,,,,,IFR,,,,,,,,,,,,METAR,694.0
FKKR 170800Z 18006KT 9999 FEW012 FEW015CB 32/24 Q1012 BECMG 06020G35KT TS,FKKR,2023-05-17T08:00:00Z,9.33,13.37,32.0,24.0,180,6,,6.21,29.88189,,,,,,,,,,,FEW,1200,FEW,1500,,,,,VFR,,,,,,,,,,,,METAR,223.0
FKKN 170800Z 12003KT 9999 -TSRA FEW003 BKN009 FEW010CB 20/19 Q1021,FKKN,2023-05-17T08:00:00Z,7.35,13.57,20.0,19.0,120,3,,6.21,30.147638,,,,,,,,,,-TSRA,FEW,300,BKN,900,FEW,1000,,,IFR,,,,,,,,,,,,METAR,1108.0
FKKL 170800Z /////KT 9999 TS SCT030 SCT040CB 28/23 Q1014,FKKL,2023-05-17T08:00:00Z,10.45,14.25,28.0,23.0,,,,6.21,29.940945,,,,,,,,,,TS,SCT,3000,SCT,4000,,,,,VFR,,,,,,,,,,,,METAR,422.0
FKKD 170800Z 12003KT 070V160 8000 TS SCT013 SCT016CB 30/26 Q1013 NOSIG,FKKD,2023-05-17T08:00:00Z,4.0,9.72,30.0,26.0,120,3,,4.97,29.911417,,,,,,TRUE,,,,TS,SCT,1300,SCT,1600,,,,,MVFR,,,,,,,,,,,,METAR,10.0
FIMP 170800Z 03010KT 9999 SCT019 30/21 Q1016,FIMP,2023-05-17T08:00:00Z,-20.43,57.68,30.0,21.0,30,10,,6.21,30.0,,,,,,,,,,,SCT,1900,,,,,,,VFR,,,,,,,,,,,,METAR,57.0
FGSL 170800Z 00000KT 9999 TS SCT010 FEW016CB 29/25 Q1014 BECMG NSW,FGSL,2023-05-17T08:00:00Z,3.75,8.72,29.0,25.0,0,0,,6.21,29.940945,,,,,,,,,,TS,SCT,1000,FEW,1600,,,,,VFR,,,,,,,,,,,,METAR,23.0
FEFT 170800Z 36004KT 9999 -TSRA OVC006 FEW033CB 21/21 Q1017,FEFT,2023-05-17T08:00:00Z,4.22,15.8,21.0,21.0,360,4,,6.21,30.029528,,,,,,,,,,-TSRA,OVC,600,FEW,3300,,,,,IFR,,,,,,,,,,,,METAR,567.0
FEFF 170800Z 34006KT 9999 FEW006 25/22 Q1014 NOSIG,FEFF,2023-05-17T08:00:00Z,4.4,18.52,25.0,22.0,340,6,,6.21,29.940945,,,,,,TRUE,,,,,FEW,600,,,,,,,VFR,,,,,,,,,,,,METAR,364.0
FDST 170800Z AUTO 14008KT //// // ////// 34/24 Q1015,FDST,2023-05-17T08:00:00Z,-26.43,31.95,34.0,24.0,140,8,,,29.970472,,,TRUE,,,,,,,,,,,,,,,,,,,,,,,,,,,,METAR,642.0
FDSK 170800Z 08007KT CAVOK 22/12 Q1017 NOSIG,FDSK,2023-05-17T08:00:00Z,-26.35,31.72,22.0,12.0,80,7,,6.21,30.029528,,,,,,TRUE,,,,,CAVOK,,,,,,,,VFR,,,,,,,,,,,,METAR,323.0
FDPP 170800Z AUTO 28005KT //// // ////// ///// Q1023,FDPP,2023-05-17T08:00:00Z,-25.97,31.25,,,280,5,,,30.206694,,,TRUE,,,,,,,,,,,,,,,,,,,,,,,,,,,,METAR,1023.0
FDOT 170800Z AUTO 29003KT //// // ////// 22/13 Q1017,FDOT,2023-05-17T08:00:00Z,-26.7,31.43,22.0,13.0,290,3,,,30.029528,,,TRUE,,,,,,,,,,,,,,,,,,,,,,,,,,,,METAR,342.0
FDMY 170800Z AUTO 08003KT //// // ////// 23/13 Q1027,FDMY,2023-05-17T08:00:00Z,-25.88,31.52,23.0,13.0,80,3,,,30.324802,,,TRUE,,,,,,,,,,,,,,,,,,,,,,,,,,,,METAR,401.0
FDMS 170800Z 36008KT CAVOK 22/12 Q1018 NOSIG,FDMS,2023-05-17T08:00:00Z,-26.52,31.3,22.0,12.0,360,8,,6.21,30.059055,,,,,,TRUE,,,,,CAVOK,,,,,,,,VFR,,,,,,,,,,,,METAR,633.0
FDBB 170800Z AUTO 00000KT //// // ////// 21/16 Q1015,FDBB,2023-05-17T08:00:00Z,-26.8,31.93,21.0,16.0,0,0,,,29.970472,,,TRUE,,,,,,,,,,,,,,,,,,,,,,,,,,,,METAR,106.0
FCPP 170800Z 14007KT 9999 BKN011 27/25 Q1013 NOSIG,FCPP,2023-05-17T08:00:00Z,-4.82,11.9,27.0,25.0,140,7,,6.21,29.911417,,,,,,TRUE,,,,,BKN,1100,,,,,,,MVFR,,,,,,,,,,,,METAR,18.0
FCOD 170800Z 26004KT 7000 NSC 28/25 Q1014,FCOD,2023-05-17T08:00:00Z,,,28.0,25.0,260,4,,4.35,29.940945,,,,,,,,,,,CLR,,,,,,,,MVFR,,,,,,,,,,,,METAR,
FCBB 170800Z 21007KT 170V280 9999 SCT016 27/22 Q1014 NOSIG,FCBB,2023-05-17T08:00:00Z,-4.25,15.25,27.0,22.0,210,7,,6.21,29.940945,,,,,,TRUE,,,,,SCT,1600,,,,,,,VFR,,,,,,,,,,,,METAR,316.0
FBSK 170800Z 07004KT 040V120 9000 OVC010 14/13 Q1022 NOSIG,FBSK,2023-05-17T08:00:00Z,-24.55,25.92,14.0,13.0,70,4,,5.59,30.177166,,,,,,TRUE,,,,,OVC,1000,,,,,,,MVFR,,,,,,,,,,,,METAR,1007.0
FBPM 170800Z 04004KT 340V100 CAVOK 22/14 Q1021,FBPM,2023-05-17T08:00:00Z,-21.17,27.48,22.0,14.0,40,4,,6.21,30.147638,,,,,,,,,,,CAVOK,,,,,,,,VFR,,,,,,,,,,,,METAR,1009.0
FBMN 170800Z 14009KT 110V170 CAVOK 19/13 Q1022,FBMN,2023-05-17T08:00:00Z,-19.97,23.42,19.0,13.0,140,9,,6.21,30.177166,,,,,,,,,,,CAVOK,,,,,,,,VFR,,,,,,,,,,,,METAR,946.0
FBKE 170800Z 07006KT 030V110 CAVOK 24/12 Q1021,FBKE,2023-05-17T08:00:00Z,-17.82,25.17,24.0,12.0,70,6,,6.21,30.147638,,,,,,,,,,,CAVOK,,,,,,,,VFR,,,,,,,,,,,,METAR,999.0
FAWB 170800Z AUTO 27003KT //// // ////// 14/11 Q1022,FAWB,2023-05-17T08:00:00Z,-25.65,28.22,14.0,11.0,270,3,,,30.177166,,,TRUE,,,,,,,,,,,,,,,,,,,,,,,,,,,,METAR,1245.0
FAVV 170800Z AUTO 26003KT //// // ////// 14/11 Q1025,FAVV,2023-05-17T08:00:00Z,-26.57,27.97,14.0,11.0,260,3,,,30.265747,,,TRUE,,,,,,,,,,,,,,,,,,,,,,,,,,,,METAR,1480.0
FAUT 170800Z VRB02KT CAVOK 19/10 Q1014,FAUT,2023-05-17T08:00:00Z,-31.53,28.67,19.0,10.0,0,2,,6.21,29.940945,,,,,,,,,,,CAVOK,,,,,,,,VFR,,,,,,,,,,,,METAR,735.0
FASI 170800Z AUTO 32004KT //// // ////// 13/12 Q1027,FASI,2023-05-17T08:00:00Z,-26.25,28.4,13.0,12.0,320,4,,,30.324802,,,TRUE,,,,,,,,,,,,,,,,,,,,,,,,,,,,METAR,1627.0
FAPP 170800Z 26002KT 9999 BKN004 14/13 Q1024 BECMG BKN010,FAPP,2023-05-17T08:00:00Z,-23.83,29.45,14.0,13.0,260,2,,6.21,30.236221,,,,,,,,,,,BKN,400,,,,,,,LIFR,,,,,,,,,,,,SPECI,1238.0
FAPN 170800Z AUTO 00000KT //// // ////// 13/12 Q1023,FAPN,2023-05-17T08:00:00Z,-25.33,27.17,13.0,12.0,0,0,,,30.206694,,,TRUE,,,,,,,,,,,,,,,,,,,,,,,,,,,,METAR,1045.0
FAMM 170800Z 04005KT 9999 FEW015 18/12 Q1023 NOSIG,FAMM,2023-05-17T08:00:00Z,-25.8,25.53,18.0,12.0,40,5,,6.21,30.206694,,,,,,TRUE,,,,,FEW,1500,,,,,,,VFR,,,,,,,,,,,,METAR,1280.0
FALE 170800Z VRB02KT CAVOK 25/15 Q1013 NOSIG,FALE,2023-05-17T08:00:00Z,-29.62,31.12,25.0,15.0,0,2,,6.21,29.911417,,,,,,TRUE,,,,,CAVOK,,,,,,,,VFR,,,,,,,,,,,,METAR,109.0
FALA 170800Z 23005KT 210V280 8000 BKN013 14/10 Q1024 BECMG BKN015,FALA,2023-05-17T08:00:00Z,-25.93,27.92,14.0,10.0,230,5,,4.97,30.236221,,,,,,,,,,,BKN,1300,,,,,,,MVFR,,,,,,,,,,,,METAR,1365.0
FAKN 170800Z AUTO 28001KT //// // ////// 21/11 Q1020,FAKN,2023-05-17T08:00:00Z,-25.38,31.1,21.0,11.0,280,1,,,30.11811,,,TRUE,,,,,,,,,,,,,,,,,,,,,,,,,,,,METAR,864.0
FAKM 170800Z 36005KT CAVOK 16/05 Q1021,FAKM,2023-05-17T08:00:00Z,-28.8,24.77,16.0,5.0,360,5,,6.21,30.147638,,,,,,,,,,,CAVOK,,,,,,,,VFR,,,,,,,,,,,,METAR,1203.0
FAJB 170800Z AUTO 32002KT //// // ////// 15/09 Q1024,FAJB,2023-05-17T08:00:00Z,-26.15,28.0,15.0,9.0,320,2,,,30.236221,,,TRUE,,,,,,,,,,,,,,,,,,,,,,,,,,,,METAR,1626.0
FAHS 170800Z AUTO 31008KT //// // ////// 23/15 Q1018,FAHS,2023-05-17T08:00:00Z,-24.37,31.03,23.0,15.0,310,8,,,30.059055,,,TRUE,,,,,,,,,,,,,,,,,,,,,,,,,,,,METAR,532.0
FAGG 170800Z 29014KT 9999 FEW040 17/09 Q1016,FAGG,2023-05-17T08:00:00Z,-34.0,22.37,17.0,9.0,290,14,,6.21,30.0,,,,,,,,,,,FEW,4000,,,,,,,VFR,,,,,,,,,,,,METAR,196.0
FAEL 170800Z 25013KT CAVOK 18/12 Q1014,FAEL,2023-05-17T08:00:00Z,-33.03,27.82,18.0,12.0,250,13,,6.21,29.940945,,,,,,,,,,,CAVOK,,,,,,,,VFR,,,,,,,,,,,,METAR,127.0
FACT 170800Z 01005KT 9999 FEW042 15/13 Q1018 NOSIG,FACT,2023-05-17T08:00:00Z,-33.97,18.6,15.0,13.0,10,5,,6.21,30.059055,,,,,,TRUE,,,,,FEW,4200,,,,,,,VFR,,,,,,,,,,,,METAR,48.0
FABL 170800Z 04003KT CAVOK 13/07 Q1023 NOSIG,FABL,2023-05-17T08:00:00Z,-29.1,26.3,13.0,7.0,40,3,,6.21,30.206694,,,,,,TRUE,,,,,CAVOK,,,,,,,,VFR,,,,,,,,,,,,METAR,1348.0
EIKY 170800Z VRB01KT CAVOK 12/10 Q1030,EIKY,2023-05-17T08:00:00Z,52.18,-9.53,12.0,10.0,0,1,,6.21,30.413385,,,,,,,,,,,CAVOK,,,,,,,,VFR,,,,,,,,,,,,METAR,23.0
DXXX 170800Z VRB03KT 9999 FEW013 29/26 Q1012 NOSIG,DXXX,2023-05-17T08:00:00Z,6.17,1.25,29.0,26.0,0,3,,6.21,29.88189,,,,,,TRUE,,,,,FEW,1300,,,,,,,VFR,,,,,,,,,,,,METAR,22.0
DXNG 170800Z 21007KT CAVOK 27/22 Q1015,DXNG,2023-05-17T08:00:00Z,9.77,1.1,27.0,22.0,210,7,,6.21,29.970472,,,,,,,,,,,CAVOK,,,,,,,,VFR,,,,,,,,,,,,METAR,343.0
DTTZ 170800Z 10018KT CAVOK 22/09 Q1013,DTTZ,2023-05-17T08:00:00Z,33.93,8.1,22.0,9.0,100,18,,6.21,29.911417,,,,,,,,,,,CAVOK,,,,,,,,VFR,,,,,,,,,,,,METAR,87.0
DTTX 170800Z 03006KT 340V070 9999 FEW020 22/07 Q1014,DTTX,2023-05-17T08:00:00Z,34.72,10.68,22.0,7.0,30,6,,6.21,29.940945,,,,,,,,,,,FEW,2000,,,,,,,VFR,,,,,,,,,,,,METAR,17.0
DTTR 170800Z 15017KT CAVOK 24/02 Q1015,DTTR,2023-05-17T08:00:00Z,31.7,9.27,24.0,2.0,150,17,,6.21,29.970472,,,,,,,,,,,CAVOK,,,,,,,,VFR,,,,,,,,,,,,METAR,253.0
DTTN 170800Z ///06KT 9999 SCT020 20/10 Q1015,DTTN,2023-05-17T08:00:00Z,36.47,8.8,20.0,10.0,,,,6.21,29.970472,,,,,,,,,,,SCT,2000,,,,,,,VFR,,,,,,,,,,,,METAR,145.0
DTTL 170800Z 26009KT 200V330 CAVOK 20/12 Q1014,DTTL,2023-05-17T08:00:00Z,36.85,11.07,20.0,12.0,260,9,,6.21,29.940945,,,,,,,,,,,CAVOK,,,,,,,,VFR,,,,,,,,,,,,METAR,18.0
DTTK 170800Z 05002KT 9999 FEW026 22/06 Q1014,DTTK,2023-05-17T08:00:00Z,35.67,10.08,22.0,6.0,50,2,,6.21,29.940945,,,,,,,,,,,FEW,2600,,,,,,,VFR,,,,,,,,,,,,METAR,65.0
DTTG 170800Z 09011KT 9999 FEW030 22/12 Q1014 NOSIG,DTTG,2023-05-17T08:00:00Z,33.73,9.92,22.0,12.0,90,11,,6.21,29.940945,,,,,,TRUE,,,,,FEW,3000,,,,,,,VFR,,,,,,,,,,,,METAR,120.0
DTTF 170800Z 07007KT 010V080 CAVOK 19/09 Q1015,DTTF,2023-05-17T08:00:00Z,34.42,8.82,19.0,9.0,70,7,,6.21,29.970472,,,,,,,,,,,CAVOK,,,,,,,,VFR,,,,,,,,,,,,METAR,314.0
DTTD 170800Z 00000KT CAVOK 26/03 Q1014,DTTD,2023-05-17T08:00:00Z,32.32,10.4,26.0,3.0,0,0,,6.21,29.940945,,,,,,,,,,,CAVOK,,,,,,,,VFR,,,,,,,,,,,,METAR,306.0
DTTB 170800Z 26016KT 9999 SCT020 20/11 Q1013,DTTB,2023-05-17T08:00:00Z,37.25,9.8,20.0,11.0,260,16,,6.21,29.911417,,,,,,,,,,,SCT,2000,,,,,,,VFR,,,,,,,,,,,,METAR,4.0
DTKA 170800Z 26009KT 230V290 9999 SCT020 SCT030 18/13 Q1015 NOSIG,DTKA,2023-05-17T08:00:00Z,36.98,8.88,18.0,13.0,260,9,,6.21,29.970472,,,,,,TRUE,,,,,SCT,2000,SCT,3000,,,,,VFR,,,,,,,,,,,,METAR,70.0
DRZR 170800Z 26015KT 8000 NSC 33/21 Q1012,DRZR,2023-05-17T08:00:00Z,13.77,8.98,33.0,21.0,260,15,,4.97,29.88189,,,,,,,,,,,CLR,,,,,,,,MVFR,,,,,,,,,,,,METAR,457.0
DRZF 170800Z 26013KT 240V300 7000 NSC 36/20 Q1011,DRZF,2023-05-17T08:00:00Z,13.42,12.77,36.0,20.0,260,13,,4.35,29.852362,,,,,,,,,,,CLR,,,,,,,,MVFR,,,,,,,,,,,,METAR,305.0
DRZA 170800Z 04008KT 3900 DU NSC 38/11 Q1011,DRZA,2023-05-17T08:00:00Z,16.97,8.0,38.0,11.0,40,8,,2.42,29.852362,,,,,,,,,,DU,CLR,,,,,,,,IFR,,,,,,,,,,,,METAR,506.0
DRRT 170800Z 22010KT 8000 NSC 34/20 Q1012,DRRT,2023-05-17T08:00:00Z,14.87,5.27,34.0,20.0,220,10,,4.97,29.88189,,,,,,,,,,,CLR,,,,,,,,MVFR,,,,,,,,,,,,METAR,387.0
DRRN 170800Z 25013KT CAVOK 34/19 Q1011 NOSIG,DRRN,2023-05-17T08:00:00Z,13.47,2.17,34.0,19.0,250,13,,6.21,29.852362,,,,,,TRUE,,,,,CAVOK,,,,,,,,VFR,,,,,,,,,,,,METAR,223.0
DRRM 170800Z 26012KT CAVOK 32/22 Q1012,DRRM,2023-05-17T08:00:00Z,13.5,7.12,32.0,22.0,260,12,,6.21,29.88189,,,,,,,,,,,CAVOK,,,,,,,,VFR,,,,,,,,,,,,METAR,374.0
DNZA 170800Z 21012KT CAVOK 28/22 Q1015,DNZA,2023-05-17T08:00:00Z,11.12,7.68,28.0,22.0,210,12,,6.21,29.970472,,,,,,,,,,,CAVOK,,,,,,,,VFR,,,,,,,,,,,,METAR,655.0
DNYO 170800Z 27008KT 9999 FEW013 34/24 Q1012,DNYO,2023-05-17T08:00:00Z,9.27,12.42,34.0,24.0,270,8,,6.21,29.88189,,,,,,,,,,,FEW,1300,,,,,,,VFR,,,,,,,,,,,,METAR,178.0
DNMN 170800Z 20003KT SCT011 29/24 Q1013,DNMN,2023-05-17T08:00:00Z,9.65,6.47,29.0,24.0,200,3,,,29.911417,,,,,,,,,,,SCT,1100,,,,,,,,,,,,,,,,,,,METAR,268.0
DNMM 170800Z 20003KT 8000 SCT013 29/26 Q1013 NOSIG,DNMM,2023-05-17T08:00:00Z,6.57,3.32,29.0,26.0,200,3,,4.97,29.911417,,,,,,TRUE,,,,,SCT,1300,,,,,,,MVFR,,,,,,,,,,,,METAR,27.0
DNKT 170800Z 21017KT CAVOK 32/22 Q1013,DNKT,2023-05-17T08:00:00Z,13.0,7.67,32.0,22.0,210,17,,6.21,29.911417,,,,,,,,,,,CAVOK,,,,,,,,VFR,,,,,,,,,,,,METAR,504.0
DNKN 170800Z 22013KT CAVOK 30/19 Q1014 NOSIG,DNKN,2023-05-17T08:00:00Z,12.05,8.52,30.0,19.0,220,13,,6.21,29.940945,,,,,,TRUE,,,,,CAVOK,,,,,,,,VFR,,,,,,,,,,,,METAR,471.0
DNKA 170800Z 21013KT 9999 BKN010 25/21 Q1016,DNKA,2023-05-17T08:00:00Z,10.58,7.45,25.0,21.0,210,13,,6.21,30.0,,,,,,,,,,,BKN,1000,,,,,,,MVFR,,,,,,,,,,,,METAR,631.0
DNIM 170800Z 25007KT 9999 BKN011 29/26 Q1013,DNIM,2023-05-17T08:00:00Z,5.43,7.2,29.0,26.0,250,7,,6.21,29.911417,,,,,,,,,,,BKN,1100,,,,,,,MVFR,,,,,,,,,,,,METAR,113.0
DNIL 170800Z 22006KT 9999 SCT010 26/24 Q1013,DNIL,2023-05-17T08:00:00Z,8.43,4.48,26.0,24.0,220,6,,6.21,29.911417,,,,,,,,,,,SCT,1000,,,,,,,VFR,,,,,,,,,,,,METAR,341.0
DNIB 170800Z 32004KT 9999 SCT011 27/25 Q1013,DNIB,2023-05-17T08:00:00Z,7.37,3.98,27.0,25.0,320,4,,6.21,29.911417,,,,,,,,,,,SCT,1100,,,,,,,VFR,,,,,,,,,,,,METAR,220.0
DNGO 170800Z 21013KT CAVOK 29/24 Q1012,DNGO,2023-05-17T08:00:00Z,10.3,10.9,29.0,24.0,210,13,,6.21,29.88189,,,,,,,,,,,CAVOK,,,,,,,,VFR,,,,,,,,,,,,METAR,510.0
DNEN 170800Z 26011KT 9999 BKN012 30/25 Q1013 NOSIG,DNEN,2023-05-17T08:00:00Z,6.47,7.55,30.0,25.0,260,11,,6.21,29.911417,,,,,,TRUE,,,,,BKN,1200,,,,,,,MVFR,,,,,,,,,,,,METAR,142.0
DNBE 170800Z 00000KT 9999 SCT010 29/26 Q1013,DNBE,2023-05-17T08:00:00Z,6.32,5.6,29.0,26.0,0,0,,6.21,29.911417,,,,,,,,,,,SCT,1000,,,,,,,VFR,,,,,,,,,,,,METAR,77.0
DNAA 170800Z 26005KT 9999 FEW011 29/24 Q1014 NOSIG,DNAA,2023-05-17T08:00:00Z,9.0,7.27,29.0,24.0,260,5,,6.21,29.940945,,,,,,TRUE,,,,,FEW,1100,,,,,,,VFR,,,,,,,,,,,,METAR,338.0
DIYO 170800Z 24004KT 9999 FEW011 26/24 Q1014 NOSIG,DIYO,2023-05-17T08:00:00Z,6.9,-5.35,26.0,24.0,240,4,,6.21,29.940945,,,,,,TRUE,,,,,FEW,1100,,,,,,,VFR,,,,,,,,,,,,METAR,202.0
DIBK 170800Z 22008KT 8000 FEW011 26/25 Q1014 NOSIG,DIBK,2023-05-17T08:00:00Z,7.73,-5.07,26.0,25.0,220,8,,4.97,29.940945,,,,,,TRUE,,,,,FEW,1100,,,,,,,MVFR,,,,,,,,,,,,METAR,363.0
DGAA 170800Z 25006KT 9999 FEW015 29/26 Q1012 NOSIG,DGAA,2023-05-17T08:00:00Z,5.58,-0.17,29.0,26.0,250,6,,6.21,29.88189,,,,,,TRUE,,,,,FEW,1500,,,,,,,VFR,,,,,,,,,,,,METAR,68.0
DFOO 170800Z 24007KT 210V280 CAVOK 29/23 Q1014,DFOO,2023-05-17T08:00:00Z,11.17,-4.32,29.0,23.0,240,7,,6.21,29.940945,,,,,,,,,,,CAVOK,,,,,,,,VFR,,,,,,,,,,,,METAR,461.0
DFFD 170800Z 21011KT CAVOK 31/24 Q1012 NOSIG,DFFD,2023-05-17T08:00:00Z,12.35,-1.52,31.0,24.0,210,11,,6.21,29.88189,,,,,,TRUE,,,,,CAVOK,,,,,,,,VFR,,,,,,,,,,,,METAR,309.0
DBBB 170800Z VRB02KT 7000 FEW010 29/26 Q1011 NOSIG,DBBB,2023-05-17T08:00:00Z,6.35,2.38,29.0,26.0,0,2,,4.35,29.852362,,,,,,TRUE,,,,,FEW,1000,,,,,,,MVFR,,,,,,,,,,,,METAR,4.0
DAUZ 170800Z 12005KT CAVOK 25/M06 Q1017,DAUZ,2023-05-17T08:00:00Z,28.05,9.63,25.0,-6.0,120,5,,6.21,30.029528,,,,,,,,,,,CAVOK,,,,,,,,VFR,,,,,,,,,,,,METAR,567.0
DAUU 170800Z 18018KT 6000 SCT046 SCT100 27/M02 Q1011,DAUU,2023-05-17T08:00:00Z,31.92,5.4,27.0,-2.0,180,18,,3.73,29.852362,,,,,,,,,,,SCT,4600,SCT,10000,,,,,MVFR,,,,,,,,,,,,METAR,147.0
DAUT 170800Z 18005KT 3000 HZ FEW046 BKN060 28/08 Q1011,DAUT,2023-05-17T08:00:00Z,29.25,0.27,28.0,8.0,180,5,,1.86,29.852362,,,,,,,,,,HZ,FEW,4600,BKN,6000,,,,,IFR,,,,,,,,,,,,METAR,307.0
DAUO 170800Z 12009KT 080V160 CAVOK 22/04 Q1012,DAUO,2023-05-17T08:00:00Z,33.5,6.78,22.0,4.0,120,9,,6.21,29.88189,,,,,,,,,,,CAVOK,,,,,,,,VFR,,,,,,,,,,,,METAR,55.0
DAUL 170800Z 09012KT 8000 SCT033 BKN080 18/08 Q1013,DAUL,2023-05-17T08:00:00Z,33.77,2.92,18.0,8.0,90,12,,4.97,29.911417,,,,,,,,,,,SCT,3300,BKN,8000,,,,,MVFR,,,,,,,,,,,,METAR,755.0
DAUK 170800Z 22005KT 9999 SCT040 SCT100 26/01 Q1012,DAUK,2023-05-17T08:00:00Z,33.08,6.08,26.0,1.0,220,5,,6.21,29.88189,,,,,,,,,,,SCT,4000,SCT,10000,,,,,VFR,,,,,,,,,,,,METAR,83.0
DAUI 170800Z 08005KT CAVOK 28/M07 Q1012,DAUI,2023-05-17T08:00:00Z,27.25,2.52,28.0,-7.0,80,5,,6.21,29.88189,,,,,,,,,,,CAVOK,,,,,,,,VFR,,,,,,,,,,,,METAR,271.0
DAUE 170800Z 30020KT 2000 DRSA NSC 27/06 Q1013,DAUE,2023-05-17T08:00:00Z,30.57,2.87,27.0,6.0,300,20,,1.24,29.911417,,,,,,,,,,DRSA,CLR,,,,,,,,IFR,,,,,,,,,,,,METAR,396.0
DATM 170800Z 03006KT CAVOK 27/// Q1012,DATM,2023-05-17T08:00:00Z,21.38,0.92,,,30,6,,6.21,29.88189,,,,,,,,,,,CAVOK,,,,,,,,VFR,,,,,,,,,,,,SPECI,398.0
DAOY 170800Z 13014KT 9999 BKN030 SCT233 16/00 Q1011,DAOY,2023-05-17T08:00:00Z,33.72,1.08,16.0,0.0,130,14,,6.21,29.852362,,,,,,,,,,,BKN,3000,SCT,23300,,,,,MVFR,,,,,,,,,,,,METAR,1340.0
DAOV 170800Z 36004KT 9999 FEW016 BKN030 16/01 Q1011,DAOV,2023-05-17T08:00:00Z,35.2,0.15,16.0,1.0,360,4,,6.21,29.852362,,,,,,,,,,,FEW,1600,BKN,3000,,,,,MVFR,,,,,,,,,,,,METAR,506.0
DAOR 170800Z 23023KT 2000 DRDU NSC 22/06 Q1008,DAOR,2023-05-17T08:00:00Z,31.65,-2.27,22.0,6.0,230,23,,1.24,29.763779,,,,,,,,,,DRDU,CLR,,,,,,,,IFR,,,,,,,,,,,,METAR,809.0
DAOL 170800Z 09008KT 9999 SCT026 BKN100 17/07 Q1011,DAOL,2023-05-17T08:00:00Z,35.53,-0.52,17.0,7.0,90,8,,6.21,29.852362,,,,,,,,,,,SCT,2600,BKN,10000,,,,,VFR,,,,,,,,,,,,METAR,103.0
DAOF 170800Z 30015KT 8000 NSC 18/09 Q1012,DAOF,2023-05-17T08:00:00Z,27.7,-8.17,18.0,9.0,300,15,,4.97,29.88189,,,,,,,,,,,CLR,,,,,,,,MVFR,,,,,,,,,,,,METAR,441.0
DAFH 170800Z 10011KT 9999 SCT040 SCT080 20/M00 Q1013,DAFH,2023-05-17T08:00:00Z,32.93,3.32,20.0,0.0,100,11,,6.21,29.911417,,,,,,,,,,,SCT,4000,SCT,8000,,,,,VFR,,,,,,,,,,,,METAR,774.0
DABT 170800Z VRB02KT 9999 FEW023 SCT200 15/08 Q1016,DABT,2023-05-17T08:00:00Z,35.75,6.32,15.0,8.0,0,2,,6.21,30.0,,,,,,,,,,,FEW,2300,SCT,20000,,,,,VFR,,,,,,,,,,,,METAR,813.0
DAAY 170800Z 22005KT 6000 -TSRA FEW026CB SCT030 BKN033 13/12 Q1013,DAAY,2023-05-17T08:00:00Z,33.53,-0.25,13.0,12.0,220,5,,3.73,29.911417,,,,,,,,,,-TSRA,FEW,2600,SCT,3000,BKN,3300,,,MVFR,,,,,,,,,,,,METAR,1116.0
DAAV 170800Z VRB02KT 9999 FEW020 SCT200 20/07 Q1014,DAAV,2023-05-17T08:00:00Z,36.8,5.88,20.0,7.0,0,2,,6.21,29.940945,,,,,,,,,,,FEW,2000,SCT,20000,,,,,VFR,,,,,,,,,,,,METAR,11.0
DAAS 170800Z 10006KT CAVOK 14/05 Q1016,DAAS,2023-05-17T08:00:00Z,36.18,5.33,14.0,5.0,100,6,,6.21,30.0,,,,,,,,,,,CAVOK,,,,,,,,VFR,,,,,,,,,,,,METAR,1012.0
DAAP 170800Z 14008KT CAVOK 28/M06 Q1016,DAAP,2023-05-17T08:00:00Z,26.72,8.62,28.0,-6.0,140,8,,6.21,30.0,,,,,,,,,,,CAVOK,,,,,,,,VFR,,,,,,,,,,,,METAR,542.0
DAAJ 170800Z 23003KT 8000 NSC 25/M08 Q1018,DAAJ,2023-05-17T08:00:00Z,24.28,9.47,25.0,-8.0,230,3,,4.97,30.059055,,,,,,,,,,,CLR,,,,,,,,MVFR,,,,,,,,,,,,METAR,962.0
DAAE 170800Z 25004KT CAVOK 18/10 Q1014,DAAE,2023-05-17T08:00:00Z,36.72,5.07,18.0,10.0,250,4,,6.21,29.940945,,,,,,,,,,,CAVOK,,,,,,,,VFR,,,,,,,,,,,,METAR,1.0
DAAD 170800Z 09004KT 9000 FEW030 SCT200 18/05 Q1015,DAAD,2023-05-17T08:00:00Z,35.32,4.2,18.0,5.0,90,4,,5.59,29.970472,,,,,,,,,,,FEW,3000,SCT,20000,,,,,VFR,,,,,,,,,,,,METAR,461.0
CZZJ 170800Z AUTO 27003KT 06/01 RMK AO1 SLP242 T00610014 50001,CZZJ,2023-05-17T08:00:00Z,53.58,-116.47,6.1,1.4,270,3,,,,1024.2,,TRUE,TRUE,,,,,,,,,,,,,,,,0.1,,,,,,,,,,,METAR,927.0
CZVL 170800Z AUTO 29007KT 4SM HZ CLR 09/02 A3016 RMK SLP222,CZVL,2023-05-17T08:00:00Z,53.67,-113.85,9.0,2.0,290,7,,4.0,30.159449,1022.2,,TRUE,,,,,,,HZ,CLR,,,,,,,,MVFR,,,,,,,,,,,,METAR,685.0
CZUM 170800Z AUTO 33009KT 9SM CLR M04/M05 A2948 RMK SLP008,CZUM,2023-05-17T08:00:00Z,53.55,-64.1,-4.0,-5.0,330,9,,9.0,29.480314,1000.8,,TRUE,,,,,,,,CLR,,,,,,,,VFR,,,,,,,,,,,,SPECI,431.0
CZTB 170800Z AUTO 10004KT 03/M01 RMK AO1 SLP200 T00271008 53011,CZTB,2023-05-17T08:00:00Z,48.37,-89.32,2.7,-0.8,100,4,,,,1020.0,,TRUE,TRUE,,,,,,,,,,,,,,,,1.1,,,,,,,,,,,METAR,197.0
CZSP 170800Z AUTO 35009KT 04/03 RMK AO1 SLP970 T00390032 52008,CZSP,2023-05-17T08:00:00Z,46.45,-62.58,3.9,3.2,350,9,,,,997.0,,TRUE,TRUE,,,,,,,,,,,,,,,,0.8,,,,,,,,,,,METAR,31.0
CZSM 170800Z AUTO 36003KT 04/02 RMK AO1 SLP233 T00350022 51006,CZSM,2023-05-17T08:00:00Z,60.03,-111.93,3.5,2.2,360,3,,,,1023.3,,TRUE,TRUE,,,,,,,,,,,,,,,,0.6,,,,,,,,,,,SPECI,203.0
CZSJ 170800Z AUTO 12007KT 9SM SCT096 OVC120 07/M03 A2996 RMK SLP156,CZSJ,2023-05-17T08:00:00Z,53.07,-93.35,7.0,-3.0,120,7,,9.0,29.958662,1015.6,,TRUE,,,,,,,,SCT,9600,OVC,12000,,,,,VFR,,,,,,,,,,,,METAR,286.0
CZPS 170800Z AUTO 03005KT 09/M00 RMK AO1 T00851002,CZPS,2023-05-17T08:00:00Z,52.43,-113.6,8.5,-0.2,30,5,,,,,,TRUE,TRUE,,,,,,,,,,,,,,,,,,,,,,,,,,,METAR,953.0
CZPC 170800Z AUTO 26007KT 1 3/4SM BR OVC066 07/05 A3020 RMK SLP225,CZPC,2023-05-17T08:00:00Z,49.52,-114.0,7.0,5.0,260,7,,1.75,30.200787,1022.5,,TRUE,,,,,,,BR,OVC,6600,,,,,,,IFR,,,,,,,,,,,,SPECI,1187.0
CZOL 170800Z AUTO 29001KT 03/03 RMK AO1 T00310031,CZOL,2023-05-17T08:00:00Z,53.65,-113.35,3.1,3.1,290,1,,,,,,TRUE,TRUE,,,,,,,,,,,,,,,,,,,,,,,,,,,METAR,645.0
CZMJ 170800Z AUTO 35018G25KT 12/01 RMK AO1 PK WND 01032/0704 SLP148 T01230007 51026,CZMJ,2023-05-17T08:00:00Z,50.33,-105.53,12.3,0.7,350,18,25,,,1014.8,,TRUE,TRUE,,,,,,,,,,,,,,,,2.6,,,,,,,,,,,METAR,571.0
CZMD 170800Z AUTO 11005KT 080V180 9SM FEW096 OVC130 04/M04 A3002 RMK SLP179,CZMD,2023-05-17T08:00:00Z,53.43,-91.77,4.0,-4.0,110,5,,9.0,30.02067,1017.9,,TRUE,,,,,,,,FEW,9600,OVC,13000,,,,,VFR,,,,,,,,,,,,METAR,276.0
CZKD 170800Z AUTO 09011KT 04/M00 RMK AO1 8PAST HR 6023 PK WND 10018/0722 SLP141 P0003 T00371003 50008,CZKD,2023-05-17T08:00:00Z,56.03,-96.52,3.7,-0.3,90,11,,,,1014.1,,TRUE,TRUE,,,,,,,,,,,,,,,,0.8,,,,,0.03,,,,,,METAR,190.0
CZHY 170800Z AUTO 10001KT 05/03 RMK AO1 SLP239 T00480031 53005,CZHY,2023-05-17T08:00:00Z,60.83,-115.78,4.8,3.1,100,1,,,,1023.9,,TRUE,TRUE,,,,,,,,,,,,,,,,0.5,,,,,,,,,,,SPECI,159.0
CZFS 170800Z AUTO 12003KT 11/01 RMK AO1 SLP212 T01110013 52003,CZFS,2023-05-17T08:00:00Z,61.77,-121.23,11.1,1.3,120,3,,,,1021.2,,TRUE,TRUE,,,,,,,,,,,,,,,,0.3,,,,,,,,,,,SPECI,174.0
CZEV 170800Z AUTO 03008KT M01/M03 RMK AO1 SLP216 T10101031 58010,CZEV,2023-05-17T08:00:00Z,68.32,-133.48,-1.0,-3.1,30,8,,,,1021.6,,TRUE,TRUE,,,,,,,,,,,,,,,,-1.0,,,,,,,,,,,SPECI,92.0
CZEL 170800Z AUTO 03005KT M00/M02 RMK AO1 SLP122 T10031015 53014,CZEL,2023-05-17T08:00:00Z,43.65,-80.42,-0.3,-1.5,30,5,,,,1012.2,,TRUE,TRUE,,,,,,,,,,,,,,,,1.4,,,,,,,,,,,METAR,370.0
CZDB 170800Z AUTO 01006KT 06/05 RMK AO1 SLP971 T00640049 53005,CZDB,2023-05-17T08:00:00Z,45.42,-63.47,6.4,4.9,10,6,,,,997.1,,TRUE,TRUE,,,,,,,,,,,,,,,,0.5,,,,,,,,,,,METAR,38.0
CZCR 170800Z AUTO 22004KT M01/M03 RMK AO1 SLP994 T10121032 52006,CZCR,2023-05-17T08:00:00Z,47.98,-66.33,-1.2,-3.2,220,4,,,,999.4,,TRUE,TRUE,,,,,,,,,,,,,,,,0.6,,,,,,,,,,,METAR,39.0
CZCP 170800Z AUTO 06012G17KT ////SM ////// M03/M04 A3022,CZCP,2023-05-17T08:00:00Z,70.17,-124.68,-3.0,-4.0,60,12,17,,30.221457,,,TRUE,,,,,,,,,,,,,,,,,,,,,,,,,,,,SPECI,23.0
CZBF 170800Z AUTO 00000KT 9SM CLR 00/M00 A2951 RMK SLP996,CZBF,2023-05-17T08:00:00Z,47.62,-65.75,0.0,0.0,0,0,,9.0,29.509842,999.6,,TRUE,,,,,,,,CLR,,,,,,,,VFR,,,,,,,,,,,,METAR,60.0
CYZY 170800Z AUTO 00000KT 7SM CLR 07/04 A3015 RMK SLP223,CYZY,2023-05-17T08:00:00Z,55.3,-123.13,7.0,4.0,0,0,,7.0,30.15059,1022.3,,TRUE,,,,,,,,CLR,,,,,,,,VFR,,,,,,,,,,,,METAR,694.0
CYZX 170800Z 05005KT 10SM OVC010 07/05 A2947 RMK SF8 DENSITY ALT -281FT SLP979,CYZX,2023-05-17T08:00:00Z,44.98,-64.92,7.0,5.0,50,5,,10.0,29.471457,997.9,,,,,,,,,,OVC,1000,,,,,,,MVFR,,,,,,,,,,,,METAR,28.0
CYZV 170800Z 33004KT 15SM BKN100 BKN250 M00/M07 A2954 RMK AC6CI1 SLP009,CYZV,2023-05-17T08:00:00Z,50.22,-66.27,0.0,-7.0,330,4,,15.0,29.53937,1000.9,,,,,,,,,,BKN,10000,BKN,25000,,,,,VFR,,,,,,,,,,,,METAR,43.0
CYZT 170800Z 25002KT 2SM BR OVC003 11/11 A3011 RMK ST8 SLP198,CYZT,2023-05-17T08:00:00Z,50.68,-127.37,11.0,11.0,250,2,,2.0,30.109253,1019.8,,,,,,,,,BR,OVC,300,,,,,,,LIFR,,,,,,,,,,,,SPECI,13.0
CYZS 170800Z 34015KT 15SM FEW025 FEW150 M07/M10 A2996 RMK SC1AC1 SC TR AC TR SLP154,CYZS,2023-05-17T08:00:00Z,64.2,-83.35,-7.0,-10.0,340,15,,15.0,29.958662,1015.4,,,,,,,,,,FEW,2500,FEW,15000,,,,,VFR,,,,,,,,,,,,SPECI,60.0
CYZR 170800Z AUTO 05005KT 9SM CLR 04/M00 A2990 RMK SLP129,CYZR,2023-05-17T08:00:00Z,43.0,-82.3,4.0,0.0,50,5,,9.0,29.899607,1012.9,,TRUE,,,,,,,,CLR,,,,,,,,VFR,,,,,,,,,,,,SPECI,181.0
CYZP 170800Z AUTO VRB02KT 1/4SM FG VV002 08/08 A3010 RMK SLP196,CYZP,2023-05-17T08:00:00Z,53.25,-131.82,8.0,8.0,0,2,,0.25,30.100393,1019.6,,TRUE,,,,,,,FG,OVX,0,,,,,,,LIFR,,,,,,,,,,,200,SPECI,7.0
CYZH 170800Z AUTO 25004KT 9SM CLR 07/02 A3016 RMK SLP228,CYZH,2023-05-17T08:00:00Z,55.28,-114.77,7.0,2.0,250,4,,9.0,30.159449,1022.8,,TRUE,,,,,,,,CLR,,,,,,,,VFR,,,,,,,,,,,,SPECI,583.0
CYZF 170800Z 15007KT 15SM FEW240 04/01 A3021 RMK CI2 SLP241,CYZF,2023-05-17T08:00:00Z,62.47,-114.45,4.0,1.0,150,7,,15.0,30.209646,1024.1,,,,,,,,,,FEW,24000,,,,,,,VFR,,,,,,,,,,,,METAR,202.0
CYZE 170800Z AUTO 05012G22KT 9SM OVC029 01/M06 A3001 RMK SLP169,CYZE,2023-05-17T08:00:00Z,45.88,-82.57,1.0,-6.0,50,12,22,9.0,30.008858,1016.9,,TRUE,,,,,,,,OVC,2900,,,,,,,MVFR,,,,,,,,,,,,SPECI,189.0
CYYY 170800Z 01009KT 30SM BKN070 03/M06 A2959 RMK AC7 SLP024,CYYY,2023-05-17T08:00:00Z,48.6,-68.22,3.0,-6.0,10,9,,30.0,29.589567,1002.4,,,,,,,,,,BKN,7000,,,,,,,VFR,,,,,,,,,,,,SPECI,43.0
CYYW 170800Z AUTO 00000KT 9SM CLR M04/M05 A3008 RMK SLP199,CYYW,2023-05-17T08:00:00Z,50.3,-88.9,-4.0,-5.0,0,0,,9.0,30.079725,1019.9,,TRUE,,,,,,,,CLR,,,,,,,,VFR,,,,,,,,,,,,METAR,320.0
CYYU 170800Z 32005KT 15SM OVC039 M02/M05 A3007 RMK SC8 SLP198,CYYU,2023-05-17T08:00:00Z,49.42,-82.47,-2.0,-5.0,320,5,,15.0,30.070866,1019.8,,,,,,,,,,OVC,3900,,,,,,,VFR,,,,,,,,,,,,SPECI,228.0
CYYT 170800Z 19011G16KT 15SM BKN085 OVC160 07/05 A2952 RMK AC6AC2 SLP000,CYYT,2023-05-17T08:00:00Z,47.62,-52.73,7.0,5.0,190,11,16,15.0,29.518702,1000.0,,,,,,,,,,BKN,8500,OVC,16000,,,,,VFR,,,,,,,,,,,,METAR,128.0
CYYR 170800Z 26004KT 15SM FEW006 FEW026 SCT055 BKN260 M01/M02 A2949 RMK SF1SC1SC3CI1 DENSITY ALT -1154FT BR IN RIVER VLY W-NW SLP989,CYYR,2023-05-17T08:00:00Z,53.32,-60.42,-1.0,-2.0,260,4,,15.0,29.489174,998.9,,,,,,,,,,FEW,600,FEW,2600,SCT,5500,BKN,26000,VFR,,,,,,,,,,,,METAR,42.0
CYYQ 170800Z 11008KT 15SM OVC140 M01/M03 A3015 RMK AC8 SLP215,CYYQ,2023-05-17T08:00:00Z,58.75,-94.07,-1.0,-3.0,110,8,,15.0,30.15059,1021.5,,,,,,,,,,OVC,14000,,,,,,,VFR,,,,,,,,,,,,METAR,20.0
CYYJ 170800Z 00000KT 20SM FEW160 FEW250 13/12 A3003 RMK AC1CI1 SLP170,CYYJ,2023-05-17T08:00:00Z,48.63,-123.42,13.0,12.0,0,0,,20.0,30.029528,1017.0,,,,,,,,,,FEW,16000,FEW,25000,,,,,VFR,,,,,,,,,,,,METAR,16.0
CYYH 170800Z 32029G35KT 15SM FEW004 SCT010 BKN055 BKN110 M02/M04 A2979 RMK ST1SC2SC3AC1 SLP094,CYYH,2023-05-17T08:00:00Z,69.53,-93.57,-2.0,-4.0,320,29,35,15.0,29.790354,1009.4,,,,,,,,,,FEW,400,SCT,1000,BKN,5500,BKN,11000,VFR,,,,,,,,,,,,SPECI,19.0
CYYG 170800Z 36005KT 15SM OVC007 04/03 A2945 RMK SF8 SLP975,CYYG,2023-05-17T08:00:00Z,46.28,-63.12,4.0,3.0,360,5,,15.0,29.450787,997.5,,,,,,,,,,OVC,700,,,,,,,IFR,,,,,,,,,,,,SPECI,48.0
CYYF 170800Z VRB02KT 15SM BKN130 16/12 A3002 RMK AC5 SLP162 DENSITY ALT 1500FT,CYYF,2023-05-17T08:00:00Z,49.47,-119.6,16.0,12.0,0,2,,15.0,30.02067,1016.2,,,,,,,,,,BKN,13000,,,,,,,VFR,,,,,,,,,,,,SPECI,342.0
CYYE 170800Z VRB02KT 15SM SKC 09/03 A3013 RMK SLP215,CYYE,2023-05-17T08:00:00Z,58.83,-122.58,9.0,3.0,0,2,,15.0,30.129921,1021.5,,,,,,,,,,SKC,,,,,,,,VFR,,,,,,,,,,,,SPECI,379.0
CYYD 170800Z AUTO VRB03KT 9SM CLR 12/06 A3010 RMK SLP196,CYYD,2023-05-17T08:00:00Z,54.82,-127.18,12.0,6.0,0,3,,9.0,30.100393,1019.6,,TRUE,,,,,,,,CLR,,,,,,,,VFR,,,,,,,,,,,,SPECI,527.0
CYYC 170800Z 31004KT 3SM FU OVC075 13/M01 A3019 RMK FG6AC2 SLP229 DENSITY ALT 3900FT,CYYC,2023-05-17T08:00:00Z,51.12,-114.02,13.0,-1.0,310,4,,3.0,30.188976,1022.9,,,,,,,,,FU,OVC,7500,,,,,,,MVFR,,,,,,,,,,,,METAR,1085.0
CYXY 170800Z 17010G16KT 20SM SKC 14/M05 A3006 RMK SLP193 DENSITY ALT 2600FT,CYXY,2023-05-17T08:00:00Z,60.72,-135.07,14.0,-5.0,170,10,16,20.0,30.059055,1019.3,,,,,,,,,,SKC,,,,,,,,VFR,,,,,,,,,,,,METAR,677.0
CYXX 170800Z 33003KT 270V350 15SM FEW180 SCT200 15/12 A3004 RMK AC2CI3 SLP175,CYXX,2023-05-17T08:00:00Z,49.03,-122.38,15.0,12.0,330,3,,15.0,30.041338,1017.5,,,,,,,,,,FEW,18000,SCT,20000,,,,,VFR,,,,,,,,,,,,METAR,54.0
CYXT 170800Z 00000KT 20SM SKC 15/04 A3012 RMK VIA CYXY SLP202,CYXT,2023-05-17T08:00:00Z,54.47,-128.57,15.0,4.0,0,0,,20.0,30.121063,1020.2,,,,,,,,,,SKC,,,,,,,,VFR,,,,,,,,,,,,SPECI,213.0
CYXS 170800Z AUTO 00000KT 2 1/2SM HZ OVC055 08/04 A3009 RMK SLP200,CYXS,2023-05-17T08:00:00Z,53.88,-122.68,8.0,4.0,0,0,,2.5,30.088583,1020.0,,TRUE,,,,,,,HZ,OVC,5500,,,,,,,IFR,,,,,,,,,,,,SPECI,685.0
CYXL 170800Z CCA 15003KT 15SM BKN110 04/M03 A3000 RMK AC5 SLP174,CYXL,2023-05-17T08:00:00Z,50.12,-91.9,4.0,-3.0,150,3,,15.0,30.0,1017.4,,,,,,,,,,BKN,11000,,,,,,,VFR,,,,,,,,,,,,SPECI,381.0
CYXJ 170800Z 02003KT 3SM FU BKN061 OVC070 12/04 A3016 RMK FU6AC2 SLP225,CYXJ,2023-05-17T08:00:00Z,56.25,-120.73,12.0,4.0,20,3,,3.0,30.159449,1022.5,,,,,,,,,FU,BKN,6100,OVC,7000,,,,,MVFR,,,,,,,,,,,,SPECI,700.0
CYXH 170800Z AUTO 31008KT 9SM FEW096 12/02 A3009 RMK SLP184,CYXH,2023-05-17T08:00:00Z,50.02,-110.72,12.0,2.0,310,8,,9.0,30.088583,1018.4,,TRUE,,,,,,,,FEW,9600,,,,,,,VFR,,,,,,,,,,,,METAR,717.0
CYXE 170800Z 27008KT 3SM FU SKC 05/02 A2999 RMK FU4 SLP163,CYXE,2023-05-17T08:00:00Z,52.17,-106.7,5.0,2.0,270,8,,3.0,29.991142,1016.3,,,,,,,,,FU,SKC,,,,,,,,MVFR,,,,,,,,,,,,METAR,504.0
CYXC 170800Z 27003KT 250V330 15SM FEW050 SCT090 BKN130 14/11 A3013 RMK SC2AC2AC3 SLP198 DENSITY ALT 3500FT,CYXC,2023-05-17T08:00:00Z,49.6,-115.78,14.0,11.0,270,3,,15.0,30.129921,1019.8,,,,,,,,,,FEW,5000,SCT,9000,BKN,13000,,,VFR,,,,,,,,,,,,METAR,928.0
CYWL 170800Z 29007KT 5SM FU SKC 15/06 A3009 RMK FU5 SLP183 DENSITY ALT 3600FT,CYWL,2023-05-17T08:00:00Z,52.18,-122.07,15.0,6.0,290,7,,5.0,30.088583,1018.3,,,,,,,,,FU,SKC,,,,,,,,MVFR,,,,,,,,,,,,METAR,942.0
CYWK 170800Z AUTO 34005KT 9SM -SN BKN045 OVC060 M04/M07 A2951 RMK SLP025,CYWK,2023-05-17T08:00:00Z,52.92,-66.87,-4.0,-7.0,340,5,,9.0,29.509842,1002.5,,TRUE,,,,,,,-SN,BKN,4500,OVC,6000,,,,,VFR,,,,,,,,,,,,METAR,547.0
CYWG 170800Z 17013KT 15SM FEW250 14/04 A2985 RMK CI2 SLP112 DENSITY ALT 1000FT,CYWG,2023-05-17T08:00:00Z,49.9,-97.23,14.0,4.0,170,13,,15.0,29.84941,1011.2,,,,,,,,,,FEW,25000,,,,,,,VFR,,,,,,,,,,,,METAR,238.0
CYWE 170800Z AUTO 26002KT 9SM CLR 10/01 A3015 RMK ICE MISG SLP226,CYWE,2023-05-17T08:00:00Z,64.18,-114.08,10.0,1.0,260,2,,9.0,30.15059,1022.6,,TRUE,,,,,,,,CLR,,,,,,,,VFR,,,,,,,,,,,,METAR,374.0
CYVV 170800Z 03008KT 320V060 15SM BKN024 02/M03 A2995 RMK SC6 SLP150,CYVV,2023-05-17T08:00:00Z,44.75,-81.1,2.0,-3.0,30,8,,15.0,29.949802,1015.0,,,,,,,,,,BKN,2400,,,,,,,MVFR,,,,,,,,,,,,METAR,221.0
CYVR 170800Z 11008KT 20SM FEW170 BKN220 15/13 A3003 RMK AC1CI4 SLP173,CYVR,2023-05-17T08:00:00Z,49.17,-123.17,15.0,13.0,110,8,,20.0,30.029528,1017.3,,,,,,,,,,FEW,17000,BKN,22000,,,,,VFR,,,,,,,,,,,,METAR,2.0
CYVQ 170800Z 30004KT 30SM FEW200 09/M01 A3001 RMK CI1 CI TR SLP168,CYVQ,2023-05-17T08:00:00Z,65.27,-126.78,9.0,-1.0,300,4,,30.0,30.008858,1016.8,,,,,,,,,,FEW,20000,,,,,,,VFR,,,,,,,,,,,,METAR,63.0
CYVM 170800Z AUTO 20010KT 9SM CLR M11/M14 A2966 RMK SLP046,CYVM,2023-05-17T08:00:00Z,67.55,-64.02,-11.0,-14.0,200,10,,9.0,29.660433,1004.6,,TRUE,,,,,,,,CLR,,,,,,,,VFR,,,,,,,,,,,,METAR,3.0
CYVL 170800Z AUTO 35008KT 9SM CLR 06/02 A3003 RMK SLP182,CYVL,2023-05-17T08:00:00Z,67.02,-126.13,6.0,2.0,350,8,,9.0,30.029528,1018.2,,TRUE,,,,,,,,CLR,,,,,,,,VFR,,,,,,,,,,,,METAR,261.0
CYVC 170800Z 32013G20KT 6SM FU OVC024 06/01 A2991 RMK SC8 SLP142,CYVC,2023-05-17T08:00:00Z,55.15,-105.27,6.0,1.0,320,13,20,6.0,29.911417,1014.2,,,,,,,,,FU,OVC,2400,,,,,,,MVFR,,,,,,,,,,,,METAR,378.0
CYUY 170800Z 35012G18KT 15SM -SN SCT024 BKN037 OVC048 M03/M09 A2997 RMK SC3SC2SC3 SLP169,CYUY,2023-05-17T08:00:00Z,48.2,-78.82,-3.0,-9.0,350,12,18,15.0,29.970472,1016.9,,,,,,,,,-SN,SCT,2400,BKN,3700,OVC,4800,,,VFR,,,,,,,,,,,,METAR,304.0
CYUX 170800Z AUTO 28017KT 9SM OVC015 01/01 A2965 RMK PRESFR SLP043,CYUX,2023-05-17T08:00:00Z,68.77,-81.22,1.0,1.0,280,17,,9.0,29.648623,1004.3,,TRUE,,,,,,,,OVC,1500,,,,,,,MVFR,,,,,,,,,,,,METAR,8.0
CYUA 170800Z AUTO 06011KT ////SM OVC009 ///// A////,CYUA,2023-05-17T08:00:00Z,68.92,-137.23,,,60,11,,,,,,TRUE,,,,,,,,OVC,900,,,,,,,,,,,,,,,,,,,METAR,25.0
CYTZ 170800Z AUTO 01008KT 330V040 9SM SCT031 05/M01 A2989 RMK SLP124,CYTZ,2023-05-17T08:00:00Z,43.63,-79.4,5.0,-1.0,10,8,,9.0,29.890747,1012.4,,TRUE,,,,,,,,SCT,3100,,,,,,,VFR,,,,,,,,,,,,METAR,76.0
CYTS 170800Z 32004KT 15SM OVC049 M02/M05 A3004 RMK SC8 SLP193,CYTS,2023-05-17T08:00:00Z,48.57,-81.37,-2.0,-5.0,320,4,,15.0,30.041338,1019.3,,,,,,,,,,OVC,4900,,,,,,,VFR,,,,,,,,,,,,METAR,290.0
CYTR 170800Z 36007KT 15SM SKC 01/M03 A2987 RMK DENSITY ALT -1245FT SLP117,CYTR,2023-05-17T08:00:00Z,44.12,-77.52,1.0,-3.0,360,7,,15.0,29.870079,1011.7,,,,,,,,,,SKC,,,,,,,,VFR,,,,,,,,,,,,METAR,80.0
CYTL 170800Z AUTO 15003KT 9SM CLR M01/M03 A3008 RMK SLP203,CYTL,2023-05-17T08:00:00Z,53.82,-89.88,-1.0,-3.0,150,3,,9.0,30.079725,1020.3,,TRUE,,,,,,,,CLR,,,,,,,,VFR,,,,,,,,,,,,METAR,218.0
CYTE 170800Z AUTO 28010KT 9SM CLR M06/M07 A2988 RMK SLP124,CYTE,2023-05-17T08:00:00Z,64.22,-76.52,-6.0,-7.0,280,10,,9.0,29.878937,1012.4,,TRUE,,,,,,,,CLR,,,,,,,,VFR,,,,,,,,,,,,METAR,49.0
CYSM 170800Z 34003KT 310V020 15SM SKC 04/02 A3017 RMK SLP230,CYSM,2023-05-17T08:00:00Z,60.03,-111.92,4.0,2.0,340,3,,15.0,30.171259,1023.0,,,,,,,,,,SKC,,,,,,,,VFR,,,,,,,,,,,,METAR,203.0
CYSF 170800Z AUTO 03006KT 9SM OVC015 02/01 A3003 RMK SLP187,CYSF,2023-05-17T08:00:00Z,59.25,-105.83,2.0,1.0,30,6,,9.0,30.029528,1018.7,,TRUE,,,,,,,,OVC,1500,,,,,,,MVFR,,,,,,,,,,,,METAR,238.0
CYSC 170800Z AUTO 35004KT 280V010 9SM BKN039 OVC076 02/M02 A2967 RMK SLP056,CYSC,2023-05-17T08:00:00Z,45.43,-71.68,2.0,-2.0,350,4,,9.0,29.66929,1005.6,,TRUE,,,,,,,,BKN,3900,OVC,7600,,,,,VFR,,,,,,,,,,,,METAR,236.0
CYSB 170800Z 36013G20KT 15SM BKN025 M01/M07 A2998 RMK SC6 SLP166,CYSB,2023-05-17T08:00:00Z,46.63,-80.8,-1.0,-7.0,360,13,20,15.0,29.97933,1016.6,,,,,,,,,,BKN,2500,,,,,,,MVFR,,,,,,,,,,,,METAR,349.0
CYRV 170800Z AUTO 00000KT 9SM FEW140 13/09 A3001 RMK SLP163,CYRV,2023-05-17T08:00:00Z,50.97,-118.17,13.0,9.0,0,0,,9.0,30.008858,1016.3,,TRUE,,,,,,,,FEW,14000,,,,,,,VFR,,,,,,,,,,,,METAR,456.0
CYRT 170800Z 26006KT 15SM FEW210 M02/M04 A3014 RMK CI2 SLP212,CYRT,2023-05-17T08:00:00Z,62.82,-92.12,-2.0,-4.0,260,6,,15.0,30.138779,1021.2,,,,,,,,,,FEW,21000,,,,,,,VFR,,,,,,,,,,,,METAR,29.0
CYRQ 170800Z AUTO 33003KT 280V010 9SM FEW071 BKN120 OVC140 01/M05 A2973 RMK ICE MISG SLP072,CYRQ,2023-05-17T08:00:00Z,46.35,-72.68,1.0,-5.0,330,3,,9.0,29.731298,1007.2,,TRUE,,,,,,,,FEW,7100,BKN,12000,OVC,14000,,,VFR,,,,,,,,,,,,METAR,58.0
CYRB 170800Z 30016G23KT 3/4SM R35/P6000FT/N -SN BR BKN008 OVC018 M05/M06 A2952 RMK ST6SC2 SLP006,CYRB,2023-05-17T08:00:00Z,74.72,-94.97,-5.0,-6.0,300,16,23,0.75,29.518702,1000.6,,,,,,,,,-SN BR,BKN,800,OVC,1800,,,,,LIFR,,,,,,,,,,,,METAR,59.0
CYQZ 170800Z AUTO 01005KT 2SM HZ OVC041 14/07 A3007 RMK SLP187,CYQZ,2023-05-17T08:00:00Z,53.02,-122.52,14.0,7.0,10,5,,2.0,30.070866,1018.7,,TRUE,,,,,,,HZ,OVC,4100,,,,,,,IFR,,,,,,,,,,,,METAR,548.0
CYQU 170800Z 34003KT 4SM FU SKC 07/04 A3018 RMK FU6 SLP234,CYQU,2023-05-17T08:00:00Z,55.18,-118.88,7.0,4.0,340,3,,4.0,30.180119,1023.4,,,,,,,,,FU,SKC,,,,,,,,MVFR,,,,,,,,,,,,METAR,668.0
CYQT 170800Z 09007KT 15SM SKC 02/M02 A3010 RMK SLP200,CYQT,2023-05-17T08:00:00Z,48.37,-89.32,2.0,-2.0,90,7,,15.0,30.100393,1020.0,,,,,,,,,,SKC,,,,,,,,VFR,,,,,,,,,,,,METAR,197.0
CYQQ 170800Z 28003KT 20SM SKC 16/14 A3005 RMK DENSITY ALT 299FT SLP177,CYQQ,2023-05-17T08:00:00Z,49.72,-124.9,16.0,14.0,280,3,,20.0,30.050198,1017.7,,,,,,,,,,SKC,,,,,,,,VFR,,,,,,,,,,,,METAR,24.0
CYQM 170800Z 01008KT 8SM BKN013 04/03 A2946 RMK ST7 SLP981,CYQM,2023-05-17T08:00:00Z,46.12,-64.67,4.0,3.0,10,8,,8.0,29.459646,998.1,,,,,,,,,,BKN,1300,,,,,,,MVFR,,,,,,,,,,,,METAR,67.0
CYQL 170800Z AUTO 26004KT 9SM BKN086 11/03 A3016 RMK SLP212,CYQL,2023-05-17T08:00:00Z,49.63,-112.8,11.0,3.0,260,4,,9.0,30.159449,1021.2,,TRUE,,,,,,,,BKN,8600,,,,,,,VFR,,,,,,,,,,,,METAR,923.0
CYQH 170800Z 31002KT 30SM SKC 09/03 A3009 RMK SLP202,CYQH,2023-05-17T08:00:00Z,60.12,-128.82,9.0,3.0,310,2,,30.0,30.088583,1020.2,,,,,,,,,,SKC,,,,,,,,VFR,,,,,,,,,,,,METAR,692.0
CYQG 170800Z AUTO 04015G22KT 9SM CLR 08/M01 A2990 RMK SLP126,CYQG,2023-05-17T08:00:00Z,42.27,-82.97,8.0,-1.0,40,15,22,9.0,29.899607,1012.6,,TRUE,,,,,,,,CLR,,,,,,,,VFR,,,,,,,,,,,,METAR,189.0
CYQF 170800Z AUTO 33004KT 2 1/2SM HZ FEW048 08/M02 A3019 RMK SLP236,CYQF,2023-05-17T08:00:00Z,52.17,-113.9,8.0,-2.0,330,4,,2.5,30.188976,1023.6,,TRUE,,,,,,,HZ,FEW,4800,,,,,,,IFR,,,,,,,,,,,,METAR,912.0
CYQD 170800Z AUTO 28008KT 9SM FEW071 09/07 A2976 RMK SLP086,CYQD,2023-05-17T08:00:00Z,53.97,-101.08,9.0,7.0,280,8,,9.0,29.760826,1008.6,,TRUE,,,,,,,,FEW,7100,,,,,,,VFR,,,,,,,,,,,,METAR,268.0
CYQB 170800Z 00000KT 15SM FEW070 SCT120 01/M07 A2968 RMK AC2AC3 SLP055,CYQB,2023-05-17T08:00:00Z,46.78,-71.38,1.0,-7.0,0,0,,15.0,29.681103,1005.5,,,,,,,,,,FEW,7000,SCT,12000,,,,,VFR,,,,,,,,,,,,METAR,73.0
CYPY 170800Z AUTO 03010G16KT 9SM OVC022 06/02 A3012 RMK SLP213,CYPY,2023-05-17T08:00:00Z,58.77,-111.12,6.0,2.0,30,10,16,9.0,30.121063,1021.3,,TRUE,,,,,,,,OVC,2200,,,,,,,MVFR,,,,,,,,,,,,METAR,225.0
CYPX 170800Z AUTO 35011KT 9SM OVC023 M04/M08 A2994 RMK SLP143,CYPX,2023-05-17T08:00:00Z,60.03,-77.27,-4.0,-8.0,350,11,,9.0,29.940945,1014.3,,TRUE,,,,,,,,OVC,2300,,,,,,,MVFR,,,,,,,,,,,,METAR,10.0
CYPQ 170800Z AUTO 36005KT 9SM BKN031 02/M04 A2987 RMK SLP122,CYPQ,2023-05-17T08:00:00Z,44.22,-78.37,2.0,-4.0,360,5,,9.0,29.870079,1012.2,,TRUE,,,,,,,,BKN,3100,,,,,,,VFR,,,,,,,,,,,,METAR,190.0
CYPO 170800Z AUTO 02006KT 350V060 9SM OVC020 M03/M07 A3014 RMK SLP213,CYPO,2023-05-17T08:00:00Z,54.98,-85.43,-3.0,-7.0,20,6,,9.0,30.138779,1021.3,,TRUE,,,,,,,,OVC,2000,,,,,,,MVFR,,,,,,,,,,,,METAR,49.0
CYPL 170800Z AUTO 14008KT 9SM FEW180 01/M06 A3005 RMK SLP195,CYPL,2023-05-17T08:00:00Z,51.43,-90.22,1.0,-6.0,140,8,,9.0,30.050198,1019.5,,TRUE,,,,,,,,FEW,18000,,,,,,,VFR,,,,,,,,,,,,METAR,390.0
CYPH 170800Z AUTO 01012KT 9SM OVC024 M03/M07 A2994 RMK SLP141,CYPH,2023-05-17T08:00:00Z,58.47,-78.08,-3.0,-7.0,10,12,,9.0,29.940945,1014.1,,TRUE,,,,,,,,OVC,2400,,,,,,,MVFR,,,,,,,,,,,,METAR,24.0
CYPE 170800Z 32004KT 15SM FEW250 05/01 A3019 RMK CI1 CI TR SLP240,CYPE,2023-05-17T08:00:00Z,56.22,-117.45,5.0,1.0,320,4,,15.0,30.188976,1024.0,,,,,,,,,,FEW,25000,,,,,,,VFR,,,,,,,,,,,,METAR,572.0
CYPA 170800Z 24011KT 2 1/2SM FU SKC 07/02 A2995 RMK FU5 SLP148,CYPA,2023-05-17T08:00:00Z,53.22,-105.67,7.0,2.0,240,11,,2.5,29.949802,1014.8,,,,,,,,,FU,SKC,,,,,,,,IFR,,,,,,,,,,,,METAR,428.0
CYOW 170800Z 35012KT 15SM FEW030 01/M07 A2985 RMK SC2 SLP113,CYOW,2023-05-17T08:00:00Z,45.32,-75.67,1.0,-7.0,350,12,,15.0,29.84941,1011.3,,,,,,,,,,FEW,3000,,,,,,,VFR,,,,,,,,,,,,METAR,111.0
CYOO 170800Z AUTO 03004KT 9SM CLR 02/M02 A2988 RMK SLP124,CYOO,2023-05-17T08:00:00Z,43.92,-78.9,2.0,-2.0,30,4,,9.0,29.878937,1012.4,,TRUE,,,,,,,,CLR,,,,,,,,VFR,,,,,,,,,,,,METAR,136.0
CYOJ 170800Z AUTO 02002KT 9SM CLR 05/03 A3020 RMK SLP240,CYOJ,2023-05-17T08:00:00Z,58.62,-117.17,5.0,3.0,20,2,,9.0,30.200787,1024.0,,TRUE,,,,,,,,CLR,,,,,,,,VFR,,,,,,,,,,,,METAR,339.0
CYOD 170800Z 31006KT 10SM BKN050 07/01 A3007 RMK FU5 DENSITY ALT 1145FT SLP191,CYOD,2023-05-17T08:00:00Z,54.4,-110.28,7.0,1.0,310,6,,10.0,30.070866,1019.1,,,,,,,,,,BKN,5000,,,,,,,VFR,,,,,,,,,,,,METAR,540.0
CYNA 170800Z AUTO 01008KT 9SM FEW066 OVC084 02/M03 A2944 RMK SLP972,CYNA,2023-05-17T08:00:00Z,50.18,-61.78,2.0,-3.0,10,8,,9.0,29.438976,997.2,,TRUE,,,,,,,,FEW,6600,OVC,8400,,,,,VFR,,,,,,,,,,,,METAR,9.0
CYMX 170800Z 33006KT 25SM FEW070 00/M04 A2978 RMK AC1 SLP090,CYMX,2023-05-17T08:00:00Z,45.67,-74.03,0.0,-4.0,330,6,,25.0,29.778543,1009.0,,,,,,,,,,FEW,7000,,,,,,,VFR,,,,,,,,,,,,METAR,78.0
CYMT 170800Z AUTO 31010G16KT 9SM -SN SCT032 BKN041 BKN050 OVC071 M03/M06 A2978 RMK SLP108,CYMT,2023-05-17T08:00:00Z,49.77,-74.52,-3.0,-6.0,310,10,16,9.0,29.778543,1010.8,,TRUE,,,,,,,-SN,SCT,3200,BKN,4100,BKN,5000,OVC,7100,VFR,,,,,,,,,,,,METAR,388.0
CYMM 170800Z AUTO 33009KT 9SM CLR 08/02 A3009 RMK SLP202,CYMM,2023-05-17T08:00:00Z,56.65,-111.22,8.0,2.0,330,9,,9.0,30.088583,1020.2,,TRUE,,,,,,,,CLR,,,,,,,,VFR,,,,,,,,,,,,METAR,371.0
CYMA 170800Z 25004KT 230V290 20SM FEW090 FEW210 09/00 A2997 RMK AC1CI1 AC TR CI TR SLP164,CYMA,2023-05-17T08:00:00Z,63.62,-135.87,9.0,0.0,250,4,,20.0,29.970472,1016.4,,,,,,,,,,FEW,9000,FEW,21000,,,,,VFR,,,,,,,,,,,,METAR,519.0
CYLW 170800Z AUTO 11003KT 100V170 9SM SCT150 16/11 A3000 RMK SLP155 DENSITY ALT 1800FT,CYLW,2023-05-17T08:00:00Z,49.95,-119.37,16.0,11.0,110,3,,9.0,30.0,1015.5,,TRUE,,,,,,,,SCT,15000,,,,,,,VFR,,,,,,,,,,,,METAR,420.0
CYLL 170800Z AUTO 29007KT 9SM CLR 06/02 A3007 RMK SLP197,CYLL,2023-05-17T08:00:00Z,53.32,-110.07,6.0,2.0,290,7,,9.0,30.070866,1019.7,,TRUE,,,,,,,,CLR,,,,,,,,VFR,,,,,,,,,,,,METAR,664.0
CYLH 170800Z AUTO 23003KT 9SM CLR M04/M05 A3010 RMK SLP212,CYLH,2023-05-17T08:00:00Z,52.2,-87.93,-4.0,-5.0,230,3,,9.0,30.100393,1021.2,,TRUE,,,,,,,,CLR,,,,,,,,VFR,,,,,,,,,,,,METAR,245.0
CYKY 170800Z 36004KT 290V020 2SM FU SKC 08/01 A3008 RMK FU6 SLP185,CYKY,2023-05-17T08:00:00Z,51.52,-109.17,8.0,1.0,360,4,,2.0,30.079725,1018.5,,,,,,,,,FU,SKC,,,,,,,,IFR,,,,,,,,,,,,METAR,692.0
CYKP 170800Z AUTO 27002KT 9SM CLR M03/M04 A3011 RMK SLP211,CYKP,2023-05-17T08:00:00Z,51.67,-85.9,-3.0,-4.0,270,2,,9.0,30.109253,1021.1,,TRUE,,,,,,,,CLR,,,,,,,,VFR,,,,,,,,,,,,METAR,181.0
CYKL 170800Z AUTO 36006KT 9SM FEW022 BKN055 M05/M06 A2953 RMK SLP033,CYKL,2023-05-17T08:00:00Z,54.8,-66.8,-5.0,-6.0,360,6,,9.0,29.530512,1003.3,,TRUE,,,,,,,,FEW,2200,BKN,5500,,,,,VFR,,,,,,,,,,,,METAR,507.0
CYKF 170800Z AUTO 36007KT 9SM CLR 01/M02 A2988 RMK SLP122,CYKF,2023-05-17T08:00:00Z,43.47,-80.38,1.0,-2.0,360,7,,9.0,29.878937,1012.2,,TRUE,,,,,,,,CLR,,,,,,,,VFR,,,,,,,,,,,,METAR,312.0
CYKA 170800Z 25007KT 40SM FEW130 FEW210 17/09 A2996 RMK AC1CI1 AC TR SLP145 DENSITY ALT 1600FT,CYKA,2023-05-17T08:00:00Z,50.7,-120.45,17.0,9.0,250,7,,40.0,29.958662,1014.5,,,,,,,,,,FEW,13000,FEW,21000,,,,,VFR,,,,,,,,,,,,METAR,344.0
CYJT 170800Z 36002KT 8SM -RA FEW006 BKN012 OVC035 06/05 A2936 RMK SF2SC4SC2 SLP945,CYJT,2023-05-17T08:00:00Z,48.55,-58.57,6.0,5.0,360,2,,8.0,29.359253,994.5,,,,,,,,,-RA,FEW,600,BKN,1200,OVC,3500,,,MVFR,,,,,,,,,,,,METAR,7.0
CYIN 170800Z AUTO 30003KT 4SM HZ BKN043 14/03 A3011 RMK SLP176 DENSITY ALT 4200FT,CYIN,2023-05-17T08:00:00Z,51.27,-121.68,14.0,3.0,300,3,,4.0,30.109253,1017.6,,TRUE,,,,,,,HZ,BKN,4300,,,,,,,MVFR,,,,,,,,,,,,METAR,1127.0
CYHU 170800Z AUTO 34008KT 9SM FEW071 02/M04 A2976 RMK SLP082,CYHU,2023-05-17T08:00:00Z,45.52,-73.42,2.0,-4.0,340,8,,9.0,29.760826,1008.2,,TRUE,,,,,,,,FEW,7100,,,,,,,VFR,,,,,,,,,,,,METAR,26.0
CYHM 170800Z 01010KT 15SM FEW025 FEW250 04/M01 A2986 RMK SC1CI1 SC TR CI TR SLP115,CYHM,2023-05-17T08:00:00Z,43.17,-79.93,4.0,-1.0,10,10,,15.0,29.861221,1011.5,,,,,,,,,,FEW,2500,FEW,25000,,,,,VFR,,,,,,,,,,,,METAR,237.0
CYHE 170800Z AUTO VRB02KT 9SM CLR 17/14 A3004 RMK SLP174,CYHE,2023-05-17T08:00:00Z,49.37,-121.5,17.0,14.0,0,2,,9.0,30.041338,1017.4,,TRUE,,,,,,,,CLR,,,,,,,,VFR,,,,,,,,,,,,METAR,43.0
CYHD 170800Z AUTO 14006KT 9SM CLR 07/M02 A2998 RMK SLP167,CYHD,2023-05-17T08:00:00Z,49.82,-92.75,7.0,-2.0,140,6,,9.0,29.97933,1016.7,,TRUE,,,,,,,,CLR,,,,,,,,VFR,,,,,,,,,,,,METAR,414.0
CYGX 170800Z 09008G16KT 060V130 15SM OVC031 04/M03 A3001 RMK SC8 SLP173,CYGX,2023-05-17T08:00:00Z,56.35,-94.7,4.0,-3.0,90,8,16,15.0,30.008858,1017.3,,,,,,,,,,OVC,3100,,,,,,,VFR,,,,,,,,,,,,METAR,145.0
CYGV 170800Z AUTO 01005KT 9SM CLR M02/M05 A2948 RMK SLP988,CYGV,2023-05-17T08:00:00Z,50.28,-63.62,-2.0,-5.0,10,5,,9.0,29.480314,998.8,,TRUE,,,,,,,,CLR,,,,,,,,VFR,,,,,,,,,,,,METAR,32.0
CYGP 170800Z 29007KT 15SM FEW170 00/M04 A2949 RMK AS1 AS TR SLP991,CYGP,2023-05-17T08:00:00Z,48.77,-64.47,0.0,-4.0,290,7,,15.0,29.489174,999.1,,,,,,,,,,FEW,17000,,,,,,,VFR,,,,,,,,,,,,METAR,31.0
CYGL 170800Z 32007G18KT 280V340 15SM -SN OVC014 M04/M07 A2994 RMK SC8 SLP156,CYGL,2023-05-17T08:00:00Z,53.62,-77.7,-4.0,-7.0,320,7,18,15.0,29.940945,1015.6,,,,,,,,,-SN,OVC,1400,,,,,,,MVFR,,,,,,,,,,,,METAR,192.0
CYFS 170800Z VRB02KT 15SM FEW180 FEW250 12/02 A3014 RMK CI1CI1 CI TR CI TR SLP213,CYFS,2023-05-17T08:00:00Z,61.75,-121.22,12.0,2.0,0,2,,15.0,30.138779,1021.3,,,,,,,,,,FEW,18000,FEW,25000,,,,,VFR,,,,,,,,,,,,METAR,174.0
CYFC 170800Z AUTO 25003KT 9SM OVC066 05/04 A2950 RMK SLP991,CYFC,2023-05-17T08:00:00Z,45.87,-66.53,5.0,4.0,250,3,,9.0,29.500984,999.1,,TRUE,,,,,,,,OVC,6600,,,,,,,VFR,,,,,,,,,,,,METAR,16.0
CYFB 170800Z 35018G24KT 30SM SCT110 M08/M11 A2978 RMK AC3 SLP091,CYFB,2023-05-17T08:00:00Z,63.75,-68.55,-8.0,-11.0,350,18,24,30.0,29.778543,1009.1,,,,,,,,,,SCT,11000,,,,,,,VFR,,,,,,,,,,,,METAR,23.0
CYEV 170800Z 02007KT 15SM BKN130 M00/M03 A3014 RMK AC7 SLP212,CYEV,2023-05-17T08:00:00Z,68.32,-133.5,0.0,-3.0,20,7,,15.0,30.138779,1021.2,,,,,,,,,,BKN,13000,,,,,,,VFR,,,,,,,,,,,,METAR,74.0
CYET 170800Z AUTO 26003KT 4SM HZ CLR 06/02 A3020 RMK SLP241,CYET,2023-05-17T08:00:00Z,53.57,-116.47,6.0,2.0,260,3,,4.0,30.200787,1024.1,,TRUE,,,,,,,HZ,CLR,,,,,,,,MVFR,,,,,,,,,,,,METAR,925.0
CYER 170800Z AUTO VRB02KT 9SM OVC014 M02/M04 A3017 RMK SLP219,CYER,2023-05-17T08:00:00Z,56.02,-87.68,-2.0,-4.0,0,2,,9.0,30.171259,1021.9,,TRUE,,,,,,,,OVC,1400,,,,,,,MVFR,,,,,,,,,,,,METAR,11.0
CYEN 170800Z AUTO 18009KT 9SM SCT100 17/07 A2978 RMK SLP085 DENSITY ALT 2800FT,CYEN,2023-05-17T08:00:00Z,49.22,-102.97,17.0,7.0,180,9,,9.0,29.778543,1008.5,,TRUE,,,,,,,,SCT,10000,,,,,,,VFR,,,,,,,,,,,,METAR,580.0
CYEK 170800Z AUTO 25002KT 9SM CLR M02/M02 A3019 RMK SLP225,CYEK,2023-05-17T08:00:00Z,61.1,-94.07,-2.0,-2.0,250,2,,9.0,30.188976,1022.5,,TRUE,,,,,,,,CLR,,,,,,,,VFR,,,,,,,,,,,,METAR,7.0
CYDQ 170800Z AUTO 00000KT 9SM CLR 06/01 A3016 RMK SLP229,CYDQ,2023-05-17T08:00:00Z,55.75,-120.18,6.0,1.0,0,0,,9.0,30.159449,1022.9,,TRUE,,,,,,,,CLR,,,,,,,,VFR,,,,,,,,,,,,METAR,658.0
CYDP 170800Z 00000KT 15SM SCT034 OVC085 M02/M03 A2951 RMK SC3AC5 SLP997,CYDP,2023-05-17T08:00:00Z,56.53,-61.68,-2.0,-3.0,0,0,,15.0,29.509842,999.7,,,,,,,,,,SCT,3400,OVC,8500,,,,,VFR,,,,,,,,,,,,METAR,14.0
CYDN 170800Z AUTO 22016G22KT 9SM SCT120 21/06 A2969 RMK SLP057 DENSITY ALT 2200FT,CYDN,2023-05-17T08:00:00Z,51.1,-100.05,21.0,6.0,220,16,22,9.0,29.68996,1005.7,,TRUE,,,,,,,,SCT,12000,,,,,,,VFR,,,,,,,,,,,,METAR,302.0
CYDL 170800Z AUTO 00000KT 9SM CLR 10/01 A3014 RMK SLP205,CYDL,2023-05-17T08:00:00Z,58.42,-130.02,10.0,1.0,0,0,,9.0,30.138779,1020.5,,TRUE,,,,,,,,CLR,,,,,,,,VFR,,,,,,,,,,,,METAR,804.0
CYDB 170800Z AUTO 28004KT 270V050 9SM CLR 01/M03 A3006 RMK SLP210,CYDB,2023-05-17T08:00:00Z,61.37,-139.02,1.0,-3.0,280,4,,9.0,30.059055,1021.0,,TRUE,,,,,,,,CLR,,,,,,,,VFR,,,,,,,,,,,,METAR,807.0
CYCY 170800Z AUTO 31005KT 9SM CLR M06/M09 A2946 RMK SLP981,CYCY,2023-05-17T08:00:00Z,70.48,-68.52,-6.0,-9.0,310,5,,9.0,29.459646,998.1,,TRUE,,,,,,,,CLR,,,,,,,,VFR,,,,,,,,,,,,METAR,73.0
CYCX 170800Z 30003KT 15SM BKN062 05/05 A2949 RMK SC7 DENSITY ALT -452FT FST OBS SLP989,CYCX,2023-05-17T08:00:00Z,45.83,-66.45,5.0,5.0,300,3,,15.0,29.489174,998.9,,,,,,,,,,BKN,6200,,,,,,,VFR,,,,,,,,,,,,METAR,46.0
CYCO 170800Z 08005KT 15SM VCSH OVC099 01/M00 A3020 RMK AC8 SLP229,CYCO,2023-05-17T08:00:00Z,67.82,-115.15,1.0,0.0,80,5,,15.0,30.200787,1022.9,,,,,,,,,VCSH,OVC,9900,,,,,,,VFR,,,,,,,,,,,,METAR,20.0
CYCK 170800Z AUTO 05007KT 9SM CLR 05/M01 A2987 RMK SLP119,CYCK,2023-05-17T08:00:00Z,42.3,-82.08,5.0,-1.0,50,7,,9.0,29.870079,1011.9,,TRUE,,,,,,,,CLR,,,,,,,,VFR,,,,,,,,,,,,METAR,196.0
CYBU 170800Z AUTO 27011KT 1 1/4SM HZ BKN033 09/03 A2988 RMK SLP122,CYBU,2023-05-17T08:00:00Z,53.32,-104.0,9.0,3.0,270,11,,1.25,29.878937,1012.2,,TRUE,,,,,,,HZ,BKN,3300,,,,,,,IFR,,,,,,,,,,,,METAR,369.0
CYBR 170800Z 34003KT 12SM FEW250 10/05 A2980 RMK CI1 SLP097,CYBR,2023-05-17T08:00:00Z,49.92,-99.95,10.0,5.0,340,3,,12.0,29.799213,1009.7,,,,,,,,,,FEW,25000,,,,,,,VFR,,,,,,,,,,,,METAR,405.0
CYBK 170800Z 00000KT 20SM FEW220 M03/M07 A3011 RMK CS2 SLP199,CYBK,2023-05-17T08:00:00Z,64.3,-96.07,-3.0,-7.0,0,0,,20.0,30.109253,1019.9,,,,,,,,,,FEW,22000,,,,,,,VFR,,,,,,,,,,,,METAR,14.0
CYBG 170800Z 29011KT 25SM BKN080 00/M07 A2968 RMK AC7 DENSITY ALT -883FT SLP056,CYBG,2023-05-17T08:00:00Z,48.33,-70.98,0.0,-7.0,290,11,,25.0,29.681103,1005.6,,,,,,,,,,BKN,8000,,,,,,,VFR,,,,,,,,,,,,METAR,151.0
CYBC 170800Z AUTO 36006KT 310V020 9SM OVC076 03/M08 A2959 RMK SLP024,CYBC,2023-05-17T08:00:00Z,49.13,-68.2,3.0,-8.0,360,6,,9.0,29.589567,1002.4,,TRUE,,,,,,,,OVC,7600,,,,,,,VFR,,,,,,,,,,,,METAR,20.0
CYAT 170800Z AUTO 36006KT 9SM OVC027 M02/M07 A3011 RMK SLP200,CYAT,2023-05-17T08:00:00Z,52.93,-82.43,-2.0,-7.0,360,6,,9.0,30.109253,1020.0,,TRUE,,,,,,,,OVC,2700,,,,,,,MVFR,,,,,,,,,,,,METAR,4.0
CYAM 170800Z 03006KT 20SM FEW250 M00/M04 A3004 RMK CI1 CI TR SLP182,CYAM,2023-05-17T08:00:00Z,46.48,-84.52,0.0,-4.0,30,6,,20.0,30.041338,1018.2,,,,,,,,,,FEW,25000,,,,,,,VFR,,,,,,,,,,,,METAR,186.0
CYAH 170800Z AUTO 34006KT 300V360 9SM BKN066 OVC076 M02/M05 A2974 RMK SLP093,CYAH,2023-05-17T08:00:00Z,53.75,-73.67,-2.0,-5.0,340,6,,9.0,29.740158,1009.3,,TRUE,,,,,,,,BKN,6600,OVC,7600,,,,,VFR,,,,,,,,,,,,METAR,298.0
CXZV 170800Z AUTO 30002KT M02/M08 RMK AO1 SLP007 T10201076 53007,CXZV,2023-05-17T08:00:00Z,50.22,-66.25,-2.0,-7.6,300,2,,,,1000.7,,TRUE,TRUE,,,,,,,,,,,,,,,,0.7,,,,,,,,,,,METAR,43.0
CXZC 170800Z AUTO 01002KT M03/M05 RMK AO1 SLP195 T10251054 51004,CXZC,2023-05-17T08:00:00Z,51.3,-80.62,-2.5,-5.4,10,2,,,,1019.5,,TRUE,TRUE,,,,,,,,,,,,,,,,0.4,,,,,,,,,,,METAR,8.0
CXYH 170800Z AUTO 03001KT 07/04 RMK AO1 SLP181 T00650035 51004,CXYH,2023-05-17T08:00:00Z,61.25,-123.75,6.5,3.5,30,1,,,,1018.1,,TRUE,TRUE,,,,,,,,,,,,,,,,0.4,,,,,,,,,,,METAR,197.0
CXWN 170800Z AUTO 20003KT 14/04 RMK AO1 SLP111 T01400041 56015,CXWN,2023-05-17T08:00:00Z,49.88,-97.13,14.0,4.1,200,3,,,,1011.1,,TRUE,TRUE,,,,,,,,,,,,,,,,-1.5,,,,,,,,,,,METAR,232.0
CXWM 170800Z AUTO 31008KT 10/01 RMK AO1 T01030011,CXWM,2023-05-17T08:00:00Z,49.5,-112.12,10.3,1.1,310,8,,,,,,TRUE,TRUE,,,,,,,,,,,,,,,,,,,,,,,,,,,METAR,947.0
CXVW 170800Z AUTO 19001KT 07/M00 RMK AO1 SLP229 T00731001 54000,CXVW,2023-05-17T08:00:00Z,55.1,-117.2,7.3,-0.1,190,1,,,,1022.9,,TRUE,TRUE,,,,,,,,,,,,,,,,,,,,,,,,,,,METAR,696.0
CXVN 170800Z AUTO 02014G19KT 06/01 RMK AO1 PK WND 03020/0719 SLP118 T00610008 53017,CXVN,2023-05-17T08:00:00Z,43.18,-79.4,6.1,0.8,20,14,19,,,1011.8,,TRUE,TRUE,,,,,,,,,,,,,,,,1.7,,,,,,,,,,,METAR,86.0
CXVM 170800Z AUTO 30003KT 07/01 RMK AO1 T00670008,CXVM,2023-05-17T08:00:00Z,53.35,-110.88,6.7,0.8,300,3,,,,,,TRUE,TRUE,,,,,,,,,,,,,,,,,,,,,,,,,,,METAR,622.0
CXTV 170800Z AUTO 03010KT M03/M04 RMK AO1 SOG 25 8011 SLP224 T10261035,CXTV,2023-05-17T08:00:00Z,68.75,-133.5,-2.6,-3.5,30,10,,,,1022.4,,TRUE,TRUE,,,,,,,,,,,,,,,,,,,,,,,,,,,METAR,91.0
CXTP 170800Z AUTO 19002KT 04/04 RMK AO1 SLP974 T00390035 58012,CXTP,2023-05-17T08:00:00Z,48.55,-53.97,3.9,3.5,190,2,,,,997.4,,TRUE,TRUE,,,,,,,,,,,,,,,,-1.2,,,,,,,,,,,METAR,104.0
CXTO 170800Z AUTO 04/M02 RMK AO1 SLP123 T00351021 53017,CXTO,2023-05-17T08:00:00Z,43.67,-79.4,3.5,-2.1,,,,,,1012.3,,TRUE,TRUE,,,,,,,,,,,,,,,,1.7,,,,,,,,,,,METAR,115.0
CXTN 170800Z AUTO 11011KT M00/M06 RMK AO1 SOG 05 8008 SLP224 T10031057,CXTN,2023-05-17T08:00:00Z,69.2,-122.35,-0.3,-5.7,110,11,,,,1022.4,,TRUE,TRUE,,,,,,,,,,,,,,,,,,,,,,,,,,,METAR,564.0
CXTH 170800Z AUTO 28008KT 07/02 RMK AO1 T00700018,CXTH,2023-05-17T08:00:00Z,53.63,-111.68,7.0,1.8,280,8,,,,,,TRUE,TRUE,,,,,,,,,,,,,,,,,,,,,,,,,,,METAR,679.0
CXTD 170800Z AUTO 21005KT 08/07 RMK AO1 3001 SLP971 T00800071 50006,CXTD,2023-05-17T08:00:00Z,45.62,-61.68,8.0,7.1,210,5,,,,997.1,,TRUE,TRUE,,,,,,,,,,,,,,,,0.6,,,,,,,,,,,METAR,58.0
CXSP 170800Z AUTO 26004KT 07/02 RMK AO1 T00680023,CXSP,2023-05-17T08:00:00Z,54.02,-111.27,6.8,2.3,260,4,,,,,,TRUE,TRUE,,,,,,,,,,,,,,,,,,,,,,,,,,,METAR,652.0
CXSL 170800Z AUTO 29002KT 05/02 RMK AO1 T00460018,CXSL,2023-05-17T08:00:00Z,54.28,-112.5,4.6,1.8,290,2,,,,,,TRUE,TRUE,,,,,,,,,,,,,,,,,,,,,,,,,,,METAR,680.0
CXSH 170800Z AUTO 35007KT 02/M08 RMK AO1 SLP071 T00151078 53011,CXSH,2023-05-17T08:00:00Z,46.55,-72.73,1.5,-7.8,350,7,,,,1007.1,,TRUE,TRUE,,,,,,,,,,,,,,,,1.1,,,,,,,,,,,METAR,106.0
CXSE 170800Z AUTO 32024G30KT M12/M14 RMK AO1 SOG 22 PK WND 32030/0755 SLP142 T11201140,CXSE,2023-05-17T08:00:00Z,73.77,-105.28,-12.0,-14.0,320,24,30,,,1014.2,,TRUE,TRUE,,,,,,,,,,,,,,,,,,,,,,,,,,,METAR,11.0
CXSC 170800Z AUTO 34009KT 11/02 RMK AO1 T01090024,CXSC,2023-05-17T08:00:00Z,50.3,-110.08,10.9,2.4,340,9,,,,,,TRUE,TRUE,,,,,,,,,,,,,,,,,,,,,,,,,,,METAR,809.0
CXRL 170800Z AUTO 29005KT 08/02 RMK AO1 T00820015,CXRL,2023-05-17T08:00:00Z,54.5,-111.7,8.2,1.5,290,5,,,,,,TRUE,TRUE,,,,,,,,,,,,,,,,,,,,,,,,,,,METAR,585.0
CXRH 170800Z AUTO 11003KT 04/03 RMK AO1 8PAST HR 6013 SLP952 P0003 T00390030 50024,CXRH,2023-05-17T08:00:00Z,49.57,-57.88,3.9,3.0,110,3,,,,995.2,,TRUE,TRUE,,,,,,,,,,,,,,,,2.4,,,,,0.03,,,,,,METAR,68.0
CXRB 170800Z AUTO 30018KT M05/M06 RMK AO1 SOG 01 6005 PK WND 30021/0727 SLP001 T10481057,CXRB,2023-05-17T08:00:00Z,74.72,-94.98,-4.8,-5.7,300,18,,,,1000.1,,TRUE,TRUE,,,,,,,,,,,,,,,,,,,,,,,,,,,METAR,30.0
CXPL 170800Z AUTO 36011KT 06/03 RMK AO1 T00640031,CXPL,2023-05-17T08:00:00Z,51.13,-111.7,6.4,3.1,360,11,,,,,,TRUE,TRUE,,,,,,,,,,,,,,,,,,,,,,,,,,,METAR,735.0
CXPC 170800Z AUTO 01/M06 RMK AO1 SLP150 T00141056 53012,CXPC,2023-05-17T08:00:00Z,45.35,-80.05,1.4,-5.6,,,,,,1015.0,,TRUE,TRUE,,,,,,,,,,,,,,,,1.2,,,,,,,,,,,METAR,176.0
CXPA 170800Z AUTO 00000KT 04/M01 RMK AO1 T00411009,CXPA,2023-05-17T08:00:00Z,55.62,-118.3,4.1,-0.9,0,0,,,,,,TRUE,TRUE,,,,,,,,,,,,,,,,,,,,,,,,,,,METAR,628.0
CXOY 170800Z AUTO 35005KT 07/02 RMK AO1 T00680016,CXOY,2023-05-17T08:00:00Z,51.35,-110.35,6.8,1.6,350,5,,,,,,TRUE,TRUE,,,,,,,,,,,,,,,,,,,,,,,,,,,METAR,784.0
CXOX 170800Z AUTO 33011G17KT 06/M00 RMK AO1 PK WND 33020/0712 SLP135 T00641002 53007,CXOX,2023-05-17T08:00:00Z,55.15,-105.27,6.4,-0.2,330,11,17,,,1013.5,,TRUE,TRUE,,,,,,,,,,,,,,,,0.7,,,,,,,,,,,METAR,381.0
CXOL 170800Z AUTO 29008KT 05/M00 RMK AO1 T00451001,CXOL,2023-05-17T08:00:00Z,51.77,-114.08,4.5,-0.1,290,8,,,,,,TRUE,TRUE,,,,,,,,,,,,,,,,,,,,,,,,,,,METAR,1026.0
CXNP 170800Z AUTO 02009KT 05/04 RMK AO1 SLP977 T00500035 53008,CXNP,2023-05-17T08:00:00Z,45.75,-64.23,5.0,3.5,20,9,,,,997.7,,TRUE,TRUE,,,,,,,,,,,,,,,,0.8,,,,,,,,,,,METAR,19.0
CXNM 170800Z AUTO 30003KT 03/03 RMK AO1 SOG 15 T00320032 50017,CXNM,2023-05-17T08:00:00Z,46.82,-60.67,3.2,3.2,300,3,,,,,,TRUE,TRUE,,,,,,,,,,,,,,,,1.7,,,,,,,,,,,METAR,452.0
CXMY 170800Z AUTO 06/06 RMK AO1 T00590055,CXMY,2023-05-17T08:00:00Z,44.98,-62.48,5.9,5.5,,,,,,,,TRUE,TRUE,,,,,,,,,,,,,,,,,,,,,,,,,,,METAR,37.0
CXMO 170800Z AUTO 05006KT 06/02 RMK AO1 T00630016,CXMO,2023-05-17T08:00:00Z,51.67,-112.68,6.3,1.6,50,6,,,,,,TRUE,TRUE,,,,,,,,,,,,,,,,,,,,,,,,,,,METAR,837.0
CXMM 170800Z AUTO 33009KT 08/02 RMK AO1 SLP200 T00800017 52001,CXMM,2023-05-17T08:00:00Z,56.65,-111.22,8.0,1.7,330,9,,,,1020.0,,TRUE,TRUE,,,,,,,,,,,,,,,,0.1,,,,,,,,,,,METAR,372.0
CXMI 170800Z AUTO 12002KT 08/07 RMK AO1 SLP961 T00770067 53001,CXMI,2023-05-17T08:00:00Z,44.6,-63.53,7.7,6.7,120,2,,,,996.1,,TRUE,TRUE,,,,,,,,,,,,,,,,0.1,,,,,,,,,,,METAR,15.0
CXMG 170800Z AUTO 27003KT 04/M01 RMK AO1 T00401006,CXMG,2023-05-17T08:00:00Z,56.97,-117.45,4.0,-0.6,270,3,,,,,,TRUE,TRUE,,,,,,,,,,,,,,,,,,,,,,,,,,,METAR,467.0
CXMD 170800Z AUTO 17007KT 14/03 RMK AO1 SLP108 T01370028 57016,CXMD,2023-05-17T08:00:00Z,49.18,-98.08,13.7,2.8,170,7,,,,1010.8,,TRUE,TRUE,,,,,,,,,,,,,,,,-1.6,,,,,,,,,,,METAR,297.0
CXLL 170800Z AUTO 07/04 RMK AO1 SLP202 T00670044,CXLL,2023-05-17T08:00:00Z,61.12,-122.85,6.7,4.4,,,,,,1020.2,,TRUE,TRUE,,,,,,,,,,,,,,,,,,,,,,,,,,,METAR,180.0
CXLB 170800Z AUTO 33005KT 09/07 RMK AO1 SLP961 T00860071 56004,CXLB,2023-05-17T08:00:00Z,44.37,-64.3,8.6,7.1,330,5,,,,996.1,,TRUE,TRUE,,,,,,,,,,,,,,,,-0.4,,,,,,,,,,,METAR,4.0
CXKT 170800Z AUTO 32002KT 07/06 RMK AO1 SLP973 T00670057 53010,CXKT,2023-05-17T08:00:00Z,45.07,-64.48,6.7,5.7,320,2,,,,997.3,,TRUE,TRUE,,,,,,,,,,,,,,,,1.0,,,,,,,,,,,METAR,48.0
CXKM 170800Z AUTO 27006KT 03/01 RMK AO1 T00320006,CXKM,2023-05-17T08:00:00Z,52.83,-111.87,3.2,0.6,270,6,,,,,,TRUE,TRUE,,,,,,,,,,,,,,,,,,,,,,,,,,,METAR,679.0
CXKI 170800Z AUTO 32005KT M02/M05 RMK AO1 SLP168 T10201050 53005,CXKI,2023-05-17T08:00:00Z,48.13,-80.0,-2.0,-5.0,320,5,,,,1016.8,,TRUE,TRUE,,,,,,,,,,,,,,,,0.5,,,,,,,,,,,METAR,328.0
CXKE 170800Z AUTO 34006KT 02/M05 RMK AO1 SLP106 T00161048 53019,CXKE,2023-05-17T08:00:00Z,45.0,-75.63,1.6,-4.8,340,6,,,,1010.6,,TRUE,TRUE,,,,,,,,,,,,,,,,1.9,,,,,,,,,,,METAR,99.0
CXKA 170800Z AUTO 32005KT M01/M04 RMK AO1 SLP199 T10131041 55000,CXKA,2023-05-17T08:00:00Z,49.4,-82.45,-1.3,-4.1,320,5,,,,1019.9,,TRUE,TRUE,,,,,,,,,,,,,,,,0.0,,,,,,,,,,,METAR,221.0
CXIB 170800Z AUTO 00000KT 08/07 RMK AO1 SLP948 T00770073 53011,CXIB,2023-05-17T08:00:00Z,46.67,-60.4,7.7,7.3,0,0,,,,994.8,,TRUE,TRUE,,,,,,,,,,,,,,,,1.1,,,,,,,,,,,METAR,6.0
CXHR 170800Z AUTO 35010KT 09/M01 RMK AO1 T00921007,CXHR,2023-05-17T08:00:00Z,51.18,-112.5,9.2,-0.7,350,10,,,,,,TRUE,TRUE,,,,,,,,,,,,,,,,,,,,,,,,,,,METAR,975.0
CXHP 170800Z AUTO 22001KT 02/01 RMK AO1 T00190008,CXHP,2023-05-17T08:00:00Z,55.4,-116.48,1.9,0.8,220,1,,,,,,TRUE,TRUE,,,,,,,,,,,,,,,,,,,,,,,,,,,METAR,601.0
CXHM 170800Z AUTO 03004KT 04/M02 RMK AO1 SLP122 T00431015 53016,CXHM,2023-05-17T08:00:00Z,43.28,-79.9,4.3,-1.5,30,4,,,,1012.2,,TRUE,TRUE,,,,,,,,,,,,,,,,1.6,,,,,,,,,,,METAR,105.0
CXHD 170800Z AUTO 27005KT 03/02 RMK AO1 T00340019,CXHD,2023-05-17T08:00:00Z,53.18,-112.25,3.4,1.9,270,5,,,,,,TRUE,TRUE,,,,,,,,,,,,,,,,,,,,,,,,,,,METAR,688.0
CXHA 170800Z AUTO 03005KT 07/01 RMK AO1 SLP122 T00720008 52015,CXHA,2023-05-17T08:00:00Z,42.03,-82.9,7.2,0.8,30,5,,,,1012.2,,TRUE,TRUE,,,,,,,,,,,,,,,,1.5,,,,,,,,,,,METAR,193.0
CXGH 170800Z AUTO 18010KT 11/07 RMK AO1 SLP109 T01090068 57013,CXGH,2023-05-17T08:00:00Z,50.63,-97.0,10.9,6.8,180,10,,,,1010.9,,TRUE,TRUE,,,,,,,,,,,,,,,,-1.3,,,,,,,,,,,METAR,217.0
CXFR 170800Z AUTO 08008KT 10/01 RMK AO1 T00970010,CXFR,2023-05-17T08:00:00Z,56.08,-118.43,9.7,1.0,80,8,,,,,,TRUE,TRUE,,,,,,,,,,,,,,,,,,,,,,,,,,,METAR,657.0
CXFM 170800Z AUTO 31010KT 11/02 RMK AO1 T01100021,CXFM,2023-05-17T08:00:00Z,49.48,-111.48,11.0,2.1,310,10,,,,,,TRUE,TRUE,,,,,,,,,,,,,,,,,,,,,,,,,,,METAR,884.0
CXET 170800Z AUTO 35007KT M00/M05 RMK AO1 SLP135 T10031047 53016,CXET,2023-05-17T08:00:00Z,44.23,-79.78,-0.3,-4.7,350,7,,,,1013.5,,TRUE,TRUE,,,,,,,,,,,,,,,,1.6,,,,,,,,,,,METAR,250.0
CXEG 170800Z AUTO 23003KT 03/M02 RMK AO1 SLP225 T00311024 51008,CXEG,2023-05-17T08:00:00Z,53.3,-113.6,3.1,-2.4,230,3,,,,1022.5,,TRUE,TRUE,,,,,,,,,,,,,,,,0.8,,,,,,,,,,,METAR,706.0
CXEC 170800Z AUTO 27002KT 10/01 RMK AO1 SLP219 T01030007 51007,CXEC,2023-05-17T08:00:00Z,53.57,-113.52,10.3,0.7,270,2,,,,1021.9,,TRUE,TRUE,,,,,,,,,,,,,,,,0.7,,,,,,,,,,,METAR,666.0
CXEA 170800Z AUTO 15004KT 08/M01 RMK AO1 SLP145 T00751007 58008,CXEA,2023-05-17T08:00:00Z,50.63,-93.22,7.5,-0.7,150,4,,,,1014.5,,TRUE,TRUE,,,,,,,,,,,,,,,,-0.8,,,,,,,,,,,METAR,351.0
CXDW 170800Z AUTO 17008KT 15/02 RMK AO1 SLP105 T01540024 56018,CXDW,2023-05-17T08:00:00Z,49.4,-98.32,15.4,2.4,170,8,,,,1010.5,,TRUE,TRUE,,,,,,,,,,,,,,,,-1.8,,,,,,,,,,,METAR,341.0
CXDK 170800Z AUTO 00000KT 05/03 RMK AO1 SLP196 T00510029 51010,CXDK,2023-05-17T08:00:00Z,61.27,-124.47,5.1,2.9,0,0,,,,1019.6,,TRUE,TRUE,,,,,,,,,,,,,,,,1.0,,,,,,,,,,,METAR,269.0
CXDI 170800Z AUTO 04003KT 04/M01 RMK AO1 SLP113 T00361007 53016,CXDI,2023-05-17T08:00:00Z,42.87,-80.55,3.6,-0.7,40,3,,,,1011.3,,TRUE,TRUE,,,,,,,,,,,,,,,,1.6,,,,,,,,,,,METAR,234.0
CXDE 170800Z AUTO 09005KT 09/M00 RMK AO1 SLP181 T00851001 58008,CXDE,2023-05-17T08:00:00Z,65.22,-123.43,8.5,-0.1,90,5,,,,1018.1,,TRUE,TRUE,,,,,,,,,,,,,,,,-0.8,,,,,,,,,,,METAR,208.0
CXDB 170800Z AUTO 33007KT 09/M00 RMK AO1 T00931001,CXDB,2023-05-17T08:00:00Z,49.05,-112.82,9.3,-0.1,330,7,,,,,,TRUE,TRUE,,,,,,,,,,,,,,,,,,,,,,,,,,,METAR,1311.0
CXCS 170800Z AUTO 34004KT 06/01 RMK AO1 T00590008,CXCS,2023-05-17T08:00:00Z,51.93,-110.72,5.9,0.8,340,4,,,,,,TRUE,TRUE,,,,,,,,,,,,,,,,,,,,,,,,,,,METAR,771.0
CXCP 170800Z AUTO 33007KT 10/01 RMK AO1 T01040009,CXCP,2023-05-17T08:00:00Z,50.28,-113.35,10.4,0.9,330,7,,,,,,TRUE,TRUE,,,,,,,,,,,,,,,,,,,,,,,,,,,METAR,999.0
CXCK 170800Z AUTO 34001KT 07/M02 RMK AO1 SLP173 T00741016 51014,CXCK,2023-05-17T08:00:00Z,62.12,-136.2,7.4,-1.6,340,1,,,,1017.3,,TRUE,TRUE,,,,,,,,,,,,,,,,1.4,,,,,,,,,,,METAR,526.0
CXCD 170800Z AUTO 36004KT 11/M01 RMK AO1 T01111012,CXCD,2023-05-17T08:00:00Z,56.32,-119.75,11.1,-1.2,360,4,,,,,,TRUE,TRUE,,,,,,,,,,,,,,,,,,,,,,,,,,,METAR,628.0
CXCA 170800Z AUTO 15001KT M02/M04 RMK AO1 SLP204 T10181035 53006,CXCA,2023-05-17T08:00:00Z,49.15,-88.35,-1.8,-3.5,150,1,,,,1020.4,,TRUE,TRUE,,,,,,,,,,,,,,,,0.6,,,,,,,,,,,METAR,228.0
CXBW 170800Z AUTO 31009KT 09/01 RMK AO1 T00900012,CXBW,2023-05-17T08:00:00Z,49.8,-112.3,9.0,1.2,310,9,,,,,,TRUE,TRUE,,,,,,,,,,,,,,,,,,,,,,,,,,,METAR,823.0
CXBR 170800Z AUTO 32008KT RMK AO1,CXBR,2023-05-17T08:00:00Z,49.62,-113.82,,,320,8,,,,,,TRUE,TRUE,,,,,,,,,,,,,,,,,,,,,,,,,,,METAR,1137.0
CXBO 170800Z AUTO 30004KT 03/M07 RMK AO1 T00301073,CXBO,2023-05-17T08:00:00Z,46.83,-71.2,3.0,-7.3,300,4,,,,,,TRUE,TRUE,,,,,,,,,,,,,,,,,,,,,,,,,,,METAR,8.0
CXBK 170800Z AUTO 36018G23KT 13/03 RMK AO1 PK WND 35025/0736 SLP120 T01290031 53023,CXBK,2023-05-17T08:00:00Z,50.2,-104.7,12.9,3.1,360,18,23,,,1012.0,,TRUE,TRUE,,,,,,,,,,,,,,,,2.3,,,,,,,,,,,METAR,585.0
CXBI 170800Z AUTO 35004KT M01/M04 RMK AO1 SLP138 T10081035 53016,CXBI,2023-05-17T08:00:00Z,44.48,-79.55,-0.8,-3.5,350,4,,,,1013.8,,TRUE,TRUE,,,,,,,,,,,,,,,,1.6,,,,,,,,,,,METAR,287.0
CXBA 170800Z AUTO 26004KT 05/01 RMK AO1 T00490007,CXBA,2023-05-17T08:00:00Z,52.12,-110.1,4.9,0.7,260,4,,,,,,TRUE,TRUE,,,,,,,,,,,,,,,,,,,,,,,,,,,METAR,696.0
CXAT 170800Z AUTO 30016KT M04/M07 RMK AO1 SOG 08 5004 PK WND 32026/0719 SLP995 T10411070 50001,CXAT,2023-05-17T08:00:00Z,73.0,-85.03,-4.1,-7.0,300,16,,,,999.5,,TRUE,TRUE,,,,,,,,,,,,,,,,0.1,,,,,,,,,,,METAR,10.0
CXAK 170800Z AUTO 35001KT 08/02 RMK AO1 T00780015,CXAK,2023-05-17T08:00:00Z,52.35,-112.6,7.8,1.5,350,1,,,,,,TRUE,TRUE,,,,,,,,,,,,,,,,,,,,,,,,,,,METAR,799.0
CXAJ 170800Z AUTO 32005KT 08/02 RMK AO1 T00760016,CXAJ,2023-05-17T08:00:00Z,54.78,-112.82,7.6,1.6,320,5,,,,,,TRUE,TRUE,,,,,,,,,,,,,,,,,,,,,,,,,,,METAR,586.0
CXAG 170800Z AUTO 28007KT 07/01 RMK AO1 T00740011,CXAG,2023-05-17T08:00:00Z,53.92,-112.28,7.4,1.1,280,7,,,,,,TRUE,TRUE,,,,,,,,,,,,,,,,,,,,,,,,,,,METAR,632.0
CXAF 170800Z AUTO 30003KT 07/M00 RMK AO1 T00651004,CXAF,2023-05-17T08:00:00Z,54.28,-112.97,6.5,-0.4,300,3,,,,,,TRUE,TRUE,,,,,,,,,,,,,,,,,,,,,,,,,,,METAR,667.0
CWZW 170800Z AUTO 06001KT 06/M02 RMK AO1 SLP209 T00551022 52005,CWZW,2023-05-17T08:00:00Z,60.17,-132.73,5.5,-2.2,60,1,,,,1020.9,,TRUE,TRUE,,,,,,,,,,,,,,,,0.5,,,,,,,,,,,METAR,683.0
CWZQ 170800Z AUTO 32002KT 05/05 RMK AO1 SLP960 T00540049 52008,CWZQ,2023-05-17T08:00:00Z,46.53,-61.05,5.4,4.9,320,2,,,,996.0,,TRUE,TRUE,,,,,,,,,,,,,,,,0.8,,,,,,,,,,,METAR,13.0
CWZO 170800Z AUTO 23010KT RMK AO1,CWZO,2023-05-17T08:00:00Z,48.57,-123.25,,,230,10,,,,,,TRUE,TRUE,,,,,,,,,,,,,,,,,,,,,,,,,,,METAR,5.0
CWZN 170800Z AUTO 17015KT 05/04 RMK AO1 PK WND 17020/0724 SLP965 T00450035 56015,CWZN,2023-05-17T08:00:00Z,47.37,-55.8,4.5,3.5,170,15,,,,996.5,,TRUE,TRUE,,,,,,,,,,,,,,,,-1.5,,,,,,,,,,,METAR,63.0
CWZL 170800Z AUTO 04001KT 08/07 RMK AO1 SLP200 T00750073 50004,CWZL,2023-05-17T08:00:00Z,53.03,-131.6,7.5,7.3,40,1,,,,1020.0,,TRUE,TRUE,,,,,,,,,,,,,,,,0.4,,,,,,,,,,,METAR,17.0
CWZG 170800Z AUTO 03003KT 09/03 RMK AO1 SLP210 T00920027 52007,CWZG,2023-05-17T08:00:00Z,51.2,-115.55,9.2,2.7,30,3,,,,1021.0,,TRUE,TRUE,,,,,,,,,,,,,,,,0.7,,,,,,,,,,,METAR,1402.0
CWZA 170800Z AUTO 34001KT 17/14 RMK AO1 SLP173 T01670138 56003,CWZA,2023-05-17T08:00:00Z,49.25,-121.77,16.7,13.8,340,1,,,,1017.3,,TRUE,TRUE,,,,,,,,,,,,,,,,-0.3,,,,,,,,,,,METAR,18.0
CWYY 170800Z AUTO 15004KT 19/13 RMK AO1 SLP159 T01900127 50005,CWYY,2023-05-17T08:00:00Z,49.03,-119.43,19.0,12.7,150,4,,,,1015.9,,TRUE,TRUE,,,,,,,,,,,,,,,,0.5,,,,,,,,,,,METAR,284.0
CWYL 170800Z AUTO 08004KT 11/04 RMK AO1 SLP191 T01050035 51011,CWYL,2023-05-17T08:00:00Z,51.45,-116.33,10.5,3.5,80,4,,,,1019.1,,TRUE,TRUE,,,,,,,,,,,,,,,,1.1,,,,,,,,,,,METAR,1602.0
CWYJ 170800Z AUTO 26002KT 12/10 RMK AO1 SLP172 T01200102 58001,CWYJ,2023-05-17T08:00:00Z,48.45,-123.3,12.0,10.2,260,2,,,,1017.2,,TRUE,TRUE,,,,,,,,,,,,,,,,-0.1,,,,,,,,,,,METAR,59.0
CWXL 170800Z AUTO 33004KT 12/02 RMK AO1 SLP198 T01160015 53005,CWXL,2023-05-17T08:00:00Z,49.73,-111.45,11.6,1.5,330,4,,,,1019.8,,TRUE,TRUE,,,,,,,,,,,,,,,,0.5,,,,,,,,,,,METAR,815.0
CWXI 170800Z AUTO 11008KT 02/02 RMK AO1 SLP964 T00200017 58002,CWXI,2023-05-17T08:00:00Z,51.02,-57.1,2.0,1.7,110,8,,,,996.4,,TRUE,TRUE,,,,,,,,,,,,,,,,-0.2,,,,,,,,,,,METAR,15.0
CWXC 170800Z AUTO 34009KT M00/M07 RMK AO1 SLP052 T10041068 53008,CWXC,2023-05-17T08:00:00Z,48.88,-71.03,-0.4,-6.8,340,9,,,,1005.2,,TRUE,TRUE,,,,,,,,,,,,,,,,0.8,,,,,,,,,,,METAR,306.0
CWXA 170800Z AUTO 00026KT 08/05 RMK AO1 SLP251 T00750049 51007,CWXA,2023-05-17T08:00:00Z,51.07,-115.07,7.5,4.9,0,26,,,,1025.1,,TRUE,TRUE,,,,,,,,,,,,,,,,0.7,,,,,,,,,,,METAR,1303.0
CWWZ 170800Z AUTO 01017KT 07/02 RMK AO1 PK WND 01021/0736 SLP115 T00680020 53016,CWWZ,2023-05-17T08:00:00Z,43.25,-79.22,6.8,2.0,10,17,,,,1011.5,,TRUE,TRUE,,,,,,,,,,,,,,,,1.6,,,,,,,,,,,METAR,75.0
CWWS 170800Z AUTO 14014G19KT 05/02 RMK AO1 PK WND 15020/0709 SLP070 T00520018 56030,CWWS,2023-05-17T08:00:00Z,52.82,-97.62,5.2,1.8,140,14,19,,,1007.0,,TRUE,TRUE,,,,,,,,,,,,,,,,-3.0,,,,,,,,,,,METAR,220.0
CWWL 170800Z AUTO 15008KT 08/08 RMK AO1 SLP192 T00810077 50003,CWWL,2023-05-17T08:00:00Z,53.5,-130.63,8.1,7.7,150,8,,,,1019.2,,TRUE,TRUE,,,,,,,,,,,,,,,,0.3,,,,,,,,,,,METAR,8.0
CWWK 170800Z AUTO 03002KT 16/12 RMK AO1 SLP178 T01570119 58001,CWWK,2023-05-17T08:00:00Z,49.02,-122.78,15.7,11.9,30,2,,,,1017.8,,TRUE,TRUE,,,,,,,,,,,,,,,,-0.1,,,,,,,,,,,METAR,10.0
CWWF 170800Z AUTO 29007KT 15/08 RMK AO1 PK WND 32018/0707 SLP087 T01530075 55009,CWWF,2023-05-17T08:00:00Z,49.7,-103.8,15.3,7.5,290,7,,,,1008.7,,TRUE,TRUE,,,,,,,,,,,,,,,,-0.9,,,,,,,,,,,METAR,583.0
CWWE 170800Z AUTO 23004KT 06/06 RMK AO1 SLP965 T00610059 56001,CWWE,2023-05-17T08:00:00Z,43.98,-64.67,6.1,5.9,230,4,,,,996.5,,TRUE,TRUE,,,,,,,,,,,,,,,,-0.1,,,,,,,,,,,METAR,4.0
CWWB 170800Z AUTO 35013KT 06/M01 RMK AO1 PK WND 35018/0748 SLP122 T00591008 53016,CWWB,2023-05-17T08:00:00Z,43.3,-79.78,5.9,-0.8,350,13,,,,1012.2,,TRUE,TRUE,,,,,,,,,,,,,,,,1.6,,,,,,,,,,,METAR,77.0
CWWA 170800Z AUTO 00000KT 16/12 RMK AO1 SLP175 T01640124 58003,CWWA,2023-05-17T08:00:00Z,49.35,-123.18,16.4,12.4,0,0,,,,1017.5,,TRUE,TRUE,,,,,,,,,,,,,,,,-0.3,,,,,,,,,,,METAR,172.0
CWVU 170800Z AUTO 33012KT 07/05 RMK AO1 SLP978 T00710053 51007,CWVU,2023-05-17T08:00:00Z,44.28,-66.33,7.1,5.3,330,12,,,,997.8,,TRUE,TRUE,,,,,,,,,,,,,,,,0.7,,,,,,,,,,,METAR,4.0
CWVT 170800Z AUTO 33013G19KT 07/03 RMK AO1 PK WND 33021/0738 SLP185 T00670027 51002,CWVT,2023-05-17T08:00:00Z,55.83,-108.42,6.7,2.7,330,13,19,,,1018.5,,TRUE,TRUE,,,,,,,,,,,,,,,,0.2,,,,,,,,,,,METAR,431.0
CWVQ 170800Z AUTO 34009G16KT 02/M03 RMK AO1 SLP088 T00231030 53025,CWVQ,2023-05-17T08:00:00Z,45.42,-73.92,2.3,-3.0,340,9,16,,,1008.8,,TRUE,TRUE,,,,,,,,,,,,,,,,2.5,,,,,,,,,,,METAR,38.0
CWVP 170800Z AUTO 34009G15KT 09/02 RMK AO1 PK WND 01018/0711 SLP161 T00930020 53001,CWVP,2023-05-17T08:00:00Z,49.63,-109.52,9.3,2.0,340,9,15,,,1016.1,,TRUE,TRUE,,,,,,,,,,,,,,,,0.1,,,,,,,,,,,METAR,1269.0
CWVN 170800Z AUTO 02021G30KT 11/09 RMK AO1 7PAST HR 0015 PK WND 03030/0757 SLP147 P0046 T01110091 50121,CWVN,2023-05-17T08:00:00Z,49.07,-107.58,11.1,9.1,20,21,30,,,1014.7,,TRUE,TRUE,,,,,,,,,,,,,,,,0.0,,,,,0.46,,,,,,METAR,792.0
CWVI 170800Z AUTO 28006KT 06/01 RMK AO1 SLP210 T00580013 50002,CWVI,2023-05-17T08:00:00Z,53.52,-112.1,5.8,1.3,280,6,,,,1021.0,,TRUE,TRUE,,,,,,,,,,,,,,,,0.2,,,,,,,,,,,METAR,640.0
CWVF 170800Z AUTO 10005KT 14/13 RMK AO1 T01350130,CWVF,2023-05-17T08:00:00Z,49.1,-123.3,13.5,13.0,100,5,,,,,,TRUE,TRUE,,,,,,,,,,,,,,,,,,,,,,,,,,,METAR,13.0
CWUX 170800Z AUTO 29010KT 00/M07 RMK AO1 SLP059 T00001066 53005,CWUX,2023-05-17T08:00:00Z,48.3,-70.93,0.0,-6.6,290,10,,,,1005.9,,TRUE,TRUE,,,,,,,,,,,,,,,,0.5,,,,,,,,,,,METAR,150.0
CWUW 170800Z AUTO 26010KT ////SM ////// M11/M12 A2957,CWUW,2023-05-17T08:00:00Z,68.62,-71.12,-11.0,-12.0,260,10,,,29.568897,,,TRUE,,,,,,,,,,,,,,,,,,,,,,,,,,,,METAR,173.0
CWUS 170800Z AUTO 27002KT 18/11 RMK AO1 SLP160 T01760110 52006,CWUS,2023-05-17T08:00:00Z,49.57,-119.65,17.6,11.0,270,2,,,,1016.0,,TRUE,TRUE,,,,,,,,,,,,,,,,0.6,,,,,,,,,,,METAR,455.0
CWTY 170800Z AUTO 33006KT 03/M04 RMK AO1 SLP075 T00311041 52019,CWTY,2023-05-17T08:00:00Z,46.35,-72.52,3.1,-4.1,330,6,,,,1007.5,,TRUE,TRUE,,,,,,,,,,,,,,,,1.9,,,,,,,,,,,METAR,8.0
CWTT 170800Z AUTO 33007KT 02/M02 RMK AO1 PK WND 34019/0727 T00181023,CWTT,2023-05-17T08:00:00Z,45.27,-72.17,1.8,-2.3,330,7,,,,,,TRUE,TRUE,,,,,,,,,,,,,,,,,,,,,,,,,,,METAR,210.0
CWTN 170800Z AUTO 01006KT 03/M08 RMK AO1 SLP043 T00341078 52017,CWTN,2023-05-17T08:00:00Z,47.07,-70.78,3.4,-7.8,10,6,,,,1004.3,,TRUE,TRUE,,,,,,,,,,,,,,,,1.7,,,,,,,,,,,METAR,5.0
CWTG 170800Z AUTO 32003KT 03/M09 RMK AO1 SLP016 T00281088 53012,CWTG,2023-05-17T08:00:00Z,49.32,-67.37,2.8,-8.8,320,3,,,,1001.6,,TRUE,TRUE,,,,,,,,,,,,,,,,1.2,,,,,,,,,,,METAR,6.0
CWTA 170800Z AUTO 36005KT 03/M03 RMK AO1 SLP082 T00281034 53022,CWTA,2023-05-17T08:00:00Z,45.5,-73.58,2.8,-3.4,360,5,,,,1008.2,,TRUE,TRUE,,,,,,,,,,,,,,,,2.2,,,,,,,,,,,METAR,71.0
CWST 170800Z AUTO 34010KT 04/M07 RMK AO1 PK WND 33017/0707 SLP036 T00371068 53011,CWST,2023-05-17T08:00:00Z,47.35,-70.02,3.7,-6.8,340,10,,,,1003.6,,TRUE,TRUE,,,,,,,,,,,,,,,,1.1,,,,,,,,,,,METAR,31.0
CWSS 170800Z AUTO 21001KT 04/03 RMK AO1 SLP999 T00370032 53008,CWSS,2023-05-17T08:00:00Z,45.2,-67.25,3.7,3.2,210,1,,,,999.9,,TRUE,TRUE,,,,,,,,,,,,,,,,0.8,,,,,,,,,,,METAR,27.0
CWSR 170800Z AUTO 26009KT 09/M00 RMK AO1 SLP156 T00851004 58013,CWSR,2023-05-17T08:00:00Z,53.37,-107.55,8.5,-0.4,260,9,,,,1015.6,,TRUE,TRUE,,,,,,,,,,,,,,,,-1.3,,,,,,,,,,,METAR,589.0
CWSP 170800Z AUTO 29019KT 11/10 RMK AO1 PK WND 30023/0713 SLP180 T01080100 58002,CWSP,2023-05-17T08:00:00Z,48.38,-123.92,10.8,10.0,290,19,,,,1018.0,,TRUE,TRUE,,,,,,,,,,,,,,,,-0.2,,,,,,,,,,,METAR,2.0
CWSL 170800Z AUTO 19001KT 17/12 RMK AO1 SLP147 T01670116 53010,CWSL,2023-05-17T08:00:00Z,50.7,-119.28,16.7,11.6,190,1,,,,1014.7,,TRUE,TRUE,,,,,,,,,,,,,,,,1.0,,,,,,,,,,,METAR,353.0
CWSK 170800Z AUTO 01003KT 16/12 RMK AO1 SLP179 T01570124 56002,CWSK,2023-05-17T08:00:00Z,49.78,-123.17,15.7,12.4,10,3,,,,1017.9,,TRUE,TRUE,,,,,,,,,,,,,,,,-0.2,,,,,,,,,,,METAR,59.0
CWSG 170800Z AUTO 02011KT 04/M02 RMK AO1 PK WND 00018/0705 SLP009 T00431022 53011,CWSG,2023-05-17T08:00:00Z,49.12,-66.65,4.3,-2.2,20,11,,,,1000.9,,TRUE,TRUE,,,,,,,,,,,,,,,,1.1,,,,,,,,,,,METAR,5.0
CWSF 170800Z AUTO 27002KT 02/M03 RMK AO1 SLP995 T00161026 51006,CWSF,2023-05-17T08:00:00Z,49.25,-65.32,1.6,-2.6,270,2,,,,999.5,,TRUE,TRUE,,,,,,,,,,,,,,,,0.6,,,,,,,,,,,METAR,15.0
CWSD 170800Z AUTO 01011G16KT 04/03 RMK AO1 PK WND 01018/0716 SLP983 T00430030 51009,CWSD,2023-05-17T08:00:00Z,46.43,-63.85,4.3,3.0,10,11,16,,,998.3,,TRUE,TRUE,,,,,,,,,,,,,,,,0.9,,,,,,,,,,,METAR,12.0
CWRZ 170800Z AUTO 34008KT 03/M04 RMK AO1 SLP982 T00331040 53004,CWRZ,2023-05-17T08:00:00Z,48.42,-64.32,3.3,-4.0,340,8,,,,998.2,,TRUE,TRUE,,,,,,,,,,,,,,,,0.4,,,,,,,,,,,METAR,16.0
CWRY 170800Z AUTO 34006KT 08/01 RMK AO1 SLP207 T00760012 53010,CWRY,2023-05-17T08:00:00Z,49.12,-112.05,7.6,1.2,340,6,,,,1020.7,,TRUE,TRUE,,,,,,,,,,,,,,,,1.0,,,,,,,,,,,METAR,1048.0
CWRX 170800Z AUTO ///// ////SM ////// M01/M01 A2963,CWRX,2023-05-17T08:00:00Z,69.07,-79.07,-1.0,-1.0,,,,,29.630905,,,TRUE,,,,,,,,,,,,,,,,,,,,,,,,,,,,METAR,39.0
CWRU 170800Z AUTO 31009KT 11/ RMK AO1 SLP193 T0110 58002,CWRU,2023-05-17T08:00:00Z,50.12,-127.93,11.0,,310,9,,,,1019.3,,TRUE,TRUE,,,,,,,,,,,,,,,,-0.2,,,,,,,,,,,METAR,76.0
CWRT 170800Z AUTO 00000KT 09/07 RMK AO1 SLP222 T00870067 51005,CWRT,2023-05-17T08:00:00Z,49.62,-114.47,8.7,6.7,0,0,,,,1022.2,,TRUE,TRUE,,,,,,,,,,,,,,,,0.5,,,,,,,,,,,METAR,1311.0
CWRN 170800Z AUTO 22010KT 06/06 RMK AO1 SLP964 T00630058 58001,CWRN,2023-05-17T08:00:00Z,45.35,-60.98,6.3,5.8,220,10,,,,996.4,,TRUE,TRUE,,,,,,,,,,,,,,,,-0.1,,,,,,,,,,,METAR,8.0
CWRM 170800Z AUTO 33002KT 04/M00 RMK AO1 SLP217 T00431001 51007,CWRM,2023-05-17T08:00:00Z,52.42,-114.92,4.3,-0.1,330,2,,,,1021.7,,TRUE,TRUE,,,,,,,,,,,,,,,,0.7,,,,,,,,,,,METAR,986.0
CWRK 170800Z AUTO 35008KT M00/M07 RMK AO1 PK WND 35018/0750 SLP123 T10021069 52009,CWRK,2023-05-17T08:00:00Z,45.07,-77.87,-0.2,-6.9,350,8,,,,1012.3,,TRUE,TRUE,,,,,,,,,,,,,,,,0.9,,,,,,,,,,,METAR,328.0
CWRJ 170800Z AUTO 34006KT 08/M00 RMK AO1 SLP174 T00841004 51015,CWRJ,2023-05-17T08:00:00Z,51.57,-107.92,8.4,-0.4,340,6,,,,1017.4,,TRUE,TRUE,,,,,,,,,,,,,,,,1.5,,,,,,,,,,,METAR,586.0
CWRA 170800Z AUTO 21011KT 03/03 RMK AO1 SLP012 T00340034 56020,CWRA,2023-05-17T08:00:00Z,46.65,-53.07,3.4,3.4,210,11,,,,1001.2,,TRUE,TRUE,,,,,,,,,,,,,,,,-2.0,,,,,,,,,,,METAR,4.0
CWQV 170800Z AUTO 28010KT 04/ RMK AO1 T0035,CWQV,2023-05-17T08:00:00Z,48.27,-70.12,3.5,,280,10,,,,,,TRUE,TRUE,,,,,,,,,,,,,,,,,,,,,,,,,,,METAR,4.0
CWQS 170800Z AUTO 10002KT 13/08 RMK AO1 SLP190 T01250079 50002,CWQS,2023-05-17T08:00:00Z,53.32,-132.77,12.5,7.9,100,2,,,,1019.0,,TRUE,TRUE,,,,,,,,,,,,,,,,0.2,,,,,,,,,,,METAR,10.0
CWQR 170800Z AUTO 34005KT 01/M04 RMK AO1 T00111035,CWQR,2023-05-17T08:00:00Z,50.22,-64.22,1.1,-3.5,340,5,,,,,,TRUE,TRUE,,,,,,,,,,,,,,,,,,,,,,,,,,,METAR,9.0
CWQP 170800Z AUTO 36008KT 02/M04 RMK AO1 SLP114 T00171038 51016,CWQP,2023-05-17T08:00:00Z,43.83,-77.15,1.7,-3.8,360,8,,,,1011.4,,TRUE,TRUE,,,,,,,,,,,,,,,,1.6,,,,,,,,,,,METAR,77.0
CWQO 170800Z AUTO 33015KT 04/M06 RMK AO1 PK WND 34019/0758 T00401061,CWQO,2023-05-17T08:00:00Z,48.42,-68.9,4.0,-6.1,330,15,,,,,,TRUE,TRUE,,,,,,,,,,,,,,,,,,,,,,,,,,,METAR,7.0
CWQK 170800Z AUTO 28021KT 11/10 RMK AO1 PK WND 27032/0712 SLP175 T01100104 53005,CWQK,2023-05-17T08:00:00Z,48.3,-123.53,11.0,10.4,280,21,,,,1017.5,,TRUE,TRUE,,,,,,,,,,,,,,,,0.5,,,,,,,,,,,METAR,5.0
CWQH 170800Z AUTO 33006KT 02/M01 RMK AO1 SLP058 T00171007 53015,CWQH,2023-05-17T08:00:00Z,45.37,-71.82,1.7,-0.7,330,6,,,,1005.8,,TRUE,TRUE,,,,,,,,,,,,,,,,1.5,,,,,,,,,,,METAR,181.0
CWPZ 170800Z AUTO 00000KT 08/06 RMK AO1 SLP211 T00750056 51011,CWPZ,2023-05-17T08:00:00Z,54.38,-125.97,7.5,5.6,0,0,,,,1021.1,,TRUE,TRUE,,,,,,,,,,,,,,,,1.1,,,,,,,,,,,METAR,715.0
CWPR 170800Z AUTO 31003KT 12/10 RMK AO1 SLP177 T01200095 55000,CWPR,2023-05-17T08:00:00Z,49.47,-120.52,12.0,9.5,310,3,,,,1017.7,,TRUE,TRUE,,,,,,,,,,,,,,,,0.0,,,,,,,,,,,METAR,703.0
CWPO 170800Z AUTO 17011KT 13/04 RMK AO1 SLP116 T01270040 57017,CWPO,2023-05-17T08:00:00Z,49.2,-98.9,12.7,4.0,170,11,,,,1011.6,,TRUE,TRUE,,,,,,,,,,,,,,,,-1.7,,,,,,,,,,,METAR,471.0
CWPK 170800Z AUTO 32007G15KT M03/M08 RMK AO1 SLP102 T10301078 53011,CWPK,2023-05-17T08:00:00Z,47.92,-74.62,-3.0,-7.8,320,7,15,,,1010.2,,TRUE,TRUE,,,,,,,,,,,,,,,,1.1,,,,,,,,,,,METAR,443.0
CWPE 170800Z AUTO 33002KT 05/04 RMK AO1 SLP989 T00540037 53006,CWPE,2023-05-17T08:00:00Z,45.07,-66.47,5.4,3.7,330,2,,,,998.9,,TRUE,TRUE,,,,,,,,,,,,,,,,0.6,,,,,,,,,,,METAR,9.0
CWPD 170800Z AUTO 36008G16KT M04/M08 RMK AO1 SLP032 T10431075 53003,CWPD,2023-05-17T08:00:00Z,47.57,-71.22,-4.3,-7.5,360,8,16,,,1003.2,,TRUE,TRUE,,,,,,,,,,,,,,,,0.3,,,,,,,,,,,METAR,795.0
CWOY 170800Z AUTO 34007KT 10/03 RMK AO1 SLP134 T00990026 50007,CWOY,2023-05-17T08:00:00Z,51.77,-104.2,9.9,2.6,340,7,,,,1013.4,,TRUE,TRUE,,,,,,,,,,,,,,,,0.7,,,,,,,,,,,METAR,557.0
CWOE 170800Z AUTO 26011KT 11/03 RMK AO1 PK WND 26018/0715 SLP170 T01140030 53014,CWOE,2023-05-17T08:00:00Z,49.12,-110.47,11.4,3.0,260,11,,,,1017.0,,TRUE,TRUE,,,,,,,,,,,,,,,,1.4,,,,,,,,,,,METAR,931.0
CWOD 170800Z AUTO 31009KT M01/M06 RMK AO1 SLP082 T10061062 53007,CWOD,2023-05-17T08:00:00Z,48.85,-72.55,-0.6,-6.2,310,9,,,,1008.2,,TRUE,TRUE,,,,,,,,,,,,,,,,0.7,,,,,,,,,,,METAR,150.0
CWOC 170800Z AUTO 00000KT M02/M03 RMK AO1 SLP988 T10171029 52004,CWOC,2023-05-17T08:00:00Z,48.02,-65.32,-1.7,-2.9,0,0,,,,998.8,,TRUE,TRUE,,,,,,,,,,,,,,,,0.4,,,,,,,,,,,METAR,42.0
CWOB 170800Z AUTO 04016KT ////SM ////// M09/M10 A2966,CWOB,2023-05-17T08:00:00Z,63.33,-64.15,-9.0,-10.0,40,16,,,29.660433,,,TRUE,,,,,,,,,,,,,,,,,,,,,,,,,,,,METAR,369.0
CWNZ 170800Z AUTO 01003KT M02/M06 RMK AO1 SLP205 T10231058 57001,CWNZ,2023-05-17T08:00:00Z,49.75,-84.17,-2.3,-5.8,10,3,,,,1020.5,,TRUE,TRUE,,,,,,,,,,,,,,,,-0.1,,,,,,,,,,,METAR,261.0
CWNQ 170800Z AUTO 33006KT 03/M06 RMK AO1 SLP073 T00271058 51019,CWNQ,2023-05-17T08:00:00Z,46.22,-72.65,2.7,-5.8,330,6,,,,1007.3,,TRUE,TRUE,,,,,,,,,,,,,,,,1.9,,,,,,,,,,,METAR,9.0
CWNP 170800Z AUTO 10004KT 14/10 RMK AO1 SLP159 T01430098 51012,CWNP,2023-05-17T08:00:00Z,50.27,-117.82,14.3,9.8,100,4,,,,1015.9,,TRUE,TRUE,,,,,,,,,,,,,,,,1.2,,,,,,,,,,,METAR,517.0
CWNM 170800Z AUTO 21002KT 12/12 RMK AO1 SLP175 T01220122 51003,CWNM,2023-05-17T08:00:00Z,49.5,-117.3,12.2,12.2,210,2,,,,1017.5,,TRUE,TRUE,,,,,,,,,,,,,,,,0.3,,,,,,,,,,,METAR,533.0
CWNK 170800Z AUTO 15007KT 13/04 RMK AO1 SLP107 T01270042 57016,CWNK,2023-05-17T08:00:00Z,49.5,-98.03,12.7,4.2,150,7,,,,1010.7,,TRUE,TRUE,,,,,,,,,,,,,,,,-1.6,,,,,,,,,,,METAR,271.0
CWNH 170800Z AUTO 35009G15KT 02/M07 RMK AO1 PK WND 35020/0743 SLP035 T00231069 52015,CWNH,2023-05-17T08:00:00Z,47.8,-69.53,2.3,-6.9,350,9,15,,,1003.5,,TRUE,TRUE,,,,,,,,,,,,,,,,1.5,,,,,,,,,,,METAR,147.0
CWNE 170800Z AUTO 02009KT 05/01 RMK AO1 2PAST HR 1003 SLP981 P0001 T00480006 50002,CWNE,2023-05-17T08:00:00Z,47.07,-64.0,4.8,0.6,20,9,,,,998.1,,TRUE,TRUE,,,,,,,,,,,,,,,,0.2,,,,,0.01,,,,,,METAR,5.0
CWND 170800Z AUTO 08017KT M04/M05 RMK AO1 PK WND 08020/0755 SLP212 T10401048 58008,CWND,2023-05-17T08:00:00Z,69.63,-135.43,-4.0,-4.8,80,17,,,,1021.2,,TRUE,TRUE,,,,,,,,,,,,,,,,-0.8,,,,,,,,,,,METAR,14.0
CWNC 170800Z AUTO 02004KT 02/M04 RMK AO1 SLP118 T00191036 51018,CWNC,2023-05-17T08:00:00Z,43.95,-78.17,1.9,-3.6,20,4,,,,1011.8,,TRUE,TRUE,,,,,,,,,,,,,,,,1.8,,,,,,,,,,,METAR,71.0
CWMT 170800Z AUTO 18005KT 05/02 RMK AO1 SLP229 T00500019 50000,CWMT,2023-05-17T08:00:00Z,63.13,-117.25,5.0,1.9,180,5,,,,1022.9,,TRUE,TRUE,,,,,,,,,,,,,,,,0.0,,,,,,,,,,,SPECI,274.0
CWMQ 170800Z AUTO 31006KT 11/05 RMK AO1 SLP176 T01100048 53004,CWMQ,2023-05-17T08:00:00Z,49.9,-109.47,11.0,4.8,310,6,,,,1017.6,,TRUE,TRUE,,,,,,,,,,,,,,,,0.4,,,,,,,,,,,METAR,767.0
CWMM 170800Z AUTO 15001KT 18/13 RMK AO1 SLP176 T01780127 56003,CWMM,2023-05-17T08:00:00Z,49.22,-122.68,17.8,12.7,150,1,,,,1017.6,,TRUE,TRUE,,,,,,,,,,,,,,,,-0.3,,,,,,,,,,,METAR,2.0
CWMJ 170800Z AUTO 35009KT M00/M08 RMK AO1 PK WND 35021/0704 SLP121 T10031075 53016,CWMJ,2023-05-17T08:00:00Z,46.27,-76.0,-0.3,-7.5,350,9,,,,1012.1,,TRUE,TRUE,,,,,,,,,,,,,,,,1.6,,,,,,,,,,,METAR,198.0
CWME 170800Z AUTO 20002KT 14/13 RMK AO1 SLP188 T01420126 51004,CWME,2023-05-17T08:00:00Z,52.18,-127.47,14.2,12.6,200,2,,,,1018.8,,TRUE,TRUE,,,,,,,,,,,,,,,,0.4,,,,,,,,,,,METAR,23.0
CWLY 170800Z AUTO 18012G20KT 9SM FEW120 22/14 A3000 RMK SLP156 DENSITY ALT 1600FT,CWLY,2023-05-17T08:00:00Z,50.22,-121.58,22.0,14.0,180,12,20,9.0,30.0,1015.6,,TRUE,,,,,,,,FEW,12000,,,,,,,VFR,,,,,,,,,,,,METAR,228.0
CWLX 170800Z AUTO ///// ////SM ////// M07/M07 A2967,CWLX,2023-05-17T08:00:00Z,68.9,-75.15,-7.0,-7.0,,,,,29.66929,,,TRUE,,,,,,,,,,,,,,,,,,,,,,,,,,,,METAR,129.0
CWLS 170800Z AUTO 03005KT M01/M03 RMK AO1 SLP125 T10061031 53009,CWLS,2023-05-17T08:00:00Z,43.97,-80.75,-0.6,-3.1,30,5,,,,1012.5,,TRUE,TRUE,,,,,,,,,,,,,,,,0.9,,,,,,,,,,,METAR,413.0
CWLP 170800Z AUTO 30008KT 10/10 RMK AO1 SLP198 T00950095 50001,CWLP,2023-05-17T08:00:00Z,50.93,-127.63,9.5,9.5,300,8,,,,1019.8,,TRUE,TRUE,,,,,,,,,,,,,,,,0.1,,,,,,,,,,,METAR,15.0
CWLM 170800Z AUTO 24004KT 13/10 RMK AO1 SLP175 T01310103 50000,CWLM,2023-05-17T08:00:00Z,48.42,-123.32,13.1,10.3,240,4,,,,1017.5,,TRUE,TRUE,,,,,,,,,,,,,,,,0.0,,,,,,,,,,,METAR,62.0
CWLE 170800Z AUTO 02006KT 10/02 RMK AO1 PK WND 02022/0705 SLP171 T00950020 53023,CWLE,2023-05-17T08:00:00Z,50.95,-107.15,9.5,2.0,20,6,,,,1017.1,,TRUE,TRUE,,,,,,,,,,,,,,,,2.3,,,,,,,,,,,METAR,666.0
CWLC 170800Z AUTO 28004KT 09/09 RMK AO1 T00930091,CWLC,2023-05-17T08:00:00Z,54.3,-130.62,9.3,9.1,280,4,,,,,,TRUE,TRUE,,,,,,,,,,,,,,,,,,,,,,,,,,,METAR,27.0
CWKX 170800Z AUTO 02001KT 11/M00 RMK AO1 SLP219 T01071002 51018,CWKX,2023-05-17T08:00:00Z,58.43,-130.02,10.7,-0.2,20,1,,,,1021.9,,TRUE,TRUE,,,,,,,,,,,,,,,,1.8,,,,,,,,,,,METAR,807.0
CWKO 170800Z AUTO 35016G22KT 13/02 RMK AO1 PK WND 35024/0702 SLP141 T01290024 53026,CWKO,2023-05-17T08:00:00Z,49.17,-105.97,12.9,2.4,350,16,22,,,1014.1,,TRUE,TRUE,,,,,,,,,,,,,,,,2.6,,,,,,,,,,,METAR,914.0
CWKM 170800Z AUTO 09020KT ////SM OVC005 M03/M03 A3019,CWKM,2023-05-17T08:00:00Z,69.6,-140.17,-3.0,-3.0,90,20,,,30.188976,,,TRUE,,,,,,,,OVC,500,,,,,,,,,,,,,,,,,,,METAR,8.0
CWKH 170800Z AUTO 15/12 RMK AO1 SLP165 T01480123 58004,CWKH,2023-05-17T08:00:00Z,48.57,-123.55,14.8,12.3,,,,,,1016.5,,TRUE,TRUE,,,,,,,,,,,,,,,,-0.4,,,,,,,,,,,METAR,327.0
CWKG 170800Z AUTO 34003KT 08/07 RMK AO1 SLP966 T00750070 51006,CWKG,2023-05-17T08:00:00Z,44.43,-65.2,7.5,7.0,340,3,,,,996.6,,TRUE,TRUE,,,,,,,,,,,,,,,,0.6,,,,,,,,,,,METAR,154.0
CWKD 170800Z AUTO M06/M08 RMK AO1 SLP060 T10571084 53008,CWKD,2023-05-17T08:00:00Z,50.73,-71.02,-5.7,-8.4,,,,,,1006.0,,TRUE,TRUE,,,,,,,,,,,,,,,,0.8,,,,,,,,,,,METAR,496.0
CWJX 170800Z AUTO 04010KT 11/01 RMK AO1 SOG 01 3019 SLP183 T01130008,CWJX,2023-05-17T08:00:00Z,50.88,-109.5,11.3,0.8,40,10,,,,1018.3,,TRUE,TRUE,,,,,,,,,,,,,,,,,,,,,,,,,,,METAR,671.0
CWJW 170800Z AUTO 01005KT 12/M01 RMK AO1 SLP211 T01231008 51006,CWJW,2023-05-17T08:00:00Z,52.93,-118.03,12.3,-0.8,10,5,,,,1021.1,,TRUE,TRUE,,,,,,,,,,,,,,,,0.6,,,,,,,,,,,METAR,1022.0
CWJV 170800Z AUTO 06001KT 17/11 RMK AO1 SLP148 T01690108 51004,CWJV,2023-05-17T08:00:00Z,50.22,-119.18,16.9,10.8,60,1,,,,1014.8,,TRUE,TRUE,,,,,,,,,,,,,,,,0.4,,,,,,,,,,,METAR,487.0
CWJU 170800Z AUTO 19010KT 11/09 RMK AO1 SLP197 T01080088 50002,CWJU,2023-05-17T08:00:00Z,54.25,-133.07,10.8,8.8,190,10,,,,1019.7,,TRUE,TRUE,,,,,,,,,,,,,,,,0.2,,,,,,,,,,,METAR,47.0
CWJT 170800Z AUTO 25001KT 01/M01 RMK AO1 SLP090 T00051013 51014,CWJT,2023-05-17T08:00:00Z,46.07,-74.57,0.5,-1.3,250,1,,,,1009.0,,TRUE,TRUE,,,,,,,,,,,,,,,,1.4,,,,,,,,,,,METAR,236.0
CWJR 170800Z AUTO 14004KT 16/12 RMK AO1 SLP179 T01610119 53006,CWJR,2023-05-17T08:00:00Z,49.03,-116.5,16.1,11.9,140,4,,,,1017.9,,TRUE,TRUE,,,,,,,,,,,,,,,,0.6,,,,,,,,,,,METAR,642.0
CWJO 170800Z AUTO 00031KT M00/M06 RMK AO1 SLP057 T10021063 53006,CWJO,2023-05-17T08:00:00Z,48.43,-71.15,-0.2,-6.3,0,31,,,,1005.7,,TRUE,TRUE,,,,,,,,,,,,,,,,0.6,,,,,,,,,,,METAR,113.0
CWJI 170800Z AUTO 01022G27KT 13/03 RMK AO1 PK WND 01033/0718 SLP130 T01310031 53024,CWJI,2023-05-17T08:00:00Z,49.72,-105.93,13.1,3.1,10,22,27,,,1013.0,,TRUE,TRUE,,,,,,,,,,,,,,,,2.4,,,,,,,,,,,METAR,724.0
CWJH 170800Z AUTO 31004KT 06/05 RMK AO1 6005 SLP106 T00610048 50017,CWJH,2023-05-17T08:00:00Z,56.32,-103.27,6.1,4.8,310,4,,,,1010.6,,TRUE,TRUE,,,,,,,,,,,,,,,,1.7,,,,,,,,,,,METAR,345.0
CWJD 170800Z AUTO 30003KT 10/08 RMK AO1 SLP059 T01010075 56017,CWJD,2023-05-17T08:00:00Z,53.18,-99.27,10.1,7.5,300,3,,,,1005.9,,TRUE,TRUE,,,,,,,,,,,,,,,,-1.7,,,,,,,,,,,METAR,222.0
CWJC 170800Z AUTO 03008KT M00/M01 RMK AO1 SOG 01 1004 SLP232 T10011009,CWJC,2023-05-17T08:00:00Z,61.13,-100.9,-0.1,-0.9,30,8,,,,1023.2,,TRUE,TRUE,,,,,,,,,,,,,,,,,,,,,,,,,,,METAR,340.0
CWJB 170800Z AUTO 02/M06 RMK AO1 T00161057,CWJB,2023-05-17T08:00:00Z,46.78,-71.28,1.6,-5.7,,,,,,,,TRUE,TRUE,,,,,,,,,,,,,,,,,,,,,,,,,,,METAR,90.0
CWIZ 170800Z AUTO 35003KT 03/M02 RMK AO1 T00281021,CWIZ,2023-05-17T08:00:00Z,45.28,-73.33,2.8,-2.1,350,3,,,,,,TRUE,TRUE,,,,,,,,,,,,,,,,,,,,,,,,,,,METAR,45.0
CWIW 170800Z AUTO 33009KT 10/03 RMK AO1 PK WND 35017/0704 SLP148 T01020028 51006,CWIW,2023-05-17T08:00:00Z,51.67,-105.4,10.2,2.8,330,9,,,,1014.8,,TRUE,TRUE,,,,,,,,,,,,,,,,0.6,,,,,,,,,,,METAR,524.0
CWIT 170800Z AUTO 35004KT 03/M01 RMK AO1 SLP081 T00301008 53022,CWIT,2023-05-17T08:00:00Z,45.17,-73.67,3.0,-0.8,350,4,,,,1008.1,,TRUE,TRUE,,,,,,,,,,,,,,,,2.2,,,,,,,,,,,METAR,53.0
CWIS 170800Z AUTO 33006KT M03/M10 RMK AO1 SLP033 T10311104 53009,CWIS,2023-05-17T08:00:00Z,47.28,-70.63,-3.1,-10.4,330,6,,,,1003.3,,TRUE,TRUE,,,,,,,,,,,,,,,,0.9,,,,,,,,,,,METAR,720.0
CWIP 170800Z AUTO 30007KT 02/M06 RMK AO1 T00201058,CWIP,2023-05-17T08:00:00Z,50.17,-66.43,2.0,-5.8,300,7,,,,,,TRUE,TRUE,,,,,,,,,,,,,,,,,,,,,,,,,,,METAR,27.0
CWIK 170800Z AUTO 36010G15KT 14/05 RMK AO1 PK WND 32020/0725 SLP099 T01370053 53004,CWIK,2023-05-17T08:00:00Z,50.37,-102.58,13.7,5.3,360,10,15,,,1009.9,,TRUE,TRUE,,,,,,,,,,,,,,,,0.4,,,,,,,,,,,SPECI,597.0
CWIJ 170800Z AUTO 10007KT 04/01 RMK AO1 SLP225 T00390009 58001,CWIJ,2023-05-17T08:00:00Z,65.77,-111.23,3.9,0.9,100,7,,,,1022.5,,TRUE,TRUE,,,,,,,,,,,,,,,,-0.1,,,,,,,,,,,METAR,490.0
CWII 170800Z AUTO 15012KT 14/04 RMK AO1 SLP110 T01350042 56015,CWII,2023-05-17T08:00:00Z,50.7,-96.57,13.5,4.2,150,12,,,,1011.0,,TRUE,TRUE,,,,,,,,,,,,,,,,-1.5,,,,,,,,,,,METAR,216.0
CWIG 170800Z AUTO 02013KT RMK AO1 PK WND 01019/0731,CWIG,2023-05-17T08:00:00Z,47.07,-70.53,,,20,13,,,,,,TRUE,TRUE,,,,,,,,,,,,,,,,,,,,,,,,,,,METAR,12.0
CWID 170800Z AUTO 14002KT 07/02 RMK AO1 SLP233 T00690015 51004,CWID,2023-05-17T08:00:00Z,61.32,-117.6,6.9,1.5,140,2,,,,1023.3,,TRUE,TRUE,,,,,,,,,,,,,,,,0.4,,,,,,,,,,,METAR,160.0
CWHV 170800Z AUTO 34001KT M00/M02 RMK AO1 SLP038 T10041016 53011,CWHV,2023-05-17T08:00:00Z,46.2,-70.78,-0.4,-1.6,340,1,,,,1003.8,,TRUE,TRUE,,,,,,,,,,,,,,,,1.1,,,,,,,,,,,METAR,227.0
CWHT 170800Z AUTO 34004KT 10/M05 RMK AO1 SLP201 T01011053 51011,CWHT,2023-05-17T08:00:00Z,60.77,-137.58,10.1,-5.3,340,4,,,,1020.1,,TRUE,TRUE,,,,,,,,,,,,,,,,1.1,,,,,,,,,,,METAR,601.0
CWHQ 170800Z AUTO 31003KT M00/M05 RMK AO1 T10041050,CWHQ,2023-05-17T08:00:00Z,46.68,-71.97,-0.4,-5.0,310,3,,,,,,TRUE,TRUE,,,,,,,,,,,,,,,,,,,,,,,,,,,METAR,56.0
CWHP 170800Z AUTO 34002KT 04/02 RMK AO1 SLP961 T00400019 56002,CWHP,2023-05-17T08:00:00Z,49.08,-61.7,4.0,1.9,340,2,,,,996.1,,TRUE,TRUE,,,,,,,,,,,,,,,,-0.2,,,,,,,,,,,METAR,7.0
CWHO 170800Z AUTO 00021KT M02/M04 RMK AO1 SLP992 T10161037 52007,CWHO,2023-05-17T08:00:00Z,55.45,-60.22,-1.6,-3.7,0,21,,,,999.2,,TRUE,TRUE,,,,,,,,,,,,,,,,0.7,,,,,,,,,,,METAR,16.0
CWHL 170800Z AUTO 28002KT 09/09 RMK AO1 SLP189 T00920091 50002,CWHL,2023-05-17T08:00:00Z,54.17,-130.35,9.2,9.1,280,2,,,,1018.9,,TRUE,TRUE,,,,,,,,,,,,,,,,0.2,,,,,,,,,,,METAR,5.0
CWHI 170800Z AUTO 34010KT 08/M01 RMK AO1 T00781014,CWHI,2023-05-17T08:00:00Z,51.7,-113.22,7.8,-1.4,340,10,,,,,,TRUE,TRUE,,,,,,,,,,,,,,,,,,,,,,,,,,,METAR,906.0
CWGY 170800Z AUTO 31003KT 05/01 RMK AO1 SLP205 T00470006 51017,CWGY,2023-05-17T08:00:00Z,51.67,-110.2,4.7,0.6,310,3,,,,1020.5,,TRUE,TRUE,,,,,,,,,,,,,,,,1.7,,,,,,,,,,,METAR,709.0
CWGW 170800Z AUTO 36002KT 12/11 RMK AO1 6PAST HR 1019 SLP221 P0006 T01190107 50023,CWGW,2023-05-17T08:00:00Z,49.75,-114.9,11.9,10.7,360,2,,,,1022.1,,TRUE,TRUE,,,,,,,,,,,,,,,,2.3,,,,,0.06,,,,,,METAR,1137.0
CWGT 170800Z AUTO 09006KT 19/13 RMK AO1 PK WND 13017/0700 SLP175 T01890130 53004,CWGT,2023-05-17T08:00:00Z,49.48,-124.43,18.9,13.0,90,6,,,,1017.5,,TRUE,TRUE,,,,,,,,,,,,,,,,0.4,,,,,,,,,,,METAR,5.0
CWGR 170800Z AUTO 36010KT 05/04 RMK AO1 2008 SLP964 T00470040 50002,CWGR,2023-05-17T08:00:00Z,47.42,-61.77,4.7,4.0,360,10,,,,996.4,,TRUE,TRUE,,,,,,,,,,,,,,,,0.2,,,,,,,,,,,METAR,4.0
CWGM 170800Z AUTO 22002KT 05/04 RMK AO1 SLP224 T00500037 50006,CWGM,2023-05-17T08:00:00Z,49.13,-113.8,5.0,3.7,220,2,,,,1022.4,,TRUE,TRUE,,,,,,,,,,,,,,,,0.6,,,,,,,,,,,METAR,1292.0
CWGL 170800Z AUTO 36009KT 01/M05 RMK AO1 SLP115 T00081049 53014,CWGL,2023-05-17T08:00:00Z,44.53,-79.22,0.8,-4.9,360,9,,,,1011.5,,TRUE,TRUE,,,,,,,,,,,,,,,,1.4,,,,,,,,,,,METAR,220.0
CWGH 170800Z AUTO 02004KT 02/M03 RMK AO1 SLP103 T00231026 53017,CWGH,2023-05-17T08:00:00Z,44.42,-75.85,2.3,-2.6,20,4,,,,1010.3,,TRUE,TRUE,,,,,,,,,,,,,,,,1.7,,,,,,,,,,,METAR,76.0
CWGD 170800Z AUTO 03009KT 02/M02 RMK AO1 SLP133 T00241020 53014,CWGD,2023-05-17T08:00:00Z,43.77,-81.72,2.4,-2.0,30,9,,,,1013.3,,TRUE,TRUE,,,,,,,,,,,,,,,,1.4,,,,,,,,,,,METAR,214.0
CWGB 170800Z AUTO 08001KT 16/ RMK AO1 SLP166 T0162 50000,CWGB,2023-05-17T08:00:00Z,49.35,-124.13,16.2,,80,1,,,,1016.6,,TRUE,TRUE,,,,,,,,,,,,,,,,0.0,,,,,,,,,,,METAR,6.0
CWFQ 170800Z AUTO 36008KT 01/M03 RMK AO1 SLP069 T00121027 53019,CWFQ,2023-05-17T08:00:00Z,45.03,-72.85,1.2,-2.7,360,8,,,,1006.9,,TRUE,TRUE,,,,,,,,,,,,,,,,1.9,,,,,,,,,,,METAR,190.0
CWFJ 170800Z AUTO 27002KT 11/02 RMK AO1 T01080018,CWFJ,2023-05-17T08:00:00Z,49.2,-113.27,10.8,1.8,270,2,,,,,,TRUE,TRUE,,,,,,,,,,,,,,,,,,,,,,,,,,,METAR,1142.0
CWFF 170800Z AUTO 30007KT 08/01 RMK AO1 SLP135 T00790010 58007,CWFF,2023-05-17T08:00:00Z,52.82,-104.6,7.9,1.0,300,7,,,,1013.5,,TRUE,TRUE,,,,,,,,,,,,,,,,-0.7,,,,,,,,,,,METAR,482.0
CWEZ 170800Z AUTO 26012KT 12/10 RMK AO1 SLP164 T01150102 58005,CWEZ,2023-05-17T08:00:00Z,48.78,-123.05,11.5,10.2,260,12,,,,1016.4,,TRUE,TRUE,,,,,,,,,,,,,,,,-0.5,,,,,,,,,,,METAR,23.0
CWEW 170800Z AUTO 31002KT 01/M03 RMK AO1 SLP086 T00111031 51021,CWEW,2023-05-17T08:00:00Z,45.82,-73.43,1.1,-3.1,310,2,,,,1008.6,,TRUE,TRUE,,,,,,,,,,,,,,,,2.1,,,,,,,,,,,METAR,17.0
CWEU 170800Z 27011G25KT 250V330 3/8SM -SN BLSN BKN010 OVC023 M12/M14 A2947 RMK BLSN2SC5SC1 SLP992,CWEU,2023-05-17T08:00:00Z,80.0,-85.93,-12.0,-14.0,270,11,25,0.38,29.471457,999.2,,,,,,,,,BLSN -SN,BKN,1000,OVC,2300,,,,,LIFR,,,,,,,,,,,,METAR,2.0
CWER 170800Z AUTO 35010G21KT RMK AO1 PK WND 01021/0755,CWER,2023-05-17T08:00:00Z,47.0,-70.82,,,350,10,21,,,,,TRUE,TRUE,,,,,,,,,,,,,,,,,,,,,,,,,,,METAR,4.0
CWEQ 170800Z AUTO 30005KT 15/07 RMK AO1 SLP092 T01450072 51018,CWEQ,2023-05-17T08:00:00Z,52.12,-101.22,14.5,7.2,300,5,,,,1009.2,,TRUE,TRUE,,,,,,,,,,,,,,,,1.8,,,,,,,,,,,METAR,331.0
CWEP 170800Z AUTO 34013KT 05/05 RMK AO1 SLP968 T00490047 53011,CWEP,2023-05-17T08:00:00Z,46.45,-61.98,4.9,4.7,340,13,,,,996.8,,TRUE,TRUE,,,,,,,,,,,,,,,,1.1,,,,,,,,,,,METAR,9.0
CWEL 170800Z AUTO 01005KT 15/13 RMK AO1 SLP168 T01510131 58002,CWEL,2023-05-17T08:00:00Z,49.22,-123.8,15.1,13.1,10,5,,,,1016.8,,TRUE,TRUE,,,,,,,,,,,,,,,,-0.2,,,,,,,,,,,METAR,0.0
CWEH 170800Z AUTO 01015KT 11/03 RMK AO1 3008 PK WND 01025/0714 SLP155 T01110026 50003,CWEH,2023-05-17T08:00:00Z,49.43,-108.98,11.1,2.6,10,15,,,,1015.5,,TRUE,TRUE,,,,,,,,,,,,,,,,0.3,,,,,,,,,,,METAR,1077.0
CWEF 170800Z AUTO 36005KT 04/04 RMK AO1 SLP943 T00410040 53009,CWEF,2023-05-17T08:00:00Z,47.22,-60.13,4.1,4.0,360,5,,,,994.3,,TRUE,TRUE,,,,,,,,,,,,,,,,0.9,,,,,,,,,,,METAR,27.0
CWEE 170800Z AUTO M02/M07 RMK AO1 SLP078 T10231068 53008,CWEE,2023-05-17T08:00:00Z,49.27,-73.35,-2.3,-6.8,,,,,,1007.8,,TRUE,TRUE,,,,,,,,,,,,,,,,0.8,,,,,,,,,,,METAR,302.0
CWEB 170800Z AUTO 00030KT 12/12 RMK AO1 SLP198 T01150116 50000,CWEB,2023-05-17T08:00:00Z,49.38,-126.55,11.5,11.6,0,30,,,,1019.8,,TRUE,TRUE,,,,,,,,,,,,,,,,0.0,,,,,,,,,,,METAR,1.0
CWDZ 170800Z AUTO 33003KT 09/M00 RMK AO1 SLP219 T00861004 53015,CWDZ,2023-05-17T08:00:00Z,51.43,-112.67,8.6,-0.4,330,3,,,,1021.9,,TRUE,TRUE,,,,,,,,,,,,,,,,1.5,,,,,,,,,,,METAR,689.0
CWDV 170800Z AUTO 14002KT 04/M02 RMK AO1 SLP181 T00351020 53001,CWDV,2023-05-17T08:00:00Z,49.02,-90.47,3.5,-2.0,140,2,,,,1018.1,,TRUE,TRUE,,,,,,,,,,,,,,,,0.1,,,,,,,,,,,METAR,487.0
CWDQ 170800Z AUTO 31010G18KT M00/M08 RMK AO1 PK WND 33022/0738 SLP079 T10031078 53011,CWDQ,2023-05-17T08:00:00Z,47.42,-72.78,-0.3,-7.8,310,10,18,,,1007.9,,TRUE,TRUE,,,,,,,,,,,,,,,,1.1,,,,,,,,,,,METAR,174.0
CWDO 170800Z AUTO 09008KT 01/01 RMK AO1 3PAST HR 6020 SLP956 P0001 T00110011 50011,CWDO,2023-05-17T08:00:00Z,49.68,-54.78,1.1,1.1,90,8,,,,995.6,,TRUE,TRUE,,,,,,,,,,,,,,,,1.1,,,,,0.01,,,,,,METAR,89.0
CWDM 170800Z AUTO 01009KT 02/M01 RMK AO1 SLP966 T00201012 56001,CWDM,2023-05-17T08:00:00Z,50.47,-59.63,2.0,-1.2,10,9,,,,996.6,,TRUE,TRUE,,,,,,,,,,,,,,,,-0.1,,,,,,,,,,,METAR,2.0
CWDK 170800Z AUTO 35006KT 12/02 RMK AO1 SLP218 T01190020 51008,CWDK,2023-05-17T08:00:00Z,50.02,-113.62,11.9,2.0,350,6,,,,1021.8,,TRUE,TRUE,,,,,,,,,,,,,,,,0.8,,,,,,,,,,,METAR,1014.0
CWDJ 170800Z AUTO 36019G24KT 13/03 RMK AO1 PK WND 01025/0724 SLP121 T01290029 53022,CWDJ,2023-05-17T08:00:00Z,50.4,-104.58,12.9,2.9,360,19,24,,,1012.1,,TRUE,TRUE,,,,,,,,,,,,,,,,2.2,,,,,,,,,,,METAR,576.0
CWDC 170800Z AUTO 04011G19KT 02/M00 RMK AO1 PK WND 05019/0751 SLP209 T00221004 51023,CWDC,2023-05-17T08:00:00Z,59.57,-108.48,2.2,-0.4,40,11,19,,,1020.9,,TRUE,TRUE,,,,,,,,,,,,,,,,2.3,,,,,,,,,,,METAR,311.0
CWDA 170800Z AUTO 00006KT M00/ RMK AO1 T1002,CWDA,2023-05-17T08:00:00Z,50.72,-56.12,-0.2,,0,6,,,,,,TRUE,TRUE,,,,,,,,,,,,,,,,,,,,,,,,,,,METAR,30.0
CWCT 170800Z AUTO 34006KT 07/01 RMK AO1 SLP224 T00680013 51012,CWCT,2023-05-17T08:00:00Z,52.07,-111.43,6.8,1.3,340,6,,,,1022.4,,TRUE,TRUE,,,,,,,,,,,,,,,,1.2,,,,,,,,,,,METAR,793.0
CWCO 170800Z AUTO 01006KT 03/M02 RMK AO1 SLP144 T00331018 52014,CWCO,2023-05-17T08:00:00Z,44.5,-80.22,3.3,-1.8,10,6,,,,1014.4,,TRUE,TRUE,,,,,,,,,,,,,,,,1.4,,,,,,,,,,,METAR,182.0
CWCJ 170800Z AUTO 06002KT M03/M06 RMK AO1 SLP204 T10301059 54000,CWCJ,2023-05-17T08:00:00Z,48.6,-86.28,-3.0,-5.9,60,2,,,,1020.4,,TRUE,TRUE,,,,,,,,,,,,,,,,,,,,,,,,,,,METAR,207.0
CWCI 170800Z AUTO 05015KT 01/M03 RMK AO1 PK WND 03021/0721 SLP195 T00091034 51011,CWCI,2023-05-17T08:00:00Z,47.33,-85.82,0.9,-3.4,50,15,,,,1019.5,,TRUE,TRUE,,,,,,,,,,,,,,,,1.1,,,,,,,,,,,METAR,167.0
CWCF 170800Z AUTO 14009KT 13/03 RMK AO1 SLP086 T01290027 56026,CWCF,2023-05-17T08:00:00Z,52.35,-97.03,12.9,2.7,140,9,,,,1008.6,,TRUE,TRUE,,,,,,,,,,,,,,,,-2.6,,,,,,,,,,,METAR,219.0
CWBZ 170800Z AUTO 34006KT 03/M04 RMK AO1 PK WND 33018/0701 SLP087 T00271039 53024,CWBZ,2023-05-17T08:00:00Z,45.12,-74.28,2.7,-3.9,340,6,,,,1008.7,,TRUE,TRUE,,,,,,,,,,,,,,,,2.4,,,,,,,,,,,METAR,49.0
CWBY 170800Z AUTO 35004KT M00/M04 RMK AO1 SLP993 T10041041 53007,CWBY,2023-05-17T08:00:00Z,49.83,-64.28,-0.4,-4.1,350,4,,,,999.3,,TRUE,TRUE,,,,,,,,,,,,,,,,0.7,,,,,,,,,,,METAR,56.0
CWBV 170800Z AUTO 23008KT 05/05 RMK AO1 SLP952 T00510048 55000,CWBV,2023-05-17T08:00:00Z,44.82,-62.33,5.1,4.8,230,8,,,,995.2,,TRUE,TRUE,,,,,,,,,,,,,,,,0.0,,,,,,,,,,,METAR,16.0
CWBU 170800Z AUTO 30010KT 10/02 RMK AO1 SLP118 T00970019 58012,CWBU,2023-05-17T08:00:00Z,53.33,-104.02,9.7,1.9,300,10,,,,1011.8,,TRUE,TRUE,,,,,,,,,,,,,,,,-1.2,,,,,,,,,,,SPECI,369.0
CWBT 170800Z AUTO 00000KT M04/M06 RMK AO1 SLP995 T10381059 53006,CWBT,2023-05-17T08:00:00Z,50.27,-64.23,-3.8,-5.9,0,0,,,,999.5,,TRUE,TRUE,,,,,,,,,,,,,,,,0.6,,,,,,,,,,,METAR,12.0
CWBS 170800Z AUTO 32010KT 03/M05 RMK AO1 T00311052,CWBS,2023-05-17T08:00:00Z,46.18,-72.92,3.1,-5.2,320,10,,,,,,TRUE,TRUE,,,,,,,,,,,,,,,,,,,,,,,,,,,METAR,3.0
CWBO 170800Z AUTO 33005KT 09/02 RMK AO1 SLP208 T00900015 53013,CWBO,2023-05-17T08:00:00Z,50.53,-111.83,9.0,1.5,330,5,,,,1020.8,,TRUE,TRUE,,,,,,,,,,,,,,,,1.3,,,,,,,,,,,METAR,752.0
CWBK 170800Z AUTO 34008KT 06/05 RMK AO1 SLP971 T00610054 53010,CWBK,2023-05-17T08:00:00Z,45.77,-62.67,6.1,5.4,340,8,,,,997.1,,TRUE,TRUE,,,,,,,,,,,,,,,,1.0,,,,,,,,,,,METAR,2.0
CWBA 170800Z AUTO 35007KT M01/M06 RMK AO1 T10061055,CWBA,2023-05-17T08:00:00Z,46.72,-79.1,-0.6,-5.5,350,7,,,,,,TRUE,TRUE,,,,,,,,,,,,,,,,,,,,,,,,,,,METAR,181.0
CWAV 170800Z AUTO 23001KT 05/02 RMK AO1 SLP240 T00500018 51007,CWAV,2023-05-17T08:00:00Z,51.77,-114.67,5.0,1.8,230,1,,,,1024.0,,TRUE,TRUE,,,,,,,,,,,,,,,,0.7,,,,,,,,,,,METAR,1115.0
CWAR 170800Z AUTO 14011KT 07/05 RMK AO1 6019 SLP991 T00650053 50001,CWAR,2023-05-17T08:00:00Z,47.28,-54.0,6.5,5.3,140,11,,,,999.1,,TRUE,TRUE,,,,,,,,,,,,,,,,0.1,,,,,,,,,,,METAR,6.0
CWAQ 170800Z AUTO 33016G21KT 12/06 RMK AO1 PK WND 33021/0756 SLP117 T01240060 53012,CWAQ,2023-05-17T08:00:00Z,49.05,-105.48,12.4,6.0,330,16,21,,,1011.7,,TRUE,TRUE,,,,,,,,,,,,,,,,1.2,,,,,,,,,,,METAR,761.0
CWAJ 170800Z AUTO 01014G19KT RMK AO1 PK WND 00020/0731 51019,CWAJ,2023-05-17T08:00:00Z,42.25,-81.9,,,10,14,19,,,,,TRUE,TRUE,,,,,,,,,,,,,,,,1.9,,,,,,,,,,,METAR,177.0
CWAF 170800Z AUTO 33009KT 04/M04 RMK AO1 T00391035,CWAF,2023-05-17T08:00:00Z,48.07,-69.55,3.9,-3.5,330,9,,,,,,TRUE,TRUE,,,,,,,,,,,,,,,,,,,,,,,,,,,METAR,6.0
CTRA 170800Z AUTO 14003KT 09/M00 RMK AO1 SLP152 T00891002 58008,CTRA,2023-05-17T08:00:00Z,49.67,-93.73,8.9,-0.2,140,3,,,,1015.2,,TRUE,TRUE,,,,,,,,,,,,,,,,-0.8,,,,,,,,,,,METAR,432.0
CTNK 170800Z AUTO 36003KT M02/M07 RMK AO1 SLP138 T10201071 53010,CTNK,2023-05-17T08:00:00Z,45.53,-78.27,-2.0,-7.1,360,3,,,,1013.8,,TRUE,TRUE,,,,,,,,,,,,,,,,1.0,,,,,,,,,,,METAR,405.0
CTCK 170800Z AUTO 32003KT 01/M03 RMK AO1 SLP098 T00051031 53021,CTCK,2023-05-17T08:00:00Z,45.25,-74.97,0.5,-3.1,320,3,,,,1009.8,,TRUE,TRUE,,,,,,,,,,,,,,,,2.1,,,,,,,,,,,METAR,84.0
CPSV 170800Z AUTO 32011KT 11/02 RMK AO1 T01090024,CPSV,2023-05-17T08:00:00Z,49.92,-110.92,10.9,2.4,320,11,,,,,,TRUE,TRUE,,,,,,,,,,,,,,,,,,,,,,,,,,,METAR,766.0
CPST 170800Z AUTO 25003KT 10/M00 RMK AO1 T00991003,CPST,2023-05-17T08:00:00Z,51.03,-113.28,9.9,-0.3,250,3,,,,,,TRUE,TRUE,,,,,,,,,,,,,,,,,,,,,,,,,,,METAR,1005.0
CPRY 170800Z AUTO 25005KT 08/02 RMK AO1 T00820024,CPRY,2023-05-17T08:00:00Z,49.48,-112.68,8.2,2.4,250,5,,,,,,TRUE,TRUE,,,,,,,,,,,,,,,,,,,,,,,,,,,METAR,947.0
CPRO 170800Z AUTO 30006KT 07/03 RMK AO1 T00730026,CPRO,2023-05-17T08:00:00Z,50.83,-112.05,7.3,2.6,300,6,,,,,,TRUE,TRUE,,,,,,,,,,,,,,,,,,,,,,,,,,,METAR,733.0
CPIN 170800Z AUTO 32014KT ////SM ////// ///// A////,CPIN,2023-05-17T08:00:00Z,,,,,320,14,,,,,,TRUE,,,,,,,,,,,,,,,,,,,,,,,,,,,,METAR,
CPFI 170800Z AUTO 31007KT 10/02 RMK AO1 T00990022,CPFI,2023-05-17T08:00:00Z,49.8,-112.03,9.9,2.2,310,7,,,,,,TRUE,TRUE,,,,,,,,,,,,,,,,,,,,,,,,,,,METAR,804.0
CPEH 170800Z AUTO 10/03 RMK AO1 T00960032,CPEH,2023-05-17T08:00:00Z,50.18,-112.43,9.6,3.2,,,,,,,,TRUE,TRUE,,,,,,,,,,,,,,,,,,,,,,,,,,,METAR,814.0
CPBT 170800Z AUTO 30004KT 06/02 RMK AO1 T00550024,CPBT,2023-05-17T08:00:00Z,49.53,-113.05,5.5,2.4,300,4,,,,,,TRUE,TRUE,,,,,,,,,,,,,,,,,,,,,,,,,,,METAR,998.0
CMGB 170800Z AUTO 36002KT 02/M04 RMK AO1 SLP074 T00221035 53023,CMGB,2023-05-17T08:00:00Z,45.37,-72.77,2.2,-3.5,360,2,,,,1007.4,,TRUE,TRUE,,,,,,,,,,,,,,,,2.3,,,,,,,,,,,SPECI,87.0
CMFM 170800Z AUTO 34005KT M03/M08 RMK AO1 SLP036 T10271084 53003,CMFM,2023-05-17T08:00:00Z,47.32,-71.15,-2.7,-8.4,340,5,,,,1003.6,,TRUE,TRUE,,,,,,,,,,,,,,,,0.3,,,,,,,,,,,SPECI,663.0
CERM 170800Z AUTO 31006KT 02/M06 RMK AO1 SLP013 T00241058 52012,CERM,2023-05-17T08:00:00Z,47.42,-68.32,2.4,-5.8,310,6,,,,1001.3,,TRUE,TRUE,,,,,,,,,,,,,,,,1.2,,,,,,,,,,,METAR,151.0
CBBC 170800Z AUTO 00000KT 3/8SM -RA FG VV002 10/10 A3010 RMK SLP196,CBBC,2023-05-17T08:00:00Z,52.18,-128.15,10.0,10.0,0,0,,0.38,30.100393,1019.6,,TRUE,,,,,,,-RA FG,OVX,0,,,,,,,LIFR,,,,,,,,,,,200,METAR,36.0
CBAR 170800Z AUTO 07017KT ////SM ////// M04/M05 A3022,CBAR,2023-05-17T08:00:00Z,,,-4.0,-5.0,70,17,,,30.221457,,,TRUE,,,,,,,,,,,,,,,,,,,,,,,,,,,,METAR,
CAHR 170800Z AUTO 36010KT 04/03 RMK AO1 1010 SLP978 T00360028 50002,CAHR,2023-05-17T08:00:00Z,46.35,-63.17,3.6,2.8,360,10,,,,997.8,,TRUE,TRUE,,,,,,,,,,,,,,,,0.2,,,,,,,,,,,METAR,52.0
BIVM 170800Z 27008KT 0450 DZ FG OVC001 08/08 Q1009,BIVM,2023-05-17T08:00:00Z,63.42,-20.28,8.0,8.0,270,8,,0.28,29.793306,,,,,,,,,,DZ FG,OVC,100,,,,,,,LIFR,,,,,,,,,,,,METAR,93.0
BIRK 170800Z 27009KT 1500 -DZ BR OVC003 08/07 Q1008,BIRK,2023-05-17T08:00:00Z,64.13,-21.93,8.0,7.0,270,9,,0.93,29.763779,,,,,,,,,,-DZ BR,OVC,300,,,,,,,LIFR,,,,,,,,,,,,METAR,12.0
BIIS 170800Z 24015KT 9999 VCSH FEW020 BKN025 10/05 Q1004,BIIS,2023-05-17T08:00:00Z,66.05,-23.13,10.0,5.0,240,15,,6.21,29.64567,,,,,,,,,,VCSH,FEW,2000,BKN,2500,,,,,MVFR,,,,,,,,,,,,METAR,3.0
BIHN 170800Z 34003KT 9999 FEW010 SCT020 OVC040 07/05 Q1010,BIHN,2023-05-17T08:00:00Z,64.3,-15.23,7.0,5.0,340,3,,6.21,29.822834,,,,,,,,,,,FEW,1000,SCT,2000,OVC,4000,,,VFR,,,,,,,,,,,,METAR,8.0
BIGR 170800Z 17006KT 9999 BKN074 07/03 Q1006,BIGR,2023-05-17T08:00:00Z,66.53,-18.02,7.0,3.0,170,6,,6.21,29.704725,,,,,,,,,,,BKN,7400,,,,,,,VFR,,,,,,,,,,,,METAR,35.0
BIEG 170800Z 20012KT CAVOK 10/03 Q1008,BIEG,2023-05-17T08:00:00Z,65.27,-14.4,10.0,3.0,200,12,,6.21,29.763779,,,,,,,,,,,CAVOK,,,,,,,,VFR,,,,,,,,,,,,METAR,20.0
BIBD 170800Z 24016KT 9999 VCSH FEW016 BKN020 08/06 Q1005,BIBD,2023-05-17T08:00:00Z,65.63,-23.55,8.0,6.0,240,16,,6.21,29.675198,,,,,,,,,,VCSH,FEW,1600,BKN,2000,,,,,MVFR,,,,,,,,,,,,METAR,10.0
BIAR 170800Z 19011KT 9999 FEW070 11/03 Q1006,BIAR,2023-05-17T08:00:00Z,65.67,-18.07,11.0,3.0,190,11,,6.21,29.704725,,,,,,,,,,,FEW,7000,,,,,,,VFR,,,,,,,,,,,,METAR,1.0
AYPY 170800Z 22010KT 9999 SCT020 BKN090 28/25 Q1009 RMK:CB ASSW SHRA TO E,AYPY,2023-05-17T08:00:00Z,-9.43,147.22,28.0,25.0,220,10,,6.21,29.793306,,,,,,,,,,,SCT,2000,BKN,9000,,,,,VFR,,,,,,,,,,,,METAR,44.0
"AYNZ 170800Z 07005G10KT 9999 -DZ SCT030 BKN060 28/24 Q1008 RMK: CB IN AREA, +SHRA N TO NE AND S",AYNZ,2023-05-17T08:00:00Z,-6.57,146.72,28.0,24.0,70,5,10,6.21,29.763779,,,,,,,,,,-DZ,SCT,3000,BKN,6000,,,,,VFR,,,,,,,,,,,,METAR,74.0
AYMH 170800Z VRB04KT 9999 SCT050 20/17 Q1020,AYMH,2023-05-17T08:00:00Z,-5.83,144.3,20.0,17.0,0,4,,6.21,30.11811,,,,,,,,,,,SCT,5000,,,,,,,VFR,,,,,,,,,,,,METAR,1634.0
AGGH 170800Z METAR ,AGGH,2023-05-17T08:00:00Z,-9.42,160.05,,,,,,,,,,,,,,,,,,,,,,,,,,,,,,,,,,,,,,METAR,6.0
RODE 170759Z AUTO A2992 RMK AO2 SLPNO PWINO TSNO $,RODE,2023-05-17T07:59:00Z,26.72,127.77,,,,,,,29.920275,,,TRUE,TRUE,TRUE,,TRUE,,TRUE,,,,,,,,,,,,,,,,,,,,,,METAR,69.0
PAKP 170759Z AUTO 00000KT 3SM -SN BR BKN016 OVC022 M02/M03 A2999 RMK AO2 P0000 FZRANO,PAKP,2023-05-17T07:59:00Z,68.13,-151.73,-2.0,-3.0,0,0,,3.0,29.991142,,,TRUE,TRUE,,,,TRUE,,-SN BR,BKN,1600,OVC,2200,,,,,MVFR,,,,,,0.005,,,,,,SPECI,649.0
MUCF 170759Z AUTO VRB02KT 23/22 Q1013,MUCF,2023-05-17T07:59:00Z,22.15,-80.4,23.0,22.0,0,2,,,29.911417,,,TRUE,,,,,,,,,,,,,,,,,,,,,,,,,,,,METAR,35.0
MTPP 170759Z AUTO 12004KT //// ////// 22/22 Q1013 A2994 NOSIG,MTPP,2023-05-17T07:59:00Z,18.57,-72.3,22.0,22.0,120,4,,,29.911417,,,TRUE,,,TRUE,,,,,,,,,,,,,,,,,,,,,,,,,METAR,36.0
KPMH 170759Z AUTO 00000KT 1/2SM FG OVC002 12/10 A2982 RMK AO2,KPMH,2023-05-17T07:59:00Z,38.83,-82.85,12.0,10.0,0,0,,0.5,29.819881,,,TRUE,TRUE,,,,,,FG,OVC,200,,,,,,,LIFR,,,,,,,,,,,,METAR,200.0
KP92 170759Z AUTO 27005KT 25/22 A2985 RMK AO1 SLP107 T02500217,KP92,2023-05-17T07:59:00Z,29.57,-91.53,25.0,21.7,270,5,,,29.84941,1010.7,,TRUE,TRUE,,,,,,,,,,,,,,,,,,,,,,,,,,,METAR,1.0
KNOZ 170759Z AUTO 16008KT 10SM CLR 27/M01 A2986 RMK AO2 SLP061 T02671011,KNOZ,2023-05-17T07:59:00Z,32.53,-114.5,26.7,-1.1,160,8,,10.0,29.861221,1006.1,,TRUE,TRUE,,,,,,,CLR,,,,,,,,VFR,,,,,,,,,,,,METAR,78.0
K04W 170759Z AUTO 00000KT 10SM CLR 06/03 A3001 RMK AO2,K04W,2023-05-17T07:59:00Z,46.02,-92.9,6.0,3.0,0,0,,10.0,30.008858,,,TRUE,TRUE,,,,,,,CLR,,,,,,,,VFR,,,,,,,,,,,,METAR,310.0
PGWT 170758Z 06012KT 7SM SCT015 SCT080 BKN120 30/25,PGWT,2023-05-17T07:58:00Z,14.98,145.62,30.0,25.0,60,12,,7.0,,,,,,,,,,,,SCT,1500,SCT,8000,BKN,12000,,,VFR,,,,,,,,,,,,METAR,84.0
KROG 170758Z AUTO 36004KT 8SM OVC005 16/16 A2996 RMK AO2 SLP136 T01560156 TSNO,KROG,2023-05-17T07:58:00Z,36.37,-94.1,15.6,15.6,360,4,,8.0,29.958662,1013.6,,TRUE,TRUE,,,TRUE,,,,OVC,500,,,,,,,IFR,,,,,,,,,,,,METAR,407.0
KMRH 170758Z AUTO 23014G20KT 10SM BKN017 OVC039 23/21 A2971 RMK AO2 SLP060 T02280211,KMRH,2023-05-17T07:58:00Z,34.73,-76.65,22.8,21.1,230,14,20,10.0,29.71063,1006.0,,TRUE,TRUE,,,,,,,BKN,1700,OVC,3900,,,,,MVFR,,,,,,,,,,,,METAR,2.0
KMEI 170758Z AUTO 00000KT 10SM CLR 21/20 A2983 RMK AO2 RAE02 SLP097 P0000 T02060200,KMEI,2023-05-17T07:58:00Z,32.33,-88.75,20.6,20.0,0,0,,10.0,29.828741,1009.7,,TRUE,TRUE,,,,,,,CLR,,,,,,,,VFR,,,,,,0.005,,,,,,METAR,90.0
KFEW 170758Z 29006KT 10SM BKN100 10/06 A3014 RMK SLPNO WND DATA ESTMD ALSTG ESTMD $,KFEW,2023-05-17T07:58:00Z,41.13,-104.87,10.0,6.0,290,6,,10.0,30.138779,,,,,TRUE,,,,,,BKN,10000,,,,,,,VFR,,,,,,,,,,,,METAR,1877.0
KEUF 170758Z AUTO 00000KT 9SM CLR 20/20 A2984 RMK AO2 SLP101 T02000200 $,KEUF,2023-05-17T07:58:00Z,31.95,-85.13,20.0,20.0,0,0,,9.0,29.840551,1010.1,,TRUE,TRUE,TRUE,,,,,,CLR,,,,,,,,VFR,,,,,,,,,,,,METAR,87.0
KBKF 170758Z 19007KT 10SM FEW140 10/08 A3014 RMK AO2A SLP147 T01040076,KBKF,2023-05-17T07:58:00Z,39.72,-104.75,10.4,7.6,190,7,,10.0,30.138779,1014.7,,,TRUE,,,,,,,FEW,14000,,,,,,,VFR,,,,,,,,,,,,METAR,1703.0
KBCR 170758Z AUTO 00000KT 1/2SM FG VV002 21/20 A2984 RMK AO2 SLP062 T02060200,KBCR,2023-05-17T07:58:00Z,30.85,-85.6,20.6,20.0,0,0,,0.5,29.840551,1006.2,,TRUE,TRUE,,,,,,FG,OVX,0,,,,,,,LIFR,,,,,,,,,,,200,METAR,26.0
K0J4 170758Z AUTO 00000KT 10SM CLR 21/18 A2985 RMK AO2 SLP102 T02060178,K0J4,2023-05-17T07:58:00Z,31.05,-86.32,20.6,17.8,0,0,,10.0,29.84941,1010.2,,TRUE,TRUE,,,,,,,CLR,,,,,,,,VFR,,,,,,,,,,,,SPECI,96.0
PKMJ 170757Z 05009KT 15SM FEW016 SCT300 29/25 A2983 RMK LAST,PKMJ,2023-05-17T07:57:00Z,7.07,171.27,29.0,25.0,50,9,,15.0,29.828741,,,,,,,,,,,FEW,1600,SCT,30000,,,,,VFR,,,,,,,,,,,,METAR,2.0
KNYL 170757Z 22007KT 10SM CLR 27/06 A2985 RMK AO2 SLP104 T02670056,KNYL,2023-05-17T07:57:00Z,32.65,-114.62,26.7,5.6,220,7,,10.0,29.84941,1010.4,,,TRUE,,,,,,,CLR,,,,,,,,VFR,,,,,,,,,,,,METAR,58.0
KNJW 170757Z AUTO 00000KT 8SM CLR 19/18 A2986 RMK AO2 SLP024 T01890178,KNJW,2023-05-17T07:57:00Z,32.78,-88.82,18.9,17.8,0,0,,8.0,29.861221,1002.4,,TRUE,TRUE,,,,,,,CLR,,,,,,,,VFR,,,,,,,,,,,,METAR,165.0
KNJM 170757Z AUTO 25008G18KT 6SM BR CLR 23/21 A2972 RMK AO2 SLP067 T02280206,KNJM,2023-05-17T07:57:00Z,34.68,-77.02,22.8,20.6,250,8,18,6.0,29.719488,1006.7,,TRUE,TRUE,,,,,,BR,CLR,,,,,,,,VFR,,,,,,,,,,,,METAR,5.0
KMNM 170757Z AUTO 01006KT 10SM CLR 03/M02 A3005 RMK AO2 SLP198 T00331022 PNO $,KMNM,2023-05-17T07:57:00Z,45.12,-87.63,3.3,-2.2,10,6,,10.0,30.050198,1019.8,,TRUE,TRUE,TRUE,,,,,,CLR,,,,,,,,VFR,,,,,,,,,,,,METAR,188.0
KFLG 170757Z AUTO 00000KT 10SM CLR 09/06 A3025 RMK AO2 SLP173 T00890061,KFLG,2023-05-17T07:57:00Z,35.13,-111.67,8.9,6.1,0,0,,10.0,30.250984,1017.3,,TRUE,TRUE,,,,,,,CLR,,,,,,,,VFR,,,,,,,,,,,,METAR,2134.0
KAQV 170757Z AUTO 00000KT 7SM CLR 20/18 A2987 RMK AO2 SLP110 T02000183,KAQV,2023-05-17T07:57:00Z,31.4,-93.3,20.0,18.3,0,0,,7.0,29.870079,1011.0,,TRUE,TRUE,,,,,,,CLR,,,,,,,,VFR,,,,,,,,,,,,METAR,123.0
TJSJ 170756Z 00000KT 10SM FEW035 FEW045 FEW095 26/23 A2995 RMK AO2 SLP141 T02610233,TJSJ,2023-05-17T07:56:00Z,18.43,-66.02,26.1,23.3,0,0,,10.0,29.949802,1014.1,,,TRUE,,,,,,,FEW,3500,FEW,4500,FEW,9500,,,VFR,,,,,,,,,,,,METAR,3.0
ROTM 170756Z 14016G23KT 9999 SCT023 BKN110 26/20 A2991 RMK SLP114 XWND ADV T02560200,ROTM,2023-05-17T07:56:00Z,26.27,127.75,25.6,20.0,140,16,23,6.21,29.911417,1011.4,,,,,,,,,,SCT,2300,BKN,11000,,,,,VFR,,,,,,,,,,,,METAR,80.0
RJOI 170756Z 11004KT 9999 FEW250 24/18 A2994 RMK AO2 SLP138 T02440183,RJOI,2023-05-17T07:56:00Z,34.13,132.23,24.4,18.3,110,4,,6.21,29.940945,1013.8,,,TRUE,,,,,,,FEW,25000,,,,,,,VFR,,,,,,,,,,,,METAR,2.0
PMDY 170756Z AUTO 10SM OVC055 21/19 A3009 RMK AO2 SLP190 T02110189 TSNO $,PMDY,2023-05-17T07:56:00Z,28.22,-177.37,21.1,18.9,,,,10.0,30.088583,1019.0,,TRUE,TRUE,TRUE,,TRUE,,,,OVC,5500,,,,,,,VFR,,,,,,,,,,,,METAR,6.0
PHNY 170756Z AUTO 06008KT 10SM SCT037 BKN055 19/16 A3017 RMK AO2 SLP195 T01890161,PHNY,2023-05-17T07:56:00Z,20.77,-156.95,18.9,16.1,60,8,,10.0,30.171259,1019.5,,TRUE,TRUE,,,,,,,SCT,3700,BKN,5500,,,,,VFR,,,,,,,,,,,,METAR,395.0
PFYU 170756Z AUTO 35006KT 10SM -RA BKN050 BKN070 OVC095 09/07 A2997 RMK AO2 SLP157 P0001 T00940067,PFYU,2023-05-17T07:56:00Z,66.57,-145.23,9.4,6.7,350,6,,10.0,29.970472,1015.7,,TRUE,TRUE,,,,,,-RA,BKN,5000,BKN,7000,OVC,9500,,,VFR,,,,,,0.01,,,,,,SPECI,130.0
PFSH 170756Z AUTO 15012KT 10SM -RA SCT022 BKN027 OVC036 03/00 A3002 RMK AO2 UPB22E48RAB48 SLP165 P0000 T00280000,PFSH,2023-05-17T07:56:00Z,64.37,-161.22,2.8,0.0,150,12,,10.0,30.02067,1016.5,,TRUE,TRUE,,,,,,-RA,SCT,2200,BKN,2700,OVC,3600,,,MVFR,,,,,,0.005,,,,,,METAR,6.0
PFNO 170756Z AUTO 13007KT 10SM OVC100 03/01 A3003 RMK AO2 SLP254 T00280011 $,PFNO,2023-05-17T07:56:00Z,66.82,-161.02,2.8,1.1,130,7,,10.0,30.029528,1025.4,,TRUE,TRUE,TRUE,,,,,,OVC,10000,,,,,,,VFR,,,,,,,,,,,,METAR,14.0
PFKW 170756Z AUTO 18009KT 8SM -SN OVC017 01/M01 A3001 RMK AO2 UPE02RAB02E21SNB21 SLP162 P0000 T00061006 FZRANO,PFKW,2023-05-17T07:56:00Z,60.8,-161.43,0.6,-0.6,180,9,,8.0,30.008858,1016.2,,TRUE,TRUE,,,,TRUE,,-SN,OVC,1700,,,,,,,MVFR,,,,,,0.005,,,,,,METAR,4.0
PFEL 170756Z AUTO 07003KT 10SM OVC022 01/M01 A3000 RMK AO2 SLP161 T00111006 FZRANO,PFEL,2023-05-17T07:56:00Z,64.62,-162.27,1.1,-0.6,70,3,,10.0,30.0,1016.1,,TRUE,TRUE,,,,TRUE,,,OVC,2200,,,,,,,MVFR,,,,,,,,,,,,METAR,50.0
PAZK 170756Z AUTO 22007KT 10SM CLR 02/M01 A3013 RMK AO2 SLP244 T00171006 FZRANO,PAZK,2023-05-17T07:56:00Z,61.93,-147.17,1.7,-0.6,220,7,,10.0,30.129921,1024.4,,TRUE,TRUE,,,,TRUE,,,CLR,,,,,,,,VFR,,,,,,,,,,,,METAR,1002.0
PAWN 170756Z AUTO 05004KT 10SM -RA BKN013 OVC018 02/01 RMK AO2 UPB22E25RAB25 SLPNO P0000 T00220006 400221011 FZRANO $,PAWN,2023-05-17T07:56:00Z,67.57,-162.98,2.2,0.6,50,4,,10.0,,,,TRUE,TRUE,TRUE,,,TRUE,,-RA,BKN,1300,OVC,1800,,,,,MVFR,,,,2.2,-1.1,0.005,,,,,,SPECI,26.0
PAVC 170756Z AUTO 30010KT 10SM -RA BKN023 BKN029 OVC044 03/03 A3014 RMK AO2 RAE14B42 SLP208 T00330028 PNO $,PAVC,2023-05-17T07:56:00Z,55.12,-162.27,3.3,2.8,300,10,,10.0,30.138779,1020.8,,TRUE,TRUE,TRUE,,,,,-RA,BKN,2300,BKN,2900,OVC,4400,,,MVFR,,,,,,,,,,,,METAR,48.0
PAUN 170756Z AUTO 14009KT 10SM OVC026 04/00 A3002 RMK AO2 SLP168 T00390000,PAUN,2023-05-17T07:56:00Z,63.88,-160.8,3.9,0.0,140,9,,10.0,30.02067,1016.8,,TRUE,TRUE,,,,,,,OVC,2600,,,,,,,MVFR,,,,,,,,,,,,METAR,4.0
PATG 170756Z AUTO 10009KT 10SM OVC023 03/02 A3007 RMK AO2 SLP183 T00280017,PATG,2023-05-17T07:56:00Z,59.05,-160.38,2.8,1.7,100,9,,10.0,30.070866,1018.3,,TRUE,TRUE,,,,,,,OVC,2300,,,,,,,MVFR,,,,,,,,,,,,SPECI,1.0
PASX 170756Z AUTO 20005KT 10SM BKN044 OVC050 07/M01 A3027 RMK AO2 SLP256 T00671006,PASX,2023-05-17T07:56:00Z,60.48,-151.05,6.7,-0.6,200,5,,10.0,30.268702,1025.6,,TRUE,TRUE,,,,,,,BKN,4400,OVC,5000,,,,,VFR,,,,,,,,,,,,SPECI,28.0
PASL 170756Z AUTO 13006KT 10SM FEW040 BKN100 05/00 A3015 RMK AO2 SLP203 T00500000,PASL,2023-05-17T07:56:00Z,61.68,-157.15,5.0,0.0,130,6,,10.0,30.15059,1020.3,,TRUE,TRUE,,,,,,,FEW,4000,BKN,10000,,,,,VFR,,,,,,,,,,,,METAR,64.0
PASK 170756Z AUTO 00000KT 10SM FEW050 02/01 A3006 RMK AO2 SLP176 P0001 T00170006 FZRANO,PASK,2023-05-17T07:56:00Z,66.6,-160.0,1.7,0.6,0,0,,10.0,30.059055,1017.6,,TRUE,TRUE,,,,TRUE,,,FEW,5000,,,,,,,VFR,,,,,,0.01,,,,,,SPECI,3.0
PASD 170756Z AUTO 19010KT 10SM -RA FEW024 BKN036 OVC046 05/02 A3014 RMK AO2 RAB56 SLP209 T00500022 400610033 PNO $,PASD,2023-05-17T07:56:00Z,55.33,-160.52,5.0,2.2,190,10,,10.0,30.138779,1020.9,,TRUE,TRUE,TRUE,,,,,-RA,FEW,2400,BKN,3600,OVC,4600,,,VFR,,,,6.1,3.3,,,,,,,METAR,6.0
PARY 170756Z AUTO VRB06KT 10SM SCT065 06/M04 A3008 RMK AO2 SLP196 T00561044 401000039,PARY,2023-05-17T07:56:00Z,64.73,-155.47,5.6,-4.4,0,6,,10.0,30.079725,1019.6,,TRUE,TRUE,,,,,,,SCT,6500,,,,,,,VFR,,,,10.0,3.9,,,,,,,SPECI,185.0
PARC 170756Z AUTO 02004KT 7SM -RA BKN026 OVC033 03/02 A2997 RMK AO2 SLP188 P0003 T00280022,PARC,2023-05-17T07:56:00Z,68.12,-145.58,2.8,2.2,20,4,,7.0,29.970472,1018.8,,TRUE,TRUE,,,,,,-RA,BKN,2600,OVC,3300,,,,,MVFR,,,,,,0.03,,,,,,SPECI,626.0
PAPN 170756Z AUTO 14012KT 9SM OVC060 04/02 A3013 RMK AO2 SLP204 T00440017 401000022,PAPN,2023-05-17T07:56:00Z,57.58,-157.57,4.4,1.7,140,12,,9.0,30.129921,1020.4,,TRUE,TRUE,,,,,,,OVC,6000,,,,,,,VFR,,,,10.0,2.2,,,,,,,METAR,19.0
PAPM 170756Z AUTO 22010KT 10SM -RA OVC010 01/M01 A3004 RMK AO2 UPE00RAB00 SLP175 P0000 T00061006 FZRANO,PAPM,2023-05-17T07:56:00Z,59.02,-161.82,0.6,-0.6,220,10,,10.0,30.041338,1017.5,,TRUE,TRUE,,,,TRUE,,-RA,OVC,1000,,,,,,,MVFR,,,,,,0.005,,,,,,SPECI,4.0
PAPH 170756Z AUTO 16013KT 10SM OVC075 05/01 A3012 RMK AO2 SLP198 T00500011,PAPH,2023-05-17T07:56:00Z,56.95,-158.62,5.0,1.1,160,13,,10.0,30.121063,1019.8,,TRUE,TRUE,,,,,,,OVC,7500,,,,,,,VFR,,,,,,,,,,,,SPECI,29.0
PAPG 170756Z AUTO 00000KT 10SM CLR 09/05 A3012 RMK AO2 SLP204 T00940050,PAPG,2023-05-17T07:56:00Z,56.82,-132.93,9.4,5.0,0,0,,10.0,30.121063,1020.4,,TRUE,TRUE,,,,,,,CLR,,,,,,,,VFR,,,,,,,,,,,,METAR,24.0
PAOH 170756Z AUTO 10003KT 10SM CLR 06/04 A3014 RMK AO2 SLP208 T00610039,PAOH,2023-05-17T07:56:00Z,58.1,-135.45,6.1,3.9,100,3,,10.0,30.138779,1020.8,,TRUE,TRUE,,,,,,,CLR,,,,,,,,VFR,,,,,,,,,,,,METAR,0.0
PANW 170756Z AUTO 16008G14KT 10SM OVC050 04/00 A3015 RMK AO2 RAB08E23 SLP217 P0000 T00390000,PANW,2023-05-17T07:56:00Z,59.45,-157.32,3.9,0.0,160,8,14,10.0,30.15059,1021.7,,TRUE,TRUE,,,,,,,OVC,5000,,,,,,,VFR,,,,,,0.005,,,,,,SPECI,100.0
PANV 170756Z AUTO 19006KT 10SM UP OVC039 02/01 A3000 RMK AO2 RAE39UPB39 SLP251 P0000 T00220011 400500022 FZRANO TSNO,PANV,2023-05-17T07:56:00Z,62.65,-160.18,2.2,1.1,190,6,,10.0,30.0,1025.1,,TRUE,TRUE,,,TRUE,TRUE,,UP,OVC,3900,,,,,,,VFR,,,,5.0,2.2,0.005,,,,,,METAR,91.0
PAMK 170756Z AUTO 16011KT 10SM -RA OVC033 02/M01 A2997 RMK AO2 UPE05RAB50 SLP150 P0000 T00171011 FZRANO,PAMK,2023-05-17T07:56:00Z,63.48,-162.12,1.7,-1.1,160,11,,10.0,29.970472,1015.0,,TRUE,TRUE,,,,TRUE,,-RA,OVC,3300,,,,,,,VFR,,,,,,0.005,,,,,,SPECI,31.0
PAMH 170756Z AUTO 00000KT 10SM OVC049 04/00 A3014 RMK AO2 SLP206 T00440000 401610044,PAMH,2023-05-17T07:56:00Z,63.9,-152.28,4.4,0.0,0,0,,10.0,30.138779,1020.6,,TRUE,TRUE,,,,,,,OVC,4900,,,,,,,VFR,,,,16.1,4.4,,,,,,,SPECI,200.0
PAMB 170756Z AUTO 16004KT 8SM BKN031 OVC060 03/02 A3010 RMK AO2 SLP197 T00280017 $,PAMB,2023-05-17T07:56:00Z,58.98,-159.05,2.8,1.7,160,4,,8.0,30.100393,1019.7,,TRUE,TRUE,TRUE,,,,,,BKN,3100,OVC,6000,,,,,VFR,,,,,,,,,,,,SPECI,28.0
PALG 170756Z AUTO 14004KT 10SM OVC040 04/M01 A3002 RMK AO2 SLP169 T00441006 400610017,PALG,2023-05-17T07:56:00Z,61.53,-160.33,4.4,-0.6,140,4,,10.0,30.02067,1016.9,,TRUE,TRUE,,,,,,,OVC,4000,,,,,,,VFR,,,,6.1,1.7,,,,,,,SPECI,13.0
PAKF 170756Z AUTO 30017G25KT 10SM OVC046 03/M02 A3013 RMK AO2 PK WND 29027/0720 SLP203 T00331017,PAKF,2023-05-17T07:56:00Z,54.85,-163.42,3.3,-1.7,300,17,25,10.0,30.129921,1020.3,,TRUE,TRUE,,,,,,,OVC,4600,,,,,,,VFR,,,,,,,,,,,,METAR,2.0
PAJZ 170756Z AUTO 17008KT 9SM -RA FEW028 SCT040 OVC047 04/02 A3019 RMK AO2 SLP231 P0000 T00390017 400780017 $,PAJZ,2023-05-17T07:56:00Z,59.73,-157.27,3.9,1.7,170,8,,9.0,30.188976,1023.1,,TRUE,TRUE,TRUE,,,,,-RA,FEW,2800,SCT,4000,OVC,4700,,,VFR,,,,7.8,1.7,0.005,,,,,,SPECI,80.0
PAIN 170756Z AUTO VRB03KT 10SM FEW038 BKN049 OVC055 06/00 A3015 RMK AO2 RAB15E25 SLP224 P0000 T00610000 401390056,PAIN,2023-05-17T07:56:00Z,63.73,-148.92,6.1,0.0,0,3,,10.0,30.15059,1022.4,,TRUE,TRUE,,,,,,,FEW,3800,BKN,4900,OVC,5500,,,VFR,,,,13.9,5.6,0.005,,,,,,SPECI,525.0
PAIK 170756Z AUTO 00000KT 10SM FEW049 SCT060 BKN070 03/02 A3006 RMK AO2 RAE30 SLP180 P0000 T00280017,PAIK,2023-05-17T07:56:00Z,66.98,-160.43,2.8,1.7,0,0,,10.0,30.059055,1018.0,,TRUE,TRUE,,,,,,,FEW,4900,SCT,6000,BKN,7000,,,VFR,,,,,,0.005,,,,,,SPECI,49.0
PAIG 170756Z AUTO 17006KT 10SM BKN055 BKN080 BKN090 03/00 A3016 RMK AO2 SLP222 T00330000 400890022 $,PAIG,2023-05-17T07:56:00Z,59.32,-155.9,3.3,0.0,170,6,,10.0,30.159449,1022.2,,TRUE,TRUE,TRUE,,,,,,BKN,5500,BKN,8000,BKN,9000,,,VFR,,,,8.9,2.2,,,,,,,SPECI,24.0
PAHY 170756Z AUTO 00000KT 10SM CLR 11/09 A3010 RMK AO2 SLP190 T01060089 $,PAHY,2023-05-17T07:56:00Z,55.2,-132.83,10.6,8.9,0,0,,10.0,30.100393,1019.0,,TRUE,TRUE,TRUE,,,,,,CLR,,,,,,,,VFR,,,,,,,,,,,,SPECI,0.0
PAHL 170756Z AUTO 22003KT 10SM BKN070 OVC085 07/M01 A3006 RMK AO2 SLP184 T00671011,PAHL,2023-05-17T07:56:00Z,65.7,-156.35,6.7,-1.1,220,3,,10.0,30.059055,1018.4,,TRUE,TRUE,,,,,,,BKN,7000,OVC,8500,,,,,VFR,,,,,,,,,,,,SPECI,49.0
PAHC 170756Z AUTO 16005KT 10SM OVC038 04/M01 A3002 RMK AO2 SLP172 T00441006 400610028,PAHC,2023-05-17T07:56:00Z,62.18,-159.78,4.4,-0.6,160,5,,10.0,30.02067,1017.2,,TRUE,TRUE,,,,,,,OVC,3800,,,,,,,VFR,,,,6.1,2.8,,,,,,,SPECI,21.0
PAGS 170756Z AUTO 00000KT 10SM CLR 08/04 A3016 RMK AO2 SLP213 T00780044,PAGS,2023-05-17T07:56:00Z,58.42,-135.7,7.8,4.4,0,0,,10.0,30.159449,1021.3,,TRUE,TRUE,,,,,,,CLR,,,,,,,,VFR,,,,,,,,,,,,METAR,9.0
PAGN 170756Z AUTO 00000KT 10SM CLR 08/06 A3015 RMK AO2 SLP199 T00780056,PAGN,2023-05-17T07:56:00Z,57.5,-134.58,7.8,5.6,0,0,,10.0,30.15059,1019.9,,TRUE,TRUE,,,,,,,CLR,,,,,,,,VFR,,,,,,,,,,,,METAR,2.0
PAFM 170756Z AUTO 34003KT 10SM SCT036 BKN060 03/02 A3007 RMK AO2 RAE02 SLP187 P0000 T00330022 400610011,PAFM,2023-05-17T07:56:00Z,67.1,-157.85,3.3,2.2,340,3,,10.0,30.070866,1018.7,,TRUE,TRUE,,,,,,,SCT,3600,BKN,6000,,,,,VFR,,,,6.1,1.1,0.005,,,,,,METAR,79.0
PAFE 170756Z AUTO 06004KT 10SM CLR 08/06 A3014 RMK AO2 SLP218 T00830061 $,PAFE,2023-05-17T07:56:00Z,56.97,-133.92,8.3,6.1,60,4,,10.0,30.138779,1021.8,,TRUE,TRUE,TRUE,,,,,,CLR,,,,,,,,VFR,,,,,,,,,,,,METAR,1.0
PADM 170756Z AUTO 12017G22KT 5SM -SN BR OVC011 01/M01 A3002 RMK AO2 PK WND 12026/0709 SLP171 P0000 T00061011 400500006 FZRANO,PADM,2023-05-17T07:56:00Z,61.87,-162.03,0.6,-1.1,120,17,22,5.0,30.02067,1017.1,,TRUE,TRUE,,,,TRUE,,-SN BR,OVC,1100,,,,,,,MVFR,,,,5.0,0.6,0.005,,,,,,SPECI,17.0
PADL 170756Z AUTO 16007KT 10SM -RA OVC050 04/02 A3011 RMK AO2 RAB48 SLP200 P0000 T00390022,PADL,2023-05-17T07:56:00Z,59.05,-158.5,3.9,2.2,160,7,,10.0,30.109253,1020.0,,TRUE,TRUE,,,,,,-RA,OVC,5000,,,,,,,VFR,,,,,,0.005,,,,,,METAR,20.0
PADK 170756Z AUTO 33014G21KT OVC032 03/M03 A3057 RMK AO2 SLP353 T00281028 400560028 PWINO $,PADK,2023-05-17T07:56:00Z,51.88,-176.65,2.8,-2.8,330,14,21,,30.569881,1035.3,,TRUE,TRUE,TRUE,,,,TRUE,,OVC,3200,,,,,,,,,,,5.6,2.8,,,,,,,METAR,3.0
PABV 170756Z AUTO 00000KT 10SM OVC027 07/01 A3027 RMK AO2 SLP255 T00720006,PABV,2023-05-17T07:56:00Z,61.42,-149.52,7.2,0.6,0,0,,10.0,30.268702,1025.5,,TRUE,TRUE,,,,,,,OVC,2700,,,,,,,MVFR,,,,,,,,,,,,METAR,21.0
PABL 170756Z AUTO 13008KT 10SM SCT055 OVC080 02/M01 A3004 RMK AO2 SLP174 T00171011 401001017 FZRANO PNO $,PABL,2023-05-17T07:56:00Z,65.98,-161.15,1.7,-1.1,130,8,,10.0,30.041338,1017.4,,TRUE,TRUE,TRUE,,,TRUE,,,SCT,5500,OVC,8000,,,,,VFR,,,,10.0,-1.7,,,,,,,SPECI,7.0
MMSD 170756Z 30005KT 10SM FEW250 22/18 A2991 RMK 8/001,MMSD,2023-05-17T07:56:00Z,23.15,-109.72,22.0,18.0,300,5,,10.0,29.911417,,,,,,,,,,,FEW,25000,,,,,,,VFR,,,,,,,,,,,,METAR,107.0
KYKN 170756Z AUTO 00000KT 10SM CLR 13/08 A2996 RMK AO2 SLP154 T01280083,KYKN,2023-05-17T07:56:00Z,42.92,-97.37,12.8,8.3,0,0,,10.0,29.958662,1015.4,,TRUE,TRUE,,,,,,,CLR,,,,,,,,VFR,,,,,,,,,,,,METAR,388.0
KY50 170756Z AUTO 04006KT 10SM CLR 06/02 A3003 RMK AO2 SLP169 T00610017 $,KY50,2023-05-17T07:56:00Z,44.03,-89.3,6.1,1.7,40,6,,10.0,30.029528,1016.9,,TRUE,TRUE,TRUE,,,,,,CLR,,,,,,,,VFR,,,,,,,,,,,,METAR,261.0
KWWD 170756Z AUTO 30003KT 10SM CLR 18/16 A2959 RMK AO2 SLP021 T01780161 $,KWWD,2023-05-17T07:56:00Z,39.02,-74.92,17.8,16.1,300,3,,10.0,29.589567,1002.1,,TRUE,TRUE,TRUE,,,,,,CLR,,,,,,,,VFR,,,,,,,,,,,,METAR,4.0
KWVL 170756Z AUTO 34005KT 10SM BKN050 BKN085 05/01 A2957 RMK AO2 SLP040 T00500011,KWVL,2023-05-17T07:56:00Z,44.52,-69.67,5.0,1.1,340,5,,10.0,29.568897,1004.0,,TRUE,TRUE,,,,,,,BKN,5000,BKN,8500,,,,,VFR,,,,,,,,,,,,METAR,87.0
KWMC 170756Z AUTO VRB05KT 10SM CLR 11/01 A3010 RMK AO2 SLP154 T01060011 402890056,KWMC,2023-05-17T07:56:00Z,40.9,-117.8,10.6,1.1,0,5,,10.0,30.100393,1015.4,,TRUE,TRUE,,,,,,,CLR,,,,,,,,VFR,,,,28.9,5.6,,,,,,,METAR,1311.0
KWJF 170756Z AUTO 26006KT 10SM CLR 17/03 A3000 RMK AO2 SLP140 T01670028 403390128,KWJF,2023-05-17T07:56:00Z,34.73,-118.22,16.7,2.8,260,6,,10.0,30.0,1014.0,,TRUE,TRUE,,,,,,,CLR,,,,,,,,VFR,,,,33.9,12.8,,,,,,,METAR,712.0
KVPZ 170756Z AUTO 35005KT 10SM SCT095 09/06 A2990 RMK AO2 SLP124 T00890061 $,KVPZ,2023-05-17T07:56:00Z,41.45,-87.0,8.9,6.1,350,5,,10.0,29.899607,1012.4,,TRUE,TRUE,TRUE,,,,,,SCT,9500,,,,,,,VFR,,,,,,,,,,,,METAR,235.0
KVIS 170756Z AUTO 27003KT 10SM CLR 22/14 A2991 RMK AO2 SLP131 T02220139 403440156,KVIS,2023-05-17T07:56:00Z,36.32,-119.4,22.2,13.9,270,3,,10.0,29.911417,1013.1,,TRUE,TRUE,,,,,,,CLR,,,,,,,,VFR,,,,34.4,15.6,,,,,,,METAR,92.0
KVBT 170756Z AUTO 34004KT 10SM BKN006 OVC022 16/15 A2996 RMK AO2 SLP144 T01610150,KVBT,2023-05-17T07:56:00Z,36.35,-94.22,16.1,15.0,340,4,,10.0,29.958662,1014.4,,TRUE,TRUE,,,,,,,BKN,600,OVC,2200,,,,,IFR,,,,,,,,,,,,METAR,390.0
KUKI 170756Z AUTO 00000KT 10SM CLR 15/10 A2997 RMK AO2 SLP143 T01500100 403280111,KUKI,2023-05-17T07:56:00Z,39.12,-123.2,15.0,10.0,0,0,,10.0,29.970472,1014.3,,TRUE,TRUE,,,,,,,CLR,,,,,,,,VFR,,,,32.8,11.1,,,,,,,METAR,183.0
KUDG 170756Z AUTO 00000KT 10SM CLR 21/18 A2972 RMK AO2 SLP064 T02060183,KUDG,2023-05-17T07:56:00Z,34.45,-79.88,20.6,18.3,0,0,,10.0,29.719488,1006.4,,TRUE,TRUE,,,,,,,CLR,,,,,,,,VFR,,,,,,,,,,,,METAR,57.0
KUCP 170756Z AUTO 36008KT 10SM CLR 11/06 A2979 RMK AO2 SLP097 T01110061,KUCP,2023-05-17T07:56:00Z,41.03,-80.42,11.1,6.1,360,8,,10.0,29.790354,1009.7,,TRUE,TRUE,,,,,,,CLR,,,,,,,,VFR,,,,,,,,,,,,METAR,313.0
KTVF 170756Z AUTO 11006KT 10SM CLR 11/06 A2993 RMK AO2 SLP135 T01110056,KTVF,2023-05-17T07:56:00Z,48.07,-96.17,11.1,5.6,110,6,,10.0,29.929134,1013.5,,TRUE,TRUE,,,,,,,CLR,,,,,,,,VFR,,,,,,,,,,,,METAR,339.0
KTPH 170756Z AUTO A3017 RMK AO2 SLPNO PWINO $,KTPH,2023-05-17T07:56:00Z,38.05,-117.08,,,,,,,30.171259,,,TRUE,TRUE,TRUE,,,,TRUE,,,,,,,,,,,,,,,,,,,,,,METAR,1647.0
KSZL 170756Z 26003KT 9SM BR CLR 13/12 A2992 RMK SLP132 T01290123 57005 $,KSZL,2023-05-17T07:56:00Z,38.73,-93.53,12.9,12.3,260,3,,9.0,29.920275,1013.2,,,,TRUE,,,,,BR,CLR,,,,,,,,VFR,-0.5,,,,,,,,,,,METAR,259.0
KSXT 170756Z AUTO 36007KT 10SM CLR 16/08 A3013 RMK AO2 SLP154 T01560078 402560133,KSXT,2023-05-17T07:56:00Z,42.6,-123.37,15.6,7.8,360,7,,10.0,30.129921,1015.4,,TRUE,TRUE,,,,,,,CLR,,,,,,,,VFR,,,,25.6,13.3,,,,,,,METAR,1151.0
KSUE 170756Z AUTO 02008KT 10SM CLR 04/02 A3004 RMK AO2 SLP173 T00440017,KSUE,2023-05-17T07:56:00Z,44.85,-87.42,4.4,1.7,20,8,,10.0,30.041338,1017.3,,TRUE,TRUE,,,,,,,CLR,,,,,,,,VFR,,,,,,,,,,,,METAR,215.0
KSRC 170756Z AUTO 02005KT 10SM OVC030 20/17 A2989 RMK AO2 SLP117 T02000172,KSRC,2023-05-17T07:56:00Z,35.22,-91.73,20.0,17.2,20,5,,10.0,29.890747,1011.7,,TRUE,TRUE,,,,,,,OVC,3000,,,,,,,MVFR,,,,,,,,,,,,METAR,80.0
KSQI 170756Z AUTO 07010KT 10SM CLR 09/04 A2994 RMK AO2 SLP005 T00940044,KSQI,2023-05-17T07:56:00Z,41.75,-89.67,9.4,4.4,70,10,,10.0,29.940945,1000.5,,TRUE,TRUE,,,,,,,CLR,,,,,,,,VFR,,,,,,,,,,,,METAR,196.0
KSPD 170756Z AUTO 25005KT 15/10 A3004 RMK AO1 SLP114 T01500100,KSPD,2023-05-17T07:56:00Z,37.28,-102.62,15.0,10.0,250,5,,,30.041338,1011.4,,TRUE,TRUE,,,,,,,,,,,,,,,,,,,,,,,,,,,METAR,1340.0
KSOP 170756Z AUTO 23005KT 10SM CLR 19/19 A2972 RMK AO2 SLP064 T01890189,KSOP,2023-05-17T07:56:00Z,35.23,-79.4,18.9,18.9,230,5,,10.0,29.719488,1006.4,,TRUE,TRUE,,,,,,,CLR,,,,,,,,VFR,,,,,,,,,,,,METAR,135.0
KSMP 170756Z AUTO 23004KT 10SM CLR 12/10 A3015 RMK AO2 SLP189 T01220100 402060100,KSMP,2023-05-17T07:56:00Z,47.28,-121.33,12.2,10.0,230,4,,10.0,30.15059,1018.9,,TRUE,TRUE,,,,,,,CLR,,,,,,,,VFR,,,,20.6,10.0,,,,,,,METAR,1206.0
KSMN 170756Z AUTO 14003KT 10SM CLR 07/06 A3015 RMK AO2 SLP897 T00720056,KSMN,2023-05-17T07:56:00Z,45.12,-113.87,7.2,5.6,140,3,,10.0,30.15059,989.7,,TRUE,TRUE,,,,,,,CLR,,,,,,,,VFR,,,,,,,,,,,,METAR,1228.0
KSLG 170756Z AUTO 36005KT 10SM BKN008 OVC026 16/16 A2995 RMK AO2 SLP136 T01560156,KSLG,2023-05-17T07:56:00Z,36.2,-94.48,15.6,15.6,360,5,,10.0,29.949802,1013.6,,TRUE,TRUE,,,,,,,BKN,800,OVC,2600,,,,,IFR,,,,,,,,,,,,METAR,361.0
KSLE 170756Z AUTO 00000KT 10SM CLR 18/11 A3001 RMK AO2 SLP160 T01830111 403000106,KSLE,2023-05-17T07:56:00Z,44.9,-123.0,18.3,11.1,0,0,,10.0,30.008858,1016.0,,TRUE,TRUE,,,,,,,CLR,,,,,,,,VFR,,,,30.0,10.6,,,,,,,METAR,63.0
KSKX 170756Z AUTO 03004KT 10SM OVC080 11/04 A3025 RMK AO2 SLP191 T01110039,KSKX,2023-05-17T07:56:00Z,36.45,-105.67,11.1,3.9,30,4,,10.0,30.250984,1019.1,,TRUE,TRUE,,,,,,,OVC,8000,,,,,,,VFR,,,,,,,,,,,,METAR,2163.0
KSHV 170756Z 30006KT 10SM SCT250 19/17 A2989 RMK SLPNO,KSHV,2023-05-17T07:56:00Z,32.45,-93.83,19.0,17.0,300,6,,10.0,29.890747,,,,,,,,,,,SCT,25000,,,,,,,VFR,,,,,,,,,,,,METAR,70.0
KSGU 170756Z AUTO 00000KT 10SM CLR 21/09 A3004 RMK AO2 SLP137 T02110089,KSGU,2023-05-17T07:56:00Z,37.03,-113.52,21.1,8.9,0,0,,10.0,30.041338,1013.7,,TRUE,TRUE,,,,,,,CLR,,,,,,,,VFR,,,,,,,,,,,,METAR,877.0
KSGT 170756Z AUTO 02011KT 10SM BKN042 OVC050 21/19 A2986 RMK AO2 RAE24 SLP110 P0000 T02060194,KSGT,2023-05-17T07:56:00Z,34.6,-91.57,20.6,19.4,20,11,,10.0,29.861221,1011.0,,TRUE,TRUE,,,,,,,BKN,4200,OVC,5000,,,,,VFR,,,,,,0.005,,,,,,METAR,67.0
KSGJ 170756Z AUTO 22004KT 10SM 22/21 A2986 RMK AO2 SLP111 T02220206 $,KSGJ,2023-05-17T07:56:00Z,29.97,-81.33,22.2,20.6,220,4,,10.0,29.861221,1011.1,,TRUE,TRUE,TRUE,,,,,,,,,,,,,,,,,,,,,,,,,,METAR,2.0
KSGH 170756Z AUTO 00000KT 8SM CLR 11/11 A2983 RMK AO2 SLP102 T01110111,KSGH,2023-05-17T07:56:00Z,39.83,-83.83,11.1,11.1,0,0,,8.0,29.828741,1010.2,,TRUE,TRUE,,,,,,,CLR,,,,,,,,VFR,,,,,,,,,,,,METAR,318.0
KSFZ 170756Z AUTO VRB06KT 10SM FEW090 SCT110 14/07 A2956 RMK AO2 SLP007 T01390072,KSFZ,2023-05-17T07:56:00Z,41.92,-71.5,13.9,7.2,0,6,,10.0,29.56004,1000.7,,TRUE,TRUE,,,,,,,FEW,9000,SCT,11000,,,,,VFR,,,,,,,,,,,,METAR,129.0
KSFO 170756Z 30013KT 9SM FEW004 12/11 A2998 RMK AO2 SLP153 T01220111 402220122,KSFO,2023-05-17T07:56:00Z,37.62,-122.37,12.2,11.1,300,13,,9.0,29.97933,1015.3,,,TRUE,,,,,,,FEW,400,,,,,,,VFR,,,,22.2,12.2,,,,,,,METAR,2.0
KSFM 170756Z AUTO 01012KT 10SM OVC033 09/02 A2959 RMK AO2 SLP023 T00940022,KSFM,2023-05-17T07:56:00Z,43.38,-70.72,9.4,2.2,10,12,,10.0,29.589567,1002.3,,TRUE,TRUE,,,,,,,OVC,3300,,,,,,,VFR,,,,,,,,,,,,METAR,70.0
KSDY 170756Z AUTO 21004KT 10SM CLR 13/11 A2984 RMK AO2 SLP101 T01330106,KSDY,2023-05-17T07:56:00Z,47.7,-104.2,13.3,10.6,210,4,,10.0,29.840551,1010.1,,TRUE,TRUE,,,,,,,CLR,,,,,,,,VFR,,,,,,,,,,,,METAR,600.0
KSDF 170756Z 30005KT 10SM CLR 15/11 A2985 RMK AO2 SLP107 T01500111,KSDF,2023-05-17T07:56:00Z,38.18,-85.73,15.0,11.1,300,5,,10.0,29.84941,1010.7,,,TRUE,,,,,,,CLR,,,,,,,,VFR,,,,,,,,,,,,METAR,146.0
KSBP 170756Z AUTO 32005KT 6SM BR OVC004 12/12 A2998 RMK AO2 SLP150 T01220117 402170117,KSBP,2023-05-17T07:56:00Z,35.23,-120.63,12.2,11.7,320,5,,6.0,29.97933,1015.0,,TRUE,TRUE,,,,,,BR,OVC,400,,,,,,,LIFR,,,,21.7,11.7,,,,,,,METAR,52.0
KRUT 170756Z AUTO 32006KT 10SM FEW035 OVC050 05/01 A2968 RMK AO2 SLP047 T00500011 $,KRUT,2023-05-17T07:56:00Z,43.53,-72.95,5.0,1.1,320,6,,10.0,29.681103,1004.7,,TRUE,TRUE,TRUE,,,,,,FEW,3500,OVC,5000,,,,,VFR,,,,,,,,,,,,METAR,238.0
KRKD 170756Z AUTO VRB04KT 10SM SCT032 OVC090 06/02 A2956 RMK AO2 SLP010 T00610022,KRKD,2023-05-17T07:56:00Z,44.07,-69.1,6.1,2.2,0,4,,10.0,29.56004,1001.0,,TRUE,TRUE,,,,,,,SCT,3200,OVC,9000,,,,,VFR,,,,,,,,,,,,METAR,15.0
KRDM 170756Z AUTO 16004KT 10SM CLR 13/09 A3010 RMK AO2 SLP171 T01330089 402720083,KRDM,2023-05-17T07:56:00Z,44.25,-121.15,13.3,8.9,160,4,,10.0,30.100393,1017.1,,TRUE,TRUE,,,,,,,CLR,,,,,,,,VFR,,,,27.2,8.3,,,,,,,METAR,930.0
KPWT 170756Z AUTO 05012G16KT 10SM CLR 15/13 A3007 RMK AO2 SLP183 T01500128 402670128,KPWT,2023-05-17T07:56:00Z,47.5,-122.77,15.0,12.8,50,12,16,10.0,30.070866,1018.3,,TRUE,TRUE,,,,,,,CLR,,,,,,,,VFR,,,,26.7,12.8,,,,,,,METAR,143.0
KPWG 170756Z AUTO 00000KT 10SM CLR 18/18 A2994 RMK AO2 SLP134 T01830178,KPWG,2023-05-17T07:56:00Z,31.48,-97.32,18.3,17.8,0,0,,10.0,29.940945,1013.4,,TRUE,TRUE,,,,,,,CLR,,,,,,,,VFR,,,,,,,,,,,,METAR,178.0
KPVU 170756Z AUTO 00000KT 10SM CLR 13/06 A3014 RMK AO2 SLP162 T01330056,KPVU,2023-05-17T07:56:00Z,40.22,-111.72,13.3,5.6,0,0,,10.0,30.138779,1016.2,,TRUE,TRUE,,,,,,,CLR,,,,,,,,VFR,,,,,,,,,,,,METAR,1370.0
KPVC 170756Z AUTO 04012G16KT 10SM BKN120 12/09 A2954 RMK AO2 SLP003 T01170094,KPVC,2023-05-17T07:56:00Z,42.07,-70.22,11.7,9.4,40,12,16,10.0,29.53937,1000.3,,TRUE,TRUE,,,,,,,BKN,12000,,,,,,,VFR,,,,,,,,,,,,METAR,1.0
KPTV 170756Z AUTO 18004KT 10SM CLR 21/13 A2992 RMK AO2 SLP130 T02060133,KPTV,2023-05-17T07:56:00Z,36.02,-119.07,20.6,13.3,180,4,,10.0,29.920275,1013.0,,TRUE,TRUE,,,,,,,CLR,,,,,,,,VFR,,,,,,,,,,,,METAR,132.0
KPRX 170756Z AUTO 33006KT 10SM OVC033 19/18 A2993 RMK AO2 SLP131 T01890183,KPRX,2023-05-17T07:56:00Z,33.63,-95.45,18.9,18.3,330,6,,10.0,29.929134,1013.1,,TRUE,TRUE,,,,,,,OVC,3300,,,,,,,VFR,,,,,,,,,,,,METAR,165.0
KPQI 170756Z AUTO 33007KT 10SM SCT080 01/M01 A2954 RMK AO2 SLP032 T00111006 PNO $,KPQI,2023-05-17T07:56:00Z,46.68,-68.05,1.1,-0.6,330,7,,10.0,29.53937,1003.2,,TRUE,TRUE,TRUE,,,,,,SCT,8000,,,,,,,VFR,,,,,,,,,,,,METAR,154.0
KPIB 170756Z AUTO 00000KT 8SM CLR 19/19 A2984 RMK AO2 SLP103 T01940194,KPIB,2023-05-17T07:56:00Z,31.47,-89.33,19.4,19.4,0,0,,8.0,29.840551,1010.3,,TRUE,TRUE,,,,,,,CLR,,,,,,,,VFR,,,,,,,,,,,,METAR,91.0
KP60 170756Z AUTO 00000KT 00/M01 A3029 RMK AO1 SLP227 T00001011,KP60,2023-05-17T07:56:00Z,44.55,-110.42,0.0,-1.1,0,0,,,30.28937,1022.7,,TRUE,TRUE,,,,,,,,,,,,,,,,,,,,,,,,,,,METAR,2377.0
KP53 170756Z AUTO 04012KT 03/01 A3005 RMK AO1 SLP183 T00330006,KP53,2023-05-17T07:56:00Z,46.42,-86.65,3.3,0.6,40,12,,,30.050198,1018.3,,TRUE,TRUE,,,,,,,,,,,,,,,,,,,,,,,,,,,SPECI,185.0
KP28 170756Z AUTO 00000KT 13/13 A3000 RMK AO1 SLP150 T01330133 $,KP28,2023-05-17T07:56:00Z,37.28,-98.55,13.3,13.3,0,0,,,30.0,1015.0,,TRUE,TRUE,TRUE,,,,,,,,,,,,,,,,,,,,,,,,,,METAR,469.0
KOWB 170756Z AUTO 00000KT 7SM CLR 14/14 A2987 RMK AO2 SLP114 T01440139,KOWB,2023-05-17T07:56:00Z,37.72,-87.17,14.4,13.9,0,0,,7.0,29.870079,1011.4,,TRUE,TRUE,,,,,,,CLR,,,,,,,,VFR,,,,,,,,,,,,METAR,121.0
KOTH 170756Z AUTO 05006KT 10SM OVC006 12/11 A3010 RMK AO2 SLP192 T01170111 401670117,KOTH,2023-05-17T07:56:00Z,43.42,-124.25,11.7,11.1,50,6,,10.0,30.100393,1019.2,,TRUE,TRUE,,,,,,,OVC,600,,,,,,,IFR,,,,16.7,11.7,,,,,,,METAR,3.0
KOTG 170756Z AUTO 29003KT 10SM CLR 13/08 A2994 RMK AO2 SLP136 T01280083 PNO $,KOTG,2023-05-17T07:56:00Z,43.65,-95.57,12.8,8.3,290,3,,10.0,29.940945,1013.6,,TRUE,TRUE,TRUE,,,,,,CLR,,,,,,,,VFR,,,,,,,,,,,,METAR,478.0
KOLU 170756Z AUTO 00000KT 10SM CLR 11/11 A2998 RMK AO2 SLP151 T01110106,KOLU,2023-05-17T07:56:00Z,41.45,-97.33,11.1,10.6,0,0,,10.0,29.97933,1015.1,,TRUE,TRUE,,,,,,,CLR,,,,,,,,VFR,,,,,,,,,,,,METAR,438.0
KOKK 170756Z AUTO 35003KT 10SM FEW090 12/09 A2987 RMK AO2 SLP113 T01170089 PNO $,KOKK,2023-05-17T07:56:00Z,40.53,-86.07,11.7,8.9,350,3,,10.0,29.870079,1011.3,,TRUE,TRUE,TRUE,,,,,,FEW,9000,,,,,,,VFR,,,,,,,,,,,,METAR,251.0
KOFK 170756Z AUTO 30003KT 10SM CLR 12/07 A2997 RMK AO2 SLP144 T01170072,KOFK,2023-05-17T07:56:00Z,41.98,-97.43,11.7,7.2,300,3,,10.0,29.970472,1014.4,,TRUE,TRUE,,,,,,,CLR,,,,,,,,VFR,,,,,,,,,,,,METAR,476.0
KOCH 170756Z AUTO 00000KT 10SM FEW049 18/18 A2992 RMK AO2 SLP132 T01830183,KOCH,2023-05-17T07:56:00Z,31.57,-94.72,18.3,18.3,0,0,,10.0,29.920275,1013.2,,TRUE,TRUE,,,,,,,FEW,4900,,,,,,,VFR,,,,,,,,,,,,METAR,105.0
KOAJ 170756Z AUTO 23006KT 10SM -RA FEW025 BKN095 BKN110 22/19 A2971 RMK AO2 RAB32 SLP062 P0000 T02170194,KOAJ,2023-05-17T07:56:00Z,34.82,-77.62,21.7,19.4,230,6,,10.0,29.71063,1006.2,,TRUE,TRUE,,,,,,-RA,FEW,2500,BKN,9500,BKN,11000,,,VFR,,,,,,0.005,,,,,,METAR,26.0
KNYG 170756Z AUTO 31006KT 10SM BKN110 19/13 A2965 RMK AO2 SLP040 T01940128 $,KNYG,2023-05-17T07:56:00Z,38.5,-77.3,19.4,12.8,310,6,,10.0,29.648623,1004.0,,TRUE,TRUE,TRUE,,,,,,BKN,11000,,,,,,,VFR,,,,,,,,,,,,METAR,2.0
KNXP 170756Z AUTO 24007KT 10SM CLR 24/01 A3001 RMK AO2 SLP125 T02440011 403670200,KNXP,2023-05-17T07:56:00Z,34.28,-116.13,24.4,1.1,240,7,,10.0,30.008858,1012.5,,TRUE,TRUE,,,,,,,CLR,,,,,,,,VFR,,,,36.7,20.0,,,,,,,METAR,610.0
KNTU 170756Z 26008KT 4SM -RA BR BKN009 OVC015 20/19 A2962 RMK AO2 SLP031 T2 SET P0013 T02000194,KNTU,2023-05-17T07:56:00Z,36.82,-76.02,20.0,19.4,260,8,,4.0,29.619095,1003.1,,,TRUE,,,,,,-RA BR,BKN,900,OVC,1500,,,,,IFR,,,,,,0.13,,,,,,METAR,6.0
KNSE 170756Z AUTO 28003KT 10SM CLR 21/19 A2984 RMK AO2 SLP089 T02060194 $,KNSE,2023-05-17T07:56:00Z,30.73,-87.02,20.6,19.4,280,3,,10.0,29.840551,1008.9,,TRUE,TRUE,TRUE,,,,,,CLR,,,,,,,,VFR,,,,,,,,,,,,METAR,56.0
KNQI 170756Z AUTO 32003KT 9SM CLR 21/20 A2991 RMK AO2 SLP126 T02110200 $,KNQI,2023-05-17T07:56:00Z,27.5,-97.82,21.1,20.0,320,3,,9.0,29.911417,1012.6,,TRUE,TRUE,TRUE,,,,,,CLR,,,,,,,,VFR,,,,,,,,,,,,METAR,15.0
KNPA 170756Z AUTO 10SM CLR 22/19 A2984 RMK AO2 TSB04E24 SLP105 T02220194 $,KNPA,2023-05-17T07:56:00Z,30.35,-87.32,22.2,19.4,,,,10.0,29.840551,1010.5,,TRUE,TRUE,TRUE,,,,,,CLR,,,,,,,,VFR,,,,,,,,,,,,METAR,6.0
KNOG 170756Z AUTO 00000KT 10SM CLR 20/19 A2993 RMK AO2 SLP116 T02000189 TSNO $,KNOG,2023-05-17T07:56:00Z,27.9,-98.05,20.0,18.9,0,0,,10.0,29.929134,1011.6,,TRUE,TRUE,TRUE,,TRUE,,,,CLR,,,,,,,,VFR,,,,,,,,,,,,METAR,72.0
KNMM 170756Z AUTO 00000KT 10SM CLR 21/19 A2983 RMK AO2 SLP109 T02060194 $,KNMM,2023-05-17T07:56:00Z,32.53,-88.53,20.6,19.4,0,0,,10.0,29.828741,1010.9,,TRUE,TRUE,TRUE,,,,,,CLR,,,,,,,,VFR,,,,,,,,,,,,METAR,94.0
KNLC 170756Z AUTO 32009KT 10SM CLR 23/08 A2990 RMK AO2 SLP122 T02330078 403610156,KNLC,2023-05-17T07:56:00Z,36.32,-119.95,23.3,7.8,320,9,,10.0,29.899607,1012.2,,TRUE,TRUE,,,,,,,CLR,,,,,,,,VFR,,,,36.1,15.6,,,,,,,METAR,69.0
KNJK 170756Z AUTO 33007KT 10SM CLR 24/04 A2982 RMK AO2 SLP111 T02440039 404000194 $,KNJK,2023-05-17T07:56:00Z,32.82,-115.67,24.4,3.9,330,7,,10.0,29.819881,1011.1,,TRUE,TRUE,TRUE,,,,,,CLR,,,,,,,,VFR,,,,40.0,19.4,,,,,,,METAR,-15.0
KNID 170756Z AUTO 19008KT 10SM CLR 26/04 A2994 RMK AO2 SLP116 T02560039 403670178 $,KNID,2023-05-17T07:56:00Z,35.68,-117.68,25.6,3.9,190,8,,10.0,29.940945,1011.6,,TRUE,TRUE,TRUE,,,,,,CLR,,,,,,,,VFR,,,,36.7,17.8,,,,,,,METAR,682.0
KNGP 170756Z AUTO 00000KT 10SM CLR 24/22 A2991 RMK AO2 SLP128 T02390217,KNGP,2023-05-17T07:56:00Z,27.68,-97.28,23.9,21.7,0,0,,10.0,29.911417,1012.8,,TRUE,TRUE,,,,,,,CLR,,,,,,,,VFR,,,,,,,,,,,,METAR,5.0
KNFL 170756Z AUTO 20004KT 10SM CLR 16/01 A3008 RMK AO2 SLP154 T01610011 403060089,KNFL,2023-05-17T07:56:00Z,39.42,-118.7,16.1,1.1,200,4,,10.0,30.079725,1015.4,,TRUE,TRUE,,,,,,,CLR,,,,,,,,VFR,,,,30.6,8.9,,,,,,,METAR,1199.0
KNCA 170756Z AUTO 26007G18KT 10SM CLR 23/18 A2970 RMK AO2 SLP061 T02280183,KNCA,2023-05-17T07:56:00Z,34.72,-77.45,22.8,18.3,260,7,18,10.0,29.698818,1006.1,,TRUE,TRUE,,,,,,,CLR,,,,,,,,VFR,,,,,,,,,,,,METAR,9.0
KNBC 170756Z AUTO 25006KT 10SM CLR 22/21 A2978 RMK AO2 SLP085 T02220206,KNBC,2023-05-17T07:56:00Z,32.47,-80.72,22.2,20.6,250,6,,10.0,29.778543,1008.5,,TRUE,TRUE,,,,,,,CLR,,,,,,,,VFR,,,,,,,,,,,,METAR,9.0
KMYR 170756Z AUTO 21007KT 10SM CLR 23/20 A2975 RMK AO2 SLP074 T02280200,KMYR,2023-05-17T07:56:00Z,33.68,-78.92,22.8,20.0,210,7,,10.0,29.749016,1007.4,,TRUE,TRUE,,,,,,,CLR,,,,,,,,VFR,,,,,,,,,,,,METAR,7.0
KMTW 170756Z AUTO 35006KT 10SM CLR 04/00 A3003 RMK AO2 SLP171 T00440000,KMTW,2023-05-17T07:56:00Z,44.12,-87.67,4.4,0.0,350,6,,10.0,30.029528,1017.1,,TRUE,TRUE,,,,,,,CLR,,,,,,,,VFR,,,,,,,,,,,,METAR,197.0
KMRF 170756Z AUTO 33006KT 10SM CLR 12/11 A3014 RMK AO2 SLP152 T01220111,KMRF,2023-05-17T07:56:00Z,30.37,-104.02,12.2,11.1,330,6,,10.0,30.138779,1015.2,,TRUE,TRUE,,,,,,,CLR,,,,,,,,VFR,,,,,,,,,,,,METAR,1476.0
KMQY 170756Z AUTO 33006KT 9SM OVC013 19/18 A2986 RMK AO2 RAE34 SLP114 P0000 T01890178,KMQY,2023-05-17T07:56:00Z,36.02,-86.52,18.9,17.8,330,6,,9.0,29.861221,1011.4,,TRUE,TRUE,,,,,,,OVC,1300,,,,,,,MVFR,,,,,,0.005,,,,,,METAR,156.0
KMOB 170756Z AUTO 26004KT 10SM CLR 20/19 A2985 RMK AO2 SLP104 T02000189,KMOB,2023-05-17T07:56:00Z,30.68,-88.25,20.0,18.9,260,4,,10.0,29.84941,1010.4,,TRUE,TRUE,,,,,,,CLR,,,,,,,,VFR,,,,,,,,,,,,METAR,67.0
KMML 170756Z AUTO 23003KT 10SM CLR 14/11 A2993 RMK AO2 SLP133 T01390106,KMML,2023-05-17T07:56:00Z,44.45,-95.82,13.9,10.6,230,3,,10.0,29.929134,1013.3,,TRUE,TRUE,,,,,,,CLR,,,,,,,,VFR,,,,,,,,,,,,METAR,358.0
KMKY 170756Z AUTO 00000KT 10SM CLR 23/22 A2991 RMK AO2 SLP127 T02330217 TSNO $,KMKY,2023-05-17T07:56:00Z,26.0,-81.67,23.3,21.7,0,0,,10.0,29.911417,1012.7,,TRUE,TRUE,TRUE,,TRUE,,,,CLR,,,,,,,,VFR,,,,,,,,,,,,METAR,2.0
KMKT 170756Z AUTO 10006KT 10SM CLR 15/06 A2994 RMK AO2 SLP138 T01500061,KMKT,2023-05-17T07:56:00Z,44.22,-93.92,15.0,6.1,100,6,,10.0,29.940945,1013.8,,TRUE,TRUE,,,,,,,CLR,,,,,,,,VFR,,,,,,,,,,,,METAR,309.0
KMEH 170756Z AUTO 00000KT 10SM FEW049 BKN065 11/09 A3012 RMK AO2 SLP187 T01060094 402220078,KMEH,2023-05-17T07:56:00Z,45.52,-118.42,10.6,9.4,0,0,,10.0,30.121063,1018.7,,TRUE,TRUE,,,,,,,FEW,4900,BKN,6500,,,,,VFR,,,,22.2,7.8,,,,,,,METAR,1138.0
KMDT 170756Z 29008KT 10SM BKN240 17/12 A2962 RMK AO2 SLP029 T01670117,KMDT,2023-05-17T07:56:00Z,40.2,-76.77,16.7,11.7,290,8,,10.0,29.619095,1002.9,,,TRUE,,,,,,,BKN,24000,,,,,,,VFR,,,,,,,,,,,,METAR,91.0
KMBL 170756Z AUTO 00000KT 10SM CLR 03/M01 A2999 RMK AO2 SLP158 T00281011,KMBL,2023-05-17T07:56:00Z,44.27,-86.25,2.8,-1.1,0,0,,10.0,29.991142,1015.8,,TRUE,TRUE,,,,,,,CLR,,,,,,,,VFR,,,,,,,,,,,,METAR,187.0
KM19 170756Z AUTO 01009KT 10SM OVC026 20/17 A2989 RMK AO2 SLP118 T02000167 PNO $,KM19,2023-05-17T07:56:00Z,35.65,-91.17,20.0,16.7,10,9,,10.0,29.890747,1011.8,,TRUE,TRUE,TRUE,,,,,,OVC,2600,,,,,,,MVFR,,,,,,,,,,,,METAR,72.0
KLZU 170756Z AUTO 27005KT 9SM BKN006 19/18 A2981 RMK AO2 SLP093 T01890183,KLZU,2023-05-17T07:56:00Z,33.98,-83.97,18.9,18.3,270,5,,9.0,29.811024,1009.3,,TRUE,TRUE,,,,,,,BKN,600,,,,,,,IFR,,,,,,,,,,,,METAR,316.0
KLWS 170756Z AUTO 00000KT 10SM CLR 16/12 A3004 RMK AO2 SLP166 T01560117 402830150,KLWS,2023-05-17T07:56:00Z,46.37,-117.02,15.6,11.7,0,0,,10.0,30.041338,1016.6,,TRUE,TRUE,,,,,,,CLR,,,,,,,,VFR,,,,28.3,15.0,,,,,,,METAR,435.0
KLNR 170756Z AUTO 08007KT 10SM CLR 09/03 A2999 RMK AO2 SLP148 T00890033 $,KLNR,2023-05-17T07:56:00Z,43.22,-90.18,8.9,3.3,80,7,,10.0,29.991142,1014.8,,TRUE,TRUE,TRUE,,,,,,CLR,,,,,,,,VFR,,,,,,,,,,,,METAR,218.0
KLGD 170756Z AUTO 00000KT 10SM CLR 12/11 A3011 RMK AO2 SLP187 T01170106 402330094,KLGD,2023-05-17T07:56:00Z,45.28,-118.0,11.7,10.6,0,0,,10.0,30.109253,1018.7,,TRUE,TRUE,,,,,,,CLR,,,,,,,,VFR,,,,23.3,9.4,,,,,,,METAR,827.0
KLEW 170756Z AUTO 33006KT 10SM OVC060 07/01 A2961 RMK AO2 SLP032 T00720006,KLEW,2023-05-17T07:56:00Z,44.03,-70.28,7.2,0.6,330,6,,10.0,29.610237,1003.2,,TRUE,TRUE,,,,,,,OVC,6000,,,,,,,VFR,,,,,,,,,,,,METAR,81.0
KLCI 170756Z AUTO 00000KT 10SM OVC060 07/01 A2962 RMK AO2 SLP030 T00670011,KLCI,2023-05-17T07:56:00Z,43.57,-71.42,6.7,1.1,0,0,,10.0,29.619095,1003.0,,TRUE,TRUE,,,,,,,OVC,6000,,,,,,,VFR,,,,,,,,,,,,METAR,166.0
KLBT 170756Z AUTO 00000KT 10SM CLR 19/19 A2972 RMK AO2 SLP061 T01940189,KLBT,2023-05-17T07:56:00Z,34.6,-79.07,19.4,18.9,0,0,,10.0,29.719488,1006.1,,TRUE,TRUE,,,,,,,CLR,,,,,,,,VFR,,,,,,,,,,,,METAR,37.0
KLBL 170756Z AUTO 09008KT 10SM CLR 14/13 A3003 RMK AO2 SLP145 T01440128,KLBL,2023-05-17T07:56:00Z,37.03,-100.97,14.4,12.8,90,8,,10.0,30.029528,1014.5,,TRUE,TRUE,,,,,,,CLR,,,,,,,,VFR,,,,,,,,,,,,METAR,877.0
KLAS 170756Z 00000KT 10SM SCT180 25/08 A2998 RMK AO2 SLP127 T02500083 403440250,KLAS,2023-05-17T07:56:00Z,36.07,-115.17,25.0,8.3,0,0,,10.0,29.97933,1012.7,,,TRUE,,,,,,,SCT,18000,,,,,,,VFR,,,,34.4,25.0,,,,,,,METAR,662.0
KKLS 170756Z AUTO 33005KT CLR 14/12 A3007 RMK AO2 SLP185 T01440122 402720133 PWINO $,KKLS,2023-05-17T07:56:00Z,46.12,-122.9,14.4,12.2,330,5,,,30.070866,1018.5,,TRUE,TRUE,TRUE,,,,TRUE,,CLR,,,,,,,,,,,,27.2,13.3,,,,,,,METAR,4.0
KJXN 170756Z AUTO 03005KT 10SM CLR 05/02 A2992 RMK AO2 SLP130 T00500022,KJXN,2023-05-17T07:56:00Z,42.27,-84.47,5.0,2.2,30,5,,10.0,29.920275,1013.0,,TRUE,TRUE,,,,,,,CLR,,,,,,,,VFR,,,,,,,,,,,,METAR,303.0
KJRB 170756Z AUTO VRB03KT 10SM BKN100 18/04 A2957 RMK AO2 SLP013 T01830044,KJRB,2023-05-17T07:56:00Z,40.7,-74.02,18.3,4.4,0,3,,10.0,29.568897,1001.3,,TRUE,TRUE,,,,,,,BKN,10000,,,,,,,VFR,,,,,,,,,,,,METAR,2.0
KJMS 170756Z AUTO 18004KT 10SM CLR 12/10 A2991 RMK AO2 SLP126 T01220100,KJMS,2023-05-17T07:56:00Z,46.93,-98.67,12.2,10.0,180,4,,10.0,29.911417,1012.6,,TRUE,TRUE,,,,,,,CLR,,,,,,,,VFR,,,,,,,,,,,,METAR,455.0
KJHW 170756Z AUTO 36010KT 10SM BKN018 OVC023 06/03 A2979 RMK AO2 SLP092 T00610028 PNO $,KJHW,2023-05-17T07:56:00Z,42.15,-79.27,6.1,2.8,360,10,,10.0,29.790354,1009.2,,TRUE,TRUE,TRUE,,,,,,BKN,1800,OVC,2300,,,,,MVFR,,,,,,,,,,,,METAR,520.0
KJAX 170756Z 23005KT 10SM FEW030 SCT250 23/21 A2982 RMK AO2 SLP099 T02280211 $,KJAX,2023-05-17T07:56:00Z,30.5,-81.68,22.8,21.1,230,5,,10.0,29.819881,1009.9,,,TRUE,TRUE,,,,,,FEW,3000,SCT,25000,,,,,VFR,,,,,,,,,,,,METAR,8.0
KJAC 170756Z AUTO 03004KT 10SM CLR 03/02 A3023 RMK AO2 SLP213 T00330017 PNO $,KJAC,2023-05-17T07:56:00Z,43.62,-110.73,3.3,1.7,30,4,,10.0,30.230314,1021.3,,TRUE,TRUE,TRUE,,,,,,CLR,,,,,,,,VFR,,,,,,,,,,,,METAR,1967.0
KIWD 170756Z AUTO 00000KT 10SM CLR 00/M01 A3004 RMK AO2 SLP181 T00001006 FZRANO,KIWD,2023-05-17T07:56:00Z,46.52,-90.12,0.0,-0.6,0,0,,10.0,30.041338,1018.1,,TRUE,TRUE,,,,TRUE,,,CLR,,,,,,,,VFR,,,,,,,,,,,,METAR,373.0
KISP 170756Z AUTO 34011KT 10SM CLR 17/06 A2953 RMK AO2 SLP000 T01720061,KISP,2023-05-17T07:56:00Z,40.8,-73.1,17.2,6.1,340,11,,10.0,29.530512,1000.0,,TRUE,TRUE,,,,,,,CLR,,,,,,,,VFR,,,,,,,,,,,,METAR,25.0
KISM 170756Z AUTO 29005KT 10SM CLR 22/21 A2989 RMK AO2 SLP121 T02220206 PNO $,KISM,2023-05-17T07:56:00Z,28.28,-81.43,22.2,20.6,290,5,,10.0,29.890747,1012.1,,TRUE,TRUE,TRUE,,,,,,CLR,,,,,,,,VFR,,,,,,,,,,,,METAR,25.0
KINW 170756Z AUTO 00000KT 10SM CLR 16/11 A3015 RMK AO2 SLP142 T01560106,KINW,2023-05-17T07:56:00Z,35.03,-110.72,15.6,10.6,0,0,,10.0,30.15059,1014.2,,TRUE,TRUE,,,,,,,CLR,,,,,,,,VFR,,,,,,,,,,,,METAR,1492.0
KILE 170756Z AUTO 00000KT 10SM CLR 18/18 A2994 RMK AO2 SLP132 T01830178,KILE,2023-05-17T07:56:00Z,31.08,-97.68,18.3,17.8,0,0,,10.0,29.940945,1013.2,,TRUE,TRUE,,,,,,,CLR,,,,,,,,VFR,,,,,,,,,,,,METAR,256.0
KHYS 170756Z AUTO 00000KT 10SM SCT100 12/11 A3002 RMK AO2 SLP158 T01220111 $,KHYS,2023-05-17T07:56:00Z,38.85,-99.27,12.2,11.1,0,0,,10.0,30.02067,1015.8,,TRUE,TRUE,TRUE,,,,,,SCT,10000,,,,,,,VFR,,,,,,,,,,,,METAR,607.0
KHYI 170756Z AUTO 29004KT 10SM CLR 19/19 A2994 RMK AO2 SLP131 T01890189,KHYI,2023-05-17T07:56:00Z,29.88,-97.87,18.9,18.9,290,4,,10.0,29.940945,1013.1,,TRUE,TRUE,,,,,,,CLR,,,,,,,,VFR,,,,,,,,,,,,METAR,180.0
KHYA 170756Z AUTO 01012KT 10SM CLR 12/10 A2948 RMK AO2 SLP984 T01170100,KHYA,2023-05-17T07:56:00Z,41.67,-70.27,11.7,10.0,10,12,,10.0,29.480314,998.4,,TRUE,TRUE,,,,,,,CLR,,,,,,,,VFR,,,,,,,,,,,,METAR,11.0
KHWV 170756Z AUTO 34009KT 10SM CLR 17/08 A2954 RMK AO2 SLP002 T01720078,KHWV,2023-05-17T07:56:00Z,40.82,-72.87,17.2,7.8,340,9,,10.0,29.53937,1000.2,,TRUE,TRUE,,,,,,,CLR,,,,,,,,VFR,,,,,,,,,,,,METAR,20.0
KHPN 170756Z 32013KT 10SM BKN100 17/04 A2957 RMK AO2 SLP007 T01720039,KHPN,2023-05-17T07:56:00Z,41.07,-73.7,17.2,3.9,320,13,,10.0,29.568897,1000.7,,,TRUE,,,,,,,BKN,10000,,,,,,,VFR,,,,,,,,,,,,METAR,113.0
KHND 170756Z AUTO 16005KT 10SM CLR 22/09 A3002 RMK AO2 SLP156 T02170089,KHND,2023-05-17T07:56:00Z,35.98,-115.13,21.7,8.9,160,5,,10.0,30.02067,1015.6,,TRUE,TRUE,,,,,,,CLR,,,,,,,,VFR,,,,,,,,,,,,METAR,740.0
KHEZ 170756Z AUTO 00000KT 10SM BKN050 BKN060 21/21 A2986 RMK AO2 SLP108 T02110206,KHEZ,2023-05-17T07:56:00Z,31.62,-91.3,21.1,20.6,0,0,,10.0,29.861221,1010.8,,TRUE,TRUE,,,,,,,BKN,5000,BKN,6000,,,,,VFR,,,,,,,,,,,,METAR,82.0
KHEF 170756Z AUTO 32007KT 10SM BKN120 18/12 A2965 RMK AO2 SLP047 T01780117,KHEF,2023-05-17T07:56:00Z,38.72,-77.52,17.8,11.7,320,7,,10.0,29.648623,1004.7,,TRUE,TRUE,,,,,,,BKN,12000,,,,,,,VFR,,,,,,,,,,,,METAR,53.0
KHDN 170756Z AUTO 09007KT 10SM FEW100 08/04 A3023 RMK AO2 SLP176 T00830039,KHDN,2023-05-17T07:56:00Z,40.48,-107.22,8.3,3.9,90,7,,10.0,30.230314,1017.6,,TRUE,TRUE,,,,,,,FEW,10000,,,,,,,VFR,,,,,,,,,,,,METAR,2012.0
KGXY 170756Z AUTO 23004KT 10SM CLR 11/09 A3011 RMK AO2 SLP167 T01110094,KGXY,2023-05-17T07:56:00Z,40.43,-104.62,11.1,9.4,230,4,,10.0,30.109253,1016.7,,TRUE,TRUE,,,,,,,CLR,,,,,,,,VFR,,,,,,,,,,,,METAR,1420.0
KGVQ 170756Z AUTO 03009KT 10SM OVC034 04/00 A2983 RMK AO2 SLP104 T00390000,KGVQ,2023-05-17T07:56:00Z,43.03,-78.17,3.9,0.0,30,9,,10.0,29.828741,1010.4,,TRUE,TRUE,,,,,,,OVC,3400,,,,,,,VFR,,,,,,,,,,,,METAR,279.0
KGUC 170756Z AUTO 00000KT 10SM CLR 05/01 A3028 RMK AO2 SLP193 T00500011,KGUC,2023-05-17T07:56:00Z,38.52,-106.93,5.0,1.1,0,0,,10.0,30.280512,1019.3,,TRUE,TRUE,,,,,,,CLR,,,,,,,,VFR,,,,,,,,,,,,METAR,2337.0
KGTU 170756Z 00000KT 10SM CLR 18/17 A2995 RMK AO2 SLP140 T01830172,KGTU,2023-05-17T07:56:00Z,30.68,-97.68,18.3,17.2,0,0,,10.0,29.949802,1014.0,,,TRUE,,,,,,,CLR,,,,,,,,VFR,,,,,,,,,,,,METAR,232.0
KGTR 170756Z AUTO 00000KT 7SM CLR 20/20 A2983 RMK AO2 RAE10 SLP107 P0000 T02000200,KGTR,2023-05-17T07:56:00Z,33.45,-88.58,20.0,20.0,0,0,,7.0,29.828741,1010.7,,TRUE,TRUE,,,,,,,CLR,,,,,,,,VFR,,,,,,0.005,,,,,,METAR,80.0
KGRD 170756Z AUTO 24009KT 10SM CLR 19/18 A2977 RMK AO2 SLP926 T01940178,KGRD,2023-05-17T07:56:00Z,34.25,-82.15,19.4,17.8,240,9,,10.0,29.769686,992.6,,TRUE,TRUE,,,,,,,CLR,,,,,,,,VFR,,,,,,,,,,,,METAR,188.0
KGPZ 170756Z AUTO 13004KT 10SM CLR 06/02 A3002 RMK AO2 SLP169 T00610017,KGPZ,2023-05-17T07:56:00Z,47.22,-93.52,6.1,1.7,130,4,,10.0,30.02067,1016.9,,TRUE,TRUE,,,,,,,CLR,,,,,,,,VFR,,,,,,,,,,,,METAR,410.0
KGON 170756Z AUTO 33008KT 10SM BKN100 16/07 A2953 RMK AO2 SLP998 T01610067,KGON,2023-05-17T07:56:00Z,41.33,-72.05,16.1,6.7,330,8,,10.0,29.530512,999.8,,TRUE,TRUE,,,,,,,BKN,10000,,,,,,,VFR,,,,,,,,,,,,METAR,2.0
KGNR 170756Z AUTO 32010G20KT 02/00 A2954 RMK AO1 SLP013 T00220000,KGNR,2023-05-17T07:56:00Z,45.47,-69.55,2.2,0.0,320,10,20,,29.53937,1001.3,,TRUE,TRUE,,,,,,,,,,,,,,,,,,,,,,,,,,,METAR,426.0
KGNA 170756Z AUTO 00000KT 02/M01 A3006 RMK AO1 SLP187 T00171006 $,KGNA,2023-05-17T07:56:00Z,47.75,-90.35,1.7,-0.6,0,0,,,30.059055,1018.7,,TRUE,TRUE,TRUE,,,,,,,,,,,,,,,,,,,,,,,,,,METAR,186.0
KGDV 170756Z AUTO 19010KT 10SM FEW085 16/12 A2987 RMK AO2 SLP100 T01560122 TSNO,KGDV,2023-05-17T07:56:00Z,47.13,-104.8,15.6,12.2,190,10,,10.0,29.870079,1010.0,,TRUE,TRUE,,,TRUE,,,,FEW,8500,,,,,,,VFR,,,,,,,,,,,,METAR,749.0
KGBD 170756Z AUTO 00000KT 10SM FEW085 13/13 A3002 RMK AO2 SLP156 T01330128,KGBD,2023-05-17T07:56:00Z,38.35,-98.87,13.3,12.8,0,0,,10.0,30.02067,1015.6,,TRUE,TRUE,,,,,,,FEW,8500,,,,,,,VFR,,,,,,,,,,,,METAR,573.0
KGAI 170756Z AUTO 30005KT 10SM CLR 15/11 A2966 RMK AO2 SLP054 T01500111,KGAI,2023-05-17T07:56:00Z,39.17,-77.17,15.0,11.1,300,5,,10.0,29.660433,1005.4,,TRUE,TRUE,,,,,,,CLR,,,,,,,,VFR,,,,,,,,,,,,METAR,151.0
KGAD 170756Z AUTO 35003KT 10SM 18/18 A2985 RMK AO2 SLP108 T01830183 PNO $,KGAD,2023-05-17T07:56:00Z,33.97,-86.08,18.3,18.3,350,3,,10.0,29.84941,1010.8,,TRUE,TRUE,TRUE,,,,,,,,,,,,,,,,,,,,,,,,,,METAR,169.0
KFSD 170756Z AUTO 00000KT 10SM CLR 12/07 A2994 RMK AO2 SLP135 T01220067,KFSD,2023-05-17T07:56:00Z,43.58,-96.75,12.2,6.7,0,0,,10.0,29.940945,1013.5,,TRUE,TRUE,,,,,,,CLR,,,,,,,,VFR,,,,,,,,,,,,METAR,433.0
KFRM 170756Z AUTO 00000KT 10SM CLR 14/09 A2993 RMK AO2 SLP135 T01390094,KFRM,2023-05-17T07:56:00Z,43.63,-94.42,13.9,9.4,0,0,,10.0,29.929134,1013.5,,TRUE,TRUE,,,,,,,CLR,,,,,,,,VFR,,,,,,,,,,,,METAR,353.0
KFOD 170756Z AUTO 00000KT 10SM CLR 12/10 A2991 RMK AO2 SLP138 T01170100,KFOD,2023-05-17T07:56:00Z,42.53,-94.17,11.7,10.0,0,0,,10.0,29.911417,1013.8,,TRUE,TRUE,,,,,,,CLR,,,,,,,,VFR,,,,,,,,,,,,METAR,347.0
KFNL 170756Z 00000KT 10SM CLR 12/09 A3012 RMK AO2 SLP153 T01220094,KFNL,2023-05-17T07:56:00Z,40.45,-105.02,12.2,9.4,0,0,,10.0,30.121063,1015.3,,,TRUE,,,,,,,CLR,,,,,,,,VFR,,,,,,,,,,,,METAR,1529.0
KFLP 170756Z AUTO 03003KT 10SM SCT012 OVC018 18/17 A2992 RMK AO2 SLP128 T01830167,KFLP,2023-05-17T07:56:00Z,36.28,-92.58,18.3,16.7,30,3,,10.0,29.920275,1012.8,,TRUE,TRUE,,,,,,,SCT,1200,OVC,1800,,,,,MVFR,,,,,,,,,,,,METAR,215.0
KFCI 170756Z AUTO 36003KT 8SM -RA FEW006 BKN031 OVC044 17/ A2967 RMK AO2 SLP056 P0002 T0172,KFCI,2023-05-17T07:56:00Z,37.4,-77.52,17.2,,360,3,,8.0,29.66929,1005.6,,TRUE,TRUE,,,,,,-RA,FEW,600,BKN,3100,OVC,4400,,,VFR,,,,,,0.02,,,,,,METAR,63.0
KFBG 170756Z AUTO 21006KT 10SM FEW120 FEW140 SCT190 20/20 A2969 RMK AO2 RAE56 SLP055 $,KFBG,2023-05-17T07:56:00Z,35.12,-78.92,20.0,20.0,210,6,,10.0,29.68996,1005.5,,TRUE,TRUE,TRUE,,,,,,FEW,12000,FEW,14000,SCT,19000,,,VFR,,,,,,,,,,,,METAR,69.0
KFAM 170756Z AUTO 00000KT 6SM BR OVC100 13/13 A2991 RMK AO2 SLP137 T01330133 PNO $,KFAM,2023-05-17T07:56:00Z,37.77,-90.42,13.3,13.3,0,0,,6.0,29.911417,1013.7,,TRUE,TRUE,TRUE,,,,,BR,OVC,10000,,,,,,,VFR,,,,,,,,,,,,METAR,276.0
KEWK 170756Z AUTO 00000KT 10SM CLR 13/13 A3000 RMK AO2 SLP151 T01280128,KEWK,2023-05-17T07:56:00Z,38.05,-97.27,12.8,12.8,0,0,,10.0,30.0,1015.1,,TRUE,TRUE,,,,,,,CLR,,,,,,,,VFR,,,,,,,,,,,,METAR,468.0
KEUL 170756Z AUTO 27006KT 10SM CLR 15/11 A3006 RMK AO2 SLP165 T01500111,KEUL,2023-05-17T07:56:00Z,43.63,-116.62,15.0,11.1,270,6,,10.0,30.059055,1016.5,,TRUE,TRUE,,,,,,,CLR,,,,,,,,VFR,,,,,,,,,,,,METAR,741.0
KESC 170756Z AUTO 36004KT 10SM CLR 02/M01 A3005 RMK AO2 SLP183 T00221011 FZRANO,KESC,2023-05-17T07:56:00Z,45.72,-87.08,2.2,-1.1,360,4,,10.0,30.050198,1018.3,,TRUE,TRUE,,,,TRUE,,,CLR,,,,,,,,VFR,,,,,,,,,,,,METAR,180.0
KENV 170756Z AUTO 26004KT 10SM CLR 16/07 A3012 RMK AO2 SLP169 T01560072 PNO $,KENV,2023-05-17T07:56:00Z,40.72,-114.02,15.6,7.2,260,4,,10.0,30.121063,1016.9,,TRUE,TRUE,TRUE,,,,,,CLR,,,,,,,,VFR,,,,,,,,,,,,METAR,1291.0
KELZ 170756Z AUTO VRB06KT 10SM OVC009 05/02 A2977 RMK AO2 SLP082 T00500022,KELZ,2023-05-17T07:56:00Z,42.1,-77.98,5.0,2.2,0,6,,10.0,29.769686,1008.2,,TRUE,TRUE,,,,,,,OVC,900,,,,,,,IFR,,,,,,,,,,,,METAR,639.0
KEKO 170756Z AUTO 33004KT 10SM CLR 13/06 A3014 RMK AO2 SLP161 T01280061 402720067,KEKO,2023-05-17T07:56:00Z,40.82,-115.78,12.8,6.1,330,4,,10.0,30.138779,1016.1,,TRUE,TRUE,,,,,,,CLR,,,,,,,,VFR,,,,27.2,6.7,,,,,,,METAR,1541.0
KEHR 170756Z AUTO 00000KT 9SM CLR 14/13 A2988 RMK AO2 SLP116 T01390133,KEHR,2023-05-17T07:56:00Z,37.82,-87.67,13.9,13.3,0,0,,9.0,29.878937,1011.6,,TRUE,TRUE,,,,,,,CLR,,,,,,,,VFR,,,,,,,,,,,,METAR,117.0
KEGE 170756Z AUTO 00000KT 10SM CLR 07/02 A3026 RMK AO2 SLP146 T00670017,KEGE,2023-05-17T07:56:00Z,39.63,-106.92,6.7,1.7,0,0,,10.0,30.259842,1014.6,,TRUE,TRUE,,,,,,,CLR,,,,,,,,VFR,,,,,,,,,,,,METAR,1993.0
KEEN 170756Z AUTO 10SM OVC042 08/02 RMK AO2 SLPNO T00780017 $,KEEN,2023-05-17T07:56:00Z,42.88,-72.27,7.8,1.7,,,,10.0,,,,TRUE,TRUE,TRUE,,,,,,OVC,4200,,,,,,,VFR,,,,,,,,,,,,METAR,143.0
KEED 170756Z AUTO 28006KT 10SM CLR 28/08 A2989 RMK AO2 SLP088 T02780078 403890250 $,KEED,2023-05-17T07:56:00Z,34.77,-114.62,27.8,7.8,280,6,,10.0,29.890747,1008.8,,TRUE,TRUE,TRUE,,,,,,CLR,,,,,,,,VFR,,,,38.9,25.0,,,,,,,METAR,271.0
KEAU 170756Z AUTO 06007KT 10SM CLR 09/03 A2999 RMK AO2 SLP154 T00890033,KEAU,2023-05-17T07:56:00Z,44.87,-91.48,8.9,3.3,60,7,,10.0,29.991142,1015.4,,TRUE,TRUE,,,,,,,CLR,,,,,,,,VFR,,,,,,,,,,,,METAR,271.0
KEAR 170756Z AUTO 29004KT 10SM CLR 11/07 A3002 RMK AO2 SLP157 T01110072,KEAR,2023-05-17T07:56:00Z,40.72,-99.0,11.1,7.2,290,4,,10.0,30.02067,1015.7,,TRUE,TRUE,,,,,,,CLR,,,,,,,,VFR,,,,,,,,,,,,METAR,649.0
KDYR 170756Z AUTO 02004KT 10SM BKN030 19/19 A2988 RMK AO2 SLP120 T01890189,KDYR,2023-05-17T07:56:00Z,36.0,-89.4,18.9,18.9,20,4,,10.0,29.878937,1012.0,,TRUE,TRUE,,,,,,,BKN,3000,,,,,,,MVFR,,,,,,,,,,,,METAR,98.0
KDWU 170756Z AUTO 00000KT 1/4SM FG OVC001 12/ A2982 RMK AO2 RAE52 SLP097 P0000 T0117 RVRNO,KDWU,2023-05-17T07:56:00Z,38.55,-82.73,11.7,,0,0,,0.25,29.819881,1009.7,,TRUE,TRUE,,,,,,FG,OVC,100,,,,,,,LIFR,,,,,,0.005,,,,,,METAR,165.0
KDVL 170756Z AUTO 17005KT 9SM CLR 13/09 A2989 RMK AO2 SLP132 T01330094,KDVL,2023-05-17T07:56:00Z,48.12,-98.92,13.3,9.4,170,5,,9.0,29.890747,1013.2,,TRUE,TRUE,,,,,,,CLR,,,,,,,,VFR,,,,,,,,,,,,METAR,439.0
KDUG 170756Z AUTO 36003KT 10SM CLR 15/12 A3013 RMK AO2 SLP139 T01500117 TSNO,KDUG,2023-05-17T07:56:00Z,31.47,-109.6,15.0,11.7,360,3,,10.0,30.129921,1013.9,,TRUE,TRUE,,,TRUE,,,,CLR,,,,,,,,VFR,,,,,,,,,,,,METAR,1260.0
KDIK 170756Z AUTO 19006KT 10SM BKN075 13/08 A2988 RMK AO2 SLP108 T01330083,KDIK,2023-05-17T07:56:00Z,46.8,-102.8,13.3,8.3,190,6,,10.0,29.878937,1010.8,,TRUE,TRUE,,,,,,,BKN,7500,,,,,,,VFR,,,,,,,,,,,,METAR,788.0
KDIJ 170756Z AUTO 15003KT 10SM SCT065 BKN080 07/03 A3022 RMK AO2 SLP196 T00670028,KDIJ,2023-05-17T07:56:00Z,43.75,-111.1,6.7,2.8,150,3,,10.0,30.221457,1019.6,,TRUE,TRUE,,,,,,,SCT,6500,BKN,8000,,,,,VFR,,,,,,,,,,,,METAR,1896.0
KDAY 170756Z 34007KT 10SM FEW100 13/10 A2984 RMK AO2 SLP100 T01280100,KDAY,2023-05-17T07:56:00Z,39.9,-84.22,12.8,10.0,340,7,,10.0,29.840551,1010.0,,,TRUE,,,,,,,FEW,10000,,,,,,,VFR,,,,,,,,,,,,METAR,303.0
KD07 170756Z AUTO 18011KT 10/07 A2996 RMK AO1 SLP142 T01000072,KD07,2023-05-17T07:56:00Z,45.03,-102.02,10.0,7.2,180,11,,,29.958662,1014.2,,TRUE,TRUE,,,,,,,,,,,,,,,,,,,,,,,,,,,METAR,786.0
KCXY 170756Z AUTO 28004KT 10SM CLR 17/11 A2963 RMK AO2 SLP034 T01670111,KCXY,2023-05-17T07:56:00Z,40.22,-76.85,16.7,11.1,280,4,,10.0,29.630905,1003.4,,TRUE,TRUE,,,,,,,CLR,,,,,,,,VFR,,,,,,,,,,,,METAR,102.0
KCWI 170756Z AUTO 08012KT 10SM CLR 11/05 A2994 RMK AO2 SLP138 T01110050,KCWI,2023-05-17T07:56:00Z,41.82,-90.32,11.1,5.0,80,12,,10.0,29.940945,1013.8,,TRUE,TRUE,,,,,,,CLR,,,,,,,,VFR,,,,,,,,,,,,METAR,212.0
KCVO 170756Z AUTO 30014KT 10SM CLR 13/11 A3003 RMK AO2 SLP167 T01330106 402940106,KCVO,2023-05-17T07:56:00Z,44.5,-123.28,13.3,10.6,300,14,,10.0,30.029528,1016.7,,TRUE,TRUE,,,,,,,CLR,,,,,,,,VFR,,,,29.4,10.6,,,,,,,METAR,75.0
KCVN 170756Z AUTO 12012KT 10SM FEW085 OVC110 16/12 A3009 RMK AO2 WSHFT 0647 RAE25 SLP152 P0001 T01560117,KCVN,2023-05-17T07:56:00Z,34.42,-103.07,15.6,11.7,120,12,,10.0,30.088583,1015.2,,TRUE,TRUE,,,,,,,FEW,8500,OVC,11000,,,,,VFR,,,,,,0.01,,,,,,METAR,1278.0
KCTB 170756Z AUTO 33011KT 10SM BKN075 BKN120 11/01 A3016 RMK AO2 SLP195 T01110006,KCTB,2023-05-17T07:56:00Z,48.6,-112.37,11.1,0.6,330,11,,10.0,30.159449,1019.5,,TRUE,TRUE,,,,,,,BKN,7500,BKN,12000,,,,,VFR,,,,,,,,,,,,METAR,1172.0
KCOE 170756Z AUTO 13004KT 10SM 15/13 A3008 RMK AO2 SLP192 T01500128 402500144 PNO $,KCOE,2023-05-17T07:56:00Z,47.77,-116.82,15.0,12.8,130,4,,10.0,30.079725,1019.2,,TRUE,TRUE,TRUE,,,,,,,,,,,,,,,,,,25.0,14.4,,,,,,,METAR,693.0
KCOD 170756Z AUTO 23006KT 10SM CLR 13/02 A3011 RMK AO2 SLP157 T01330022,KCOD,2023-05-17T07:56:00Z,44.52,-109.02,13.3,2.2,230,6,,10.0,30.109253,1015.7,,TRUE,TRUE,,,,,,,CLR,,,,,,,,VFR,,,,,,,,,,,,METAR,1550.0
KCIU 170756Z AUTO 04007KT 10SM CLR 01/M04 A3004 RMK AO2 SLP175 T00061044 FZRANO,KCIU,2023-05-17T07:56:00Z,46.25,-84.47,0.6,-4.4,40,7,,10.0,30.041338,1017.5,,TRUE,TRUE,,,,TRUE,,,CLR,,,,,,,,VFR,,,,,,,,,,,,METAR,242.0
KCHS 170756Z 24010KT 10SM FEW050 FEW110 23/21 A2976 RMK AO2 SLP078 T02330206,KCHS,2023-05-17T07:56:00Z,32.9,-80.03,23.3,20.6,240,10,,10.0,29.760826,1007.8,,,TRUE,,,,,,,FEW,5000,FEW,11000,,,,,VFR,,,,,,,,,,,,METAR,12.0
KCGZ 170756Z AUTO 11005KT 10SM CLR 26/12 A2994 RMK AO2 SLP121 T02610122 PNO $,KCGZ,2023-05-17T07:56:00Z,32.95,-111.77,26.1,12.2,110,5,,10.0,29.940945,1012.1,,TRUE,TRUE,TRUE,,,,,,CLR,,,,,,,,VFR,,,,,,,,,,,,METAR,444.0
KCAE 170756Z 27009KT 10SM BKN150 23/17 A2973 RMK AO2 SLP064 T02280172 $,KCAE,2023-05-17T07:56:00Z,33.93,-81.12,22.8,17.2,270,9,,10.0,29.731298,1006.4,,,TRUE,TRUE,,,,,,BKN,15000,,,,,,,VFR,,,,,,,,,,,,METAR,69.0
KBZN 170756Z AUTO 20005KT 10SM BKN070 OVC095 13/09 A3014 RMK AO2 SLP172 T01330089,KBZN,2023-05-17T07:56:00Z,45.78,-111.17,13.3,8.9,200,5,,10.0,30.138779,1017.2,,TRUE,TRUE,,,,,,,BKN,7000,OVC,9500,,,,,VFR,,,,,,,,,,,,METAR,1349.0
KBVX 170756Z AUTO VRB04KT 10SM OVC033 19/17 A2990 RMK AO2 SLP124 T01940167,KBVX,2023-05-17T07:56:00Z,35.73,-91.65,19.4,16.7,0,4,,10.0,29.899607,1012.4,,TRUE,TRUE,,,,,,,OVC,3300,,,,,,,VFR,,,,,,,,,,,,METAR,137.0
KBTP 170756Z AUTO 34005KT 10SM CLR 12/06 A2976 RMK AO2 SLP077 T01170061 TSNO $,KBTP,2023-05-17T07:56:00Z,40.77,-79.95,11.7,6.1,340,5,,10.0,29.760826,1007.7,,TRUE,TRUE,TRUE,,TRUE,,,,CLR,,,,,,,,VFR,,,,,,,,,,,,METAR,375.0
KBMI 170756Z AUTO 04005KT 10SM CLR 11/07 A2991 RMK AO2 SLP123 T01110072,KBMI,2023-05-17T07:56:00Z,40.47,-88.92,11.1,7.2,40,5,,10.0,29.911417,1012.3,,TRUE,TRUE,,,,,,,CLR,,,,,,,,VFR,,,,,,,,,,,,METAR,262.0
KBLM 170756Z AUTO 30007KT 10SM CLR 18/13 A2957 RMK AO2 SLP014 T01780133,KBLM,2023-05-17T07:56:00Z,40.17,-74.12,17.8,13.3,300,7,,10.0,29.568897,1001.4,,TRUE,TRUE,,,,,,,CLR,,,,,,,,VFR,,,,,,,,,,,,METAR,45.0
KBKX 170756Z AUTO 00000KT 10SM CLR 13/08 A2994 RMK AO2 SLP147 T01280083,KBKX,2023-05-17T07:56:00Z,44.3,-96.82,12.8,8.3,0,0,,10.0,29.940945,1014.7,,TRUE,TRUE,,,,,,,CLR,,,,,,,,VFR,,,,,,,,,,,,METAR,494.0
KBJJ 170756Z AUTO 35008KT 10SM CLR 10/07 A2982 RMK AO2 SLP095 T01000067,KBJJ,2023-05-17T07:56:00Z,40.87,-81.88,10.0,6.7,350,8,,10.0,29.819881,1009.5,,TRUE,TRUE,,,,,,,CLR,,,,,,,,VFR,,,,,,,,,,,,METAR,338.0
KBIH 170756Z AUTO 33006KT 10SM CLR 15/04 A3009 RMK AO2 SLP143 T01500039 403170078,KBIH,2023-05-17T07:56:00Z,37.37,-118.35,15.0,3.9,330,6,,10.0,30.088583,1014.3,,TRUE,TRUE,,,,,,,CLR,,,,,,,,VFR,,,,31.7,7.8,,,,,,,METAR,1252.0
KBID 170756Z AUTO 31006KT 10SM CLR 13/11 A2952 RMK AO2 SLP997 T01330106,KBID,2023-05-17T07:56:00Z,41.17,-71.58,13.3,10.6,310,6,,10.0,29.518702,999.7,,TRUE,TRUE,,,,,,,CLR,,,,,,,,VFR,,,,,,,,,,,,METAR,32.0
KBHB 170756Z AUTO 35006KT 10SM OVC048 06/03 A2955 RMK AO2 SLP009 T00610028,KBHB,2023-05-17T07:56:00Z,44.45,-68.37,6.1,2.8,350,6,,10.0,29.551182,1000.9,,TRUE,TRUE,,,,,,,OVC,4800,,,,,,,VFR,,,,,,,,,,,,METAR,21.0
KAWO 170756Z AUTO 31004KT 10SM CLR 13/12 A3006 RMK AO2 SLP183 T01330117 402390133,KAWO,2023-05-17T07:56:00Z,48.17,-122.17,13.3,11.7,310,4,,10.0,30.059055,1018.3,,TRUE,TRUE,,,,,,,CLR,,,,,,,,VFR,,,,23.9,13.3,,,,,,,METAR,38.0
KASH 170756Z AUTO 34008G15KT 10SM FEW032 BKN060 10/03 A2962 RMK AO2 SLP034 T01000033,KASH,2023-05-17T07:56:00Z,42.78,-71.52,10.0,3.3,340,8,15,10.0,29.619095,1003.4,,TRUE,TRUE,,,,,,,FEW,3200,BKN,6000,,,,,VFR,,,,,,,,,,,,METAR,56.0
KART 170756Z AUTO 36007KT 10SM CLR 02/M02 A2983 RMK AO2 SLP101 T00221022,KART,2023-05-17T07:56:00Z,43.98,-76.03,2.2,-2.2,360,7,,10.0,29.828741,1010.1,,TRUE,TRUE,,,,,,,CLR,,,,,,,,VFR,,,,,,,,,,,,METAR,100.0
KARG 170756Z AUTO 36005KT 10SM OVC024 19/17 A2989 RMK AO2 SLP122 T01940172,KARG,2023-05-17T07:56:00Z,36.12,-90.92,19.4,17.2,360,5,,10.0,29.890747,1012.2,,TRUE,TRUE,,,,,,,OVC,2400,,,,,,,MVFR,,,,,,,,,,,,METAR,82.0
KAND 170756Z AUTO 26006KT 10SM CLR 21/18 A2976 RMK AO2 SLP066 T02060183,KAND,2023-05-17T07:56:00Z,34.5,-82.72,20.6,18.3,260,6,,10.0,29.760826,1006.6,,TRUE,TRUE,,,,,,,CLR,,,,,,,,VFR,,,,,,,,,,,,METAR,233.0
KALK 170756Z AUTO 15004KT 10SM CLR 16/11 A3016 RMK AO2 SLP126 T01560106,KALK,2023-05-17T07:56:00Z,31.6,-110.43,15.6,10.6,150,4,,10.0,30.159449,1012.6,,TRUE,TRUE,,,,,,,CLR,,,,,,,,VFR,,,,,,,,,,,,METAR,1451.0
KAJO 170756Z AUTO 27004KT 10SM CLR 15/13 A2998 RMK AO2 SLP145 T01500133 402830139,KAJO,2023-05-17T07:56:00Z,33.9,-117.6,15.0,13.3,270,4,,10.0,29.97933,1014.5,,TRUE,TRUE,,,,,,,CLR,,,,,,,,VFR,,,,28.3,13.9,,,,,,,METAR,161.0
KAIZ 170756Z AUTO 25003KT 4SM BR OVC003 15/15 RMK AO2 SLPNO T01500150 $,KAIZ,2023-05-17T07:56:00Z,38.1,-92.53,15.0,15.0,250,3,,4.0,,,,TRUE,TRUE,TRUE,,,,,BR,OVC,300,,,,,,,LIFR,,,,,,,,,,,,METAR,263.0
KAFJ 170756Z AUTO 28004KT 10SM CLR 12/11 A2978 RMK AO2 SLP082 T01220111,KAFJ,2023-05-17T07:56:00Z,40.13,-80.28,12.2,11.1,280,4,,10.0,29.778543,1008.2,,TRUE,TRUE,,,,,,,CLR,,,,,,,,VFR,,,,,,,,,,,,METAR,360.0
KADF 170756Z AUTO 28003KT 10SM BKN036 OVC046 20/18 A2988 RMK AO2 SLP115 T02000178,KADF,2023-05-17T07:56:00Z,34.1,-93.07,20.0,17.8,280,3,,10.0,29.878937,1011.5,,TRUE,TRUE,,,,,,,BKN,3600,OVC,4600,,,,,VFR,,,,,,,,,,,,METAR,54.0
K8D3 170756Z AUTO 00000KT 14/09 A2990 RMK AO1 SLP111 T01390094,K8D3,2023-05-17T07:56:00Z,45.67,-96.98,13.9,9.4,0,0,,,29.899607,1011.1,,TRUE,TRUE,,,,,,,,,,,,,,,,,,,,,,,,,,,SPECI,535.0
K79J 170756Z AUTO 10003KT 7SM FEW002 21/18 A2983 RMK AO2 SLP094 T02110183 $,K79J,2023-05-17T07:56:00Z,31.32,-86.4,21.1,18.3,100,3,,7.0,29.828741,1009.4,,TRUE,TRUE,TRUE,,,,,,FEW,200,,,,,,,VFR,,,,,,,,,,,,METAR,93.0
K2WX 170756Z AUTO 18009KT 14/09 A2992 RMK AO1 SLP114 T01440094,K2WX,2023-05-17T07:56:00Z,45.6,-103.55,14.4,9.4,180,9,,,29.920275,1011.4,,TRUE,TRUE,,,,,,,,,,,,,,,,,,,,,,,,,,,METAR,925.0
K1M4 170756Z AUTO 00000KT 9SM OVC021 19/19 A2988 RMK AO2 SLP101 T01890189,K1M4,2023-05-17T07:56:00Z,34.28,-87.6,18.9,18.9,0,0,,9.0,29.878937,1010.1,,TRUE,TRUE,,,,,,,OVC,2100,,,,,,,MVFR,,,,,,,,,,,,METAR,283.0
TXKF 170755Z 18008KT 9999 FEW013 BKN054 21/20 Q1014 ,TXKF,2023-05-17T07:55:00Z,32.37,-64.68,21.0,20.0,180,8,,6.21,29.940945,,,,,,,,,,,FEW,1300,BKN,5400,,,,,VFR,,,,,,,,,,,,METAR,4.0
TNCE 170755Z AUTO 08007KT //// // ///////// 26/23 Q1014 RE//,TNCE,2023-05-17T07:55:00Z,17.48,-62.97,26.0,23.0,80,7,,,29.940945,,,TRUE,,,,,,,,,,,,,,,,,,,,,,,,,,,,METAR,38.0
TNCB 170755Z AUTO 10007KT 060V130 9999 FEW014/// SCT016/// BKN026/// 27/24 Q1012,TNCB,2023-05-17T07:55:00Z,12.13,-68.28,27.0,24.0,100,7,,6.21,29.88189,,,TRUE,,,,,,,,FEW,1400,SCT,1600,BKN,2600,,,MVFR,,,,,,,,,,,,METAR,6.0
RODN 170755Z 13013KT 10SM BKN120 25/20 A2987 RMK AO2A SLP121 T02520198 FZRANO $,RODN,2023-05-17T07:55:00Z,26.35,127.77,25.2,19.8,130,13,,10.0,29.870079,1012.1,,,TRUE,TRUE,,,TRUE,,,BKN,12000,,,,,,,VFR,,,,,,,,,,,,METAR,38.0
RKSO 170755Z 27013G19KT 10SM FEW030 BKN300 27/17 A2989 RMK AO2A SLP125 T02730169 $,RKSO,2023-05-17T07:55:00Z,37.08,127.02,27.3,16.9,270,13,19,10.0,29.890747,1012.5,,,TRUE,TRUE,,,,,,FEW,3000,BKN,30000,,,,,VFR,,,,,,,,,,,,METAR,10.0
RKSG 170755Z 25015G21KT 10SM CLR 27/13 A2990 RMK AO2A SLP123 WND DATA ALSTG/SLP ESTMD T02680128 $,RKSG,2023-05-17T07:55:00Z,36.97,127.02,26.8,12.8,250,15,21,10.0,29.899607,1012.3,,,TRUE,TRUE,,,,,,CLR,,,,,,,,VFR,,,,,,,,,,,,METAR,12.0
RKJK 170755Z 23014KT 7SM FEW130 26/13 A2986 RMK AO2A SLP116 T02590134 $,RKJK,2023-05-17T07:55:00Z,35.9,126.62,25.9,13.4,230,14,,7.0,29.861221,1011.6,,,TRUE,TRUE,,,,,,FEW,13000,,,,,,,VFR,,,,,,,,,,,,METAR,8.0
RJTY 170755Z AUTO 17010KT 10SM CLR 28/15 A2988 RMK AO2 SLP119 T02800146 $,RJTY,2023-05-17T07:55:00Z,35.75,139.33,28.0,14.6,170,10,,10.0,29.878937,1011.9,,TRUE,TRUE,TRUE,,,,,,CLR,,,,,,,,VFR,,,,,,,,,,,,METAR,136.0
PWAK 170755Z AUTO 04011KT 10SM FEW018 27/22 A2995 RMK AO2 SLP148 T02690223 $,PWAK,2023-05-17T07:55:00Z,19.28,166.62,26.9,22.3,40,11,,10.0,29.949802,1014.8,,TRUE,TRUE,TRUE,,,,,,FEW,1800,,,,,,,VFR,,,,,,,,,,,,METAR,7.0
PHHI 170755Z AUTO 00000KT 10SM CLR 19/16 A3013 RMK AO2 SLP196 T01920162 $,PHHI,2023-05-17T07:55:00Z,21.48,-158.05,19.2,16.2,0,0,,10.0,30.129921,1019.6,,TRUE,TRUE,TRUE,,,,,,CLR,,,,,,,,VFR,,,,,,,,,,,,METAR,246.0
PATL 170755Z AUTO 00000KT 10SM FEW034 SCT055 BKN075 BKN095 04/M01 A3014 RMK AO2 SLP217 T00421014 TSNO $,PATL,2023-05-17T07:55:00Z,62.9,-155.97,4.2,-1.4,0,0,,10.0,30.138779,1021.7,,TRUE,TRUE,TRUE,,TRUE,,,,FEW,3400,SCT,5500,BKN,7500,BKN,9500,VFR,,,,,,,,,,,,METAR,261.0
PASY 170755Z AUTO 24006KT M M M 04/M00 A3069,PASY,2023-05-17T07:55:00Z,52.72,174.12,4.0,0.0,240,6,,,30.690945,,,TRUE,,,,,,,,,,,,,,,,,,,,,,,,,,,,METAR,6.0
PASV 170755Z AUTO 17002KT 10SM FEW048 02/M02 A3011 RMK AO2 SLP217 T00161024,PASV,2023-05-17T07:55:00Z,61.1,-155.57,1.6,-2.4,170,2,,10.0,30.109253,1021.7,,TRUE,TRUE,,,,,,,FEW,4800,,,,,,,VFR,,,,,,,,,,,,METAR,462.0
PALU 170755Z AUTO 06020G26KT 6SM -SN OVC011 M03/M05 A3017 RMK AO2 PK WND 06026/0715 SNB0555 SLP217 P0000 T10301046,PALU,2023-05-17T07:55:00Z,68.88,-166.1,-3.0,-4.6,60,20,26,6.0,30.171259,1021.7,,TRUE,TRUE,,,,,,-SN,OVC,1100,,,,,,,MVFR,,,,,,0.005,,,,,,METAR,8.0
PAFR 170755Z AUTO 07004KT 10SM OVC026 06/01 A3025 RMK AO2 SLP251 T00560009 $,PAFR,2023-05-17T07:55:00Z,61.27,-149.65,5.6,0.9,70,4,,10.0,30.250984,1025.1,,TRUE,TRUE,TRUE,,,,,,OVC,2600,,,,,,,MVFR,,,,,,,,,,,,METAR,106.0
PAFB 170755Z AUTO 28009KT 10SM CLR 08/04 A3011 RMK AO2 SLP203 T00760040 $,PAFB,2023-05-17T07:55:00Z,64.83,-147.62,7.6,4.0,280,9,,10.0,30.109253,1020.3,,TRUE,TRUE,TRUE,,,,,,CLR,,,,,,,,VFR,,,,,,,,,,,,METAR,137.0
PAEI 170755Z 29008KT 10SM BKN090 07/04 A3009 RMK AO2A SLP194 T00730037 CHINO RWY14 $,PAEI,2023-05-17T07:55:00Z,64.67,-147.1,7.3,3.7,290,8,,10.0,30.088583,1019.4,,,TRUE,TRUE,,,,,,BKN,9000,,,,,,,VFR,,,,,,,,,,,,SPECI,166.0
PAED 170755Z 02003KT 10SM FEW026 BKN031 05/01 A3023 RMK AO2A SLP234 T00470006,PAED,2023-05-17T07:55:00Z,61.25,-149.83,4.7,0.6,20,3,,10.0,30.230314,1023.4,,,TRUE,,,,,,,FEW,2600,BKN,3100,,,,,VFR,,,,,,,,,,,,METAR,54.0
PACZ 170755Z AUTO 02006KT 10SM -RA OVC009 M01/M01 A2986 RMK AO2 RAB0648E0707B0733DZB0707E0733 SLP119 P0000 T10061010,PACZ,2023-05-17T07:55:00Z,61.78,-166.03,-0.6,-1.0,20,6,,10.0,29.861221,1011.9,,TRUE,TRUE,,,,,,-RA,OVC,900,,,,,,,IFR,,,,,,0.005,,,,,,METAR,129.0
OTBH 170755Z 05010KT 9999 CLR 39/02 A2974 Q1007 RMK AO2A SLPNO T03940021 RVRNO FZRANO $,OTBH,2023-05-17T07:55:00Z,25.12,51.32,39.4,2.1,50,10,,6.21,29.734253,,,,TRUE,TRUE,,,TRUE,,,CLR,,,,,,,,VFR,,,,,,,,,,,,METAR,40.0
OPFA 170755Z 18002KT 6000 FEW100 40/15 Q1006 NOSIG,OPFA,2023-05-17T07:55:00Z,31.37,73.0,40.0,15.0,180,2,,3.73,29.704725,,,,,,TRUE,,,,,FEW,10000,,,,,,,MVFR,,,,,,,,,,,,METAR,180.0
OKAS 170755Z AUTO 09005KT 9999 FEW350 36/01 A2981 RMK AO2 SLPNO T03560006 FZRANO $,OKAS,2023-05-17T07:55:00Z,29.35,47.52,35.6,0.6,90,5,,6.21,29.811024,,,TRUE,TRUE,TRUE,,,TRUE,,,FEW,35000,,,,,,,VFR,,,,,,,,,,,,METAR,144.0
OEPS 170755Z 15012G21KT 9999 CLR 37/05 A2993 RMK AO2A SLP114 WND DATA ESTMD T03690049,OEPS,2023-05-17T07:55:00Z,24.07,47.58,36.9,4.9,150,12,21,6.21,29.929134,1011.4,,,TRUE,,,,,,,CLR,,,,,,,,VFR,,,,,,,,,,,,METAR,503.0
LIVT 170755Z 07011KT 360V130 9999 BKN040 16/09 Q1010 RMK BKN BKN060 QUK 3 QUL 2 NE VIS MAR 10 KM VIS MIN 9999,LIVT,2023-05-17T07:55:00Z,45.68,13.75,16.0,9.0,70,11,,6.21,29.822834,,,,,,,,,,,BKN,4000,,,,,,,VFR,,,,,,,,,,,,METAR,20.0
LIVR 170755Z 36005KT 9999 SCT015 05/M03 Q1012 RMK OVC BKN060 MON CLD SCT VIS MIN 9999,LIVR,2023-05-17T07:55:00Z,46.28,11.78,5.0,-3.0,360,5,,6.21,29.88189,,,,,,,,,,,SCT,1500,,,,,,,VFR,,,,,,,,,,,,METAR,1997.0
LIVP 170755Z 36027KT 9999 SCT001 SCT020 01/M05 Q1011,LIVP,2023-05-17T07:55:00Z,46.15,11.03,1.0,-5.0,360,27,,6.21,29.852362,,,,,,,,,,,SCT,100,SCT,2000,,,,,VFR,,,,,,,,,,,,METAR,2099.0
LIVO 170755Z 00000KT 9999 FEW015 BKN040 10/07 Q1012,LIVO,2023-05-17T07:55:00Z,46.5,13.58,10.0,7.0,0,0,,6.21,29.88189,,,,,,,,,,,FEW,1500,BKN,4000,,,,,VFR,,,,,,,,,,,,METAR,782.0
LIVM 170755Z 05015KT 9999 -RA BKN015 16/14 Q1007 RMK OVC SCT070 QUK 5 QUL 4 E VIS MAR 10 KM VIS MIN 9999,LIVM,2023-05-17T07:55:00Z,44.45,12.3,16.0,14.0,50,15,,6.21,29.734253,,,,,,,,,,-RA,BKN,1500,,,,,,,MVFR,,,,,,,,,,,,METAR,6.0
LIVF 170755Z 08008KT 4000 RA BR FEW002 OVC005 11/11 Q1005,LIVF,2023-05-17T07:55:00Z,43.52,12.72,11.0,11.0,80,8,,2.49,29.675198,,,,,,,,,,RA BR,FEW,200,OVC,500,,,,,IFR,,,,,,,,,,,,METAR,549.0
LIVE 170755Z 03011G26KT 9999 FEW040 06/01 Q1014 RMK SCT SCT060 VIS MIN 9999,LIVE,2023-05-17T07:55:00Z,46.82,10.5,6.0,1.0,30,11,26,6.21,29.940945,,,,,,,,,,,FEW,4000,,,,,,,VFR,,,,,,,,,,,,METAR,1684.0
LIVD 170755Z VRB02KT 9999 BKN050 12/05 Q1015 RMK BKN VIS MIN 9999,LIVD,2023-05-17T07:55:00Z,46.72,12.22,12.0,5.0,0,2,,6.21,29.970472,,,,,,,,,,,BKN,5000,,,,,,,VFR,,,,,,,,,,,,METAR,1221.0
LIVC 170755Z AUTO 02012G23KT //// ///// Q////,LIVC,2023-05-17T07:55:00Z,44.2,10.68,,,20,12,23,,,,,TRUE,,,,,,,,,,,,,,,,,,,,,,,,,,,,METAR,2139.0
LIRX 170755Z 32015KT 9999 BKN005 12/11 Q1006 RMK OVC SCT060 VIS MIN 9999 VIS MAR 12KM,LIRX,2023-05-17T07:55:00Z,42.73,10.38,12.0,11.0,320,15,,6.21,29.704725,,,,,,,,,,,BKN,500,,,,,,,IFR,,,,,,,,,,,,METAR,397.0
LIRV 170755Z 25002KT 9999 BKN015 SCT033 14/12 Q1005 RMK OVC MON E SE CIME INC NC VIS MIN 9999 WIND THR04 /////KT WHT,LIRV,2023-05-17T07:55:00Z,42.42,12.07,14.0,12.0,250,2,,6.21,29.675198,,,,,,,,,,,BKN,1500,SCT,3300,,,,,MVFR,,,,,,,,,,,,METAR,294.0
LIRT 170755Z 21008KT 9999 BKN002 09/07 Q1007,LIRT,2023-05-17T07:55:00Z,41.03,15.22,9.0,7.0,210,8,,6.21,29.734253,,,,,,,,,,,BKN,200,,,,,,,LIFR,,,,,,,,,,,,METAR,1058.0
LIRS 170755Z 33006KT 9999 SCT016 BKN060 17/14 Q1006 RMK OVC VIS MIN 9999 WIND THR03 36006KT WIND THR21 34006KT BLU,LIRS,2023-05-17T07:55:00Z,42.75,11.07,17.0,14.0,330,6,,6.21,29.704725,,,,,,,,,,,SCT,1600,BKN,6000,,,,,VFR,,,,,,,,,,,,METAR,3.0
LIRM 170755Z 18010KT 6000 -RA FEW015 SCT020 BKN070 16/15 Q1006 RMK OVC VIS MIN 6000 WIND THR06 20008KT WHT,LIRM,2023-05-17T07:55:00Z,41.05,14.07,16.0,15.0,180,10,,3.73,29.704725,,,,,,,,,,-RA,FEW,1500,SCT,2000,BKN,7000,,,MVFR,,,0.8,,,,,,,,,SPECI,6.0
LIRL 170755Z VRB03KT 9999 SCT010 BKN030 17/15 Q1004 RMK OVC MON CIME INC NC VIS MIN 9999 WIND THR12 /////KT WIND THR30 VRB03KT BLU,LIRL,2023-05-17T07:55:00Z,41.53,12.9,17.0,15.0,0,3,,6.21,29.64567,,,,,,,,,,,SCT,1000,BKN,3000,,,,,MVFR,,,,,,,,,,,,METAR,23.0
LIRK 170755Z AUTO /////KT //// 05/05 Q1003,LIRK,2023-05-17T07:55:00Z,42.47,12.97,5.0,5.0,,,,,29.616142,,,TRUE,,,,,,,,,,,,,,,,,,,,,,,,,,,,METAR,1721.0
LIRH 170755Z 03002KT 4000 BR SCT005 BKN020 15/15 Q1004 RMK OVC MON GEN INC NC VIS MIN 4000 WIND THR16 00000KT GRN,LIRH,2023-05-17T07:55:00Z,41.65,13.3,15.0,15.0,30,2,,2.49,29.64567,,,,,,,,,,BR,SCT,500,BKN,2000,,,,,IFR,,,,,,,,,,,,METAR,183.0
LIRG 170755Z 30003KT 9999 FEW015 SCT040 15/12 Q1005 RMK OVC MON NE GEN INC NC VIS MIN 9999 BLU,LIRG,2023-05-17T07:55:00Z,42.0,12.73,15.0,12.0,300,3,,6.21,29.675198,,,,,,,,,,,FEW,1500,SCT,4000,,,,,VFR,,,,,,,,,,,,METAR,82.0
LIRE 170755Z 27004KT 9999 SCT007 BKN040 16/14 Q1004 RMK BKN VIS MIN 9999 WIND THR13 26005KT WIND THR31 /////KT BLU,LIRE,2023-05-17T07:55:00Z,41.65,12.43,16.0,14.0,270,4,,6.21,29.64567,,,,,,,,,,,SCT,700,BKN,4000,,,,,VFR,,,,,,,,,,,,METAR,16.0
LIQW 170755Z 32008KT 9999 SCT040 16/11 Q1008 RMK OVC BKN070 VIS MIN 9999 WIND THR14 /////KT BLU,LIQW,2023-05-17T07:55:00Z,44.08,9.98,16.0,11.0,320,8,,6.21,29.763779,,,,,,,,,,,SCT,4000,,,,,,,VFR,,,,,,,,,,,,METAR,6.0
LIQN 170755Z 34003KT 280V060 9999 BKN010 15/13 Q1006,LIQN,2023-05-17T07:55:00Z,42.42,12.83,15.0,13.0,340,3,,6.21,29.704725,,,,,,,,,,,BKN,1000,,,,,,,MVFR,,,,,,,,,,,,SPECI,387.0
LIQC 170755Z 25010KT 9999 SCT020 SCT025 16/14 Q1007 RMK BKN QUK 3 QUL 2 SW VIS MAR 20 KM VIS MIN 9999,LIQC,2023-05-17T07:55:00Z,40.55,14.2,16.0,14.0,250,10,,6.21,29.734253,,,,,,,,,,,SCT,2000,SCT,2500,,,,,VFR,,,,,,,,,,,,METAR,154.0
LIPS 170755Z 00000KT 9999 -RA SCT030 BKN070 15/13 Q1010 RMK OVC VIS MIN 9999 WIND THR26 00000KT WIND THR08 00000KT BLU,LIPS,2023-05-17T07:55:00Z,45.68,12.1,15.0,13.0,0,0,,6.21,29.822834,,,,,,,,,,-RA,SCT,3000,BKN,7000,,,,,VFR,,,,,,,,,,,,METAR,42.0
LIPL 170755Z 28004KT 8000 SCT050 BKN060 14/13 Q1009 RMK OVC VIS MIN 8000 WIND THR31 /////KT WIND THR13 28005KT BLU,LIPL,2023-05-17T07:55:00Z,45.42,10.27,14.0,13.0,280,4,,4.97,29.793306,,,,,,,,,,,SCT,5000,BKN,6000,,,,,MVFR,,,,,,,,,,,,METAR,96.0
LIPI 170755Z 17001KT 9999 -RA SCT030 BKN070 16/13 Q1010 RMK OVC VIS MIN 9999 WIND THR06 22001KT WIND THR24 16001KT BLU,LIPI,2023-05-17T07:55:00Z,45.97,13.05,16.0,13.0,170,1,,6.21,29.822834,,,,,,,,,,-RA,SCT,3000,BKN,7000,,,,,VFR,,,,,,,,,,,,METAR,49.0
LIPF 170755Z 30005KT 9999 -RA BKN025 BKN040 14/14 Q1009 RMK OVC VIS MIN 9999,LIPF,2023-05-17T07:55:00Z,44.82,11.62,14.0,14.0,300,5,,6.21,29.793306,,,,,,,,,,-RA,BKN,2500,BKN,4000,,,,,MVFR,,,,,,,,,,,,METAR,5.0
LIPC 170755Z 05013KT 9999 SCT010 BKN025 16/14 Q1009 RMK OVC VIS MIN 9999 WIND THR11 05013KT WIND THR29 05014KT BLU,LIPC,2023-05-17T07:55:00Z,44.22,12.3,16.0,14.0,50,13,,6.21,29.793306,,,,,,,,,,,SCT,1000,BKN,2500,,,,,MVFR,,,,,,,,,,,,SPECI,10.0
LIPA 170755Z 21005KT 9999 SCT070 BKN090 17/13 Q1010 RMK OVC VIS MIN 9999 WIND THR05 25005KT WIND THR23 24004KT A2984 BLU,LIPA,2023-05-17T07:55:00Z,46.02,12.58,17.0,13.0,210,5,,6.21,29.822834,,,,,,,,,,,SCT,7000,BKN,9000,,,,,VFR,,,,,,,,,,,,METAR,113.0
LIMV 170755Z /////KT 9999 SCT013 SCT020 13/06 Q1010,LIMV,2023-05-17T07:55:00Z,44.55,8.93,13.0,6.0,,,,6.21,29.822834,,,,,,,,,,,SCT,1300,SCT,2000,,,,,VFR,,,,,,,,,,,,METAR,474.0
LIMS 170755Z 22004KT 4000 -RA BR SCT050 BKN060 13/13 Q1011 RMK OVC VIS MIN 4000 WIND THR30 21004KT GRN,LIMS,2023-05-17T07:55:00Z,44.92,9.72,13.0,13.0,220,4,,2.49,29.852362,,,,,,,,,,-RA BR,SCT,5000,BKN,6000,,,,,IFR,,,-0.4,,,,,,,,,METAR,132.0
LIMN 170755Z 07003KT 010V120 9999 SCT040 14/13 Q1011 RMK OVC BKN070 VIS MIN 9999 BLU,LIMN,2023-05-17T07:55:00Z,45.52,8.67,14.0,13.0,70,3,,6.21,29.852362,,,,,,,,,,,SCT,4000,,,,,,,VFR,,,,,,,,,,,,METAR,168.0
LIMK 170755Z 33004KT 9999 BKN020 13/12 Q1011,LIMK,2023-05-17T07:55:00Z,45.02,7.72,13.0,12.0,330,4,,6.21,29.852362,,,,,,,,,,,BKN,2000,,,,,,,MVFR,,,,,,,,,,,,METAR,693.0
LIMH 170755Z AUTO /////KT //// ///// Q////,LIMH,2023-05-17T07:55:00Z,45.93,7.7,,,,,,,,,,TRUE,,,,,,,,,,,,,,,,,,,,,,,,,,,,METAR,3473.0
LIED 170755Z 26008KT 9999 FEW025 SCT035 20/13 Q1009 RMK BKN VIS MIN 9999 WIND THR35 /////KT WIND THR17 28009KT BLU,LIED,2023-05-17T07:55:00Z,39.35,8.97,20.0,13.0,260,8,,6.21,29.793306,,,,,,,,,,,FEW,2500,SCT,3500,,,,,VFR,,,,,,,,,,,,METAR,26.0
LIEB 170755Z 30016KT 9999 FEW020 20/09 Q1007 RMK SCT SCT200 QUK 2 QUL 0 VIS MAR 30 KM MON LIB VIS MIN 9999,LIEB,2023-05-17T07:55:00Z,39.93,9.72,20.0,9.0,300,16,,6.21,29.734253,,,,,,,,,,,FEW,2000,,,,,,,VFR,,,,,,,,,,,,METAR,126.0
LICZ 170755Z 27013KT 9999 SCT032 19/11 Q1009 RMK SCT VIS MIN 9999 WIND THR28 27011KT WIND THR10 26011KT A2981 BLU,LICZ,2023-05-17T07:55:00Z,37.4,14.92,19.0,11.0,270,13,,6.21,29.793306,,,,,,,,,,,SCT,3200,,,,,,,VFR,,,,,,,,,,,,METAR,22.0
LICT 170755Z 28017KT 9999 FEW025 SCT030 18/13 Q1011 RMK BKN VIS MIN 9999 WIND THR13 29019KT BLU,LICT,2023-05-17T07:55:00Z,37.92,12.5,18.0,13.0,280,17,,6.21,29.852362,,,,,,,,,,,FEW,2500,SCT,3000,,,,,VFR,,,,,,,,,,,,METAR,4.0
LICF 170755Z 02003KT 9999 FEW040 19/11 Q1009 RMK FEW QUK 2 QUL 0 VIS MAR 20 KM MON LIB NC VIS MIN 9999,LICF,2023-05-17T07:55:00Z,38.2,15.55,19.0,11.0,20,3,,6.21,29.793306,,,,,,,,,,,FEW,4000,,,,,,,VFR,,,,,,,,,,,,METAR,66.0
LIBY 170755Z ///06KT 9999 SCT018 17/14 Q1008 RMK BKN BKN080 QUK 2 QUL 1 S VIS MAR 15 KM VIS MIN 9999,LIBY,2023-05-17T07:55:00Z,39.82,18.35,17.0,14.0,,,,6.21,29.763779,,,,,,,,,,,SCT,1800,,,,,,,VFR,,,,,,,,,,,,METAR,105.0
LIBV 170755Z 15010KT 8000 SCT010 SCT050 16/14 Q1007 RMK BKN BKN110 VIS MIN 8000 WIND THR32 17009KT WIND THR14 16010KT BLU,LIBV,2023-05-17T07:55:00Z,40.77,16.93,16.0,14.0,150,10,,4.97,29.734253,,,,,,,,,,,SCT,1000,SCT,5000,,,,,MVFR,,,,,,,,,,,,METAR,344.0
LIBQ 170755Z /////KT 0000 RA FG VV/// 06/06 Q1011,LIBQ,2023-05-17T07:55:00Z,39.32,16.38,6.0,6.0,,,,0.0,29.852362,,,,,,,,,,RA FG,OVX,0,,,,,,,LIFR,,,,,,,,,,,,METAR,1660.0
LIBN 170755Z 17006KT 9999 SCT025 19/16 Q1008 RMK BKN BKN070 VIS MIN 9999 WIND THR14 18006KT WIND THR32 18005KT BLU,LIBN,2023-05-17T07:55:00Z,40.23,18.13,19.0,16.0,170,6,,6.21,29.763779,,,,,,,,,,,SCT,2500,,,,,,,VFR,,,,,,,,,,,,METAR,46.0
LIBA 170755Z 14009KT 080V170 9999 FEW025 SCT060 19/16 Q1006 RMK BKN BKN100 VIS MIN 9999 WIND THR11 12006KT WIND THR29 /////KT BLU,LIBA,2023-05-17T07:55:00Z,41.53,15.72,19.0,16.0,140,9,,6.21,29.704725,,,,,,,,,,,FEW,2500,SCT,6000,,,,,VFR,,,,,,,,,,,,METAR,55.0
KXNO 170755Z AUTO 21005KT 10SM FEW170 21/21 A2973 RMK AO2 SLP067 T02100210 $,KXNO,2023-05-17T07:55:00Z,33.62,-81.07,21.0,21.0,210,5,,10.0,29.731298,1006.7,,TRUE,TRUE,TRUE,,,,,,FEW,17000,,,,,,,VFR,,,,,,,,,,,,METAR,94.0
KXMR 170755Z AUTO 22004KT 10SM BKN085 23/21 A2984 RMK AO2 SLP108 T02340209 $,KXMR,2023-05-17T07:55:00Z,28.47,-80.57,23.4,20.9,220,4,,10.0,29.840551,1010.8,,TRUE,TRUE,TRUE,,,,,,BKN,8500,,,,,,,VFR,,,,,,,,,,,,METAR,5.0
KWRI 170755Z AUTO 31005KT 10SM CLR 17/12 A2956 RMK AO2 SLP009 T01740116,KWRI,2023-05-17T07:55:00Z,40.02,-74.58,17.4,11.6,310,5,,10.0,29.56004,1000.9,,TRUE,TRUE,,,,,,,CLR,,,,,,,,VFR,,,,,,,,,,,,METAR,35.0
KWRB 170755Z AUTO 00000KT 10SM CLR 19/19 A2981 RMK AO2 SLP095 T01900190 $,KWRB,2023-05-17T07:55:00Z,32.63,-83.58,19.0,19.0,0,0,,10.0,29.811024,1009.5,,TRUE,TRUE,TRUE,,,,,,CLR,,,,,,,,VFR,,,,,,,,,,,,METAR,82.0
KVPS 170755Z AUTO 12003KT 10SM CLR 23/21 A2981 RMK AO2 SLP101 T02260212 $,KVPS,2023-05-17T07:55:00Z,30.47,-86.52,22.6,21.2,120,3,,10.0,29.811024,1010.1,,TRUE,TRUE,TRUE,,,,,,CLR,,,,,,,,VFR,,,,,,,,,,,,METAR,21.0
KVOK 170755Z AUTO 07008KT 10SM CLR 08/02 A2999 RMK AO2 SLP158 T00800022,KVOK,2023-05-17T07:55:00Z,43.93,-90.27,8.0,2.2,70,8,,10.0,29.991142,1015.8,,TRUE,TRUE,,,,,,,CLR,,,,,,,,VFR,,,,,,,,,,,,METAR,278.0
KVBG 170755Z AUTO 36003KT 1/2SM R30/2800V3500FT FG VV001 12/12 A3000 RMK AO2 SLP162 T01150115 401450100 TSNO $,KVBG,2023-05-17T07:55:00Z,34.73,-120.58,11.5,11.5,360,3,,0.5,30.0,1016.2,,TRUE,TRUE,TRUE,,TRUE,,,FG,OVX,0,,,,,,,LIFR,,,,14.5,10.0,,,,,,100,METAR,96.0
KVAD 170755Z AUTO 27003KT 10SM CLR 21/19 A2982 RMK AO2 SLP098 T02070192 $,KVAD,2023-05-17T07:55:00Z,30.97,-83.2,20.7,19.2,270,3,,10.0,29.819881,1009.8,,TRUE,TRUE,TRUE,,,,,,CLR,,,,,,,,VFR,,,,,,,,,,,,METAR,70.0
KTTS 170755Z AUTO 22003KT 10SM CLR 23/21 A2985 RMK AO2 SLP112 T02290210 $,KTTS,2023-05-17T07:55:00Z,28.58,-80.67,22.9,21.0,220,3,,10.0,29.84941,1011.2,,TRUE,TRUE,TRUE,,,,,,CLR,,,,,,,,VFR,,,,,,,,,,,,METAR,1.0
KTIK 170755Z AUTO 00000KT 10SM CLR 15/12 A2995 RMK AO2 SLP143 T01470124 $,KTIK,2023-05-17T07:55:00Z,35.4,-97.38,14.7,12.4,0,0,,10.0,29.949802,1014.3,,TRUE,TRUE,TRUE,,,,,,CLR,,,,,,,,VFR,,,,,,,,,,,,METAR,387.0
KTFP 170755Z AUTO 00000KT 7SM CLR 21/21 A2990 RMK AO2 T02140205,KTFP,2023-05-17T07:55:00Z,27.92,-97.22,21.4,20.5,0,0,,7.0,29.899607,,,TRUE,TRUE,,,,,,,CLR,,,,,,,,VFR,,,,,,,,,,,,SPECI,5.0
KTDR 170755Z AUTO 22005KT 10SM FEW230 24/21 A2980 RMK AO2 LTG DSNT NW SLP095 T02430214 $,KTDR,2023-05-17T07:55:00Z,30.05,-85.52,24.3,21.4,220,5,,10.0,29.799213,1009.5,,TRUE,TRUE,TRUE,,,,,,FEW,23000,,,,,,,VFR,,,,,,,,,,,,METAR,4.0
KTCM 170755Z AUTO 18004KT 10SM CLR 14/13 A3005 RMK AO2 SLP179 T01440133 402560134,KTCM,2023-05-17T07:55:00Z,47.13,-122.47,14.4,13.3,180,4,,10.0,30.050198,1017.9,,TRUE,TRUE,,,,,,,CLR,,,,,,,,VFR,,,,25.6,13.4,,,,,,,SPECI,87.0
KTBN 170755Z AUTO 00000KT 10SM BKN050 15/15 A2991 RMK AO2 SLP127 T01510151 $,KTBN,2023-05-17T07:55:00Z,37.73,-92.13,15.1,15.1,0,0,,10.0,29.911417,1012.7,,TRUE,TRUE,TRUE,,,,,,BKN,5000,,,,,,,VFR,,,,,,,,,,,,METAR,349.0
KT70 170755Z AUTO 00000KT 10SM CLR 19/18 A2995 RMK AO2 SLP131 T01850178 $,KT70,2023-05-17T07:55:00Z,29.12,-100.48,18.5,17.8,0,0,,10.0,29.949802,1013.1,,TRUE,TRUE,TRUE,,,,,,CLR,,,,,,,,VFR,,,,,,,,,,,,METAR,296.0
KSVN 170755Z AUTO 26006KT 10SM CLR 22/19 A2977 RMK AO2 SLP084 T02190194 $,KSVN,2023-05-17T07:55:00Z,32.02,-81.12,21.9,19.4,260,6,,10.0,29.769686,1008.4,,TRUE,TRUE,TRUE,,,,,,CLR,,,,,,,,VFR,,,,,,,,,,,,METAR,13.0
KSUU 170755Z AUTO 23014KT 10SM CLR 14/10 A2990 RMK AO2 SLP131 T01430097 403290114,KSUU,2023-05-17T07:55:00Z,38.27,-121.93,14.3,9.7,230,14,,10.0,29.899607,1013.1,,TRUE,TRUE,,,,,,,CLR,,,,,,,,VFR,,,,32.9,11.4,,,,,,,SPECI,9.0
KSSC 170755Z AUTO 20006KT 10SM FEW200 22/20 A2971 RMK AO2 SLP060 T02220199 $,KSSC,2023-05-17T07:55:00Z,33.97,-80.47,22.2,19.9,200,6,,10.0,29.71063,1006.0,,TRUE,TRUE,TRUE,,,,,,FEW,20000,,,,,,,VFR,,,,,,,,,,,,METAR,71.0
KSLI 170755Z AUTO 00000KT 10SM CLR 13/12 A2995 RMK AO2 SLP145 T01260115 402170122,KSLI,2023-05-17T07:55:00Z,33.78,-118.03,12.6,11.5,0,0,,10.0,29.949802,1014.5,,TRUE,TRUE,,,,,,,CLR,,,,,,,,VFR,,,,21.7,12.2,,,,,,,SPECI,8.0
KSKF 170755Z AUTO 05004KT 10SM OVC160 19/18 A2992 RMK AO2 SLP127 T01890182 $,KSKF,2023-05-17T07:55:00Z,29.38,-98.57,18.9,18.2,50,4,,10.0,29.920275,1012.7,,TRUE,TRUE,TRUE,,,,,,OVC,16000,,,,,,,VFR,,,,,,,,,,,,METAR,214.0
KSKA 170755Z 00000KT 10SM CLR 13/11 A3005 RMK AO2A SLP166 T01300114 402310126,KSKA,2023-05-17T07:55:00Z,47.62,-117.67,13.0,11.4,0,0,,10.0,30.050198,1016.6,,,TRUE,,,,,,,CLR,,,,,,,,VFR,,,,23.1,12.6,,,,,,,SPECI,754.0
KSHM 170755Z AUTO 35003KT 10SM OVC085 14/07 A3015 RMK AO2 RAB35E50 SLP139 P0000 T01370072 402290063 $,KSHM,2023-05-17T07:55:00Z,38.8,-104.52,13.7,7.2,350,3,,10.0,30.15059,1013.9,,TRUE,TRUE,TRUE,,,,,,OVC,8500,,,,,,,VFR,,,,22.9,6.3,0.005,,,,,,SPECI,1900.0
KSEQ 170755Z AUTO 27003KT 10SM OVC140 19/18 A2992 RMK AO2 SLP128 T01860184 $,KSEQ,2023-05-17T07:55:00Z,29.57,-97.9,18.6,18.4,270,3,,10.0,29.920275,1012.8,,TRUE,TRUE,TRUE,,,,,,OVC,14000,,,,,,,VFR,,,,,,,,,,,,METAR,160.0
KSCK 170755Z AUTO 07003KT 10SM CLR 18/12 A2992 RMK AO2 SLP131 T01830122 403440128,KSCK,2023-05-17T07:55:00Z,37.88,-121.22,18.3,12.2,70,3,,10.0,29.920275,1013.1,,TRUE,TRUE,,,,,,,CLR,,,,,,,,VFR,,,,34.4,12.8,,,,,,,METAR,8.0
KRYM 170755Z AUTO 10005KT 10SM CLR 10/04 A2997 RMK AO2 SLP151 T00990043 $,KRYM,2023-05-17T07:55:00Z,46.08,-94.37,9.9,4.3,100,5,,10.0,29.970472,1015.1,,TRUE,TRUE,TRUE,,,,,,CLR,,,,,,,,VFR,,,,,,,,,,,,METAR,344.0
KRNO 170755Z 26006KT 10SM CLR 17/01 A3014 RMK AO2 SLP154 T01670006 402940094,KRNO,2023-05-17T07:55:00Z,39.5,-119.77,16.7,0.6,260,6,,10.0,30.138779,1015.4,,,TRUE,,,,,,,CLR,,,,,,,,VFR,,,,29.4,9.4,,,,,,,METAR,1344.0
KRND 170755Z AUTO 19005KT 10SM OVC150 19/19 A2991 RMK AO2 SLP121 T01910189 FZRANO TSNO $,KRND,2023-05-17T07:55:00Z,29.53,-98.27,19.1,18.9,190,5,,10.0,29.911417,1012.1,,TRUE,TRUE,TRUE,,TRUE,TRUE,,,OVC,15000,,,,,,,VFR,,,,,,,,,,,,METAR,224.0
KRIV 170755Z AUTO 00000KT 10SM CLR 15/12 A2997 RMK AO2 SLP138 T01520121 403020129,KRIV,2023-05-17T07:55:00Z,33.87,-117.23,15.2,12.1,0,0,,10.0,29.970472,1013.8,,TRUE,TRUE,,,,,,,CLR,,,,,,,,VFR,,,,30.2,12.9,,,,,,,SPECI,454.0
KRDR 170755Z AUTO 18006KT 10SM CLR 12/04 A2987 RMK AO2 SLP118 T01180036 $,KRDR,2023-05-17T07:55:00Z,47.93,-97.4,11.8,3.6,180,6,,10.0,29.870079,1011.8,,TRUE,TRUE,TRUE,,,,,,CLR,,,,,,,,VFR,,,,,,,,,,,,METAR,276.0
KRCA 170755Z AUTO 19008KT 10SM CLR 14/08 A2996 RMK AO2 SLP131 T01410078 $,KRCA,2023-05-17T07:55:00Z,44.15,-103.12,14.1,7.8,190,8,,10.0,29.958662,1013.1,,TRUE,TRUE,TRUE,,,,,,CLR,,,,,,,,VFR,,,,,,,,,,,,METAR,993.0
KQVF 170755Z AUTO 13010G15KT 9999 FEW023 30/25 A3000 RMK AO2 SHRAE09 SLP161 WND DATA ESTMD T02980249,KQVF,2023-05-17T07:55:00Z,,,29.8,24.9,130,10,15,6.21,30.0,1016.1,,TRUE,TRUE,,,,,,,FEW,2300,,,,,,,VFR,,,,,,,,,,,,METAR,
KQOA 170755Z AUTO 00000KT 9999 CLR 22/22 A2995 RMK AO2 SLP095 T02180218 PNO FZRANO TSNO $,KQOA,2023-05-17T07:55:00Z,,,21.8,21.8,0,0,,6.21,29.949802,1009.5,,TRUE,TRUE,TRUE,,TRUE,TRUE,,,CLR,,,,,,,,VFR,,,,,,,,,,,,METAR,
KQN3 170755Z 23009KT 9999 CLR 33/21 A2989 RMK AO2A SLP101 T03340213,KQN3,2023-05-17T07:55:00Z,,,33.4,21.3,230,9,,6.21,29.890747,1010.1,,,TRUE,,,,,,,CLR,,,,,,,,VFR,,,,,,,,,,,,METAR,
KQHY 170755Z AUTO 17003KT 10SM OVC230 25/22 A2982 RMK AO2 LTG DSNT SW AND NW SLP104 T02470222,KQHY,2023-05-17T07:55:00Z,,,24.7,22.2,170,3,,10.0,29.819881,1010.4,,TRUE,TRUE,,,,,,,OVC,23000,,,,,,,VFR,,,,,,,,,,,,METAR,
KQDG 170755Z AUTO 08004KT 9999 CLR 15/10 A2977 RMK AO2 SLP083 T01520102 $,KQDG,2023-05-17T07:55:00Z,,,15.2,10.2,80,4,,6.21,29.769686,1008.3,,TRUE,TRUE,TRUE,,,,,,CLR,,,,,,,,VFR,,,,,,,,,,,,METAR,
KQD3 170755Z AUTO 02007G10KT 350V060 9999 FEW140 36/25 A2978 RMK AO2 SLP069 WND DATA ESTMD T03630251,KQD3,2023-05-17T07:55:00Z,,,36.3,25.1,20,7,10,6.21,29.778543,1006.9,,TRUE,TRUE,,,,,,,FEW,14000,,,,,,,VFR,,,,,,,,,,,,METAR,
KQAZ 170755Z AUTO 00000KT 5000 HZ CLR 38/02 A2987 RMK AO2 SLP103 WND DATA ESTMD T03780024,KQAZ,2023-05-17T07:55:00Z,,,37.8,2.4,0,0,,3.11,29.870079,1010.3,,TRUE,TRUE,,,,,,HZ,CLR,,,,,,,,MVFR,,,,,,,,,,,,METAR,
KPSM 170755Z 30011KT 10SM OVC038 11/03 A2958 RMK AO2A SLP019 T01050033,KPSM,2023-05-17T07:55:00Z,43.08,-70.82,10.5,3.3,300,11,,10.0,29.58071,1001.9,,,TRUE,,,,,,,OVC,3800,,,,,,,VFR,,,,,,,,,,,,METAR,34.0
KPOB 170755Z AUTO 21007KT 10SM FEW110 SCT150 OVC190 20/20 A2969 RMK AO2 SLP055 T02010199 $,KPOB,2023-05-17T07:55:00Z,35.17,-79.02,20.1,19.9,210,7,,10.0,29.68996,1005.5,,TRUE,TRUE,TRUE,,,,,,FEW,11000,SCT,15000,OVC,19000,,,VFR,,,,,,,,,,,,METAR,57.0
KPHP 170755Z AUTO 31003KT 10SM CLR 12/06 A2997 RMK AO2 SLP137 T01170061,KPHP,2023-05-17T07:55:00Z,44.05,-101.6,11.7,6.1,310,3,,10.0,29.970472,1013.7,,TRUE,TRUE,,,,,,,CLR,,,,,,,,VFR,,,,,,,,,,,,METAR,673.0
KPAM 170755Z 22006KT 10SM CLR 24/21 A2983 RMK AO2A SLP104 T02370206 $,KPAM,2023-05-17T07:55:00Z,30.07,-85.57,23.7,20.6,220,6,,10.0,29.828741,1010.4,,,TRUE,TRUE,,,,,,CLR,,,,,,,,VFR,,,,,,,,,,,,METAR,4.0
KP58 170755Z AUTO 06018KT 06/02 A2995 RMK AO1 SLP144 T00610022,KP58,2023-05-17T07:55:00Z,44.02,-82.8,6.1,2.2,60,18,,,29.949802,1014.4,,TRUE,TRUE,,,,,,,,,,,,,,,,,,,,,,,,,,,SPECI,180.0
KOFF 170755Z AUTO 30005KT 10SM CLR 13/07 A2996 RMK AO2 SLP146 T01260068 PWINO PNO FZRANO TSNO CHINO RWY31 $,KOFF,2023-05-17T07:55:00Z,41.12,-95.92,12.6,6.8,300,5,,10.0,29.958662,1014.6,,TRUE,TRUE,TRUE,,TRUE,TRUE,TRUE,,CLR,,,,,,,,VFR,,,,,,,,,,,,METAR,308.0
KNKX 170755Z 28003KT 10SM OVC006 14/13 A2997 RMK AO2 SLP144 T01440133 402220122,KNKX,2023-05-17T07:55:00Z,32.87,-117.13,14.4,13.3,280,3,,10.0,29.970472,1014.4,,,TRUE,,,,,,,OVC,600,,,,,,,IFR,,,,22.2,12.2,,,,,,,METAR,138.0
KNBG 170755Z AUTO 22004KT 10SM CLR 23/21 A2985 RMK AO2 SLP109 T02280206 $,KNBG,2023-05-17T07:55:00Z,29.83,-90.02,22.8,20.6,220,4,,10.0,29.84941,1010.9,,TRUE,TRUE,TRUE,,,,,,CLR,,,,,,,,VFR,,,,,,,,,,,,METAR,0.0
KMXF 170755Z AUTO 20004KT 10SM SCT160 OVC190 20/18 A2981 RMK AO2 SLP096 T02010179,KMXF,2023-05-17T07:55:00Z,32.38,-86.37,20.1,17.9,200,4,,10.0,29.811024,1009.6,,TRUE,TRUE,,,,,,,SCT,16000,OVC,19000,,,,,VFR,,,,,,,,,,,,METAR,47.0
KMUO 170755Z AUTO 32007KT 10SM FEW130 14/08 A3004 RMK AO2 SLP154 T01420079 $,KMUO,2023-05-17T07:55:00Z,43.03,-115.87,14.2,7.9,320,7,,10.0,30.041338,1015.4,,TRUE,TRUE,TRUE,,,,,,FEW,13000,,,,,,,VFR,,,,,,,,,,,,METAR,915.0
KMUI 170755Z AUTO 27012G17KT 10SM CLR 18/08 A2961 RMK AO2 SLP027 T01770083 TSNO $,KMUI,2023-05-17T07:55:00Z,40.43,-76.57,17.7,8.3,270,12,17,10.0,29.610237,1002.7,,TRUE,TRUE,TRUE,,TRUE,,,,CLR,,,,,,,,VFR,,,,,,,,,,,,SPECI,146.0
KMTC 170755Z AUTO 34006KT 10SM CLR 04/01 A2989 RMK AO2 SLP126 T00360010 $,KMTC,2023-05-17T07:55:00Z,42.62,-82.83,3.6,1.0,340,6,,10.0,29.890747,1012.6,,TRUE,TRUE,TRUE,,,,,,CLR,,,,,,,,VFR,,,,,,,,,,,,SPECI,177.0
KMMT 170755Z AUTO 26003KT 10SM FEW140 22/20 A2971 RMK AO2 SLP061 T02190203 $,KMMT,2023-05-17T07:55:00Z,33.92,-80.8,21.9,20.3,260,3,,10.0,29.71063,1006.1,,TRUE,TRUE,TRUE,,,,,,FEW,14000,,,,,,,VFR,,,,,,,,,,,,METAR,76.0
KMKG 170755Z AUTO 02007KT 10SM CLR 08/01 A2996 RMK AO2 SLP145 T00830011,KMKG,2023-05-17T07:55:00Z,43.17,-86.23,8.3,1.1,20,7,,10.0,29.958662,1014.5,,TRUE,TRUE,,,,,,,CLR,,,,,,,,VFR,,,,,,,,,,,,METAR,190.0
KMIB 170755Z AUTO 23014KT 10SM CLR 15/07 A2980 RMK AO2 SLP090 T01480069 $,KMIB,2023-05-17T07:55:00Z,48.42,-101.35,14.8,6.9,230,14,,10.0,29.799213,1009.0,,TRUE,TRUE,TRUE,,,,,,CLR,,,,,,,,VFR,,,,,,,,,,,,SPECI,505.0
KMGE 170755Z AUTO 25006KT 10SM FEW110 19/18 A2981 RMK AO2 SLP086 T01890177 $,KMGE,2023-05-17T07:55:00Z,33.92,-84.52,18.9,17.7,250,6,,10.0,29.811024,1008.6,,TRUE,TRUE,TRUE,,,,,,FEW,11000,,,,,,,VFR,,,,,,,,,,,,METAR,309.0
KMCF 170755Z AUTO 00000KT 10SM SCT018 24/22 A2984 RMK AO2 SLP107 T02370216 FZRANO $,KMCF,2023-05-17T07:55:00Z,27.85,-82.52,23.7,21.6,0,0,,10.0,29.840551,1010.7,,TRUE,TRUE,TRUE,,,TRUE,,,SCT,1800,,,,,,,VFR,,,,,,,,,,,,METAR,3.0
KLUF 170755Z AUTO 33003KT 10SM OVC150 28/11 A2988 RMK AO2 SLP102 T02840110 $,KLUF,2023-05-17T07:55:00Z,33.53,-112.37,28.4,11.0,330,3,,10.0,29.878937,1010.2,,TRUE,TRUE,TRUE,,,,,,OVC,15000,,,,,,,VFR,,,,,,,,,,,,METAR,333.0
KLTS 170755Z AUTO 08007KT 10SM CLR 15/14 A2995 RMK AO2 SLP131 T01500139 $,KLTS,2023-05-17T07:55:00Z,34.67,-99.27,15.0,13.9,80,7,,10.0,29.949802,1013.1,,TRUE,TRUE,TRUE,,,,,,CLR,,,,,,,,VFR,,,,,,,,,,,,METAR,416.0
KLSV 170755Z AUTO 00000KT 10SM CLR 23/06 A2994 RMK AO2 SLP114 T02290058 403790229 $,KLSV,2023-05-17T07:55:00Z,36.23,-115.05,22.9,5.8,0,0,,10.0,29.940945,1011.4,,TRUE,TRUE,TRUE,,,,,,CLR,,,,,,,,VFR,,,,37.9,22.9,,,,,,,SPECI,563.0
KLRF 170755Z AUTO 07008KT 10SM BKN017 BKN024 OVC040 21/19 A2985 RMK AO2 DZB10E25RAB25E43DZB43E49 CIG 017V025 BKN017 V SCT SLP108 P0001 T02050186 $,KLRF,2023-05-17T07:55:00Z,34.92,-92.12,20.5,18.6,70,8,,10.0,29.84941,1010.8,,TRUE,TRUE,TRUE,,,,,,BKN,1700,BKN,2400,OVC,4000,,,MVFR,,,,,,0.01,,,,,,METAR,85.0
KLLJ 170755Z AUTO 00000KT 10SM CLR 09/05 A3016 RMK AO2 SLP171 T00890050,KLLJ,2023-05-17T07:55:00Z,44.52,-114.22,8.9,5.0,0,0,,10.0,30.159449,1017.1,,TRUE,TRUE,,,,,,,CLR,,,,,,,,VFR,,,,,,,,,,,,METAR,1535.0
KLIC 170755Z AUTO 29003KT 10SM FEW085 12/07 A3013 RMK AO2 SLP139 T01170072,KLIC,2023-05-17T07:55:00Z,39.27,-103.67,11.7,7.2,290,3,,10.0,30.129921,1013.9,,TRUE,TRUE,,,,,,,FEW,8500,,,,,,,VFR,,,,,,,,,,,,METAR,1635.0
KLHW 170755Z AUTO 22006KT 10SM FEW140 22/20 A2977 RMK AO2 SLP084 T02180202 $,KLHW,2023-05-17T07:55:00Z,31.88,-81.57,21.8,20.2,220,6,,10.0,29.769686,1008.4,,TRUE,TRUE,TRUE,,,,,,FEW,14000,,,,,,,VFR,,,,,,,,,,,,METAR,14.0
KLGF 170755Z AUTO 00000KT M M BKN160 29/01 A2984 RMK AO2 SLP101 T02880005 RVRNO PWINO TSNO $,KLGF,2023-05-17T07:55:00Z,32.87,-114.4,28.8,0.5,0,0,,,29.840551,1010.1,,TRUE,TRUE,TRUE,,TRUE,,TRUE,,BKN,16000,,,,,,,,,,,,,,,,,,,METAR,118.0
KLCK 170755Z AUTO 33005KT 10SM CLR 12/09 A2981 RMK AO2 T01190086,KLCK,2023-05-17T07:55:00Z,39.82,-82.92,11.9,8.6,330,5,,10.0,29.811024,,,TRUE,TRUE,,,,,,,CLR,,,,,,,,VFR,,,,,,,,,,,,METAR,225.0
KIRK 170755Z AUTO 30006KT 10SM CLR 13/10 A2991 RMK AO2 SLP127 T01330100,KIRK,2023-05-17T07:55:00Z,40.1,-92.55,13.3,10.0,300,6,,10.0,29.911417,1012.7,,TRUE,TRUE,,,,,,,CLR,,,,,,,,VFR,,,,,,,,,,,,METAR,292.0
KINS 170755Z AUTO 02004KT 10SM OVC120 23/05 A3002 RMK AO2 SLP120 T02290049 403100162 $,KINS,2023-05-17T07:55:00Z,36.58,-115.68,22.9,4.9,20,4,,10.0,30.02067,1012.0,,TRUE,TRUE,TRUE,,,,,,OVC,12000,,,,,,,VFR,,,,31.0,16.2,,,,,,,METAR,954.0
KIAB 170755Z AUTO 00000KT 10SM CLR 15/13 A2996 RMK AO2 SLP143 T01500130 $,KIAB,2023-05-17T07:55:00Z,37.62,-97.27,15.0,13.0,0,0,,10.0,29.958662,1014.3,,TRUE,TRUE,TRUE,,,,,,CLR,,,,,,,,VFR,,,,,,,,,,,,METAR,413.0
KHUA 170755Z AUTO 00000KT 9SM FEW016 OVC020 19/19 A2983 RMK AO2 RAE07 SLP096 P0001 T01870185 $,KHUA,2023-05-17T07:55:00Z,34.68,-86.68,18.7,18.5,0,0,,9.0,29.828741,1009.6,,TRUE,TRUE,TRUE,,,,,,FEW,1600,OVC,2000,,,,,MVFR,,,,,,0.01,,,,,,METAR,200.0
KHST 170755Z AUTO 22003KT 10SM CLR 23/22 A2990 RMK AO2 LTG DSNT E AND S-SW AND NW SLP128 T02290219,KHST,2023-05-17T07:55:00Z,25.48,-80.37,22.9,21.9,220,3,,10.0,29.899607,1012.8,,TRUE,TRUE,,,,,,,CLR,,,,,,,,VFR,,,,,,,,,,,,METAR,1.0
KHRT 170755Z 19005KT 10SM SCT180 24/21 A2981 RMK SLP096 60000 T02380209 57027 $,KHRT,2023-05-17T07:55:00Z,30.42,-86.68,23.8,20.9,190,5,,10.0,29.811024,1009.6,,,,TRUE,,,,,,SCT,18000,,,,,,,VFR,-2.7,,,,,,,,,,,METAR,10.0
KHON 170755Z AUTO 01003KT 10SM CLR 12/08 A2994 RMK AO2 SLP134 T01220078 $,KHON,2023-05-17T07:55:00Z,44.38,-98.23,12.2,7.8,10,3,,10.0,29.940945,1013.4,,TRUE,TRUE,TRUE,,,,,,CLR,,,,,,,,VFR,,,,,,,,,,,,METAR,391.0
KHMN 170755Z AUTO 00000KT 10SM BKN130 OVC150 19/07 A3009 RMK AO2 SLP125 T01890067 $,KHMN,2023-05-17T07:55:00Z,32.85,-106.1,18.9,6.7,0,0,,10.0,30.088583,1012.5,,TRUE,TRUE,TRUE,,,,,,BKN,13000,OVC,15000,,,,,VFR,,,,,,,,,,,,METAR,1240.0
KHLR 170755Z AUTO 30004KT 10SM CLR 19/17 A2994 RMK AO2 SLP130 T01850173,KHLR,2023-05-17T07:55:00Z,31.13,-97.72,18.5,17.3,300,4,,10.0,29.940945,1013.0,,TRUE,TRUE,,,,,,,CLR,,,,,,,,VFR,,,,,,,,,,,,METAR,271.0
KHIF 170755Z AUTO 12008KT 10SM CLR 15/04 A3011 RMK AO2 SLP145 T01490043,KHIF,2023-05-17T07:55:00Z,41.12,-111.97,14.9,4.3,120,8,,10.0,30.109253,1014.5,,TRUE,TRUE,,,,,,,CLR,,,,,,,,VFR,,,,,,,,,,,,SPECI,1461.0
KHFF 170755Z AUTO 21003KT 10SM SCT130 BKN180 18/18 A2970 RMK AO2 LTG DSNT W SLP057 T01840182 $,KHFF,2023-05-17T07:55:00Z,35.03,-79.5,18.4,18.2,210,3,,10.0,29.698818,1005.7,,TRUE,TRUE,TRUE,,,,,,SCT,13000,BKN,18000,,,,,VFR,,,,,,,,,,,,METAR,100.0
KGXF 170755Z AUTO 14011KT 10SM CLR 28/11 A2988 RMK AO2 SLP105 T02830109 FZRANO $,KGXF,2023-05-17T07:55:00Z,32.88,-112.72,28.3,10.9,140,11,,10.0,29.878937,1010.5,,TRUE,TRUE,TRUE,,,TRUE,,,CLR,,,,,,,,VFR,,,,,,,,,,,,SPECI,261.0
KGXA 170755Z AUTO 25005KT 10SM CLR 17/00 A3001 RMK AO2 SLP131 WND DATA ESTMD T01670004 403380153,KGXA,2023-05-17T07:55:00Z,34.57,-117.67,16.7,0.4,250,5,,10.0,30.008858,1013.1,,TRUE,TRUE,,,,,,,CLR,,,,,,,,VFR,,,,33.8,15.3,,,,,,,METAR,927.0
KGUS 170755Z AUTO 33004KT 10SM OVC090 13/07 A2984 RMK AO2 SLP106 T01250072 TSNO $,KGUS,2023-05-17T07:55:00Z,40.63,-86.15,12.5,7.2,330,4,,10.0,29.840551,1010.6,,TRUE,TRUE,TRUE,,TRUE,,,,OVC,9000,,,,,,,VFR,,,,,,,,,,,,SPECI,245.0
KGUR 170755Z AUTO 00000KT 10SM CLR 11/10 A3005 RMK AO2 SLP164 T01050099,KGUR,2023-05-17T07:55:00Z,42.25,-104.72,10.5,9.9,0,0,,10.0,30.050198,1016.4,,TRUE,TRUE,,,,,,,CLR,,,,,,,,VFR,,,,,,,,,,,,METAR,1341.0
KGSB 170755Z 00000KT 10SM BKN120 20/19 A2966 RMK AO2A RAE13 SLP046 P0000 T01960194 $,KGSB,2023-05-17T07:55:00Z,35.33,-77.93,19.6,19.4,0,0,,10.0,29.660433,1004.6,,,TRUE,TRUE,,,,,,BKN,12000,,,,,,,VFR,,,,,,0.005,,,,,,METAR,33.0
KGRK 170755Z AUTO 00000KT 6SM BR CLR 19/17 A2994 RMK AO2 SLP130 T01860167,KGRK,2023-05-17T07:55:00Z,31.07,-97.83,18.6,16.7,0,0,,6.0,29.940945,1013.0,,TRUE,TRUE,,,,,,BR,CLR,,,,,,,,VFR,,,,,,,,,,,,METAR,311.0
KGRF 170755Z AUTO 00000KT 10SM CLR 17/11 A3003 RMK AO2 SLP172 T01740107 402540131 $,KGRF,2023-05-17T07:55:00Z,47.07,-122.57,17.4,10.7,0,0,,10.0,30.029528,1017.2,,TRUE,TRUE,TRUE,,,,,,CLR,,,,,,,,VFR,,,,25.4,13.1,,,,,,,SPECI,91.0
KGOV 170755Z AUTO 00000KT 10SM CLR M01/M02 A2996 RMK AO2 SLP156 T10111025,KGOV,2023-05-17T07:55:00Z,44.68,-84.73,-1.1,-2.5,0,0,,10.0,29.958662,1015.6,,TRUE,TRUE,,,,,,,CLR,,,,,,,,VFR,,,,,,,,,,,,METAR,350.0
KFSI 170755Z AUTO 03004KT 10SM CLR 14/13 A2996 RMK AO2 SLP140 T01360134 FZRANO $,KFSI,2023-05-17T07:55:00Z,34.65,-98.4,13.6,13.4,30,4,,10.0,29.958662,1014.0,,TRUE,TRUE,TRUE,,,TRUE,,,CLR,,,,,,,,VFR,,,,,,,,,,,,METAR,360.0
KFRI 170755Z 00000KT 4SM BR CLR 11/11 A2997 RMK AO2A SLP146 T01130111 $,KFRI,2023-05-17T07:55:00Z,39.05,-96.77,11.3,11.1,0,0,,4.0,29.970472,1014.6,,,TRUE,TRUE,,,,,BR,CLR,,,,,,,,MVFR,,,,,,,,,,,,METAR,232.0
KFMH 170755Z 36009KT 8SM FEW002 11/11 A2951,KFMH,2023-05-17T07:55:00Z,41.65,-70.52,11.0,11.0,360,9,,8.0,29.509842,,,,,,,,,,,FEW,200,,,,,,,VFR,,,,,,,,,,,,METAR,35.0
KFHU 170755Z AUTO 00000KT 10SM FEW100 BKN130 17/10 A3015 RMK AO2 SLP151 T01720103,KFHU,2023-05-17T07:55:00Z,31.58,-110.35,17.2,10.3,0,0,,10.0,30.15059,1015.1,,TRUE,TRUE,,,,,,,FEW,10000,BKN,13000,,,,,VFR,,,,,,,,,,,,SPECI,1424.0
KFFO 170755Z AUTO 00000KT 10SM CLR 10/09 A2979 RMK AO2 SLP090 T01010092,KFFO,2023-05-17T07:55:00Z,39.83,-84.03,10.1,9.2,0,0,,10.0,29.790354,1009.0,,TRUE,TRUE,,,,,,,CLR,,,,,,,,VFR,,,,,,,,,,,,METAR,250.0
KFCS 170755Z AUTO 00000KT 10SM FEW090 13/08 A3015 RMK AO2 SLP161 T01250084 $,KFCS,2023-05-17T07:55:00Z,38.67,-104.77,12.5,8.4,0,0,,10.0,30.15059,1016.1,,TRUE,TRUE,TRUE,,,,,,FEW,9000,,,,,,,VFR,,,,,,,,,,,,SPECI,1789.0
KEND 170755Z AUTO 00000KT 10SM CLR 12/11 A2997 RMK AO2 SLP146 T01180112 $,KEND,2023-05-17T07:55:00Z,36.33,-97.92,11.8,11.2,0,0,,10.0,29.970472,1014.6,,TRUE,TRUE,TRUE,,,,,,CLR,,,,,,,,VFR,,,,,,,,,,,,METAR,392.0
KEGI 170755Z AUTO 00000KT 10SM CLR 21/20 A2982 RMK AO2 SLP097 T02080196 TSNO $,KEGI,2023-05-17T07:55:00Z,30.65,-86.52,20.8,19.6,0,0,,10.0,29.819881,1009.7,,TRUE,TRUE,TRUE,,TRUE,,,,CLR,,,,,,,,VFR,,,,,,,,,,,,METAR,59.0
KEDW 170755Z AUTO 22004KT 10SM CLR 17/02 A2997 RMK AO2 SLP126 T01690017 403550139,KEDW,2023-05-17T07:55:00Z,34.9,-117.87,16.9,1.7,220,4,,10.0,29.970472,1012.6,,TRUE,TRUE,,,,,,,CLR,,,,,,,,VFR,,,,35.5,13.9,,,,,,,SPECI,698.0
KEAT 170755Z AUTO 28007KT 10SM CLR 17/14 A3004 RMK AO2 SLP167 T01670139 402390167,KEAT,2023-05-17T07:55:00Z,47.4,-120.2,16.7,13.9,280,7,,10.0,30.041338,1016.7,,TRUE,TRUE,,,,,,,CLR,,,,,,,,VFR,,,,23.9,16.7,,,,,,,METAR,375.0
KDOV 170755Z AUTO 29006KT 10SM SCT160 SCT180 19/12 A2957 RMK AO2 SLP017 T01860116,KDOV,2023-05-17T07:55:00Z,39.12,-75.47,18.6,11.6,290,6,,10.0,29.568897,1001.7,,TRUE,TRUE,,,,,,,SCT,16000,SCT,18000,,,,,VFR,,,,,,,,,,,,METAR,6.0
KDMA 170755Z 12004KT 10SM FEW110 BKN140 25/09 A3001 RMK AO2A ALSTG ESTMD SLPNO RVRNO VISNO RWY30 $,KDMA,2023-05-17T07:55:00Z,32.17,-110.88,25.0,9.0,120,4,,10.0,30.008858,,,,TRUE,TRUE,,,,,,FEW,11000,BKN,14000,,,,,VFR,,,,,,,,,,,,SPECI,804.0
KDLH 170755Z 11008KT 10SM OVC110 03/M01 A3002 RMK AO2 SLP176 T00331006,KDLH,2023-05-17T07:55:00Z,46.85,-92.2,3.3,-0.6,110,8,,10.0,30.02067,1017.6,,,TRUE,,,,,,,OVC,11000,,,,,,,VFR,,,,,,,,,,,,METAR,434.0
KDLF 170755Z AUTO 00000KT 10SM CLR 19/19 A2995 RMK AO2 SLP132 T01910188 $,KDLF,2023-05-17T07:55:00Z,29.37,-100.78,19.1,18.8,0,0,,10.0,29.949802,1013.2,,TRUE,TRUE,TRUE,,,,,,CLR,,,,,,,,VFR,,,,,,,,,,,,SPECI,328.0
KDAA 170755Z AUTO 30008KT 10SM OVC120 19/12 A2961 RMK AO2 SLP029 T01870120 $,KDAA,2023-05-17T07:55:00Z,38.72,-77.17,18.7,12.0,300,8,,10.0,29.610237,1002.9,,TRUE,TRUE,TRUE,,,,,,OVC,12000,,,,,,,VFR,,,,,,,,,,,,SPECI,17.0
KCWN 170755Z AUTO 20005KT 10SM CLR 14/05 A3009 RMK AO2 SLP017 T01360047 $,KCWN,2023-05-17T07:55:00Z,38.75,-104.85,13.6,4.7,200,5,,10.0,30.088583,1001.7,,TRUE,TRUE,TRUE,,,,,,CLR,,,,,,,,VFR,,,,,,,,,,,,SPECI,2040.0
KCVS 170755Z AUTO 16010KT 10SM BKN100 OVC130 16/14 A3008 RMK AO2 SLP131 T01550139 $,KCVS,2023-05-17T07:55:00Z,34.37,-103.32,15.5,13.9,160,10,,10.0,30.079725,1013.1,,TRUE,TRUE,TRUE,,,,,,BKN,10000,OVC,13000,,,,,VFR,,,,,,,,,,,,SPECI,1305.0
KCOF 170755Z AUTO 15003KT 10SM CLR 24/21 A2984 RMK AO2 SLP109 T02420205 $,KCOF,2023-05-17T07:55:00Z,28.23,-80.6,24.2,20.5,150,3,,10.0,29.840551,1010.9,,TRUE,TRUE,TRUE,,,,,,CLR,,,,,,,,VFR,,,,,,,,,,,,METAR,1.0
KCNK 170755Z AUTO 29003KT 10SM CLR 13/12 A2999 RMK AO2 SLP147 T01330117,KCNK,2023-05-17T07:55:00Z,39.55,-97.65,13.3,11.7,290,3,,10.0,29.991142,1014.7,,TRUE,TRUE,,,,,,,CLR,,,,,,,,VFR,,,,,,,,,,,,METAR,445.0
KCMY 170755Z AUTO 09003KT 10SM CLR 10/07 A2998 RMK AO2 SLP154 T01020067 FZRANO $,KCMY,2023-05-17T07:55:00Z,43.97,-90.73,10.2,6.7,90,3,,10.0,29.97933,1015.4,,TRUE,TRUE,TRUE,,,TRUE,,,CLR,,,,,,,,VFR,,,,,,,,,,,,METAR,253.0
KCEF 170755Z AUTO 01013G18KT 10SM CLR 10/04 A2958 RMK AO2 SLP022 T01020035,KCEF,2023-05-17T07:55:00Z,42.2,-72.52,10.2,3.5,10,13,18,10.0,29.58071,1002.2,,TRUE,TRUE,,,,,,,CLR,,,,,,,,VFR,,,,,,,,,,,,METAR,72.0
KCBK 170755Z AUTO 05004KT 10SM SCT075 13/10 A3006 RMK AO2 T01260102,KCBK,2023-05-17T07:55:00Z,39.43,-101.05,12.6,10.2,50,4,,10.0,30.059055,,,TRUE,TRUE,,,,,,,SCT,7500,,,,,,,VFR,,,,,,,,,,,,METAR,970.0
KCAO 170755Z AUTO 26008KT 10SM CLR 14/08 A3010 RMK AO2 SLP133 T01440078,KCAO,2023-05-17T07:55:00Z,36.45,-103.15,14.4,7.8,260,8,,10.0,30.100393,1013.3,,TRUE,TRUE,,,,,,,CLR,,,,,,,,VFR,,,,,,,,,,,,METAR,1517.0
KBYS 170755Z AUTO 00000KT 10SM SCT140 27/02 A2994 RMK AO2 SLP107 T02720023 403410196 $,KBYS,2023-05-17T07:55:00Z,35.28,-116.63,27.2,2.3,0,0,,10.0,29.940945,1010.7,,TRUE,TRUE,TRUE,,,,,,SCT,14000,,,,,,,VFR,,,,34.1,19.6,,,,,,,SPECI,717.0
KBLV 170755Z 00000KT 9SM CLR 14/14 A2988 RMK AO2A SLP120 T01420136 $,KBLV,2023-05-17T07:55:00Z,38.53,-89.83,14.2,13.6,0,0,,9.0,29.878937,1012.0,,,TRUE,TRUE,,,,,,CLR,,,,,,,,VFR,,,,,,,,,,,,SPECI,134.0
KBIX 170755Z AUTO 00000KT 10SM SCT130 22/21 A2982 RMK AO2 RAE49 SLP101 P0001 T02170205 $,KBIX,2023-05-17T07:55:00Z,30.42,-88.92,21.7,20.5,0,0,,10.0,29.819881,1010.1,,TRUE,TRUE,TRUE,,,,,,SCT,13000,,,,,,,VFR,,,,,,0.01,,,,,,METAR,4.0
KBIF 170755Z 33006KT 7SM SCT090 BKN150 22/10 A3009 RMK SLPNO ALSTG WND DATA ESTMD,KBIF,2023-05-17T07:55:00Z,31.85,-106.38,22.0,10.0,330,6,,7.0,30.088583,,,,,,,,,,,SCT,9000,BKN,15000,,,,,VFR,,,,,,,,,,,,METAR,1201.0
KBAD 170755Z AUTO 30006KT 10SM CLR 19/17 A2988 RMK AO2 SLP121 T01920166,KBAD,2023-05-17T07:55:00Z,32.5,-93.67,19.2,16.6,300,6,,10.0,29.878937,1012.1,,TRUE,TRUE,,,,,,,CLR,,,,,,,,VFR,,,,,,,,,,,,METAR,49.0
KBAB 170755Z AUTO 11005KT 10SM CLR 19/09 A2990 RMK AO2 SLP127 T01850093 403270137 $,KBAB,2023-05-17T07:55:00Z,39.13,-121.43,18.5,9.3,110,5,,10.0,29.899607,1012.7,,TRUE,TRUE,TRUE,,,,,,CLR,,,,,,,,VFR,,,,32.7,13.7,,,,,,,SPECI,31.0
KAST 170755Z AUTO 31006KT 10SM OVC009 14/11 A3009 RMK AO2 SLP188 T01390111 401780128,KAST,2023-05-17T07:55:00Z,46.15,-123.88,13.9,11.1,310,6,,10.0,30.088583,1018.8,,TRUE,TRUE,,,,,,,OVC,900,,,,,,,IFR,,,,17.8,12.8,,,,,,,METAR,3.0
KANJ 170755Z AUTO VRB04KT 10SM CLR 01/M04 A3004 RMK AO2 SLP174 T00061044,KANJ,2023-05-17T07:55:00Z,46.47,-84.37,0.6,-4.4,0,4,,10.0,30.041338,1017.4,,TRUE,TRUE,,,,,,,CLR,,,,,,,,VFR,,,,,,,,,,,,METAR,220.0
KAFF 170755Z AUTO 36006KT 10SM BKN110 09/09 A3019 RMK AO2 SLP156 T00940092,KAFF,2023-05-17T07:55:00Z,38.97,-104.82,9.4,9.2,360,6,,10.0,30.188976,1015.6,,TRUE,TRUE,,,,,,,BKN,11000,,,,,,,VFR,,,,,,,,,,,,METAR,2003.0
KADW 170755Z AUTO 31008KT 10SM BKN120 18/12 A2961 RMK AO2 SLP032 T01830116 $,KADW,2023-05-17T07:55:00Z,38.82,-76.87,18.3,11.6,310,8,,10.0,29.610237,1003.2,,TRUE,TRUE,TRUE,,,,,,BKN,12000,,,,,,,VFR,,,,,,,,,,,,METAR,87.0
KABH 170755Z AUTO 03006KT 10SM BKN110 11/09 A3018 RMK AO2 SLP160 T01130087,KABH,2023-05-17T07:55:00Z,38.75,-104.3,11.3,8.7,30,6,,10.0,30.180119,1016.0,,TRUE,TRUE,,,,,,,BKN,11000,,,,,,,VFR,,,,,,,,,,,,SPECI,1838.0
KAAT 170755Z AUTO 00000KT 10SM CLR 09/03 A3013 RMK AO2 SLP169 T00940028 402610022,KAAT,2023-05-17T07:55:00Z,41.48,-120.57,9.4,2.8,0,0,,10.0,30.129921,1016.9,,TRUE,TRUE,,,,,,,CLR,,,,,,,,VFR,,,,26.1,2.2,,,,,,,METAR,1336.0
K9L2 170755Z AUTO 00000KT 10SM CLR 17/00 A2998 RMK AO2 SLP129 T01690001 403620127,K9L2,2023-05-17T07:55:00Z,34.98,-117.87,16.9,0.1,0,0,,10.0,29.97933,1012.9,,TRUE,TRUE,,,,,,,CLR,,,,,,,,VFR,,,,36.2,12.7,,,,,,,METAR,697.0
K4MR 170755Z AUTO 14011KT 10SM CLR 15/12 A3006 RMK AO2 SLP104 T01460116,K4MR,2023-05-17T07:55:00Z,34.3,-103.8,14.6,11.6,140,11,,10.0,30.059055,1010.4,,TRUE,TRUE,,,,,,,CLR,,,,,,,,VFR,,,,,,,,,,,,METAR,1339.0
K1OW 170755Z AUTO 30005KT 10SM BKN160 11/08 A3022 RMK AO2 SLP183 T01140081 $,K1OW,2023-05-17T07:55:00Z,40.88,-104.0,11.4,8.1,300,5,,10.0,30.221457,1018.3,,TRUE,TRUE,TRUE,,,,,,BKN,16000,,,,,,,VFR,,,,,,,,,,,,SPECI,1650.0
K1ON 170755Z AUTO 20006KT 10SM CLR 12/08 M RMK AO2 SLPNO T01230076 $,K1ON,2023-05-17T07:55:00Z,,,12.3,7.6,200,6,,10.0,,,,TRUE,TRUE,TRUE,,,,,,CLR,,,,,,,,VFR,,,,,,,,,,,,METAR,
K1OM 170755Z AUTO 26021G28KT 10SM OVC095 15/09 A3000 RMK AO2 PK WND 27034/0657 LTG DSNT W-NE SLP138 T01480094 $,K1OM,2023-05-17T07:55:00Z,47.33,-108.93,14.8,9.4,260,21,28,10.0,30.0,1013.8,,TRUE,TRUE,TRUE,,,,,,OVC,9500,,,,,,,VFR,,,,,,,,,,,,METAR,1088.0
K1NW 170755Z AUTO 28005KT 10SM OVC150 12/09 A3007 RMK AO2 SLP135 T01240094 $,K1NW,2023-05-17T07:55:00Z,40.63,-103.83,12.4,9.4,280,5,,10.0,30.070866,1013.5,,TRUE,TRUE,TRUE,,,,,,OVC,15000,,,,,,,VFR,,,,,,,,,,,,METAR,1461.0
K1NN 170755Z AUTO 21009KT 10SM CLR M A2982 RMK AO2 SLPNO ALSTG ESTMD $,K1NN,2023-05-17T07:55:00Z,,,,,210,9,,10.0,29.819881,,,TRUE,TRUE,TRUE,,,,,,CLR,,,,,,,,VFR,,,,,,,,,,,,METAR,
K1MW 170755Z AUTO 29005KT 10SM SCT190 11/10 A3006 RMK AO2 SLP140 T01050103 $,K1MW,2023-05-17T07:55:00Z,40.7,-103.48,10.5,10.3,290,5,,10.0,30.059055,1014.0,,TRUE,TRUE,TRUE,,,,,,SCT,19000,,,,,,,VFR,,,,,,,,,,,,METAR,1338.0
K1MN 170755Z AUTO 20006KT 10SM CLR 14/08 A2980 RMK AO2 SLP090 T01370079 $,K1MN,2023-05-17T07:55:00Z,,,13.7,7.9,200,6,,10.0,29.799213,1009.0,,TRUE,TRUE,TRUE,,,,,,CLR,,,,,,,,VFR,,,,,,,,,,,,METAR,
K1MM 170755Z AUTO 29013G18KT 6SM -RA BKN065 OVC095 13/09 A3008 RMK AO2 LTG DSNT NE AND W RAB42 SLP165 P0000 T01280085 $,K1MM,2023-05-17T07:55:00Z,47.02,-109.63,12.8,8.5,290,13,18,6.0,30.079725,1016.5,,TRUE,TRUE,TRUE,,,,,-RA,BKN,6500,OVC,9500,,,,,VFR,,,,,,0.005,,,,,,METAR,1256.0
K1LN 170755Z AUTO 20008KT 10SM BKN095 16/07 A2980 RMK AO2 SLP085 T01640065 $,K1LN,2023-05-17T07:55:00Z,,,16.4,6.5,200,8,,10.0,29.799213,1008.5,,TRUE,TRUE,TRUE,,,,,,BKN,9500,,,,,,,VFR,,,,,,,,,,,,METAR,
K1JW 170755Z AUTO 17003KT 10SM CLR 10/09 M RMK AO2 SLPNO T01010085 $,K1JW,2023-05-17T07:55:00Z,40.97,-103.2,10.1,8.5,170,3,,10.0,,,,TRUE,TRUE,TRUE,,,,,,CLR,,,,,,,,VFR,,,,,,,,,,,,SPECI,1382.0
K1JN 170755Z AUTO 21013KT 10SM CLR 14/07 A2983 RMK AO2 SLP099 T01360074 $,K1JN,2023-05-17T07:55:00Z,,,13.6,7.4,210,13,,10.0,29.828741,1009.9,,TRUE,TRUE,TRUE,,,,,,CLR,,,,,,,,VFR,,,,,,,,,,,,METAR,
K1JM 170755Z AUTO 28005KT 10SM VCTS OVC065 10/07 A3013 RMK AO2 RAE20 SLP192 P0002 T01040065 $,K1JM,2023-05-17T07:55:00Z,47.75,-111.55,10.4,6.5,280,5,,10.0,30.129921,1019.2,,TRUE,TRUE,TRUE,,,,,VCTS,OVC,6500,,,,,,,VFR,,,,,,0.02,,,,,,METAR,1154.0
K1IW 170755Z AUTO 23008KT 10SM M 10/09 A3004 RMK AO2 SLP142 T01010092 $,K1IW,2023-05-17T07:55:00Z,41.05,-102.87,10.1,9.2,230,8,,10.0,30.041338,1014.2,,TRUE,TRUE,TRUE,,,,,,,,,,,,,,,,,,,,,,,,,,METAR,1294.0
K1IN 170755Z AUTO 20005KT 10SM CLR 15/05 A2983 RMK AO2 SLP100 T01540047 $,K1IN,2023-05-17T07:55:00Z,,,15.4,4.7,200,5,,10.0,29.828741,1010.0,,TRUE,TRUE,TRUE,,,,,,CLR,,,,,,,,VFR,,,,,,,,,,,,METAR,
K1IM 170755Z AUTO 22005KT 9SM VCTS -RA OVC070 11/10 A3014 RMK AO2 SLP194 P0006 T01070095 $,K1IM,2023-05-17T07:55:00Z,47.32,-111.47,10.7,9.5,220,5,,9.0,30.138779,1019.4,,TRUE,TRUE,TRUE,,,,,VCTS -RA,OVC,7000,,,,,,,VFR,,,,,,0.06,,,,,,METAR,1110.0
K1HW 170755Z AUTO 24008KT 10SM CLR 10/10 A3003 RMK AO2 SLP141 T01040099 $,K1HW,2023-05-17T07:55:00Z,41.32,-102.83,10.4,9.9,240,8,,10.0,30.029528,1014.1,,TRUE,TRUE,TRUE,,,,,,CLR,,,,,,,,VFR,,,,,,,,,,,,METAR,1265.0
K1HN 170755Z AUTO 00000KT 10SM CLR 14/07 A2983 RMK AO2 SLP103 T01400073 $,K1HN,2023-05-17T07:55:00Z,,,14.0,7.3,0,0,,10.0,29.828741,1010.3,,TRUE,TRUE,TRUE,,,,,,CLR,,,,,,,,VFR,,,,,,,,,,,,METAR,
K1HM 170755Z AUTO 26006KT 9SM VCTS OVC060 12/05 A3014 RMK AO2 SLP187 T01200049 $,K1HM,2023-05-17T07:55:00Z,47.7,-111.95,12.0,4.9,260,6,,9.0,30.138779,1018.7,,TRUE,TRUE,TRUE,,,,,VCTS,OVC,6000,,,,,,,VFR,,,,,,,,,,,,METAR,1181.0
K1GN 170755Z AUTO 19008KT 10SM CLR 14/08 A2983 RMK AO2 SLP106 T01380080 $,K1GN,2023-05-17T07:55:00Z,,,13.8,8.0,190,8,,10.0,29.828741,1010.6,,TRUE,TRUE,TRUE,,,,,,CLR,,,,,,,,VFR,,,,,,,,,,,,METAR,
K1GM 170755Z AUTO 21004KT 10SM -RA FEW048 08/06 M RMK AO2 RAB0655E02RAB02 SLPNO P0008 T00820063 $,K1GM,2023-05-17T07:55:00Z,47.33,-112.1,8.2,6.3,210,4,,10.0,,,,TRUE,TRUE,TRUE,,,,,-RA,FEW,4800,,,,,,,VFR,,,,,,0.08,,,,,,METAR,1317.0
K1FW 170755Z AUTO 25007KT 10SM CLR 11/11 A3006 RMK AO2 SLP135 T01110109 $,K1FW,2023-05-17T07:55:00Z,41.37,-103.48,11.1,10.9,250,7,,10.0,30.059055,1013.5,,TRUE,TRUE,TRUE,,,,,,CLR,,,,,,,,VFR,,,,,,,,,,,,METAR,1451.0
K1FN 170755Z AUTO 19009KT M M CLR M A2976 RMK AO2 SLPNO ALSTG ESTMD RVRNO $,K1FN,2023-05-17T07:55:00Z,,,,,190,9,,,29.760826,,,TRUE,TRUE,TRUE,,,,,,CLR,,,,,,,,,,,,,,,,,,,,METAR,
K1EW 170755Z AUTO 04003KT 10SM SCT160 10/08 A3008 RMK AO2 SLP141 T01020078 $,K1EW,2023-05-17T07:55:00Z,41.12,-103.98,10.2,7.8,40,3,,10.0,30.079725,1014.1,,TRUE,TRUE,TRUE,,,,,,SCT,16000,,,,,,,VFR,,,,,,,,,,,,METAR,1609.0
K1EN 170755Z AUTO 20011KT 10SM CLR 15/05 A2964 RMK AO2 SLP040 T01470052 $,K1EN,2023-05-17T07:55:00Z,,,14.7,5.2,200,11,,10.0,29.639763,1004.0,,TRUE,TRUE,TRUE,,,,,,CLR,,,,,,,,VFR,,,,,,,,,,,,METAR,
K1EM 170755Z AUTO 30013G19KT 10SM BKN060 BKN080 OVC110 14/09 A3006 RMK AO2 LTG DSNT NE AND W RAE02DZB02E11 SLP156 P0000 T01400086 $,K1EM,2023-05-17T07:55:00Z,47.45,-109.42,14.0,8.6,300,13,19,10.0,30.059055,1015.6,,TRUE,TRUE,TRUE,,,,,,BKN,6000,BKN,8000,OVC,11000,,,VFR,,,,,,0.005,,,,,,METAR,1118.0
K1DN 170755Z AUTO 19007KT 10SM CLR 12/06 A2835 RMK AO2 SLP593 T01200061 $,K1DN,2023-05-17T07:55:00Z,,,12.0,6.1,190,7,,10.0,28.34941,959.3,,TRUE,TRUE,TRUE,,,,,,CLR,,,,,,,,VFR,,,,,,,,,,,,METAR,
K1DM 170755Z AUTO 28013KT 10SM OVC080 13/10 A3008 RMK AO2 LTG DSNT NE AND W SLP170 T01340098 $,K1DM,2023-05-17T07:55:00Z,47.37,-109.8,13.4,9.8,280,13,,10.0,30.079725,1017.0,,TRUE,TRUE,TRUE,,,,,,OVC,8000,,,,,,,VFR,,,,,,,,,,,,METAR,1093.0
K1CW 170755Z AUTO 22007KT 10SM SCT170 13/09 A3006 RMK AO2 SLP138 T01250093 $,K1CW,2023-05-17T07:55:00Z,41.58,-103.57,12.5,9.3,220,7,,10.0,30.059055,1013.8,,TRUE,TRUE,TRUE,,,,,,SCT,17000,,,,,,,VFR,,,,,,,,,,,,METAR,1370.0
K1CN 170755Z AUTO 20004KT 10SM CLR 12/08 A2987 RMK AO2 SLP114 T01200075 $,K1CN,2023-05-17T07:55:00Z,,,12.0,7.5,200,4,,10.0,29.870079,1011.4,,TRUE,TRUE,TRUE,,,,,,CLR,,,,,,,,VFR,,,,,,,,,,,,METAR,
K1CM 170755Z AUTO 29018KT 5SM -RA OVC070 12/09 A3011 RMK AO2 LTG DSNT W SLP171 P0002 T01200087 $,K1CM,2023-05-17T07:55:00Z,47.1,-110.17,12.0,8.7,290,18,,5.0,30.109253,1017.1,,TRUE,TRUE,TRUE,,,,,-RA,OVC,7000,,,,,,,MVFR,,,,,,0.02,,,,,,METAR,1338.0
K1BW 170755Z AUTO 19005KT 10SM FEW160 12/08 A3012 RMK AO2 SLP152 T01150076 $,K1BW,2023-05-17T07:55:00Z,41.52,-104.0,11.5,7.6,190,5,,10.0,30.121063,1015.2,,TRUE,TRUE,TRUE,,,,,,FEW,16000,,,,,,,VFR,,,,,,,,,,,,METAR,1606.0
K1BN 170755Z AUTO 21013KT 10SM CLR 13/06 A2985 RMK AO2 SLP107 T01310064 $,K1BN,2023-05-17T07:55:00Z,,,13.1,6.4,210,13,,10.0,29.84941,1010.7,,TRUE,TRUE,TRUE,,,,,,CLR,,,,,,,,VFR,,,,,,,,,,,,METAR,
K1AN 170755Z AUTO 22009KT 10SM CLR 15/08 A2981 RMK AO2 SLP109 T01530081 $,K1AN,2023-05-17T07:55:00Z,,,15.3,8.1,220,9,,10.0,29.811024,1010.9,,TRUE,TRUE,TRUE,,,,,,CLR,,,,,,,,VFR,,,,,,,,,,,,METAR,
K1AM 170755Z AUTO 26008KT 7SM VCTS RA FEW013 FEW036 OVC065 11/08 A3015 RMK AO2 SLP195 P0017 T01060082 $,K1AM,2023-05-17T07:55:00Z,47.28,-110.8,10.6,8.2,260,8,,7.0,30.15059,1019.5,,TRUE,TRUE,TRUE,,,,,VCTS RA,FEW,1300,FEW,3600,OVC,6500,,,VFR,,,,,,0.17,,,,,,METAR,1228.0
FJDG 170755Z 30024G33KT 6000 -RA SCT015 BKN045 OVC080 25/25 A2975 RMK SLP071 P0043 T02500250,FJDG,2023-05-17T07:55:00Z,-7.32,72.42,25.0,25.0,300,24,33,3.73,29.749016,1007.1,,,,,,,,,-RA,SCT,1500,BKN,4500,OVC,8000,,,MVFR,,,,,,0.43,,,,,,METAR,3.0
ETOU 170755Z AUTO 00000KT 9999 BKN046 12/12 A3028 RMK AO2 SLPNO T01210119,ETOU,2023-05-17T07:55:00Z,50.03,8.32,12.1,11.9,0,0,,6.21,30.280512,,,TRUE,TRUE,,,,,,,BKN,4600,,,,,,,VFR,,,,,,,,,,,,SPECI,141.0
ETIK 170755Z AUTO 03007KT 9999 FEW027 SCT180 10/04 A3022 RMK AO2 SLPNO T00960044 FZRANO,ETIK,2023-05-17T07:55:00Z,49.47,10.38,9.6,4.4,30,7,,6.21,30.221457,,,TRUE,TRUE,,,,TRUE,,,FEW,2700,SCT,18000,,,,,VFR,,,,,,,,,,,,METAR,326.0
ETIC 170755Z AUTO 36003KT 9999 OVC031 09/02 A3017 RMK AO2 SLPNO T00910022 $,ETIC,2023-05-17T07:55:00Z,49.7,11.93,9.1,2.2,360,3,,6.21,30.171259,,,TRUE,TRUE,TRUE,,,,,,OVC,3100,,,,,,,VFR,,,,,,,,,,,,METAR,414.0
EGUN 170755Z 21002KT 9999 FEW010 SCT180 BKN250 12/12 A3038 RMK AO2A SLPNO T01190119 $,EGUN,2023-05-17T07:55:00Z,52.37,0.48,11.9,11.9,210,2,,6.21,30.380905,,,,TRUE,TRUE,,,,,,FEW,1000,SCT,18000,BKN,25000,,,VFR,,,,,,,,,,,,METAR,10.0
EGUL 170755Z 00000KT 9999 FEW030 FEW200 12/12 A3037 RMK AO2A SLPNO T01240122 RVRNO VISNO RWY24 $,EGUL,2023-05-17T07:55:00Z,52.42,0.57,12.4,12.2,0,0,,6.21,30.369095,,,,TRUE,TRUE,,,,,,FEW,3000,FEW,20000,,,,,VFR,,,,,,,,,,,,METAR,8.0
BK12 170755Z 35003KT 9999 FEW060 17/09 A2991 RMK AO2 SLP112 WND DATA ESTMD T01650091,BK12,2023-05-17T07:55:00Z,,,16.5,9.1,350,3,,6.21,29.911417,1011.2,,,TRUE,,,,,,,FEW,6000,,,,,,,VFR,,,,,,,,,,,,METAR,
PHOG 170754Z 09010KT 10SM FEW030 SCT060 23/16 A3010 RMK AO2 SLP198 T02330156,PHOG,2023-05-17T07:54:00Z,20.9,-156.43,23.3,15.6,90,10,,10.0,30.100393,1019.8,,,TRUE,,,,,,,FEW,3000,SCT,6000,,,,,VFR,,,,,,,,,,,,METAR,14.0
PHMK 170754Z AUTO 04005KT 10SM BKN047 22/17 A3012 RMK AO2 SLP202 T02170167 TSNO,PHMK,2023-05-17T07:54:00Z,21.15,-157.1,21.7,16.7,40,5,,10.0,30.121063,1020.2,,TRUE,TRUE,,,TRUE,,,,BKN,4700,,,,,,,VFR,,,,,,,,,,,,METAR,135.0
PGUM 170754Z 06012KT 10SM FEW031 FEW042 30/23 A2988 RMK AO2 SLP110 T03000228,PGUM,2023-05-17T07:54:00Z,13.48,144.8,30.0,22.8,60,12,,10.0,29.878937,1011.0,,,TRUE,,,,,,,FEW,3100,FEW,4200,,,,,VFR,,,,,,,,,,,,METAR,74.0
PGSN 170754Z 05011KT 10SM FEW023 SCT031 29/24 A2988 RMK AO2 SLP141 T02890239 PNO $,PGSN,2023-05-17T07:54:00Z,15.12,145.72,28.9,23.9,50,11,,10.0,29.878937,1014.1,,,TRUE,TRUE,,,,,,FEW,2300,SCT,3100,,,,,VFR,,,,,,,,,,,,METAR,65.0
PAKN 170754Z 17018G24KT 10SM FEW038 BKN048 OVC085 05/M01 A3013 RMK AO2 PK WND 17027/0736 SLP202 T00501011,PAKN,2023-05-17T07:54:00Z,58.68,-156.65,5.0,-1.1,170,18,24,10.0,30.129921,1020.2,,,TRUE,,,,,,,FEW,3800,BKN,4800,OVC,8500,,,VFR,,,,,,,,,,,,METAR,20.0
PAHN 170754Z AUTO 00000KT CLR 10/03 A3013 RMK AO2 SLP206 T01000033 TSNO,PAHN,2023-05-17T07:54:00Z,59.25,-135.52,10.0,3.3,0,0,,,30.129921,1020.6,,TRUE,TRUE,,,TRUE,,,,CLR,,,,,,,,,,,,,,,,,,,,METAR,15.0
KVTA 170754Z AUTO VRB03KT 10SM CLR 12/07 A2980 RMK AO2 SLP088 T01220072,KVTA,2023-05-17T07:54:00Z,40.02,-82.47,12.2,7.2,0,3,,10.0,29.799213,1008.8,,TRUE,TRUE,,,,,,,CLR,,,,,,,,VFR,,,,,,,,,,,,METAR,268.0
KVSF 170754Z AUTO VRB06KT 10SM -RA OVC032 07/01 A2966 RMK AO2 RAB42 SLP045 P0000 T00720006,KVSF,2023-05-17T07:54:00Z,43.35,-72.52,7.2,0.6,0,6,,10.0,29.660433,1004.5,,TRUE,TRUE,,,,,,-RA,OVC,3200,,,,,,,VFR,,,,,,0.005,,,,,,METAR,176.0
KVAY 170754Z AUTO 30003KT 10SM CLR 18/12 A2957 RMK AO2 SLP014 T01830117,KVAY,2023-05-17T07:54:00Z,39.93,-74.83,18.3,11.7,300,3,,10.0,29.568897,1001.4,,TRUE,TRUE,,,,,,,CLR,,,,,,,,VFR,,,,,,,,,,,,METAR,15.0
KUZA 170754Z AUTO 24004KT 10SM BKN120 18/18 A2974 RMK AO2 SLP057 T01830178,KUZA,2023-05-17T07:54:00Z,34.98,-81.05,18.3,17.8,240,4,,10.0,29.740158,1005.7,,TRUE,TRUE,,,,,,,BKN,12000,,,,,,,VFR,,,,,,,,,,,,METAR,198.0
KUIN 170754Z AUTO 25005KT 10SM CLR 15/11 A2988 RMK AO2 SLP114 T01500106,KUIN,2023-05-17T07:54:00Z,39.95,-91.2,15.0,10.6,250,5,,10.0,29.878937,1011.4,,TRUE,TRUE,,,,,,,CLR,,,,,,,,VFR,,,,,,,,,,,,METAR,233.0
KTQE 170754Z AUTO 32007KT 10SM CLR 14/07 A2994 RMK AO2 SLP129 T01390072,KTQE,2023-05-17T07:54:00Z,41.77,-96.18,13.9,7.2,320,7,,10.0,29.940945,1012.9,,TRUE,TRUE,,,,,,,CLR,,,,,,,,VFR,,,,,,,,,,,,METAR,312.0
KTAD 170754Z AUTO 28010KT 10SM BKN120 12/08 A3014 RMK AO2 SLP135 T01220078,KTAD,2023-05-17T07:54:00Z,37.27,-104.33,12.2,7.8,280,10,,10.0,30.138779,1013.5,,TRUE,TRUE,,,,,,,BKN,12000,,,,,,,VFR,,,,,,,,,,,,METAR,1751.0
KSYR 170754Z 35012KT 10SM FEW028 OVC043 06/M01 A2980 RMK AO2 SLP088 T00561011,KSYR,2023-05-17T07:54:00Z,43.12,-76.1,5.6,-1.1,350,12,,10.0,29.799213,1008.8,,,TRUE,,,,,,,FEW,2800,OVC,4300,,,,,VFR,,,,,,,,,,,,METAR,125.0
KSLC 170754Z 16005KT 10SM FEW120 SCT170 18/06 A3010 RMK AO2 SLP142 T01780056,KSLC,2023-05-17T07:54:00Z,40.77,-111.97,17.8,5.6,160,5,,10.0,30.100393,1014.2,,,TRUE,,,,,,,FEW,12000,SCT,17000,,,,,VFR,,,,,,,,,,,,METAR,1286.0
KSBY 170754Z AUTO 25005KT 10SM OVC075 19/18 A2960 RMK AO2 RAE27 SLP025 P0000 T01890178,KSBY,2023-05-17T07:54:00Z,38.33,-75.5,18.9,17.8,250,5,,10.0,29.601377,1002.5,,TRUE,TRUE,,,,,,,OVC,7500,,,,,,,VFR,,,,,,0.005,,,,,,METAR,14.0
KSBN 170754Z AUTO 01005KT 10SM CLR 08/07 A2990 RMK AO2 SLP122 T00830067,KSBN,2023-05-17T07:54:00Z,41.7,-86.32,8.3,6.7,10,5,,10.0,29.899607,1012.2,,TRUE,TRUE,,,,,,,CLR,,,,,,,,VFR,,,,,,,,,,,,METAR,236.0
KRST 170754Z AUTO 08007KT 10SM CLR 11/06 A2994 RMK AO2 SLP136 T01060056,KRST,2023-05-17T07:54:00Z,43.9,-92.5,10.6,5.6,80,7,,10.0,29.940945,1013.6,,TRUE,TRUE,,,,,,,CLR,,,,,,,,VFR,,,,,,,,,,,,METAR,398.0
KRSP 170754Z AUTO 29011G22KT 10SM CLR 16/09 A2966 RMK AO2 SLP037 T01610094 $,KRSP,2023-05-17T07:54:00Z,39.65,-77.47,16.1,9.4,290,11,22,10.0,29.660433,1003.7,,TRUE,TRUE,TRUE,,,,,,CLR,,,,,,,,VFR,,,,,,,,,,,,METAR,555.0
KROC 170754Z 03011KT 10SM OVC036 06/01 A2984 RMK AO2 SLP108 BINOVC T00560006,KROC,2023-05-17T07:54:00Z,43.12,-77.68,5.6,0.6,30,11,,10.0,29.840551,1010.8,,,TRUE,,,,,,,OVC,3600,,,,,,,VFR,,,,,,,,,,,,METAR,166.0
KROA 170754Z 32007KT 10SM CLR 18/13 A2975 RMK AO2 SLP064 T01780133 $,KROA,2023-05-17T07:54:00Z,37.32,-79.97,17.8,13.3,320,7,,10.0,29.749016,1006.4,,,TRUE,TRUE,,,,,,CLR,,,,,,,,VFR,,,,,,,,,,,,METAR,349.0
KRKS 170754Z AUTO 22008KT 10SM CLR 09/01 A3021 RMK AO2 SLP164 T00940006,KRKS,2023-05-17T07:54:00Z,41.6,-109.07,9.4,0.6,220,8,,10.0,30.209646,1016.4,,TRUE,TRUE,,,,,,,CLR,,,,,,,,VFR,,,,,,,,,,,,METAR,2062.0
KRIC 170754Z 00000KT 10SM FEW022 FEW034 OVC043 18/16 A2965 RMK AO2 RAB0657E48 SLP044 P0007 T01830156 $,KRIC,2023-05-17T07:54:00Z,37.52,-77.32,18.3,15.6,0,0,,10.0,29.648623,1004.4,,,TRUE,TRUE,,,,,,FEW,2200,FEW,3400,OVC,4300,,,VFR,,,,,,0.07,,,,,,METAR,51.0
KRFD 170754Z 00000KT 10SM FEW085 SCT250 09/02 A2998 RMK AO2 SLP151 T00890017,KRFD,2023-05-17T07:54:00Z,42.2,-89.1,8.9,1.7,0,0,,10.0,29.97933,1015.1,,,TRUE,,,,,,,FEW,8500,SCT,25000,,,,,VFR,,,,,,,,,,,,METAR,222.0
KRDG 170754Z AUTO 36004KT 10SM CLR 15/07 A2960 RMK AO2 SLP027 T01500072,KRDG,2023-05-17T07:54:00Z,40.37,-75.97,15.0,7.2,360,4,,10.0,29.601377,1002.7,,TRUE,TRUE,,,,,,,CLR,,,,,,,,VFR,,,,,,,,,,,,METAR,101.0
KRBL 170754Z AUTO 32004KT 10SM CLR 17/12 A2993 RMK AO2 SLP130 T01720122 403440150,KRBL,2023-05-17T07:54:00Z,40.15,-122.25,17.2,12.2,320,4,,10.0,29.929134,1013.0,,TRUE,TRUE,,,,,,,CLR,,,,,,,,VFR,,,,34.4,15.0,,,,,,,METAR,107.0
KPTW 170754Z AUTO 33003KT 10SM CLR 15/07 A2961 RMK AO2 SLP024 T01500072,KPTW,2023-05-17T07:54:00Z,40.23,-75.55,15.0,7.2,330,3,,10.0,29.610237,1002.4,,TRUE,TRUE,,,,,,,CLR,,,,,,,,VFR,,,,,,,,,,,,METAR,88.0
KPSF 170754Z AUTO 10SM OVC021 07/02 A2964 RMK AO2 SLP018 T00720017,KPSF,2023-05-17T07:54:00Z,42.43,-73.28,7.2,1.7,,,,10.0,29.639763,1001.8,,TRUE,TRUE,,,,,,,OVC,2100,,,,,,,MVFR,,,,,,,,,,,,METAR,352.0
KPNE 170754Z AUTO 32008KT 10SM CLR 18/08 A2959 RMK AO2 SLP017 T01830083,KPNE,2023-05-17T07:54:00Z,40.08,-75.02,18.3,8.3,320,8,,10.0,29.589567,1001.7,,TRUE,TRUE,,,,,,,CLR,,,,,,,,VFR,,,,,,,,,,,,METAR,32.0
KPLN 170754Z AUTO 00000KT 10SM CLR M02/M03 A3002 RMK AO2 SLP169 T10221033,KPLN,2023-05-17T07:54:00Z,45.57,-84.8,-2.2,-3.3,0,0,,10.0,30.02067,1016.9,,TRUE,TRUE,,,,,,,CLR,,,,,,,,VFR,,,,,,,,,,,,METAR,215.0
KPIA 170754Z 07009KT 10SM CLR 14/09 A2989 RMK AO2 SLP119 T01390089,KPIA,2023-05-17T07:54:00Z,40.67,-89.68,13.9,8.9,70,9,,10.0,29.890747,1011.9,,,TRUE,,,,,,,CLR,,,,,,,,VFR,,,,,,,,,,,,METAR,200.0
KPHL 170754Z 31003KT 10SM SCT190 BKN230 18/09 A2958 RMK AO2 SLP015 T01830094,KPHL,2023-05-17T07:54:00Z,39.87,-75.23,18.3,9.4,310,3,,10.0,29.58071,1001.5,,,TRUE,,,,,,,SCT,19000,BKN,23000,,,,,VFR,,,,,,,,,,,,METAR,2.0
KORH 170754Z AUTO 33010KT 10SM FEW070 BKN100 11/04 A2958 RMK AO2 SLP013 T01110044,KORH,2023-05-17T07:54:00Z,42.27,-71.87,11.1,4.4,330,10,,10.0,29.58071,1001.3,,TRUE,TRUE,,,,,,,FEW,7000,BKN,10000,,,,,VFR,,,,,,,,,,,,METAR,306.0
KOLS 170754Z AUTO 04005KT 10SM CLR 18/12 A3008 RMK AO2 SLP132 T01830117,KOLS,2023-05-17T07:54:00Z,31.42,-110.85,18.3,11.7,40,5,,10.0,30.079725,1013.2,,TRUE,TRUE,,,,,,,CLR,,,,,,,,VFR,,,,,,,,,,,,METAR,1194.0
KOLM 170754Z AUTO 00000KT 10SM CLR 14/11 A3005 RMK AO2 SLP175 T01390111 402720122,KOLM,2023-05-17T07:54:00Z,46.97,-122.9,13.9,11.1,0,0,,10.0,30.050198,1017.5,,TRUE,TRUE,,,,,,,CLR,,,,,,,,VFR,,,,27.2,12.2,,,,,,,METAR,58.0
KOFP 170754Z AUTO 00000KT 6SM BR OVC060 18/17 A2966 RMK AO2 RAE08 SLP042 P0000 T01780172 $,KOFP,2023-05-17T07:54:00Z,37.7,-77.43,17.8,17.2,0,0,,6.0,29.660433,1004.2,,TRUE,TRUE,TRUE,,,,,BR,OVC,6000,,,,,,,VFR,,,,,,0.005,,,,,,METAR,63.0
KNAK 170754Z AUTO 30006KT 10SM CLR 19/12 A2961 RMK AO2 SLP028 T01940122 $,KNAK,2023-05-17T07:54:00Z,38.98,-76.48,19.4,12.2,300,6,,10.0,29.610237,1002.8,,TRUE,TRUE,TRUE,,,,,,CLR,,,,,,,,VFR,,,,,,,,,,,,METAR,2.0
KMWN 170754Z 30034G45KT 0000 -SHSN FZFG DRSN VV000 M07/M07 RMK VRY LGT ICG,KMWN,2023-05-17T07:54:00Z,44.27,-71.3,-7.0,-7.0,300,34,45,0.0,,,,,,,,,,,-SHSN FZFG DRSN,OVX,0,,,,,,,LIFR,,,,,,,,,,,0,METAR,1911.0
KMTP 170754Z AUTO 30006KT 15/11 A2954 RMK AO1 SLP001 T01500111,KMTP,2023-05-17T07:54:00Z,41.07,-71.92,15.0,11.1,300,6,,,29.53937,1000.1,,TRUE,TRUE,,,,,,,,,,,,,,,,,,,,,,,,,,,METAR,2.0
KMOT 170754Z AUTO 21008G15KT 10SM CLR 18/04 A2983 RMK AO2 SLP095 T01780044,KMOT,2023-05-17T07:54:00Z,48.25,-101.27,17.8,4.4,210,8,15,10.0,29.828741,1009.5,,TRUE,TRUE,,,,,,,CLR,,,,,,,,VFR,,,,,,,,,,,,METAR,507.0
KMKC 170754Z 24003KT 10SM OVC090 14/13 A2994 RMK AO2 SLP135 T01390128,KMKC,2023-05-17T07:54:00Z,39.12,-94.6,13.9,12.8,240,3,,10.0,29.940945,1013.5,,,TRUE,,,,,,,OVC,9000,,,,,,,VFR,,,,,,,,,,,,METAR,228.0
KMIV 170754Z AUTO 29005KT 10SM CLR 17/14 A2957 RMK AO2 SLP013 T01720139 $,KMIV,2023-05-17T07:54:00Z,39.37,-75.08,17.2,13.9,290,5,,10.0,29.568897,1001.3,,TRUE,TRUE,TRUE,,,,,,CLR,,,,,,,,VFR,,,,,,,,,,,,METAR,18.0
KMGJ 170754Z AUTO 35006KT 10SM CLR 13/04 A2962 RMK AO2 SLP027 T01280044,KMGJ,2023-05-17T07:54:00Z,41.52,-74.27,12.8,4.4,350,6,,10.0,29.619095,1002.7,,TRUE,TRUE,,,,,,,CLR,,,,,,,,VFR,,,,,,,,,,,,METAR,106.0
KMFI 170754Z AUTO 10004KT 10SM CLR 07/04 A3001 RMK AO2 SLP164 T00670039,KMFI,2023-05-17T07:54:00Z,44.63,-90.18,6.7,3.9,100,4,,10.0,30.008858,1016.4,,TRUE,TRUE,,,,,,,CLR,,,,,,,,VFR,,,,,,,,,,,,METAR,383.0
KMEM 170754Z 02008KT 10SM BKN100 19/17 A2986 RMK AO2 SLP106 T01940172,KMEM,2023-05-17T07:54:00Z,35.07,-89.98,19.4,17.2,20,8,,10.0,29.861221,1010.6,,,TRUE,,,,,,,BKN,10000,,,,,,,VFR,,,,,,,,,,,,METAR,78.0
KLYH 170754Z AUTO 00000KT 10SM BKN085 17/16 A2971 RMK AO2 SLP050 T01720161,KLYH,2023-05-17T07:54:00Z,37.32,-79.2,17.2,16.1,0,0,,10.0,29.71063,1005.0,,TRUE,TRUE,,,,,,,BKN,8500,,,,,,,VFR,,,,,,,,,,,,METAR,282.0
KLWT 170754Z AUTO 29012G23KT 6SM HZ BKN075 OVC090 13/08 A3011 RMK AO2 SLP168 T01280083,KLWT,2023-05-17T07:54:00Z,47.05,-109.47,12.8,8.3,290,12,23,6.0,30.109253,1016.8,,TRUE,TRUE,,,,,,HZ,BKN,7500,OVC,9000,,,,,VFR,,,,,,,,,,,,METAR,1254.0
KLWM 170754Z AUTO 32008KT 10SM OVC065 12/04 A2960 RMK AO2 SLP023 T01170039 $,KLWM,2023-05-17T07:54:00Z,42.72,-71.13,11.7,3.9,320,8,,10.0,29.601377,1002.3,,TRUE,TRUE,TRUE,,,,,,OVC,6500,,,,,,,VFR,,,,,,,,,,,,METAR,42.0
KLNK 170754Z AUTO 00000KT 10SM CLR 11/06 A2998 RMK AO2 SLP146 T01060061,KLNK,2023-05-17T07:54:00Z,40.85,-96.77,10.6,6.1,0,0,,10.0,29.97933,1014.6,,TRUE,TRUE,,,,,,,CLR,,,,,,,,VFR,,,,,,,,,,,,METAR,357.0
KLAF 170754Z AUTO 01003KT 10SM CLR 12/07 A2987 RMK AO2 SLP112 T01220072,KLAF,2023-05-17T07:54:00Z,40.42,-86.93,12.2,7.2,10,3,,10.0,29.870079,1011.2,,TRUE,TRUE,,,,,,,CLR,,,,,,,,VFR,,,,,,,,,,,,METAR,182.0
KJST 170754Z AUTO 26007KT 9SM OVC011 12/10 A2972 RMK AO2 SLP057 T01170100,KJST,2023-05-17T07:54:00Z,40.32,-78.83,11.7,10.0,260,7,,9.0,29.719488,1005.7,,TRUE,TRUE,,,,,,,OVC,1100,,,,,,,MVFR,,,,,,,,,,,,METAR,695.0
KIZG 170754Z AUTO 10SM BKN041 BKN065 06/00 A2961 RMK AO2 SLP028 T00560000,KIZG,2023-05-17T07:54:00Z,43.98,-70.95,5.6,0.0,,,,10.0,29.610237,1002.8,,TRUE,TRUE,,,,,,,BKN,4100,BKN,6500,,,,,VFR,,,,,,,,,,,,METAR,138.0
KISW 170754Z AUTO 10006KT 10SM CLR 07/02 A3003 RMK AO2 SLP169 T00670022,KISW,2023-05-17T07:54:00Z,44.37,-89.83,6.7,2.2,100,6,,10.0,30.029528,1016.9,,TRUE,TRUE,,,,,,,CLR,,,,,,,,VFR,,,,,,,,,,,,METAR,311.0
KIPT 170754Z AUTO VRB04KT 10SM BKN027 11/04 A2971 RMK AO2 SLP059 T01060044 $,KIPT,2023-05-17T07:54:00Z,41.25,-76.92,10.6,4.4,0,4,,10.0,29.71063,1005.9,,TRUE,TRUE,TRUE,,,,,,BKN,2700,,,,,,,MVFR,,,,,,,,,,,,METAR,160.0
KINT 170754Z AUTO 30004KT 10SM FEW100 19/18 A2973 RMK AO2 SLP057 T01890178,KINT,2023-05-17T07:54:00Z,36.13,-80.22,18.9,17.8,300,4,,10.0,29.731298,1005.7,,TRUE,TRUE,,,,,,,FEW,10000,,,,,,,VFR,,,,,,,,,,,,METAR,292.0
KINL 170754Z AUTO 16004KT 10SM OVC120 08/03 A2997 RMK AO2 SLP153 T00830028,KINL,2023-05-17T07:54:00Z,48.57,-93.4,8.3,2.8,160,4,,10.0,29.970472,1015.3,,TRUE,TRUE,,,,,,,OVC,12000,,,,,,,VFR,,,,,,,,,,,,METAR,353.0
KIND 170754Z 28004KT 10SM CLR 12/11 A2984 RMK AO2 SLP104 T01170111,KIND,2023-05-17T07:54:00Z,39.72,-86.27,11.7,11.1,280,4,,10.0,29.840551,1010.4,,,TRUE,,,,,,,CLR,,,,,,,,VFR,,,,,,,,,,,,METAR,242.0
KIMT 170754Z AUTO 00000KT 10SM CLR M01/M04 A3003 RMK AO2 SLP176 T10111039,KIMT,2023-05-17T07:54:00Z,45.82,-88.12,-1.1,-3.9,0,0,,10.0,30.029528,1017.6,,TRUE,TRUE,,,,,,,CLR,,,,,,,,VFR,,,,,,,,,,,,METAR,343.0
KILN 170754Z AUTO 31007KT 7SM CLR 13/11 A2982 RMK AO2 SLP099 T01280106,KILN,2023-05-17T07:54:00Z,39.43,-83.8,12.8,10.6,310,7,,7.0,29.819881,1009.9,,TRUE,TRUE,,,,,,,CLR,,,,,,,,VFR,,,,,,,,,,,,METAR,325.0
KHWD 170754Z AUTO 33008KT 10SM BKN008 12/11 A2999 RMK AO2 CIG 005V009 SLP166 T01220111 402500117,KHWD,2023-05-17T07:54:00Z,37.67,-122.12,12.2,11.1,330,8,,10.0,29.991142,1016.6,,TRUE,TRUE,,,,,,,BKN,800,,,,,,,IFR,,,,25.0,11.7,,,,,,,METAR,9.0
KGSO 170754Z 26003KT 10SM SCT043 BKN100 BKN220 18/17 A2971 RMK AO2 SLP051 T01780172 $,KGSO,2023-05-17T07:54:00Z,36.1,-79.95,17.8,17.2,260,3,,10.0,29.71063,1005.1,,,TRUE,TRUE,,,,,,SCT,4300,BKN,10000,BKN,22000,,,VFR,,,,,,,,,,,,METAR,275.0
KGED 170754Z AUTO 24004KT 10SM OVC110 21/16 A2960 RMK AO2 SLP021 T02060161,KGED,2023-05-17T07:54:00Z,38.68,-75.37,20.6,16.1,240,4,,10.0,29.601377,1002.1,,TRUE,TRUE,,,,,,,OVC,11000,,,,,,,VFR,,,,,,,,,,,,METAR,15.0
KGCN 170754Z 00000KT 10SM CLR 06/04 A3024 RMK AO2 SLP174 T00610039,KGCN,2023-05-17T07:54:00Z,35.95,-112.15,6.1,3.9,0,0,,10.0,30.239174,1017.4,,,TRUE,,,,,,,CLR,,,,,,,,VFR,,,,,,,,,,,,METAR,1993.0
KGCK 170754Z AUTO 16006KT 9SM CLR 13/12 A3002 RMK AO2 SLP145 T01330117,KGCK,2023-05-17T07:54:00Z,37.92,-100.72,13.3,11.7,160,6,,9.0,30.02067,1014.5,,TRUE,TRUE,,,,,,,CLR,,,,,,,,VFR,,,,,,,,,,,,METAR,877.0
KFZY 170754Z AUTO 01007G16KT 10SM OVC037 05/M02 A2982 RMK AO2 SLP098 T00501017,KFZY,2023-05-17T07:54:00Z,43.35,-76.38,5.0,-1.7,10,7,16,10.0,29.819881,1009.8,,TRUE,TRUE,,,,,,,OVC,3700,,,,,,,VFR,,,,,,,,,,,,METAR,143.0
KFWA 170754Z 07009KT 10SM FEW090 11/07 A2988 RMK AO2 SLP115 T01110067,KFWA,2023-05-17T07:54:00Z,40.98,-85.2,11.1,6.7,70,9,,10.0,29.878937,1011.5,,,TRUE,,,,,,,FEW,9000,,,,,,,VFR,,,,,,,,,,,,METAR,243.0
KFIG 170754Z AUTO 34006KT 10SM CLR 11/04 A2971 RMK AO2 SLP055 T01060039,KFIG,2023-05-17T07:54:00Z,41.05,-78.42,10.6,3.9,340,6,,10.0,29.71063,1005.5,,TRUE,TRUE,,,,,,,CLR,,,,,,,,VFR,,,,,,,,,,,,METAR,461.0
KFFZ 170754Z 08003KT 10SM CLR 26/12 A2991 RMK AO2 SLP103 T02560122,KFFZ,2023-05-17T07:54:00Z,33.47,-111.72,25.6,12.2,80,3,,10.0,29.911417,1010.3,,,TRUE,,,,,,,CLR,,,,,,,,VFR,,,,,,,,,,,,METAR,420.0
KEVV 170754Z AUTO 25003KT 10SM CLR 13/12 A2987 RMK AO2 SLP114 T01330122 $,KEVV,2023-05-17T07:54:00Z,38.05,-87.52,13.3,12.2,250,3,,10.0,29.870079,1011.4,,TRUE,TRUE,TRUE,,,,,,CLR,,,,,,,,VFR,,,,,,,,,,,,METAR,123.0
KEUG 170754Z AUTO 20005KT 10SM CLR 16/12 A3003 RMK AO2 SLP168 T01610122 402940106,KEUG,2023-05-17T07:54:00Z,44.13,-123.22,16.1,12.2,200,5,,10.0,30.029528,1016.8,,TRUE,TRUE,,,,,,,CLR,,,,,,,,VFR,,,,29.4,10.6,,,,,,,METAR,109.0
KEFD 170754Z 27004KT 10SM FEW050 21/19 A2989,KEFD,2023-05-17T07:54:00Z,29.6,-95.17,21.0,19.0,270,4,,10.0,29.890747,,,,,,,,,,,FEW,5000,,,,,,,VFR,,,,,,,,,,,,SPECI,9.0
KECG 170754Z AUTO 26011KT 10SM -RA SCT015 SCT034 BKN110 20/19 A2964 RMK AO2 RAB09 SLP036 P0002 T02000189,KECG,2023-05-17T07:54:00Z,36.27,-76.18,20.0,18.9,260,11,,10.0,29.639763,1003.6,,TRUE,TRUE,,,,,,-RA,SCT,1500,SCT,3400,BKN,11000,,,VFR,,,,,,0.02,,,,,,METAR,2.0
KDYL 170754Z AUTO 34005KT 10SM FEW100 17/04 A2959 RMK AO2 SLP014 T01720039,KDYL,2023-05-17T07:54:00Z,40.33,-75.12,17.2,3.9,340,5,,10.0,29.589567,1001.4,,TRUE,TRUE,,,,,,,FEW,10000,,,,,,,VFR,,,,,,,,,,,,METAR,121.0
KDSV 170754Z AUTO 34009KT 10SM OVC023 07/02 A2982 RMK AO2 SLP105 T00720022,KDSV,2023-05-17T07:54:00Z,42.57,-77.72,7.2,2.2,340,9,,10.0,29.819881,1010.5,,TRUE,TRUE,,,,,,,OVC,2300,,,,,,,MVFR,,,,,,,,,,,,METAR,195.0
KDSM 170754Z 23003KT 10SM FEW250 13/09 A2991 RMK AO2 SLP124 T01280094,KDSM,2023-05-17T07:54:00Z,41.53,-93.67,12.8,9.4,230,3,,10.0,29.911417,1012.4,,,TRUE,,,,,,,FEW,25000,,,,,,,VFR,,,,,,,,,,,,METAR,286.0
KDMH 170754Z AUTO 19/11 A2962 RMK AO1 SLP029 T01940111,KDMH,2023-05-17T07:54:00Z,39.28,-76.62,19.4,11.1,,,,,29.619095,1002.9,,TRUE,TRUE,,,,,,,,,,,,,,,,,,,,,,,,,,,METAR,4.0
KDEC 170754Z AUTO 34008KT 10SM CLR 13/12 A2988 RMK AO2 SLP116 T01330122,KDEC,2023-05-17T07:54:00Z,39.83,-88.87,13.3,12.2,340,8,,10.0,29.878937,1011.6,,TRUE,TRUE,,,,,,,CLR,,,,,,,,VFR,,,,,,,,,,,,METAR,205.0
KDDH 170754Z AUTO 33006KT 10SM OVC044 07/ A2966 RMK AO2 SLP044 T0067 $,KDDH,2023-05-17T07:54:00Z,42.9,-73.25,6.7,,330,6,,10.0,29.660433,1004.4,,TRUE,TRUE,TRUE,,,,,,OVC,4400,,,,,,,VFR,,,,,,,,,,,,METAR,241.0
KCRW 170754Z 22005KT 2 1/2SM BR FEW000 BKN005 14/14 A2980 RMK AO2 SLP086 FG FEW000 T01390139,KCRW,2023-05-17T07:54:00Z,38.38,-81.58,13.9,13.9,220,5,,2.5,29.799213,1008.6,,,TRUE,,,,,,BR,FEW,0,BKN,500,,,,,IFR,,,,,,,,,,,,METAR,278.0
KCOU 170754Z AUTO 27004KT 6SM BR CLR 14/13 A2992 RMK AO2 SLP127 T01440133,KCOU,2023-05-17T07:54:00Z,38.82,-92.22,14.4,13.3,270,4,,6.0,29.920275,1012.7,,TRUE,TRUE,,,,,,BR,CLR,,,,,,,,VFR,,,,,,,,,,,,METAR,272.0
KCOS 170754Z 35003KT 10SM BKN100 13/09 A3019 RMK AO2 SLP146 T01330089 $,KCOS,2023-05-17T07:54:00Z,38.82,-104.68,13.3,8.9,350,3,,10.0,30.188976,1014.6,,,TRUE,TRUE,,,,,,BKN,10000,,,,,,,VFR,,,,,,,,,,,,METAR,1886.0
KCEU 170754Z AUTO 26009KT 10SM CLR 19/18 A2977 RMK AO2 SLP069 T01940183,KCEU,2023-05-17T07:54:00Z,34.67,-82.88,19.4,18.3,260,9,,10.0,29.769686,1006.9,,TRUE,TRUE,,,,,,,CLR,,,,,,,,VFR,,,,,,,,,,,,METAR,270.0
KCAR 170754Z AUTO 33009G17KT 10SM OVC075 03/M04 A2952 RMK AO2 SLP002 T00281039,KCAR,2023-05-17T07:54:00Z,46.87,-68.02,2.8,-3.9,330,9,17,10.0,29.518702,1000.2,,TRUE,TRUE,,,,,,,OVC,7500,,,,,,,VFR,,,,,,,,,,,,METAR,189.0
KBWI 170754Z 29007KT 10SM BKN180 BKN250 18/12 A2961 RMK AO2 SLP026 T01780122,KBWI,2023-05-17T07:54:00Z,39.17,-76.68,17.8,12.2,290,7,,10.0,29.610237,1002.6,,,TRUE,,,,,,,BKN,18000,BKN,25000,,,,,VFR,,,,,,,,,,,,METAR,42.0
KBUY 170754Z AUTO 00000KT 10SM FEW050 OVC100 19/18 A2970 RMK AO2 SLP051 T01890183,KBUY,2023-05-17T07:54:00Z,36.05,-79.47,18.9,18.3,0,0,,10.0,29.698818,1005.1,,TRUE,TRUE,,,,,,,FEW,5000,OVC,10000,,,,,VFR,,,,,,,,,,,,METAR,185.0
KBUF 170754Z 03009KT 10SM OVC033 06/M01 A2984 RMK AO2 SLP106 T00611006 $,KBUF,2023-05-17T07:54:00Z,42.93,-78.73,6.1,-0.6,30,9,,10.0,29.840551,1010.6,,,TRUE,TRUE,,,,,,OVC,3300,,,,,,,VFR,,,,,,,,,,,,METAR,217.0
KBOS 170754Z 36011KT 10SM OVC085 14/07 A2957 RMK AO2 SLP013 T01390072,KBOS,2023-05-17T07:54:00Z,42.37,-71.02,13.9,7.2,360,11,,10.0,29.568897,1001.3,,,TRUE,,,,,,,OVC,8500,,,,,,,VFR,,,,,,,,,,,,METAR,4.0
KBFL 170754Z 00000KT 9SM CLR 25/12 A2992 RMK AO2 SLP126 T02500117 403440194,KBFL,2023-05-17T07:54:00Z,35.43,-119.05,25.0,11.7,0,0,,9.0,29.920275,1012.6,,,TRUE,,,,,,,CLR,,,,,,,,VFR,,,,34.4,19.4,,,,,,,METAR,146.0
KAVL 170754Z AUTO 34007KT 10SM CLR 17/16 A2981 RMK AO2 SLP067 T01720161,KAVL,2023-05-17T07:54:00Z,35.43,-82.53,17.2,16.1,340,7,,10.0,29.811024,1006.7,,TRUE,TRUE,,,,,,,CLR,,,,,,,,VFR,,,,,,,,,,,,METAR,646.0
KAUW 170754Z AUTO 06003KT 10SM CLR 06/M02 A3001 RMK AO2 SLP167 T00561022,KAUW,2023-05-17T07:54:00Z,44.93,-89.62,5.6,-2.2,60,3,,10.0,30.008858,1016.7,,TRUE,TRUE,,,,,,,CLR,,,,,,,,VFR,,,,,,,,,,,,METAR,367.0
KAPN 170754Z AUTO 05009KT 10SM CLR 02/M02 A3001 RMK AO2 SLP164 T00221017,KAPN,2023-05-17T07:54:00Z,45.07,-83.57,2.2,-1.7,50,9,,10.0,30.008858,1016.4,,TRUE,TRUE,,,,,,,CLR,,,,,,,,VFR,,,,,,,,,,,,METAR,208.0
KAPC 170754Z AUTO 23006KT 10SM CLR 13/11 A2998 RMK AO2 SLP142 T01280106 402670111,KAPC,2023-05-17T07:54:00Z,38.2,-122.28,12.8,10.6,230,6,,10.0,29.97933,1014.2,,TRUE,TRUE,,,,,,,CLR,,,,,,,,VFR,,,,26.7,11.1,,,,,,,METAR,5.0
KALO 170754Z AUTO 06007KT 10SM OVC080 15/10 A2990 RMK AO2 SLP121 T01500100,KALO,2023-05-17T07:54:00Z,42.55,-92.4,15.0,10.0,60,7,,10.0,29.899607,1012.1,,TRUE,TRUE,,,,,,,OVC,8000,,,,,,,VFR,,,,,,,,,,,,METAR,264.0
KAKR 170754Z AUTO 36009KT 10SM CLR 12/03 A2980 RMK AO2 SLP086 T01220028,KAKR,2023-05-17T07:54:00Z,41.03,-81.47,12.2,2.8,360,9,,10.0,29.799213,1008.6,,TRUE,TRUE,,,,,,,CLR,,,,,,,,VFR,,,,,,,,,,,,METAR,319.0
KACY 170754Z 29007KT 10SM CLR 18/13 A2956 RMK AO2 SLP010 T01780133,KACY,2023-05-17T07:54:00Z,39.45,-74.57,17.8,13.3,290,7,,10.0,29.56004,1001.0,,,TRUE,,,,,,,CLR,,,,,,,,VFR,,,,,,,,,,,,METAR,18.0
KAAO 170754Z AUTO 00000KT 6SM BR CLR 14/12 A2999 RMK AO2 SLP150 T01390122,KAAO,2023-05-17T07:54:00Z,37.75,-97.22,13.9,12.2,0,0,,6.0,29.991142,1015.0,,TRUE,TRUE,,,,,,BR,CLR,,,,,,,,VFR,,,,,,,,,,,,METAR,429.0
K1V4 170754Z AUTO 05/01 A2964 RMK AO1 SLP035 T00500006,K1V4,2023-05-17T07:54:00Z,44.42,-72.02,5.0,0.6,,,,,29.639763,1003.5,,TRUE,TRUE,,,,,,,,,,,,,,,,,,,,,,,,,,,METAR,213.0
K12N 170754Z AUTO 35006G14KT 15/05 A2962 RMK AO1 SLP023 T01500050,K12N,2023-05-17T07:54:00Z,41.02,-74.73,15.0,5.0,350,6,14,,29.619095,1002.3,,TRUE,TRUE,,,,,,,,,,,,,,,,,,,,,,,,,,,METAR,178.0
TJNR 170753Z AUTO 22003KT 10SM FEW021 24/23 A2996 RMK AO2 SLP146 T02440233,TJNR,2023-05-17T07:53:00Z,18.25,-65.63,24.4,23.3,220,3,,10.0,29.958662,1014.6,,TRUE,TRUE,,,,,,,FEW,2100,,,,,,,VFR,,,,,,,,,,,,METAR,7.0
TISX 170753Z AUTO 10007KT 10SM FEW021 OVC070 27/23 A2995 RMK AO2 SLP141 T02670228,TISX,2023-05-17T07:53:00Z,17.7,-64.8,26.7,22.8,100,7,,10.0,29.949802,1014.1,,TRUE,TRUE,,,,,,,FEW,2100,OVC,7000,,,,,VFR,,,,,,,,,,,,METAR,16.0
PTTP 170753Z 12007KT 12SM -SHRA BKN017TCU OVC120 27/26 A2986 RMK SHRAB23 TCU ALQDS SLP110 T02650256,PTTP,2023-05-17T07:53:00Z,6.97,158.22,26.5,25.6,120,7,,12.0,29.861221,1011.0,,,,,,,,,-SHRA,BKN,1700,OVC,12000,,,,,MVFR,,,,,,,,,,,,METAR,36.0
PHTO 170753Z 25007KT 10SM BKN047 OVC060 21/19 A3014 RMK AO2 SLP205 T02060194,PHTO,2023-05-17T07:53:00Z,19.72,-155.05,20.6,19.4,250,7,,10.0,30.138779,1020.5,,,TRUE,,,,,,,BKN,4700,OVC,6000,,,,,VFR,,,,,,,,,,,,METAR,9.0
PHNL 170753Z 10005KT 10SM FEW025 SCT050 23/18 A3010 RMK AO2 SLP194 T02330183,PHNL,2023-05-17T07:53:00Z,21.33,-157.93,23.3,18.3,100,5,,10.0,30.100393,1019.4,,,TRUE,,,,,,,FEW,2500,SCT,5000,,,,,VFR,,,,,,,,,,,,METAR,2.0
PHKO 170753Z 13008KT 10SM CLR 26/19 A3010 RMK AO2 SLP191 T02560194,PHKO,2023-05-17T07:53:00Z,19.73,-156.05,25.6,19.4,130,8,,10.0,30.100393,1019.1,,,TRUE,,,,,,,CLR,,,,,,,,VFR,,,,,,,,,,,,METAR,11.0
PHJR 170753Z AUTO 03004KT 10SM SCT060 22/17 A3012 RMK AO2 SLP205 T02220167 TSNO,PHJR,2023-05-17T07:53:00Z,21.32,-158.07,22.2,16.7,30,4,,10.0,30.121063,1020.5,,TRUE,TRUE,,,TRUE,,,,SCT,6000,,,,,,,VFR,,,,,,,,,,,,METAR,9.0
PAYA 170753Z AUTO 00000KT 10SM CLR 08/05 A3022 RMK AO2 SLP232 T00780050 TSNO,PAYA,2023-05-17T07:53:00Z,59.52,-139.67,7.8,5.0,0,0,,10.0,30.221457,1023.2,,TRUE,TRUE,,,TRUE,,,,CLR,,,,,,,,VFR,,,,,,,,,,,,METAR,9.0
PAWI 170753Z AUTO 06014KT 10SM OVC011 M07/M09 A3026 RMK AO2 SLP249 T10671094 TSNO $,PAWI,2023-05-17T07:53:00Z,70.63,-160.02,-6.7,-9.4,60,14,,10.0,30.259842,1024.9,,TRUE,TRUE,TRUE,,TRUE,,,,OVC,1100,,,,,,,MVFR,,,,,,,,,,,,SPECI,12.0
PAWD 170753Z AUTO 00000KT 10SM SCT015 OVC024 06/02 A3029 RMK AO2 SLP256 T00560022 TSNO,PAWD,2023-05-17T07:53:00Z,60.12,-149.42,5.6,2.2,0,0,,10.0,30.28937,1025.6,,TRUE,TRUE,,,TRUE,,,,SCT,1500,OVC,2400,,,,,MVFR,,,,,,,,,,,,SPECI,3.0
PATK 170753Z AUTO 13005KT 10SM OVC031 07/03 A3025 RMK AO2 SLP247 T00670028 TSNO,PATK,2023-05-17T07:53:00Z,62.32,-150.1,6.7,2.8,130,5,,10.0,30.250984,1024.7,,TRUE,TRUE,,,TRUE,,,,OVC,3100,,,,,,,VFR,,,,,,,,,,,,METAR,107.0
PASO 170753Z AUTO VRB04KT 10SM CLR 04/02 A3025 RMK AO2 SLP243 T00440017 TSNO,PASO,2023-05-17T07:53:00Z,59.45,-151.7,4.4,1.7,0,4,,10.0,30.250984,1024.3,,TRUE,TRUE,,,TRUE,,,,CLR,,,,,,,,VFR,,,,,,,,,,,,SPECI,20.0
PASN 170753Z AUTO 31017G22KT 10SM OVC017 M01/M04 A3020 RMK AO2 SLP226 T10111044 TSNO $,PASN,2023-05-17T07:53:00Z,57.15,-170.22,-1.1,-4.4,310,17,22,10.0,30.200787,1022.6,,TRUE,TRUE,TRUE,,TRUE,,,,OVC,1700,,,,,,,MVFR,,,,,,,,,,,,METAR,8.0
PASI 170753Z 34004KT 10SM CLR 11/07 A3011 RMK AO2 SLP196 T01110072 $,PASI,2023-05-17T07:53:00Z,57.03,-135.35,11.1,7.2,340,4,,10.0,30.109253,1019.6,,,TRUE,TRUE,,,,,,CLR,,,,,,,,VFR,,,,,,,,,,,,METAR,2.0
PAQT 170753Z AUTO 05014KT 10SM OVC007 M06/M07 A3024 RMK AO2 SLP242 T10561072 $,PAQT,2023-05-17T07:53:00Z,70.22,-151.0,-5.6,-7.2,50,14,,10.0,30.239174,1024.2,,TRUE,TRUE,TRUE,,,,,,OVC,700,,,,,,,IFR,,,,,,,,,,,,METAR,11.0
PAPB 170753Z AUTO 31017G22KT 10SM OVC021 A3020 RMK AO2 SLPNO TSNO $,PAPB,2023-05-17T07:53:00Z,56.58,-169.67,,,310,17,22,10.0,30.200787,,,TRUE,TRUE,TRUE,,TRUE,,,,OVC,2100,,,,,,,MVFR,,,,,,,,,,,,METAR,33.0
PAOT 170753Z AUTO 15007KT 10SM CLR M01/M01 A2998 RMK AO2 SLP153 T10061006 TSNO,PAOT,2023-05-17T07:53:00Z,66.88,-162.6,-0.6,-0.6,150,7,,10.0,29.97933,1015.3,,TRUE,TRUE,,,TRUE,,,,CLR,,,,,,,,VFR,,,,,,,,,,,,METAR,3.0
PAOR 170753Z 00000KT 10SM FEW110 08/01 A3006 RMK AO2 SLP184 T00780011,PAOR,2023-05-17T07:53:00Z,62.97,-141.93,7.8,1.1,0,0,,10.0,30.059055,1018.4,,,TRUE,,,,,,,FEW,11000,,,,,,,VFR,,,,,,,,,,,,METAR,524.0
PANN 170753Z AUTO 00000KT 10SM 07/05 A3013 RMK AO2 RAE0659B15E44 SLP209 T00670050 TSNO PNO $,PANN,2023-05-17T07:53:00Z,64.55,-149.08,6.7,5.0,0,0,,10.0,30.129921,1020.9,,TRUE,TRUE,TRUE,,TRUE,,,,,,,,,,,,,,,,,,,,,,,,SPECI,110.0
PANC 170753Z 14003KT 10SM FEW041 SCT050 06/00 A3024 RMK AO2 SLP243 T00560000,PANC,2023-05-17T07:53:00Z,61.17,-150.02,5.6,0.0,140,3,,10.0,30.239174,1024.3,,,TRUE,,,,,,,FEW,4100,SCT,5000,,,,,VFR,,,,,,,,,,,,METAR,39.0
PAMR 170753Z AUTO 02003KT 10SM FEW033 07/M01 A3025 RMK AO2 SLP244 T00671006 TSNO,PAMR,2023-05-17T07:53:00Z,61.22,-149.85,6.7,-0.6,20,3,,10.0,30.250984,1024.4,,TRUE,TRUE,,,TRUE,,,,FEW,3300,,,,,,,VFR,,,,,,,,,,,,SPECI,43.0
PAMC 170753Z AUTO 17006KT 10SM OVC100 06/M02 A3013 RMK AO2 SLP208 T00561022 TSNO,PAMC,2023-05-17T07:53:00Z,62.97,-155.62,5.6,-2.2,170,6,,10.0,30.129921,1020.8,,TRUE,TRUE,,,TRUE,,,,OVC,10000,,,,,,,VFR,,,,,,,,,,,,METAR,101.0
PALH 170753Z 00000KT 10SM FEW055 05/02 A3026 RMK AO2 SLP246 T00500017,PALH,2023-05-17T07:53:00Z,61.18,-149.97,5.0,1.7,0,0,,10.0,30.259842,1024.6,,,TRUE,,,,,,,FEW,5500,,,,,,,VFR,,,,,,,,,,,,SPECI,26.0
PAKW 170753Z AUTO 22003KT 10SM CLR 10/07 A3009 RMK AO2 SLP187 T01000067 TSNO,PAKW,2023-05-17T07:53:00Z,55.58,-133.07,10.0,6.7,220,3,,10.0,30.088583,1018.7,,TRUE,TRUE,,,TRUE,,,,CLR,,,,,,,,VFR,,,,,,,,,,,,METAR,7.0
PAKV 170753Z AUTO 00000KT 10SM OVC075 02/01 A3008 RMK AO2 SLP190 T00170011 TSNO,PAKV,2023-05-17T07:53:00Z,64.33,-158.72,1.7,1.1,0,0,,10.0,30.079725,1019.0,,TRUE,TRUE,,,TRUE,,,,OVC,7500,,,,,,,VFR,,,,,,,,,,,,SPECI,53.0
PAKT 170753Z AUTO 13006KT 10SM CLR 12/09 A3011 RMK AO2 SLP198 T01170094 TSNO,PAKT,2023-05-17T07:53:00Z,55.35,-131.72,11.7,9.4,130,6,,10.0,30.109253,1019.8,,TRUE,TRUE,,,TRUE,,,,CLR,,,,,,,,VFR,,,,,,,,,,,,METAR,27.0
PAJN 170753Z 00000KT 10SM FEW260 10/05 A3013 RMK AO2 SLP203 T01000050,PAJN,2023-05-17T07:53:00Z,58.35,-134.55,10.0,5.0,0,0,,10.0,30.129921,1020.3,,,TRUE,,,,,,,FEW,26000,,,,,,,VFR,,,,,,,,,,,,METAR,6.0
PAHO 170753Z AUTO 29004KT 10SM CLR 06/01 A3025 RMK AO2 SLP244 T00560006 TSNO,PAHO,2023-05-17T07:53:00Z,59.63,-151.48,5.6,0.6,290,4,,10.0,30.250984,1024.4,,TRUE,TRUE,,,TRUE,,,,CLR,,,,,,,,VFR,,,,,,,,,,,,METAR,6.0
PAGY 170753Z AUTO 00000KT 10SM CLR 10/02 A3012 RMK AO2 SLP201 T01000022 TSNO,PAGY,2023-05-17T07:53:00Z,59.47,-135.32,10.0,2.2,0,0,,10.0,30.121063,1020.1,,TRUE,TRUE,,,TRUE,,,,CLR,,,,,,,,VFR,,,,,,,,,,,,METAR,7.0
PAGK 170753Z AUTO 17008KT 10SM CLR 07/01 A3018 RMK AO2 SLP230 T00670011 TSNO $,PAGK,2023-05-17T07:53:00Z,62.15,-145.45,6.7,1.1,170,8,,10.0,30.180119,1023.0,,TRUE,TRUE,TRUE,,TRUE,,,,CLR,,,,,,,,VFR,,,,,,,,,,,,METAR,481.0
PAFA 170753Z 25007KT 10SM FEW020 SCT055 BKN100 08/03 A3013 RMK AO2 RAE46 PRESRR SLP206 P0000 T00780033 $,PAFA,2023-05-17T07:53:00Z,64.8,-147.87,7.8,3.3,250,7,,10.0,30.129921,1020.6,,,TRUE,TRUE,,,,,,FEW,2000,SCT,5500,BKN,10000,,,VFR,,,,,,0.005,,,,,,METAR,130.0
PAEN 170753Z AUTO 20005KT 10SM OVC046 04/01 A3025 RMK AO2 SLP244 T00440011 TSNO,PAEN,2023-05-17T07:53:00Z,60.57,-151.25,4.4,1.1,200,5,,10.0,30.250984,1024.4,,TRUE,TRUE,,,TRUE,,,,OVC,4600,,,,,,,VFR,,,,,,,,,,,,METAR,30.0
PADQ 170753Z AUTO 27005KT 10SM CLR 03/M01 A3025 RMK AO2 SLP244 T00281011 TSNO $,PADQ,2023-05-17T07:53:00Z,57.75,-152.5,2.8,-1.1,270,5,,10.0,30.250984,1024.4,,TRUE,TRUE,TRUE,,TRUE,,,,CLR,,,,,,,,VFR,,,,,,,,,,,,METAR,5.0
PACV 170753Z 00000KT 10SM FEW041 06/04 A3027 RMK AO2 SLP249 T00560039,PACV,2023-05-17T07:53:00Z,60.5,-145.47,5.6,3.9,0,0,,10.0,30.268702,1024.9,,,TRUE,,,,,,,FEW,4100,,,,,,,VFR,,,,,,,,,,,,METAR,15.0
PACD 170753Z AUTO 29012KT 10SM SCT009 BKN015 OVC021 03/01 A3014 RMK AO2 RAE0655 SLP208 P0000 T00280011 TSNO,PACD,2023-05-17T07:53:00Z,55.22,-162.72,2.8,1.1,290,12,,10.0,30.138779,1020.8,,TRUE,TRUE,,,TRUE,,,,SCT,900,BKN,1500,OVC,2100,,,MVFR,,,,,,0.005,,,,,,METAR,23.0
PABT 170753Z 26006KT 10SM SCT048 OVC080 06/05 A3003 RMK AO2 RAE40 SLP178 P0001 T00560050 $,PABT,2023-05-17T07:53:00Z,66.92,-151.52,5.6,5.0,260,6,,10.0,30.029528,1017.8,,,TRUE,TRUE,,,,,,SCT,4800,OVC,8000,,,,,VFR,,,,,,0.01,,,,,,METAR,195.0
PABR 170753Z AUTO 06008KT 10SM OVC012 M07/M10 A3030 RMK AO2 SLP263 T10721100 TSNO,PABR,2023-05-17T07:53:00Z,71.28,-156.78,-7.2,-10.0,60,8,,10.0,30.301182,1026.3,,TRUE,TRUE,,,TRUE,,,,OVC,1200,,,,,,,MVFR,,,,,,,,,,,,METAR,6.0
PABI 170753Z AUTO 25007KT 10SM OVC070 10/01 A3010 RMK AO2 SLP197 T01000011 TSNO,PABI,2023-05-17T07:53:00Z,64.0,-145.72,10.0,1.1,250,7,,10.0,30.100393,1019.7,,TRUE,TRUE,,,TRUE,,,,OVC,7000,,,,,,,VFR,,,,,,,,,,,,METAR,388.0
KZZV 170753Z AUTO 33005KT 10SM FEW100 12/09 A2978 RMK AO2 SLP083 T01170089,KZZV,2023-05-17T07:53:00Z,39.95,-81.9,11.7,8.9,330,5,,10.0,29.778543,1008.3,,TRUE,TRUE,,,,,,,FEW,10000,,,,,,,VFR,,,,,,,,,,,,METAR,268.0
KYKM 170753Z AUTO 26005KT 10SM CLR 15/13 A3004 RMK AO2 SLP167 T01500133 402830144,KYKM,2023-05-17T07:53:00Z,46.57,-120.53,15.0,13.3,260,5,,10.0,30.041338,1016.7,,TRUE,TRUE,,,,,,,CLR,,,,,,,,VFR,,,,28.3,14.4,,,,,,,METAR,319.0
KYIP 170753Z 35005KT 10SM CLR 06/M01 A2991 RMK AO2 SLP125 T00611006,KYIP,2023-05-17T07:53:00Z,42.23,-83.53,6.1,-0.6,350,5,,10.0,29.911417,1012.5,,,TRUE,,,,,,,CLR,,,,,,,,VFR,,,,,,,,,,,,METAR,215.0
KXNA 170753Z AUTO 01005KT 10SM OVC007 16/15 A2995 RMK AO2 SLP133 T01610150,KXNA,2023-05-17T07:53:00Z,36.28,-94.3,16.1,15.0,10,5,,10.0,29.949802,1013.3,,TRUE,TRUE,,,,,,,OVC,700,,,,,,,IFR,,,,,,,,,,,,METAR,390.0
KWVI 170753Z AUTO 00000KT 7SM OVC003 12/11 A3000 RMK AO2 SLPNO T01170111 402170111,KWVI,2023-05-17T07:53:00Z,36.93,-121.78,11.7,11.1,0,0,,7.0,30.0,,,TRUE,TRUE,,,,,,,OVC,300,,,,,,,LIFR,,,,21.7,11.1,,,,,,,METAR,47.0
KWST 170753Z AUTO VRB06KT 10SM BKN110 16/08 A2952 RMK AO2 SLP996 T01560083,KWST,2023-05-17T07:53:00Z,41.35,-71.8,15.6,8.3,0,6,,10.0,29.518702,999.6,,TRUE,TRUE,,,,,,,BKN,11000,,,,,,,VFR,,,,,,,,,,,,SPECI,20.0
KWRL 170753Z AUTO 13003KT 10SM FEW110 16/06 A3003 RMK AO2 SLP130 T01560056,KWRL,2023-05-17T07:53:00Z,43.97,-107.95,15.6,5.6,130,3,,10.0,30.029528,1013.0,,TRUE,TRUE,,,,,,,FEW,11000,,,,,,,VFR,,,,,,,,,,,,METAR,1281.0
KVRB 170753Z AUTO 17003KT 10SM CLR 24/21 A2987 RMK AO2 SLP115 T02390206,KVRB,2023-05-17T07:53:00Z,27.65,-80.42,23.9,20.6,170,3,,10.0,29.870079,1011.5,,TRUE,TRUE,,,,,,,CLR,,,,,,,,VFR,,,,,,,,,,,,METAR,7.0
KVGT 170753Z AUTO 31004KT 10SM CLR 25/08 A2997 RMK AO2 SLP141 T02500083 403500244,KVGT,2023-05-17T07:53:00Z,36.22,-115.2,25.0,8.3,310,4,,10.0,29.970472,1014.1,,TRUE,TRUE,,,,,,,CLR,,,,,,,,VFR,,,,35.0,24.4,,,,,,,METAR,664.0
KVEL 170753Z AUTO 00000KT 10SM CLR 07/03 A3015 RMK AO2 SLP167 T00720033,KVEL,2023-05-17T07:53:00Z,40.45,-109.52,7.2,3.3,0,0,,10.0,30.15059,1016.7,,TRUE,TRUE,,,,,,,CLR,,,,,,,,VFR,,,,,,,,,,,,METAR,1604.0
KVCB 170753Z AUTO 00000KT 10SM CLR 18/10 A2992 RMK AO2 SLP128 T01780100 403390089,KVCB,2023-05-17T07:53:00Z,38.38,-121.95,17.8,10.0,0,0,,10.0,29.920275,1012.8,,TRUE,TRUE,,,,,,,CLR,,,,,,,,VFR,,,,33.9,8.9,,,,,,,SPECI,30.0
KUUU 170753Z AUTO 01010KT 10SM FEW110 14/11 A2952 RMK AO2 SLP993 T01390106,KUUU,2023-05-17T07:53:00Z,41.53,-71.28,13.9,10.6,10,10,,10.0,29.518702,999.3,,TRUE,TRUE,,,,,,,FEW,11000,,,,,,,VFR,,,,,,,,,,,,SPECI,45.0
KUTS 170753Z AUTO 00000KT 10SM CLR 21/19 A2991 RMK AO2 SLP124 T02110194,KUTS,2023-05-17T07:53:00Z,30.75,-95.58,21.1,19.4,0,0,,10.0,29.911417,1012.4,,TRUE,TRUE,,,,,,,CLR,,,,,,,,VFR,,,,,,,,,,,,METAR,103.0
KUNO 170753Z AUTO 00000KT 10SM OVC070 16/15 A2992 RMK AO2 SLP123 T01610150,KUNO,2023-05-17T07:53:00Z,36.88,-91.9,16.1,15.0,0,0,,10.0,29.920275,1012.3,,TRUE,TRUE,,,,,,,OVC,7000,,,,,,,VFR,,,,,,,,,,,,METAR,376.0
KUIL 170753Z AUTO 02003KT 10SM OVC006 13/11 A3009 RMK AO2 SLP189 T01330106 401720128,KUIL,2023-05-17T07:53:00Z,47.93,-124.55,13.3,10.6,20,3,,10.0,30.088583,1018.9,,TRUE,TRUE,,,,,,,OVC,600,,,,,,,IFR,,,,17.2,12.8,,,,,,,METAR,58.0
KUAO 170753Z 06004KT 10SM CLR 19/14 A3002 RMK AO2 SLP164 T01940139 402890161,KUAO,2023-05-17T07:53:00Z,45.25,-122.77,19.4,13.9,60,4,,10.0,30.02067,1016.4,,,TRUE,,,,,,,CLR,,,,,,,,VFR,,,,28.9,16.1,,,,,,,METAR,60.0
KTYR 170753Z AUTO 35005KT 10SM SCT040 19/17 A2991 RMK AO2 SLP123 T01890167,KTYR,2023-05-17T07:53:00Z,32.37,-95.4,18.9,16.7,350,5,,10.0,29.911417,1012.3,,TRUE,TRUE,,,,,,,SCT,4000,,,,,,,VFR,,,,,,,,,,,,METAR,161.0
KTXK 170753Z AUTO 27004KT 10SM CLR 19/16 A2989 RMK AO2 SLP116 T01890161,KTXK,2023-05-17T07:53:00Z,33.45,-93.98,18.9,16.1,270,4,,10.0,29.890747,1011.6,,TRUE,TRUE,,,,,,,CLR,,,,,,,,VFR,,,,,,,,,,,,METAR,118.0
KTWF 170753Z AUTO 20011KT 10SM CLR 14/06 A3010 RMK AO2 SLP144 T01390061 $,KTWF,2023-05-17T07:53:00Z,42.48,-114.48,13.9,6.1,200,11,,10.0,30.100393,1014.4,,TRUE,TRUE,TRUE,,,,,,CLR,,,,,,,,VFR,,,,,,,,,,,,METAR,1269.0
KTVR 170753Z AUTO 33003KT 10SM SCT049 BKN065 23/21 A2984 RMK AO2 SLP110 T02280206,KTVR,2023-05-17T07:53:00Z,32.35,-91.03,22.8,20.6,330,3,,10.0,29.840551,1011.0,,TRUE,TRUE,,,,,,,SCT,4900,BKN,6500,,,,,VFR,,,,,,,,,,,,METAR,25.0
KTVL 170753Z AUTO 00000KT 10SM CLR 06/02 A3023 RMK AO2 SLP197 T00560017 402220000,KTVL,2023-05-17T07:53:00Z,38.9,-120.0,5.6,1.7,0,0,,10.0,30.230314,1019.7,,TRUE,TRUE,,,,,,,CLR,,,,,,,,VFR,,,,22.2,,,,,,,,METAR,1907.0
KTVC 170753Z AUTO 01003KT 10SM CLR 06/01 A2998 RMK AO2 SLP153 T00610011,KTVC,2023-05-17T07:53:00Z,44.73,-85.58,6.1,1.1,10,3,,10.0,29.97933,1015.3,,TRUE,TRUE,,,,,,,CLR,,,,,,,,VFR,,,,,,,,,,,,METAR,188.0
KTUS 170753Z 08006KT 10SM CLR 25/10 A3001 RMK AO2 RAB00E09 SLP113 P0000 T02500100,KTUS,2023-05-17T07:53:00Z,32.13,-110.95,25.0,10.0,80,6,,10.0,30.008858,1011.3,,,TRUE,,,,,,,CLR,,,,,,,,VFR,,,,,,0.005,,,,,,METAR,776.0
KTUL 170753Z 04004KT 10SM OVC035 18/15 A2997 RMK AO2 SLP142 T01780150,KTUL,2023-05-17T07:53:00Z,36.2,-95.88,17.8,15.0,40,4,,10.0,29.970472,1014.2,,,TRUE,,,,,,,OVC,3500,,,,,,,VFR,,,,,,,,,,,,METAR,196.0
KTTN 170753Z AUTO 33006KT 10SM SCT100 17/06 A2957 RMK AO2 SLP007 T01670061,KTTN,2023-05-17T07:53:00Z,40.28,-74.82,16.7,6.1,330,6,,10.0,29.568897,1000.7,,TRUE,TRUE,,,,,,,SCT,10000,,,,,,,VFR,,,,,,,,,,,,METAR,58.0
KTTD 170753Z AUTO 00000KT 10SM CLR 19/13 A3001 RMK AO2 SLP162 T01940128 402940156,KTTD,2023-05-17T07:53:00Z,45.55,-122.42,19.4,12.8,0,0,,10.0,30.008858,1016.2,,TRUE,TRUE,,,,,,,CLR,,,,,,,,VFR,,,,29.4,15.6,,,,,,,METAR,8.0
KTRL 170753Z AUTO 00000KT 10SM CLR 17/14 A2993 RMK AO2 SLP132 T01670144,KTRL,2023-05-17T07:53:00Z,32.72,-96.27,16.7,14.4,0,0,,10.0,29.929134,1013.2,,TRUE,TRUE,,,,,,,CLR,,,,,,,,VFR,,,,,,,,,,,,METAR,144.0
KTRI 170753Z 31010KT 10SM BKN015 OVC047 18/17 A2982 RMK AO2 SLP071 T01830167 $,KTRI,2023-05-17T07:53:00Z,36.48,-82.4,18.3,16.7,310,10,,10.0,29.819881,1007.1,,,TRUE,TRUE,,,,,,BKN,1500,OVC,4700,,,,,MVFR,,,,,,,,,,,,METAR,456.0
KTPA 170753Z 00000KT 10SM CLR 24/22 A2989 RMK AO2 SLP121 T02440222,KTPA,2023-05-17T07:53:00Z,27.97,-82.53,24.4,22.2,0,0,,10.0,29.890747,1012.1,,,TRUE,,,,,,,CLR,,,,,,,,VFR,,,,,,,,,,,,METAR,2.0
KTOR 170753Z AUTO 07005KT 10SM CLR 11/08 A3003 RMK AO2 SLP130 T01060083,KTOR,2023-05-17T07:53:00Z,42.07,-104.15,10.6,8.3,70,5,,10.0,30.029528,1013.0,,TRUE,TRUE,,,,,,,CLR,,,,,,,,VFR,,,,,,,,,,,,SPECI,1285.0
KTMB 170753Z AUTO 25004KT 10SM CLR 24/22 A2990 RMK AO2 LTG DSNT E AND SW AND W SLP124 T02390222,KTMB,2023-05-17T07:53:00Z,25.65,-80.43,23.9,22.2,250,4,,10.0,29.899607,1012.4,,TRUE,TRUE,,,,,,,CLR,,,,,,,,VFR,,,,,,,,,,,,METAR,2.0
KTLH 170753Z 00000KT 8SM FEW002 22/21 A2984 RMK AO2 SLP104 T02170206,KTLH,2023-05-17T07:53:00Z,30.4,-84.35,21.7,20.6,0,0,,8.0,29.840551,1010.4,,,TRUE,,,,,,,FEW,200,,,,,,,VFR,,,,,,,,,,,,METAR,17.0
KTKI 170753Z AUTO 00000KT 10SM CLR 16/15 A2994 RMK AO2 SLP140 T01560150,KTKI,2023-05-17T07:53:00Z,33.18,-96.58,15.6,15.0,0,0,,10.0,29.940945,1014.0,,TRUE,TRUE,,,,,,,CLR,,,,,,,,VFR,,,,,,,,,,,,METAR,173.0
KTIW 170753Z AUTO 03003KT 10SM CLR 17/13 A3006 RMK AO2 SLP177 T01720128 402500128,KTIW,2023-05-17T07:53:00Z,47.27,-122.58,17.2,12.8,30,3,,10.0,30.059055,1017.7,,TRUE,TRUE,,,,,,,CLR,,,,,,,,VFR,,,,25.0,12.8,,,,,,,METAR,89.0
KTDZ 170753Z AUTO 04008KT 10SM CLR 11/01 A2989 RMK AO2 SLP119 T01110011,KTDZ,2023-05-17T07:53:00Z,41.57,-83.48,11.1,1.1,40,8,,10.0,29.890747,1011.9,,TRUE,TRUE,,,,,,,CLR,,,,,,,,VFR,,,,,,,,,,,,SPECI,189.0
KTCS 170753Z AUTO 30009KT 10SM FEW110 19/07 A3011 RMK AO2 SLP119 T01890067,KTCS,2023-05-17T07:53:00Z,33.23,-107.27,18.9,6.7,300,9,,10.0,30.109253,1011.9,,TRUE,TRUE,,,,,,,FEW,11000,,,,,,,VFR,,,,,,,,,,,,METAR,1471.0
KTCC 170753Z AUTO 25006KT 10SM CLR 13/11 A3006 RMK AO2 SLP131 T01280111,KTCC,2023-05-17T07:53:00Z,35.18,-103.6,12.8,11.1,250,6,,10.0,30.059055,1013.1,,TRUE,TRUE,,,,,,,CLR,,,,,,,,VFR,,,,,,,,,,,,METAR,1233.0
KSWO 170753Z 00000KT 10SM CLR 16/14 A2997 RMK AO2 SLP141 T01560144,KSWO,2023-05-17T07:53:00Z,36.17,-97.08,15.6,14.4,0,0,,10.0,29.970472,1014.1,,,TRUE,,,,,,,CLR,,,,,,,,VFR,,,,,,,,,,,,METAR,293.0
KSTS 170753Z AUTO 16004KT 3/4SM BR VV002 11/11 A2997 RMK AO2 SLP144 T01110106 402940111,KSTS,2023-05-17T07:53:00Z,38.5,-122.82,11.1,10.6,160,4,,0.75,29.970472,1014.4,,TRUE,TRUE,,,,,,BR,OVX,0,,,,,,,LIFR,,,,29.4,11.1,,,,,,200,METAR,35.0
KSTP 170753Z AUTO 09005KT 10SM CLR 12/05 A2998 RMK AO2 SLP147 T01220050,KSTP,2023-05-17T07:53:00Z,44.93,-93.05,12.2,5.0,90,5,,10.0,29.97933,1014.7,,TRUE,TRUE,,,,,,,CLR,,,,,,,,VFR,,,,,,,,,,,,METAR,213.0
KSTJ 170753Z AUTO 00000KT 6SM BR FEW100 13/13 A2994 RMK AO2 SLP136 T01330128,KSTJ,2023-05-17T07:53:00Z,39.77,-94.92,13.3,12.8,0,0,,6.0,29.940945,1013.6,,TRUE,TRUE,,,,,,BR,FEW,10000,,,,,,,VFR,,,,,,,,,,,,METAR,247.0
KSTC 170753Z AUTO 09004KT 10SM CLR 11/05 A2997 RMK AO2 SLP156 T01110050,KSTC,2023-05-17T07:53:00Z,45.55,-94.05,11.1,5.0,90,4,,10.0,29.970472,1015.6,,TRUE,TRUE,,,,,,,CLR,,,,,,,,VFR,,,,,,,,,,,,METAR,302.0
KSSI 170753Z AUTO 23009KT 10SM CLR 24/22 A2980 RMK AO2 SLP091 T02390217,KSSI,2023-05-17T07:53:00Z,31.15,-81.38,23.9,21.7,230,9,,10.0,29.799213,1009.1,,TRUE,TRUE,,,,,,,CLR,,,,,,,,VFR,,,,,,,,,,,,METAR,6.0
KSSF 170753Z AUTO 00000KT 10SM CLR 20/19 A2993 RMK AO2 SLP128 T02000189 $,KSSF,2023-05-17T07:53:00Z,29.33,-98.47,20.0,18.9,0,0,,10.0,29.929134,1012.8,,TRUE,TRUE,TRUE,,,,,,CLR,,,,,,,,VFR,,,,,,,,,,,,METAR,175.0
KSRQ 170753Z AUTO 33003KT 10SM CLR 24/22 A2986 RMK AO2 SLP111 T02440217,KSRQ,2023-05-17T07:53:00Z,27.4,-82.57,24.4,21.7,330,3,,10.0,29.861221,1011.1,,TRUE,TRUE,,,,,,,CLR,,,,,,,,VFR,,,,,,,,,,,,METAR,5.0
KSPW 170753Z AUTO 31005KT 10SM CLR 13/08 A2992 RMK AO2 SLP127 T01330078,KSPW,2023-05-17T07:53:00Z,43.17,-95.22,13.3,7.8,310,5,,10.0,29.920275,1012.7,,TRUE,TRUE,,,,,,,CLR,,,,,,,,VFR,,,,,,,,,,,,METAR,407.0
KSPG 170753Z AUTO 00000KT 10SM CLR 26/23 A2987 RMK AO2 SLP114 T02560228 $,KSPG,2023-05-17T07:53:00Z,27.77,-82.63,25.6,22.8,0,0,,10.0,29.870079,1011.4,,TRUE,TRUE,TRUE,,,,,,CLR,,,,,,,,VFR,,,,,,,,,,,,METAR,1.0
KSPB 170753Z AUTO 36003KT 10SM CLR 20/12 A3001 RMK AO2 SLP161 T02000117 402890144,KSPB,2023-05-17T07:53:00Z,45.77,-122.87,20.0,11.7,360,3,,10.0,30.008858,1016.1,,TRUE,TRUE,,,,,,,CLR,,,,,,,,VFR,,,,28.9,14.4,,,,,,,METAR,15.0
KSNY 170753Z AUTO 21004KT 9SM CLR 10/09 A3005 RMK AO2 SLP142 T01000089,KSNY,2023-05-17T07:53:00Z,41.1,-102.98,10.0,8.9,210,4,,9.0,30.050198,1014.2,,TRUE,TRUE,,,,,,,CLR,,,,,,,,VFR,,,,,,,,,,,,METAR,1307.0
KSNS 170753Z AUTO 33006KT 8SM OVC003 13/11 A2999 RMK AO2 SLP165 T01330111 402280128,KSNS,2023-05-17T07:53:00Z,36.67,-121.6,13.3,11.1,330,6,,8.0,29.991142,1016.5,,TRUE,TRUE,,,,,,,OVC,300,,,,,,,LIFR,,,,22.8,12.8,,,,,,,METAR,20.0
KSNA 170753Z AUTO 00000KT 10SM OVC009 16/13 A2998 RMK AO2 SLP150 T01560128 402280156,KSNA,2023-05-17T07:53:00Z,33.67,-117.87,15.6,12.8,0,0,,10.0,29.97933,1015.0,,TRUE,TRUE,,,,,,,OVC,900,,,,,,,IFR,,,,22.8,15.6,,,,,,,METAR,14.0
KSMQ 170753Z AUTO VRB04KT 10SM SCT100 13/10 A2957 RMK AO2 SLP013 T01330100 $,KSMQ,2023-05-17T07:53:00Z,40.62,-74.67,13.3,10.0,0,4,,10.0,29.568897,1001.3,,TRUE,TRUE,TRUE,,,,,,SCT,10000,,,,,,,VFR,,,,,,,,,,,,SPECI,30.0
KSMF 170753Z 15007KT 10SM CLR 19/12 A2990 RMK AO2 SLP124 T01940122 403440117,KSMF,2023-05-17T07:53:00Z,38.7,-121.6,19.4,12.2,150,7,,10.0,29.899607,1012.4,,,TRUE,,,,,,,CLR,,,,,,,,VFR,,,,34.4,11.7,,,,,,,METAR,7.0
KSLN 170753Z AUTO 00000KT 6SM BR CLR 13/12 A2999 RMK AO2 SLP152 T01280117,KSLN,2023-05-17T07:53:00Z,38.8,-97.65,12.8,11.7,0,0,,6.0,29.991142,1015.2,,TRUE,TRUE,,,,,,BR,CLR,,,,,,,,VFR,,,,,,,,,,,,METAR,377.0
KSIY 170753Z AUTO 03006KT 10SM CLR 15/08 A3007 RMK AO2 SLP172 T01500078 403000078,KSIY,2023-05-17T07:53:00Z,41.77,-122.47,15.0,7.8,30,6,,10.0,30.070866,1017.2,,TRUE,TRUE,,,,,,,CLR,,,,,,,,VFR,,,,30.0,7.8,,,,,,,METAR,807.0
KSHR 170753Z AUTO 16006KT 10SM CLR 13/05 A3001 RMK AO2 SLP135 T01330050,KSHR,2023-05-17T07:53:00Z,44.77,-106.97,13.3,5.0,160,6,,10.0,30.008858,1013.5,,TRUE,TRUE,,,,,,,CLR,,,,,,,,VFR,,,,,,,,,,,,METAR,1212.0
KSHN 170753Z AUTO 26007KT 10SM CLR 13/12 A3003 RMK AO2 SLP170 T01330117 402500128,KSHN,2023-05-17T07:53:00Z,47.23,-123.13,13.3,11.7,260,7,,10.0,30.029528,1017.0,,TRUE,TRUE,,,,,,,CLR,,,,,,,,VFR,,,,25.0,12.8,,,,,,,SPECI,84.0
KSFF 170753Z AUTO 01003KT 10SM CLR 14/12 A3007 RMK AO2 SLP171 T01390122 402560139,KSFF,2023-05-17T07:53:00Z,47.68,-117.32,13.9,12.2,10,3,,10.0,30.070866,1017.1,,TRUE,TRUE,,,,,,,CLR,,,,,,,,VFR,,,,25.6,13.9,,,,,,,METAR,593.0
KSFB 170753Z AUTO 22004KT 10SM FEW100 23/21 A2987 RMK AO2 SLP113 T02330206,KSFB,2023-05-17T07:53:00Z,28.77,-81.23,23.3,20.6,220,4,,10.0,29.870079,1011.3,,TRUE,TRUE,,,,,,,FEW,10000,,,,,,,VFR,,,,,,,,,,,,METAR,16.0
KSEG 170753Z AUTO 02010KT 10SM CLR 13/06 A2968 RMK AO2 SLP048 T01280056,KSEG,2023-05-17T07:53:00Z,40.82,-76.87,12.8,5.6,20,10,,10.0,29.681103,1004.8,,TRUE,TRUE,,,,,,,CLR,,,,,,,,VFR,,,,,,,,,,,,SPECI,136.0
KSEA 170753Z 01003KT 10SM FEW050 SCT120 BKN220 16/12 A3006 RMK AO2 SLP182 T01610117 402560128,KSEA,2023-05-17T07:53:00Z,47.45,-122.32,16.1,11.7,10,3,,10.0,30.059055,1018.2,,,TRUE,,,,,,,FEW,5000,SCT,12000,BKN,22000,,,VFR,,,,25.6,12.8,,,,,,,METAR,115.0
KSDM 170753Z AUTO 00000KT 9SM OVC006 14/12 A2997 RMK AO2 SLP145 T01440122 402220128,KSDM,2023-05-17T07:53:00Z,32.58,-117.0,14.4,12.2,0,0,,9.0,29.970472,1014.5,,TRUE,TRUE,,,,,,,OVC,600,,,,,,,IFR,,,,22.2,12.8,,,,,,,METAR,161.0
KSDL 170753Z AUTO 09004KT 10SM CLR 27/12 A2993 RMK AO2 SLP105 T02670117,KSDL,2023-05-17T07:53:00Z,33.62,-111.92,26.7,11.7,90,4,,10.0,29.929134,1010.5,,TRUE,TRUE,,,,,,,CLR,,,,,,,,VFR,,,,,,,,,,,,SPECI,438.0
KSBM 170753Z AUTO 01005KT 10SM CLR 05/M01 A3001 RMK AO2 SLP165 T00501006,KSBM,2023-05-17T07:53:00Z,43.78,-87.85,5.0,-0.6,10,5,,10.0,30.008858,1016.5,,TRUE,TRUE,,,,,,,CLR,,,,,,,,VFR,,,,,,,,,,,,SPECI,225.0
KSAV 170753Z AUTO 25006KT 10SM CLR 22/19 A2980 RMK AO2 SLP089 T02220194,KSAV,2023-05-17T07:53:00Z,32.12,-81.2,22.2,19.4,250,6,,10.0,29.799213,1008.9,,TRUE,TRUE,,,,,,,CLR,,,,,,,,VFR,,,,,,,,,,,,METAR,10.0
KSAF 170753Z AUTO 00000KT 10SM CLR 11/06 A3020 RMK AO2 SLP142 T01060056,KSAF,2023-05-17T07:53:00Z,35.62,-106.1,10.6,5.6,0,0,,10.0,30.200787,1014.2,,TRUE,TRUE,,,,,,,CLR,,,,,,,,VFR,,,,,,,,,,,,METAR,1918.0
KSAC 170753Z AUTO 15003KT 10SM CLR 17/11 A2992 RMK AO2 SLP130 T01670111 403440117 $,KSAC,2023-05-17T07:53:00Z,38.5,-121.5,16.7,11.1,150,3,,10.0,29.920275,1013.0,,TRUE,TRUE,TRUE,,,,,,CLR,,,,,,,,VFR,,,,34.4,11.7,,,,,,,METAR,5.0
KRXE 170753Z AUTO 05004KT 10SM CLR 11/06 A3015 RMK AO2 SLP176 T01110061,KRXE,2023-05-17T07:53:00Z,43.83,-111.8,11.1,6.1,50,4,,10.0,30.15059,1017.6,,TRUE,TRUE,,,,,,,CLR,,,,,,,,VFR,,,,,,,,,,,,SPECI,1483.0
KRWL 170753Z AUTO VRB05KT 10SM CLR 10/02 A3017 RMK AO2 SLP139 T01000017,KRWL,2023-05-17T07:53:00Z,41.8,-107.2,10.0,1.7,0,5,,10.0,30.171259,1013.9,,TRUE,TRUE,,,,,,,CLR,,,,,,,,VFR,,,,,,,,,,,,METAR,2066.0
KRWI 170753Z AUTO 21005KT 10SM SCT050 BKN100 19/18 A2968 RMK AO2 RAE0659B20E29 SLP050 P0001 T01940178 $,KRWI,2023-05-17T07:53:00Z,35.85,-77.9,19.4,17.8,210,5,,10.0,29.681103,1005.0,,TRUE,TRUE,TRUE,,,,,,SCT,5000,BKN,10000,,,,,VFR,,,,,,0.01,,,,,,METAR,46.0
KRWF 170753Z AUTO 08006KT 10SM CLR 15/09 A2992 RMK AO2 SLP129 T01500094,KRWF,2023-05-17T07:53:00Z,44.55,-95.08,15.0,9.4,80,6,,10.0,29.920275,1012.9,,TRUE,TRUE,,,,,,,CLR,,,,,,,,VFR,,,,,,,,,,,,METAR,312.0
KRVS 170753Z AUTO 02003KT 10SM OVC033 18/14 A2996 RMK AO2 SLP149 T01780144,KRVS,2023-05-17T07:53:00Z,36.05,-95.98,17.8,14.4,20,3,,10.0,29.958662,1014.9,,TRUE,TRUE,,,,,,,OVC,3300,,,,,,,VFR,,,,,,,,,,,,METAR,191.0
KRUE 170753Z AUTO 35006KT 10SM OVC032 21/17 A2989 RMK AO2 SLP113 T02060167,KRUE,2023-05-17T07:53:00Z,35.25,-93.1,20.6,16.7,350,6,,10.0,29.890747,1011.3,,TRUE,TRUE,,,,,,,OVC,3200,,,,,,,VFR,,,,,,,,,,,,METAR,119.0
KRTN 170753Z AUTO 08007KT 10SM BKN100 09/08 A3018 RMK AO2 SLP158 T00890083 $,KRTN,2023-05-17T07:53:00Z,36.73,-104.5,8.9,8.3,80,7,,10.0,30.180119,1015.8,,TRUE,TRUE,TRUE,,,,,,BKN,10000,,,,,,,VFR,,,,,,,,,,,,METAR,1939.0
KRSW 170753Z 00000KT 10SM SCT014 24/23 A2989 RMK AO2 SLP119 T02390228,KRSW,2023-05-17T07:53:00Z,26.53,-81.75,23.9,22.8,0,0,,10.0,29.890747,1011.9,,,TRUE,,,,,,,SCT,1400,,,,,,,VFR,,,,,,,,,,,,METAR,8.0
KRSL 170753Z AUTO 21006KT 10SM FEW120 13/11 A2999 RMK AO2 SLP149 T01280106,KRSL,2023-05-17T07:53:00Z,38.87,-98.82,12.8,10.6,210,6,,10.0,29.991142,1014.9,,TRUE,TRUE,,,,,,,FEW,12000,,,,,,,VFR,,,,,,,,,,,,METAR,569.0
KRQE 170753Z AUTO 00000KT 10SM CLR 10/04 A3022 RMK AO2 SLP140 T01000044,KRQE,2023-05-17T07:53:00Z,35.65,-109.07,10.0,4.4,0,0,,10.0,30.221457,1014.0,,TRUE,TRUE,,,,,,,CLR,,,,,,,,VFR,,,,,,,,,,,,METAR,2056.0
KRNT 170753Z AUTO 32005KT 10SM CLR 18/13 A3004 RMK AO2 SLP178 T01780133 402670150,KRNT,2023-05-17T07:53:00Z,47.5,-122.22,17.8,13.3,320,5,,10.0,30.041338,1017.8,,TRUE,TRUE,,,,,,,CLR,,,,,,,,VFR,,,,26.7,15.0,,,,,,,METAR,7.0
KRMG 170753Z AUTO VRB03KT 10SM SCT015 BKN035 OVC110 20/18 A2981 RMK AO2 SLP084 T02000183,KRMG,2023-05-17T07:53:00Z,34.35,-85.17,20.0,18.3,0,3,,10.0,29.811024,1008.4,,TRUE,TRUE,,,,,,,SCT,1500,BKN,3500,OVC,11000,,,VFR,,,,,,,,,,,,METAR,196.0
KRME 170753Z AUTO 36006KT 10SM OVC030 05/M01 A2978 RMK AO2 SLP084 T00501006,KRME,2023-05-17T07:53:00Z,43.22,-75.4,5.0,-0.6,360,6,,10.0,29.778543,1008.4,,TRUE,TRUE,,,,,,,OVC,3000,,,,,,,MVFR,,,,,,,,,,,,METAR,146.0
KRKP 170753Z AUTO 00000KT 8SM CLR 19/19 A2992 RMK AO2 SLP133 T01940194,KRKP,2023-05-17T07:53:00Z,28.08,-97.05,19.4,19.4,0,0,,8.0,29.920275,1013.3,,TRUE,TRUE,,,,,,,CLR,,,,,,,,VFR,,,,,,,,,,,,SPECI,8.0
KRIW 170753Z AUTO 33003KT 10SM CLR 12/03 A3012 RMK AO2 SLP149 T01170033,KRIW,2023-05-17T07:53:00Z,43.07,-108.43,11.7,3.3,330,3,,10.0,30.121063,1014.9,,TRUE,TRUE,,,,,,,CLR,,,,,,,,VFR,,,,,,,,,,,,METAR,1662.0
KRIL 170753Z AUTO 10003KT 10SM CLR 07/03 A3018 RMK AO2 SLP176 T00720033,KRIL,2023-05-17T07:53:00Z,39.53,-107.73,7.2,3.3,100,3,,10.0,30.180119,1017.6,,TRUE,TRUE,,,,,,,CLR,,,,,,,,VFR,,,,,,,,,,,,METAR,1683.0
KRHI 170753Z AUTO 10005KT 10SM CLR 02/M04 A3003 RMK AO2 SLP174 T00171039,KRHI,2023-05-17T07:53:00Z,45.63,-89.48,1.7,-3.9,100,5,,10.0,30.029528,1017.4,,TRUE,TRUE,,,,,,,CLR,,,,,,,,VFR,,,,,,,,,,,,METAR,493.0
KRDD 170753Z 36005KT 10SM CLR 19/12 A2993 RMK AO2 SLP128 T01940117 403390150,KRDD,2023-05-17T07:53:00Z,40.52,-122.3,19.4,11.7,360,5,,10.0,29.929134,1012.8,,,TRUE,,,,,,,CLR,,,,,,,,VFR,,,,33.9,15.0,,,,,,,METAR,152.0
KRBG 170753Z AUTO 01004KT 10SM CLR 18/11 A3003 RMK AO2 SLP166 T01830106 403110122,KRBG,2023-05-17T07:53:00Z,43.23,-123.35,18.3,10.6,10,4,,10.0,30.029528,1016.6,,TRUE,TRUE,,,,,,,CLR,,,,,,,,VFR,,,,31.1,12.2,,,,,,,METAR,152.0
KRBD 170753Z AUTO 00000KT 10SM CLR 17/15 A2993 RMK AO2 SLP130 T01720150,KRBD,2023-05-17T07:53:00Z,32.68,-96.87,17.2,15.0,0,0,,10.0,29.929134,1013.0,,TRUE,TRUE,,,,,,,CLR,,,,,,,,VFR,,,,,,,,,,,,METAR,200.0
KRAL 170753Z AUTO 27003KT 10SM CLR 17/12 A2997 RMK AO2 SLP133 T01670122 403110133,KRAL,2023-05-17T07:53:00Z,33.95,-117.45,16.7,12.2,270,3,,10.0,29.970472,1013.3,,TRUE,TRUE,,,,,,,CLR,,,,,,,,VFR,,,,31.1,13.3,,,,,,,METAR,254.0
KRAC 170753Z AUTO 01011KT 10SM CLR 07/02 A2999 RMK AO2 SLP155 T00670022,KRAC,2023-05-17T07:53:00Z,42.77,-87.82,6.7,2.2,10,11,,10.0,29.991142,1015.5,,TRUE,TRUE,,,,,,,CLR,,,,,,,,VFR,,,,,,,,,,,,METAR,203.0
KPWA 170753Z AUTO 00000KT 8SM CLR 13/12 A2998 RMK AO2 SLP145 T01280117,KPWA,2023-05-17T07:53:00Z,35.53,-97.65,12.8,11.7,0,0,,8.0,29.97933,1014.5,,TRUE,TRUE,,,,,,,CLR,,,,,,,,VFR,,,,,,,,,,,,METAR,390.0
KPUW 170753Z AUTO 00000KT 10SM CLR 12/11 A3009 RMK AO2 SLP181 T01220106 402330122,KPUW,2023-05-17T07:53:00Z,46.75,-117.12,12.2,10.6,0,0,,10.0,30.088583,1018.1,,TRUE,TRUE,,,,,,,CLR,,,,,,,,VFR,,,,23.3,12.2,,,,,,,METAR,774.0
KPUC 170753Z AUTO 00000KT 10SM CLR 12/01 A3016 RMK AO2 SLP155 T01170006,KPUC,2023-05-17T07:53:00Z,39.62,-110.75,11.7,0.6,0,0,,10.0,30.159449,1015.5,,TRUE,TRUE,,,,,,,CLR,,,,,,,,VFR,,,,,,,,,,,,SPECI,1777.0
KPUB 170753Z AUTO 28006KT 10SM BKN120 17/09 A3011 RMK AO2 SLP135 T01670094,KPUB,2023-05-17T07:53:00Z,38.28,-104.5,16.7,9.4,280,6,,10.0,30.109253,1013.5,,TRUE,TRUE,,,,,,,BKN,12000,,,,,,,VFR,,,,,,,,,,,,METAR,1441.0
KPTK 170753Z AUTO 36004KT 10SM CLR 05/00 A2992 RMK AO2 SLP129 T00500000 $,KPTK,2023-05-17T07:53:00Z,42.67,-83.42,5.0,0.0,360,4,,10.0,29.920275,1012.9,,TRUE,TRUE,TRUE,,,,,,CLR,,,,,,,,VFR,,,,,,,,,,,,METAR,295.0
KPSX 170753Z AUTO 21003KT 10SM 21/21 A2991 RMK AO2 SLP127 T02110206 $,KPSX,2023-05-17T07:53:00Z,28.72,-96.25,21.1,20.6,210,3,,10.0,29.911417,1012.7,,TRUE,TRUE,TRUE,,,,,,,,,,,,,,,,,,,,,,,,,,METAR,4.0
KPSP 170753Z AUTO 31007KT 10SM CLR 28/11 A2986 RMK AO2 SLP106 T02830106 404000239 $,KPSP,2023-05-17T07:53:00Z,33.82,-116.5,28.3,10.6,310,7,,10.0,29.861221,1010.6,,TRUE,TRUE,TRUE,,,,,,CLR,,,,,,,,VFR,,,,40.0,23.9,,,,,,,METAR,123.0
KPSC 170753Z AUTO 20004KT 10SM CLR 18/16 A3001 RMK AO2 SLP161 T01830156 402940178,KPSC,2023-05-17T07:53:00Z,46.27,-119.12,18.3,15.6,200,4,,10.0,30.008858,1016.1,,TRUE,TRUE,,,,,,,CLR,,,,,,,,VFR,,,,29.4,17.8,,,,,,,METAR,121.0
KPRC 170753Z AUTO 18004KT 10SM CLR 13/08 A3015 RMK AO2 SLP142 T01280083,KPRC,2023-05-17T07:53:00Z,34.65,-112.42,12.8,8.3,180,4,,10.0,30.15059,1014.2,,TRUE,TRUE,,,,,,,CLR,,,,,,,,VFR,,,,,,,,,,,,METAR,1528.0
KPRB 170753Z AUTO 00000KT 10SM CLR 14/10 A2997 RMK AO2 SLP140 T01440100 403500100,KPRB,2023-05-17T07:53:00Z,35.67,-120.63,14.4,10.0,0,0,,10.0,29.970472,1014.0,,TRUE,TRUE,,,,,,,CLR,,,,,,,,VFR,,,,35.0,10.0,,,,,,,METAR,249.0
KPQL 170753Z AUTO 00000KT 10SM FEW050 FEW090 SCT120 21/20 A2985 RMK AO2 RAB31E45 SLP109 P0000 T02110200,KPQL,2023-05-17T07:53:00Z,30.47,-88.53,21.1,20.0,0,0,,10.0,29.84941,1010.9,,TRUE,TRUE,,,,,,,FEW,5000,FEW,9000,SCT,12000,,,VFR,,,,,,0.005,,,,,,METAR,4.0
KPOU 170753Z AUTO 01010G17KT 10SM CLR 11/06 A2962 RMK AO2 SLP026 T01110061,KPOU,2023-05-17T07:53:00Z,41.63,-73.88,11.1,6.1,10,10,17,10.0,29.619095,1002.6,,TRUE,TRUE,,,,,,,CLR,,,,,,,,VFR,,,,,,,,,,,,METAR,45.0
KPOF 170753Z AUTO 34006KT 10SM OVC026 18/16 A2989 RMK AO2 SLP117 T01830156,KPOF,2023-05-17T07:53:00Z,36.77,-90.32,18.3,15.6,340,6,,10.0,29.890747,1011.7,,TRUE,TRUE,,,,,,,OVC,2600,,,,,,,MVFR,,,,,,,,,,,,METAR,99.0
KPNS 170753Z AUTO 22003KT 10SM FEW120 23/21 A2983 RMK AO2 SLP102 T02330206,KPNS,2023-05-17T07:53:00Z,30.48,-87.18,23.3,20.6,220,3,,10.0,29.828741,1010.2,,TRUE,TRUE,,,,,,,FEW,12000,,,,,,,VFR,,,,,,,,,,,,METAR,34.0
KPNC 170753Z AUTO 00000KT 10SM OVC032 17/14 A2998 RMK AO2 SLP143 T01670144,KPNC,2023-05-17T07:53:00Z,36.73,-97.1,16.7,14.4,0,0,,10.0,29.97933,1014.3,,TRUE,TRUE,,,,,,,OVC,3200,,,,,,,VFR,,,,,,,,,,,,METAR,304.0
KPMP 170753Z AUTO 25006KT 10SM CLR 26/22 A2989 RMK AO2 SLP121 T02560222,KPMP,2023-05-17T07:53:00Z,26.25,-80.12,25.6,22.2,250,6,,10.0,29.890747,1012.1,,TRUE,TRUE,,,,,,,CLR,,,,,,,,VFR,,,,,,,,,,,,METAR,4.0
KPMD 170753Z AUTO 20009KT 10SM CLR 20/M02 A3001 RMK AO2 SLP131 T02001022 403440150,KPMD,2023-05-17T07:53:00Z,34.63,-118.08,20.0,-2.2,200,9,,10.0,30.008858,1013.1,,TRUE,TRUE,,,,,,,CLR,,,,,,,,VFR,,,,34.4,15.0,,,,,,,METAR,764.0
KPKD 170753Z AUTO 13007KT 10SM CLR 11/06 A2996 RMK AO2 SLP144 T01060056,KPKD,2023-05-17T07:53:00Z,46.9,-95.07,10.6,5.6,130,7,,10.0,29.958662,1014.4,,TRUE,TRUE,,,,,,,CLR,,,,,,,,VFR,,,,,,,,,,,,SPECI,439.0
KPKB 170753Z AUTO A2978 RMK AO2 SLPNO PWINO PNO $,KPKB,2023-05-17T07:53:00Z,39.35,-81.43,,,,,,,29.778543,,,TRUE,TRUE,TRUE,,,,TRUE,,,,,,,,,,,,,,,,,,,,,,METAR,245.0
KPIR 170753Z AUTO 00000KT 10SM CLR 11/03 A2995 RMK AO2 SLP134 T01110033,KPIR,2023-05-17T07:53:00Z,44.38,-100.28,11.1,3.3,0,0,,10.0,29.949802,1013.4,,TRUE,TRUE,,,,,,,CLR,,,,,,,,VFR,,,,,,,,,,,,METAR,524.0
KPIL 170753Z AUTO 00000KT 10SM CLR 23/23 A2989 RMK AO2 SLP122 T02330228,KPIL,2023-05-17T07:53:00Z,26.17,-97.33,23.3,22.8,0,0,,10.0,29.890747,1012.2,,TRUE,TRUE,,,,,,,CLR,,,,,,,,VFR,,,,,,,,,,,,METAR,5.0
KPIH 170753Z AUTO 18004KT 10SM CLR 08/06 A3014 RMK AO2 SLP173 T00830056,KPIH,2023-05-17T07:53:00Z,42.92,-112.57,8.3,5.6,180,4,,10.0,30.138779,1017.3,,TRUE,TRUE,,,,,,,CLR,,,,,,,,VFR,,,,,,,,,,,,METAR,1357.0
KPIE 170753Z AUTO 28003KT 10SM CLR 24/22 A2988 RMK AO2 SLP119 T02390222,KPIE,2023-05-17T07:53:00Z,27.92,-82.68,23.9,22.2,280,3,,10.0,29.878937,1011.9,,TRUE,TRUE,,,,,,,CLR,,,,,,,,VFR,,,,,,,,,,,,METAR,1.0
KPHD 170753Z AUTO 32003KT 10SM CLR 12/07 A2979 RMK AO2 SLP085 T01170072,KPHD,2023-05-17T07:53:00Z,40.47,-81.42,11.7,7.2,320,3,,10.0,29.790354,1008.5,,TRUE,TRUE,,,,,,,CLR,,,,,,,,VFR,,,,,,,,,,,,SPECI,272.0
KPGA 170753Z AUTO 22005KT 10SM CLR 21/09 A3010 RMK AO2 SLP128 T02110089,KPGA,2023-05-17T07:53:00Z,36.92,-111.45,21.1,8.9,220,5,,10.0,30.100393,1012.8,,TRUE,TRUE,,,,,,,CLR,,,,,,,,VFR,,,,,,,,,,,,METAR,1310.0
KPEO 170753Z AUTO VRB04KT 10SM OVC024 06/02 A2980 RMK AO2 SLP091 T00560022,KPEO,2023-05-17T07:53:00Z,42.65,-77.05,5.6,2.2,0,4,,10.0,29.799213,1009.1,,TRUE,TRUE,,,,,,,OVC,2400,,,,,,,MVFR,,,,,,,,,,,,METAR,268.0
KPDX 170753Z 00000KT 10SM CLR 21/13 A3002 RMK AO2 SLP163 T02060128 402940150,KPDX,2023-05-17T07:53:00Z,45.6,-122.62,20.6,12.8,0,0,,10.0,30.02067,1016.3,,,TRUE,,,,,,,CLR,,,,,,,,VFR,,,,29.4,15.0,,,,,,,METAR,7.0
KPDT 170753Z AUTO 24004KT 10SM BKN080 OVC100 17/14 A3005 RMK AO2 RAE19 SLP161 P0000 T01720139 402830161,KPDT,2023-05-17T07:53:00Z,45.7,-118.83,17.2,13.9,240,4,,10.0,30.050198,1016.1,,TRUE,TRUE,,,,,,,BKN,8000,OVC,10000,,,,,VFR,,,,28.3,16.1,0.005,,,,,,METAR,453.0
KPBI 170753Z 00000KT 10SM FEW100 24/21 A2989 RMK AO2 SLP119 T02440211,KPBI,2023-05-17T07:53:00Z,26.68,-80.1,24.4,21.1,0,0,,10.0,29.890747,1011.9,,,TRUE,,,,,,,FEW,10000,,,,,,,VFR,,,,,,,,,,,,METAR,4.0
KPBG 170753Z AUTO 36014KT 10SM SCT026 BKN035 OVC070 04/00 A2975 RMK AO2 SLP074 T00440000,KPBG,2023-05-17T07:53:00Z,44.65,-73.47,4.4,0.0,360,14,,10.0,29.749016,1007.4,,TRUE,TRUE,,,,,,,SCT,2600,BKN,3500,OVC,7000,,,VFR,,,,,,,,,,,,METAR,61.0
KPBF 170753Z AUTO 35006KT 10SM FEW016 OVC023 22/20 A2985 RMK AO2 SLP104 T02220200,KPBF,2023-05-17T07:53:00Z,34.18,-91.93,22.2,20.0,350,6,,10.0,29.84941,1010.4,,TRUE,TRUE,,,,,,,FEW,1600,OVC,2300,,,,,MVFR,,,,,,,,,,,,METAR,63.0
KPAH 170753Z AUTO 00000KT 5SM BR CLR 16/15 A2987 RMK AO2 SLP111 T01610150,KPAH,2023-05-17T07:53:00Z,37.07,-88.77,16.1,15.0,0,0,,5.0,29.870079,1011.1,,TRUE,TRUE,,,,,,BR,CLR,,,,,,,,MVFR,,,,,,,,,,,,METAR,125.0
KPAE 170753Z AUTO 01004KT 10SM CLR 14/11 A3007 RMK AO2 SLP180 T01390111 402280128,KPAE,2023-05-17T07:53:00Z,47.92,-122.28,13.9,11.1,10,4,,10.0,30.070866,1018.0,,TRUE,TRUE,,,,,,,CLR,,,,,,,,VFR,,,,22.8,12.8,,,,,,,METAR,166.0
KP68 170753Z AUTO 16003KT 13/03 A3019 RMK AO1 SLP149 T01280033 402440061,KP68,2023-05-17T07:53:00Z,39.6,-116.0,12.8,3.3,160,3,,,30.188976,1014.9,,TRUE,TRUE,,,,,,,,,,,,,,,,,,,24.4,6.1,,,,,,,METAR,1813.0
KOXB 170753Z AUTO 02003KT 10SM OVC065 19/17 A2960 RMK AO2 RAE06 SLP022 P0000 T01890167,KOXB,2023-05-17T07:53:00Z,38.32,-75.12,18.9,16.7,20,3,,10.0,29.601377,1002.2,,TRUE,TRUE,,,,,,,OVC,6500,,,,,,,VFR,,,,,,0.005,,,,,,SPECI,2.0
KOWD 170753Z AUTO 00000KT 10SM SCT120 13/08 A2956 RMK AO2 SLP009 T01330083,KOWD,2023-05-17T07:53:00Z,42.18,-71.17,13.3,8.3,0,0,,10.0,29.56004,1000.9,,TRUE,TRUE,,,,,,,SCT,12000,,,,,,,VFR,,,,,,,,,,,,METAR,14.0
KOVS 170753Z AUTO 08003KT 10SM CLR 12/04 A2998 RMK AO2 SLP152 T01170044,KOVS,2023-05-17T07:53:00Z,43.15,-90.68,11.7,4.4,80,3,,10.0,29.97933,1015.2,,TRUE,TRUE,,,,,,,CLR,,,,,,,,VFR,,,,,,,,,,,,METAR,205.0
KOVE 170753Z AUTO 08008KT 10SM CLR 24/08 A2992 RMK AO2 SLP132 T02390078 403500150,KOVE,2023-05-17T07:53:00Z,39.5,-121.62,23.9,7.8,80,8,,10.0,29.920275,1013.2,,TRUE,TRUE,,,,,,,CLR,,,,,,,,VFR,,,,35.0,15.0,,,,,,,METAR,56.0
KOTM 170753Z AUTO 25004KT 10SM CLR 13/09 A2989 RMK AO2 SLP118 T01330094,KOTM,2023-05-17T07:53:00Z,41.1,-92.45,13.3,9.4,250,4,,10.0,29.890747,1011.8,,TRUE,TRUE,,,,,,,CLR,,,,,,,,VFR,,,,,,,,,,,,METAR,254.0
KOSU 170753Z AUTO 36008KT 10SM CLR 13/07 A2981 RMK AO2 SLP092 T01280067,KOSU,2023-05-17T07:53:00Z,40.08,-83.08,12.8,6.7,360,8,,10.0,29.811024,1009.2,,TRUE,TRUE,,,,,,,CLR,,,,,,,,VFR,,,,,,,,,,,,SPECI,276.0
KOSH 170753Z AUTO 05008KT 10SM CLR 08/01 A3001 RMK AO2 SLP159 T00780011,KOSH,2023-05-17T07:53:00Z,43.98,-88.55,7.8,1.1,50,8,,10.0,30.008858,1015.9,,TRUE,TRUE,,,,,,,CLR,,,,,,,,VFR,,,,,,,,,,,,METAR,239.0
KORL 170753Z AUTO 00000KT 10SM SCT100 26/21 A2987 RMK AO2 SLP117 T02560206,KORL,2023-05-17T07:53:00Z,28.55,-81.33,25.6,20.6,0,0,,10.0,29.870079,1011.7,,TRUE,TRUE,,,,,,,SCT,10000,,,,,,,VFR,,,,,,,,,,,,METAR,32.0
KOPF 170753Z AUTO 27006KT 10SM CLR 25/22 A2990 RMK AO2 LTG DSNT SE AND SW SLP125 T02500217,KOPF,2023-05-17T07:53:00Z,25.92,-80.28,25.0,21.7,270,6,,10.0,29.899607,1012.5,,TRUE,TRUE,,,,,,,CLR,,,,,,,,VFR,,,,,,,,,,,,METAR,1.0
KONT 170753Z 19005KT 10SM CLR 17/13 A2996 RMK AO2 SLP133 T01720128 402940139,KONT,2023-05-17T07:53:00Z,34.05,-117.58,17.2,12.8,190,5,,10.0,29.958662,1013.3,,,TRUE,,,,,,,CLR,,,,,,,,VFR,,,,29.4,13.9,,,,,,,METAR,279.0
KONO 170753Z AUTO 00000KT 10SM CLR 15/11 A3007 RMK AO2 SLP170 T01500111,KONO,2023-05-17T07:53:00Z,44.02,-117.02,15.0,11.1,0,0,,10.0,30.070866,1017.0,,TRUE,TRUE,,,,,,,CLR,,,,,,,,VFR,,,,,,,,,,,,METAR,668.0
KOMK 170753Z AUTO 00000KT 10SM CLR 16/13 A3004 RMK AO2 SLP167 T01610133 402670133,KOMK,2023-05-17T07:53:00Z,48.47,-119.52,16.1,13.3,0,0,,10.0,30.041338,1016.7,,TRUE,TRUE,,,,,,,CLR,,,,,,,,VFR,,,,26.7,13.3,,,,,,,METAR,395.0
KOJC 170753Z AUTO 29004KT 7SM CLR 14/13 A2995 RMK AO2 SLP136 T01390128,KOJC,2023-05-17T07:53:00Z,38.85,-94.73,13.9,12.8,290,4,,7.0,29.949802,1013.6,,TRUE,TRUE,,,,,,,CLR,,,,,,,,VFR,,,,,,,,,,,,METAR,328.0
KOGD 170753Z AUTO 17009KT 10SM CLR 16/04 A3010 RMK AO2 SLP143 T01610039,KOGD,2023-05-17T07:53:00Z,41.2,-112.02,16.1,3.9,170,9,,10.0,30.100393,1014.3,,TRUE,TRUE,,,,,,,CLR,,,,,,,,VFR,,,,,,,,,,,,METAR,1356.0
KOGB 170753Z AUTO 23003KT 10SM CLR 21/21 A2975 RMK AO2 SLP072 T02110206,KOGB,2023-05-17T07:53:00Z,33.47,-80.85,21.1,20.6,230,3,,10.0,29.749016,1007.2,,TRUE,TRUE,,,,,,,CLR,,,,,,,,VFR,,,,,,,,,,,,METAR,59.0
KODX 170753Z AUTO 00000KT 10SM CLR 08/07 A3000 RMK AO2 SLP156 T00830067,KODX,2023-05-17T07:53:00Z,41.62,-98.95,8.3,6.7,0,0,,10.0,30.0,1015.6,,TRUE,TRUE,,,,,,,CLR,,,,,,,,VFR,,,,,,,,,,,,METAR,628.0
KODO 170753Z AUTO 22005KT 10SM CLR 19/14 A3003 RMK AO2 SLP127 T01940144,KODO,2023-05-17T07:53:00Z,31.92,-102.4,19.4,14.4,220,5,,10.0,30.029528,1012.7,,TRUE,TRUE,,,,,,,CLR,,,,,,,,VFR,,,,,,,,,,,,METAR,912.0
KOAK 170753Z 30011KT 10SM BKN004 BKN012 12/11 A3001 RMK AO2 SLP162 T01220106 402280117,KOAK,2023-05-17T07:53:00Z,37.72,-122.23,12.2,10.6,300,11,,10.0,30.008858,1016.2,,,TRUE,,,,,,,BKN,400,BKN,1200,,,,,LIFR,,,,22.8,11.7,,,,,,,METAR,3.0
KNUW 170753Z 23006KT 10SM SCT040 BKN150 BKN220 12/10 A3007 RMK AO2 SLP185 T01220100 401670117 VISNO $,KNUW,2023-05-17T07:53:00Z,48.35,-122.65,12.2,10.0,230,6,,10.0,30.070866,1018.5,,,TRUE,TRUE,,,,,,SCT,4000,BKN,15000,BKN,22000,,,VFR,,,,16.7,11.7,,,,,,,SPECI,14.0
KNUI 170753Z AUTO 00000KT 10SM OVC075 18/18 A2962 RMK AO2 RAB04E14 SLP028 P0000 T01780178,KNUI,2023-05-17T07:53:00Z,38.15,-76.43,17.8,17.8,0,0,,10.0,29.619095,1002.8,,TRUE,TRUE,,,,,,,OVC,7500,,,,,,,VFR,,,,,,0.005,,,,,,METAR,4.0
KNSI 170753Z AUTO 29008KT 1/4SM FG VV002 12/12 A2999 RMK AO2 SLP151 T01220117 401720117 $,KNSI,2023-05-17T07:53:00Z,33.23,-119.45,12.2,11.7,290,8,,0.25,29.991142,1015.1,,TRUE,TRUE,TRUE,,,,,FG,OVX,0,,,,,,,LIFR,,,,17.2,11.7,,,,,,200,METAR,161.0
KNRS 170753Z AUTO 30006KT 9SM OVC011 16/13 A2997 RMK AO2 SLP149 T01610133 402060150,KNRS,2023-05-17T07:53:00Z,32.57,-117.12,16.1,13.3,300,6,,9.0,29.970472,1014.9,,TRUE,TRUE,,,,,,,OVC,1100,,,,,,,MVFR,,,,20.6,15.0,,,,,,,METAR,15.0
KMYV 170753Z AUTO 10005KT 10SM CLR 20/12 A2991 RMK AO2 SLP132 T02000122 403390128 $,KMYV,2023-05-17T07:53:00Z,39.1,-121.57,20.0,12.2,100,5,,10.0,29.911417,1013.2,,TRUE,TRUE,TRUE,,,,,,CLR,,,,,,,,VFR,,,,33.9,12.8,,,,,,,METAR,18.0
KMYF 170753Z AUTO 35003KT 9SM OVC007 16/13 A2997 RMK AO2 SLP146 T01560128 402330139,KMYF,2023-05-17T07:53:00Z,32.82,-117.13,15.6,12.8,350,3,,9.0,29.970472,1014.6,,TRUE,TRUE,,,,,,,OVC,700,,,,,,,IFR,,,,23.3,13.9,,,,,,,METAR,128.0
KMWL 170753Z AUTO 00000KT 10SM CLR 18/15 A2994 RMK AO2 SLP129 T01780150,KMWL,2023-05-17T07:53:00Z,32.78,-98.07,17.8,15.0,0,0,,10.0,29.940945,1012.9,,TRUE,TRUE,,,,,,,CLR,,,,,,,,VFR,,,,,,,,,,,,METAR,288.0
KMVY 170753Z AUTO 32007KT 9SM CLR 13/12 A2949 RMK AO2 SLP986 T01330122,KMVY,2023-05-17T07:53:00Z,41.4,-70.62,13.3,12.2,320,7,,9.0,29.489174,998.6,,TRUE,TRUE,,,,,,,CLR,,,,,,,,VFR,,,,,,,,,,,,METAR,18.0
KMTO 170753Z AUTO 27006KT 10SM CLR 15/13 A2986 RMK AO2 SLP109 T01500128,KMTO,2023-05-17T07:53:00Z,39.47,-88.27,15.0,12.8,270,6,,10.0,29.861221,1010.9,,TRUE,TRUE,,,,,,,CLR,,,,,,,,VFR,,,,,,,,,,,,SPECI,216.0
KMTJ 170753Z AUTO 13007KT 10SM CLR 11/03 A3019 RMK AO2 SLP156 T01110028,KMTJ,2023-05-17T07:53:00Z,38.5,-107.9,11.1,2.8,130,7,,10.0,30.188976,1015.6,,TRUE,TRUE,,,,,,,CLR,,,,,,,,VFR,,,,,,,,,,,,METAR,1755.0
KMTH 170753Z AUTO 00000KT 10SM FEW024 SCT035 BKN055 26/22 A2990 RMK AO2 LTG DSNT NE RAB10E21 SLP123 P0000 T02610217,KMTH,2023-05-17T07:53:00Z,24.73,-81.05,26.1,21.7,0,0,,10.0,29.899607,1012.3,,TRUE,TRUE,,,,,,,FEW,2400,SCT,3500,BKN,5500,,,VFR,,,,,,0.005,,,,,,METAR,1.0
KMSY 170753Z 00000KT 10SM FEW250 24/23 A2986 RMK AO2 SLP113 T02390228,KMSY,2023-05-17T07:53:00Z,30.0,-90.25,23.9,22.8,0,0,,10.0,29.861221,1011.3,,,TRUE,,,,,,,FEW,25000,,,,,,,VFR,,,,,,,,,,,,METAR,0.0
KMSS 170753Z AUTO 33006KT 10SM FEW065 02/M02 A2982 RMK AO2 SLP102 T00221022,KMSS,2023-05-17T07:53:00Z,44.93,-74.85,2.2,-2.2,330,6,,10.0,29.819881,1010.2,,TRUE,TRUE,,,,,,,FEW,6500,,,,,,,VFR,,,,,,,,,,,,METAR,60.0
KMSP 170753Z 08007KT 10SM CLR 13/06 A2997 RMK AO2 SLP145 T01330056,KMSP,2023-05-17T07:53:00Z,44.88,-93.23,13.3,5.6,80,7,,10.0,29.970472,1014.5,,,TRUE,,,,,,,CLR,,,,,,,,VFR,,,,,,,,,,,,METAR,255.0
KMSN 170753Z AUTO 07005KT 10SM CLR 07/02 A2999 RMK AO2 SLP156 T00720022,KMSN,2023-05-17T07:53:00Z,43.13,-89.35,7.2,2.2,70,5,,10.0,29.991142,1015.6,,TRUE,TRUE,,,,,,,CLR,,,,,,,,VFR,,,,,,,,,,,,METAR,262.0
KMRB 170753Z AUTO 00000KT 10SM CLR 16/08 A2966 RMK AO2 SLP039 T01560083,KMRB,2023-05-17T07:53:00Z,39.4,-77.98,15.6,8.3,0,0,,10.0,29.660433,1003.9,,TRUE,TRUE,,,,,,,CLR,,,,,,,,VFR,,,,,,,,,,,,METAR,165.0
KMPO 170753Z AUTO 32015KT 10SM CLR 08/03 A2964 RMK AO2 SLP032 T00830033,KMPO,2023-05-17T07:53:00Z,41.13,-75.38,8.3,3.3,320,15,,10.0,29.639763,1003.2,,TRUE,TRUE,,,,,,,CLR,,,,,,,,VFR,,,,,,,,,,,,SPECI,576.0
KMOD 170753Z AUTO 36007KT 10SM CLR 21/11 A2990 RMK AO2 SLP125 T02110111 403330150 $,KMOD,2023-05-17T07:53:00Z,37.62,-120.95,21.1,11.1,360,7,,10.0,29.899607,1012.5,,TRUE,TRUE,TRUE,,,,,,CLR,,,,,,,,VFR,,,,33.3,15.0,,,,,,,METAR,25.0
KMNN 170753Z AUTO 01006KT 10SM CLR 11/07 A2984 RMK AO2 SLP103 T01060067,KMNN,2023-05-17T07:53:00Z,40.62,-83.07,10.6,6.7,10,6,,10.0,29.840551,1010.3,,TRUE,TRUE,,,,,,,CLR,,,,,,,,VFR,,,,,,,,,,,,SPECI,301.0
KMMV 170753Z AUTO 26007KT 10SM CLR 15/12 A3001 RMK AO2 SLP162 T01500117 402940106,KMMV,2023-05-17T07:53:00Z,45.2,-123.13,15.0,11.7,260,7,,10.0,30.008858,1016.2,,TRUE,TRUE,,,,,,,CLR,,,,,,,,VFR,,,,29.4,10.6,,,,,,,SPECI,48.0
KMMK 170753Z AUTO 34009KT 10SM OVC110 17/04 A2956 RMK AO2 SLP009 T01670044,KMMK,2023-05-17T07:53:00Z,41.52,-72.83,16.7,4.4,340,9,,10.0,29.56004,1000.9,,TRUE,TRUE,,,,,,,OVC,11000,,,,,,,VFR,,,,,,,,,,,,SPECI,30.0
KMLU 170753Z AUTO 32005KT 10SM CLR 22/19 A2986 RMK AO2 SLP108 T02170189,KMLU,2023-05-17T07:53:00Z,32.52,-92.03,21.7,18.9,320,5,,10.0,29.861221,1010.8,,TRUE,TRUE,,,,,,,CLR,,,,,,,,VFR,,,,,,,,,,,,METAR,22.0
KMLT 170753Z AUTO 30004KT 10SM OVC060 04/02 A2956 RMK AO2 SLP018 T00440022,KMLT,2023-05-17T07:53:00Z,45.65,-68.7,4.4,2.2,300,4,,10.0,29.56004,1001.8,,TRUE,TRUE,,,,,,,OVC,6000,,,,,,,VFR,,,,,,,,,,,,SPECI,121.0
KMLS 170753Z AUTO 24007KT 10SM CLR 16/09 A2989 RMK AO2 SLP106 T01560094,KMLS,2023-05-17T07:53:00Z,46.43,-105.88,15.6,9.4,240,7,,10.0,29.890747,1010.6,,TRUE,TRUE,,,,,,,CLR,,,,,,,,VFR,,,,,,,,,,,,METAR,800.0
KMLP 170753Z AUTO 00000KT 10SM SCT070 BKN090 11/07 A3019 RMK AO2 SLP145 T01110067 401610078,KMLP,2023-05-17T07:53:00Z,47.45,-115.67,11.1,6.7,0,0,,10.0,30.188976,1014.5,,TRUE,TRUE,,,,,,,SCT,7000,BKN,9000,,,,,VFR,,,,16.1,7.8,,,,,,,METAR,1837.0
KMLC 170753Z AUTO 35004KT 10SM SCT016 OVC033 18/17 A2994 RMK AO2 SLP132 T01830167,KMLC,2023-05-17T07:53:00Z,34.88,-95.78,18.3,16.7,350,4,,10.0,29.940945,1013.2,,TRUE,TRUE,,,,,,,SCT,1600,OVC,3300,,,,,VFR,,,,,,,,,,,,METAR,231.0
KMLB 170753Z AUTO 16005KT 10SM CLR 24/21 A2987 RMK AO2 SLP113 T02390206,KMLB,2023-05-17T07:53:00Z,28.1,-80.65,23.9,20.6,160,5,,10.0,29.870079,1011.3,,TRUE,TRUE,,,,,,,CLR,,,,,,,,VFR,,,,,,,,,,,,METAR,7.0
KMKO 170753Z AUTO 35007KT 10SM OVC026 18/15 A2996 RMK AO2 SLP142 T01780150,KMKO,2023-05-17T07:53:00Z,35.65,-95.37,17.8,15.0,350,7,,10.0,29.958662,1014.2,,TRUE,TRUE,,,,,,,OVC,2600,,,,,,,MVFR,,,,,,,,,,,,METAR,184.0
KMIW 170753Z AUTO 35004KT 10SM CLR 13/09 A2990 RMK AO2 SLP118 T01330089,KMIW,2023-05-17T07:53:00Z,42.12,-92.92,13.3,8.9,350,4,,10.0,29.899607,1011.8,,TRUE,TRUE,,,,,,,CLR,,,,,,,,VFR,,,,,,,,,,,,SPECI,296.0
KMIE 170753Z AUTO 33003KT 10SM CLR 12/09 A2984 RMK AO2 SLP098 T01170089,KMIE,2023-05-17T07:53:00Z,40.23,-85.4,11.7,8.9,330,3,,10.0,29.840551,1009.8,,TRUE,TRUE,,,,,,,CLR,,,,,,,,VFR,,,,,,,,,,,,SPECI,286.0
KMIC 170753Z AUTO 07004KT 10SM CLR 13/05 A2996 RMK AO2 SLP144 T01280050,KMIC,2023-05-17T07:53:00Z,45.07,-93.35,12.8,5.0,70,4,,10.0,29.958662,1014.4,,TRUE,TRUE,,,,,,,CLR,,,,,,,,VFR,,,,,,,,,,,,SPECI,263.0
KMIA 170753Z 27005KT 10SM FEW030 BKN090 25/23 A2989 RMK AO2 LTG DSNT SE AND SW SLP123 T02500233 $,KMIA,2023-05-17T07:53:00Z,25.8,-80.32,25.0,23.3,270,5,,10.0,29.890747,1012.3,,,TRUE,TRUE,,,,,,FEW,3000,BKN,9000,,,,,VFR,,,,,,,,,,,,METAR,1.0
KMHT 170753Z 32012G23KT 10SM BKN030 OVC070 09/02 A2960 RMK AO2 SLP034 T00940022,KMHT,2023-05-17T07:53:00Z,42.93,-71.43,9.4,2.2,320,12,23,10.0,29.601377,1003.4,,,TRUE,,,,,,,BKN,3000,OVC,7000,,,,,MVFR,,,,,,,,,,,,METAR,68.0
KMHE 170753Z AUTO 27005KT 10SM CLR 13/06 A2995 RMK AO2 SLP139 T01280056,KMHE,2023-05-17T07:53:00Z,43.77,-98.03,12.8,5.6,270,5,,10.0,29.949802,1013.9,,TRUE,TRUE,,,,,,,CLR,,,,,,,,VFR,,,,,,,,,,,,METAR,397.0
KMGY 170753Z AUTO 31004KT 10SM CLR 13/11 A2982 RMK AO2 SLP095 T01330106,KMGY,2023-05-17T07:53:00Z,39.6,-84.23,13.3,10.6,310,4,,10.0,29.819881,1009.5,,TRUE,TRUE,,,,,,,CLR,,,,,,,,VFR,,,,,,,,,,,,SPECI,290.0
KMGM 170753Z 21003KT 10SM CLR 21/20 A2984 RMK AO2 SLP101 T02110200,KMGM,2023-05-17T07:53:00Z,32.3,-86.4,21.1,20.0,210,3,,10.0,29.840551,1010.1,,,TRUE,,,,,,,CLR,,,,,,,,VFR,,,,,,,,,,,,METAR,64.0
KMFR 170753Z AUTO 19003KT 10SM CLR 20/11 A3002 RMK AO2 SLP155 T02000106 403170133,KMFR,2023-05-17T07:53:00Z,42.38,-122.87,20.0,10.6,190,3,,10.0,30.02067,1015.5,,TRUE,TRUE,,,,,,,CLR,,,,,,,,VFR,,,,31.7,13.3,,,,,,,METAR,397.0
KMFE 170753Z AUTO 00000KT 9SM CLR 23/22 A2990 RMK AO2 SLP122 T02330222 $,KMFE,2023-05-17T07:53:00Z,26.18,-98.25,23.3,22.2,0,0,,9.0,29.899607,1012.2,,TRUE,TRUE,TRUE,,,,,,CLR,,,,,,,,VFR,,,,,,,,,,,,METAR,29.0
KMDW 170753Z 02013KT 10SM FEW095 09/03 A2993 RMK AO2 SLP130 T00940033 $,KMDW,2023-05-17T07:53:00Z,41.78,-87.75,9.4,3.3,20,13,,10.0,29.929134,1013.0,,,TRUE,TRUE,,,,,,FEW,9500,,,,,,,VFR,,,,,,,,,,,,METAR,186.0
KMCW 170753Z AUTO 05004KT 10SM CLR 12/09 A2994 RMK AO2 SLP128 T01220089,KMCW,2023-05-17T07:53:00Z,43.15,-93.33,12.2,8.9,50,4,,10.0,29.940945,1012.8,,TRUE,TRUE,,,,,,,CLR,,,,,,,,VFR,,,,,,,,,,,,METAR,363.0
KMCO 170753Z 21003KT 10SM FEW110 SCT250 23/20 A2987 RMK AO2 SLP115 T02330200,KMCO,2023-05-17T07:53:00Z,28.42,-81.33,23.3,20.0,210,3,,10.0,29.870079,1011.5,,,TRUE,,,,,,,FEW,11000,SCT,25000,,,,,VFR,,,,,,,,,,,,METAR,27.0
KMCN 170753Z AUTO 29003KT 6SM BR CLR 19/18 A2982 RMK AO2 SLP094 T01890183 $,KMCN,2023-05-17T07:53:00Z,32.68,-83.65,18.9,18.3,290,3,,6.0,29.819881,1009.4,,TRUE,TRUE,TRUE,,,,,BR,CLR,,,,,,,,VFR,,,,,,,,,,,,METAR,104.0
KMCK 170753Z AUTO 00000KT CLR 11/08 A3003 RMK AO2 SLP157 T01060083,KMCK,2023-05-17T07:53:00Z,40.2,-100.58,10.6,8.3,0,0,,,30.029528,1015.7,,TRUE,TRUE,,,,,,,CLR,,,,,,,,,,,,,,,,,,,,METAR,780.0
KMCI 170753Z 29005KT 10SM BKN090 14/13 A2994 RMK AO2 SLP133 T01390128,KMCI,2023-05-17T07:53:00Z,39.3,-94.73,13.9,12.8,290,5,,10.0,29.940945,1013.3,,,TRUE,,,,,,,BKN,9000,,,,,,,VFR,,,,,,,,,,,,METAR,308.0
KMCE 170753Z AUTO 34006KT 10SM CLR 21/11 A2990 RMK AO2 SLP124 T02060106 403440156 $,KMCE,2023-05-17T07:53:00Z,37.28,-120.5,20.6,10.6,340,6,,10.0,29.899607,1012.4,,TRUE,TRUE,TRUE,,,,,,CLR,,,,,,,,VFR,,,,34.4,15.6,,,,,,,METAR,49.0
KMCB 170753Z AUTO 17003KT 7SM FEW005 19/19 A2986 RMK AO2 LTG DSNT W AND NW SLP103 T01940189,KMCB,2023-05-17T07:53:00Z,31.18,-90.47,19.4,18.9,170,3,,7.0,29.861221,1010.3,,TRUE,TRUE,,,,,,,FEW,500,,,,,,,VFR,,,,,,,,,,,,METAR,124.0
KMBS 170753Z 11003KT 10SM SCT033 05/03 A2995 RMK AO2 SLP143 T00500028,KMBS,2023-05-17T07:53:00Z,43.53,-84.08,5.0,2.8,110,3,,10.0,29.949802,1014.3,,,TRUE,,,,,,,SCT,3300,,,,,,,VFR,,,,,,,,,,,,METAR,201.0
KMAI 170753Z AUTO 00000KT 10SM CLR 20/19 A2983 RMK AO2 SLP101 T02000194,KMAI,2023-05-17T07:53:00Z,30.83,-85.18,20.0,19.4,0,0,,10.0,29.828741,1010.1,,TRUE,TRUE,,,,,,,CLR,,,,,,,,VFR,,,,,,,,,,,,METAR,33.0
KMAF 170753Z AUTO 22007KT 9SM CLR 19/16 A3002 RMK AO2 SLP123 T01940156,KMAF,2023-05-17T07:53:00Z,31.95,-102.2,19.4,15.6,220,7,,9.0,30.02067,1012.3,,TRUE,TRUE,,,,,,,CLR,,,,,,,,VFR,,,,,,,,,,,,METAR,874.0
KMAE 170753Z AUTO 30008KT 10SM CLR 20/11 A2990 RMK AO2 SLP123 T02000111 403500133 TSNO,KMAE,2023-05-17T07:53:00Z,36.98,-120.12,20.0,11.1,300,8,,10.0,29.899607,1012.3,,TRUE,TRUE,,,TRUE,,,,CLR,,,,,,,,VFR,,,,35.0,13.3,,,,,,,SPECI,77.0
KLXV 170753Z AUTO 08005KT 10SM CLR 00/M03 A3037 RMK AO2 SLP163 T00001028,KLXV,2023-05-17T07:53:00Z,39.23,-106.32,0.0,-2.8,80,5,,10.0,30.369095,1016.3,,TRUE,TRUE,,,,,,,CLR,,,,,,,,VFR,,,,,,,,,,,,METAR,3027.0
KLWV 170753Z AUTO 29003KT 10SM CLR 13/12 A2986 RMK AO2 SLP111 T01280117,KLWV,2023-05-17T07:53:00Z,38.77,-87.6,12.8,11.7,290,3,,10.0,29.861221,1011.1,,TRUE,TRUE,,,,,,,CLR,,,,,,,,VFR,,,,,,,,,,,,METAR,128.0
KLWD 170753Z AUTO 27007KT 10SM CLR 13/09 A2992 RMK AO2 SLP127 T01330094,KLWD,2023-05-17T07:53:00Z,40.63,-93.9,13.3,9.4,270,7,,10.0,29.920275,1012.7,,TRUE,TRUE,,,,,,,CLR,,,,,,,,VFR,,,,,,,,,,,,METAR,345.0
KLVS 170753Z AUTO 27004KT 10SM CLR 10/06 A3021 RMK AO2 SLP141 T01000061,KLVS,2023-05-17T07:53:00Z,35.65,-105.13,10.0,6.1,270,4,,10.0,30.209646,1014.1,,TRUE,TRUE,,,,,,,CLR,,,,,,,,VFR,,,,,,,,,,,,METAR,2095.0
KLVK 170753Z AUTO 32004KT 10SM CLR 16/10 A2996 RMK AO2 SLP140 T01610100 403170111,KLVK,2023-05-17T07:53:00Z,37.7,-121.82,16.1,10.0,320,4,,10.0,29.958662,1014.0,,TRUE,TRUE,,,,,,,CLR,,,,,,,,VFR,,,,31.7,11.1,,,,,,,METAR,120.0
KLVJ 170753Z AUTO 00000KT 10SM CLR 20/18 A2991 RMK AO2 SLP128 T02000183,KLVJ,2023-05-17T07:53:00Z,29.52,-95.25,20.0,18.3,0,0,,10.0,29.911417,1012.8,,TRUE,TRUE,,,,,,,CLR,,,,,,,,VFR,,,,,,,,,,,,SPECI,11.0
KLSE 170753Z AUTO 12006KT 10SM CLR 14/08 A2996 RMK AO2 SLP139 T01390078,KLSE,2023-05-17T07:53:00Z,43.88,-91.25,13.9,7.8,120,6,,10.0,29.958662,1013.9,,TRUE,TRUE,,,,,,,CLR,,,,,,,,VFR,,,,,,,,,,,,METAR,198.0
KLPR 170753Z AUTO 03010KT 10SM CLR 09/07 A2985 RMK AO2 SLP105 T00940067,KLPR,2023-05-17T07:53:00Z,41.35,-82.18,9.4,6.7,30,10,,10.0,29.84941,1010.5,,TRUE,TRUE,,,,,,,CLR,,,,,,,,VFR,,,,,,,,,,,,METAR,241.0
KLOZ 170753Z AUTO 34003KT 9SM FEW008 SCT031 16/14 A2986 RMK AO2 SLP100 T01560144,KLOZ,2023-05-17T07:53:00Z,37.08,-84.07,15.6,14.4,340,3,,9.0,29.861221,1010.0,,TRUE,TRUE,,,,,,,FEW,800,SCT,3100,,,,,VFR,,,,,,,,,,,,METAR,361.0
KLOL 170753Z AUTO 09003KT 10SM CLR 13/M01 A3007 RMK AO2 SLP150 T01331006 402940061,KLOL,2023-05-17T07:53:00Z,40.07,-118.57,13.3,-0.6,90,3,,10.0,30.070866,1015.0,,TRUE,TRUE,,,,,,,CLR,,,,,,,,VFR,,,,29.4,6.1,,,,,,,METAR,1191.0
KLNS 170753Z AUTO 28007KT 10SM CLR 15/12 A2961 RMK AO2 SLP025 T01500117,KLNS,2023-05-17T07:53:00Z,40.12,-76.3,15.0,11.7,280,7,,10.0,29.610237,1002.5,,TRUE,TRUE,,,,,,,CLR,,,,,,,,VFR,,,,,,,,,,,,METAR,122.0
KLND 170753Z AUTO 25003KT 10SM CLR 12/01 A3012 RMK AO2 SLP145 T01220011,KLND,2023-05-17T07:53:00Z,42.82,-108.73,12.2,1.1,250,3,,10.0,30.121063,1014.5,,TRUE,TRUE,,,,,,,CLR,,,,,,,,VFR,,,,,,,,,,,,METAR,1700.0
KLMT 170753Z AUTO 10SM CLR 12/07 A3012 RMK AO2 SLP167 T01220072 402560050 $,KLMT,2023-05-17T07:53:00Z,42.15,-121.72,12.2,7.2,,,,10.0,30.121063,1016.7,,TRUE,TRUE,TRUE,,,,,,CLR,,,,,,,,VFR,,,,25.6,5.0,,,,,,,METAR,1246.0
KLKV 170753Z AUTO 35010KT 10SM CLR 13/06 A3015 RMK AO2 SLP177 T01330061 402440033,KLKV,2023-05-17T07:53:00Z,42.17,-120.4,13.3,6.1,350,10,,10.0,30.15059,1017.7,,TRUE,TRUE,,,,,,,CLR,,,,,,,,VFR,,,,24.4,3.3,,,,,,,SPECI,1440.0
KLIT 170753Z 04008KT 10SM OVC020 22/18 A2987 RMK AO2 SLP113 T02220183,KLIT,2023-05-17T07:53:00Z,34.73,-92.23,22.2,18.3,40,8,,10.0,29.870079,1011.3,,,TRUE,,,,,,,OVC,2000,,,,,,,MVFR,,,,,,,,,,,,METAR,77.0
KLHQ 170753Z AUTO 00000KT 8SM CLR 11/10 A2981 RMK AO2 SLP092 T01060100,KLHQ,2023-05-17T07:53:00Z,39.75,-82.67,10.6,10.0,0,0,,8.0,29.811024,1009.2,,TRUE,TRUE,,,,,,,CLR,,,,,,,,VFR,,,,,,,,,,,,METAR,259.0
KLFT 170753Z AUTO 24003KT 10SM BKN047 24/21 A2986 RMK AO2 SLP110 T02390211,KLFT,2023-05-17T07:53:00Z,30.2,-91.97,23.9,21.1,240,3,,10.0,29.861221,1011.0,,TRUE,TRUE,,,,,,,BKN,4700,,,,,,,VFR,,,,,,,,,,,,METAR,9.0
KLFK 170753Z AUTO 00000KT 10SM CLR 21/19 A2991 RMK AO2 SLP123 T02060194,KLFK,2023-05-17T07:53:00Z,31.23,-94.75,20.6,19.4,0,0,,10.0,29.911417,1012.3,,TRUE,TRUE,,,,,,,CLR,,,,,,,,VFR,,,,,,,,,,,,METAR,87.0
KLEE 170753Z AUTO 00000KT 10SM SCT013 23/22 A2988 RMK AO2 SLP118 T02330217,KLEE,2023-05-17T07:53:00Z,28.82,-81.82,23.3,21.7,0,0,,10.0,29.878937,1011.8,,TRUE,TRUE,,,,,,,SCT,1300,,,,,,,VFR,,,,,,,,,,,,METAR,21.0
KLEB 170753Z AUTO 33007KT 10SM FEW038 OVC048 07/01 A2966 RMK AO2 SLP038 T00670006,KLEB,2023-05-17T07:53:00Z,43.63,-72.3,6.7,0.6,330,7,,10.0,29.660433,1003.8,,TRUE,TRUE,,,,,,,FEW,3800,OVC,4800,,,,,VFR,,,,,,,,,,,,METAR,169.0
KLCH 170753Z AUTO 29004KT 8SM FEW048 21/21 A2988 RMK AO2 SLP124 T02110211 $,KLCH,2023-05-17T07:53:00Z,30.13,-93.22,21.1,21.1,290,4,,8.0,29.878937,1012.4,,TRUE,TRUE,TRUE,,,,,,FEW,4800,,,,,,,VFR,,,,,,,,,,,,METAR,2.0
KLBX 170753Z AUTO 00000KT 8SM CLR 19/18 A2991 RMK AO2 SLP127 T01890183,KLBX,2023-05-17T07:53:00Z,29.12,-95.47,18.9,18.3,0,0,,8.0,29.911417,1012.7,,TRUE,TRUE,,,,,,,CLR,,,,,,,,VFR,,,,,,,,,,,,METAR,4.0
KLBF 170753Z AUTO 00000KT 10SM CLR 08/06 A3003 RMK AO2 SLP159 T00780061,KLBF,2023-05-17T07:53:00Z,41.12,-100.67,7.8,6.1,0,0,,10.0,30.029528,1015.9,,TRUE,TRUE,,,,,,,CLR,,,,,,,,VFR,,,,,,,,,,,,METAR,843.0
KLBB 170753Z 32009KT 10SM FEW120 BKN170 OVC210 18/12 A3004 RMK AO2 SLP129 T01830122,KLBB,2023-05-17T07:53:00Z,33.67,-101.82,18.3,12.2,320,9,,10.0,30.041338,1012.9,,,TRUE,,,,,,,FEW,12000,BKN,17000,OVC,21000,,,VFR,,,,,,,,,,,,METAR,996.0
KLAX 170753Z 23003KT 5SM BR OVC004 14/13 A2998 RMK AO2 SLP150 T01390133 401890133,KLAX,2023-05-17T07:53:00Z,33.93,-118.38,13.9,13.3,230,3,,5.0,29.97933,1015.0,,,TRUE,,,,,,BR,OVC,400,,,,,,,LIFR,,,,18.9,13.3,,,,,,,METAR,30.0
KLAW 170753Z AUTO 04006KT 10SM CLR 16/13 A2999 RMK AO2 SLP147 T01560133,KLAW,2023-05-17T07:53:00Z,34.55,-98.42,15.6,13.3,40,6,,10.0,29.991142,1014.7,,TRUE,TRUE,,,,,,,CLR,,,,,,,,VFR,,,,,,,,,,,,METAR,328.0
KLAR 170753Z AUTO 18006KT 10SM CLR 06/03 A3020 RMK AO2 SLP145 T00560028,KLAR,2023-05-17T07:53:00Z,41.32,-105.67,5.6,2.8,180,6,,10.0,30.200787,1014.5,,TRUE,TRUE,,,,,,,CLR,,,,,,,,VFR,,,,,,,,,,,,METAR,2217.0
KLAN 170753Z 04004KT 10SM CLR 07/03 A2994 RMK AO2 SLP136 T00670028,KLAN,2023-05-17T07:53:00Z,42.78,-84.58,6.7,2.8,40,4,,10.0,29.940945,1013.6,,,TRUE,,,,,,,CLR,,,,,,,,VFR,,,,,,,,,,,,METAR,261.0
KLAA 170753Z AUTO 04006KT 10SM BKN120 16/11 A3003 RMK AO2 SLP126 T01560111,KLAA,2023-05-17T07:53:00Z,38.07,-102.68,15.6,11.1,40,6,,10.0,30.029528,1012.6,,TRUE,TRUE,,,,,,,BKN,12000,,,,,,,VFR,,,,,,,,,,,,SPECI,1129.0
KJKL 170753Z AUTO 32004KT 4SM BR CLR 14/13 A2985 RMK AO2 SLP097 T01390128,KJKL,2023-05-17T07:53:00Z,37.6,-83.32,13.9,12.8,320,4,,4.0,29.84941,1009.7,,TRUE,TRUE,,,,,,BR,CLR,,,,,,,,MVFR,,,,,,,,,,,,METAR,414.0
KJER 170753Z AUTO 23006KT 10SM CLR 15/07 A3010 RMK AO2 SLP160 T01500067,KJER,2023-05-17T07:53:00Z,42.72,-114.45,15.0,6.7,230,6,,10.0,30.100393,1016.0,,TRUE,TRUE,,,,,,,CLR,,,,,,,,VFR,,,,,,,,,,,,METAR,1226.0
KJEF 170753Z AUTO 00000KT 5SM BR CLR 14/13 A2992 RMK AO2 SLP119 T01440133 $,KJEF,2023-05-17T07:53:00Z,38.6,-92.15,14.4,13.3,0,0,,5.0,29.920275,1011.9,,TRUE,TRUE,TRUE,,,,,BR,CLR,,,,,,,,MVFR,,,,,,,,,,,,METAR,167.0
KIXD 170753Z AUTO 00000KT 5SM BR CLR 13/12 A2996 RMK AO2 SLP141 T01280122,KIXD,2023-05-17T07:53:00Z,38.82,-94.88,12.8,12.2,0,0,,5.0,29.958662,1014.1,,TRUE,TRUE,,,,,,BR,CLR,,,,,,,,MVFR,,,,,,,,,,,,METAR,322.0
KIWI 170753Z AUTO 00000KT 10SM OVC055 07/01 A2959 RMK AO2 SLP021 T00720011,KIWI,2023-05-17T07:53:00Z,43.97,-69.72,7.2,1.1,0,0,,10.0,29.589567,1002.1,,TRUE,TRUE,,,,,,,OVC,5500,,,,,,,VFR,,,,,,,,,,,,SPECI,16.0
KITR 170753Z AUTO 10004KT 10SM CLR 11/09 A3006 RMK AO2 SLP140 T01060089,KITR,2023-05-17T07:53:00Z,39.23,-102.28,10.6,8.9,100,4,,10.0,30.059055,1014.0,,TRUE,TRUE,,,,,,,CLR,,,,,,,,VFR,,,,,,,,,,,,SPECI,1285.0
KIPL 170753Z AUTO 00000KT 10SM CLR 26/04 A2980 RMK AO2 SLP090 T02560039 403890194,KIPL,2023-05-17T07:53:00Z,32.83,-115.58,25.6,3.9,0,0,,10.0,29.799213,1009.0,,TRUE,TRUE,,,,,,,CLR,,,,,,,,VFR,,,,38.9,19.4,,,,,,,METAR,-16.0
KINK 170753Z AUTO 11005KT 10SM CLR 18/13 A3000 RMK AO2 SLP118 T01830128,KINK,2023-05-17T07:53:00Z,31.78,-103.2,18.3,12.8,110,5,,10.0,30.0,1011.8,,TRUE,TRUE,,,,,,,CLR,,,,,,,,VFR,,,,,,,,,,,,METAR,857.0
KIML 170753Z AUTO 00000KT 10SM CLR 11/10 A3005 RMK AO2 SLP160 T01110100,KIML,2023-05-17T07:53:00Z,40.52,-101.62,11.1,10.0,0,0,,10.0,30.050198,1016.0,,TRUE,TRUE,,,,,,,CLR,,,,,,,,VFR,,,,,,,,,,,,SPECI,997.0
KILM 170753Z AUTO 24011KT 10SM CLR 24/20 A2973 RMK AO2 RAB15E27 SLP068 P0000 T02390200,KILM,2023-05-17T07:53:00Z,34.27,-77.9,23.9,20.0,240,11,,10.0,29.731298,1006.8,,TRUE,TRUE,,,,,,,CLR,,,,,,,,VFR,,,,,,0.005,,,,,,METAR,9.0
KIDA 170753Z AUTO 00000KT 10SM CLR 09/05 A3014 RMK AO2 SLP177 T00940050,KIDA,2023-05-17T07:53:00Z,43.52,-112.07,9.4,5.0,0,0,,10.0,30.138779,1017.7,,TRUE,TRUE,,,,,,,CLR,,,,,,,,VFR,,,,,,,,,,,,METAR,1444.0
KICT 170753Z 00000KT 8SM FEW020 SCT250 12/11 A2999 RMK AO2 SLP150 T01170106,KICT,2023-05-17T07:53:00Z,37.65,-97.43,11.7,10.6,0,0,,8.0,29.991142,1015.0,,,TRUE,,,,,,,FEW,2000,SCT,25000,,,,,VFR,,,,,,,,,,,,METAR,428.0
KICR 170753Z AUTO 20005KT 10SM CLR 12/07 A2999 RMK AO2 SLP147 T01220067,KICR,2023-05-17T07:53:00Z,43.38,-99.85,12.2,6.7,200,5,,10.0,29.991142,1014.7,,TRUE,TRUE,,,,,,,CLR,,,,,,,,VFR,,,,,,,,,,,,METAR,618.0
KIAH 170753Z 34003KT 10SM FEW250 21/19 A2990 RMK AO2 SLP124 T02060194,KIAH,2023-05-17T07:53:00Z,30.0,-95.37,20.6,19.4,340,3,,10.0,29.899607,1012.4,,,TRUE,,,,,,,FEW,25000,,,,,,,VFR,,,,,,,,,,,,METAR,27.0
KIAG 170753Z AUTO 03010KT 10SM OVC034 07/M01 A2985 RMK AO2 SLP110 T00671006,KIAG,2023-05-17T07:53:00Z,43.12,-78.93,6.7,-0.6,30,10,,10.0,29.84941,1011.0,,TRUE,TRUE,,,,,,,OVC,3400,,,,,,,VFR,,,,,,,,,,,,METAR,179.0
KHYR 170753Z AUTO 00000KT 10SM CLR 02/01 A3002 RMK AO2 SLP172 T00220006,KHYR,2023-05-17T07:53:00Z,46.02,-91.45,2.2,0.6,0,0,,10.0,30.02067,1017.2,,TRUE,TRUE,,,,,,,CLR,,,,,,,,VFR,,,,,,,,,,,,METAR,369.0
KHWO 170753Z AUTO 27005KT 10SM CLR 25/22 A2990 RMK AO2 SLP125 T02500217,KHWO,2023-05-17T07:53:00Z,26.0,-80.23,25.0,21.7,270,5,,10.0,29.899607,1012.5,,TRUE,TRUE,,,,,,,CLR,,,,,,,,VFR,,,,,,,,,,,,METAR,2.0
KHVR 170753Z AUTO 00000KT 10SM OVC100 15/05 A3007 RMK AO2 SLP166 T01500050,KHVR,2023-05-17T07:53:00Z,48.55,-109.77,15.0,5.0,0,0,,10.0,30.070866,1016.6,,TRUE,TRUE,,,,,,,OVC,10000,,,,,,,VFR,,,,,,,,,,,,METAR,789.0
KHVN 170753Z AUTO 35011G15KT 10SM FEW120 17/07 A2955 RMK AO2 SLP007 T01670067,KHVN,2023-05-17T07:53:00Z,41.27,-72.88,16.7,6.7,350,11,15,10.0,29.551182,1000.7,,TRUE,TRUE,,,,,,,FEW,12000,,,,,,,VFR,,,,,,,,,,,,METAR,4.0
KHUL 170753Z AUTO 31004KT 10SM SCT085 03/00 A2952 RMK AO2 SLP999 T00280000,KHUL,2023-05-17T07:53:00Z,46.12,-67.8,2.8,0.0,310,4,,10.0,29.518702,999.9,,TRUE,TRUE,,,,,,,SCT,8500,,,,,,,VFR,,,,,,,,,,,,METAR,148.0
KHUF 170753Z 00000KT 8SM CLR 12/12 A2986 RMK AO2 SLP109 T01220117,KHUF,2023-05-17T07:53:00Z,39.45,-87.32,12.2,11.7,0,0,,8.0,29.861221,1010.9,,,TRUE,,,,,,,CLR,,,,,,,,VFR,,,,,,,,,,,,METAR,174.0
KHSV 170753Z AUTO 00000KT 10SM BKN026 BKN090 19/ A2983 RMK AO2 RAB0654E12 SLP094 P0009 T0194 $,KHSV,2023-05-17T07:53:00Z,34.65,-86.78,19.4,,0,0,,10.0,29.828741,1009.4,,TRUE,TRUE,TRUE,,,,,,BKN,2600,BKN,9000,,,,,MVFR,,,,,,0.09,,,,,,METAR,190.0
KHSI 170753Z AUTO 00000KT 10SM CLR 11/05 A3001 RMK AO2 SLP154 T01060050,KHSI,2023-05-17T07:53:00Z,40.6,-98.43,10.6,5.0,0,0,,10.0,30.008858,1015.4,,TRUE,TRUE,,,,,,,CLR,,,,,,,,VFR,,,,,,,,,,,,SPECI,592.0
KHRI 170753Z AUTO 25004KT 10SM SCT065 BKN110 19/15 A3002 RMK AO2 SLP159 T01890150 403110144,KHRI,2023-05-17T07:53:00Z,45.83,-119.27,18.9,15.0,250,4,,10.0,30.02067,1015.9,,TRUE,TRUE,,,,,,,SCT,6500,BKN,11000,,,,,VFR,,,,31.1,14.4,,,,,,,SPECI,194.0
KHQM 170753Z AUTO 32004KT 10SM OVC009 14/12 A3009 RMK AO2 SLP191 T01440117 401780139,KHQM,2023-05-17T07:53:00Z,46.97,-123.93,14.4,11.7,320,4,,10.0,30.088583,1019.1,,TRUE,TRUE,,,,,,,OVC,900,,,,,,,IFR,,,,17.8,13.9,,,,,,,METAR,4.0
KHOU 170753Z 27003KT 10SM FEW210 21/19 A2990 RMK AO2 SLP128 T02110189 $,KHOU,2023-05-17T07:53:00Z,29.63,-95.28,21.1,18.9,270,3,,10.0,29.899607,1012.8,,,TRUE,TRUE,,,,,,FEW,21000,,,,,,,VFR,,,,,,,,,,,,METAR,13.0
KHLN 170753Z AUTO 32009KT 3SM HZ OVC035 15/08 A3016 RMK AO2 SLP200 T01500078,KHLN,2023-05-17T07:53:00Z,46.6,-111.98,15.0,7.8,320,9,,3.0,30.159449,1020.0,,TRUE,TRUE,,,,,,HZ,OVC,3500,,,,,,,MVFR,,,,,,,,,,,,METAR,1178.0
KHLG 170753Z AUTO 30004KT 7SM CLR 13/11 A2976 RMK AO2 SLP076 T01280106,KHLG,2023-05-17T07:53:00Z,40.17,-80.65,12.8,10.6,300,4,,7.0,29.760826,1007.6,,TRUE,TRUE,,,,,,,CLR,,,,,,,,VFR,,,,,,,,,,,,METAR,365.0
KHLC 170753Z AUTO 30003KT 10SM FEW085 13/09 A3003 RMK AO2 SLP155 T01280094,KHLC,2023-05-17T07:53:00Z,39.37,-99.83,12.8,9.4,300,3,,10.0,30.029528,1015.5,,TRUE,TRUE,,,,,,,FEW,8500,,,,,,,VFR,,,,,,,,,,,,METAR,667.0
KHKY 170753Z AUTO 03004KT 10SM CLR 18/17 A2974 RMK AO2 SLP048 T01780167,KHKY,2023-05-17T07:53:00Z,35.75,-81.38,17.8,16.7,30,4,,10.0,29.740158,1004.8,,TRUE,TRUE,,,,,,,CLR,,,,,,,,VFR,,,,,,,,,,,,METAR,357.0
KHKA 170753Z AUTO 36007KT 10SM OVC028 20/17 A2987 RMK AO2 SLP111 T02000167 $,KHKA,2023-05-17T07:53:00Z,35.93,-89.83,20.0,16.7,360,7,,10.0,29.870079,1011.1,,TRUE,TRUE,TRUE,,,,,,OVC,2800,,,,,,,MVFR,,,,,,,,,,,,METAR,78.0
KHJO 170753Z AUTO 33007KT 10SM CLR 23/11 A2990 RMK AO2 SLP125 T02330106 403500161,KHJO,2023-05-17T07:53:00Z,36.32,-119.62,23.3,10.6,330,7,,10.0,29.899607,1012.5,,TRUE,TRUE,,,,,,,CLR,,,,,,,,VFR,,,,35.0,16.1,,,,,,,METAR,73.0
KHIO 170753Z AUTO 30005KT 10SM CLR 17/13 A3001 RMK AO2 SLP160 T01670128 402890144,KHIO,2023-05-17T07:53:00Z,45.55,-122.95,16.7,12.8,300,5,,10.0,30.008858,1016.0,,TRUE,TRUE,,,,,,,CLR,,,,,,,,VFR,,,,28.9,14.4,,,,,,,METAR,62.0
KHIB 170753Z AUTO 00000KT 10SM BKN100 00/M01 A3001 RMK AO2 SLP170 T00001011,KHIB,2023-05-17T07:53:00Z,47.38,-92.83,0.0,-1.1,0,0,,10.0,30.008858,1017.0,,TRUE,TRUE,,,,,,,BKN,10000,,,,,,,VFR,,,,,,,,,,,,METAR,409.0
KHHR 170753Z AUTO 00000KT 6SM HZ OVC004 16/13 A2998 RMK AO2 SLP151 T01560128 402170156,KHHR,2023-05-17T07:53:00Z,33.92,-118.33,15.6,12.8,0,0,,6.0,29.97933,1015.1,,TRUE,TRUE,,,,,,HZ,OVC,400,,,,,,,LIFR,,,,21.7,15.6,,,,,,,METAR,21.0
KHGR 170753Z AUTO 21003KT 10SM CLR 16/10 A2966 RMK AO2 SLP049 T01560100,KHGR,2023-05-17T07:53:00Z,39.7,-77.73,15.6,10.0,210,3,,10.0,29.660433,1004.9,,TRUE,TRUE,,,,,,,CLR,,,,,,,,VFR,,,,,,,,,,,,METAR,206.0
KHFD 170753Z AUTO 34018G23KT 10SM OVC110 16/06 A2958 RMK AO2 SLP015 T01560061,KHFD,2023-05-17T07:53:00Z,41.73,-72.65,15.6,6.1,340,18,23,10.0,29.58071,1001.5,,TRUE,TRUE,,,,,,,OVC,11000,,,,,,,VFR,,,,,,,,,,,,METAR,3.0
KHEI 170753Z AUTO 16005KT 10SM CLR 13/08 A2994 RMK AO2 SLP128 T01330083,KHEI,2023-05-17T07:53:00Z,46.02,-102.65,13.3,8.3,160,5,,10.0,29.940945,1012.8,,TRUE,TRUE,,,,,,,CLR,,,,,,,,VFR,,,,,,,,,,,,METAR,824.0
KHBR 170753Z AUTO 12007KT 8SM 14/13 A2999 RMK AO2 SLPNO T01390133 $,KHBR,2023-05-17T07:53:00Z,34.98,-99.05,13.9,13.3,120,7,,8.0,29.991142,,,TRUE,TRUE,TRUE,,,,,,,,,,,,,,,,,,,,,,,,,,METAR,475.0
KHBG 170753Z AUTO 00000KT 7SM CLR 20/19 A2984 RMK AO2 SLP101 T02000194,KHBG,2023-05-17T07:53:00Z,31.27,-89.25,20.0,19.4,0,0,,7.0,29.840551,1010.1,,TRUE,TRUE,,,,,,,CLR,,,,,,,,VFR,,,,,,,,,,,,METAR,45.0
KHAO 170753Z AUTO 00000KT 5SM BR CLR 11/10 A2984 RMK AO2 SLP104 T01060100,KHAO,2023-05-17T07:53:00Z,39.37,-84.52,10.6,10.0,0,0,,5.0,29.840551,1010.4,,TRUE,TRUE,,,,,,BR,CLR,,,,,,,,MVFR,,,,,,,,,,,,METAR,185.0
KGUY 170753Z AUTO 00000KT 10SM CLR 16/13 A3000 RMK AO2 SLP118 T01560133,KGUY,2023-05-17T07:53:00Z,36.68,-101.5,15.6,13.3,0,0,,10.0,30.0,1011.8,,TRUE,TRUE,,,,,,,CLR,,,,,,,,VFR,,,,,,,,,,,,METAR,950.0
KGUP 170753Z AUTO 00000KT 10SM CLR 10/07 A3021 RMK AO2 SLP108 T01000072,KGUP,2023-05-17T07:53:00Z,35.52,-108.8,10.0,7.2,0,0,,10.0,30.209646,1010.8,,TRUE,TRUE,,,,,,,CLR,,,,,,,,VFR,,,,,,,,,,,,METAR,1972.0
KGTF 170753Z 23007KT 7SM -RA FU OVC075 10/08 A3016 RMK AO2 SLP196 P0007 T01000078,KGTF,2023-05-17T07:53:00Z,47.47,-111.38,10.0,7.8,230,7,,7.0,30.159449,1019.6,,,TRUE,,,,,,-RA FU,OVC,7500,,,,,,,VFR,,,,,,0.07,,,,,,METAR,1117.0
KGSP 170753Z AUTO 26005KT 10SM CLR 18/17 A2976 RMK AO2 SLP066 T01830167,KGSP,2023-05-17T07:53:00Z,34.9,-82.22,18.3,16.7,260,5,,10.0,29.760826,1006.6,,TRUE,TRUE,,,,,,,CLR,,,,,,,,VFR,,,,,,,,,,,,METAR,285.0
KGSH 170753Z AUTO 05004KT 10SM CLR 10/07 A2988 RMK AO2 SLP116 T01000072,KGSH,2023-05-17T07:53:00Z,41.53,-85.78,10.0,7.2,50,4,,10.0,29.878937,1011.6,,TRUE,TRUE,,,,,,,CLR,,,,,,,,VFR,,,,,,,,,,,,METAR,252.0
KGRR 170753Z AUTO 03004KT 10SM CLR 07/03 A2994 RMK AO2 SLP138 T00670033,KGRR,2023-05-17T07:53:00Z,42.88,-85.52,6.7,3.3,30,4,,10.0,29.940945,1013.8,,TRUE,TRUE,,,,,,,CLR,,,,,,,,VFR,,,,,,,,,,,,METAR,239.0
KGRI 170753Z AUTO 00000KT 10SM CLR 12/07 A3001 RMK AO2 SLP158 T01220067,KGRI,2023-05-17T07:53:00Z,40.97,-98.32,12.2,6.7,0,0,,10.0,30.008858,1015.8,,TRUE,TRUE,,,,,,,CLR,,,,,,,,VFR,,,,,,,,,,,,METAR,562.0
KGRB 170753Z AUTO 01008KT 10SM CLR 04/M02 A3003 RMK AO2 SLP170 T00441017,KGRB,2023-05-17T07:53:00Z,44.48,-88.13,4.4,-1.7,10,8,,10.0,30.029528,1017.0,,TRUE,TRUE,,,,,,,CLR,,,,,,,,VFR,,,,,,,,,,,,METAR,209.0
KGPT 170753Z AUTO 00000KT 10SM CLR 22/22 A2984 RMK AO2 RAB0656E18 SLP103 P0000 T02220217,KGPT,2023-05-17T07:53:00Z,30.42,-89.08,22.2,21.7,0,0,,10.0,29.840551,1010.3,,TRUE,TRUE,,,,,,,CLR,,,,,,,,VFR,,,,,,0.005,,,,,,METAR,5.0
KGOK 170753Z AUTO 00000KT 7SM CLR 12/12 A2997 RMK AO2 SLP145 T01220117,KGOK,2023-05-17T07:53:00Z,35.85,-97.4,12.2,11.7,0,0,,7.0,29.970472,1014.5,,TRUE,TRUE,,,,,,,CLR,,,,,,,,VFR,,,,,,,,,,,,METAR,326.0
KGNV 170753Z AUTO 00000KT 6SM BR CLR 21/20 A2988 RMK AO2 SLP116 T02060200,KGNV,2023-05-17T07:53:00Z,29.7,-82.28,20.6,20.0,0,0,,6.0,29.878937,1011.6,,TRUE,TRUE,,,,,,BR,CLR,,,,,,,,VFR,,,,,,,,,,,,METAR,41.0
KGMU 170753Z AUTO 28005KT 10SM CLR 19/18 A2976 RMK AO2 SLP068 T01940178,KGMU,2023-05-17T07:53:00Z,34.85,-82.35,19.4,17.8,280,5,,10.0,29.760826,1006.8,,TRUE,TRUE,,,,,,,CLR,,,,,,,,VFR,,,,,,,,,,,,METAR,309.0
KGLR 170753Z AUTO 04006KT 10SM CLR 04/M02 A2997 RMK AO2 SLP154 T00391022,KGLR,2023-05-17T07:53:00Z,45.02,-84.68,3.9,-2.2,40,6,,10.0,29.970472,1015.4,,TRUE,TRUE,,,,,,,CLR,,,,,,,,VFR,,,,,,,,,,,,SPECI,403.0
KGLH 170753Z AUTO 27005KT 10SM CLR 22/20 A2982 RMK AO2 SLP103 T02170200,KGLH,2023-05-17T07:53:00Z,33.47,-90.98,21.7,20.0,270,5,,10.0,29.819881,1010.3,,TRUE,TRUE,,,,,,,CLR,,,,,,,,VFR,,,,,,,,,,,,METAR,40.0
KGLD 170753Z AUTO 00000KT 10SM CLR 10/08 A3005 RMK AO2 SLP147 T01000083 $,KGLD,2023-05-17T07:53:00Z,39.37,-101.7,10.0,8.3,0,0,,10.0,30.050198,1014.7,,TRUE,TRUE,TRUE,,,,,,CLR,,,,,,,,VFR,,,,,,,,,,,,METAR,1111.0
KGKY 170753Z AUTO 00000KT 10SM CLR 16/14 A2994 RMK AO2 SLP132 T01560144,KGKY,2023-05-17T07:53:00Z,32.67,-97.1,15.6,14.4,0,0,,10.0,29.940945,1013.2,,TRUE,TRUE,,,,,,,CLR,,,,,,,,VFR,,,,,,,,,,,,METAR,189.0
KGJT 170753Z AUTO 00000KT 10SM CLR 15/04 A3010 RMK AO2 SLP131 T01500044,KGJT,2023-05-17T07:53:00Z,39.13,-108.53,15.0,4.4,0,0,,10.0,30.100393,1013.1,,TRUE,TRUE,,,,,,,CLR,,,,,,,,VFR,,,,,,,,,,,,METAR,1475.0
KGIF 170753Z AUTO 27004KT 10SM CLR 24/22 A2990 RMK AO2 SLP120 T02390222,KGIF,2023-05-17T07:53:00Z,28.07,-81.75,23.9,22.2,270,4,,10.0,29.899607,1012.0,,TRUE,TRUE,,,,,,,CLR,,,,,,,,VFR,,,,,,,,,,,,METAR,44.0
KGGG 170753Z AUTO 00000KT 10SM FEW046 17/16 A2990 RMK AO2 SLP120 T01720161,KGGG,2023-05-17T07:53:00Z,32.38,-94.72,17.2,16.1,0,0,,10.0,29.899607,1012.0,,TRUE,TRUE,,,,,,,FEW,4600,,,,,,,VFR,,,,,,,,,,,,METAR,107.0
KGFL 170753Z AUTO 01013G18KT 10SM BKN039 OVC047 07/M01 A2970 RMK AO2 SLP058 T00671006,KGFL,2023-05-17T07:53:00Z,43.33,-73.62,6.7,-0.6,10,13,18,10.0,29.698818,1005.8,,TRUE,TRUE,,,,,,,BKN,3900,OVC,4700,,,,,VFR,,,,,,,,,,,,METAR,99.0
KGFK 170753Z AUTO 16005KT 10SM CLR 12/04 A2989 RMK AO2 SLP119 T01170044 $,KGFK,2023-05-17T07:53:00Z,47.95,-97.18,11.7,4.4,160,5,,10.0,29.890747,1011.9,,TRUE,TRUE,TRUE,,,,,,CLR,,,,,,,,VFR,,,,,,,,,,,,METAR,256.0
KGEZ 170753Z AUTO 00000KT 10SM CLR 13/10 A2984 RMK AO2 SLP101 T01280100,KGEZ,2023-05-17T07:53:00Z,39.58,-85.8,12.8,10.0,0,0,,10.0,29.840551,1010.1,,TRUE,TRUE,,,,,,,CLR,,,,,,,,VFR,,,,,,,,,,,,METAR,245.0
KGEY 170753Z AUTO 12003KT 10SM CLR 12/05 A3003 RMK AO2 SLP140 T01170050,KGEY,2023-05-17T07:53:00Z,44.52,-108.08,11.7,5.0,120,3,,10.0,30.029528,1014.0,,TRUE,TRUE,,,,,,,CLR,,,,,,,,VFR,,,,,,,,,,,,METAR,1191.0
KGEG 170753Z 00000KT 10SM SCT200 16/12 A3007 RMK AO2 SLP170 T01560122 402390150,KGEG,2023-05-17T07:53:00Z,47.62,-117.53,15.6,12.2,0,0,,10.0,30.070866,1017.0,,,TRUE,,,,,,,SCT,20000,,,,,,,VFR,,,,23.9,15.0,,,,,,,METAR,718.0
KGCC 170753Z AUTO VRB03KT 10SM CLR 14/07 A3002 RMK AO2 SLP129 T01440072,KGCC,2023-05-17T07:53:00Z,44.33,-105.55,14.4,7.2,0,3,,10.0,30.02067,1012.9,,TRUE,TRUE,,,,,,,CLR,,,,,,,,VFR,,,,,,,,,,,,METAR,1328.0
KGAG 170753Z AUTO 00000KT 10SM CLR 14/12 A3002 RMK AO2 SLP143 T01440122,KGAG,2023-05-17T07:53:00Z,36.3,-99.77,14.4,12.2,0,0,,10.0,30.02067,1014.3,,TRUE,TRUE,,,,,,,CLR,,,,,,,,VFR,,,,,,,,,,,,METAR,670.0
KFXE 170753Z 25005KT 10SM CLR 24/23 A2989 RMK AO2 SLP122 T02390233 PNO,KFXE,2023-05-17T07:53:00Z,26.2,-80.18,23.9,23.3,250,5,,10.0,29.890747,1012.2,,,TRUE,,,,,,,CLR,,,,,,,,VFR,,,,,,,,,,,,METAR,3.0
KFWN 170753Z AUTO VRB06KT 10SM FEW110 14/05 A2963 RMK AO2 SLP032 T01440050,KFWN,2023-05-17T07:53:00Z,41.2,-74.63,14.4,5.0,0,6,,10.0,29.630905,1003.2,,TRUE,TRUE,,,,,,,FEW,11000,,,,,,,VFR,,,,,,,,,,,,METAR,129.0
KFVE 170753Z AUTO 34016G25KT 10SM FEW080 02/M07 A2952 RMK AO2 SLP999 T00171072,KFVE,2023-05-17T07:53:00Z,47.28,-68.3,1.7,-7.2,340,16,25,10.0,29.518702,999.9,,TRUE,TRUE,,,,,,,FEW,8000,,,,,,,VFR,,,,,,,,,,,,METAR,299.0
KFUL 170753Z AUTO 00000KT 9SM CLR 16/13 A2997 RMK AO2 SLP146 T01560128 402500156,KFUL,2023-05-17T07:53:00Z,33.87,-117.98,15.6,12.8,0,0,,9.0,29.970472,1014.6,,TRUE,TRUE,,,,,,,CLR,,,,,,,,VFR,,,,25.0,15.6,,,,,,,METAR,23.0
KFTW 170753Z 00000KT 10SM CLR 18/15 A2994 RMK AO2 SLP129 T01780150,KFTW,2023-05-17T07:53:00Z,32.83,-97.37,17.8,15.0,0,0,,10.0,29.940945,1012.9,,,TRUE,,,,,,,CLR,,,,,,,,VFR,,,,,,,,,,,,METAR,213.0
KFST 170753Z AUTO 18009KT 10SM CLR 18/11 A3002 RMK AO2 SLP124 T01780111,KFST,2023-05-17T07:53:00Z,30.92,-102.92,17.8,11.1,180,9,,10.0,30.02067,1012.4,,TRUE,TRUE,,,,,,,CLR,,,,,,,,VFR,,,,,,,,,,,,METAR,917.0
KFRG 170753Z AUTO 32009KT 10SM CLR 19/05 A2955 RMK AO2 SLP005 T01890050,KFRG,2023-05-17T07:53:00Z,40.73,-73.42,18.9,5.0,320,9,,10.0,29.551182,1000.5,,TRUE,TRUE,,,,,,,CLR,,,,,,,,VFR,,,,,,,,,,,,METAR,23.0
KFPR 170753Z AUTO 21003KT 10SM CLR 23/21 A2987 RMK AO2 SLP115 T02280206,KFPR,2023-05-17T07:53:00Z,27.5,-80.38,22.8,20.6,210,3,,10.0,29.870079,1011.5,,TRUE,TRUE,,,,,,,CLR,,,,,,,,VFR,,,,,,,,,,,,METAR,7.0
KFOK 170753Z AUTO 33010KT 10SM CLR 16/10 A2954 RMK AO2 SLP002 T01560100,KFOK,2023-05-17T07:53:00Z,40.85,-72.62,15.6,10.0,330,10,,10.0,29.53937,1000.2,,TRUE,TRUE,,,,,,,CLR,,,,,,,,VFR,,,,,,,,,,,,SPECI,13.0
KFOE 170753Z AUTO 7SM CLR 12/11 A2995 RMK AO2 SLP140 T01170111 $,KFOE,2023-05-17T07:53:00Z,38.93,-95.65,11.7,11.1,,,,7.0,29.949802,1014.0,,TRUE,TRUE,TRUE,,,,,,CLR,,,,,,,,VFR,,,,,,,,,,,,METAR,315.0
KFNT 170753Z AUTO 35004KT 10SM CLR 06/02 A2994 RMK AO2 SLP138 T00560017,KFNT,2023-05-17T07:53:00Z,42.97,-83.75,5.6,1.7,350,4,,10.0,29.940945,1013.8,,TRUE,TRUE,,,,,,,CLR,,,,,,,,VFR,,,,,,,,,,,,METAR,235.0
KFNB 170753Z AUTO 28003KT 10SM CLR 13/12 A2994 RMK AO2 SLP135 T01280117,KFNB,2023-05-17T07:53:00Z,40.07,-95.58,12.8,11.7,280,3,,10.0,29.940945,1013.5,,TRUE,TRUE,,,,,,,CLR,,,,,,,,VFR,,,,,,,,,,,,METAR,301.0
KFMY 170753Z AUTO 00000KT 10SM BKN017 26/23 A2988 RMK AO2 SLP121 T02560228,KFMY,2023-05-17T07:53:00Z,26.58,-81.87,25.6,22.8,0,0,,10.0,29.878937,1012.1,,TRUE,TRUE,,,,,,,BKN,1700,,,,,,,MVFR,,,,,,,,,,,,METAR,4.0
KFMN 170753Z AUTO 28003KT 10SM CLR 15/01 A3009 RMK AO2 SLP134 T01500011,KFMN,2023-05-17T07:53:00Z,36.75,-108.23,15.0,1.1,280,3,,10.0,30.088583,1013.4,,TRUE,TRUE,,,,,,,CLR,,,,,,,,VFR,,,,,,,,,,,,METAR,1677.0
KFLO 170753Z AUTO 19006KT 10SM CLR 22/19 A2972 RMK AO2 SLP062 T02220194,KFLO,2023-05-17T07:53:00Z,34.18,-79.73,22.2,19.4,190,6,,10.0,29.719488,1006.2,,TRUE,TRUE,,,,,,,CLR,,,,,,,,VFR,,,,,,,,,,,,METAR,43.0
KFLL 170753Z 26006KT 10SM FEW035 SCT100 24/23 A2988 RMK AO2 SLP118 T02440233,KFLL,2023-05-17T07:53:00Z,26.07,-80.15,24.4,23.3,260,6,,10.0,29.878937,1011.8,,,TRUE,,,,,,,FEW,3500,SCT,10000,,,,,VFR,,,,,,,,,,,,METAR,1.0
KFLD 170753Z AUTO 05009KT 10SM CLR 07/ A3001 RMK AO2 SLP164 T0067 $,KFLD,2023-05-17T07:53:00Z,43.77,-88.48,6.7,,50,9,,10.0,30.008858,1016.4,,TRUE,TRUE,TRUE,,,,,,CLR,,,,,,,,VFR,,,,,,,,,,,,SPECI,242.0
KFHR 170753Z AUTO 12004KT 10SM CLR 12/09 A3005 RMK AO2 SLP175 T01170089 402060117,KFHR,2023-05-17T07:53:00Z,48.52,-123.03,11.7,8.9,120,4,,10.0,30.050198,1017.5,,TRUE,TRUE,,,,,,,CLR,,,,,,,,VFR,,,,20.6,11.7,,,,,,,SPECI,34.0
KFFC 170753Z AUTO 00000KT 9SM OVC006 19/18 A2985 RMK AO2 SLP101 T01890183,KFFC,2023-05-17T07:53:00Z,33.35,-84.57,18.9,18.3,0,0,,9.0,29.84941,1010.1,,TRUE,TRUE,,,,,,,OVC,600,,,,,,,IFR,,,,,,,,,,,,METAR,242.0
KFDY 170753Z AUTO 02011KT 10SM CLR 11/06 A2985 RMK AO2 SLP102 T01110056,KFDY,2023-05-17T07:53:00Z,41.02,-83.67,11.1,5.6,20,11,,10.0,29.84941,1010.2,,TRUE,TRUE,,,,,,,CLR,,,,,,,,VFR,,,,,,,,,,,,METAR,247.0
KFDR 170753Z AUTO 06006KT 10SM CLR 16/15 A2994 RMK AO2 SLP125 T01560150,KFDR,2023-05-17T07:53:00Z,34.35,-98.98,15.6,15.0,60,6,,10.0,29.940945,1012.5,,TRUE,TRUE,,,,,,,CLR,,,,,,,,VFR,,,,,,,,,,,,METAR,378.0
KFCM 170753Z AUTO 07009KT 10SM CLR 14/06 A2995 RMK AO2 SLP138 T01390061,KFCM,2023-05-17T07:53:00Z,44.83,-93.47,13.9,6.1,70,9,,10.0,29.949802,1013.8,,TRUE,TRUE,,,,,,,CLR,,,,,,,,VFR,,,,,,,,,,,,SPECI,276.0
KFAY 170753Z 22005KT 10SM SCT120 20/19 A2971 RMK AO2 SLP053 T02000194,KFAY,2023-05-17T07:53:00Z,34.98,-78.88,20.0,19.4,220,5,,10.0,29.71063,1005.3,,,TRUE,,,,,,,SCT,12000,,,,,,,VFR,,,,,,,,,,,,METAR,57.0
KFAT 170753Z 31006KT 10SM FEW200 24/12 A2990 RMK AO2 SLP119 T02440122 403500178,KFAT,2023-05-17T07:53:00Z,36.78,-119.72,24.4,12.2,310,6,,10.0,29.899607,1011.9,,,TRUE,,,,,,,FEW,20000,,,,,,,VFR,,,,35.0,17.8,,,,,,,METAR,102.0
KFAR 170753Z 14004KT 10SM CLR 16/04 A2989 RMK AO2 SLP120 T01610044,KFAR,2023-05-17T07:53:00Z,46.9,-96.82,16.1,4.4,140,4,,10.0,29.890747,1012.0,,,TRUE,,,,,,,CLR,,,,,,,,VFR,,,,,,,,,,,,METAR,276.0
KEYW 170753Z AUTO 00000KT 10SM CLR 26/23 A2991 RMK AO2 SLP134 T02610228,KEYW,2023-05-17T07:53:00Z,24.55,-81.75,26.1,22.8,0,0,,10.0,29.911417,1013.4,,TRUE,TRUE,,,,,,,CLR,,,,,,,,VFR,,,,,,,,,,,,METAR,1.0
KEYE 170753Z AUTO 30005KT 10SM CLR 14/12 A2984 RMK AO2 SLP101 T01440117 $,KEYE,2023-05-17T07:53:00Z,39.83,-86.3,14.4,11.7,300,5,,10.0,29.840551,1010.1,,TRUE,TRUE,TRUE,,,,,,CLR,,,,,,,,VFR,,,,,,,,,,,,METAR,248.0
KEWB 170753Z AUTO 36009KT 10SM BKN110 12/09 A2952 RMK AO2 SLP995 T01220089,KEWB,2023-05-17T07:53:00Z,41.68,-70.95,12.2,8.9,360,9,,10.0,29.518702,999.5,,TRUE,TRUE,,,,,,,BKN,11000,,,,,,,VFR,,,,,,,,,,,,METAR,22.0
KEVW 170753Z AUTO 13006KT 10SM CLR 09/01 A3025 RMK AO2 SLP167 T00940006,KEVW,2023-05-17T07:53:00Z,41.27,-111.03,9.4,0.6,130,6,,10.0,30.250984,1016.7,,TRUE,TRUE,,,,,,,CLR,,,,,,,,VFR,,,,,,,,,,,,METAR,2178.0
KESF 170753Z AUTO 00000KT 10SM CLR 22/20 A2985 RMK AO2 SLP106 T02220200,KESF,2023-05-17T07:53:00Z,31.4,-92.28,22.2,20.0,0,0,,10.0,29.84941,1010.6,,TRUE,TRUE,,,,,,,CLR,,,,,,,,VFR,,,,,,,,,,,,METAR,27.0
KEQY 170753Z AUTO 25006KT 10SM CLR 18/17 A2973 RMK AO2 SLP066 T01830172 $,KEQY,2023-05-17T07:53:00Z,35.02,-80.62,18.3,17.2,250,6,,10.0,29.731298,1006.6,,TRUE,TRUE,TRUE,,,,,,CLR,,,,,,,,VFR,,,,,,,,,,,,METAR,205.0
KEPH 170753Z AUTO 00000KT 9SM CLR 12/12 A3003 RMK AO2 SLP168 T01220117 402330122,KEPH,2023-05-17T07:53:00Z,47.3,-119.52,12.2,11.7,0,0,,9.0,30.029528,1016.8,,TRUE,TRUE,,,,,,,CLR,,,,,,,,VFR,,,,23.3,12.2,,,,,,,METAR,382.0
KENW 170753Z AUTO 03008KT 10SM CLR 07/02 A2997 RMK AO2 SLP149 T00720017,KENW,2023-05-17T07:53:00Z,42.6,-87.93,7.2,1.7,30,8,,10.0,29.970472,1014.9,,TRUE,TRUE,,,,,,,CLR,,,,,,,,VFR,,,,,,,,,,,,METAR,222.0
KEMP 170753Z AUTO 28003KT 7SM CLR 13/12 A2996 RMK AO2 SLP145 T01280117,KEMP,2023-05-17T07:53:00Z,38.33,-96.2,12.8,11.7,280,3,,7.0,29.958662,1014.5,,TRUE,TRUE,,,,,,,CLR,,,,,,,,VFR,,,,,,,,,,,,METAR,366.0
KELY 170753Z AUTO 00000KT 10SM FEW110 09/04 A3023 RMK AO2 SLP158 T00890039 402440039,KELY,2023-05-17T07:53:00Z,39.3,-114.85,8.9,3.9,0,0,,10.0,30.230314,1015.8,,TRUE,TRUE,,,,,,,FEW,11000,,,,,,,VFR,,,,24.4,3.9,,,,,,,METAR,1906.0
KELN 170753Z AUTO 03003KT 10SM CLR 13/11 A3005 RMK AO2 SLP167 T01330111 402780133,KELN,2023-05-17T07:53:00Z,47.03,-120.53,13.3,11.1,30,3,,10.0,30.050198,1016.7,,TRUE,TRUE,,,,,,,CLR,,,,,,,,VFR,,,,27.8,13.3,,,,,,,METAR,532.0
KELM 170753Z AUTO 01007KT 10SM OVC017 07/03 A2977 RMK AO2 SLP079 T00720033,KELM,2023-05-17T07:53:00Z,42.15,-76.9,7.2,3.3,10,7,,10.0,29.769686,1007.9,,TRUE,TRUE,,,,,,,OVC,1700,,,,,,,MVFR,,,,,,,,,,,,METAR,287.0
KELD 170753Z AUTO 30004KT 10SM CLR 18/17 A2986 RMK AO2 SLP110 T01780172,KELD,2023-05-17T07:53:00Z,33.22,-92.82,17.8,17.2,300,4,,10.0,29.861221,1011.0,,TRUE,TRUE,,,,,,,CLR,,,,,,,,VFR,,,,,,,,,,,,METAR,76.0
KEEO 170753Z AUTO 06006KT 10SM CLR 07/02 A3022 RMK AO2 SLP167 T00670022,KEEO,2023-05-17T07:53:00Z,40.05,-107.88,6.7,2.2,60,6,,10.0,30.221457,1016.7,,TRUE,TRUE,,,,,,,CLR,,,,,,,,VFR,,,,,,,,,,,,SPECI,1957.0
KECP 170753Z AUTO 07003KT 10SM CLR 21/19 A2982 RMK AO1 SLP109 T02110194,KECP,2023-05-17T07:53:00Z,30.35,-85.8,21.1,19.4,70,3,,10.0,29.819881,1010.9,,TRUE,TRUE,,,,,,,CLR,,,,,,,,VFR,,,,,,,,,,,,METAR,17.0
KDXR 170753Z AUTO 36006KT 10SM CLR 15/05 A2960 RMK AO2 SLP021 T01500050,KDXR,2023-05-17T07:53:00Z,41.37,-73.48,15.0,5.0,360,6,,10.0,29.601377,1002.1,,TRUE,TRUE,,,,,,,CLR,,,,,,,,VFR,,,,,,,,,,,,METAR,138.0
KDWH 170753Z AUTO 32003KT 10SM FEW037 21/19 A2991 RMK AO2 SLP124 T02060194,KDWH,2023-05-17T07:53:00Z,30.07,-95.55,20.6,19.4,320,3,,10.0,29.911417,1012.4,,TRUE,TRUE,,,,,,,FEW,3700,,,,,,,VFR,,,,,,,,,,,,SPECI,46.0
KDVT 170753Z 09006KT 10SM CLR 27/11 A2992 RMK AO2 SLP105 T02720111,KDVT,2023-05-17T07:53:00Z,33.68,-112.07,27.2,11.1,90,6,,10.0,29.920275,1010.5,,,TRUE,,,,,,,CLR,,,,,,,,VFR,,,,,,,,,,,,SPECI,454.0
KDUJ 170753Z AUTO 34007KT 10SM CLR 10/04 A2972 RMK AO2 SLP059 T01000039 $,KDUJ,2023-05-17T07:53:00Z,41.17,-78.9,10.0,3.9,340,7,,10.0,29.719488,1005.9,,TRUE,TRUE,TRUE,,,,,,CLR,,,,,,,,VFR,,,,,,,,,,,,METAR,552.0
KDTW 170753Z 01006KT 10SM FEW250 07/00 A2991 RMK AO2 SLP127 T00720000 $,KDTW,2023-05-17T07:53:00Z,42.23,-83.33,7.2,0.0,10,6,,10.0,29.911417,1012.7,,,TRUE,TRUE,,,,,,FEW,25000,,,,,,,VFR,,,,,,,,,,,,METAR,192.0
KDTS 170753Z AUTO 15007KT 10SM CLR 25/21 A2981 RMK AO2 SLP095 T02500206,KDTS,2023-05-17T07:53:00Z,30.4,-86.47,25.0,20.6,150,7,,10.0,29.811024,1009.5,,TRUE,TRUE,,,,,,,CLR,,,,,,,,VFR,,,,,,,,,,,,SPECI,5.0
KDTO 170753Z AUTO 00000KT 10SM CLR 15/14 A2995 RMK AO2 SLP135 T01500144,KDTO,2023-05-17T07:53:00Z,33.2,-97.2,15.0,14.4,0,0,,10.0,29.949802,1013.5,,TRUE,TRUE,,,,,,,CLR,,,,,,,,VFR,,,,,,,,,,,,SPECI,199.0
KDTN 170753Z AUTO 32006KT 10SM CLR 19/17 A2989 RMK AO2 SLP120 T01940167,KDTN,2023-05-17T07:53:00Z,32.55,-93.75,19.4,16.7,320,6,,10.0,29.890747,1012.0,,TRUE,TRUE,,,,,,,CLR,,,,,,,,VFR,,,,,,,,,,,,METAR,53.0
KDRT 170753Z AUTO 00000KT 10SM CLR 21/19 A2996 RMK AO2 SLP138 T02110189,KDRT,2023-05-17T07:53:00Z,29.37,-100.92,21.1,18.9,0,0,,10.0,29.958662,1013.8,,TRUE,TRUE,,,,,,,CLR,,,,,,,,VFR,,,,,,,,,,,,METAR,303.0
KDRO 170753Z AUTO 05003KT 10SM FEW110 10/01 A3017 RMK AO2 SLP145 T01000006,KDRO,2023-05-17T07:53:00Z,37.15,-107.77,10.0,0.6,50,3,,10.0,30.171259,1014.5,,TRUE,TRUE,,,,,,,FEW,11000,,,,,,,VFR,,,,,,,,,,,,METAR,2021.0
KDRA 170753Z AUTO 23006KT 10SM CLR 21/06 A3003 RMK AO2 SLP121 T02110056 403330150,KDRA,2023-05-17T07:53:00Z,36.62,-116.03,21.1,5.6,230,6,,10.0,30.029528,1012.1,,TRUE,TRUE,,,,,,,CLR,,,,,,,,VFR,,,,33.3,15.0,,,,,,,METAR,988.0
KDNL 170753Z AUTO VRB06KT 10SM CLR 22/17 A2977 RMK AO2 SLP076 T02170172,KDNL,2023-05-17T07:53:00Z,33.47,-82.03,21.7,17.2,0,6,,10.0,29.769686,1007.6,,TRUE,TRUE,,,,,,,CLR,,,,,,,,VFR,,,,,,,,,,,,METAR,126.0
KDMO 170753Z AUTO 28005KT 8SM 15/13 A2994 RMK AO2 SLP134 T01500133 $,KDMO,2023-05-17T07:53:00Z,38.72,-93.17,15.0,13.3,280,5,,8.0,29.940945,1013.4,,TRUE,TRUE,TRUE,,,,,,,,,,,,,,,,,,,,,,,,,,METAR,271.0
KDMN 170753Z AUTO 25007KT 10SM OVC100 18/11 A3014 RMK AO2 SLP135 T01830111,KDMN,2023-05-17T07:53:00Z,32.27,-107.72,18.3,11.1,250,7,,10.0,30.138779,1013.5,,TRUE,TRUE,,,,,,,OVC,10000,,,,,,,VFR,,,,,,,,,,,,METAR,1310.0
KDLS 170753Z AUTO 00000KT 10SM CLR 20/13 A3000 RMK AO2 SLP156 T02000133 403330167,KDLS,2023-05-17T07:53:00Z,45.62,-121.17,20.0,13.3,0,0,,10.0,30.0,1015.6,,TRUE,TRUE,,,,,,,CLR,,,,,,,,VFR,,,,33.3,16.7,,,,,,,METAR,71.0
KDLN 170753Z AUTO 00000KT 10SM CLR 08/05 A3016 RMK AO2 SLP179 T00830050,KDLN,2023-05-17T07:53:00Z,45.25,-112.55,8.3,5.0,0,0,,10.0,30.159449,1017.9,,TRUE,TRUE,,,,,,,CLR,,,,,,,,VFR,,,,,,,,,,,,SPECI,1586.0
KDKK 170753Z AUTO 03010KT 10SM OVC029 09/03 A2983 RMK AO2 SLP100 T00940028,KDKK,2023-05-17T07:53:00Z,42.5,-79.28,9.4,2.8,30,10,,10.0,29.828741,1010.0,,TRUE,TRUE,,,,,,,OVC,2900,,,,,,,MVFR,,,,,,,,,,,,METAR,205.0
KDHT 170753Z AUTO 29009KT 10SM CLR 16/11 A3006 RMK AO2 SLP127 T01560106,KDHT,2023-05-17T07:53:00Z,36.02,-102.55,15.6,10.6,290,9,,10.0,30.059055,1012.7,,TRUE,TRUE,,,,,,,CLR,,,,,,,,VFR,,,,,,,,,,,,METAR,1217.0
KDHN 170753Z AUTO 16003KT 4SM BR OVC002 21/20 A2987 RMK AO2 SLP110 T02060200,KDHN,2023-05-17T07:53:00Z,31.32,-85.45,20.6,20.0,160,3,,4.0,29.870079,1011.0,,TRUE,TRUE,,,,,,BR,OVC,200,,,,,,,LIFR,,,,,,,,,,,,METAR,113.0
KDGW 170753Z AUTO 35003KT 10SM CLR 09/08 A3008 RMK AO2 SLP151 T00890078 $,KDGW,2023-05-17T07:53:00Z,42.8,-105.38,8.9,7.8,350,3,,10.0,30.079725,1015.1,,TRUE,TRUE,TRUE,,,,,,CLR,,,,,,,,VFR,,,,,,,,,,,,METAR,1503.0
KDFW 170753Z 00000KT 10SM FEW250 19/14 A2992 RMK AO2 SLP127 T01890144,KDFW,2023-05-17T07:53:00Z,32.9,-97.02,18.9,14.4,0,0,,10.0,29.920275,1012.7,,,TRUE,,,,,,,FEW,25000,,,,,,,VFR,,,,,,,,,,,,METAR,168.0
KDFI 170753Z AUTO 04007KT 10SM CLR 11/04 A2989 RMK AO2 SLP119 T01060044,KDFI,2023-05-17T07:53:00Z,41.33,-84.43,10.6,4.4,40,7,,10.0,29.890747,1011.9,,TRUE,TRUE,,,,,,,CLR,,,,,,,,VFR,,,,,,,,,,,,SPECI,215.0
KDEW 170753Z AUTO 00000KT 10SM CLR 13/12 A3007 RMK AO2 SLP174 T01280117 402500122,KDEW,2023-05-17T07:53:00Z,47.97,-117.43,12.8,11.7,0,0,,10.0,30.070866,1017.4,,TRUE,TRUE,,,,,,,CLR,,,,,,,,VFR,,,,25.0,12.2,,,,,,,METAR,672.0
KDET 170753Z 36006KT 10SM CLR 08/01 A2990 RMK AO2 SLPNO T00780011,KDET,2023-05-17T07:53:00Z,42.4,-83.02,7.8,1.1,360,6,,10.0,29.899607,,,,TRUE,,,,,,,CLR,,,,,,,,VFR,,,,,,,,,,,,METAR,190.0
KDEQ 170753Z AUTO 31003KT 10SM OVC036 19/16 A2987 RMK AO2 SLP112 T01940161,KDEQ,2023-05-17T07:53:00Z,34.05,-94.4,19.4,16.1,310,3,,10.0,29.870079,1011.2,,TRUE,TRUE,,,,,,,OVC,3600,,,,,,,VFR,,,,,,,,,,,,METAR,107.0
KDEN 170753Z 22011KT 10SM SCT140 13/08 A3013 RMK AO2 SLP134 T01280083,KDEN,2023-05-17T07:53:00Z,39.85,-104.65,12.8,8.3,220,11,,10.0,30.129921,1013.4,,,TRUE,,,,,,,SCT,14000,,,,,,,VFR,,,,,,,,,,,,METAR,1656.0
KDBQ 170753Z AUTO 07007KT 10SM CLR 11/04 A2996 RMK AO2 SLP141 T01060039,KDBQ,2023-05-17T07:53:00Z,42.4,-90.7,10.6,3.9,70,7,,10.0,29.958662,1014.1,,TRUE,TRUE,,,,,,,CLR,,,,,,,,VFR,,,,,,,,,,,,METAR,317.0
KDAN 170753Z AUTO 24003KT 7SM FEW060 17/17 A2970 RMK AO2 SLP047 T01720167 $,KDAN,2023-05-17T07:53:00Z,36.57,-79.33,17.2,16.7,240,3,,7.0,29.698818,1004.7,,TRUE,TRUE,TRUE,,,,,,FEW,6000,,,,,,,VFR,,,,,,,,,,,,METAR,170.0
KDAL 170753Z 00000KT 10SM SCT250 17/15 A2993 RMK AO2 SLP131 T01720150,KDAL,2023-05-17T07:53:00Z,32.85,-96.85,17.2,15.0,0,0,,10.0,29.929134,1013.1,,,TRUE,,,,,,,SCT,25000,,,,,,,VFR,,,,,,,,,,,,METAR,148.0
KDAB 170753Z 20003KT 10SM FEW120 23/20 A2987 RMK AO2 SLP113 T02280200,KDAB,2023-05-17T07:53:00Z,29.18,-81.07,22.8,20.0,200,3,,10.0,29.870079,1011.3,,,TRUE,,,,,,,FEW,12000,,,,,,,VFR,,,,,,,,,,,,METAR,8.0
KCYS 170753Z AUTO 28004KT 10SM BKN100 10/06 A3014 RMK AO2 SLP136 T01000056,KCYS,2023-05-17T07:53:00Z,41.15,-104.8,10.0,5.6,280,4,,10.0,30.138779,1013.6,,TRUE,TRUE,,,,,,,BKN,10000,,,,,,,VFR,,,,,,,,,,,,METAR,1868.0
KCXO 170753Z AUTO 00000KT 10SM CLR 20/19 A2991 RMK AO2 SLP125 T02000194,KCXO,2023-05-17T07:53:00Z,30.35,-95.42,20.0,19.4,0,0,,10.0,29.911417,1012.5,,TRUE,TRUE,,,,,,,CLR,,,,,,,,VFR,,,,,,,,,,,,METAR,69.0
KCUT 170753Z AUTO 32004KT 10SM CLR 06/04 A3010 RMK AO2 SLP152 T00610044,KCUT,2023-05-17T07:53:00Z,43.73,-103.62,6.1,4.4,320,4,,10.0,30.100393,1015.2,,TRUE,TRUE,,,,,,,CLR,,,,,,,,VFR,,,,,,,,,,,,METAR,1700.0
KCUB 170753Z AUTO 30005KT 10SM CLR 23/17 A2974 RMK AO2 SLP067 T02330167,KCUB,2023-05-17T07:53:00Z,33.97,-81.0,23.3,16.7,300,5,,10.0,29.740158,1006.7,,TRUE,TRUE,,,,,,,CLR,,,,,,,,VFR,,,,,,,,,,,,METAR,55.0
KCSM 170753Z AUTO 10005KT 10SM CLR 14/13 A3001 RMK AO2 SLP145 T01440133,KCSM,2023-05-17T07:53:00Z,35.35,-99.2,14.4,13.3,100,5,,10.0,30.008858,1014.5,,TRUE,TRUE,,,,,,,CLR,,,,,,,,VFR,,,,,,,,,,,,METAR,586.0
KCRS 170753Z AUTO 01004KT 10SM CLR 18/16 A2993 RMK AO2 SLP132 T01830161,KCRS,2023-05-17T07:53:00Z,32.03,-96.4,18.3,16.1,10,4,,10.0,29.929134,1013.2,,TRUE,TRUE,,,,,,,CLR,,,,,,,,VFR,,,,,,,,,,,,METAR,136.0
KCRQ 170753Z 00000KT 10SM OVC007 16/13 A2996 RMK AO2 SLP144 T01560133 401940139,KCRQ,2023-05-17T07:53:00Z,33.13,-117.28,15.6,13.3,0,0,,10.0,29.958662,1014.4,,,TRUE,,,,,,,OVC,700,,,,,,,IFR,,,,19.4,13.9,,,,,,,METAR,96.0
KCRG 170753Z AUTO 23005KT 10SM FEW026 FEW031 24/22 A2984 RMK AO2 SLP104 T02390217,KCRG,2023-05-17T07:53:00Z,30.33,-81.52,23.9,21.7,230,5,,10.0,29.840551,1010.4,,TRUE,TRUE,,,,,,,FEW,2600,FEW,3100,,,,,VFR,,,,,,,,,,,,METAR,12.0
KCRE 170753Z AUTO 35007KT 10SM FEW033 BKN042 BKN050 23/18 A2975 RMK AO1 SLP074 T02330183,KCRE,2023-05-17T07:53:00Z,33.82,-78.72,23.3,18.3,350,7,,10.0,29.749016,1007.4,,TRUE,TRUE,,,,,,,FEW,3300,BKN,4200,BKN,5000,,,VFR,,,,,,,,,,,,METAR,9.0
KCQC 170753Z AUTO 31006KT 10SM BKN085 BKN110 12/07 A3023 RMK AO2 SLP153 T01170067,KCQC,2023-05-17T07:53:00Z,35.0,-105.67,11.7,6.7,310,6,,10.0,30.230314,1015.3,,TRUE,TRUE,,,,,,,BKN,8500,BKN,11000,,,,,VFR,,,,,,,,,,,,METAR,2163.0
KCPR 170753Z AUTO 30004KT 10SM CLR 07/06 A3008 RMK AO2 SLP139 T00720061,KCPR,2023-05-17T07:53:00Z,42.9,-106.47,7.2,6.1,300,4,,10.0,30.079725,1013.9,,TRUE,TRUE,,,,,,,CLR,,,,,,,,VFR,,,,,,,,,,,,METAR,1623.0
KCOT 170753Z AUTO 29003KT 6SM BR CLR 21/19 A2994 RMK AO2 SLP131 T02060189,KCOT,2023-05-17T07:53:00Z,28.45,-99.22,20.6,18.9,290,3,,6.0,29.940945,1013.1,,TRUE,TRUE,,,,,,BR,CLR,,,,,,,,VFR,,,,,,,,,,,,METAR,144.0
KCNY 170753Z AUTO 02003KT 10SM CLR 13/00 A3007 RMK AO2 SLP133 T01280000,KCNY,2023-05-17T07:53:00Z,38.77,-109.75,12.8,0.0,20,3,,10.0,30.070866,1013.3,,TRUE,TRUE,,,,,,,CLR,,,,,,,,VFR,,,,,,,,,,,,METAR,1392.0
KCNO 170753Z AUTO 00000KT 10SM CLR 15/12 A2998 RMK AO2 SLP146 T01500117 403060133,KCNO,2023-05-17T07:53:00Z,33.98,-117.62,15.0,11.7,0,0,,10.0,29.97933,1014.6,,TRUE,TRUE,,,,,,,CLR,,,,,,,,VFR,,,,30.6,13.3,,,,,,,METAR,191.0
KCNM 170753Z AUTO 19006KT 10SM CLR 19/09 A3001 RMK AO2 SLP111 T01940089,KCNM,2023-05-17T07:53:00Z,32.33,-104.25,19.4,8.9,190,6,,10.0,30.008858,1011.1,,TRUE,TRUE,,,,,,,CLR,,,,,,,,VFR,,,,,,,,,,,,METAR,993.0
KCMX 170753Z AUTO 08008KT 10SM CLR 03/M02 A3007 RMK AO2 SLP189 T00281022,KCMX,2023-05-17T07:53:00Z,47.17,-88.48,2.8,-2.2,80,8,,10.0,30.070866,1018.9,,TRUE,TRUE,,,,,,,CLR,,,,,,,,VFR,,,,,,,,,,,,METAR,326.0
KCMI 170753Z AUTO 02005KT 10SM CLR 13/11 A2988 RMK AO2 SLP115 T01280106,KCMI,2023-05-17T07:53:00Z,40.03,-88.27,12.8,10.6,20,5,,10.0,29.878937,1011.5,,TRUE,TRUE,,,,,,,CLR,,,,,,,,VFR,,,,,,,,,,,,METAR,227.0
KCLL 170753Z AUTO 00000KT 10SM CLR 20/18 A2992 RMK AO2 SLP126 T02000183,KCLL,2023-05-17T07:53:00Z,30.58,-96.37,20.0,18.3,0,0,,10.0,29.920275,1012.6,,TRUE,TRUE,,,,,,,CLR,,,,,,,,VFR,,,,,,,,,,,,METAR,96.0
KCHO 170753Z AUTO 00000KT 10SM OVC100 19/14 A2968 RMK AO2 SLP043 T01890139,KCHO,2023-05-17T07:53:00Z,38.13,-78.45,18.9,13.9,0,0,,10.0,29.681103,1004.3,,TRUE,TRUE,,,,,,,OVC,10000,,,,,,,VFR,,,,,,,,,,,,METAR,193.0
KCGI 170753Z AUTO 00000KT 10SM CLR 17/16 A2988 RMK AO2 SLP116 T01670156,KCGI,2023-05-17T07:53:00Z,37.23,-89.58,16.7,15.6,0,0,,10.0,29.878937,1011.6,,TRUE,TRUE,,,,,,,CLR,,,,,,,,VFR,,,,,,,,,,,,METAR,103.0
KCEZ 170753Z AUTO 06006KT 10SM CLR 07/04 A3014 RMK AO2 SLP146 T00720039,KCEZ,2023-05-17T07:53:00Z,37.3,-108.63,7.2,3.9,60,6,,10.0,30.138779,1014.6,,TRUE,TRUE,,,,,,,CLR,,,,,,,,VFR,,,,,,,,,,,,METAR,1801.0
KCEW 170753Z AUTO 00000KT 10SM CLR 21/19 A2984 RMK AO2 SLP102 T02060194 $,KCEW,2023-05-17T07:53:00Z,30.78,-86.52,20.6,19.4,0,0,,10.0,29.840551,1010.2,,TRUE,TRUE,TRUE,,,,,,CLR,,,,,,,,VFR,,,,,,,,,,,,METAR,47.0
KCDW 170753Z AUTO 33007KT 10SM SCT100 18/03 A2959 RMK AO2 SLP023 T01780028,KCDW,2023-05-17T07:53:00Z,40.88,-74.28,17.8,2.8,330,7,,10.0,29.589567,1002.3,,TRUE,TRUE,,,,,,,SCT,10000,,,,,,,VFR,,,,,,,,,,,,METAR,52.0
KCDS 170753Z AUTO 18003KT 10SM CLR 17/14 A2999 RMK AO2 SLP135 T01720144,KCDS,2023-05-17T07:53:00Z,34.43,-100.28,17.2,14.4,180,3,,10.0,29.991142,1013.5,,TRUE,TRUE,,,,,,,CLR,,,,,,,,VFR,,,,,,,,,,,,METAR,595.0
KCDR 170753Z AUTO 00000KT 10SM CLR 10/08 A3001 RMK AO2 SLP152 T01000083,KCDR,2023-05-17T07:53:00Z,42.83,-103.1,10.0,8.3,0,0,,10.0,30.008858,1015.2,,TRUE,TRUE,,,,,,,CLR,,,,,,,,VFR,,,,,,,,,,,,METAR,1002.0
KCDC 170753Z AUTO VRB03KT 10SM CLR 12/05 A3019 RMK AO2 SLP164 T01220050,KCDC,2023-05-17T07:53:00Z,37.7,-113.1,12.2,5.0,0,3,,10.0,30.188976,1016.4,,TRUE,TRUE,,,,,,,CLR,,,,,,,,VFR,,,,,,,,,,,,METAR,1703.0
KCCR 170753Z AUTO 36003KT 10SM CLR 13/12 A2996 RMK AO2 SLP130 T01330117 403170117,KCCR,2023-05-17T07:53:00Z,38.0,-122.05,13.3,11.7,360,3,,10.0,29.958662,1013.0,,TRUE,TRUE,,,,,,,CLR,,,,,,,,VFR,,,,31.7,11.7,,,,,,,METAR,6.0
KCAG 170753Z AUTO 00000KT 10SM CLR 04/01 A3020 RMK AO2 SLP185 T00390011,KCAG,2023-05-17T07:53:00Z,40.5,-107.52,3.9,1.1,0,0,,10.0,30.200787,1018.5,,TRUE,TRUE,,,,,,,CLR,,,,,,,,VFR,,,,,,,,,,,,METAR,1888.0
KBYI 170753Z AUTO 21006KT 10SM CLR 12/07 A3009 RMK AO2 SLP158 T01170072,KBYI,2023-05-17T07:53:00Z,42.55,-113.77,11.7,7.2,210,6,,10.0,30.088583,1015.8,,TRUE,TRUE,,,,,,,CLR,,,,,,,,VFR,,,,,,,,,,,,METAR,1263.0
KBYG 170753Z AUTO 25006KT 10SM CLR 12/05 A3005 RMK AO2 SLP135 T01220050,KBYG,2023-05-17T07:53:00Z,44.38,-106.72,12.2,5.0,250,6,,10.0,30.050198,1013.5,,TRUE,TRUE,,,,,,,CLR,,,,,,,,VFR,,,,,,,,,,,,METAR,1503.0
KBWG 170753Z AUTO 00000KT 10SM CLR 17/15 A2986 RMK AO2 SLP107 T01720150,KBWG,2023-05-17T07:53:00Z,36.97,-86.42,17.2,15.0,0,0,,10.0,29.861221,1010.7,,TRUE,TRUE,,,,,,,CLR,,,,,,,,VFR,,,,,,,,,,,,METAR,159.0
KBVY 170753Z AUTO 33012KT 10SM FEW065 FEW075 OVC090 12/06 A2957 RMK AO2 SLP006 T01170056,KBVY,2023-05-17T07:53:00Z,42.58,-70.92,11.7,5.6,330,12,,10.0,29.568897,1000.6,,TRUE,TRUE,,,,,,,FEW,6500,FEW,7500,OVC,9000,,,VFR,,,,,,,,,,,,METAR,28.0
KBVO 170753Z AUTO 00000KT 10SM OVC032 17/16 A2998 RMK AO2 SLP145 T01720156,KBVO,2023-05-17T07:53:00Z,36.77,-96.02,17.2,15.6,0,0,,10.0,29.97933,1014.5,,TRUE,TRUE,,,,,,,OVC,3200,,,,,,,VFR,,,,,,,,,,,,METAR,210.0
KBUR 170753Z 00000KT 10SM CLR 15/12 A2997 RMK AO2 SLP139 T01500122 402560139 $,KBUR,2023-05-17T07:53:00Z,34.2,-118.37,15.0,12.2,0,0,,10.0,29.970472,1013.9,,,TRUE,TRUE,,,,,,CLR,,,,,,,,VFR,,,,25.6,13.9,,,,,,,METAR,221.0
KBTR 170753Z AUTO 10SM CLR 24/22 A2984 RMK AO2 SLP102 T02390222,KBTR,2023-05-17T07:53:00Z,30.53,-91.15,23.9,22.2,,,,10.0,29.840551,1010.2,,TRUE,TRUE,,,,,,,CLR,,,,,,,,VFR,,,,,,,,,,,,METAR,20.0
KBTM 170753Z AUTO 21007KT 10SM CLR 09/07 A3019 RMK AO2 SLP183 T00940067,KBTM,2023-05-17T07:53:00Z,45.97,-112.5,9.4,6.7,210,7,,10.0,30.188976,1018.3,,TRUE,TRUE,,,,,,,CLR,,,,,,,,VFR,,,,,,,,,,,,METAR,1680.0
KBTL 170753Z AUTO 05007KT 10SM CLR 09/03 A2992 RMK AO2 SLP128 T00940033,KBTL,2023-05-17T07:53:00Z,42.32,-85.25,9.4,3.3,50,7,,10.0,29.920275,1012.8,,TRUE,TRUE,,,,,,,CLR,,,,,,,,VFR,,,,,,,,,,,,METAR,282.0
KBRO 170753Z AUTO 00000KT 10SM CLR 24/23 A2989 RMK AO2 SLP120 T02390228,KBRO,2023-05-17T07:53:00Z,25.92,-97.42,23.9,22.8,0,0,,10.0,29.890747,1012.0,,TRUE,TRUE,,,,,,,CLR,,,,,,,,VFR,,,,,,,,,,,,METAR,6.0
KBRL 170753Z AUTO 32006KT 10SM CLR 15/09 A2987 RMK AO2 SLP112 T01500094,KBRL,2023-05-17T07:53:00Z,40.77,-91.13,15.0,9.4,320,6,,10.0,29.870079,1011.2,,TRUE,TRUE,,,,,,,CLR,,,,,,,,VFR,,,,,,,,,,,,METAR,208.0
KBRD 170753Z AUTO 13003KT 10SM CLR 09/03 A2999 RMK AO2 SLP155 T00890028,KBRD,2023-05-17T07:53:00Z,46.4,-94.13,8.9,2.8,130,3,,10.0,29.991142,1015.5,,TRUE,TRUE,,,,,,,CLR,,,,,,,,VFR,,,,,,,,,,,,METAR,372.0
KBPT 170753Z AUTO 29005KT 10SM CLR 21/19 A2988 RMK AO2 SLP118 T02110189,KBPT,2023-05-17T07:53:00Z,29.95,-94.03,21.1,18.9,290,5,,10.0,29.878937,1011.8,,TRUE,TRUE,,,,,,,CLR,,,,,,,,VFR,,,,,,,,,,,,METAR,6.0
KBPI 170753Z AUTO 11004KT 10SM CLR 05/01 A3024 RMK AO2 SLP168 T00500011,KBPI,2023-05-17T07:53:00Z,42.58,-110.1,5.0,1.1,110,4,,10.0,30.239174,1016.8,,TRUE,TRUE,,,,,,,CLR,,,,,,,,VFR,,,,,,,,,,,,METAR,2120.0
KBOI 170753Z 12003KT 10SM CLR 16/08 A3007 RMK AO2 SLP159 T01610083,KBOI,2023-05-17T07:53:00Z,43.57,-116.23,16.1,8.3,120,3,,10.0,30.070866,1015.9,,,TRUE,,,,,,,CLR,,,,,,,,VFR,,,,,,,,,,,,METAR,860.0
KBNO 170753Z AUTO 30007KT 10SM SCT085 BKN110 13/08 A3014 RMK AO2 SLP179 T01280078 402440067,KBNO,2023-05-17T07:53:00Z,43.6,-118.95,12.8,7.8,300,7,,10.0,30.138779,1017.9,,TRUE,TRUE,,,,,,,SCT,8500,BKN,11000,,,,,VFR,,,,24.4,6.7,,,,,,,METAR,1263.0
KBNA 170753Z 34007KT 7SM BKN016 OVC024 19/16 A2986 RMK AO2 SLP105 T01940161,KBNA,2023-05-17T07:53:00Z,36.12,-86.68,19.4,16.1,340,7,,7.0,29.861221,1010.5,,,TRUE,,,,,,,BKN,1600,OVC,2400,,,,,MVFR,,,,,,,,,,,,METAR,168.0
KBMQ 170753Z AUTO 01003KT 10SM CLR 18/17 A2997 RMK AO2 SLP135 T01780167,KBMQ,2023-05-17T07:53:00Z,30.73,-98.23,17.8,16.7,10,3,,10.0,29.970472,1013.5,,TRUE,TRUE,,,,,,,CLR,,,,,,,,VFR,,,,,,,,,,,,METAR,387.0
KBMG 170753Z AUTO 00000KT 10SM CLR 13/11 A2985 RMK AO2 SLP106 T01330111,KBMG,2023-05-17T07:53:00Z,39.15,-86.62,13.3,11.1,0,0,,10.0,29.84941,1010.6,,TRUE,TRUE,,,,,,,CLR,,,,,,,,VFR,,,,,,,,,,,,METAR,254.0
KBLI 170753Z AUTO 18008KT 10SM CLR 15/13 A3003 RMK AO2 SLP175 T01500133 402000139,KBLI,2023-05-17T07:53:00Z,48.8,-122.53,15.0,13.3,180,8,,10.0,30.029528,1017.5,,TRUE,TRUE,,,,,,,CLR,,,,,,,,VFR,,,,20.0,13.9,,,,,,,METAR,46.0
KBKV 170753Z AUTO 14004KT 7SM FEW021 22/21 A2989 RMK AO2 SLP120 T02170211,KBKV,2023-05-17T07:53:00Z,28.47,-82.45,21.7,21.1,140,4,,7.0,29.890747,1012.0,,TRUE,TRUE,,,,,,,FEW,2100,,,,,,,VFR,,,,,,,,,,,,METAR,21.0
KBKL 170753Z 03015KT 10SM BKN018 11/07 A2984 RMK AO2 SLP103 T01060067,KBKL,2023-05-17T07:53:00Z,41.53,-81.67,10.6,6.7,30,15,,10.0,29.840551,1010.3,,,TRUE,,,,,,,BKN,1800,,,,,,,MVFR,,,,,,,,,,,,METAR,177.0
KBIV 170753Z AUTO 00000KT 10SM CLR 09/04 A2994 RMK AO2 SLP139 T00890039 $,KBIV,2023-05-17T07:53:00Z,42.75,-86.1,8.9,3.9,0,0,,10.0,29.940945,1013.9,,TRUE,TRUE,TRUE,,,,,,CLR,,,,,,,,VFR,,,,,,,,,,,,METAR,207.0
KBIL 170753Z VRB04KT 10SM FEW060 SCT110 17/08 A3003 RMK AO2 SLP138 T01670083,KBIL,2023-05-17T07:53:00Z,45.8,-108.55,16.7,8.3,0,4,,10.0,30.029528,1013.8,,,TRUE,,,,,,,FEW,6000,SCT,11000,,,,,VFR,,,,,,,,,,,,METAR,1089.0
KBHM 170753Z 29005KT 8SM OVC006 21/19 A2987 RMK AO2 SLP106 T02060189 $,KBHM,2023-05-17T07:53:00Z,33.57,-86.75,20.6,18.9,290,5,,8.0,29.870079,1010.6,,,TRUE,TRUE,,,,,,OVC,600,,,,,,,IFR,,,,,,,,,,,,METAR,191.0
KBGR 170753Z 32008KT 10SM OVC050 06/02 A2956 RMK AO2 SLP011 T00560022,KBGR,2023-05-17T07:53:00Z,44.8,-68.82,5.6,2.2,320,8,,10.0,29.56004,1001.1,,,TRUE,,,,,,,OVC,5000,,,,,,,VFR,,,,,,,,,,,,METAR,45.0
KBFI 170753Z 29003KT 10SM CLR 16/12 A3005 RMK AO2 SLP174 T01560122,KBFI,2023-05-17T07:53:00Z,47.55,-122.32,15.6,12.2,290,3,,10.0,30.050198,1017.4,,,TRUE,,,,,,,CLR,,,,,,,,VFR,,,,,,,,,,,,METAR,7.0
KBFF 170753Z AUTO 08006KT 10SM CLR 12/11 A3004 RMK AO2 SLP135 T01220106,KBFF,2023-05-17T07:53:00Z,41.87,-103.6,12.2,10.6,80,6,,10.0,30.041338,1013.5,,TRUE,TRUE,,,,,,,CLR,,,,,,,,VFR,,,,,,,,,,,,METAR,1204.0
KBEH 170753Z AUTO 03003KT 10SM CLR 08/07 A2991 RMK AO2 SLP126 T00830067,KBEH,2023-05-17T07:53:00Z,42.13,-86.42,8.3,6.7,30,3,,10.0,29.911417,1012.6,,TRUE,TRUE,,,,,,,CLR,,,,,,,,VFR,,,,,,,,,,,,METAR,196.0
KBDE 170753Z AUTO 15005KT 10SM CLR 10/03 A2995 RMK AO2 SLP144 T01000028,KBDE,2023-05-17T07:53:00Z,48.73,-94.62,10.0,2.8,150,5,,10.0,29.949802,1014.4,,TRUE,TRUE,,,,,,,CLR,,,,,,,,VFR,,,,,,,,,,,,METAR,330.0
KBCE 170753Z AUTO 27006KT 10SM BKN085 07/04 A3029 RMK AO2 SLP163 T00720044,KBCE,2023-05-17T07:53:00Z,37.7,-112.15,7.2,4.4,270,6,,10.0,30.28937,1016.3,,TRUE,TRUE,,,,,,,BKN,8500,,,,,,,VFR,,,,,,,,,,,,METAR,2311.0
KBBW 170753Z AUTO 00000KT 10SM CLR 09/07 A3002 RMK AO2 SLP156 T00940072,KBBW,2023-05-17T07:53:00Z,41.43,-99.63,9.4,7.2,0,0,,10.0,30.02067,1015.6,,TRUE,TRUE,,,,,,,CLR,,,,,,,,VFR,,,,,,,,,,,,SPECI,771.0
KBAF 170753Z AUTO 01008KT 10SM CLR 11/05 A2960 RMK AO2 SLP023 T01110050,KBAF,2023-05-17T07:53:00Z,42.17,-72.72,11.1,5.0,10,8,,10.0,29.601377,1002.3,,TRUE,TRUE,,,,,,,CLR,,,,,,,,VFR,,,,,,,,,,,,METAR,80.0
KAZO 170753Z AUTO 00000KT 10SM CLR 09/06 A2992 RMK AO2 SLP129 T00940056,KAZO,2023-05-17T07:53:00Z,42.23,-85.55,9.4,5.6,0,0,,10.0,29.920275,1012.9,,TRUE,TRUE,,,,,,,CLR,,,,,,,,VFR,,,,,,,,,,,,METAR,264.0
KAXN 170753Z AUTO 10008KT 10SM CLR 13/08 A2996 RMK AO2 SLP141 T01330078,KAXN,2023-05-17T07:53:00Z,45.87,-95.4,13.3,7.8,100,8,,10.0,29.958662,1014.1,,TRUE,TRUE,,,,,,,CLR,,,,,,,,VFR,,,,,,,,,,,,METAR,433.0
KAWM 170753Z AUTO 05006KT 10SM FEW100 19/17 A2985 RMK AO2 SLP103 T01940167,KAWM,2023-05-17T07:53:00Z,35.13,-90.23,19.4,16.7,50,6,,10.0,29.84941,1010.3,,TRUE,TRUE,,,,,,,FEW,10000,,,,,,,VFR,,,,,,,,,,,,METAR,64.0
KAUS 170753Z 00000KT 10SM FEW250 17/17 A2992 RMK AO2 SLP126 T01720172,KAUS,2023-05-17T07:53:00Z,30.18,-97.68,17.2,17.2,0,0,,10.0,29.920275,1012.6,,,TRUE,,,,,,,FEW,25000,,,,,,,VFR,,,,,,,,,,,,METAR,148.0
KAUO 170753Z AUTO 26003KT 10SM CLR 19/19 A2986 RMK AO2 SLP101 T01890189,KAUO,2023-05-17T07:53:00Z,32.62,-85.43,18.9,18.9,260,3,,10.0,29.861221,1010.1,,TRUE,TRUE,,,,,,,CLR,,,,,,,,VFR,,,,,,,,,,,,SPECI,231.0
KAUG 170753Z AUTO 34006KT 10SM FEW046 05/01 A2959 RMK AO2 SLP022 T00500006,KAUG,2023-05-17T07:53:00Z,44.32,-69.8,5.0,0.6,340,6,,10.0,29.589567,1002.2,,TRUE,TRUE,,,,,,,FEW,4600,,,,,,,VFR,,,,,,,,,,,,METAR,107.0
KATY 170753Z AUTO 00000KT 10SM CLR 12/10 A2993 RMK AO2 SLP131 T01170100,KATY,2023-05-17T07:53:00Z,44.9,-97.15,11.7,10.0,0,0,,10.0,29.929134,1013.1,,TRUE,TRUE,,,,,,,CLR,,,,,,,,VFR,,,,,,,,,,,,METAR,531.0
KASX 170753Z AUTO 00000KT 10SM CLR 01/M01 A3004 RMK AO2 SLP181 T00061006,KASX,2023-05-17T07:53:00Z,46.55,-90.92,0.6,-0.6,0,0,,10.0,30.041338,1018.1,,TRUE,TRUE,,,,,,,CLR,,,,,,,,VFR,,,,,,,,,,,,SPECI,249.0
KASE 170753Z AUTO 20006KT 10SM CLR 05/M01 A3027 RMK AO2 SLP153 T00501006,KASE,2023-05-17T07:53:00Z,39.23,-106.87,5.0,-0.6,200,6,,10.0,30.268702,1015.3,,TRUE,TRUE,,,,,,,CLR,,,,,,,,VFR,,,,,,,,,,,,METAR,2384.0
KASD 170753Z AUTO 00000KT 10SM CLR 21/20 A2985 RMK AO2 SLP108 T02110200,KASD,2023-05-17T07:53:00Z,30.35,-89.82,21.1,20.0,0,0,,10.0,29.84941,1010.8,,TRUE,TRUE,,,,,,,CLR,,,,,,,,VFR,,,,,,,,,,,,METAR,8.0
KARB 170753Z AUTO 03004KT 10SM CLR 06/00 A2991 RMK AO2 SLP126 T00610000,KARB,2023-05-17T07:53:00Z,42.22,-83.73,6.1,0.0,30,4,,10.0,29.911417,1012.6,,TRUE,TRUE,,,,,,,CLR,,,,,,,,VFR,,,,,,,,,,,,METAR,251.0
KARA 170753Z AUTO 24003KT 6SM BR CLR 23/22 A2985 RMK AO2 SLP108 T02280217,KARA,2023-05-17T07:53:00Z,30.03,-91.88,22.8,21.7,240,3,,6.0,29.84941,1010.8,,TRUE,TRUE,,,,,,BR,CLR,,,,,,,,VFR,,,,,,,,,,,,METAR,5.0
KAPF 170753Z AUTO 00000KT 10SM CLR 26/22 A2989 RMK AO2 SLP120 T02560222 PWINO,KAPF,2023-05-17T07:53:00Z,26.15,-81.77,25.6,22.2,0,0,,10.0,29.890747,1012.0,,TRUE,TRUE,,,,,TRUE,,CLR,,,,,,,,VFR,,,,,,,,,,,,METAR,2.0
KAPA 170753Z 13007KT 10SM FEW100 SCT140 11/08 A3015 RMK AO2 SLP160 T01110078,KAPA,2023-05-17T07:53:00Z,39.57,-104.85,11.1,7.8,130,7,,10.0,30.15059,1016.0,,,TRUE,,,,,,,FEW,10000,SCT,14000,,,,,VFR,,,,,,,,,,,,METAR,1791.0
KAOO 170753Z AUTO 29006KT 10SM FEW029 13/09 A2970 RMK AO2 SLP050 T01330089,KAOO,2023-05-17T07:53:00Z,40.3,-78.32,13.3,8.9,290,6,,10.0,29.698818,1005.0,,TRUE,TRUE,,,,,,,FEW,2900,,,,,,,VFR,,,,,,,,,,,,METAR,450.0
KAOH 170753Z AUTO 01007KT 10SM CLR 11/07 A2986 RMK AO2 SLP107 T01110067,KAOH,2023-05-17T07:53:00Z,40.7,-84.02,11.1,6.7,10,7,,10.0,29.861221,1010.7,,TRUE,TRUE,,,,,,,CLR,,,,,,,,VFR,,,,,,,,,,,,SPECI,294.0
KANB 170753Z AUTO 23006KT 9SM OVC004 19/19 A2984 RMK AO2 SLP096 T01940189,KANB,2023-05-17T07:53:00Z,33.58,-85.85,19.4,18.9,230,6,,9.0,29.840551,1009.6,,TRUE,TRUE,,,,,,,OVC,400,,,,,,,LIFR,,,,,,,,,,,,METAR,187.0
KAMW 170753Z AUTO 25003KT 10SM CLR 12/09 A2990 RMK AO2 SLP117 T01220094,KAMW,2023-05-17T07:53:00Z,41.98,-93.62,12.2,9.4,250,3,,10.0,29.899607,1011.7,,TRUE,TRUE,,,,,,,CLR,,,,,,,,VFR,,,,,,,,,,,,SPECI,282.0
KAMG 170753Z AUTO 19003KT 10SM CLR 21/19 A2981 RMK AO2 SLP092 T02060189,KAMG,2023-05-17T07:53:00Z,31.53,-82.5,20.6,18.9,190,3,,10.0,29.811024,1009.2,,TRUE,TRUE,,,,,,,CLR,,,,,,,,VFR,,,,,,,,,,,,METAR,61.0
KAMA 170753Z AUTO 26008KT 10SM CLR 17/12 A3003 RMK AO2 SLP122 T01720122,KAMA,2023-05-17T07:53:00Z,35.22,-101.72,17.2,12.2,260,8,,10.0,30.029528,1012.2,,TRUE,TRUE,,,,,,,CLR,,,,,,,,VFR,,,,,,,,,,,,METAR,1102.0
KALW 170753Z AUTO 11003KT 10SM CLR 16/13 A3003 RMK AO2 SLP164 T01610128 402670139,KALW,2023-05-17T07:53:00Z,46.1,-118.28,16.1,12.8,110,3,,10.0,30.029528,1016.4,,TRUE,TRUE,,,,,,,CLR,,,,,,,,VFR,,,,26.7,13.9,,,,,,,METAR,355.0
KALI 170753Z AUTO 28003KT 10SM CLR 19/19 A2992 RMK AO2 SLP129 T01940189,KALI,2023-05-17T07:53:00Z,27.73,-98.02,19.4,18.9,280,3,,10.0,29.920275,1012.9,,TRUE,TRUE,,,,,,,CLR,,,,,,,,VFR,,,,,,,,,,,,METAR,52.0
KAKO 170753Z AUTO 30010KT 10SM CLR 12/09 A3008 RMK AO2 SLP145 T01170094,KAKO,2023-05-17T07:53:00Z,40.17,-103.22,11.7,9.4,300,10,,10.0,30.079725,1014.5,,TRUE,TRUE,,,,,,,CLR,,,,,,,,VFR,,,,,,,,,,,,SPECI,1431.0
KAIA 170753Z AUTO 00000KT 10SM CLR 10/08 A3003 RMK AO2 SLP142 T01000083,KAIA,2023-05-17T07:53:00Z,42.05,-102.8,10.0,8.3,0,0,,10.0,30.029528,1014.2,,TRUE,TRUE,,,,,,,CLR,,,,,,,,VFR,,,,,,,,,,,,METAR,1198.0
KAGS 170753Z AUTO 28004KT 10SM FEW110 21/17 A2975 RMK AO2 SLP072 T02060172,KAGS,2023-05-17T07:53:00Z,33.37,-81.97,20.6,17.2,280,4,,10.0,29.749016,1007.2,,TRUE,TRUE,,,,,,,FEW,11000,,,,,,,VFR,,,,,,,,,,,,METAR,40.0
KAGC 170753Z 32005KT 10SM CLR 13/10 A2973 RMK AO2 SLP068 T01330100,KAGC,2023-05-17T07:53:00Z,40.35,-79.92,13.3,10.0,320,5,,10.0,29.731298,1006.8,,,TRUE,,,,,,,CLR,,,,,,,,VFR,,,,,,,,,,,,METAR,380.0
KAFW 170753Z 00000KT 10SM SCT250 17/14 A2993 RMK AO2 SLP127 T01720144,KAFW,2023-05-17T07:53:00Z,32.97,-97.32,17.2,14.4,0,0,,10.0,29.929134,1012.7,,,TRUE,,,,,,,SCT,25000,,,,,,,VFR,,,,,,,,,,,,METAR,208.0
KAEX 170753Z 32003KT 10SM CLR 22/20 A2986 RMK AO2 SLP113 T02170200,KAEX,2023-05-17T07:53:00Z,31.33,-92.57,21.7,20.0,320,3,,10.0,29.861221,1011.3,,,TRUE,,,,,,,CLR,,,,,,,,VFR,,,,,,,,,,,,METAR,25.0
KADG 170753Z AUTO 03007KT 10SM CLR 09/02 A2991 RMK AO2 SLP129 T00890022,KADG,2023-05-17T07:53:00Z,41.87,-84.08,8.9,2.2,30,7,,10.0,29.911417,1012.9,,TRUE,TRUE,,,,,,,CLR,,,,,,,,VFR,,,,,,,,,,,,SPECI,244.0
KACK 170753Z AUTO 30008KT 7SM CLR 13/12 A2948 RMK AO2 SLP982 T01280122,KACK,2023-05-17T07:53:00Z,41.25,-70.07,12.8,12.2,300,8,,7.0,29.480314,998.2,,TRUE,TRUE,,,,,,,CLR,,,,,,,,VFR,,,,,,,,,,,,METAR,12.0
KABR 170753Z AUTO 00000KT 10SM CLR 13/09 A2992 RMK AO2 SLP127 T01330089,KABR,2023-05-17T07:53:00Z,45.45,-98.42,13.3,8.9,0,0,,10.0,29.920275,1012.7,,TRUE,TRUE,,,,,,,CLR,,,,,,,,VFR,,,,,,,,,,,,METAR,397.0
KAAF 170753Z AUTO 28005KT 10SM FEW022 25/23 A2985 RMK AO2 RAB31E49 SLP109 P0015 T02500233 $,KAAF,2023-05-17T07:53:00Z,29.73,-85.03,25.0,23.3,280,5,,10.0,29.84941,1010.9,,TRUE,TRUE,TRUE,,,,,,FEW,2200,,,,,,,VFR,,,,,,0.15,,,,,,METAR,5.0
PTKK 170752Z 03007KT 15SM SCT014CB BKN120 OVC280 39/26 A2979 RMK SHRAB11E45 CB ALQDS MOV SW SLP089 T03910260,PTKK,2023-05-17T07:52:00Z,7.47,151.85,39.1,26.0,30,7,,15.0,29.790354,1008.9,,,,,,,,,,SCT,1400,BKN,12000,OVC,28000,,,VFR,,,,,,,,,,,,METAR,3.0
PKMR 170752Z 06006KT 15SM FEW014 SCT050 BKN120 OVC300 29/25 A2981 RMK SLP098 T02870248,PKMR,2023-05-17T07:52:00Z,7.08,171.38,28.7,24.8,60,6,,15.0,29.811024,1009.8,,,,,,,,,,FEW,1400,SCT,5000,BKN,12000,OVC,30000,VFR,,,,,,,,,,,,METAR,7.0
PATA 170752Z AUTO 00000KT 10SM OVC075 04/01 A3010 RMK AO2 SLP197 T00440011 TSNO $,PATA,2023-05-17T07:52:00Z,65.17,-152.1,4.4,1.1,0,0,,10.0,30.100393,1019.7,,TRUE,TRUE,TRUE,,TRUE,,,,OVC,7500,,,,,,,VFR,,,,,,,,,,,,METAR,62.0
PABA 170752Z AUTO 07017KT 10SM OVC009 M04/M06 A3021 RMK AO2 SLP237 T10441056 FZRANO PNO $,PABA,2023-05-17T07:52:00Z,70.13,-143.58,-4.4,-5.6,70,17,,10.0,30.209646,1023.7,,TRUE,TRUE,TRUE,,,TRUE,,,OVC,900,,,,,,,IFR,,,,,,,,,,,,METAR,1.0
KVTN 170752Z AUTO 00000KT 10SM CLR 09/06 A3001 RMK AO2 SLP156 T00890061,KVTN,2023-05-17T07:52:00Z,42.87,-100.55,8.9,6.1,0,0,,10.0,30.008858,1015.6,,TRUE,TRUE,,,,,,,CLR,,,,,,,,VFR,,,,,,,,,,,,SPECI,790.0
KTRM 170752Z AUTO 34007KT 9SM CLR 27/11 A2981 RMK AO2 SLP098 T02720106 404000172 $,KTRM,2023-05-17T07:52:00Z,33.63,-116.17,27.2,10.6,340,7,,9.0,29.811024,1009.8,,TRUE,TRUE,TRUE,,,,,,CLR,,,,,,,,VFR,,,,40.0,17.2,,,,,,,METAR,-39.0
KTOL 170752Z 02008KT 10SM CLR 10/02 A2989 RMK AO2 SLP119 T01000022,KTOL,2023-05-17T07:52:00Z,41.58,-83.8,10.0,2.2,20,8,,10.0,29.890747,1011.9,,,TRUE,,,,,,,CLR,,,,,,,,VFR,,,,,,,,,,,,METAR,206.0
KTAN 170752Z AUTO 01003KT 10SM BKN100 OVC120 14/08 A2954 RMK AO2 SLP002 T01390083,KTAN,2023-05-17T07:52:00Z,41.88,-71.02,13.9,8.3,10,3,,10.0,29.53937,1000.2,,TRUE,TRUE,,,,,,,BKN,10000,OVC,12000,,,,,VFR,,,,,,,,,,,,SPECI,8.0
KSUX 170752Z AUTO 31005KT 10SM CLR 13/08 A2994 RMK AO2 SLP136 T01330078,KSUX,2023-05-17T07:52:00Z,42.38,-96.38,13.3,7.8,310,5,,10.0,29.940945,1013.6,,TRUE,TRUE,,,,,,,CLR,,,,,,,,VFR,,,,,,,,,,,,SPECI,332.0
KSPS 170752Z 06003KT 7SM CLR 16/14 A2996 RMK AO2 SLP135 T01560144,KSPS,2023-05-17T07:52:00Z,33.98,-98.5,15.6,14.4,60,3,,7.0,29.958662,1013.5,,,TRUE,,,,,,,CLR,,,,,,,,VFR,,,,,,,,,,,,METAR,310.0
KSPI 170752Z AUTO 24005KT 10SM CLR 14/12 A2987 RMK AO2 SLP112 T01390122,KSPI,2023-05-17T07:52:00Z,39.85,-89.68,13.9,12.2,240,5,,10.0,29.870079,1011.2,,TRUE,TRUE,,,,,,,CLR,,,,,,,,VFR,,,,,,,,,,,,METAR,179.0
KSGF 170752Z 34003KT 6SM BR OVC003 16/15 A2993 RMK AO2 SLP129 T01560150,KSGF,2023-05-17T07:52:00Z,37.23,-93.38,15.6,15.0,340,3,,6.0,29.929134,1012.9,,,TRUE,,,,,,BR,OVC,300,,,,,,,LIFR,,,,,,,,,,,,METAR,387.0
KREO 170752Z AUTO 13005KT 09/05 A3012 RMK AO1 SLP173 T00940050,KREO,2023-05-17T07:52:00Z,42.58,-117.87,9.4,5.0,130,5,,,30.121063,1017.3,,TRUE,TRUE,,,,,,,,,,,,,,,,,,,,,,,,,,,METAR,1237.0
KRAP 170752Z AUTO 00000KT 10SM CLR 11/08 A2999 RMK AO2 SLP143 T01110083 $,KRAP,2023-05-17T07:52:00Z,44.05,-103.05,11.1,8.3,0,0,,10.0,29.991142,1014.3,,TRUE,TRUE,TRUE,,,,,,CLR,,,,,,,,VFR,,,,,,,,,,,,METAR,965.0
KPYM 170752Z AUTO 02010KT 10SM OVC120 12/09 A2954 RMK AO2 SLP003 T01220089,KPYM,2023-05-17T07:52:00Z,41.92,-70.73,12.2,8.9,20,10,,10.0,29.53937,1000.3,,TRUE,TRUE,,,,,,,OVC,12000,,,,,,,VFR,,,,,,,,,,,,SPECI,42.0
KPWK 170752Z AUTO 01009KT 10SM CLR 08/02 A2996 RMK AO2 SLP143 T00780022 $,KPWK,2023-05-17T07:52:00Z,42.12,-87.9,7.8,2.2,10,9,,10.0,29.958662,1014.3,,TRUE,TRUE,TRUE,,,,,,CLR,,,,,,,,VFR,,,,,,,,,,,,SPECI,194.0
KP69 170752Z AUTO 00000KT 11/09 A3011 RMK AO1 SLP184 T01060094 402830094,KP69,2023-05-17T07:52:00Z,46.15,-115.6,10.6,9.4,0,0,,,30.109253,1018.4,,TRUE,TRUE,,,,,,,,,,,,,,,,,,,28.3,9.4,,,,,,,METAR,447.0
KORE 170752Z AUTO 34008KT 10SM CLR 09/03 A2962 RMK AO2 SLP030 T00890033,KORE,2023-05-17T07:52:00Z,42.57,-72.28,8.9,3.3,340,8,,10.0,29.619095,1003.0,,TRUE,TRUE,,,,,,,CLR,,,,,,,,VFR,,,,,,,,,,,,SPECI,165.0
KOMA 170752Z 00000KT 10SM CLR 12/08 A2994 RMK AO2 SLP134 T01170078,KOMA,2023-05-17T07:52:00Z,41.32,-95.9,11.7,7.8,0,0,,10.0,29.940945,1013.4,,,TRUE,,,,,,,CLR,,,,,,,,VFR,,,,,,,,,,,,METAR,299.0
KOKC 170752Z 00000KT 10SM FEW025 13/12 A2998 RMK AO2 SLP145 T01330122,KOKC,2023-05-17T07:52:00Z,35.38,-97.6,13.3,12.2,0,0,,10.0,29.97933,1014.5,,,TRUE,,,,,,,FEW,2500,,,,,,,VFR,,,,,,,,,,,,METAR,391.0
KOKB 170752Z AUTO 00000KT 10SM OVC009 16/14 A2997 RMK AO2 SLP147 T01610139 402110150,KOKB,2023-05-17T07:52:00Z,33.22,-117.35,16.1,13.9,0,0,,10.0,29.970472,1014.7,,TRUE,TRUE,,,,,,,OVC,900,,,,,,,IFR,,,,21.1,15.0,,,,,,,SPECI,7.0
KNZY 170752Z 32007KT 10SM OVC009 16/14 A2996 RMK AO2 SLP146 T01610144 402000150,KNZY,2023-05-17T07:52:00Z,32.7,-117.22,16.1,14.4,320,7,,10.0,29.958662,1014.6,,,TRUE,,,,,,,OVC,900,,,,,,,IFR,,,,20.0,15.0,,,,,,,SPECI,4.0
KNRB 170752Z AUTO 24005KT 10SM FEW026 24/22 A2983 RMK AO2 SLP102 T02440222,KNRB,2023-05-17T07:52:00Z,30.38,-81.42,24.4,22.2,240,5,,10.0,29.828741,1010.2,,TRUE,TRUE,,,,,,,FEW,2600,,,,,,,VFR,,,,,,,,,,,,METAR,4.0
KNHK 170752Z AUTO 26005KT 10SM OVC085 19/17 A2962 RMK AO2 SLP029 T01940167,KNHK,2023-05-17T07:52:00Z,38.28,-76.4,19.4,16.7,260,5,,10.0,29.619095,1002.9,,TRUE,TRUE,,,,,,,OVC,8500,,,,,,,VFR,,,,,,,,,,,,SPECI,5.0
KNFW 170752Z AUTO CLR 18/16 A2994 RMK AO2 SLP124 T01780161 TSNO CHINO S VISNO S $,KNFW,2023-05-17T07:52:00Z,32.78,-97.43,17.8,16.1,,,,,29.940945,1012.4,,TRUE,TRUE,TRUE,,TRUE,,,,CLR,,,,,,,,,,,,,,,,,,,,SPECI,188.0
KNFG 170752Z 00000KT 10SM OVC008 17/14 A2998 RMK AO2 SLP150 T01670139 402280156 $,KNFG,2023-05-17T07:52:00Z,33.3,-117.35,16.7,13.9,0,0,,10.0,29.97933,1015.0,,,TRUE,TRUE,,,,,,OVC,800,,,,,,,IFR,,,,22.8,15.6,,,,,,,METAR,21.0
KN60 170752Z AUTO 19004KT 12/06 A2988 RMK AO1 SLP113 T01220061,KN60,2023-05-17T07:52:00Z,47.65,-101.43,12.2,6.1,190,4,,,29.878937,1011.3,,TRUE,TRUE,,,,,,,,,,,,,,,,,,,,,,,,,,,METAR,582.0
KMWH 170752Z 30004KT 7SM CLR 15/14 A3003 RMK AO2 SLP169 T01500144 402330139,KMWH,2023-05-17T07:52:00Z,47.2,-119.32,15.0,14.4,300,4,,7.0,30.029528,1016.9,,,TRUE,,,,,,,CLR,,,,,,,,VFR,,,,23.3,13.9,,,,,,,METAR,355.0
KMLI 170752Z AUTO 07012KT 10SM CLR 14/07 A2991 RMK AO2 SLP127 T01390067,KMLI,2023-05-17T07:52:00Z,41.45,-90.52,13.9,6.7,70,12,,10.0,29.911417,1012.7,,TRUE,TRUE,,,,,,,CLR,,,,,,,,VFR,,,,,,,,,,,,METAR,174.0
KMLF 170752Z AUTO 27009KT 10SM CLR 12/06 A3014 RMK AO2 SLP152 T01170061,KMLF,2023-05-17T07:52:00Z,38.42,-113.02,11.7,6.1,270,9,,10.0,30.138779,1015.2,,TRUE,TRUE,,,,,,,CLR,,,,,,,,VFR,,,,,,,,,,,,SPECI,1537.0
KMKE 170752Z 02013G22KT 10SM CLR 07/01 A2997 RMK AO2 SLP150 T00670011,KMKE,2023-05-17T07:52:00Z,42.95,-87.9,6.7,1.1,20,13,22,10.0,29.970472,1015.0,,,TRUE,,,,,,,CLR,,,,,,,,VFR,,,,,,,,,,,,METAR,203.0
KMFD 170752Z AUTO 35008KT 10SM CLR 09/07 A2982 RMK AO2 SLP097 T00940067,KMFD,2023-05-17T07:52:00Z,40.82,-82.52,9.4,6.7,350,8,,10.0,29.819881,1009.7,,TRUE,TRUE,,,,,,,CLR,,,,,,,,VFR,,,,,,,,,,,,METAR,394.0
KMEB 170752Z AUTO 24003KT 10SM CLR 19/18 A2972 RMK AO2 SLP063 T01940178,KMEB,2023-05-17T07:52:00Z,34.78,-79.37,19.4,17.8,240,3,,10.0,29.719488,1006.3,,TRUE,TRUE,,,,,,,CLR,,,,,,,,VFR,,,,,,,,,,,,SPECI,65.0
KMBG 170752Z AUTO 11007KT 10SM CLR 13/08 A2992 RMK AO2 SLP125 T01280083,KMBG,2023-05-17T07:52:00Z,45.55,-100.42,12.8,8.3,110,7,,10.0,29.920275,1012.5,,TRUE,TRUE,,,,,,,CLR,,,,,,,,VFR,,,,,,,,,,,,METAR,515.0
KIOW 170752Z AUTO 08010G16KT 10SM CLR 14/08 A2992 RMK AO2 SLP129 T01440083,KIOW,2023-05-17T07:52:00Z,41.63,-91.55,14.4,8.3,80,10,16,10.0,29.920275,1012.9,,TRUE,TRUE,,,,,,,CLR,,,,,,,,VFR,,,,,,,,,,,,SPECI,199.0
KIJD 170752Z AUTO 01012G17KT 10SM OVC110 15/06 A2956 RMK AO2 SLP009 T01500056,KIJD,2023-05-17T07:52:00Z,41.75,-72.18,15.0,5.6,10,12,17,10.0,29.56004,1000.9,,TRUE,TRUE,,,,,,,OVC,11000,,,,,,,VFR,,,,,,,,,,,,SPECI,73.0
KIEN 170752Z AUTO 32003KT 10SM CLR 11/07 A3001 RMK AO2 SLP142 T01110072,KIEN,2023-05-17T07:52:00Z,43.03,-102.52,11.1,7.2,320,3,,10.0,30.008858,1014.2,,TRUE,TRUE,,,,,,,CLR,,,,,,,,VFR,,,,,,,,,,,,SPECI,1002.0
KIAD 170752Z 32003KT 10SM SCT140 BKN210 17/12 A2965 RMK AO2 SLP040 T01720117,KIAD,2023-05-17T07:52:00Z,38.93,-77.45,17.2,11.7,320,3,,10.0,29.648623,1004.0,,,TRUE,,,,,,,SCT,14000,BKN,21000,,,,,VFR,,,,,,,,,,,,METAR,90.0
KHRL 170752Z AUTO 05004KT 8SM CLR 22/22 A2989 RMK AO2 SLP120 T02170217,KHRL,2023-05-17T07:52:00Z,26.23,-97.65,21.7,21.7,50,4,,8.0,29.890747,1012.0,,TRUE,TRUE,,,,,,,CLR,,,,,,,,VFR,,,,,,,,,,,,METAR,9.0
KHIE 170752Z AUTO 30003KT 10SM FEW030 FEW045 BKN055 03/00 A2963 RMK AO2 RAE0654 SLP037 P0000 T00280000,KHIE,2023-05-17T07:52:00Z,44.37,-71.55,2.8,0.0,300,3,,10.0,29.630905,1003.7,,TRUE,TRUE,,,,,,,FEW,3000,FEW,4500,BKN,5500,,,VFR,,,,,,0.005,,,,,,METAR,321.0
KGLS 170752Z AUTO 31004KT 10SM FEW050 22/19 A2991 RMK AO2 SLP126 T02220194 $,KGLS,2023-05-17T07:52:00Z,29.27,-94.87,22.2,19.4,310,4,,10.0,29.911417,1012.6,,TRUE,TRUE,TRUE,,,,,,FEW,5000,,,,,,,VFR,,,,,,,,,,,,METAR,2.0
KFIT 170752Z AUTO 33008KT 10SM FEW060 BKN075 11/02 A2961 RMK AO2 SLP025 T01060022,KFIT,2023-05-17T07:52:00Z,42.55,-71.75,10.6,2.2,330,8,,10.0,29.610237,1002.5,,TRUE,TRUE,,,,,,,FEW,6000,BKN,7500,,,,,VFR,,,,,,,,,,,,SPECI,102.0
KEST 170752Z AUTO 31005KT 10SM CLR 14/09 A2991 RMK AO2 SLP125 T01390089,KEST,2023-05-17T07:52:00Z,43.4,-94.75,13.9,8.9,310,5,,10.0,29.911417,1012.5,,TRUE,TRUE,,,,,,,CLR,,,,,,,,VFR,,,,,,,,,,,,SPECI,401.0
KDVN 170752Z AUTO 08010KT 10SM CLR 12/06 A2994 RMK AO2 SLP133 T01220056,KDVN,2023-05-17T07:52:00Z,41.62,-90.58,12.2,5.6,80,10,,10.0,29.940945,1013.3,,TRUE,TRUE,,,,,,,CLR,,,,,,,,VFR,,,,,,,,,,,,METAR,227.0
KDPA 170752Z 04012KT 10SM FEW090 09/02 A2992 RMK AO2 SLP131 T00890017,KDPA,2023-05-17T07:52:00Z,41.88,-88.25,8.9,1.7,40,12,,10.0,29.920275,1013.1,,,TRUE,,,,,,,FEW,9000,,,,,,,VFR,,,,,,,,,,,,METAR,228.0
KDDC 170752Z AUTO 16007KT 7SM CLR 13/11 A3003 RMK AO2 SLP148 T01280111,KDDC,2023-05-17T07:52:00Z,37.77,-99.97,12.8,11.1,160,7,,7.0,30.029528,1014.8,,TRUE,TRUE,,,,,,,CLR,,,,,,,,VFR,,,,,,,,,,,,METAR,786.0
KDCA 170752Z 33010KT 10SM BKN140 OVC250 19/12 A2963 RMK AO2 SLP034 T01890122 $,KDCA,2023-05-17T07:52:00Z,38.85,-77.03,18.9,12.2,330,10,,10.0,29.630905,1003.4,,,TRUE,TRUE,,,,,,BKN,14000,OVC,25000,,,,,VFR,,,,,,,,,,,,METAR,4.0
KCVG 170752Z 00000KT 6SM BR CLR 09/09 A2983 RMK AO2 SLP099 T00940094,KCVG,2023-05-17T07:52:00Z,39.05,-84.67,9.4,9.4,0,0,,6.0,29.828741,1009.9,,,TRUE,,,,,,BR,CLR,,,,,,,,VFR,,,,,,,,,,,,METAR,264.0
KCQX 170752Z AUTO VRB05KT 10SM FEW110 14/13 A2950 RMK AO2 SLP989 T01440128,KCQX,2023-05-17T07:52:00Z,41.68,-70.0,14.4,12.8,0,5,,10.0,29.500984,998.9,,TRUE,TRUE,,,,,,,FEW,11000,,,,,,,VFR,,,,,,,,,,,,METAR,17.0
KCNU 170752Z AUTO 26003KT 10SM OVC030 16/14 A2997 RMK AO2 SLP141 T01610144,KCNU,2023-05-17T07:52:00Z,37.67,-95.48,16.1,14.4,260,3,,10.0,29.970472,1014.1,,TRUE,TRUE,,,,,,,OVC,3000,,,,,,,MVFR,,,,,,,,,,,,METAR,301.0
KCLT 170752Z 24007KT 10SM SCT120 19/18 A2973 RMK AO2 SLP074 T01890178,KCLT,2023-05-17T07:52:00Z,35.22,-80.95,18.9,17.8,240,7,,10.0,29.731298,1007.4,,,TRUE,,,,,,,SCT,12000,,,,,,,VFR,,,,,,,,,,,,METAR,223.0
KCKV 170752Z AUTO 34005KT 10SM OVC026 18/14 A2986 RMK AO2 SLP106 T01830144,KCKV,2023-05-17T07:52:00Z,36.62,-87.42,18.3,14.4,340,5,,10.0,29.861221,1010.6,,TRUE,TRUE,,,,,,,OVC,2600,,,,,,,MVFR,,,,,,,,,,,,METAR,166.0
KCID 170752Z AUTO 10013KT 10SM CLR 13/07 A2991 RMK AO2 WSHFT 0716 SLP123 T01330072,KCID,2023-05-17T07:52:00Z,41.88,-91.72,13.3,7.2,100,13,,10.0,29.911417,1012.3,,TRUE,TRUE,,,,,,,CLR,,,,,,,,VFR,,,,,,,,,,,,METAR,257.0
KCFV 170752Z AUTO 27003KT 10SM OVC025 17/14 A2996 RMK AO2 SLP142 T01720144,KCFV,2023-05-17T07:52:00Z,37.08,-95.57,17.2,14.4,270,3,,10.0,29.958662,1014.2,,TRUE,TRUE,,,,,,,OVC,2500,,,,,,,MVFR,,,,,,,,,,,,SPECI,228.0
KBML 170752Z AUTO 00000KT 10SM FEW019 FEW028 BKN055 02/01 A2961 RMK AO2 RAB0658E30SNB08E17 SLP032 P0000 T00220006,KBML,2023-05-17T07:52:00Z,44.58,-71.18,2.2,0.6,0,0,,10.0,29.610237,1003.2,,TRUE,TRUE,,,,,,,FEW,1900,FEW,2800,BKN,5500,,,VFR,,,,,,0.005,,,,,,SPECI,344.0
KBLU 170752Z AUTO 07003KT 10SM CLR 16/M01 A3019 RMK AO2 SLP137 T01561011 402330144,KBLU,2023-05-17T07:52:00Z,39.28,-120.7,15.6,-1.1,70,3,,10.0,30.188976,1013.7,,TRUE,TRUE,,,,,,,CLR,,,,,,,,VFR,,,,23.3,14.4,,,,,,,SPECI,1605.0
KBLF 170752Z AUTO 29005KT 10SM BKN007 BKN011 OVC017 13/12 A2984 RMK AO2 CIG 005V009 SLP080 T01280117,KBLF,2023-05-17T07:52:00Z,37.3,-81.2,12.8,11.7,290,5,,10.0,29.840551,1008.0,,TRUE,TRUE,,,,,,,BKN,700,BKN,1100,OVC,1700,,,IFR,,,,,,,,,,,,METAR,871.0
KBKB 170752Z AUTO 00000KT 10SM BKN045 21/19 A2986 RMK AO2 SLP135 T02110194 $,KBKB,2023-05-17T07:52:00Z,31.02,-92.92,21.1,19.4,0,0,,10.0,29.861221,1013.5,,TRUE,TRUE,TRUE,,,,,,BKN,4500,,,,,,,VFR,,,,,,,,,,,,METAR,74.0
KBIS 170752Z AUTO 00000KT 10SM CLR 13/07 A2991 RMK AO2 SLP124 T01280072,KBIS,2023-05-17T07:52:00Z,46.77,-100.75,12.8,7.2,0,0,,10.0,29.911417,1012.4,,TRUE,TRUE,,,,,,,CLR,,,,,,,,VFR,,,,,,,,,,,,METAR,506.0
KBDR 170752Z AUTO 34011KT 10SM SCT110 17/06 A2955 RMK AO2 SLP006 T01670056,KBDR,2023-05-17T07:52:00Z,41.17,-73.13,16.7,5.6,340,11,,10.0,29.551182,1000.6,,TRUE,TRUE,,,,,,,SCT,11000,,,,,,,VFR,,,,,,,,,,,,METAR,5.0
KBAN 170752Z AUTO VRB03KT 10SM CLR 07/M03 A3026 RMK AO2 SLP162 T00671028 402280017 PWINO $,KBAN,2023-05-17T07:52:00Z,38.35,-119.52,6.7,-2.8,0,3,,10.0,30.259842,1016.2,,TRUE,TRUE,TRUE,,,,TRUE,,CLR,,,,,,,,VFR,,,,22.8,1.7,,,,,,,SPECI,2067.0
KATL 170752Z 25005KT 6SM BR BKN004 BKN150 19/18 A2983 RMK AO2 SLP090 T01940183 $,KATL,2023-05-17T07:52:00Z,33.63,-84.45,19.4,18.3,250,5,,6.0,29.828741,1009.0,,,TRUE,TRUE,,,,,BR,BKN,400,BKN,15000,,,,,LIFR,,,,,,,,,,,,METAR,309.0
KARR 170752Z AUTO 04010KT 10SM CLR 09/02 A2992 RMK AO2 SLP130 T00940017,KARR,2023-05-17T07:52:00Z,41.77,-88.48,9.4,1.7,40,10,,10.0,29.920275,1013.0,,TRUE,TRUE,,,,,,,CLR,,,,,,,,VFR,,,,,,,,,,,,SPECI,213.0
KAQW 170752Z AUTO 28007KT 10SM BKN035 OVC048 08/01 A2966 RMK AO2 SLP043 T00780011,KAQW,2023-05-17T07:52:00Z,42.7,-73.17,7.8,1.1,280,7,,10.0,29.660433,1004.3,,TRUE,TRUE,,,,,,,BKN,3500,OVC,4800,,,,,VFR,,,,,,,,,,,,SPECI,196.0
KALS 170752Z AUTO 05004KT 10SM CLR 08/04 A3022 RMK AO2 SLP153 T00830039,KALS,2023-05-17T07:52:00Z,37.43,-105.87,8.3,3.9,50,4,,10.0,30.221457,1015.3,,TRUE,TRUE,,,,,,,CLR,,,,,,,,VFR,,,,,,,,,,,,METAR,2299.0
KAFN 170752Z AUTO 33007KT 10SM OVC036 08/02 A2961 RMK AO2 SLP031 T00830017,KAFN,2023-05-17T07:52:00Z,42.8,-72.0,8.3,1.7,330,7,,10.0,29.610237,1003.1,,TRUE,TRUE,,,,,,,OVC,3600,,,,,,,VFR,,,,,,,,,,,,SPECI,308.0
KABQ 170752Z 12006KT 10SM SCT100 SCT200 16/07 A3016 RMK AO2 SLP140 T01610072,KABQ,2023-05-17T07:52:00Z,35.05,-106.62,16.1,7.2,120,6,,10.0,30.159449,1014.0,,,TRUE,,,,,,,SCT,10000,SCT,20000,,,,,VFR,,,,,,,,,,,,METAR,1620.0
KABI 170752Z 10SM CLR 18/15 A2998 RMK AO2 SLP130 T01780150,KABI,2023-05-17T07:52:00Z,32.42,-99.68,17.8,15.0,,,,10.0,29.97933,1013.0,,,TRUE,,,,,,,CLR,,,,,,,,VFR,,,,,,,,,,,,METAR,543.0
RKNW 170751Z 27008KT 9999 SCT250 30/10 A2987,RKNW,2023-05-17T07:51:00Z,37.33,127.95,30.0,10.0,270,8,,6.21,29.870079,,,,,,,,,,,SCT,25000,,,,,,,VFR,,,,,,,,,,,,SPECI,152.0
PTYA 170751Z VRB04KT 12SM FEW016 BKN130 OVC300 29/26 A2982 RMK SLP098 T02880261,PTYA,2023-05-17T07:51:00Z,9.48,138.08,28.8,26.1,0,4,,12.0,29.819881,1009.8,,,,,,,,,,FEW,1600,BKN,13000,OVC,30000,,,VFR,,,,,,,,,,,,METAR,4.0
MUHA 170751Z 23001KT 9000 NSC 21/21 Q1013,MUHA,2023-05-17T07:51:00Z,22.98,-82.42,21.0,21.0,230,1,,5.59,29.911417,,,,,,,,,,,CLR,,,,,,,,VFR,,,,,,,,,,,,METAR,61.0
MUGM 170751Z 31006KT 10SM FEW110 SCT160 24/23 A2993 RMK AO2 SLP135 T02390228 $,MUGM,2023-05-17T07:51:00Z,19.9,-75.2,23.9,22.8,310,6,,10.0,29.929134,1013.5,,,TRUE,TRUE,,,,,,FEW,11000,SCT,16000,,,,,VFR,,,,,,,,,,,,METAR,21.0
KYNG 170751Z 36009KT 10SM SCT070 09/05 A2980 RMK AO2 SLP087 T00940050,KYNG,2023-05-17T07:51:00Z,41.25,-80.67,9.4,5.0,360,9,,10.0,29.799213,1008.7,,,TRUE,,,,,,,SCT,7000,,,,,,,VFR,,,,,,,,,,,,SPECI,356.0
KXWA 170751Z AUTO 18009KT 10SM CLR 16/07 A2983 RMK AO2 SLP099 T01560067,KXWA,2023-05-17T07:51:00Z,48.27,-103.75,15.6,6.7,180,9,,10.0,29.828741,1009.9,,TRUE,TRUE,,,,,,,CLR,,,,,,,,VFR,,,,,,,,,,,,SPECI,717.0
KVNY 170751Z AUTO 12003KT 10SM CLR 17/12 A2997 RMK AO2 SLP139 T01670117 402940144,KVNY,2023-05-17T07:51:00Z,34.22,-118.48,16.7,11.7,120,3,,10.0,29.970472,1013.9,,TRUE,TRUE,,,,,,,CLR,,,,,,,,VFR,,,,29.4,14.4,,,,,,,SPECI,241.0
KVCT 170751Z AUTO 00000KT 7SM FEW004 21/21 A2993 RMK AO2 SLP132 T02060206,KVCT,2023-05-17T07:51:00Z,28.87,-96.93,20.6,20.6,0,0,,7.0,29.929134,1013.2,,TRUE,TRUE,,,,,,,FEW,400,,,,,,,VFR,,,,,,,,,,,,SPECI,33.0
KUGN 170751Z AUTO 02012G18KT 10SM CLR 07/02 A2996 RMK AO2 SLP139 T00720017,KUGN,2023-05-17T07:51:00Z,42.42,-87.87,7.2,1.7,20,12,18,10.0,29.958662,1013.9,,TRUE,TRUE,,,,,,,CLR,,,,,,,,VFR,,,,,,,,,,,,SPECI,217.0
KTPL 170751Z AUTO 30004KT CLR 17/17 A2994 RMK AO2 SLP131 T01670167 PWINO RVRNO $,KTPL,2023-05-17T07:51:00Z,31.15,-97.4,16.7,16.7,300,4,,,29.940945,1013.1,,TRUE,TRUE,TRUE,,,,TRUE,,CLR,,,,,,,,,,,,,,,,,,,,SPECI,206.0
KTEB 170751Z 33009G18KT 10SM OVC100 18/04 A2955 RMK AO2 SLP007 T01780044,KTEB,2023-05-17T07:51:00Z,40.87,-74.05,17.8,4.4,330,9,18,10.0,29.551182,1000.7,,,TRUE,,,,,,,OVC,10000,,,,,,,VFR,,,,,,,,,,,,SPECI,3.0
KSTL 170751Z 27003KT 9SM CLR 16/14 A2990 RMK AO2 SLP120 T01560139,KSTL,2023-05-17T07:51:00Z,38.75,-90.37,15.6,13.9,270,3,,9.0,29.899607,1012.0,,,TRUE,,,,,,,CLR,,,,,,,,VFR,,,,,,,,,,,,SPECI,163.0
KSNT 170751Z AUTO 00000KT 03/01 A3023 RMK AO1 SLP169 T00280006,KSNT,2023-05-17T07:51:00Z,44.17,-114.93,2.8,0.6,0,0,,,30.230314,1016.9,,TRUE,TRUE,,,,,,,,,,,,,,,,,,,,,,,,,,,METAR,1980.0
KSMO 170751Z AUTO 00000KT 5SM BR OVC002 13/12 A2998 RMK AO2 SLP151 T01330122 401780128,KSMO,2023-05-17T07:51:00Z,34.02,-118.45,13.3,12.2,0,0,,5.0,29.97933,1015.1,,TRUE,TRUE,,,,,,BR,OVC,200,,,,,,,LIFR,,,,17.8,12.8,,,,,,,SPECI,56.0
KSJT 170751Z AUTO 21004KT 8SM CLR 17/17 A2998 RMK AO2 SLP133 T01720167,KSJT,2023-05-17T07:51:00Z,31.37,-100.5,17.2,16.7,210,4,,8.0,29.97933,1013.3,,TRUE,TRUE,,,,,,,CLR,,,,,,,,VFR,,,,,,,,,,,,SPECI,582.0
KSDB 170751Z AUTO 32012KT 10SM CLR 19/07 A3013 RMK AO2 SLP146 T01890067 402830172,KSDB,2023-05-17T07:51:00Z,34.75,-118.72,18.9,6.7,320,12,,10.0,30.129921,1014.6,,TRUE,TRUE,,,,,,,CLR,,,,,,,,VFR,,,,28.3,17.2,,,,,,,SPECI,1377.0
KSAT 170751Z 30004KT 10SM SCT240 19/18 A2995 RMK AO2 SLP126 T01890178,KSAT,2023-05-17T07:51:00Z,29.53,-98.48,18.9,17.8,300,4,,10.0,29.949802,1012.6,,,TRUE,,,,,,,SCT,24000,,,,,,,VFR,,,,,,,,,,,,SPECI,246.0
KSAN 170751Z 31004KT 10SM OVC009 16/14 A2998 RMK AO2 SLP153 T01610139 402110150,KSAN,2023-05-17T07:51:00Z,32.73,-117.18,16.1,13.9,310,4,,10.0,29.97933,1015.3,,,TRUE,,,,,,,OVC,900,,,,,,,IFR,,,,21.1,15.0,,,,,,,METAR,3.0
KSAD 170751Z AUTO 17004KT 10SM CLR 17/17 A3006 RMK AO2 SLP131 T01720167 $,KSAD,2023-05-17T07:51:00Z,32.85,-109.63,17.2,16.7,170,4,,10.0,30.059055,1013.1,,TRUE,TRUE,TRUE,,,,,,CLR,,,,,,,,VFR,,,,,,,,,,,,SPECI,937.0
KROW 170751Z AUTO 12004KT 10SM CLR 20/10 A3005 RMK AO2 SLP112 T02000100,KROW,2023-05-17T07:51:00Z,33.3,-104.5,20.0,10.0,120,4,,10.0,30.050198,1011.2,,TRUE,TRUE,,,,,,,CLR,,,,,,,,VFR,,,,,,,,,,,,SPECI,1105.0
KRDU 170751Z 23004KT 10SM FEW007 SCT013 BKN050 BKN130 OVC250 20/19 A2969 RMK AO2 SLP050 T02000189,KRDU,2023-05-17T07:51:00Z,35.9,-78.78,20.0,18.9,230,4,,10.0,29.68996,1005.0,,,TRUE,,,,,,,FEW,700,SCT,1300,BKN,5000,BKN,13000,VFR,,,,,,,,,,,,METAR,121.0
KPWM 170751Z AUTO 35013KT 10SM OVC044 08/01 A2959 RMK AO2 SLP021 T00830011,KPWM,2023-05-17T07:51:00Z,43.65,-70.3,8.3,1.1,350,13,,10.0,29.589567,1002.1,,TRUE,TRUE,,,,,,,OVC,4400,,,,,,,VFR,,,,,,,,,,,,SPECI,15.0
KPVD 170751Z AUTO 02012KT 10SM OVC110 15/07 A2954 RMK AO2 SLP003 T01500072,KPVD,2023-05-17T07:51:00Z,41.72,-71.43,15.0,7.2,20,12,,10.0,29.53937,1000.3,,TRUE,TRUE,,,,,,,OVC,11000,,,,,,,VFR,,,,,,,,,,,,SPECI,15.0
KPIT 170751Z 32007KT 10SM SCT250 12/08 A2974 RMK AO2 SLP074 T01220078,KPIT,2023-05-17T07:51:00Z,40.47,-80.2,12.2,7.8,320,7,,10.0,29.740158,1007.4,,,TRUE,,,,,,,SCT,25000,,,,,,,VFR,,,,,,,,,,,,SPECI,339.0
KPHX 170751Z 08009KT 10SM SCT140 BKN160 BKN210 29/11 A2988 RMK AO2 SLP096 T02890111,KPHX,2023-05-17T07:51:00Z,33.43,-112.02,28.9,11.1,80,9,,10.0,29.878937,1009.6,,,TRUE,,,,,,,SCT,14000,BKN,16000,BKN,21000,,,VFR,,,,,,,,,,,,SPECI,338.0
KP59 170751Z AUTO 00000KT 03/M01 A3008 RMK AO1 SLP194 T00281011,KP59,2023-05-17T07:51:00Z,47.47,-87.88,2.8,-1.1,0,0,,,30.079725,1019.4,,TRUE,TRUE,,,,,,,,,,,,,,,,,,,,,,,,,,,METAR,185.0
KOXC 170751Z AUTO 34007KT 10SM FEW100 13/06 A2959 RMK AO2 SLP026 T01330056,KOXC,2023-05-17T07:51:00Z,41.47,-73.13,13.3,5.6,340,7,,10.0,29.589567,1002.6,,TRUE,TRUE,,,,,,,FEW,10000,,,,,,,VFR,,,,,,,,,,,,SPECI,211.0
KORD 170751Z 02015KT 10SM FEW090 09/02 A2993 RMK AO2 SLP134 T00890022,KORD,2023-05-17T07:51:00Z,41.95,-87.93,8.9,2.2,20,15,,10.0,29.929134,1013.4,,,TRUE,,,,,,,FEW,9000,,,,,,,VFR,,,,,,,,,,,,SPECI,202.0
KNYC 170751Z 10SM OVC100 19/03 A2959 RMK AO2 SLP010 T01890028 $,KNYC,2023-05-17T07:51:00Z,40.78,-73.97,18.9,2.8,,,,10.0,29.589567,1001.0,,,TRUE,TRUE,,,,,,OVC,10000,,,,,,,VFR,,,,,,,,,,,,METAR,33.0
KMYL 170751Z AUTO 34004KT 10SM CLR 06/03 A3015 RMK AO2 SLP186 T00560033,KMYL,2023-05-17T07:51:00Z,44.9,-116.1,5.6,3.3,340,4,,10.0,30.15059,1018.6,,TRUE,TRUE,,,,,,,CLR,,,,,,,,VFR,,,,,,,,,,,,SPECI,1532.0
KMPV 170751Z AUTO 30010KT 10SM BKN055 03/00 A2970 RMK AO2 SLP060 T00330000,KMPV,2023-05-17T07:51:00Z,44.2,-72.57,3.3,0.0,300,10,,10.0,29.698818,1006.0,,TRUE,TRUE,,,,,,,BKN,5500,,,,,,,VFR,,,,,,,,,,,,SPECI,336.0
KLGU 170751Z AUTO 00000KT 10SM CLR 11/06 A3013 RMK AO2 SLP164 T01060061,KLGU,2023-05-17T07:51:00Z,41.78,-111.85,10.6,6.1,0,0,,10.0,30.129921,1016.4,,TRUE,TRUE,,,,,,,CLR,,,,,,,,VFR,,,,,,,,,,,,SPECI,1359.0
KLGA 170751Z 32012KT 10SM OVC250 19/04 A2955 RMK AO2 SLP006 T01890044 $,KLGA,2023-05-17T07:51:00Z,40.78,-73.88,18.9,4.4,320,12,,10.0,29.551182,1000.6,,,TRUE,TRUE,,,,,,OVC,25000,,,,,,,VFR,,,,,,,,,,,,SPECI,9.0
KJFK 170751Z 33015KT 10SM FEW100 OVC250 19/04 A2955 RMK AO2 SLP007 T01890039,KJFK,2023-05-17T07:51:00Z,40.63,-73.77,18.9,3.9,330,15,,10.0,29.551182,1000.7,,,TRUE,,,,,,,FEW,10000,OVC,25000,,,,,VFR,,,,,,,,,,,,SPECI,3.0
KILG 170751Z AUTO 31007KT 10SM CLR 18/12 A2959 RMK AO2 SLP020 T01780117,KILG,2023-05-17T07:51:00Z,39.67,-75.6,17.8,11.7,310,7,,10.0,29.589567,1002.0,,TRUE,TRUE,,,,,,,CLR,,,,,,,,VFR,,,,,,,,,,,,SPECI,22.0
KIGM 170751Z AUTO 14008KT 10SM CLR 16/08 A3005 RMK AO2 SLP110 T01560083,KIGM,2023-05-17T07:51:00Z,35.25,-113.93,15.6,8.3,140,8,,10.0,30.050198,1011.0,,TRUE,TRUE,,,,,,,CLR,,,,,,,,VFR,,,,,,,,,,,,SPECI,1045.0
KHTS 170751Z 21005KT 10SM FEW003 13/13 A2982 RMK AO2 SLP092 T01330128,KHTS,2023-05-17T07:51:00Z,38.37,-82.55,13.3,12.8,210,5,,10.0,29.819881,1009.2,,,TRUE,,,,,,,FEW,300,,,,,,,VFR,,,,,,,,,,,,SPECI,252.0
KHDO 170751Z AUTO 35004KT 10SM CLR 18/17 A2996 RMK AO2 SLP132 T01780172,KHDO,2023-05-17T07:51:00Z,29.37,-99.17,17.8,17.2,350,4,,10.0,29.958662,1013.2,,TRUE,TRUE,,,,,,,CLR,,,,,,,,VFR,,,,,,,,,,,,SPECI,280.0
KEWR 170751Z 33013G19KT 10SM OVC250 19/04 A2956 RMK AO2 SLP010 T01940039,KEWR,2023-05-17T07:51:00Z,40.68,-74.17,19.4,3.9,330,13,19,10.0,29.56004,1001.0,,,TRUE,,,,,,,OVC,25000,,,,,,,VFR,,,,,,,,,,,,SPECI,2.0
KERI 170751Z AUTO 04016G25KT 10SM OVC029 08/03 A2983 RMK AO2 SLP099 T00830033,KERI,2023-05-17T07:51:00Z,42.08,-80.18,8.3,3.3,40,16,25,10.0,29.828741,1009.9,,TRUE,TRUE,,,,,,,OVC,2900,,,,,,,MVFR,,,,,,,,,,,,SPECI,222.0
KELP 170751Z 27008KT 10SM -RA BKN095 BKN130 OVC250 23/11 A3008 RMK AO2 RAB42 TSE0656 SLP111 P0000 T02280106,KELP,2023-05-17T07:51:00Z,31.82,-106.35,22.8,10.6,270,8,,10.0,30.079725,1011.1,,,TRUE,,,,,,-RA,BKN,9500,BKN,13000,OVC,25000,,,VFR,,,,,,0.005,,,,,,SPECI,1205.0
KEKN 170751Z AUTO 00000KT 9SM OVC019 13/11 A2980 RMK AO2 SLP090 T01280106,KEKN,2023-05-17T07:51:00Z,38.88,-79.85,12.8,10.6,0,0,,9.0,29.799213,1009.0,,TRUE,TRUE,,,,,,,OVC,1900,,,,,,,MVFR,,,,,,,,,,,,SPECI,596.0
KDAW 170751Z AUTO 32012KT 10SM OVC034 09/03 A2959 RMK AO2 SLP015 T00940028,KDAW,2023-05-17T07:51:00Z,43.28,-70.92,9.4,2.8,320,12,,10.0,29.589567,1001.5,,TRUE,TRUE,,,,,,,OVC,3400,,,,,,,VFR,,,,,,,,,,,,SPECI,100.0
KCSG 170751Z AUTO 26003KT 10SM CLR 20/19 A2983 RMK AO2 SLP095 T02000189,KCSG,2023-05-17T07:51:00Z,32.52,-84.95,20.0,18.9,260,3,,10.0,29.828741,1009.5,,TRUE,TRUE,,,,,,,CLR,,,,,,,,VFR,,,,,,,,,,,,METAR,120.0
KCRP 170751Z 00000KT 10SM FEW016 FEW150 FEW250 21/21 A2992 RMK AO2 SLP130 T02110206,KCRP,2023-05-17T07:51:00Z,27.77,-97.5,21.1,20.6,0,0,,10.0,29.920275,1013.0,,,TRUE,,,,,,,FEW,1600,FEW,15000,FEW,25000,,,VFR,,,,,,,,,,,,SPECI,11.0
KCON 170751Z AUTO 33012G22KT 10SM SCT055 07/01 A2961 RMK AO2 SLP028 T00720011,KCON,2023-05-17T07:51:00Z,43.2,-71.5,7.2,1.1,330,12,22,10.0,29.610237,1002.8,,TRUE,TRUE,,,,,,,SCT,5500,,,,,,,VFR,,,,,,,,,,,,SPECI,102.0
KCMH 170751Z 35007KT 10SM CLR 12/08 A2980 RMK AO2 SLP090 T01170083,KCMH,2023-05-17T07:51:00Z,40.0,-82.88,11.7,8.3,350,7,,10.0,29.799213,1009.0,,,TRUE,,,,,,,CLR,,,,,,,,VFR,,,,,,,,,,,,SPECI,257.0
KCDJ 170751Z AUTO 00000KT 12/11 A2993 RMK AO1 SLP130 T01170106,KCDJ,2023-05-17T07:51:00Z,39.82,-93.57,11.7,10.6,0,0,,,29.929134,1013.0,,TRUE,TRUE,,,,,,,,,,,,,,,,,,,,,,,,,,,SPECI,234.0
KCAK 170751Z 36008KT 10SM FEW080 11/04 A2980 RMK AO2 SLP088 T01060044,KCAK,2023-05-17T07:51:00Z,40.92,-81.45,10.6,4.4,360,8,,10.0,29.799213,1008.8,,,TRUE,,,,,,,FEW,8000,,,,,,,VFR,,,,,,,,,,,,SPECI,369.0
KBHK 170751Z AUTO 09004KT 10SM CLR 13/10 A2992 RMK AO2 SLP114 T01330100,KBHK,2023-05-17T07:51:00Z,46.35,-104.25,13.3,10.0,90,4,,10.0,29.920275,1011.4,,TRUE,TRUE,,,,,,,CLR,,,,,,,,VFR,,,,,,,,,,,,SPECI,904.0
KBGD 170751Z AUTO 18008KT 10SM CLR 20/14 A3001 RMK AO2 SLP126 T02000139,KBGD,2023-05-17T07:51:00Z,35.7,-101.4,20.0,13.9,180,8,,10.0,30.008858,1012.6,,TRUE,TRUE,,,,,,,CLR,,,,,,,,VFR,,,,,,,,,,,,SPECI,928.0
KBED 170751Z AUTO 36010KT 10SM OVC085 13/06 A2957 RMK AO2 SLP024 T01280056,KBED,2023-05-17T07:51:00Z,42.47,-71.3,12.8,5.6,360,10,,10.0,29.568897,1002.4,,TRUE,TRUE,,,,,,,OVC,8500,,,,,,,VFR,,,,,,,,,,,,SPECI,39.0
KBDL 170751Z 36010KT 10SM BKN110 BKN250 14/06 A2959 RMK AO2 SLP018 T01390056,KBDL,2023-05-17T07:51:00Z,41.93,-72.68,13.9,5.6,360,10,,10.0,29.589567,1001.8,,,TRUE,,,,,,,BKN,11000,BKN,25000,,,,,VFR,,,,,,,,,,,,SPECI,52.0
KBAZ 170751Z AUTO 27004KT 10SM CLR 19/19 A2992 RMK AO2 SLP125 T01940189 TSNO,KBAZ,2023-05-17T07:51:00Z,29.72,-98.05,19.4,18.9,270,4,,10.0,29.920275,1012.5,,TRUE,TRUE,,,TRUE,,,,CLR,,,,,,,,VFR,,,,,,,,,,,,SPECI,199.0
KATT 170751Z AUTO 28003KT 10SM CLR 21/19 A2994 RMK AO2 SLP127 T02060189,KATT,2023-05-17T07:51:00Z,30.32,-97.77,20.6,18.9,280,3,,10.0,29.940945,1012.7,,TRUE,TRUE,,,,,,,CLR,,,,,,,,VFR,,,,,,,,,,,,SPECI,203.0
KALB 170751Z 01007KT 10SM OVC036 08/01 A2970 RMK AO2 SLP058 T00780011,KALB,2023-05-17T07:51:00Z,42.75,-73.8,7.8,1.1,10,7,,10.0,29.698818,1005.8,,,TRUE,,,,,,,OVC,3600,,,,,,,VFR,,,,,,,,,,,,SPECI,82.0
KACT 170751Z AUTO 35003KT 9SM CLR 17/17 A2993 RMK AO2 SLP128 T01670167,KACT,2023-05-17T07:51:00Z,31.62,-97.23,16.7,16.7,350,3,,9.0,29.929134,1012.8,,TRUE,TRUE,,,,,,,CLR,,,,,,,,VFR,,,,,,,,,,,,SPECI,150.0
KABE 170751Z 34011KT 10SM CLR 14/04 A2962 RMK AO2 SLP028 T01440039,KABE,2023-05-17T07:51:00Z,40.65,-75.45,14.4,3.9,340,11,,10.0,29.619095,1002.8,,,TRUE,,,,,,,CLR,,,,,,,,VFR,,,,,,,,,,,,SPECI,117.0
K6R6 170751Z AUTO 35003KT 16/14 A3001 RMK AO1 SLP132 T01560139,K6R6,2023-05-17T07:51:00Z,30.05,-102.22,15.6,13.9,350,3,,,30.008858,1013.2,,TRUE,TRUE,,,,,,,,,,,,,,,,,,,,,,,,,,,SPECI,702.0
PTRO 170750Z 00000KT 12SM BKN014CB BKN100 OVC280 26/24 A2980 RMK CB ALQDS AND OHD,PTRO,2023-05-17T07:50:00Z,7.37,134.55,26.0,24.0,0,0,,12.0,29.799213,,,,,,,,,,,BKN,1400,BKN,10000,OVC,28000,,,MVFR,,,,,,,,,,,,METAR,30.0
PGRO 170750Z 06012KT 7SM FEW016 SCT100 27/23 A2985 RMK LAST,PGRO,2023-05-17T07:50:00Z,14.18,145.25,27.0,23.0,60,12,,7.0,29.84941,,,,,,,,,,,FEW,1600,SCT,10000,,,,,VFR,,,,,,,,,,,,METAR,181.0
OOSH 170750Z AUTO 27010KT //// ////// 44/00 Q1005 RMK 1002,OOSH,2023-05-17T07:50:00Z,24.38,56.62,44.0,0.0,270,10,,,29.675198,,,TRUE,,,,,,,,,,,,,,,,,,,,,,,,,,,,METAR,35.0
OOSA 170750Z 18012KT CAVOK 33/25 Q1010 NOSIG,OOSA,2023-05-17T07:50:00Z,17.03,54.1,33.0,25.0,180,12,,6.21,29.822834,,,,,,TRUE,,,,,CAVOK,,,,,,,,VFR,,,,,,,,,,,,METAR,20.0
OOMS 170750Z 32016KT CAVOK 42/02 Q1006 NOSIG,OOMS,2023-05-17T07:50:00Z,23.58,58.28,42.0,2.0,320,16,,6.21,29.704725,,,,,,TRUE,,,,,CAVOK,,,,,,,,VFR,,,,,,,,,,,,METAR,8.0
OOKB 170750Z 24010KT 190V310 CAVOK 40/02 Q1005 NOSIG,OOKB,2023-05-17T07:50:00Z,26.17,56.23,40.0,2.0,240,10,,6.21,29.675198,,,,,,TRUE,,,,,CAVOK,,,,,,,,VFR,,,,,,,,,,,,METAR,30.0
OODQ 170750Z AUTO 21018KT CAVOK ////// 35/22 Q1009 NOSIG RMK RH48? 0,OODQ,2023-05-17T07:50:00Z,19.52,57.65,35.0,22.0,210,18,,6.21,29.793306,,,TRUE,,,TRUE,,,,,CAVOK,,,,,,,,VFR,,,,,,,,,,,,METAR,116.0
OOAD 170750Z AUTO VRB07KT 9999 // NCD 40/05 Q1010 NOSIG,OOAD,2023-05-17T07:50:00Z,22.5,57.37,40.0,5.0,0,7,,6.21,29.822834,,,TRUE,,,TRUE,,,,,CLR,,,,,,,,VFR,,,,,,,,,,,,METAR,327.0
NSTU 170750Z 11016KT 10SM SCT017TCU BKN040 OVC100 27/26 A2992 RMK TCU SE-SW SLP132 T02690262,NSTU,2023-05-17T07:50:00Z,-14.33,-170.72,26.9,26.2,110,16,,10.0,29.920275,1013.2,,,,,,,,,,SCT,1700,BKN,4000,OVC,10000,,,VFR,,,,,,,,,,,,METAR,8.0
MUVR 170750Z 17004KT 9000 SKC 21/20 Q1013,MUVR,2023-05-17T07:50:00Z,23.03,-81.43,21.0,20.0,170,4,,5.59,29.911417,,,,,,,,,,,SKC,,,,,,,,VFR,,,,,,,,,,,,METAR,65.0
MUSC 170750Z VRB01KT 9000 NSC 22/21 Q1013,MUSC,2023-05-17T07:50:00Z,22.5,-79.92,22.0,21.0,0,1,,5.59,29.911417,,,,,,,,,,,CLR,,,,,,,,VFR,,,,,,,,,,,,METAR,97.0
MUHG 170750Z VRB01KT 9000 FEW020 21/21 Q1013,MUHG,2023-05-17T07:50:00Z,20.78,-76.32,21.0,21.0,0,1,,5.59,29.911417,,,,,,,,,,,FEW,2000,,,,,,,VFR,,,,,,,,,,,,METAR,100.0
MUCU 170750Z 35005KT 6000 -RA FEW018TCU SCT020 24/23 Q1013,MUCU,2023-05-17T07:50:00Z,19.97,-75.83,24.0,23.0,350,5,,3.73,29.911417,,,,,,,,,,-RA,FEW,1800,SCT,2000,,,,,MVFR,,,,,,,,,,,,METAR,70.0
MUCM 170750Z 14003KT 060V180 9000 NSC 22/22 Q1013,MUCM,2023-05-17T07:50:00Z,21.42,-77.85,22.0,22.0,140,3,,5.59,29.911417,,,,,,,,,,,CLR,,,,,,,,VFR,,,,,,,,,,,,METAR,125.0
MUCL 170750Z AUTO VRB04KT 25/23 Q1013,MUCL,2023-05-17T07:50:00Z,21.63,-81.55,25.0,23.0,0,4,,,29.911417,,,TRUE,,,,,,,,,,,,,,,,,,,,,,,,,,,,METAR,5.0
MUCC 170750Z 21003KT 9000 SCT020 23/22 Q1012,MUCC,2023-05-17T07:50:00Z,22.47,-78.33,23.0,22.0,210,3,,5.59,29.88189,,,,,,,,,,,SCT,2000,,,,,,,VFR,,,,,,,,,,,,METAR,7.0
MSLP 170750Z VRB01KT 9999 SCT065 26/24 Q1011 A2985 NOSIG,MSLP,2023-05-17T07:50:00Z,13.43,-89.05,26.0,24.0,0,1,,6.21,29.852362,,,,,,TRUE,,,,,SCT,6500,,,,,,,VFR,,,,,,,,,,,,METAR,25.0
LTFO 170750Z 32003KT 290V360 CAVOK 16/12 Q1012,LTFO,2023-05-17T07:50:00Z,41.18,40.85,16.0,12.0,320,3,,6.21,29.88189,,,,,,,,,,,CAVOK,,,,,,,,VFR,,,,,,,,,,,,METAR,5.0
LTFK 170750Z 05006KT 9999 FEW035 SCT100 BKN200 21/18 Q1009,LTFK,2023-05-17T07:50:00Z,40.2,25.88,21.0,18.0,50,6,,6.21,29.793306,,,,,,,,,,,FEW,3500,SCT,10000,BKN,20000,,,VFR,,,,,,,,,,,,METAR,21.0
LTFH 170750Z 32005KT 290V010 9000 SCT002 15/12 Q1013 NOSIG,LTFH,2023-05-17T07:50:00Z,41.27,36.57,15.0,12.0,320,5,,5.59,29.911417,,,,,,TRUE,,,,,SCT,200,,,,,,,VFR,,,,,,,,,,,,METAR,7.0
LTFG 170750Z 24007KT CAVOK 25/18 Q1008,LTFG,2023-05-17T07:50:00Z,36.3,32.3,25.0,18.0,240,7,,6.21,29.763779,,,,,,,,,,,CAVOK,,,,,,,,VFR,,,,,,,,,,,,METAR,26.0
LTFD 170750Z 06013KT 030V100 9999 SCT030 BKN090 22/17 Q1009 RESHRA,LTFD,2023-05-17T07:50:00Z,39.55,27.02,22.0,17.0,60,13,,6.21,29.793306,,,,,,,,,,,SCT,3000,BKN,9000,,,,,VFR,,,,,,,,,,,,METAR,15.0
LTFB 170750Z 14007KT 9999 FEW035 25/14 Q1008,LTFB,2023-05-17T07:50:00Z,37.95,27.33,25.0,14.0,140,7,,6.21,29.763779,,,,,,,,,,,FEW,3500,,,,,,,VFR,,,,,,,,,,,,METAR,3.0
LTDA 170750Z 11006KT 050V160 CAVOK 31/02 Q1008 NOSIG,LTDA,2023-05-17T07:50:00Z,36.37,36.28,31.0,2.0,110,6,,6.21,29.763779,,,,,,TRUE,,,,,CAVOK,,,,,,,,VFR,,,,,,,,,,,,METAR,80.0
LTCW 170750Z VRB05KT 9999 FEW040 17/02 Q1017,LTCW,2023-05-17T07:50:00Z,37.55,44.23,17.0,2.0,0,5,,6.21,30.029528,,,,,,,,,,,FEW,4000,,,,,,,VFR,,,,,,,,,,,,METAR,1852.0
LTCV 170750Z 11007KT 070V170 CAVOK 27/05 Q1012,LTCV,2023-05-17T07:50:00Z,37.37,42.07,27.0,5.0,110,7,,6.21,29.88189,,,,,,,,,,,CAVOK,,,,,,,,VFR,,,,,,,,,,,,METAR,620.0
LTCU 170750Z 17005KT 130V240 CAVOK 21/06 Q1014,LTCU,2023-05-17T07:50:00Z,38.87,40.58,21.0,6.0,170,5,,6.21,29.940945,,,,,,,,,,,CAVOK,,,,,,,,VFR,,,,,,,,,,,,METAR,1061.0
LTCT 170750Z VRB01KT CAVOK 21/02 Q1011,LTCT,2023-05-17T07:50:00Z,39.98,43.87,21.0,2.0,0,1,,6.21,29.852362,,,,,,,,,,,CAVOK,,,,,,,,VFR,,,,,,,,,,,,METAR,936.0
LTCR 170750Z VRB04KT CAVOK 29/05 Q1011,LTCR,2023-05-17T07:50:00Z,37.22,40.63,29.0,5.0,0,4,,6.21,29.852362,,,,,,,,,,,CAVOK,,,,,,,,VFR,,,,,,,,,,,,METAR,529.0
LTCP 170750Z 17006KT 100V260 CAVOK 26/07 Q1012,LTCP,2023-05-17T07:50:00Z,37.73,38.47,26.0,7.0,170,6,,6.21,29.88189,,,,,,,,,,,CAVOK,,,,,,,,VFR,,,,,,,,,,,,METAR,672.0
LTCO 170750Z 23018KT CAVOK 17/04 Q1015,LTCO,2023-05-17T07:50:00Z,39.65,43.03,17.0,4.0,230,18,,6.21,29.970472,,,,,,,,,,,CAVOK,,,,,,,,VFR,,,,,,,,,,,,METAR,1657.0
LTCN 170750Z VRB02KT CAVOK 27/04 Q1011,LTCN,2023-05-17T07:50:00Z,37.53,36.95,27.0,4.0,0,2,,6.21,29.852362,,,,,,,,,,,CAVOK,,,,,,,,VFR,,,,,,,,,,,,METAR,505.0
LTCM 170750Z 14011KT 8000 FEW008 18/11 Q1013,LTCM,2023-05-17T07:50:00Z,42.02,35.07,18.0,11.0,140,11,,4.97,29.911417,,,,,,,,,,,FEW,800,,,,,,,MVFR,,,,,,,,,,,,METAR,7.0
LTCL 170750Z VRB03KT CAVOK 26/07 Q1013,LTCL,2023-05-17T07:50:00Z,37.98,41.83,26.0,7.0,0,3,,6.21,29.911417,,,,,,,,,,,CAVOK,,,,,,,,VFR,,,,,,,,,,,,METAR,602.0
LTCK 170750Z 30003KT 240V360 CAVOK 18/07 Q1014,LTCK,2023-05-17T07:50:00Z,38.75,41.67,18.0,7.0,300,3,,6.21,29.940945,,,,,,,,,,,CAVOK,,,,,,,,VFR,,,,,,,,,,,,METAR,1267.0
LTCI 170750Z 32006KT 9999 FEW040 18/02 Q1018 NOSIG,LTCI,2023-05-17T07:50:00Z,38.47,43.33,18.0,2.0,320,6,,6.21,30.059055,,,,,,TRUE,,,,,FEW,4000,,,,,,,VFR,,,,,,,,,,,,METAR,1654.0
LTCF 170750Z VRB04KT CAVOK 17/01 Q1014 NOSIG,LTCF,2023-05-17T07:50:00Z,40.57,43.12,17.0,1.0,0,4,,6.21,29.940945,,,,,,TRUE,,,,,CAVOK,,,,,,,,VFR,,,,,,,,,,,,METAR,1794.0
LTCD 170750Z VRB02KT CAVOK 20/04 Q1014 NOSIG,LTCD,2023-05-17T07:50:00Z,39.72,39.52,20.0,4.0,0,2,,6.21,29.940945,,,,,,TRUE,,,,,CAVOK,,,,,,,,VFR,,,,,,,,,,,,METAR,1146.0
LTCB 170750Z VRB02KT CAVOK 15/12 Q1013 NOSIG,LTCB,2023-05-17T07:50:00Z,40.97,38.07,15.0,12.0,0,2,,6.21,29.911417,,,,,,TRUE,,,,,CAVOK,,,,,,,,VFR,,,,,,,,,,,,METAR,5.0
LTCA 170750Z 06004KT 020V110 CAVOK 21/06 Q1013 NOSIG,LTCA,2023-05-17T07:50:00Z,38.6,39.28,21.0,6.0,60,4,,6.21,29.911417,,,,,,TRUE,,,,,CAVOK,,,,,,,,VFR,,,,,,,,,,,,METAR,887.0
LTBY 170750Z 34012KT 300V010 9999 -TSRA FEW027CB BKN033 19/12 Q1012 RETS,LTBY,2023-05-17T07:50:00Z,39.82,30.52,19.0,12.0,340,12,,6.21,29.88189,,,,,,,,,,-TSRA,FEW,2700,BKN,3300,,,,,VFR,,,,,,,,,,,,METAR,788.0
LTBO 170750Z 32006KT 9999 BKN035 BKN090 17/09 Q1013 RESHRA,LTBO,2023-05-17T07:50:00Z,38.67,29.47,17.0,9.0,320,6,,6.21,29.911417,,,,,,,,,,,BKN,3500,BKN,9000,,,,,VFR,,,,,,,,,,,,METAR,868.0
LTBH 170750Z 06007KT 020V080 9999 SCT035 BKN100 19/16 Q1009,LTBH,2023-05-17T07:50:00Z,40.13,26.42,19.0,16.0,60,7,,6.21,29.793306,,,,,,,,,,,SCT,3500,BKN,10000,,,,,VFR,,,,,,,,,,,,METAR,8.0
LTBF 170750Z 02004KT 340V060 9999 SCT035 BKN100 19/18 Q1010 RESHRA NOSIG,LTBF,2023-05-17T07:50:00Z,39.62,27.92,19.0,18.0,20,4,,6.21,29.822834,,,,,,TRUE,,,,,SCT,3500,BKN,10000,,,,,VFR,,,,,,,,,,,,METAR,95.0
LTBD 170750Z 07010KT 040V100 9999 FEW040 SCT200 25/14 Q1008,LTBD,2023-05-17T07:50:00Z,37.82,27.88,25.0,14.0,70,10,,6.21,29.763779,,,,,,,,,,,FEW,4000,SCT,20000,,,,,VFR,,,,,,,,,,,,METAR,29.0
LTAY 170750Z 00000KT 9999 VCTS FEW025CB BKN030 BKN090 17/09 Q1013 RESHRA NOSIG,LTAY,2023-05-17T07:50:00Z,37.78,29.7,17.0,9.0,0,0,,6.21,29.911417,,,,,,TRUE,,,,VCTS,FEW,2500,BKN,3000,BKN,9000,,,MVFR,,,,,,,,,,,,METAR,851.0
LTAW 170750Z VRB04KT CAVOK 20/09 Q1012,LTAW,2023-05-17T07:50:00Z,40.3,36.37,20.0,9.0,0,4,,6.21,29.88189,,,,,,,,,,,CAVOK,,,,,,,,VFR,,,,,,,,,,,,METAR,561.0
LTAS 170750Z 01008KT 9999 FEW035 BKN200 19/15 Q1010,LTAS,2023-05-17T07:50:00Z,41.52,32.08,19.0,15.0,10,8,,6.21,29.822834,,,,,,,,,,,FEW,3500,BKN,20000,,,,,VFR,,,,,,,,,,,,METAR,13.0
LTAR 170750Z VRB04KT CAVOK 18/05 Q1016,LTAR,2023-05-17T07:50:00Z,39.8,36.9,18.0,5.0,0,4,,6.21,30.0,,,,,,,,,,,CAVOK,,,,,,,,VFR,,,,,,,,,,,,METAR,1601.0
LTAN 170750Z 14006KT 090V190 9999 FEW040 SCT200 24/09 Q1011 NOSIG,LTAN,2023-05-17T07:50:00Z,37.97,32.55,24.0,9.0,140,6,,6.21,29.852362,,,,,,TRUE,,,,,FEW,4000,SCT,20000,,,,,VFR,,,,,,,,,,,,METAR,1029.0
LTAL 170750Z 05006KT 360V100 9999 FEW030 BKN200 18/07 Q1013,LTAL,2023-05-17T07:50:00Z,41.32,33.8,18.0,7.0,50,6,,6.21,29.911417,,,,,,,,,,,FEW,3000,BKN,20000,,,,,VFR,,,,,,,,,,,,METAR,1074.0
LTAE 170750Z VRB04KT CAVOK 24/09 Q1011 NOSIG RMK RWY21 12004KT 050V160,LTAE,2023-05-17T07:50:00Z,40.07,32.57,24.0,9.0,0,4,,6.21,29.852362,,,,,,TRUE,,,,,CAVOK,,,,,,,,VFR,,,,,,,,,,,,METAR,836.0
LSMA 170750Z 03009KT 320V070 9999 BKN026 OVC036 09/04 Q1021 RMK BLU,LSMA,2023-05-17T07:50:00Z,46.95,8.28,9.0,4.0,30,9,,6.21,30.147638,,,,,,,,,,,BKN,2600,OVC,3600,,,,,MVFR,,,,,,,,,,,,METAR,441.0
LLIB 170750Z AUTO 15006KT 100V200 CAVOK 34/01 Q1008,LLIB,2023-05-17T07:50:00Z,32.98,35.57,34.0,1.0,150,6,,6.21,29.763779,,,TRUE,,,,,,,,CAVOK,,,,,,,,VFR,,,,,,,,,,,,METAR,268.0
LLHA 170750Z 12009KT CAVOK 34/05 Q1006,LLHA,2023-05-17T07:50:00Z,32.8,35.03,34.0,5.0,120,9,,6.21,29.704725,,,,,,,,,,,CAVOK,,,,,,,,VFR,,,,,,,,,,,,METAR,3.0
LLER 170750Z VRB03KT CAVOK 35/07 Q1008,LLER,2023-05-17T07:50:00Z,29.72,35.02,35.0,7.0,0,3,,6.21,29.763779,,,,,,,,,,,CAVOK,,,,,,,,VFR,,,,,,,,,,,,METAR,88.0
LIRU 170750Z 01004KT 330V050 5000 -RA FEW007 BKN015 16/16 Q1005,LIRU,2023-05-17T07:50:00Z,41.95,12.5,16.0,16.0,10,4,,3.11,29.675198,,,,,,,,,,-RA,FEW,700,BKN,1500,,,,,MVFR,,,,,,,,,,,,METAR,16.0
LIRI 170750Z 19009KT 9999 -RA BKN025 18/16 Q1007,LIRI,2023-05-17T07:50:00Z,40.62,14.92,18.0,16.0,190,9,,6.21,29.734253,,,,,,,,,,-RA,BKN,2500,,,,,,,MVFR,,,,,,,,,,,,METAR,31.0
LIPU 170750Z VRB02KT 9999 BKN025 15/13 Q1010 RERA,LIPU,2023-05-17T07:50:00Z,45.38,11.83,15.0,13.0,0,2,,6.21,29.822834,,,,,,,,,,,BKN,2500,,,,,,,MVFR,,,,,,,,,,,,METAR,6.0
LIPK 170750Z 03008KT 6000 -RA SCT005 BKN015 15/14 Q1008,LIPK,2023-05-17T07:50:00Z,44.2,12.07,15.0,14.0,30,8,,3.73,29.763779,,,,,,,,,,-RA,SCT,500,BKN,1500,,,,,MVFR,,,,,,,,,,,,METAR,24.0
LIPB 170750Z 02007KT 310V070 9999 SCT090 19/M00 Q1012,LIPB,2023-05-17T07:50:00Z,46.47,11.32,19.0,0.0,20,7,,6.21,29.88189,,,,,,,,,,,SCT,9000,,,,,,,VFR,,,,,,,,,,,,METAR,239.0
LIMP 170750Z 25004KT 6000 -RA BKN025 13/13 Q1011 RERA,LIMP,2023-05-17T07:50:00Z,44.82,10.3,13.0,13.0,250,4,,3.73,29.852362,,,,,,,,,,-RA,BKN,2500,,,,,,,MVFR,,,,,,,,,,,,METAR,41.0
LIMG 170750Z VRB06G16KT 9999 BKN045 20/04 Q1009,LIMG,2023-05-17T07:50:00Z,44.03,8.12,20.0,4.0,0,6,16,6.21,29.793306,,,,,,,,,,,BKN,4500,,,,,,,VFR,,,,,,,,,,,,METAR,41.0
LIMA 170750Z 28007KT CAVOK 17/06 Q1011,LIMA,2023-05-17T07:50:00Z,45.08,7.6,17.0,6.0,280,7,,6.21,29.852362,,,,,,,,,,,CAVOK,,,,,,,,VFR,,,,,,,,,,,,METAR,285.0
LICG 170750Z 27015KT 9999 FEW025 17/12 Q1014,LICG,2023-05-17T07:50:00Z,36.82,11.97,17.0,12.0,270,15,,6.21,29.940945,,,,,,,,,,,FEW,2500,,,,,,,VFR,,,,,,,,,,,,METAR,192.0
LIBG 170750Z 19006KT 160V220 9999 FEW025 19/13 Q1008,LIBG,2023-05-17T07:50:00Z,40.52,17.4,19.0,13.0,190,6,,6.21,29.763779,,,,,,,,,,,FEW,2500,,,,,,,VFR,,,,,,,,,,,,METAR,64.0
LIBC 170750Z 23013KT 9999 SCT040 18/14 Q1009,LIBC,2023-05-17T07:50:00Z,39.0,17.07,18.0,14.0,230,13,,6.21,29.793306,,,,,,,,,,,SCT,4000,,,,,,,VFR,,,,,,,,,,,,METAR,158.0
LGZA 170750Z 24006KT 9999 FEW015 FEW018TCU SCT025 21/16 Q1011,LGZA,2023-05-17T07:50:00Z,37.75,20.88,21.0,16.0,240,6,,6.21,29.852362,,,,,,,,,,,FEW,1500,FEW,1800,SCT,2500,,,VFR,,,,,,,,,,,,METAR,3.0
LGSO 170750Z 02005KT 9999 FEW015 20/16 Q1009,LGSO,2023-05-17T07:50:00Z,37.42,24.95,20.0,16.0,20,5,,6.21,29.793306,,,,,,,,,,,FEW,1500,,,,,,,VFR,,,,,,,,,,,,METAR,71.0
LGSM 170750Z 19006KT CAVOK 24/16 Q1009,LGSM,2023-05-17T07:50:00Z,37.68,26.92,24.0,16.0,190,6,,6.21,29.793306,,,,,,,,,,,CAVOK,,,,,,,,VFR,,,,,,,,,,,,METAR,5.0
LGSK 170750Z 30004KT CAVOK 21/15 Q1009,LGSK,2023-05-17T07:50:00Z,39.18,23.5,21.0,15.0,300,4,,6.21,29.793306,,,,,,,,,,,CAVOK,,,,,,,,VFR,,,,,,,,,,,,METAR,13.0
LGPA 170750Z 29007KT 9999 FEW025 21/13 Q1010,LGPA,2023-05-17T07:50:00Z,37.02,25.1,21.0,13.0,290,7,,6.21,29.822834,,,,,,,,,,,FEW,2500,,,,,,,VFR,,,,,,,,,,,,METAR,42.0
LGNX 170750Z 32005KT 9999 FEW016 22/16 Q1009,LGNX,2023-05-17T07:50:00Z,37.08,25.37,22.0,16.0,320,5,,6.21,29.793306,,,,,,,,,,,FEW,1600,,,,,,,VFR,,,,,,,,,,,,METAR,3.0
LGKZ 170750Z 00000KT 9999 FEW004 SCT070 17/09 Q1011,LGKZ,2023-05-17T07:50:00Z,40.28,21.83,17.0,9.0,0,0,,6.21,29.852362,,,,,,,,,,,FEW,400,SCT,7000,,,,,VFR,,,,,,,,,,,,METAR,615.0
LGKF 170750Z 20005KT 150V260 9999 SCT016 FEW018TCU 19/15 Q1011,LGKF,2023-05-17T07:50:00Z,38.12,20.5,19.0,15.0,200,5,,6.21,29.852362,,,,,,,,,,,SCT,1600,FEW,1800,,,,,VFR,,,,,,,,,,,,METAR,14.0
LGHI 170750Z 15006KT 9999 FEW020 24/16 Q1008,LGHI,2023-05-17T07:50:00Z,38.33,26.13,24.0,16.0,150,6,,6.21,29.763779,,,,,,,,,,,FEW,2000,,,,,,,VFR,,,,,,,,,,,,METAR,6.0
LGEL 170750Z 28003KT 9999 FEW025 24/10 Q1008,LGEL,2023-05-17T07:50:00Z,38.07,23.55,24.0,10.0,280,3,,6.21,29.763779,,,,,,,,,,,FEW,2500,,,,,,,VFR,,,,,,,,,,,,METAR,21.0
KDAG 170750Z AUTO 30007KT 10SM CLR 24/01 A2996 RMK AO2 SLP115 T02390011 403720206,KDAG,2023-05-17T07:50:00Z,34.85,-116.78,23.9,1.1,300,7,,10.0,29.958662,1011.5,,TRUE,TRUE,,,,,,,CLR,,,,,,,,VFR,,,,37.2,20.6,,,,,,,SPECI,584.0
FHAW 170750Z 13012KT 9999 FEW024 26/21 Q1013 NOSIG RMK BLU BLU,FHAW,2023-05-17T07:50:00Z,-7.97,-14.4,26.0,21.0,130,12,,6.21,29.911417,,,,,,TRUE,,,,,FEW,2400,,,,,,,VFR,,,,,,,,,,,,METAR,79.0
ETNG 170750Z 01005KT 9999 SCT018 BKN030 11/07 Q1027 NOSIG,ETNG,2023-05-17T07:50:00Z,50.97,6.03,11.0,7.0,10,5,,6.21,30.324802,,,,,,TRUE,,,,,SCT,1800,BKN,3000,,,,,MVFR,,,,,,,,,,,,METAR,76.0
ESND 170750Z 28006KT CAVOK 03/02 Q1006,ESND,2023-05-17T07:50:00Z,62.05,14.42,3.0,2.0,280,6,,6.21,29.704725,,,,,,,,,,,CAVOK,,,,,,,,VFR,,,,,,,,,,,,METAR,352.0
ENST 170750Z 20008KT 9999 VCSH FEW016 SCT030 BKN050 07/03 Q1007 RMK WIND 300FT 20008KT,ENST,2023-05-17T07:50:00Z,65.97,12.47,7.0,3.0,200,8,,6.21,29.734253,,,,,,,,,,VCSH,FEW,1600,SCT,3000,BKN,5000,,,VFR,,,0.8,,,,,,,,,SPECI,17.0
EKVJ 170750Z 31014G24KT 9999 SCT030 08/// Q1021,EKVJ,2023-05-17T07:50:00Z,55.98,8.35,,,310,14,24,6.21,30.147638,,,,,,,,,,,SCT,3000,,,,,,,VFR,,,,,,,,,,,,SPECI,5.0
EKVD 170750Z 31020G30KT 9999 BKN034 09/M00 Q1021,EKVD,2023-05-17T07:50:00Z,55.43,9.32,9.0,0.0,310,20,30,6.21,30.147638,,,,,,,,,,,BKN,3400,,,,,,,VFR,,,,,,,,,,,,METAR,41.0
EKOD 170750Z 30019G29KT 270V330 9999 BKN037 09/01 Q1020,EKOD,2023-05-17T07:50:00Z,55.47,10.32,9.0,1.0,300,19,29,6.21,30.11811,,,,,,,,,,,BKN,3700,,,,,,,VFR,,,,,,,,,,,,METAR,13.0
EKAH 170750Z AUTO 31015KT 270V330 9999 BKN041/// 09/M02 Q1018,EKAH,2023-05-17T07:50:00Z,56.28,10.62,9.0,-2.0,310,15,,6.21,30.059055,,,TRUE,,,,,,,,BKN,4100,,,,,,,VFR,,,,,,,,,,,,METAR,25.0
EGYP 170750Z 35024KT CAVOK 07/06 Q0994,EGYP,2023-05-17T07:50:00Z,-51.82,-58.45,7.0,6.0,350,24,,6.21,29.350393,,,,,,,,,,,CAVOK,,,,,,,,VFR,,,,,,,,,,,,METAR,70.0
EGYM 170750Z 12003KT CAVOK 14/08 Q1029,EGYM,2023-05-17T07:50:00Z,52.63,0.57,14.0,8.0,120,3,,6.21,30.383858,,,,,,,,,,,CAVOK,,,,,,,,VFR,,,,,,,,,,,,METAR,25.0
EGXC 170750Z 35004KT 9999 FEW010 BKN030 11/09 Q1029 RMK BLU,EGXC,2023-05-17T07:50:00Z,53.1,-0.17,11.0,9.0,350,4,,6.21,30.383858,,,,,,,,,,,FEW,1000,BKN,3000,,,,,MVFR,,,,,,,,,,,,METAR,9.0
EGWC 170750Z 31006KT 9999 FEW012 SCT025 12/08 Q1030 RMK BLU,EGWC,2023-05-17T07:50:00Z,52.63,-2.3,12.0,8.0,310,6,,6.21,30.413385,,,,,,,,,,,FEW,1200,SCT,2500,,,,,VFR,,,,,,,,,,,,METAR,79.0
EGQL 170750Z 26009KT CAVOK 12/09 Q1027 RMK BLU,EGQL,2023-05-17T07:50:00Z,56.38,-2.87,12.0,9.0,260,9,,6.21,30.324802,,,,,,,,,,,CAVOK,,,,,,,,VFR,,,,,,,,,,,,METAR,11.0
EGQA 170750Z 19007KT 9999 FEW025 13/08 Q1025 RMK BLU,EGQA,2023-05-17T07:50:00Z,57.83,-3.95,13.0,8.0,190,7,,6.21,30.265747,,,,,,,,,,,FEW,2500,,,,,,,VFR,,,,,,,,,,,,METAR,4.0
EGOP 170750Z AUTO 27002KT 9999 NCD 12/08 Q1030,EGOP,2023-05-17T07:50:00Z,51.72,-4.37,12.0,8.0,270,2,,6.21,30.413385,,,TRUE,,,,,,,,CLR,,,,,,,,VFR,,,,,,,,,,,,METAR,8.0
EEEI 170750Z 20017G27KT 170V240 9999 FEW024 13/06 Q1010 NOSIG,EEEI,2023-05-17T07:50:00Z,59.27,24.2,13.0,6.0,200,17,27,6.21,29.822834,,,,,,TRUE,,,,,FEW,2400,,,,,,,VFR,,,,,,,,,,,,METAR,19.0
BGSF 170750Z AUTO 04004KT 010V070 9999NDV -DZ FEW036/// BKN041/// BKN050/// 02/00 Q1000,BGSF,2023-05-17T07:50:00Z,67.0,-50.72,2.0,0.0,40,4,,,29.52756,,,TRUE,,,,,,,-DZ,FEW,3600,BKN,4100,BKN,5000,,,,,,,,,,,,,,,METAR,75.0
BGKK 170750Z AUTO 08012KT 9999NDV OVC030/// 01/M02 Q1002,BGKK,2023-05-17T07:50:00Z,65.57,-37.13,1.0,-2.0,80,12,,,29.586615,,,TRUE,,,,,,,,OVC,3000,,,,,,,,,,,,,,,,,,,METAR,37.0
BGJN 170750Z AUTO 15003KT 9999NDV NCD M01/M04 Q1000,BGJN,2023-05-17T07:50:00Z,69.25,-51.07,-1.0,-4.0,150,3,,,29.52756,,,TRUE,,,,,,,,CLR,,,,,,,,,,,,,,,,,,,,METAR,22.0
BGGH 170750Z AUTO 15003KT 9999 BKN002/// OVC004/// 00/00 Q0999,BGGH,2023-05-17T07:50:00Z,64.2,-51.68,0.0,0.0,150,3,,6.21,29.498032,,,TRUE,,,,,,,,BKN,200,OVC,400,,,,,LIFR,,,,,,,,,,,,METAR,76.0
BGBW 170750Z AUTO 06005KT 9999NDV FEW055/// OVC070/// 04/01 Q0999,BGBW,2023-05-17T07:50:00Z,61.17,-45.42,4.0,1.0,60,5,,,29.498032,,,TRUE,,,,,,,,FEW,5500,OVC,7000,,,,,,,,,,,,,,,,,METAR,49.0
KJDN 170748Z AUTO 28008KT 17/11 A2989 RMK AO1 SLP109 T01720111,KJDN,2023-05-17T07:48:00Z,47.33,-106.95,17.2,11.1,280,8,,,29.890747,1010.9,,TRUE,TRUE,,,,,,,,,,,,,,,,,,,,,,,,,,,SPECI,802.0
KCQT 170747Z AUTO 00000KT 6SM BR OVC004 14/13 A2998 RMK AO2 SLP151 T01440133 402280144 $,KCQT,2023-05-17T07:47:00Z,34.02,-118.28,14.4,13.3,0,0,,6.0,29.97933,1015.1,,TRUE,TRUE,TRUE,,,,,BR,OVC,400,,,,,,,LIFR,,,,22.8,14.4,,,,,,,SPECI,51.0
MMSP 170746Z 00000KT 7SM SCT020 BKN025 16/13 A3022 RMK 8/500,MMSP,2023-05-17T07:46:00Z,22.25,-100.93,16.0,13.0,0,0,,7.0,30.221457,,,,,,,,,,,SCT,2000,BKN,2500,,,,,MVFR,,,,,,,,,,,,METAR,1841.0
MMMX 170745Z 00000KT 7SM FEW100 SCT220 14/08 A3035 NOSIG RMK 8/032 HZY,MMMX,2023-05-17T07:45:00Z,19.43,-99.08,14.0,8.0,0,0,,7.0,30.351377,,,,,,TRUE,,,,,FEW,10000,SCT,22000,,,,,VFR,,,,,,,,,,,,METAR,2224.0
MMUN 170744Z 00000KT 7SM SKC 22/22 A2991 RMK CS,MMUN,2023-05-17T07:44:00Z,21.03,-86.85,22.0,22.0,0,0,,7.0,29.911417,,,,,,,,,,,SKC,,,,,,,,VFR,,,,,,,,,,,,METAR,13.0
MMAS 170744Z 140056KT 8SM SKC 14/03 A3023 RMK AC HZY,MMAS,2023-05-17T07:44:00Z,21.7,-102.32,14.0,3.0,140,56,,8.0,30.230314,,,,,,,,,,,SKC,,,,,,,,VFR,,,,,,,,,,,,METAR,1866.0
MMTJ 170743Z 31006KT 6SM OVC018 14/12 A2999 RMK 8/6// HZY,MMTJ,2023-05-17T07:43:00Z,32.53,-116.97,14.0,12.0,310,6,,6.0,29.991142,,,,,,,,,,,OVC,1800,,,,,,,MVFR,,,,,,,,,,,,METAR,150.0
MMTO 170741Z 09003KT 8SM SKC 06/05 A3041 RMK SC,MMTO,2023-05-17T07:41:00Z,19.35,-99.57,6.0,5.0,90,3,,8.0,30.410433,,,,,,,,,,,SKC,,,,,,,,VFR,,,,,,,,,,,,METAR,2582.0
MMQT 170741Z 00000KT 7SM SCT020 13/08 A3031 RMK 8/500,MMQT,2023-05-17T07:41:00Z,20.62,-100.18,13.0,8.0,0,0,,7.0,30.31004,,,,,,,,,,,SCT,2000,,,,,,,VFR,,,,,,,,,,,,METAR,1909.0
MMMZ 170741Z 00000KT 10SM SKC 21/19 A2995,MMMZ,2023-05-17T07:41:00Z,23.17,-106.27,21.0,19.0,0,0,,10.0,29.949802,,,,,,,,,,,SKC,,,,,,,,VFR,,,,,,,,,,,,METAR,7.0
MMMD 170741Z 00000KT 7SM SKC 25/21 A2992 RMK HZY,MMMD,2023-05-17T07:41:00Z,20.95,-89.65,25.0,21.0,0,0,,7.0,29.920275,,,,,,,,,,,SKC,,,,,,,,VFR,,,,,,,,,,,,METAR,10.0
MMAA 170741Z 35003KT 5SM SKC 28/25 A2988 RMK HZY ISOL CU,MMAA,2023-05-17T07:41:00Z,16.75,-99.75,28.0,25.0,350,3,,5.0,29.878937,,,,,,,,,,,SKC,,,,,,,,MVFR,,,,,,,,,,,,METAR,5.0
MMMY 170740Z 00000KT 8SM SKC 22/21 A2993,MMMY,2023-05-17T07:40:00Z,25.77,-100.1,22.0,21.0,0,0,,8.0,29.929134,,,,,,,,,,,SKC,,,,,,,,VFR,,,,,,,,,,,,METAR,382.0
MMMM 170740Z 26004KT 7SM SCT080 BKN300 14/07 A3025 RMK 8/038 HZY,MMMM,2023-05-17T07:40:00Z,19.85,-101.03,14.0,7.0,260,4,,7.0,30.250984,,,,,,,,,,,SCT,8000,BKN,30000,,,,,VFR,,,,,,,,,,,,METAR,1840.0
MMML 170740Z 13008KT 10SM SKC 24/10 A2982,MMML,2023-05-17T07:40:00Z,32.62,-115.23,24.0,10.0,130,8,,10.0,29.819881,,,,,,,,,,,SKC,,,,,,,,VFR,,,,,,,,,,,,METAR,21.0
MMHO 170740Z 10004KT 10SM SCT200 25/M01 A2993 RMK 8/008 HZY,MMHO,2023-05-17T07:40:00Z,29.08,-111.05,25.0,-1.0,100,4,,10.0,29.929134,,,,,,,,,,,SCT,20000,,,,,,,VFR,,,,,,,,,,,,METAR,186.0
MMGL 170740Z 28006KT 8SM SCT030 BKN090 20/06 A3020 RMK 8/570,MMGL,2023-05-17T07:40:00Z,20.52,-103.32,20.0,6.0,280,6,,8.0,30.200787,,,,,,,,,,,SCT,3000,BKN,9000,,,,,VFR,,,,,,,,,,,,METAR,1531.0
DAUH 170737Z 17013KT 140V200 4000 SA NSC 27/M01 Q1011,DAUH,2023-05-17T07:37:00Z,31.67,6.15,27.0,-1.0,170,13,,2.49,29.852362,,,,,,,,,,SA,CLR,,,,,,,,IFR,,,,,,,,,,,,SPECI,141.0
FADY 170736Z 28004KT CAVOK 13/06 Q1020,FADY,2023-05-17T07:36:00Z,-30.68,24.02,13.0,6.0,280,4,,6.21,30.11811,,,,,,,,,,,CAVOK,,,,,,,,VFR,,,,,,,,,,,,SPECI,1265.0
RJAT 170735Z 17006KT 9999 FEW030 23/12 Q1016 RMK 1CU030 A3002,RJAT,2023-05-17T07:35:00Z,35.32,138.87,23.0,12.0,170,6,,6.21,30.0,,,,,,,,,,,FEW,3000,,,,,,,VFR,,,,,,,,,,,,SPECI,675.0
KDCM 170735Z AUTO 00000KT 10SM CLR 17/17 A2975 RMK AO2,KDCM,2023-05-17T07:35:00Z,34.78,-81.2,17.0,17.0,0,0,,10.0,29.749016,,,TRUE,TRUE,,,,,,,CLR,,,,,,,,VFR,,,,,,,,,,,,METAR,191.0
