raw_text,station_id,observation_time,latitude,longitude,temp_c,dewpoint_c,wind_dir_degrees,wind_speed_kt,wind_gust_kt,visibility_statute_mi,altim_in_hg,sea_level_pressure_mb,corrected,auto,auto_station,maintenance_indicator_on,no_signal,lightning_sensor_off,freezing_rain_sensor_off,present_weather_sensor_off,wx_string,sky_cover,cloud_base_ft_agl,sky_cover,cloud_base_ft_agl,sky_cover,cloud_base_ft_agl,sky_cover,cloud_base_ft_agl,flight_category,three_hr_pressure_tendency_mb,maxT_c,minT_c,maxT24hr_c,minT24hr_c,precip_in,pcp3hr_in,pcp6hr_in,pcp24hr_in,snow_in,vert_vis_ft,metar_type,elevation_m
MMMM 060002Z 18007G21KT 8SM SKC 29/09 A3003 RMK HZY SC,MMMM,2023-06-06T00:02:00Z,19.85,-101.03,29.0,9.0,180,7,21,8.0,30.029528,,,,,,,,,,,SKC,,,,,,,,VFR,,,,,,,,,,,,SPECI,1840.0
KAIT 060002Z AUTO 00000KT 10SM CLR 23/17 A3008 RMK AO2 LTG DSNT N,KAIT,2023-06-06T00:02:00Z,46.53,-93.67,23.0,17.0,0,0,,10.0,30.079725,,,TRUE,TRUE,,,,,,,CLR,,,,,,,,VFR,,,,,,,,,,,,METAR,367.0
PAFS 060001Z AUTO 06010KT 10SM CLR 21/04 A2984 RMK AO2 SLP107 T02060044 10211 20144 58022,PAFS,2023-06-06T00:01:00Z,63.02,-154.35,20.6,4.4,60,10,,10.0,29.840551,1010.7,,TRUE,TRUE,,,,,,,CLR,,,,,,,,VFR,-2.2,21.1,14.4,,,,,,,,,METAR,131.0
KFVE 060001Z AUTO 36005KT 10SM BKN013 OVC100 09/08 A2983 RMK AO2 T00940078,KFVE,2023-06-06T00:01:00Z,47.28,-68.3,9.4,7.8,360,5,,10.0,29.828741,,,TRUE,TRUE,,,,,,,BKN,1300,OVC,10000,,,,,MVFR,,,,,,,,,,,,SPECI,299.0
KAMA 060001Z 26005KT 10SM VCTS CLR 19/12 A3009 RMK AO2 LTG DSNT E T01940122,KAMA,2023-06-06T00:01:00Z,35.22,-101.72,19.4,12.2,260,5,,10.0,30.088583,,,,TRUE,,,,,,VCTS,CLR,,,,,,,,VFR,,,,,,,,,,,,SPECI,1102.0
ZMUB 060000Z VRB01MPS CAVOK 12/04 Q1011 NOSIG RMK QFE651.8 56,ZMUB,2023-06-06T00:00:00Z,47.83,106.75,12.0,4.0,0,2,,6.21,29.852362,,,,,,TRUE,,,,,CAVOK,,,,,,,,VFR,,,,,,,,,,,,METAR,1300.0
ZMCK 060000Z VRB02MPS CAVOK 14/04 Q1012 NOSIG RMK QFE644.0 51,ZMCK,2023-06-06T00:00:00Z,47.65,106.82,14.0,4.0,0,4,,6.21,29.88189,,,,,,TRUE,,,,,CAVOK,,,,,,,,VFR,,,,,,,,,,,,METAR,1366.0
YPJT 060000Z AUTO 27015G25KT 9999 // SCT043 SCT052 BKN100 13/05 Q1003,YPJT,2023-06-06T00:00:00Z,-32.1,115.88,13.0,5.0,270,15,25,6.21,29.616142,,,TRUE,,,,,,,,SCT,4300,SCT,5200,BKN,10000,,,VFR,,,,,,,,,,,,SPECI,29.0
YBRK 060000Z AUTO 13011KT 9999 // OVC015 20/16 Q1024 RF00.0/000.0,YBRK,2023-06-06T00:00:00Z,-23.37,150.47,20.0,16.0,130,11,,6.21,30.236221,,,TRUE,,,,,,,,OVC,1500,,,,,,,MVFR,,,,,,,,,,,,SPECI,10.0
YBHM 060000Z AUTO 15020KT 9999 // SCT008 OVC016 22/21 Q1021,YBHM,2023-06-06T00:00:00Z,-20.35,148.95,22.0,21.0,150,20,,6.21,30.147638,,,TRUE,,,,,,,,SCT,800,OVC,1600,,,,,MVFR,,,,,,,,,,,,SPECI,4.0
WSAP 060000Z 02002KT 5000 -TSRA FEW015CB FEW017TCU BKN160 26/25 Q1010,WSAP,2023-06-06T00:00:00Z,1.37,103.92,26.0,25.0,20,2,,3.11,29.822834,,,,,,,,,,-TSRA,FEW,1500,FEW,1700,BKN,16000,,,MVFR,,,,,,,,,,,,METAR,20.0
WIII 060000Z 19005KT 5000 HZ FEW020 26/25 Q1010 NOSIG,WIII,2023-06-06T00:00:00Z,-6.13,106.67,26.0,25.0,190,5,,3.11,29.822834,,,,,,TRUE,,,,HZ,FEW,2000,,,,,,,MVFR,,,,,,,,,,,,METAR,9.0
WARR 060000Z 27004KT 5000 HZ FEW020 26/24 Q1010 NOSIG ,WARR,2023-06-06T00:00:00Z,-7.37,112.78,26.0,24.0,270,4,,3.11,29.822834,,,,,,TRUE,,,,HZ,FEW,2000,,,,,,,MVFR,,,,,,,,,,,,METAR,3.0
WAJJ 060000Z 14010KT 9999 FEW012 28/25 Q1010 NOSIG,WAJJ,2023-06-06T00:00:00Z,-2.58,140.52,28.0,25.0,140,10,,6.21,29.822834,,,,,,TRUE,,,,,FEW,1200,,,,,,,VFR,,,,,,,,,,,,METAR,93.0
VORY 060000Z 02003KT 1000 BR FEW020 29/28 Q1003 NOSIG,VORY,2023-06-06T00:00:00Z,17.1,81.82,29.0,28.0,20,3,,0.62,29.616142,,,,,,TRUE,,,,BR,FEW,2000,,,,,,,LIFR,,,,,,,,,,,,METAR,47.0
VOMM 060000Z 26012KT 4000 BR FEW020 SCT100 28/24 Q1004 NOSIG,VOMM,2023-06-06T00:00:00Z,13.0,80.17,28.0,24.0,260,12,,2.49,29.64567,,,,,,TRUE,,,,BR,FEW,2000,SCT,10000,,,,,IFR,,,,,,,,,,,,METAR,7.0
VOML 060000Z 09003KT 6000 FEW015 27/24 Q1008 NOSIG,VOML,2023-06-06T00:00:00Z,12.97,74.88,27.0,24.0,90,3,,3.73,29.763779,,,,,,TRUE,,,,,FEW,1500,,,,,,,MVFR,,,,,,,,,,,,METAR,100.0
VNKT 060000Z 09003KT 7000 FEW015 SCT030 BKN100 20/15 Q1013 NOSIG,VNKT,2023-06-06T00:00:00Z,27.68,85.37,20.0,15.0,90,3,,4.35,29.911417,,,,,,TRUE,,,,,FEW,1500,SCT,3000,BKN,10000,,,MVFR,,,,,,,,,,,,METAR,1334.0
VHHH 060000Z 08007KT 9999 VCSH FEW015 SCT020 30/25 Q1007 TEMPO 4000 SHRA FEW010CB SCT025,VHHH,2023-06-06T00:00:00Z,22.32,113.92,30.0,25.0,80,7,,6.21,29.734253,,,,,,,,,,VCSH,FEW,1500,SCT,2000,,,,,VFR,,,,,,,,,,,,METAR,9.0
VGHS 060000Z 18008KT 4000 HZ SCT100 29/23 Q1003 NOSIG,VGHS,2023-06-06T00:00:00Z,23.85,90.4,29.0,23.0,180,8,,2.49,29.616142,,,,,,TRUE,,,,HZ,SCT,10000,,,,,,,IFR,,,,,,,,,,,,METAR,11.0
VECC 060000Z 00000KT 2800 HZ FEW020 29/28 Q1002 NOSIG,VECC,2023-06-06T00:00:00Z,22.65,88.43,29.0,28.0,0,0,,1.74,29.586615,,,,,,TRUE,,,,HZ,FEW,2000,,,,,,,IFR,,,,,,,,,,,,METAR,11.0
VARK 050000Z 25009KT 6000 NSC 28/24 Q1006 NOSIG,VARK,2023-06-06T00:00:00Z,22.3,70.77,28.0,24.0,250,9,,3.73,29.704725,,,,,,TRUE,,,,,CLR,,,,,,,,MVFR,,,,,,,,,,,,METAR,125.0
VAID 060000Z 32005KT 5000 HZ NSC 26/19 Q1009 NOSIG,VAID,2023-06-06T00:00:00Z,22.72,75.8,26.0,19.0,320,5,,3.11,29.793306,,,,,,TRUE,,,,HZ,CLR,,,,,,,,MVFR,,,,,,,,,,,,METAR,564.0
UBBZ 060000Z AUTO 33004KT 9999 // ///063/// 21/17 Q1014,UBBZ,2023-06-06T00:00:00Z,39.1,46.73,21.0,17.0,330,4,,6.21,29.940945,,,TRUE,,,,,,,,,,,,,,,,,,,,,,,,,,,,METAR,489.0
UBBY 060000Z 10006KT 9999 VCTS SCT050CB BKN070 21/17 Q1016 NOSIG RMK MT OP,UBBY,2023-06-06T00:00:00Z,41.57,46.67,21.0,17.0,100,6,,6.21,30.0,,,,,,TRUE,,,,VCTS,SCT,5000,BKN,7000,,,,,VFR,,,,,,,,,,,,METAR,383.0
UBBQ 060000Z 05003KT 9999 FEW140 18/17 Q1013 NOSIG RMK MT PT OP,UBBQ,2023-06-06T00:00:00Z,40.82,47.72,18.0,17.0,50,3,,6.21,29.911417,,,,,,TRUE,,,,,FEW,14000,,,,,,,VFR,,,,,,,,,,,,METAR,339.0
UBBL 060000Z VRB03KT 7000 SCT100 21/21 Q1013 NOSIG RMK MT OP,UBBL,2023-06-06T00:00:00Z,38.75,48.82,21.0,21.0,0,3,,4.35,29.911417,,,,,,TRUE,,,,,SCT,10000,,,,,,,MVFR,,,,,,,,,,,,METAR,-11.0
UBBG 060000Z 28010KT 9999 FEW040CB BKN083 23/14 Q1012 NOSIG,UBBG,2023-06-06T00:00:00Z,40.73,46.32,23.0,14.0,280,10,,6.21,29.88189,,,,,,TRUE,,,,,FEW,4000,BKN,8300,,,,,VFR,,,,,,,,,,,,METAR,333.0
UBBF 060000Z AUTO 31014KT 9999 // NSC 21/16 Q1012,UBBF,2023-06-06T00:00:00Z,39.6,47.2,21.0,16.0,310,14,,6.21,29.88189,,,TRUE,,,,,,,,CLR,,,,,,,,VFR,,,,,,,,,,,,METAR,370.0
UBBB 060000Z 34014KT 9999 FEW060CB 23/18 Q1012 NOSIG,UBBB,2023-06-06T00:00:00Z,40.47,50.07,23.0,18.0,340,14,,6.21,29.88189,,,,,,TRUE,,,,,FEW,6000,,,,,,,VFR,,,,,,,,,,,,METAR,94.0
TUPJ 060000Z 15007KT 10SM FEW021 29/25 A2998 RMK Q1015 VIS16KM,TUPJ,2023-06-06T00:00:00Z,18.43,-64.53,29.0,25.0,150,7,,10.0,29.97933,,,,,,,,,,,FEW,2100,,,,,,,VFR,,,,,,,,,,,,METAR,6.0
TNCA 060000Z 08014KT 9999 FEW018 29/26 Q1011 NOSIG,TNCA,2023-06-06T00:00:00Z,12.5,-70.0,29.0,26.0,80,14,,6.21,29.852362,,,,,,TRUE,,,,,FEW,1800,,,,,,,VFR,,,,,,,,,,,,METAR,7.0
TLPL 060000Z 08015KT 9999 BKN024 29/25 Q1015 NOSIG,TLPL,2023-06-06T00:00:00Z,13.75,-60.95,29.0,25.0,80,15,,6.21,29.970472,,,,,,TRUE,,,,,BKN,2400,,,,,,,MVFR,,,,,,,,,,,,METAR,13.0
TLPC 060000Z 09008KT 9999 BKN023 29/25 Q1015 TEMPO SHRA,TLPC,2023-06-06T00:00:00Z,14.02,-61.0,29.0,25.0,90,8,,6.21,29.970472,,,,,,,,,,,BKN,2300,,,,,,,MVFR,,,,,,,,,,,,METAR,8.0
TKPK 060000Z 09009KT 9999 SCT018 28/25 Q1015,TKPK,2023-06-06T00:00:00Z,17.3,-62.72,28.0,25.0,90,9,,6.21,29.970472,,,,,,,,,,,SCT,1800,,,,,,,VFR,,,,,,,,,,,,METAR,62.0
TFFR 060000Z AUTO 11007KT 9999 FEW019 28/24 Q1015 NOSIG,TFFR,2023-06-06T00:00:00Z,16.27,-61.53,28.0,24.0,110,7,,6.21,29.970472,,,TRUE,,,TRUE,,,,,FEW,1900,,,,,,,VFR,,,,,,,,,,,,METAR,6.0
TFFF 060000Z AUTO 11012KT 9999 FEW018 SCT031 BKN048 28/25 Q1015 NOSIG,TFFF,2023-06-06T00:00:00Z,14.6,-61.0,28.0,25.0,110,12,,6.21,29.970472,,,TRUE,,,TRUE,,,,,FEW,1800,SCT,3100,BKN,4800,,,VFR,,,,,,,,,,,,METAR,3.0
SYCJ 060000Z VRB02KT 9999 FEW016CB 27/25 Q1013 NOSIG RMK CB SSW-W,SYCJ,2023-06-06T00:00:00Z,6.5,-58.25,27.0,25.0,0,2,,6.21,29.911417,,,,,,TRUE,,,,,FEW,1600,,,,,,,VFR,,,,,,,,,,,,METAR,30.0
SVMI 060000Z 07005KT 9999 SCT080 BKN016 28/26 Q1013,SVMI,2023-06-06T00:00:00Z,10.6,-67.0,28.0,26.0,70,5,,6.21,29.911417,,,,,,,,,,,SCT,8000,BKN,1600,,,,,MVFR,,,,,,,,,,,,METAR,48.0
SVMG 060000Z 10010K 9999 SCT040 ///// Q1013,SVMG,2023-06-06T00:00:00Z,10.92,-63.97,,,,,,6.21,29.911417,,,,,,,,,,,SCT,4000,,,,,,,VFR,,1.0,,,,,,,,,,METAR,16.0
SVBC 060000Z 00000KT 9999 BKN016 27/// Q1013,SVBC,2023-06-06T00:00:00Z,10.12,-64.68,,,0,0,,6.21,29.911417,,,,,,,,,,,BKN,1600,,,,,,,MVFR,,,,,,,,,,,,METAR,7.0
SUMU 060000Z 07005KT CAVOK 11/09 Q1021 NOSIG,SUMU,2023-06-06T00:00:00Z,-34.83,-56.02,11.0,9.0,70,5,,6.21,30.147638,,,,,,TRUE,,,,,CAVOK,,,,,,,,VFR,,,,,,,,,,,,METAR,32.0
SULS 060000Z 01005KT CAVOK 09/09 Q1022,SULS,2023-06-06T00:00:00Z,-34.87,-55.1,9.0,9.0,10,5,,6.21,30.177166,,,,,,,,,,,CAVOK,,,,,,,,VFR,,,,,,,,,,,,METAR,22.0
SPZO 060000Z 29008KT 9999 NSC 13/01 Q1032 NOSIG RMK BIRD HAZARD RWY 10/28 PP000,SPZO,2023-06-06T00:00:00Z,-13.55,-71.93,13.0,1.0,290,8,,6.21,30.47244,,,,,,TRUE,,,,,CLR,,,,,,,,VFR,,,,,,,,,,,,METAR,3249.0
SPYL 060000Z 16009KT 9999 BKN040 24/21 Q1011 RMK 17/35 PP000,SPYL,2023-06-06T00:00:00Z,-4.57,-81.25,24.0,21.0,160,9,,6.21,29.852362,,,,,,,,,,,BKN,4000,,,,,,,VFR,,,,,,,,,,,,METAR,89.0
SPUR 060000Z 20009KT CAVOK 27/19 Q1010 RMK BIRD HAZARD RWY 19/01 PP000,SPUR,2023-06-06T00:00:00Z,-5.17,-80.58,27.0,19.0,200,9,,6.21,29.822834,,,,,,,,,,,CAVOK,,,,,,,,VFR,,,,,,,,,,,,METAR,55.0
SPTN 060000Z 22006KT 9999 OVC030 16/13 Q1016 RMK PP000,SPTN,2023-06-06T00:00:00Z,-18.03,-70.28,16.0,13.0,220,6,,6.21,30.0,,,,,,,,,,,OVC,3000,,,,,,,MVFR,,,,,,,,,,,,METAR,459.0
SPST 060000Z 12003KT 9999 SCT015TCU SCT080 26/22 Q1012 RMK PP000,SPST,2023-06-06T00:00:00Z,-6.52,-76.37,26.0,22.0,120,3,,6.21,29.88189,,,,,,,,,,,SCT,1500,SCT,8000,,,,,VFR,,,,,,,,,,,,METAR,282.0
SPSO 060000Z 21009KT 9000 BKN030 21/16 Q1013 RMK PP000,SPSO,2023-06-06T00:00:00Z,-13.73,-76.22,21.0,16.0,210,9,,5.59,29.911417,,,,,,,,,,,BKN,3000,,,,,,,MVFR,,,,,,,,,,,,METAR,8.0
SPRU 060000Z 15007KT 7000 BCFG NSC 23/20 Q1012 RMK PP000,SPRU,2023-06-06T00:00:00Z,-8.08,-79.12,23.0,20.0,150,7,,4.35,29.88189,,,,,,,,,,BCFG,CLR,,,,,,,,MVFR,,,,,,,,,,,,METAR,23.0
SPQU 060000Z 05005KT CAVOK 14/M06 Q1028 RMK PP000,SPQU,2023-06-06T00:00:00Z,-16.33,-71.57,14.0,-6.0,50,5,,6.21,30.35433,,,,,,,,,,,CAVOK,,,,,,,,VFR,,,,,,,,,,,,METAR,2527.0
SPQT 060000Z 23003KT 9999 SCT020 BKN100 24/22 Q1012 NOSIG RMK PP000,SPQT,2023-06-06T00:00:00Z,-3.78,-73.32,24.0,22.0,230,3,,6.21,29.88189,,,,,,TRUE,,,,,SCT,2000,BKN,10000,,,,,VFR,,,,,,,,,,,,METAR,92.0
SPME 060000Z 25007KT 9999 BKN023 26/24 Q1010 RMK BIRD HAZARD RWY 32/14 PP000,SPME,2023-06-06T00:00:00Z,-3.55,-80.4,26.0,24.0,250,7,,6.21,29.822834,,,,,,,,,,,BKN,2300,,,,,,,MVFR,,,,,,,,,,,,METAR,26.0
SPJC 060000Z 16011KT 9999 OVC033 23/18 Q1013 NOSIG RMK PP000,SPJC,2023-06-06T00:00:00Z,-12.02,-77.12,23.0,18.0,160,11,,6.21,29.911417,,,,,,TRUE,,,,,OVC,3300,,,,,,,VFR,,,,,,,,,,,,METAR,26.0
SPHI 060000Z 18013KT 9999 FEW020 BKN035 24/20 Q1011 RMK BIRD HAZARD RWY 19/01 PP000,SPHI,2023-06-06T00:00:00Z,-6.78,-79.82,24.0,20.0,180,13,,6.21,29.852362,,,,,,,,,,,FEW,2000,BKN,3500,,,,,VFR,,,,,,,,,,,,METAR,33.0
SPCL 060000Z 02003KT 9999 SCT015 BKN070 25/24 Q1013 RMK PP000,SPCL,2023-06-06T00:00:00Z,-8.38,-74.58,25.0,24.0,20,3,,6.21,29.911417,,,,,,,,,,,SCT,1500,BKN,7000,,,,,VFR,,,,,,,,,,,,METAR,154.0
SOCA 060000Z AUTO 14002KT CAVOK 26/23 Q1013 TEMPO 3000 SHRA BKN005 FEW012 BKN018TCU,SOCA,2023-06-06T00:00:00Z,4.82,-52.37,26.0,23.0,140,2,,6.21,29.911417,,,TRUE,,,,,,,,CAVOK,,,,,,,,VFR,,,,,,,,,,,,METAR,7.0
SMZO 060000Z 00000KT 9999 FEW010 SCT020 26/23 Q1013 NOSIG,SMZO,2023-06-06T00:00:00Z,5.82,-55.18,26.0,23.0,0,0,,6.21,29.911417,,,,,,TRUE,,,,,FEW,1000,SCT,2000,,,,,VFR,,,,,,,,,,,,METAR,7.0
SMJP 060000Z 00000KT 9999 FEW008 FEW015CB SCT020 25/25 Q1013 NOSIG,SMJP,2023-06-06T00:00:00Z,5.45,-55.18,25.0,25.0,0,0,,6.21,29.911417,,,,,,TRUE,,,,,FEW,800,FEW,1500,SCT,2000,,,VFR,,,,,,,,,,,,METAR,14.0
SLVR 060000Z VRB02KT 9999 NSC 22/20 Q1016,SLVR,2023-06-06T00:00:00Z,-17.63,-63.13,22.0,20.0,0,2,,6.21,30.0,,,,,,,,,,,CLR,,,,,,,,VFR,,,,,,,,,,,,METAR,377.0
SLTJ 060000Z 00000KT 9999 NSC 13/09 Q1023,SLTJ,2023-06-06T00:00:00Z,-21.55,-64.72,13.0,9.0,0,0,,6.21,30.206694,,,,,,,,,,,CLR,,,,,,,,VFR,,,,,,,,,,,,METAR,1850.0
SLLP 060000Z 08006KT 9999 NSC 01/M08 Q1039,SLLP,2023-06-06T00:00:00Z,-16.52,-68.17,1.0,-8.0,80,6,,6.21,30.679134,,,,,,,,,,,CLR,,,,,,,,VFR,,,,,,,,,,,,METAR,4061.0
SLCB 060000Z 00000KT 9999 NSC 15/04 Q1025,SLCB,2023-06-06T00:00:00Z,-17.42,-66.18,15.0,4.0,0,0,,6.21,30.265747,,,,,,,,,,,CLR,,,,,,,,VFR,,,,,,,,,,,,METAR,2560.0
SLAL 060000Z 33008KT 9999 NSC 11/06 Q1031,SLAL,2023-06-06T00:00:00Z,-19.23,-65.15,11.0,6.0,330,8,,6.21,30.442913,,,,,,,,,,,CLR,,,,,,,,VFR,,,,,,,,,,,,METAR,3109.0
SKSP 060000Z 23003KT 140V270 9999 FEW014 28/25 Q1011 RMK A2986,SKSP,2023-06-06T00:00:00Z,12.58,-81.72,28.0,25.0,230,3,,6.21,29.852362,,,,,,,,,,,FEW,1400,,,,,,,VFR,,,,,,,,,,,,METAR,6.0
SKRG 060000Z VRB02KT 9999 FEW020 18/14 Q1025 NOSIG RMK A3027,SKRG,2023-06-06T00:00:00Z,6.17,-75.42,18.0,14.0,0,2,,6.21,30.265747,,,,,,TRUE,,,,,FEW,2000,,,,,,,VFR,,,,,,,,,,,,METAR,2132.0
SKPE 060000Z 12007KT 9999 FEW017 SCT080 22/19 Q1016 RMK A3001,SKPE,2023-06-06T00:00:00Z,4.82,-75.73,22.0,19.0,120,7,,6.21,30.0,,,,,,,,,,,FEW,1700,SCT,8000,,,,,VFR,,,,,,,,,,,,METAR,1341.0
SKLT 060000Z VRB02KT CAVOK 26/25 Q1012 RMK A2989,SKLT,2023-06-06T00:00:00Z,-4.2,-69.93,26.0,25.0,0,2,,6.21,29.88189,,,,,,,,,,,CAVOK,,,,,,,,VFR,,,,,,,,,,,,METAR,78.0
SKCL 060000Z 32006KT 9999 SCT025 SCT100 25/19 Q1014 NOSIG RMK A2995,SKCL,2023-06-06T00:00:00Z,3.53,-76.37,25.0,19.0,320,6,,6.21,29.940945,,,,,,TRUE,,,,,SCT,2500,SCT,10000,,,,,VFR,,,,,,,,,,,,METAR,967.0
SKCG 060000Z 01006KT 9999 SCT020 SCT090 BKN200 30/26 Q1010 RMK A2983,SKCG,2023-06-06T00:00:00Z,10.43,-75.52,30.0,26.0,10,6,,6.21,29.822834,,,,,,,,,,,SCT,2000,SCT,9000,BKN,20000,,,VFR,,,,,,,,,,,,METAR,6.0
SKBQ 060000Z 04005KT 9999 FEW015 29/25 Q1010 NOSIG RMK A2984,SKBQ,2023-06-06T00:00:00Z,10.87,-74.77,29.0,25.0,40,5,,6.21,29.822834,,,,,,TRUE,,,,,FEW,1500,,,,,,,VFR,,,,,,,,,,,,METAR,23.0
SKBO 060000Z 31006KT 260V330 8000 RA BKN015 SCT070 14/13 Q1027 NOSIG RMK A3034,SKBO,2023-06-06T00:00:00Z,4.7,-74.15,14.0,13.0,310,6,,4.97,30.324802,,,,,,TRUE,,,,RA,BKN,1500,SCT,7000,,,,,MVFR,,,,,,,,,,,,METAR,2547.0
SKBG 060000Z 34003KT 9999 SCT015 SCT070 22/21 Q1016 RMK A3000,SKBG,2023-06-06T00:00:00Z,7.13,-73.18,22.0,21.0,340,3,,6.21,30.0,,,,,,,,,,,SCT,1500,SCT,7000,,,,,VFR,,,,,,,,,,,,METAR,1187.0
SKAR 060000Z 00000KT 9999 BKN025 24/20 Q1015 RMK A2996,SKAR,2023-06-06T00:00:00Z,4.45,-75.77,24.0,20.0,0,0,,6.21,29.970472,,,,,,,,,,,BKN,2500,,,,,,,MVFR,,,,,,,,,,,,METAR,1214.0
SGES 060000Z 15003KT CAVOK 20/17 Q1019,SGES,2023-06-06T00:00:00Z,-25.45,-54.85,20.0,17.0,150,3,,6.21,30.088583,,,,,,,,,,,CAVOK,,,,,,,,VFR,,,,,,,,,,,,METAR,256.0
SGAS 060000Z 00000KT 7000 NSC 21/19 Q1018,SGAS,2023-06-06T00:00:00Z,-25.25,-57.52,21.0,19.0,0,0,,4.35,30.059055,,,,,,,,,,,CLR,,,,,,,,MVFR,,,,,,,,,,,,METAR,83.0
SEQM 060000Z 02005KT 9999 FEW030 15/12 Q1025 NOSIG RMK A3028,SEQM,2023-06-06T00:00:00Z,-0.12,-78.35,15.0,12.0,20,5,,6.21,30.265747,,,,,,TRUE,,,,,FEW,3000,,,,,,,VFR,,,,,,,,,,,,METAR,2386.0
SEMT 060000Z 27008KT 9999 SCT020 BKN200 27/23 Q1010 RMK A2985,SEMT,2023-06-06T00:00:00Z,-0.95,-80.67,27.0,23.0,270,8,,6.21,29.822834,,,,,,,,,,,SCT,2000,BKN,20000,,,,,VFR,,,,,,,,,,,,METAR,13.0
SELT 060000Z 17011KT 9999 SCT030 11/08 Q1030,SELT,2023-06-06T00:00:00Z,-0.92,-78.62,11.0,8.0,170,11,,6.21,30.413385,,,,,,,,,,,SCT,3000,,,,,,,VFR,,,,,,,,,,,,METAR,2779.0
SEGU 060000Z 21011KT 9999 FEW020 28/25 Q1008 NOSIG RMK A2979,SEGU,2023-06-06T00:00:00Z,-2.15,-79.88,28.0,25.0,210,11,,6.21,29.763779,,,,,,TRUE,,,,,FEW,2000,,,,,,,VFR,,,,,,,,,,,,METAR,6.0
SECU 060000Z 05008KT 9999 BKN033 16/10 Q1027,SECU,2023-06-06T00:00:00Z,-2.88,-78.98,16.0,10.0,50,8,,6.21,30.324802,,,,,,,,,,,BKN,3300,,,,,,,VFR,,,,,,,,,,,,METAR,2516.0
SCVM 060000Z VRB02KT CAVOK 13/09 Q1016,SCVM,2023-06-06T00:00:00Z,-32.95,-71.48,13.0,9.0,0,2,,6.21,30.0,,,,,,,,,,,CAVOK,,,,,,,,VFR,,,,,,,,,,,,METAR,136.0
SCVD 060000Z AUTO 34010KT 9999 RA FEW012 BKN024 OVC036 14/14 Q1012,SCVD,2023-06-06T00:00:00Z,-39.65,-73.08,14.0,14.0,340,10,,6.21,29.88189,,,TRUE,,,,,,,RA,FEW,1200,BKN,2400,OVC,3600,,,MVFR,,,,,,,,,,,,METAR,19.0
SCTN 060000Z 35009KT 9999 OVC020 11/11 Q1007,SCTN,2023-06-06T00:00:00Z,-42.92,-72.7,11.0,11.0,350,9,,6.21,29.734253,,,,,,,,,,,OVC,2000,,,,,,,MVFR,,,,,,,,,,,,METAR,8.0
SCTE 060000Z 31008KT 280V340 9999 -RA FEW008 BKN040 OVC150 11/ 11 Q1010 NOSIG,SCTE,2023-06-06T00:00:00Z,-41.43,-73.08,11.0,,310,8,,6.21,29.822834,,,,,,TRUE,,,,-RA,FEW,800,BKN,4000,OVC,15000,,,VFR,,,,,,,,,,,,METAR,85.0
SCSN 060000Z VRB01KT CAVOK 10/10 Q1016,SCSN,2023-06-06T00:00:00Z,-33.65,-71.62,10.0,10.0,0,1,,6.21,30.0,,,,,,,,,,,CAVOK,,,,,,,,VFR,,,,,,,,,,,,METAR,73.0
SCSE 060000Z 26004KT CAVOK 13/12 Q1015,SCSE,2023-06-06T00:00:00Z,-29.92,-71.2,13.0,12.0,260,4,,6.21,29.970472,,,,,,,,,,,CAVOK,,,,,,,,VFR,,,,,,,,,,,,METAR,141.0
SCRM 060000Z VRB02KT 8000 VCFG OVC020 M03/M03 Q0997 NOSIG,SCRM,2023-06-06T00:00:00Z,-62.18,-58.98,-3.0,-3.0,0,2,,4.97,29.438976,,,,,,TRUE,,,,VCFG,OVC,2000,,,,,,,MVFR,,,,,,,,,,,,METAR,45.0
SCQP 060000Z 03007KT 9999 FEW016 OVC023 12/10 Q1014,SCQP,2023-06-06T00:00:00Z,-38.92,-72.65,12.0,10.0,30,7,,6.21,29.940945,,,,,,,,,,,FEW,1600,OVC,2300,,,,,MVFR,,,,,,,,,,,,METAR,97.0
SCPQ 060000Z AUTO 34005KT 300V010 //// R35/P2000N FEW028 SCT046 10/07 Q1006,SCPQ,2023-06-06T00:00:00Z,-42.33,-73.72,10.0,7.0,340,5,,1.24,29.704725,,,TRUE,,,,,,,,FEW,2800,SCT,4600,,,,,IFR,,,,,,,,,,,,METAR,166.0
SCON 060000Z AUTO 27011G22KT 9999 OVC190/// 11/08 Q1005,SCON,2023-06-06T00:00:00Z,-43.13,-73.62,11.0,8.0,270,11,22,6.21,29.675198,,,TRUE,,,,,,,,OVC,19000,,,,,,,VFR,,,,,,,,,,,,METAR,11.0
SCNT 060000Z VRB02KT 9999 BKN050 M00/M01 Q0976,SCNT,2023-06-06T00:00:00Z,-51.67,-72.53,0.0,-1.0,0,2,,6.21,28.818897,,,,,,,,,,,BKN,5000,,,,,,,VFR,,,,,,,,,,,,METAR,68.0
SCMK 060000Z AUTO 26012KT 230V330 //// // SCT029/// SCT050/// BKN240/// 11/08 Q1004,SCMK,2023-06-06T00:00:00Z,-43.9,-73.73,11.0,8.0,260,12,,,29.64567,,,TRUE,,,,,,,,SCT,2900,SCT,5000,BKN,24000,,,,,,,,,,,,,,,METAR,22.0
SCJO 060000Z AUTO 26008KT 220V290 4000 RA FEW004/// BKN008/// OVC018/// 13/12 Q1010,SCJO,2023-06-06T00:00:00Z,-40.6,-73.05,13.0,12.0,260,8,,2.49,29.822834,,,TRUE,,,,,,,RA,FEW,400,BKN,800,OVC,1800,,,IFR,,,,,,,,,,,,METAR,61.0
SCIP 060000Z 32009KT 9999 SCT025 BKN120 BKN220 20/18 Q1008 NOSIG,SCIP,2023-06-06T00:00:00Z,-27.17,-109.43,20.0,18.0,320,9,,6.21,29.763779,,,,,,TRUE,,,,,SCT,2500,BKN,12000,BKN,22000,,,VFR,,,,,,,,,,,,METAR,48.0
SCIE 060000Z 04006KT 9999 FEW017 OVC032 13/12 Q1017,SCIE,2023-06-06T00:00:00Z,-36.77,-73.07,13.0,12.0,40,6,,6.21,30.029528,,,,,,,,,,,FEW,1700,OVC,3200,,,,,VFR,,,,,,,,,,,,METAR,8.0
SCIC 060000Z AUTO 15004KT //// R/////// NCD 12/09 Q1017,SCIC,2023-06-06T00:00:00Z,-34.97,-71.22,12.0,9.0,150,4,,,30.029528,,,TRUE,,,,,,,,CLR,,,,,,,,,,,,,,,,,,,,METAR,230.0
SCHR 060000Z AUTO 32007KT 290V350 9999 SHRA FEW016 BKN030 OVC034 07/03 Q0986,SCHR,2023-06-06T00:00:00Z,-47.23,-72.58,7.0,3.0,320,7,,6.21,29.114174,,,TRUE,,,,,,,SHRA,FEW,1600,BKN,3000,OVC,3400,,,MVFR,,,,,,,,,,,,METAR,203.0
SCFA 060000Z 20005KT 9999 BKN021 16/11 Q1015 NOSIG,SCFA,2023-06-06T00:00:00Z,-23.43,-70.43,16.0,11.0,200,5,,6.21,29.970472,,,,,,TRUE,,,,,BKN,2100,,,,,,,MVFR,,,,,,,,,,,,METAR,113.0
SCEL 060000Z 16004KT 130V190 CAVOK 17/06 Q1016 NOSIG,SCEL,2023-06-06T00:00:00Z,-33.38,-70.78,17.0,6.0,160,4,,6.21,30.0,,,,,,TRUE,,,,,CAVOK,,,,,,,,VFR,,,,,,,,,,,,METAR,478.0
SCDA 060000Z VRB02KT 9999 OVC025 19/13 Q1014,SCDA,2023-06-06T00:00:00Z,-20.53,-70.17,19.0,13.0,0,2,,6.21,29.940945,,,,,,,,,,,OVC,2500,,,,,,,MVFR,,,,,,,,,,,,METAR,41.0
SCCY 060000Z VRB06KT 9999 -RA OVC030 08/03 Q0994,SCCY,2023-06-06T00:00:00Z,-45.58,-72.1,8.0,3.0,0,6,,6.21,29.350393,,,,,,,,,,-RA,OVC,3000,,,,,,,MVFR,,,,,,,,,,,,METAR,301.0
SCCI 060000Z 18008KT CAVOK 04/02 Q0977 NOSIG,SCCI,2023-06-06T00:00:00Z,-53.0,-70.85,4.0,2.0,180,8,,6.21,28.848425,,,,,,TRUE,,,,,CAVOK,,,,,,,,VFR,,,,,,,,,,,,METAR,37.0
SCCF 060000Z 19007KT CAVOK 13/M22 Q1027,SCCF,2023-06-06T00:00:00Z,-22.5,-68.9,13.0,-22.0,190,7,,6.21,30.324802,,,,,,,,,,,CAVOK,,,,,,,,VFR,,,,,,,,,,,,METAR,2290.0
SCBA 060000Z AUTO 27013KT 6000 RASN OVC024/// 05/04 Q0993 RERA,SCBA,2023-06-06T00:00:00Z,-45.92,-71.68,5.0,4.0,270,13,,3.73,29.320866,,,TRUE,,,,,,,RA SN,OVC,2400,,,,,,,MVFR,,,,,,,,,,,,METAR,516.0
SCAT 060000Z 32006KT 9999 OVC015 14/11 Q1015,SCAT,2023-06-06T00:00:00Z,-27.27,-70.77,14.0,11.0,320,6,,6.21,29.970472,,,,,,,,,,,OVC,1500,,,,,,,MVFR,,,,,,,,,,,,METAR,209.0
SCAR 060000Z 22006KT 9999 OVC021 19/14 Q1015,SCAR,2023-06-06T00:00:00Z,-18.35,-70.33,19.0,14.0,220,6,,6.21,29.970472,,,,,,,,,,,OVC,2100,,,,,,,MVFR,,,,,,,,,,,,METAR,57.0
SCAP 060000Z AUTO VRB02KT 6000 RA ////// 07/06 Q1005,SCAP,2023-06-06T00:00:00Z,-43.62,-71.8,7.0,6.0,0,2,,3.73,29.675198,,,TRUE,,,,,,,RA,,,,,,,,,,,,,,,,,,,,,METAR,252.0
SBVT 060000Z 32002KT 9999 FEW015 19/18 Q1020,SBVT,2023-06-06T00:00:00Z,-20.25,-40.28,19.0,18.0,320,2,,6.21,30.11811,,,,,,,,,,,FEW,1500,,,,,,,VFR,,,,,,,,,,,,METAR,4.0
SBTE 060000Z 00000KT CAVOK 27/24 Q1013,SBTE,2023-06-06T00:00:00Z,-5.05,-42.82,27.0,24.0,0,0,,6.21,29.911417,,,,,,,,,,,CAVOK,,,,,,,,VFR,,,,,,,,,,,,METAR,60.0
SBSV 060000Z 16008KT 9999 SCT016 FEW020TCU BKN060 25/21 Q1018,SBSV,2023-06-06T00:00:00Z,-12.9,-38.32,25.0,21.0,160,8,,6.21,30.059055,,,,,,,,,,,SCT,1600,FEW,2000,BKN,6000,,,VFR,,,,,,,,,,,,METAR,9.0
SBSP 060000Z 15007KT 9999 FEW043 15/13 Q1024,SBSP,2023-06-06T00:00:00Z,-23.62,-46.65,15.0,13.0,150,7,,6.21,30.236221,,,,,,,,,,,FEW,4300,,,,,,,VFR,,,,,,,,,,,,METAR,802.0
SBSN 060000Z 13003KT CAVOK 26/25 Q1012,SBSN,2023-06-06T00:00:00Z,-2.42,-54.78,26.0,25.0,130,3,,6.21,29.88189,,,,,,,,,,,CAVOK,,,,,,,,VFR,,,,,,,,,,,,METAR,57.0
SBSL 060000Z 14004KT 9999 FEW015 FEW020TCU 26/25 Q1014 RETS,SBSL,2023-06-06T00:00:00Z,-2.58,-44.23,26.0,25.0,140,4,,6.21,29.940945,,,,,,,,,,,FEW,1500,FEW,2000,,,,,VFR,,,,,,,,,,,,METAR,53.0
SBSJ 060000Z 20005KT 9999 FEW045 16/14 Q1023,SBSJ,2023-06-06T00:00:00Z,-23.22,-45.87,16.0,14.0,200,5,,6.21,30.206694,,,,,,,,,,,FEW,4500,,,,,,,VFR,,,,,,,,,,,,METAR,640.0
SBSG 060000Z 13005KT 090V180 9999 FEW019 BKN085 26/23 Q1015,SBSG,2023-06-06T00:00:00Z,-5.77,-35.37,26.0,23.0,130,5,,6.21,29.970472,,,,,,,,,,,FEW,1900,BKN,8500,,,,,VFR,,,,,,,,,,,,METAR,83.0
SBRJ 060000Z VRB02KT CAVOK 22/17 Q1020,SBRJ,2023-06-06T00:00:00Z,-22.9,-43.17,22.0,17.0,0,2,,6.21,30.11811,,,,,,,,,,,CAVOK,,,,,,,,VFR,,,,,,,,,,,,METAR,6.0
SBRF 060000Z 22005KT 180V250 9999 FEW020 25/23 Q1015,SBRF,2023-06-06T00:00:00Z,-8.13,-34.92,25.0,23.0,220,5,,6.21,29.970472,,,,,,,,,,,FEW,2000,,,,,,,VFR,,,,,,,,,,,,METAR,10.0
SBRB 060000Z 26002KT CAVOK 23/22 Q1013,SBRB,2023-06-06T00:00:00Z,-9.87,-67.88,23.0,22.0,260,2,,6.21,29.911417,,,,,,,,,,,CAVOK,,,,,,,,VFR,,,,,,,,,,,,METAR,190.0
SBPV 060000Z 22002KT 8000 -RA FEW040 FEW045TCU BKN080 23/22 Q1012,SBPV,2023-06-06T00:00:00Z,-8.72,-63.9,23.0,22.0,220,2,,4.97,29.88189,,,,,,,,,,-RA,FEW,4000,FEW,4500,BKN,8000,,,MVFR,,,,,,,,,,,,METAR,89.0
SBPS 060000Z VRB02KT 9999 SCT027 22/19 Q1019,SBPS,2023-06-06T00:00:00Z,-16.43,-39.07,22.0,19.0,0,2,,6.21,30.088583,,,,,,,,,,,SCT,2700,,,,,,,VFR,,,,,,,,,,,,METAR,44.0
SBPL 060000Z 20004KT CAVOK 23/20 Q1018,SBPL,2023-06-06T00:00:00Z,-9.37,-40.57,23.0,20.0,200,4,,6.21,30.059055,,,,,,,,,,,CAVOK,,,,,,,,VFR,,,,,,,,,,,,METAR,386.0
SBPK 060000Z 19004KT CAVOK 11/09 Q1024,SBPK,2023-06-06T00:00:00Z,-31.72,-52.33,11.0,9.0,190,4,,6.21,30.236221,,,,,,,,,,,CAVOK,,,,,,,,VFR,,,,,,,,,,,,METAR,17.0
SBPJ 060000Z 10004KT CAVOK 25/20 Q1015,SBPJ,2023-06-06T00:00:00Z,-10.28,-48.37,25.0,20.0,100,4,,6.21,29.970472,,,,,,,,,,,CAVOK,,,,,,,,VFR,,,,,,,,,,,,METAR,226.0
SBPA 060000Z 08003KT 9999 OVC026 17/12 Q1023,SBPA,2023-06-06T00:00:00Z,-30.0,-51.17,17.0,12.0,80,3,,6.21,30.206694,,,,,,,,,,,OVC,2600,,,,,,,MVFR,,,,,,,,,,,,METAR,3.0
SBNF 060000Z 15006KT 9999 FEW020 21/18 Q1022,SBNF,2023-06-06T00:00:00Z,-26.88,-48.65,21.0,18.0,150,6,,6.21,30.177166,,,,,,,,,,,FEW,2000,,,,,,,VFR,,,,,,,,,,,,METAR,5.0
SBMQ 060000Z 08006KT 9999 FEW020 28/27 Q1013,SBMQ,2023-06-06T00:00:00Z,0.05,-51.07,28.0,27.0,80,6,,6.21,29.911417,,,,,,,,,,,FEW,2000,,,,,,,VFR,,,,,,,,,,,,METAR,15.0
SBMO 060000Z 25004KT 9999 SCT020 24/23 Q1017,SBMO,2023-06-06T00:00:00Z,-9.52,-35.78,24.0,23.0,250,4,,6.21,30.029528,,,,,,,,,,,SCT,2000,,,,,,,VFR,,,,,,,,,,,,METAR,116.0
SBMN 060000Z 25004KT 9999 VCTS SCT009 FEW025CB SCT090 27/25 Q1012,SBMN,2023-06-06T00:00:00Z,-3.13,-59.98,27.0,25.0,250,4,,6.21,29.88189,,,,,,,,,,VCTS,SCT,900,FEW,2500,SCT,9000,,,VFR,,,,,,,,,,,,METAR,71.0
SBMA 060000Z 00000KT CAVOK 25/24 Q1013,SBMA,2023-06-06T00:00:00Z,-5.37,-49.13,25.0,24.0,0,0,,6.21,29.911417,,,,,,,,,,,CAVOK,,,,,,,,VFR,,,,,,,,,,,,METAR,110.0
SBLO 060000Z 24003KT CAVOK 18/14 Q1021,SBLO,2023-06-06T00:00:00Z,-23.33,-51.12,18.0,14.0,240,3,,6.21,30.147638,,,,,,,,,,,CAVOK,,,,,,,,VFR,,,,,,,,,,,,METAR,563.0
SBKP 060000Z 14010KT CAVOK 17/14 Q1022,SBKP,2023-06-06T00:00:00Z,-23.0,-47.13,17.0,14.0,140,10,,6.21,30.177166,,,,,,,,,,,CAVOK,,,,,,,,VFR,,,,,,,,,,,,METAR,659.0
SBJP 060000Z 15005KT CAVOK 25/23 Q1015,SBJP,2023-06-06T00:00:00Z,-7.15,-34.95,25.0,23.0,150,5,,6.21,29.970472,,,,,,,,,,,CAVOK,,,,,,,,VFR,,,,,,,,,,,,METAR,66.0
SBGR 060000Z 13002KT 5000 BR BKN040 16/14 Q1024,SBGR,2023-06-06T00:00:00Z,-23.42,-46.47,16.0,14.0,130,2,,3.11,30.236221,,,,,,,,,,BR,BKN,4000,,,,,,,MVFR,,,,,,,,,,,,METAR,745.0
SBGO 060000Z 11005KT CAVOK 21/11 Q1020,SBGO,2023-06-06T00:00:00Z,-16.62,-49.22,21.0,11.0,110,5,,6.21,30.11811,,,,,,,,,,,CAVOK,,,,,,,,VFR,,,,,,,,,,,,METAR,740.0
SBGL 060000Z 29004KT 9999 FEW040 21/18 Q1020,SBGL,2023-06-06T00:00:00Z,-22.82,-43.25,21.0,18.0,290,4,,6.21,30.11811,,,,,,,,,,,FEW,4000,,,,,,,VFR,,,,,,,,,,,,METAR,3.0
SBFZ 060000Z 09005KT 9999 SCT017 BKN070 28/24 Q1014,SBFZ,2023-06-06T00:00:00Z,-3.77,-38.52,28.0,24.0,90,5,,6.21,29.940945,,,,,,,,,,,SCT,1700,BKN,7000,,,,,VFR,,,,,,,,,,,,METAR,32.0
SBFN 060000Z AUTO 11007KT 9999 FEW011 25/24 Q1015,SBFN,2023-06-06T00:00:00Z,-3.85,-32.42,25.0,24.0,110,7,,6.21,29.970472,,,TRUE,,,,,,,,FEW,1100,,,,,,,VFR,,,,,,,,,,,,METAR,52.0
SBFL 060000Z 15010KT CAVOK 20/17 Q1022,SBFL,2023-06-06T00:00:00Z,-27.67,-48.53,20.0,17.0,150,10,,6.21,30.177166,,,,,,,,,,,CAVOK,,,,,,,,VFR,,,,,,,,,,,,METAR,5.0
SBFI 060000Z 15002KT CAVOK 18/18 Q1019,SBFI,2023-06-06T00:00:00Z,-25.6,-54.48,18.0,18.0,150,2,,6.21,30.088583,,,,,,,,,,,CAVOK,,,,,,,,VFR,,,,,,,,,,,,METAR,233.0
SBEG 060000Z 18001KT 9999 FEW010 SCT100 26/25 Q1012,SBEG,2023-06-06T00:00:00Z,-3.03,-60.03,26.0,25.0,180,1,,6.21,29.88189,,,,,,,,,,,FEW,1000,SCT,10000,,,,,VFR,,,,,,,,,,,,METAR,69.0
SBCY 060000Z 18002KT CAVOK 24/15 Q1015,SBCY,2023-06-06T00:00:00Z,-15.65,-56.12,24.0,15.0,180,2,,6.21,29.970472,,,,,,,,,,,CAVOK,,,,,,,,VFR,,,,,,,,,,,,METAR,182.0
SBCT 060000Z 12008KT 9999 SCT035 14/12 Q1025,SBCT,2023-06-06T00:00:00Z,-25.52,-49.17,14.0,12.0,120,8,,6.21,30.265747,,,,,,,,,,,SCT,3500,,,,,,,VFR,,,,,,,,,,,,METAR,914.0
SBCP 060000Z 14004KT CAVOK 20/17 Q1020,SBCP,2023-06-06T00:00:00Z,-21.7,-41.3,20.0,17.0,140,4,,6.21,30.11811,,,,,,,,,,,CAVOK,,,,,,,,VFR,,,,,,,,,,,,METAR,15.0
SBCG 060000Z 11006KT CAVOK 21/13 Q1019,SBCG,2023-06-06T00:00:00Z,-20.47,-54.67,21.0,13.0,110,6,,6.21,30.088583,,,,,,,,,,,CAVOK,,,,,,,,VFR,,,,,,,,,,,,METAR,556.0
SBCF 060000Z 11004KT CAVOK 17/11 Q1022,SBCF,2023-06-06T00:00:00Z,-19.63,-43.97,17.0,11.0,110,4,,6.21,30.177166,,,,,,,,,,,CAVOK,,,,,,,,VFR,,,,,,,,,,,,METAR,825.0
SBBV 060000Z 25003KT 9999 SCT020 BKN030 FEW035TCU BKN070 25/24 Q1013,SBBV,2023-06-06T00:00:00Z,2.85,-60.7,25.0,24.0,250,3,,6.21,29.911417,,,,,,,,,,,SCT,2000,BKN,3000,FEW,3500,BKN,7000,MVFR,,,,,,,,,,,,METAR,80.0
SBBR 060000Z 05003KT 350V120 9999 FEW045 SCT080 19/11 Q1022,SBBR,2023-06-06T00:00:00Z,-15.87,-47.92,19.0,11.0,50,3,,6.21,30.177166,,,,,,,,,,,FEW,4500,SCT,8000,,,,,VFR,,,,,,,,,,,,METAR,1051.0
SBBG 060000Z AUTO 04005KT CAVOK 09/09 Q1022,SBBG,2023-06-06T00:00:00Z,-31.38,-54.12,9.0,9.0,40,5,,6.21,30.177166,,,TRUE,,,,,,,,CAVOK,,,,,,,,VFR,,,,,,,,,,,,METAR,182.0
SBBE 060000Z 04007KT CAVOK 27/24 Q1013,SBBE,2023-06-06T00:00:00Z,-1.37,-48.47,27.0,24.0,40,7,,6.21,29.911417,,,,,,,,,,,CAVOK,,,,,,,,VFR,,,,,,,,,,,,METAR,16.0
SBAR 060000Z 16004KT 9999 FEW020 26/22 Q1016,SBAR,2023-06-06T00:00:00Z,-10.98,-37.07,26.0,22.0,160,4,,6.21,30.0,,,,,,,,,,,FEW,2000,,,,,,,VFR,,,,,,,,,,,,METAR,4.0
SAZS 060000Z 35008KT 5000 RA SCT015 BKN029 BKN037 09/08 Q1006 RMK PP///,SAZS,2023-06-06T00:00:00Z,-41.15,-71.17,9.0,8.0,350,8,,3.11,29.704725,,,,,,,,,,RA,SCT,1500,BKN,2900,BKN,3700,,,MVFR,,,,,,,,,,,,METAR,843.0
SAZM 060000Z 36010KT CAVOK 10/047 Q1018 RMK PP///,SAZM,2023-06-06T00:00:00Z,-37.92,-57.57,,,360,10,,6.21,30.059055,,,,,,,,,,,CAVOK,,,,,,,,VFR,,,,,,,,,,,,METAR,17.0
SAWH 060000Z VRB02KT CAVOK 03/01 Q0978 RMK PP000,SAWH,2023-06-06T00:00:00Z,-54.85,-68.3,3.0,1.0,0,2,,6.21,28.877953,,,,,,,,,,,CAVOK,,,,,,,,VFR,,,,,,,,,,,,METAR,22.0
SAWE 060000Z 14003KT 120V180 0700 R26/P2000N FG FEW006 02/02 Q0979 RMK PP000,SAWE,2023-06-06T00:00:00Z,-53.78,-67.75,2.0,2.0,140,3,,0.43,28.90748,,,,,,,,,,FG,FEW,600,,,,,,,LIFR,,,,,,,,,,,,METAR,22.0
SAVC 060000Z 32019G29KT CAVOK 16/02 Q0995 RMK PP000,SAVC,2023-06-06T00:00:00Z,-45.78,-67.47,16.0,2.0,320,19,29,6.21,29.379921,,,,,,,,,,,CAVOK,,,,,,,,VFR,,,,,,,,,,,,METAR,58.0
SASJ 060000Z 02005KT 340V040 8000 NSC 16/14 Q1019 RMK PP000,SASJ,2023-06-06T00:00:00Z,-24.38,-65.1,16.0,14.0,20,5,,4.97,30.088583,,,,,,,,,,,CLR,,,,,,,,MVFR,,,,,,,,,,,,METAR,913.0
SASA 060000Z 04005KT 9999 BKN040 18/13 Q1021 RMK PP000,SASA,2023-06-06T00:00:00Z,-24.85,-65.48,18.0,13.0,40,5,,6.21,30.147638,,,,,,,,,,,BKN,4000,,,,,,,VFR,,,,,,,,,,,,METAR,1235.0
SARP 060000Z 09004KT CAVOK 23/19 Q1019,SARP,2023-06-06T00:00:00Z,-27.38,-55.97,23.0,19.0,90,4,,6.21,30.088583,,,,,,,,,,,CAVOK,,,,,,,,VFR,,,,,,,,,,,,METAR,123.0
SARL 060000Z 11009KT CAVOK 18/17 Q1020,SARL,2023-06-06T00:00:00Z,-29.68,-57.15,18.0,17.0,110,9,,6.21,30.11811,,,,,,,,,,,CAVOK,,,,,,,,VFR,,,,,,,,,,,,METAR,70.0
SARI 060000Z 18003KT CAVOK 18/17 Q1020 RMK PP000,SARI,2023-06-06T00:00:00Z,-25.73,-54.47,18.0,17.0,180,3,,6.21,30.11811,,,,,,,,,,,CAVOK,,,,,,,,VFR,,,,,,,,,,,,METAR,268.0
SARF 060000Z 09003KT CAVOK 22/20 Q1017,SARF,2023-06-06T00:00:00Z,-26.22,-58.22,22.0,20.0,90,3,,6.21,30.029528,,,,,,,,,,,CAVOK,,,,,,,,VFR,,,,,,,,,,,,METAR,65.0
SARE 060000Z 07005KT CAVOK 22/18 Q1017 RMK PP///,SARE,2023-06-06T00:00:00Z,-27.43,-59.05,22.0,18.0,70,5,,6.21,30.029528,,,,,,,,,,,CAVOK,,,,,,,,VFR,,,,,,,,,,,,METAR,52.0
SAOC 060000Z 36006KT CAVOK 14/09 Q1017,SAOC,2023-06-06T00:00:00Z,-33.08,-64.27,14.0,9.0,360,6,,6.21,30.029528,,,,,,,,,,,CAVOK,,,,,,,,VFR,,,,,,,,,,,,METAR,422.0
SANT 060000Z VRB02KT 7000 OVC015 16/15 Q1018 RMK PP000,SANT,2023-06-06T00:00:00Z,-26.85,-65.1,16.0,15.0,0,2,,4.35,30.059055,,,,,,,,,,,OVC,1500,,,,,,,MVFR,,,,,,,,,,,,METAR,446.0
SAEZ 060000Z 20004KT CAVOK 09/07 Q1021 NOSIG RMK PP000,SAEZ,2023-06-06T00:00:00Z,-34.82,-58.53,9.0,7.0,200,4,,6.21,30.147638,,,,,,TRUE,,,,,CAVOK,,,,,,,,VFR,,,,,,,,,,,,METAR,16.0
SADF 060000Z 06003KT CAVOK 11/08 Q1020 RMK PP000,SADF,2023-06-06T00:00:00Z,-34.45,-58.58,11.0,8.0,60,3,,6.21,30.11811,,,,,,,,,,,CAVOK,,,,,,,,VFR,,,,,,,,,,,,METAR,4.0
SACO 060000Z 36006KT 9999 BKN029 16/12 Q1017 NOSIG RMK PP000,SACO,2023-06-06T00:00:00Z,-31.32,-64.22,16.0,12.0,360,6,,6.21,30.029528,,,,,,TRUE,,,,,BKN,2900,,,,,,,MVFR,,,,,,,,,,,,METAR,474.0
SABE 060000Z 02005KT 340V060 CAVOK 16/09 Q1021 NOSIG RMK PP000,SABE,2023-06-06T00:00:00Z,-34.57,-58.42,16.0,9.0,20,5,,6.21,30.147638,,,,,,TRUE,,,,,CAVOK,,,,,,,,VFR,,,,,,,,,,,,METAR,3.0
SAAR 060000Z 07005KT CAVOK 13/09 Q1018 RMK PP000,SAAR,2023-06-06T00:00:00Z,-32.92,-60.77,13.0,9.0,70,5,,6.21,30.059055,,,,,,,,,,,CAVOK,,,,,,,,VFR,,,,,,,,,,,,METAR,24.0
PLCH 050000Z 09004KT 9999 VCSH FEW014CB SCT017 BKN035 >>>>>>>>>>>>>> OVC100 24/23 Q1010 RMK RR:0.3MM,PLCH,2023-06-06T00:00:00Z,1.98,-157.35,24.0,23.0,90,4,,6.21,29.822834,,,,,,,,,,VCSH,FEW,1400,SCT,1700,BKN,3500,OVC,10000,VFR,,,,,,,,,,,,METAR,5.0
PKWA 060000Z AUTO 11011KT 10SM SCT020 SCT027 30/25 A2987 RMK AO2 T03030248 TSNO,PKWA,2023-06-06T00:00:00Z,8.72,167.72,30.3,24.8,110,11,,10.0,29.870079,,,TRUE,TRUE,,,TRUE,,,,SCT,2000,SCT,2700,,,,,VFR,,,,,,,,,,,,METAR,6.0
OSLK 060000Z 04004KT 9999 FEW030 17/13 Q1012,OSLK,2023-06-06T00:00:00Z,35.4,35.95,17.0,13.0,40,4,,6.21,29.88189,,,,,,,,,,,FEW,3000,,,,,,,VFR,,,,,,,,,,,,METAR,47.0
OSKL 060000Z 15005KT CAVOK 17/01 Q1010,OSKL,2023-06-06T00:00:00Z,37.03,41.2,17.0,1.0,150,5,,6.21,29.822834,,,,,,,,,,,CAVOK,,,,,,,,VFR,,,,,,,,,,,,METAR,443.0
OSDI 060000Z 24009KT CAVOK 16/09 Q1012,OSDI,2023-06-06T00:00:00Z,33.42,36.52,16.0,9.0,240,9,,6.21,29.88189,,,,,,,,,,,CAVOK,,,,,,,,VFR,,,,,,,,,,,,METAR,614.0
OSAP 060000Z 24004KT CAVOK 18/09 Q1012,OSAP,2023-06-06T00:00:00Z,36.17,37.22,18.0,9.0,240,4,,6.21,29.88189,,,,,,,,,,,CAVOK,,,,,,,,VFR,,,,,,,,,,,,METAR,390.0
ORNI 060000Z 00000KT 7000 NSC 29/15 Q1006,ORNI,2023-06-06T00:00:00Z,31.98,44.4,29.0,15.0,0,0,,4.35,29.704725,,,,,,,,,,,CLR,,,,,,,,MVFR,,,,,,,,,,,,METAR,33.0
ORMM 060000Z 28010KT CAVOK 30/08 Q1005 NOSIG,ORMM,2023-06-06T00:00:00Z,30.53,47.67,30.0,8.0,280,10,,6.21,29.675198,,,,,,TRUE,,,,,CAVOK,,,,,,,,VFR,,,,,,,,,,,,METAR,2.0
ORER 060000Z VRB01KT 9000 NSC 22/01 Q1011,ORER,2023-06-06T00:00:00Z,36.23,43.97,22.0,1.0,0,1,,5.59,29.852362,,,,,,,,,,,CLR,,,,,,,,VFR,,,,,,,,,,,,METAR,399.0
ORBI 060000Z 36003KT CAVOK 26/10 Q1007,ORBI,2023-06-06T00:00:00Z,33.27,44.23,26.0,10.0,360,3,,6.21,29.734253,,,,,,,,,,,CAVOK,,,,,,,,VFR,,,,,,,,,,,,METAR,37.0
OPST 060000Z 05004KT 4000 HZ SCT100 26/14 Q1005 NOSIG 49?,OPST,2023-06-06T00:00:00Z,32.53,74.37,26.0,14.0,50,4,,2.49,29.675198,,,,,,TRUE,,,,HZ,SCT,10000,,,,,,,IFR,,,,,,,,,,,,METAR,234.0
OPSK 060000Z 00000KT 4000 HZ NSC 31/23 Q1000 NOSIG,OPSK,2023-06-06T00:00:00Z,27.72,68.8,31.0,23.0,0,0,,2.49,29.52756,,,,,,TRUE,,,,HZ,CLR,,,,,,,,IFR,,,,,,,,,,,,METAR,62.0
OPPS 060000Z 27004KT 6000 HZ NSC 24/13 Q1005,OPPS,2023-06-06T00:00:00Z,33.98,71.52,24.0,13.0,270,4,,3.73,29.675198,,,,,,,,,,HZ,CLR,,,,,,,,MVFR,,,,,,,,,,,,METAR,356.0
OPNH 060000Z 13508KT 6000 NSC 29/22 Q0999,OPNH,2023-06-06T00:00:00Z,26.22,68.38,29.0,22.0,135,8,,3.73,29.498032,,,,,,,,,,,CLR,,,,,,,,MVFR,,,,,,,,,,,,METAR,30.0
OPMT 060000Z 18004KT 4000 FU NSC 29/22 Q1002 NOSIG,OPMT,2023-06-06T00:00:00Z,30.2,71.42,29.0,22.0,180,4,,2.49,29.586615,,,,,,TRUE,,,,FU,CLR,,,,,,,,IFR,,,,,,,,,,,,METAR,122.0
OPIS 060000Z 00000KT 4000 FU NSC 22/14 Q1006 BECMG 3500,OPIS,2023-06-06T00:00:00Z,33.55,72.83,22.0,14.0,0,0,,2.49,29.704725,,,,,,,,,,FU,CLR,,,,,,,,IFR,,,,,,,,,,,,METAR,542.0
OMSJ 060000Z 12004KT CAVOK 30/15 Q1004 NOSIG,OMSJ,2023-06-06T00:00:00Z,25.32,55.52,30.0,15.0,120,4,,6.21,29.64567,,,,,,TRUE,,,,,CAVOK,,,,,,,,VFR,,,,,,,,,,,,METAR,33.0
OMRK 060000Z 21003KT CAVOK 30/12 Q1004 A2966,OMRK,2023-06-06T00:00:00Z,25.62,55.93,30.0,12.0,210,3,,6.21,29.64567,,,,,,,,,,,CAVOK,,,,,,,,VFR,,,,,,,,,,,,METAR,18.0
OMFJ 060000Z 27004KT 7000 NSC 32/25 Q1004 A2965,OMFJ,2023-06-06T00:00:00Z,25.1,56.32,32.0,25.0,270,4,,4.35,29.64567,,,,,,,,,,,CLR,,,,,,,,MVFR,,,,,,,,,,,,METAR,27.0
OMDW 060000Z 11007KT CAVOK 30/15 Q1005 NOSIG,OMDW,2023-06-06T00:00:00Z,24.9,55.17,30.0,15.0,110,7,,6.21,29.675198,,,,,,TRUE,,,,,CAVOK,,,,,,,,VFR,,,,,,,,,,,,METAR,34.0
OMDB 060000Z 12004KT 070V150 CAVOK 35/14 Q1004 NOSIG,OMDB,2023-06-06T00:00:00Z,25.25,55.37,35.0,14.0,120,4,,6.21,29.64567,,,,,,TRUE,,,,,CAVOK,,,,,,,,VFR,,,,,,,,,,,,METAR,5.0
OMAL 060000Z 15009KT CAVOK 34/11 Q1007 NOSIG,OMAL,2023-06-06T00:00:00Z,24.25,55.6,34.0,11.0,150,9,,6.21,29.734253,,,,,,TRUE,,,,,CAVOK,,,,,,,,VFR,,,,,,,,,,,,METAR,247.0
OMAD 060000Z 12003KT CAVOK 31/25 Q1003 NOSIG,OMAD,2023-06-06T00:00:00Z,24.42,54.47,31.0,25.0,120,3,,6.21,29.616142,,,,,,TRUE,,,,,CAVOK,,,,,,,,VFR,,,,,,,,,,,,METAR,9.0
OMAA 060000Z 16004KT 140V210 CAVOK 33/18 Q1003 NOSIG,OMAA,2023-06-06T00:00:00Z,24.42,54.65,33.0,18.0,160,4,,6.21,29.616142,,,,,,TRUE,,,,,CAVOK,,,,,,,,VFR,,,,,,,,,,,,METAR,13.0
OLBA 060000Z 27003KT 8000 BKN026 22/18 Q1013 NOSIG,OLBA,2023-06-06T00:00:00Z,33.82,35.48,22.0,18.0,270,3,,4.97,29.911417,,,,,,TRUE,,,,,BKN,2600,,,,,,,MVFR,,,,,,,,,,,,METAR,29.0
OKKK 060000Z 35010KT CAVOK 34/09 Q1005 NOSIG,OKKK,2023-06-06T00:00:00Z,,,34.0,9.0,350,10,,6.21,29.675198,,,,,,TRUE,,,,,CAVOK,,,,,,,,VFR,,,,,,,,,,,,METAR,
OJAI 060000Z 00000KT 5000 HZ NSC 14/03 Q1014 NOSIG,OJAI,2023-06-06T00:00:00Z,31.72,36.0,14.0,3.0,0,0,,3.11,29.940945,,,,,,TRUE,,,,HZ,CLR,,,,,,,,MVFR,,,,,,,,,,,,METAR,723.0
OITP 060000Z 14010KT 9999 FEW040 23/19 Q1009,OITP,2023-06-06T00:00:00Z,39.6,47.88,23.0,19.0,140,10,,6.21,29.793306,,,,,,,,,,,FEW,4000,,,,,,,VFR,,,,,,,,,,,,METAR,72.0
OITL 060000Z 14006KT 8000 OVC010 15/13 Q1016,OITL,2023-06-06T00:00:00Z,38.33,48.42,15.0,13.0,140,6,,4.97,30.0,,,,,,,,,,,OVC,1000,,,,,,,MVFR,,,,,,,,,,,,METAR,1314.0
OISF 060000Z 30004KT CAVOK 21/05 Q1016 A3000,OISF,2023-06-06T00:00:00Z,28.9,53.72,21.0,5.0,300,4,,6.21,30.0,,,,,,,,,,,CAVOK,,,,,,,,VFR,,,,,,,,,,,,METAR,1305.0
OIII 060000Z 32004KT 9999 FEW040 SCT110 24/07 Q1015 A2998 NOSIG,OIII,2023-06-06T00:00:00Z,35.68,51.3,24.0,7.0,320,4,,6.21,29.970472,,,,,,TRUE,,,,,FEW,4000,SCT,11000,,,,,VFR,,,,,,,,,,,,METAR,1182.0
OIHH 060000Z 12004KT CAVOK 15/04 Q1019 A3010,OIHH,2023-06-06T00:00:00Z,34.87,48.55,15.0,4.0,120,4,,6.21,30.088583,,,,,,,,,,,CAVOK,,,,,,,,VFR,,,,,,,,,,,,METAR,1742.0
OIFM 060000Z 31006KT CAVOK 21/04 Q1018 A3007,OIFM,2023-06-06T00:00:00Z,32.75,51.87,21.0,4.0,310,6,,6.21,30.059055,,,,,,,,,,,CAVOK,,,,,,,,VFR,,,,,,,,,,,,METAR,1539.0
OICS 060000Z 00000KT CAVOK 17/05 Q1016 A3003,OICS,2023-06-06T00:00:00Z,35.25,47.02,17.0,5.0,0,0,,6.21,30.0,,,,,,,,,,,CAVOK,,,,,,,,VFR,,,,,,,,,,,,METAR,1369.0
OICK 060000Z 13004KT CAVOK 17/05 Q1014,OICK,2023-06-06T00:00:00Z,33.43,48.28,17.0,5.0,130,4,,6.21,29.940945,,,,,,,,,,,CAVOK,,,,,,,,VFR,,,,,,,,,,,,METAR,1156.0
OIBP 060000Z 00000KT CAVOK 24/17 Q1002 A2961,OIBP,2023-06-06T00:00:00Z,27.38,52.73,24.0,17.0,0,0,,6.21,29.586615,,,,,,,,,,,CAVOK,,,,,,,,VFR,,,,,,,,,,,,METAR,13.0
OIBB 060000Z 04004KT CAVOK 27/18 Q1004 A2967,OIBB,2023-06-06T00:00:00Z,28.93,50.83,27.0,18.0,40,4,,6.21,29.64567,,,,,,,,,,,CAVOK,,,,,,,,VFR,,,,,,,,,,,,METAR,15.0
OIAW 060000Z 21002KT CAVOK 30/08 Q1003,OIAW,2023-06-06T00:00:00Z,31.33,48.77,30.0,8.0,210,2,,6.21,29.616142,,,,,,,,,,,CAVOK,,,,,,,,VFR,,,,,,,,,,,,METAR,25.0
OIAH 060000Z 00000KT CAVOK 24/06 Q1011,OIAH,2023-06-06T00:00:00Z,30.33,50.83,24.0,6.0,0,0,,6.21,29.852362,,,,,,,,,,,CAVOK,,,,,,,,VFR,,,,,,,,,,,,METAR,730.0
OERK 060000Z 29002KT CAVOK 28/00 Q1010 NOSIG,OERK,2023-06-06T00:00:00Z,24.95,46.72,28.0,0.0,290,2,,6.21,29.822834,,,,,,TRUE,,,,,CAVOK,,,,,,,,VFR,,,,,,,,,,,,METAR,618.0
OEMA 060000Z 02004KT CAVOK 29/13 Q1013 NOSIG,OEMA,2023-06-06T00:00:00Z,24.55,39.7,29.0,13.0,20,4,,6.21,29.911417,,,,,,TRUE,,,,,CAVOK,,,,,,,,VFR,,,,,,,,,,,,METAR,639.0
OEJN 060000Z 00000KT CAVOK 33/18 Q1005 NOSIG,OEJN,2023-06-06T00:00:00Z,21.68,39.15,33.0,18.0,0,0,,6.21,29.675198,,,,,,TRUE,,,,,CAVOK,,,,,,,,VFR,,,,,,,,,,,,METAR,8.0
OEDF 060000Z 36003KT 9999 NSC 26/20 Q1004 NOSIG,OEDF,2023-06-06T00:00:00Z,26.43,49.82,26.0,20.0,360,3,,6.21,29.64567,,,,,,TRUE,,,,,CLR,,,,,,,,VFR,,,,,,,,,,,,METAR,15.0
OEAB 060000Z 00000KT CAVOK 18/11 Q1024 NOSIG,OEAB,2023-06-06T00:00:00Z,18.23,42.65,18.0,11.0,0,0,,6.21,30.236221,,,,,,TRUE,,,,,CAVOK,,,,,,,,VFR,,,,,,,,,,,,METAR,2092.0
OBBI 060000Z 28003KT 200V310 8000 NSC 30/24 Q1004 NOSIG,OBBI,2023-06-06T00:00:00Z,26.27,50.63,30.0,24.0,280,3,,4.97,29.64567,,,,,,TRUE,,,,,CLR,,,,,,,,MVFR,,,,,,,,,,,,METAR,6.0
NWWW 060000Z AUTO 13013KT 100V160 CAVOK 23/16 Q1019 NOSIG,NWWW,2023-06-06T00:00:00Z,-22.02,166.22,23.0,16.0,130,13,,6.21,30.088583,,,TRUE,,,TRUE,,,,,CAVOK,,,,,,,,VFR,,,,,,,,,,,,METAR,16.0
NVVV 060000Z 14012KT 9999 SCT020 BKN040 25/22 Q1016,NVVV,2023-06-06T00:00:00Z,-17.68,168.3,25.0,22.0,140,12,,6.21,30.0,,,,,,,,,,,SCT,2000,BKN,4000,,,,,VFR,,,,,,,,,,,,METAR,23.0
NVSS 060000Z 11008KT 9999 -SHRA BKN020 OVC110 27/24 Q1013 INTER 0000/0200 8000 SHRA SCT010 BKN018 OVC110,NVSS,2023-06-06T00:00:00Z,-15.52,167.22,27.0,24.0,110,8,,6.21,29.911417,,,,,,,,,,-SHRA,BKN,2000,OVC,11000,,,,,MVFR,,,,,,,,,,,,METAR,47.0
NTAA 060000Z 22006KT 9999 FEW030 28/21 Q1013 NOSIG,NTAA,2023-06-06T00:00:00Z,-17.55,-149.62,28.0,21.0,220,6,,6.21,29.911417,,,,,,TRUE,,,,,FEW,3000,,,,,,,VFR,,,,,,,,,,,,METAR,2.0
NSFA 060000Z 04009KT 9999 BKN023 32/25 Q1013,NSFA,2023-06-06T00:00:00Z,-13.83,-172.0,32.0,25.0,40,9,,6.21,29.911417,,,,,,,,,,,BKN,2300,,,,,,,MVFR,,,,,,,,,,,,METAR,6.0
NLWW 060000Z 07007KT 9999 -RA SCT023 BKN130 BKN260 27/25 Q1013 TEMPO 3000 SHRA BKN012 FEW015CB SCT020TCU,NLWW,2023-06-06T00:00:00Z,-13.23,-176.18,27.0,25.0,70,7,,6.21,29.911417,,,,,,,,,,-RA,SCT,2300,BKN,13000,BKN,26000,,,VFR,,,,,,,,,,,,METAR,24.0
NIUE 060000Z 10015KT 9999 SCT018 BKN030 26/20 Q1015,NIUE,2023-06-06T00:00:00Z,-19.07,-169.92,26.0,20.0,100,15,,6.21,29.970472,,,,,,,,,,,SCT,1800,BKN,3000,,,,,MVFR,,,,,,,,,,,,METAR,22.0
NGTA 060000Z 10007KT 9999 SCT018TCU 31/26 Q1010,NGTA,2023-06-06T00:00:00Z,1.37,173.13,31.0,26.0,100,7,,6.21,29.822834,,,,,,,,,,,SCT,1800,,,,,,,VFR,,,,,,,,,,,,METAR,8.0
NGFU 060000Z 09008KT 9999 FEW020 SCT310 32/21 Q1011,NGFU,2023-06-06T00:00:00Z,-8.52,179.18,32.0,21.0,90,8,,6.21,29.852362,,,,,,,,,,,FEW,2000,SCT,31000,,,,,VFR,,,,,,,,,,,,METAR,2.0
NFTV 060000Z 11011KT 9999 FEW008 SCT016TCU BKN035 26/22 Q1015,NFTV,2023-06-06T00:00:00Z,-18.58,-173.97,26.0,22.0,110,11,,6.21,29.970472,,,,,,,,,,,FEW,800,SCT,1600,BKN,3500,,,VFR,,,,,,,,,,,,METAR,71.0
NFTL 060000Z 08009KT 9999 FEW016TCU BKN280 28/22 Q1015,NFTL,2023-06-06T00:00:00Z,-19.78,-174.33,28.0,22.0,80,9,,6.21,29.970472,,,,,,,,,,,FEW,1600,BKN,28000,,,,,VFR,,,,,,,,,,,,METAR,10.0
NFTF 060000Z 09011KT 9999 SCT017 BKN280 26/20 Q1016,NFTF,2023-06-06T00:00:00Z,-21.23,-175.15,26.0,20.0,90,11,,6.21,30.0,,,,,,,,,,,SCT,1700,BKN,28000,,,,,VFR,,,,,,,,,,,,METAR,38.0
NFNS 060000Z 11005KT 9999 SCT020 BKN045 29/23 Q1014,NFNS,2023-06-06T00:00:00Z,-16.82,179.33,29.0,23.0,110,5,,6.21,29.940945,,,,,,,,,,,SCT,2000,BKN,4500,,,,,VFR,,,,,,,,,,,,METAR,4.0
NFNM 060000Z 09014KT 9999 FEW018 BKN110 29/23 Q1014,NFNM,2023-06-06T00:00:00Z,-16.68,-179.87,29.0,23.0,90,14,,6.21,29.940945,,,,,,,,,,,FEW,1800,BKN,11000,,,,,VFR,,,,,,,,,,,,METAR,21.0
NFNA 060000Z 18003KT 9999 SCT020 BKN120 27/22 Q1014,NFNA,2023-06-06T00:00:00Z,-18.05,178.57,27.0,22.0,180,3,,6.21,29.940945,,,,,,,,,,,SCT,2000,BKN,12000,,,,,VFR,,,,,,,,,,,,METAR,6.0
NFFN 060000Z 27008KT 9999 SCT030 BKN290 27/21 Q1015 NOSIG,NFFN,2023-06-06T00:00:00Z,-17.75,177.45,27.0,21.0,270,8,,6.21,29.970472,,,,,,TRUE,,,,,SCT,3000,BKN,29000,,,,,VFR,,,,,,,,,,,,METAR,14.0
NCSW 060000Z AUTO NIL,NCSW,2023-06-06T00:00:00Z,,,,,,,,,,,,TRUE,,,,,,,,,,,,,,,,,,,,,,,,,,,,METAR,
NCRK 060000Z AUTO NIL,NCRK,2023-06-06T00:00:00Z,-10.02,-161.1,,,,,,,,,,TRUE,,,,,,,,,,,,,,,,,,,,,,,,,,,,METAR,7.0
NCPY 060000Z AUTO 03003KT //// ////// 31/24 Q1011,NCPY,2023-06-06T00:00:00Z,-9.02,-158.03,31.0,24.0,30,3,,,29.852362,,,TRUE,,,,,,,,,,,,,,,,,,,,,,,,,,,,METAR,2.0
NCPL 060000Z AUTO NIL,NCPL,2023-06-06T00:00:00Z,1.98,-157.48,,,,,,,,,,TRUE,,,,,,,,,,,,,,,,,,,,,,,,,,,,METAR,3.0
NCPK 060000Z AUTO 13007KT //// ////// 28/25 Q1010,NCPK,2023-06-06T00:00:00Z,-10.9,-165.83,28.0,25.0,130,7,,,29.822834,,,TRUE,,,,,,,,,,,,,,,,,,,,,,,,,,,,METAR,5.0
NCNS 060000Z AUTO NIL,NCNS,2023-06-06T00:00:00Z,,,,,,,,,,,,TRUE,,,,,,,,,,,,,,,,,,,,,,,,,,,,METAR,
NCMR 060000Z AUTO 16004KT //// ////// ///// Q1015,NCMR,2023-06-06T00:00:00Z,-19.85,-157.7,,,160,4,,,29.970472,,,TRUE,,,,,,,,,,,,,,,,,,,,,,,,,,,,METAR,8.0
NCMK 060000Z AUTO 16005KT //// ////// 25/18 Q1014,NCMK,2023-06-06T00:00:00Z,-20.15,-157.33,25.0,18.0,160,5,,,29.940945,,,TRUE,,,,,,,,,,,,,,,,,,,,,,,,,,,,METAR,13.0
NCMH 060000Z AUTO NIL,NCMH,2023-06-06T00:00:00Z,-10.38,-161.0,,,,,,,,,,TRUE,,,,,,,,,,,,,,,,,,,,,,,,,,,,METAR,1.0
NCMG 060000Z AUTO 13005KT //// ////// ///// Q////,NCMG,2023-06-06T00:00:00Z,-21.88,-157.9,,,130,5,,,,,,TRUE,,,,,,,,,,,,,,,,,,,,,,,,,,,,METAR,14.0
NCAT 060000Z AUTO NIL,NCAT,2023-06-06T00:00:00Z,-19.97,-158.12,,,,,,,,,,TRUE,,,,,,,,,,,,,,,,,,,,,,,,,,,,METAR,11.0
NCAI 060000Z AUTO 17005KT //// ////// 26/18 Q1015,NCAI,2023-06-06T00:00:00Z,-18.82,-159.77,26.0,18.0,170,5,,,29.970472,,,TRUE,,,,,,,,,,,,,,,,,,,,,,,,,,,,METAR,7.0
MZBZ 060000Z 13007KT 9999 TS FEW012CB 31/27 A2978 Q1008 NOSIG RMK CB-NW FU-E HZY,MZBZ,2023-06-06T00:00:00Z,17.53,-88.3,31.0,27.0,130,7,,6.21,29.763779,,,,,,TRUE,,,,TS,FEW,1200,,,,,,,VFR,,,,,,,,,,,,METAR,6.0
MYSM 060000Z AUTO 28008KT CAVOK 28/26 A2987,MYSM,2023-06-06T00:00:00Z,24.05,-74.52,28.0,26.0,280,8,,6.21,29.870079,,,TRUE,,,,,,,,CAVOK,,,,,,,,VFR,,,,,,,,,,,,METAR,5.0
MYNN 060000Z 35009KT 320V030 9999 FEW016 SCT020 BKN200 28/24 A2987,MYNN,2023-06-06T00:00:00Z,25.03,-77.47,28.0,24.0,350,9,,6.21,29.870079,,,,,,,,,,,FEW,1600,SCT,2000,BKN,20000,,,VFR,,,,,,,,,,,,METAR,5.0
MYGF 060000Z 05013KT 9999 VCSH BKN018TCU 27/21 A2987 RERA,MYGF,2023-06-06T00:00:00Z,26.55,-78.7,27.0,21.0,50,13,,6.21,29.870079,,,,,,,,,,VCSH,BKN,1800,,,,,,,MVFR,,,,,,,,,,,,METAR,2.0
MYCB 060000Z AUTO 28005KT 250V310 9999 // NCD 28/25 A2986,MYCB,2023-06-06T00:00:00Z,24.32,-75.45,28.0,25.0,280,5,,6.21,29.861221,,,TRUE,,,,,,,,CLR,,,,,,,,VFR,,,,,,,,,,,,METAR,2.0
MWCR 060000Z 20003KT 9999 FEW018 30/23 Q1010,MWCR,2023-06-06T00:00:00Z,19.3,-81.37,30.0,23.0,200,3,,6.21,29.822834,,,,,,,,,,,FEW,1800,,,,,,,VFR,,,,,,,,,,,,METAR,4.0
MWCB 060000Z 15003KT 9999 FEW018 29/24 Q1011,MWCB,2023-06-06T00:00:00Z,19.68,-79.88,29.0,24.0,150,3,,6.21,29.852362,,,,,,,,,,,FEW,1800,,,,,,,VFR,,,,,,,,,,,,METAR,7.0
MRPV 060000Z 11005KT 9999 FEW030 SCT100 BKN200 22/18 A3004 NOSIG,MRPV,2023-06-06T00:00:00Z,9.95,-84.15,22.0,18.0,110,5,,6.21,30.041338,,,,,,TRUE,,,,,FEW,3000,SCT,10000,BKN,20000,,,VFR,,,,,,,,,,,,METAR,998.0
MROC 060000Z 31003KT 9999 FEW040 SCT060 23/21 A3000 NOSIG,MROC,2023-06-06T00:00:00Z,10.0,-84.22,23.0,21.0,310,3,,6.21,30.0,,,,,,TRUE,,,,,FEW,4000,SCT,6000,,,,,VFR,,,,,,,,,,,,METAR,900.0
MRLM 060000Z 24003KT 9999 FEW015 SCT100 OVC200 25/25 A2984,MRLM,2023-06-06T00:00:00Z,9.97,-83.03,25.0,25.0,240,3,,6.21,29.840551,,,,,,,,,,,FEW,1500,SCT,10000,OVC,20000,,,VFR,,,,,,,,,,,,METAR,2.0
MRLB 060000Z 24003KT 9999 SCT030 SCT120 26/25 A2982,MRLB,2023-06-06T00:00:00Z,10.6,-85.55,26.0,25.0,240,3,,6.21,29.819881,,,,,,,,,,,SCT,3000,SCT,12000,,,,,VFR,,,,,,,,,,,,METAR,79.0
MPTO 060000Z 16004KT 9999 FEW018 28/25 Q1009 NOSIG,MPTO,2023-06-06T00:00:00Z,9.05,-79.38,28.0,25.0,160,4,,6.21,29.793306,,,,,,TRUE,,,,,FEW,1800,,,,,,,VFR,,,,,,,,,,,,METAR,7.0
MPSM 060000Z 14003KT 9999 FEW025 28/25 Q1009,MPSM,2023-06-06T00:00:00Z,8.38,-80.13,28.0,25.0,140,3,,6.21,29.793306,,,,,,,,,,,FEW,2500,,,,,,,VFR,,,,,,,,,,,,METAR,36.0
MKJS 060000Z 11005KT 9999 SCT020 FEW022CB SCT034 30/26 Q1011,MKJS,2023-06-06T00:00:00Z,18.5,-77.92,30.0,26.0,110,5,,6.21,29.852362,,,,,,,,,,,SCT,2000,FEW,2200,SCT,3400,,,VFR,,,,,,,,,,,,METAR,3.0
MHYR 060000Z 02006KT 9999 SCT025TCU 29/17,MHYR,2023-06-06T00:00:00Z,15.13,-87.13,29.0,17.0,20,6,,6.21,,,,,,,,,,,,SCT,2500,,,,,,,VFR,,,,,,,,,,,,METAR,682.0
MHTR 060000Z 00000KT 9999 FEW024TCU SCT080 30/26,MHTR,2023-06-06T00:00:00Z,15.93,-85.93,30.0,26.0,0,0,,6.21,,,,,,,,,,,,FEW,2400,SCT,8000,,,,,VFR,,,,,,,,,,,,METAR,3.0
MHTG 060000Z 21003KT 9999 FEW034TCU BKN090 28/18 Q1015 A2997 NOSIG,MHTG,2023-06-06T00:00:00Z,14.07,-87.22,28.0,18.0,210,3,,6.21,29.970472,,,,,,TRUE,,,,,FEW,3400,BKN,9000,,,,,VFR,,,,,,,,,,,,METAR,1001.0
MHTE 060000Z 36006KT 9999 SCT028 SCT080 32/23 Q1005 A2968,MHTE,2023-06-06T00:00:00Z,15.78,-87.48,32.0,23.0,360,6,,6.21,29.675198,,,,,,,,,,,SCT,2800,SCT,8000,,,,,VFR,,,,,,,,,,,,METAR,7.0
MHSR 060000Z 22006KT 9999 FEW030TCU 27/14,MHSR,2023-06-06T00:00:00Z,14.78,-88.78,27.0,14.0,220,6,,6.21,,,,,,,,,,,,FEW,3000,,,,,,,VFR,,,,,,,,,,,,METAR,1087.0
MHRO 060000Z 04005KT 9999 SCT026 SCT080 30/26 Q1007 A2974 NOSIG,MHRO,2023-06-06T00:00:00Z,16.32,-86.53,30.0,26.0,40,5,,6.21,29.734253,,,,,,TRUE,,,,,SCT,2600,SCT,8000,,,,,VFR,,,,,,,,,,,,METAR,6.0
MHPR 060000Z 00000KT 9999 FEW048TCU 31/19 Q1012 A2990 NOSIG,MHPR,2023-06-06T00:00:00Z,14.38,-87.62,31.0,19.0,0,0,,6.21,29.88189,,,,,,TRUE,,,,,FEW,4800,,,,,,,VFR,,,,,,,,,,,,METAR,628.0
MHNO 060000Z 18004KT 9999 FEW040 SCT090 27/16,MHNO,2023-06-06T00:00:00Z,14.43,-89.18,27.0,16.0,180,4,,6.21,,,,,,,,,,,,FEW,4000,SCT,9000,,,,,VFR,,,,,,,,,,,,METAR,790.0
MHLM 060000Z 03010KT 9999 FEW026 32/23 Q1007 A2974 NOSIG,MHLM,2023-06-06T00:00:00Z,15.45,-87.93,32.0,23.0,30,10,,6.21,29.734253,,,,,,TRUE,,,,,FEW,2600,,,,,,,VFR,,,,,,,,,,,,METAR,32.0
MHLE 060000Z 20004KT 9999 FEW024 21/17,MHLE,2023-06-06T00:00:00Z,14.28,-88.17,21.0,17.0,200,4,,6.21,,,,,,,,,,,,FEW,2400,,,,,,,VFR,,,,,,,,,,,,METAR,1688.0
MHLC 060000Z 06004KT 9999 FEW025 30/24 Q1007 A2974 NOSIG,MHLC,2023-06-06T00:00:00Z,15.75,-86.85,30.0,24.0,60,4,,6.21,29.734253,,,,,,TRUE,,,,,FEW,2500,,,,,,,VFR,,,,,,,,,,,,METAR,13.0
MHGS 060000Z 18006KT 9999 FEW042 27/21 METAR ,MHGS,2023-06-06T00:00:00Z,14.57,-88.6,27.0,21.0,180,6,,6.21,,,,,,,,,,,,FEW,4200,,,,,,,VFR,,,,,,,,,,,,METAR,913.0
MHCH 060000Z 00000KT 9999 FEW030TCU FEW032CB BKN070 28/24,MHCH,2023-06-06T00:00:00Z,13.32,-87.15,28.0,24.0,0,0,,6.21,,,,,,,,,,,,FEW,3000,FEW,3200,BKN,7000,,,VFR,,,,,,,,,,,,METAR,58.0
MHCA 060000Z 00000KT 9999 FEW030TCU FEW032CB 33/22 Q1010 RMK CB N SE,MHCA,2023-06-06T00:00:00Z,14.87,-85.78,33.0,22.0,0,0,,6.21,29.822834,,,,,,,,,,,FEW,3000,FEW,3200,,,,,VFR,,,,,,,,,,,,METAR,386.0
MGMM 060000Z 12006KT 9999 SCT020 BKN090 22/21 Q1008 A2977,MGMM,2023-06-06T00:00:00Z,16.9,-89.87,22.0,21.0,120,6,,6.21,29.763779,,,,,,,,,,,SCT,2000,BKN,9000,,,,,VFR,,,,,,,,,,,,METAR,105.0
MGGT 060000Z 20012KT 9999 SCT020 BKN200 23/18 Q1019 A3009,MGGT,2023-06-06T00:00:00Z,14.58,-90.53,23.0,18.0,200,12,,6.21,30.088583,,,,,,,,,,,SCT,2000,BKN,20000,,,,,VFR,,,,,,,,,,,,METAR,1497.0
MDST 060000Z 00000KT 9999 FEW018CB SCT020 BKN300 26/23 Q1013 CB/W/NW,MDST,2023-06-06T00:00:00Z,19.4,-70.6,26.0,23.0,0,0,,6.21,29.911417,,,,,,,,,,,FEW,1800,SCT,2000,BKN,30000,,,VFR,,,,,,,,,,,,METAR,175.0
MDSD 060000Z 15008KT 9999 SCT020 28/26 Q1014,MDSD,2023-06-06T00:00:00Z,18.42,-69.67,28.0,26.0,150,8,,6.21,29.940945,,,,,,,,,,,SCT,2000,,,,,,,VFR,,,,,,,,,,,,METAR,18.0
MDPP 060000Z 00000KT 9999 SCT018 BKN300 29/26 Q1012,MDPP,2023-06-06T00:00:00Z,19.75,-70.57,29.0,26.0,0,0,,6.21,29.88189,,,,,,,,,,,SCT,1800,BKN,30000,,,,,VFR,,,,,,,,,,,,METAR,9.0
MDPC 060000Z 18006KT 9999 SCT018 29/25 Q1014,MDPC,2023-06-06T00:00:00Z,18.57,-68.37,29.0,25.0,180,6,,6.21,29.940945,,,,,,,,,,,SCT,1800,,,,,,,VFR,,,,,,,,,,,,METAR,10.0
MDLR 060000Z 00000KT 9999 FEW020 28/27 Q1013,MDLR,2023-06-06T00:00:00Z,18.45,-68.92,28.0,27.0,0,0,,6.21,29.911417,,,,,,,,,,,FEW,2000,,,,,,,VFR,,,,,,,,,,,,METAR,66.0
MDJB 060000Z 00000KT 9999 FEW020 28/24 Q1014,MDJB,2023-06-06T00:00:00Z,18.57,-69.98,28.0,24.0,0,0,,6.21,29.940945,,,,,,,,,,,FEW,2000,,,,,,,VFR,,,,,,,,,,,,METAR,24.0
MDCY 060000Z 00000KT 9999 FEW018 SCT300 29/24 Q1013,MDCY,2023-06-06T00:00:00Z,19.27,-69.73,29.0,24.0,0,0,,6.21,29.911417,,,,,,,,,,,FEW,1800,SCT,30000,,,,,VFR,,,,,,,,,,,,METAR,4.0
MDBH 060000Z 13008KT 9999 FEW018CB SCT020 28/25 Q1013 CB/NE/SE/S,MDBH,2023-06-06T00:00:00Z,18.25,-71.12,28.0,25.0,130,8,,6.21,29.911417,,,,,,,,,,,FEW,1800,SCT,2000,,,,,VFR,,,,,,,,,,,,METAR,7.0
MBPV 060000Z 00000KT 9999 FEW018 29/25 Q1012,MBPV,2023-06-06T00:00:00Z,21.77,-72.27,29.0,25.0,0,0,,6.21,29.88189,,,,,,,,,,,FEW,1800,,,,,,,VFR,,,,,,,,,,,,METAR,7.0
LZZI 060000Z 11004KT 080V140 CAVOK 16/12 Q1018,LZZI,2023-06-06T00:00:00Z,49.23,18.62,16.0,12.0,110,4,,6.21,30.059055,,,,,,,,,,,CAVOK,,,,,,,,VFR,,,,,,,,,,,,METAR,311.0
LZTT 060000Z 28002KT 9999 FEW050 12/10 Q1019,LZTT,2023-06-06T00:00:00Z,49.07,20.25,12.0,10.0,280,2,,6.21,30.088583,,,,,,,,,,,FEW,5000,,,,,,,VFR,,,,,,,,,,,,METAR,693.0
LZPP 060000Z AUTO 35009KT 9999 -DZ 16/15 Q1016,LZPP,2023-06-06T00:00:00Z,48.62,17.83,16.0,15.0,350,9,,6.21,30.0,,,TRUE,,,,,,,-DZ,,,,,,,,,,,,,,,,,,,,,METAR,160.0
LZKZ 060000Z 02002KT CAVOK 18/10 Q1018 NOSIG,LZKZ,2023-06-06T00:00:00Z,48.67,21.23,18.0,10.0,20,2,,6.21,30.059055,,,,,,TRUE,,,,,CAVOK,,,,,,,,VFR,,,,,,,,,,,,METAR,227.0
LZIB 060000Z 03005KT CAVOK 16/15 Q1016 NOSIG,LZIB,2023-06-06T00:00:00Z,48.17,17.22,16.0,15.0,30,5,,6.21,30.0,,,,,,TRUE,,,,,CAVOK,,,,,,,,VFR,,,,,,,,,,,,METAR,129.0
LYVR 060000Z AUTO 14021G31KT CAVOK 21/13 Q1016,LYVR,2023-06-06T00:00:00Z,45.13,21.32,21.0,13.0,140,21,31,6.21,30.0,,,TRUE,,,,,,,,CAVOK,,,,,,,,VFR,,,,,,,,,,,,METAR,82.0
LYTV 060000Z AUTO 07003KT 030V110 9999 FEW055/// SCT077/// OVC100/// 18/17 Q1016,LYTV,2023-06-06T00:00:00Z,42.4,18.72,18.0,17.0,70,3,,6.21,30.0,,,TRUE,,,,,,,,FEW,5500,SCT,7700,OVC,10000,,,VFR,,,,,,,,,,,,METAR,3.0
LYPG 060000Z 35003KT CAVOK 20/13 Q1016 NOSIG,LYPG,2023-06-06T00:00:00Z,42.37,19.25,20.0,13.0,350,3,,6.21,30.0,,,,,,TRUE,,,,,CAVOK,,,,,,,,VFR,,,,,,,,,,,,METAR,32.0
LYNI 060000Z 10010KT CAVOK 20/14 Q1017 NOSIG,LYNI,2023-06-06T00:00:00Z,43.33,21.85,20.0,14.0,100,10,,6.21,30.029528,,,,,,TRUE,,,,,CAVOK,,,,,,,,VFR,,,,,,,,,,,,METAR,197.0
LYKV 060000Z VRB01KT CAVOK 15/15 Q1016 NOSIG,LYKV,2023-06-06T00:00:00Z,43.82,20.58,15.0,15.0,0,1,,6.21,30.0,,,,,,TRUE,,,,,CAVOK,,,,,,,,VFR,,,,,,,,,,,,METAR,209.0
LYBT 060000Z 25002KT CAVOK 17/17 Q1016 NOSIG,LYBT,2023-06-06T00:00:00Z,44.93,20.25,17.0,17.0,250,2,,6.21,30.0,,,,,,TRUE,,,,,CAVOK,,,,,,,,VFR,,,,,,,,,,,,METAR,78.0
LYBE 060000Z 24003KT CAVOK 18/16 Q1016 NOSIG,LYBE,2023-06-06T00:00:00Z,44.82,20.28,18.0,16.0,240,3,,6.21,30.0,,,,,,TRUE,,,,,CAVOK,,,,,,,,VFR,,,,,,,,,,,,METAR,93.0
LWSK 060000Z 00000KT 9999 FEW058 16/15 Q1018 NOSIG,LWSK,2023-06-06T00:00:00Z,41.97,21.63,16.0,15.0,0,0,,6.21,30.059055,,,,,,TRUE,,,,,FEW,5800,,,,,,,VFR,,,,,,,,,,,,METAR,232.0
LUKK 060000Z 22003KT CAVOK 13/06 Q1022 NOSIG,LUKK,2023-06-06T00:00:00Z,46.93,28.93,13.0,6.0,220,3,,6.21,30.177166,,,,,,TRUE,,,,,CAVOK,,,,,,,,VFR,,,,,,,,,,,,METAR,102.0
LQTZ 060000Z VRB02KT 6000 -RA BKN025 17/17 Q1016,LQTZ,2023-06-06T00:00:00Z,44.47,18.73,17.0,17.0,0,2,,3.73,30.0,,,,,,,,,,-RA,BKN,2500,,,,,,,MVFR,,,,,,,,,,,,METAR,242.0
LQSA 060000Z 14003KT 9999 -RA FEW010 BKN035 15/15 Q1017,LQSA,2023-06-06T00:00:00Z,43.82,18.32,15.0,15.0,140,3,,6.21,30.029528,,,,,,,,,,-RA,FEW,1000,BKN,3500,,,,,VFR,,,,,,,,,,,,METAR,505.0
LQMO 060000Z 30003KT 9999 FEW045 BKN075 19/16 Q1016,LQMO,2023-06-06T00:00:00Z,43.28,17.83,19.0,16.0,300,3,,6.21,30.0,,,,,,,,,,,FEW,4500,BKN,7500,,,,,VFR,,,,,,,,,,,,METAR,49.0
LQBK 060000Z VRB01KT 6000 FEW010 18/18 Q1015 NOSIG,LQBK,2023-06-06T00:00:00Z,44.93,17.3,18.0,18.0,0,1,,3.73,29.970472,,,,,,TRUE,,,,,FEW,1000,,,,,,,MVFR,,,,,,,,,,,,METAR,114.0
LPMT 060000Z 03004KT CAVOK 19/15 Q1012,LPMT,2023-06-06T00:00:00Z,38.7,-9.05,19.0,15.0,30,4,,6.21,29.88189,,,,,,,,,,,CAVOK,,,,,,,,VFR,,,,,,,,,,,,METAR,4.0
LPMR 060000Z 26001KT 8000 NSC 15/14 Q1012,LPMR,2023-06-06T00:00:00Z,39.82,-8.88,15.0,14.0,260,1,,4.97,29.88189,,,,,,,,,,,CLR,,,,,,,,MVFR,,,,,,,,,,,,METAR,50.0
LKTB 060000Z 04006KT 9999 -RA SCT041 15/13 Q1018 NOSIG,LKTB,2023-06-06T00:00:00Z,49.15,16.68,15.0,13.0,40,6,,6.21,30.059055,,,,,,TRUE,,,,-RA,SCT,4100,,,,,,,VFR,,,,,,,,,,,,METAR,233.0
LKPR 060000Z 08008KT 6000 -RA BKN002 OVC012 14/14 Q1018 NOSIG,LKPR,2023-06-06T00:00:00Z,50.1,14.27,14.0,14.0,80,8,,3.73,30.059055,,,,,,TRUE,,,,-RA,BKN,200,OVC,1200,,,,,LIFR,,,,,,,,,,,,METAR,364.0
LKMT 060000Z 00000KT CAVOK 15/14 Q1018 NOSIG,LKMT,2023-06-06T00:00:00Z,49.68,18.12,15.0,14.0,0,0,,6.21,30.059055,,,,,,TRUE,,,,,CAVOK,,,,,,,,VFR,,,,,,,,,,,,METAR,251.0
LKKV 060000Z 03006KT 360V070 9000 -RA FEW004 BKN018 11/11 Q1018,LKKV,2023-06-06T00:00:00Z,50.2,12.92,11.0,11.0,30,6,,5.59,30.059055,,,,,,,,,,-RA,FEW,400,BKN,1800,,,,,MVFR,,,,,,,,,,,,METAR,600.0
LHBP 060000Z 09005KT 060V120 9999 SCT035 BKN087 18/15 Q1017 NOSIG,LHBP,2023-06-06T00:00:00Z,47.43,19.27,18.0,15.0,90,5,,6.21,30.029528,,,,,,TRUE,,,,,SCT,3500,BKN,8700,,,,,VFR,,,,,,,,,,,,METAR,141.0
LGKP 060000Z AUTO 30011KT //// // ////// 20/19 Q1012 RE//,LGKP,2023-06-06T00:00:00Z,35.42,27.15,20.0,19.0,300,11,,,29.88189,,,TRUE,,,,,,,,,,,,,,,,,,,,,,,,,,,,METAR,20.0
LFYR 060000Z AUTO 03004KT 330V100 CAVOK 19/09 Q1016 NOSIG,LFYR,2023-06-06T00:00:00Z,47.32,1.68,19.0,9.0,30,4,,6.21,30.0,,,TRUE,,,TRUE,,,,,CAVOK,,,,,,,,VFR,,,,,,,,,,,,METAR,83.0
LFVP 060000Z AUTO 08016KT 0800 0750 R26/1000D FG VV/// 06/06 Q1013,LFVP,2023-06-06T00:00:00Z,46.77,-56.18,6.0,6.0,80,16,,0.5,29.911417,,,TRUE,,,,,,,FG,OVX,0,,,,,,,LIFR,,,,,,,,,,,,METAR,5.0
LFTW 060000Z AUTO 11004KT CAVOK 16/15 Q1015,LFTW,2023-06-06T00:00:00Z,43.75,4.42,16.0,15.0,110,4,,6.21,29.970472,,,TRUE,,,,,,,,CAVOK,,,,,,,,VFR,,,,,,,,,,,,METAR,91.0
LFTH 060000Z AUTO 01003KT 9999 FEW022 BKN039 OVC150 19/18 Q1015 TEMPO 4500 BR,LFTH,2023-06-06T00:00:00Z,43.1,6.15,19.0,18.0,10,3,,6.21,29.970472,,,TRUE,,,,,,,,FEW,2200,BKN,3900,OVC,15000,,,VFR,,,,,,,,,,,,METAR,3.0
LFSX 060000Z AUTO VRB03KT CAVOK 13/09 Q1015,LFSX,2023-06-06T00:00:00Z,47.77,6.35,13.0,9.0,0,3,,6.21,29.970472,,,TRUE,,,,,,,,CAVOK,,,,,,,,VFR,,,,,,,,,,,,METAR,266.0
LFST 060000Z AUTO 36004KT CAVOK 15/07 Q1016 NOSIG,LFST,2023-06-06T00:00:00Z,48.53,7.63,15.0,7.0,360,4,,6.21,30.0,,,TRUE,,,TRUE,,,,,CAVOK,,,,,,,,VFR,,,,,,,,,,,,METAR,149.0
LFSO 060000Z AUTO 10005KT CAVOK 18/04 Q1017,LFSO,2023-06-06T00:00:00Z,48.57,5.97,18.0,4.0,100,5,,6.21,30.029528,,,TRUE,,,,,,,,CAVOK,,,,,,,,VFR,,,,,,,,,,,,METAR,328.0
LFSN 060000Z AUTO 11003KT CAVOK 15/06 Q1017,LFSN,2023-06-06T00:00:00Z,48.68,6.22,15.0,6.0,110,3,,6.21,30.029528,,,TRUE,,,,,,,,CAVOK,,,,,,,,VFR,,,,,,,,,,,,METAR,214.0
LFSL 060000Z AUTO VRB02KT CAVOK 16/15 Q1015,LFSL,2023-06-06T00:00:00Z,45.03,1.48,16.0,15.0,0,2,,6.21,29.970472,,,TRUE,,,,,,,,CAVOK,,,,,,,,VFR,,,,,,,,,,,,METAR,300.0
LFSI 060000Z AUTO 11003KT CAVOK 14/10 Q1016,LFSI,2023-06-06T00:00:00Z,48.62,4.9,14.0,10.0,110,3,,6.21,30.0,,,TRUE,,,,,,,,CAVOK,,,,,,,,VFR,,,,,,,,,,,,METAR,136.0
LFSD 060000Z AUTO 35006KT CAVOK 15/08 Q1015,LFSD,2023-06-06T00:00:00Z,47.27,5.08,15.0,8.0,350,6,,6.21,29.970472,,,TRUE,,,,,,,,CAVOK,,,,,,,,VFR,,,,,,,,,,,,METAR,218.0
LFSB 060000Z AUTO 30002KT CAVOK 16/10 Q1016 NOSIG,LFSB,2023-06-06T00:00:00Z,47.6,7.52,16.0,10.0,300,2,,6.21,30.0,,,TRUE,,,TRUE,,,,,CAVOK,,,,,,,,VFR,,,,,,,,,,,,METAR,262.0
LFRZ 060000Z AUTO 03007KT CAVOK 18/14 Q1017 NOSIG,LFRZ,2023-06-06T00:00:00Z,47.32,-2.17,18.0,14.0,30,7,,6.21,30.029528,,,TRUE,,,TRUE,,,,,CAVOK,,,,,,,,VFR,,,,,,,,,,,,METAR,2.0
LFRT 060000Z AUTO 03007KT 9999 BKN009 BKN074 12/11 Q1020,LFRT,2023-06-06T00:00:00Z,48.53,-2.85,12.0,11.0,30,7,,6.21,30.11811,,,TRUE,,,,,,,,BKN,900,BKN,7400,,,,,IFR,,,,,,,,,,,,METAR,134.0
LFRL 060000Z AUTO 05011KT CAVOK 13/11 Q1018,LFRL,2023-06-06T00:00:00Z,48.27,-4.43,13.0,11.0,50,11,,6.21,30.059055,,,TRUE,,,,,,,,CAVOK,,,,,,,,VFR,,,,,,,,,,,,METAR,80.0
LFRG 060000Z AUTO 03008KT 360V060 9999 FEW007 11/10 Q1020,LFRG,2023-06-06T00:00:00Z,49.37,0.15,11.0,10.0,30,8,,6.21,30.11811,,,TRUE,,,,,,,,FEW,700,,,,,,,VFR,,,,,,,,,,,,METAR,146.0
LFRB 060000Z AUTO 06007KT 040V100 CAVOK 12/10 Q1019 NOSIG,LFRB,2023-06-06T00:00:00Z,48.45,-4.42,12.0,10.0,60,7,,6.21,30.088583,,,TRUE,,,TRUE,,,,,CAVOK,,,,,,,,VFR,,,,,,,,,,,,METAR,91.0
LFQQ 060000Z AUTO 35007KT CAVOK 11/10 Q1021 TEMPO BKN004,LFQQ,2023-06-06T00:00:00Z,50.57,3.1,11.0,10.0,350,7,,6.21,30.147638,,,TRUE,,,,,,,,CAVOK,,,,,,,,VFR,,,,,,,,,,,,METAR,43.0
LFQB 060000Z AUTO 30008KT CAVOK 13/09 Q1016,LFQB,2023-06-06T00:00:00Z,48.32,4.02,13.0,9.0,300,8,,6.21,30.0,,,TRUE,,,,,,,,CAVOK,,,,,,,,VFR,,,,,,,,,,,,METAR,107.0
LFQA 060000Z AUTO 27005KT CAVOK 14/09 Q1018,LFQA,2023-06-06T00:00:00Z,49.2,4.15,14.0,9.0,270,5,,6.21,30.059055,,,TRUE,,,,,,,,CAVOK,,,,,,,,VFR,,,,,,,,,,,,METAR,92.0
LFPV 060000Z AUTO 01008KT CAVOK 15/10 Q1018 NOSIG,LFPV,2023-06-06T00:00:00Z,48.77,2.2,15.0,10.0,10,8,,6.21,30.059055,,,TRUE,,,TRUE,,,,,CAVOK,,,,,,,,VFR,,,,,,,,,,,,METAR,171.0
LFPO 060000Z AUTO 02011KT 340V040 CAVOK 15/10 Q1018 NOSIG,LFPO,2023-06-06T00:00:00Z,48.72,2.38,15.0,10.0,20,11,,6.21,30.059055,,,TRUE,,,TRUE,,,,,CAVOK,,,,,,,,VFR,,,,,,,,,,,,METAR,88.0
LFPN 060000Z AUTO 35007KT CAVOK 14/10 Q1018,LFPN,2023-06-06T00:00:00Z,48.75,2.12,14.0,10.0,350,7,,6.21,30.059055,,,TRUE,,,,,,,,CAVOK,,,,,,,,VFR,,,,,,,,,,,,METAR,152.0
LFPG 060000Z 01014KT CAVOK 13/10 Q1018 NOSIG,LFPG,2023-06-06T00:00:00Z,49.02,2.53,13.0,10.0,10,14,,6.21,30.059055,,,,,,TRUE,,,,,CAVOK,,,,,,,,VFR,,,,,,,,,,,,METAR,107.0
LFPB 060000Z AUTO 35007KT 310V030 CAVOK 14/10 Q1019 NOSIG,LFPB,2023-06-06T00:00:00Z,48.97,2.42,14.0,10.0,350,7,,6.21,30.088583,,,TRUE,,,TRUE,,,,,CAVOK,,,,,,,,VFR,,,,,,,,,,,,METAR,50.0
LFOV 060000Z AUTO 01008KT CAVOK 15/13 Q1018,LFOV,2023-06-06T00:00:00Z,48.03,-0.75,15.0,13.0,10,8,,6.21,30.059055,,,TRUE,,,,,,,,CAVOK,,,,,,,,VFR,,,,,,,,,,,,METAR,99.0
LFOT 060000Z AUTO 04007KT 360V070 CAVOK 17/10 Q1017 NOSIG,LFOT,2023-06-06T00:00:00Z,47.43,0.72,17.0,10.0,40,7,,6.21,30.029528,,,TRUE,,,TRUE,,,,,CAVOK,,,,,,,,VFR,,,,,,,,,,,,METAR,107.0
LFOP 060000Z AUTO 02009KT CAVOK 11/09 Q1020,LFOP,2023-06-06T00:00:00Z,49.37,1.17,11.0,9.0,20,9,,6.21,30.11811,,,TRUE,,,,,,,,CAVOK,,,,,,,,VFR,,,,,,,,,,,,METAR,149.0
LFOK 060000Z AUTO 01009KT CAVOK 13/09 Q1017 NOSIG,LFOK,2023-06-06T00:00:00Z,48.78,4.15,13.0,9.0,10,9,,6.21,30.029528,,,TRUE,,,TRUE,,,,,CAVOK,,,,,,,,VFR,,,,,,,,,,,,METAR,166.0
LFOH 060000Z AUTO 06012KT 9999 FEW009 11/10 Q1020,LFOH,2023-06-06T00:00:00Z,49.52,0.08,11.0,10.0,60,12,,6.21,30.11811,,,TRUE,,,,,,,,FEW,900,,,,,,,VFR,,,,,,,,,,,,METAR,87.0
LFOE 060000Z AUTO 04006KT CAVOK 13/10 Q1020 NOSIG,LFOE,2023-06-06T00:00:00Z,49.02,1.22,13.0,10.0,40,6,,6.21,30.11811,,,TRUE,,,TRUE,,,,,CAVOK,,,,,,,,VFR,,,,,,,,,,,,METAR,132.0
LFOB 060000Z AUTO 35005KT CAVOK 11/09 Q1020 NOSIG,LFOB,2023-06-06T00:00:00Z,49.47,2.12,11.0,9.0,350,5,,6.21,30.11811,,,TRUE,,,TRUE,,,,,CAVOK,,,,,,,,VFR,,,,,,,,,,,,METAR,99.0
LFMU 060000Z AUTO VRB02KT CAVOK 18/16 Q1014,LFMU,2023-06-06T00:00:00Z,43.32,3.35,18.0,16.0,0,2,,6.21,29.940945,,,TRUE,,,,,,,,CAVOK,,,,,,,,VFR,,,,,,,,,,,,METAR,14.0
LFMT 060000Z AUTO VRB03KT CAVOK 18/16 Q1015 TEMPO BKN010,LFMT,2023-06-06T00:00:00Z,43.57,3.97,18.0,16.0,0,3,,6.21,29.970472,,,TRUE,,,,,,,,CAVOK,,,,,,,,VFR,,,,,,,,,,,,METAR,1.0
LFMP 060000Z AUTO 04004KT CAVOK 18/14 Q1014,LFMP,2023-06-06T00:00:00Z,42.73,2.87,18.0,14.0,40,4,,6.21,29.940945,,,TRUE,,,,,,,,CAVOK,,,,,,,,VFR,,,,,,,,,,,,METAR,41.0
LFMO 060000Z AUTO 31001KT CAVOK 16/14 Q1015 NOSIG,LFMO,2023-06-06T00:00:00Z,44.13,4.87,16.0,14.0,310,1,,6.21,29.970472,,,TRUE,,,TRUE,,,,,CAVOK,,,,,,,,VFR,,,,,,,,,,,,METAR,56.0
LFMN 060000Z 33007KT CAVOK 18/15 Q1015 NOSIG,LFMN,2023-06-06T00:00:00Z,43.65,7.2,18.0,15.0,330,7,,6.21,29.970472,,,,,,TRUE,,,,,CAVOK,,,,,,,,VFR,,,,,,,,,,,,METAR,4.0
LFML 060000Z AUTO 09003KT 050V130 CAVOK 17/15 Q1015 NOSIG,LFML,2023-06-06T00:00:00Z,43.45,5.22,17.0,15.0,90,3,,6.21,29.970472,,,TRUE,,,TRUE,,,,,CAVOK,,,,,,,,VFR,,,,,,,,,,,,METAR,20.0
LFMK 060000Z AUTO VRB02KT CAVOK 16/14 Q1015,LFMK,2023-06-06T00:00:00Z,43.22,2.32,16.0,14.0,0,2,,6.21,29.970472,,,TRUE,,,,,,,,CAVOK,,,,,,,,VFR,,,,,,,,,,,,METAR,124.0
LFMI 060000Z AUTO 07004KT CAVOK 17/16 Q1015 NOSIG,LFMI,2023-06-06T00:00:00Z,43.52,4.93,17.0,16.0,70,4,,6.21,29.970472,,,TRUE,,,TRUE,,,,,CAVOK,,,,,,,,VFR,,,,,,,,,,,,METAR,20.0
LFMH 060000Z AUTO 16002KT CAVOK 11/10 Q1016,LFMH,2023-06-06T00:00:00Z,45.52,4.28,11.0,10.0,160,2,,6.21,30.0,,,TRUE,,,,,,,,CAVOK,,,,,,,,VFR,,,,,,,,,,,,METAR,400.0
LFMD 060000Z AUTO VRB02KT CAVOK 16/16 Q1015,LFMD,2023-06-06T00:00:00Z,43.53,6.95,16.0,16.0,0,2,,6.21,29.970472,,,TRUE,,,,,,,,CAVOK,,,,,,,,VFR,,,,,,,,,,,,METAR,2.0
LFLY 060000Z AUTO 18003KT CAVOK 14/12 Q1015 NOSIG,LFLY,2023-06-06T00:00:00Z,45.72,4.95,14.0,12.0,180,3,,6.21,29.970472,,,TRUE,,,TRUE,,,,,CAVOK,,,,,,,,VFR,,,,,,,,,,,,METAR,197.0
LFLX 060000Z AUTO 02008KT CAVOK 13/09 Q1016 NOSIG,LFLX,2023-06-06T00:00:00Z,46.87,1.73,13.0,9.0,20,8,,6.21,30.0,,,TRUE,,,TRUE,,,,,CAVOK,,,,,,,,VFR,,,,,,,,,,,,METAR,157.0
LFLS 060000Z AUTO 31004KT CAVOK 15/13 Q1016,LFLS,2023-06-06T00:00:00Z,45.37,5.32,15.0,13.0,310,4,,6.21,30.0,,,TRUE,,,,,,,,CAVOK,,,,,,,,VFR,,,,,,,,,,,,METAR,386.0
LFLP 060000Z AUTO 05006KT CAVOK 11/09 Q1017,LFLP,2023-06-06T00:00:00Z,45.92,6.1,11.0,9.0,50,6,,6.21,30.029528,,,TRUE,,,,,,,,CAVOK,,,,,,,,VFR,,,,,,,,,,,,METAR,460.0
LFLN 060000Z AUTO 15002KT CAVOK 14/12 Q1015,LFLN,2023-06-06T00:00:00Z,46.42,4.02,14.0,12.0,150,2,,6.21,29.970472,,,TRUE,,,,,,,,CAVOK,,,,,,,,VFR,,,,,,,,,,,,METAR,238.0
LFLL 060000Z 20003KT CAVOK 17/10 Q1015 NOSIG,LFLL,2023-06-06T00:00:00Z,45.72,5.07,17.0,10.0,200,3,,6.21,29.970472,,,,,,TRUE,,,,,CAVOK,,,,,,,,VFR,,,,,,,,,,,,METAR,234.0
LFLC 060000Z AUTO VRB02KT CAVOK 15/12 Q1016 NOSIG,LFLC,2023-06-06T00:00:00Z,45.78,3.17,15.0,12.0,0,2,,6.21,30.0,,,TRUE,,,TRUE,,,,,CAVOK,,,,,,,,VFR,,,,,,,,,,,,METAR,325.0
LFLB 060000Z AUTO VRB02KT CAVOK 13/13 Q1015,LFLB,2023-06-06T00:00:00Z,45.63,5.87,13.0,13.0,0,2,,6.21,29.970472,,,TRUE,,,,,,,,CAVOK,,,,,,,,VFR,,,,,,,,,,,,METAR,234.0
LFKJ 060000Z AUTO 07004KT 9999 SCT025 OVC130 17/15 Q1015 NOSIG,LFKJ,2023-06-06T00:00:00Z,41.92,8.8,17.0,15.0,70,4,,6.21,29.970472,,,TRUE,,,TRUE,,,,,SCT,2500,OVC,13000,,,,,VFR,,,,,,,,,,,,METAR,9.0
LFKF 060000Z AUTO 04003KT CAVOK 13/13 Q1015,LFKF,2023-06-06T00:00:00Z,41.5,9.08,13.0,13.0,40,3,,6.21,29.970472,,,TRUE,,,,,,,,CAVOK,,,,,,,,VFR,,,,,,,,,,,,METAR,15.0
LFKC 060000Z AUTO 18002KT 9999 FEW039 SCT046 OVC100 18/16 Q1015,LFKC,2023-06-06T00:00:00Z,42.52,8.8,18.0,16.0,180,2,,6.21,29.970472,,,TRUE,,,,,,,,FEW,3900,SCT,4600,OVC,10000,,,VFR,,,,,,,,,,,,METAR,38.0
LFKB 060000Z AUTO 23004KT 200V260 9999 FEW042 16/15 Q1015 NOSIG,LFKB,2023-06-06T00:00:00Z,42.55,9.48,16.0,15.0,230,4,,6.21,29.970472,,,TRUE,,,TRUE,,,,,FEW,4200,,,,,,,VFR,,,,,,,,,,,,METAR,7.0
LFJR 060000Z AUTO 05006KT CAVOK 17/09 Q1017,LFJR,2023-06-06T00:00:00Z,47.57,-0.32,17.0,9.0,50,6,,6.21,30.029528,,,TRUE,,,,,,,,CAVOK,,,,,,,,VFR,,,,,,,,,,,,METAR,50.0
LFJL 060000Z AUTO 34004KT 310V010 CAVOK 14/06 Q1017 NOSIG,LFJL,2023-06-06T00:00:00Z,48.97,6.25,14.0,6.0,340,4,,6.21,30.029528,,,TRUE,,,TRUE,,,,,CAVOK,,,,,,,,VFR,,,,,,,,,,,,METAR,259.0
LFGA 060000Z AUTO VRB02KT CAVOK 17/06 Q1016,LFGA,2023-06-06T00:00:00Z,48.1,7.35,17.0,6.0,0,2,,6.21,30.0,,,TRUE,,,,,,,,CAVOK,,,,,,,,VFR,,,,,,,,,,,,METAR,191.0
LFCR 060000Z AUTO 12003KT 070V140 CAVOK 14/11 Q1016 NOSIG,LFCR,2023-06-06T00:00:00Z,44.4,2.47,14.0,11.0,120,3,,6.21,30.0,,,TRUE,,,TRUE,,,,,CAVOK,,,,,,,,VFR,,,,,,,,,,,,METAR,576.0
LFCK 060000Z AUTO VRB02KT CAVOK 16/14 Q1016,LFCK,2023-06-06T00:00:00Z,43.55,2.28,16.0,14.0,0,2,,6.21,30.0,,,TRUE,,,,,,,,CAVOK,,,,,,,,VFR,,,,,,,,,,,,METAR,223.0
LFBZ 060000Z AUTO 16003KT 140V200 9999 FEW007 BKN120 19/18 Q1015 TEMPO BKN008,LFBZ,2023-06-06T00:00:00Z,43.47,-1.53,19.0,18.0,160,3,,6.21,29.970472,,,TRUE,,,,,,,,FEW,700,BKN,12000,,,,,VFR,,,,,,,,,,,,METAR,70.0
LFBY 060000Z AUTO VRB02KT 9999 // ////// 18/17 Q1014,LFBY,2023-06-06T00:00:00Z,43.68,-1.07,18.0,17.0,0,2,,6.21,29.940945,,,TRUE,,,,,,,,,,,,,,,,,,,,,,,,,,,,METAR,32.0
LFBX 060000Z AUTO 00000KT CAVOK 14/14 Q1014,LFBX,2023-06-06T00:00:00Z,45.2,0.82,14.0,14.0,0,0,,6.21,29.940945,,,TRUE,,,,,,,,CAVOK,,,,,,,,VFR,,,,,,,,,,,,METAR,97.0
LFBP 060000Z AUTO VRB02KT CAVOK 18/17 Q1015 NOSIG,LFBP,2023-06-06T00:00:00Z,43.38,-0.42,18.0,17.0,0,2,,6.21,29.970472,,,TRUE,,,TRUE,,,,,CAVOK,,,,,,,,VFR,,,,,,,,,,,,METAR,182.0
LFBO 060000Z AUTO 18003KT CAVOK 17/15 Q1015 NOSIG,LFBO,2023-06-06T00:00:00Z,43.62,1.37,17.0,15.0,180,3,,6.21,29.970472,,,TRUE,,,TRUE,,,,,CAVOK,,,,,,,,VFR,,,,,,,,,,,,METAR,150.0
LFBM 060000Z AUTO 33002KT CAVOK 18/16 Q1014 BECMG BKN004,LFBM,2023-06-06T00:00:00Z,43.92,-0.5,18.0,16.0,330,2,,6.21,29.940945,,,TRUE,,,,,,,,CAVOK,,,,,,,,VFR,,,,,,,,,,,,METAR,56.0
LFBI 060000Z AUTO 02006KT CAVOK 16/08 Q1016 NOSIG,LFBI,2023-06-06T00:00:00Z,46.58,0.32,16.0,8.0,20,6,,6.21,30.0,,,TRUE,,,TRUE,,,,,CAVOK,,,,,,,,VFR,,,,,,,,,,,,METAR,117.0
LFBH 060000Z AUTO 06009KT CAVOK 19/09 Q1015 NOSIG,LFBH,2023-06-06T00:00:00Z,46.18,-1.2,19.0,9.0,60,9,,6.21,29.970472,,,TRUE,,,TRUE,,,,,CAVOK,,,,,,,,VFR,,,,,,,,,,,,METAR,18.0
LFBG 060000Z AUTO 15004KT CAVOK 19/13 Q1015,LFBG,2023-06-06T00:00:00Z,45.67,-0.32,19.0,13.0,150,4,,6.21,29.970472,,,TRUE,,,,,,,,CAVOK,,,,,,,,VFR,,,,,,,,,,,,METAR,28.0
LFBE 060000Z AUTO VRB02KT 9999 ///TCU 17/16 Q1014 BECMG NSC,LFBE,2023-06-06T00:00:00Z,44.82,0.52,17.0,16.0,0,2,,6.21,29.940945,,,TRUE,,,,,,,,,,,,,,,,,,,,,,,,,,,,METAR,49.0
LFBD 060000Z AUTO VRB01KT CAVOK 20/15 Q1014 NOSIG,LFBD,2023-06-06T00:00:00Z,44.82,-0.7,20.0,15.0,0,1,,6.21,29.940945,,,TRUE,,,TRUE,,,,,CAVOK,,,,,,,,VFR,,,,,,,,,,,,METAR,48.0
LFBC 060000Z AUTO VRB02KT 9999 ///CB 18/17 Q1014,LFBC,2023-06-06T00:00:00Z,44.52,-1.12,18.0,17.0,0,2,,6.21,29.940945,,,TRUE,,,,,,,,,,,,,,,,,,,,,,,,,,,,METAR,22.0
LFBA 060000Z AUTO 23003KT CAVOK 20/17 Q1014,LFBA,2023-06-06T00:00:00Z,44.17,0.6,20.0,17.0,230,3,,6.21,29.940945,,,TRUE,,,,,,,,CAVOK,,,,,,,,VFR,,,,,,,,,,,,METAR,68.0
LFAT 060000Z AUTO 06007KT 020V090 9999 BKN014 11/09 Q1022,LFAT,2023-06-06T00:00:00Z,50.52,1.62,11.0,9.0,60,7,,6.21,30.177166,,,TRUE,,,,,,,,BKN,1400,,,,,,,MVFR,,,,,,,,,,,,METAR,2.0
LEMO 060000Z 13003KT CAVOK 21/15 Q1013 NOSIG,LEMO,2023-06-06T00:00:00Z,37.17,-5.62,21.0,15.0,130,3,,6.21,29.911417,,,,,,TRUE,,,,,CAVOK,,,,,,,,VFR,,,,,,,,,,,,METAR,82.0
LEJR 060000Z AUTO 36002KT CAVOK 20/17 Q1012,LEJR,2023-06-06T00:00:00Z,36.75,-6.07,20.0,17.0,360,2,,6.21,29.88189,,,TRUE,,,,,,,,CAVOK,,,,,,,,VFR,,,,,,,,,,,,METAR,25.0
LDZD 060000Z VRB02KT 9999 FEW022 SCT030 BKN045 18/18 Q1015,LDZD,2023-06-06T00:00:00Z,44.1,15.33,18.0,18.0,0,2,,6.21,29.970472,,,,,,,,,,,FEW,2200,SCT,3000,BKN,4500,,,VFR,,,,,,,,,,,,METAR,82.0
LDZA 060000Z 25002KT 9999 BKN008 17/16 Q1015 NOSIG,LDZA,2023-06-06T00:00:00Z,45.72,16.07,17.0,16.0,250,2,,6.21,29.970472,,,,,,TRUE,,,,,BKN,800,,,,,,,IFR,,,,,,,,,,,,METAR,103.0
LDSP 060000Z AUTO 12013KT 090V150 9999 VCTS FEW025/// BKN034/// BKN040/// 20/18 Q1015 RETS,LDSP,2023-06-06T00:00:00Z,43.53,16.3,20.0,18.0,120,13,,6.21,29.970472,,,TRUE,,,,,,,VCTS,FEW,2500,BKN,3400,BKN,4000,,,VFR,,,,,,,,,,,,METAR,16.0
LDRI 060000Z 31002KT 9999 FEW030 BKN040 18/17 Q1015,LDRI,2023-06-06T00:00:00Z,45.22,14.57,18.0,17.0,310,2,,6.21,29.970472,,,,,,,,,,,FEW,3000,BKN,4000,,,,,VFR,,,,,,,,,,,,METAR,80.0
LDPL 060000Z 08003KT 9999 VCTS FEW015 FEW030CB BKN032 18/17 Q1015,LDPL,2023-06-06T00:00:00Z,44.88,13.92,18.0,17.0,80,3,,6.21,29.970472,,,,,,,,,,VCTS,FEW,1500,FEW,3000,BKN,3200,,,VFR,,,,,,,,,,,,METAR,63.0
LDOS 060000Z 16004KT 9999 BKN033 18/18 Q1016,LDOS,2023-06-06T00:00:00Z,45.47,18.82,18.0,18.0,160,4,,6.21,30.0,,,,,,,,,,,BKN,3300,,,,,,,VFR,,,,,,,,,,,,METAR,82.0
LDDU 060000Z 11006KT 9999 -RA NSC 19/16 Q1016,LDDU,2023-06-06T00:00:00Z,42.57,18.27,19.0,16.0,110,6,,6.21,30.0,,,,,,,,,,-RA,CLR,,,,,,,,VFR,,,,,,,,,,,,METAR,156.0
LBWN 060000Z AUTO VRB01KT 9999 NCD 12/09 Q1021 NOSIG,LBWN,2023-06-06T00:00:00Z,43.22,27.82,12.0,9.0,0,1,,6.21,30.147638,,,TRUE,,,TRUE,,,,,CLR,,,,,,,,VFR,,,,,,,,,,,,METAR,74.0
LBSF 060000Z AUTO 10011KT 9999 FEW049/// 15/06 Q1020 NOSIG,LBSF,2023-06-06T00:00:00Z,42.65,23.37,15.0,6.0,100,11,,6.21,30.11811,,,TRUE,,,TRUE,,,,,FEW,4900,,,,,,,VFR,,,,,,,,,,,,METAR,592.0
LBPD 060000Z AUTO 13006KT 9999 NCD 13/09 Q1021,LBPD,2023-06-06T00:00:00Z,42.05,24.85,13.0,9.0,130,6,,6.21,30.147638,,,TRUE,,,,,,,,CLR,,,,,,,,VFR,,,,,,,,,,,,METAR,182.0
LBGO 060000Z AUTO 15004KT 9999 NCD 14/10 Q1019,LBGO,2023-06-06T00:00:00Z,43.15,25.72,14.0,10.0,150,4,,6.21,30.088583,,,TRUE,,,,,,,,CLR,,,,,,,,VFR,,,,,,,,,,,,METAR,84.0
LBBG 060000Z AUTO 05008KT 9999 NCD 12/10 Q1021 NOSIG,LBBG,2023-06-06T00:00:00Z,42.57,27.52,12.0,10.0,50,8,,6.21,30.147638,,,TRUE,,,TRUE,,,,,CLR,,,,,,,,VFR,,,,,,,,,,,,METAR,41.0
KTUP 060000Z 18008KT 8SM VCTS RA SCT070 BKN090 OVC100 22/17 A2993 RMK AO2 LTG DSNT S AND SW TSE2354 P0000 T02220167,KTUP,2023-06-06T00:00:00Z,34.27,-88.77,22.2,16.7,180,8,,8.0,29.929134,,,,TRUE,,,,,,VCTS RA,SCT,7000,BKN,9000,OVC,10000,,,VFR,,,,,,0.005,,,,,,SPECI,107.0
KS71 060000Z AUTO 22007KT 10SM 27/17 A2989 ,KS71,2023-06-06T00:00:00Z,48.6,-109.25,27.0,17.0,220,7,,10.0,29.890747,,,TRUE,,,,,,,,,,,,,,,,,,,,,,,,,,,,METAR,736.0
KQFX 060000Z AUTO 36001KT 9999 FEW024 FEW027 22/14 A2978 RMK A02 TSNO,KQFX,2023-06-06T00:00:00Z,,,22.0,14.0,360,1,,6.21,29.778543,,,TRUE,TRUE,,,TRUE,,,,FEW,2400,FEW,2700,,,,,VFR,,,,,,,,,,,,METAR,
KQFV 060000Z AUTO 24004KT 9999 BKN025 19/13 A2983 RMK A02 TSNO,KQFV,2023-06-06T00:00:00Z,,,19.0,13.0,240,4,,6.21,29.828741,,,TRUE,TRUE,,,TRUE,,,,BKN,2500,,,,,,,MVFR,,,,,,,,,,,,METAR,
KQFU 060000Z AUTO 26003KT 9999 OVC019 19/14 A2984 RMK A02 TSNO,KQFU,2023-06-06T00:00:00Z,,,19.0,14.0,260,3,,6.21,29.840551,,,TRUE,TRUE,,,TRUE,,,,OVC,1900,,,,,,,MVFR,,,,,,,,,,,,METAR,
KQFB 060000Z AUTO 33003KT 8000 HZ BKN028 BKN150 21/15 A2982 RMK A02 TSNO,KQFB,2023-06-06T00:00:00Z,,,21.0,15.0,330,3,,4.97,29.819881,,,TRUE,TRUE,,,TRUE,,,HZ,BKN,2800,BKN,15000,,,,,MVFR,,,,,,,,,,,,METAR,
KQEX 060000Z AUTO 03003KT 9999 CLR 21/13 / RMK A02 TSNO,KQEX,2023-06-06T00:00:00Z,,,21.0,13.0,30,3,,6.21,,,,TRUE,TRUE,,,TRUE,,,,CLR,,,,,,,,VFR,,,,,,,,,,,,METAR,
KQEW 060000Z AUTO 33001KT 9999 CLR 22/14 A2977 RMK A02 TSNO,KQEW,2023-06-06T00:00:00Z,,,22.0,14.0,330,1,,6.21,29.769686,,,TRUE,TRUE,,,TRUE,,,,CLR,,,,,,,,VFR,,,,,,,,,,,,METAR,
KQEQ 060000Z AUTO 24002KT 9999 BKN015 19/17 A2983 RMK A02 TSNO,KQEQ,2023-06-06T00:00:00Z,,,19.0,17.0,240,2,,6.21,29.828741,,,TRUE,TRUE,,,TRUE,,,,BKN,1500,,,,,,,MVFR,,,,,,,,,,,,METAR,
KQEP 060000Z AUTO 23003KT 9999 BKN023 BKN032 20/15 A2982 RMK A02 TSNO,KQEP,2023-06-06T00:00:00Z,,,20.0,15.0,230,3,,6.21,29.819881,,,TRUE,TRUE,,,TRUE,,,,BKN,2300,BKN,3200,,,,,MVFR,,,,,,,,,,,,METAR,
KQEN 060000Z AUTO 24004G11KT 9999 OVC120 16/10 A2981 RMK A02 TSNO,KQEN,2023-06-06T00:00:00Z,,,16.0,10.0,240,4,11,6.21,29.811024,,,TRUE,TRUE,,,TRUE,,,,OVC,12000,,,,,,,VFR,,,,,,,,,,,,METAR,
KQEJ 060000Z AUTO 21002KT 9999 FEW027 21/12 A2976 RMK A02 TSNO,KQEJ,2023-06-06T00:00:00Z,,,21.0,12.0,210,2,,6.21,29.760826,,,TRUE,TRUE,,,TRUE,,,,FEW,2700,,,,,,,VFR,,,,,,,,,,,,METAR,
KQEI 060000Z AUTO 17004KT 9999 FEW030 20/13 A2978 RMK A02 TSNO,KQEI,2023-06-06T00:00:00Z,,,20.0,13.0,170,4,,6.21,29.778543,,,TRUE,TRUE,,,TRUE,,,,FEW,3000,,,,,,,VFR,,,,,,,,,,,,METAR,
KNEL 060000Z AUTO 36004KT BKN095 19/12 A2980 RMK AO2 SLP088 T01890117 10244 20189 55006 $ ,KNEL,2023-06-06T00:00:00Z,40.03,-74.33,18.9,11.7,360,4,,,29.799213,1008.8,,TRUE,TRUE,TRUE,,,,,,BKN,9500,,,,,,,,-0.6,24.4,18.9,,,,,,,,,METAR,26.0
KMTK 060000Z AUTO 29006KT 10SM CLR 24/20 A2989 RMK A01,KMTK,2023-06-06T00:00:00Z,,,24.0,20.0,290,6,,10.0,29.890747,,,TRUE,TRUE,,,,,,,CLR,,,,,,,,VFR,,,,,,,,,,,,METAR,
KJYL 060000Z AUTO 00000KT 10SM CLR 27/17 A2993 RMK AO2 T02670171,KJYL,2023-06-06T00:00:00Z,32.65,-81.6,26.7,17.1,0,0,,10.0,29.929134,,,TRUE,TRUE,,,,,,,CLR,,,,,,,,VFR,,,,,,,,,,,,METAR,54.0
KIKT 060000Z AUTO 14011KT 10SM BKN020 BKN041 OVC085 25/22 A2989 RMK A01,KIKT,2023-06-06T00:00:00Z,28.52,-88.28,25.0,22.0,140,11,,10.0,29.890747,,,TRUE,TRUE,,,,,,,BKN,2000,BKN,4100,OVC,8500,,,MVFR,,,,,,,,,,,,METAR,36.0
KIER 060000Z AUTO 15007KT 10SM VCTS SCT120 27/20 A2987 RMK AO2 LTG DSNT ALQS T02690197,KIER,2023-06-06T00:00:00Z,31.73,-93.1,26.9,19.7,150,7,,10.0,29.870079,,,TRUE,TRUE,,,,,,VCTS,SCT,12000,,,,,,,VFR,,,,,,,,,,,,METAR,35.0
KI35 060000Z AUTO 00000KT 10SM CLR 26/13 A2995 RMK AO2,KI35,2023-06-06T00:00:00Z,36.87,-83.37,26.0,13.0,0,0,,10.0,29.949802,,,TRUE,TRUE,,,,,,,CLR,,,,,,,,VFR,,,,,,,,,,,,METAR,467.0
KHRF 060000Z AUTO 23006KT 10SM OVC080 17/11 A3005 RMK AO2 Hamilton ,KHRF,2023-06-06T00:00:00Z,46.25,-114.13,17.0,11.0,230,6,,10.0,30.050198,,,TRUE,TRUE,,,,,,,OVC,8000,,,,,,,VFR,,,,,,,,,,,,METAR,1112.0
KGUL 060000Z AUTO 00000KT 8SM CLR 25/21 A2988 RMK A01,KGUL,2023-06-06T00:00:00Z,27.3,-93.53,25.0,21.0,0,0,,8.0,29.878937,,,TRUE,TRUE,,,,,,,CLR,,,,,,,,VFR,,,,,,,,,,,,METAR,20.0
KESF 060000Z AUTO 17008G23KT 130V200 1 1/2SM TSRA SCT032 BKN048 OVC070 20/17 A2993 RMK AO2 LTG DSNT NW-E P0000 T02000172,KESF,2023-06-06T00:00:00Z,31.4,-92.28,20.0,17.2,170,8,23,1.5,29.929134,,,TRUE,TRUE,,,,,,TSRA,SCT,3200,BKN,4800,OVC,7000,,,IFR,,,,,,0.005,,,,,,SPECI,27.0
KDWH 060000Z 27006KT 9SM -RA SCT110 21/20 A2989 RMK AO2 LTG DSNT W-N P0000 T02110200,KDWH,2023-06-06T00:00:00Z,30.07,-95.55,21.1,20.0,270,6,,9.0,29.890747,,,,TRUE,,,,,,-RA,SCT,11000,,,,,,,VFR,,,,,,0.005,,,,,,SPECI,46.0
KDSF 060000Z AUTO 09009KT 9SM BKN019 BKN042 BKN050 A2990 RMK A01,KDSF,2023-06-06T00:00:00Z,28.35,-88.27,,,90,9,,9.0,29.899607,,,TRUE,TRUE,,,,,,,BKN,1900,BKN,4200,BKN,5000,,,MVFR,,,,,,,,,,,,METAR,40.0
KDRO 060000Z AUTO 10008KT 10SM VCTS BKN100 21/05 A3013 RMK AO2 LTG DSNT E AND SE T02110050,KDRO,2023-06-06T00:00:00Z,37.15,-107.77,21.1,5.0,100,8,,10.0,30.129921,,,TRUE,TRUE,,,,,,VCTS,BKN,10000,,,,,,,VFR,,,,,,,,,,,,SPECI,2021.0
KBDN 060000Z AUTO 16008KT 10SM VCTS FEW090 26/06 A2996 RMK AO2 LTG DSNT NE AND E AND SW,KBDN,2023-06-06T00:00:00Z,44.1,-121.2,26.0,6.0,160,8,,10.0,29.958662,,,TRUE,TRUE,,,,,,VCTS,FEW,9000,,,,,,,VFR,,,,,,,,,,,,METAR,1044.0
KAXS 060000Z AUTO 27005KT 7SM VCTSRA SCT029 SCT042 OVC100 22/15 A3000 RMK AO2 LTG DSNT W T02190153,KAXS,2023-06-06T00:00:00Z,34.7,-99.33,21.9,15.3,270,5,,7.0,30.0,,,TRUE,TRUE,,,,,,VCTSRA,SCT,2900,SCT,4200,OVC,10000,,,VFR,,,,,,,,,,,,METAR,433.0
KATP 060000Z AUTO 34014KT 7SM CLR 27/21 A2989 RMK A01,KATP,2023-06-06T00:00:00Z,27.2,-90.03,27.0,21.0,340,14,,7.0,29.890747,,,TRUE,TRUE,,,,,,,CLR,,,,,,,,VFR,,,,,,,,,,,,METAR,50.0
K3U3 060000Z AUTO 00000KT 8SM 15/12 A3010 ,K3U3,2023-06-06T00:00:00Z,46.15,-112.87,15.0,12.0,0,0,,8.0,30.100393,,,TRUE,,,,,,,,,,,,,,,,,,,,,,,,,,,,METAR,1534.0
K38S 060000Z AUTO 06006KT 10SM 17/16 A3012 ,K38S,2023-06-06T00:00:00Z,46.38,-112.77,17.0,16.0,60,6,,10.0,30.121063,,,TRUE,,,,,,,,,,,,,,,,,,,,,,,,,,,,METAR,1430.0
K1S3 060000Z AUTO 14010G18KT 10SM 31/06 A2992 ,K1S3,2023-06-06T00:00:00Z,46.27,-106.62,31.0,6.0,140,10,18,10.0,29.920275,,,TRUE,,,,,,,,,,,,,,,,,,,,,,,,,,,,METAR,831.0
HRYR 060000Z 32003KT 9999 FEW026 20/14 Q1021 NOSIG,HRYR,2023-06-06T00:00:00Z,-1.97,30.13,20.0,14.0,320,3,,6.21,30.147638,,,,,,TRUE,,,,,FEW,2600,,,,,,,VFR,,,,,,,,,,,,METAR,1493.0
HECA 060000Z 05008KT CAVOK 22/14 Q1012 NOSIG,HECA,2023-06-06T00:00:00Z,30.12,31.4,22.0,14.0,50,8,,6.21,29.88189,,,,,,TRUE,,,,,CAVOK,,,,,,,,VFR,,,,,,,,,,,,METAR,68.0
HAAB 060000Z 03004KT 9999 SCT025 16/11 Q1026 NOSIG,HAAB,2023-06-06T00:00:00Z,8.97,38.78,16.0,11.0,30,4,,6.21,30.295275,,,,,,TRUE,,,,,SCT,2500,,,,,,,VFR,,,,,,,,,,,,METAR,2319.0
GVAC 060000Z 36006KT CAVOK 23/20 Q1016 NOSIG,GVAC,2023-06-06T00:00:00Z,16.73,-22.93,23.0,20.0,360,6,,6.21,30.0,,,,,,TRUE,,,,,CAVOK,,,,,,,,VFR,,,,,,,,,,,,METAR,54.0
GQPP 060000Z 33009KT 290V350 8000 FEW005 20/19 Q1014 BECMG 3200 BR,GQPP,2023-06-06T00:00:00Z,20.92,-17.02,20.0,19.0,330,9,,4.97,29.940945,,,,,,,,,,,FEW,500,,,,,,,MVFR,,,,,,,,,,,,METAR,5.0
GMTT 060000Z 09010KT CAVOK 22/18 Q1011 NOSIG,GMTT,2023-06-06T00:00:00Z,35.72,-5.9,22.0,18.0,90,10,,6.21,29.852362,,,,,,TRUE,,,,,CAVOK,,,,,,,,VFR,,,,,,,,,,,,METAR,19.0
GMTN 060000Z 07007KT 9999 SCT014 SCT200 20/18 Q1013 NOSIG,GMTN,2023-06-06T00:00:00Z,35.58,-5.32,20.0,18.0,70,7,,6.21,29.911417,,,,,,TRUE,,,,,SCT,1400,SCT,20000,,,,,VFR,,,,,,,,,,,,METAR,10.0
GMTA 060000Z 27004KT CAVOK 21/16 Q1013 NOSIG,GMTA,2023-06-06T00:00:00Z,35.17,-3.85,21.0,16.0,270,4,,6.21,29.911417,,,,,,TRUE,,,,,CAVOK,,,,,,,,VFR,,,,,,,,,,,,METAR,14.0
GMMZ 060000Z 26005KT 8000 BKN040 26/08 Q1013 NOSIG,GMMZ,2023-06-06T00:00:00Z,30.93,-6.9,26.0,8.0,260,5,,4.97,29.911417,,,,,,TRUE,,,,,BKN,4000,,,,,,,MVFR,,,,,,,,,,,,METAR,1139.0
GMMX 060000Z VRB01KT CAVOK 24/13 Q1012 NOSIG,GMMX,2023-06-06T00:00:00Z,31.62,-8.03,24.0,13.0,0,1,,6.21,29.88189,,,,,,TRUE,,,,,CAVOK,,,,,,,,VFR,,,,,,,,,,,,METAR,465.0
GMMW 060000Z VRB02KT 8000 BKN010 19/17 Q1014 NOSIG,GMMW,2023-06-06T00:00:00Z,34.98,-3.02,19.0,17.0,0,2,,4.97,29.940945,,,,,,TRUE,,,,,BKN,1000,,,,,,,MVFR,,,,,,,,,,,,METAR,174.0
GMMN 060000Z 04005KT CAVOK 20/17 Q1011 NOSIG,GMMN,2023-06-06T00:00:00Z,33.37,-7.58,20.0,17.0,40,5,,6.21,29.852362,,,,,,TRUE,,,,,CAVOK,,,,,,,,VFR,,,,,,,,,,,,METAR,196.0
GMML 060000Z 07008KT 8000 NSC 22/17 Q1013 NOSIG,GMML,2023-06-06T00:00:00Z,27.13,-13.23,22.0,17.0,70,8,,4.97,29.911417,,,,,,TRUE,,,,,CLR,,,,,,,,MVFR,,,,,,,,,,,,METAR,63.0
GMMI 060000Z AUTO 34002KT 7000 NSC 20/// Q1013 NOSIG,GMMI,2023-06-06T00:00:00Z,31.4,-9.68,,,340,2,,4.35,29.911417,,,TRUE,,,TRUE,,,,,CLR,,,,,,,,MVFR,,,,,,,,,,,,METAR,102.0
GMME 060000Z 00000KT 5000 FEW013 SCT020 20/19 Q1011 NOSIG,GMME,2023-06-06T00:00:00Z,34.05,-6.77,20.0,19.0,0,0,,3.11,29.852362,,,,,,TRUE,,,,,FEW,1300,SCT,2000,,,,,MVFR,,,,,,,,,,,,METAR,84.0
GMFM 060000Z VRB01KT 9999 VCTS SCT016 FEW026CB 21/16 Q1013 NOSIG,GMFM,2023-06-06T00:00:00Z,33.87,-5.52,21.0,16.0,0,1,,6.21,29.911417,,,,,,TRUE,,,,VCTS,SCT,1600,FEW,2600,,,,,VFR,,,,,,,,,,,,METAR,569.0
GMFK 060000Z 35013KT 7000 SCT033 SCT080 25/11 Q1015 NOSIG,GMFK,2023-06-06T00:00:00Z,31.95,-4.4,25.0,11.0,350,13,,4.35,29.970472,,,,,,TRUE,,,,,SCT,3300,SCT,8000,,,,,MVFR,,,,,,,,,,,,METAR,1033.0
GMFF 060000Z 23004KT 9999 TS FEW030 FEW040CB SCT100 BKN200 22/17 Q1013 NOSIG,GMFF,2023-06-06T00:00:00Z,33.92,-4.97,22.0,17.0,230,4,,6.21,29.911417,,,,,,TRUE,,,,TS,FEW,3000,FEW,4000,SCT,10000,BKN,20000,VFR,,,,,,,,,,,,METAR,575.0
GMAD 060000Z 22006KT 8000 NSC 20/18 Q1013 NOSIG,GMAD,2023-06-06T00:00:00Z,30.32,-9.42,20.0,18.0,220,6,,4.97,29.911417,,,,,,TRUE,,,,,CLR,,,,,,,,MVFR,,,,,,,,,,,,METAR,66.0
GBYD 060000Z 36005KT CAVOK 26/22 Q1013,GBYD,2023-06-06T00:00:00Z,13.33,-16.65,26.0,22.0,360,5,,6.21,29.911417,,,,,,,,,,,CAVOK,,,,,,,,VFR,,,,,,,,,,,,METAR,29.0
FSIA 060000Z 14010KT 100V180 9999 FEW022 28/23 Q1011 NOSIG,FSIA,2023-06-06T00:00:00Z,-4.67,55.52,28.0,23.0,140,10,,6.21,29.852362,,,,,,TRUE,,,,,FEW,2200,,,,,,,VFR,,,,,,,,,,,,METAR,3.0
FQXA 060000Z 14011G21KT 9999 BKN020 23/19 Q1022,FQXA,2023-06-06T00:00:00Z,-25.05,33.62,23.0,19.0,140,11,21,6.21,30.177166,,,,,,,,,,,BKN,2000,,,,,,,MVFR,,,,,,,,,,,,METAR,3.0
FQTT 060000Z 00000KT CAVOK 17/13 Q1016,FQTT,2023-06-06T00:00:00Z,-16.1,33.63,17.0,13.0,0,0,,6.21,30.0,,,,,,,,,,,CAVOK,,,,,,,,VFR,,,,,,,,,,,,METAR,146.0
FQPB 060000Z 12005KT 9999 FEW020 24/22 Q1017,FQPB,2023-06-06T00:00:00Z,-12.98,40.52,24.0,22.0,120,5,,6.21,30.029528,,,,,,,,,,,FEW,2000,,,,,,,VFR,,,,,,,,,,,,METAR,101.0
FQBR 060000Z 05005KT 0200 FG VV/// 25/25 Q1016,FQBR,2023-06-06T00:00:00Z,-19.8,34.9,25.0,25.0,50,5,,0.12,30.0,,,,,,,,,,FG,OVX,0,,,,,,,LIFR,,,,,,,,,,,,METAR,14.0
FOOG 060000Z AUTO 18006KT 9999 NCD VV006 24/23 Q1013,FOOG,2023-06-06T00:00:00Z,-0.7,8.75,24.0,23.0,180,6,,6.21,29.911417,,,TRUE,,,,,,,,OVX,0,CLR,,,,,,LIFR,,,,,,,,,,,600,METAR,4.0
FNLU 060000Z 17006KT 080V230 8000 FEW017 BKN020 23/13 Q1013 NOSIG,FNLU,2023-06-06T00:00:00Z,-8.85,13.22,23.0,13.0,170,6,,4.97,29.911417,,,,,,TRUE,,,,,FEW,1700,BKN,2000,,,,,MVFR,,,,,,,,,,,,METAR,75.0
FMMT 060000Z 24006KT 9999 FEW017 BKN033 21/20 Q1019,FMMT,2023-06-06T00:00:00Z,-18.12,49.38,21.0,20.0,240,6,,6.21,30.088583,,,,,,,,,,,FEW,1700,BKN,3300,,,,,VFR,,,,,,,,,,,,METAR,13.0
FMMI 060000Z 12006KT 9999 FEW010 SCT020 13/13 Q1025 NOSIG,FMMI,2023-06-06T00:00:00Z,-18.8,47.47,13.0,13.0,120,6,,6.21,30.265747,,,,,,TRUE,,,,,FEW,1000,SCT,2000,,,,,VFR,,,,,,,,,,,,METAR,1269.0
FMCZ 060000Z AUTO 21010KT CAVOK 26/22 Q1015 NOSIG,FMCZ,2023-06-06T00:00:00Z,-12.8,45.27,26.0,22.0,210,10,,6.21,29.970472,,,TRUE,,,TRUE,,,,,CAVOK,,,,,,,,VFR,,,,,,,,,,,,METAR,7.0
FIMP 060000Z 08008KT 9999 SCT017 24/20 Q1021,FIMP,2023-06-06T00:00:00Z,-20.43,57.68,24.0,20.0,80,8,,6.21,30.147638,,,,,,,,,,,SCT,1700,,,,,,,VFR,,,,,,,,,,,,METAR,57.0
FAVV 060000Z AUTO 33003KT //// // ////// 02/M00 Q1027,FAVV,2023-06-06T00:00:00Z,-26.57,27.97,2.0,0.0,330,3,,,30.324802,,,TRUE,,,,,,,,,,,,,,,,,,,,,,,,,,,,METAR,1480.0
FASI 060000Z AUTO 18001KT //// // ////// 06/M00 Q1028,FASI,2023-06-06T00:00:00Z,-26.25,28.4,6.0,0.0,180,1,,,30.35433,,,TRUE,,,,,,,,,,,,,,,,,,,,,,,,,,,,METAR,1627.0
FAOR 060000Z 30004KT CAVOK 14/M02 Q1025 NOSIG,FAOR,2023-06-06T00:00:00Z,-26.13,28.23,14.0,-2.0,300,4,,6.21,30.265747,,,,,,TRUE,,,,,CAVOK,,,,,,,,VFR,,,,,,,,,,,,METAR,1684.0
FAJB 060000Z AUTO 00000KT //// // ////// 06/M00 Q1024,FAJB,2023-06-06T00:00:00Z,-26.15,28.0,6.0,0.0,0,0,,,30.236221,,,TRUE,,,,,,,,,,,,,,,,,,,,,,,,,,,,METAR,1626.0
EPWR 060000Z 36004KT 9999 -RA NSC 16/13 Q1019,EPWR,2023-06-06T00:00:00Z,51.1,16.88,16.0,13.0,360,4,,6.21,30.088583,,,,,,,,,,-RA,CLR,,,,,,,,VFR,,,,,,,,,,,,METAR,118.0
EPWA 060000Z 12002KT CAVOK 12/06 Q1021 NOSIG,EPWA,2023-06-06T00:00:00Z,52.17,20.97,12.0,6.0,120,2,,6.21,30.147638,,,,,,TRUE,,,,,CAVOK,,,,,,,,VFR,,,,,,,,,,,,METAR,107.0
EPSY 060000Z VRB01KT CAVOK 09/05 Q1022,EPSY,2023-06-06T00:00:00Z,53.47,20.93,9.0,5.0,0,1,,6.21,30.177166,,,,,,,,,,,CAVOK,,,,,,,,VFR,,,,,,,,,,,,METAR,136.0
EPSC 060000Z 03004KT 360V060 CAVOK 13/04 Q1020,EPSC,2023-06-06T00:00:00Z,53.58,14.9,13.0,4.0,30,4,,6.21,30.11811,,,,,,,,,,,CAVOK,,,,,,,,VFR,,,,,,,,,,,,METAR,47.0
EPRZ 060000Z 01004KT CAVOK 11/07 Q1019,EPRZ,2023-06-06T00:00:00Z,50.1,22.02,11.0,7.0,10,4,,6.21,30.088583,,,,,,,,,,,CAVOK,,,,,,,,VFR,,,,,,,,,,,,METAR,206.0
EPPO 060000Z 09006KT CAVOK 15/05 Q1020,EPPO,2023-06-06T00:00:00Z,52.42,16.83,15.0,5.0,90,6,,6.21,30.11811,,,,,,,,,,,CAVOK,,,,,,,,VFR,,,,,,,,,,,,METAR,87.0
EPMO 060000Z 03004KT CAVOK 11/06 Q1021,EPMO,2023-06-06T00:00:00Z,52.45,20.65,11.0,6.0,30,4,,6.21,30.147638,,,,,,,,,,,CAVOK,,,,,,,,VFR,,,,,,,,,,,,METAR,102.0
EPLL 060000Z 09004KT CAVOK 15/06 Q1020,EPLL,2023-06-06T00:00:00Z,51.72,19.4,15.0,6.0,90,4,,6.21,30.11811,,,,,,,,,,,CAVOK,,,,,,,,VFR,,,,,,,,,,,,METAR,176.0
EPLB 060000Z 05002KT CAVOK 11/08 Q1021,EPLB,2023-06-06T00:00:00Z,51.23,22.72,11.0,8.0,50,2,,6.21,30.147638,,,,,,,,,,,CAVOK,,,,,,,,VFR,,,,,,,,,,,,METAR,206.0
EPKT 060000Z 09007KT CAVOK 17/06 Q1019,EPKT,2023-06-06T00:00:00Z,50.47,19.08,17.0,6.0,90,7,,6.21,30.088583,,,,,,,,,,,CAVOK,,,,,,,,VFR,,,,,,,,,,,,METAR,296.0
EPKK 060000Z 03009KT CAVOK 17/07 Q1019,EPKK,2023-06-06T00:00:00Z,50.07,19.8,17.0,7.0,30,9,,6.21,30.088583,,,,,,,,,,,CAVOK,,,,,,,,VFR,,,,,,,,,,,,METAR,237.0
EPGD 060000Z VRB02KT CAVOK 09/08 Q1021,EPGD,2023-06-06T00:00:00Z,54.37,18.47,9.0,8.0,0,2,,6.21,30.147638,,,,,,,,,,,CAVOK,,,,,,,,VFR,,,,,,,,,,,,METAR,136.0
EPBY 060000Z VRB01KT CAVOK 10/04 Q1020,EPBY,2023-06-06T00:00:00Z,53.1,18.0,10.0,4.0,0,1,,6.21,30.11811,,,,,,,,,,,CAVOK,,,,,,,,VFR,,,,,,,,,,,,METAR,66.0
EIDW 060000Z 04007KT 9999 FEW020 12/10 Q1025 NOSIG,EIDW,2023-06-06T00:00:00Z,53.42,-6.28,12.0,10.0,40,7,,6.21,30.265747,,,,,,TRUE,,,,,FEW,2000,,,,,,,VFR,,,,,,,,,,,,METAR,75.0
EICK 060000Z 03006KT 9999 FEW040 12/10 Q1024 NOSIG,EICK,2023-06-06T00:00:00Z,51.85,-8.47,12.0,10.0,30,6,,6.21,30.236221,,,,,,TRUE,,,,,FEW,4000,,,,,,,VFR,,,,,,,,,,,,METAR,158.0
DIAP 060000Z 23009KT 8000 FEW011 BKN030 28/26 Q1014 RETS NOSIG,DIAP,2023-06-06T00:00:00Z,5.25,-3.92,28.0,26.0,230,9,,4.97,29.940945,,,,,,TRUE,,,,,FEW,1100,BKN,3000,,,,,MVFR,,,,,,,,,,,,METAR,4.0
BKPR 060000Z 29002KT 9999 BKN090 16/15 Q1018 NOSIG,BKPR,2023-06-06T00:00:00Z,42.58,21.03,16.0,15.0,290,2,,6.21,30.059055,,,,,,TRUE,,,,,BKN,9000,,,,,,,VFR,,,,,,,,,,,,METAR,545.0
BIRK 060000Z 28007KT 9999 FEW008 BKN024 OVC036 07/05 Q1024,BIRK,2023-06-06T00:00:00Z,64.13,-21.93,7.0,5.0,280,7,,6.21,30.236221,,,,,,,,,,,FEW,800,BKN,2400,OVC,3600,,,MVFR,,,,,,,,,,,,METAR,12.0
BIKF 060000Z 24009KT 5000 -DZ BR OVC017 06/05 Q1024 R98/ -9.,BIKF,2023-06-06T00:00:00Z,63.98,-22.6,6.0,5.0,240,9,,3.11,30.236221,,,,,,,,,,-DZ BR,OVC,1700,,,,,,,MVFR,,,,,,,,,,,,METAR,49.0
BIEG 060000Z 01007KT 9999 OVC025 07/03 Q1022,BIEG,2023-06-06T00:00:00Z,65.27,-14.4,7.0,3.0,10,7,,6.21,30.177166,,,,,,,,,,,OVC,2500,,,,,,,MVFR,,,,,,,,,,,,METAR,20.0
BIAR 060000Z 32004KT 270V350 CAVOK 06/03 Q1022,BIAR,2023-06-06T00:00:00Z,65.67,-18.07,6.0,3.0,320,4,,6.21,30.177166,,,,,,,,,,,CAVOK,,,,,,,,VFR,,,,,,,,,,,,METAR,1.0
AFPM Christmas Island Stati,AFPM,2023-06-06T00:00:00Z,,,,,,,,,,,,,,,,,,,,,,,,,,,,,,,,,,,,,,,,METAR,
AFAM Christmas Island Station <plch@m,AFAM,2023-06-06T00:00:00Z,,,,,,,,,,,,,,,,,,,,,,,,,,,,,,,,,,,,,,,,METAR,
RODE 052359Z AUTO A2985 RMK AO2 SLPNO 52003 PWINO TSNO $,RODE,2023-06-05T23:59:00Z,26.72,127.77,,,,,,,29.84941,,,TRUE,TRUE,TRUE,,TRUE,,TRUE,,,,,,,,,,,0.3,,,,,,,,,,,METAR,69.0
OPKC 052359Z 24008KT 5000 FU SCT020 29/25 Q1004 NOSIG,OPKC,2023-06-05T23:59:00Z,24.9,67.13,29.0,25.0,240,8,,3.11,29.64567,,,,,,TRUE,,,,FU,SCT,2000,,,,,,,MVFR,,,,,,,,,,,,METAR,20.0
MUCF 052359Z AUTO 23005KT 29/22 Q1011,MUCF,2023-06-05T23:59:00Z,22.15,-80.4,29.0,22.0,230,5,,,29.852362,,,TRUE,,,,,,,,,,,,,,,,,,,,,,,,,,,,METAR,35.0
MTPP 052359Z AUTO 12012KT 9000 ////// 30/25 Q1012 A2989 NOSIG,MTPP,2023-06-05T23:59:00Z,18.57,-72.3,30.0,25.0,120,12,,5.59,29.88189,,,TRUE,,,TRUE,,,,,,,,,,,,,,,,,,,,,,,,,METAR,36.0
KNOZ 052359Z AUTO 15020G27KT 9SM CLR 36/01 A2965 RMK AO2 PK WND 14029/2305 SLP990 T03560011 10367 20333 58010,KNOZ,2023-06-05T23:59:00Z,32.53,-114.5,35.6,1.1,150,20,27,9.0,29.648623,999.0,,TRUE,TRUE,,,,,,,CLR,,,,,,,,VFR,-1.0,36.7,33.3,,,,,,,,,METAR,78.0
KNGU 052359Z 00000KT 10SM SCT250 21/12 A2990 RMK AO2 SLP126 T02110117 10233 20211 53001 $,KNGU,2023-06-05T23:59:00Z,36.93,-76.27,21.1,11.7,0,0,,10.0,29.899607,1012.6,,,TRUE,TRUE,,,,,,SCT,25000,,,,,,,VFR,0.1,23.3,21.1,,,,,,,,,METAR,3.0
K2V6 052359Z AUTO 18012KT 10SM 23/M03 A3012 RMK AO2,K2V6,2023-06-05T23:59:00Z,40.1,-102.72,23.0,-3.0,180,12,,10.0,30.121063,,,TRUE,TRUE,,,,,,,,,,,,,,,,,,,,,,,,,,,METAR,1257.0
PKMR 052358Z 11006KT 15SM FEW014 SCT055 BKN110 OVC300 30/26 A2983 RMK SLP103 60003 8/837 T02960257 10296 20264 55000 ,PKMR,2023-06-05T23:58:00Z,7.08,171.38,29.6,25.7,110,6,,15.0,29.828741,1010.3,,,,,,,,,,FEW,1400,SCT,5500,BKN,11000,OVC,30000,VFR,0.0,29.6,26.4,,,,,0.03,,,,METAR,7.0
PAKU 052358Z 08004KT 10SM R06/P6000FT SCT110 12/01 A3013,PAKU,2023-06-05T23:58:00Z,70.32,-149.6,12.0,1.0,80,4,,10.0,30.129921,,,,,,,,,,,SCT,11000,,,,,,,VFR,,,,,,,,,,,,METAR,23.0
MMQT 052358Z RTD 04018KT 12SM BKN020TCU 26/10 A3010 RMK 8/200,MMQT,2023-06-05T23:58:00Z,20.62,-100.18,26.0,10.0,40,18,,12.0,30.100393,,,,,,,,,,,BKN,2000,,,,,,,MVFR,,,,,,,,,,,,METAR,1909.0
KSFY 052358Z AUTO 36005KT 10SM CLR 29/06 A3000 RMK AO2,KSFY,2023-06-05T23:58:00Z,42.05,-90.12,29.0,6.0,360,5,,10.0,30.0,,,TRUE,TRUE,,,,,,,CLR,,,,,,,,VFR,,,,,,,,,,,,METAR,188.0
KROG 052358Z 06010KT 10SM FEW075 28/16 A2997 RMK AO2 SLP134 T02830161 10317 20278 56001,KROG,2023-06-05T23:58:00Z,36.37,-94.1,28.3,16.1,60,10,,10.0,29.970472,1013.4,,,TRUE,,,,,,,FEW,7500,,,,,,,VFR,-0.1,31.7,27.8,,,,,,,,,METAR,407.0
KQOA 052358Z 31004KT 9000 FU FEW140 SCT240 29/21 A2983 RMK AO2A SLP061 T02930207 10310 20268 55009,KQOA,2023-06-05T23:58:00Z,,,29.3,20.7,310,4,,5.59,29.828741,1006.1,,,TRUE,,,,,,FU,FEW,14000,SCT,24000,,,,,VFR,-0.9,31.0,26.8,,,,,,,,,METAR,
KPRN 052358Z AUTO 16004KT 10SM SCT050 BKN065 26/17 A2990 RMK AO2 SLP073 T02610172 10294 20261 53004,KPRN,2023-06-05T23:58:00Z,31.85,-86.62,26.1,17.2,160,4,,10.0,29.899607,1007.3,,TRUE,TRUE,,,,,,,SCT,5000,BKN,6500,,,,,VFR,0.4,29.4,26.1,,,,,,,,,METAR,137.0
KMRH 052358Z AUTO 22009KT 10SM CLR 21/13 A2991 RMK AO2 SLP129 T02060133 10233 20206 55000,KMRH,2023-06-05T23:58:00Z,34.73,-76.65,20.6,13.3,220,9,,10.0,29.911417,1012.9,,TRUE,TRUE,,,,,,,CLR,,,,,,,,VFR,0.0,23.3,20.6,,,,,,,,,METAR,2.0
KMEI 052358Z 21005KT 10SM VCTS CLR 24/18 A2992 RMK AO2 LTG DSNT NW-E SLP128 60008 T02440178 10306 20233 53011,KMEI,2023-06-05T23:58:00Z,32.33,-88.75,24.4,17.8,210,5,,10.0,29.920275,1012.8,,,TRUE,,,,,,VCTS,CLR,,,,,,,,VFR,1.1,30.6,23.3,,,,,0.08,,,,METAR,90.0
KEUF 052358Z AUTO 00000KT 10SM CLR 26/21 A2993 RMK AO2 SLP130 T02610206 10294 20261 55000,KEUF,2023-06-05T23:58:00Z,31.95,-85.13,26.1,20.6,0,0,,10.0,29.929134,1013.0,,TRUE,TRUE,,,,,,,CLR,,,,,,,,VFR,0.0,29.4,26.1,,,,,,,,,METAR,87.0
KBKF 052358Z 21007KT 10SM VCTS BKN040 BKN070 BKN110 BKN220 15/09 A3017 RMK AO2A SLP172 60000 T01470091 10210 20147 50003,KBKF,2023-06-05T23:58:00Z,39.72,-104.75,14.7,9.1,210,7,,10.0,30.171259,1017.2,,,TRUE,,,,,,VCTS,BKN,4000,BKN,7000,BKN,11000,BKN,22000,VFR,0.3,21.0,14.7,,,,,0.005,,,,METAR,1703.0
K0J4 052358Z AUTO 00000KT 10SM CLR 27/17 A2993 RMK AO2 SLP130 T02720167 10300 20272 55000,K0J4,2023-06-05T23:58:00Z,31.05,-86.32,27.2,16.7,0,0,,10.0,29.929134,1013.0,,TRUE,TRUE,,,,,,,CLR,,,,,,,,VFR,0.0,30.0,27.2,,,,,,,,,METAR,96.0
CYIO 052358Z AUTO 20004KT 9SM BKN020 01/M00 A3017 RMK SLP226,CYIO,2023-06-05T23:58:00Z,72.68,-77.97,1.0,0.0,200,4,,9.0,30.171259,1022.6,,TRUE,,,,,,,,BKN,2000,,,,,,,MVFR,,,,,,,,,,,,SPECI,61.0
SAZB 052357Z 35021G32KT CAVOK 15/M00 Q1012,SAZB,2023-06-05T23:57:00Z,-38.72,-62.17,15.0,0.0,350,21,32,6.21,29.88189,,,,,,,,,,,CAVOK,,,,,,,,VFR,,,,,,,,,,,,METAR,77.0
PHNG 052357Z 07009KT 10SM SCT035 29/21 A3007 RMK AO2 SLP176 T02940206 10300 20278 58009 ,PHNG,2023-06-05T23:57:00Z,21.43,-157.77,29.4,20.6,70,9,,10.0,30.070866,1017.6,,,TRUE,,,,,,,SCT,3500,,,,,,,VFR,-0.9,30.0,27.8,,,,,,,,,METAR,1.0
PADG 052357Z 09007KT 15SM -RA BKN043 OVC060 10/06 A3003,PADG,2023-06-05T23:57:00Z,68.03,-162.9,10.0,6.0,90,7,,15.0,30.029528,,,,,,,,,,-RA,BKN,4300,OVC,6000,,,,,VFR,,,,,,,,,,,,SPECI,296.0
KNYL 052357Z 19013KT 7SM CLR 37/02 A2963 RMK AO2 PK WND 16026/2326 SLP029 T03670022 10372 20339 56012,KNYL,2023-06-05T23:57:00Z,32.65,-114.62,36.7,2.2,190,13,,7.0,29.630905,1002.9,,,TRUE,,,,,,,CLR,,,,,,,,VFR,-1.2,37.2,33.9,,,,,,,,,METAR,58.0
KNJW 052357Z AUTO 17007KT 10SM TS FEW060 23/17 A2996 RMK AO2 SLP057 60002 T02280167 10317 20228 53015 ,KNJW,2023-06-05T23:57:00Z,32.78,-88.82,22.8,16.7,170,7,,10.0,29.958662,1005.7,,TRUE,TRUE,,,,,,TS,FEW,6000,,,,,,,VFR,1.5,31.7,22.8,,,,,0.02,,,,METAR,165.0
KNJM 052357Z AUTO 21007KT 9SM CLR 21/12 A2992 RMK AO2 SLP135 T02110122 10239 20211 53001,KNJM,2023-06-05T23:57:00Z,34.68,-77.02,21.1,12.2,210,7,,9.0,29.920275,1013.5,,TRUE,TRUE,,,,,,,CLR,,,,,,,,VFR,0.1,23.9,21.1,,,,,,,,,METAR,5.0
KMNM 052357Z AUTO 07009KT 6SM HZ CLR 22/14 A3004 RMK AO2 SLP186 6//// T02220144 10250 20222 58007 PNO $,KMNM,2023-06-05T23:57:00Z,45.12,-87.63,22.2,14.4,70,9,,6.0,30.041338,1018.6,,TRUE,TRUE,TRUE,,,,,HZ,CLR,,,,,,,,VFR,-0.7,25.0,22.2,,,,,,,,,METAR,188.0
KIFP 052357Z 19024KT 10SM CLR 38/M10 A2956,KIFP,2023-06-05T23:57:00Z,35.15,-114.57,38.0,-10.0,190,24,,10.0,29.56004,,,,,,,,,,,CLR,,,,,,,,VFR,,,,,,,,,,,,METAR,210.0
KFLG 052357Z AUTO 20013G18KT 10SM CLR 24/M02 A3009 RMK AO2 SLP104 T02391017 10250 20206 56008,KFLG,2023-06-05T23:57:00Z,35.13,-111.67,23.9,-1.7,200,13,18,10.0,30.088583,1010.4,,TRUE,TRUE,,,,,,,CLR,,,,,,,,VFR,-0.8,25.0,20.6,,,,,,,,,METAR,2134.0
KCKC 052357Z AUTO 12004KT 7SM CLR 16/09 A3016 RMK AO2,KCKC,2023-06-05T23:57:00Z,47.83,-90.38,16.0,9.0,120,4,,7.0,30.159449,,,TRUE,TRUE,,,,,,,CLR,,,,,,,,VFR,,,,,,,,,,,,METAR,544.0
KBBB 052357Z AUTO 13003KT 10SM CLR 26/16 A3002 RMK AO2,KBBB,2023-06-05T23:57:00Z,45.32,-95.65,26.0,16.0,130,3,,10.0,30.02067,,,TRUE,TRUE,,,,,,,CLR,,,,,,,,VFR,,,,,,,,,,,,METAR,315.0
KADC 052357Z AUTO 12007KT 10SM CLR 27/17 A3005 RMK AO2 TSNO,KADC,2023-06-05T23:57:00Z,46.45,-95.22,27.0,17.0,120,7,,10.0,30.050198,,,TRUE,TRUE,,,TRUE,,,,CLR,,,,,,,,VFR,,,,,,,,,,,,METAR,416.0
EHKD 052357Z AUTO 02007KT 350V070 9999 FEW017 11/08 Q1023 BLU,EHKD,2023-06-05T23:57:00Z,52.92,4.77,11.0,8.0,20,7,,6.21,30.206694,,,TRUE,,,,,,,,FEW,1700,,,,,,,VFR,,,,,,,,,,,,SPECI,1.0
TJSJ 052356Z 15006KT 10SM CLR 29/23 A2997 RMK AO2 SLP149 T02940228 10344 20294 53013,TJSJ,2023-06-05T23:56:00Z,18.43,-66.02,29.4,22.8,150,6,,10.0,29.970472,1014.9,,,TRUE,,,,,,,CLR,,,,,,,,VFR,1.3,34.4,29.4,,,,,,,,,METAR,3.0
ROTM 052356Z 12012KT 9999 FEW020 FEW080 27/22 A2985 RMK SLP094 T02670217 10267 20228 51002,ROTM,2023-06-05T23:56:00Z,26.27,127.75,26.7,21.7,120,12,,6.21,29.84941,1009.4,,,,,,,,,,FEW,2000,FEW,8000,,,,,VFR,0.2,26.7,22.8,,,,,,,,,METAR,80.0
RJOI 052356Z 18006KT 5SM -RA BR FEW035 BKN080 OVC120 20/18 A2983 RMK AO2 SLP101 P0002 60003 T02000178 10211 20200 50001,RJOI,2023-06-05T23:56:00Z,34.13,132.23,20.0,17.8,180,6,,5.0,29.828741,1010.1,,,TRUE,,,,,,-RA BR,FEW,3500,BKN,8000,OVC,12000,,,MVFR,0.1,21.1,20.0,,,0.02,,0.03,,,,METAR,2.0
PPIZ 052356Z AUTO 31007KT 10SM CLR 06/02 A3007 RMK AO2 SLP185 T00560022 10061 20028 55000,PPIZ,2023-06-05T23:56:00Z,69.73,-163.0,5.6,2.2,310,7,,10.0,30.070866,1018.5,,TRUE,TRUE,,,,,,,CLR,,,,,,,,VFR,0.0,6.1,2.8,,,,,,,,,METAR,5.0
PMDY 052356Z AUTO 10SM SCT015 26/22 A3023 RMK AO2 SLP238 T02610217 10267 20233 58003 TSNO $,PMDY,2023-06-05T23:56:00Z,28.22,-177.37,26.1,21.7,,,,10.0,30.230314,1023.8,,TRUE,TRUE,TRUE,,TRUE,,,,SCT,1500,,,,,,,VFR,-0.3,26.7,23.3,,,,,,,,,METAR,6.0
PHNY 052356Z AUTO 04013KT 10SM BKN050 25/19 A3013 RMK AO2 SLP183 60000 T02500189 10250 20217 58006,PHNY,2023-06-05T23:56:00Z,20.77,-156.95,25.0,18.9,40,13,,10.0,30.129921,1018.3,,TRUE,TRUE,,,,,,,BKN,5000,,,,,,,VFR,-0.6,25.0,21.7,,,,,0.005,,,,METAR,395.0
PGUA 052356Z 03005KT 10SM SCT009 BKN050 BKN100 27/24 A2992 RMK SLPNO WND DATA/ALSTG ESTMD 10270 20240,PGUA,2023-06-05T23:56:00Z,13.57,144.92,27.0,24.0,30,5,,10.0,29.920275,,,,,,,,,,,SCT,900,BKN,5000,BKN,10000,,,VFR,,27.0,24.0,,,,,,,,,METAR,159.0
PFWS 052356Z AUTO 10021G28KT 10SM OVC055 12/06 A2966 RMK AO2 PK WND 10031/2259 SLP086 60000 T01220056 10133 20100 53000,PFWS,2023-06-05T23:56:00Z,58.7,-157.0,12.2,5.6,100,21,28,10.0,29.660433,1008.6,,TRUE,TRUE,,,,,,,OVC,5500,,,,,,,VFR,0.0,13.3,10.0,,,,,0.005,,,,METAR,40.0
PFSH 052356Z AUTO 03010G19KT 10SM OVC060 16/07 A2987 RMK AO2 SLP116 T01560067 10156 20094 56026,PFSH,2023-06-05T23:56:00Z,64.37,-161.22,15.6,6.7,30,10,19,10.0,29.870079,1011.6,,TRUE,TRUE,,,,,,,OVC,6000,,,,,,,VFR,-2.6,15.6,9.4,,,,,,,,,METAR,6.0
PFNO 052356Z AUTO 12008KT 10SM OVC060 18/04 A2999 RMK AO2 SLP238 T01780044 10178 20128 57016 $,PFNO,2023-06-05T23:56:00Z,66.82,-161.02,17.8,4.4,120,8,,10.0,29.991142,1023.8,,TRUE,TRUE,TRUE,,,,,,OVC,6000,,,,,,,VFR,-1.6,17.8,12.8,,,,,,,,,METAR,14.0
PFKW 052356Z AUTO 08016G21KT 10SM OVC080 13/07 A2969 RMK AO2 RAE51 SLP055 P0000 60001 T01330067 10133 20089 58021,PFKW,2023-06-05T23:56:00Z,60.8,-161.43,13.3,6.7,80,16,21,10.0,29.68996,1005.5,,TRUE,TRUE,,,,,,,OVC,8000,,,,,,,VFR,-2.1,13.3,8.9,,,0.005,,0.01,,,,METAR,4.0
PFKT 052356Z AUTO 14010KT 10SM 15/04 A2992 RMK AO2 SLP132 T01500044 10156 20072 56014 $,PFKT,2023-06-05T23:56:00Z,65.33,-166.47,15.0,4.4,140,10,,10.0,29.920275,1013.2,,TRUE,TRUE,TRUE,,,,,,,,,,,,,,,-1.4,15.6,7.2,,,,,,,,,METAR,8.0
PFEL 052356Z AUTO 05010KT 10SM OVC055 14/06 A2990 RMK AO2 SLP125 60000 T01440061 10150 20100 58020,PFEL,2023-06-05T23:56:00Z,64.62,-162.27,14.4,6.1,50,10,,10.0,29.899607,1012.5,,TRUE,TRUE,,,,,,,OVC,5500,,,,,,,VFR,-2.0,15.0,10.0,,,,,0.005,,,,METAR,50.0
PFCL 052356Z AUTO 11016G22KT 10SM -RA SCT021 BKN035 OVC043 11/08 A2965 RMK AO2 RAB36 SLP033 P0000 60001 T01110083 10117 20078 58005 TSNO,PFCL,2023-06-05T23:56:00Z,58.83,-158.53,11.1,8.3,110,16,22,10.0,29.648623,1003.3,,TRUE,TRUE,,,TRUE,,,-RA,SCT,2100,BKN,3500,OVC,4300,,,VFR,-0.5,11.7,7.8,,,0.005,,0.01,,,,METAR,23.0
PAZK 052356Z AUTO 00000KT 10SM CLR 16/M01 A2995 RMK AO2 SLP164 T01611006 10172 20117 56015,PAZK,2023-06-05T23:56:00Z,61.93,-147.17,16.1,-0.6,0,0,,10.0,29.949802,1016.4,,TRUE,TRUE,,,,,,,CLR,,,,,,,,VFR,-1.5,17.2,11.7,,,,,,,,,METAR,1002.0
PAWS 052356Z AUTO 15008KT 10SM FEW085 21/06 A2994 RMK AO2 SLP141 T02110061 10217 20150 56017,PAWS,2023-06-05T23:56:00Z,61.57,-149.53,21.1,6.1,150,8,,10.0,29.940945,1014.1,,TRUE,TRUE,,,,,,,FEW,8500,,,,,,,VFR,-1.7,21.7,15.0,,,,,,,,,METAR,102.0
PAWN 052356Z AUTO 11006KT 10SM FEW085 15/05 RMK AO2 RAB04E19 SLPNO P0000 60000 T01500050 10150 20106 $,PAWN,2023-06-05T23:56:00Z,67.57,-162.98,15.0,5.0,110,6,,10.0,,,,TRUE,TRUE,TRUE,,,,,,FEW,8500,,,,,,,VFR,,15.0,10.6,,,0.005,,0.005,,,,METAR,26.0
PAWM 052356Z AUTO 11009KT 7SM OVC050 15/04 A2990 RMK AO2 SLP129 T01500044 10150 20111 56017,PAWM,2023-06-05T23:56:00Z,64.68,-163.42,15.0,4.4,110,9,,7.0,29.899607,1012.9,,TRUE,TRUE,,,,,,,OVC,5000,,,,,,,VFR,-1.7,15.0,11.1,,,,,,,,,METAR,80.0
PAVD 052356Z 26011KT 10SM FEW250 17/06 RMK AO2 SLPNO A3014 6//// T01670061 10167 20122 $,PAVD,2023-06-05T23:56:00Z,61.13,-146.25,16.7,6.1,260,11,,10.0,,,,,TRUE,TRUE,,,,,,FEW,25000,,,,,,,VFR,,16.7,12.2,,,,,,,,,METAR,21.0
PAVC 052356Z AUTO 25017G20KT 10SM -RA OVC021 07/07 A2950 RMK AO2 SLP989 6//// T00720067 10083 20067 53008 PNO $,PAVC,2023-06-05T23:56:00Z,55.12,-162.27,7.2,6.7,250,17,20,10.0,29.500984,998.9,,TRUE,TRUE,TRUE,,,,,-RA,OVC,2100,,,,,,,MVFR,0.8,8.3,6.7,,,,,,,,,METAR,48.0
PAUN 052356Z AUTO 10010KT 10SM OVC050 17/07 A2986 RMK AO2 SLP116 6//// T01670067 10172 20122 56020 PNO $,PAUN,2023-06-05T23:56:00Z,63.88,-160.8,16.7,6.7,100,10,,10.0,29.861221,1011.6,,TRUE,TRUE,TRUE,,,,,,OVC,5000,,,,,,,VFR,-2.0,17.2,12.2,,,,,,,,,METAR,4.0
PATQ 052356Z AUTO 30009KT 10SM FEW080 10/02 A3008 RMK AO2 SLP188 T01000022 10111 20067 50000 TSNO,PATQ,2023-06-05T23:56:00Z,70.47,-157.43,10.0,2.2,300,9,,10.0,30.079725,1018.8,,TRUE,TRUE,,,TRUE,,,,FEW,8000,,,,,,,VFR,0.0,11.1,6.7,,,,,,,,,METAR,28.0
PATG 052356Z AUTO 05014G21KT 10SM -RA BKN028 OVC033 10/07 A2964 RMK AO2 RAE08B48 SLP036 P0000 60002 T01000072 10111 20089 56012,PATG,2023-06-05T23:56:00Z,59.05,-160.38,10.0,7.2,50,14,21,10.0,29.639763,1003.6,,TRUE,TRUE,,,,,,-RA,BKN,2800,OVC,3300,,,,,MVFR,-1.2,11.1,8.9,,,0.005,,0.02,,,,METAR,1.0
PATE 052356Z AUTO 13012G17KT 10SM FEW065 16/05 A2991 RMK AO2 SLP131 T01560050 10156 20089 56012,PATE,2023-06-05T23:56:00Z,65.23,-166.33,15.6,5.0,130,12,17,10.0,29.911417,1013.1,,TRUE,TRUE,,,,,,,FEW,6500,,,,,,,VFR,-1.2,15.6,8.9,,,,,,,,,METAR,93.0
PASX 052356Z AUTO VRB05G25KT 10SM CLR 20/03 A2995 RMK AO2 SLP147 T02000028 10211 20133 55014,PASX,2023-06-05T23:56:00Z,60.48,-151.05,20.0,2.8,0,5,25,10.0,29.949802,1014.7,,TRUE,TRUE,,,,,,,CLR,,,,,,,,VFR,-1.4,21.1,13.3,,,,,,,,,METAR,28.0
PASM 052356Z AUTO 10017G22KT 10SM FEW075 15/06 A2977 RMK AO2 SLP088 T01500056 10150 20094 58013,PASM,2023-06-05T23:56:00Z,62.07,-163.3,15.0,5.6,100,17,22,10.0,29.769686,1008.8,,TRUE,TRUE,,,,,,,FEW,7500,,,,,,,VFR,-1.3,15.0,9.4,,,,,,,,,METAR,108.0
PASK 052356Z AUTO 07010KT 10SM BKN070 12/03 A3000 RMK AO2 SLP155 T01220033 10144 20072 58018,PASK,2023-06-05T23:56:00Z,66.6,-160.0,12.2,3.3,70,10,,10.0,30.0,1015.5,,TRUE,TRUE,,,,,,,BKN,7000,,,,,,,VFR,-1.8,14.4,7.2,,,,,,,,,METAR,3.0
PASD 052356Z 16009KT 10SM -RA SCT019 BKN023 OVC035 08/06 A2950 RMK AO2 SLP992 6//// T00780056 10083 20067 51011 PNO $,PASD,2023-06-05T23:56:00Z,55.33,-160.52,7.8,5.6,160,9,,10.0,29.500984,999.2,,,TRUE,TRUE,,,,,-RA,SCT,1900,BKN,2300,OVC,3500,,,MVFR,1.1,8.3,6.7,,,,,,,,,METAR,6.0
PARY 052356Z AUTO 05008G15KT 10SM FEW055 18/06 A2990 RMK AO2 SLP131 6//// T01830056 10183 20100 56028 PNO $,PARY,2023-06-05T23:56:00Z,64.73,-155.47,18.3,5.6,50,8,15,10.0,29.899607,1013.1,,TRUE,TRUE,TRUE,,,,,,FEW,5500,,,,,,,VFR,-2.8,18.3,10.0,,,,,,,,,METAR,185.0
PARS 052356Z AUTO 09010G15KT 10SM FEW090 16/06 A2976 RMK AO2 SLP079 T01560056 10161 20094 58023 $,PARS,2023-06-05T23:56:00Z,61.77,-161.32,15.6,5.6,90,10,15,10.0,29.760826,1007.9,,TRUE,TRUE,TRUE,,,,,,FEW,9000,,,,,,,VFR,-2.3,16.1,9.4,,,,,,,,,METAR,15.0
PARC 052356Z AUTO 10SM FEW080 14/00 A3003 RMK AO2 SLP198 T01440000 10156 20100 56015 $,PARC,2023-06-05T23:56:00Z,68.12,-145.58,14.4,0.0,,,,10.0,30.029528,1019.8,,TRUE,TRUE,TRUE,,,,,,FEW,8000,,,,,,,VFR,-1.5,15.6,10.0,,,,,,,,,METAR,626.0
PAPO 052356Z AUTO 10004KT 10SM CLR 09/01 A3004 RMK AO2 SLP172 6//// T00940006 10100 20017 56004 PNO $,PAPO,2023-06-05T23:56:00Z,68.35,-166.8,9.4,0.6,100,4,,10.0,30.041338,1017.2,,TRUE,TRUE,TRUE,,,,,,CLR,,,,,,,,VFR,-0.4,10.0,1.7,,,,,,,,,METAR,4.0
PAPM 052356Z AUTO 08020KT 10SM OVC028 11/07 A2958 RMK AO2 PK WND 07031/2333 RAE08 SLP020 P0000 60001 T01060067 10111 20078 56018,PAPM,2023-06-05T23:56:00Z,59.02,-161.82,10.6,6.7,80,20,,10.0,29.58071,1002.0,,TRUE,TRUE,,,,,,,OVC,2800,,,,,,,MVFR,-1.8,11.1,7.8,,,0.005,,0.01,,,,METAR,4.0
PAPH 052356Z AUTO 13022G28KT 10SM OVC018 10/06 A2953 RMK AO2 PK WND 14034/2336 SLP000 60000 T01000061 10122 20089 53020,PAPH,2023-06-05T23:56:00Z,56.95,-158.62,10.0,6.1,130,22,28,10.0,29.530512,1000.0,,TRUE,TRUE,,,,,,,OVC,1800,,,,,,,MVFR,2.0,12.2,8.9,,,,,0.005,,,,METAR,29.0
PAPG 052356Z 24005KT 10SM SCT031 BKN041 13/06 A3028 RMK AO2 SLP258 60000 T01280061 10128 20106 51012,PAPG,2023-06-05T23:56:00Z,56.82,-132.93,12.8,6.1,240,5,,10.0,30.280512,1025.8,,,TRUE,,,,,,,SCT,3100,BKN,4100,,,,,VFR,1.2,12.8,10.6,,,,,0.005,,,,METAR,24.0
PAOU 052356Z AUTO 21018KT 10SM SCT012 BKN044 OVC055 07/06 A2945 RMK AO2 RAE56 SLP970 6//// T00720056 10078 20056 53002 PNO $,PAOU,2023-06-05T23:56:00Z,56.0,-161.17,7.2,5.6,210,18,,10.0,29.450787,997.0,,TRUE,TRUE,TRUE,,,,,,SCT,1200,BKN,4400,OVC,5500,,,VFR,0.2,7.8,5.6,,,,,,,,,METAR,3.0
PAOH 052356Z AUTO 22012G20KT 10SM SCT036 OVC045 14/05 A3020 RMK AO2 SLP227 6//// T01390050 10161 20128 51018 PNO $,PAOH,2023-06-05T23:56:00Z,58.1,-135.45,13.9,5.0,220,12,20,10.0,30.200787,1022.7,,TRUE,TRUE,TRUE,,,,,,SCT,3600,OVC,4500,,,,,VFR,1.8,16.1,12.8,,,,,,,,,METAR,0.0
PANW 052356Z AUTO 09020G28KT 10SM -RA FEW013 OVC060 08/07 A2973 RMK AO2 PK WND 10035/2321 RAE2257B36 SLP074 P0000 60001 T00830067 10089 20078 58002,PANW,2023-06-05T23:56:00Z,59.45,-157.32,8.3,6.7,90,20,28,10.0,29.731298,1007.4,,TRUE,TRUE,,,,,,-RA,FEW,1300,OVC,6000,,,,,VFR,-0.2,8.9,7.8,,,0.005,,0.01,,,,METAR,100.0
PANV 052356Z AUTO 09011KT 10SM 18/06 A2979 RMK AO2 SLP145 T01780056 10178 20094 57025 TSNO $,PANV,2023-06-05T23:56:00Z,62.65,-160.18,17.8,5.6,90,11,,10.0,29.790354,1014.5,,TRUE,TRUE,TRUE,,TRUE,,,,,,,,,,,,,-2.5,17.8,9.4,,,,,,,,,METAR,91.0
PAMY 052356Z AUTO 06008KT 10SM OVC029 09/06 A2969 RMK AO2 SLP051 60000 T00890056 10089 20050 56020,PAMY,2023-06-05T23:56:00Z,60.37,-166.27,8.9,5.6,60,8,,10.0,29.68996,1005.1,,TRUE,TRUE,,,,,,,OVC,2900,,,,,,,MVFR,-2.0,8.9,5.0,,,,,0.005,,,,METAR,14.0
PAMO 052356Z AUTO 12015G20KT 10SM CLR 14/06 A2977 RMK AO2 SLP085 T01390056 10144 20100 58013,PAMO,2023-06-05T23:56:00Z,62.1,-163.68,13.9,5.6,120,15,20,10.0,29.769686,1008.5,,TRUE,TRUE,,,,,,,CLR,,,,,,,,VFR,-1.3,14.4,10.0,,,,,,,,,METAR,93.0
PAMM 052356Z AUTO 21011G16KT 10SM OVC055 12/07 A3036 RMK AO2 SLP376 T01170072 10128 20106 51003 $,PAMM,2023-06-05T23:56:00Z,55.13,-131.58,11.7,7.2,210,11,16,10.0,30.360237,1037.6,,TRUE,TRUE,TRUE,,,,,,OVC,5500,,,,,,,VFR,0.3,12.8,10.6,,,,,,,,,METAR,0.0
PAMK 052356Z AUTO 04013KT 10SM FEW055 12/04 A2984 RMK AO2 SLP106 T01170044 10117 20072 56023,PAMK,2023-06-05T23:56:00Z,63.48,-162.12,11.7,4.4,40,13,,10.0,29.840551,1010.6,,TRUE,TRUE,,,,,,,FEW,5500,,,,,,,VFR,-2.3,11.7,7.2,,,,,,,,,METAR,31.0
PAMH 052356Z AUTO VRB03KT 10SM CLR 21/03 A2988 RMK AO2 SLP115 T02110033 10217 20150 56021,PAMH,2023-06-05T23:56:00Z,63.9,-152.28,21.1,3.3,0,3,,10.0,29.878937,1011.5,,TRUE,TRUE,,,,,,,CLR,,,,,,,,VFR,-2.1,21.7,15.0,,,,,,,,,METAR,200.0
PAMB 052356Z AUTO 07016G25KT 8SM OVC024 10/07 A2966 RMK AO2 SLP045 60004 T01000072 10106 20072 58008 $,PAMB,2023-06-05T23:56:00Z,58.98,-159.05,10.0,7.2,70,16,25,8.0,29.660433,1004.5,,TRUE,TRUE,TRUE,,,,,,OVC,2400,,,,,,,MVFR,-0.8,10.6,7.2,,,,,0.04,,,,METAR,28.0
PALG 052356Z AUTO 09010G17KT 10SM FEW060 BKN095 17/05 A2974 RMK AO2 SLP074 60000 T01670050 10172 20100 56026,PALG,2023-06-05T23:56:00Z,61.53,-160.33,16.7,5.0,90,10,17,10.0,29.740158,1007.4,,TRUE,TRUE,,,,,,,FEW,6000,BKN,9500,,,,,VFR,-2.6,17.2,10.0,,,,,0.005,,,,METAR,13.0
PAKP 052356Z AUTO 09003KT 10SM CLR 12/M03 A3004 RMK AO2 SLP202 T01221028 10128 20083 58014,PAKP,2023-06-05T23:56:00Z,68.13,-151.73,12.2,-2.8,90,3,,10.0,30.041338,1020.2,,TRUE,TRUE,,,,,,,CLR,,,,,,,,VFR,-1.4,12.8,8.3,,,,,,,,,METAR,649.0
PAKI 052356Z AUTO 10SM BKN050 OVC060 11/08 A2965 RMK AO2 RAB07E20 SLP042 P0000 60000 T01060078 10111 20083 58020 $,PAKI,2023-06-05T23:56:00Z,59.93,-164.03,10.6,7.8,,,,10.0,29.648623,1004.2,,TRUE,TRUE,TRUE,,,,,,BKN,5000,OVC,6000,,,,,VFR,-2.0,11.1,8.3,,,0.005,,0.005,,,,METAR,4.0
PAKH 052356Z AUTO 9SM OVC008 07/07 A2976 RMK AO2 CIG 006V011 SLP077 60000 T00720067 10083 20072 53007 TSNO $,PAKH,2023-06-05T23:56:00Z,56.93,-154.18,7.2,6.7,,,,9.0,29.760826,1007.7,,TRUE,TRUE,TRUE,,TRUE,,,,OVC,800,,,,,,,IFR,0.7,8.3,7.2,,,,,0.005,,,,METAR,15.0
PAKF 052356Z AUTO 03003KT 5SM -RA BR SCT007 OVC018 06/06 A2949 RMK AO2 SLP985 P0000 60000 T00610056 10089 20061 53002,PAKF,2023-06-05T23:56:00Z,54.85,-163.42,6.1,5.6,30,3,,5.0,29.489174,998.5,,TRUE,TRUE,,,,,,-RA BR,SCT,700,OVC,1800,,,,,MVFR,0.2,8.9,6.1,,,0.005,,0.005,,,,METAR,2.0
PAJZ 052356Z AUTO 10026G34KT 9SM -RA FEW019 OVC070 09/06 A2982 RMK AO2 PK WND 09040/2320 SLP106 P0001 60001 T00940061 10106 20089 56008 $,PAJZ,2023-06-05T23:56:00Z,59.73,-157.27,9.4,6.1,100,26,34,9.0,29.819881,1010.6,,TRUE,TRUE,TRUE,,,,,-RA,FEW,1900,OVC,7000,,,,,VFR,-0.8,10.6,8.9,,,0.01,,0.01,,,,METAR,80.0
PAIN 052356Z AUTO 17006G17KT 10SM CLR 21/01 A2993 RMK AO2 SLP144 6//// T02060006 10206 20144 56015 PNO $,PAIN,2023-06-05T23:56:00Z,63.73,-148.92,20.6,0.6,170,6,17,10.0,29.929134,1014.4,,TRUE,TRUE,TRUE,,,,,,CLR,,,,,,,,VFR,-1.5,20.6,14.4,,,,,,,,,METAR,525.0
PAIK 052356Z AUTO 08010KT 10SM OVC060 16/03 A3002 RMK AO2 SLP166 T01560028 10161 20111 57015,PAIK,2023-06-05T23:56:00Z,66.98,-160.43,15.6,2.8,80,10,,10.0,30.02067,1016.6,,TRUE,TRUE,,,,,,,OVC,6000,,,,,,,VFR,-1.5,16.1,11.1,,,,,,,,,METAR,49.0
PAIG 052356Z AUTO 09021G32KT 10SM FEW024 SCT120 11/06 A2976 RMK AO2 PK WND 08035/2310 SLP085 T01110061 10117 20072 58013 $,PAIG,2023-06-05T23:56:00Z,59.32,-155.9,11.1,6.1,90,21,32,10.0,29.760826,1008.5,,TRUE,TRUE,TRUE,,,,,,FEW,2400,SCT,12000,,,,,VFR,-1.3,11.7,7.2,,,,,,,,,METAR,24.0
PAHY 052356Z AUTO 23006KT 10SM SCT026 OVC043 12/07 A3033 RMK AO2 SLP269 T01170067 10117 20094 57001 $,PAHY,2023-06-05T23:56:00Z,55.2,-132.83,11.7,6.7,230,6,,10.0,30.33071,1026.9,,TRUE,TRUE,TRUE,,,,,,SCT,2600,OVC,4300,,,,,VFR,-0.1,11.7,9.4,,,,,,,,,METAR,0.0
PAHL 052356Z AUTO 07007KT 10SM OVC100 18/05 A2996 RMK AO2 SLP147 T01830050 10183 20111 58021,PAHL,2023-06-05T23:56:00Z,65.7,-156.35,18.3,5.0,70,7,,10.0,29.958662,1014.7,,TRUE,TRUE,,,,,,,OVC,10000,,,,,,,VFR,-2.1,18.3,11.1,,,,,,,,,METAR,49.0
PAHC 052356Z AUTO 04005KT 10SM BKN070 BKN080 18/05 A2978 RMK AO2 SLP089 T01830050 10189 20106 58024,PAHC,2023-06-05T23:56:00Z,62.18,-159.78,18.3,5.0,40,5,,10.0,29.778543,1008.9,,TRUE,TRUE,,,,,,,BKN,7000,BKN,8000,,,,,VFR,-2.4,18.9,10.6,,,,,,,,,METAR,21.0
PAGS 052356Z AUTO 24010G15KT 10SM BKN022 BKN027 OVC042 10/07 A3022 RMK AO2 SLP234 T01000067 10106 20089 51017,PAGS,2023-06-05T23:56:00Z,58.42,-135.7,10.0,6.7,240,10,15,10.0,30.221457,1023.4,,TRUE,TRUE,,,,,,,BKN,2200,BKN,2700,OVC,4200,,,MVFR,1.7,10.6,8.9,,,,,,,,,METAR,9.0
PAGN 052356Z AUTO 34003KT 10SM OVC050 11/06 A3026 RMK AO2 SLP236 T01110061 10122 20106 51012,PAGN,2023-06-05T23:56:00Z,57.5,-134.58,11.1,6.1,340,3,,10.0,30.259842,1023.6,,TRUE,TRUE,,,,,,,OVC,5000,,,,,,,VFR,1.2,12.2,10.6,,,,,,,,,METAR,2.0
PAFM 052356Z AUTO VRB03KT 10SM OVC065 16/03 A3004 RMK AO2 SLP176 T01610028 10172 20117 57018,PAFM,2023-06-05T23:56:00Z,67.1,-157.85,16.1,2.8,0,3,,10.0,30.041338,1017.6,,TRUE,TRUE,,,,,,,OVC,6500,,,,,,,VFR,-1.8,17.2,11.7,,,,,,,,,METAR,79.0
PAFE 052356Z AUTO 17007KT 10SM OVC040 13/06 A3029 RMK AO2 SLP268 T01280056 10139 20117 51013 $,PAFE,2023-06-05T23:56:00Z,56.97,-133.92,12.8,5.6,170,7,,10.0,30.28937,1026.8,,TRUE,TRUE,TRUE,,,,,,OVC,4000,,,,,,,VFR,1.3,13.9,11.7,,,,,,,,,METAR,1.0
PADU 052356Z 00000KT 10SM FEW008 BKN015 OVC032 09/06 A2952 RMK AO2 SLP998 T00890056 10094 20072 53002 $,PADU,2023-06-05T23:56:00Z,53.9,-166.53,8.9,5.6,0,0,,10.0,29.518702,999.8,,,TRUE,TRUE,,,,,,FEW,800,BKN,1500,OVC,3200,,,MVFR,0.2,9.4,7.2,,,,,,,,,METAR,4.0
PADM 052356Z AUTO 06021G26KT 10SM CLR 16/05 A2979 RMK AO2 PK WND 04028/2346 SLP094 T01610050 10161 20100 58021,PADM,2023-06-05T23:56:00Z,61.87,-162.03,16.1,5.0,60,21,26,10.0,29.790354,1009.4,,TRUE,TRUE,,,,,,,CLR,,,,,,,,VFR,-2.1,16.1,10.0,,,,,,,,,METAR,17.0
PADL 052356Z 07013G18KT 10SM OVC044 11/07 A2968 RMK AO2 RAB33E45 SLP051 P0000 60003 T01060072 10106 20078 56008,PADL,2023-06-05T23:56:00Z,59.05,-158.5,10.6,7.2,70,13,18,10.0,29.681103,1005.1,,,TRUE,,,,,,,OVC,4400,,,,,,,VFR,-0.8,10.6,7.8,,,0.005,,0.03,,,,METAR,20.0
PADK 052356Z AUTO 22020G24KT OVC011 08/06 A2955 RMK AO2 SLP007 T00780056 10078 20061 50002 PWINO $,PADK,2023-06-05T23:56:00Z,51.88,-176.65,7.8,5.6,220,20,24,,29.551182,1000.7,,TRUE,TRUE,TRUE,,,,TRUE,,OVC,1100,,,,,,,,0.2,7.8,6.1,,,,,,,,,METAR,3.0
PACM 052356Z AUTO 07013KT BKN033 13/06 A2978 RMK AO2 SLP081 T01280061 10128 20089 56016 PWINO $,PACM,2023-06-05T23:56:00Z,61.85,-165.57,12.8,6.1,70,13,,,29.778543,1008.1,,TRUE,TRUE,TRUE,,,,TRUE,,BKN,3300,,,,,,,,-1.6,12.8,8.9,,,,,,,,,METAR,3.0
PABV 052356Z AUTO 00000KT 10SM CLR 20/02 A2994 RMK AO2 SLP144 T02000022 10206 20122 56018,PABV,2023-06-05T23:56:00Z,61.42,-149.52,20.0,2.2,0,0,,10.0,29.940945,1014.4,,TRUE,TRUE,,,,,,,CLR,,,,,,,,VFR,-1.8,20.6,12.2,,,,,,,,,METAR,21.0
PABL 052356Z AUTO 10007KT 10SM BKN055 BKN080 18/05 A2994 RMK AO2 RAE28 SLP142 P0000 60000 T01780050 10178 20133 56019,PABL,2023-06-05T23:56:00Z,65.98,-161.15,17.8,5.0,100,7,,10.0,29.940945,1014.2,,TRUE,TRUE,,,,,,,BKN,5500,BKN,8000,,,,,VFR,-1.9,17.8,13.3,,,0.005,,0.005,,,,METAR,7.0
KYKN 052356Z AUTO 09006KT 10SM SCT100 29/13 A3000 RMK AO2 SLP164 T02940133 10322 20294 56007,KYKN,2023-06-05T23:56:00Z,42.92,-97.37,29.4,13.3,90,6,,10.0,30.0,1016.4,,TRUE,TRUE,,,,,,,SCT,10000,,,,,,,VFR,-0.7,32.2,29.4,,,,,,,,,METAR,388.0
KY50 052356Z AUTO 12003KT 9SM CLR 28/13 A3001 RMK AO2 SLP154 6//// T02830128 10311 20278 56009 $,KY50,2023-06-05T23:56:00Z,44.03,-89.3,28.3,12.8,120,3,,9.0,30.008858,1015.4,,TRUE,TRUE,TRUE,,,,,,CLR,,,,,,,,VFR,-0.9,31.1,27.8,,,,,,,,,METAR,261.0
KWWD 052356Z AUTO 23006KT 10SM SCT090 19/15 A2983 RMK AO2 SLP104 T01940150 10244 20194 56003 $,KWWD,2023-06-05T23:56:00Z,39.02,-74.92,19.4,15.0,230,6,,10.0,29.828741,1010.4,,TRUE,TRUE,TRUE,,,,,,SCT,9000,,,,,,,VFR,-0.3,24.4,19.4,,,,,,,,,METAR,4.0
KWVL 052356Z AUTO 34007KT 10SM FEW028 BKN034 OVC070 13/11 A2973 RMK AO2 SLP094 60000 T01330106 10144 20128 58004,KWVL,2023-06-05T23:56:00Z,44.52,-69.67,13.3,10.6,340,7,,10.0,29.731298,1009.4,,TRUE,TRUE,,,,,,,FEW,2800,BKN,3400,OVC,7000,,,VFR,-0.4,14.4,12.8,,,,,0.005,,,,METAR,87.0
KWMC 052356Z AUTO 09012G20KT 10SM SCT095 27/04 A2990 RMK AO2 LTG DSNT SW SLP088 T02670039 10306 20250 56014,KWMC,2023-06-05T23:56:00Z,40.9,-117.8,26.7,3.9,90,12,20,10.0,29.899607,1008.8,,TRUE,TRUE,,,,,,,SCT,9500,,,,,,,VFR,-1.4,30.6,25.0,,,,,,,,,METAR,1311.0
KWJF 052356Z 27016G27KT 10SM CLR 18/08 A2979 RMK AO2 PK WND 24035/2317 SLP079 T01780078 10294 20167 55001,KWJF,2023-06-05T23:56:00Z,34.73,-118.22,17.8,7.8,270,16,27,10.0,29.790354,1007.9,,,TRUE,,,,,,,CLR,,,,,,,,VFR,-0.1,29.4,16.7,,,,,,,,,METAR,712.0
KVPZ 052356Z AUTO 01005KT 10SM CLR 23/04 A3002 RMK AO2 SLP163 6//// T02330044 10267 20233 56007 PWINO $,KVPZ,2023-06-05T23:56:00Z,41.45,-87.0,23.3,4.4,10,5,,10.0,30.02067,1016.3,,TRUE,TRUE,TRUE,,,,TRUE,,CLR,,,,,,,,VFR,-0.7,26.7,23.3,,,,,,,,,METAR,235.0
KVIS 052356Z AUTO VRB03KT 10SM CLR 30/10 A2970 RMK AO2 SLP062 T03000100 10300 20272 58005,KVIS,2023-06-05T23:56:00Z,36.32,-119.4,30.0,10.0,0,3,,10.0,29.698818,1006.2,,TRUE,TRUE,,,,,,,CLR,,,,,,,,VFR,-0.5,30.0,27.2,,,,,,,,,METAR,92.0
KVBT 052356Z AUTO 05011KT 10SM BKN075 28/17 A2997 RMK AO2 LTG DSNT SW SLP139 T02830172 10317 20283 55002,KVBT,2023-06-05T23:56:00Z,36.35,-94.22,28.3,17.2,50,11,,10.0,29.970472,1013.9,,TRUE,TRUE,,,,,,,BKN,7500,,,,,,,VFR,-0.2,31.7,28.3,,,,,,,,,METAR,390.0
KUKI 052356Z AUTO 00000KT 10SM CLR 31/16 A2971 RMK AO2 SLP053 T03060161 10311 20206 56013,KUKI,2023-06-05T23:56:00Z,39.12,-123.2,30.6,16.1,0,0,,10.0,29.71063,1005.3,,TRUE,TRUE,,,,,,,CLR,,,,,,,,VFR,-1.3,31.1,20.6,,,,,,,,,METAR,183.0
KUDG 052356Z AUTO 23004KT 10SM CLR 24/15 A2993 RMK AO2 SLP133 T02440150 10256 20239 55005,KUDG,2023-06-05T23:56:00Z,34.45,-79.88,24.4,15.0,230,4,,10.0,29.929134,1013.3,,TRUE,TRUE,,,,,,,CLR,,,,,,,,VFR,-0.5,25.6,23.9,,,,,,,,,METAR,57.0
KUCP 052356Z AUTO 36004KT 10SM CLR 19/07 A2998 RMK AO2 SLP166 T01940067 10228 20194 55000,KUCP,2023-06-05T23:56:00Z,41.03,-80.42,19.4,6.7,360,4,,10.0,29.97933,1016.6,,TRUE,TRUE,,,,,,,CLR,,,,,,,,VFR,0.0,22.8,19.4,,,,,,,,,METAR,313.0
KTVF 052356Z AUTO 11010KT 10SM CLR 27/21 A3004 RMK AO2 LTG DSNT SW AND W SLP170 T02670206 10289 20250 56003,KTVF,2023-06-05T23:56:00Z,48.07,-96.17,26.7,20.6,110,10,,10.0,30.041338,1017.0,,TRUE,TRUE,,,,,,,CLR,,,,,,,,VFR,-0.3,28.9,25.0,,,,,,,,,METAR,339.0
KTPH 052356Z AUTO VRB05KT 10SM CLR 26/03 A2989 RMK AO2 SLP048 60000 T02560028 10278 20228 58022,KTPH,2023-06-05T23:56:00Z,38.05,-117.08,25.6,2.8,0,5,,10.0,29.890747,1004.8,,TRUE,TRUE,,,,,,,CLR,,,,,,,,VFR,-2.2,27.8,22.8,,,,,0.005,,,,METAR,1647.0
KSXT 052356Z AUTO 33005KT 10SM CLR 21/07 A2996 RMK AO2 SLP110 T02060067 10250 20189 56005,KSXT,2023-06-05T23:56:00Z,42.6,-123.37,20.6,6.7,330,5,,10.0,29.958662,1011.0,,TRUE,TRUE,,,,,,,CLR,,,,,,,,VFR,-0.5,25.0,18.9,,,,,,,,,METAR,1151.0
KSUE 052356Z AUTO 13003KT 10SM CLR 24/16 A3004 RMK AO2 SLP168 T02390156 10267 20239 58006,KSUE,2023-06-05T23:56:00Z,44.85,-87.42,23.9,15.6,130,3,,10.0,30.041338,1016.8,,TRUE,TRUE,,,,,,,CLR,,,,,,,,VFR,-0.6,26.7,23.9,,,,,,,,,METAR,215.0
KSRC 052356Z AUTO 32003KT 10SM CLR 27/20 A2990 RMK AO2 LTG DSNT E AND S SLP122 60000 T02720200 10344 20272 55004,KSRC,2023-06-05T23:56:00Z,35.22,-91.73,27.2,20.0,320,3,,10.0,29.899607,1012.2,,TRUE,TRUE,,,,,,,CLR,,,,,,,,VFR,-0.4,34.4,27.2,,,,,0.005,,,,METAR,80.0
KSQI 052356Z AUTO 02004KT 10SM CLR 29/07 A3000 RMK AO2 SLP024 T02890072 10300 20256 58012,KSQI,2023-06-05T23:56:00Z,41.75,-89.67,28.9,7.2,20,4,,10.0,30.0,1002.4,,TRUE,TRUE,,,,,,,CLR,,,,,,,,VFR,-1.2,30.0,25.6,,,,,,,,,METAR,196.0
KSPD 052356Z AUTO 19009KT 21/12 A3014 RMK AO1 SLP158 60007 T02060117 10211 20156 56011,KSPD,2023-06-05T23:56:00Z,37.28,-102.62,20.6,11.7,190,9,,,30.138779,1015.8,,TRUE,TRUE,,,,,,,,,,,,,,,,-1.1,21.1,15.6,,,,,0.07,,,,METAR,1340.0
KSOP 052356Z AUTO 27003KT 10SM CLR 22/16 A2993 RMK AO2 SLP137 T02220161 10261 20222 55001,KSOP,2023-06-05T23:56:00Z,35.23,-79.4,22.2,16.1,270,3,,10.0,29.929134,1013.7,,TRUE,TRUE,,,,,,,CLR,,,,,,,,VFR,-0.1,26.1,22.2,,,,,,,,,METAR,135.0
KSMP 052356Z AUTO VRB05KT 10SM CLR 19/02 A3009 RMK AO2 SLP177 T01940022 10200 20139 58011,KSMP,2023-06-05T23:56:00Z,47.28,-121.33,19.4,2.2,0,5,,10.0,30.088583,1017.7,,TRUE,TRUE,,,,,,,CLR,,,,,,,,VFR,-1.1,20.0,13.9,,,,,,,,,METAR,1206.0
KSMN 052356Z AUTO 34006KT 10SM BKN075 22/10 A3000 RMK AO2 LTG DSNT E SLP852 60000 T02170100 10239 20178 56006,KSMN,2023-06-05T23:56:00Z,45.12,-113.87,21.7,10.0,340,6,,10.0,30.0,985.2,,TRUE,TRUE,,,,,,,BKN,7500,,,,,,,VFR,-0.6,23.9,17.8,,,,,0.005,,,,METAR,1228.0
KSLG 052356Z AUTO 36006KT 10SM BKN080 BKN110 30/17 A2994 RMK AO2 LTG DSNT SE AND S SLP127 T03000167 10317 20294 56006,KSLG,2023-06-05T23:56:00Z,36.2,-94.48,30.0,16.7,360,6,,10.0,29.940945,1012.7,,TRUE,TRUE,,,,,,,BKN,8000,BKN,11000,,,,,VFR,-0.6,31.7,29.4,,,,,,,,,METAR,361.0
KSLE 052356Z 01014KT 10SM CLR 29/01 A2990 RMK AO2 SLP123 T02890011 10289 20211 56020 $,KSLE,2023-06-05T23:56:00Z,44.9,-123.0,28.9,1.1,10,14,,10.0,29.899607,1012.3,,,TRUE,TRUE,,,,,,CLR,,,,,,,,VFR,-2.0,28.9,21.1,,,,,,,,,METAR,63.0
KSKX 052356Z AUTO 16008KT 10SM FEW090 15/07 A3024 RMK AO2 LTG DSNT W AND NW SLP205 60001 T01500072 10239 20128 50008,KSKX,2023-06-05T23:56:00Z,36.45,-105.67,15.0,7.2,160,8,,10.0,30.239174,1020.5,,TRUE,TRUE,,,,,,,FEW,9000,,,,,,,VFR,0.8,23.9,12.8,,,,,0.01,,,,METAR,2163.0
KSHV 052356Z 15004KT 10SM FEW065 SCT150 SCT300 31/19 A2985 RMK CB DSNT SE SLPNO,KSHV,2023-06-05T23:56:00Z,32.45,-93.83,31.0,19.0,150,4,,10.0,29.84941,,,,,,,,,,,FEW,6500,SCT,15000,SCT,30000,,,VFR,,,,,,,,,,,,METAR,70.0
KSGU 052356Z AUTO 16011KT 10SM CLR 34/M02 A2970 RMK AO2 SLP019 T03441017 10361 20300 56023,KSGU,2023-06-05T23:56:00Z,37.03,-113.52,34.4,-1.7,160,11,,10.0,29.698818,1001.9,,TRUE,TRUE,,,,,,,CLR,,,,,,,,VFR,-2.3,36.1,30.0,,,,,,,,,METAR,877.0
KSGT 052356Z AUTO 05011KT 10SM BKN100 29/19 A2989 RMK AO2 LTG DSNT NW SLP118 T02890189 10333 20289 53001,KSGT,2023-06-05T23:56:00Z,34.6,-91.57,28.9,18.9,50,11,,10.0,29.890747,1011.8,,TRUE,TRUE,,,,,,,BKN,10000,,,,,,,VFR,0.1,33.3,28.9,,,,,,,,,METAR,67.0
KSGJ 052356Z 02006KT 10SM CLR 23/18 A2996 RMK AO2 SLP143 T02330178 10261 20233 53004 $,KSGJ,2023-06-05T23:56:00Z,29.97,-81.33,23.3,17.8,20,6,,10.0,29.958662,1014.3,,,TRUE,TRUE,,,,,,CLR,,,,,,,,VFR,0.4,26.1,23.3,,,,,,,,,METAR,2.0
KSGH 052356Z AUTO 04007KT 6SM HZ CLR 21/06 A2998 RMK AO2 SLP151 T02110061 10256 20211 55004,KSGH,2023-06-05T23:56:00Z,39.83,-83.83,21.1,6.1,40,7,,6.0,29.97933,1015.1,,TRUE,TRUE,,,,,,HZ,CLR,,,,,,,,VFR,-0.4,25.6,21.1,,,,,,,,,METAR,318.0
KSFZ 052356Z AUTO 00000KT 10SM BKN075 14/12 A2978 RMK AO2 SLP084 60000 T01390117 10172 20139 58005,KSFZ,2023-06-05T23:56:00Z,41.92,-71.5,13.9,11.7,0,0,,10.0,29.778543,1008.4,,TRUE,TRUE,,,,,,,BKN,7500,,,,,,,VFR,-0.5,17.2,13.9,,,,,0.005,,,,METAR,129.0
KSFO 052356Z 21015KT 10SM FEW030 SCT170 BKN200 19/11 A2980 RMK AO2 SLP090 T01940106 10211 20172 53001,KSFO,2023-06-05T23:56:00Z,37.62,-122.37,19.4,10.6,210,15,,10.0,29.799213,1009.0,,,TRUE,,,,,,,FEW,3000,SCT,17000,BKN,20000,,,VFR,0.1,21.1,17.2,,,,,,,,,METAR,2.0
KSFM 052356Z AUTO 36003KT 10SM FEW035 OVC065 14/12 A2976 RMK AO2 SLP082 60000 T01440122 10172 20139 58004,KSFM,2023-06-05T23:56:00Z,43.38,-70.72,14.4,12.2,360,3,,10.0,29.760826,1008.2,,TRUE,TRUE,,,,,,,FEW,3500,OVC,6500,,,,,VFR,-0.4,17.2,13.9,,,,,0.005,,,,METAR,70.0
KSDY 052356Z AUTO 13009KT 10SM CLR 31/16 A2995 RMK AO2 SLP132 T03060161 10317 20289 56018,KSDY,2023-06-05T23:56:00Z,47.7,-104.2,30.6,16.1,130,9,,10.0,29.949802,1013.2,,TRUE,TRUE,,,,,,,CLR,,,,,,,,VFR,-1.8,31.7,28.9,,,,,,,,,METAR,600.0
KSDF 052356Z 03010KT 10SM SCT300 27/13 A2992 RMK AO2 SLP128 T02720133 10306 20272 55001,KSDF,2023-06-05T23:56:00Z,38.18,-85.73,27.2,13.3,30,10,,10.0,29.920275,1012.8,,,TRUE,,,,,,,SCT,30000,,,,,,,VFR,-0.1,30.6,27.2,,,,,,,,,METAR,146.0
KSBP 052356Z 23004KT 10SM OVC014 15/12 A2988 RMK AO2 SLP119 T01500117 10167 20150 53000,KSBP,2023-06-05T23:56:00Z,35.23,-120.63,15.0,11.7,230,4,,10.0,29.878937,1011.9,,,TRUE,,,,,,,OVC,1400,,,,,,,MVFR,0.0,16.7,15.0,,,,,,,,,METAR,52.0
KRUT 052356Z AUTO 33006KT 10SM OVC070 18/06 A2981 RMK AO2 SLP088 T01780061 10200 20178 53002 $,KRUT,2023-06-05T23:56:00Z,43.53,-72.95,17.8,6.1,330,6,,10.0,29.811024,1008.8,,TRUE,TRUE,TRUE,,,,,,OVC,7000,,,,,,,VFR,0.2,20.0,17.8,,,,,,,,,METAR,238.0
KRKD 052356Z AUTO VRB06KT 10SM OVC015 13/11 A2972 RMK AO2 SLP063 60000 T01280106 10128 20122 58009,KRKD,2023-06-05T23:56:00Z,44.07,-69.1,12.8,10.6,0,6,,10.0,29.719488,1006.3,,TRUE,TRUE,,,,,,,OVC,1500,,,,,,,MVFR,-0.9,12.8,12.2,,,,,0.005,,,,METAR,15.0
KRDM 052356Z 36011KT 10SM CLR 29/04 A2994 RMK AO2 LTG DSNT E AND SE SLP112 6//// T02940044 10317 20239 58010 PNO,KRDM,2023-06-05T23:56:00Z,44.25,-121.15,29.4,4.4,360,11,,10.0,29.940945,1011.2,,,TRUE,,,,,,,CLR,,,,,,,,VFR,-1.0,31.7,23.9,,,,,,,,,METAR,930.0
KPWT 052356Z AUTO 04014G18KT 10SM CLR 23/M07 A3007 RMK AO2 SLP184 6//// T02281067 10233 20178 58021,KPWT,2023-06-05T23:56:00Z,47.5,-122.77,22.8,-6.7,40,14,18,10.0,30.070866,1018.4,,TRUE,TRUE,,,,,,,CLR,,,,,,,,VFR,-2.1,23.3,17.8,,,,,,,,,METAR,143.0
KPWG 052356Z AUTO 03007KT 10SM CLR 28/18 A2989 RMK AO2 SLP114 T02830183 10300 20272 55006,KPWG,2023-06-05T23:56:00Z,31.48,-97.32,28.3,18.3,30,7,,10.0,29.890747,1011.4,,TRUE,TRUE,,,,,,,CLR,,,,,,,,VFR,-0.6,30.0,27.2,,,,,,,,,METAR,178.0
KPVU 052356Z 25004KT 10SM FEW110 25/07 A2996 RMK AO2 SLP102 T02500072 10283 20228 58009,KPVU,2023-06-05T23:56:00Z,40.22,-111.72,25.0,7.2,250,4,,10.0,29.958662,1010.2,,,TRUE,,,,,,,FEW,11000,,,,,,,VFR,-0.9,28.3,22.8,,,,,,,,,METAR,1370.0
KPVG 052356Z AUTO 10SM CLR 18/14 A2990 RMK AO2 SLP127 T01830139 10256 20183 53004 $,KPVG,2023-06-05T23:56:00Z,36.78,-76.45,18.3,13.9,,,,10.0,29.899607,1012.7,,TRUE,TRUE,TRUE,,,,,,CLR,,,,,,,,VFR,0.4,25.6,18.3,,,,,,,,,METAR,7.0
KPVC 052356Z AUTO 31007KT 10SM OVC036 13/11 A2976 RMK AO2 SLP078 T01280111 10139 20122 56004,KPVC,2023-06-05T23:56:00Z,42.07,-70.22,12.8,11.1,310,7,,10.0,29.760826,1007.8,,TRUE,TRUE,,,,,,,OVC,3600,,,,,,,VFR,-0.4,13.9,12.2,,,,,,,,,METAR,1.0
KPTV 052356Z AUTO 22011KT 10SM CLR 28/12 A2971 RMK AO2 SLP059 T02780122 10294 20267 56005,KPTV,2023-06-05T23:56:00Z,36.02,-119.07,27.8,12.2,220,11,,10.0,29.71063,1005.9,,TRUE,TRUE,,,,,,,CLR,,,,,,,,VFR,-0.5,29.4,26.7,,,,,,,,,METAR,132.0
KPTN 052356Z AUTO 00000KT 10SM CLR 23/21 A2991 RMK AO2 SLP127 6//// T02330211 10233 20211 51004 $,KPTN,2023-06-05T23:56:00Z,29.72,-91.33,23.3,21.1,0,0,,10.0,29.911417,1012.7,,TRUE,TRUE,TRUE,,,,,,CLR,,,,,,,,VFR,0.4,23.3,21.1,,,,,,,,,METAR,2.0
KPRX 052356Z AUTO 03006KT 10SM CLR 27/20 A2990 RMK AO2 SLP122 T02720200 10294 20267 55005,KPRX,2023-06-05T23:56:00Z,33.63,-95.45,27.2,20.0,30,6,,10.0,29.899607,1012.2,,TRUE,TRUE,,,,,,,CLR,,,,,,,,VFR,-0.5,29.4,26.7,,,,,,,,,METAR,165.0
KPQI 052356Z AUTO 01010KT 10SM BKN075 OVC090 11/09 A2981 RMK AO2 SLP121 60000 T01060089 10122 20106 58007,KPQI,2023-06-05T23:56:00Z,46.68,-68.05,10.6,8.9,10,10,,10.0,29.811024,1012.1,,TRUE,TRUE,,,,,,,BKN,7500,OVC,9000,,,,,VFR,-0.7,12.2,10.6,,,,,0.005,,,,METAR,154.0
KPIB 052356Z AUTO 00000KT 10SM -RA SCT100 21/21 A2994 RMK AO2 LTG DSNT W SLP137 P0000 60014 T02110206 10322 20211 50018,KPIB,2023-06-05T23:56:00Z,31.47,-89.33,21.1,20.6,0,0,,10.0,29.940945,1013.7,,TRUE,TRUE,,,,,,-RA,SCT,10000,,,,,,,VFR,1.8,32.2,21.1,,,0.005,,0.14,,,,METAR,91.0
KP60 052356Z AUTO 27007KT 220V290 19/02 A3019 RMK AO1 SLP160 T01940022 10200 20128 56010,KP60,2023-06-05T23:56:00Z,44.55,-110.42,19.4,2.2,270,7,,,30.188976,1016.0,,TRUE,TRUE,,,,,,,,,,,,,,,,-1.0,20.0,12.8,,,,,,,,,METAR,2377.0
KP53 052356Z AUTO 32007KT 13/11 A3009 RMK AO1 SLP192 T01280106 10144 20122 58012,KP53,2023-06-05T23:56:00Z,46.42,-86.65,12.8,10.6,320,7,,,30.088583,1019.2,,TRUE,TRUE,,,,,,,,,,,,,,,,-1.2,14.4,12.2,,,,,,,,,METAR,185.0
KP28 052356Z AUTO 13006KT 28/12 A2999 RMK AO1 SLP143 T02780122 10317 20256 58001 $,KP28,2023-06-05T23:56:00Z,37.28,-98.55,27.8,12.2,130,6,,,29.991142,1014.3,,TRUE,TRUE,TRUE,,,,,,,,,,,,,,,-0.1,31.7,25.6,,,,,,,,,METAR,469.0
KOWB 052356Z 01005KT 10SM CLR 27/12 A2992 RMK AO2 SLP130 T02720117 10311 20272 55001,KOWB,2023-06-05T23:56:00Z,37.72,-87.17,27.2,11.7,10,5,,10.0,29.920275,1013.0,,,TRUE,,,,,,,CLR,,,,,,,,VFR,-0.1,31.1,27.2,,,,,,,,,METAR,121.0
KOTH 052356Z 36024G31KT 10SM CLR 16/08 A2993 RMK AO2 PK WND 35036/2258 SLP135 T01560083 10156 20139 58013,KOTH,2023-06-05T23:56:00Z,43.42,-124.25,15.6,8.3,360,24,31,10.0,29.929134,1013.5,,,TRUE,,,,,,,CLR,,,,,,,,VFR,-1.3,15.6,13.9,,,,,,,,,METAR,3.0
KOTG 052356Z AUTO 25008KT 10SM FEW090 SCT120 28/14 A3004 RMK AO2 SLP165 6//// T02780144 10311 20272 56005 PNO $,KOTG,2023-06-05T23:56:00Z,43.65,-95.57,27.8,14.4,250,8,,10.0,30.041338,1016.5,,TRUE,TRUE,TRUE,,,,,,FEW,9000,SCT,12000,,,,,VFR,-0.5,31.1,27.2,,,,,,,,,METAR,478.0
KOLU 052356Z AUTO 21005KT 10SM CLR 29/14 A3002 RMK AO2 SLP158 T02890139 10311 20278 56008,KOLU,2023-06-05T23:56:00Z,41.45,-97.33,28.9,13.9,210,5,,10.0,30.02067,1015.8,,TRUE,TRUE,,,,,,,CLR,,,,,,,,VFR,-0.8,31.1,27.8,,,,,,,,,METAR,438.0
KOKK 052356Z AUTO 05006KT 8SM CLR 26/04 A3000 RMK AO2 SLP154 6//// T02560044 10278 20244 56008 PNO $,KOKK,2023-06-05T23:56:00Z,40.53,-86.07,25.6,4.4,50,6,,8.0,30.0,1015.4,,TRUE,TRUE,TRUE,,,,,,CLR,,,,,,,,VFR,-0.8,27.8,24.4,,,,,,,,,METAR,251.0
KOFK 052356Z AUTO 00000KT 10SM 28/14 A3003 RMK AO2 SLP157 60047 T02780144 10311 20206 56009,KOFK,2023-06-05T23:56:00Z,41.98,-97.43,27.8,14.4,0,0,,10.0,30.029528,1015.7,,TRUE,TRUE,,,,,,,,,,,,,,,,-0.9,31.1,20.6,,,,,0.47,,,,METAR,476.0
KOCH 052356Z AUTO 00000KT 8SM CLR 28/20 A2988 RMK AO2 SLP119 T02780200 10306 20267 55005,KOCH,2023-06-05T23:56:00Z,31.57,-94.72,27.8,20.0,0,0,,8.0,29.878937,1011.9,,TRUE,TRUE,,,,,,,CLR,,,,,,,,VFR,-0.5,30.6,26.7,,,,,,,,,METAR,105.0
KOAJ 052356Z 19005KT 10SM CLR 22/11 A2991 RMK AO2 SLP131 T02170111 10267 20217 53001,KOAJ,2023-06-05T23:56:00Z,34.82,-77.62,21.7,11.1,190,5,,10.0,29.911417,1013.1,,,TRUE,,,,,,,CLR,,,,,,,,VFR,0.1,26.7,21.7,,,,,,,,,METAR,26.0
KNYG 052356Z AUTO 27005KT 7SM CLR 22/ A2988 RMK AO2 SLP118 T0222 10261 20222 55002 $,KNYG,2023-06-05T23:56:00Z,38.5,-77.3,22.2,,270,5,,7.0,29.878937,1011.8,,TRUE,TRUE,TRUE,,,,,,CLR,,,,,,,,VFR,-0.2,26.1,22.2,,,,,,,,,METAR,2.0
KNXP 052356Z AUTO 23018G27KT 10SM CLR 31/03 A2975 RMK AO2 PK WND 23029/2337 SLP038 T03060028 10344 20306 58009,KNXP,2023-06-05T23:56:00Z,34.28,-116.13,30.6,2.8,230,18,27,10.0,29.749016,1003.8,,TRUE,TRUE,,,,,,,CLR,,,,,,,,VFR,-0.9,34.4,30.6,,,,,,,,,METAR,610.0
KNXF 052356Z AUTO 30006KT 10SM BKN037 19/12 A2989 RMK AO2 SLP207 T01890117 10200 20172 58012 $,KNXF,2023-06-05T23:56:00Z,33.28,-117.45,18.9,11.7,300,6,,10.0,29.890747,1020.7,,TRUE,TRUE,TRUE,,,,,,BKN,3700,,,,,,,VFR,-1.2,20.0,17.2,,,,,,,,,METAR,28.0
KNUC 052356Z 23006KT 10SM SCT017 OVC027 14/10 A2991 RMK AO2 SLP125 T01440100 10150 20144 58009 $,KNUC,2023-06-05T23:56:00Z,33.02,-118.57,14.4,10.0,230,6,,10.0,29.911417,1012.5,,,TRUE,TRUE,,,,,,SCT,1700,OVC,2700,,,,,MVFR,-0.9,15.0,14.4,,,,,,,,,METAR,52.0
KNTU 052356Z 12005KT 10SM SCT300 18/14 A2989 RMK AO2 SLP123 T01830139 10244 20183 53003,KNTU,2023-06-05T23:56:00Z,36.82,-76.02,18.3,13.9,120,5,,10.0,29.890747,1012.3,,,TRUE,,,,,,,SCT,30000,,,,,,,VFR,0.3,24.4,18.3,,,,,,,,,METAR,6.0
KNSE 052356Z 18008KT 10SM FEW038 SCT070 BKN250 25/19 A2992 RMK AO2 SLP115 T2 SET T02500189 10300 20250 55000 $,KNSE,2023-06-05T23:56:00Z,30.73,-87.02,25.0,18.9,180,8,,10.0,29.920275,1011.5,,,TRUE,TRUE,,,,,,FEW,3800,SCT,7000,BKN,25000,,,VFR,0.0,30.0,25.0,,,,,,,,,METAR,56.0
KNQI 052356Z 09006KT 10SM FEW090 FEW250 29/22 A2985 RMK AO2 SLP104 60003 T02890222 10294 20239 58003 $,KNQI,2023-06-05T23:56:00Z,27.5,-97.82,28.9,22.2,90,6,,10.0,29.84941,1010.4,,,TRUE,TRUE,,,,,,FEW,9000,FEW,25000,,,,,VFR,-0.3,29.4,23.9,,,,,0.03,,,,METAR,15.0
KNPA 052356Z 19008KT 10SM FEW030 FEW140 BKN250 25/19 A2991 RMK AO2 SLP128 T02500194 10283 20250 55005,KNPA,2023-06-05T23:56:00Z,30.35,-87.32,25.0,19.4,190,8,,10.0,29.911417,1012.8,,,TRUE,,,,,,,FEW,3000,FEW,14000,BKN,25000,,,VFR,-0.5,28.3,25.0,,,,,,,,,METAR,6.0
KNOG 052356Z AUTO 12006KT 10SM CLR 28/20 A2986 RMK AO2 SLP091 6//// T02830200 10311 20217 55007 TSNO PNO $,KNOG,2023-06-05T23:56:00Z,27.9,-98.05,28.3,20.0,120,6,,10.0,29.861221,1009.1,,TRUE,TRUE,TRUE,,TRUE,,,,CLR,,,,,,,,VFR,-0.7,31.1,21.7,,,,,,,,,METAR,72.0
KNMM 052356Z 00000KT 10SM -TSRA SCT030CB BKN050 OVC080 25/20 A2992 RMK AO2 SLP140 OCNL LTGICCCCG OHD TS OHD MOV S T1 SET P0005 60005 T02500200 53015,KNMM,2023-06-05T23:56:00Z,32.53,-88.53,25.0,20.0,0,0,,10.0,29.920275,1014.0,,,TRUE,,,,,,-TSRA,SCT,3000,BKN,5000,OVC,8000,,,VFR,1.5,,,,,0.05,,0.05,,,,METAR,94.0
KNLC 052356Z 31010KT 10SM FEW060 SCT140 BKN190 31/10 A2968 RMK AO2 SLP049 RH/26 T03060100 10322 20272 58007,KNLC,2023-06-05T23:56:00Z,36.32,-119.95,30.6,10.0,310,10,,10.0,29.681103,1004.9,,,TRUE,,,,,,,FEW,6000,SCT,14000,BKN,19000,,,VFR,-0.7,32.2,27.2,,,,,,,,,METAR,69.0
KNKT 052356Z 21008KT 10SM CLR 20/15 A2992 RMK AO2 SLP127 T02000150 10261 20200 53001,KNKT,2023-06-05T23:56:00Z,34.9,-76.88,20.0,15.0,210,8,,10.0,29.920275,1012.7,,,TRUE,,,,,,,CLR,,,,,,,,VFR,0.1,26.1,20.0,,,,,,,,,METAR,8.0
KNJK 052356Z COR 27022G32KT 10SM FEW060 FEW250 34/01 A2964 RMK AO2 PK WND 27033/2303 SLP051 T03440011 10372 20311 58009 $,KNJK,2023-06-05T23:56:00Z,32.82,-115.67,34.4,1.1,270,22,32,10.0,29.639763,1005.1,TRUE,,TRUE,TRUE,,,,,,FEW,6000,FEW,25000,,,,,VFR,-0.9,37.2,31.1,,,,,,,,,METAR,-15.0
KNID 052356Z 18029G38KT 4SM BLDU FEW070 SCT150 BKN200 30/M02 A2961 RMK AO2 PK WND 17038/2356 WSHFT 2322 SLP009 T03001017 10356 20300 56024 $,KNID,2023-06-05T23:56:00Z,35.68,-117.68,30.0,-1.7,180,29,38,4.0,29.610237,1000.9,,,TRUE,TRUE,,,,,BLDU,FEW,7000,SCT,15000,BKN,20000,,,MVFR,-2.4,35.6,30.0,,,,,,,,,METAR,682.0
KNGP 052356Z 10007KT 10SM FEW027 FEW150 SCT250 28/22 A2985 RMK AO2 SLP106 CB DSNT SW TCU DSNT NE AND E T02830217 10300 20239 55008,KNGP,2023-06-05T23:56:00Z,27.68,-97.28,28.3,21.7,100,7,,10.0,29.84941,1010.6,,,TRUE,,,,,,,FEW,2700,FEW,15000,SCT,25000,,,VFR,-0.8,30.0,23.9,,,,,,,,,METAR,5.0
KNFL 052356Z 31006G18KT 10SM BKN070 BKN100 BKN180 23/06 A2989 RMK AO2 PK WND 01030/2330 WSHFT 2301 RAE55 TSE03B16E47 SLP097 OCNL LTGICCC DSNT S CB S MOV N P0001 60001 T02330061 10306 20217 51013,KNFL,2023-06-05T23:56:00Z,39.42,-118.7,23.3,6.1,310,6,18,10.0,29.890747,1009.7,,,TRUE,,,,,,,BKN,7000,BKN,10000,BKN,18000,,,VFR,1.3,30.6,21.7,,,0.01,,0.01,,,,METAR,1199.0
KNFE 052356Z AUTO 14005KT 10SM CLR 19/11 A2990 RMK AO2 SLP126 T01940111 10267 20194 53005,KNFE,2023-06-05T23:56:00Z,36.7,-76.13,19.4,11.1,140,5,,10.0,29.899607,1012.6,,TRUE,TRUE,,,,,,,CLR,,,,,,,,VFR,0.5,26.7,19.4,,,,,,,,,METAR,4.0
KNDZ 052356Z 19004KT 10SM BKN100 BKN250 25/19 A2992 RMK AO2 SLP115 T2 SET T02500194 10306 20250 55000 $,KNDZ,2023-06-05T23:56:00Z,30.7,-87.02,25.0,19.4,190,4,,10.0,29.920275,1011.5,,,TRUE,TRUE,,,,,,BKN,10000,BKN,25000,,,,,VFR,0.0,30.6,25.0,,,,,,,,,METAR,51.0
KNCA 052356Z 00000KT 10SM CLR 20/11 A2990 RMK AO2 SLP128 T02000106 10256 20200 53003,KNCA,2023-06-05T23:56:00Z,34.72,-77.45,20.0,10.6,0,0,,10.0,29.899607,1012.8,,,TRUE,,,,,,,CLR,,,,,,,,VFR,0.3,25.6,20.0,,,,,,,,,METAR,9.0
KNBC 052356Z 17004KT 10SM FEW060 BKN180 23/16 A2993 RMK AO2 SLP136 T02330156 10283 20233 53001,KNBC,2023-06-05T23:56:00Z,32.47,-80.72,23.3,15.6,170,4,,10.0,29.929134,1013.6,,,TRUE,,,,,,,FEW,6000,BKN,18000,,,,,VFR,0.1,28.3,23.3,,,,,,,,,METAR,9.0
KMYR 052356Z 18006KT 10SM CLR 21/14 A2994 RMK AO2 SLP138 T02110144 10233 20211 55001,KMYR,2023-06-05T23:56:00Z,33.68,-78.92,21.1,14.4,180,6,,10.0,29.940945,1013.8,,,TRUE,,,,,,,CLR,,,,,,,,VFR,-0.1,23.3,21.1,,,,,,,,,METAR,7.0
KMVN 052356Z AUTO 01003KT 10SM CLR 24/07 A2996 RMK AO2 SLP146 T02390072 10300 20239 56004,KMVN,2023-06-05T23:56:00Z,38.32,-88.87,23.9,7.2,10,3,,10.0,29.958662,1014.6,,TRUE,TRUE,,,,,,,CLR,,,,,,,,VFR,-0.4,30.0,23.9,,,,,,,,,METAR,145.0
KMTW 052356Z AUTO 12004KT 10SM CLR 21/13 A3004 RMK AO2 SLP170 T02060128 10233 20206 57008,KMTW,2023-06-05T23:56:00Z,44.12,-87.67,20.6,12.8,120,4,,10.0,30.041338,1017.0,,TRUE,TRUE,,,,,,,CLR,,,,,,,,VFR,-0.8,23.3,20.6,,,,,,,,,METAR,197.0
KMTC 052356Z 17006KT 6SM HZ SCT065 BKN220 21/10 A2993 RMK AO2A SLP139 T02100099 10242 20210 57007 $,KMTC,2023-06-05T23:56:00Z,42.62,-82.83,21.0,9.9,170,6,,6.0,29.929134,1013.9,,,TRUE,TRUE,,,,,HZ,SCT,6500,BKN,22000,,,,,VFR,-0.7,24.2,21.0,,,,,,,,,METAR,177.0
KMSV 052356Z AUTO 32005KT 7SM CLR 17/04 A2986 RMK AO2 SLP109 T01670039 10228 20167 51001,KMSV,2023-06-05T23:56:00Z,41.7,-74.78,16.7,3.9,320,5,,7.0,29.861221,1010.9,,TRUE,TRUE,,,,,,,CLR,,,,,,,,VFR,0.1,22.8,16.7,,,,,,,,,METAR,427.0
KMRF 052356Z AUTO 07008KT 10SM CLR 27/09 A3008 RMK AO2 SLP127 T02720089 10272 20244 58014,KMRF,2023-06-05T23:56:00Z,30.37,-104.02,27.2,8.9,70,8,,10.0,30.079725,1012.7,,TRUE,TRUE,,,,,,,CLR,,,,,,,,VFR,-1.4,27.2,24.4,,,,,,,,,METAR,1476.0
KMQY 052356Z 36006KT 10SM CLR 29/17 A2990 RMK AO2 SLP127 T02890167 10328 20289 55000,KMQY,2023-06-05T23:56:00Z,36.02,-86.52,28.9,16.7,360,6,,10.0,29.899607,1012.7,,,TRUE,,,,,,,CLR,,,,,,,,VFR,0.0,32.8,28.9,,,,,,,,,METAR,156.0
KMOB 052356Z 13004KT 10SM FEW035 FEW075 BKN200 25/19 A2992 RMK AO2 SLP130 60019 T02500189 10300 20222 53000 $,KMOB,2023-06-05T23:56:00Z,30.68,-88.25,25.0,18.9,130,4,,10.0,29.920275,1013.0,,,TRUE,TRUE,,,,,,FEW,3500,FEW,7500,BKN,20000,,,VFR,0.0,30.0,22.2,,,,,0.19,,,,METAR,67.0
KMML 052356Z AUTO 07009KT 10SM CLR 28/15 A3002 RMK AO2 SLP160 T02830150 10322 20283 56004 $,KMML,2023-06-05T23:56:00Z,44.45,-95.82,28.3,15.0,70,9,,10.0,30.02067,1016.0,,TRUE,TRUE,TRUE,,,,,,CLR,,,,,,,,VFR,-0.4,32.2,28.3,,,,,,,,,METAR,358.0
KMKY 052356Z AUTO 10SM BKN044 26/21 A2988 RMK AO2 SLP117 6//// T02560211 10322 20256 53013 TSNO PNO $,KMKY,2023-06-05T23:56:00Z,26.0,-81.67,25.6,21.1,,,,10.0,29.878937,1011.7,,TRUE,TRUE,TRUE,,TRUE,,,,BKN,4400,,,,,,,VFR,1.3,32.2,25.6,,,,,,,,,METAR,2.0
KMKT 052356Z AUTO 08009KT 10SM CLR 29/15 A3002 RMK AO2 SLP160 T02890150 10317 20289 56004,KMKT,2023-06-05T23:56:00Z,44.22,-93.92,28.9,15.0,80,9,,10.0,30.02067,1016.0,,TRUE,TRUE,,,,,,,CLR,,,,,,,,VFR,-0.4,31.7,28.9,,,,,,,,,METAR,309.0
KMHS 052356Z AUTO VRB03KT 10SM CLR 28/09 A2988 RMK AO2 SLP104 T02780089 10306 20250 56014,KMHS,2023-06-05T23:56:00Z,41.32,-122.32,27.8,8.9,0,3,,10.0,29.878937,1010.4,,TRUE,TRUE,,,,,,,CLR,,,,,,,,VFR,-1.4,30.6,25.0,,,,,,,,,METAR,1080.0
KMEH 052356Z AUTO 10SM CLR 24/06 A3001 RMK AO2 SLP150 T02390061 10256 20222 58008,KMEH,2023-06-05T23:56:00Z,45.52,-118.42,23.9,6.1,,,,10.0,30.008858,1015.0,,TRUE,TRUE,,,,,,,CLR,,,,,,,,VFR,-0.8,25.6,22.2,,,,,,,,,METAR,1138.0
KMDT 052356Z 35003KT 10SM FEW065 23/04 A2986 RMK AO2 SLP111 T02280044 10256 20228 55001,KMDT,2023-06-05T23:56:00Z,40.2,-76.77,22.8,4.4,350,3,,10.0,29.861221,1011.1,,,TRUE,,,,,,,FEW,6500,,,,,,,VFR,-0.1,25.6,22.8,,,,,,,,,METAR,91.0
KMBL 052356Z AUTO 32007KT 6SM HZ CLR 21/14 A3001 RMK AO2 SLP160 T02060139 10250 20206 56007,KMBL,2023-06-05T23:56:00Z,44.27,-86.25,20.6,13.9,320,7,,6.0,30.008858,1016.0,,TRUE,TRUE,,,,,,HZ,CLR,,,,,,,,VFR,-0.7,25.0,20.6,,,,,,,,,METAR,187.0
KM19 052356Z AUTO 13019G23KT 10SM SCT070 29/18 A2991 RMK AO2 LTG DSNT S SLP126 6//// T02890178 10333 20289 53007 PNO $,KM19,2023-06-05T23:56:00Z,35.65,-91.17,28.9,17.8,130,19,23,10.0,29.911417,1012.6,,TRUE,TRUE,TRUE,,,,,,SCT,7000,,,,,,,VFR,0.7,33.3,28.9,,,,,,,,,METAR,72.0
KLZU 052356Z 22008KT 10SM CLR 26/18 A2993 RMK AO2 SLP135 T02610183 10278 20239 56006,KLZU,2023-06-05T23:56:00Z,33.98,-83.97,26.1,18.3,220,8,,10.0,29.929134,1013.5,,,TRUE,,,,,,,CLR,,,,,,,,VFR,-0.6,27.8,23.9,,,,,,,,,METAR,316.0
KLWS 052356Z 03005KT 10SM CLR 28/12 A2992 RMK AO2 SLP122 T02830122 10294 20222 58014,KLWS,2023-06-05T23:56:00Z,46.37,-117.02,28.3,12.2,30,5,,10.0,29.920275,1012.2,,,TRUE,,,,,,,CLR,,,,,,,,VFR,-1.4,29.4,22.2,,,,,,,,,METAR,435.0
KLRD 052356Z 02008KT 10SM CLR 32/18 A2982 RMK AO2 SLP094 T03220178 10339 20306 56010,KLRD,2023-06-05T23:56:00Z,27.55,-99.47,32.2,17.8,20,8,,10.0,29.819881,1009.4,,,TRUE,,,,,,,CLR,,,,,,,,VFR,-1.0,33.9,30.6,,,,,,,,,METAR,150.0
KLNR 052356Z AUTO 31003KT 7SM CLR 29/11 A3000 RMK AO2 SLP151 T02890106 10306 20267 56012,KLNR,2023-06-05T23:56:00Z,43.22,-90.18,28.9,10.6,310,3,,7.0,30.0,1015.1,,TRUE,TRUE,,,,,,,CLR,,,,,,,,VFR,-1.2,30.6,26.7,,,,,,,,,METAR,218.0
KLGD 052356Z AUTO 01010G16KT 10SM CLR 30/08 A2993 RMK AO2 SLP116 T03000078 10306 20256 58010,KLGD,2023-06-05T23:56:00Z,45.28,-118.0,30.0,7.8,10,10,16,10.0,29.929134,1011.6,,TRUE,TRUE,,,,,,,CLR,,,,,,,,VFR,-1.0,30.6,25.6,,,,,,,,,METAR,827.0
KLEW 052356Z AUTO 35006KT 10SM FEW060 OVC080 14/11 A2976 RMK AO2 SLP084 T01440106 10156 20139 56003,KLEW,2023-06-05T23:56:00Z,44.03,-70.28,14.4,10.6,350,6,,10.0,29.760826,1008.4,,TRUE,TRUE,,,,,,,FEW,6000,OVC,8000,,,,,VFR,-0.3,15.6,13.9,,,,,,,,,METAR,81.0
KLCI 052356Z AUTO 00000KT 6SM HZ OVC085 16/11 A2979 RMK AO2 SLP087 60000 T01560111 10178 20150 55001,KLCI,2023-06-05T23:56:00Z,43.57,-71.42,15.6,11.1,0,0,,6.0,29.790354,1008.7,,TRUE,TRUE,,,,,,HZ,OVC,8500,,,,,,,VFR,-0.1,17.8,15.0,,,,,0.005,,,,METAR,166.0
KLBT 052356Z AUTO 27006KT 10SM CLR 24/14 A2991 RMK AO2 SLP127 T02390144 10278 20239 55001,KLBT,2023-06-05T23:56:00Z,34.6,-79.07,23.9,14.4,270,6,,10.0,29.911417,1012.7,,TRUE,TRUE,,,,,,,CLR,,,,,,,,VFR,-0.1,27.8,23.9,,,,,,,,,METAR,37.0
KLBL 052356Z AUTO 07008KT 10SM CLR 24/12 A3009 RMK AO2 SLP164 T02440117 10278 20233 56004,KLBL,2023-06-05T23:56:00Z,37.03,-100.97,24.4,11.7,70,8,,10.0,30.088583,1016.4,,TRUE,TRUE,,,,,,,CLR,,,,,,,,VFR,-0.4,27.8,23.3,,,,,,,,,METAR,877.0
KLAS 052356Z 17012G23KT 10SM FEW130 FEW250 36/M03 A2965 RMK AO2 PK WND 18028/2308 SLP011 T03611028 10367 20322 56023,KLAS,2023-06-05T23:56:00Z,36.07,-115.17,36.1,-2.8,170,12,23,10.0,29.648623,1001.1,,,TRUE,,,,,,,FEW,13000,FEW,25000,,,,,VFR,-2.3,36.7,32.2,,,,,,,,,METAR,662.0
KKLS 052356Z AUTO 35015G21KT CLR 26/M05 A2998 RMK AO2 SLP155 T02561050 10267 20200 58019 PWINO $,KKLS,2023-06-05T23:56:00Z,46.12,-122.9,25.6,-5.0,350,15,21,,29.97933,1015.5,,TRUE,TRUE,TRUE,,,,TRUE,,CLR,,,,,,,,,-1.9,26.7,20.0,,,,,,,,,METAR,4.0
KJXN 052356Z 22003KT 9SM SCT085 24/11 A2997 RMK AO2 SLP147 T02440111 10278 20211 58009 $,KJXN,2023-06-05T23:56:00Z,42.27,-84.47,24.4,11.1,220,3,,9.0,29.970472,1014.7,,,TRUE,TRUE,,,,,,SCT,8500,,,,,,,VFR,-0.9,27.8,21.1,,,,,,,,,METAR,303.0
KJRB 052356Z AUTO 25004KT 10SM FEW100 21/12 A2980 RMK AO2 SLP091 T02110122 10250 20211 55002,KJRB,2023-06-05T23:56:00Z,40.7,-74.02,21.1,12.2,250,4,,10.0,29.799213,1009.1,,TRUE,TRUE,,,,,,,FEW,10000,,,,,,,VFR,-0.2,25.0,21.1,,,,,,,,,METAR,2.0
KJMS 052356Z AUTO 17012KT 10SM CLR 26/18 A3002 RMK AO2 RAE06 SLP161 P0000 60002 T02560178 10306 20228 58005,KJMS,2023-06-05T23:56:00Z,46.93,-98.67,25.6,17.8,170,12,,10.0,30.02067,1016.1,,TRUE,TRUE,,,,,,,CLR,,,,,,,,VFR,-0.5,30.6,22.8,,,0.005,,0.02,,,,METAR,455.0
KJHW 052356Z AUTO 32004KT 10SM CLR 16/07 A2998 RMK AO2 SLP158 6//// T01610067 10194 20161 56004 PNO $,KJHW,2023-06-05T23:56:00Z,42.15,-79.27,16.1,6.7,320,4,,10.0,29.97933,1015.8,,TRUE,TRUE,TRUE,,,,,,CLR,,,,,,,,VFR,-0.4,19.4,16.1,,,,,,,,,METAR,520.0
KJAX 052356Z 08006KT 10SM BKN250 23/17 A2993 RMK AO2 SLP136 T02330167 10278 20233 53002,KJAX,2023-06-05T23:56:00Z,30.5,-81.68,23.3,16.7,80,6,,10.0,29.929134,1013.6,,,TRUE,,,,,,,BKN,25000,,,,,,,VFR,0.2,27.8,23.3,,,,,,,,,METAR,8.0
KJAC 052356Z 23007KT 10SM CLR 22/04 A3008 RMK AO2 LTG DSNT NE SLP146 T02220044 10233 20183 56013,KJAC,2023-06-05T23:56:00Z,43.62,-110.73,22.2,4.4,230,7,,10.0,30.079725,1014.6,,,TRUE,,,,,,,CLR,,,,,,,,VFR,-1.3,23.3,18.3,,,,,,,,,METAR,1967.0
KIWD 052356Z AUTO 01007KT 6SM HZ CLR 19/14 A3011 RMK AO2 SLP196 T01890144 10233 20189 56007,KIWD,2023-06-05T23:56:00Z,46.52,-90.12,18.9,14.4,10,7,,6.0,30.109253,1019.6,,TRUE,TRUE,,,,,,HZ,CLR,,,,,,,,VFR,-0.7,23.3,18.9,,,,,,,,,METAR,373.0
KITH 052356Z 36004KT 10SM CLR 18/02 A2991 RMK AO2 SLP126 T01780022 10217 20178 55001,KITH,2023-06-05T23:56:00Z,42.48,-76.45,17.8,2.2,360,4,,10.0,29.911417,1012.6,,,TRUE,,,,,,,CLR,,,,,,,,VFR,-0.1,21.7,17.8,,,,,,,,,METAR,338.0
KISP 052356Z 22009KT 10SM BKN080 BKN100 BKN250 18/11 A2978 RMK AO2 SLP085 FU BKN250 T01830111 10233 20183 55002,KISP,2023-06-05T23:56:00Z,40.8,-73.1,18.3,11.1,220,9,,10.0,29.778543,1008.5,,,TRUE,,,,,,,BKN,8000,BKN,10000,BKN,25000,,,VFR,-0.2,23.3,18.3,,,,,,,,,METAR,25.0
KISO 052356Z 00000KT 10SM CLR 23/13 A2990,KISO,2023-06-05T23:56:00Z,35.32,-77.62,23.0,13.0,0,0,,10.0,29.899607,,,,,,,,,,,CLR,,,,,,,,VFR,,,,,,,,,,,,METAR,27.0
KISM 052356Z 08012G16KT 10SM CLR 27/18 A2992 RMK AO2 SLP130 6//// T02670178 10300 20267 53006 PNO $,KISM,2023-06-05T23:56:00Z,28.28,-81.43,26.7,17.8,80,12,16,10.0,29.920275,1013.0,,,TRUE,TRUE,,,,,,CLR,,,,,,,,VFR,0.6,30.0,26.7,,,,,,,,,METAR,25.0
KINW 052356Z AUTO 19018G27KT 10SM CLR 32/M03 A2991 RMK AO2 PK WND 19027/2354 SLP062 T03221028 10333 20278 56012,KINW,2023-06-05T23:56:00Z,35.03,-110.72,32.2,-2.8,190,18,27,10.0,29.911417,1006.2,,TRUE,TRUE,,,,,,,CLR,,,,,,,,VFR,-1.2,33.3,27.8,,,,,,,,,METAR,1492.0
KILE 052356Z AUTO 34005KT 10SM CLR 28/18 A2990 RMK AO2 LTG DSNT W SLP113 T02830178 10306 20272 55003,KILE,2023-06-05T23:56:00Z,31.08,-97.68,28.3,17.8,340,5,,10.0,29.899607,1011.3,,TRUE,TRUE,,,,,,,CLR,,,,,,,,VFR,-0.3,30.6,27.2,,,,,,,,,METAR,256.0
KI69 052356Z AUTO 03004KT 10SM CLR 23/08 A2997 RMK AO1 T02340083 10267 20234,KI69,2023-06-05T23:56:00Z,39.08,-84.22,23.4,8.3,30,4,,10.0,29.970472,,,TRUE,TRUE,,,,,,,CLR,,,,,,,,VFR,,26.7,23.4,,,,,,,,,METAR,238.0
KHYS 052356Z AUTO 00000KT 10SM SCT100 27/12 A3005 RMK AO2 RAB29E48 SLP162 P0000 60000 T02670117 10294 20244 56004 $,KHYS,2023-06-05T23:56:00Z,38.85,-99.27,26.7,11.7,0,0,,10.0,30.050198,1016.2,,TRUE,TRUE,TRUE,,,,,,SCT,10000,,,,,,,VFR,-0.4,29.4,24.4,,,0.005,,0.005,,,,METAR,607.0
KHYI 052356Z 07007KT 10SM FEW090 26/19 A2991 RMK AO2 SLP118 T02610194 10317 20256 53007,KHYI,2023-06-05T23:56:00Z,29.88,-97.87,26.1,19.4,70,7,,10.0,29.911417,1011.8,,,TRUE,,,,,,,FEW,9000,,,,,,,VFR,0.7,31.7,25.6,,,,,,,,,METAR,180.0
KHYA 052356Z 33004KT 10SM OVC085 12/10 A2974 RMK AO2 SLP071 T01220100 10133 20117 56005,KHYA,2023-06-05T23:56:00Z,41.67,-70.27,12.2,10.0,330,4,,10.0,29.740158,1007.1,,,TRUE,,,,,,,OVC,8500,,,,,,,VFR,-0.5,13.3,11.7,,,,,,,,,METAR,11.0
KHWV 052356Z AUTO 21005KT 10SM BKN070 OVC090 18/11 A2980 RMK AO2 SLP090 T01780111 10228 20178 55002,KHWV,2023-06-05T23:56:00Z,40.82,-72.87,17.8,11.1,210,5,,10.0,29.799213,1009.0,,TRUE,TRUE,,,,,,,BKN,7000,OVC,9000,,,,,VFR,-0.2,22.8,17.8,,,,,,,,,METAR,20.0
KHPN 052356Z 25003KT 10SM BKN100 19/11 A2979 RMK AO2 SLP084 T01940106 10239 20194 55002,KHPN,2023-06-05T23:56:00Z,41.07,-73.7,19.4,10.6,250,3,,10.0,29.790354,1008.4,,,TRUE,,,,,,,BKN,10000,,,,,,,VFR,-0.2,23.9,19.4,,,,,,,,,METAR,113.0
KHND 052356Z 18015G26KT 10SM CLR 36/M04 A2969 RMK AO2 PK WND 18029/2306 SLP039 T03561044 10372 20317 56021,KHND,2023-06-05T23:56:00Z,35.98,-115.13,35.6,-4.4,180,15,26,10.0,29.68996,1003.9,,,TRUE,,,,,,,CLR,,,,,,,,VFR,-2.1,37.2,31.7,,,,,,,,,METAR,740.0
KHNB 052356Z AUTO 05007KT 10SM CLR 25/14 A2994 RMK AO2 SLP134 T02500139 10289 20250 55002,KHNB,2023-06-05T23:56:00Z,38.25,-86.95,25.0,13.9,50,7,,10.0,29.940945,1013.4,,TRUE,TRUE,,,,,,,CLR,,,,,,,,VFR,-0.2,28.9,25.0,,,,,,,,,METAR,159.0
KHEZ 052356Z AUTO 20006KT 10SM SCT060 21/18 A2991 RMK AO2 LTG DSNT NE AND E SLP127 60017 T02110178 10311 20211 53010,KHEZ,2023-06-05T23:56:00Z,31.62,-91.3,21.1,17.8,200,6,,10.0,29.911417,1012.7,,TRUE,TRUE,,,,,,,SCT,6000,,,,,,,VFR,1.0,31.1,21.1,,,,,0.17,,,,METAR,82.0
KHDN 052356Z AUTO 00000KT 9SM -RA BKN065 BKN080 OVC090 18/04 A3016 RMK AO2 RAB26 SLP161 P0002 60002 T01780039 10239 20178 53003,KHDN,2023-06-05T23:56:00Z,40.48,-107.22,17.8,3.9,0,0,,9.0,30.159449,1016.1,,TRUE,TRUE,,,,,,-RA,BKN,6500,BKN,8000,OVC,9000,,,VFR,0.3,23.9,17.8,,,0.02,,0.02,,,,METAR,2012.0
KGXY 052356Z AUTO 11010KT 10SM BKN048 OVC055 21/13 A3012 RMK AO2 LTG DSNT W SLP175 T02110128 10244 20200 56008,KGXY,2023-06-05T23:56:00Z,40.43,-104.62,21.1,12.8,110,10,,10.0,30.121063,1017.5,,TRUE,TRUE,,,,,,,BKN,4800,OVC,5500,,,,,VFR,-0.8,24.4,20.0,,,,,,,,,METAR,1420.0
KGVQ 052356Z AUTO 24009KT 10SM CLR 18/04 A2993 RMK AO2 SLP133 T01780039 10217 20178 55005,KGVQ,2023-06-05T23:56:00Z,43.03,-78.17,17.8,3.9,240,9,,10.0,29.929134,1013.3,,TRUE,TRUE,,,,,,,CLR,,,,,,,,VFR,-0.5,21.7,17.8,,,,,,,,,METAR,279.0
KGUC 052356Z AUTO 25007G15KT 230V220 10SM FEW025 SCT060 BKN075 20/M01 A3017 RMK AO2 PK WND 24026/2337 RAB41E52 SLP151 P0000 60000 T02001006 10233 20189 56001,KGUC,2023-06-05T23:56:00Z,38.52,-106.93,20.0,-0.6,250,7,15,10.0,30.171259,1015.1,,TRUE,TRUE,,,,,,,FEW,2500,SCT,6000,BKN,7500,,,VFR,-0.1,23.3,18.9,,,0.005,,0.005,,,,METAR,2337.0
KGTU 052356Z 10007KT 10SM CLR 28/19 A2991 RMK AO2 SLP120 60000 T02780194 10306 20244 56007,KGTU,2023-06-05T23:56:00Z,30.68,-97.68,27.8,19.4,100,7,,10.0,29.911417,1012.0,,,TRUE,,,,,,,CLR,,,,,,,,VFR,-0.7,30.6,24.4,,,,,0.005,,,,METAR,232.0
KGTR 052356Z 34007G19KT 300V030 8SM TSRA BKN047 OVC060 21/18 A2996 RMK AO2 PK WND 02027/2311 WSHFT 2321 LTG DSNT W-NE TSB07RAB33 SLP152 P0001 60001 T02060178 10333 20206 53028,KGTR,2023-06-05T23:56:00Z,33.45,-88.58,20.6,17.8,340,7,19,8.0,29.958662,1015.2,,,TRUE,,,,,,TSRA,BKN,4700,OVC,6000,,,,,VFR,2.8,33.3,20.6,,,0.01,,0.01,,,,METAR,80.0
KGRD 052356Z AUTO 00000KT 10SM SCT070 21/18 A2994 RMK AO2 SLP134 T02110178 10244 20211 56005,KGRD,2023-06-05T23:56:00Z,34.25,-82.15,21.1,17.8,0,0,,10.0,29.940945,1013.4,,TRUE,TRUE,,,,,,,SCT,7000,,,,,,,VFR,-0.5,24.4,21.1,,,,,,,,,METAR,188.0
KGPZ 052356Z AUTO VRB05KT 8SM FEW033 23/18 A3011 RMK AO2 LTG DSNT SW-NW SLP192 T02330178 10267 20233 55001,KGPZ,2023-06-05T23:56:00Z,47.22,-93.52,23.3,17.8,0,5,,8.0,30.109253,1019.2,,TRUE,TRUE,,,,,,,FEW,3300,,,,,,,VFR,-0.1,26.7,23.3,,,,,,,,,METAR,410.0
KGON 052356Z 00000KT 10SM OVC080 16/12 A2977 RMK AO2 SLP082 T01610117 10217 20156 56002 $,KGON,2023-06-05T23:56:00Z,41.33,-72.05,16.1,11.7,0,0,,10.0,29.769686,1008.2,,,TRUE,TRUE,,,,,,OVC,8000,,,,,,,VFR,-0.2,21.7,15.6,,,,,,,,,METAR,2.0
KGNR 052356Z AUTO 36006KT 10/09 A2975 RMK AO1 SLP082 T01000089 10106 20100 58011,KGNR,2023-06-05T23:56:00Z,45.47,-69.55,10.0,8.9,360,6,,,29.749016,1008.2,,TRUE,TRUE,,,,,,,,,,,,,,,,-1.1,10.6,10.0,,,,,,,,,METAR,426.0
KGNA 052356Z AUTO 09006KT 13/10 A3015 RMK AO1 SLP209 T01330100 10156 20117 57006,KGNA,2023-06-05T23:56:00Z,47.75,-90.35,13.3,10.0,90,6,,,30.15059,1020.9,,TRUE,TRUE,,,,,,,,,,,,,,,,-0.6,15.6,11.7,,,,,,,,,METAR,186.0
KGDV 052356Z AUTO 16009KT 10SM CLR 29/15 A2995 RMK AO2 SLP124 T02940150 10300 20278 58020 TSNO,KGDV,2023-06-05T23:56:00Z,47.13,-104.8,29.4,15.0,160,9,,10.0,29.949802,1012.4,,TRUE,TRUE,,,TRUE,,,,CLR,,,,,,,,VFR,-2.0,30.0,27.8,,,,,,,,,METAR,749.0
KGBD 052356Z AUTO 10020G25KT 4SM -RA BKN070 BKN085 24/15 A3004 RMK AO2 TSB41E56RAB50 SLP162 P0000 60000 T02390150 10289 20239 55002,KGBD,2023-06-05T23:56:00Z,38.35,-98.87,23.9,15.0,100,20,25,4.0,30.041338,1016.2,,TRUE,TRUE,,,,,,-RA,BKN,7000,BKN,8500,,,,,MVFR,-0.2,28.9,23.9,,,0.005,,0.005,,,,METAR,573.0
KGAD 052356Z AUTO 00000KT 10SM CLR 26/23 A2993 RMK AO2 SLP134 6//// T02610233 10306 20261 53002 PNO $,KGAD,2023-06-05T23:56:00Z,33.97,-86.08,26.1,23.3,0,0,,10.0,29.929134,1013.4,,TRUE,TRUE,TRUE,,,,,,CLR,,,,,,,,VFR,0.2,30.6,26.1,,,,,,,,,METAR,169.0
KFSD 052356Z 10010KT 10SM SCT080 BKN140 BKN250 31/13 A3000 RMK AO2 SLP150 TCU DSNT N AND SW T03110133 10339 20300 56008,KFSD,2023-06-05T23:56:00Z,43.58,-96.75,31.1,13.3,100,10,,10.0,30.0,1015.0,,,TRUE,,,,,,,SCT,8000,BKN,14000,BKN,25000,,,VFR,-0.8,33.9,30.0,,,,,,,,,METAR,433.0
KFRM 052356Z AUTO 14007KT 8SM CLR 30/15 A3001 RMK AO2 SLP158 T03000150 10322 20294 56008,KFRM,2023-06-05T23:56:00Z,43.63,-94.42,30.0,15.0,140,7,,8.0,30.008858,1015.8,,TRUE,TRUE,,,,,,,CLR,,,,,,,,VFR,-0.8,32.2,29.4,,,,,,,,,METAR,353.0
KFOD 052356Z AUTO 17005KT 8SM CLR 29/14 A3002 RMK AO2 SLP170 T02890144 10317 20289 55007,KFOD,2023-06-05T23:56:00Z,42.53,-94.17,28.9,14.4,170,5,,8.0,30.02067,1017.0,,TRUE,TRUE,,,,,,,CLR,,,,,,,,VFR,-0.7,31.7,28.9,,,,,,,,,METAR,347.0
KFNL 052356Z 25006G17KT 10SM VCTS BKN047 OVC060 15/09 A3016 RMK AO2 WSHFT 2332 LTG DSNT SW-N TSB07 SLP180 T01500094 10233 20150 53004,KFNL,2023-06-05T23:56:00Z,40.45,-105.02,15.0,9.4,250,6,17,10.0,30.159449,1018.0,,,TRUE,,,,,,VCTS,BKN,4700,OVC,6000,,,,,VFR,0.4,23.3,15.0,,,,,,,,,METAR,1529.0
KFLP 052356Z AUTO 10SM CLR 28/19 A2993 RMK AO2 SLP130 T02830189 10328 20283 55004,KFLP,2023-06-05T23:56:00Z,36.28,-92.58,28.3,18.9,,,,10.0,29.929134,1013.0,,TRUE,TRUE,,,,,,,CLR,,,,,,,,VFR,-0.4,32.8,28.3,,,,,,,,,METAR,215.0
KFKL 052356Z AUTO 31003KT 10SM CLR 18/06 A2998 RMK AO2 SLP153 T01780061 10222 20178 57001,KFKL,2023-06-05T23:56:00Z,41.37,-79.87,17.8,6.1,310,3,,10.0,29.97933,1015.3,,TRUE,TRUE,,,,,,,CLR,,,,,,,,VFR,-0.1,22.2,17.8,,,,,,,,,METAR,468.0
KFCI 052356Z AUTO 21005KT 10SM CLR 21/13 RMK AO2 SLPNO 6//// T02060128 10261 20206 $,KFCI,2023-06-05T23:56:00Z,37.4,-77.52,20.6,12.8,210,5,,10.0,,,,TRUE,TRUE,TRUE,,,,,,CLR,,,,,,,,VFR,,26.1,20.6,,,,,,,,,METAR,63.0
KFAM 052356Z AUTO 31003KT 10SM CLR 26/12 A2998 RMK AO2 SLP155 T02560117 10283 20256 56007,KFAM,2023-06-05T23:56:00Z,37.77,-90.42,25.6,11.7,310,3,,10.0,29.97933,1015.5,,TRUE,TRUE,,,,,,,CLR,,,,,,,,VFR,-0.7,28.3,25.6,,,,,,,,,METAR,276.0
KEWK 052356Z AUTO 30003KT 10SM CLR 21/19 A3002 RMK AO2 LTG DSNT NE RAE35 SLP155 P0001 6//// T02060189 10306 20183 58001,KEWK,2023-06-05T23:56:00Z,38.05,-97.27,20.6,18.9,300,3,,10.0,30.02067,1015.5,,TRUE,TRUE,,,,,,,CLR,,,,,,,,VFR,-0.1,30.6,18.3,,,0.01,,,,,,METAR,468.0
KEUL 052356Z AUTO 10SM CLR 29/07 A2989 RMK AO2 SLP104 T02940072 10300 20244 57019,KEUL,2023-06-05T23:56:00Z,43.63,-116.62,29.4,7.2,,,,10.0,29.890747,1010.4,,TRUE,TRUE,,,,,,,CLR,,,,,,,,VFR,-1.9,30.0,24.4,,,,,,,,,METAR,741.0
KESC 052356Z AUTO 36009KT 330V040 6SM HZ CLR 20/12 A3006 RMK AO2 SLP180 T02000117 10261 20200 58001,KESC,2023-06-05T23:56:00Z,45.72,-87.08,20.0,11.7,360,9,,6.0,30.059055,1018.0,,TRUE,TRUE,,,,,,HZ,CLR,,,,,,,,VFR,-0.1,26.1,20.0,,,,,,,,,METAR,180.0
KENV 052356Z AUTO 19003KT 10SM CLR 27/04 A2994 RMK AO2 SLP108 6//// T02720044 10278 20233 56012 PNO $,KENV,2023-06-05T23:56:00Z,40.72,-114.02,27.2,4.4,190,3,,10.0,29.940945,1010.8,,TRUE,TRUE,TRUE,,,,,,CLR,,,,,,,,VFR,-1.2,27.8,23.3,,,,,,,,,METAR,1291.0
KELZ 052356Z AUTO 31007KT 7SM SCT070 16/03 A2997 RMK AO2 SLP148 T01560033 10206 20156 55001,KELZ,2023-06-05T23:56:00Z,42.1,-77.98,15.6,3.3,310,7,,7.0,29.970472,1014.8,,TRUE,TRUE,,,,,,,SCT,7000,,,,,,,VFR,-0.1,20.6,15.6,,,,,,,,,METAR,639.0
KEKY 052356Z AUTO 00000KT 10SM CLR 24/22 A2993 RMK AO2 SLP983 T02440217 10300 20244 53001,KEKY,2023-06-05T23:56:00Z,33.32,-86.93,24.4,21.7,0,0,,10.0,29.929134,998.3,,TRUE,TRUE,,,,,,,CLR,,,,,,,,VFR,0.1,30.0,24.4,,,,,,,,,METAR,213.0
KEKQ 052356Z AUTO 02004KT 10SM OVC065 27/17 A2993 RMK AO2 SLP124 T02670172 10306 20267 55001,KEKQ,2023-06-05T23:56:00Z,36.85,-84.85,26.7,17.2,20,4,,10.0,29.929134,1012.4,,TRUE,TRUE,,,,,,,OVC,6500,,,,,,,VFR,-0.1,30.6,26.7,,,,,,,,,METAR,291.0
KEKO 052356Z AUTO 19013G24KT 10SM BKN110 22/06 A3000 RMK AO2 PK WND 19026/2346 LTG DSNT W AND NW SLP122 T02170061 10267 20200 55002,KEKO,2023-06-05T23:56:00Z,40.82,-115.78,21.7,6.1,190,13,24,10.0,30.0,1012.2,,TRUE,TRUE,,,,,,,BKN,11000,,,,,,,VFR,-0.2,26.7,20.0,,,,,,,,,METAR,1541.0
KEHR 052356Z AUTO 01005KT 10SM CLR 26/10 A2993 RMK AO2 SLP131 T02610100 10306 20261 55002,KEHR,2023-06-05T23:56:00Z,37.82,-87.67,26.1,10.0,10,5,,10.0,29.929134,1013.1,,TRUE,TRUE,,,,,,,CLR,,,,,,,,VFR,-0.2,30.6,26.1,,,,,,,,,METAR,117.0
KEGE 052356Z 29004KT 10SM CLR 22/03 A3014 RMK AO2 SLP109 60005 T02170033 10239 20178 58010,KEGE,2023-06-05T23:56:00Z,39.63,-106.92,21.7,3.3,290,4,,10.0,30.138779,1010.9,,,TRUE,,,,,,,CLR,,,,,,,,VFR,-1.0,23.9,17.8,,,,,0.05,,,,METAR,1993.0
KEEN 052356Z AUTO 00000KT 10SM SCT055 BKN075 OVC110 15/12 A2979 RMK AO2 SLP092 T01500117 10183 20150 53001 $,KEEN,2023-06-05T23:56:00Z,42.88,-72.27,15.0,11.7,0,0,,10.0,29.790354,1009.2,,TRUE,TRUE,TRUE,,,,,,SCT,5500,BKN,7500,OVC,11000,,,VFR,0.1,18.3,15.0,,,,,,,,,METAR,143.0
KEED 052356Z AUTO 15014G26KT 10SM CLR 38/M07 A2961 RMK AO2 PK WND 16034/2338 SLP993 T03831067 10394 20361 56021,KEED,2023-06-05T23:56:00Z,34.77,-114.62,38.3,-6.7,150,14,26,10.0,29.610237,999.3,,TRUE,TRUE,,,,,,,CLR,,,,,,,,VFR,-2.1,39.4,36.1,,,,,,,,,METAR,271.0
KEAU 052356Z 06005KT 10SM FEW050 BKN060 BKN075 29/17 A3001 RMK AO2 SLP158 T02940172 10311 20267 56011,KEAU,2023-06-05T23:56:00Z,44.87,-91.48,29.4,17.2,60,5,,10.0,30.008858,1015.8,,,TRUE,,,,,,,FEW,5000,BKN,6000,BKN,7500,,,VFR,-1.1,31.1,26.7,,,,,,,,,METAR,271.0
KEAR 052356Z AUTO 08004KT 10SM CLR 27/13 A3005 RMK AO2 SLP159 T02720128 10283 20261 58008,KEAR,2023-06-05T23:56:00Z,40.72,-99.0,27.2,12.8,80,4,,10.0,30.050198,1015.9,,TRUE,TRUE,,,,,,,CLR,,,,,,,,VFR,-0.8,28.3,26.1,,,,,,,,,METAR,649.0
KDYR 052356Z AUTO 01004KT 10SM CLR 29/16 A2991 RMK AO2 LTG DSNT SE SLP132 T02940161 10339 20294 53006,KDYR,2023-06-05T23:56:00Z,36.0,-89.4,29.4,16.1,10,4,,10.0,29.911417,1013.2,,TRUE,TRUE,,,,,,,CLR,,,,,,,,VFR,0.6,33.9,29.4,,,,,,,,,METAR,98.0
KDWU 052356Z AUTO 00000KT 10SM CLR 22/15 A2995 RMK AO2 SLP139 T02220150 10261 20222 55003,KDWU,2023-06-05T23:56:00Z,38.55,-82.73,22.2,15.0,0,0,,10.0,29.949802,1013.9,,TRUE,TRUE,,,,,,,CLR,,,,,,,,VFR,-0.3,26.1,22.2,,,,,,,,,METAR,165.0
KDVL 052356Z AUTO 16005KT 10SM VCTS CLR 27/17 A3003 RMK AO2 LTG DSNT N AND NE TSB35 SLP174 T02720172 10306 20272 56006,KDVL,2023-06-05T23:56:00Z,48.12,-98.92,27.2,17.2,160,5,,10.0,30.029528,1017.4,,TRUE,TRUE,,,,,,VCTS,CLR,,,,,,,,VFR,-0.6,30.6,27.2,,,,,,,,,METAR,439.0
KDUG 052356Z AUTO 24016G22KT 10SM CLR 34/M06 A2990 RMK AO2 SLP054 T03391061 10350 20306 56013 TSNO,KDUG,2023-06-05T23:56:00Z,31.47,-109.6,33.9,-6.1,240,16,22,10.0,29.899607,1005.4,,TRUE,TRUE,,,TRUE,,,,CLR,,,,,,,,VFR,-1.3,35.0,30.6,,,,,,,,,METAR,1260.0
KDIK 052356Z AUTO 10013KT 10SM FEW070 28/17 A2999 RMK AO2 SLP139 T02830167 10300 20261 58015,KDIK,2023-06-05T23:56:00Z,46.8,-102.8,28.3,16.7,100,13,,10.0,29.991142,1013.9,,TRUE,TRUE,,,,,,,FEW,7000,,,,,,,VFR,-1.5,30.0,26.1,,,,,,,,,METAR,788.0
KDIJ 052356Z AUTO 32011KT 10SM CLR 22/09 A3010 RMK AO2 LTG DSNT NE SLP150 T02170094 10239 20194 56008,KDIJ,2023-06-05T23:56:00Z,43.75,-111.1,21.7,9.4,320,11,,10.0,30.100393,1015.0,,TRUE,TRUE,,,,,,,CLR,,,,,,,,VFR,-0.8,23.9,19.4,,,,,,,,,METAR,1896.0
KDAY 052356Z 03006KT 6SM HZ CLR 23/04 A2999 RMK AO2 SLP150 T02280039 10267 20228 55003,KDAY,2023-06-05T23:56:00Z,39.9,-84.22,22.8,3.9,30,6,,6.0,29.991142,1015.0,,,TRUE,,,,,,HZ,CLR,,,,,,,,VFR,-0.3,26.7,22.8,,,,,,,,,METAR,303.0
KD07 052356Z AUTO 18006KT 29/13 A3002 RMK AO1 SLP150 T02890128 10311 20278 57013,KD07,2023-06-05T23:56:00Z,45.03,-102.02,28.9,12.8,180,6,,,30.02067,1015.0,,TRUE,TRUE,,,,,,,,,,,,,,,,-1.3,31.1,27.8,,,,,,,,,METAR,786.0
KCXY 052356Z 34003KT 10SM CLR 24/04 A2987 RMK AO2 SLP114 T02390044 10256 20239 55002,KCXY,2023-06-05T23:56:00Z,40.22,-76.85,23.9,4.4,340,3,,10.0,29.870079,1011.4,,,TRUE,,,,,,,CLR,,,,,,,,VFR,-0.2,25.6,23.9,,,,,,,,,METAR,102.0
KCWI 052356Z AUTO 06004KT 10SM CLR 28/06 A3001 RMK AO2 SLP164 T02780061 10289 20250 56012,KCWI,2023-06-05T23:56:00Z,41.82,-90.32,27.8,6.1,60,4,,10.0,30.008858,1016.4,,TRUE,TRUE,,,,,,,CLR,,,,,,,,VFR,-1.2,28.9,25.0,,,,,,,,,METAR,212.0
KCVO 052356Z AUTO 04014G19KT 10SM CLR 29/02 A2991 RMK AO2 SLP126 T02890022 10289 20211 56020,KCVO,2023-06-05T23:56:00Z,44.5,-123.28,28.9,2.2,40,14,19,10.0,29.911417,1012.6,,TRUE,TRUE,,,,,,,CLR,,,,,,,,VFR,-2.0,28.9,21.1,,,,,,,,,METAR,75.0
KCVN 052356Z AUTO 10006KT 10SM BKN085 19/13 A3014 RMK AO2 SLP181 60014 T01940133 10217 20172 58006,KCVN,2023-06-05T23:56:00Z,34.42,-103.07,19.4,13.3,100,6,,10.0,30.138779,1018.1,,TRUE,TRUE,,,,,,,BKN,8500,,,,,,,VFR,-0.6,21.7,17.2,,,,,0.14,,,,METAR,1278.0
KCTB 052356Z AUTO 24015G20KT 10SM OVC110 19/11 A2995 RMK AO2 PK WND 22028/2324 WSHFT 2319 SLP126 T01940106 10278 20194 51002,KCTB,2023-06-05T23:56:00Z,48.6,-112.37,19.4,10.6,240,15,20,10.0,29.949802,1012.6,,TRUE,TRUE,,,,,,,OVC,11000,,,,,,,VFR,0.2,27.8,19.4,,,,,,,,,METAR,1172.0
KCQM 052356Z AUTO 15003KT 10SM CLR 24/16 A3009 RMK AO2 LTG DSNT NW,KCQM,2023-06-05T23:56:00Z,47.82,-92.68,24.0,16.0,150,3,,10.0,30.088583,,,TRUE,TRUE,,,,,,,CLR,,,,,,,,VFR,,,,,,,,,,,,METAR,406.0
KCOE 052356Z AUTO 20005KT 10SM CLR 27/05 A2995 RMK AO2 SLP146 6//// T02720050 10289 20250 58008 PNO $,KCOE,2023-06-05T23:56:00Z,47.77,-116.82,27.2,5.0,200,5,,10.0,29.949802,1014.6,,TRUE,TRUE,TRUE,,,,,,CLR,,,,,,,,VFR,-0.8,28.9,25.0,,,,,,,,,METAR,693.0
KCOD 052356Z AUTO 22006KT 10SM CLR 22/12 A3005 RMK AO2 SLP135 T02170122 10239 20211 58004,KCOD,2023-06-05T23:56:00Z,44.52,-109.02,21.7,12.2,220,6,,10.0,30.050198,1013.5,,TRUE,TRUE,,,,,,,CLR,,,,,,,,VFR,-0.4,23.9,21.1,,,,,,,,,METAR,1550.0
KCIU 052356Z AUTO 33006KT 9SM CLR 22/13 A3002 RMK AO2 SLP161 T02170128 10261 20217 56006,KCIU,2023-06-05T23:56:00Z,46.25,-84.47,21.7,12.8,330,6,,9.0,30.02067,1016.1,,TRUE,TRUE,,,,,,,CLR,,,,,,,,VFR,-0.6,26.1,21.7,,,,,,,,,METAR,242.0
KCHS 052356Z 14006KT 10SM SCT250 22/14 A2993 RMK AO2 SLP136 T02220139 10278 20222 53002,KCHS,2023-06-05T23:56:00Z,32.9,-80.03,22.2,13.9,140,6,,10.0,29.929134,1013.6,,,TRUE,,,,,,,SCT,25000,,,,,,,VFR,0.2,27.8,22.2,,,,,,,,,METAR,12.0
KCGZ 052356Z AUTO 22017G23KT 10SM CLR 38/M07 A2970 RMK AO2 PK WND 21026/2324 SLP039 6//// T03831072 10400 20333 56015 PNO $,KCGZ,2023-06-05T23:56:00Z,32.95,-111.77,38.3,-7.2,220,17,23,10.0,29.698818,1003.9,,TRUE,TRUE,TRUE,,,,,,CLR,,,,,,,,VFR,-1.5,40.0,33.3,,,,,,,,,METAR,444.0
KCEC 052356Z AUTO 18015KT 7SM BKN013 13/09 A2977 RMK AO2 SLP082 T01280094 10139 20122 56008,KCEC,2023-06-05T23:56:00Z,41.78,-124.23,12.8,9.4,180,15,,7.0,29.769686,1008.2,,TRUE,TRUE,,,,,,,BKN,1300,,,,,,,MVFR,-0.8,13.9,12.2,,,,,,,,,METAR,17.0
KCAE 052356Z VRB03KT 10SM BKN042 25/17 A2991 RMK AO2 SLP127 T02500172 10267 20244 55004,KCAE,2023-06-05T23:56:00Z,33.93,-81.12,25.0,17.2,0,3,,10.0,29.911417,1012.7,,,TRUE,,,,,,,BKN,4200,,,,,,,VFR,-0.4,26.7,24.4,,,,,,,,,METAR,69.0
KBZN 052356Z 08005KT 10SM VCTS BKN100 24/12 A2997 RMK AO2 LTG DSNT N AND NE SLP117 T02440117 10267 20217 56002,KBZN,2023-06-05T23:56:00Z,45.78,-111.17,24.4,11.7,80,5,,10.0,29.970472,1011.7,,,TRUE,,,,,,VCTS,BKN,10000,,,,,,,VFR,-0.2,26.7,21.7,,,,,,,,,METAR,1349.0
KBVX 052356Z AUTO 06004KT 10SM CLR 30/17 A2991 RMK AO2 SLP124 T03000167 10339 20289 55001,KBVX,2023-06-05T23:56:00Z,35.73,-91.65,30.0,16.7,60,4,,10.0,29.911417,1012.4,,TRUE,TRUE,,,,,,,CLR,,,,,,,,VFR,-0.1,33.9,28.9,,,,,,,,,METAR,137.0
KBTP 052356Z AUTO 31005KT 10SM CLR 20/08 A2997 RMK AO2 SLP153 T02000078 10228 20200 55001 TSNO $,KBTP,2023-06-05T23:56:00Z,40.77,-79.95,20.0,7.8,310,5,,10.0,29.970472,1015.3,,TRUE,TRUE,TRUE,,TRUE,,,,CLR,,,,,,,,VFR,-0.1,22.8,20.0,,,,,,,,,METAR,375.0
KBOK 052356Z AUTO 14005KT 8SM CLR 17/10 A2978 RMK AO2 SLP082 T01720100 10261 20172 53004,KBOK,2023-06-05T23:56:00Z,42.07,-124.28,17.2,10.0,140,5,,8.0,29.778543,1008.2,,TRUE,TRUE,,,,,,,CLR,,,,,,,,VFR,0.4,26.1,17.2,,,,,,,,,METAR,140.0
KBMI 052356Z 03010KT 10SM CLR 27/07 A3001 RMK AO2 SLP154 T02670067 10283 20256 56013,KBMI,2023-06-05T23:56:00Z,40.47,-88.92,26.7,6.7,30,10,,10.0,30.008858,1015.4,,,TRUE,,,,,,,CLR,,,,,,,,VFR,-1.3,28.3,25.6,,,,,,,,,METAR,262.0
KBLM 052356Z AUTO 17005KT 10SM OVC090 19/13 A2981 RMK AO2 SLP095 T01890128 10244 20189 56005,KBLM,2023-06-05T23:56:00Z,40.17,-74.12,18.9,12.8,170,5,,10.0,29.811024,1009.5,,TRUE,TRUE,,,,,,,OVC,9000,,,,,,,VFR,-0.5,24.4,18.9,,,,,,,,,METAR,45.0
KBKX 052356Z AUTO 02010KT 10SM CLR 27/16 A3004 RMK AO2 SLP175 T02670161 10311 20267 55006,KBKX,2023-06-05T23:56:00Z,44.3,-96.82,26.7,16.1,20,10,,10.0,30.041338,1017.5,,TRUE,TRUE,,,,,,,CLR,,,,,,,,VFR,-0.6,31.1,26.7,,,,,,,,,METAR,494.0
KBJJ 052356Z AUTO 36005KT 8SM CLR 19/07 A2999 RMK AO2 SLP156 T01940072 10233 20194 55003,KBJJ,2023-06-05T23:56:00Z,40.87,-81.88,19.4,7.2,360,5,,8.0,29.991142,1015.6,,TRUE,TRUE,,,,,,,CLR,,,,,,,,VFR,-0.3,23.3,19.4,,,,,,,,,METAR,338.0
KBIH 052356Z AUTO VRB04KT 10SM CLR 30/M01 A2974 RMK AO2 LTG DSNT NE AND E SLP024 60001 T03001011 10311 20217 56026,KBIH,2023-06-05T23:56:00Z,37.37,-118.35,30.0,-1.1,0,4,,10.0,29.740158,1002.4,,TRUE,TRUE,,,,,,,CLR,,,,,,,,VFR,-2.6,31.1,21.7,,,,,0.01,,,,METAR,1252.0
KBID 052356Z AUTO 21005KT 10SM OVC070 13/11 A2979 RMK AO2 SLP090 60000 T01330111 10156 20133 57003,KBID,2023-06-05T23:56:00Z,41.17,-71.58,13.3,11.1,210,5,,10.0,29.790354,1009.0,,TRUE,TRUE,,,,,,,OVC,7000,,,,,,,VFR,-0.3,15.6,13.3,,,,,0.005,,,,METAR,32.0
KBHB 052356Z AUTO 01010G15KT 5SM -RA BR BKN010 BKN014 OVC060 12/11 A2970 RMK AO2 CIG 007V012 SLP058 P0001 60004 T01170106 10122 20111 58006,KBHB,2023-06-05T23:56:00Z,44.45,-68.37,11.7,10.6,10,10,15,5.0,29.698818,1005.8,,TRUE,TRUE,,,,,,-RA BR,BKN,1000,BKN,1400,OVC,6000,,,MVFR,-0.6,12.2,11.1,,,0.01,,0.04,,,,METAR,21.0
KAWO 052356Z AUTO 32014KT 10SM CLR 21/05 A3009 RMK AO2 SLP193 T02060050 10222 20172 58019,KAWO,2023-06-05T23:56:00Z,48.17,-122.17,20.6,5.0,320,14,,10.0,30.088583,1019.3,,TRUE,TRUE,,,,,,,CLR,,,,,,,,VFR,-1.9,22.2,17.2,,,,,,,,,METAR,38.0
KAUM 052356Z AUTO 01004KT 10SM CLR 27/16 A3005 RMK AO2,KAUM,2023-06-05T23:56:00Z,43.67,-92.92,27.0,16.0,10,4,,10.0,30.050198,,,TRUE,TRUE,,,,,,,CLR,,,,,,,,VFR,,,,,,,,,,,,METAR,376.0
KASH 052356Z 32004KT 10SM SCT025 BKN060 BKN095 16/11 A2978 RMK AO2 SLP089 60000 T01610111 10178 20156 55000,KASH,2023-06-05T23:56:00Z,42.78,-71.52,16.1,11.1,320,4,,10.0,29.778543,1008.9,,,TRUE,,,,,,,SCT,2500,BKN,6000,BKN,9500,,,VFR,0.0,17.8,15.6,,,,,0.005,,,,METAR,56.0
KART 052356Z AUTO 20003KT 5SM HZ FEW047 SCT100 17/09 A2986 RMK AO2 SLP108 T01670094 10194 20167 56010,KART,2023-06-05T23:56:00Z,43.98,-76.03,16.7,9.4,200,3,,5.0,29.861221,1010.8,,TRUE,TRUE,,,,,,HZ,FEW,4700,SCT,10000,,,,,MVFR,-1.0,19.4,16.7,,,,,,,,,METAR,100.0
KARG 052356Z AUTO 07006KT 9SM CLR 29/16 A2991 RMK AO2 SLP128 T02940161 10333 20294 53004,KARG,2023-06-05T23:56:00Z,36.12,-90.92,29.4,16.1,70,6,,9.0,29.911417,1012.8,,TRUE,TRUE,,,,,,,CLR,,,,,,,,VFR,0.4,33.3,29.4,,,,,,,,,METAR,82.0
KAND 052356Z AUTO 13004KT 10SM BKN037 23/21 A2992 RMK AO2 SLP124 T02330206 10261 20228 55005,KAND,2023-06-05T23:56:00Z,34.5,-82.72,23.3,20.6,130,4,,10.0,29.920275,1012.4,,TRUE,TRUE,,,,,,,BKN,3700,,,,,,,VFR,-0.5,26.1,22.8,,,,,,,,,METAR,233.0
KALK 052356Z AUTO 26016G30KT 10SM CLR 31/M03 A2996 RMK AO2 PK WND 26030/2356 SLP054 T03111028 10333 20294 58010,KALK,2023-06-05T23:56:00Z,31.6,-110.43,31.1,-2.8,260,16,30,10.0,29.958662,1005.4,,TRUE,TRUE,,,,,,,CLR,,,,,,,,VFR,-1.0,33.3,29.4,,,,,,,,,METAR,1451.0
KAJO 052356Z AUTO 26011G17KT 10SM FEW031 BKN040 19/12 A2988 RMK AO2 SLP114 T01890117 10206 20161 56010,KAJO,2023-06-05T23:56:00Z,33.9,-117.6,18.9,11.7,260,11,17,10.0,29.878937,1011.4,,TRUE,TRUE,,,,,,,FEW,3100,BKN,4000,,,,,VFR,-1.0,20.6,16.1,,,,,,,,,METAR,161.0
KAIZ 052356Z AUTO 03005KT 7SM CLR 27/14 RMK AO2 SLPNO T02670139 10311 20267 $,KAIZ,2023-06-05T23:56:00Z,38.1,-92.53,26.7,13.9,30,5,,7.0,,,,TRUE,TRUE,TRUE,,,,,,CLR,,,,,,,,VFR,,31.1,26.7,,,,,,,,,METAR,263.0
KAFJ 052356Z AUTO 30004KT 10SM CLR 19/07 A2999 RMK AO2 SLP154 T01940072 10233 20194 55001,KAFJ,2023-06-05T23:56:00Z,40.13,-80.28,19.4,7.2,300,4,,10.0,29.991142,1015.4,,TRUE,TRUE,,,,,,,CLR,,,,,,,,VFR,-0.1,23.3,19.4,,,,,,,,,METAR,360.0
KADF 052356Z AUTO 15003KT 10SM VCTS CLR 26/24 A2988 RMK AO2 TSB56RAB06E30 SLP115 P0004 60004 T02610244 10339 20256 55001,KADF,2023-06-05T23:56:00Z,34.1,-93.07,26.1,24.4,150,3,,10.0,29.878937,1011.5,,TRUE,TRUE,,,,,,VCTS,CLR,,,,,,,,VFR,-0.1,33.9,25.6,,,0.04,,0.04,,,,METAR,54.0
K8D3 052356Z AUTO 00000KT 26/20 A3000 RMK AO1 SLP143 6//// T02610200 10322 20206 $ ,K8D3,2023-06-05T23:56:00Z,45.67,-96.98,26.1,20.0,0,0,,,30.0,1014.3,,TRUE,TRUE,TRUE,,,,,,,,,,,,,,,,32.2,20.6,,,,,,,,,METAR,535.0
K79J 052356Z AUTO 00000KT 10SM CLR 28/18 A2991 RMK AO2 SLPNO T02830178 53003 ,K79J,2023-06-05T23:56:00Z,31.32,-86.4,28.3,17.8,0,0,,10.0,29.911417,,,TRUE,TRUE,,,,,,,CLR,,,,,,,,VFR,0.3,,,,,,,,,,,METAR,93.0
K2WX 052356Z AUTO 14016KT 29/11 A2998 RMK AO1 SLP129 T02890111 10306 20278 56017,K2WX,2023-06-05T23:56:00Z,45.6,-103.55,28.9,11.1,140,16,,,29.97933,1012.9,,TRUE,TRUE,,,,,,,,,,,,,,,,-1.7,30.6,27.8,,,,,,,,,METAR,925.0
K1M4 052356Z AUTO 00000KT 10SM CLR 21/21 A2996 RMK AO2 SLP131 60003 T02060206 10311 20206 53004,K1M4,2023-06-05T23:56:00Z,34.28,-87.6,20.6,20.6,0,0,,10.0,29.958662,1013.1,,TRUE,TRUE,,,,,,,CLR,,,,,,,,VFR,0.4,31.1,20.6,,,,,0.03,,,,METAR,283.0
CYPD 052356Z AUTO 07014G22KT 5SM -RA BR OVC003 08/08 A2963 RMK PCPN 0.5MM PAST HR SLP039,CYPD,2023-06-05T23:56:00Z,45.67,-61.37,8.0,8.0,70,14,22,5.0,29.630905,1003.9,,TRUE,,,,,,,-RA BR,OVC,300,,,,,,,LIFR,,,,,,,,,,,,SPECI,106.0
CYCA 052356Z AUTO 36013G18KT 2 1/4SM BR OVC002 01/00 A3009 RMK SLP194,CYCA,2023-06-05T23:56:00Z,53.68,-57.03,1.0,0.0,360,13,18,2.25,30.088583,1019.4,,TRUE,,,,,,,BR,OVC,200,,,,,,,LIFR,,,,,,,,,,,,SPECI,12.0
TXKF 052355Z 03007KT 9999 OVC009 20/19 Q1007 ,TXKF,2023-06-05T23:55:00Z,32.37,-64.68,20.0,19.0,30,7,,6.21,29.734253,,,,,,,,,,,OVC,900,,,,,,,IFR,,,,,,,,,,,,METAR,4.0
TNCE 052355Z AUTO 07008KT 040V100 //// // ///////// 28/26 Q1015 RE//,TNCE,2023-06-05T23:55:00Z,17.48,-62.97,28.0,26.0,70,8,,,29.970472,,,TRUE,,,,,,,,,,,,,,,,,,,,,,,,,,,,METAR,38.0
TNCB 052355Z 09014KT 060V130 9999 FEW011 SCT015 29/25 Q1011,TNCB,2023-06-05T23:55:00Z,12.13,-68.28,29.0,25.0,90,14,,6.21,29.852362,,,,,,,,,,,FEW,1100,SCT,1500,,,,,VFR,,,,,,,,,,,,METAR,6.0
TJPS 052355Z AUTO 10003KT 10SM 28/24 A2997 RMK AO2 TSNO,TJPS,2023-06-05T23:55:00Z,18.02,-66.57,28.0,24.0,100,3,,10.0,29.970472,,,TRUE,TRUE,,,TRUE,,,,,,,,,,,,,,,,,,,,,,,,METAR,12.0
RODN 052355Z 20006KT 10SM FEW020 28/18 A2981 RMK AO2A SLP100 T02770175 10277 20234 52002 FZRANO $,RODN,2023-06-05T23:55:00Z,26.35,127.77,27.7,17.5,200,6,,10.0,29.811024,1010.0,,,TRUE,TRUE,,,TRUE,,,FEW,2000,,,,,,,VFR,0.2,27.7,23.4,,,,,,,,,METAR,38.0
RKSG 052355Z 36004KT 10SM BKN025 20/20 A2978 RMK AO2A SLP087 T02000195 10206 20158 58002 $,RKSG,2023-06-05T23:55:00Z,36.97,127.02,20.0,19.5,360,4,,10.0,29.778543,1008.7,,,TRUE,TRUE,,,,,,BKN,2500,,,,,,,MVFR,-0.2,20.6,15.8,,,,,,,,,METAR,12.0
RKJK 052355Z 32003KT 7SM FEW018 21/14 A2976 RMK AO2A SLP082 T02060140 10208 20158 58005 $,RKJK,2023-06-05T23:55:00Z,35.9,126.62,20.6,14.0,320,3,,7.0,29.760826,1008.2,,,TRUE,TRUE,,,,,,FEW,1800,,,,,,,VFR,-0.5,20.8,15.8,,,,,,,,,METAR,8.0
RJTY 052355Z 00000KT 10SM FEW030 SCT120 SCT170 BKN240 22/12 A2985 RMK AO2A SLP109 T02180121 10221 20159 54000 $,RJTY,2023-06-05T23:55:00Z,35.75,139.33,21.8,12.1,0,0,,10.0,29.84941,1010.9,,,TRUE,TRUE,,,,,,FEW,3000,SCT,12000,SCT,17000,BKN,24000,VFR,,22.1,15.9,,,,,,,,,METAR,136.0
PWAK 052355Z AUTO 06018KT 6SM HZ FEW018 31/24 A3001 RMK AO2 SLP168 T03060235 10309 20264 50000,PWAK,2023-06-05T23:55:00Z,19.28,166.62,30.6,23.5,60,18,,6.0,30.008858,1016.8,,TRUE,TRUE,,,,,,HZ,FEW,1800,,,,,,,VFR,0.0,30.9,26.4,,,,,,,,,METAR,7.0
PTYA 052355Z 20008KT 2SM TS +SHRA SCT016CB OVC120 26/25 A2984 RMK TSB09 NW-NE-SE-S MOV NW SLP105 60138 8/92/ T02550252 10268 20252 52019,PTYA,2023-06-05T23:55:00Z,9.48,138.08,25.5,25.2,200,8,,2.0,29.840551,1010.5,,,,,,,,,TS +SHRA,SCT,1600,OVC,12000,,,,,IFR,1.9,26.8,25.2,,,,,1.38,,,,METAR,4.0
PHSF 052355Z AUTO 25016KT 9SM FEW015 SCT021 BKN026 18/13 A3038 RMK AO2 PK WND 29026/38 BKN V SCT SLP188 T01760133 10207 20146 57005 $,PHSF,2023-06-05T23:55:00Z,19.77,-155.55,17.6,13.3,250,16,,9.0,30.380905,1018.8,,TRUE,TRUE,TRUE,,,,,,FEW,1500,SCT,2100,BKN,2600,,,MVFR,-0.5,20.7,14.6,,,,,,,,,METAR,1863.0
PHHI 052355Z AUTO 07010G14KT 10SM FEW160 FEW200 28/17 A3010 RMK AO2 SLP184 T02770169 10279 20230 57011 $,PHHI,2023-06-05T23:55:00Z,21.48,-158.05,27.7,16.9,70,10,14,10.0,30.100393,1018.4,,TRUE,TRUE,TRUE,,,,,,FEW,16000,FEW,20000,,,,,VFR,-1.1,27.9,23.0,,,,,,,,,METAR,246.0
PFYU 052355Z 04009KT 10SM SCT050 22/ A3001,PFYU,2023-06-05T23:55:00Z,66.57,-145.23,22.0,,40,9,,10.0,30.008858,,,,,,,,,,,SCT,5000,,,,,,,VFR,,,,,,,,,,,,METAR,130.0
PATL 052355Z AUTO 07029G146KT 010V080 10SM SQ SQ CLR 19/03 A2987 RMK AO2 SLP113 T01910034 10188 20116 57022,PATL,2023-06-05T23:55:00Z,62.9,-155.97,19.1,3.4,70,29,146,10.0,29.870079,1011.3,,TRUE,TRUE,,,,,,SQ SQ,CLR,,,,,,,,VFR,-2.2,18.8,11.6,,,,,,,,,METAR,261.0
PATC 052355Z AUTO 03015KT 10SM CLR 05/02 A2993 RMK AO2 SLP139 T00470023 10058 20036 57006,PATC,2023-06-05T23:55:00Z,65.57,-167.92,4.7,2.3,30,15,,10.0,29.929134,1013.9,,TRUE,TRUE,,,,,,,CLR,,,,,,,,VFR,-0.6,5.8,3.6,,,,,,,,,METAR,77.0
PASV 052355Z AUTO 17011KT 10SM BKN130 16/01 A2982 RMK AO2 SLP093 T01640011 10118 20064 57012,PASV,2023-06-05T23:55:00Z,61.1,-155.57,16.4,1.1,170,11,,10.0,29.819881,1009.3,,TRUE,TRUE,,,,,,,BKN,13000,,,,,,,VFR,-1.2,11.8,6.4,,,,,,,,,METAR,462.0
PALU 052355Z AUTO 00000KT 10SM CLR 07/04 A3006 RMK AO2 SLP178 T00660039 10100 20053 52002,PALU,2023-06-05T23:55:00Z,68.88,-166.1,6.6,3.9,0,0,,10.0,30.059055,1017.8,,TRUE,TRUE,,,,,,,CLR,,,,,,,,VFR,0.2,10.0,5.3,,,,,,,,,METAR,8.0
PAIM 052355Z AUTO VRB05KT 10SM FEW055 BKN095 16/04 A2998 RMK AO2 SLP154 T01620039 10163 20105 57020,PAIM,2023-06-05T23:55:00Z,66.0,-153.7,16.2,3.9,0,5,,10.0,29.97933,1015.4,,TRUE,TRUE,,,,,,,FEW,5500,BKN,9500,,,,,VFR,-2.0,16.3,10.5,,,,,,,,,METAR,309.0
PAFR 052355Z AUTO 00000KT 10SM SCT090 BKN110 21/02 A2994 RMK AO2 SLP144 T02100018 10210 20136 56015 $,PAFR,2023-06-05T23:55:00Z,61.27,-149.65,21.0,1.8,0,0,,10.0,29.940945,1014.4,,TRUE,TRUE,TRUE,,,,,,SCT,9000,BKN,11000,,,,,VFR,-1.5,21.0,13.6,,,,,,,,,METAR,106.0
PAFB 052355Z 17005KT 10SM FEW060 FEW200 23/M00 A2988 RMK AO2A SLP124 T02321003 10234 20173 57022 FZRANO $,PAFB,2023-06-05T23:55:00Z,64.83,-147.62,23.2,-0.3,170,5,,10.0,29.878937,1012.4,,,TRUE,TRUE,,,TRUE,,,FEW,6000,FEW,20000,,,,,VFR,-2.2,23.4,17.3,,,,,,,,,METAR,137.0
PAEI 052355Z AUTO 34008KT 10SM CLR 23/02 A2986 RMK AO2 SLP115 T02280017 10233 20154 57021 $,PAEI,2023-06-05T23:55:00Z,64.67,-147.1,22.8,1.7,340,8,,10.0,29.861221,1011.5,,TRUE,TRUE,TRUE,,,,,,CLR,,,,,,,,VFR,-2.1,23.3,15.4,,,,,,,,,METAR,166.0
PAEH 052355Z AUTO 07009KT 040V110 10SM -SHRA OVC014 09/09 A2958 RMK AO2 RAB2323E2331SHRAB2331 SLP018 P0000 60002 T00870086 10089 20064 57018,PAEH,2023-06-05T23:55:00Z,58.65,-162.07,8.7,8.6,70,9,,10.0,29.58071,1001.8,,TRUE,TRUE,,,,,,-SHRA,OVC,1400,,,,,,,MVFR,-1.8,8.9,6.4,,,0.005,,0.02,,,,METAR,101.0
PAED 052355Z 26007KT 10SM FEW080 SCT120 SCT200 19/03 A2992 RMK AO2A SLP128 T01880026 10203 20134 57015 $,PAED,2023-06-05T23:55:00Z,61.25,-149.83,18.8,2.6,260,7,,10.0,29.920275,1012.8,,,TRUE,TRUE,,,,,,FEW,8000,SCT,12000,SCT,20000,,,VFR,-1.5,20.3,13.4,,,,,,,,,METAR,54.0
PACZ 052355Z AUTO 05014KT 10SM SCT025 BKN060 11/05 A2972 RMK AO2 SLP067 T01050048 10076 20063 57019,PACZ,2023-06-05T23:55:00Z,61.78,-166.03,10.5,4.8,50,14,,10.0,29.719488,1006.7,,TRUE,TRUE,,,,,,,SCT,2500,BKN,6000,,,,,VFR,-1.9,7.6,6.3,,,,,,,,,METAR,129.0
PAAD 052355Z 11004KT 10SM CLR 05/02 A3016 RMK AO2 T00530019 10063 20021 PWINO,PAAD,2023-06-05T23:55:00Z,70.13,-146.28,5.3,1.9,110,4,,10.0,30.159449,,,,TRUE,,,,,TRUE,,CLR,,,,,,,,VFR,,6.3,2.1,,,,,,,,,METAR,8.0
OTBH 052355Z 00000KT 8000 BR SKC 27/27 A2963 Q1003 RMK AO2A SLP034 T02700270 10317 20270 FZRANO VISNO RWY16 $,OTBH,2023-06-05T23:55:00Z,25.12,51.32,27.0,27.0,0,0,,4.97,29.616142,1003.4,,,TRUE,TRUE,,,TRUE,,BR,SKC,,,,,,,,MVFR,,31.7,27.0,,,,,,,,,METAR,40.0
OPLA 052355Z 21012KT 5000 FU FEW040 27/17 Q1004 TEMPO 18015G30KT RMK QFE979 A29.66,OPLA,2023-06-05T23:55:00Z,31.52,74.4,27.0,17.0,210,12,,3.11,29.64567,,,,,,,,,,FU,FEW,4000,,,,,,,MVFR,,,,,,,,,,,,METAR,217.0
OPFA 052355Z 00000KT 5000 FU NSC 27/21 Q1004 NOSIG,OPFA,2023-06-05T23:55:00Z,31.37,73.0,27.0,21.0,0,0,,3.11,29.64567,,,,,,TRUE,,,,FU,CLR,,,,,,,,MVFR,,,,,,,,,,,,METAR,180.0
OKAS 052355Z 30006KT 9999 SCT150 31/05 A2972 RMK AO2A SLP058 T03070051 10366 20307 50004 FZRANO $,OKAS,2023-06-05T23:55:00Z,29.35,47.52,30.7,5.1,300,6,,6.21,29.719488,1005.8,,,TRUE,TRUE,,,TRUE,,,SCT,15000,,,,,,,VFR,0.4,36.6,30.7,,,,,,,,,METAR,144.0
OEPS 052355Z 00000KT 9999 CLR 29/02 A2985 RMK AO2A SLP085 WND DATA ESTMD T02870024 10349 20282 55002,OEPS,2023-06-05T23:55:00Z,24.07,47.58,28.7,2.4,0,0,,6.21,29.84941,1008.5,,,TRUE,,,,,,,CLR,,,,,,,,VFR,-0.2,34.9,28.2,,,,,,,,,METAR,503.0
NZCM 052355Z AUTO 11016G25KT 9999 BKN075 OVC150 M22/M28 A2920 RMK AO2 SLP895 T12211278 11210 21230 50007,NZCM,2023-06-05T23:55:00Z,-77.85,166.67,-22.1,-27.8,110,16,25,6.21,29.199802,989.5,,TRUE,TRUE,,,,,,,BKN,7500,OVC,15000,,,,,VFR,0.7,-21.0,-23.0,,,,,,,,,METAR,24.0
KZPH 052355Z AUTO 07007KT 10SM CLR 27/18 A2991 RMK A02 T02740182 10311 20273 403110195,KZPH,2023-06-05T23:55:00Z,28.23,-82.15,27.4,18.2,70,7,,10.0,29.911417,,,TRUE,TRUE,,,,,,,CLR,,,,,,,,VFR,,31.1,27.3,31.1,19.5,,,,,,,METAR,26.0
KZER 052355Z AUTO 05004KT 10SM CLR 17/02 A2992 RMK AO2,KZER,2023-06-05T23:55:00Z,40.7,-76.37,17.0,2.0,50,4,,10.0,29.920275,,,TRUE,TRUE,,,,,,,CLR,,,,,,,,VFR,,,,,,,,,,,,METAR,518.0
KY70 052355Z AUTO 26010KT 10SM CLR 26/08 A2995 RMK AO2 T02610075 10288 20257,KY70,2023-06-05T23:55:00Z,42.93,-85.07,26.1,7.5,260,10,,10.0,29.949802,,,TRUE,TRUE,,,,,,,CLR,,,,,,,,VFR,,28.8,25.7,,,,,,,,,METAR,247.0
KY63 052355Z AUTO 08003KT 10SM SCT003 SCT085 BKN100 28/15 A3004 RMK AO2 T02750154 10325 20275,KY63,2023-06-05T23:55:00Z,45.98,-96.0,27.5,15.4,80,3,,10.0,30.041338,,,TRUE,TRUE,,,,,,,SCT,300,SCT,8500,BKN,10000,,,VFR,,32.5,27.5,,,,,,,,,METAR,367.0
KY49 052355Z AUTO 00000KT 10SM CLR 24/19 A3007 RMK AO2 LTG DSNT ALQS T02370192 10269 20225,KY49,2023-06-05T23:55:00Z,47.15,-94.65,23.7,19.2,0,0,,10.0,30.070866,,,TRUE,TRUE,,,,,,,CLR,,,,,,,,VFR,,26.9,22.5,,,,,,,,,METAR,413.0
KXNX 052355Z AUTO 35006KT 10SM CLR 29/14 A2993 RMK A01,KXNX,2023-06-05T23:55:00Z,36.38,-86.42,29.0,14.0,350,6,,10.0,29.929134,,,TRUE,TRUE,,,,,,,CLR,,,,,,,,VFR,,,,,,,,,,,,METAR,178.0
KXNO 052355Z AUTO 00000KT 10SM SCT047 25/24 A2991 RMK AO2 SLP129 T02470236 10263 20247 55003 $,KXNO,2023-06-05T23:55:00Z,33.62,-81.07,24.7,23.6,0,0,,10.0,29.911417,1012.9,,TRUE,TRUE,TRUE,,,,,,SCT,4700,,,,,,,VFR,-0.3,26.3,24.7,,,,,,,,,METAR,94.0
KXMR 052355Z AUTO 04009KT 10SM BKN033 26/18 A2988 RMK AO2 SLP121 T02610180 10289 20257 53005 $,KXMR,2023-06-05T23:55:00Z,28.47,-80.57,26.1,18.0,40,9,,10.0,29.878937,1012.1,,TRUE,TRUE,TRUE,,,,,,BKN,3300,,,,,,,VFR,0.5,28.9,25.7,,,,,,,,,METAR,5.0
KXLL 052355Z AUTO 31005KT 10SM CLR 21/03 A2986 RMK AO2,KXLL,2023-06-05T23:55:00Z,40.57,-75.48,21.0,3.0,310,5,,10.0,29.861221,,,TRUE,TRUE,,,,,,,CLR,,,,,,,,VFR,,,,,,,,,,,,METAR,118.0
KWYS 052355Z AUTO 22010G16KT 10SM OVC100 20/03 A3010 RMK AO2,KWYS,2023-06-05T23:55:00Z,44.68,-111.12,20.0,3.0,220,10,16,10.0,30.100393,,,TRUE,TRUE,,,,,,,OVC,10000,,,,,,,VFR,,,,,,,,,,,,METAR,2025.0
KWWR 052355Z AUTO 03007KT 10SM CLR 27/10 A3005 RMK AO2,KWWR,2023-06-05T23:55:00Z,36.45,-99.52,27.0,10.0,30,7,,10.0,30.050198,,,TRUE,TRUE,,,,,,,CLR,,,,,,,,VFR,,,,,,,,,,,,METAR,664.0
KWRI 052355Z AUTO 35006KT 10SM FEW080 21/07 A2980 RMK AO2 SLP090 T02120074 10255 20212 55001,KWRI,2023-06-05T23:55:00Z,40.02,-74.58,21.2,7.4,350,6,,10.0,29.799213,1009.0,,TRUE,TRUE,,,,,,,FEW,8000,,,,,,,VFR,-0.1,25.5,21.2,,,,,,,,,METAR,35.0
KWRB 052355Z AUTO 00000KT 10SM CLR 28/19 A2991 RMK AO2 SLP129 T02750190 10298 20266 55001,KWRB,2023-06-05T23:55:00Z,32.63,-83.58,27.5,19.0,0,0,,10.0,29.911417,1012.9,,TRUE,TRUE,,,,,,,CLR,,,,,,,,VFR,-0.1,29.8,26.6,,,,,,,,,METAR,82.0
KWDR 052355Z AUTO 00000KT 10SM CLR 25/17 A2994 RMK AO2,KWDR,2023-06-05T23:55:00Z,33.98,-83.67,25.0,17.0,0,0,,10.0,29.940945,,,TRUE,TRUE,,,,,,,CLR,,,,,,,,VFR,,,,,,,,,,,,METAR,280.0
KW22 052355Z AUTO 32004KT 10SM CLR 20/09 A2998 RMK AO2,KW22,2023-06-05T23:55:00Z,39.0,-80.27,20.0,9.0,320,4,,10.0,29.97933,,,TRUE,TRUE,,,,,,,CLR,,,,,,,,VFR,,,,,,,,,,,,METAR,497.0
KVYS 052355Z AUTO 22004KT 10SM CLR 29/07 A3000 RMK AO2 T02850068,KVYS,2023-06-05T23:55:00Z,41.35,-89.15,28.5,6.8,220,4,,10.0,30.0,,,TRUE,TRUE,,,,,,,CLR,,,,,,,,VFR,,,,,,,,,,,,METAR,198.0
KVWU 052355Z AUTO 00000KT 10SM CLR 24/21 A3006 RMK AO2 LTG DSNT NE,KVWU,2023-06-05T23:55:00Z,48.15,-94.52,24.0,21.0,0,0,,10.0,30.059055,,,TRUE,TRUE,,,,,,,CLR,,,,,,,,VFR,,,,,,,,,,,,METAR,359.0
KVTP 052355Z AUTO 00000KT 5SM RA SCT001 BKN020 OVC026 05/05 A3042 RMK AO2 P0001,KVTP,2023-06-05T23:55:00Z,37.5,-105.17,5.0,5.0,0,0,,5.0,30.41929,,,TRUE,TRUE,,,,,,RA,SCT,100,BKN,2000,OVC,2600,,,MVFR,,,,,,0.01,,,,,,METAR,3086.0
KVTI 052355Z AUTO 16003KT 10SM CLR 30/07 A3001 RMK AO2 T02970067 10328 20272,KVTI,2023-06-05T23:55:00Z,42.22,-92.02,29.7,6.7,160,3,,10.0,30.008858,,,TRUE,TRUE,,,,,,,CLR,,,,,,,,VFR,,32.8,27.2,,,,,,,,,METAR,256.0
KVPC 052355Z AUTO 00000KT 10SM CLR 28/18 A2991 RMK AO2,KVPC,2023-06-05T23:55:00Z,34.1,-84.85,28.0,18.0,0,0,,10.0,29.911417,,,TRUE,TRUE,,,,,,,CLR,,,,,,,,VFR,,,,,,,,,,,,METAR,234.0
KVOK 052355Z 00000KT 6SM HZ CLR 28/16 A2999 RMK AO2A SLP155 T02780158 10308 20275 57012,KVOK,2023-06-05T23:55:00Z,43.93,-90.27,27.8,15.8,0,0,,6.0,29.991142,1015.5,,,TRUE,,,,,,HZ,CLR,,,,,,,,VFR,-1.2,30.8,27.5,,,,,,,,,METAR,278.0
KVOA 052355Z AUTO 11010KT 10SM FEW021 29/21 A2991 RMK A01,KVOA,2023-06-05T23:55:00Z,29.23,-87.78,29.0,21.0,110,10,,10.0,29.911417,,,TRUE,TRUE,,,,,,,FEW,2100,,,,,,,VFR,,,,,,,,,,,,METAR,53.0
KVLL 052355Z AUTO 01003KT 10SM SCT070 25/09 A2999 RMK AO2 T02510091 10267 20243,KVLL,2023-06-05T23:55:00Z,42.55,-83.18,25.1,9.1,10,3,,10.0,29.991142,,,TRUE,TRUE,,,,,,,SCT,7000,,,,,,,VFR,,26.7,24.3,,,,,,,,,METAR,214.0
KVKY 052355Z AUTO 00000KT 10SM SCT022 SCT026 A2992 RMK A01,KVKY,2023-06-05T23:55:00Z,29.25,-88.43,,,0,0,,10.0,29.920275,,,TRUE,TRUE,,,,,,,SCT,2200,SCT,2600,,,,,VFR,,,,,,,,,,,,METAR,32.0
KVHN 052355Z AUTO 03009G16KT 10SM CLR 29/09 A3004 RMK AO2 T02920094 10300 20244 403000145,KVHN,2023-06-05T23:55:00Z,31.07,-104.78,29.2,9.4,30,9,16,10.0,30.041338,,,TRUE,TRUE,,,,,,,CLR,,,,,,,,VFR,,30.0,24.4,30.0,14.5,,,,,,,METAR,1200.0
KVDI 052355Z AUTO 00000KT 10SM CLR 28/17 A2993 RMK AO2,KVDI,2023-06-05T23:55:00Z,32.2,-82.37,28.0,17.0,0,0,,10.0,29.929134,,,TRUE,TRUE,,,,,,,CLR,,,,,,,,VFR,,,,,,,,,,,,METAR,81.0
KVBG 052355Z 23008KT 6SM BR BKN011 OVC017 14/13 A2989 RMK AO2A SLP125 T01400132 10166 20128 50001,KVBG,2023-06-05T23:55:00Z,34.73,-120.58,14.0,13.2,230,8,,6.0,29.890747,1012.5,,,TRUE,,,,,,BR,BKN,1100,OVC,1700,,,,,MVFR,0.1,16.6,12.8,,,,,,,,,METAR,96.0
KVAF 052355Z AUTO 00000KT 10SM 25/19 A2989 RMK A01,KVAF,2023-06-05T23:55:00Z,27.35,-94.63,25.0,19.0,0,0,,10.0,29.890747,,,TRUE,TRUE,,,,,,,,,,,,,,,,,,,,,,,,,,,METAR,38.0
KVAD 052355Z AUTO 00000KT 10SM CLR 27/17 A2990 RMK AO2 SLP126 T02650170 10293 20265 55003 $,KVAD,2023-06-05T23:55:00Z,30.97,-83.2,26.5,17.0,0,0,,10.0,29.899607,1012.6,,TRUE,TRUE,TRUE,,,,,,CLR,,,,,,,,VFR,-0.3,29.3,26.5,,,,,,,,,METAR,70.0
KUVA 052355Z AUTO 07004KT VCTS 23/22 A2990 RMK AO2 LTG DSNT SE THRU NW P0001 60001 T02330219 10311 20222,KUVA,2023-06-05T23:55:00Z,29.22,-99.75,23.3,21.9,70,4,,,29.899607,,,TRUE,TRUE,,,,,,VCTS,,,,,,,,,,,31.1,22.2,,,0.01,,0.01,,,,METAR,285.0
KUSE 052355Z AUTO 34004KT 10SM FEW070 SCT085 26/07 A2997 RMK AO2,KUSE,2023-06-05T23:55:00Z,41.62,-84.13,26.0,7.0,340,4,,10.0,29.970472,,,TRUE,TRUE,,,,,,,FEW,7000,SCT,8500,,,,,VFR,,,,,,,,,,,,METAR,237.0
KUNI 052355Z AUTO 02005KT 10SM CLR 20/08 A2997 RMK AO2 T02000079 10256 20200,KUNI,2023-06-05T23:55:00Z,39.22,-82.23,20.0,7.9,20,5,,10.0,29.970472,,,TRUE,TRUE,,,,,,,CLR,,,,,,,,VFR,,25.6,20.0,,,,,,,,,METAR,232.0
KUMP 052355Z AUTO 02004KT 10SM CLR 26/05 A2998 RMK AO2 T02560053 10278 20251,KUMP,2023-06-05T23:55:00Z,39.93,-86.05,25.6,5.3,20,4,,10.0,29.97933,,,TRUE,TRUE,,,,,,,CLR,,,,,,,,VFR,,27.8,25.1,,,,,,,,,METAR,247.0
KULM 052355Z AUTO 09008KT 10SM CLR 30/13 A3001 RMK AO2,KULM,2023-06-05T23:55:00Z,44.32,-94.5,30.0,13.0,90,8,,10.0,30.008858,,,TRUE,TRUE,,,,,,,CLR,,,,,,,,VFR,,,,,,,,,,,,METAR,305.0
KUKT 052355Z AUTO VRB06KT 10SM CLR 21/05 A2985 RMK A01,KUKT,2023-06-05T23:55:00Z,40.43,-75.38,21.0,5.0,0,6,,10.0,29.84941,,,TRUE,TRUE,,,,,,,CLR,,,,,,,,VFR,,,,,,,,,,,,METAR,156.0
KUKL 052355Z AUTO 34009KT 10SM VCTS BKN110 22/17 A3003 RMK AO2 LTG DSNT W AND NW T02220167 10310 20222,KUKL,2023-06-05T23:55:00Z,38.3,-95.73,22.2,16.7,340,9,,10.0,30.029528,,,TRUE,TRUE,,,,,,VCTS,BKN,11000,,,,,,,VFR,,31.0,22.2,,,,,,,,,METAR,357.0
KUCY 052355Z AUTO 01007KT 10SM CLR 28/15 A2989 RMK A01,KUCY,2023-06-05T23:55:00Z,36.38,-88.98,28.0,15.0,10,7,,10.0,29.890747,,,TRUE,TRUE,,,,,,,CLR,,,,,,,,VFR,,,,,,,,,,,,METAR,97.0
KU69 052355Z AUTO 25014KT 10SM SCT110 20/05 A3008 RMK A01,KU69,2023-06-05T23:55:00Z,40.2,-110.38,20.0,5.0,250,14,,10.0,30.079725,,,TRUE,TRUE,,,,,,,SCT,11000,,,,,,,VFR,,,,,,,,,,,,METAR,1776.0
KU55 052355Z AUTO 16009KT 10SM CLR 23/M02 A3008 RMK A01,KU55,2023-06-05T23:55:00Z,37.85,-112.38,23.0,-2.0,160,9,,10.0,30.079725,,,TRUE,TRUE,,,,,,,CLR,,,,,,,,VFR,,,,,,,,,,,,METAR,2060.0
KTZR 052355Z AUTO 04004KT 7SM CLR 22/06 A2999 RMK AO2 T02200060 10256 20220,KTZR,2023-06-05T23:55:00Z,39.9,-83.13,22.0,6.0,40,4,,7.0,29.991142,,,TRUE,TRUE,,,,,,,CLR,,,,,,,,VFR,,25.6,22.0,,,,,,,,,METAR,275.0
KTYQ 052355Z AUTO 03005KT 10SM CLR 25/01 A2999 RMK AO2 T02510014 10267 20243,KTYQ,2023-06-05T23:55:00Z,40.03,-86.25,25.1,1.4,30,5,,10.0,29.991142,,,TRUE,TRUE,,,,,,,CLR,,,,,,,,VFR,,26.7,24.3,,,,,,,,,METAR,279.0
KTXW 052355Z AUTO 15008KT 10SM CLR 28/20 A2985 RMK AO2 10367 20261 403670209,KTXW,2023-06-05T23:55:00Z,26.18,-97.97,28.0,20.0,150,8,,10.0,29.84941,,,TRUE,TRUE,,,,,,,CLR,,,,,,,,VFR,,36.7,26.1,36.7,20.9,,,,,,,METAR,21.0
KTWM 052355Z AUTO 08010KT 7SM CLR 17/13 A3013 RMK AO2,KTWM,2023-06-05T23:55:00Z,47.05,-91.75,17.0,13.0,80,10,,7.0,30.129921,,,TRUE,TRUE,,,,,,,CLR,,,,,,,,VFR,,,,,,,,,,,,METAR,331.0
KTVK 052355Z AUTO 08004KT 7SM CLR 26/12 A3004 RMK AO2,KTVK,2023-06-05T23:55:00Z,40.68,-92.9,26.0,12.0,80,4,,7.0,30.041338,,,TRUE,TRUE,,,,,,,CLR,,,,,,,,VFR,,,,,,,,,,,,METAR,311.0
KTVI 052355Z AUTO 00000KT 10SM CLR 25/20 A2993 RMK AO2,KTVI,2023-06-05T23:55:00Z,30.9,-83.88,25.0,20.0,0,0,,10.0,29.929134,,,TRUE,TRUE,,,,,,,CLR,,,,,,,,VFR,,,,,,,,,,,,METAR,74.0
KTTS 052355Z AUTO 04006KT 10SM CLR 25/19 A2990 RMK AO2 SLP129 T02450191 10282 20245 53006 $,KTTS,2023-06-05T23:55:00Z,28.58,-80.67,24.5,19.1,40,6,,10.0,29.899607,1012.9,,TRUE,TRUE,TRUE,,,,,,CLR,,,,,,,,VFR,0.6,28.2,24.5,,,,,,,,,METAR,1.0
KTTF 052355Z AUTO 20011KT 7SM OVC065 23/09 A2996 RMK AO2 T02250088 10239 20220,KTTF,2023-06-05T23:55:00Z,41.93,-83.42,22.5,8.8,200,11,,7.0,29.958662,,,TRUE,TRUE,,,,,,,OVC,6500,,,,,,,VFR,,23.9,22.0,,,,,,,,,METAR,186.0
KTQV 052355Z AUTO 25003KT 10SM CLR 25/11 A2990 RMK A01,KTQV,2023-06-05T23:55:00Z,36.0,-78.93,25.0,11.0,250,3,,10.0,29.899607,,,TRUE,TRUE,,,,,,,CLR,,,,,,,,VFR,,,,,,,,,,,,METAR,230.0
KTQK 052355Z AUTO 06005KT 10SM SCT110 26/08 A3009 RMK AO2 T02640082 10287 20244 402870111,KTQK,2023-06-05T23:55:00Z,38.47,-100.88,26.4,8.2,60,5,,10.0,30.088583,,,TRUE,TRUE,,,,,,,SCT,11000,,,,,,,VFR,,28.7,24.4,28.7,11.1,,,,,,,METAR,906.0
KTQH 052355Z AUTO 21004KT 10SM CLR 31/18 A2995 RMK AO2,KTQH,2023-06-05T23:55:00Z,35.93,-95.0,31.0,18.0,210,4,,10.0,29.949802,,,TRUE,TRUE,,,,,,,CLR,,,,,,,,VFR,,,,,,,,,,,,METAR,265.0
KTOC 052355Z AUTO 04004KT 7SM BR CLR 22/22 A2992 RMK AO2 T02240216 10289 20218 402890176 60017,KTOC,2023-06-05T23:55:00Z,34.6,-83.3,22.4,21.6,40,4,,7.0,29.920275,,,TRUE,TRUE,,,,,,BR,CLR,,,,,,,,VFR,,28.9,21.8,28.9,17.6,,,0.17,,,,METAR,292.0
KTOB 052355Z AUTO 00000KT 10SM CLR 25/14 A3006 RMK AO2,KTOB,2023-06-05T23:55:00Z,44.02,-92.82,25.0,14.0,0,0,,10.0,30.059055,,,TRUE,TRUE,,,,,,,CLR,,,,,,,,VFR,,,,,,,,,,,,METAR,394.0
KTNU 052355Z AUTO 12003KT 6SM HZ CLR 28/13 A3002 RMK A01,KTNU,2023-06-05T23:55:00Z,41.67,-93.02,28.0,13.0,120,3,,6.0,30.02067,,,TRUE,TRUE,,,,,,HZ,CLR,,,,,,,,VFR,,,,,,,,,,,,METAR,287.0
KTNB 052355Z AUTO 13003KT 10SM CLR 18/16 A3002 RMK AO2 T01800155 10223 20180,KTNB,2023-06-05T23:55:00Z,36.2,-81.65,18.0,15.5,130,3,,10.0,30.02067,,,TRUE,TRUE,,,,,,,CLR,,,,,,,,VFR,,22.3,18.0,,,,,,,,,METAR,958.0
KTMT 052355Z AUTO 06003KT 10SM OVC110 19/07 A3003 RMK AO2 60022 T01880073 10237 20148,KTMT,2023-06-05T23:55:00Z,39.47,-117.2,18.8,7.3,60,3,,10.0,30.029528,,,TRUE,TRUE,,,,,,,OVC,11000,,,,,,,VFR,,23.7,14.8,,,,,0.22,,,,METAR,1748.0
KTMK 052355Z AUTO 31016G23KT 10SM CLR 18/09 A3000 RMK AO2,KTMK,2023-06-05T23:55:00Z,45.42,-123.82,18.0,9.0,310,16,23,10.0,30.0,,,TRUE,TRUE,,,,,,,CLR,,,,,,,,VFR,,,,,,,,,,,,METAR,8.0
KTKC 052355Z AUTO 07008KT 10SM CLR 28/16 A3002 RMK AO2,KTKC,2023-06-05T23:55:00Z,44.25,-95.62,28.0,16.0,70,8,,10.0,30.02067,,,TRUE,TRUE,,,,,,,CLR,,,,,,,,VFR,,,,,,,,,,,,METAR,408.0
KTIP 052355Z AUTO 03003KT 10SM CLR 27/05 A2999 RMK AO2 T02680054 10276 20251,KTIP,2023-06-05T23:55:00Z,40.28,-88.15,26.8,5.4,30,3,,10.0,29.991142,,,TRUE,TRUE,,,,,,,CLR,,,,,,,,VFR,,27.6,25.1,,,,,,,,,METAR,224.0
KTIK 052355Z 20004KT 10SM CLR 29/16 A2992 RMK AO2A SLP127 T02860162 10304 20239 55005 $,KTIK,2023-06-05T23:55:00Z,35.4,-97.38,28.6,16.2,200,4,,10.0,29.920275,1012.7,,,TRUE,TRUE,,,,,,CLR,,,,,,,,VFR,-0.5,30.4,23.9,,,,,,,,,METAR,387.0
KTIF 052355Z AUTO 22007KT 10SM CLR 25/13 A3010 RMK AO2 LTG DSNT S T02460132 10275 20246,KTIF,2023-06-05T23:55:00Z,41.97,-100.57,24.6,13.2,220,7,,10.0,30.100393,,,TRUE,TRUE,,,,,,,CLR,,,,,,,,VFR,,27.5,24.6,,,,,,,,,METAR,888.0
KTHA 052355Z AUTO 24003KT 10SM SCT060 SCT075 BKN085 27/19 A2990 RMK A01,KTHA,2023-06-05T23:55:00Z,35.38,-86.25,27.0,19.0,240,3,,10.0,29.899607,,,TRUE,TRUE,,,,,,,SCT,6000,SCT,7500,BKN,8500,,,VFR,,,,,,,,,,,,METAR,333.0
KTEX 052355Z AUTO 26007KT 10SM VCTS BKN075 OVC110 17/M04 A3029 RMK AO2 LTG DSNT SE AND SW,KTEX,2023-06-05T23:55:00Z,37.95,-107.9,17.0,-4.0,260,7,,10.0,30.28937,,,TRUE,TRUE,,,,,,VCTS,BKN,7500,OVC,11000,,,,,VFR,,,,,,,,,,,,METAR,2760.0
KTEW 052355Z AUTO 00000KT 10SM CLR 27/07 A2996 RMK AO2 T02700070 10281 20263,KTEW,2023-06-05T23:55:00Z,42.57,-84.42,27.0,7.0,0,0,,10.0,29.958662,,,TRUE,TRUE,,,,,,,CLR,,,,,,,,VFR,,28.1,26.3,,,,,,,,,METAR,281.0
KTDR 052355Z AUTO 22007KT 10SM CLR 26/22 A2987 RMK AO2 SLP119 T02630215 10306 20263 53001 $,KTDR,2023-06-05T23:55:00Z,30.05,-85.52,26.3,21.5,220,7,,10.0,29.870079,1011.9,,TRUE,TRUE,TRUE,,,,,,CLR,,,,,,,,VFR,0.1,30.6,26.3,,,,,,,,,METAR,4.0
KTCY 052355Z AUTO 32013KT 10SM CLR 30/10 A2972 RMK A01,KTCY,2023-06-05T23:55:00Z,37.68,-121.43,30.0,10.0,320,13,,10.0,29.719488,,,TRUE,TRUE,,,,,,,CLR,,,,,,,,VFR,,,,,,,,,,,,METAR,51.0
KTCM 052355Z AUTO 03013G17KT 10SM CLR 22/M02 A3006 RMK AO2 SLP183 T02161017 10225 20184 57018 $,KTCM,2023-06-05T23:55:00Z,47.13,-122.47,21.6,-1.7,30,13,17,10.0,30.059055,1018.3,,TRUE,TRUE,TRUE,,,,,,CLR,,,,,,,,VFR,-1.8,22.5,18.4,,,,,,,,,METAR,87.0
KTBX 052355Z AUTO 10SM CLR 18/04 A3026 RMK AO2,KTBX,2023-06-05T23:55:00Z,43.47,-108.23,18.0,4.0,,,,10.0,30.259842,,,TRUE,TRUE,,,,,,,CLR,,,,,,,,VFR,,,,,,,,,,,,METAR,2230.0
KTBR 052355Z AUTO 00000KT 10SM CLR 26/16 A2992 RMK AO2 T02560158 10278 20251 PWINO,KTBR,2023-06-05T23:55:00Z,32.48,-81.73,25.6,15.8,0,0,,10.0,29.920275,,,TRUE,TRUE,,,,,TRUE,,CLR,,,,,,,,VFR,,27.8,25.1,,,,,,,,,METAR,54.0
KTBN 052355Z AUTO 03006KT 9SM CLR 27/10 A2996 RMK AO2 SLP139 T02650098 10302 20265 55002 $,KTBN,2023-06-05T23:55:00Z,37.73,-92.13,26.5,9.8,30,6,,9.0,29.958662,1013.9,,TRUE,TRUE,TRUE,,,,,,CLR,,,,,,,,VFR,-0.2,30.2,26.5,,,,,,,,,METAR,349.0
KTAZ 052355Z AUTO 02007KT 10SM CLR 26/06 A2998 RMK AO2 T02600060 10275 20258,KTAZ,2023-06-05T23:55:00Z,39.53,-89.33,26.0,6.0,20,7,,10.0,29.97933,,,TRUE,TRUE,,,,,,,CLR,,,,,,,,VFR,,27.5,25.8,,,,,,,,,METAR,188.0
KT89 052355Z AUTO 09009KT 10SM CLR 33/09 A2988 RMK A01,KT89,2023-06-05T23:55:00Z,29.27,-103.68,33.0,9.0,90,9,,10.0,29.878937,,,TRUE,TRUE,,,,,,,CLR,,,,,,,,VFR,,,,,,,,,,,,METAR,801.0
KT82 052355Z AUTO 04008KT 10SM SCT038 SCT070 BKN110 24/19 A2994 RMK AO2 T02370185 10295 20228,KT82,2023-06-05T23:55:00Z,30.25,-98.92,23.7,18.5,40,8,,10.0,29.940945,,,TRUE,TRUE,,,,,,,SCT,3800,SCT,7000,BKN,11000,,,VFR,,29.5,22.8,,,,,,,,,METAR,509.0
KT78 052355Z AUTO 30005KT 7SM VCTS FEW032 BKN043 BKN055 23/22 A2987 RMK AO2 LTG DSNT W-NE P0009,KT78,2023-06-05T23:55:00Z,30.08,-94.7,23.0,22.0,300,5,,7.0,29.870079,,,TRUE,TRUE,,,,,,VCTS,FEW,3200,BKN,4300,BKN,5500,,,VFR,,,,,,0.09,,,,,,METAR,21.0
KT74 052355Z AUTO 15003KT 10SM CLR 25/20 A2990 RMK AO2 LTG DSNT E T02450204 10304 20225 403040186 60024,KT74,2023-06-05T23:55:00Z,30.57,-97.45,24.5,20.4,150,3,,10.0,29.899607,,,TRUE,TRUE,,,,,,,CLR,,,,,,,,VFR,,30.4,22.5,30.4,18.6,,,0.24,,,,METAR,169.0
KT70 052355Z AUTO 00000KT 10SM CLR 32/15 A2983 RMK AO2 LTG DSNT N AND E SLP089 T03220148 10331 20296 57015 $,KT70,2023-06-05T23:55:00Z,29.12,-100.48,32.2,14.8,0,0,,10.0,29.828741,1008.9,,TRUE,TRUE,TRUE,,,,,,CLR,,,,,,,,VFR,-1.5,33.1,29.6,,,,,,,,,METAR,296.0
KT41 052355Z AUTO 28007KT 10SM VCTS CLR 24/20 A2988 RMK AO2 LTG DSNT N AND NE T02360204 10279 20229 403230209 60003,KT41,2023-06-05T23:55:00Z,29.67,-95.07,23.6,20.4,280,7,,10.0,29.878937,,,TRUE,TRUE,,,,,,VCTS,CLR,,,,,,,,VFR,,27.9,22.9,32.3,20.9,,,0.03,,,,METAR,8.0
KT35 052355Z AUTO 16004KT 10SM CLR 25/21 A2989 RMK AO2 LTG DSNT E 60019 T02470206 10288 20226,KT35,2023-06-05T23:55:00Z,30.88,-96.97,24.7,20.6,160,4,,10.0,29.890747,,,TRUE,TRUE,,,,,,,CLR,,,,,,,,VFR,,28.8,22.6,,,,,0.19,,,,METAR,122.0
KT20 052355Z AUTO 12004KT 10SM CLR 21/19 A2989 RMK AO2 LTG DSNT E THRU SW 60037 T02070191 10312 20207,KT20,2023-06-05T23:55:00Z,29.52,-97.47,20.7,19.1,120,4,,10.0,29.890747,,,TRUE,TRUE,,,,,,,CLR,,,,,,,,VFR,,31.2,20.7,,,,,0.37,,,,METAR,107.0
KSZY 052355Z AUTO 00000KT 10SM CLR 28/24 A2990 RMK A01,KSZY,2023-06-05T23:55:00Z,35.2,-88.5,28.0,24.0,0,0,,10.0,29.899607,,,TRUE,TRUE,,,,,,,CLR,,,,,,,,VFR,,,,,,,,,,,,METAR,184.0
KSZT 052355Z AUTO 20007KT 10SM CLR 28/01 A2992 RMK AO2,KSZT,2023-06-05T23:55:00Z,48.3,-116.57,28.0,1.0,200,7,,10.0,29.920275,,,TRUE,TRUE,,,,,,,CLR,,,,,,,,VFR,,,,,,,,,,,,METAR,649.0
KSZL 052355Z 07008KT 10SM FEW075 BKN250 28/15 A2996 RMK AO2A SLP142 T02840153 10311 20284 53001 $,KSZL,2023-06-05T23:55:00Z,38.73,-93.53,28.4,15.3,70,8,,10.0,29.958662,1014.2,,,TRUE,TRUE,,,,,,FEW,7500,BKN,25000,,,,,VFR,0.1,31.1,28.4,,,,,,,,,METAR,259.0
KSYM 052355Z AUTO 00000KT 10SM CLR 23/12 A2996 RMK AO2,KSYM,2023-06-05T23:55:00Z,38.22,-83.58,23.0,12.0,0,0,,10.0,29.958662,,,TRUE,TRUE,,,,,,,CLR,,,,,,,,VFR,,,,,,,,,,,,METAR,307.0
KSYI 052355Z AUTO 18004KT 10SM CLR 30/18 A2989 RMK A01,KSYI,2023-06-05T23:55:00Z,35.57,-86.45,30.0,18.0,180,4,,10.0,29.890747,,,TRUE,TRUE,,,,,,,CLR,,,,,,,,VFR,,,,,,,,,,,,METAR,244.0
KSYF 052355Z AUTO 11009KT 10SM CLR 24/10 A3010 RMK AO2 T02420104 10257 20231 PWINO,KSYF,2023-06-05T23:55:00Z,39.77,-101.8,24.2,10.4,110,9,,10.0,30.100393,,,TRUE,TRUE,,,,,TRUE,,CLR,,,,,,,,VFR,,25.7,23.1,,,,,,,,,METAR,1041.0
KSXU 052355Z AUTO 12007KT 10SM CLR 22/12 A3012 RMK AO2 LTG DSNT N AND S T02220115 10234 20194,KSXU,2023-06-05T23:55:00Z,34.93,-104.65,22.2,11.5,120,7,,10.0,30.121063,,,TRUE,TRUE,,,,,,,CLR,,,,,,,,VFR,,23.4,19.4,,,,,,,,,METAR,1465.0
KSXS 052355Z AUTO 20003KT 10SM CLR 27/17 A2990 RMK AO2 SLP124 T02660168 10301 20266 53001,KSXS,2023-06-05T23:55:00Z,31.37,-85.85,26.6,16.8,200,3,,10.0,29.899607,1012.4,,TRUE,TRUE,,,,,,,CLR,,,,,,,,VFR,0.1,30.1,26.6,,,,,,,,,METAR,120.0
KSXK 052355Z AUTO 00000KT 10SM CLR 29/15 A2999 RMK AO2,KSXK,2023-06-05T23:55:00Z,42.98,-96.17,29.0,15.0,0,0,,10.0,29.991142,,,TRUE,TRUE,,,,,,,CLR,,,,,,,,VFR,,,,,,,,,,,,METAR,430.0
KSWW 052355Z AUTO 08009KT 10SM CLR 25/14 A3003 RMK AO2 T02450139 10274 20230,KSWW,2023-06-05T23:55:00Z,32.47,-100.47,24.5,13.9,80,9,,10.0,30.029528,,,TRUE,TRUE,,,,,,,CLR,,,,,,,,VFR,,27.4,23.0,,,,,,,,,METAR,718.0
KSVN 052355Z AUTO 15007KT 10SM CLR 23/12 A2991 RMK AO2 SLP131 T02280115 10269 20228 55001 $,KSVN,2023-06-05T23:55:00Z,32.02,-81.12,22.8,11.5,150,7,,10.0,29.911417,1013.1,,TRUE,TRUE,TRUE,,,,,,CLR,,,,,,,,VFR,-0.1,26.9,22.8,,,,,,,,,METAR,13.0
KSUU 052355Z AUTO 22026G33KT 10SM CLR 21/11 A2970 RMK AO2 PK WND 23033/46 SLP064 T02120112 10230 20187 53004,KSUU,2023-06-05T23:55:00Z,38.27,-121.93,21.2,11.2,220,26,33,10.0,29.698818,1006.4,,TRUE,TRUE,,,,,,,CLR,,,,,,,,VFR,0.4,23.0,18.7,,,,,,,,,METAR,9.0
KSTK 052355Z AUTO 14014KT 10SM SCT080 23/12 A3010 RMK AO2,KSTK,2023-06-05T23:55:00Z,40.62,-103.27,23.0,12.0,140,14,,10.0,30.100393,,,TRUE,TRUE,,,,,,,SCT,8000,,,,,,,VFR,,,,,,,,,,,,METAR,1228.0
KSRE 052355Z AUTO 16004KT 10SM CLR 29/16 A2994 RMK AO2,KSRE,2023-06-05T23:55:00Z,35.27,-96.68,29.0,16.0,160,4,,10.0,29.940945,,,TRUE,TRUE,,,,,,,CLR,,,,,,,,VFR,,,,,,,,,,,,METAR,306.0
KSRB 052355Z AUTO 00000KT 10SM CLR 27/20 A2990 RMK AO2,KSRB,2023-06-05T23:55:00Z,36.05,-85.53,27.0,20.0,0,0,,10.0,29.899607,,,TRUE,TRUE,,,,,,,CLR,,,,,,,,VFR,,,,,,,,,,,,METAR,303.0
KSPK 052355Z AUTO 11012KT 10SM CLR 23/07 A2996 RMK AO2,KSPK,2023-06-05T23:55:00Z,40.15,-111.67,23.0,7.0,110,12,,10.0,29.958662,,,TRUE,TRUE,,,,,,,CLR,,,,,,,,VFR,,,,,,,,,,,,METAR,1381.0
KSOA 052355Z AUTO 26006KT 6SM -RA FEW027 BKN055 BKN065 23/18 A3001 RMK AO2,KSOA,2023-06-05T23:55:00Z,30.58,-100.65,23.0,18.0,260,6,,6.0,30.008858,,,TRUE,TRUE,,,,,,-RA,FEW,2700,BKN,5500,BKN,6500,,,VFR,,,,,,,,,,,,METAR,654.0
KSNL 052355Z AUTO 00000KT 10SM CLR 31/13 A2994 RMK AO2 T03060125 10316 20292,KSNL,2023-06-05T23:55:00Z,35.35,-96.95,30.6,12.5,0,0,,10.0,29.940945,,,TRUE,TRUE,,,,,,,CLR,,,,,,,,VFR,,31.6,29.2,,,,,,,,,METAR,327.0
KSME 052355Z AUTO 05010KT 10SM CLR 26/14 A2990 RMK AO2,KSME,2023-06-05T23:55:00Z,37.05,-84.62,26.0,14.0,50,10,,10.0,29.899607,,,TRUE,TRUE,,,,,,,CLR,,,,,,,,VFR,,,,,,,,,,,,METAR,279.0
KSMD 052355Z AUTO 03003KT 8SM CLR 26/06 A3000 RMK A01,KSMD,2023-06-05T23:55:00Z,41.15,-85.15,26.0,6.0,30,3,,8.0,30.0,,,TRUE,TRUE,,,,,,,CLR,,,,,,,,VFR,,,,,,,,,,,,METAR,252.0
KSLI 052355Z AUTO 19010KT 10SM CLR 19/12 A2986 RMK AO2 SLP114 T01920115 10200 20172 57011,KSLI,2023-06-05T23:55:00Z,33.78,-118.03,19.2,11.5,190,10,,10.0,29.861221,1011.4,,TRUE,TRUE,,,,,,,CLR,,,,,,,,VFR,-1.1,20.0,17.2,,,,,,,,,METAR,8.0
KSLH 052355Z AUTO 33005KT 7SM CLR 22/14 A2999 RMK AO2,KSLH,2023-06-05T23:55:00Z,45.65,-84.52,22.0,14.0,330,5,,7.0,29.991142,,,TRUE,TRUE,,,,,,,CLR,,,,,,,,VFR,,,,,,,,,,,,METAR,193.0
KSLB 052355Z AUTO 15009KT 9SM CLR 30/13 A3002 RMK AO2,KSLB,2023-06-05T23:55:00Z,42.6,-95.23,30.0,13.0,150,9,,9.0,30.02067,,,TRUE,TRUE,,,,,,,CLR,,,,,,,,VFR,,,,,,,,,,,,METAR,450.0
KSKA 052355Z AUTO 24011KT 10SM CLR 28/00 A2994 RMK AO2 SLP122 T02830001 10289 20258 57010 $,KSKA,2023-06-05T23:55:00Z,47.62,-117.67,28.3,0.1,240,11,,10.0,29.940945,1012.2,,TRUE,TRUE,TRUE,,,,,,CLR,,,,,,,,VFR,-1.0,28.9,25.8,,,,,,,,,METAR,754.0
KSJX 052355Z AUTO 35005KT 7SM CLR 22/13 A3003 RMK AO2 T02170130 10261 20217,KSJX,2023-06-05T23:55:00Z,45.7,-85.57,21.7,13.0,350,5,,7.0,30.029528,,,TRUE,TRUE,,,,,,,CLR,,,,,,,,VFR,,26.1,21.7,,,,,,,,,METAR,202.0
KSJS 052355Z AUTO 00000KT 10SM CLR 22/14 A2996 RMK AO2 T02160143 10269 20216,KSJS,2023-06-05T23:55:00Z,37.75,-82.63,21.6,14.3,0,0,,10.0,29.958662,,,TRUE,TRUE,,,,,,,CLR,,,,,,,,VFR,,26.9,21.6,,,,,,,,,METAR,359.0
KSHM 052355Z AUTO 15005KT 6SM RA BKN023 BKN028 BKN034 OVC042 14/11 A3021 RMK AO2 LTG DSNT NE RAB39 SLP188 P0000 60000 T01370112 10170 20136 50001 $,KSHM,2023-06-05T23:55:00Z,38.8,-104.52,13.7,11.2,150,5,,6.0,30.209646,1018.8,,TRUE,TRUE,TRUE,,,,,RA,BKN,2300,BKN,2800,BKN,3400,OVC,4200,MVFR,0.1,17.0,13.6,,,0.005,,0.005,,,,METAR,1900.0
KSHL 052355Z AUTO 02009KT 10SM CLR 26/16 A3001 RMK AO2,KSHL,2023-06-05T23:55:00Z,43.22,-95.83,26.0,16.0,20,9,,10.0,30.008858,,,TRUE,TRUE,,,,,,,CLR,,,,,,,,VFR,,,,,,,,,,,,METAR,430.0
KSGS 052355Z AUTO 08003KT 10SM SCT120 28/15 A3003 RMK AO2 T02840149 10289 20272,KSGS,2023-06-05T23:55:00Z,44.87,-93.03,28.4,14.9,80,3,,10.0,30.029528,,,TRUE,TRUE,,,,,,,SCT,12000,,,,,,,VFR,,28.9,27.2,,,,,,,,,METAR,250.0
KSEZ 052355Z AUTO 16013G21KT 10SM CLR 31/M03 A2993 RMK AO2,KSEZ,2023-06-05T23:55:00Z,34.85,-111.78,31.0,-3.0,160,13,21,10.0,29.929134,,,TRUE,TRUE,,,,,,,CLR,,,,,,,,VFR,,,,,,,,,,,,METAR,1455.0
KSEQ 052355Z AUTO 10010KT 10SM FEW070 SCT090 BKN130 23/20 A2988 RMK AO2 LTG DSNT SE-SW RAE32 TSE01 SLPNO P0002 6//// T02260199 10291 20226 53009 $,KSEQ,2023-06-05T23:55:00Z,29.57,-97.9,22.6,19.9,100,10,,10.0,29.878937,,,TRUE,TRUE,TRUE,,,,,,FEW,7000,SCT,9000,BKN,13000,,,VFR,0.9,29.1,22.6,,,0.02,,,,,,METAR,160.0
KSEP 052355Z AUTO 35013G19KT 10SM SCT060 BKN075 BKN120 25/18 A2996 RMK AO2 T02530175 10289 20253,KSEP,2023-06-05T23:55:00Z,32.22,-98.17,25.3,17.5,350,13,19,10.0,29.958662,,,TRUE,TRUE,,,,,,,SCT,6000,BKN,7500,BKN,12000,,,VFR,,28.9,25.3,,,,,,,,,METAR,399.0
KSEM 052355Z AUTO 00000KT 10SM CLR 27/21 A2990 RMK AO2 LTG DSNT W AND NW,KSEM,2023-06-05T23:55:00Z,32.35,-86.98,27.0,21.0,0,0,,10.0,29.899607,,,TRUE,TRUE,,,,,,,CLR,,,,,,,,VFR,,,,,,,,,,,,METAR,48.0
KSEF 052355Z AUTO 06008KT 10SM CLR 26/18 A2990 RMK AO2 T02610181 10302 20261 403020208,KSEF,2023-06-05T23:55:00Z,27.45,-81.35,26.1,18.1,60,8,,10.0,29.899607,,,TRUE,TRUE,,,,,,,CLR,,,,,,,,VFR,,30.2,26.1,30.2,20.8,,,,,,,METAR,17.0
KSDB 052355Z AUTO 18019G27KT 8SM BKN002 BKN006 11/08 A2990 RMK AO2 PK WND 17027/2353 T01110078,KSDB,2023-06-05T23:55:00Z,34.75,-118.72,11.1,7.8,180,19,27,8.0,29.899607,,,TRUE,TRUE,,,,,,,BKN,200,BKN,600,,,,,LIFR,,,,,,,,,,,,METAR,1377.0
KSDA 052355Z AUTO 22009G16KT 10SM CLR 25/16 A3001 RMK AO2,KSDA,2023-06-05T23:55:00Z,40.75,-95.42,25.0,16.0,220,9,16,10.0,30.008858,,,TRUE,TRUE,,,,,,,CLR,,,,,,,,VFR,,,,,,,,,,,,METAR,293.0
KSCX 052355Z AUTO 00000KT 10SM SCT075 SCT090 25/18 A2993 RMK A01,KSCX,2023-06-05T23:55:00Z,36.45,-84.58,25.0,18.0,0,0,,10.0,29.929134,,,TRUE,TRUE,,,,,,,SCT,7500,SCT,9000,,,,,VFR,,,,,,,,,,,,METAR,462.0
KSCK 052355Z 33011KT 10SM CLR 29/13 A2972 RMK AO2 SLP062 T02890133 10311 20261 53007,KSCK,2023-06-05T23:55:00Z,37.88,-121.22,28.9,13.3,330,11,,10.0,29.719488,1006.2,,,TRUE,,,,,,,CLR,,,,,,,,VFR,0.7,31.1,26.1,,,,,,,,,METAR,8.0
KSCH 052355Z 36004KT 15SM CLR 19/06 A2981,KSCH,2023-06-05T23:55:00Z,42.85,-73.92,19.0,6.0,360,4,,15.0,29.811024,,,,,,,,,,,CLR,,,,,,,,VFR,,,,,,,,,,,,METAR,100.0
KSCD 052355Z AUTO 00000KT 10SM OVC100 27/19 A2993 RMK AO2 T02710185 10299 20271,KSCD,2023-06-05T23:55:00Z,33.17,-86.3,27.1,18.5,0,0,,10.0,29.929134,,,TRUE,TRUE,,,,,,,OVC,10000,,,,,,,VFR,,29.9,27.1,,,,,,,,,METAR,164.0
KSBS 052355Z AUTO 31012G17KT 10SM BKN095 BKN120 19/05 A3014 RMK AO1 T01880045 10227 20181,KSBS,2023-06-05T23:55:00Z,40.52,-106.87,18.8,4.5,310,12,17,10.0,30.138779,,,TRUE,TRUE,,,,,,,BKN,9500,BKN,12000,,,,,VFR,,22.7,18.1,,,,,,,,,METAR,2097.0
KSBO 052355Z AUTO 06003KT 10SM CLR 27/16 A2994 RMK AO2,KSBO,2023-06-05T23:55:00Z,32.62,-82.37,27.0,16.0,60,3,,10.0,29.940945,,,TRUE,TRUE,,,,,,,CLR,,,,,,,,VFR,,,,,,,,,,,,METAR,98.0
KSAZ 052355Z AUTO 14004KT 10SM CLR 27/17 A3006 RMK AO2,KSAZ,2023-06-05T23:55:00Z,46.37,-94.8,27.0,17.0,140,4,,10.0,30.059055,,,TRUE,TRUE,,,,,,,CLR,,,,,,,,VFR,,,,,,,,,,,,METAR,391.0
KSAR 052355Z AUTO 02008KT 10SM CLR 25/08 A2997 RMK AO2 T02460075 10290 20246,KSAR,2023-06-05T23:55:00Z,38.15,-89.7,24.6,7.5,20,8,,10.0,29.970472,,,TRUE,TRUE,,,,,,,CLR,,,,,,,,VFR,,29.0,24.6,,,,,,,,,METAR,162.0
KSAA 052355Z AUTO 13005KT 10SM 18/05 A3018 RMK AO2 LTG DSNT NE AND W,KSAA,2023-06-05T23:55:00Z,41.45,-106.8,18.0,5.0,130,5,,10.0,30.180119,,,TRUE,TRUE,,,,,,,,,,,,,,,,,,,,,,,,,,,METAR,2093.0
KS85 052355Z AUTO 14011KT 7SM 31/14 A2992 RMK A01 Culbertson ,KS85,2023-06-05T23:55:00Z,48.15,-104.5,31.0,14.0,140,11,,7.0,29.920275,,,TRUE,TRUE,,,,,,,,,,,,,,,,,,,,,,,,,,,METAR,596.0
KS52 052355Z AUTO 15011G16KT 10SM SCT100 SCT120 29/M02 A2994 RMK AO2 T02921020 10300 20242 403000044,KS52,2023-06-05T23:55:00Z,48.42,-120.15,29.2,-2.0,150,11,16,10.0,29.940945,,,TRUE,TRUE,,,,,,,SCT,10000,SCT,12000,,,,,VFR,,30.0,24.2,30.0,4.4,,,,,,,METAR,517.0
KS39 052355Z AUTO 14018G24KT 10SM VCTS BKN090 BKN120 25/08 A2997 RMK AO2 LTG DSNT SE AND S,KS39,2023-06-05T23:55:00Z,44.28,-120.9,25.0,8.0,140,18,24,10.0,29.970472,,,TRUE,TRUE,,,,,,VCTS,BKN,9000,BKN,12000,,,,,VFR,,,,,,,,,,,,METAR,987.0
KS24 052355Z AUTO 00000KT 10SM SCT090 21/10 A2999 RMK AO2,KS24,2023-06-05T23:55:00Z,41.3,-83.03,21.0,10.0,0,0,,10.0,29.991142,,,TRUE,TRUE,,,,,,,SCT,9000,,,,,,,VFR,,,,,,,,,,,,METAR,203.0
KS21 052355Z AUTO 01006G13KT 10SM FEW110 23/07 A3004 RMK AO2 LTG DSNT NE AND SW,KS21,2023-06-05T23:55:00Z,43.88,-121.45,23.0,7.0,10,6,13,10.0,30.041338,,,TRUE,TRUE,,,,,,,FEW,11000,,,,,,,VFR,,,,,,,,,,,,METAR,1269.0
KS12 052355Z AUTO 02010G17KT 340V060 10SM CLR 29/03 A2989 RMK AO2,KS12,2023-06-05T23:55:00Z,,,29.0,3.0,20,10,17,10.0,29.890747,,,TRUE,TRUE,,,,,,,CLR,,,,,,,,VFR,,,,,,,,,,,,METAR,
KRZT 052355Z AUTO 08003KT 10SM CLR 21/02 A2999 RMK AO2 PWINO,KRZT,2023-06-05T23:55:00Z,39.43,-83.02,21.0,2.0,80,3,,10.0,29.991142,,,TRUE,TRUE,,,,,TRUE,,CLR,,,,,,,,VFR,,,,,,,,,,,,METAR,217.0
KRZR 052355Z AUTO 00000KT 9SM CLR 23/21 A2988 RMK A01,KRZR,2023-06-05T23:55:00Z,35.22,-84.8,23.0,21.0,0,0,,9.0,29.878937,,,TRUE,TRUE,,,,,,,CLR,,,,,,,,VFR,,,,,,,,,,,,METAR,259.0
KRYW 052355Z AUTO 34003KT 10SM SCT048 27/16 A2991 RMK AO2 LTG DSNT E T02680162 10303 20268,KRYW,2023-06-05T23:55:00Z,30.5,-97.97,26.8,16.2,340,3,,10.0,29.911417,,,TRUE,TRUE,,,,,,,SCT,4800,,,,,,,VFR,,30.3,26.8,,,,,,,,,METAR,370.0
KRYN 052355Z AUTO 19014KT 10SM CLR 37/M09 A2976 RMK AO2,KRYN,2023-06-05T23:55:00Z,32.15,-111.17,37.0,-9.0,190,14,,10.0,29.760826,,,TRUE,TRUE,,,,,,,CLR,,,,,,,,VFR,,,,,,,,,,,,METAR,731.0
KRWV 052355Z AUTO 16004KT 10SM CLR 23/21 A2991 RMK AO2 LTG DSNT E T02250209 10299 20210 402990201 60015,KRWV,2023-06-05T23:55:00Z,30.52,-96.7,22.5,20.9,160,4,,10.0,29.911417,,,TRUE,TRUE,,,,,,,CLR,,,,,,,,VFR,,29.9,21.0,29.9,20.1,,,0.15,,,,METAR,116.0
KRVF 052355Z AUTO VRB04KT 10SM BKN110 22/08 A3002 RMK AO2 LTG DSNT E,KRVF,2023-06-05T23:55:00Z,45.53,-112.3,22.0,8.0,0,4,,10.0,30.02067,,,TRUE,TRUE,,,,,,,BKN,11000,,,,,,,VFR,,,,,,,,,,,,METAR,1445.0
KRTS 052355Z AUTO 14012G19KT 10SM BKN090 23/01 A2995 RMK AO2,KRTS,2023-06-05T23:55:00Z,39.67,-119.88,23.0,1.0,140,12,19,10.0,29.949802,,,TRUE,TRUE,,,,,,,BKN,9000,,,,,,,VFR,,,,,,,,,,,,METAR,1537.0
KRRT 052355Z AUTO 11009KT 10SM CLR 24/22 A3005 RMK AO2 LTG DSNT SW,KRRT,2023-06-05T23:55:00Z,48.93,-95.33,24.0,22.0,110,9,,10.0,30.050198,,,TRUE,TRUE,,,,,,,CLR,,,,,,,,VFR,,,,,,,,,,,,METAR,327.0
KRQO 052355Z AUTO 17005KT 5SM HZ CLR 28/16 A2998 RMK AO2 T02780163 10306 20274 403060169,KRQO,2023-06-05T23:55:00Z,35.47,-98.0,27.8,16.3,170,5,,5.0,29.97933,,,TRUE,TRUE,,,,,,HZ,CLR,,,,,,,,MVFR,,30.6,27.4,30.6,16.9,,,,,,,METAR,431.0
KRQB 052355Z AUTO 34007KT 10SM CLR 25/12 A2997 RMK AO2 T02510115 10280 20251,KRQB,2023-06-05T23:55:00Z,43.72,-85.5,25.1,11.5,340,7,,10.0,29.970472,,,TRUE,TRUE,,,,,,,CLR,,,,,,,,VFR,,28.0,25.1,,,,,,,,,METAR,282.0
KRPJ 052355Z AUTO 36006KT 10SM CLR 28/06 A3000 RMK AO2 T02750056 10295 20266 TSNO,KRPJ,2023-06-05T23:55:00Z,41.88,-89.08,27.5,5.6,360,6,,10.0,30.0,,,TRUE,TRUE,,,TRUE,,,,CLR,,,,,,,,VFR,,29.5,26.6,,,,,,,,,METAR,234.0
KROX 052355Z AUTO 11007KT 10SM CLR 26/21 A3005 RMK AO2 LTG DSNT SW,KROX,2023-06-05T23:55:00Z,48.85,-95.7,26.0,21.0,110,7,,10.0,30.050198,,,TRUE,TRUE,,,,,,,CLR,,,,,,,,VFR,,,,,,,,,,,,METAR,320.0
KRNP 052355Z AUTO 00000KT 10SM BKN080 BKN100 26/07 A2995 RMK AO2 T02620068 10276 20244,KRNP,2023-06-05T23:55:00Z,43.0,-84.13,26.2,6.8,0,0,,10.0,29.949802,,,TRUE,TRUE,,,,,,,BKN,8000,BKN,10000,,,,,VFR,,27.6,24.4,,,,,,,,,METAR,224.0
KRNO 052355Z 13015G23KT 10SM -TSRA BKN080CB BKN130 BKN250 23/02 A2994 RMK AO2 PK WND 17034/2259 WSHFT 2251 LTG DSNT N AND NE RAB15E29B51 TSB47 SLP089 OCNL LTGIC NE TS NE MOV NW P0000 60000 T02330022 10289 20233 53004 $,KRNO,2023-06-05T23:55:00Z,39.5,-119.77,23.3,2.2,130,15,23,10.0,29.940945,1008.9,,,TRUE,TRUE,,,,,-TSRA,BKN,8000,BKN,13000,BKN,25000,,,VFR,0.4,28.9,23.3,,,0.005,,0.005,,,,METAR,1344.0
KRND 052355Z AUTO 08007KT 10SM FEW055 FEW180 SCT200 25/20 A2987 RMK AO2 PK WND 08026/20 SLP109 60000 T02530196 10304 20236 53007 TSNO $,KRND,2023-06-05T23:55:00Z,29.53,-98.27,25.3,19.6,80,7,,10.0,29.870079,1010.9,,TRUE,TRUE,TRUE,,TRUE,,,,FEW,5500,FEW,18000,SCT,20000,,,VFR,0.7,30.4,23.6,,,,,0.005,,,,METAR,224.0
KRNC 052355Z AUTO 00000KT 10SM SCT060 SCT075 BKN095 27/19 A2990 RMK A01,KRNC,2023-06-05T23:55:00Z,35.7,-85.85,27.0,19.0,0,0,,10.0,29.899607,,,TRUE,TRUE,,,,,,,SCT,6000,SCT,7500,BKN,9500,,,VFR,,,,,,,,,,,,METAR,310.0
KRMY 052355Z AUTO 29003KT 10SM CLR 26/08 A2997 RMK AO2 T02600077 10286 20257,KRMY,2023-06-05T23:55:00Z,42.25,-84.95,26.0,7.7,290,3,,10.0,29.970472,,,TRUE,TRUE,,,,,,,CLR,,,,,,,,VFR,,28.6,25.7,,,,,,,,,METAR,285.0
KRLD 052355Z AUTO 05010KT 10SM CLR 34/00 A2986 RMK AO2 T03360001 10338 20266,KRLD,2023-06-05T23:55:00Z,46.3,-119.3,33.6,0.1,50,10,,10.0,29.861221,,,TRUE,TRUE,,,,,,,CLR,,,,,,,,VFR,,33.8,26.6,,,,,,,,,METAR,118.0
KRKW 052355Z AUTO 24005KT 10SM CLR 25/18 A2993 RMK A01,KRKW,2023-06-05T23:55:00Z,35.92,-84.68,25.0,18.0,240,5,,10.0,29.929134,,,TRUE,TRUE,,,,,,,CLR,,,,,,,,VFR,,,,,,,,,,,,METAR,505.0
KRKR 052355Z AUTO 17004KT 10SM SCT095 SCT120 25/16 A2991 RMK AO2 P0001 LTG DSNT SE AND W,KRKR,2023-06-05T23:55:00Z,35.02,-94.62,25.0,16.0,170,4,,10.0,29.911417,,,TRUE,TRUE,,,,,,,SCT,9500,SCT,12000,,,,,VFR,,,,,,0.01,,,,,,METAR,136.0
KRIV 052355Z 30013KT 10SM SCT034 BKN180 20/11 A2986 RMK AO2A SLP104 T01960114 10214 20176 57008 $,KRIV,2023-06-05T23:55:00Z,33.87,-117.23,19.6,11.4,300,13,,10.0,29.861221,1010.4,,,TRUE,TRUE,,,,,,SCT,3400,BKN,18000,,,,,VFR,-0.8,21.4,17.6,,,,,,,,,METAR,454.0
KRGK 052355Z AUTO 00000KT 10SM CLR 28/16 A3001 RMK AO2,KRGK,2023-06-05T23:55:00Z,44.58,-92.48,28.0,16.0,0,0,,10.0,30.008858,,,TRUE,TRUE,,,,,,,CLR,,,,,,,,VFR,,,,,,,,,,,,METAR,238.0
KRGA 052355Z AUTO 04006KT 10SM CLR 25/12 A2995 RMK AO2,KRGA,2023-06-05T23:55:00Z,37.63,-84.33,25.0,12.0,40,6,,10.0,29.949802,,,TRUE,TRUE,,,,,,,CLR,,,,,,,,VFR,,,,,,,,,,,,METAR,301.0
KREG 052355Z AUTO 00000KT 10SM OVC002 24/19 A2991 RMK AO2 LTG DSNT W T02360194 10296 20235,KREG,2023-06-05T23:55:00Z,30.17,-90.93,23.6,19.4,0,0,,10.0,29.911417,,,TRUE,TRUE,,,,,,,OVC,200,,,,,,,LIFR,,29.6,23.5,,,,,,,,,METAR,3.0
KRDR 052355Z 18009KT 10SM SCT065 BKN090 BKN180 27/17 A2998 RMK AO2A LTG DSNT E SLP154 T02660171 10307 20260 56006 $,KRDR,2023-06-05T23:55:00Z,47.93,-97.4,26.6,17.1,180,9,,10.0,29.97933,1015.4,,,TRUE,TRUE,,,,,,SCT,6500,BKN,9000,BKN,18000,,,VFR,-0.6,30.7,26.0,,,,,,,,,METAR,276.0
KRDK 052355Z AUTO 21010KT 10SM SCT070 SCT085 BKN120 27/16 A3001 RMK AO2,KRDK,2023-06-05T23:55:00Z,41.02,-95.27,27.0,16.0,210,10,,10.0,30.008858,,,TRUE,TRUE,,,,,,,SCT,7000,SCT,8500,BKN,12000,,,VFR,,,,,,,,,,,,METAR,317.0
KRCV 052355Z AUTO 29009G14KT 10SM VCTS BKN085 20/03 A3022 RMK AO2 LTG DSNT N SE AND NW T02000025 10203 20133,KRCV,2023-06-05T23:55:00Z,37.72,-106.35,20.0,2.5,290,9,14,10.0,30.221457,,,TRUE,TRUE,,,,,,VCTS,BKN,8500,,,,,,,VFR,,20.3,13.3,,,,,,,,,METAR,2418.0
KRCR 052355Z AUTO 33008KT 5SM UP HZ CLR 26/08 A2999 RMK AO2,KRCR,2023-06-05T23:55:00Z,41.07,-86.18,26.0,8.0,330,8,,5.0,29.991142,,,TRUE,TRUE,,,,,,HZ UP,CLR,,,,,,,,MVFR,,,,,,,,,,,,METAR,240.0
KRBO 052355Z AUTO 14004KT 10SM CLR A2985 RMK AO2,KRBO,2023-06-05T23:55:00Z,27.78,-97.68,,,140,4,,10.0,29.84941,,,TRUE,TRUE,,,,,,,CLR,,,,,,,,VFR,,,,,,,,,,,,METAR,24.0
KRAS 052355Z AUTO 07006KT 10SM CLR 26/21 A2987 RMK AO2 LTG DSNT N T02650208 10274 20228 402830217 60001,KRAS,2023-06-05T23:55:00Z,27.82,-97.08,26.5,20.8,70,6,,10.0,29.870079,,,TRUE,TRUE,,,,,,,CLR,,,,,,,,VFR,,27.4,22.8,28.3,21.7,,,0.01,,,,METAR,3.0
KQVF 052355Z AUTO 15005KT 9999 FEW019 SCT050 25/24 A2994 RMK AO2 RAB29E41SHRAB41E53 SLP141 WND DATA ESTMD P0004 60021 T02510237 10260 20247 56009,KQVF,2023-06-05T23:55:00Z,,,25.1,23.7,150,5,,6.21,29.940945,1014.1,,TRUE,TRUE,,,,,,,FEW,1900,SCT,5000,,,,,VFR,-0.9,26.0,24.7,,,0.04,,0.21,,,,METAR,
KQRH 052355Z AUTO 00000KT 9999 FEW011 32/28 A2967 RMK AO2 SLP050 WND DATA ESTMD T03150284 10328 20315,KQRH,2023-06-05T23:55:00Z,,,31.5,28.4,0,0,,6.21,29.66929,1005.0,,TRUE,TRUE,,,,,,,FEW,1100,,,,,,,VFR,,32.8,31.5,,,,,,,,,METAR,
KQN3 052355Z 22006KT 9999 FEW250 35/21 A2983 RMK AO2A SLP079 T03480212 404120301 50003,KQN3,2023-06-05T23:55:00Z,,,34.8,21.2,220,6,,6.21,29.828741,1007.9,,,TRUE,,,,,,,FEW,25000,,,,,,,VFR,0.3,,,41.2,30.1,,,,,,,METAR,
KQHY 052355Z AUTO 21003KT 10SM CLR 25/21 A2992 RMK AO2 SLP138 T02500209 10270 20250 55003,KQHY,2023-06-05T23:55:00Z,,,25.0,20.9,210,3,,10.0,29.920275,1013.8,,TRUE,TRUE,,,,,,,CLR,,,,,,,,VFR,-0.3,27.0,25.0,,,,,,,,,METAR,
KQDG 052355Z AUTO 21009KT 9999 CLR 25/13 A2971 RMK AO2 SLP062 T02540126 10254 20115 58008 $,KQDG,2023-06-05T23:55:00Z,,,25.4,12.6,210,9,,6.21,29.71063,1006.2,,TRUE,TRUE,TRUE,,,,,,CLR,,,,,,,,VFR,-0.8,25.4,11.5,,,,,,,,,METAR,
KQD3 052355Z AUTO 00000KT 9999 FEW011 31/28 A2972 RMK AO2 SLP048 WND DATA ESTMD T03070283 10328 20307 56008,KQD3,2023-06-05T23:55:00Z,,,30.7,28.3,0,0,,6.21,29.719488,1004.8,,TRUE,TRUE,,,,,,,FEW,1100,,,,,,,VFR,-0.8,32.8,30.7,,,,,,,,,METAR,
KPZZ 052355Z AUTO 14005KT 10SM CLR 25/20 A2988 RMK A01,KPZZ,2023-06-05T23:55:00Z,28.43,-91.03,25.0,20.0,140,5,,10.0,29.878937,,,TRUE,TRUE,,,,,,,CLR,,,,,,,,VFR,,,,,,,,,,,,METAR,25.0
KPZQ 052355Z AUTO 00000KT 5SM HZ CLR 23/15 A3000 RMK AO2 T02320148 10240 20202,KPZQ,2023-06-05T23:55:00Z,45.4,-83.82,23.2,14.8,0,0,,5.0,30.0,,,TRUE,TRUE,,,,,,HZ,CLR,,,,,,,,MVFR,,24.0,20.2,,,,,,,,,METAR,199.0
KPYX 052355Z AUTO 00000KT 10SM SCT120 17/12 A3007 RMK AO2 T01670115 10213 20146,KPYX,2023-06-05T23:55:00Z,36.42,-100.75,16.7,11.5,0,0,,10.0,30.070866,,,TRUE,TRUE,,,,,,,SCT,12000,,,,,,,VFR,,21.3,14.6,,,,,,,,,METAR,890.0
KPXE 052355Z AUTO 24003KT 10SM CLR 27/16 A2993 RMK AO2 T02740163 10298 20264 402980155,KPXE,2023-06-05T23:55:00Z,32.52,-83.77,27.4,16.3,240,3,,10.0,29.929134,,,TRUE,TRUE,,,,,,,CLR,,,,,,,,VFR,,29.8,26.4,29.8,15.5,,,,,,,METAR,126.0
KPWD 052355Z AUTO 18009KT 10SM CLR 30/12 A2996 RMK AO2,KPWD,2023-06-05T23:55:00Z,48.78,-104.52,30.0,12.0,180,9,,10.0,29.958662,,,TRUE,TRUE,,,,,,,CLR,,,,,,,,VFR,,,,,,,,,,,,METAR,690.0
KPWC 052355Z AUTO 14005KT 10SM CLR 24/18 A3010 RMK AO2 LTG DSNT N AND NE,KPWC,2023-06-05T23:55:00Z,46.72,-94.38,24.0,18.0,140,5,,10.0,30.100393,,,TRUE,TRUE,,,,,,,CLR,,,,,,,,VFR,,,,,,,,,,,,METAR,394.0
KPVW 052355Z AUTO 00000KT 10SM CLR 21/14 A3008 RMK AO2 60001 T02120136 10234 20185,KPVW,2023-06-05T23:55:00Z,34.17,-101.72,21.2,13.6,0,0,,10.0,30.079725,,,TRUE,TRUE,,,,,,,CLR,,,,,,,,VFR,,23.4,18.5,,,,,0.01,,,,METAR,1029.0
KPVJ 052355Z AUTO 21004KT 10SM CLR 25/17 A2993 RMK AO2 T02500170 10314 20250,KPVJ,2023-06-05T23:55:00Z,34.72,-97.22,25.0,17.0,210,4,,10.0,29.929134,,,TRUE,TRUE,,,,,,,CLR,,,,,,,,VFR,,31.4,25.0,,,,,,,,,METAR,287.0
KPVE 052355Z AUTO 01004KT 10SM CLR 27/23 A2989 RMK A01,KPVE,2023-06-05T23:55:00Z,35.65,-88.2,27.0,23.0,10,4,,10.0,29.890747,,,TRUE,TRUE,,,,,,,CLR,,,,,,,,VFR,,,,,,,,,,,,METAR,146.0
KPUJ 052355Z AUTO 00000KT CLR 25/19 A2994 RMK AO2 PWINO,KPUJ,2023-06-05T23:55:00Z,33.92,-84.93,25.0,19.0,0,0,,,29.940945,,,TRUE,TRUE,,,,,TRUE,,CLR,,,,,,,,,,,,,,,,,,,,METAR,385.0
KPTT 052355Z AUTO 00000KT 10SM SCT120 25/14 A3004 RMK AO2 LTG DSNT W T02530143 10304 20253,KPTT,2023-06-05T23:55:00Z,37.7,-98.75,25.3,14.3,0,0,,10.0,30.041338,,,TRUE,TRUE,,,,,,,SCT,12000,,,,,,,VFR,,30.4,25.3,,,,,,,,,METAR,594.0
KPSO 052355Z AUTO 19014G21KT 10SM VCTS OVC100 17/04 A3023 RMK AO2 LTG DSNT N SE AND W T01720040 10221 20165,KPSO,2023-06-05T23:55:00Z,37.28,-107.05,17.2,4.0,190,14,21,10.0,30.230314,,,TRUE,TRUE,,,,,,VCTS,OVC,10000,,,,,,,VFR,,22.1,16.5,,,,,,,,,METAR,2332.0
KPSN 052355Z AUTO 19010G16KT 10SM VCTS BKN047 OVC055 26/19 A2987 RMK AO2 LTG DSNT ALQDS,KPSN,2023-06-05T23:55:00Z,31.78,-95.7,26.0,19.0,190,10,16,10.0,29.870079,,,TRUE,TRUE,,,,,,VCTS,BKN,4700,OVC,5500,,,,,VFR,,,,,,,,,,,,METAR,124.0
KPSM 052355Z 29003KT 10SM SCT048 OVC070 15/11 A2975 RMK AO2A SLP077 60001 T01470111 10165 20135 56002,KPSM,2023-06-05T23:55:00Z,43.08,-70.82,14.7,11.1,290,3,,10.0,29.749016,1007.7,,,TRUE,,,,,,,SCT,4800,OVC,7000,,,,,VFR,-0.2,16.5,13.5,,,,,0.01,,,,METAR,34.0
KPRS 052355Z AUTO 04009G14KT 10SM CLR 33/13 A2992 RMK AO2 T03300133 10336 20292,KPRS,2023-06-05T23:55:00Z,29.63,-104.35,33.0,13.3,40,9,14,10.0,29.920275,,,TRUE,TRUE,,,,,,,CLR,,,,,,,,VFR,,33.6,29.2,,,,,,,,,METAR,890.0
KPRO 052355Z AUTO 12006KT 7SM CLR 30/15 A3001 RMK AO2 T02950145 10307 20289,KPRO,2023-06-05T23:55:00Z,41.83,-94.17,29.5,14.5,120,6,,7.0,30.008858,,,TRUE,TRUE,,,,,,,CLR,,,,,,,,VFR,,30.7,28.9,,,,,,,,,METAR,308.0
KPRG 052355Z AUTO 03005KT 7SM CLR 25/06 A2999 RMK AO2 T02510058 10280 20247,KPRG,2023-06-05T23:55:00Z,39.7,-87.67,25.1,5.8,30,5,,7.0,29.991142,,,TRUE,TRUE,,,,,,,CLR,,,,,,,,VFR,,28.0,24.7,,,,,,,,,METAR,197.0
KPPQ 052355Z AUTO 00000KT 10SM CLR 26/11 A3001 RMK AO2 T02560113 10273 20256,KPPQ,2023-06-05T23:55:00Z,39.63,-90.78,25.6,11.3,0,0,,10.0,30.008858,,,TRUE,TRUE,,,,,,,CLR,,,,,,,,VFR,,27.3,25.6,,,,,,,,,METAR,215.0
KPPO 052355Z AUTO 35006KT 10SM CLR 23/02 A3003 RMK AO2 T02260023 10258 20226,KPPO,2023-06-05T23:55:00Z,41.57,-86.73,22.6,2.3,350,6,,10.0,30.029528,,,TRUE,TRUE,,,,,,,CLR,,,,,,,,VFR,,25.8,22.6,,,,,,,,,METAR,242.0
KPPA 052355Z AUTO 04009KT 10SM 22/14 A3010 RMK AO2 T02150144 10271 20210,KPPA,2023-06-05T23:55:00Z,35.62,-101.0,21.5,14.4,40,9,,10.0,30.100393,,,TRUE,TRUE,,,,,,,,,,,,,,,,,27.1,21.0,,,,,,,,,METAR,989.0
KPOY 052355Z AUTO 26009KT 10SM CLR 25/06 A3002 RMK AO2 LTG DSNT N,KPOY,2023-06-05T23:55:00Z,44.87,-108.8,25.0,6.0,260,9,,10.0,30.02067,,,TRUE,TRUE,,,,,,,CLR,,,,,,,,VFR,,,,,,,,,,,,METAR,1547.0
KPOV 052355Z AUTO 35003KT 10SM CLR 19/05 A2999 RMK AO2 T01850046 PWINO,KPOV,2023-06-05T23:55:00Z,41.22,-81.25,18.5,4.6,350,3,,10.0,29.991142,,,TRUE,TRUE,,,,,TRUE,,CLR,,,,,,,,VFR,,,,,,,,,,,,METAR,363.0
KPOE 052355Z AUTO 10004KT 10SM BKN100 BKN150 23/16 A2991 RMK AO2 LTG DSNT SW-N AND E SLP129 T02290162 10311 20229 53015,KPOE,2023-06-05T23:55:00Z,31.05,-93.2,22.9,16.2,100,4,,10.0,29.911417,1012.9,,TRUE,TRUE,,,,,,,BKN,10000,BKN,15000,,,,,VFR,1.5,31.1,22.9,,,,,,,,,METAR,98.0
KPOB 052355Z AUTO 22008KT 10SM CLR 24/15 A2989 RMK AO2 SLP123 T02410148 10268 20241 55001 $,KPOB,2023-06-05T23:55:00Z,35.17,-79.02,24.1,14.8,220,8,,10.0,29.890747,1012.3,,TRUE,TRUE,TRUE,,,,,,CLR,,,,,,,,VFR,-0.1,26.8,24.1,,,,,,,,,METAR,57.0
KPO1 052355Z AUTO 14013KT 8SM FEW070 31/14 A2993 RMK AO2,KPO1,2023-06-05T23:55:00Z,48.13,-105.17,31.0,14.0,140,13,,8.0,29.929134,,,TRUE,TRUE,,,,,,,FEW,7000,,,,,,,VFR,,,,,,,,,,,,METAR,621.0
KPNT 052355Z AUTO 05007KT 10SM CLR 28/04 A3000 RMK AO2 T02810037 10293 20252,KPNT,2023-06-05T23:55:00Z,40.92,-88.62,28.1,3.7,50,7,,10.0,30.0,,,TRUE,TRUE,,,,,,,CLR,,,,,,,,VFR,,29.3,25.2,,,,,,,,,METAR,199.0
KPNM 052355Z AUTO 04003KT 10SM CLR 28/17 A3005 RMK AO2,KPNM,2023-06-05T23:55:00Z,45.53,-93.6,28.0,17.0,40,3,,10.0,30.050198,,,TRUE,TRUE,,,,,,,CLR,,,,,,,,VFR,,,,,,,,,,,,METAR,298.0
KPNA 052355Z AUTO 00000KT 10SM SCT070 21/03 A3015 RMK AO2 LTG DSNT S,KPNA,2023-06-05T23:55:00Z,42.8,-109.8,21.0,3.0,0,0,,10.0,30.15059,,,TRUE,TRUE,,,,,,,SCT,7000,,,,,,,VFR,,,,,,,,,,,,METAR,2158.0
KPMV 052355Z AUTO 19012G17KT 10SM CLR 26/15 A3002 RMK AO2 LTG DSNT NE AND E T02610147 10306 20260,KPMV,2023-06-05T23:55:00Z,40.95,-95.92,26.1,14.7,190,12,17,10.0,30.02067,,,TRUE,TRUE,,,,,,,CLR,,,,,,,,VFR,,30.6,26.0,,,,,,,,,METAR,365.0
KPMU 052355Z AUTO 00000KT 10SM CLR 26/19 A2990 RMK AO2,KPMU,2023-06-05T23:55:00Z,34.37,-89.9,26.0,19.0,0,0,,10.0,29.899607,,,TRUE,TRUE,,,,,,,CLR,,,,,,,,VFR,,,,,,,,,,,,METAR,67.0
KPKV 052355Z AUTO 07003KT 10SM CLR 27/21 A2987 RMK AO2 60020 T02710205 10287 20235,KPKV,2023-06-05T23:55:00Z,28.65,-96.68,27.1,20.5,70,3,,10.0,29.870079,,,TRUE,TRUE,,,,,,,CLR,,,,,,,,VFR,,28.7,23.5,,,,,0.2,,,,METAR,8.0
KPJC 052355Z AUTO 00000KT 7SM CLR 20/06 A2996 RMK AO2,KPJC,2023-06-05T23:55:00Z,40.8,-80.17,20.0,6.0,0,0,,7.0,29.958662,,,TRUE,TRUE,,,,,,,CLR,,,,,,,,VFR,,,,,,,,,,,,METAR,273.0
KPIM 052355Z AUTO 25003KT 10SM CLR 27/18 A2995 RMK AO2 T02660175 10303 20261,KPIM,2023-06-05T23:55:00Z,32.83,-84.88,26.6,17.5,250,3,,10.0,29.949802,,,TRUE,TRUE,,,,,,,CLR,,,,,,,,VFR,,30.3,26.1,,,,,,,,,METAR,274.0
KPHT 052355Z AUTO 05006KT 10SM 28/16 A2990 RMK A01,KPHT,2023-06-05T23:55:00Z,36.33,-88.38,28.0,16.0,50,6,,10.0,29.899607,,,TRUE,TRUE,,,,,,,,,,,,,,,,,,,,,,,,,,,METAR,172.0
KPHP 052355Z AUTO 13004KT 10SM CLR 28/15 A3001 RMK AO2 SLP144 T02830150 10311 20272 56013,KPHP,2023-06-05T23:55:00Z,44.05,-101.6,28.3,15.0,130,4,,10.0,30.008858,1014.4,,TRUE,TRUE,,,,,,,CLR,,,,,,,,VFR,-1.3,31.1,27.2,,,,,,,,,METAR,673.0
KPHN 052355Z AUTO 02004KT 10SM SCT065 21/05 A2997 RMK AO2,KPHN,2023-06-05T23:55:00Z,42.92,-82.52,21.0,5.0,20,4,,10.0,29.970472,,,TRUE,TRUE,,,,,,,SCT,6500,,,,,,,VFR,,,,,,,,,,,,METAR,195.0
KPEZ 052355Z AUTO 03003KT 10SM CLR 31/19 A2986 RMK AO2 LTG DSNT NE T03090186 10315 20284,KPEZ,2023-06-05T23:55:00Z,28.95,-98.52,30.9,18.6,30,3,,10.0,29.861221,,,TRUE,TRUE,,,,,,,CLR,,,,,,,,VFR,,31.5,28.4,,,,,,,,,METAR,126.0
KPEX 052355Z AUTO 00000KT 10SM CLR 27/14 A3005 RMK AO2,KPEX,2023-06-05T23:55:00Z,45.37,-94.73,27.0,14.0,0,0,,10.0,30.050198,,,TRUE,TRUE,,,,,,,CLR,,,,,,,,VFR,,,,,,,,,,,,METAR,359.0
KPEQ 052355Z AUTO 06005KT 10SM CLR 30/10 A2996 RMK AO2 T03010096 10308 20258,KPEQ,2023-06-05T23:55:00Z,31.38,-103.52,30.1,9.6,60,5,,10.0,29.958662,,,TRUE,TRUE,,,,,,,CLR,,,,,,,,VFR,,30.8,25.8,,,,,,,,,METAR,794.0
KPEA 052355Z AUTO 00000KT 10SM CLR 26/16 A3003 RMK AO2 T02650158 10278 20253 402780164,KPEA,2023-06-05T23:55:00Z,41.4,-92.95,26.5,15.8,0,0,,10.0,30.029528,,,TRUE,TRUE,,,,,,,CLR,,,,,,,,VFR,,27.8,25.3,27.8,16.4,,,,,,,METAR,264.0
KPCW 052355Z AUTO 18005KT 10SM BKN090 21/10 A2998 RMK AO2,KPCW,2023-06-05T23:55:00Z,41.52,-82.87,21.0,10.0,180,5,,10.0,29.97933,,,TRUE,TRUE,,,,,,,BKN,9000,,,,,,,VFR,,,,,,,,,,,,METAR,179.0
KPBX 052355Z AUTO 03004KT 10SM CLR 21/13 A2996 RMK AO2 T02100132 10261 20210,KPBX,2023-06-05T23:55:00Z,37.57,-82.57,21.0,13.2,30,4,,10.0,29.958662,,,TRUE,TRUE,,,,,,,CLR,,,,,,,,VFR,,26.1,21.0,,,,,,,,,METAR,447.0
KPAM 052355Z 22007KT 10SM CLR 25/21 A2991 RMK AO2A SLP131 T02510208 10277 20251 53000 $,KPAM,2023-06-05T23:55:00Z,30.07,-85.57,25.1,20.8,220,7,,10.0,29.911417,1013.1,,,TRUE,TRUE,,,,,,CLR,,,,,,,,VFR,0.0,27.7,25.1,,,,,,,,,METAR,4.0
KP58 052355Z AUTO 00000KT 18/13 A2997 RMK AO1 SLP146 T01830133 10217 20183 56007,KP58,2023-06-05T23:55:00Z,44.02,-82.8,18.3,13.3,0,0,,,29.970472,1014.6,,TRUE,TRUE,,,,,,,,,,,,,,,,-0.7,21.7,18.3,,,,,,,,,METAR,180.0
KP52 052355Z AUTO 19012G25KT 10SM CLR 33/M02 A2983 RMK AO2,KP52,2023-06-05T23:55:00Z,34.73,-112.03,33.0,-2.0,190,12,25,10.0,29.828741,,,TRUE,TRUE,,,,,,,CLR,,,,,,,,VFR,,,,,,,,,,,,METAR,1085.0
KOZW 052355Z AUTO 00000KT 10SM CLR 25/10 A2997 RMK AO2 T02460097 10272 20241,KOZW,2023-06-05T23:55:00Z,42.62,-83.98,24.6,9.7,0,0,,10.0,29.970472,,,TRUE,TRUE,,,,,,,CLR,,,,,,,,VFR,,27.2,24.1,,,,,,,,,METAR,288.0
KOZR 052355Z AUTO 16003KT 10SM CLR 26/16 A2990 RMK AO2 SLP125 T02610160 10303 20261 55000 $,KOZR,2023-06-05T23:55:00Z,31.28,-85.72,26.1,16.0,160,3,,10.0,29.899607,1012.5,,TRUE,TRUE,TRUE,,,,,,CLR,,,,,,,,VFR,0.0,30.3,26.1,,,,,,,,,METAR,90.0
KOZA 052355Z AUTO 36004KT 10SM SCT065 27/11 A2998 RMK AO2 LTG DSNT SE,KOZA,2023-06-05T23:55:00Z,30.73,-101.2,27.0,11.0,360,4,,10.0,29.97933,,,TRUE,TRUE,,,,,,,SCT,6500,,,,,,,VFR,,,,,,,,,,,,METAR,721.0
KOXV 052355Z AUTO 12003KT 8SM CLR 27/11 A3002 RMK AO2,KOXV,2023-06-05T23:55:00Z,41.28,-93.12,27.0,11.0,120,3,,8.0,30.02067,,,TRUE,TRUE,,,,,,,CLR,,,,,,,,VFR,,,,,,,,,,,,METAR,280.0
KOXI 052355Z AUTO 36008KT 10SM CLR 24/04 A3001 RMK AO1,KOXI,2023-06-05T23:55:00Z,41.33,-86.67,24.0,4.0,360,8,,10.0,30.008858,,,TRUE,TRUE,,,,,,,CLR,,,,,,,,VFR,,,,,,,,,,,,METAR,208.0
KOWX 052355Z AUTO 08003KT 10SM CLR 25/00 A3000 RMK AO1,KOWX,2023-06-05T23:55:00Z,41.03,-83.98,25.0,0.0,80,3,,10.0,30.0,,,TRUE,TRUE,,,,,,,CLR,,,,,,,,VFR,,,,,,,,,,,,METAR,232.0
KOWP 052355Z AUTO 00000KT 10SM CLR 30/19 A2996 RMK AO2 T03030189 10325 20302,KOWP,2023-06-05T23:55:00Z,36.18,-96.15,30.3,18.9,0,0,,10.0,29.958662,,,TRUE,TRUE,,,,,,,CLR,,,,,,,,VFR,,32.5,30.2,,,,,,,,,METAR,267.0
KOWI 052355Z AUTO 10003KT 10SM CLR 26/18 A2999 RMK AO2 LTG DSNT SW AND W PWINO,KOWI,2023-06-05T23:55:00Z,38.53,-95.25,26.0,18.0,100,3,,10.0,29.991142,,,TRUE,TRUE,,,,,TRUE,,CLR,,,,,,,,VFR,,,,,,,,,,,,METAR,292.0
KOVL 052355Z AUTO 03006KT 10SM CLR 26/15 A3002 RMK AO2,KOVL,2023-06-05T23:55:00Z,44.78,-95.03,26.0,15.0,30,6,,10.0,30.02067,,,TRUE,TRUE,,,,,,,CLR,,,,,,,,VFR,,,,,,,,,,,,METAR,329.0
KOSC 052355Z AUTO 04004KT 7SM CLR 22/13 A2998 RMK AO2 T02170128 10264 20216,KOSC,2023-06-05T23:55:00Z,44.45,-83.4,21.7,12.8,40,4,,7.0,29.97933,,,TRUE,TRUE,,,,,,,CLR,,,,,,,,VFR,,26.4,21.6,,,,,,,,,METAR,191.0
KOSA 052355Z AUTO 32004KT 10SM CLR 29/20 A2988 RMK AO2 T02870200 10298 20240 402980183 60002,KOSA,2023-06-05T23:55:00Z,33.1,-94.97,28.7,20.0,320,4,,10.0,29.878937,,,TRUE,TRUE,,,,,,,CLR,,,,,,,,VFR,,29.8,24.0,29.8,18.3,,,0.02,,,,METAR,108.0
KORG 052355Z AUTO 00000KT 7SM -VCTSRA SCT028 BKN070 OVC110 23/21 A2991 RMK AO2 LTG DSNT W THRU N P0003 60015 T02290205 10317 20228,KORG,2023-06-05T23:55:00Z,30.07,-93.8,22.9,20.5,0,0,,7.0,29.911417,,,TRUE,TRUE,,,,,,VCTS -RA,SCT,2800,BKN,7000,OVC,11000,,,VFR,,31.7,22.8,,,0.03,,0.15,,,,METAR,2.0
KOPN 052355Z AUTO 00000KT 10SM CLR 26/15 A2996 RMK AO2,KOPN,2023-06-05T23:55:00Z,32.95,-84.27,26.0,15.0,0,0,,10.0,29.958662,,,TRUE,TRUE,,,,,,,CLR,,,,,,,,VFR,,,,,,,,,,,,METAR,241.0
KOPL 052355Z AUTO 00000KT 10SM SCT002 22/19 A2992 RMK AO2 LTG DSNT SW THRU NW 60013 T02150186 10305 20198,KOPL,2023-06-05T23:55:00Z,30.55,-92.1,21.5,18.6,0,0,,10.0,29.920275,,,TRUE,TRUE,,,,,,,SCT,200,,,,,,,VFR,,30.5,19.8,,,,,0.13,,,,METAR,22.0
KOOA 052355Z AUTO 07004KT 10SM CLR 28/07 A3002 RMK AO2 T02840066 10295 20262,KOOA,2023-06-05T23:55:00Z,41.23,-92.5,28.4,6.6,70,4,,10.0,30.02067,,,TRUE,TRUE,,,,,,,CLR,,,,,,,,VFR,,29.5,26.2,,,,,,,,,METAR,256.0
KONZ 052355Z AUTO 17003KT 10SM SCT095 21/14 A2996 RMK AO2 T02060138 10220 20206,KONZ,2023-06-05T23:55:00Z,42.1,-83.15,20.6,13.8,170,3,,10.0,29.958662,,,TRUE,TRUE,,,,,,,SCT,9500,,,,,,,VFR,,22.0,20.6,,,,,,,,,METAR,179.0
KONP 052355Z AUTO 34023G31KT 7SM CLR 13/07 A3000 RMK AO2,KONP,2023-06-05T23:55:00Z,44.57,-124.05,13.0,7.0,340,23,31,7.0,30.0,,,TRUE,TRUE,,,,,,,CLR,,,,,,,,VFR,,,,,,,,,,,,METAR,43.0
KONL 052355Z AUTO 23005KT 10SM SCT070 OVC110 23/16 A3007 RMK AO2 60001 T02310159 10304 20215,KONL,2023-06-05T23:55:00Z,42.47,-98.68,23.1,15.9,230,5,,10.0,30.070866,,,TRUE,TRUE,,,,,,,SCT,7000,OVC,11000,,,,,VFR,,30.4,21.5,,,,,0.01,,,,METAR,619.0
KONA 052355Z AUTO 00000KT 10SM BKN120 28/16 A3001 RMK AO2,KONA,2023-06-05T23:55:00Z,44.07,-91.7,28.0,16.0,0,0,,10.0,30.008858,,,TRUE,TRUE,,,,,,,BKN,12000,,,,,,,VFR,,,,,,,,,,,,METAR,200.0
KOLZ 052355Z AUTO 08006KT 9SM CLR 29/09 A3002 RMK A01,KOLZ,2023-06-05T23:55:00Z,42.67,-91.97,29.0,9.0,80,6,,9.0,30.02067,,,TRUE,TRUE,,,,,,,CLR,,,,,,,,VFR,,,,,,,,,,,,METAR,328.0
KOKZ 052355Z AUTO 00000KT 10SM CLR 26/16 A2993 RMK AO2 T02650162 10324 20260 403240143,KOKZ,2023-06-05T23:55:00Z,32.97,-82.83,26.5,16.2,0,0,,10.0,29.929134,,,TRUE,TRUE,,,,,,,CLR,,,,,,,,VFR,,32.4,26.0,32.4,14.3,,,,,,,METAR,128.0
KOKM 052355Z AUTO 00000KT 10SM CLR 30/18 A2992 RMK AO2 T03000183 10324 20300,KOKM,2023-06-05T23:55:00Z,35.67,-95.95,30.0,18.3,0,0,,10.0,29.920275,,,TRUE,TRUE,,,,,,,CLR,,,,,,,,VFR,,32.4,30.0,,,,,,,,,METAR,215.0
KOJA 052355Z AUTO 09006KT 10SM CLR 28/15 A2998 RMK AO2 T02840150 10305 20283 403050167,KOJA,2023-06-05T23:55:00Z,35.55,-98.67,28.4,15.0,90,6,,10.0,29.97933,,,TRUE,TRUE,,,,,,,CLR,,,,,,,,VFR,,30.5,28.3,30.5,16.7,,,,,,,METAR,490.0
KOGS 052355Z AUTO 00000KT 6SM HZ CLR 17/11 A2982 RMK AO2,KOGS,2023-06-05T23:55:00Z,44.67,-75.47,17.0,11.0,0,0,,6.0,29.819881,,,TRUE,TRUE,,,,,,HZ,CLR,,,,,,,,VFR,,,,,,,,,,,,METAR,88.0
KOGA 052355Z AUTO 16003KT 10SM CLR 26/08 A3010 RMK AO2 LTG DSNT E T02550084 10257 20198,KOGA,2023-06-05T23:55:00Z,41.12,-101.77,25.5,8.4,160,3,,10.0,30.100393,,,TRUE,TRUE,,,,,,,CLR,,,,,,,,VFR,,25.7,19.8,,,,,,,,,METAR,991.0
KOFF 052355Z 14015KT 10SM FEW060 SCT110 BKN250 30/16 A3002 RMK AO2A SLP163 T02950159 10310 20291 57006 $,KOFF,2023-06-05T23:55:00Z,41.12,-95.92,29.5,15.9,140,15,,10.0,30.02067,1016.3,,,TRUE,TRUE,,,,,,FEW,6000,SCT,11000,BKN,25000,,,VFR,-0.6,31.0,29.1,,,,,,,,,METAR,308.0
KOEB 052355Z AUTO 00000KT 10SM SCT075 25/10 A2999 RMK AO2 T02480095 10270 20243,KOEB,2023-06-05T23:55:00Z,41.92,-85.05,24.8,9.5,0,0,,10.0,29.991142,,,TRUE,TRUE,,,,,,,SCT,7500,,,,,,,VFR,,27.0,24.3,,,,,,,,,METAR,291.0
KOBE 052355Z AUTO VRB05KT 10SM CLR 26/19 A2988 RMK AO2,KOBE,2023-06-05T23:55:00Z,27.27,-80.85,26.0,19.0,0,5,,10.0,29.878937,,,TRUE,TRUE,,,,,,,CLR,,,,,,,,VFR,,,,,,,,,,,,METAR,11.0
KOAR 052355Z AUTO 34012KT 10SM OVC007 13/11 A2986 RMK AO2 PWINO,KOAR,2023-06-05T23:55:00Z,36.67,-121.77,13.0,11.0,340,12,,10.0,29.861221,,,TRUE,TRUE,,,,,TRUE,,OVC,700,,,,,,,IFR,,,,,,,,,,,,METAR,41.0
KO86 052355Z AUTO 08006KT 10SM 31/08 A2979 RMK A01,KO86,2023-06-05T23:55:00Z,40.98,-122.7,31.0,8.0,80,6,,10.0,29.790354,,,TRUE,TRUE,,,,,,,,,,,,,,,,,,,,,,,,,,,METAR,729.0
KO69 052355Z AUTO 24009KT 10SM CLR 19/11 A2980 RMK A01,KO69,2023-06-05T23:55:00Z,38.25,-122.6,19.0,11.0,240,9,,10.0,29.799213,,,TRUE,TRUE,,,,,,,CLR,,,,,,,,VFR,,,,,,,,,,,,METAR,26.0
KNUQ 052355Z AUTO 36008KT 330V030 10SM CLR 21/13 A2979 RMK AO2,KNUQ,2023-06-05T23:55:00Z,37.4,-122.05,21.0,13.0,360,8,,10.0,29.790354,,,TRUE,TRUE,,,,,,,CLR,,,,,,,,VFR,,,,,,,,,,,,METAR,9.0
KNTD 052355Z 17012KT 7SM FEW025 BKN039 BKN280 17/12 A2989 RMK AO2 SLP121 60000 T01670122 10189 20150 58008 VISNO S $,KNTD,2023-06-05T23:55:00Z,34.12,-119.12,16.7,12.2,170,12,,7.0,29.890747,1012.1,,,TRUE,TRUE,,,,,,FEW,2500,BKN,3900,BKN,28000,,,VFR,-0.8,18.9,15.0,,,,,0.005,,,,METAR,1.0
KNOW 052355Z AUTO 00000KT 10SM CLR 19/02 A3012 RMK AO2 T01890017 10195 20126,KNOW,2023-06-05T23:55:00Z,48.13,-123.4,18.9,1.7,0,0,,10.0,30.121063,,,TRUE,TRUE,,,,,,,CLR,,,,,,,,VFR,,19.5,12.6,,,,,,,,,METAR,3.0
KNKX 052355Z 26005KT 10SM OVC030 17/11 A2989 RMK AO2 SLP117 T01670106 10194 20161 58011,KNKX,2023-06-05T23:55:00Z,32.87,-117.13,16.7,10.6,260,5,,10.0,29.890747,1011.7,,,TRUE,,,,,,,OVC,3000,,,,,,,MVFR,-1.1,19.4,16.1,,,,,,,,,METAR,138.0
KNBG 052355Z 24007KT 10SM SCT026 BKN035 BKN250 25/19 A2989 RMK AO2 SLP122 T2 SET T02500189 10306 20250 51004 $,KNBG,2023-06-05T23:55:00Z,29.83,-90.02,25.0,18.9,240,7,,10.0,29.890747,1012.2,,,TRUE,TRUE,,,,,,SCT,2600,BKN,3500,BKN,25000,,,VFR,0.4,30.6,25.0,,,,,,,,,METAR,0.0
KMZZ 052355Z AUTO 03005KT 7SM CLR 25/04 A2999 RMK AO2 T02500040 10324 20065,KMZZ,2023-06-05T23:55:00Z,40.48,-85.68,25.0,4.0,30,5,,7.0,29.991142,,,TRUE,TRUE,,,,,,,CLR,,,,,,,,VFR,,32.4,6.5,,,,,,,,,METAR,260.0
KMZH 052355Z AUTO 06004KT 10SM SCT110 20/13 A3011 RMK AO2,KMZH,2023-06-05T23:55:00Z,46.42,-92.8,20.0,13.0,60,4,,10.0,30.109253,,,TRUE,TRUE,,,,,,,SCT,11000,,,,,,,VFR,,,,,,,,,,,,METAR,331.0
KMYZ 052355Z AUTO 10003KT 10SM CLR 22/15 A3000 RMK AO2 LTG DSNT SW,KMYZ,2023-06-05T23:55:00Z,39.85,-96.63,22.0,15.0,100,3,,10.0,30.0,,,TRUE,TRUE,,,,,,,CLR,,,,,,,,VFR,,,,,,,,,,,,METAR,388.0
KMXF 052355Z AUTO 17005KT 10SM CLR 28/16 A2988 RMK AO2 SLP120 60003 T02750155 10309 20275 53003,KMXF,2023-06-05T23:55:00Z,32.38,-86.37,27.5,15.5,170,5,,10.0,29.878937,1012.0,,TRUE,TRUE,,,,,,,CLR,,,,,,,,VFR,0.3,30.9,27.5,,,,,0.03,,,,METAR,47.0
KMWO 052355Z AUTO 33005KT 5SM HZ CLR 22/07 A2997 RMK AO2 T02250071 10276 20223 402770101,KMWO,2023-06-05T23:55:00Z,39.53,-84.4,22.5,7.1,330,5,,5.0,29.970472,,,TRUE,TRUE,,,,,,HZ,CLR,,,,,,,,MVFR,,27.6,22.3,27.7,10.1,,,,,,,METAR,197.0
KMWM 052355Z AUTO 00000KT 10SM CLR 31/11 A3001 RMK AO2,KMWM,2023-06-05T23:55:00Z,43.9,-95.1,31.0,11.0,0,0,,10.0,30.008858,,,TRUE,TRUE,,,,,,,CLR,,,,,,,,VFR,,,,,,,,,,,,METAR,427.0
KMVE 052355Z AUTO 10008KT 10SM CLR 28/16 A3001 RMK AO2,KMVE,2023-06-05T23:55:00Z,44.97,-95.72,28.0,16.0,100,8,,10.0,30.008858,,,TRUE,TRUE,,,,,,,CLR,,,,,,,,VFR,,,,,,,,,,,,METAR,319.0
KMUT 052355Z AUTO 11005KT 10SM CLR 29/06 A3001 RMK AO2,KMUT,2023-06-05T23:55:00Z,41.37,-91.15,29.0,6.0,110,5,,10.0,30.008858,,,TRUE,TRUE,,,,,,,CLR,,,,,,,,VFR,,,,,,,,,,,,METAR,166.0
KMUO 052355Z 32012G16KT 10SM FEW050 FEW080 FEW200 28/08 A2987 RMK AO2A SLP094 T02840081 10286 20240 57018 $,KMUO,2023-06-05T23:55:00Z,43.03,-115.87,28.4,8.1,320,12,16,10.0,29.870079,1009.4,,,TRUE,TRUE,,,,,,FEW,5000,FEW,8000,FEW,20000,,,VFR,-1.8,28.6,24.0,,,,,,,,,METAR,915.0
KMUI 052355Z 00000KT 10SM BKN250 20/04 A2986 RMK AO2A SLP113 T01990040 10245 20199 55000,KMUI,2023-06-05T23:55:00Z,40.43,-76.57,19.9,4.0,0,0,,10.0,29.861221,1011.3,,,TRUE,,,,,,,BKN,25000,,,,,,,VFR,0.0,24.5,19.9,,,,,,,,,METAR,146.0
KMQW 052355Z AUTO 00000KT 10SM CLR 29/15 A2992 RMK AO2 T02930153 10338 20290 403380142,KMQW,2023-06-05T23:55:00Z,32.1,-82.88,29.3,15.3,0,0,,10.0,29.920275,,,TRUE,TRUE,,,,,,,CLR,,,,,,,,VFR,,33.8,29.0,33.8,14.2,,,,,,,METAR,62.0
KMQJ 052355Z AUTO 04007KT 7SM CLR 24/06 A2998 RMK AO1,KMQJ,2023-06-05T23:55:00Z,39.85,-85.9,24.0,6.0,40,7,,7.0,29.97933,,,TRUE,TRUE,,,,,,,CLR,,,,,,,,VFR,,,,,,,,,,,,METAR,262.0
KMQB 052355Z AUTO 08005KT 10SM CLR 27/07 A3003 RMK AO2 T02730065 10284 20251,KMQB,2023-06-05T23:55:00Z,40.52,-90.65,27.3,6.5,80,5,,10.0,30.029528,,,TRUE,TRUE,,,,,,,CLR,,,,,,,,VFR,,28.4,25.1,,,,,,,,,METAR,205.0
KMPZ 052355Z AUTO 07003KT 10SM CLR 27/06 A3001 RMK AO2,KMPZ,2023-06-05T23:55:00Z,40.95,-91.52,27.0,6.0,70,3,,10.0,30.008858,,,TRUE,TRUE,,,,,,,CLR,,,,,,,,VFR,,,,,,,,,,,,METAR,222.0
KMPR 052355Z AUTO 14003KT 10SM SCT050 SCT065 SCT110 21/16 A3000 RMK AO2 P0001 T02070163 10326 20182 403260146 60006,KMPR,2023-06-05T23:55:00Z,38.35,-97.68,20.7,16.3,140,3,,10.0,30.0,,,TRUE,TRUE,,,,,,,SCT,5000,SCT,6500,SCT,11000,,,VFR,,32.6,18.2,32.6,14.6,0.01,,0.06,,,,METAR,455.0
KMOX 052355Z AUTO 12009KT 10SM SCT110 29/11 A3002 RMK AO2,KMOX,2023-06-05T23:55:00Z,45.57,-95.97,29.0,11.0,120,9,,10.0,30.02067,,,TRUE,TRUE,,,,,,,SCT,11000,,,,,,,VFR,,,,,,,,,,,,METAR,346.0
KMOP 052355Z AUTO 05008KT 10SM BKN070 BKN090 26/12 A2996 RMK AO2 T02570119 10301 20257,KMOP,2023-06-05T23:55:00Z,43.62,-84.73,25.7,11.9,50,8,,10.0,29.958662,,,TRUE,TRUE,,,,,,,BKN,7000,BKN,9000,,,,,VFR,,30.1,25.7,,,,,,,,,METAR,229.0
KMNZ 052355Z AUTO 03006KT 10SM CLR 28/16 A2993 RMK AO2 LTG DSNT SE AND S T02770159 10292 20271,KMNZ,2023-06-05T23:55:00Z,31.67,-98.15,27.7,15.9,30,6,,10.0,29.929134,,,TRUE,TRUE,,,,,,,CLR,,,,,,,,VFR,,29.2,27.1,,,,,,,,,METAR,397.0
KMNV 052355Z AUTO 00000KT 10SM 23/20 A2990 RMK A01,KMNV,2023-06-05T23:55:00Z,35.55,-84.38,23.0,20.0,0,0,,10.0,29.899607,,,TRUE,TRUE,,,,,,,,,,,,,,,,,,,,,,,,,,,METAR,306.0
KMNH 052355Z AUTO 21007KT 10SM TS SCT023 OVC035 13/09 A3028 RMK AO2 LTG DSNT NW THRU NE,KMNH,2023-06-05T23:55:00Z,39.22,-104.65,13.0,9.0,210,7,,10.0,30.280512,,,TRUE,TRUE,,,,,,TS,SCT,2300,OVC,3500,,,,,VFR,,,,,,,,,,,,METAR,2152.0
KMNE 052355Z AUTO 23003KT 10SM SCT070 BKN075 31/21 A2987 RMK AO2 LTG DSNT SE,KMNE,2023-06-05T23:55:00Z,32.65,-93.3,31.0,21.0,230,3,,10.0,29.870079,,,TRUE,TRUE,,,,,,,SCT,7000,BKN,7500,,,,,VFR,,,,,,,,,,,,METAR,84.0
KMMT 052355Z AUTO 00000KT 10SM FEW045 23/18 A2990 RMK AO2 SLP127 T02310178 10265 20231 55004 $,KMMT,2023-06-05T23:55:00Z,33.92,-80.8,23.1,17.8,0,0,,10.0,29.899607,1012.7,,TRUE,TRUE,TRUE,,,,,,FEW,4500,,,,,,,VFR,-0.4,26.5,23.1,,,,,,,,,METAR,76.0
KMMI 052355Z AUTO 00000KT 10SM CLR 22/20 A2992 RMK A01,KMMI,2023-06-05T23:55:00Z,35.4,-84.57,22.0,20.0,0,0,,10.0,29.920275,,,TRUE,TRUE,,,,,,,CLR,,,,,,,,VFR,,,,,,,,,,,,METAR,252.0
KMLJ 052355Z AUTO 25003KT 10SM CLR 27/18 A2991 RMK AO2,KMLJ,2023-06-05T23:55:00Z,33.15,-83.25,27.0,18.0,250,3,,10.0,29.911417,,,TRUE,TRUE,,,,,,,CLR,,,,,,,,VFR,,,,,,,,,,,,METAR,115.0
KMLE 052355Z AUTO 11004KT 10SM SCT110 30/13 A3000 RMK AO2 LTG DSNT E T03010130 10314 20291,KMLE,2023-06-05T23:55:00Z,41.2,-96.12,30.1,13.0,110,4,,10.0,30.0,,,TRUE,TRUE,,,,,,,SCT,11000,,,,,,,VFR,,31.4,29.1,,,,,,,,,METAR,318.0
KMKN 052355Z AUTO 34005KT 10SM 24/18 A2995 RMK AO2 T02400179 10301 20240,KMKN,2023-06-05T23:55:00Z,31.92,-98.6,24.0,17.9,340,5,,10.0,29.949802,,,TRUE,TRUE,,,,,,,,,,,,,,,,,30.1,24.0,,,,,,,,,METAR,428.0
KMKG 052355Z 29008KT 6SM HZ BKN250 24/10 A2999 RMK AO2 SLP151 T02440100 10267 20244 58011,KMKG,2023-06-05T23:55:00Z,43.17,-86.23,24.4,10.0,290,8,,6.0,29.991142,1015.1,,,TRUE,,,,,,HZ,BKN,25000,,,,,,,VFR,-1.1,26.7,24.4,,,,,,,,,METAR,190.0
KMJQ 052355Z AUTO 00000KT 10SM SCT085 30/09 A3003 RMK AO2 PWINO,KMJQ,2023-06-05T23:55:00Z,43.63,-94.98,30.0,9.0,0,0,,10.0,30.029528,,,TRUE,TRUE,,,,,TRUE,,SCT,8500,,,,,,,VFR,,,,,,,,,,,,METAR,439.0
KMJD 052355Z AUTO 00000KT 10SM SCT031 SCT048 27/22 A2991 RMK AO2,KMJD,2023-06-05T23:55:00Z,30.48,-89.65,27.0,22.0,0,0,,10.0,29.911417,,,TRUE,TRUE,,,,,,,SCT,3100,SCT,4800,,,,,VFR,,,,,,,,,,,,METAR,17.0
KMHR 052355Z AUTO 23011KT 10SM CLR 26/13 A2968 RMK AO2,KMHR,2023-06-05T23:55:00Z,38.55,-121.28,26.0,13.0,230,11,,10.0,29.681103,,,TRUE,TRUE,,,,,,,CLR,,,,,,,,VFR,,,,,,,,,,,,METAR,30.0
KMHP 052355Z AUTO 12003KT 10SM CLR 26/16 A2992 RMK AO2 T02550164 10291 20254 402910158,KMHP,2023-06-05T23:55:00Z,32.37,-82.08,25.5,16.4,120,3,,10.0,29.920275,,,TRUE,TRUE,,,,,,,CLR,,,,,,,,VFR,,29.1,25.4,29.1,15.8,,,,,,,METAR,60.0
KMGN 052355Z AUTO 21004KT 7SM CLR 17/13 A3000 RMK AO2 T01740139,KMGN,2023-06-05T23:55:00Z,45.43,-84.92,17.4,13.9,210,4,,7.0,30.0,,,TRUE,TRUE,,,,,,,CLR,,,,,,,,VFR,,,,,,,,,,,,METAR,205.0
KMGG 052355Z AUTO 06006KT 10SM CLR 27/17 A3005 RMK AO2 T02650165 10286 20260,KMGG,2023-06-05T23:55:00Z,45.23,-93.98,26.5,16.5,60,6,,10.0,30.050198,,,TRUE,TRUE,,,,,,,CLR,,,,,,,,VFR,,28.6,26.0,,,,,,,,,METAR,310.0
KMGE 052355Z 22005KT 10SM FEW045 BKN250 26/18 A2991 RMK AO2A SLP122 T02600176 10282 20242 55004 $,KMGE,2023-06-05T23:55:00Z,33.92,-84.52,26.0,17.6,220,5,,10.0,29.911417,1012.2,,,TRUE,TRUE,,,,,,FEW,4500,BKN,25000,,,,,VFR,-0.4,28.2,24.2,,,,,,,,,METAR,309.0
KMEV 052355Z AUTO 23004KT 10SM CLR 21/03 A2997 RMK AO2,KMEV,2023-06-05T23:55:00Z,38.98,-119.75,21.0,3.0,230,4,,10.0,29.970472,,,TRUE,TRUE,,,,,,,CLR,,,,,,,,VFR,,,,,,,,,,,,METAR,1437.0
KMDQ 052355Z AUTO 22003KT 10SM SCT065 28/18 A2992 RMK A02 T02800176 10318 20279 403180162,KMDQ,2023-06-05T23:55:00Z,34.87,-86.55,28.0,17.6,220,3,,10.0,29.920275,,,TRUE,TRUE,,,,,,,SCT,6500,,,,,,,VFR,,31.8,27.9,31.8,16.2,,,,,,,METAR,221.0
KMCF 052355Z AUTO 09008KT 10SM CLR 28/17 A2983 RMK AO2 SLP104 T02830169 10317 20283 52009 FZRANO $,KMCF,2023-06-05T23:55:00Z,27.85,-82.52,28.3,16.9,90,8,,10.0,29.828741,1010.4,,TRUE,TRUE,TRUE,,,TRUE,,,CLR,,,,,,,,VFR,0.9,31.7,28.3,,,,,,,,,METAR,3.0
KMCD 052355Z AUTO 35009G15KT 10SM CLR 21/12 A3000 RMK AO2 T02050117 10245 20205,KMCD,2023-06-05T23:55:00Z,45.85,-84.63,20.5,11.7,350,9,15,10.0,30.0,,,TRUE,TRUE,,,,,,,CLR,,,,,,,,VFR,,24.5,20.5,,,,,,,,,METAR,228.0
KMCC 052355Z AUTO 21009KT 10SM CLR 26/13 A2968 RMK AO2,KMCC,2023-06-05T23:55:00Z,38.67,-121.4,26.0,13.0,210,9,,10.0,29.681103,,,TRUE,TRUE,,,,,,,CLR,,,,,,,,VFR,,,,,,,,,,,,METAR,21.0
KMBT 052355Z AUTO 01011KT 10SM FEW060 30/16 A2987 RMK A01,KMBT,2023-06-05T23:55:00Z,35.88,-86.38,30.0,16.0,10,11,,10.0,29.870079,,,TRUE,TRUE,,,,,,,FEW,6000,,,,,,,VFR,,,,,,,,,,,,METAR,187.0
KM75 052355Z AUTO 15008KT 10SM CLR 30/13 A2987 RMK A01,KM75,2023-06-05T23:55:00Z,48.37,-107.92,30.0,13.0,150,8,,10.0,29.870079,,,TRUE,TRUE,,,,,,,CLR,,,,,,,,VFR,,,,,,,,,,,,METAR,687.0
KM54 052355Z AUTO 36005KT 10SM CLR 29/15 A2988 RMK A01,KM54,2023-06-05T23:55:00Z,36.18,-86.32,29.0,15.0,360,5,,10.0,29.878937,,,TRUE,TRUE,,,,,,,CLR,,,,,,,,VFR,,,,,,,,,,,,METAR,168.0
KM30 052355Z AUTO 34003KT 10SM CLR 29/11 A2992 RMK AO2 T02860110 10303 20286,KM30,2023-06-05T23:55:00Z,37.18,-88.75,28.6,11.0,340,3,,10.0,29.920275,,,TRUE,TRUE,,,,,,,CLR,,,,,,,,VFR,,30.3,28.6,,,,,,,,,METAR,116.0
KM08 052355Z AUTO 32004KT 10SM CLR 25/20 A2991 RMK A01,KM08,2023-06-05T23:55:00Z,35.22,-89.05,25.0,20.0,320,4,,10.0,29.911417,,,TRUE,TRUE,,,,,,,CLR,,,,,,,,VFR,,,,,,,,,,,,METAR,149.0
KM02 052355Z AUTO 01003KT 9SM CLR 27/17 A2991 RMK A01,KM02,2023-06-05T23:55:00Z,36.13,-87.43,27.0,17.0,10,3,,9.0,29.911417,,,TRUE,TRUE,,,,,,,CLR,,,,,,,,VFR,,,,,,,,,,,,METAR,268.0
KLYV 052355Z AUTO 05005KT 10SM CLR 28/11 A3002 RMK AO2,KLYV,2023-06-05T23:55:00Z,43.62,-96.22,28.0,11.0,50,5,,10.0,30.02067,,,TRUE,TRUE,,,,,,,CLR,,,,,,,,VFR,,,,,,,,,,,,METAR,435.0
KLYO 052355Z AUTO 00000KT 10SM SCT120 22/15 A3003 RMK AO2 T02210152 10300 20216 403000151,KLYO,2023-06-05T23:55:00Z,38.35,-98.23,22.1,15.2,0,0,,10.0,30.029528,,,TRUE,TRUE,,,,,,,SCT,12000,,,,,,,VFR,,30.0,21.6,30.0,15.1,,,,,,,METAR,515.0
KLXY 052355Z AUTO 18005KT 10SM CLR 28/19 A2987 RMK AO2 LTG DSNT SE T02800185 10301 20275,KLXY,2023-06-05T23:55:00Z,31.63,-96.52,28.0,18.5,180,5,,10.0,29.870079,,,TRUE,TRUE,,,,,,,CLR,,,,,,,,VFR,,30.1,27.5,,,,,,,,,METAR,164.0
KLXN 052355Z AUTO 25003KT 10SM VCTS CLR 26/13 A3006 RMK AO2 60042 T02550129 10278 20193,KLXN,2023-06-05T23:55:00Z,40.78,-99.77,25.5,12.9,250,3,,10.0,30.059055,,,TRUE,TRUE,,,,,,VCTS,CLR,,,,,,,,VFR,,27.8,19.3,,,,,0.42,,,,METAR,734.0
KLXL 052355Z AUTO 11003KT 10SM CLR 26/17 A3005 RMK AO2,KLXL,2023-06-05T23:55:00Z,45.95,-94.33,26.0,17.0,110,3,,10.0,30.050198,,,TRUE,TRUE,,,,,,,CLR,,,,,,,,VFR,,,,,,,,,,,,METAR,335.0
KLWA 052355Z AUTO 00000KT 10SM CLR 20/12 A3001 RMK AO2 T02020120 10239 20202,KLWA,2023-06-05T23:55:00Z,42.35,-86.25,20.2,12.0,0,0,,10.0,30.008858,,,TRUE,TRUE,,,,,,,CLR,,,,,,,,VFR,,23.9,20.2,,,,,,,,,METAR,199.0
KLVN 052355Z AUTO 06006KT 10SM CLR 28/12 A3004 RMK AO2,KLVN,2023-06-05T23:55:00Z,44.63,-93.23,28.0,12.0,60,6,,10.0,30.041338,,,TRUE,TRUE,,,,,,,CLR,,,,,,,,VFR,,,,,,,,,,,,METAR,292.0
KLUV 052355Z AUTO 07011KT 10SM SCT055 SCT090 SCT110 25/12 A3004 RMK AO2,KLUV,2023-06-05T23:55:00Z,32.75,-101.92,25.0,12.0,70,11,,10.0,30.041338,,,TRUE,TRUE,,,,,,,SCT,5500,SCT,9000,SCT,11000,,,VFR,,,,,,,,,,,,METAR,910.0
KLUL 052355Z AUTO 24004KT 10SM CLR 23/16 A2993 RMK A02 T02290158 10323 20229 403230181,KLUL,2023-06-05T23:55:00Z,31.67,-89.17,22.9,15.8,240,4,,10.0,29.929134,,,TRUE,TRUE,,,,,,,CLR,,,,,,,,VFR,,32.3,22.9,32.3,18.1,,,,,,,METAR,74.0
KLUG 052355Z AUTO 00000KT 10SM CLR 29/18 A2990 RMK A01,KLUG,2023-06-05T23:55:00Z,35.52,-86.8,29.0,18.0,0,0,,10.0,29.899607,,,TRUE,TRUE,,,,,,,CLR,,,,,,,,VFR,,,,,,,,,,,,METAR,218.0
KLUF 052355Z AUTO 21015G19KT 10SM CLR 39/M10 A2963 RMK AO2 SLP017 T03931102 10397 20337 57019 $,KLUF,2023-06-05T23:55:00Z,33.53,-112.37,39.3,-10.2,210,15,19,10.0,29.630905,1001.7,,TRUE,TRUE,TRUE,,,,,,CLR,,,,,,,,VFR,-1.9,39.7,33.7,,,,,,,,,METAR,333.0
KLUD 052355Z AUTO 36004KT 10SM CLR 26/19 A2992 RMK AO2 T02600185 10292 20260,KLUD,2023-06-05T23:55:00Z,33.25,-97.58,26.0,18.5,360,4,,10.0,29.920275,,,TRUE,TRUE,,,,,,,CLR,,,,,,,,VFR,,29.2,26.0,,,,,,,,,METAR,319.0
KLTS 052355Z 36006KT 10SM -RA SCT032 21/17 A2995 RMK AO2A PK WND 03041/2258 LTG DSNT NW RAB08E31DZB31E34DZB39E48RAB48 TSE51 SLP133 P0000 60000 T02070167 10298 20204 53003 $,KLTS,2023-06-05T23:55:00Z,34.67,-99.27,20.7,16.7,360,6,,10.0,29.949802,1013.3,,,TRUE,TRUE,,,,,-RA,SCT,3200,,,,,,,VFR,0.3,29.8,20.4,,,0.005,,0.005,,,,METAR,416.0
KLSV 052355Z AUTO 10005KT 10SM FEW150 37/M01 A2959 RMK AO2 SLP993 T03651015 10380 20346 57026 $,KLSV,2023-06-05T23:55:00Z,36.23,-115.05,36.5,-1.5,100,5,,10.0,29.589567,999.3,,TRUE,TRUE,TRUE,,,,,,FEW,15000,,,,,,,VFR,-2.6,38.0,34.6,,,,,,,,,METAR,563.0
KLSF 052355Z AUTO 00000KT 10SM CLR 25/21 A2989 RMK AO2 SLP125 T02500209 10300 20250 55002 $,KLSF,2023-06-05T23:55:00Z,32.32,-84.97,25.0,20.9,0,0,,10.0,29.890747,1012.5,,TRUE,TRUE,TRUE,,,,,,CLR,,,,,,,,VFR,-0.2,30.0,25.0,,,,,,,,,METAR,68.0
KLRJ 052355Z AUTO 00000KT 10SM CLR 27/20 A2999 RMK AO2,KLRJ,2023-06-05T23:55:00Z,42.77,-96.2,27.0,20.0,0,0,,10.0,29.991142,,,TRUE,TRUE,,,,,,,CLR,,,,,,,,VFR,,,,,,,,,,,,METAR,363.0
KLRF 052355Z 02003KT 10SM CLR 29/19 A2986 RMK AO2A SLP112 60006 T02900187 10344 20267 53001,KLRF,2023-06-05T23:55:00Z,34.92,-92.12,29.0,18.7,20,3,,10.0,29.861221,1011.2,,,TRUE,,,,,,,CLR,,,,,,,,VFR,0.1,34.4,26.7,,,,,0.06,,,,METAR,85.0
KLOR 052355Z AUTO 00000KT 10SM CLR 27/17 A2991 RMK AO2 SLP110 T02660174 10302 20266 53001,KLOR,2023-06-05T23:55:00Z,31.35,-85.75,26.6,17.4,0,0,,10.0,29.911417,1011.0,,TRUE,TRUE,,,,,,,CLR,,,,,,,,VFR,0.1,30.2,26.6,,,,,,,,,METAR,92.0
KLOM 052355Z AUTO 00000KT 10SM CLR 22/05 A2984 RMK AO2 T02170053 10255 20215 402550083,KLOM,2023-06-05T23:55:00Z,40.13,-75.27,21.7,5.3,0,0,,10.0,29.840551,,,TRUE,TRUE,,,,,,,CLR,,,,,,,,VFR,,25.5,21.5,25.5,8.3,,,,,,,METAR,87.0
KLNQ 052355Z AUTO 15004KT 10SM CLR 27/20 A2990 RMK AO2 T02720197 10311 20272,KLNQ,2023-06-05T23:55:00Z,29.35,-89.43,27.2,19.7,150,4,,10.0,29.899607,,,TRUE,TRUE,,,,,,,CLR,,,,,,,,VFR,,31.1,27.2,,,,,,,,,METAR,1.0
KLNN 052355Z AUTO 25004KT 10SM CLR 17/02 A2998 RMK AO1 T01680022 10203 20168,KLNN,2023-06-05T23:55:00Z,41.68,-81.38,16.8,2.2,250,4,,10.0,29.97933,,,TRUE,TRUE,,,,,,,CLR,,,,,,,,VFR,,20.3,16.8,,,,,,,,,METAR,190.0
KLNC 052355Z AUTO 06005KT 10SM SCT100 28/18 A2990 RMK AO2 LTG DSNT SE T02770178 10295 20260,KLNC,2023-06-05T23:55:00Z,32.58,-96.72,27.7,17.8,60,5,,10.0,29.899607,,,TRUE,TRUE,,,,,,,SCT,10000,,,,,,,VFR,,29.5,26.0,,,,,,,,,METAR,152.0
KLNA 052355Z AUTO 04008KT 10SM SCT034 SCT040 28/21 A2988 RMK AO2 T02770208 10294 20273,KLNA,2023-06-05T23:55:00Z,26.6,-80.08,27.7,20.8,40,8,,10.0,29.878937,,,TRUE,TRUE,,,,,,,SCT,3400,SCT,4000,,,,,VFR,,29.4,27.3,,,,,,,,,METAR,3.0
KLMS 052355Z AUTO 21006KT 9SM -RA SCT080 22/20 A2995 RMK AO2 LTG DSNT NE AND S AND NW P0009,KLMS,2023-06-05T23:55:00Z,,,22.0,20.0,210,6,,9.0,29.949802,,,TRUE,TRUE,,,,,,-RA,SCT,8000,,,,,,,VFR,,,,,,0.09,,,,,,METAR,
KLMO 052355Z AUTO 31012KT 10SM SCT047 OVC055 16/08 A3018 RMK AO2 T01610083 10241 20161,KLMO,2023-06-05T23:55:00Z,40.17,-105.17,16.1,8.3,310,12,,10.0,30.180119,,,TRUE,TRUE,,,,,,,SCT,4700,OVC,5500,,,,,VFR,,24.1,16.1,,,,,,,,,METAR,1535.0
KLLN 052355Z AUTO 09006KT 10SM FEW048 24/12 A3008 RMK AO2,KLLN,2023-06-05T23:55:00Z,33.55,-102.37,24.0,12.0,90,6,,10.0,30.079725,,,TRUE,TRUE,,,,,,,FEW,4800,,,,,,,VFR,,,,,,,,,,,,METAR,1071.0
KLLJ 052355Z AUTO 30012KT 10SM BKN075 BKN095 21/09 A3004 RMK AO2 LTG DSNT SE RAB36E48 SLP123 P0000 60000 T02060089 10222 20178 56006,KLLJ,2023-06-05T23:55:00Z,44.52,-114.22,20.6,8.9,300,12,,10.0,30.041338,1012.3,,TRUE,TRUE,,,,,,,BKN,7500,BKN,9500,,,,,VFR,-0.6,22.2,17.8,,,0.005,,0.005,,,,METAR,1535.0
KLJF 052355Z AUTO 36003KT 10SM CLR 27/16 A3003 RMK AO2,KLJF,2023-06-05T23:55:00Z,45.1,-94.52,27.0,16.0,360,3,,10.0,30.029528,,,TRUE,TRUE,,,,,,,CLR,,,,,,,,VFR,,,,,,,,,,,,METAR,347.0
KLIC 052355Z AUTO 16014G27KT 10SM FEW030 SCT060 18/11 A3018 RMK AO2 PK WND 13027/2355 SLP166 T01830111 10206 20172 56004,KLIC,2023-06-05T23:55:00Z,39.27,-103.67,18.3,11.1,160,14,27,10.0,30.180119,1016.6,,TRUE,TRUE,,,,,,,FEW,3000,SCT,6000,,,,,VFR,-0.4,20.6,17.2,,,,,,,,,METAR,1635.0
KLHW 052355Z AUTO 11005KT 10SM CLR 23/15 A2991 RMK AO2 SLP131 T02290152 10275 20229 53003 $,KLHW,2023-06-05T23:55:00Z,31.88,-81.57,22.9,15.2,110,5,,10.0,29.911417,1013.1,,TRUE,TRUE,TRUE,,,,,,CLR,,,,,,,,VFR,0.3,27.5,22.9,,,,,,,,,METAR,14.0
KLHM 052355Z AUTO 19007KT 10SM CLR 27/13 A2967 RMK AO1,KLHM,2023-06-05T23:55:00Z,38.92,-121.35,27.0,13.0,190,7,,10.0,29.66929,,,TRUE,TRUE,,,,,,,CLR,,,,,,,,VFR,,,,,,,,,,,,METAR,36.0
KLHB 052355Z AUTO 13003KT 10SM CLR 24/21 A2990 RMK AO2 LTG DSNT E AND SE 60013 T02360206 10296 20226,KLHB,2023-06-05T23:55:00Z,30.87,-96.62,23.6,20.6,130,3,,10.0,29.899607,,,TRUE,TRUE,,,,,,,CLR,,,,,,,,VFR,,29.6,22.6,,,,,0.13,,,,METAR,83.0
KLGF 052355Z AUTO 19015G24KT M M CLR 36/M00 A2964 RMK AO2 SLP033 T03641001 10382 20335 57007 RVRNO PWINO TSNO $,KLGF,2023-06-05T23:55:00Z,32.87,-114.4,36.4,-0.1,190,15,24,,29.639763,1003.3,,TRUE,TRUE,TRUE,,TRUE,,TRUE,,CLR,,,,,,,,,-0.7,38.2,33.5,,,,,,,,,METAR,118.0
KLGC 052355Z AUTO 00000KT 10SM CLR 25/18 A2994 RMK AO2 T02510179 10296 20251,KLGC,2023-06-05T23:55:00Z,33.0,-85.07,25.1,17.9,0,0,,10.0,29.940945,,,TRUE,TRUE,,,,,,,CLR,,,,,,,,VFR,,29.6,25.1,,,,,,,,,METAR,209.0
KLFI 052355Z 09005KT 10SM SCT080 20/14 A2988 RMK AO2A SLP125 T01970143 10232 20197 55000 $,KLFI,2023-06-05T23:55:00Z,37.08,-76.33,19.7,14.3,90,5,,10.0,29.878937,1012.5,,,TRUE,TRUE,,,,,,SCT,8000,,,,,,,VFR,0.0,23.2,19.7,,,,,,,,,METAR,2.0
KLDM 052355Z AUTO 34006KT 7SM CLR 22/13 A3001 RMK AO2 T02180134 10260 20218,KLDM,2023-06-05T23:55:00Z,43.97,-86.4,21.8,13.4,340,6,,7.0,30.008858,,,TRUE,TRUE,,,,,,,CLR,,,,,,,,VFR,,26.0,21.8,,,,,,,,,METAR,194.0
KLCQ 052355Z AUTO 11003KT 10SM CLR 25/15 A2992 RMK AO2,KLCQ,2023-06-05T23:55:00Z,30.18,-82.58,25.0,15.0,110,3,,10.0,29.920275,,,TRUE,TRUE,,,,,,,CLR,,,,,,,,VFR,,,,,,,,,,,,METAR,59.0
KLCK 052355Z AUTO 07005KT 7SM CLR 21/07 A2997 RMK AO2 T02110067 10252 20211,KLCK,2023-06-05T23:55:00Z,39.82,-82.92,21.1,6.7,70,5,,7.0,29.970472,,,TRUE,TRUE,,,,,,,CLR,,,,,,,,VFR,,25.2,21.1,,,,,,,,,METAR,225.0
KLCG 052355Z AUTO 20004KT 10SM CLR 30/13 A3001 RMK AO2 T03040130 10324 20295,KLCG,2023-06-05T23:55:00Z,42.25,-96.98,30.4,13.0,200,4,,10.0,30.008858,,,TRUE,TRUE,,,,,,,CLR,,,,,,,,VFR,,32.4,29.5,,,,,,,,,METAR,434.0
KLAM 052355Z AUTO 15013KT 9SM SCT190 19/06 A3019 RMK AO2 T01940063 $,KLAM,2023-06-05T23:55:00Z,35.87,-106.27,19.4,6.3,150,13,,9.0,30.188976,,,TRUE,TRUE,TRUE,,,,,,SCT,19000,,,,,,,VFR,,,,,,,,,,,,METAR,2166.0
KK88 052355Z AUTO 04004KT 10SM CLR 23/16 A3000 RMK AO1 T02280160 10307 20225,KK88,2023-06-05T23:55:00Z,37.87,-95.38,22.8,16.0,40,4,,10.0,30.0,,,TRUE,TRUE,,,,,,,CLR,,,,,,,,VFR,,30.7,22.5,,,,,,,,,METAR,308.0
KK82 052355Z AUTO 28013G23KT 10SM BKN090 26/15 A3004 RMK AO2 LTG DSNT SE T02560151 10308 20255 403080167,KK82,2023-06-05T23:55:00Z,39.77,-98.8,25.6,15.1,280,13,23,10.0,30.041338,,,TRUE,TRUE,,,,,,,BKN,9000,,,,,,,VFR,,30.8,25.5,30.8,16.7,,,,,,,METAR,548.0
KK70 052355Z AUTO 05006KT 10SM BKN060 27/M34 A2984 RMK AO2,KK70,2023-06-05T23:55:00Z,25.32,-80.28,27.0,-34.0,50,6,,10.0,29.840551,,,TRUE,TRUE,,,,,,,BKN,6000,,,,,,,VFR,,,,,,,,,,,,METAR,20.0
KK62 052355Z AUTO 04003KT 10SM CLR 23/10 A2995 RMK AO2,KK62,2023-06-05T23:55:00Z,38.7,-84.4,23.0,10.0,40,3,,10.0,29.949802,,,TRUE,TRUE,,,,,,,CLR,,,,,,,,VFR,,,,,,,,,,,,METAR,274.0
KJZP 052355Z AUTO 26004KT 10SM CLR 25/19 A2995 RMK AO2 T02510189 10274 20243 402740156,KJZP,2023-06-05T23:55:00Z,34.45,-84.47,25.1,18.9,260,4,,10.0,29.949802,,,TRUE,TRUE,,,,,,,CLR,,,,,,,,VFR,,27.4,24.3,27.4,15.6,,,,,,,METAR,462.0
KJYR 052355Z AUTO 03009KT 10SM CLR 28/12 A3002 RMK AO2,KJYR,2023-06-05T23:55:00Z,40.9,-97.62,28.0,12.0,30,9,,10.0,30.02067,,,TRUE,TRUE,,,,,,,CLR,,,,,,,,VFR,,,,,,,,,,,,METAR,508.0
KJYM 052355Z AUTO 00000KT 10SM BKN075 25/07 A2999 RMK AO2 T02500069 10266 20239,KJYM,2023-06-05T23:55:00Z,41.92,-84.58,25.0,6.9,0,0,,10.0,29.991142,,,TRUE,TRUE,,,,,,,BKN,7500,,,,,,,VFR,,26.6,23.9,,,,,,,,,METAR,357.0
KJYG 052355Z AUTO 10005KT 10SM BKN090 31/11 A2999 RMK AO2 TSNO,KJYG,2023-06-05T23:55:00Z,43.98,-94.55,31.0,11.0,100,5,,10.0,29.991142,,,TRUE,TRUE,,,TRUE,,,,BKN,9000,,,,,,,VFR,,,,,,,,,,,,METAR,323.0
KJWY 052355Z AUTO 04003KT 10SM SCT047 SCT065 BKN110 29/18 A2992 RMK AO2 T02860182 10290 20255,KJWY,2023-06-05T23:55:00Z,32.45,-96.92,28.6,18.2,40,3,,10.0,29.920275,,,TRUE,TRUE,,,,,,,SCT,4700,SCT,6500,BKN,11000,,,VFR,,29.0,25.5,,,,,,,,,METAR,211.0
KJWG 052355Z AUTO 04006KT 10SM CLR 29/15 A3000 RMK AO2 T02870146 10301 20215 403010158 60004,KJWG,2023-06-05T23:55:00Z,35.87,-98.42,28.7,14.6,40,6,,10.0,30.0,,,TRUE,TRUE,,,,,,,CLR,,,,,,,,VFR,,30.1,21.5,30.1,15.8,,,0.04,,,,METAR,469.0
KJSV 052355Z AUTO 00000KT 10SM CLR 28/20 A2990 RMK AO2 LTG DSNT NE AND SW,KJSV,2023-06-05T23:55:00Z,35.43,-94.8,28.0,20.0,0,0,,10.0,29.899607,,,TRUE,TRUE,,,,,,,CLR,,,,,,,,VFR,,,,,,,,,,,,METAR,158.0
KJPX 052355Z AUTO 00000KT 10SM BKN085 OVC095 16/10 A2978 RMK AO2 T01580098 10187 20158,KJPX,2023-06-05T23:55:00Z,40.95,-72.25,15.8,9.8,0,0,,10.0,29.778543,,,TRUE,TRUE,,,,,,,BKN,8500,OVC,9500,,,,,VFR,,18.7,15.8,,,,,,,,,METAR,10.0
KJOT 052355Z AUTO 09006KT 10SM CLR 27/08 A3001 RMK AO2 T02650079 10297 20265,KJOT,2023-06-05T23:55:00Z,41.52,-88.18,26.5,7.9,90,6,,10.0,30.008858,,,TRUE,TRUE,,,,,,,CLR,,,,,,,,VFR,,29.7,26.5,,,,,,,,,METAR,175.0
KJMR 052355Z AUTO 05003KT 10SM 25/16 A3010 RMK AO2,KJMR,2023-06-05T23:55:00Z,45.88,-93.27,25.0,16.0,50,3,,10.0,30.100393,,,TRUE,TRUE,,,,,,,,,,,,,,,,,,,,,,,,,,,METAR,301.0
KJKJ 052355Z AUTO 26010KT 10SM CLR 28/16 A3002 RMK AO2 TSNO,KJKJ,2023-06-05T23:55:00Z,46.83,-96.67,28.0,16.0,260,10,,10.0,30.02067,,,TRUE,TRUE,,,TRUE,,,,CLR,,,,,,,,VFR,,,,,,,,,,,,METAR,280.0
KJES 052355Z AUTO 13004KT 10SM CLR 24/16 A2996 RMK AO2,KJES,2023-06-05T23:55:00Z,31.55,-81.88,24.0,16.0,130,4,,10.0,29.958662,,,TRUE,TRUE,,,,,,,CLR,,,,,,,,VFR,,,,,,,,,,,,METAR,26.0
KJDD 052355Z AUTO 00000KT 10SM CLR 27/21 A2989 RMK AO2 LTG DSNT S,KJDD,2023-06-05T23:55:00Z,32.75,-95.5,27.0,21.0,0,0,,10.0,29.890747,,,TRUE,TRUE,,,,,,,CLR,,,,,,,,VFR,,,,,,,,,,,,METAR,127.0
KJCA 052355Z AUTO 20006KT 10SM CLR 26/19 A2992 RMK AO2 T02600188 10279 20241 402790150,KJCA,2023-06-05T23:55:00Z,34.18,-83.57,26.0,18.8,200,6,,10.0,29.920275,,,TRUE,TRUE,,,,,,,CLR,,,,,,,,VFR,,27.9,24.1,27.9,15.0,,,,,,,METAR,287.0
KJAS 052355Z AUTO 13008G14KT 1 1/4SM +TSRA BR FEW004 BKN032 OVC045 21/21 A2990 RMK AO2 LTG DSNT ALQDS P0016,KJAS,2023-06-05T23:55:00Z,30.88,-94.03,21.0,21.0,130,8,14,1.25,29.899607,,,TRUE,TRUE,,,,,,+TSRA BR,FEW,400,BKN,3200,OVC,4500,,,IFR,,,,,,0.16,,,,,,METAR,60.0
KIZA 052355Z AUTO 19013KT 9SM BKN029 OVC036 17/11 A2986 RMK AO2,KIZA,2023-06-05T23:55:00Z,34.6,-120.07,17.0,11.0,190,13,,9.0,29.861221,,,TRUE,TRUE,,,,,,,BKN,2900,OVC,3600,,,,,MVFR,,,,,,,,,,,,METAR,200.0
KIYA 052355Z AUTO 00000KT CLR 23/20 A2990 RMK AO2 LTG DSNT N AND W 60027 T02270199 10306 20205 PWINO,KIYA,2023-06-05T23:55:00Z,29.98,-92.08,22.7,19.9,0,0,,,29.899607,,,TRUE,TRUE,,,,,TRUE,,CLR,,,,,,,,,,30.6,20.5,,,,,0.27,,,,METAR,4.0
KISQ 052355Z AUTO 35008KT 7SM CLR 22/10 A3004 RMK AO2 T02200102 10278 20220,KISQ,2023-06-05T23:55:00Z,45.97,-86.17,22.0,10.2,350,8,,7.0,30.041338,,,TRUE,TRUE,,,,,,,CLR,,,,,,,,VFR,,27.8,22.0,,,,,,,,,METAR,206.0
KIRK 052355Z AUTO 07004KT 10SM CLR 25/12 A3003 RMK AO2 SLP164 T02500122 10278 20250 55006,KIRK,2023-06-05T23:55:00Z,40.1,-92.55,25.0,12.2,70,4,,10.0,30.029528,1016.4,,TRUE,TRUE,,,,,,,CLR,,,,,,,,VFR,-0.6,27.8,25.0,,,,,,,,,METAR,292.0
KINS 052355Z AUTO 11015G21KT 10SM FEW140 33/M07 A2970 RMK AO2 PK WND 09027/33 SLP009 T03321073 10343 20314 57024 $,KINS,2023-06-05T23:55:00Z,36.58,-115.68,33.2,-7.3,110,15,21,10.0,29.698818,1000.9,,TRUE,TRUE,TRUE,,,,,,FEW,14000,,,,,,,VFR,-2.4,34.3,31.4,,,,,,,,,METAR,954.0
KINJ 052355Z AUTO 06007KT 10SM SCT095 28/18 A2989 RMK AO2 LTG DSNT SE T02840180 10305 20243,KINJ,2023-06-05T23:55:00Z,32.08,-97.1,28.4,18.0,60,7,,10.0,29.890747,,,TRUE,TRUE,,,,,,,SCT,9500,,,,,,,VFR,,30.5,24.3,,,,,,,,,METAR,208.0
KIMS 052355Z AUTO 01003KT 10SM CLR 25/08 A2997 RMK AO2,KIMS,2023-06-05T23:55:00Z,38.75,-85.47,25.0,8.0,10,3,,10.0,29.970472,,,TRUE,TRUE,,,,,,,CLR,,,,,,,,VFR,,,,,,,,,,,,METAR,244.0
KIKW 052355Z AUTO 08006G14KT 10SM OVC070 23/12 A2996 RMK AO2 T02300124 10290 20230,KIKW,2023-06-05T23:55:00Z,43.67,-84.27,23.0,12.4,80,6,14,10.0,29.958662,,,TRUE,TRUE,,,,,,,OVC,7000,,,,,,,VFR,,29.0,23.0,,,,,,,,,METAR,190.0
KIKV 052355Z AUTO 16005KT 7SM CLR 27/15 A3003 RMK AO2,KIKV,2023-06-05T23:55:00Z,41.68,-93.57,27.0,15.0,160,5,,7.0,30.029528,,,TRUE,TRUE,,,,,,,CLR,,,,,,,,VFR,,,,,,,,,,,,METAR,270.0
KIKK 052355Z AUTO 04009G14KT 10SM CLR 26/04 A3001 RMK AO2 T02580044 10290 20256 PWINO,KIKK,2023-06-05T23:55:00Z,41.07,-87.85,25.8,4.4,40,9,14,10.0,30.008858,,,TRUE,TRUE,,,,,TRUE,,CLR,,,,,,,,VFR,,29.0,25.6,,,,,,,,,METAR,188.0
KIKG 052355Z AUTO 10004KT 1 1/2SM HZ VV007 27/22 A2985 RMK AO2 VIS 3/4V5 60060 T02730216 10286 20230,KIKG,2023-06-05T23:55:00Z,27.55,-98.03,27.3,21.6,100,4,,1.5,29.84941,,,TRUE,TRUE,,,,,,HZ,OVX,0,,,,,,,LIFR,,28.6,23.0,,,,,0.6,,,700,METAR,37.0
KIJX 052355Z AUTO 03004KT CLR 26/09 A2999 RMK AO2 T02610085 10272 20248,KIJX,2023-06-05T23:55:00Z,39.77,-90.25,26.1,8.5,30,4,,,29.991142,,,TRUE,TRUE,,,,,,,CLR,,,,,,,,,,27.2,24.8,,,,,,,,,METAR,187.0
KIIY 052355Z AUTO 17004KT 10SM CLR 24/19 A2993 RMK AO2 T02430186 10261 20230 402610145,KIIY,2023-06-05T23:55:00Z,33.78,-82.82,24.3,18.6,170,4,,10.0,29.929134,,,TRUE,TRUE,,,,,,,CLR,,,,,,,,VFR,,26.1,23.0,26.1,14.5,,,,,,,METAR,192.0
KIIB 052355Z AUTO 08007KT 7SM CLR 28/08 A3003 RMK AO2 T02850083 10298 20272 402980127,KIIB,2023-06-05T23:55:00Z,42.45,-91.95,28.5,8.3,80,7,,7.0,30.029528,,,TRUE,TRUE,,,,,,,CLR,,,,,,,,VFR,,29.8,27.2,29.8,12.7,,,,,,,METAR,294.0
KIGQ 052355Z AUTO 05004KT 10SM CLR 23/07 A3002 RMK AO2 T02320065 10275 20232,KIGQ,2023-06-05T23:55:00Z,41.53,-87.53,23.2,6.5,50,4,,10.0,30.02067,,,TRUE,TRUE,,,,,,,CLR,,,,,,,,VFR,,27.5,23.2,,,,,,,,,METAR,187.0
KIFA 052355Z AUTO 15007KT 10SM CLR 29/13 A3004 RMK AO2 T02860133 10310 20284,KIFA,2023-06-05T23:55:00Z,42.47,-93.27,28.6,13.3,150,7,,10.0,30.041338,,,TRUE,TRUE,,,,,,,CLR,,,,,,,,VFR,,31.0,28.4,,,,,,,,,METAR,344.0
KIDP 052355Z AUTO 08003KT 10SM -RA CLR 29/17 A2995 RMK AO2 LTG DSNT NW T02900167 10319 20287 403190170,KIDP,2023-06-05T23:55:00Z,37.17,-95.78,29.0,16.7,80,3,,10.0,29.949802,,,TRUE,TRUE,,,,,,-RA,CLR,,,,,,,,VFR,,31.9,28.7,31.9,17.0,,,,,,,METAR,252.0
KICL 052355Z AUTO 26011KT 10SM CLR 25/16 A3003 RMK AO2,KICL,2023-06-05T23:55:00Z,40.72,-95.02,25.0,16.0,260,11,,10.0,30.029528,,,TRUE,TRUE,,,,,,,CLR,,,,,,,,VFR,,,,,,,,,,,,METAR,299.0
KIBM 052355Z AUTO 14014G20KT 10SM SCT050 BKN060 22/11 A3015 RMK AO2 T02170105 10224 20191,KIBM,2023-06-05T23:55:00Z,41.18,-103.68,21.7,10.5,140,14,20,10.0,30.15059,,,TRUE,TRUE,,,,,,,SCT,5000,BKN,6000,,,,,VFR,,22.4,19.1,,,,,,,,,METAR,1494.0
KIAB 052355Z AUTO 01010KT 10SM BKN120 24/16 A2997 RMK AO2 LTG DSNT SE SLP142 60036 T02430158 10293 20197 55005 $,KIAB,2023-06-05T23:55:00Z,37.62,-97.27,24.3,15.8,10,10,,10.0,29.970472,1014.2,,TRUE,TRUE,TRUE,,,,,,BKN,12000,,,,,,,VFR,-0.5,29.3,19.7,,,,,0.36,,,,METAR,413.0
KI95 052355Z AUTO 00000KT 9SM CLR 22/05 A2998 RMK A01,KI95,2023-06-05T23:55:00Z,,,22.0,5.0,0,0,,9.0,29.97933,,,TRUE,TRUE,,,,,,,CLR,,,,,,,,VFR,,,,,,,,,,,,METAR,
KI75 052355Z AUTO 07006KT 10SM CLR 27/17 A3003 RMK AO2 T02680165 10302 20268,KI75,2023-06-05T23:55:00Z,41.05,-93.68,26.8,16.5,70,6,,10.0,30.029528,,,TRUE,TRUE,,,,,,,CLR,,,,,,,,VFR,,30.2,26.8,,,,,,,,,METAR,336.0
KI74 052355Z AUTO 02004KT 7SM CLR 22/04 A2999 RMK AO2,KI74,2023-06-05T23:55:00Z,40.12,-83.75,22.0,4.0,20,4,,7.0,29.991142,,,TRUE,TRUE,,,,,,,CLR,,,,,,,,VFR,,,,,,,,,,,,METAR,322.0
KI63 052355Z AUTO 06004KT 10SM CLR 26/09 A3000 RMK AO2 T02550088 10266 20237,KI63,2023-06-05T23:55:00Z,39.98,-90.8,25.5,8.8,60,4,,10.0,30.0,,,TRUE,TRUE,,,,,,,CLR,,,,,,,,VFR,,26.6,23.7,,,,,,,,,METAR,221.0
KI23 052355Z AUTO 04005KT 7SM CLR 23/02 A2998 RMK AO1,KI23,2023-06-05T23:55:00Z,39.57,-83.42,23.0,2.0,40,5,,7.0,29.97933,,,TRUE,TRUE,,,,,,,CLR,,,,,,,,VFR,,,,,,,,,,,,METAR,298.0
KI19 052355Z AUTO 00000KT 5SM HZ CLR 23/05 A2996 RMK AO2,KI19,2023-06-05T23:55:00Z,39.7,-83.98,23.0,5.0,0,0,,5.0,29.958662,,,TRUE,TRUE,,,,,,HZ,CLR,,,,,,,,MVFR,,,,,,,,,,,,METAR,285.0
KI16 052355Z AUTO 10SM CLR 21/15 A3002 RMK AO2 6//// T02060145 10277 20206 PNO,KI16,2023-06-05T23:55:00Z,37.6,-81.57,20.6,14.5,,,,10.0,30.02067,,,TRUE,TRUE,,,,,,,CLR,,,,,,,,VFR,,27.7,20.6,,,,,,,,,METAR,528.0
KHZX 052355Z AUTO 11008KT 10SM CLR 21/15 A3011 RMK AO2,KHZX,2023-06-05T23:55:00Z,46.62,-93.32,21.0,15.0,110,8,,10.0,30.109253,,,TRUE,TRUE,,,,,,,CLR,,,,,,,,VFR,,,,,,,,,,,,METAR,374.0
KHZL 052355Z AUTO 00000KT CLR 17/03 A2992 RMK AO2 PWINO,KHZL,2023-06-05T23:55:00Z,40.98,-76.0,17.0,3.0,0,0,,,29.920275,,,TRUE,TRUE,,,,,TRUE,,CLR,,,,,,,,,,,,,,,,,,,,METAR,481.0
KHZD 052355Z AUTO 04005KT 10SM CLR 28/17 A2989 RMK A01,KHZD,2023-06-05T23:55:00Z,36.08,-88.47,28.0,17.0,40,5,,10.0,29.890747,,,TRUE,TRUE,,,,,,,CLR,,,,,,,,VFR,,,,,,,,,,,,METAR,147.0
KHYX 052355Z AUTO 05009KT 7SM CLR 25/15 A2996 RMK AO2 T02470152 10278 20246,KHYX,2023-06-05T23:55:00Z,43.43,-83.87,24.7,15.2,50,9,,7.0,29.958662,,,TRUE,TRUE,,,,,,,CLR,,,,,,,,VFR,,27.8,24.6,,,,,,,,,METAR,181.0
KHVE 052355Z AUTO 13007KT 10SM CLR 32/M03 A2990 RMK AO2,KHVE,2023-06-05T23:55:00Z,38.42,-110.7,32.0,-3.0,130,7,,10.0,29.899607,,,TRUE,TRUE,,,,,,,CLR,,,,,,,,VFR,,,,,,,,,,,,METAR,1351.0
KHVC 052355Z AUTO 34005KT 8SM CLR 28/13 A2990 RMK AO2,KHVC,2023-06-05T23:55:00Z,,,28.0,13.0,340,5,,8.0,29.899607,,,TRUE,TRUE,,,,,,,CLR,,,,,,,,VFR,,,,,,,,,,,,METAR,
KHUM 052355Z AUTO 34004KT 7SM SCT050 SCT075 SCT100 23/21 A2990 RMK AO2 P0001 60037 T02340206 10276 20220,KHUM,2023-06-05T23:55:00Z,29.57,-90.67,23.4,20.6,340,4,,7.0,29.899607,,,TRUE,TRUE,,,,,,,SCT,5000,SCT,7500,SCT,10000,,,VFR,,27.6,22.0,,,0.01,,0.37,,,,METAR,1.0
KHUA 052355Z AUTO 00000KT 8SM CLR 25/24 A2990 RMK AO2 SLP120 60001 T02510242 10323 20245 53004,KHUA,2023-06-05T23:55:00Z,34.68,-86.68,25.1,24.2,0,0,,8.0,29.899607,1012.0,,TRUE,TRUE,,,,,,,CLR,,,,,,,,VFR,0.4,32.3,24.5,,,,,0.01,,,,METAR,200.0
KHTH 052355Z AUTO 36021G26KT 10SM CLR 25/04 A2988 RMK A01,KHTH,2023-06-05T23:55:00Z,38.55,-118.63,25.0,4.0,360,21,26,10.0,29.878937,,,TRUE,TRUE,,,,,,,CLR,,,,,,,,VFR,,,,,,,,,,,,METAR,1281.0
KHST 052355Z AUTO 05010KT 10SM SCT022 BKN043 OVC050 27/23 A2985 RMK AO2 SLP112 T02710227 10317 20271 51008,KHST,2023-06-05T23:55:00Z,25.48,-80.37,27.1,22.7,50,10,,10.0,29.84941,1011.2,,TRUE,TRUE,,,,,,,SCT,2200,BKN,4300,OVC,5000,,,VFR,0.8,31.7,27.1,,,,,,,,,METAR,1.0
KHSG 052355Z AUTO 27012KT 10SM CLR 20/13 A3003 RMK AO2 T01960129 10258 20196,KHSG,2023-06-05T23:55:00Z,43.72,-108.38,19.6,12.9,270,12,,10.0,30.029528,,,TRUE,TRUE,,,,,,,CLR,,,,,,,,VFR,,25.8,19.6,,,,,,,,,METAR,1497.0
KHSD 052355Z AUTO 17003KT 10SM CLR 29/15 A2995 RMK A01,KHSD,2023-06-05T23:55:00Z,35.6,-97.72,29.0,15.0,170,3,,10.0,29.949802,,,TRUE,TRUE,,,,,,,CLR,,,,,,,,VFR,,,,,,,,,,,,METAR,358.0
KHSB 052355Z AUTO 01009G14KT 10SM CLR 29/M08 A2994 RMK AO2 T02881085 10328 20288,KHSB,2023-06-05T23:55:00Z,37.82,-88.55,28.8,-8.5,10,9,14,10.0,29.940945,,,TRUE,TRUE,,,,,,,CLR,,,,,,,,VFR,,32.8,28.8,,,,,,,,,METAR,118.0
KHRX 052355Z AUTO 10SM BKN110 21/14 A3013 RMK AO2 60007 T02060140 10226 20184 TSNO,KHRX,2023-06-05T23:55:00Z,34.87,-102.33,20.6,14.0,,,,10.0,30.129921,,,TRUE,TRUE,,,TRUE,,,,BKN,11000,,,,,,,VFR,,22.6,18.4,,,,,0.07,,,,METAR,1153.0
KHRT 052355Z 19005KT 10SM FEW200 25/20 A2990 RMK AO2A SLP127 T02470199 10272 20247 55003,KHRT,2023-06-05T23:55:00Z,30.42,-86.68,24.7,19.9,190,5,,10.0,29.899607,1012.7,,,TRUE,,,,,,,FEW,20000,,,,,,,VFR,-0.3,27.2,24.7,,,,,,,,,METAR,10.0
KHQU 052355Z AUTO 00000KT 10SM CLR 26/18 A2993 RMK AO2 T02560184 10271 20239 402710145,KHQU,2023-06-05T23:55:00Z,33.53,-82.52,25.6,18.4,0,0,,10.0,29.929134,,,TRUE,TRUE,,,,,,,CLR,,,,,,,,VFR,,27.1,23.9,27.1,14.5,,,,,,,METAR,141.0
KHQG 052355Z AUTO 12012KT 10SM SCT070 SCT085 24/13 A3009 RMK AO2 LTG DSNT S T02370130 10262 20231 PWINO,KHQG,2023-06-05T23:55:00Z,37.17,-101.37,23.7,13.0,120,12,,10.0,30.088583,,,TRUE,TRUE,,,,,TRUE,,SCT,7000,SCT,8500,,,,,VFR,,26.2,23.1,,,,,,,,,METAR,956.0
KHQG 052355Z AUTO 12012KT 10SM SCT070 SCT085 24/13 A3009 RMK AO2 LTG DSNT S T02370130 10262 20231 PWINO,KHQG,2023-06-05T23:55:00Z,37.17,-101.37,23.7,13.0,120,12,,10.0,30.088583,,,TRUE,TRUE,,,,,TRUE,,SCT,7000,SCT,8500,,,,,VFR,,26.2,23.1,,,,,,,,,METAR,956.0
KHPT 052355Z AUTO 12007KT 10SM CLR 28/12 A3002 RMK AO2,KHPT,2023-06-05T23:55:00Z,42.72,-93.23,28.0,12.0,120,7,,10.0,30.02067,,,TRUE,TRUE,,,,,,,CLR,,,,,,,,VFR,,,,,,,,,,,,METAR,354.0
KHOP 052355Z AUTO 36005KT 10SM CLR 28/13 A2989 RMK AO2 SLP119 T02760131 10302 20276 55007,KHOP,2023-06-05T23:55:00Z,36.67,-87.5,27.6,13.1,360,5,,10.0,29.890747,1011.9,,TRUE,TRUE,,,,,,,CLR,,,,,,,,VFR,-0.7,30.2,27.6,,,,,,,,,METAR,170.0
KHON 052355Z AUTO 09009KT 10SM BKN120 30/13 A2998 RMK AO2 SLP144 T03000133 10339 20300 56010,KHON,2023-06-05T23:55:00Z,44.38,-98.23,30.0,13.3,90,9,,10.0,29.97933,1014.4,,TRUE,TRUE,,,,,,,BKN,12000,,,,,,,VFR,-1.0,33.9,30.0,,,,,,,,,METAR,391.0
KHOE 052355Z AUTO 00000KT 10SM CLR 25/18 A2992 RMK AO2 T02570191,KHOE,2023-06-05T23:55:00Z,31.05,-82.78,25.7,18.0,0,0,,10.0,29.920275,,,TRUE,TRUE,,,,,,,CLR,,,,,,,,VFR,,,,,,,,,,,,METAR,56.0
KHNR 052355Z AUTO 10004KT 10SM CLR 30/14 A3001 RMK A01,KHNR,2023-06-05T23:55:00Z,41.58,-95.33,30.0,14.0,100,4,,10.0,30.008858,,,TRUE,TRUE,,,,,,,CLR,,,,,,,,VFR,,,,,,,,,,,,METAR,364.0
KHMZ 052355Z AUTO 31004KT 10SM SCT100 19/05 A2993 RMK AO2 T01910053 10229 20191,KHMZ,2023-06-05T23:55:00Z,40.08,-78.52,19.1,5.3,310,4,,10.0,29.929134,,,TRUE,TRUE,,,,,,,SCT,10000,,,,,,,VFR,,22.9,19.1,,,,,,,,,METAR,351.0
KHMP 052355Z AUTO 19004KT 10SM CLR 26/19 A2997 RMK AO2 T02580189 10281 20235 402810154,KHMP,2023-06-05T23:55:00Z,33.38,-84.33,25.8,18.9,190,4,,10.0,29.970472,,,TRUE,TRUE,,,,,,,CLR,,,,,,,,VFR,,28.1,23.5,28.1,15.4,,,,,,,METAR,263.0
KHMN 052355Z AUTO 15016G20KT 10SM FEW140 31/06 A2997 RMK AO2 LTG DSNT N SLP081 T03070058 10316 20273 57020 $,KHMN,2023-06-05T23:55:00Z,32.85,-106.1,30.7,5.8,150,16,20,10.0,29.970472,1008.1,,TRUE,TRUE,TRUE,,,,,,FEW,14000,,,,,,,VFR,-2.0,31.6,27.3,,,,,,,,,METAR,1240.0
KHLR 052355Z AUTO 01005KT 10SM CLR 28/17 A2990 RMK AO2 LTG DSNT E AND W SLP116 T02800166 10293 20275 55006,KHLR,2023-06-05T23:55:00Z,31.13,-97.72,28.0,16.6,10,5,,10.0,29.899607,1011.6,,TRUE,TRUE,,,,,,,CLR,,,,,,,,VFR,-0.6,29.3,27.5,,,,,,,,,METAR,271.0
KHLB 052355Z AUTO 00000KT 10SM CLR 21/09 A2997 RMK A01,KHLB,2023-06-05T23:55:00Z,39.35,-85.27,21.0,9.0,0,0,,10.0,29.970472,,,TRUE,TRUE,,,,,,,CLR,,,,,,,,VFR,,,,,,,,,,,,METAR,297.0
KHJH 052355Z AUTO 15006KT 10SM CLR 27/15 A3003 RMK AO2 LTG DSNT S T02650154 10320 20265,KHJH,2023-06-05T23:55:00Z,40.15,-97.58,26.5,15.4,150,6,,10.0,30.029528,,,TRUE,TRUE,,,,,,,CLR,,,,,,,,VFR,,32.0,26.5,,,,,,,,,METAR,449.0
KHIF 052355Z 08011KT 10SM SCT140 27/06 A2995 RMK AO2A LTG DSNT NE SLP089 T02700058 10277 20237 57012,KHIF,2023-06-05T23:55:00Z,41.12,-111.97,27.0,5.8,80,11,,10.0,29.949802,1008.9,,,TRUE,,,,,,,SCT,14000,,,,,,,VFR,-1.2,27.7,23.7,,,,,,,,,METAR,1461.0
KHHW 052355Z AUTO 04005KT 10SM CLR 27/19 A2991 RMK AO2 LTG DSNT N,KHHW,2023-06-05T23:55:00Z,34.03,-95.55,27.0,19.0,40,5,,10.0,29.911417,,,TRUE,TRUE,,,,,,,CLR,,,,,,,,VFR,,,,,,,,,,,,METAR,178.0
KHHG 052355Z AUTO 00000KT 10SM CLR 25/06 A2999 RMK AO2 T02470057 10264 20246,KHHG,2023-06-05T23:55:00Z,40.85,-85.45,24.7,5.7,0,0,,10.0,29.991142,,,TRUE,TRUE,,,,,,,CLR,,,,,,,,VFR,,26.4,24.6,,,,,,,,,METAR,247.0
KHHF 052355Z AUTO 26006KT 10SM CLR 21/14 A3005 RMK AO2 T02090136 10290 20202,KHHF,2023-06-05T23:55:00Z,35.9,-100.4,20.9,13.6,260,6,,10.0,30.050198,,,TRUE,TRUE,,,,,,,CLR,,,,,,,,VFR,,29.0,20.2,,,,,,,,,METAR,729.0
KHFJ 052355Z AUTO 02005KT 10SM CLR 27/16 A2997 RMK AO2,KHFJ,2023-06-05T23:55:00Z,36.9,-94.02,27.0,16.0,20,5,,10.0,29.970472,,,TRUE,TRUE,,,,,,,CLR,,,,,,,,VFR,,,,,,,,,,,,METAR,398.0
KHFF 052355Z AUTO 31004KT 10SM CLR 23/16 A2990 RMK AO2 SLP126 T02300156 10254 20230 55002 $,KHFF,2023-06-05T23:55:00Z,35.03,-79.5,23.0,15.6,310,4,,10.0,29.899607,1012.6,,TRUE,TRUE,TRUE,,,,,,CLR,,,,,,,,VFR,-0.2,25.4,23.0,,,,,,,,,METAR,100.0
KHEY 052355Z AUTO 00000KT 9SM CLR 27/17 A2988 RMK AO2 SLP118 T02690171 10302 20269 55000,KHEY,2023-06-05T23:55:00Z,31.35,-85.65,26.9,17.1,0,0,,9.0,29.878937,1011.8,,TRUE,TRUE,,,,,,,CLR,,,,,,,,VFR,0.0,30.2,26.9,,,,,,,,,METAR,95.0
KHEQ 052355Z AUTO 15011KT 10SM CLR 26/10 A3011 RMK AO2 LTG DSNT NE,KHEQ,2023-06-05T23:55:00Z,40.57,-102.28,26.0,10.0,150,11,,10.0,30.109253,,,TRUE,TRUE,,,,,,,CLR,,,,,,,,VFR,,,,,,,,,,,,METAR,1136.0
KHDL 052355Z AUTO 15006KT 10SM CLR 28/16 A2991 RMK AO2,KHDL,2023-06-05T23:55:00Z,31.37,-85.32,28.0,16.0,150,6,,10.0,29.911417,,,TRUE,TRUE,,,,,,,CLR,,,,,,,,VFR,,,,,,,,,,,,METAR,109.0
KHDE 052355Z AUTO 28005KT 10SM BKN080 BKN095 22/14 A3006 RMK AO2 LTG DSNT SW THRU N 60001 T02180137 10285 20218,KHDE,2023-06-05T23:55:00Z,40.45,-99.33,21.8,13.7,280,5,,10.0,30.059055,,,TRUE,TRUE,,,,,,,BKN,8000,BKN,9500,,,,,VFR,,28.5,21.8,,,,,0.01,,,,METAR,703.0
KHDC 052355Z AUTO 00000KT 10SM CLR 25/19 A2991 RMK AO2 60001 T02490191 10297 20213,KHDC,2023-06-05T23:55:00Z,30.52,-90.42,24.9,19.1,0,0,,10.0,29.911417,,,TRUE,TRUE,,,,,,,CLR,,,,,,,,VFR,,29.7,21.3,,,,,0.01,,,,METAR,12.0
KHCR 052355Z AUTO 10SM CLR 20/08 A3006 RMK AO2,KHCR,2023-06-05T23:55:00Z,40.48,-111.43,20.0,8.0,,,,10.0,30.059055,,,TRUE,TRUE,,,,,,,CLR,,,,,,,,VFR,,,,,,,,,,,,METAR,1708.0
KHCO 052355Z AUTO 11005KT 10SM CLR 26/20 A3001 RMK AO2 LTG DSNT SE,KHCO,2023-06-05T23:55:00Z,48.75,-96.93,26.0,20.0,110,5,,10.0,30.008858,,,TRUE,TRUE,,,,,,,CLR,,,,,,,,VFR,,,,,,,,,,,,METAR,250.0
KHCD 052355Z AUTO 06009KT 10SM CLR 29/16 A3004 RMK AO2 T02870162 10304 20237,KHCD,2023-06-05T23:55:00Z,44.87,-94.38,28.7,16.2,60,9,,10.0,30.041338,,,TRUE,TRUE,,,,,,,CLR,,,,,,,,VFR,,30.4,23.7,,,,,,,,,METAR,320.0
KHBV 052355Z AUTO 14006KT 10SM SCT070 BKN100 27/20 A2987 RMK AO2 T02700196 10327 20268,KHBV,2023-06-05T23:55:00Z,27.35,-98.73,27.0,19.6,140,6,,10.0,29.870079,,,TRUE,TRUE,,,,,,,SCT,7000,BKN,10000,,,,,VFR,,32.7,26.8,,,,,,,,,METAR,200.0
KHAF 052355Z AUTO 18012KT 7SM OVC013 15/11 A2986 RMK AO2,KHAF,2023-06-05T23:55:00Z,37.52,-122.5,15.0,11.0,180,12,,7.0,29.861221,,,TRUE,TRUE,,,,,,,OVC,1300,,,,,,,MVFR,,,,,,,,,,,,METAR,11.0
KGZS 052355Z AUTO 00000KT 10SM CLR 28/22 A2989 RMK A01,KGZS,2023-06-05T23:55:00Z,35.15,-87.05,28.0,22.0,0,0,,10.0,29.890747,,,TRUE,TRUE,,,,,,,CLR,,,,,,,,VFR,,,,,,,,,,,,METAR,198.0
KGZL 052355Z AUTO 03007KT 10SM CLR 30/18 A2990 RMK AO2,KGZL,2023-06-05T23:55:00Z,35.28,-95.1,30.0,18.0,30,7,,10.0,29.899607,,,TRUE,TRUE,,,,,,,CLR,,,,,,,,VFR,,,,,,,,,,,,METAR,176.0
KGYL 052355Z AUTO 05004KT 10SM CLR 28/17 A3002 RMK AO2 T02800171 10317 20246,KGYL,2023-06-05T23:55:00Z,44.77,-94.08,28.0,17.1,50,4,,10.0,30.02067,,,TRUE,TRUE,,,,,,,CLR,,,,,,,,VFR,,31.7,24.6,,,,,,,,,METAR,304.0
KGYF 052355Z AUTO 09022KT 10SM CLR 25/21 A2987 RMK AO2 T02460209 10337 20245 403430245,KGYF,2023-06-05T23:55:00Z,26.13,-94.9,24.6,20.9,90,22,,10.0,29.870079,,,TRUE,TRUE,,,,,,,CLR,,,,,,,,VFR,,33.7,24.5,34.3,24.5,,,,,,,METAR,65.0
KGYB 052355Z AUTO 00000KT 10SM -RA OVC095 21/20 A2992 RMK AO2 P0001 60001 T02100199 10304 20210,KGYB,2023-06-05T23:55:00Z,30.17,-96.98,21.0,19.9,0,0,,10.0,29.920275,,,TRUE,TRUE,,,,,,-RA,OVC,9500,,,,,,,VFR,,30.4,21.0,,,0.01,,0.01,,,,METAR,140.0
KGXF 052355Z AUTO 21019G23KT 10SM CLR 38/M14 A2967 RMK AO2 PK WND 20028/34 SLP034 T03841143 10403 20339 57009 FZRANO $,KGXF,2023-06-05T23:55:00Z,32.88,-112.72,38.4,-14.3,210,19,23,10.0,29.66929,1003.4,,TRUE,TRUE,TRUE,,,TRUE,,,CLR,,,,,,,,VFR,-0.9,40.3,33.9,,,,,,,,,METAR,261.0
KGXA 052355Z AUTO 17011KT 10SM FEW200 24/04 A2973 RMK AO2 SLP042 WND DATA ESTMD T02400037 10313 20235 58007,KGXA,2023-06-05T23:55:00Z,34.57,-117.67,24.0,3.7,170,11,,10.0,29.731298,1004.2,,TRUE,TRUE,,,,,,,FEW,20000,,,,,,,VFR,-0.7,31.3,23.5,,,,,,,,,METAR,927.0
KGWB 052355Z AUTO 03003KT 10SM CLR 25/08 A3000 RMK AO2,KGWB,2023-06-05T23:55:00Z,41.3,-85.07,25.0,8.0,30,3,,10.0,30.0,,,TRUE,TRUE,,,,,,,CLR,,,,,,,,VFR,,,,,,,,,,,,METAR,268.0
KGVT 052355Z AUTO 03005KT 10SM CLR 28/19 A2991 RMK AO2 TSNO T02800189 10294 20262 402940182,KGVT,2023-06-05T23:55:00Z,33.07,-96.07,28.0,18.9,30,5,,10.0,29.911417,,,TRUE,TRUE,,,TRUE,,,,CLR,,,,,,,,VFR,,29.4,26.2,29.4,18.2,,,,,,,METAR,165.0
KGUS 052355Z AUTO 03004KT 10SM CLR 25/07 A2997 RMK AO2 SLP149 T02450067 10268 20245 56008 $,KGUS,2023-06-05T23:55:00Z,40.63,-86.15,24.5,6.7,30,4,,10.0,29.970472,1014.9,,TRUE,TRUE,TRUE,,,,,,CLR,,,,,,,,VFR,-0.8,26.8,24.5,,,,,,,,,METAR,245.0
KGUR 052355Z AUTO 15013KT 10SM FEW060 24/10 A3007 RMK AO2 SLP171 T02420097 10248 20221 57011,KGUR,2023-06-05T23:55:00Z,42.25,-104.72,24.2,9.7,150,13,,10.0,30.070866,1017.1,,TRUE,TRUE,,,,,,,FEW,6000,,,,,,,VFR,-1.1,24.8,22.1,,,,,,,,,METAR,1341.0
KGTB 052355Z AUTO 25004KT 10SM FEW100 BKN120 17/10 A2983 RMK AO2 SLP101 T01720096 10203 20172 57008,KGTB,2023-06-05T23:55:00Z,44.07,-75.72,17.2,9.6,250,4,,10.0,29.828741,1010.1,,TRUE,TRUE,,,,,,,FEW,10000,BKN,12000,,,,,VFR,-0.8,20.3,17.2,,,,,,,,,METAR,206.0
KGSB 052355Z 00000KT 10SM SCT250 24/12 A2987 RMK AO2A SLP118 WND DATA ESTMD T02390116 10270 20239 55002 $,KGSB,2023-06-05T23:55:00Z,35.33,-77.93,23.9,11.6,0,0,,10.0,29.870079,1011.8,,,TRUE,TRUE,,,,,,SCT,25000,,,,,,,VFR,-0.2,27.0,23.9,,,,,,,,,METAR,33.0
KGRY 052355Z AUTO VRB05KT 10SM CLR 24/19 A2988 RMK A01,KGRY,2023-06-05T23:55:00Z,27.63,-90.45,24.0,19.0,0,5,,10.0,29.878937,,,TRUE,TRUE,,,,,,,CLR,,,,,,,,VFR,,,,,,,,,,,,METAR,58.0
KGRN 052355Z AUTO 00000KT 10SM SCT095 25/12 A3009 RMK AO2 T02450115 10256 20208,KGRN,2023-06-05T23:55:00Z,42.8,-102.17,24.5,11.5,0,0,,10.0,30.088583,,,TRUE,TRUE,,,,,,,SCT,9500,,,,,,,VFR,,25.6,20.8,,,,,,,,,METAR,1080.0
KGRK 052355Z AUTO 09005KT 10SM CLR 28/16 A2989 RMK AO2 LTG DSNT E AND W SLP112 T02770163 10284 20242 56008,KGRK,2023-06-05T23:55:00Z,31.07,-97.83,27.7,16.3,90,5,,10.0,29.890747,1011.2,,TRUE,TRUE,,,,,,,CLR,,,,,,,,VFR,-0.8,28.4,24.2,,,,,,,,,METAR,311.0
KGPI 052355Z 17010KT 10SM CLR 27/09 A2992 RMK AO2 SLP122 T02720089 10278 20222 56008 VISNO NE,KGPI,2023-06-05T23:55:00Z,48.32,-114.25,27.2,8.9,170,10,,10.0,29.920275,1012.2,,,TRUE,,,,,,,CLR,,,,,,,,VFR,-0.8,27.8,22.2,,,,,,,,,METAR,903.0
KGPC 052355Z AUTO 07004KT 10SM CLR 25/04 A2998 RMK AO2 T02520037 10282 20245 402820115,KGPC,2023-06-05T23:55:00Z,39.63,-86.82,25.2,3.7,70,4,,10.0,29.97933,,,TRUE,TRUE,,,,,,,CLR,,,,,,,,VFR,,28.2,24.5,28.2,11.5,,,,,,,METAR,254.0
KGOV 052355Z AUTO 03008KT 10SM CLR 24/09 A3000 RMK AO2 SLP162 T02440091 10280 20244 53000 $,KGOV,2023-06-05T23:55:00Z,44.68,-84.73,24.4,9.1,30,8,,10.0,30.0,1016.2,,TRUE,TRUE,TRUE,,,,,,CLR,,,,,,,,VFR,0.0,28.0,24.4,,,,,,,,,METAR,350.0
KGNG 052355Z AUTO 33008KT 10SM CLR 26/07 A2997 RMK AO2,KGNG,2023-06-05T23:55:00Z,42.92,-114.77,26.0,7.0,330,8,,10.0,29.970472,,,TRUE,TRUE,,,,,,,CLR,,,,,,,,VFR,,,,,,,,,,,,METAR,1128.0
KGNB 052355Z AUTO 19004KT 10SM OVC090 16/03 A3026 RMK AO2 T01570033 10192 20143,KGNB,2023-06-05T23:55:00Z,40.08,-105.92,15.7,3.3,190,4,,10.0,30.259842,,,TRUE,TRUE,,,,,,,OVC,9000,,,,,,,VFR,,19.2,14.3,,,,,,,,,METAR,2500.0
KGMJ 052355Z AUTO 08008G15KT 050V110 10SM FEW080 31/17 A2992 RMK AO2,KGMJ,2023-06-05T23:55:00Z,36.6,-94.73,31.0,17.0,80,8,15,10.0,29.920275,,,TRUE,TRUE,,,,,,,FEW,8000,,,,,,,VFR,,,,,,,,,,,,METAR,251.0
KGLW 052355Z AUTO 33003KT 10SM BKN060 27/18 A2991 RMK AO2 T02700178 10301 20270,KGLW,2023-06-05T23:55:00Z,37.03,-85.95,27.0,17.8,330,3,,10.0,29.911417,,,TRUE,TRUE,,,,,,,BKN,6000,,,,,,,VFR,,30.1,27.0,,,,,,,,,METAR,216.0
KGKT 052355Z AUTO 00000KT 10SM FEW065 BKN090 BKN110 25/20 A2990 RMK A01,KGKT,2023-06-05T23:55:00Z,35.85,-83.53,25.0,20.0,0,0,,10.0,29.899607,,,TRUE,TRUE,,,,,,,FEW,6500,BKN,9000,BKN,11000,,,VFR,,,,,,,,,,,,METAR,305.0
KGIC 052355Z AUTO 08008KT 10SM CLR 21/13 A3002 RMK AO1,KGIC,2023-06-05T23:55:00Z,45.95,-116.12,21.0,13.0,80,8,,10.0,30.02067,,,TRUE,TRUE,,,,,,,CLR,,,,,,,,VFR,,,,,,,,,,,,METAR,1002.0
KGHW 052355Z AUTO 11006KT 10SM CLR 26/18 A3005 RMK AO2,KGHW,2023-06-05T23:55:00Z,45.63,-95.32,26.0,18.0,110,6,,10.0,30.050198,,,TRUE,TRUE,,,,,,,CLR,,,,,,,,VFR,,,,,,,,,,,,METAR,423.0
KGGP 052355Z AUTO 06003KT 10SM CLR 25/06 A2999 RMK AO2,KGGP,2023-06-05T23:55:00Z,40.72,-86.37,25.0,6.0,60,3,,10.0,29.991142,,,TRUE,TRUE,,,,,,,CLR,,,,,,,,VFR,,,,,,,,,,,,METAR,224.0
KGGI 052355Z AUTO 09003KT 10SM CLR 29/08 A3004 RMK AO2 T02870083 10297 20267,KGGI,2023-06-05T23:55:00Z,41.72,-92.73,28.7,8.3,90,3,,10.0,30.041338,,,TRUE,TRUE,,,,,,,CLR,,,,,,,,VFR,,29.7,26.7,,,,,,,,,METAR,305.0
KGGF 052355Z AUTO 14003KT 10SM SCT120 24/13 A3010 RMK AO2 LTG DSNT NE,KGGF,2023-06-05T23:55:00Z,40.87,-101.73,24.0,13.0,140,3,,10.0,30.100393,,,TRUE,TRUE,,,,,,,SCT,12000,,,,,,,VFR,,,,,,,,,,,,METAR,1044.0
KGFA 052355Z AUTO 17004KT 10SM SCT140 25/13 A2992 RMK AO2 LTG DSNT SW SLP117 T02450134 10264 20226 58006 $,KGFA,2023-06-05T23:55:00Z,47.5,-111.18,24.5,13.4,170,4,,10.0,29.920275,1011.7,,TRUE,TRUE,TRUE,,,,,,SCT,14000,,,,,,,VFR,-0.6,26.4,22.6,,,,,,,,,METAR,1058.0
KGDJ 052355Z AUTO 32004KT 10SM SCT065 SCT075 22/18 A2992 RMK AO2 T02220175 10297 20222,KGDJ,2023-06-05T23:55:00Z,32.45,-97.82,22.2,17.5,320,4,,10.0,29.920275,,,TRUE,TRUE,,,,,,,SCT,6500,SCT,7500,,,,,VFR,,29.7,22.2,,,,,,,,,METAR,235.0
KGDB 052355Z AUTO 07005KT 10SM SCT120 27/17 A3003 RMK AO2 T02700173 10330 20270,KGDB,2023-06-05T23:55:00Z,44.75,-95.55,27.0,17.3,70,5,,10.0,30.029528,,,TRUE,TRUE,,,,,,,SCT,12000,,,,,,,VFR,,33.0,27.0,,,,,,,,,METAR,316.0
KGCY 052355Z AUTO 20003KT 10SM CLR 23/16 A2992 RMK A01,KGCY,2023-06-05T23:55:00Z,36.2,-82.82,23.0,16.0,200,3,,10.0,29.920275,,,TRUE,TRUE,,,,,,,CLR,,,,,,,,VFR,,,,,,,,,,,,METAR,488.0
KGCM 052355Z AUTO 07004KT 10SM CLR 32/17 A2992 RMK AO2,KGCM,2023-06-05T23:55:00Z,36.3,-95.48,32.0,17.0,70,4,,10.0,29.920275,,,TRUE,TRUE,,,,,,,CLR,,,,,,,,VFR,,,,,,,,,,,,METAR,215.0
KGCD 052355Z AUTO 17009G15KT 10SM SCT055 SCT085 SCT100 23/08 A2999 RMK AO2 T02330081 10282 20225,KGCD,2023-06-05T23:55:00Z,44.4,-118.97,23.3,8.1,170,9,15,10.0,29.991142,,,TRUE,TRUE,,,,,,,SCT,5500,SCT,8500,SCT,10000,,,VFR,,28.2,22.5,,,,,,,,,METAR,1122.0
KGBG 052355Z AUTO 00000KT 10SM CLR 29/09 A3002 RMK AO2 T02930090 10304 20282 TSNO,KGBG,2023-06-05T23:55:00Z,40.93,-90.43,29.3,9.0,0,0,,10.0,30.02067,,,TRUE,TRUE,,,TRUE,,,,CLR,,,,,,,,VFR,,30.4,28.2,,,,,,,,,METAR,230.0
KGAO 052355Z AUTO 00000KT 10SM SCT026 27/22 A2989 RMK AO2 T02710216 10308 20271,KGAO,2023-06-05T23:55:00Z,29.45,-90.27,27.1,21.6,0,0,,10.0,29.890747,,,TRUE,TRUE,,,,,,,SCT,2600,,,,,,,VFR,,30.8,27.1,,,,,,,,,METAR,0.0
KFZG 052355Z AUTO 00000KT 10SM CLR 27/15 A2993 RMK AO2 T02690154 10292 20269,KFZG,2023-06-05T23:55:00Z,31.68,-83.27,26.9,15.4,0,0,,10.0,29.929134,,,TRUE,TRUE,,,,,,,CLR,,,,,,,,VFR,,29.2,26.9,,,,,,,,,METAR,105.0
KFYE 052355Z AUTO 00000KT 10SM CLR 24/18 A2991 RMK A01,KFYE,2023-06-05T23:55:00Z,35.2,-89.38,24.0,18.0,0,0,,10.0,29.911417,,,TRUE,TRUE,,,,,,,CLR,,,,,,,,VFR,,,,,,,,,,,,METAR,133.0
KFXY 052355Z AUTO 00000KT 10SM CLR 30/13 A3002 RMK AO2,KFXY,2023-06-05T23:55:00Z,43.23,-93.62,30.0,13.0,0,0,,10.0,30.02067,,,TRUE,TRUE,,,,,,,CLR,,,,,,,,VFR,,,,,,,,,,,,METAR,366.0
KFWC 052355Z AUTO 36005KT 10SM CLR 24/03 A2994 RMK AO1 T02430026 10295 20243,KFWC,2023-06-05T23:55:00Z,38.38,-88.42,24.3,2.6,360,5,,10.0,29.940945,,,TRUE,TRUE,,,,,,,CLR,,,,,,,,VFR,,29.5,24.3,,,,,,,,,METAR,131.0
KFTN 052355Z AUTO 34005KT 10SM CLR 32/17 A2986 RMK A01,KFTN,2023-06-05T23:55:00Z,28.22,-100.02,32.0,17.0,340,5,,10.0,29.861221,,,TRUE,TRUE,,,,,,,CLR,,,,,,,,VFR,,,,,,,,,,,,METAR,236.0
KFTK 052355Z AUTO 36008KT 10SM CLR 26/15 A2991 RMK AO2 SLP125 T02570151 10295 20257 55001,KFTK,2023-06-05T23:55:00Z,37.9,-85.97,25.7,15.1,360,8,,10.0,29.911417,1012.5,,TRUE,TRUE,,,,,,,CLR,,,,,,,,VFR,-0.1,29.5,25.7,,,,,,,,,METAR,225.0
KFSW 052355Z AUTO 00000KT 10SM 27/09 A3001 RMK AO2,KFSW,2023-06-05T23:55:00Z,40.67,-91.32,27.0,9.0,0,0,,10.0,30.008858,,,TRUE,TRUE,,,,,,,,,,,,,,,,,,,,,,,,,,,METAR,219.0
KFSI 052355Z AUTO 05003KT 10SM FEW160 25/17 A2992 RMK AO2 SLP125 T02510168 10302 20251 53000 FZRANO $,KFSI,2023-06-05T23:55:00Z,34.65,-98.4,25.1,16.8,50,3,,10.0,29.920275,1012.5,,TRUE,TRUE,TRUE,,,TRUE,,,FEW,16000,,,,,,,VFR,0.0,30.2,25.1,,,,,,,,,METAR,360.0
KFSE 052355Z AUTO 12004KT 10SM SCT080 27/18 A3006 RMK AO2,KFSE,2023-06-05T23:55:00Z,47.58,-95.77,27.0,18.0,120,4,,10.0,30.059055,,,TRUE,TRUE,,,,,,,SCT,8000,,,,,,,VFR,,,,,,,,,,,,METAR,389.0
KFPY 052355Z AUTO 03004KT 10SM SCT060 28/17 A2991 RMK AO2 T02780166 10313 20278,KFPY,2023-06-05T23:55:00Z,30.07,-83.57,27.8,16.6,30,4,,10.0,29.911417,,,TRUE,TRUE,,,,,,,SCT,6000,,,,,,,VFR,,31.3,27.8,,,,,,,,,METAR,12.0
KFPK 052355Z AUTO 27004KT 10SM CLR 26/08 A2996 RMK AO2 T02610078 10280 20256,KFPK,2023-06-05T23:55:00Z,42.57,-84.82,26.1,7.8,270,4,,10.0,29.958662,,,TRUE,TRUE,,,,,,,CLR,,,,,,,,VFR,,28.0,25.6,,,,,,,,,METAR,269.0
KFOT 052355Z AUTO 31010KT 6SM FEW110 13/10 A2981 RMK AO1,KFOT,2023-06-05T23:55:00Z,40.55,-124.13,13.0,10.0,310,10,,6.0,29.811024,,,TRUE,TRUE,,,,,,,FEW,11000,,,,,,,VFR,,,,,,,,,,,,METAR,118.0
KFOA 052355Z AUTO 03004KT 7SM CLR 25/03 A2996 RMK AO2,KFOA,2023-06-05T23:55:00Z,38.67,-88.45,25.0,3.0,30,4,,7.0,29.958662,,,TRUE,TRUE,,,,,,,CLR,,,,,,,,VFR,,,,,,,,,,,,METAR,141.0
KFMM 052355Z AUTO 10SM CLR 22/14 A3013 RMK AO2,KFMM,2023-06-05T23:55:00Z,40.33,-103.8,22.0,14.0,,,,10.0,30.129921,,,TRUE,TRUE,,,,,,,CLR,,,,,,,,VFR,,,,,,,,,,,,METAR,1376.0
KFLY 052355Z AUTO 15005G15KT 10SM 15/09 A3027 RMK AO2 LTG DSNT S T01530093 10171 20126,KFLY,2023-06-05T23:55:00Z,38.95,-104.57,15.3,9.3,150,5,15,10.0,30.268702,,,TRUE,TRUE,,,,,,,,,,,,,,,,,17.1,12.6,,,,,,,,,METAR,2096.0
KFKS 052355Z AUTO 36004KT 7SM CLR 21/15 A3002 RMK AO2 T02110151 10245 20211,KFKS,2023-06-05T23:55:00Z,44.63,-86.2,21.1,15.1,360,4,,7.0,30.02067,,,TRUE,TRUE,,,,,,,CLR,,,,,,,,VFR,,24.5,21.1,,,,,,,,,METAR,189.0
KFKR 052355Z AUTO 03007KT 5SM HZ CLR 25/03 A2998 RMK AO2,KFKR,2023-06-05T23:55:00Z,40.27,-86.57,25.0,3.0,30,7,,5.0,29.97933,,,TRUE,TRUE,,,,,,HZ,CLR,,,,,,,,MVFR,,,,,,,,,,,,METAR,260.0
KFKA 052355Z AUTO 05003KT 8SM SCT120 28/16 A3003 RMK AO2,KFKA,2023-06-05T23:55:00Z,43.68,-92.17,28.0,16.0,50,3,,8.0,30.029528,,,TRUE,TRUE,,,,,,,SCT,12000,,,,,,,VFR,,,,,,,,,,,,METAR,388.0
KFHU 052355Z AUTO 22014G19KT 10SM CLR 32/M08 A2996 RMK AO2 SLP078 T03231079 10333 20296 57009,KFHU,2023-06-05T23:55:00Z,31.58,-110.35,32.3,-7.9,220,14,19,10.0,29.958662,1007.8,,TRUE,TRUE,,,,,,,CLR,,,,,,,,VFR,-0.9,33.3,29.6,,,,,,,,,METAR,1424.0
KFHB 052355Z AUTO 09006KT 10SM CLR 22/21 A2994 RMK AO2,KFHB,2023-06-05T23:55:00Z,30.62,-81.47,22.0,21.0,90,6,,10.0,29.940945,,,TRUE,TRUE,,,,,,,CLR,,,,,,,,VFR,,,,,,,,,,,,METAR,4.0
KFGN 052355Z AUTO 12007KT 10SM CLR 26/17 A3006 RMK AO2,KFGN,2023-06-05T23:55:00Z,49.32,-94.9,26.0,17.0,120,7,,10.0,30.059055,,,TRUE,TRUE,,,,,,,CLR,,,,,,,,VFR,,,,,,,,,,,,METAR,327.0
KFFX 052355Z AUTO 33010KT 10SM CLR 25/13 A2998 RMK AO2 T02530133 10291 20253,KFFX,2023-06-05T23:55:00Z,43.43,-86.0,25.3,13.3,330,10,,10.0,29.97933,,,TRUE,TRUE,,,,,,,CLR,,,,,,,,VFR,,29.1,25.3,,,,,,,,,METAR,234.0
KFFO 052355Z 03003KT 6SM HZ CLR 23/06 A2994 RMK AO2A SLP139 T02260055 10262 20226 55003,KFFO,2023-06-05T23:55:00Z,39.83,-84.03,22.6,5.5,30,3,,6.0,29.940945,1013.9,,,TRUE,,,,,,HZ,CLR,,,,,,,,VFR,-0.3,26.2,22.6,,,,,,,,,METAR,250.0
KFFM 052355Z AUTO 25007KT 10SM CLR 28/17 A3003 RMK AO2,KFFM,2023-06-05T23:55:00Z,46.28,-96.15,28.0,17.0,250,7,,10.0,30.029528,,,TRUE,TRUE,,,,,,,CLR,,,,,,,,VFR,,,,,,,,,,,,METAR,362.0
KFFL 052355Z AUTO 08004KT 10SM CLR 27/06 A3001 RMK A01,KFFL,2023-06-05T23:55:00Z,41.05,-91.97,27.0,6.0,80,4,,10.0,30.008858,,,TRUE,TRUE,,,,,,,CLR,,,,,,,,VFR,,,,,,,,,,,,METAR,240.0
KFET 052355Z AUTO 00000KT 10SM CLR 30/15 A3001 RMK AO2 LTG DSNT N T02960151 10314 20290,KFET,2023-06-05T23:55:00Z,41.45,-96.52,29.6,15.1,0,0,,10.0,30.008858,,,TRUE,TRUE,,,,,,,CLR,,,,,,,,VFR,,31.4,29.0,,,,,,,,,METAR,366.0
KFEP 052355Z AUTO 00000KT 10SM CLR 28/11 A3003 RMK AO2 T02800110 10292 20268,KFEP,2023-06-05T23:55:00Z,42.25,-89.58,28.0,11.0,0,0,,10.0,30.029528,,,TRUE,TRUE,,,,,,,CLR,,,,,,,,VFR,,29.2,26.8,,,,,,,,,METAR,255.0
KFBR 052355Z AUTO 06009KT 10SM CLR 15/09 A3021 RMK AO2 T01490090 10217 20118,KFBR,2023-06-05T23:55:00Z,41.4,-110.4,14.9,9.0,60,9,,10.0,30.209646,,,TRUE,TRUE,,,,,,,CLR,,,,,,,,VFR,,21.7,11.8,,,,,,,,,METAR,2140.0
KFBL 052355Z AUTO 12007KT 10SM CLR 28/16 A3004 RMK AO2,KFBL,2023-06-05T23:55:00Z,44.33,-93.32,28.0,16.0,120,7,,10.0,30.041338,,,TRUE,TRUE,,,,,,,CLR,,,,,,,,VFR,,,,,,,,,,,,METAR,318.0
KFBG 052355Z AUTO 25007KT 10SM CLR 24/15 A2988 RMK AO2 SLP120 60000 T02390146 10273 20239 53001 $,KFBG,2023-06-05T23:55:00Z,35.12,-78.92,23.9,14.6,250,7,,10.0,29.878937,1012.0,,TRUE,TRUE,TRUE,,,,,,CLR,,,,,,,,VFR,0.1,27.3,23.9,,,,,0.005,,,,METAR,69.0
KFAF 052355Z 14003KT 10SM CLR 21/13 A2986 RMK AO2A SLP115 T02140130 10253 20214 53002 $,KFAF,2023-06-05T23:55:00Z,37.13,-76.62,21.4,13.0,140,3,,10.0,29.861221,1011.5,,,TRUE,TRUE,,,,,,CLR,,,,,,,,VFR,0.2,25.3,21.4,,,,,,,,,METAR,3.0
KF46 052355Z AUTO 05007KT 10SM CLR 29/18 A2990 RMK AO2 LTG DSNT SE T02880183 10293 20255,KF46,2023-06-05T23:55:00Z,32.93,-96.43,28.8,18.3,50,7,,10.0,29.899607,,,TRUE,TRUE,,,,,,,CLR,,,,,,,,VFR,,29.3,25.5,,,,,,,,,METAR,175.0
KF44 052355Z AUTO 07004KT 10SM CLR 28/20 A2986 RMK AO2 LTG DSNT SE AND S,KF44,2023-06-05T23:55:00Z,32.17,-95.83,28.0,20.0,70,4,,10.0,29.861221,,,TRUE,TRUE,,,,,,,CLR,,,,,,,,VFR,,,,,,,,,,,,METAR,137.0
KF17 052355Z AUTO 00000KT 10SM CLR 30/18 A2987 RMK AO2,KF17,2023-06-05T23:55:00Z,31.83,-94.15,30.0,18.0,0,0,,10.0,29.870079,,,TRUE,TRUE,,,,,,,CLR,,,,,,,,VFR,,,,,,,,,,,,METAR,93.0
KF05 052355Z AUTO 02010KT 10SM CLR 27/17 A2996 RMK AO2 LTG DSNT NE AND SW T02680165 10307 20240,KF05,2023-06-05T23:55:00Z,34.23,-99.28,26.8,16.5,20,10,,10.0,29.958662,,,TRUE,TRUE,,,,,,,CLR,,,,,,,,VFR,,30.7,24.0,,,,,,,,,METAR,384.0
KF00 052355Z AUTO 00000KT 10SM CLR 28/20 A2991 RMK AO2 T02770203 10296 20261,KF00,2023-06-05T23:55:00Z,33.62,-96.18,27.7,20.3,0,0,,10.0,29.911417,,,TRUE,TRUE,,,,,,,CLR,,,,,,,,VFR,,29.6,26.1,,,,,,,,,METAR,189.0
KEZZ 052355Z AUTO 08007KT 10SM CLR A3001 RMK AO2 LTG DSNT SW 402120189,KEZZ,2023-06-05T23:55:00Z,39.72,-94.28,,,80,7,,10.0,30.008858,,,TRUE,TRUE,,,,,,,CLR,,,,,,,,VFR,,,,21.2,18.9,,,,,,,METAR,317.0
KEZP 052355Z AUTO 26005KT 10SM FEW024 26/20 A2987 RMK A01,KEZP,2023-06-05T23:55:00Z,28.22,-92.8,26.0,20.0,260,5,,10.0,29.870079,,,TRUE,TRUE,,,,,,,FEW,2400,,,,,,,VFR,,,,,,,,,,,,METAR,30.0
KETN 052355Z AUTO 01011G14KT 10SM CLR 24/16 A2995 RMK AO2 T02400164 10263 20214 402630158,KETN,2023-06-05T23:55:00Z,32.42,-98.82,24.0,16.4,10,11,14,10.0,29.949802,,,TRUE,TRUE,,,,,,,CLR,,,,,,,,VFR,,26.3,21.4,26.3,15.8,,,,,,,METAR,445.0
KERY 052355Z AUTO 34006KT 10SM CLR 19/12 A3006 RMK AO2 T01860123 10258 20186,KERY,2023-06-05T23:55:00Z,46.3,-85.45,18.6,12.3,340,6,,10.0,30.059055,,,TRUE,TRUE,,,,,,,CLR,,,,,,,,VFR,,25.8,18.6,,,,,,,,,METAR,261.0
KERV 052355Z AUTO 03007KT 360V070 10SM OVC070 26/16 A2993 RMK AO2 LTG DSNT NW T02580160 10293 20255,KERV,2023-06-05T23:55:00Z,29.98,-99.08,25.8,16.0,30,7,,10.0,29.929134,,,TRUE,TRUE,,,,,,,OVC,7000,,,,,,,VFR,,29.3,25.5,,,,,,,,,METAR,483.0
KEOK 052355Z AUTO 01003KT 10SM CLR 26/11 A3001 RMK A01,KEOK,2023-06-05T23:55:00Z,40.47,-91.42,26.0,11.0,10,3,,10.0,30.008858,,,TRUE,TRUE,,,,,,,CLR,,,,,,,,VFR,,,,,,,,,,,,METAR,206.0
KEND 052355Z 35007KT 10SM BKN070 BKN095 23/16 A2996 RMK AO2A DZE2255 SLP138 P0000 60000 T02280163 10316 20227 53009 $,KEND,2023-06-05T23:55:00Z,36.33,-97.92,22.8,16.3,350,7,,10.0,29.958662,1013.8,,,TRUE,TRUE,,,,,,BKN,7000,BKN,9500,,,,,VFR,0.9,31.6,22.7,,,0.005,,0.005,,,,METAR,392.0
KEMM 052355Z AUTO 10SM SCT060 12/06 A3021 RMK AO2 TSNO,KEMM,2023-06-05T23:55:00Z,41.82,-110.55,12.0,6.0,,,,10.0,30.209646,,,TRUE,TRUE,,,TRUE,,,,SCT,6000,,,,,,,VFR,,,,,,,,,,,,METAR,2219.0
KELO 052355Z AUTO 15007KT 7SM CLR 22/13 A3013 RMK AO2,KELO,2023-06-05T23:55:00Z,47.82,-91.83,22.0,13.0,150,7,,7.0,30.129921,,,TRUE,TRUE,,,,,,,CLR,,,,,,,,VFR,,,,,,,,,,,,METAR,438.0
KEKS 052355Z AUTO 21014KT 10SM SCT090 24/05 A3005 RMK AO2,KEKS,2023-06-05T23:55:00Z,45.27,-111.65,24.0,5.0,210,14,,10.0,30.050198,,,TRUE,TRUE,,,,,,,SCT,9000,,,,,,,VFR,,,,,,,,,,,,METAR,1636.0
KEKE 052355Z AUTO 11004KT 10SM CLR 25/19 A2981 RMK A01,KEKE,2023-06-05T23:55:00Z,28.5,-91.58,25.0,19.0,110,4,,10.0,29.811024,,,TRUE,TRUE,,,,,,,CLR,,,,,,,,VFR,,,,,,,,,,,,METAR,31.0
KEIK 052355Z AUTO 24004KT 10SM -RA BKN075 OVC090 15/12 A3015 RMK AO2 LTG DSNT NW T01450123 10223 20143,KEIK,2023-06-05T23:55:00Z,40.02,-105.05,14.5,12.3,240,4,,10.0,30.15059,,,TRUE,TRUE,,,,,,-RA,BKN,7500,OVC,9000,,,,,VFR,,22.3,14.3,,,,,,,,,METAR,1551.0
KEGT 052355Z AUTO 01004KT 10SM CLR 24/17 A3000 RMK AO2 T02440170 10314 20203 403140167,KEGT,2023-06-05T23:55:00Z,37.32,-97.38,24.4,17.0,10,4,,10.0,30.0,,,TRUE,TRUE,,,,,,,CLR,,,,,,,,VFR,,31.4,20.3,31.4,16.7,,,,,,,METAR,387.0
KEGI 052355Z AUTO 19010KT 10SM CLR 26/19 A2991 RMK AO2 SLP128 T02570188 10306 20257 53001 $,KEGI,2023-06-05T23:55:00Z,30.65,-86.52,25.7,18.8,190,10,,10.0,29.911417,1012.8,,TRUE,TRUE,TRUE,,,,,,CLR,,,,,,,,VFR,0.1,30.6,25.7,,,,,,,,,METAR,59.0
KEFK 052355Z AUTO 33006KT 10SM CLR 17/07 A2981 RMK AO2 T01700071 10206 20170,KEFK,2023-06-05T23:55:00Z,44.88,-72.23,17.0,7.1,330,6,,10.0,29.811024,,,TRUE,TRUE,,,,,,,CLR,,,,,,,,VFR,,20.6,17.0,,,,,,,,,METAR,282.0
KEDW 052355Z 25028G36KT 35SM FEW040 BKN150 BKN200 19/08 A2974 RMK AO2A PK WND 25038/49 SLP057 T01910078 10319 20191 50005,KEDW,2023-06-05T23:55:00Z,34.9,-117.87,19.1,7.8,250,28,36,35.0,29.740158,1005.7,,,TRUE,,,,,,,FEW,4000,BKN,15000,BKN,20000,,,VFR,0.5,31.9,19.1,,,,,,,,,METAR,698.0
KEDU 052355Z AUTO 18010KT 10SM CLR 25/13 A2969 RMK AO1,KEDU,2023-06-05T23:55:00Z,38.53,-121.78,25.0,13.0,180,10,,10.0,29.68996,,,TRUE,TRUE,,,,,,,CLR,,,,,,,,VFR,,,,,,,,,,,,METAR,20.0
KEDN 052355Z AUTO 00000KT 10SM CLR 26/17 A2991 RMK AO2 T02600171 10294 20260 PWINO,KEDN,2023-06-05T23:55:00Z,31.3,-85.9,26.0,17.1,0,0,,10.0,29.911417,,,TRUE,TRUE,,,,,TRUE,,CLR,,,,,,,,VFR,,29.4,26.0,,,,,,,,,METAR,103.0
KEDJ 052355Z AUTO 00000KT 6SM HZ CLR 22/04 A3000 RMK A01,KEDJ,2023-06-05T23:55:00Z,40.37,-83.82,22.0,4.0,0,0,,6.0,30.0,,,TRUE,TRUE,,,,,,HZ,CLR,,,,,,,,VFR,,,,,,,,,,,,METAR,341.0
KECU 052355Z AUTO 00000KT 10SM SCT095 26/15 A3000 RMK AO2,KECU,2023-06-05T23:55:00Z,29.95,-100.17,26.0,15.0,0,0,,10.0,30.0,,,TRUE,TRUE,,,,,,,SCT,9500,,,,,,,VFR,,,,,,,,,,,,METAR,725.0
KECS 052355Z AUTO 16015G20KT 10SM CLR 24/06 A3009 RMK AO2,KECS,2023-06-05T23:55:00Z,43.88,-104.32,24.0,6.0,160,15,20,10.0,30.088583,,,TRUE,TRUE,,,,,,,CLR,,,,,,,,VFR,,,,,,,,,,,,METAR,1273.0
KEBS 052355Z AUTO 16011KT 8SM CLR 29/12 A3000 RMK AO2,KEBS,2023-06-05T23:55:00Z,42.43,-93.87,29.0,12.0,160,11,,8.0,30.0,,,TRUE,TRUE,,,,,,,CLR,,,,,,,,VFR,,,,,,,,,,,,METAR,340.0
KEBG 052355Z AUTO 15005KT 10SM SCT018 27/23 A2985 RMK AO2 60027 T02670225 10337 20220,KEBG,2023-06-05T23:55:00Z,26.45,-98.13,26.7,22.5,150,5,,10.0,29.84941,,,TRUE,TRUE,,,,,,,SCT,1800,,,,,,,VFR,,33.7,22.0,,,,,0.27,,,,METAR,21.0
KEBA 052355Z AUTO 13004KT 10SM CLR 24/19 A2992 RMK AO2 T02420192 10259 20227 402590146,KEBA,2023-06-05T23:55:00Z,34.1,-82.82,24.2,19.2,130,4,,10.0,29.920275,,,TRUE,TRUE,,,,,,,CLR,,,,,,,,VFR,,25.9,22.7,25.9,14.6,,,,,,,METAR,180.0
KEAT 052355Z AUTO 25007KT 220V290 10SM CLR 31/00 A2989 RMK AO2 SLP113 T03060000 10306 20239 56018,KEAT,2023-06-05T23:55:00Z,47.4,-120.2,30.6,0.0,250,7,,10.0,29.890747,1011.3,,TRUE,TRUE,,,,,,,CLR,,,,,,,,VFR,-1.8,30.6,23.9,,,,,,,,,METAR,375.0
KE77 052355Z AUTO 24010G16KT 10SM 36/M09 A2988 RMK AO2,KE77,2023-06-05T23:55:00Z,,,36.0,-9.0,240,10,16,10.0,29.878937,,,TRUE,TRUE,,,,,,,,,,,,,,,,,,,,,,,,,,,METAR,
KE41 052355Z AUTO 05012G16KT 10SM SCT070 28/13 A2999 RMK AO2 T02760131 10283 20241 402830147,KE41,2023-06-05T23:55:00Z,31.2,-101.47,27.6,13.1,50,12,16,10.0,29.991142,,,TRUE,TRUE,,,,,,,SCT,7000,,,,,,,VFR,,28.3,24.1,28.3,14.7,,,,,,,METAR,825.0
KE38 052355Z AUTO 06009G16KT 10SM CLR 27/09 A3011 RMK AO2 T02670089 10281 20231,KE38,2023-06-05T23:55:00Z,30.38,-103.68,26.7,8.9,60,9,16,10.0,30.109253,,,TRUE,TRUE,,,,,,,CLR,,,,,,,,VFR,,28.1,23.1,,,,,,,,,METAR,1372.0
KE16 052355Z AUTO 19012KT 10SM CLR 18/10 A2987 RMK AO2 PWINO PNO,KE16,2023-06-05T23:55:00Z,37.08,-121.6,18.0,10.0,190,12,,10.0,29.870079,,,TRUE,TRUE,,,,,TRUE,,CLR,,,,,,,,VFR,,,,,,,,,,,,METAR,84.0
KE11 052355Z AUTO 05009KT 10SM SCT050 25/13 A3004 RMK AO2 T02460128 10261 20216,KE11,2023-06-05T23:55:00Z,32.33,-102.53,24.6,12.8,50,9,,10.0,30.041338,,,TRUE,TRUE,,,,,,,SCT,5000,,,,,,,VFR,,26.1,21.6,,,,,,,,,METAR,966.0
KDZJ 052355Z AUTO 00000KT 10SM SCT050 SCT060 BKN075 24/17 A2997 RMK AO2 T02390174 10275 20228 402750142,KDZJ,2023-06-05T23:55:00Z,34.85,-84.0,23.9,17.4,0,0,,10.0,29.970472,,,TRUE,TRUE,,,,,,,SCT,5000,SCT,6000,BKN,7500,,,VFR,,27.5,22.8,27.5,14.2,,,,,,,METAR,578.0
KDZB 052355Z AUTO 00000KT 10SM CLR 23/20 A2992 RMK AO2 LTG DSNT N AND E 60003 T02260198 10308 20220,KDZB,2023-06-05T23:55:00Z,30.53,-98.37,22.6,19.8,0,0,,10.0,29.920275,,,TRUE,TRUE,,,,,,,CLR,,,,,,,,VFR,,30.8,22.0,,,,,0.03,,,,METAR,329.0
KDYT 052355Z AUTO VRB05G12KT 3SM BR CLR 12/10 A3013 RMK AO2,KDYT,2023-06-05T23:55:00Z,46.72,-92.03,12.0,10.0,0,5,12,3.0,30.129921,,,TRUE,TRUE,,,,,,BR,CLR,,,,,,,,MVFR,,,,,,,,,,,,METAR,185.0
KDYS 052355Z AUTO 07004KT 10SM FEW160 SCT200 22/17 A2996 RMK AO2 RAE2258DZB2258E02 SLP114 P0000 60006 T02200167 10257 20193 57015,KDYS,2023-06-05T23:55:00Z,32.42,-99.83,22.0,16.7,70,4,,10.0,29.958662,1011.4,,TRUE,TRUE,,,,,,,FEW,16000,SCT,20000,,,,,VFR,-1.5,25.7,19.3,,,0.005,,0.06,,,,METAR,544.0
KDXX 052355Z AUTO 10010KT 10SM CLR 31/14 A3001 RMK AO2,KDXX,2023-06-05T23:55:00Z,44.98,-96.18,31.0,14.0,100,10,,10.0,30.008858,,,TRUE,TRUE,,,,,,,CLR,,,,,,,,VFR,,,,,,,,,,,,METAR,327.0
KDWX 052355Z AUTO 31019G25KT 10SM VCTS CLR 22/06 A3015 RMK AO2 LTG DSNT N T02230055 10257 21051,KDWX,2023-06-05T23:55:00Z,41.03,-107.5,22.3,5.5,310,19,25,10.0,30.15059,,,TRUE,TRUE,,,,,,VCTS,CLR,,,,,,,,VFR,,25.7,-5.1,,,,,,,,,METAR,1974.0
KDWA 052355Z AUTO 15007KT 10SM CLR 28/15 A2970 RMK AO2,KDWA,2023-06-05T23:55:00Z,38.58,-121.85,28.0,15.0,150,7,,10.0,29.698818,,,TRUE,TRUE,,,,,,,CLR,,,,,,,,VFR,,,,,,,,,,,,METAR,28.0
KDVO 052355Z AUTO 22010KT 10SM CLR 21/12 A2977 RMK AO2,KDVO,2023-06-05T23:55:00Z,38.15,-122.55,21.0,12.0,220,10,,10.0,29.769686,,,TRUE,TRUE,,,,,,,CLR,,,,,,,,VFR,,,,,,,,,,,,METAR,1.0
KDUX 052355Z AUTO 35005G10KT 10SM CLR 19/12 A3012 RMK AO2 T01860123 10226 20175,KDUX,2023-06-05T23:55:00Z,35.85,-102.02,18.6,12.3,350,5,10,10.0,30.121063,,,TRUE,TRUE,,,,,,,CLR,,,,,,,,VFR,,22.6,17.5,,,,,,,,,METAR,1129.0
KDUH 052355Z AUTO 11003KT 10SM BKN070 OVC080 24/07 A2997 RMK AO2 T02390068 10259 20237,KDUH,2023-06-05T23:55:00Z,41.73,-83.65,23.9,6.8,110,3,,10.0,29.970472,,,TRUE,TRUE,,,,,,,BKN,7000,OVC,8000,,,,,VFR,,25.9,23.7,,,,,,,,,METAR,203.0
KDUC 052355Z AUTO 16005KT 10SM CLR 28/16 A2996 RMK AO2 T02770162 10307 20275 403070181,KDUC,2023-06-05T23:55:00Z,34.47,-97.97,27.7,16.2,160,5,,10.0,29.958662,,,TRUE,TRUE,,,,,,,CLR,,,,,,,,VFR,,30.7,27.5,30.7,18.1,,,,,,,METAR,339.0
KDUA 052355Z AUTO 35006KT 10SM CLR 28/16 A2993 RMK AO2,KDUA,2023-06-05T23:55:00Z,33.95,-96.4,28.0,16.0,350,6,,10.0,29.929134,,,TRUE,TRUE,,,,,,,CLR,,,,,,,,VFR,,,,,,,,,,,,METAR,209.0
KDTL 052355Z AUTO 12005KT 10SM BKN085 26/17 A3005 RMK AO2,KDTL,2023-06-05T23:55:00Z,46.82,-95.88,26.0,17.0,120,5,,10.0,30.050198,,,TRUE,TRUE,,,,,,,BKN,8500,,,,,,,VFR,,,,,,,,,,,,METAR,425.0
KDTA 052355Z AUTO 20026G31KT 10SM SCT110 25/00 A2995 RMK AO1,KDTA,2023-06-05T23:55:00Z,39.38,-112.5,25.0,0.0,200,26,31,10.0,29.949802,,,TRUE,TRUE,,,,,,,SCT,11000,,,,,,,VFR,,,,,,,,,,,,METAR,1452.0
KDRM 052355Z AUTO 01004KT 10SM CLR 24/13 A2998 RMK AO2 T02400131 10274 20239,KDRM,2023-06-05T23:55:00Z,46.0,-83.75,24.0,13.1,10,4,,10.0,29.97933,,,TRUE,TRUE,,,,,,,CLR,,,,,,,,VFR,,27.4,23.9,,,,,,,,,METAR,201.0
KDQH 052355Z AUTO 00000KT 10SM CLR 26/18 A2993 RMK AO2 T02600175,KDQH,2023-06-05T23:55:00Z,31.48,-82.87,26.0,17.5,0,0,,10.0,29.929134,,,TRUE,TRUE,,,,,,,CLR,,,,,,,,VFR,,,,,,,,,,,,METAR,76.0
KDOV 052355Z AUTO 28006KT 10SM FEW090 23/05 A2981 RMK AO2 SLP098 T02270051 10251 20227 56003,KDOV,2023-06-05T23:55:00Z,39.12,-75.47,22.7,5.1,280,6,,10.0,29.811024,1009.8,,TRUE,TRUE,,,,,,,FEW,9000,,,,,,,VFR,-0.3,25.1,22.7,,,,,,,,,METAR,6.0
KDNV 052355Z AUTO 10004KT 7SM CLR 27/05 A2999 RMK AO2 T02670054 10281 20256,KDNV,2023-06-05T23:55:00Z,40.2,-87.6,26.7,5.4,100,4,,7.0,29.991142,,,TRUE,TRUE,,,,,,,CLR,,,,,,,,VFR,,28.1,25.6,,,,,,,,,METAR,208.0
KDNS 052355Z AUTO 12005KT 10SM CLR 30/12 A3002 RMK AO2,KDNS,2023-06-05T23:55:00Z,41.98,-95.37,30.0,12.0,120,5,,10.0,30.02067,,,TRUE,TRUE,,,,,,,CLR,,,,,,,,VFR,,,,,,,,,,,,METAR,382.0
KDMA 052355Z 21012G19KT 10SM CLR 36/M09 A2977 RMK AO2A SLP034 T03621095 10372 20325 57014 $,KDMA,2023-06-05T23:55:00Z,32.17,-110.88,36.2,-9.5,210,12,19,10.0,29.769686,1003.4,,,TRUE,TRUE,,,,,,CLR,,,,,,,,VFR,-1.4,37.2,32.5,,,,,,,,,METAR,804.0
KDLZ 052355Z AUTO 03004KT 10SM CLR 21/04 A2999 RMK AO2,KDLZ,2023-06-05T23:55:00Z,40.28,-83.12,21.0,4.0,30,4,,10.0,29.991142,,,TRUE,TRUE,,,,,,,CLR,,,,,,,,VFR,,,,,,,,,,,,METAR,287.0
KDLP 052355Z AUTO VRB06KT 10SM FEW022 26/20 A2980 RMK A01,KDLP,2023-06-05T23:55:00Z,29.12,-89.55,26.0,20.0,0,6,,10.0,29.799213,,,TRUE,TRUE,,,,,,,FEW,2200,,,,,,,VFR,,,,,,,,,,,,METAR,31.0
KDLH 052355Z 08012G21KT 5SM HZ CLR 18/12 A3013 RMK AO2 SLP202 T01780117 10206 20178 58006,KDLH,2023-06-05T23:55:00Z,46.85,-92.2,17.8,11.7,80,12,21,5.0,30.129921,1020.2,,,TRUE,,,,,,HZ,CLR,,,,,,,,MVFR,-0.6,20.6,17.8,,,,,,,,,METAR,434.0
KDLF 052355Z AUTO 36003KT 10SM CLR 32/14 A2983 RMK AO2 SLP090 T03240136 10326 20292 57016 $,KDLF,2023-06-05T23:55:00Z,29.37,-100.78,32.4,13.6,360,3,,10.0,29.828741,1009.0,,TRUE,TRUE,TRUE,,,,,,CLR,,,,,,,,VFR,-1.6,32.6,29.2,,,,,,,,,METAR,328.0
KDKX 052355Z AUTO 00000KT 10SM SCT070 SCT080 BKN090 25/23 A2989 RMK A01,KDKX,2023-06-05T23:55:00Z,35.97,-83.87,25.0,23.0,0,0,,10.0,29.890747,,,TRUE,TRUE,,,,,,,SCT,7000,SCT,8000,BKN,9000,,,VFR,,,,,,,,,,,,METAR,253.0
KDKR 052355Z AUTO 00000KT 10SM VCTS SCT049 SCT055 BKN065 22/20 A2989 RMK AO2 LTG DSNT SE-SW,KDKR,2023-06-05T23:55:00Z,31.3,-95.4,22.0,20.0,0,0,,10.0,29.890747,,,TRUE,TRUE,,,,,,VCTS,SCT,4900,SCT,5500,BKN,6500,,,VFR,,,,,,,,,,,,METAR,105.0
KDKB 052355Z AUTO 03005KT 10SM CLR 28/10 A3001 RMK AO2 T02800096 10296 20268,KDKB,2023-06-05T23:55:00Z,41.93,-88.7,28.0,9.6,30,5,,10.0,30.008858,,,TRUE,TRUE,,,,,,,CLR,,,,,,,,VFR,,29.6,26.8,,,,,,,,,METAR,277.0
KDEH 052355Z AUTO 00000KT 7SM CLR 28/12 A3001 RMK AO2,KDEH,2023-06-05T23:55:00Z,43.27,-91.73,28.0,12.0,0,0,,7.0,30.008858,,,TRUE,TRUE,,,,,,,CLR,,,,,,,,VFR,,,,,,,,,,,,METAR,348.0
KDCY 052355Z AUTO 05006KT 10SM CLR 26/08 A2995 RMK AO2 T02550079 10292 20255,KDCY,2023-06-05T23:55:00Z,38.7,-87.13,25.5,7.9,50,6,,10.0,29.949802,,,TRUE,TRUE,,,,,,,CLR,,,,,,,,VFR,,29.2,25.5,,,,,,,,,METAR,143.0
KDAA 052355Z AUTO 27005KT 10SM CLR 23/08 A2985 RMK AO2 SLP111 T02340083 10263 20234 56002 $,KDAA,2023-06-05T23:55:00Z,38.72,-77.17,23.4,8.3,270,5,,10.0,29.84941,1011.1,,TRUE,TRUE,TRUE,,,,,,CLR,,,,,,,,VFR,-0.2,26.3,23.4,,,,,,,,,METAR,17.0
KD95 052355Z AUTO 35003KT 10SM SCT060 SCT090 25/10 A2997 RMK AO2 T02490101 10270 20233,KD95,2023-06-05T23:55:00Z,43.07,-83.27,24.9,10.1,350,3,,10.0,29.970472,,,TRUE,TRUE,,,,,,,SCT,6000,SCT,9000,,,,,VFR,,27.0,23.3,,,,,,,,,METAR,253.0
KD73 052355Z AUTO 31004KT 10SM CLR 25/19 A2993 RMK AO2 T02510188 10271 20237 402710152,KD73,2023-06-05T23:55:00Z,33.78,-83.7,25.1,18.8,310,4,,10.0,29.929134,,,TRUE,TRUE,,,,,,,CLR,,,,,,,,VFR,,27.1,23.7,27.1,15.2,,,,,,,METAR,254.0
KD39 052355Z AUTO 10004KT 10SM CLR 26/17 A3004 RMK AO2 T02600172 10286 20222,KD39,2023-06-05T23:55:00Z,45.7,-94.93,26.0,17.2,100,4,,10.0,30.041338,,,TRUE,TRUE,,,,,,,CLR,,,,,,,,VFR,,28.6,22.2,,,,,,,,,METAR,378.0
KCZT 052355Z AUTO 10SM CLR 32/17 A2983 RMK AO2,KCZT,2023-06-05T23:55:00Z,28.52,-99.82,32.0,17.0,,,,10.0,29.828741,,,TRUE,TRUE,,,,,,,CLR,,,,,,,,VFR,,,,,,,,,,,,METAR,176.0
KCZL 052355Z AUTO 23003KT 10SM CLR 28/18 A2991 RMK AO2,KCZL,2023-06-05T23:55:00Z,34.47,-84.93,28.0,18.0,230,3,,10.0,29.911417,,,TRUE,TRUE,,,,,,,CLR,,,,,,,,VFR,,,,,,,,,,,,METAR,197.0
KCYD 052355Z AUTO 06007KT 10SM CLR 25/21 A2990 RMK A02 LTG DSNT E AND W T02540207 10264 20230 402750230 60006,KCYD,2023-06-05T23:55:00Z,28.17,-89.22,25.4,20.7,60,7,,10.0,29.899607,,,TRUE,TRUE,,,,,,,CLR,,,,,,,,VFR,,26.4,23.0,27.5,23.0,,,0.06,,,,METAR,30.0
KCXU 052355Z AUTO 00000KT 10SM CLR 27/17 A2992 RMK AO1 T02650167 10298 20265,KCXU,2023-06-05T23:55:00Z,31.22,-84.23,26.5,16.7,0,0,,10.0,29.920275,,,TRUE,TRUE,,,,,,,CLR,,,,,,,,VFR,,29.8,26.5,,,,,,,,,METAR,48.0
KCXP 052355Z AUTO 19011G17KT 10SM FEW065 SCT075 BKN095 21/02 A2997 RMK AO2,KCXP,2023-06-05T23:55:00Z,39.18,-119.73,21.0,2.0,190,11,17,10.0,29.970472,,,TRUE,TRUE,,,,,,,FEW,6500,SCT,7500,BKN,9500,,,VFR,,,,,,,,,,,,METAR,1431.0
KCWV 052355Z AUTO 00000KT 7SM CLR 26/20 A2992 RMK AO2 T02560202 10294 20256,KCWV,2023-06-05T23:55:00Z,32.2,-81.87,25.6,20.2,0,0,,7.0,29.920275,,,TRUE,TRUE,,,,,,,CLR,,,,,,,,VFR,,29.4,25.6,,,,,,,,,METAR,32.0
KCWN 052355Z AUTO 14006KT 10SM FEW024 SCT050 BKN075 14/11 A3027 RMK AO2 LTG DSNT E-SE AND SW RAE03 SLP109 P0000 6//// T01360108 10137 20126 $,KCWN,2023-06-05T23:55:00Z,38.75,-104.85,13.6,10.8,140,6,,10.0,30.268702,1010.9,,TRUE,TRUE,TRUE,,,,,,FEW,2400,SCT,5000,BKN,7500,,,VFR,,13.7,12.6,,,0.005,,,,,,METAR,2040.0
KCWF 052355Z 11006KT 10SM SCT050 22/20 A2988 RMK RAB2140E22 TSB2149E55,KCWF,2023-06-05T23:55:00Z,30.22,-93.15,22.0,20.0,110,6,,10.0,29.878937,,,,,,,,,,,SCT,5000,,,,,,,VFR,,,,,,,,,,,,METAR,4.0
KCWC 052355Z AUTO 24004KT 10SM CLR 25/17 A2996 RMK AO2 T02500166 10301 20250,KCWC,2023-06-05T23:55:00Z,33.85,-98.48,25.0,16.6,240,4,,10.0,29.958662,,,TRUE,TRUE,,,,,,,CLR,,,,,,,,VFR,,30.1,25.0,,,,,,,,,METAR,304.0
KCVX 052355Z AUTO 27007KT 7SM CLR 21/14 A3001 RMK AO2 T02070141 10240 20205,KCVX,2023-06-05T23:55:00Z,45.3,-85.27,20.7,14.1,270,7,,7.0,30.008858,,,TRUE,TRUE,,,,,,,CLR,,,,,,,,VFR,,24.0,20.5,,,,,,,,,METAR,196.0
KCVS 052355Z 09009KT 10SM CLR 20/15 A3011 RMK AO2A SLP154 T02020148 10220 20190 57007 $,KCVS,2023-06-05T23:55:00Z,34.37,-103.32,20.2,14.8,90,9,,10.0,30.109253,1015.4,,,TRUE,TRUE,,,,,,CLR,,,,,,,,VFR,-0.7,22.0,19.0,,,,,,,,,METAR,1305.0
KCVH 052355Z AUTO 25012KT 10SM BKN014 15/12 A2988 RMK A01,KCVH,2023-06-05T23:55:00Z,36.9,-121.42,15.0,12.0,250,12,,10.0,29.878937,,,TRUE,TRUE,,,,,,,BKN,1400,,,,,,,MVFR,,,,,,,,,,,,METAR,68.0
KCVC 052355Z AUTO 00000KT 10SM CLR 25/18 A2992 RMK AO2,KCVC,2023-06-05T23:55:00Z,33.63,-83.85,25.0,18.0,0,0,,10.0,29.920275,,,TRUE,TRUE,,,,,,,CLR,,,,,,,,VFR,,,,,,,,,,,,METAR,240.0
KCUH 052355Z AUTO 00000KT 10SM CLR 31/12 A2993 RMK AO2 T03050119 10320 20298,KCUH,2023-06-05T23:55:00Z,35.95,-96.77,30.5,11.9,0,0,,10.0,29.929134,,,TRUE,TRUE,,,,,,,CLR,,,,,,,,VFR,,32.0,29.8,,,,,,,,,METAR,274.0
KCTY 052355Z AUTO 08004KT 10SM CLR 28/16 A2990 RMK AO2,KCTY,2023-06-05T23:55:00Z,29.63,-83.1,28.0,16.0,80,4,,10.0,29.899607,,,TRUE,TRUE,,,,,,,CLR,,,,,,,,VFR,,,,,,,,,,,,METAR,12.0
KCTJ 052355Z AUTO 00000KT 10SM CLR 25/17 A2998 RMK AO2 T02520171,KCTJ,2023-06-05T23:55:00Z,33.63,-85.15,25.2,17.1,0,0,,10.0,29.97933,,,TRUE,TRUE,,,,,,,CLR,,,,,,,,VFR,,,,,,,,,,,,METAR,351.0
KCSQ 052355Z AUTO 09008KT 9SM CLR 27/18 A3003 RMK AO2,KCSQ,2023-06-05T23:55:00Z,41.02,-94.37,27.0,18.0,90,8,,9.0,30.029528,,,TRUE,TRUE,,,,,,,CLR,,,,,,,,VFR,,,,,,,,,,,,METAR,394.0
KCRX 052355Z AUTO 25005KT 10SM CLR 27/20 A2990 RMK AO2,KCRX,2023-06-05T23:55:00Z,34.92,-88.6,27.0,20.0,250,5,,10.0,29.899607,,,TRUE,TRUE,,,,,,,CLR,,,,,,,,VFR,,,,,,,,,,,,METAR,128.0
KCQF 052355Z AUTO 17004KT 10SM CLR 25/19 A2991 RMK AO2,KCQF,2023-06-05T23:55:00Z,30.47,-87.88,25.0,19.0,170,4,,10.0,29.911417,,,TRUE,TRUE,,,,,,,CLR,,,,,,,,VFR,,,,,,,,,,,,METAR,21.0
KCQB 052355Z AUTO 07005KT 10SM CLR 30/16 A2995 RMK AO2 T03050158 10318 20291 403180163,KCQB,2023-06-05T23:55:00Z,35.72,-96.82,30.5,15.8,70,5,,10.0,29.949802,,,TRUE,TRUE,,,,,,,CLR,,,,,,,,VFR,,31.8,29.1,31.8,16.3,,,,,,,METAR,298.0
KCPW 052355Z AUTO 01005KT 10SM VCTS BKN039 BKN050 07/00 A3052 RMK AO2 LTG DSNT ALQS,KCPW,2023-06-05T23:55:00Z,37.45,-106.8,7.0,0.0,10,5,,10.0,30.519686,,,TRUE,TRUE,,,,,,VCTS,BKN,3900,BKN,5000,,,,,VFR,,,,,,,,,,,,METAR,3570.0
KCPU 052355Z AUTO 27003KT 10SM CLR 27/13 A2973 RMK AO2 T02660126 10294 20259,KCPU,2023-06-05T23:55:00Z,38.15,-120.65,26.6,12.6,270,3,,10.0,29.731298,,,TRUE,TRUE,,,,,,,CLR,,,,,,,,VFR,,29.4,25.9,,,,,,,,,METAR,400.0
KCPP 052355Z AUTO 00000KT 10SM CLR 24/17 A2992 RMK AO2,KCPP,2023-06-05T23:55:00Z,,,24.0,17.0,0,0,,10.0,29.920275,,,TRUE,TRUE,,,,,,,CLR,,,,,,,,VFR,,,,,,,,,,,,METAR,
KCOQ 052355Z AUTO 10010G17KT 7SM CLR 18/12 A3011 RMK AO2 TSNO,KCOQ,2023-06-05T23:55:00Z,46.7,-92.5,18.0,12.0,100,10,17,7.0,30.109253,,,TRUE,TRUE,,,TRUE,,,,CLR,,,,,,,,VFR,,,,,,,,,,,,METAR,390.0
KCOM 052355Z AUTO 35007KT 4SM HZ CLR 23/16 A2997 RMK AO2 LTG DSNT E T02340158 10277 20222,KCOM,2023-06-05T23:55:00Z,31.83,-99.4,23.4,15.8,350,7,,4.0,29.970472,,,TRUE,TRUE,,,,,,HZ,CLR,,,,,,,,MVFR,,27.7,22.2,,,,,,,,,METAR,516.0
KCOF 052355Z AUTO 05011KT 10SM CLR 26/19 A2988 RMK AO2 SLP123 T02590190 10289 20259 53002 $,KCOF,2023-06-05T23:55:00Z,28.23,-80.6,25.9,19.0,50,11,,10.0,29.878937,1012.3,,TRUE,TRUE,TRUE,,,,,,CLR,,,,,,,,VFR,0.2,28.9,25.9,,,,,,,,,METAR,1.0
KCNK 052355Z AUTO 14008KT 10SM CLR 25/14 A3003 RMK AO2 LTG DSNT S SLP154 T02500144 10322 20244 55003,KCNK,2023-06-05T23:55:00Z,39.55,-97.65,25.0,14.4,140,8,,10.0,30.029528,1015.4,,TRUE,TRUE,,,,,,,CLR,,,,,,,,VFR,-0.3,32.2,24.4,,,,,,,,,METAR,445.0
KCNI 052355Z AUTO 23005KT 10SM CLR 26/18 A2993 RMK AO2 T02600181 10287 20251 402870149,KCNI,2023-06-05T23:55:00Z,34.32,-84.42,26.0,18.1,230,5,,10.0,29.929134,,,TRUE,TRUE,,,,,,,CLR,,,,,,,,VFR,,28.7,25.1,28.7,14.9,,,,,,,METAR,371.0
KCNC 052355Z AUTO 08006KT 8SM CLR 27/15 A3002 RMK AO2,KCNC,2023-06-05T23:55:00Z,41.02,-93.37,27.0,15.0,80,6,,8.0,30.02067,,,TRUE,TRUE,,,,,,,CLR,,,,,,,,VFR,,,,,,,,,,,,METAR,319.0
KCNB 052355Z AUTO 20003KT 10SM SCT090 30/14 A3002 RMK AO2 T02960142 10324 20296,KCNB,2023-06-05T23:55:00Z,44.73,-96.27,29.6,14.2,200,3,,10.0,30.02067,,,TRUE,TRUE,,,,,,,SCT,9000,,,,,,,VFR,,32.4,29.6,,,,,,,,,METAR,363.0
KCMD 052355Z AUTO 00000KT 10SM CLR 26/21 A2994 RMK AO2,KCMD,2023-06-05T23:55:00Z,34.27,-86.85,26.0,21.0,0,0,,10.0,29.940945,,,TRUE,TRUE,,,,,,,CLR,,,,,,,,VFR,,,,,,,,,,,,METAR,294.0
KCMA 052355Z 22009KT 10SM BKN032 OVC043 17/11 A2988 RMK AO2 SLP125 T01720111 10194 20156 58008,KCMA,2023-06-05T23:55:00Z,34.22,-119.1,17.2,11.1,220,9,,10.0,29.878937,1012.5,,,TRUE,,,,,,,BKN,3200,OVC,4300,,,,,VFR,-0.8,19.4,15.6,,,,,,,,,METAR,20.0
KCKP 052355Z AUTO 14004KT 10SM CLR 30/11 A3000 RMK AO2 T02950113 10332 20295,KCKP,2023-06-05T23:55:00Z,42.73,-95.55,29.5,11.3,140,4,,10.0,30.0,,,TRUE,TRUE,,,,,,,CLR,,,,,,,,VFR,,33.2,29.5,,,,,,,,,METAR,369.0
KCKN 052355Z AUTO 23012KT 10SM SCT060 SCT070 28/17 A3002 RMK AO2,KCKN,2023-06-05T23:55:00Z,47.85,-96.62,28.0,17.0,230,12,,10.0,30.02067,,,TRUE,TRUE,,,,,,,SCT,6000,SCT,7000,,,,,VFR,,,,,,,,,,,,METAR,272.0
KCKF 052355Z AUTO 00000KT 10SM CLR 26/18 A2993 RMK AO2 T02620180 10295 20261,KCKF,2023-06-05T23:55:00Z,31.98,-83.77,26.2,18.0,0,0,,10.0,29.929134,,,TRUE,TRUE,,,,,,,CLR,,,,,,,,VFR,,29.5,26.1,,,,,,,,,METAR,92.0
KCIN 052355Z AUTO 14008KT 8SM CLR 29/10 A3001 RMK AO2,KCIN,2023-06-05T23:55:00Z,42.03,-94.78,29.0,10.0,140,8,,8.0,30.008858,,,TRUE,TRUE,,,,,,,CLR,,,,,,,,VFR,,,,,,,,,,,,METAR,365.0
KCII 052355Z AUTO 32010KT 10SM 21/12 A2997 RMK A01 ,KCII,2023-06-05T23:55:00Z,47.83,-112.17,21.0,12.0,320,10,,10.0,29.970472,,,TRUE,TRUE,,,,,,,,,,,,,,,,,,,,,,,,,,,METAR,1202.0
KCHK 052355Z AUTO 09003KT 10SM CLR 28/19 A2993 RMK AO2 T02810187 10294 20205 402940170,KCHK,2023-06-05T23:55:00Z,35.1,-97.97,28.1,18.7,90,3,,10.0,29.929134,,,TRUE,TRUE,,,,,,,CLR,,,,,,,,VFR,,29.4,20.5,29.4,17.0,,,,,,,METAR,346.0
KCFS 052355Z AUTO 00000KT 10SM SCT090 24/11 A2997 RMK AO2 T02430107 10279 20243,KCFS,2023-06-05T23:55:00Z,43.47,-83.45,24.3,10.7,0,0,,10.0,29.970472,,,TRUE,TRUE,,,,,,,SCT,9000,,,,,,,VFR,,27.9,24.3,,,,,,,,,METAR,214.0
KCFE 052355Z AUTO 06005KT 10SM CLR 27/17 A3003 RMK AO2,KCFE,2023-06-05T23:55:00Z,45.17,-93.85,27.0,17.0,60,5,,10.0,30.029528,,,TRUE,TRUE,,,,,,,CLR,,,,,,,,VFR,,,,,,,,,,,,METAR,292.0
KCFD 052355Z AUTO 14009KT 10SM CLR 23/21 A2993 RMK AO2 60001 T02280208 10272 20223,KCFD,2023-06-05T23:55:00Z,30.72,-96.33,22.8,20.8,140,9,,10.0,29.929134,,,TRUE,TRUE,,,,,,,CLR,,,,,,,,VFR,,27.2,22.3,,,,,0.01,,,,METAR,106.0
KCEF 052355Z 00000KT 10SM BKN080 BKN250 18/12 A2975 RMK AO2A SLP080 T01750115 10210 20175 53001,KCEF,2023-06-05T23:55:00Z,42.2,-72.52,17.5,11.5,0,0,,10.0,29.749016,1008.0,,,TRUE,,,,,,,BKN,8000,BKN,25000,,,,,VFR,0.1,21.0,17.5,,,,,,,,,METAR,72.0
KCDI 052355Z AUTO 00000KT 10SM CLR 18/14 A2997 RMK AO2 T01790139 10228 20179,KCDI,2023-06-05T23:55:00Z,39.97,-81.58,17.9,13.9,0,0,,10.0,29.970472,,,TRUE,TRUE,,,,,,,CLR,,,,,,,,VFR,,22.8,17.9,,,,,,,,,METAR,241.0
KCDD 052355Z AUTO 00000KT 10SM CLR 24/17 A3012 RMK AO2 PWINO,KCDD,2023-06-05T23:55:00Z,48.27,-92.48,24.0,17.0,0,0,,10.0,30.121063,,,TRUE,TRUE,,,,,TRUE,,CLR,,,,,,,,VFR,,,,,,,,,,,,METAR,344.0
KCDA 052355Z AUTO 17003KT 10SM SCT050 SCT080 OVC095 15/09 A2981 RMK AO2 T01470093 10175 20147,KCDA,2023-06-05T23:55:00Z,44.57,-72.02,14.7,9.3,170,3,,10.0,29.811024,,,TRUE,TRUE,,,,,,,SCT,5000,SCT,8000,OVC,9500,,,VFR,,17.5,14.7,,,,,,,,,METAR,357.0
KCCY 052355Z AUTO 12003KT 8SM CLR 29/13 A3002 RMK AO2,KCCY,2023-06-05T23:55:00Z,43.07,-92.62,29.0,13.0,120,3,,8.0,30.02067,,,TRUE,TRUE,,,,,,,CLR,,,,,,,,VFR,,,,,,,,,,,,METAR,340.0
KCCU 052355Z AUTO 30013G19KT 4SM RA SCT007 BKN015 OVC033 05/01 A3051 RMK AO2 P0005,KCCU,2023-06-05T23:55:00Z,39.48,-106.15,5.0,1.0,300,13,19,4.0,30.510826,,,TRUE,TRUE,,,,,,RA,SCT,700,BKN,1500,OVC,3300,,,MVFR,,,,,,0.05,,,,,,METAR,3672.0
KCCO 052355Z AUTO 00000KT 10SM CLR 26/18 A2995 RMK AO2 T02610178 10286 20254,KCCO,2023-06-05T23:55:00Z,33.32,-84.77,26.1,17.8,0,0,,10.0,29.949802,,,TRUE,TRUE,,,,,,,CLR,,,,,,,,VFR,,28.6,25.4,,,,,,,,,METAR,290.0
KCBM 052355Z 25011KT 8SM -TSRA BKN025 BKN050 19/17 A2990 RMK AO2A PK WND 03033/09 SLP129 ALSTG/SLP ESTMD P0074 60080 53021 $,KCBM,2023-06-05T23:55:00Z,33.65,-88.45,19.0,17.0,250,11,,8.0,29.899607,1012.9,,,TRUE,TRUE,,,,,-TSRA,BKN,2500,BKN,5000,,,,,MVFR,2.1,,,,,0.74,,0.8,,,,METAR,59.0
KCBG 052355Z AUTO 02005KT 10SM CLR 28/17 A3005 RMK AO2,KCBG,2023-06-05T23:55:00Z,45.57,-93.27,28.0,17.0,20,5,,10.0,30.050198,,,TRUE,TRUE,,,,,,,CLR,,,,,,,,VFR,,,,,,,,,,,,METAR,285.0
KCBF 052355Z AUTO 10004KT 10SM CLR 30/12 A2999 RMK AO2,KCBF,2023-06-05T23:55:00Z,41.27,-95.77,30.0,12.0,100,4,,10.0,29.991142,,,TRUE,TRUE,,,,,,,CLR,,,,,,,,VFR,,,,,,,,,,,,METAR,379.0
KCAV 052355Z AUTO 17008KT 9SM CLR 30/12 A3001 RMK A01,KCAV,2023-06-05T23:55:00Z,42.75,-93.77,30.0,12.0,170,8,,9.0,30.008858,,,TRUE,TRUE,,,,,,,CLR,,,,,,,,VFR,,,,,,,,,,,,METAR,352.0
KCAO 052355Z AUTO 25004KT 10SM SCT080 14/13 A3019 RMK AO2 RAE25 SLP185 P0003 60044 T01440128 10178 20128 58005,KCAO,2023-06-05T23:55:00Z,36.45,-103.15,14.4,12.8,250,4,,10.0,30.188976,1018.5,,TRUE,TRUE,,,,,,,SCT,8000,,,,,,,VFR,-0.5,17.8,12.8,,,0.03,,0.44,,,,METAR,1517.0
KCAD 052355Z AUTO 33005KT 10SM CLR 23/10 A3000 RMK AO2 T02280101 10276 20228,KCAD,2023-06-05T23:55:00Z,44.27,-85.42,22.8,10.1,330,5,,10.0,30.0,,,TRUE,TRUE,,,,,,,CLR,,,,,,,,VFR,,27.6,22.8,,,,,,,,,METAR,397.0
KC83 052355Z AUTO 23020G26KT 10SM CLR 25/11 A2972 RMK AO2,KC83,2023-06-05T23:55:00Z,37.83,-121.62,25.0,11.0,230,20,26,10.0,29.719488,,,TRUE,TRUE,,,,,,,CLR,,,,,,,,VFR,,,,,,,,,,,,METAR,16.0
KC75 052355Z AUTO 00000KT 10SM CLR 28/11 A2999 RMK AO2,KC75,2023-06-05T23:55:00Z,41.02,-89.38,28.0,11.0,0,0,,10.0,29.991142,,,TRUE,TRUE,,,,,,,CLR,,,,,,,,VFR,,,,,,,,,,,,METAR,166.0
KC65 052355Z AUTO 35006KT 10SM CLR 25/04 A3000 RMK A01,KC65,2023-06-05T23:55:00Z,41.37,-86.3,25.0,4.0,350,6,,10.0,30.0,,,TRUE,TRUE,,,,,,,CLR,,,,,,,,VFR,,,,,,,,,,,,METAR,241.0
KC09 052355Z AUTO 09008KT 10SM CLR 28/08 A2999 RMK AO2 T02800084 10300 20268,KC09,2023-06-05T23:55:00Z,41.43,-88.42,28.0,8.4,90,8,,10.0,29.991142,,,TRUE,TRUE,,,,,,,CLR,,,,,,,,VFR,,30.0,26.8,,,,,,,,,METAR,179.0
KC07 052355Z AUTO 00000KT 10SM BKN044 BKN050 OVC070 10/02 A3039 RMK AO2,KC07,2023-06-05T23:55:00Z,40.35,-106.7,10.0,2.0,0,0,,10.0,30.389763,,,TRUE,TRUE,,,,,,,BKN,4400,BKN,5000,OVC,7000,,,VFR,,,,,,,,,,,,METAR,3224.0
KBYY 052355Z AUTO 00000KT 10SM CLR 23/20 A2988 RMK AO2 T02310201,KBYY,2023-06-05T23:55:00Z,28.97,-95.87,23.1,20.1,0,0,,10.0,29.878937,,,TRUE,TRUE,,,,,,,CLR,,,,,,,,VFR,,,,,,,,,,,,METAR,12.0
KBYS 052355Z AUTO 13013G24KT 9SM FEW200 32/M05 A2965 RMK AO2 PK WND 12027/27 SLP013 T03191049 10345 20310 57011 $,KBYS,2023-06-05T23:55:00Z,35.28,-116.63,31.9,-4.9,130,13,24,9.0,29.648623,1001.3,,TRUE,TRUE,TRUE,,,,,,FEW,20000,,,,,,,VFR,-1.1,34.5,31.0,,,,,,,,,METAR,717.0
KBXA 052355Z AUTO 00000KT 10SM SCT040 BKN120 23/21 A2993 RMK AO2 60042 T02330207 10323 20215,KBXA,2023-06-05T23:55:00Z,30.82,-89.87,23.3,20.7,0,0,,10.0,29.929134,,,TRUE,TRUE,,,,,,,SCT,4000,BKN,12000,,,,,VFR,,32.3,21.5,,,,,0.42,,,,METAR,35.0
KBVS 052355Z AUTO 29013G18KT 10SM CLR 19/08 A3010 RMK A01,KBVS,2023-06-05T23:55:00Z,48.47,-122.42,19.0,8.0,290,13,18,10.0,30.100393,,,TRUE,TRUE,,,,,,,CLR,,,,,,,,VFR,,,,,,,,,,,,METAR,31.0
KBVN 052355Z AUTO 08004KT 10SM CLR 27/11 A3003 RMK AO2 T02690109 10291 20233,KBVN,2023-06-05T23:55:00Z,41.73,-98.05,26.9,10.9,80,4,,10.0,30.029528,,,TRUE,TRUE,,,,,,,CLR,,,,,,,,VFR,,29.1,23.3,,,,,,,,,METAR,547.0
KBVI 052355Z AUTO 02003KT 10SM CLR 21/05 A2998 RMK AO2 T02110046,KBVI,2023-06-05T23:55:00Z,40.77,-80.37,21.1,4.6,20,3,,10.0,29.97933,,,TRUE,TRUE,,,,,,,CLR,,,,,,,,VFR,,,,,,,,,,,,METAR,387.0
KBTN 052355Z AUTO 00000KT 10SM 26/18 A3001 RMK AO2,KBTN,2023-06-05T23:55:00Z,45.82,-97.75,26.0,18.0,0,0,,10.0,30.008858,,,TRUE,TRUE,,,,,,,,,,,,,,,,,,,,,,,,,,,METAR,400.0
KBTA 052355Z AUTO 12005KT 10SM CLR 29/15 A3001 RMK AO2 T02880150 10313 20288,KBTA,2023-06-05T23:55:00Z,41.42,-96.12,28.8,15.0,120,5,,10.0,30.008858,,,TRUE,TRUE,,,,,,,CLR,,,,,,,,VFR,,31.3,28.8,,,,,,,,,METAR,400.0
KBQX 052355Z AUTO 00000KT 10SM CLR 26/20 A2988 RMK A01,KBQX,2023-06-05T23:55:00Z,28.5,-95.72,26.0,20.0,0,0,,10.0,29.878937,,,TRUE,TRUE,,,,,,,CLR,,,,,,,,VFR,,,,,,,,,,,,METAR,34.0
KBQP 052355Z AUTO 00000KT SCT075 27/18 A2987 RMK AO2 LTG DSNT N E AND SW T02710177 10335 20271 PWINO,KBQP,2023-06-05T23:55:00Z,32.75,-91.88,27.1,17.7,0,0,,,29.870079,,,TRUE,TRUE,,,,,TRUE,,SCT,7500,,,,,,,,,33.5,27.1,,,,,,,,,METAR,50.0
KBQK 052355Z AUTO 11006KT 10SM CLR 22/16 A2994 RMK AO2 T02240157 10266 20224 402660183,KBQK,2023-06-05T23:55:00Z,31.25,-81.47,22.4,15.7,110,6,,10.0,29.940945,,,TRUE,TRUE,,,,,,,CLR,,,,,,,,VFR,,26.6,22.4,26.6,18.3,,,,,,,METAR,7.0
KBPG 052355Z AUTO 05008KT 10SM SCT048 SCT060 25/15 A3000 RMK AO2 T02520147 10254 20196 402550165 60021,KBPG,2023-06-05T23:55:00Z,32.22,-101.52,25.2,14.7,50,8,,10.0,30.0,,,TRUE,TRUE,,,,,,,SCT,4800,SCT,6000,,,,,VFR,,25.4,19.6,25.5,16.5,,,0.21,,,,METAR,782.0
KBPC 052355Z AUTO 05010KT 10SM SCT065 SCT120 23/12 A3009 RMK AO2,KBPC,2023-06-05T23:55:00Z,35.88,-101.03,23.0,12.0,50,10,,10.0,30.088583,,,TRUE,TRUE,,,,,,,SCT,6500,SCT,12000,,,,,VFR,,,,,,,,,,,,METAR,844.0
KBNW 052355Z AUTO 14007KT 8SM CLR 28/15 A3001 RMK AO2,KBNW,2023-06-05T23:55:00Z,42.03,-93.83,28.0,15.0,140,7,,8.0,30.008858,,,TRUE,TRUE,,,,,,,CLR,,,,,,,,VFR,,,,,,,,,,,,METAR,350.0
KBMT 052355Z AUTO 16006KT 10SM TS BKN060 26/18 A2988 RMK AO2 LTG DSNT NW THRU E T02600177 10301 20260,KBMT,2023-06-05T23:55:00Z,30.07,-94.22,26.0,17.7,160,6,,10.0,29.878937,,,TRUE,TRUE,,,,,,TS,BKN,6000,,,,,,,VFR,,30.1,26.0,,,,,,,,,METAR,8.0
KBLV 052355Z 02006KT 7SM BKN250 25/06 A2996 RMK AO2A SLP146 T02450062 10296 20245 55003 $,KBLV,2023-06-05T23:55:00Z,38.53,-89.83,24.5,6.2,20,6,,7.0,29.958662,1014.6,,,TRUE,TRUE,,,,,,BKN,25000,,,,,,,VFR,-0.3,29.6,24.5,,,,,,,,,METAR,134.0
KBKD 052355Z AUTO 01005KT 5SM HZ CLR 26/15 A2995 RMK AO2 T02560150 10274 20243,KBKD,2023-06-05T23:55:00Z,32.72,-98.88,25.6,15.0,10,5,,5.0,29.949802,,,TRUE,TRUE,,,,,,HZ,CLR,,,,,,,,MVFR,,27.4,24.3,,,,,,,,,METAR,383.0
KBJI 052355Z AUTO 17003KT 10SM VCTS OVC100 25/18 A3007 RMK AO2 LTG DSNT NW T02490182 10276 20241,KBJI,2023-06-05T23:55:00Z,47.5,-94.92,24.9,18.2,170,3,,10.0,30.070866,,,TRUE,TRUE,,,,,,VCTS,OVC,10000,,,,,,,VFR,,27.6,24.1,,,,,,,,,METAR,422.0
KBIX 052355Z AUTO 17006KT 10SM FEW026 BKN210 26/19 A2989 RMK AO2 SLP125 T02600189 10299 20255 55006,KBIX,2023-06-05T23:55:00Z,30.42,-88.92,26.0,18.9,170,6,,10.0,29.890747,1012.5,,TRUE,TRUE,,,,,,,FEW,2600,BKN,21000,,,,,VFR,-0.6,29.9,25.5,,,,,,,,,METAR,4.0
KBIJ 052355Z AUTO 00000KT 10SM CLR 27/15 A2992 RMK AO2,KBIJ,2023-06-05T23:55:00Z,31.4,-84.9,27.0,15.0,0,0,,10.0,29.920275,,,TRUE,TRUE,,,,,,,CLR,,,,,,,,VFR,,,,,,,,,,,,METAR,63.0
KBIE 052355Z AUTO 13004KT 10SM CLR 23/15 A3002 RMK AO2 T02270146 10299 20227,KBIE,2023-06-05T23:55:00Z,40.28,-96.75,22.7,14.6,130,4,,10.0,30.02067,,,TRUE,TRUE,,,,,,,CLR,,,,,,,,VFR,,29.9,22.7,,,,,,,,,METAR,398.0
KBHC 052355Z AUTO 00000KT 10SM CLR 26/18 A2992 RMK AO2,KBHC,2023-06-05T23:55:00Z,31.72,-82.4,26.0,18.0,0,0,,10.0,29.920275,,,TRUE,TRUE,,,,,,,CLR,,,,,,,,VFR,,,,,,,,,,,,METAR,61.0
KBGF 052355Z AUTO 00000KT 10SM CLR 28/18 A2990 RMK A01,KBGF,2023-06-05T23:55:00Z,35.18,-86.07,28.0,18.0,0,0,,10.0,29.899607,,,TRUE,TRUE,,,,,,,CLR,,,,,,,,VFR,,,,,,,,,,,,METAR,295.0
KBGE 052355Z AUTO 13004KT 10SM CLR 28/17 A2992 RMK AO2 T02760175 10305 20274 403050177,KBGE,2023-06-05T23:55:00Z,30.97,-84.63,27.6,17.5,130,4,,10.0,29.920275,,,TRUE,TRUE,,,,,,,CLR,,,,,,,,VFR,,30.5,27.4,30.5,17.7,,,,,,,METAR,40.0
KBEC 052355Z AUTO 36007KT 10SM CLR 24/14 A3001 RMK AO2 LTG DSNT SE 60032 T02350144 10295 20191,KBEC,2023-06-05T23:55:00Z,37.7,-97.22,23.5,14.4,360,7,,10.0,30.008858,,,TRUE,TRUE,,,,,,,CLR,,,,,,,,VFR,,29.5,19.1,,,,,0.32,,,,METAR,421.0
KBDU 052355Z AUTO 03006KT 10SM -RA BKN070 OVC100 17/11 A3016 RMK AO2 LTG DSNT N,KBDU,2023-06-05T23:55:00Z,40.03,-105.23,17.0,11.0,30,6,,10.0,30.159449,,,TRUE,TRUE,,,,,,-RA,BKN,7000,OVC,10000,,,,,VFR,,,,,,,,,,,,METAR,1614.0
KBDH 052355Z AUTO 03004KT 10SM CLR 26/18 A3005 RMK AO2,KBDH,2023-06-05T23:55:00Z,45.12,-95.13,26.0,18.0,30,4,,10.0,30.050198,,,TRUE,TRUE,,,,,,,CLR,,,,,,,,VFR,,,,,,,,,,,,METAR,341.0
KBDG 052355Z AUTO 00000KT 10SM 26/M02 A3009 RMK AO1 T02551020 10274 20101,KBDG,2023-06-05T23:55:00Z,37.58,-109.47,25.5,-2.0,0,0,,10.0,30.088583,,,TRUE,TRUE,,,,,,,,,,,,,,,,,27.4,10.1,,,,,,,,,METAR,1778.0
KBBD 052355Z AUTO 34005KT 10SM CLR 22/18 A2995 RMK AO2 LTG DSNT E AND S,KBBD,2023-06-05T23:55:00Z,31.18,-99.32,22.0,18.0,340,5,,10.0,29.949802,,,TRUE,TRUE,,,,,,,CLR,,,,,,,,VFR,,,,,,,,,,,,METAR,554.0
KBAX 052355Z AUTO 05004KT 10SM CLR 21/15 A2998 RMK AO2 T02120153 10259 20212,KBAX,2023-06-05T23:55:00Z,43.78,-82.98,21.2,15.3,50,4,,10.0,29.97933,,,TRUE,TRUE,,,,,,,CLR,,,,,,,,VFR,,25.9,21.2,,,,,,,,,METAR,229.0
KBAM 052355Z AUTO 15021G27KT 10SM CLR 23/05 A2997 RMK AO1,KBAM,2023-06-05T23:55:00Z,40.6,-116.87,23.0,5.0,150,21,27,10.0,29.970472,,,TRUE,TRUE,,,,,,,CLR,,,,,,,,VFR,,,,,,,,,,,,METAR,1381.0
KBAD 052355Z AUTO 13003KT 10SM CLR 30/17 A2984 RMK AO2 SLP107 T03040174 10335 20288 55004,KBAD,2023-06-05T23:55:00Z,32.5,-93.67,30.4,17.4,130,3,,10.0,29.840551,1010.7,,TRUE,TRUE,,,,,,,CLR,,,,,,,,VFR,-0.4,33.5,28.8,,,,,,,,,METAR,49.0
KBAB 052355Z AUTO 12008KT 10SM BKN160 30/14 A2965 RMK AO2 SLP042 T03000141 10336 20261 53007 $,KBAB,2023-06-05T23:55:00Z,39.13,-121.43,30.0,14.1,120,8,,10.0,29.648623,1004.2,,TRUE,TRUE,TRUE,,,,,,BKN,16000,,,,,,,VFR,0.7,33.6,26.1,,,,,,,,,METAR,31.0
KAZC 052355Z AUTO 18013G18KT 10SM CLR 32/M01 A2991 RMK AO2,KAZC,2023-06-05T23:55:00Z,36.97,-113.02,32.0,-1.0,180,13,18,10.0,29.911417,,,TRUE,TRUE,,,,,,,CLR,,,,,,,,VFR,,,,,,,,,,,,METAR,1476.0
KAYS 052355Z AUTO 21003KT 10SM CLR 27/18 A2992 RMK AO2 T02670182 10294 20267,KAYS,2023-06-05T23:55:00Z,31.25,-82.4,26.7,18.2,210,3,,10.0,29.920275,,,TRUE,TRUE,,,,,,,CLR,,,,,,,,VFR,,29.4,26.7,,,,,,,,,METAR,42.0
KAXX 052355Z AUTO 30005KT 10SM BKN065 OVC080 09/07 A3033 RMK AO2 P0001 60015 T00910069 10145 20090,KAXX,2023-06-05T23:55:00Z,36.42,-105.28,9.1,6.9,300,5,,10.0,30.33071,,,TRUE,TRUE,,,,,,,BKN,6500,OVC,8000,,,,,VFR,,14.5,9.0,,,0.01,,0.15,,,,METAR,2543.0
KAXV 052355Z AUTO 06003KT 7SM CLR 22/05 A2999 RMK AO2,KAXV,2023-06-05T23:55:00Z,40.5,-84.3,22.0,5.0,60,3,,7.0,29.991142,,,TRUE,TRUE,,,,,,,CLR,,,,,,,,VFR,,,,,,,,,,,,METAR,278.0
KAXH 052355Z AUTO 28003KT 10SM -RA SCT041 SCT050 SCT055 21/20 A2989 RMK AO2 LTG DSNT N AND NE P0004 60079 T02100201 10309 20208,KAXH,2023-06-05T23:55:00Z,29.52,-95.48,21.0,20.1,280,3,,10.0,29.890747,,,TRUE,TRUE,,,,,,-RA,SCT,4100,SCT,5000,SCT,5500,,,VFR,,30.9,20.8,,,0.04,,0.79,,,,METAR,18.0
KAXA 052355Z AUTO 00000KT 10SM CLR 30/13 A3000 RMK A01,KAXA,2023-06-05T23:55:00Z,43.07,-94.27,30.0,13.0,0,0,,10.0,30.0,,,TRUE,TRUE,,,,,,,CLR,,,,,,,,VFR,,,,,,,,,,,,METAR,371.0
KAWG 052355Z AUTO 06005KT 10SM CLR 28/04 A3000 RMK AO2,KAWG,2023-06-05T23:55:00Z,41.27,-91.67,28.0,4.0,60,5,,10.0,30.0,,,TRUE,TRUE,,,,,,,CLR,,,,,,,,VFR,,,,,,,,,,,,METAR,229.0
KAVQ 052355Z AUTO 19016G20KT 10SM 39/M09 A2972 RMK AO2 T03871095,KAVQ,2023-06-05T23:55:00Z,32.4,-111.22,38.7,-9.5,190,16,20,10.0,29.719488,,,TRUE,TRUE,,,,,,,,,,,,,,,,,,,,,,,,,,,METAR,618.0
KAUN 052355Z AUTO 12016G25KT 10SM FEW050 SCT065 BKN100 29/04 A2976 RMK A01,KAUN,2023-06-05T23:55:00Z,38.95,-121.08,29.0,4.0,120,16,25,10.0,29.760826,,,TRUE,TRUE,,,,,,,FEW,5000,SCT,6500,BKN,10000,,,VFR,,,,,,,,,,,,METAR,453.0
KAUH 052355Z AUTO 05010KT 10SM CLR 28/13 A3003 RMK AO2 T02770125 10310 20275,KAUH,2023-06-05T23:55:00Z,40.88,-98.0,27.7,12.5,50,10,,10.0,30.029528,,,TRUE,TRUE,,,,,,,CLR,,,,,,,,VFR,,31.0,27.5,,,,,,,,,METAR,549.0
KASW 052355Z AUTO 02003KT 10SM CLR A2999 RMK AO2,KASW,2023-06-05T23:55:00Z,41.27,-85.83,,,20,3,,10.0,29.991142,,,TRUE,TRUE,,,,,,,CLR,,,,,,,,VFR,,,,,,,,,,,,METAR,253.0
KAST 052355Z AUTO 32017G28KT 10SM CLR 18/08 A3003 RMK AO2 PK WND 31028/2346 SLP167 T01780078 10194 20178 58018,KAST,2023-06-05T23:55:00Z,46.15,-123.88,17.8,7.8,320,17,28,10.0,30.029528,1016.7,,TRUE,TRUE,,,,,,,CLR,,,,,,,,VFR,-1.8,19.4,17.8,,,,,,,,,METAR,3.0
KASN 052355Z AUTO 00000KT 10SM CLR 27/20 A2993 RMK AO2 T02740202 10312 20274,KASN,2023-06-05T23:55:00Z,33.57,-86.05,27.4,20.2,0,0,,10.0,29.929134,,,TRUE,TRUE,,,,,,,CLR,,,,,,,,VFR,,31.2,27.4,,,,,,,,,METAR,159.0
KARM 052355Z AUTO 00000KT 10SM CLR 21/21 A2989 RMK AO2 6//// T02130213 TSNO,KARM,2023-06-05T23:55:00Z,29.25,-96.15,21.3,21.3,0,0,,10.0,29.890747,,,TRUE,TRUE,,,TRUE,,,,CLR,,,,,,,,VFR,,,,,,,,,,,,METAR,29.0
KAQO 052355Z AUTO 00000KT 10SM CLR 25/18 A2991 RMK AO2 LTG DSNT NE AND SE AND SW,KAQO,2023-06-05T23:55:00Z,30.78,-98.67,25.0,18.0,0,0,,10.0,29.911417,,,TRUE,TRUE,,,,,,,CLR,,,,,,,,VFR,,,,,,,,,,,,METAR,334.0
KAPY 052355Z AUTO 09013G16KT 10SM SCT070 SCT090 30/20 A2984 RMK AO2 T03030197 10352 20303 TSNO,KAPY,2023-06-05T23:55:00Z,26.97,-99.25,30.3,19.7,90,13,16,10.0,29.840551,,,TRUE,TRUE,,,TRUE,,,,SCT,7000,SCT,9000,,,,,VFR,,35.2,30.3,,,,,,,,,METAR,129.0
KANW 052355Z AUTO 12008KT 10SM CLR 27/13 A3007 RMK AO2 T02680127 10286 20263,KANW,2023-06-05T23:55:00Z,42.57,-100.0,26.8,12.7,120,8,,10.0,30.070866,,,TRUE,TRUE,,,,,,,CLR,,,,,,,,VFR,,28.6,26.3,,,,,,,,,METAR,788.0
KANJ 052355Z AUTO 01007KT 10SM CLR 24/12 A3000 RMK AO2 SLP156 T02390122 10272 20239 58002,KANJ,2023-06-05T23:55:00Z,46.47,-84.37,23.9,12.2,10,7,,10.0,30.0,1015.6,,TRUE,TRUE,,,,,,,CLR,,,,,,,,VFR,-0.2,27.2,23.9,,,,,,,,,METAR,220.0
KAMN 052355Z AUTO 31007KT 10SM BKN080 OVC100 28/09 A2994 RMK AO2 T02800092 10295 20263,KAMN,2023-06-05T23:55:00Z,43.32,-84.68,28.0,9.2,310,7,,10.0,29.940945,,,TRUE,TRUE,,,,,,,BKN,8000,OVC,10000,,,,,VFR,,29.5,26.3,,,,,,,,,METAR,228.0
KALX 052355Z AUTO 00000KT 10SM CLR 26/21 A2994 RMK AO2 T02610209 10294 20261,KALX,2023-06-05T23:55:00Z,32.92,-85.97,26.1,20.9,0,0,,10.0,29.940945,,,TRUE,TRUE,,,,,,,CLR,,,,,,,,VFR,,29.4,26.1,,,,,,,,,METAR,198.0
KAJZ 052355Z AUTO 00000KT 10SM CLR 26/02 A3004 RMK AO2 T02620018 10314 20261 PWINO,KAJZ,2023-06-05T23:55:00Z,38.78,-108.07,26.2,1.8,0,0,,10.0,30.041338,,,TRUE,TRUE,,,,,TRUE,,CLR,,,,,,,,VFR,,31.4,26.1,,,,,,,,,METAR,1583.0
KAJR 052355Z AUTO 17004KT 7SM CLR 25/20 A2993 RMK AO2 T02490201 10277 20246,KAJR,2023-06-05T23:55:00Z,34.5,-83.55,24.9,20.1,170,4,,7.0,29.929134,,,TRUE,TRUE,,,,,,,CLR,,,,,,,,VFR,,27.7,24.6,,,,,,,,,METAR,441.0
KAJG 052355Z AUTO 34006KT 10SM CLR 27/09 A2994 RMK AO2 T02660088 10298 20266,KAJG,2023-06-05T23:55:00Z,38.62,-87.73,26.6,8.8,340,6,,10.0,29.940945,,,TRUE,TRUE,,,,,,,CLR,,,,,,,,VFR,,29.8,26.6,,,,,,,,,METAR,130.0
KAIO 052355Z AUTO 12007KT 10SM CLR 29/17 A3000 RMK AO2,KAIO,2023-06-05T23:55:00Z,41.4,-95.03,29.0,17.0,120,7,,10.0,30.0,,,TRUE,TRUE,,,,,,,CLR,,,,,,,,VFR,,,,,,,,,,,,METAR,349.0
KAHQ 052355Z AUTO 14005KT 10SM 29/13 A3000 RMK AO2 T02940134 10317 20294,KAHQ,2023-06-05T23:55:00Z,41.23,-96.6,29.4,13.4,140,5,,10.0,30.0,,,TRUE,TRUE,,,,,,,,,,,,,,,,,31.7,29.4,,,,,,,,,METAR,372.0
KAGI 052355Z AUTO 00000KT 10SM CLR 28/19 A2988 RMK AO2 LTG DSNT NW T02810186 10319 20228 403600200,KAGI,2023-06-05T23:55:00Z,27.55,-92.45,28.1,18.6,0,0,,10.0,29.878937,,,TRUE,TRUE,,,,,,,CLR,,,,,,,,VFR,,31.9,22.8,36.0,20.0,,,,,,,METAR,41.0
KAFO 052355Z AUTO 00000KT 10SM SCT100 BKN120 21/04 A3007 RMK AO2,KAFO,2023-06-05T23:55:00Z,42.72,-110.95,21.0,4.0,0,0,,10.0,30.070866,,,TRUE,TRUE,,,,,,,SCT,10000,BKN,12000,,,,,VFR,,,,,,,,,,,,METAR,1881.0
KAFK 052355Z AUTO 21007KT 10SM -RA SCT085 OVC110 22/16 A3003 RMK AO2 LTG DSNT NE P0002 60005 T02150164 10309 20201,KAFK,2023-06-05T23:55:00Z,40.6,-95.85,21.5,16.4,210,7,,10.0,30.029528,,,TRUE,TRUE,,,,,,-RA,SCT,8500,OVC,11000,,,,,VFR,,30.9,20.1,,,0.02,,0.05,,,,METAR,353.0
KAFF 052355Z 16007KT 10SM VCSH SCT049 BKN060 BKN170 15/10 A3022 RMK AO2A SLP178 60014 T01510101 10159 20123 57004,KAFF,2023-06-05T23:55:00Z,38.97,-104.82,15.1,10.1,160,7,,10.0,30.221457,1017.8,,,TRUE,,,,,,VCSH,SCT,4900,BKN,6000,BKN,17000,,,VFR,-0.4,15.9,12.3,,,,,0.14,,,,METAR,2003.0
KAEL 052355Z AUTO 04012KT 7SM CLR 28/16 A3003 RMK AO2,KAEL,2023-06-05T23:55:00Z,43.68,-93.37,28.0,16.0,40,12,,7.0,30.029528,,,TRUE,TRUE,,,,,,,CLR,,,,,,,,VFR,,,,,,,,,,,,METAR,382.0
KAEJ 052355Z AUTO 08005KT 10SM -VCTSRA SCT060 BKN080 OVC095 14/04 A3029 RMK AO2 LTG DSNT S T01400042 10214 20132,KAEJ,2023-06-05T23:55:00Z,38.82,-106.12,14.0,4.2,80,5,,10.0,30.28937,,,TRUE,TRUE,,,,,,VCTS -RA,SCT,6000,BKN,8000,OVC,9500,,,VFR,,21.4,13.2,,,,,,,,,METAR,2420.0
KADW 052355Z AUTO 01007KT 10SM CLR 20/09 A2984 RMK AO2 SLP111 T02010093 10253 20201 56001 $,KADW,2023-06-05T23:55:00Z,38.82,-76.87,20.1,9.3,10,7,,10.0,29.840551,1011.1,,TRUE,TRUE,TRUE,,,,,,CLR,,,,,,,,VFR,-0.1,25.3,20.1,,,,,,,,,METAR,87.0
KADU 052355Z AUTO 11005KT 10SM SCT015 BKN050 OVC080 29/14 A3002 RMK AO2,KADU,2023-06-05T23:55:00Z,41.7,-94.92,29.0,14.0,110,5,,10.0,30.02067,,,TRUE,TRUE,,,,,,,SCT,1500,BKN,5000,OVC,8000,,,VFR,,,,,,,,,,,,METAR,391.0
KADT 052355Z AUTO 10008KT 10SM CLR 22/12 A3015 RMK AO2 T02150120,KADT,2023-06-05T23:55:00Z,39.83,-101.05,21.5,12.0,100,8,,10.0,30.15059,,,TRUE,TRUE,,,,,,,CLR,,,,,,,,VFR,,,,,,,,,,,,METAR,899.0
KADH 052355Z AUTO 14004KT 10SM CLR 27/16 A2995 RMK AO2,KADH,2023-06-05T23:55:00Z,34.8,-96.67,27.0,16.0,140,4,,10.0,29.949802,,,TRUE,TRUE,,,,,,,CLR,,,,,,,,VFR,,,,,,,,,,,,METAR,301.0
KACQ 052355Z AUTO 09008KT 10SM CLR 27/16 A3004 RMK AO2,KACQ,2023-06-05T23:55:00Z,44.07,-93.55,27.0,16.0,90,8,,10.0,30.041338,,,TRUE,TRUE,,,,,,,CLR,,,,,,,,VFR,,,,,,,,,,,,METAR,339.0
KACP 052355Z AUTO 00000KT 10SM CLR 21/19 A2990 RMK AO2 P0004,KACP,2023-06-05T23:55:00Z,30.75,-92.68,21.0,19.0,0,0,,10.0,29.899607,,,TRUE,TRUE,,,,,,,CLR,,,,,,,,VFR,,,,,,0.04,,,,,,METAR,31.0
KACB 052355Z AUTO 00000KT 7SM CLR 24/13 A3000 RMK AO2 T02350127 10266 20235,KACB,2023-06-05T23:55:00Z,44.98,-85.2,23.5,12.7,0,0,,7.0,30.0,,,TRUE,TRUE,,,,,,,CLR,,,,,,,,VFR,,26.6,23.5,,,,,,,,,METAR,189.0
KABH 052355Z AUTO 16007KT 10SM SCT037 OVC070 16/10 A3023 RMK AO2 LTG DSNT W-NW SLP194 60001 T01580103 10178 20136 58002,KABH,2023-06-05T23:55:00Z,38.75,-104.3,15.8,10.3,160,7,,10.0,30.230314,1019.4,,TRUE,TRUE,,,,,,,SCT,3700,OVC,7000,,,,,VFR,-0.2,17.8,13.6,,,,,0.01,,,,METAR,1838.0
KAAT 052355Z AUTO 34011G16KT 6SM -RA FEW015 SCT085 OVC110 19/12 A2995 RMK AO2 PK WND 35026/2309 RAB44 SLP109 P0003 60003 T01890117 10283 20189 55004,KAAT,2023-06-05T23:55:00Z,41.48,-120.57,18.9,11.7,340,11,16,6.0,29.949802,1010.9,,TRUE,TRUE,,,,,,-RA,FEW,1500,SCT,8500,OVC,11000,,,VFR,-0.4,28.3,18.9,,,0.03,,0.03,,,,METAR,1336.0
KAAS 052355Z AUTO 06006KT 10SM CLR 26/14 A2996 RMK AO1,KAAS,2023-06-05T23:55:00Z,37.35,-85.32,26.0,14.0,60,6,,10.0,29.958662,,,TRUE,TRUE,,,,,,,CLR,,,,,,,,VFR,,,,,,,,,,,,METAR,270.0
KAAA 052355Z AUTO 06005KT 10SM 28/07 A2999 RMK AO2 T02800067 10291 20273,KAAA,2023-06-05T23:55:00Z,40.17,-89.33,28.0,6.7,60,5,,10.0,29.991142,,,TRUE,TRUE,,,,,,,,,,,,,,,,,29.1,27.3,,,,,,,,,METAR,179.0
KA39 052355Z AUTO 20016G23KT 10SM CLR 39/M08 A2971 RMK AO2,KA39,2023-06-05T23:55:00Z,32.98,-111.92,39.0,-8.0,200,16,23,10.0,29.71063,,,TRUE,TRUE,,,,,,,CLR,,,,,,,,VFR,,,,,,,,,,,,METAR,391.0
K9V9 052355Z AUTO 00000KT 10SM SCT085 31/12 A3000 RMK AO2 T03070116 10323 20292,K9V9,2023-06-05T23:55:00Z,43.77,-99.32,30.7,11.6,0,0,,10.0,30.0,,,TRUE,TRUE,,,,,,,SCT,8500,,,,,,,VFR,,32.3,29.2,,,,,,,,,METAR,511.0
K9MN 052355Z AUTO 02006KT 10SM CLR 28/11 A3005 RMK AO1 T02800113 10301 20280,K9MN,2023-06-05T23:55:00Z,44.02,-92.48,28.0,11.3,20,6,,10.0,30.050198,,,TRUE,TRUE,,,,,,,CLR,,,,,,,,VFR,,30.1,28.0,,,,,,,,,METAR,308.0
K9L2 052355Z AUTO 21023G32KT 10SM FEW310 FEW350 21/04 A2973 RMK AO2 PK WND 24034/29 SLP052 T02120038 10330 20206 52005,K9L2,2023-06-05T23:55:00Z,34.98,-117.87,21.2,3.8,210,23,32,10.0,29.731298,1005.2,,TRUE,TRUE,,,,,,,FEW,31000,FEW,35000,,,,,VFR,0.5,33.0,20.6,,,,,,,,,METAR,697.0
K9A5 052355Z AUTO 00000KT 10SM CLR 26/19 A2990 RMK AO2 T02570190 10298 20257,K9A5,2023-06-05T23:55:00Z,34.68,-85.28,25.7,19.0,0,0,,10.0,29.899607,,,TRUE,TRUE,,,,,,,CLR,,,,,,,,VFR,,29.8,25.7,,,,,,,,,METAR,234.0
K8T6 052355Z AUTO 12005KT 10SM CLR 29/21 A2984 RMK AO2,K8T6,2023-06-05T23:55:00Z,28.37,-98.12,29.0,21.0,120,5,,10.0,29.840551,,,TRUE,TRUE,,,,,,,CLR,,,,,,,,VFR,,,,,,,,,,,,METAR,39.0
K8A0 052355Z AUTO 20003KT 10SM CLR 26/18 A2994 RMK AO2,K8A0,2023-06-05T23:55:00Z,34.23,-86.25,26.0,18.0,200,3,,10.0,29.940945,,,TRUE,TRUE,,,,,,,CLR,,,,,,,,VFR,,,,,,,,,,,,METAR,313.0
K82V 052355Z AUTO 16014KT 10SM 21/10 A3016 RMK AO2,K82V,2023-06-05T23:55:00Z,41.15,-104.13,21.0,10.0,160,14,,10.0,30.159449,,,TRUE,TRUE,,,,,,,,,,,,,,,,,,,,,,,,,,,METAR,1563.0
K81R 052355Z AUTO 35009KT 10SM SCT120 25/18 A2994 RMK AO2 T02520179 10290 20239 402900181,K81R,2023-06-05T23:55:00Z,31.23,-98.72,25.2,17.9,350,9,,10.0,29.940945,,,TRUE,TRUE,,,,,,,SCT,12000,,,,,,,VFR,,29.0,23.9,29.0,18.1,,,,,,,METAR,381.0
K7BM 052355Z AUTO 14007KT 7SM -TSRA SCT026 BKN041 OVC048 09/05 A3038 RMK AO2 LTG DSNT S AND SW,K7BM,2023-06-05T23:55:00Z,38.78,-106.22,9.0,5.0,140,7,,7.0,30.380905,,,TRUE,TRUE,,,,,,-TSRA,SCT,2600,BKN,4100,OVC,4800,,,VFR,,,,,,,,,,,,METAR,2996.0
K6S8 052355Z AUTO 10009KT 10SM 26/14 A2996 RMK A01 LAUREL,K6S8,2023-06-05T23:55:00Z,45.7,-108.77,26.0,14.0,100,9,,10.0,29.958662,,,TRUE,TRUE,,,,,,,,,,,,,,,,,,,,,,,,,,,METAR,1072.0
K6S0 052355Z AUTO 10007G16KT 10SM CLR 25/13 A3000 RMK A01,K6S0,2023-06-05T23:55:00Z,45.8,-109.97,25.0,13.0,100,7,16,10.0,30.0,,,TRUE,TRUE,,,,,,,CLR,,,,,,,,VFR,,,,,,,,,,,,METAR,1364.0
K6R3 052355Z AUTO 30006KT 10SM TS SCT075 25/21 A2991 RMK AO2 LTG DSNT W THRU E T02470205 10322 20247,K6R3,2023-06-05T23:55:00Z,30.35,-95.0,24.7,20.5,300,6,,10.0,29.911417,,,TRUE,TRUE,,,,,,TS,SCT,7500,,,,,,,VFR,,32.2,24.7,,,,,,,,,METAR,44.0
K6P9 052355Z AUTO 35006KT 10SM CLR 24/17 A2995 RMK AO2 T02410167 10275 20235,K6P9,2023-06-05T23:55:00Z,32.43,-98.6,24.1,16.7,350,6,,10.0,29.949802,,,TRUE,TRUE,,,,,,,CLR,,,,,,,,VFR,,27.5,23.5,,,,,,,,,METAR,451.0
K6I2 052355Z AUTO 02005KT 10SM CLR 25/14 A2994 RMK AO2,K6I2,2023-06-05T23:55:00Z,37.63,-85.25,25.0,14.0,20,5,,10.0,29.940945,,,TRUE,TRUE,,,,,,,CLR,,,,,,,,VFR,,,,,,,,,,,,METAR,258.0
K6B0 052355Z AUTO 00000KT 10SM CLR 17/05 A2981 RMK AO2 T01690046 10208 20169,K6B0,2023-06-05T23:55:00Z,43.98,-73.1,16.9,4.6,0,0,,10.0,29.811024,,,TRUE,TRUE,,,,,,,CLR,,,,,,,,VFR,,20.8,16.9,,,,,,,,,METAR,149.0
K6A2 052355Z AUTO 00000KT 10SM CLR 25/17 A2995 RMK AO2,K6A2,2023-06-05T23:55:00Z,33.23,-84.27,25.0,17.0,0,0,,10.0,29.949802,,,TRUE,TRUE,,,,,,,CLR,,,,,,,,VFR,,,,,,,,,,,,METAR,290.0
K6A1 052355Z AUTO 07004KT 10SM CLR 28/16 A2995 RMK AO2 T02750163 10296 20258,K6A1,2023-06-05T23:55:00Z,32.57,-84.25,27.5,16.3,70,4,,10.0,29.949802,,,TRUE,TRUE,,,,,,,CLR,,,,,,,,VFR,,29.6,25.8,,,,,,,,,METAR,198.0
K66R 052355Z AUTO 00000KT 10SM -RA SCT048 SCT070 OVC110 20/19 A2990 RMK AO2 LTG DSNT NE E AND SW P0053 60066 T02030192 10295 20200,K66R,2023-06-05T23:55:00Z,29.65,-96.52,20.3,19.2,0,0,,10.0,29.899607,,,TRUE,TRUE,,,,,,-RA,SCT,4800,SCT,7000,OVC,11000,,,VFR,,29.5,20.0,,,0.53,,0.66,,,,METAR,70.0
K65S 052355Z AUTO 20006G11KT 10SM CLR 26/06 A2991 RMK AO2,K65S,2023-06-05T23:55:00Z,48.73,-116.3,26.0,6.0,200,6,11,10.0,29.911417,,,TRUE,TRUE,,,,,,,CLR,,,,,,,,VFR,,,,,,,,,,,,METAR,708.0
K63S 052355Z AUTO VRB05KT 10SM CLR 28/M04 A2993 RMK A01,K63S,2023-06-05T23:55:00Z,48.53,-117.88,28.0,-4.0,0,5,,10.0,29.929134,,,TRUE,TRUE,,,,,,,CLR,,,,,,,,VFR,,,,,,,,,,,,METAR,571.0
K5T9 052355Z AUTO 00000KT 10SM FEW080 FEW095 SCT120 31/19 A2983 RMK A01,K5T9,2023-06-05T23:55:00Z,28.85,-100.52,31.0,19.0,0,0,,10.0,29.828741,,,TRUE,TRUE,,,,,,,FEW,8000,FEW,9500,SCT,12000,,,VFR,,,,,,,,,,,,METAR,269.0
K5SM 052355Z AUTO 12003KT 10SM OVC090 09/M01 A3042 RMK AO2 LTG DSNT SE AND S,K5SM,2023-06-05T23:55:00Z,39.43,-107.38,9.0,-1.0,120,3,,10.0,30.41929,,,TRUE,TRUE,,,,,,,OVC,9000,,,,,,,VFR,,,,,,,,,,,,METAR,3229.0
K5R8 052355Z AUTO 00000KT 10SM SCT120 22/20 A2990 RMK AO2 T02150201 10306 20215,K5R8,2023-06-05T23:55:00Z,30.43,-93.47,21.5,20.1,0,0,,10.0,29.899607,,,TRUE,TRUE,,,,,,,SCT,12000,,,,,,,VFR,,30.6,21.5,,,,,,,,,METAR,26.0
K5C1 052355Z AUTO 05010G20KT 10SM BKN060 OVC070 27/16 A2991 RMK AO1,K5C1,2023-06-05T23:55:00Z,29.72,-98.7,27.0,16.0,50,10,20,10.0,29.911417,,,TRUE,TRUE,,,,,,,BKN,6000,OVC,7000,,,,,VFR,,,,,,,,,,,,METAR,422.0
K54A 052355Z AUTO 06012KT 10SM BKN055 BKN065 29/17 A2985 RMK AO2,K54A,2023-06-05T23:55:00Z,26.85,-82.25,29.0,17.0,60,12,,10.0,29.84941,,,TRUE,TRUE,,,,,,,BKN,5500,BKN,6500,,,,,VFR,,,,,,,,,,,,METAR,2.0
K4V1 052355Z AUTO 07003KT 10SM SCT028 SCT041 OVC070 16/13 A3023 RMK AO2 T01570127 10380 21232,K4V1,2023-06-05T23:55:00Z,37.7,-104.78,15.7,12.7,70,3,,10.0,30.230314,,,TRUE,TRUE,,,,,,,SCT,2800,SCT,4100,OVC,7000,,,VFR,,38.0,-23.2,,,,,,,,,METAR,1847.0
K4V0 052355Z AUTO 00000KT 10SM CLR 25/01 A3002 RMK AO2 T02510014 10282 20226,K4V0,2023-06-05T23:55:00Z,40.1,-108.77,25.1,1.4,0,0,,10.0,30.02067,,,TRUE,TRUE,,,,,,,CLR,,,,,,,,VFR,,28.2,22.6,,,,,,,,,METAR,1602.0
K4U6 052355Z AUTO 12015KT 10SM 29/13 A2991 RMK A01 Circle ,K4U6,2023-06-05T23:55:00Z,47.42,-105.57,29.0,13.0,120,15,,10.0,29.911417,,,TRUE,TRUE,,,,,,,,,,,,,,,,,,,,,,,,,,,METAR,739.0
K4S1 052355Z AUTO 35013G23KT CLR 17/08 A2978 RMK AO2 PWINO,K4S1,2023-06-05T23:55:00Z,42.42,-124.42,17.0,8.0,350,13,23,,29.778543,,,TRUE,TRUE,,,,,TRUE,,CLR,,,,,,,,,,,,,,,,,,,,METAR,7.0
K4MR 052355Z AUTO 09013KT 10SM FEW050 BKN090 22/15 A3007 RMK AO2 LTG DSNT N AND W SLP112 T02210150 10246 20203 55007 $,K4MR,2023-06-05T23:55:00Z,34.3,-103.8,22.1,15.0,90,13,,10.0,30.070866,1011.2,,TRUE,TRUE,TRUE,,,,,,FEW,5000,BKN,9000,,,,,VFR,-0.7,24.6,20.3,,,,,,,,,METAR,1339.0
K4I3 052355Z AUTO 00000KT 10SM CLR 20/08 A3000 RMK AO2,K4I3,2023-06-05T23:55:00Z,40.33,-82.53,20.0,8.0,0,0,,10.0,30.0,,,TRUE,TRUE,,,,,,,CLR,,,,,,,,VFR,,,,,,,,,,,,METAR,361.0
K4F2 052355Z AUTO 00000KT 10SM CLR 29/20 A2987 RMK AO2 LTG DSNT SW T02950204 10311 20263 403110187,K4F2,2023-06-05T23:55:00Z,32.18,-94.3,29.5,20.4,0,0,,10.0,29.870079,,,TRUE,TRUE,,,,,,,CLR,,,,,,,,VFR,,31.1,26.3,31.1,18.7,,,,,,,METAR,76.0
K4BM 052355Z AUTO 07004KT 10SM SCT040 OVC047 05/02 A3049 RMK AO2 LTG DSNT S,K4BM,2023-06-05T23:55:00Z,39.05,-105.52,5.0,2.0,70,4,,10.0,30.490158,,,TRUE,TRUE,,,,,,,SCT,4000,OVC,4700,,,,,VFR,,,,,,,,,,,,METAR,3432.0
K4A9 052355Z AUTO 21003KT 10SM CLR 27/20 A2991 RMK AO2 T02680195 10309 20266 403090155,K4A9,2023-06-05T23:55:00Z,34.47,-85.72,26.8,19.5,210,3,,10.0,29.911417,,,TRUE,TRUE,,,,,,,CLR,,,,,,,,VFR,,30.9,26.6,30.9,15.5,,,,,,,METAR,273.0
K49A 052355Z AUTO 00000KT 10SM CLR 25/20 A2994 RMK AO2,K49A,2023-06-05T23:55:00Z,34.63,-84.53,25.0,20.0,0,0,,10.0,29.940945,,,TRUE,TRUE,,,,,,,CLR,,,,,,,,VFR,,,,,,,,,,,,METAR,449.0
K48A 052355Z AUTO 29005KT 10SM SCT120 28/17 A2993 RMK AO2 T02760165 10300 20263 403000158,K48A,2023-06-05T23:55:00Z,32.4,-83.27,27.6,16.5,290,5,,10.0,29.929134,,,TRUE,TRUE,,,,,,,SCT,12000,,,,,,,VFR,,30.0,26.3,30.0,15.8,,,,,,,METAR,115.0
K46U 052355Z AUTO 36005KT 10SM BKN095 BKN110 23/05 A3004 RMK A01,K46U,2023-06-05T23:55:00Z,43.18,-111.05,23.0,5.0,360,5,,10.0,30.041338,,,TRUE,TRUE,,,,,,,BKN,9500,BKN,11000,,,,,VFR,,,,,,,,,,,,METAR,1718.0
K40U 052355Z AUTO 30015G19KT 10SM SCT080 BKN100 BKN120 20/07 A3013 RMK AO2 T01970075 10235 20171 402350041,K40U,2023-06-05T23:55:00Z,40.98,-109.68,19.7,7.5,300,15,19,10.0,30.129921,,,TRUE,TRUE,,,,,,,SCT,8000,BKN,10000,BKN,12000,,,VFR,,23.5,17.1,23.5,4.1,,,,,,,METAR,1882.0
K3S8 052355Z AUTO 33014G20KT 10SM CLR 29/06 A2985 RMK AO2,K3S8,2023-06-05T23:55:00Z,42.5,-123.4,29.0,6.0,330,14,20,10.0,29.84941,,,TRUE,TRUE,,,,,,,CLR,,,,,,,,VFR,,,,,,,,,,,,METAR,339.0
K3N8 052355Z AUTO 14007KT 10SM CLR 26/18 A3005 RMK AO2 T02560175 10274 20240,K3N8,2023-06-05T23:55:00Z,47.25,-95.92,25.6,17.5,140,7,,10.0,30.050198,,,TRUE,TRUE,,,,,,,CLR,,,,,,,,VFR,,27.4,24.0,,,,,,,,,METAR,379.0
K3LF 052355Z AUTO 03003KT 10SM CLR 25/05 A3000 RMK AO2 T02520048 10276 20252,K3LF,2023-06-05T23:55:00Z,39.17,-89.67,25.2,4.8,30,3,,10.0,30.0,,,TRUE,TRUE,,,,,,,CLR,,,,,,,,VFR,,27.6,25.2,,,,,,,,,METAR,207.0
K3K3 052355Z AUTO 22005KT 10SM CLR 24/12 A3010 RMK AO2,K3K3,2023-06-05T23:55:00Z,38.0,-101.75,24.0,12.0,220,5,,10.0,30.100393,,,TRUE,TRUE,,,,,,,CLR,,,,,,,,VFR,,,,,,,,,,,,METAR,1010.0
K3F3 052355Z AUTO 00000KT 10SM CLR 30/20 A2990 RMK AO2 LTG DSNT E THRU SW T03000204 10315 20278,K3F3,2023-06-05T23:55:00Z,32.07,-93.77,30.0,20.4,0,0,,10.0,29.899607,,,TRUE,TRUE,,,,,,,CLR,,,,,,,,VFR,,31.5,27.8,,,,,,,,,METAR,96.0
K33V 052355Z AUTO 36009G16KT 10SM CLR 16/04 A3025 RMK AO1,K33V,2023-06-05T23:55:00Z,40.75,-106.28,16.0,4.0,360,9,16,10.0,30.250984,,,TRUE,TRUE,,,,,,,CLR,,,,,,,,VFR,,,,,,,,,,,,METAR,2486.0
K33N 052355Z AUTO VRB04KT 10SM BKN080 BKN085 22/09 A2983 RMK A01,K33N,2023-06-05T23:55:00Z,39.22,-75.6,22.0,9.0,0,4,,10.0,29.828741,,,TRUE,TRUE,,,,,,,BKN,8000,BKN,8500,,,,,VFR,,,,,,,,,,,,METAR,17.0
K2V5 052355Z AUTO 17007KT 10SM CLR 25/07 A3011 RMK AO2,K2V5,2023-06-05T23:55:00Z,40.1,-102.25,25.0,7.0,170,7,,10.0,30.109253,,,TRUE,TRUE,,,,,,,CLR,,,,,,,,VFR,,,,,,,,,,,,METAR,1117.0
K2R9 052355Z AUTO 09009KT 10SM CLR 28/21 A2987 RMK AO2 LTG DSNT N AND NE 10308 20278 403080199,K2R9,2023-06-05T23:55:00Z,28.82,-97.87,28.0,21.0,90,9,,10.0,29.870079,,,TRUE,TRUE,,,,,,,CLR,,,,,,,,VFR,,30.8,27.8,30.8,19.9,,,,,,,METAR,88.0
K2M2 052355Z AUTO 00000KT 10SM CLR 28/19 A2991 RMK A01,K2M2,2023-06-05T23:55:00Z,35.23,-87.25,28.0,19.0,0,0,,10.0,29.911417,,,TRUE,TRUE,,,,,,,CLR,,,,,,,,VFR,,,,,,,,,,,,METAR,286.0
K2J5 052355Z AUTO 00000KT 10SM CLR 25/18 A2993 RMK AO2 T02550178 10279 20252 402790142,K2J5,2023-06-05T23:55:00Z,32.9,-81.97,25.5,17.8,0,0,,10.0,29.929134,,,TRUE,TRUE,,,,,,,CLR,,,,,,,,VFR,,27.9,25.2,27.9,14.2,,,,,,,METAR,72.0
K2I0 052355Z AUTO 00000KT 10SM CLR 30/10 A2991 RMK AO2 T02980100 10321 20298,K2I0,2023-06-05T23:55:00Z,37.35,-87.4,29.8,10.0,0,0,,10.0,29.911417,,,TRUE,TRUE,,,,,,,CLR,,,,,,,,VFR,,32.1,29.8,,,,,,,,,METAR,127.0
K2G9 052355Z AUTO 29010KT 10SM CLR 17/04 A2997 RMK AO2,K2G9,2023-06-05T23:55:00Z,40.03,-79.02,17.0,4.0,290,10,,10.0,29.970472,,,TRUE,TRUE,,,,,,,CLR,,,,,,,,VFR,,,,,,,,,,,,METAR,677.0
K2G2 052355Z AUTO 00000KT 10SM 20/06 A2997 RMK A01,K2G2,2023-06-05T23:55:00Z,40.37,-80.7,20.0,6.0,0,0,,10.0,29.970472,,,TRUE,TRUE,,,,,,,,,,,,,,,,,,,,,,,,,,,METAR,365.0
K2DP 052355Z AUTO 13004KT 10SM CLR 19/17 A2989 RMK AO2 SLPNO 60000 T01860166 10227 20186 53008 $,K2DP,2023-06-05T23:55:00Z,35.68,-75.9,18.6,16.6,130,4,,10.0,29.890747,,,TRUE,TRUE,TRUE,,,,,,CLR,,,,,,,,VFR,0.8,22.7,18.6,,,,,0.005,,,,METAR,1.0
K2A0 052355Z AUTO 15004KT 10SM CLR 25/21 A2989 RMK A01,K2A0,2023-06-05T23:55:00Z,35.48,-84.93,25.0,21.0,150,4,,10.0,29.890747,,,TRUE,TRUE,,,,,,,CLR,,,,,,,,VFR,,,,,,,,,,,,METAR,219.0
K22N 052355Z AUTO 00000KT 10SM CLR 18/05 A2987 RMK AO2,K22N,2023-06-05T23:55:00Z,40.8,-75.77,18.0,5.0,0,0,,10.0,29.870079,,,TRUE,TRUE,,,,,,,CLR,,,,,,,,VFR,,,,,,,,,,,,METAR,159.0
K21D 052355Z AUTO 00000KT 10SM SCT110 27/16 A3005 RMK AO2,K21D,2023-06-05T23:55:00Z,45.0,-92.85,27.0,16.0,0,0,,10.0,30.050198,,,TRUE,TRUE,,,,,,,SCT,11000,,,,,,,VFR,,,,,,,,,,,,METAR,281.0
K20V 052355Z AUTO 09010G15KT 10SM SCT110 17/06 A3021 RMK AO2,K20V,2023-06-05T23:55:00Z,40.05,-106.37,17.0,6.0,90,10,15,10.0,30.209646,,,TRUE,TRUE,,,,,,,SCT,11000,,,,,,,VFR,,,,,,,,,,,,METAR,2259.0
K1YT 052355Z AUTO 36006KT 10SM CLR 32/M12 A2986 RMK AO2 SLP106 T03201124 10320 20252 57018 $,K1YT,2023-06-05T23:55:00Z,46.67,-120.45,32.0,-12.4,360,6,,10.0,29.861221,1010.6,,TRUE,TRUE,TRUE,,,,,,CLR,,,,,,,,VFR,-1.8,32.0,25.2,,,,,,,,,METAR,423.0
K1V6 052355Z AUTO 29010G18KT 10SM OVC034 18/12 A3020 RMK AO2 LTG DSNT ALQS,K1V6,2023-06-05T23:55:00Z,38.43,-105.1,18.0,12.0,290,10,18,10.0,30.200787,,,TRUE,TRUE,,,,,,,OVC,3400,,,,,,,VFR,,,,,,,,,,,,METAR,1658.0
K1U7 052355Z AUTO 19020G30KT 10SM CLR 18/10 A3008 RMK A01,K1U7,2023-06-05T23:55:00Z,42.25,-111.33,18.0,10.0,190,20,30,10.0,30.079725,,,TRUE,TRUE,,,,,,,CLR,,,,,,,,VFR,,,,,,,,,,,,METAR,1808.0
K1R8 052355Z AUTO 21003KT 10SM BKN019 BKN023 BKN031 25/22 A2991 RMK AO2,K1R8,2023-06-05T23:55:00Z,30.87,-87.82,25.0,22.0,210,3,,10.0,29.911417,,,TRUE,TRUE,,,,,,,BKN,1900,BKN,2300,BKN,3100,,,MVFR,,,,,,,,,,,,METAR,76.0
K1OW 052355Z AUTO 15016KT 10SM FEW043 SCT055 BKN075 BKN090 19/11 A3026 RMK AO2 LTG DSNT S SLP205 T01940114 10209 20179 57007 $,K1OW,2023-06-05T23:55:00Z,40.88,-104.0,19.4,11.4,150,16,,10.0,30.259842,1020.5,,TRUE,TRUE,TRUE,,,,,,FEW,4300,SCT,5500,BKN,7500,BKN,9000,VFR,-0.7,20.9,17.9,,,,,,,,,METAR,1650.0
K1ON 052355Z AUTO 20009KT 10SM CLR 31/17 A2997 RMK AO2 LTG DSNT NW-N AND SE SLP147 T03070167 10324 20299 57009 $,K1ON,2023-06-05T23:55:00Z,,,30.7,16.7,200,9,,10.0,29.970472,1014.7,,TRUE,TRUE,TRUE,,,,,,CLR,,,,,,,,VFR,-0.9,32.4,29.9,,,,,,,,,METAR,
K1OM 052355Z AUTO 15013KT 10SM CLR 26/15 A2990 RMK AO2 LTG DSNT NW SLP101 T02590147 10269 20247 58008 $,K1OM,2023-06-05T23:55:00Z,47.33,-108.93,25.9,14.7,150,13,,10.0,29.899607,1010.1,,TRUE,TRUE,TRUE,,,,,,CLR,,,,,,,,VFR,-0.8,26.9,24.7,,,,,,,,,METAR,1088.0
K1NW 052355Z AUTO 16015G19KT 10SM M 22/13 A3011 RMK AO2 LTG DSNT SW SLP152 T02220133 10231 20200 57008 $,K1NW,2023-06-05T23:55:00Z,40.63,-103.83,22.2,13.3,160,15,19,10.0,30.109253,1015.2,,TRUE,TRUE,TRUE,,,,,,,,,,,,,,,-0.8,23.1,20.0,,,,,,,,,METAR,1461.0
K1NN 052355Z AUTO 14010KT 10SM CLR 29/18 A2998 RMK AO2 LTG DSNT N SLP147 T02920180 10315 20289 57008 $,K1NN,2023-06-05T23:55:00Z,,,29.2,18.0,140,10,,10.0,29.97933,1014.7,,TRUE,TRUE,TRUE,,,,,,CLR,,,,,,,,VFR,-0.8,31.5,28.9,,,,,,,,,METAR,
K1MW 052355Z AUTO 15013KT 10SM FEW060 22/12 A3011 RMK AO2 SLP164 T02180121 10235 20202 56007 $,K1MW,2023-06-05T23:55:00Z,40.7,-103.48,21.8,12.1,150,13,,10.0,30.109253,1016.4,,TRUE,TRUE,TRUE,,,,,,FEW,6000,,,,,,,VFR,-0.7,23.5,20.2,,,,,,,,,METAR,1338.0
K1MN 052355Z AUTO 15011KT 10SM BKN130 30/17 A2997 RMK AO2 LTG DSNT NW SLP144 T02950166 10310 20282 57009 $,K1MN,2023-06-05T23:55:00Z,,,29.5,16.6,150,11,,10.0,29.970472,1014.4,,TRUE,TRUE,TRUE,,,,,,BKN,13000,,,,,,,VFR,-0.9,31.0,28.2,,,,,,,,,METAR,
K1MM 052355Z AUTO 23009KT 10SM CLR 26/11 A2993 RMK AO2 LTG DSNT N SLP109 T02570111 10263 20232 57011 $,K1MM,2023-06-05T23:55:00Z,47.02,-109.63,25.7,11.1,230,9,,10.0,29.929134,1010.9,,TRUE,TRUE,TRUE,,,,,,CLR,,,,,,,,VFR,-1.1,26.3,23.2,,,,,,,,,METAR,1256.0
K1M5 052355Z AUTO 00000KT 10SM CLR 27/16 A2990 RMK A01,K1M5,2023-06-05T23:55:00Z,36.6,-86.48,27.0,16.0,0,0,,10.0,29.899607,,,TRUE,TRUE,,,,,,,CLR,,,,,,,,VFR,,,,,,,,,,,,METAR,239.0
K1LN 052355Z AUTO 19012KT 10SM CLR 30/15 A2998 RMK AO2 LTG DSNT NE SLP145 T03000149 10311 20291 57011 $,K1LN,2023-06-05T23:55:00Z,,,30.0,14.9,190,12,,10.0,29.97933,1014.5,,TRUE,TRUE,TRUE,,,,,,CLR,,,,,,,,VFR,-1.1,31.1,29.1,,,,,,,,,METAR,
K1LM 052355Z AUTO 16010KT 10SM CLR 23/13 A2997 RMK AO2 SLP117 T02340133 10238 20202 57012 $,K1LM,2023-06-05T23:55:00Z,46.7,-109.73,23.4,13.3,160,10,,10.0,29.970472,1011.7,,TRUE,TRUE,TRUE,,,,,,CLR,,,,,,,,VFR,-1.2,23.8,20.2,,,,,,,,,METAR,1417.0
K1KW 052355Z AUTO 16013G20KT 10SM SCT055 22/11 M RMK AO2 SLPNO T02220110 10235 20201 $,K1KW,2023-06-05T23:55:00Z,41.13,-103.48,22.2,11.0,160,13,20,10.0,,,,TRUE,TRUE,TRUE,,,,,,SCT,5500,,,,,,,VFR,,23.5,20.1,,,,,,,,,METAR,1443.0
K1JW 052355Z AUTO 15013KT 10SM FEW060 23/10 M RMK AO2 SLPNO T02250096 10230 20203 $,K1JW,2023-06-05T23:55:00Z,40.97,-103.2,22.5,9.6,150,13,,10.0,,,,TRUE,TRUE,TRUE,,,,,,FEW,6000,,,,,,,VFR,,23.0,20.3,,,,,,,,,METAR,1382.0
K1JN 052355Z AUTO 17007KT 10SM SCT120 29/18 A2999 RMK AO2 SLP149 T02860177 10289 20266 57009 $,K1JN,2023-06-05T23:55:00Z,,,28.6,17.7,170,7,,10.0,29.991142,1014.9,,TRUE,TRUE,TRUE,,,,,,SCT,12000,,,,,,,VFR,-0.9,28.9,26.6,,,,,,,,,METAR,
K1JM 052355Z AUTO 25009KT 10SM SCT050 BKN110 22/13 A2992 RMK AO2 LTG DSNT S SLP122 T02220133 10252 20222 58003 $,K1JM,2023-06-05T23:55:00Z,47.75,-111.55,22.2,13.3,250,9,,10.0,29.920275,1012.2,,TRUE,TRUE,TRUE,,,,,,SCT,5000,BKN,11000,,,,,VFR,-0.3,25.2,22.2,,,,,,,,,METAR,1154.0
K1IW 052355Z AUTO 19009KT 10SM FEW070 M M RMK AO2 SLPNO $,K1IW,2023-06-05T23:55:00Z,41.05,-102.87,,,190,9,,10.0,,,,TRUE,TRUE,TRUE,,,,,,FEW,7000,,,,,,,VFR,,,,,,,,,,,,METAR,1294.0
K1IN 052355Z AUTO 17009KT 10SM FEW060 SCT095 28/18 A2999 RMK AO2 SLP150 T02770178 10291 20269 57011 $,K1IN,2023-06-05T23:55:00Z,,,27.7,17.8,170,9,,10.0,29.991142,1015.0,,TRUE,TRUE,TRUE,,,,,,FEW,6000,SCT,9500,,,,,VFR,-1.1,29.1,26.9,,,,,,,,,METAR,
K1IM 052355Z AUTO 27009KT 10SM VCTS BKN090 OVC120 21/16 A2991 RMK AO2 SLP117 60000 T02140159 10261 20212 55002 $,K1IM,2023-06-05T23:55:00Z,47.32,-111.47,21.4,15.9,270,9,,10.0,29.911417,1011.7,,TRUE,TRUE,TRUE,,,,,VCTS,BKN,9000,OVC,12000,,,,,VFR,-0.2,26.1,21.2,,,,,0.005,,,,METAR,1110.0
K1HW 052355Z AUTO 13011KT 10SM CLR 23/12 A3009 RMK AO2 SLP159 T02320122 10242 20216 57009 $,K1HW,2023-06-05T23:55:00Z,41.32,-102.83,23.2,12.2,130,11,,10.0,30.088583,1015.9,,TRUE,TRUE,TRUE,,,,,,CLR,,,,,,,,VFR,-0.9,24.2,21.6,,,,,,,,,METAR,1265.0
K1HN 052355Z AUTO 15010KT 10SM CLR 28/18 A2997 RMK AO2 SLP148 T02820180 10302 20278 57009 $,K1HN,2023-06-05T23:55:00Z,,,28.2,18.0,150,10,,10.0,29.970472,1014.8,,TRUE,TRUE,TRUE,,,,,,CLR,,,,,,,,VFR,-0.9,30.2,27.8,,,,,,,,,METAR,
K1HM 052355Z AUTO 27008KT 10SM CLR 22/12 A2994 RMK AO2 LTG DSNT S SLP125 T02190124 10246 20204 50000 $,K1HM,2023-06-05T23:55:00Z,47.7,-111.95,21.9,12.4,270,8,,10.0,29.940945,1012.5,,TRUE,TRUE,TRUE,,,,,,CLR,,,,,,,,VFR,0.0,24.6,20.4,,,,,,,,,METAR,1181.0
K1H2 052355Z AUTO 00000KT 10SM CLR 26/03 A2998 RMK AO2 T02600030 10281 20256,K1H2,2023-06-05T23:55:00Z,39.07,-88.53,26.0,3.0,0,0,,10.0,29.97933,,,TRUE,TRUE,,,,,,,CLR,,,,,,,,VFR,,28.1,25.6,,,,,,,,,METAR,174.0
K1GN 052355Z AUTO 19010KT 10SM OVC001 29/17 A2998 RMK AO2 SLP153 T02880173 10299 20272 $,K1GN,2023-06-05T23:55:00Z,,,28.8,17.3,190,10,,10.0,29.97933,1015.3,,TRUE,TRUE,TRUE,,,,,,OVC,100,,,,,,,LIFR,,29.9,27.2,,,,,,,,,METAR,
K1GM 052355Z AUTO 28009KT 10SM VCTS SCT080 18/12 M RMK AO2 SLPNO T01820115 10232 20182 $,K1GM,2023-06-05T23:55:00Z,47.33,-112.1,18.2,11.5,280,9,,10.0,,,,TRUE,TRUE,TRUE,,,,,VCTS,SCT,8000,,,,,,,VFR,,23.2,18.2,,,,,,,,,METAR,1317.0
K1FW 052355Z AUTO 00000KT 10SM FEW055 22/11 A3012 RMK AO2 SLP160 T02200105 10236 20207 56008 $,K1FW,2023-06-05T23:55:00Z,41.37,-103.48,22.0,10.5,0,0,,10.0,30.121063,1016.0,,TRUE,TRUE,TRUE,,,,,,FEW,5500,,,,,,,VFR,-0.8,23.6,20.7,,,,,,,,,METAR,1451.0
K1FM 052355Z AUTO 28010KT 10SM BKN100 19/10 A2999 RMK AO2 LTG DSNT SE SLP137 T01870103 10239 20187 50002 $,K1FM,2023-06-05T23:55:00Z,47.6,-112.32,18.7,10.3,280,10,,10.0,29.991142,1013.7,,TRUE,TRUE,TRUE,,,,,,BKN,10000,,,,,,,VFR,0.2,23.9,18.7,,,,,,,,,METAR,1344.0
K1F0 052355Z AUTO 08004KT 10SM CLR 25/21 A2993 RMK AO2 T02550211 10311 20234 403110189 60004,K1F0,2023-06-05T23:55:00Z,34.15,-97.12,25.5,21.1,80,4,,10.0,29.929134,,,TRUE,TRUE,,,,,,,CLR,,,,,,,,VFR,,31.1,23.4,31.1,18.9,,,0.04,,,,METAR,256.0
K1EW 052355Z AUTO 15013KT 10SM FEW047 SCT060 20/10 A3013 RMK AO2 SLP162 T02030104 10217 20189 57007 $,K1EW,2023-06-05T23:55:00Z,41.12,-103.98,20.3,10.4,150,13,,10.0,30.129921,1016.2,,TRUE,TRUE,TRUE,,,,,,FEW,4700,SCT,6000,,,,,VFR,-0.7,21.7,18.9,,,,,,,,,METAR,1609.0
K1EN 052355Z AUTO 16008KT 10SM FEW170 27/17 A2980 RMK AO2 LTG DSNT E SLP091 T02700169 10298 20265 57008 $,K1EN,2023-06-05T23:55:00Z,,,27.0,16.9,160,8,,10.0,29.799213,1009.1,,TRUE,TRUE,TRUE,,,,,,FEW,17000,,,,,,,VFR,-0.8,29.8,26.5,,,,,,,,,METAR,
K1EM 052355Z AUTO 02007KT 10SM FEW049 FEW095 22/18 A2993 RMK AO2 LTG DSNT N-NE RAE46 SLP118 P0008 60009 T02220177 10270 20209 55005 $,K1EM,2023-06-05T23:55:00Z,47.45,-109.42,22.2,17.7,20,7,,10.0,29.929134,1011.8,,TRUE,TRUE,TRUE,,,,,,FEW,4900,FEW,9500,,,,,VFR,-0.5,27.0,20.9,,,0.08,,0.09,,,,METAR,1118.0
K1DW 052355Z AUTO 17015G20KT 10SM FEW055 22/09 A3015 RMK AO2 SLP171 T02210086 10228 20198 57009 $,K1DW,2023-06-05T23:55:00Z,41.37,-103.8,22.1,8.6,170,15,20,10.0,30.15059,1017.1,,TRUE,TRUE,TRUE,,,,,,FEW,5500,,,,,,,VFR,-0.9,22.8,19.8,,,,,,,,,METAR,1539.0
K1DN 052355Z AUTO 21008KT 10SM CLR 29/15 A2856 RMK AO2 LTG DSNT SE SLP659 T02850154 10294 20268 56007 $,K1DN,2023-06-05T23:55:00Z,,,28.5,15.4,210,8,,10.0,28.559055,965.9,,TRUE,TRUE,TRUE,,,,,,CLR,,,,,,,,VFR,-0.7,29.4,26.8,,,,,,,,,METAR,
K1DM 052355Z AUTO 29006KT 10SM CLR 25/15 A2993 RMK AO2 LTG DSNT NE SLP118 T02500147 10264 20235 57007 $,K1DM,2023-06-05T23:55:00Z,47.37,-109.8,25.0,14.7,290,6,,10.0,29.929134,1011.8,,TRUE,TRUE,TRUE,,,,,,CLR,,,,,,,,VFR,-0.7,26.4,23.5,,,,,,,,,METAR,1093.0
K1D8 052355Z AUTO 09010KT 10SM FEW090 27/16 A3000 RMK AO2,K1D8,2023-06-05T23:55:00Z,,,27.0,16.0,90,10,,10.0,30.0,,,TRUE,TRUE,,,,,,,FEW,9000,,,,,,,VFR,,,,,,,,,,,,METAR,
K1CW 052355Z AUTO 14013KT 10SM FEW060 23/09 A3012 RMK AO2 SLP162 T02320088 10243 20219 57009 $,K1CW,2023-06-05T23:55:00Z,41.58,-103.57,23.2,8.8,140,13,,10.0,30.121063,1016.2,,TRUE,TRUE,TRUE,,,,,,FEW,6000,,,,,,,VFR,-0.9,24.3,21.9,,,,,,,,,METAR,1370.0
K1CN 052355Z AUTO 09006KT 10SM VCTS CLR 29/17 A3000 RMK AO2 SLP153 T02940169 10312 20281 56006 $,K1CN,2023-06-05T23:55:00Z,,,29.4,16.9,90,6,,10.0,30.0,1015.3,,TRUE,TRUE,TRUE,,,,,VCTS,CLR,,,,,,,,VFR,-0.6,31.2,28.1,,,,,,,,,METAR,
K1CM 052355Z AUTO 07004KT 10SM FEW130 23/12 A2996 RMK AO2 SLP119 60007 T02340124 10234 20160 57015 $,K1CM,2023-06-05T23:55:00Z,47.1,-110.17,23.4,12.4,70,4,,10.0,29.958662,1011.9,,TRUE,TRUE,TRUE,,,,,,FEW,13000,,,,,,,VFR,-1.5,23.4,16.0,,,,,0.07,,,,METAR,1338.0
K1BW 052355Z AUTO 15015G20KT 10SM CLR 21/09 A3018 RMK AO2 SLP180 T02060092 10218 20194 57008 $,K1BW,2023-06-05T23:55:00Z,41.52,-104.0,20.6,9.2,150,15,20,10.0,30.180119,1018.0,,TRUE,TRUE,TRUE,,,,,,CLR,,,,,,,,VFR,-0.8,21.8,19.4,,,,,,,,,METAR,1606.0
K1BN 052355Z AUTO 20011G19KT 10SM CLR 26/15 A2999 RMK AO2 LTG DSNT S SLP151 T02640151 10304 20264 57009 $,K1BN,2023-06-05T23:55:00Z,,,26.4,15.1,200,11,19,10.0,29.991142,1015.1,,TRUE,TRUE,TRUE,,,,,,CLR,,,,,,,,VFR,-0.9,30.4,26.4,,,,,,,,,METAR,
K1AN 052355Z AUTO 16007KT 10SM SCT110 29/18 A2993 RMK AO2 LTG DSNT SW SLP148 T02910176 10317 20289 56009 $,K1AN,2023-06-05T23:55:00Z,,,29.1,17.6,160,7,,10.0,29.929134,1014.8,,TRUE,TRUE,TRUE,,,,,,SCT,11000,,,,,,,VFR,-0.9,31.7,28.9,,,,,,,,,METAR,
K1AM 052355Z AUTO 09004KT 10SM CLR 24/12 A2992 RMK AO2 LTG DSNT SW-W SLP111 60002 T02370117 10237 20186 57017 $,K1AM,2023-06-05T23:55:00Z,47.28,-110.8,23.7,11.7,90,4,,10.0,29.920275,1011.1,,TRUE,TRUE,TRUE,,,,,,CLR,,,,,,,,VFR,-1.7,23.7,18.6,,,,,0.02,,,,METAR,1228.0
K1A9 052355Z AUTO 00000KT 10SM CLR 28/17 A2990 RMK AO2 T02800174 10309 20280,K1A9,2023-06-05T23:55:00Z,32.43,-86.52,28.0,17.4,0,0,,10.0,29.899607,,,TRUE,TRUE,,,,,,,CLR,,,,,,,,VFR,,30.9,28.0,,,,,,,,,METAR,65.0
K1A6 052355Z AUTO 36003KT 10SM CLR 26/15 A2992 RMK AO2 T02560150 10294 20256,K1A6,2023-06-05T23:55:00Z,36.62,-83.73,25.6,15.0,360,3,,10.0,29.920275,,,TRUE,TRUE,,,,,,,CLR,,,,,,,,VFR,,29.4,25.6,,,,,,,,,METAR,348.0
K18H 052355Z AUTO VRB04KT 9SM CLR 27/21 A2987 RMK A01,K18H,2023-06-05T23:55:00Z,26.13,-92.03,27.0,21.0,0,4,,9.0,29.870079,,,TRUE,TRUE,,,,,,,CLR,,,,,,,,VFR,,,,,,,,,,,,METAR,30.0
K18A 052355Z AUTO 18004KT 10SM CLR 25/19 A2998 RMK AO2 T02530191 10274 20246 402740150,K18A,2023-06-05T23:55:00Z,34.35,-83.13,25.3,19.1,180,4,,10.0,29.97933,,,TRUE,TRUE,,,,,,,CLR,,,,,,,,VFR,,27.4,24.6,27.4,15.0,,,,,,,METAR,260.0
K17J 052355Z AUTO 00000KT 10SM CLR 28/16 A2991 RMK AO2 T02800164 10296 20265 402960177,K17J,2023-06-05T23:55:00Z,31.0,-84.87,28.0,16.4,0,0,,10.0,29.911417,,,TRUE,TRUE,,,,,,,CLR,,,,,,,,VFR,,29.6,26.5,29.6,17.7,,,,,,,METAR,42.0
K14Y 052355Z AUTO 10005KT 10SM SCT100 SCT120 25/17 A3006 RMK AO2,K14Y,2023-06-05T23:55:00Z,45.9,-94.87,25.0,17.0,100,5,,10.0,30.059055,,,TRUE,TRUE,,,,,,,SCT,10000,SCT,12000,,,,,VFR,,,,,,,,,,,,METAR,404.0
K13K 052355Z AUTO 02014G18KT 10SM SCT090 21/16 A3003 RMK AO2 LTG DSNT N AND SW T02130163 10303 20211 403030166,K13K,2023-06-05T23:55:00Z,37.85,-96.3,21.3,16.3,20,14,18,10.0,30.029528,,,TRUE,TRUE,,,,,,,SCT,9000,,,,,,,VFR,,30.3,21.1,30.3,16.6,,,,,,,METAR,367.0
K11R 052355Z AUTO 13006KT 10SM -VCTSRA SCT047 BKN050 22/20 A2990 RMK AO2 LTG DSNT NE THRU SE P0001 60001 T02230200 10312 20223,K11R,2023-06-05T23:55:00Z,30.22,-96.37,22.3,20.0,130,6,,10.0,29.899607,,,TRUE,TRUE,,,,,,VCTS -RA,SCT,4700,BKN,5000,,,,,VFR,,31.2,22.3,,,0.01,,0.01,,,,METAR,87.0
K0R0 052355Z AUTO 00000KT A2997 RMK AO2 PWINO TSNO,K0R0,2023-06-05T23:55:00Z,31.3,-89.82,,,0,0,,,29.970472,,,TRUE,TRUE,,,TRUE,,TRUE,,,,,,,,,,,,,,,,,,,,,,METAR,76.0
K0F2 052355Z AUTO 10SM SCT120 27/17 A2993 RMK AO2 60001 T02650172 10287 20213,K0F2,2023-06-05T23:55:00Z,33.6,-97.78,26.5,17.2,,,,10.0,29.929134,,,TRUE,TRUE,,,,,,,SCT,12000,,,,,,,VFR,,28.7,21.3,,,,,0.01,,,,METAR,330.0
K0A9 052355Z AUTO 00000KT 8SM CLR 24/12 A2992 RMK AO2,K0A9,2023-06-05T23:55:00Z,36.37,-82.17,24.0,12.0,0,0,,8.0,29.920275,,,TRUE,TRUE,,,,,,,CLR,,,,,,,,VFR,,,,,,,,,,,,METAR,479.0
K0A0 052355Z AUTO VRB04G10KT 10SM CLR 30/00 A2998 RMK AO2 LTG DSNT N,K0A0,2023-06-05T23:55:00Z,32.98,-106.97,30.0,0.0,0,4,10,10.0,29.97933,,,TRUE,TRUE,,,,,,,CLR,,,,,,,,VFR,,,,,,,,,,,,METAR,1401.0
K06C 052355Z AUTO 06005KT 10SM CLR 26/11 A3001 RMK AO2 T02620113 10291 20262,K06C,2023-06-05T23:55:00Z,41.98,-88.1,26.2,11.3,60,5,,10.0,30.008858,,,TRUE,TRUE,,,,,,,CLR,,,,,,,,VFR,,29.1,26.2,,,,,,,,,METAR,243.0
K04V 052355Z AUTO 08013G16KT 10SM VCTS SCT100 17/06 A3025 RMK AO2 LTG DSNT N S AND SW,K04V,2023-06-05T23:55:00Z,38.1,-106.17,17.0,6.0,80,13,16,10.0,30.250984,,,TRUE,TRUE,,,,,,VCTS,SCT,10000,,,,,,,VFR,,,,,,,,,,,,METAR,2389.0
ETOU 052355Z AUTO 05003KT 9999 CLR 18/18 A3005 RMK AO2 SLP177 T01810179 10239 20176 53005 $,ETOU,2023-06-05T23:55:00Z,50.03,8.32,18.1,17.9,50,3,,6.21,30.050198,1017.7,,TRUE,TRUE,TRUE,,,,,,CLR,,,,,,,,VFR,0.5,23.9,17.6,,,,,,,,,METAR,141.0
ETIK 052355Z AUTO 00000KT 9999 CLR 09/07 A3006 RMK AO2 SLP180 T00920070 10201 20092 50001 $,ETIK,2023-06-05T23:55:00Z,49.47,10.38,9.2,7.0,0,0,,6.21,30.059055,1018.0,,TRUE,TRUE,TRUE,,,,,,CLR,,,,,,,,VFR,0.1,20.1,9.2,,,,,,,,,METAR,326.0
ETIH 052355Z AUTO 32003KT 9999 OVC019 12/09 A3004 RMK AO2 OVC V BKN SLP171 T01200087 10173 20118 57008 $,ETIH,2023-06-05T23:55:00Z,49.22,11.83,12.0,8.7,320,3,,6.21,30.041338,1017.1,,TRUE,TRUE,TRUE,,,,,,OVC,1900,,,,,,,MVFR,-0.8,17.3,11.8,,,,,,,,,METAR,436.0
ETEB 052355Z AUTO 03004KT 9999 CLR 13/08 A3005 RMK AO2 SLP187 60000 T01280083 10180 20126 56004 $,ETEB,2023-06-05T23:55:00Z,49.32,10.63,12.8,8.3,30,4,,6.21,30.050198,1018.7,,TRUE,TRUE,TRUE,,,,,,CLR,,,,,,,,VFR,-0.4,18.0,12.6,,,,,0.005,,,,METAR,466.0
ETAR 052355Z AUTO 00000KT 9999 CLR 08/07 A3003 RMK AO2 SLP172 T00760065 10232 20072 55000 $,ETAR,2023-06-05T23:55:00Z,49.43,7.58,7.6,6.5,0,0,,6.21,30.029528,1017.2,,TRUE,TRUE,TRUE,,,,,,CLR,,,,,,,,VFR,0.0,23.2,7.2,,,,,,,,,METAR,231.0
ETAD 052355Z AUTO 04006KT 9999 CLR 16/05 A3005 RMK AO2 SLP163 T01620046 10220 20156 50002 $,ETAD,2023-06-05T23:55:00Z,49.98,6.7,16.2,4.6,40,6,,6.21,30.050198,1016.3,,TRUE,TRUE,TRUE,,,,,,CLR,,,,,,,,VFR,0.2,22.0,15.6,,,,,,,,,METAR,365.0
EHWO 052355Z AUTO 03008KT 340V070 9999 NCD 12/09 Q1021 BLU,EHWO,2023-06-05T23:55:00Z,51.45,4.33,12.0,9.0,30,8,,6.21,30.147638,,,TRUE,,,,,,,,CLR,,,,,,,,VFR,,,,,,,,,,,,METAR,15.0
EHVL 052355Z AUTO 02014KT 9999 OVC016 11/08 Q1023 WHT,EHVL,2023-06-05T23:55:00Z,53.28,5.08,11.0,8.0,20,14,,6.21,30.206694,,,TRUE,,,,,,,,OVC,1600,,,,,,,MVFR,,,,,,,,,,,,METAR,2.0
EHVK 052355Z AUTO 01005KT 340V040 9999 NCD 13/10 Q1020 BLU,EHVK,2023-06-05T23:55:00Z,51.65,5.7,13.0,10.0,10,5,,6.21,30.11811,,,TRUE,,,,,,,,CLR,,,,,,,,VFR,,,,,,,,,,,,METAR,20.0
EHSC 052355Z AUTO 03018KT 9999 ///////// 13/10 Q1023 W14/H12,EHSC,2023-06-05T23:55:00Z,51.93,3.67,13.0,10.0,30,18,,6.21,30.206694,,,TRUE,,,,,,,,,,,,,,,,,,,,,,,,,,,,METAR,19.0
EHSA 052355Z AUTO 02018KT 9999 ///////// 12/08 Q1022 W12/H12,EHSA,2023-06-05T23:55:00Z,52.0,3.28,12.0,8.0,20,18,,6.21,30.177166,,,TRUE,,,,,,,,,,,,,,,,,,,,,,,,,,,,METAR,18.0
EHRD 052355Z AUTO 02006KT 350V050 9999 NCD 11/09 Q1022 NOSIG,EHRD,2023-06-05T23:55:00Z,51.95,4.45,11.0,9.0,20,6,,6.21,30.177166,,,TRUE,,,TRUE,,,,,CLR,,,,,,,,VFR,,,,,,,,,,,,METAR,-4.0
EHPG 052355Z AUTO 04016KT 9999 SCT016 12/08 Q1023,EHPG,2023-06-05T23:55:00Z,52.37,3.35,12.0,8.0,40,16,,6.21,30.206694,,,TRUE,,,,,,,,SCT,1600,,,,,,,VFR,,,,,,,,,,,,METAR,24.0
EHMG 052355Z AUTO 04018KT 9999 BKN014 OVC016 12/08 Q1024,EHMG,2023-06-05T23:55:00Z,53.62,4.97,12.0,8.0,40,18,,6.21,30.236221,,,TRUE,,,,,,,,BKN,1400,OVC,1600,,,,,MVFR,,,,,,,,,,,,METAR,30.0
EHMA 052355Z AUTO 02013KT 9999 FEW014 11/08 Q1023,EHMA,2023-06-05T23:55:00Z,53.5,5.95,11.0,8.0,20,13,,6.21,30.206694,,,TRUE,,,,,,,,FEW,1400,,,,,,,VFR,,,,,,,,,,,,METAR,27.0
EHLW 052355Z AUTO 03005KT 9999 FEW015 07/06 Q1023 BLU,EHLW,2023-06-05T23:55:00Z,53.22,5.75,7.0,6.0,30,5,,6.21,30.206694,,,TRUE,,,,,,,,FEW,1500,,,,,,,VFR,,,,,,,,,,,,METAR,1.0
EHLE 052355Z AUTO 03008KT 9999 NCD 10/08 Q1022,EHLE,2023-06-05T23:55:00Z,52.45,5.52,10.0,8.0,30,8,,6.21,30.177166,,,TRUE,,,,,,,,CLR,,,,,,,,VFR,,,,,,,,,,,,METAR,-3.0
EHKV 052355Z AUTO 04019KT 9999 SCT014 OVC016 12/08 Q1024,EHKV,2023-06-05T23:55:00Z,53.27,3.63,12.0,8.0,40,19,,6.21,30.236221,,,TRUE,,,,,,,,SCT,1400,OVC,1600,,,,,MVFR,,,,,,,,,,,,METAR,28.0
EHJR 052355Z AUTO 05019KT //// // ///////// 12/08 Q1024 RE// W13/H14,EHJR,2023-06-05T23:55:00Z,53.22,3.22,12.0,8.0,50,19,,,30.236221,,,TRUE,,,,,,,,,,,,,,,,,,,,,,,,,,,,METAR,31.0
EHJA 052355Z AUTO 04015KT 360V070 9999 BKN009/// OVC010/// 11/08 Q1025,EHJA,2023-06-05T23:55:00Z,53.82,2.95,11.0,8.0,40,15,,6.21,30.265747,,,TRUE,,,,,,,,BKN,900,OVC,1000,,,,,IFR,,,,,,,,,,,,METAR,34.0
EHHW 052355Z AUTO 04013KT 360V070 9999 OVC011/// 11/08 Q1022,EHHW,2023-06-05T23:55:00Z,54.03,6.03,11.0,8.0,40,13,,6.21,30.177166,,,TRUE,,,,,,,,OVC,1100,,,,,,,MVFR,,,,,,,,,,,,METAR,10.0
EHGR 052355Z AUTO 01009KT 330V050 9999 NCD 12/09 Q1021 BLU,EHGR,2023-06-05T23:55:00Z,51.55,4.93,12.0,9.0,10,9,,6.21,30.147638,,,TRUE,,,,,,,,CLR,,,,,,,,VFR,,,,,,,,,,,,METAR,12.0
EHGG 052355Z AUTO 01004KT 340V040 9999 NCD 10/08 Q1022,EHGG,2023-06-05T23:55:00Z,53.12,6.57,10.0,8.0,10,4,,6.21,30.177166,,,TRUE,,,,,,,,CLR,,,,,,,,VFR,,,,,,,,,,,,METAR,2.0
EHFS 052355Z AUTO 01011KT 330V050 9999 NCD 12/10 Q1021,EHFS,2023-06-05T23:55:00Z,51.45,3.6,12.0,10.0,10,11,,6.21,30.147638,,,TRUE,,,,,,,,CLR,,,,,,,,VFR,,,,,,,,,,,,METAR,1.0
EHFD 052355Z AUTO VRB08KT 9999 BKN008/// OVC010/// 10/07 Q1024,EHFD,2023-06-05T23:55:00Z,54.85,4.7,10.0,7.0,0,8,,6.21,30.236221,,,TRUE,,,,,,,,BKN,800,OVC,1000,,,,,IFR,,,,,,,,,,,,METAR,24.0
EHEH 052355Z AUTO 36007KT 330V040 9999 NCD 13/10 Q1020 BLU,EHEH,2023-06-05T23:55:00Z,51.45,5.38,13.0,10.0,360,7,,6.21,30.11811,,,TRUE,,,,,,,,CLR,,,,,,,,VFR,,,,,,,,,,,,METAR,20.0
EHDV 052355Z AUTO 03016KT 360V070 9999 SCT009/// OVC010/// 11/08 Q1025,EHDV,2023-06-05T23:55:00Z,54.32,2.93,11.0,8.0,30,16,,6.21,30.265747,,,TRUE,,,,,,,,SCT,900,OVC,1000,,,,,MVFR,,,,,,,,,,,,METAR,36.0
EHDL 052355Z AUTO 01006KT 310V050 9999 NCD 11/08 Q1021 BLU,EHDL,2023-06-05T23:55:00Z,52.07,5.88,11.0,8.0,10,6,,6.21,30.147638,,,TRUE,,,,,,,,CLR,,,,,,,,VFR,,,,,,,,,,,,METAR,49.0
EHBK 052355Z AUTO 03010KT 360V060 9999 NCD 15/11 Q1019,EHBK,2023-06-05T23:55:00Z,50.92,5.77,15.0,11.0,30,10,,6.21,30.088583,,,TRUE,,,,,,,,CLR,,,,,,,,VFR,,,,,,,,,,,,METAR,112.0
EHAM 052355Z 03008KT 360V060 CAVOK 11/09 Q1022 NOSIG,EHAM,2023-06-05T23:55:00Z,52.32,4.78,11.0,9.0,30,8,,6.21,30.177166,,,,,,TRUE,,,,,CAVOK,,,,,,,,VFR,,,,,,,,,,,,METAR,-2.0
EHAK 052355Z AUTO 01013KT 330V080 9999 BKN014/// OVC017/// 10/07 Q1025,EHAK,2023-06-05T23:55:00Z,55.38,3.82,10.0,7.0,10,13,,6.21,30.265747,,,TRUE,,,,,,,,BKN,1400,OVC,1700,,,,,MVFR,,,,,,,,,,,,METAR,33.0
EGVA 052355Z AUTO 04009KT 9999 OVC020 11/08 A3023 RMK AO2 SLP241 T01090083 10161 20108 401710078 52004 FZRANO $,EGVA,2023-06-05T23:55:00Z,51.67,-1.78,10.9,8.3,40,9,,6.21,30.230314,1024.1,,TRUE,TRUE,TRUE,,,TRUE,,,OVC,2000,,,,,,,MVFR,0.4,16.1,10.8,17.1,7.8,,,,,,,METAR,84.0
EGUN 052355Z 04008KT 9999 OVC021 11/11 A3025 RMK AO2A CIG 019 RWY28 SLP247 T01130105 10128 20113 401700106 55000 $,EGUN,2023-06-05T23:55:00Z,52.37,0.48,11.3,10.5,40,8,,6.21,30.250984,1024.7,,,TRUE,TRUE,,,,,,OVC,2100,,,,,,,MVFR,0.0,12.8,11.3,17.0,10.6,,,,,,,METAR,10.0
EGUL 052355Z AUTO 06007KT 9999 OVC018 11/11 A3025 RMK AO2 SLP247 T01130108 10127 20113 401620107 55000 $,EGUL,2023-06-05T23:55:00Z,52.42,0.57,11.3,10.8,60,7,,6.21,30.250984,1024.7,,TRUE,TRUE,TRUE,,,,,,OVC,1800,,,,,,,MVFR,0.0,12.7,11.3,16.2,10.7,,,,,,,METAR,8.0
EBLB 052355Z AUTO VRB02KT 9999 NCD 12/06 Q1020 BLU,EBLB,2023-06-05T23:55:00Z,50.47,6.17,12.0,6.0,0,2,,6.21,30.11811,,,TRUE,,,,,,,,CLR,,,,,,,,VFR,,,,,,,,,,,,METAR,563.0
EBFS 052355Z AUTO 03004KT 9999 NCD 13/10 Q1019 BLU,EBFS,2023-06-05T23:55:00Z,50.23,4.65,13.0,10.0,30,4,,6.21,30.088583,,,TRUE,,,,,,,,CLR,,,,,,,,VFR,,,,,,,,,,,,METAR,276.0
EBFN 052355Z AUTO 03013KT 9999 BKN013/// 12/10 Q1022 GRN,EBFN,2023-06-05T23:55:00Z,51.08,2.65,12.0,10.0,30,13,,6.21,30.177166,,,TRUE,,,,,,,,BKN,1300,,,,,,,MVFR,,,,,,,,,,,,METAR,9.0
EBDT 052355Z AUTO 01008KT 9999 NCD 13/10 Q1020 BLU,EBDT,2023-06-05T23:55:00Z,51.02,5.07,13.0,10.0,10,8,,6.21,30.11811,,,TRUE,,,,,,,,CLR,,,,,,,,VFR,,,,,,,,,,,,METAR,25.0
EBCV 052355Z AUTO 36006KT 9999 FEW080/// BKN095/// BKN110/// 12/10 Q1020 BLU,EBCV,2023-06-05T23:55:00Z,50.57,3.82,12.0,10.0,360,6,,6.21,30.11811,,,TRUE,,,,,,,,FEW,8000,BKN,9500,BKN,11000,,,VFR,,,,,,,,,,,,METAR,56.0
EBBL 052355Z AUTO 01006KT 9999 NCD 13/11 Q1020 BLU,EBBL,2023-06-05T23:55:00Z,51.17,5.47,13.0,11.0,10,6,,6.21,30.11811,,,TRUE,,,,,,,,CLR,,,,,,,,VFR,,,,,,,,,,,,METAR,50.0
EBBE 052355Z AUTO 36005KT 9999 NCD 12/10 Q1020 BLU,EBBE,2023-06-05T23:55:00Z,50.75,4.77,12.0,10.0,360,5,,6.21,30.11811,,,TRUE,,,,,,,,CLR,,,,,,,,VFR,,,,,,,,,,,,METAR,127.0
BGTL 052355Z AUTO 33007KT 9999 CLR 01/M05 A3016 RMK AO2 SLP198 T00071047 10012 20004 50003 TSNO $,BGTL,2023-06-05T23:55:00Z,76.53,-68.75,0.7,-4.7,330,7,,6.21,30.159449,1019.8,,TRUE,TRUE,TRUE,,TRUE,,,,CLR,,,,,,,,VFR,0.3,1.2,0.4,,,,,,,,,METAR,79.0
PHOG 052354Z 03022G26KT 10SM SCT040 30/18 A3007 RMK AO2 PK WND 05028/2259 SLP186 T03000183 10306 20267 56010,PHOG,2023-06-05T23:54:00Z,20.9,-156.43,30.0,18.3,30,22,26,10.0,30.070866,1018.6,,,TRUE,,,,,,,SCT,4000,,,,,,,VFR,-1.0,30.6,26.7,,,,,,,,,METAR,14.0
PHMK 052354Z 01011G19KT 10SM FEW030 SCT043 29/19 A3009 RMK AO2 SLP191 T02890194 10300 20256 56008 $,PHMK,2023-06-05T23:54:00Z,21.15,-157.1,28.9,19.4,10,11,19,10.0,30.088583,1019.1,,,TRUE,TRUE,,,,,,FEW,3000,SCT,4300,,,,,VFR,-0.8,30.0,25.6,,,,,,,,,METAR,135.0
PGUM 052354Z 09012KT 10SM FEW015 SCT020 29/25 A2989 RMK AO2 SLP113 60003 T02890250 10289 20272 51004,PGUM,2023-06-05T23:54:00Z,13.48,144.8,28.9,25.0,90,12,,10.0,29.890747,1011.3,,,TRUE,,,,,,,FEW,1500,SCT,2000,,,,,VFR,0.4,28.9,27.2,,,,,0.03,,,,METAR,74.0
PGSN 052354Z 10015KT 10SM FEW017 SCT023 28/28 A2989 RMK AO2 RAB35E51 SLP142 P0000 60000 T02830283 10300 20272 51012,PGSN,2023-06-05T23:54:00Z,15.12,145.72,28.3,28.3,100,15,,10.0,29.890747,1014.2,,,TRUE,,,,,,,FEW,1700,SCT,2300,,,,,VFR,1.2,30.0,27.2,,,0.005,,,,,,SPECI,65.0
PAKN 052354Z 10019G30KT 10SM OVC065 14/05 A2962 RMK AO2 PK WND 09033/2259 SLP030 T01390050 10150 20117 55004,PAKN,2023-06-05T23:54:00Z,58.68,-156.65,13.9,5.0,100,19,30,10.0,29.619095,1003.0,,,TRUE,,,,,,,OVC,6500,,,,,,,VFR,-0.4,15.0,11.7,,,,,,,,,METAR,20.0
PAHN 052354Z AUTO 12012G23KT OVC038 14/08 A3010 RMK AO2 PK WND 11026/2333 SLP196 T01390083 10144 20117 53009 TSNO,PAHN,2023-06-05T23:54:00Z,59.25,-135.52,13.9,8.3,120,12,23,,30.100393,1019.6,,TRUE,TRUE,,,TRUE,,,,OVC,3800,,,,,,,,0.9,14.4,11.7,,,,,,,,,METAR,15.0
KWLD 052354Z AUTO 02009KT 10SM CLR 27/18 A3000 RMK AO2 LTG DSNT NE SLP148 T02670183 10311 20250 53002,KWLD,2023-06-05T23:54:00Z,37.17,-97.03,26.7,18.3,20,9,,10.0,30.0,1014.8,,TRUE,TRUE,,,,,,,CLR,,,,,,,,VFR,0.2,31.1,25.0,,,,,,,,,METAR,351.0
KWAL 052354Z 25004KT 10SM CLR 20/13 A2987 RMK AO2 SLP111 T02000128 10239 20200 56000,KWAL,2023-06-05T23:54:00Z,37.93,-75.47,20.0,12.8,250,4,,10.0,29.870079,1011.1,,,TRUE,,,,,,,CLR,,,,,,,,VFR,0.0,23.9,20.0,,,,,,,,,METAR,10.0
KVTA 052354Z AUTO 00000KT 9SM CLR 20/09 A2997 RMK AO2 SLP146 T02000089 10239 20200 56005,KVTA,2023-06-05T23:54:00Z,40.02,-82.47,20.0,8.9,0,0,,9.0,29.970472,1014.6,,TRUE,TRUE,,,,,,,CLR,,,,,,,,VFR,-0.5,23.9,20.0,,,,,,,,,METAR,268.0
KVSF 052354Z AUTO 07003KT 10SM BKN075 BKN100 18/09 A2979 RMK AO2 SLP089 T01780094 10211 20178 55001,KVSF,2023-06-05T23:54:00Z,43.35,-72.52,17.8,9.4,70,3,,10.0,29.790354,1008.9,,TRUE,TRUE,,,,,,,BKN,7500,BKN,10000,,,,,VFR,-0.1,21.1,17.8,,,,,,,,,METAR,176.0
KVAY 052354Z AUTO VRB03KT 10SM CLR 23/06 A2981 RMK AO2 SLP094 T02280061 10261 20228 55001 $,KVAY,2023-06-05T23:54:00Z,39.93,-74.83,22.8,6.1,0,3,,10.0,29.811024,1009.4,,TRUE,TRUE,TRUE,,,,,,CLR,,,,,,,,VFR,-0.1,26.1,22.8,,,,,,,,,METAR,15.0
KUZA 052354Z AUTO 22003KT 8SM FEW040 21/17 A2994 RMK AO2 SLP131 T02110172 10239 20211 55002,KUZA,2023-06-05T23:54:00Z,34.98,-81.05,21.1,17.2,220,3,,8.0,29.940945,1013.1,,TRUE,TRUE,,,,,,,FEW,4000,,,,,,,VFR,-0.2,23.9,21.1,,,,,,,,,METAR,198.0
KUIN 052354Z AUTO 08003KT 10SM CLR 26/09 A3000 RMK AO2 SLP154 T02610094 10272 20261 56011,KUIN,2023-06-05T23:54:00Z,39.95,-91.2,26.1,9.4,80,3,,10.0,30.0,1015.4,,TRUE,TRUE,,,,,,,CLR,,,,,,,,VFR,-1.1,27.2,26.1,,,,,,,,,METAR,233.0
KTQE 052354Z AUTO 11008KT 10SM FEW075 32/14 A2999 RMK AO2 SLP143 T03220144 10328 20294 55005,KTQE,2023-06-05T23:54:00Z,41.77,-96.18,32.2,14.4,110,8,,10.0,29.991142,1014.3,,TRUE,TRUE,,,,,,,FEW,7500,,,,,,,VFR,-0.5,32.8,29.4,,,,,,,,,METAR,312.0
KTAD 052354Z AUTO 26012KT 10SM BKN110 15/11 A3019 RMK AO2 SLP173 T01500111 10200 20150 58004,KTAD,2023-06-05T23:54:00Z,37.27,-104.33,15.0,11.1,260,12,,10.0,30.188976,1017.3,,TRUE,TRUE,,,,,,,BKN,11000,,,,,,,VFR,-0.4,20.0,15.0,,,,,,,,,METAR,1751.0
KSYR 052354Z 28008KT 6SM HZ OVC220 19/02 A2988 RMK AO2 SLP115 T01890022 10239 20183 57004,KSYR,2023-06-05T23:54:00Z,43.12,-76.1,18.9,2.2,280,8,,6.0,29.878937,1011.5,,,TRUE,,,,,,HZ,OVC,22000,,,,,,,VFR,-0.4,23.9,18.3,,,,,,,,,METAR,125.0
KSUS 052354Z 04008KT 10SM CLR 26/07 A2997 RMK AO2 SLP142 T02610072 10300 20261 55005,KSUS,2023-06-05T23:54:00Z,38.65,-90.65,26.1,7.2,40,8,,10.0,29.970472,1014.2,,,TRUE,,,,,,,CLR,,,,,,,,VFR,-0.5,30.0,26.1,,,,,,,,,METAR,140.0
KSUN 052354Z 33008KT 10SM SCT100 21/07 A3006,KSUN,2023-06-05T23:54:00Z,43.5,-114.28,21.0,7.0,330,8,,10.0,30.059055,,,,,,,,,,,SCT,10000,,,,,,,VFR,,,,,,,,,,,,METAR,1619.0
KSLC 052354Z 10015G28KT 10SM FEW100 SCT120 BKN160 BKN230 26/08 A2995 RMK AO2 PK WND 10028/2349 WSHFT 2330 LTG DSNT E SLP094 TS DSNT NE MOV N VIRGA T02610083 10311 20256 53003,KSLC,2023-06-05T23:54:00Z,40.77,-111.97,26.1,8.3,100,15,28,10.0,29.949802,1009.4,,,TRUE,,,,,,,FEW,10000,SCT,12000,BKN,16000,BKN,23000,VFR,0.3,31.1,25.6,,,,,,,,,METAR,1286.0
KSET 052354Z AUTO 08006KT 10SM CLR 27/07 A2997 RMK AO2 SLP145 T02670072 10306 20267 55006,KSET,2023-06-05T23:54:00Z,38.93,-90.43,26.7,7.2,80,6,,10.0,29.970472,1014.5,,TRUE,TRUE,,,,,,,CLR,,,,,,,,VFR,-0.6,30.6,26.7,,,,,,,,,METAR,133.0
KSBY 052354Z 27005KT 10SM CLR 22/11 A2985 RMK AO2 SLP110 T02170106 10256 20217 55001,KSBY,2023-06-05T23:54:00Z,38.33,-75.5,21.7,10.6,270,5,,10.0,29.84941,1011.0,,,TRUE,,,,,,,CLR,,,,,,,,VFR,-0.1,25.6,21.7,,,,,,,,,METAR,14.0
KSBN 052354Z 33007KT 10SM CLR 24/06 A3002 RMK AO2 SLP162 T02440056 10278 20244 56006,KSBN,2023-06-05T23:54:00Z,41.7,-86.32,24.4,5.6,330,7,,10.0,30.02067,1016.2,,,TRUE,,,,,,,CLR,,,,,,,,VFR,-0.6,27.8,24.4,,,,,,,,,METAR,236.0
KRST 052354Z 03007KT 10SM CLR 27/16 A3004 RMK AO2 SLP168 T02670156 10294 20267 55006,KRST,2023-06-05T23:54:00Z,43.9,-92.5,26.7,15.6,30,7,,10.0,30.041338,1016.8,,,TRUE,,,,,,,CLR,,,,,,,,VFR,-0.6,29.4,26.7,,,,,,,,,METAR,398.0
KRSP 052354Z AUTO VRB04KT 10SM CLR 19/07 A2993 RMK AO2 SLP131 T01890067 10283 20189 53000 $,KRSP,2023-06-05T23:54:00Z,39.65,-77.47,18.9,6.7,0,4,,10.0,29.929134,1013.1,,TRUE,TRUE,TRUE,,,,,,CLR,,,,,,,,VFR,0.0,28.3,18.9,,,,,,,,,METAR,555.0
KROC 052354Z 27006KT 6SM HZ OVC220 20/04 A2990 RMK AO2 SLP127 T02000044 10228 20200 56008,KROC,2023-06-05T23:54:00Z,43.12,-77.68,20.0,4.4,270,6,,6.0,29.899607,1012.7,,,TRUE,,,,,,HZ,OVC,22000,,,,,,,VFR,-0.8,22.8,20.0,,,,,,,,,METAR,166.0
KROA 052354Z 00000KT 10SM CLR 24/12 A2993 RMK AO2 SLP126 T02390117 10272 20239 53004,KROA,2023-06-05T23:54:00Z,37.32,-79.97,23.9,11.7,0,0,,10.0,29.929134,1012.6,,,TRUE,,,,,,,CLR,,,,,,,,VFR,0.4,27.2,23.9,,,,,,,,,METAR,349.0
KRKS 052354Z AUTO 25027G36KT 10SM SCT075 BKN090 18/06 A3015 RMK AO2 PK WND 26036/2352 LTG DSNT W AND NW SLP150 T01780061 10239 20178 53002,KRKS,2023-06-05T23:54:00Z,41.6,-109.07,17.8,6.1,250,27,36,10.0,30.15059,1015.0,,TRUE,TRUE,,,,,,,SCT,7500,BKN,9000,,,,,VFR,0.2,23.9,17.8,,,,,,,,,METAR,2062.0
KRIC 052354Z 04005KT 10SM BKN300 22/09 A2988 RMK AO2 SLP122 T02220089 10261 20222 55000,KRIC,2023-06-05T23:54:00Z,37.52,-77.32,22.2,8.9,40,5,,10.0,29.878937,1012.2,,,TRUE,,,,,,,BKN,30000,,,,,,,VFR,0.0,26.1,22.2,,,,,,,,,METAR,51.0
KRFD 052354Z 30005KT 10SM CLR 28/08 A3001 RMK AO2 SLP161 T02830078 10294 20272 56012 $,KRFD,2023-06-05T23:54:00Z,42.2,-89.1,28.3,7.8,300,5,,10.0,30.008858,1016.1,,,TRUE,TRUE,,,,,,CLR,,,,,,,,VFR,-1.2,29.4,27.2,,,,,,,,,METAR,222.0
KRDG 052354Z 35006KT 8SM CLR 22/03 A2985 RMK AO2 SLP111 T02220028 10261 20222 53002,KRDG,2023-06-05T23:54:00Z,40.37,-75.97,22.2,2.8,350,6,,8.0,29.84941,1011.1,,,TRUE,,,,,,,CLR,,,,,,,,VFR,0.2,26.1,22.2,,,,,,,,,METAR,101.0
KRBL 052354Z AUTO 01012KT 10SM CLR 35/12 A2964 RMK AO2 LTG DSNT NE AND E SLP033 T03500117 10383 20311 55010,KRBL,2023-06-05T23:54:00Z,40.15,-122.25,35.0,11.7,10,12,,10.0,29.639763,1003.3,,TRUE,TRUE,,,,,,,CLR,,,,,,,,VFR,-1.0,38.3,31.1,,,,,,,,,METAR,107.0
KPTW 052354Z AUTO 34007KT 10SM CLR 21/06 A2986 RMK AO2 SLP108 T02060056 10250 20206 53001,KPTW,2023-06-05T23:54:00Z,40.23,-75.55,20.6,5.6,340,7,,10.0,29.861221,1010.8,,TRUE,TRUE,,,,,,,CLR,,,,,,,,VFR,0.1,25.0,20.6,,,,,,,,,METAR,88.0
KPSF 052354Z AUTO 31003KT 10SM CLR 16/08 A2980 RMK AO2 SLP078 T01560078 10211 20156 52000,KPSF,2023-06-05T23:54:00Z,42.43,-73.28,15.6,7.8,310,3,,10.0,29.799213,1007.8,,TRUE,TRUE,,,,,,,CLR,,,,,,,,VFR,0.0,21.1,15.6,,,,,,,,,METAR,352.0
KPNE 052354Z 33007KT 10SM CLR 23/04 A2983 RMK AO2 SLP100 T02280039 10267 20228 53000 $,KPNE,2023-06-05T23:54:00Z,40.08,-75.02,22.8,3.9,330,7,,10.0,29.828741,1010.0,,,TRUE,TRUE,,,,,,CLR,,,,,,,,VFR,0.0,26.7,22.8,,,,,,,,,METAR,32.0
KPLN 052354Z AUTO 31004KT 6SM HZ FEW070 23/13 A3001 RMK AO2 SLP160 T02330133 10283 20233 56005,KPLN,2023-06-05T23:54:00Z,45.57,-84.8,23.3,13.3,310,4,,6.0,30.008858,1016.0,,TRUE,TRUE,,,,,,HZ,FEW,7000,,,,,,,VFR,-0.5,28.3,23.3,,,,,,,,,METAR,215.0
KPIA 052354Z 03004KT 10SM CLR 29/06 A2999 RMK AO2 SLP153 T02890056 10300 20267 56014,KPIA,2023-06-05T23:54:00Z,40.67,-89.68,28.9,5.6,30,4,,10.0,29.991142,1015.3,,,TRUE,,,,,,,CLR,,,,,,,,VFR,-1.4,30.0,26.7,,,,,,,,,METAR,200.0
KPHL 052354Z 33008KT 10SM FEW150 23/04 A2983 RMK AO2 SLP099 T02330044 10256 20233 55000,KPHL,2023-06-05T23:54:00Z,39.87,-75.23,23.3,4.4,330,8,,10.0,29.828741,1009.9,,,TRUE,,,,,,,FEW,15000,,,,,,,VFR,0.0,25.6,23.3,,,,,,,,,METAR,2.0
KPHF 052354Z 00000KT 10SM CLR 19/13 A2989 RMK AO2 SLP122 T01940133 10250 20194 53002,KPHF,2023-06-05T23:54:00Z,37.13,-76.5,19.4,13.3,0,0,,10.0,29.890747,1012.2,,,TRUE,,,,,,,CLR,,,,,,,,VFR,0.2,25.0,19.4,,,,,,,,,METAR,12.0
KORH 052354Z 34006KT 10SM FEW095 16/08 A2979 RMK AO2 SLP088 T01610083 10178 20150 50001,KORH,2023-06-05T23:54:00Z,42.27,-71.87,16.1,8.3,340,6,,10.0,29.790354,1008.8,,,TRUE,,,,,,,FEW,9500,,,,,,,VFR,0.1,17.8,15.0,,,,,,,,,METAR,306.0
KOLS 052354Z AUTO 22017G25KT 10SM CLR 33/M06 A2991 RMK AO2 SLP061 T03331061 10350 20317 56011,KOLS,2023-06-05T23:54:00Z,31.42,-110.85,33.3,-6.1,220,17,25,10.0,29.911417,1006.1,,TRUE,TRUE,,,,,,,CLR,,,,,,,,VFR,-1.1,35.0,31.7,,,,,,,,,METAR,1194.0
KOLM 052354Z 02009G15KT 10SM CLR 23/02 A3005 RMK AO2 SLP176 T02330022 10244 20183 58021,KOLM,2023-06-05T23:54:00Z,46.97,-122.9,23.3,2.2,20,9,15,10.0,30.050198,1017.6,,,TRUE,,,,,,,CLR,,,,,,,,VFR,-2.1,24.4,18.3,,,,,,,,,METAR,58.0
KOFP 052354Z AUTO 00000KT 10SM CLR 20/13 A2989 RMK AO2 SLP122 T02000128 10256 20200 58001,KOFP,2023-06-05T23:54:00Z,37.7,-77.43,20.0,12.8,0,0,,10.0,29.890747,1012.2,,TRUE,TRUE,,,,,,,CLR,,,,,,,,VFR,-0.1,25.6,20.0,,,,,,,,,METAR,63.0
KNAK 052354Z AUTO 00000KT 10SM CLR 22/14 A2986 RMK AO2 SLP112 T02220144 10228 20217 55001,KNAK,2023-06-05T23:54:00Z,38.98,-76.48,22.2,14.4,0,0,,10.0,29.861221,1011.2,,TRUE,TRUE,,,,,,,CLR,,,,,,,,VFR,-0.1,22.8,21.7,,,,,,,,,METAR,2.0
KMVL 052354Z AUTO 31004KT 10SM BKN070 19/07 A2980 RMK AO2 SLP091 T01940072 10222 20189 55003,KMVL,2023-06-05T23:54:00Z,44.53,-72.62,19.4,7.2,310,4,,10.0,29.799213,1009.1,,TRUE,TRUE,,,,,,,BKN,7000,,,,,,,VFR,-0.3,22.2,18.9,,,,,,,,,METAR,226.0
KMTP 052354Z AUTO 00000KT 15/12 A2979 RMK AO1 SLP088 T01500117 10178 20150 58003,KMTP,2023-06-05T23:54:00Z,41.07,-71.92,15.0,11.7,0,0,,,29.790354,1008.8,,TRUE,TRUE,,,,,,,,,,,,,,,,-0.3,17.8,15.0,,,,,,,,,METAR,2.0
KMRY 052354Z 07006KT 10SM OVC021 17/12 A2984 RMK AO2 SLP117 T01670117 10172 20133 55001,KMRY,2023-06-05T23:54:00Z,36.58,-121.85,16.7,11.7,70,6,,10.0,29.840551,1011.7,,,TRUE,,,,,,,OVC,2100,,,,,,,MVFR,-0.1,17.2,13.3,,,,,,,,,METAR,51.0
KMOT 052354Z 12006KT 10SM CLR 31/17 A2998 RMK AO2 LTG DSNT SE SLP143 T03060167 10317 20283 58010,KMOT,2023-06-05T23:54:00Z,48.25,-101.27,30.6,16.7,120,6,,10.0,29.97933,1014.3,,,TRUE,,,,,,,CLR,,,,,,,,VFR,-1.0,31.7,28.3,,,,,,,,,METAR,507.0
KMKC 052354Z 00000KT 10SM FEW055 SCT100 SCT120 27/16 A2998 RMK AO2 LTG DSNT N AND SE RAB24E37 SLP146 P0000 60000 T02720161 10322 20250 50008,KMKC,2023-06-05T23:54:00Z,39.12,-94.6,27.2,16.1,0,0,,10.0,29.97933,1014.6,,,TRUE,,,,,,,FEW,5500,SCT,10000,SCT,12000,,,VFR,0.8,32.2,25.0,,,0.005,,0.005,,,,METAR,228.0
KMIV 052354Z AUTO 29005KT 10SM BKN090 22/08 A2982 RMK AO2 SLP097 T02220078 10261 20222 55002,KMIV,2023-06-05T23:54:00Z,39.37,-75.08,22.2,7.8,290,5,,10.0,29.819881,1009.7,,TRUE,TRUE,,,,,,,BKN,9000,,,,,,,VFR,-0.2,26.1,22.2,,,,,,,,,METAR,18.0
KMGJ 052354Z AUTO 31008KT 10SM FEW110 19/04 A2980 RMK AO2 SLP089 T01940044 10233 20194 53004,KMGJ,2023-06-05T23:54:00Z,41.52,-74.27,19.4,4.4,310,8,,10.0,29.799213,1008.9,,TRUE,TRUE,,,,,,,FEW,11000,,,,,,,VFR,0.4,23.3,19.4,,,,,,,,,METAR,106.0
KMFI 052354Z AUTO 00000KT 4SM HZ CLR 28/16 A3002 RMK AO2 SLP160 T02780156 10294 20267 57011,KMFI,2023-06-05T23:54:00Z,44.63,-90.18,27.8,15.6,0,0,,4.0,30.02067,1016.0,,TRUE,TRUE,,,,,,HZ,CLR,,,,,,,,MVFR,-1.1,29.4,26.7,,,,,,,,,METAR,383.0
KMEM 052354Z 28004KT 10SM SCT170 OVC180 24/18 A2991 RMK AO2 SLP124 60012 T02390183 10306 20239 53002,KMEM,2023-06-05T23:54:00Z,35.07,-89.98,23.9,18.3,280,4,,10.0,29.911417,1012.4,,,TRUE,,,,,,,SCT,17000,OVC,18000,,,,,VFR,0.2,30.6,23.9,,,,,0.12,,,,METAR,78.0
KLYH 052354Z 00000KT 10SM CLR 22/13 A2990,KLYH,2023-06-05T23:54:00Z,37.32,-79.2,22.0,13.0,0,0,,10.0,29.899607,,,,,,,,,,,CLR,,,,,,,,VFR,,,,,,,,,,,,METAR,282.0
KLWT 052354Z AUTO 27009KT 10SM FEW065 26/12 A2996 RMK AO2 SLP114 T02610117 10267 20239 58008,KLWT,2023-06-05T23:54:00Z,47.05,-109.47,26.1,11.7,270,9,,10.0,29.958662,1011.4,,TRUE,TRUE,,,,,,,FEW,6500,,,,,,,VFR,-0.8,26.7,23.9,,,,,,,,,METAR,1254.0
KLWM 052354Z 00000KT 10SM SCT047 SCT055 OVC070 15/12 A2978 RMK AO2 SLP084 60003 T01500122 10167 20144 56003 $,KLWM,2023-06-05T23:54:00Z,42.72,-71.13,15.0,12.2,0,0,,10.0,29.778543,1008.4,,,TRUE,TRUE,,,,,,SCT,4700,SCT,5500,OVC,7000,,,VFR,-0.3,16.7,14.4,,,,,0.03,,,,METAR,42.0
KLNK 052354Z 17011KT 10SM CLR 29/16 A3001 RMK AO2 SLP153 60000 T02940156 10322 20267 55005,KLNK,2023-06-05T23:54:00Z,40.85,-96.77,29.4,15.6,170,11,,10.0,30.008858,1015.3,,,TRUE,,,,,,,CLR,,,,,,,,VFR,-0.5,32.2,26.7,,,,,0.005,,,,METAR,357.0
KLEX 052354Z 04007KT 10SM CLR 26/11 A2995 RMK AO2 SLP131 T02560106 10306 20256 56001,KLEX,2023-06-05T23:54:00Z,38.03,-84.6,25.6,10.6,40,7,,10.0,29.949802,1013.1,,,TRUE,,,,,,,CLR,,,,,,,,VFR,-0.1,30.6,25.6,,,,,,,,,METAR,294.0
KLAF 052354Z 05006KT 6SM HZ CLR 26/06 A2997 RMK AO2 SLP146 T02610061 10283 20250 56012,KLAF,2023-06-05T23:54:00Z,40.42,-86.93,26.1,6.1,50,6,,6.0,29.970472,1014.6,,,TRUE,,,,,,HZ,CLR,,,,,,,,VFR,-1.2,28.3,25.0,,,,,,,,,METAR,182.0
KJST 052354Z AUTO 32006KT 10SM BKN080 18/04 A2996 RMK AO2 SLP141 T01780039 10217 20178 55000,KJST,2023-06-05T23:54:00Z,40.32,-78.83,17.8,3.9,320,6,,10.0,29.958662,1014.1,,TRUE,TRUE,,,,,,,BKN,8000,,,,,,,VFR,0.0,21.7,17.8,,,,,,,,,METAR,695.0
KJAN 052354Z 10004KT 10SM SCT045 BKN120 27/20 A2991 RMK AO2 SLP124 60000 T02720200 10328 20233 53011 $,KJAN,2023-06-05T23:54:00Z,32.32,-90.08,27.2,20.0,100,4,,10.0,29.911417,1012.4,,,TRUE,TRUE,,,,,,SCT,4500,BKN,12000,,,,,VFR,1.1,32.8,23.3,,,,,0.005,,,,METAR,92.0
KIZG 052354Z AUTO 00000KT 10SM OVC080 14/11 A2978 RMK AO2 RAE24 SLP085 P0000 60000 T01440106 10172 20144 56005,KIZG,2023-06-05T23:54:00Z,43.98,-70.95,14.4,10.6,0,0,,10.0,29.778543,1008.5,,TRUE,TRUE,,,,,,,OVC,8000,,,,,,,VFR,-0.5,17.2,14.4,,,0.005,,0.005,,,,METAR,138.0
KISW 052354Z AUTO 28003KT 4SM HZ CLR 28/12 A3002 RMK AO2 SLP162 T02830122 10311 20283 58011,KISW,2023-06-05T23:54:00Z,44.37,-89.83,28.3,12.2,280,3,,4.0,30.02067,1016.2,,TRUE,TRUE,,,,,,HZ,CLR,,,,,,,,MVFR,-1.1,31.1,28.3,,,,,,,,,METAR,311.0
KIPT 052354Z 29005KT 10SM CLR 21/04 A2987 RMK AO2 SLP114 T02060039 10250 20206 55003,KIPT,2023-06-05T23:54:00Z,41.25,-76.92,20.6,3.9,290,5,,10.0,29.870079,1011.4,,,TRUE,,,,,,,CLR,,,,,,,,VFR,-0.3,25.0,20.6,,,,,,,,,METAR,160.0
KINT 052354Z 20004KT 10SM CLR 23/15 A2993 RMK AO2 SLP127 T02280150 10256 20217 55001,KINT,2023-06-05T23:54:00Z,36.13,-80.22,22.8,15.0,200,4,,10.0,29.929134,1012.7,,,TRUE,,,,,,,CLR,,,,,,,,VFR,-0.1,25.6,21.7,,,,,,,,,METAR,292.0
KINL 052354Z AUTO 07008KT 10SM CLR 25/17 A3008 RMK AO2 LTG DSNT SW AND W SLP183 T02500172 10272 20250 56002,KINL,2023-06-05T23:54:00Z,48.57,-93.4,25.0,17.2,70,8,,10.0,30.079725,1018.3,,TRUE,TRUE,,,,,,,CLR,,,,,,,,VFR,-0.2,27.2,25.0,,,,,,,,,METAR,353.0
KIND 052354Z 01005KT 7SM FEW250 25/05 A2997 RMK AO2 SLP145 T02500050 10272 20244 56009,KIND,2023-06-05T23:54:00Z,39.72,-86.27,25.0,5.0,10,5,,7.0,29.970472,1014.5,,,TRUE,,,,,,,FEW,25000,,,,,,,VFR,-0.9,27.2,24.4,,,,,,,,,METAR,242.0
KIMT 052354Z AUTO 05008KT 4SM HZ CLR 23/11 A3006 RMK AO2 SLP178 T02280111 10283 20228 58001,KIMT,2023-06-05T23:54:00Z,45.82,-88.12,22.8,11.1,50,8,,4.0,30.059055,1017.8,,TRUE,TRUE,,,,,,HZ,CLR,,,,,,,,MVFR,-0.1,28.3,22.8,,,,,,,,,SPECI,343.0
KILN 052354Z AUTO 05006KT 2 1/2SM HZ CLR 22/03 A2997 RMK AO2 SLP145 T02220028 10278 20222 55003,KILN,2023-06-05T23:54:00Z,39.43,-83.8,22.2,2.8,50,6,,2.5,29.970472,1014.5,,TRUE,TRUE,,,,,,HZ,CLR,,,,,,,,IFR,-0.3,27.8,22.2,,,,,,,,,METAR,325.0
KHWD 052354Z 26011G17KT 10SM CLR 19/12 A2980 RMK AO2 SLP101 T01940117 10211 20161 53001,KHWD,2023-06-05T23:54:00Z,37.67,-122.12,19.4,11.7,260,11,17,10.0,29.799213,1010.1,,,TRUE,,,,,,,CLR,,,,,,,,VFR,0.1,21.1,16.1,,,,,,,,,METAR,9.0
KGSO 052354Z 24007KT 10SM SCT250 22/16 A2992 RMK AO2 SLP122 T02170161 10250 20217 55000,KGSO,2023-06-05T23:54:00Z,36.1,-79.95,21.7,16.1,240,7,,10.0,29.920275,1012.2,,,TRUE,,,,,,,SCT,25000,,,,,,,VFR,0.0,25.0,21.7,,,,,,,,,METAR,275.0
KGEU 052354Z 19014G19KT 10SM SCT250 40/M11 A2963,KGEU,2023-06-05T23:54:00Z,33.53,-112.3,40.0,-11.0,190,14,19,10.0,29.630905,,,,,,,,,,,SCT,25000,,,,,,,VFR,,,,,,,,,,,,METAR,319.0
KGED 052354Z AUTO 25003KT 10SM FEW090 23/10 A2984 RMK AO2 SLP104 T02280100 10261 20228 56003,KGED,2023-06-05T23:54:00Z,38.68,-75.37,22.8,10.0,250,3,,10.0,29.840551,1010.4,,TRUE,TRUE,,,,,,,FEW,9000,,,,,,,VFR,-0.3,26.1,22.8,,,,,,,,,METAR,15.0
KGCN 052354Z 12009G16KT 10SM BKN110 26/M01 A3004 RMK AO2 SLP094 T02611006 10272 20233 56014,KGCN,2023-06-05T23:54:00Z,35.95,-112.15,26.1,-0.6,120,9,16,10.0,30.041338,1009.4,,,TRUE,,,,,,,BKN,11000,,,,,,,VFR,-1.4,27.2,23.3,,,,,,,,,METAR,1993.0
KGCK 052354Z 24004KT 10SM CLR 21/14 A3007 RMK AO2 LTG DSNT SE AND W SLP164 T02060144 10267 20200 55002,KGCK,2023-06-05T23:54:00Z,37.92,-100.72,20.6,14.4,240,4,,10.0,30.070866,1016.4,,,TRUE,,,,,,,CLR,,,,,,,,VFR,-0.2,26.7,20.0,,,,,,,,,METAR,877.0
KFZY 052354Z AUTO 28004KT 4SM HZ BKN046 16/07 A2988 RMK AO2 SLP119 T01560067 10217 20156 56008,KFZY,2023-06-05T23:54:00Z,43.35,-76.38,15.6,6.7,280,4,,4.0,29.878937,1011.9,,TRUE,TRUE,,,,,,HZ,BKN,4600,,,,,,,MVFR,-0.8,21.7,15.6,,,,,,,,,METAR,143.0
KFWA 052354Z 01005KT 8SM CLR 26/06 A2999 RMK AO2 SLP153 T02560061 10272 20244 55009,KFWA,2023-06-05T23:54:00Z,40.98,-85.2,25.6,6.1,10,5,,8.0,29.991142,1015.3,,,TRUE,,,,,,,CLR,,,,,,,,VFR,-0.9,27.2,24.4,,,,,,,,,METAR,243.0
KFIG 052354Z AUTO 33004KT 8SM CLR 18/05 A2995 RMK AO2 SLP141 T01780050 10228 20178 55000,KFIG,2023-06-05T23:54:00Z,41.05,-78.42,17.8,5.0,330,4,,8.0,29.949802,1014.1,,TRUE,TRUE,,,,,,,CLR,,,,,,,,VFR,0.0,22.8,17.8,,,,,,,,,METAR,461.0
KFFZ 052354Z 17007G18KT CLR 39/M03 A2967 RMK AO2 WSHFT 2325 SLP019 T03891033 10394 20333 56023 $,KFFZ,2023-06-05T23:54:00Z,33.47,-111.72,38.9,-3.3,170,7,18,,29.66929,1001.9,,,TRUE,TRUE,,,,,,CLR,,,,,,,,,-2.3,39.4,33.3,,,,,,,,,METAR,420.0
KEWN 052354Z 18008KT 10SM CLR 22/13 A2991 RMK AO2 SLP127 T02220133 10267 20222 53000,KEWN,2023-06-05T23:54:00Z,35.07,-77.05,22.2,13.3,180,8,,10.0,29.911417,1012.7,,,TRUE,,,,,,,CLR,,,,,,,,VFR,0.0,26.7,22.2,,,,,,,,,METAR,3.0
KEVV 052354Z 36003KT 10SM CLR 28/11 A2993 RMK AO2 SLP131 T02780111 10317 20267 55002 $,KEVV,2023-06-05T23:54:00Z,38.05,-87.52,27.8,11.1,360,3,,10.0,29.929134,1013.1,,,TRUE,TRUE,,,,,,CLR,,,,,,,,VFR,-0.2,31.7,26.7,,,,,,,,,METAR,123.0
KEUG 052354Z 02017G22KT 10SM FEW050 SCT250 29/05 A2990 RMK AO2 SLP123 CB DSNT E-SE T02890050 10294 20200 56021,KEUG,2023-06-05T23:54:00Z,44.13,-123.22,28.9,5.0,20,17,22,10.0,29.899607,1012.3,,,TRUE,,,,,,,FEW,5000,SCT,25000,,,,,VFR,-2.1,29.4,20.0,,,,,,,,,METAR,109.0
KEFD 052354Z 27004KT 10SM CLR 23/20 A2986 RMK LTG DSNT NE-NW,KEFD,2023-06-05T23:54:00Z,29.6,-95.17,23.0,20.0,270,4,,10.0,29.861221,,,,,,,,,,,CLR,,,,,,,,VFR,,,,,,,,,,,,METAR,9.0
KDYL 052354Z AUTO 33006KT 10SM CLR 22/04 A2983 RMK AO2 SLP097 T02220039 10267 20222 53002,KDYL,2023-06-05T23:54:00Z,40.33,-75.12,22.2,3.9,330,6,,10.0,29.828741,1009.7,,TRUE,TRUE,,,,,,,CLR,,,,,,,,VFR,0.2,26.7,22.2,,,,,,,,,METAR,121.0
KDSV 052354Z AUTO 00000KT 7SM CLR 20/05 A2993 RMK AO2 SLP142 T02000050 10233 20200 55002,KDSV,2023-06-05T23:54:00Z,42.57,-77.72,20.0,5.0,0,0,,7.0,29.929134,1014.2,,TRUE,TRUE,,,,,,,CLR,,,,,,,,VFR,-0.2,23.3,20.0,,,,,,,,,METAR,195.0
KDSM 052354Z 12007KT 7SM FEW200 SCT300 27/15 A3002 RMK AO2 SLP160 T02670150 10294 20267 56006,KDSM,2023-06-05T23:54:00Z,41.53,-93.67,26.7,15.0,120,7,,7.0,30.02067,1016.0,,,TRUE,,,,,,,FEW,20000,SCT,30000,,,,,VFR,-0.6,29.4,26.7,,,,,,,,,METAR,286.0
KDMH 052354Z AUTO 24/06 A2987 RMK AO1 SLP113 T02440061 10272 20244 53001,KDMH,2023-06-05T23:54:00Z,39.28,-76.62,24.4,6.1,,,,,29.870079,1011.3,,TRUE,TRUE,,,,,,,,,,,,,,,,0.1,27.2,24.4,,,,,,,,,METAR,4.0
KDEC 052354Z 04009KT 10SM CLR 27/06 A2999 RMK AO2 SLP151 T02670061 10289 20261 56010,KDEC,2023-06-05T23:54:00Z,39.83,-88.87,26.7,6.1,40,9,,10.0,29.991142,1015.1,,,TRUE,,,,,,,CLR,,,,,,,,VFR,-1.0,28.9,26.1,,,,,,,,,METAR,205.0
KDDH 052354Z AUTO 35004KT 6SM HZ CLR 18/04 A2980 RMK AO2 SLP091 T01780044 10217 20178 51003,KDDH,2023-06-05T23:54:00Z,42.9,-73.25,17.8,4.4,350,4,,6.0,29.799213,1009.1,,TRUE,TRUE,,,,,,HZ,CLR,,,,,,,,VFR,0.3,21.7,17.8,,,,,,,,,METAR,241.0
KCRW 052354Z 01003KT 10SM FEW055 OVC240 21/11 A2996 RMK AO2 SLP140 T02060106 10256 20206 50000,KCRW,2023-06-05T23:54:00Z,38.38,-81.58,20.6,10.6,10,3,,10.0,29.958662,1014.0,,,TRUE,,,,,,,FEW,5500,OVC,24000,,,,,VFR,0.0,25.6,20.6,,,,,,,,,METAR,278.0
KCOU 052354Z 05006KT 10SM CLR 26/10 A3000 RMK AO2 SLP151 T02610100 10311 20261 55002,KCOU,2023-06-05T23:54:00Z,38.82,-92.22,26.1,10.0,50,6,,10.0,30.0,1015.1,,,TRUE,,,,,,,CLR,,,,,,,,VFR,-0.2,31.1,26.1,,,,,,,,,METAR,272.0
KCOS 052354Z 14011KT 10SM VCTS -RA SCT030 BKN060CB BKN120 14/11 A3025 RMK AO2 LTG DSNT N AND S RAB40 SLP195 OCNL LTGICCG VC S TS VC S MOV NW P0000 60004 T01440111 10178 20144 58001,KCOS,2023-06-05T23:54:00Z,38.82,-104.68,14.4,11.1,140,11,,10.0,30.250984,1019.5,,,TRUE,,,,,,VCTS -RA,SCT,3000,BKN,6000,BKN,12000,,,VFR,-0.1,17.8,14.4,,,0.005,,0.04,,,,METAR,1886.0
KCEU 052354Z AUTO 00000KT 10SM CLR 23/19 A2993 RMK AO2 SLP126 T02330189 10250 20222 55002,KCEU,2023-06-05T23:54:00Z,34.67,-82.88,23.3,18.9,0,0,,10.0,29.929134,1012.6,,TRUE,TRUE,,,,,,,CLR,,,,,,,,VFR,-0.2,25.0,22.2,,,,,,,,,METAR,270.0
KCAR 052354Z AUTO 01007KT 10SM FEW015 OVC038 11/08 A2980 RMK AO2 SLP099 60000 T01060083 10122 20106 58005,KCAR,2023-06-05T23:54:00Z,46.87,-68.02,10.6,8.3,10,7,,10.0,29.799213,1009.9,,TRUE,TRUE,,,,,,,FEW,1500,OVC,3800,,,,,VFR,-0.5,12.2,10.6,,,,,0.005,,,,METAR,189.0
KBWI 052354Z 35004KT 10SM FEW010 FEW075 24/06 A2986 RMK AO2 SLP109 FU FEW010 SW HAZY SKY T02390061 10278 20239 53001,KBWI,2023-06-05T23:54:00Z,39.17,-76.68,23.9,6.1,350,4,,10.0,29.861221,1010.9,,,TRUE,,,,,,,FEW,1000,FEW,7500,,,,,VFR,0.1,27.8,23.9,,,,,,,,,METAR,42.0
KBUY 052354Z AUTO 23005KT 10SM CLR 23/16 A2991 RMK AO2 SLP122 T02280156 10267 20228 55000,KBUY,2023-06-05T23:54:00Z,36.05,-79.47,22.8,15.6,230,5,,10.0,29.911417,1012.2,,TRUE,TRUE,,,,,,,CLR,,,,,,,,VFR,0.0,26.7,22.8,,,,,,,,,METAR,185.0
KBUF 052354Z 22010KT 10SM FEW080 SCT200 17/07 A2993 RMK AO2 SLP137 FU SCT200 T01670067 10206 20167 56005,KBUF,2023-06-05T23:54:00Z,42.93,-78.73,16.7,6.7,220,10,,10.0,29.929134,1013.7,,,TRUE,,,,,,,FEW,8000,SCT,20000,,,,,VFR,-0.5,20.6,16.7,,,,,,,,,METAR,217.0
KBTV 052354Z 34006KT 9SM CLR 20/04 A2980 RMK AO2 SLP090 T02000044 10228 20200 55004,KBTV,2023-06-05T23:54:00Z,44.47,-73.15,20.0,4.4,340,6,,9.0,29.799213,1009.0,,,TRUE,,,,,,,CLR,,,,,,,,VFR,-0.4,22.8,20.0,,,,,,,,,METAR,101.0
KBOS 052354Z 35006KT 10SM FEW023 BKN055 OVC200 16/11 A2977 RMK AO2 SLP079 60002 T01610106 10161 20128 55004,KBOS,2023-06-05T23:54:00Z,42.37,-71.02,16.1,10.6,350,6,,10.0,29.769686,1007.9,,,TRUE,,,,,,,FEW,2300,BKN,5500,OVC,20000,,,VFR,-0.4,16.1,12.8,,,,,0.02,,,,METAR,4.0
KBFL 052354Z 33013KT 7SM CLR 26/12 A2971 RMK AO2 SLP054 T02560117 10283 20256 58002,KBFL,2023-06-05T23:54:00Z,35.43,-119.05,25.6,11.7,330,13,,7.0,29.71063,1005.4,,,TRUE,,,,,,,CLR,,,,,,,,VFR,-0.2,28.3,25.6,,,,,,,,,METAR,146.0
KAVP 052354Z 34008KT 5SM HZ CLR 21/03 A2987 RMK AO2 SLP110 T02060028 10244 20206 55001,KAVP,2023-06-05T23:54:00Z,41.33,-75.72,20.6,2.8,340,8,,5.0,29.870079,1011.0,,,TRUE,,,,,,HZ,CLR,,,,,,,,MVFR,-0.1,24.4,20.6,,,,,,,,,METAR,290.0
KAVL 052354Z 20006KT 10SM BKN019 BKN025 22/17 A2997 RMK AO2 LTG DSNT NE SLP128 T02220172 10278 20222 53008,KAVL,2023-06-05T23:54:00Z,35.43,-82.53,22.2,17.2,200,6,,10.0,29.970472,1012.8,,,TRUE,,,,,,,BKN,1900,BKN,2500,,,,,MVFR,0.8,27.8,22.2,,,,,,,,,METAR,646.0
KAUW 052354Z AUTO 07004KT 4SM HZ CLR 28/12 A3001 RMK AO2 SLP158 T02830122 10311 20283 56010,KAUW,2023-06-05T23:54:00Z,44.93,-89.62,28.3,12.2,70,4,,4.0,30.008858,1015.8,,TRUE,TRUE,,,,,,HZ,CLR,,,,,,,,MVFR,-1.0,31.1,28.3,,,,,,,,,METAR,367.0
KAPN 052354Z AUTO 00000KT 4SM HZ FEW045 24/12 A2998 RMK AO2 SLP152 T02440117 10267 20244 58007,KAPN,2023-06-05T23:54:00Z,45.07,-83.57,24.4,11.7,0,0,,4.0,29.97933,1015.2,,TRUE,TRUE,,,,,,HZ,FEW,4500,,,,,,,MVFR,-0.7,26.7,24.4,,,,,,,,,METAR,208.0
KAPC 052354Z 20022G28KT 10SM CLR 18/12 A2978 RMK AO2 PK WND 20029/2257 SLP075 T01780117 10206 20167 55001,KAPC,2023-06-05T23:54:00Z,38.2,-122.28,17.8,11.7,200,22,28,10.0,29.778543,1007.5,,,TRUE,,,,,,,CLR,,,,,,,,VFR,-0.1,20.6,16.7,,,,,,,,,METAR,5.0
KALO 052354Z 17005KT 8SM CLR 29/10 A3000 RMK AO2 SLP155 T02940100 10322 20278 56008,KALO,2023-06-05T23:54:00Z,42.55,-92.4,29.4,10.0,170,5,,8.0,30.0,1015.5,,,TRUE,,,,,,,CLR,,,,,,,,VFR,-0.8,32.2,27.8,,,,,,,,,METAR,264.0
KAKR 052354Z AUTO 36006KT 10SM CLR 20/06 A2998 RMK AO2 SLP150 T02000056 10233 20200 55001,KAKR,2023-06-05T23:54:00Z,41.03,-81.47,20.0,5.6,360,6,,10.0,29.97933,1015.0,,TRUE,TRUE,,,,,,,CLR,,,,,,,,VFR,-0.1,23.3,20.0,,,,,,,,,METAR,319.0
KAKQ 052354Z AUTO 00000KT 10SM CLR 21/12 A2989 RMK AO2 SLP121 T02110122 10267 20211 53003,KAKQ,2023-06-05T23:54:00Z,36.98,-77.0,21.1,12.2,0,0,,10.0,29.890747,1012.1,,TRUE,TRUE,,,,,,,CLR,,,,,,,,VFR,0.3,26.7,21.1,,,,,,,,,METAR,34.0
KAKH 052354Z AUTO 00000KT 10SM OVC038 21/18 A2993 RMK AO2 SLP132 T02110178 10239 20211 55002,KAKH,2023-06-05T23:54:00Z,35.2,-81.15,21.1,17.8,0,0,,10.0,29.929134,1013.2,,TRUE,TRUE,,,,,,,OVC,3800,,,,,,,VFR,-0.2,23.9,21.1,,,,,,,,,METAR,242.0
KACY 052354Z 00000KT 10SM BKN080 OVC095 21/10 A2981 RMK AO2 SLP095 T02060100 10256 20206 50002 $,KACY,2023-06-05T23:54:00Z,39.45,-74.57,20.6,10.0,0,0,,10.0,29.811024,1009.5,,,TRUE,TRUE,,,,,,BKN,8000,OVC,9500,,,,,VFR,0.2,25.6,20.6,,,,,,,,,METAR,18.0
KAAO 052354Z AUTO 33007KT 10SM CLR 23/14 A3001 RMK AO2 LTG DSNT SE SLP154 60002 T02280144 10311 20194 55003,KAAO,2023-06-05T23:54:00Z,37.75,-97.22,22.8,14.4,330,7,,10.0,30.008858,1015.4,,TRUE,TRUE,,,,,,,CLR,,,,,,,,VFR,-0.3,31.1,19.4,,,,,0.02,,,,METAR,429.0
K1V4 052354Z AUTO 16/09 A2978 RMK AO1 SLP080 T01610089 10194 20161 55002,K1V4,2023-06-05T23:54:00Z,44.42,-72.02,16.1,8.9,,,,,29.778543,1008.0,,TRUE,TRUE,,,,,,,,,,,,,,,,-0.2,19.4,16.1,,,,,,,,,METAR,213.0
K12N 052354Z AUTO 35004KT 21/04 A2983 RMK AO1 SLP095 T02110044 10261 20211 53003,K12N,2023-06-05T23:54:00Z,41.02,-74.73,21.1,4.4,350,4,,,29.828741,1009.5,,TRUE,TRUE,,,,,,,,,,,,,,,,0.3,26.1,21.1,,,,,,,,,METAR,178.0
EKYT 052354Z AUTO 21009KT 9999 BKN008/// 09/08 Q1020,EKYT,2023-06-05T23:54:00Z,57.1,9.87,9.0,8.0,210,9,,6.21,30.11811,,,TRUE,,,,,,,,BKN,800,,,,,,,IFR,,,,,,,,,,,,SPECI,2.0
TJNR 052353Z AUTO 19007KT 9SM OVC020 28/24 A2999 RMK AO2 SLP154 T02780244 10311 20278 53007,TJNR,2023-06-05T23:53:00Z,18.25,-65.63,27.8,24.4,190,7,,9.0,29.991142,1015.4,,TRUE,TRUE,,,,,,,OVC,2000,,,,,,,MVFR,0.7,31.1,27.8,,,,,,,,,METAR,7.0
TISX 052353Z 12006KT 10SM FEW021 SCT030 28/24 A2997 RMK AO2 SLP148 T02830244 10317 20283 53002,TISX,2023-06-05T23:53:00Z,17.7,-64.8,28.3,24.4,120,6,,10.0,29.970472,1014.8,,,TRUE,,,,,,,FEW,2100,SCT,3000,,,,,VFR,0.2,31.7,28.3,,,,,,,,,METAR,16.0
PHTO 052353Z VRB06KT 10SM CLR 27/20 A3008 RMK AO2 SLP186 T02720200 10283 20233 56009 $,PHTO,2023-06-05T23:53:00Z,19.72,-155.05,27.2,20.0,0,6,,10.0,30.079725,1018.6,,,TRUE,TRUE,,,,,,CLR,,,,,,,,VFR,-0.9,28.3,23.3,,,,,,,,,METAR,9.0
PHNL 052353Z 07011G17KT 10SM SCT033 SCT060 BKN090 29/18 A3007 RMK AO2 SLP182 T02940183 10306 20261 56008,PHNL,2023-06-05T23:53:00Z,21.33,-157.93,29.4,18.3,70,11,17,10.0,30.070866,1018.2,,,TRUE,,,,,,,SCT,3300,SCT,6000,BKN,9000,,,VFR,-0.8,30.6,26.1,,,,,,,,,METAR,2.0
PHLI 052353Z 06009KT 10SM CLR 27/21 A3011 RMK AO2 SLP194 T02720206 10272 20244 58008,PHLI,2023-06-05T23:53:00Z,21.97,-159.33,27.2,20.6,60,9,,10.0,30.109253,1019.4,,,TRUE,,,,,,,CLR,,,,,,,,VFR,-0.8,27.2,24.4,,,,,,,,,METAR,32.0
PHKO 052353Z 21007KT 10SM SCT050 BKN060 27/19 A3006 RMK AO2 SLP179 T02720194 10283 20250 57008,PHKO,2023-06-05T23:53:00Z,19.73,-156.05,27.2,19.4,210,7,,10.0,30.059055,1017.9,,,TRUE,,,,,,,SCT,5000,BKN,6000,,,,,VFR,-0.8,28.3,25.0,,,,,,,,,METAR,11.0
PHJR 052353Z 13014KT 10SM SCT060 29/21 A3008 RMK AO2 SLP192 T02940206 10300 20261 58012 $,PHJR,2023-06-05T23:53:00Z,21.32,-158.07,29.4,20.6,130,14,,10.0,30.079725,1019.2,,,TRUE,TRUE,,,,,,SCT,6000,,,,,,,VFR,-1.2,30.0,26.1,,,,,,,,,METAR,9.0
PAYA 052353Z AUTO 24009KT 10SM OVC017 10/07 A3021 RMK AO2 SLP230 T01000072 10106 20094 51012 TSNO,PAYA,2023-06-05T23:53:00Z,59.52,-139.67,10.0,7.2,240,9,,10.0,30.209646,1023.0,,TRUE,TRUE,,,TRUE,,,,OVC,1700,,,,,,,MVFR,1.2,10.6,9.4,,,,,,,,,METAR,9.0
PAWI 052353Z AUTO 25010KT 10SM BKN110 06/02 A3005 RMK AO2 SLP177 T00610017 10072 20033 50003 TSNO $,PAWI,2023-06-05T23:53:00Z,70.63,-160.02,6.1,1.7,250,10,,10.0,30.050198,1017.7,,TRUE,TRUE,TRUE,,TRUE,,,,BKN,11000,,,,,,,VFR,0.3,7.2,3.3,,,,,,,,,METAR,12.0
PAWD 052353Z AUTO 17012G19KT 10SM BKN060 11/06 A3005 RMK AO2 SLP175 T01110056 10122 20100 56005 TSNO,PAWD,2023-06-05T23:53:00Z,60.12,-149.42,11.1,5.6,170,12,19,10.0,30.050198,1017.5,,TRUE,TRUE,,,TRUE,,,,BKN,6000,,,,,,,VFR,-0.5,12.2,10.0,,,,,,,,,METAR,3.0
PAVL 052353Z AUTO 26007KT 10SM OVC085 09/02 A3000 RMK AO2 SLP159 T00940017 10094 20072 58007 TSNO $,PAVL,2023-06-05T23:53:00Z,67.73,-164.55,9.4,1.7,260,7,,10.0,30.0,1015.9,,TRUE,TRUE,TRUE,,TRUE,,,,OVC,8500,,,,,,,VFR,-0.7,9.4,7.2,,,,,,,,,METAR,6.0
PATO 052353Z AUTO 11008G19KT 070V150 10SM CLR 15/04 A3006 RMK AO2 SLP179 T01500039 10161 20122 55005 TSNO,PATO,2023-06-05T23:53:00Z,60.78,-148.85,15.0,3.9,110,8,19,10.0,30.059055,1017.9,,TRUE,TRUE,,,TRUE,,,,CLR,,,,,,,,VFR,-0.5,16.1,12.2,,,,,,,,,METAR,47.0
PATK 052353Z 25004KT 10SM CLR 21/M01 A2993 RMK AO2 SLP135 T02111011 10217 20133 56018,PATK,2023-06-05T23:53:00Z,62.32,-150.1,21.1,-1.1,250,4,,10.0,29.929134,1013.5,,,TRUE,,,,,,,CLR,,,,,,,,VFR,-1.8,21.7,13.3,,,,,,,,,METAR,107.0
PASO 052353Z AUTO 21004KT 10SM BKN045 13/08 A2993 RMK AO2 SLP135 T01280078 10144 20117 56011 TSNO,PASO,2023-06-05T23:53:00Z,59.45,-151.7,12.8,7.8,210,4,,10.0,29.929134,1013.5,,TRUE,TRUE,,,TRUE,,,,BKN,4500,,,,,,,VFR,-1.1,14.4,11.7,,,,,,,,,METAR,20.0
PASN 052353Z AUTO 09013KT OVC004 08/05 A2957 RMK AO2 SLP015 6//// T00780050 57003 TSNO $,PASN,2023-06-05T23:53:00Z,57.15,-170.22,7.8,5.0,90,13,,,29.568897,1001.5,,TRUE,TRUE,TRUE,,TRUE,,,,OVC,400,,,,,,,,-0.3,,,,,,,,,,,METAR,8.0
PASI 052353Z 23009KT 10SM SCT017 BKN039 10/06 A3028 RMK AO2 SLP255 60000 T01000061 10117 20100 53010,PASI,2023-06-05T23:53:00Z,57.03,-135.35,10.0,6.1,230,9,,10.0,30.280512,1025.5,,,TRUE,,,,,,,SCT,1700,BKN,3900,,,,,VFR,1.0,11.7,10.0,,,,,0.005,,,,METAR,2.0
PASC 052353Z 03011KT 10SM CLR 11/02 A3012 RMK AO2 SLP201 T01060022 10139 20089 56003,PASC,2023-06-05T23:53:00Z,70.2,-148.47,10.6,2.2,30,11,,10.0,30.121063,1020.1,,,TRUE,,,,,,,CLR,,,,,,,,VFR,-0.3,13.9,8.9,,,,,,,,,METAR,17.0
PAQT 052353Z AUTO 31008KT 10SM CLR 13/01 A3013 RMK AO2 SLP205 T01330006 10144 20094 $,PAQT,2023-06-05T23:53:00Z,70.22,-151.0,13.3,0.6,310,8,,10.0,30.129921,1020.5,,TRUE,TRUE,TRUE,,,,,,CLR,,,,,,,,VFR,,14.4,9.4,,,,,,,,,METAR,11.0
PAOT 052353Z 32006KT 10SM SCT046 SCT080 11/05 A2998 RMK AO2 SLP151 T01110050 10122 20067 56011,PAOT,2023-06-05T23:53:00Z,66.88,-162.6,11.1,5.0,320,6,,10.0,29.97933,1015.1,,,TRUE,,,,,,,SCT,4600,SCT,8000,,,,,VFR,-1.1,12.2,6.7,,,,,,,,,METAR,3.0
PAOR 052353Z 00000KT 10SM FEW200 22/M04 A2991 RMK AO2 SLP128 T02221039 10233 20178 56017,PAOR,2023-06-05T23:53:00Z,62.97,-141.93,22.2,-3.9,0,0,,10.0,29.911417,1012.8,,,TRUE,,,,,,,FEW,20000,,,,,,,VFR,-1.7,23.3,17.8,,,,,,,,,METAR,524.0
PAOM 052353Z 13012KT 10SM OVC050 13/04 A2988 RMK AO2 WSHFT 2328 SLP118 T01280044 10139 20100 56009,PAOM,2023-06-05T23:53:00Z,64.5,-165.43,12.8,4.4,130,12,,10.0,29.878937,1011.8,,,TRUE,,,,,,,OVC,5000,,,,,,,VFR,-0.9,13.9,10.0,,,,,,,,,METAR,6.0
PANN 052353Z AUTO 09006KT 10SM CLR 23/02 A2986 RMK AO2 SLP116 T02330022 10233 20161 57024 TSNO,PANN,2023-06-05T23:53:00Z,64.55,-149.08,23.3,2.2,90,6,,10.0,29.861221,1011.6,,TRUE,TRUE,,,TRUE,,,,CLR,,,,,,,,VFR,-2.4,23.3,16.1,,,,,,,,,METAR,110.0
PANC 052353Z 14010G17KT 10SM FEW055 SCT085 BKN130 19/01 A2993 RMK AO2 SLP136 ACSL E-S T01890006 10200 20122 56018,PANC,2023-06-05T23:53:00Z,61.17,-150.02,18.9,0.6,140,10,17,10.0,29.929134,1013.6,,,TRUE,,,,,,,FEW,5500,SCT,8500,BKN,13000,,,VFR,-1.8,20.0,12.2,,,,,,,,,METAR,39.0
PAMR 052353Z 26006KT 10SM SCT120 22/03 A2993 RMK AO2 SLP137 T02220028 10222 20133 56017,PAMR,2023-06-05T23:53:00Z,61.22,-149.85,22.2,2.8,260,6,,10.0,29.929134,1013.7,,,TRUE,,,,,,,SCT,12000,,,,,,,VFR,-1.7,22.2,13.3,,,,,,,,,METAR,43.0
PAMC 052353Z AUTO 08010G21KT 10SM FEW030 21/04 A2983 RMK AO2 SLP103 T02110044 10211 20144 58024 TSNO,PAMC,2023-06-05T23:53:00Z,62.97,-155.62,21.1,4.4,80,10,21,10.0,29.828741,1010.3,,TRUE,TRUE,,,TRUE,,,,FEW,3000,,,,,,,VFR,-2.4,21.1,14.4,,,,,,,,,METAR,101.0
PALH 052353Z AUTO 18008KT 10SM CLR 20/M01 A2994 RMK AO2 RAB22E24 SLP139 6//// T02001011 10211 20106 TSNO,PALH,2023-06-05T23:53:00Z,61.18,-149.97,20.0,-1.1,180,8,,10.0,29.940945,1013.9,,TRUE,TRUE,,,TRUE,,,,CLR,,,,,,,,VFR,,21.1,10.6,,,,,,,,,METAR,26.0
PAKW 052353Z AUTO 21009KT 10SM OVC047 13/08 A3031 RMK AO2 SLP264 T01280078 10128 20089 53000 TSNO,PAKW,2023-06-05T23:53:00Z,55.58,-133.07,12.8,7.8,210,9,,10.0,30.31004,1026.4,,TRUE,TRUE,,,TRUE,,,,OVC,4700,,,,,,,VFR,0.0,12.8,8.9,,,,,,,,,METAR,7.0
PAKV 052353Z AUTO 03008KT 10SM OVC065 19/07 A2991 RMK AO2 SLP131 T01890067 10194 20122 56021 TSNO,PAKV,2023-06-05T23:53:00Z,64.33,-158.72,18.9,6.7,30,8,,10.0,29.911417,1013.1,,TRUE,TRUE,,,TRUE,,,,OVC,6500,,,,,,,VFR,-2.1,19.4,12.2,,,,,,,,,METAR,53.0
PAKT 052353Z 11009KT 10SM OVC050 13/05 A3033 RMK AO2 SLP273 HARBOR WIND 14014KT T01330050 10139 20111 50001,PAKT,2023-06-05T23:53:00Z,55.35,-131.72,13.3,5.0,110,9,,10.0,30.33071,1027.3,,,TRUE,,,,,,,OVC,5000,,,,,,,VFR,0.1,13.9,11.1,,,,,,,,,METAR,27.0
PAJN 052353Z COR 05008KT 10SM FEW006 BKN034 OVC050 11/07 A3019 RMK AO2 RAB32E41 SLP222 P0000 60000 T01060067 10106 20089 51014,PAJN,2023-06-05T23:53:00Z,58.35,-134.55,10.6,6.7,50,8,,10.0,30.188976,1022.2,TRUE,,TRUE,,,,,,,FEW,600,BKN,3400,OVC,5000,,,VFR,1.4,10.6,8.9,,,0.005,,0.005,,,,METAR,6.0
PAIL 052353Z AUTO 11014G22KT 10SM FEW055 BKN080 OVC090 11/05 A2986 RMK AO2 PK WND 11026/2303 SLP113 T01060050 10117 20089 56008 TSNO,PAIL,2023-06-05T23:53:00Z,59.75,-154.92,10.6,5.0,110,14,22,10.0,29.861221,1011.3,,TRUE,TRUE,,,TRUE,,,,FEW,5500,BKN,8000,OVC,9000,,,VFR,-0.8,11.7,8.9,,,,,,,,,METAR,44.0
PAHO 052353Z 12005G14KT 10SM CLR 13/06 A2995 RMK AO2 SLP142 T01280056 10156 20122 56010,PAHO,2023-06-05T23:53:00Z,59.63,-151.48,12.8,5.6,120,5,14,10.0,29.949802,1014.2,,,TRUE,,,,,,,CLR,,,,,,,,VFR,-1.0,15.6,12.2,,,,,,,,,METAR,6.0
PAGY 052353Z AUTO 20016G22KT 10SM FEW044 OVC055 12/06 A3006 RMK AO2 SLP180 T01220061 10128 20111 53010 TSNO,PAGY,2023-06-05T23:53:00Z,59.47,-135.32,12.2,6.1,200,16,22,10.0,30.059055,1018.0,,TRUE,TRUE,,,TRUE,,,,FEW,4400,OVC,5500,,,,,VFR,1.0,12.8,11.1,,,,,,,,,METAR,7.0
PAFA 052353Z 08008KT 10SM FEW080 FEW120 SCT200 23/01 A2989 RMK AO2 SLP127 T02330011 10239 20172 57022,PAFA,2023-06-05T23:53:00Z,64.8,-147.87,23.3,1.1,80,8,,10.0,29.890747,1012.7,,,TRUE,,,,,,,FEW,8000,FEW,12000,SCT,20000,,,VFR,-2.2,23.9,17.2,,,,,,,,,METAR,130.0
PAEN 052353Z 10009KT 10SM CLR 20/00 A2992 RMK AO2 SLP131 T02000000 10206 20128 56020,PAEN,2023-06-05T23:53:00Z,60.57,-151.25,20.0,0.0,100,9,,10.0,29.920275,1013.1,,,TRUE,,,,,,,CLR,,,,,,,,VFR,-2.0,20.6,12.8,,,,,,,,,METAR,30.0
PAEG 052353Z AUTO 31003KT 10SM CLR 24/03 A2987 RMK AO2 SLP116 T02440028 10250 20161 56025 TSNO $,PAEG,2023-06-05T23:53:00Z,64.78,-141.15,24.4,2.8,310,3,,10.0,29.870079,1011.6,,TRUE,TRUE,TRUE,,TRUE,,,,CLR,,,,,,,,VFR,-2.5,25.0,16.1,,,,,,,,,METAR,273.0
PADQ 052353Z 09013KT 1 1/4SM RA BR OVC003 08/07 A2983 RMK AO2 SLP100 P0005 60097 T00780067 10078 20072 55005,PADQ,2023-06-05T23:53:00Z,57.75,-152.5,7.8,6.7,90,13,,1.25,29.828741,1010.0,,,TRUE,,,,,,RA BR,OVC,300,,,,,,,LIFR,-0.5,7.8,7.2,,,0.05,,0.97,,,,METAR,5.0
PADE 052353Z AUTO 04011KT 10SM BKN065 OVC085 08/04 A2994 RMK AO2 RAE30 SLP138 P0000 60001 T00830044 10094 20067 58012 TSNO $,PADE,2023-06-05T23:53:00Z,66.07,-162.77,8.3,4.4,40,11,,10.0,29.940945,1013.8,,TRUE,TRUE,TRUE,,TRUE,,,,BKN,6500,OVC,8500,,,,,VFR,-1.2,9.4,6.7,,,0.005,,0.01,,,,METAR,5.0
PACV 052353Z 24007KT 220V280 10SM BKN016 13/08 A3013 RMK AO2 SLP202 T01280078 10144 20117 51008,PACV,2023-06-05T23:53:00Z,60.5,-145.47,12.8,7.8,240,7,,10.0,30.129921,1020.2,,,TRUE,,,,,,,BKN,1600,,,,,,,MVFR,0.8,14.4,11.7,,,,,,,,,METAR,15.0
PACD 052353Z 28013KT 10SM -RA SCT007 BKN030 OVC038 08/07 A2946 RMK AO2 SLP975 P0002 60002 T00830072 10089 20078 54000,PACD,2023-06-05T23:53:00Z,55.22,-162.72,8.3,7.2,280,13,,10.0,29.459646,997.5,,,TRUE,,,,,,-RA,SCT,700,BKN,3000,OVC,3800,,,MVFR,,8.9,7.8,,,0.02,,0.02,,,,METAR,23.0
PABT 052353Z 00000KT 10SM BKN065 BKN130 18/02 A2999 RMK AO2 SLP166 T01780022 10194 20133 56021,PABT,2023-06-05T23:53:00Z,66.92,-151.52,17.8,2.2,0,0,,10.0,29.991142,1016.6,,,TRUE,,,,,,,BKN,6500,BKN,13000,,,,,VFR,-2.1,19.4,13.3,,,,,,,,,METAR,195.0
PABR 052353Z 23011KT 10SM FEW110 05/01 A3008 RMK AO2 SLP185 T00500006 10050 20028 53006 $,PABR,2023-06-05T23:53:00Z,71.28,-156.78,5.0,0.6,230,11,,10.0,30.079725,1018.5,,,TRUE,TRUE,,,,,,FEW,11000,,,,,,,VFR,0.6,5.0,2.8,,,,,,,,,METAR,6.0
PABI 052353Z 03003KT 10SM FEW050 FEW090 FEW120 FEW160 BKN200 22/02 A2993 RMK AO2 SLP138 CIG THN T02170017 10217 20144 56021,PABI,2023-06-05T23:53:00Z,64.0,-145.72,21.7,1.7,30,3,,10.0,29.929134,1013.8,,,TRUE,,,,,,,FEW,5000,FEW,9000,FEW,12000,FEW,16000,VFR,-2.1,21.7,14.4,,,,,,,,,METAR,388.0
PABE 052353Z AUTO 07013G23KT 10SM -RA OVC075 12/07 A2970 RMK AO2 SLP060 P0000 60000 T01220072 10128 20094 58019,PABE,2023-06-05T23:53:00Z,60.78,-161.83,12.2,7.2,70,13,23,10.0,29.698818,1006.0,,TRUE,TRUE,,,,,,-RA,OVC,7500,,,,,,,VFR,-1.9,12.8,9.4,,,0.005,,0.005,,,,METAR,28.0
PAAQ 052353Z 15018G21KT 10SM SCT090 23/01 A2992 RMK AO2 SLP134 T02280006 10233 20161 56015,PAAQ,2023-06-05T23:53:00Z,61.6,-149.08,22.8,0.6,150,18,21,10.0,29.920275,1013.4,,,TRUE,,,,,,,SCT,9000,,,,,,,VFR,-1.5,23.3,16.1,,,,,,,,,METAR,68.0
KZZV 052353Z AUTO 00000KT 10SM CLR 20/11 A2997 RMK AO2 SLP146 T02000106 10228 20200 57007,KZZV,2023-06-05T23:53:00Z,39.95,-81.9,20.0,10.6,0,0,,10.0,29.970472,1014.6,,TRUE,TRUE,,,,,,,CLR,,,,,,,,VFR,-0.7,22.8,20.0,,,,,,,,,METAR,268.0
KYKM 052353Z AUTO 26004KT 10SM CLR 32/M02 A2989 RMK AO2 SLP113 T03171017 10322 20261 58018,KYKM,2023-06-05T23:53:00Z,46.57,-120.53,31.7,-1.7,260,4,,10.0,29.890747,1011.3,,TRUE,TRUE,,,,,,,CLR,,,,,,,,VFR,-1.8,32.2,26.1,,,,,,,,,METAR,319.0
KYIP 052353Z 00000KT 7SM FEW070 26/09 A2997 RMK AO2 SLP143 T02560089 10267 20244 58008,KYIP,2023-06-05T23:53:00Z,42.23,-83.53,25.6,8.9,0,0,,7.0,29.970472,1014.3,,,TRUE,,,,,,,FEW,7000,,,,,,,VFR,-0.8,26.7,24.4,,,,,,,,,METAR,215.0
KXNA 052353Z 06009KT 10SM CLR 28/16 A2995 RMK AO2 LTG DSNT S SLP128 T02830161 10322 20283 55004,KXNA,2023-06-05T23:53:00Z,36.28,-94.3,28.3,16.1,60,9,,10.0,29.949802,1012.8,,,TRUE,,,,,,,CLR,,,,,,,,VFR,-0.4,32.2,28.3,,,,,,,,,METAR,390.0
KWVI 052353Z AUTO VRB04KT 10SM OVC015 14/11 A2988 RMK AO2 SLP119 T01440106 10150 20128 53004,KWVI,2023-06-05T23:53:00Z,36.93,-121.78,14.4,10.6,0,4,,10.0,29.878937,1011.9,,TRUE,TRUE,,,,,,,OVC,1500,,,,,,,MVFR,0.4,15.0,12.8,,,,,,,,,METAR,47.0
KWST 052353Z AUTO 17003KT 10SM OVC075 16/11 A2978 RMK AO2 SLP084 60000 T01560111 10194 20156 55000,KWST,2023-06-05T23:53:00Z,41.35,-71.8,15.6,11.1,170,3,,10.0,29.778543,1008.4,,TRUE,TRUE,,,,,,,OVC,7500,,,,,,,VFR,0.0,19.4,15.6,,,,,,,,,SPECI,20.0
KWRL 052353Z AUTO 10009KT 10SM CLR 26/11 A2997 RMK AO2 SLP113 T02560106 10283 20228 56008,KWRL,2023-06-05T23:53:00Z,43.97,-107.95,25.6,10.6,100,9,,10.0,29.970472,1011.3,,TRUE,TRUE,,,,,,,CLR,,,,,,,,VFR,-0.8,28.3,22.8,,,,,,,,,METAR,1281.0
KVUO 052353Z AUTO 32012G21KT 10SM CLR 27/01 A2994 RMK AO2 SLP139 T02670006 10272 20194 56020,KVUO,2023-06-05T23:53:00Z,45.62,-122.65,26.7,0.6,320,12,21,10.0,29.940945,1013.9,,TRUE,TRUE,,,,,,,CLR,,,,,,,,VFR,-2.0,27.2,19.4,,,,,,,,,METAR,7.0
KVRB 052353Z 05008KT 10SM FEW037 26/17 A2991 RMK AO2 SLP126 T02610172 10300 20261 53006,KVRB,2023-06-05T23:53:00Z,27.65,-80.42,26.1,17.2,50,8,,10.0,29.911417,1012.6,,,TRUE,,,,,,,FEW,3700,,,,,,,VFR,0.6,30.0,26.1,,,,,,,,,METAR,7.0
KVLD 052353Z 00000KT 10SM CLR 27/17 A2991 RMK AO1 SLP134 T02720172 10300 20272 55002,KVLD,2023-06-05T23:53:00Z,30.78,-83.27,27.2,17.2,0,0,,10.0,29.911417,1013.4,,,TRUE,,,,,,,CLR,,,,,,,,VFR,-0.2,30.0,27.2,,,,,,,,,METAR,59.0
KVIH 052353Z AUTO 06004KT 10SM CLR 27/08 A3000 RMK AO2 SLP147 T02670083 10311 20267 55002,KVIH,2023-06-05T23:53:00Z,38.13,-91.77,26.7,8.3,60,4,,10.0,30.0,1014.7,,TRUE,TRUE,,,,,,,CLR,,,,,,,,VFR,-0.2,31.1,26.7,,,,,,,,,METAR,342.0
KVGT 052353Z 16020G26KT 10SM CLR 37/00 A2963 RMK AO2 PK WND 17026/2324 SLP021 T03720000 10383 20333 56026,KVGT,2023-06-05T23:53:00Z,36.22,-115.2,37.2,0.0,160,20,26,10.0,29.630905,1002.1,,,TRUE,,,,,,,CLR,,,,,,,,VFR,-2.6,38.3,33.3,,,,,,,,,METAR,664.0
KVEL 052353Z AUTO 16005KT 10SM CLR 27/04 A3000 RMK AO2 SLP105 T02670039 10278 20222 57012,KVEL,2023-06-05T23:53:00Z,40.45,-109.52,26.7,3.9,160,5,,10.0,30.0,1010.5,,TRUE,TRUE,,,,,,,CLR,,,,,,,,VFR,-1.2,27.8,22.2,,,,,,,,,METAR,1604.0
KVCB 052353Z AUTO 21010G20KT 10SM CLR 27/13 A2969 RMK AO2 SLP053 T02670133 10283 20244 53003,KVCB,2023-06-05T23:53:00Z,38.38,-121.95,26.7,13.3,210,10,20,10.0,29.68996,1005.3,,TRUE,TRUE,,,,,,,CLR,,,,,,,,VFR,0.3,28.3,24.4,,,,,,,,,METAR,30.0
KUUU 052353Z AUTO 01003KT 10SM FEW075 BKN095 14/11 A2977 RMK AO2 SLP080 60000 T01440106 10178 20139 58002,KUUU,2023-06-05T23:53:00Z,41.53,-71.28,14.4,10.6,10,3,,10.0,29.769686,1008.0,,TRUE,TRUE,,,,,,,FEW,7500,BKN,9500,,,,,VFR,-0.2,17.8,13.9,,,,,0.005,,,,METAR,45.0
KUTS 052353Z AUTO 09004KT 10SM VCTS -RA FEW010 BKN049 OVC065 23/20 A2993 RMK AO2 LTG DSNT N-SE RAB36 TSE01 SLP130 P0000 60000 T02280200 10328 20228 53022,KUTS,2023-06-05T23:53:00Z,30.75,-95.58,22.8,20.0,90,4,,10.0,29.929134,1013.0,,TRUE,TRUE,,,,,,VCTS -RA,FEW,1000,BKN,4900,OVC,6500,,,VFR,2.2,32.8,22.8,,,0.005,,0.005,,,,METAR,103.0
KUNV 052353Z 33008KT 10SM SCT095 20/04 A2993,KUNV,2023-06-05T23:53:00Z,40.85,-77.83,20.0,4.0,330,8,,10.0,29.929134,,,,,,,,,,,SCT,9500,,,,,,,VFR,,,,,,,,,,,,METAR,365.0
KUNO 052353Z AUTO 03007KT 10SM CLR 26/12 A2997 RMK AO2 SLP136 T02610122 10322 20261 55002,KUNO,2023-06-05T23:53:00Z,36.88,-91.9,26.1,12.2,30,7,,10.0,29.970472,1013.6,,TRUE,TRUE,,,,,,,CLR,,,,,,,,VFR,-0.2,32.2,26.1,,,,,,,,,METAR,376.0
KUIL 052353Z AUTO 33015G24KT 10SM CLR 21/02 A3010 RMK AO2 SLP192 T02060022 10228 20178 58017,KUIL,2023-06-05T23:53:00Z,47.93,-124.55,20.6,2.2,330,15,24,10.0,30.100393,1019.2,,TRUE,TRUE,,,,,,,CLR,,,,,,,,VFR,-1.7,22.8,17.8,,,,,,,,,METAR,58.0
KUAO 052353Z 01014G22KT 10SM CLR 28/02 A2993 RMK AO2 SLP134 T02780022 10278 20206 56021,KUAO,2023-06-05T23:53:00Z,45.25,-122.77,27.8,2.2,10,14,22,10.0,29.929134,1013.4,,,TRUE,,,,,,,CLR,,,,,,,,VFR,-2.1,27.8,20.6,,,,,,,,,METAR,60.0
KTYS 052353Z COR 24006KT 10SM FEW065 SCT130 SCT250 27/19 A2989 RMK AO2 SLP110 T02670189 10300 20267 55008,KTYS,2023-06-05T23:53:00Z,35.82,-83.98,26.7,18.9,240,6,,10.0,29.890747,1011.0,TRUE,,TRUE,,,,,,,FEW,6500,SCT,13000,SCT,25000,,,VFR,-0.8,30.0,26.7,,,,,,,,,METAR,300.0
KTYR 052353Z 04006KT 10SM CLR 29/17 A2988 RMK AO2 SLP113 T02890172 10300 20267 55003,KTYR,2023-06-05T23:53:00Z,32.37,-95.4,28.9,17.2,40,6,,10.0,29.878937,1011.3,,,TRUE,,,,,,,CLR,,,,,,,,VFR,-0.3,30.0,26.7,,,,,,,,,METAR,161.0
KTXK 052353Z 26004KT 10SM CLR 32/19 A2987 RMK AO2 SLP108 T03220189 10356 20317 55002,KTXK,2023-06-05T23:53:00Z,33.45,-93.98,32.2,18.9,260,4,,10.0,29.870079,1010.8,,,TRUE,,,,,,,CLR,,,,,,,,VFR,-0.2,35.6,31.7,,,,,,,,,METAR,118.0
KTWF 052353Z 33007KT 10SM CLR 25/08 A2997 RMK AO2 SLP099 T02500078 10261 20217 58013,KTWF,2023-06-05T23:53:00Z,42.48,-114.48,25.0,7.8,330,7,,10.0,29.970472,1009.9,,,TRUE,,,,,,,CLR,,,,,,,,VFR,-1.3,26.1,21.7,,,,,,,,,METAR,1269.0
KTVR 052353Z AUTO 09006KT 10SM FEW070 30/21 A2987 RMK AO2 LTG DSNT N AND S SLP121 60000 T03000206 10344 20283 53007,KTVR,2023-06-05T23:53:00Z,32.35,-91.03,30.0,20.6,90,6,,10.0,29.870079,1012.1,,TRUE,TRUE,,,,,,,FEW,7000,,,,,,,VFR,0.7,34.4,28.3,,,,,0.005,,,,METAR,25.0
KTVL 052353Z AUTO 09005KT 10SM FEW120 19/01 A3003 RMK AO2 SLP112 T01890006 10217 20167 50001,KTVL,2023-06-05T23:53:00Z,38.9,-120.0,18.9,0.6,90,5,,10.0,30.029528,1011.2,,TRUE,TRUE,,,,,,,FEW,12000,,,,,,,VFR,0.1,21.7,16.7,,,,,,,,,METAR,1907.0
KTVC 052353Z 03005KT 5SM HZ BKN250 24/14 A2999 RMK AO2 SLP154 T02390144 10272 20239 56007,KTVC,2023-06-05T23:53:00Z,44.73,-85.58,23.9,14.4,30,5,,5.0,29.991142,1015.4,,,TRUE,,,,,,HZ,BKN,25000,,,,,,,MVFR,-0.7,27.2,23.9,,,,,,,,,SPECI,188.0
KTUS 052353Z 23015G27KT 10SM CLR 37/M06 A2979 RMK AO2 PK WND 20029/2254 SLP037 T03721061 10383 20333 56013,KTUS,2023-06-05T23:53:00Z,32.13,-110.95,37.2,-6.1,230,15,27,10.0,29.790354,1003.7,,,TRUE,,,,,,,CLR,,,,,,,,VFR,-1.3,38.3,33.3,,,,,,,,,METAR,776.0
KTUL 052353Z 10003KT 10SM FEW065 BKN250 31/15 A2992 RMK AO2 SLP122 T03110150 10328 20300 51000,KTUL,2023-06-05T23:53:00Z,36.2,-95.88,31.1,15.0,100,3,,10.0,29.920275,1012.2,,,TRUE,,,,,,,FEW,6500,BKN,25000,,,,,VFR,0.0,32.8,30.0,,,,,,,,,METAR,196.0
KTTN 052353Z 33003KT 10SM CLR 21/04 A2981 RMK AO2 SLP087 T02110044 10256 20211 53000,KTTN,2023-06-05T23:53:00Z,40.28,-74.82,21.1,4.4,330,3,,10.0,29.811024,1008.7,,,TRUE,,,,,,,CLR,,,,,,,,VFR,0.0,25.6,21.1,,,,,,,,,SPECI,58.0
KTTD 052353Z VRB03KT 10SM CLR 29/02 A2991 RMK AO2 SLP128 T02890022 10289 20189 56022,KTTD,2023-06-05T23:53:00Z,45.55,-122.42,28.9,2.2,0,3,,10.0,29.911417,1012.8,,,TRUE,,,,,,,CLR,,,,,,,,VFR,-2.2,28.9,18.9,,,,,,,,,METAR,8.0
KTRL 052353Z AUTO 06006KT 10SM SCT120 29/18 A2990 RMK AO2 SLP116 T02890178 10294 20267 55005,KTRL,2023-06-05T23:53:00Z,32.72,-96.27,28.9,17.8,60,6,,10.0,29.899607,1011.6,,TRUE,TRUE,,,,,,,SCT,12000,,,,,,,VFR,-0.5,29.4,26.7,,,,,,,,,SPECI,144.0
KTRI 052353Z 36005KT 10SM FEW060 FEW085 SCT250 25/11 A2992 RMK AO2 SLP109 T02500106 10294 20250 53002,KTRI,2023-06-05T23:53:00Z,36.48,-82.4,25.0,10.6,360,5,,10.0,29.920275,1010.9,,,TRUE,,,,,,,FEW,6000,FEW,8500,SCT,25000,,,VFR,0.2,29.4,25.0,,,,,,,,,METAR,456.0
KTPA 052353Z 06004KT 10SM FEW035 BKN070 BKN250 29/18 A2988 RMK AO2 SLP119 T02940178 10322 20294 53007,KTPA,2023-06-05T23:53:00Z,27.97,-82.53,29.4,17.8,60,4,,10.0,29.878937,1011.9,,,TRUE,,,,,,,FEW,3500,BKN,7000,BKN,25000,,,VFR,0.7,32.2,29.4,,,,,,,,,METAR,2.0
KTOR 052353Z AUTO 15015KT 10SM CLR 24/10 A3008 RMK AO2 SLP152 T02440100 10256 20217 56010,KTOR,2023-06-05T23:53:00Z,42.07,-104.15,24.4,10.0,150,15,,10.0,30.079725,1015.2,,TRUE,TRUE,,,,,,,CLR,,,,,,,,VFR,-1.0,25.6,21.7,,,,,,,,,METAR,1285.0
KTOP 052353Z 32005KT 10SM -RA FEW047 SCT070 BKN110 22/16 A3003 RMK AO2 LTG DSNT NE RAB38 SLP162 P0000 60000 T02220161 10328 20200 51015,KTOP,2023-06-05T23:53:00Z,39.07,-95.63,22.2,16.1,320,5,,10.0,30.029528,1016.2,,,TRUE,,,,,,-RA,FEW,4700,SCT,7000,BKN,11000,,,VFR,1.5,32.8,20.0,,,0.005,,0.005,,,,METAR,268.0
KTOI 052353Z AUTO 13004KT 10SM CLR 27/18 A2992 RMK AO2 SLP128 T02720178 10317 20272 53003,KTOI,2023-06-05T23:53:00Z,31.85,-86.02,27.2,17.8,130,4,,10.0,29.920275,1012.8,,TRUE,TRUE,,,,,,,CLR,,,,,,,,VFR,0.3,31.7,27.2,,,,,,,,,METAR,120.0
KTMB 052353Z 08008KT 10SM FEW050 SCT070 BKN100 27/22 A2986 RMK AO2 SLP110 60020 T02720222 10333 20261 53008,KTMB,2023-06-05T23:53:00Z,25.65,-80.43,27.2,22.2,80,8,,10.0,29.861221,1011.0,,,TRUE,,,,,,,FEW,5000,SCT,7000,BKN,10000,,,VFR,0.8,33.3,26.1,,,,,0.2,,,,METAR,2.0
KTLH 052353Z 30006KT 10SM FEW050 27/19 A2990 RMK AO2 TSE35 SLP125 T02670189 10311 20267 53002,KTLH,2023-06-05T23:53:00Z,30.4,-84.35,26.7,18.9,300,6,,10.0,29.899607,1012.5,,,TRUE,,,,,,,FEW,5000,,,,,,,VFR,0.2,31.1,26.7,,,,,,,,,METAR,17.0
KTKI 052353Z 03006KT 10SM CLR 28/18 A2990 RMK AO2 SLP122 T02780183 10300 20256 55006,KTKI,2023-06-05T23:53:00Z,33.18,-96.58,27.8,18.3,30,6,,10.0,29.899607,1012.2,,,TRUE,,,,,,,CLR,,,,,,,,VFR,-0.6,30.0,25.6,,,,,,,,,SPECI,173.0
KTIW 052353Z 02009G16KT 10SM CLR 21/01 A3007 RMK AO2 SLP182 T02060006 10217 20172 58019,KTIW,2023-06-05T23:53:00Z,47.27,-122.58,20.6,0.6,20,9,16,10.0,30.070866,1018.2,,,TRUE,,,,,,,CLR,,,,,,,,VFR,-1.9,21.7,17.2,,,,,,,,,METAR,89.0
KTHV 052353Z AUTO 31003KT 10SM CLR 21/07 A2988 RMK AO2 SLP117 T02110067 10250 20211 55003,KTHV,2023-06-05T23:53:00Z,39.92,-76.88,21.1,6.7,310,3,,10.0,29.878937,1011.7,,TRUE,TRUE,,,,,,,CLR,,,,,,,,VFR,-0.3,25.0,21.1,,,,,,,,,METAR,141.0
KTDZ 052353Z AUTO 13006KT 8SM FEW090 24/06 A2998 RMK AO2 SLP150 T02390056 10267 20239 56009,KTDZ,2023-06-05T23:53:00Z,41.57,-83.48,23.9,5.6,130,6,,8.0,29.97933,1015.0,,TRUE,TRUE,,,,,,,FEW,9000,,,,,,,VFR,-0.9,26.7,23.9,,,,,,,,,METAR,189.0
KTCS 052353Z AUTO 02019G29KT 10SM -RA FEW055 OVC100 22/09 A3003 RMK AO2 PK WND 33041/2330 WSHFT 2313 LTG DSNT NE AND E RAB01E14B31 TSB16E41 SLP099 P0000 60000 T02170094 10311 20211 53002,KTCS,2023-06-05T23:53:00Z,33.23,-107.27,21.7,9.4,20,19,29,10.0,30.029528,1009.9,,TRUE,TRUE,,,,,,-RA,FEW,5500,OVC,10000,,,,,VFR,0.2,31.1,21.1,,,0.005,,0.005,,,,METAR,1471.0
KTCL 052353Z AUTO 00000KT 9SM CLR 25/22 A2991 RMK AO2 LTG DSNT S SLP124 60000 T02500217 10317 20244 53002,KTCL,2023-06-05T23:53:00Z,33.22,-87.62,25.0,21.7,0,0,,9.0,29.911417,1012.4,,TRUE,TRUE,,,,,,,CLR,,,,,,,,VFR,0.2,31.7,24.4,,,,,0.005,,,,METAR,48.0
KTCC 052353Z AUTO 13010KT 10SM CLR 19/13 A3010 RMK AO2 SLP152 T01940133 10217 20178 56005,KTCC,2023-06-05T23:53:00Z,35.18,-103.6,19.4,13.3,130,10,,10.0,30.100393,1015.2,,TRUE,TRUE,,,,,,,CLR,,,,,,,,VFR,-0.5,21.7,17.8,,,,,,,,,METAR,1233.0
KSWO 052353Z 13004KT 10SM CLR 30/16 A2994 RMK AO2 SLP126 T03000156 10339 20294 55001,KSWO,2023-06-05T23:53:00Z,36.17,-97.08,30.0,15.6,130,4,,10.0,29.940945,1012.6,,,TRUE,,,,,,,CLR,,,,,,,,VFR,-0.1,33.9,29.4,,,,,,,,,METAR,293.0
KSTS 052353Z COR 23009KT 10SM SCT200 17/09 A2980 RMK AO2 SLP086 T01720094 10183 20150 55005,KSTS,2023-06-05T23:53:00Z,38.5,-122.82,17.2,9.4,230,9,,10.0,29.799213,1008.6,TRUE,,TRUE,,,,,,,SCT,20000,,,,,,,VFR,-0.5,18.3,15.0,,,,,,,,,METAR,35.0
KSTP 052353Z VRB03KT 10SM CLR 28/17 A3003 RMK AO2 SLP162 T02830172 10294 20267 56009,KSTP,2023-06-05T23:53:00Z,44.93,-93.05,28.3,17.2,0,3,,10.0,30.029528,1016.2,,,TRUE,,,,,,,CLR,,,,,,,,VFR,-0.9,29.4,26.7,,,,,,,,,METAR,213.0
KSTJ 052353Z AUTO 35007KT 10SM SCT080 25/18 A3000 RMK AO2 LTG DSNT SE-SW SLP154 60007 T02500178 10322 20228 55000,KSTJ,2023-06-05T23:53:00Z,39.77,-94.92,25.0,17.8,350,7,,10.0,30.0,1015.4,,TRUE,TRUE,,,,,,,SCT,8000,,,,,,,VFR,0.0,32.2,22.8,,,,,0.07,,,,METAR,247.0
KSTC 052353Z 10005KT 10SM CLR 28/16 A3005 RMK AO2 SLP176 T02780161 10289 20256 57008,KSTC,2023-06-05T23:53:00Z,45.55,-94.05,27.8,16.1,100,5,,10.0,30.050198,1017.6,,,TRUE,,,,,,,CLR,,,,,,,,VFR,-0.8,28.9,25.6,,,,,,,,,METAR,302.0
KSSI 052353Z AUTO 10005KT 10SM CLR 24/17 A2993 RMK AO2 SLP137 T02390172 10267 20239 55004,KSSI,2023-06-05T23:53:00Z,31.15,-81.38,23.9,17.2,100,5,,10.0,29.929134,1013.7,,TRUE,TRUE,,,,,,,CLR,,,,,,,,VFR,-0.4,26.7,23.9,,,,,,,,,METAR,6.0
KSSF 052353Z 14005KT 10SM CLR 29/20 A2984 RMK AO2 LTG DSNT NE AND E SLP094 60033 T02890200 10317 20239 58003 $,KSSF,2023-06-05T23:53:00Z,29.33,-98.47,28.9,20.0,140,5,,10.0,29.840551,1009.4,,,TRUE,TRUE,,,,,,CLR,,,,,,,,VFR,-0.3,31.7,23.9,,,,,0.33,,,,METAR,175.0
KSRQ 052353Z 19005KT 10SM OVC055 28/21 A2985 RMK AO2 SLP108 60003 T02830211 10322 20272 53009,KSRQ,2023-06-05T23:53:00Z,27.4,-82.57,28.3,21.1,190,5,,10.0,29.84941,1010.8,,,TRUE,,,,,,,OVC,5500,,,,,,,VFR,0.9,32.2,27.2,,,,,0.03,,,,METAR,5.0
KSPW 052353Z AUTO 00000KT 10SM CLR 32/14 A3001 RMK AO2 SLP154 T03170144 10328 20300 56009,KSPW,2023-06-05T23:53:00Z,43.17,-95.22,31.7,14.4,0,0,,10.0,30.008858,1015.4,,TRUE,TRUE,,,,,,,CLR,,,,,,,,VFR,-0.9,32.8,30.0,,,,,,,,,METAR,407.0
KSPG 052353Z 08012KT 10SM SCT070 29/22 A2986 RMK AO2 SLP110 T02890217 10300 20283 53006,KSPG,2023-06-05T23:53:00Z,27.77,-82.63,28.9,21.7,80,12,,10.0,29.861221,1011.0,,,TRUE,,,,,,,SCT,7000,,,,,,,VFR,0.6,30.0,28.3,,,,,,,,,METAR,1.0
KSPB 052353Z AUTO 34013G26KT 10SM CLR 27/M02 A2993 RMK AO2 PK WND 36026/2344 SLP135 T02671017 10272 20211 56019,KSPB,2023-06-05T23:53:00Z,45.77,-122.87,26.7,-1.7,340,13,26,10.0,29.929134,1013.5,,TRUE,TRUE,,,,,,,CLR,,,,,,,,VFR,-1.9,27.2,21.1,,,,,,,,,METAR,15.0
KSNY 052353Z AUTO 18008KT 10SM CLR 23/10 A3011 RMK AO2 SLP168 T02280100 10233 20217 56010,KSNY,2023-06-05T23:53:00Z,41.1,-102.98,22.8,10.0,180,8,,10.0,30.109253,1016.8,,TRUE,TRUE,,,,,,,CLR,,,,,,,,VFR,-1.0,23.3,21.7,,,,,,,,,METAR,1307.0
KSNA 052353Z 21008KT 10SM BKN037 BKN220 19/10 A2989 RMK AO2 SLP121 T01890100 10189 20172 58011,KSNA,2023-06-05T23:53:00Z,33.67,-117.87,18.9,10.0,210,8,,10.0,29.890747,1012.1,,,TRUE,,,,,,,BKN,3700,BKN,22000,,,,,VFR,-1.1,18.9,17.2,,,,,,,,,METAR,14.0
KSMQ 052353Z AUTO 00000KT 6SM HZ CLR 19/06 A2980 RMK AO2 SLP089 T01940056 10256 20194 53001,KSMQ,2023-06-05T23:53:00Z,40.62,-74.67,19.4,5.6,0,0,,6.0,29.799213,1008.9,,TRUE,TRUE,,,,,,HZ,CLR,,,,,,,,VFR,0.1,25.6,19.4,,,,,,,,,METAR,30.0
KSMF 052353Z 19014KT 10SM BKN250 26/14 A2967 RMK AO2 SLP047 T02610139 10311 20256 50002,KSMF,2023-06-05T23:53:00Z,38.7,-121.6,26.1,13.9,190,14,,10.0,29.66929,1004.7,,,TRUE,,,,,,,BKN,25000,,,,,,,VFR,0.2,31.1,25.6,,,,,,,,,METAR,7.0
KSLN 052353Z 20010KT 10SM CLR 27/15 A3002 RMK AO2 PK WND 12027/2317 WSHFT 2315 LTG DSNT N AND NW SLP155 T02720150 10317 20272 53003,KSLN,2023-06-05T23:53:00Z,38.8,-97.65,27.2,15.0,200,10,,10.0,30.02067,1015.5,,,TRUE,,,,,,,CLR,,,,,,,,VFR,0.3,31.7,27.2,,,,,,,,,METAR,377.0
KSJC 052353Z 21015G22KT 10SM FEW011 SCT100 BKN150 20/11 A2979 RMK AO2 SLP088 T02000111 10233 20189 53001,KSJC,2023-06-05T23:53:00Z,37.37,-121.92,20.0,11.1,210,15,22,10.0,29.790354,1008.8,,,TRUE,,,,,,,FEW,1100,SCT,10000,BKN,15000,,,VFR,0.1,23.3,18.9,,,,,,,,,METAR,13.0
KSIY 052353Z AUTO 02010KT 10SM CLR 31/10 A2985 RMK AO2 LTG DSNT S AND SW SLP096 60002 T03060100 10322 20211 58016,KSIY,2023-06-05T23:53:00Z,41.77,-122.47,30.6,10.0,20,10,,10.0,29.84941,1009.6,,TRUE,TRUE,,,,,,,CLR,,,,,,,,VFR,-1.6,32.2,21.1,,,,,0.02,,,,METAR,807.0
KSHR 052353Z AUTO 23015KT 10SM CLR 19/08 A3001 RMK AO2 LTG DSNT NE AND S AND SW SLP141 T01940083 10267 20183 50006,KSHR,2023-06-05T23:53:00Z,44.77,-106.97,19.4,8.3,230,15,,10.0,30.008858,1014.1,,TRUE,TRUE,,,,,,,CLR,,,,,,,,VFR,0.6,26.7,18.3,,,,,,,,,METAR,1212.0
KSHN 052353Z AUTO 03007KT 10SM CLR 25/M07 A3003 RMK AO2 SLP169 T02501072 10256 20194 58022,KSHN,2023-06-05T23:53:00Z,47.23,-123.13,25.0,-7.2,30,7,,10.0,30.029528,1016.9,,TRUE,TRUE,,,,,,,CLR,,,,,,,,VFR,-2.2,25.6,19.4,,,,,,,,,METAR,84.0
KSGR 052353Z 00000KT 10SM -RA FEW080 OVC100 22/21 A2988 RMK AO2 LTG DSNT NW SLP121 P0005 60038 T02170206 10300 20206 55007,KSGR,2023-06-05T23:53:00Z,29.62,-95.65,21.7,20.6,0,0,,10.0,29.878937,1012.1,,,TRUE,,,,,,-RA,FEW,8000,OVC,10000,,,,,VFR,-0.7,30.0,20.6,,,0.05,,0.38,,,,METAR,22.0
KSFF 052353Z 30007KT 10SM CLR 29/02 A2993 RMK AO2 SLP120 T02940022 10306 20261 58011,KSFF,2023-06-05T23:53:00Z,47.68,-117.32,29.4,2.2,300,7,,10.0,29.929134,1012.0,,,TRUE,,,,,,,CLR,,,,,,,,VFR,-1.1,30.6,26.1,,,,,,,,,METAR,593.0
KSFB 052353Z 06010KT 10SM CLR 25/19 A2992 RMK AO2 SLP131 T02500189 10300 20250 53008,KSFB,2023-06-05T23:53:00Z,28.77,-81.23,25.0,18.9,60,10,,10.0,29.920275,1013.1,,,TRUE,,,,,,,CLR,,,,,,,,VFR,0.8,30.0,25.0,,,,,,,,,METAR,16.0
KSEG 052353Z AUTO 33003KT 10SM CLR 18/11 A2988 RMK AO2 SLP117 T01830106 10244 20183 55003 $,KSEG,2023-06-05T23:53:00Z,40.82,-76.87,18.3,10.6,330,3,,10.0,29.878937,1011.7,,TRUE,TRUE,TRUE,,,,,,CLR,,,,,,,,VFR,-0.3,24.4,18.3,,,,,,,,,METAR,136.0
KSEA 052353Z 34014G21KT 10SM FEW250 22/M02 A3008 RMK AO2 SLP191 T02171017 10222 20183 58018,KSEA,2023-06-05T23:53:00Z,47.45,-122.32,21.7,-1.7,340,14,21,10.0,30.079725,1019.1,,,TRUE,,,,,,,FEW,25000,,,,,,,VFR,-1.8,22.2,18.3,,,,,,,,,METAR,115.0
KSDM 052353Z COR 26008G14KT 10SM SCT028 BKN034 18/10 A2989 RMK AO2 SLP118 T01780100 10194 20156 56014,KSDM,2023-06-05T23:53:00Z,32.58,-117.0,17.8,10.0,260,8,14,10.0,29.890747,1011.8,TRUE,,TRUE,,,,,,,SCT,2800,BKN,3400,,,,,VFR,-1.4,19.4,15.6,,,,,,,,,METAR,161.0
KSDL 052353Z 18011G17KT 10SM CLR 39/M06 A2968 RMK AO2 SLP023 T03891056 10389 20328 57025,KSDL,2023-06-05T23:53:00Z,33.62,-111.92,38.9,-5.6,180,11,17,10.0,29.681103,1002.3,,,TRUE,,,,,,,CLR,,,,,,,,VFR,-2.5,38.9,32.8,,,,,,,,,METAR,438.0
KSBM 052353Z AUTO 07005KT 6SM HZ FEW065 23/10 A3003 RMK AO2 SLP166 T02330100 10289 20233 58006,KSBM,2023-06-05T23:53:00Z,43.78,-87.85,23.3,10.0,70,5,,6.0,30.029528,1016.6,,TRUE,TRUE,,,,,,HZ,FEW,6500,,,,,,,VFR,-0.6,28.9,23.3,,,,,,,,,METAR,225.0
KSBD 052353Z 25012G17KT 6SM HZ SCT034 BKN041 22/09 A2986,KSBD,2023-06-05T23:53:00Z,34.08,-117.25,22.0,9.0,250,12,17,6.0,29.861221,,,,,,,,,,HZ,SCT,3400,BKN,4100,,,,,VFR,,,,,,,,,,,,METAR,353.0
KSBA 052353Z 11005KT 10SM BKN028 BKN035 OVC050 17/12 A2988 RMK AO2 SLP119 T01720117 10172 20156 58008 $,KSBA,2023-06-05T23:53:00Z,34.43,-119.85,17.2,11.7,110,5,,10.0,29.878937,1011.9,,,TRUE,TRUE,,,,,,BKN,2800,BKN,3500,OVC,5000,,,MVFR,-0.8,17.2,15.6,,,,,,,,,SPECI,2.0
KSAV 052353Z 13007KT 10SM SCT050 BKN250 23/12 A2994 RMK AO2 SLP136 T02330117 10283 20233 53002,KSAV,2023-06-05T23:53:00Z,32.12,-81.2,23.3,11.7,130,7,,10.0,29.940945,1013.6,,,TRUE,,,,,,,SCT,5000,BKN,25000,,,,,VFR,0.2,28.3,23.3,,,,,,,,,METAR,10.0
KSAF 052353Z 12018KT 10SM CLR 22/08 A3014 RMK AO2 LTG DSNT SW RAB2259E33 SLP127 P0000 60000 T02170078 10239 20200 56007,KSAF,2023-06-05T23:53:00Z,35.62,-106.1,21.7,7.8,120,18,,10.0,30.138779,1012.7,,,TRUE,,,,,,,CLR,,,,,,,,VFR,-0.7,23.9,20.0,,,0.005,,0.005,,,,METAR,1918.0
KSAC 052353Z VRB06G16KT 10SM CLR 23/13 A2969 RMK AO2 SLP054 T02330133 10272 20228 58000,KSAC,2023-06-05T23:53:00Z,38.5,-121.5,23.3,13.3,0,6,16,10.0,29.68996,1005.4,,,TRUE,,,,,,,CLR,,,,,,,,VFR,0.0,27.2,22.8,,,,,,,,,METAR,5.0
KRXE 052353Z AUTO 26007KT 10SM CLR 26/07 A3000 RMK AO2 SLP121 T02560072 10261 20217 58012,KRXE,2023-06-05T23:53:00Z,43.83,-111.8,25.6,7.2,260,7,,10.0,30.0,1012.1,,TRUE,TRUE,,,,,,,CLR,,,,,,,,VFR,-1.2,26.1,21.7,,,,,,,,,METAR,1483.0
KRWL 052353Z AUTO 00000KT 10SM CLR 21/04 A3016 RMK AO2 LTG DSNT S AND SW SLP142 T02060044 10233 20172 55001,KRWL,2023-06-05T23:53:00Z,41.8,-107.2,20.6,4.4,0,0,,10.0,30.159449,1014.2,,TRUE,TRUE,,,,,,,CLR,,,,,,,,VFR,-0.1,23.3,17.2,,,,,,,,,METAR,2066.0
KRWI 052353Z AUTO 00000KT 10SM CLR 23/13 A2990 RMK AO2 SLP122 T02280128 10272 20228 55001 $,KRWI,2023-06-05T23:53:00Z,35.85,-77.9,22.8,12.8,0,0,,10.0,29.899607,1012.2,,TRUE,TRUE,TRUE,,,,,,CLR,,,,,,,,VFR,-0.1,27.2,22.8,,,,,,,,,METAR,46.0
KRWF 052353Z AUTO 00000KT 10SM CLR 29/16 A3001 RMK AO2 SLP156 T02890161 10322 20289 58004,KRWF,2023-06-05T23:53:00Z,44.55,-95.08,28.9,16.1,0,0,,10.0,30.008858,1015.6,,TRUE,TRUE,,,,,,,CLR,,,,,,,,VFR,-0.4,32.2,28.9,,,,,,,,,METAR,312.0
KRVS 052353Z 00000KT 10SM CLR 29/18 A2992 RMK AO2 SLP133 T02890178 10322 20289 58000,KRVS,2023-06-05T23:53:00Z,36.05,-95.98,28.9,17.8,0,0,,10.0,29.920275,1013.3,,,TRUE,,,,,,,CLR,,,,,,,,VFR,0.0,32.2,28.9,,,,,,,,,METAR,191.0
KRUE 052353Z AUTO 04003KT 10SM FEW050 FEW095 24/17 A2990 RMK AO2 LTG DSNT NW SLP118 60000 T02390167 10333 20233 53008,KRUE,2023-06-05T23:53:00Z,35.25,-93.1,23.9,16.7,40,3,,10.0,29.899607,1011.8,,TRUE,TRUE,,,,,,,FEW,5000,FEW,9500,,,,,VFR,0.8,33.3,23.3,,,,,0.005,,,,METAR,119.0
KRSW 052353Z 08011KT 10SM BKN095 27/20 A2986 RMK AO2 SLP110 60003 T02720200 10322 20267 53010,KRSW,2023-06-05T23:53:00Z,26.53,-81.75,27.2,20.0,80,11,,10.0,29.861221,1011.0,,,TRUE,,,,,,,BKN,9500,,,,,,,VFR,1.0,32.2,26.7,,,,,0.03,,,,METAR,8.0
KRSL 052353Z AUTO 13010G17KT 10SM FEW080 26/12 A3001 RMK AO2 LTG DSNT NE TSB17E32 SLP151 T02610122 10311 20250 56003,KRSL,2023-06-05T23:53:00Z,38.87,-98.82,26.1,12.2,130,10,17,10.0,30.008858,1015.1,,TRUE,TRUE,,,,,,,FEW,8000,,,,,,,VFR,-0.3,31.1,25.0,,,,,,,,,METAR,569.0
KRQE 052353Z AUTO 20004KT 10SM FEW110 24/01 A3009 RMK AO2 SLP089 T02440006 10267 20217 58009,KRQE,2023-06-05T23:53:00Z,35.65,-109.07,24.4,0.6,200,4,,10.0,30.088583,1008.9,,TRUE,TRUE,,,,,,,FEW,11000,,,,,,,VFR,-0.9,26.7,21.7,,,,,,,,,METAR,2056.0
KRNT 052353Z 33013KT 10SM CLR 22/04 A3006 RMK AO2 SLP185 T02170044 10222 20183 58019,KRNT,2023-06-05T23:53:00Z,47.5,-122.22,21.7,4.4,330,13,,10.0,30.059055,1018.5,,,TRUE,,,,,,,CLR,,,,,,,,VFR,-1.9,22.2,18.3,,,,,,,,,METAR,7.0
KRNM 052353Z 26010KT 10SM SCT031 18/11 A2988 RMK AO2 SLP110 T01780106 10206 20156 56012,KRNM,2023-06-05T23:53:00Z,33.03,-116.92,17.8,10.6,260,10,,10.0,29.878937,1011.0,,,TRUE,,,,,,,SCT,3100,,,,,,,VFR,-1.2,20.6,15.6,,,,,,,,,METAR,423.0
KRMG 052353Z AUTO 24003KT 10SM CLR 29/18 A2989 RMK AO2 SLP110 T02890178 10317 20278 56006,KRMG,2023-06-05T23:53:00Z,34.35,-85.17,28.9,17.8,240,3,,10.0,29.890747,1011.0,,TRUE,TRUE,,,,,,,CLR,,,,,,,,VFR,-0.6,31.7,27.8,,,,,,,,,METAR,196.0
KRME 052353Z 28008KT 6SM HZ SCT055 BKN110 18/06 A2987 RMK AO2 SLP113 T01780056 10222 20178 51003,KRME,2023-06-05T23:53:00Z,43.22,-75.4,17.8,5.6,280,8,,6.0,29.870079,1011.3,,,TRUE,,,,,,HZ,SCT,5500,BKN,11000,,,,,VFR,0.3,22.2,17.8,,,,,,,,,METAR,146.0
KRKP 052353Z AUTO 12005KT 6SM HZ CLR 27/22 A2985 RMK AO2 SLP109 60000 T02670217 10294 20250 56008,KRKP,2023-06-05T23:53:00Z,28.08,-97.05,26.7,21.7,120,5,,6.0,29.84941,1010.9,,TRUE,TRUE,,,,,,HZ,CLR,,,,,,,,VFR,-0.8,29.4,25.0,,,,,,,,,SPECI,8.0
KRIW 052353Z AUTO 08006KT 10SM CLR 23/11 A3005 RMK AO2 SLP123 T02280106 10239 20194 56012,KRIW,2023-06-05T23:53:00Z,43.07,-108.43,22.8,10.6,80,6,,10.0,30.050198,1012.3,,TRUE,TRUE,,,,,,,CLR,,,,,,,,VFR,-1.2,23.9,19.4,,,,,,,,,METAR,1662.0
KRIL 052353Z AUTO 30012G19KT 10SM SCT110 28/03 A3002 RMK AO2 SLP105 T02780033 10283 20233 56009,KRIL,2023-06-05T23:53:00Z,39.53,-107.73,27.8,3.3,300,12,19,10.0,30.02067,1010.5,,TRUE,TRUE,,,,,,,SCT,11000,,,,,,,VFR,-0.9,28.3,23.3,,,,,,,,,METAR,1683.0
KRHI 052353Z AUTO 06006KT 10SM CLR 25/16 A3007 RMK AO2 SLP176 T02500156 10289 20250 56006,KRHI,2023-06-05T23:53:00Z,45.63,-89.48,25.0,15.6,60,6,,10.0,30.070866,1017.6,,TRUE,TRUE,,,,,,,CLR,,,,,,,,VFR,-0.6,28.9,25.0,,,,,,,,,METAR,493.0
KRDD 052353Z 01006KT 10SM FEW090 BKN120 33/12 A2965 RMK AO2 LTG DSNT SE SLP034 T03280122 10372 20294 55011,KRDD,2023-06-05T23:53:00Z,40.52,-122.3,32.8,12.2,10,6,,10.0,29.648623,1003.4,,,TRUE,,,,,,,FEW,9000,BKN,12000,,,,,VFR,-1.1,37.2,29.4,,,,,,,,,METAR,152.0
KRBG 052353Z AUTO 36011KT 10SM CLR 29/01 A2987 RMK AO2 SLP109 T02940006 10300 20194 56016,KRBG,2023-06-05T23:53:00Z,43.23,-123.35,29.4,0.6,360,11,,10.0,29.870079,1010.9,,TRUE,TRUE,,,,,,,CLR,,,,,,,,VFR,-1.6,30.0,19.4,,,,,,,,,SPECI,152.0
KRBD 052353Z 08007KT 10SM SCT100 28/16 A2989 RMK AO2 SLP114 T02830161 10294 20261 55005,KRBD,2023-06-05T23:53:00Z,32.68,-96.87,28.3,16.1,80,7,,10.0,29.890747,1011.4,,,TRUE,,,,,,,SCT,10000,,,,,,,VFR,-0.5,29.4,26.1,,,,,,,,,METAR,200.0
KRAL 052353Z 27014G20KT 8SM BKN040 19/11 A2987 RMK AO2 SLP102 T01890106 10211 20167 55009,KRAL,2023-06-05T23:53:00Z,33.95,-117.45,18.9,10.6,270,14,20,8.0,29.870079,1010.2,,,TRUE,,,,,,,BKN,4000,,,,,,,VFR,-0.9,21.1,16.7,,,,,,,,,METAR,254.0
KRAC 052353Z AUTO 09003KT 10SM CLR 23/08 A3004 RMK AO2 SLP169 T02330078 10261 20228 56007,KRAC,2023-06-05T23:53:00Z,42.77,-87.82,23.3,7.8,90,3,,10.0,30.041338,1016.9,,TRUE,TRUE,,,,,,,CLR,,,,,,,,VFR,-0.7,26.1,22.8,,,,,,,,,METAR,203.0
KPWA 052353Z 18005KT 10SM CLR 27/16 A2995 RMK AO2 SLP129 T02670161 10306 20267 55004,KPWA,2023-06-05T23:53:00Z,35.53,-97.65,26.7,16.1,180,5,,10.0,29.949802,1012.9,,,TRUE,,,,,,,CLR,,,,,,,,VFR,-0.4,30.6,26.7,,,,,,,,,METAR,390.0
KPUW 052353Z AUTO 04003KT 10SM CLR 24/03 A3000 RMK AO2 SLP148 T02440033 10256 20211 58010,KPUW,2023-06-05T23:53:00Z,46.75,-117.12,24.4,3.3,40,3,,10.0,30.0,1014.8,,TRUE,TRUE,,,,,,,CLR,,,,,,,,VFR,-1.0,25.6,21.1,,,,,,,,,METAR,774.0
KPUC 052353Z AUTO 00000KT 10SM CLR 25/00 A3001 RMK AO2 SLP100 T02500000 10272 20233 58012,KPUC,2023-06-05T23:53:00Z,39.62,-110.75,25.0,0.0,0,0,,10.0,30.008858,1010.0,,TRUE,TRUE,,,,,,,CLR,,,,,,,,VFR,-1.2,27.2,23.3,,,,,,,,,METAR,1777.0
KPUB 052353Z 13005KT 10SM CLR 20/12 A3015 RMK AO2 LTG DSNT N AND NW SLP164 60027 T02000117 10217 20144 58002,KPUB,2023-06-05T23:53:00Z,38.28,-104.5,20.0,11.7,130,5,,10.0,30.15059,1016.4,,,TRUE,,,,,,,CLR,,,,,,,,VFR,-0.2,21.7,14.4,,,,,0.27,,,,METAR,1441.0
KPTK 052353Z VRB01KT 7SM SCT065 OVC200 24/08 A2997 RMK SLPNO,KPTK,2023-06-05T23:53:00Z,42.67,-83.42,24.0,8.0,0,1,,7.0,29.970472,,,,,,,,,,,SCT,6500,OVC,20000,,,,,VFR,,,,,,,,,,,,METAR,295.0
KPSX 052353Z AUTO 02006KT 10SM CLR 26/18 A2986 RMK AO2 SLP112 60000 T02560183 10272 20239 56013 $,KPSX,2023-06-05T23:53:00Z,28.72,-96.25,25.6,18.3,20,6,,10.0,29.861221,1011.2,,TRUE,TRUE,TRUE,,,,,,CLR,,,,,,,,VFR,-1.3,27.2,23.9,,,,,0.005,,,,METAR,4.0
KPSP 052353Z 32024G30KT 10SM CLR 30/08 A2967 RMK AO2 PK WND 32033/2340 SLP045 T03000083 10322 20300 56011,KPSP,2023-06-05T23:53:00Z,33.82,-116.5,30.0,8.3,320,24,30,10.0,29.66929,1004.5,,,TRUE,,,,,,,CLR,,,,,,,,VFR,-1.1,32.2,30.0,,,,,,,,,SPECI,123.0
KPSC 052353Z 01010KT 10SM CLR 33/M02 A2986 RMK AO2 SLP110 T03331022 10339 20256 58022,KPSC,2023-06-05T23:53:00Z,46.27,-119.12,33.3,-2.2,10,10,,10.0,29.861221,1011.0,,,TRUE,,,,,,,CLR,,,,,,,,VFR,-2.2,33.9,25.6,,,,,,,,,METAR,121.0
KPRC 052353Z 18012G19KT 10SM CLR 28/M03 A2994 RMK AO2 PK WND 16029/2309 SLP065 T02781028 10294 20272 56012,KPRC,2023-06-05T23:53:00Z,34.65,-112.42,27.8,-2.8,180,12,19,10.0,29.940945,1006.5,,,TRUE,,,,,,,CLR,,,,,,,,VFR,-1.2,29.4,27.2,,,,,,,,,METAR,1528.0
KPRB 052353Z AUTO 22014KT 10SM OVC015 16/11 A2986 RMK AO2 SLP109 T01610106 10178 20161 50003 $,KPRB,2023-06-05T23:53:00Z,35.67,-120.63,16.1,10.6,220,14,,10.0,29.861221,1010.9,,TRUE,TRUE,TRUE,,,,,,OVC,1500,,,,,,,MVFR,0.3,17.8,16.1,,,,,,,,,METAR,249.0
KPQL 052353Z 00000KT 10SM CLR 26/20 A2991 RMK AO2 SLP130 T02560200 10300 20256 55002,KPQL,2023-06-05T23:53:00Z,30.47,-88.53,25.6,20.0,0,0,,10.0,29.911417,1013.0,,,TRUE,,,,,,,CLR,,,,,,,,VFR,-0.2,30.0,25.6,,,,,,,,,METAR,4.0
KPOU 052353Z AUTO 28003KT 10SM BKN085 21/09 A2978 RMK AO2 SLP079 T02110089 10250 20211 55000 $,KPOU,2023-06-05T23:53:00Z,41.63,-73.88,21.1,8.9,280,3,,10.0,29.778543,1007.9,,TRUE,TRUE,TRUE,,,,,,BKN,8500,,,,,,,VFR,0.0,25.0,21.1,,,,,,,,,METAR,45.0
KPOF 052353Z AUTO 02006KT 10SM CLR 27/15 A2992 RMK AO2 SLP128 T02720150 10300 20272 55001,KPOF,2023-06-05T23:53:00Z,36.77,-90.32,27.2,15.0,20,6,,10.0,29.920275,1012.8,,TRUE,TRUE,,,,,,,CLR,,,,,,,,VFR,-0.1,30.0,27.2,,,,,,,,,METAR,99.0
KPNS 052353Z 20008KT 10SM CLR 25/19 A2991 RMK AO2 SLP130 T02500194 10283 20250 55004,KPNS,2023-06-05T23:53:00Z,30.48,-87.18,25.0,19.4,200,8,,10.0,29.911417,1013.0,,,TRUE,,,,,,,CLR,,,,,,,,VFR,-0.4,28.3,25.0,,,,,,,,,METAR,34.0
KPNC 052353Z AUTO 36009KT 10SM CLR 26/19 A2995 RMK AO2 SLP132 T02560189 10317 20256 53001,KPNC,2023-06-05T23:53:00Z,36.73,-97.1,25.6,18.9,360,9,,10.0,29.949802,1013.2,,TRUE,TRUE,,,,,,,CLR,,,,,,,,VFR,0.1,31.7,25.6,,,,,,,,,METAR,304.0
KPMP 052353Z 05014KT 10SM FEW027 SCT035 28/21 A2987 RMK AO2 WSHFT 2307 SLP116 T02780206 10294 20278 53005,KPMP,2023-06-05T23:53:00Z,26.25,-80.12,27.8,20.6,50,14,,10.0,29.870079,1011.6,,,TRUE,,,,,,,FEW,2700,SCT,3500,,,,,VFR,0.5,29.4,27.8,,,,,,,,,METAR,4.0
KPMD 052353Z 21027G39KT 10SM CLR 18/06 A2975 RMK AO2 PK WND 20039/2347 SLP058 T01830061 10278 20183 56013,KPMD,2023-06-05T23:53:00Z,34.63,-118.08,18.3,6.1,210,27,39,10.0,29.749016,1005.8,,,TRUE,,,,,,,CLR,,,,,,,,VFR,-1.3,27.8,18.3,,,,,,,,,METAR,764.0
KPKD 052353Z AUTO 14005KT 10SM CLR 26/16 A3006 RMK AO2 SLP174 60001 T02560161 10267 20233 58003,KPKD,2023-06-05T23:53:00Z,46.9,-95.07,25.6,16.1,140,5,,10.0,30.059055,1017.4,,TRUE,TRUE,,,,,,,CLR,,,,,,,,VFR,-0.3,26.7,23.3,,,,,0.01,,,,METAR,439.0
KPKB 052353Z 31003KT 10SM CLR 19/10 A2997 RMK AO2 PK WND 21037/2315 SLP145 T01940100 10239 20194 58001,KPKB,2023-06-05T23:53:00Z,39.35,-81.43,19.4,10.0,310,3,,10.0,29.970472,1014.5,,,TRUE,,,,,,,CLR,,,,,,,,VFR,-0.1,23.9,19.4,,,,,,,,,METAR,245.0
KPIR 052353Z AUTO 12007KT 10SM CLR 30/14 A2999 RMK AO2 SLP141 T03000144 10311 20289 56011,KPIR,2023-06-05T23:53:00Z,44.38,-100.28,30.0,14.4,120,7,,10.0,29.991142,1014.1,,TRUE,TRUE,,,,,,,CLR,,,,,,,,VFR,-1.1,31.1,28.9,,,,,,,,,SPECI,524.0
KPIL 052353Z AUTO 11011KT 10SM CLR 28/22 A2982 RMK AO2 SLP099 60027 T02780222 10317 20244 58003,KPIL,2023-06-05T23:53:00Z,26.17,-97.33,27.8,22.2,110,11,,10.0,29.819881,1009.9,,TRUE,TRUE,,,,,,,CLR,,,,,,,,VFR,-0.3,31.7,24.4,,,,,0.27,,,,METAR,5.0
KPIH 052353Z 32005KT 10SM SCT095 26/08 A2998 RMK AO2 SLP118 T02610083 10267 20217 56015,KPIH,2023-06-05T23:53:00Z,42.92,-112.57,26.1,8.3,320,5,,10.0,29.97933,1011.8,,,TRUE,,,,,,,SCT,9500,,,,,,,VFR,-1.5,26.7,21.7,,,,,,,,,METAR,1357.0
KPIE 052353Z 09007KT 10SM BKN055 OVC090 29/19 A2987 RMK AO2 SLP115 T02890194 10311 20289 53007,KPIE,2023-06-05T23:53:00Z,27.92,-82.68,28.9,19.4,90,7,,10.0,29.870079,1011.5,,,TRUE,,,,,,,BKN,5500,OVC,9000,,,,,VFR,0.7,31.1,28.9,,,,,,,,,METAR,1.0
KPHD 052353Z AUTO 00000KT 6SM HZ CLR 22/09 A2998 RMK AO2 SLP150 T02170089 10244 20217 56004,KPHD,2023-06-05T23:53:00Z,40.47,-81.42,21.7,8.9,0,0,,6.0,29.97933,1015.0,,TRUE,TRUE,,,,,,HZ,CLR,,,,,,,,VFR,-0.4,24.4,21.7,,,,,,,,,METAR,272.0
KPGD 052353Z 07010KT 10SM CLR 27/18 A2988 RMK AO2 SLP116 60000 T02720178 10317 20272 53008,KPGD,2023-06-05T23:53:00Z,26.92,-82.0,27.2,17.8,70,10,,10.0,29.878937,1011.6,,,TRUE,,,,,,,CLR,,,,,,,,VFR,0.8,31.7,27.2,,,,,0.005,,,,METAR,7.0
KPGA 052353Z AUTO 22009G15KT 10SM CLR 32/M02 A2986 RMK AO2 SLP048 T03171017 10344 20278 56017,KPGA,2023-06-05T23:53:00Z,36.92,-111.45,31.7,-1.7,220,9,15,10.0,29.861221,1004.8,,TRUE,TRUE,,,,,,,CLR,,,,,,,,VFR,-1.7,34.4,27.8,,,,,,,,,METAR,1310.0
KPEO 052353Z AUTO 30005KT 4SM HZ CLR 20/04 A2991 RMK AO2 SLP126 T02000039 10228 20200 55002,KPEO,2023-06-05T23:53:00Z,42.65,-77.05,20.0,3.9,300,5,,4.0,29.911417,1012.6,,TRUE,TRUE,,,,,,HZ,CLR,,,,,,,,MVFR,-0.2,22.8,20.0,,,,,,,,,METAR,268.0
KPDX 052353Z 33016G26KT 10SM FEW250 27/02 A2993 RMK AO2 PK WND 32027/2327 SLP133 T02720017 10278 20200 56021,KPDX,2023-06-05T23:53:00Z,45.6,-122.62,27.2,1.7,330,16,26,10.0,29.929134,1013.3,,,TRUE,,,,,,,FEW,25000,,,,,,,VFR,-2.1,27.8,20.0,,,,,,,,,METAR,7.0
KPDT 052353Z 01005KT 10SM CLR 30/06 A2991 RMK AO2 SLP113 T03000056 10311 20256 58012,KPDT,2023-06-05T23:53:00Z,45.7,-118.83,30.0,5.6,10,5,,10.0,29.911417,1011.3,,,TRUE,,,,,,,CLR,,,,,,,,VFR,-1.2,31.1,25.6,,,,,,,,,METAR,453.0
KPDK 052353Z 22005KT 10SM CLR 26/18 A2992 RMK AO2 SLP120 T02610183 10278 20239 56006,KPDK,2023-06-05T23:53:00Z,33.88,-84.3,26.1,18.3,220,5,,10.0,29.920275,1012.0,,,TRUE,,,,,,,CLR,,,,,,,,VFR,-0.6,27.8,23.9,,,,,,,,,METAR,299.0
KPBI 052353Z 03013KT 10SM SCT035 SCT050 27/21 A2988 RMK AO2 SLP118 60003 T02720206 10294 20256 53005 $,KPBI,2023-06-05T23:53:00Z,26.68,-80.1,27.2,20.6,30,13,,10.0,29.878937,1011.8,,,TRUE,TRUE,,,,,,SCT,3500,SCT,5000,,,,,VFR,0.5,29.4,25.6,,,,,0.03,,,,METAR,4.0
KPBG 052353Z AUTO 30006KT 8SM CLR 19/04 A2980 RMK AO2 SLP091 T01890039 10217 20189 57005,KPBG,2023-06-05T23:53:00Z,44.65,-73.47,18.9,3.9,300,6,,8.0,29.799213,1009.1,,TRUE,TRUE,,,,,,,CLR,,,,,,,,VFR,-0.5,21.7,18.9,,,,,,,,,METAR,61.0
KPBF 052353Z AUTO 26003KT 10SM CLR 31/17 A2986 RMK AO2 LTG DSNT E AND SE SLP110 T03110172 10356 20306 55004,KPBF,2023-06-05T23:53:00Z,34.18,-91.93,31.1,17.2,260,3,,10.0,29.861221,1011.0,,TRUE,TRUE,,,,,,,CLR,,,,,,,,VFR,-0.4,35.6,30.6,,,,,,,,,METAR,63.0
KPAH 052353Z 00000KT 10SM CLR 29/12 A2990 RMK AO2 SLP122 T02940122 10317 20294 56006,KPAH,2023-06-05T23:53:00Z,37.07,-88.77,29.4,12.2,0,0,,10.0,29.899607,1012.2,,,TRUE,,,,,,,CLR,,,,,,,,VFR,-0.6,31.7,29.4,,,,,,,,,METAR,125.0
KPAE 052353Z 34013G22KT 10SM CLR 19/04 A3010 RMK AO2 SLP192 T01890039 10200 20156 58018,KPAE,2023-06-05T23:53:00Z,47.92,-122.28,18.9,3.9,340,13,22,10.0,30.100393,1019.2,,,TRUE,,,,,,,CLR,,,,,,,,VFR,-1.8,20.0,15.6,,,,,,,,,METAR,166.0
KP68 052353Z AUTO 03023G29KT 20/06 A3001 RMK AO1 PK WND 06031/2301 SLP105 T02000056 10244 20178 56009,KP68,2023-06-05T23:53:00Z,39.6,-116.0,20.0,5.6,30,23,29,,30.008858,1010.5,,TRUE,TRUE,,,,,,,,,,,,,,,,-0.9,24.4,17.8,,,,,,,,,METAR,1813.0
KOXB 052353Z AUTO VRB03KT 10SM CLR 19/16 A2985 RMK AO2 SLP108 T01890161 10217 20189 56003,KOXB,2023-06-05T23:53:00Z,38.32,-75.12,18.9,16.1,0,3,,10.0,29.84941,1010.8,,TRUE,TRUE,,,,,,,CLR,,,,,,,,VFR,-0.3,21.7,18.9,,,,,,,,,METAR,2.0
KOWD 052353Z 34003KT 10SM SCT050 SCT070 OVC085 16/12 A2977 RMK AO2 SLP080 60004 T01560117 10178 20139 56004,KOWD,2023-06-05T23:53:00Z,42.18,-71.17,15.6,11.7,340,3,,10.0,29.769686,1008.0,,,TRUE,,,,,,,SCT,5000,SCT,7000,OVC,8500,,,VFR,-0.4,17.8,13.9,,,,,0.04,,,,METAR,14.0
KOWA 052353Z AUTO 10006KT 10SM SCT100 23/18 A3004 RMK AO2,KOWA,2023-06-05T23:53:00Z,44.12,-93.25,23.0,18.0,100,6,,10.0,30.041338,,,TRUE,TRUE,,,,,,,SCT,10000,,,,,,,VFR,,,,,,,,,,,,METAR,345.0
KOVS 052353Z AUTO 27004KT 10SM CLR 29/12 A3001 RMK AO2 SLP160 T02890122 10317 20272 56013,KOVS,2023-06-05T23:53:00Z,43.15,-90.68,28.9,12.2,270,4,,10.0,30.008858,1016.0,,TRUE,TRUE,,,,,,,CLR,,,,,,,,VFR,-1.3,31.7,27.2,,,,,,,,,SPECI,205.0
KOVE 052353Z AUTO 16012KT 10SM CLR 32/16 A2966 RMK AO2 WSHFT 2302 SLP045 T03170156 10356 20278 53005,KOVE,2023-06-05T23:53:00Z,39.5,-121.62,31.7,15.6,160,12,,10.0,29.660433,1004.5,,TRUE,TRUE,,,,,,,CLR,,,,,,,,VFR,0.5,35.6,27.8,,,,,,,,,SPECI,56.0
KOTM 052353Z AUTO 14006KT 8SM CLR 27/09 A3001 RMK AO2 SLP157 T02670089 10289 20250 56009,KOTM,2023-06-05T23:53:00Z,41.1,-92.45,26.7,8.9,140,6,,8.0,30.008858,1015.7,,TRUE,TRUE,,,,,,,CLR,,,,,,,,VFR,-0.9,28.9,25.0,,,,,,,,,METAR,254.0
KOSU 052353Z 03004KT 6SM HZ CLR 22/08 A2998 RMK AO2 SLP147 T02170083 10261 20217 56004,KOSU,2023-06-05T23:53:00Z,40.08,-83.08,21.7,8.3,30,4,,6.0,29.97933,1014.7,,,TRUE,,,,,,HZ,CLR,,,,,,,,VFR,-0.4,26.1,21.7,,,,,,,,,METAR,276.0
KOSH 052353Z 10012KT 7SM CLR 27/13 A3001 RMK AO2 SLP150 T02670133 10294 20267 56009,KOSH,2023-06-05T23:53:00Z,43.98,-88.55,26.7,13.3,100,12,,7.0,30.008858,1015.0,,,TRUE,,,,,,,CLR,,,,,,,,VFR,-0.9,29.4,26.7,,,,,,,,,METAR,239.0
KORL 052353Z 05009KT 10SM CLR 26/18 A2992 RMK AO2 SLP133 T02610178 10300 20261 53008,KORL,2023-06-05T23:53:00Z,28.55,-81.33,26.1,17.8,50,9,,10.0,29.920275,1013.3,,,TRUE,,,,,,,CLR,,,,,,,,VFR,0.8,30.0,26.1,,,,,,,,,METAR,32.0
KORB 052353Z AUTO 12004KT 10SM SCT041 24/17 A3007 RMK AO2 LTG DSNT N,KORB,2023-06-05T23:53:00Z,48.02,-92.87,24.0,17.0,120,4,,10.0,30.070866,,,TRUE,TRUE,,,,,,,SCT,4100,,,,,,,VFR,,,,,,,,,,,,METAR,407.0
KOQT 052353Z AUTO 00000KT 10SM CLR 27/19 A2991 RMK AO2 SLP115 60034 T02670194 10294 20206 55006 ,KOQT,2023-06-05T23:53:00Z,36.02,-84.23,26.7,19.4,0,0,,10.0,29.911417,1011.5,,TRUE,TRUE,,,,,,,CLR,,,,,,,,VFR,-0.6,29.4,20.6,,,,,0.34,,,,METAR,276.0
KOPF 052353Z 06014KT 10SM CLR 27/22 A2987 RMK AO2 SLP116 60000 T02670217 10317 20267 53008 $,KOPF,2023-06-05T23:53:00Z,25.92,-80.28,26.7,21.7,60,14,,10.0,29.870079,1011.6,,,TRUE,TRUE,,,,,,CLR,,,,,,,,VFR,0.8,31.7,26.7,,,,,0.005,,,,METAR,1.0
KONT 052353Z 26010G17KT 10SM FEW019 BKN026 BKN220 19/11 A2988 RMK AO2 SLP111 60000 T01890111 10200 20150 56010,KONT,2023-06-05T23:53:00Z,34.05,-117.58,18.9,11.1,260,10,17,10.0,29.878937,1011.1,,,TRUE,,,,,,,FEW,1900,BKN,2600,BKN,22000,,,MVFR,-1.0,20.0,15.0,,,,,0.005,,,,METAR,279.0
KONO 052353Z AUTO 03010G19KT 10SM CLR 30/09 A2991 RMK AO2 SLP113 T03000089 10317 20256 58015,KONO,2023-06-05T23:53:00Z,44.02,-117.02,30.0,8.9,30,10,19,10.0,29.911417,1011.3,,TRUE,TRUE,,,,,,,CLR,,,,,,,,VFR,-1.5,31.7,25.6,,,,,,,,,METAR,668.0
KOMK 052353Z AUTO 01014G24KT 10SM CLR 28/M02 A2996 RMK AO2 SLP138 T02831017 10294 20244 57009,KOMK,2023-06-05T23:53:00Z,48.47,-119.52,28.3,-1.7,10,14,24,10.0,29.958662,1013.8,,TRUE,TRUE,,,,,,,CLR,,,,,,,,VFR,-0.9,29.4,24.4,,,,,,,,,METAR,395.0
KOLF 052353Z AUTO 14007KT 10SM CLR 31/14 A2992 RMK AO2 SLP119 T03060139 10317 20294 56016,KOLF,2023-06-05T23:53:00Z,48.1,-105.58,30.6,13.9,140,7,,10.0,29.920275,1011.9,,TRUE,TRUE,,,,,,,CLR,,,,,,,,VFR,-1.6,31.7,29.4,,,,,,,,,METAR,605.0
KOJC 052353Z 24003KT 10SM SCT080 BKN100 22/19 A3001 RMK AO2 LTG DSNT E RAE30 SLP152 P0001 60047 T02220194 10311 20200 57002,KOJC,2023-06-05T23:53:00Z,38.85,-94.73,22.2,19.4,240,3,,10.0,30.008858,1015.2,,,TRUE,,,,,,,SCT,8000,BKN,10000,,,,,VFR,-0.2,31.1,20.0,,,0.01,,0.47,,,,METAR,328.0
KOGD 052353Z 30005KT 10SM FEW090 29/06 A2995 RMK AO2 SLPNO 6//// T02940061 10306 20250 56012,KOGD,2023-06-05T23:53:00Z,41.2,-112.02,29.4,6.1,300,5,,10.0,29.949802,,,,TRUE,,,,,,,FEW,9000,,,,,,,VFR,-1.2,30.6,25.0,,,,,,,,,METAR,1356.0
KOGB 052353Z AUTO 00000KT 10SM -RA FEW048 24/17 A2993 RMK AO2 SLP131 P0000 60000 T02440167 10272 20244 55002,KOGB,2023-06-05T23:53:00Z,33.47,-80.85,24.4,16.7,0,0,,10.0,29.929134,1013.1,,TRUE,TRUE,,,,,,-RA,FEW,4800,,,,,,,VFR,-0.2,27.2,24.4,,,0.005,,0.005,,,,METAR,59.0
KODX 052353Z AUTO 10004KT 10SM CLR 27/14 A3004 RMK AO2 SLP162 60000 T02720144 10306 20244 58009 $,KODX,2023-06-05T23:53:00Z,41.62,-98.95,27.2,14.4,100,4,,10.0,30.041338,1016.2,,TRUE,TRUE,TRUE,,,,,,CLR,,,,,,,,VFR,-0.9,30.6,24.4,,,,,0.005,,,,METAR,628.0
KODO 052353Z AUTO 04012KT 10SM CLR 27/12 A3001 RMK AO2 SLP121 T02720117 10289 20228 56012,KODO,2023-06-05T23:53:00Z,31.92,-102.4,27.2,11.7,40,12,,10.0,30.008858,1012.1,,TRUE,TRUE,,,,,,,CLR,,,,,,,,VFR,-1.2,28.9,22.8,,,,,,,,,METAR,912.0
KOAK 052353Z 30012KT 10SM FEW014 FEW080 SCT140 BKN180 19/12 A2982 RMK AO2 SLP098 T01890117 10200 20161 53002,KOAK,2023-06-05T23:53:00Z,37.72,-122.23,18.9,11.7,300,12,,10.0,29.819881,1009.8,,,TRUE,,,,,,,FEW,1400,FEW,8000,SCT,14000,BKN,18000,VFR,0.2,20.0,16.1,,,,,,,,,METAR,3.0
KNUW 052353Z 28007KT 10SM SCT200 16/07 A3012 RMK AO2 SLP202 T01610067 10183 20156 58020 VISNO $,KNUW,2023-06-05T23:53:00Z,48.35,-122.65,16.1,6.7,280,7,,10.0,30.121063,1020.2,,,TRUE,TRUE,,,,,,SCT,20000,,,,,,,VFR,-2.0,18.3,15.6,,,,,,,,,METAR,14.0
KNUI 052353Z AUTO 00000KT 10SM CLR 22/12 A2986 RMK AO2 SLP110 T02220122 10244 20211 56005,KNUI,2023-06-05T23:53:00Z,38.15,-76.43,22.2,12.2,0,0,,10.0,29.861221,1011.0,,TRUE,TRUE,,,,,,,CLR,,,,,,,,VFR,-0.5,24.4,21.1,,,,,,,,,METAR,4.0
KNSI 052353Z AUTO 20008KT 10SM OVC029 16/11 A2988 RMK AO2 SLP113 60000 T01560111 10172 20133 58008 $,KNSI,2023-06-05T23:53:00Z,33.23,-119.45,15.6,11.1,200,8,,10.0,29.878937,1011.3,,TRUE,TRUE,TRUE,,,,,,OVC,2900,,,,,,,MVFR,-0.8,17.2,13.3,,,,,0.005,,,,METAR,161.0
KNRS 052353Z 26010KT 10SM FEW026 SCT035 18/11 A2991 RMK AO2 SLP127 T01780106 10183 20172 58012 ,KNRS,2023-06-05T23:53:00Z,32.57,-117.12,17.8,10.6,260,10,,10.0,29.911417,1012.7,,,TRUE,,,,,,,FEW,2600,SCT,3500,,,,,VFR,-1.2,18.3,17.2,,,,,,,,,METAR,15.0
KNQX 052353Z 29005KT 10SM FEW024 FEW180 29/22 A2986 RMK AO2 SLP110 T02940222 10306 20294 53002 $,KNQX,2023-06-05T23:53:00Z,24.57,-81.67,29.4,22.2,290,5,,10.0,29.861221,1011.0,,,TRUE,TRUE,,,,,,FEW,2400,FEW,18000,,,,,VFR,0.2,30.6,29.4,,,,,,,,,METAR,2.0
KNIP 052353Z 08006KT 10SM BKN250 24/16 A2994 RMK AO2 SLP135 T02440161 10289 20244 53004,KNIP,2023-06-05T23:53:00Z,30.23,-81.67,24.4,16.1,80,6,,10.0,29.940945,1013.5,,,TRUE,,,,,,,BKN,25000,,,,,,,VFR,0.4,28.9,24.4,,,,,,,,,METAR,3.0
KNFG 052353Z 32005KT 10SM OVC035 19/11 A2990 RMK AO2 SLP122 T01890106 10211 20178 57009 $,KNFG,2023-06-05T23:53:00Z,33.3,-117.35,18.9,10.6,320,5,,10.0,29.899607,1012.2,,,TRUE,TRUE,,,,,,OVC,3500,,,,,,,VFR,-0.9,21.1,17.8,,,,,,,,,METAR,21.0
KNEW 052353Z 15008KT 10SM CLR 28/19 A2990 RMK AO2 SLP118 60002 T02780194 10306 20272 51007,KNEW,2023-06-05T23:53:00Z,30.05,-90.03,27.8,19.4,150,8,,10.0,29.899607,1011.8,,,TRUE,,,,,,,CLR,,,,,,,,VFR,0.7,30.6,27.2,,,,,0.02,,,,METAR,1.0
KMYV 052353Z AUTO 16009KT 10SM CLR 30/14 A2967 RMK AO2 SLP049 T03000144 10356 20267 53007,KMYV,2023-06-05T23:53:00Z,39.1,-121.57,30.0,14.4,160,9,,10.0,29.66929,1004.9,,TRUE,TRUE,,,,,,,CLR,,,,,,,,VFR,0.7,35.6,26.7,,,,,,,,,METAR,18.0
KMYF 052353Z VRB05G14KT 10SM CLR 17/11 A2989 RMK AO2 SLP119 T01720106 10189 20167 58013,KMYF,2023-06-05T23:53:00Z,32.82,-117.13,17.2,10.6,0,5,14,10.0,29.890747,1011.9,,,TRUE,,,,,,,CLR,,,,,,,,VFR,-1.3,18.9,16.7,,,,,,,,,METAR,128.0
KMWT 052353Z AUTO 01005KT 10SM SCT080 26/21 A2992 RMK AO2 PRESRR SLP123 T02610206 10333 20261 53006,KMWT,2023-06-05T23:53:00Z,34.55,-93.58,26.1,20.6,10,5,,10.0,29.920275,1012.3,,TRUE,TRUE,,,,,,,SCT,8000,,,,,,,VFR,0.6,33.3,26.1,,,,,,,,,METAR,220.0
KMWL 052353Z AUTO 26003KT 10SM SCT110 21/18 A2991 RMK AO2 RAE43 TSE32 SLP117 P0032 60048 T02060178 10283 20194 57012,KMWL,2023-06-05T23:53:00Z,32.78,-98.07,20.6,17.8,260,3,,10.0,29.911417,1011.7,,TRUE,TRUE,,,,,,,SCT,11000,,,,,,,VFR,-1.2,28.3,19.4,,,0.32,,0.48,,,,METAR,288.0
KMVY 052353Z 00000KT 10SM FEW022 BKN095 14/11 A2977 RMK AO2 SLP079 T01390111 10172 20139 55002,KMVY,2023-06-05T23:53:00Z,41.4,-70.62,13.9,11.1,0,0,,10.0,29.769686,1007.9,,,TRUE,,,,,,,FEW,2200,BKN,9500,,,,,VFR,-0.2,17.2,13.9,,,,,,,,,METAR,18.0
KMTO 052353Z AUTO 04007KT 7SM CLR 26/03 A2997 RMK AO2 SLP144 T02560028 10278 20256 56010,KMTO,2023-06-05T23:53:00Z,39.47,-88.27,25.6,2.8,40,7,,7.0,29.970472,1014.4,,TRUE,TRUE,,,,,,,CLR,,,,,,,,VFR,-1.0,27.8,25.6,,,,,,,,,METAR,216.0
KMTN 052353Z 31006KT 10SM CLR 22/06 A2987,KMTN,2023-06-05T23:53:00Z,39.32,-76.42,22.0,6.0,310,6,,10.0,29.870079,,,,,,,,,,,CLR,,,,,,,,VFR,,,,,,,,,,,,METAR,2.0
KMTJ 052353Z AUTO 35018G25KT 10SM CLR 24/04 A3008 RMK AO2 SLP120 T02390044 10278 20222 56004,KMTJ,2023-06-05T23:53:00Z,38.5,-107.9,23.9,4.4,350,18,25,10.0,30.079725,1012.0,,TRUE,TRUE,,,,,,,CLR,,,,,,,,VFR,-0.4,27.8,22.2,,,,,,,,,METAR,1755.0
KMTH 052353Z AUTO 25005KT 10SM CLR 29/22 A2984 RMK AO2 SLP104 T02890217 10317 20289 53001 $,KMTH,2023-06-05T23:53:00Z,24.73,-81.05,28.9,21.7,250,5,,10.0,29.840551,1010.4,,TRUE,TRUE,TRUE,,,,,,CLR,,,,,,,,VFR,0.1,31.7,28.9,,,,,,,,,METAR,1.0
KMSY 052353Z 22005KT 10SM FEW030 SCT050 BKN250 26/21 A2990 RMK AO2 SLP127 CB DSNT SE 60001 T02560206 10306 20256 51008,KMSY,2023-06-05T23:53:00Z,30.0,-90.25,25.6,20.6,220,5,,10.0,29.899607,1012.7,,,TRUE,,,,,,,FEW,3000,SCT,5000,BKN,25000,,,VFR,0.8,30.6,25.6,,,,,0.01,,,,METAR,0.0
KMSS 052353Z AUTO 00000KT 8SM FEW100 17/12 A2983 RMK AO2 SLP103 T01720117 10211 20172 56010,KMSS,2023-06-05T23:53:00Z,44.93,-74.85,17.2,11.7,0,0,,8.0,29.828741,1010.3,,TRUE,TRUE,,,,,,,FEW,10000,,,,,,,VFR,-1.0,21.1,17.2,,,,,,,,,METAR,60.0
KMSP 052353Z 03008KT 10SM BKN150 BKN200 BKN250 29/14 A3003 RMK AO2 SLP164 T02890144 10306 20283 56007,KMSP,2023-06-05T23:53:00Z,44.88,-93.23,28.9,14.4,30,8,,10.0,30.029528,1016.4,,,TRUE,,,,,,,BKN,15000,BKN,20000,BKN,25000,,,VFR,-0.7,30.6,28.3,,,,,,,,,METAR,255.0
KMSO 052353Z VRB03KT 10SM FEW065 SCT100 BKN120 21/12 A3001 RMK AO2 SLP149 60001 T02110122 10211 20172 58002,KMSO,2023-06-05T23:53:00Z,46.92,-114.1,21.1,12.2,0,3,,10.0,30.008858,1014.9,,,TRUE,,,,,,,FEW,6500,SCT,10000,BKN,12000,,,VFR,-0.2,21.1,17.2,,,,,0.01,,,,METAR,974.0
KMSN 052353Z 34004KT 7SM CLR 27/12 A3001 RMK AO2 SLP157 T02720117 10300 20267 56010,KMSN,2023-06-05T23:53:00Z,43.13,-89.35,27.2,11.7,340,4,,7.0,30.008858,1015.7,,,TRUE,,,,,,,CLR,,,,,,,,VFR,-1.0,30.0,26.7,,,,,,,,,METAR,262.0
KMSL 052353Z AUTO 24006KT 10SM CLR 28/19 A2990 RMK AO2 SLP118 T02830189 10333 20283 53006,KMSL,2023-06-05T23:53:00Z,34.75,-87.6,28.3,18.9,240,6,,10.0,29.899607,1011.8,,TRUE,TRUE,,,,,,,CLR,,,,,,,,VFR,0.6,33.3,28.3,,,,,,,,,METAR,170.0
KMRB 052353Z 01004KT 10SM CLR 21/06 A2989 RMK AO2 SLP119 T02110061 10244 20211 55000 $,KMRB,2023-06-05T23:53:00Z,39.4,-77.98,21.1,6.1,10,4,,10.0,29.890747,1011.9,,,TRUE,TRUE,,,,,,CLR,,,,,,,,VFR,0.0,24.4,21.1,,,,,,,,,METAR,165.0
KMPO 052353Z AUTO 29009KT 10SM BKN075 16/04 A2987 RMK AO2 SLP114 T01610044 10206 20150 53001,KMPO,2023-06-05T23:53:00Z,41.13,-75.38,16.1,4.4,290,9,,10.0,29.870079,1011.4,,TRUE,TRUE,,,,,,,BKN,7500,,,,,,,VFR,0.1,20.6,15.0,,,,,,,,,METAR,576.0
KMOD 052353Z 03007KT 10SM CLR 29/14 A2971 RMK AO2 SLP058 T02940139 10306 20244 53008,KMOD,2023-06-05T23:53:00Z,37.62,-120.95,29.4,13.9,30,7,,10.0,29.71063,1005.8,,,TRUE,,,,,,,CLR,,,,,,,,VFR,0.8,30.6,24.4,,,,,,,,,METAR,25.0
KMNN 052353Z AUTO 03007KT 5SM HZ CLR 22/06 A2999 RMK AO2 SLP155 T02170056 10250 20217 55004,KMNN,2023-06-05T23:53:00Z,40.62,-83.07,21.7,5.6,30,7,,5.0,29.991142,1015.5,,TRUE,TRUE,,,,,,HZ,CLR,,,,,,,,MVFR,-0.4,25.0,21.7,,,,,,,,,METAR,301.0
KMMV 052353Z AUTO 02013G20KT 10SM CLR 28/01 A2992 RMK AO2 PK WND 02026/2321 SLP130 T02780006 10283 20211 56019,KMMV,2023-06-05T23:53:00Z,45.2,-123.13,27.8,0.6,20,13,20,10.0,29.920275,1013.0,,TRUE,TRUE,,,,,,,CLR,,,,,,,,VFR,-1.9,28.3,21.1,,,,,,,,,METAR,48.0
KMMK 052353Z AUTO 00000KT 10SM CLR 18/11 A2978 RMK AO2 SLP084 T01780106 10222 20178 55001 $,KMMK,2023-06-05T23:53:00Z,41.52,-72.83,17.8,10.6,0,0,,10.0,29.778543,1008.4,,TRUE,TRUE,TRUE,,,,,,CLR,,,,,,,,VFR,-0.1,22.2,17.8,,,,,,,,,METAR,30.0
KMLU 052353Z 00000KT 10SM CLR 29/18 A2986 RMK AO2 LTG DSNT N AND NE SLP109 T02940183 10344 20256 53001,KMLU,2023-06-05T23:53:00Z,32.52,-92.03,29.4,18.3,0,0,,10.0,29.861221,1010.9,,,TRUE,,,,,,,CLR,,,,,,,,VFR,0.1,34.4,25.6,,,,,,,,,METAR,22.0
KMLT 052353Z AUTO 36005KT 10SM OVC020 12/11 A2977 RMK AO2 SLP088 60001 T01220106 10133 20117 58012,KMLT,2023-06-05T23:53:00Z,45.65,-68.7,12.2,10.6,360,5,,10.0,29.769686,1008.8,,TRUE,TRUE,,,,,,,OVC,2000,,,,,,,MVFR,-1.2,13.3,11.7,,,,,0.01,,,,METAR,121.0
KMLS 052353Z AUTO 14012KT 10SM CLR 30/08 A2993 RMK AO2 SLP112 T03000083 10311 20289 58017,KMLS,2023-06-05T23:53:00Z,46.43,-105.88,30.0,8.3,140,12,,10.0,29.929134,1011.2,,TRUE,TRUE,,,,,,,CLR,,,,,,,,VFR,-1.7,31.1,28.9,,,,,,,,,METAR,800.0
KMLP 052353Z AUTO 00000KT 10SM OVC100 14/04 A3014 RMK AO2 SLP119 T01440044 10189 20144 58005,KMLP,2023-06-05T23:53:00Z,47.45,-115.67,14.4,4.4,0,0,,10.0,30.138779,1011.9,,TRUE,TRUE,,,,,,,OVC,10000,,,,,,,VFR,-0.5,18.9,14.4,,,,,,,,,METAR,1837.0
KMLC 052353Z AUTO 00000KT 10SM SCT070 31/18 A2992 RMK AO2 LTG DSNT E AND SE SLP122 60000 T03060178 10317 20272 55006,KMLC,2023-06-05T23:53:00Z,34.88,-95.78,30.6,17.8,0,0,,10.0,29.920275,1012.2,,TRUE,TRUE,,,,,,,SCT,7000,,,,,,,VFR,-0.6,31.7,27.2,,,,,0.005,,,,METAR,231.0
KMLB 052353Z 04009KT 10SM BKN038 26/18 A2990 RMK AO2 SLP124 T02610183 10289 20256 53001,KMLB,2023-06-05T23:53:00Z,28.1,-80.65,26.1,18.3,40,9,,10.0,29.899607,1012.4,,,TRUE,,,,,,,BKN,3800,,,,,,,VFR,0.1,28.9,25.6,,,,,,,,,METAR,7.0
KMKO 052353Z AUTO 04005KT 10SM CLR 28/14 A2994 RMK AO2 SLP131 T02830144 10339 20272 55001,KMKO,2023-06-05T23:53:00Z,35.65,-95.37,28.3,14.4,40,5,,10.0,29.940945,1013.1,,TRUE,TRUE,,,,,,,CLR,,,,,,,,VFR,-0.1,33.9,27.2,,,,,,,,,METAR,184.0
KMKL 052353Z AUTO 27007KT 10SM FEW075 27/18 A2991 RMK AO2 LTG DSNT NW SLP123 T02670178 10333 20267 53006,KMKL,2023-06-05T23:53:00Z,35.6,-88.92,26.7,17.8,270,7,,10.0,29.911417,1012.3,,TRUE,TRUE,,,,,,,FEW,7500,,,,,,,VFR,0.6,33.3,26.7,,,,,,,,,METAR,130.0
KMIW 052353Z AUTO 16006KT 6SM HZ CLR 27/14 A3002 RMK AO2 SLP159 T02720139 10289 20267 56010,KMIW,2023-06-05T23:53:00Z,42.12,-92.92,27.2,13.9,160,6,,6.0,30.02067,1015.9,,TRUE,TRUE,,,,,,HZ,CLR,,,,,,,,VFR,-1.0,28.9,26.7,,,,,,,,,METAR,296.0
KMIE 052353Z 05006KT 7SM CLR 26/03 A2997 RMK AO2 SLP142 T02610028 10283 20256 56007,KMIE,2023-06-05T23:53:00Z,40.23,-85.4,26.1,2.8,50,6,,7.0,29.970472,1014.2,,,TRUE,,,,,,,CLR,,,,,,,,VFR,-0.7,28.3,25.6,,,,,,,,,METAR,286.0
KMIC 052353Z 08004KT 10SM CLR 28/16 A3002 RMK AO2 SLP161 T02830161 10300 20261 56007,KMIC,2023-06-05T23:53:00Z,45.07,-93.35,28.3,16.1,80,4,,10.0,30.02067,1016.1,,,TRUE,,,,,,,CLR,,,,,,,,VFR,-0.7,30.0,26.1,,,,,,,,,METAR,263.0
KMIA 052353Z 04007G15KT 10SM FEW032 SCT075 BKN100 28/22 A2986 RMK AO2 SLP113 T02780217 10333 20278 53008 $,KMIA,2023-06-05T23:53:00Z,25.8,-80.32,27.8,21.7,40,7,15,10.0,29.861221,1011.3,,,TRUE,TRUE,,,,,,FEW,3200,SCT,7500,BKN,10000,,,VFR,0.8,33.3,27.8,,,,,,,,,METAR,1.0
KMHT 052353Z 33009KT 10SM FEW040 FEW060 BKN100 17/09 A2976 RMK AO2 SLP090 60000 T01720094 10194 20161 55000,KMHT,2023-06-05T23:53:00Z,42.93,-71.43,17.2,9.4,330,9,,10.0,29.760826,1009.0,,,TRUE,,,,,,,FEW,4000,FEW,6000,BKN,10000,,,VFR,0.0,19.4,16.1,,,,,0.005,,,,METAR,68.0
KMHE 052353Z AUTO 18004KT 10SM CLR 33/11 A2998 RMK AO2 SLP144 T03280111 10333 20306 56011,KMHE,2023-06-05T23:53:00Z,43.77,-98.03,32.8,11.1,180,4,,10.0,29.97933,1014.4,,TRUE,TRUE,,,,,,,CLR,,,,,,,,VFR,-1.1,33.3,30.6,,,,,,,,,METAR,397.0
KMGY 052353Z AUTO 02004KT 6SM HZ CLR 23/02 A2996 RMK AO2 SLP140 T02330017 10272 20233 55005,KMGY,2023-06-05T23:53:00Z,39.6,-84.23,23.3,1.7,20,4,,6.0,29.958662,1014.0,,TRUE,TRUE,,,,,,HZ,CLR,,,,,,,,VFR,-0.5,27.2,23.3,,,,,,,,,METAR,290.0
KMGW 052353Z 32003KT 10SM CLR 21/08 A2997 RMK AO2 SLP145 T02110078 10244 20206 53001,KMGW,2023-06-05T23:53:00Z,39.65,-79.92,21.1,7.8,320,3,,10.0,29.970472,1014.5,,,TRUE,,,,,,,CLR,,,,,,,,VFR,0.1,24.4,20.6,,,,,,,,,SPECI,375.0
KMGM 052353Z 11005KT 10SM CLR 29/19 A2990 RMK AO2 SLP123 T02890189 10317 20289 53003,KMGM,2023-06-05T23:53:00Z,32.3,-86.4,28.9,18.9,110,5,,10.0,29.899607,1012.3,,,TRUE,,,,,,,CLR,,,,,,,,VFR,0.3,31.7,28.9,,,,,,,,,METAR,64.0
KMFR 052353Z 28005KT 10SM CLR 30/11 A2980 RMK AO2 SLP081 T03000106 10311 20222 56009,KMFR,2023-06-05T23:53:00Z,42.38,-122.87,30.0,10.6,280,5,,10.0,29.799213,1008.1,,,TRUE,,,,,,,CLR,,,,,,,,VFR,-0.9,31.1,22.2,,,,,,,,,METAR,397.0
KMFE 052353Z 13009KT 10SM CLR 28/20 A2985 RMK AO2 SLP106 T02780200 10339 20272 50006,KMFE,2023-06-05T23:53:00Z,26.18,-98.25,27.8,20.0,130,9,,10.0,29.84941,1010.6,,,TRUE,,,,,,,CLR,,,,,,,,VFR,0.6,33.9,27.2,,,,,,,,,METAR,29.0
KMER 052353Z 29011KT 10SM BKN100 28/11 A2970,KMER,2023-06-05T23:53:00Z,37.38,-120.57,28.0,11.0,290,11,,10.0,29.698818,,,,,,,,,,,BKN,10000,,,,,,,VFR,,,,,,,,,,,,METAR,58.0
KMDW 052353Z 09004KT 10SM CLR 26/04 A3001 RMK AO2 SLP156 T02560039 10294 20250 56007,KMDW,2023-06-05T23:53:00Z,41.78,-87.75,25.6,3.9,90,4,,10.0,30.008858,1015.6,,,TRUE,,,,,,,CLR,,,,,,,,VFR,-0.7,29.4,25.0,,,,,,,,,METAR,186.0
KMCW 052353Z AUTO 13003KT 8SM FEW085 30/12 A3002 RMK AO2 SLP154 T03000122 10317 20294 56009,KMCW,2023-06-05T23:53:00Z,43.15,-93.33,30.0,12.2,130,3,,8.0,30.02067,1015.4,,TRUE,TRUE,,,,,,,FEW,8500,,,,,,,VFR,-0.9,31.7,29.4,,,,,,,,,METAR,363.0
KMCO 052353Z 07012G19KT 10SM FEW050 FEW250 26/18 A2991 RMK AO2 SLP127 T02610178 10311 20261 53009,KMCO,2023-06-05T23:53:00Z,28.42,-81.33,26.1,17.8,70,12,19,10.0,29.911417,1012.7,,,TRUE,,,,,,,FEW,5000,FEW,25000,,,,,VFR,0.9,31.1,26.1,,,,,,,,,METAR,27.0
KMCN 052353Z AUTO 35004KT 10SM CLR 28/18 A2992 RMK AO2 SLP129 T02780178 10300 20267 55001,KMCN,2023-06-05T23:53:00Z,32.68,-83.65,27.8,17.8,350,4,,10.0,29.920275,1012.9,,TRUE,TRUE,,,,,,,CLR,,,,,,,,VFR,-0.1,30.0,26.7,,,,,,,,,METAR,104.0
KMCK 052353Z AUTO 00000KT 10SM CLR 20/15 A3008 RMK AO2 SLP172 60000 T02000150 10278 20189 58007,KMCK,2023-06-05T23:53:00Z,40.2,-100.58,20.0,15.0,0,0,,10.0,30.079725,1017.2,,TRUE,TRUE,,,,,,,CLR,,,,,,,,VFR,-0.7,27.8,18.9,,,,,0.005,,,,METAR,780.0
KMCI 052353Z 29009KT 10SM SCT075 SCT090 OVC250 26/17 A3001 RMK AO2 LTG DSNT N AND NW SLP154 T02560172 10311 20256 53008,KMCI,2023-06-05T23:53:00Z,39.3,-94.73,25.6,17.2,290,9,,10.0,30.008858,1015.4,,,TRUE,,,,,,,SCT,7500,SCT,9000,OVC,25000,,,VFR,0.8,31.1,25.6,,,,,,,,,METAR,308.0
KMCE 052353Z AUTO 29011G18KT 10SM CLR 27/11 A2968 RMK AO2 SLP050 T02670111 10294 20244 58006,KMCE,2023-06-05T23:53:00Z,37.28,-120.5,26.7,11.1,290,11,18,10.0,29.681103,1005.0,,TRUE,TRUE,,,,,,,CLR,,,,,,,,VFR,-0.6,29.4,24.4,,,,,,,,,METAR,49.0
KMCB 052353Z AUTO 03004KT 10SM SCT095 22/16 A2995 RMK AO2 LTG DSNT N AND NE PRESRR SLP136 T02220161 10311 20211 53018,KMCB,2023-06-05T23:53:00Z,31.18,-90.47,22.2,16.1,30,4,,10.0,29.949802,1013.6,,TRUE,TRUE,,,,,,,SCT,9500,,,,,,,VFR,1.8,31.1,21.1,,,,,,,,,METAR,124.0
KMBS 052353Z 08010KT 10SM OVC070 24/13 A2997 RMK AO2 SLP145 T02390128 10283 20239 55004,KMBS,2023-06-05T23:53:00Z,43.53,-84.08,23.9,12.8,80,10,,10.0,29.970472,1014.5,,,TRUE,,,,,,,OVC,7000,,,,,,,VFR,-0.4,28.3,23.9,,,,,,,,,METAR,201.0
KMAI 052353Z AUTO 07005KT 10SM CLR 28/17 A2990 RMK AO2 SLP122 T02780172 10294 20278 55003,KMAI,2023-06-05T23:53:00Z,30.83,-85.18,27.8,17.2,70,5,,10.0,29.899607,1012.2,,TRUE,TRUE,,,,,,,CLR,,,,,,,,VFR,-0.3,29.4,27.8,,,,,,,,,METAR,33.0
KMAF 052353Z 03012G18KT 10SM CLR 27/13 A3000 RMK AO2 SLP119 T02720133 10283 20222 56010,KMAF,2023-06-05T23:53:00Z,31.95,-102.2,27.2,13.3,30,12,18,10.0,30.0,1011.9,,,TRUE,,,,,,,CLR,,,,,,,,VFR,-1.0,28.3,22.2,,,,,,,,,METAR,874.0
KMAE 052353Z AUTO 29003KT 10SM FEW065 SCT095 SCT110 27/14 A2973 RMK AO2 WSHFT 2312 RAE00B40E52 SLP064 P0000 60000 T02670139 10306 20250 53009,KMAE,2023-06-05T23:53:00Z,36.98,-120.12,26.7,13.9,290,3,,10.0,29.731298,1006.4,,TRUE,TRUE,,,,,,,FEW,6500,SCT,9500,SCT,11000,,,VFR,0.9,30.6,25.0,,,0.005,,0.005,,,,METAR,77.0
KLXV 052353Z AUTO 02011G18KT 10SM OVC060 12/02 A3034 RMK AO2 PK WND 01026/2336 SLP143 T01220022 10172 20122 55000,KLXV,2023-06-05T23:53:00Z,39.23,-106.32,12.2,2.2,20,11,18,10.0,30.339567,1014.3,,TRUE,TRUE,,,,,,,OVC,6000,,,,,,,VFR,0.0,17.2,12.2,,,,,,,,,METAR,3027.0
KLXT 052353Z AUTO VRB03KT 10SM FEW080 SCT100 25/19 A3001 RMK AO2 LTG DSNT SE SLP153 T02500194 10311 20244 51006,KLXT,2023-06-05T23:53:00Z,38.97,-94.37,25.0,19.4,0,3,,10.0,30.008858,1015.3,,TRUE,TRUE,,,,,,,FEW,8000,SCT,10000,,,,,VFR,0.6,31.1,24.4,,,,,,,,,METAR,306.0
KLWV 052353Z AUTO 04010KT 10SM CLR 26/06 A2995 RMK AO2 SLP138 T02610056 10306 20261 56008,KLWV,2023-06-05T23:53:00Z,38.77,-87.6,26.1,5.6,40,10,,10.0,29.949802,1013.8,,TRUE,TRUE,,,,,,,CLR,,,,,,,,VFR,-0.8,30.6,26.1,,,,,,,,,METAR,128.0
KLWD 052353Z AUTO 10003KT 8SM CLR 28/16 A3002 RMK AO2 SLP159 T02780161 10306 20272 55001,KLWD,2023-06-05T23:53:00Z,40.63,-93.9,27.8,16.1,100,3,,8.0,30.02067,1015.9,,TRUE,TRUE,,,,,,,CLR,,,,,,,,VFR,-0.1,30.6,27.2,,,,,,,,,METAR,345.0
KLVS 052353Z AUTO 07008KT 10SM CLR 17/08 A3024 RMK AO2 LTG DSNT NW SLP164 60011 T01670083 10178 20133 57002,KLVS,2023-06-05T23:53:00Z,35.65,-105.13,16.7,8.3,70,8,,10.0,30.239174,1016.4,,TRUE,TRUE,,,,,,,CLR,,,,,,,,VFR,-0.2,17.8,13.3,,,,,,,,,SPECI,2095.0
KLVM 052353Z AUTO 09015KT 10SM CLR 26/13 A2997 RMK AO2 LTG DSNT NW SLP112 60000 T02560133 10267 20228 58011,KLVM,2023-06-05T23:53:00Z,45.7,-110.43,25.6,13.3,90,15,,10.0,29.970472,1011.2,,TRUE,TRUE,,,,,,,CLR,,,,,,,,VFR,-1.1,26.7,22.8,,,,,0.005,,,,METAR,1418.0
KLVK 052353Z 30013KT 10SM CLR 23/11 A2976 RMK AO2 SLP075 T02280111 10250 20200 55000,KLVK,2023-06-05T23:53:00Z,37.7,-121.82,22.8,11.1,300,13,,10.0,29.760826,1007.5,,,TRUE,,,,,,,CLR,,,,,,,,VFR,0.0,25.0,20.0,,,,,,,,,METAR,120.0
KLVJ 052353Z AUTO 10SM CLR 23/21 A2989 RMK AO2 RAE40 SLP119 P0000 60001 T02280206 10306 20222 55005,KLVJ,2023-06-05T23:53:00Z,29.52,-95.25,22.8,20.6,,,,10.0,29.890747,1011.9,,TRUE,TRUE,,,,,,,CLR,,,,,,,,VFR,-0.5,30.6,22.2,,,0.005,,0.01,,,,METAR,11.0
KLUK 052353Z 00000KT 7SM CLR 24/12 A2995 RMK AO2 SLP138 T02390122 10283 20239 56004,KLUK,2023-06-05T23:53:00Z,39.1,-84.42,23.9,12.2,0,0,,7.0,29.949802,1013.8,,,TRUE,,,,,,,CLR,,,,,,,,VFR,-0.4,28.3,23.9,,,,,,,,,METAR,144.0
KLSE 052353Z 21006KT 5SM FU CLR 29/16 A3000 RMK AO2 SLP149 VIS NW 2 N 3 T02940156 10311 20261 56010,KLSE,2023-06-05T23:53:00Z,43.88,-91.25,29.4,15.6,210,6,,5.0,30.0,1014.9,,,TRUE,,,,,,FU,CLR,,,,,,,,MVFR,-1.0,31.1,26.1,,,,,,,,,METAR,198.0
KLPR 052353Z AUTO 00000KT 8SM CLR 21/05 A2999 RMK AO2 SLP155 6//// T02060050 10222 20206 56007 PNO $,KLPR,2023-06-05T23:53:00Z,41.35,-82.18,20.6,5.0,0,0,,8.0,29.991142,1015.5,,TRUE,TRUE,TRUE,,,,,,CLR,,,,,,,,VFR,-0.7,22.2,20.6,,,,,,,,,METAR,241.0
KLOZ 052353Z AUTO 03008KT 10SM CLR 24/12 A2994 RMK AO2 SLP126 T02440122 10300 20244 53004,KLOZ,2023-06-05T23:53:00Z,37.08,-84.07,24.4,12.2,30,8,,10.0,29.940945,1012.6,,TRUE,TRUE,,,,,,,CLR,,,,,,,,VFR,0.4,30.0,24.4,,,,,,,,,METAR,361.0
KLOU 052353Z 04007KT 10SM CLR 26/13 A2992 RMK AO2 SLP128 T02610128 10294 20261 56002,KLOU,2023-06-05T23:53:00Z,38.22,-85.67,26.1,12.8,40,7,,10.0,29.920275,1012.8,,,TRUE,,,,,,,CLR,,,,,,,,VFR,-0.2,29.4,26.1,,,,,,,,,METAR,165.0
KLOL 052353Z AUTO 07023G37KT 8SM CLR 23/04 A2989 RMK AO2 PK WND 08037/2350 LTG DSNT SW RAE2255 SLP093 P0000 60000 T02330039 10300 20228 55002,KLOL,2023-06-05T23:53:00Z,40.07,-118.57,23.3,3.9,70,23,37,8.0,29.890747,1009.3,,TRUE,TRUE,,,,,,,CLR,,,,,,,,VFR,-0.2,30.0,22.8,,,0.005,,,,,,SPECI,1191.0
KLNS 052353Z 35007KT 10SM CLR 22/02 A2986 RMK AO2 SLP110 T02220017 10267 20217 53002,KLNS,2023-06-05T23:53:00Z,40.12,-76.3,22.2,1.7,350,7,,10.0,29.861221,1011.0,,,TRUE,,,,,,,CLR,,,,,,,,VFR,0.2,26.7,21.7,,,,,,,,,METAR,122.0
KLND 052353Z AUTO 10SM CLR 23/13 A3004 RMK AO2 SLP118 T02280128 10228 20194 56013,KLND,2023-06-05T23:53:00Z,42.82,-108.73,22.8,12.8,,,,10.0,30.041338,1011.8,,TRUE,TRUE,,,,,,,CLR,,,,,,,,VFR,-1.3,22.8,19.4,,,,,,,,,METAR,1700.0
KLMT 052353Z 07009KT 10SM CLR 25/07 A2996 RMK AO2 SLPNO T02500072 10256 20228 58009,KLMT,2023-06-05T23:53:00Z,42.15,-121.72,25.0,7.2,70,9,,10.0,29.958662,,,,TRUE,,,,,,,CLR,,,,,,,,VFR,-0.9,25.6,22.8,,,,,,,,,METAR,1246.0
KLLQ 052353Z AUTO 00000KT 10SM VCTS CLR 29/22 A2986 RMK AO2 LTG DSNT NE SLP109 T02940222 10344 20294 55000,KLLQ,2023-06-05T23:53:00Z,33.63,-91.75,29.4,22.2,0,0,,10.0,29.861221,1010.9,,TRUE,TRUE,,,,,,VCTS,CLR,,,,,,,,VFR,0.0,34.4,29.4,,,,,,,,,METAR,86.0
KLKV 052353Z AUTO 34018G24KT 10SM BKN100 19/09 A3002 RMK AO2 TSE00B01E06B14E32 SLP134 6//// T01940089 10278 20189 53003,KLKV,2023-06-05T23:53:00Z,42.17,-120.4,19.4,8.9,340,18,24,10.0,30.02067,1013.4,,TRUE,TRUE,,,,,,,BKN,10000,,,,,,,VFR,0.3,27.8,18.9,,,,,,,,,METAR,1440.0
KLIT 052353Z 09006KT 10SM FEW065 OVC250 29/17 A2989 RMK AO2 LTG DSNT E SLP120 DSNT CB DSIPTD 60000 T02890172 10356 20283 53007,KLIT,2023-06-05T23:53:00Z,34.73,-92.23,28.9,17.2,90,6,,10.0,29.890747,1012.0,,,TRUE,,,,,,,FEW,6500,OVC,25000,,,,,VFR,0.7,35.6,28.3,,,,,0.005,,,,METAR,77.0
KLHX 052353Z AUTO 10SM CLR 21/13 A3013 RMK AO2 SLP159 60005 T02060128 10206 20156 56015,KLHX,2023-06-05T23:53:00Z,38.05,-103.52,20.6,12.8,,,,10.0,30.129921,1015.9,,TRUE,TRUE,,,,,,,CLR,,,,,,,,VFR,-1.5,20.6,15.6,,,,,0.05,,,,METAR,1289.0
KLHQ 052353Z AUTO 08004KT 7SM CLR 20/09 A2998 RMK AO2 SLP149 T02000089 10250 20200 55002,KLHQ,2023-06-05T23:53:00Z,39.75,-82.67,20.0,8.9,80,4,,7.0,29.97933,1014.9,,TRUE,TRUE,,,,,,,CLR,,,,,,,,VFR,-0.2,25.0,20.0,,,,,,,,,METAR,259.0
KLGB 052353Z 18007KT 10SM CLR 18/09 A2989 RMK AO2 SLP121 T01830089 10194 20172 58009,KLGB,2023-06-05T23:53:00Z,33.82,-118.15,18.3,8.9,180,7,,10.0,29.890747,1012.1,,,TRUE,,,,,,,CLR,,,,,,,,VFR,-0.9,19.4,17.2,,,,,,,,,SPECI,10.0
KLFT 052353Z 07004KT 10SM FEW080 FEW100 SCT110 23/22 A2991 RMK AO2 RAE04 SLP126 P0000 60128 T02280217 10322 20211 53008,KLFT,2023-06-05T23:53:00Z,30.2,-91.97,22.8,21.7,70,4,,10.0,29.911417,1012.6,,,TRUE,,,,,,,FEW,8000,FEW,10000,SCT,11000,,,VFR,0.8,32.2,21.1,,,0.005,,1.28,,,,METAR,9.0
KLFK 052353Z AUTO 00000KT 10SM FEW110 28/18 A2987 RMK AO2 LTG DSNT SW AND W SLP110 T02830183 10311 20283 55000,KLFK,2023-06-05T23:53:00Z,31.23,-94.75,28.3,18.3,0,0,,10.0,29.870079,1011.0,,TRUE,TRUE,,,,,,,FEW,11000,,,,,,,VFR,0.0,31.1,28.3,,,,,,,,,SPECI,87.0
KLEE 052353Z AUTO 06010KT 10SM CLR 27/18 A2992 RMK AO2 SLP131 T02670178 10311 20256 53009,KLEE,2023-06-05T23:53:00Z,28.82,-81.82,26.7,17.8,60,10,,10.0,29.920275,1013.1,,TRUE,TRUE,,,,,,,CLR,,,,,,,,VFR,0.9,31.1,25.6,,,,,,,,,METAR,21.0
KLEB 052353Z 00000KT 10SM SCT100 18/11 A2978 RMK AO2 SLP080 60000 T01830106 10206 20183 57002,KLEB,2023-06-05T23:53:00Z,43.63,-72.3,18.3,10.6,0,0,,10.0,29.778543,1008.0,,,TRUE,,,,,,,SCT,10000,,,,,,,VFR,-0.2,20.6,18.3,,,,,0.005,,,,METAR,169.0
KLCH 052353Z 17007KT 10SM FEW070 OVC100 21/20 A2987 RMK AO2 RAE47 SLP123 P0005 60074 T02110200 10289 20200 56010,KLCH,2023-06-05T23:53:00Z,30.13,-93.22,21.1,20.0,170,7,,10.0,29.870079,1012.3,,,TRUE,,,,,,,FEW,7000,OVC,10000,,,,,VFR,-1.0,28.9,20.0,,,0.05,,0.74,,,,METAR,2.0
KLBX 052353Z AUTO 34004KT 10SM CLR 22/21 A2988 RMK AO2 SLP117 60133 T02220206 10306 20211 55011,KLBX,2023-06-05T23:53:00Z,29.12,-95.47,22.2,20.6,340,4,,10.0,29.878937,1011.7,,TRUE,TRUE,,,,,,,CLR,,,,,,,,VFR,-1.1,30.6,21.1,,,,,1.33,,,,METAR,4.0
KLBF 052353Z AUTO 09005KT 10SM VCTS FEW065 FEW080 24/16 A3009 RMK AO2 LTG DSNT S RAE25 SLP169 P0000 60000 T02390161 10283 20217 55002,KLBF,2023-06-05T23:53:00Z,41.12,-100.67,23.9,16.1,90,5,,10.0,30.088583,1016.9,,TRUE,TRUE,,,,,,VCTS,FEW,6500,FEW,8000,,,,,VFR,-0.2,28.3,21.7,,,0.005,,0.005,,,,METAR,843.0
KLBB 052353Z 10006KT 10SM FEW060 SCT080 BKN110 BKN180 24/13 A3006 RMK AO2 SLP138 BLDG CU ALQDS 60002 T02390133 10250 20183 56008,KLBB,2023-06-05T23:53:00Z,33.67,-101.82,23.9,13.3,100,6,,10.0,30.059055,1013.8,,,TRUE,,,,,,,FEW,6000,SCT,8000,BKN,11000,BKN,18000,VFR,-0.8,25.0,18.3,,,,,0.02,,,,METAR,996.0
KLAX 052353Z 22010KT 10SM FEW015 BKN037 18/11 A2989 RMK AO2 SLP119 60000 T01780111 10189 20150 58010,KLAX,2023-06-05T23:53:00Z,33.93,-118.38,17.8,11.1,220,10,,10.0,29.890747,1011.9,,,TRUE,,,,,,,FEW,1500,BKN,3700,,,,,VFR,-1.0,18.9,15.0,,,,,0.005,,,,METAR,30.0
KLAW 052353Z AUTO 00000KT 10SM CLR 27/18 A2995 RMK AO2 SLP131 T02720178 10317 20272 55000 $,KLAW,2023-06-05T23:53:00Z,34.55,-98.42,27.2,17.8,0,0,,10.0,29.949802,1013.1,,TRUE,TRUE,TRUE,,,,,,CLR,,,,,,,,VFR,0.0,31.7,27.2,,,,,,,,,METAR,328.0
KLAR 052353Z AUTO 15008KT 10SM -RA OVC060 12/09 A3022 RMK AO2 RAE2255B15 SLP161 P0001 60001 T01170089 10194 20117 50001 $,KLAR,2023-06-05T23:53:00Z,41.32,-105.67,11.7,8.9,150,8,,10.0,30.221457,1016.1,,TRUE,TRUE,TRUE,,,,,-RA,OVC,6000,,,,,,,VFR,0.1,19.4,11.7,,,0.01,,,,,,SPECI,2217.0
KLAN 052353Z AUTO 27004KT 7SM BKN090 27/09 A2996 RMK AO2 SLP140 T02720089 10289 20256 58013,KLAN,2023-06-05T23:53:00Z,42.78,-84.58,27.2,8.9,270,4,,7.0,29.958662,1014.0,,TRUE,TRUE,,,,,,,BKN,9000,,,,,,,VFR,-1.3,28.9,25.6,,,,,,,,,METAR,261.0
KLAA 052353Z AUTO 18007KT 10SM CLR 22/12 A3011 RMK AO2 SLP160 60029 T02170122 10222 20156 56014,KLAA,2023-06-05T23:53:00Z,38.07,-102.68,21.7,12.2,180,7,,10.0,30.109253,1016.0,,TRUE,TRUE,,,,,,,CLR,,,,,,,,VFR,-1.4,22.2,15.6,,,,,0.29,,,,METAR,1129.0
KJLN 052353Z 05006KT 10SM CLR 28/17 A2996 RMK AO2 SLP136 T02780167 10328 20278 51004,KJLN,2023-06-05T23:53:00Z,37.15,-94.5,27.8,16.7,50,6,,10.0,29.958662,1013.6,,,TRUE,,,,,,,CLR,,,,,,,,VFR,0.4,32.8,27.8,,,,,,,,,METAR,297.0
KJKL 052353Z AUTO 00000KT 10SM CLR 23/14 A2996 RMK AO2 SLP131 T02280139 10278 20228 55001,KJKL,2023-06-05T23:53:00Z,37.6,-83.32,22.8,13.9,0,0,,10.0,29.958662,1013.1,,TRUE,TRUE,,,,,,,CLR,,,,,,,,VFR,-0.1,27.8,22.8,,,,,,,,,METAR,414.0
KJER 052353Z AUTO 10SM CLR 26/09 A2996 RMK AO2 SLP114 T02560089 10261 20200 58015,KJER,2023-06-05T23:53:00Z,42.72,-114.45,25.6,8.9,,,,10.0,29.958662,1011.4,,TRUE,TRUE,,,,,,,CLR,,,,,,,,VFR,-1.5,26.1,20.0,,,,,,,,,METAR,1226.0
KJEF 052353Z 07004KT 10SM CLR 28/11 A2998 RMK AO2 SLP138 T02780111 10311 20278 55002,KJEF,2023-06-05T23:53:00Z,38.6,-92.15,27.8,11.1,70,4,,10.0,29.97933,1013.8,,,TRUE,,,,,,,CLR,,,,,,,,VFR,-0.2,31.1,27.8,,,,,,,,,METAR,167.0
KJBR 052353Z AUTO 19009KT 10SM FEW100 27/17 A2992 RMK AO2 SLP130 T02670167 10339 20267 53011 $,KJBR,2023-06-05T23:53:00Z,35.83,-90.65,26.7,16.7,190,9,,10.0,29.920275,1013.0,,TRUE,TRUE,TRUE,,,,,,FEW,10000,,,,,,,VFR,1.1,33.9,26.7,,,,,,,,,METAR,79.0
KIXD 052353Z 00000KT 10SM FEW045 22/19 A3002 RMK AO2 RAE41 SLP155 P0001 60035 T02220194 10294 20194 56004 $,KIXD,2023-06-05T23:53:00Z,38.82,-94.88,22.2,19.4,0,0,,10.0,30.02067,1015.5,,,TRUE,TRUE,,,,,,FEW,4500,,,,,,,VFR,-0.4,29.4,19.4,,,0.01,,0.35,,,,METAR,322.0
KIWI 052353Z AUTO VRB03KT 10SM FEW024 BKN034 OVC041 13/11 A2975 RMK AO2 RAE2254B11E22 SLP074 P0000 60001 T01330111 10144 20133 58007,KIWI,2023-06-05T23:53:00Z,43.97,-69.72,13.3,11.1,0,3,,10.0,29.749016,1007.4,,TRUE,TRUE,,,,,,,FEW,2400,BKN,3400,OVC,4100,,,VFR,-0.7,14.4,13.3,,,0.005,,0.01,,,,METAR,16.0
KITR 052353Z AUTO 22017G23KT 10SM CLR 23/12 A3014 RMK AO2 SLP168 T02280122 10244 20217 56006,KITR,2023-06-05T23:53:00Z,39.23,-102.28,22.8,12.2,220,17,23,10.0,30.138779,1016.8,,TRUE,TRUE,,,,,,,CLR,,,,,,,,VFR,-0.6,24.4,21.7,,,,,,,,,SPECI,1285.0
KIPL 052353Z AUTO 28019G29KT 7SM CLR 33/03 A2961 RMK AO2 PK WND 26032/2258 SLP027 T03330033 10361 20306 56013,KIPL,2023-06-05T23:53:00Z,32.83,-115.58,33.3,3.3,280,19,29,7.0,29.610237,1002.7,,TRUE,TRUE,,,,,,,CLR,,,,,,,,VFR,-1.3,36.1,30.6,,,,,,,,,METAR,-16.0
KINK 052353Z AUTO 03011G20KT 10SM SCT070 30/11 A2997 RMK AO2 SLP107 T03000111 10311 20261 56010,KINK,2023-06-05T23:53:00Z,31.78,-103.2,30.0,11.1,30,11,20,10.0,29.970472,1010.7,,TRUE,TRUE,,,,,,,SCT,7000,,,,,,,VFR,-1.0,31.1,26.1,,,,,,,,,METAR,857.0
KIML 052353Z AUTO 18009KT 10SM CLR 23/14 A3009 RMK AO2 WSHFT 2254 SLP172 T02280139 10261 20217 56010 $,KIML,2023-06-05T23:53:00Z,40.52,-101.62,22.8,13.9,180,9,,10.0,30.088583,1017.2,,TRUE,TRUE,TRUE,,,,,,CLR,,,,,,,,VFR,-1.0,26.1,21.7,,,,,,,,,METAR,997.0
KILM 052353Z 19009KT 10SM CLR 21/11 A2992 RMK AO2 SLP131 T02110106 10272 20211 53000 $,KILM,2023-06-05T23:53:00Z,34.27,-77.9,21.1,10.6,190,9,,10.0,29.920275,1013.1,,,TRUE,TRUE,,,,,,CLR,,,,,,,,VFR,0.0,27.2,21.1,,,,,,,,,METAR,9.0
KIDA 052353Z 24009KT 10SM CLR 26/09 A3000 RMK AO2 SLP125 T02560094 10267 20217 58013,KIDA,2023-06-05T23:53:00Z,43.52,-112.07,25.6,9.4,240,9,,10.0,30.0,1012.5,,,TRUE,,,,,,,CLR,,,,,,,,VFR,-1.3,26.7,21.7,,,,,,,,,METAR,1444.0
KICT 052353Z 36010KT 10SM FEW120 SCT150 BKN190 BKN250 23/16 A3000 RMK AO2 SLP149 60128 T02330156 10311 20189 55005,KICT,2023-06-05T23:53:00Z,37.65,-97.43,23.3,15.6,360,10,,10.0,30.0,1014.9,,,TRUE,,,,,,,FEW,12000,SCT,15000,BKN,19000,BKN,25000,VFR,-0.5,31.1,18.9,,,,,1.28,,,,METAR,428.0
KICR 052353Z AUTO 16007KT 10SM FEW075 29/14 A3003 RMK AO2 SLP155 T02890139 10311 20283 56008,KICR,2023-06-05T23:53:00Z,43.38,-99.85,28.9,13.9,160,7,,10.0,30.029528,1015.5,,TRUE,TRUE,,,,,,,FEW,7500,,,,,,,VFR,-0.8,31.1,28.3,,,,,,,,,METAR,618.0
KIAH 052353Z 27006KT 10SM FEW010 FEW055 SCT080 BKN150 BKN250 22/20 A2989 RMK AO2 LTG DSNT W-N RAB01E25 SLP120 VCSH S-NW CB DSNT W-NW P0000 60088 T02220200 10317 20222 53002,KIAH,2023-06-05T23:53:00Z,30.0,-95.37,22.2,20.0,270,6,,10.0,29.890747,1012.0,,,TRUE,,,,,,,FEW,1000,FEW,5500,SCT,8000,BKN,15000,VFR,0.2,31.7,22.2,,,0.005,,0.88,,,,METAR,27.0
KIAG 052353Z 21008KT 8SM CLR 18/09 A2992 RMK AO2 SLP131 T01830094 10233 20183 56006,KIAG,2023-06-05T23:53:00Z,43.12,-78.93,18.3,9.4,210,8,,8.0,29.920275,1013.1,,,TRUE,,,,,,,CLR,,,,,,,,VFR,-0.6,23.3,18.3,,,,,,,,,METAR,179.0
KHZY 052353Z AUTO 00000KT 10SM CLR 19/06 A2998 RMK AO2 SLP150 T01940061 10222 20194 56009,KHZY,2023-06-05T23:53:00Z,41.78,-80.7,19.4,6.1,0,0,,10.0,29.97933,1015.0,,TRUE,TRUE,,,,,,,CLR,,,,,,,,VFR,-0.9,22.2,19.4,,,,,,,,,METAR,279.0
KHYR 052353Z AUTO 04009KT 10SM CLR 23/14 A3009 RMK AO2 SLP188 T02280144 10272 20228 56003,KHYR,2023-06-05T23:53:00Z,46.02,-91.45,22.8,14.4,40,9,,10.0,30.088583,1018.8,,TRUE,TRUE,,,,,,,CLR,,,,,,,,VFR,-0.3,27.2,22.8,,,,,,,,,METAR,369.0
KHWO 052353Z 06010KT FEW041 BKN060 27/22 A2988 RMK AO2 SLP117 60004 T02670217 10311 20267 53008,KHWO,2023-06-05T23:53:00Z,26.0,-80.23,26.7,21.7,60,10,,,29.878937,1011.7,,,TRUE,,,,,,,FEW,4100,BKN,6000,,,,,,0.8,31.1,26.7,,,,,0.04,,,,METAR,2.0
KHVR 052353Z AUTO 13006KT 10SM CLR 24/17 A2988 RMK AO2 SLP104 T02390172 10289 20233 58006,KHVR,2023-06-05T23:53:00Z,48.55,-109.77,23.9,17.2,130,6,,10.0,29.878937,1010.4,,TRUE,TRUE,,,,,,,CLR,,,,,,,,VFR,-0.6,28.9,23.3,,,,,,,,,METAR,789.0
KHVN 052353Z 17005KT 10SM FEW080 18/12 A2979 RMK AO2 SLP085 T01780117 10239 20178 53001,KHVN,2023-06-05T23:53:00Z,41.27,-72.88,17.8,11.7,170,5,,10.0,29.790354,1008.5,,,TRUE,,,,,,,FEW,8000,,,,,,,VFR,0.1,23.9,17.8,,,,,,,,,METAR,4.0
KHUL 052353Z AUTO 36011KT 10SM SCT011 BKN017 OVC023 12/10 A2975 RMK AO2 SLP077 60003 T01170100 10128 20117 58012,KHUL,2023-06-05T23:53:00Z,46.12,-67.8,11.7,10.0,360,11,,10.0,29.749016,1007.7,,TRUE,TRUE,,,,,,,SCT,1100,BKN,1700,OVC,2300,,,MVFR,-1.2,12.8,11.7,,,,,0.03,,,,METAR,148.0
KHUF 052353Z 03007KT 6SM HZ CLR 26/04 A2997 RMK AO2 SLP145 T02560039 10283 20256 55008,KHUF,2023-06-05T23:53:00Z,39.45,-87.32,25.6,3.9,30,7,,6.0,29.970472,1014.5,,,TRUE,,,,,,HZ,CLR,,,,,,,,VFR,-0.8,28.3,25.6,,,,,,,,,METAR,174.0
KHSV 052353Z 15004KT 10SM FEW060 FEW100 BKN200 29/19 A2991 RMK AO2 SLP119 60000 T02890194 10328 20283 53003,KHSV,2023-06-05T23:53:00Z,34.65,-86.78,28.9,19.4,150,4,,10.0,29.911417,1011.9,,,TRUE,,,,,,,FEW,6000,FEW,10000,BKN,20000,,,VFR,0.3,32.8,28.3,,,,,0.005,,,,METAR,190.0
KHSI 052353Z AUTO 03006KT 10SM CLR 27/15 A3004 RMK AO2 SLP159 T02670150 10300 20267 55003,KHSI,2023-06-05T23:53:00Z,40.6,-98.43,26.7,15.0,30,6,,10.0,30.041338,1015.9,,TRUE,TRUE,,,,,,,CLR,,,,,,,,VFR,-0.3,30.0,26.7,,,,,,,,,METAR,592.0
KHRO 052353Z AUTO 04007KT 10SM CLR 28/16 A2997 RMK AO2 SLP134 T02780161 10317 20278 57001,KHRO,2023-06-05T23:53:00Z,36.27,-93.15,27.8,16.1,40,7,,10.0,29.970472,1013.4,,TRUE,TRUE,,,,,,,CLR,,,,,,,,VFR,-0.1,31.7,27.8,,,,,,,,,METAR,417.0
KHRI 052353Z AUTO 08009KT 10SM CLR 32/03 A2987 RMK AO2 SLP109 T03220033 10339 20261 58018,KHRI,2023-06-05T23:53:00Z,45.83,-119.27,32.2,3.3,80,9,,10.0,29.870079,1010.9,,TRUE,TRUE,,,,,,,CLR,,,,,,,,VFR,-1.8,33.9,26.1,,,,,,,,,METAR,194.0
KHQM 052353Z AUTO 34014G23KT 10SM CLR 21/05 A3006 RMK AO2 SLP183 T02110050 10217 20167 58023,KHQM,2023-06-05T23:53:00Z,46.97,-123.93,21.1,5.0,340,14,23,10.0,30.059055,1018.3,,TRUE,TRUE,,,,,,,CLR,,,,,,,,VFR,-2.3,21.7,16.7,,,,,,,,,METAR,4.0
KHOU 052353Z 29005KT 9SM FEW015 FEW050 SCT140 BKN250 22/21 A2987 RMK AO2 RAE23 SLP121 P0000 60067 T02220206 10311 20217 55006,KHOU,2023-06-05T23:53:00Z,29.63,-95.28,22.2,20.6,290,5,,9.0,29.870079,1012.1,,,TRUE,,,,,,,FEW,1500,FEW,5000,SCT,14000,BKN,25000,VFR,-0.6,31.1,21.7,,,0.005,,0.67,,,,METAR,13.0
KHOT 052353Z AUTO 06011G15KT 9SM VCTS FEW070 29/18 A2991 RMK AO2 LTG DSNT N AND NW SLP120 60000 T02940183 10328 20283 53002,KHOT,2023-06-05T23:53:00Z,34.48,-93.1,29.4,18.3,60,11,15,9.0,29.911417,1012.0,,TRUE,TRUE,,,,,,VCTS,FEW,7000,,,,,,,VFR,0.2,32.8,28.3,,,,,0.005,,,,METAR,153.0
KHLN 052353Z 26015G23KT 10SM CLR 22/12 A2997 RMK AO2 PK WND 28026/2302 LTG DSNT N SLP141 60002 T02170117 10272 20194 50007,KHLN,2023-06-05T23:53:00Z,46.6,-111.98,21.7,11.7,260,15,23,10.0,29.970472,1014.1,,,TRUE,,,,,,,CLR,,,,,,,,VFR,0.7,27.2,19.4,,,,,0.02,,,,METAR,1178.0
KHLG 052353Z 31004KT 10SM CLR 20/06 A2997 RMK AO2 SLP148 T02000061 10233 20200 55003,KHLG,2023-06-05T23:53:00Z,40.17,-80.65,20.0,6.1,310,4,,10.0,29.970472,1014.8,,,TRUE,,,,,,,CLR,,,,,,,,VFR,-0.3,23.3,20.0,,,,,,,,,METAR,365.0
KHLC 052353Z AUTO 01007KT 10SM CLR 26/14 A3006 RMK AO2 SLP161 60071 T02560139 10272 20183 58011,KHLC,2023-06-05T23:53:00Z,39.37,-99.83,25.6,13.9,10,7,,10.0,30.059055,1016.1,,TRUE,TRUE,,,,,,,CLR,,,,,,,,VFR,-1.1,27.2,18.3,,,,,0.71,,,,METAR,667.0
KHKY 052353Z 19004KT 10SM OVC032 21/17 A2994 RMK AO2 SLP119 T02110172 10233 20200 55001,KHKY,2023-06-05T23:53:00Z,35.75,-81.38,21.1,17.2,190,4,,10.0,29.940945,1011.9,,,TRUE,,,,,,,OVC,3200,,,,,,,VFR,-0.1,23.3,20.0,,,,,,,,,METAR,357.0
KHKS 052353Z 02003KT 10SM CLR 26/18 A2990 RMK AO2 LTG DSNT SW SLP118 60027 T02560183 10322 20233 53009,KHKS,2023-06-05T23:53:00Z,32.33,-90.22,25.6,18.3,20,3,,10.0,29.899607,1011.8,,,TRUE,,,,,,,CLR,,,,,,,,VFR,0.9,32.2,23.3,,,,,0.27,,,,METAR,103.0
KHKA 052353Z AUTO 00000KT 10SM CLR 29/18 A2990 RMK AO2 SLP121 T02890178 10344 20289 53008 $,KHKA,2023-06-05T23:53:00Z,35.93,-89.83,28.9,17.8,0,0,,10.0,29.899607,1012.1,,TRUE,TRUE,TRUE,,,,,,CLR,,,,,,,,VFR,0.8,34.4,28.9,,,,,,,,,METAR,78.0
KHJO 052353Z AUTO 10SM 31/10 A2968 RMK AO2 SLP052 6//// T03060100 58010,KHJO,2023-06-05T23:53:00Z,36.32,-119.62,30.6,10.0,,,,10.0,29.681103,1005.2,,TRUE,TRUE,,,,,,,,,,,,,,,,-1.0,,,,,,,,,,,METAR,73.0
KHIO 052353Z 35011KT 10SM CLR 28/01 A2993 RMK AO2 SLP133 T02780011 10283 20217 56018,KHIO,2023-06-05T23:53:00Z,45.55,-122.95,27.8,1.1,350,11,,10.0,29.929134,1013.3,,,TRUE,,,,,,,CLR,,,,,,,,VFR,-1.8,28.3,21.7,,,,,,,,,METAR,62.0
KHIB 052353Z AUTO 15007KT 5SM HZ CLR 22/14 A3010 RMK AO2 SLP190 T02220139 10250 20222 55002,KHIB,2023-06-05T23:53:00Z,47.38,-92.83,22.2,13.9,150,7,,5.0,30.100393,1019.0,,TRUE,TRUE,,,,,,HZ,CLR,,,,,,,,MVFR,-0.2,25.0,22.2,,,,,,,,,METAR,409.0
KHHR 052353Z 22008KT 10SM BKN038 20/11 A2988 RMK AO2 SLP119 T02000106 10217 20172 58011,KHHR,2023-06-05T23:53:00Z,33.92,-118.33,20.0,10.6,220,8,,10.0,29.878937,1011.9,,,TRUE,,,,,,,BKN,3800,,,,,,,VFR,-1.1,21.7,17.2,,,,,,,,,METAR,21.0
KHGR 052353Z 34004KT 10SM CLR 22/07 A2990 RMK AO2 SLP131 T02220067 10256 20222 55000,KHGR,2023-06-05T23:53:00Z,39.7,-77.73,22.2,6.7,340,4,,10.0,29.899607,1013.1,,,TRUE,,,,,,,CLR,,,,,,,,VFR,0.0,25.6,22.2,,,,,,,,,METAR,206.0
KHFD 052353Z 09004KT 10SM BKN095 19/09 A2978 RMK AO2 SLP082 T01940089 10217 20189 55002,KHFD,2023-06-05T23:53:00Z,41.73,-72.65,19.4,8.9,90,4,,10.0,29.778543,1008.2,,,TRUE,,,,,,,BKN,9500,,,,,,,VFR,-0.2,21.7,18.9,,,,,,,,,METAR,3.0
KHEI 052353Z AUTO 14010KT 10SM CLR 29/14 A3002 RMK AO2 SLP147 T02890139 10306 20272 56015,KHEI,2023-06-05T23:53:00Z,46.02,-102.65,28.9,13.9,140,10,,10.0,30.02067,1014.7,,TRUE,TRUE,,,,,,,CLR,,,,,,,,VFR,-1.5,30.6,27.2,,,,,,,,,METAR,824.0
KHBR 052353Z AUTO 22013KT 10SM CLR 22/17 A2998 RMK AO2 LTG DSNT N AND SW SLP141 60058 T02170167 10306 20206 53001,KHBR,2023-06-05T23:53:00Z,34.98,-99.05,21.7,16.7,220,13,,10.0,29.97933,1014.1,,TRUE,TRUE,,,,,,,CLR,,,,,,,,VFR,0.1,30.6,20.6,,,,,0.58,,,,METAR,475.0
KHBG 052353Z AUTO 22006KT 10SM -RA FEW060 FEW090 BKN110 22/21 A2992 RMK AO2 SLP127 P0002 60003 T02220206 10328 20222 50003,KHBG,2023-06-05T23:53:00Z,31.27,-89.25,22.2,20.6,220,6,,10.0,29.920275,1012.7,,TRUE,TRUE,,,,,,-RA,FEW,6000,FEW,9000,BKN,11000,,,VFR,0.3,32.8,22.2,,,0.02,,0.03,,,,METAR,45.0
KHAO 052353Z AUTO 01003KT 4SM HZ CLR 22/10 A2996 RMK AO2 SLP143 T02220100 10278 20222 56007 $,KHAO,2023-06-05T23:53:00Z,39.37,-84.52,22.2,10.0,10,3,,4.0,29.958662,1014.3,,TRUE,TRUE,TRUE,,,,,HZ,CLR,,,,,,,,MVFR,-0.7,27.8,22.2,,,,,,,,,METAR,185.0
KGZH 052353Z AUTO 26006KT 10SM FEW055 26/19 A2992 RMK AO2 SLP129 T02560194 10311 20256 53008,KGZH,2023-06-05T23:53:00Z,31.42,-87.05,25.6,19.4,260,6,,10.0,29.920275,1012.9,,TRUE,TRUE,,,,,,,FEW,5500,,,,,,,VFR,0.8,31.1,25.6,,,,,,,,,METAR,77.0
KGWO 052353Z AUTO 17006KT 10SM CLR 27/19 A2988 RMK AO2 SLP116 T02720189 10344 20272 53006,KGWO,2023-06-05T23:53:00Z,33.5,-90.08,27.2,18.9,170,6,,10.0,29.878937,1011.6,,TRUE,TRUE,,,,,,,CLR,,,,,,,,VFR,0.6,34.4,27.2,,,,,,,,,METAR,42.0
KGVL 052353Z AUTO 22004KT 10SM CLR 26/18 A2993 RMK AO2 SLP122 T02610178 10278 20244 56008,KGVL,2023-06-05T23:53:00Z,34.27,-83.83,26.1,17.8,220,4,,10.0,29.929134,1012.2,,TRUE,TRUE,,,,,,,CLR,,,,,,,,VFR,-0.8,27.8,24.4,,,,,,,,,METAR,387.0
KGUY 052353Z AUTO 13004KT 10SM CLR 25/12 A3007 RMK AO2 SLP145 T02500122 10261 20217 56010,KGUY,2023-06-05T23:53:00Z,36.68,-101.5,25.0,12.2,130,4,,10.0,30.070866,1014.5,,TRUE,TRUE,,,,,,,CLR,,,,,,,,VFR,-1.0,26.1,21.7,,,,,,,,,METAR,950.0
KGUP 052353Z AUTO VRB04KT 10SM CLR 26/03 A3008 RMK AO2 SLP051 60002 T02560028 10261 20161 58016,KGUP,2023-06-05T23:53:00Z,35.52,-108.8,25.6,2.8,0,4,,10.0,30.079725,1005.1,,TRUE,TRUE,,,,,,,CLR,,,,,,,,VFR,-1.6,26.1,16.1,,,,,0.02,,,,METAR,1972.0
KGTF 052353Z 14006KT 10SM CLR 23/13 A2994 RMK AO2 LTG DSNT S AND SW SLP121 T02280133 10267 20228 58004,KGTF,2023-06-05T23:53:00Z,47.47,-111.38,22.8,13.3,140,6,,10.0,29.940945,1012.1,,,TRUE,,,,,,,CLR,,,,,,,,VFR,-0.4,26.7,22.8,,,,,,,,,METAR,1117.0
KGSP 052353Z 15004KT 10SM CLR 22/17 A2993 RMK AO2 SLP127 T02220172 10250 20222 56005,KGSP,2023-06-05T23:53:00Z,34.9,-82.22,22.2,17.2,150,4,,10.0,29.929134,1012.7,,,TRUE,,,,,,,CLR,,,,,,,,VFR,-0.5,25.0,22.2,,,,,,,,,METAR,285.0
KGSH 052353Z AUTO 35013KT 10SM CLR 26/07 A2999 RMK AO2 SLP153 T02610067 10283 20261 55007,KGSH,2023-06-05T23:53:00Z,41.53,-85.78,26.1,6.7,350,13,,10.0,29.991142,1015.3,,TRUE,TRUE,,,,,,,CLR,,,,,,,,VFR,-0.7,28.3,26.1,,,,,,,,,METAR,252.0
KGRR 052353Z 28009KT 10SM FEW080 BKN250 26/08 A2998 RMK AO2 SLP147 T02560083 10294 20256 58007,KGRR,2023-06-05T23:53:00Z,42.88,-85.52,25.6,8.3,280,9,,10.0,29.97933,1014.7,,,TRUE,,,,,,,FEW,8000,BKN,25000,,,,,VFR,-0.7,29.4,25.6,,,,,,,,,METAR,239.0
KGRI 052353Z 06007KT 10SM CLR 29/10 A3004 RMK AO2 SLP161 T02890100 10322 20289 56003,KGRI,2023-06-05T23:53:00Z,40.97,-98.32,28.9,10.0,60,7,,10.0,30.041338,1016.1,,,TRUE,,,,,,,CLR,,,,,,,,VFR,-0.3,32.2,28.9,,,,,,,,,METAR,562.0
KGRB 052353Z 04010KT 10SM CLR 25/16 A3002 RMK AO2 SLP162 T02500161 10300 20250 56010,KGRB,2023-06-05T23:53:00Z,44.48,-88.13,25.0,16.1,40,10,,10.0,30.02067,1016.2,,,TRUE,,,,,,,CLR,,,,,,,,VFR,-1.0,30.0,25.0,,,,,,,,,METAR,209.0
KGPT 052353Z 14009KT 10SM FEW027 27/21 A2990 RMK AO2 SLP126 T02720206 10300 20267 55002,KGPT,2023-06-05T23:53:00Z,30.42,-89.08,27.2,20.6,140,9,,10.0,29.899607,1012.6,,,TRUE,,,,,,,FEW,2700,,,,,,,VFR,-0.2,30.0,26.7,,,,,,,,,METAR,5.0
KGOK 052353Z AUTO 16003KT 10SM CLR 28/16 A2993 RMK AO2 SLP127 T02830156 10317 20283 55001 $,KGOK,2023-06-05T23:53:00Z,35.85,-97.4,28.3,15.6,160,3,,10.0,29.929134,1012.7,,TRUE,TRUE,TRUE,,,,,,CLR,,,,,,,,VFR,-0.1,31.7,28.3,,,,,,,,,METAR,326.0
KGNV 052353Z 08006KT 10SM CLR 26/16 A2994 RMK AO2 SLP136 T02610156 10306 20261 53006,KGNV,2023-06-05T23:53:00Z,29.7,-82.28,26.1,15.6,80,6,,10.0,29.940945,1013.6,,,TRUE,,,,,,,CLR,,,,,,,,VFR,0.6,30.6,26.1,,,,,,,,,METAR,41.0
KGMU 052353Z 17008KT 10SM BKN038 23/18 A2993 RMK AO2 SLP128 T02280178 10244 20222 56005,KGMU,2023-06-05T23:53:00Z,34.85,-82.35,22.8,17.8,170,8,,10.0,29.929134,1012.8,,,TRUE,,,,,,,BKN,3800,,,,,,,VFR,-0.5,24.4,22.2,,,,,,,,,METAR,309.0
KGLR 052353Z AUTO VRB03KT 6SM HZ CLR 24/09 A3002 RMK AO2 SLP160 T02440094 10272 20244 58002,KGLR,2023-06-05T23:53:00Z,45.02,-84.68,24.4,9.4,0,3,,6.0,30.02067,1016.0,,TRUE,TRUE,,,,,,HZ,CLR,,,,,,,,VFR,-0.2,27.2,24.4,,,,,,,,,METAR,403.0
KGLH 052353Z AUTO 00000KT 10SM CLR 29/20 A2985 RMK AO2 LTG DSNT S AND NW SLP113 T02940200 10339 20294 55002,KGLH,2023-06-05T23:53:00Z,33.47,-90.98,29.4,20.0,0,0,,10.0,29.84941,1011.3,,TRUE,TRUE,,,,,,,CLR,,,,,,,,VFR,-0.2,33.9,29.4,,,,,,,,,METAR,40.0
KGLD 052353Z AUTO 17008KT 10SM FEW065 25/11 A3010 RMK AO2 SLP161 T02500106 10256 20228 56009,KGLD,2023-06-05T23:53:00Z,39.37,-101.7,25.0,10.6,170,8,,10.0,30.100393,1016.1,,TRUE,TRUE,,,,,,,FEW,6500,,,,,,,VFR,-0.9,25.6,22.8,,,,,,,,,METAR,1111.0
KGKY 052353Z 08007KT 10SM CLR 29/16 A2989 RMK AO2 SLP113 60000 T02890156 10300 20267 55007,KGKY,2023-06-05T23:53:00Z,32.67,-97.1,28.9,15.6,80,7,,10.0,29.890747,1011.3,,,TRUE,,,,,,,CLR,,,,,,,,VFR,-0.7,30.0,26.7,,,,,0.005,,,,METAR,189.0
KGKJ 052353Z AUTO 00000KT 10SM CLR 18/06 A2998 RMK AO2 SLP150 T01780056 10228 20178 55003,KGKJ,2023-06-05T23:53:00Z,41.63,-80.22,17.8,5.6,0,0,,10.0,29.97933,1015.0,,TRUE,TRUE,,,,,,,CLR,,,,,,,,VFR,-0.3,22.8,17.8,,,,,,,,,METAR,428.0
KGJT 052353Z COR 21016G27KT 10SM CLR 24/03 A3000 RMK AO2 PK WND 20029/2257 SLP097 T02440028 10306 20233 53003,KGJT,2023-06-05T23:53:00Z,39.13,-108.53,24.4,2.8,210,16,27,10.0,30.0,1009.7,TRUE,,TRUE,,,,,,,CLR,,,,,,,,VFR,0.3,30.6,23.3,,,,,,,,,METAR,1475.0
KGIF 052353Z AUTO 08010KT 10SM CLR 27/17 A2991 RMK AO2 SLP126 T02670172 10306 20267 53008,KGIF,2023-06-05T23:53:00Z,28.07,-81.75,26.7,17.2,80,10,,10.0,29.911417,1012.6,,TRUE,TRUE,,,,,,,CLR,,,,,,,,VFR,0.8,30.6,26.7,,,,,,,,,METAR,44.0
KGGW 052353Z AUTO 16011KT 10SM CLR 31/14 A2990 RMK AO2 SLP111 T03060139 10317 20289 58017,KGGW,2023-06-05T23:53:00Z,48.22,-106.62,30.6,13.9,160,11,,10.0,29.899607,1011.1,,TRUE,TRUE,,,,,,,CLR,,,,,,,,VFR,-1.7,31.7,28.9,,,,,,,,,METAR,698.0
KGGG 052353Z 01003KT 10SM CLR 29/19 A2987 RMK AO2 SLP108 T02940194 10300 20250 55005,KGGG,2023-06-05T23:53:00Z,32.38,-94.72,29.4,19.4,10,3,,10.0,29.870079,1010.8,,,TRUE,,,,,,,CLR,,,,,,,,VFR,-0.5,30.0,25.0,,,,,,,,,METAR,107.0
KGFL 052353Z AUTO 04007KT 7SM CLR 19/04 A2980 RMK AO2 SLP090 T01890039 10228 20189 53003,KGFL,2023-06-05T23:53:00Z,43.33,-73.62,18.9,3.9,40,7,,7.0,29.799213,1009.0,,TRUE,TRUE,,,,,,,CLR,,,,,,,,VFR,0.3,22.8,18.9,,,,,,,,,METAR,99.0
KGFK 052353Z 10009G18KT 10SM TS BKN055CB BKN075 27/17 A3001 RMK AO2 PK WND 07033/2331 WSHFT 2320 LTG DSNT NE-SE RAB33E38 TSB29 SLP158 TS OHD MOV SW CB NE MOV SW TCU DSNT SW-NW VCSH FROPA P0000 60000 T02670172,KGFK,2023-06-05T23:53:00Z,47.95,-97.18,26.7,17.2,100,9,18,10.0,30.008858,1015.8,,,TRUE,,,,,,TS,BKN,5500,BKN,7500,,,,,VFR,,,,,,0.005,,,,,,SPECI,256.0
KGEZ 052353Z AUTO 02003KT 4SM HZ BKN041 27/01 A2996 RMK AO2 SLP140 T02720011 10300 20267 56006,KGEZ,2023-06-05T23:53:00Z,39.58,-85.8,27.2,1.1,20,3,,4.0,29.958662,1014.0,,TRUE,TRUE,,,,,,HZ,BKN,4100,,,,,,,MVFR,-0.6,30.0,26.7,,,,,,,,,METAR,245.0
KGEY 052353Z AUTO 12006KT 10SM FEW080 28/08 A2994 RMK AO2 LTG DSNT E SLP106 T02780078 10306 20244 56010,KGEY,2023-06-05T23:53:00Z,44.52,-108.08,27.8,7.8,120,6,,10.0,29.940945,1010.6,,TRUE,TRUE,,,,,,,FEW,8000,,,,,,,VFR,-1.0,30.6,24.4,,,,,,,,,METAR,1191.0
KGEG 052353Z 22007KT 10SM FEW070 FEW150 SCT220 29/00 A2995 RMK AO2 SLP126 T02890000 10294 20256 58010,KGEG,2023-06-05T23:53:00Z,47.62,-117.53,28.9,0.0,220,7,,10.0,29.949802,1012.6,,,TRUE,,,,,,,FEW,7000,FEW,15000,SCT,22000,,,VFR,-1.0,29.4,25.6,,,,,,,,,METAR,718.0
KGCC 052353Z AUTO 16016G26KT 10SM CLR 24/09 A3005 RMK AO2 PK WND 14028/2330 SLP140 T02440089 10256 20233 56011,KGCC,2023-06-05T23:53:00Z,44.33,-105.55,24.4,8.9,160,16,26,10.0,30.050198,1014.0,,TRUE,TRUE,,,,,,,CLR,,,,,,,,VFR,-1.1,25.6,23.3,,,,,,,,,METAR,1328.0
KGAG 052353Z AUTO 03010KT 10SM FEW120 28/14 A3002 RMK AO2 SLP142 T02780144 10306 20267 55002,KGAG,2023-06-05T23:53:00Z,36.3,-99.77,27.8,14.4,30,10,,10.0,30.02067,1014.2,,TRUE,TRUE,,,,,,,FEW,12000,,,,,,,VFR,-0.2,30.6,26.7,,,,,,,,,METAR,670.0
KFYV 052353Z 04004KT 10SM CLR 30/16 A2995 RMK AO2 LTG DSNT S AND SW SLP127 T03000156 10322 20289 55002,KFYV,2023-06-05T23:53:00Z,36.02,-94.17,30.0,15.6,40,4,,10.0,29.949802,1012.7,,,TRUE,,,,,,,CLR,,,,,,,,VFR,-0.2,32.2,28.9,,,,,,,,,METAR,377.0
KFXE 052353Z 06011KT 10SM FEW028 27/22 A2987 RMK AO2 SLP116 6//// T02720217 10300 20272 53007 PNO,KFXE,2023-06-05T23:53:00Z,26.2,-80.18,27.2,21.7,60,11,,10.0,29.870079,1011.6,,,TRUE,,,,,,,FEW,2800,,,,,,,VFR,0.7,30.0,27.2,,,,,,,,,METAR,3.0
KFWN 052353Z AUTO 01003KT 6SM HZ CLR 21/04 A2983 RMK AO2 SLP098 T02060039 10250 20206 51003,KFWN,2023-06-05T23:53:00Z,41.2,-74.63,20.6,3.9,10,3,,6.0,29.828741,1009.8,,TRUE,TRUE,,,,,,HZ,CLR,,,,,,,,VFR,0.3,25.0,20.6,,,,,,,,,METAR,129.0
KFUL 052353Z 20005KT 10SM OVC038 19/10 A2988 RMK AO2 SLP116 T01940100 10200 20156 58010,KFUL,2023-06-05T23:53:00Z,33.87,-117.98,19.4,10.0,200,5,,10.0,29.878937,1011.6,,,TRUE,,,,,,,OVC,3800,,,,,,,VFR,-1.0,20.0,15.6,,,,,,,,,METAR,23.0
KFTY 052353Z 17005KT 10SM CLR 27/19 A2992 RMK AO2 SLP122 T02720189 10283 20233 56005,KFTY,2023-06-05T23:53:00Z,33.78,-84.52,27.2,18.9,170,5,,10.0,29.920275,1012.2,,,TRUE,,,,,,,CLR,,,,,,,,VFR,-0.5,28.3,23.3,,,,,,,,,METAR,245.0
KFTW 052353Z 10007KT 10SM FEW095 28/15 A2988 RMK AO2 SLP110 T02830150 10311 20278 56008,KFTW,2023-06-05T23:53:00Z,32.83,-97.37,28.3,15.0,100,7,,10.0,29.878937,1011.0,,,TRUE,,,,,,,FEW,9500,,,,,,,VFR,-0.8,31.1,27.8,,,,,,,,,METAR,213.0
KFST 052353Z AUTO 05009KT 10SM CLR 29/12 A2998 RMK AO2 SLP109 T02940122 10300 20244 56015,KFST,2023-06-05T23:53:00Z,30.92,-102.92,29.4,12.2,50,9,,10.0,29.97933,1010.9,,TRUE,TRUE,,,,,,,CLR,,,,,,,,VFR,-1.5,30.0,24.4,,,,,,,,,METAR,917.0
KFSM 052353Z 00000KT 10SM CLR 29/18 A2990 RMK AO2 LTG DSNT N AND SW SLP119 T02940178 10339 20278 55004,KFSM,2023-06-05T23:53:00Z,35.33,-94.37,29.4,17.8,0,0,,10.0,29.899607,1011.9,,,TRUE,,,,,,,CLR,,,,,,,,VFR,-0.4,33.9,27.8,,,,,,,,,METAR,136.0
KFRG 052353Z 19011KT 10SM OVC100 19/12 A2979 RMK AO2 SLP087 T01940122 10244 20194 55002 $,KFRG,2023-06-05T23:53:00Z,40.73,-73.42,19.4,12.2,190,11,,10.0,29.790354,1008.7,,,TRUE,TRUE,,,,,,OVC,10000,,,,,,,VFR,-0.2,24.4,19.4,,,,,,,,,METAR,23.0
KFPR 052353Z 04005KT 10SM FEW040 26/18 A2989 RMK AO2 SLP121 T02560178 10289 20256 53002,KFPR,2023-06-05T23:53:00Z,27.5,-80.38,25.6,17.8,40,5,,10.0,29.890747,1012.1,,,TRUE,,,,,,,FEW,4000,,,,,,,VFR,0.2,28.9,25.6,,,,,,,,,METAR,7.0
KFOZ 052353Z AUTO 00000KT 10SM SCT007 SCT013 22/20 A3012 RMK AO2,KFOZ,2023-06-05T23:53:00Z,47.77,-93.65,22.0,20.0,0,0,,10.0,30.121063,,,TRUE,TRUE,,,,,,,SCT,700,SCT,1300,,,,,VFR,,,,,,,,,,,,METAR,412.0
KFOK 052353Z 21006KT 10SM CLR 17/11 A2981 RMK AO2 SLP093 T01720111 10222 20172 55001,KFOK,2023-06-05T23:53:00Z,40.85,-72.62,17.2,11.1,210,6,,10.0,29.811024,1009.3,,,TRUE,,,,,,,CLR,,,,,,,,VFR,-0.1,22.2,17.2,,,,,,,,,METAR,13.0
KFOE 052353Z 34004KT 10SM CLR 22/17 A3004 RMK AO2 LTG DSNT NE AND S SLP164 T02170167 10317 20217 51016,KFOE,2023-06-05T23:53:00Z,38.93,-95.65,21.7,16.7,340,4,,10.0,30.041338,1016.4,,,TRUE,,,,,,,CLR,,,,,,,,VFR,1.6,31.7,21.7,,,,,,,,,METAR,315.0
KFNT 052353Z 08007KT 8SM FEW080 24/12 A2996 RMK AO2 SLP144 T02390117 10272 20239 56010,KFNT,2023-06-05T23:53:00Z,42.97,-83.75,23.9,11.7,80,7,,8.0,29.958662,1014.4,,,TRUE,,,,,,,FEW,8000,,,,,,,VFR,-1.0,27.2,23.9,,,,,,,,,METAR,235.0
KFNB 052353Z AUTO 10SM CLR 24/17 A3001 RMK AO2 SLP155 60000 T02440172 10317 20222 58005,KFNB,2023-06-05T23:53:00Z,40.07,-95.58,24.4,17.2,,,,10.0,30.008858,1015.5,,TRUE,TRUE,,,,,,,CLR,,,,,,,,VFR,-0.5,31.7,22.2,,,,,0.005,,,,METAR,301.0
KFMY 052353Z 08007KT 10SM FEW045 OVC095 28/20 A2985 RMK AO2 SLP111 60003 T02830200 10322 20278 53010,KFMY,2023-06-05T23:53:00Z,26.58,-81.87,28.3,20.0,80,7,,10.0,29.84941,1011.1,,,TRUE,,,,,,,FEW,4500,OVC,9500,,,,,VFR,1.0,32.2,27.8,,,,,0.03,,,,METAR,4.0
KFMN 052353Z 21015G22KT 10SM CLR 28/00 A3001 RMK AO2 PK WND 18028/2255 SLP107 T02780000 10300 20261 56007,KFMN,2023-06-05T23:53:00Z,36.75,-108.23,27.8,0.0,210,15,22,10.0,30.008858,1010.7,,,TRUE,,,,,,,CLR,,,,,,,,VFR,-0.7,30.0,26.1,,,,,,,,,METAR,1677.0
KFLO 052353Z 00000KT 10SM CLR 24/13 A2992 RMK AO2 SLP128 T02390133 10267 20239 55004,KFLO,2023-06-05T23:53:00Z,34.18,-79.73,23.9,13.3,0,0,,10.0,29.920275,1012.8,,,TRUE,,,,,,,CLR,,,,,,,,VFR,-0.4,26.7,23.9,,,,,,,,,METAR,43.0
KFLL 052353Z 07011KT 10SM SCT025 SCT070 SCT200 27/22 A2986 RMK AO2 RAB01E23 SLP111 P0000 60000 T02670222 10306 20267 53007,KFLL,2023-06-05T23:53:00Z,26.07,-80.15,26.7,22.2,70,11,,10.0,29.861221,1011.1,,,TRUE,,,,,,,SCT,2500,SCT,7000,SCT,20000,,,VFR,0.7,30.6,26.7,,,0.005,,0.005,,,,METAR,1.0
KFLD 052353Z AUTO 10009KT 10SM FEW100 27/12 A3001 RMK AO2 SLP160 60000 T02670117 10300 20267 56009,KFLD,2023-06-05T23:53:00Z,43.77,-88.48,26.7,11.7,100,9,,10.0,30.008858,1016.0,,TRUE,TRUE,,,,,,,FEW,10000,,,,,,,VFR,-0.9,30.0,26.7,,,,,0.005,,,,METAR,242.0
KFHR 052353Z AUTO 02010G16KT 10SM CLR 22/02 A3012 RMK AO2 SLP199 T02170017 10222 20172 58021,KFHR,2023-06-05T23:53:00Z,48.52,-123.03,21.7,1.7,20,10,16,10.0,30.121063,1019.9,,TRUE,TRUE,,,,,,,CLR,,,,,,,,VFR,-2.1,22.2,17.2,,,,,,,,,METAR,34.0
KFFT 052353Z AUTO A2994 RMK AO2 SLPNO 54000 PWINO $,KFFT,2023-06-05T23:53:00Z,38.18,-84.9,,,,,,,29.940945,,,TRUE,TRUE,TRUE,,,,TRUE,,,,,,,,,,,,,,,,,,,,,,METAR,235.0
KFFC 052353Z AUTO 17003KT 10SM CLR 25/21 A2994 RMK AO2 SLP133 T02500206 10283 20244 55002,KFFC,2023-06-05T23:53:00Z,33.35,-84.57,25.0,20.6,170,3,,10.0,29.940945,1013.3,,TRUE,TRUE,,,,,,,CLR,,,,,,,,VFR,-0.2,28.3,24.4,,,,,,,,,METAR,242.0
KFDY 052353Z AUTO 06005KT 8SM CLR 24/05 A2997 RMK AO2 SLP143 T02390050 10256 20239 56007,KFDY,2023-06-05T23:53:00Z,41.02,-83.67,23.9,5.0,60,5,,8.0,29.970472,1014.3,,TRUE,TRUE,,,,,,,CLR,,,,,,,,VFR,-0.7,25.6,23.9,,,,,,,,,METAR,247.0
KFDR 052353Z AUTO 36010KT 10SM CLR 28/16 A2993 RMK AO2 LTG DSNT W SLP119 T02830156 10322 20256 55000,KFDR,2023-06-05T23:53:00Z,34.35,-98.98,28.3,15.6,360,10,,10.0,29.929134,1011.9,,TRUE,TRUE,,,,,,,CLR,,,,,,,,VFR,0.0,32.2,25.6,,,,,,,,,METAR,378.0
KFCM 052353Z 04006KT 8SM CLR 28/16 A3002 RMK AO2 SLP161 T02830161 10306 20283 56005,KFCM,2023-06-05T23:53:00Z,44.83,-93.47,28.3,16.1,40,6,,8.0,30.02067,1016.1,,,TRUE,,,,,,,CLR,,,,,,,,VFR,-0.5,30.6,28.3,,,,,,,,,METAR,276.0
KFAY 052353Z 23008KT 10SM CLR 24/14 A2990 RMK AO2 SLP118 T02440144 10272 20244 55001,KFAY,2023-06-05T23:53:00Z,34.98,-78.88,24.4,14.4,230,8,,10.0,29.899607,1011.8,,,TRUE,,,,,,,CLR,,,,,,,,VFR,-0.1,27.2,24.4,,,,,,,,,METAR,57.0
KFAT 052353Z 12004KT 10SM FEW100 BKN150 OVC180 28/13 A2971 RMK AO2 SLP056 VIRGA DSNT W MTNS OBSC HZ DSNT N-E-S 60000 T02830128 10317 20256 50004,KFAT,2023-06-05T23:53:00Z,36.78,-119.72,28.3,12.8,120,4,,10.0,29.71063,1005.6,,,TRUE,,,,,,,FEW,10000,BKN,15000,OVC,18000,,,VFR,0.4,31.7,25.6,,,,,0.005,,,,METAR,102.0
KFAR 052353Z 25010KT 10SM FEW120 27/16 A3000 RMK AO2 PK WND 25028/2315 TSB17E32 SLP155 T02720156 10328 20267 55001,KFAR,2023-06-05T23:53:00Z,46.9,-96.82,27.2,15.6,250,10,,10.0,30.0,1015.5,,,TRUE,,,,,,,FEW,12000,,,,,,,VFR,-0.1,32.8,26.7,,,,,,,,,METAR,276.0
KEYW 052353Z AUTO 30006KT 10SM CLR 29/23 A2986 RMK AO2 SLP118 T02890228 10317 20289 53002,KEYW,2023-06-05T23:53:00Z,24.55,-81.75,28.9,22.8,300,6,,10.0,29.861221,1011.8,,TRUE,TRUE,,,,,,,CLR,,,,,,,,VFR,0.2,31.7,28.9,,,,,,,,,METAR,1.0
KEYE 052353Z AUTO 00000KT 7SM CLR 24/10 A2997 RMK AO2 SLP143 T02440100 10272 20244 56009,KEYE,2023-06-05T23:53:00Z,39.83,-86.3,24.4,10.0,0,0,,7.0,29.970472,1014.3,,TRUE,TRUE,,,,,,,CLR,,,,,,,,VFR,-0.9,27.2,24.4,,,,,,,,,METAR,248.0
KEWB 052353Z 00000KT 10SM SCT075 OVC095 13/12 A2976 RMK AO2 SLP078 60000 T01330117 10172 20133 56003,KEWB,2023-06-05T23:53:00Z,41.68,-70.95,13.3,11.7,0,0,,10.0,29.760826,1007.8,,,TRUE,,,,,,,SCT,7500,OVC,9500,,,,,VFR,-0.3,17.2,13.3,,,,,0.005,,,,METAR,22.0
KEVW 052353Z AUTO 07013G22KT 10SM CLR 17/06 A3017 RMK AO2 LTG DSNT SW SLP147 60000 T01720061 10206 20144 58004 $,KEVW,2023-06-05T23:53:00Z,41.27,-111.03,17.2,6.1,70,13,22,10.0,30.171259,1014.7,,TRUE,TRUE,TRUE,,,,,,CLR,,,,,,,,VFR,-0.4,20.6,14.4,,,,,,,,,SPECI,2178.0
KEQY 052353Z AUTO 19004KT 10SM SCT028 BKN034 OVC041 22/17 A2992 RMK AO2 SLP136 T02170172 10239 20211 55004,KEQY,2023-06-05T23:53:00Z,35.02,-80.62,21.7,17.2,190,4,,10.0,29.920275,1013.6,,TRUE,TRUE,,,,,,,SCT,2800,BKN,3400,OVC,4100,,,VFR,-0.4,23.9,21.1,,,,,,,,,METAR,205.0
KEPH 052353Z AUTO 33004KT 10SM CLR 31/M07 A2990 RMK AO2 SLP116 T03111072 10322 20267 58015,KEPH,2023-06-05T23:53:00Z,47.3,-119.52,31.1,-7.2,330,4,,10.0,29.899607,1011.6,,TRUE,TRUE,,,,,,,CLR,,,,,,,,VFR,-1.5,32.2,26.7,,,,,,,,,METAR,382.0
KENW 052353Z 10005KT 9SM CLR 25/07 A3002 RMK AO2 SLP162 T02500072 10289 20250 56008,KENW,2023-06-05T23:53:00Z,42.6,-87.93,25.0,7.2,100,5,,9.0,30.02067,1016.2,,,TRUE,,,,,,,CLR,,,,,,,,VFR,-0.8,28.9,25.0,,,,,,,,,SPECI,222.0
KEMP 052353Z AUTO 33011G17KT 7SM -TSRA FEW050 SCT070 OVC100 17/16 A3006 RMK AO2 LTG DSNT W-NE SLP175 P0048 60141 T01670156 10311 20167 51026,KEMP,2023-06-05T23:53:00Z,38.33,-96.2,16.7,15.6,330,11,17,7.0,30.059055,1017.5,,TRUE,TRUE,,,,,,-TSRA,FEW,5000,SCT,7000,OVC,10000,,,VFR,2.6,31.1,16.7,,,0.48,,1.41,,,,METAR,366.0
KELY 052353Z AUTO 31005KT 10SM CLR 18/09 A3005 RMK AO2 SLP112 60006 T01830094 10233 20128 58013,KELY,2023-06-05T23:53:00Z,39.3,-114.85,18.3,9.4,310,5,,10.0,30.050198,1011.2,,TRUE,TRUE,,,,,,,CLR,,,,,,,,VFR,-1.3,23.3,12.8,,,,,0.06,,,,METAR,1906.0
KELN 052353Z AUTO 31012KT 10SM CLR 30/M02 A2993 RMK AO2 SLP122 T03001022 10306 20244 58014 $,KELN,2023-06-05T23:53:00Z,47.03,-120.53,30.0,-2.2,310,12,,10.0,29.929134,1012.2,,TRUE,TRUE,TRUE,,,,,,CLR,,,,,,,,VFR,-1.4,30.6,24.4,,,,,,,,,METAR,532.0
KELM 052353Z 34004KT 6SM HZ CLR 19/04 A2989 RMK AO2 SLP121 T01890044 10239 20189 55002,KELM,2023-06-05T23:53:00Z,42.15,-76.9,18.9,4.4,340,4,,6.0,29.890747,1012.1,,,TRUE,,,,,,HZ,CLR,,,,,,,,VFR,-0.2,23.9,18.9,,,,,,,,,METAR,287.0
KELD 052353Z AUTO 11004KT 10SM CLR 31/18 A2986 RMK AO2 SLP106 T03110183 10333 20306 55002,KELD,2023-06-05T23:53:00Z,33.22,-92.82,31.1,18.3,110,4,,10.0,29.861221,1010.6,,TRUE,TRUE,,,,,,,CLR,,,,,,,,VFR,-0.2,33.3,30.6,,,,,,,,,METAR,76.0
KEET 052353Z AUTO 00000KT 10SM CLR 28/18 A2993 RMK AO2 SLP127 T02780183 10311 20278 53004,KEET,2023-06-05T23:53:00Z,33.18,-86.78,27.8,18.3,0,0,,10.0,29.929134,1012.7,,TRUE,TRUE,,,,,,,CLR,,,,,,,,VFR,0.4,31.1,27.8,,,,,,,,,METAR,172.0
KEEO 052353Z AUTO 19007KT 10SM CLR 22/04 A3010 RMK AO2 SLP129 T02220044 10233 20183 58008,KEEO,2023-06-05T23:53:00Z,40.05,-107.88,22.2,4.4,190,7,,10.0,30.100393,1012.9,,TRUE,TRUE,,,,,,,CLR,,,,,,,,VFR,-0.8,23.3,18.3,,,,,,,,,SPECI,1957.0
KECP 052353Z 18006KT 10SM FEW040 26/20 A2991 RMK AO1 SLP138 T02610200 10300 20261 53001,KECP,2023-06-05T23:53:00Z,30.35,-85.8,26.1,20.0,180,6,,10.0,29.911417,1013.8,,,TRUE,,,,,,,FEW,4000,,,,,,,VFR,0.1,30.0,26.1,,,,,,,,,METAR,17.0
KDXR 052353Z 00000KT 10SM BKN100 19/09 A2980 RMK AO2 SLP088 T01940089 10228 20194 55003,KDXR,2023-06-05T23:53:00Z,41.37,-73.48,19.4,8.9,0,0,,10.0,29.799213,1008.8,,,TRUE,,,,,,,BKN,10000,,,,,,,VFR,-0.3,22.8,19.4,,,,,,,,,METAR,138.0
KDVT 052353Z 22013G22KT 10SM CLR 38/M08 A2967 RMK AO2 PK WND 18026/2342 SLP021 T03831083 10389 20322 58024,KDVT,2023-06-05T23:53:00Z,33.68,-112.07,38.3,-8.3,220,13,22,10.0,29.66929,1002.1,,,TRUE,,,,,,,CLR,,,,,,,,VFR,-2.4,38.9,32.2,,,,,,,,,METAR,454.0
KDVP 052353Z AUTO 24008KT 10SM CLR 29/11 A3004 RMK AO2 T02910108 10308 20283,KDVP,2023-06-05T23:53:00Z,43.98,-95.78,29.1,10.8,240,8,,10.0,30.041338,,,TRUE,TRUE,,,,,,,CLR,,,,,,,,VFR,,30.8,28.3,,,,,,,,,METAR,493.0
KDUJ 052353Z AUTO 33005KT 5SM HZ CLR 18/04 A2996 RMK AO2 SLP140 T01830039 10228 20183 53001,KDUJ,2023-06-05T23:53:00Z,41.17,-78.9,18.3,3.9,330,5,,5.0,29.958662,1014.0,,TRUE,TRUE,,,,,,HZ,CLR,,,,,,,,MVFR,0.1,22.8,18.3,,,,,,,,,METAR,552.0
KDTW 052353Z 36004KT 7SM BKN065 BKN240 24/08 A2997 RMK AO2 SLP144 FU BKN240 T02440078 10267 20239 58007,KDTW,2023-06-05T23:53:00Z,42.23,-83.33,24.4,7.8,360,4,,7.0,29.970472,1014.4,,,TRUE,,,,,,,BKN,6500,BKN,24000,,,,,VFR,-0.7,26.7,23.9,,,,,,,,,METAR,192.0
KDTS 052353Z 18004KT 10SM CLR 26/20 A2991 RMK AO2 SLP128 T02560200 10272 20256 55002,KDTS,2023-06-05T23:53:00Z,30.4,-86.47,25.6,20.0,180,4,,10.0,29.911417,1012.8,,,TRUE,,,,,,,CLR,,,,,,,,VFR,-0.2,27.2,25.6,,,,,,,,,METAR,5.0
KDTO 052353Z 04008KT 10SM FEW110 29/16 A2990 RMK AO2 SLP118 T02940156 10311 20272 55007 $,KDTO,2023-06-05T23:53:00Z,33.2,-97.2,29.4,15.6,40,8,,10.0,29.899607,1011.8,,,TRUE,TRUE,,,,,,FEW,11000,,,,,,,VFR,-0.7,31.1,27.2,,,,,,,,,METAR,199.0
KDTN 052353Z 15003KT 10SM CLR 31/18 A2985 RMK AO2 SLP104 T03060178 10333 20289 55006,KDTN,2023-06-05T23:53:00Z,32.55,-93.75,30.6,17.8,150,3,,10.0,29.84941,1010.4,,,TRUE,,,,,,,CLR,,,,,,,,VFR,-0.6,33.3,28.9,,,,,,,,,METAR,53.0
KDRT 052353Z AUTO 31005KT 10SM CLR 33/14 A2984 RMK AO2 SLP095 T03330139 10339 20294 56017,KDRT,2023-06-05T23:53:00Z,29.37,-100.92,33.3,13.9,310,5,,10.0,29.840551,1009.5,,TRUE,TRUE,,,,,,,CLR,,,,,,,,VFR,-1.7,33.9,29.4,,,,,,,,,METAR,303.0
KDRA 052353Z AUTO 12014G29KT 10SM FEW120 32/M03 A2970 RMK AO2 PK WND 13029/2347 WSHFT 2243 SLP010 T03221033 10339 20311 58020,KDRA,2023-06-05T23:53:00Z,36.62,-116.03,32.2,-3.3,120,14,29,10.0,29.698818,1001.0,,TRUE,TRUE,,,,,,,FEW,12000,,,,,,,VFR,-2.0,33.9,31.1,,,,,,,,,METAR,988.0
KDNL 052353Z AUTO 05003KT 10SM CLR 26/17 A2993 RMK AO2 SLP130 T02560172 10278 20256 55002,KDNL,2023-06-05T23:53:00Z,33.47,-82.03,25.6,17.2,50,3,,10.0,29.929134,1013.0,,TRUE,TRUE,,,,,,,CLR,,,,,,,,VFR,-0.2,27.8,25.6,,,,,,,,,METAR,126.0
KDMO 052353Z AUTO 08006KT 7SM 28/13 A3000 RMK AO2 SLP151 T02780128 10322 20278 53002 $,KDMO,2023-06-05T23:53:00Z,38.72,-93.17,27.8,12.8,80,6,,7.0,30.0,1015.1,,TRUE,TRUE,TRUE,,,,,,,,,,,,,,,0.2,32.2,27.8,,,,,,,,,METAR,271.0
KDMN 052353Z AUTO 00000KT 10SM FEW120 33/02 A2995 RMK AO2 SLP062 T03280022 10339 20278 56018,KDMN,2023-06-05T23:53:00Z,32.27,-107.72,32.8,2.2,0,0,,10.0,29.949802,1006.2,,TRUE,TRUE,,,,,,,FEW,12000,,,,,,,VFR,-1.8,33.9,27.8,,,,,,,,,METAR,1310.0
KDLS 052353Z AUTO 32006KT 10SM CLR 33/03 A2983 RMK AO2 SLP099 T03330033 10339 20233 56023,KDLS,2023-06-05T23:53:00Z,45.62,-121.17,33.3,3.3,320,6,,10.0,29.828741,1009.9,,TRUE,TRUE,,,,,,,CLR,,,,,,,,VFR,-2.3,33.9,23.3,,,,,,,,,METAR,71.0
KDLN 052353Z AUTO 23005KT 10SM FEW120 18/11 A3003 RMK AO2 LTG DSNT W SLP131 T01780111 10211 20161 58005,KDLN,2023-06-05T23:53:00Z,45.25,-112.55,17.8,11.1,230,5,,10.0,30.029528,1013.1,,TRUE,TRUE,,,,,,,FEW,12000,,,,,,,VFR,-0.5,21.1,16.1,,,,,,,,,METAR,1586.0
KDKK 052353Z AUTO 23007KT 10SM CLR 19/01 A2995 RMK AO2 SLP141 T01890011 10217 20189 56008,KDKK,2023-06-05T23:53:00Z,42.5,-79.28,18.9,1.1,230,7,,10.0,29.949802,1014.1,,TRUE,TRUE,,,,,,,CLR,,,,,,,,VFR,-0.8,21.7,18.9,,,,,,,,,METAR,205.0
KDHT 052353Z AUTO 29005KT 10SM CLR 17/13 A3014 RMK AO2 LTG DSNT SE RAE22 SLP171 P0001 60032 T01720128 10217 20150 58005,KDHT,2023-06-05T23:53:00Z,36.02,-102.55,17.2,12.8,290,5,,10.0,30.138779,1017.1,,TRUE,TRUE,,,,,,,CLR,,,,,,,,VFR,-0.5,21.7,15.0,,,0.01,,0.32,,,,METAR,1217.0
KDHN 052353Z 14005KT 10SM CLR 28/16 A2995 RMK AO2 SLP135 T02780161 10311 20278 53001,KDHN,2023-06-05T23:53:00Z,31.32,-85.45,27.8,16.1,140,5,,10.0,29.949802,1013.5,,,TRUE,,,,,,,CLR,,,,,,,,VFR,0.1,31.1,27.8,,,,,,,,,METAR,113.0
KDGW 052353Z AUTO 15021G27KT 10SM CLR 23/09 A3009 RMK AO2 PK WND 14032/2314 LTG DSNT W SLP145 T02330094 10244 20206 56007 $,KDGW,2023-06-05T23:53:00Z,42.8,-105.38,23.3,9.4,150,21,27,10.0,30.088583,1014.5,,TRUE,TRUE,TRUE,,,,,,CLR,,,,,,,,VFR,-0.7,24.4,20.6,,,,,,,,,METAR,1503.0
KDFW 052353Z 10005KT 10SM FEW055 SCT120 BKN250 29/17 A2988 RMK AO2 SLP109 CB DSNT S MOV NW T02940172 10306 20267 55006,KDFW,2023-06-05T23:53:00Z,32.9,-97.02,29.4,17.2,100,5,,10.0,29.878937,1010.9,,,TRUE,,,,,,,FEW,5500,SCT,12000,BKN,25000,,,VFR,-0.6,30.6,26.7,,,,,,,,,METAR,168.0
KDFI 052353Z AUTO 00000KT 9SM OVC016 26/07 A2998 RMK AO2 SLP149 T02560067 10272 20250 56008,KDFI,2023-06-05T23:53:00Z,41.33,-84.43,25.6,6.7,0,0,,9.0,29.97933,1014.9,,TRUE,TRUE,,,,,,,OVC,1600,,,,,,,MVFR,-0.8,27.2,25.0,,,,,,,,,METAR,215.0
KDEW 052353Z AUTO VRB04KT 10SM CLR 29/00 A2993 RMK AO2 SLP126 T02940000 10300 20250 58012,KDEW,2023-06-05T23:53:00Z,47.97,-117.43,29.4,0.0,0,4,,10.0,29.929134,1012.6,,TRUE,TRUE,,,,,,,CLR,,,,,,,,VFR,-1.2,30.0,25.0,,,,,,,,,METAR,672.0
KDET 052353Z 16004KT 7SM FEW065 SCT080 24/06 A2996 RMK AO2 SLP144 T02440061 10272 20244 58004,KDET,2023-06-05T23:53:00Z,42.4,-83.02,24.4,6.1,160,4,,7.0,29.958662,1014.4,,,TRUE,,,,,,,FEW,6500,SCT,8000,,,,,VFR,-0.4,27.2,24.4,,,,,,,,,SPECI,190.0
KDEQ 052353Z AUTO 10SM CLR 27/17 A2986 RMK AO2 SLP108 T02670167 10333 20267 55003,KDEQ,2023-06-05T23:53:00Z,34.05,-94.4,26.7,16.7,,,,10.0,29.861221,1010.8,,TRUE,TRUE,,,,,,,CLR,,,,,,,,VFR,-0.3,33.3,26.7,,,,,,,,,METAR,107.0
KDEN 052353Z 24009KT 10SM SCT075 BKN160 BKN220 17/09 A3015 RMK AO2 SLP162 T01670094 10211 20167 58003,KDEN,2023-06-05T23:53:00Z,39.85,-104.65,16.7,9.4,240,9,,10.0,30.15059,1016.2,,,TRUE,,,,,,,SCT,7500,BKN,16000,BKN,22000,,,VFR,-0.3,21.1,16.7,,,,,,,,,METAR,1656.0
KDCU 052353Z AUTO 19008KT 10SM CLR 28/18 A2991 RMK AO2 SLP121 T02830178 10328 20278 53005 $,KDCU,2023-06-05T23:53:00Z,34.65,-86.95,28.3,17.8,190,8,,10.0,29.911417,1012.1,,TRUE,TRUE,TRUE,,,,,,CLR,,,,,,,,VFR,0.5,32.8,27.8,,,,,,,,,METAR,180.0
KDBQ 052353Z 06003KT 10SM CLR 28/07 A3003 RMK AO2 SLP164 T02780072 10289 20250 56011,KDBQ,2023-06-05T23:53:00Z,42.4,-90.7,27.8,7.2,60,3,,10.0,30.029528,1016.4,,,TRUE,,,,,,,CLR,,,,,,,,VFR,-1.1,28.9,25.0,,,,,,,,,METAR,317.0
KDAN 052353Z AUTO 17003KT 10SM CLR 22/13 A2990 RMK AO2 SLP114 T02170133 10267 20217 55001,KDAN,2023-06-05T23:53:00Z,36.57,-79.33,21.7,13.3,170,3,,10.0,29.899607,1011.4,,TRUE,TRUE,,,,,,,CLR,,,,,,,,VFR,-0.1,26.7,21.7,,,,,,,,,METAR,170.0
KDAL 052353Z 10007KT 070V130 10SM FEW055 SCT110 BKN250 29/17 A2989 RMK AO2 SLP114 CB DSNT S-SW MOV W TCU DSNW SW-W T02890172 10300 20261 55006 $,KDAL,2023-06-05T23:53:00Z,32.85,-96.85,28.9,17.2,100,7,,10.0,29.890747,1011.4,,,TRUE,TRUE,,,,,,FEW,5500,SCT,11000,BKN,25000,,,VFR,-0.6,30.0,26.1,,,,,,,,,METAR,148.0
KDAB 052353Z 02010KT 10SM FEW200 25/19 A2993 RMK AO2 SLP135 T02500189 10283 20250 53005 $,KDAB,2023-06-05T23:53:00Z,29.18,-81.07,25.0,18.9,20,10,,10.0,29.929134,1013.5,,,TRUE,TRUE,,,,,,FEW,20000,,,,,,,VFR,0.5,28.3,25.0,,,,,,,,,METAR,8.0
KCYS 052353Z 15017G21KT 10SM BKN037 BKN044 19/11 A3018 RMK AO2 LTG DSNT SW SLP155 T01940106 10200 20167 58004,KCYS,2023-06-05T23:53:00Z,41.15,-104.8,19.4,10.6,150,17,21,10.0,30.180119,1015.5,,,TRUE,,,,,,,BKN,3700,BKN,4400,,,,,VFR,-0.4,20.0,16.7,,,,,,,,,METAR,1868.0
KCXO 052353Z 01006KT 10SM -TSRA FEW050 SCT070 BKN090 21/20 A2991 RMK AO2 LTG DSNT ALQDS RAB40 TSB48 SLP124 P0000 60000 T02110200 10317 20211 51017,KCXO,2023-06-05T23:53:00Z,30.35,-95.42,21.1,20.0,10,6,,10.0,29.911417,1012.4,,,TRUE,,,,,,-TSRA,FEW,5000,SCT,7000,BKN,9000,,,VFR,1.7,31.7,21.1,,,0.005,,0.005,,,,METAR,69.0
KCUT 052353Z AUTO 17006KT 10SM CLR 21/08 A3018 RMK AO2 SLP162 T02060083 10222 20194 56010,KCUT,2023-06-05T23:53:00Z,43.73,-103.62,20.6,8.3,170,6,,10.0,30.180119,1016.2,,TRUE,TRUE,,,,,,,CLR,,,,,,,,VFR,-1.0,22.2,19.4,,,,,,,,,METAR,1700.0
KCUB 052353Z AUTO 00000KT 10SM BKN046 24/17 A2993 RMK AO2 SLP132 T02390167 10256 20239 55003,KCUB,2023-06-05T23:53:00Z,33.97,-81.0,23.9,16.7,0,0,,10.0,29.929134,1013.2,,TRUE,TRUE,,,,,,,BKN,4600,,,,,,,VFR,-0.3,25.6,23.9,,,,,,,,,METAR,55.0
KCSV 052353Z AUTO 00000KT 10SM CLR 23/21 A2995 RMK AO2 TSE2259 SLP126 60003 T02280211 10278 20217 57001,KCSV,2023-06-05T23:53:00Z,35.95,-85.08,22.8,21.1,0,0,,10.0,29.949802,1012.6,,TRUE,TRUE,,,,,,,CLR,,,,,,,,VFR,-0.1,27.8,21.7,,,,,0.03,,,,METAR,569.0
KCSM 052353Z 23011G18KT 10SM VCTS BKN070 25/16 A3000 RMK AO2 SLP139 T02500161 10311 20250 53002,KCSM,2023-06-05T23:53:00Z,35.35,-99.2,25.0,16.1,230,11,18,10.0,30.0,1013.9,,,TRUE,,,,,,VCTS,BKN,7000,,,,,,,VFR,0.2,31.1,25.0,,,,,,,,,METAR,586.0
KCRS 052353Z AUTO 11005KT 10SM CLR 29/18 A2989 RMK AO2 SLP116 T02890183 10306 20278 55005,KCRS,2023-06-05T23:53:00Z,32.03,-96.4,28.9,18.3,110,5,,10.0,29.890747,1011.6,,TRUE,TRUE,,,,,,,CLR,,,,,,,,VFR,-0.5,30.6,27.8,,,,,,,,,METAR,136.0
KCRQ 052353Z 26006KT 10SM OVC023 17/10 A2989 RMK AO2 SLP119 T01720100 10183 20161 58010,KCRQ,2023-06-05T23:53:00Z,33.13,-117.28,17.2,10.0,260,6,,10.0,29.890747,1011.9,,,TRUE,,,,,,,OVC,2300,,,,,,,MVFR,-1.0,18.3,16.1,,,,,,,,,METAR,96.0
KCRG 052353Z 07004KT 10SM CLR 23/18 A2994 RMK AO2 SLP139 T02330178 10272 20233 53001,KCRG,2023-06-05T23:53:00Z,30.33,-81.52,23.3,17.8,70,4,,10.0,29.940945,1013.9,,,TRUE,,,,,,,CLR,,,,,,,,VFR,0.1,27.2,23.3,,,,,,,,,METAR,12.0
KCRE 052353Z 18006KT 10SM CLR 21/13 A2993 RMK AO1 SLP135 T02110133 10239 20211 56001,KCRE,2023-06-05T23:53:00Z,33.82,-78.72,21.1,13.3,180,6,,10.0,29.929134,1013.5,,,TRUE,,,,,,,CLR,,,,,,,,VFR,-0.1,23.9,21.1,,,,,,,,,METAR,9.0
KCQC 052353Z AUTO 11011G20KT 10SM CLR 19/08 A3022 RMK AO2 SLP164 T01890078 10217 20156 56006 $,KCQC,2023-06-05T23:53:00Z,35.0,-105.67,18.9,7.8,110,11,20,10.0,30.221457,1016.4,,TRUE,TRUE,TRUE,,,,,,CLR,,,,,,,,VFR,-0.6,21.7,15.6,,,,,,,,,METAR,2163.0
KCPS 052353Z 03009KT 10SM CLR 26/07 A2997 RMK AO2 SLP145 T02610067 10306 20261 55004,KCPS,2023-06-05T23:53:00Z,38.53,-90.15,26.1,6.7,30,9,,10.0,29.970472,1014.5,,,TRUE,,,,,,,CLR,,,,,,,,VFR,-0.4,30.6,26.1,,,,,,,,,METAR,125.0
KCPR 052353Z 19006KT 10SM -RA OVC090 17/13 A3008 RMK AO2 LTG DSNT SE AND S AND NW RAB15 SLP144 P0000 60000 T01720128 10250 20167 53002,KCPR,2023-06-05T23:53:00Z,42.9,-106.47,17.2,12.8,190,6,,10.0,30.079725,1014.4,,,TRUE,,,,,,-RA,OVC,9000,,,,,,,VFR,0.2,25.0,16.7,,,0.005,,0.005,,,,METAR,1623.0
KCOT 052353Z AUTO 02004KT 10SM CLR 33/17 A2984 RMK AO2 SLP095 T03330167 10344 20300 56011,KCOT,2023-06-05T23:53:00Z,28.45,-99.22,33.3,16.7,20,4,,10.0,29.840551,1009.5,,TRUE,TRUE,,,,,,,CLR,,,,,,,,VFR,-1.1,34.4,30.0,,,,,,,,,METAR,144.0
KCNY 052353Z AUTO 13005KT 10SM CLR 29/02 A2992 RMK AO2 SLP078 T02940022 10306 20250 58014,KCNY,2023-06-05T23:53:00Z,38.77,-109.75,29.4,2.2,130,5,,10.0,29.920275,1007.8,,TRUE,TRUE,,,,,,,CLR,,,,,,,,VFR,-1.4,30.6,25.0,,,,,,,,,METAR,1392.0
KCNO 052353Z 27012KT 10SM SCT028 BKN045 19/11 A2989 RMK AO2 SLP118 T01940106 10206 20156 56010,KCNO,2023-06-05T23:53:00Z,33.98,-117.62,19.4,10.6,270,12,,10.0,29.890747,1011.8,,,TRUE,,,,,,,SCT,2800,BKN,4500,,,,,VFR,-1.0,20.6,15.6,,,,,,,,,METAR,191.0
KCNM 052353Z AUTO 04006KT 10SM CLR 29/10 A3000 RMK AO2 SLP105 T02890100 10289 20256 56013,KCNM,2023-06-05T23:53:00Z,32.33,-104.25,28.9,10.0,40,6,,10.0,30.0,1010.5,,TRUE,TRUE,,,,,,,CLR,,,,,,,,VFR,-1.3,28.9,25.6,,,,,,,,,METAR,993.0
KCMX 052353Z AUTO 11004KT 9SM CLR 18/12 A3012 RMK AO2 SLP199 T01780122 10200 20172 58009,KCMX,2023-06-05T23:53:00Z,47.17,-88.48,17.8,12.2,110,4,,9.0,30.121063,1019.9,,TRUE,TRUE,,,,,,,CLR,,,,,,,,VFR,-0.9,20.0,17.2,,,,,,,,,METAR,326.0
KCMI 052353Z 03006KT 8SM CLR 27/07 A2999 RMK AO2 SLP149 T02720067 10283 20256 56012,KCMI,2023-06-05T23:53:00Z,40.03,-88.27,27.2,6.7,30,6,,8.0,29.991142,1014.9,,,TRUE,,,,,,,CLR,,,,,,,,VFR,-1.2,28.3,25.6,,,,,,,,,METAR,227.0
KCLM 052353Z AUTO VRB03KT 10SM CLR 21/01 A3013 RMK AO2 SLP203 T02110011 10217 20161 58021,KCLM,2023-06-05T23:53:00Z,48.12,-123.5,21.1,1.1,0,3,,10.0,30.129921,1020.3,,TRUE,TRUE,,,,,,,CLR,,,,,,,,VFR,-2.1,21.7,16.1,,,,,,,,,METAR,81.0
KCLL 052353Z 15011KT 10SM FEW034 24/21 A2990 RMK AO2 SLP120 60000 T02440206 10289 20244 53005,KCLL,2023-06-05T23:53:00Z,30.58,-96.37,24.4,20.6,150,11,,10.0,29.899607,1012.0,,,TRUE,,,,,,,FEW,3400,,,,,,,VFR,0.5,28.9,24.4,,,,,0.005,,,,METAR,96.0
KCKB 052353Z 01004KT 10SM CLR 19/07 A2995 RMK AO2 SLP135 T01940067 10250 20194 50001,KCKB,2023-06-05T23:53:00Z,39.3,-80.22,19.4,6.7,10,4,,10.0,29.949802,1013.5,,,TRUE,,,,,,,CLR,,,,,,,,VFR,0.1,25.0,19.4,,,,,,,,,METAR,368.0
KCHO 052353Z 00000KT 10SM CLR 23/09 A2989 RMK AO2 SLP115 T02330089 10272 20228 55003,KCHO,2023-06-05T23:53:00Z,38.13,-78.45,23.3,8.9,0,0,,10.0,29.890747,1011.5,,,TRUE,,,,,,,CLR,,,,,,,,VFR,-0.3,27.2,22.8,,,,,,,,,METAR,193.0
KCHA 052353Z 29003KT 10SM FEW060 FEW120 BKN250 29/18 A2990 RMK AO2 SLP116 T02890183 10306 20283 55001,KCHA,2023-06-05T23:53:00Z,35.03,-85.2,28.9,18.3,290,3,,10.0,29.899607,1011.6,,,TRUE,,,,,,,FEW,6000,FEW,12000,BKN,25000,,,VFR,-0.1,30.6,28.3,,,,,,,,,METAR,203.0
KCGI 052353Z AUTO 35004KT 10SM CLR 28/13 A2992 RMK AO2 SLP128 T02780133 10306 20278 55006,KCGI,2023-06-05T23:53:00Z,37.23,-89.58,27.8,13.3,350,4,,10.0,29.920275,1012.8,,TRUE,TRUE,,,,,,,CLR,,,,,,,,VFR,-0.6,30.6,27.8,,,,,,,,,METAR,103.0
KCEZ 052353Z AUTO 06007KT 10SM CLR 25/03 A3005 RMK AO2 SLP114 T02500033 10272 20244 58010,KCEZ,2023-06-05T23:53:00Z,37.3,-108.63,25.0,3.3,60,7,,10.0,30.050198,1011.4,,TRUE,TRUE,,,,,,,CLR,,,,,,,,VFR,-1.0,27.2,24.4,,,,,,,,,METAR,1801.0
KCEW 052353Z AUTO 19006KT 10SM CLR 26/18 A2992 RMK AO2 SLP130 60000 T02560183 10317 20256 53001,KCEW,2023-06-05T23:53:00Z,30.78,-86.52,25.6,18.3,190,6,,10.0,29.920275,1013.0,,TRUE,TRUE,,,,,,,CLR,,,,,,,,VFR,0.1,31.7,25.6,,,,,0.005,,,,METAR,47.0
KCDW 052353Z 34004KT 9SM CLR 22/04 A2980 RMK AO2 SLP096 T02220039 10250 20222 53002,KCDW,2023-06-05T23:53:00Z,40.88,-74.28,22.2,3.9,340,4,,9.0,29.799213,1009.6,,,TRUE,,,,,,,CLR,,,,,,,,VFR,0.2,25.0,22.2,,,,,,,,,METAR,52.0
KCDS 052353Z AUTO 14004KT 10SM FEW060 FEW100 27/14 A2999 RMK AO2 LTG DSNT NE SLP132 T02720139 10289 20250 55009,KCDS,2023-06-05T23:53:00Z,34.43,-100.28,27.2,13.9,140,4,,10.0,29.991142,1013.2,,TRUE,TRUE,,,,,,,FEW,6000,FEW,10000,,,,,VFR,-0.9,28.9,25.0,,,,,,,,,METAR,595.0
KCDR 052353Z AUTO 14008KT 10SM CLR 25/13 A3006 RMK AO2 SLP166 T02500128 10272 20239 56008,KCDR,2023-06-05T23:53:00Z,42.83,-103.1,25.0,12.8,140,8,,10.0,30.059055,1016.6,,TRUE,TRUE,,,,,,,CLR,,,,,,,,VFR,-0.8,27.2,23.9,,,,,,,,,METAR,1002.0
KCDC 052353Z AUTO 21008G20KT 10SM CLR 28/M03 A2993 RMK AO2 SLP062 T02781033 10289 20239 58017 $,KCDC,2023-06-05T23:53:00Z,37.7,-113.1,27.8,-3.3,210,8,20,10.0,29.929134,1006.2,,TRUE,TRUE,TRUE,,,,,,CLR,,,,,,,,VFR,-1.7,28.9,23.9,,,,,,,,,METAR,1703.0
KCCR 052353Z 24014KT 10SM CLR 19/11 A2978 RMK AO2 SLP070 T01940111 10228 20194 53003,KCCR,2023-06-05T23:53:00Z,38.0,-122.05,19.4,11.1,240,14,,10.0,29.778543,1007.0,,,TRUE,,,,,,,CLR,,,,,,,,VFR,0.3,22.8,19.4,,,,,,,,,SPECI,6.0
KCAG 052353Z AUTO 16011KT 10SM CLR 21/03 A3010 RMK AO2 LTG DSNT NW SLP145 T02110033 10261 20206 55003,KCAG,2023-06-05T23:53:00Z,40.5,-107.52,21.1,3.3,160,11,,10.0,30.100393,1014.5,,TRUE,TRUE,,,,,,,CLR,,,,,,,,VFR,-0.3,26.1,20.6,,,,,,,,,METAR,1888.0
KBYI 052353Z AUTO VRB05KT 10SM CLR 25/09 A2995 RMK AO2 SLP109 T02500089 10261 20211 58012,KBYI,2023-06-05T23:53:00Z,42.55,-113.77,25.0,8.9,0,5,,10.0,29.949802,1010.9,,TRUE,TRUE,,,,,,,CLR,,,,,,,,VFR,-1.2,26.1,21.1,,,,,,,,,METAR,1263.0
KBYG 052353Z AUTO 16007KT 10SM FEW060 23/12 A3006 RMK AO2 LTG DSNT N AND NW SLP129 T02280122 10250 20222 56003,KBYG,2023-06-05T23:53:00Z,44.38,-106.72,22.8,12.2,160,7,,10.0,30.059055,1012.9,,TRUE,TRUE,,,,,,,FEW,6000,,,,,,,VFR,-0.3,25.0,22.2,,,,,,,,,METAR,1503.0
KBWG 052353Z AUTO VRB04KT 10SM CLR 29/17 A2990 RMK AO2 SLP118 T02890167 10311 20289 55004,KBWG,2023-06-05T23:53:00Z,36.97,-86.42,28.9,16.7,0,4,,10.0,29.899607,1011.8,,TRUE,TRUE,,,,,,,CLR,,,,,,,,VFR,-0.4,31.1,28.9,,,,,,,,,METAR,159.0
KBVY 052353Z 34003KT 10SM BKN047 OVC080 13/13 A2976 RMK AO2 RAB2256E14 SLP073 P0003 60004 T01330128 10161 20133 55000,KBVY,2023-06-05T23:53:00Z,42.58,-70.92,13.3,12.8,340,3,,10.0,29.760826,1007.3,,,TRUE,,,,,,,BKN,4700,OVC,8000,,,,,VFR,0.0,16.1,13.3,,,0.03,,0.04,,,,METAR,28.0
KBVO 052353Z AUTO 00000KT 10SM CLR 31/15 A2994 RMK AO2 SLP127 T03060150 10328 20300 58002,KBVO,2023-06-05T23:53:00Z,36.77,-96.02,30.6,15.0,0,0,,10.0,29.940945,1012.7,,TRUE,TRUE,,,,,,,CLR,,,,,,,,VFR,-0.2,32.8,30.0,,,,,,,,,METAR,210.0
KBUR 052353Z 00000KT 10SM OVC025 16/11 A2988 RMK AO2 SLP110 T01610106 10161 20139 58010 $,KBUR,2023-06-05T23:53:00Z,34.2,-118.37,16.1,10.6,0,0,,10.0,29.878937,1011.0,,,TRUE,TRUE,,,,,,OVC,2500,,,,,,,MVFR,-1.0,16.1,13.9,,,,,,,,,METAR,221.0
KBTR 052353Z 10003KT 7SM RA BKN100 OVC120 22/19 A2990 RMK AO2 WSHFT 2245 SLP124 P0027 60041 T02170194 10306 20211 50004,KBTR,2023-06-05T23:53:00Z,30.53,-91.15,21.7,19.4,100,3,,7.0,29.899607,1012.4,,,TRUE,,,,,,RA,BKN,10000,OVC,12000,,,,,VFR,0.4,30.6,21.1,,,0.27,,0.41,,,,METAR,20.0
KBTM 052353Z AUTO 32009KT 10SM BKN120 18/08 A3009 RMK AO2 LTG DSNT SE SLP149 60003 T01830083 10222 20156 50008,KBTM,2023-06-05T23:53:00Z,45.97,-112.5,18.3,8.3,320,9,,10.0,30.088583,1014.9,,TRUE,TRUE,,,,,,,BKN,12000,,,,,,,VFR,0.8,22.2,15.6,,,,,0.03,,,,METAR,1680.0
KBTL 052353Z 29011KT 10SM CLR 26/07 A2999 RMK AO2 SLP152 T02560072 10289 20256 56007,KBTL,2023-06-05T23:53:00Z,42.32,-85.25,25.6,7.2,290,11,,10.0,29.991142,1015.2,,,TRUE,,,,,,,CLR,,,,,,,,VFR,-0.7,28.9,25.6,,,,,,,,,METAR,282.0
KBRO 052353Z 00000KT 10SM CLR 28/21 A2984 RMK AO2 SLP103 60073 T02830206 10322 20206 56013,KBRO,2023-06-05T23:53:00Z,25.92,-97.42,28.3,20.6,0,0,,10.0,29.840551,1010.3,,,TRUE,,,,,,,CLR,,,,,,,,VFR,-1.3,32.2,20.6,,,,,0.73,,,,METAR,6.0
KBRL 052353Z AUTO 02004KT 10SM CLR 27/12 A3000 RMK AO2 SLP156 T02670117 10278 20233 56014,KBRL,2023-06-05T23:53:00Z,40.77,-91.13,26.7,11.7,20,4,,10.0,30.0,1015.6,,TRUE,TRUE,,,,,,,CLR,,,,,,,,VFR,-1.4,27.8,23.3,,,,,,,,,METAR,208.0
KBRD 052353Z AUTO 12005KT 8SM CLR 24/17 A3007 RMK AO2 SLP179 60000 T02440167 10250 20206 58006,KBRD,2023-06-05T23:53:00Z,46.4,-94.13,24.4,16.7,120,5,,8.0,30.070866,1017.9,,TRUE,TRUE,,,,,,,CLR,,,,,,,,VFR,-0.6,25.0,20.6,,,,,0.005,,,,METAR,372.0
KBPT 052353Z 17008KT 10SM CLR 27/20 A2987 RMK AO2 LTG DSNT ALQDS SLP114 T02670200 10311 20267 53004,KBPT,2023-06-05T23:53:00Z,29.95,-94.03,26.7,20.0,170,8,,10.0,29.870079,1011.4,,,TRUE,,,,,,,CLR,,,,,,,,VFR,0.4,31.1,26.7,,,,,,,,,METAR,6.0
KBPI 052353Z AUTO 22006KT 10SM CLR 20/04 A3015 RMK AO2 LTG DSNT S AND SW SLP137 T02000039 10217 20172 56006,KBPI,2023-06-05T23:53:00Z,42.58,-110.1,20.0,3.9,220,6,,10.0,30.15059,1013.7,,TRUE,TRUE,,,,,,,CLR,,,,,,,,VFR,-0.6,21.7,17.2,,,,,,,,,METAR,2120.0
KBOI 052353Z 35011KT 10SM CLR 29/08 A2990 RMK AO2 SLP098 T02890078 10300 20250 56019,KBOI,2023-06-05T23:53:00Z,43.57,-116.23,28.9,7.8,350,11,,10.0,29.899607,1009.8,,,TRUE,,,,,,,CLR,,,,,,,,VFR,-1.9,30.0,25.0,,,,,,,,,METAR,860.0
KBNO 052353Z AUTO 32010KT 10SM CLR 26/07 A3002 RMK AO2 SLP133 T02560067 10278 20217 58009,KBNO,2023-06-05T23:53:00Z,43.6,-118.95,25.6,6.7,320,10,,10.0,30.02067,1013.3,,TRUE,TRUE,,,,,,,CLR,,,,,,,,VFR,-0.9,27.8,21.7,,,,,,,,,METAR,1263.0
KBNA 052353Z COR 36009G20KT 6SM HZ FEW070 29/13 A2990 RMK AO2 SLP119 T02940133 10333 20294 55001,KBNA,2023-06-05T23:53:00Z,36.12,-86.68,29.4,13.3,360,9,20,6.0,29.899607,1011.9,TRUE,,TRUE,,,,,,HZ,FEW,7000,,,,,,,VFR,-0.1,33.3,29.4,,,,,,,,,METAR,168.0
KBMQ 052353Z AUTO 35004KT 10SM CLR 27/17 A2992 RMK AO2 LTG DSNT N SLP117 T02670172 10300 20261 58006,KBMQ,2023-06-05T23:53:00Z,30.73,-98.23,26.7,17.2,350,4,,10.0,29.920275,1011.7,,TRUE,TRUE,,,,,,,CLR,,,,,,,,VFR,-0.6,30.0,26.1,,,,,,,,,METAR,387.0
KBMG 052353Z 02005KT 10SM CLR 24/06 A2996 RMK AO2 SLP140 T02440061 10272 20244 56008,KBMG,2023-06-05T23:53:00Z,39.15,-86.62,24.4,6.1,20,5,,10.0,29.958662,1014.0,,,TRUE,,,,,,,CLR,,,,,,,,VFR,-0.8,27.2,24.4,,,,,,,,,METAR,254.0
KBLI 052353Z 30010KT 10SM CLR 21/04 A3010 RMK AO2 SLP199 T02110039 10217 20167 58016,KBLI,2023-06-05T23:53:00Z,48.8,-122.53,21.1,3.9,300,10,,10.0,30.100393,1019.9,,,TRUE,,,,,,,CLR,,,,,,,,VFR,-1.6,21.7,16.7,,,,,,,,,METAR,46.0
KBKV 052353Z 09006KT 10SM CLR 28/18 A2990 RMK AO2 SLP122 T02780183 10317 20278 53007,KBKV,2023-06-05T23:53:00Z,28.47,-82.45,27.8,18.3,90,6,,10.0,29.899607,1012.2,,,TRUE,,,,,,,CLR,,,,,,,,VFR,0.7,31.7,27.8,,,,,,,,,METAR,21.0
KBKL 052353Z 27003KT 10SM CLR 18/09 A2998 RMK AO2 SLP151 T01780094 10194 20172 55009,KBKL,2023-06-05T23:53:00Z,41.53,-81.67,17.8,9.4,270,3,,10.0,29.97933,1015.1,,,TRUE,,,,,,,CLR,,,,,,,,VFR,-0.9,19.4,17.2,,,,,,,,,METAR,177.0
KBKE 052353Z AUTO 07007G18KT 10SM BKN075 BKN090 OVC120 26/11 A2997 RMK AO2 SLP131 T02560111 10278 20222 56010,KBKE,2023-06-05T23:53:00Z,44.85,-117.82,25.6,11.1,70,7,18,10.0,29.970472,1013.1,,TRUE,TRUE,,,,,,,BKN,7500,BKN,9000,OVC,12000,,,VFR,-1.0,27.8,22.2,,,,,,,,,METAR,1025.0
KBIV 052353Z AUTO 31005KT 10SM CLR 21/09 A3000 RMK AO2 SLP158 T02110089 10261 20211 58011,KBIV,2023-06-05T23:53:00Z,42.75,-86.1,21.1,8.9,310,5,,10.0,30.0,1015.8,,TRUE,TRUE,,,,,,,CLR,,,,,,,,VFR,-1.1,26.1,21.1,,,,,,,,,METAR,207.0
KBIL 052353Z 16008KT 10SM SCT055 BKN250 27/14 A2996 RMK AO2 SLP116 CB DSNT S W-NW SHRA DSNT S-NW T02670144 10272 20233 58013,KBIL,2023-06-05T23:53:00Z,45.8,-108.55,26.7,14.4,160,8,,10.0,29.958662,1011.6,,,TRUE,,,,,,,SCT,5500,BKN,25000,,,,,VFR,-1.3,27.2,23.3,,,,,,,,,METAR,1089.0
KBHM 052353Z 16004KT 10SM FEW060 OVC250 28/17 A2994 RMK AO2 SLP130 T02830172 10317 20283 53003,KBHM,2023-06-05T23:53:00Z,33.57,-86.75,28.3,17.2,160,4,,10.0,29.940945,1013.0,,,TRUE,,,,,,,FEW,6000,OVC,25000,,,,,VFR,0.3,31.7,28.3,,,,,,,,,METAR,191.0
KBGR 052353Z 35010KT 10SM SCT012 SCT016 OVC024 13/11 A2973 RMK AO2 SLP069 60004 T01280111 10133 20122 57010,KBGR,2023-06-05T23:53:00Z,44.8,-68.82,12.8,11.1,350,10,,10.0,29.731298,1006.9,,,TRUE,,,,,,,SCT,1200,SCT,1600,OVC,2400,,,MVFR,-1.0,13.3,12.2,,,,,0.04,,,,METAR,45.0
KBGM 052353Z 33007KT 10SM FEW055 18/01 A2989 RMK AO2 SLP119 T01780006 10217 20178 55000 $,KBGM,2023-06-05T23:53:00Z,42.22,-75.98,17.8,0.6,330,7,,10.0,29.890747,1011.9,,,TRUE,TRUE,,,,,,FEW,5500,,,,,,,VFR,0.0,21.7,17.8,,,,,,,,,METAR,485.0
KBFM 052353Z 18004KT 10SM FEW030 25/19 A2993 RMK AO2 SLP134 60024 T02500194 10256 20233 55000,KBFM,2023-06-05T23:53:00Z,30.62,-88.07,25.0,19.4,180,4,,10.0,29.929134,1013.4,,,TRUE,,,,,,,FEW,3000,,,,,,,VFR,0.0,25.6,23.3,,,,,0.24,,,,METAR,7.0
KBFI 052353Z 34010G18KT 10SM FEW200 22/02 A3007 RMK AO2 SLP182 T02170017 10222 20178 58019,KBFI,2023-06-05T23:53:00Z,47.55,-122.32,21.7,1.7,340,10,18,10.0,30.070866,1018.2,,,TRUE,,,,,,,FEW,20000,,,,,,,VFR,-1.9,22.2,17.8,,,,,,,,,METAR,7.0
KBFF 052353Z AUTO 15011KT 10SM CLR 26/09 A3009 RMK AO2 SLP155 T02560094 10261 20228 56010,KBFF,2023-06-05T23:53:00Z,41.87,-103.6,25.6,9.4,150,11,,10.0,30.088583,1015.5,,TRUE,TRUE,,,,,,,CLR,,,,,,,,VFR,-1.0,26.1,22.8,,,,,,,,,METAR,1204.0
KBFD 052353Z AUTO 31005KT 6SM HZ SCT055 17/04 A2997 RMK AO2 SLP144 T01670044 10217 20167 55001,KBFD,2023-06-05T23:53:00Z,41.8,-78.63,16.7,4.4,310,5,,6.0,29.970472,1014.4,,TRUE,TRUE,,,,,,HZ,SCT,5500,,,,,,,VFR,-0.1,21.7,16.7,,,,,,,,,SPECI,642.0
KBDE 052353Z AUTO 05003KT 10SM CLR 23/18 A3007 RMK AO2 LTG DSNT SE RAE00 TSE2256 SLP180 P0000 60000 T02280178 10300 20222 58001,KBDE,2023-06-05T23:53:00Z,48.73,-94.62,22.8,17.8,50,3,,10.0,30.070866,1018.0,,TRUE,TRUE,,,,,,,CLR,,,,,,,,VFR,-0.1,30.0,22.2,,,0.005,,0.005,,,,METAR,330.0
KBCT 052353Z 07012G18KT 10SM SCT030 27/20 A2987,KBCT,2023-06-05T23:53:00Z,26.38,-80.1,27.0,20.0,70,12,18,10.0,29.870079,,,,,,,,,,,SCT,3000,,,,,,,VFR,,,,,,,,,,,,METAR,3.0
KBCE 052353Z AUTO 15005KT 10SM FEW120 21/00 A3013 RMK AO2 SLP102 T02060000 10222 20189 58008,KBCE,2023-06-05T23:53:00Z,37.7,-112.15,20.6,0.0,150,5,,10.0,30.129921,1010.2,,TRUE,TRUE,,,,,,,FEW,12000,,,,,,,VFR,-0.8,22.2,18.9,,,,,,,,,METAR,2311.0
KBBW 052353Z AUTO 28006KT 10SM BKN065 BKN095 26/14 A3007 RMK AO2 LTG DSNT S SLP166 T02560144 10283 20256 55003,KBBW,2023-06-05T23:53:00Z,41.43,-99.63,25.6,14.4,280,6,,10.0,30.070866,1016.6,,TRUE,TRUE,,,,,,,BKN,6500,BKN,9500,,,,,VFR,-0.3,28.3,25.6,,,,,,,,,METAR,771.0
KBAF 052353Z 00000KT 10SM BKN090 BKN110 18/10 A2978 RMK AO2 SLP085 T01780100 10217 20178 53004,KBAF,2023-06-05T23:53:00Z,42.17,-72.72,17.8,10.0,0,0,,10.0,29.778543,1008.5,,,TRUE,,,,,,,BKN,9000,BKN,11000,,,,,VFR,0.4,21.7,17.8,,,,,,,,,METAR,80.0
KAZO 052353Z 29010KT 10SM CLR 25/06 A3000 RMK AO2 SLP155 T02500061 10294 20250 56004,KAZO,2023-06-05T23:53:00Z,42.23,-85.55,25.0,6.1,290,10,,10.0,30.0,1015.5,,,TRUE,,,,,,,CLR,,,,,,,,VFR,-0.4,29.4,25.0,,,,,,,,,METAR,264.0
KAXN 052353Z AUTO 08004KT 10SM FEW110 27/13 A3005 RMK AO2 SLP171 T02670133 10294 20244 56010,KAXN,2023-06-05T23:53:00Z,45.87,-95.4,26.7,13.3,80,4,,10.0,30.050198,1017.1,,TRUE,TRUE,,,,,,,FEW,11000,,,,,,,VFR,-1.0,29.4,24.4,,,,,,,,,METAR,433.0
KAWM 052353Z AUTO 00000KT 10SM -RA BKN110 22/18 A2990 RMK AO2 RAB39 SLP123 P0000 60065 T02170183 10333 20206 53011,KAWM,2023-06-05T23:53:00Z,35.13,-90.23,21.7,18.3,0,0,,10.0,29.899607,1012.3,,TRUE,TRUE,,,,,,-RA,BKN,11000,,,,,,,VFR,1.1,33.3,20.6,,,0.005,,0.65,,,,METAR,64.0
KAUS 052353Z 09007KT 10SM FEW050 SCT100 BKN200 26/19 A2987 RMK AO2 SLP108 60003 T02560189 10306 20222 56007,KAUS,2023-06-05T23:53:00Z,30.18,-97.68,25.6,18.9,90,7,,10.0,29.870079,1010.8,,,TRUE,,,,,,,FEW,5000,SCT,10000,BKN,20000,,,VFR,-0.7,30.6,22.2,,,,,0.03,,,,METAR,148.0
KAUG 052353Z AUTO 35010KT 10SM OVC032 14/10 A2975 RMK AO2 SLP077 60006 T01390100 10144 20133 58005,KAUG,2023-06-05T23:53:00Z,44.32,-69.8,13.9,10.0,350,10,,10.0,29.749016,1007.7,,TRUE,TRUE,,,,,,,OVC,3200,,,,,,,VFR,-0.5,14.4,13.3,,,,,0.06,,,,METAR,107.0
KATY 052353Z AUTO 01007KT 10SM FEW065 SCT100 25/14 A3003 RMK AO2 RAE35 SLP161 P0000 60000 T02500144 10311 20244 58010,KATY,2023-06-05T23:53:00Z,44.9,-97.15,25.0,14.4,10,7,,10.0,30.029528,1016.1,,TRUE,TRUE,,,,,,,FEW,6500,SCT,10000,,,,,VFR,-1.0,31.1,24.4,,,0.005,,0.005,,,,METAR,531.0
KASE 052353Z 35011G20KT 10SM CLR 18/00 A3019 RMK AO2 PK WND 34028/2327 SLP134 T01780000 10222 20172 53002,KASE,2023-06-05T23:53:00Z,39.23,-106.87,17.8,0.0,350,11,20,10.0,30.188976,1013.4,,,TRUE,,,,,,,CLR,,,,,,,,VFR,0.2,22.2,17.2,,,,,,,,,METAR,2384.0
KASD 052353Z AUTO 14005KT 10SM SCT032 BKN110 28/21 A2990 RMK AO2 SLP126 T02780211 10317 20278 53003,KASD,2023-06-05T23:53:00Z,30.35,-89.82,27.8,21.1,140,5,,10.0,29.899607,1012.6,,TRUE,TRUE,,,,,,,SCT,3200,BKN,11000,,,,,VFR,0.3,31.7,27.8,,,,,,,,,METAR,8.0
KARB 052353Z AUTO 00000KT 6SM HZ FEW095 24/09 A2996 RMK AO2 SLP143 T02440094 10267 20233 58008,KARB,2023-06-05T23:53:00Z,42.22,-83.73,24.4,9.4,0,0,,6.0,29.958662,1014.3,,TRUE,TRUE,,,,,,HZ,FEW,9500,,,,,,,VFR,-0.8,26.7,23.3,,,,,,,,,METAR,251.0
KARA 052353Z 08004KT 10SM FEW110 23/20 A2990 RMK AO2 SLP123 60006 T02330200 10311 20211 55008,KARA,2023-06-05T23:53:00Z,30.03,-91.88,23.3,20.0,80,4,,10.0,29.899607,1012.3,,,TRUE,,,,,,,FEW,11000,,,,,,,VFR,-0.8,31.1,21.1,,,,,0.06,,,,METAR,5.0
KAQP 052353Z AUTO 16009KT 10SM 28/13 A3000 RMK AO2,KAQP,2023-06-05T23:53:00Z,45.22,-96.0,28.0,13.0,160,9,,10.0,30.0,,,TRUE,TRUE,,,,,,,,,,,,,,,,,,,,,,,,,,,METAR,312.0
KAPF 052353Z 11008KT 5SM SCT025 BKN035 27/24 A2986 RMK AO2 LTG DSNT SE SLP110 T02670239 10322 20261 53011,KAPF,2023-06-05T23:53:00Z,26.15,-81.77,26.7,23.9,110,8,,5.0,29.861221,1011.0,,,TRUE,,,,,,,SCT,2500,BKN,3500,,,,,MVFR,1.1,32.2,26.1,,,,,,,,,METAR,2.0
KAPA 052353Z 00000KT 10SM -TSRA FEW020 BKN055CB BKN090 BKN130 14/10 A3019 RMK AO2 LTG DSNT SE RAB26 TSB00 SLP192 OCNL LTGICCG E-SE TS E-SE MOV N CB DSNT NE AND SE MOV N P0000 60011 T01390100 10200 20139 50003,KAPA,2023-06-05T23:53:00Z,39.57,-104.85,13.9,10.0,0,0,,10.0,30.188976,1019.2,,,TRUE,,,,,,-TSRA,FEW,2000,BKN,5500,BKN,9000,BKN,13000,VFR,0.3,20.0,13.9,,,0.005,,,,,,SPECI,1791.0
KAOO 052353Z AUTO 10SM CLR 19/07 A2993 RMK AO2 SLP132 6//// T01890067 55001 $,KAOO,2023-06-05T23:53:00Z,40.3,-78.32,18.9,6.7,,,,10.0,29.929134,1013.2,,TRUE,TRUE,TRUE,,,,,,CLR,,,,,,,,VFR,-0.1,,,,,,,,,,,SPECI,450.0
KAOH 052353Z AUTO 07004KT 5SM HZ CLR 23/04 A2999 RMK AO2 SLP151 T02330044 10256 20233 55006,KAOH,2023-06-05T23:53:00Z,40.7,-84.02,23.3,4.4,70,4,,5.0,29.991142,1015.1,,TRUE,TRUE,,,,,,HZ,CLR,,,,,,,,MVFR,-0.6,25.6,23.3,,,,,,,,,METAR,294.0
KANB 052353Z AUTO 00000KT 10SM FEW110 27/19 A2993 RMK AO2 LTG DSNT NE SLP126 T02670194 10300 20267 53002,KANB,2023-06-05T23:53:00Z,33.58,-85.85,26.7,19.4,0,0,,10.0,29.929134,1012.6,,TRUE,TRUE,,,,,,,FEW,11000,,,,,,,VFR,0.2,30.0,26.7,,,,,,,,,METAR,187.0
KAMW 052353Z AUTO 14006KT 5SM HZ CLR 28/14 A3002 RMK AO2 SLP156 T02780144 10306 20278 55007,KAMW,2023-06-05T23:53:00Z,41.98,-93.62,27.8,14.4,140,6,,5.0,30.02067,1015.6,,TRUE,TRUE,,,,,,HZ,CLR,,,,,,,,MVFR,-0.7,30.6,27.8,,,,,,,,,METAR,282.0
KAMG 052353Z AUTO 00000KT 10SM CLR 26/19 A2991 RMK AO2 SLP127 T02610194 10306 20261 55002,KAMG,2023-06-05T23:53:00Z,31.53,-82.5,26.1,19.4,0,0,,10.0,29.911417,1012.7,,TRUE,TRUE,,,,,,,CLR,,,,,,,,VFR,-0.2,30.6,26.1,,,,,,,,,METAR,61.0
KALW 052353Z 02005KT 10SM CLR 31/06 A2988 RMK AO2 SLP112 T03110061 10317 20233 58020,KALW,2023-06-05T23:53:00Z,46.1,-118.28,31.1,6.1,20,5,,10.0,29.878937,1011.2,,,TRUE,,,,,,,CLR,,,,,,,,VFR,-2.0,31.7,23.3,,,,,,,,,METAR,355.0
KALI 052353Z AUTO 14004KT 10SM CLR 27/21 A2985 RMK AO2 SLP105 60047 T02670211 10306 20211 55019,KALI,2023-06-05T23:53:00Z,27.73,-98.02,26.7,21.1,140,4,,10.0,29.84941,1010.5,,TRUE,TRUE,,,,,,,CLR,,,,,,,,VFR,-1.9,30.6,21.1,,,,,,,,,SPECI,52.0
KAKO 052353Z AUTO 16013G20KT 10SM CLR 22/09 A3015 RMK AO2 SLP167 T02170089 10222 20206 58006 $,KAKO,2023-06-05T23:53:00Z,40.17,-103.22,21.7,8.9,160,13,20,10.0,30.15059,1016.7,,TRUE,TRUE,TRUE,,,,,,CLR,,,,,,,,VFR,-0.6,22.2,20.6,,,,,,,,,METAR,1431.0
KAIA 052353Z AUTO 17009KT 10SM CLR 24/11 A3010 RMK AO2 SLP167 60000 T02390106 10256 20194 56009,KAIA,2023-06-05T23:53:00Z,42.05,-102.8,23.9,10.6,170,9,,10.0,30.100393,1016.7,,TRUE,TRUE,,,,,,,CLR,,,,,,,,VFR,-0.9,25.6,19.4,,,,,0.005,,,,METAR,1198.0
KAGS 052353Z 13004KT 10SM CLR 24/19 A2990 RMK AO2 SLP124 T02390189 10278 20239 55002,KAGS,2023-06-05T23:53:00Z,33.37,-81.97,23.9,18.9,130,4,,10.0,29.899607,1012.4,,,TRUE,,,,,,,CLR,,,,,,,,VFR,-0.2,27.8,23.9,,,,,,,,,METAR,40.0
KAGC 052353Z 34004KT 7SM CLR 21/04 A2995 RMK AO2 SLP144 T02060044 10233 20206 55001,KAGC,2023-06-05T23:53:00Z,40.35,-79.92,20.6,4.4,340,4,,7.0,29.949802,1014.4,,,TRUE,,,,,,,CLR,,,,,,,,VFR,-0.1,23.3,20.6,,,,,,,,,METAR,380.0
KAFW 052353Z 09004KT 10SM FEW055 SCT110 BKN250 28/16 A2989 RMK AO2 SLP109 CB DSNT SW-W MOV SW TCU DSNT S T02830156 10306 20278 55006,KAFW,2023-06-05T23:53:00Z,32.97,-97.32,28.3,15.6,90,4,,10.0,29.890747,1010.9,,,TRUE,,,,,,,FEW,5500,SCT,11000,BKN,25000,,,VFR,-0.6,30.6,27.8,,,,,,,,,METAR,208.0
KAEX 052353Z 09010KT 10SM VCTS FEW027 SCT055 BKN065 22/20 A2995 RMK AO2 LTG DSNT ALQDS RAE44 TSE32 SLP145 P0042 60070 T02170200 10328 20211 53036,KAEX,2023-06-05T23:53:00Z,31.33,-92.57,21.7,20.0,90,10,,10.0,29.949802,1014.5,,,TRUE,,,,,,VCTS,FEW,2700,SCT,5500,BKN,6500,,,VFR,3.6,32.8,21.1,,,0.42,,0.7,,,,METAR,25.0
KADG 052353Z AUTO 36005KT 8SM BKN085 27/08 A2998 RMK AO2 SLP150 T02670083 10278 20244 56008,KADG,2023-06-05T23:53:00Z,41.87,-84.08,26.7,8.3,360,5,,8.0,29.97933,1015.0,,TRUE,TRUE,,,,,,,BKN,8500,,,,,,,VFR,-0.8,27.8,24.4,,,,,,,,,METAR,244.0
KACV 052353Z AUTO 18004KT 5SM HZ OVC013 14/10 A2981 RMK AO2 LTG DSNT NE SLP099 T01390100 10167 20133 55002,KACV,2023-06-05T23:53:00Z,40.98,-124.1,13.9,10.0,180,4,,5.0,29.811024,1009.9,,TRUE,TRUE,,,,,,HZ,OVC,1300,,,,,,,MVFR,-0.2,16.7,13.3,,,,,,,,,METAR,63.0
KACK 052353Z 33008KT 10SM OVC027 12/09 A2976 RMK AO2 SLP079 T01220094 10139 20122 55000 $,KACK,2023-06-05T23:53:00Z,41.25,-70.07,12.2,9.4,330,8,,10.0,29.760826,1007.9,,,TRUE,TRUE,,,,,,OVC,2700,,,,,,,MVFR,0.0,13.9,12.2,,,,,,,,,METAR,12.0
KABY 052353Z AUTO 22004KT 10SM CLR 28/16 A2992 RMK AO2 SLP131 T02830156 10306 20278 55003,KABY,2023-06-05T23:53:00Z,31.53,-84.2,28.3,15.6,220,4,,10.0,29.920275,1013.1,,TRUE,TRUE,,,,,,,CLR,,,,,,,,VFR,-0.3,30.6,27.8,,,,,,,,,METAR,60.0
KABR 052353Z AUTO 08011KT 10SM CLR 27/14 A3001 RMK AO2 SLP157 T02670144 10339 20250 58004,KABR,2023-06-05T23:53:00Z,45.45,-98.42,26.7,14.4,80,11,,10.0,30.008858,1015.7,,TRUE,TRUE,,,,,,,CLR,,,,,,,,VFR,-0.4,33.9,25.0,,,,,,,,,METAR,397.0
KAAF 052353Z AUTO 18004KT 10SM CLR 26/21 A2990 RMK AO2 SLP126 T02610206 10283 20256 55004 $,KAAF,2023-06-05T23:53:00Z,29.73,-85.03,26.1,20.6,180,4,,10.0,29.899607,1012.6,,TRUE,TRUE,TRUE,,,,,,CLR,,,,,,,,VFR,-0.4,28.3,25.6,,,,,,,,,METAR,5.0
CZFA 052353Z 10010G19KT 070V130 5SM -SHRA BR FEW030CB BKN050 OVC060 08/06 A2989 RMK CB2SC5SC1 SLP148,CZFA,2023-06-05T23:53:00Z,62.2,-133.38,8.0,6.0,100,10,19,5.0,29.890747,1014.8,,,,,,,,,-SHRA BR,FEW,3000,BKN,5000,OVC,6000,,,MVFR,,,,,,,,,,,,SPECI,702.0
CYQX 052353Z 11018KT 3/4SM R13/P6000FT/D R03/P6000FT/D -DZ BR OVC002 05/05 A3004 RMK FG6ST2 SLP181,CYQX,2023-06-05T23:53:00Z,48.95,-54.58,5.0,5.0,110,18,,0.75,30.041338,1018.1,,,,,,,,,-DZ BR,OVC,200,,,,,,,LIFR,,,,,,,,,,,,SPECI,144.0
PATA 052352Z 12007KT 10SM BKN080 21/06 A2992 RMK AO2 SLP135 T02060056 10211 20122 56021,PATA,2023-06-05T23:52:00Z,65.17,-152.1,20.6,5.6,120,7,,10.0,29.920275,1013.5,,,TRUE,,,,,,,BKN,8000,,,,,,,VFR,-2.1,21.1,12.2,,,,,,,,,METAR,62.0
PABA 052352Z AUTO 10010KT 10SM OVC003 02/01 A3018 RMK AO2 SLP226 T00220011 10033 20017 58003 FZRANO,PABA,2023-06-05T23:52:00Z,70.13,-143.58,2.2,1.1,100,10,,10.0,30.180119,1022.6,,TRUE,TRUE,,,,TRUE,,,OVC,300,,,,,,,LIFR,-0.3,3.3,1.7,,,,,,,,,METAR,1.0
MMDO 052352Z 09010KT 10SM BKN027CB 29/M03 A3004 RMK SLP024 57034 922 8/300 DSNT PCPN 2ND AND 3TH QUAD LWR CU,MMDO,2023-06-05T23:52:00Z,24.12,-104.52,29.0,-3.0,90,10,,10.0,30.041338,1002.4,,,,,,,,,,BKN,2700,,,,,,,MVFR,-3.4,,,,,,,,,,,METAR,1863.0
KVTN 052352Z AUTO 11012KT 10SM CLR 27/12 A3006 RMK AO2 SLP161 T02720122 10289 20261 56007,KVTN,2023-06-05T23:52:00Z,42.87,-100.55,27.2,12.2,110,12,,10.0,30.059055,1016.1,,TRUE,TRUE,,,,,,,CLR,,,,,,,,VFR,-0.7,28.9,26.1,,,,,,,,,METAR,790.0
KTRM 052352Z AUTO 31014KT 7SM CLR 34/08 A2961 RMK AO2 SLP029 T03390083 10356 20311 56012,KTRM,2023-06-05T23:52:00Z,33.63,-116.17,33.9,8.3,310,14,,7.0,29.610237,1002.9,,TRUE,TRUE,,,,,,,CLR,,,,,,,,VFR,-1.2,35.6,31.1,,,,,,,,,METAR,-39.0
KTOL 052352Z 00000KT 8SM OVC090 25/08 A2997 RMK AO2 SLP146 T02500083 10272 20244 56008,KTOL,2023-06-05T23:52:00Z,41.58,-83.8,25.0,8.3,0,0,,8.0,29.970472,1014.6,,,TRUE,,,,,,,OVC,9000,,,,,,,VFR,-0.8,27.2,24.4,,,,,,,,,METAR,206.0
KTAN 052352Z AUTO 00000KT 10SM FEW060 BKN080 OVC095 15/12 A2976 RMK AO2 SLP078 60000 T01500122 10172 20150 58005,KTAN,2023-06-05T23:52:00Z,41.88,-71.02,15.0,12.2,0,0,,10.0,29.760826,1007.8,,TRUE,TRUE,,,,,,,FEW,6000,BKN,8000,OVC,9500,,,VFR,-0.5,17.2,15.0,,,,,0.005,,,,METAR,8.0
KSUX 052352Z 05003KT 9SM -RA OVC080 27/18 A3000 RMK AO2 RAB36 SLP151 P0000 60000 T02720183 10317 20272 55006,KSUX,2023-06-05T23:52:00Z,42.38,-96.38,27.2,18.3,50,3,,9.0,30.0,1015.1,,,TRUE,,,,,,-RA,OVC,8000,,,,,,,VFR,-0.6,31.7,27.2,,,0.005,,0.005,,,,METAR,332.0
KSPS 052352Z 22012KT 10SM FEW070 SCT120 SCT250 27/18 A2993 RMK AO2 SLP124 T02670178 10317 20267 55001,KSPS,2023-06-05T23:52:00Z,33.98,-98.5,26.7,17.8,220,12,,10.0,29.929134,1012.4,,,TRUE,,,,,,,FEW,7000,SCT,12000,SCT,25000,,,VFR,-0.1,31.7,26.7,,,,,,,,,METAR,310.0
KSPI 052352Z 05008KT 10SM CLR 27/06 A2998 RMK AO2 SLP149 T02720061 10294 20272 56012,KSPI,2023-06-05T23:52:00Z,39.85,-89.68,27.2,6.1,50,8,,10.0,29.97933,1014.9,,,TRUE,,,,,,,CLR,,,,,,,,VFR,-1.2,29.4,27.2,,,,,,,,,METAR,179.0
KSGF 052352Z 22003KT 10SM CLR 26/19 A2996 RMK AO2 SLP136 T02560194 10311 20250 56006 $,KSGF,2023-06-05T23:52:00Z,37.23,-93.38,25.6,19.4,220,3,,10.0,29.958662,1013.6,,,TRUE,TRUE,,,,,,CLR,,,,,,,,VFR,-0.6,31.1,25.0,,,,,,,,,METAR,387.0
KREO 052352Z AUTO 02013G28KT 28/03 A2994 RMK AO1 PK WND 02028/2344 SLP106 T02830028 10294 20244 56013,KREO,2023-06-05T23:52:00Z,42.58,-117.87,28.3,2.8,20,13,28,,29.940945,1010.6,,TRUE,TRUE,,,,,,,,,,,,,,,,-1.3,29.4,24.4,,,,,,,,,METAR,1237.0
KRAP 052352Z 13012KT 10SM CLR 25/14 A3005 RMK AO2 SLP157 T02500144 10267 20250 56014,KRAP,2023-06-05T23:52:00Z,44.05,-103.05,25.0,14.4,130,12,,10.0,30.050198,1015.7,,,TRUE,,,,,,,CLR,,,,,,,,VFR,-1.4,26.7,25.0,,,,,,,,,METAR,965.0
KPYM 052352Z AUTO 00000KT 10SM FEW075 OVC090 14/11 A2975 RMK AO2 SLP077 T01440111 10161 20133 56004,KPYM,2023-06-05T23:52:00Z,41.92,-70.73,14.4,11.1,0,0,,10.0,29.749016,1007.7,,TRUE,TRUE,,,,,,,FEW,7500,OVC,9000,,,,,VFR,-0.4,16.1,13.3,,,,,,,,,METAR,42.0
KPWK 052352Z 10004KT 10SM CLR 24/06 A3002 RMK AO2 SLP164 T02440061 10283 20244 58008,KPWK,2023-06-05T23:52:00Z,42.12,-87.9,24.4,6.1,100,4,,10.0,30.02067,1016.4,,,TRUE,,,,,,,CLR,,,,,,,,VFR,-0.8,28.3,24.4,,,,,,,,,METAR,194.0
KP69 052352Z AUTO 00000KT 24/14 A2993 RMK AO1 SLP118 T02440144 10278 20194 58021,KP69,2023-06-05T23:52:00Z,46.15,-115.6,24.4,14.4,0,0,,,29.929134,1011.8,,TRUE,TRUE,,,,,,,,,,,,,,,,-2.1,27.8,19.4,,,,,,,,,METAR,447.0
KORE 052352Z AUTO 32003KT 10SM OVC080 16/11 A2979 RMK AO2 SLP089 T01560106 10194 20156 58000,KORE,2023-06-05T23:52:00Z,42.57,-72.28,15.6,10.6,320,3,,10.0,29.790354,1008.9,,TRUE,TRUE,,,,,,,OVC,8000,,,,,,,VFR,0.0,19.4,15.6,,,,,,,,,METAR,165.0
KOMA 052352Z 13006KT 10SM FEW070 SCT120 BKN200 31/13 A2999 RMK AO2 LTG DSNT E AND SE SLP148 CB DSNT E-SE-SW T03060133 10322 20294 58007,KOMA,2023-06-05T23:52:00Z,41.32,-95.9,30.6,13.3,130,6,,10.0,29.991142,1014.8,,,TRUE,,,,,,,FEW,7000,SCT,12000,BKN,20000,,,VFR,-0.7,32.2,29.4,,,,,,,,,METAR,299.0
KOKC 052352Z 19004KT 10SM FEW060 SCT250 28/16 A2995 RMK AO2 SLP127 CB DSNT W 60002 T02830161 10294 20211 55007,KOKC,2023-06-05T23:52:00Z,35.38,-97.6,28.3,16.1,190,4,,10.0,29.949802,1012.7,,,TRUE,,,,,,,FEW,6000,SCT,25000,,,,,VFR,-0.7,29.4,21.1,,,,,0.02,,,,METAR,391.0
KOKB 052352Z AUTO 29006KT 10SM BKN038 18/11 A2989 RMK AO2 SLP120 T01830111 10206 20172 58010,KOKB,2023-06-05T23:52:00Z,33.22,-117.35,18.3,11.1,290,6,,10.0,29.890747,1012.0,,TRUE,TRUE,,,,,,,BKN,3800,,,,,,,VFR,-1.0,20.6,17.2,,,,,,,,,METAR,7.0
KNZY 052352Z 21006KT 10SM FEW029 SCT036 SCT150 18/11 A2989 RMK AO2 SLP120 T01830111 10189 20167 58014,KNZY,2023-06-05T23:52:00Z,32.7,-117.22,18.3,11.1,210,6,,10.0,29.890747,1012.0,,,TRUE,,,,,,,FEW,2900,SCT,3600,SCT,15000,,,VFR,-1.4,18.9,16.7,,,,,,,,,METAR,4.0
KNRB 052352Z 06006KT 10SM BKN250 24/18 A2994 RMK AO2 SLP138 T02390178 10278 20239 53000,KNRB,2023-06-05T23:52:00Z,30.38,-81.42,23.9,17.8,60,6,,10.0,29.940945,1013.8,,,TRUE,,,,,,,BKN,25000,,,,,,,VFR,0.0,27.8,23.9,,,,,,,,,METAR,4.0
KNHK 052352Z 22004KT 10SM FEW070 BKN260 23/12 A2986 RMK AO2 SLP112 T02330117 10261 20233 55004,KNHK,2023-06-05T23:52:00Z,38.28,-76.4,23.3,11.7,220,4,,10.0,29.861221,1011.2,,,TRUE,,,,,,,FEW,7000,BKN,26000,,,,,VFR,-0.4,26.1,23.3,,,,,,,,,METAR,5.0
KNFW 052352Z 00000KT 10SM SCT060 BKN110CB 28/16 A2989 RMK AO2 SLP106 OCNL LTGICCCCG DSNT W CB DSNT W T02780156 10306 20278 56008 VISNO S $,KNFW,2023-06-05T23:52:00Z,32.78,-97.43,27.8,15.6,0,0,,10.0,29.890747,1010.6,,,TRUE,TRUE,,,,,,SCT,6000,BKN,11000,,,,,VFR,-0.8,30.6,27.8,,,,,,,,,METAR,188.0
KN60 052352Z AUTO 00000KT 26/17 A3001 RMK AO1 SLP153 T02610167 10306 20250 58007,KN60,2023-06-05T23:52:00Z,47.65,-101.43,26.1,16.7,0,0,,,30.008858,1015.3,,TRUE,TRUE,,,,,,,,,,,,,,,,-0.7,30.6,25.0,,,,,,,,,METAR,582.0
KMWH 052352Z 00000KT 10SM CLR 31/M03 A2991 RMK AO2 SLP121 T03061028 10317 20267 58015,KMWH,2023-06-05T23:52:00Z,47.2,-119.32,30.6,-2.8,0,0,,10.0,29.911417,1012.1,,,TRUE,,,,,,,CLR,,,,,,,,VFR,-1.5,31.7,26.7,,,,,,,,,METAR,355.0
KMLI 052352Z 01003KT 10SM CLR 30/04 A2999 RMK AO2 SLP153 T03000044 10311 20267 56013,KMLI,2023-06-05T23:52:00Z,41.45,-90.52,30.0,4.4,10,3,,10.0,29.991142,1015.3,,,TRUE,,,,,,,CLR,,,,,,,,VFR,-1.3,31.1,26.7,,,,,,,,,METAR,174.0
KMLF 052352Z AUTO 00000KT 10SM CLR 28/M01 A2990 RMK AO2 SLP066 T02781006 10294 20250 57016,KMLF,2023-06-05T23:52:00Z,38.42,-113.02,27.8,-0.6,0,0,,10.0,29.899607,1006.6,,TRUE,TRUE,,,,,,,CLR,,,,,,,,VFR,-1.6,29.4,25.0,,,,,,,,,METAR,1537.0
KMKE 052352Z 10005KT 10SM FEW095 SCT300 23/07 A3002 RMK AO2 SLP163 T02280072 10261 20228 56005,KMKE,2023-06-05T23:52:00Z,42.95,-87.9,22.8,7.2,100,5,,10.0,30.02067,1016.3,,,TRUE,,,,,,,FEW,9500,SCT,30000,,,,,VFR,-0.5,26.1,22.8,,,,,,,,,METAR,203.0
KMHK 052352Z 09009G15KT 10SM FEW060 FEW080 SCT110 23/14 A3001 RMK AO2 SLP156 T02280144 10317 20222 50003,KMHK,2023-06-05T23:52:00Z,39.13,-96.68,22.8,14.4,90,9,15,10.0,30.008858,1015.6,,,TRUE,,,,,,,FEW,6000,FEW,8000,SCT,11000,,,VFR,0.3,31.7,22.2,,,,,,,,,METAR,320.0
KMFD 052352Z 36005KT 8SM CLR 20/07 A3001 RMK AO2 SLP159 T02000067 10233 20200 55003,KMFD,2023-06-05T23:52:00Z,40.82,-82.52,20.0,6.7,360,5,,8.0,30.008858,1015.9,,,TRUE,,,,,,,CLR,,,,,,,,VFR,-0.3,23.3,20.0,,,,,,,,,METAR,394.0
KMEB 052352Z AUTO 28005KT 10SM CLR 23/14 A2992 RMK AO2 SLP129 T02330144 10267 20233 55004,KMEB,2023-06-05T23:52:00Z,34.78,-79.37,23.3,14.4,280,5,,10.0,29.920275,1012.9,,TRUE,TRUE,,,,,,,CLR,,,,,,,,VFR,-0.4,26.7,23.3,,,,,,,,,METAR,65.0
KMDH 052352Z 02004KT 7SM CLR 27/05 A2993 RMK AO2 SLP133 T02670050 10311 20267 56005,KMDH,2023-06-05T23:52:00Z,37.78,-89.25,26.7,5.0,20,4,,7.0,29.929134,1013.3,,,TRUE,,,,,,,CLR,,,,,,,,VFR,-0.5,31.1,26.7,,,,,,,,,METAR,122.0
KMBG 052352Z AUTO 15007KT 10SM CLR 30/14 A2998 RMK AO2 SLPNO T03000144 10317 20283 56012,KMBG,2023-06-05T23:52:00Z,45.55,-100.42,30.0,14.4,150,7,,10.0,29.97933,,,TRUE,TRUE,,,,,,,CLR,,,,,,,,VFR,-1.2,31.7,28.3,,,,,,,,,METAR,515.0
KLWC 052352Z AUTO 35005KT 9SM CLR 22/17 A3001 RMK AO1 LTG DSNT N AND NW RAE21 SLP157 P0000 60000 T02220167 10322 20222 50008,KLWC,2023-06-05T23:52:00Z,39.02,-95.22,22.2,16.7,350,5,,9.0,30.008858,1015.7,,TRUE,TRUE,,,,,,,CLR,,,,,,,,VFR,0.8,32.2,22.2,,,0.005,,0.005,,,,METAR,252.0
KIOW 052352Z AUTO 05004KT 10SM CLR 29/06 A3001 RMK AO2 SLP159 T02890061 10300 20261 56015,KIOW,2023-06-05T23:52:00Z,41.63,-91.55,28.9,6.1,50,4,,10.0,30.008858,1015.9,,TRUE,TRUE,,,,,,,CLR,,,,,,,,VFR,-1.5,30.0,26.1,,,,,,,,,METAR,199.0
KIJD 052352Z AUTO 00000KT 10SM OVC080 17/10 A2979 RMK AO2 SLP086 T01670100 10200 20167 55007,KIJD,2023-06-05T23:52:00Z,41.75,-72.18,16.7,10.0,0,0,,10.0,29.790354,1008.6,,TRUE,TRUE,,,,,,,OVC,8000,,,,,,,VFR,-0.7,20.0,16.7,,,,,,,,,METAR,73.0
KIEN 052352Z AUTO 08007KT 10SM FEW065 24/13 A3008 RMK AO2 SLP162 T02440133 10272 20228 56007,KIEN,2023-06-05T23:52:00Z,43.03,-102.52,24.4,13.3,80,7,,10.0,30.079725,1016.2,,TRUE,TRUE,,,,,,,FEW,6500,,,,,,,VFR,-0.7,27.2,22.8,,,,,,,,,METAR,1002.0
KIAD 052352Z 33008KT 10SM FEW070 23/07 A2988 RMK AO2 SLP116 T02330067 10267 20233 55001,KIAD,2023-06-05T23:52:00Z,38.93,-77.45,23.3,6.7,330,8,,10.0,29.878937,1011.6,,,TRUE,,,,,,,FEW,7000,,,,,,,VFR,-0.1,26.7,23.3,,,,,,,,,METAR,90.0
KHUT 052352Z 32004KT 10SM BKN110 21/17 A3000 RMK AO2 RAB19E46 SLP143 TCU DSNT N P0000 60002 T02110172 10317 20189 58006,KHUT,2023-06-05T23:52:00Z,38.07,-97.87,21.1,17.2,320,4,,10.0,30.0,1014.3,,,TRUE,,,,,,,BKN,11000,,,,,,,VFR,-0.6,31.7,18.9,,,0.005,,0.02,,,,METAR,464.0
KHRL 052352Z 13008KT 10SM CLR 27/23 A2984 RMK AO2 SLP103 60000 T02720228 10333 20244 58009,KHRL,2023-06-05T23:52:00Z,26.23,-97.65,27.2,22.8,130,8,,10.0,29.840551,1010.3,,,TRUE,,,,,,,CLR,,,,,,,,VFR,-0.9,33.3,24.4,,,,,0.005,,,,METAR,9.0
KHIE 052352Z AUTO 11003KT 10SM BKN065 14/10 A2980 RMK AO2 SLP094 60001 T01390100 10150 20133 58008,KHIE,2023-06-05T23:52:00Z,44.37,-71.55,13.9,10.0,110,3,,10.0,29.799213,1009.4,,TRUE,TRUE,,,,,,,BKN,6500,,,,,,,VFR,-0.8,15.0,13.3,,,,,0.01,,,,METAR,321.0
KGLS 052352Z AUTO 25005KT 10SM CLR 24/21 A2987 RMK AO2 RAB2258E14 SLP115 P0000 60061 T02440211 10306 20228 58004,KGLS,2023-06-05T23:52:00Z,29.27,-94.87,24.4,21.1,250,5,,10.0,29.870079,1011.5,,TRUE,TRUE,,,,,,,CLR,,,,,,,,VFR,-0.4,30.6,22.8,,,0.005,,0.61,,,,METAR,2.0
KFIT 052352Z AUTO 33007KT 10SM BKN065 BKN085 17/08 A2978 RMK AO2 SLP086 T01720078 10194 20172 50000,KFIT,2023-06-05T23:52:00Z,42.55,-71.75,17.2,7.8,330,7,,10.0,29.778543,1008.6,,TRUE,TRUE,,,,,,,BKN,6500,BKN,8500,,,,,VFR,0.0,19.4,17.2,,,,,,,,,METAR,102.0
KEST 052352Z AUTO 15005KT 10SM FEW080 31/12 A3001 RMK AO2 SLP152 T03110122 10328 20294 56008,KEST,2023-06-05T23:52:00Z,43.4,-94.75,31.1,12.2,150,5,,10.0,30.008858,1015.2,,TRUE,TRUE,,,,,,,FEW,8000,,,,,,,VFR,-0.8,32.8,29.4,,,,,,,,,METAR,401.0
KDVN 052352Z AUTO 07003KT 10SM CLR 29/06 A3002 RMK AO2 SLP159 T02890056 10306 20267 56012,KDVN,2023-06-05T23:52:00Z,41.62,-90.58,28.9,5.6,70,3,,10.0,30.02067,1015.9,,TRUE,TRUE,,,,,,,CLR,,,,,,,,VFR,-1.2,30.6,26.7,,,,,,,,,METAR,227.0
KDPA 052352Z 09007KT 10SM CLR 27/08 A3000 RMK AO2 SLP154 T02670078 10300 20267 56009,KDPA,2023-06-05T23:52:00Z,41.88,-88.25,26.7,7.8,90,7,,10.0,30.0,1015.4,,,TRUE,,,,,,,CLR,,,,,,,,VFR,-0.9,30.0,26.7,,,,,,,,,METAR,228.0
KDDC 052352Z AUTO 20007KT 8SM FEW065 BKN080 BKN095 23/14 A3005 RMK AO2 LTG DSNT W SLP157 T02330144 10283 20222 56001,KDDC,2023-06-05T23:52:00Z,37.77,-99.97,23.3,14.4,200,7,,8.0,30.050198,1015.7,,TRUE,TRUE,,,,,,,FEW,6500,BKN,8000,BKN,9500,,,VFR,-0.1,28.3,22.2,,,,,,,,,METAR,786.0
KDCA 052352Z 30008KT 10SM BKN080 BKN250 24/08 A2987 RMK AO2 SLP113 T02440078 10272 20244 55002 $,KDCA,2023-06-05T23:52:00Z,38.85,-77.03,24.4,7.8,300,8,,10.0,29.870079,1011.3,,,TRUE,TRUE,,,,,,BKN,8000,BKN,25000,,,,,VFR,-0.2,27.2,24.4,,,,,,,,,METAR,4.0
KCVG 052352Z 35005KT 8SM SCT300 25/09 A2995 RMK AO2 SLP134 T02500089 10272 20250 56005,KCVG,2023-06-05T23:52:00Z,39.05,-84.67,25.0,8.9,350,5,,8.0,29.949802,1013.4,,,TRUE,,,,,,,SCT,30000,,,,,,,VFR,-0.5,27.2,25.0,,,,,,,,,METAR,264.0
KCQX 052352Z AUTO 31004KT 10SM BKN030 OVC085 13/11 A2975 RMK AO2 SLP077 60000 T01330106 10150 20133 58000,KCQX,2023-06-05T23:52:00Z,41.68,-70.0,13.3,10.6,310,4,,10.0,29.749016,1007.7,,TRUE,TRUE,,,,,,,BKN,3000,OVC,8500,,,,,MVFR,0.0,15.0,13.3,,,,,0.005,,,,METAR,17.0
KCNU 052352Z AUTO 07009KT 10SM CLR 26/16 A2997 RMK AO2 SLP141 T02610161 10333 20261 50005,KCNU,2023-06-05T23:52:00Z,37.67,-95.48,26.1,16.1,70,9,,10.0,29.970472,1014.1,,TRUE,TRUE,,,,,,,CLR,,,,,,,,VFR,0.5,33.3,26.1,,,,,,,,,METAR,301.0
KCLT 052352Z 26003KT 10SM SCT042 SCT250 22/17 A2994 RMK AO2 SLP145 T02220167 10244 20222 55003,KCLT,2023-06-05T23:52:00Z,35.22,-80.95,22.2,16.7,260,3,,10.0,29.940945,1014.5,,,TRUE,,,,,,,SCT,4200,SCT,25000,,,,,VFR,-0.3,24.4,22.2,,,,,,,,,METAR,223.0
KCKV 052352Z AUTO 35006KT 8SM CLR 28/13 A2990 RMK AO2 SLP119 T02830133 10322 20283 55005,KCKV,2023-06-05T23:52:00Z,36.62,-87.42,28.3,13.3,350,6,,8.0,29.899607,1011.9,,TRUE,TRUE,,,,,,,CLR,,,,,,,,VFR,-0.5,32.2,28.3,,,,,,,,,METAR,166.0
KCID 052352Z 08004KT 10SM CLR 28/06 A3001 RMK AO2 SLP156 T02780061 10289 20250 56014,KCID,2023-06-05T23:52:00Z,41.88,-91.72,27.8,6.1,80,4,,10.0,30.008858,1015.6,,,TRUE,,,,,,,CLR,,,,,,,,VFR,-1.4,28.9,25.0,,,,,,,,,METAR,257.0
KCFV 052352Z AUTO 07011G19KT 10SM CLR 28/17 A2993 RMK AO2 SLP129 T02780167 10328 20278 53001,KCFV,2023-06-05T23:52:00Z,37.08,-95.57,27.8,16.7,70,11,19,10.0,29.929134,1012.9,,TRUE,TRUE,,,,,,,CLR,,,,,,,,VFR,0.1,32.8,27.8,,,,,,,,,METAR,228.0
KBML 052352Z AUTO 00000KT 10SM -RA FEW070 OVC100 12/12 A2980 RMK AO2 RAB21 SLP093 P0000 60006 T01220117 10144 20122 58009,KBML,2023-06-05T23:52:00Z,44.58,-71.18,12.2,11.7,0,0,,10.0,29.799213,1009.3,,TRUE,TRUE,,,,,,-RA,FEW,7000,OVC,10000,,,,,VFR,-0.9,14.4,12.2,,,0.005,,0.06,,,,METAR,344.0
KBLU 052352Z AUTO 04005KT 7SM VCTS -RA FEW031 OVC060 13/11 A3007 RMK AO2 LTG DSNT N AND NE RAB32 SLP110 P0002 60033 T01330106 10256 20133 53024,KBLU,2023-06-05T23:52:00Z,39.28,-120.7,13.3,10.6,40,5,,7.0,30.070866,1011.0,,TRUE,TRUE,,,,,,VCTS -RA,FEW,3100,OVC,6000,,,,,VFR,2.4,25.6,13.3,,,0.02,,0.33,,,,METAR,1605.0
KBLH 052352Z AUTO 17018G25KT 10SM CLR 37/M03 A2961 RMK AO2 PK WND 17032/2305 SLP021 T03721028 10383 20333 56016,KBLH,2023-06-05T23:52:00Z,33.62,-114.72,37.2,-2.8,170,18,25,10.0,29.610237,1002.1,,TRUE,TRUE,,,,,,,CLR,,,,,,,,VFR,-1.6,38.3,33.3,,,,,,,,,METAR,119.0
KBLF 052352Z AUTO 34005KT 10SM CLR 19/11 A3001 RMK AO2 SLP137 T01890111 10233 20189 53003,KBLF,2023-06-05T23:52:00Z,37.3,-81.2,18.9,11.1,340,5,,10.0,30.008858,1013.7,,TRUE,TRUE,,,,,,,CLR,,,,,,,,VFR,0.3,23.3,18.9,,,,,,,,,METAR,871.0
KBKB 052352Z AUTO 00000KT SCT095 BKN120 22/17 A2991 RMK AO2 SLP153 T02220172 10306 20222 53022 $,KBKB,2023-06-05T23:52:00Z,31.02,-92.92,22.2,17.2,0,0,,,29.911417,1015.3,,TRUE,TRUE,TRUE,,,,,,SCT,9500,BKN,12000,,,,,,2.2,30.6,22.2,,,,,,,,,METAR,74.0
KBIS 052352Z AUTO 15008KT 10SM CLR 30/13 A3000 RMK AO2 SLP151 T03000133 10317 20289 56009,KBIS,2023-06-05T23:52:00Z,46.77,-100.75,30.0,13.3,150,8,,10.0,30.0,1015.1,,TRUE,TRUE,,,,,,,CLR,,,,,,,,VFR,-0.9,31.7,28.9,,,,,,,,,METAR,506.0
KBDR 052352Z 16004KT 10SM BKN095 18/11 A2978 RMK AO2 SLP084 T01780106 10239 20178 55001,KBDR,2023-06-05T23:52:00Z,41.17,-73.13,17.8,10.6,160,4,,10.0,29.778543,1008.4,,,TRUE,,,,,,,BKN,9500,,,,,,,VFR,-0.1,23.9,17.8,,,,,,,,,METAR,5.0
KBAN 052352Z AUTO 33006KT 10SM CLR 18/M01 A2999 RMK AO2 SLP074 T01781006 10222 20128 56023 PWINO $,KBAN,2023-06-05T23:52:00Z,38.35,-119.52,17.8,-0.6,330,6,,10.0,29.991142,1007.4,,TRUE,TRUE,TRUE,,,,TRUE,,CLR,,,,,,,,VFR,-2.3,22.2,12.8,,,,,,,,,METAR,2067.0
KATL 052352Z 21005KT 10SM FEW040 BKN250 27/18 A2993 RMK AO2 SLP127 T02720183 10289 20239 55005 $,KATL,2023-06-05T23:52:00Z,33.63,-84.45,27.2,18.3,210,5,,10.0,29.929134,1012.7,,,TRUE,TRUE,,,,,,FEW,4000,BKN,25000,,,,,VFR,-0.5,28.9,23.9,,,,,,,,,METAR,309.0
KARR 052352Z 05007KT 7SM CLR 28/08 A2999 RMK AO2 SLP153 T02780083 10300 20267 56010,KARR,2023-06-05T23:52:00Z,41.77,-88.48,27.8,8.3,50,7,,7.0,29.991142,1015.3,,,TRUE,,,,,,,CLR,,,,,,,,VFR,-1.0,30.0,26.7,,,,,,,,,METAR,213.0
KAQW 052352Z AUTO 00000KT 8SM CLR 18/08 A2980 RMK AO2 SLP090 T01780078 10217 20178 53002,KAQW,2023-06-05T23:52:00Z,42.7,-73.17,17.8,7.8,0,0,,8.0,29.799213,1009.0,,TRUE,TRUE,,,,,,,CLR,,,,,,,,VFR,0.2,21.7,17.8,,,,,,,,,METAR,196.0
KALS 052352Z AUTO 11013G18KT 10SM SCT070 SCT110 20/06 A3020 RMK AO2 SLP155 60000 T02000061 10233 20172 55001,KALS,2023-06-05T23:52:00Z,37.43,-105.87,20.0,6.1,110,13,18,10.0,30.200787,1015.5,,TRUE,TRUE,,,,,,,SCT,7000,SCT,11000,,,,,VFR,-0.1,23.3,17.2,,,,,0.005,,,,METAR,2299.0
KAFN 052352Z AUTO 00000KT 10SM OVC065 15/09 A2980 RMK AO2 SLP098 60000 T01500089 10178 20150 56000,KAFN,2023-06-05T23:52:00Z,42.8,-72.0,15.0,8.9,0,0,,10.0,29.799213,1009.8,,TRUE,TRUE,,,,,,,OVC,6500,,,,,,,VFR,0.0,17.8,15.0,,,,,0.005,,,,METAR,308.0
KABQ 052352Z 28016G29KT 10SM -TSRA BKN085CB BKN150 BKN250 24/06 A3008 RMK AO2 PK WND 28029/2347 WSHFT 2315 LTG DSNT ALQDS RAB51 TSB44 SLP114 OCNL LTGICCG NE-SE TS NE-SE MOV SE VCSH SE P0000 60000 T02390056 10294 20233 5,KABQ,2023-06-05T23:52:00Z,35.05,-106.62,23.9,5.6,280,16,29,10.0,30.079725,1011.4,,,TRUE,,,,,,-TSRA,BKN,8500,BKN,15000,BKN,25000,,,VFR,,29.4,23.3,,,0.005,,0.005,,,,METAR,1620.0
KABI 052352Z 00000KT 10SM CLR 22/18 A2999 RMK AO2 SLP135 60017 T02220183 10250 20189 56013 $,KABI,2023-06-05T23:52:00Z,32.42,-99.68,22.2,18.3,0,0,,10.0,29.991142,1013.5,,,TRUE,TRUE,,,,,,CLR,,,,,,,,VFR,-1.3,25.0,18.9,,,,,0.17,,,,METAR,543.0
PHBK 052351Z AUTO 34009KT 10SM FEW055 29/18 A3008 RMK AO2 SLP189 T02940183 10294 20250 58008,PHBK,2023-06-05T23:51:00Z,22.03,-159.78,29.4,18.3,340,9,,10.0,30.079725,1018.9,,TRUE,TRUE,,,,,,,FEW,5500,,,,,,,VFR,-0.8,29.4,25.0,,,,,,,,,METAR,5.0
PAMD 052351Z AUTO 12013KT 10SM OVC007 10/08 A3009 RMK AO2 SLP178 6//// T01000078 10100 20083 58005 PNO $,PAMD,2023-06-05T23:51:00Z,59.43,-146.3,10.0,7.8,120,13,,10.0,30.088583,1017.8,,TRUE,TRUE,TRUE,,,,,,OVC,700,,,,,,,IFR,-0.5,10.0,8.3,,,,,,,,,METAR,20.0
MUGM 052351Z 20009KT 10SM FEW020 FEW250 29/26 A2990 RMK AO2 SLP125 T02890256 10311 20289 53004 $,MUGM,2023-06-05T23:51:00Z,19.9,-75.2,28.9,25.6,200,9,,10.0,29.899607,1012.5,,,TRUE,TRUE,,,,,,FEW,2000,FEW,25000,,,,,VFR,0.4,31.1,28.9,,,,,,,,,METAR,21.0
MMVR 052351Z 25003KT 7SM FEW015 SCT080 BKN220 29/23 A2980 RMK SLP073 57026 916 8/138 HZY,MMVR,2023-06-05T23:51:00Z,19.15,-96.18,29.0,23.0,250,3,,7.0,29.799213,1007.3,,,,,,,,,,FEW,1500,SCT,8000,BKN,22000,,,VFR,-2.6,,,,,,,,,,,METAR,26.0
MMSM 052351Z 35012KT 8SM SCT020TCU 28/06 A3013 RMK 8/200 HZY,MMSM,2023-06-05T23:51:00Z,19.75,-99.02,28.0,6.0,350,12,,8.0,30.129921,,,,,,,,,,,SCT,2000,,,,,,,VFR,,,,,,,,,,,,METAR,2250.0
KYNG 052351Z 32005KT 10SM SCT230 18/07 A2999 RMK AO2 SLP153 T01830067 10239 20183 56001,KYNG,2023-06-05T23:51:00Z,41.25,-80.67,18.3,6.7,320,5,,10.0,29.991142,1015.3,,,TRUE,,,,,,,SCT,23000,,,,,,,VFR,-0.1,23.9,18.3,,,,,,,,,METAR,356.0
KXWA 052351Z AUTO 14011KT 10SM CLR 31/15 A2999 RMK AO2 SLP144 60000 T03110150 10322 20272 56014,KXWA,2023-06-05T23:51:00Z,48.27,-103.75,31.1,15.0,140,11,,10.0,29.991142,1014.4,,TRUE,TRUE,,,,,,,CLR,,,,,,,,VFR,-1.4,32.2,27.2,,,,,0.005,,,,METAR,717.0
KVNY 052351Z 12006KT 10SM OVC029 18/10 A2988 RMK AO2 SLP112 T01780100 10183 20167 58009,KVNY,2023-06-05T23:51:00Z,34.22,-118.48,17.8,10.0,120,6,,10.0,29.878937,1011.2,,,TRUE,,,,,,,OVC,2900,,,,,,,MVFR,-0.9,18.3,16.7,,,,,,,,,METAR,241.0
KVCT 052351Z 07005KT 10SM FEW100 27/ A2987 RMK AO2 LTG DSNT N SLP113 60115 T0267 10311 20200 56005 $,KVCT,2023-06-05T23:51:00Z,28.87,-96.93,26.7,,70,5,,10.0,29.870079,1011.3,,,TRUE,TRUE,,,,,,FEW,10000,,,,,,,VFR,-0.5,31.1,20.0,,,,,1.15,,,,METAR,33.0
KUGN 052351Z 00000KT 10SM CLR 23/08 A3001 RMK AO2 SLP156 T02330083 10256 20233 58009,KUGN,2023-06-05T23:51:00Z,42.42,-87.87,23.3,8.3,0,0,,10.0,30.008858,1015.6,,,TRUE,,,,,,,CLR,,,,,,,,VFR,-0.9,25.6,23.3,,,,,,,,,METAR,217.0
KTPL 052351Z AUTO 08004KT SCT055 28/18 A2989 RMK AO2 SLP111 T02780183 10300 20267 55005 PWINO RVRNO $,KTPL,2023-06-05T23:51:00Z,31.15,-97.4,27.8,18.3,80,4,,,29.890747,1011.1,,TRUE,TRUE,TRUE,,,,TRUE,,SCT,5500,,,,,,,,-0.5,30.0,26.7,,,,,,,,,METAR,206.0
KTEB 052351Z 31010KT 10SM OVC100 22/07 A2978 RMK AO2 SLP083 T02220067 10250 20222 55002,KTEB,2023-06-05T23:51:00Z,40.87,-74.05,22.2,6.7,310,10,,10.0,29.778543,1008.3,,,TRUE,,,,,,,OVC,10000,,,,,,,VFR,-0.2,25.0,22.2,,,,,,,,,METAR,3.0
KSTL 052351Z 03009KT 10SM SCT200 BKN250 27/06 A2998 RMK AO2 SLP144 T02670056 10306 20267 55005,KSTL,2023-06-05T23:51:00Z,38.75,-90.37,26.7,5.6,30,9,,10.0,29.97933,1014.4,,,TRUE,,,,,,,SCT,20000,BKN,25000,,,,,VFR,-0.5,30.6,26.7,,,,,,,,,METAR,163.0
KSNT 052351Z AUTO 01007KT 17/07 A3011 RMK AO1 SLP122 60002 T01720067 10194 20144 58011,KSNT,2023-06-05T23:51:00Z,44.17,-114.93,17.2,6.7,10,7,,,30.109253,1012.2,,TRUE,TRUE,,,,,,,,,,,,,,,,-1.1,19.4,14.4,,,,,0.02,,,,METAR,1980.0
KSMX 052351Z 26009KT 7SM OVC018 14/13 A2988 RMK AO2 SLP121 T01440128 10150 20139 55001,KSMX,2023-06-05T23:51:00Z,34.9,-120.45,14.4,12.8,260,9,,7.0,29.878937,1012.1,,,TRUE,,,,,,,OVC,1800,,,,,,,MVFR,-0.1,15.0,13.9,,,,,,,,,METAR,73.0
KSMO 052351Z 22008KT 10SM BKN032 18/10 A2989 RMK AO2 SLP119 T01780100 10183 20144 58010,KSMO,2023-06-05T23:51:00Z,34.02,-118.45,17.8,10.0,220,8,,10.0,29.890747,1011.9,,,TRUE,,,,,,,BKN,3200,,,,,,,VFR,-1.0,18.3,14.4,,,,,,,,,METAR,56.0
KSLK 052351Z AUTO 31003KT 10SM BKN110 15/06 A2985 RMK AO2 SLP110 T01500061 10194 20150 58000,KSLK,2023-06-05T23:51:00Z,44.4,-74.2,15.0,6.1,310,3,,10.0,29.84941,1011.0,,TRUE,TRUE,,,,,,,BKN,11000,,,,,,,VFR,0.0,19.4,15.0,,,,,,,,,METAR,502.0
KSJT 052351Z 05008KT 10SM CLR 26/17 A2996 RMK AO2 RAB09E27 SLP128 P0000 60000 T02560167 10289 20239 56009,KSJT,2023-06-05T23:51:00Z,31.37,-100.5,25.6,16.7,50,8,,10.0,29.958662,1012.8,,,TRUE,,,,,,,CLR,,,,,,,,VFR,-0.9,28.9,23.9,,,0.005,,0.005,,,,METAR,582.0
KSAT 052351Z 07012G20KT 10SM -RA BKN060 BKN120 BKN250 28/18 A2988 RMK AO2 LTG DSNT E AND SE RAB40 SLP101 CB DSNT E-SE P0000 60003 T02830183 10322 20261 55002,KSAT,2023-06-05T23:51:00Z,29.53,-98.48,28.3,18.3,70,12,20,10.0,29.878937,1010.1,,,TRUE,,,,,,-RA,BKN,6000,BKN,12000,BKN,25000,,,VFR,-0.2,32.2,26.1,,,0.005,,0.03,,,,METAR,246.0
KSAN 052351Z VRB04KT 10SM FEW028 SCT035 18/11 A2991 RMK AO2 SLP127 T01830106 10189 20167 58014 $,KSAN,2023-06-05T23:51:00Z,32.73,-117.18,18.3,10.6,0,4,,10.0,29.911417,1012.7,,,TRUE,TRUE,,,,,,FEW,2800,SCT,3500,,,,,VFR,-1.4,18.9,16.7,,,,,,,,,METAR,3.0
KSAD 052351Z AUTO 21013G20KT 10SM CLR 37/M03 A2978 RMK AO2 SLP019 T03721033 10378 20328 56021,KSAD,2023-06-05T23:51:00Z,32.85,-109.63,37.2,-3.3,210,13,20,10.0,29.778543,1001.9,,TRUE,TRUE,,,,,,,CLR,,,,,,,,VFR,-2.1,37.8,32.8,,,,,,,,,METAR,937.0
KROW 052351Z 02010KT 10SM VCTS CLR 25/13 A3003 RMK AO2 RAE2257B19E29 SLP112 P0000 60000 T02500128 10294 20250 55008,KROW,2023-06-05T23:51:00Z,33.3,-104.5,25.0,12.8,20,10,,10.0,30.029528,1011.2,,,TRUE,,,,,,VCTS,CLR,,,,,,,,VFR,-0.8,29.4,25.0,,,0.005,,0.005,,,,METAR,1105.0
KRDU 052351Z 26004KT 10SM FEW060 BKN250 24/13 A2991 RMK T02390128,KRDU,2023-06-05T23:51:00Z,35.9,-78.78,23.9,12.8,260,4,,10.0,29.911417,,,,,,,,,,,FEW,6000,BKN,25000,,,,,VFR,,,,,,,,,,,,METAR,121.0
KPWM 052351Z 35006KT 10SM OVC060 14/10 A2975 RMK AO2 SLP075 T01440100 10167 20139 55002,KPWM,2023-06-05T23:51:00Z,43.65,-70.3,14.4,10.0,350,6,,10.0,29.749016,1007.5,,,TRUE,,,,,,,OVC,6000,,,,,,,VFR,-0.2,16.7,13.9,,,,,,,,,METAR,15.0
KPVD 052351Z 00000KT 10SM FEW060 OVC090 14/12 A2978 RMK AO2 SLP083 60000 T01440117 10178 20139 58002,KPVD,2023-06-05T23:51:00Z,41.72,-71.43,14.4,11.7,0,0,,10.0,29.778543,1008.3,,,TRUE,,,,,,,FEW,6000,OVC,9000,,,,,VFR,-0.2,17.8,13.9,,,,,0.005,,,,METAR,15.0
KPIT 052351Z 32007KT 10SM BKN250 21/04 A2996 RMK AO2 SLP148 T02110044 10233 20211 55002,KPIT,2023-06-05T23:51:00Z,40.47,-80.2,21.1,4.4,320,7,,10.0,29.958662,1014.8,,,TRUE,,,,,,,BKN,25000,,,,,,,VFR,-0.2,23.3,21.1,,,,,,,,,METAR,339.0
KPHX 052351Z 20013G24KT 10SM FEW140 FEW180 SCT250 41/M13 A2964 RMK AO2 PK WND 21026/2332 SLP014 T04061133 10417 20344 56022,KPHX,2023-06-05T23:51:00Z,33.43,-112.02,40.6,-13.3,200,13,24,10.0,29.639763,1001.4,,,TRUE,,,,,,,FEW,14000,FEW,18000,SCT,25000,,,VFR,-2.2,41.7,34.4,,,,,,,,,METAR,338.0
KP59 052351Z AUTO 00000KT 13/09 A3013 RMK AO1 SLP204 T01280089 10150 20128 56010 $,KP59,2023-06-05T23:51:00Z,47.47,-87.88,12.8,8.9,0,0,,,30.129921,1020.4,,TRUE,TRUE,TRUE,,,,,,,,,,,,,,,-1.0,15.0,12.8,,,,,,,,,METAR,185.0
KOXR 052351Z 20007KT 10SM SCT018 OVC035 17/12 A2989 RMK AO2 SLP120 T01670117 10178 20156 58008,KOXR,2023-06-05T23:51:00Z,34.2,-119.2,16.7,11.7,200,7,,10.0,29.890747,1012.0,,,TRUE,,,,,,,SCT,1800,OVC,3500,,,,,VFR,-0.8,17.8,15.6,,,,,,,,,METAR,12.0
KOXC 052351Z 36003KT 10SM BKN065 BKN090 18/11 A2980 RMK AO2 SLP101 T01780106 10211 20178 53001,KOXC,2023-06-05T23:51:00Z,41.47,-73.13,17.8,10.6,360,3,,10.0,29.799213,1010.1,,,TRUE,,,,,,,BKN,6500,BKN,9000,,,,,VFR,0.1,21.1,17.8,,,,,,,,,METAR,211.0
KORF 052351Z 08004KT 10SM CLR 21/13 A2989 RMK AO2 SLP119 T02060128 10228 20206 56000,KORF,2023-06-05T23:51:00Z,36.9,-76.2,20.6,12.8,80,4,,10.0,29.890747,1011.9,,,TRUE,,,,,,,CLR,,,,,,,,VFR,0.0,22.8,20.6,,,,,,,,,METAR,5.0
KORD 052351Z 09005KT 10SM FEW250 26/06 A3001 RMK AO2 SLP157 T02610061 10289 20261 56007,KORD,2023-06-05T23:51:00Z,41.95,-87.93,26.1,6.1,90,5,,10.0,30.008858,1015.7,,,TRUE,,,,,,,FEW,25000,,,,,,,VFR,-0.7,28.9,26.1,,,,,,,,,METAR,202.0
KOCF 052351Z AUTO 08008KT 10SM FEW048 27/18 A2992 RMK AO2 SLP130 T02720183 10306 20272 403060211 53008 $,KOCF,2023-06-05T23:51:00Z,29.17,-82.22,27.2,18.3,80,8,,10.0,29.920275,1013.0,,TRUE,TRUE,TRUE,,,,,,FEW,4800,,,,,,,VFR,0.8,30.6,27.2,30.6,21.1,,,,,,,METAR,24.0
KNYC 052351Z AUTO 00000KT 10SM FEW080 BKN100 22/07 A2981 RMK AO2 SLP086 T02170072 10244 20217 55004 $,KNYC,2023-06-05T23:51:00Z,40.78,-73.97,21.7,7.2,0,0,,10.0,29.811024,1008.6,,TRUE,TRUE,TRUE,,,,,,FEW,8000,BKN,10000,,,,,VFR,-0.4,24.4,21.7,,,,,,,,,METAR,33.0
KNBT 052351Z AUTO 20010KT 10SM CLR 24/15 A2990 RMK AO2 SLP129 T02440150 10283 20244 53001,KNBT,2023-06-05T23:51:00Z,35.02,-76.47,24.4,15.0,200,10,,10.0,29.899607,1012.9,,TRUE,TRUE,,,,,,,CLR,,,,,,,,VFR,0.1,28.3,24.4,,,,,,,,,METAR,5.0
KMYL 052351Z AUTO 10SM CLR 20/09 A3005 RMK AO2 SLP143 60004 T02000089 10200 20117 58012,KMYL,2023-06-05T23:51:00Z,44.9,-116.1,20.0,8.9,,,,10.0,30.050198,1014.3,,TRUE,TRUE,,,,,,,CLR,,,,,,,,VFR,-1.2,20.0,11.7,,,,,0.04,,,,METAR,1532.0
KMPV 052351Z AUTO 00000KT 10SM OVC060 16/10 A2984 RMK AO2 SLP105 T01610100 10183 20161 55003,KMPV,2023-06-05T23:51:00Z,44.2,-72.57,16.1,10.0,0,0,,10.0,29.840551,1010.5,,TRUE,TRUE,,,,,,,OVC,6000,,,,,,,VFR,-0.3,18.3,16.1,,,,,,,,,METAR,336.0
KLGU 052351Z AUTO 02004KT 10SM CLR 28/06 A2996 RMK AO2 SLP098 T02830061 10283 20217 58013,KLGU,2023-06-05T23:51:00Z,41.78,-111.85,28.3,6.1,20,4,,10.0,29.958662,1009.8,,TRUE,TRUE,,,,,,,CLR,,,,,,,,VFR,-1.3,28.3,21.7,,,,,,,,,METAR,1359.0
KLGA 052351Z 34004KT 10SM FEW065 BKN100 BKN250 23/08 A2978 RMK AO2 SLP084 T02280078 10250 20228 55004,KLGA,2023-06-05T23:51:00Z,40.78,-73.88,22.8,7.8,340,4,,10.0,29.778543,1008.4,,,TRUE,,,,,,,FEW,6500,BKN,10000,BKN,25000,,,VFR,-0.4,25.0,22.8,,,,,,,,,METAR,9.0
KJFK 052351Z 18006KT 10SM FEW075 BKN095 BKN250 BKN300 18/12 A2980 RMK AO2 SLP090 FU BKN300 T01830122 10250 20183 55001,KJFK,2023-06-05T23:51:00Z,40.63,-73.77,18.3,12.2,180,6,,10.0,29.799213,1009.0,,,TRUE,,,,,,,FEW,7500,BKN,9500,BKN,25000,BKN,30000,VFR,-0.1,25.0,18.3,,,,,,,,,METAR,3.0
KJCT 052351Z AUTO 36009KT 10SM FEW095 26/18 A2995 RMK AO2 PK WND 01028/2252 LTG DSNT S AND SW RAB2255E10 SLP109 P0000 60000 T02610178 10317 20233 56001,KJCT,2023-06-05T23:51:00Z,30.5,-99.77,26.1,17.8,360,9,,10.0,29.949802,1010.9,,TRUE,TRUE,,,,,,,FEW,9500,,,,,,,VFR,-0.1,31.7,23.3,,,0.005,,0.005,,,,METAR,522.0
KILG 052351Z 32005KT 10SM CLR 22/07 A2984 RMK AO2 SLP103 T02170072 10278 20217 55001 $,KILG,2023-06-05T23:51:00Z,39.67,-75.6,21.7,7.2,320,5,,10.0,29.840551,1010.3,,,TRUE,TRUE,,,,,,CLR,,,,,,,,VFR,-0.1,27.8,21.7,,,,,,,,,METAR,22.0
KIGM 052351Z AUTO 16018G36KT 10SM CLR 33/M04 A2979 RMK AO2 PK WND 16036/2351 SLP016 T03331044 10356 20328 56015,KIGM,2023-06-05T23:51:00Z,35.25,-113.93,33.3,-4.4,160,18,36,10.0,29.790354,1001.6,,TRUE,TRUE,,,,,,,CLR,,,,,,,,VFR,-1.5,35.6,32.8,,,,,,,,,METAR,1045.0
KHTS 052351Z 04006KT 9SM CLR 22/11 A2994 RMK AO2 SLP133 T02220111 10267 20222 56003,KHTS,2023-06-05T23:51:00Z,38.37,-82.55,22.2,11.1,40,6,,9.0,29.940945,1013.3,,,TRUE,,,,,,,CLR,,,,,,,,VFR,-0.3,26.7,22.2,,,,,,,,,METAR,252.0
KHSE 052351Z AUTO 13006KT 10SM SCT070 19/14 A2991 RMK AO2 SLP128 T01940144 10222 20194 53002,KHSE,2023-06-05T23:51:00Z,35.23,-75.62,19.4,14.4,130,6,,10.0,29.911417,1012.8,,TRUE,TRUE,,,,,,,SCT,7000,,,,,,,VFR,0.2,22.2,19.4,,,,,,,,,METAR,4.0
KHDO 052351Z AUTO 00000KT 10SM SCT055 BKN080 OVC110 28/21 A2988 RMK AO2 SLP103 T02830211 10317 20278 55006,KHDO,2023-06-05T23:51:00Z,29.37,-99.17,28.3,21.1,0,0,,10.0,29.878937,1010.3,,TRUE,TRUE,,,,,,,SCT,5500,BKN,8000,OVC,11000,,,VFR,-0.6,31.7,27.8,,,,,,,,,METAR,280.0
KGDP 052351Z AUTO 07015G26KT 7SM CLR 24/07 RMK AO2 PK WND 07026/2348 SLPNO 60000 T02440072 10261 20228,KGDP,2023-06-05T23:51:00Z,31.83,-104.82,24.4,7.2,70,15,26,7.0,,,,TRUE,TRUE,,,,,,,CLR,,,,,,,,VFR,,26.1,22.8,,,,,0.005,,,,METAR,1664.0
KEWR 052351Z 31011KT 8SM FEW080 SCT095 BKN250 24/05 A2979 RMK AO2 SLP086 T02440050 10267 20239 55002,KEWR,2023-06-05T23:51:00Z,40.68,-74.17,24.4,5.0,310,11,,8.0,29.790354,1008.6,,,TRUE,,,,,,,FEW,8000,SCT,9500,BKN,25000,,,VFR,-0.2,26.7,23.9,,,,,,,,,METAR,2.0
KERI 052351Z 26005KT 10SM CLR 19/03 A2996 RMK AO2 SLP145 T01890033 10211 20189 56009,KERI,2023-06-05T23:51:00Z,42.08,-80.18,18.9,3.3,260,5,,10.0,29.958662,1014.5,,,TRUE,,,,,,,CLR,,,,,,,,VFR,-0.9,21.1,18.9,,,,,,,,,METAR,222.0
KELP 052351Z 12006KT 10SM FEW100 BKN250 33/04 A2993 RMK AO2 SLP057 VIRGA DSNT E AND SE CB DSNT S TCU DSNT E T03330039 10333 20283 56018,KELP,2023-06-05T23:51:00Z,31.82,-106.35,33.3,3.9,120,6,,10.0,29.929134,1005.7,,,TRUE,,,,,,,FEW,10000,BKN,25000,,,,,VFR,-1.8,33.3,28.3,,,,,,,,,METAR,1205.0
KEKN 052351Z AUTO 00000KT 10SM CLR 17/09 A2999 RMK AO2 SLP156 T01670089 10244 20167 53005,KEKN,2023-06-05T23:51:00Z,38.88,-79.85,16.7,8.9,0,0,,10.0,29.991142,1015.6,,TRUE,TRUE,,,,,,,CLR,,,,,,,,VFR,0.5,24.4,16.7,,,,,,,,,METAR,596.0
KDAW 052351Z AUTO 32005KT 10SM FEW048 OVC070 16/12 A2976 RMK AO2 SLP075 60001 T01560117 10178 20150 56003,KDAW,2023-06-05T23:51:00Z,43.28,-70.92,15.6,11.7,320,5,,10.0,29.760826,1007.5,,TRUE,TRUE,,,,,,,FEW,4800,OVC,7000,,,,,VFR,-0.3,17.8,15.0,,,,,0.01,,,,METAR,100.0
KCSG 052351Z 16004KT 10SM CLR 28/17 A2992 RMK AO2 SLP126 T02780167 10294 20267 55002,KCSG,2023-06-05T23:51:00Z,32.52,-84.95,27.8,16.7,160,4,,10.0,29.920275,1012.6,,,TRUE,,,,,,,CLR,,,,,,,,VFR,-0.2,29.4,26.7,,,,,,,,,METAR,120.0
KCRP 052351Z 12007KT 10SM FEW024 FEW070 FEW140 SCT250 28/22 A2984 RMK AO2 SLP104 CB DSNT N-NE SE S-SW NW MOV S TCU DSNT N T02830217 10306 20261 56007,KCRP,2023-06-05T23:51:00Z,27.77,-97.5,28.3,21.7,120,7,,10.0,29.840551,1010.4,,,TRUE,,,,,,,FEW,2400,FEW,7000,FEW,14000,SCT,25000,VFR,-0.7,30.6,26.1,,,,,,,,,METAR,11.0
KCON 052351Z AUTO 33007KT 10SM OVC075 16/09 A2978 RMK AO2 SLP084 60000 T01610094 10189 20161 58001,KCON,2023-06-05T23:51:00Z,43.2,-71.5,16.1,9.4,330,7,,10.0,29.778543,1008.4,,TRUE,TRUE,,,,,,,OVC,7500,,,,,,,VFR,-0.1,18.9,16.1,,,,,0.005,,,,METAR,102.0
KCMH 052351Z 06004KT 5SM HZ FEW070 SCT250 22/08 A2997 RMK AO2 SLP146 T02170078 10256 20217 56003,KCMH,2023-06-05T23:51:00Z,40.0,-82.88,21.7,7.8,60,4,,5.0,29.970472,1014.6,,,TRUE,,,,,,HZ,FEW,7000,SCT,25000,,,,,MVFR,-0.3,25.6,21.7,,,,,,,,,METAR,257.0
KCLE 052351Z 32003KT 9SM SCT250 21/03 A2998 RMK AO2 SLP165 T02060028 10217 20200 56007,KCLE,2023-06-05T23:51:00Z,41.42,-81.85,20.6,2.8,320,3,,9.0,29.97933,1016.5,,,TRUE,,,,,,,SCT,25000,,,,,,,VFR,-0.7,21.7,20.0,,,,,,,,,METAR,237.0
KCDJ 052351Z AUTO 12005KT 29/16 A3001 RMK AO1 SLP150 T02890156 10328 20289 53001,KCDJ,2023-06-05T23:51:00Z,39.82,-93.57,28.9,15.6,120,5,,,30.008858,1015.0,,TRUE,TRUE,,,,,,,,,,,,,,,,0.1,32.8,28.9,,,,,,,,,METAR,234.0
KCAK 052351Z 35006KT 8SM OVC220 19/07 A2999 RMK AO2 SLP153 T01940067 10222 20194 55003 $,KCAK,2023-06-05T23:51:00Z,40.92,-81.45,19.4,6.7,350,6,,8.0,29.991142,1015.3,,,TRUE,TRUE,,,,,,OVC,22000,,,,,,,VFR,-0.3,22.2,19.4,,,,,,,,,METAR,369.0
KBKW 052351Z AUTO 01005KT 10SM CLR 18/12 A3000 RMK AO2 SLP137 T01830122 10239 20183 51003,KBKW,2023-06-05T23:51:00Z,37.8,-81.12,18.3,12.2,10,5,,10.0,30.0,1013.7,,TRUE,TRUE,,,,,,,CLR,,,,,,,,VFR,0.3,23.9,18.3,,,,,,,,,METAR,762.0
KBJC 052351Z 27005KT 15SM -RA BKN070 OVC120 14/12 A3018 RMK TSE2340 VIRGA N AND SW,KBJC,2023-06-05T23:51:00Z,39.9,-105.1,14.0,12.0,270,5,,15.0,30.180119,,,,,,,,,,-RA,BKN,7000,OVC,12000,,,,,VFR,,,,,,,,,,,,METAR,1694.0
KBHK 052351Z AUTO 13015G21KT 10SM CLR 29/11 A3000 RMK AO2 SLP136 T02890106 10300 20278 57015,KBHK,2023-06-05T23:51:00Z,46.35,-104.25,28.9,10.6,130,15,21,10.0,30.0,1013.6,,TRUE,TRUE,,,,,,,CLR,,,,,,,,VFR,-1.5,30.0,27.8,,,,,,,,,METAR,904.0
KBGD 052351Z AUTO 06014G22KT 10SM BKN065 25/13 A3009 RMK AO2 LTG DSNT S SLP154 T02500133 10272 20228 55006,KBGD,2023-06-05T23:51:00Z,35.7,-101.4,25.0,13.3,60,14,22,10.0,30.088583,1015.4,,TRUE,TRUE,,,,,,,BKN,6500,,,,,,,VFR,-0.6,27.2,22.8,,,,,,,,,METAR,928.0
KBED 052351Z 00000KT 10SM -RA BKN046 OVC060 16/13 A2976 RMK AO2 RAB44 SLP089 P0000 60000 T01560128 10172 20144 55003,KBED,2023-06-05T23:51:00Z,42.47,-71.3,15.6,12.8,0,0,,10.0,29.760826,1008.9,,,TRUE,,,,,,-RA,BKN,4600,OVC,6000,,,,,VFR,-0.3,17.2,14.4,,,0.005,,0.005,,,,METAR,39.0
KBDL 052351Z 10005KT 10SM BKN090 BKN200 19/09 A2978 RMK AO2 SLP084 T01890094 10217 20183 53001,KBDL,2023-06-05T23:51:00Z,41.93,-72.68,18.9,9.4,100,5,,10.0,29.778543,1008.4,,,TRUE,,,,,,,BKN,9000,BKN,20000,,,,,VFR,0.1,21.7,18.3,,,,,,,,,METAR,52.0
KBAZ 052351Z AUTO 05006KT 10SM FEW044 SCT070 BKN085 25/21 A2988 RMK AO2 LTG DSNT S AND SW RAE2256B20E38 TSE05 SLP112 P0002 60005 T02500206 10317 20239 53006,KBAZ,2023-06-05T23:51:00Z,29.72,-98.05,25.0,20.6,50,6,,10.0,29.878937,1011.2,,TRUE,TRUE,,,,,,,FEW,4400,SCT,7000,BKN,8500,,,VFR,0.6,31.7,23.9,,,0.02,,0.05,,,,METAR,199.0
KAVX 052351Z AUTO 24008KT 10SM OVC017 13/09 A2990 RMK AO2 SLP119 T01330094 10161 20128 58009,KAVX,2023-06-05T23:51:00Z,33.4,-118.42,13.3,9.4,240,8,,10.0,29.899607,1011.9,,TRUE,TRUE,,,,,,,OVC,1700,,,,,,,MVFR,-0.9,16.1,12.8,,,,,,,,,METAR,482.0
KATT 052351Z AUTO 08004KT 10SM CLR 27/19 A2989 RMK AO2 SLP109 60001 T02720189 10311 20228 56010,KATT,2023-06-05T23:51:00Z,30.32,-97.77,27.2,18.9,80,4,,10.0,29.890747,1010.9,,TRUE,TRUE,,,,,,,CLR,,,,,,,,VFR,-1.0,31.1,22.8,,,,,0.01,,,,METAR,203.0
KALB 052351Z 29004KT 10SM FEW085 BKN250 19/08 A2980 RMK AO2 SLP091 T01940083 10250 20194 51002,KALB,2023-06-05T23:51:00Z,42.75,-73.8,19.4,8.3,290,4,,10.0,29.799213,1009.1,,,TRUE,,,,,,,FEW,8500,BKN,25000,,,,,VFR,0.2,25.0,19.4,,,,,,,,,METAR,82.0
KAHN 052351Z AUTO VRB03KT 10SM CLR 26/18 A2991 RMK AO2 SLP123 T02560183 10283 20250 58005,KAHN,2023-06-05T23:51:00Z,33.95,-83.33,25.6,18.3,0,3,,10.0,29.911417,1012.3,,TRUE,TRUE,,,,,,,CLR,,,,,,,,VFR,-0.5,28.3,25.0,,,,,,,,,METAR,241.0
KACT 052351Z 36006KT 10SM FEW065 28/17 A2988 RMK AO2 SLP110 T02780172 10300 20267 55005,KACT,2023-06-05T23:51:00Z,31.62,-97.23,27.8,17.2,360,6,,10.0,29.878937,1011.0,,,TRUE,,,,,,,FEW,6500,,,,,,,VFR,-0.5,30.0,26.7,,,,,,,,,METAR,150.0
KABE 052351Z 32010KT 10SM CLR 21/03 A2984 RMK AO2 SLP104 T02110033 10256 20211 53002,KABE,2023-06-05T23:51:00Z,40.65,-75.45,21.1,3.3,320,10,,10.0,29.840551,1010.4,,,TRUE,,,,,,,CLR,,,,,,,,VFR,0.2,25.6,21.1,,,,,,,,,METAR,117.0
K6R6 052351Z AUTO 06009KT 29/13 A2999 RMK AO1 SLP121 T02940133 10311 20272 56018 $,K6R6,2023-06-05T23:51:00Z,30.05,-102.22,29.4,13.3,60,9,,,29.991142,1012.1,,TRUE,TRUE,TRUE,,,,,,,,,,,,,,,-1.8,31.1,27.2,,,,,,,,,METAR,702.0
TNCC 052350Z 08009KT CAVOK 28/26 Q1011 NOSIG,TNCC,2023-06-05T23:50:00Z,12.2,-68.97,28.0,26.0,80,9,,6.21,29.852362,,,,,,TRUE,,,,,CAVOK,,,,,,,,VFR,,,,,,,,,,,,METAR,10.0
TJBQ 052350Z 00000KT 10SM CLR 29/22 A2996,TJBQ,2023-06-05T23:50:00Z,18.5,-67.13,29.0,22.0,0,0,,10.0,29.958662,,,,,,,,,,,CLR,,,,,,,,VFR,,,,,,,,,,,,METAR,69.0
PTTP 052350Z 05005KT 15SM SCT018 BKN300 32/26 A2989 RMK SLP120 8/101 T03190256 10319 20248 50003,PTTP,2023-06-05T23:50:00Z,6.97,158.22,31.9,25.6,50,5,,15.0,29.890747,1012.0,,,,,,,,,,SCT,1800,BKN,30000,,,,,VFR,0.3,31.9,24.8,,,,,,,,,METAR,36.0
PTRO 052350Z 21007KT 10SM BKN015 BKN120 OVC300 28/25 A2980 RMK HZ ALQDS,PTRO,2023-06-05T23:50:00Z,7.37,134.55,28.0,25.0,210,7,,10.0,29.799213,,,,,,,,,,,BKN,1500,BKN,12000,OVC,30000,,,MVFR,,,,,,,,,,,,METAR,30.0
PTPN 052350Z 10006KT 15SM SCT018 BKN130 OVC300 31/26 A2986 ,PTPN,2023-06-05T23:50:00Z,6.98,158.22,31.0,26.0,100,6,,15.0,29.861221,,,,,,,,,,,SCT,1800,BKN,13000,OVC,30000,,,VFR,,,,,,,,,,,,METAR,3.0
PTKK 052350Z VRB04KT 15SM SCT014TCU BKN120 OVC280 30/26 A2984 RMK TCU SW-W SLP106 8/271 T03000260 10300 20267 50005,PTKK,2023-06-05T23:50:00Z,7.47,151.85,30.0,26.0,0,4,,15.0,29.840551,1010.6,,,,,,,,,,SCT,1400,BKN,12000,OVC,28000,,,VFR,0.5,30.0,26.7,,,,,,,,,METAR,3.0
PGWT 052350Z 08012KT 7SM SCT016 BKN100 29/23,PGWT,2023-06-05T23:50:00Z,14.98,145.62,29.0,23.0,80,12,,7.0,,,,,,,,,,,,SCT,1600,BKN,10000,,,,,VFR,,,,,,,,,,,,METAR,84.0
PGRO 052350Z 09014KT 7SM SCT014 BKN080 BKN100 28/24 A2987,PGRO,2023-06-05T23:50:00Z,14.18,145.25,28.0,24.0,90,14,,7.0,29.870079,,,,,,,,,,,SCT,1400,BKN,8000,BKN,10000,,,VFR,,,,,,,,,,,,METAR,181.0
PALP 052350Z 30004KT 10SM SCT080 SCT110 12/01 A3014,PALP,2023-06-05T23:50:00Z,70.33,-150.93,12.0,1.0,300,4,,10.0,30.138779,,,,,,,,,,,SCT,8000,SCT,11000,,,,,VFR,,,,,,,,,,,,METAR,4.0
OOSA 052350Z 25004KT 9999 FEW025 29/25 Q1007 NOSIG,OOSA,2023-06-05T23:50:00Z,17.03,54.1,29.0,25.0,250,4,,6.21,29.734253,,,,,,TRUE,,,,,FEW,2500,,,,,,,VFR,,,,,,,,,,,,METAR,20.0
OOMS 052350Z 24012KT CAVOK 38/15 Q1003 NOSIG,OOMS,2023-06-05T23:50:00Z,23.58,58.28,38.0,15.0,240,12,,6.21,29.616142,,,,,,TRUE,,,,,CAVOK,,,,,,,,VFR,,,,,,,,,,,,METAR,8.0
OOKB 052350Z AUTO 17003KT 140V200 CAVOK 35/09 Q1003 NOSIG,OOKB,2023-06-05T23:50:00Z,26.17,56.23,35.0,9.0,170,3,,6.21,29.616142,,,TRUE,,,TRUE,,,,,CAVOK,,,,,,,,VFR,,,,,,,,,,,,METAR,30.0
OODQ 052350Z AUTO 21014KT CAVOK ////// 27/27 Q1007 NOSIG,OODQ,2023-06-05T23:50:00Z,19.52,57.65,27.0,27.0,210,14,,6.21,29.734253,,,TRUE,,,TRUE,,,,,CAVOK,,,,,,,,VFR,,,,,,,,,,,,METAR,116.0
OOAD 052350Z AUTO 26009KT 9999 // NCD 30/17 Q1009 NOSIG,OOAD,2023-06-05T23:50:00Z,22.5,57.37,30.0,17.0,260,9,,6.21,29.793306,,,TRUE,,,TRUE,,,,,CLR,,,,,,,,VFR,,,,,,,,,,,,METAR,327.0
NZSP 052350Z 28011KT 6000 IC BR OVC010 M43/ A2844 RMK CLN AIR 27015KT ALL WNDS GRID,NZSP,2023-06-05T23:50:00Z,-89.98,179.98,-43.0,,280,11,,3.73,28.440945,,,,,,,,,,IC BR,OVC,1000,,,,,,,MVFR,,,,,,,,,,,,METAR,2830.0
NSTU 052350Z 08008KT 12SM SCT021 31/26 A2991 RMK SLP129 8/100 T03090256 10309 20271 57010,NSTU,2023-06-05T23:50:00Z,-14.33,-170.72,30.9,25.6,80,8,,12.0,29.911417,1012.9,,,,,,,,,,SCT,2100,,,,,,,VFR,-1.0,30.9,27.1,,,,,,,,,METAR,8.0
MUVR 052350Z 36006KT 9999 FEW020 27/22 Q1011,MUVR,2023-06-05T23:50:00Z,23.03,-81.43,27.0,22.0,360,6,,6.21,29.852362,,,,,,,,,,,FEW,2000,,,,,,,VFR,,,,,,,,,,,,METAR,65.0
MUSC 052350Z 02004KT 330V060 9000 BKN018TCU 28/22 Q1012,MUSC,2023-06-05T23:50:00Z,22.5,-79.92,28.0,22.0,20,4,,5.59,29.88189,,,,,,,,,,,BKN,1800,,,,,,,MVFR,,,,,,,,,,,,METAR,97.0
MUHG 052350Z VRB03KT 9000 SCT045TCU 29/25 Q1012,MUHG,2023-06-05T23:50:00Z,20.78,-76.32,29.0,25.0,0,3,,5.59,29.88189,,,,,,,,,,,SCT,4500,,,,,,,VFR,,,,,,,,,,,,METAR,100.0
MUHA 052350Z 36006KT 9000 FEW030 27/21 Q1011,MUHA,2023-06-05T23:50:00Z,22.98,-82.42,27.0,21.0,360,6,,5.59,29.852362,,,,,,,,,,,FEW,3000,,,,,,,VFR,,,,,,,,,,,,METAR,61.0
MUCU 052350Z 20005KT 160V230 9000 SCT020 29/26 Q1012,MUCU,2023-06-05T23:50:00Z,19.97,-75.83,29.0,26.0,200,5,,5.59,29.88189,,,,,,,,,,,SCT,2000,,,,,,,VFR,,,,,,,,,,,,METAR,70.0
MUCM 052350Z 24004KT 9000 FEW025 29/22 Q1012,MUCM,2023-06-05T23:50:00Z,21.42,-77.85,29.0,22.0,240,4,,5.59,29.88189,,,,,,,,,,,FEW,2500,,,,,,,VFR,,,,,,,,,,,,METAR,125.0
MUCC 052350Z 02006KT 9000 BKN025 28/23 Q1011,MUCC,2023-06-05T23:50:00Z,22.47,-78.33,28.0,23.0,20,6,,5.59,29.852362,,,,,,,,,,,BKN,2500,,,,,,,MVFR,,,,,,,,,,,,METAR,7.0
MSLP 052350Z VRB05KT CAVOK 29/23 Q1008 A2977 NOSIG,MSLP,2023-06-05T23:50:00Z,13.43,-89.05,29.0,23.0,0,5,,6.21,29.763779,,,,,,TRUE,,,,,CAVOK,,,,,,,,VFR,,,,,,,,,,,,METAR,25.0
MMGL 052350Z 22010KT 10SM SKC 34/M14 A2997 RMK SLP018 57014 956,MMGL,2023-06-05T23:50:00Z,20.52,-103.32,34.0,-14.0,220,10,,10.0,29.970472,1001.8,,,,,,,,,,SKC,,,,,,,,VFR,-1.4,,,,,,,,,,,METAR,1531.0
MMAA 052350Z 21006KT 6SM FEW015 31/23 A2979 RMK SLP078 57002 920 8/100 HZY,MMAA,2023-06-05T23:50:00Z,16.75,-99.75,31.0,23.0,210,6,,6.0,29.790354,1007.8,,,,,,,,,,FEW,1500,,,,,,,VFR,-0.2,,,,,,,,,,,METAR,5.0
LTFO 052350Z 00000KT 9999 SCT012 BKN028 20/18 Q1016,LTFO,2023-06-05T23:50:00Z,41.18,40.85,20.0,18.0,0,0,,6.21,30.0,,,,,,,,,,,SCT,1200,BKN,2800,,,,,MVFR,,,,,,,,,,,,METAR,5.0
LTFM 052350Z 06009KT 030V100 9999 FEW011 BKN020 18/15 Q1020 NOSIG RMK RWY17L 05008KT RWY34L 04008KT RWY16R 05009KT RWY36 06008KT RWY18 06007KT,LTFM,2023-06-05T23:50:00Z,41.27,28.75,18.0,15.0,60,9,,6.21,30.11811,,,,,,TRUE,,,,,FEW,1100,BKN,2000,,,,,MVFR,,,,,,,,,,,,METAR,99.0
LTFJ 052350Z 07007KT 9999 FEW018 16/16 Q1019 NOSIG RMK RWY24 04007KT,LTFJ,2023-06-05T23:50:00Z,40.9,29.3,16.0,16.0,70,7,,6.21,30.088583,,,,,,TRUE,,,,,FEW,1800,,,,,,,VFR,,,,,,,,,,,,METAR,83.0
LTFH 052350Z 30016KT 9999 FEW020 SCT036 BKN100 18/16 Q1017 NOSIG,LTFH,2023-06-05T23:50:00Z,41.27,36.57,18.0,16.0,300,16,,6.21,30.029528,,,,,,TRUE,,,,,FEW,2000,SCT,3600,BKN,10000,,,VFR,,,,,,,,,,,,METAR,7.0
LTFG 052350Z 12005KT CAVOK 18/16 Q1011,LTFG,2023-06-05T23:50:00Z,36.3,32.3,18.0,16.0,120,5,,6.21,29.852362,,,,,,,,,,,CAVOK,,,,,,,,VFR,,,,,,,,,,,,METAR,26.0
LTFE 052350Z 08004KT CAVOK 17/16 Q1012 NOSIG RMK RWY10 09003KT 050V110,LTFE,2023-06-05T23:50:00Z,37.25,27.67,17.0,16.0,80,4,,6.21,29.88189,,,,,,TRUE,,,,,CAVOK,,,,,,,,VFR,,,,,,,,,,,,METAR,6.0
LTFD 052350Z 07017KT CAVOK 18/12 Q1016,LTFD,2023-06-05T23:50:00Z,39.55,27.02,18.0,12.0,70,17,,6.21,30.0,,,,,,,,,,,CAVOK,,,,,,,,VFR,,,,,,,,,,,,METAR,15.0
LTFC 052350Z 03004KT 360V060 9999 FEW035 12/11 Q1017 RMK RWY23 04004KT 020V080,LTFC,2023-06-05T23:50:00Z,37.87,30.38,12.0,11.0,30,4,,6.21,30.029528,,,,,,,,,,,FEW,3500,,,,,,,VFR,,,,,,,,,,,,METAR,862.0
LTDA 052350Z 24010KT 9999 FEW040 20/16 Q1010 NOSIG,LTDA,2023-06-05T23:50:00Z,36.37,36.28,20.0,16.0,240,10,,6.21,29.822834,,,,,,TRUE,,,,,FEW,4000,,,,,,,VFR,,,,,,,,,,,,METAR,80.0
LTCW 052350Z VRB02KT 9999 FEW040 SCT180 06/04 Q1020,LTCW,2023-06-05T23:50:00Z,37.55,44.23,6.0,4.0,0,2,,6.21,30.11811,,,,,,,,,,,FEW,4000,SCT,18000,,,,,VFR,,,,,,,,,,,,METAR,1852.0
LTCV 052350Z 24008KT CAVOK 18/07 Q1011,LTCV,2023-06-05T23:50:00Z,37.37,42.07,18.0,7.0,240,8,,6.21,29.852362,,,,,,,,,,,CAVOK,,,,,,,,VFR,,,,,,,,,,,,METAR,620.0
LTCT 052350Z 29010KT 9999 FEW040 20/08 Q1014,LTCT,2023-06-05T23:50:00Z,39.98,43.87,20.0,8.0,290,10,,6.21,29.940945,,,,,,,,,,,FEW,4000,,,,,,,VFR,,,,,,,,,,,,METAR,936.0
LTCS 052350Z 01004KT 340V040 CAVOK 20/11 Q1012 RMK RWY22 28004KT SKC,LTCS,2023-06-05T23:50:00Z,37.45,38.9,20.0,11.0,10,4,,6.21,29.88189,,,,,,,,,,,CAVOK,,,,,,,,VFR,,,,,,,,,,,,METAR,825.0
LTCR 052350Z 35002KT CAVOK 18/07 Q1010,LTCR,2023-06-05T23:50:00Z,37.22,40.63,18.0,7.0,350,2,,6.21,29.822834,,,,,,,,,,,CAVOK,,,,,,,,VFR,,,,,,,,,,,,METAR,529.0
LTCN 052350Z 10004KT CAVOK 17/15 Q1011,LTCN,2023-06-05T23:50:00Z,37.53,36.95,17.0,15.0,100,4,,6.21,29.852362,,,,,,,,,,,CAVOK,,,,,,,,VFR,,,,,,,,,,,,METAR,505.0
LTCJ 052350Z 01004KT CAVOK 14/11 Q1011 NOSIG RMK RWY20 01004KT SKC,LTCJ,2023-06-05T23:50:00Z,37.93,41.12,14.0,11.0,10,4,,6.21,29.852362,,,,,,TRUE,,,,,CAVOK,,,,,,,,VFR,,,,,,,,,,,,METAR,559.0
LTCI 052350Z 06003KT 9999 FEW040 SCT180 11/04 Q1021 NOSIG,LTCI,2023-06-05T23:50:00Z,38.47,43.33,11.0,4.0,60,3,,6.21,30.147638,,,,,,TRUE,,,,,FEW,4000,SCT,18000,,,,,VFR,,,,,,,,,,,,METAR,1654.0
LTCG 052350Z 12004KT 9999 SCT012 BKN033 19/18 Q1016 NOSIG RMK RWY29 16004KT,LTCG,2023-06-05T23:50:00Z,41.0,39.77,19.0,18.0,120,4,,6.21,30.0,,,,,,TRUE,,,,,SCT,1200,BKN,3300,,,,,VFR,,,,,,,,,,,,METAR,28.0
LTCF 052350Z 07008KT 9999 FEW040 07/05 Q1020 NOSIG,LTCF,2023-06-05T23:50:00Z,40.57,43.12,7.0,5.0,70,8,,6.21,30.11811,,,,,,TRUE,,,,,FEW,4000,,,,,,,VFR,,,,,,,,,,,,METAR,1794.0
LTCE 052350Z 17003KT CAVOK 07/06 Q1019 NOSIG RMK RWY08R 14004KT RWY26R 18003KT RWY08L VRB02KT SKC,LTCE,2023-06-05T23:50:00Z,39.95,41.17,7.0,6.0,170,3,,6.21,30.088583,,,,,,TRUE,,,,,CAVOK,,,,,,,,VFR,,,,,,,,,,,,METAR,1758.0
LTCD 052350Z VRB02KT 9999 FEW080 09/08 Q1018 NOSIG,LTCD,2023-06-05T23:50:00Z,39.72,39.52,9.0,8.0,0,2,,6.21,30.059055,,,,,,TRUE,,,,,FEW,8000,,,,,,,VFR,,,,,,,,,,,,METAR,1146.0
LTCC 052350Z 24003KT CAVOK 15/06 Q1011 NOSIG RMK RWY16 /////KT SKC,LTCC,2023-06-05T23:50:00Z,37.88,40.2,15.0,6.0,240,3,,6.21,29.852362,,,,,,TRUE,,,,,CAVOK,,,,,,,,VFR,,,,,,,,,,,,METAR,676.0
LTCB 052350Z VRB02KT 9999 SCT012 FEW020CB BKN025 19/18 Q1016 NOSIG,LTCB,2023-06-05T23:50:00Z,40.97,38.07,19.0,18.0,0,2,,6.21,30.0,,,,,,TRUE,,,,,SCT,1200,FEW,2000,BKN,2500,,,MVFR,,,,,,,,,,,,METAR,5.0
LTCA 052350Z 24007KT CAVOK 14/10 Q1014 NOSIG,LTCA,2023-06-05T23:50:00Z,38.6,39.28,14.0,10.0,240,7,,6.21,29.940945,,,,,,TRUE,,,,,CAVOK,,,,,,,,VFR,,,,,,,,,,,,METAR,887.0
LTBY 052350Z 26004KT 9999 SCT040 11/11 Q1019,LTBY,2023-06-05T23:50:00Z,39.82,30.52,11.0,11.0,260,4,,6.21,30.088583,,,,,,,,,,,SCT,4000,,,,,,,VFR,,,,,,,,,,,,METAR,788.0
LTBU 052350Z 04011KT CAVOK 14/12 Q1019 RMK RWY22 03010KT,LTBU,2023-06-05T23:50:00Z,41.13,27.92,14.0,12.0,40,11,,6.21,30.088583,,,,,,,,,,,CAVOK,,,,,,,,VFR,,,,,,,,,,,,METAR,165.0
LTBS 052350Z 02004KT 360V080 CAVOK 18/17 Q1012 NOSIG RMK RWY19 34003KT 310V010 SKC,LTBS,2023-06-05T23:50:00Z,36.7,28.78,18.0,17.0,20,4,,6.21,29.88189,,,,,,TRUE,,,,,CAVOK,,,,,,,,VFR,,,,,,,,,,,,METAR,2.0
LTBR 052350Z 35002KT 8000 NSC 12/12 Q1018 NOSIG RMK RWY07 35003KT,LTBR,2023-06-05T23:50:00Z,40.25,29.57,12.0,12.0,350,2,,4.97,30.059055,,,,,,TRUE,,,,,CLR,,,,,,,,MVFR,,,,,,,,,,,,METAR,233.0
LTBQ 052350Z 00000KT 9999 SCT010 BKN025 16/15 Q1019 NOSIG,LTBQ,2023-06-05T23:50:00Z,40.73,30.07,16.0,15.0,0,0,,6.21,30.088583,,,,,,TRUE,,,,,SCT,1000,BKN,2500,,,,,MVFR,,,,,,,,,,,,METAR,51.0
LTBJ 052350Z 36008KT CAVOK 20/14 Q1013 NOSIG RMK RWY16 34009KT,LTBJ,2023-06-05T23:50:00Z,38.28,27.15,20.0,14.0,360,8,,6.21,29.911417,,,,,,TRUE,,,,,CAVOK,,,,,,,,VFR,,,,,,,,,,,,METAR,123.0
LTBH 052350Z 09011KT CAVOK 15/10 Q1017,LTBH,2023-06-05T23:50:00Z,40.13,26.42,15.0,10.0,90,11,,6.21,30.029528,,,,,,,,,,,CAVOK,,,,,,,,VFR,,,,,,,,,,,,METAR,8.0
LTBF 052350Z 36005KT CAVOK 15/12 Q1018 NOSIG,LTBF,2023-06-05T23:50:00Z,39.62,27.92,15.0,12.0,360,5,,6.21,30.059055,,,,,,TRUE,,,,,CAVOK,,,,,,,,VFR,,,,,,,,,,,,METAR,95.0
LTBD 052350Z VRB02KT CAVOK 17/14 Q1013,LTBD,2023-06-05T23:50:00Z,37.82,27.88,17.0,14.0,0,2,,6.21,29.911417,,,,,,,,,,,CAVOK,,,,,,,,VFR,,,,,,,,,,,,METAR,29.0
LTBA 052350Z 05009KT CAVOK 17/15 Q1019 RMK RWY23 07007KT 030V090,LTBA,2023-06-05T23:50:00Z,40.97,28.82,17.0,15.0,50,9,,6.21,30.088583,,,,,,,,,,,CAVOK,,,,,,,,VFR,,,,,,,,,,,,METAR,33.0
LTAZ 052350Z 24004KT 190V290 9999 SCT035 15/12 Q1017 RMK RWY29 15004KT 080V220,LTAZ,2023-06-05T23:50:00Z,38.77,34.52,15.0,12.0,240,4,,6.21,30.029528,,,,,,,,,,,SCT,3500,,,,,,,VFR,,,,,,,,,,,,METAR,944.0
LTAY 052350Z 14009KT 110V260 CAVOK 13/13 Q1017 NOSIG,LTAY,2023-06-05T23:50:00Z,37.78,29.7,13.0,13.0,140,9,,6.21,30.029528,,,,,,TRUE,,,,,CAVOK,,,,,,,,VFR,,,,,,,,,,,,METAR,851.0
LTAU 052350Z 00000KT 9999 SCT040 BKN100 11/10 Q1017 NOSIG RMK RWY07 VRB01KT,LTAU,2023-06-05T23:50:00Z,38.77,35.48,11.0,10.0,0,0,,6.21,30.029528,,,,,,TRUE,,,,,SCT,4000,BKN,10000,,,,,VFR,,,,,,,,,,,,METAR,1053.0
LTAT 052350Z 20003KT CAVOK 11/10 Q1014 NOSIG RMK RWY03 22003KT,LTAT,2023-06-05T23:50:00Z,38.43,38.08,11.0,10.0,200,3,,6.21,29.940945,,,,,,TRUE,,,,,CAVOK,,,,,,,,VFR,,,,,,,,,,,,METAR,850.0
LTAR 052350Z VRB02KT 9999 SCT030 BKN080 11/09 Q1020,LTAR,2023-06-05T23:50:00Z,39.8,36.9,11.0,9.0,0,2,,6.21,30.11811,,,,,,,,,,,SCT,3000,BKN,8000,,,,,VFR,,,,,,,,,,,,METAR,1601.0
LTAP 052350Z 00000KT 9999 BKN030 BKN080 15/15 Q1017 NOSIG RMK RWY23 VRB02KT,LTAP,2023-06-05T23:50:00Z,40.83,35.52,15.0,15.0,0,0,,6.21,30.029528,,,,,,TRUE,,,,,BKN,3000,BKN,8000,,,,,MVFR,,,,,,,,,,,,METAR,536.0
LTAN 052350Z 01009KT 9999 SCT015 BKN030 14/12 Q1018 NOSIG,LTAN,2023-06-05T23:50:00Z,37.97,32.55,14.0,12.0,10,9,,6.21,30.059055,,,,,,TRUE,,,,,SCT,1500,BKN,3000,,,,,MVFR,,,,,,,,,,,,METAR,1029.0
LTAJ 052350Z VRB01KT CAVOK 15/11 Q1011 NOSIG RMK RWY10 20002KT 3CI180,LTAJ,2023-06-05T23:50:00Z,36.95,37.48,15.0,11.0,0,1,,6.21,29.852362,,,,,,TRUE,,,,,CAVOK,,,,,,,,VFR,,,0.2,,,,,,,,,METAR,684.0
LTAI 052350Z VRB01KT CAVOK 20/17 Q1011 NOSIG RMK RWY18C 31003KT 270V340 RWY36R 31005KT RWY18L 31006KT,LTAI,2023-06-05T23:50:00Z,36.9,30.8,20.0,17.0,0,1,,6.21,29.852362,,,,,,TRUE,,,,,CAVOK,,,,,,,,VFR,,,,,,,,,,,,METAR,50.0
LTAG 052350Z 04004KT 9999 SCT030 SCT180 19/17 Q1010 NOSIG RMK 3CU030 4CI180,LTAG,2023-06-05T23:50:00Z,37.0,35.42,19.0,17.0,40,4,,6.21,29.822834,,,,,,TRUE,,,,,SCT,3000,SCT,18000,,,,,VFR,,,,,,,,,,,,METAR,62.0
LTAF 052350Z 00000KT CAVOK 19/18 Q1011 NOSIG RMK RWY23 00000KT 3CI200,LTAF,2023-06-05T23:50:00Z,36.98,35.28,19.0,18.0,0,0,,6.21,29.852362,,,,,,TRUE,,,,,CAVOK,,,,,,,,VFR,,,,,,,,,,,,METAR,19.0
LTAE 052350Z VRB02KT 9999 SCT035 10/09 Q1019 NOSIG RMK RWY21 36006KT,LTAE,2023-06-05T23:50:00Z,40.07,32.57,10.0,9.0,0,2,,6.21,30.088583,,,,,,TRUE,,,,,SCT,3500,,,,,,,VFR,,,,,,,,,,,,METAR,836.0
LTAC 052350Z 01003KT 310V070 9999 FEW040 SCT100 12/10 Q1019 NOSIG RMK RWY21L VRB02KT RWY03L VRB02KT RWY21R 02003KT 330V070,LTAC,2023-06-05T23:50:00Z,40.12,32.98,12.0,10.0,10,3,,6.21,30.088583,,,,,,TRUE,,,,,FEW,4000,SCT,10000,,,,,VFR,,,,,,,,,,,,METAR,952.0
LSZS 052350Z AUTO 03002KT 0600 FG VV002 05/05 Q1020,LSZS,2023-06-05T23:50:00Z,46.53,9.88,5.0,5.0,30,2,,0.37,30.11811,,,TRUE,,,,,,,FG,OVX,0,,,,,,,LIFR,,,,,,,,,,,200,METAR,1708.0
LSZR 052350Z AUTO VRB02KT CAVOK 12/12 Q1016,LSZR,2023-06-05T23:50:00Z,47.48,9.57,12.0,12.0,0,2,,6.21,30.0,,,TRUE,,,,,,,,CAVOK,,,,,,,,VFR,,,,,,,,,,,,METAR,396.0
LSZL 052350Z AUTO VRB01KT 9999NDV FEW032 SCT047 17/15 Q1016 RMK,LSZL,2023-06-05T23:50:00Z,46.17,8.88,17.0,15.0,0,1,,,30.0,,,TRUE,,,,,,,,FEW,3200,SCT,4700,,,,,,,,,,,,,,,,,METAR,198.0
LSZH 052350Z AUTO VRB01KT CAVOK 14/10 Q1016 NOSIG,LSZH,2023-06-05T23:50:00Z,47.48,8.53,14.0,10.0,0,1,,6.21,30.0,,,TRUE,,,TRUE,,,,,CAVOK,,,,,,,,VFR,,,,,,,,,,,,METAR,424.0
LSZG 052350Z AUTO 06003KT CAVOK 13/11 Q1015,LSZG,2023-06-05T23:50:00Z,47.17,7.42,13.0,11.0,60,3,,6.21,29.970472,,,TRUE,,,,,,,,CAVOK,,,,,,,,VFR,,,,,,,,,,,,METAR,428.0
LSZC 052350Z AUTO 24004KT CAVOK 13/09 Q1016,LSZC,2023-06-05T23:50:00Z,46.97,8.38,13.0,9.0,240,4,,6.21,30.0,,,TRUE,,,,,,,,CAVOK,,,,,,,,VFR,,,,,,,,,,,,METAR,445.0
LSZB 052350Z AUTO VRB01KT CAVOK 11/09 Q1016,LSZB,2023-06-05T23:50:00Z,46.92,7.5,11.0,9.0,0,1,,6.21,30.0,,,TRUE,,,,,,,,CAVOK,,,,,,,,VFR,,,,,,,,,,,,METAR,510.0
LSZA 052350Z AUTO 36003KT 9999 FEW036 OVC050 15/15 Q1016,LSZA,2023-06-05T23:50:00Z,46.0,8.92,15.0,15.0,360,3,,6.21,30.0,,,TRUE,,,,,,,,FEW,3600,OVC,5000,,,,,VFR,,,,,,,,,,,,METAR,276.0
LSMP 052350Z AUTO 22002KT 9999NDV NCD 13/10 Q1015 RMK,LSMP,2023-06-05T23:50:00Z,46.83,6.92,13.0,10.0,220,2,,,29.970472,,,TRUE,,,,,,,,CLR,,,,,,,,,,,,,,,,,,,,METAR,490.0
LSMM 052350Z AUTO 00000KT 9999NDV NCD 13/08 Q1017 RMK,LSMM,2023-06-05T23:50:00Z,46.75,8.12,13.0,8.0,0,0,,,30.029528,,,TRUE,,,,,,,,CLR,,,,,,,,,,,,,,,,,,,,METAR,570.0
LSME 052350Z AUTO 00000KT 9999NDV NCD 13/10 Q1016 RMK,LSME,2023-06-05T23:50:00Z,47.1,8.3,13.0,10.0,0,0,,,30.0,,,TRUE,,,,,,,,CLR,,,,,,,,,,,,,,,,,,,,METAR,427.0
LSMD 052350Z AUTO 13004KT 9999NDV NCD 14/10 Q1016 RMK,LSMD,2023-06-05T23:50:00Z,47.4,8.65,14.0,10.0,130,4,,,30.0,,,TRUE,,,,,,,,CLR,,,,,,,,,,,,,,,,,,,,METAR,436.0
LSMA 052350Z AUTO VRB01KT 9999NDV NCD 13/10 Q1016 RMK,LSMA,2023-06-05T23:50:00Z,46.95,8.28,13.0,10.0,0,1,,,30.0,,,TRUE,,,,,,,,CLR,,,,,,,,,,,,,,,,,,,,METAR,441.0
LSGS 052350Z AUTO VRB01KT CAVOK 17/10 Q1016,LSGS,2023-06-05T23:50:00Z,46.22,7.32,17.0,10.0,0,1,,6.21,30.0,,,TRUE,,,,,,,,CAVOK,,,,,,,,VFR,,,,,,,,,,,,METAR,482.0
LSGG 052350Z AUTO 29002KT CAVOK 15/09 Q1015 NOSIG,LSGG,2023-06-05T23:50:00Z,46.25,6.12,15.0,9.0,290,2,,6.21,29.970472,,,TRUE,,,TRUE,,,,,CAVOK,,,,,,,,VFR,,,,,,,,,,,,METAR,411.0
LSGC 052350Z AUTO 00000KT CAVOK 09/07 Q1018,LSGC,2023-06-05T23:50:00Z,47.08,6.8,9.0,7.0,0,0,,6.21,30.059055,,,TRUE,,,,,,,,CAVOK,,,,,,,,VFR,,,,,,,,,,,,METAR,1018.0
LOXZ 052350Z 01001KT 9999 FEW003 BKN020 13/12 Q1017 NOSIG,LOXZ,2023-06-05T23:50:00Z,47.2,14.75,13.0,12.0,10,1,,6.21,30.029528,,,,,,TRUE,,,,,FEW,300,BKN,2000,,,,,MVFR,,,,,,,,,,,,METAR,678.0
LOWW 052350Z 02004KT 6000 -RA FEW002 SCT003 BKN048 16/15 Q1017 NOSIG,LOWW,2023-06-05T23:50:00Z,48.12,16.57,16.0,15.0,20,4,,3.73,30.029528,,,,,,TRUE,,,,-RA,FEW,200,SCT,300,BKN,4800,,,MVFR,,,,,,,,,,,,METAR,179.0
LOWS 052350Z AUTO VRB02KT 4100 0800S R15/P1500D R33/0900D BCFG FEW001 BKN004 14/14 Q1017,LOWS,2023-06-05T23:50:00Z,47.78,13.02,14.0,14.0,0,2,,2.55,30.029528,,,TRUE,,,,,,,BCFG,FEW,100,BKN,400,,,,,LIFR,,,,,,,,,,,,METAR,427.0
LOWL 052350Z AUTO 10004KT 9999 FEW010 BKN017 16/14 Q1016,LOWL,2023-06-05T23:50:00Z,48.22,14.18,16.0,14.0,100,4,,6.21,30.0,,,TRUE,,,,,,,,FEW,1000,BKN,1700,,,,,MVFR,,,,,,,,,,,,METAR,290.0
LOWK 052350Z AUTO 00000KT 9999 FEW001 SCT022 BKN060 15/15 Q1017,LOWK,2023-06-05T23:50:00Z,46.65,14.32,15.0,15.0,0,0,,6.21,30.029528,,,TRUE,,,,,,,,FEW,100,SCT,2200,BKN,6000,,,VFR,,,,,,,,,,,,METAR,450.0
LOWI 052350Z AUTO VRB02KT 9999 FEW004 11/11 Q1018,LOWI,2023-06-05T23:50:00Z,47.27,11.33,11.0,11.0,0,2,,6.21,30.059055,,,TRUE,,,,,,,,FEW,400,,,,,,,VFR,,,,,,,,,,,,METAR,570.0
LOWG 052350Z AUTO 04002KT 6000 SCT020 BKN080 14/14 Q1017,LOWG,2023-06-05T23:50:00Z,47.0,15.43,14.0,14.0,40,2,,3.73,30.029528,,,TRUE,,,,,,,,SCT,2000,BKN,8000,,,,,MVFR,,,,,,,,,,,,METAR,337.0
LLBG 052350Z VRB02KT 9999 SCT022 20/15 Q1011 NOSIG,LLBG,2023-06-05T23:50:00Z,32.0,34.88,20.0,15.0,0,2,,6.21,29.852362,,,,,,TRUE,,,,,SCT,2200,,,,,,,VFR,,,,,,,,,,,,METAR,35.0
LIRZ 052350Z AUTO 00000KT 9999 BKN041/// BKN077/// 16/15 Q1016,LIRZ,2023-06-05T23:50:00Z,43.1,12.5,16.0,15.0,0,0,,6.21,30.0,,,TRUE,,,,,,,,BKN,4100,BKN,7700,,,,,VFR,,,,,,,,,,,,METAR,206.0
LIRQ 052350Z VRB01KT 9999 SCT040 17/16 Q1015,LIRQ,2023-06-05T23:50:00Z,43.8,11.2,17.0,16.0,0,1,,6.21,29.970472,,,,,,,,,,,SCT,4000,,,,,,,VFR,,,,,,,,,,,,METAR,33.0
LIRN 052350Z VRB02KT 9999 FEW025 21/16 Q1015 NOSIG,LIRN,2023-06-05T23:50:00Z,40.88,14.3,21.0,16.0,0,2,,6.21,29.970472,,,,,,TRUE,,,,,FEW,2500,,,,,,,VFR,,,,,,,,,,,,METAR,76.0
LIRF 052350Z 33003KT 250V010 9999 VCTS FEW015CB 17/16 Q1015 RETSRA NOSIG,LIRF,2023-06-05T23:50:00Z,41.78,12.23,17.0,16.0,330,3,,6.21,29.970472,,,,,,TRUE,,,,VCTS,FEW,1500,,,,,,,VFR,,,,,,,,,,,,METAR,2.0
LIRA 052350Z 26002KT 9999 VCTS FEW030CB BKN040 19/16 Q1016,LIRA,2023-06-05T23:50:00Z,41.8,12.58,19.0,16.0,260,2,,6.21,30.0,,,,,,,,,,VCTS,FEW,3000,BKN,4000,,,,,VFR,,,,,,,,,,,,METAR,101.0
LIPZ 052350Z 02005KT 9999 -RA SCT060 17/17 Q1015 TEMPO SHRA,LIPZ,2023-06-05T23:50:00Z,45.5,12.35,17.0,17.0,20,5,,6.21,29.970472,,,,,,,,,,-RA,SCT,6000,,,,,,,VFR,,,,,,,,,,,,METAR,3.0
LIPY 052350Z AUTO 19002KT 9999 BKN130/// OVC170/// 16/16 Q1015,LIPY,2023-06-05T23:50:00Z,43.62,13.37,16.0,16.0,190,2,,6.21,29.970472,,,TRUE,,,,,,,,BKN,13000,OVC,17000,,,,,VFR,,,,,,,,,,,,METAR,11.0
LIPX 052350Z 27003KT 250V320 9999 SCT090 17/16 Q1016,LIPX,2023-06-05T23:50:00Z,45.38,10.87,17.0,16.0,270,3,,6.21,30.0,,,,,,,,,,,SCT,9000,,,,,,,VFR,,,,,,,,,,,,METAR,67.0
LIPR 052350Z AUTO 20004KT 9999 NCD 16/16 Q1015,LIPR,2023-06-05T23:50:00Z,44.02,12.62,16.0,16.0,200,4,,6.21,29.970472,,,TRUE,,,,,,,,CLR,,,,,,,,VFR,,,,,,,,,,,,METAR,10.0
LIPQ 052350Z AUTO 01003KT 9999 OVC026/// 18/18 Q1015,LIPQ,2023-06-05T23:50:00Z,45.82,13.47,18.0,18.0,10,3,,6.21,29.970472,,,TRUE,,,,,,,,OVC,2600,,,,,,,MVFR,,,,,,,,,,,,METAR,6.0
LIPO 052350Z AUTO 13003KT 9999 SCT024/// BKN036/// 18/17 Q1016,LIPO,2023-06-05T23:50:00Z,45.42,10.33,18.0,17.0,130,3,,6.21,30.0,,,TRUE,,,,,,,,SCT,2400,BKN,3600,,,,,VFR,,,,,,,,,,,,METAR,104.0
LIPH 052350Z AUTO 02003KT 350V050 9999 BKN028/// BKN045/// 18/16 Q1015,LIPH,2023-06-05T23:50:00Z,45.63,12.18,18.0,16.0,20,3,,6.21,29.970472,,,TRUE,,,,,,,,BKN,2800,BKN,4500,,,,,MVFR,,,,,,,,,,,,METAR,10.0
LIPE 052350Z VRB02KT 8000 FEW008 SCT020 BKN040 17/16 Q1015,LIPE,2023-06-05T23:50:00Z,44.52,11.3,17.0,16.0,0,2,,4.97,29.970472,,,,,,,,,,,FEW,800,SCT,2000,BKN,4000,,,MVFR,,,,,,,,,,,,METAR,37.0
LIMZ 052350Z AUTO 31004KT 9999 BKN050/// 16/15 Q1016,LIMZ,2023-06-05T23:50:00Z,44.53,7.62,16.0,15.0,310,4,,6.21,30.0,,,TRUE,,,,,,,,BKN,5000,,,,,,,VFR,,,,,,,,,,,,METAR,377.0
LIML 052350Z 36003KT 320V030 9999 SCT050 18/15 Q1016 NOSIG,LIML,2023-06-05T23:50:00Z,45.47,9.27,18.0,15.0,360,3,,6.21,30.0,,,,,,TRUE,,,,,SCT,5000,,,,,,,VFR,,,,,,,,,,,,METAR,109.0
LIMJ 052350Z AUTO 04004KT 9999 BKN100/// 19/16 Q1015,LIMJ,2023-06-05T23:50:00Z,44.42,8.83,19.0,16.0,40,4,,6.21,29.970472,,,TRUE,,,,,,,,BKN,10000,,,,,,,VFR,,,,,,,,,,,,METAR,3.0
LIMF 052350Z 32004KT 9999 BKN090 17/15 Q1016,LIMF,2023-06-05T23:50:00Z,45.22,7.65,17.0,15.0,320,4,,6.21,30.0,,,,,,,,,,,BKN,9000,,,,,,,VFR,,,,,,,,,,,,METAR,295.0
LIME 052350Z AUTO 36002KT 9999 FEW061/// 16/15 Q1016,LIME,2023-06-05T23:50:00Z,45.67,9.7,16.0,15.0,360,2,,6.21,30.0,,,TRUE,,,,,,,,FEW,6100,,,,,,,VFR,,,,,,,,,,,,METAR,239.0
LIMC 052350Z 01003KT CAVOK 17/15 Q1016 NOSIG,LIMC,2023-06-05T23:50:00Z,45.62,8.72,17.0,15.0,10,3,,6.21,30.0,,,,,,TRUE,,,,,CAVOK,,,,,,,,VFR,,,,,,,,,,,,METAR,221.0
LIEO 052350Z VRB01KT CAVOK 16/15 Q1015,LIEO,2023-06-05T23:50:00Z,40.88,9.52,16.0,15.0,0,1,,6.21,29.970472,,,,,,,,,,,CAVOK,,,,,,,,VFR,,,,,,,,,,,,METAR,8.0
LIEE 052350Z 34005KT CAVOK 17/17 Q1015,LIEE,2023-06-05T23:50:00Z,39.25,9.07,17.0,17.0,340,5,,6.21,29.970472,,,,,,,,,,,CAVOK,,,,,,,,VFR,,,,,,,,,,,,METAR,1.0
LIEA 052350Z 36003KT CAVOK 16/16 Q1015,LIEA,2023-06-05T23:50:00Z,40.62,8.28,16.0,16.0,360,3,,6.21,29.970472,,,,,,,,,,,CAVOK,,,,,,,,VFR,,,,,,,,,,,,METAR,22.0
LICR 052350Z AUTO 18006KT 9999 BKN110/// BKN150/// 19/15 Q1016,LICR,2023-06-05T23:50:00Z,38.07,15.65,19.0,15.0,180,6,,6.21,30.0,,,TRUE,,,,,,,,BKN,11000,BKN,15000,,,,,VFR,,,,,,,,,,,,METAR,16.0
LICJ 052350Z 01009KT 9999 -RA FEW018 20/17 Q1015,LICJ,2023-06-05T23:50:00Z,38.17,13.08,20.0,17.0,10,9,,6.21,29.970472,,,,,,,,,,-RA,FEW,1800,,,,,,,VFR,,,,,,,,,,,,METAR,20.0
LICD 052350Z AUTO 07016KT 9999 FEW100/// BKN180/// 21/18 Q1011,LICD,2023-06-05T23:50:00Z,35.5,12.62,21.0,18.0,70,16,,6.21,29.852362,,,TRUE,,,,,,,,FEW,10000,BKN,18000,,,,,VFR,,,,,,,,,,,,METAR,20.0
LICC 052350Z 04007KT CAVOK 20/14 Q1015,LICC,2023-06-05T23:50:00Z,37.47,15.05,20.0,14.0,40,7,,6.21,29.970472,,,,,,,,,,,CAVOK,,,,,,,,VFR,,,,,,,,,,,,METAR,6.0
LICB 052350Z AUTO VRB06G16KT 9999 BKN110/// 21/10 Q1013,LICB,2023-06-05T23:50:00Z,37.0,14.62,21.0,10.0,0,6,16,6.21,29.911417,,,TRUE,,,,,,,,BKN,11000,,,,,,,VFR,,,,,,,,,,,,METAR,212.0
LICA 052350Z AUTO VRB02KT 9999 FEW150/// 17/16 Q1015,LICA,2023-06-05T23:50:00Z,38.9,16.25,17.0,16.0,0,2,,6.21,29.970472,,,TRUE,,,,,,,,FEW,15000,,,,,,,VFR,,,,,,,,,,,,METAR,7.0
LIBR 052350Z 13003KT 110V170 CAVOK 21/19 Q1015,LIBR,2023-06-05T23:50:00Z,40.65,17.95,21.0,19.0,130,3,,6.21,29.970472,,,,,,,,,,,CAVOK,,,,,,,,VFR,,,,,,,,,,,,METAR,5.0
LIBP 052350Z AUTO 23004KT 9999 BKN110/// 19/17 Q1015,LIBP,2023-06-05T23:50:00Z,42.42,14.18,19.0,17.0,230,4,,6.21,29.970472,,,TRUE,,,,,,,,BKN,11000,,,,,,,VFR,,,,,,,,,,,,METAR,10.0
LIBD 052350Z 22003KT CAVOK 20/18 Q1015,LIBD,2023-06-05T23:50:00Z,41.13,16.77,20.0,18.0,220,3,,6.21,29.970472,,,,,,,,,,,CAVOK,,,,,,,,VFR,,,,,,,,,,,,METAR,42.0
LGTS 052350Z 11005KT 9999 FEW025 17/17 Q1018 NOSIG,LGTS,2023-06-05T23:50:00Z,40.52,22.97,17.0,17.0,110,5,,6.21,30.059055,,,,,,TRUE,,,,,FEW,2500,,,,,,,VFR,,,,,,,,,,,,METAR,4.0
LGSR 052350Z 28005KT 9999 FEW025 19/14 Q1013,LGSR,2023-06-05T23:50:00Z,36.4,25.48,19.0,14.0,280,5,,6.21,29.911417,,,,,,,,,,,FEW,2500,,,,,,,VFR,,,,,,,,,,,,METAR,31.0
LGSO 052350Z AUTO 02013KT 340V040 //// -RA ////// 20/15 Q1014 RE//,LGSO,2023-06-05T23:50:00Z,37.42,24.95,20.0,15.0,20,13,,,29.940945,,,TRUE,,,,,,,-RA,,,,,,,,,,,,,,,,,,,,,METAR,71.0
LGSM 052350Z 01005KT CAVOK 21/13 Q1013,LGSM,2023-06-05T23:50:00Z,37.68,26.92,21.0,13.0,10,5,,6.21,29.911417,,,,,,,,,,,CAVOK,,,,,,,,VFR,,,,,,,,,,,,METAR,5.0
LGSA 052350Z VRB03KT 9999 FEW020 17/15 Q1014,LGSA,2023-06-05T23:50:00Z,35.53,24.13,17.0,15.0,0,3,,6.21,29.940945,,,,,,,,,,,FEW,2000,,,,,,,VFR,,,,,,,,,,,,METAR,122.0
LGRX 052350Z 02005KT CAVOK 21/15 Q1015,LGRX,2023-06-05T23:50:00Z,38.17,21.42,21.0,15.0,20,5,,6.21,29.970472,,,,,,,,,,,CAVOK,,,,,,,,VFR,,,,,,,,,,,,METAR,16.0
LGRP 052350Z VRB01KT 9999 FEW018 21/18 Q1011 NOSIG,LGRP,2023-06-05T23:50:00Z,36.4,28.08,21.0,18.0,0,1,,6.21,29.852362,,,,,,TRUE,,,,,FEW,1800,,,,,,,VFR,,,,,,,,,,,,METAR,3.0
LGPZ 052350Z 04006KT 9999 FEW080 21/19 Q1015 RMK FEW180 BLU,LGPZ,2023-06-05T23:50:00Z,38.92,20.77,21.0,19.0,40,6,,6.21,29.970472,,,,,,,,,,,FEW,8000,,,,,,,VFR,,,,,,,,,,,,METAR,3.0
LGPA 052350Z AUTO 36014KT //// // ////// 23/12 Q1013 RE//,LGPA,2023-06-05T23:50:00Z,37.02,25.1,23.0,12.0,360,14,,,29.911417,,,TRUE,,,,,,,,,,,,,,,,,,,,,,,,,,,,METAR,42.0
LGMK 052350Z 01012KT 9999 FEW025 19/15 Q1013,LGMK,2023-06-05T23:50:00Z,37.43,25.35,19.0,15.0,10,12,,6.21,29.911417,,,,,,,,,,,FEW,2500,,,,,,,VFR,,,,,,,,,,,,METAR,126.0
LGLM 052350Z 04011KT CAVOK 18/13 Q1017,LGLM,2023-06-05T23:50:00Z,39.92,25.23,18.0,13.0,40,11,,6.21,30.029528,,,,,,,,,,,CAVOK,,,,,,,,VFR,,,,,,,,,,,,METAR,4.0
LGKZ 052350Z AUTO VRB02KT //// // ////// 14/13 Q1020 RE//,LGKZ,2023-06-05T23:50:00Z,40.28,21.83,14.0,13.0,0,2,,,30.11811,,,TRUE,,,,,,,,,,,,,,,,,,,,,,,,,,,,METAR,615.0
LGKR 052350Z VRB02KT 9999 FEW020 SCT080 21/18 Q1015 NOSIG,LGKR,2023-06-05T23:50:00Z,39.62,19.92,21.0,18.0,0,2,,6.21,29.970472,,,,,,TRUE,,,,,FEW,2000,SCT,8000,,,,,VFR,,,,,,,,,,,,METAR,2.0
LGKO 052350Z 36010KT CAVOK 22/16 Q1012,LGKO,2023-06-05T23:50:00Z,36.8,27.08,22.0,16.0,360,10,,6.21,29.88189,,,,,,,,,,,CAVOK,,,,,,,,VFR,,,,,,,,,,,,METAR,130.0
LGKL 052350Z 00000KT CAVOK 16/14 Q1015,LGKL,2023-06-05T23:50:00Z,37.07,22.02,16.0,14.0,0,0,,6.21,29.970472,,,,,,,,,,,CAVOK,,,,,,,,VFR,,,,,,,,,,,,METAR,4.0
LGIR 052350Z VRB03KT 9999 FEW020 17/15 Q1014 NOSIG,LGIR,2023-06-05T23:50:00Z,35.33,25.17,17.0,15.0,0,3,,6.21,29.940945,,,,,,TRUE,,,,,FEW,2000,,,,,,,VFR,,,,,,,,,,,,METAR,37.0
LGIO 052350Z AUTO VRB01KT //// // ////// 13/13 Q1018 RERA,LGIO,2023-06-05T23:50:00Z,39.7,20.82,13.0,13.0,0,1,,,30.059055,,,TRUE,,,,,,,,,,,,,,,,,,,,,,,,,,,,METAR,476.0
LGHI 052350Z 36013KT 320V050 CAVOK 21/19 Q1013,LGHI,2023-06-05T23:50:00Z,38.33,26.13,21.0,19.0,360,13,,6.21,29.911417,,,,,,,,,,,CAVOK,,,,,,,,VFR,,,,,,,,,,,,METAR,6.0
LGEL 052350Z 29007KT CAVOK 22/08 Q1015,LGEL,2023-06-05T23:50:00Z,38.07,23.55,22.0,8.0,290,7,,6.21,29.970472,,,,,,,,,,,CAVOK,,,,,,,,VFR,,,,,,,,,,,,METAR,21.0
LGBL 052350Z 28004KT 9999 FEW030 14/09 Q1018,LGBL,2023-06-05T23:50:00Z,39.22,22.8,14.0,9.0,280,4,,6.21,30.059055,,,,,,,,,,,FEW,3000,,,,,,,VFR,,,,,,,,,,,,METAR,13.0
LGAV 052350Z 04012KT 9999 FEW025 21/09 Q1015 NOSIG,LGAV,2023-06-05T23:50:00Z,37.93,23.95,21.0,9.0,40,12,,6.21,29.970472,,,,,,TRUE,,,,,FEW,2500,,,,,,,VFR,,,,,,,,,,,,METAR,83.0
LGAL 052350Z 03007KT CAVOK 17/11 Q1019,LGAL,2023-06-05T23:50:00Z,40.85,25.95,17.0,11.0,30,7,,6.21,30.088583,,,,,,,,,,,CAVOK,,,,,,,,VFR,,,,,,,,,,,,METAR,5.0
LGAD 052350Z VRB01KT 9999 FEW025 17/16 Q1015,LGAD,2023-06-05T23:50:00Z,37.92,21.28,17.0,16.0,0,1,,6.21,29.970472,,,,,,,,,,,FEW,2500,,,,,,,VFR,,,,,,,,,,,,METAR,8.0
LCRA 052350Z AUTO 09003KT 6000 BR NCD 20/19 Q1011,LCRA,2023-06-05T23:50:00Z,34.58,32.98,20.0,19.0,90,3,,3.73,29.852362,,,TRUE,,,,,,,BR,CLR,,,,,,,,MVFR,,,,,,,,,,,,METAR,23.0
LCEN 052350Z 00000KT 9999 FEW025 19/17 Q1011 NOSIG RMK RWY11 00000KT,LCEN,2023-06-05T23:50:00Z,35.15,33.5,19.0,17.0,0,0,,6.21,29.852362,,,,,,TRUE,,,,,FEW,2500,,,,,,,VFR,,,,,,,,,,,,METAR,91.0
LATI 052350Z 13003KT 100V180 9999 SCT094 OVC160 20/17 Q1016 NOSIG,LATI,2023-06-05T23:50:00Z,41.42,19.72,20.0,17.0,130,3,,6.21,30.0,,,,,,TRUE,,,,,SCT,9400,OVC,16000,,,,,VFR,,,,,,,,,,,,METAR,32.0
KXBP 052350Z AUTO 28005KT 10SM CLR 24/18 A2994 RMK AO2 T02400180 10286 20240,KXBP,2023-06-05T23:50:00Z,33.18,-97.83,24.0,18.0,280,5,,10.0,29.940945,,,TRUE,TRUE,,,,,,,CLR,,,,,,,,VFR,,28.6,24.0,,,,,,,,,METAR,256.0
KX26 052350Z AUTO 04010KT SCT037 25/19 A2991 RMK AO2 TSNO 10284 20251 402850229,KX26,2023-06-05T23:50:00Z,27.82,-80.5,25.0,19.0,40,10,,,29.911417,,,TRUE,TRUE,,,TRUE,,,,SCT,3700,,,,,,,,,28.4,25.1,28.5,22.9,,,,,,,METAR,5.0
KWHP 052350Z 12004KT 5SM FG OVC022 15/10 A2992,KWHP,2023-06-05T23:50:00Z,34.25,-118.42,15.0,10.0,120,4,,5.0,29.920275,,,,,,,,,,FG,OVC,2200,,,,,,,MVFR,,,,,,,,,,,,METAR,302.0
KWDG 052350Z 33007KT 10SM OVC100 23/17 A2997,KWDG,2023-06-05T23:50:00Z,36.37,-97.78,23.0,17.0,330,7,,10.0,29.970472,,,,,,,,,,,OVC,10000,,,,,,,VFR,,,,,,,,,,,,METAR,352.0
KVQQ 052350Z 09006KT 10SM CLR 25/16 A2993,KVQQ,2023-06-05T23:50:00Z,30.22,-81.88,25.0,16.0,90,6,,10.0,29.929134,,,,,,,,,,,CLR,,,,,,,,VFR,,,,,,,,,,,,METAR,21.0
KVES 052350Z AUTO 05003KT 7SM CLR 23/M05 A2999 RMK AO2,KVES,2023-06-05T23:50:00Z,40.2,-84.53,23.0,-5.0,50,3,,7.0,29.991142,,,TRUE,TRUE,,,,,,,CLR,,,,,,,,VFR,,,,,,,,,,,,METAR,308.0
KVCV 052350Z AUTO 15013G23KT 7SM CLR 21/02 A2982 RMK AO2,KVCV,2023-06-05T23:50:00Z,34.58,-117.38,21.0,2.0,150,13,23,7.0,29.819881,,,TRUE,TRUE,,,,,,,CLR,,,,,,,,VFR,,,,,,,,,,,,METAR,871.0
KU68 052350Z AUTO 22004KT 10SM CLR 28/06 A2996 RMK AO2,KU68,2023-06-05T23:50:00Z,44.92,-108.45,28.0,6.0,220,4,,10.0,29.958662,,,TRUE,TRUE,,,,,,,CLR,,,,,,,,VFR,,,,,,,,,,,,METAR,1244.0
KSUT 052350Z AUTO 19003KT 10SM CLR 20/11 A2993 RMK AO2 T01950105 10245 20195,KSUT,2023-06-05T23:50:00Z,33.93,-78.08,19.5,10.5,190,3,,10.0,29.929134,,,TRUE,TRUE,,,,,,,CLR,,,,,,,,VFR,,24.5,19.5,,,,,,,,,METAR,6.0
KRYY 052350Z 21004KT 10SM CLR 27/18 A2993 RMK AO2 SLP126 T02720183 10289 20244 55005 $,KRYY,2023-06-05T23:50:00Z,34.02,-84.6,27.2,18.3,210,4,,10.0,29.929134,1012.6,,,TRUE,TRUE,,,,,,CLR,,,,,,,,VFR,-0.5,28.9,24.4,,,,,,,,,METAR,306.0
KRVJ 052350Z AUTO 13005KT 10SM CLR 27/17 A2992 RMK AO2 T02690165 10292 20263 402920149,KRVJ,2023-06-05T23:50:00Z,32.07,-82.15,26.9,16.5,130,5,,10.0,29.920275,,,TRUE,TRUE,,,,,,,CLR,,,,,,,,VFR,,29.2,26.3,29.2,14.9,,,,,,,METAR,60.0
KRHP 052350Z AUTO 00000KT 10SM CLR 22/18 A2994 RMK AO2 T02240182,KRHP,2023-06-05T23:50:00Z,35.18,-83.85,22.4,18.2,0,0,,10.0,29.940945,,,TRUE,TRUE,,,,,,,CLR,,,,,,,,VFR,,,,,,,,,,,,METAR,515.0
KRCZ 052350Z AUTO 00000KT 10SM CLR 23/16 A2992 RMK AO2 T02270159 10250 20224,KRCZ,2023-06-05T23:50:00Z,34.88,-79.77,22.7,15.9,0,0,,10.0,29.920275,,,TRUE,TRUE,,,,,,,CLR,,,,,,,,VFR,,25.0,22.4,,,,,,,,,METAR,110.0
KQFW 052350Z AUTO 18004KT 9999 CLR 19/14 A2962 RMK A02 TSNO,KQFW,2023-06-05T23:50:00Z,,,19.0,14.0,180,4,,6.21,29.619095,,,TRUE,TRUE,,,TRUE,,,,CLR,,,,,,,,VFR,,,,,,,,,,,,METAR,
KQFT 052350Z AUTO 17001KT 9999 BKN024 20/14 A2979 RMK A02 TSNO,KQFT,2023-06-05T23:50:00Z,,,20.0,14.0,170,1,,6.21,29.790354,,,TRUE,TRUE,,,TRUE,,,,BKN,2400,,,,,,,MVFR,,,,,,,,,,,,METAR,
KQEY 052350Z AUTO 32003KT 9999 CLR 19/13 A2950 RMK A02 TSNO,KQEY,2023-06-05T23:50:00Z,,,19.0,13.0,320,3,,6.21,29.500984,,,TRUE,TRUE,,,TRUE,,,,CLR,,,,,,,,VFR,,,,,,,,,,,,METAR,
KQEV 052350Z AUTO 02001KT 9999 CLR 22/14 A2976 RMK A02 TSNO,KQEV,2023-06-05T23:50:00Z,,,22.0,14.0,20,1,,6.21,29.760826,,,TRUE,TRUE,,,TRUE,,,,CLR,,,,,,,,VFR,,,,,,,,,,,,METAR,
KQER 052350Z AUTO 18006G10KT 9999 BKN019 18/14 A2976 RMK A02 TSNO,KQER,2023-06-05T23:50:00Z,,,18.0,14.0,180,6,10,6.21,29.760826,,,TRUE,TRUE,,,TRUE,,,,BKN,1900,,,,,,,MVFR,,,,,,,,,,,,METAR,
KP08 052350Z AUTO 22015G21KT 10SM CLR 39/M08 A2969 RMK AO2,KP08,2023-06-05T23:50:00Z,32.93,-111.43,39.0,-8.0,220,15,21,10.0,29.68996,,,TRUE,TRUE,,,,,,,CLR,,,,,,,,VFR,,,,,,,,,,,,METAR,477.0
KOLV 052350Z 36003KT 10SM CLR 23/20 A2991,KOLV,2023-06-05T23:50:00Z,34.98,-89.78,23.0,20.0,360,3,,10.0,29.911417,,,,,,,,,,,CLR,,,,,,,,VFR,,,,,,,,,,,,METAR,124.0
KNQA 052350Z 00000KT 10SM FEW120 21/21 A2989,KNQA,2023-06-05T23:50:00Z,35.35,-89.87,21.0,21.0,0,0,,10.0,29.890747,,,,,,,,,,,FEW,12000,,,,,,,VFR,,,,,,,,,,,,METAR,90.0
KMRC 052350Z AUTO VRB05KT 10SM CLR 30/17 A2988 RMK A01,KMRC,2023-06-05T23:50:00Z,35.55,-87.18,30.0,17.0,0,5,,10.0,29.878937,,,TRUE,TRUE,,,,,,,CLR,,,,,,,,VFR,,,,,,,,,,,,METAR,205.0
KMQI 052350Z AUTO 15004KT 10SM CLR 18/14 A2992 RMK AO2 T01840135 10217 20184,KMQI,2023-06-05T23:50:00Z,35.92,-75.7,18.4,13.5,150,4,,10.0,29.920275,,,TRUE,TRUE,,,,,,,CLR,,,,,,,,VFR,,21.7,18.4,,,,,,,,,METAR,3.0
KMIO 052350Z AUTO 04008G14KT 10SM CLR 30/16 A2993 RMK AO2,KMIO,2023-06-05T23:50:00Z,36.92,-94.88,30.0,16.0,40,8,14,10.0,29.929134,,,TRUE,TRUE,,,,,,,CLR,,,,,,,,VFR,,,,,,,,,,,,METAR,245.0
KM91 052350Z AUTO 00000KT 10SM CLR 27/14 A2990 RMK A01,KM91,2023-06-05T23:50:00Z,36.53,-86.92,27.0,14.0,0,0,,10.0,29.899607,,,TRUE,TRUE,,,,,,,CLR,,,,,,,,VFR,,,,,,,,,,,,METAR,214.0
KLHZ 052350Z AUTO 00000KT 10SM SCT065 22/14 A2992 RMK AO2,KLHZ,2023-06-05T23:50:00Z,36.02,-78.33,22.0,14.0,0,0,,10.0,29.920275,,,TRUE,TRUE,,,,,,,SCT,6500,,,,,,,VFR,,,,,,,,,,,,METAR,104.0
KKNB 052350Z AUTO 06004G10KT 10SM CLR 29/M00 A2994 RMK A01,KKNB,2023-06-05T23:50:00Z,37.02,-112.53,29.0,0.0,60,4,10,10.0,29.940945,,,TRUE,TRUE,,,,,,,CLR,,,,,,,,VFR,,,,,,,,,,,,METAR,1476.0
KJWN 052350Z 01005KT 6SM HZ CLR 29/15 A2988,KJWN,2023-06-05T23:50:00Z,36.18,-86.88,29.0,15.0,10,5,,6.0,29.878937,,,,,,,,,,HZ,CLR,,,,,,,,VFR,,,,,,,,,,,,METAR,149.0
KJTC 052350Z AUTO 23016G22KT 10SM CLR 27/M05 A3011 RMK AO2,KJTC,2023-06-05T23:50:00Z,34.13,-109.32,27.0,-5.0,230,16,22,10.0,30.109253,,,TRUE,TRUE,,,,,,,CLR,,,,,,,,VFR,,,,,,,,,,,,METAR,2148.0
KJQF 052350Z 24003KT 10SM SCT040 23/17 A2995,KJQF,2023-06-05T23:50:00Z,35.38,-80.72,23.0,17.0,240,3,,10.0,29.949802,,,,,,,,,,,SCT,4000,,,,,,,VFR,,,,,,,,,,,,METAR,204.0
KIXA 052350Z AUTO 00000KT 10SM CLR 20/17 A2989 RMK AO2,KIXA,2023-06-05T23:50:00Z,36.33,-77.63,20.0,17.0,0,0,,10.0,29.890747,,,TRUE,TRUE,,,,,,,CLR,,,,,,,,VFR,,,,,,,,,,,,METAR,43.0
KHXD 052350Z 16004KT 10SM CLR 22/15 A2995,KHXD,2023-06-05T23:50:00Z,32.22,-80.7,22.0,15.0,160,4,,10.0,29.949802,,,,,,,,,,,CLR,,,,,,,,VFR,,,,,,,,,,,,METAR,5.0
KHSA 052350Z 13006KT 10SM SCT028 SCT036 27/20 A2991,KHSA,2023-06-05T23:50:00Z,30.37,-89.45,27.0,20.0,130,6,,10.0,29.911417,,,,,,,,,,,SCT,2800,SCT,3600,,,,,VFR,,,,,,,,,,,,METAR,6.0
KHQZ 052350Z 00000KT 10SM SCT047 BKN110 29/18 A2990,KHQZ,2023-06-05T23:50:00Z,32.75,-96.53,29.0,18.0,0,0,,10.0,29.899607,,,,,,,,,,,SCT,4700,BKN,11000,,,,,VFR,,,,,,,,,,,,METAR,136.0
KHOB 052350Z 04011KT 10SM SCT050 SCT055 25/12 A3006,KHOB,2023-06-05T23:50:00Z,32.67,-103.22,25.0,12.0,40,11,,10.0,30.059055,,,,,,,,,,,SCT,5000,SCT,5500,,,,,VFR,,,,,,,,,,,,METAR,1112.0
KHNZ 052350Z AUTO 00000KT 10SM CLR 21/10 A2991 RMK AO2 T02140100 10250 20214,KHNZ,2023-06-05T23:50:00Z,36.37,-78.53,21.4,10.0,0,0,,10.0,29.911417,,,TRUE,TRUE,,,,,,,CLR,,,,,,,,VFR,,25.0,21.4,,,,,,,,,METAR,158.0
KGWW 052350Z AUTO 00000KT 10SM CLR 24/12 A2990 RMK AO2 T02400117 10265 20235,KGWW,2023-06-05T23:50:00Z,35.47,-77.97,24.0,11.7,0,0,,10.0,29.899607,,,TRUE,TRUE,,,,,,,CLR,,,,,,,,VFR,,26.5,23.5,,,,,,,,,METAR,40.0
KGOO 052350Z AUTO 08009KT 10SM FEW110 23/12 A2990 RMK A01,KGOO,2023-06-05T23:50:00Z,39.22,-121.0,23.0,12.0,80,9,,10.0,29.899607,,,TRUE,TRUE,,,,,,,FEW,11000,,,,,,,VFR,,,,,,,,,,,,METAR,950.0
KGNC 052350Z AUTO 02007KT 10SM CLR 25/12 A3009 RMK AO2 T02530115 10261 20218,KGNC,2023-06-05T23:50:00Z,32.68,-102.65,25.3,11.5,20,7,,10.0,30.088583,,,TRUE,TRUE,,,,,,,CLR,,,,,,,,VFR,,26.1,21.8,,,,,,,,,METAR,1002.0
KFYM 052350Z AUTO 21004KT 10SM SCT095 29/19 A2993 RMK A01,KFYM,2023-06-05T23:50:00Z,35.07,-86.57,29.0,19.0,210,4,,10.0,29.929134,,,TRUE,TRUE,,,,,,,SCT,9500,,,,,,,VFR,,,,,,,,,,,,METAR,297.0
KFWS 052350Z 00000KT 10SM SCT050 28/16 A2991,KFWS,2023-06-05T23:50:00Z,32.57,-97.3,28.0,16.0,0,0,,10.0,29.911417,,,,,,,,,,,SCT,5000,,,,,,,VFR,,,,,,,,,,,,METAR,211.0
KFSK 052350Z AUTO 00000KT 10SM CLR 22/19 A2997 RMK AO2 T02240193 10319 20189 403190165 60037,KFSK,2023-06-05T23:50:00Z,37.8,-94.77,22.4,19.3,0,0,,10.0,29.970472,,,TRUE,TRUE,,,,,,,CLR,,,,,,,,VFR,,31.9,18.9,31.9,16.5,,,0.37,,,,METAR,276.0
KFFA 052350Z AUTO 14003KT 10SM CLR 18/13 A2990 RMK AO2 T01820132,KFFA,2023-06-05T23:50:00Z,36.02,-75.67,18.2,13.2,140,3,,10.0,29.899607,,,TRUE,TRUE,,,,,,,CLR,,,,,,,,VFR,,,,,,,,,,,,METAR,2.0
KEYF 052350Z AUTO 23003KT 10SM CLR 24/13 A2991 RMK AO2 T02450129 10271 20242 402710129,KEYF,2023-06-05T23:50:00Z,34.6,-78.58,24.5,12.9,230,3,,10.0,29.911417,,,TRUE,TRUE,,,,,,,CLR,,,,,,,,VFR,,27.1,24.2,27.1,12.9,,,,,,,METAR,39.0
KEXX 052350Z AUTO 19004KT 10SM CLR 22/17 A2993 RMK AO2 T02150167 10242 20205,KEXX,2023-06-05T23:50:00Z,35.78,-80.3,21.5,16.7,190,4,,10.0,29.929134,,,TRUE,TRUE,,,,,,,CLR,,,,,,,,VFR,,24.2,20.5,,,,,,,,,METAR,221.0
KESN 052350Z 26003KT 10SM CLR 22/11 A2985,KESN,2023-06-05T23:50:00Z,38.8,-76.07,22.0,11.0,260,3,,10.0,29.84941,,,,,,,,,,,CLR,,,,,,,,VFR,,,,,,,,,,,,METAR,14.0
KELA 052350Z AUTO 01003KT 10SM SCT065 BKN095 BKN120 24/20 A2989 RMK AO2 LTG DSNT NE AND W T02350198 10325 20232,KELA,2023-06-05T23:50:00Z,29.6,-96.32,23.5,19.8,10,3,,10.0,29.890747,,,TRUE,TRUE,,,,,,,SCT,6500,BKN,9500,BKN,12000,,,VFR,,32.5,23.2,,,,,,,,,METAR,56.0
KEAN 052350Z AUTO 18014KT 10SM SCT060 SCT070 24/09 A3010 RMK AO2 LTG DSNT W T02370091 10249 20220,KEAN,2023-06-05T23:50:00Z,42.05,-104.93,23.7,9.1,180,14,,10.0,30.100393,,,TRUE,TRUE,,,,,,,SCT,6000,SCT,7000,,,,,VFR,,24.9,22.0,,,,,,,,,METAR,1452.0
KDVK 052350Z AUTO 06006KT 10SM CLR 24/12 A2995 RMK AO2,KDVK,2023-06-05T23:50:00Z,37.58,-84.77,24.0,12.0,60,6,,10.0,29.949802,,,TRUE,TRUE,,,,,,,CLR,,,,,,,,VFR,,,,,,,,,,,,METAR,309.0
KDAG 052350Z AUTO VRB04KT 10SM CLR 32/M01 A2965 RMK AO2 PK WND 03026/2339 SLP014 T03171006 10356 20306 56008,KDAG,2023-06-05T23:50:00Z,34.85,-116.78,31.7,-0.6,0,4,,10.0,29.648623,1001.4,,TRUE,TRUE,,,,,,,CLR,,,,,,,,VFR,-0.8,35.6,30.6,,,,,,,,,METAR,584.0
KCXW 052350Z AUTO 08006KT 9SM CLR 29/M11 A2988 RMK A01,KCXW,2023-06-05T23:50:00Z,35.02,-92.55,29.0,-11.0,80,6,,9.0,29.878937,,,TRUE,TRUE,,,,,,,CLR,,,,,,,,VFR,,,,,,,,,,,,METAR,84.0
KCGS 052350Z AUTO 35005KT 10SM CLR 24/08 A2987 RMK AO2 T02360077 10259 20233 402590140,KCGS,2023-06-05T23:50:00Z,38.98,-76.92,23.6,7.7,350,5,,10.0,29.870079,,,TRUE,TRUE,,,,,,,CLR,,,,,,,,VFR,,25.9,23.3,25.9,14.0,,,,,,,METAR,15.0
KCCB 052350Z AUTO 27013KT 10SM OVC016 16/12 A2989 RMK AO2,KCCB,2023-06-05T23:50:00Z,34.12,-117.68,16.0,12.0,270,13,,10.0,29.890747,,,TRUE,TRUE,,,,,,,OVC,1600,,,,,,,MVFR,,,,,,,,,,,,METAR,440.0
KBMC 052350Z AUTO 00000KT 10SM CLR 28/M02 A2996 RMK AO1 T02781022,KBMC,2023-06-05T23:50:00Z,41.55,-112.07,27.8,-2.2,0,0,,10.0,29.958662,,,TRUE,TRUE,,,,,,,CLR,,,,,,,,VFR,,,,,,,,,,,,METAR,1289.0
KBBG 052350Z 00000KT 10SM CLR 27/17 A2998,KBBG,2023-06-05T23:50:00Z,36.53,-93.2,27.0,17.0,0,0,,10.0,29.97933,,,,,,,,,,,CLR,,,,,,,,VFR,,,,,,,,,,,,METAR,403.0
KAZE 052350Z AUTO 00000KT 10SM CLR 27/16 A2991 RMK AO2 T02740164 10293 20272,KAZE,2023-06-05T23:50:00Z,31.88,-82.65,27.4,16.4,0,0,,10.0,29.911417,,,TRUE,TRUE,,,,,,,CLR,,,,,,,,VFR,,29.3,27.2,,,,,,,,,METAR,78.0
KANK 052350Z AUTO 11012G15KT 10SM CLR A3035 RMK AO1,KANK,2023-06-05T23:50:00Z,38.53,-106.05,,,110,12,15,10.0,30.351377,,,TRUE,TRUE,,,,,,,CLR,,,,,,,,VFR,,,,,,,,,,,,METAR,2293.0
KALN 052350Z 07006KT 10SM CLR 26/06 A2998,KALN,2023-06-05T23:50:00Z,38.88,-90.03,26.0,6.0,70,6,,10.0,29.97933,,,,,,,,,,,CLR,,,,,,,,VFR,,,,,,,,,,,,METAR,159.0
KAFP 052350Z AUTO 00000KT 10SM SCT034 23/16 A2992 RMK AO2 T02260155 10248 20220,KAFP,2023-06-05T23:50:00Z,35.02,-80.08,22.6,15.5,0,0,,10.0,29.920275,,,TRUE,TRUE,,,,,,,SCT,3400,,,,,,,VFR,,24.8,22.0,,,,,,,,,METAR,91.0
KADM 052350Z 00000KT 10SM CLR 22/19 A2992,KADM,2023-06-05T23:50:00Z,34.3,-97.02,22.0,19.0,0,0,,10.0,29.920275,,,,,,,,,,,CLR,,,,,,,,VFR,,,,,,,,,,,,METAR,223.0
K9S9 052350Z AUTO 05005G15KT 10SM CLR 30/02 A2994 RMK AO2 PWINO,K9S9,2023-06-05T23:50:00Z,45.45,-119.68,30.0,2.0,50,5,15,10.0,29.940945,,,TRUE,TRUE,,,,,TRUE,,CLR,,,,,,,,VFR,,,,,,,,,,,,METAR,498.0
K36K 052350Z AUTO 13013KT 10SM SCT065 26/13 A3012 RMK AO2 LTG DSNT NE AND E,K36K,2023-06-05T23:50:00Z,37.97,-101.25,26.0,13.0,130,13,,10.0,30.121063,,,TRUE,TRUE,,,,,,,SCT,6500,,,,,,,VFR,,,,,,,,,,,,METAR,938.0
K1A5 052350Z AUTO 00000KT 10SM CLR 24/15 A2999 RMK AO2 T02410147 10282 20239,K1A5,2023-06-05T23:50:00Z,35.22,-83.42,24.1,14.7,0,0,,10.0,29.991142,,,TRUE,TRUE,,,,,,,CLR,,,,,,,,VFR,,28.2,23.9,,,,,,,,,METAR,611.0
K19S 052350Z AUTO 21008KT 10SM SCT075 SCT090 OVC120 17/ A3009 RMK AO2 P0009 T0168//// 10267 20161 402670131 60018,K19S,2023-06-05T23:50:00Z,37.48,-100.83,16.8,,210,8,,10.0,30.088583,,,TRUE,TRUE,,,,,,,SCT,7500,SCT,9000,OVC,12000,,,VFR,,26.7,16.1,26.7,13.1,0.09,,0.18,,,,METAR,886.0
FHAW 052350Z 14010KT 9999 FEW030 25/19 Q1016 NOSIG RMK BLU BLU,FHAW,2023-06-05T23:50:00Z,-7.97,-14.4,25.0,19.0,140,10,,6.21,30.0,,,,,,TRUE,,,,,FEW,3000,,,,,,,VFR,,,,,,,,,,,,METAR,79.0
EYVI 052350Z VRB01KT CAVOK 08/04 Q1023 NOSIG,EYVI,2023-06-05T23:50:00Z,54.63,25.28,8.0,4.0,0,1,,6.21,30.206694,,,,,,TRUE,,,,,CAVOK,,,,,,,,VFR,,,,,,,,,,,,METAR,180.0
EYSA 052350Z AUTO 18002KT 9999NDV NCD 10/04 Q1023,EYSA,2023-06-05T23:50:00Z,55.9,23.4,10.0,4.0,180,2,,,30.206694,,,TRUE,,,,,,,,CLR,,,,,,,,,,,,,,,,,,,,METAR,135.0
EYPA 052350Z VRB01KT CAVOK 06/04 Q1022,EYPA,2023-06-05T23:50:00Z,55.97,21.08,6.0,4.0,0,1,,6.21,30.177166,,,,,,,,,,,CAVOK,,,,,,,,VFR,,,,,,,,,,,,METAR,15.0
EYKA 052350Z VRB01KT CAVOK 06/03 Q1023,EYKA,2023-06-05T23:50:00Z,54.97,24.08,6.0,3.0,0,1,,6.21,30.206694,,,,,,,,,,,CAVOK,,,,,,,,VFR,,,,,,,,,,,,METAR,68.0
EVVA 052350Z AUTO 00000KT 1000 PRFG NSC 04/04 Q1021,EVVA,2023-06-05T23:50:00Z,57.35,21.55,4.0,4.0,0,0,,0.62,30.147638,,,TRUE,,,,,,,PRFG,CLR,,,,,,,,LIFR,,,,,,,,,,,,METAR,1.0
EVRA 052350Z 17002KT CAVOK 07/05 Q1022 NOSIG,EVRA,2023-06-05T23:50:00Z,56.92,23.97,7.0,5.0,170,2,,6.21,30.177166,,,,,,TRUE,,,,,CAVOK,,,,,,,,VFR,,,,,,,,,,,,METAR,7.0
EVLA 052350Z AUTO 08002KT CAVOK 04/03 Q1022,EVLA,2023-06-05T23:50:00Z,56.52,21.1,4.0,3.0,80,2,,6.21,30.177166,,,TRUE,,,,,,,,CAVOK,,,,,,,,VFR,,,,,,,,,,,,METAR,5.0
EVGA 052350Z AUTO 00000KT CAVOK 07/06 Q1022,EVGA,2023-06-05T23:50:00Z,56.78,24.85,7.0,6.0,0,0,,6.21,30.177166,,,TRUE,,,,,,,,CAVOK,,,,,,,,VFR,,,,,,,,,,,,METAR,61.0
ESUT 052350Z AUTO 30006KT 9999 BKN021/// OVC025/// 02/M01 Q1018,ESUT,2023-06-05T23:50:00Z,65.8,15.08,2.0,-1.0,300,6,,6.21,30.059055,,,TRUE,,,,,,,,BKN,2100,OVC,2500,,,,,MVFR,,,,,,,,,,,,METAR,457.0
ESUP 052350Z AUTO 30008KT 9999 NCD 03/00 Q1013,ESUP,2023-06-05T23:50:00Z,67.25,23.07,3.0,0.0,300,8,,6.21,29.911417,,,TRUE,,,,,,,,CLR,,,,,,,,VFR,,,,,,,,,,,,METAR,164.0
ESTL 052350Z AUTO 08002KT 9999 NCD 09/09 Q1021,ESTL,2023-06-05T23:50:00Z,56.07,13.2,9.0,9.0,80,2,,6.21,30.147638,,,TRUE,,,,,,,,CLR,,,,,,,,VFR,,,,,,,,,,,,METAR,39.0
ESTA 052350Z AUTO 00000KT 9999 NCD 09/08 Q1021,ESTA,2023-06-05T23:50:00Z,56.28,12.83,9.0,8.0,0,0,,6.21,30.147638,,,TRUE,,,,,,,,CLR,,,,,,,,VFR,,,,,,,,,,,,METAR,19.0
ESSV 052350Z AUTO 20011KT 9999 NCD 12/08 Q1019,ESSV,2023-06-05T23:50:00Z,57.67,18.35,12.0,8.0,200,11,,6.21,30.088583,,,TRUE,,,,,,,,CLR,,,,,,,,VFR,,,,,,,,,,,,METAR,38.0
ESST 052350Z AUTO VRB02KT 9999 NCD 11/06 Q1017,ESST,2023-06-05T23:50:00Z,60.15,12.98,11.0,6.0,0,2,,6.21,30.029528,,,TRUE,,,,,,,,CLR,,,,,,,,VFR,,,,,,,,,,,,METAR,110.0
ESSP 052350Z AUTO VRB02KT 9999 NCD 10/05 Q1018,ESSP,2023-06-05T23:50:00Z,58.58,16.25,10.0,5.0,0,2,,6.21,30.059055,,,TRUE,,,,,,,,CLR,,,,,,,,VFR,,,,,,,,,,,,METAR,3.0
ESSL 052350Z AUTO 23003KT 9999 NCD 12/07 Q1019,ESSL,2023-06-05T23:50:00Z,58.4,15.67,12.0,7.0,230,3,,6.21,30.088583,,,TRUE,,,,,,,,CLR,,,,,,,,VFR,,,,,,,,,,,,METAR,51.0
ESSD 052350Z AUTO 08002KT 9999 NCD 12/05 Q1018,ESSD,2023-06-05T23:50:00Z,60.42,15.5,12.0,5.0,80,2,,6.21,30.059055,,,TRUE,,,,,,,,CLR,,,,,,,,VFR,,,,,,,,,,,,METAR,151.0
ESSB 052350Z AUTO 22003KT 9999 NCD 12/08 Q1017,ESSB,2023-06-05T23:50:00Z,59.35,17.93,12.0,8.0,220,3,,6.21,30.029528,,,TRUE,,,,,,,,CLR,,,,,,,,VFR,,,,,,,,,,,,METAR,14.0
ESSA 052350Z 36004KT CAVOK 09/05 Q1017 NOSIG,ESSA,2023-06-05T23:50:00Z,59.65,17.93,9.0,5.0,360,4,,6.21,30.029528,,,,,,TRUE,,,,,CAVOK,,,,,,,,VFR,,,,,,,,,,,,METAR,36.0
ESPE 052350Z AUTO 29004KT 9999 NCD 04/M01 Q1016,ESPE,2023-06-05T23:50:00Z,65.88,20.15,4.0,-1.0,290,4,,6.21,30.0,,,TRUE,,,,,,,,CLR,,,,,,,,VFR,,,,,,,,,,,,METAR,182.0
ESPA 052350Z AUTO 31011KT 9999 NCD 07/M01 Q1015,ESPA,2023-06-05T23:50:00Z,65.53,22.12,7.0,-1.0,310,11,,6.21,29.970472,,,TRUE,,,,,,,,CLR,,,,,,,,VFR,,,,,,,,,,,,METAR,12.0
ESOW 052350Z AUTO VRB03KT 9999 NCD 11/06 Q1018,ESOW,2023-06-05T23:50:00Z,59.58,16.63,11.0,6.0,0,3,,6.21,30.059055,,,TRUE,,,,,,,,CLR,,,,,,,,VFR,,,,,,,,,,,,METAR,7.0
ESOK 052350Z AUTO 21006KT 9999 NCD 10/05 Q1018,ESOK,2023-06-05T23:50:00Z,59.45,13.33,10.0,5.0,210,6,,6.21,30.059055,,,TRUE,,,,,,,,CLR,,,,,,,,VFR,,,,,,,,,,,,METAR,101.0
ESOH 052350Z AUTO 00000KT 9999 NCD 07/04 Q1017,ESOH,2023-06-05T23:50:00Z,60.02,13.58,7.0,4.0,0,0,,6.21,30.029528,,,TRUE,,,,,,,,CLR,,,,,,,,VFR,,,,,,,,,,,,METAR,145.0
ESOE 052350Z AUTO 23006KT 9999 NCD 12/07 Q1018,ESOE,2023-06-05T23:50:00Z,59.22,15.05,12.0,7.0,230,6,,6.21,30.059055,,,TRUE,,,,,,,,CLR,,,,,,,,VFR,,,,,,,,,,,,METAR,57.0
ESNZ 052350Z AUTO 29009KT 9999 OVC022/// 06/M07 Q1019,ESNZ,2023-06-05T23:50:00Z,63.18,14.5,6.0,-7.0,290,9,,6.21,30.088583,,,TRUE,,,,,,,,OVC,2200,,,,,,,MVFR,,,,,,,,,,,,METAR,360.0
ESNX 052350Z AUTO 30010KT 9999 NCD 04/M02 Q1016,ESNX,2023-06-05T23:50:00Z,65.58,19.28,4.0,-2.0,300,10,,6.21,30.0,,,TRUE,,,,,,,,CLR,,,,,,,,VFR,,,,,,,,,,,,METAR,380.0
ESNV 052350Z AUTO VRB01KT 9999 NCD 02/M02 Q1018,ESNV,2023-06-05T23:50:00Z,64.58,16.83,2.0,-2.0,0,1,,6.21,30.059055,,,TRUE,,,,,,,,CLR,,,,,,,,VFR,,,,,,,,,,,,METAR,348.0
ESNU 052350Z AUTO 30007KT 9999 NCD 05/M02 Q1017,ESNU,2023-06-05T23:50:00Z,63.78,20.28,5.0,-2.0,300,7,,6.21,30.029528,,,TRUE,,,,,,,,CLR,,,,,,,,VFR,,,,,,,,,,,,METAR,8.0
ESNS 052350Z AUTO 27008KT 9999 NCD 06/M02 Q1016,ESNS,2023-06-05T23:50:00Z,64.62,21.07,6.0,-2.0,270,8,,6.21,30.0,,,TRUE,,,,,,,,CLR,,,,,,,,VFR,,,,,,,,,,,,METAR,41.0
ESNQ 052350Z AUTO 29006KT 9999 SCT038/// 02/M01 Q1013,ESNQ,2023-06-05T23:50:00Z,67.82,20.33,2.0,-1.0,290,6,,6.21,29.911417,,,TRUE,,,,,,,,SCT,3800,,,,,,,VFR,,,,,,,,,,,,METAR,447.0
ESNO 052350Z AUTO 32010KT 9999 SCT160/// 07/00 Q1018,ESNO,2023-06-05T23:50:00Z,63.4,18.97,7.0,0.0,320,10,,6.21,30.059055,,,TRUE,,,,,,,,SCT,16000,,,,,,,VFR,,,,,,,,,,,,METAR,100.0
ESNN 052350Z AUTO 31005KT 260V350 9999 OVC140/// 10/M00 Q1019,ESNN,2023-06-05T23:50:00Z,62.52,17.43,10.0,0.0,310,5,,6.21,30.088583,,,TRUE,,,,,,,,OVC,14000,,,,,,,VFR,,,,,,,,,,,,METAR,4.0
ESNL 052350Z AUTO VRB02KT 9999 NCD 02/M02 Q1018,ESNL,2023-06-05T23:50:00Z,64.55,18.72,2.0,-2.0,0,2,,6.21,30.059055,,,TRUE,,,,,,,,CLR,,,,,,,,VFR,,,,,,,,,,,,METAR,220.0
ESNK 052350Z AUTO 36008KT 9999 OVC130/// ///// Q1019,ESNK,2023-06-05T23:50:00Z,63.03,17.77,,,360,8,,6.21,30.088583,,,TRUE,,,,,,,,OVC,13000,,,,,,,VFR,,,,,,,,,,,,METAR,4.0
ESNG 052350Z AUTO 30007KT 9999 OVC053/// 05/M02 Q1014,ESNG,2023-06-05T23:50:00Z,67.13,20.82,5.0,-2.0,300,7,,6.21,29.940945,,,TRUE,,,,,,,,OVC,5300,,,,,,,VFR,,,,,,,,,,,,METAR,300.0
ESND 052350Z AUTO 00000KT 9999 OVC082/// 06/03 Q1020,ESND,2023-06-05T23:50:00Z,62.05,14.42,6.0,3.0,0,0,,6.21,30.11811,,,TRUE,,,,,,,,OVC,8200,,,,,,,VFR,,,,,,,,,,,,METAR,352.0
ESMX 052350Z AUTO 18001KT 9999 NCD 10/07 Q1020,ESMX,2023-06-05T23:50:00Z,56.92,14.72,10.0,7.0,180,1,,6.21,30.11811,,,TRUE,,,,,,,,CLR,,,,,,,,VFR,,,,,,,,,,,,METAR,176.0
ESMT 052350Z AUTO VRB01KT 0050 R01/0200N R19/0350N FG FEW001/// 09/09 Q1021,ESMT,2023-06-05T23:50:00Z,56.68,12.82,9.0,9.0,0,1,,0.03,30.147638,,,TRUE,,,,,,,FG,FEW,100,,,,,,,LIFR,,,,,,,,,,,,METAR,24.0
ESMS 052350Z 12002KT 5000 BR NSC 08/07 Q1021,ESMS,2023-06-05T23:50:00Z,55.53,13.37,8.0,7.0,120,2,,3.11,30.147638,,,,,,,,,,BR,CLR,,,,,,,,MVFR,,,,,,,,,,,,METAR,68.0
ESMQ 052350Z AUTO 19006KT 9999 NCD 11/08 Q1020,ESMQ,2023-06-05T23:50:00Z,56.68,16.3,11.0,8.0,190,6,,6.21,30.11811,,,TRUE,,,,,,,,CLR,,,,,,,,VFR,,,,,,,,,,,,METAR,3.0
ESMK 052350Z AUTO 27003KT 9999 NCD 12/08 Q1020,ESMK,2023-06-05T23:50:00Z,55.92,14.08,12.0,8.0,270,3,,6.21,30.11811,,,TRUE,,,,,,,,CLR,,,,,,,,VFR,,,,,,,,,,,,METAR,20.0
ESKS 052350Z AUTO 03008KT 350V070 3100 HZ NCD 10/03 Q1018,ESKS,2023-06-05T23:50:00Z,61.17,12.83,10.0,3.0,30,8,,1.93,30.059055,,,TRUE,,,,,,,HZ,CLR,,,,,,,,IFR,,,,,,,,,,,,METAR,503.0
ESKN 052350Z 25002KT CAVOK 12/07 Q1018,ESKN,2023-06-05T23:50:00Z,58.78,16.92,12.0,7.0,250,2,,6.21,30.059055,,,,,,,,,,,CAVOK,,,,,,,,VFR,,,,,,,,,,,,METAR,41.0
ESKM 052350Z AUTO 36004KT 330V070 9999 NCD 11/04 Q1019,ESKM,2023-06-05T23:50:00Z,60.97,14.52,11.0,4.0,360,4,,6.21,30.088583,,,TRUE,,,,,,,,CLR,,,,,,,,VFR,,,,,,,,,,,,METAR,184.0
ESIB 052350Z AUTO 19005KT 9999 NCD 11/10 Q1019,ESIB,2023-06-05T23:50:00Z,58.42,12.7,11.0,10.0,190,5,,6.21,30.088583,,,TRUE,,,,,,,,CLR,,,,,,,,VFR,,,,,,,,,,,,METAR,51.0
ESIA 052350Z AUTO 20001KT 9999 NCD 10/07 Q1019,ESIA,2023-06-05T23:50:00Z,58.52,14.5,10.0,7.0,200,1,,6.21,30.088583,,,TRUE,,,,,,,,CLR,,,,,,,,VFR,,,,,,,,,,,,METAR,94.0
ESGT 052350Z AUTO 16005KT 9999 R15///// R33///// NCD 10/08 Q1019,ESGT,2023-06-05T23:50:00Z,58.32,12.33,10.0,8.0,160,5,,6.21,30.088583,,,TRUE,,,,,,,,CLR,,,,,,,,VFR,,,,,,,,,,,,METAR,40.0
ESGP 052350Z AUTO 16002KT 0050 R01/0225N R19/P2000N NCD 12/10 Q1019,ESGP,2023-06-05T23:50:00Z,57.77,11.87,12.0,10.0,160,2,,0.03,30.088583,,,TRUE,,,,,,,,CLR,,,,,,,,LIFR,,,,,,,,,,,,METAR,15.0
ESGJ 052350Z 19003KT CAVOK 06/05 Q1020,ESGJ,2023-06-05T23:50:00Z,57.77,14.07,6.0,5.0,190,3,,6.21,30.11811,,,,,,,,,,,CAVOK,,,,,,,,VFR,,,,,,,,,,,,METAR,224.0
ESGG 052350Z 20007KT CAVOK 10/09 Q1019,ESGG,2023-06-05T23:50:00Z,57.67,12.3,10.0,9.0,200,7,,6.21,30.088583,,,,,,,,,,,CAVOK,,,,,,,,VFR,,,,,,,,,,,,METAR,152.0
ESDF 052350Z AUTO 08002KT 9999 NCD 09/09 Q1020,ESDF,2023-06-05T23:50:00Z,56.27,15.27,9.0,9.0,80,2,,6.21,30.11811,,,TRUE,,,,,,,,CLR,,,,,,,,VFR,,,,,,,,,,,,METAR,52.0
ESCM 052350Z AUTO 00000KT 9999 FEW070/// 09/07 Q1017,ESCM,2023-06-05T23:50:00Z,59.88,17.6,9.0,7.0,0,0,,6.21,30.029528,,,TRUE,,,,,,,,FEW,7000,,,,,,,VFR,,,,,,,,,,,,METAR,21.0
ESCF 052350Z AUTO 20004KT 9999 NCD 10/07 Q1019,ESCF,2023-06-05T23:50:00Z,58.38,15.52,10.0,7.0,200,4,,6.21,30.088583,,,TRUE,,,,,,,,CLR,,,,,,,,VFR,,,,,,,,,,,,METAR,86.0
ENZV 052350Z 34012KT CAVOK 09/07 Q1022,ENZV,2023-06-05T23:50:00Z,58.88,5.63,9.0,7.0,340,12,,6.21,30.177166,,,,,,,,,,,CAVOK,,,,,,,,VFR,,,,,,,,,,,,METAR,7.0
ENWV 052350Z AUTO 34017KT 9999NDV OVC018/// 10/07 Q1025 W///S3,ENWV,2023-06-05T23:50:00Z,56.28,3.4,10.0,7.0,340,17,,,30.265747,,,TRUE,,,,,,,,OVC,1800,,,,,,,,,,,,,,,,,,,METAR,30.0
ENVD 052350Z AUTO 33016KT 9999 FEW049/// SCT110/// 03/M01 Q1007,ENVD,2023-06-05T23:50:00Z,70.07,29.85,3.0,-1.0,330,16,,6.21,29.734253,,,TRUE,,,,,,,,FEW,4900,SCT,11000,,,,,VFR,,,,,,,,,,,,METAR,39.0
ENVA 052350Z AUTO VRB02KT 9999 -DZRA FEW020/// 08/07 Q1021 RMK WIND 670FT 22009KT,ENVA,2023-06-05T23:50:00Z,63.47,10.92,8.0,7.0,0,2,,6.21,30.147638,,,TRUE,,,,,,,-DZ -RA,FEW,2000,,,,,,,VFR,,,,,,,,,,,,METAR,12.0
ENUN 052350Z AUTO VRB02KT 9999NDV FEW021/// BKN034/// OVC076/// 06/01 Q1019 W07/S6,ENUN,2023-06-05T23:50:00Z,,,6.0,1.0,0,2,,,30.088583,,,TRUE,,,,,,,,FEW,2100,BKN,3400,OVC,7600,,,,,,,,,,,,,,,METAR,
ENUG 052350Z AUTO 36017KT 340V050 9999NDV OVC020/// 03/M02 Q1013 W///S4,ENUG,2023-06-05T23:50:00Z,71.3,22.25,3.0,-2.0,360,17,,,29.911417,,,TRUE,,,,,,,,OVC,2000,,,,,,,,,,,,,,,,,,,METAR,30.0
ENTO 052350Z AUTO 22005KT 9999 OVC005/// 12/12 Q1017,ENTO,2023-06-05T23:50:00Z,59.2,10.27,12.0,12.0,220,5,,6.21,30.029528,,,TRUE,,,,,,,,OVC,500,,,,,,,IFR,,,,,,,,,,,,METAR,84.0
ENTC 052350Z 19005KT 9999 -SHRA FEW006 SCT025 BKN032 06/03 Q1015 RMK WIND 2600FT 31017KT,ENTC,2023-06-05T23:50:00Z,69.68,18.92,6.0,3.0,190,5,,6.21,29.970472,,,,,,,,,,-SHRA,FEW,600,SCT,2500,BKN,3200,,,VFR,,,,,,,,,,,,METAR,9.0
ENSS 052350Z AUTO 34024KT 9999 FEW019/// BKN040/// OVC098/// 03/00 Q1006 RMK WIND 0500FT 35029G41KT,ENSS,2023-06-05T23:50:00Z,70.35,31.05,3.0,0.0,340,24,,6.21,29.704725,,,TRUE,,,,,,,,FEW,1900,BKN,4000,OVC,9800,,,VFR,,,,,,,,,,,,METAR,13.0
ENSR 052350Z AUTO 36009KT 9999 -RA OVC011/// 04/03 Q1015 RMK WIND RWY32 35008KT WIND 1118FT 28005KT,ENSR,2023-06-05T23:50:00Z,69.78,20.97,4.0,3.0,360,9,,6.21,29.970472,,,TRUE,,,,,,,-RA,OVC,1100,,,,,,,MVFR,,,,,,,,,,,,METAR,5.0
ENSL 052350Z AUTO 33016KT 9999NDV OVC019/// 11/06 Q1026 W08/S3,ENSL,2023-06-05T23:50:00Z,58.37,1.9,11.0,6.0,330,16,,,30.295275,,,TRUE,,,,,,,,OVC,1900,,,,,,,,,,,,,,,,,,,METAR,50.0
ENSK 052350Z AUTO 31005KT 9999 OVC019/// 05/02 Q1018,ENSK,2023-06-05T23:50:00Z,68.57,15.02,5.0,2.0,310,5,,6.21,30.059055,,,TRUE,,,,,,,,OVC,1900,,,,,,,MVFR,,,,,,,,,,,,METAR,3.0
ENSH 052350Z AUTO VRB02KT 9999 -DZ SCT035/// 04/02 Q1018 RMK WIND 0150FT 31006KT,ENSH,2023-06-05T23:50:00Z,68.25,14.67,4.0,2.0,0,2,,6.21,30.059055,,,TRUE,,,,,,,-DZ,SCT,3500,,,,,,,VFR,,,,,,,,,,,,METAR,9.0
ENSG 052350Z AUTO 27012KT 240V310 9999 NCD 08/03 Q1021 RMK WIND 3806FT 27012KT,ENSG,2023-06-05T23:50:00Z,61.15,7.13,8.0,3.0,270,12,,6.21,30.147638,,,TRUE,,,,,,,,CLR,,,,,,,,VFR,,,,,,,,,,,,METAR,493.0
ENSF 052350Z AUTO 27014KT 9999NDV NCD ///// Q//// W///S3,ENSF,2023-06-05T23:50:00Z,61.25,1.85,,,270,14,,,,,,TRUE,,,,,,,,CLR,,,,,,,,,,,,,,,,,,,,METAR,15.0
ENSE 052350Z AUTO 27014KT //// /// ///// Q//// W///S/,ENSE,2023-06-05T23:50:00Z,61.45,2.15,,,270,14,,,,,,TRUE,,,,,,,,,,,,,,,,,,,,,,,,,,,,METAR,10.0
ENSD 052350Z AUTO 28007KT 9999 BKN040/// OVC059/// 10/06 Q1024 RMK WIND RWY26 27007KT WIND 1140FT 24003KT,ENSD,2023-06-05T23:50:00Z,61.82,6.12,10.0,6.0,280,7,,6.21,30.236221,,,TRUE,,,,,,,,BKN,4000,OVC,5900,,,,,VFR,,,,,,,,,,,,METAR,61.0
ENSB 052350Z VRB03KT 9999 FEW025 02/M02 Q1014 RMK WIND 1400FT 05006KT,ENSB,2023-06-05T23:50:00Z,78.25,15.47,2.0,-2.0,0,3,,6.21,29.940945,,,,,,,,,,,FEW,2500,,,,,,,VFR,,,,,,,,,,,,METAR,30.0
ENRY 052350Z AUTO 15004KT 110V170 8000 SCT009/// 12/11 Q1018,ENRY,2023-06-05T23:50:00Z,59.37,10.77,12.0,11.0,150,4,,4.97,30.059055,,,TRUE,,,,,,,,SCT,900,,,,,,,MVFR,,,,,,,,,,,,METAR,45.0
ENRS 052350Z AUTO 26009KT 9999 SCT020/// OVC048/// 05/02 Q1020,ENRS,2023-06-05T23:50:00Z,67.52,12.1,5.0,2.0,260,9,,6.21,30.11811,,,TRUE,,,,,,,,SCT,2000,OVC,4800,,,,,VFR,,,,,,,,,,,,METAR,4.0
ENRO 052350Z AUTO 00000KT 9999 -DZ SCT005/// BKN012/// OVC021/// 05/04 Q1020,ENRO,2023-06-05T23:50:00Z,62.57,11.33,5.0,4.0,0,0,,6.21,30.11811,,,TRUE,,,,,,,-DZ,SCT,500,BKN,1200,OVC,2100,,,MVFR,,,,,,,,,,,,METAR,624.0
ENRM 052350Z AUTO VRB02KT 9999 -DZ SCT009/// OVC013/// 06/04 Q1020,ENRM,2023-06-05T23:50:00Z,64.83,11.13,6.0,4.0,0,2,,6.21,30.11811,,,TRUE,,,,,,,-DZ,SCT,900,OVC,1300,,,,,MVFR,,,,,,,,,,,,METAR,4.0
ENRA 052350Z AUTO 00000KT 9999 OVC045/// 03/01 Q1020,ENRA,2023-06-05T23:50:00Z,66.37,14.3,3.0,1.0,0,0,,6.21,30.11811,,,TRUE,,,,,,,,OVC,4500,,,,,,,VFR,,,,,,,,,,,,METAR,66.0
ENQR 052350Z AUTO 26014KT 9999NDV NCD 10/08 Q1024 W11/S3,ENQR,2023-06-05T23:50:00Z,61.52,2.22,10.0,8.0,260,14,,,30.236221,,,TRUE,,,,,,,,CLR,,,,,,,,,,,,,,,,,,,,METAR,10.0
ENQC 052350Z AUTO 31015KT 9999NDV FEW034/// 11/08 Q1024 W///S3,ENQC,2023-06-05T23:50:00Z,60.88,3.62,11.0,8.0,310,15,,,30.236221,,,TRUE,,,,,,,,FEW,3400,,,,,,,,,,,,,,,,,,,METAR,20.0
ENQA 052350Z AUTO 34018KT 9999NDV NCD 09/07 Q1025 W12/S3,ENQA,2023-06-05T23:50:00Z,60.65,3.72,9.0,7.0,340,18,,,30.265747,,,TRUE,,,,,,,,CLR,,,,,,,,,,,,,,,,,,,,METAR,90.0
ENOV 052350Z AUTO 00000KT 9999 OVC029/// 08/06 Q1024 RMK WIND RWY24 00000KT WIND 2090FT 21010KT,ENOV,2023-06-05T23:50:00Z,62.17,6.07,8.0,6.0,0,0,,6.21,30.236221,,,TRUE,,,,,,,,OVC,2900,,,,,,,MVFR,,,-1.0,,,,,,,,,METAR,72.0
ENOL 052350Z 24008KT 9999 FEW008 SCT012 BKN030 08/07 Q1021,ENOL,2023-06-05T23:50:00Z,63.7,9.6,8.0,7.0,240,8,,6.21,30.147638,,,,,,,,,,,FEW,800,SCT,1200,BKN,3000,,,MVFR,,,,,,,,,,,,METAR,9.0
ENNM 052350Z AUTO 06007KT 9999 DZ SCT005/// BKN010/// OVC017/// 06/05 Q1020,ENNM,2023-06-05T23:50:00Z,64.47,11.57,6.0,5.0,60,7,,6.21,30.11811,,,TRUE,,,,,,,DZ,SCT,500,BKN,1000,OVC,1700,,,MVFR,,,,,,,,,,,,METAR,2.0
ENNE 052350Z AUTO 11007KT 9999NDV BKN023/// 06/02 Q1019 W///S4,ENNE,2023-06-05T23:50:00Z,66.03,8.08,6.0,2.0,110,7,,,30.088583,,,TRUE,,,,,,,,BKN,2300,,,,,,,,,,,,,,,,,,,METAR,10.0
ENNA 052350Z AUTO 33015KT 9999 FEW027/// OVC038/// 04/M01 Q1013 RMK WIND 1800FT 32020KT,ENNA,2023-06-05T23:50:00Z,70.07,24.97,4.0,-1.0,330,15,,6.21,29.911417,,,TRUE,,,,,,,,FEW,2700,OVC,3800,,,,,VFR,,,,,,,,,,,,METAR,12.0
ENMS 052350Z AUTO VRB02KT 9999 FEW026/// OVC038/// 04/02 Q1020 RMK WIND 412FT VRB02KT,ENMS,2023-06-05T23:50:00Z,65.78,13.22,4.0,2.0,0,2,,6.21,30.11811,,,TRUE,,,,,,,,FEW,2600,OVC,3800,,,,,VFR,,,,,,,,,,,,METAR,44.0
ENML 052350Z AUTO 26011KT 9999NDV SCT028/// BKN037/// OVC066/// 10/06 Q1022,ENML,2023-06-05T23:50:00Z,62.75,7.27,10.0,6.0,260,11,,,30.177166,,,TRUE,,,,,,,,SCT,2800,BKN,3700,OVC,6600,,,,,,,,,,,,,,,METAR,3.0
ENMH 052350Z AUTO 36022KT 9999 OVC035/// 03/00 Q1010,ENMH,2023-06-05T23:50:00Z,71.02,27.82,3.0,0.0,360,22,,6.21,29.822834,,,TRUE,,,,,,,,OVC,3500,,,,,,,VFR,,,,,,,,,,,,METAR,10.0
ENLE 052350Z 35020KT 9999 BKN020 09/05 Q1025 W11/S3,ENLE,2023-06-05T23:50:00Z,56.53,3.22,9.0,5.0,350,20,,6.21,30.265747,,,,,,,,,,,BKN,2000,,,,,,,MVFR,,,,,,,,,,,,METAR,10.0
ENLA 052350Z AUTO 32018KT 9999NDV OVC018/// 10/07 Q1024 W///S3,ENLA,2023-06-05T23:50:00Z,57.1,2.83,10.0,7.0,320,18,,,30.236221,,,TRUE,,,,,,,,OVC,1800,,,,,,,,,,,,,,,,,,,METAR,10.0
ENKR 052350Z 33016KT 9999 SCT018 BKN031 03/M00 Q1007 RMK WIND 731FT 33022KT,ENKR,2023-06-05T23:50:00Z,69.72,29.88,3.0,0.0,330,16,,6.21,29.734253,,,,,,,,,,,SCT,1800,BKN,3100,,,,,VFR,,,,,,,,,,,,METAR,86.0
ENKB 052350Z AUTO 23010KT 200V260 9999 FEW006/// SCT008/// OVC014/// 09/06 Q1022 RMK WIND 745FT 23019KT,ENKB,2023-06-05T23:50:00Z,63.12,7.82,9.0,6.0,230,10,,6.21,30.177166,,,TRUE,,,,,,,,FEW,600,SCT,800,OVC,1400,,,MVFR,,,,,,,,,,,,METAR,62.0
ENJS 052350Z 36020KT 9999 BKN021 10/06 Q1026 W11/S/,ENJS,2023-06-05T23:50:00Z,,,10.0,6.0,360,20,,6.21,30.295275,,,,,,,,,,,BKN,2100,,,,,,,MVFR,,,,,,,,,,,,METAR,
ENHV 052350Z AUTO 34019KT 9999 FEW007/// SCT026/// BKN037/// 04/M00 Q1012 REDZ,ENHV,2023-06-05T23:50:00Z,71.02,25.97,4.0,0.0,340,19,,6.21,29.88189,,,TRUE,,,,,,,,FEW,700,SCT,2600,BKN,3700,,,VFR,,,,,,,,,,,,METAR,13.0
ENHM 052350Z AUTO 35014KT //// OVC026/// 10/10 Q1026 W10/S/,ENHM,2023-06-05T23:50:00Z,59.57,2.23,10.0,10.0,350,14,,,30.295275,,,TRUE,,,,,,,,OVC,2600,,,,,,,,,,,,,,,,,,,METAR,10.0
ENHK 052350Z AUTO 35004KT 300V040 9999 BKN032/// 04/M00 Q1014,ENHK,2023-06-05T23:50:00Z,70.48,22.13,4.0,0.0,350,4,,6.21,29.940945,,,TRUE,,,,,,,,BKN,3200,,,,,,,VFR,,,,,,,,,,,,METAR,6.0
ENHF 052350Z VRB07KT 9999 FEW020 BKN028 03/M01 Q1013 RMK WIND 1254FT 34024KT,ENHF,2023-06-05T23:50:00Z,70.67,23.67,3.0,-1.0,0,7,,6.21,29.911417,,,,,,,,,,,FEW,2000,BKN,2800,,,,,MVFR,,,,,,,,,,,,METAR,79.0
ENHE 052350Z 11011KT 9999 OVC006 06/05 Q1018 W///S4,ENHE,2023-06-05T23:50:00Z,65.33,2.33,6.0,5.0,110,11,,6.21,30.059055,,,,,,,,,,,OVC,600,,,,,,,IFR,,,,,,,,,,,,METAR,10.0
ENHD 052350Z AUTO 35018KT 9999 NCD 09/06 Q1022,ENHD,2023-06-05T23:50:00Z,59.35,5.22,9.0,6.0,350,18,,6.21,30.177166,,,TRUE,,,,,,,,CLR,,,,,,,,VFR,,,,,,,,,,,,METAR,22.0
ENGM 052350Z 20006KT CAVOK 10/07 Q1017,ENGM,2023-06-05T23:50:00Z,60.2,11.07,10.0,7.0,200,6,,6.21,30.029528,,,,,,,,,,,CAVOK,,,,,,,,VFR,,,,,,,,,,,,METAR,204.0
ENGC 052350Z 28012KT CAVOK 10/07 Q1025 W08/S3,ENGC,2023-06-05T23:50:00Z,61.02,2.02,10.0,7.0,280,12,,6.21,30.265747,,,,,,,,,,,CAVOK,,,,,,,,VFR,,,,,,,,,,,,METAR,10.0
ENFL 052350Z AUTO 30007KT 9999NDV FEW027/// OVC034/// 10/07 Q1024,ENFL,2023-06-05T23:50:00Z,61.57,5.02,10.0,7.0,300,7,,,30.236221,,,TRUE,,,,,,,,FEW,2700,OVC,3400,,,,,,,,,,,,,,,,,METAR,1.0
ENFB 052350Z AUTO 27012KT 9999NDV NCD ///// Q//// W///S3,ENFB,2023-06-05T23:50:00Z,61.2,1.83,,,270,12,,,,,,TRUE,,,,,,,,CLR,,,,,,,,,,,,,,,,,,,,METAR,10.0
ENEV 052350Z 26009KT 220V300 9999 BKN035 06/01 Q1017 RMK WIND 1400FT 24019KT,ENEV,2023-06-05T23:50:00Z,68.48,16.67,6.0,1.0,260,9,,6.21,30.029528,,,,,,,,,,,BKN,3500,,,,,,,VFR,,,,,,,,,,,,METAR,26.0
ENDU 052350Z VRB01KT 9999 FEW008 SCT020 BKN040 03/03 Q1016 RMK WIND 1100FT 27008KT WIND 2200FT 29012KT,ENDU,2023-06-05T23:50:00Z,69.05,18.55,3.0,3.0,0,1,,6.21,30.0,,,,,,,,,,,FEW,800,SCT,2000,BKN,4000,,,VFR,,,,,,,,,,,,METAR,65.0
ENDR 052350Z AUTO 24017KT 9999NDV BKN012/// OVC100/// 07/07 Q1019 W///S4,ENDR,2023-06-05T23:50:00Z,64.35,7.77,7.0,7.0,240,17,,,30.088583,,,TRUE,,,,,,,,BKN,1200,OVC,10000,,,,,,,,,,,,,,,,,METAR,10.0
ENCN 052350Z AUTO 06004KT 020V100 9999 NCD 09/08 Q1017,ENCN,2023-06-05T23:50:00Z,58.2,8.07,9.0,8.0,60,4,,6.21,30.029528,,,TRUE,,,,,,,,CLR,,,,,,,,VFR,,,,,,,,,,,,METAR,17.0
ENBV 052350Z 34023KT 9999 FEW015 SCT020 BKN040 03/M00 Q1009,ENBV,2023-06-05T23:50:00Z,70.87,29.02,3.0,0.0,340,23,,6.21,29.793306,,,,,,,,,,,FEW,1500,SCT,2000,BKN,4000,,,VFR,,,,,,,,,,,,METAR,13.0
ENBS 052350Z AUTO 33017KT 9999 FEW008/// BKN012/// BKN021/// 01/M01 Q1007,ENBS,2023-06-05T23:50:00Z,70.62,29.68,1.0,-1.0,330,17,,6.21,29.734253,,,TRUE,,,,,,,,FEW,800,BKN,1200,BKN,2100,,,MVFR,,,,,,,,,,,,METAR,144.0
ENBR 052350Z AUTO 36008KT 320V040 9999 NCD 08/07 Q1023 RMK WIND 1200FT 34020KT,ENBR,2023-06-05T23:50:00Z,60.28,5.22,8.0,7.0,360,8,,6.21,30.206694,,,TRUE,,,,,,,,CLR,,,,,,,,VFR,,,,,,,,,,,,METAR,49.0
ENBO 052350Z 26008KT 9999 SCT019 BKN037 06/02 Q1020,ENBO,2023-06-05T23:50:00Z,67.27,14.37,6.0,2.0,260,8,,6.21,30.11811,,,,,,,,,,,SCT,1900,BKN,3700,,,,,VFR,,,,,,,,,,,,METAR,13.0
ENBN 052350Z AUTO 16004KT 140V200 9999NDV SCT017/// BKN024/// OVC031/// 06/03 Q1020,ENBN,2023-06-05T23:50:00Z,65.47,12.22,6.0,3.0,160,4,,,30.11811,,,TRUE,,,,,,,,SCT,1700,BKN,2400,OVC,3100,,,,,,,,,,,,,,,METAR,3.0
ENBL 052350Z AUTO 00000KT 9999 OVC039/// 07/05 Q1023,ENBL,2023-06-05T23:50:00Z,61.4,5.77,7.0,5.0,0,0,,6.21,30.206694,,,TRUE,,,,,,,,OVC,3900,,,,,,,VFR,,,,,,,,,,,,METAR,313.0
ENAT 052350Z 35014KT 9999 SCT045 05/M00 Q1014 RMK WIND 700FT 35010KT,ENAT,2023-06-05T23:50:00Z,69.97,23.37,5.0,0.0,350,14,,6.21,29.940945,,,,,,,,,,,SCT,4500,,,,,,,VFR,,,,,,,,,,,,METAR,3.0
ENAN 052350Z AUTO 28009KT 9999 FEW004/// SCT012/// BKN023/// 06/04 Q1016,ENAN,2023-06-05T23:50:00Z,69.3,16.13,6.0,4.0,280,9,,6.21,30.0,,,TRUE,,,,,,,,FEW,400,SCT,1200,BKN,2300,,,MVFR,,,,,,,,,,,,METAR,13.0
ENAL 052350Z AUTO 22013KT 9999 BKN015/// OVC020/// 10/07 Q1023,ENAL,2023-06-05T23:50:00Z,62.57,6.12,10.0,7.0,220,13,,6.21,30.206694,,,TRUE,,,,,,,,BKN,1500,OVC,2000,,,,,MVFR,,,,,,,,,,,,METAR,21.0
ELLX 052350Z 03009KT CAVOK 16/06 Q1018 NOSIG,ELLX,2023-06-05T23:50:00Z,49.63,6.2,16.0,6.0,30,9,,6.21,30.059055,,,,,,TRUE,,,,,CAVOK,,,,,,,,VFR,,,,,,,,,,,,METAR,374.0
EKVG 052350Z AUTO 29005KT 9999 OVC005/// 09/09 Q1026 RMK FEW006/// OVC018/// WIND SKEID 28012KT,EKVG,2023-06-05T23:50:00Z,62.07,-7.27,9.0,9.0,290,5,,6.21,30.295275,,,TRUE,,,,,,,,OVC,500,,,,,,,IFR,,,,,,,,,,,,METAR,89.0
EKVD 052350Z AUTO 32004KT //// ///////// 08/07 Q1022,EKVD,2023-06-05T23:50:00Z,55.43,9.32,8.0,7.0,320,4,,,30.177166,,,TRUE,,,,,,,,,,,,,,,,,,,,,,,,,,,,METAR,41.0
EKSP 052350Z 31003KT CAVOK 08/07 Q1022 RMK SKC,EKSP,2023-06-05T23:50:00Z,55.22,9.27,8.0,7.0,310,3,,6.21,30.177166,,,,,,,,,,,CAVOK,,,,,,,,VFR,,,,,,,,,,,,METAR,40.0
EKSB 052350Z AUTO 30004KT 9999 NCD 12/10 Q1021,EKSB,2023-06-05T23:50:00Z,54.97,9.8,12.0,10.0,300,4,,6.21,30.147638,,,TRUE,,,,,,,,CLR,,,,,,,,VFR,,,,,,,,,,,,METAR,23.0
EKRS 052350Z AUTO 09000KT 9999 NCD 10/09 Q1021,EKRS,2023-06-05T23:50:00Z,55.42,11.8,10.0,9.0,90,0,,6.21,30.147638,,,TRUE,,,,,,,,CLR,,,,,,,,VFR,,,,,,,,,,,,METAR,34.0
EKRN 052350Z AUTO 06002KT 9999 NCD 10/09 Q1021,EKRN,2023-06-05T23:50:00Z,55.07,14.75,10.0,9.0,60,2,,6.21,30.147638,,,TRUE,,,,,,,,CLR,,,,,,,,VFR,,,,,,,,,,,,METAR,14.0
EKRK 052350Z AUTO 28002KT 9999 NCD 10/08 Q1021,EKRK,2023-06-05T23:50:00Z,55.58,12.13,10.0,8.0,280,2,,6.21,30.147638,,,TRUE,,,,,,,,CLR,,,,,,,,VFR,,,,,,,,,,,,METAR,40.0
EKKA 052350Z AUTO 21004KT 9999 NCD 06/05 Q1021,EKKA,2023-06-05T23:50:00Z,56.3,9.12,6.0,5.0,210,4,,6.21,30.147638,,,TRUE,,,,,,,,CLR,,,,,,,,VFR,,,,,,,,,,,,METAR,50.0
EKEB 052350Z AUTO 32004KT 9000 NCD 07/06 Q1022,EKEB,2023-06-05T23:50:00Z,55.52,8.55,7.0,6.0,320,4,,5.59,30.177166,,,TRUE,,,,,,,,CLR,,,,,,,,VFR,,,,,,,,,,,,METAR,29.0
EKCH 052350Z AUTO 17002KT 9999 R22L/P1500N R04L/0800D R12/P1500N NCD 13/12 Q1021 NOSIG,EKCH,2023-06-05T23:50:00Z,55.62,12.67,13.0,12.0,170,2,,6.21,30.147638,,,TRUE,,,TRUE,,,,,CLR,,,,,,,,VFR,,,,,,,,,,,,METAR,4.0
EKBI 052350Z AUTO 30005KT 9999 NCD 07/06 Q1022,EKBI,2023-06-05T23:50:00Z,55.73,9.15,7.0,6.0,300,5,,6.21,30.177166,,,TRUE,,,,,,,,CLR,,,,,,,,VFR,,,,,,,,,,,,METAR,67.0
EKAH 052350Z AUTO 28005KT 9999 NCD 11/09 Q1021,EKAH,2023-06-05T23:50:00Z,56.28,10.62,11.0,9.0,280,5,,6.21,30.147638,,,TRUE,,,,,,,,CLR,,,,,,,,VFR,,,,,,,,,,,,METAR,25.0
EGYP 052350Z 04016G32KT 9999 -RA BKN012 OVC080 05/04 Q0995,EGYP,2023-06-05T23:50:00Z,-51.82,-58.45,5.0,4.0,40,16,32,6.21,29.379921,,,,,,,,,,-RA,BKN,1200,OVC,8000,,,,,MVFR,,,,,,,,,,,,METAR,70.0
EGYM 052350Z AUTO 05009KT 9999 OVC017/// 11/08 Q1025,EGYM,2023-06-05T23:50:00Z,52.63,0.57,11.0,8.0,50,9,,6.21,30.265747,,,TRUE,,,,,,,,OVC,1700,,,,,,,MVFR,,,,,,,,,,,,METAR,25.0
EGYH 052350Z AUTO 06012KT //// // OVC016/// 11/08 Q1025,EGYH,2023-06-05T23:50:00Z,52.87,0.15,11.0,8.0,60,12,,,30.265747,,,TRUE,,,,,,,,OVC,1600,,,,,,,,,,,,,,,,,,,METAR,5.0
EGYE 052350Z AUTO 04009KT //// ///////// ///// Q////,EGYE,2023-06-05T23:50:00Z,52.97,-0.57,,,40,9,,,,,,TRUE,,,,,,,,,,,,,,,,,,,,,,,,,,,,METAR,105.0
EGYD 052350Z AUTO 03006KT 9999 OVC014/// 10/08 Q1026,EGYD,2023-06-05T23:50:00Z,53.03,-0.5,10.0,8.0,30,6,,6.21,30.295275,,,TRUE,,,,,,,,OVC,1400,,,,,,,MVFR,,,,,,,,,,,,METAR,65.0
EGXZ 052350Z AUTO 02004KT 9999 OVC020/// 10/07 Q1027,EGXZ,2023-06-05T23:50:00Z,54.2,-1.38,10.0,7.0,20,4,,6.21,30.324802,,,TRUE,,,,,,,,OVC,2000,,,,,,,MVFR,,,,,,,,,,,,METAR,24.0
EGXW 052350Z AUTO 04007KT 9999 OVC013/// 10/07 Q1026,EGXW,2023-06-05T23:50:00Z,53.18,-0.52,10.0,7.0,40,7,,6.21,30.295275,,,TRUE,,,,,,,,OVC,1300,,,,,,,MVFR,,,,,,,,,,,,METAR,70.0
EGXV 052350Z AUTO 05006KT 9999 OVC016/// 11/07 Q1026,EGXV,2023-06-05T23:50:00Z,53.87,-0.45,11.0,7.0,50,6,,6.21,30.295275,,,TRUE,,,,,,,,OVC,1600,,,,,,,MVFR,,,,,,,,,,,,METAR,6.0
EGXT 052350Z AUTO 03007KT 9999 OVC014/// 11/08 Q1025,EGXT,2023-06-05T23:50:00Z,52.62,-0.47,11.0,8.0,30,7,,6.21,30.265747,,,TRUE,,,,,,,,OVC,1400,,,,,,,MVFR,,,,,,,,,,,,METAR,74.0
EGXS 052350Z AUTO 02011KT 9999 OVC012/// 11/08 Q1026,EGXS,2023-06-05T23:50:00Z,53.48,0.15,11.0,8.0,20,11,,6.21,30.295275,,,TRUE,,,,,,,,OVC,1200,,,,,,,MVFR,,,,,,,,,,,,METAR,6.0
EGXE 052350Z AUTO 36003KT 9999 OVC016/// 10/08 Q1027,EGXE,2023-06-05T23:50:00Z,54.28,-1.52,10.0,8.0,360,3,,6.21,30.324802,,,TRUE,,,,,,,,OVC,1600,,,,,,,MVFR,,,,,,,,,,,,METAR,30.0
EGXC 052350Z AUTO 03006KT 9999 OVC015/// 11/08 Q1026,EGXC,2023-06-05T23:50:00Z,53.1,-0.17,11.0,8.0,30,6,,6.21,30.295275,,,TRUE,,,,,,,,OVC,1500,,,,,,,MVFR,,,,,,,,,,,,METAR,9.0
EGWU 052350Z 06010KT 9999 BKN022 12/07 Q1024 NOSIG RMK WHT WHT,EGWU,2023-06-05T23:50:00Z,51.55,-0.42,12.0,7.0,60,10,,6.21,30.236221,,,,,,TRUE,,,,,BKN,2200,,,,,,,MVFR,,,,,,,,,,,,METAR,33.0
EGWC 052350Z AUTO 09009KT //// ///////// ///// Q////,EGWC,2023-06-05T23:50:00Z,52.63,-2.3,,,90,9,,,,,,TRUE,,,,,,,,,,,,,,,,,,,,,,,,,,,,METAR,79.0
EGVP 052350Z AUTO 02007KT 9999 NCD 10/07 Q1023,EGVP,2023-06-05T23:50:00Z,51.13,-1.57,10.0,7.0,20,7,,6.21,30.206694,,,TRUE,,,,,,,,CLR,,,,,,,,VFR,,,,,,,,,,,,METAR,80.0
EGVO 052350Z 04005KT 9999 OVC023 11/07 Q1023 NOSIG RMK WHT WHT,EGVO,2023-06-05T23:50:00Z,51.23,-0.95,11.0,7.0,40,5,,6.21,30.206694,,,,,,TRUE,,,,,OVC,2300,,,,,,,MVFR,,,,,,,,,,,,METAR,118.0
EGVN 052350Z 05011KT 9999 BKN019 11/07 Q1024 NOSIG RMK WHT WHT,EGVN,2023-06-05T23:50:00Z,51.77,-1.58,11.0,7.0,50,11,,6.21,30.236221,,,,,,TRUE,,,,,BKN,1900,,,,,,,MVFR,,,,,,,,,,,,METAR,83.0
EGUW 052350Z AUTO 04011KT 9999 OVC016/// 11/07 Q1024,EGUW,2023-06-05T23:50:00Z,52.12,0.97,11.0,7.0,40,11,,6.21,30.236221,,,TRUE,,,,,,,,OVC,1600,,,,,,,MVFR,,,,,,,,,,,,METAR,86.0
EGUB 052350Z 04008KT 9999 OVC022 11/07 Q1024 NOSIG RMK WHT WHT,EGUB,2023-06-05T23:50:00Z,51.62,-1.08,11.0,7.0,40,8,,6.21,30.236221,,,,,,TRUE,,,,,OVC,2200,,,,,,,MVFR,,,,,,,,,,,,METAR,56.0
EGTE 052350Z 04007KT 010V100 CAVOK 12/08 Q1023,EGTE,2023-06-05T23:50:00Z,50.73,-3.42,12.0,8.0,40,7,,6.21,30.206694,,,,,,,,,,,CAVOK,,,,,,,,VFR,,,,,,,,,,,,METAR,30.0
EGSY 052350Z AUTO 06007KT 9999 FEW022/// 11/07 Q1024,EGSY,2023-06-05T23:50:00Z,51.4,-3.43,11.0,7.0,60,7,,6.21,30.236221,,,TRUE,,,,,,,,FEW,2200,,,,,,,VFR,,,,,,,,,,,,METAR,46.0
EGSS 052350Z AUTO 04007KT 360V060 9999 OVC016 11/07 Q1025,EGSS,2023-06-05T23:50:00Z,51.88,0.22,11.0,7.0,40,7,,6.21,30.265747,,,TRUE,,,,,,,,OVC,1600,,,,,,,MVFR,,,,,,,,,,,,METAR,101.0
EGSH 052350Z AUTO 04009KT 010V070 9999 OVC016/// 12/08 Q1025,EGSH,2023-06-05T23:50:00Z,52.68,1.28,12.0,8.0,40,9,,6.21,30.265747,,,TRUE,,,,,,,,OVC,1600,,,,,,,MVFR,,,,,,,,,,,,METAR,21.0
EGQS 052350Z 07006KT 9999 BKN018 11/07 Q1028 RMK WHT,EGQS,2023-06-05T23:50:00Z,57.72,-3.32,11.0,7.0,70,6,,6.21,30.35433,,,,,,,,,,,BKN,1800,,,,,,,MVFR,,,,,,,,,,,,METAR,6.0
EGQM 052350Z AUTO 03004KT 9999 OVC012/// 11/08 Q1027,EGQM,2023-06-05T23:50:00Z,55.42,-1.6,11.0,8.0,30,4,,6.21,30.324802,,,TRUE,,,,,,,,OVC,1200,,,,,,,MVFR,,,,,,,,,,,,METAR,24.0
EGQL 052350Z 08003KT 9999 BKN012 11/09 Q1028 RMK GRN,EGQL,2023-06-05T23:50:00Z,56.38,-2.87,11.0,9.0,80,3,,6.21,30.35433,,,,,,,,,,,BKN,1200,,,,,,,MVFR,,,,,,,,,,,,METAR,11.0
EGQK 052350Z AUTO 08004KT 9999 OVC017/// 10/08 Q1028,EGQK,2023-06-05T23:50:00Z,57.65,-3.57,10.0,8.0,80,4,,6.21,30.35433,,,TRUE,,,,,,,,OVC,1700,,,,,,,MVFR,,,,,,,,,,,,METAR,5.0
EGQA 052350Z AUTO 10008KT 9999 OVC021/// 11/06 Q1028,EGQA,2023-06-05T23:50:00Z,57.83,-3.95,11.0,6.0,100,8,,6.21,30.35433,,,TRUE,,,,,,,,OVC,2100,,,,,,,MVFR,,,,,,,,,,,,METAR,4.0
EGPU 052350Z AUTO 01005KT 9999 NCD 11/10 Q1026,EGPU,2023-06-05T23:50:00Z,56.5,-6.88,11.0,10.0,10,5,,6.21,30.295275,,,TRUE,,,,,,,,CLR,,,,,,,,VFR,,,,,,,,,,,,METAR,12.0
EGPO 052350Z AUTO 35007KT 9999 OVC017/// 11/08 Q1028,EGPO,2023-06-05T23:50:00Z,58.22,-6.32,11.0,8.0,350,7,,6.21,30.35433,,,TRUE,,,,,,,,OVC,1700,,,,,,,MVFR,,,,,,,,,,,,METAR,10.0
EGPL 052350Z AUTO 07011KT 9999 NCD 10/08 Q1027,EGPL,2023-06-05T23:50:00Z,57.47,-7.37,10.0,8.0,70,11,,6.21,30.324802,,,TRUE,,,,,,,,CLR,,,,,,,,VFR,,,,,,,,,,,,METAR,3.0
EGPK 052350Z AUTO 05007KT 9999 NCD 11/09 Q1026,EGPK,2023-06-05T23:50:00Z,55.5,-4.58,11.0,9.0,50,7,,6.21,30.295275,,,TRUE,,,,,,,,CLR,,,,,,,,VFR,,,,,,,,,,,,METAR,14.0
EGPI 052350Z AUTO 14002KT 9999 NCD 09/08 Q1026,EGPI,2023-06-05T23:50:00Z,55.68,-6.25,9.0,8.0,140,2,,6.21,30.295275,,,TRUE,,,,,,,,CLR,,,,,,,,VFR,,,,,,,,,,,,METAR,17.0
EGPH 052350Z 08008KT 9999 BKN012 11/08 Q1028,EGPH,2023-06-05T23:50:00Z,55.95,-3.35,11.0,8.0,80,8,,6.21,30.35433,,,,,,,,,,,BKN,1200,,,,,,,MVFR,,,,,,,,,,,,METAR,29.0
EGPF 052350Z AUTO 08009KT 9999 OVC014 12/09 Q1027,EGPF,2023-06-05T23:50:00Z,55.87,-4.42,12.0,9.0,80,9,,6.21,30.324802,,,TRUE,,,,,,,,OVC,1400,,,,,,,MVFR,,,,,,,,,,,,METAR,8.0
EGPE 052350Z AUTO 00000KT 9999 OVC019/// 06/05 Q1029,EGPE,2023-06-05T23:50:00Z,57.53,-4.05,6.0,5.0,0,0,,6.21,30.383858,,,TRUE,,,,,,,,OVC,1900,,,,,,,MVFR,,,,,,,,,,,,METAR,7.0
EGPD 052350Z AUTO VRB02KT 9999 OVC019 10/07 Q1028,EGPD,2023-06-05T23:50:00Z,57.2,-2.22,10.0,7.0,0,2,,6.21,30.35433,,,TRUE,,,,,,,,OVC,1900,,,,,,,MVFR,,,,,,,,,,,,METAR,65.0
EGPC 052350Z AUTO 24002KT 9999 OVC018/// 10/08 Q1028,EGPC,2023-06-05T23:50:00Z,58.45,-3.08,10.0,8.0,240,2,,6.21,30.35433,,,TRUE,,,,,,,,OVC,1800,,,,,,,MVFR,,,,,,,,,,,,METAR,38.0
EGPB 052350Z AUTO 31003KT 270V340 9999 OVC021/// 10/06 Q1027,EGPB,2023-06-05T23:50:00Z,59.87,-1.3,10.0,6.0,310,3,,6.21,30.324802,,,TRUE,,,,,,,,OVC,2100,,,,,,,MVFR,,,,,,,,,,,,METAR,2.0
EGOV 052350Z AUTO 04008KT 9999 NCD 13/12 Q1025,EGOV,2023-06-05T23:50:00Z,53.25,-4.53,13.0,12.0,40,8,,6.21,30.265747,,,TRUE,,,,,,,,CLR,,,,,,,,VFR,,,,,,,,,,,,METAR,11.0
EGOS 052350Z 08003KT 9999 BKN021 10/07 Q1026 NOSIG RMK WHT WHT,EGOS,2023-06-05T23:50:00Z,52.8,-2.67,10.0,7.0,80,3,,6.21,30.295275,,,,,,TRUE,,,,,BKN,2100,,,,,,,MVFR,,,,,,,,,,,,METAR,76.0
EGOP 052350Z AUTO 08007KT 9999 NCD 12/08 Q1023,EGOP,2023-06-05T23:50:00Z,51.72,-4.37,12.0,8.0,80,7,,6.21,30.206694,,,TRUE,,,,,,,,CLR,,,,,,,,VFR,,,,,,,,,,,,METAR,8.0
EGOM 052350Z AUTO 08008KT 9999 OVC004/// 09/08 Q1026,EGOM,2023-06-05T23:50:00Z,55.05,-2.55,9.0,8.0,80,8,,6.21,30.295275,,,TRUE,,,,,,,,OVC,400,,,,,,,LIFR,,,,,,,,,,,,METAR,286.0
EGNX 052350Z 05009KT 9999 BKN017 10/06 Q1026,EGNX,2023-06-05T23:50:00Z,52.82,-1.32,10.0,6.0,50,9,,6.21,30.295275,,,,,,,,,,,BKN,1700,,,,,,,MVFR,,,,,,,,,,,,METAR,91.0
EGNT 052350Z 05004KT 9999 BKN013 11/08 Q1027,EGNT,2023-06-05T23:50:00Z,55.03,-1.7,11.0,8.0,50,4,,6.21,30.324802,,,,,,,,,,,BKN,1300,,,,,,,MVFR,,,,,,,,,,,,METAR,77.0
EGNS 052350Z 11005KT 080V140 CAVOK 12/10 Q1025,EGNS,2023-06-05T23:50:00Z,54.08,-4.63,12.0,10.0,110,5,,6.21,30.265747,,,,,,,,,,,CAVOK,,,,,,,,VFR,,,,,,,,,,,,METAR,18.0
EGNM 052350Z 07004KT 020V110 9999 FEW010 OVC013 09/07 Q1027,EGNM,2023-06-05T23:50:00Z,53.87,-1.65,9.0,7.0,70,4,,6.21,30.324802,,,,,,,,,,,FEW,1000,OVC,1300,,,,,MVFR,,,,,,,,,,,,METAR,221.0
EGNJ 052350Z AUTO 05008KT 9999 OVC014/// 11/09 Q1027,EGNJ,2023-06-05T23:50:00Z,53.57,-0.35,11.0,9.0,50,8,,6.21,30.324802,,,TRUE,,,,,,,,OVC,1400,,,,,,,MVFR,,,,,,,,,,,,METAR,23.0
EGMD 052350Z AUTO 03011KT 9999 FEW017/// 10/09 Q1023,EGMD,2023-06-05T23:50:00Z,50.95,0.93,10.0,9.0,30,11,,6.21,30.206694,,,TRUE,,,,,,,,FEW,1700,,,,,,,VFR,,,,,,,,,,,,METAR,4.0
EGLL 052350Z AUTO 05007KT 9999 OVC024 12/06 Q1024 NOSIG,EGLL,2023-06-05T23:50:00Z,51.48,-0.45,12.0,6.0,50,7,,6.21,30.236221,,,TRUE,,,TRUE,,,,,OVC,2400,,,,,,,MVFR,,,,,,,,,,,,METAR,26.0
EGLF 052350Z AUTO 05007KT 010V070 9999 OVC024/// 12/06 Q1024,EGLF,2023-06-05T23:50:00Z,51.28,-0.77,12.0,6.0,50,7,,6.21,30.236221,,,TRUE,,,,,,,,OVC,2400,,,,,,,MVFR,,,,,,,,,,,,METAR,65.0
EGLC 052350Z AUTO 06010KT 9999 BKN024 12/07 Q1025,EGLC,2023-06-05T23:50:00Z,51.5,0.05,12.0,7.0,60,10,,6.21,30.265747,,,TRUE,,,,,,,,BKN,2400,,,,,,,MVFR,,,,,,,,,,,,METAR,10.0
EGKK 052350Z 04011KT 9999 BKN021 12/07 Q1023,EGKK,2023-06-05T23:50:00Z,51.13,-0.18,12.0,7.0,40,11,,6.21,30.206694,,,,,,,,,,,BKN,2100,,,,,,,MVFR,,,,,,,,,,,,METAR,58.0
EGJJ 052350Z AUTO 07016G26KT 9999 NCD 12/10 Q1020,EGJJ,2023-06-05T23:50:00Z,49.22,-2.2,12.0,10.0,70,16,26,6.21,30.11811,,,TRUE,,,,,,,,CLR,,,,,,,,VFR,,,,,,,,,,,,METAR,84.0
EGJB 052350Z 06013KT CAVOK 12/10 Q1020,EGJB,2023-06-05T23:50:00Z,49.42,-2.6,12.0,10.0,60,13,,6.21,30.11811,,,,,,,,,,,CAVOK,,,,,,,,VFR,,,,,,,,,,,,METAR,102.0
EGHQ 052350Z AUTO 04004KT 9999 NCD 13/09 Q1022,EGHQ,2023-06-05T23:50:00Z,50.43,-5.0,13.0,9.0,40,4,,6.21,30.177166,,,TRUE,,,,,,,,CLR,,,,,,,,VFR,,,,,,,,,,,,METAR,101.0
EGGW 052350Z AUTO 06009KT 9999 OVC016 10/07 Q1024,EGGW,2023-06-05T23:50:00Z,51.87,-0.37,10.0,7.0,60,9,,6.21,30.236221,,,TRUE,,,,,,,,OVC,1600,,,,,,,MVFR,,,,,,,,,,,,METAR,159.0
EGGP 052350Z 11010KT CAVOK 11/07 Q1026,EGGP,2023-06-05T23:50:00Z,53.33,-2.85,11.0,7.0,110,10,,6.21,30.295275,,,,,,,,,,,CAVOK,,,,,,,,VFR,,,,,,,,,,,,METAR,23.0
EGGD 052350Z AUTO 07011KT 9999 NCD 09/06 Q1024,EGGD,2023-06-05T23:50:00Z,51.37,-2.72,9.0,6.0,70,11,,6.21,30.236221,,,TRUE,,,,,,,,CLR,,,,,,,,VFR,,,,,,,,,,,,METAR,182.0
EGFF 052350Z AUTO 07009KT 9999 BKN021 12/08 Q1024,EGFF,2023-06-05T23:50:00Z,51.38,-3.35,12.0,8.0,70,9,,6.21,30.236221,,,TRUE,,,,,,,,BKN,2100,,,,,,,MVFR,,,,,,,,,,,,METAR,65.0
EGDY 052350Z 04007KT 9999 FEW022 10/07 Q1023 NOSIG RMK BLU BLU,EGDY,2023-06-05T23:50:00Z,51.0,-2.63,10.0,7.0,40,7,,6.21,30.206694,,,,,,TRUE,,,,,FEW,2200,,,,,,,VFR,,,,,,,,,,,,METAR,21.0
EGDR 052350Z 04006KT 9999 SKC 10/08 Q1021 NOSIG RMK BLU BLU,EGDR,2023-06-05T23:50:00Z,50.08,-5.25,10.0,8.0,40,6,,6.21,30.147638,,,,,,TRUE,,,,,SKC,,,,,,,,VFR,,,,,,,,,,,,METAR,74.0
EGDM 052350Z AUTO 05009KT 9999 NCD 10/07 Q1023,EGDM,2023-06-05T23:50:00Z,51.17,-1.75,10.0,7.0,50,9,,6.21,30.206694,,,TRUE,,,,,,,,CLR,,,,,,,,VFR,,,,,,,,,,,,METAR,122.0
EGCK 052350Z AUTO 07003KT 050V110 9999 NCD 12/11 Q1025,EGCK,2023-06-05T23:50:00Z,53.1,-4.33,12.0,11.0,70,3,,6.21,30.265747,,,TRUE,,,,,,,,CLR,,,,,,,,VFR,,,,,,,,,,,,METAR,6.0
EGCC 052350Z AUTO VRB02KT 9999 NCD 09/06 Q1027,EGCC,2023-06-05T23:50:00Z,53.35,-2.27,9.0,6.0,0,2,,6.21,30.324802,,,TRUE,,,,,,,,CLR,,,,,,,,VFR,,,,,,,,,,,,METAR,78.0
EGBB 052350Z 08010KT 9999 OVC018 11/07 Q1026,EGBB,2023-06-05T23:50:00Z,52.47,-1.75,11.0,7.0,80,10,,6.21,30.295275,,,,,,,,,,,OVC,1800,,,,,,,MVFR,,,,,,,,,,,,METAR,91.0
EGAC 052350Z AUTO 14001KT 9999 NCD 14/11 Q1025,EGAC,2023-06-05T23:50:00Z,54.62,-5.87,14.0,11.0,140,1,,6.21,30.265747,,,TRUE,,,,,,,,CLR,,,,,,,,VFR,,,,,,,,,,,,METAR,2.0
EGAA 052350Z AUTO 11003KT 9999 NCD 10/09 Q1025,EGAA,2023-06-05T23:50:00Z,54.65,-6.22,10.0,9.0,110,3,,6.21,30.265747,,,TRUE,,,,,,,,CLR,,,,,,,,VFR,,,,,,,,,,,,METAR,65.0
EFVA 052350Z AUTO VRB02KT CAVOK 06/01 Q1017,EFVA,2023-06-05T23:50:00Z,63.05,21.77,6.0,1.0,0,2,,6.21,30.029528,,,TRUE,,,,,,,,CAVOK,,,,,,,,VFR,,,,,,,,,,,,METAR,4.0
EFUT 052350Z AUTO 27005KT CAVOK 09/03 Q1016,EFUT,2023-06-05T23:50:00Z,60.88,26.93,9.0,3.0,270,5,,6.21,30.0,,,TRUE,,,,,,,,CAVOK,,,,,,,,VFR,,,,,,,,,,,,METAR,104.0
EFTU 052350Z AUTO VRB01KT CAVOK 06/04 Q1018,EFTU,2023-06-05T23:50:00Z,60.52,22.27,6.0,4.0,0,1,,6.21,30.059055,,,TRUE,,,,,,,,CAVOK,,,,,,,,VFR,,,,,,,,,,,,METAR,47.0
EFTP 052350Z AUTO 26007KT CAVOK 08/05 Q1017,EFTP,2023-06-05T23:50:00Z,61.42,23.62,8.0,5.0,260,7,,6.21,30.029528,,,TRUE,,,,,,,,CAVOK,,,,,,,,VFR,,,,,,,,,,,,METAR,111.0
EFSI 052350Z AUTO 29004KT CAVOK 04/02 Q1016,EFSI,2023-06-05T23:50:00Z,62.7,22.83,4.0,2.0,290,4,,6.21,30.0,,,TRUE,,,,,,,,CAVOK,,,,,,,,VFR,,,,,,,,,,,,METAR,90.0
EFSA 052350Z AUTO 25006KT CAVOK 06/01 Q1014,EFSA,2023-06-05T23:50:00Z,61.95,28.93,6.0,1.0,250,6,,6.21,29.940945,,,TRUE,,,,,,,,CAVOK,,,,,,,,VFR,,,,,,,,,,,,METAR,90.0
EFRO 052350Z AUTO 31005KT 270V330 CAVOK 03/01 Q1011,EFRO,2023-06-05T23:50:00Z,66.57,25.82,3.0,1.0,310,5,,6.21,29.852362,,,TRUE,,,,,,,,CAVOK,,,,,,,,VFR,,,,,,,,,,,,METAR,201.0
EFPO 052350Z AUTO 29006KT CAVOK 07/05 Q1018,EFPO,2023-06-05T23:50:00Z,61.47,21.8,7.0,5.0,290,6,,6.21,30.059055,,,TRUE,,,,,,,,CAVOK,,,,,,,,VFR,,,,,,,,,,,,METAR,10.0
EFOU 052350Z AUTO 34013KT CAVOK 08/01 Q1013,EFOU,2023-06-05T23:50:00Z,64.92,25.37,8.0,1.0,340,13,,6.21,29.911417,,,TRUE,,,,,,,,CAVOK,,,,,,,,VFR,,,,,,,,,,,,METAR,15.0
EFMI 052350Z AUTO 26002KT CAVOK 03/02 Q1015,EFMI,2023-06-05T23:50:00Z,61.68,27.2,3.0,2.0,260,2,,6.21,29.970472,,,TRUE,,,,,,,,CAVOK,,,,,,,,VFR,,,,,,,,,,,,METAR,99.0
EFMA 052350Z AUTO 01004KT CAVOK 09/07 Q1018,EFMA,2023-06-05T23:50:00Z,60.12,19.9,9.0,7.0,10,4,,6.21,30.059055,,,TRUE,,,,,,,,CAVOK,,,,,,,,VFR,,,,,,,,,,,,METAR,6.0
EFLP 052350Z AUTO 29004KT CAVOK 07/02 Q1015,EFLP,2023-06-05T23:50:00Z,61.03,28.15,7.0,2.0,290,4,,6.21,29.970472,,,TRUE,,,,,,,,CAVOK,,,,,,,,VFR,,,,,,,,,,,,METAR,102.0
EFKU 052350Z AUTO 26007KT CAVOK 08/02 Q1013,EFKU,2023-06-05T23:50:00Z,63.02,27.8,8.0,2.0,260,7,,6.21,29.911417,,,TRUE,,,,,,,,CAVOK,,,,,,,,VFR,,,,,,,,,,,,METAR,92.0
EFKT 052350Z AUTO 33010KT CAVOK 04/M00 Q1011,EFKT,2023-06-05T23:50:00Z,67.7,24.85,4.0,0.0,330,10,,6.21,29.852362,,,TRUE,,,,,,,,CAVOK,,,,,,,,VFR,,,,,,,,,,,,METAR,190.0
EFKS 052350Z AUTO 32011KT 9999 -RA OVC018 04/02 Q1008,EFKS,2023-06-05T23:50:00Z,66.0,29.23,4.0,2.0,320,11,,6.21,29.763779,,,TRUE,,,,,,,-RA,OVC,1800,,,,,,,MVFR,,,,,,,,,,,,METAR,270.0
EFKK 052350Z AUTO 31006KT 280V340 CAVOK 06/M01 Q1015,EFKK,2023-06-05T23:50:00Z,63.72,23.13,6.0,-1.0,310,6,,6.21,29.970472,,,TRUE,,,,,,,,CAVOK,,,,,,,,VFR,,,,,,,,,,,,METAR,25.0
EFKI 052350Z AUTO 27011KT CAVOK 08/02 Q1011,EFKI,2023-06-05T23:50:00Z,64.27,27.67,8.0,2.0,270,11,,6.21,29.852362,,,TRUE,,,,,,,,CAVOK,,,,,,,,VFR,,,,,,,,,,,,METAR,132.0
EFKE 052350Z AUTO 32006KT CAVOK 06/01 Q1013,EFKE,2023-06-05T23:50:00Z,65.78,24.57,6.0,1.0,320,6,,6.21,29.911417,,,TRUE,,,,,,,,CAVOK,,,,,,,,VFR,,,,,,,,,,,,METAR,15.0
EFJY 052350Z AUTO 27007KT CAVOK 06/01 Q1014,EFJY,2023-06-05T23:50:00Z,62.4,25.68,6.0,1.0,270,7,,6.21,29.940945,,,TRUE,,,,,,,,CAVOK,,,,,,,,VFR,,,,,,,,,,,,METAR,139.0
EFJO 052350Z AUTO 27005KT CAVOK 06/01 Q1013,EFJO,2023-06-05T23:50:00Z,62.67,29.62,6.0,1.0,270,5,,6.21,29.911417,,,TRUE,,,,,,,,CAVOK,,,,,,,,VFR,,,,,,,,,,,,METAR,118.0
EFIV 052350Z AUTO 33008KT 300V360 9999 SCT025 03/M00 Q1010,EFIV,2023-06-05T23:50:00Z,68.62,27.42,3.0,0.0,330,8,,6.21,29.822834,,,TRUE,,,,,,,,SCT,2500,,,,,,,VFR,,,,,,,,,,,,METAR,145.0
EFHK 052350Z VRB03KT CAVOK 05/02 Q1018 NOSIG,EFHK,2023-06-05T23:50:00Z,60.32,24.97,5.0,2.0,0,3,,6.21,30.059055,,,,,,TRUE,,,,,CAVOK,,,,,,,,VFR,,,,,,,,,,,,METAR,56.0
EFHA 052350Z AUTO 25009KT CAVOK 08/02 Q1015,EFHA,2023-06-05T23:50:00Z,61.85,24.8,8.0,2.0,250,9,,6.21,29.970472,,,TRUE,,,,,,,,CAVOK,,,,,,,,VFR,,,,,,,,,,,,METAR,144.0
EFET 052350Z AUTO 32007KT 9999 FEW044 03/M00 Q1012,EFET,2023-06-05T23:50:00Z,68.37,23.43,3.0,0.0,320,7,,6.21,29.88189,,,TRUE,,,,,,,,FEW,4400,,,,,,,VFR,,,,,,,,,,,,METAR,300.0
EETU 052350Z AUTO 24006KT 9999 NCD 08/05 Q1020,EETU,2023-06-05T23:50:00Z,58.32,26.68,8.0,5.0,240,6,,6.21,30.11811,,,TRUE,,,,,,,,CLR,,,,,,,,VFR,,,,,,,,,,,,METAR,67.0
EETN 052350Z 24006KT CAVOK 11/07 Q1019,EETN,2023-06-05T23:50:00Z,59.4,24.82,11.0,7.0,240,6,,6.21,30.088583,,,,,,,,,,,CAVOK,,,,,,,,VFR,,,,,,,,,,,,METAR,41.0
EEPU 052350Z AUTO 22006KT 9999 BKN078/// BKN100/// 11/08 Q1021,EEPU,2023-06-05T23:50:00Z,58.42,24.47,11.0,8.0,220,6,,6.21,30.147638,,,TRUE,,,,,,,,BKN,7800,BKN,10000,,,,,VFR,,,,,,,,,,,,METAR,13.0
EEKE 052350Z AUTO 24006KT 190V280 9999NDV NCD 12/08 Q1020,EEKE,2023-06-05T23:50:00Z,58.23,22.52,12.0,8.0,240,6,,,30.11811,,,TRUE,,,,,,,,CLR,,,,,,,,,,,,,,,,,,,,METAR,4.0
EEEI 052350Z AUTO 23009KT CAVOK 11/07 Q1019,EEEI,2023-06-05T23:50:00Z,59.27,24.2,11.0,7.0,230,9,,6.21,30.088583,,,TRUE,,,,,,,,CAVOK,,,,,,,,VFR,,,,,,,,,,,,METAR,19.0
EDXW 052350Z AUTO 36008KT 9999 // BKN008/// 11/09 Q1022,EDXW,2023-06-05T23:50:00Z,54.92,8.33,11.0,9.0,360,8,,6.21,30.177166,,,TRUE,,,,,,,,BKN,800,,,,,,,IFR,,,,,,,,,,,,METAR,8.0
EDWE 052350Z AUTO 36004KT 9999 // NCD 09/08 Q1022,EDWE,2023-06-05T23:50:00Z,53.38,7.23,9.0,8.0,360,4,,6.21,30.177166,,,TRUE,,,,,,,,CLR,,,,,,,,VFR,,,,,,,,,,,,METAR,0.0
EDVK 052350Z AUTO 28005KT 9999 // FEW082/// 13/06 Q1019,EDVK,2023-06-05T23:50:00Z,51.4,9.37,13.0,6.0,280,5,,6.21,30.088583,,,TRUE,,,,,,,,FEW,8200,,,,,,,VFR,,,,,,,,,,,,METAR,277.0
EDVE 052350Z AUTO 02003KT 330V070 9999 NCD 14/08 Q1019,EDVE,2023-06-05T23:50:00Z,52.32,10.55,14.0,8.0,20,3,,6.21,30.088583,,,TRUE,,,,,,,,CLR,,,,,,,,VFR,,,,,,,,,,,,METAR,83.0
EDTY 052350Z AUTO 08005KT 9999 // NCD 12/09 Q1018,EDTY,2023-06-05T23:50:00Z,49.12,9.78,12.0,9.0,80,5,,6.21,30.059055,,,TRUE,,,,,,,,CLR,,,,,,,,VFR,,,,,,,,,,,,METAR,398.0
EDTL 052350Z AUTO VRB01KT 9999 // NCD 14/08 Q1016,EDTL,2023-06-05T23:50:00Z,48.37,7.83,14.0,8.0,0,1,,6.21,30.0,,,TRUE,,,,,,,,CLR,,,,,,,,VFR,,,,,,,,,,,,METAR,152.0
EDSB 052350Z AUTO 36005KT 9999 // NCD 16/08 Q1015,EDSB,2023-06-05T23:50:00Z,48.78,8.08,16.0,8.0,360,5,,6.21,29.970472,,,TRUE,,,,,,,,CLR,,,,,,,,VFR,,,,,,,,,,,,METAR,122.0
EDQM 052350Z AUTO 32002KT 9999 // NCD 10/08 Q1019,EDQM,2023-06-05T23:50:00Z,50.3,11.85,10.0,8.0,320,2,,6.21,30.088583,,,TRUE,,,,,,,,CLR,,,,,,,,VFR,,,,,,,,,,,,METAR,578.0
EDNY 052350Z AUTO 03003KT 340V060 9999 BKN240/// 14/09 Q1016,EDNY,2023-06-05T23:50:00Z,47.67,9.52,14.0,9.0,30,3,,6.21,30.0,,,TRUE,,,,,,,,BKN,24000,,,,,,,VFR,,,,,,,,,,,,METAR,411.0
EDMO 052350Z AUTO VRB02KT 9999 // FEW008/// 11/11 Q1017,EDMO,2023-06-05T23:50:00Z,48.07,11.27,11.0,11.0,0,2,,6.21,30.029528,,,TRUE,,,,,,,,FEW,800,,,,,,,VFR,,,,,,,,,,,,METAR,587.0
EDMA 052350Z AUTO VRB02KT 9999 // NCD 12/10 Q1017,EDMA,2023-06-05T23:50:00Z,48.42,10.92,12.0,10.0,0,2,,6.21,30.029528,,,TRUE,,,,,,,,CLR,,,,,,,,VFR,,,,,,,,,,,,METAR,462.0
EDLW 052350Z AUTO 00000KT 9999 // NCD 13/10 Q1020,EDLW,2023-06-05T23:50:00Z,51.52,7.62,13.0,10.0,0,0,,6.21,30.11811,,,TRUE,,,,,,,,CLR,,,,,,,,VFR,,,,,,,,,,,,METAR,122.0
EDLV 052350Z AUTO 02006KT 340V080 9999 // NCD 14/10 Q1020,EDLV,2023-06-05T23:50:00Z,51.6,6.15,14.0,10.0,20,6,,6.21,30.11811,,,TRUE,,,,,,,,CLR,,,,,,,,VFR,,,,,,,,,,,,METAR,27.0
EDLP 052350Z VRB01KT CAVOK 12/07 Q1019,EDLP,2023-06-05T23:50:00Z,51.62,8.62,12.0,7.0,0,1,,6.21,30.088583,,,,,,,,,,,CAVOK,,,,,,,,VFR,,,,,,,,,,,,METAR,211.0
EDLN 052350Z AUTO 34007KT 9999 // NCD 16/11 Q1019,EDLN,2023-06-05T23:50:00Z,51.23,6.5,16.0,11.0,340,7,,6.21,30.088583,,,TRUE,,,,,,,,CLR,,,,,,,,VFR,,,,,,,,,,,,METAR,38.0
EDJA 052350Z AUTO 03004KT 9999 // NCD 10/10 Q1017,EDJA,2023-06-05T23:50:00Z,47.98,10.23,10.0,10.0,30,4,,6.21,30.029528,,,TRUE,,,,,,,,CLR,,,,,,,,VFR,,,,,,,,,,,,METAR,625.0
EDHL 052350Z AUTO 00000KT 9999 // NCD 10/09 Q1021,EDHL,2023-06-05T23:50:00Z,53.8,10.72,10.0,9.0,0,0,,6.21,30.147638,,,TRUE,,,,,,,,CLR,,,,,,,,VFR,,,,,,,,,,,,METAR,13.0
EDHK 052350Z AUTO 35005KT 9999 // NCD 12/09 Q1021,EDHK,2023-06-05T23:50:00Z,54.38,10.15,12.0,9.0,350,5,,6.21,30.147638,,,TRUE,,,,,,,,CLR,,,,,,,,VFR,,,,,,,,,,,,METAR,24.0
EDHI 052350Z AUTO 03003KT 9999 // NCD 14/11 Q1021,EDHI,2023-06-05T23:50:00Z,53.53,9.83,14.0,11.0,30,3,,6.21,30.147638,,,TRUE,,,,,,,,CLR,,,,,,,,VFR,,,,,,,,,,,,METAR,5.0
EDGS 052350Z AUTO 05005KT 9999 // NCD 14/05 Q1019,EDGS,2023-06-05T23:50:00Z,50.7,8.08,14.0,5.0,50,5,,6.21,30.088583,,,TRUE,,,,,,,,CLR,,,,,,,,VFR,,,,,,,,,,,,METAR,595.0
EDFM 052350Z AUTO 10008KT 9999 // NCD 20/11 Q1017,EDFM,2023-06-05T23:50:00Z,49.47,8.52,20.0,11.0,100,8,,6.21,30.029528,,,TRUE,,,,,,,,CLR,,,,,,,,VFR,,,,,,,,,,,,METAR,94.0
EDFH 052350Z 06003KT 030V100 CAVOK 14/05 Q1018,EDFH,2023-06-05T23:50:00Z,49.95,7.27,14.0,5.0,60,3,,6.21,30.059055,,,,,,,,,,,CAVOK,,,,,,,,VFR,,,,,,,,,,,,METAR,494.0
EDDW 052350Z AUTO 36009KT CAVOK 12/10 Q1021,EDDW,2023-06-05T23:50:00Z,53.03,8.8,12.0,10.0,360,9,,6.21,30.147638,,,TRUE,,,,,,,,CAVOK,,,,,,,,VFR,,,,,,,,,,,,METAR,5.0
EDDV 052350Z AUTO VRB02KT CAVOK 14/09 Q1020,EDDV,2023-06-05T23:50:00Z,52.47,9.68,14.0,9.0,0,2,,6.21,30.11811,,,TRUE,,,,,,,,CAVOK,,,,,,,,VFR,,,,,,,,,,,,METAR,53.0
EDDS 052350Z AUTO 07003KT CAVOK 14/10 Q1017,EDDS,2023-06-05T23:50:00Z,48.68,9.22,14.0,10.0,70,3,,6.21,30.029528,,,TRUE,,,,,,,,CAVOK,,,,,,,,VFR,,,,,,,,,,,,METAR,374.0
EDDR 052350Z AUTO 04007KT CAVOK 16/05 Q1017,EDDR,2023-06-05T23:50:00Z,49.22,7.1,16.0,5.0,40,7,,6.21,30.029528,,,TRUE,,,,,,,,CAVOK,,,,,,,,VFR,,,,,,,,,,,,METAR,317.0
EDDP 052350Z AUTO 16005KT CAVOK 15/10 Q1018 NOSIG,EDDP,2023-06-05T23:50:00Z,51.43,12.23,15.0,10.0,160,5,,6.21,30.059055,,,TRUE,,,TRUE,,,,,CAVOK,,,,,,,,VFR,,,,,,,,,,,,METAR,129.0
EDDN 052350Z AUTO 30002KT CAVOK 10/09 Q1018,EDDN,2023-06-05T23:50:00Z,49.5,11.05,10.0,9.0,300,2,,6.21,30.059055,,,TRUE,,,,,,,,CAVOK,,,,,,,,VFR,,,,,,,,,,,,METAR,312.0
EDDM 052350Z AUTO 34002KT 9999 FEW010 BKN027 BKN032 14/13 Q1017 TEMPO BKN012,EDDM,2023-06-05T23:50:00Z,48.35,11.82,14.0,13.0,340,2,,6.21,30.029528,,,TRUE,,,,,,,,FEW,1000,BKN,2700,BKN,3200,,,MVFR,,,,,,,,,,,,METAR,445.0
EDDL 052350Z AUTO 36008KT CAVOK 15/11 Q1019 NOSIG,EDDL,2023-06-05T23:50:00Z,51.3,6.77,15.0,11.0,360,8,,6.21,30.088583,,,TRUE,,,TRUE,,,,,CAVOK,,,,,,,,VFR,,,,,,,,,,,,METAR,37.0
EDDK 052350Z AUTO 06003KT 030V090 CAVOK 13/08 Q1018 NOSIG,EDDK,2023-06-05T23:50:00Z,50.87,7.15,13.0,8.0,60,3,,6.21,30.059055,,,TRUE,,,TRUE,,,,,CAVOK,,,,,,,,VFR,,,,,,,,,,,,METAR,92.0
EDDH 052350Z AUTO 32002KT CAVOK ///// Q//// NOSIG,EDDH,2023-06-05T23:50:00Z,53.63,10.0,,,320,2,,6.21,,,,TRUE,,,TRUE,,,,,CAVOK,,,,,,,,VFR,,,,,,,,,,,,METAR,8.0
EDDG 052350Z AUTO 02006KT 340V040 CAVOK 13/09 Q1020 NOSIG,EDDG,2023-06-05T23:50:00Z,52.13,7.7,13.0,9.0,20,6,,6.21,30.11811,,,TRUE,,,TRUE,,,,,CAVOK,,,,,,,,VFR,,,,,,,,,,,,METAR,46.0
EDDF 052350Z AUTO 02007KT CAVOK 18/07 Q1017 NOSIG,EDDF,2023-06-05T23:50:00Z,50.05,8.6,18.0,7.0,20,7,,6.21,30.029528,,,TRUE,,,TRUE,,,,,CAVOK,,,,,,,,VFR,,,,,,,,,,,,METAR,113.0
EDDE 052350Z AUTO 32003KT 280V350 CAVOK 15/05 Q1018,EDDE,2023-06-05T23:50:00Z,50.98,10.97,15.0,5.0,320,3,,6.21,30.059055,,,TRUE,,,,,,,,CAVOK,,,,,,,,VFR,,,,,,,,,,,,METAR,314.0
EDDC 052350Z AUTO 16005KT 9999 -RA NSC 15/12 Q1019,EDDC,2023-06-05T23:50:00Z,51.13,13.75,15.0,12.0,160,5,,6.21,30.088583,,,TRUE,,,,,,,-RA,CLR,,,,,,,,VFR,,,,,,,,,,,,METAR,227.0
EDDB 052350Z AUTO 06006KT CAVOK 16/08 Q1019 NOSIG,EDDB,2023-06-05T23:50:00Z,52.38,13.53,16.0,8.0,60,6,,6.21,30.088583,,,TRUE,,,TRUE,,,,,CAVOK,,,,,,,,VFR,,,,,,,,,,,,METAR,48.0
EDBC 052350Z AUTO 03004KT 9999 // OVC190/// 16/05 Q1019,EDBC,2023-06-05T23:50:00Z,51.85,11.42,16.0,5.0,30,4,,6.21,30.088583,,,TRUE,,,,,,,,OVC,19000,,,,,,,VFR,,,,,,,,,,,,METAR,178.0
EDAH 052350Z AUTO 09003KT 9999 // NCD 14/06 Q1021,EDAH,2023-06-05T23:50:00Z,53.87,14.15,14.0,6.0,90,3,,6.21,30.147638,,,TRUE,,,,,,,,CLR,,,,,,,,VFR,,,,,,,,,,,,METAR,22.0
EDAC 052350Z AUTO 00000KT 9999 // BKN091/// OVC140/// 13/10 Q1019,EDAC,2023-06-05T23:50:00Z,50.98,12.5,13.0,10.0,0,0,,6.21,30.088583,,,TRUE,,,,,,,,BKN,9100,OVC,14000,,,,,VFR,,,,,,,,,,,,METAR,193.0
EBOS 052350Z 03014KT 9999 BKN012 12/09 Q1022 NOSIG,EBOS,2023-06-05T23:50:00Z,51.2,2.87,12.0,9.0,30,14,,6.21,30.177166,,,,,,TRUE,,,,,BKN,1200,,,,,,,MVFR,,,,,,,,,,,,METAR,5.0
EBLG 052350Z 36004KT CAVOK 13/10 Q1019 NOSIG,EBLG,2023-06-05T23:50:00Z,50.63,5.45,13.0,10.0,360,4,,6.21,30.088583,,,,,,TRUE,,,,,CAVOK,,,,,,,,VFR,,,,,,,,,,,,METAR,187.0
EBCI 052350Z 36007KT CAVOK 13/09 Q1020 NOSIG,EBCI,2023-06-05T23:50:00Z,50.47,4.45,13.0,9.0,360,7,,6.21,30.11811,,,,,,TRUE,,,,,CAVOK,,,,,,,,VFR,,,,,,,,,,,,METAR,176.0
EBBR 052350Z 36005KT CAVOK 11/10 Q1020 NOSIG,EBBR,2023-06-05T23:50:00Z,50.9,4.52,11.0,10.0,360,5,,6.21,30.11811,,,,,,TRUE,,,,,CAVOK,,,,,,,,VFR,,,,,,,,,,,,METAR,49.0
EBAW 052350Z AUTO 36007KT 9999 // VV/// 12/09 Q1021,EBAW,2023-06-05T23:50:00Z,51.2,4.47,12.0,9.0,360,7,,6.21,30.147638,,,TRUE,,,,,,,,OVX,0,,,,,,,LIFR,,,,,,,,,,,,METAR,7.0
BGSF 052350Z AUTO 05006KT 9999NDV NCD 04/M03 Q1022,BGSF,2023-06-05T23:50:00Z,67.0,-50.72,4.0,-3.0,50,6,,,30.177166,,,TRUE,,,,,,,,CLR,,,,,,,,,,,,,,,,,,,,METAR,75.0
BGKK 052350Z AUTO 27004KT 9999NDV BKN004/// OVC014/// 00/M01 Q1027,BGKK,2023-06-05T23:50:00Z,65.57,-37.13,0.0,-1.0,270,4,,,30.324802,,,TRUE,,,,,,,,BKN,400,OVC,1400,,,,,,,,,,,,,,,,,METAR,37.0
BGJN 052350Z 14011KT 9999 -SHSN SCT025 BKN065 M00/M04 Q1023,BGJN,2023-06-05T23:50:00Z,69.25,-51.07,0.0,-4.0,140,11,,6.21,30.206694,,,,,,,,,,-SHSN,SCT,2500,BKN,6500,,,,,VFR,,,,,,,,,,,,METAR,22.0
BGBW 052350Z 20005KT 9999 FEW078 BKN190 08/02 Q1025,BGBW,2023-06-05T23:50:00Z,61.17,-45.42,8.0,2.0,200,5,,6.21,30.265747,,,,,,,,,,,FEW,7800,BKN,19000,,,,,VFR,,,,,,,,,,,,METAR,49.0
MMTM 052349Z 09008KT 8SM SKC 31/17 A2982 RMK SLP093 57012 920 AC CI,MMTM,2023-06-05T23:49:00Z,22.28,-97.87,31.0,17.0,90,8,,8.0,29.819881,1009.3,,,,,,,,,,SKC,,,,,,,,VFR,-1.2,,,,,,,,,,,METAR,21.0
MMTC 052349Z 02010KT 15SM SCT035 34/04 A2990 RMK SLP011 56020 917 8/500,MMTC,2023-06-05T23:49:00Z,25.57,-103.4,34.0,4.0,20,10,,15.0,29.899607,1001.1,,,,,,,,,,SCT,3500,,,,,,,VFR,-2.0,,,,,,,,,,,METAR,1128.0
MMPR 052349Z 22006KT 15SM FEW035 28/22 A2978 RMK SLP081 57010 907 8/500,MMPR,2023-06-05T23:49:00Z,20.67,-105.25,28.0,22.0,220,6,,15.0,29.778543,1008.1,,,,,,,,,,FEW,3500,,,,,,,VFR,-1.0,,,,,,,,,,,METAR,6.0
MMMD 052349Z 36007G17KT 7SM BKN015 BKN300 29/23 A2980 RMK SLP091 52009 913 8/408 DSNT CB E AC,MMMD,2023-06-05T23:49:00Z,20.95,-89.65,29.0,23.0,360,7,17,7.0,29.799213,1009.1,,,,,,,,,,BKN,1500,BKN,30000,,,,,MVFR,0.9,,,,,,,,,,,METAR,10.0
MMEP 052349Z 30014KT 10SM FEW025 29/21 A2993 RMK SLP083 57011 956 8/100 HZY PO S,MMEP,2023-06-05T23:49:00Z,21.42,-104.85,29.0,21.0,300,14,,10.0,29.929134,1008.3,,,,,,,,,,FEW,2500,,,,,,,VFR,-1.1,,,,,,,,,,,METAR,921.0
MMCN 052349Z 26005KT 10SM BKN200 32/06 A2973 RMK SLP068 8/008 HZY,MMCN,2023-06-05T23:49:00Z,27.4,-109.83,32.0,6.0,260,5,,10.0,29.731298,1006.8,,,,,,,,,,BKN,20000,,,,,,,VFR,,,,,,,,,,,,METAR,57.0
KIWA 052349Z 26017G22KT 10SM CLR 39/M01 A2968,KIWA,2023-06-05T23:49:00Z,33.3,-111.65,39.0,-1.0,260,17,22,10.0,29.681103,,,,,,,,,,,CLR,,,,,,,,VFR,,,,,,,,,,,,METAR,420.0
KFME 052349Z AUTO 01003KT CLR 22/06 A2989 RMK AO1,KFME,2023-06-05T23:49:00Z,39.08,-76.77,22.0,6.0,10,3,,,29.890747,,,TRUE,TRUE,,,,,,,CLR,,,,,,,,,,,,,,,,,,,,METAR,43.0
K2W6 052349Z AUTO 00000KT 10SM CLR 20/11 A2988 RMK AO1,K2W6,2023-06-05T23:49:00Z,38.32,-76.55,20.0,11.0,0,0,,10.0,29.878937,,,TRUE,TRUE,,,,,,,CLR,,,,,,,,VFR,,,,,,,,,,,,METAR,40.0
CYLJ 052349Z 10011KT 15SM -TSRA SCT054CB BKN093 22/19 A2983 RMK CB3AC4 TS ALQDS MOV NE SLP107 DENSITY ALT 2900FT,CYLJ,2023-06-05T23:49:00Z,54.12,-108.52,22.0,19.0,100,11,,15.0,29.828741,1010.7,,,,,,,,,-TSRA,SCT,5400,BKN,9300,,,,,VFR,,,,,,,,,,,,SPECI,481.0
CYKY 052349Z 21019G24KT 15SM FEW076 FEW100 32/13 A2982 RMK CU2AC1 AC TR WSHFT 2332 TCU TOPS NE SLP088 DENSITY ALT 4800FT,CYKY,2023-06-05T23:49:00Z,51.52,-109.17,32.0,13.0,210,19,24,15.0,29.819881,1008.8,,,,,,,,,,FEW,7600,FEW,10000,,,,,VFR,,,,,,,,,,,,SPECI,692.0
MMSD 052348Z 14015KT 10SM SKC 32/02 A2978 RMK SLP068 57014 951,MMSD,2023-06-05T23:48:00Z,23.15,-109.72,32.0,2.0,140,15,,10.0,29.778543,1006.8,,,,,,,,,,SKC,,,,,,,,VFR,-1.4,,,,,,,,,,,METAR,107.0
MMPB 052348Z 19018KT 8SM SCT025 SCT230 22/10 A3016 RMK 8/202 HZY,MMPB,2023-06-05T23:48:00Z,19.17,-98.37,22.0,10.0,190,18,,8.0,30.159449,,,,,,,,,,,SCT,2500,SCT,23000,,,,,VFR,,,,,,,,,,,,METAR,2250.0
MMMX 052348Z 15012KT 8SM SCT020CB 25/09 A3015 NOSIG RMK SLP012 57016 904 8/300 HZY,MMMX,2023-06-05T23:48:00Z,19.43,-99.08,25.0,9.0,150,12,,8.0,30.15059,1001.2,,,,,TRUE,,,,,SCT,2000,,,,,,,VFR,-1.6,,,,,,,,,,,METAR,2224.0
MMIO 052348Z 36010KT 10SM SCT040 BKN200 26/11 A3010 RMK 8/508,MMIO,2023-06-05T23:48:00Z,25.55,-100.93,26.0,11.0,360,10,,10.0,30.100393,,,,,,,,,,,SCT,4000,BKN,20000,,,,,VFR,,,,,,,,,,,,METAR,1430.0
KTRK 052348Z 26016G19KT 10SM VCTS BKN080 OVC110 17/04 A3005 RMK LTG DSNT SE SW AND NW,KTRK,2023-06-05T23:48:00Z,39.32,-120.13,17.0,4.0,260,16,19,10.0,30.050198,,,,,,,,,,VCTS,BKN,8000,OVC,11000,,,,,VFR,,,,,,,,,,,,METAR,1800.0
KSUA 052348Z 04012KT 7SM CLR 26/16 A2990,KSUA,2023-06-05T23:48:00Z,27.18,-80.22,26.0,16.0,40,12,,7.0,29.899607,,,,,,,,,,,CLR,,,,,,,,VFR,,,,,,,,,,,,METAR,4.0
KJDN 052348Z AUTO 15010G20KT 29/11 A2991 RMK AO1 SLP112 T02940111 10306 20278 56016,KJDN,2023-06-05T23:48:00Z,47.33,-106.95,29.4,11.1,150,10,20,,29.911417,1011.2,,TRUE,TRUE,,,,,,,,,,,,,,,,-1.6,30.6,27.8,,,,,,,,,METAR,802.0
KASG 052348Z 05007KT 10SM CLR 29/20 A2996,KASG,2023-06-05T23:48:00Z,36.17,-94.12,29.0,20.0,50,7,,10.0,29.958662,,,,,,,,,,,CLR,,,,,,,,VFR,,,,,,,,,,,,METAR,410.0
CZVL 052348Z AUTO 27009KT 250V310 9SM BKN022 17/11 A2993 RMK SLP140 DENSITY ALT 3000FT,CZVL,2023-06-05T23:48:00Z,53.67,-113.85,17.0,11.0,270,9,,9.0,29.929134,1014.0,,TRUE,,,,,,,,BKN,2200,,,,,,,MVFR,,,,,,,,,,,,SPECI,685.0
MMSP 052347Z 14012KT 10SM FEW030CB 26/08 A3008 RMK SLP048 57015 927 8/300 ISOL CI,MMSP,2023-06-05T23:47:00Z,22.25,-100.93,26.0,8.0,140,12,,10.0,30.079725,1004.8,,,,,,,,,,FEW,3000,,,,,,,VFR,-1.5,,,,,,,,,,,METAR,1841.0
MMCT 052347Z 06008KT 6SM SCT025CB BKN100 BKN200 24/20 A2979 RMK 8/363 PCPN E,MMCT,2023-06-05T23:47:00Z,20.63,-88.45,24.0,20.0,60,8,,6.0,29.790354,,,,,,,,,,,SCT,2500,BKN,10000,BKN,20000,,,VFR,,,,,,,,,,,,METAR,29.0
KTOA 052347Z 15006KT 10SM SCT025 BKN043 21/08 A2989,KTOA,2023-06-05T23:47:00Z,33.8,-118.33,21.0,8.0,150,6,,10.0,29.890747,,,,,,,,,,,SCT,2500,BKN,4300,,,,,VFR,,,,,,,,,,,,METAR,30.0
KTIX 052347Z 03010KT 7SM SCT030 28/18 A2993,KTIX,2023-06-05T23:47:00Z,28.5,-80.8,28.0,18.0,30,10,,7.0,29.929134,,,,,,,,,,,SCT,3000,,,,,,,VFR,,,,,,,,,,,,METAR,10.0
KSQL 052347Z 25015G24KT 10SM SCT040 20/12 A2980,KSQL,2023-06-05T23:47:00Z,37.52,-122.25,20.0,12.0,250,15,24,10.0,29.799213,,,,,,,,,,,SCT,4000,,,,,,,VFR,,,,,,,,,,,,METAR,1.0
KSEE 052347Z 23009KT 10SM BKN033 19/11 A2989,KSEE,2023-06-05T23:47:00Z,32.82,-116.97,19.0,11.0,230,9,,10.0,29.890747,,,,,,,,,,,BKN,3300,,,,,,,VFR,,,,,,,,,,,,METAR,113.0
KSAW 052347Z 36009KT 7SM CLR 16/11 A3011,KSAW,2023-06-05T23:47:00Z,46.35,-87.4,16.0,11.0,360,9,,7.0,30.109253,,,,,,,,,,,CLR,,,,,,,,VFR,,,,,,,,,,,,METAR,359.0
KMWN 052347Z 01042G51KT 1/16SM -RA FG VV001 02/02 RMK 60012 10019 20012,KMWN,2023-06-05T23:47:00Z,44.27,-71.3,2.0,2.0,10,42,51,0.06,,,,,,,,,,,-RA FG,OVX,0,,,,,,,LIFR,,1.9,1.2,,,,,0.12,,,100,METAR,1911.0
KLBE 052347Z 00000KT 10SM CLR 21/05 A2995,KLBE,2023-06-05T23:47:00Z,40.27,-79.4,21.0,5.0,0,0,,10.0,29.949802,,,,,,,,,,,CLR,,,,,,,,VFR,,,,,,,,,,,,METAR,345.0
KGYR 052347Z 22016G24KT 10SM FEW120 SCT200 BKN250 40/M09 A2965,KGYR,2023-06-05T23:47:00Z,33.42,-112.37,40.0,-9.0,220,16,24,10.0,29.648623,,,,,,,,,,,FEW,12000,SCT,20000,BKN,25000,,,VFR,,,,,,,,,,,,METAR,292.0
KGYH 052347Z 16007KT 10SM BKN040 23/18 A2993,KGYH,2023-06-05T23:47:00Z,34.75,-82.38,23.0,18.0,160,7,,10.0,29.929134,,,,,,,,,,,BKN,4000,,,,,,,VFR,,,,,,,,,,,,METAR,283.0
KFDK 052347Z 35005KT 10SM CLR 24/08 A2989,KFDK,2023-06-05T23:47:00Z,39.42,-77.37,24.0,8.0,350,5,,10.0,29.890747,,,,,,,,,,,CLR,,,,,,,,VFR,,,,,,,,,,,,METAR,82.0
KEVB 052347Z 03010KT 10SM SKC 24/21 A2993,KEVB,2023-06-05T23:47:00Z,29.05,-80.95,24.0,21.0,30,10,,10.0,29.929134,,,,,,,,,,,SKC,,,,,,,,VFR,,,,,,,,,,,,METAR,2.0
KCWA 052347Z 00000KT 5SM HZ SCT120 26/15 A3004,KCWA,2023-06-05T23:47:00Z,44.78,-89.67,26.0,15.0,0,0,,5.0,30.041338,,,,,,,,,,HZ,SCT,12000,,,,,,,MVFR,,,,,,,,,,,,METAR,387.0
KCQT 052347Z AUTO 00000KT 10SM OVC035 20/11 A2988 RMK AO2 SLP118 60000 T02000106 10200 20161 58009,KCQT,2023-06-05T23:47:00Z,34.02,-118.28,20.0,10.6,0,0,,10.0,29.878937,1011.8,,TRUE,TRUE,,,,,,,OVC,3500,,,,,,,VFR,-0.9,20.0,16.1,,,,,0.005,,,,METAR,51.0
KCIC 052347Z 27010KT 10SM SCT080 35/12 A2963,KCIC,2023-06-05T23:47:00Z,39.78,-121.85,35.0,12.0,270,10,,10.0,29.630905,,,,,,,,,,,SCT,8000,,,,,,,VFR,,,,,,,,,,,,METAR,72.0
KCHD 052347Z 21014G19KT 10SM SCT250 40/M12 A2967,KCHD,2023-06-05T23:47:00Z,33.27,-111.82,40.0,-12.0,210,14,19,10.0,29.66929,,,,,,,,,,,SCT,25000,,,,,,,VFR,,,,,,,,,,,,METAR,378.0
KCFO 052347Z 23008KT 10SM SCT050 18/12 A3018,KCFO,2023-06-05T23:47:00Z,39.78,-104.55,18.0,12.0,230,8,,10.0,30.180119,,,,,,,,,,,SCT,5000,,,,,,,VFR,,,,,,,,,,,,METAR,1672.0
KAQV 052347Z AUTO VRB04KT 1SM TSRA BR BKN031 BKN070 OVC090 20/19 A2991 RMK AO2 RAB14 P0087 T02000189,KAQV,2023-06-05T23:47:00Z,31.4,-93.3,20.0,18.9,0,4,,1.0,29.911417,,,TRUE,TRUE,,,,,,TSRA BR,BKN,3100,BKN,7000,OVC,9000,,,IFR,,,,,,0.87,,,,,,SPECI,123.0
KANE 052347Z 02004KT 10SM CLR 28/17 A3004,KANE,2023-06-05T23:47:00Z,45.15,-93.22,28.0,17.0,20,4,,10.0,30.041338,,,,,,,,,,,CLR,,,,,,,,VFR,,,,,,,,,,,,METAR,276.0
KAEG 052347Z 25025G30KT 10SM VCSH SCT035CB BKN065 21/04 A3011 RMK LTG DSNT NE-S,KAEG,2023-06-05T23:47:00Z,35.13,-106.8,21.0,4.0,250,25,30,10.0,30.109253,,,,,,,,,,VCSH,SCT,3500,BKN,6500,,,,,VFR,,,,,,,,,,,,METAR,1771.0
MMSL 052346Z 27014KT 10SM SKC 28/14 A2979,MMSL,2023-06-05T23:46:00Z,22.95,-109.93,28.0,14.0,270,14,,10.0,29.790354,,,,,,,,,,,SKC,,,,,,,,VFR,,,,,,,,,,,,METAR,205.0
MMLP 052346Z 22012KT 10SM SKC 31/07 A2980 RMK SLP091 57014 914 ISOL CI,MMLP,2023-06-05T23:46:00Z,24.07,-110.37,31.0,7.0,220,12,,10.0,29.799213,1009.1,,,,,,,,,,SKC,,,,,,,,VFR,-1.4,,,,,,,,,,,METAR,16.0
KROS 052346Z AUTO 04005KT 10SM CLR 28/20 A3006 RMK AO2,KROS,2023-06-05T23:46:00Z,45.7,-92.95,28.0,20.0,40,5,,10.0,30.059055,,,TRUE,TRUE,,,,,,,CLR,,,,,,,,VFR,,,,,,,,,,,,METAR,282.0
CWSA 052346Z AUTO 09022G30KT 1SM -TSRA BR 10/10 A2952 RMK LTNG DIST S SW CLD MISG SLP998,CWSA,2023-06-05T23:46:00Z,43.93,-60.0,10.0,10.0,90,22,30,1.0,29.518702,999.8,,TRUE,,,,,,,-TSRA BR,,,,,,,,,,,,,,,,,,,,,SPECI,4.0
PTSA 052345Z 13003KT 10SM -SHRA BKN019TCU BKN130 BKN300 28/25 A2984 RMK TCU OHD,PTSA,2023-06-05T23:45:00Z,5.35,162.95,28.0,25.0,130,3,,10.0,29.840551,,,,,,,,,,-SHRA,BKN,1900,BKN,13000,BKN,30000,,,MVFR,,,,,,,,,,,,METAR,3.0
MMCZ 052345Z 11005KT 7SM FEW015 BKN120 BKN250 29/25 A2981 RMK SLP101 52002 917 8/477 CB 4 QUAD,MMCZ,2023-06-05T23:45:00Z,20.52,-86.92,29.0,25.0,110,5,,7.0,29.811024,1010.1,,,,,,,,,,FEW,1500,BKN,12000,BKN,25000,,,VFR,0.2,,,,,,,,,,,METAR,7.0
MMCS 052345Z 08008KT 10SM FEW030CB SCT200 32/05 A2995 RMK SLP026 57020 915 8/308,MMCS,2023-06-05T23:45:00Z,31.63,-106.42,32.0,5.0,80,8,,10.0,29.949802,1002.6,,,,,,,,,,FEW,3000,SCT,20000,,,,,VFR,-2.0,,,,,,,,,,,METAR,1194.0
LMML 052345Z 08010KT CAVOK 20/17 Q1013 NOSIG,LMML,2023-06-05T23:45:00Z,35.85,14.47,20.0,17.0,80,10,,6.21,29.911417,,,,,,TRUE,,,,,CAVOK,,,,,,,,VFR,,,,,,,,,,,,METAR,78.0
LIRP 052345Z 11004KT 9999 SCT030 17/17 Q1015 TEMPO 5000 BR,LIRP,2023-06-05T23:45:00Z,43.68,10.38,17.0,17.0,110,4,,6.21,29.970472,,,,,,,,,,,SCT,3000,,,,,,,VFR,,,,,,,,,,,,METAR,1.0
LHSN 052345Z 14004KT 9999 FEW050TCU SCT060 OVC083 19/16 Q1017 NOSIG RMK BLU,LHSN,2023-06-05T23:45:00Z,47.12,20.23,19.0,16.0,140,4,,6.21,30.029528,,,,,,TRUE,,,,,FEW,5000,SCT,6000,OVC,8300,,,VFR,,,,,,,,,,,,METAR,89.0
LHSM 052345Z AUTO 33004KT 9999 BKN022 17/17 Q1016,LHSM,2023-06-05T23:45:00Z,46.68,17.17,17.0,17.0,330,4,,6.21,30.0,,,TRUE,,,,,,,,BKN,2200,,,,,,,MVFR,,,,,,,,,,,,METAR,119.0
LHPR 052345Z AUTO VRB02KT 6000 RA NSC 17/17 Q1016,LHPR,2023-06-05T23:45:00Z,47.63,17.82,17.0,17.0,0,2,,3.73,30.0,,,TRUE,,,,,,,RA,CLR,,,,,,,,MVFR,,,,,,,,,,,,METAR,127.0
LHPP 052345Z AUTO 31003KT 9999 -RA NSC 18/17 Q1016,LHPP,2023-06-05T23:45:00Z,45.98,18.23,18.0,17.0,310,3,,6.21,30.0,,,TRUE,,,,,,,-RA,CLR,,,,,,,,VFR,,,,,,,,,,,,METAR,193.0
LHPA 052345Z 26002KT 3500 -SHRA FEW043TCU SCT053 OVC083 17/17 Q1016 TEMPO 6000 RA RMK YLO,LHPA,2023-06-05T23:45:00Z,47.35,17.5,17.0,17.0,260,2,,2.17,30.0,,,,,,,,,,-SHRA,FEW,4300,SCT,5300,OVC,8300,,,IFR,,,,,,,,,,,,METAR,143.0
LHKE 052345Z 15008KT CAVOK 18/16 Q1017 NOSIG RMK BLU,LHKE,2023-06-05T23:45:00Z,46.92,19.75,18.0,16.0,150,8,,6.21,30.029528,,,,,,TRUE,,,,,CAVOK,,,,,,,,VFR,,,,,,,,,,,,METAR,113.0
LHDC 052345Z AUTO VRB02KT CAVOK 18/15 Q1018 NOSIG,LHDC,2023-06-05T23:45:00Z,47.48,21.62,18.0,15.0,0,2,,6.21,30.059055,,,TRUE,,,TRUE,,,,,CAVOK,,,,,,,,VFR,,,,,,,,,,,,METAR,105.0
KW29 052345Z AUTO 21004KT 10SM CLR 21/14 A2986 RMK AO2 T02130136 10246 20213 402460124,KW29,2023-06-05T23:45:00Z,38.98,-76.33,21.3,13.6,210,4,,10.0,29.861221,,,TRUE,TRUE,,,,,,,CLR,,,,,,,,VFR,,24.6,21.3,24.6,12.4,,,,,,,METAR,1.0
KVVV 052345Z AUTO 01005KT 10SM CLR 29/16 A3001 RMK AO2,KVVV,2023-06-05T23:45:00Z,45.3,-96.42,29.0,16.0,10,5,,10.0,30.008858,,,TRUE,TRUE,,,,,,,CLR,,,,,,,,VFR,,,,,,,,,,,,METAR,334.0
KVUJ 052345Z AUTO 00000KT 10SM CLR 22/17 A2997 RMK AO2 T02200168,KVUJ,2023-06-05T23:45:00Z,35.42,-80.15,22.0,16.8,0,0,,10.0,29.970472,,,TRUE,TRUE,,,,,,,CLR,,,,,,,,VFR,,,,,,,,,,,,METAR,174.0
KUKF 052345Z AUTO 00000KT 10SM CLR 21/17 A2999 RMK AO2,KUKF,2023-06-05T23:45:00Z,36.22,-81.1,21.0,17.0,0,0,,10.0,29.991142,,,TRUE,TRUE,,,,,,,CLR,,,,,,,,VFR,,,,,,,,,,,,METAR,383.0
KUES 052345Z 08007KT 10SM SCT090 24/07 A3003,KUES,2023-06-05T23:45:00Z,43.05,-88.25,24.0,7.0,80,7,,10.0,30.029528,,,,,,,,,,,SCT,9000,,,,,,,VFR,,,,,,,,,,,,METAR,273.0
KTTA 052345Z AUTO 25003KT 10SM CLR 23/15 A2991 RMK AO2 T02310150,KTTA,2023-06-05T23:45:00Z,35.58,-79.1,23.1,15.0,250,3,,10.0,29.911417,,,TRUE,TRUE,,,,,,,CLR,,,,,,,,VFR,,,,,,,,,,,,METAR,71.0
KTDF 052345Z AUTO 00000KT 10SM CLR 23/12 A2992 RMK AO2,KTDF,2023-06-05T23:45:00Z,36.28,-78.98,23.0,12.0,0,0,,10.0,29.920275,,,TRUE,TRUE,,,,,,,CLR,,,,,,,,VFR,,,,,,,,,,,,METAR,180.0
KSWF 052345Z 32006KT 10SM SCT070 20/07 A2980,KSWF,2023-06-05T23:45:00Z,41.5,-74.08,20.0,7.0,320,6,,10.0,29.799213,,,,,,,,,,,SCT,7000,,,,,,,VFR,,,,,,,,,,,,METAR,139.0
KSVH 052345Z AUTO 00000KT 10SM OVC032 22/18 A2993 RMK AO2 T02150175,KSVH,2023-06-05T23:45:00Z,35.75,-80.95,21.5,17.5,0,0,,10.0,29.929134,,,TRUE,TRUE,,,,,,,OVC,3200,,,,,,,VFR,,,,,,,,,,,,METAR,286.0
KSNH 052345Z AUTO 00000KT 10SM CLR 29/25 A2988 RMK A01,KSNH,2023-06-05T23:45:00Z,35.17,-88.22,29.0,25.0,0,0,,10.0,29.878937,,,TRUE,TRUE,,,,,,,CLR,,,,,,,,VFR,,,,,,,,,,,,METAR,142.0
KSIF 052345Z AUTO 00000KT 10SM CLR 23/17 A2991 RMK AO2 T02300165,KSIF,2023-06-05T23:45:00Z,36.43,-79.85,23.0,16.5,0,0,,10.0,29.911417,,,TRUE,TRUE,,,,,,,CLR,,,,,,,,VFR,,,,,,,,,,,,METAR,206.0
KSCR 052345Z AUTO 00000KT 10SM CLR 23/17 A2992 RMK AO2 T02250170,KSCR,2023-06-05T23:45:00Z,35.7,-79.5,22.5,17.0,0,0,,10.0,29.920275,,,TRUE,TRUE,,,,,,,CLR,,,,,,,,VFR,,,,,,,,,,,,METAR,182.0
KRUQ 052345Z AUTO 23004KT 10SM CLR 22/17 A2993 RMK AO2 T02150165,KRUQ,2023-06-05T23:45:00Z,35.65,-80.52,21.5,16.5,230,4,,10.0,29.929134,,,TRUE,TRUE,,,,,,,CLR,,,,,,,,VFR,,,,,,,,,,,,METAR,231.0
KPGV 052345Z AUTO 00000KT 10SM CLR 25/10 A2989 RMK AO2,KPGV,2023-06-05T23:45:00Z,35.63,-77.4,25.0,10.0,0,0,,10.0,29.890747,,,TRUE,TRUE,,,,,,,CLR,,,,,,,,VFR,,,,,,,,,,,,METAR,6.0
KOUN 052345Z 08007KT 10SM CLR 29/15 A2993,KOUN,2023-06-05T23:45:00Z,35.25,-97.47,29.0,15.0,80,7,,10.0,29.929134,,,,,,,,,,,CLR,,,,,,,,VFR,,,,,,,,,,,,METAR,359.0
KONX 052345Z AUTO 13004KT 10SM CLR 19/11 A2990 RMK AO2 T01920114,KONX,2023-06-05T23:45:00Z,36.4,-76.02,19.2,11.4,130,4,,10.0,29.899607,,,TRUE,TRUE,,,,,,,CLR,,,,,,,,VFR,,,,,,,,,,,,METAR,4.0
KOCW 052345Z AUTO 00000KT 10SM CLR 24/10 A2989 RMK AO2 T02400099,KOCW,2023-06-05T23:45:00Z,35.57,-77.05,24.0,9.9,0,0,,10.0,29.890747,,,TRUE,TRUE,,,,,,,CLR,,,,,,,,VFR,,,,,,,,,,,,METAR,10.0
KMWK 052345Z AUTO 25003KT 10SM SCT031 22/17 A2995 RMK AO2 T02220170,KMWK,2023-06-05T23:45:00Z,36.47,-80.55,22.2,17.0,250,3,,10.0,29.949802,,,TRUE,TRUE,,,,,,,SCT,3100,,,,,,,VFR,,,,,,,,,,,,METAR,374.0
KMWC 052345Z 09005KT 10SM CLR 23/02 A3004,KMWC,2023-06-05T23:45:00Z,43.12,-88.03,23.0,2.0,90,5,,10.0,30.041338,,,,,,,,,,,CLR,,,,,,,,VFR,,,,,,,,,,,,METAR,225.0
KMWA 052345Z 36008KT 20SM CLR 26/06 A2993,KMWA,2023-06-05T23:45:00Z,37.77,-89.02,26.0,6.0,360,8,,20.0,29.929134,,,,,,,,,,,CLR,,,,,,,,VFR,,,,,,,,,,,,METAR,142.0
KMRN 052345Z AUTO 00000KT OVC029 22/19 A2995 RMK AO2 T02200191,KMRN,2023-06-05T23:45:00Z,35.82,-81.62,22.0,19.1,0,0,,,29.949802,,,TRUE,TRUE,,,,,,,OVC,2900,,,,,,,,,,,,,,,,,,,METAR,375.0
KMMU 052345Z 36005KT 10SM SCT090 BKN250 21/04 A2981,KMMU,2023-06-05T23:45:00Z,40.78,-74.42,21.0,4.0,360,5,,10.0,29.811024,,,,,,,,,,,SCT,9000,BKN,25000,,,,,VFR,,,,,,,,,,,,METAR,55.0
KMCZ 052345Z AUTO 31003KT 10SM CLR 24/12 A2989 RMK AO2 T02400115 10269 20239 402690082,KMCZ,2023-06-05T23:45:00Z,,,24.0,11.5,310,3,,10.0,29.890747,,,TRUE,TRUE,,,,,,,CLR,,,,,,,,VFR,,26.9,23.9,26.9,8.2,,,,,,,METAR,
KLOT 052345Z 07009KT 10SM CLR 26/07 A3002,KLOT,2023-06-05T23:45:00Z,41.6,-88.1,26.0,7.0,70,9,,10.0,30.02067,,,,,,,,,,,CLR,,,,,,,,VFR,,,,,,,,,,,,METAR,205.0
KLAL 052345Z 09009KT 10SM FEW050 28/16 A2990,KLAL,2023-06-05T23:45:00Z,27.98,-82.02,28.0,16.0,90,9,,10.0,29.899607,,,,,,,,,,,FEW,5000,,,,,,,VFR,,,,,,,,,,,,METAR,39.0
KJVL 052345Z VRB04KT 10SM SCT250 29/M02 A3001,KJVL,2023-06-05T23:45:00Z,42.62,-89.05,29.0,-2.0,0,4,,10.0,30.008858,,,,,,,,,,,SCT,25000,,,,,,,VFR,,,,,,,,,,,,METAR,244.0
KJNX 052345Z AUTO 00000KT 10SM CLR 22/16 A2989 RMK AO2,KJNX,2023-06-05T23:45:00Z,35.53,-78.38,22.0,16.0,0,0,,10.0,29.890747,,,TRUE,TRUE,,,,,,,CLR,,,,,,,,VFR,,,,,,,,,,,,METAR,41.0
KIPJ 052345Z AUTO 00000KT 10SM OVC037 22/18 A2994 RMK AO2 T02150176,KIPJ,2023-06-05T23:45:00Z,35.48,-81.17,21.5,17.6,0,0,,10.0,29.940945,,,TRUE,TRUE,,,,,,,OVC,3700,,,,,,,VFR,,,,,,,,,,,,METAR,266.0
KHRJ 052345Z AUTO 00000KT 10SM CLR 24/13 A2991 RMK AO2 T02440133 10269 20239 402690129,KHRJ,2023-06-05T23:45:00Z,35.38,-78.73,24.4,13.3,0,0,,10.0,29.911417,,,TRUE,TRUE,,,,,,,CLR,,,,,,,,VFR,,26.9,23.9,26.9,12.9,,,,,,,METAR,55.0
KHBI 052345Z AUTO 22004KT 10SM CLR 23/16 A2995 RMK AO2 T02250160,KHBI,2023-06-05T23:45:00Z,35.65,-79.9,22.5,16.0,220,4,,10.0,29.949802,,,TRUE,TRUE,,,,,,,CLR,,,,,,,,VFR,,,,,,,,,,,,METAR,199.0
KGYY 052345Z 00000KT 10SM CLR 22/07 A3003,KGYY,2023-06-05T23:45:00Z,41.62,-87.42,22.0,7.0,0,0,,10.0,30.029528,,,,,,,,,,,CLR,,,,,,,,VFR,,,,,,,,,,,,METAR,179.0
KGEV 052345Z AUTO 00000KT 10SM CLR 18/15 A3001 RMK AO2 T01790151,KGEV,2023-06-05T23:45:00Z,36.43,-81.42,17.9,15.1,0,0,,10.0,30.008858,,,TRUE,TRUE,,,,,,,CLR,,,,,,,,VFR,,,,,,,,,,,,METAR,961.0
KFQD 052345Z AUTO 00000KT 10SM OVC025 22/18 A2995 RMK AO2,KFQD,2023-06-05T23:45:00Z,35.42,-81.93,22.0,18.0,0,0,,10.0,29.949802,,,TRUE,TRUE,,,,,,,OVC,2500,,,,,,,MVFR,,,,,,,,,,,,METAR,325.0
KFMH 052345Z 02010KT 10SM BKN090 13/09 A2978,KFMH,2023-06-05T23:45:00Z,41.65,-70.52,13.0,9.0,20,10,,10.0,29.778543,,,,,,,,,,,BKN,9000,,,,,,,VFR,,,,,,,,,,,,METAR,35.0
KEMT 052345Z 15004KT 10SM BKN032 19/10 A2989,KEMT,2023-06-05T23:45:00Z,34.08,-118.03,19.0,10.0,150,4,,10.0,29.890747,,,,,,,,,,,BKN,3200,,,,,,,VFR,,,,,,,,,,,,METAR,84.0
KEHO 052345Z AUTO 15003KT 10SM BKN027 OVC034 22/18 A2994 RMK AO2 T02200179,KEHO,2023-06-05T23:45:00Z,35.25,-81.6,22.0,17.9,150,3,,10.0,29.940945,,,TRUE,TRUE,,,,,,,BKN,2700,OVC,3400,,,,,MVFR,,,,,,,,,,,,METAR,261.0
KEDE 052345Z AUTO 08007KT 10SM SCT075 22/18 A2990 RMK AO2 T02160180,KEDE,2023-06-05T23:45:00Z,36.03,-76.57,21.6,18.0,80,7,,10.0,29.899607,,,TRUE,TRUE,,,,,,,SCT,7500,,,,,,,VFR,,,,,,,,,,,,METAR,4.0
KDPL 052345Z AUTO 00000KT 10SM CLR 21/15 A2990 RMK AO2,KDPL,2023-06-05T23:45:00Z,35.0,-77.97,21.0,15.0,0,0,,10.0,29.899607,,,TRUE,TRUE,,,,,,,CLR,,,,,,,,VFR,,,,,,,,,,,,METAR,39.0
KDMW 052345Z AUTO 00000KT 10SM CLR 23/07 A2989 RMK AO2,KDMW,2023-06-05T23:45:00Z,39.6,-77.0,23.0,7.0,0,0,,10.0,29.890747,,,TRUE,TRUE,,,,,,,CLR,,,,,,,,VFR,,,,,,,,,,,,METAR,239.0
KCTZ 052345Z AUTO 00000KT 10SM SCT065 25/15 A2990 RMK AO2 T02460151,KCTZ,2023-06-05T23:45:00Z,34.98,-78.37,24.6,15.1,0,0,,10.0,29.899607,,,TRUE,TRUE,,,,,,,SCT,6500,,,,,,,VFR,,,,,,,,,,,,METAR,43.0
KCPC 052345Z AUTO 18006KT 10SM CLR 23/12 A2993 RMK AO2 T02320121,KCPC,2023-06-05T23:45:00Z,34.28,-78.72,23.2,12.1,180,6,,10.0,29.929134,,,TRUE,TRUE,,,,,,,CLR,,,,,,,,VFR,,,,,,,,,,,,METAR,27.0
KCGF 052345Z 00000KT 10SM CLR 19/06 A2999,KCGF,2023-06-05T23:45:00Z,41.57,-81.47,19.0,6.0,0,0,,10.0,29.991142,,,,,,,,,,,CLR,,,,,,,,VFR,,,,,,,,,,,,METAR,265.0
KCGE 052345Z AUTO 26003KT 10SM CLR 21/12 A2986 RMK A01,KCGE,2023-06-05T23:45:00Z,38.53,-76.03,21.0,12.0,260,3,,10.0,29.861221,,,TRUE,TRUE,,,,,,,CLR,,,,,,,,VFR,,,,,,,,,,,,METAR,5.0
KCBE 052345Z AUTO 11007KT 10SM CLR 23/06 A2995 RMK AO2 T02270057 10255 20226 402550068,KCBE,2023-06-05T23:45:00Z,39.62,-78.77,22.7,5.7,110,7,,10.0,29.949802,,,TRUE,TRUE,,,,,,,CLR,,,,,,,,VFR,,25.5,22.6,25.5,6.8,,,,,,,METAR,226.0
KBAK 052345Z 36009KT 6SM HZ SCT200 25/02 A2996,KBAK,2023-06-05T23:45:00Z,39.27,-85.9,25.0,2.0,360,9,,6.0,29.958662,,,,,,,,,,HZ,SCT,20000,,,,,,,VFR,,,,,,,,,,,,METAR,199.0
KATW 052345Z 10005KT 6SM HZ SCT070 27/12 A3000,KATW,2023-06-05T23:45:00Z,44.27,-88.52,27.0,12.0,100,5,,6.0,30.0,,,,,,,,,,HZ,SCT,7000,,,,,,,VFR,,,,,,,,,,,,METAR,266.0
KASJ 052345Z AUTO 00000KT 10SM BKN075 21/14 A2989 RMK AO2 T02140138,KASJ,2023-06-05T23:45:00Z,36.28,-77.17,21.4,13.8,0,0,,10.0,29.890747,,,TRUE,TRUE,,,,,,,BKN,7500,,,,,,,VFR,,,,,,,,,,,,METAR,20.0
KACZ 052345Z AUTO 00000KT 10SM CLR 21/16 A2990 RMK AO2 T02090160 10269 20208 402690078,KACZ,2023-06-05T23:45:00Z,,,20.9,16.0,0,0,,10.0,29.899607,,,TRUE,TRUE,,,,,,,CLR,,,,,,,,VFR,,26.9,20.8,26.9,7.8,,,,,,,METAR,
K7W6 052345Z AUTO 13006KT 10SM SCT070 20/15 A2990 RMK AO2 T01950150,K7W6,2023-06-05T23:45:00Z,35.55,-75.95,19.5,15.0,130,6,,10.0,29.899607,,,TRUE,TRUE,,,,,,,SCT,7000,,,,,,,VFR,,,,,,,,,,,,METAR,1.0
K2G4 052345Z AUTO 00000KT 10SM CLR 16/05 A3001 RMK AO2,K2G4,2023-06-05T23:45:00Z,39.58,-79.33,16.0,5.0,0,0,,10.0,30.008858,,,TRUE,TRUE,,,,,,,CLR,,,,,,,,VFR,,,,,,,,,,,,METAR,908.0
CYVM 052345Z AUTO 06006KT 9SM BKN012 OVC023 00/M03 A3020 RMK SLP230,CYVM,2023-06-05T23:45:00Z,67.55,-64.02,0.0,-3.0,60,6,,9.0,30.200787,1023.0,,TRUE,,,,,,,,BKN,1200,OVC,2300,,,,,MVFR,,,,,,,,,,,,SPECI,3.0
CYMM 052345Z AUTO 32007KT 9SM -TSRA BKN047 BKN060 BKN075 OVC170 22/18 A2984 RMK LTNG DIST S SW W SLP110 DENSITY ALT 2500FT,CYMM,2023-06-05T23:45:00Z,56.65,-111.22,22.0,18.0,320,7,,9.0,29.840551,1011.0,,TRUE,,,,,,,-TSRA,BKN,4700,BKN,6000,BKN,7500,OVC,17000,VFR,,,,,,,,,,,,SPECI,371.0
CWPF 052345Z AUTO 18007KT 16/04 RMK AO1 SLP198 T01570037 58022,CWPF,2023-06-05T23:45:00Z,48.43,-123.43,15.7,3.7,180,7,,,,1019.8,,TRUE,TRUE,,,,,,,,,,,,,,,,-2.2,,,,,,,,,,,METAR,5.0
MMZC 052344Z E36006KT 10SM BKN050 27/04 A3010 RMK 8/200 DSNT CB NE,MMZC,2023-06-05T23:44:00Z,22.9,-102.68,27.0,4.0,360,6,,10.0,30.100393,,,,,,,,,,,BKN,5000,,,,,,,VFR,,,,,,,,,,,,METAR,2175.0
MMTP 052344Z 36006KT 5SM BKN020CB OVC100 27/27 A2984 RMK SLP328 52002 917 8/36/ HZY OCNL LTG N,MMTP,2023-06-05T23:44:00Z,14.78,-92.37,27.0,27.0,360,6,,5.0,29.840551,1032.8,,,,,,,,,,BKN,2000,OVC,10000,,,,,MVFR,0.2,,,,,,,,,,,METAR,27.0
MMMA 052344Z 00000KT 10SM FEW080 SCT200 25/20 A2986 RMK SLP110 57005 921 8/063 DSNT CB E,MMMA,2023-06-05T23:44:00Z,25.77,-97.52,25.0,20.0,0,0,,10.0,29.861221,1011.0,,,,,,,,,,FEW,8000,SCT,20000,,,,,VFR,-0.5,,,,,,,,,,,METAR,7.0
MMCU 052344Z 12006KT 10SM FEW030CB SCT100 SCT200 31/06 A2997 RMK SLP041 57016 918 8/963 SC,MMCU,2023-06-05T23:44:00Z,28.7,-105.97,31.0,6.0,120,6,,10.0,29.970472,1004.1,,,,,,,,,,FEW,3000,SCT,10000,SCT,20000,,,VFR,-1.6,,,,,,,,,,,METAR,1349.0
MMCL 052344Z 24012KT 10SM BKN230 33/15 A2975 RMK SLP074 57013 910 8/002 HZY,MMCL,2023-06-05T23:44:00Z,24.77,-107.47,33.0,15.0,240,12,,10.0,29.749016,1007.4,,,,,,,,,,BKN,23000,,,,,,,VFR,-1.3,,,,,,,,,,,METAR,35.0
MMCE 052344Z 34006KT 6SM SCT040 BKN100 OVC200 30/23 A2979 RMK SLP085 52007 914 8/517 BINOVC HZY,MMCE,2023-06-05T23:44:00Z,18.65,-91.8,30.0,23.0,340,6,,6.0,29.790354,1008.5,,,,,,,,,,SCT,4000,BKN,10000,OVC,20000,,,VFR,0.7,,,,,,,,,,,METAR,5.0
MMAS 052344Z 03006KT 10SM FEW050 29/M08 A3003 RMK SLP019 5//// 9// 6//// 8/100,MMAS,2023-06-05T23:44:00Z,21.7,-102.32,29.0,-8.0,30,6,,10.0,30.029528,1001.9,,,,,,,,,,FEW,5000,,,,,,,VFR,,,,,,,,,,,,METAR,1866.0
CYXH 052344Z CCA 20005KT 30SM TS SCT070CB OVC270 28/14 A2984 RMK CB4CI4 OCNL LTGCG S-W SLP098 DENSITY ALT 4500FT,CYXH,2023-06-05T23:44:00Z,50.02,-110.72,28.0,14.0,200,5,,30.0,29.840551,1009.8,,,,,,,,,TS,SCT,7000,OVC,27000,,,,,VFR,,,,,,,,,,,,SPECI,717.0
CYHD 052344Z AUTO 11007KT 9SM SCT024 OVC038 21/16 A3014 RMK SLP209 DENSITY ALT 2200FT,CYHD,2023-06-05T23:44:00Z,49.82,-92.75,21.0,16.0,110,7,,9.0,30.138779,1020.9,,TRUE,,,,,,,,SCT,2400,OVC,3800,,,,,VFR,,,,,,,,,,,,SPECI,414.0
CYBQ 052344Z AUTO 10008KT 2 1/4SM BR OVC002 10/10 A3005 RMK SLP190,CYBQ,2023-06-05T23:44:00Z,58.7,-98.5,10.0,10.0,100,8,,2.25,30.050198,1019.0,,TRUE,,,,,,,BR,OVC,200,,,,,,,LIFR,,,,,,,,,,,,SPECI,272.0
MMVA 052343Z 00000KT 4SM SCT018 BKN230 30/22 A2983 RMK SLP100 52017 931 8/108 HZY,MMVA,2023-06-05T23:43:00Z,18.0,-92.82,30.0,22.0,0,0,,4.0,29.828741,1010.0,,,,,,,,,,SCT,1800,BKN,23000,,,,,MVFR,1.7,,,,,,,,,,,METAR,13.0
MMTG 052343Z 18004KT 8SM SCT030 BKN080 OVC300 22/19 A2991 RMK SLP100 52011 941 60055 8/463 -RA E15 CB DSNT SE SW LWR ST E SE,MMTG,2023-06-05T23:43:00Z,16.57,-93.03,22.0,19.0,180,4,,8.0,29.911417,1010.0,,,,,,,,,,SCT,3000,BKN,8000,OVC,30000,,,VFR,1.1,,,,,,,,,,,METAR,463.0
MMOX 052343Z 20021KT 5SM BKN035 OVC070 19/14 A3014 RMK SLP118 52014 941 8/62/ PCPN SW FU HZ VRB CONDS,MMOX,2023-06-05T23:43:00Z,17.0,-96.72,19.0,14.0,200,21,,5.0,30.138779,1011.8,,,,,,,,,,BKN,3500,OVC,7000,,,,,MVFR,1.4,,,,,,,,,,,METAR,1528.0
MMCM 052343Z 00000KT 6SM SCT020 OVC100 30/26 A2982 RMK SLP099 5//// 930 8/72/ OCNL LGTICCG SW RA VC,MMCM,2023-06-05T23:43:00Z,18.5,-88.33,30.0,26.0,0,0,,6.0,29.819881,1009.9,,,,,,,,,,SCT,2000,OVC,10000,,,,,VFR,,,,,,,,,,,,METAR,10.0
MMCB 052343Z 16004KT 8SM FEW015 29/13 A2994 RMK 8/100 ISOL CI HZY,MMCB,2023-06-05T23:43:00Z,18.83,-99.27,29.0,13.0,160,4,,8.0,29.940945,,,,,,,,,,,FEW,1500,,,,,,,VFR,,,,,,,,,,,,METAR,1281.0
KEVM 052343Z AUTO 14008KT 10SM CLR 22/15 A3012 RMK AO2,KEVM,2023-06-05T23:43:00Z,47.42,-92.5,22.0,15.0,140,8,,10.0,30.121063,,,TRUE,TRUE,,,,,,,CLR,,,,,,,,VFR,,,,,,,,,,,,SPECI,419.0
RJNG 052342Z 20001KT 9999 FEW025 BKN180 BKN220 19/12 Q1010 RMK 1CU025 5AC180 A2983,RJNG,2023-06-05T23:42:00Z,35.38,136.87,19.0,12.0,200,1,,6.21,29.822834,,,,,,,,,,,FEW,2500,BKN,18000,BKN,22000,,,VFR,,,,,,,,,,,,METAR,39.0
RJAH 052342Z VRB01KT 4000 BR FEW004 SCT008 BKN250 22/20 Q1009 RMK 1ST004 3ST008 A2981,RJAH,2023-06-05T23:42:00Z,36.17,140.42,22.0,20.0,0,1,,2.49,29.793306,,,,,,,,,,BR,FEW,400,SCT,800,BKN,25000,,,IFR,,,,,,,,,,,,METAR,31.0
MMNL 052342Z 03007KT 10SM SCT040 33/18 A2982 RMK SLP081 52012 917 8/500,MMNL,2023-06-05T23:42:00Z,27.43,-99.57,33.0,18.0,30,7,,10.0,29.819881,1008.1,,,,,,,,,,SCT,4000,,,,,,,VFR,1.2,,,,,,,,,,,METAR,146.0
MMMZ 052342Z 27007KT 15SM SKC 29/22 A2977 RMK SLP076 57013 904 ISOL CU,MMMZ,2023-06-05T23:42:00Z,23.17,-106.27,29.0,22.0,270,7,,15.0,29.769686,1007.6,,,,,,,,,,SKC,,,,,,,,VFR,-1.3,,,,,,,,,,,METAR,7.0
MMGM 052342Z 21016KT 10SM SCT280 32/11 A2971 RMK 8/006,MMGM,2023-06-05T23:42:00Z,27.95,-110.92,32.0,11.0,210,16,,10.0,29.71063,,,,,,,,,,,SCT,28000,,,,,,,VFR,,,,,,,,,,,,METAR,13.0
KSLR 052342Z AUTO 00000KT 10SM CLR 28/16 A2991 RMK AO2 LTG DSNT S,KSLR,2023-06-05T23:42:00Z,33.17,-95.62,28.0,16.0,0,0,,10.0,29.911417,,,TRUE,TRUE,,,,,,,CLR,,,,,,,,VFR,,,,,,,,,,,,METAR,144.0
RKSP 052341Z 27007G017KT 9999 SCT005 FEW008 BKN140 17/16 A2981 RMK CIG140,RKSP,2023-06-05T23:41:00Z,37.97,124.67,17.0,16.0,270,7,17,6.21,29.811024,,,,,,,,,,,SCT,500,FEW,800,BKN,14000,,,VFR,,,,,,,,,,,,METAR,171.0
MMUN 052341Z 09003KT 7SM BKN080 OVC250 28/23 A2982 RMK SLP102 54000 917 8/078 SC TSE20,MMUN,2023-06-05T23:41:00Z,21.03,-86.85,28.0,23.0,90,3,,7.0,29.819881,1010.2,,,,,,,,,,BKN,8000,OVC,25000,,,,,VFR,,,,,,,,,,,,METAR,13.0
MMRX 052341Z 19005KT 7SM FEW030 SCT280 26/18 A2986 RMK SLP/// 5//// 9// 8/403 HZY CBS S /W,MMRX,2023-06-05T23:41:00Z,26.02,-98.22,26.0,18.0,190,5,,7.0,29.861221,,,,,,,,,,,FEW,3000,SCT,28000,,,,,VFR,,,,,,,,,,,,METAR,45.0
MMML 052341Z 35016KT 8SM BLDU SKC 36/03 A2961 RMK SLP027 57017 967 ISOL AC,MMML,2023-06-05T23:41:00Z,32.62,-115.23,36.0,3.0,350,16,,8.0,29.610237,1002.7,,,,,,,,,BLDU,SKC,,,,,,,,VFR,-1.7,,,,,,,,,,,METAR,21.0
MMLO 052341Z 29010KT 10SM SCT030 33/M06 A3005 RMK SLP022 57 904 8/500,MMLO,2023-06-05T23:41:00Z,21.0,-101.47,33.0,-6.0,290,10,,10.0,30.050198,1002.2,,,,,,,,,,SCT,3000,,,,,,,VFR,,,,,,,,,,,,METAR,1805.0
MMZO 052340Z 26018KT 10SM FEW020 28/24 A2977 RMK 8/100 HZY,MMZO,2023-06-05T23:40:00Z,19.13,-104.57,28.0,24.0,260,18,,10.0,29.769686,,,,,,,,,,,FEW,2000,,,,,,,VFR,,,,,,,,,,,,METAR,11.0
MMZH 052340Z 22008KT 7SM SCT020 OVC035 30/23 A2979 RMK SLP079 54000 920 8/8// HZY,MMZH,2023-06-05T23:40:00Z,17.6,-101.47,30.0,23.0,220,8,,7.0,29.790354,1007.9,,,,,,,,,,SCT,2000,OVC,3500,,,,,VFR,,,,,,,,,,,,METAR,9.0
MMTO 052340Z 22009KT 8SM SCT020 24/04 A3023 RMK SLP045 52016 900 8/200,MMTO,2023-06-05T23:40:00Z,19.35,-99.57,24.0,4.0,220,9,,8.0,30.230314,1004.5,,,,,,,,,,SCT,2000,,,,,,,VFR,1.6,,,,,,,,,,,METAR,2582.0
MMTJ 052340Z 31007KT 8SM BKN030 17/11 A2992 RMK SLP142 57020 910 8/500 HZY,MMTJ,2023-06-05T23:40:00Z,32.53,-116.97,17.0,11.0,310,7,,8.0,29.920275,1014.2,,,,,,,,,,BKN,3000,,,,,,,MVFR,-2.0,,,,,,,,,,,METAR,150.0
MMPS 052340Z 19005KT 8SM FEW030 SCT100 31/24 A2985 RMK 8/410 HZY,MMPS,2023-06-05T23:40:00Z,15.87,-97.08,31.0,24.0,190,5,,8.0,29.84941,,,,,,,,,,,FEW,3000,SCT,10000,,,,,VFR,,,,,,,,,,,,METAR,65.0
MMPN 052340Z 14010KT 14SM SKC 28/12 A3002 RMK HZY SC,MMPN,2023-06-05T23:40:00Z,19.38,-102.03,28.0,12.0,140,10,,14.0,30.02067,,,,,,,,,,,SKC,,,,,,,,VFR,,,,,,,,,,,,METAR,1602.0
MMPG 052340Z 00000KT 10SM FEW050 30/19 A2987 RMK 8/200,MMPG,2023-06-05T23:40:00Z,28.62,-100.53,30.0,19.0,0,0,,10.0,29.870079,,,,,,,,,,,FEW,5000,,,,,,,VFR,,,,,,,,,,,,METAR,224.0
MMPA 052340Z 08008KT 7SM SKC 31/24 A2981 RMK SLP075 54000 922 HZY,MMPA,2023-06-05T23:40:00Z,20.6,-97.47,31.0,24.0,80,8,,7.0,29.811024,1007.5,,,,,,,,,,SKC,,,,,,,,VFR,,,,,,,,,,,,METAR,153.0
MMMY 052340Z 11008KT 15SM FEW040 SCT200 31/19 A2984 RMK SLP/// 5//// 9// 8/502 TCU E,MMMY,2023-06-05T23:40:00Z,25.77,-100.1,31.0,19.0,110,8,,15.0,29.840551,,,,,,,,,,,FEW,4000,SCT,20000,,,,,VFR,,,,,,,,,,,,METAR,382.0
MMMT 052340Z 20005KT 5SM BKN030 26/24 A2979 RMK SLP088 54000 930 8/500 HZY,MMMT,2023-06-05T23:40:00Z,18.1,-94.57,26.0,24.0,200,5,,5.0,29.790354,1008.8,,,,,,,,,,BKN,3000,,,,,,,MVFR,,,,,,,,,,,,METAR,15.0
MMLT 052340Z 16010KT 10SM SCT240 31/17 A2973 RMK SLP068 8/002,MMLT,2023-06-05T23:40:00Z,25.98,-111.33,31.0,17.0,160,10,,10.0,29.731298,1006.8,,,,,,,,,,SCT,24000,,,,,,,VFR,,,,,,,,,,,,METAR,4.0
MMLM 052340Z 21013KT 10SM SCT250 30/11 A2978 RMK SLP085 8/004 HZY,MMLM,2023-06-05T23:40:00Z,25.68,-109.08,30.0,11.0,210,13,,10.0,29.778543,1008.5,,,,,,,,,,SCT,25000,,,,,,,VFR,,,,,,,,,,,,METAR,6.0
MMIA 052340Z 25015KT 5SM FEW020TCU 26/22 A2986 RMK 8/200 HZY,MMIA,2023-06-05T23:40:00Z,19.27,-103.57,26.0,22.0,250,15,,5.0,29.861221,,,,,,,,,,,FEW,2000,,,,,,,MVFR,,,,,,,,,,,,METAR,744.0
MMHO 052340Z 24012KT 10SM SCT200 38/M01 A2977 RMK SLP077 57006 917 8/001 HZY,MMHO,2023-06-05T23:40:00Z,29.08,-111.05,38.0,-1.0,240,12,,10.0,29.769686,1007.7,,,,,,,,,,SCT,20000,,,,,,,VFR,-0.6,,,,,,,,,,,METAR,186.0
MMCV 052340Z 04010KT 10SM BKN020TCU 33/16 A2983 RMK SLP/// 57002 913 8/200,MMCV,2023-06-05T23:40:00Z,23.72,-98.97,33.0,16.0,40,10,,10.0,29.828741,,,,,,,,,,,BKN,2000,,,,,,,MVFR,-0.2,,,,,,,,,,,METAR,230.0
MMCP 052340Z 31006KT 7SM FEW030 SCT100 30/24 A2980 RMK SLP078 52007 910 8/120,MMCP,2023-06-05T23:40:00Z,19.82,-90.5,30.0,24.0,310,6,,7.0,29.799213,1007.8,,,,,,,,,,FEW,3000,SCT,10000,,,,,VFR,0.7,,,,,,,,,,,METAR,9.0
MMAN 052340Z 00000KT 12SM SCT035TCU SCT200 30/19 A2988 RMK SLP/// 5//// 9// 8/208,MMAN,2023-06-05T23:40:00Z,25.87,-100.23,30.0,19.0,0,0,,12.0,29.878937,,,,,,,,,,,SCT,3500,SCT,20000,,,,,VFR,,,,,,,,,,,,METAR,447.0
KW99 052340Z AUTO 28005KT 10SM CLR 20/14 A2993 RMK AO2,KW99,2023-06-05T23:40:00Z,39.0,-79.15,20.0,14.0,280,5,,10.0,29.929134,,,TRUE,TRUE,,,,,,,CLR,,,,,,,,VFR,,,,,,,,,,,,METAR,288.0
KW40 052340Z AUTO 00000KT 10SM CLR 24/11 A2990 RMK AO2 T02450110,KW40,2023-06-05T23:40:00Z,35.22,-78.03,24.5,11.0,0,0,,10.0,29.899607,,,TRUE,TRUE,,,,,,,CLR,,,,,,,,VFR,,,,,,,,,,,,METAR,50.0
KMHV 052340Z AUTO 22017G24KT 10SM CLR 25/M05 A2975 RMK AO2,KMHV,2023-06-05T23:40:00Z,35.07,-118.15,25.0,-5.0,220,17,24,10.0,29.749016,,,TRUE,TRUE,,,,,,,CLR,,,,,,,,VFR,,,,,,,,,,,,METAR,841.0
KM04 052340Z AUTO 34005KT 10SM SCT110 23/22 A2989 RMK A01,KM04,2023-06-05T23:40:00Z,35.58,-89.58,23.0,22.0,340,5,,10.0,29.890747,,,TRUE,TRUE,,,,,,,SCT,11000,,,,,,,VFR,,,,,,,,,,,,METAR,83.0
KGZN 052340Z AUTO 35006KT 10SM FEW110 24/19 A2994 RMK AO2,KGZN,2023-06-05T23:40:00Z,32.37,-99.02,24.0,19.0,350,6,,10.0,29.940945,,,TRUE,TRUE,,,,,,,FEW,11000,,,,,,,VFR,,,,,,,,,,,,METAR,522.0
KETC 052340Z AUTO 00000KT 7SM CLR 22/16 A2989 RMK AO2 T02230156,KETC,2023-06-05T23:40:00Z,35.93,-77.55,22.3,15.6,0,0,,7.0,29.890747,,,TRUE,TRUE,,,,,,,CLR,,,,,,,,VFR,,,,,,,,,,,,METAR,15.0
LIRE 052339Z 28009G26KT 240V330 2000 +TSRA FEW015 SCT017CB BKN060 18/16 Q1016 RMK OVC VIS MIN 2000 WIND THR13 08010KT WIND THR31 /////KT YLO,LIRE,2023-06-05T23:39:00Z,41.65,12.43,18.0,16.0,280,9,26,1.24,30.0,,,,,,,,,,+TSRA,FEW,1500,SCT,1700,BKN,6000,,,IFR,,,,,,,,,,,,SPECI,16.0
KMRT 052339Z AUTO 04003KT 10SM CLR 22/03 A2999 RMK AO1,KMRT,2023-06-05T23:39:00Z,40.22,-83.35,22.0,3.0,40,3,,10.0,29.991142,,,TRUE,TRUE,,,,,,,CLR,,,,,,,,VFR,,,,,,,,,,,,SPECI,302.0
CYFC 052339Z AUTO 01009G15KT 9SM OVC008 10/09 A2973 RMK SLP069,CYFC,2023-06-05T23:39:00Z,45.87,-66.53,10.0,9.0,10,9,15,9.0,29.731298,1006.9,,TRUE,,,,,,,,OVC,800,,,,,,,IFR,,,,,,,,,,,,SPECI,16.0
PAHX 052338Z AUTO 09008G15KT 6SM HZ BKN060 18/06 A2982 RMK AO2,PAHX,2023-06-05T23:38:00Z,62.7,-159.57,18.0,6.0,90,8,15,6.0,29.819881,,,TRUE,TRUE,,,,,,HZ,BKN,6000,,,,,,,VFR,,,,,,,,,,,,METAR,20.0
KDUB 052338Z AUTO 12012G17KT 10SM SCT095 BKN110 19/08 A3014 RMK AO2,KDUB,2023-06-05T23:38:00Z,43.55,-109.68,19.0,8.0,120,12,17,10.0,30.138779,,,TRUE,TRUE,,,,,,,SCT,9500,BKN,11000,,,,,VFR,,,,,,,,,,,,METAR,2205.0
KXVG 052336Z AUTO 17004KT 10SM SCT027 BKN033 24/19 A3008 RMK AO2 LTG DSNT,KXVG,2023-06-05T23:36:00Z,46.98,-94.2,24.0,19.0,170,4,,10.0,30.079725,,,TRUE,TRUE,,,,,,,SCT,2700,BKN,3300,,,,,VFR,,,,,,,,,,,,METAR,407.0
KAPS 052336Z AUTO 00000KT 10SM CLR 23/21 A2992 RMK AO2,KAPS,2023-06-05T23:36:00Z,30.08,-90.58,23.0,21.0,0,0,,10.0,29.920275,,,TRUE,TRUE,,,,,,,CLR,,,,,,,,VFR,,,,,,,,,,,,SPECI,1.0
FJDG 052336Z 14023G35KT 1600 +RA SCT015 BKN040 OVC075 26/25 A2983 RMK SLP098,FJDG,2023-06-05T23:36:00Z,-7.32,72.42,26.0,25.0,140,23,35,0.99,29.828741,1009.8,,,,,,,,,+RA,SCT,1500,BKN,4000,OVC,7500,,,LIFR,,,,,,,,,,,,SPECI,3.0
KY31 052335Z AUTO 00000KT 10SM BKN065 BKN085 23/12 A2997 RMK AO2 T02280122,KY31,2023-06-05T23:35:00Z,44.25,-84.18,22.8,12.2,0,0,,10.0,29.970472,,,TRUE,TRUE,,,,,,,BKN,6500,BKN,8500,,,,,VFR,,,,,,,,,,,,METAR,264.0
KIRS 052335Z AUTO 33007KT 10SM SCT075 25/M02 A2999 RMK AO2 T02541024,KIRS,2023-06-05T23:35:00Z,41.8,-85.43,25.4,-2.4,330,7,,10.0,29.991142,,,TRUE,TRUE,,,,,,,SCT,7500,,,,,,,VFR,,,,,,,,,,,,SPECI,282.0
KHAI 052335Z AUTO 30009KT 10SM CLR 26/04 A3000 RMK AO2 T02560042,KHAI,2023-06-05T23:35:00Z,41.97,-85.6,25.6,4.2,300,9,,10.0,30.0,,,TRUE,TRUE,,,,,,,CLR,,,,,,,,VFR,,,,,,,,,,,,SPECI,250.0
WSSL 052334Z 24005KT 210V300 9000 VCTS FEW017CB FEW018TCU BKN150 26/25 Q1009,WSSL,2023-06-05T23:34:00Z,1.42,103.87,26.0,25.0,240,5,,5.59,29.793306,,,,,,,,,,VCTS,FEW,1700,FEW,1800,BKN,15000,,,VFR,,,,,,,,,,,,METAR,11.0
RKSF 052334Z 30003KT 9999 BKN025 20/13 A2979 RMK CIG025,RKSF,2023-06-05T23:34:00Z,37.5,126.92,20.0,13.0,300,3,,6.21,29.790354,,,,,,,,,,,BKN,2500,,,,,,,MVFR,,,,,,,,,,,,METAR,49.0
RKPC 052334Z 07014KT 5000 -RA BR BKN002 BKN035 OVC080 18/18 Q1007 NOSIG,RKPC,2023-06-05T23:34:00Z,33.5,126.48,18.0,18.0,70,14,,3.11,29.734253,,,,,,TRUE,,,,-RA BR,BKN,200,BKN,3500,OVC,8000,,,LIFR,,,,,,,,,,,,SPECI,23.0
CYXY 052334Z 28010G16KT 20SM -SHRA BKN065 OVC110 15/06 A2985 RMK SC6AC2 CVCTV CLD EMBD SLP125 DENSITY ALT 3000FT,CYXY,2023-06-05T23:34:00Z,60.72,-135.07,15.0,6.0,280,10,16,20.0,29.84941,1012.5,,,,,,,,,-SHRA,BKN,6500,OVC,11000,,,,,VFR,,,,,,,,,,,,SPECI,677.0
RJCT 052333Z VRB01KT 9999 FEW040 SCT130 18/11 Q1008 RMK 1CU040 3AC130 A2978,RJCT,2023-06-05T23:33:00Z,42.88,143.17,18.0,11.0,0,1,,6.21,29.763779,,,,,,,,,,,FEW,4000,SCT,13000,,,,,VFR,,,,,,,,,,,,SPECI,79.0
YGEL 052332Z AUTO 26016G29KT 9999 // SCT035 SCT063 OVC088 15/12 Q1009,YGEL,2023-06-05T23:32:00Z,-28.8,114.7,15.0,12.0,260,16,29,6.21,29.793306,,,TRUE,,,,,,,,SCT,3500,SCT,6300,OVC,8800,,,VFR,,,,,,,,,,,,SPECI,32.0
CYKL 052332Z AUTO 02008KT 340V040 7SM OVC036 05/M00 A3015 RMK SLP234,CYKL,2023-06-05T23:32:00Z,54.8,-66.8,5.0,0.0,20,8,,7.0,30.15059,1023.4,,TRUE,,,,,,,,OVC,3600,,,,,,,VFR,,,,,,,,,,,,SPECI,507.0
CZBF 052331Z AUTO 04009G17KT 360V060 5SM -RA BR OVC003 07/07 A2987 RMK SLP120,CZBF,2023-06-05T23:31:00Z,47.62,-65.75,7.0,7.0,40,9,17,5.0,29.870079,1012.0,,TRUE,,,,,,,-RA BR,OVC,300,,,,,,,LIFR,,,,,,,,,,,,SPECI,60.0
ZYTX 052330Z 18004MPS CAVOK 16/14 Q1004 RETS NOSIG,ZYTX,2023-06-05T23:30:00Z,41.63,123.48,16.0,14.0,180,8,,6.21,29.64567,,,,,,TRUE,,,,,CAVOK,,,,,,,,VFR,,,,,,,,,,,,METAR,56.0
ZYTL 052330Z 24004MPS 200V260 CAVOK 23/16 Q1005 NOSIG,ZYTL,2023-06-05T23:30:00Z,38.97,121.55,23.0,16.0,240,8,,6.21,29.675198,,,,,,TRUE,,,,,CAVOK,,,,,,,,VFR,,,,,,,,,,,,METAR,33.0
ZWWW 052330Z VRB01MPS CAVOK 25/M01 Q1013 NOSIG,ZWWW,2023-06-05T23:30:00Z,43.9,87.47,25.0,-1.0,0,2,,6.21,29.911417,,,,,,TRUE,,,,,CAVOK,,,,,,,,VFR,,,,,,,,,,,,METAR,654.0
ZSSS 052330Z 32004MPS 6000 BKN007 OVC033 19/18 Q1010 NOSIG,ZSSS,2023-06-05T23:30:00Z,31.2,121.33,19.0,18.0,320,8,,3.73,29.822834,,,,,,TRUE,,,,,BKN,700,OVC,3300,,,,,IFR,,,,,,,,,,,,METAR,2.0
ZSPD 052330Z 33005MPS 7000 -SHRA BKN009 19/18 Q1009 NOSIG,ZSPD,2023-06-05T23:30:00Z,31.15,121.8,19.0,18.0,330,10,,4.35,29.793306,,,,,,TRUE,,,,-SHRA,BKN,900,,,,,,,IFR,,,,,,,,,,,,METAR,4.0
ZSHC 052330Z 36003MPS 4500 -SHRA BR SCT010 BKN017 20/19 Q1010 NOSIG,ZSHC,2023-06-05T23:30:00Z,30.22,120.43,20.0,19.0,360,6,,2.8,29.822834,,,,,,TRUE,,,,-SHRA BR,SCT,1000,BKN,1700,,,,,IFR,,,,,,,,,,,,METAR,8.0
ZGGG 052330Z 07002MPS 030V100 9999 FEW040 28/26 Q1008 NOSIG,ZGGG,2023-06-05T23:30:00Z,23.4,113.3,28.0,26.0,70,4,,6.21,29.763779,,,,,,TRUE,,,,,FEW,4000,,,,,,,VFR,,,,,,,,,,,,METAR,11.0
ZBYN 052330Z VRB01MPS 5000 HZ NSC 18/14 Q1014 NOSIG,ZBYN,2023-06-05T23:30:00Z,37.73,112.63,18.0,14.0,0,2,,3.11,29.940945,,,,,,TRUE,,,,HZ,CLR,,,,,,,,MVFR,,,,,,,,,,,,METAR,778.0
ZBTJ 052330Z 34007MPS CAVOK 27/07 Q1005 NOSIG,ZBTJ,2023-06-05T23:30:00Z,39.12,117.35,27.0,7.0,340,14,,6.21,29.675198,,,,,,TRUE,,,,,CAVOK,,,,,,,,VFR,,,,,,,,,,,,METAR,4.0
ZBAD 052330Z 04004MPS CAVOK 28/04 Q1007 NOSIG,ZBAD,2023-06-05T23:30:00Z,39.5,116.42,28.0,4.0,40,8,,6.21,29.734253,,,,,,TRUE,,,,,CAVOK,,,,,,,,VFR,,,,,,,,,,,,METAR,25.0
ZBAA 052330Z 02003MPS CAVOK 27/07 Q1007 NOSIG,ZBAA,2023-06-05T23:30:00Z,40.07,116.6,27.0,7.0,20,6,,6.21,29.734253,,,,,,TRUE,,,,,CAVOK,,,,,,,,VFR,,,,,,,,,,,,METAR,31.0
YWLM 052330Z 01005KT 9999 FEW025 BKN180 16/14 Q1029 RF00.0/000.0,YWLM,2023-06-05T23:30:00Z,-32.8,151.83,16.0,14.0,10,5,,6.21,30.383858,,,,,,,,,,,FEW,2500,BKN,18000,,,,,VFR,,,,,,,,,,,,SPECI,7.0
YSTW 052330Z AUTO 15006KT 9999 // SCT062 OVC098 16/08 Q1028,YSTW,2023-06-05T23:30:00Z,-31.08,150.85,16.0,8.0,150,6,,6.21,30.35433,,,TRUE,,,,,,,,SCT,6200,OVC,9800,,,,,VFR,,,,,,,,,,,,SPECI,404.0
YSSY 052330Z 36003KT 9999 VCSH SCT020 SCT040 BKN050 16/15 Q1029,YSSY,2023-06-05T23:30:00Z,-33.95,151.17,16.0,15.0,360,3,,6.21,30.383858,,,,,,,,,,VCSH,SCT,2000,SCT,4000,BKN,5000,,,VFR,,,,,,,,,,,,METAR,3.0
YSRI 052330Z AUTO 11003KT 9999 // SCT020 BKN094 14/14 Q1029,YSRI,2023-06-05T23:30:00Z,-33.6,150.77,14.0,14.0,110,3,,6.21,30.383858,,,TRUE,,,,,,,,SCT,2000,BKN,9400,,,,,VFR,,,,,,,,,,,,SPECI,19.0
YSNF 052330Z 18013KT 9999 SCT030 19/12 Q1020,YSNF,2023-06-05T23:30:00Z,-29.03,167.93,19.0,12.0,180,13,,6.21,30.11811,,,,,,,,,,,SCT,3000,,,,,,,VFR,,,,,,,,,,,,METAR,113.0
YSDU 052330Z AUTO 07012KT 9999 // OVC041 15/12 Q1027 RF00.0/000.0,YSDU,2023-06-05T23:30:00Z,-32.22,148.57,15.0,12.0,70,12,,6.21,30.324802,,,TRUE,,,,,,,,OVC,4100,,,,,,,VFR,,,,,,,,,,,,SPECI,285.0
YSCB 052330Z AUTO 36003KT 9999 // OVC029 11/10 Q1029 RF00.0/000.0,YSCB,2023-06-05T23:30:00Z,-35.3,149.18,11.0,10.0,360,3,,6.21,30.383858,,,TRUE,,,,,,,,OVC,2900,,,,,,,MVFR,,,,,,,,,,,,SPECI,577.0
YPXM 052330Z AUTO 14007KT 9999 // SCT024 SCT059 23/19 Q1013,YPXM,2023-06-05T23:30:00Z,-10.45,105.68,23.0,19.0,140,7,,6.21,29.911417,,,TRUE,,,,,,,,SCT,2400,SCT,5900,,,,,VFR,,,,,,,,,,,,SPECI,262.0
YPWR 052330Z AUTO 03012KT 9999 // NCD 13/12 Q1016 RF00.0/000.2,YPWR,2023-06-05T23:30:00Z,-31.15,136.82,13.0,12.0,30,12,,6.21,30.0,,,TRUE,,,,,,,,CLR,,,,,,,,VFR,,,,,,,,,,,,METAR,169.0
YPTN 052330Z AUTO 08003KT 9999 // NCD 26/19 Q1015 RF00.0/000.0,YPTN,2023-06-05T23:30:00Z,-14.52,132.38,26.0,19.0,80,3,,6.21,29.970472,,,TRUE,,,,,,,,CLR,,,,,,,,VFR,,,,,,,,,,,,SPECI,135.0
YPPH 052330Z 24008KT 9999 -SHRA SCT025 BKN055 10/07 Q1004 RF00/0/024/2,YPPH,2023-06-05T23:30:00Z,-31.93,115.98,10.0,7.0,240,8,,6.21,29.64567,,,,,,,,,,-SHRA,SCT,2500,BKN,5500,,,,,VFR,,,,,,,,,,,,SPECI,16.0
YPPD 052330Z AUTO 23004KT 9999 // NCD 15/14 Q1014 RF00.0/000.0,YPPD,2023-06-05T23:30:00Z,-20.37,118.62,15.0,14.0,230,4,,6.21,29.940945,,,TRUE,,,,,,,,CLR,,,,,,,,VFR,,,,,,,,,,,,SPECI,6.0
YPLM 052330Z AUTO 24005KT 9999 // OVC065 16/14 Q1015 RF00.0/000.0,YPLM,2023-06-05T23:30:00Z,-22.23,114.08,16.0,14.0,240,5,,6.21,29.970472,,,TRUE,,,,,,,,OVC,6500,,,,,,,VFR,,,,,,,,,,,,SPECI,5.0
YPKU 052330Z AUTO 18004KT 9999 // NCD 21/18 Q1015 RF00.0/000.0,YPKU,2023-06-05T23:30:00Z,-15.77,128.7,21.0,18.0,180,4,,6.21,29.970472,,,TRUE,,,,,,,,CLR,,,,,,,,VFR,,,,,,,,,,,,SPECI,42.0
YPKG 052330Z AUTO 33012KT 9999 // SCT054 08/05 Q1006 RF00.0/003.2,YPKG,2023-06-05T23:30:00Z,-30.78,121.45,8.0,5.0,330,12,,6.21,29.704725,,,TRUE,,,,,,,,SCT,5400,,,,,,,VFR,,,,,,,,,,,,SPECI,372.0
YPEA 052330Z 24018G28KT 9999 -SHRA FEW015 SCT040TCU BKN100 09/06 Q1004,YPEA,2023-06-05T23:30:00Z,-31.67,116.02,9.0,6.0,240,18,28,6.21,29.64567,,,,,,,,,,-SHRA,FEW,1500,SCT,4000,BKN,10000,,,VFR,,,,,,,,,,,,SPECI,38.0
YPDN 052330Z 20005KT 9999 FEW022 26/22 Q1014,YPDN,2023-06-05T23:30:00Z,-12.42,130.9,26.0,22.0,200,5,,6.21,29.940945,,,,,,,,,,,FEW,2200,,,,,,,VFR,,,,,,,,,,,,METAR,32.0
YPCC 052330Z AUTO 11012KT 9999 // BKN025 BKN030 BKN036 26/22 Q1012,YPCC,2023-06-05T23:30:00Z,-12.18,96.83,26.0,22.0,110,12,,6.21,29.88189,,,TRUE,,,,,,,,BKN,2500,BKN,3000,BKN,3600,,,MVFR,,,,,,,,,,,,SPECI,3.0
YPAD 052330Z AUTO 01011KT 9999 // NCD 16/12 Q1016 RF00.0/000.2,YPAD,2023-06-05T23:30:00Z,-34.95,138.52,16.0,12.0,10,11,,6.21,30.0,,,TRUE,,,,,,,,CLR,,,,,,,,VFR,,,,,,,,,,,,SPECI,2.0
YMML 052330Z 02015KT 9999 VCSH FEW018 SCT030 BKN075 15/12 Q1021,YMML,2023-06-05T23:30:00Z,-37.67,144.82,15.0,12.0,20,15,,6.21,30.147638,,,,,,,,,,VCSH,FEW,1800,SCT,3000,BKN,7500,,,VFR,,,,,,,,,,,,METAR,115.0
YMLT 052330Z AUTO 19006KT 9999 // SCT029 OVC062 OVC073 11/09 Q1024,YMLT,2023-06-05T23:30:00Z,-41.53,147.2,11.0,9.0,190,6,,6.21,30.236221,,,TRUE,,,,,,,,SCT,2900,OVC,6200,OVC,7300,,,VFR,,,,,,,,,,,,SPECI,167.0
YMAV 052330Z AUTO 04013KT 9999 // SCT027 OVC092 OVC105 15/12 Q1021,YMAV,2023-06-05T23:30:00Z,-38.03,144.48,15.0,12.0,40,13,,6.21,30.147638,,,TRUE,,,,,,,,SCT,2700,OVC,9200,OVC,10500,,,VFR,,,,,,,,,,,,SPECI,11.0
YLHI 052330Z AUTO 13007KT 070V180 7000 -SHRA BKN023 OVC028 17/13 Q1028,YLHI,2023-06-05T23:30:00Z,-31.53,159.07,17.0,13.0,130,7,,4.35,30.35433,,,TRUE,,,,,,,-SHRA,BKN,2300,OVC,2800,,,,,MVFR,,,,,,,,,,,,METAR,2.0
YHID 052330Z AUTO 11015KT 9999 // NCD 29/25 Q1012 RF00.0/000.0,YHID,2023-06-05T23:30:00Z,-10.58,142.3,29.0,25.0,110,15,,6.21,29.88189,,,TRUE,,,,,,,,CLR,,,,,,,,VFR,,,,,,,,,,,,METAR,5.0
YGLA 052330Z AUTO 14008KT 9999 // SCT020 SCT033 BKN037 21/15 Q1025,YGLA,2023-06-05T23:30:00Z,-23.87,151.22,21.0,15.0,140,8,,6.21,30.265747,,,TRUE,,,,,,,,SCT,2000,SCT,3300,BKN,3700,,,VFR,,,,,,,,,,,,METAR,17.0
YFRT 052330Z AUTO 33008KT 9999 // BKN095 14/03 Q1007 RF00.0/000.0,YFRT,2023-06-05T23:30:00Z,-30.83,128.12,14.0,3.0,330,8,,6.21,29.734253,,,TRUE,,,,,,,,BKN,9500,,,,,,,VFR,,,,,,,,,,,,SPECI,159.0
YCIN 052330Z AUTO 33004KT 9999 -SHRA OVC050 21/17 Q1014 RF00.0/000.0,YCIN,2023-06-05T23:30:00Z,-17.58,123.83,21.0,17.0,330,4,,6.21,29.940945,,,TRUE,,,,,,,-SHRA,OVC,5000,,,,,,,VFR,,,,,,,,,,,,SPECI,83.0
YCFS 052330Z AUTO 24007KT 9999 // BKN054 OVC115 17/14 Q1029,YCFS,2023-06-05T23:30:00Z,-30.32,153.12,17.0,14.0,240,7,,6.21,30.383858,,,TRUE,,,,,,,,BKN,5400,OVC,11500,,,,,VFR,,,,,,,,,,,,METAR,2.0
YBWW 052330Z AUTO 08017KT 9999 // OVC080 16/11 Q1027 RF00.0/000.0,YBWW,2023-06-05T23:30:00Z,-27.55,151.8,16.0,11.0,80,17,,6.21,30.324802,,,TRUE,,,,,,,,OVC,8000,,,,,,,VFR,,,,,,,,,,,,METAR,460.0
YBTL 052330Z 12012KT 9999 FEW023 SCT048 26/19 Q1020 RF00.0/000.0,YBTL,2023-06-05T23:30:00Z,-19.25,146.75,26.0,19.0,120,12,,6.21,30.11811,,,,,,,,,,,FEW,2300,SCT,4800,,,,,VFR,,,,,,,,,,,,SPECI,4.0
YBSU 052330Z AUTO 18011KT 9999 // SCT033 SCT042 BKN051 19/15 Q1027,YBSU,2023-06-05T23:30:00Z,-26.6,153.08,19.0,15.0,180,11,,6.21,30.324802,,,TRUE,,,,,,,,SCT,3300,SCT,4200,BKN,5100,,,VFR,,,,,,,,,,,,METAR,4.0
YBRM 052330Z AUTO 02004KT 9999 // BKN061 BKN082 BKN110 22/19 Q1014,YBRM,2023-06-05T23:30:00Z,-17.93,122.23,22.0,19.0,20,4,,6.21,29.940945,,,TRUE,,,,,,,,BKN,6100,BKN,8200,BKN,11000,,,VFR,,,,,,,,,,,,SPECI,11.0
YBMA 052330Z AUTO 06005KT 9999 // SCT067 24/14 Q1019 RF00.0/000.0,YBMA,2023-06-05T23:30:00Z,-20.67,139.48,24.0,14.0,60,5,,6.21,30.088583,,,TRUE,,,,,,,,SCT,6700,,,,,,,VFR,,,,,,,,,,,,SPECI,346.0
YBLN 052330Z AUTO 25010KT 9999 -SHRA SCT039 BKN050 OVC068 08/06 Q1002,YBLN,2023-06-05T23:30:00Z,-33.68,115.4,8.0,6.0,250,10,,6.21,29.586615,,,TRUE,,,,,,,-SHRA,SCT,3900,BKN,5000,OVC,6800,,,VFR,,,,,,,,,,,,METAR,17.0
YBCS 052330Z AUTO 16011KT 9999 // SCT023 SCT027 BKN045 26/22 Q1017,YBCS,2023-06-05T23:30:00Z,-16.87,145.75,26.0,22.0,160,11,,6.21,30.029528,,,TRUE,,,,,,,,SCT,2300,SCT,2700,BKN,4500,,,VFR,,,,,,,,,,,,SPECI,2.0
YBCG 052330Z AUTO 18009KT 9999 // SCT041 BKN048 19/14 Q1028,YBCG,2023-06-05T23:30:00Z,-28.17,153.5,19.0,14.0,180,9,,6.21,30.35433,,,TRUE,,,,,,,,SCT,4100,BKN,4800,,,,,VFR,,,,,,,,,,,,SPECI,5.0
YBBN 052330Z 17007KT 9999 -SHRA FEW018 BKN026 18/16 Q1028 RF00/0/000/0,YBBN,2023-06-05T23:30:00Z,-27.38,153.13,18.0,16.0,170,7,,6.21,30.35433,,,,,,,,,,-SHRA,FEW,1800,BKN,2600,,,,,MVFR,,,,,,,,,,,,METAR,3.0
YBAS 052330Z AUTO 35013KT 9999 // ////// 21/10 Q1017 RF00.0/000.0,YBAS,2023-06-05T23:30:00Z,-23.8,133.9,21.0,10.0,350,13,,6.21,30.029528,,,TRUE,,,,,,,,,,,,,,,,,,,,,,,,,,,,SPECI,549.0
YAMB 052330Z 19003KT 9999 FEW030 SCT090 18/14 Q1028 RF00.0/000.0,YAMB,2023-06-05T23:30:00Z,-27.63,152.72,18.0,14.0,190,3,,6.21,30.35433,,,,,,,,,,,FEW,3000,SCT,9000,,,,,VFR,,,,,,,,,,,,SPECI,26.0
WSSS 052330Z 29007G17KT 210V360 7000 -TSRA FEW012 FEW016CB SCT017TCU 27/24 Q1009 TEMPO TL0030 3000 TSRA BECMG FM0045 TL0100 NSW,WSSS,2023-06-05T23:30:00Z,1.37,103.97,27.0,24.0,290,7,17,4.35,29.793306,,,,,,,,,,-TSRA,FEW,1200,FEW,1600,SCT,1700,,,MVFR,,,,,,,,,,,,METAR,17.0
WMKP 052330Z 09006KT 010V140 6000 -RA FEW010 SCT025 27/25 Q1009 NOSIG,WMKP,2023-06-05T23:30:00Z,5.28,100.27,27.0,25.0,90,6,,3.73,29.793306,,,,,,TRUE,,,,-RA,FEW,1000,SCT,2500,,,,,MVFR,,,,,,,,,,,,METAR,4.0
WMKK 052330Z 00000KT 9999 FEW010 FEW017CB 26/24 Q1009 NOSIG,WMKK,2023-06-05T23:30:00Z,2.75,101.72,26.0,24.0,0,0,,6.21,29.793306,,,,,,TRUE,,,,,FEW,1000,FEW,1700,,,,,VFR,,,,,,,,,,,,METAR,21.0
WIPP 052330Z 15002KT 2500 BR SCT010 26/26 Q1009 NOSIG,WIPP,2023-06-05T23:30:00Z,-2.88,104.7,26.0,26.0,150,2,,1.55,29.793306,,,,,,TRUE,,,,BR,SCT,1000,,,,,,,IFR,,,,,,,,,,,,METAR,7.0
WIOO 052330Z 06002KT 8000 SCT012 26/25 Q1008 NOSIG,WIOO,2023-06-05T23:30:00Z,-0.15,109.4,26.0,25.0,60,2,,4.97,29.763779,,,,,,TRUE,,,,,SCT,1200,,,,,,,MVFR,,,,,,,,,,,,METAR,4.0
WIMM 052330Z 15004KT 4000 -RA BKN017 25/24 Q1008 NOSIG,WIMM,2023-06-05T23:30:00Z,3.57,98.67,25.0,24.0,150,4,,2.49,29.763779,,,,,,TRUE,,,,-RA,BKN,1700,,,,,,,IFR,,,,,,,,,,,,METAR,27.0
WIHH 052330Z 00000KT 3000 BR SCT020 26/25 Q1009 NOSIG METAR ,WIHH,2023-06-05T23:30:00Z,-6.27,106.88,26.0,25.0,0,0,,1.86,29.793306,,,,,,TRUE,,,,BR,SCT,2000,,,,,,,IFR,,,,,,,,,,,,SPECI,26.0
WIEE 052330Z 00000KT 6000 SCT020 24/24 Q1010 NOSIG,WIEE,2023-06-05T23:30:00Z,-0.78,100.28,24.0,24.0,0,0,,3.73,29.822834,,,,,,TRUE,,,,,SCT,2000,,,,,,,MVFR,,,,,,,,,,,,METAR,5.0
WIDN 052330Z 04001KT 9000 TS FEW017CB 26/25 Q1009 NOSIG,WIDN,2023-06-05T23:30:00Z,0.92,104.53,26.0,25.0,40,1,,5.59,29.793306,,,,,,TRUE,,,,TS,FEW,1700,,,,,,,VFR,,,,,,,,,,,,METAR,18.0
WIDD 052330Z 28003KT 8000 TS FEW012CB SCT013 27/26 Q1011 NOSIG RMK CB TO S,WIDD,2023-06-05T23:30:00Z,1.12,104.12,27.0,26.0,280,3,,4.97,29.852362,,,,,,TRUE,,,,TS,FEW,1200,SCT,1300,,,,,MVFR,,,,,,,,,,,,METAR,26.0
WBSB 052330Z 14001KT 9999 FEW005 BKN280 25/25 Q1010 NOSIG,WBSB,2023-06-05T23:30:00Z,4.93,114.92,25.0,25.0,140,1,,6.21,29.822834,,,,,,TRUE,,,,,FEW,500,BKN,28000,,,,,VFR,,,,,,,,,,,,METAR,15.0
WBKK 052330Z 12005KT 9999 FEW014 25/23 Q1009 NOSIG,WBKK,2023-06-05T23:30:00Z,5.93,116.05,25.0,23.0,120,5,,6.21,29.793306,,,,,,TRUE,,,,,FEW,1400,,,,,,,VFR,,,,,,,,,,,,METAR,9.0
WBGG 052330Z 00000KT 9999 FEW020 26/25 Q1010 NOSIG,WBGG,2023-06-05T23:30:00Z,1.48,110.35,26.0,25.0,0,0,,6.21,29.822834,,,,,,TRUE,,,,,FEW,2000,,,,,,,VFR,,,,,,,,,,,,METAR,26.0
WATT 052330Z 11012KT 9000 FEW018 27/20 Q1013 NOSIG,WATT,2023-06-05T23:30:00Z,-10.17,123.67,27.0,20.0,110,12,,5.59,29.911417,,,,,,TRUE,,,,,FEW,1800,,,,,,,VFR,,,,,,,,,,,,METAR,104.0
WAQQ 052330Z VRB02KT 9999 FEW015 27/26 Q1010 NOSIG,WAQQ,2023-06-05T23:30:00Z,3.33,117.57,27.0,26.0,0,2,,6.21,29.822834,,,,,,TRUE,,,,,FEW,1500,,,,,,,VFR,,,,,,,,,,,,METAR,6.0
WAPP 052330Z VRB02KT 9999 SCT017 32/25 Q1011 NOSIG,WAPP,2023-06-05T23:30:00Z,-3.7,128.08,32.0,25.0,0,2,,6.21,29.852362,,,,,,TRUE,,,,,SCT,1700,,,,,,,VFR,,,,,,,,,,,,METAR,20.0
WAMM 052330Z 15003KT 100V190 9999 FEW020 29/24 Q1010 NOSIG,WAMM,2023-06-05T23:30:00Z,1.55,124.92,29.0,24.0,150,3,,6.21,29.822834,,,,,,TRUE,,,,,FEW,2000,,,,,,,VFR,,,,,,,,,,,,METAR,86.0
WALL 052330Z 30004KT 9999 FEW020 25/24 Q1010 NOSIG,WALL,2023-06-05T23:30:00Z,-1.27,116.9,25.0,24.0,300,4,,6.21,29.822834,,,,,,TRUE,,,,,FEW,2000,,,,,,,VFR,,,,,,,,,,,,METAR,3.0
WAKK 052330Z 09010KT 9999 BKN015 27/25 Q1011 NOSIG,WAKK,2023-06-05T23:30:00Z,-8.52,140.42,27.0,25.0,90,10,,6.21,29.852362,,,,,,TRUE,,,,,BKN,1500,,,,,,,MVFR,,,,,,,,,,,,METAR,5.0
WAHS 052330Z 09004KT 6000 FEW014 26/23 Q1009,WAHS,2023-06-05T23:30:00Z,-6.98,110.38,26.0,23.0,90,4,,3.73,29.793306,,,,,,,,,,,FEW,1400,,,,,,,MVFR,,,,,,,,,,,,METAR,3.0
WADL 052330Z VRB02KT 7000 R13///// BKN016 25/24 Q1012 NOSIG,WADL,2023-06-05T23:30:00Z,-8.75,116.28,25.0,24.0,0,2,,4.35,29.88189,,,,,,TRUE,,,,,BKN,1600,,,,,,,MVFR,,,,,,,,,,,,METAR,97.0
WADD 052330Z 07006KT 9999 SCT016 26/25 Q1011 RETS NOSIG,WADD,2023-06-05T23:30:00Z,-8.73,115.17,26.0,25.0,70,6,,6.21,29.852362,,,,,,TRUE,,,,,SCT,1600,,,,,,,VFR,,,,,,,,,,,,METAR,3.0
WABB 052330Z 08007KT 180V080 8000 SCT018 29/26 Q1010 NOSIG,WABB,2023-06-05T23:30:00Z,-1.18,136.12,29.0,26.0,80,7,,4.97,29.822834,,,,,,TRUE,,,,,SCT,1800,,,,,,,MVFR,,,,,,,,,,,,METAR,12.0
WAAA 052330Z 12004KT 9999 FEW019 26/23 Q1010 NOSIG,WAAA,2023-06-05T23:30:00Z,-5.07,119.55,26.0,23.0,120,4,,6.21,29.822834,,,,,,TRUE,,,,,FEW,1900,,,,,,,VFR,,,,,,,,,,,,METAR,13.0
VYYY 052330Z 26002KT 6000 BKN015 FEW018CB BKN110 26/25 Q1003,VYYY,2023-06-05T23:30:00Z,16.9,96.13,26.0,25.0,260,2,,3.73,29.616142,,,,,,,,,,,BKN,1500,FEW,1800,BKN,11000,,,MVFR,,,,,,,,,,,,METAR,31.0
VYMD 052330Z 18003KT 6000 BKN020 FEW025CB 27/24 Q1004,VYMD,2023-06-05T23:30:00Z,21.7,95.98,27.0,24.0,180,3,,3.73,29.64567,,,,,,,,,,,BKN,2000,FEW,2500,,,,,MVFR,,,,,,,,,,,,METAR,87.0
VVVD 052330Z 03005KT 340V050 4000 RA VCTS SCT015 FEW023CB BKN031 25/24 Q1007 BECMG FM2345 6000 -RA,VVVD,2023-06-05T23:30:00Z,21.12,107.42,25.0,24.0,30,5,,2.49,29.734253,,,,,,,,,,RA VCTS,SCT,1500,FEW,2300,BKN,3100,,,IFR,,,,,,,,,,,,METAR,8.0
VVTS 052330Z VRB01KT 8000 FEW029 BKN065 26/26 Q1008 NOSIG,VVTS,2023-06-05T23:30:00Z,10.82,106.67,26.0,26.0,0,1,,4.97,29.763779,,,,,,TRUE,,,,,FEW,2900,BKN,6500,,,,,MVFR,,,,,,,,,,,,METAR,10.0
VVPQ 052330Z VRB02KT 9999 SCT015 BKN040 25/24 Q1007 NOSIG,VVPQ,2023-06-05T23:30:00Z,10.23,103.97,25.0,24.0,0,2,,6.21,29.734253,,,,,,TRUE,,,,,SCT,1500,BKN,4000,,,,,VFR,,,,,,,,,,,,METAR,8.0
VVPB 052330Z 29003KT 9999 FEW015 SCT060 27/25 Q1005 NOSIG,VVPB,2023-06-05T23:30:00Z,16.38,107.7,27.0,25.0,290,3,,6.21,29.675198,,,,,,TRUE,,,,,FEW,1500,SCT,6000,,,,,VFR,,,,,,,,,,,,METAR,15.0
VVNB 052330Z VRB02KT 5000 BR FEW030TCU FEW040 28/26 Q1006 NOSIG,VVNB,2023-06-05T23:30:00Z,21.22,105.8,28.0,26.0,0,2,,3.11,29.704725,,,,,,TRUE,,,,BR,FEW,3000,FEW,4000,,,,,MVFR,,,,,,,,,,,,METAR,6.0
VVDN 052330Z 19001KT 9999 FEW015 BKN060 27/25 Q1005 NOSIG,VVDN,2023-06-05T23:30:00Z,16.03,108.2,27.0,25.0,190,1,,6.21,29.675198,,,,,,TRUE,,,,,FEW,1500,BKN,6000,,,,,VFR,,,,,,,,,,,,METAR,7.0
VVCT 052330Z 26006KT 240V310 9999 SCT013 BKN040 25/24 Q1007 NOSIG,VVCT,2023-06-05T23:30:00Z,10.08,105.72,25.0,24.0,260,6,,6.21,29.734253,,,,,,TRUE,,,,,SCT,1300,BKN,4000,,,,,VFR,,,,,,,,,,,,METAR,6.0
VVCR 052330Z 35003KT 9999 FEW015 28/24 Q1006 NOSIG,VVCR,2023-06-05T23:30:00Z,12.0,109.22,28.0,24.0,350,3,,6.21,29.704725,,,,,,TRUE,,,,,FEW,1500,,,,,,,VFR,,,,,,,,,,,,METAR,12.0
VVCI 052330Z 06004KT 020V090 9999 FEW020 27/25 Q1005 NOSIG,VVCI,2023-06-05T23:30:00Z,20.82,106.73,27.0,25.0,60,4,,6.21,29.675198,,,,,,TRUE,,,,,FEW,2000,,,,,,,VFR,,,,,,,,,,,,METAR,6.0
VTSS 052330Z 24005KT 090V260 9999 SCT020 BKN100 26/24 Q1008 NOSIG,VTSS,2023-06-05T23:30:00Z,6.92,100.38,26.0,24.0,240,5,,6.21,29.763779,,,,,,TRUE,,,,,SCT,2000,BKN,10000,,,,,VFR,,,,,,,,,,,,METAR,28.0
VTSP 052330Z 26011KT 9999 SCT020 28/25 Q1007 WS ALL RWY NOSIG,VTSP,2023-06-05T23:30:00Z,8.12,98.32,28.0,25.0,260,11,,6.21,29.734253,,,,,,TRUE,,,,,SCT,2000,,,,,,,VFR,,,,,,,,,,,,SPECI,12.0
VTCC 052330Z 17005KT 9999 SCT035 26/24 Q1006 NOSIG,VTCC,2023-06-05T23:30:00Z,18.77,98.97,26.0,24.0,170,5,,6.21,29.704725,,,,,,TRUE,,,,,SCT,3500,,,,,,,VFR,,,,,,,,,,,,METAR,308.0
VTBU 052330Z 20010KT 9999 FEW020 29/25 Q1006 NOSIG,VTBU,2023-06-05T23:30:00Z,12.68,101.0,29.0,25.0,200,10,,6.21,29.704725,,,,,,TRUE,,,,,FEW,2000,,,,,,,VFR,,,,,,,,,,,,METAR,12.0
VTBS 052330Z 21008KT 9999 FEW020CB SCT050 30/24 Q1005 NOSIG,VTBS,2023-06-05T23:30:00Z,13.68,100.75,30.0,24.0,210,8,,6.21,29.675198,,,,,,TRUE,,,,,FEW,2000,SCT,5000,,,,,VFR,,,,,,,,,,,,METAR,1.0
VTBD 052330Z 14001KT 9999 FEW020 29/23 Q1005 NOSIG,VTBD,2023-06-05T23:30:00Z,13.92,100.6,29.0,23.0,140,1,,6.21,29.675198,,,,,,TRUE,,,,,FEW,2000,,,,,,,VFR,,,,,,,,,,,,METAR,6.0
VQPR 052330Z VRB02KT 9999 FEW040 BKN090 13/10 Q1020,VQPR,2023-06-05T23:30:00Z,27.4,89.43,13.0,10.0,0,2,,6.21,30.11811,,,,,,,,,,,FEW,4000,BKN,9000,,,,,VFR,,,,,,,,,,,,METAR,2227.0
VOTV 052330Z 34006KT 3000 BR SCT015 SCT080 28/25 Q1007 NOSIG,VOTV,2023-06-05T23:30:00Z,8.48,76.92,28.0,25.0,340,6,,1.86,29.734253,,,,,,TRUE,,,,BR,SCT,1500,SCT,8000,,,,,IFR,,,,,,,,,,,,METAR,9.0
VOTR 052330Z 28008KT 3500 BR FEW016 SCT080 27/25 Q1006 NOSIG,VOTR,2023-06-05T23:30:00Z,10.77,78.72,27.0,25.0,280,8,,2.17,29.704725,,,,,,TRUE,,,,BR,FEW,1600,SCT,8000,,,,,IFR,,,,,,,,,,,,METAR,90.0
VOKN 052330Z 09009KT 4000 BR FEW012 26/24 Q1008 NOSIG,VOKN,2023-06-05T23:30:00Z,11.92,75.55,26.0,24.0,90,9,,2.49,29.763779,,,,,,TRUE,,,,BR,FEW,1200,,,,,,,IFR,,,,,,,,,,,,METAR,105.0
VOHS 052330Z 26008KT 5000 HZ FEW020 28/18 Q1009 NOSIG,VOHS,2023-06-05T23:30:00Z,17.23,78.43,28.0,18.0,260,8,,3.11,29.793306,,,,,,TRUE,,,,HZ,FEW,2000,,,,,,,MVFR,,,,,,,,,,,,METAR,607.0
VOGO 052330Z 05004KT 6000 FEW020 SCT030 29/26 Q1007 NOSIG,VOGO,2023-06-05T23:30:00Z,15.38,73.83,29.0,26.0,50,4,,3.73,29.734253,,,,,,TRUE,,,,,FEW,2000,SCT,3000,,,,,MVFR,,,,,,,,,,,,METAR,56.0
VOGA 052330Z 35002KT 5000 HZ FEW020 26/24 Q1009 NOSIG,VOGA,2023-06-05T23:30:00Z,,,26.0,24.0,350,2,,3.11,29.793306,,,,,,TRUE,,,,HZ,FEW,2000,,,,,,,MVFR,,,,,,,,,,,,METAR,
VOCL 052330Z 05003KT 5000 BR FEW012 SCT080 25/23 Q1008 NOSIG,VOCL,2023-06-05T23:30:00Z,11.13,75.95,25.0,23.0,50,3,,3.11,29.763779,,,,,,TRUE,,,,BR,FEW,1200,SCT,8000,,,,,MVFR,,,,,,,,,,,,METAR,104.0
VOCI 052330Z 20002KT 3000 BR SCT012 BKN080 26/26 Q1008 NOSIG,VOCI,2023-06-05T23:30:00Z,10.15,76.4,26.0,26.0,200,2,,1.86,29.763779,,,,,,TRUE,,,,BR,SCT,1200,BKN,8000,,,,,IFR,,,,,,,,,,,,METAR,8.0
VOCB 052330Z 21005KT 5000 BR FEW015 SCT080 26/24 Q1009 NOSIG,VOCB,2023-06-05T23:30:00Z,11.02,77.03,26.0,24.0,210,5,,3.11,29.793306,,,,,,TRUE,,,,BR,FEW,1500,SCT,8000,,,,,MVFR,,,,,,,,,,,,METAR,394.0
VOBL 052330Z 26011KT 6000 FEW015 SCT080 23/20 Q1013 NOSIG,VOBL,2023-06-05T23:30:00Z,13.2,77.7,23.0,20.0,260,11,,3.73,29.911417,,,,,,TRUE,,,,,FEW,1500,SCT,8000,,,,,MVFR,,,,,,,,,,,,METAR,908.0
VMMC 052330Z 10012KT 9999 FEW013 SCT028 29/26 Q1007 TEMPO 4500 SHRA FEW010 SCT015CB,VMMC,2023-06-05T23:30:00Z,22.15,113.58,29.0,26.0,100,12,,6.21,29.734253,,,,,,,,,,,FEW,1300,SCT,2800,,,,,VFR,,,,,,,,,,,,SPECI,1.0
VLVT 052330Z 27002KT 8000 FEW010 BKN040 24/24 Q1006 NOSIG,VLVT,2023-06-05T23:30:00Z,17.98,102.57,24.0,24.0,270,2,,4.97,29.704725,,,,,,TRUE,,,,,FEW,1000,BKN,4000,,,,,MVFR,,,,,,,,,,,,METAR,171.0
VILK 052330Z VRB02KT 4000 HZ NSC 26/21 Q1002 NOSIG,VILK,2023-06-05T23:30:00Z,26.75,80.88,26.0,21.0,0,2,,2.49,29.586615,,,,,,TRUE,,,,HZ,CLR,,,,,,,,IFR,,,,,,,,,,,,METAR,121.0
VIJP 052330Z VRB02KT 4000 HZ FEW100 28/20 Q1006 NOSIG,VIJP,2023-06-05T23:30:00Z,26.82,75.8,28.0,20.0,0,2,,2.49,29.704725,,,,,,TRUE,,,,HZ,FEW,10000,,,,,,,IFR,,,,,,,,,,,,METAR,383.0
VIDP 052330Z 00000KT 2500 BR SCT100 25/21 Q1005 NOSIG,VIDP,2023-06-05T23:30:00Z,28.57,77.12,25.0,21.0,0,0,,1.55,29.675198,,,,,,TRUE,,,,BR,SCT,10000,,,,,,,IFR,,,,,,,,,,,,METAR,236.0
VEPT 052330Z 00000KT 2800 HZ NSC 29/22 Q1001 NOSIG,VEPT,2023-06-05T23:30:00Z,25.6,85.08,29.0,22.0,0,0,,1.74,29.557087,,,,,,TRUE,,,,HZ,CLR,,,,,,,,IFR,,,,,,,,,,,,METAR,53.0
VEGT 052330Z 00000KT 3000 BR SCT018 SCT100 28/27 Q1002 NOSIG,VEGT,2023-06-05T23:30:00Z,26.1,91.58,28.0,27.0,0,0,,1.86,29.586615,,,,,,TRUE,,,,BR,SCT,1800,SCT,10000,,,,,IFR,,,,,,,,,,,,METAR,50.0
VEBS 052330Z 16003KT 3500 HZ FEW100 27/27 Q1003 NOSIG,VEBS,2023-06-05T23:30:00Z,20.25,85.82,27.0,27.0,160,3,,2.17,29.616142,,,,,,TRUE,,,,HZ,FEW,10000,,,,,,,IFR,,,,,,,,,,,,METAR,42.0
VEBN 052330Z 00000KT 3000 HZ FEW100 29/23 Q1002 NOSIG,VEBN,2023-06-05T23:30:00Z,25.45,82.85,29.0,23.0,0,0,,1.86,29.586615,,,,,,TRUE,,,,HZ,FEW,10000,,,,,,,IFR,,,,,,,,,,,,METAR,81.0
VDSV 052330Z VRB02KT 9000 -RA SCT015 FEW017CB BKN040 25/25 Q1007 RMK CB:S,VDSV,2023-06-05T23:30:00Z,10.58,103.63,25.0,25.0,0,2,,5.59,29.734253,,,,,,,,,,-RA,SCT,1500,FEW,1700,BKN,4000,,,VFR,,,,,,,,,,,,METAR,1.0
VDSR 052330Z 04003KT 9999 SCT015 SCT040 26/25 Q1005,VDSR,2023-06-05T23:30:00Z,13.42,103.8,26.0,25.0,40,3,,6.21,29.675198,,,,,,,,,,,SCT,1500,SCT,4000,,,,,VFR,,,,,,,,,,,,METAR,16.0
VDPP 052330Z 17006KT 9999 SCT015 BKN040 26/26 Q1006,VDPP,2023-06-05T23:30:00Z,11.55,104.83,26.0,26.0,170,6,,6.21,29.704725,,,,,,,,,,,SCT,1500,BKN,4000,,,,,VFR,,,,,,,,,,,,METAR,10.0
VANP 052330Z 31006KT 3000 HZ NSC 30/18 Q1005 NOSIG,VANP,2023-06-05T23:30:00Z,21.08,79.05,30.0,18.0,310,6,,1.86,29.675198,,,,,,TRUE,,,,HZ,CLR,,,,,,,,IFR,,,,,,,,,,,,METAR,309.0
VABB 052330Z 24007KT 3000 HZ SCT020 30/26 Q1007 NOSIG,VABB,2023-06-05T23:30:00Z,19.1,72.87,30.0,26.0,240,7,,1.86,29.734253,,,,,,TRUE,,,,HZ,SCT,2000,,,,,,,IFR,,,,,,,,,,,,METAR,14.0
VAAH 052330Z 18005KT 4000 HZ NSC 29/23 Q1004 NOSIG,VAAH,2023-06-05T23:30:00Z,23.07,72.63,29.0,23.0,180,5,,2.49,29.64567,,,,,,TRUE,,,,HZ,CLR,,,,,,,,IFR,,,,,,,,,,,,METAR,52.0
UWWW 052330Z 36005MPS 9999 SCT033 14/04 Q1016 R33/CLRD60 NOSIG RMK QFE751/1002,UWWW,2023-06-05T23:30:00Z,53.5,50.17,14.0,4.0,360,10,,6.21,30.0,,,,,,TRUE,,,,,SCT,3300,,,,,,,VFR,,,,,,,,,,,,SPECI,124.0
UWUU 052330Z 32005MPS CAVOK 09/04 Q1015 R32L/0///60 NOSIG,UWUU,2023-06-05T23:30:00Z,54.57,55.87,9.0,4.0,320,10,,6.21,29.970472,,,,,,TRUE,,,,,CAVOK,,,,,,,,VFR,,,,,,,,,,,,SPECI,137.0
UWSG 052330Z 34006MPS CAVOK 13/05 Q1016 R08/CLRD70 NOSIG RMK QFE760/1013,UWSG,2023-06-05T23:30:00Z,51.72,46.17,13.0,5.0,340,12,,6.21,30.0,,,,,,TRUE,,,,,CAVOK,,,,,,,,VFR,,,,,,,,,,,,METAR,31.0
UWPS 052330Z 00000MPS CAVOK 07/04 Q1019 R20/CLRD60 NOSIG RMK QFE747,UWPS,2023-06-05T23:30:00Z,54.12,45.2,7.0,4.0,0,0,,6.21,30.088583,,,,,,TRUE,,,,,CAVOK,,,,,,,,VFR,,,,,,,,,,,,METAR,206.0
UWOO 052330Z 01004MPS CAVOK 20/13 Q1010 R08/60D NOSIG RMK QFE747/0996,UWOO,2023-06-05T23:30:00Z,51.8,55.47,20.0,13.0,10,8,,6.21,29.822834,,,,,,TRUE,,,,,CAVOK,,,,,,,,VFR,,,,,,,,,,,,METAR,90.0
UWLL 052330Z 32004MPS CAVOK 10/04 Q1018 R02/090065 NOSIG RMK QFE751/1002,UWLL,2023-06-05T23:30:00Z,54.27,48.23,10.0,4.0,320,8,,6.21,30.059055,,,,,,TRUE,,,,,CAVOK,,,,,,,,VFR,,,,,,,,,,,,SPECI,119.0
UWKS 052330Z 25003MPS CAVOK 08/05 Q1018 R24/010060 NOSIG RMK QFE749,UWKS,2023-06-05T23:30:00Z,56.08,47.35,8.0,5.0,250,6,,6.21,30.059055,,,,,,TRUE,,,,,CAVOK,,,,,,,,VFR,,,,,,,,,,,,METAR,165.0
UWKE 052330Z 36002MPS CAVOK 11/04 Q1017 R21/090070 NOSIG RMK QFE746/0995,UWKE,2023-06-05T23:30:00Z,55.57,52.08,11.0,4.0,360,4,,6.21,30.029528,,,,,,TRUE,,,,,CAVOK,,,,,,,,VFR,,,,,,,,,,,,SPECI,193.0
UWKD 052330Z 32002MPS CAVOK 09/06 Q1018 R29/70D NOSIG RMK QFE752/1003,UWKD,2023-06-05T23:30:00Z,55.62,49.28,9.0,6.0,320,4,,6.21,30.059055,,,,,,TRUE,,,,,CAVOK,,,,,,,,VFR,,,,,,,,,,,,METAR,114.0
UWGG 052330Z 00000MPS CAVOK 08/08 Q1018 R18L/090070 NOSIG,UWGG,2023-06-05T23:30:00Z,56.23,43.78,8.0,8.0,0,0,,6.21,30.059055,,,,,,TRUE,,,,,CAVOK,,,,,,,,VFR,,,,,,,,,,,,METAR,73.0
UUYY 052330Z 21003MPS CAVOK 07/07 Q1011 R18/29//51 NOSIG RMK QFE750/1000,UUYY,2023-06-05T23:30:00Z,61.65,50.83,7.0,7.0,210,6,,6.21,29.852362,,,,,,TRUE,,,,,CAVOK,,,,,,,,VFR,,,,,,,,,,,,METAR,107.0
UUWW 052330Z 27002MPS CAVOK 07/05 Q1020 R24/000065 NOSIG,UUWW,2023-06-05T23:30:00Z,55.6,37.27,7.0,5.0,270,4,,6.21,30.11811,,,,,,TRUE,,,,,CAVOK,,,,,,,,VFR,,,,,,,,,,,,METAR,195.0
UUOO 052330Z 29002MPS CAVOK 06/05 Q1021 R30/010070 NOSIG RMK QFE752,UUOO,2023-06-05T23:30:00Z,51.82,39.23,6.0,5.0,290,4,,6.21,30.147638,,,,,,TRUE,,,,,CAVOK,,,,,,,,VFR,,,,,,,,,,,,SPECI,154.0
UUOL 052330Z AUTO 26002MPS 9999 NCD 09/04 Q1021,UUOL,2023-06-05T23:30:00Z,52.7,39.53,9.0,4.0,260,4,,6.21,30.147638,,,TRUE,,,,,,,,CLR,,,,,,,,VFR,,,,,,,,,,,,METAR,176.0
UUOK 052330Z AUTO 18002MPS 9999 // NSC 08/04 Q1022 RMK QFE748/0997,UUOK,2023-06-05T23:30:00Z,51.75,36.28,8.0,4.0,180,4,,6.21,30.177166,,,TRUE,,,,,,,,CLR,,,,,,,,VFR,,,,,,,,,,,,METAR,203.0
UUOB 052330Z 25001MPS CAVOK 11/03 Q1023 R11/010070 NOSIG,UUOB,2023-06-05T23:30:00Z,50.65,36.58,11.0,3.0,250,2,,6.21,30.206694,,,,,,TRUE,,,,,CAVOK,,,,,,,,VFR,,,,,,,,,,,,METAR,218.0
UUEE 052330Z 26003MPS 230V300 CAVOK 10/06 Q1020 R24C/CLRD62 NOSIG,UUEE,2023-06-05T23:30:00Z,55.97,37.42,10.0,6.0,260,6,,6.21,30.11811,,,,,,TRUE,,,,,CAVOK,,,,,,,,VFR,,,,,,,,,,,,METAR,186.0
UUDL 052330Z 22002MPS CAVOK 10/07 Q1018 R23/010060 NOSIG RMK QFE755,UUDL,2023-06-05T23:30:00Z,57.57,40.17,10.0,7.0,220,4,,6.21,30.059055,,,,,,TRUE,,,,,CAVOK,,,,,,,,VFR,,,,,,,,,,,,METAR,88.0
UUDD 052330Z 28004MPS CAVOK 08/06 Q1020 R32L/190050 NOSIG,UUDD,2023-06-05T23:30:00Z,55.4,37.9,8.0,6.0,280,8,,6.21,30.11811,,,,,,TRUE,,,,,CAVOK,,,,,,,,VFR,,,,,,,,,,,,METAR,165.0
UUBW 052330Z 28002MPS CAVOK 08/08 Q1020 R30/010060 NOSIG RMK QFE755,UUBW,2023-06-05T23:30:00Z,55.55,38.15,8.0,8.0,280,4,,6.21,30.11811,,,,,,TRUE,,,,,CAVOK,,,,,,,,VFR,,,,,,,,,,,,METAR,111.0
UUBP 052330Z AUTO 00000MPS 9999 NCD 10/06 Q1021 NOSIG RMK QFE748/0998,UUBP,2023-06-05T23:30:00Z,53.22,34.18,10.0,6.0,0,0,,6.21,30.147638,,,TRUE,,,TRUE,,,,,CLR,,,,,,,,VFR,,,,,,,,,,,,SPECI,197.0
UUBC 052330Z VRB01MPS CAVOK 06/06 Q1021 R31/CLRD60 NOSIG RMK QFE748/0998,UUBC,2023-06-05T23:30:00Z,54.55,36.37,6.0,6.0,0,2,,6.21,30.147638,,,,,,TRUE,,,,,CAVOK,,,,,,,,VFR,,,,,,,,,,,,METAR,198.0
UTTT 052330Z 08008KT CAVOK 23/01 Q1008 R08R/CLRD70 NOSIG,UTTT,2023-06-05T23:30:00Z,41.27,69.27,23.0,1.0,80,8,,6.21,29.763779,,,,,,TRUE,,,,,CAVOK,,,,,,,,VFR,,,,,,,,,,,,METAR,429.0
UTST 052330Z 03004KT CAVOK 23/07 Q1007 R25/CLRD70 NOSIG,UTST,2023-06-05T23:30:00Z,37.28,67.32,23.0,7.0,30,4,,6.21,29.734253,,,,,,TRUE,,,,,CAVOK,,,,,,,,VFR,,,,,,,,,,,,SPECI,311.0
UTSS 052330Z 15014KT 9999 NSC 24/06 Q1009 R09/70D NOSIG,UTSS,2023-06-05T23:30:00Z,39.7,66.98,24.0,6.0,150,14,,6.21,29.793306,,,,,,TRUE,,,,,CLR,,,,,,,,VFR,,,,,,,,,,,,METAR,665.0
UTSK 052330Z 07006KT CAVOK 23/03 Q1008 R16/CLRD70,UTSK,2023-06-05T23:30:00Z,38.8,65.77,23.0,3.0,70,6,,6.21,29.763779,,,,,,,,,,,CAVOK,,,,,,,,VFR,,,,,,,,,,,,SPECI,399.0
UTSB 052330Z 06004KT CAVOK 21/10 Q1006 R01/CLRD70 NOSIG,UTSB,2023-06-05T23:30:00Z,39.77,64.48,21.0,10.0,60,4,,6.21,29.704725,,,,,,TRUE,,,,,CAVOK,,,,,,,,VFR,,,,,,,,,,,,SPECI,225.0
UTSA 052330Z 11004KT 050V170 9999 NSC 22/01 Q1008 R07/CLRD70 NOSIG,UTSA,2023-06-05T23:30:00Z,40.12,65.17,22.0,1.0,110,4,,6.21,29.763779,,,,,,TRUE,,,,,CLR,,,,,,,,VFR,,,,,,,,,,,,SPECI,346.0
UTNU 052330Z 30006KT CAVOK 23/06 Q1007 R31/CLRD70 NOSIG,UTNU,2023-06-05T23:30:00Z,41.58,60.63,23.0,6.0,300,6,,6.21,29.734253,,,,,,TRUE,,,,,CAVOK,,,,,,,,VFR,,,,,,,,,,,,SPECI,97.0
UTNN 052330Z 25004KT CAVOK 24/07 Q1008 R33/CLRD60 NOSIG,UTNN,2023-06-05T23:30:00Z,42.48,59.63,24.0,7.0,250,4,,6.21,29.763779,,,,,,TRUE,,,,,CAVOK,,,,,,,,VFR,,,,,,,,,,,,SPECI,76.0
UTFN 052330Z 33008KT 9999 FEW050CB 22/04 Q1011 R28/CLRD70 NOSIG,UTFN,2023-06-05T23:30:00Z,40.98,71.57,22.0,4.0,330,8,,6.21,29.852362,,,,,,TRUE,,,,,FEW,5000,,,,,,,VFR,,,,,,,,,,,,METAR,477.0
UTDT 052330Z 00000MPS 9999 FEW130 19/12 Q1007 R35/CLRD70 RMK QFE716/0955,UTDT,2023-06-05T23:30:00Z,37.87,68.87,19.0,12.0,0,0,,6.21,29.734253,,,,,,,,,,,FEW,13000,,,,,,,VFR,,,,,,,,,,,,METAR,443.0
UTDL 052330Z 08003MPS 9999 NSC 24/07 Q1010 R08/CLRD70 NOSIG RMK QFE719/0958,UTDL,2023-06-05T23:30:00Z,40.22,69.7,24.0,7.0,80,6,,6.21,29.822834,,,,,,TRUE,,,,,CLR,,,,,,,,VFR,,,,,,,,,,,,SPECI,436.0
UTDK 052330Z 02006MPS 9999 NSC 24/06 Q1010 R01/09//70 RMK QFE701/0934,UTDK,2023-06-05T23:30:00Z,37.98,69.8,24.0,6.0,20,12,,6.21,29.822834,,,,,,,,,,,CLR,,,,,,,,VFR,,,,,,,,,,,,METAR,675.0
UTDD 052330Z 05003MPS 020V080 9999 NSC 22/05 Q1012 R09/D NOSIG RMK QFE691/0921,UTDD,2023-06-05T23:30:00Z,38.53,68.82,22.0,5.0,50,6,,6.21,29.88189,,,,,,TRUE,,,,,CLR,,,,,,,,VFR,,,,,,,,,,,,METAR,785.0
USTR 052330Z 32004MPS CAVOK 14/10 Q1014 R30/090065 R21/090065 NOSIG,USTR,2023-06-05T23:30:00Z,57.18,65.32,14.0,10.0,320,8,,6.21,29.940945,,,,,,TRUE,,,,,CAVOK,,,,,,,,VFR,,,,,,,,,,,,SPECI,93.0
USSS 052330Z 00000MPS CAVOK 07/05 Q1017 R26L/010060 NOSIG RMK QFE742/0989,USSS,2023-06-05T23:30:00Z,56.75,60.78,7.0,5.0,0,0,,6.21,30.029528,,,,,,TRUE,,,,,CAVOK,,,,,,,,VFR,,,,,,,,,,,,SPECI,222.0
USRR 052330Z 33003MPS CAVOK 19/17 Q1011 R25/CLRD60 NOSIG RMK QFE753,USRR,2023-06-05T23:30:00Z,61.33,73.42,19.0,17.0,330,6,,6.21,29.852362,,,,,,TRUE,,,,,CAVOK,,,,,,,,VFR,,,,,,,,,,,,SPECI,52.0
USPP 052330Z 28002MPS CAVOK 05/03 Q1017 R21/090060 NOSIG RMK QFE752,USPP,2023-06-05T23:30:00Z,57.92,56.02,5.0,3.0,280,4,,6.21,30.029528,,,,,,TRUE,,,,,CAVOK,,,,,,,,VFR,,,,,,,,,,,,SPECI,120.0
USNN 052330Z 32001MPS 7000 SCT030CB 18/18 Q1009 R21/290255 TEMPO 1000 TSRA BR RMK QFE752,USNN,2023-06-05T23:30:00Z,60.95,76.48,18.0,18.0,320,2,,4.35,29.793306,,,,,,,,,,,SCT,3000,,,,,,,MVFR,,,,,,,,,,,,SPECI,52.0
USHH 052330Z 00000MPS CAVOK 13/06 Q1014 R06/010060 NOSIG,USHH,2023-06-05T23:30:00Z,61.03,69.08,13.0,6.0,0,0,,6.21,29.940945,,,,,,TRUE,,,,,CAVOK,,,,,,,,VFR,,,,,,,,,,,,METAR,46.0
USDA 052330Z 27004MPS 0200 0150NW R04/M0200N FG VV002 03/03 Q1001 R04/290250 NOSIG RMK QBB060 QFE749/0999,USDA,2023-06-05T23:30:00Z,71.2,72.05,3.0,3.0,270,8,,0.12,29.557087,,,,,,TRUE,,,,FG,OVX,0,,,,,,,LIFR,,,,,,,,,,,200,METAR,5.0
USCM 052330Z 36004MPS 9999 NSC 15/12 Q1015 R36/////// NOSIG RMK QFE722,USCM,2023-06-05T23:30:00Z,53.4,58.75,15.0,12.0,360,8,,6.21,29.970472,,,,,,TRUE,,,,,CLR,,,,,,,,VFR,,,,,,,,,,,,METAR,425.0
USCC 052330Z 31003MPS CAVOK 13/11 Q1015 R27/000060 NOSIG RMK QFE741,USCC,2023-06-05T23:30:00Z,55.3,61.5,13.0,11.0,310,6,,6.21,29.970472,,,,,,TRUE,,,,,CAVOK,,,,,,,,VFR,,,,,,,,,,,,SPECI,227.0
URWW 052330Z 32004MPS CAVOK 09/05 Q1017 R05/010070 TEMPO 1000 BR BKN003,URWW,2023-06-05T23:30:00Z,48.78,44.33,9.0,5.0,320,8,,6.21,30.029528,,,,,,,,,,,CAVOK,,,,,,,,VFR,,,,,,,,,,,,SPECI,131.0
URWI 052330Z AUTO 31004MPS 5000 // NSC 14/13 Q1017,URWI,2023-06-05T23:30:00Z,46.37,44.33,14.0,13.0,310,8,,3.11,30.029528,,,TRUE,,,,,,,,CLR,,,,,,,,MVFR,,,,,,,,,,,,SPECI,145.0
URWA 052330Z 32004MPS 9999 SCT/// 18/17 Q1012 R27/010070 TEMPO 2000 BR BKN003 RMK QFE761/1015,URWA,2023-06-05T23:30:00Z,46.28,47.98,18.0,17.0,320,8,,6.21,29.88189,,,,,,,,,,,,,,,,,,,,,,,,,,,,,,,SPECI,-19.0
URSS 052330Z 07001MPS 9999 BKN035CB BKN100 18/17 Q1015 R02/290060 R06/290060 NOSIG RMK R06/13002MPS MT OBSC QFE760,URSS,2023-06-05T23:30:00Z,43.45,39.92,18.0,17.0,70,2,,6.21,29.970472,,,,,,TRUE,,,,,BKN,3500,BKN,10000,,,,,VFR,,,,,,,,,,,,METAR,4.0
URRP 052330Z 34004MPS CAVOK 10/07 Q1020 R05/CLRD70 TEMPO 3000 BR SCT002 RMK QFE760/1013,URRP,2023-06-05T23:30:00Z,47.5,39.92,10.0,7.0,340,8,,6.21,30.11811,,,,,,,,,,,CAVOK,,,,,,,,VFR,,,,,,,,,,,,METAR,73.0
URMT 052330Z 35001MPS CAVOK 15/15 Q1018 R07/150060 NOSIG RMK QFE724,URMT,2023-06-05T23:30:00Z,45.12,42.12,15.0,15.0,350,2,,6.21,30.059055,,,,,,TRUE,,,,,CAVOK,,,,,,,,VFR,,,,,,,,,,,,SPECI,448.0
URMO 052330Z 05003MPS 9999 SCT/// OVC017 16/15 Q1017 R27/290150 NOSIG RMK QFE718/0958,URMO,2023-06-05T23:30:00Z,43.2,44.6,16.0,15.0,50,6,,6.21,30.029528,,,,,,TRUE,,,,,OVC,1700,,,,,,,MVFR,,,,,,,,,,,,METAR,505.0
URMM 052330Z 24001MPS 9999 FEW017 SCT///CB 16/16 Q1018 R30/190060 TEMPO 0700 +SHRA BKN002 BKN020CB RMK MT OBSC QFE735/0980,URMM,2023-06-05T23:30:00Z,44.22,43.07,16.0,16.0,240,2,,6.21,30.059055,,,,,,,,,,,FEW,1700,,,,,,,VFR,,,,,,,,,,,,METAR,318.0
URML 052330Z 04004MPS 330V110 9999 -SHRA SCT///CB 20/18 Q1014 R32/290160 TEMPO 6000 -TSRA BKN040CB RMK QFE760/1014,URML,2023-06-05T23:30:00Z,42.82,47.65,20.0,18.0,40,8,,6.21,29.940945,,,,,,,,,,-SHRA,,,,,,,,,,,,,,,,,,,,,SPECI,4.0
URMG 052330Z 29002MPS 260V040 9000 -SHRA SCT041CB BKN067 18/16 Q1016 R26/190060 NOSIG RMK QFE747/0996,URMG,2023-06-05T23:30:00Z,43.38,45.7,18.0,16.0,290,4,,5.59,30.0,,,,,,TRUE,,,,-SHRA,SCT,4100,BKN,6700,,,,,VFR,,,,,,,,,,,,METAR,160.0
URKK 052330Z 01004MPS 340V040 9999 BKN047 17/13 Q1018 R23L/CLRD70 NOSIG RMK QFE760,URKK,2023-06-05T23:30:00Z,45.03,39.15,17.0,13.0,10,8,,6.21,30.059055,,,,,,TRUE,,,,,BKN,4700,,,,,,,VFR,,,,,,,,,,,,SPECI,29.0
URKA 052330Z 05003MPS CAVOK 14/12 Q1018 R04/010070 NOSIG RMK QFE760/1013,URKA,2023-06-05T23:30:00Z,45.0,37.35,14.0,12.0,50,6,,6.21,30.059055,,,,,,TRUE,,,,,CAVOK,,,,,,,,VFR,,,,,,,,,,,,METAR,41.0
UOOO 052330Z 13004MPS 090V160 CAVOK 09/M01 Q1005 R19/CLRD60 NOSIG RMK QFE737/0983,UOOO,2023-06-05T23:30:00Z,69.32,87.33,9.0,-1.0,130,8,,6.21,29.675198,,,,,,TRUE,,,,,CAVOK,,,,,,,,VFR,,,,,,,,,,,,SPECI,177.0
UNWW 052330Z 35001MPS CAVOK 17/11 Q1014 R01/09//60 NOSIG RMK QFE733,UNWW,2023-06-05T23:30:00Z,53.82,86.88,17.0,11.0,350,2,,6.21,29.940945,,,,,,TRUE,,,,,CAVOK,,,,,,,,VFR,,,,,,,,,,,,SPECI,307.0
UNTT 052330Z 17002MPS CAVOK 18/14 Q1013 R03/090060 NOSIG RMK QFE743,UNTT,2023-06-05T23:30:00Z,56.38,85.22,18.0,14.0,170,4,,6.21,29.911417,,,,,,TRUE,,,,,CAVOK,,,,,,,,VFR,,,,,,,,,,,,METAR,179.0
UNOO 052330Z 14001MPS 9999 SCT033CB 24/09 Q1010 R07/CLRD60 NOSIG RMK QFE749,UNOO,2023-06-05T23:30:00Z,54.97,73.32,24.0,9.0,140,2,,6.21,29.822834,,,,,,TRUE,,,,,SCT,3300,,,,,,,VFR,,,,,,,,,,,,SPECI,85.0
UNNT 052330Z 00000MPS CAVOK 17/13 Q1013 R07/090070 R34/090070 NOSIG RMK QFE749/0999,UNNT,2023-06-05T23:30:00Z,55.02,82.65,17.0,13.0,0,0,,6.21,29.911417,,,,,,TRUE,,,,,CAVOK,,,,,,,,VFR,,,,,,,,,,,,SPECI,106.0
UNKL 052330Z 30003MPS CAVOK 21/13 Q1013 R29/CLRD65 NOSIG RMK QFE734,UNKL,2023-06-05T23:30:00Z,56.17,92.48,21.0,13.0,300,6,,6.21,29.911417,,,,,,TRUE,,,,,CAVOK,,,,,,,,VFR,,,,,,,,,,,,SPECI,278.0
UNEE 052330Z 11001MPS CAVOK 20/14 Q1014 R23/CLRD60 NOSIG RMK QFE737,UNEE,2023-06-05T23:30:00Z,55.27,86.1,20.0,14.0,110,2,,6.21,29.940945,,,,,,TRUE,,,,,CAVOK,,,,,,,,VFR,,,,,,,,,,,,SPECI,261.0
UNBB 052330Z 12003MPS CAVOK 22/07 Q1013 R06/CLRD66 NOSIG RMK QFE737,UNBB,2023-06-05T23:30:00Z,53.37,83.53,22.0,7.0,120,6,,6.21,29.911417,,,,,,TRUE,,,,,CAVOK,,,,,,,,VFR,,,,,,,,,,,,SPECI,249.0
UNAA 052330Z 20002MPS CAVOK 19/13 Q1014 R02/CLRD67 NOSIG RMK QFE738,UNAA,2023-06-05T23:30:00Z,53.75,91.4,19.0,13.0,200,4,,6.21,29.940945,,,,,,TRUE,,,,,CAVOK,,,,,,,,VFR,,,,,,,,,,,,SPECI,249.0
UMMS 052330Z VRB01MPS CAVOK 05/03 Q1023 NOSIG,UMMS,2023-06-05T23:30:00Z,53.88,28.03,5.0,3.0,0,2,,6.21,30.206694,,,,,,TRUE,,,,,CAVOK,,,,,,,,VFR,,,,,,,,,,,,METAR,196.0
UMKK 052330Z 16001MPS CAVOK 05/05 Q1022 R24/95D NOSIG RMK QFE765/1021,UMKK,2023-06-05T23:30:00Z,54.88,20.57,5.0,5.0,160,2,,6.21,30.177166,,,,,,TRUE,,,,,CAVOK,,,,,,,,VFR,,,,,,,,,,,,METAR,6.0
UMIO 052330Z VRB01MPS CAVOK 06/03 Q1023 NOSIG RMK QFE749/0999,UMIO,2023-06-05T23:30:00Z,54.43,30.3,6.0,3.0,0,2,,6.21,30.206694,,,,,,TRUE,,,,,CAVOK,,,,,,,,VFR,,,,,,,,,,,,METAR,189.0
ULMM 052330Z 30005MPS 9999 -SHRA BKN014CB 03/03 Q1005 R31/290158 NOSIG RMK QFE746,ULMM,2023-06-05T23:30:00Z,68.78,32.75,3.0,3.0,300,10,,6.21,29.675198,,,,,,TRUE,,,,-SHRA,BKN,1400,,,,,,,MVFR,,,,,,,,,,,,SPECI,79.0
ULLI 052330Z 27003MPS 230V300 CAVOK 10/07 Q1016 R28L/090060 NOSIG,ULLI,2023-06-05T23:30:00Z,59.8,30.27,10.0,7.0,270,6,,6.21,30.0,,,,,,TRUE,,,,,CAVOK,,,,,,,,VFR,,,,,,,,,,,,METAR,25.0
UIUU 052330Z 32008MPS 9999 SCT039CB 18/11 Q1004 R26/190060 NOSIG RMK QFE710/0946,UIUU,2023-06-05T23:30:00Z,51.8,107.45,18.0,11.0,320,16,,6.21,29.64567,,,,,,TRUE,,,,,SCT,3900,,,,,,,VFR,,,,,,,,,,,,METAR,508.0
UIII 052330Z 29004MPS 9999 SCT038CB 15/13 Q1009 R30/290150 NOSIG RMK QFE712/0950,UIII,2023-06-05T23:30:00Z,52.27,104.37,15.0,13.0,290,8,,6.21,29.793306,,,,,,TRUE,,,,,SCT,3800,,,,,,,VFR,,,,,,,,,,,,METAR,480.0
UIBB 052330Z 32002MPS 290V360 9999 NSC 12/10 Q1012 R30/60D NOSIG RMK QFE716/0955,UIBB,2023-06-05T23:30:00Z,56.37,101.7,12.0,10.0,320,4,,6.21,29.88189,,,,,,TRUE,,,,,CLR,,,,,,,,VFR,,,,,,,,,,,,METAR,485.0
UIAA 052330Z 15002MPS 110V180 9999 FEW050CB 12/08 Q0996 R29/290155 NOSIG RMK QFE689/0919,UIAA,2023-06-05T23:30:00Z,52.02,113.32,12.0,8.0,150,4,,6.21,29.409449,,,,,,TRUE,,,,,FEW,5000,,,,,,,VFR,,,,,,,,,,,,METAR,650.0
UHWW 052330Z VRB01MPS 9999 NSC 19/13 Q1002 R25L/0///70 NOSIG RMK QFE750,UHWW,2023-06-05T23:30:00Z,43.4,132.15,19.0,13.0,0,2,,6.21,29.586615,,,,,,TRUE,,,,,CLR,,,,,,,,VFR,,,,,,,,,,,,METAR,11.0
UHSS 052330Z 16003MPS 9999 NSC 15/08 Q1005 R19/70D NOSIG RMK QFE752/1003,UHSS,2023-06-05T23:30:00Z,46.88,142.72,15.0,8.0,160,6,,6.21,29.675198,,,,,,TRUE,,,,,CLR,,,,,,,,VFR,,,,,,,,,,,,METAR,14.0
UHPP 052330Z 21003MPS 9999 FEW025CB BKN045 11/04 Q0988 R34L/CLRD57 NOSIG RMK MT OBSC QFE738/0984,UHPP,2023-06-05T23:30:00Z,53.17,158.45,11.0,4.0,210,6,,6.21,29.17323,,,,,,TRUE,,,,,FEW,2500,BKN,4500,,,,,VFR,,,,,,,,,,,,METAR,33.0
UHMM 052330Z 08003MPS 9999 OVC046 10/03 Q1000 R10/19//60 NOSIG RMK QFE735 R28/13003MPS,UHMM,2023-06-05T23:30:00Z,59.92,150.72,10.0,3.0,80,6,,6.21,29.52756,,,,,,TRUE,,,,,OVC,4600,,,,,,,VFR,,,,,,,,,,,,METAR,175.0
UHMD 052330Z 02006MPS 9999 SCT020CB BKN043 OVC070 06/01 Q1012 RMK QBB600 MT OBSC QFE758/1011,UHMD,2023-06-05T23:30:00Z,64.38,-173.23,6.0,1.0,20,12,,6.21,29.88189,,,,,,,,,,,SCT,2000,BKN,4300,OVC,7000,,,VFR,,,,,,,,,,,,METAR,40.0
UHMA 052330Z 10011MPS 9999 SCT006 BKN017 BKN027 06/04 Q1010 R19/70D NOSIG RMK MID 09011MPS END R19/09008G11MPS MT OBSC QFE752/1003,UHMA,2023-06-05T23:30:00Z,64.73,177.73,6.0,4.0,100,21,,6.21,29.822834,,,,,,TRUE,,,,,SCT,600,BKN,1700,BKN,2700,,,MVFR,,,,,,,,,,,,METAR,53.0
UHHH 052330Z 18003MPS 140V210 CAVOK 20/12 Q0999 R88/090060 NOSIG RMK QFE743/0991,UHHH,2023-06-05T23:30:00Z,48.52,135.18,20.0,12.0,180,6,,6.21,29.498032,,,,,,TRUE,,,,,CAVOK,,,,,,,,VFR,,,,,,,,,,,,METAR,74.0
UHBB 052330Z 36005MPS 9999 SCT033CB 15/10 Q0996 R36/090060 NOSIG RMK QFE730/0973,UHBB,2023-06-05T23:30:00Z,50.43,127.42,15.0,10.0,360,10,,6.21,29.409449,,,,,,TRUE,,,,,SCT,3300,,,,,,,VFR,,,,,,,,,,,,METAR,185.0
UGTB 052330Z 31022KT 9999 BKN062CB 19/13 Q1014 NOSIG,UGTB,2023-06-05T23:30:00Z,41.67,44.95,19.0,13.0,310,22,,6.21,29.940945,,,,,,TRUE,,,,,BKN,6200,,,,,,,VFR,,,,,,,,,,,,METAR,468.0
UGSB 052330Z 12005KT 9999 -RA OVC019 18/18 Q1017 NOSIG,UGSB,2023-06-05T23:30:00Z,41.62,41.6,18.0,18.0,120,5,,6.21,30.029528,,,,,,TRUE,,,,-RA,OVC,1900,,,,,,,MVFR,,,,,,,,,,,,METAR,32.0
UGMS 052330Z AUTO VRB02KT //// ////// 11/10 Q1023,UGMS,2023-06-05T23:30:00Z,43.05,42.75,11.0,10.0,0,2,,,30.206694,,,TRUE,,,,,,,,,,,,,,,,,,,,,,,,,,,,METAR,1442.0
UGKO 052330Z AUTO VRB01KT 9999 FEW031/// BKN045/// 18/18 Q1016 NOSIG,UGKO,2023-06-05T23:30:00Z,42.18,42.48,18.0,18.0,0,1,,6.21,30.0,,,TRUE,,,TRUE,,,,,FEW,3100,BKN,4500,,,,,VFR,,,,,,,,,,,,METAR,44.0
UGAM 052330Z AUTO VRB02G15KT //// ////// 16/16 Q1017,UGAM,2023-06-05T23:30:00Z,42.53,43.13,16.0,16.0,0,2,15,,30.029528,,,TRUE,,,,,,,,,,,,,,,,,,,,,,,,,,,,METAR,544.0
UERR 052330Z 05006MPS CAVOK 06/M01 Q1006 R07/CLRD60 NOSIG RMK QFE725/0966,UERR,2023-06-05T23:30:00Z,62.53,114.05,6.0,-1.0,50,12,,6.21,29.704725,,,,,,TRUE,,,,,CAVOK,,,,,,,,VFR,,,,,,,,,,,,SPECI,352.0
UERP 052330Z 30003MPS 9999 -SN BKN014 OVC100 01/M03 Q1009 R35/090061 NOSIG RMK QFE713,UERP,2023-06-05T23:30:00Z,66.4,112.03,1.0,-3.0,300,6,,6.21,29.793306,,,,,,TRUE,,,,-SN,BKN,1400,OVC,10000,,,,,MVFR,,,,,,,,,,,,SPECI,514.0
UEEE 052330Z 28004MPS CAVOK 15/04 Q1000 R05/09//60 NOSIG RMK QFE741,UEEE,2023-06-05T23:30:00Z,62.08,129.77,15.0,4.0,280,8,,6.21,29.52756,,,,,,TRUE,,,,,CAVOK,,,,,,,,VFR,,,,,,,,,,,,METAR,106.0
UDYZ 052330Z 08005KT 020V150 9999 NSC 18/07 Q1012 NOSIG,UDYZ,2023-06-05T23:30:00Z,40.15,44.4,18.0,7.0,80,5,,6.21,29.88189,,,,,,TRUE,,,,,CLR,,,,,,,,VFR,,,,,,,,,,,,METAR,851.0
UDSG 052330Z VRB02KT 9999 NSC 10/09 Q1019 NOSIG,UDSG,2023-06-05T23:30:00Z,40.75,43.87,10.0,9.0,0,2,,6.21,30.088583,,,,,,TRUE,,,,,CLR,,,,,,,,VFR,,,,,,,,,,,,METAR,1515.0
UCFO 052330Z 07002MPS 9999 FEW050CB 17/06 Q1013 NOSIG,UCFO,2023-06-05T23:30:00Z,40.6,72.8,17.0,6.0,70,4,,6.21,29.911417,,,,,,TRUE,,,,,FEW,5000,,,,,,,VFR,,,,,,,,,,,,METAR,881.0
UCFM 052330Z 12005MPS CAVOK 20/06 Q1010 NOSIG,UCFM,2023-06-05T23:30:00Z,43.07,74.48,20.0,6.0,120,10,,6.21,29.822834,,,,,,TRUE,,,,,CAVOK,,,,,,,,VFR,,,,,,,,,,,,METAR,632.0
UBBN 052330Z 08010KT 9999 SCT046 BKN100 21/09 Q1010 NOSIG RMK MT OP QFE683,UBBN,2023-06-05T23:30:00Z,39.18,45.45,21.0,9.0,80,10,,6.21,29.822834,,,,,,TRUE,,,,,SCT,4600,BKN,10000,,,,,VFR,,,,,,,,,,,,METAR,857.0
UAUU 052330Z 02004MPS 340V040 CAVOK 22/14 Q1011 NOSIG RMK QFE742/0990,UAUU,2023-06-05T23:30:00Z,53.2,63.55,22.0,14.0,20,8,,6.21,29.852362,,,,,,TRUE,,,,,CAVOK,,,,,,,,VFR,,,,,,,,,,,,SPECI,177.0
UATT 052330Z 06003MPS CAVOK 19/10 Q1010 NOSIG RMK QFE738/0984,UATT,2023-06-05T23:30:00Z,50.25,57.2,19.0,10.0,60,6,,6.21,29.822834,,,,,,TRUE,,,,,CAVOK,,,,,,,,VFR,,,,,,,,,,,,METAR,217.0
UATG 052330Z 35004MPS CAVOK 20/14 Q1007 NOSIG RMK QFE757/1010,UATG,2023-06-05T23:30:00Z,47.12,51.83,20.0,14.0,350,8,,6.21,29.734253,,,,,,TRUE,,,,,CAVOK,,,,,,,,VFR,,,,,,,,,,,,SPECI,-23.0
UATE 052330Z 29005MPS 270V330 9999 FEW005 22/20 Q1011 NOSIG RMK QBB150 QFE756/1008,UATE,2023-06-05T23:30:00Z,43.87,51.1,22.0,20.0,290,10,,6.21,29.852362,,,,,,TRUE,,,,,FEW,500,,,,,,,VFR,,,,,,,,,,,,METAR,21.0
UASS 052330Z 11002MPS CAVOK 15/07 Q1010 NOSIG RMK QFE739/0986,UASS,2023-06-05T23:30:00Z,50.35,80.23,15.0,7.0,110,4,,6.21,29.822834,,,,,,TRUE,,,,,CAVOK,,,,,,,,VFR,,,,,,,,,,,,SPECI,215.0
UASP 052330Z 07003MPS CAVOK 20/08 Q1009 NOSIG RMK QFE746/0995,UASP,2023-06-05T23:30:00Z,52.2,77.07,20.0,8.0,70,6,,6.21,29.793306,,,,,,TRUE,,,,,CAVOK,,,,,,,,VFR,,,,,,,,,,,,SPECI,122.0
UASK 052330Z VRB01MPS 9999 NSC 14/11 Q1011 NOSIG RMK QFE733/0977,UASK,2023-06-05T23:30:00Z,50.03,82.5,14.0,11.0,0,2,,6.21,29.852362,,,,,,TRUE,,,,,CLR,,,,,,,,VFR,,,,,,,,,,,,METAR,285.0
UARR 052330Z 34007MPS 8000 -SHRA BKN043CB 14/11 Q1010 NOSIG RMK QFE754/1006,UARR,2023-06-05T23:30:00Z,51.15,51.53,14.0,11.0,340,14,,4.97,29.822834,,,,,,TRUE,,,,-SHRA,BKN,4300,,,,,,,MVFR,,,,,,,,,,,,SPECI,33.0
UAOO 052330Z 30003MPS CAVOK 17/08 Q1006 NOSIG RMK QFE742/0990,UAOO,2023-06-05T23:30:00Z,44.7,65.6,17.0,8.0,300,6,,6.21,29.704725,,,,,,TRUE,,,,,CAVOK,,,,,,,,VFR,,,,,,,,,,,,SPECI,130.0
UAKK 052330Z 04002MPS CAVOK 09/03 Q1010 NOSIG RMK QFE711/0948,UAKK,2023-06-05T23:30:00Z,49.68,73.35,9.0,3.0,40,4,,6.21,29.822834,,,,,,TRUE,,,,,CAVOK,,,,,,,,VFR,,,,,,,,,,,,SPECI,532.0
UAKD 052330Z 33004MPS CAVOK 18/04 Q1008 NOSIG RMK QFE722/0963,UAKD,2023-06-05T23:30:00Z,47.7,67.73,18.0,4.0,330,8,,6.21,29.763779,,,,,,TRUE,,,,,CAVOK,,,,,,,,VFR,,,,,,,,,,,,SPECI,379.0
UAIT 052330Z 09004MPS CAVOK 18/01 Q1007 NOSIG RMK QFE731/0975,UAIT,2023-06-05T23:30:00Z,43.32,68.55,18.0,1.0,90,8,,6.21,29.734253,,,,,,TRUE,,,,,CAVOK,,,,,,,,VFR,,,,,,,,,,,,METAR,301.0
UAII 052330Z 12004MPS CAVOK 21/02 Q1008 NOSIG RMK QFE721/0962,UAII,2023-06-05T23:30:00Z,42.37,69.48,21.0,2.0,120,8,,6.21,29.763779,,,,,,TRUE,,,,,CAVOK,,,,,,,,VFR,,,,,,,,,,,,SPECI,410.0
UADD 052330Z 16003MPS 9999 NSC 19/04 Q1010 NOSIG RMK QFE701/0935,UADD,2023-06-05T23:30:00Z,42.85,71.3,19.0,4.0,160,6,,6.21,29.822834,,,,,,TRUE,,,,,CLR,,,,,,,,VFR,,,,,,,,,,,,SPECI,663.0
UACC 052330Z 09003MPS CAVOK 15/07 Q1009 NOSIG RMK QFE725/0967,UACC,2023-06-05T23:30:00Z,51.02,71.47,15.0,7.0,90,6,,6.21,29.793306,,,,,,TRUE,,,,,CAVOK,,,,,,,,VFR,,,,,,,,,,,,METAR,354.0
UAAA 052330Z 16002MPS 130V270 9999 SCT100 20/07 Q1011 NOSIG,UAAA,2023-06-05T23:30:00Z,43.35,77.03,20.0,7.0,160,4,,6.21,29.852362,,,,,,TRUE,,,,,SCT,10000,,,,,,,VFR,,,,,,,,,,,,METAR,673.0
ROAH 052330Z 19012KT 9999 FEW014 27/23 Q1010,ROAH,2023-06-05T23:30:00Z,26.18,127.65,27.0,23.0,190,12,,6.21,29.822834,,,,,,,,,,,FEW,1400,,,,,,,VFR,,,,,,,,,,,,METAR,6.0
RKSI 052330Z 26006KT 140V290 9999 FEW010 SCT020 19/16 Q1009 NOSIG,RKSI,2023-06-05T23:30:00Z,37.47,126.45,19.0,16.0,260,6,,6.21,29.793306,,,,,,TRUE,,,,,FEW,1000,SCT,2000,,,,,VFR,,,,,,,,,,,,METAR,7.0
RJTT 052330Z 11004KT CAVOK 22/19 Q1009 BECMG TL0120 18012KT,RJTT,2023-06-05T23:30:00Z,35.55,139.77,22.0,19.0,110,4,,6.21,29.793306,,,,,,,,,,,CAVOK,,,,,,,,VFR,,,,,,,,,,,,METAR,5.0
RJTI 052330Z 13003KT 100V170 8000 FEW015 SCT170 BKN/// 23/19 Q1009,RJTI,2023-06-05T23:30:00Z,35.63,139.83,23.0,19.0,130,3,,4.97,29.793306,,,,,,,,,,,FEW,1500,SCT,17000,,,,,MVFR,,,,,,,,,,,,SPECI,4.0
RJTF 052330Z 36003KT 310V050 9999 FEW030 BKN180 BKN/// 22/13 Q1010,RJTF,2023-06-05T23:30:00Z,35.67,139.52,22.0,13.0,360,3,,6.21,29.822834,,,,,,,,,,,FEW,3000,BKN,18000,,,,,VFR,,,,,,,,,,,,SPECI,37.0
RJGG 052330Z VRB02KT 9999 FEW030 BKN130 20/15 Q1009 NOSIG,RJGG,2023-06-05T23:30:00Z,34.87,136.8,20.0,15.0,0,2,,6.21,29.793306,,,,,,TRUE,,,,,FEW,3000,BKN,13000,,,,,VFR,,,,,,,,,,,,METAR,5.0
RJFG 052330Z 11006KT 9999 FEW015 BKN060 BKN090 21/19 Q1010,RJFG,2023-06-05T23:30:00Z,30.62,130.98,21.0,19.0,110,6,,6.21,29.822834,,,,,,,,,,,FEW,1500,BKN,6000,BKN,9000,,,VFR,,,,,,,,,,,,METAR,234.0
RJFF 052330Z 14005KT 110V230 6000 -SHRA FEW005 SCT007 BKN040 17/17 Q1008 TEMPO 4000 SHRA BR,RJFF,2023-06-05T23:30:00Z,33.58,130.45,17.0,17.0,140,5,,3.73,29.763779,,,,,,,,,,-SHRA,FEW,500,SCT,700,BKN,4000,,,MVFR,,,,,,,,,,,,METAR,7.0
RJCW 052330Z 21014KT 9999 FEW020 SCT025 BKN100 19/13 Q1004,RJCW,2023-06-05T23:30:00Z,45.4,141.8,19.0,13.0,210,14,,6.21,29.64567,,,,,,,,,,,FEW,2000,SCT,2500,BKN,10000,,,VFR,,,,,,,,,,,,METAR,11.0
RJCN 052330Z 14004KT 090V230 9999 FEW030 19/11 Q1006,RJCN,2023-06-05T23:30:00Z,43.57,144.97,19.0,11.0,140,4,,6.21,29.704725,,,,,,,,,,,FEW,3000,,,,,,,VFR,,,,,,,,,,,,METAR,62.0
RJCC 052330Z 15013KT 9999 FEW015 BKN130 19/13 Q1006,RJCC,2023-06-05T23:30:00Z,42.77,141.68,19.0,13.0,150,13,,6.21,29.704725,,,,,,,,,,,FEW,1500,BKN,13000,,,,,VFR,,,,,,,,,,,,METAR,19.0
RJBT 052330Z 21003KT 160V260 CAVOK 18/15 Q1008,RJBT,2023-06-05T23:30:00Z,35.5,134.8,18.0,15.0,210,3,,6.21,29.763779,,,,,,,,,,,CAVOK,,,,,,,,VFR,,,,,,,,,,,,METAR,172.0
RJBB 052330Z 20007KT 150V240 9999 FEW020 SCT030 BKN120 22/17 Q1009 NOSIG,RJBB,2023-06-05T23:30:00Z,34.43,135.25,22.0,17.0,200,7,,6.21,29.793306,,,,,,TRUE,,,,,FEW,2000,SCT,3000,BKN,12000,,,VFR,,,,,,,,,,,,METAR,8.0
RJAF 052330Z VRB02KT CAVOK 16/12 Q1012,RJAF,2023-06-05T23:30:00Z,36.17,137.92,16.0,12.0,0,2,,6.21,29.88189,,,,,,,,,,,CAVOK,,,,,,,,VFR,,,,,,,,,,,,METAR,652.0
RJAA 052330Z 19004KT 160V260 9999 FEW015 BKN/// 22/18 Q1009 NOSIG,RJAA,2023-06-05T23:30:00Z,35.77,140.38,22.0,18.0,190,4,,6.21,29.793306,,,,,,TRUE,,,,,FEW,1500,,,,,,,VFR,,,,,,,,,,,,METAR,36.0
RCTP 052330Z 25007KT 220V280 9999 FEW020 31/26 Q1009 NOSIG RMK A2980,RCTP,2023-06-05T23:30:00Z,25.07,121.22,31.0,26.0,250,7,,6.21,29.793306,,,,,,TRUE,,,,,FEW,2000,,,,,,,VFR,,,,,,,,,,,,METAR,33.0
RCSS 052330Z 22003KT 170V300 9999 FEW025 31/24 Q1008 NOSIG RMK A2979,RCSS,2023-06-05T23:30:00Z,25.07,121.55,31.0,24.0,220,3,,6.21,29.763779,,,,,,TRUE,,,,,FEW,2500,,,,,,,VFR,,,,,,,,,,,,SPECI,8.0
RCNN 052330Z 16002KT 9999 FEW014 SCT100 29/23 Q1009 NOSIG RMK A2980,RCNN,2023-06-05T23:30:00Z,22.93,120.2,29.0,23.0,160,2,,6.21,29.793306,,,,,,TRUE,,,,,FEW,1400,SCT,10000,,,,,VFR,,,,,,,,,,,,SPECI,15.0
RCMQ 052330Z 16008KT 9999 FEW010 28/23 Q1010 NOSIG RMK A2983,RCMQ,2023-06-05T23:30:00Z,24.27,120.62,28.0,23.0,160,8,,6.21,29.822834,,,,,,TRUE,,,,,FEW,1000,,,,,,,VFR,,,,,,,,,,,,SPECI,202.0
RCKH 052330Z 11008KT 010V160 9999 FEW018 SCT070 30/23 Q1008 NOSIG RMK A2978,RCKH,2023-06-05T23:30:00Z,22.57,120.33,30.0,23.0,110,8,,6.21,29.763779,,,,,,TRUE,,,,,FEW,1800,SCT,7000,,,,,VFR,,,,,,,,,,,,METAR,6.0
RCFN 052330Z 21004KT 160V250 9999 FEW010 28/26 Q1010 NOSIG RMK A2985,RCFN,2023-06-05T23:30:00Z,22.77,121.1,28.0,26.0,210,4,,6.21,29.822834,,,,,,TRUE,,,,,FEW,1000,,,,,,,VFR,,,,,,,,,,,,SPECI,42.0
OTBD 052330Z 16002KT CAVOK 29/25 Q1003 NOSIG,OTBD,2023-06-05T23:30:00Z,25.25,51.57,29.0,25.0,160,2,,6.21,29.616142,,,,,,TRUE,,,,,CAVOK,,,,,,,,VFR,,,,,,,,,,,,METAR,13.0
OITT 052330Z 06006KT 9999 FEW030 SCT180 20/01 Q1015 A2999,OITT,2023-06-05T23:30:00Z,38.13,46.23,20.0,1.0,60,6,,6.21,29.970472,,,,,,,,,,,FEW,3000,SCT,18000,,,,,VFR,,,,,,,,,,,,METAR,1353.0
OISS 052330Z 00000KT CAVOK 20/02 Q1016 A3003,OISS,2023-06-05T23:30:00Z,29.53,52.58,20.0,2.0,0,0,,6.21,30.0,,,,,,,,,,,CAVOK,,,,,,,,VFR,,,,,,,,,,,,METAR,1484.0
OIMM 052330Z 21004KT CAVOK 24/09 Q1015 A2999,OIMM,2023-06-05T23:30:00Z,36.23,59.63,24.0,9.0,210,4,,6.21,29.970472,,,,,,,,,,,CAVOK,,,,,,,,VFR,,,,,,,,,,,,METAR,995.0
NZWN 052330Z AUTO 17023KT 9999 -RA FEW008/// SCT017/// BKN024/// 11/10 Q1030,NZWN,2023-06-05T23:30:00Z,-41.32,174.8,11.0,10.0,170,23,,6.21,30.413385,,,TRUE,,,,,,,-RA,FEW,800,SCT,1700,BKN,2400,,,MVFR,,,,,,,,,,,,METAR,12.0
NZCH 052330Z AUTO 22009KT 9999 OVC012/// 09/07 Q1034,NZCH,2023-06-05T23:30:00Z,-43.48,172.52,9.0,7.0,220,9,,6.21,30.531496,,,TRUE,,,,,,,,OVC,1200,,,,,,,MVFR,,,,,,,,,,,,METAR,36.0
NZAA 052330Z AUTO 15011KT 9999 OVC080/// 14/09 Q1019,NZAA,2023-06-05T23:30:00Z,-37.02,174.8,14.0,9.0,150,11,,6.21,30.088583,,,TRUE,,,,,,,,OVC,8000,,,,,,,VFR,,,,,,,,,,,,METAR,7.0
NCRG 052330Z AUTO 14005KT 9999 FEW042/// 24/13 Q1017,NCRG,2023-06-05T23:30:00Z,-21.2,-159.82,24.0,13.0,140,5,,6.21,30.029528,,,TRUE,,,,,,,,FEW,4200,,,,,,,VFR,,,,,,,,,,,,METAR,7.0
LRTR 052330Z 06003KT CAVOK 16/16 Q1017,LRTR,2023-06-05T23:30:00Z,45.82,21.33,16.0,16.0,60,3,,6.21,30.029528,,,,,,,,,,,CAVOK,,,,,,,,VFR,,,,,,,,,,,,METAR,104.0
LRTM 052330Z AUTO 08007KT 9999 SCT090/// OVC100/// 16/15 Q1019,LRTM,2023-06-05T23:30:00Z,46.47,24.42,16.0,15.0,80,7,,6.21,30.088583,,,TRUE,,,,,,,,SCT,9000,OVC,10000,,,,,VFR,,,,,,,,,,,,METAR,289.0
LRTC 052330Z AUTO 04001KT 7000 NCD 10/05 Q1022,LRTC,2023-06-05T23:30:00Z,45.07,28.72,10.0,5.0,40,1,,4.35,30.177166,,,TRUE,,,,,,,,CLR,,,,,,,,MVFR,,,,,,,,,,,,METAR,52.0
LRSV 052330Z 15009KT CAVOK 15/08 Q1021,LRSV,2023-06-05T23:30:00Z,47.68,26.35,15.0,8.0,150,9,,6.21,30.147638,,,,,,,,,,,CAVOK,,,,,,,,VFR,,,,,,,,,,,,METAR,406.0
LRSM 052330Z AUTO 15004KT 9999 BKN150/// 20/13 Q1018,LRSM,2023-06-05T23:30:00Z,47.7,22.88,20.0,13.0,150,4,,6.21,30.059055,,,TRUE,,,,,,,,BKN,15000,,,,,,,VFR,,,,,,,,,,,,METAR,123.0
LRSB 052330Z 21005KT CAVOK 18/09 Q1020,LRSB,2023-06-05T23:30:00Z,45.78,24.08,18.0,9.0,210,5,,6.21,30.11811,,,,,,,,,,,CAVOK,,,,,,,,VFR,,,,,,,,,,,,METAR,442.0
LROP 052330Z 06006KT CAVOK 14/08 Q1021 NOSIG,LROP,2023-06-05T23:30:00Z,44.57,26.1,14.0,8.0,60,6,,6.21,30.147638,,,,,,TRUE,,,,,CAVOK,,,,,,,,VFR,,,,,,,,,,,,METAR,92.0
LROD 052330Z AUTO 13004KT 9999 FEW120/// BKN160/// 18/15 Q1018,LROD,2023-06-05T23:30:00Z,47.03,21.88,18.0,15.0,130,4,,6.21,30.059055,,,TRUE,,,,,,,,FEW,12000,BKN,16000,,,,,VFR,,,,,,,,,,,,METAR,132.0
LRIA 052330Z VRB02KT CAVOK 17/03 Q1022,LRIA,2023-06-05T23:30:00Z,47.17,27.62,17.0,3.0,0,2,,6.21,30.177166,,,,,,,,,,,CAVOK,,,,,,,,VFR,,,,,,,,,,,,METAR,71.0
LRCV 052330Z 06009KT CAVOK 14/11 Q1019,LRCV,2023-06-05T23:30:00Z,44.32,23.88,14.0,11.0,60,9,,6.21,30.088583,,,,,,,,,,,CAVOK,,,,,,,,VFR,,,,,,,,,,,,METAR,192.0
LRCL 052330Z 07005KT CAVOK 17/14 Q1019,LRCL,2023-06-05T23:30:00Z,46.78,23.68,17.0,14.0,70,5,,6.21,30.088583,,,,,,,,,,,CAVOK,,,,,,,,VFR,,,,,,,,,,,,METAR,313.0
LRCK 052330Z 03005KT CAVOK 12/08 Q1022 NOSIG,LRCK,2023-06-05T23:30:00Z,44.37,28.48,12.0,8.0,30,5,,6.21,30.177166,,,,,,TRUE,,,,,CAVOK,,,,,,,,VFR,,,,,,,,,,,,METAR,108.0
LRBS 052330Z 05004KT CAVOK 13/07 Q1022 NOSIG,LRBS,2023-06-05T23:30:00Z,44.5,26.08,13.0,7.0,50,4,,6.21,30.177166,,,,,,TRUE,,,,,CAVOK,,,,,,,,VFR,,,,,,,,,,,,METAR,91.0
LRBM 052330Z AUTO 04005KT 9999 RA FEW033/// BKN047/// BKN075/// 17/15 Q1019,LRBM,2023-06-05T23:30:00Z,47.67,23.47,17.0,15.0,40,5,,6.21,30.088583,,,TRUE,,,,,,,RA,FEW,3300,BKN,4700,BKN,7500,,,VFR,,,,,,,,,,,,METAR,180.0
LRBC 052330Z 16009KT CAVOK 16/06 Q1021,LRBC,2023-06-05T23:30:00Z,46.52,26.92,16.0,6.0,160,9,,6.21,30.147638,,,,,,,,,,,CAVOK,,,,,,,,VFR,,,,,,,,,,,,METAR,183.0
LRAR 052330Z 07003KT CAVOK 18/17 Q1017,LRAR,2023-06-05T23:30:00Z,46.18,21.27,18.0,17.0,70,3,,6.21,30.029528,,,,,,,,,,,CAVOK,,,,,,,,VFR,,,,,,,,,,,,METAR,102.0
LPPT 052330Z 00000KT CAVOK 21/14 Q1012,LPPT,2023-06-05T23:30:00Z,38.77,-9.13,21.0,14.0,0,0,,6.21,29.88189,,,,,,,,,,,CAVOK,,,,,,,,VFR,,,,,,,,,,,,METAR,98.0
LPPS 052330Z 18015KT 9999 BKN010 21/20 Q1008,LPPS,2023-06-05T23:30:00Z,33.07,-16.35,21.0,20.0,180,15,,6.21,29.763779,,,,,,,,,,,BKN,1000,,,,,,,MVFR,,,,,,,,,,,,METAR,89.0
LPPR 052330Z 35001KT 7000 FEW004 15/14 Q1013,LPPR,2023-06-05T23:30:00Z,41.23,-8.68,15.0,14.0,350,1,,4.35,29.911417,,,,,,,,,,,FEW,400,,,,,,,MVFR,,,,,,,,,,,,METAR,64.0
LPPD 052330Z 04015KT 9999 -RA FEW009 FEW018TCU 17/15 Q1005,LPPD,2023-06-05T23:30:00Z,37.73,-25.68,17.0,15.0,40,15,,6.21,29.675198,,,,,,,,,,-RA,FEW,900,FEW,1800,,,,,VFR,,,,,,,,,,,,METAR,62.0
LPMA 052330Z 22023KT 4000 RA SCT008 BKN012 21/20 Q1008 RERA,LPMA,2023-06-05T23:30:00Z,32.7,-16.77,21.0,20.0,220,23,,2.49,29.763779,,,,,,,,,,RA,SCT,800,BKN,1200,,,,,IFR,,,,,,,,,,,,METAR,54.0
LPFR 052330Z 13004KT CAVOK 20/19 Q1013,LPFR,2023-06-05T23:30:00Z,37.02,-7.97,20.0,19.0,130,4,,6.21,29.911417,,,,,,,,,,,CAVOK,,,,,,,,VFR,,,,,,,,,,,,METAR,3.0
LPAZ 052330Z 03017KT 5000 +RA BR SCT002 BKN010 FEW024TCU 17/16 Q1002,LPAZ,2023-06-05T23:30:00Z,36.97,-25.17,17.0,16.0,30,17,,3.11,29.586615,,,,,,,,,,+RA BR,SCT,200,BKN,1000,FEW,2400,,,MVFR,,,,,,,,,,,,METAR,96.0
LKPD 052330Z 05004KT 9999 -RA NSC 15/14 Q1019 RMK BLU,LKPD,2023-06-05T23:30:00Z,50.02,15.73,15.0,14.0,50,4,,6.21,30.088583,,,,,,,,,,-RA,CLR,,,,,,,,VFR,,,,,,,,,,,,SPECI,226.0
LKNA 052330Z 02005KT 9999 -RA NSC 13/12 Q1018 RMK BLU,LKNA,2023-06-05T23:30:00Z,49.17,16.12,13.0,12.0,20,5,,6.21,30.059055,,,,,,,,,,-RA,CLR,,,,,,,,VFR,,,,,,,,,,,,SPECI,460.0
LKCV 052330Z 07004KT 5000 -RA BKN045 OVC080 15/14 Q1018 NOSIG RMK WHT WHT,LKCV,2023-06-05T23:30:00Z,49.93,15.38,15.0,14.0,70,4,,3.11,30.059055,,,,,,TRUE,,,,-RA,BKN,4500,OVC,8000,,,,,MVFR,,,,,,,,,,,,SPECI,234.0
LJPZ 052330Z AUTO 00000KT 9999 FEW044/// BKN060/// BKN095/// 18/17 Q1015,LJPZ,2023-06-05T23:30:00Z,45.47,13.62,18.0,17.0,0,0,,6.21,29.970472,,,TRUE,,,,,,,,FEW,4400,BKN,6000,BKN,9500,,,VFR,,,,,,,,,,,,METAR,2.0
LJMB 052330Z AUTO 34001KT 3200 BR FEW003/// OVC030/// 15/14 Q1017,LJMB,2023-06-05T23:30:00Z,46.47,15.67,15.0,14.0,340,1,,1.99,30.029528,,,TRUE,,,,,,,BR,FEW,300,OVC,3000,,,,,IFR,,,,,,,,,,,,METAR,263.0
LJLJ 052330Z VRB04KT 7000 -RA SCT005 OVC013 15/14 Q1017 NOSIG,LJLJ,2023-06-05T23:30:00Z,46.22,14.47,15.0,14.0,0,4,,4.35,30.029528,,,,,,TRUE,,,,-RA,SCT,500,OVC,1300,,,,,MVFR,,,,,,,,,,,,METAR,363.0
LJCE 052330Z AUTO VRB01KT 9999 OVC039/// 16/15 Q1016,LJCE,2023-06-05T23:30:00Z,45.9,15.52,16.0,15.0,0,1,,6.21,30.0,,,TRUE,,,,,,,,OVC,3900,,,,,,,VFR,,,,,,,,,,,,METAR,153.0
LFSG 052330Z AUTO 36003KT CAVOK 14/07 Q1016,LFSG,2023-06-05T23:30:00Z,48.33,6.07,14.0,7.0,360,3,,6.21,30.0,,,TRUE,,,,,,,,CAVOK,,,,,,,,VFR,,,,,,,,,,,,METAR,320.0
LFRV 052330Z AUTO 03011KT CAVOK 14/12 Q1017,LFRV,2023-06-05T23:30:00Z,47.72,-2.72,14.0,12.0,30,11,,6.21,30.029528,,,TRUE,,,,,,,,CAVOK,,,,,,,,VFR,,,,,,,,,,,,METAR,132.0
LFRS 052330Z AUTO 05008KT 010V090 CAVOK 20/12 Q1016 NOSIG,LFRS,2023-06-05T23:30:00Z,47.17,-1.6,20.0,12.0,50,8,,6.21,30.0,,,TRUE,,,TRUE,,,,,CAVOK,,,,,,,,VFR,,,,,,,,,,,,METAR,26.0
LFRQ 052330Z AUTO 04010KT CAVOK 13/10 Q1018,LFRQ,2023-06-05T23:30:00Z,47.97,-4.17,13.0,10.0,40,10,,6.21,30.059055,,,TRUE,,,,,,,,CAVOK,,,,,,,,VFR,,,,,,,,,,,,METAR,94.0
LFRN 052330Z AUTO 36004KT 330V030 CAVOK 15/12 Q1018 NOSIG,LFRN,2023-06-05T23:30:00Z,48.07,-1.73,15.0,12.0,360,4,,6.21,30.059055,,,TRUE,,,TRUE,,,,,CAVOK,,,,,,,,VFR,,,,,,,,,,,,METAR,35.0
LFRM 052330Z AUTO 02005KT CAVOK 18/10 Q1018,LFRM,2023-06-05T23:30:00Z,47.95,0.2,18.0,10.0,20,5,,6.21,30.059055,,,TRUE,,,,,,,,CAVOK,,,,,,,,VFR,,,,,,,,,,,,METAR,51.0
LFRK 052330Z AUTO 01004KT CAVOK 12/10 Q1021,LFRK,2023-06-05T23:30:00Z,49.17,-0.45,12.0,10.0,10,4,,6.21,30.147638,,,TRUE,,,,,,,,CAVOK,,,,,,,,VFR,,,,,,,,,,,,METAR,66.0
LFRJ 052330Z AUTO 06008KT CAVOK 12/10 Q1019,LFRJ,2023-06-05T23:30:00Z,48.52,-4.15,12.0,10.0,60,8,,6.21,30.088583,,,TRUE,,,,,,,,CAVOK,,,,,,,,VFR,,,,,,,,,,,,METAR,109.0
LFRI 052330Z AUTO 06007KT CAVOK 19/09 Q1016,LFRI,2023-06-05T23:30:00Z,46.7,-1.37,19.0,9.0,60,7,,6.21,30.0,,,TRUE,,,,,,,,CAVOK,,,,,,,,VFR,,,,,,,,,,,,METAR,89.0
LFRH 052330Z AUTO 02008KT CAVOK 14/11 Q1018 NOSIG,LFRH,2023-06-05T23:30:00Z,47.77,-3.45,14.0,11.0,20,8,,6.21,30.059055,,,TRUE,,,TRUE,,,,,CAVOK,,,,,,,,VFR,,,,,,,,,,,,METAR,46.0
LFRD 052330Z AUTO 05007KT CAVOK 13/11 Q1019 NOSIG,LFRD,2023-06-05T23:30:00Z,48.58,-2.07,13.0,11.0,50,7,,6.21,30.088583,,,TRUE,,,TRUE,,,,,CAVOK,,,,,,,,VFR,,,,,,,,,,,,METAR,56.0
LFRC 052330Z AUTO 07010KT 040V100 9999 BKN009 11/10 Q1021,LFRC,2023-06-05T23:30:00Z,49.63,-1.47,11.0,10.0,70,10,,6.21,30.147638,,,TRUE,,,,,,,,BKN,900,,,,,,,IFR,,,,,,,,,,,,METAR,137.0
LFPT 052330Z AUTO 02007KT CAVOK 13/09 Q1019,LFPT,2023-06-05T23:30:00Z,49.1,2.03,13.0,9.0,20,7,,6.21,30.088583,,,TRUE,,,,,,,,CAVOK,,,,,,,,VFR,,,,,,,,,,,,METAR,91.0
LFPM 052330Z AUTO 35008KT CAVOK 16/11 Q1018,LFPM,2023-06-05T23:30:00Z,48.62,2.67,16.0,11.0,350,8,,6.21,30.059055,,,TRUE,,,,,,,,CAVOK,,,,,,,,VFR,,,,,,,,,,,,METAR,91.0
LFOZ 052330Z AUTO 02007KT CAVOK 17/09 Q1017,LFOZ,2023-06-05T23:30:00Z,47.9,2.17,17.0,9.0,20,7,,6.21,30.029528,,,TRUE,,,,,,,,CAVOK,,,,,,,,VFR,,,,,,,,,,,,METAR,121.0
LFOJ 052330Z AUTO 02009KT CAVOK 15/11 Q1017 NOSIG,LFOJ,2023-06-05T23:30:00Z,47.98,1.75,15.0,11.0,20,9,,6.21,30.029528,,,TRUE,,,TRUE,,,,,CAVOK,,,,,,,,VFR,,,,,,,,,,,,METAR,122.0
LFOA 052330Z AUTO 03003KT CAVOK 17/08 Q1016,LFOA,2023-06-05T23:30:00Z,47.05,2.63,17.0,8.0,30,3,,6.21,30.0,,,TRUE,,,,,,,,CAVOK,,,,,,,,VFR,,,,,,,,,,,,METAR,174.0
LFMY 052330Z AUTO VRB01KT CAVOK 14/13 Q1016,LFMY,2023-06-05T23:30:00Z,43.6,5.1,14.0,13.0,0,1,,6.21,30.0,,,TRUE,,,,,,,,CAVOK,,,,,,,,VFR,,,,,,,,,,,,METAR,57.0
LFMV 052330Z AUTO 15003KT 110V170 CAVOK 16/14 Q1015,LFMV,2023-06-05T23:30:00Z,43.9,4.9,16.0,14.0,150,3,,6.21,29.970472,,,TRUE,,,,,,,,CAVOK,,,,,,,,VFR,,,,,,,,,,,,METAR,33.0
LFMC 052330Z AUTO 23003KT 7000 ////// 17/16 Q1015,LFMC,2023-06-05T23:30:00Z,43.37,6.38,17.0,16.0,230,3,,4.35,29.970472,,,TRUE,,,,,,,,,,,,,,,,,,,,,,,,,,,,METAR,79.0
LFLW 052330Z AUTO 08008KT CAVOK 14/11 Q1017,LFLW,2023-06-05T23:30:00Z,44.88,2.42,14.0,11.0,80,8,,6.21,30.029528,,,TRUE,,,,,,,,CAVOK,,,,,,,,VFR,,,,,,,,,,,,METAR,638.0
LFKS 052330Z AUTO 27005KT 230V300 CAVOK 17/13 Q1015,LFKS,2023-06-05T23:30:00Z,41.92,9.4,17.0,13.0,270,5,,6.21,29.970472,,,TRUE,,,,,,,,CAVOK,,,,,,,,VFR,,,,,,,,,,,,METAR,22.0
LFGJ 052330Z AUTO 06006KT CAVOK 14/10 Q1015,LFGJ,2023-06-05T23:30:00Z,47.05,5.43,14.0,10.0,60,6,,6.21,29.970472,,,TRUE,,,,,,,,CAVOK,,,,,,,,VFR,,,,,,,,,,,,METAR,191.0
LFBU 052330Z AUTO 01007KT CAVOK ///// Q1015 NOSIG,LFBU,2023-06-05T23:30:00Z,45.72,0.22,,,10,7,,6.21,29.970472,,,TRUE,,,TRUE,,,,,CAVOK,,,,,,,,VFR,,,,,,,,,,,,METAR,124.0
LFBT 052330Z AUTO 16003KT 110V200 9999 BKN100 OVC120 17/15 Q1016 NOSIG,LFBT,2023-06-05T23:30:00Z,43.18,0.0,17.0,15.0,160,3,,6.21,30.0,,,TRUE,,,TRUE,,,,,BKN,10000,OVC,12000,,,,,VFR,,,,,,,,,,,,METAR,359.0
LFBL 052330Z AUTO 05008KT CAVOK 19/09 Q1016 NOSIG,LFBL,2023-06-05T23:30:00Z,45.87,1.17,19.0,9.0,50,8,,6.21,30.0,,,TRUE,,,TRUE,,,,,CAVOK,,,,,,,,VFR,,,,,,,,,,,,METAR,402.0
LFAQ 052330Z AUTO 01011KT CAVOK 10/10 Q1020,LFAQ,2023-06-05T23:30:00Z,49.97,2.7,10.0,10.0,10,11,,6.21,30.11811,,,TRUE,,,,,,,,CAVOK,,,,,,,,VFR,,,,,,,,,,,,METAR,107.0
LEZL 052330Z 20005KT CAVOK 25/18 Q1012 NOSIG,LEZL,2023-06-05T23:30:00Z,37.42,-5.9,25.0,18.0,200,5,,6.21,29.88189,,,,,,TRUE,,,,,CAVOK,,,,,,,,VFR,,,,,,,,,,,,METAR,26.0
LEZG 052330Z 06005KT 9999 FEW060TCU 19/17 Q1016,LEZG,2023-06-05T23:30:00Z,41.67,-1.02,19.0,17.0,60,5,,6.21,30.0,,,,,,,,,,,FEW,6000,,,,,,,VFR,,,,,,,,,,,,METAR,245.0
LEXJ 052330Z AUTO 00000KT 6000 NSC 18/18 Q1015,LEXJ,2023-06-05T23:30:00Z,43.42,-3.82,18.0,18.0,0,0,,3.73,29.970472,,,TRUE,,,,,,,,CLR,,,,,,,,MVFR,,,,,,,,,,,,METAR,1.0
LEVX 052330Z VRB01KT CAVOK 17/15 Q1013 NOSIG,LEVX,2023-06-05T23:30:00Z,42.23,-8.62,17.0,15.0,0,1,,6.21,29.911417,,,,,,TRUE,,,,,CAVOK,,,,,,,,VFR,,,,,,,,,,,,METAR,253.0
LEVT 052330Z 00000KT 9000 FEW070 15/15 Q1016,LEVT,2023-06-05T23:30:00Z,42.87,-2.72,15.0,15.0,0,0,,5.59,30.0,,,,,,,,,,,FEW,7000,,,,,,,VFR,,,,,,,,,,,,METAR,501.0
LEVS 052330Z AUTO 01004KT 330V060 CAVOK 17/13 Q1017,LEVS,2023-06-05T23:30:00Z,40.37,-3.78,17.0,13.0,10,4,,6.21,30.029528,,,TRUE,,,,,,,,CAVOK,,,,,,,,VFR,,,,,,,,,,,,METAR,683.0
LEVD 052330Z AUTO 09004KT 060V130 CAVOK 15/12 Q1017,LEVD,2023-06-05T23:30:00Z,41.72,-4.85,15.0,12.0,90,4,,6.21,30.029528,,,TRUE,,,,,,,,CAVOK,,,,,,,,VFR,,,,,,,,,,,,METAR,844.0
LEVC 052330Z 34003KT CAVOK 20/17 Q1015 NOSIG,LEVC,2023-06-05T23:30:00Z,39.5,-0.47,20.0,17.0,340,3,,6.21,29.970472,,,,,,TRUE,,,,,CAVOK,,,,,,,,VFR,,,,,,,,,,,,METAR,58.0
LETU 052330Z AUTO VRB02KT 9999 FEW065/// 20/15 Q1016,LETU,2023-06-05T23:30:00Z,,,20.0,15.0,0,2,,6.21,30.0,,,TRUE,,,,,,,,FEW,6500,,,,,,,VFR,,,,,,,,,,,,METAR,
LETO 052330Z 01004KT CAVOK 16/14 Q1016 NOSIG,LETO,2023-06-05T23:30:00Z,40.48,-3.47,16.0,14.0,10,4,,6.21,30.0,,,,,,TRUE,,,,,CAVOK,,,,,,,,VFR,,,,,,,,,,,,METAR,598.0
LETL 052330Z AUTO 21005KT CAVOK 14/13 Q1018,LETL,2023-06-05T23:30:00Z,40.42,-1.22,14.0,13.0,210,5,,6.21,30.059055,,,TRUE,,,,,,,,CAVOK,,,,,,,,VFR,,,,,,,,,,,,METAR,1024.0
LEST 052330Z 00000KT 9999 FEW018 17/15 Q1014 NOSIG,LEST,2023-06-05T23:30:00Z,42.88,-8.42,17.0,15.0,0,0,,6.21,29.940945,,,,,,TRUE,,,,,FEW,1800,,,,,,,VFR,,,,,,,,,,,,METAR,363.0
LESO 052330Z AUTO 22003KT 190V270 CAVOK 20/18 Q1015,LESO,2023-06-05T23:30:00Z,43.35,-1.8,20.0,18.0,220,3,,6.21,29.970472,,,TRUE,,,,,,,,CAVOK,,,,,,,,VFR,,,,,,,,,,,,METAR,3.0
LESB 052330Z AUTO 01003KT CAVOK 19/16 Q1016,LESB,2023-06-05T23:30:00Z,39.6,2.7,19.0,16.0,10,3,,6.21,30.0,,,TRUE,,,,,,,,CAVOK,,,,,,,,VFR,,,,,,,,,,,,METAR,48.0
LESA 052330Z AUTO 09004KT 8000 NSC 15/13 Q1017,LESA,2023-06-05T23:30:00Z,40.95,-5.5,15.0,13.0,90,4,,4.97,30.029528,,,TRUE,,,,,,,,CLR,,,,,,,,MVFR,,,,,,,,,,,,METAR,788.0
LERT 052330Z 04003KT CAVOK 21/16 Q1012 NOSIG,LERT,2023-06-05T23:30:00Z,36.63,-6.33,21.0,16.0,40,3,,6.21,29.88189,,,,,,TRUE,,,,,CAVOK,,,,,,,,VFR,,,,,,,,,,,,METAR,27.0
LERS 052330Z AUTO 25003KT 1700 BR NSC 19/17 Q1015,LERS,2023-06-05T23:30:00Z,41.13,1.17,19.0,17.0,250,3,,1.06,29.970472,,,TRUE,,,,,,,BR,CLR,,,,,,,,IFR,,,,,,,,,,,,METAR,68.0
LEPP 052330Z AUTO 00000KT CAVOK 18/15 Q1016,LEPP,2023-06-05T23:30:00Z,42.77,-1.65,18.0,15.0,0,0,,6.21,30.0,,,TRUE,,,,,,,,CAVOK,,,,,,,,VFR,,,,,,,,,,,,METAR,448.0
LEPA 052330Z 00000KT 9999 FEW016 19/17 Q1016 NOSIG,LEPA,2023-06-05T23:30:00Z,39.55,2.73,19.0,17.0,0,0,,6.21,30.0,,,,,,TRUE,,,,,FEW,1600,,,,,,,VFR,,,,,,,,,,,,METAR,8.0
LEMI 052330Z AUTO 36005KT CAVOK 18/16 Q1016,LEMI,2023-06-05T23:30:00Z,37.8,-1.12,18.0,16.0,360,5,,6.21,30.0,,,TRUE,,,,,,,,CAVOK,,,,,,,,VFR,,,,,,,,,,,,METAR,193.0
LEMH 052330Z AUTO 07002KT CAVOK 19/17 Q1016,LEMH,2023-06-05T23:30:00Z,39.87,4.22,19.0,17.0,70,2,,6.21,30.0,,,TRUE,,,,,,,,CAVOK,,,,,,,,VFR,,,,,,,,,,,,METAR,82.0
LEMG 052330Z 15003KT 110V180 9999 FEW017 20/17 Q1015 NOSIG,LEMG,2023-06-05T23:30:00Z,36.67,-4.47,20.0,17.0,150,3,,6.21,29.970472,,,,,,TRUE,,,,,FEW,1700,,,,,,,VFR,,,,,,,,,,,,METAR,5.0
LEMD 052330Z 36002KT CAVOK 16/14 Q1017 NOSIG,LEMD,2023-06-05T23:30:00Z,40.45,-3.57,16.0,14.0,360,2,,6.21,30.029528,,,,,,TRUE,,,,,CAVOK,,,,,,,,VFR,,,,,,,,,,,,METAR,589.0
LELO 052330Z AUTO 27005KT 230V300 CAVOK 17/14 Q1016,LELO,2023-06-05T23:30:00Z,42.45,-2.32,17.0,14.0,270,5,,6.21,30.0,,,TRUE,,,,,,,,CAVOK,,,,,,,,VFR,,,,,,,,,,,,METAR,352.0
LELN 052330Z AUTO 33004KT CAVOK 13/11 Q1017,LELN,2023-06-05T23:30:00Z,42.58,-5.65,13.0,11.0,330,4,,6.21,30.029528,,,TRUE,,,,,,,,CAVOK,,,,,,,,VFR,,,,,,,,,,,,METAR,911.0
LELL 052330Z AUTO 23002KT CAVOK 19/14 Q1015,LELL,2023-06-05T23:30:00Z,41.52,2.1,19.0,14.0,230,2,,6.21,29.970472,,,TRUE,,,,,,,,CAVOK,,,,,,,,VFR,,,,,,,,,,,,METAR,136.0
LELC 052330Z AUTO 33003KT 9999 FEW016 20/18 Q1016,LELC,2023-06-05T23:30:00Z,37.77,-0.8,20.0,18.0,330,3,,6.21,30.0,,,TRUE,,,,,,,,FEW,1600,,,,,,,VFR,,,,,,,,,,,,METAR,3.0
LEIB 052330Z VRB01KT CAVOK 18/16 Q1016 NOSIG,LEIB,2023-06-05T23:30:00Z,38.87,1.38,18.0,16.0,0,1,,6.21,30.0,,,,,,TRUE,,,,,CAVOK,,,,,,,,VFR,,,,,,,,,,,,METAR,4.0
LEHC 052330Z AUTO VRB01KT CAVOK 16/12 Q1017,LEHC,2023-06-05T23:30:00Z,42.08,-0.32,16.0,12.0,0,1,,6.21,30.029528,,,TRUE,,,,,,,,CAVOK,,,,,,,,VFR,,,,,,,,,,,,METAR,540.0
LEGR 052330Z AUTO 00000KT CAVOK 19/16 Q1016,LEGR,2023-06-05T23:30:00Z,37.18,-3.78,19.0,16.0,0,0,,6.21,30.0,,,TRUE,,,,,,,,CAVOK,,,,,,,,VFR,,,,,,,,,,,,METAR,560.0
LEGE 052330Z 00000KT CAVOK 16/15 Q1015,LEGE,2023-06-05T23:30:00Z,41.9,2.77,16.0,15.0,0,0,,6.21,29.970472,,,,,,,,,,,CAVOK,,,,,,,,VFR,,,,,,,,,,,,METAR,140.0
LEDA 052330Z AUTO 05008KT CAVOK 16/15 Q1016,LEDA,2023-06-05T23:30:00Z,41.73,0.53,16.0,15.0,50,8,,6.21,30.0,,,TRUE,,,,,,,,CAVOK,,,,,,,,VFR,,,,,,,,,,,,METAR,352.0
LECO 052330Z AUTO 00000KT 8000 NCD 16/16 Q1013,LECO,2023-06-05T23:30:00Z,43.3,-8.37,16.0,16.0,0,0,,4.97,29.911417,,,TRUE,,,,,,,,CLR,,,,,,,,MVFR,,,,,,,,,,,,METAR,80.0
LECH 052330Z AUTO 00000KT 8000 NCD 16/15 Q1016,LECH,2023-06-05T23:30:00Z,40.2,0.07,16.0,15.0,0,0,,4.97,30.0,,,TRUE,,,,,,,,CLR,,,,,,,,MVFR,,,,,,,,,,,,METAR,360.0
LEBT 052330Z AUTO 36004KT CAVOK 17/13 Q1016,LEBT,2023-06-05T23:30:00Z,39.58,-0.45,17.0,13.0,360,4,,6.21,30.0,,,TRUE,,,,,,,,CAVOK,,,,,,,,VFR,,,,,,,,,,,,METAR,50.0
LEBR 052330Z AUTO 11011KT CAVOK 19/14 Q1016,LEBR,2023-06-05T23:30:00Z,42.2,-1.43,19.0,14.0,110,11,,6.21,30.0,,,TRUE,,,,,,,,CAVOK,,,,,,,,VFR,,,,,,,,,,,,METAR,347.0
LEBL 052330Z 28001KT 9999 FEW012 20/18 Q1015 NOSIG,LEBL,2023-06-05T23:30:00Z,41.28,2.07,20.0,18.0,280,1,,6.21,29.970472,,,,,,TRUE,,,,,FEW,1200,,,,,,,VFR,,,,,,,,,,,,METAR,2.0
LEBG 052330Z AUTO 20003KT 150V240 CAVOK 13/12 Q1018,LEBG,2023-06-05T23:30:00Z,42.37,-3.62,13.0,12.0,200,3,,6.21,30.059055,,,TRUE,,,,,,,,CAVOK,,,,,,,,VFR,,,,,,,,,,,,METAR,892.0
LEBB 052330Z AUTO 07004KT CAVOK 19/18 Q1015,LEBB,2023-06-05T23:30:00Z,43.28,-2.92,19.0,18.0,70,4,,6.21,29.970472,,,TRUE,,,,,,,,CAVOK,,,,,,,,VFR,,,,,,,,,,,,METAR,38.0
LEBA 052330Z AUTO 13003KT 090V180 CAVOK 23/13 Q1013,LEBA,2023-06-05T23:30:00Z,37.85,-4.83,23.0,13.0,130,3,,6.21,29.911417,,,TRUE,,,,,,,,CAVOK,,,,,,,,VFR,,,,,,,,,,,,METAR,88.0
LEAS 052330Z 11003KT CAVOK 16/15 Q1014 NOSIG,LEAS,2023-06-05T23:30:00Z,43.57,-6.03,16.0,15.0,110,3,,6.21,29.940945,,,,,,TRUE,,,,,CAVOK,,,,,,,,VFR,,,,,,,,,,,,METAR,120.0
LEAM 052330Z AUTO 07007KT CAVOK 20/16 Q1015,LEAM,2023-06-05T23:30:00Z,36.85,-2.37,20.0,16.0,70,7,,6.21,29.970472,,,TRUE,,,,,,,,CAVOK,,,,,,,,VFR,,,,,,,,,,,,METAR,16.0
LEAL 052330Z 00000KT CAVOK 19/16 Q1016 NOSIG,LEAL,2023-06-05T23:30:00Z,38.27,-0.55,19.0,16.0,0,0,,6.21,30.0,,,,,,TRUE,,,,,CAVOK,,,,,,,,VFR,,,,,,,,,,,,METAR,26.0
LEAG 052330Z AUTO 07007KT 9999 FEW016/// 20/18 Q1014,LEAG,2023-06-05T23:30:00Z,36.12,-5.45,20.0,18.0,70,7,,6.21,29.940945,,,TRUE,,,,,,,,FEW,1600,,,,,,,VFR,,,,,,,,,,,,METAR,4.0
LEAB 052330Z 18003KT 150V210 CAVOK 15/14 Q1017 NOSIG,LEAB,2023-06-05T23:30:00Z,38.95,-1.85,15.0,14.0,180,3,,6.21,30.029528,,,,,,TRUE,,,,,CAVOK,,,,,,,,VFR,,,,,,,,,,,,METAR,704.0
LCPH 052330Z 02006KT CAVOK 20/16 Q1011 NOSIG,LCPH,2023-06-05T23:30:00Z,34.72,32.47,20.0,16.0,20,6,,6.21,29.852362,,,,,,TRUE,,,,,CAVOK,,,,,,,,VFR,,,,,,,,,,,,METAR,8.0
LCLK 052330Z 30003KT CAVOK 20/17 Q1011 NOSIG,LCLK,2023-06-05T23:30:00Z,34.87,33.62,20.0,17.0,300,3,,6.21,29.852362,,,,,,TRUE,,,,,CAVOK,,,,,,,,VFR,,,,,,,,,,,,METAR,2.0
KVVS 052330Z AUTO 34003KT 10SM CLR 20/06 A2997 RMK AO2 T02040062,KVVS,2023-06-05T23:30:00Z,39.95,-79.65,20.4,6.2,340,3,,10.0,29.970472,,,TRUE,TRUE,,,,,,,CLR,,,,,,,,VFR,,,,,,,,,,,,SPECI,386.0
KOLY 052330Z AUTO 36003KT 10SM CLR 26/02 A2996 RMK AO2 T02560021 PWINO,KOLY,2023-06-05T23:30:00Z,38.72,-88.18,25.6,2.1,360,3,,10.0,29.958662,,,TRUE,TRUE,,,,,TRUE,,CLR,,,,,,,,VFR,,,,,,,,,,,,SPECI,144.0
KDED 052330Z AUTO 01007KT 10SM CLR 25/19 A2994 RMK AO2 T02460188,KDED,2023-06-05T23:30:00Z,29.07,-81.28,24.6,18.8,10,7,,10.0,29.940945,,,TRUE,TRUE,,,,,,,CLR,,,,,,,,VFR,,,,,,,,,,,,SPECI,21.0
HKMO 052330Z 22005KT 9999 SCT019 23/22 Q1014 NOSIG,HKMO,2023-06-05T23:30:00Z,-4.02,39.62,23.0,22.0,220,5,,6.21,29.940945,,,,,,TRUE,,,,,SCT,1900,,,,,,,VFR,,,,,,,,,,,,METAR,55.0
HKJK 052330Z 22003KT 9999 BKN017 17/15 Q1023 NOSIG,HKJK,2023-06-05T23:30:00Z,-1.32,36.92,17.0,15.0,220,3,,6.21,30.206694,,,,,,TRUE,,,,,BKN,1700,,,,,,,MVFR,,,,,,,,,,,,METAR,1615.0
GQNO 052330Z 32011KT 8000 FEW012 21/19 Q1012 NOSIG,GQNO,2023-06-05T23:30:00Z,18.3,-15.97,21.0,19.0,320,11,,4.97,29.88189,,,,,,TRUE,,,,,FEW,1200,,,,,,,MVFR,,,,,,,,,,,,METAR,1.0
GOBD 052330Z 32007KT CAVOK 24/22 Q1014 NOSIG,GOBD,2023-06-05T23:30:00Z,14.67,-17.07,24.0,22.0,320,7,,6.21,29.940945,,,,,,TRUE,,,,,CAVOK,,,,,,,,VFR,,,,,,,,,,,,METAR,90.0
GMFO 052330Z 22003KT 9999 SCT090 19/12 Q1015 NOSIG,GMFO,2023-06-05T23:30:00Z,34.78,-1.92,19.0,12.0,220,3,,6.21,29.970472,,,,,,TRUE,,,,,SCT,9000,,,,,,,VFR,,,,,,,,,,,,METAR,452.0
GEML 052330Z AUTO 13005KT 100V160 9999 FEW012 21/18 Q1014,GEML,2023-06-05T23:30:00Z,35.27,-2.95,21.0,18.0,130,5,,6.21,29.940945,,,TRUE,,,,,,,,FEW,1200,,,,,,,VFR,,,,,,,,,,,,METAR,48.0
GECE 052330Z AUTO VRB05KT 9999 FEW013/// SCT015/// BKN017/// 21/18 Q1013,GECE,2023-06-05T23:30:00Z,35.88,-5.3,21.0,18.0,0,5,,6.21,29.911417,,,TRUE,,,,,,,,FEW,1300,SCT,1500,BKN,1700,,,MVFR,,,,,,,,,,,,METAR,2.0
GCXO 052330Z AUTO 12004KT 100V160 9999 FEW004 OVC120 18/18 Q1013,GCXO,2023-06-05T23:30:00Z,28.48,-16.35,18.0,18.0,120,4,,6.21,29.911417,,,TRUE,,,,,,,,FEW,400,OVC,12000,,,,,VFR,,,,,,,,,,,,METAR,623.0
GCTS 052330Z 26011KT 9999 FEW020 22/19 Q1012 NOSIG,GCTS,2023-06-05T23:30:00Z,28.05,-16.57,22.0,19.0,260,11,,6.21,29.88189,,,,,,TRUE,,,,,FEW,2000,,,,,,,VFR,,,,,,,,,,,,METAR,59.0
GCRR 052330Z 07004KT 9999 FEW030 22/19 Q1013,GCRR,2023-06-05T23:30:00Z,28.95,-13.58,22.0,19.0,70,4,,6.21,29.911417,,,,,,,,,,,FEW,3000,,,,,,,VFR,,,,,,,,,,,,METAR,9.0
GCLP 052330Z VRB01KT 9999 FEW025 23/18 Q1012 NOSIG,GCLP,2023-06-05T23:30:00Z,27.92,-15.38,23.0,18.0,0,1,,6.21,29.88189,,,,,,TRUE,,,,,FEW,2500,,,,,,,VFR,,,,,,,,,,,,METAR,16.0
GCLA 052330Z AUTO 18012KT CAVOK 23/20 Q1010,GCLA,2023-06-05T23:30:00Z,28.62,-17.75,23.0,20.0,180,12,,6.21,29.822834,,,TRUE,,,,,,,,CAVOK,,,,,,,,VFR,,,,,,,,,,,,METAR,20.0
GCHI 052330Z AUTO 20011KT 170V240 CAVOK 23/19 Q1011,GCHI,2023-06-05T23:30:00Z,27.82,-17.88,23.0,19.0,200,11,,6.21,29.852362,,,TRUE,,,,,,,,CAVOK,,,,,,,,VFR,,,,,,,,,,,,METAR,21.0
GCGM 052330Z AUTO 25005KT 220V280 9999 BKN012 BKN023 21/19 Q1012 RMK R09/24004KT 200V280 ARP/25005KT 210V270,GCGM,2023-06-05T23:30:00Z,28.03,-17.22,21.0,19.0,250,5,,6.21,29.88189,,,TRUE,,,,,,,,BKN,1200,BKN,2300,,,,,MVFR,,,,,,,,,,,,METAR,217.0
GCFV 052330Z AUTO 10004KT CAVOK 22/18 Q1012,GCFV,2023-06-05T23:30:00Z,28.43,-13.87,22.0,18.0,100,4,,6.21,29.88189,,,TRUE,,,,,,,,CAVOK,,,,,,,,VFR,,,,,,,,,,,,METAR,11.0
GABS 052330Z 21004KT CAVOK 27/23 Q1014 NOSIG,GABS,2023-06-05T23:30:00Z,12.53,-7.95,27.0,23.0,210,4,,6.21,29.940945,,,,,,TRUE,,,,,CAVOK,,,,,,,,VFR,,,,,,,,,,,,METAR,375.0
FMEP 052330Z AUTO 05006KT CAVOK 23/18 Q1020,FMEP,2023-06-05T23:30:00Z,-21.32,55.42,23.0,18.0,50,6,,6.21,30.11811,,,TRUE,,,,,,,,CAVOK,,,,,,,,VFR,,,,,,,,,,,,METAR,21.0
FMEE 052330Z AUTO 15015KT CAVOK 25/17 Q1019 NOSIG,FMEE,2023-06-05T23:30:00Z,-20.88,55.52,25.0,17.0,150,15,,6.21,30.088583,,,TRUE,,,TRUE,,,,,CAVOK,,,,,,,,VFR,,,,,,,,,,,,METAR,20.0
EINN 052330Z 14005KT CAVOK 14/08 Q1024 NOSIG,EINN,2023-06-05T23:30:00Z,52.7,-8.92,14.0,8.0,140,5,,6.21,30.236221,,,,,,TRUE,,,,,CAVOK,,,,,,,,VFR,,,,,,,,,,,,METAR,20.0
DTTJ 052330Z 02017KT 6000 SCT020 BKN026 22/19 Q1010 NOSIG,DTTJ,2023-06-05T23:30:00Z,33.87,10.77,22.0,19.0,20,17,,3.73,29.822834,,,,,,TRUE,,,,,SCT,2000,BKN,2600,,,,,MVFR,,,,,,,,,,,,METAR,3.0
DTTA 052330Z AUTO 02006KT 360V060 CAVOK 21/18 Q1015,DTTA,2023-06-05T23:30:00Z,36.85,10.22,21.0,18.0,20,6,,6.21,29.970472,,,TRUE,,,,,,,,CAVOK,,,,,,,,VFR,,,,,,,,,,,,METAR,4.0
DTNH 052330Z 03013KT 9999 SCT026 SCT033 21/18 Q1013,DTNH,2023-06-05T23:30:00Z,36.07,10.43,21.0,18.0,30,13,,6.21,29.911417,,,,,,,,,,,SCT,2600,SCT,3300,,,,,VFR,,,,,,,,,,,,METAR,1.0
DTMB 052330Z 06011KT 8000 SCT046 21/19 Q1013,DTMB,2023-06-05T23:30:00Z,35.77,10.75,21.0,19.0,60,11,,4.97,29.911417,,,,,,,,,,,SCT,4600,,,,,,,MVFR,,,,,,,,,,,,METAR,1.0
DAOO 052330Z 03004KT 350V060 CAVOK 19/16 Q1014,DAOO,2023-06-05T23:30:00Z,35.62,-0.62,19.0,16.0,30,4,,6.21,29.940945,,,,,,,,,,,CAVOK,,,,,,,,VFR,,,,,,,,,,,,METAR,87.0
DAON 052330Z 00000KT 9999 FEW026 19/15 Q1015,DAON,2023-06-05T23:30:00Z,35.02,-1.47,19.0,15.0,0,0,,6.21,29.970472,,,,,,,,,,,FEW,2600,,,,,,,VFR,,,,,,,,,,,,METAR,245.0
DABC 052330Z 11003KT 9999 SCT033 14/13 Q1017,DABC,2023-06-05T23:30:00Z,36.27,6.62,14.0,13.0,110,3,,6.21,30.029528,,,,,,,,,,,SCT,3300,,,,,,,VFR,,,,,,,,,,,,METAR,686.0
DABB 052330Z VRB02KT 9999 FEW020 18/17 Q1015,DABB,2023-06-05T23:30:00Z,36.82,7.82,18.0,17.0,0,2,,6.21,29.970472,,,,,,,,,,,FEW,2000,,,,,,,VFR,,,,,,,,,,,,METAR,3.0
DAAT 052330Z 31004KT CAVOK 24/M03 Q1018,DAAT,2023-06-05T23:30:00Z,22.82,5.47,24.0,-3.0,310,4,,6.21,30.059055,,,,,,,,,,,CAVOK,,,,,,,,VFR,,,,,,,,,,,,METAR,1376.0
DAAG 052330Z 04004KT 9999 FEW023 19/17 Q1016,DAAG,2023-06-05T23:30:00Z,36.68,3.22,19.0,17.0,40,4,,6.21,30.0,,,,,,,,,,,FEW,2300,,,,,,,VFR,,,,,,,,,,,,METAR,18.0
CZUM 052330Z AUTO 01011G18KT 9SM -RA BKN009 BKN042 OVC050 07/06 A3005 RMK SLP193,CZUM,2023-06-05T23:30:00Z,53.55,-64.1,7.0,6.0,10,11,18,9.0,30.050198,1019.3,,TRUE,,,,,,,-RA,BKN,900,BKN,4200,OVC,5000,,,IFR,,,,,,,,,,,,SPECI,431.0
CYNA 052330Z AUTO 10006KT 9SM -RA FEW006 SCT045 BKN071 OVC084 08/07 A2997 RMK SLP150,CYNA,2023-06-05T23:30:00Z,50.18,-61.78,8.0,7.0,100,6,,9.0,29.970472,1015.0,,TRUE,,,,,,,-RA,FEW,600,SCT,4500,BKN,7100,OVC,8400,VFR,,,,,,,,,,,,SPECI,9.0
RJFY 052329Z 06008KT 9000 -SHRA FEW003 SCT010 BKN030 FEW030TCU 17/16 Q1009 RMK 1ST003 3CU010 7CU030 1TCU030 A2980 TCU 10KM E MOV E,RJFY,2023-06-05T23:29:00Z,31.37,130.83,17.0,16.0,60,8,,5.59,29.793306,,,,,,,,,,-SHRA,FEW,300,SCT,1000,BKN,3000,FEW,3000,MVFR,,,,,,,,,,,,SPECI,59.0
RJCO 052329Z 15017KT 9999 FEW030 BKN100 18/13 Q1006 RMK 1CU030 5AC100 A2972,RJCO,2023-06-05T23:29:00Z,43.12,141.37,18.0,13.0,150,17,,6.21,29.704725,,,,,,,,,,,FEW,3000,BKN,10000,,,,,VFR,,,,,,,,,,,,SPECI,7.0
RJDM 052328Z 03004KT 4000 -SHRA BR FEW010 BKN030 BKN040 17/16 Q1009 RMK 1ST010 5CU030 6SC040 A2980,RJDM,2023-06-05T23:28:00Z,33.32,130.42,17.0,16.0,30,4,,2.49,29.793306,,,,,,,,,,-SHRA BR,FEW,1000,BKN,3000,BKN,4000,,,IFR,,,,,,,,,,,,METAR,19.0
CYHZ 052328Z 04013G23KT 3SM -RA BR BKN006 BKN020 OVC043 10/10 A2952 RMK SF5NS2SC1 VIS VRB 21/4-4 SLP001,CYHZ,2023-06-05T23:28:00Z,44.87,-63.5,10.0,10.0,40,13,23,3.0,29.518702,1000.1,,,,,,,,,-RA BR,BKN,600,BKN,2000,OVC,4300,,,IFR,,,,,,,,,,,,SPECI,136.0
CYZW 052324Z VRB02KT 10SM -RA FEW010 BKN020 OVC070 05/04 A2993 RMK ST2SC4AC2 SLP162,CYZW,2023-06-05T23:24:00Z,60.17,-132.75,5.0,4.0,0,2,,10.0,29.929134,1016.2,,,,,,,,,-RA,FEW,1000,BKN,2000,OVC,7000,,,MVFR,,,,,,,,,,,,SPECI,700.0
RKSO 052323Z 32004KT 7SM SCT021 20/20 A2979 RMK AO2A SLP091 $,RKSO,2023-06-05T23:23:00Z,37.08,127.02,20.0,20.0,320,4,,7.0,29.790354,1009.1,,,TRUE,TRUE,,,,,,SCT,2100,,,,,,,VFR,,,,,,,,,,,,METAR,10.0
CYWK 052322Z 04009KT 15SM SCT023 BKN030 09/05 A3004 RMK SC4SC2 SLP188,CYWK,2023-06-05T23:22:00Z,52.92,-66.87,9.0,5.0,40,9,,15.0,30.041338,1018.8,,,,,,,,,,SCT,2300,BKN,3000,,,,,MVFR,,,,,,,,,,,,SPECI,547.0
CYKJ 052322Z AUTO 09010KT 9SM FEW120 24/20 A2990 RMK LTNG DIST E SE S SLP130 DENSITY ALT 3100FT,CYKJ,2023-06-05T23:22:00Z,57.25,-105.62,24.0,20.0,90,10,,9.0,29.899607,1013.0,,TRUE,,,,,,,,FEW,12000,,,,,,,VFR,,,,,,,,,,,,SPECI,519.0
CYGX 052322Z 13005KT 090V160 15SM -RA BKN018 13/12 A3013 RMK SC7 SLP211,CYGX,2023-06-05T23:22:00Z,56.35,-94.7,13.0,12.0,130,5,,15.0,30.129921,1021.1,,,,,,,,,-RA,BKN,1800,,,,,,,MVFR,,,,,,,,,,,,SPECI,145.0
WMKJ 052320Z VRB02KT 9000 FEW020 26/24 Q1009 RETS,WMKJ,2023-06-05T23:20:00Z,1.63,103.67,26.0,24.0,0,2,,5.59,29.793306,,,,,,,,,,,FEW,2000,,,,,,,VFR,,,,,,,,,,,,SPECI,38.0
LXGB 052320Z AUTO 06014KT 9999 OVC012/// 20/18 Q1014,LXGB,2023-06-05T23:20:00Z,36.15,-5.33,20.0,18.0,60,14,,6.21,29.940945,,,TRUE,,,,,,,,OVC,1200,,,,,,,MVFR,,,,,,,,,,,,METAR,5.0
ETWM 052320Z AUTO 03006KT //// // ////// 10/08 Q1022 ///,ETWM,2023-06-05T23:20:00Z,52.72,7.33,10.0,8.0,30,6,,,30.177166,,,TRUE,,,,,,,,,,,,,,,,,,,,,,,,,,,,METAR,18.0
ETSN 052320Z 36002KT 9999 FEW160 12/09 Q1017 BLU+,ETSN,2023-06-05T23:20:00Z,48.72,11.22,12.0,9.0,360,2,,6.21,30.029528,,,,,,,,,,,FEW,16000,,,,,,,VFR,,,,,,,,,,,,METAR,378.0
ETSL 052320Z 36005KT 9999 FEW130 12/10 Q1017 BLU+,ETSL,2023-06-05T23:20:00Z,48.18,10.87,12.0,10.0,360,5,,6.21,30.029528,,,,,,,,,,,FEW,13000,,,,,,,VFR,,,,,,,,,,,,METAR,548.0
ETSI 052320Z AUTO 02001KT 9999 // ////// 12/09 Q1017 ///,ETSI,2023-06-05T23:20:00Z,48.72,11.53,12.0,9.0,20,1,,6.21,30.029528,,,TRUE,,,,,,,,,,,,,,,,,,,,,,,,,,,,METAR,366.0
ETSH 052320Z VRB01KT 9999 BKN080 17/07 Q1018 BLU,ETSH,2023-06-05T23:20:00Z,51.77,13.17,17.0,7.0,0,1,,6.21,30.059055,,,,,,,,,,,BKN,8000,,,,,,,VFR,,,,,,,,,,,,METAR,79.0
ETSB 052320Z AUTO 05005KT //// // ////// 15/03 Q1019 ///,ETSB,2023-06-05T23:20:00Z,50.17,7.07,15.0,3.0,50,5,,,30.088583,,,TRUE,,,,,,,,,,,,,,,,,,,,,,,,,,,,METAR,477.0
ETNW 052320Z 28002KT 9999 15/11 Q1020 BLU+,ETNW,2023-06-05T23:20:00Z,52.45,9.42,15.0,11.0,280,2,,6.21,30.11811,,,,,,,,,,,,,,,,,,,,,,,,,,,,,,,METAR,57.0
ETNT 052320Z AUTO 04003KT //// // ////// 09/08 Q1022 ///,ETNT,2023-06-05T23:20:00Z,53.53,7.67,9.0,8.0,40,3,,,30.177166,,,TRUE,,,,,,,,,,,,,,,,,,,,,,,,,,,,METAR,5.0
ETNS 052320Z AUTO 28003KT 8000 // ////// 10/08 Q1021 ///,ETNS,2023-06-05T23:20:00Z,54.47,9.52,10.0,8.0,280,3,,4.97,30.147638,,,TRUE,,,,,,,,,,,,,,,,,,,,,,,,,,,,METAR,22.0
ETNN 052320Z 28004KT 9999 15/07 Q1019 BLU+,ETNN,2023-06-05T23:20:00Z,50.82,6.67,15.0,7.0,280,4,,6.21,30.088583,,,,,,,,,,,,,,,,,,,,,,,,,,,,,,,METAR,108.0
ETNL 052320Z 12001KT 9999 11/07 Q1021 BLU+,ETNL,2023-06-05T23:20:00Z,53.92,12.27,11.0,7.0,120,1,,6.21,30.147638,,,,,,,,,,,,,,,,,,,,,,,,,,,,,,,METAR,40.0
ETNH 052320Z 27005KT 9999 08/08 Q1021 BLU+,ETNH,2023-06-05T23:20:00Z,54.32,9.55,8.0,8.0,270,5,,6.21,30.147638,,,,,,,,,,,,,,,,,,,,,,,,,,,,,,,METAR,6.0
ETMN 052320Z 01004KT 9999 11/10 Q1021 BLU+FCST CNL,ETMN,2023-06-05T23:20:00Z,53.77,8.67,11.0,10.0,10,4,,6.21,30.147638,,,,,,,,,,,,,,,,,,,,,,,,,,,,,,,METAR,23.0
ETHS 052320Z 05008KT 9999 14/08 Q1020 BLACKBLU+,ETHS,2023-06-05T23:20:00Z,52.92,10.18,14.0,8.0,50,8,,6.21,30.11811,,,,,,,,,,,,,,,,,,,,,,,,,,,,,,,METAR,71.0
ETHN 052320Z 11005KT 9999 FEW280 12/09 Q1018 BLU+,ETHN,2023-06-05T23:20:00Z,49.38,9.97,12.0,9.0,110,5,,6.21,30.059055,,,,,,,,,,,FEW,28000,,,,,,,VFR,,,,,,,,,,,,METAR,466.0
ETHL 052320Z 07007KT 9999 FEW060 14/10 Q1017 BLU+,ETHL,2023-06-05T23:20:00Z,48.22,9.92,14.0,10.0,70,7,,6.21,30.029528,,,,,,,,,,,FEW,6000,,,,,,,VFR,,,,,,,,,,,,METAR,536.0
ETHF 052320Z 30005KT 9999 FEW080 11/07 Q1019 BLU+,ETHF,2023-06-05T23:20:00Z,51.12,9.28,11.0,7.0,300,5,,6.21,30.088583,,,,,,,,,,,FEW,8000,,,,,,,VFR,,,,,,,,,,,,METAR,171.0
ETHC 052320Z 03005KT 9999 17/09 Q1020 BLU+,ETHC,2023-06-05T23:20:00Z,52.6,10.02,17.0,9.0,30,5,,6.21,30.11811,,,,,,,,,,,,,,,,,,,,,,,,,,,,,,,METAR,35.0
ETHB 052320Z 33005KT 9999 FEW080 14/11 Q1020 BLU+,ETHB,2023-06-05T23:20:00Z,52.27,9.07,14.0,11.0,330,5,,6.21,30.11811,,,,,,,,,,,FEW,8000,,,,,,,VFR,,,,,,,,,,,,METAR,69.0
ETHA 052320Z AUTO VRB02KT 7000 // ////// 10/10 Q1017 ///,ETHA,2023-06-05T23:20:00Z,47.83,10.87,10.0,10.0,0,2,,4.35,30.029528,,,TRUE,,,,,,,,,,,,,,,,,,,,,,,,,,,,METAR,738.0
ETGG 052320Z AUTO 31005KT 9999 // ////// 11/10 Q1021 ///,ETGG,2023-06-05T23:20:00Z,54.83,9.5,11.0,10.0,310,5,,6.21,30.147638,,,TRUE,,,,,,,,,,,,,,,,,,,,,,,,,,,,METAR,33.0
ENOA 052320Z 33014KT 9999 FEW035 10/07 Q1025 W///S3,ENOA,2023-06-05T23:20:00Z,60.5,2.83,10.0,7.0,330,14,,6.21,30.265747,,,,,,,,,,,FEW,3500,,,,,,,VFR,,,,,,,,,,,,SPECI,5.0
EGHH 052320Z 04007KT CAVOK 11/08 Q1023,EGHH,2023-06-05T23:20:00Z,50.78,-1.83,11.0,8.0,40,7,,6.21,30.206694,,,,,,,,,,,CAVOK,,,,,,,,VFR,,,,,,,,,,,,METAR,9.0
K40B 052317Z AUTO 00000KT 13/09 A2981 RMK AO1 SLP098 T01270087 56011,K40B,2023-06-05T23:17:00Z,46.62,-69.52,12.7,8.7,0,0,,,29.811024,1009.8,,TRUE,TRUE,,,,,,,,,,,,,,,,-1.1,,,,,,,,,,,SPECI,344.0
CYZX 052316Z 03013G19KT 6SM -RA BR SCT014 OVC022 10/09 A2959 RMK SC4SC4 DENSITY ALT 81FT SLP021,CYZX,2023-06-05T23:16:00Z,44.98,-64.92,10.0,9.0,30,13,19,6.0,29.589567,1002.1,,,,,,,,,-RA BR,SCT,1400,OVC,2200,,,,,MVFR,,,,,,,,,,,,SPECI,28.0
CYLL 052316Z 00000KT 15SM BKN050CB 22/18 A2985 RMK CB5 WIND EST SLP112 DENSITY ALT 3700FT,CYLL,2023-06-05T23:16:00Z,53.32,-110.07,22.0,18.0,0,0,,15.0,29.84941,1011.2,,,,,,,,,,BKN,5000,,,,,,,VFR,,,,,,,,,,,,SPECI,664.0
KLDJ 052315Z AUTO 32006KT 10SM OVC090 24/05 A2979 RMK AO2 T02380048,KLDJ,2023-06-05T23:15:00Z,40.62,-74.25,23.8,4.8,320,6,,10.0,29.790354,,,TRUE,TRUE,,,,,,,OVC,9000,,,,,,,VFR,,,,,,,,,,,,SPECI,6.0
KETH 052315Z AUTO 12006KT 10SM CLR 23/19 A3003 RMK AO2,KETH,2023-06-05T23:15:00Z,45.78,-96.55,23.0,19.0,120,6,,10.0,30.029528,,,TRUE,TRUE,,,,,,,CLR,,,,,,,,VFR,,,,,,,,,,,,METAR,309.0
CYQM 052315Z 02012G19KT 4SM -RA BR BKN003 OVC014 08/08 A2971 RMK ST7SC1 SLP066,CYQM,2023-06-05T23:15:00Z,46.12,-64.67,8.0,8.0,20,12,19,4.0,29.71063,1006.6,,,,,,,,,-RA BR,BKN,300,OVC,1400,,,,,LIFR,,,,,,,,,,,,SPECI,67.0
KFCS 052312Z 15006KT 10SM -TSRA SCT020 BKN030 BKN060 18/09 A3021 RMK AO2A TS OHD MOV N-NW SLP113 T01820087 COR 2308,KFCS,2023-06-05T23:12:00Z,38.67,-104.77,18.2,8.7,150,6,,10.0,30.209646,1011.3,,,TRUE,,,,,,-TSRA,SCT,2000,BKN,3000,BKN,6000,,,MVFR,,,,,,,,,,,,SPECI,1789.0
CYBU 052312Z AUTO 03003KT 350V050 9SM CLR 27/23 A2992 RMK LTNG DIST W NW SLP130 DENSITY ALT 2900FT,CYBU,2023-06-05T23:12:00Z,53.32,-104.0,27.0,23.0,30,3,,9.0,29.920275,1013.0,,TRUE,,,,,,,,CLR,,,,,,,,VFR,,,,,,,,,,,,SPECI,369.0
VCBI 052310Z VRB04KT 9999 SCT017 28/26 Q1008 NOSIG,VCBI,2023-06-05T23:10:00Z,7.17,79.88,28.0,26.0,0,4,,6.21,29.763779,,,,,,TRUE,,,,,SCT,1700,,,,,,,VFR,,,,,,,,,,,,METAR,10.0
CYCD 052310Z 33012KT 290V360 30SM SCT250 23/M02 A3013 RMK CI3 WSHFT 2301 SLP206 DENSITY ALT 900FT,CYCD,2023-06-05T23:10:00Z,49.05,-123.87,23.0,-2.0,330,12,,30.0,30.129921,1020.6,,,,,,,,,,SCT,25000,,,,,,,VFR,,,,,,,,,,,,SPECI,30.0
CYMT 052308Z AUTO 02005KT 5SM HZ BKN076 BKN090 18/05 A2990 RMK SLP129 DENSITY ALT 2000FT,CYMT,2023-06-05T23:08:00Z,49.77,-74.52,18.0,5.0,20,5,,5.0,29.899607,1012.9,,TRUE,,,,,,,HZ,BKN,7600,BKN,9000,,,,,MVFR,,,,,,,,,,,,SPECI,388.0
CYEN 052307Z AUTO VRB02KT 9SM FEW160 27/18 A3000 RMK LTNG DIST ALQDS SLP152 DENSITY ALT 3700FT,CYEN,2023-06-05T23:07:00Z,49.22,-102.97,27.0,18.0,0,2,,9.0,30.0,1015.2,,TRUE,,,,,,,,FEW,16000,,,,,,,VFR,,,,,,,,,,,,SPECI,580.0
SBSM 052305Z 13006KT 9999 BKN009 BKN013 17/16 Q1021,SBSM,2023-06-05T23:05:00Z,-29.72,-53.7,17.0,16.0,130,6,,6.21,30.147638,,,,,,,,,,,BKN,900,BKN,1300,,,,,IFR,,,,,,,,,,,,SPECI,86.0
K24A 052305Z AUTO 31005KT 10SM SCT043 SCT060 BKN070 22/14 A3000 RMK AO2 LTG DSNT NW T02230143,K24A,2023-06-05T23:05:00Z,35.32,-83.2,22.3,14.3,310,5,,10.0,30.0,,,TRUE,TRUE,,,,,,,SCT,4300,SCT,6000,BKN,7000,,,VFR,,,,,,,,,,,,SPECI,864.0
CYRB 052304Z 12008KT 30SM FEW005 BKN100 00/M01 A3017 RMK ST2AC5 SLP225,CYRB,2023-06-05T23:04:00Z,74.72,-94.97,0.0,-1.0,120,8,,30.0,30.171259,1022.5,,,,,,,,,,FEW,500,BKN,10000,,,,,VFR,,,,,,,,,,,,SPECI,59.0
SVVL 052303Z AUTO ///01KT NCD ///// Q////,SVVL,2023-06-05T23:03:00Z,9.33,-70.58,,,,,,,,,,TRUE,,,,,,,,CLR,,,,,,,,,,,,,,,,,,,,SPECI,575.0
SVVA 052303Z AUTO 18003KT NCD 28/25 Q1014,SVVA,2023-06-05T23:03:00Z,10.15,-67.92,28.0,25.0,180,3,,,29.940945,,,TRUE,,,,,,,,CLR,,,,,,,,,,,,,,,,,,,,METAR,428.0
SVSR 052303Z AUTO NIL,SVSR,2023-06-05T23:03:00Z,7.87,-67.43,,,,,,,,,,TRUE,,,,,,,,,,,,,,,,,,,,,,,,,,,,SPECI,49.0
SVSA 052303Z AUTO NIL,SVSA,2023-06-05T23:03:00Z,7.83,-72.45,,,,,,,,,,TRUE,,,,,,,,,,,,,,,,,,,,,,,,,,,,SPECI,383.0
SVPR 052303Z AUTO 13002KT NCD 28/22 Q1013,SVPR,2023-06-05T23:03:00Z,8.3,-62.77,28.0,22.0,130,2,,,29.911417,,,TRUE,,,,,,,,CLR,,,,,,,,,,,,,,,,,,,,METAR,140.0
SVPA 052303Z AUTO NIL,SVPA,2023-06-05T23:03:00Z,5.62,-67.6,,,,,,,,,,TRUE,,,,,,,,,,,,,,,,,,,,,,,,,,,,METAR,77.0
SVMT 052303Z AUTO 15004KT NCD 29/26 Q1012,SVMT,2023-06-05T23:03:00Z,9.75,-63.17,29.0,26.0,150,4,,,29.88189,,,TRUE,,,,,,,,CLR,,,,,,,,,,,,,,,,,,,,METAR,67.0
SVMC 052303Z AUTO 27001KT NCD 28/24 Q1010,SVMC,2023-06-05T23:03:00Z,10.57,-71.72,28.0,24.0,270,1,,,29.822834,,,TRUE,,,,,,,,CLR,,,,,,,,,,,,,,,,,,,,METAR,76.0
SVLO 052303Z AUTO NIL,SVLO,2023-06-05T23:03:00Z,11.8,-66.18,,,,,,,,,,TRUE,,,,,,,,,,,,,,,,,,,,,,,,,,,,SPECI,3.0
SVJM 052303Z AUTO 22003KT NCD 26/23 Q1013,SVJM,2023-06-05T23:03:00Z,9.92,-67.38,26.0,23.0,220,3,,,29.911417,,,TRUE,,,,,,,,CLR,,,,,,,,,,,,,,,,,,,,METAR,448.0
SVGU 052303Z AUTO 16001KT NCD 16/24 Q1012,SVGU,2023-06-05T23:03:00Z,9.03,-69.75,16.0,24.0,160,1,,,29.88189,,,TRUE,,,,,,,,CLR,,,,,,,,,,,,,,,,,,,,METAR,165.0
SVGD 052303Z AUTO 10004KT NCD 24/24 Q1013,SVGD,2023-06-05T23:03:00Z,7.22,-70.75,24.0,24.0,100,4,,,29.911417,,,TRUE,,,,,,,,CLR,,,,,,,,,,,,,,,,,,,,METAR,129.0
SVFM 052303Z AUTO NIL,SVFM,2023-06-05T23:03:00Z,10.48,-66.83,,,,,,,,,,TRUE,,,,,,,,,,,,,,,,,,,,,,,,,,,,METAR,852.0
SVCS 052303Z AUTO 33002KT NCD 25/20 Q1016,SVCS,2023-06-05T23:03:00Z,10.3,-66.82,25.0,20.0,330,2,,,30.0,,,TRUE,,,,,,,,CLR,,,,,,,,,,,,,,,,,,,,METAR,656.0
SVCB 052303Z AUTO 07004KT NCD 28/24 Q1011,SVCB,2023-06-05T23:03:00Z,8.12,-63.53,28.0,24.0,70,4,,,29.852362,,,TRUE,,,,,,,,CLR,,,,,,,,,,,,,,,,,,,,METAR,47.0
SVBS 052303Z AUTO 23001KT NCD 27/20 Q1015,SVBS,2023-06-05T23:03:00Z,10.25,-67.65,27.0,20.0,230,1,,,29.970472,,,TRUE,,,,,,,,CLR,,,,,,,,,,,,,,,,,,,,METAR,435.0
SVBM 052303Z AUTO 11012KT NCD 27/20 Q1014,SVBM,2023-06-05T23:03:00Z,10.05,-69.37,27.0,20.0,110,12,,,29.940945,,,TRUE,,,,,,,,CLR,,,,,,,,,,,,,,,,,,,,METAR,624.0
SVBI 052303Z AUTO /////KT NCD 25/25 Q1015,SVBI,2023-06-05T23:03:00Z,8.62,-70.22,25.0,25.0,,,,,29.970472,,,TRUE,,,,,,,,CLR,,,,,,,,,,,,,,,,,,,,METAR,185.0
ZYHB 052300Z 30005MPS 260V340 9999 -SHRA FEW020 SCT040 17/12 Q0999 NOSIG,ZYHB,2023-06-05T23:00:00Z,45.62,126.25,17.0,12.0,300,10,,6.21,29.498032,,,,,,TRUE,,,,-SHRA,FEW,2000,SCT,4000,,,,,VFR,,,,,,,,,,,,METAR,134.0
ZYCC 052300Z 29002MPS 260V330 9999 BKN030 19/09 Q1001 NOSIG,ZYCC,2023-06-05T23:00:00Z,43.98,125.68,19.0,9.0,290,4,,6.21,29.557087,,,,,,TRUE,,,,,BKN,3000,,,,,,,MVFR,,,,,,,,,,,,METAR,211.0
ZWSH 052300Z 30005MPS 9999 FEW040 20/03 Q1017 NOSIG,ZWSH,2023-06-05T23:00:00Z,39.55,76.02,20.0,3.0,300,10,,6.21,30.029528,,,,,,TRUE,,,,,FEW,4000,,,,,,,VFR,,,,,,,,,,,,METAR,1374.0
ZUUU 052300Z 36002MPS 9999 -SHRA NSC 21/17 Q1013 NOSIG,ZUUU,2023-06-05T23:00:00Z,30.58,103.95,21.0,17.0,360,4,,6.21,29.911417,,,,,,TRUE,,,,-SHRA,CLR,,,,,,,,VFR,,,,,,,,,,,,METAR,494.0
ZUTF 052300Z 06002MPS CAVOK 20/16 Q1013 NOSIG,ZUTF,2023-06-05T23:00:00Z,30.3,104.43,20.0,16.0,60,4,,6.21,29.911417,,,,,,TRUE,,,,,CAVOK,,,,,,,,VFR,,,,,,,,,,,,METAR,443.0
ZUGY 052300Z VRB01MPS 9999 OVC040 17/15 Q1017 NOSIG,ZUGY,2023-06-05T23:00:00Z,26.53,106.8,17.0,15.0,0,2,,6.21,30.029528,,,,,,TRUE,,,,,OVC,4000,,,,,,,VFR,,,,,,,,,,,,METAR,1130.0
ZUCK 052300Z 02004MPS CAVOK 19/17 Q1013 NOSIG,ZUCK,2023-06-05T23:00:00Z,29.72,106.63,19.0,17.0,20,8,,6.21,29.911417,,,,,,TRUE,,,,,CAVOK,,,,,,,,VFR,,,,,,,,,,,,METAR,416.0
ZSQD 052300Z 16003MPS CAVOK 20/17 Q1007 NOSIG,ZSQD,2023-06-05T23:00:00Z,36.27,120.38,20.0,17.0,160,6,,6.21,29.734253,,,,,,TRUE,,,,,CAVOK,,,,,,,,VFR,,,,,,,,,,,,METAR,8.0
ZSOF 052300Z 23001MPS 5000 BR FEW004 18/17 Q1010 NOSIG,ZSOF,2023-06-05T23:00:00Z,31.98,116.97,18.0,17.0,230,2,,3.11,29.822834,,,,,,TRUE,,,,BR,FEW,400,,,,,,,MVFR,,,,,,,,,,,,METAR,23.0
ZSNJ 052300Z 27001MPS 6000 SCT020 18/18 Q1010 NOSIG,ZSNJ,2023-06-05T23:00:00Z,31.75,118.87,18.0,18.0,270,2,,3.73,29.822834,,,,,,TRUE,,,,,SCT,2000,,,,,,,MVFR,,,,,,,,,,,,METAR,27.0
ZSNB 052300Z 34003MPS 310V030 6000 BKN016 22/19 Q1009 NOSIG,ZSNB,2023-06-05T23:00:00Z,29.83,121.47,22.0,19.0,340,6,,3.73,29.793306,,,,,,TRUE,,,,,BKN,1600,,,,,,,MVFR,,,,,,,,,,,,METAR,5.0
ZSFZ 052300Z 21004MPS CAVOK 28/24 Q1008 NOSIG,ZSFZ,2023-06-05T23:00:00Z,25.93,119.67,28.0,24.0,210,8,,6.21,29.763779,,,,,,TRUE,,,,,CAVOK,,,,,,,,VFR,,,,,,,,,,,,METAR,14.0
ZSAM 052300Z 26002MPS 230V290 9999 SCT016 28/25 Q1009 NOSIG,ZSAM,2023-06-05T23:00:00Z,24.53,118.13,28.0,25.0,260,4,,6.21,29.793306,,,,,,TRUE,,,,,SCT,1600,,,,,,,VFR,,,,,,,,,,,,METAR,13.0
ZPPP 052300Z 02005MPS 6000 -SHRA FEW004 SCT016 OVC033 14/14 Q1021 RESHRA NOSIG,ZPPP,2023-06-05T23:00:00Z,25.0,102.65,14.0,14.0,20,10,,3.73,30.147638,,,,,,TRUE,,,,-SHRA,FEW,400,SCT,1600,OVC,3300,,,MVFR,,,,,,,,,,,,METAR,1885.0
ZLXY 052300Z 22002MPS CAVOK 17/16 Q1013 NOSIG,ZLXY,2023-06-05T23:00:00Z,34.43,108.75,17.0,16.0,220,4,,6.21,29.911417,,,,,,TRUE,,,,,CAVOK,,,,,,,,VFR,,,,,,,,,,,,METAR,478.0
ZLLL 052300Z VRB01MPS CAVOK 14/08 Q1020 NOSIG,ZLLL,2023-06-05T23:00:00Z,36.52,103.62,14.0,8.0,0,2,,6.21,30.11811,,,,,,TRUE,,,,,CAVOK,,,,,,,,VFR,,,,,,,,,,,,METAR,1939.0
ZJSY 052300Z VRB01MPS 9999 FEW025TCU 27/25 Q1004 NOSIG,ZJSY,2023-06-05T23:00:00Z,18.3,109.42,27.0,25.0,0,2,,6.21,29.64567,,,,,,TRUE,,,,,FEW,2500,,,,,,,VFR,,,,,,,,,,,,METAR,27.0
ZJHK 052300Z 04003MPS 9999 FEW020 FEW023TCU 27/26 Q1004 NOSIG,ZJHK,2023-06-05T23:00:00Z,19.93,110.43,27.0,26.0,40,6,,6.21,29.64567,,,,,,TRUE,,,,,FEW,2000,FEW,2300,,,,,VFR,,,,,,,,,,,,METAR,21.0
ZHHH 052300Z 26002MPS 230V310 5000 BR SCT008 20/19 Q1011 NOSIG,ZHHH,2023-06-05T23:00:00Z,30.78,114.22,20.0,19.0,260,4,,3.11,29.852362,,,,,,TRUE,,,,BR,SCT,800,,,,,,,MVFR,,,,,,,,,,,,METAR,33.0
ZHCC 052300Z VRB01MPS 8000 NSC 20/18 Q1008 NOSIG,ZHCC,2023-06-05T23:00:00Z,34.52,113.83,20.0,18.0,0,2,,4.97,29.763779,,,,,,TRUE,,,,,CLR,,,,,,,,MVFR,,,,,,,,,,,,METAR,149.0
ZGSZ 052300Z 05002MPS 9999 SCT020 29/25 Q1007 NOSIG,ZGSZ,2023-06-05T23:00:00Z,22.63,113.8,29.0,25.0,50,4,,6.21,29.734253,,,,,,TRUE,,,,,SCT,2000,,,,,,,VFR,,,,,,,,,,,,METAR,18.0
ZGOW 052300Z 08002MPS CAVOK 28/26 Q1009 NOSIG,ZGOW,2023-06-05T23:00:00Z,23.55,116.5,28.0,26.0,80,4,,6.21,29.793306,,,,,,TRUE,,,,,CAVOK,,,,,,,,VFR,,,,,,,,,,,,METAR,4.0
ZGNN 052300Z VRB01MPS CAVOK 28/25 Q1007 NOSIG,ZGNN,2023-06-05T23:00:00Z,22.62,108.17,28.0,25.0,0,2,,6.21,29.734253,,,,,,TRUE,,,,,CAVOK,,,,,,,,VFR,,,,,,,,,,,,METAR,128.0
ZGKL 052300Z 04003MPS 010V070 5000 -SHRA BR FEW011 FEW026CB BKN040 24/24 Q1009 NOSIG,ZGKL,2023-06-05T23:00:00Z,25.22,110.03,24.0,24.0,40,6,,3.11,29.793306,,,,,,TRUE,,,,-SHRA BR,FEW,1100,FEW,2600,BKN,4000,,,MVFR,,,,,,,,,,,,METAR,151.0
ZGHA 052300Z 36003MPS 6000 SCT020 OVC050 21/19 Q1012 NOSIG,ZGHA,2023-06-05T23:00:00Z,28.18,113.22,21.0,19.0,360,6,,3.73,29.88189,,,,,,TRUE,,,,,SCT,2000,OVC,5000,,,,,MVFR,,,,,,,,,,,,METAR,61.0
ZBSJ 052300Z 28002MPS 200V320 CAVOK 25/10 Q1007 NOSIG,ZBSJ,2023-06-05T23:00:00Z,38.28,114.7,25.0,10.0,280,4,,6.21,29.734253,,,,,,TRUE,,,,,CAVOK,,,,,,,,VFR,,,,,,,,,,,,METAR,70.0
ZBHH 052300Z 08002MPS CAVOK 15/04 Q1015 NOSIG,ZBHH,2023-06-05T23:00:00Z,40.85,111.82,15.0,4.0,80,4,,6.21,29.970472,,,,,,TRUE,,,,,CAVOK,,,,,,,,VFR,,,,,,,,,,,,METAR,1081.0
YPGV 052300Z AUTO 13014KT 9999 // SCT022 SCT069 27/23 Q1013,YPGV,2023-06-05T23:00:00Z,-12.27,136.82,27.0,23.0,130,14,,6.21,29.911417,,,TRUE,,,,,,,,SCT,2200,SCT,6900,,,,,VFR,,,,,,,,,,,,METAR,53.0
WMSA 052300Z 34004KT 280V010 9999 FEW017CB 27/24 Q1010,WMSA,2023-06-05T23:00:00Z,3.13,101.55,27.0,24.0,340,4,,6.21,29.822834,,,,,,,,,,,FEW,1700,,,,,,,VFR,,,,,,,,,,,,METAR,19.0
WMKN 052300Z VRB02KT 9999 FEW022 25/24 Q1008,WMKN,2023-06-05T23:00:00Z,5.37,103.1,25.0,24.0,0,2,,6.21,29.763779,,,,,,,,,,,FEW,2200,,,,,,,VFR,,,,,,,,,,,,METAR,12.0
WMKM 052300Z VRB03KT 9999 FEW028 24/24 Q1010,WMKM,2023-06-05T23:00:00Z,2.27,102.25,24.0,24.0,0,3,,6.21,29.822834,,,,,,,,,,,FEW,2800,,,,,,,VFR,,,,,,,,,,,,METAR,9.0
WMKL 052300Z 05003KT 360V100 9999 FEW017CB 26/24 Q1008,WMKL,2023-06-05T23:00:00Z,6.32,99.72,26.0,24.0,50,3,,6.21,29.763779,,,,,,,,,,,FEW,1700,,,,,,,VFR,,,,,,,,,,,,METAR,4.0
WMKI 052300Z VRB03KT 5000 TSRA FEW017CB SCT024 24/23 Q1011,WMKI,2023-06-05T23:00:00Z,4.57,101.08,24.0,23.0,0,3,,3.11,29.852362,,,,,,,,,,TSRA,FEW,1700,SCT,2400,,,,,MVFR,,,,,,,,,,,,METAR,37.0
WMKE 052300Z 00000KT 9999 FEW008 SCT020 24/23 Q1008,WMKE,2023-06-05T23:00:00Z,4.53,103.43,24.0,23.0,0,0,,6.21,29.763779,,,,,,,,,,,FEW,800,SCT,2000,,,,,VFR,,,,,,,,,,,,METAR,5.0
WMKD 052300Z VRB02KT 8000 FEW025 25/23 Q1009 NOSIG,WMKD,2023-06-05T23:00:00Z,3.77,103.22,25.0,23.0,0,2,,4.97,29.793306,,,,,,TRUE,,,,,FEW,2500,,,,,,,MVFR,,,,,,,,,,,,METAR,18.0
WMKC 052300Z 20003KT 150V250 9999 FEW020 25/23 Q1008,WMKC,2023-06-05T23:00:00Z,6.17,102.28,25.0,23.0,200,3,,6.21,29.763779,,,,,,,,,,,FEW,2000,,,,,,,VFR,,,,,,,,,,,,METAR,7.0
WMKB 052300Z 11006KT 080V140 7000 -TSRA FEW010 FEW017CB SCT024 25/25 Q1009 NOSIG,WMKB,2023-06-05T23:00:00Z,5.47,100.38,25.0,25.0,110,6,,4.35,29.793306,,,,,,TRUE,,,,-TSRA,FEW,1000,FEW,1700,SCT,2400,,,MVFR,,,,,,,,,,,,METAR,4.0
WMKA 052300Z 12003KT 070V160 8000 -TSRA FEW008 FEW017CB SCT026 25/23 Q1009,WMKA,2023-06-05T23:00:00Z,6.2,100.4,25.0,23.0,120,3,,4.97,29.793306,,,,,,,,,,-TSRA,FEW,800,FEW,1700,SCT,2600,,,MVFR,,,,,,,,,,,,METAR,5.0
WMBA 052300Z VRB02KT 4000 TSRA FEW017CB SCT030 24/23 Q1010,WMBA,2023-06-05T23:00:00Z,4.22,100.7,24.0,23.0,0,2,,2.49,29.822834,,,,,,,,,,TSRA,FEW,1700,SCT,3000,,,,,IFR,,,,,,,,,,,,METAR,9.0
WMAU 052300Z VRB06KT 7000 FEW003 25/24 Q1009,WMAU,2023-06-05T23:00:00Z,2.38,103.88,25.0,24.0,0,6,,4.35,29.793306,,,,,,,,,,,FEW,300,,,,,,,MVFR,,,,,,,,,,,,METAR,5.0
WILL 052300Z 00000KT 8000 NSC 24/22 Q1010 NOSIG,WILL,2023-06-05T23:00:00Z,-5.25,105.18,24.0,22.0,0,0,,4.97,29.822834,,,,,,TRUE,,,,,CLR,,,,,,,,MVFR,,,,,,,,,,,,METAR,83.0
WBKW 052300Z VRB01KT 9999 FEW016 25/24 Q1009,WBKW,2023-06-05T23:00:00Z,4.32,118.12,25.0,24.0,0,1,,6.21,29.793306,,,,,,,,,,,FEW,1600,,,,,,,VFR,,,,,,,,,,,,METAR,17.0
WBKT 052300Z 00000KT 9999 FEW014 26/24 Q1009,WBKT,2023-06-05T23:00:00Z,6.92,116.83,26.0,24.0,0,0,,6.21,29.793306,,,,,,,,,,,FEW,1400,,,,,,,VFR,,,,,,,,,,,,METAR,11.0
WBKS 052300Z 28003KT 9999 FEW016 27/26 Q1009,WBKS,2023-06-05T23:00:00Z,5.9,118.07,27.0,26.0,280,3,,6.21,29.793306,,,,,,,,,,,FEW,1600,,,,,,,VFR,,,,,,,,,,,,METAR,13.0
WBKL 052300Z 00000KT 9999 FEW013 25/23 Q1009,WBKL,2023-06-05T23:00:00Z,5.3,115.25,25.0,23.0,0,0,,6.21,29.793306,,,,,,,,,,,FEW,1300,,,,,,,VFR,,,,,,,,,,,,METAR,29.0
WBGY 052300Z AUTO VRB02KT //// // ////// 25/25 Q1009,WBGY,2023-06-05T23:00:00Z,1.22,111.45,25.0,25.0,0,2,,,29.793306,,,TRUE,,,,,,,,,,,,,,,,,,,,,,,,,,,,METAR,13.0
WBGS 052300Z 11003KT 080V150 9999 FEW005 SCT016 24/23 Q1010,WBGS,2023-06-05T23:00:00Z,2.27,111.98,24.0,23.0,110,3,,6.21,29.822834,,,,,,,,,,,FEW,500,SCT,1600,,,,,VFR,,,,,,,,,,,,METAR,26.0
WBGR 052300Z 15004KT 120V220 9999 FEW014 25/23 Q1009,WBGR,2023-06-05T23:00:00Z,4.32,113.98,25.0,23.0,150,4,,6.21,29.793306,,,,,,,,,,,FEW,1400,,,,,,,VFR,,,,,,,,,,,,METAR,18.0
WBGB 052300Z 12003KT 9999 FEW015CB 24/24 Q1010,WBGB,2023-06-05T23:00:00Z,3.12,113.02,24.0,24.0,120,3,,6.21,29.822834,,,,,,,,,,,FEW,1500,,,,,,,VFR,,,,,,,,,,,,METAR,34.0
WAYY 052300Z 04002KT 9000 BKN015 27/26 Q1012 RERA NOSIG,WAYY,2023-06-05T23:00:00Z,-4.53,136.88,27.0,26.0,40,2,,5.59,29.88189,,,,,,TRUE,,,,,BKN,1500,,,,,,,MVFR,,,,,,,,,,,,METAR,32.0
VTUW 052300Z 29003KT 230V330 9999 -RA BKN025 24/24 Q1006 NOSIG,VTUW,2023-06-05T23:00:00Z,17.38,104.63,24.0,24.0,290,3,,6.21,29.704725,,,,,,TRUE,,,,-RA,BKN,2500,,,,,,,MVFR,,,,,,,,,,,,METAR,167.0
VTUV 052300Z 28005KT 250V310 4000 RA BKN020 OVC060 25/25 Q1006 BECMG TL2330 8000 NSW,VTUV,2023-06-05T23:00:00Z,16.12,103.78,25.0,25.0,280,5,,2.49,29.704725,,,,,,,,,,RA,BKN,2000,OVC,6000,,,,,IFR,,,,,,,,,,,,METAR,136.0
VTUU 052300Z 00000KT 9000 FEW030 25/25 Q1006 NOSIG,VTUU,2023-06-05T23:00:00Z,15.25,104.87,25.0,25.0,0,0,,5.59,29.704725,,,,,,TRUE,,,,,FEW,3000,,,,,,,VFR,,,,,,,,,,,,METAR,119.0
VTUQ 052300Z 14004KT 110V170 7000 NSC 25/25 Q1006 NOSIG,VTUQ,2023-06-05T23:00:00Z,14.95,102.32,25.0,25.0,140,4,,4.35,29.704725,,,,,,TRUE,,,,,CLR,,,,,,,,MVFR,,,,,,,,,,,,METAR,225.0
VTUO 052300Z VRB02KT 8000 FEW020 BKN060 25/25 Q1006 NOSIG,VTUO,2023-06-05T23:00:00Z,15.23,103.25,25.0,25.0,0,2,,4.97,29.704725,,,,,,TRUE,,,,,FEW,2000,BKN,6000,,,,,MVFR,,,,,,,,,,,,METAR,182.0
VTUL 052300Z 06003KT 360V100 7000 BKN007 BKN100 24/23 Q1006 NOSIG,VTUL,2023-06-05T23:00:00Z,17.43,101.72,24.0,23.0,60,3,,4.35,29.704725,,,,,,TRUE,,,,,BKN,700,BKN,10000,,,,,IFR,,,,,,,,,,,,METAR,257.0
VTUK 052300Z VRB02KT 9999 SCT030 BKN080 26/25 Q1007 NOSIG,VTUK,2023-06-05T23:00:00Z,16.47,102.78,26.0,25.0,0,2,,6.21,29.734253,,,,,,TRUE,,,,,SCT,3000,BKN,8000,,,,,VFR,,,,,,,,,,,,METAR,190.0
VTUI 052300Z VRB01KT 9999 -RA BKN030 25/24 Q1005 NOSIG,VTUI,2023-06-05T23:00:00Z,17.2,104.12,25.0,24.0,0,1,,6.21,29.675198,,,,,,TRUE,,,,-RA,BKN,3000,,,,,,,MVFR,,,,,,,,,,,,METAR,162.0
VTUD 052300Z 24004KT 9999 SCT010 BKN040 24/23 Q1006 NOSIG,VTUD,2023-06-05T23:00:00Z,17.37,102.78,24.0,23.0,240,4,,6.21,29.704725,,,,,,TRUE,,,,,SCT,1000,BKN,4000,,,,,VFR,,,,,,,,,,,,METAR,177.0
VTST 052300Z VRB01KT 9999 SCT025 26/26 Q1007 NOSIG,VTST,2023-06-05T23:00:00Z,7.52,99.62,26.0,26.0,0,1,,6.21,29.734253,,,,,,TRUE,,,,,SCT,2500,,,,,,,VFR,,,,,,,,,,,,METAR,17.0
VTSR 052300Z 22002KT 8000 -RA SCT020 27/25 Q1007 NOSIG,VTSR,2023-06-05T23:00:00Z,9.78,98.58,27.0,25.0,220,2,,4.97,29.734253,,,,,,TRUE,,,,-RA,SCT,2000,,,,,,,MVFR,,,,,,,,,,,,METAR,23.0
VTSM 052300Z 24005KT 200V270 9999 FEW020 BKN100 29/24 Q1007 NOSIG,VTSM,2023-06-05T23:00:00Z,9.55,100.07,29.0,24.0,240,5,,6.21,29.734253,,,,,,TRUE,,,,,FEW,2000,BKN,10000,,,,,VFR,,,,,,,,,,,,METAR,12.0
VTSG 052300Z VRB01KT 8000 FEW029 25/25 Q1007 NOSIG,VTSG,2023-06-05T23:00:00Z,8.1,98.98,25.0,25.0,0,1,,4.97,29.734253,,,,,,TRUE,,,,,FEW,2900,,,,,,,MVFR,,,,,,,,,,,,METAR,32.0
VTSF 052300Z 01003KT 350V100 9999 FEW018 27/26 Q1007 NOSIG,VTSF,2023-06-05T23:00:00Z,8.53,99.95,27.0,26.0,10,3,,6.21,29.734253,,,,,,TRUE,,,,,FEW,1800,,,,,,,VFR,,,,,,,,,,,,METAR,6.0
VTSE 052300Z VRB02KT 7000 SCT020 BKN080 26/25 Q1006 NOSIG,VTSE,2023-06-05T23:00:00Z,10.72,99.37,26.0,25.0,0,2,,4.35,29.704725,,,,,,TRUE,,,,,SCT,2000,BKN,8000,,,,,MVFR,,,,,,,,,,,,METAR,8.0
VTSC 052300Z 20004KT 9999 FEW020 25/24 Q1008 NOSIG,VTSC,2023-06-05T23:00:00Z,6.52,101.75,25.0,24.0,200,4,,6.21,29.763779,,,,,,TRUE,,,,,FEW,2000,,,,,,,VFR,,,,,,,,,,,,METAR,5.0
VTSB 052300Z 20005KT 6000 FEW020 26/25 Q1007 NOSIG,VTSB,2023-06-05T23:00:00Z,9.12,99.15,26.0,25.0,200,5,,3.73,29.734253,,,,,,TRUE,,,,,FEW,2000,,,,,,,MVFR,,,,,,,,,,,,METAR,10.0
VTPT 052300Z /////KT 8000 SCT026 28/23 Q1005 NOSIG,VTPT,2023-06-05T23:00:00Z,16.88,99.25,28.0,23.0,,,,4.97,29.675198,,,,,,TRUE,,,,,SCT,2600,,,,,,,MVFR,,,,,,,,,,,,METAR,148.0
VTPP 052300Z 07004KT 020V140 9999 -RA FEW030 SCT080 26/25 Q1005 NOSIG,VTPP,2023-06-05T23:00:00Z,16.78,100.28,26.0,25.0,70,4,,6.21,29.675198,,,,,,TRUE,,,,-RA,FEW,3000,SCT,8000,,,,,VFR,,,,,,,,,,,,METAR,45.0
VTPO 052300Z VRB02KT 9999 FEW025 26/24 Q1006 NOSIG,VTPO,2023-06-05T23:00:00Z,17.23,99.82,26.0,24.0,0,2,,6.21,29.704725,,,,,,TRUE,,,,,FEW,2500,,,,,,,VFR,,,,,,,,,,,,METAR,58.0
VTPM 052300Z 23003KT 9999 FEW030 25/24 Q1005 NOSIG,VTPM,2023-06-05T23:00:00Z,16.7,98.53,25.0,24.0,230,3,,6.21,29.675198,,,,,,TRUE,,,,,FEW,3000,,,,,,,VFR,,,,,,,,,,,,METAR,211.0
VTPH 052300Z 24004KT 8000 SCT030 BKN060 27/25 Q1005 NOSIG,VTPH,2023-06-05T23:00:00Z,12.63,99.95,27.0,25.0,240,4,,4.97,29.675198,,,,,,TRUE,,,,,SCT,3000,BKN,6000,,,,,MVFR,,,,,,,,,,,,METAR,12.0
VTPB 052300Z 00000KT 7000 -RA FEW018CB SCT030 BKN100 24/24 Q1006 NOSIG,VTPB,2023-06-05T23:00:00Z,16.67,101.2,24.0,24.0,0,0,,4.35,29.704725,,,,,,TRUE,,,,-RA,FEW,1800,SCT,3000,BKN,10000,,,MVFR,,,,,,,,,,,,METAR,134.0
VTCT 052300Z 09004KT 9999 FEW010 SCT035 25/25 Q1007 NOSIG,VTCT,2023-06-05T23:00:00Z,19.95,99.88,25.0,25.0,90,4,,6.21,29.734253,,,,,,TRUE,,,,,FEW,1000,SCT,3500,,,,,VFR,,,,,,,,,,,,METAR,389.0
VTCP 052300Z VRB02KT 9999 -RA SCT008 BKN015 24/23 Q1006 NOSIG,VTCP,2023-06-05T23:00:00Z,18.13,100.17,24.0,23.0,0,2,,6.21,29.704725,,,,,,TRUE,,,,-RA,SCT,800,BKN,1500,,,,,MVFR,,,,,,,,,,,,METAR,166.0
VTCN 052300Z 00000KT 9999 -RA FEW010 BKN030 24/24 Q1006 NOSIG,VTCN,2023-06-05T23:00:00Z,18.82,100.78,24.0,24.0,0,0,,6.21,29.704725,,,,,,TRUE,,,,-RA,FEW,1000,BKN,3000,,,,,MVFR,,,,,,,,,,,,METAR,211.0
VTCL 052300Z 00000KT 9999 FEW020 BKN100 26/25 Q1006 NOSIG,VTCL,2023-06-05T23:00:00Z,18.27,99.52,26.0,25.0,0,0,,6.21,29.704725,,,,,,TRUE,,,,,FEW,2000,BKN,10000,,,,,VFR,,,,,,,,,,,,METAR,240.0
VTCH 052300Z 00000KT 9999 FEW010 BKN025 26/24 Q1005 NOSIG,VTCH,2023-06-05T23:00:00Z,19.3,97.98,26.0,24.0,0,0,,6.21,29.675198,,,,,,TRUE,,,,,FEW,1000,BKN,2500,,,,,MVFR,,,,,,,,,,,,METAR,266.0
VRMH 052300Z 28010KT 9999 FEW018 BKN270 29/26 Q1009,VRMH,2023-06-05T23:00:00Z,6.75,73.17,29.0,26.0,280,10,,6.21,29.793306,,,,,,,,,,,FEW,1800,BKN,27000,,,,,VFR,,,,,,,,,,,,METAR,1.0
VRMG 052300Z 26006KT 9999 FEW017TCU BKN110 29/27 Q1009 TEMPO 5000 TSRA FEW017CB,VRMG,2023-06-05T23:00:00Z,-0.7,73.15,29.0,27.0,260,6,,6.21,29.793306,,,,,,,,,,,FEW,1700,BKN,11000,,,,,VFR,,,,,,,,,,,,METAR,2.0
VOPB 052300Z 24006KT 5000 BR SCT014 SCT080 28/25 Q1005 NOSIG,VOPB,2023-06-05T23:00:00Z,11.63,92.73,28.0,25.0,240,6,,3.11,29.675198,,,,,,TRUE,,,,BR,SCT,1400,SCT,8000,,,,,MVFR,,,,,,,,,,,,METAR,1.0
VOMD 052300Z 00000KT 5000 BR FEW020 26/24 Q1006 NOSIG,VOMD,2023-06-05T23:00:00Z,9.83,78.08,26.0,24.0,0,0,,3.11,29.704725,,,,,,TRUE,,,,BR,FEW,2000,,,,,,,MVFR,,,,,,,,,,,,METAR,135.0
VIAR 052300Z 04004KT 4000 HZ NSC 25/17 Q1004 NOSIG,VIAR,2023-06-05T23:00:00Z,31.7,74.8,25.0,17.0,40,4,,2.49,29.64567,,,,,,TRUE,,,,HZ,CLR,,,,,,,,IFR,,,,,,,,,,,,METAR,226.0
VERC 052300Z 00000KT 4000 HZ SCT020 BKN100 27/20 Q1006 NOSIG,VERC,2023-06-05T23:00:00Z,23.32,85.32,27.0,20.0,0,0,,2.49,29.704725,,,,,,TRUE,,,,HZ,SCT,2000,BKN,10000,,,,,IFR,,,,,,,,,,,,METAR,646.0
VEGY 052300Z 00000KT 4000 HZ NSC 27/18 Q1002,VEGY,2023-06-05T23:00:00Z,24.75,84.95,27.0,18.0,0,0,,2.49,29.586615,,,,,,,,,,HZ,CLR,,,,,,,,IFR,,,,,,,,,,,,METAR,115.0
VABO 052300Z 19010KT 6000 NSC 30/26 Q1005 NOSIG,VABO,2023-06-05T23:00:00Z,22.33,73.22,30.0,26.0,190,10,,3.73,29.675198,,,,,,TRUE,,,,,CLR,,,,,,,,MVFR,,,,,,,,,,,,METAR,36.0
UWOR 052300Z 32004MPS CAVOK 16/13 Q1011 R07/CLRD65 NOSIG RMK QFE734/0978,UWOR,2023-06-05T23:00:00Z,51.07,58.6,16.0,13.0,320,8,,6.21,29.852362,,,,,,TRUE,,,,,CAVOK,,,,,,,,VFR,,,,,,,,,,,,METAR,270.0
UWLW 052300Z 00000MPS CAVOK 10/05 Q1018 R02/CLRD60 NOSIG RMK QFE756/1009,UWLW,2023-06-05T23:00:00Z,54.4,48.8,10.0,5.0,0,0,,6.21,30.059055,,,,,,TRUE,,,,,CAVOK,,,,,,,,VFR,,,,,,,,,,,,METAR,67.0
UUMO 052300Z 27002MPS CAVOK 05/05 Q1020 R25/CLRD60 NOSIG RMK QFE750/1000,UUMO,2023-06-05T23:00:00Z,55.52,37.5,5.0,5.0,270,4,,6.21,30.11811,,,,,,TRUE,,,,,CAVOK,,,,,,,,VFR,,,,,,,,,,,,METAR,167.0
UTFF 052300Z 26002KT 9999 NSC 20/04 Q1011 R18/CLRD70,UTFF,2023-06-05T23:00:00Z,40.37,71.73,20.0,4.0,260,2,,6.21,29.852362,,,,,,,,,,,CLR,,,,,,,,VFR,,,,,,,,,,,,METAR,612.0
UTAV 052300Z 31008KT CAVOK 24/02 Q1007 R31/CLRD70 NOSIG,UTAV,2023-06-05T23:00:00Z,39.08,63.62,24.0,2.0,310,8,,6.21,29.734253,,,,,,TRUE,,,,,CAVOK,,,,,,,,VFR,,,,,,,,,,,,METAR,187.0
UTAT 052300Z 30006KT CAVOK 21/09 Q1008 R26/CLRD70 NOSIG,UTAT,2023-06-05T23:00:00Z,41.77,59.83,21.0,9.0,300,6,,6.21,29.763779,,,,,,TRUE,,,,,CAVOK,,,,,,,,VFR,,,,,,,,,,,,METAR,84.0
UTAM 052300Z 00000KT 6000 NSC 23/10 Q1007 R88/CLRD70 NOSIG,UTAM,2023-06-05T23:00:00Z,37.62,61.9,23.0,10.0,0,0,,3.73,29.734253,,,,,,TRUE,,,,,CLR,,,,,,,,MVFR,,,,,,,,,,,,METAR,218.0
UTAK 052300Z 34010KT CAVOK 21/16 Q1010 R34L/CLRD70 NOSIG,UTAK,2023-06-05T23:00:00Z,40.05,53.0,21.0,16.0,340,10,,6.21,29.822834,,,,,,TRUE,,,,,CAVOK,,,,,,,,VFR,,,,,,,,,,,,METAR,83.0
UTAA 052300Z 21002KT 9999 NSC 25/08 Q1009 R88/70D NOSIG,UTAA,2023-06-05T23:00:00Z,37.98,58.37,25.0,8.0,210,2,,6.21,29.793306,,,,,,TRUE,,,,,CLR,,,,,,,,VFR,,,,,,,,,,,,METAR,207.0
URMN 052300Z 07001MPS 2000 SHRA BKN004 BKN018CB 16/16 Q1017 R24/////// TEMPO 0500 FG BKN002 BKN016CB RMK QBB120 MT OBSC OBST OBSC QFE726,URMN,2023-06-05T23:00:00Z,43.52,43.63,16.0,16.0,70,2,,1.24,30.029528,,,,,,,,,,SHRA,BKN,400,BKN,1800,,,,,LIFR,,,,,,,,,,,,METAR,424.0
UMGG 052300Z VRB01MPS CAVOK 13/07 Q1021 NOSIG,UMGG,2023-06-05T23:00:00Z,52.53,31.02,13.0,7.0,0,2,,6.21,30.147638,,,,,,TRUE,,,,,CAVOK,,,,,,,,VFR,,,,,,,,,,,,METAR,135.0
ULPB 052300Z AUTO 24004MPS 9999 // ///077/// 08/05 Q1012 RMK QFE755/1007,ULPB,2023-06-05T23:00:00Z,61.88,34.15,8.0,5.0,240,8,,6.21,29.88189,,,TRUE,,,,,,,,,,,,,,,,,,,,,,,,,,,,METAR,41.0
ULOO 052300Z 25003MPS CAVOK 11/06 Q1020 NOSIG RMK QFE761,ULOO,2023-06-05T23:00:00Z,57.78,28.4,11.0,6.0,250,6,,6.21,30.11811,,,,,,TRUE,,,,,CAVOK,,,,,,,,VFR,,,,,,,,,,,,METAR,46.0
UCFL 052300Z 05002MPS 010V070 9999 SCT030CB SCT100 14/05 Q1020,UCFL,2023-06-05T23:00:00Z,42.58,76.7,14.0,5.0,50,4,,6.21,30.11811,,,,,,,,,,,SCT,3000,SCT,10000,,,,,VFR,,,,,,,,,,,,METAR,1654.0
TVSA 052300Z 06010KT 9999 SCT015 28/25 Q1013 ,TVSA,2023-06-05T23:00:00Z,13.15,-61.15,28.0,25.0,60,10,,6.21,29.911417,,,,,,,,,,,SCT,1500,,,,,,,VFR,,,,,,,,,,,,METAR,3.0
TTPP 052300Z 10005KT 9999 FEW020 28/24 Q1012 NOSIG,TTPP,2023-06-05T23:00:00Z,10.58,-61.35,28.0,24.0,100,5,,6.21,29.88189,,,,,,TRUE,,,,,FEW,2000,,,,,,,VFR,,,,,,,,,,,,METAR,11.0
TTCP 052300Z 09006KT 9999 FEW020 28/25 Q1013 NOSIG,TTCP,2023-06-05T23:00:00Z,11.15,-60.85,28.0,25.0,90,6,,6.21,29.911417,,,,,,TRUE,,,,,FEW,2000,,,,,,,VFR,,,,,,,,,,,,METAR,13.0
TQPF 052300Z 13010KT 9999 FEW019 28/26 Q1015,TQPF,2023-06-05T23:00:00Z,18.2,-63.05,28.0,26.0,130,10,,6.21,29.970472,,,,,,,,,,,FEW,1900,,,,,,,VFR,,,,,,,,,,,,METAR,33.0
TNCM 052300Z 11007KT 9999 FEW018 29/26 Q1016 NOSIG ,TNCM,2023-06-05T23:00:00Z,18.05,-63.12,29.0,26.0,110,7,,6.21,30.0,,,,,,TRUE,,,,,FEW,1800,,,,,,,VFR,,,,,,,,,,,,METAR,9.0
TGPY 052300Z 08009KT 9999 FEW019 SCT036 28/25 Q1013 NOSIG,TGPY,2023-06-05T23:00:00Z,12.0,-61.78,28.0,25.0,80,9,,6.21,29.911417,,,,,,TRUE,,,,,FEW,1900,SCT,3600,,,,,VFR,,,,,,,,,,,,METAR,12.0
TDPD 052300Z 11010KT 9999 BKN016 28/26 Q1015,TDPD,2023-06-05T23:00:00Z,15.55,-61.3,28.0,26.0,110,10,,6.21,29.970472,,,,,,,,,,,BKN,1600,,,,,,,MVFR,,,,,,,,,,,,METAR,13.0
TBPB 052300Z 10007KT 9999 4000N SHRA VCSH SCT014 BKN034 27/25 Q1013 NOSIG,TBPB,2023-06-05T23:00:00Z,13.07,-59.48,27.0,25.0,100,7,,6.21,29.911417,,,,,,TRUE,,,,VCSH SHRA,SCT,1400,BKN,3400,,,,,VFR,,,,,,,,,,,,METAR,55.0
TAPA 052300Z 10006KT 060V150 9999 FEW022 28/24 Q1015 NOSIG,TAPA,2023-06-05T23:00:00Z,17.13,-61.78,28.0,24.0,100,6,,6.21,29.970472,,,,,,TRUE,,,,,FEW,2200,,,,,,,VFR,,,,,,,,,,,,METAR,15.0
SPTU 052300Z 00000KT CAVOK 25/22 Q1011 RMK BIRD HAZARD RWY 01/19 PP000,SPTU,2023-06-05T23:00:00Z,-12.62,-69.22,25.0,22.0,0,0,,6.21,29.852362,,,,,,,,,,,CAVOK,,,,,,,,VFR,,,,,,,,,,,,SPECI,213.0
SPJR 052300Z 06003KT 030V090 CAVOK 19/06 Q1026 RMK PP000,SPJR,2023-06-05T23:00:00Z,-7.13,-78.48,19.0,6.0,60,3,,6.21,30.295275,,,,,,,,,,,CAVOK,,,,,,,,VFR,,,,,,,,,,,,SPECI,2622.0
SPJL 052300Z /////KT CAVOK 11/M03 Q1036 RMK WIND RWY12 08005KT PP000,SPJL,2023-06-05T23:00:00Z,-15.47,-70.15,11.0,-3.0,,,,6.21,30.590551,,,,,,,,,,,CAVOK,,,,,,,,VFR,,,,,,,,,,,,SPECI,3837.0
SPJJ 052300Z 03010KT CAVOK 14/// Q1031 RMK PP000,SPJJ,2023-06-05T23:00:00Z,-11.77,-75.47,,,30,10,,6.21,30.442913,,,,,,,,,,,CAVOK,,,,,,,,VFR,,,,,,,,,,,,METAR,3322.0
SPHO 052300Z 19006KT 160V230 CAVOK 20/01 Q1026 RMK PP000,SPHO,2023-06-05T23:00:00Z,-13.17,-74.22,20.0,1.0,190,6,,6.21,30.295275,,,,,,,,,,,CAVOK,,,,,,,,VFR,,,,,,,,,,,,SPECI,2743.0
SLTR 052300Z 15004KT 9999 FEW023 27/24 Q1013,SLTR,2023-06-05T23:00:00Z,-14.83,-64.92,27.0,24.0,150,4,,6.21,29.911417,,,,,,,,,,,FEW,2300,,,,,,,VFR,,,,,,,,,,,,METAR,157.0
SLSA 052300Z 00000KT 9999 FEW020 28/24 Q1012,SLSA,2023-06-05T23:00:00Z,-13.77,-65.43,28.0,24.0,0,0,,6.21,29.88189,,,,,,,,,,,FEW,2000,,,,,,,VFR,,,,,,,,,,,,METAR,144.0
SLET 052300Z 11003KT 9999 NSC 25/19 Q1016,SLET,2023-06-05T23:00:00Z,-17.8,-63.17,25.0,19.0,110,3,,6.21,30.0,,,,,,,,,,,CLR,,,,,,,,VFR,,,,,,,,,,,,METAR,421.0
SLCO 052300Z VRB02KT 9999 FEW025 BKN200 28/25 Q1012,SLCO,2023-06-05T23:00:00Z,-11.03,-68.78,28.0,25.0,0,2,,6.21,29.88189,,,,,,,,,,,FEW,2500,BKN,20000,,,,,VFR,,,,,,,,,,,,METAR,238.0
SKVV 052300Z 07012KT 9999 BKN015 SCT090 23/20 Q1015 RMK A2998,SKVV,2023-06-05T23:00:00Z,4.17,-73.62,23.0,20.0,70,12,,6.21,29.970472,,,,,,,,,,,BKN,1500,SCT,9000,,,,,MVFR,,,,,,,,,,,,METAR,421.0
SKVP 052300Z 00000KT 9999 SCT015CTU SCT080 29/25 Q1012 RMK TCU/N A2989,SKVP,2023-06-05T23:00:00Z,10.43,-73.25,29.0,25.0,0,0,,6.21,29.88189,,,,,,,,,,,SCT,8000,,,,,,,VFR,,,,,,,,,,,,METAR,137.0
SKUI 052300Z 31006KT 9999 FEW030SCT200 30/25 Q1008 RMK A2977,SKUI,2023-06-05T23:00:00Z,5.68,-76.63,30.0,25.0,310,6,,6.21,29.763779,,,,,,,,,,,SCT,20000,,,,,,,VFR,,,,,,,,,,,,METAR,55.0
SKUC 052300Z 15008KT 110V190 9999 -RA BKN006 23/23 Q1013 RMK A2993,SKUC,2023-06-05T23:00:00Z,7.07,-70.73,23.0,23.0,150,8,,6.21,29.911417,,,,,,,,,,-RA,BKN,600,,,,,,,IFR,,,,,,,,,,,,METAR,127.0
SKSM 052300Z 35008KT 9999 SCT017 BKN070 30/25 Q1010 RMK A2984,SKSM,2023-06-05T23:00:00Z,11.12,-74.22,30.0,25.0,350,8,,6.21,29.822834,,,,,,,,,,,SCT,1700,BKN,7000,,,,,VFR,,,,,,,,,,,,METAR,5.0
SKRH 052300Z 21004KT 170V240 9999 BKN017 27/25 Q1010 RMK A2983,SKRH,2023-06-05T23:00:00Z,11.52,-72.92,27.0,25.0,210,4,,6.21,29.822834,,,,,,,,,,,BKN,1700,,,,,,,MVFR,,,,,,,,,,,,METAR,11.0
SKPV 052300Z 00000KT 9999 SCT017 26/23 Q1010 RERA RMK A2985,SKPV,2023-06-05T23:00:00Z,13.37,-81.35,26.0,23.0,0,0,,6.21,29.822834,,,,,,,,,,,SCT,1700,,,,,,,VFR,,,,,,,,,,,,METAR,7.0
SKPC 052300Z VRB02KT 9999 VCSH FEW013 BKN070 25/25 Q1011 REDZ RMK VCSH/SE A2988,SKPC,2023-06-05T23:00:00Z,6.18,-67.5,25.0,25.0,0,2,,6.21,29.852362,,,,,,,,,,VCSH,FEW,1300,BKN,7000,,,,,VFR,,,,,,,,,,,,METAR,51.0
SKNV 052300Z 19009KT 9999 FEW045 BKN100 29/20 Q1010 RMK A2984,SKNV,2023-06-05T23:00:00Z,2.93,-75.28,29.0,20.0,190,9,,6.21,29.822834,,,,,,,,,,,FEW,4500,BKN,10000,,,,,VFR,,,,,,,,,,,,METAR,449.0
SKMZ 052300Z 30003KT 9000 BKN070 20/16 Q1025 RMK A3027,SKMZ,2023-06-05T23:00:00Z,5.03,-75.47,20.0,16.0,300,3,,5.59,30.265747,,,,,,,,,,,BKN,7000,,,,,,,VFR,,,,,,,,,,,,METAR,2075.0
SKMR 052300Z VRB02KT 9999 SCT022 32/25 Q1008 RMK A2978,SKMR,2023-06-05T23:00:00Z,8.82,-75.83,32.0,25.0,0,2,,6.21,29.763779,,,,,,,,,,,SCT,2200,,,,,,,VFR,,,,,,,,,,,,METAR,12.0
SKMD 052300Z 02007KT 9999 SCT035 SCT090 25/16 Q1018 RMK A3006,SKMD,2023-06-05T23:00:00Z,6.22,-75.58,25.0,16.0,20,7,,6.21,30.059055,,,,,,,,,,,SCT,3500,SCT,9000,,,,,VFR,,,,,,,,,,,,METAR,1491.0
SKLC 052300Z 33007KT 9999 FEW020 BKN300 31/25 Q1008 RMK A2977,SKLC,2023-06-05T23:00:00Z,7.82,-76.72,31.0,25.0,330,7,,6.21,29.763779,,,,,,,,,,,FEW,2000,BKN,30000,,,,,VFR,,,,,,,,,,,,METAR,20.0
SKIP 052300Z 10007KT 9999 VCSH BKN016 13/08 Q1029 RMK VCSH/E A3040,SKIP,2023-06-05T23:00:00Z,0.85,-77.67,13.0,8.0,100,7,,6.21,30.383858,,,,,,,,,,VCSH,BKN,1600,,,,,,,MVFR,,,,,,,,,,,,METAR,2964.0
SKIB 052300Z 09004KT 9999 FEW030 BKN100 25/21 Q1017 RMK A3003,SKIB,2023-06-05T23:00:00Z,4.42,-75.12,25.0,21.0,90,4,,6.21,30.029528,,,,,,,,,,,FEW,3000,BKN,10000,,,,,VFR,,,,,,,,,,,,METAR,899.0
SKEJ 052300Z VRB02KT 9999 SCT020 SCT100 30/24 Q1008 RMK A2979,SKEJ,2023-06-05T23:00:00Z,7.02,-73.8,30.0,24.0,0,2,,6.21,29.763779,,,,,,,,,,,SCT,2000,SCT,10000,,,,,VFR,,,,,,,,,,,,METAR,123.0
SKCC 052300Z 35005KT 9999 SCT017TCU SCT080 28/22 Q1013 RMK TCUNE/SW A2992,SKCC,2023-06-05T23:00:00Z,7.92,-72.52,28.0,22.0,350,5,,6.21,29.911417,,,,,,,,,,,SCT,1700,SCT,8000,,,,,VFR,,,,,,,,,,,,METAR,308.0
SESM 052300Z 18002KT 9999 FEW023 BKN100 24/19 Q1016 RMK A3002,SESM,2023-06-05T23:00:00Z,-1.5,-78.07,24.0,19.0,180,2,,6.21,30.0,,,,,,,,,,,FEW,2300,BKN,10000,,,,,VFR,,,,,,,,,,,,METAR,1056.0
SESA 052300Z 24008KT 9999 BKN015 OVC040 27/23 Q1010 RMK A2983,SESA,2023-06-05T23:00:00Z,-2.2,-80.98,27.0,23.0,240,8,,6.21,29.822834,,,,,,,,,,,BKN,1500,OVC,4000,,,,,MVFR,,,,,,,,,,,,METAR,6.0
SERO 052300Z 30004KT 9999 BKN023 29/25 Q1009,SERO,2023-06-05T23:00:00Z,-3.43,-79.98,29.0,25.0,300,4,,6.21,29.793306,,,,,,,,,,,BKN,2300,,,,,,,MVFR,,,,,,,,,,,,METAR,6.0
SEMC 052300Z 19005KT 9999 FEW030 SCT100 21/18 Q1017 RMK A3005,SEMC,2023-06-05T23:00:00Z,-2.3,-78.12,21.0,18.0,190,5,,6.21,30.029528,,,,,,,,,,,FEW,3000,SCT,10000,,,,,VFR,,,,,,,,,,,,METAR,1036.0
SECA 052300Z 04015KT 9999 FEW040 24/14 Q1016 RMK A3003,SECA,2023-06-05T23:00:00Z,-4.0,-79.37,24.0,14.0,40,15,,6.21,30.0,,,,,,,,,,,FEW,4000,,,,,,,VFR,,,,,,,,,,,,METAR,1237.0
SCGE 052300Z 36002KT 9999 SCT027 BKN090 BKN200 12/10 Q1018,SCGE,2023-06-05T23:00:00Z,-37.4,-72.42,12.0,10.0,360,2,,6.21,30.059055,,,,,,,,,,,SCT,2700,BKN,9000,BKN,20000,,,VFR,,,,,,,,,,,,METAR,122.0
SBYS 052300Z 00000KT CAVOK 15/11 Q1021,SBYS,2023-06-05T23:00:00Z,-21.97,-47.33,15.0,11.0,0,0,,6.21,30.147638,,,,,,,,,,,CAVOK,,,,,,,,VFR,,,,,,,,,,,,METAR,600.0
SBVH 052300Z 14005KT CAVOK 23/18 Q1017,SBVH,2023-06-05T23:00:00Z,-12.68,-60.08,23.0,18.0,140,5,,6.21,30.029528,,,,,,,,,,,CAVOK,,,,,,,,VFR,,,,,,,,,,,,METAR,615.0
SBUR 052300Z 19003KT CAVOK 20/11 Q1021,SBUR,2023-06-05T23:00:00Z,-19.77,-47.97,20.0,11.0,190,3,,6.21,30.147638,,,,,,,,,,,CAVOK,,,,,,,,VFR,,,,,,,,,,,,METAR,807.0
SBUL 052300Z 11004KT CAVOK 19/09 Q1022,SBUL,2023-06-05T23:00:00Z,-18.87,-48.22,19.0,9.0,110,4,,6.21,30.177166,,,,,,,,,,,CAVOK,,,,,,,,VFR,,,,,,,,,,,,METAR,945.0
SBTU 052300Z AUTO 02002KT 9999 ///////// 25/23 Q1014,SBTU,2023-06-05T23:00:00Z,-3.78,-49.72,25.0,23.0,20,2,,6.21,29.940945,,,TRUE,,,,,,,,,,,,,,,,,,,,,,,,,,,,METAR,250.0
SBTT 052300Z 16007KT 9999 SCT020 FEW025TCU 27/23 Q1011,SBTT,2023-06-05T23:00:00Z,-4.25,-69.93,27.0,23.0,160,7,,6.21,29.852362,,,,,,,,,,,SCT,2000,FEW,2500,,,,,VFR,,,,,,,,,,,,METAR,79.0
SBTA 052300Z VRB01KT 8000 NSC 17/14 Q1021,SBTA,2023-06-05T23:00:00Z,-23.03,-45.5,17.0,14.0,0,1,,4.97,30.147638,,,,,,,,,,,CLR,,,,,,,,MVFR,,,,,,,,,,,,METAR,578.0
SBSR 052300Z 18005KT CAVOK 22/11 Q1020,SBSR,2023-06-05T23:00:00Z,-20.8,-49.4,22.0,11.0,180,5,,6.21,30.11811,,,,,,,,,,,CAVOK,,,,,,,,VFR,,,,,,,,,,,,METAR,537.0
SBSC 052300Z 12004KT CAVOK 21/18 Q1020,SBSC,2023-06-05T23:00:00Z,-22.92,-43.72,21.0,18.0,120,4,,6.21,30.11811,,,,,,,,,,,CAVOK,,,,,,,,VFR,,,,,,,,,,,,METAR,6.0
SBRP 052300Z 06004KT CAVOK 18/12 Q1020,SBRP,2023-06-05T23:00:00Z,-21.13,-47.77,18.0,12.0,60,4,,6.21,30.11811,,,,,,,,,,,CAVOK,,,,,,,,VFR,,,,,,,,,,,,METAR,550.0
SBNT 052300Z 14007KT 9999 FEW021 SCT080 26/24 Q1014,SBNT,2023-06-05T23:00:00Z,-5.92,-35.25,26.0,24.0,140,7,,6.21,29.940945,,,,,,,,,,,FEW,2100,SCT,8000,,,,,VFR,,,,,,,,,,,,METAR,51.0
SBMT 052300Z 13004KT CAVOK 16/15 Q1023,SBMT,2023-06-05T23:00:00Z,-23.52,-46.63,16.0,15.0,130,4,,6.21,30.206694,,,,,,,,,,,CAVOK,,,,,,,,VFR,,,,,,,,,,,,METAR,722.0
SBMK 052300Z 17004KT CAVOK 20/08 Q1020,SBMK,2023-06-05T23:00:00Z,-16.7,-43.82,20.0,8.0,170,4,,6.21,30.11811,,,,,,,,,,,CAVOK,,,,,,,,VFR,,,,,,,,,,,,METAR,665.0
SBMG 052300Z 13006KT CAVOK 20/13 Q1019,SBMG,2023-06-05T23:00:00Z,-23.48,-52.02,20.0,13.0,130,6,,6.21,30.088583,,,,,,,,,,,CAVOK,,,,,,,,VFR,,,,,,,,,,,,METAR,543.0
SBME 052300Z 23001KT CAVOK 20/19 Q1020,SBME,2023-06-05T23:00:00Z,-22.35,-41.77,20.0,19.0,230,1,,6.21,30.11811,,,,,,,,,,,CAVOK,,,,,,,,VFR,,,,,,,,,,,,METAR,2.0
SBLS 052300Z 14008KT CAVOK 18/11 Q1022,SBLS,2023-06-05T23:00:00Z,-19.67,-43.88,18.0,11.0,140,8,,6.21,30.177166,,,,,,,,,,,CAVOK,,,,,,,,VFR,,,,,,,,,,,,METAR,850.0
SBLE 052300Z AUTO 08004KT CAVOK 22/18 Q1020,SBLE,2023-06-05T23:00:00Z,-12.48,-41.28,22.0,18.0,80,4,,6.21,30.11811,,,TRUE,,,,,,,,CAVOK,,,,,,,,VFR,,,,,,,,,,,,METAR,495.0
SBLB 052300Z AUTO 02011KT 9999 NCD 24/16 Q1020 W///S3,SBLB,2023-06-05T23:00:00Z,-22.1,-39.92,24.0,16.0,20,11,,6.21,30.11811,,,TRUE,,,,,,,,CLR,,,,,,,,VFR,,,,,,,,,,,,METAR,10.0
SBKG 052300Z 08004KT CAVOK 23/20 Q1017,SBKG,2023-06-05T23:00:00Z,-7.27,-35.88,23.0,20.0,80,4,,6.21,30.029528,,,,,,,,,,,CAVOK,,,,,,,,VFR,,,,,,,,,,,,METAR,499.0
SBJV 052300Z VRB02KT 9999 BKN018 21/19 Q1022,SBJV,2023-06-05T23:00:00Z,-26.22,-48.8,21.0,19.0,0,2,,6.21,30.177166,,,,,,,,,,,BKN,1800,,,,,,,MVFR,,,,,,,,,,,,METAR,3.0
SBJU 052300Z 00000KT 9999 FEW020 26/20 Q1018,SBJU,2023-06-05T23:00:00Z,-7.22,-39.27,26.0,20.0,0,0,,6.21,30.059055,,,,,,,,,,,FEW,2000,,,,,,,VFR,,,,,,,,,,,,METAR,407.0
SBJR 052300Z 00000KT 9999 FEW020 19/19 Q1020,SBJR,2023-06-05T23:00:00Z,-22.98,-43.37,19.0,19.0,0,0,,6.21,30.11811,,,,,,,,,,,FEW,2000,,,,,,,VFR,,,,,,,,,,,,METAR,5.0
SBIP 052300Z AUTO VRB02KT CAVOK 15/11 Q1020,SBIP,2023-06-05T23:00:00Z,-19.47,-42.48,15.0,11.0,0,2,,6.21,30.11811,,,TRUE,,,,,,,,CAVOK,,,,,,,,VFR,,,,,,,,,,,,METAR,240.0
SBIL 052300Z 26004KT 9999 SCT025 BKN060 25/21 Q1019,SBIL,2023-06-05T23:00:00Z,-14.8,-39.02,25.0,21.0,260,4,,6.21,30.088583,,,,,,,,,,,SCT,2500,BKN,6000,,,,,VFR,,,,,,,,,,,,METAR,9.0
SBES 052300Z 20007KT 9999 FEW025 SCT060 21/20 Q1020,SBES,2023-06-05T23:00:00Z,-22.82,-42.1,21.0,20.0,200,7,,6.21,30.11811,,,,,,,,,,,FEW,2500,SCT,6000,,,,,VFR,,,,,,,,,,,,METAR,16.0
SBDN 052300Z 13007KT CAVOK 20/14 Q1019,SBDN,2023-06-05T23:00:00Z,-22.18,-51.43,20.0,14.0,130,7,,6.21,30.088583,,,,,,,,,,,CAVOK,,,,,,,,VFR,,,,,,,,,,,,METAR,438.0
SBCZ 052300Z 06003KT 9999 FEW025 BKN100 24/23 Q1013,SBCZ,2023-06-05T23:00:00Z,-7.58,-72.77,24.0,23.0,60,3,,6.21,29.911417,,,,,,,,,,,FEW,2500,BKN,10000,,,,,VFR,,,,,,,,,,,,METAR,193.0
SBCX 052300Z 16006KT 6000 0200E BCFG SCT003 BKN036 12/10 Q1024,SBCX,2023-06-05T23:00:00Z,-29.2,-51.18,12.0,10.0,160,6,,3.73,30.236221,,,,,,,,,,BCFG,SCT,300,BKN,3600,,,,,MVFR,,,,,,,,,,,,METAR,752.0
SBCO 052300Z 10003KT 9999 BKN020 16/13 Q1023,SBCO,2023-06-05T23:00:00Z,-29.95,-51.15,16.0,13.0,100,3,,6.21,30.206694,,,,,,,,,,,BKN,2000,,,,,,,MVFR,,,,,,,,,,,,METAR,8.0
SBCH 052300Z 13010KT CAVOK 18/17 Q1022,SBCH,2023-06-05T23:00:00Z,-27.13,-52.67,18.0,17.0,130,10,,6.21,30.177166,,,,,,,,,,,CAVOK,,,,,,,,VFR,,,,,,,,,,,,METAR,639.0
SBCC 052300Z 07005KT CAVOK 26/18 Q1015,SBCC,2023-06-05T23:00:00Z,-9.33,-54.95,26.0,18.0,70,5,,6.21,29.970472,,,,,,,,,,,CAVOK,,,,,,,,VFR,,,,,,,,,,,,METAR,540.0
SBCA 052300Z 17006KT CAVOK 18/14 Q1022,SBCA,2023-06-05T23:00:00Z,-25.0,-53.5,18.0,14.0,170,6,,6.21,30.177166,,,,,,,,,,,CAVOK,,,,,,,,VFR,,,,,,,,,,,,METAR,753.0
SBBU 052300Z 14004KT CAVOK 21/14 Q1020,SBBU,2023-06-05T23:00:00Z,-22.33,-49.07,21.0,14.0,140,4,,6.21,30.11811,,,,,,,,,,,CAVOK,,,,,,,,VFR,,,,,,,,,,,,METAR,616.0
SBBI 052300Z 14005KT 8000 SCT005 SCT040 15/14 Q1024,SBBI,2023-06-05T23:00:00Z,-25.4,-49.23,15.0,14.0,140,5,,4.97,30.236221,,,,,,,,,,,SCT,500,SCT,4000,,,,,MVFR,,,,,,,,,,,,METAR,928.0
SBBH 052300Z 00000KT CAVOK 15/08 Q1022,SBBH,2023-06-05T23:00:00Z,-19.85,-43.95,15.0,8.0,0,0,,6.21,30.177166,,,,,,,,,,,CAVOK,,,,,,,,VFR,,,,,,,,,,,,METAR,799.0
SBAX 052300Z 00000KT CAVOK 18/10 Q1022,SBAX,2023-06-05T23:00:00Z,-19.57,-46.97,18.0,10.0,0,0,,6.21,30.177166,,,,,,,,,,,CAVOK,,,,,,,,VFR,,,,,,,,,,,,METAR,989.0
SBAU 052300Z 12008KT CAVOK 20/12 Q1019,SBAU,2023-06-05T23:00:00Z,-21.13,-50.43,20.0,12.0,120,8,,6.21,30.088583,,,,,,,,,,,CAVOK,,,,,,,,VFR,,,,,,,,,,,,METAR,415.0
SBAN 052300Z 18004KT CAVOK 18/09 Q1022,SBAN,2023-06-05T23:00:00Z,-16.22,-48.97,18.0,9.0,180,4,,6.21,30.177166,,,,,,,,,,,CAVOK,,,,,,,,VFR,,,,,,,,,,,,METAR,1131.0
SBAF 052300Z 26003KT 9999 FEW040 20/19 Q1021,SBAF,2023-06-05T23:00:00Z,-22.87,-43.38,20.0,19.0,260,3,,6.21,30.147638,,,,,,,,,,,FEW,4000,,,,,,,VFR,,,,,,,,,,,,METAR,34.0
SAZN 052300Z 36007KT CAVOK 16/03 Q1008,SAZN,2023-06-05T23:00:00Z,-38.95,-68.15,16.0,3.0,360,7,,6.21,29.763779,,,,,,,,,,,CAVOK,,,,,,,,VFR,,,,,,,,,,,,METAR,273.0
SAWG 052300Z 36006KT CAVOK 06/02 Q0979,SAWG,2023-06-05T23:00:00Z,-51.62,-69.27,6.0,2.0,360,6,,6.21,28.90748,,,,,,,,,,,CAVOK,,,,,,,,VFR,,,,,,,,,,,,METAR,15.0
SARC 052300Z 09004KT CAVOK 23/19 Q1017,SARC,2023-06-05T23:00:00Z,-27.43,-58.77,23.0,19.0,90,4,,6.21,30.029528,,,,,,,,,,,CAVOK,,,,,,,,VFR,,,,,,,,,,,,METAR,60.0
SAME 052300Z VRB02KT CAVOK 13/07 Q1016,SAME,2023-06-05T23:00:00Z,-32.82,-68.78,13.0,7.0,0,2,,6.21,30.0,,,,,,,,,,,CAVOK,,,,,,,,VFR,,,,,,,,,,,,METAR,709.0
RPVP 052300Z 27006KT 9999 FEW019 BKN080 26/25 Q1009 RMK A2980,RPVP,2023-06-05T23:00:00Z,9.75,118.75,26.0,25.0,270,6,,6.21,29.793306,,,,,,,,,,,FEW,1900,BKN,8000,,,,,VFR,,,,,,,,,,,,METAR,15.0
RPVM 052300Z VRB02KT 9999 FEW018CB BKN100 28/25 Q1010 NOSIG RMK A2983 CB NE-E/NW,RPVM,2023-06-05T23:00:00Z,10.32,123.98,28.0,25.0,0,2,,6.21,29.822834,,,,,,TRUE,,,,,FEW,1800,BKN,10000,,,,,VFR,,,,,,,,,,,,METAR,9.0
RPMZ 052300Z VRB02KT 9999 FEW017 BKN090 27/24 Q1010 RMK A2983,RPMZ,2023-06-05T23:00:00Z,6.92,122.07,27.0,24.0,0,2,,6.21,29.822834,,,,,,,,,,,FEW,1700,BKN,9000,,,,,VFR,,,,,,,,,,,,METAR,8.0
RPMD 052300Z 03006KT 9999 FEW016 BKN090 26/26 Q1010 RMK A2983,RPMD,2023-06-05T23:00:00Z,7.12,125.65,26.0,26.0,30,6,,6.21,29.822834,,,,,,,,,,,FEW,1600,BKN,9000,,,,,VFR,,,,,,,,,,,,METAR,19.0
RPLL 052300Z VRB02KT 9999 FEW025 30/26 Q1009 NOSIG RMK A2980,RPLL,2023-06-05T23:00:00Z,14.52,121.0,30.0,26.0,0,2,,6.21,29.793306,,,,,,TRUE,,,,,FEW,2500,,,,,,,VFR,,,,,,,,,,,,METAR,15.0
RPLI 052300Z 13003KT 9999 FEW018 SCT090 BKN290 28/25 Q1008 NOSIG RMK A2977,RPLI,2023-06-05T23:00:00Z,18.17,120.52,28.0,25.0,130,3,,6.21,29.763779,,,,,,TRUE,,,,,FEW,1800,SCT,9000,BKN,29000,,,VFR,,,,,,,,,,,,METAR,5.0
RPLC 052300Z 18002KT 8000 FEW020 27/25 Q1010 NOSIG RMK A2983,RPLC,2023-06-05T23:00:00Z,15.18,120.55,27.0,25.0,180,2,,4.97,29.822834,,,,,,TRUE,,,,,FEW,2000,,,,,,,MVFR,,,,,,,,,,,,METAR,138.0
RPLB 052300Z 08004KT 9000 SCT018 BKN070 26/24 Q1010 NOSIG RMK A2983,RPLB,2023-06-05T23:00:00Z,14.8,120.27,26.0,24.0,80,4,,5.59,29.822834,,,,,,TRUE,,,,,SCT,1800,BKN,7000,,,,,VFR,,,,,,,,,,,,METAR,19.0
ROYN 052300Z AUTO 18013KT 9999 BKN011 28/25 Q1009,ROYN,2023-06-05T23:00:00Z,24.47,122.97,28.0,25.0,180,13,,6.21,29.793306,,,TRUE,,,,,,,,BKN,1100,,,,,,,MVFR,,,,,,,,,,,,METAR,21.0
RORY 052300Z AUTO 19011KT 9999 FEW014 26/23 Q1010,RORY,2023-06-05T23:00:00Z,27.05,128.4,26.0,23.0,190,11,,6.21,29.822834,,,TRUE,,,,,,,,FEW,1400,,,,,,,VFR,,,,,,,,,,,,METAR,13.0
RORT 052300Z AUTO 19013KT 9999 SCT009 OVC013 27/24 Q1010,RORT,2023-06-05T23:00:00Z,24.63,124.7,27.0,24.0,190,13,,6.21,29.822834,,,TRUE,,,,,,,,SCT,900,OVC,1300,,,,,MVFR,,,,,,,,,,,,METAR,9.0
RORS 052300Z 19009KT 150V230 9999 SCT010 27/25 Q1009,RORS,2023-06-05T23:00:00Z,24.82,125.15,27.0,25.0,190,9,,6.21,29.793306,,,,,,,,,,,SCT,1000,,,,,,,VFR,,,,,,,,,,,,METAR,13.0
RORK 052300Z AUTO 18007KT 9999 NCD 25/23 Q1011,RORK,2023-06-05T23:00:00Z,25.93,131.32,25.0,23.0,180,7,,6.21,29.852362,,,TRUE,,,,,,,,CLR,,,,,,,,VFR,,,,,,,,,,,,METAR,11.0
ROMY 052300Z 20014KT 9999 BKN010 26/24 Q1010,ROMY,2023-06-05T23:00:00Z,24.78,125.27,26.0,24.0,200,14,,6.21,29.822834,,,,,,,,,,,BKN,1000,,,,,,,MVFR,,,,,,,,,,,,METAR,38.0
ROMD 052300Z AUTO 18006KT 130V210 9999 SCT009 25/23 Q1011,ROMD,2023-06-05T23:00:00Z,25.83,131.25,25.0,23.0,180,6,,6.21,29.852362,,,TRUE,,,,,,,,SCT,900,,,,,,,VFR,,,,,,,,,,,,METAR,45.0
ROIG 052300Z 19013KT 9999 SCT007 27/25 Q1009,ROIG,2023-06-05T23:00:00Z,24.38,124.23,27.0,25.0,190,13,,6.21,29.793306,,,,,,,,,,,SCT,700,,,,,,,VFR,,,,,,,,,,,,METAR,37.0
RKTU 052300Z 09001KT 9999 FEW030 FEW250 19/14 Q1009,RKTU,2023-06-05T23:00:00Z,36.7,127.5,19.0,14.0,90,1,,6.21,29.793306,,,,,,,,,,,FEW,3000,FEW,25000,,,,,VFR,,,,,,,,,,,,METAR,46.0
RKTN 052300Z 35004KT CAVOK 21/14 Q1008,RKTN,2023-06-05T23:00:00Z,35.88,128.65,21.0,14.0,350,4,,6.21,29.763779,,,,,,,,,,,CAVOK,,,,,,,,VFR,,,,,,,,,,,,METAR,25.0
RKSS 052300Z 31006KT 280V340 9999 SCT020 20/16 Q1009 NOSIG,RKSS,2023-06-05T23:00:00Z,37.55,126.78,20.0,16.0,310,6,,6.21,29.793306,,,,,,TRUE,,,,,SCT,2000,,,,,,,VFR,,,,,,,,,,,,METAR,18.0
RKSM 052300Z 29004KT 9999 SCT020 20/15 A2980,RKSM,2023-06-05T23:00:00Z,37.43,127.12,20.0,15.0,290,4,,6.21,29.799213,,,,,,,,,,,SCT,2000,,,,,,,VFR,,,,,,,,,,,,METAR,18.0
RKPK 052300Z 21003KT CAVOK 20/13 Q1008,RKPK,2023-06-05T23:00:00Z,35.17,128.93,20.0,13.0,210,3,,6.21,29.763779,,,,,,,,,,,CAVOK,,,,,,,,VFR,,,,,,,,,,,,METAR,3.0
RKNY 052300Z 27013KT 240V300 CAVOK 23/11 Q1005 NOSIG,RKNY,2023-06-05T23:00:00Z,38.07,128.67,23.0,11.0,270,13,,6.21,29.675198,,,,,,TRUE,,,,,CAVOK,,,,,,,,VFR,,,,,,,,,,,,METAR,76.0
RKJB 052300Z 03009KT CAVOK 19/15 Q1008 NOSIG,RKJB,2023-06-05T23:00:00Z,34.98,126.38,19.0,15.0,30,9,,6.21,29.763779,,,,,,TRUE,,,,,CAVOK,,,,,,,,VFR,,,,,,,,,,,,METAR,16.0
RJTO 052300Z 21006KT 9999 FEW020 BKN150 23/18 Q1010,RJTO,2023-06-05T23:00:00Z,34.77,139.37,23.0,18.0,210,6,,6.21,29.822834,,,,,,,,,,,FEW,2000,BKN,15000,,,,,VFR,,,,,,,,,,,,METAR,37.0
RJSY 052300Z 08003KT 040V140 9999 FEW070 20/12 Q1009,RJSY,2023-06-05T23:00:00Z,38.82,139.78,20.0,12.0,80,3,,6.21,29.793306,,,,,,,,,,,FEW,7000,,,,,,,VFR,,,,,,,,,,,,METAR,17.0
RJSS 052300Z 18006KT CAVOK 21/13 Q1009,RJSS,2023-06-05T23:00:00Z,38.13,140.92,21.0,13.0,180,6,,6.21,29.793306,,,,,,,,,,,CAVOK,,,,,,,,VFR,,,,,,,,,,,,METAR,5.0
RJSR 052300Z VRB02KT 9999 FEW030 BKN/// 17/12 Q1009,RJSR,2023-06-05T23:00:00Z,40.18,140.37,17.0,12.0,0,2,,6.21,29.793306,,,,,,,,,,,FEW,3000,,,,,,,VFR,,,,,,,,,,,,METAR,83.0
RJSN 052300Z 18010KT CAVOK 22/11 Q1009,RJSN,2023-06-05T23:00:00Z,37.95,139.12,22.0,11.0,180,10,,6.21,29.793306,,,,,,,,,,,CAVOK,,,,,,,,VFR,,,,,,,,,,,,METAR,4.0
RJSM 052300Z 21013KT 9999 FEW030 BKN230 22/08 Q1007,RJSM,2023-06-05T23:00:00Z,40.7,141.37,22.0,8.0,210,13,,6.21,29.734253,,,,,,,,,,,FEW,3000,BKN,23000,,,,,VFR,,,,,,,,,,,,METAR,31.0
RJSK 052300Z 14004KT 100V180 9999 FEW030 SCT/// 18/12 Q1009,RJSK,2023-06-05T23:00:00Z,39.62,140.22,18.0,12.0,140,4,,6.21,29.793306,,,,,,,,,,,FEW,3000,,,,,,,VFR,,,,,,,,,,,,METAR,95.0
RJSI 052300Z VRB02KT 9999 FEW050 SCT/// 17/11 Q1009,RJSI,2023-06-05T23:00:00Z,39.42,141.13,17.0,11.0,0,2,,6.21,29.793306,,,,,,,,,,,FEW,5000,,,,,,,VFR,,,,,,,,,,,,METAR,89.0
RJSF 052300Z 24003KT 220V280 CAVOK 19/13 Q1011,RJSF,2023-06-05T23:00:00Z,37.22,140.42,19.0,13.0,240,3,,6.21,29.852362,,,,,,,,,,,CAVOK,,,,,,,,VFR,,,,,,,,,,,,METAR,373.0
RJSC 052300Z 18003KT 130V220 9999 FEW070 BKN/// 18/14 Q1010,RJSC,2023-06-05T23:00:00Z,38.42,140.37,18.0,14.0,180,3,,6.21,29.822834,,,,,,,,,,,FEW,7000,,,,,,,VFR,,,,,,,,,,,,SPECI,104.0
RJSA 052300Z 21016KT 9999 FEW030 BKN/// 21/11 Q1007,RJSA,2023-06-05T23:00:00Z,40.72,140.68,21.0,11.0,210,16,,6.21,29.734253,,,,,,,,,,,FEW,3000,,,,,,,VFR,,,,,,,,,,,,METAR,196.0
RJOY 052300Z 14004KT 060V170 CAVOK 21/13 Q1009,RJOY,2023-06-05T23:00:00Z,34.6,135.6,21.0,13.0,140,4,,6.21,29.793306,,,,,,,,,,,CAVOK,,,,,,,,VFR,,,,,,,,,,,,METAR,10.0
RJOW 052300Z 16010KT 9999 FEW050 BKN090 19/15 Q1009,RJOW,2023-06-05T23:00:00Z,34.67,131.8,19.0,15.0,160,10,,6.21,29.793306,,,,,,,,,,,FEW,5000,BKN,9000,,,,,VFR,,,,,,,,,,,,METAR,54.0
RJOT 052300Z 16003KT 140V200 9999 FEW035 SCT090 BKN110 19/14 Q1010,RJOT,2023-06-05T23:00:00Z,34.22,134.02,19.0,14.0,160,3,,6.21,29.822834,,,,,,,,,,,FEW,3500,SCT,9000,BKN,11000,,,VFR,,,,,,,,,,,,METAR,181.0
RJOS 052300Z 12004KT 9999 VCSH FEW030 OVC100 20/16 Q1009,RJOS,2023-06-05T23:00:00Z,34.12,134.62,20.0,16.0,120,4,,6.21,29.793306,,,,,,,,,,VCSH,FEW,3000,OVC,10000,,,,,VFR,,,,,,,,,,,,METAR,3.0
RJOR 052300Z 14007KT 9999 FEW060 SCT150 OVC180 20/14 Q1008,RJOR,2023-06-05T23:00:00Z,35.52,134.17,20.0,14.0,140,7,,6.21,29.763779,,,,,,,,,,,FEW,6000,SCT,15000,OVC,18000,,,VFR,,,,,,,,,,,,METAR,11.0
RJOO 052300Z 31003KT 9999 FEW030 SCT100 BKN120 20/14 Q1009,RJOO,2023-06-05T23:00:00Z,34.78,135.43,20.0,14.0,310,3,,6.21,29.793306,,,,,,,,,,,FEW,3000,SCT,10000,BKN,12000,,,VFR,,,,,,,,,,,,METAR,11.0
RJOM 052300Z 14004KT 9999 -RA FEW003 BKN080 OVC100 18/17 Q1010,RJOM,2023-06-05T23:00:00Z,33.82,132.68,18.0,17.0,140,4,,6.21,29.822834,,,,,,,,,,-RA,FEW,300,BKN,8000,OVC,10000,,,VFR,,,,,,,,,,,,METAR,3.0
RJOK 052300Z 36004KT 9999 -RA FEW005 SCT060 BKN080 18/17 Q1011,RJOK,2023-06-05T23:00:00Z,33.53,133.67,18.0,17.0,360,4,,6.21,29.852362,,,,,,,,,,-RA,FEW,500,SCT,6000,BKN,8000,,,VFR,,,,,,,,,,,,METAR,7.0
RJOH 052300Z 20003KT 9999 FEW030 SCT150 BKN200 20/17 Q1008,RJOH,2023-06-05T23:00:00Z,35.48,133.25,20.0,17.0,200,3,,6.21,29.763779,,,,,,,,,,,FEW,3000,SCT,15000,BKN,20000,,,VFR,,,,,,,,,,,,METAR,6.0
RJOC 052300Z 32004KT 270V030 CAVOK 21/15 Q1008,RJOC,2023-06-05T23:00:00Z,35.42,132.88,21.0,15.0,320,4,,6.21,29.763779,,,,,,,,,,,CAVOK,,,,,,,,VFR,,,,,,,,,,,,METAR,2.0
RJOB 052300Z VRB01KT 9999 FEW020 SCT100 BKN120 18/15 Q1010,RJOB,2023-06-05T23:00:00Z,34.75,133.85,18.0,15.0,0,1,,6.21,29.822834,,,,,,,,,,,FEW,2000,SCT,10000,BKN,12000,,,VFR,,,,,,,,,,,,METAR,242.0
RJOA 052300Z 23004KT 170V290 9999 FEW020 BKN090 BKN110 18/14 Q1010,RJOA,2023-06-05T23:00:00Z,34.43,132.92,18.0,14.0,230,4,,6.21,29.822834,,,,,,,,,,,FEW,2000,BKN,9000,BKN,11000,,,VFR,,,,,,,,,,,,METAR,318.0
RJNW 052300Z 24006KT CAVOK 22/15 Q1009,RJNW,2023-06-05T23:00:00Z,37.3,136.97,22.0,15.0,240,6,,6.21,29.793306,,,,,,,,,,,CAVOK,,,,,,,,VFR,,,,,,,,,,,,METAR,222.0
RJNT 052300Z 17005KT 100V200 9999 FEW100 BKN/// 22/11 Q1008,RJNT,2023-06-05T23:00:00Z,36.63,137.18,22.0,11.0,170,5,,6.21,29.763779,,,,,,,,,,,FEW,10000,,,,,,,VFR,,,,,,,,,,,,METAR,30.0
RJNS 052300Z VRB01KT 9999 FEW030 SCT130 BKN150 20/15 Q1011,RJNS,2023-06-05T23:00:00Z,34.8,138.18,20.0,15.0,0,1,,6.21,29.852362,,,,,,,,,,,FEW,3000,SCT,13000,BKN,15000,,,VFR,,,,,,,,,,,,METAR,133.0
RJNK 052300Z 15004KT 9999 FEW060 BKN280 21/14 Q1008,RJNK,2023-06-05T23:00:00Z,36.38,136.42,21.0,14.0,150,4,,6.21,29.763779,,,,,,,,,,,FEW,6000,BKN,28000,,,,,VFR,,,,,,,,,,,,METAR,7.0
RJKI 052300Z AUTO 21009KT 9999 SCT011 BKN015 BKN017 26/23 Q1009,RJKI,2023-06-05T23:00:00Z,28.32,129.92,26.0,23.0,210,9,,6.21,29.793306,,,TRUE,,,,,,,,SCT,1100,BKN,1500,BKN,1700,,,MVFR,,,,,,,,,,,,METAR,6.0
RJKA 052300Z 20016KT 9999 FEW015 SCT/// 26/23 Q1009,RJKA,2023-06-05T23:00:00Z,28.42,129.72,26.0,23.0,200,16,,6.21,29.793306,,,,,,,,,,,FEW,1500,,,,,,,VFR,,,,,,,,,,,,SPECI,7.0
RJFU 052300Z 11007KT 3500 R32/1900U SHRA BR FEW005 SCT010 BKN015 17/17 Q1008,RJFU,2023-06-05T23:00:00Z,32.92,129.92,17.0,17.0,110,7,,2.17,29.763779,,,,,,,,,,SHRA BR,FEW,500,SCT,1000,BKN,1500,,,IFR,,,,,,,,,,,,METAR,2.0
RJFT 052300Z 09004KT 050V110 3500 RA BR BCFG FEW001 SCT060 BKN080 16/15 Q1009,RJFT,2023-06-05T23:00:00Z,32.83,130.85,16.0,15.0,90,4,,2.17,29.793306,,,,,,,,,,RA BR BCFG,FEW,100,SCT,6000,BKN,8000,,,IFR,,,,,,,,,,,,METAR,188.0
RJFS 052300Z 11005KT 4000 SHRA BR FEW005 SCT010 BKN013 17/17 Q1009,RJFS,2023-06-05T23:00:00Z,33.15,130.3,17.0,17.0,110,5,,2.49,29.793306,,,,,,,,,,SHRA BR,FEW,500,SCT,1000,BKN,1300,,,IFR,,,,,,,,,,,,METAR,2.0
RJFR 052300Z 17006KT 9999 -RA FEW010 SCT050 OVC070 18/17 Q1009,RJFR,2023-06-05T23:00:00Z,33.83,131.03,18.0,17.0,170,6,,6.21,29.793306,,,,,,,,,,-RA,FEW,1000,SCT,5000,OVC,7000,,,VFR,,,,,,,,,,,,METAR,9.0
RJFO 052300Z VRB02KT 7000 -RA FEW005 SCT030 BKN050 18/16 Q1010,RJFO,2023-06-05T23:00:00Z,33.47,131.73,18.0,16.0,0,2,,4.35,29.822834,,,,,,,,,,-RA,FEW,500,SCT,3000,BKN,5000,,,MVFR,,,,,,,,,,,,METAR,3.0
RJFM 052300Z 33003KT 290V360 4500 SHRA BR FEW005 SCT010 BKN035 17/16 Q1010,RJFM,2023-06-05T23:00:00Z,31.87,131.43,17.0,16.0,330,3,,2.8,29.822834,,,,,,,,,,SHRA BR,FEW,500,SCT,1000,BKN,3500,,,IFR,,,,,,,,,,,,METAR,10.0
RJFK 052300Z 10007KT 3500 SHRA BR BCFG FEW002 SCT015 BKN030 15/15 Q1009,RJFK,2023-06-05T23:00:00Z,31.8,130.72,15.0,15.0,100,7,,2.17,29.793306,,,,,,,,,,SHRA BR BCFG,FEW,200,SCT,1500,BKN,3000,,,IFR,,,,,,,,,,,,METAR,271.0
RJFE 052300Z 10009KT 050V160 7000 -SHRA FEW003 SCT005 BKN008 18/17 Q1006,RJFE,2023-06-05T23:00:00Z,32.67,128.82,18.0,17.0,100,9,,4.35,29.704725,,,,,,,,,,-SHRA,FEW,300,SCT,500,BKN,800,,,IFR,,,,,,,,,,,,METAR,80.0
RJEC 052300Z 16009KT 9999 FEW030 SCT090 16/12 Q1005,RJEC,2023-06-05T23:00:00Z,43.67,142.43,16.0,12.0,160,9,,6.21,29.675198,,,,,,,,,,,FEW,3000,SCT,9000,,,,,VFR,,,,,,,,,,,,METAR,209.0
RJDT 052300Z 07003KT 5000 SHRA BR FEW001 BKN008 BKN010 17/16 Q1008,RJDT,2023-06-05T23:00:00Z,34.28,129.32,17.0,16.0,70,3,,3.11,29.763779,,,,,,,,,,SHRA BR,FEW,100,BKN,800,BKN,1000,,,IFR,,,,,,,,,,,,METAR,61.0
RJDC 052300Z 12004KT 9999 -RA FEW008 BKN050 BKN070 18/16 Q1009,RJDC,2023-06-05T23:00:00Z,33.92,131.27,18.0,16.0,120,4,,6.21,29.793306,,,,,,,,,,-RA,FEW,800,BKN,5000,BKN,7000,,,VFR,,,,,,,,,,,,METAR,5.0
RJDB 052300Z AUTO 11008KT 080V170 7000 -RA SCT005 BKN007 OVC070 17/17 Q1008,RJDB,2023-06-05T23:00:00Z,33.75,129.78,17.0,17.0,110,8,,4.35,29.763779,,,TRUE,,,,,,,-RA,SCT,500,BKN,700,OVC,7000,,,IFR,,,,,,,,,,,,METAR,13.0
RJCM 052300Z VRB02KT CAVOK 17/12 Q1006,RJCM,2023-06-05T23:00:00Z,43.88,144.17,17.0,12.0,0,2,,6.21,29.704725,,,,,,,,,,,CAVOK,,,,,,,,VFR,,,,,,,,,,,,METAR,30.0
RJCK 052300Z 19004KT 9999 FEW040 BKN140 14/10 Q1007,RJCK,2023-06-05T23:00:00Z,43.03,144.18,14.0,10.0,190,4,,6.21,29.734253,,,,,,,,,,,FEW,4000,BKN,14000,,,,,VFR,,,,,,,,,,,,METAR,94.0
RJCH 052300Z 20006KT 170V230 9999 FEW025 BKN050 18/14 Q1007,RJCH,2023-06-05T23:00:00Z,41.77,140.82,18.0,14.0,200,6,,6.21,29.734253,,,,,,,,,,,FEW,2500,BKN,5000,,,,,VFR,,,,,,,,,,,,METAR,36.0
RJCB 052300Z VRB02KT 9999 FEW040 BKN130 15/11 Q1006,RJCB,2023-06-05T23:00:00Z,42.72,143.22,15.0,11.0,0,2,,6.21,29.704725,,,,,,,,,,,FEW,4000,BKN,13000,,,,,VFR,,,,,,,,,,,,METAR,149.0
RJBE 052300Z VRB01KT 9999 FEW030 SCT120 BKN170 20/17 Q1009,RJBE,2023-06-05T23:00:00Z,34.63,135.23,20.0,17.0,0,1,,6.21,29.793306,,,,,,,,,,,FEW,3000,SCT,12000,BKN,17000,,,VFR,,,,,,,,,,,,METAR,5.0
RJBD 052300Z VRB02KT 9999 -RA FEW006 SCT090 BKN120 19/14 Q1011,RJBD,2023-06-05T23:00:00Z,33.67,135.37,19.0,14.0,0,2,,6.21,29.852362,,,,,,,,,,-RA,FEW,600,SCT,9000,BKN,12000,,,VFR,,,,,,,,,,,,METAR,91.0
RJAW 052300Z 18009KT 150V210 9999 FEW015 28/24 Q1014 RMK 2CU015 A2995 WIND BY EQPT/25,RJAW,2023-06-05T23:00:00Z,24.78,141.32,28.0,24.0,180,9,,6.21,29.940945,,,,,,,,,,,FEW,1500,,,,,,,VFR,,,,,,,,,,,,METAR,116.0
OTHH 052300Z 12003KT CAVOK 30/22 Q1003 NOSIG,OTHH,2023-06-05T23:00:00Z,25.27,51.6,30.0,22.0,120,3,,6.21,29.616142,,,,,,TRUE,,,,,CAVOK,,,,,,,,VFR,,,,,,,,,,,,METAR,3.0
ORSU 052300Z 31005KT CAVOK 18/07 Q1013,ORSU,2023-06-05T23:00:00Z,35.57,45.32,18.0,7.0,310,5,,6.21,29.911417,,,,,,,,,,,CAVOK,,,,,,,,VFR,,,,,,,,,,,,METAR,760.0
OJAQ 052300Z 01007KT 8000 NSC 26/09 Q1010 NOSIG,OJAQ,2023-06-05T23:00:00Z,29.62,35.02,26.0,9.0,10,7,,4.97,29.822834,,,,,,TRUE,,,,,CLR,,,,,,,,MVFR,,,,,,,,,,,,METAR,45.0
OJAM 052300Z 00000KT 8000 NSC 19/05 Q1014 NOSIG,OJAM,2023-06-05T23:00:00Z,31.98,35.98,19.0,5.0,0,0,,4.97,29.940945,,,,,,TRUE,,,,,CLR,,,,,,,,MVFR,,,,,,,,,,,,METAR,765.0
OIZH 052300Z 00000KT CAVOK 24/02 Q1016 A3000,OIZH,2023-06-05T23:00:00Z,29.47,60.92,24.0,2.0,0,0,,6.21,30.0,,,,,,,,,,,CAVOK,,,,,,,,VFR,,,,,,,,,,,,METAR,1378.0
OIYY 052300Z 14004KT 7000 FEW040 SCT200 30/05 Q1013,OIYY,2023-06-05T23:00:00Z,31.9,54.28,30.0,5.0,140,4,,4.35,29.911417,,,,,,,,,,,FEW,4000,SCT,20000,,,,,MVFR,,,,,,,,,,,,METAR,1226.0
OITR 052300Z 25006KT CAVOK 16/03 Q1014 A2994,OITR,2023-06-05T23:00:00Z,37.67,45.07,16.0,3.0,250,6,,6.21,29.940945,,,,,,,,,,,CAVOK,,,,,,,,VFR,,,,,,,,,,,,METAR,1312.0
OISY 052300Z 00000KT CAVOK 17/03 Q1022,OISY,2023-06-05T23:00:00Z,30.7,51.55,17.0,3.0,0,0,,6.21,30.177166,,,,,,,,,,,CAVOK,,,,,,,,VFR,,,,,,,,,,,,METAR,1800.0
OINN 052300Z 29004KT 9999 SCT032 BKN090 24/22 Q1009,OINN,2023-06-05T23:00:00Z,36.67,51.47,24.0,22.0,290,4,,6.21,29.793306,,,,,,,,,,,SCT,3200,BKN,9000,,,,,VFR,,,,,,,,,,,,METAR,-25.0
OING 052300Z 00000KT 9999 FEW035 BKN190 25/20 Q1010,OING,2023-06-05T23:00:00Z,36.9,54.4,25.0,20.0,0,0,,6.21,29.822834,,,,,,,,,,,FEW,3500,BKN,19000,,,,,VFR,,,,,,,,,,,,METAR,0.0
OIMN 052300Z VRB02KT CAVOK 17/04 Q1015,OIMN,2023-06-05T23:00:00Z,37.48,57.3,17.0,4.0,0,2,,6.21,29.970472,,,,,,,,,,,CAVOK,,,,,,,,VFR,,,,,,,,,,,,METAR,1065.0
OIMB 052300Z 11004KT 9999 FEW040 21/M03 Q1016 A3002,OIMB,2023-06-05T23:00:00Z,32.9,59.28,21.0,-3.0,110,4,,6.21,30.0,,,,,,,,,,,FEW,4000,,,,,,,VFR,,,,,,,,,,,,METAR,1512.0
OIKQ 052300Z 00000KT 6000 NSC 29/24 Q1002,OIKQ,2023-06-05T23:00:00Z,26.75,55.9,29.0,24.0,0,0,,3.73,29.586615,,,,,,,,,,,CLR,,,,,,,,MVFR,,,,,,,,,,,,METAR,9.0
OIKK 052300Z 00000KT 9999 FEW040 SCT100 18/05 Q1018 A3009,OIKK,2023-06-05T23:00:00Z,30.25,56.97,18.0,5.0,0,0,,6.21,30.059055,,,,,,,,,,,FEW,4000,SCT,10000,,,,,VFR,,,,,,,,,,,,METAR,1749.0
OIKB 052300Z 33004KT 5000 HZ NSC 30/24 Q1003 A2963,OIKB,2023-06-05T23:00:00Z,27.22,56.37,30.0,24.0,330,4,,3.11,29.616142,,,,,,,,,,HZ,CLR,,,,,,,,MVFR,,,,,,,,,,,,METAR,6.0
OIIP 052300Z 00000KT 9999 BKN040 21/11 Q1014 A2996,OIIP,2023-06-05T23:00:00Z,35.78,50.83,21.0,11.0,0,0,,6.21,29.940945,,,,,,,,,,,BKN,4000,,,,,,,VFR,,,,,,,,,,,,METAR,1270.0
OIIK 052300Z 36002KT CAVOK 18/11 Q1016,OIIK,2023-06-05T23:00:00Z,36.25,50.05,18.0,11.0,360,2,,6.21,30.0,,,,,,,,,,,CAVOK,,,,,,,,VFR,,,,,,,,,,,,METAR,1278.0
OIIE 052300Z 00000KT CAVOK 27/07 Q1013,OIIE,2023-06-05T23:00:00Z,35.42,51.15,27.0,7.0,0,0,,6.21,29.911417,,,,,,,,,,,CAVOK,,,,,,,,VFR,,,,,,,,,,,,METAR,993.0
OIFS 052300Z 35002KT CAVOK 11/01 Q1022,OIFS,2023-06-05T23:00:00Z,32.28,50.85,11.0,1.0,350,2,,6.21,30.177166,,,,,,,,,,,CAVOK,,,,,,,,VFR,,,,,,,,,,,,METAR,2042.0
OICC 052300Z 06004KT CAVOK 17/03 Q1016 A3001,OICC,2023-06-05T23:00:00Z,34.35,47.17,17.0,3.0,60,4,,6.21,30.0,,,,,,,,,,,CAVOK,,,,,,,,VFR,,,,,,,,,,,,METAR,1310.0
OIBK 052300Z 34004KT 7000 NSC 31/20 Q1002,OIBK,2023-06-05T23:00:00Z,26.53,53.98,31.0,20.0,340,4,,4.35,29.586615,,,,,,,,,,,CLR,,,,,,,,MVFR,,,,,,,,,,,,METAR,27.0
OIBJ 052300Z AUTO 00000KT //// // ////// 26/08 Q////,OIBJ,2023-06-05T23:00:00Z,27.82,52.35,26.0,8.0,0,0,,,,,,TRUE,,,,,,,,,,,,,,,,,,,,,,,,,,,,METAR,647.0
OIAM 052300Z 11006KT CAVOK 32/15 Q1003,OIAM,2023-06-05T23:00:00Z,30.55,49.15,32.0,15.0,110,6,,6.21,29.616142,,,,,,,,,,,CAVOK,,,,,,,,VFR,,,,,,,,,,,,METAR,7.0
OIAA 052300Z 31008KT CAVOK 33/08 Q1004,OIAA,2023-06-05T23:00:00Z,30.35,48.22,33.0,8.0,310,8,,6.21,29.64567,,,,,,,,,,,CAVOK,,,,,,,,VFR,,,,,,,,,,,,METAR,4.0
OEYN 052300Z 11004KT CAVOK 32/22 Q1003 NOSIG,OEYN,2023-06-05T23:00:00Z,24.13,38.07,32.0,22.0,110,4,,6.21,29.616142,,,,,,TRUE,,,,,CAVOK,,,,,,,,VFR,,,,,,,,,,,,METAR,20.0
OEWJ 052300Z 31008KT CAVOK 28/25 Q1006 NOSIG,OEWJ,2023-06-05T23:00:00Z,26.18,36.47,28.0,25.0,310,8,,6.21,29.704725,,,,,,TRUE,,,,,CAVOK,,,,,,,,VFR,,,,,,,,,,,,METAR,8.0
OEWD 052300Z 17004KT CAVOK 31/03 Q1009,OEWD,2023-06-05T23:00:00Z,20.5,45.2,31.0,3.0,170,4,,6.21,29.793306,,,,,,,,,,,CAVOK,,,,,,,,VFR,,,,,,,,,,,,METAR,629.0
OETR 052300Z 31006KT 9999 FEW040 24/02 Q1012 NOSIG,OETR,2023-06-05T23:00:00Z,31.7,38.73,24.0,2.0,310,6,,6.21,29.88189,,,,,,TRUE,,,,,FEW,4000,,,,,,,VFR,,,,,,,,,,,,METAR,854.0
OETF 052300Z 00000KT 9999 SCT030 22/16 Q1020 NOSIG,OETF,2023-06-05T23:00:00Z,21.47,40.53,22.0,16.0,0,0,,6.21,30.11811,,,,,,TRUE,,,,,SCT,3000,,,,,,,VFR,,,,,,,,,,,,METAR,1460.0
OETB 052300Z 03004KT 8000 FEW040 27/01 Q1013 NOSIG,OETB,2023-06-05T23:00:00Z,28.37,36.62,27.0,1.0,30,4,,4.97,29.911417,,,,,,TRUE,,,,,FEW,4000,,,,,,,MVFR,,,,,,,,,,,,METAR,770.0
OESK 052300Z 14006KT CAVOK 26/12 Q1014 NOSIG,OESK,2023-06-05T23:00:00Z,29.78,40.1,26.0,12.0,140,6,,6.21,29.940945,,,,,,TRUE,,,,,CAVOK,,,,,,,,VFR,,,,,,,,,,,,METAR,671.0
OESH 052300Z 00000KT CAVOK 29/01 Q1010 NOSIG,OESH,2023-06-05T23:00:00Z,17.47,47.12,29.0,1.0,0,0,,6.21,29.822834,,,,,,TRUE,,,,,CAVOK,,,,,,,,VFR,,,,,,,,,,,,METAR,720.0
OERR 052300Z 16007KT 9999 SCT030 25/14 Q1010 NOSIG,OERR,2023-06-05T23:00:00Z,30.9,41.13,25.0,14.0,160,7,,6.21,29.822834,,,,,,TRUE,,,,,SCT,3000,,,,,,,VFR,,,,,,,,,,,,METAR,554.0
OERF 052300Z 28004KT 9999 BKN040 28/10 Q1011 NOSIG,OERF,2023-06-05T23:00:00Z,29.62,43.48,28.0,10.0,280,4,,6.21,29.852362,,,,,,TRUE,,,,,BKN,4000,,,,,,,VFR,,,,,,,,,,,,METAR,441.0
OEPA 052300Z 36006KT CAVOK 30/05 Q1009 NOSIG,OEPA,2023-06-05T23:00:00Z,28.33,46.12,30.0,5.0,360,6,,6.21,29.793306,,,,,,TRUE,,,,,CAVOK,,,,,,,,VFR,,,,,,,,,,,,METAR,361.0
OENG 052300Z 27002KT CAVOK 26/06 Q1015 NOSIG,OENG,2023-06-05T23:00:00Z,17.62,44.42,26.0,6.0,270,2,,6.21,29.970472,,,,,,TRUE,,,,,CAVOK,,,,,,,,VFR,,,,,,,,,,,,METAR,1210.0
OEMN 052300Z 00000KT CAVOK 34/17 Q1009,OEMN,2023-06-05T23:00:00Z,,,34.0,17.0,0,0,,6.21,29.793306,,,,,,,,,,,CAVOK,,,,,,,,VFR,,,,,,,,,,,,METAR,
OEKM 052300Z 00000KT CAVOK 20/14 Q1023 NOSIG,OEKM,2023-06-05T23:00:00Z,18.3,42.78,20.0,14.0,0,0,,6.21,30.206694,,,,,,TRUE,,,,,CAVOK,,,,,,,,VFR,,,,,,,,,,,,METAR,2038.0
OEKJ 052300Z 02002KT CAVOK 30/01 Q1011,OEKJ,2023-06-05T23:00:00Z,24.07,47.58,30.0,1.0,20,2,,6.21,29.852362,,,,,,,,,,,CAVOK,,,,,,,,VFR,,,,,,,,,,,,METAR,487.0
OEHL 052300Z 06004KT CAVOK 22/17 Q1015,OEHL,2023-06-05T23:00:00Z,27.43,41.68,22.0,17.0,60,4,,6.21,29.970472,,,,,,,,,,,CAVOK,,,,,,,,VFR,,,,,,,,,,,,METAR,1002.0
OEGT 052300Z 34004KT CAVOK 20/05 Q1011 NOSIG,OEGT,2023-06-05T23:00:00Z,31.42,37.27,20.0,5.0,340,4,,6.21,29.852362,,,,,,TRUE,,,,,CAVOK,,,,,,,,VFR,,,,,,,,,,,,METAR,512.0
OEGS 052300Z 31010KT 9999 SCT040 29/11 Q1011,OEGS,2023-06-05T23:00:00Z,26.3,43.77,29.0,11.0,310,10,,6.21,29.852362,,,,,,,,,,,SCT,4000,,,,,,,VFR,,,,,,,,,,,,METAR,647.0
OEGN 052300Z 01003KT 9000 NSC 32/26 Q1006 NOSIG,OEGN,2023-06-05T23:00:00Z,16.9,42.58,32.0,26.0,10,3,,5.59,29.704725,,,,,,TRUE,,,,,CLR,,,,,,,,VFR,,,,,,,,,,,,METAR,5.0
OEDR 052300Z VRB02KT CAVOK 27/27 Q1003,OEDR,2023-06-05T23:00:00Z,26.27,50.17,27.0,27.0,0,2,,6.21,29.616142,,,,,,,,,,,CAVOK,,,,,,,,VFR,,,,,,,,,,,,METAR,17.0
OEDM 052300Z 33020KT 6000 SCT040 27/11 Q1013 NOSIG,OEDM,2023-06-05T23:00:00Z,24.45,44.12,27.0,11.0,330,20,,3.73,29.911417,,,,,,TRUE,,,,,SCT,4000,,,,,,,MVFR,,,,,,,,,,,,METAR,922.0
OEBH 052300Z 32004KT CAVOK 28/19 Q1014 NOSIG,OEBH,2023-06-05T23:00:00Z,19.98,42.62,28.0,19.0,320,4,,6.21,29.940945,,,,,,TRUE,,,,,CAVOK,,,,,,,,VFR,,,,,,,,,,,,METAR,1167.0
OEBA 052300Z 34004KT 9999 FEW030 24/12 Q1019 NOSIG,OEBA,2023-06-05T23:00:00Z,20.3,41.63,24.0,12.0,340,4,,6.21,30.088583,,,,,,TRUE,,,,,FEW,3000,,,,,,,VFR,,,,,,,,,,,,METAR,1659.0
OEAO 052300Z 00000KT CAVOK 28/14 Q1011 NOSIG,OEAO,2023-06-05T23:00:00Z,26.48,38.12,28.0,14.0,0,0,,6.21,29.852362,,,,,,TRUE,,,,,CAVOK,,,,,,,,VFR,,,,,,,,,,,,METAR,615.0
OEAH 052300Z 30003KT CAVOK 30/10 Q1004 NOSIG,OEAH,2023-06-05T23:00:00Z,25.28,49.48,30.0,10.0,300,3,,6.21,29.64567,,,,,,TRUE,,,,,CAVOK,,,,,,,,VFR,,,,,,,,,,,,METAR,180.0
NFNL 052300Z 03004KT 9999 SCT030 29/21 Q1014,NFNL,2023-06-05T23:00:00Z,-16.47,179.33,29.0,21.0,30,4,,6.21,29.940945,,,,,,,,,,,SCT,3000,,,,,,,VFR,,,,,,,,,,,,METAR,17.0
MPPA 052300Z 17002KT 9999 FEW015 29/25 Q1008,MPPA,2023-06-05T23:00:00Z,8.92,-79.6,29.0,25.0,170,2,,6.21,29.763779,,,,,,,,,,,FEW,1500,,,,,,,VFR,,,,,,,,,,,,METAR,1.0
MPDA 052300Z 22005KT 200V260 9999 SCT017CB SCT100 29/24 Q1009,MPDA,2023-06-05T23:00:00Z,8.4,-82.43,29.0,24.0,220,5,,6.21,29.793306,,,,,,,,,,,SCT,1700,SCT,10000,,,,,VFR,,,,,,,,,,,,METAR,15.0
MPBO 052300Z 26007KT 9999 SCT016 OVC080 28/27 Q1009,MPBO,2023-06-05T23:00:00Z,9.35,-82.25,28.0,27.0,260,7,,6.21,29.793306,,,,,,,,,,,SCT,1600,OVC,8000,,,,,VFR,,,,,,,,,,,,METAR,2.0
MNRS 052300Z 00000KT 9999 FEW012CB BKN060 30/26 Q1009 CB/N/NE/E/SE/S,MNRS,2023-06-05T23:00:00Z,11.42,-85.82,30.0,26.0,0,0,,6.21,29.793306,,,,,,,,,,,FEW,1200,BKN,6000,,,,,VFR,,,,,,,,,,,,METAR,53.0
MNPC 052300Z 09004KT 6000 VCRA FEW014CB SCT016 31/26 Q1007 CBRA/SE/NW,MNPC,2023-06-05T23:00:00Z,14.05,-83.38,31.0,26.0,90,4,,3.73,29.734253,,,,,,,,,,VCRA RA,FEW,1400,SCT,1600,,,,,MVFR,,,,,,,,,,,,METAR,10.0
MNMG 052300Z 00000KT 9999 FEW021 SCT023 31/25 Q1007 A2976 NOSIG,MNMG,2023-06-05T23:00:00Z,12.15,-86.17,31.0,25.0,0,0,,6.21,29.734253,,,,,,TRUE,,,,,FEW,2100,SCT,2300,,,,,VFR,,,,,,,,,,,,METAR,59.0
MNJU 052300Z 18004KT 9999 SCT020 SCT080 31/24 Q1008,MNJU,2023-06-05T23:00:00Z,12.08,-85.37,31.0,24.0,180,4,,6.21,29.763779,,,,,,,,,,,SCT,2000,SCT,8000,,,,,VFR,,,,,,,,,,,,METAR,85.0
MNJG 052300Z 00000KT 3000 -DZ OVC008 26/24 Q1009,MNJG,2023-06-05T23:00:00Z,13.13,-86.02,26.0,24.0,0,0,,1.86,29.793306,,,,,,,,,,-DZ,OVC,800,,,,,,,IFR,,,,,,,,,,,,METAR,981.0
MNCH 052300Z 19004KT 9999 FEW025 SCT300 30/26 Q1008,MNCH,2023-06-05T23:00:00Z,12.63,-87.13,30.0,26.0,190,4,,6.21,29.763779,,,,,,,,,,,FEW,2500,SCT,30000,,,,,VFR,,,,,,,,,,,,METAR,70.0
MNBL 052300Z 00000KT 7000 -TS SCT015CB BKN020 28/26 Q1010 CBRA/4/C,MNBL,2023-06-05T23:00:00Z,12.0,-83.77,28.0,26.0,0,0,,4.35,29.822834,,,,,,,,,,-TS RA,SCT,1500,BKN,2000,,,,,MVFR,,,,,,,,,,,,METAR,10.0
MKJP 052300Z 15007KT 9999 FEW020CB 30/25 Q1011,MKJP,2023-06-05T23:00:00Z,17.93,-76.78,30.0,25.0,150,7,,6.21,29.852362,,,,,,,,,,,FEW,2000,,,,,,,VFR,,,,,,,,,,,,METAR,3.0
MHPL 052300Z 10010KT 9999 FEW025 FEW026CB 31/24 Q1008 RERA,MHPL,2023-06-05T23:00:00Z,15.27,-83.78,31.0,24.0,100,10,,6.21,29.763779,,,,,,,,,,,FEW,2500,FEW,2600,,,,,VFR,,,,,,,,,,,,METAR,13.0
MGZA 052300Z 00000KT CAVOK 34/16 QFE982/4 FEW100 OVC200,MGZA,2023-06-05T23:00:00Z,14.97,-89.53,34.0,16.0,0,0,,6.21,,,,,,,,,,,,FEW,10000,OVC,20000,,,,,VFR,,,,,,,,,,,,METAR,195.0
MGTU 052300Z 14004KT 9999 BKN018 SCT080 29/23,MGTU,2023-06-05T23:00:00Z,,,29.0,23.0,140,4,,6.21,,,,,,,,,,,,BKN,1800,SCT,8000,,,,,MVFR,,,,,,,,,,,,METAR,
MGRT 052300Z 15006KT 9999 FEW016 OVC200 30/22 Q1012 A2988 VOL. STA MARIA Y SANTIAGUITO EN ACTIVIDAD,MGRT,2023-06-05T23:00:00Z,14.53,-91.7,30.0,22.0,150,6,,6.21,29.88189,,,,,,,,,,SA,FEW,1600,OVC,20000,,,,,VFR,,,,,,,,,,,,METAR,209.0
MGQZ 052300Z 13004KT 8000 SCT022 BKN200 19/13 QFE772/1 HZ,MGQZ,2023-06-05T23:00:00Z,14.87,-91.5,19.0,13.0,130,4,,4.97,,,,,,,,,,,HZ,SCT,2200,BKN,20000,,,,,MVFR,,,,,,,,,,,,METAR,2378.0
MGPB 052300Z 00000KT CAVOK 33/21 Q1015 A2968 BKN200,MGPB,2023-06-05T23:00:00Z,15.73,-88.58,33.0,21.0,0,0,,6.21,29.970472,,,,,,,,,,,BKN,20000,,,,,,,VFR,,,,,,,,,,,,METAR,6.0
MGMT 052300Z 00000KT CAVOK 31/25 BKN200,MGMT,2023-06-05T23:00:00Z,,,31.0,25.0,0,0,,6.21,,,,,,,,,,,,BKN,20000,,,,,,,VFR,,,,,,,,,,,,METAR,
MGHT 052300Z 09006KT 9999 FEW025 FEW028CB OVC200 25/11 CB N,MGHT,2023-06-05T23:00:00Z,15.32,-91.5,25.0,11.0,90,6,,6.21,,,,,,,,,,,,FEW,2500,FEW,2800,OVC,20000,,,VFR,,,,,,,,,,,,METAR,1875.0
MGES 052300Z 00000KT 9999 FEW020 SCT090 OVC200 29/18 QFE907.2,MGES,2023-06-05T23:00:00Z,14.57,-89.32,29.0,18.0,0,0,,6.21,,,,,,,,,,,,FEW,2000,SCT,9000,OVC,20000,,,VFR,,,,,,,,,,,,METAR,948.0
MGCB 052300Z 00000KT 9999 TS BKN018 SCT024CB 20/17 QFE868.4 CB/TS/N/NW/SBR STN RERA,MGCB,2023-06-05T23:00:00Z,15.48,-90.42,20.0,17.0,0,0,,6.21,,,,,,,,,,,TS TS BR SS,BKN,1800,SCT,2400,,,,,MVFR,,,,,,,,,,,,METAR,1323.0
LPLA 052300Z /////KT 9999 FEW007 SCT015 BKN030 19/17 Q1008,LPLA,2023-06-05T23:00:00Z,38.77,-27.1,19.0,17.0,,,,6.21,29.763779,,,,,,,,,,,FEW,700,SCT,1500,BKN,3000,,,MVFR,,,,,,,,,,,,METAR,60.0
LPBJ 052300Z 27002KT CAVOK 21/12 Q1013,LPBJ,2023-06-05T23:00:00Z,38.08,-7.93,21.0,12.0,270,2,,6.21,29.911417,,,,,,,,,,,CAVOK,,,,,,,,VFR,,,,,,,,,,,,METAR,196.0
LKLN 052300Z AUTO 04004KT 350V070 9000 // OVC005 13/12 Q1018,LKLN,2023-06-05T23:00:00Z,49.68,13.27,13.0,12.0,40,4,,5.59,30.059055,,,TRUE,,,,,,,,OVC,500,,,,,,,IFR,,,,,,,,,,,,METAR,353.0
LKKB 052300Z 07007KT 6000 -RA BKN004 BKN015 14/14 Q1018,LKKB,2023-06-05T23:00:00Z,50.12,14.53,14.0,14.0,70,7,,3.73,30.059055,,,,,,,,,,-RA,BKN,400,BKN,1500,,,,,LIFR,,,,,,,,,,,,METAR,281.0
HKNW 052300Z 00000KT 9999 BKN020 17/14 Q1024,HKNW,2023-06-05T23:00:00Z,-1.32,36.82,17.0,14.0,0,0,,6.21,30.236221,,,,,,,,,,,BKN,2000,,,,,,,MVFR,,,,,,,,,,,,METAR,1666.0
HKNK 052300Z 00000KT CAVOK 15/10,HKNK,2023-06-05T23:00:00Z,-0.3,36.17,15.0,10.0,0,0,,6.21,,,,,,,,,,,,CAVOK,,,,,,,,VFR,,,,,,,,,,,,METAR,1900.0
HKLO 052300Z 09008KT CAVOK 29/16 Q1010,HKLO,2023-06-05T23:00:00Z,3.12,35.62,29.0,16.0,90,8,,6.21,29.822834,,,,,,,,,,,CAVOK,,,,,,,,VFR,,,,,,,,,,,,METAR,503.0
HKGO 052300Z AUTO 11007KT 13/13 Q1028 A30.36,HKGO,2023-06-05T23:00:00Z,,,13.0,13.0,110,7,,,30.35433,,,TRUE,,,,,,,,,,,,,,,,,,,,,,,,,,,,METAR,
HKEL 052300Z 17003KT 9999 FEW014 FEW017CB BKN080 15/12 Q1025,HKEL,2023-06-05T23:00:00Z,0.4,35.23,15.0,12.0,170,3,,6.21,30.265747,,,,,,,,,,,FEW,1400,FEW,1700,BKN,8000,,,VFR,,,,,,,,,,,,METAR,2116.0
HETR 052300Z 30011KT CAVOK 24/18 Q1007,HETR,2023-06-05T23:00:00Z,28.22,33.65,24.0,18.0,300,11,,6.21,29.734253,,,,,,,,,,,CAVOK,,,,,,,,VFR,,,,,,,,,,,,METAR,35.0
HESW 052300Z 06015KT CAVOK 25/10 Q1013,HESW,2023-06-05T23:00:00Z,29.35,25.5,25.0,10.0,60,15,,6.21,29.911417,,,,,,,,,,,CAVOK,,,,,,,,VFR,,,,,,,,,,,,METAR,101.0
HESN 052300Z 36004KT CAVOK 33/06 Q1008 NOSIG,HESN,2023-06-05T23:00:00Z,23.97,32.82,33.0,6.0,360,4,,6.21,29.763779,,,,,,TRUE,,,,,CAVOK,,,,,,,,VFR,,,,,,,,,,,,METAR,197.0
HESH 052300Z 36016KT CAVOK 29/16 Q1008 NOSIG,HESH,2023-06-05T23:00:00Z,27.97,34.38,29.0,16.0,360,16,,6.21,29.763779,,,,,,TRUE,,,,,CAVOK,,,,,,,,VFR,,,,,,,,,,,,METAR,50.0
HESG 052300Z 25008KT CAVOK 29/05 Q1008 NOSIG,HESG,2023-06-05T23:00:00Z,26.33,31.75,29.0,5.0,250,8,,6.21,29.763779,,,,,,TRUE,,,,,CAVOK,,,,,,,,VFR,,,,,,,,,,,,METAR,70.0
HEPS 052300Z 01004KT CAVOK 21/18 Q1013 NOSIG,HEPS,2023-06-05T23:00:00Z,31.28,32.25,21.0,18.0,10,4,,6.21,29.911417,,,,,,TRUE,,,,,CAVOK,,,,,,,,VFR,,,,,,,,,,,,METAR,2.0
HEMM 052300Z 05006KT CAVOK 20/16 Q1013 NOSIG,HEMM,2023-06-05T23:00:00Z,31.32,27.22,20.0,16.0,50,6,,6.21,29.911417,,,,,,TRUE,,,,,CAVOK,,,,,,,,VFR,,,,,,,,,,,,METAR,26.0
HEMA 052300Z 30008KT CAVOK 29/08 Q1008 NOSIG,HEMA,2023-06-05T23:00:00Z,25.55,34.58,29.0,8.0,300,8,,6.21,29.763779,,,,,,TRUE,,,,,CAVOK,,,,,,,,VFR,,,,,,,,,,,,METAR,77.0
HELX 052300Z 36002KT CAVOK 33/09 Q1007 NOSIG,HELX,2023-06-05T23:00:00Z,25.67,32.7,33.0,9.0,360,2,,6.21,29.734253,,,,,,TRUE,,,,,CAVOK,,,,,,,,VFR,,,,,,,,,,,,METAR,86.0
HEGN 052300Z 30014KT CAVOK 29/08 Q1010 NOSIG,HEGN,2023-06-05T23:00:00Z,27.18,33.8,29.0,8.0,300,14,,6.21,29.822834,,,,,,TRUE,,,,,CAVOK,,,,,,,,VFR,,,,,,,,,,,,METAR,14.0
HEBL 052300Z 01004KT CAVOK 32/11 Q1007 NOSIG,HEBL,2023-06-05T23:00:00Z,22.38,31.62,32.0,11.0,10,4,,6.21,29.734253,,,,,,TRUE,,,,,CAVOK,,,,,,,,VFR,,,,,,,,,,,,METAR,184.0
HEBA 052300Z 02004KT CAVOK 18/16 Q1014 NOSIG,HEBA,2023-06-05T23:00:00Z,30.92,29.7,18.0,16.0,20,4,,6.21,29.940945,,,,,,TRUE,,,,,CAVOK,,,,,,,,VFR,,,,,,,,,,,,METAR,41.0
HEAT 052300Z 31008KT CAVOK 27/08 Q1012 NOSIG,HEAT,2023-06-05T23:00:00Z,27.05,31.02,27.0,8.0,310,8,,6.21,29.88189,,,,,,TRUE,,,,,CAVOK,,,,,,,,VFR,,,,,,,,,,,,METAR,229.0
GVSV 052300Z 24003KT 9999 FEW018 SCT200 24/20 Q1015 NOSIG,GVSV,2023-06-05T23:00:00Z,16.83,-25.07,24.0,20.0,240,3,,6.21,29.970472,,,,,,TRUE,,,,,FEW,1800,SCT,20000,,,,,VFR,,,,,,,,,,,,METAR,16.0
GVNP 052300Z 06005KT CAVOK 23/20 Q1015 NOSIG,GVNP,2023-06-05T23:00:00Z,14.95,-23.48,23.0,20.0,60,5,,6.21,29.970472,,,,,,TRUE,,,,,CAVOK,,,,,,,,VFR,,,,,,,,,,,,METAR,70.0
GUCY 052300Z VRB02KT 9999 BKN015 BKN110 27/26 Q1014 NOSIG,GUCY,2023-06-05T23:00:00Z,9.57,-13.62,27.0,26.0,0,2,,6.21,29.940945,,,,,,TRUE,,,,,BKN,1500,BKN,11000,,,,,MVFR,,,,,,,,,,,,METAR,10.0
GOSS 052300Z 34008KT 290V020 CAVOK 24/23 Q1013,GOSS,2023-06-05T23:00:00Z,16.05,-16.45,24.0,23.0,340,8,,6.21,29.911417,,,,,,,,,,,CAVOK,,,,,,,,VFR,,,,,,,,,,,,METAR,3.0
GOSP 052300Z 28004KT CAVOK 30/20 Q1012,GOSP,2023-06-05T23:00:00Z,16.68,-14.97,30.0,20.0,280,4,,6.21,29.88189,,,,,,,,,,,CAVOK,,,,,,,,VFR,,,,,,,,,,,,METAR,10.0
GOSM 052300Z 00000KT CAVOK 35/13 Q1009,GOSM,2023-06-05T23:00:00Z,15.6,-13.33,35.0,13.0,0,0,,6.21,29.793306,,,,,,,,,,,CAVOK,,,,,,,,VFR,,,,,,,,,,,,METAR,28.0
GOOK 052300Z 32010KT CAVOK 30/22 Q1013,GOOK,2023-06-05T23:00:00Z,14.15,-16.07,30.0,22.0,320,10,,6.21,29.911417,,,,,,,,,,,CAVOK,,,,,,,,VFR,,,,,,,,,,,,METAR,8.0
GOOG 052300Z 28004KT CAVOK 33/17 Q1009,GOOG,2023-06-05T23:00:00Z,15.4,-15.08,33.0,17.0,280,4,,6.21,29.793306,,,,,,,,,,,CAVOK,,,,,,,,VFR,,,,,,,,,,,,METAR,38.0
GOOD 052300Z 34014KT CAVOK 28/18 Q1013,GOOD,2023-06-05T23:00:00Z,14.65,-16.22,28.0,18.0,340,14,,6.21,29.911417,,,,,,,,,,,CAVOK,,,,,,,,VFR,,,,,,,,,,,,METAR,9.0
GOGS 052300Z 30006KT CAVOK 27/24 Q1014,GOGS,2023-06-05T23:00:00Z,12.4,-16.75,27.0,24.0,300,6,,6.21,29.940945,,,,,,,,,,,CAVOK,,,,,,,,VFR,,,,,,,,,,,,METAR,13.0
GOGK 052300Z 22010KT CAVOK 32/21 Q1011,GOGK,2023-06-05T23:00:00Z,12.9,-14.97,32.0,21.0,220,10,,6.21,29.852362,,,,,,,,,,,CAVOK,,,,,,,,VFR,,,,,,,,,,,,METAR,37.0
GOGG 052300Z 00000KT CAVOK 27/25 Q1014,GOGG,2023-06-05T23:00:00Z,12.55,-16.27,27.0,25.0,0,0,,6.21,29.940945,,,,,,,,,,,CAVOK,,,,,,,,VFR,,,,,,,,,,,,METAR,24.0
GMMB 052300Z AUTO 05003KT 9999 FEW170/// 19/19 Q1012 NOSIG,GMMB,2023-06-05T23:00:00Z,33.65,-7.22,19.0,19.0,50,3,,6.21,29.88189,,,TRUE,,,TRUE,,,,,FEW,17000,,,,,,,VFR,,,,,,,,,,,,METAR,191.0
GGOV 052300Z 29005KT 240V340 8000 NSC 27/22 Q1013 NOSIG,GGOV,2023-06-05T23:00:00Z,11.88,-15.65,27.0,22.0,290,5,,4.97,29.911417,,,,,,TRUE,,,,,CLR,,,,,,,,MVFR,,,,,,,,,,,,METAR,31.0
GFLL 052300Z 06006KT 9999 BKN010 FEW027CB 25/22 Q1013 RMK CB-NE/SW,GFLL,2023-06-05T23:00:00Z,8.62,-13.18,25.0,22.0,60,6,,6.21,29.911417,,,,,,,,,,,BKN,1000,FEW,2700,,,,,MVFR,,,,,,,,,,,,SPECI,28.0
FZAA 052300Z 00000KT 7000 SCT016 25/22 Q1014 NOSIG,FZAA,2023-06-05T23:00:00Z,-4.38,15.45,25.0,22.0,0,0,,4.35,29.940945,,,,,,TRUE,,,,,SCT,1600,,,,,,,MVFR,,,,,,,,,,,,METAR,309.0
FYWW 052300Z AUTO 10005KT //// // ////// 13/M14 Q1024,FYWW,2023-06-05T23:00:00Z,-22.57,17.1,13.0,-14.0,100,5,,,30.236221,,,TRUE,,,,,,,,,,,,,,,,,,,,,,,,,,,,SPECI,1672.0
FYWB 052300Z AUTO 06004KT //// // ////// 07/07 Q1017,FYWB,2023-06-05T23:00:00Z,-22.98,14.65,7.0,7.0,60,4,,,30.029528,,,TRUE,,,,,,,,,,,,,,,,,,,,,,,,,,,,SPECI,87.0
FYOA 052300Z AUTO 08003KT //// // ////// 18/01 Q1017,FYOA,2023-06-05T23:00:00Z,-17.88,15.97,18.0,1.0,80,3,,,30.029528,,,TRUE,,,,,,,,,,,,,,,,,,,,,,,,,,,,SPECI,1099.0
FYLZ 052300Z AUTO 09002KT //// // ////// 13/04 Q1015,FYLZ,2023-06-05T23:00:00Z,-26.68,15.25,13.0,4.0,90,2,,,29.970472,,,TRUE,,,,,,,,,,,,,,,,,,,,,,,,,,,,METAR,129.0
FYKT 052300Z AUTO 07009KT //// // ////// 11/M00 Q1021,FYKT,2023-06-05T23:00:00Z,-26.53,18.12,11.0,0.0,70,9,,,30.147638,,,TRUE,,,,,,,,,,,,,,,,,,,,,,,,,,,,METAR,1064.0
FYKM 052300Z AUTO 05007KT //// // ////// 23/08 Q1019,FYKM,2023-06-05T23:00:00Z,-17.63,24.18,23.0,8.0,50,7,,,30.088583,,,TRUE,,,,,,,,,,,,,,,,,,,,,,,,,,,,METAR,959.0
FYGF 052300Z AUTO 29004KT //// // ////// 15/M01 Q1024,FYGF,2023-06-05T23:00:00Z,-19.6,18.12,15.0,-1.0,290,4,,,30.236221,,,TRUE,,,,,,,,,,,,,,,,,,,,,,,,,,,,METAR,1407.0
FTTJ 052300Z 22002KT 6000 NSC 28/22 Q1008 NOSIG,FTTJ,2023-06-05T23:00:00Z,12.13,15.03,28.0,22.0,220,2,,3.73,29.763779,,,,,,TRUE,,,,,CLR,,,,,,,,MVFR,,,,,,,,,,,,METAR,295.0
FQQL 052300Z 08006KT CAVOK 24/23 Q1017,FQQL,2023-06-05T23:00:00Z,-17.87,36.87,24.0,23.0,80,6,,6.21,30.029528,,,,,,,,,,,CAVOK,,,,,,,,VFR,,,,,,,,,,,,METAR,5.0
FQNP 052300Z 03006KT CAVOK 19/18 Q1019,FQNP,2023-06-05T23:00:00Z,-15.1,39.27,19.0,18.0,30,6,,6.21,30.088583,,,,,,,,,,,CAVOK,,,,,,,,VFR,,,,,,,,,,,,METAR,434.0
FQMA 052300Z 22011KT 9999 BKN020 18/13 Q1023 NOSIG,FQMA,2023-06-05T23:00:00Z,-25.92,32.57,18.0,13.0,220,11,,6.21,30.206694,,,,,,TRUE,,,,,BKN,2000,,,,,,,MVFR,,,,,,,,,,,,METAR,34.0
FQIN 052300Z /////KT CAVOK 19/17 Q1021,FQIN,2023-06-05T23:00:00Z,-23.87,35.38,19.0,17.0,,,,6.21,30.147638,,,,,,,,,,,CAVOK,,,,,,,,VFR,,,,,,,,,,,,METAR,10.0
FOOL 052300Z 21007KT 180V250 9999 FEW012 27/23 Q1013 NOSIG,FOOL,2023-06-05T23:00:00Z,0.45,9.42,27.0,23.0,210,7,,6.21,29.911417,,,,,,TRUE,,,,,FEW,1200,,,,,,,VFR,,,,,,,,,,,,METAR,9.0
FMSD 052300Z 08006KT 9999 FEW020 SCT033 23/20 Q1019,FMSD,2023-06-05T23:00:00Z,-25.03,46.95,23.0,20.0,80,6,,6.21,30.088583,,,,,,,,,,,FEW,2000,SCT,3300,,,,,VFR,,,,,,,,,,,,METAR,7.0
FMNM 052300Z 17004KT 9999 FEW040 21/17 Q1017,FMNM,2023-06-05T23:00:00Z,-15.67,46.35,21.0,17.0,170,4,,6.21,30.029528,,,,,,,,,,,FEW,4000,,,,,,,VFR,,,,,,,,,,,,METAR,18.0
FKKD 052300Z 33004KT 290V080 8000 -TSRADZ SCT005 BKN013 FEW016CB 25/24 Q1013 TEMPO 4000 TSRADZ,FKKD,2023-06-05T23:00:00Z,4.0,9.72,25.0,24.0,330,4,,4.97,29.911417,,,,,,,,,,-TSRA -TSDZ,SCT,500,BKN,1300,FEW,1600,,,MVFR,,,,,,,,,,,,METAR,10.0
FGSL 052300Z 26005KT 9999 TS SCT008 FEW016CB BKN040 25/25 Q1013 NOSIG,FGSL,2023-06-05T23:00:00Z,3.75,8.72,25.0,25.0,260,5,,6.21,29.911417,,,,,,TRUE,,,,TS,SCT,800,FEW,1600,BKN,4000,,,VFR,,,,,,,,,,,,METAR,23.0
FDST 052300Z AUTO 02009KT //// // ////// 26/21 Q1023,FDST,2023-06-05T23:00:00Z,-26.43,31.95,26.0,21.0,20,9,,,30.206694,,,TRUE,,,,,,,,,,,,,,,,,,,,,,,,,,,,METAR,642.0
FDPP 052300Z AUTO 16001KT //// // ////// ///// Q1030,FDPP,2023-06-05T23:00:00Z,-25.97,31.25,,,160,1,,,30.413385,,,TRUE,,,,,,,,,,,,,,,,,,,,,,,,,,,,METAR,1023.0
FDMY 052300Z AUTO 28002KT //// // ////// 15/10 Q1036,FDMY,2023-06-05T23:00:00Z,-25.88,31.52,15.0,10.0,280,2,,,30.590551,,,TRUE,,,,,,,,,,,,,,,,,,,,,,,,,,,,METAR,401.0
FDBB 052300Z AUTO 24001KT //// // ////// 16/12 Q1023,FDBB,2023-06-05T23:00:00Z,-26.8,31.93,16.0,12.0,240,1,,,30.206694,,,TRUE,,,,,,,,,,,,,,,,,,,,,,,,,,,,METAR,106.0
FCPP 052300Z 17005KT 7000 FEW010 BKN020 23/22 Q1013 NOSIG,FCPP,2023-06-05T23:00:00Z,-4.82,11.9,23.0,22.0,170,5,,4.35,29.911417,,,,,,TRUE,,,,,FEW,1000,BKN,2000,,,,,MVFR,,,,,,,,,,,,METAR,18.0
FBSK 052300Z 25003KT CAVOK 05/04 Q1021 NOSIG,FBSK,2023-06-05T23:00:00Z,-24.55,25.92,5.0,4.0,250,3,,6.21,30.147638,,,,,,TRUE,,,,,CAVOK,,,,,,,,VFR,,,,,,,,,,,,METAR,1007.0
FBMN 052300Z 14008KT CAVOK 19/01 Q1020,FBMN,2023-06-05T23:00:00Z,-19.97,23.42,19.0,1.0,140,8,,6.21,30.11811,,,,,,,,,,,CAVOK,,,,,,,,VFR,,,,,,,,,,,,METAR,946.0
FAWB 052300Z AUTO 26001KT //// // ////// 07/03 Q1022,FAWB,2023-06-05T23:00:00Z,-25.65,28.22,7.0,3.0,260,1,,,30.177166,,,TRUE,,,,,,,,,,,,,,,,,,,,,,,,,,,,METAR,1245.0
FAUP 052300Z 06003KT CAVOK 05/M02 Q1022 NOSIG,FAUP,2023-06-05T23:00:00Z,-28.38,21.27,5.0,-2.0,60,3,,6.21,30.177166,,,,,,TRUE,,,,,CAVOK,,,,,,,,VFR,,,,,,,,,,,,METAR,845.0
FAPP 052300Z AUTO 34001KT //// // ////// 11/08 Q1026,FAPP,2023-06-05T23:00:00Z,-23.83,29.45,11.0,8.0,340,1,,,30.295275,,,TRUE,,,,,,,,,,,,,,,,,,,,,,,,,,,,METAR,1238.0
FAPN 052300Z AUTO 21001KT //// // ////// 04/02 Q1023,FAPN,2023-06-05T23:00:00Z,-25.33,27.17,4.0,2.0,210,1,,,30.206694,,,TRUE,,,,,,,,,,,,,,,,,,,,,,,,,,,,METAR,1045.0
FAPE 052300Z VRB02KT CAVOK 09/06 Q1021 NOSIG,FAPE,2023-06-05T23:00:00Z,-33.98,25.6,9.0,6.0,0,2,,6.21,30.147638,,,,,,TRUE,,,,,CAVOK,,,,,,,,VFR,,,,,,,,,,,,METAR,58.0
FAMM 052300Z AUTO 08004KT //// // ////// 07/M04 Q1023,FAMM,2023-06-05T23:00:00Z,-25.8,25.53,7.0,-4.0,80,4,,,30.206694,,,TRUE,,,,,,,,,,,,,,,,,,,,,,,,,,,,METAR,1280.0
FALW 052300Z AUTO 21003KT //// // ////// 07/04 Q1017,FALW,2023-06-05T23:00:00Z,-32.97,18.17,7.0,4.0,210,3,,,30.029528,,,TRUE,,,,,,,,,,,,,,,,,,,,,,,,,,,,METAR,31.0
FALE 052300Z VRB01KT 9999 OVC048 15/11 Q1024 NOSIG,FALE,2023-06-05T23:00:00Z,-29.62,31.12,15.0,11.0,0,1,,6.21,30.236221,,,,,,TRUE,,,,,OVC,4800,,,,,,,VFR,,,,,,,,,,,,METAR,109.0
FALA 052300Z AUTO 20005KT //// // ////// 07/00 Q1025,FALA,2023-06-05T23:00:00Z,-25.93,27.92,7.0,0.0,200,5,,,30.265747,,,TRUE,,,,,,,,,,,,,,,,,,,,,,,,,,,,SPECI,1365.0
FAKN 052300Z AUTO 07003KT //// // ////// 14/11 Q1027,FAKN,2023-06-05T23:00:00Z,-25.38,31.1,14.0,11.0,70,3,,,30.324802,,,TRUE,,,,,,,,,,,,,,,,,,,,,,,,,,,,METAR,864.0
FAKM 052300Z AUTO 00000KT //// // ////// M00/M01 Q1023,FAKM,2023-06-05T23:00:00Z,-28.8,24.77,0.0,-1.0,0,0,,,30.206694,,,TRUE,,,,,,,,,,,,,,,,,,,,,,,,,,,,METAR,1203.0
FAGG 052300Z AUTO 35003KT 9999 // SCT150/// SCT180/// BKN210/// 07/06 Q1019,FAGG,2023-06-05T23:00:00Z,-34.0,22.37,7.0,6.0,350,3,,6.21,30.088583,,,TRUE,,,,,,,,SCT,15000,SCT,18000,BKN,21000,,,VFR,,,,,,,,,,,,SPECI,196.0
FACT 052300Z VRB01KT CAVOK 06/05 Q1018 NOSIG,FACT,2023-06-05T23:00:00Z,-33.97,18.6,6.0,5.0,0,1,,6.21,30.059055,,,,,,TRUE,,,,,CAVOK,,,,,,,,VFR,,,,,,,,,,,,METAR,48.0
FABL 052300Z AUTO 18002KT //// R02///// // ///////// M02/M03 Q1024,FABL,2023-06-05T23:00:00Z,-29.1,26.3,-2.0,-3.0,180,2,,,30.236221,,,TRUE,,,,,,,,,,,,,,,,,,,,,,,,,,,,SPECI,1348.0
EIME 052300Z 08004KT CAVOK 13/11 Q1025,EIME,2023-06-05T23:00:00Z,53.3,-6.45,13.0,11.0,80,4,,6.21,30.265747,,,,,,,,,,,CAVOK,,,,,,,,VFR,,,,,,,,,,,,METAR,90.0
DXXX 052300Z 22009KT 190V250 9999 SCT012 28/25 Q1013 NOSIG,DXXX,2023-06-05T23:00:00Z,6.17,1.25,28.0,25.0,220,9,,6.21,29.911417,,,,,,TRUE,,,,,SCT,1200,,,,,,,VFR,,,,,,,,,,,,METAR,22.0
DTTX 052300Z 01012KT 8000 FEW020 SCT033 22/18 Q1011,DTTX,2023-06-05T23:00:00Z,34.72,10.68,22.0,18.0,10,12,,4.97,29.852362,,,,,,,,,,,FEW,2000,SCT,3300,,,,,MVFR,,,,,,,,,,,,METAR,17.0
DTTN 052300Z /////KT 8000 SCT020 SCT030 20/15 Q1015,DTTN,2023-06-05T23:00:00Z,36.47,8.8,20.0,15.0,,,,4.97,29.970472,,,,,,,,,,,SCT,2000,SCT,3000,,,,,MVFR,,,,,,,,,,,,SPECI,145.0
DTTL 052300Z 01005KT 320V060 9999 SCT020 SCT030 21/19 Q1014,DTTL,2023-06-05T23:00:00Z,36.85,11.07,21.0,19.0,10,5,,6.21,29.940945,,,,,,,,,,,SCT,2000,SCT,3000,,,,,VFR,,,,,,,,,,,,METAR,18.0
DTTK 052300Z 04004KT 340V100 6000 BKN020 SCT026 20/18 Q1013,DTTK,2023-06-05T23:00:00Z,35.67,10.08,20.0,18.0,40,4,,3.73,29.911417,,,,,,,,,,,BKN,2000,SCT,2600,,,,,MVFR,,,,,,,,,,,,METAR,65.0
DTTF 052300Z 02022KT 010V080 6000 SCT023 19/16 Q1013 NOSIG,DTTF,2023-06-05T23:00:00Z,34.42,8.82,19.0,16.0,20,22,,3.73,29.911417,,,,,,TRUE,,,,,SCT,2300,,,,,,,MVFR,,,,,,,,,,,,METAR,314.0
DTTD 052300Z AUTO 04007KT 340V080 NCD 22/16 Q1010,DTTD,2023-06-05T23:00:00Z,32.32,10.4,22.0,16.0,40,7,,,29.822834,,,TRUE,,,,,,,,CLR,,,,,,,,,,,,,,,,,,,,METAR,306.0
DTTB 052300Z 04004KT 9999 SCT020 20/18 Q1015,DTTB,2023-06-05T23:00:00Z,37.25,9.8,20.0,18.0,40,4,,6.21,29.970472,,,,,,,,,,,SCT,2000,,,,,,,VFR,,,,,,,,,,,,METAR,4.0
DTKA 052300Z 11002KT 9999 SCT020 SCT030 18/17 Q1015 NOSIG,DTKA,2023-06-05T23:00:00Z,36.98,8.88,18.0,17.0,110,2,,6.21,29.970472,,,,,,TRUE,,,,,SCT,2000,SCT,3000,,,,,VFR,,,,,,,,,,,,METAR,70.0
DRRN 052300Z 22006KT CAVOK 35/19 Q1009 NOSIG,DRRN,2023-06-05T23:00:00Z,13.47,2.17,35.0,19.0,220,6,,6.21,29.793306,,,,,,TRUE,,,,,CAVOK,,,,,,,,VFR,,,,,,,,,,,,METAR,223.0
DNYO 052300Z 00000KT 9999 FEW011 27/25 Q1011,DNYO,2023-06-05T23:00:00Z,9.27,12.42,27.0,25.0,0,0,,6.21,29.852362,,,,,,,,,,,FEW,1100,,,,,,,VFR,,,,,,,,,,,,METAR,178.0
DNMM 052300Z 20004KT 9999 FEW012 28/26 Q1014 NOSIG,DNMM,2023-06-05T23:00:00Z,6.57,3.32,28.0,26.0,200,4,,6.21,29.940945,,,,,,TRUE,,,,,FEW,1200,,,,,,,VFR,,,,,,,,,,,,METAR,27.0
DNKT 052300Z 18010KT 9999 FEW012 32/23 Q1012,DNKT,2023-06-05T23:00:00Z,13.0,7.67,32.0,23.0,180,10,,6.21,29.88189,,,,,,,,,,,FEW,1200,,,,,,,VFR,,,,,,,,,,,,METAR,504.0
DNKA 052300Z 01004KT 9999 TS BKN009 FEW020CB 24/23 Q1016 NOSIG,DNKA,2023-06-05T23:00:00Z,10.58,7.45,24.0,23.0,10,4,,6.21,30.0,,,,,,TRUE,,,,TS,BKN,900,FEW,2000,,,,,IFR,,,,,,,,,,,,METAR,631.0
DNIL 052300Z 16006KT 9999 FEW010 26/23 Q1014,DNIL,2023-06-05T23:00:00Z,8.43,4.48,26.0,23.0,160,6,,6.21,29.940945,,,,,,,,,,,FEW,1000,,,,,,,VFR,,,,,,,,,,,,METAR,341.0
DNAA 052300Z 10002KT 9999 FEW009 25/24 Q1014 NOSIG,DNAA,2023-06-05T23:00:00Z,9.0,7.27,25.0,24.0,100,2,,6.21,29.940945,,,,,,TRUE,,,,,FEW,900,,,,,,,VFR,,,,,,,,,,,,METAR,338.0
DIYO 052300Z 00000KT 8000 NSC 26/24 Q1014 NOSIG,DIYO,2023-06-05T23:00:00Z,6.9,-5.35,26.0,24.0,0,0,,4.97,29.940945,,,,,,TRUE,,,,,CLR,,,,,,,,MVFR,,,,,,,,,,,,METAR,202.0
DIBK 052300Z 18002KT 8000 NSC 26/25 Q1015 NOSIG,DIBK,2023-06-05T23:00:00Z,7.73,-5.07,26.0,25.0,180,2,,4.97,29.970472,,,,,,TRUE,,,,,CLR,,,,,,,,MVFR,,,,,,,,,,,,METAR,363.0
DGAA 052300Z 22008KT 9999 FEW014 28/25 Q1013 NOSIG,DGAA,2023-06-05T23:00:00Z,5.58,-0.17,28.0,25.0,220,8,,6.21,29.911417,,,,,,TRUE,,,,,FEW,1400,,,,,,,VFR,,,,,,,,,,,,METAR,68.0
DFFD 052300Z 22009KT 9999 FEW026 32/23 Q1011 NOSIG,DFFD,2023-06-05T23:00:00Z,12.35,-1.52,32.0,23.0,220,9,,6.21,29.852362,,,,,,TRUE,,,,,FEW,2600,,,,,,,VFR,,,,,,,,,,,,METAR,309.0
DBBB 052300Z 22012KT 9999 SCT012 28/25 Q1012 NOSIG,DBBB,2023-06-05T23:00:00Z,6.35,2.38,28.0,25.0,220,12,,6.21,29.88189,,,,,,TRUE,,,,,SCT,1200,,,,,,,VFR,,,,,,,,,,,,METAR,4.0
DAUZ 052300Z 35010KT CAVOK 28/07 Q1009,DAUZ,2023-06-05T23:00:00Z,28.05,9.63,28.0,7.0,350,10,,6.21,29.793306,,,,,,,,,,,CAVOK,,,,,,,,VFR,,,,,,,,,,,,METAR,567.0
DAUU 052300Z 09006KT 8000 FEW046 27/10 Q1010,DAUU,2023-06-05T23:00:00Z,31.92,5.4,27.0,10.0,90,6,,4.97,29.822834,,,,,,,,,,,FEW,4600,,,,,,,MVFR,,,,,,,,,,,,METAR,147.0
DAUT 052300Z 07014KT 7000 NSC 30/08 Q1008,DAUT,2023-06-05T23:00:00Z,29.25,0.27,30.0,8.0,70,14,,4.35,29.763779,,,,,,,,,,,CLR,,,,,,,,MVFR,,,,,,,,,,,,METAR,307.0
DAUO 052300Z 11009KT 080V140 8000 NSC 24/15 Q1011,DAUO,2023-06-05T23:00:00Z,33.5,6.78,24.0,15.0,110,9,,4.97,29.852362,,,,,,,,,,,CLR,,,,,,,,MVFR,,,,,,,,,,,,METAR,55.0
DAUL 052300Z 02006KT CAVOK 22/13 Q1015,DAUL,2023-06-05T23:00:00Z,33.77,2.92,22.0,13.0,20,6,,6.21,29.970472,,,,,,,,,,,CAVOK,,,,,,,,VFR,,,,,,,,,,,,METAR,755.0
DAUK 052300Z 09005KT CAVOK 25/15 Q1011,DAUK,2023-06-05T23:00:00Z,33.08,6.08,25.0,15.0,90,5,,6.21,29.852362,,,,,,,,,,,CAVOK,,,,,,,,VFR,,,,,,,,,,,,METAR,83.0
DAUI 052300Z 06014KT 8000 NSC 32/07 Q1007,DAUI,2023-06-05T23:00:00Z,27.25,2.52,32.0,7.0,60,14,,4.97,29.734253,,,,,,,,,,,CLR,,,,,,,,MVFR,,,,,,,,,,,,METAR,271.0
DAUH 052300Z 05005KT 020V080 5000 NSC 27/13 Q1010,DAUH,2023-06-05T23:00:00Z,31.67,6.15,27.0,13.0,50,5,,3.11,29.822834,,,,,,,,,,,CLR,,,,,,,,MVFR,,,,,,,,,,,,METAR,141.0
DAUG 052300Z 35005KT 9999 SCT040 SCT100 27/07 Q1013,DAUG,2023-06-05T23:00:00Z,32.38,3.78,27.0,7.0,350,5,,6.21,29.911417,,,,,,,,,,,SCT,4000,SCT,10000,,,,,VFR,,,,,,,,,,,,METAR,444.0
DAUE 052300Z 00000KT CAVOK 26/08 Q1012,DAUE,2023-06-05T23:00:00Z,30.57,2.87,26.0,8.0,0,0,,6.21,29.88189,,,,,,,,,,,CAVOK,,,,,,,,VFR,,,,,,,,,,,,METAR,396.0
DAUB 052300Z 12006KT 9999 FEW033 SCT200 26/15 Q1012,DAUB,2023-06-05T23:00:00Z,34.78,5.73,26.0,15.0,120,6,,6.21,29.88189,,,,,,,,,,,FEW,3300,SCT,20000,,,,,VFR,,,,,,,,,,,,METAR,75.0
DAUA 052300Z 04012KT 7000 NSC 33/05 Q1007,DAUA,2023-06-05T23:00:00Z,27.83,-0.18,33.0,5.0,40,12,,4.35,29.734253,,,,,,,,,,,CLR,,,,,,,,MVFR,,,,,,,,,,,,METAR,278.0
DAOY 052300Z 05009KT 9999 FEW023CB BKN026 17/07 Q1017,DAOY,2023-06-05T23:00:00Z,33.72,1.08,17.0,7.0,50,9,,6.21,30.029528,,,,,,,,,,,FEW,2300,BKN,2600,,,,,MVFR,,,,,,,,,,,,METAR,1340.0
DAOV 052300Z 10004KT CAVOK 18/13 Q1016,DAOV,2023-06-05T23:00:00Z,35.2,0.15,18.0,13.0,100,4,,6.21,30.0,,,,,,,,,,,CAVOK,,,,,,,,VFR,,,,,,,,,,,,METAR,506.0
DAOR 052300Z VRB02KT 6000 NSC 28/07 Q1014,DAOR,2023-06-05T23:00:00Z,31.65,-2.27,28.0,7.0,0,2,,3.73,29.940945,,,,,,,,,,,CLR,,,,,,,,MVFR,,,,,,,,,,,,METAR,809.0
DAOL 052300Z 10006KT 9999 FEW026 19/17 Q1015,DAOL,2023-06-05T23:00:00Z,35.53,-0.52,19.0,17.0,100,6,,6.21,29.970472,,,,,,,,,,,FEW,2600,,,,,,,VFR,,,,,,,,,,,,METAR,103.0
DAOI 052300Z VRB02KT CAVOK 20/10 Q1015,DAOI,2023-06-05T23:00:00Z,36.22,1.32,20.0,10.0,0,2,,6.21,29.970472,,,,,,,,,,,CAVOK,,,,,,,,VFR,,,,,,,,,,,,METAR,141.0
DAOF 052300Z 28018KT 9999 FEW046 SCT100 25/10 Q1010,DAOF,2023-06-05T23:00:00Z,27.7,-8.17,25.0,10.0,280,18,,6.21,29.822834,,,,,,,,,,,FEW,4600,SCT,10000,,,,,VFR,,,,,,,,,,,,METAR,441.0
DAOB 052300Z 00000KT CAVOK 15/11 Q1018,DAOB,2023-06-05T23:00:00Z,35.33,1.47,15.0,11.0,0,0,,6.21,30.059055,,,,,,,,,,,CAVOK,,,,,,,,VFR,,,,,,,,,,,,METAR,976.0
DABT 052300Z 07006KT 9999 SCT023 16/14 Q1016,DABT,2023-06-05T23:00:00Z,35.75,6.32,16.0,14.0,70,6,,6.21,30.0,,,,,,,,,,,SCT,2300,,,,,,,VFR,,,,,,,,,,,,METAR,813.0
DABS 052300Z 02004KT 9999 SCT026 17/12 Q1016,DABS,2023-06-05T23:00:00Z,35.43,8.12,17.0,12.0,20,4,,6.21,30.0,,,,,,,,,,,SCT,2600,,,,,,,VFR,,,,,,,,,,,,METAR,806.0
DAAY 052300Z 01008KT 9999 SCT030 SCT033 18/12 Q1019,DAAY,2023-06-05T23:00:00Z,33.53,-0.25,18.0,12.0,10,8,,6.21,30.088583,,,,,,,,,,,SCT,3000,SCT,3300,,,,,VFR,,,,,,,,,,,,METAR,1116.0
DAAV 052300Z 17003KT 9999 FEW020 18/16 Q1016,DAAV,2023-06-05T23:00:00Z,36.8,5.88,18.0,16.0,170,3,,6.21,30.0,,,,,,,,,,,FEW,2000,,,,,,,VFR,,,,,,,,,,,,METAR,11.0
DAAS 052300Z 03007KT 9999 FEW026 14/12 Q1018,DAAS,2023-06-05T23:00:00Z,36.18,5.33,14.0,12.0,30,7,,6.21,30.059055,,,,,,,,,,,FEW,2600,,,,,,,VFR,,,,,,,,,,,,METAR,1012.0
DAAP 052300Z 36007KT CAVOK 30/05 Q1009,DAAP,2023-06-05T23:00:00Z,26.72,8.62,30.0,5.0,360,7,,6.21,29.793306,,,,,,,,,,,CAVOK,,,,,,,,VFR,,,,,,,,,,,,METAR,542.0
DAAJ 052300Z 01004KT CAVOK 25/// Q1012,DAAJ,2023-06-05T23:00:00Z,24.28,9.47,,,10,4,,6.21,29.88189,,,,,,,,,,,CAVOK,,,,,,,,VFR,,,,,,,,,,,,METAR,962.0
DAAE 052300Z 07004KT 9999 FEW016 SCT090 21/17 Q1015,DAAE,2023-06-05T23:00:00Z,36.72,5.07,21.0,17.0,70,4,,6.21,29.970472,,,,,,,,,,,FEW,1600,SCT,9000,,,,,VFR,,,,,,,,,,,,METAR,1.0
CZZJ 052300Z AUTO 04008KT 17/07 RMK AO1 SLP164 T01650073 55001,CZZJ,2023-06-05T23:00:00Z,53.58,-116.47,16.5,7.3,40,8,,,,1016.4,,TRUE,TRUE,,,,,,,,,,,,,,,,-0.1,,,,,,,,,,,METAR,927.0
CZTB 052300Z AUTO 11008KT 18/12 RMK AO1 SLP216 T01800120 56008,CZTB,2023-06-05T23:00:00Z,48.37,-89.32,18.0,12.0,110,8,,,,1021.6,,TRUE,TRUE,,,,,,,,,,,,,,,,-0.8,,,,,,,,,,,METAR,197.0
CZST 052300Z 21007KT 8SM -RA FEW050 OVC060 11/08 A3027 RMK SC1SC7 SLP252,CZST,2023-06-05T23:00:00Z,55.93,-129.98,11.0,8.0,210,7,,8.0,30.268702,1025.2,,,,,,,,,-RA,FEW,5000,OVC,6000,,,,,VFR,,,,,,,,,,,,SPECI,10.0
CZSP 052300Z AUTO 05008KT 08/08 RMK AO1 5PAST HR 8024 SLP068 P0002 T00800076 50017,CZSP,2023-06-05T23:00:00Z,46.45,-62.58,8.0,7.6,50,8,,,,1006.8,,TRUE,TRUE,,,,,,,,,,,,,,,,1.7,,,,,0.02,,,,,,METAR,31.0
CZSM 052300Z AUTO 36001KT 20/15 RMK AO1 SLP141 T01980151 56010,CZSM,2023-06-05T23:00:00Z,60.03,-111.93,19.8,15.1,360,1,,,,1014.1,,TRUE,TRUE,,,,,,,,,,,,,,,,-1.0,,,,,,,,,,,METAR,203.0
CZSJ 052300Z AUTO 10011KT 9SM OVC100 24/16 A3011 RMK SLP204 DENSITY ALT 2000FT,CZSJ,2023-06-05T23:00:00Z,53.07,-93.35,24.0,16.0,100,11,,9.0,30.109253,1020.4,,TRUE,,,,,,,,OVC,10000,,,,,,,VFR,,,,,,,,,,,,METAR,286.0
CZPS 052300Z AUTO 01003KT 22/10 RMK AO1 T02150095,CZPS,2023-06-05T23:00:00Z,52.43,-113.6,21.5,9.5,10,3,,,,,,TRUE,TRUE,,,,,,,,,,,,,,,,,,,,,,,,,,,METAR,953.0
CZPC 052300Z AUTO 19012KT 160V220 9SM FEW100 BKN180 28/03 A2992 RMK SLP110 DENSITY ALT 6300FT,CZPC,2023-06-05T23:00:00Z,49.52,-114.0,28.0,3.0,190,12,,9.0,29.920275,1011.0,,TRUE,,,,,,,,FEW,10000,BKN,18000,,,,,VFR,,,,,,,,,,,,SPECI,1187.0
CZOL 052300Z AUTO 29007KT 20/11 RMK AO1 T01990111,CZOL,2023-06-05T23:00:00Z,53.65,-113.35,19.9,11.1,290,7,,,,,,TRUE,TRUE,,,,,,,,,,,,,,,,,,,,,,,,,,,METAR,645.0
CZMT 052300Z VRB02KT 15SM BKN046 13/05 A3036 RMK SC7 SLP284,CZMT,2023-06-05T23:00:00Z,54.03,-132.13,13.0,5.0,0,2,,15.0,30.360237,1028.4,,,,,,,,,,BKN,4600,,,,,,,VFR,,,,,,,,,,,,METAR,11.0
CZMJ 052300Z AUTO 17014G19KT 33/11 RMK AO1 PK WND 16019/2256 SLP133 T03280108 56019,CZMJ,2023-06-05T23:00:00Z,50.33,-105.53,32.8,10.8,170,14,19,,,1013.3,,TRUE,TRUE,,,,,,,,,,,,,,,,-1.9,,,,,,,,,,,METAR,571.0
CZMD 052300Z AUTO 14004KT 100V220 9SM FEW100 OVC120 20/14 A3018 RMK SLP229 DENSITY ALT 1400FT,CZMD,2023-06-05T23:00:00Z,53.43,-91.77,20.0,14.0,140,4,,9.0,30.180119,1022.9,,TRUE,,,,,,,,FEW,10000,OVC,12000,,,,,VFR,,,,,,,,,,,,METAR,276.0
CZKD 052300Z AUTO 12009KT 17/15 RMK AO1 8017 SLP191 T01730151 50041,CZKD,2023-06-05T23:00:00Z,56.03,-96.52,17.3,15.1,120,9,,,,1019.1,,TRUE,TRUE,,,,,,,,,,,,,,,,4.1,,,,,,,,,,,METAR,190.0
CZHY 052300Z AUTO 06005KT 15/12 RMK AO1 SLP147 T01460123 58008,CZHY,2023-06-05T23:00:00Z,60.83,-115.78,14.6,12.3,60,5,,,,1014.7,,TRUE,TRUE,,,,,,,,,,,,,,,,-0.8,,,,,,,,,,,METAR,159.0
CZFS 052300Z AUTO 06002KT 23/05 RMK AO1 SLP124 T02310052 58018,CZFS,2023-06-05T23:00:00Z,61.77,-121.23,23.1,5.2,60,2,,,,1012.4,,TRUE,TRUE,,,,,,,,,,,,,,,,-1.8,,,,,,,,,,,METAR,174.0
CZFM 052300Z 32008G16KT 280V360 35SM SCT110 14/06 A3011 RMK AC3 LAST STFD OBS/NXT 061300Z SLP202,CZFM,2023-06-05T23:00:00Z,67.4,-134.87,14.0,6.0,320,8,16,35.0,30.109253,1020.2,,,,,,,,,,SCT,11000,,,,,,,VFR,,,,,,,,,,,,SPECI,33.0
CZEV 052300Z AUTO 06009G16KT 15/03 RMK AO1 SLP219 T01530028 58013,CZEV,2023-06-05T23:00:00Z,68.32,-133.48,15.3,2.8,60,9,16,,,1021.9,,TRUE,TRUE,,,,,,,,,,,,,,,,-1.3,,,,,,,,,,,METAR,92.0
CZEL 052300Z AUTO 31008KT 21/11 RMK AO1 SLP139 T02140108 56009,CZEL,2023-06-05T23:00:00Z,43.65,-80.42,21.4,10.8,310,8,,,,1013.9,,TRUE,TRUE,,,,,,,,,,,,,,,,-0.9,,,,,,,,,,,METAR,370.0
CZDB 052300Z AUTO 04011G16KT 10/09 RMK AO1 3PAST HR 8031 PK WND 02017/2210 SLP032 P0032 T01000092 50200,CZDB,2023-06-05T23:00:00Z,45.42,-63.47,10.0,9.2,40,11,16,,,1003.2,,TRUE,TRUE,,,,,,,,,,,,,,,,0.0,,,,,0.32,,,,,,METAR,38.0
CZCR 052300Z AUTO 09003KT 09/09 RMK AO1 3PAST HR 6013 SLP120 P0001 T00880087 50025,CZCR,2023-06-05T23:00:00Z,47.98,-66.33,8.8,8.7,90,3,,,,1012.0,,TRUE,TRUE,,,,,,,,,,,,,,,,2.5,,,,,0.01,,,,,,METAR,39.0
CZCP 052300Z AUTO 08016KT ////SM ////// 04/M01 A3028,CZCP,2023-06-05T23:00:00Z,70.17,-124.68,4.0,-1.0,80,16,,,30.280512,,,TRUE,,,,,,,,,,,,,,,,,,,,,,,,,,,,SPECI,23.0
CYZY 052300Z AUTO 26011G16KT 210V290 9SM OVC096 14/M03 A3011 RMK SLP219 DENSITY ALT 2600FT,CYZY,2023-06-05T23:00:00Z,55.3,-123.13,14.0,-3.0,260,11,16,9.0,30.109253,1021.9,,TRUE,,,,,,,,OVC,9600,,,,,,,VFR,,,,,,,,,,,,SPECI,694.0
CYZV 052300Z 09006KT 30SM FEW002 FEW030 OVC140 11/07 A2994 RMK SF1FU1AC7 SF TR SLP142,CYZV,2023-06-05T23:00:00Z,50.22,-66.27,11.0,7.0,90,6,,30.0,29.940945,1014.2,,,,,,,,,,FEW,200,FEW,3000,OVC,14000,,,VFR,,,,,,,,,,,,SPECI,43.0
CYZU 052300Z 33008KT 15SM OVC028 13/08 A3000 RMK SC8 SLP176 DENSITY ALT 2800FT,CYZU,2023-06-05T23:00:00Z,54.15,-115.78,13.0,8.0,330,8,,15.0,30.0,1017.6,,,,,,,,,,OVC,2800,,,,,,,MVFR,,,,,,,,,,,,SPECI,785.0
CYZT 052300Z 31013G22KT 20SM FEW040 FEW220 16/05 A3030 RMK CF1CI1 CF TR CI TR SLP264,CYZT,2023-06-05T23:00:00Z,50.68,-127.37,16.0,5.0,310,13,22,20.0,30.301182,1026.4,,,,,,,,,,FEW,4000,FEW,22000,,,,,VFR,,,,,,,,,,,,SPECI,13.0
CYZS 052300Z 33014KT 15SM BKN210 05/M00 A3027 RMK CI6 SLP257,CYZS,2023-06-05T23:00:00Z,64.2,-83.35,5.0,0.0,330,14,,15.0,30.268702,1025.7,,,,,,,,,,BKN,21000,,,,,,,VFR,,,,,,,,,,,,SPECI,60.0
CYZR 052300Z AUTO 02007KT 9SM CLR 20/06 A2996 RMK SLP150 DENSITY ALT 1300FT,CYZR,2023-06-05T23:00:00Z,43.0,-82.3,20.0,6.0,20,7,,9.0,29.958662,1015.0,,TRUE,,,,,,,,CLR,,,,,,,,VFR,,,,,,,,,,,,SPECI,181.0
CYZP 052300Z AUTO 13011KT 9SM SCT050 14/08 A3038 RMK SLP288,CYZP,2023-06-05T23:00:00Z,53.25,-131.82,14.0,8.0,130,11,,9.0,30.380905,1028.8,,TRUE,,,,,,,,SCT,5000,,,,,,,VFR,,,,,,,,,,,,SPECI,7.0
CYZH 052300Z AUTO 28011KT 9SM OVC021 12/11 A2997 RMK SLP164,CYZH,2023-06-05T23:00:00Z,55.28,-114.77,12.0,11.0,280,11,,9.0,29.970472,1016.4,,TRUE,,,,,,,,OVC,2100,,,,,,,MVFR,,,,,,,,,,,,SPECI,583.0
CYZF 052300Z 18007KT 15SM FEW038 FEW150 BKN240 21/12 A2993 RMK SC2AC1CI5 AC TR SLP143 DENSITY ALT 1500FT,CYZF,2023-06-05T23:00:00Z,62.47,-114.45,21.0,12.0,180,7,,15.0,29.929134,1014.3,,,,,,,,,,FEW,3800,FEW,15000,BKN,24000,,,VFR,,,,,,,,,,,,SPECI,202.0
CYZE 052300Z AUTO 35007KT 9SM CLR 25/10 A2995 RMK SLP144 DENSITY ALT 1900FT,CYZE,2023-06-05T23:00:00Z,45.88,-82.57,25.0,10.0,350,7,,9.0,29.949802,1014.4,,TRUE,,,,,,,,CLR,,,,,,,,VFR,,,,,,,,,,,,SPECI,189.0
CYYZ 052300Z 15005KT 10SM SCT064 BKN240 22/08 A2989 RMK CU3CI3 FU SLP124 DENSITY ALT 1600FT,CYYZ,2023-06-05T23:00:00Z,43.67,-79.62,22.0,8.0,150,5,,10.0,29.890747,1012.4,,,,,,,,,,SCT,6400,BKN,24000,,,,,VFR,,,,,,,,,,,,SPECI,171.0
CYYY 052300Z 07013KT 15SM SCT002 BKN120 09/08 A2985 RMK SF4AC3 SLP113,CYYY,2023-06-05T23:00:00Z,48.6,-68.22,9.0,8.0,70,13,,15.0,29.84941,1011.3,,,,,,,,,,SCT,200,BKN,12000,,,,,VFR,,,,,,,,,,,,SPECI,43.0
CYYW 052300Z AUTO 14003KT 9SM BKN049 20/12 A3019 RMK SLP216 DENSITY ALT 1600FT,CYYW,2023-06-05T23:00:00Z,50.3,-88.9,20.0,12.0,140,3,,9.0,30.188976,1021.6,,TRUE,,,,,,,,BKN,4900,,,,,,,VFR,,,,,,,,,,,,METAR,320.0
CYYU 052300Z 02011G19KT 15SM FEW240 16/05 A3016 RMK CI2 SLP222,CYYU,2023-06-05T23:00:00Z,49.42,-82.47,16.0,5.0,20,11,19,15.0,30.159449,1022.2,,,,,,,,,,FEW,24000,,,,,,,VFR,,,,,,,,,,,,SPECI,228.0
CYYT 052300Z 09004KT 1/4SM R16/1600V2000FT/N -DZ FG VV002 04/04 A3005 RMK FG8 SLP183,CYYT,2023-06-05T23:00:00Z,47.62,-52.73,4.0,4.0,90,4,,0.25,30.050198,1018.3,,,,,,,,,-DZ FG,OVX,0,,,,,,,LIFR,,,,,,,,,,,200,SPECI,128.0
CYYR 052300Z 01012G19KT 15SM BKN120 BKN180 13/04 A3000 RMK AC5AC1 DENSITY ALT 17FT SLP161,CYYR,2023-06-05T23:00:00Z,53.32,-60.42,13.0,4.0,10,12,19,15.0,30.0,1016.1,,,,,,,,,,BKN,12000,BKN,18000,,,,,VFR,,,,,,,,,,,,SPECI,42.0
CYYQ 052300Z 13014KT 15SM OVC055 08/04 A3019 RMK SC8 SLP227,CYYQ,2023-06-05T23:00:00Z,58.75,-94.07,8.0,4.0,130,14,,15.0,30.188976,1022.7,,,,,,,,,,OVC,5500,,,,,,,VFR,,,,,,,,,,,,SPECI,20.0
CYYN 052300Z AUTO 15015G25KT 9SM FEW081 30/14 A2991 RMK SLP117 DENSITY ALT 5100FT,CYYN,2023-06-05T23:00:00Z,50.28,-107.68,30.0,14.0,150,15,25,9.0,29.911417,1011.7,,TRUE,,,,,,,,FEW,8100,,,,,,,VFR,,,,,,,,,,,,SPECI,814.0
CYYL 052300Z AUTO 11008KT 090V160 9SM CLR 27/19 A2994 RMK SLP144 DENSITY ALT 2900FT,CYYL,2023-06-05T23:00:00Z,56.87,-101.07,27.0,19.0,110,8,,9.0,29.940945,1014.4,,TRUE,,,,,,,,CLR,,,,,,,,VFR,,,,,,,,,,,,SPECI,351.0
CYYJ 052300Z 09008KT 30SM FEW080 FEW250 21/02 A3013 RMK AC1CI2 AC TR SLP204 DENSITY ALT 600FT,CYYJ,2023-06-05T23:00:00Z,48.63,-123.42,21.0,2.0,90,8,,30.0,30.129921,1020.4,,,,,,,,,,FEW,8000,FEW,25000,,,,,VFR,,,,,,,,,,,,SPECI,16.0
CYYH 052300Z 10002KT 15SM FEW220 04/01 A3025 RMK CS2 SLP249,CYYH,2023-06-05T23:00:00Z,69.53,-93.57,4.0,1.0,100,2,,15.0,30.250984,1024.9,,,,,,,,,,FEW,22000,,,,,,,VFR,,,,,,,,,,,,SPECI,19.0
CYYG 052300Z 02012KT 8SM -RA FEW004 SCT019 OVC100 09/08 A2971 RMK SF1SC2AC5 SLP064,CYYG,2023-06-05T23:00:00Z,46.28,-63.12,9.0,8.0,20,12,,8.0,29.71063,1006.4,,,,,,,,,-RA,FEW,400,SCT,1900,OVC,10000,,,VFR,,,,,,,,,,,,SPECI,48.0
CYYF 052300Z 36013KT 15SM SKC 26/M01 A3004 RMK FU SLP174 DENSITY ALT 2500FT,CYYF,2023-06-05T23:00:00Z,49.47,-119.6,26.0,-1.0,360,13,,15.0,30.041338,1017.4,,,,,,,,,,SKC,,,,,,,,VFR,,,,,,,,,,,,SPECI,342.0
CYYE 052300Z 20007KT 130V260 30SM SCT100 BKN180 22/M03 A2990 RMK CU3AC2 SLP136 DENSITY ALT 2400FT,CYYE,2023-06-05T23:00:00Z,58.83,-122.58,22.0,-3.0,200,7,,30.0,29.899607,1013.6,,,,,,,,,,SCT,10000,BKN,18000,,,,,VFR,,,,,,,,,,,,SPECI,379.0
CYYD 052300Z 00000KT 25SM VCSH FEW035 BKN060 BKN073 11/02 A3023 RMK SC2CU4AC1 SLP252,CYYD,2023-06-05T23:00:00Z,54.82,-127.18,11.0,2.0,0,0,,25.0,30.230314,1025.2,,,,,,,,,VCSH,FEW,3500,BKN,6000,BKN,7300,,,VFR,,,,,,,,,,,,SPECI,527.0
CYYC 052300Z 15004KT 8SM FEW180 BKN300 24/08 A2992 RMK AC2CI3 SLP126 DENSITY ALT 5500FT,CYYC,2023-06-05T23:00:00Z,51.12,-114.02,24.0,8.0,150,4,,8.0,29.920275,1012.6,,,,,,,,,,FEW,18000,BKN,30000,,,,,VFR,,,,,,,,,,,,SPECI,1085.0
CYYB 052300Z 36009G18KT 20SM FEW070 BKN280 22/06 A2994 RMK CU1CI5 CU TR HAZY SLP141 DENSITY ALT 2300FT,CYYB,2023-06-05T23:00:00Z,46.35,-79.42,22.0,6.0,360,9,18,20.0,29.940945,1014.1,,,,,,,,,,FEW,7000,BKN,28000,,,,,VFR,,,,,,,,,,,,SPECI,360.0
CYXZ 052300Z 04009G15KT 340V060 15SM FEW220 18/10 A3013 RMK CI2 HAZE SLP207 DENSITY ALT 1400FT,CYXZ,2023-06-05T23:00:00Z,47.97,-84.77,18.0,10.0,40,9,15,15.0,30.129921,1020.7,,,,,,,,,,FEW,22000,,,,,,,VFR,,,,,,,,,,,,SPECI,287.0
CYXX 052300Z 25008G15KT 30SM FEW075 BKN270 23/06 A3010 RMK AC1CI4 CONTRAIL SLP194 DENSITY ALT 1000FT,CYXX,2023-06-05T23:00:00Z,49.03,-122.38,23.0,6.0,250,8,15,30.0,30.100393,1019.4,,,,,,,,,,FEW,7500,BKN,27000,,,,,VFR,,,,,,,,,,,,SPECI,54.0
CYXU 052300Z 30007KT 8SM OVC180 22/10 A2995 RMK FU8 SLP144 DENSITY ALT 1900FT,CYXU,2023-06-05T23:00:00Z,43.03,-81.15,22.0,10.0,300,7,,8.0,29.949802,1014.4,,,,,,,,,,OVC,18000,,,,,,,VFR,,,,,,,,,,,,SPECI,278.0
CYXT 052300Z 25015G22KT 20SM SCT055TCU BKN220 15/03 A3029 RMK TCU3CI2 SLP263,CYXT,2023-06-05T23:00:00Z,54.47,-128.57,15.0,3.0,250,15,22,20.0,30.28937,1026.3,,,,,,,,,,SCT,5500,BKN,22000,,,,,VFR,,,,,,,,,,,,SPECI,213.0
CYXS 052300Z AUTO 26010KT 230V290 9SM OVC100 16/M01 A3016 RMK SLP233 DENSITY ALT 2700FT,CYXS,2023-06-05T23:00:00Z,53.88,-122.68,16.0,-1.0,260,10,,9.0,30.159449,1023.3,,TRUE,,,,,,,,OVC,10000,,,,,,,VFR,,,,,,,,,,,,SPECI,685.0
CYXR 052300Z AUTO 34017G23KT 9SM CLR 19/06 A3000 RMK SLP165 DENSITY ALT 1400FT,CYXR,2023-06-05T23:00:00Z,47.7,-79.85,19.0,6.0,340,17,23,9.0,30.0,1016.5,,TRUE,,,,,,,,CLR,,,,,,,,VFR,,,,,,,,,,,,SPECI,244.0
CYXL 052300Z 13004KT 080V160 15SM FEW030 BKN043 OVC240 21/15 A3016 RMK CU2SC5CS1 SLP219 DENSITY ALT 2000FT,CYXL,2023-06-05T23:00:00Z,50.12,-91.9,21.0,15.0,130,4,,15.0,30.159449,1021.9,,,,,,,,,,FEW,3000,BKN,4300,OVC,24000,,,VFR,,,,,,,,,,,,SPECI,381.0
CYXJ 052300Z 17006G15KT 160V220 50SM FEW072 SCT140 BKN240 16/M00 A3004 RMK CU2AC1CI3 CB TOPS VISB DIST N-NE SLP189 DENSITY ALT 2900FT,CYXJ,2023-06-05T23:00:00Z,56.25,-120.73,16.0,0.0,170,6,15,50.0,30.041338,1018.9,,,,,,,,,,FEW,7200,SCT,14000,BKN,24000,,,VFR,,,,,,,,,,,,SPECI,700.0
CYXE 052300Z 17015G22KT 15SM SCT070TCU SCT160 33/15 A2985 RMK TCU3AC1 SLP106 DENSITY ALT 4200FT,CYXE,2023-06-05T23:00:00Z,52.17,-106.7,33.0,15.0,170,15,22,15.0,29.84941,1010.6,,,,,,,,,,SCT,7000,SCT,16000,,,,,VFR,,,,,,,,,,,,SPECI,504.0
CYXC 052300Z 32008KT 220V330 25SM FEW110 BKN230 29/M02 A2990 RMK AC2CI5 WSHFT 2255 SLP113 DENSITY ALT 5500FT,CYXC,2023-06-05T23:00:00Z,49.6,-115.78,29.0,-2.0,320,8,,25.0,29.899607,1011.3,,,,,,,,,,FEW,11000,BKN,23000,,,,,VFR,,,,,,,,,,,,SPECI,928.0
CYWL 052300Z VRB03KT 15SM BKN090 16/M06 A3018 RMK AC5 SLP235 DENSITY ALT 3600FT,CYWL,2023-06-05T23:00:00Z,52.18,-122.07,16.0,-6.0,0,3,,15.0,30.180119,1023.5,,,,,,,,,,BKN,9000,,,,,,,VFR,,,,,,,,,,,,SPECI,942.0
CYWJ 052300Z 16004KT 130V240 4SM -RA BR BKN065 BKN084 OVC110 07/04 A2994 RMK SC5AC2AC2 LAST STFD OBS/NXT 061300 UTC SLP152,CYWJ,2023-06-05T23:00:00Z,65.22,-123.43,7.0,4.0,160,4,,4.0,29.940945,1015.2,,,,,,,,,-RA BR,BKN,6500,BKN,8400,OVC,11000,,,MVFR,,,,,,,,,,,,SPECI,208.0
CYWH 052300Z 23008KT 15SM SCT240 15/06 A3015 RMK CI3 SLP210,CYWH,2023-06-05T23:00:00Z,48.42,-123.38,15.0,6.0,230,8,,15.0,30.15059,1021.0,,,,,,,,,,SCT,24000,,,,,,,VFR,,,,,,,,,,,,SPECI,4.0
CYWG 052300Z 13007KT 15SM FEW051CB FEW068TCU SCT250 30/19 A2999 RMK CB1TCU1CI1 CB E MOV W CB S MOV W SLP157 DENSITY ALT 2600FT,CYWG,2023-06-05T23:00:00Z,49.9,-97.23,30.0,19.0,130,7,,15.0,29.991142,1015.7,,,,,,,,,,FEW,5100,FEW,6800,SCT,25000,,,VFR,,,,,,,,,,,,SPECI,238.0
CYWE 052300Z AUTO 08008G15KT 9SM CLR 23/08 A2998 RMK SLP164 DENSITY ALT 2300FT,CYWE,2023-06-05T23:00:00Z,64.18,-114.08,23.0,8.0,80,8,15,9.0,29.97933,1016.4,,TRUE,,,,,,,,CLR,,,,,,,,VFR,,,,,,,,,,,,METAR,374.0
CYWA 052300Z 06002KT 3SM FU SCT085 OVC130 20/15 A2985 RMK FU4AC4 DENSITY ALT 1364FT SLP109,CYWA,2023-06-05T23:00:00Z,45.95,-77.32,20.0,15.0,60,2,,3.0,29.84941,1010.9,,,,,,,,,FU,SCT,8500,OVC,13000,,,,,MVFR,,,,,,,,,,,,SPECI,121.0
CYVV 052300Z 26005KT 8SM SCT200 18/13 A2995 RMK FU4 SLP145 DENSITY ALT 1300FT,CYVV,2023-06-05T23:00:00Z,44.75,-81.1,18.0,13.0,260,5,,8.0,29.949802,1014.5,,,,,,,,,,SCT,20000,,,,,,,VFR,,,,,,,,,,,,SPECI,221.0
CYVT 052300Z AUTO 34004KT 310V020 9SM CLR 26/18 A2984 RMK SLP109 DENSITY ALT 3200FT,CYVT,2023-06-05T23:00:00Z,55.83,-108.42,26.0,18.0,340,4,,9.0,29.840551,1010.9,,TRUE,,,,,,,,CLR,,,,,,,,VFR,,,,,,,,,,,,SPECI,438.0
CYVR 052300Z 29020G27KT 30SM FEW240 19/09 A3012 RMK CI1 SLP203 DENSITY ALT 300FT,CYVR,2023-06-05T23:00:00Z,49.17,-123.17,19.0,9.0,290,20,27,30.0,30.121063,1020.3,,,,,,,,,,FEW,24000,,,,,,,VFR,,,,,,,,,,,,SPECI,2.0
CYVQ 052300Z 29011G16KT 15SM -RA SCT015 OVC080 12/10 A2999 RMK FU2SF1AC5 SLP162,CYVQ,2023-06-05T23:00:00Z,65.27,-126.78,12.0,10.0,290,11,16,15.0,29.991142,1016.2,,,,,,,,,-RA,SCT,1500,OVC,8000,,,,,VFR,,,,,,,,,,,,SPECI,63.0
CYVP 052300Z 05010KT 15SM SCT019 05/M01 A3029 RMK SC3 SLP264,CYVP,2023-06-05T23:00:00Z,58.12,-68.42,5.0,-1.0,50,10,,15.0,30.28937,1026.4,,,,,,,,,,SCT,1900,,,,,,,VFR,,,,,,,,,,,,SPECI,28.0
CYVO 052300Z 34014G20KT 8SM FEW055 BKN240 20/07 A2994 RMK SC2CS4 SLP144 DENSITY ALT 2000FT,CYVO,2023-06-05T23:00:00Z,48.07,-77.77,20.0,7.0,340,14,20,8.0,29.940945,1014.4,,,,,,,,,,FEW,5500,BKN,24000,,,,,VFR,,,,,,,,,,,,SPECI,329.0
CYVL 052300Z AUTO 01010G15KT 9SM FEW120 BKN150 13/06 A3007 RMK SLP196,CYVL,2023-06-05T23:00:00Z,67.02,-126.13,13.0,6.0,10,10,15,9.0,30.070866,1019.6,,TRUE,,,,,,,,FEW,12000,BKN,15000,,,,,VFR,,,,,,,,,,,,METAR,261.0
CYVC 052300Z 20006KT 15SM BKN075CB BKN250 31/18 A2987 RMK CB6CI1 SLP118 DENSITY ALT 3500FT,CYVC,2023-06-05T23:00:00Z,55.15,-105.27,31.0,18.0,200,6,,15.0,29.870079,1011.8,,,,,,,,,,BKN,7500,BKN,25000,,,,,VFR,,,,,,,,,,,,SPECI,378.0
CYUY 052300Z 35014KT 15SM SKC 18/06 A3000 RMK FU SLP166 DENSITY ALT 1500FT,CYUY,2023-06-05T23:00:00Z,48.2,-78.82,18.0,6.0,350,14,,15.0,30.0,1016.6,,,,,,,,,,SKC,,,,,,,,VFR,,,,,,,,,,,,SPECI,304.0
CYUX 052300Z 33009KT 10SM OVC007 01/01 A3018 RMK ST8 SLP221,CYUX,2023-06-05T23:00:00Z,68.77,-81.22,1.0,1.0,330,9,,10.0,30.180119,1022.1,,,,,,,,,,OVC,700,,,,,,,IFR,,,,,,,,,,,,SPECI,8.0
CYUL 052300Z 26007KT 15SM FEW170 OVC250 20/08 A2980 RMK AC2CI6 SLP092 DENSITY ALT 900FT,CYUL,2023-06-05T23:00:00Z,45.47,-73.73,20.0,8.0,260,7,,15.0,29.799213,1009.2,,,,,,,,,,FEW,17000,OVC,25000,,,,,VFR,,,,,,,,,,,,SPECI,31.0
CYUB 052300Z 10014KT 15SM FEW060 SCT140 11/00 A3020 RMK SC1AC3 SLP228,CYUB,2023-06-05T23:00:00Z,69.43,-133.02,11.0,0.0,100,14,,15.0,30.200787,1022.8,,,,,,,,,,FEW,6000,SCT,14000,,,,,VFR,,,,,,,,,,,,SPECI,5.0
CYUA 052300Z AUTO 05011KT ////SM NCD 10/03 A3013,CYUA,2023-06-05T23:00:00Z,68.92,-137.23,10.0,3.0,50,11,,,30.129921,,,TRUE,,,,,,,,CLR,,,,,,,,,,,,,,,,,,,,SPECI,25.0
CYTZ 052300Z AUTO VRB03KT 9SM CLR 20/10 A2990 RMK SLP125 DENSITY ALT 900FT,CYTZ,2023-06-05T23:00:00Z,43.63,-79.4,20.0,10.0,0,3,,9.0,29.899607,1012.5,,TRUE,,,,,,,,CLR,,,,,,,,VFR,,,,,,,,,,,,METAR,76.0
CYTS 052300Z 36009G18KT 15SM BKN220 17/04 A3011 RMK CI6 SLP205 DENSITY ALT 1200FT,CYTS,2023-06-05T23:00:00Z,48.57,-81.37,17.0,4.0,360,9,18,15.0,30.109253,1020.5,,,,,,,,,,BKN,22000,,,,,,,VFR,,,,,,,,,,,,SPECI,290.0
CYTR 052300Z 22006KT 6SM FU SCT100 OVC250 20/12 A2985 RMK AC4CI4 DENSITY ALT 1231FT SLP109,CYTR,2023-06-05T23:00:00Z,44.12,-77.52,20.0,12.0,220,6,,6.0,29.84941,1010.9,,,,,,,,,FU,SCT,10000,OVC,25000,,,,,VFR,,,,,,,,,,,,SPECI,80.0
CYTL 052300Z AUTO 12005KT 070V160 9SM SCT140 SCT160 19/05 A3024 RMK SLP250 DENSITY ALT 1100FT,CYTL,2023-06-05T23:00:00Z,53.82,-89.88,19.0,5.0,120,5,,9.0,30.239174,1025.0,,TRUE,,,,,,,,SCT,14000,SCT,16000,,,,,VFR,,,,,,,,,,,,SPECI,218.0
CYTH 052300Z 11006KT 060V190 15SM FEW060 SCT140 BKN240 26/16 A3000 RMK CU2AC1CI2 SLP165 DENSITY ALT 2100FT,CYTH,2023-06-05T23:00:00Z,55.8,-97.83,26.0,16.0,110,6,,15.0,30.0,1016.5,,,,,,,,,,FEW,6000,SCT,14000,BKN,24000,,,VFR,,,,,,,,,,,,SPECI,212.0
CYTE 052300Z AUTO 22006KT 9SM CLR 04/02 A3014 RMK SLP214,CYTE,2023-06-05T23:00:00Z,64.22,-76.52,4.0,2.0,220,6,,9.0,30.138779,1021.4,,TRUE,,,,,,,,CLR,,,,,,,,VFR,,,,,,,,,,,,SPECI,49.0
CYSY 052300Z 36012KT 15SM FEW005 FEW020 FEW220 02/M01 A3033 RMK ST1SC1CI1 ST TR LAST STFD OBS/NEXT 061300Z SLP282,CYSY,2023-06-05T23:00:00Z,72.0,-125.23,2.0,-1.0,360,12,,15.0,30.33071,1028.2,,,,,,,,,,FEW,500,FEW,2000,FEW,22000,,,VFR,,,,,,,,,,,,SPECI,83.0
CYSN 052300Z 21008KT 6SM HZ OVC200 22/10 A2989 RMK CI8 SLP124 DENSITY ALT 1200FT,CYSN,2023-06-05T23:00:00Z,43.2,-79.17,22.0,10.0,210,8,,6.0,29.890747,1012.4,,,,,,,,,HZ,OVC,20000,,,,,,,VFR,,,,,,,,,,,,SPECI,96.0
CYSM 052300Z VRB02KT 15SM OVC023 20/15 A2992 RMK SC8 SLP138 DENSITY ALT 1400FT,CYSM,2023-06-05T23:00:00Z,60.03,-111.92,20.0,15.0,0,2,,15.0,29.920275,1013.8,,,,,,,,,,OVC,2300,,,,,,,MVFR,,,,,,,,,,,,SPECI,203.0
CYSJ 052300Z 01013G19KT 8SM -RA OVC005 10/10 A2966 RMK ST8 SLP050,CYSJ,2023-06-05T23:00:00Z,45.32,-65.88,10.0,10.0,10,13,19,8.0,29.660433,1005.0,,,,,,,,,-RA,OVC,500,,,,,,,IFR,,,,,,,,,,,,SPECI,89.0
CYSF 052300Z AUTO 07009KT 050V110 9SM OVC027 22/18 A2991 RMK SLP137 DENSITY ALT 1800FT,CYSF,2023-06-05T23:00:00Z,59.25,-105.83,22.0,18.0,70,9,,9.0,29.911417,1013.7,,TRUE,,,,,,,,OVC,2700,,,,,,,MVFR,,,,,,,,,,,,SPECI,238.0
CYSC 052300Z AUTO VRB02KT 9SM SCT066 SCT077 BKN240 20/09 A2977 RMK SLP087 DENSITY ALT 1700FT,CYSC,2023-06-05T23:00:00Z,45.43,-71.68,20.0,9.0,0,2,,9.0,29.769686,1008.7,,TRUE,,,,,,,,SCT,6600,SCT,7700,BKN,24000,,,VFR,,,,,,,,,,,,SPECI,236.0
CYSB 052300Z 01013KT 20SM FEW070 BKN240 23/06 A2997 RMK AC1CI6 AC TR SLP154 DENSITY ALT 2300FT,CYSB,2023-06-05T23:00:00Z,46.63,-80.8,23.0,6.0,10,13,,20.0,29.970472,1015.4,,,,,,,,,,FEW,7000,BKN,24000,,,,,VFR,,,,,,,,,,,,SPECI,349.0
CYRV 052300Z AUTO 33011KT 280V350 9SM CLR 26/M02 A3001 RMK SLP163 DENSITY ALT 3000FT,CYRV,2023-06-05T23:00:00Z,50.97,-118.17,26.0,-2.0,330,11,,9.0,30.008858,1016.3,,TRUE,,,,,,,,CLR,,,,,,,,VFR,,,,,,,,,,,,SPECI,456.0
CYRT 052300Z 15010KT 15SM FEW130 BKN260 03/00 A3034 RMK AC2CI5 SLP278,CYRT,2023-06-05T23:00:00Z,62.82,-92.12,3.0,0.0,150,10,,15.0,30.339567,1027.8,,,,,,,,,,FEW,13000,BKN,26000,,,,,VFR,,,,,,,,,,,,SPECI,29.0
CYRQ 052300Z AUTO 23003KT 9SM FEW140 SCT160 19/08 A2978 RMK SLP089 DENSITY ALT 900FT,CYRQ,2023-06-05T23:00:00Z,46.35,-72.68,19.0,8.0,230,3,,9.0,29.778543,1008.9,,TRUE,,,,,,,,FEW,14000,SCT,16000,,,,,VFR,,,,,,,,,,,,METAR,58.0
CYRL 052300Z 13009G15KT 15SM FEW025 FEW040 FEW240 23/17 A3012 RMK CU1SC1CI1 CU TR SC TR CI TR SLP203 DENSITY ALT 2300FT,CYRL,2023-06-05T23:00:00Z,51.07,-93.78,23.0,17.0,130,9,15,15.0,30.121063,1020.3,,,,,,,,,,FEW,2500,FEW,4000,FEW,24000,,,VFR,,,,,,,,,,,,SPECI,370.0
CYRJ 052300Z 30004KT 8SM BKN040 19/07 A2981 RMK SC7 SLP101 DENSITY ALT 1400FT,CYRJ,2023-06-05T23:00:00Z,48.52,-72.27,19.0,7.0,300,4,,8.0,29.811024,1010.1,,,,,,,,,,BKN,4000,,,,,,,VFR,,,,,,,,,,,,SPECI,173.0
CYRA 052300Z VRB03KT 15SM SCT050 BKN080 25/11 A2992 RMK SC4AS2 FU ALQDS SLP139 DENSITY ALT 2100FT,CYRA,2023-06-05T23:00:00Z,64.12,-117.32,25.0,11.0,0,3,,15.0,29.920275,1013.9,,,,,,,,,,SCT,5000,BKN,8000,,,,,VFR,,,,,,,,,,,,SPECI,232.0
CYQZ 052300Z AUTO 11004KT 080V160 9SM FEW120 18/M04 A3015 RMK SLP217 DENSITY ALT 2400FT,CYQZ,2023-06-05T23:00:00Z,53.02,-122.52,18.0,-4.0,110,4,,9.0,30.15059,1021.7,,TRUE,,,,,,,,FEW,12000,,,,,,,VFR,,,,,,,,,,,,SPECI,548.0
CYQY 052300Z 10013G21KT 1/2SM R06/3000V4000FT/N FG VV001 07/07 A2977 RMK FG8 PRESFR SLP085,CYQY,2023-06-05T23:00:00Z,46.17,-60.03,7.0,7.0,100,13,21,0.5,29.769686,1008.5,,,,,,,,,FG,OVX,0,,,,,,,LIFR,,,,,,,,,,,100,SPECI,58.0
CYQW 052300Z AUTO 17018G25KT 9SM FEW076 33/15 A2984 RMK SLP101 DENSITY ALT 4300FT,CYQW,2023-06-05T23:00:00Z,52.77,-108.25,33.0,15.0,170,18,25,9.0,29.840551,1010.1,,TRUE,,,,,,,,FEW,7600,,,,,,,VFR,,,,,,,,,,,,SPECI,545.0
CYQV 052300Z AUTO 18008KT 9SM CLR 31/15 A2997 RMK SLP146 DENSITY ALT 3900FT,CYQV,2023-06-05T23:00:00Z,51.27,-102.47,31.0,15.0,180,8,,9.0,29.970472,1014.6,,TRUE,,,,,,,,CLR,,,,,,,,VFR,,,,,,,,,,,,SPECI,493.0
CYQU 052300Z 25025G30KT 25SM SCT075 BKN120 13/01 A3010 RMK AC4AC3 SLP211,CYQU,2023-06-05T23:00:00Z,55.18,-118.88,13.0,1.0,250,25,30,25.0,30.100393,1021.1,,,,,,,,,,SCT,7500,BKN,12000,,,,,VFR,,,,,,,,,,,,SPECI,668.0
CYQT 052300Z 10009KT 10SM BKN041 OVC250 18/12 A3015 RMK SC6CI2 FU SLP214 DENSITY ALT 1000FT,CYQT,2023-06-05T23:00:00Z,48.37,-89.32,18.0,12.0,100,9,,10.0,30.15059,1021.4,,,,,,,,,,BKN,4100,OVC,25000,,,,,VFR,,,,,,,,,,,,SPECI,197.0
CYQR 052300Z 16014KT 15SM BKN056TCU 31/17 A2994 RMK TCU5 SLP136 DENSITY ALT 4200FT,CYQR,2023-06-05T23:00:00Z,50.43,-104.67,31.0,17.0,160,14,,15.0,29.940945,1013.6,,,,,,,,,,BKN,5600,,,,,,,VFR,,,,,,,,,,,,SPECI,576.0
CYQQ 052300Z 35011KT 20SM FEW250 21/01 A3018 RMK CI1 DENSITY ALT 587FT SLP219,CYQQ,2023-06-05T23:00:00Z,49.72,-124.9,21.0,1.0,350,11,,20.0,30.180119,1021.9,,,,,,,,,,FEW,25000,,,,,,,VFR,,,,,,,,,,,,SPECI,24.0
CYQL 052300Z 20004KT 170V260 25SM FEW085 FEW130 SCT230 BKN300 29/06 A2989 RMK CU1AC1CC2CI4 CU TR SLP109 DENSITY ALT 5400FT,CYQL,2023-06-05T23:00:00Z,49.63,-112.8,29.0,6.0,200,4,,25.0,29.890747,1010.9,,,,,,,,,,FEW,8500,FEW,13000,SCT,23000,BKN,30000,VFR,,,,,,,,,,,,SPECI,923.0
CYQK 052300Z 10009KT 20SM SCT030 BKN250 25/18 A3010 RMK SC3CI3 SLP194 DENSITY ALT 2700FT,CYQK,2023-06-05T23:00:00Z,49.78,-94.37,25.0,18.0,100,9,,20.0,30.100393,1019.4,,,,,,,,,,SCT,3000,BKN,25000,,,,,VFR,,,,,,,,,,,,SPECI,413.0
CYQI 052300Z 01016G23KT 4SM -SHRA BR SCT032 BKN039 OVC089 12/11 A2951 RMK SC3SC4AC1 PRESFR SLP995,CYQI,2023-06-05T23:00:00Z,43.83,-66.08,12.0,11.0,10,16,23,4.0,29.509842,999.5,,,,,,,,,-SHRA BR,SCT,3200,BKN,3900,OVC,8900,,,MVFR,,,,,,,,,,,,SPECI,37.0
CYQH 052300Z CCA 14007KT 120V190 30SM SCT035 BKN100 11/02 A2992 RMK CU3AC3 SLP153,CYQH,2023-06-05T23:00:00Z,60.12,-128.82,11.0,2.0,140,7,,30.0,29.920275,1015.3,,,,,,,,,,SCT,3500,BKN,10000,,,,,VFR,,,,,,,,,,,,SPECI,692.0
CYQG 052300Z AUTO 21009KT 9SM FEW076 BKN090 24/09 A2997 RMK SLP150 DENSITY ALT 1700FT,CYQG,2023-06-05T23:00:00Z,42.27,-82.97,24.0,9.0,210,9,,9.0,29.970472,1015.0,,TRUE,,,,,,,,FEW,7600,BKN,9000,,,,,VFR,,,,,,,,,,,,SPECI,189.0
CYQF 052300Z AUTO 33004KT 320V050 9SM CLR 21/09 A2992 RMK SLP137 DENSITY ALT 4400FT,CYQF,2023-06-05T23:00:00Z,52.17,-113.9,21.0,9.0,330,4,,9.0,29.920275,1013.7,,TRUE,,,,,,,,CLR,,,,,,,,VFR,,,,,,,,,,,,SPECI,912.0
CYQD 052300Z AUTO 14016G22KT 9SM CLR 31/20 A2993 RMK SLP136 DENSITY ALT 3000FT,CYQD,2023-06-05T23:00:00Z,53.97,-101.08,31.0,20.0,140,16,22,9.0,29.929134,1013.6,,TRUE,,,,,,,,CLR,,,,,,,,VFR,,,,,,,,,,,,SPECI,268.0
CYQB 052300Z 07009KT 30SM FEW035 BKN110 OVC250 18/08 A2980 RMK SC1AC5CI3 SC TR HAZY VIS NW LWR IN FU SLP094 DENSITY ALT 800FT,CYQB,2023-06-05T23:00:00Z,46.78,-71.38,18.0,8.0,70,9,,30.0,29.799213,1009.4,,,,,,,,,,FEW,3500,BKN,11000,OVC,25000,,,VFR,,,,,,,,,,,,SPECI,73.0
CYQA 052300Z AUTO 28007KT 9SM FEW110 22/12 A2989 RMK SLP125 DENSITY ALT 2000FT,CYQA,2023-06-05T23:00:00Z,44.97,-79.3,22.0,12.0,280,7,,9.0,29.890747,1012.5,,TRUE,,,,,,,,FEW,11000,,,,,,,VFR,,,,,,,,,,,,SPECI,277.0
CYPY 052300Z AUTO 05002KT 9SM OVC014 19/16 A2990 RMK SLP133 DENSITY ALT 1500FT,CYPY,2023-06-05T23:00:00Z,58.77,-111.12,19.0,16.0,50,2,,9.0,29.899607,1013.3,,TRUE,,,,,,,,OVC,1400,,,,,,,MVFR,,,,,,,,,,,,SPECI,225.0
CYPX 052300Z AUTO 29014KT 9SM CLR 06/02 A3035 RMK SLP283,CYPX,2023-06-05T23:00:00Z,60.03,-77.27,6.0,2.0,290,14,,9.0,30.351377,1028.3,,TRUE,,,,,,,,CLR,,,,,,,,VFR,,,,,,,,,,,,SPECI,10.0
CYPW 052300Z 28011G17KT 30SM FEW250 21/03 A3018 RMK CI1 CI TR CONTRAILS SLP221 DENSITY ALT 1000FT,CYPW,2023-06-05T23:00:00Z,49.83,-124.5,21.0,3.0,280,11,17,30.0,30.180119,1022.1,,,,,,,,,,FEW,25000,,,,,,,VFR,,,,,,,,,,,,SPECI,122.0
CYPR 052300Z AUTO 28004KT 250V310 9SM BKN048 OVC055 12/04 A3039 RMK SLP293,CYPR,2023-06-05T23:00:00Z,54.28,-130.45,12.0,4.0,280,4,,9.0,30.389763,1029.3,,TRUE,,,,,,,,BKN,4800,OVC,5500,,,,,VFR,,,,,,,,,,,,SPECI,30.0
CYPQ 052300Z AUTO 28007KT 9SM CLR 22/10 A2987 RMK SLP118 DENSITY ALT 1600FT,CYPQ,2023-06-05T23:00:00Z,44.22,-78.37,22.0,10.0,280,7,,9.0,29.870079,1011.8,,TRUE,,,,,,,,CLR,,,,,,,,VFR,,,,,,,,,,,,SPECI,190.0
CYPO 052300Z AUTO 04006KT 020V080 9SM CLR 11/06 A3038 RMK SLP292,CYPO,2023-06-05T23:00:00Z,54.98,-85.43,11.0,6.0,40,6,,9.0,30.380905,1029.2,,TRUE,,,,,,,,CLR,,,,,,,,VFR,,,,,,,,,,,,METAR,49.0
CYPL 052300Z AUTO 10007KT 070V160 9SM SCT046 21/10 A3020 RMK SLP232 DENSITY ALT 2000FT,CYPL,2023-06-05T23:00:00Z,51.43,-90.22,21.0,10.0,100,7,,9.0,30.200787,1023.2,,TRUE,,,,,,,,SCT,4600,,,,,,,VFR,,,,,,,,,,,,SPECI,390.0
CYPH 052300Z AUTO 01016KT 9SM CLR 11/02 A3035 RMK SLP282,CYPH,2023-06-05T23:00:00Z,58.47,-78.08,11.0,2.0,10,16,,9.0,30.351377,1028.2,,TRUE,,,,,,,,CLR,,,,,,,,VFR,,,,,,,,,,,,SPECI,24.0
CYPG 052300Z 12010KT 110V190 15SM FEW050 FEW120 SCT280 31/18 A3000 RMK CU2AC1CI1 DENSITY ALT 3095FT TCU ASOCTD CB TOPS DIST S SLP155,CYPG,2023-06-05T23:00:00Z,49.9,-98.28,31.0,18.0,120,10,,15.0,30.0,1015.5,,,,,,,,,,FEW,5000,FEW,12000,SCT,28000,,,VFR,,,,,,,,,,,,SPECI,270.0
CYPE 052300Z 10004KT 15SM OVC050 12/08 A3003 RMK SC8 SLP186,CYPE,2023-06-05T23:00:00Z,56.22,-117.45,12.0,8.0,100,4,,15.0,30.029528,1018.6,,,,,,,,,,OVC,5000,,,,,,,VFR,,,,,,,,,,,,SPECI,572.0
CYPA 052300Z 02015G22KT 15SM SCT072CB SCT110 BKN270 28/19 A2990 RMK CB4AC1CI1 AC TR CB N SLP127 DENSITY ALT 3300FT,CYPA,2023-06-05T23:00:00Z,53.22,-105.67,28.0,19.0,20,15,22,15.0,29.899607,1012.7,,,,,,,,,,SCT,7200,SCT,11000,BKN,27000,,,VFR,,,,,,,,,,,,SPECI,428.0
CYOY 052300Z 12005KT 080V150 15SM FEW040 BKN150 BKN250 18/05 A2981 RMK FU2AC3CI2 DENSITY ALT 1304FT HAZY SLP098,CYOY,2023-06-05T23:00:00Z,46.88,-71.5,18.0,5.0,120,5,,15.0,29.811024,1009.8,,,,,,,,,,FEW,4000,BKN,15000,BKN,25000,,,VFR,,,,,,,,,,,,SPECI,167.0
CYOW 052300Z 28004KT 4SM FU SCT140 BKN230 21/07 A2983 RMK FU3AC1CI2 SLP106 DENSITY ALT 1300FT,CYOW,2023-06-05T23:00:00Z,45.32,-75.67,21.0,7.0,280,4,,4.0,29.828741,1010.6,,,,,,,,,FU,SCT,14000,BKN,23000,,,,,MVFR,,,,,,,,,,,,SPECI,111.0
CYOO 052300Z AUTO 21004KT 9SM CLR 21/08 A2989 RMK SLP124 DENSITY ALT 1400FT,CYOO,2023-06-05T23:00:00Z,43.92,-78.9,21.0,8.0,210,4,,9.0,29.890747,1012.4,,TRUE,,,,,,,,CLR,,,,,,,,VFR,,,,,,,,,,,,METAR,136.0
CYOJ 052300Z 18004KT 12SM -RA OVC060 15/10 A2998 RMK SC8 SLP163 DENSITY ALT 1400FT,CYOJ,2023-06-05T23:00:00Z,58.62,-117.17,15.0,10.0,180,4,,12.0,29.97933,1016.3,,,,,,,,,-RA,OVC,6000,,,,,,,VFR,,,,,,,,,,,,SPECI,339.0
CYOD 052300Z 10013G22KT 6SM -TSRA FEW036 BKN045 OVC065CB 23/16 A2985 RMK SC2SC3CB3 DENSITY ALT 3502FT CB OHD MOV NE FRQ LTGCCCG SLP108,CYOD,2023-06-05T23:00:00Z,54.4,-110.28,23.0,16.0,100,13,22,6.0,29.84941,1010.8,,,,,,,,,-TSRA,FEW,3600,BKN,4500,OVC,6500,,,VFR,,,,,,,,,,,,SPECI,540.0
CYNM 052300Z AUTO 33018G26KT 9SM CLR 19/06 A2999 RMK SLP162 DENSITY ALT 1600FT,CYNM,2023-06-05T23:00:00Z,49.77,-77.78,19.0,6.0,330,18,26,9.0,29.991142,1016.2,,TRUE,,,,,,,,CLR,,,,,,,,VFR,,,,,,,,,,,,SPECI,276.0
CYNE 052300Z AUTO 18007KT 160V240 9SM CLR 30/18 A3000 RMK SLP162 DENSITY ALT 2600FT,CYNE,2023-06-05T23:00:00Z,53.97,-97.83,30.0,18.0,180,7,,9.0,30.0,1016.2,,TRUE,,,,,,,,CLR,,,,,,,,VFR,,,,,,,,,,,,SPECI,220.0
CYND 052300Z 27005KT 3SM FU SCT040 OVC050 21/10 A2982 RMK FU2SC2FU4 SLP102 DENSITY ALT 1100FT,CYND,2023-06-05T23:00:00Z,45.52,-75.57,21.0,10.0,270,5,,3.0,29.819881,1010.2,,,,,,,,,FU,SCT,4000,OVC,5000,,,,,MVFR,,,,,,,,,,,,SPECI,57.0
CYMX 052300Z 22003KT 180V260 25SM BKN160 OVC250 18/10 A2980 RMK FU2AC3CI3 SLP095 DENSITY ALT 900FT,CYMX,2023-06-05T23:00:00Z,45.67,-74.03,18.0,10.0,220,3,,25.0,29.799213,1009.5,,,,,,,,,,BKN,16000,OVC,25000,,,,,VFR,,,,,,,,,,,,SPECI,78.0
CYMO 052300Z AUTO 35008G18KT 9SM CLR 11/01 A3021 RMK SLP232,CYMO,2023-06-05T23:00:00Z,51.28,-80.62,11.0,1.0,350,8,18,9.0,30.209646,1023.2,,TRUE,,,,,,,,CLR,,,,,,,,VFR,,,,,,,,,,,,SPECI,8.0
CYMJ 052300Z CCA 15014KT 15SM FEW070TCU 32/14 A2992 RMK TCU1 DENSITY ALT 4582FT ANVIL DIST NW CB TOP DIST E SLP121,CYMJ,2023-06-05T23:00:00Z,50.32,-105.55,32.0,14.0,150,14,,15.0,29.920275,1012.1,,,,,,,,,,FEW,7000,,,,,,,VFR,,,,,,,,,,,,SPECI,578.0
CYMH 052300Z AUTO 17009KT 9SM FEW081 BKN130 07/04 A3005 RMK SLP178,CYMH,2023-06-05T23:00:00Z,52.3,-55.82,7.0,4.0,170,9,,9.0,30.050198,1017.8,,TRUE,,,,,,,,FEW,8100,BKN,13000,,,,,VFR,,,,,,,,,,,,SPECI,18.0
CYMA 052300Z 01004KT 300V070 20SM SCT083 21/03 A2985 RMK AC4 FU SLP120 DENSITY ALT 2800FT,CYMA,2023-06-05T23:00:00Z,63.62,-135.87,21.0,3.0,10,4,,20.0,29.84941,1012.0,,,,,,,,,,SCT,8300,,,,,,,VFR,,,,,,,,,,,,SPECI,519.0
CYLW 052300Z AUTO 33019G26KT 9SM CLR 24/M02 A3008 RMK SLP187 DENSITY ALT 2600FT,CYLW,2023-06-05T23:00:00Z,49.95,-119.37,24.0,-2.0,330,19,26,9.0,30.079725,1018.7,,TRUE,,,,,,,,CLR,,,,,,,,VFR,,,,,,,,,,,,SPECI,420.0
CYLK 052300Z 05006KT 25SM OVC026 16/11 A2996 RMK SC8 CIG RAG SLP155 DENSITY ALT 900FT,CYLK,2023-06-05T23:00:00Z,62.42,-110.67,16.0,11.0,50,6,,25.0,29.958662,1015.5,,,,,,,,,,OVC,2600,,,,,,,MVFR,,,,,,,,,,,,SPECI,183.0
CYLH 052300Z AUTO 06009KT 9SM CLR 18/05 A3025 RMK SLP253,CYLH,2023-06-05T23:00:00Z,52.2,-87.93,18.0,5.0,60,9,,9.0,30.250984,1025.3,,TRUE,,,,,,,,CLR,,,,,,,,VFR,,,,,,,,,,,,METAR,245.0
CYLD 052300Z CCA 36010G17KT 330V050 15SM SCT240 18/07 A3011 RMK CS4 SMOKE SLP205 DENSITY ALT 2000FT,CYLD,2023-06-05T23:00:00Z,47.82,-83.35,18.0,7.0,360,10,17,15.0,30.109253,1020.5,,,,,,,,,,SCT,24000,,,,,,,VFR,,,,,,,,,,,,METAR,449.0
CYKP 052300Z AUTO 05010KT 9SM BKN210 OVC230 17/06 A3026 RMK SLP249,CYKP,2023-06-05T23:00:00Z,51.67,-85.9,17.0,6.0,50,10,,9.0,30.259842,1024.9,,TRUE,,,,,,,,BKN,21000,OVC,23000,,,,,VFR,,,,,,,,,,,,METAR,181.0
CYKF 052300Z AUTO 30007KT 9SM SCT060 23/12 A2992 RMK SLP134 DENSITY ALT 2200FT,CYKF,2023-06-05T23:00:00Z,43.47,-80.38,23.0,12.0,300,7,,9.0,29.920275,1013.4,,TRUE,,,,,,,,SCT,6000,,,,,,,VFR,,,,,,,,,,,,METAR,312.0
CYKA 052300Z 27007KT 230V290 40SM FEW100 23/M03 A3012 RMK AC1 AC TR SLP203 DENSITY ALT 2200FT,CYKA,2023-06-05T23:00:00Z,50.7,-120.45,23.0,-3.0,270,7,,40.0,30.121063,1020.3,,,,,,,,,,FEW,10000,,,,,,,VFR,,,,,,,,,,,,SPECI,344.0
CYJT 052300Z 10008KT 15SM OVC059 15/10 A2992 RMK SC8 SLP134,CYJT,2023-06-05T23:00:00Z,48.55,-58.57,15.0,10.0,100,8,,15.0,29.920275,1013.4,,,,,,,,,,OVC,5900,,,,,,,VFR,,,,,,,,,,,,SPECI,7.0
CYIV 052300Z AUTO 08013G19KT 9SM CLR 24/17 A3007 RMK SLP189 DENSITY ALT 1900FT,CYIV,2023-06-05T23:00:00Z,53.85,-94.65,24.0,17.0,80,13,19,9.0,30.070866,1018.9,,TRUE,,,,,,,,CLR,,,,,,,,VFR,,,,,,,,,,,,SPECI,234.0
CYIN 052300Z AUTO 35006KT 260V030 9SM CLR 16/M07 A3018 RMK SLP228 DENSITY ALT 4400FT,CYIN,2023-06-05T23:00:00Z,51.27,-121.68,16.0,-7.0,350,6,,9.0,30.180119,1022.8,,TRUE,,,,,,,,CLR,,,,,,,,VFR,,,,,,,,,,,,METAR,1127.0
CYHY 052300Z 07006KT 12SM FEW080 SCT120 BKN170 BKN250 15/12 A2995 RMK AC1AC2AC2CI2 SLP151,CYHY,2023-06-05T23:00:00Z,60.83,-115.77,15.0,12.0,70,6,,12.0,29.949802,1015.1,,,,,,,,,,FEW,8000,SCT,12000,BKN,17000,BKN,25000,VFR,,,,,,,,,,,,METAR,159.0
CYHU 052300Z AUTO 22005KT 9SM CLR 21/03 A2979 RMK SLP091 DENSITY ALT 1000FT,CYHU,2023-06-05T23:00:00Z,45.52,-73.42,21.0,3.0,220,5,,9.0,29.790354,1009.1,,TRUE,,,,,,,,CLR,,,,,,,,VFR,,,,,,,,,,,,SPECI,26.0
CYHM 052300Z 29003KT 280V340 10SM BKN250 23/09 A2991 RMK CS7 SLP131 DENSITY ALT 1900FT,CYHM,2023-06-05T23:00:00Z,43.17,-79.93,23.0,9.0,290,3,,10.0,29.911417,1013.1,,,,,,,,,,BKN,25000,,,,,,,VFR,,,,,,,,,,,,METAR,237.0
CYHK 052300Z 09007KT 10SM BKN240 03/02 A3022 RMK FU6 SLP239,CYHK,2023-06-05T23:00:00Z,68.62,-95.85,3.0,2.0,90,7,,10.0,30.221457,1023.9,,,,,,,,,,BKN,24000,,,,,,,VFR,,,,,,,,,,,,SPECI,36.0
CYHE 052300Z AUTO 31008G15KT 270V360 9SM CLR 25/06 A3004 RMK SLP176 DENSITY ALT 1200FT,CYHE,2023-06-05T23:00:00Z,49.37,-121.5,25.0,6.0,310,8,15,9.0,30.041338,1017.6,,TRUE,,,,,,,,CLR,,,,,,,,VFR,,,,,,,,,,,,SPECI,43.0
CYGW 052300Z AUTO 02014G22KT 9SM CLR 07/00 A3031 RMK SLP266,CYGW,2023-06-05T23:00:00Z,55.27,-77.77,7.0,0.0,20,14,22,9.0,30.31004,1026.6,,TRUE,,,,,,,,CLR,,,,,,,,VFR,,,,,,,,,,,,SPECI,13.0
CYGV 052300Z AUTO 09006KT 9SM -RA BKN100 OVC120 10/08 A2995 RMK SLP147,CYGV,2023-06-05T23:00:00Z,50.28,-63.62,10.0,8.0,90,6,,9.0,29.949802,1014.7,,TRUE,,,,,,,-RA,BKN,10000,OVC,12000,,,,,VFR,,,,,,,,,,,,SPECI,32.0
CYGR 052300Z 09016G24KT 7SM OVC005 07/06 A2981 RMK SF8 SLP098,CYGR,2023-06-05T23:00:00Z,47.42,-61.77,7.0,6.0,90,16,24,7.0,29.811024,1009.8,,,,,,,,,,OVC,500,,,,,,,IFR,,,,,,,,,,,,SPECI,4.0
CYGP 052300Z 00000KT 5SM -RA BR FEW004 OVC009 08/08 A2992 RMK ST1SC7 SLP133,CYGP,2023-06-05T23:00:00Z,48.77,-64.47,8.0,8.0,0,0,,5.0,29.920275,1013.3,,,,,,,,,-RA BR,FEW,400,OVC,900,,,,,IFR,,,,,,,,,,,,SPECI,31.0
CYGL 052300Z 03008G16KT 15SM FEW240 18/M01 A3016 RMK CI2 SLP223 DENSITY ALT 900FT,CYGL,2023-06-05T23:00:00Z,53.62,-77.7,18.0,-1.0,30,8,16,15.0,30.159449,1022.3,,,,,,,,,,FEW,24000,,,,,,,VFR,,,,,,,,,,,,SPECI,192.0
CYGK 052300Z 18004KT 6SM FU FEW130 FEW170 OVC250 17/13 A2986 RMK AC1AC1CI6 SLP114 DENSITY ALT 700FT,CYGK,2023-06-05T23:00:00Z,44.22,-76.58,17.0,13.0,180,4,,6.0,29.861221,1011.4,,,,,,,,,FU,FEW,13000,FEW,17000,OVC,25000,,,VFR,,,,,,,,,,,,SPECI,91.0
CYGH 052300Z 06005KT 6SM FU BKN100 OVC120 17/08 A3004 RMK FU6AC2 LAST STFD OBS/NXT 061300UTC SLP177 DENSITY ALT 500FT,CYGH,2023-06-05T23:00:00Z,66.23,-128.63,17.0,8.0,60,5,,6.0,30.041338,1017.7,,,,,,,,,FU,BKN,10000,OVC,12000,,,,,VFR,,,,,,,,,,,,SPECI,72.0
CYGE 052300Z VRB07KT 30SM FEW110 SCT220 27/M10 A2995 RMK AC1CI2 SLP138 DENSITY ALT 4600FT,CYGE,2023-06-05T23:00:00Z,51.3,-116.98,27.0,-10.0,0,7,,30.0,29.949802,1013.8,,,,,,,,,,FEW,11000,SCT,22000,,,,,VFR,,,,,,,,,,,,SPECI,786.0
CYFS 052300Z VRB02KT 15SM FEW250 23/05 A2988 RMK CI1 CI TR TR FU ALQDS SLP124 DENSITY ALT 1700FT,CYFS,2023-06-05T23:00:00Z,61.75,-121.22,23.0,5.0,0,2,,15.0,29.878937,1012.4,,,,,,,,,,FEW,25000,,,,,,,VFR,,,,,,,,,,,,SPECI,174.0
CYFO 052300Z 16008KT 15SM BKN060TCU 33/18 A2991 RMK TCU7 LAST OBS/ NEXT 061100UTC SLP129 DENSITY ALT 3300FT,CYFO,2023-06-05T23:00:00Z,54.67,-101.67,33.0,18.0,160,8,,15.0,29.911417,1012.9,,,,,,,,,,BKN,6000,,,,,,,VFR,,,,,,,,,,,,SPECI,303.0
CYFB 052300Z 16004KT 30SM BKN044 BKN080 02/M01 A3018 RMK SC7AC1 AC TR SLP224,CYFB,2023-06-05T23:00:00Z,63.75,-68.55,2.0,-1.0,160,4,,30.0,30.180119,1022.4,,,,,,,,,,BKN,4400,BKN,8000,,,,,VFR,,,,,,,,,,,,SPECI,23.0
CYEV 052300Z 05012KT 15SM VCSH BKN120 16/03 A3014 RMK AC7 CVCTV CLD EMBD SLP213,CYEV,2023-06-05T23:00:00Z,68.32,-133.5,16.0,3.0,50,12,,15.0,30.138779,1021.3,,,,,,,,,VCSH,BKN,12000,,,,,,,VFR,,,,,,,,,,,,SPECI,74.0
CYET 052300Z AUTO 04009KT 9SM FEW036 17/07 A2998 RMK SLP163 DENSITY ALT 3900FT,CYET,2023-06-05T23:00:00Z,53.57,-116.47,17.0,7.0,40,9,,9.0,29.97933,1016.3,,TRUE,,,,,,,,FEW,3600,,,,,,,VFR,,,,,,,,,,,,SPECI,925.0
CYER 052300Z AUTO 09013KT 9SM BKN190 04/02 A3037 RMK SLP287,CYER,2023-06-05T23:00:00Z,56.02,-87.68,4.0,2.0,90,13,,9.0,30.369095,1028.7,,TRUE,,,,,,,,BKN,19000,,,,,,,VFR,,,,,,,,,,,,METAR,11.0
CYEK 052300Z AUTO 13010KT 9SM BKN110 02/01 A3028 RMK SLP256,CYEK,2023-06-05T23:00:00Z,61.1,-94.07,2.0,1.0,130,10,,9.0,30.280512,1025.6,,TRUE,,,,,,,,BKN,11000,,,,,,,VFR,,,,,,,,,,,,SPECI,7.0
CYEG 052300Z 29007KT 25SM SCT210 BKN250 18/11 A2992 RMK CI3CC4 SLP137 DENSITY ALT 3400FT,CYEG,2023-06-05T23:00:00Z,53.3,-113.58,18.0,11.0,290,7,,25.0,29.920275,1013.7,,,,,,,,,,SCT,21000,BKN,25000,,,,,VFR,,,,,,,,,,,,SPECI,710.0
CYDQ 052300Z AUTO 23014G19KT 9SM FEW240 17/M01 A3005 RMK SLP192 DENSITY ALT 2800FT,CYDQ,2023-06-05T23:00:00Z,55.75,-120.18,17.0,-1.0,230,14,19,9.0,30.050198,1019.2,,TRUE,,,,,,,,FEW,24000,,,,,,,VFR,,,,,,,,,,,,SPECI,658.0
CYDP 052300Z 09006KT 15SM OVC023 04/01 A3021 RMK SC8 LAST STAFFED OB/ NEXT 060800 SLP231,CYDP,2023-06-05T23:00:00Z,56.53,-61.68,4.0,1.0,90,6,,15.0,30.209646,1023.1,,,,,,,,,,OVC,2300,,,,,,,MVFR,,,,,,,,,,,,SPECI,14.0
CYDN 052300Z AUTO 26004KT 9SM CLR 25/19 A2999 RMK ICE MISG SLP158 DENSITY ALT 2400FT,CYDN,2023-06-05T23:00:00Z,51.1,-100.05,25.0,19.0,260,4,,9.0,29.991142,1015.8,,TRUE,,,,,,,,CLR,,,,,,,,VFR,,,,,,,,,,,,SPECI,302.0
CYDL 052300Z AUTO VRB02KT 9SM -RA FEW004 SCT019 BKN029 OVC100 02/01 A3003 RMK PCPN 2.0MM PAST HR SLP194,CYDL,2023-06-05T23:00:00Z,58.42,-130.02,2.0,1.0,0,2,,9.0,30.029528,1019.4,,TRUE,,,,,,,-RA,FEW,400,SCT,1900,BKN,2900,OVC,10000,MVFR,,,,,,,,,,,,METAR,804.0
CYDF 052300Z 03008KT 15SM BKN059 OVC150 11/09 A2999 RMK SC5AC3 SLP159,CYDF,2023-06-05T23:00:00Z,49.22,-57.4,11.0,9.0,30,8,,15.0,29.991142,1015.9,,,,,,,,,,BKN,5900,OVC,15000,,,,,VFR,,,,,,,,,,,,SPECI,15.0
CYDC 052300Z 06011KT 320V100 25SM FEW160 FEW260 23/M04 A3008 RMK AC1CI1 AC TR CI TR SLP188 DENSITY ALT 3600FT,CYDC,2023-06-05T23:00:00Z,49.47,-120.52,23.0,-4.0,60,11,,25.0,30.079725,1018.8,,,,,,,,,,FEW,16000,FEW,26000,,,,,VFR,,,,,,,,,,,,SPECI,703.0
CYDB 052300Z 34007G16KT 270V080 15SM FEW055 SCT210 21/M04 A2990 RMK CU2CI2 SLP142 DENSITY ALT 4000FT,CYDB,2023-06-05T23:00:00Z,61.37,-139.02,21.0,-4.0,340,7,16,15.0,29.899607,1014.2,,,,,,,,,,FEW,5500,SCT,21000,,,,,VFR,,,,,,,,,,,,SPECI,807.0
CYDA 052300Z VRB06KT 20SM FEW065 SCT220 24/00 A2984 RMK CU2CI2 SLP117 DENSITY ALT 2700FT,CYDA,2023-06-05T23:00:00Z,64.03,-139.12,24.0,0.0,0,6,,20.0,29.840551,1011.7,,,,,,,,,,FEW,6500,SCT,22000,,,,,VFR,,,,,,,,,,,,SPECI,338.0
CYCY 052300Z 31008KT 15SM SCT016 OVC028 M01/M05 A3022 RMK SF3SC5 LAST STFD OB/NEXT 061400Z SLP237,CYCY,2023-06-05T23:00:00Z,70.48,-68.52,-1.0,-5.0,310,8,,15.0,30.221457,1023.7,,,,,,,,,,SCT,1600,OVC,2800,,,,,MVFR,,,,,,,,,,,,SPECI,73.0
CYCX 052300Z 02010G15KT 350V060 15SM OVC006 10/09 A2974 RMK SC8 DENSITY ALT -88FT SLP071,CYCX,2023-06-05T23:00:00Z,45.83,-66.45,10.0,9.0,20,10,15,15.0,29.740158,1007.1,,,,,,,,,,OVC,600,,,,,,,IFR,,,,,,,,,,,,SPECI,46.0
CYCQ 052300Z 23010G21KT 190V270 35SM FEW040 SCT050 BKN100 BKN220 18/M04 A3003 RMK CU1SC3AC1CI1 CI TR PCPN DIST MTS W FU VLY W SLP188 DENSITY ALT 2800FT,CYCQ,2023-06-05T23:00:00Z,55.7,-121.62,18.0,-4.0,230,10,21,35.0,30.029528,1018.8,,,,,,,,,,FEW,4000,SCT,5000,BKN,10000,BKN,22000,VFR,,,,,,,,,,,,SPECI,614.0
CYCP 052300Z 25006G16KT 190V300 15SM FEW080 20/M03 A3014 RMK CU2 SLP217 DENSITY ALT 3200FT,CYCP,2023-06-05T23:00:00Z,52.13,-119.28,20.0,-3.0,250,6,16,15.0,30.138779,1021.7,,,,,,,,,,FEW,8000,,,,,,,VFR,,,,,,,,,,,,SPECI,677.0
CYCO 052300Z 02011G16KT 12SM BKN220 08/04 A3019 RMK FU3CC2 FU SLP226,CYCO,2023-06-05T23:00:00Z,67.82,-115.15,8.0,4.0,20,11,16,12.0,30.188976,1022.6,,,,,,,,,,BKN,22000,,,,,,,VFR,,,,,,,,,,,,SPECI,20.0
CYCK 052300Z AUTO 22010KT 9SM CLR 21/08 A2996 RMK SLP147 DENSITY ALT 1500FT,CYCK,2023-06-05T23:00:00Z,42.3,-82.08,21.0,8.0,220,10,,9.0,29.958662,1014.7,,TRUE,,,,,,,,CLR,,,,,,,,VFR,,,,,,,,,,,,METAR,196.0
CYCG 052300Z 35010KT 15SM FEW080 30/M01 A2990 RMK CF1 CF TR SLP123 DENSITY ALT 3700FT,CYCG,2023-06-05T23:00:00Z,49.28,-117.63,30.0,-1.0,350,10,,15.0,29.899607,1012.3,,,,,,,,,,FEW,8000,,,,,,,VFR,,,,,,,,,,,,SPECI,487.0
CYCB 052300Z 07006KT 15SM VCFG SCT003 BKN070 BKN200 05/03 A3014 RMK SF3AC2CS2 VIS N-NE 5 FU SLP212,CYCB,2023-06-05T23:00:00Z,69.1,-105.12,5.0,3.0,70,6,,15.0,30.138779,1021.2,,,,,,,,,VCFG,SCT,300,BKN,7000,BKN,20000,,,VFR,,,,,,,,,,,,SPECI,19.0
CYBX 052300Z 10011KT 15SM BKN067 OVC110 11/07 A3001 RMK AC6AC2 SLP168,CYBX,2023-06-05T23:00:00Z,51.45,-57.18,11.0,7.0,100,11,,15.0,30.008858,1016.8,,,,,,,,,,BKN,6700,OVC,11000,,,,,VFR,,,,,,,,,,,,SPECI,32.0
CYBW 052300Z AUTO VRB08KT 9SM CLR 23/09 A2993 RMK SLP126 DENSITY ALT 5800FT,CYBW,2023-06-05T23:00:00Z,51.1,-114.37,23.0,9.0,0,8,,9.0,29.929134,1012.6,,TRUE,,,,,,,,CLR,,,,,,,,VFR,,,,,,,,,,,,SPECI,1197.0
CYBR 052300Z 12007KT 15SM VCSH FEW040CB BKN130 BKN170 28/18 A3001 RMK CB2AC3AC1 SLP163 DENSITY ALT 3100FT,CYBR,2023-06-05T23:00:00Z,49.92,-99.95,28.0,18.0,120,7,,15.0,30.008858,1016.3,,,,,,,,,VCSH,FEW,4000,BKN,13000,BKN,17000,,,VFR,,,,,,,,,,,,METAR,405.0
CYBL 052300Z 29008KT 220V330 30SM FEW250 23/M05 A3018 RMK CI1 SLP221 DENSITY ALT 1100FT,CYBL,2023-06-05T23:00:00Z,49.95,-125.27,23.0,-5.0,290,8,,30.0,30.180119,1022.1,,,,,,,,,,FEW,25000,,,,,,,VFR,,,,,,,,,,,,SPECI,94.0
CYBK 052300Z 14004KT 070V160 20SM FEW086 FEW210 FEW230 08/03 A3020 RMK AC1CS1CI1 CI TR SLP230,CYBK,2023-06-05T23:00:00Z,64.3,-96.07,8.0,3.0,140,4,,20.0,30.200787,1023.0,,,,,,,,,,FEW,8600,FEW,21000,FEW,23000,,,VFR,,,,,,,,,,,,SPECI,14.0
CYBG 052300Z 16002KT 15SM SCT044 BKN110 OVC240 16/07 A2982 RMK SC3AC4CI1 DENSITY ALT 1048FT SLP103,CYBG,2023-06-05T23:00:00Z,48.33,-70.98,16.0,7.0,160,2,,15.0,29.819881,1010.3,,,,,,,,,,SCT,4400,BKN,11000,OVC,24000,,,VFR,,,,,,,,,,,,SPECI,151.0
CYBD 052300Z 24013G20KT 210V270 15SM FEW130 19/03 A3027 RMK AC1 AC TR SLP254,CYBD,2023-06-05T23:00:00Z,52.38,-126.58,19.0,3.0,240,13,20,15.0,30.268702,1025.4,,,,,,,,,,FEW,13000,,,,,,,VFR,,,,,,,,,,,,SPECI,40.0
CYBC 052300Z AUTO 10011KT 9SM FEW160 11/08 A2987 RMK SLP119,CYBC,2023-06-05T23:00:00Z,49.13,-68.2,11.0,8.0,100,11,,9.0,29.870079,1011.9,,TRUE,,,,,,,,FEW,16000,,,,,,,VFR,,,,,,,,,,,,SPECI,20.0
CYBB 052300Z 07003KT 12SM OVC009 02/00 A3026 RMK ST8 LAST STFD OBS/NXT/061200Z SLP251,CYBB,2023-06-05T23:00:00Z,68.53,-89.78,2.0,0.0,70,3,,12.0,30.259842,1025.1,,,,,,,,,,OVC,900,,,,,,,IFR,,,,,,,,,,,,SPECI,13.0
CYAZ 052300Z 30011KT 15SM FEW250 20/06 A3016 RMK CI1 SLP214 DENSITY ALT 400FT,CYAZ,2023-06-05T23:00:00Z,49.08,-125.77,20.0,6.0,300,11,,15.0,30.159449,1021.4,,,,,,,,,,FEW,25000,,,,,,,VFR,,,,,,,,,,,,SPECI,26.0
CYAY 052300Z AUTO 12011KT 9SM OVC110 05/03 A3006 RMK SLP182,CYAY,2023-06-05T23:00:00Z,51.38,-56.07,5.0,3.0,120,11,,9.0,30.059055,1018.2,,TRUE,,,,,,,,OVC,11000,,,,,,,VFR,,,,,,,,,,,,SPECI,23.0
CYAT 052300Z AUTO 05011KT 9SM 10/00 A3032 RMK CLD MISG SLP269,CYAT,2023-06-05T23:00:00Z,52.93,-82.43,10.0,0.0,50,11,,9.0,30.318897,1026.9,,TRUE,,,,,,,,,,,,,,,,,,,,,,,,,,,,METAR,4.0
CYAM 052300Z 35007KT 6SM FU FEW080 BKN180 BKN250 24/13 A3001 RMK AC1AC6CI1 AC TR SLP165 DENSITY ALT 1800FT,CYAM,2023-06-05T23:00:00Z,46.48,-84.52,24.0,13.0,350,7,,6.0,30.008858,1016.5,,,,,,,,,FU,FEW,8000,BKN,18000,BKN,25000,,,VFR,,,,,,,,,,,,SPECI,186.0
CYAH 052300Z AUTO 05010G17KT 9SM CLR 14/M02 A3014 RMK SLP218,CYAH,2023-06-05T23:00:00Z,53.75,-73.67,14.0,-2.0,50,10,17,9.0,30.138779,1021.8,,TRUE,,,,,,,,CLR,,,,,,,,VFR,,,,,,,,,,,,SPECI,298.0
CXZV 052300Z AUTO 07004KT 10/06 RMK AO1 SLP139 T00950060 56005,CXZV,2023-06-05T23:00:00Z,50.22,-66.25,9.5,6.0,70,4,,,,1013.9,,TRUE,TRUE,,,,,,,,,,,,,,,,-0.5,,,,,,,,,,,METAR,43.0
CXZC 052300Z AUTO 36007KT 12/01 RMK AO1 SLP238 T01210006 56003,CXZC,2023-06-05T23:00:00Z,51.3,-80.62,12.1,0.6,360,7,,,,1023.8,,TRUE,TRUE,,,,,,,,,,,,,,,,-0.3,,,,,,,,,,,METAR,8.0
CXYH 052300Z AUTO 18007KT 23/M02 RMK AO1 PK WND 18017/2248 T02291015,CXYH,2023-06-05T23:00:00Z,61.25,-123.75,22.9,-1.5,180,7,,,,,,TRUE,TRUE,,,,,,,,,,,,,,,,,,,,,,,,,,,METAR,197.0
CXWN 052300Z AUTO 22001KT 32/17 RMK AO1 SLP157 T03180171 56014,CXWN,2023-06-05T23:00:00Z,49.88,-97.13,31.8,17.1,220,1,,,,1015.7,,TRUE,TRUE,,,,,,,,,,,,,,,,-1.4,,,,,,,,,,,METAR,232.0
CXWM 052300Z AUTO 13002KT 28/07 RMK AO1 T02760074,CXWM,2023-06-05T23:00:00Z,49.5,-112.12,27.6,7.4,130,2,,,,,,TRUE,TRUE,,,,,,,,,,,,,,,,,,,,,,,,,,,METAR,947.0
CXVW 052300Z AUTO 31008KT 14/03 RMK AO1 T01430032 53001,CXVW,2023-06-05T23:00:00Z,55.1,-117.2,14.3,3.2,310,8,,,,,,TRUE,TRUE,,,,,,,,,,,,,,,,0.1,,,,,,,,,,,METAR,696.0
CXVN 052300Z AUTO 20006KT 22/10 RMK AO1 SLP127 T02170097 56015,CXVN,2023-06-05T23:00:00Z,43.18,-79.4,21.7,9.7,200,6,,,,1012.7,,TRUE,TRUE,,,,,,,,,,,,,,,,-1.5,,,,,,,,,,,METAR,86.0
CXVM 052300Z AUTO 05005KT 21/19 RMK AO1 T02120186 50026,CXVM,2023-06-05T23:00:00Z,53.35,-110.88,21.2,18.6,50,5,,,,,,TRUE,TRUE,,,,,,,,,,,,,,,,2.6,,,,,,,,,,,METAR,622.0
CXTV 052300Z AUTO 03010KT 12/02 RMK AO1 SLP221 T01200022 58014,CXTV,2023-06-05T23:00:00Z,68.75,-133.5,12.0,2.2,30,10,,,,1022.1,,TRUE,TRUE,,,,,,,,,,,,,,,,-1.4,,,,,,,,,,,METAR,91.0
CXTP 052300Z AUTO 07002KT 05/04 RMK AO1 SLP180 T00490035 58005,CXTP,2023-06-05T23:00:00Z,48.55,-53.97,4.9,3.5,70,2,,,,1018.0,,TRUE,TRUE,,,,,,,,,,,,,,,,-0.5,,,,,,,,,,,METAR,104.0
CXTO 052300Z AUTO 21/08 RMK AO1 SLP125 T02130078 56013,CXTO,2023-06-05T23:00:00Z,43.67,-79.4,21.3,7.8,,,,,,1012.5,,TRUE,TRUE,,,,,,,,,,,,,,,,-1.3,,,,,,,,,,,METAR,115.0
CXTN 052300Z AUTO 07010KT 09/01 RMK AO1 SLP259 T00850005 56002,CXTN,2023-06-05T23:00:00Z,69.2,-122.35,8.5,0.5,70,10,,,,1025.9,,TRUE,TRUE,,,,,,,,,,,,,,,,-0.2,,,,,,,,,,,METAR,564.0
CXTH 052300Z AUTO 21003KT 26/16 RMK AO1 T02610155,CXTH,2023-06-05T23:00:00Z,53.63,-111.68,26.1,15.5,210,3,,,,,,TRUE,TRUE,,,,,,,,,,,,,,,,,,,,,,,,,,,METAR,679.0
CXTD 052300Z AUTO 07007KT 09/08 RMK AO1 3PAST HR 8033 PK WND 07017/2230 SLP058 P0001 T00860080 50010,CXTD,2023-06-05T23:00:00Z,45.62,-61.68,8.6,8.0,70,7,,,,1005.8,,TRUE,TRUE,,,,,,,,,,,,,,,,1.0,,,,,0.01,,,,,,METAR,58.0
CXSP 052300Z AUTO 00000KT 23/16 RMK AO1 T02340164,CXSP,2023-06-05T23:00:00Z,54.02,-111.27,23.4,16.4,0,0,,,,,,TRUE,TRUE,,,,,,,,,,,,,,,,,,,,,,,,,,,METAR,652.0
CXSL 052300Z AUTO 31010KT 24/16 RMK AO1 T02390159,CXSL,2023-06-05T23:00:00Z,54.28,-112.5,23.9,15.9,310,10,,,,,,TRUE,TRUE,,,,,,,,,,,,,,,,,,,,,,,,,,,METAR,680.0
CXSH 052300Z AUTO 30002KT 20/08 RMK AO1 SLP089 T02010076 56012,CXSH,2023-06-05T23:00:00Z,46.55,-72.73,20.1,7.6,300,2,,,,1008.9,,TRUE,TRUE,,,,,,,,,,,,,,,,-1.2,,,,,,,,,,,METAR,106.0
CXSE 052300Z AUTO 29012KT 02/M00 RMK AO1 SLP228 T00191003 51011,CXSE,2023-06-05T23:00:00Z,73.77,-105.28,1.9,-0.3,290,12,,,,1022.8,,TRUE,TRUE,,,,,,,,,,,,,,,,1.1,,,,,,,,,,,METAR,11.0
CXSC 052300Z AUTO 17010KT 26/16 RMK AO1 T02620157,CXSC,2023-06-05T23:00:00Z,50.3,-110.08,26.2,15.7,170,10,,,,,,TRUE,TRUE,,,,,,,,,,,,,,,,,,,,,,,,,,,METAR,809.0
CXRL 052300Z AUTO 00000KT 25/17 RMK AO1 T02460173,CXRL,2023-06-05T23:00:00Z,54.5,-111.7,24.6,17.3,0,0,,,,,,TRUE,TRUE,,,,,,,,,,,,,,,,,,,,,,,,,,,METAR,585.0
CXRH 052300Z AUTO 13005KT 14/08 RMK AO1 SLP148 T01400075 58008,CXRH,2023-06-05T23:00:00Z,49.57,-57.88,14.0,7.5,130,5,,,,1014.8,,TRUE,TRUE,,,,,,,,,,,,,,,,-0.8,,,,,,,,,,,METAR,68.0
CXRB 052300Z AUTO 14007KT M00/M02 RMK AO1 SOG 06 8009 SLP222 T10011021,CXRB,2023-06-05T23:00:00Z,74.72,-94.98,-0.1,-2.1,140,7,,,,1022.2,,TRUE,TRUE,,,,,,,,,,,,,,,,,,,,,,,,,,,METAR,30.0
CXPL 052300Z AUTO 20012KT 31/07 RMK AO1 PK WND 19019/2223 T03060073,CXPL,2023-06-05T23:00:00Z,51.13,-111.7,30.6,7.3,200,12,,,,,,TRUE,TRUE,,,,,,,,,,,,,,,,,,,,,,,,,,,METAR,735.0
CXPC 052300Z AUTO 18/13 RMK AO1 SLP136 T01820128 56010,CXPC,2023-06-05T23:00:00Z,45.35,-80.05,18.2,12.8,,,,,,1013.6,,TRUE,TRUE,,,,,,,,,,,,,,,,-1.0,,,,,,,,,,,METAR,176.0
CXPA 052300Z AUTO 30009KT 16/01 RMK AO1 PK WND 33018/2222 T01600005,CXPA,2023-06-05T23:00:00Z,55.62,-118.3,16.0,0.5,300,9,,,,,,TRUE,TRUE,,,,,,,,,,,,,,,,,,,,,,,,,,,METAR,628.0
CXOY 052300Z AUTO 19018KT 29/13 RMK AO1 PK WND 17026/2210 T02850129,CXOY,2023-06-05T23:00:00Z,51.35,-110.35,28.5,12.9,190,18,,,,,,TRUE,TRUE,,,,,,,,,,,,,,,,,,,,,,,,,,,METAR,784.0
CXOX 052300Z AUTO 21006KT 31/14 RMK AO1 SLP114 T03070141 56010,CXOX,2023-06-05T23:00:00Z,55.15,-105.27,30.7,14.1,210,6,,,,1011.4,,TRUE,TRUE,,,,,,,,,,,,,,,,-1.0,,,,,,,,,,,METAR,381.0
CXOL 052300Z AUTO 35003KT 22/10 RMK AO1 T02200098,CXOL,2023-06-05T23:00:00Z,51.77,-114.08,22.0,9.8,350,3,,,,,,TRUE,TRUE,,,,,,,,,,,,,,,,,,,,,,,,,,,METAR,1026.0
CXNP 052300Z AUTO 03008KT 10/10 RMK AO1 2PAST HR 6021 PK WND 02017/2236 SLP052 P0009 T01030096 50032,CXNP,2023-06-05T23:00:00Z,45.75,-64.23,10.3,9.6,30,8,,,,1005.2,,TRUE,TRUE,,,,,,,,,,,,,,,,3.2,,,,,0.09,,,,,,METAR,19.0
CXNM 052300Z AUTO 10014G22KT 05/05 RMK AO1 PK WND 11022/2253 T00510052,CXNM,2023-06-05T23:00:00Z,46.82,-60.67,5.1,5.2,100,14,22,,,,,TRUE,TRUE,,,,,,,,,,,,,,,,,,,,,,,,,,,METAR,452.0
CXMY 052300Z AUTO 10/09 RMK AO1 4PAST HR M P0029 T00980093 50199,CXMY,2023-06-05T23:00:00Z,44.98,-62.48,9.8,9.3,,,,,,,,TRUE,TRUE,,,,,,,,,,,,,,,,0.0,,,,,0.29,,,,,,METAR,37.0
CXMO 052300Z AUTO 23007KT 28/12 RMK AO1 T02750115,CXMO,2023-06-05T23:00:00Z,51.67,-112.68,27.5,11.5,230,7,,,,,,TRUE,TRUE,,,,,,,,,,,,,,,,,,,,,,,,,,,METAR,837.0
CXMM 052300Z AUTO 02006KT 25/17 RMK AO1 SLP109 T02450173 58028,CXMM,2023-06-05T23:00:00Z,56.65,-111.22,24.5,17.3,20,6,,,,1010.9,,TRUE,TRUE,,,,,,,,,,,,,,,,-2.8,,,,,,,,,,,METAR,372.0
CXMI 052300Z AUTO 01016G22KT 11/10 RMK AO1 PK WND 01034/2214 SLP990 T01060098 56041,CXMI,2023-06-05T23:00:00Z,44.6,-63.53,10.6,9.8,10,16,22,,,999.0,,TRUE,TRUE,,,,,,,,,,,,,,,,-4.1,,,,,,,,,,,METAR,15.0
CXMG 052300Z AUTO 14007KT 11/08 RMK AO1 T01070080,CXMG,2023-06-05T23:00:00Z,56.97,-117.45,10.7,8.0,140,7,,,,,,TRUE,TRUE,,,,,,,,,,,,,,,,,,,,,,,,,,,METAR,467.0
CXMD 052300Z AUTO 15002KT 31/16 RMK AO1 SLP159 T03060163 56015,CXMD,2023-06-05T23:00:00Z,49.18,-98.08,30.6,16.3,150,2,,,,1015.9,,TRUE,TRUE,,,,,,,,,,,,,,,,-1.5,,,,,,,,,,,METAR,297.0
CXLL 052300Z AUTO 24/02 RMK AO1 SLP115 T02400017 58019,CXLL,2023-06-05T23:00:00Z,61.12,-122.85,24.0,1.7,,,,,,1011.5,,TRUE,TRUE,,,,,,,,,,,,,,,,-1.9,,,,,,,,,,,METAR,180.0
CXLC 052300Z AUTO 06012G17KT 22/10 RMK AO1 PK WND 06017/2251 SLP156 T02190104 58012,CXLC,2023-06-05T23:00:00Z,63.6,-113.85,21.9,10.4,60,12,17,,,1015.6,,TRUE,TRUE,,,,,,,,,,,,,,,,-1.2,,,,,,,,,,,METAR,370.0
CXLB 052300Z AUTO 35010G17KT 11/11 RMK AO1 PK WND 00017/2252 SLP982 T01130107 58045,CXLB,2023-06-05T23:00:00Z,44.37,-64.3,11.3,10.7,350,10,17,,,998.2,,TRUE,TRUE,,,,,,,,,,,,,,,,-4.5,,,,,,,,,,,METAR,4.0
CXKT 052300Z AUTO 03008G16KT 10/09 RMK AO1 2PAST HR 8029 PK WND 01017/2240 SLP026 P0028 T00970094 50280,CXKT,2023-06-05T23:00:00Z,45.07,-64.48,9.7,9.4,30,8,16,,,1002.6,,TRUE,TRUE,,,,,,,,,,,,,,,,0.0,,,,,0.28,,,,,,METAR,48.0
CXKM 052300Z AUTO 24007KT 29/11 RMK AO1 T02890112,CXKM,2023-06-05T23:00:00Z,52.83,-111.87,28.9,11.2,240,7,,,,,,TRUE,TRUE,,,,,,,,,,,,,,,,,,,,,,,,,,,METAR,679.0
CXKI 052300Z AUTO 35008KT 18/04 RMK AO1 PK WND 01019/2232 SLP165 T01810044 51004,CXKI,2023-06-05T23:00:00Z,48.13,-80.0,18.1,4.4,350,8,,,,1016.5,,TRUE,TRUE,,,,,,,,,,,,,,,,0.4,,,,,,,,,,,METAR,328.0
CXKE 052300Z AUTO 23001KT 20/11 RMK AO1 SLP103 T01990106 56015,CXKE,2023-06-05T23:00:00Z,45.0,-75.63,19.9,10.6,230,1,,,,1010.3,,TRUE,TRUE,,,,,,,,,,,,,,,,-1.5,,,,,,,,,,,METAR,99.0
CXKA 052300Z AUTO 01010G17KT 16/04 RMK AO1 PK WND 21018/2211 SLP223 T01640035 58009,CXKA,2023-06-05T23:00:00Z,49.4,-82.45,16.4,3.5,10,10,17,,,1022.3,,TRUE,TRUE,,,,,,,,,,,,,,,,-0.9,,,,,,,,,,,METAR,221.0
CXIB 052300Z AUTO 02002KT 07/07 RMK AO1 3PAST HR 8022 SLP098 P0001 T00690067 50032,CXIB,2023-06-05T23:00:00Z,46.67,-60.4,6.9,6.7,20,2,,,,1009.8,,TRUE,TRUE,,,,,,,,,,,,,,,,3.2,,,,,0.01,,,,,,METAR,6.0
CXHR 052300Z AUTO 24006KT 27/08 RMK AO1 T02710076,CXHR,2023-06-05T23:00:00Z,51.18,-112.5,27.1,7.6,240,6,,,,,,TRUE,TRUE,,,,,,,,,,,,,,,,,,,,,,,,,,,METAR,975.0
CXHP 052300Z AUTO 27003KT 11/08 RMK AO1 T01070081 50013,CXHP,2023-06-05T23:00:00Z,55.4,-116.48,10.7,8.1,270,3,,,,,,TRUE,TRUE,,,,,,,,,,,,,,,,1.3,,,,,,,,,,,METAR,601.0
CXHM 052300Z AUTO 27003KT 24/07 RMK AO1 SLP125 T02350067 56013,CXHM,2023-06-05T23:00:00Z,43.28,-79.9,23.5,6.7,270,3,,,,1012.5,,TRUE,TRUE,,,,,,,,,,,,,,,,-1.3,,,,,,,,,,,METAR,105.0
CXHD 052300Z AUTO 25002KT 27/14 RMK AO1 T02730140,CXHD,2023-06-05T23:00:00Z,53.18,-112.25,27.3,14.0,250,2,,,,,,TRUE,TRUE,,,,,,,,,,,,,,,,,,,,,,,,,,,METAR,688.0
CXHA 052300Z AUTO 19006KT 21/11 RMK AO1 SLP152 T02070107 56010,CXHA,2023-06-05T23:00:00Z,42.03,-82.9,20.7,10.7,190,6,,,,1015.2,,TRUE,TRUE,,,,,,,,,,,,,,,,-1.0,,,,,,,,,,,METAR,193.0
CXGH 052300Z AUTO 05006KT 26/23 RMK AO1 SLP164 T02600232 56017,CXGH,2023-06-05T23:00:00Z,50.63,-97.0,26.0,23.2,50,6,,,,1016.4,,TRUE,TRUE,,,,,,,,,,,,,,,,-1.7,,,,,,,,,,,METAR,217.0
CXFR 052300Z AUTO 27015KT 17/M02 RMK AO1 PK WND 27022/2253 T01671016,CXFR,2023-06-05T23:00:00Z,56.08,-118.43,16.7,-1.6,270,15,,,,,,TRUE,TRUE,,,,,,,,,,,,,,,,,,,,,,,,,,,METAR,657.0
CXFM 052300Z AUTO 12017KT 22/15 RMK AO1 PK WND 13023/2258 T02240150,CXFM,2023-06-05T23:00:00Z,49.48,-111.48,22.4,15.0,120,17,,,,,,TRUE,TRUE,,,,,,,,,,,,,,,,,,,,,,,,,,,METAR,884.0
CXET 052300Z AUTO 34008KT 19/12 RMK AO1 SLP138 T01850122 58005,CXET,2023-06-05T23:00:00Z,44.23,-79.78,18.5,12.2,340,8,,,,1013.8,,TRUE,TRUE,,,,,,,,,,,,,,,,-0.5,,,,,,,,,,,METAR,250.0
CXEG 052300Z AUTO 31007KT 18/10 RMK AO1 SLP135 T01820098 56011,CXEG,2023-06-05T23:00:00Z,53.3,-113.6,18.2,9.8,310,7,,,,1013.5,,TRUE,TRUE,,,,,,,,,,,,,,,,-1.1,,,,,,,,,,,METAR,706.0
CXEC 052300Z AUTO 30010KT 17/10 RMK AO1 SLP134 T01720096 56011,CXEC,2023-06-05T23:00:00Z,53.57,-113.52,17.2,9.6,300,10,,,,1013.4,,TRUE,TRUE,,,,,,,,,,,,,,,,-1.1,,,,,,,,,,,METAR,666.0
CXEA 052300Z AUTO 13004KT 21/17 RMK AO1 SLP198 T02120166 58011,CXEA,2023-06-05T23:00:00Z,50.63,-93.22,21.2,16.6,130,4,,,,1019.8,,TRUE,TRUE,,,,,,,,,,,,,,,,-1.1,,,,,,,,,,,METAR,351.0
CXDW 052300Z AUTO 36007KT 29/19 RMK AO1 SLP160 T02920187 56014,CXDW,2023-06-05T23:00:00Z,49.4,-98.32,29.2,18.7,360,7,,,,1016.0,,TRUE,TRUE,,,,,,,,,,,,,,,,-1.4,,,,,,,,,,,METAR,341.0
CXDK 052300Z AUTO 23/M07 RMK AO1 SLP112 T02281066 57008,CXDK,2023-06-05T23:00:00Z,61.27,-124.47,22.8,-6.6,,,,,,1011.2,,TRUE,TRUE,,,,,,,,,,,,,,,,-0.8,,,,,,,,,,,METAR,269.0
CXDI 052300Z AUTO 22005KT 21/08 RMK AO1 SLP137 T02110077 57008,CXDI,2023-06-05T23:00:00Z,42.87,-80.55,21.1,7.7,220,5,,,,1013.7,,TRUE,TRUE,,,,,,,,,,,,,,,,-0.8,,,,,,,,,,,METAR,234.0
CXDE 052300Z AUTO 17002KT 08/04 RMK AO1 SLP152 T00760041 56016,CXDE,2023-06-05T23:00:00Z,65.22,-123.43,7.6,4.1,170,2,,,,1015.2,,TRUE,TRUE,,,,,,,,,,,,,,,,-1.6,,,,,,,,,,,METAR,208.0
CXDB 052300Z AUTO 11004KT 26/07 RMK AO1 T02640066,CXDB,2023-06-05T23:00:00Z,49.05,-112.82,26.4,6.6,110,4,,,,,,TRUE,TRUE,,,,,,,,,,,,,,,,,,,,,,,,,,,METAR,1311.0
CXCS 052300Z AUTO 26011KT 21/17 RMK AO1 2PAST HR M PK WND 27018/2246 P0005 T02080169 50012,CXCS,2023-06-05T23:00:00Z,51.93,-110.72,20.8,16.9,260,11,,,,,,TRUE,TRUE,,,,,,,,,,,,,,,,1.2,,,,,0.05,,,,,,METAR,771.0
CXCP 052300Z AUTO 17008KT 27/06 RMK AO1 T02740063,CXCP,2023-06-05T23:00:00Z,50.28,-113.35,27.4,6.3,170,8,,,,,,TRUE,TRUE,,,,,,,,,,,,,,,,,,,,,,,,,,,METAR,999.0
CXCK 052300Z AUTO 02008G16KT 20/04 RMK AO1 SLP113 T02010036 56009,CXCK,2023-06-05T23:00:00Z,62.12,-136.2,20.1,3.6,20,8,16,,,1011.3,,TRUE,TRUE,,,,,,,,,,,,,,,,-0.9,,,,,,,,,,,METAR,526.0
CXCD 052300Z AUTO 22009KT 15/M02 RMK AO1 T01541020,CXCD,2023-06-05T23:00:00Z,56.32,-119.75,15.4,-2.0,220,9,,,,,,TRUE,TRUE,,,,,,,,,,,,,,,,,,,,,,,,,,,METAR,628.0
CXCA 052300Z AUTO 36009KT 19/12 RMK AO1 SLP214 T01860120 56013,CXCA,2023-06-05T23:00:00Z,49.15,-88.35,18.6,12.0,360,9,,,,1021.4,,TRUE,TRUE,,,,,,,,,,,,,,,,-1.3,,,,,,,,,,,METAR,228.0
CXBW 052300Z AUTO 19007KT 28/08 RMK AO1 T02760076,CXBW,2023-06-05T23:00:00Z,49.8,-112.3,27.6,7.6,190,7,,,,,,TRUE,TRUE,,,,,,,,,,,,,,,,,,,,,,,,,,,METAR,823.0
CXBR 052300Z AUTO 20006KT 29/04 RMK AO1 T02850035,CXBR,2023-06-05T23:00:00Z,49.62,-113.82,28.5,3.5,200,6,,,,,,TRUE,TRUE,,,,,,,,,,,,,,,,,,,,,,,,,,,METAR,1137.0
CXBO 052300Z AUTO 10010KT 16/09 RMK AO1 T01610089,CXBO,2023-06-05T23:00:00Z,46.83,-71.2,16.1,8.9,100,10,,,,,,TRUE,TRUE,,,,,,,,,,,,,,,,,,,,,,,,,,,METAR,8.0
CXBK 052300Z AUTO 17014G20KT 32/12 RMK AO1 PK WND 17020/2221 T03150115,CXBK,2023-06-05T23:00:00Z,50.2,-104.7,31.5,11.5,170,14,20,,,,,TRUE,TRUE,,,,,,,,,,,,,,,,,,,,,,,,,,,METAR,585.0
CXBI 052300Z AUTO 28008KT 21/12 RMK AO1 SLP136 T02090117 58009,CXBI,2023-06-05T23:00:00Z,44.48,-79.55,20.9,11.7,280,8,,,,1013.6,,TRUE,TRUE,,,,,,,,,,,,,,,,-0.9,,,,,,,,,,,METAR,287.0
CXBA 052300Z AUTO 30011KT 26/17 RMK AO1 PK WND 18026/2210 T02590166,CXBA,2023-06-05T23:00:00Z,52.12,-110.1,25.9,16.6,300,11,,,,,,TRUE,TRUE,,,,,,,,,,,,,,,,,,,,,,,,,,,METAR,696.0
CXAK 052300Z AUTO 33005KT 26/09 RMK AO1 T02610094,CXAK,2023-06-05T23:00:00Z,52.35,-112.6,26.1,9.4,330,5,,,,,,TRUE,TRUE,,,,,,,,,,,,,,,,,,,,,,,,,,,METAR,799.0
CXAJ 052300Z AUTO 34009KT 22/15 RMK AO1 PK WND 31018/2201 T02210147,CXAJ,2023-06-05T23:00:00Z,54.78,-112.82,22.1,14.7,340,9,,,,,,TRUE,TRUE,,,,,,,,,,,,,,,,,,,,,,,,,,,METAR,586.0
CXAG 052300Z AUTO 28013KT 25/15 RMK AO1 T02470146,CXAG,2023-06-05T23:00:00Z,53.92,-112.28,24.7,14.6,280,13,,,,,,TRUE,TRUE,,,,,,,,,,,,,,,,,,,,,,,,,,,METAR,632.0
CXAF 052300Z AUTO 33010KT 22/14 RMK AO1 T02190141,CXAF,2023-06-05T23:00:00Z,54.28,-112.97,21.9,14.1,330,10,,,,,,TRUE,TRUE,,,,,,,,,,,,,,,,,,,,,,,,,,,METAR,667.0
CWZW 052300Z AUTO 21003KT 05/05 RMK AO1 1PAST HR 0010 SLP160 P0012 T00530047 50125,CWZW,2023-06-05T23:00:00Z,60.17,-132.73,5.3,4.7,210,3,,,,1016.0,,TRUE,TRUE,,,,,,,,,,,,,,,,0.0,,,,,0.12,,,,,,METAR,683.0
CWZQ 052300Z AUTO 10024G36KT 12/09 RMK AO1 PK WND 10040/2235 SLP059 T01240086 56033,CWZQ,2023-06-05T23:00:00Z,46.53,-61.05,12.4,8.6,100,24,36,,,1005.9,,TRUE,TRUE,,,,,,,,,,,,,,,,-3.3,,,,,,,,,,,METAR,13.0
CWZO 052300Z AUTO 24007KT RMK AO1,CWZO,2023-06-05T23:00:00Z,48.57,-123.25,,,240,7,,,,,,TRUE,TRUE,,,,,,,,,,,,,,,,,,,,,,,,,,,METAR,5.0
CWZN 052300Z AUTO 12019G24KT 09/08 RMK AO1 PK WND 12024/2242 SLP143 T00880078 58010,CWZN,2023-06-05T23:00:00Z,47.37,-55.8,8.8,7.8,120,19,24,,,1014.3,,TRUE,TRUE,,,,,,,,,,,,,,,,-1.0,,,,,,,,,,,METAR,63.0
CWZL 052300Z AUTO 13011KT 11/08 RMK AO1 SLP293 T01130084 51003,CWZL,2023-06-05T23:00:00Z,53.03,-131.6,11.3,8.4,130,11,,,,1029.3,,TRUE,TRUE,,,,,,,,,,,,,,,,0.3,,,,,,,,,,,METAR,17.0
CWZG 052300Z AUTO 23010G19KT 25/M06 RMK AO1 PK WND 22020/2235 SLP114 T02471061 53001,CWZG,2023-06-05T23:00:00Z,51.2,-115.55,24.7,-6.1,230,10,19,,,1011.4,,TRUE,TRUE,,,,,,,,,,,,,,,,0.1,,,,,,,,,,,METAR,1402.0
CWZA 052300Z AUTO 23004KT 24/06 RMK AO1 SLP186 T02410063 56019,CWZA,2023-06-05T23:00:00Z,49.25,-121.77,24.1,6.3,230,4,,,,1018.6,,TRUE,TRUE,,,,,,,,,,,,,,,,-1.9,,,,,,,,,,,METAR,18.0
CWYY 052300Z AUTO 32010G17KT 26/00 RMK AO1 PK WND 32018/2215 SLP149 T02640000 57010,CWYY,2023-06-05T23:00:00Z,49.03,-119.43,26.4,0.0,320,10,17,,,1014.9,,TRUE,TRUE,,,,,,,,,,,,,,,,-1.0,,,,,,,,,,,METAR,284.0
CWYL 052300Z AUTO 26018G27KT 24/M04 RMK AO1 PK WND 25028/2235 SLP144 T02421035 53005,CWYL,2023-06-05T23:00:00Z,51.45,-116.33,24.2,-3.5,260,18,27,,,1014.4,,TRUE,TRUE,,,,,,,,,,,,,,,,0.5,,,,,,,,,,,METAR,1602.0
CWYJ 052300Z AUTO 09003KT 20/04 RMK AO1 SLP208 T01960037 58014,CWYJ,2023-06-05T23:00:00Z,48.45,-123.3,19.6,3.7,90,3,,,,1020.8,,TRUE,TRUE,,,,,,,,,,,,,,,,-1.4,,,,,,,,,,,METAR,59.0
CWXL 052300Z AUTO 30002KT 28/10 RMK AO1 SLP115 T02760103 56009,CWXL,2023-06-05T23:00:00Z,49.73,-111.45,27.6,10.3,300,2,,,,1011.5,,TRUE,TRUE,,,,,,,,,,,,,,,,-0.9,,,,,,,,,,,METAR,815.0
CWXI 052300Z AUTO 05006KT 06/03 RMK AO1 SLP151 T00610031 58004,CWXI,2023-06-05T23:00:00Z,51.02,-57.1,6.1,3.1,50,6,,,,1015.1,,TRUE,TRUE,,,,,,,,,,,,,,,,-0.4,,,,,,,,,,,METAR,15.0
CWXC 052300Z AUTO 03002KT 20/02 RMK AO1 SLP097 T02040016 57006,CWXC,2023-06-05T23:00:00Z,48.88,-71.03,20.4,1.6,30,2,,,,1009.7,,TRUE,TRUE,,,,,,,,,,,,,,,,-0.6,,,,,,,,,,,METAR,306.0
CWXA 052300Z AUTO 00009KT 27/07 RMK AO1 SLP128 T02650066 56012,CWXA,2023-06-05T23:00:00Z,51.07,-115.07,26.5,6.6,0,9,,,,1012.8,,TRUE,TRUE,,,,,,,,,,,,,,,,-1.2,,,,,,,,,,,METAR,1303.0
CWWZ 052300Z AUTO 19003KT 21/08 RMK AO1 SLP126 T02120077 56016,CWWZ,2023-06-05T23:00:00Z,43.25,-79.22,21.2,7.7,190,3,,,,1012.6,,TRUE,TRUE,,,,,,,,,,,,,,,,-1.6,,,,,,,,,,,METAR,75.0
CWWS 052300Z AUTO 12005KT 24/19 RMK AO1 SLP167 T02350189 56016,CWWS,2023-06-05T23:00:00Z,52.82,-97.62,23.5,18.9,120,5,,,,1016.7,,TRUE,TRUE,,,,,,,,,,,,,,,,-1.6,,,,,,,,,,,METAR,220.0
CWWL 052300Z AUTO 20002KT 13/07 RMK AO1 SLP290 T01320066 51003,CWWL,2023-06-05T23:00:00Z,53.5,-130.63,13.2,6.6,200,2,,,,1029.0,,TRUE,TRUE,,,,,,,,,,,,,,,,0.3,,,,,,,,,,,METAR,8.0
CWWK 052300Z AUTO 27003KT 21/07 RMK AO1 SLP206 T02140071 58013,CWWK,2023-06-05T23:00:00Z,49.02,-122.78,21.4,7.1,270,3,,,,1020.6,,TRUE,TRUE,,,,,,,,,,,,,,,,-1.3,,,,,,,,,,,METAR,10.0
CWWF 052300Z AUTO 15011KT 25/16 RMK AO1 SLP154 T02460161 56010,CWWF,2023-06-05T23:00:00Z,49.7,-103.8,24.6,16.1,150,11,,,,1015.4,,TRUE,TRUE,,,,,,,,,,,,,,,,-1.0,,,,,,,,,,,METAR,583.0
CWWE 052300Z AUTO 36006KT RMK AO1 7PAST HR PRESFR 8045 P0011 50247,CWWE,2023-06-05T23:00:00Z,43.98,-64.67,,,360,6,,,,,,TRUE,TRUE,,,,,,,,,,,,,,,,0.0,,,,,0.11,,,,,,METAR,4.0
CWWB 052300Z AUTO 19001KT 24/12 RMK AO1 SLP123 T02400116 56014,CWWB,2023-06-05T23:00:00Z,43.3,-79.78,24.0,11.6,190,1,,,,1012.3,,TRUE,TRUE,,,,,,,,,,,,,,,,-1.4,,,,,,,,,,,METAR,77.0
CWWA 052300Z AUTO 27002KT 23/03 RMK AO1 SLP199 T02320030 57016,CWWA,2023-06-05T23:00:00Z,49.35,-123.18,23.2,3.0,270,2,,,,1019.9,,TRUE,TRUE,,,,,,,,,,,,,,,,-1.6,,,,,,,,,,,METAR,172.0
CWVU 052300Z AUTO 35021G27KT 09/08 RMK AO1 9PAST HR 8001 PK WND 02034/2243 SLP021 P0004 T00850080 50012,CWVU,2023-06-05T23:00:00Z,44.28,-66.33,8.5,8.0,350,21,27,,,1002.1,,TRUE,TRUE,,,,,,,,,,,,,,,,1.2,,,,,0.04,,,,,,METAR,4.0
CWVT 052300Z AUTO 32004KT 26/18 RMK AO1 SLP124 T02610177 56016,CWVT,2023-06-05T23:00:00Z,55.83,-108.42,26.1,17.7,320,4,,,,1012.4,,TRUE,TRUE,,,,,,,,,,,,,,,,-1.6,,,,,,,,,,,METAR,431.0
CWVQ 052300Z AUTO 27006KT 20/08 RMK AO1 SLP095 T01970077 58011,CWVQ,2023-06-05T23:00:00Z,45.42,-73.92,19.7,7.7,270,6,,,,1009.5,,TRUE,TRUE,,,,,,,,,,,,,,,,-1.1,,,,,,,,,,,METAR,38.0
CWVP 052300Z AUTO 17007KT 22/12 RMK AO1 SLP127 T02240120 56007,CWVP,2023-06-05T23:00:00Z,49.63,-109.52,22.4,12.0,170,7,,,,1012.7,,TRUE,TRUE,,,,,,,,,,,,,,,,-0.7,,,,,,,,,,,METAR,1269.0
CWVN 052300Z AUTO 16017G23KT 30/10 RMK AO1 PK WND 16024/2235 SLP122 T02960097 56012,CWVN,2023-06-05T23:00:00Z,49.07,-107.58,29.6,9.7,160,17,23,,,1012.2,,TRUE,TRUE,,,,,,,,,,,,,,,,-1.2,,,,,,,,,,,METAR,792.0
CWVI 052300Z AUTO 28004KT 27/14 RMK AO1 SLP097 T02650135 56016,CWVI,2023-06-05T23:00:00Z,53.52,-112.1,26.5,13.5,280,4,,,,1009.7,,TRUE,TRUE,,,,,,,,,,,,,,,,-1.6,,,,,,,,,,,METAR,640.0
CWVF 052300Z AUTO 30023KT 16/08 RMK AO1 PK WND 30028/2203 T01630082,CWVF,2023-06-05T23:00:00Z,49.1,-123.3,16.3,8.2,300,23,,,,,,TRUE,TRUE,,,,,,,,,,,,,,,,,,,,,,,,,,,METAR,13.0
CWUX 052300Z AUTO 27003KT 17/06 RMK AO1 SLP101 T01710063 56005,CWUX,2023-06-05T23:00:00Z,48.3,-70.93,17.1,6.3,270,3,,,,1010.1,,TRUE,TRUE,,,,,,,,,,,,,,,,-0.5,,,,,,,,,,,METAR,150.0
CWUW 052300Z AUTO 10011KT ////SM ////// M04/M05 A3007,CWUW,2023-06-05T23:00:00Z,68.62,-71.12,-4.0,-5.0,100,11,,,30.070866,,,TRUE,,,,,,,,,,,,,,,,,,,,,,,,,,,,SPECI,173.0
CWUS 052300Z AUTO 34007KT 24/M01 RMK AO1 SLP177 T02391006 57009,CWUS,2023-06-05T23:00:00Z,49.57,-119.65,23.9,-0.6,340,7,,,,1017.7,,TRUE,TRUE,,,,,,,,,,,,,,,,-0.9,,,,,,,,,,,METAR,455.0
CWTY 052300Z AUTO 27003KT 20/06 RMK AO1 SLP085 T01970055 56015,CWTY,2023-06-05T23:00:00Z,46.35,-72.52,19.7,5.5,270,3,,,,1008.5,,TRUE,TRUE,,,,,,,,,,,,,,,,-1.5,,,,,,,,,,,METAR,8.0
CWTT 052300Z AUTO 36007KT 18/03 RMK AO1 T01830026,CWTT,2023-06-05T23:00:00Z,45.27,-72.17,18.3,2.6,360,7,,,,,,TRUE,TRUE,,,,,,,,,,,,,,,,,,,,,,,,,,,METAR,210.0
CWTN 052300Z AUTO 07004KT 14/09 RMK AO1 SLP095 T01350088 50002,CWTN,2023-06-05T23:00:00Z,47.07,-70.78,13.5,8.8,70,4,,,,1009.5,,TRUE,TRUE,,,,,,,,,,,,,,,,0.2,,,,,,,,,,,METAR,5.0
CWTG 052300Z AUTO 05011KT 10/08 RMK AO1 SLP123 T00950075 58009,CWTG,2023-06-05T23:00:00Z,49.32,-67.37,9.5,7.5,50,11,,,,1012.3,,TRUE,TRUE,,,,,,,,,,,,,,,,-0.9,,,,,,,,,,,METAR,6.0
CWTA 052300Z AUTO 23002KT 20/07 RMK AO1 SLP092 T02040074 56014,CWTA,2023-06-05T23:00:00Z,45.5,-73.58,20.4,7.4,230,2,,,,1009.2,,TRUE,TRUE,,,,,,,,,,,,,,,,-1.4,,,,,,,,,,,METAR,71.0
CWSW 052300Z 18011G17KT 20SM FEW070 FEW200 FEW240 27/01 A2993 RMK CU1CC1CI1 CU TR SLP124 DENSITY ALT 6000FT,CWSW,2023-06-05T23:00:00Z,49.83,-114.87,27.0,1.0,180,11,17,20.0,29.929134,1012.4,,,,,,,,,,FEW,7000,FEW,20000,FEW,24000,,,VFR,,,,,,,,,,,,SPECI,1173.0
CWST 052300Z AUTO 03009KT 13/06 RMK AO1 SLP101 T01260059 55002,CWST,2023-06-05T23:00:00Z,47.35,-70.02,12.6,5.9,30,9,,,,1010.1,,TRUE,TRUE,,,,,,,,,,,,,,,,-0.2,,,,,,,,,,,METAR,31.0
CWSS 052300Z AUTO 02007KT 11/10 RMK AO1 6006 SLP065 T01060096 50015,CWSS,2023-06-05T23:00:00Z,45.2,-67.25,10.6,9.6,20,7,,,,1006.5,,TRUE,TRUE,,,,,,,,,,,,,,,,1.5,,,,,,,,,,,METAR,27.0
CWSR 052300Z AUTO 36010KT 21/17 RMK AO1 3PAST HR 5000 PK WND 33018/2208 SLP133 P0005 T02060172 50063,CWSR,2023-06-05T23:00:00Z,53.37,-107.55,20.6,17.2,360,10,,,,1013.3,,TRUE,TRUE,,,,,,,,,,,,,,,,6.3,,,,,0.05,,,,,,METAR,589.0
CWSP 052300Z AUTO 29009KT 13/04 RMK AO1 SLP215 T01310038 58011,CWSP,2023-06-05T23:00:00Z,48.38,-123.92,13.1,3.8,290,9,,,,1021.5,,TRUE,TRUE,,,,,,,,,,,,,,,,-1.1,,,,,,,,,,,METAR,2.0
CWSL 052300Z AUTO 03005KT 23/03 RMK AO1 SLP200 T02300029 58007,CWSL,2023-06-05T23:00:00Z,50.7,-119.28,23.0,2.9,30,5,,,,1020.0,,TRUE,TRUE,,,,,,,,,,,,,,,,-0.7,,,,,,,,,,,METAR,353.0
CWSK 052300Z AUTO 15007KT 24/03 RMK AO1 SLP189 T02360033 56015,CWSK,2023-06-05T23:00:00Z,49.78,-123.17,23.6,3.3,150,7,,,,1018.9,,TRUE,TRUE,,,,,,,,,,,,,,,,-1.5,,,,,,,,,,,METAR,59.0
CWSG 052300Z AUTO 02001KT 09/07 RMK AO1 SLP124 T00870073 57008,CWSG,2023-06-05T23:00:00Z,49.12,-66.65,8.7,7.3,20,1,,,,1012.4,,TRUE,TRUE,,,,,,,,,,,,,,,,-0.8,,,,,,,,,,,METAR,5.0
CWSF 052300Z AUTO 11009KT 08/07 RMK AO1 SLP124 T00820072 58001,CWSF,2023-06-05T23:00:00Z,49.25,-65.32,8.2,7.2,110,9,,,,1012.4,,TRUE,TRUE,,,,,,,,,,,,,,,,-0.1,,,,,,,,,,,METAR,15.0
CWSD 052300Z AUTO 05012KT 08/08 RMK AO1 9PAST HR 6023 SLP073 P0004 T00790079 50011,CWSD,2023-06-05T23:00:00Z,46.43,-63.85,7.9,7.9,50,12,,,,1007.3,,TRUE,TRUE,,,,,,,,,,,,,,,,1.1,,,,,0.04,,,,,,METAR,12.0
CWRZ 052300Z AUTO 04013KT 07/07 RMK AO1 SLP122 T00650070 58017,CWRZ,2023-06-05T23:00:00Z,48.42,-64.32,6.5,7.0,40,13,,,,1012.2,,TRUE,TRUE,,,,,,,,,,,,,,,,-1.7,,,,,,,,,,,METAR,16.0
CWRY 052300Z AUTO 05002KT 27/10 RMK AO1 SLP119 T02720104 56011,CWRY,2023-06-05T23:00:00Z,49.12,-112.05,27.2,10.4,50,2,,,,1011.9,,TRUE,TRUE,,,,,,,,,,,,,,,,-1.1,,,,,,,,,,,METAR,1048.0
CWRX 052300Z AUTO ///// ////SM ////// M00/M01 A3013,CWRX,2023-06-05T23:00:00Z,69.07,-79.07,0.0,-1.0,,,,,30.129921,,,TRUE,,,,,,,,,,,,,,,,,,,,,,,,,,,,SPECI,39.0
CWRU 052300Z AUTO 31033KT 12/ RMK AO1 PK WND 31037/2259 SLP233 T0115 58017,CWRU,2023-06-05T23:00:00Z,50.12,-127.93,11.5,,310,33,,,,1023.3,,TRUE,TRUE,,,,,,,,,,,,,,,,-1.7,,,,,,,,,,,METAR,76.0
CWRT 052300Z AUTO 30011G19KT 25/02 RMK AO1 PK WND 30020/2243 SLP130 T02520015 56005,CWRT,2023-06-05T23:00:00Z,49.62,-114.47,25.2,1.5,300,11,19,,,1013.0,,TRUE,TRUE,,,,,,,,,,,,,,,,-0.5,,,,,,,,,,,METAR,1311.0
CWRN 052300Z AUTO 06016G24KT 07/07 RMK AO1 PK WND 06025/2214 SLP045 T00680066 57038,CWRN,2023-06-05T23:00:00Z,45.35,-60.98,6.8,6.6,60,16,24,,,1004.5,,TRUE,TRUE,,,,,,,,,,,,,,,,-3.8,,,,,,,,,,,METAR,8.0
CWRM 052300Z AUTO 13003KT 21/10 RMK AO1 SLP111 T02100102 56010,CWRM,2023-06-05T23:00:00Z,52.42,-114.92,21.0,10.2,130,3,,,,1011.1,,TRUE,TRUE,,,,,,,,,,,,,,,,-1.0,,,,,,,,,,,METAR,986.0
CWRK 052300Z AUTO 05007G15KT 18/09 RMK AO1 PK WND 07022/2247 SLP123 T01820092 55007,CWRK,2023-06-05T23:00:00Z,45.07,-77.87,18.2,9.2,50,7,15,,,1012.3,,TRUE,TRUE,,,,,,,,,,,,,,,,-0.7,,,,,,,,,,,METAR,328.0
CWRJ 052300Z AUTO 17017G22KT 32/12 RMK AO1 PK WND 15022/2218 SLP100 T03170122 56019,CWRJ,2023-06-05T23:00:00Z,51.57,-107.92,31.7,12.2,170,17,22,,,1010.0,,TRUE,TRUE,,,,,,,,,,,,,,,,-1.9,,,,,,,,,,,METAR,586.0
CWRA 052300Z AUTO 04015KT 05/05 RMK AO1 PK WND 04019/2258 SLP162 T00470047 58010,CWRA,2023-06-05T23:00:00Z,46.65,-53.07,4.7,4.7,40,15,,,,1016.2,,TRUE,TRUE,,,,,,,,,,,,,,,,-1.0,,,,,,,,,,,METAR,4.0
CWQV 052300Z AUTO 09010KT 13/ RMK AO1 T0134,CWQV,2023-06-05T23:00:00Z,48.27,-70.12,13.4,,90,10,,,,,,TRUE,TRUE,,,,,,,,,,,,,,,,,,,,,,,,,,,METAR,4.0
CWQS 052300Z AUTO 16006KT 11/07 RMK AO1 SLP294 T01080068 51005,CWQS,2023-06-05T23:00:00Z,53.32,-132.77,10.8,6.8,160,6,,,,1029.4,,TRUE,TRUE,,,,,,,,,,,,,,,,0.5,,,,,,,,,,,METAR,10.0
CWQR 052300Z AUTO 06009KT 07/05 RMK AO1 T00670053,CWQR,2023-06-05T23:00:00Z,50.22,-64.22,6.7,5.3,60,9,,,,,,TRUE,TRUE,,,,,,,,,,,,,,,,,,,,,,,,,,,METAR,9.0
CWQP 052300Z AUTO 28005KT 15/10 RMK AO1 SLP120 T01460095 57014,CWQP,2023-06-05T23:00:00Z,43.83,-77.15,14.6,9.5,280,5,,,,1012.0,,TRUE,TRUE,,,,,,,,,,,,,,,,-1.4,,,,,,,,,,,METAR,77.0
CWQO 052300Z AUTO 03008KT 07/07 RMK AO1 T00710067,CWQO,2023-06-05T23:00:00Z,48.42,-68.9,7.1,6.7,30,8,,,,,,TRUE,TRUE,,,,,,,,,,,,,,,,,,,,,,,,,,,METAR,7.0
CWQK 052300Z AUTO 07003KT 20/03 RMK AO1 SLP208 T01990030 58014,CWQK,2023-06-05T23:00:00Z,48.3,-123.53,19.9,3.0,70,3,,,,1020.8,,TRUE,TRUE,,,,,,,,,,,,,,,,-1.4,,,,,,,,,,,METAR,5.0
CWQH 052300Z AUTO 35003KT 20/07 RMK AO1 SLP085 T02000071 56010,CWQH,2023-06-05T23:00:00Z,45.37,-71.82,20.0,7.1,350,3,,,,1008.5,,TRUE,TRUE,,,,,,,,,,,,,,,,-1.0,,,,,,,,,,,METAR,181.0
CWPZ 052300Z AUTO 30004KT 11/02 RMK AO1 SLP252 T01070015 58001,CWPZ,2023-06-05T23:00:00Z,54.38,-125.97,10.7,1.5,300,4,,,,1025.2,,TRUE,TRUE,,,,,,,,,,,,,,,,-0.1,,,,,,,,,,,METAR,715.0
CWPR 052300Z AUTO 01007KT 23/M04 RMK AO1 SLP184 T02311043 57012,CWPR,2023-06-05T23:00:00Z,49.47,-120.52,23.1,-4.3,10,7,,,,1018.4,,TRUE,TRUE,,,,,,,,,,,,,,,,-1.2,,,,,,,,,,,METAR,703.0
CWPO 052300Z AUTO 22012G19KT 25/19 RMK AO1 PK WND 20019/2246 SLP180 T02510187 55008,CWPO,2023-06-05T23:00:00Z,49.2,-98.9,25.1,18.7,220,12,19,,,1018.0,,TRUE,TRUE,,,,,,,,,,,,,,,,-0.8,,,,,,,,,,,METAR,471.0
CWPK 052300Z AUTO 36006KT 18/05 RMK AO1 2PAST HR 6008 SLP113 P0024 T01840050 50370,CWPK,2023-06-05T23:00:00Z,47.92,-74.62,18.4,5.0,360,6,,,,1011.3,,TRUE,TRUE,,,,,,,,,,,,,,,,0.0,,,,,0.24,,,,,,METAR,443.0
CWPE 052300Z AUTO 01008G15KT 10/10 RMK AO1 0PAST HR 6015 PK WND 01019/2230 SLP045 P0004 T01040095 50012,CWPE,2023-06-05T23:00:00Z,45.07,-66.47,10.4,9.5,10,8,15,,,1004.5,,TRUE,TRUE,,,,,,,,,,,,,,,,1.2,,,,,0.04,,,,,,METAR,9.0
CWPD 052300Z AUTO 03002KT 15/02 RMK AO1 SLP089 T01460015 53002,CWPD,2023-06-05T23:00:00Z,47.57,-71.22,14.6,1.5,30,2,,,,1008.9,,TRUE,TRUE,,,,,,,,,,,,,,,,0.2,,,,,,,,,,,METAR,795.0
CWOY 052300Z AUTO 17012KT 30/15 RMK AO1 PK WND 16019/2223 SLP137 T03030151 56019,CWOY,2023-06-05T23:00:00Z,51.77,-104.2,30.3,15.1,170,12,,,,1013.7,,TRUE,TRUE,,,,,,,,,,,,,,,,-1.9,,,,,,,,,,,METAR,557.0
CWOD 052300Z AUTO 01009G16KT 19/06 RMK AO1 SLP102 T01910061 56014,CWOD,2023-06-05T23:00:00Z,48.85,-72.55,19.1,6.1,10,9,16,,,1010.2,,TRUE,TRUE,,,,,,,,,,,,,,,,-1.4,,,,,,,,,,,METAR,150.0
CWOC 052300Z AUTO 06004KT 08/08 RMK AO1 6PAST HR 8011 SLP117 P0002 T00830078 50032,CWOC,2023-06-05T23:00:00Z,48.02,-65.32,8.3,7.8,60,4,,,,1011.7,,TRUE,TRUE,,,,,,,,,,,,,,,,3.2,,,,,0.02,,,,,,METAR,42.0
CWOB 052300Z AUTO 22006KT ////SM ////// ///// A3013,CWOB,2023-06-05T23:00:00Z,63.33,-64.15,,,220,6,,,30.129921,,,TRUE,,,,,,,,,,,,,,,,,,,,,,,,,,,,SPECI,369.0
CWNZ 052300Z AUTO 35005KT 14/07 RMK AO1 SLP238 T01440073 56017,CWNZ,2023-06-05T23:00:00Z,49.75,-84.17,14.4,7.3,350,5,,,,1023.8,,TRUE,TRUE,,,,,,,,,,,,,,,,-1.7,,,,,,,,,,,METAR,261.0
CWNQ 052300Z AUTO 00000KT 18/12 RMK AO1 SLP085 T01790122 57016,CWNQ,2023-06-05T23:00:00Z,46.22,-72.65,17.9,12.2,0,0,,,,1008.5,,TRUE,TRUE,,,,,,,,,,,,,,,,-1.6,,,,,,,,,,,METAR,9.0
CWNP 052300Z AUTO 30005G15KT 26/M04 RMK AO1 SLP146 T02551043 56002,CWNP,2023-06-05T23:00:00Z,50.27,-117.82,25.5,-4.3,300,5,15,,,1014.6,,TRUE,TRUE,,,,,,,,,,,,,,,,-0.2,,,,,,,,,,,METAR,517.0
CWNM 052300Z AUTO 25009G16KT 28/04 RMK AO1 SLP115 T02810040 58007,CWNM,2023-06-05T23:00:00Z,49.5,-117.3,28.1,4.0,250,9,16,,,1011.5,,TRUE,TRUE,,,,,,,,,,,,,,,,-0.7,,,,,,,,,,,METAR,533.0
CWNK 052300Z AUTO 15006KT 30/17 RMK AO1 2PAST HR 6013 SLP158 P0001 T03000173 50002,CWNK,2023-06-05T23:00:00Z,49.5,-98.03,30.0,17.3,150,6,,,,1015.8,,TRUE,TRUE,,,,,,,,,,,,,,,,0.2,,,,,0.01,,,,,,METAR,271.0
CWNH 052300Z AUTO 33005KT 09/06 RMK AO1 SLP109 T00920057 58006,CWNH,2023-06-05T23:00:00Z,47.8,-69.53,9.2,5.7,330,5,,,,1010.9,,TRUE,TRUE,,,,,,,,,,,,,,,,-0.6,,,,,,,,,,,METAR,147.0
CWNE 052300Z AUTO 05017KT 06/06 RMK AO1 2PAST HR 6025 PK WND 05021/2239 SLP084 P0001 T00550064 50005,CWNE,2023-06-05T23:00:00Z,47.07,-64.0,5.5,6.4,50,17,,,,1008.4,,TRUE,TRUE,,,,,,,,,,,,,,,,0.5,,,,,0.01,,,,,,METAR,5.0
CWND 052300Z AUTO 06014KT 03/00 RMK AO1 PK WND 06018/2223 SLP209 T00310000 57012,CWND,2023-06-05T23:00:00Z,69.63,-135.43,3.1,0.0,60,14,,,,1020.9,,TRUE,TRUE,,,,,,,,,,,,,,,,-1.2,,,,,,,,,,,METAR,14.0
CWNC 052300Z AUTO 27005KT 17/10 RMK AO1 SLP117 T01670095 58014,CWNC,2023-06-05T23:00:00Z,43.95,-78.17,16.7,9.5,270,5,,,,1011.7,,TRUE,TRUE,,,,,,,,,,,,,,,,-1.4,,,,,,,,,,,METAR,71.0
CWMT 052300Z AUTO 10007KT 24/10 RMK AO1 SLP136 T02370095 58012,CWMT,2023-06-05T23:00:00Z,63.13,-117.25,23.7,9.5,100,7,,,,1013.6,,TRUE,TRUE,,,,,,,,,,,,,,,,-1.2,,,,,,,,,,,METAR,274.0
CWMQ 052300Z AUTO 19010G15KT 29/14 RMK AO1 PK WND 20020/2215 SLP104 T02920144 56012,CWMQ,2023-06-05T23:00:00Z,49.9,-109.47,29.2,14.4,190,10,15,,,1010.4,,TRUE,TRUE,,,,,,,,,,,,,,,,-1.2,,,,,,,,,,,METAR,767.0
CWMM 052300Z AUTO 27008KT 24/04 RMK AO1 SLP199 T02350043 56014,CWMM,2023-06-05T23:00:00Z,49.22,-122.68,23.5,4.3,270,8,,,,1019.9,,TRUE,TRUE,,,,,,,,,,,,,,,,-1.4,,,,,,,,,,,METAR,2.0
CWMJ 052300Z AUTO 07001KT 19/13 RMK AO1 SLP108 T01930127 56013,CWMJ,2023-06-05T23:00:00Z,46.27,-76.0,19.3,12.7,70,1,,,,1010.8,,TRUE,TRUE,,,,,,,,,,,,,,,,-1.3,,,,,,,,,,,METAR,198.0
CWME 052300Z AUTO 24006KT 17/05 RMK AO1 8006 SLP271 T01710051 50002,CWME,2023-06-05T23:00:00Z,52.18,-127.47,17.1,5.1,240,6,,,,1027.1,,TRUE,TRUE,,,,,,,,,,,,,,,,0.2,,,,,,,,,,,METAR,23.0
CWLY 052300Z AUTO VRB02KT 9SM CLR 27/M04 A3007 RMK SLP182 DENSITY ALT 2200FT,CWLY,2023-06-05T23:00:00Z,50.22,-121.58,27.0,-4.0,0,2,,9.0,30.070866,1018.2,,TRUE,,,,,,,,CLR,,,,,,,,VFR,,,,,,,,,,,,SPECI,228.0
CWLX 052300Z AUTO ///// ////SM ////// M01/M02 A3012,CWLX,2023-06-05T23:00:00Z,68.9,-75.15,-1.0,-2.0,,,,,30.121063,,,TRUE,,,,,,,,,,,,,,,,,,,,,,,,,,,,SPECI,129.0
CWLS 052300Z AUTO 34007KT 20/12 RMK AO1 SLP146 T02000123 56006,CWLS,2023-06-05T23:00:00Z,43.97,-80.75,20.0,12.3,340,7,,,,1014.6,,TRUE,TRUE,,,,,,,,,,,,,,,,-0.6,,,,,,,,,,,METAR,413.0
CWLP 052300Z AUTO 30018KT 12/08 RMK AO1 PK WND 31022/2216 SLP270 T01180080 58010,CWLP,2023-06-05T23:00:00Z,50.93,-127.63,11.8,8.0,300,18,,,,1027.0,,TRUE,TRUE,,,,,,,,,,,,,,,,-1.0,,,,,,,,,,,METAR,15.0
CWLM 052300Z AUTO 22005KT 19/03 RMK AO1 SLP210 T01890033 58015,CWLM,2023-06-05T23:00:00Z,48.42,-123.32,18.9,3.3,220,5,,,,1021.0,,TRUE,TRUE,,,,,,,,,,,,,,,,-1.5,,,,,,,,,,,METAR,62.0
CWLE 052300Z AUTO 17013G18KT 31/13 RMK AO1 PK WND 18024/2228 SLP117 T03130134 56016,CWLE,2023-06-05T23:00:00Z,50.95,-107.15,31.3,13.4,170,13,18,,,1011.7,,TRUE,TRUE,,,,,,,,,,,,,,,,-1.6,,,,,,,,,,,METAR,666.0
CWLC 052300Z AUTO 15004KT 10/05 RMK AO1 T01040054,CWLC,2023-06-05T23:00:00Z,54.3,-130.62,10.4,5.4,150,4,,,,,,TRUE,TRUE,,,,,,,,,,,,,,,,,,,,,,,,,,,METAR,27.0
CWLB 052300Z AUTO 32005KT 25/18 RMK AO1 SLP106 T02490178 55015,CWLB,2023-06-05T23:00:00Z,54.77,-112.02,24.9,17.8,320,5,,,,1010.6,,TRUE,TRUE,,,,,,,,,,,,,,,,-1.5,,,,,,,,,,,METAR,561.0
CWKX 052300Z AUTO 25001KT 02/02 RMK AO1 4PAST HR 1010 SLP210 P0002 T00220015 50036,CWKX,2023-06-05T23:00:00Z,58.43,-130.02,2.2,1.5,250,1,,,,1021.0,,TRUE,TRUE,,,,,,,,,,,,,,,,3.6,,,,,0.02,,,,,,METAR,807.0
CWKO 052300Z AUTO 18012KT 28/12 RMK AO1 PK WND 18017/2249 SLP147 T02790123 56015,CWKO,2023-06-05T23:00:00Z,49.17,-105.97,27.9,12.3,180,12,,,,1014.7,,TRUE,TRUE,,,,,,,,,,,,,,,,-1.5,,,,,,,,,,,METAR,914.0
CWKM 052300Z AUTO 08014G20KT ////SM NCD 07/03 A3018,CWKM,2023-06-05T23:00:00Z,69.6,-140.17,7.0,3.0,80,14,20,,30.180119,,,TRUE,,,,,,,,CLR,,,,,,,,,,,,,,,,,,,,SPECI,8.0
CWKH 052300Z AUTO 20/02 RMK AO1 SLP202 T02000015 58008,CWKH,2023-06-05T23:00:00Z,48.57,-123.55,20.0,1.5,,,,,,1020.2,,TRUE,TRUE,,,,,,,,,,,,,,,,-0.8,,,,,,,,,,,METAR,327.0
CWKG 052300Z AUTO 01005KT 10/10 RMK AO1 6PAST HR 8029 SLP004 P0014 T00990096 50222,CWKG,2023-06-05T23:00:00Z,44.43,-65.2,9.9,9.6,10,5,,,,1000.4,,TRUE,TRUE,,,,,,,,,,,,,,,,0.0,,,,,0.14,,,,,,METAR,154.0
CWKD 052300Z AUTO 15/09 RMK AO1 SLP133 T01510088 53003,CWKD,2023-06-05T23:00:00Z,50.73,-71.02,15.1,8.8,,,,,,1013.3,,TRUE,TRUE,,,,,,,,,,,,,,,,0.3,,,,,,,,,,,METAR,496.0
CWJX 052300Z AUTO 17016G21KT 30/12 RMK AO1 PK WND 15028/2200 SLP093 T03040118 56015,CWJX,2023-06-05T23:00:00Z,50.88,-109.5,30.4,11.8,170,16,21,,,1009.3,,TRUE,TRUE,,,,,,,,,,,,,,,,-1.5,,,,,,,,,,,METAR,671.0
CWJW 052300Z AUTO 22007G16KT 19/M06 RMK AO1 SOG 01 3035 PK WND 18023/2211 SLP171 T01901057,CWJW,2023-06-05T23:00:00Z,52.93,-118.03,19.0,-5.7,220,7,16,,,1017.1,,TRUE,TRUE,,,,,,,,,,,,,,,,,,,,,,,,,,,METAR,1022.0
CWJV 052300Z AUTO 34002KT 24/M02 RMK AO1 SLP191 T02441017 58011,CWJV,2023-06-05T23:00:00Z,50.22,-119.18,24.4,-1.7,340,2,,,,1019.1,,TRUE,TRUE,,,,,,,,,,,,,,,,-1.1,,,,,,,,,,,METAR,487.0
CWJU 052300Z AUTO 20013G21KT 10/08 RMK AO1 PK WND 19023/2245 SLP284 T00990076 50002,CWJU,2023-06-05T23:00:00Z,54.25,-133.07,9.9,7.6,200,13,21,,,1028.4,,TRUE,TRUE,,,,,,,,,,,,,,,,0.2,,,,,,,,,,,METAR,47.0
CWJT 052300Z AUTO 00000KT 18/11 RMK AO1 SLP103 T01750111 56015,CWJT,2023-06-05T23:00:00Z,46.07,-74.57,17.5,11.1,0,0,,,,1010.3,,TRUE,TRUE,,,,,,,,,,,,,,,,-1.5,,,,,,,,,,,METAR,236.0
CWJR 052300Z AUTO 12004KT 31/04 RMK AO1 SLP108 T03110044 58011,CWJR,2023-06-05T23:00:00Z,49.03,-116.5,31.1,4.4,120,4,,,,1010.8,,TRUE,TRUE,,,,,,,,,,,,,,,,-1.1,,,,,,,,,,,METAR,642.0
CWJO 052300Z AUTO 00021KT 16/08 RMK AO1 SLP099 T01640076 56008,CWJO,2023-06-05T23:00:00Z,48.43,-71.15,16.4,7.6,0,21,,,,1009.9,,TRUE,TRUE,,,,,,,,,,,,,,,,-0.8,,,,,,,,,,,METAR,113.0
CWJI 052300Z AUTO 17008KT 30/10 RMK AO1 SLP131 T02990095 56016,CWJI,2023-06-05T23:00:00Z,49.72,-105.93,29.9,9.5,170,8,,,,1013.1,,TRUE,TRUE,,,,,,,,,,,,,,,,-1.6,,,,,,,,,,,METAR,724.0
CWJH 052300Z AUTO 16004KT 30/18 RMK AO1 SLP115 T02950180 56021,CWJH,2023-06-05T23:00:00Z,56.32,-103.27,29.5,18.0,160,4,,,,1011.5,,TRUE,TRUE,,,,,,,,,,,,,,,,-2.1,,,,,,,,,,,METAR,345.0
CWJD 052300Z AUTO 11006KT 30/20 RMK AO1 SLP145 T02980197 58016,CWJD,2023-06-05T23:00:00Z,53.18,-99.27,29.8,19.7,110,6,,,,1014.5,,TRUE,TRUE,,,,,,,,,,,,,,,,-1.6,,,,,,,,,,,METAR,222.0
CWJC 052300Z AUTO 13012KT 10/09 RMK AO1 PK WND 12017/2235 SLP195 T00960092 58006,CWJC,2023-06-05T23:00:00Z,61.13,-100.9,9.6,9.2,130,12,,,,1019.5,,TRUE,TRUE,,,,,,,,,,,,,,,,-0.6,,,,,,,,,,,METAR,340.0
CWJB 052300Z AUTO 17/08 RMK AO1 T01670081,CWJB,2023-06-05T23:00:00Z,46.78,-71.28,16.7,8.1,,,,,,,,TRUE,TRUE,,,,,,,,,,,,,,,,,,,,,,,,,,,METAR,90.0
CWIZ 052300Z AUTO 30003KT 21/01 RMK AO1 T02120014,CWIZ,2023-06-05T23:00:00Z,45.28,-73.33,21.2,1.4,300,3,,,,,,TRUE,TRUE,,,,,,,,,,,,,,,,,,,,,,,,,,,METAR,45.0
CWIW 052300Z AUTO 17016G22KT 33/14 RMK AO1 PK WND 17023/2238 SLP122 T03270135 57019,CWIW,2023-06-05T23:00:00Z,51.67,-105.4,32.7,13.5,170,16,22,,,1012.2,,TRUE,TRUE,,,,,,,,,,,,,,,,-1.9,,,,,,,,,,,METAR,524.0
CWIT 052300Z AUTO 29004KT 20/06 RMK AO1 SLP092 T01960060 56011,CWIT,2023-06-05T23:00:00Z,45.17,-73.67,19.6,6.0,290,4,,,,1009.2,,TRUE,TRUE,,,,,,,,,,,,,,,,-1.1,,,,,,,,,,,METAR,53.0
CWIS 052300Z AUTO 05007KT 12/04 RMK AO1 SLP112 T01150042 57004,CWIS,2023-06-05T23:00:00Z,47.28,-70.63,11.5,4.2,50,7,,,,1011.2,,TRUE,TRUE,,,,,,,,,,,,,,,,-0.4,,,,,,,,,,,METAR,720.0
CWIP 052300Z AUTO 08003KT 10/07 RMK AO1 T00990072,CWIP,2023-06-05T23:00:00Z,50.17,-66.43,9.9,7.2,80,3,,,,,,TRUE,TRUE,,,,,,,,,,,,,,,,,,,,,,,,,,,METAR,27.0
CWIL 052300Z AUTO ///// ////SM NCD 10/08 A3016,CWIL,2023-06-05T23:00:00Z,68.32,-100.07,10.0,8.0,,,,,30.159449,,,TRUE,,,,,,,,CLR,,,,,,,,,,,,,,,,,,,,SPECI,28.0
CWIK 052300Z AUTO 14011G16KT 30/13 RMK AO1 SLP154 T03040129 56013,CWIK,2023-06-05T23:00:00Z,50.37,-102.58,30.4,12.9,140,11,16,,,1015.4,,TRUE,TRUE,,,,,,,,,,,,,,,,-1.3,,,,,,,,,,,METAR,597.0
CWIJ 052300Z AUTO 09010KT 20/09 RMK AO1 SLP204 T02020087 58004,CWIJ,2023-06-05T23:00:00Z,65.77,-111.23,20.2,8.7,90,10,,,,1020.4,,TRUE,TRUE,,,,,,,,,,,,,,,,-0.4,,,,,,,,,,,METAR,490.0
CWIG 052300Z AUTO 02017G23KT RMK AO1 PK WND 02023/2257,CWIG,2023-06-05T23:00:00Z,47.07,-70.53,,,20,17,23,,,,,TRUE,TRUE,,,,,,,,,,,,,,,,,,,,,,,,,,,METAR,12.0
CWID 052300Z AUTO 36003KT 19/08 RMK AO1 SLP142 T01930079 58014,CWID,2023-06-05T23:00:00Z,61.32,-117.6,19.3,7.9,360,3,,,,1014.2,,TRUE,TRUE,,,,,,,,,,,,,,,,-1.4,,,,,,,,,,,METAR,160.0
CWHV 052300Z AUTO 14005KT 16/09 RMK AO1 SLP089 T01640090 58005,CWHV,2023-06-05T23:00:00Z,46.2,-70.78,16.4,9.0,140,5,,,,1008.9,,TRUE,TRUE,,,,,,,,,,,,,,,,-0.5,,,,,,,,,,,METAR,227.0
CWHT 052300Z AUTO 23010G18KT 24/M02 RMK AO1 PK WND 22021/2238 SLP123 T02421015 58015,CWHT,2023-06-05T23:00:00Z,60.77,-137.58,24.2,-1.5,230,10,18,,,1012.3,,TRUE,TRUE,,,,,,,,,,,,,,,,-1.5,,,,,,,,,,,METAR,601.0
CWHQ 052300Z AUTO 11003KT 18/05 RMK AO1 T01760051,CWHQ,2023-06-05T23:00:00Z,46.68,-71.97,17.6,5.1,110,3,,,,,,TRUE,TRUE,,,,,,,,,,,,,,,,,,,,,,,,,,,METAR,56.0
CWHP 052300Z AUTO 02013KT 06/06 RMK AO1 SLP128 T00610059 58018,CWHP,2023-06-05T23:00:00Z,49.08,-61.7,6.1,5.9,20,13,,,,1012.8,,TRUE,TRUE,,,,,,,,,,,,,,,,-1.8,,,,,,,,,,,METAR,7.0
CWHO 052300Z AUTO 00036KT 02/M00 RMK AO1 SLP221 T00201004 53010,CWHO,2023-06-05T23:00:00Z,55.45,-60.22,2.0,-0.4,0,36,,,,1022.1,,TRUE,TRUE,,,,,,,,,,,,,,,,1.0,,,,,,,,,,,METAR,16.0
CWHL 052300Z AUTO 04002KT 11/06 RMK AO1 SLP287 T01090055 50004,CWHL,2023-06-05T23:00:00Z,54.17,-130.35,10.9,5.5,40,2,,,,1028.7,,TRUE,TRUE,,,,,,,,,,,,,,,,0.4,,,,,,,,,,,METAR,5.0
CWHI 052300Z AUTO 36004KT 25/09 RMK AO1 T02520087,CWHI,2023-06-05T23:00:00Z,51.7,-113.22,25.2,8.7,360,4,,,,,,TRUE,TRUE,,,,,,,,,,,,,,,,,,,,,,,,,,,METAR,906.0
CWGY 052300Z AUTO 18015G21KT 31/13 RMK AO1 PK WND 19024/2235 SLP094 T03090127 56014,CWGY,2023-06-05T23:00:00Z,51.67,-110.2,30.9,12.7,180,15,21,,,1009.4,,TRUE,TRUE,,,,,,,,,,,,,,,,-1.4,,,,,,,,,,,METAR,709.0
CWGW 052300Z AUTO 17008G17KT 26/01 RMK AO1 PK WND 19023/2219 SLP123 T02640012 56005,CWGW,2023-06-05T23:00:00Z,49.75,-114.9,26.4,1.2,170,8,17,,,1012.3,,TRUE,TRUE,,,,,,,,,,,,,,,,-0.5,,,,,,,,,,,METAR,1137.0
CWGT 052300Z AUTO 30011KT 18/09 RMK AO1 SLP220 T01840087 57015,CWGT,2023-06-05T23:00:00Z,49.48,-124.43,18.4,8.7,300,11,,,,1022.0,,TRUE,TRUE,,,,,,,,,,,,,,,,-1.5,,,,,,,,,,,METAR,5.0
CWGR 052300Z AUTO 08016G22KT 07/06 RMK AO1 PK WND 07023/2245 SLP096 T00710062 56024,CWGR,2023-06-05T23:00:00Z,47.42,-61.77,7.1,6.2,80,16,22,,,1009.6,,TRUE,TRUE,,,,,,,,,,,,,,,,-2.4,,,,,,,,,,,METAR,4.0
CWGM 052300Z AUTO 19009KT 27/02 RMK AO1 SLP111 T02660021 56009,CWGM,2023-06-05T23:00:00Z,49.13,-113.8,26.6,2.1,190,9,,,,1011.1,,TRUE,TRUE,,,,,,,,,,,,,,,,-0.9,,,,,,,,,,,METAR,1292.0
CWGL 052300Z AUTO 30006KT 20/14 RMK AO1 SLP112 T02030144 58013,CWGL,2023-06-05T23:00:00Z,44.53,-79.22,20.3,14.4,300,6,,,,1011.2,,TRUE,TRUE,,,,,,,,,,,,,,,,-1.3,,,,,,,,,,,METAR,220.0
CWGH 052300Z AUTO 21001KT 18/13 RMK AO1 SLP107 T01830126 56011,CWGH,2023-06-05T23:00:00Z,44.42,-75.85,18.3,12.6,210,1,,,,1010.7,,TRUE,TRUE,,,,,,,,,,,,,,,,-1.1,,,,,,,,,,,METAR,76.0
CWGD 052300Z AUTO 33005KT 17/09 RMK AO1 SLP150 T01690092 58010,CWGD,2023-06-05T23:00:00Z,43.77,-81.72,16.9,9.2,330,5,,,,1015.0,,TRUE,TRUE,,,,,,,,,,,,,,,,-1.0,,,,,,,,,,,METAR,214.0
CWGB 052300Z AUTO 27017KT 18/ RMK AO1 PK WND 27021/2259 SLP210 T0175 58017,CWGB,2023-06-05T23:00:00Z,49.35,-124.13,17.5,,270,17,,,,1021.0,,TRUE,TRUE,,,,,,,,,,,,,,,,-1.7,,,,,,,,,,,METAR,6.0
CWFQ 052300Z AUTO 35005KT 19/06 RMK AO1 SLP090 T01880063 56009,CWFQ,2023-06-05T23:00:00Z,45.03,-72.85,18.8,6.3,350,5,,,,1009.0,,TRUE,TRUE,,,,,,,,,,,,,,,,-0.9,,,,,,,,,,,METAR,190.0
CWFJ 052300Z AUTO 12002KT 27/08 RMK AO1 T02720075,CWFJ,2023-06-05T23:00:00Z,49.2,-113.27,27.2,7.5,120,2,,,,,,TRUE,TRUE,,,,,,,,,,,,,,,,,,,,,,,,,,,METAR,1142.0
CWFF 052300Z AUTO 16013G20KT 32/14 RMK AO1 PK WND 18022/2241 SLP129 T03180142 56013,CWFF,2023-06-05T23:00:00Z,52.82,-104.6,31.8,14.2,160,13,20,,,1012.9,,TRUE,TRUE,,,,,,,,,,,,,,,,-1.3,,,,,,,,,,,METAR,482.0
CWEZ 052300Z AUTO 32003KT 20/08 RMK AO1 SLP201 T01970079 58013,CWEZ,2023-06-05T23:00:00Z,48.78,-123.05,19.7,7.9,320,3,,,,1020.1,,TRUE,TRUE,,,,,,,,,,,,,,,,-1.3,,,,,,,,,,,METAR,23.0
CWEW 052300Z AUTO 16003KT 20/05 RMK AO1 SLP091 T02040051 57015,CWEW,2023-06-05T23:00:00Z,45.82,-73.43,20.4,5.1,160,3,,,,1009.1,,TRUE,TRUE,,,,,,,,,,,,,,,,-1.5,,,,,,,,,,,METAR,17.0
CWEU 052300Z 15012G21KT 15SM FEW010 FEW015 SCT057 BKN077 BKN150 02/M02 A2983 RMK SF1SC1SC3AC2AC1 SF TR LWR AC LENT S SLP110,CWEU,2023-06-05T23:00:00Z,80.0,-85.93,2.0,-2.0,150,12,21,15.0,29.828741,1011.0,,,,,,,,,,FEW,1000,FEW,1500,SCT,5700,BKN,7700,VFR,,,,,,,,,,,,SPECI,2.0
CWER 052300Z AUTO 06023KT RMK AO1 PK WND 05027/2201,CWER,2023-06-05T23:00:00Z,47.0,-70.82,,,60,23,,,,,,TRUE,TRUE,,,,,,,,,,,,,,,,,,,,,,,,,,,METAR,4.0
CWEQ 052300Z AUTO 15012G20KT 30/15 RMK AO1 PK WND 14020/2200 SLP146 T02960154 56011,CWEQ,2023-06-05T23:00:00Z,52.12,-101.22,29.6,15.4,150,12,20,,,1014.6,,TRUE,TRUE,,,,,,,,,,,,,,,,-1.1,,,,,,,,,,,METAR,331.0
CWEP 052300Z AUTO 04015KT 08/07 RMK AO1 1PAST HR 6028 PK WND 04018/2222 SLP071 P0004 T00810073 50011,CWEP,2023-06-05T23:00:00Z,46.45,-61.98,8.1,7.3,40,15,,,,1007.1,,TRUE,TRUE,,,,,,,,,,,,,,,,1.1,,,,,0.04,,,,,,METAR,9.0
CWEL 052300Z AUTO 29025KT 17/07 RMK AO1 PK WND 29028/2237 SLP208 T01710069 57016,CWEL,2023-06-05T23:00:00Z,49.22,-123.8,17.1,6.9,290,25,,,,1020.8,,TRUE,TRUE,,,,,,,,,,,,,,,,-1.6,,,,,,,,,,,METAR,0.0
CWEH 052300Z AUTO 16018KT 27/09 RMK AO1 PK WND 16026/2213 SLP122 T02680089 56009,CWEH,2023-06-05T23:00:00Z,49.43,-108.98,26.8,8.9,160,18,,,,1012.2,,TRUE,TRUE,,,,,,,,,,,,,,,,-0.9,,,,,,,,,,,METAR,1077.0
CWEF 052300Z AUTO 10020KT 06/06 RMK AO1 PK WND 10026/2235 SLP095 T00590058 58017,CWEF,2023-06-05T23:00:00Z,47.22,-60.13,5.9,5.8,100,20,,,,1009.5,,TRUE,TRUE,,,,,,,,,,,,,,,,-1.7,,,,,,,,,,,METAR,27.0
CWEE 052300Z AUTO 18/08 RMK AO1 SLP108 T01840078 55004,CWEE,2023-06-05T23:00:00Z,49.27,-73.35,18.4,7.8,,,,,,1010.8,,TRUE,TRUE,,,,,,,,,,,,,,,,-0.4,,,,,,,,,,,METAR,302.0
CWEB 052300Z AUTO 00032KT 14/08 RMK AO1 SLP225 T01390075 58014,CWEB,2023-06-05T23:00:00Z,49.38,-126.55,13.9,7.5,0,32,,,,1022.5,,TRUE,TRUE,,,,,,,,,,,,,,,,-1.4,,,,,,,,,,,METAR,1.0
CWDZ 052300Z AUTO 23003KT 30/09 RMK AO1 SLP093 T02950086 56017,CWDZ,2023-06-05T23:00:00Z,51.43,-112.67,29.5,8.6,230,3,,,,1009.3,,TRUE,TRUE,,,,,,,,,,,,,,,,-1.7,,,,,,,,,,,METAR,689.0
CWDV 052300Z AUTO 06003KT 17/14 RMK AO1 SLP222 T01650136 56008,CWDV,2023-06-05T23:00:00Z,49.02,-90.47,16.5,13.6,60,3,,,,1022.2,,TRUE,TRUE,,,,,,,,,,,,,,,,-0.8,,,,,,,,,,,METAR,487.0
CWDQ 052300Z AUTO 35004KT 21/05 RMK AO1 T02100052,CWDQ,2023-06-05T23:00:00Z,47.42,-72.78,21.0,5.2,350,4,,,,,,TRUE,TRUE,,,,,,,,,,,,,,,,,,,,,,,,,,,METAR,174.0
CWDO 052300Z AUTO 10010KT 05/04 RMK AO1 SLP170 T00460042 56009,CWDO,2023-06-05T23:00:00Z,49.68,-54.78,4.6,4.2,100,10,,,,1017.0,,TRUE,TRUE,,,,,,,,,,,,,,,,-0.9,,,,,,,,,,,METAR,89.0
CWDM 052300Z AUTO 06004KT 07/06 RMK AO1 3PAST HR 8008 SLP154 P0001 T00740056 50003,CWDM,2023-06-05T23:00:00Z,50.47,-59.63,7.4,5.6,60,4,,,,1015.4,,TRUE,TRUE,,,,,,,,,,,,,,,,0.3,,,,,0.01,,,,,,METAR,2.0
CWDK 052300Z AUTO 16010G16KT 28/07 RMK AO1 SLP110 T02800070 58018,CWDK,2023-06-05T23:00:00Z,50.02,-113.62,28.0,7.0,160,10,16,,,1011.0,,TRUE,TRUE,,,,,,,,,,,,,,,,-1.8,,,,,,,,,,,METAR,1014.0
CWDJ 052300Z AUTO 18012KT 31/13 RMK AO1 PK WND 18017/2230 SLP132 T03090127 56019,CWDJ,2023-06-05T23:00:00Z,50.4,-104.58,30.9,12.7,180,12,,,,1013.2,,TRUE,TRUE,,,,,,,,,,,,,,,,-1.9,,,,,,,,,,,METAR,576.0
CWDC 052300Z AUTO 27003KT 18/16 RMK AO1 8010 SLP140 T01800155 50030,CWDC,2023-06-05T23:00:00Z,59.57,-108.48,18.0,15.5,270,3,,,,1014.0,,TRUE,TRUE,,,,,,,,,,,,,,,,3.0,,,,,,,,,,,METAR,311.0
CWDA 052300Z AUTO 00010KT 03/ RMK AO1 T0032,CWDA,2023-06-05T23:00:00Z,50.72,-56.12,3.2,,0,10,,,,,,TRUE,TRUE,,,,,,,,,,,,,,,,,,,,,,,,,,,METAR,30.0
CWCT 052300Z AUTO 06009KT 26/16 RMK AO1 8008 SLP118 T02640157 50018,CWCT,2023-06-05T23:00:00Z,52.07,-111.43,26.4,15.7,60,9,,,,1011.8,,TRUE,TRUE,,,,,,,,,,,,,,,,1.8,,,,,,,,,,,METAR,793.0
CWCO 052300Z AUTO 32004KT 19/11 RMK AO1 SLP137 T01940111 58011,CWCO,2023-06-05T23:00:00Z,44.5,-80.22,19.4,11.1,320,4,,,,1013.7,,TRUE,TRUE,,,,,,,,,,,,,,,,-1.1,,,,,,,,,,,METAR,182.0
CWCJ 052300Z AUTO 05007G15KT 19/09 RMK AO1 SLP211 T01870089 56010,CWCJ,2023-06-05T23:00:00Z,48.6,-86.28,18.7,8.9,50,7,15,,,1021.1,,TRUE,TRUE,,,,,,,,,,,,,,,,-1.0,,,,,,,,,,,METAR,207.0
CWCI 052300Z AUTO 05015KT 16/10 RMK AO1 PK WND 05019/2243 SLP189 T01580100 56006,CWCI,2023-06-05T23:00:00Z,47.33,-85.82,15.8,10.0,50,15,,,,1018.9,,TRUE,TRUE,,,,,,,,,,,,,,,,-0.6,,,,,,,,,,,METAR,167.0
CWCF 052300Z AUTO 12009KT 26/19 RMK AO1 SLP179 T02640187 55006,CWCF,2023-06-05T23:00:00Z,52.35,-97.03,26.4,18.7,120,9,,,,1017.9,,TRUE,TRUE,,,,,,,,,,,,,,,,-0.6,,,,,,,,,,,METAR,219.0
CWBZ 052300Z AUTO 25001KT 18/09 RMK AO1 SLP098 T01800086 56008,CWBZ,2023-06-05T23:00:00Z,45.12,-74.28,18.0,8.6,250,1,,,,1009.8,,TRUE,TRUE,,,,,,,,,,,,,,,,-0.8,,,,,,,,,,,METAR,49.0
CWBY 052300Z AUTO 14004KT 09/07 RMK AO1 SLP142 T00910066 56004,CWBY,2023-06-05T23:00:00Z,49.83,-64.28,9.1,6.6,140,4,,,,1014.2,,TRUE,TRUE,,,,,,,,,,,,,,,,-0.4,,,,,,,,,,,METAR,56.0
CWBV 052300Z AUTO 06029KT 08/07 RMK AO1 PK WND 06035/2210 SLP003 T00750074 58036,CWBV,2023-06-05T23:00:00Z,44.82,-62.33,7.5,7.4,60,29,,,,1000.3,,TRUE,TRUE,,,,,,,,,,,,,,,,-3.6,,,,,,,,,,,METAR,16.0
CWBU 052300Z AUTO 05003KT 27/21 RMK AO1 6008 SLP129 T02710214 50071,CWBU,2023-06-05T23:00:00Z,53.33,-104.02,27.1,21.4,50,3,,,,1012.9,,TRUE,TRUE,,,,,,,,,,,,,,,,7.1,,,,,,,,,,,METAR,369.0
CWBT 052300Z AUTO 09005KT 09/07 RMK AO1 SLP146 T00910067 58005,CWBT,2023-06-05T23:00:00Z,50.27,-64.23,9.1,6.7,90,5,,,,1014.6,,TRUE,TRUE,,,,,,,,,,,,,,,,-0.5,,,,,,,,,,,METAR,12.0
CWBS 052300Z AUTO 20006KT 19/07 RMK AO1 T01850069,CWBS,2023-06-05T23:00:00Z,46.18,-72.92,18.5,6.9,200,6,,,,,,TRUE,TRUE,,,,,,,,,,,,,,,,,,,,,,,,,,,METAR,3.0
CWBO 052300Z AUTO 21007KT 30/07 RMK AO1 SLP103 T03000067 56012,CWBO,2023-06-05T23:00:00Z,50.53,-111.83,30.0,6.7,210,7,,,,1010.3,,TRUE,TRUE,,,,,,,,,,,,,,,,-1.2,,,,,,,,,,,METAR,752.0
CWBK 052300Z AUTO 05017KT 09/08 RMK AO1 7PAST HR 6029 PK WND 04020/2210 SLP051 P0014 T00890075 50110,CWBK,2023-06-05T23:00:00Z,45.77,-62.67,8.9,7.5,50,17,,,,1005.1,,TRUE,TRUE,,,,,,,,,,,,,,,,0.0,,,,,0.14,,,,,,METAR,2.0
CWBA 052300Z AUTO 34009KT 21/06 RMK AO1 PK WND 35017/2234 T02090060,CWBA,2023-06-05T23:00:00Z,46.72,-79.1,20.9,6.0,340,9,,,,,,TRUE,TRUE,,,,,,,,,,,,,,,,,,,,,,,,,,,METAR,181.0
CWAV 052300Z AUTO 06006KT 20/09 RMK AO1 SLP130 T02020093 56011,CWAV,2023-06-05T23:00:00Z,51.77,-114.67,20.2,9.3,60,6,,,,1013.0,,TRUE,TRUE,,,,,,,,,,,,,,,,-1.1,,,,,,,,,,,METAR,1115.0
CWAR 052300Z AUTO 06009KT 13/09 RMK AO1 SLP162 T01280092 50002,CWAR,2023-06-05T23:00:00Z,47.28,-54.0,12.8,9.2,60,9,,,,1016.2,,TRUE,TRUE,,,,,,,,,,,,,,,,0.2,,,,,,,,,,,METAR,6.0
CWAQ 052300Z AUTO 17012G18KT 29/13 RMK AO1 PK WND 17018/2254 SLP138 T02900134 56015,CWAQ,2023-06-05T23:00:00Z,49.05,-105.48,29.0,13.4,170,12,18,,,1013.8,,TRUE,TRUE,,,,,,,,,,,,,,,,-1.5,,,,,,,,,,,METAR,761.0
CWAJ 052300Z AUTO 23004KT RMK AO1 58012,CWAJ,2023-06-05T23:00:00Z,42.25,-81.9,,,230,4,,,,,,TRUE,TRUE,,,,,,,,,,,,,,,,-1.2,,,,,,,,,,,METAR,177.0
CWAF 052300Z AUTO 03014KT 08/06 RMK AO1 PK WND 03019/2240 T00760055,CWAF,2023-06-05T23:00:00Z,48.07,-69.55,7.6,5.5,30,14,,,,,,TRUE,TRUE,,,,,,,,,,,,,,,,,,,,,,,,,,,METAR,6.0
CWAE 052300Z 32002KT 15SM SKC 22/M04 A3012 RMK WIND EST SLP200 DENSITY ALT 3300FT,CWAE,2023-06-05T23:00:00Z,50.13,-122.95,22.0,-4.0,320,2,,15.0,30.121063,1020.0,,,,,,,,,,SKC,,,,,,,,VFR,,,,,,,,,,,,SPECI,658.0
CTRA 052300Z AUTO 09006KT 21/17 RMK AO1 SLP203 T02140173 56005,CTRA,2023-06-05T23:00:00Z,49.67,-93.73,21.4,17.3,90,6,,,,1020.3,,TRUE,TRUE,,,,,,,,,,,,,,,,-0.5,,,,,,,,,,,METAR,432.0
CTNK 052300Z AUTO 02003KT 22/07 RMK AO1 SLP124 T02200070 56008,CTNK,2023-06-05T23:00:00Z,45.53,-78.27,22.0,7.0,20,3,,,,1012.4,,TRUE,TRUE,,,,,,,,,,,,,,,,-0.8,,,,,,,,,,,METAR,405.0
CTCK 052300Z AUTO 31002KT 20/08 RMK AO1 SLP098 T02020083 56013,CTCK,2023-06-05T23:00:00Z,45.25,-74.97,20.2,8.3,310,2,,,,1009.8,,TRUE,TRUE,,,,,,,,,,,,,,,,-1.3,,,,,,,,,,,METAR,84.0
CPSV 052300Z AUTO 04002KT 28/13 RMK AO1 T02760128,CPSV,2023-06-05T23:00:00Z,49.92,-110.92,27.6,12.8,40,2,,,,,,TRUE,TRUE,,,,,,,,,,,,,,,,,,,,,,,,,,,METAR,766.0
CPST 052300Z AUTO 23006KT 24/08 RMK AO1 T02350075,CPST,2023-06-05T23:00:00Z,51.03,-113.28,23.5,7.5,230,6,,,,,,TRUE,TRUE,,,,,,,,,,,,,,,,,,,,,,,,,,,METAR,1005.0
CPRY 052300Z AUTO 20003KT 28/07 RMK AO1 T02760068,CPRY,2023-06-05T23:00:00Z,49.48,-112.68,27.6,6.8,200,3,,,,,,TRUE,TRUE,,,,,,,,,,,,,,,,,,,,,,,,,,,METAR,947.0
CPRO 052300Z AUTO 19005KT 29/07 RMK AO1 T02940068,CPRO,2023-06-05T23:00:00Z,50.83,-112.05,29.4,6.8,190,5,,,,,,TRUE,TRUE,,,,,,,,,,,,,,,,,,,,,,,,,,,METAR,733.0
CPIN 052300Z AUTO 32013KT ////SM ////// ///// A////,CPIN,2023-06-05T23:00:00Z,,,,,320,13,,,,,,TRUE,,,,,,,,,,,,,,,,,,,,,,,,,,,,METAR,
CPFI 052300Z AUTO 22003KT 29/06 RMK AO1 T02910056,CPFI,2023-06-05T23:00:00Z,49.8,-112.03,29.1,5.6,220,3,,,,,,TRUE,TRUE,,,,,,,,,,,,,,,,,,,,,,,,,,,METAR,804.0
CPEH 052300Z AUTO 27/06 RMK AO1 T02740055,CPEH,2023-06-05T23:00:00Z,50.18,-112.43,27.4,5.5,,,,,,,,TRUE,TRUE,,,,,,,,,,,,,,,,,,,,,,,,,,,METAR,814.0
CPBT 052300Z AUTO 09003KT 26/07 RMK AO1 T02630074,CPBT,2023-06-05T23:00:00Z,49.53,-113.05,26.3,7.4,90,3,,,,,,TRUE,TRUE,,,,,,,,,,,,,,,,,,,,,,,,,,,METAR,998.0
CMGB 052300Z AUTO 31003KT 21/06 RMK AO1 SLP089 T02070056 56010,CMGB,2023-06-05T23:00:00Z,45.37,-72.77,20.7,5.6,310,3,,,,1008.9,,TRUE,TRUE,,,,,,,,,,,,,,,,-1.0,,,,,,,,,,,METAR,87.0
CMFM 052300Z AUTO 15001KT 15/06 RMK AO1 SLP108 T01490064 51002,CMFM,2023-06-05T23:00:00Z,47.32,-71.15,14.9,6.4,150,1,,,,1010.8,,TRUE,TRUE,,,,,,,,,,,,,,,,0.2,,,,,,,,,,,METAR,663.0
CERM 052300Z AUTO 02001KT 11/09 RMK AO1 2PAST HR 8008 SLP109 P0001 T01080086 50005,CERM,2023-06-05T23:00:00Z,47.42,-68.32,10.8,8.6,20,1,,,,1010.9,,TRUE,TRUE,,,,,,,,,,,,,,,,0.5,,,,,0.01,,,,,,METAR,151.0
CBBC 052300Z AUTO 34006KT 290V360 9SM CLR 17/06 A3035 RMK SLP279,CBBC,2023-06-05T23:00:00Z,52.18,-128.15,17.0,6.0,340,6,,9.0,30.351377,1027.9,,TRUE,,,,,,,,CLR,,,,,,,,VFR,,,,,,,,,,,,METAR,36.0
CBAR 052300Z AUTO 08018KT ////SM ////// ///// A////,CBAR,2023-06-05T23:00:00Z,,,,,80,18,,,,,,TRUE,,,,,,,,,,,,,,,,,,,,,,,,,,,,METAR,
CAHR 052300Z AUTO 03010KT 08/08 RMK AO1 7PAST HR 8022 SLP067 P0003 T00800076 50019,CAHR,2023-06-05T23:00:00Z,46.35,-63.17,8.0,7.6,30,10,,,,1006.7,,TRUE,TRUE,,,,,,,,,,,,,,,,1.9,,,,,0.03,,,,,,METAR,52.0
AYPY 052300Z 00000KT 9999 FEW010 SCT025 30/26 Q1011 RMK/SPECI CEASE,AYPY,2023-06-05T23:00:00Z,-9.43,147.22,30.0,26.0,0,0,,6.21,29.852362,,,,,,,,,,,FEW,1000,SCT,2500,,,,,VFR,,,,,,,,,,,,METAR,44.0
ANYN 052300Z 11005KT 9999 SCT020 30/25 Q1012,ANYN,2023-06-05T23:00:00Z,-0.55,166.92,30.0,25.0,110,5,,6.21,29.88189,,,,,,,,,,,SCT,2000,,,,,,,VFR,,,,,,,,,,,,METAR,7.0
AGGH 052300Z 14003KT 9999 SCT018 FEW019CB 29/27 Q1013,AGGH,2023-06-05T23:00:00Z,-9.42,160.05,29.0,27.0,140,3,,6.21,29.911417,,,,,,,,,,,SCT,1800,FEW,1900,,,,,VFR,,,,,,,,,,,,METAR,6.0
KSYN 052259Z AUTO 06006KT 10SM VCTS CLR 30/12 A3003 RMK AO2,KSYN,2023-06-05T22:59:00Z,44.47,-93.02,30.0,12.0,60,6,,10.0,30.029528,,,TRUE,TRUE,,,,,,VCTS,CLR,,,,,,,,VFR,,,,,,,,,,,,METAR,280.0
KPMH 052259Z AUTO 03004KT 10SM CLR 25/07 A2997 RMK AO2,KPMH,2023-06-05T22:59:00Z,38.83,-82.85,25.0,7.0,30,4,,10.0,29.970472,,,TRUE,TRUE,,,,,,,CLR,,,,,,,,VFR,,,,,,,,,,,,METAR,200.0
KP92 052259Z AUTO 00000KT 24/21 A2988 RMK AO1 SLP117 T02440206,KP92,2023-06-05T22:59:00Z,29.57,-91.53,24.4,20.6,0,0,,,29.878937,1011.7,,TRUE,TRUE,,,,,,,,,,,,,,,,,,,,,,,,,,,METAR,1.0
KOXD 052259Z AUTO 03006KT 5SM HZ SCT035 BKN041 27/M25 A2997 RMK AO2,KOXD,2023-06-05T22:59:00Z,39.5,-84.78,27.0,-25.0,30,6,,5.0,29.970472,,,TRUE,TRUE,,,,,,HZ,SCT,3500,BKN,4100,,,,,MVFR,,,,,,,,,,,,SPECI,317.0
K04W 052259Z AUTO 01008KT 10SM CLR 25/18 A3008 RMK AO2,K04W,2023-06-05T22:59:00Z,46.02,-92.9,25.0,18.0,10,8,,10.0,30.079725,,,TRUE,TRUE,,,,,,,CLR,,,,,,,,VFR,,,,,,,,,,,,METAR,310.0
PKMJ 052258Z 11007KT 15SM FEW014 SCT045 BKN110 OVC300 28/24 A2984 ,PKMJ,2023-06-05T22:58:00Z,7.07,171.27,28.0,24.0,110,7,,15.0,29.840551,,,,,,,,,,,FEW,1400,SCT,4500,BKN,11000,OVC,30000,VFR,,,,,,,,,,,,METAR,2.0
KBCR 052258Z AUTO 08004KT 10SM CLR 29/17 A2990 RMK AO2 SLP083 T02890172,KBCR,2023-06-05T22:58:00Z,30.85,-85.6,28.9,17.2,80,4,,10.0,29.899607,1008.3,,TRUE,TRUE,,,,,,,CLR,,,,,,,,VFR,,,,,,,,,,,,METAR,26.0
PAWG 052256Z 12012KT 10SM FEW018 BKN030 OVC050 14/06 A3032,PAWG,2023-06-05T22:56:00Z,56.48,-132.37,14.0,6.0,120,12,,10.0,30.318897,,,,,,,,,,,FEW,1800,BKN,3000,OVC,5000,,,MVFR,,,,,,,,,,,,METAR,6.0
PASL 052256Z AUTO VRB04KT 10SM BKN065 BKN075 19/06 A2984 RMK AO2 SLP095 T01890056,PASL,2023-06-05T22:56:00Z,61.68,-157.15,18.9,5.6,0,4,,10.0,29.840551,1009.5,,TRUE,TRUE,,,,,,,BKN,6500,BKN,7500,,,,,VFR,,,,,,,,,,,,SPECI,64.0
PAAK 052256Z AUTO 29009KT 10SM BKN034 OVC090 08/04 A2959 RMK AO2 SLP019 T00780044,PAAK,2023-06-05T22:56:00Z,52.22,-174.2,7.8,4.4,290,9,,10.0,29.589567,1001.9,,TRUE,TRUE,,,,,,,BKN,3400,OVC,9000,,,,,VFR,,,,,,,,,,,,SPECI,11.0
PALJ 052255Z 06012KT 30SM BKN100 BKN150 16/08 A2981 RMK EST PASS OPN NOSPECI,PALJ,2023-06-05T22:55:00Z,60.2,-154.3,16.0,8.0,60,12,,30.0,29.811024,,,,,,,,,,,BKN,10000,BKN,15000,,,,,VFR,,,,,,,,,,,,METAR,88.0
PAEL 052255Z 30007KT 12SM SCT015 OVC030 09/05 A3020 RMK MAX 10.7 70003 SPB E23012KT SEA 1 SWELL 2 SW NOSPECI,PAEL,2023-06-05T22:55:00Z,58.2,-136.35,9.0,5.0,300,7,,12.0,30.200787,,,,,,,,,,,SCT,1500,OVC,3000,,,,,MVFR,,,,,,,,,0.03,,,METAR,8.0
LIVT 052255Z AUTO 06002KT //// 18/17 Q1015,LIVT,2023-06-05T22:55:00Z,45.68,13.75,18.0,17.0,60,2,,,29.970472,,,TRUE,,,,,,,,,,,,,,,,,,,,,,,,,,,,METAR,20.0
LIVP 052255Z 36012KT 0900 FG VV/// 04/04 Q1020 RMK MON INVIS VAL INVIS VIS MIN 0900,LIVP,2023-06-05T22:55:00Z,46.15,11.03,4.0,4.0,360,12,,0.56,30.11811,,,,,,,,,,FG,OVX,0,,,,,,,LIFR,,,,,,,,,,,,SPECI,2099.0
LIVM 052255Z AUTO /////KT //// ///// Q////,LIVM,2023-06-05T22:55:00Z,44.45,12.3,,,,,,,,,,TRUE,,,,,,,,,,,,,,,,,,,,,,,,,,,,METAR,6.0
LIVF 052255Z 05003KT CAVOK 14/13 Q1015,LIVF,2023-06-05T22:55:00Z,43.52,12.72,14.0,13.0,50,3,,6.21,29.970472,,,,,,,,,,,CAVOK,,,,,,,,VFR,,,,,,,,,,,,METAR,549.0
LIVE 052255Z 36002KT CAVOK 09/08 Q1019 RMK SCT SCT060 VIS MIN 9999,LIVE,2023-06-05T22:55:00Z,46.82,10.5,9.0,8.0,360,2,,6.21,30.088583,,,,,,,,,,,CAVOK,,,,,,,,VFR,,,,,,,,,,,,METAR,1684.0
LIVD 052255Z AUTO VRB02KT //// 10/10 Q1020,LIVD,2023-06-05T22:55:00Z,46.72,12.22,10.0,10.0,0,2,,,30.11811,,,TRUE,,,,,,,,,,,,,,,,,,,,,,,,,,,,METAR,1221.0
LIVC 052255Z AUTO 20010KT //// 06/05 Q1021,LIVC,2023-06-05T22:55:00Z,44.2,10.68,6.0,5.0,200,10,,,30.147638,,,TRUE,,,,,,,,,,,,,,,,,,,,,,,,,,,,METAR,2139.0
LIRS 052255Z 08002KT 9999 SCT020 18/16 Q1015 RMK SCT VIS MIN 9999 WIND THR03 08003KT WIND THR21 09005KT BLU,LIRS,2023-06-05T22:55:00Z,42.75,11.07,18.0,16.0,80,2,,6.21,29.970472,,,,,,,,,,,SCT,2000,,,,,,,VFR,,,,,,,,,,,,METAR,3.0
LIRM 052255Z 03001KT 9999 FEW025 BKN070 20/19 Q1015 RMK BKN VIS MIN 9999 WIND THR06 07002KT BLU,LIRM,2023-06-05T22:55:00Z,41.05,14.07,20.0,19.0,30,1,,6.21,29.970472,,,,,,,,,,,FEW,2500,BKN,7000,,,,,VFR,,,,,,,,,,,,SPECI,6.0
LIRK 052255Z AUTO /////KT //// ///// Q////,LIRK,2023-06-05T22:55:00Z,42.47,12.97,,,,,,,,,,TRUE,,,,,,,,,,,,,,,,,,,,,,,,,,,,METAR,1721.0
LIQC 052255Z 00000KT CAVOK 21/18 Q1016 RMK SKC QUK / QUL / VIS MAR 20 KM VIS MIN 9999,LIQC,2023-06-05T22:55:00Z,40.55,14.2,21.0,18.0,0,0,,6.21,30.0,,,,,,,,,,,CAVOK,,,,,,,,VFR,,,,,,,,,,,,METAR,154.0
LIPS 052255Z 05004KT 9999 SCT040 BKN100 18/16 Q1015 RMK BKN VIS MIN 9999 WIND THR26 01005KT WIND THR08 04004KT BLU,LIPS,2023-06-05T22:55:00Z,45.68,12.1,18.0,16.0,50,4,,6.21,29.970472,,,,,,,,,,,SCT,4000,BKN,10000,,,,,VFR,,,,,,,,,,,,SPECI,42.0
LIPL 052255Z 15003KT CAVOK 19/19 Q1015 RMK SCT SCT100 VIS MIN 9999 WIND THR31 /////KT WIND THR13 15002KT BLU,LIPL,2023-06-05T22:55:00Z,45.42,10.27,19.0,19.0,150,3,,6.21,29.970472,,,,,,,,,,,CAVOK,,,,,,,,VFR,,,,,,,,,,,,METAR,96.0
LIPI 052255Z 34005KT 6000 SCT025 BKN040 17/17 Q1015 RMK OVC VIS MIN 6000 WIND THR06 03004KT WIND THR24 36004KT WHT,LIPI,2023-06-05T22:55:00Z,45.97,13.05,17.0,17.0,340,5,,3.73,29.970472,,,,,,,,,,,SCT,2500,BKN,4000,,,,,MVFR,,,,,,,,,,,,METAR,49.0
LIPC 052255Z 25005KT 9999 FEW020 17/16 Q1016 RMK BKN SCT100 VIS MIN 9999 WIND THR11 26004KT WIND THR29 26004KT BLU,LIPC,2023-06-05T22:55:00Z,44.22,12.3,17.0,16.0,250,5,,6.21,30.0,,,,,,,,,,,FEW,2000,,,,,,,VFR,,,,,,,,,,,,METAR,10.0
LIED 052255Z 02004KT 9999 FEW020 17/14 Q1015 RMK FEW VIS MIN 9999 WIND THR35 /////KT WIND THR17 04004KT BLU,LIED,2023-06-05T22:55:00Z,39.35,8.97,17.0,14.0,20,4,,6.21,29.970472,,,,,,,,,,,FEW,2000,,,,,,,VFR,,,,,,,,,,,,SPECI,26.0
LIEB 052255Z 32010KT 9999 FEW035 17/16 Q1015 RMK SCT SCT070 QUK / QUL / VIS MAR 30 KM MON INVIS VIS MIN 9999,LIEB,2023-06-05T22:55:00Z,39.93,9.72,17.0,16.0,320,10,,6.21,29.970472,,,,,,,,,,,FEW,3500,,,,,,,VFR,,,,,,,,,,,,SPECI,126.0
LICZ 052255Z 24003KT 9999 SCT100 17/17 Q1014 RMK OVC BKN200 VIS MIN 9999 WIND THR28 24005KT WIND THR10 25005KT A2997 BLU,LICZ,2023-06-05T22:55:00Z,37.4,14.92,17.0,17.0,240,3,,6.21,29.940945,,,,,,,,,,,SCT,10000,,,,,,,VFR,,,,,,,,,,,,SPECI,22.0
LICT 052255Z 02005KT CAVOK 19/16 Q1015 RMK OVC BKN080 BKN150 VIS MIN 9999 WIND THR13 04006KT BLU,LICT,2023-06-05T22:55:00Z,37.92,12.5,19.0,16.0,20,5,,6.21,29.970472,,,,,,,,,,,CAVOK,,,,,,,,VFR,,,,,,,,,,,,METAR,4.0
LIBV 052255Z 17001KT 2000 BR SCT002 18/18 Q1015 RMK BKN BKN070 VIS MIN 2000 WIND THR32 16001KT WIND THR14 ////KT YLO,LIBV,2023-06-05T22:55:00Z,40.77,16.93,18.0,18.0,170,1,,1.24,29.970472,,,,,,,,,,BR,SCT,200,,,,,,,IFR,,,,,,,,,,,,SPECI,344.0
LIBQ 052255Z AUTO 10004KT //// 11/08 Q1020,LIBQ,2023-06-05T22:55:00Z,39.32,16.38,11.0,8.0,100,4,,,30.11811,,,TRUE,,,,,,,,,,,,,,,,,,,,,,,,,,,,METAR,1660.0
LIBN 052255Z VRB02KT CAVOK 21/21 Q1016 RMK BKN BKN110 VIS MIN 9999 WIND THR14 VRB02KT WIND THR32 /////KT BLU,LIBN,2023-06-05T22:55:00Z,40.23,18.13,21.0,21.0,0,2,,6.21,30.0,,,,,,,,,,,CAVOK,,,,,,,,VFR,,,,,,,,,,,,METAR,46.0
LIBA 052255Z 15002KT 9999 SCT060 20/18 Q1015 RMK OVC BKN100 VIS MIN 9999 WIND THR11 10001KT WIND THR29 /////KT BLU,LIBA,2023-06-05T22:55:00Z,41.53,15.72,20.0,18.0,150,2,,6.21,29.970472,,,,,,,,,,,SCT,6000,,,,,,,VFR,,0.1,,,,,,,,,,METAR,55.0
KY51 052255Z AUTO 00000KT 10SM CLR 28/14 A3005 RMK AO1 T02840138,KY51,2023-06-05T22:55:00Z,43.58,-90.9,28.4,13.8,0,0,,10.0,30.050198,,,TRUE,TRUE,,,,,,,CLR,,,,,,,,VFR,,,,,,,,,,,,METAR,390.0
KXIF 052255Z AUTO 36005KT 10SM CLR 22/06 A2988 RMK AO2 SLP120 T02190061 $,KXIF,2023-06-05T22:55:00Z,,,21.9,6.1,360,5,,10.0,29.878937,1012.0,,TRUE,TRUE,TRUE,,,,,,CLR,,,,,,,,VFR,,,,,,,,,,,,METAR,
KW96 052255Z AUTO 00000KT 10SM CLR 24/11 A2988 RMK AO1 T02360110,KW96,2023-06-05T22:55:00Z,37.5,-77.12,23.6,11.0,0,0,,10.0,29.878937,,,TRUE,TRUE,,,,,,,CLR,,,,,,,,VFR,,,,,,,,,,,,METAR,35.0
KVPS 052255Z AUTO 18008KT 10SM CLR 26/20 A2990 RMK AO2 SLP131 T02570198 $,KVPS,2023-06-05T22:55:00Z,30.47,-86.52,25.7,19.8,180,8,,10.0,29.899607,1013.1,,TRUE,TRUE,TRUE,,,,,,CLR,,,,,,,,VFR,,,,,,,,,,,,METAR,21.0
KVNW 052255Z AUTO 04004KT 7SM CLR 26/00 A2999 RMK AO2,KVNW,2023-06-05T22:55:00Z,40.87,-84.62,26.0,0.0,40,4,,7.0,29.991142,,,TRUE,TRUE,,,,,,,CLR,,,,,,,,VFR,,,,,,,,,,,,METAR,238.0
KVDF 052255Z AUTO 08004KT 10SM CLR 29/21 A2988 RMK AO2,KVDF,2023-06-05T22:55:00Z,28.02,-82.33,29.0,21.0,80,4,,10.0,29.878937,,,TRUE,TRUE,,,,,,,CLR,,,,,,,,VFR,,,,,,,,,,,,METAR,5.0
KUNU 052255Z AUTO 00000KT 10SM CLR 28/11 A3004 RMK AO2 T02820108,KUNU,2023-06-05T22:55:00Z,43.42,-88.7,28.2,10.8,0,0,,10.0,30.041338,,,TRUE,TRUE,,,,,,,CLR,,,,,,,,VFR,,,,,,,,,,,,METAR,281.0
KTVY 052255Z AUTO 11004KT 10SM SCT120 28/02 A2997 RMK AO2 LTG DSNT NE AND E,KTVY,2023-06-05T22:55:00Z,40.62,-112.35,28.0,2.0,110,4,,10.0,29.970472,,,TRUE,TRUE,,,,,,,SCT,12000,,,,,,,VFR,,,,,,,,,,,,SPECI,1310.0
KSUW 052255Z AUTO 07007KT 5SM HZ CLR 14/10 A3015 RMK AO2 T01360100,KSUW,2023-06-05T22:55:00Z,46.68,-92.1,13.6,10.0,70,7,,5.0,30.15059,,,TRUE,TRUE,,,,,,HZ,CLR,,,,,,,,MVFR,,,,,,,,,,,,METAR,205.0
KSSC 052255Z 22004KT 10SM FEW040 25/15 A2990 RMK AO2A SLP125 T02500153,KSSC,2023-06-05T22:55:00Z,33.97,-80.47,25.0,15.3,220,4,,10.0,29.899607,1012.5,,,TRUE,,,,,,,FEW,4000,,,,,,,VFR,,,,,,,,,,,,SPECI,71.0
KSPA 052255Z AUTO 23005KT 10SM SCT032 23/16 A2993 RMK AO2,KSPA,2023-06-05T22:55:00Z,34.92,-81.95,23.0,16.0,230,5,,10.0,29.929134,,,TRUE,TRUE,,,,,,,SCT,3200,,,,,,,VFR,,,,,,,,,,,,SPECI,242.0
KSNK 052255Z AUTO 08010G15KT 10SM SCT041 SCT055 SCT085 24/14 A3002 RMK AO2 LTG DSNT NW T02400140,KSNK,2023-06-05T22:55:00Z,32.7,-100.95,24.0,14.0,80,10,15,10.0,30.02067,,,TRUE,TRUE,,,,,,,SCT,4100,SCT,5500,SCT,8500,,,VFR,,,,,,,,,,,,METAR,738.0
KSKF 052255Z 20003KT 10SM FEW060 29/21 A2983 RMK AO2A SLP095 T02930212 $,KSKF,2023-06-05T22:55:00Z,29.38,-98.57,29.3,21.2,200,3,,10.0,29.828741,1009.5,,,TRUE,TRUE,,,,,,FEW,6000,,,,,,,VFR,,,,,,,,,,,,METAR,214.0
KRYM 052255Z AUTO 08004KT 10SM BKN150 27/17 A3004 RMK AO2 SLP172 T02680173 $,KRYM,2023-06-05T22:55:00Z,46.08,-94.37,26.8,17.3,80,4,,10.0,30.041338,1017.2,,TRUE,TRUE,TRUE,,,,,,BKN,15000,,,,,,,VFR,,,,,,,,,,,,METAR,344.0
KRRL 052255Z AUTO 00000KT 7SM SCT065 SCT085 28/14 A3003 RMK AO2 T02760143 TSNO,KRRL,2023-06-05T22:55:00Z,45.2,-89.72,27.6,14.3,0,0,,7.0,30.029528,,,TRUE,TRUE,,,TRUE,,,,SCT,6500,SCT,8500,,,,,VFR,,,,,,,,,,,,METAR,397.0
KRPD 052255Z AUTO 36004KT 10SM CLR 29/20 A3006 RMK AO2 T02860195,KRPD,2023-06-05T22:55:00Z,45.42,-91.77,28.6,19.5,360,4,,10.0,30.059055,,,TRUE,TRUE,,,,,,,CLR,,,,,,,,VFR,,,,,,,,,,,,METAR,334.0
KRCM 052255Z AUTO 09006KT 10SM SCT075 SCT100 30/12 A2998 RMK AO2,KRCM,2023-06-05T22:55:00Z,38.78,-93.8,30.0,12.0,90,6,,10.0,29.97933,,,TRUE,TRUE,,,,,,,SCT,7500,SCT,10000,,,,,VFR,,,,,,,,,,,,METAR,242.0
KRCA 052255Z AUTO 18004KT 10SM FEW190 27/12 A3004 RMK AO2 SLP152 T02710119 $,KRCA,2023-06-05T22:55:00Z,44.15,-103.12,27.1,11.9,180,4,,10.0,30.041338,1015.2,,TRUE,TRUE,TRUE,,,,,,FEW,19000,,,,,,,VFR,,,,,,,,,,,,METAR,993.0
KQTZ 052255Z 32003KT 9999 BKN200 29/09 A2974 RMK SLP066,KQTZ,2023-06-05T22:55:00Z,,,29.0,9.0,320,3,,6.21,29.740158,1006.6,,,,,,,,,,BKN,20000,,,,,,,VFR,,,,,,,,,,,,SPECI,
KQAZ 052255Z AUTO 00000KT 9000 HZ CLR 35/03 A2981 RMK AO2 SLP083 WND DATA ESTMD T03530028 404370310,KQAZ,2023-06-05T22:55:00Z,,,35.3,2.8,0,0,,5.59,29.811024,1008.3,,TRUE,TRUE,,,,,,HZ,CLR,,,,,,,,VFR,,,,43.7,31.0,,,,,,,SPECI,
KPTS 052255Z AUTO 02008KT 10SM CLR 25/18 A2996 RMK AO2 LTG DSNT SE T02510179 PWINO,KPTS,2023-06-05T22:55:00Z,37.45,-94.73,25.1,17.9,20,8,,10.0,29.958662,,,TRUE,TRUE,,,,,TRUE,,CLR,,,,,,,,VFR,,,,,,,,,,,,METAR,286.0
KPDC 052255Z AUTO 00000KT 10SM CLR 29/09 A3002 RMK AO2 T02850086,KPDC,2023-06-05T22:55:00Z,43.02,-91.12,28.5,8.6,0,0,,10.0,30.02067,,,TRUE,TRUE,,,,,,,CLR,,,,,,,,VFR,,,,,,,,,,,,METAR,201.0
KPBH 052255Z AUTO 02007G15KT 10SM SCT055 SCT070 27/16 A3005 RMK AO2 T02650164,KPBH,2023-06-05T22:55:00Z,45.7,-90.4,26.5,16.4,20,7,15,10.0,30.050198,,,TRUE,TRUE,,,,,,,SCT,5500,SCT,7000,,,,,VFR,,,,,,,,,,,,SPECI,445.0
KOIC 052255Z AUTO 36006KT 10SM CLR 18/01 A2990 RMK AO2 T01840013,KOIC,2023-06-05T22:55:00Z,42.57,-75.52,18.4,1.3,360,6,,10.0,29.899607,,,TRUE,TRUE,,,,,,,CLR,,,,,,,,VFR,,,,,,,,,,,,SPECI,311.0
KMYJ 052255Z AUTO 05007KT 10SM CLR 26/08 A3001 RMK AO2,KMYJ,2023-06-05T22:55:00Z,39.15,-91.82,26.0,8.0,50,7,,10.0,30.008858,,,TRUE,TRUE,,,,,,,CLR,,,,,,,,VFR,,,,,,,,,,,,SPECI,249.0
KMRJ 052255Z AUTO 03005KT 10SM CLR 29/06 A3006 RMK AO2 PWINO,KMRJ,2023-06-05T22:55:00Z,42.88,-90.23,29.0,6.0,30,5,,10.0,30.059055,,,TRUE,TRUE,,,,,TRUE,,CLR,,,,,,,,VFR,,,,,,,,,,,,SPECI,350.0
KMIB 052255Z 21009KT 10SM BKN070 30/18 A2997 RMK AO2A SLP147 T03040178 $,KMIB,2023-06-05T22:55:00Z,48.42,-101.35,30.4,17.8,210,9,,10.0,29.970472,1014.7,,,TRUE,TRUE,,,,,,BKN,7000,,,,,,,VFR,,,,,,,,,,,,SPECI,505.0
KMFV 052255Z AUTO 27004KT 10SM CLR 20/09 A2988 RMK AO2 T01970085,KMFV,2023-06-05T22:55:00Z,37.63,-75.77,19.7,8.5,270,4,,10.0,29.878937,,,TRUE,TRUE,,,,,,,CLR,,,,,,,,VFR,,,,,,,,,,,,METAR,13.0
KMDZ 052255Z AUTO 00000KT 7SM SCT110 27/16 A3005 RMK AO2 T02650163 PWINO,KMDZ,2023-06-05T22:55:00Z,45.1,-90.3,26.5,16.3,0,0,,7.0,30.050198,,,TRUE,TRUE,,,,,TRUE,,SCT,11000,,,,,,,VFR,,,,,,,,,,,,SPECI,446.0
KMCX 052255Z AUTO 02006KT 10SM CLR 28/05 A2998 RMK AO2 T02790050,KMCX,2023-06-05T22:55:00Z,40.72,-86.77,27.9,5.0,20,6,,10.0,29.97933,,,TRUE,TRUE,,,,,,,CLR,,,,,,,,VFR,,,,,,,,,,,,METAR,205.0
KMCJ 052255Z AUTO VRB04G13KT 10SM SCT120 21/20 A2986 RMK A01 P0001,KMCJ,2023-06-05T22:55:00Z,29.72,-95.4,21.0,20.0,0,4,13,10.0,29.861221,,,TRUE,TRUE,,,,,,,SCT,12000,,,,,,,VFR,,,,,,0.01,,,,,,METAR,70.0
KM25 052255Z AUTO 04006KT 10SM CLR 28/14 A2993 RMK AO2 PWINO,KM25,2023-06-05T22:55:00Z,36.77,-88.58,28.0,14.0,40,6,,10.0,29.929134,,,TRUE,TRUE,,,,,TRUE,,CLR,,,,,,,,VFR,,,,,,,,,,,,METAR,157.0
KLUM 052255Z 00000KT 10SM CLR 30/11 A3003 RMK AO2 T03000106 PWINO,KLUM,2023-06-05T22:55:00Z,44.9,-91.87,30.0,10.6,0,0,,10.0,30.029528,,,,TRUE,,,,,TRUE,,CLR,,,,,,,,VFR,,,,,,,,,,,,SPECI,271.0
KL18 052255Z AUTO 25010G17KT 10SM OVC028 18/11 A2990 RMK AO2,KL18,2023-06-05T22:55:00Z,33.35,-117.25,18.0,11.0,250,10,17,10.0,29.899607,,,TRUE,TRUE,,,,,,,OVC,2800,,,,,,,MVFR,,,,,,,,,,,,METAR,215.0
KJXI 052255Z AUTO 00000KT 10SM CLR 28/16 A2988 RMK AO2 T02830163,KJXI,2023-06-05T22:55:00Z,32.7,-94.95,28.3,16.3,0,0,,10.0,29.878937,,,TRUE,TRUE,,,,,,,CLR,,,,,,,,VFR,,,,,,,,,,,,METAR,130.0
KJSO 052255Z AUTO 06004KT 10SM CLR 28/18 A2989 RMK AO2 T02800181 TSNO,KJSO,2023-06-05T22:55:00Z,31.87,-95.22,28.0,18.1,60,4,,10.0,29.890747,,,TRUE,TRUE,,,TRUE,,,,CLR,,,,,,,,VFR,,,,,,,,,,,,SPECI,204.0
KJRO 052255Z AUTO 02003KT 10SM CLR 22/08 A2998 RMK AO2,KJRO,2023-06-05T22:55:00Z,38.98,-82.58,22.0,8.0,20,3,,10.0,29.97933,,,TRUE,TRUE,,,,,,,CLR,,,,,,,,VFR,,,,,,,,,,,,METAR,224.0
KJFX 052255Z AUTO 30004KT 10SM CLR 24/21 A2991 RMK AO2 LTG DSNT S AND SW,KJFX,2023-06-05T22:55:00Z,33.9,-87.32,24.0,21.0,300,4,,10.0,29.911417,,,TRUE,TRUE,,,,,,,CLR,,,,,,,,VFR,,,,,,,,,,,,METAR,144.0
KJAQ 052255Z AUTO 34003KT 10SM CLR 27/12 A2977 RMK AO1 T02670124,KJAQ,2023-06-05T22:55:00Z,38.37,-120.8,26.7,12.4,340,3,,10.0,29.769686,,,TRUE,TRUE,,,,,,,CLR,,,,,,,,VFR,,,,,,,,,,,,SPECI,518.0
KIUA 052255Z AUTO 29005KT 10SM CLR 21/06 A2991 RMK AO2 T02130055,KIUA,2023-06-05T22:55:00Z,42.92,-77.33,21.3,5.5,290,5,,10.0,29.911417,,,TRUE,TRUE,,,,,,,CLR,,,,,,,,VFR,,,,,,,,,,,,METAR,248.0
KINF 052255Z AUTO 11006KT 5SM HZ SCT050 SCT065 28/18 A2989 RMK AO2,KINF,2023-06-05T22:55:00Z,28.8,-82.32,28.0,18.0,110,6,,5.0,29.890747,,,TRUE,TRUE,,,,,,HZ,SCT,5000,SCT,6500,,,,,MVFR,,,,,,,,,,,,METAR,14.0
KHZE 052255Z AUTO 14007KT 10SM CLR 29/17 A3002 RMK AO2,KHZE,2023-06-05T22:55:00Z,47.28,-101.58,29.0,17.0,140,7,,10.0,30.02067,,,TRUE,TRUE,,,,,,,CLR,,,,,,,,VFR,,,,,,,,,,,,SPECI,542.0
KHFY 052255Z AUTO 05007KT 7SM CLR 27/02 A2998 RMK AO2 T02680024,KHFY,2023-06-05T22:55:00Z,39.63,-86.08,26.8,2.4,50,7,,7.0,29.97933,,,TRUE,TRUE,,,,,,,CLR,,,,,,,,VFR,,,,,,,,,,,,SPECI,250.0
KGRF 052255Z AUTO 01014KT 10SM CLR 22/M01 A3006 RMK AO2 SLP183 T02201007 $,KGRF,2023-06-05T22:55:00Z,47.07,-122.57,22.0,-0.7,10,14,,10.0,30.059055,1018.3,,TRUE,TRUE,TRUE,,,,,,CLR,,,,,,,,VFR,,,,,,,,,,,,METAR,91.0
KGPH 052255Z AUTO 10003KT 10SM CLR 30/12 A2999 RMK AO2,KGPH,2023-06-05T22:55:00Z,39.33,-94.32,30.0,12.0,100,3,,10.0,29.991142,,,TRUE,TRUE,,,,,,,CLR,,,,,,,,VFR,,,,,,,,,,,,METAR,233.0
KGNT 052255Z AUTO 11009KT 10SM SCT120 22/03 A3017 RMK AO2 LTG DSNT NE T02190026,KGNT,2023-06-05T22:55:00Z,35.17,-107.9,21.9,2.6,110,9,,10.0,30.171259,,,TRUE,TRUE,,,,,,,SCT,12000,,,,,,,VFR,,,,,,,,,,,,METAR,1988.0
KGAF 052255Z AUTO 16015G20KT 4SM -DZ FEW048 SCT060 24/19 A3002 RMK AO2,KGAF,2023-06-05T22:55:00Z,48.4,-97.37,24.0,19.0,160,15,20,4.0,30.02067,,,TRUE,TRUE,,,,,,-DZ,FEW,4800,SCT,6000,,,,,MVFR,,,,,,,,,,,,SPECI,250.0
KFRI 052255Z 04009KT 10SM BKN050 BKN120 23/15 A3002 RMK AO2A LTG DSNT SE SLP158 T02260147 $,KFRI,2023-06-05T22:55:00Z,39.05,-96.77,22.6,14.7,40,9,,10.0,30.02067,1015.8,,,TRUE,TRUE,,,,,,BKN,5000,BKN,12000,,,,,VFR,,,,,,,,,,,,METAR,232.0
KFEW 052255Z AUTO 16016G19KT 10SM FEW036 SCT049 BKN080 20/10 A3020 RMK AO2 LTG DSNT S AND W-NW SLP167 T01960103 $,KFEW,2023-06-05T22:55:00Z,41.13,-104.87,19.6,10.3,160,16,19,10.0,30.200787,1016.7,,TRUE,TRUE,TRUE,,,,,,FEW,3600,SCT,4900,BKN,8000,,,VFR,,,,,,,,,,,,METAR,1877.0
KETB 052255Z AUTO 09006KT 10SM SCT095 25/07 A3004 RMK AO2,KETB,2023-06-05T22:55:00Z,43.42,-88.13,25.0,7.0,90,6,,10.0,30.041338,,,TRUE,TRUE,,,,,,,SCT,9500,,,,,,,VFR,,,,,,,,,,,,METAR,269.0
KEFT 052255Z AUTO 07005KT 10SM CLR 29/06 A3003 RMK AO2 T02860058,KEFT,2023-06-05T22:55:00Z,42.62,-89.6,28.6,5.8,70,5,,10.0,30.029528,,,TRUE,TRUE,,,,,,,CLR,,,,,,,,VFR,,,,,,,,,,,,METAR,332.0
KDYA 052255Z AUTO 00000KT 10SM CLR 29/19 A2987 RMK AO2 T02930191,KDYA,2023-06-05T22:55:00Z,32.47,-87.95,29.3,19.1,0,0,,10.0,29.870079,,,TRUE,TRUE,,,,,,,CLR,,,,,,,,VFR,,,,,,,,,,,,METAR,33.0
KDPG 052255Z 22003KT 45SM SCT120 30/02 A2995 RMK SLP098 T02960024,KDPG,2023-06-05T22:55:00Z,40.2,-112.93,29.6,2.4,220,3,,45.0,29.949802,1009.8,,,,,,,,,,SCT,12000,,,,,,,VFR,,,,,,,,,,,,SPECI,1324.0
KDLL 052255Z AUTO 34004KT 10SM CLR 30/09 A3003 RMK AO2 T02990090,KDLL,2023-06-05T22:55:00Z,43.52,-89.77,29.9,9.0,340,4,,10.0,30.029528,,,TRUE,TRUE,,,,,,,CLR,,,,,,,,VFR,,,,,,,,,,,,METAR,297.0
KCPF 052255Z AUTO 00000KT 10SM CLR 25/12 A2995 RMK AO2,KCPF,2023-06-05T22:55:00Z,37.38,-83.27,25.0,12.0,0,0,,10.0,29.949802,,,TRUE,TRUE,,,,,,,CLR,,,,,,,,VFR,,,,,,,,,,,,SPECI,382.0
KCNW 052255Z 35005KT 10SM SCT050 30/17 A2987,KCNW,2023-06-05T22:55:00Z,31.63,-97.07,30.0,17.0,350,5,,10.0,29.870079,,,,,,,,,,,SCT,5000,,,,,,,VFR,,,,,,,,,,,,METAR,139.0
KCMY 052255Z AUTO 00000KT 10SM CLR 29/13 A3000 RMK AO2 SLPNO T02940132 FZRANO $,KCMY,2023-06-05T22:55:00Z,43.97,-90.73,29.4,13.2,0,0,,10.0,30.0,,,TRUE,TRUE,TRUE,,,TRUE,,,CLR,,,,,,,,VFR,,,,,,,,,,,,METAR,253.0
KCKI 052255Z AUTO 00000KT 10SM CLR 25/11 A2992 RMK AO2,KCKI,2023-06-05T22:55:00Z,33.72,-79.85,25.0,11.0,0,0,,10.0,29.920275,,,TRUE,TRUE,,,,,,,CLR,,,,,,,,VFR,,,,,,,,,,,,METAR,19.0
KC62 052255Z AUTO 04005KT 10SM CLR 26/07 A3000 RMK AO2 T02600076,KC62,2023-06-05T22:55:00Z,41.47,-85.25,26.0,7.6,40,5,,10.0,30.0,,,TRUE,TRUE,,,,,,,CLR,,,,,,,,VFR,,,,,,,,,,,,METAR,304.0
KBNL 052255Z AUTO 00000KT 10SM BKN050 27/16 A2992 RMK AO2,KBNL,2023-06-05T22:55:00Z,33.25,-81.38,27.0,16.0,0,0,,10.0,29.920275,,,TRUE,TRUE,,,,,,,BKN,5000,,,,,,,VFR,,,,,,,,,,,,METAR,76.0
KBIF 052255Z 10006KT 10SM SCT060 BKN250 32/05 A2998 RMK SLPNO ALSTG WND DATA ESTMD T03160051 $,KBIF,2023-06-05T22:55:00Z,31.85,-106.38,31.6,5.1,100,6,,10.0,29.97933,,,,,TRUE,,,,,,SCT,6000,BKN,25000,,,,,VFR,,,,,,,,,,,,METAR,1201.0
KBEA 052255Z AUTO 11003KT 10SM SCT038 29/17 A2985 RMK AO2 LTG DSNT N T02880174,KBEA,2023-06-05T22:55:00Z,28.37,-97.78,28.8,17.4,110,3,,10.0,29.84941,,,TRUE,TRUE,,,,,,,SCT,3800,,,,,,,VFR,,,,,,,,,,,,METAR,83.0
KARV 052255Z AUTO 05007KT 020V080 10SM CLR 25/16 A3008 RMK AO2 T02530160,KARV,2023-06-05T22:55:00Z,45.92,-89.72,25.3,16.0,50,7,,10.0,30.079725,,,TRUE,TRUE,,,,,,,CLR,,,,,,,,VFR,,,,,,,,,,,,METAR,494.0
K6L4 052255Z AUTO 01004KT 10SM CLR 22/12 A2997 RMK AO2,K6L4,2023-06-05T22:55:00Z,37.85,-81.92,22.0,12.0,10,4,,10.0,29.970472,,,TRUE,TRUE,,,,,,,CLR,,,,,,,,VFR,,,,,,,,,,,,METAR,504.0
K4R5 052255Z AUTO 02006KT 7SM CLR 13/10 A3014 RMK AO2 T01310100,K4R5,2023-06-05T22:55:00Z,46.78,-90.77,13.1,10.0,20,6,,7.0,30.138779,,,TRUE,TRUE,,,,,,,CLR,,,,,,,,VFR,,,,,,,,,,,,METAR,195.0
K3R7 052255Z AUTO 18005KT 10SM -RA SCT043 BKN049 OVC075 21/21 A2989 RMK AO2 LTG DSNT NW P0003 T02110211,K3R7,2023-06-05T22:55:00Z,30.25,-92.67,21.1,21.1,180,5,,10.0,29.890747,,,TRUE,TRUE,,,,,,-RA,SCT,4300,BKN,4900,OVC,7500,,,VFR,,,,,,0.03,,,,,,METAR,5.0
K2C8 052255Z AUTO 14005KT 9SM FEW055 FEW070 BKN085 30/22 A3000 RMK AO2 LTG DSNT N AND S,K2C8,2023-06-05T22:55:00Z,48.78,-97.63,30.0,22.0,140,5,,9.0,30.0,,,TRUE,TRUE,,,,,,,FEW,5500,FEW,7000,BKN,8500,,,VFR,,,,,,,,,,,,METAR,271.0
K27K 052255Z AUTO 01007KT 10SM CLR 25/11 A2996 RMK AO1,K27K,2023-06-05T22:55:00Z,38.23,-84.43,25.0,11.0,10,7,,10.0,29.958662,,,TRUE,TRUE,,,,,,,CLR,,,,,,,,VFR,,,,,,,,,,,,SPECI,283.0
K1S5 052255Z AUTO 27005KT 10SM CLR 31/02 A2990 RMK AO2 T03100017,K1S5,2023-06-05T22:55:00Z,46.33,-119.97,31.0,1.7,270,5,,10.0,29.899607,,,TRUE,TRUE,,,,,,,CLR,,,,,,,,VFR,,,,,,,,,,,,METAR,228.0
K08D 052255Z AUTO 18005KT 10SM SCT060 SCT070 SCT110 29/18 A3002 RMK AO2,K08D,2023-06-05T22:55:00Z,48.3,-102.4,29.0,18.0,180,5,,10.0,30.02067,,,TRUE,TRUE,,,,,,,SCT,6000,SCT,7000,SCT,11000,,,VFR,,,,,,,,,,,,SPECI,683.0
ETIC 052255Z AUTO 32003KT 9999 CLR 10/09 A3004 RMK AO2 SLP174 T01020086 $,ETIC,2023-06-05T22:55:00Z,49.7,11.93,10.2,8.6,320,3,,6.21,30.041338,1017.4,,TRUE,TRUE,TRUE,,,,,,CLR,,,,,,,,VFR,,,,,,,,,,,,METAR,414.0
PAPB 052253Z AUTO 10011KT 10SM OVC032 10/04 A2955 RMK AO2 SLP994 T01000044 TSNO $,PAPB,2023-06-05T22:53:00Z,56.58,-169.67,10.0,4.4,100,11,,10.0,29.551182,999.4,,TRUE,TRUE,TRUE,,TRUE,,,,OVC,3200,,,,,,,VFR,,,,,,,,,,,,METAR,33.0
KBPK 052253Z AUTO 01003KT 10SM CLR 28/19 A2992 RMK AO2 SLP124 T02830189,KBPK,2023-06-05T22:53:00Z,36.37,-92.47,28.3,18.9,10,3,,10.0,29.920275,1012.4,,TRUE,TRUE,,,,,,,CLR,,,,,,,,VFR,,,,,,,,,,,,METAR,279.0
PASY 052251Z 21018KT 6SM BR OVC007 05/04 A2919 RMK AO2A RAE51 SLP888 RVRNO PNO FZRANO $,PASY,2023-06-05T22:51:00Z,52.72,174.12,5.0,4.0,210,18,,6.0,29.190945,988.8,,,TRUE,TRUE,,,TRUE,,BR,OVC,700,,,,,,,IFR,,,,,,,,,,,,METAR,6.0
KLWB 052251Z 35005KT 7SM HZ CLR 21/10 A2998,KLWB,2023-06-05T22:51:00Z,37.87,-80.4,21.0,10.0,350,5,,7.0,29.97933,,,,,,,,,,HZ,CLR,,,,,,,,VFR,,,,,,,,,,,,METAR,702.0
MUCL 052250Z 24004KT 200V310 9000 SCT020 30/22 Q1011,MUCL,2023-06-05T22:50:00Z,21.63,-81.55,30.0,22.0,240,4,,5.59,29.852362,,,,,,,,,,,SCT,2000,,,,,,,VFR,,,,,,,,,,,,METAR,5.0
MSSS 052250Z 03003KT CAVOK 28/20 Q1013 A2991,MSSS,2023-06-05T22:50:00Z,13.7,-89.12,28.0,20.0,30,3,,6.21,29.911417,,,,,,,,,,,CAVOK,,,,,,,,VFR,,,,,,,,,,,,METAR,611.0
MSSM 052250Z 03006KT CAVOK 33/22 Q1006 A2973,MSSM,2023-06-05T22:50:00Z,13.43,-88.12,33.0,22.0,30,6,,6.21,29.704725,,,,,,,,,,,CAVOK,,,,,,,,VFR,,,,,,,,,,,,METAR,92.0
MSSA 052250Z 11002KT CAVOK 31/19 Q1015 A2998,MSSA,2023-06-05T22:50:00Z,13.97,-89.53,31.0,19.0,110,2,,6.21,29.970472,,,,,,,,,,,CAVOK,,,,,,,,VFR,,,,,,,,,,,,METAR,656.0
LIBG 052250Z 10003KT CAVOK 20/19 Q1015,LIBG,2023-06-05T22:50:00Z,40.52,17.4,20.0,19.0,100,3,,6.21,29.970472,,,,,,,,,,,CAVOK,,,,,,,,VFR,,,,,,,,,,,,METAR,64.0
KOMN 052250Z 02008KT 10SM FEW025 24/20 A2992 RMK LAST,KOMN,2023-06-05T22:50:00Z,29.3,-81.12,24.0,20.0,20,8,,10.0,29.920275,,,,,,,,,,,FEW,2500,,,,,,,VFR,,,,,,,,,,,,METAR,7.0
KGYI 052250Z 33007KT 10SM CLR 28/20 A2993,KGYI,2023-06-05T22:50:00Z,33.72,-96.67,28.0,20.0,330,7,,10.0,29.929134,,,,,,,,,,,CLR,,,,,,,,VFR,,,,,,,,,,,,METAR,227.0
KFIN 052250Z 03008KT 10SM CLR 24/18 A2993,KFIN,2023-06-05T22:50:00Z,29.47,-81.2,24.0,18.0,30,8,,10.0,29.929134,,,,,,,,,,,CLR,,,,,,,,VFR,,,,,,,,,,,,METAR,10.0
ETNG 052250Z 36002KT CAVOK 15/10 Q1019,ETNG,2023-06-05T22:50:00Z,50.97,6.03,15.0,10.0,360,2,,6.21,30.088583,,,,,,,,,,,CAVOK,,,,,,,,VFR,,,,,,,,,,,,METAR,76.0
