raw_text,station_id,observation_time,latitude,longitude,temp_c,dewpoint_c,wind_dir_degrees,wind_speed_kt,wind_gust_kt,visibility_statute_mi,altim_in_hg,sea_level_pressure_mb,corrected,auto,auto_station,maintenance_indicator_on,no_signal,lightning_sensor_off,freezing_rain_sensor_off,present_weather_sensor_off,wx_string,sky_cover,cloud_base_ft_agl,sky_cover,cloud_base_ft_agl,sky_cover,cloud_base_ft_agl,sky_cover,cloud_base_ft_agl,flight_category,three_hr_pressure_tendency_mb,maxT_c,minT_c,maxT24hr_c,minT24hr_c,precip_in,pcp3hr_in,pcp6hr_in,pcp24hr_in,snow_in,vert_vis_ft,metar_type,elevation_m
PFNO 300404Z AUTO 02005KT 10SM SCT028 OVC041 07/02 A2956 RMK AO2 $,PFNO,2023-05-30T04:04:00Z,66.82,-161.02,7.0,2.0,20,5,,10.0,29.56004,,,TRUE,TRUE,TRUE,,,,,,SCT,2800,OVC,4100,,,,,VFR,,,,,,,,,,,,SPECI,14.0
KFGN 300404Z AUTO 19009KT 10SM -RA OVC090 16/13 A2977 RMK AO2,KFGN,2023-05-30T04:04:00Z,49.32,-94.9,16.0,13.0,190,9,,10.0,29.769686,,,TRUE,TRUE,,,,,,-RA,OVC,9000,,,,,,,VFR,,,,,,,,,,,,METAR,327.0
CYKL 300404Z AUTO 24003KT 200V300 9SM BKN050 BKN096 10/M00 A2998 RMK SLP170,CYKL,2023-05-30T04:04:00Z,54.8,-66.8,10.0,0.0,240,3,,9.0,29.97933,1017.0,,TRUE,,,,,,,,BKN,5000,BKN,9600,,,,,VFR,,,,,,,,,,,,SPECI,507.0
PAPH 300403Z AUTO 27015G18KT 4SM BR OVC003 04/03 A2996 RMK AO2,PAPH,2023-05-30T04:03:00Z,56.95,-158.62,4.0,3.0,270,15,18,4.0,29.958662,,,TRUE,TRUE,,,,,,BR,OVC,300,,,,,,,LIFR,,,,,,,,,,,,SPECI,29.0
PAEH 300403Z AUTO 32019KT 150V010 3/4SM -SHRA BR OVC002 02/ A2985 RMK AO2 SLP117,PAEH,2023-05-30T04:03:00Z,58.65,-162.07,2.0,,320,19,,0.75,29.84941,1011.7,,TRUE,TRUE,,,,,,-SHRA BR,OVC,200,,,,,,,LIFR,,,,,,,,,,,,SPECI,101.0
KIML 300403Z AUTO 12013G18KT 10SM VCTS FEW048 FEW100 SCT110 18/11 A2994 RMK AO2 LTG DSNT ALQDS RAE03 TSE0357 P0000 T01780106,KIML,2023-05-30T04:03:00Z,40.52,-101.62,17.8,10.6,120,13,18,10.0,29.940945,,,TRUE,TRUE,,,,,,VCTS,FEW,4800,FEW,10000,SCT,11000,,,VFR,,,,,,0.005,,,,,,SPECI,997.0
PAHX 300402Z AUTO 22015KT 10SM OVC032 08/03 A2969 RMK AO2 SLP053 T00780028,PAHX,2023-05-30T04:02:00Z,62.7,-159.57,7.8,2.8,220,15,,10.0,29.68996,1005.3,,TRUE,TRUE,,,,,,,OVC,3200,,,,,,,VFR,,,,,,,,,,,,METAR,20.0
KMCK 300402Z AUTO 32013G22KT 5SM VCTS RA SCT065 BKN080 OVC090 18/12 A3001 RMK AO2 LTG DSNT ALQDS TSE0356 P0001 T01780122 $,KMCK,2023-05-30T04:02:00Z,40.2,-100.58,17.8,12.2,320,13,22,5.0,30.008858,,,TRUE,TRUE,TRUE,,,,,VCTS RA,SCT,6500,BKN,8000,OVC,9000,,,MVFR,,,,,,0.01,,,,,,SPECI,780.0
KHLR 300402Z AUTO 12005KT 7SM -RA FEW190 23/19 A2995 RMK AO2 RAB02 SLP133,KHLR,2023-05-30T04:02:00Z,31.13,-97.72,23.0,19.0,120,5,,7.0,29.949802,1013.3,,TRUE,TRUE,,,,,,-RA,FEW,19000,,,,,,,VFR,,,,,,,,,,,,SPECI,271.0
KEVM 300402Z AUTO 09003KT 2 1/2SM HZ CLR 16/07 A2991 RMK AO2,KEVM,2023-05-30T04:02:00Z,47.42,-92.5,16.0,7.0,90,3,,2.5,29.911417,,,TRUE,TRUE,,,,,,HZ,CLR,,,,,,,,IFR,,,,,,,,,,,,METAR,419.0
KEST 300402Z AUTO 13013KT 10SM VCTS FEW070 BKN120 20/15 A2988 RMK AO2 LTG DSNT E AND NW T02000150,KEST,2023-05-30T04:02:00Z,43.4,-94.75,20.0,15.0,130,13,,10.0,29.878937,,,TRUE,TRUE,,,,,,VCTS,FEW,7000,BKN,12000,,,,,VFR,,,,,,,,,,,,SPECI,401.0
PAFS 300401Z AUTO 24010G19KT 10SM SCT024 BKN044 OVC065 10/06 A2966 RMK AO2 RAE0309 P0000,PAFS,2023-05-30T04:01:00Z,63.02,-154.35,10.0,6.0,240,10,19,10.0,29.660433,,,TRUE,TRUE,,,,,,,SCT,2400,BKN,4400,OVC,6500,,,VFR,,,,,,0.005,,,,,,METAR,131.0
ZMUB 300400Z 24006MPS 8000 SHRA SCT027CB SCT030 12/09 Q1014 NOSIG RMK QFE653.3 81 NW MO,ZMUB,2023-05-30T04:00:00Z,47.83,106.75,12.0,9.0,240,12,,4.97,29.940945,,,,,,TRUE,,,,SHRA,SCT,2700,SCT,3000,,,,,MVFR,,,,,,,,,,,,METAR,1300.0
ZMCK 300400Z 21005MPS 9999 SCT030CB SCT033 14/07 Q1014 NOSIG RMK QFE645.2 61 MOP,ZMCK,2023-05-30T04:00:00Z,47.65,106.82,14.0,7.0,210,10,,6.21,29.940945,,,,,,TRUE,,,,,SCT,3000,SCT,3300,,,,,VFR,,,,,,,,,,,,METAR,1366.0
YSTW 300400Z AUTO 29008KT 230V310 9999 // NCD 19/06 Q1024 RF00.0/000.0,YSTW,2023-05-30T04:00:00Z,-31.08,150.85,19.0,6.0,290,8,,6.21,30.236221,,,TRUE,,,,,,,,CLR,,,,,,,,VFR,,,,,,,,,,,,METAR,404.0
YSSY 300400Z 27010KT CAVOK 22/07 Q1020,YSSY,2023-05-30T04:00:00Z,-33.95,151.17,22.0,7.0,270,10,,6.21,30.11811,,,,,,,,,,,CAVOK,,,,,,,,VFR,,,,,,,,,,,,METAR,3.0
YSRI 300400Z AUTO 02003KT 9999 // NCD 21/09 Q1020 RF00.0/000.0,YSRI,2023-05-30T04:00:00Z,-33.6,150.77,21.0,9.0,20,3,,6.21,30.11811,,,TRUE,,,,,,,,CLR,,,,,,,,VFR,,,,,,,,,,,,METAR,19.0
YSNF 300400Z AUTO 19009KT 9999 // SCT025 19/13 Q1019 RF00.0/000.0,YSNF,2023-05-30T04:00:00Z,-29.03,167.93,19.0,13.0,190,9,,6.21,30.088583,,,TRUE,,,,,,,,SCT,2500,,,,,,,VFR,,,,,,,,,,,,METAR,113.0
YSDU 300400Z AUTO 22007KT 180V270 9999 // SCT043 19/08 Q1024,YSDU,2023-05-30T04:00:00Z,-32.22,148.57,19.0,8.0,220,7,,6.21,30.236221,,,TRUE,,,,,,,,SCT,4300,,,,,,,VFR,,,,,,,,,,,,METAR,285.0
YSCB 300400Z AUTO 33018KT 9999 // NCD 13/08 Q1021 RF00.0/000.0,YSCB,2023-05-30T04:00:00Z,-35.3,149.18,13.0,8.0,330,18,,6.21,30.147638,,,TRUE,,,,,,,,CLR,,,,,,,,VFR,,,,,,,,,,,,METAR,577.0
YPXM 300400Z AUTO 10011KT 9999 // BKN014 OVC019 27/23 Q1014,YPXM,2023-05-30T04:00:00Z,-10.45,105.68,27.0,23.0,100,11,,6.21,29.940945,,,TRUE,,,,,,,,BKN,1400,OVC,1900,,,,,MVFR,,,,,,,,,,,,METAR,262.0
YPWR 300400Z AUTO 28007KT 250V310 9999 // NCD 22/11 Q1024 RF00.0/000.0,YPWR,2023-05-30T04:00:00Z,-31.15,136.82,22.0,11.0,280,7,,6.21,30.236221,,,TRUE,,,,,,,,CLR,,,,,,,,VFR,,,,,,,,,,,,METAR,169.0
YPTN 300400Z AUTO 11011KT 9999 // NCD 27/04 Q1016 RF00.0/000.0,YPTN,2023-05-30T04:00:00Z,-14.52,132.38,27.0,4.0,110,11,,6.21,30.0,,,TRUE,,,,,,,,CLR,,,,,,,,VFR,,,,,,,,,,,,METAR,135.0
YPPH 300400Z 30013KT 9999 FEW030 BKN140 24/15 Q1017 RF00.0/000.0,YPPH,2023-05-30T04:00:00Z,-31.93,115.98,24.0,15.0,300,13,,6.21,30.029528,,,,,,,,,,,FEW,3000,BKN,14000,,,,,VFR,,,,,,,,,,,,METAR,16.0
YPPD 300400Z AUTO 06017KT 9999 // NCD 28/00 Q1018 RF00.0/000.0,YPPD,2023-05-30T04:00:00Z,-20.37,118.62,28.0,0.0,60,17,,6.21,30.059055,,,TRUE,,,,,,,,CLR,,,,,,,,VFR,,,,,,,,,,,,METAR,6.0
YPLM 300400Z AUTO 11008KT 9999 // NCD 24/08 Q1019 RF00.0/000.0,YPLM,2023-05-30T04:00:00Z,-22.23,114.08,24.0,8.0,110,8,,6.21,30.088583,,,TRUE,,,,,,,,CLR,,,,,,,,VFR,,,,,,,,,,,,METAR,5.0
YPKU 300400Z AUTO 13008KT 9999 // ////// 26/03 Q1017 RF00.0////./,YPKU,2023-05-30T04:00:00Z,-15.77,128.7,26.0,3.0,130,8,,6.21,30.029528,,,TRUE,,,,,,,,,,,,,,,,,,,,,,,,,,,,METAR,42.0
YPKG 300400Z AUTO 29012KT 9999 // NCD 25/M04 Q1020 RF00.0/000.0,YPKG,2023-05-30T04:00:00Z,-30.78,121.45,25.0,-4.0,290,12,,6.21,30.11811,,,TRUE,,,,,,,,CLR,,,,,,,,VFR,,,,,,,,,,,,METAR,372.0
YPJT 300400Z AUTO 34010KT 9999 // BKN029 23/16 Q1017 RF00.0/000.0,YPJT,2023-05-30T04:00:00Z,-32.1,115.88,23.0,16.0,340,10,,6.21,30.029528,,,TRUE,,,,,,,,BKN,2900,,,,,,,MVFR,,,,,,,,,,,,METAR,29.0
YPGV 300400Z AUTO 14018KT 9999 // SCT030 BKN035 BKN042 28/19 Q1014,YPGV,2023-05-30T04:00:00Z,-12.27,136.82,28.0,19.0,140,18,,6.21,29.940945,,,TRUE,,,,,,,,SCT,3000,BKN,3500,BKN,4200,,,VFR,,,,,,,,,,,,METAR,53.0
YPEA 300400Z 31013KT 9999 FEW030 23/14 Q1018,YPEA,2023-05-30T04:00:00Z,-31.67,116.02,23.0,14.0,310,13,,6.21,30.059055,,,,,,,,,,,FEW,3000,,,,,,,VFR,,,,,,,,,,,,METAR,38.0
YPDN 300400Z 08011KT 050V110 CAVOK 29/10 Q1014 RF00.0/000.0,YPDN,2023-05-30T04:00:00Z,-12.42,130.9,29.0,10.0,80,11,,6.21,29.940945,,,,,,,,,,,CAVOK,,,,,,,,VFR,,,,,,,,,,,,METAR,32.0
YPCC 300400Z AUTO 13012KT 9999 // NCD 29/23 Q1013 RF00.2/000.2,YPCC,2023-05-30T04:00:00Z,-12.18,96.83,29.0,23.0,130,12,,6.21,29.911417,,,TRUE,,,,,,,,CLR,,,,,,,,VFR,,,,,,,,,,,,METAR,3.0
YPAD 300400Z 35010KT 9999 FEW006 SCT015 BKN020 16/15 Q1023 RF00.0/000.2,YPAD,2023-05-30T04:00:00Z,-34.95,138.52,16.0,15.0,350,10,,6.21,30.206694,,,,,,,,,,,FEW,600,SCT,1500,BKN,2000,,,MVFR,,,,,,,,,,,,METAR,2.0
YMML 300400Z 35009KT 9999 FEW030 SCT245 18/11 Q1019 RF00.0/000.0,YMML,2023-05-30T04:00:00Z,-37.67,144.82,18.0,11.0,350,9,,6.21,30.088583,,,,,,,,,,,FEW,3000,SCT,24500,,,,,VFR,,,,,,,,,,,,METAR,115.0
YMLT 300400Z AUTO 35018KT 9999 // SCT019 BKN026 BKN033 15/10 Q1009,YMLT,2023-05-30T04:00:00Z,-41.53,147.2,15.0,10.0,350,18,,6.21,29.793306,,,TRUE,,,,,,,,SCT,1900,BKN,2600,BKN,3300,,,MVFR,,,,,,,,,,,,METAR,167.0
YMAV 300400Z AUTO 33014KT 9999 // OVC033 OVC042 17/11 Q1018,YMAV,2023-05-30T04:00:00Z,-38.03,144.48,17.0,11.0,330,14,,6.21,30.059055,,,TRUE,,,,,,,,OVC,3300,OVC,4200,,,,,VFR,,,,,,,,,,,,METAR,11.0
YHID 300400Z AUTO 13015KT 9999 // SCT033 30/23 Q1012 RF00.0/000.0,YHID,2023-05-30T04:00:00Z,-10.58,142.3,30.0,23.0,130,15,,6.21,29.88189,,,TRUE,,,,,,,,SCT,3300,,,,,,,VFR,,,,,,,,,,,,METAR,5.0
YGLA 300400Z AUTO 08007KT 9999 // NCD 23/05 Q1022 RF00.0/000.0,YGLA,2023-05-30T04:00:00Z,-23.87,151.22,23.0,5.0,80,7,,6.21,30.177166,,,TRUE,,,,,,,,CLR,,,,,,,,VFR,,,,,,,,,,,,METAR,17.0
YGEL 300400Z AUTO 31013KT 9999 // NCD 26/14 Q1018 RF00.0/000.0,YGEL,2023-05-30T04:00:00Z,-28.8,114.7,26.0,14.0,310,13,,6.21,30.059055,,,TRUE,,,,,,,,CLR,,,,,,,,VFR,,,,,,,,,,,,METAR,32.0
YFRT 300400Z AUTO 33014KT 9999 // NCD 23/01 Q1022 RF00.0/000.0,YFRT,2023-05-30T04:00:00Z,-30.83,128.12,23.0,1.0,330,14,,6.21,30.177166,,,TRUE,,,,,,,,CLR,,,,,,,,VFR,,,,,,,,,,,,METAR,159.0
YCIN 300400Z AUTO 05009KT 030V100 9999 // NCD 27/01 Q1016 RF00.0/000.0,YCIN,2023-05-30T04:00:00Z,-17.58,123.83,27.0,1.0,50,9,,6.21,30.0,,,TRUE,,,,,,,,CLR,,,,,,,,VFR,,,,,,,,,,,,METAR,83.0
YCFS 300400Z AUTO 07007KT 9999 // NCD 21/08 Q1022 RF00.0/000.0,YCFS,2023-05-30T04:00:00Z,-30.32,153.12,21.0,8.0,70,7,,6.21,30.177166,,,TRUE,,,,,,,,CLR,,,,,,,,VFR,,,,,,,,,,,,METAR,2.0
YBWW 300400Z AUTO 25004KT 180V320 9999 // NCD 20/04 Q1022 RF00.0/000.0,YBWW,2023-05-30T04:00:00Z,-27.55,151.8,20.0,4.0,250,4,,6.21,30.177166,,,TRUE,,,,,,,,CLR,,,,,,,,VFR,,,,,,,,,,,,METAR,460.0
YBTL 300400Z 11008KT CAVOK 26/03 Q1019,YBTL,2023-05-30T04:00:00Z,-19.25,146.75,26.0,3.0,110,8,,6.21,30.088583,,,,,,,,,,,CAVOK,,,,,,,,VFR,,,,,,,,,,,,METAR,4.0
YBSU 300400Z AUTO 09008KT 9999 // NCD 21/10 Q1022 RF00.0/000.0,YBSU,2023-05-30T04:00:00Z,-26.6,153.08,21.0,10.0,90,8,,6.21,30.177166,,,TRUE,,,,,,,,CLR,,,,,,,,VFR,,,,,,,,,,,,METAR,4.0
YBRM 300400Z AUTO 06010KT 9999 // NCD 27/05 Q1016 RF00.0/000.0,YBRM,2023-05-30T04:00:00Z,-17.93,122.23,27.0,5.0,60,10,,6.21,30.0,,,TRUE,,,,,,,,CLR,,,,,,,,VFR,,,,,,,,,,,,METAR,11.0
YBRK 300400Z AUTO 13007KT 9999 // NCD 23/02 Q1021 RF00.0/000.0,YBRK,2023-05-30T04:00:00Z,-23.37,150.47,23.0,2.0,130,7,,6.21,30.147638,,,TRUE,,,,,,,,CLR,,,,,,,,VFR,,,,,,,,,,,,METAR,10.0
YBMA 300400Z AUTO 12011KT 9999 // NCD 24/M02 Q1020 RF00.0/000.0,YBMA,2023-05-30T04:00:00Z,-20.67,139.48,24.0,-2.0,120,11,,6.21,30.11811,,,TRUE,,,,,,,,CLR,,,,,,,,VFR,,,,,,,,,,,,METAR,346.0
YBLN 300400Z AUTO 31014KT 9999 // SCT021 SCT031 BKN042 22/17 Q1016,YBLN,2023-05-30T04:00:00Z,-33.68,115.4,22.0,17.0,310,14,,6.21,30.0,,,TRUE,,,,,,,,SCT,2100,SCT,3100,BKN,4200,,,VFR,,,,,,,,,,,,METAR,17.0
YBHM 300400Z AUTO 14025KT 9999 // NCD 21/15 Q1020 RF00.0/000.0,YBHM,2023-05-30T04:00:00Z,-20.35,148.95,21.0,15.0,140,25,,6.21,30.11811,,,TRUE,,,,,,,,CLR,,,,,,,,VFR,,,,,,,,,,,,METAR,4.0
YBCS 300400Z AUTO 13017KT 9999 // NCD 26/12 Q1017 RF00.0/000.0,YBCS,2023-05-30T04:00:00Z,-16.87,145.75,26.0,12.0,130,17,,6.21,30.029528,,,TRUE,,,,,,,,CLR,,,,,,,,VFR,,,,,,,,,,,,METAR,2.0
YBCG 300400Z AUTO 01008KT 9999 // NCD 21/07 Q1022 RF00.0/000.0,YBCG,2023-05-30T04:00:00Z,-28.17,153.5,21.0,7.0,10,8,,6.21,30.177166,,,TRUE,,,,,,,,CLR,,,,,,,,VFR,,,,,,,,,,,,METAR,5.0
YBBN 300400Z 03009KT CAVOK 21/06 Q1022 TO W,YBBN,2023-05-30T04:00:00Z,-27.38,153.13,21.0,6.0,30,9,,6.21,30.177166,,,,,,,,,,,CAVOK,,,,,,,,VFR,,,,,,,,,,,,METAR,3.0
YBAS 300400Z AUTO /////KT 9999 // NCD 20/04 Q1023 RF00.0/000.0,YBAS,2023-05-30T04:00:00Z,-23.8,133.9,20.0,4.0,,,,6.21,30.206694,,,TRUE,,,,,,,,CLR,,,,,,,,VFR,,,,,,,,,,,,METAR,549.0
YAMB 300400Z 36004KT 300V070 CAVOK 23/05 Q1021 RF00.0/000.0 SMOKE LAYER NNE-E,YAMB,2023-05-30T04:00:00Z,-27.63,152.72,23.0,5.0,360,4,,6.21,30.147638,,,,,,,,,,,CAVOK,,,,,,,,VFR,,,,,,,,,,,,METAR,26.0
WSSS 300400Z 17010KT 9999 FEW018TCU SCT350 32/25 Q1010 NOSIG,WSSS,2023-05-30T04:00:00Z,1.37,103.97,32.0,25.0,170,10,,6.21,29.822834,,,,,,TRUE,,,,,FEW,1800,SCT,35000,,,,,VFR,,,,,,,,,,,,METAR,17.0
WSSL 300400Z 19005KT 140V260 9999 FEW016TCU SCT018 33/25 Q1010,WSSL,2023-05-30T04:00:00Z,1.42,103.87,33.0,25.0,190,5,,6.21,29.822834,,,,,,,,,,,FEW,1600,SCT,1800,,,,,VFR,,,,,,,,,,,,METAR,11.0
WSAP 300400Z 15011KT 9999 SCT020 FEW020TCU BKN300 33/24 Q1010,WSAP,2023-05-30T04:00:00Z,1.37,103.92,33.0,24.0,150,11,,6.21,29.822834,,,,,,,,,,,SCT,2000,FEW,2000,BKN,30000,,,VFR,,,,,,,,,,,,METAR,20.0
WIII 300400Z 02005KT 3200 -RA HZ SCT020 30/25 Q1011 NOSIG,WIII,2023-05-30T04:00:00Z,-6.13,106.67,30.0,25.0,20,5,,1.99,29.852362,,,,,,TRUE,,,,-RA HZ,SCT,2000,,,,,,,IFR,,,,,,,,,,,,METAR,9.0
WARR 300400Z 10011KT 9999 FEW020 30/24 Q1011 NOSIG ,WARR,2023-05-30T04:00:00Z,-7.37,112.78,30.0,24.0,100,11,,6.21,29.852362,,,,,,TRUE,,,,,FEW,2000,,,,,,,VFR,,,,,,,,,,,,METAR,3.0
WAMM 300400Z 17011KT 140V210 9999 FEW019 34/24 Q1009 NOSIG,WAMM,2023-05-30T04:00:00Z,1.55,124.92,34.0,24.0,170,11,,6.21,29.793306,,,,,,TRUE,,,,,FEW,1900,,,,,,,VFR,,,,,,,,,,,,METAR,86.0
WAJJ 300400Z 14005KT 9999 FEW013 35/22 Q1006 NOSIG,WAJJ,2023-05-30T04:00:00Z,-2.58,140.52,35.0,22.0,140,5,,6.21,29.704725,,,,,,TRUE,,,,,FEW,1300,,,,,,,VFR,,,,,,,,,,,,METAR,93.0
WADL 300400Z 08005KT 020V120 9999 FEW016 31/20 Q1012 NOSIG,WADL,2023-05-30T04:00:00Z,-8.75,116.28,31.0,20.0,80,5,,6.21,29.88189,,,,,,TRUE,,,,,FEW,1600,,,,,,,VFR,,,,,,,,,,,,METAR,97.0
VYYY 300400Z 33004KT 6000 BKN015 FEW020CB BKN100 29/25 Q1009,VYYY,2023-05-30T04:00:00Z,16.9,96.13,29.0,25.0,330,4,,3.73,29.793306,,,,,,,,,,,BKN,1500,FEW,2000,BKN,10000,,,MVFR,,,,,,,,,,,,METAR,31.0
VYNT 300400Z 23004KT 7000 FEW025 30/24 Q1008 NOSIG,VYNT,2023-05-30T04:00:00Z,19.62,96.2,30.0,24.0,230,4,,4.35,29.763779,,,,,,TRUE,,,,,FEW,2500,,,,,,,MVFR,,,,,,,,,,,,METAR,610.0
VVVD 300400Z 04003KT 330V120 CAVOK 34/25 Q1007 NOSIG,VVVD,2023-05-30T04:00:00Z,21.12,107.42,34.0,25.0,40,3,,6.21,29.734253,,,,,,TRUE,,,,,CAVOK,,,,,,,,VFR,,,,,,,,,,,,METAR,8.0
VVTS 300400Z 25012KT 220V290 9999 BKN020 33/27 Q1009 NOSIG,VVTS,2023-05-30T04:00:00Z,10.82,106.67,33.0,27.0,250,12,,6.21,29.793306,,,,,,TRUE,,,,,BKN,2000,,,,,,,MVFR,,,,,,,,,,,,METAR,10.0
VVPQ 300400Z VRB02KT 9999 SCT015 SCT040 28/25 Q1009 NOSIG,VVPQ,2023-05-30T04:00:00Z,10.23,103.97,28.0,25.0,0,2,,6.21,29.793306,,,,,,TRUE,,,,,SCT,1500,SCT,4000,,,,,VFR,,,,,,,,,,,,METAR,8.0
VVPB 300400Z 01007KT 9999 SCT015 33/26 Q1008 NOSIG,VVPB,2023-05-30T04:00:00Z,16.38,107.7,33.0,26.0,10,7,,6.21,29.763779,,,,,,TRUE,,,,,SCT,1500,,,,,,,VFR,,,,,,,,,,,,METAR,15.0
VVNB 300400Z VRB03KT CAVOK 34/25 Q1007 NOSIG,VVNB,2023-05-30T04:00:00Z,21.22,105.8,34.0,25.0,0,3,,6.21,29.734253,,,,,,TRUE,,,,,CAVOK,,,,,,,,VFR,,,,,,,,,,,,METAR,6.0
VVDN 300400Z 11004KT 050V160 9999 FEW015 34/24 Q1007 NOSIG,VVDN,2023-05-30T04:00:00Z,16.03,108.2,34.0,24.0,110,4,,6.21,29.734253,,,,,,TRUE,,,,,FEW,1500,,,,,,,VFR,,,,,,,,,,,,METAR,7.0
VVCT 300400Z 24008KT 200V270 9999 SCT015 FEW017CB 29/25 Q1009 NOSIG,VVCT,2023-05-30T04:00:00Z,10.08,105.72,29.0,25.0,240,8,,6.21,29.793306,,,,,,TRUE,,,,,SCT,1500,FEW,1700,,,,,VFR,,,,,,,,,,,,METAR,6.0
VVCR 300400Z 10010KT 9999 FEW015 33/23 Q1007 NOSIG,VVCR,2023-05-30T04:00:00Z,12.0,109.22,33.0,23.0,100,10,,6.21,29.734253,,,,,,TRUE,,,,,FEW,1500,,,,,,,VFR,,,,,,,,,,,,METAR,12.0
VVCI 300400Z 22005KT 180V280 9999 FEW020 34/25 Q1007 NOSIG,VVCI,2023-05-30T04:00:00Z,20.82,106.73,34.0,25.0,220,5,,6.21,29.734253,,,,,,TRUE,,,,,FEW,2000,,,,,,,VFR,,,,,,,,,,,,METAR,6.0
VTUW 300400Z VRB02KT 9999 BKN035 33/25 Q1008 NOSIG,VTUW,2023-05-30T04:00:00Z,17.38,104.63,33.0,25.0,0,2,,6.21,29.763779,,,,,,TRUE,,,,,BKN,3500,,,,,,,VFR,,,,,,,,,,,,METAR,167.0
VTUV 300400Z VRB02KT 9999 BKN030 32/25 Q1008 NOSIG,VTUV,2023-05-30T04:00:00Z,16.12,103.78,32.0,25.0,0,2,,6.21,29.763779,,,,,,TRUE,,,,,BKN,3000,,,,,,,MVFR,,,,,,,,,,,,METAR,136.0
VTUU 300400Z VRB03KT 9999 FEW040 32/26 Q1008 NOSIG,VTUU,2023-05-30T04:00:00Z,15.25,104.87,32.0,26.0,0,3,,6.21,29.763779,,,,,,TRUE,,,,,FEW,4000,,,,,,,VFR,,,,,,,,,,,,METAR,119.0
VTUQ 300400Z 26004KT 210V310 9999 SCT030 32/24 Q1008 NOSIG,VTUQ,2023-05-30T04:00:00Z,14.95,102.32,32.0,24.0,260,4,,6.21,29.763779,,,,,,TRUE,,,,,SCT,3000,,,,,,,VFR,,,,,,,,,,,,METAR,225.0
VTUO 300400Z VRB02KT 9000 BKN025 32/27 Q1008 NOSIG,VTUO,2023-05-30T04:00:00Z,15.23,103.25,32.0,27.0,0,2,,5.59,29.763779,,,,,,TRUE,,,,,BKN,2500,,,,,,,MVFR,,,,,,,,,,,,METAR,182.0
VTUL 300400Z VRB01KT 9999 BKN030 BKN070 32/25 Q1009 NOSIG,VTUL,2023-05-30T04:00:00Z,17.43,101.72,32.0,25.0,0,1,,6.21,29.793306,,,,,,TRUE,,,,,BKN,3000,BKN,7000,,,,,MVFR,,,,,,,,,,,,METAR,257.0
VTUK 300400Z 33003KT 290V010 9999 SCT025 31/24 Q1009 NOSIG,VTUK,2023-05-30T04:00:00Z,16.47,102.78,31.0,24.0,330,3,,6.21,29.793306,,,,,,TRUE,,,,,SCT,2500,,,,,,,VFR,,,,,,,,,,,,METAR,190.0
VTUI 300400Z VRB03KT 9999 SCT030 34/24 Q1007 NOSIG,VTUI,2023-05-30T04:00:00Z,17.2,104.12,34.0,24.0,0,3,,6.21,29.734253,,,,,,TRUE,,,,,SCT,3000,,,,,,,VFR,,,,,,,,,,,,METAR,162.0
VTUD 300400Z 15004KT 100V200 9999 BKN030 33/24 Q1008 NOSIG,VTUD,2023-05-30T04:00:00Z,17.37,102.78,33.0,24.0,150,4,,6.21,29.763779,,,,,,TRUE,,,,,BKN,3000,,,,,,,MVFR,,,,,,,,,,,,METAR,177.0
VTSY 300400Z 24005KT 180V300 9999 FEW030 31/23 Q1011 NOSIG,VTSY,2023-05-30T04:00:00Z,5.78,101.15,31.0,23.0,240,5,,6.21,29.852362,,,,,,TRUE,,,,,FEW,3000,,,,,,,VFR,,,,,,,,,,,,METAR,225.0
VTST 300400Z 22015KT 190V250 1500 +RA FEW016CB SCT030 25/25 Q1011 BECMG TL0425 4000 RA,VTST,2023-05-30T04:00:00Z,7.52,99.62,25.0,25.0,220,15,,0.93,29.852362,,,,,,,,,,+RA,FEW,1600,SCT,3000,,,,,LIFR,,,,,,,,,,,,METAR,17.0
VTSS 300400Z 27014KT 9999 SCT020 SCT100 32/24 Q1009 NOSIG,VTSS,2023-05-30T04:00:00Z,6.92,100.38,32.0,24.0,270,14,,6.21,29.793306,,,,,,TRUE,,,,,SCT,2000,SCT,10000,,,,,VFR,,,,,,,,,,,,METAR,28.0
VTSR 300400Z VRB03KT 4000 TSRA FEW018CB BKN020 25/24 Q1010 BECMG TL0415 6000 NSW,VTSR,2023-05-30T04:00:00Z,9.78,98.58,25.0,24.0,0,3,,2.49,29.822834,,,,,,,,,,TSRA,FEW,1800,BKN,2000,,,,,IFR,,,,,,,,,,,,METAR,23.0
VTSP 300400Z 27015KT 240V300 9000 2000E -RA FEW018CB SCT020 26/25 Q1010 NOSIG,VTSP,2023-05-30T04:00:00Z,8.12,98.32,26.0,25.0,270,15,,5.59,29.822834,,,,,,TRUE,,,,-RA,FEW,1800,SCT,2000,,,,,VFR,,,,,,,,,,,,METAR,12.0
VTSM 300400Z 27006KT 240V320 9999 FEW020 33/24 Q1010 NOSIG,VTSM,2023-05-30T04:00:00Z,9.55,100.07,33.0,24.0,270,6,,6.21,29.822834,,,,,,TRUE,,,,,FEW,2000,,,,,,,VFR,,,,,,,,,,,,METAR,12.0
VTSG 300400Z 26006KT 200V320 9999 SCT020 31/25 Q1010 NOSIG,VTSG,2023-05-30T04:00:00Z,8.1,98.98,31.0,25.0,260,6,,6.21,29.822834,,,,,,TRUE,,,,,SCT,2000,,,,,,,VFR,,,,,,,,,,,,METAR,32.0
VTSF 300400Z VRB03KT 9999 FEW018 35/26 Q1009 NOSIG,VTSF,2023-05-30T04:00:00Z,8.53,99.95,35.0,26.0,0,3,,6.21,29.793306,,,,,,TRUE,,,,,FEW,1800,,,,,,,VFR,,,,,,,,,,,,METAR,6.0
VTSE 300400Z 27009KT 230V310 9999 SCT020 32/24 Q1008 NOSIG,VTSE,2023-05-30T04:00:00Z,10.72,99.37,32.0,24.0,270,9,,6.21,29.763779,,,,,,TRUE,,,,,SCT,2000,,,,,,,VFR,,,,,,,,,,,,METAR,8.0
VTSC 300400Z 06008KT 030V090 9999 FEW022 32/25 Q1010 NOSIG,VTSC,2023-05-30T04:00:00Z,6.52,101.75,32.0,25.0,60,8,,6.21,29.822834,,,,,,TRUE,,,,,FEW,2200,,,,,,,VFR,,,,,,,,,,,,METAR,5.0
VTSB 300400Z 24008KT 210V280 9999 -RA FEW018CB SCT020 31/24 Q1009 NOSIG,VTSB,2023-05-30T04:00:00Z,9.12,99.15,31.0,24.0,240,8,,6.21,29.793306,,,,,,TRUE,,,,-RA,FEW,1800,SCT,2000,,,,,VFR,,,,,,,,,,,,METAR,10.0
VTPT 300400Z /////KT 9999 SCT026 34/25 Q1007 NOSIG,VTPT,2023-05-30T04:00:00Z,16.88,99.25,34.0,25.0,,,,6.21,29.734253,,,,,,TRUE,,,,,SCT,2600,,,,,,,VFR,,,,,,,,,,,,METAR,148.0
VTPP 300400Z 26003KT 170V340 9999 SCT025 33/26 Q1007 NOSIG,VTPP,2023-05-30T04:00:00Z,16.78,100.28,33.0,26.0,260,3,,6.21,29.734253,,,,,,TRUE,,,,,SCT,2500,,,,,,,VFR,,,,,,,,,,,,METAR,45.0
VTPO 300400Z 26003KT 9999 SCT015 33/26 Q1007 NOSIG,VTPO,2023-05-30T04:00:00Z,17.23,99.82,33.0,26.0,260,3,,6.21,29.734253,,,,,,TRUE,,,,,SCT,1500,,,,,,,VFR,,,,,,,,,,,,METAR,58.0
VTPM 300400Z 30005KT 270V330 9999 BKN026 32/26 Q1009 NOSIG,VTPM,2023-05-30T04:00:00Z,16.7,98.53,32.0,26.0,300,5,,6.21,29.793306,,,,,,TRUE,,,,,BKN,2600,,,,,,,MVFR,,,,,,,,,,,,METAR,211.0
VTPH 300400Z 06009KT 030V090 9999 FEW030 32/24 Q1007 NOSIG,VTPH,2023-05-30T04:00:00Z,12.63,99.95,32.0,24.0,60,9,,6.21,29.734253,,,,,,TRUE,,,,,FEW,3000,,,,,,,VFR,,,,,,,,,,,,METAR,12.0
VTPB 300400Z 000//KT 9999 FEW030 32/26 Q1008 NOSIG,VTPB,2023-05-30T04:00:00Z,16.67,101.2,32.0,26.0,,,,6.21,29.763779,,,,,,TRUE,,,,,FEW,3000,,,,,,,VFR,,,,,,,,,,,,METAR,134.0
VTCT 300400Z VRB04KT 9999 FEW025 33/25 Q1010 NOSIG,VTCT,2023-05-30T04:00:00Z,19.95,99.88,33.0,25.0,0,4,,6.21,29.822834,,,,,,TRUE,,,,,FEW,2500,,,,,,,VFR,,,,,,,,,,,,METAR,389.0
VTCP 300400Z 19004KT 100V230 9999 FEW030 33/25 Q1008 NOSIG,VTCP,2023-05-30T04:00:00Z,18.13,100.17,33.0,25.0,190,4,,6.21,29.763779,,,,,,TRUE,,,,,FEW,3000,,,,,,,VFR,,,,,,,,,,,,METAR,166.0
VTCN 300400Z VRB04KT 9999 FEW020 34/24 Q1007 NOSIG,VTCN,2023-05-30T04:00:00Z,18.82,100.78,34.0,24.0,0,4,,6.21,29.734253,,,,,,TRUE,,,,,FEW,2000,,,,,,,VFR,,,,,,,,,,,,METAR,211.0
VTCL 300400Z VRB03KT 9999 FEW025 34/26 Q1008 NOSIG,VTCL,2023-05-30T04:00:00Z,18.27,99.52,34.0,26.0,0,3,,6.21,29.763779,,,,,,TRUE,,,,,FEW,2500,,,,,,,VFR,,,,,,,,,,,,METAR,240.0
VTCH 300400Z VRB04KT 9000 FEW018 SCT025 31/24 Q1010 NOSIG,VTCH,2023-05-30T04:00:00Z,19.3,97.98,31.0,24.0,0,4,,5.59,29.822834,,,,,,TRUE,,,,,FEW,1800,SCT,2500,,,,,VFR,,,,,,,,,,,,METAR,266.0
VTCC 300400Z VRB02KT 9999 FEW035 33/23 Q1009 NOSIG,VTCC,2023-05-30T04:00:00Z,18.77,98.97,33.0,23.0,0,2,,6.21,29.793306,,,,,,TRUE,,,,,FEW,3500,,,,,,,VFR,,,,,,,,,,,,METAR,308.0
VTBU 300400Z 26004KT 9999 FEW020 32/25 Q1008 NOSIG,VTBU,2023-05-30T04:00:00Z,12.68,101.0,32.0,25.0,260,4,,6.21,29.763779,,,,,,TRUE,,,,,FEW,2000,,,,,,,VFR,,,,,,,,,,,,METAR,12.0
VTBS 300400Z 25003KT 180V330 9999 FEW020 33/23 Q1007 NOSIG,VTBS,2023-05-30T04:00:00Z,13.68,100.75,33.0,23.0,250,3,,6.21,29.734253,,,,,,TRUE,,,,,FEW,2000,,,,,,,VFR,,,,,,,,,,,,METAR,1.0
VTBO 300400Z 30002KT 8000 FEW020 BKN100 29/27 Q1008,VTBO,2023-05-30T04:00:00Z,12.28,102.32,29.0,27.0,300,2,,4.97,29.763779,,,,,,,,,,,FEW,2000,BKN,10000,,,,,MVFR,,,,,,,,,,,,METAR,25.0
VTBD 300400Z 28007KT 230V320 9999 FEW020 32/24 Q1008 NOSIG,VTBD,2023-05-30T04:00:00Z,13.92,100.6,32.0,24.0,280,7,,6.21,29.763779,,,,,,TRUE,,,,,FEW,2000,,,,,,,VFR,,,,,,,,,,,,METAR,6.0
VRMM 300400Z 25010KT 9999 FEW018 31/27 Q1011 NOSIG,VRMM,2023-05-30T04:00:00Z,4.2,73.52,31.0,27.0,250,10,,6.21,29.852362,,,,,,TRUE,,,,,FEW,1800,,,,,,,VFR,,,,,,,,,,,,METAR,2.0
VRMH 300400Z 24006KT 9999 FEW018 31/27 Q1011,VRMH,2023-05-30T04:00:00Z,6.75,73.17,31.0,27.0,240,6,,6.21,29.852362,,,,,,,,,,,FEW,1800,,,,,,,VFR,,,,,,,,,,,,METAR,1.0
VRMG 300400Z 25006KT 9999 FEW017 FEW018CB SCT260 29/25 Q1013 CB E TEMPO 5000 SHRA,VRMG,2023-05-30T04:00:00Z,-0.7,73.15,29.0,25.0,250,6,,6.21,29.911417,,,,,,,,,,,FEW,1700,FEW,1800,SCT,26000,,,VFR,,,,,,,,,,,,METAR,2.0
VOTV 300400Z 27003KT 5000 HZ FEW015 32/26 Q1010 NOSIG,VOTV,2023-05-30T04:00:00Z,8.48,76.92,32.0,26.0,270,3,,3.11,29.822834,,,,,,TRUE,,,,HZ,FEW,1500,,,,,,,MVFR,,,,,,,,,,,,METAR,9.0
VOTR 300400Z VRB02KT 5000 BR SCT016 32/28 Q1010 NOSIG,VOTR,2023-05-30T04:00:00Z,10.77,78.72,32.0,28.0,0,2,,3.11,29.822834,,,,,,TRUE,,,,BR,SCT,1600,,,,,,,MVFR,,,,,,,,,,,,METAR,90.0
VOTP 300400Z 22008KT 6000 FEW020 32/25 Q1010 NOSIG,VOTP,2023-05-30T04:00:00Z,13.63,79.55,32.0,25.0,220,8,,3.73,29.822834,,,,,,TRUE,,,,,FEW,2000,,,,,,,MVFR,,,,,,,,,,,,METAR,103.0
VOTK 300400Z 20003KT 7000 NSC 32/23 Q1010 NOSIG,VOTK,2023-05-30T04:00:00Z,8.72,78.02,32.0,23.0,200,3,,4.35,29.822834,,,,,,TRUE,,,,,CLR,,,,,,,,MVFR,,,,,,,,,,,,METAR,25.0
VORY 300400Z 34004KT 6000 SCT020 BKN090 32/28 Q1010 NOSIG,VORY,2023-05-30T04:00:00Z,17.1,81.82,32.0,28.0,340,4,,3.73,29.822834,,,,,,TRUE,,,,,SCT,2000,BKN,9000,,,,,MVFR,,,,,,,,,,,,METAR,47.0
VOMY 300400Z 27005KT 6000 NSC 29/21 Q1015,VOMY,2023-05-30T04:00:00Z,12.23,76.65,29.0,21.0,270,5,,3.73,29.970472,,,,,,,,,,,CLR,,,,,,,,MVFR,,,,,,,,,,,,METAR,727.0
VOML 300400Z 31013KT 6000 TS FEW006 SCT012 BKN080 24/23 Q1012 NOSIG,VOML,2023-05-30T04:00:00Z,12.97,74.88,24.0,23.0,310,13,,3.73,29.88189,,,,,,TRUE,,,,TS,FEW,600,SCT,1200,BKN,8000,,,MVFR,,,,,,,,,,,,METAR,100.0
VOMD 300400Z 02003KT 3500 BR FEW020 32/27 Q1011 NOSIG,VOMD,2023-05-30T04:00:00Z,9.83,78.08,32.0,27.0,20,3,,2.17,29.852362,,,,,,TRUE,,,,BR,FEW,2000,,,,,,,IFR,,,,,,,,,,,,METAR,135.0
VOHB 300400Z 21008KT 6000 FEW015 BKN080 24/20 Q1014,VOHB,2023-05-30T04:00:00Z,15.37,75.08,24.0,20.0,210,8,,3.73,29.940945,,,,,,,,,,,FEW,1500,BKN,8000,,,,,MVFR,,,,,,,,,,,,METAR,661.0
VOGA 300400Z 17006KT 5000 HZ SCT020 30/24 Q1011 NOSIG,VOGA,2023-05-30T04:00:00Z,,,30.0,24.0,170,6,,3.11,29.852362,,,,,,TRUE,,,,HZ,SCT,2000,,,,,,,MVFR,,,,,,,,,,,,METAR,
VOCP 300400Z 24012KT 6000 FEW020 34/18 Q1010 NOSIG,VOCP,2023-05-30T04:00:00Z,14.5,78.77,34.0,18.0,240,12,,3.73,29.822834,,,,,,TRUE,,,,,FEW,2000,,,,,,,MVFR,,,,,,,,,,,,METAR,134.0
VOCL 300400Z 06003KT 6000 FEW015 32/23 Q1010 NOSIG,VOCL,2023-05-30T04:00:00Z,11.13,75.95,32.0,23.0,60,3,,3.73,29.822834,,,,,,TRUE,,,,,FEW,1500,,,,,,,MVFR,,,,,,,,,,,,METAR,104.0
VOCI 300400Z 11003KT 4500 HZ FEW015 32/26 Q1010 BECMG 5000 HZ,VOCI,2023-05-30T04:00:00Z,10.15,76.4,32.0,26.0,110,3,,2.8,29.822834,,,,,,,,,,HZ,FEW,1500,,,,,,,IFR,,,,,,,,,,,,METAR,8.0
VOCB 300400Z VRB02KT 4000 HZ FEW015 31/23 Q1012 NOSIG,VOCB,2023-05-30T04:00:00Z,11.02,77.03,31.0,23.0,0,2,,2.49,29.88189,,,,,,TRUE,,,,HZ,FEW,1500,,,,,,,IFR,,,,,,,,,,,,METAR,394.0
VOBZ 300400Z 29006KT 5000 HZ FEW018 SCT025 BKN100 32/27 Q1009 NOSIG,VOBZ,2023-05-30T04:00:00Z,16.52,80.78,32.0,27.0,290,6,,3.11,29.793306,,,,,,TRUE,,,,HZ,FEW,1800,SCT,2500,BKN,10000,,,MVFR,,,,,,,,,,,,METAR,26.0
VOBL 300400Z 27010KT 6000 SCT015 27/22 Q1016 NOSIG,VOBL,2023-05-30T04:00:00Z,13.2,77.7,27.0,22.0,270,10,,3.73,30.0,,,,,,TRUE,,,,,SCT,1500,,,,,,,MVFR,,,,,,,,,,,,METAR,908.0
VOBG 300400Z 26006KT CAVOK 30/22 Q1016 NOSIG,VOBG,2023-05-30T04:00:00Z,12.95,77.65,30.0,22.0,260,6,,6.21,30.0,,,,,,TRUE,,,,,CAVOK,,,,,,,,VFR,,,,,,,,,,,,METAR,884.0
VNKT 300400Z VRB02KT 7000 FEW015 26/18 Q1018 NOSIG,VNKT,2023-05-30T04:00:00Z,27.68,85.37,26.0,18.0,0,2,,4.35,30.059055,,,,,,TRUE,,,,,FEW,1500,,,,,,,MVFR,,,,,,,,,,,,METAR,1334.0
VLVT 300400Z 22006KT 8000 BKN016 33/28 Q1008 NOSIG,VLVT,2023-05-30T04:00:00Z,17.98,102.57,33.0,28.0,220,6,,4.97,29.763779,,,,,,TRUE,,,,,BKN,1600,,,,,,,MVFR,,,,,,,,,,,,METAR,171.0
VLSK 300400Z 18002KT 9000 SCT040 SCT100 31/23 Q1009 NOSIG,VLSK,2023-05-30T04:00:00Z,16.55,104.75,31.0,23.0,180,2,,5.59,29.793306,,,,,,TRUE,,,,,SCT,4000,SCT,10000,,,,,VFR,,,,,,,,,,,,METAR,148.0
VLPS 300400Z 09002KT 9999 FEW020 SCT050 31/25 Q1008 NOSIG,VLPS,2023-05-30T04:00:00Z,15.13,105.78,31.0,25.0,90,2,,6.21,29.763779,,,,,,TRUE,,,,,FEW,2000,SCT,5000,,,,,VFR,,,,,,,,,,,,METAR,102.0
VLLN 300400Z 22004KT 9999 FEW020 30/24 Q1012 NOSIG,VLLN,2023-05-30T04:00:00Z,20.97,101.4,30.0,24.0,220,4,,6.21,29.88189,,,,,,TRUE,,,,,FEW,2000,,,,,,,VFR,,,,,,,,,,,,METAR,548.0
VLLB 300400Z 27004KT 9999 SCT010 34/24 Q1008 NOSIG,VLLB,2023-05-30T04:00:00Z,19.9,102.17,34.0,24.0,270,4,,6.21,29.763779,,,,,,TRUE,,,,,SCT,1000,,,,,,,VFR,,,,,,,,,,,,METAR,297.0
VIPT 300400Z 07005KT 4000 HZ FEW030 SCT100 33/20 Q1010,VIPT,2023-05-30T04:00:00Z,29.03,79.47,33.0,20.0,70,5,,2.49,29.822834,,,,,,,,,,HZ,FEW,3000,SCT,10000,,,,,IFR,,,,,,,,,,,,METAR,236.0
VIGG 300400Z 04007KT 5000 -RA FEW010 SCT030 FEW035CB OVC080 22/14 Q1016,VIGG,2023-05-30T04:00:00Z,32.17,76.25,22.0,14.0,40,7,,3.11,30.0,,,,,,,,,,-RA,FEW,1000,SCT,3000,FEW,3500,OVC,8000,MVFR,,,,,,,,,,,,METAR,760.0
VIAR 300400Z 08004KT 6000 FEW030 SCT090 28/15 Q1012 NOSIG,VIAR,2023-05-30T04:00:00Z,31.7,74.8,28.0,15.0,80,4,,3.73,29.88189,,,,,,TRUE,,,,,FEW,3000,SCT,9000,,,,,MVFR,,,,,,,,,,,,METAR,226.0
VHHH 300400Z 30003KT 260V360 9999 FEW025 34/25 Q1005 NOSIG,VHHH,2023-05-30T04:00:00Z,22.32,113.92,34.0,25.0,300,3,,6.21,29.675198,,,,,,TRUE,,,,,FEW,2500,,,,,,,VFR,,,,,,,,,,,,METAR,9.0
VGHS 300400Z 27005KT 4000 HZ FEW100 34/23 Q1008 NOSIG,VGHS,2023-05-30T04:00:00Z,23.85,90.4,34.0,23.0,270,5,,2.49,29.763779,,,,,,TRUE,,,,HZ,FEW,10000,,,,,,,IFR,,,,,,,,,,,,METAR,11.0
VERC 300400Z 23004KT 5000 HZ NSC 33/21 Q1012 NOSIG,VERC,2023-05-30T04:00:00Z,23.32,85.32,33.0,21.0,230,4,,3.11,29.88189,,,,,,TRUE,,,,HZ,CLR,,,,,,,,MVFR,,,,,,,,,,,,METAR,646.0
VEPY 300400Z 19002KT 5000 HZ FEW015 25/19 Q1018 NOSIG,VEPY,2023-05-30T04:00:00Z,27.22,88.58,25.0,19.0,190,2,,3.11,30.059055,,,,,,TRUE,,,,HZ,FEW,1500,,,,,,,MVFR,,,,,,,,,,,,METAR,1399.0
VEPT 300400Z 16002KT 5000 HZ NSC 38/25 Q1008 NOSIG,VEPT,2023-05-30T04:00:00Z,25.6,85.08,38.0,25.0,160,2,,3.11,29.763779,,,,,,TRUE,,,,HZ,CLR,,,,,,,,MVFR,,,,,,,,,,,,METAR,53.0
VEMN 300400Z 08005KT 6000 FEW025 33/24 Q1009 NOSIG,VEMN,2023-05-30T04:00:00Z,27.47,95.02,33.0,24.0,80,5,,3.73,29.793306,,,,,,TRUE,,,,,FEW,2500,,,,,,,MVFR,,,,,,,,,,,,METAR,111.0
VEJS 300400Z 28004KT 3500 HZ NSC 33/25 Q1009,VEJS,2023-05-30T04:00:00Z,22.82,86.17,33.0,25.0,280,4,,2.17,29.793306,,,,,,,,,,HZ,CLR,,,,,,,,IFR,,,,,,,,,,,,METAR,151.0
VEGY 300400Z 14004KT 5000 HZ NSC 36/20 Q1008,VEGY,2023-05-30T04:00:00Z,24.75,84.95,36.0,20.0,140,4,,3.11,29.763779,,,,,,,,,,HZ,CLR,,,,,,,,MVFR,,,,,,,,,,,,METAR,115.0
VEGT 300400Z 26002KT 5000 HZ FEW020 33/28 Q1008 NOSIG,VEGT,2023-05-30T04:00:00Z,26.1,91.58,33.0,28.0,260,2,,3.11,29.763779,,,,,,TRUE,,,,HZ,FEW,2000,,,,,,,MVFR,,,,,,,,,,,,METAR,50.0
VEDG 300400Z 32003KT 3500 HZ FEW100 34/25 Q1008 NOSIG,VEDG,2023-05-30T04:00:00Z,23.62,87.25,34.0,25.0,320,3,,2.17,29.763779,,,,,,TRUE,,,,HZ,FEW,10000,,,,,,,IFR,,,,,,,,,,,,METAR,88.0
VECO 300400Z 00000KT 6000 NSC 33/24 Q1008 NOSIG,VECO,2023-05-30T04:00:00Z,26.33,89.47,33.0,24.0,0,0,,3.73,29.763779,,,,,,TRUE,,,,,CLR,,,,,,,,MVFR,,,,,,,,,,,,METAR,48.0
VECC 300400Z 00000KT 4000 HZ SCT100 35/27 Q1008 NOSIG,VECC,2023-05-30T04:00:00Z,22.65,88.43,35.0,27.0,0,0,,2.49,29.763779,,,,,,TRUE,,,,HZ,SCT,10000,,,,,,,IFR,,,,,,,,,,,,METAR,11.0
VDSV 300400Z VRB02KT 9000 SCT015 BKN040 29/25 Q1008,VDSV,2023-05-30T04:00:00Z,10.58,103.63,29.0,25.0,0,2,,5.59,29.763779,,,,,,,,,,,SCT,1500,BKN,4000,,,,,VFR,,,,,,,,,,,,METAR,1.0
VDSR 300400Z 22007KT 190V260 9999 SCT015 31/25 Q1007,VDSR,2023-05-30T04:00:00Z,13.42,103.8,31.0,25.0,220,7,,6.21,29.734253,,,,,,,,,,,SCT,1500,,,,,,,VFR,,,,,,,,,,,,METAR,16.0
VDPP 300400Z 24007KT 200V290 9999 SCT017 33/24 Q1007,VDPP,2023-05-30T04:00:00Z,11.55,104.83,33.0,24.0,240,7,,6.21,29.734253,,,,,,,,,,,SCT,1700,,,,,,,VFR,,,,,,,,,,,,METAR,10.0
VASU 300400Z 30005KT 6000 FEW030 32/23 Q1010 NOSIG,VASU,2023-05-30T04:00:00Z,21.12,72.73,32.0,23.0,300,5,,3.73,29.822834,,,,,,TRUE,,,,,FEW,3000,,,,,,,MVFR,,,,,,,,,,,,METAR,6.0
VANP 300400Z 25008KT 5000 HZ FEW020 BKN100 33/21 Q1012 NOSIG,VANP,2023-05-30T04:00:00Z,21.08,79.05,33.0,21.0,250,8,,3.11,29.88189,,,,,,TRUE,,,,HZ,FEW,2000,BKN,10000,,,,,MVFR,,,,,,,,,,,,METAR,309.0
VAJJ 300400Z 26005KT 5000 HZ FEW020 31/25 Q1009 NOSIG,VAJJ,2023-05-30T04:00:00Z,19.08,72.83,31.0,25.0,260,5,,3.11,29.793306,,,,,,TRUE,,,,HZ,FEW,2000,,,,,,,MVFR,,,,,,,,,,,,METAR,1.0
VAJB 300400Z 34005KT 6000 NSC 32/18 Q1012 NOSIG,VAJB,2023-05-30T04:00:00Z,23.18,80.05,32.0,18.0,340,5,,3.73,29.88189,,,,,,TRUE,,,,,CLR,,,,,,,,MVFR,,,,,,,,,,,,METAR,489.0
VABV 300400Z 30010KT 5000 FU FEW080 32/23 Q1011 NOSIG,VABV,2023-05-30T04:00:00Z,21.75,72.2,32.0,23.0,300,10,,3.11,29.852362,,,,,,TRUE,,,,FU,FEW,8000,,,,,,,MVFR,,,,,,,,,,,,METAR,8.0
VABP 300400Z 04004KT 6000 NSC 33/15 Q1012 NOSIG,VABP,2023-05-30T04:00:00Z,23.28,77.33,33.0,15.0,40,4,,3.73,29.88189,,,,,,TRUE,,,,,CLR,,,,,,,,MVFR,,,,,,,,,,,,METAR,520.0
VABB 300400Z 21005KT 4000 HZ FEW020 33/26 Q1009 NOSIG,VABB,2023-05-30T04:00:00Z,19.1,72.87,33.0,26.0,210,5,,2.49,29.793306,,,,,,TRUE,,,,HZ,FEW,2000,,,,,,,IFR,,,,,,,,,,,,METAR,14.0
VAAH 300400Z 01005KT 5000 FU FEW020 31/20 Q1010 NOSIG,VAAH,2023-05-30T04:00:00Z,23.07,72.63,31.0,20.0,10,5,,3.11,29.822834,,,,,,TRUE,,,,FU,FEW,2000,,,,,,,MVFR,,,,,,,,,,,,METAR,52.0
UWWW 300400Z 06005MPS 9999 FEW033 18/10 Q1016 R15/CLRD60 NOSIG RMK QFE751/1001,UWWW,2023-05-30T04:00:00Z,53.5,50.17,18.0,10.0,60,10,,6.21,30.0,,,,,,TRUE,,,,,FEW,3300,,,,,,,VFR,,,,,,,,,,,,METAR,124.0
UWUU 300400Z 05004MPS 350V080 9999 SCT040CB 17/11 Q1021 R32L/0///60 NOSIG,UWUU,2023-05-30T04:00:00Z,54.57,55.87,17.0,11.0,50,8,,6.21,30.147638,,,,,,TRUE,,,,,SCT,4000,,,,,,,VFR,,,,,,,,,,,,METAR,137.0
UWSG 300400Z 04010MPS 9999 SCT050CB 19/10 Q1011 R08/CLRD70 NOSIG RMK QFE756/1008,UWSG,2023-05-30T04:00:00Z,51.72,46.17,19.0,10.0,40,19,,6.21,29.852362,,,,,,TRUE,,,,,SCT,5000,,,,,,,VFR,,,,,,,,,,,,METAR,31.0
UWPS 300400Z 04002MPS 9999 SCT033 14/10 Q1018 R02/CLRD60 TEMPO -TSRA BKN020CB RMK QFE744,UWPS,2023-05-30T04:00:00Z,54.12,45.2,14.0,10.0,40,4,,6.21,30.059055,,,,,,,,,,,SCT,3300,,,,,,,VFR,,,,,,,,,,,,METAR,206.0
UWOR 300400Z VRB01MPS CAVOK 24/12 Q1023 R25/CLRD65 NOSIG RMK QFE743/0991,UWOR,2023-05-30T04:00:00Z,51.07,58.6,24.0,12.0,0,2,,6.21,30.206694,,,,,,TRUE,,,,,CAVOK,,,,,,,,VFR,,,,,,,,,,,,METAR,270.0
UWOO 300400Z 14003MPS CAVOK 23/08 Q1020 R08/CLRD60 NOSIG RMK QFE754/1006,UWOO,2023-05-30T04:00:00Z,51.8,55.47,23.0,8.0,140,6,,6.21,30.11811,,,,,,TRUE,,,,,CAVOK,,,,,,,,VFR,,,,,,,,,,,,METAR,90.0
UWLW 300400Z 05004MPS CAVOK 16/11 Q1018 R02/CLRD60 NOSIG RMK QFE756/1009,UWLW,2023-05-30T04:00:00Z,54.4,48.8,16.0,11.0,50,8,,6.21,30.059055,,,,,,TRUE,,,,,CAVOK,,,,,,,,VFR,,,,,,,,,,,,METAR,67.0
UWLL 300400Z 08005MPS CAVOK 17/10 Q1018 R02/090065 NOSIG RMK QFE751/1002,UWLL,2023-05-30T04:00:00Z,54.27,48.23,17.0,10.0,80,10,,6.21,30.059055,,,,,,TRUE,,,,,CAVOK,,,,,,,,VFR,,,,,,,,,,,,METAR,119.0
UWKS 300400Z 12002MPS CAVOK 16/11 Q1020 R24/010060 NOSIG RMK QFE751,UWKS,2023-05-30T04:00:00Z,56.08,47.35,16.0,11.0,120,4,,6.21,30.11811,,,,,,TRUE,,,,,CAVOK,,,,,,,,VFR,,,,,,,,,,,,METAR,165.0
UWKE 300400Z 09006MPS 9999 FEW050CB 15/09 Q1021 R03/090070 NOSIG RMK QFE749/0998,UWKE,2023-05-30T04:00:00Z,55.57,52.08,15.0,9.0,90,12,,6.21,30.147638,,,,,,TRUE,,,,,FEW,5000,,,,,,,VFR,,,,,,,,,,,,METAR,193.0
UWKD 300400Z 07004MPS CAVOK 16/10 Q1020 R11/70D NOSIG RMK QFE755/1006,UWKD,2023-05-30T04:00:00Z,55.62,49.28,16.0,10.0,70,8,,6.21,30.11811,,,,,,TRUE,,,,,CAVOK,,,,,,,,VFR,,,,,,,,,,,,METAR,114.0
UWGG 300400Z 16003MPS CAVOK 16/10 Q1019 R36R/090070 NOSIG,UWGG,2023-05-30T04:00:00Z,56.23,43.78,16.0,10.0,160,6,,6.21,30.088583,,,,,,TRUE,,,,,CAVOK,,,,,,,,VFR,,,,,,,,,,,,METAR,73.0
UUYY 300400Z 20003MPS CAVOK 14/11 Q1017 R18/29//51 NOSIG RMK QFE754/1006,UUYY,2023-05-30T04:00:00Z,61.65,50.83,14.0,11.0,200,6,,6.21,30.029528,,,,,,TRUE,,,,,CAVOK,,,,,,,,VFR,,,,,,,,,,,,METAR,107.0
UUWW 300400Z 25001MPS CAVOK 13/08 Q1018 R24/000070 NOSIG,UUWW,2023-05-30T04:00:00Z,55.6,37.27,13.0,8.0,250,2,,6.21,30.059055,,,,,,TRUE,,,,,CAVOK,,,,,,,,VFR,,,,,,,,,,,,METAR,195.0
UUOO 300400Z 03002MPS 9999 -RA NSC 14/09 Q1016 R30/190060 NOSIG RMK QFE748,UUOO,2023-05-30T04:00:00Z,51.82,39.23,14.0,9.0,30,4,,6.21,30.0,,,,,,TRUE,,,,-RA,CLR,,,,,,,,VFR,,,,,,,,,,,,METAR,154.0
UUOL 300400Z 04002MPS CAVOK 14/08 Q1017 R33/090060 NOSIG,UUOL,2023-05-30T04:00:00Z,52.7,39.53,14.0,8.0,40,4,,6.21,30.029528,,,,,,TRUE,,,,,CAVOK,,,,,,,,VFR,,,,,,,,,,,,METAR,176.0
UUOK 300400Z 31001MPS CAVOK 12/08 Q1016 R30/090060 NOSIG RMK QFE743/0991,UUOK,2023-05-30T04:00:00Z,51.75,36.28,12.0,8.0,310,2,,6.21,30.0,,,,,,TRUE,,,,,CAVOK,,,,,,,,VFR,,,,,,,,,,,,METAR,203.0
UUOB 300400Z 05003MPS 9999 -SHRA BKN053CB 13/09 Q1015 R11/190065 NOSIG,UUOB,2023-05-30T04:00:00Z,50.65,36.58,13.0,9.0,50,6,,6.21,29.970472,,,,,,TRUE,,,,-SHRA,BKN,5300,,,,,,,VFR,,,,,,,,,,,,METAR,218.0
UUMO 300400Z 00000MPS CAVOK 14/09 Q1018 R25/CLRD60 NOSIG RMK QFE748/0998,UUMO,2023-05-30T04:00:00Z,55.52,37.5,14.0,9.0,0,0,,6.21,30.059055,,,,,,TRUE,,,,,CAVOK,,,,,,,,VFR,,,,,,,,,,,,METAR,167.0
UUEE 300400Z 16002MPS CAVOK 16/06 Q1018 R24L/CLRD62 R24C/CLRD62 NOSIG,UUEE,2023-05-30T04:00:00Z,55.97,37.42,16.0,6.0,160,4,,6.21,30.059055,,,,,,TRUE,,,,,CAVOK,,,,,,,,VFR,,,,,,,,,,,,METAR,186.0
UUDL 300400Z 11001MPS CAVOK 14/10 Q1018 R23/010060 NOSIG RMK QFE755,UUDL,2023-05-30T04:00:00Z,57.57,40.17,14.0,10.0,110,2,,6.21,30.059055,,,,,,TRUE,,,,,CAVOK,,,,,,,,VFR,,,,,,,,,,,,METAR,88.0
UUDD 300400Z VRB01MPS CAVOK 15/08 Q1018 R32L/CLRD60 NOSIG,UUDD,2023-05-30T04:00:00Z,55.4,37.9,15.0,8.0,0,2,,6.21,30.059055,,,,,,TRUE,,,,,CAVOK,,,,,,,,VFR,,,,,,,,,,,,METAR,165.0
UUBW 300400Z 00000MPS CAVOK 14/10 Q1018 R30/010060 NOSIG RMK QFE753,UUBW,2023-05-30T04:00:00Z,55.55,38.15,14.0,10.0,0,0,,6.21,30.059055,,,,,,TRUE,,,,,CAVOK,,,,,,,,VFR,,,,,,,,,,,,METAR,111.0
UUBP 300400Z 04002MPS CAVOK 15/06 Q1018 R16/////// NOSIG RMK QFE745/0993,UUBP,2023-05-30T04:00:00Z,53.22,34.18,15.0,6.0,40,4,,6.21,30.059055,,,,,,TRUE,,,,,CAVOK,,,,,,,,VFR,,,,,,,,,,,,METAR,197.0
UUBC 300400Z 00000MPS CAVOK 12/09 Q1018 R13/CLRD60 NOSIG RMK QFE745/0994,UUBC,2023-05-30T04:00:00Z,54.55,36.37,12.0,9.0,0,0,,6.21,30.059055,,,,,,TRUE,,,,,CAVOK,,,,,,,,VFR,,,,,,,,,,,,METAR,198.0
UTTT 300400Z 14006KT 100V180 CAVOK 26/06 Q1014 R08R/CLRD70 NOSIG,UTTT,2023-05-30T04:00:00Z,41.27,69.27,26.0,6.0,140,6,,6.21,29.940945,,,,,,TRUE,,,,,CAVOK,,,,,,,,VFR,,,,,,,,,,,,METAR,429.0
UTST 300400Z 27006KT 240V300 CAVOK 27/00 Q1011 R25/CLRD70 NOSIG,UTST,2023-05-30T04:00:00Z,37.28,67.32,27.0,0.0,270,6,,6.21,29.852362,,,,,,TRUE,,,,,CAVOK,,,,,,,,VFR,,,,,,,,,,,,METAR,311.0
UTSS 300400Z 10014KT 9999 NSC 26/05 Q1013 R09/CLRD70 NOSIG,UTSS,2023-05-30T04:00:00Z,39.7,66.98,26.0,5.0,100,14,,6.21,29.911417,,,,,,TRUE,,,,,CLR,,,,,,,,VFR,,,,,,,,,,,,METAR,665.0
UTSK 300400Z 00000KT CAVOK 28/07 Q1011 R16/CLRD70,UTSK,2023-05-30T04:00:00Z,38.8,65.77,28.0,7.0,0,0,,6.21,29.852362,,,,,,,,,,,CAVOK,,,,,,,,VFR,,,,,,,,,,,,METAR,399.0
UTSB 300400Z 35014KT CAVOK 26/02 Q1012 R01/CLRD70 NOSIG,UTSB,2023-05-30T04:00:00Z,39.77,64.48,26.0,2.0,350,14,,6.21,29.88189,,,,,,TRUE,,,,,CAVOK,,,,,,,,VFR,,,,,,,,,,,,METAR,225.0
UTSA 300400Z 02006KT 9000 NSC 27/01 Q1012 R07/CLRD70 NOSIG,UTSA,2023-05-30T04:00:00Z,40.12,65.17,27.0,1.0,20,6,,5.59,29.88189,,,,,,TRUE,,,,,CLR,,,,,,,,VFR,,,,,,,,,,,,METAR,346.0
UTNN 300400Z 05010KT CAVOK 26/M09 Q1016 R33/CLRD60 NOSIG,UTNN,2023-05-30T04:00:00Z,42.48,59.63,26.0,-9.0,50,10,,6.21,30.0,,,,,,TRUE,,,,,CAVOK,,,,,,,,VFR,,,,,,,,,,,,METAR,76.0
UTFN 300400Z 13004KT 100V160 9999 NSC 27/08 Q1014 R28/CLRD70 NOSIG,UTFN,2023-05-30T04:00:00Z,40.98,71.57,27.0,8.0,130,4,,6.21,29.940945,,,,,,TRUE,,,,,CLR,,,,,,,,VFR,,,,,,,,,,,,METAR,477.0
UTFF 300400Z 26006KT 210V330 9999 NSC 28/05 Q1014 R18/CLRD70,UTFF,2023-05-30T04:00:00Z,40.37,71.73,28.0,5.0,260,6,,6.21,29.940945,,,,,,,,,,,CLR,,,,,,,,VFR,,,,,,,,,,,,METAR,612.0
UTDT 300400Z VRB01MPS 9999 NSC 28/08 Q1011 R35/CLRD70 RMK QFE719/0959,UTDT,2023-05-30T04:00:00Z,37.87,68.87,28.0,8.0,0,2,,6.21,29.852362,,,,,,,,,,,CLR,,,,,,,,VFR,,,,,,,,,,,,METAR,443.0
UTDL 300400Z 07005MPS 9999 NSC 26/08 Q1013 R08/CLRD70 NOSIG RMK QFE721/0962,UTDL,2023-05-30T04:00:00Z,40.22,69.7,26.0,8.0,70,10,,6.21,29.911417,,,,,,TRUE,,,,,CLR,,,,,,,,VFR,,,,,,,,,,,,METAR,436.0
UTDK 300400Z VRB02MPS 9999 NSC 29/06 Q1014 R01/09//70 RMK QFE703/0937,UTDK,2023-05-30T04:00:00Z,37.98,69.8,29.0,6.0,0,4,,6.21,29.940945,,,,,,,,,,,CLR,,,,,,,,VFR,,,,,,,,,,,,METAR,675.0
UTDD 300400Z VRB01MPS 9999 NSC 26/08 Q1015 R09/CLRD// NOSIG RMK QFE693/0924,UTDD,2023-05-30T04:00:00Z,38.53,68.82,26.0,8.0,0,2,,6.21,29.970472,,,,,,TRUE,,,,,CLR,,,,,,,,VFR,,,,,,,,,,,,METAR,785.0
UTAV 300400Z 01012KT CAVOK 28/03 Q1012 R31/CLRD70 NOSIG,UTAV,2023-05-30T04:00:00Z,39.08,63.62,28.0,3.0,10,12,,6.21,29.88189,,,,,,TRUE,,,,,CAVOK,,,,,,,,VFR,,,,,,,,,,,,METAR,187.0
UTAT 300400Z 10014KT CAVOK 27/00 Q1015 R08/CLRD70 NOSIG,UTAT,2023-05-30T04:00:00Z,41.77,59.83,27.0,0.0,100,14,,6.21,29.970472,,,,,,TRUE,,,,,CAVOK,,,,,,,,VFR,,,,,,,,,,,,METAR,84.0
UTAM 300400Z 05006KT CAVOK 29/07 Q1012 R88/CLRD70 NOSIG,UTAM,2023-05-30T04:00:00Z,37.62,61.9,29.0,7.0,50,6,,6.21,29.88189,,,,,,TRUE,,,,,CAVOK,,,,,,,,VFR,,,,,,,,,,,,METAR,218.0
UTAK 300400Z 10012KT CAVOK 33/M05 Q1010 R16R/CLRD70 NOSIG,UTAK,2023-05-30T04:00:00Z,40.05,53.0,33.0,-5.0,100,12,,6.21,29.822834,,,,,,TRUE,,,,,CAVOK,,,,,,,,VFR,,,,,,,,,,,,METAR,83.0
UTAA 300400Z 06004KT 030V090 9999 NSC 31/M00 Q1012 R88/CLRD70 NOSIG,UTAA,2023-05-30T04:00:00Z,37.98,58.37,31.0,0.0,60,4,,6.21,29.88189,,,,,,TRUE,,,,,CLR,,,,,,,,VFR,,,,,,,,,,,,METAR,207.0
USTR 300400Z 29004MPS 260V330 CAVOK 23/10 Q1018 R30/090065 R21/090065 NOSIG,USTR,2023-05-30T04:00:00Z,57.18,65.32,23.0,10.0,290,8,,6.21,30.059055,,,,,,TRUE,,,,,CAVOK,,,,,,,,VFR,,,,,,,,,,,,METAR,93.0
USSS 300400Z 30004MPS 250V340 CAVOK 20/11 Q1022 R26L/010060 NOSIG RMK QFE745/0994,USSS,2023-05-30T04:00:00Z,56.75,60.78,20.0,11.0,300,8,,6.21,30.177166,,,,,,TRUE,,,,,CAVOK,,,,,,,,VFR,,,,,,,,,,,,METAR,222.0
USRR 300400Z 14005MPS 110V180 CAVOK 19/07 Q1017 R07/CLRD60 NOSIG RMK QFE758,USRR,2023-05-30T04:00:00Z,61.33,73.42,19.0,7.0,140,10,,6.21,30.029528,,,,,,TRUE,,,,,CAVOK,,,,,,,,VFR,,,,,,,,,,,,METAR,52.0
USPP 300400Z 22002MPS 160V280 CAVOK 16/10 Q1022 R21/090060 NOSIG RMK QFE756,USPP,2023-05-30T04:00:00Z,57.92,56.02,16.0,10.0,220,4,,6.21,30.177166,,,,,,TRUE,,,,,CAVOK,,,,,,,,VFR,,,,,,,,,,,,METAR,120.0
USNN 300400Z 18007MPS CAVOK 20/03 Q1021 R21/0///65 NOSIG RMK QFE761,USNN,2023-05-30T04:00:00Z,60.95,76.48,20.0,3.0,180,14,,6.21,30.147638,,,,,,TRUE,,,,,CAVOK,,,,,,,,VFR,,,,,,,,,,,,METAR,52.0
USHH 300400Z 19004MPS CAVOK 20/16 Q1012 R24/010060 TEMPO BKN007,USHH,2023-05-30T04:00:00Z,61.03,69.08,20.0,16.0,190,8,,6.21,29.88189,,,,,,,,,,,CAVOK,,,,,,,,VFR,,,,,,,,,,,,METAR,46.0
USDA 300400Z 13012MPS 9999 -RA BKN010 02/01 Q1014 R04/190055 NOSIG RMK QFE759/1013,USDA,2023-05-30T04:00:00Z,71.2,72.05,2.0,1.0,130,23,,6.21,29.940945,,,,,,TRUE,,,,-RA,BKN,1000,,,,,,,MVFR,,,,,,,,,,,,METAR,5.0
USCM 300400Z 23004MPS 9999 SCT040CB 27/02 Q1023 R36/090060 TEMPO VRB18MPS 2000 TSRA SQ RMK QFE728,USCM,2023-05-30T04:00:00Z,53.4,58.75,27.0,2.0,230,8,,6.21,30.206694,,,,,,,,,,,SCT,4000,,,,,,,VFR,,,,,,,,,,,,METAR,425.0
USCC 300400Z 36002MPS 290V040 CAVOK 23/12 Q1021 R27/000060 NOSIG RMK QFE746,USCC,2023-05-30T04:00:00Z,55.3,61.5,23.0,12.0,360,4,,6.21,30.147638,,,,,,TRUE,,,,,CAVOK,,,,,,,,VFR,,,,,,,,,,,,METAR,227.0
URWW 300400Z 08006MPS CAVOK 21/14 Q1009 R05/010070 NOSIG,URWW,2023-05-30T04:00:00Z,48.78,44.33,21.0,14.0,80,12,,6.21,29.793306,,,,,,TRUE,,,,,CAVOK,,,,,,,,VFR,,,,,,,,,,,,METAR,131.0
URWI 300400Z AUTO 00000MPS 9999 // NSC 18/17 Q1008,URWI,2023-05-30T04:00:00Z,46.37,44.33,18.0,17.0,0,0,,6.21,29.763779,,,TRUE,,,,,,,,CLR,,,,,,,,VFR,,,,,,,,,,,,METAR,145.0
URWA 300400Z 10005MPS CAVOK 24/19 Q1007 R09/010070 NOSIG RMK QFE757/1010,URWA,2023-05-30T04:00:00Z,46.28,47.98,24.0,19.0,100,10,,6.21,29.734253,,,,,,TRUE,,,,,CAVOK,,,,,,,,VFR,,,,,,,,,,,,METAR,-19.0
URSS 300400Z 01004MPS 9000 -SHRA BKN050CB OVC090 18/16 Q1009 R02/290055 R06/290055 NOSIG RMK R06/30001MPS QFE755,URSS,2023-05-30T04:00:00Z,43.45,39.92,18.0,16.0,10,8,,5.59,29.793306,,,,,,TRUE,,,,-SHRA,BKN,5000,OVC,9000,,,,,VFR,,,,,,,,,,,,METAR,4.0
URRP 300400Z VRB01MPS CAVOK 19/18 Q1011 R05/290050 TEMPO 0300 FG BKN001 BKN020CB RMK QFE753/1004,URRP,2023-05-30T04:00:00Z,47.5,39.92,19.0,18.0,0,2,,6.21,29.852362,,,,,,,,,,,CAVOK,,,,,,,,VFR,,,,,,,,,,,,METAR,73.0
URMT 300400Z 20002MPS 9999 SCT040 19/15 Q1011 R07/010070 NOSIG RMK QFE718,URMT,2023-05-30T04:00:00Z,45.12,42.12,19.0,15.0,200,4,,6.21,29.852362,,,,,,TRUE,,,,,SCT,4000,,,,,,,VFR,,,,,,,,,,,,METAR,448.0
URMO 300400Z AUTO 22003MPS 9999 // ///085/// 20/15 Q1011 RMK QFE713/0951,URMO,2023-05-30T04:00:00Z,43.2,44.6,20.0,15.0,220,6,,6.21,29.852362,,,TRUE,,,,,,,,,,,,,,,,,,,,,,,,,,,,METAR,505.0
URMN 300400Z 13001MPS 9999 FEW/// SCT121 21/16 Q1010 R24/////// NOSIG RMK QFE721,URMN,2023-05-30T04:00:00Z,43.52,43.63,21.0,16.0,130,2,,6.21,29.822834,,,,,,TRUE,,,,,SCT,12100,,,,,,,VFR,,,,,,,,,,,,METAR,424.0
URMM 300400Z 28004MPS 9999 SCT///CB 19/16 Q1010 R30/290150 NOSIG RMK QFE729/0972,URMM,2023-05-30T04:00:00Z,44.22,43.07,19.0,16.0,280,8,,6.21,29.822834,,,,,,TRUE,,,,,,,,,,,,,,,,,,,,,,,,,METAR,318.0
URML 300400Z 16002MPS 130V190 9999 NSC 23/18 Q1008 R14/01//70 NOSIG RMK QFE756/1008,URML,2023-05-30T04:00:00Z,42.82,47.65,23.0,18.0,160,4,,6.21,29.763779,,,,,,TRUE,,,,,CLR,,,,,,,,VFR,,,,,,,,,,,,METAR,4.0
URMG 300400Z 29006MPS CAVOK 23/15 Q1008 R26/090070 NOSIG RMK QFE741/0988,URMG,2023-05-30T04:00:00Z,43.38,45.7,23.0,15.0,290,12,,6.21,29.763779,,,,,,TRUE,,,,,CAVOK,,,,,,,,VFR,,,,,,,,,,,,METAR,160.0
URKK 300400Z 21002MPS 0600 0500E R05R/0600D FG VV001 18/18 Q1009 R05R/CLRD70 TEMPO 0300 FG SCT002 RMK QBB050 OBST OBSC QFE754,URKK,2023-05-30T04:00:00Z,45.03,39.15,18.0,18.0,210,4,,0.37,29.793306,,,,,,,,,,FG,OVX,0,,,,,,,LIFR,,,,,,,,,,,100,METAR,29.0
URKA 300400Z 14002MPS 110V170 6000 SCT/// 17/17 Q1010 R04/010070 TEMPO 1000 -TSRA BR BKN002 BKN020CB RMK QFE753/1005,URKA,2023-05-30T04:00:00Z,45.0,37.35,17.0,17.0,140,4,,3.73,29.822834,,,,,,,,,,,,,,,,,,,,,,,,,,,,,,,METAR,41.0
UOOO 300400Z 09004MPS CAVOK 05/00 Q1026 R01/CLRD60 NOSIG RMK QFE755/1006,UOOO,2023-05-30T04:00:00Z,69.32,87.33,5.0,0.0,90,8,,6.21,30.295275,,,,,,TRUE,,,,,CAVOK,,,,,,,,VFR,,,,,,,,,,,,METAR,177.0
UNWW 300400Z VRB03MPS 9999 SCT040 18/04 Q1017 R01/09//55 NOSIG RMK QFE736,UNWW,2023-05-30T04:00:00Z,53.82,86.88,18.0,4.0,0,6,,6.21,30.029528,,,,,,TRUE,,,,,SCT,4000,,,,,,,VFR,,,,,,,,,,,,METAR,307.0
UNTT 300400Z 31002MPS 240V020 CAVOK 21/03 Q1018 R03/090060 NOSIG RMK QFE747,UNTT,2023-05-30T04:00:00Z,56.38,85.22,21.0,3.0,310,4,,6.21,30.059055,,,,,,TRUE,,,,,CAVOK,,,,,,,,VFR,,,,,,,,,,,,METAR,179.0
UNOO 300400Z 14007MPS 8000 -SHRA SCT010 BKN023CB 12/10 Q1020 R25/290050 NOSIG RMK QFE757,UNOO,2023-05-30T04:00:00Z,54.97,73.32,12.0,10.0,140,14,,4.97,30.11811,,,,,,TRUE,,,,-SHRA,SCT,1000,BKN,2300,,,,,MVFR,,,,,,,,,,,,METAR,85.0
UNNT 300400Z 34004MPS CAVOK 19/06 Q1019 R25/090070 R34/090070 NOSIG RMK QFE755/1006,UNNT,2023-05-30T04:00:00Z,55.02,82.65,19.0,6.0,340,8,,6.21,30.088583,,,,,,TRUE,,,,,CAVOK,,,,,,,,VFR,,,,,,,,,,,,METAR,106.0
UNKL 300400Z 04003MPS 8000 -SHRA BKN007 BKN021CB 10/10 Q1015 R11/290150 NOSIG RMK QFE736,UNKL,2023-05-30T04:00:00Z,56.17,92.48,10.0,10.0,40,6,,4.97,29.970472,,,,,,TRUE,,,,-SHRA,BKN,700,BKN,2100,,,,,IFR,,,,,,,,,,,,METAR,278.0
UNEE 300400Z 28005MPS CAVOK 19/05 Q1016 R23/CLRD60 NOSIG RMK QFE739,UNEE,2023-05-30T04:00:00Z,55.27,86.1,19.0,5.0,280,10,,6.21,30.0,,,,,,TRUE,,,,,CAVOK,,,,,,,,VFR,,,,,,,,,,,,METAR,261.0
UNBB 300400Z 02003MPS 9999 SCT040CB 15/07 Q1019 R24/CLRD66 NOSIG RMK QFE742,UNBB,2023-05-30T04:00:00Z,53.37,83.53,15.0,7.0,20,6,,6.21,30.088583,,,,,,TRUE,,,,,SCT,4000,,,,,,,VFR,,,,,,,,,,,,METAR,249.0
UNAA 300400Z 21003MPS 9999 -SHRA BKN032CB 11/09 Q1015 R20/290154 NOSIG RMK QFE739,UNAA,2023-05-30T04:00:00Z,53.75,91.4,11.0,9.0,210,6,,6.21,29.970472,,,,,,TRUE,,,,-SHRA,BKN,3200,,,,,,,VFR,,,,,,,,,,,,METAR,249.0
UMMS 300400Z VRB01MPS CAVOK 14/07 Q1017 NOSIG,UMMS,2023-05-30T04:00:00Z,53.88,28.03,14.0,7.0,0,2,,6.21,30.029528,,,,,,TRUE,,,,,CAVOK,,,,,,,,VFR,,,,,,,,,,,,METAR,196.0
UMMG 300400Z 33003G06MPS CAVOK 12/07 Q1019 NOSIG,UMMG,2023-05-30T04:00:00Z,53.6,24.05,12.0,7.0,330,6,12,6.21,30.088583,,,,,,TRUE,,,,,CAVOK,,,,,,,,VFR,,,,,,,,,,,,METAR,125.0
UMKK 300400Z 29003MPS CAVOK 11/10 Q1020 R24/95D NOSIG RMK QFE764/1019,UMKK,2023-05-30T04:00:00Z,54.88,20.57,11.0,10.0,290,6,,6.21,30.11811,,,,,,TRUE,,,,,CAVOK,,,,,,,,VFR,,,,,,,,,,,,METAR,6.0
UMIO 300400Z 15001MPS CAVOK 12/06 Q1017 NOSIG RMK QFE745/0994,UMIO,2023-05-30T04:00:00Z,54.43,30.3,12.0,6.0,150,2,,6.21,30.029528,,,,,,TRUE,,,,,CAVOK,,,,,,,,VFR,,,,,,,,,,,,METAR,189.0
UMGG 300400Z VRB01MPS CAVOK 11/08 Q1018 NOSIG,UMGG,2023-05-30T04:00:00Z,52.53,31.02,11.0,8.0,0,2,,6.21,30.059055,,,,,,TRUE,,,,,CAVOK,,,,,,,,VFR,,,,,,,,,,,,METAR,135.0
UMBB 300400Z 29001MPS 7000 NSC 11/08 Q1017 NOSIG,UMBB,2023-05-30T04:00:00Z,52.12,23.9,11.0,8.0,290,2,,4.35,30.029528,,,,,,TRUE,,,,,CLR,,,,,,,,MVFR,,,,,,,,,,,,METAR,138.0
ULWC 300400Z 00000MPS 9999 FEW033 13/09 Q1018 R21/190060 NOSIG RMK QFE753/1004,ULWC,2023-05-30T04:00:00Z,59.28,38.02,13.0,9.0,0,0,,6.21,30.059055,,,,,,TRUE,,,,,FEW,3300,,,,,,,VFR,,,,,,,,,,,,METAR,113.0
ULPB 300400Z VRB01MPS CAVOK 10/04 Q1015 NOSIG RMK QFE757/1010,ULPB,2023-05-30T04:00:00Z,61.88,34.15,10.0,4.0,0,2,,6.21,29.970472,,,,,,TRUE,,,,,CAVOK,,,,,,,,VFR,,,,,,,,,,,,METAR,41.0
ULOO 300400Z 35002MPS 310V030 9999 OVC048 08/05 Q1018 R01/090060 NOSIG RMK QFE759,ULOO,2023-05-30T04:00:00Z,57.78,28.4,8.0,5.0,350,4,,6.21,30.059055,,,,,,TRUE,,,,,OVC,4800,,,,,,,VFR,,,,,,,,,,,,METAR,46.0
ULMM 300400Z 20002MPS 160V240 9000 -SHRA BKN026CB 05/05 Q1010 R13/250065 NOSIG RMK QFE751,ULMM,2023-05-30T04:00:00Z,68.78,32.75,5.0,5.0,200,4,,5.59,29.822834,,,,,,TRUE,,,,-SHRA,BKN,2600,,,,,,,MVFR,,,,,,,,,,,,METAR,79.0
ULLI 300400Z 24004MPS 210V300 CAVOK 09/05 Q1016 R28R/090060 NOSIG,ULLI,2023-05-30T04:00:00Z,59.8,30.27,9.0,5.0,240,8,,6.21,30.0,,,,,,TRUE,,,,,CAVOK,,,,,,,,VFR,,,,,,,,,,,,METAR,25.0
UIUU 300400Z 08007MPS 9999 FEW050 21/M02 Q1009 R08/60D NOSIG RMK QFE711/0949,UIUU,2023-05-30T04:00:00Z,51.8,107.45,21.0,-2.0,80,14,,6.21,29.793306,,,,,,TRUE,,,,,FEW,5000,,,,,,,VFR,,,,,,,,,,,,METAR,508.0
UIII 300400Z 28005MPS CAVOK 19/02 Q1008 R30/60D NOSIG RMK QFE711/0949,UIII,2023-05-30T04:00:00Z,52.27,104.37,19.0,2.0,280,10,,6.21,29.763779,,,,,,TRUE,,,,,CAVOK,,,,,,,,VFR,,,,,,,,,,,,METAR,480.0
UIBB 300400Z 08006MPS 050V110 9999 NSC 19/03 Q1012 R12/60D NOSIG RMK QFE716/0955,UIBB,2023-05-30T04:00:00Z,56.37,101.7,19.0,3.0,80,12,,6.21,29.88189,,,,,,TRUE,,,,,CLR,,,,,,,,VFR,,,,,,,,,,,,METAR,485.0
UIAA 300400Z 05003MPS 020V100 9999 NSC 21/M01 Q1012 R29/70D NOSIG RMK QFE700/0934,UIAA,2023-05-30T04:00:00Z,52.02,113.32,21.0,-1.0,50,6,,6.21,29.88189,,,,,,TRUE,,,,,CLR,,,,,,,,VFR,,,,,,,,,,,,METAR,650.0
UHWW 300400Z 34004MPS 280V010 9999 NSC 21/06 Q1011 R07R/0///70 NOSIG RMK QFE757,UHWW,2023-05-30T04:00:00Z,43.4,132.15,21.0,6.0,340,8,,6.21,29.852362,,,,,,TRUE,,,,,CLR,,,,,,,,VFR,,,,,,,,,,,,METAR,11.0
UHSS 300400Z 29009MPS 9999 NSC 15/03 Q1003 R01/70D NOSIG RMK QFE751/1002,UHSS,2023-05-30T04:00:00Z,46.88,142.72,15.0,3.0,290,17,,6.21,29.616142,,,,,,TRUE,,,,,CLR,,,,,,,,VFR,,,,,,,,,,,,METAR,14.0
UHPP 300400Z 16002MPS 090V210 9999 -SHRA FEW011 BKN029CB 08/07 Q1013 R16R/290242 NOSIG RMK MT OBSC QFE757/1009,UHPP,2023-05-30T04:00:00Z,53.17,158.45,8.0,7.0,160,4,,6.21,29.911417,,,,,,TRUE,,,,-SHRA,FEW,1100,BKN,2900,,,,,MVFR,,,,,,,,,,,,METAR,33.0
UHMM 300400Z 08005MPS 9999 BKN040CB 18/03 Q1013 R10/CLRD70 NOSIG RMK QFE745 R28/12006MPS,UHMM,2023-05-30T04:00:00Z,59.92,150.72,18.0,3.0,80,10,,6.21,29.911417,,,,,,TRUE,,,,,BKN,4000,,,,,,,VFR,,,,,,,,,,,,METAR,175.0
UHMD 300400Z 36007MPS 9999 -SHSN BKN030CB BKN070 01/M04 Q1007 RMK QFE754/1005,UHMD,2023-05-30T04:00:00Z,64.38,-173.23,1.0,-4.0,360,14,,6.21,29.734253,,,,,,,,,,-SHSN,BKN,3000,BKN,7000,,,,,MVFR,,,,,,,,,,,,METAR,40.0
UHMA 300400Z 33010MPS 9999 SCT039 06/M03 Q1013 R01/70D NOSIG RMK MID 33011G14MPS END R01/33011G14MPS QFE756/1008,UHMA,2023-05-30T04:00:00Z,64.73,177.73,6.0,-3.0,330,19,,6.21,29.911417,,,,,,TRUE,,,,,SCT,3900,,,,,,,VFR,,,,,,,,,,,,METAR,53.0
UHHH 300400Z 32003MPS 240V050 CAVOK 16/02 Q1010 R88/090060 NOSIG RMK QFE751/1002,UHHH,2023-05-30T04:00:00Z,48.52,135.18,16.0,2.0,320,6,,6.21,29.822834,,,,,,TRUE,,,,,CAVOK,,,,,,,,VFR,,,,,,,,,,,,METAR,74.0
UHBB 300400Z 32005MPS 280V350 9999 FEW033 20/M01 Q1013 R36/090060 NOSIG RMK QFE742/0990,UHBB,2023-05-30T04:00:00Z,50.43,127.42,20.0,-1.0,320,10,,6.21,29.911417,,,,,,TRUE,,,,,FEW,3300,,,,,,,VFR,,,,,,,,,,,,METAR,185.0
UGTB 300400Z 33007KT CAVOK 21/17 Q1013 NOSIG,UGTB,2023-05-30T04:00:00Z,41.67,44.95,21.0,17.0,330,7,,6.21,29.911417,,,,,,TRUE,,,,,CAVOK,,,,,,,,VFR,,,,,,,,,,,,METAR,468.0
UGSB 300400Z 36003KT 340V040 9999 FEW030 21/18 Q1009 NOSIG,UGSB,2023-05-30T04:00:00Z,41.62,41.6,21.0,18.0,360,3,,6.21,29.793306,,,,,,TRUE,,,,,FEW,3000,,,,,,,VFR,,,,,,,,,,,,METAR,32.0
UGMS 300400Z VRB02KT 9999 BKN080CB 12/11 Q1018,UGMS,2023-05-30T04:00:00Z,43.05,42.75,12.0,11.0,0,2,,6.21,30.059055,,,,,,,,,,,BKN,8000,,,,,,,VFR,,,,,,,,,,,,METAR,1442.0
UGKO 300400Z VRB02KT CAVOK 20/18 Q1009 NOSIG,UGKO,2023-05-30T04:00:00Z,42.18,42.48,20.0,18.0,0,2,,6.21,29.793306,,,,,,TRUE,,,,,CAVOK,,,,,,,,VFR,,,,,,,,,,,,METAR,44.0
UGAM 300400Z AUTO 29004KT //// ////// 18/17 Q1013,UGAM,2023-05-30T04:00:00Z,42.53,43.13,18.0,17.0,290,4,,,29.911417,,,TRUE,,,,,,,,,,,,,,,,,,,,,,,,,,,,METAR,544.0
UERR 300400Z VRB01MPS 9999 SCT033CB 17/M02 Q1018 R25/CLRD60 NOSIG RMK QFE732/0976,UERR,2023-05-30T04:00:00Z,62.53,114.05,17.0,-2.0,0,2,,6.21,30.059055,,,,,,TRUE,,,,,SCT,3300,,,,,,,VFR,,,,,,,,,,,,METAR,352.0
UERP 300400Z 33004G09MPS 9999 SCT040 BKN100 13/00 Q1019 R35/090060 NOSIG RMK QFE720,UERP,2023-05-30T04:00:00Z,66.4,112.03,13.0,0.0,330,8,17,6.21,30.088583,,,,,,TRUE,,,,,SCT,4000,BKN,10000,,,,,VFR,,,,,,,,,,,,METAR,514.0
UEEE 300400Z 01005MPS 330V040 CAVOK 21/M02 Q1013 R05/09//60 NOSIG RMK QFE751,UEEE,2023-05-30T04:00:00Z,62.08,129.77,21.0,-2.0,10,10,,6.21,29.911417,,,,,,TRUE,,,,,CAVOK,,,,,,,,VFR,,,,,,,,,,,,METAR,106.0
UDYZ 300400Z 16001KT 6000 NSC 17/16 Q1015 NOSIG,UDYZ,2023-05-30T04:00:00Z,40.15,44.4,17.0,16.0,160,1,,3.73,29.970472,,,,,,TRUE,,,,,CLR,,,,,,,,MVFR,,,,,,,,,,,,METAR,851.0
UDSG 300400Z 13002KT 9999 SCT040CB BKN049 13/12 Q1020 NOSIG,UDSG,2023-05-30T04:00:00Z,40.75,43.87,13.0,12.0,130,2,,6.21,30.11811,,,,,,TRUE,,,,,SCT,4000,BKN,4900,,,,,VFR,,,,,,,,,,,,METAR,1515.0
UCFO 300400Z 28003MPS 230V350 CAVOK 27/04 Q1016 NOSIG,UCFO,2023-05-30T04:00:00Z,40.6,72.8,27.0,4.0,280,6,,6.21,30.0,,,,,,TRUE,,,,,CAVOK,,,,,,,,VFR,,,,,,,,,,,,METAR,881.0
UCFM 300400Z 08002MPS 350V130 CAVOK 22/03 Q1019 NOSIG,UCFM,2023-05-30T04:00:00Z,43.07,74.48,22.0,3.0,80,4,,6.21,30.088583,,,,,,TRUE,,,,,CAVOK,,,,,,,,VFR,,,,,,,,,,,,METAR,632.0
UCFL 300400Z 14004MPS 9999 NSC 16/03 Q1025,UCFL,2023-05-30T04:00:00Z,42.58,76.7,16.0,3.0,140,8,,6.21,30.265747,,,,,,,,,,,CLR,,,,,,,,VFR,,,,,,,,,,,,METAR,1654.0
UBEE 300400Z 33003KT CAVOK 24/20 Q1009 NOSIG RMK FEW100 AC,UBEE,2023-05-30T04:00:00Z,40.63,47.13,24.0,20.0,330,3,,6.21,29.793306,,,,,,TRUE,,,,,CAVOK,,,,,,,,VFR,,,,,,,,,,,,METAR,14.0
UBBZ 300400Z AUTO 18008KT 9999 // ///////// 23/17 Q1013,UBBZ,2023-05-30T04:00:00Z,39.1,46.73,23.0,17.0,180,8,,6.21,29.911417,,,TRUE,,,,,,,,,,,,,,,,,,,,,,,,,,,,METAR,489.0
UBBY 300400Z 00000KT 9999 BKN100 23/18 Q1014 NOSIG RMK MT OP,UBBY,2023-05-30T04:00:00Z,41.57,46.67,23.0,18.0,0,0,,6.21,29.940945,,,,,,TRUE,,,,,BKN,10000,,,,,,,VFR,,,,,,,,,,,,METAR,383.0
UBBQ 300400Z 14003KT 9999 NSC 24/16 Q1011 NOSIG RMK MT OP,UBBQ,2023-05-30T04:00:00Z,40.82,47.72,24.0,16.0,140,3,,6.21,29.852362,,,,,,TRUE,,,,,CLR,,,,,,,,VFR,,,,,,,,,,,,METAR,339.0
UBBN 300400Z VRB02KT 9999 FEW046 SCT100 19/16 Q1014 NOSIG RMK MT OP QFE686,UBBN,2023-05-30T04:00:00Z,39.18,45.45,19.0,16.0,0,2,,6.21,29.940945,,,,,,TRUE,,,,,FEW,4600,SCT,10000,,,,,VFR,,,,,,,,,,,,METAR,857.0
UBBL 300400Z 00000KT 9999 SCT070 26/22 Q1010 NOSIG RMK MT OP,UBBL,2023-05-30T04:00:00Z,38.75,48.82,26.0,22.0,0,0,,6.21,29.822834,,,,,,TRUE,,,,,SCT,7000,,,,,,,VFR,,,,,,,,,,,,METAR,-11.0
UBBF 300400Z AUTO VRB02KT 9999 // ///////// 25/18 Q1011,UBBF,2023-05-30T04:00:00Z,39.6,47.2,25.0,18.0,0,2,,6.21,29.852362,,,TRUE,,,,,,,,,,,,,,,,,,,,,,,,,,,,METAR,370.0
UBBB 300400Z VRB02KT CAVOK 27/16 Q1009 NOSIG,UBBB,2023-05-30T04:00:00Z,40.47,50.07,27.0,16.0,0,2,,6.21,29.793306,,,,,,TRUE,,,,,CAVOK,,,,,,,,VFR,,,,,,,,,,,,METAR,94.0
UAUU 300400Z 25002MPS 210V290 CAVOK 25/12 Q1022 NOSIG RMK QFE750/1000,UAUU,2023-05-30T04:00:00Z,53.2,63.55,25.0,12.0,250,4,,6.21,30.177166,,,,,,TRUE,,,,,CAVOK,,,,,,,,VFR,,,,,,,,,,,,METAR,177.0
UATT 300400Z 16004MPS CAVOK 24/06 Q1022 NOSIG RMK QFE747/0996,UATT,2023-05-30T04:00:00Z,50.25,57.2,24.0,6.0,160,8,,6.21,30.177166,,,,,,TRUE,,,,,CAVOK,,,,,,,,VFR,,,,,,,,,,,,METAR,217.0
UATG 300400Z 13009MPS CAVOK 28/05 Q1013 NOSIG RMK QFE761/1015,UATG,2023-05-30T04:00:00Z,47.12,51.83,28.0,5.0,130,17,,6.21,29.911417,,,,,,TRUE,,,,,CAVOK,,,,,,,,VFR,,,,,,,,,,,,METAR,-23.0
UATE 300400Z 14009MPS CAVOK 30/02 Q1010 NOSIG RMK QFE755/1007,UATE,2023-05-30T04:00:00Z,43.87,51.1,30.0,2.0,140,17,,6.21,29.822834,,,,,,TRUE,,,,,CAVOK,,,,,,,,VFR,,,,,,,,,,,,METAR,21.0
UASS 300400Z 35008MPS CAVOK 21/05 Q1016 NOSIG RMK QFE744/0992,UASS,2023-05-30T04:00:00Z,50.35,80.23,21.0,5.0,350,16,,6.21,30.0,,,,,,TRUE,,,,,CAVOK,,,,,,,,VFR,,,,,,,,,,,,METAR,215.0
UASP 300400Z 05006MPS CAVOK 19/04 Q1020 NOSIG RMK QFE754/1006,UASP,2023-05-30T04:00:00Z,52.2,77.07,19.0,4.0,50,12,,6.21,30.11811,,,,,,TRUE,,,,,CAVOK,,,,,,,,VFR,,,,,,,,,,,,METAR,122.0
UASK 300400Z 11006MPS 9999 SCT037CB BKN110 15/09 Q1016 NOSIG RMK QFE737/0982,UASK,2023-05-30T04:00:00Z,50.03,82.5,15.0,9.0,110,12,,6.21,30.0,,,,,,TRUE,,,,,SCT,3700,BKN,11000,,,,,VFR,,,,,,,,,,,,METAR,285.0
UARR 300400Z 14006MPS 9999 SCT050CB 24/03 Q1015 TEMPO VRB13MPS TS RMK QFE757/1010,UARR,2023-05-30T04:00:00Z,51.15,51.53,24.0,3.0,140,12,,6.21,29.970472,,,,,,,,,,,SCT,5000,,,,,,,VFR,,,,,,,,,,,,METAR,33.0
UAOO 300400Z 08009G14MPS CAVOK 25/M03 Q1020 NOSIG RMK QFE753/1004,UAOO,2023-05-30T04:00:00Z,44.7,65.6,25.0,-3.0,80,17,27,6.21,30.11811,,,,,,TRUE,,,,,CAVOK,,,,,,,,VFR,,,,,,,,,,,,METAR,130.0
UAKK 300400Z 02005MPS 300V060 CAVOK 24/07 Q1022 NOSIG RMK QFE719/0959,UAKK,2023-05-30T04:00:00Z,49.68,73.35,24.0,7.0,20,10,,6.21,30.177166,,,,,,TRUE,,,,,CAVOK,,,,,,,,VFR,,,,,,,,,,,,METAR,532.0
UAKD 300400Z 04003MPS 340V080 CAVOK 26/05 Q1022 NOSIG RMK QFE733/0977,UAKD,2023-05-30T04:00:00Z,47.7,67.73,26.0,5.0,40,6,,6.21,30.177166,,,,,,TRUE,,,,,CAVOK,,,,,,,,VFR,,,,,,,,,,,,METAR,379.0
UAIT 300400Z 08014MPS CAVOK 25/M05 Q1016 NOSIG RMK QFE737/0982,UAIT,2023-05-30T04:00:00Z,43.32,68.55,25.0,-5.0,80,27,,6.21,30.0,,,,,,TRUE,,,,,CAVOK,,,,,,,,VFR,,,,,,,,,,,,METAR,301.0
UAII 300400Z 08007MPS CAVOK 27/M01 Q1014 NOSIG RMK QFE725/0967,UAII,2023-05-30T04:00:00Z,42.37,69.48,27.0,-1.0,80,14,,6.21,29.940945,,,,,,TRUE,,,,,CAVOK,,,,,,,,VFR,,,,,,,,,,,,METAR,410.0
UADD 300400Z 32002MPS 260V360 9999 NSC 17/M01 Q1020 NOSIG RMK QFE708/0944,UADD,2023-05-30T04:00:00Z,42.85,71.3,17.0,-1.0,320,4,,6.21,30.11811,,,,,,TRUE,,,,,CLR,,,,,,,,VFR,,,,,,,,,,,,METAR,663.0
UACP 300400Z VRB01MPS CAVOK 26/10 Q1017 NOSIG RMK QFE750/1001,UACP,2023-05-30T04:00:00Z,54.78,69.18,26.0,10.0,0,2,,6.21,30.029528,,,,,,TRUE,,,,,CAVOK,,,,,,,,VFR,,,,,,,,,,,,METAR,134.0
UACK 300400Z 31006MPS CAVOK 28/06 Q1019 NOSIG RMK QFE740/0987,UACK,2023-05-30T04:00:00Z,53.32,69.58,28.0,6.0,310,12,,6.21,30.088583,,,,,,TRUE,,,,,CAVOK,,,,,,,,VFR,,,,,,,,,,,,METAR,261.0
UACC 300400Z 27003MPS 220V330 CAVOK 27/10 Q1021 NOSIG RMK QFE734/0979,UACC,2023-05-30T04:00:00Z,51.02,71.47,27.0,10.0,270,6,,6.21,30.147638,,,,,,TRUE,,,,,CAVOK,,,,,,,,VFR,,,,,,,,,,,,METAR,354.0
UAAT 300400Z 22002MPS 9999 FEW200 21/02 Q1021 NOSIG RMK QFE714/0953,UAAT,2023-05-30T04:00:00Z,45.12,78.45,21.0,2.0,220,4,,6.21,30.147638,,,,,,TRUE,,,,,FEW,20000,,,,,,,VFR,,,,,,,,,,,,METAR,588.0
UAAH 300400Z 30006MPS 260V330 CAVOK 24/M02 Q1022 NOSIG RMK QFE727/0970,UAAH,2023-05-30T04:00:00Z,46.9,75.0,24.0,-2.0,300,12,,6.21,30.177166,,,,,,TRUE,,,,,CAVOK,,,,,,,,VFR,,,,,,,,,,,,METAR,427.0
UAAA 300400Z VRB01MPS 9999 NSC 19/03 Q1022 NOSIG,UAAA,2023-05-30T04:00:00Z,43.35,77.03,19.0,3.0,0,2,,6.21,30.177166,,,,,,TRUE,,,,,CLR,,,,,,,,VFR,,,,,,,,,,,,METAR,673.0
TNCM 300400Z 09007KT 9999 -SHRA VCSH SCT015TCU 27/24 Q1015 RMK TCU NE/ VCSH NE/ SE,TNCM,2023-05-30T04:00:00Z,18.05,-63.12,27.0,24.0,90,7,,6.21,29.970472,,,,,,,,,,-SHRA VCSH,SCT,1500,,,,,,,VFR,,,,,,,,,,,,METAR,9.0
TNCC 300400Z 10008KT 9999 SCT016 27/25 Q1012 NOSIG,TNCC,2023-05-30T04:00:00Z,12.2,-68.97,27.0,25.0,100,8,,6.21,29.88189,,,,,,TRUE,,,,,SCT,1600,,,,,,,VFR,,,,,,,,,,,,METAR,10.0
TLPL 300400Z 10015KT 9999 FEW025 BKN042 27/23 Q1013 NOSIG,TLPL,2023-05-30T04:00:00Z,13.75,-60.95,27.0,23.0,100,15,,6.21,29.911417,,,,,,TRUE,,,,,FEW,2500,BKN,4200,,,,,VFR,,,,,,,,,,,,METAR,13.0
TFFR 300400Z AUTO 10003KT 9999 ///TCU 25/23 Q1014 TEMPO 4000 SHRA,TFFR,2023-05-30T04:00:00Z,16.27,-61.53,25.0,23.0,100,3,,6.21,29.940945,,,TRUE,,,,,,,,,,,,,,,,,,,,,,,,,,,,METAR,6.0
TFFF 300400Z AUTO 11004KT 9999 FEW024 27/23 Q1013 TEMPO 4000 SHRA SCT020TCU,TFFF,2023-05-30T04:00:00Z,14.6,-61.0,27.0,23.0,110,4,,6.21,29.911417,,,TRUE,,,,,,,,FEW,2400,,,,,,,VFR,,,,,,,,,,,,METAR,3.0
TBPB 300400Z 03009KT 9999 VCSH BKN018 27/24 Q1012 NOSIG,TBPB,2023-05-30T04:00:00Z,13.07,-59.48,27.0,24.0,30,9,,6.21,29.88189,,,,,,TRUE,,,,VCSH,BKN,1800,,,,,,,MVFR,,,,,,,,,,,,METAR,55.0
TAPA 300400Z 10008KT 050V140 9999 SCT018 SCT036 27/22 Q1014 NOSIG,TAPA,2023-05-30T04:00:00Z,17.13,-61.78,27.0,22.0,100,8,,6.21,29.940945,,,,,,TRUE,,,,,SCT,1800,SCT,3600,,,,,VFR,,,,,,,,,,,,METAR,15.0
SYCJ 300400Z 09004KT 9999 SCT015 SCT034 BKN080 24/24 Q1012 NOSIG,SYCJ,2023-05-30T04:00:00Z,6.5,-58.25,24.0,24.0,90,4,,6.21,29.88189,,,,,,TRUE,,,,,SCT,1500,SCT,3400,BKN,8000,,,VFR,,,,,,,,,,,,METAR,30.0
SVMI 300400Z 00000KT 9999 SCT016 26/23 Q1012,SVMI,2023-05-30T04:00:00Z,10.6,-67.0,26.0,23.0,0,0,,6.21,29.88189,,,,,,,,,,,SCT,1600,,,,,,,VFR,,,,,,,,,,,,METAR,48.0
SULS 300400Z 30006KT CAVOK 06/06 Q1024,SULS,2023-05-30T04:00:00Z,-34.87,-55.1,6.0,6.0,300,6,,6.21,30.236221,,,,,,,,,,,CAVOK,,,,,,,,VFR,,,,,,,,,,,,METAR,22.0
SPZO 300400Z 26003KT 210V290 9999 NSC 07/04 Q1032 NOSIG RMK BIRD HAZARD RWY 10/28 PP000,SPZO,2023-05-30T04:00:00Z,-13.55,-71.93,7.0,4.0,260,3,,6.21,30.47244,,,,,,TRUE,,,,,CLR,,,,,,,,VFR,,,,,,,,,,,,METAR,3249.0
SPUR 300400Z 16005KT CAVOK 23/21 Q1014 RMK BIRD HAZARD RWY 19/01 PP000,SPUR,2023-05-30T04:00:00Z,-5.17,-80.58,23.0,21.0,160,5,,6.21,29.940945,,,,,,,,,,,CAVOK,,,,,,,,VFR,,,,,,,,,,,,METAR,55.0
SPSO 300400Z 00000KT 7000 NSC 17/13 Q1015 RMK PP000,SPSO,2023-05-30T04:00:00Z,-13.73,-76.22,17.0,13.0,0,0,,4.35,29.970472,,,,,,,,,,,CLR,,,,,,,,MVFR,,,,,,,,,,,,METAR,8.0
SPRU 300400Z 14006KT 6000 BCFG BKN020 22/20 Q1014 RMK PP000,SPRU,2023-05-30T04:00:00Z,-8.08,-79.12,22.0,20.0,140,6,,3.73,29.940945,,,,,,,,,,BCFG,BKN,2000,,,,,,,MVFR,,,,,,,,,,,,METAR,23.0
SPQT 300400Z VRB01KT CAVOK 25/24 Q1011 NOSIG RMK PP000,SPQT,2023-05-30T04:00:00Z,-3.78,-73.32,25.0,24.0,0,1,,6.21,29.852362,,,,,,TRUE,,,,,CAVOK,,,,,,,,VFR,,,,,,,,,,,,METAR,92.0
SPJC 300400Z 14010KT 9999 OVC020 22/17 Q1014 NOSIG RMK PP000,SPJC,2023-05-30T04:00:00Z,-12.02,-77.12,22.0,17.0,140,10,,6.21,29.940945,,,,,,TRUE,,,,,OVC,2000,,,,,,,MVFR,,,,,,,,,,,,METAR,26.0
SPHI 300400Z 17014KT CAVOK 23/20 Q1013 RMK BIRD HAZARD RWY 19/01 PP000,SPHI,2023-05-30T04:00:00Z,-6.78,-79.82,23.0,20.0,170,14,,6.21,29.911417,,,,,,,,,,,CAVOK,,,,,,,,VFR,,,,,,,,,,,,METAR,33.0
SOCA 300400Z AUTO 00000KT CAVOK 24/24 Q1012 TEMPO 2500 SHRA SCT002 FEW012CB BKN015TCU,SOCA,2023-05-30T04:00:00Z,4.82,-52.37,24.0,24.0,0,0,,6.21,29.88189,,,TRUE,,,,,,,,CAVOK,,,,,,,,VFR,,,,,,,,,,,,METAR,7.0
SMJP 300400Z 18002KT 9999 FEW006 SCT020 24/24 Q1012 NOSIG,SMJP,2023-05-30T04:00:00Z,5.45,-55.18,24.0,24.0,180,2,,6.21,29.88189,,,,,,TRUE,,,,,FEW,600,SCT,2000,,,,,VFR,,,,,,,,,,,,METAR,14.0
SLVR 300400Z 18012KT 3000 -RA BKN008 BKN017 OVC070 16/15 Q1018,SLVR,2023-05-30T04:00:00Z,-17.63,-63.13,16.0,15.0,180,12,,1.86,30.059055,,,,,,,,,,-RA,BKN,800,BKN,1700,OVC,7000,,,IFR,,,,,,,,,,,,METAR,377.0
SLLP 300400Z 30006KT 9999 NSC 03/M14 Q1040,SLLP,2023-05-30T04:00:00Z,-16.52,-68.17,3.0,-14.0,300,6,,6.21,30.708662,,,,,,,,,,,CLR,,,,,,,,VFR,,,,,,,,,,,,METAR,4061.0
SLCB 300400Z 02003KT 9999 FEW033 SCT200 11/04 Q1024,SLCB,2023-05-30T04:00:00Z,-17.42,-66.18,11.0,4.0,20,3,,6.21,30.236221,,,,,,,,,,,FEW,3300,SCT,20000,,,,,VFR,,,,,,,,,,,,METAR,2560.0
SKSP 300400Z 15004KT 080V180 9999 BKN017 28/25 Q1011 RMK A2987,SKSP,2023-05-30T04:00:00Z,12.58,-81.72,28.0,25.0,150,4,,6.21,29.852362,,,,,,,,,,,BKN,1700,,,,,,,MVFR,,,,,,,,,,,,METAR,6.0
SKSM 300400Z 03005KT 9999 FEW020 BKN070 28/24 Q1011 RMK A2987,SKSM,2023-05-30T04:00:00Z,11.12,-74.22,28.0,24.0,30,5,,6.21,29.852362,,,,,,,,,,,FEW,2000,BKN,7000,,,,,VFR,,,,,,,,,,,,METAR,5.0
SKRG 300400Z 01005KT 5000 -RA BKN008TCU BKN080 14/14 Q1027 NOSIG RMK TCU/S A3033,SKRG,2023-05-30T04:00:00Z,6.17,-75.42,14.0,14.0,10,5,,3.11,30.324802,,,,,,TRUE,,,,-RA,BKN,800,BKN,8000,,,,,IFR,,,,,,,,,,,,METAR,2132.0
SKPE 300400Z VRB02KT 9999 SCT018 SCT080 21/18 Q1019 RMK A3010,SKPE,2023-05-30T04:00:00Z,4.82,-75.73,21.0,18.0,0,2,,6.21,30.088583,,,,,,,,,,,SCT,1800,SCT,8000,,,,,VFR,,,,,,,,,,,,METAR,1341.0
SKLT 300400Z 00000KT 9999 FEW017 25/25 Q1012 RMK A2988,SKLT,2023-05-30T04:00:00Z,-4.2,-69.93,25.0,25.0,0,0,,6.21,29.88189,,,,,,,,,,,FEW,1700,,,,,,,VFR,,,,,,,,,,,,METAR,78.0
SKCL 300400Z 05004KT 9999 FEW030 SCT230 20/18 Q1017 NOSIG RMK A3004,SKCL,2023-05-30T04:00:00Z,3.53,-76.37,20.0,18.0,50,4,,6.21,30.029528,,,,,,TRUE,,,,,FEW,3000,SCT,23000,,,,,VFR,,,,,,,,,,,,METAR,967.0
SKCG 300400Z 05004KT 010V080 9999 FEW015 BKN200 28/26 Q1010 RMK A2983,SKCG,2023-05-30T04:00:00Z,10.43,-75.52,28.0,26.0,50,4,,6.21,29.822834,,,,,,,,,,,FEW,1500,BKN,20000,,,,,VFR,,,,,,,,,,,,METAR,6.0
SKCC 300400Z VRB02KT 9999 SCT018 SCT070 24/24 Q1013 RMK A2993,SKCC,2023-05-30T04:00:00Z,7.92,-72.52,24.0,24.0,0,2,,6.21,29.911417,,,,,,,,,,,SCT,1800,SCT,7000,,,,,VFR,,,,,,,,,,,,METAR,308.0
SKBQ 300400Z 01003KT 320V050 9999 FEW012 28/26 Q1010 NOSIG RMK A2985,SKBQ,2023-05-30T04:00:00Z,10.87,-74.77,28.0,26.0,10,3,,6.21,29.822834,,,,,,TRUE,,,,,FEW,1200,,,,,,,VFR,,,,,,,,,,,,METAR,23.0
SKBO 300400Z 32003KT 9999 SCT020 SCT070 12/11 Q1028 NOSIG RMK A3037,SKBO,2023-05-30T04:00:00Z,4.7,-74.15,12.0,11.0,320,3,,6.21,30.35433,,,,,,TRUE,,,,,SCT,2000,SCT,7000,,,,,VFR,,,,,,,,,,,,METAR,2547.0
SKBG 300400Z 00000KT 9999 FEW010 BKN070 20/18 Q1016 RMK A3002,SKBG,2023-05-30T04:00:00Z,7.13,-73.18,20.0,18.0,0,0,,6.21,30.0,,,,,,,,,,,FEW,1000,BKN,7000,,,,,VFR,,,,,,,,,,,,METAR,1187.0
SKAR 300400Z 00000KT 9999 -DZ SCT020 SCT080 20/20 Q1018 RMK A3007,SKAR,2023-05-30T04:00:00Z,4.45,-75.77,20.0,20.0,0,0,,6.21,30.059055,,,,,,,,,,-DZ,SCT,2000,SCT,8000,,,,,VFR,,,,,,,,,,,,METAR,1214.0
SGES 300400Z 00000KT 7000 NSC 17/17 Q1019,SGES,2023-05-30T04:00:00Z,-25.45,-54.85,17.0,17.0,0,0,,4.35,30.088583,,,,,,,,,,,CLR,,,,,,,,MVFR,,,,,,,,,,,,METAR,256.0
SGAS 300400Z 20002KT 9000 NSC 17/16 Q1018,SGAS,2023-05-30T04:00:00Z,-25.25,-57.52,17.0,16.0,200,2,,5.59,30.059055,,,,,,,,,,,CLR,,,,,,,,VFR,,,,,,,,,,,,METAR,83.0
SEQM 300400Z 01004KT 6000 2000S BCFG BKN004 BKN026 14/13 Q1028 TEMPO 4000 RMK A3037,SEQM,2023-05-30T04:00:00Z,-0.12,-78.35,14.0,13.0,10,4,,3.73,30.35433,,,,,,,,,,BCFG,BKN,400,BKN,2600,,,,,LIFR,,,,,,,,,,,,METAR,2386.0
SEMT 300400Z 21007KT 9999 BKN030 26/23 Q1012 RMK A2991,SEMT,2023-05-30T04:00:00Z,-0.95,-80.67,26.0,23.0,210,7,,6.21,29.88189,,,,,,,,,,,BKN,3000,,,,,,,MVFR,,,,,,,,,,,,METAR,13.0
SEGU 300400Z 21008KT 9999 VCSH FEW010 SCT026 BKN100 26/24 Q1011 NOSIG RMK A2988,SEGU,2023-05-30T04:00:00Z,-2.15,-79.88,26.0,24.0,210,8,,6.21,29.852362,,,,,,TRUE,,,,VCSH,FEW,1000,SCT,2600,BKN,10000,,,VFR,,,,,,,,,,,,METAR,6.0
SCVM 300400Z 26003KT CAVOK 09/08 Q1019,SCVM,2023-05-30T04:00:00Z,-32.95,-71.48,9.0,8.0,260,3,,6.21,30.088583,,,,,,,,,,,CAVOK,,,,,,,,VFR,,,,,,,,,,,,METAR,136.0
SCVD 300400Z AUTO 00000KT 4400 BR NCD 05/05 Q1018,SCVD,2023-05-30T04:00:00Z,-39.65,-73.08,5.0,5.0,0,0,,2.73,30.059055,,,TRUE,,,,,,,BR,CLR,,,,,,,,IFR,,,,,,,,,,,,METAR,19.0
SCTN 300400Z AUTO 05005KT 010V080 9999 OVC030 09/09 Q1015,SCTN,2023-05-30T04:00:00Z,-42.92,-72.7,9.0,9.0,50,5,,6.21,29.970472,,,TRUE,,,,,,,,OVC,3000,,,,,,,MVFR,,,,,,,,,,,,METAR,8.0
SCTE 300400Z 02008KT 9999 BKN040 BKN060 09/07 Q1016 NOSIG,SCTE,2023-05-30T04:00:00Z,-41.43,-73.08,9.0,7.0,20,8,,6.21,30.0,,,,,,TRUE,,,,,BKN,4000,BKN,6000,,,,,VFR,,,,,,,,,,,,METAR,85.0
SCSN 300400Z AUTO 08003KT 9999 NCD 07/07 Q1019,SCSN,2023-05-30T04:00:00Z,-33.65,-71.62,7.0,7.0,80,3,,6.21,30.088583,,,TRUE,,,,,,,,CLR,,,,,,,,VFR,,,,,,,,,,,,METAR,73.0
SCSE 300400Z AUTO 28005KT 9999 OVC010/// 13/11 Q1019,SCSE,2023-05-30T04:00:00Z,-29.92,-71.2,13.0,11.0,280,5,,6.21,30.088583,,,TRUE,,,,,,,,OVC,1000,,,,,,,MVFR,,,,,,,,,,,,METAR,141.0
SCQP 300400Z 00000KT CAVOK 05/05 Q1018,SCQP,2023-05-30T04:00:00Z,-38.92,-72.65,5.0,5.0,0,0,,6.21,30.059055,,,,,,,,,,,CAVOK,,,,,,,,VFR,,,,,,,,,,,,METAR,97.0
SCPQ 300400Z AUTO 35007KT 320V020 0550 R35/0750 -RA FG VV001 07/06 Q1014,SCPQ,2023-05-30T04:00:00Z,-42.33,-73.72,7.0,6.0,350,7,,0.34,29.940945,,,TRUE,,,,,,,-RA FG,OVX,0,,,,,,,LIFR,,,,,,,,,,,100,METAR,166.0
SCON 300400Z AUTO 01009KT 9999 -RA BKN009/// BKN035/// OVC085/// 10/09 Q1014,SCON,2023-05-30T04:00:00Z,-43.13,-73.62,10.0,9.0,10,9,,6.21,29.940945,,,TRUE,,,,,,,-RA,BKN,900,BKN,3500,OVC,8500,,,IFR,,,,,,,,,,,,METAR,11.0
SCMK 300400Z AUTO 35017KT //// // OVC006/// 10/10 Q1012,SCMK,2023-05-30T04:00:00Z,-43.9,-73.73,10.0,10.0,350,17,,,29.88189,,,TRUE,,,,,,,,OVC,600,,,,,,,,,,,,,,,,,,,METAR,22.0
SCJO 300400Z AUTO VRB02KT 9999 FEW039/// SCT047/// OVC120/// 08/07 Q1017,SCJO,2023-05-30T04:00:00Z,-40.6,-73.05,8.0,7.0,0,2,,6.21,30.029528,,,TRUE,,,,,,,,FEW,3900,SCT,4700,OVC,12000,,,VFR,,,,,,,,,,,,METAR,61.0
SCIP 300400Z 18003KT 130V210 9999 SCT040 17/12 Q1020 NOSIG,SCIP,2023-05-30T04:00:00Z,-27.17,-109.43,17.0,12.0,180,3,,6.21,30.11811,,,,,,TRUE,,,,,SCT,4000,,,,,,,VFR,,,,,,,,,,,,METAR,48.0
SCIE 300400Z 21005KT 8000 NSC 07/06 Q1019,SCIE,2023-05-30T04:00:00Z,-36.77,-73.07,7.0,6.0,210,5,,4.97,30.088583,,,,,,,,,,,CLR,,,,,,,,MVFR,,,,,,,,,,,,METAR,8.0
SCIC 300400Z AUTO 00000KT //// R/////// // NCD 06/06 Q1018,SCIC,2023-05-30T04:00:00Z,-34.97,-71.22,6.0,6.0,0,0,,,30.059055,,,TRUE,,,,,,,,CLR,,,,,,,,,,,,,,,,,,,,METAR,230.0
SCHR 300400Z AUTO VRB02KT 9999 -SHRA NSC 03/01 Q1003,SCHR,2023-05-30T04:00:00Z,-47.23,-72.58,3.0,1.0,0,2,,6.21,29.616142,,,TRUE,,,,,,,-SHRA,CLR,,,,,,,,VFR,,,,,,,,,,,,METAR,203.0
SCFT 300400Z AUTO 11003KT 080V150 9999 FEW005/// OVC052/// 03/03 Q1015,SCFT,2023-05-30T04:00:00Z,-43.18,-71.85,3.0,3.0,110,3,,6.21,29.970472,,,TRUE,,,,,,,,FEW,500,OVC,5200,,,,,VFR,,,,,,,,,,,,METAR,345.0
SCFA 300400Z 18006KT 9999 FEW012 14/12 Q1016 NOSIG,SCFA,2023-05-30T04:00:00Z,-23.43,-70.43,14.0,12.0,180,6,,6.21,30.0,,,,,,TRUE,,,,,FEW,1200,,,,,,,VFR,,,,,,,,,,,,METAR,113.0
SCEL 300400Z 15005KT 7000 NSC 12/06 Q1018 NOSIG,SCEL,2023-05-30T04:00:00Z,-33.38,-70.78,12.0,6.0,150,5,,4.35,30.059055,,,,,,TRUE,,,,,CLR,,,,,,,,MVFR,,,,,,,,,,,,METAR,478.0
SCDA 300400Z 26004KT 9999 OVC025 19/13 Q1017,SCDA,2023-05-30T04:00:00Z,-20.53,-70.17,19.0,13.0,260,4,,6.21,30.029528,,,,,,,,,,,OVC,2500,,,,,,,MVFR,,,,,,,,,,,,METAR,41.0
SCCY 300400Z AUTO 02007KT 340V040 9999 -RA NSC 06/04 Q1009,SCCY,2023-05-30T04:00:00Z,-45.58,-72.1,6.0,4.0,20,7,,6.21,29.793306,,,TRUE,,,,,,,-RA,CLR,,,,,,,,VFR,,,,,,,,,,,,METAR,301.0
SCCI 300400Z 03009KT 9999 FEW040 OVC074 07/04 Q0995 NOSIG,SCCI,2023-05-30T04:00:00Z,-53.0,-70.85,7.0,4.0,30,9,,6.21,29.379921,,,,,,TRUE,,,,,FEW,4000,OVC,7400,,,,,VFR,,,,,,,,,,,,METAR,37.0
SCCH 300400Z AUTO VRB02KT 9999 ///////// 05/05 Q1018,SCCH,2023-05-30T04:00:00Z,-36.57,-72.02,5.0,5.0,0,2,,6.21,30.059055,,,TRUE,,,,,,,,,,,,,,,,,,,,,,,,,,,,METAR,148.0
SCCF 300400Z AUTO 11019KT 9999 NCD 05/M15 Q1030,SCCF,2023-05-30T04:00:00Z,-22.5,-68.9,5.0,-15.0,110,19,,6.21,30.413385,,,TRUE,,,,,,,,CLR,,,,,,,,VFR,,,,,,,,,,,,METAR,2290.0
SCBA 300400Z AUTO 24007KT 9999 FEW008/// OVC039/// 05/04 Q1008,SCBA,2023-05-30T04:00:00Z,-45.92,-71.68,5.0,4.0,240,7,,6.21,29.763779,,,TRUE,,,,,,,,FEW,800,OVC,3900,,,,,VFR,,,,,,,,,,,,METAR,516.0
SCAT 300400Z AUTO 16004KT 9999 OVC015/// 14/10 Q1017,SCAT,2023-05-30T04:00:00Z,-27.27,-70.77,14.0,10.0,160,4,,6.21,30.029528,,,TRUE,,,,,,,,OVC,1500,,,,,,,MVFR,,,,,,,,,,,,METAR,209.0
SCAR 300400Z 00000KT 9999 OVC025 20/14 Q1017,SCAR,2023-05-30T04:00:00Z,-18.35,-70.33,20.0,14.0,0,0,,6.21,30.029528,,,,,,,,,,,OVC,2500,,,,,,,MVFR,,,,,,,,,,,,METAR,57.0
SCAP 300400Z AUTO VRB01KT 9999 ////// 03/02 Q1018,SCAP,2023-05-30T04:00:00Z,-43.62,-71.8,3.0,2.0,0,1,,6.21,30.059055,,,TRUE,,,,,,,,,,,,,,,,,,,,,,,,,,,,METAR,252.0
SBVT 300400Z 23007KT 9999 FEW020 21/18 Q1019,SBVT,2023-05-30T04:00:00Z,-20.25,-40.28,21.0,18.0,230,7,,6.21,30.088583,,,,,,,,,,,FEW,2000,,,,,,,VFR,,,,,,,,,,,,METAR,4.0
SBTT 300400Z 19002KT CAVOK 25/24 Q1013,SBTT,2023-05-30T04:00:00Z,-4.25,-69.93,25.0,24.0,190,2,,6.21,29.911417,,,,,,,,,,,CAVOK,,,,,,,,VFR,,,,,,,,,,,,METAR,79.0
SBTE 300400Z 00000KT CAVOK 26/24 Q1012,SBTE,2023-05-30T04:00:00Z,-5.05,-42.82,26.0,24.0,0,0,,6.21,29.88189,,,,,,,,,,,CAVOK,,,,,,,,VFR,,,,,,,,,,,,METAR,60.0
SBSV 300400Z 12007KT 9999 SCT023 27/21 Q1016,SBSV,2023-05-30T04:00:00Z,-12.9,-38.32,27.0,21.0,120,7,,6.21,30.0,,,,,,,,,,,SCT,2300,,,,,,,VFR,,,,,,,,,,,,METAR,9.0
SBSP 300400Z AUTO 14010KT 9999 SCT006 OVC008 15/13 Q1024,SBSP,2023-05-30T04:00:00Z,-23.62,-46.65,15.0,13.0,140,10,,6.21,30.236221,,,TRUE,,,,,,,,SCT,600,OVC,800,,,,,IFR,,,,,,,,,,,,METAR,802.0
SBSN 300400Z 17003KT 9999 SCT013 SCT100 24/24 Q1013,SBSN,2023-05-30T04:00:00Z,-2.42,-54.78,24.0,24.0,170,3,,6.21,29.911417,,,,,,,,,,,SCT,1300,SCT,10000,,,,,VFR,,,,,,,,,,,,METAR,57.0
SBSL 300400Z 06006KT 9999 SCT017 28/26 Q1012,SBSL,2023-05-30T04:00:00Z,-2.58,-44.23,28.0,26.0,60,6,,6.21,29.88189,,,,,,,,,,,SCT,1700,,,,,,,VFR,,,,,,,,,,,,METAR,53.0
SBSG 300400Z 18003KT 150V230 9999 SCT036 24/23 Q1013,SBSG,2023-05-30T04:00:00Z,-5.77,-35.37,24.0,23.0,180,3,,6.21,29.911417,,,,,,,,,,,SCT,3600,,,,,,,VFR,,,,,,,,,,,,METAR,83.0
SBRP 300400Z 08003KT CAVOK 18/15 Q1019,SBRP,2023-05-30T04:00:00Z,-21.13,-47.77,18.0,15.0,80,3,,6.21,30.088583,,,,,,,,,,,CAVOK,,,,,,,,VFR,,,,,,,,,,,,METAR,550.0
SBRJ 300400Z 21004KT 9000 SCT018 BKN030 BKN080 21/17 Q1021,SBRJ,2023-05-30T04:00:00Z,-22.9,-43.17,21.0,17.0,210,4,,5.59,30.147638,,,,,,,,,,,SCT,1800,BKN,3000,BKN,8000,,,MVFR,,,,,,,,,,,,METAR,6.0
SBRF 300400Z VRB02KT 9999 FEW013 SCT018 BKN050 25/23 Q1014,SBRF,2023-05-30T04:00:00Z,-8.13,-34.92,25.0,23.0,0,2,,6.21,29.940945,,,,,,,,,,,FEW,1300,SCT,1800,BKN,5000,,,VFR,,,,,,,,,,,,METAR,10.0
SBRB 300400Z 18005KT 9999 BKN006 23/23 Q1014,SBRB,2023-05-30T04:00:00Z,-9.87,-67.88,23.0,23.0,180,5,,6.21,29.940945,,,,,,,,,,,BKN,600,,,,,,,IFR,,,,,,,,,,,,METAR,190.0
SBPV 300400Z 13004KT CAVOK 25/23 Q1011,SBPV,2023-05-30T04:00:00Z,-8.72,-63.9,25.0,23.0,130,4,,6.21,29.852362,,,,,,,,,,,CAVOK,,,,,,,,VFR,,,,,,,,,,,,METAR,89.0
SBPS 300400Z 22001KT 9999 SCT020 SCT080 23/21 Q1017,SBPS,2023-05-30T04:00:00Z,-16.43,-39.07,23.0,21.0,220,1,,6.21,30.029528,,,,,,,,,,,SCT,2000,SCT,8000,,,,,VFR,,,,,,,,,,,,METAR,44.0
SBPL 300400Z 18005KT CAVOK 24/20 Q1016,SBPL,2023-05-30T04:00:00Z,-9.37,-40.57,24.0,20.0,180,5,,6.21,30.0,,,,,,,,,,,CAVOK,,,,,,,,VFR,,,,,,,,,,,,METAR,386.0
SBPJ 300400Z 12004KT 9999 FEW040 20/17 Q1013,SBPJ,2023-05-30T04:00:00Z,-10.28,-48.37,20.0,17.0,120,4,,6.21,29.911417,,,,,,,,,,,FEW,4000,,,,,,,VFR,,,,,,,,,,,,METAR,226.0
SBPA 300400Z 10006KT 9999 FEW020 SCT060 15/12 Q1022,SBPA,2023-05-30T04:00:00Z,-30.0,-51.17,15.0,12.0,100,6,,6.21,30.177166,,,,,,,,,,,FEW,2000,SCT,6000,,,,,VFR,,,,,,,,,,,,METAR,3.0
SBNT 300400Z 18005KT 9999 FEW010 BKN040 24/24 Q1013,SBNT,2023-05-30T04:00:00Z,-5.92,-35.25,24.0,24.0,180,5,,6.21,29.911417,,,,,,,,,,,FEW,1000,BKN,4000,,,,,VFR,,,,,,,,,,,,METAR,51.0
SBMQ 300400Z 00000KT 9999 VCSH BKN015 FEW040TCU SCT080 27/27 Q1012,SBMQ,2023-05-30T04:00:00Z,0.05,-51.07,27.0,27.0,0,0,,6.21,29.88189,,,,,,,,,,VCSH,BKN,1500,FEW,4000,SCT,8000,,,MVFR,,,,,,,,,,,,METAR,15.0
SBMO 300400Z 29003KT 9999 FEW023 23/22 Q1015,SBMO,2023-05-30T04:00:00Z,-9.52,-35.78,23.0,22.0,290,3,,6.21,29.970472,,,,,,,,,,,FEW,2300,,,,,,,VFR,,,,,,,,,,,,METAR,116.0
SBMN 300400Z 06003KT CAVOK 25/22 Q1012,SBMN,2023-05-30T04:00:00Z,-3.13,-59.98,25.0,22.0,60,3,,6.21,29.88189,,,,,,,,,,,CAVOK,,,,,,,,VFR,,,,,,,,,,,,METAR,71.0
SBMA 300400Z 00000KT CAVOK 25/25 Q1012,SBMA,2023-05-30T04:00:00Z,-5.37,-49.13,25.0,25.0,0,0,,6.21,29.88189,,,,,,,,,,,CAVOK,,,,,,,,VFR,,,,,,,,,,,,METAR,110.0
SBLO 300400Z 16006KT 9999 SCT040 BKN090 17/15 Q1021,SBLO,2023-05-30T04:00:00Z,-23.33,-51.12,17.0,15.0,160,6,,6.21,30.147638,,,,,,,,,,,SCT,4000,BKN,9000,,,,,VFR,,,,,,,,,,,,METAR,563.0
SBKP 300400Z 13014KT 9999 FEW007 SCT045 16/13 Q1022,SBKP,2023-05-30T04:00:00Z,-23.0,-47.13,16.0,13.0,130,14,,6.21,30.177166,,,,,,,,,,,FEW,700,SCT,4500,,,,,VFR,,,,,,,,,,,,METAR,659.0
SBJP 300400Z 00000KT 9999 FEW020 SCT070 24/24 Q1014,SBJP,2023-05-30T04:00:00Z,-7.15,-34.95,24.0,24.0,0,0,,6.21,29.940945,,,,,,,,,,,FEW,2000,SCT,7000,,,,,VFR,,,,,,,,,,,,METAR,66.0
SBGR 300400Z 12007KT 9999 OVC009 15/14 Q1024,SBGR,2023-05-30T04:00:00Z,-23.42,-46.47,15.0,14.0,120,7,,6.21,30.236221,,,,,,,,,,,OVC,900,,,,,,,IFR,,,,,,,,,,,,METAR,745.0
SBGO 300400Z 12004KT CAVOK 21/17 Q1018,SBGO,2023-05-30T04:00:00Z,-16.62,-49.22,21.0,17.0,120,4,,6.21,30.059055,,,,,,,,,,,CAVOK,,,,,,,,VFR,,,,,,,,,,,,METAR,740.0
SBGL 300400Z 29005KT 7000 SCT033 BKN043 20/19 Q1022,SBGL,2023-05-30T04:00:00Z,-22.82,-43.25,20.0,19.0,290,5,,4.35,30.177166,,,,,,,,,,,SCT,3300,BKN,4300,,,,,MVFR,,,,,,,,,,,,METAR,3.0
SBFZ 300400Z 16005KT 9999 SCT023 26/24 Q1013,SBFZ,2023-05-30T04:00:00Z,-3.77,-38.52,26.0,24.0,160,5,,6.21,29.911417,,,,,,,,,,,SCT,2300,,,,,,,VFR,,,,,,,,,,,,METAR,32.0
SBFN 300400Z AUTO 12007KT 9999 SCT016 26/24 Q1013,SBFN,2023-05-30T04:00:00Z,-3.85,-32.42,26.0,24.0,120,7,,6.21,29.911417,,,TRUE,,,,,,,,SCT,1600,,,,,,,VFR,,,,,,,,,,,,METAR,52.0
SBFL 300400Z 30004KT 9999 SCT020 BKN030 17/16 Q1024,SBFL,2023-05-30T04:00:00Z,-27.67,-48.53,17.0,16.0,300,4,,6.21,30.236221,,,,,,,,,,,SCT,2000,BKN,3000,,,,,MVFR,,,,,,,,,,,,METAR,5.0
SBFI 300400Z 13006KT 9999 SCT030 BKN070 18/18 Q1019,SBFI,2023-05-30T04:00:00Z,-25.6,-54.48,18.0,18.0,130,6,,6.21,30.088583,,,,,,,,,,,SCT,3000,BKN,7000,,,,,VFR,,,,,,,,,,,,METAR,233.0
SBEG 300400Z 36002KT CAVOK 24/23 Q1012,SBEG,2023-05-30T04:00:00Z,-3.03,-60.03,24.0,23.0,360,2,,6.21,29.88189,,,,,,,,,,,CAVOK,,,,,,,,VFR,,,,,,,,,,,,METAR,69.0
SBCZ 300400Z 05002KT CAVOK 24/24 Q1012,SBCZ,2023-05-30T04:00:00Z,-7.58,-72.77,24.0,24.0,50,2,,6.21,29.88189,,,,,,,,,,,CAVOK,,,,,,,,VFR,,,,,,,,,,,,METAR,193.0
SBCY 300400Z 18003KT 9999 OVC014 22/20 Q1016,SBCY,2023-05-30T04:00:00Z,-15.65,-56.12,22.0,20.0,180,3,,6.21,30.0,,,,,,,,,,,OVC,1400,,,,,,,MVFR,,,,,,,,,,,,METAR,182.0
SBCT 300400Z 09006KT 9000 OVC005 12/11 Q1025,SBCT,2023-05-30T04:00:00Z,-25.52,-49.17,12.0,11.0,90,6,,5.59,30.265747,,,,,,,,,,,OVC,500,,,,,,,IFR,,,,,,,,,,,,METAR,914.0
SBCG 300400Z 10007KT 9999 BKN045 BKN060 BKN100 20/19 Q1018,SBCG,2023-05-30T04:00:00Z,-20.47,-54.67,20.0,19.0,100,7,,6.21,30.059055,,,,,,,,,,,BKN,4500,BKN,6000,BKN,10000,,,VFR,,,,,,,,,,,,METAR,556.0
SBCF 300400Z 13007KT CAVOK 16/14 Q1022,SBCF,2023-05-30T04:00:00Z,-19.63,-43.97,16.0,14.0,130,7,,6.21,30.177166,,,,,,,,,,,CAVOK,,,,,,,,VFR,,,,,,,,,,,,METAR,825.0
SBBV 300400Z 24004KT 9999 VCSH SCT040 FEW045TCU SCT070 24/23 Q1013,SBBV,2023-05-30T04:00:00Z,2.85,-60.7,24.0,23.0,240,4,,6.21,29.911417,,,,,,,,,,VCSH,SCT,4000,FEW,4500,SCT,7000,,,VFR,,,,,,,,,,,,METAR,80.0
SBBR 300400Z 00000KT CAVOK 18/13 Q1020,SBBR,2023-05-30T04:00:00Z,-15.87,-47.92,18.0,13.0,0,0,,6.21,30.11811,,,,,,,,,,,CAVOK,,,,,,,,VFR,,,,,,,,,,,,METAR,1051.0
SBBG 300400Z AUTO 02002KT CAVOK 09/08 Q1023,SBBG,2023-05-30T04:00:00Z,-31.38,-54.12,9.0,8.0,20,2,,6.21,30.206694,,,TRUE,,,,,,,,CAVOK,,,,,,,,VFR,,,,,,,,,,,,METAR,182.0
SBBE 300400Z 07003KT 9999 FEW015 BKN070 26/25 Q1012,SBBE,2023-05-30T04:00:00Z,-1.37,-48.47,26.0,25.0,70,3,,6.21,29.88189,,,,,,,,,,,FEW,1500,BKN,7000,,,,,VFR,,,,,,,,,,,,METAR,16.0
SBAR 300400Z 12007KT 9999 FEW022 26/22 Q1015,SBAR,2023-05-30T04:00:00Z,-10.98,-37.07,26.0,22.0,120,7,,6.21,29.970472,,,,,,,,,,,FEW,2200,,,,,,,VFR,,,,,,,,,,,,METAR,4.0
SAZS 300400Z 20002KT 9999 BKN032 SCT100 05/01 Q1017 RMK PP///,SAZS,2023-05-30T04:00:00Z,-41.15,-71.17,5.0,1.0,200,2,,6.21,30.029528,,,,,,,,,,,BKN,3200,SCT,10000,,,,,VFR,,,,,,,,,,,,METAR,843.0
SAZN 300400Z 00000KT CAVOK 05/01 Q1017,SAZN,2023-05-30T04:00:00Z,-38.95,-68.15,5.0,1.0,0,0,,6.21,30.029528,,,,,,,,,,,CAVOK,,,,,,,,VFR,,,,,,,,,,,,METAR,273.0
SAWH 300400Z 03006KT 350V060 CAVOK 07/04 Q0995 RMK PP000,SAWH,2023-05-30T04:00:00Z,-54.85,-68.3,7.0,4.0,30,6,,6.21,29.379921,,,,,,,,,,,CAVOK,,,,,,,,VFR,,,,,,,,,,,,METAR,22.0
SAWG 300400Z 36011KT CAVOK 07/01 Q0997,SAWG,2023-05-30T04:00:00Z,-51.62,-69.27,7.0,1.0,360,11,,6.21,29.438976,,,,,,,,,,,CAVOK,,,,,,,,VFR,,,,,,,,,,,,METAR,15.0
SAWE 300400Z 35006KT CAVOK 04/03 Q0998 RMK PP000,SAWE,2023-05-30T04:00:00Z,-53.78,-67.75,4.0,3.0,350,6,,6.21,29.468504,,,,,,,,,,,CAVOK,,,,,,,,VFR,,,,,,,,,,,,METAR,22.0
SAVC 300400Z 31009KT CAVOK 13/02 Q1009 RMK PP000,SAVC,2023-05-30T04:00:00Z,-45.78,-67.47,13.0,2.0,310,9,,6.21,29.793306,,,,,,,,,,,CAVOK,,,,,,,,VFR,,,,,,,,,,,,METAR,58.0
SASJ 300400Z 35002KT 8000 NSC 07/07 Q1022 RMK PP000,SASJ,2023-05-30T04:00:00Z,-24.38,-65.1,7.0,7.0,350,2,,4.97,30.177166,,,,,,,,,,,CLR,,,,,,,,MVFR,,,,,,,,,,,,METAR,913.0
SASA 300400Z 27005KT CAVOK 06/06 Q1022 RMK PP000,SASA,2023-05-30T04:00:00Z,-24.85,-65.48,6.0,6.0,270,5,,6.21,30.177166,,,,,,,,,,,CAVOK,,,,,,,,VFR,,,,,,,,,,,,METAR,1235.0
SARL 300400Z 14008KT CAVOK 12/10 Q1021,SARL,2023-05-30T04:00:00Z,-29.68,-57.15,12.0,10.0,140,8,,6.21,30.147638,,,,,,,,,,,CAVOK,,,,,,,,VFR,,,,,,,,,,,,METAR,70.0
SARI 300400Z 12004KT CAVOK 18/17 Q1019 RMK PP000,SARI,2023-05-30T04:00:00Z,-25.73,-54.47,18.0,17.0,120,4,,6.21,30.088583,,,,,,,,,,,CAVOK,,,,,,,,VFR,,,,,,,,,,,,METAR,268.0
SARF 300400Z 14004KT CAVOK 14/12 Q1019,SARF,2023-05-30T04:00:00Z,-26.22,-58.22,14.0,12.0,140,4,,6.21,30.088583,,,,,,,,,,,CAVOK,,,,,,,,VFR,,,,,,,,,,,,METAR,65.0
SARE 300400Z 17006KT CAVOK 13/11 Q1020 RMK PP///,SARE,2023-05-30T04:00:00Z,-27.43,-59.05,13.0,11.0,170,6,,6.21,30.11811,,,,,,,,,,,CAVOK,,,,,,,,VFR,,,,,,,,,,,,METAR,52.0
SANT 300400Z 21001KT 9000 OVC024 12/10 Q1021 RMK PP000,SANT,2023-05-30T04:00:00Z,-26.85,-65.1,12.0,10.0,210,1,,5.59,30.147638,,,,,,,,,,,OVC,2400,,,,,,,MVFR,,,,,,,,,,,,METAR,446.0
SAME 300400Z 00000KT CAVOK 07/04 Q1019,SAME,2023-05-30T04:00:00Z,-32.82,-68.78,7.0,4.0,0,0,,6.21,30.088583,,,,,,,,,,,CAVOK,,,,,,,,VFR,,,,,,,,,,,,METAR,709.0
SAEZ 300400Z 30002KT CAVOK 07/06 Q1023 NOSIG RMK PP000,SAEZ,2023-05-30T04:00:00Z,-34.82,-58.53,7.0,6.0,300,2,,6.21,30.206694,,,,,,TRUE,,,,,CAVOK,,,,,,,,VFR,,,,,,,,,,,,METAR,16.0
SADF 300400Z 36005KT CAVOK 09/07 Q1023 PP000,SADF,2023-05-30T04:00:00Z,-34.45,-58.58,9.0,7.0,360,5,,6.21,30.206694,,,,,,,,,,,CAVOK,,,,,,,,VFR,,,,,,,,,,,,METAR,4.0
SACO 300400Z 03007KT CAVOK 09/07 Q1021 NOSIG RMK PP000,SACO,2023-05-30T04:00:00Z,-31.32,-64.22,9.0,7.0,30,7,,6.21,30.147638,,,,,,TRUE,,,,,CAVOK,,,,,,,,VFR,,,,,,,,,,,,METAR,474.0
SABE 300400Z 01009KT CAVOK 13/07 Q1023 NOSIG RMK PP000,SABE,2023-05-30T04:00:00Z,-34.57,-58.42,13.0,7.0,10,9,,6.21,30.206694,,,,,,TRUE,,,,,CAVOK,,,,,,,,VFR,,,,,,,,,,,,METAR,3.0
SAAR 300400Z 09001KT CAVOK 12/10 Q1023 RMK PP000,SAAR,2023-05-30T04:00:00Z,-32.92,-60.77,12.0,10.0,90,1,,6.21,30.206694,,,,,,,,,,,CAVOK,,,,,,,,VFR,,,,,,,,,,,,METAR,24.0
RPVP 300400Z 18008KT 9999 FEW019 BKN080 32/26 Q1008 RMK A2977,RPVP,2023-05-30T04:00:00Z,9.75,118.75,32.0,26.0,180,8,,6.21,29.763779,,,,,,,,,,,FEW,1900,BKN,8000,,,,,VFR,,,,,,,,,,,,METAR,15.0
RPVM 300400Z 21012KT 9999 SCT020 OVC100 31/25 Q1008 NOSIG RMK A2977,RPVM,2023-05-30T04:00:00Z,10.32,123.98,31.0,25.0,210,12,,6.21,29.763779,,,,,,TRUE,,,,,SCT,2000,OVC,10000,,,,,VFR,,,,,,,,,,,,METAR,9.0
RPVD 300400Z 34004KT 9999 FEW014CB SCT070 BKN220 30/25 Q1007 RMK A2974 CB NW,RPVD,2023-05-30T04:00:00Z,9.33,123.3,30.0,25.0,340,4,,6.21,29.734253,,,,,,,,,,,FEW,1400,SCT,7000,BKN,22000,,,VFR,,,,,,,,,,,,METAR,11.0
RPMZ 300400Z 18005KT 100V250 9999 FEW017TCU SCT300 32/26 Q1009 RMK A2980 TCU N-NE/S,RPMZ,2023-05-30T04:00:00Z,6.92,122.07,32.0,26.0,180,5,,6.21,29.793306,,,,,,,,,,,FEW,1700,SCT,30000,,,,,VFR,,,,,,,,,,,,METAR,8.0
RPMR 300400Z 15010KT 8000 -SHRA FEW017CB 28/25 Q1010 RMK A2983 CB S,RPMR,2023-05-30T04:00:00Z,6.05,125.1,28.0,25.0,150,10,,4.97,29.822834,,,,,,,,,,-SHRA,FEW,1700,,,,,,,MVFR,,,,,,,,,,,,METAR,47.0
RPMD 300400Z VRB09KT 9999 FEW020 32/25 Q1008 RMK A2977,RPMD,2023-05-30T04:00:00Z,7.12,125.65,32.0,25.0,0,9,,6.21,29.763779,,,,,,,,,,,FEW,2000,,,,,,,VFR,,,,,,,,,,,,METAR,19.0
RPLL 300400Z 25016KT 9999 FEW025 SCT300 31/26 Q1004 NOSIG RMK A2965,RPLL,2023-05-30T04:00:00Z,14.52,121.0,31.0,26.0,250,16,,6.21,29.64567,,,,,,TRUE,,,,,FEW,2500,SCT,30000,,,,,VFR,,,,,,,,,,,,METAR,15.0
RPLI 300400Z 28009KT 230V320 8000 VCSH SCT020 BKN070 31/26 Q1002 NOSIG RMK A2959 VCSH SE,RPLI,2023-05-30T04:00:00Z,18.17,120.52,31.0,26.0,280,9,,4.97,29.586615,,,,,,TRUE,,,,VCSH,SCT,2000,BKN,7000,,,,,MVFR,,,,,,,,,,,,METAR,5.0
RPLC 300400Z 25014KT 9999 SCT020 BKN300 34/23 Q1005 NOSIG RMK A2968,RPLC,2023-05-30T04:00:00Z,15.18,120.55,34.0,23.0,250,14,,6.21,29.675198,,,,,,TRUE,,,,,SCT,2000,BKN,30000,,,,,VFR,,,,,,,,,,,,METAR,138.0
RPLB 300400Z 30008KT 270V340 9999 BKN020 32/25 Q1005 NOSIG RMK A2968,RPLB,2023-05-30T04:00:00Z,14.8,120.27,32.0,25.0,300,8,,6.21,29.675198,,,,,,TRUE,,,,,BKN,2000,,,,,,,MVFR,,,,,,,,,,,,METAR,19.0
ROYN 300400Z AUTO 03023KT 7000 FEW011 BKN017 28/26 Q1002,ROYN,2023-05-30T04:00:00Z,24.47,122.97,28.0,26.0,30,23,,4.35,29.586615,,,TRUE,,,,,,,,FEW,1100,BKN,1700,,,,,MVFR,,,,,,,,,,,,METAR,21.0
RORY 300400Z AUTO 11013KT 9999 FEW007 SCT009 BKN012 28/26 Q1006,RORY,2023-05-30T04:00:00Z,27.05,128.4,28.0,26.0,110,13,,6.21,29.704725,,,TRUE,,,,,,,,FEW,700,SCT,900,BKN,1200,,,MVFR,,,,,,,,,,,,METAR,13.0
RORT 300400Z AUTO 06015KT 020V100 9999 FEW016 SCT020 OVC024 29/26 Q1000,RORT,2023-05-30T04:00:00Z,24.63,124.7,29.0,26.0,60,15,,6.21,29.52756,,,TRUE,,,,,,,,FEW,1600,SCT,2000,OVC,2400,,,MVFR,,,,,,,,,,,,METAR,9.0
RORS 300400Z 07023KT 9999 -SHRA SCT011 BKN018 30/26 Q1001,RORS,2023-05-30T04:00:00Z,24.82,125.15,30.0,26.0,70,23,,6.21,29.557087,,,,,,,,,,-SHRA,SCT,1100,BKN,1800,,,,,MVFR,,,,,,,,,,,,METAR,13.0
RORK 300400Z AUTO 11010KT 7000 FEW003 SCT005 27/25 Q1008,RORK,2023-05-30T04:00:00Z,25.93,131.32,27.0,25.0,110,10,,4.35,29.763779,,,TRUE,,,,,,,,FEW,300,SCT,500,,,,,MVFR,,,,,,,,,,,,METAR,11.0
ROMY 300400Z 07021G32KT 9999 VCSH BKN011 BKN/// 29/26 Q1001,ROMY,2023-05-30T04:00:00Z,24.78,125.27,29.0,26.0,70,21,32,6.21,29.557087,,,,,,,,,,VCSH,BKN,1100,,,,,,,MVFR,,,,,,,,,,,,METAR,38.0
ROMD 300400Z AUTO VRB03KT 9999 OVC002 27/26 Q1008,ROMD,2023-05-30T04:00:00Z,25.83,131.25,27.0,26.0,0,3,,6.21,29.763779,,,TRUE,,,,,,,,OVC,200,,,,,,,LIFR,,,,,,,,,,,,METAR,45.0
ROIG 300400Z 05026KT 9999 FEW014 SCT020 BKN030 29/26 Q1000,ROIG,2023-05-30T04:00:00Z,24.38,124.23,29.0,26.0,50,26,,6.21,29.52756,,,,,,,,,,,FEW,1400,SCT,2000,BKN,3000,,,MVFR,,,,,,,,,,,,METAR,37.0
ROAH 300400Z 10016KT 9999 FEW010 BKN015 29/26 Q1005,ROAH,2023-05-30T04:00:00Z,26.18,127.65,29.0,26.0,100,16,,6.21,29.675198,,,,,,,,,,,FEW,1000,BKN,1500,,,,,MVFR,,,,,,,,,,,,METAR,6.0
RKTU 300400Z 10008KT 9999 SCT030 BKN200 25/18 Q1009,RKTU,2023-05-30T04:00:00Z,36.7,127.5,25.0,18.0,100,8,,6.21,29.793306,,,,,,,,,,,SCT,3000,BKN,20000,,,,,VFR,,,,,,,,,,,,METAR,46.0
RKTN 300400Z 12012KT 9999 SCT020 BKN030 22/17 Q1012,RKTN,2023-05-30T04:00:00Z,35.88,128.65,22.0,17.0,120,12,,6.21,29.88189,,,,,,,,,,,SCT,2000,BKN,3000,,,,,MVFR,,,,,,,,,,,,METAR,25.0
RKSS 300400Z 12005KT 060V200 9999 SCT040 29/17 Q1009 NOSIG,RKSS,2023-05-30T04:00:00Z,37.55,126.78,29.0,17.0,120,5,,6.21,29.793306,,,,,,TRUE,,,,,SCT,4000,,,,,,,VFR,,,,,,,,,,,,METAR,18.0
RKSI 300400Z 29007KT 260V330 9999 FEW025 BKN180 26/19 Q1010 NOSIG,RKSI,2023-05-30T04:00:00Z,37.47,126.45,26.0,19.0,290,7,,6.21,29.822834,,,,,,TRUE,,,,,FEW,2500,BKN,18000,,,,,VFR,,,,,,,,,,,,METAR,7.0
RKPK 300400Z 08011KT 9999 FEW010 BKN015 OVC025 22/17 Q1011,RKPK,2023-05-30T04:00:00Z,35.17,128.93,22.0,17.0,80,11,,6.21,29.852362,,,,,,,,,,,FEW,1000,BKN,1500,OVC,2500,,,MVFR,,,,,,,,,,,,METAR,3.0
RKPC 300400Z 05006KT 010V070 8000 -DZ SCT005 BKN030 OVC080 21/20 Q1009 NOSIG,RKPC,2023-05-30T04:00:00Z,33.5,126.48,21.0,20.0,50,6,,4.97,29.793306,,,,,,TRUE,,,,-DZ,SCT,500,BKN,3000,OVC,8000,,,MVFR,,,,,,,,,,,,METAR,23.0
RKNY 300400Z 07005KT 9999 FEW025 SCT200 18/16 Q1013 NOSIG,RKNY,2023-05-30T04:00:00Z,38.07,128.67,18.0,16.0,70,5,,6.21,29.911417,,,,,,TRUE,,,,,FEW,2500,SCT,20000,,,,,VFR,,,,,,,,,,,,METAR,76.0
RKJB 300400Z 15009KT 9999 BKN016 BKN100 24/19 Q1009 NOSIG,RKJB,2023-05-30T04:00:00Z,34.98,126.38,24.0,19.0,150,9,,6.21,29.793306,,,,,,TRUE,,,,,BKN,1600,BKN,10000,,,,,MVFR,,,,,,,,,,,,METAR,16.0
RJTT 300400Z 19011KT 9999 FEW020 SCT080 BKN/// 23/20 Q1007 NOSIG,RJTT,2023-05-30T04:00:00Z,35.55,139.77,23.0,20.0,190,11,,6.21,29.734253,,,,,,TRUE,,,,,FEW,2000,SCT,8000,,,,,VFR,,,,,,,,,,,,METAR,5.0
RJTO 300400Z VRB01KT 9999 -RA FEW008 SCT012 BKN050 21/18 Q1008,RJTO,2023-05-30T04:00:00Z,34.77,139.37,21.0,18.0,0,1,,6.21,29.763779,,,,,,,,,,-RA,FEW,800,SCT,1200,BKN,5000,,,VFR,,,,,,,,,,,,METAR,37.0
RJTI 300400Z 18007KT 150V220 9999 FEW020 SCT090 BKN/// 23/20 Q1007,RJTI,2023-05-30T04:00:00Z,35.63,139.83,23.0,20.0,180,7,,6.21,29.734253,,,,,,,,,,,FEW,2000,SCT,9000,,,,,VFR,,,,,,,,,,,,METAR,4.0
RJTF 300400Z 20008KT 150V240 9999 FEW020 SCT025 BKN090 24/20 Q1007,RJTF,2023-05-30T04:00:00Z,35.67,139.52,24.0,20.0,200,8,,6.21,29.734253,,,,,,,,,,,FEW,2000,SCT,2500,BKN,9000,,,VFR,,,,,,,,,,,,METAR,37.0
RJSY 300400Z 32006KT 280V020 9999 FEW015 SCT030 BKN040 18/14 Q1009,RJSY,2023-05-30T04:00:00Z,38.82,139.78,18.0,14.0,320,6,,6.21,29.793306,,,,,,,,,,,FEW,1500,SCT,3000,BKN,4000,,,VFR,,,,,,,,,,,,METAR,17.0
RJSS 300400Z 11007KT 9999 SCT040 BKN090 BKN/// 21/17 Q1006,RJSS,2023-05-30T04:00:00Z,38.13,140.92,21.0,17.0,110,7,,6.21,29.704725,,,,,,,,,,,SCT,4000,BKN,9000,,,,,VFR,,,,,,,,,,,,METAR,5.0
RJSR 300400Z 26014KT 230V300 9999 FEW030 SCT050 20/09 Q1007,RJSR,2023-05-30T04:00:00Z,40.18,140.37,20.0,9.0,260,14,,6.21,29.734253,,,,,,,,,,,FEW,3000,SCT,5000,,,,,VFR,,,,,,,,,,,,METAR,83.0
RJSN 300400Z 26011KT 9999 FEW015 SCT025 BKN090 19/14 Q1010,RJSN,2023-05-30T04:00:00Z,37.95,139.12,19.0,14.0,260,11,,6.21,29.822834,,,,,,,,,,,FEW,1500,SCT,2500,BKN,9000,,,VFR,,,,,,,,,,,,METAR,4.0
RJSM 300400Z 10008KT 9999 FEW020 BKN030 16/11 Q1007,RJSM,2023-05-30T04:00:00Z,40.7,141.37,16.0,11.0,100,8,,6.21,29.734253,,,,,,,,,,,FEW,2000,BKN,3000,,,,,MVFR,,,,,,,,,,,,METAR,31.0
RJSK 300400Z 27015KT 9999 FEW025 20/12 Q1008,RJSK,2023-05-30T04:00:00Z,39.62,140.22,20.0,12.0,270,15,,6.21,29.763779,,,,,,,,,,,FEW,2500,,,,,,,VFR,,,,,,,,,,,,METAR,95.0
RJSI 300400Z 30011KT 230V350 9999 FEW050 23/10 Q1006,RJSI,2023-05-30T04:00:00Z,39.42,141.13,23.0,10.0,300,11,,6.21,29.704725,,,,,,,,,,,FEW,5000,,,,,,,VFR,,,,,,,,,,,,METAR,89.0
RJSF 300400Z 33010KT 9999 FEW050 SCT070 BKN/// 24/12 Q1008,RJSF,2023-05-30T04:00:00Z,37.22,140.42,24.0,12.0,330,10,,6.21,29.763779,,,,,,,,,,,FEW,5000,SCT,7000,,,,,VFR,,,,,,,,,,,,METAR,373.0
RJSC 300400Z 35007KT 290V030 9999 FEW025 SCT070 BKN/// 22/14 Q1007,RJSC,2023-05-30T04:00:00Z,38.42,140.37,22.0,14.0,350,7,,6.21,29.734253,,,,,,,,,,,FEW,2500,SCT,7000,,,,,VFR,,,,,,,,,,,,METAR,104.0
RJSA 300400Z 29012KT 9999 FEW020 SCT040 BKN100 18/09 Q1008,RJSA,2023-05-30T04:00:00Z,40.72,140.68,18.0,9.0,290,12,,6.21,29.763779,,,,,,,,,,,FEW,2000,SCT,4000,BKN,10000,,,VFR,,,,,,,,,,,,METAR,196.0
RJOY 300400Z 21003KT 140V250 9000 -SHRA FEW005 BKN020 BKN070 22/20 Q1010,RJOY,2023-05-30T04:00:00Z,34.6,135.6,22.0,20.0,210,3,,5.59,29.822834,,,,,,,,,,-SHRA,FEW,500,BKN,2000,BKN,7000,,,MVFR,,,,,,,,,,,,METAR,10.0
RJOW 300400Z 03005KT 340V080 9999 -SHRA FEW006 SCT010 BKN080 20/18 Q1010,RJOW,2023-05-30T04:00:00Z,34.67,131.8,20.0,18.0,30,5,,6.21,29.822834,,,,,,,,,,-SHRA,FEW,600,SCT,1000,BKN,8000,,,VFR,,,,,,,,,,,,METAR,54.0
RJOT 300400Z 09007KT 060V120 9999 -SHRA FEW001 SCT015 BKN030 19/18 Q1011,RJOT,2023-05-30T04:00:00Z,34.22,134.02,19.0,18.0,90,7,,6.21,29.852362,,,,,,,,,,-SHRA,FEW,100,SCT,1500,BKN,3000,,,MVFR,,,,,,,,,,,,METAR,181.0
RJOS 300400Z 33007KT 9999 -SHRA FEW012 SCT025 BKN050 21/18 Q1010,RJOS,2023-05-30T04:00:00Z,34.12,134.62,21.0,18.0,330,7,,6.21,29.822834,,,,,,,,,,-SHRA,FEW,1200,SCT,2500,BKN,5000,,,VFR,,,,,,,,,,,,METAR,3.0
RJOR 300400Z 04010KT 9999 FEW020 SCT100 21/18 Q1010,RJOR,2023-05-30T04:00:00Z,35.52,134.17,21.0,18.0,40,10,,6.21,29.822834,,,,,,,,,,,FEW,2000,SCT,10000,,,,,VFR,,,,,,,,,,,,METAR,11.0
RJOO 300400Z 17005KT 140V210 9999 FEW015 SCT040 BKN120 24/17 Q1009,RJOO,2023-05-30T04:00:00Z,34.78,135.43,24.0,17.0,170,5,,6.21,29.793306,,,,,,,,,,,FEW,1500,SCT,4000,BKN,12000,,,VFR,,,,,,,,,,,,METAR,11.0
RJOM 300400Z 29003KT 160V330 9999 FEW005 SCT010 BKN020 22/21 Q1009,RJOM,2023-05-30T04:00:00Z,33.82,132.68,22.0,21.0,290,3,,6.21,29.793306,,,,,,,,,,,FEW,500,SCT,1000,BKN,2000,,,MVFR,,,,,,,,,,,,METAR,3.0
RJOK 300400Z 13006KT 5000 -SHRA BR FEW001 BKN002 BKN010 23/22 Q1008,RJOK,2023-05-30T04:00:00Z,33.53,133.67,23.0,22.0,130,6,,3.11,29.763779,,,,,,,,,,-SHRA BR,FEW,100,BKN,200,BKN,1000,,,LIFR,,,,,,,,,,,,METAR,7.0
RJOH 300400Z 05011KT 9999 FEW005 SCT010 BKN020 21/19 Q1010,RJOH,2023-05-30T04:00:00Z,35.48,133.25,21.0,19.0,50,11,,6.21,29.822834,,,,,,,,,,,FEW,500,SCT,1000,BKN,2000,,,MVFR,,,,,,,,,,,,METAR,6.0
RJOC 300400Z 05012KT 9999 FEW008 SCT025 BKN150 22/17 Q1010,RJOC,2023-05-30T04:00:00Z,35.42,132.88,22.0,17.0,50,12,,6.21,29.822834,,,,,,,,,,,FEW,800,SCT,2500,BKN,15000,,,VFR,,,,,,,,,,,,METAR,2.0
RJOB 300400Z 18005KT 9999 FEW001 SCT003 BKN005 20/19 Q1010,RJOB,2023-05-30T04:00:00Z,34.75,133.85,20.0,19.0,180,5,,6.21,29.822834,,,,,,,,,,,FEW,100,SCT,300,BKN,500,,,IFR,,,,,,,,,,,,METAR,242.0
RJOA 300400Z 12006KT 090V160 2500 -SHRA BCFG BR FEW000 SCT002 BKN015 19/19 Q1011,RJOA,2023-05-30T04:00:00Z,34.43,132.92,19.0,19.0,120,6,,1.55,29.852362,,,,,,,,,,-SHRA BCFG BR,FEW,0,SCT,200,BKN,1500,,,IFR,,,,,,,,,,,,METAR,318.0
RJNW 300400Z 30006KT 240V050 9999 FEW015 BKN/// 21/14 Q1011,RJNW,2023-05-30T04:00:00Z,37.3,136.97,21.0,14.0,300,6,,6.21,29.852362,,,,,,,,,,,FEW,1500,,,,,,,VFR,,,,,,,,,,,,METAR,222.0
RJNT 300400Z VRB03KT 9999 FEW010 SCT020 22/16 Q1010,RJNT,2023-05-30T04:00:00Z,36.63,137.18,22.0,16.0,0,3,,6.21,29.822834,,,,,,,,,,,FEW,1000,SCT,2000,,,,,VFR,,,,,,,,,,,,METAR,30.0
RJNS 300400Z 33003KT 270V010 9999 -SHRA FEW000 SCT005 BKN009 20/19 Q1009,RJNS,2023-05-30T04:00:00Z,34.8,138.18,20.0,19.0,330,3,,6.21,29.793306,,,,,,,,,,-SHRA,FEW,0,SCT,500,BKN,900,,,IFR,,,,,,,,,,,,METAR,133.0
RJNK 300400Z 35011KT 9999 FEW008 SCT015 BKN020 20/16 Q1010,RJNK,2023-05-30T04:00:00Z,36.38,136.42,20.0,16.0,350,11,,6.21,29.822834,,,,,,,,,,,FEW,800,SCT,1500,BKN,2000,,,MVFR,,,,,,,,,,,,METAR,7.0
RJKI 300400Z AUTO 12007KT 070V180 9999 BKN009 OVC010 28/25 Q1008,RJKI,2023-05-30T04:00:00Z,28.32,129.92,28.0,25.0,120,7,,6.21,29.763779,,,TRUE,,,,,,,,BKN,900,OVC,1000,,,,,IFR,,,,,,,,,,,,METAR,6.0
RJKA 300400Z 14005KT 080V170 2500 BR FEW001 BKN004 BKN010 26/25 Q1008,RJKA,2023-05-30T04:00:00Z,28.42,129.72,26.0,25.0,140,5,,1.55,29.763779,,,,,,,,,,BR,FEW,100,BKN,400,BKN,1000,,,LIFR,,,,,,,,,,,,METAR,7.0
RJGG 300400Z 26011KT 9999 FEW020 SCT110 BKN/// 23/19 Q1008 BECMG 24010KT,RJGG,2023-05-30T04:00:00Z,34.87,136.8,23.0,19.0,260,11,,6.21,29.763779,,,,,,,,,,,FEW,2000,SCT,11000,,,,,VFR,,,,,,,,,,,,METAR,5.0
RJFU 300400Z 33003KT 9999 -RA FEW005 SCT030 BKN050 23/22 Q1008,RJFU,2023-05-30T04:00:00Z,32.92,129.92,23.0,22.0,330,3,,6.21,29.763779,,,,,,,,,,-RA,FEW,500,SCT,3000,BKN,5000,,,VFR,,,,,,,,,,,,METAR,2.0
RJFT 300400Z 33008KT 2500 SHRA BR BCFG FEW001 SCT003 BKN005 22/22 Q1010,RJFT,2023-05-30T04:00:00Z,32.83,130.85,22.0,22.0,330,8,,1.55,29.822834,,,,,,,,,,SHRA BR BCFG,FEW,100,SCT,300,BKN,500,,,IFR,,,,,,,,,,,,METAR,188.0
RJFS 300400Z 09006KT 9999 -SHRA FEW007 SCT010 BKN020 24/23 Q1009,RJFS,2023-05-30T04:00:00Z,33.15,130.3,24.0,23.0,90,6,,6.21,29.793306,,,,,,,,,,-SHRA,FEW,700,SCT,1000,BKN,2000,,,MVFR,,,,,,,,,,,,METAR,2.0
RJFR 300400Z 35006KT 9999 -SHRA FEW005 SCT030 BKN040 21/19 Q1009,RJFR,2023-05-30T04:00:00Z,33.83,131.03,21.0,19.0,350,6,,6.21,29.793306,,,,,,,,,,-SHRA,FEW,500,SCT,3000,BKN,4000,,,VFR,,,,,,,,,,,,METAR,9.0
RJFO 300400Z 12003KT 080V150 2500 SHRA BCFG BR FEW001 SCT002 BKN005 21/20 Q1009,RJFO,2023-05-30T04:00:00Z,33.47,131.73,21.0,20.0,120,3,,1.55,29.793306,,,,,,,,,,SHRA BCFG BR,FEW,100,SCT,200,BKN,500,,,IFR,,,,,,,,,,,,METAR,3.0
RJFM 300400Z VRB03KT 9999 FEW030 SCT045 BKN/// 31/22 Q1008,RJFM,2023-05-30T04:00:00Z,31.87,131.43,31.0,22.0,0,3,,6.21,29.763779,,,,,,,,,,,FEW,3000,SCT,4500,,,,,VFR,,,,,,,,,,,,METAR,10.0
RJFK 300400Z VRB04KT 9999 FEW015 SCT020 BKN040 26/23 Q1010,RJFK,2023-05-30T04:00:00Z,31.8,130.72,26.0,23.0,0,4,,6.21,29.822834,,,,,,,,,,,FEW,1500,SCT,2000,BKN,4000,,,VFR,,,,,,,,,,,,METAR,271.0
RJFG 300400Z 17007KT 140V210 9999 -SHRA FEW004 SCT008 BKN015 25/24 Q1010,RJFG,2023-05-30T04:00:00Z,30.62,130.98,25.0,24.0,170,7,,6.21,29.822834,,,,,,,,,,-SHRA,FEW,400,SCT,800,BKN,1500,,,MVFR,,,,,,,,,,,,METAR,234.0
RJFF 300400Z VRB03KT 5000 -SHRA BR FEW005 SCT008 BKN035 22/21 Q1009 BECMG 31006KT TEMPO 3000 SHRA BR FEW003 BKN005 BKN008,RJFF,2023-05-30T04:00:00Z,33.58,130.45,22.0,21.0,0,3,,3.11,29.793306,,,,,,,,,,-SHRA BR,FEW,500,SCT,800,BKN,3500,,,MVFR,,,,,,,,,,,,METAR,7.0
RJFE 300400Z 04004KT 8000 -SHRA FEW004 SCT006 BKN010 22/22 Q1009,RJFE,2023-05-30T04:00:00Z,32.67,128.82,22.0,22.0,40,4,,4.97,29.793306,,,,,,,,,,-SHRA,FEW,400,SCT,600,BKN,1000,,,MVFR,,,,,,,,,,,,METAR,80.0
RJEC 300400Z VRB03KT 9999 FEW012 SCT025 BKN040 11/06 Q1007,RJEC,2023-05-30T04:00:00Z,43.67,142.43,11.0,6.0,0,3,,6.21,29.734253,,,,,,,,,,,FEW,1200,SCT,2500,BKN,4000,,,VFR,,,,,,,,,,,,METAR,209.0
RJEB 300400Z 33016KT 9999 FEW030 SCT040 BKN070 12/07 Q1005,RJEB,2023-05-30T04:00:00Z,44.3,143.4,12.0,7.0,330,16,,6.21,29.675198,,,,,,,,,,,FEW,3000,SCT,4000,BKN,7000,,,VFR,,,,,,,,,,,,METAR,24.0
RJDT 300400Z 07008KT 030V090 2500 -SHRA BR FEW000 SCT002 BKN003 19/19 Q1010,RJDT,2023-05-30T04:00:00Z,34.28,129.32,19.0,19.0,70,8,,1.55,29.822834,,,,,,,,,,-SHRA BR,FEW,0,SCT,200,BKN,300,,,LIFR,,,,,,,,,,,,METAR,61.0
RJDC 300400Z 02003KT 350V060 7000 -SHRA FEW010 SCT030 BKN040 23/21 Q1009,RJDC,2023-05-30T04:00:00Z,33.92,131.27,23.0,21.0,20,3,,4.35,29.793306,,,,,,,,,,-SHRA,FEW,1000,SCT,3000,BKN,4000,,,MVFR,,,,,,,,,,,,METAR,5.0
RJDB 300400Z AUTO 05008KT 7000 OVC001 20/20 Q1010,RJDB,2023-05-30T04:00:00Z,33.75,129.78,20.0,20.0,50,8,,4.35,29.822834,,,TRUE,,,,,,,,OVC,100,,,,,,,LIFR,,,,,,,,,,,,METAR,13.0
RJCW 300400Z 29017KT 9999 FEW012 SCT025 11/07 Q1007,RJCW,2023-05-30T04:00:00Z,45.4,141.8,11.0,7.0,290,17,,6.21,29.734253,,,,,,,,,,,FEW,1200,SCT,2500,,,,,VFR,,,,,,,,,,,,METAR,11.0
RJCO 300400Z 33012KT 9999 FEW010 SCT020 BKN050 13/08 Q1009,RJCO,2023-05-30T04:00:00Z,43.12,141.37,13.0,8.0,330,12,,6.21,29.793306,,,,,,,,,,,FEW,1000,SCT,2000,BKN,5000,,,VFR,,,,,,,,,,,,METAR,7.0
RJCN 300400Z 34008KT 290V030 9999 FEW025 15/04 Q1004,RJCN,2023-05-30T04:00:00Z,43.57,144.97,15.0,4.0,340,8,,6.21,29.64567,,,,,,,,,,,FEW,2500,,,,,,,VFR,,,,,,,,,,,,METAR,62.0
RJCM 300400Z 01017KT 9999 FEW030 13/06 Q1005,RJCM,2023-05-30T04:00:00Z,43.88,144.17,13.0,6.0,10,17,,6.21,29.675198,,,,,,,,,,,FEW,3000,,,,,,,VFR,,,,,,,,,,,,METAR,30.0
RJCK 300400Z 20015KT 9999 -SHRA FEW006 SCT015 FEW030TCU BKN050 11/10 Q1004,RJCK,2023-05-30T04:00:00Z,43.03,144.18,11.0,10.0,200,15,,6.21,29.64567,,,,,,,,,,-SHRA,FEW,600,SCT,1500,FEW,3000,BKN,5000,VFR,,,,,,,,,,,,METAR,94.0
RJCH 300400Z 19008KT 160V220 9999 FEW020 SCT030 FEW030CB BKN050 16/11 Q1007,RJCH,2023-05-30T04:00:00Z,41.77,140.82,16.0,11.0,190,8,,6.21,29.734253,,,,,,,,,,,FEW,2000,SCT,3000,FEW,3000,BKN,5000,VFR,,,,,,,,,,,,METAR,36.0
RJCC 300400Z 35018KT 320V030 9999 FEW025 SCT050 16/07 Q1007,RJCC,2023-05-30T04:00:00Z,42.77,141.68,16.0,7.0,350,18,,6.21,29.734253,,,,,,,,,,,FEW,2500,SCT,5000,,,,,VFR,,,,,,,,,,,,METAR,19.0
RJCB 300400Z 17012KT 9999 FEW015 SCT060 16/11 Q1003,RJCB,2023-05-30T04:00:00Z,42.72,143.22,16.0,11.0,170,12,,6.21,29.616142,,,,,,,,,,,FEW,1500,SCT,6000,,,,,VFR,,,,,,,,,,,,METAR,149.0
RJBT 300400Z 05004KT 010V080 9999 FEW005 SCT020 BKN/// 21/16 Q1011,RJBT,2023-05-30T04:00:00Z,35.5,134.8,21.0,16.0,50,4,,6.21,29.852362,,,,,,,,,,,FEW,500,SCT,2000,,,,,VFR,,,,,,,,,,,,METAR,172.0
RJBE 300400Z 21005KT 9999 -SHRA FEW004 SCT025 BKN080 20/19 Q1009,RJBE,2023-05-30T04:00:00Z,34.63,135.23,20.0,19.0,210,5,,6.21,29.793306,,,,,,,,,,-SHRA,FEW,400,SCT,2500,BKN,8000,,,VFR,,,,,,,,,,,,METAR,5.0
RJBD 300400Z 31004KT 8000 -SHRA FEW002 BKN004 BKN020 21/21 Q1009,RJBD,2023-05-30T04:00:00Z,33.67,135.37,21.0,21.0,310,4,,4.97,29.793306,,,,,,,,,,-SHRA,FEW,200,BKN,400,BKN,2000,,,LIFR,,,,,,,,,,,,METAR,91.0
RJBB 300400Z 35003KT 320V020 6000 -SHRA BR FEW003 SCT020 BKN040 19/19 Q1010 TEMPO 4000 SHRA BR,RJBB,2023-05-30T04:00:00Z,34.43,135.25,19.0,19.0,350,3,,3.73,29.822834,,,,,,,,,,-SHRA BR,FEW,300,SCT,2000,BKN,4000,,,MVFR,,,,,,,,,,,,METAR,8.0
RJAH 300400Z 20010KT 9999 FEW020 SCT030 BKN250 25/20 Q1006,RJAH,2023-05-30T04:00:00Z,36.17,140.42,25.0,20.0,200,10,,6.21,29.704725,,,,,,,,,,,FEW,2000,SCT,3000,BKN,25000,,,VFR,,,,,,,,,,,,METAR,31.0
RJAF 300400Z 32008KT 280V020 9999 FEW040 SCT/// 23/13 Q1009,RJAF,2023-05-30T04:00:00Z,36.17,137.92,23.0,13.0,320,8,,6.21,29.793306,,,,,,,,,,,FEW,4000,,,,,,,VFR,,,,,,,,,,,,METAR,652.0
RJAA 300400Z 13005KT 100V190 9999 FEW020 BKN/// 24/18 Q1007 NOSIG,RJAA,2023-05-30T04:00:00Z,35.77,140.38,24.0,18.0,130,5,,6.21,29.734253,,,,,,TRUE,,,,,FEW,2000,,,,,,,VFR,,,,,,,,,,,,METAR,36.0
PLCH 300400Z 09007KT 9999 SCT019 BKN040 29/24 Q1008,PLCH,2023-05-30T04:00:00Z,1.98,-157.35,29.0,24.0,90,7,,6.21,29.763779,,,,,,,,,,,SCT,1900,BKN,4000,,,,,VFR,,,,,,,,,,,,METAR,5.0
PKWA 300400Z AUTO 07008KT 10SM SCT019 29/25 A2982 RMK AO2 T02940247 TSNO,PKWA,2023-05-30T04:00:00Z,8.72,167.72,29.4,24.7,70,8,,10.0,29.819881,,,TRUE,TRUE,,,TRUE,,,,SCT,1900,,,,,,,VFR,,,,,,,,,,,,METAR,6.0
OTHH 300400Z 32010KT CAVOK 34/18 Q1006 NOSIG,OTHH,2023-05-30T04:00:00Z,25.27,51.6,34.0,18.0,320,10,,6.21,29.704725,,,,,,TRUE,,,,,CAVOK,,,,,,,,VFR,,,,,,,,,,,,METAR,3.0
OTBD 300400Z 33006KT 300V360 CAVOK 35/17 Q1007 NOSIG,OTBD,2023-05-30T04:00:00Z,25.25,51.57,35.0,17.0,330,6,,6.21,29.734253,,,,,,TRUE,,,,,CAVOK,,,,,,,,VFR,,,,,,,,,,,,METAR,13.0
OSLK 300400Z 07005KT 6000 SCT030 18/15 Q1014,OSLK,2023-05-30T04:00:00Z,35.4,35.95,18.0,15.0,70,5,,3.73,29.940945,,,,,,,,,,,SCT,3000,,,,,,,MVFR,,,,,,,,,,,,METAR,47.0
OSDI 300400Z 23012KT CAVOK 16/12 Q1016,OSDI,2023-05-30T04:00:00Z,33.42,36.52,16.0,12.0,230,12,,6.21,30.0,,,,,,,,,,,CAVOK,,,,,,,,VFR,,,,,,,,,,,,METAR,614.0
ORMM 300400Z 29014KT 8000 FEW035 SCT040 30/15 Q1010 NOSIG ,ORMM,2023-05-30T04:00:00Z,30.53,47.67,30.0,15.0,290,14,,4.97,29.822834,,,,,,TRUE,,,,,FEW,3500,SCT,4000,,,,,MVFR,,,,,,,,,,,,METAR,2.0
ORBI 300400Z 03003KT 360V070 9999 BKN030 26/18 Q1012 NOSIG,ORBI,2023-05-30T04:00:00Z,33.27,44.23,26.0,18.0,30,3,,6.21,29.88189,,,,,,TRUE,,,,,BKN,3000,,,,,,,MVFR,,,,,,,,,,,,METAR,37.0
OPST 300400Z 31006KT 5000 FU SCT040 SCT100 24/18 Q1013 NOSIG 68%,OPST,2023-05-30T04:00:00Z,32.53,74.37,24.0,18.0,310,6,,3.11,29.911417,,,,,,TRUE,,,,FU,SCT,4000,SCT,10000,,,,,MVFR,,,,,,,,,,,,METAR,234.0
OPSK 300400Z 05006KT 4000 HZ SCT040 BKN100 25/19 Q1009 NOSIG,OPSK,2023-05-30T04:00:00Z,27.72,68.8,25.0,19.0,50,6,,2.49,29.793306,,,,,,TRUE,,,,HZ,SCT,4000,BKN,10000,,,,,IFR,,,,,,,,,,,,METAR,62.0
OPPS 300400Z 05012KT 5000 HZ SCT040 BKN100 24/16 Q1015,OPPS,2023-05-30T04:00:00Z,33.98,71.52,24.0,16.0,50,12,,3.11,29.970472,,,,,,,,,,HZ,SCT,4000,BKN,10000,,,,,MVFR,,,,,,,,,,,,METAR,356.0
OPNH 300400Z 23010KT 6000 SCT035 BKN100 24/19 Q1010,OPNH,2023-05-30T04:00:00Z,26.22,68.38,24.0,19.0,230,10,,3.73,29.822834,,,,,,,,,,,SCT,3500,BKN,10000,,,,,MVFR,,,,,,,,,,,,METAR,30.0
OPMT 300400Z 36008KT 5000 FU SCT040 BKN100 24/19 Q1010 TEMPO 31020KT 2000 TSRA FEW030CB,OPMT,2023-05-30T04:00:00Z,30.2,71.42,24.0,19.0,360,8,,3.11,29.822834,,,,,,,,,,FU,SCT,4000,BKN,10000,,,,,MVFR,,,,,,,,,,,,METAR,122.0
OPKC 300400Z 27005KT 6000 FEW025 SCT030 BKN100 Q1010 NOSIG,OPKC,2023-05-30T04:00:00Z,24.9,67.13,,,270,5,,3.73,29.822834,,,,,,TRUE,,,,,FEW,2500,SCT,3000,BKN,10000,,,MVFR,,,,,,,,,,,,METAR,20.0
OPIS 300400Z 09010KT 6000 SCT040 BKN100 25/14 Q1014 NOSIG,OPIS,2023-05-30T04:00:00Z,33.55,72.83,25.0,14.0,90,10,,3.73,29.940945,,,,,,TRUE,,,,,SCT,4000,BKN,10000,,,,,MVFR,,,,,,,,,,,,METAR,542.0
OPFA 300400Z 05004KT 5000 FU SCT040 BKN100 25/19 Q1012 NOSIG,OPFA,2023-05-30T04:00:00Z,31.37,73.0,25.0,19.0,50,4,,3.11,29.88189,,,,,,TRUE,,,,FU,SCT,4000,BKN,10000,,,,,MVFR,,,,,,,,,,,,METAR,180.0
OMSJ 300400Z 17004KT 160V200 8000 NSC 34/16 Q1006 NOSIG,OMSJ,2023-05-30T04:00:00Z,25.32,55.52,34.0,16.0,170,4,,4.97,29.704725,,,,,,TRUE,,,,,CLR,,,,,,,,MVFR,,,,,,,,,,,,METAR,33.0
OMRK 300400Z 22003KT 6000 NSC 34/17 Q1006 A2972,OMRK,2023-05-30T04:00:00Z,25.62,55.93,34.0,17.0,220,3,,3.73,29.704725,,,,,,,,,,,CLR,,,,,,,,MVFR,,,,,,,,,,,,METAR,18.0
OMFJ 300400Z 09003KT 050V140 5000 BR NSC 29/29 Q1006 A2973,OMFJ,2023-05-30T04:00:00Z,25.1,56.32,29.0,29.0,90,3,,3.11,29.704725,,,,,,,,,,BR,CLR,,,,,,,,MVFR,,,,,,,,,,,,METAR,27.0
OMDW 300400Z 11005KT 7000 NSC 32/18 Q1007 NOSIG,OMDW,2023-05-30T04:00:00Z,24.9,55.17,32.0,18.0,110,5,,4.35,29.734253,,,,,,TRUE,,,,,CLR,,,,,,,,MVFR,,,,,,,,,,,,METAR,34.0
OMDB 300400Z 20005KT 8000 NSC 33/19 Q1006 NOSIG,OMDB,2023-05-30T04:00:00Z,25.25,55.37,33.0,19.0,200,5,,4.97,29.704725,,,,,,TRUE,,,,,CLR,,,,,,,,MVFR,,,,,,,,,,,,METAR,5.0
OMAL 300400Z 16009KT 8000 NSC 34/13 Q1009 NOSIG,OMAL,2023-05-30T04:00:00Z,24.25,55.6,34.0,13.0,160,9,,4.97,29.793306,,,,,,TRUE,,,,,CLR,,,,,,,,MVFR,,,,,,,,,,,,METAR,247.0
OMAD 300400Z 24005KT 190V280 5000 HZ NSC 28/25 Q1006 TEMPO 3000,OMAD,2023-05-30T04:00:00Z,24.42,54.47,28.0,25.0,240,5,,3.11,29.704725,,,,,,,,,,HZ,CLR,,,,,,,,MVFR,,,,,,,,,,,,METAR,9.0
OMAA 300400Z 21004KT 170V270 8000 NSC 30/22 Q1006 NOSIG,OMAA,2023-05-30T04:00:00Z,24.42,54.65,30.0,22.0,210,4,,4.97,29.704725,,,,,,TRUE,,,,,CLR,,,,,,,,MVFR,,,,,,,,,,,,METAR,13.0
OLBA 300400Z 12002KT 6000 NSC 21/17 Q1015 NOSIG,OLBA,2023-05-30T04:00:00Z,33.82,35.48,21.0,17.0,120,2,,3.73,29.970472,,,,,,TRUE,,,,,CLR,,,,,,,,MVFR,,,,,,,,,,,,METAR,29.0
OKKK 300400Z 35015KT 9000 NSC 31/15 Q1010 NOSIG,OKKK,2023-05-30T04:00:00Z,,,31.0,15.0,350,15,,5.59,29.822834,,,,,,TRUE,,,,,CLR,,,,,,,,VFR,,,,,,,,,,,,METAR,
OJAQ 300400Z 34006KT 6000 BKN040 24/12 Q1014 NOSIG,OJAQ,2023-05-30T04:00:00Z,29.62,35.02,24.0,12.0,340,6,,3.73,29.940945,,,,,,TRUE,,,,,BKN,4000,,,,,,,MVFR,,,,,,,,,,,,METAR,45.0
OJAI 300400Z 00000KT 4000 BR NSC 15/13 Q1017 NOSIG,OJAI,2023-05-30T04:00:00Z,31.72,36.0,15.0,13.0,0,0,,2.49,30.029528,,,,,,TRUE,,,,BR,CLR,,,,,,,,IFR,,,,,,,,,,,,METAR,723.0
OIZJ 300400Z 12004KT 5000 BR NSC 29/26 Q1005,OIZJ,2023-05-30T04:00:00Z,25.65,57.8,29.0,26.0,120,4,,3.11,29.675198,,,,,,,,,,BR,CLR,,,,,,,,MVFR,,,,,,,,,,,,METAR,6.0
OIZI 300400Z 08006KT CAVOK 35/08 Q1010,OIZI,2023-05-30T04:00:00Z,27.23,60.72,35.0,8.0,80,6,,6.21,29.822834,,,,,,,,,,,CAVOK,,,,,,,,VFR,,,,,,,,,,,,METAR,622.0
OIZH 300400Z 34004KT CAVOK 28/M01 Q1018 A3007 NOSIG,OIZH,2023-05-30T04:00:00Z,29.47,60.92,28.0,-1.0,340,4,,6.21,30.059055,,,,,,TRUE,,,,,CAVOK,,,,,,,,VFR,,,,,,,,,,,,METAR,1378.0
OIZC 300400Z 11014KT 5000 SA FEW030 31/27 Q1006 A2971,OIZC,2023-05-30T04:00:00Z,25.45,60.38,31.0,27.0,110,14,,3.11,29.704725,,,,,,,,,,SA,FEW,3000,,,,,,,MVFR,,,,,,,,,,,,METAR,13.0
OIZB 300400Z 34025KT CAVOK 32/00 Q1010,OIZB,2023-05-30T04:00:00Z,31.1,61.55,32.0,0.0,340,25,,6.21,29.822834,,,,,,,,,,,CAVOK,,,,,,,,VFR,,,,,,,,,,,,METAR,483.0
OIYY 300400Z 33002KT CAVOK 28/02 Q1018 NOSIG,OIYY,2023-05-30T04:00:00Z,31.9,54.28,28.0,2.0,330,2,,6.21,30.059055,,,,,,TRUE,,,,,CAVOK,,,,,,,,VFR,,,,,,,,,,,,METAR,1226.0
OITZ 300400Z 12006KT 9999 FEW033CB SCT035 BKN070 19/10 Q1020 A3012,OITZ,2023-05-30T04:00:00Z,36.77,48.37,19.0,10.0,120,6,,6.21,30.11811,,,,,,,,,,,FEW,3300,SCT,3500,BKN,7000,,,VFR,,,,,,,,,,,,METAR,1630.0
OITT 300400Z 33006KT 9999 FEW040 21/10 Q1018 A3008,OITT,2023-05-30T04:00:00Z,38.13,46.23,21.0,10.0,330,6,,6.21,30.059055,,,,,,,,,,,FEW,4000,,,,,,,VFR,,,,,,,,,,,,METAR,1353.0
OITR 300400Z 33004KT 9999 FEW035CB SCT040 BKN100 19/11 Q1017 A3004,OITR,2023-05-30T04:00:00Z,37.67,45.07,19.0,11.0,330,4,,6.21,30.029528,,,,,,,,,,,FEW,3500,SCT,4000,BKN,10000,,,VFR,,,,,,,,,,,,METAR,1312.0
OITP 300400Z 29004KT CAVOK 25/21 Q1008,OITP,2023-05-30T04:00:00Z,39.6,47.88,25.0,21.0,290,4,,6.21,29.763779,,,,,,,,,,,CAVOK,,,,,,,,VFR,,,,,,,,,,,,METAR,72.0
OITM 300400Z 10004KT 8000 FEW035CB BKN170 22/09 Q1018,OITM,2023-05-30T04:00:00Z,37.35,46.15,22.0,9.0,100,4,,4.97,30.059055,,,,,,,,,,,FEW,3500,BKN,17000,,,,,MVFR,,,,,,,,,,,,METAR,1340.0
OITL 300400Z 08004KT 9999 FEW090 SCT170 20/13 Q1017 NOSIG,OITL,2023-05-30T04:00:00Z,38.33,48.42,20.0,13.0,80,4,,6.21,30.029528,,,,,,TRUE,,,,,FEW,9000,SCT,17000,,,,,VFR,,,,,,,,,,,,METAR,1314.0
OITK 300400Z VRB02KT 9999 SCT040 BKN170 22/09 Q1016 A3002,OITK,2023-05-30T04:00:00Z,38.42,44.98,22.0,9.0,0,2,,6.21,30.0,,,,,,,,,,,SCT,4000,BKN,17000,,,,,VFR,,,,,,,,,,,,METAR,1192.0
OISY 300400Z 00000KT CAVOK 21/01 Q1025,OISY,2023-05-30T04:00:00Z,30.7,51.55,21.0,1.0,0,0,,6.21,30.265747,,,,,,,,,,,CAVOK,,,,,,,,VFR,,,,,,,,,,,,METAR,1800.0
OISS 300400Z 00000KT CAVOK 26/06 Q1019 A3011,OISS,2023-05-30T04:00:00Z,29.53,52.58,26.0,6.0,0,0,,6.21,30.088583,,,,,,,,,,,CAVOK,,,,,,,,VFR,,,,,,,,,,,,METAR,1484.0
OISR 300400Z 27004KT CAVOK 31/12 Q1010 A2983 NOSIG,OISR,2023-05-30T04:00:00Z,27.37,53.2,31.0,12.0,270,4,,6.21,29.822834,,,,,,TRUE,,,,,CAVOK,,,,,,,,VFR,,,,,,,,,,,,METAR,402.0
OISL 300400Z 00000KT CAVOK 29/10 Q1011 A2987 NOSIG,OISL,2023-05-30T04:00:00Z,27.67,54.37,29.0,10.0,0,0,,6.21,29.852362,,,,,,TRUE,,,,,CAVOK,,,,,,,,VFR,,,,,,,,,,,,METAR,804.0
OISF 300400Z 33004KT CAVOK 27/06 Q1018 A3007,OISF,2023-05-30T04:00:00Z,28.9,53.72,27.0,6.0,330,4,,6.21,30.059055,,,,,,,,,,,CAVOK,,,,,,,,VFR,,,,,,,,,,,,METAR,1305.0
OINZ 300400Z 25004KT CAVOK 27/21 Q1009,OINZ,2023-05-30T04:00:00Z,36.63,53.2,27.0,21.0,250,4,,6.21,29.793306,,,,,,,,,,,CAVOK,,,,,,,,VFR,,,,,,,,,,,,METAR,8.0
OINR 300400Z 06002KT 7000 FEW030CB SCT033 BKN090 26/22 Q1007,OINR,2023-05-30T04:00:00Z,36.9,50.67,26.0,22.0,60,2,,4.35,29.734253,,,,,,,,,,,FEW,3000,SCT,3300,BKN,9000,,,MVFR,,,,,,,,,,,,METAR,-19.0
OINN 300400Z 21002KT 9999 FEW027 BKN180 24/20 Q1008,OINN,2023-05-30T04:00:00Z,36.67,51.47,24.0,20.0,210,2,,6.21,29.763779,,,,,,,,,,,FEW,2700,BKN,18000,,,,,VFR,,,,,,,,,,,,METAR,-25.0
OING 300400Z 00000KT 8000 NSC 28/20 Q1010 NOSIG,OING,2023-05-30T04:00:00Z,36.9,54.4,28.0,20.0,0,0,,4.97,29.822834,,,,,,TRUE,,,,,CLR,,,,,,,,MVFR,,,,,,,,,,,,METAR,0.0
OINE 300400Z 00000KT CAVOK 30/15 Q1008,OINE,2023-05-30T04:00:00Z,37.38,55.45,30.0,15.0,0,0,,6.21,29.763779,,,,,,,,,,,CAVOK,,,,,,,,VFR,,,,,,,,,,,,METAR,125.0
OIMS 300400Z 06016KT CAVOK 27/01 Q1018,OIMS,2023-05-30T04:00:00Z,36.17,57.6,27.0,1.0,60,16,,6.21,30.059055,,,,,,,,,,,CAVOK,,,,,,,,VFR,,,,,,,,,,,,METAR,920.0
OIMQ 300400Z 10006KT CAVOK 27/M01 Q1018,OIMQ,2023-05-30T04:00:00Z,35.27,58.47,27.0,-1.0,100,6,,6.21,30.059055,,,,,,,,,,,CAVOK,,,,,,,,VFR,,,,,,,,,,,,METAR,1101.0
OIMN 300400Z VRB02KT CAVOK 23/04 Q1018,OIMN,2023-05-30T04:00:00Z,37.48,57.3,23.0,4.0,0,2,,6.21,30.059055,,,,,,,,,,,CAVOK,,,,,,,,VFR,,,,,,,,,,,,METAR,1065.0
OIMM 300400Z 35006KT CAVOK 26/07 Q1018 A3007,OIMM,2023-05-30T04:00:00Z,36.23,59.63,26.0,7.0,350,6,,6.21,30.059055,,,,,,,,,,,CAVOK,,,,,,,,VFR,,,,,,,,,,,,METAR,995.0
OIMJ 300400Z 05010KT CAVOK 25/00 Q1018,OIMJ,2023-05-30T04:00:00Z,36.43,55.1,25.0,0.0,50,10,,6.21,30.059055,,,,,,,,,,,CAVOK,,,,,,,,VFR,,,,,,,,,,,,METAR,1285.0
OIMD 300400Z 13004KT CAVOK 28/00 Q1014,OIMD,2023-05-30T04:00:00Z,34.38,58.63,28.0,0.0,130,4,,6.21,29.940945,,,,,,,,,,,CAVOK,,,,,,,,VFR,,,,,,,,,,,,METAR,1097.0
OIMB 300400Z 10008KT CAVOK 25/M06 Q1019 A3011,OIMB,2023-05-30T04:00:00Z,32.9,59.28,25.0,-6.0,100,8,,6.21,30.088583,,,,,,,,,,,CAVOK,,,,,,,,VFR,,,,,,,,,,,,METAR,1512.0
OIKQ 300400Z 00000KT 3000 BR NSC 31/30 Q1005 NOSIG,OIKQ,2023-05-30T04:00:00Z,26.75,55.9,31.0,30.0,0,0,,1.86,29.675198,,,,,,TRUE,,,,BR,CLR,,,,,,,,IFR,,,,,,,,,,,,METAR,9.0
OIKK 300400Z 07006KT CAVOK 25/03 Q1021 A3017,OIKK,2023-05-30T04:00:00Z,30.25,56.97,25.0,3.0,70,6,,6.21,30.147638,,,,,,,,,,,CAVOK,,,,,,,,VFR,,,,,,,,,,,,METAR,1749.0
OIKB 300400Z 08004KT 4000 HZ NSC 33/21 Q1006 A2971 NOSIG,OIKB,2023-05-30T04:00:00Z,27.22,56.37,33.0,21.0,80,4,,2.49,29.704725,,,,,,TRUE,,,,HZ,CLR,,,,,,,,IFR,,,,,,,,,,,,METAR,6.0
OIIP 300400Z 00000KT 3000 HZ FEW040 BKN100 28/05 Q1016 A3003,OIIP,2023-05-30T04:00:00Z,35.78,50.83,28.0,5.0,0,0,,1.86,30.0,,,,,,,,,,HZ,FEW,4000,BKN,10000,,,,,IFR,,,,,,,,,,,,METAR,1270.0
OIIK 300400Z 02004KT 9999 SCT040 BKN100 23/10 Q1018,OIIK,2023-05-30T04:00:00Z,36.25,50.05,23.0,10.0,20,4,,6.21,30.059055,,,,,,,,,,,SCT,4000,BKN,10000,,,,,VFR,,,,,,,,,,,,METAR,1278.0
OIII 300400Z 06008KT 9999 FEW040 SCT100 BKN190 29/03 Q1017 A3004 NOSIG,OIII,2023-05-30T04:00:00Z,35.68,51.3,29.0,3.0,60,8,,6.21,30.029528,,,,,,TRUE,,,,,FEW,4000,SCT,10000,BKN,19000,,,VFR,,,,,,,,,,,,METAR,1182.0
OIIE 300400Z 05008KT 9999 SCT040 SCT100 28/06 Q1015,OIIE,2023-05-30T04:00:00Z,35.42,51.15,28.0,6.0,50,8,,6.21,29.970472,,,,,,,,,,,SCT,4000,SCT,10000,,,,,VFR,,,,,,,,,,,,METAR,993.0
OIHH 300400Z 00000KT 9999 FEW040 BKN180 20/10 Q1021 A3017,OIHH,2023-05-30T04:00:00Z,34.87,48.55,20.0,10.0,0,0,,6.21,30.147638,,,,,,,,,,,FEW,4000,BKN,18000,,,,,VFR,,,,,,,,,,,,METAR,1742.0
OIGG 300400Z 00000KT 7000 SCT025 BKN160 24/24 Q1009,OIGG,2023-05-30T04:00:00Z,37.33,49.6,24.0,24.0,0,0,,4.35,29.793306,,,,,,,,,,,SCT,2500,BKN,16000,,,,,MVFR,,,,,,,,,,,,METAR,-16.0
OIFS 300400Z 11002KT CAVOK 19/05 Q1024,OIFS,2023-05-30T04:00:00Z,32.28,50.85,19.0,5.0,110,2,,6.21,30.236221,,,,,,,,,,,CAVOK,,,,,,,,VFR,,,,,,,,,,,,METAR,2042.0
OIFM 300400Z 31006KT 8000 NSC 24/02 Q1021 A3015,OIFM,2023-05-30T04:00:00Z,32.75,51.87,24.0,2.0,310,6,,4.97,30.147638,,,,,,,,,,,CLR,,,,,,,,MVFR,,,,,,,,,,,,METAR,1539.0
OICS 300400Z 20004KT 9999 FEW045 BKN200 19/12 Q1020 A3012,OICS,2023-05-30T04:00:00Z,35.25,47.02,19.0,12.0,200,4,,6.21,30.11811,,,,,,,,,,,FEW,4500,BKN,20000,,,,,VFR,,,,,,,,,,,,METAR,1369.0
OICM 300400Z 29008KT 9999 SCT040 OVC090 31/19 Q1007,OICM,2023-05-30T04:00:00Z,,,31.0,19.0,290,8,,6.21,29.734253,,,,,,,,,,,SCT,4000,OVC,9000,,,,,VFR,,,,,,,,,,,,METAR,
OICK 300400Z 00000KT 9999 FEW090 BKN180 24/11 Q1017,OICK,2023-05-30T04:00:00Z,33.43,48.28,24.0,11.0,0,0,,6.21,30.029528,,,,,,,,,,,FEW,9000,BKN,18000,,,,,VFR,,,,,,,,,,,,METAR,1156.0
OICI 300400Z 29006KT 9000 FEW045 BKN100 23/10 Q1020 A3012,OICI,2023-05-30T04:00:00Z,33.58,46.4,23.0,10.0,290,6,,5.59,30.11811,,,,,,,,,,,FEW,4500,BKN,10000,,,,,VFR,,,,,,,,,,,,METAR,1323.0
OICC 300400Z 27010KT 9999 SCT090 BKN190 21/12 Q1019 A3012,OICC,2023-05-30T04:00:00Z,34.35,47.17,21.0,12.0,270,10,,6.21,30.088583,,,,,,,,,,,SCT,9000,BKN,19000,,,,,VFR,,,,,,,,,,,,METAR,1310.0
OIBS 300400Z 00000KT 3000 BR NSC 29/28 Q1006,OIBS,2023-05-30T04:00:00Z,25.9,54.55,29.0,28.0,0,0,,1.86,29.704725,,,,,,,,,,BR,CLR,,,,,,,,IFR,,,,,,,,,,,,METAR,4.0
OIBQ 300400Z 31006KT 8000 NSC 30/23 Q1006 A2973,OIBQ,2023-05-30T04:00:00Z,29.27,50.32,30.0,23.0,310,6,,4.97,29.704725,,,,,,,,,,,CLR,,,,,,,,MVFR,,,,,,,,,,,,METAR,3.0
OIBP 300400Z 10004KT 4000 HZ NSC 30/26 Q1004 A2967,OIBP,2023-05-30T04:00:00Z,27.38,52.73,30.0,26.0,100,4,,2.49,29.64567,,,,,,,,,,HZ,CLR,,,,,,,,IFR,,,,,,,,,,,,METAR,13.0
OIBL 300400Z 00000KT 1100 BR SCT010 29/28 Q1005,OIBL,2023-05-30T04:00:00Z,26.53,54.82,29.0,28.0,0,0,,0.68,29.675198,,,,,,,,,,BR,SCT,1000,,,,,,,LIFR,,,,,,,,,,,,METAR,25.0
OIBK 300400Z 24006KT 3000 BR NSC 30/27 Q1006 NOSIG,OIBK,2023-05-30T04:00:00Z,26.53,53.98,30.0,27.0,240,6,,1.86,29.704725,,,,,,TRUE,,,,BR,CLR,,,,,,,,IFR,,,,,,,,,,,,METAR,27.0
OIBJ 300400Z AUTO 00000KT //// // ////// 34/08 Q1012,OIBJ,2023-05-30T04:00:00Z,27.82,52.35,34.0,8.0,0,0,,,29.88189,,,TRUE,,,,,,,,,,,,,,,,,,,,,,,,,,,,METAR,647.0
OIBH 300400Z 34006KT CAVOK 33/14 Q1006,OIBH,2023-05-30T04:00:00Z,27.2,54.32,33.0,14.0,340,6,,6.21,29.704725,,,,,,,,,,,CAVOK,,,,,,,,VFR,,,,,,,,,,,,METAR,412.0
OIBB 300400Z 03006KT CAVOK 31/21 Q1006 A2971 NOSIG,OIBB,2023-05-30T04:00:00Z,28.93,50.83,31.0,21.0,30,6,,6.21,29.704725,,,,,,TRUE,,,,,CAVOK,,,,,,,,VFR,,,,,,,,,,,,METAR,15.0
OIBA 300400Z 23004KT 4000 HZ NSC 31/27 Q1004,OIBA,2023-05-30T04:00:00Z,25.88,55.03,31.0,27.0,230,4,,2.49,29.64567,,,,,,,,,,HZ,CLR,,,,,,,,IFR,,,,,,,,,,,,METAR,7.0
OIAW 300400Z 30008KT 6000 NSC 31/14 Q1007,OIAW,2023-05-30T04:00:00Z,31.33,48.77,31.0,14.0,300,8,,3.73,29.734253,,,,,,,,,,,CLR,,,,,,,,MVFR,,,,,,,,,,,,METAR,25.0
OIAM 300400Z 35010KT 9999 BKN040 33/14 Q1007,OIAM,2023-05-30T04:00:00Z,30.55,49.15,33.0,14.0,350,10,,6.21,29.734253,,,,,,,,,,,BKN,4000,,,,,,,VFR,,,,,,,,,,,,METAR,7.0
OIAH 300400Z VRB02KT 8000 NSC 32/09 Q1013,OIAH,2023-05-30T04:00:00Z,30.33,50.83,32.0,9.0,0,2,,4.97,29.911417,,,,,,,,,,,CLR,,,,,,,,MVFR,,,,,,,,,,,,METAR,730.0
OIAG 300400Z 36010KT 8000 NSC 37/10 Q1008,OIAG,2023-05-30T04:00:00Z,30.73,49.68,37.0,10.0,360,10,,4.97,29.763779,,,,,,,,,,,CLR,,,,,,,,MVFR,,,,,,,,,,,,METAR,17.0
OIAA 300400Z 31014KT 7000 NSC 30/14 Q1009,OIAA,2023-05-30T04:00:00Z,30.35,48.22,30.0,14.0,310,14,,4.35,29.793306,,,,,,,,,,,CLR,,,,,,,,MVFR,,,,,,,,,,,,METAR,4.0
OERK 300400Z 27004KT CAVOK 30/11 Q1015 NOSIG,OERK,2023-05-30T04:00:00Z,24.95,46.72,30.0,11.0,270,4,,6.21,29.970472,,,,,,TRUE,,,,,CAVOK,,,,,,,,VFR,,,,,,,,,,,,METAR,618.0
OEMA 300400Z 32005KT CAVOK 29/16 Q1016 NOSIG,OEMA,2023-05-30T04:00:00Z,24.55,39.7,29.0,16.0,320,5,,6.21,30.0,,,,,,TRUE,,,,,CAVOK,,,,,,,,VFR,,,,,,,,,,,,METAR,639.0
OEJN 300400Z 13009KT 8000 FEW040 SCT200 32/20 Q1010 NOSIG,OEJN,2023-05-30T04:00:00Z,21.68,39.15,32.0,20.0,130,9,,4.97,29.822834,,,,,,TRUE,,,,,FEW,4000,SCT,20000,,,,,MVFR,,,,,,,,,,,,METAR,8.0
OEDR 300400Z 35014KT CAVOK 35/10 Q1005,OEDR,2023-05-30T04:00:00Z,26.27,50.17,35.0,10.0,350,14,,6.21,29.675198,,,,,,,,,,,CAVOK,,,,,,,,VFR,,,,,,,,,,,,METAR,17.0
OEDF 300400Z 35008KT CAVOK 32/10 Q1007 NOSIG,OEDF,2023-05-30T04:00:00Z,26.43,49.82,32.0,10.0,350,8,,6.21,29.734253,,,,,,TRUE,,,,,CAVOK,,,,,,,,VFR,,,,,,,,,,,,METAR,15.0
OEAB 300400Z 00000KT 9999 SCT020 SCT070 16/13 Q1026 NOSIG,OEAB,2023-05-30T04:00:00Z,18.23,42.65,16.0,13.0,0,0,,6.21,30.295275,,,,,,TRUE,,,,,SCT,2000,SCT,7000,,,,,VFR,,,,,,,,,,,,METAR,2092.0
OBBI 300400Z 32015KT CAVOK 33/22 Q1006 NOSIG,OBBI,2023-05-30T04:00:00Z,26.27,50.63,33.0,22.0,320,15,,6.21,29.704725,,,,,,TRUE,,,,,CAVOK,,,,,,,,VFR,,,,,,,,,,,,METAR,6.0
NWWW 300400Z AUTO 14006KT 9999 FEW047 SCT140 BKN160 22/17 Q1017 NOSIG,NWWW,2023-05-30T04:00:00Z,-22.02,166.22,22.0,17.0,140,6,,6.21,30.029528,,,TRUE,,,TRUE,,,,,FEW,4700,SCT,14000,BKN,16000,,,VFR,,,,,,,,,,,,METAR,16.0
NVVW 300400Z 18006KT 9999 FEW020 BKN120 27/19 Q1014,NVVW,2023-05-30T04:00:00Z,-19.45,169.22,27.0,19.0,180,6,,6.21,29.940945,,,,,,,,,,,FEW,2000,BKN,12000,,,,,VFR,,,,,,,,,,,,METAR,5.0
NVVV 300400Z 14007KT 9999 SCT020 BKN110 27/20 Q1013,NVVV,2023-05-30T04:00:00Z,-17.68,168.3,27.0,20.0,140,7,,6.21,29.911417,,,,,,,,,,,SCT,2000,BKN,11000,,,,,VFR,,,,,,,,,,,,METAR,23.0
NVSS 300400Z 13008KT 9999 BKN025 27/22 Q1012,NVSS,2023-05-30T04:00:00Z,-15.52,167.22,27.0,22.0,130,8,,6.21,29.88189,,,,,,,,,,,BKN,2500,,,,,,,MVFR,,,,,,,,,,,,METAR,47.0
NTAA 300400Z VRB03KT 9999 FEW020 BKN060 27/22 Q1012 NOSIG,NTAA,2023-05-30T04:00:00Z,-17.55,-149.62,27.0,22.0,0,3,,6.21,29.88189,,,,,,TRUE,,,,,FEW,2000,BKN,6000,,,,,VFR,,,,,,,,,,,,METAR,2.0
NSFA 300400Z 00000KT 9999 FEW018CB SCT025 31/26 Q1011 RMK CB TO NE AND NW,NSFA,2023-05-30T04:00:00Z,-13.83,-172.0,31.0,26.0,0,0,,6.21,29.852362,,,,,,,,,,,FEW,1800,SCT,2500,,,,,VFR,,,,,,,,,,,,METAR,6.0
NLWW 300400Z 12007KT 080V160 9999 FEW023 30/25 Q1010 NOSIG,NLWW,2023-05-30T04:00:00Z,-13.23,-176.18,30.0,25.0,120,7,,6.21,29.822834,,,,,,TRUE,,,,,FEW,2300,,,,,,,VFR,,,,,,,,,,,,METAR,24.0
NGTA 300400Z 03005KT 9999 FEW020 BKN300 31/25 Q1008,NGTA,2023-05-30T04:00:00Z,1.37,173.13,31.0,25.0,30,5,,6.21,29.763779,,,,,,,,,,,FEW,2000,BKN,30000,,,,,VFR,,,,,,,,,,,,METAR,8.0
NGFU 300400Z 09010KT 9999 FEW016CB FEW018TCU SCT020 32/28 Q1008,NGFU,2023-05-30T04:00:00Z,-8.52,179.18,32.0,28.0,90,10,,6.21,29.763779,,,,,,,,,,,FEW,1600,FEW,1800,SCT,2000,,,VFR,,,,,,,,,,,,METAR,2.0
NFTV 300400Z 09008KT 9999 SCT017 27/24 Q1014,NFTV,2023-05-30T04:00:00Z,-18.58,-173.97,27.0,24.0,90,8,,6.21,29.940945,,,,,,,,,,,SCT,1700,,,,,,,VFR,,,,,,,,,,,,METAR,71.0
NFTL 300400Z 08014KT 9999 FEW016 SCT100 25/24 Q1015,NFTL,2023-05-30T04:00:00Z,-19.78,-174.33,25.0,24.0,80,14,,6.21,29.970472,,,,,,,,,,,FEW,1600,SCT,10000,,,,,VFR,,,,,,,,,,,,METAR,10.0
NFTF 300400Z 08013KT 9999 FEW009 BKN016 26/24 Q1016,NFTF,2023-05-30T04:00:00Z,-21.23,-175.15,26.0,24.0,80,13,,6.21,30.0,,,,,,,,,,,FEW,900,BKN,1600,,,,,MVFR,,,,,,,,,,,,METAR,38.0
NFNS 300400Z 12004KT 090V170 9999 SCT020 27/25 Q1012,NFNS,2023-05-30T04:00:00Z,-16.82,179.33,27.0,25.0,120,4,,6.21,29.88189,,,,,,,,,,,SCT,2000,,,,,,,VFR,,,,,,,,,,,,METAR,4.0
NFNM 300400Z 10010KT 9999 VCSH BKN017TCU SCT048 28/26 Q1012,NFNM,2023-05-30T04:00:00Z,-16.68,-179.87,28.0,26.0,100,10,,6.21,29.88189,,,,,,,,,,VCSH,BKN,1700,SCT,4800,,,,,MVFR,,,,,,,,,,,,METAR,21.0
NFNL 300400Z 03008KT 9999 FEW028 30/25 Q1011,NFNL,2023-05-30T04:00:00Z,-16.47,179.33,30.0,25.0,30,8,,6.21,29.852362,,,,,,,,,,,FEW,2800,,,,,,,VFR,,,,,,,,,,,,METAR,17.0
NFNA 300400Z 07010KT 9999 VCSH SCT018TCU SCT046 28/25 Q1012,NFNA,2023-05-30T04:00:00Z,-18.05,178.57,28.0,25.0,70,10,,6.21,29.88189,,,,,,,,,,VCSH,SCT,1800,SCT,4600,,,,,VFR,,,,,,,,,,,,METAR,6.0
NFFN 300400Z 27006KT 9999 VCSH SCT024 SCT048 28/25 Q1012 NOSIG,NFFN,2023-05-30T04:00:00Z,-17.75,177.45,28.0,25.0,270,6,,6.21,29.88189,,,,,,TRUE,,,,VCSH,SCT,2400,SCT,4800,,,,,VFR,,,,,,,,,,,,METAR,14.0
NCSW 300400Z AUTO NIL,NCSW,2023-05-30T04:00:00Z,,,,,,,,,,,,TRUE,,,,,,,,,,,,,,,,,,,,,,,,,,,,METAR,
NCRK 300400Z AUTO NIL,NCRK,2023-05-30T04:00:00Z,-10.02,-161.1,,,,,,,,,,TRUE,,,,,,,,,,,,,,,,,,,,,,,,,,,,METAR,7.0
NCPY 300400Z AUTO 32002KT //// ////// 28/24 Q1010,NCPY,2023-05-30T04:00:00Z,-9.02,-158.03,28.0,24.0,320,2,,,29.822834,,,TRUE,,,,,,,,,,,,,,,,,,,,,,,,,,,,METAR,2.0
NCPL 300400Z AUTO NIL,NCPL,2023-05-30T04:00:00Z,1.98,-157.48,,,,,,,,,,TRUE,,,,,,,,,,,,,,,,,,,,,,,,,,,,METAR,3.0
NCPK 300400Z AUTO 11005KT //// ////// 26/24 Q1011,NCPK,2023-05-30T04:00:00Z,-10.9,-165.83,26.0,24.0,110,5,,,29.852362,,,TRUE,,,,,,,,,,,,,,,,,,,,,,,,,,,,METAR,5.0
NCNS 300400Z AUTO NIL,NCNS,2023-05-30T04:00:00Z,,,,,,,,,,,,TRUE,,,,,,,,,,,,,,,,,,,,,,,,,,,,METAR,
NCMR 300400Z AUTO 10005KT //// ////// ///// Q1014,NCMR,2023-05-30T04:00:00Z,-19.85,-157.7,,,100,5,,,29.940945,,,TRUE,,,,,,,,,,,,,,,,,,,,,,,,,,,,METAR,8.0
NCMK 300400Z AUTO 16008KT //// ////// 24/20 Q1013,NCMK,2023-05-30T04:00:00Z,-20.15,-157.33,24.0,20.0,160,8,,,29.911417,,,TRUE,,,,,,,,,,,,,,,,,,,,,,,,,,,,METAR,13.0
NCMH 300400Z AUTO NIL,NCMH,2023-05-30T04:00:00Z,-10.38,-161.0,,,,,,,,,,TRUE,,,,,,,,,,,,,,,,,,,,,,,,,,,,METAR,1.0
NCMG 300400Z AUTO 13006KT //// ////// ///// Q////,NCMG,2023-05-30T04:00:00Z,-21.88,-157.9,,,130,6,,,,,,TRUE,,,,,,,,,,,,,,,,,,,,,,,,,,,,METAR,14.0
NCAT 300400Z AUTO NIL,NCAT,2023-05-30T04:00:00Z,-19.97,-158.12,,,,,,,,,,TRUE,,,,,,,,,,,,,,,,,,,,,,,,,,,,METAR,11.0
NCAI 300400Z AUTO 18006KT //// ////// 26/22 Q1014,NCAI,2023-05-30T04:00:00Z,-18.82,-159.77,26.0,22.0,180,6,,,29.940945,,,TRUE,,,,,,,,,,,,,,,,,,,,,,,,,,,,METAR,7.0
MYSM 300400Z AUTO 12004KT 9999 FEW088/// BKN140/// 27/25 A2992,MYSM,2023-05-30T04:00:00Z,24.05,-74.52,27.0,25.0,120,4,,6.21,29.920275,,,TRUE,,,,,,,,FEW,8800,BKN,14000,,,,,VFR,,,,,,,,,,,,METAR,5.0
MYNN 300400Z VRB02KT 9999 FEW020 26/24 A2992,MYNN,2023-05-30T04:00:00Z,25.03,-77.47,26.0,24.0,0,2,,6.21,29.920275,,,,,,,,,,,FEW,2000,,,,,,,VFR,,,,,,,,,,,,METAR,5.0
MYGF 300400Z AUTO 05005KT 010V080 9999 // FEW022/// 26/22 A2990,MYGF,2023-05-30T04:00:00Z,26.55,-78.7,26.0,22.0,50,5,,6.21,29.899607,,,TRUE,,,,,,,,FEW,2200,,,,,,,VFR,,,,,,,,,,,,METAR,2.0
MYCB 300400Z AUTO 35002KT 9999 FEW077/// 25/24 A2991,MYCB,2023-05-30T04:00:00Z,24.32,-75.45,25.0,24.0,350,2,,6.21,29.911417,,,TRUE,,,,,,,,FEW,7700,,,,,,,VFR,,,,,,,,,,,,METAR,2.0
MROC 300400Z 32006KT 290V350 9999 FEW015 BKN200 22/20 A3004 NOSIG,MROC,2023-05-30T04:00:00Z,10.0,-84.22,22.0,20.0,320,6,,6.21,30.041338,,,,,,TRUE,,,,,FEW,1500,BKN,20000,,,,,VFR,,,,,,,,,,,,METAR,900.0
MRLB 300400Z 12003KT 9999 VCTS SCT025CB 25/24 A2986,MRLB,2023-05-30T04:00:00Z,10.6,-85.55,25.0,24.0,120,3,,6.21,29.861221,,,,,,,,,,VCTS,SCT,2500,,,,,,,VFR,,,,,,,,,,,,METAR,79.0
MPTO 300400Z 36003KT 9999 FEW018 SCT090 25/25 Q1011 NOSIG,MPTO,2023-05-30T04:00:00Z,9.05,-79.38,25.0,25.0,360,3,,6.21,29.852362,,,,,,TRUE,,,,,FEW,1800,SCT,9000,,,,,VFR,,,,,,,,,,,,METAR,7.0
MPMG 300400Z AUTO /////KT ///V/// //// R01///// // ///////// ///// Q1011,MPMG,2023-05-30T04:00:00Z,8.98,-79.57,,,,,,,29.852362,,,TRUE,,,,,,,,,,,,,,,,,,,,,,,,,,,,METAR,6.0
MKJS 300400Z 11004KT 9999 VCTS FEW022 FEW024CB BKN036 27/25 Q1012,MKJS,2023-05-30T04:00:00Z,18.5,-77.92,27.0,25.0,110,4,,6.21,29.88189,,,,,,,,,,VCTS,FEW,2200,FEW,2400,BKN,3600,,,VFR,,,,,,,,,,,,METAR,3.0
MHTG 300400Z 17003KT 2000 +TSSHRA FEW018 BKN030 SCT032CB 20/20 Q1019 A3009 NOSIG,MHTG,2023-05-30T04:00:00Z,14.07,-87.22,20.0,20.0,170,3,,1.24,30.088583,,,,,,TRUE,,,,SHRA TS,FEW,1800,BKN,3000,SCT,3200,,,IFR,,,,,,,,,,,,METAR,1001.0
MHRO 300400Z 15010KT 9999 FEW020 SCT080 29/25 Q1010 A2983 NOSIG,MHRO,2023-05-30T04:00:00Z,16.32,-86.53,29.0,25.0,150,10,,6.21,29.822834,,,,,,TRUE,,,,,FEW,2000,SCT,8000,,,,,VFR,,,,,,,,,,,,METAR,6.0
MHPR 300400Z 25004KT 8000 SCT046 FEW048CB BKN100 26/21 Q1016 A3001 NOSIG RMK CB S SW,MHPR,2023-05-30T04:00:00Z,14.38,-87.62,26.0,21.0,250,4,,4.97,30.0,,,,,,TRUE,,,,,SCT,4600,FEW,4800,BKN,10000,,,MVFR,,,,,,,,,,,,METAR,628.0
MHLM 300400Z 00000KT 9999 FEW025 27/25 Q1011 A2986 NOSIG,MHLM,2023-05-30T04:00:00Z,15.45,-87.93,27.0,25.0,0,0,,6.21,29.852362,,,,,,TRUE,,,,,FEW,2500,,,,,,,VFR,,,,,,,,,,,,METAR,32.0
MHLC 300400Z VRB02KT 7000 FEW020 26/22 Q1010 A2983 NOSIG,MHLC,2023-05-30T04:00:00Z,15.75,-86.85,26.0,22.0,0,2,,4.35,29.822834,,,,,,TRUE,,,,,FEW,2000,,,,,,,MVFR,,,,,,,,,,,,METAR,13.0
MHCA 300400Z 00000KT 9999 SCT026 BKN070 22/22 Q1014 RERA,MHCA,2023-05-30T04:00:00Z,14.87,-85.78,22.0,22.0,0,0,,6.21,29.940945,,,,,,,,,,,SCT,2600,BKN,7000,,,,,VFR,,,,,,,,,,,,METAR,386.0
MGPB 300400Z 00000KT CAVOK 28/25 Q1009 A2980 BKN200,MGPB,2023-05-30T04:00:00Z,15.73,-88.58,28.0,25.0,0,0,,6.21,29.793306,,,,,,,,,,,BKN,20000,,,,,,,VFR,,,,,,,,,,,,METAR,6.0
MGMM 300400Z 00000KT CAVOK 28/23 Q1012 A2988 BKN090,MGMM,2023-05-30T04:00:00Z,16.9,-89.87,28.0,23.0,0,0,,6.21,29.88189,,,,,,,,,,,BKN,9000,,,,,,,VFR,,,,,,,,,,,,METAR,105.0
MGHT 300400Z 00000KT CAVOK 15/14 BKN200,MGHT,2023-05-30T04:00:00Z,15.32,-91.5,15.0,14.0,0,0,,6.21,,,,,,,,,,,,BKN,20000,,,,,,,VFR,,,,,,,,,,,,METAR,1875.0
MGGT 300400Z 05006KT 7000 -RA SCT014 OVC080 18/17 Q1022 A3018,MGGT,2023-05-30T04:00:00Z,14.58,-90.53,18.0,17.0,50,6,,4.35,30.177166,,,,,,,,,,-RA,SCT,1400,OVC,8000,,,,,MVFR,,,,,,,,,,,,METAR,1497.0
MDST 300400Z 00000KT 9999 SCT016 BKN300 25/24 Q1013,MDST,2023-05-30T04:00:00Z,19.4,-70.6,25.0,24.0,0,0,,6.21,29.911417,,,,,,,,,,,SCT,1600,BKN,30000,,,,,VFR,,,,,,,,,,,,METAR,175.0
MDSD 300400Z 00000KT 9999 SCT018 SCT300 25/22 Q1013,MDSD,2023-05-30T04:00:00Z,18.42,-69.67,25.0,22.0,0,0,,6.21,29.911417,,,,,,,,,,,SCT,1800,SCT,30000,,,,,VFR,,,,,,,,,,,,METAR,18.0
MDPC 300400Z 00000KT 9999 FEW018 SCT300 27/23 Q1014,MDPC,2023-05-30T04:00:00Z,18.57,-68.37,27.0,23.0,0,0,,6.21,29.940945,,,,,,,,,,,FEW,1800,SCT,30000,,,,,VFR,,,,,,,,,,,,METAR,10.0
LZZI 300400Z 09006KT CAVOK 11/08 Q1018,LZZI,2023-05-30T04:00:00Z,49.23,18.62,11.0,8.0,90,6,,6.21,30.059055,,,,,,,,,,,CAVOK,,,,,,,,VFR,,,,,,,,,,,,METAR,311.0
LZTT 300400Z 34002KT 9999 FEW060 09/08 Q1018,LZTT,2023-05-30T04:00:00Z,49.07,20.25,9.0,8.0,340,2,,6.21,30.059055,,,,,,,,,,,FEW,6000,,,,,,,VFR,,,,,,,,,,,,METAR,693.0
LZPP 300400Z 02003KT 340V060 CAVOK 12/10 Q1017,LZPP,2023-05-30T04:00:00Z,48.62,17.83,12.0,10.0,20,3,,6.21,30.029528,,,,,,,,,,,CAVOK,,,,,,,,VFR,,,,,,,,,,,,METAR,160.0
LZKZ 300400Z 01006KT CAVOK 17/08 Q1016 NOSIG,LZKZ,2023-05-30T04:00:00Z,48.67,21.23,17.0,8.0,10,6,,6.21,30.0,,,,,,TRUE,,,,,CAVOK,,,,,,,,VFR,,,,,,,,,,,,METAR,227.0
LZIB 300400Z 27002KT CAVOK 15/08 Q1017 NOSIG,LZIB,2023-05-30T04:00:00Z,48.17,17.22,15.0,8.0,270,2,,6.21,30.029528,,,,,,TRUE,,,,,CAVOK,,,,,,,,VFR,,,,,,,,,,,,METAR,129.0
LYVR 300400Z AUTO 00000KT 0300 R19/0375N R01/1400D FG FEW001/// BKN003/// BKN100/// 14/14 Q1016,LYVR,2023-05-30T04:00:00Z,45.13,21.32,14.0,14.0,0,0,,0.19,30.0,,,TRUE,,,,,,,FG,FEW,100,BKN,300,BKN,10000,,,LIFR,,,,,,,,,,,,METAR,82.0
LYTV 300400Z VRB02KT CAVOK 15/15 Q1013 NOSIG,LYTV,2023-05-30T04:00:00Z,42.4,18.72,15.0,15.0,0,2,,6.21,29.911417,,,,,,TRUE,,,,,CAVOK,,,,,,,,VFR,,,,,,,,,,,,METAR,3.0
LYPG 300400Z VRB01KT 9999 BKN090 17/16 Q1013 NOSIG,LYPG,2023-05-30T04:00:00Z,42.37,19.25,17.0,16.0,0,1,,6.21,29.911417,,,,,,TRUE,,,,,BKN,9000,,,,,,,VFR,,,,,,,,,,,,METAR,32.0
LYNI 300400Z VRB01KT 9999 BKN005 12/12 Q1016 TEMPO 5000 BR,LYNI,2023-05-30T04:00:00Z,43.33,21.85,12.0,12.0,0,1,,6.21,30.0,,,,,,,,,,,BKN,500,,,,,,,IFR,,,,,,,,,,,,METAR,197.0
LYKV 300400Z 00000KT 1500 BR BKN005 14/14 Q1016 BECMG 0600 FG BKN002,LYKV,2023-05-30T04:00:00Z,43.82,20.58,14.0,14.0,0,0,,0.93,30.0,,,,,,,,,,BR,BKN,500,,,,,,,LIFR,,,,,,,,,,,,METAR,209.0
LYBT 300400Z 15001KT 5000 MIFG BR NSC 14/14 Q1015 NOSIG,LYBT,2023-05-30T04:00:00Z,44.93,20.25,14.0,14.0,150,1,,3.11,29.970472,,,,,,TRUE,,,,MIFG BR,CLR,,,,,,,,MVFR,,,,,,,,,,,,METAR,78.0
LYBE 300400Z 19003KT 2000 0400S R12L/P2000N R30R/0600D BCFG BR NSC 14/14 Q1015 TEMPO 0800 FG,LYBE,2023-05-30T04:00:00Z,44.82,20.28,14.0,14.0,190,3,,1.24,29.970472,,,,,,,,,,BCFG BR,CLR,,,,,,,,IFR,,,,,,,,,,,,METAR,93.0
LWSK 300400Z 00000KT 9999 FEW040 13/13 Q1015 NOSIG,LWSK,2023-05-30T04:00:00Z,41.97,21.63,13.0,13.0,0,0,,6.21,29.970472,,,,,,TRUE,,,,,FEW,4000,,,,,,,VFR,,,,,,,,,,,,METAR,232.0
LWOH 300400Z 36003KT 9999 FEW010 SCT033 11/10 Q1015,LWOH,2023-05-30T04:00:00Z,41.18,20.75,11.0,10.0,360,3,,6.21,29.970472,,,,,,,,,,,FEW,1000,SCT,3300,,,,,VFR,,,,,,,,,,,,METAR,700.0
LUKK 300400Z 36006KT CAVOK 15/12 Q1014 NOSIG,LUKK,2023-05-30T04:00:00Z,46.93,28.93,15.0,12.0,360,6,,6.21,29.940945,,,,,,TRUE,,,,,CAVOK,,,,,,,,VFR,,,,,,,,,,,,METAR,102.0
LRTR 300400Z VRB02KT CAVOK 15/15 Q1015,LRTR,2023-05-30T04:00:00Z,45.82,21.33,15.0,15.0,0,2,,6.21,29.970472,,,,,,,,,,,CAVOK,,,,,,,,VFR,,,,,,,,,,,,METAR,104.0
LRTM 300400Z 07005KT 9999 SCT002 14/13 Q1016,LRTM,2023-05-30T04:00:00Z,46.47,24.42,14.0,13.0,70,5,,6.21,30.0,,,,,,,,,,,SCT,200,,,,,,,VFR,,,,,,,,,,,,METAR,289.0
LRTC 300400Z AUTO 32010KT 8000 NCD 17/13 Q1013,LRTC,2023-05-30T04:00:00Z,45.07,28.72,17.0,13.0,320,10,,4.97,29.911417,,,TRUE,,,,,,,,CLR,,,,,,,,MVFR,,,,,,,,,,,,METAR,52.0
LRSV 300400Z 33006KT CAVOK 17/08 Q1016,LRSV,2023-05-30T04:00:00Z,47.68,26.35,17.0,8.0,330,6,,6.21,30.0,,,,,,,,,,,CAVOK,,,,,,,,VFR,,,,,,,,,,,,METAR,406.0
LRSM 300400Z VRB02KT CAVOK 14/12 Q1015,LRSM,2023-05-30T04:00:00Z,47.7,22.88,14.0,12.0,0,2,,6.21,29.970472,,,,,,,,,,,CAVOK,,,,,,,,VFR,,,,,,,,,,,,METAR,123.0
LRSB 300400Z 00000KT CAVOK 13/10 Q1016,LRSB,2023-05-30T04:00:00Z,45.78,24.08,13.0,10.0,0,0,,6.21,30.0,,,,,,,,,,,CAVOK,,,,,,,,VFR,,,,,,,,,,,,METAR,442.0
LROP 300400Z 34003KT 300V030 CAVOK 15/13 Q1014 NOSIG,LROP,2023-05-30T04:00:00Z,44.57,26.1,15.0,13.0,340,3,,6.21,29.940945,,,,,,TRUE,,,,,CAVOK,,,,,,,,VFR,,,,,,,,,,,,METAR,92.0
LROD 300400Z 10003KT CAVOK 15/13 Q1016,LROD,2023-05-30T04:00:00Z,47.03,21.88,15.0,13.0,100,3,,6.21,30.0,,,,,,,,,,,CAVOK,,,,,,,,VFR,,,,,,,,,,,,METAR,132.0
LRIA 300400Z 23004KT CAVOK 13/08 Q1015,LRIA,2023-05-30T04:00:00Z,47.17,27.62,13.0,8.0,230,4,,6.21,29.970472,,,,,,,,,,,CAVOK,,,,,,,,VFR,,,,,,,,,,,,METAR,71.0
LRCV 300400Z 25003KT CAVOK 14/14 Q1015,LRCV,2023-05-30T04:00:00Z,44.32,23.88,14.0,14.0,250,3,,6.21,29.970472,,,,,,,,,,,CAVOK,,,,,,,,VFR,,,,,,,,,,,,METAR,192.0
LRCL 300400Z 08001KT CAVOK 14/11 Q1016,LRCL,2023-05-30T04:00:00Z,46.78,23.68,14.0,11.0,80,1,,6.21,30.0,,,,,,,,,,,CAVOK,,,,,,,,VFR,,,,,,,,,,,,METAR,313.0
LRCK 300400Z 33007KT CAVOK 18/14 Q1013 NOSIG,LRCK,2023-05-30T04:00:00Z,44.37,28.48,18.0,14.0,330,7,,6.21,29.911417,,,,,,TRUE,,,,,CAVOK,,,,,,,,VFR,,,,,,,,,,,,METAR,108.0
LRBS 300400Z VRB02KT CAVOK 16/12 Q1014 NOSIG,LRBS,2023-05-30T04:00:00Z,44.5,26.08,16.0,12.0,0,2,,6.21,29.940945,,,,,,TRUE,,,,,CAVOK,,,,,,,,VFR,,,,,,,,,,,,METAR,91.0
LRBM 300400Z AUTO 07006KT 9999 NCD 15/11 Q1016,LRBM,2023-05-30T04:00:00Z,47.67,23.47,15.0,11.0,70,6,,6.21,30.0,,,TRUE,,,,,,,,CLR,,,,,,,,VFR,,,,,,,,,,,,METAR,180.0
LRBC 300400Z 03005KT CAVOK 12/07 Q1016,LRBC,2023-05-30T04:00:00Z,46.52,26.92,12.0,7.0,30,5,,6.21,30.0,,,,,,,,,,,CAVOK,,,,,,,,VFR,,,,,,,,,,,,METAR,183.0
LRAR 300400Z 15002KT CAVOK 16/15 Q1015,LRAR,2023-05-30T04:00:00Z,46.18,21.27,16.0,15.0,150,2,,6.21,29.970472,,,,,,,,,,,CAVOK,,,,,,,,VFR,,,,,,,,,,,,METAR,102.0
LQTZ 300400Z VRB02KT 0300 R09/0375N FG BKN001 14/14 Q1016,LQTZ,2023-05-30T04:00:00Z,44.47,18.73,14.0,14.0,0,2,,0.19,30.0,,,,,,,,,,FG,BKN,100,,,,,,,LIFR,,,,,,,,,,,,METAR,242.0
LQSA 300400Z VRB01KT 9999 FEW008 SCT015 BKN040 14/14 Q1016,LQSA,2023-05-30T04:00:00Z,43.82,18.32,14.0,14.0,0,1,,6.21,30.0,,,,,,,,,,,FEW,800,SCT,1500,BKN,4000,,,VFR,,,,,,,,,,,,METAR,505.0
LQBK 300400Z VRB01KT 6000 -RA FEW002 SCT043 14/14 Q1016 NOSIG,LQBK,2023-05-30T04:00:00Z,44.93,17.3,14.0,14.0,0,1,,3.73,30.0,,,,,,TRUE,,,,-RA,FEW,200,SCT,4300,,,,,MVFR,,,,,,,,,,,,METAR,114.0
LPPT 300400Z 22004KT 9999 FEW010 15/14 Q1016,LPPT,2023-05-30T04:00:00Z,38.77,-9.13,15.0,14.0,220,4,,6.21,30.0,,,,,,,,,,,FEW,1000,,,,,,,VFR,,,,,,,,,,,,METAR,98.0
LPPS 300400Z 29006KT 9999 FEW015 19/16 Q1018,LPPS,2023-05-30T04:00:00Z,33.07,-16.35,19.0,16.0,290,6,,6.21,30.059055,,,,,,,,,,,FEW,1500,,,,,,,VFR,,,,,,,,,,,,METAR,89.0
LPPR 300400Z 00000KT 8000 FEW003 SCT006 BKN015 16/15 Q1015,LPPR,2023-05-30T04:00:00Z,41.23,-8.68,16.0,15.0,0,0,,4.97,29.970472,,,,,,,,,,,FEW,300,SCT,600,BKN,1500,,,MVFR,,,,,,,,,,,,METAR,64.0
LPPD 300400Z 32005KT 210V020 9999 SCT017 17/15 Q1013,LPPD,2023-05-30T04:00:00Z,37.73,-25.68,17.0,15.0,320,5,,6.21,29.911417,,,,,,,,,,,SCT,1700,,,,,,,VFR,,,,,,,,,,,,METAR,62.0
LPMA 300400Z 32003KT 9999 FEW015 18/15 Q1018,LPMA,2023-05-30T04:00:00Z,32.7,-16.77,18.0,15.0,320,3,,6.21,30.059055,,,,,,,,,,,FEW,1500,,,,,,,VFR,,,,,,,,,,,,METAR,54.0
LPLA 300400Z /////KT 9999 FEW018 SCT040 16/15 Q1012,LPLA,2023-05-30T04:00:00Z,38.77,-27.1,16.0,15.0,,,,6.21,29.88189,,,,,,,,,,,FEW,1800,SCT,4000,,,,,VFR,,,,,,,,,,,,METAR,60.0
LPFR 300400Z 30004KT CAVOK 16/14 Q1016,LPFR,2023-05-30T04:00:00Z,37.02,-7.97,16.0,14.0,300,4,,6.21,30.0,,,,,,,,,,,CAVOK,,,,,,,,VFR,,,,,,,,,,,,METAR,3.0
LPBJ 300400Z 20005KT 0900 FG BKN003 12/11 Q1016,LPBJ,2023-05-30T04:00:00Z,38.08,-7.93,12.0,11.0,200,5,,0.56,30.0,,,,,,,,,,FG,BKN,300,,,,,,,LIFR,,,,,,,,,,,,METAR,196.0
LPAZ 300400Z 22008KT 9999 FEW020 18/15 Q1013,LPAZ,2023-05-30T04:00:00Z,36.97,-25.17,18.0,15.0,220,8,,6.21,29.911417,,,,,,,,,,,FEW,2000,,,,,,,VFR,,,,,,,,,,,,METAR,96.0
LKTB 300400Z 31004KT CAVOK 14/07 Q1019 NOSIG,LKTB,2023-05-30T04:00:00Z,49.15,16.68,14.0,7.0,310,4,,6.21,30.088583,,,,,,TRUE,,,,,CAVOK,,,,,,,,VFR,,,,,,,,,,,,METAR,233.0
LKPR 300400Z 33006KT CAVOK 11/06 Q1021 NOSIG,LKPR,2023-05-30T04:00:00Z,50.1,14.27,11.0,6.0,330,6,,6.21,30.147638,,,,,,TRUE,,,,,CAVOK,,,,,,,,VFR,,,,,,,,,,,,METAR,364.0
LKPD 300400Z 25002KT CAVOK 11/08 Q1020 NOSIG,LKPD,2023-05-30T04:00:00Z,50.02,15.73,11.0,8.0,250,2,,6.21,30.11811,,,,,,TRUE,,,,,CAVOK,,,,,,,,VFR,,,,,,,,,,,,METAR,226.0
LKNA 300400Z 32008KT CAVOK 12/07 Q1019 NOSIG,LKNA,2023-05-30T04:00:00Z,49.17,16.12,12.0,7.0,320,8,,6.21,30.088583,,,,,,TRUE,,,,,CAVOK,,,,,,,,VFR,,,,,,,,,,,,METAR,460.0
LKMT 300400Z VRB02KT CAVOK 10/08 Q1019 NOSIG,LKMT,2023-05-30T04:00:00Z,49.68,18.12,10.0,8.0,0,2,,6.21,30.088583,,,,,,TRUE,,,,,CAVOK,,,,,,,,VFR,,,,,,,,,,,,METAR,251.0
LKLN 300400Z AUTO VRB01KT 9999 // BKN082 11/06 Q1021,LKLN,2023-05-30T04:00:00Z,49.68,13.27,11.0,6.0,0,1,,6.21,30.147638,,,TRUE,,,,,,,,BKN,8200,,,,,,,VFR,,,,,,,,,,,,METAR,353.0
LKKV 300400Z 04002KT CAVOK 10/04 Q1022,LKKV,2023-05-30T04:00:00Z,50.2,12.92,10.0,4.0,40,2,,6.21,30.177166,,,,,,,,,,,CAVOK,,,,,,,,VFR,,,,,,,,,,,,METAR,600.0
LKKB 300400Z 32005KT CAVOK 13/06 Q1021 NOSIG,LKKB,2023-05-30T04:00:00Z,50.12,14.53,13.0,6.0,320,5,,6.21,30.147638,,,,,,TRUE,,,,,CAVOK,,,,,,,,VFR,,,,,,,,,,,,METAR,281.0
LKCV 300400Z 28004KT CAVOK 12/08 Q1020 NOSIG,LKCV,2023-05-30T04:00:00Z,49.93,15.38,12.0,8.0,280,4,,6.21,30.11811,,,,,,TRUE,,,,,CAVOK,,,,,,,,VFR,,,,,,,,,,,,METAR,234.0
LJPZ 300400Z AUTO VRB01KT 9999 NSC 15/11 Q1014,LJPZ,2023-05-30T04:00:00Z,45.47,13.62,15.0,11.0,0,1,,6.21,29.940945,,,TRUE,,,,,,,,CLR,,,,,,,,VFR,,,,,,,,,,,,METAR,2.0
LJMB 300400Z AUTO 36005KT 9999 NSC 14/10 Q1017,LJMB,2023-05-30T04:00:00Z,46.47,15.67,14.0,10.0,360,5,,6.21,30.029528,,,TRUE,,,,,,,,CLR,,,,,,,,VFR,,,,,,,,,,,,METAR,263.0
LJLJ 300400Z VRB02KT CAVOK 10/09 Q1017 NOSIG,LJLJ,2023-05-30T04:00:00Z,46.22,14.47,10.0,9.0,0,2,,6.21,30.029528,,,,,,TRUE,,,,,CAVOK,,,,,,,,VFR,,,,,,,,,,,,METAR,363.0
LJCE 300400Z AUTO 28004KT 9999 NSC 15/14 Q1017,LJCE,2023-05-30T04:00:00Z,45.9,15.52,15.0,14.0,280,4,,6.21,30.029528,,,TRUE,,,,,,,,CLR,,,,,,,,VFR,,,,,,,,,,,,METAR,153.0
LHBP 300400Z 36005KT CAVOK 14/12 Q1016 NOSIG,LHBP,2023-05-30T04:00:00Z,47.43,19.27,14.0,12.0,360,5,,6.21,30.0,,,,,,TRUE,,,,,CAVOK,,,,,,,,VFR,,,,,,,,,,,,METAR,141.0
LGKP 300400Z AUTO 29008KT //// // ////// 18/17 Q1011 RE//,LGKP,2023-05-30T04:00:00Z,35.42,27.15,18.0,17.0,290,8,,,29.852362,,,TRUE,,,,,,,,,,,,,,,,,,,,,,,,,,,,METAR,20.0
LFYR 300400Z AUTO 02005KT 320V070 CAVOK 14/10 Q1019,LFYR,2023-05-30T04:00:00Z,47.32,1.68,14.0,10.0,20,5,,6.21,30.088583,,,TRUE,,,,,,,,CAVOK,,,,,,,,VFR,,,,,,,,,,,,METAR,83.0
LFVP 300400Z AUTO 05005KT 9999 FEW038 BKN044 OVC050 04/01 Q1019,LFVP,2023-05-30T04:00:00Z,46.77,-56.18,4.0,1.0,50,5,,6.21,30.088583,,,TRUE,,,,,,,,FEW,3800,BKN,4400,OVC,5000,,,VFR,,,,,,,,,,,,METAR,5.0
LFTW 300400Z AUTO 02003KT CAVOK 15/14 Q1015 NOSIG,LFTW,2023-05-30T04:00:00Z,43.75,4.42,15.0,14.0,20,3,,6.21,29.970472,,,TRUE,,,TRUE,,,,,CAVOK,,,,,,,,VFR,,,,,,,,,,,,METAR,91.0
LFTH 300400Z AUTO 31007KT CAVOK 18/12 Q1013 NOSIG,LFTH,2023-05-30T04:00:00Z,43.1,6.15,18.0,12.0,310,7,,6.21,29.911417,,,TRUE,,,TRUE,,,,,CAVOK,,,,,,,,VFR,,,,,,,,,,,,METAR,3.0
LFSX 300400Z AUTO 22001KT CAVOK 09/M45 Q1018,LFSX,2023-05-30T04:00:00Z,47.77,6.35,9.0,-45.0,220,1,,6.21,30.059055,,,TRUE,,,,,,,,CAVOK,,,,,,,,VFR,,,,,,,,,,,,METAR,266.0
LFST 300400Z AUTO 02008KT 340V040 CAVOK 15/09 Q1019 NOSIG,LFST,2023-05-30T04:00:00Z,48.53,7.63,15.0,9.0,20,8,,6.21,30.088583,,,TRUE,,,TRUE,,,,,CAVOK,,,,,,,,VFR,,,,,,,,,,,,METAR,149.0
LFSO 300400Z AUTO 34004KT 300V360 CAVOK 11/09 Q1020,LFSO,2023-05-30T04:00:00Z,48.57,5.97,11.0,9.0,340,4,,6.21,30.11811,,,TRUE,,,,,,,,CAVOK,,,,,,,,VFR,,,,,,,,,,,,METAR,328.0
LFSN 300400Z AUTO 01003KT CAVOK 14/09 Q1020,LFSN,2023-05-30T04:00:00Z,48.68,6.22,14.0,9.0,10,3,,6.21,30.11811,,,TRUE,,,,,,,,CAVOK,,,,,,,,VFR,,,,,,,,,,,,METAR,214.0
LFSL 300400Z AUTO 00000KT CAVOK 13/11 Q1016 NOSIG,LFSL,2023-05-30T04:00:00Z,45.03,1.48,13.0,11.0,0,0,,6.21,30.0,,,TRUE,,,TRUE,,,,,CAVOK,,,,,,,,VFR,,,,,,,,,,,,METAR,300.0
LFSI 300400Z AUTO 03004KT 360V070 CAVOK 14/09 Q1020,LFSI,2023-05-30T04:00:00Z,48.62,4.9,14.0,9.0,30,4,,6.21,30.11811,,,TRUE,,,,,,,,CAVOK,,,,,,,,VFR,,,,,,,,,,,,METAR,136.0
LFSG 300400Z AUTO 02008KT 9999 FEW003 12/09 Q1020,LFSG,2023-05-30T04:00:00Z,48.33,6.07,12.0,9.0,20,8,,6.21,30.11811,,,TRUE,,,,,,,,FEW,300,,,,,,,VFR,,,,,,,,,,,,METAR,320.0
LFSD 300400Z AUTO 02006KT 340V040 CAVOK 14/10 Q1018,LFSD,2023-05-30T04:00:00Z,47.27,5.08,14.0,10.0,20,6,,6.21,30.059055,,,TRUE,,,,,,,,CAVOK,,,,,,,,VFR,,,,,,,,,,,,METAR,218.0
LFSB 300400Z AUTO 30006KT CAVOK 11/10 Q1018 NOSIG,LFSB,2023-05-30T04:00:00Z,47.6,7.52,11.0,10.0,300,6,,6.21,30.059055,,,TRUE,,,TRUE,,,,,CAVOK,,,,,,,,VFR,,,,,,,,,,,,METAR,262.0
LFRZ 300400Z AUTO 03009KT 360V060 CAVOK 13/10 Q1019 NOSIG,LFRZ,2023-05-30T04:00:00Z,47.32,-2.17,13.0,10.0,30,9,,6.21,30.088583,,,TRUE,,,TRUE,,,,,CAVOK,,,,,,,,VFR,,,,,,,,,,,,METAR,2.0
LFRV 300400Z AUTO 03013KT CAVOK 10/09 Q1020,LFRV,2023-05-30T04:00:00Z,47.72,-2.72,10.0,9.0,30,13,,6.21,30.11811,,,TRUE,,,,,,,,CAVOK,,,,,,,,VFR,,,,,,,,,,,,METAR,132.0
LFRT 300400Z AUTO 05012KT 9999 OVC010 12/10 Q1023,LFRT,2023-05-30T04:00:00Z,48.53,-2.85,12.0,10.0,50,12,,6.21,30.206694,,,TRUE,,,,,,,,OVC,1000,,,,,,,MVFR,,,,,,,,,,,,METAR,134.0
LFRS 300400Z AUTO 03007KT 330V070 CAVOK 14/10 Q1019 NOSIG,LFRS,2023-05-30T04:00:00Z,47.17,-1.6,14.0,10.0,30,7,,6.21,30.088583,,,TRUE,,,TRUE,,,,,CAVOK,,,,,,,,VFR,,,,,,,,,,,,METAR,26.0
LFRQ 300400Z AUTO 04011KT CAVOK 12/10 Q1021,LFRQ,2023-05-30T04:00:00Z,47.97,-4.17,12.0,10.0,40,11,,6.21,30.147638,,,TRUE,,,,,,,,CAVOK,,,,,,,,VFR,,,,,,,,,,,,METAR,94.0
LFRN 300400Z AUTO 36005KT 340V040 CAVOK 11/09 Q1021 NOSIG,LFRN,2023-05-30T04:00:00Z,48.07,-1.73,11.0,9.0,360,5,,6.21,30.147638,,,TRUE,,,TRUE,,,,,CAVOK,,,,,,,,VFR,,,,,,,,,,,,METAR,35.0
LFRM 300400Z AUTO 02008KT CAVOK 12/08 Q1020,LFRM,2023-05-30T04:00:00Z,47.95,0.2,12.0,8.0,20,8,,6.21,30.11811,,,TRUE,,,,,,,,CAVOK,,,,,,,,VFR,,,,,,,,,,,,METAR,51.0
LFRL 300400Z AUTO 06013KT 020V080 8000 OVC009 12/11 Q1022,LFRL,2023-05-30T04:00:00Z,48.27,-4.43,12.0,11.0,60,13,,4.97,30.177166,,,TRUE,,,,,,,,OVC,900,,,,,,,IFR,,,,,,,,,,,,METAR,80.0
LFRK 300400Z AUTO 02005KT 330V050 CAVOK 11/09 Q1024,LFRK,2023-05-30T04:00:00Z,49.17,-0.45,11.0,9.0,20,5,,6.21,30.236221,,,TRUE,,,,,,,,CAVOK,,,,,,,,VFR,,,,,,,,,,,,METAR,66.0
LFRJ 300400Z AUTO 07015KT 9999 OVC009 12/10 Q1023,LFRJ,2023-05-30T04:00:00Z,48.52,-4.15,12.0,10.0,70,15,,6.21,30.206694,,,TRUE,,,,,,,,OVC,900,,,,,,,IFR,,,,,,,,,,,,METAR,109.0
LFRI 300400Z AUTO 04010KT CAVOK 14/10 Q1018,LFRI,2023-05-30T04:00:00Z,46.7,-1.37,14.0,10.0,40,10,,6.21,30.059055,,,TRUE,,,,,,,,CAVOK,,,,,,,,VFR,,,,,,,,,,,,METAR,89.0
LFRH 300400Z AUTO 04013KT CAVOK 12/10 Q1021 NOSIG,LFRH,2023-05-30T04:00:00Z,47.77,-3.45,12.0,10.0,40,13,,6.21,30.147638,,,TRUE,,,TRUE,,,,,CAVOK,,,,,,,,VFR,,,,,,,,,,,,METAR,46.0
LFRG 300400Z AUTO 03007KT 350V060 CAVOK 09/08 Q1024,LFRG,2023-05-30T04:00:00Z,49.37,0.15,9.0,8.0,30,7,,6.21,30.236221,,,TRUE,,,,,,,,CAVOK,,,,,,,,VFR,,,,,,,,,,,,METAR,146.0
LFRD 300400Z AUTO 05009KT 020V090 CAVOK 11/09 Q1023 TEMPO 06015G25KT,LFRD,2023-05-30T04:00:00Z,48.58,-2.07,11.0,9.0,50,9,,6.21,30.206694,,,TRUE,,,,,,,,CAVOK,,,,,,,,VFR,,,,,,,,,,,,METAR,56.0
LFRC 300400Z AUTO 06018KT 030V090 9999 OVC012 11/09 Q1025,LFRC,2023-05-30T04:00:00Z,49.63,-1.47,11.0,9.0,60,18,,6.21,30.265747,,,TRUE,,,,,,,,OVC,1200,,,,,,,MVFR,,,,,,,,,,,,METAR,137.0
LFRB 300400Z AUTO 05014KT 9999 OVC009 12/10 Q1022 TEMPO 05015G25KT,LFRB,2023-05-30T04:00:00Z,48.45,-4.42,12.0,10.0,50,14,,6.21,30.177166,,,TRUE,,,,,,,,OVC,900,,,,,,,IFR,,,,,,,,,,,,METAR,91.0
LFQQ 300400Z AUTO 03012KT CAVOK 09/07 Q1026 NOSIG,LFQQ,2023-05-30T04:00:00Z,50.57,3.1,9.0,7.0,30,12,,6.21,30.295275,,,TRUE,,,TRUE,,,,,CAVOK,,,,,,,,VFR,,,,,,,,,,,,METAR,43.0
LFQB 300400Z AUTO 31009KT //// // NSC 10/09 Q1020,LFQB,2023-05-30T04:00:00Z,48.32,4.02,10.0,9.0,310,9,,,30.11811,,,TRUE,,,,,,,,CLR,,,,,,,,,,,,,,,,,,,,METAR,107.0
LFQA 300400Z AUTO 28005KT CAVOK 09/07 Q1022,LFQA,2023-05-30T04:00:00Z,49.2,4.15,9.0,7.0,280,5,,6.21,30.177166,,,TRUE,,,,,,,,CAVOK,,,,,,,,VFR,,,,,,,,,,,,METAR,92.0
LFPV 300400Z AUTO 03013KT 350V060 CAVOK 11/07 Q1022 NOSIG,LFPV,2023-05-30T04:00:00Z,48.77,2.2,11.0,7.0,30,13,,6.21,30.177166,,,TRUE,,,TRUE,,,,,CAVOK,,,,,,,,VFR,,,,,,,,,,,,METAR,171.0
LFPT 300400Z AUTO 04011KT CAVOK 11/06 Q1023,LFPT,2023-05-30T04:00:00Z,49.1,2.03,11.0,6.0,40,11,,6.21,30.206694,,,TRUE,,,,,,,,CAVOK,,,,,,,,VFR,,,,,,,,,,,,METAR,91.0
LFPO 300400Z AUTO 03012KT CAVOK 12/06 Q1022 NOSIG,LFPO,2023-05-30T04:00:00Z,48.72,2.38,12.0,6.0,30,12,,6.21,30.177166,,,TRUE,,,TRUE,,,,,CAVOK,,,,,,,,VFR,,,,,,,,,,,,METAR,88.0
LFPN 300400Z AUTO 04009KT 010V070 CAVOK 12/06 Q1022,LFPN,2023-05-30T04:00:00Z,48.75,2.12,12.0,6.0,40,9,,6.21,30.177166,,,TRUE,,,,,,,,CAVOK,,,,,,,,VFR,,,,,,,,,,,,METAR,152.0
LFPM 300400Z AUTO 36007KT CAVOK 11/06 Q1021,LFPM,2023-05-30T04:00:00Z,48.62,2.67,11.0,6.0,360,7,,6.21,30.147638,,,TRUE,,,,,,,,CAVOK,,,,,,,,VFR,,,,,,,,,,,,METAR,91.0
LFPG 300400Z 02014G25KT 010V100 CAVOK 11/06 Q1022 NOSIG,LFPG,2023-05-30T04:00:00Z,49.02,2.53,11.0,6.0,20,14,25,6.21,30.177166,,,,,,TRUE,,,,,CAVOK,,,,,,,,VFR,,,,,,,,,,,,METAR,107.0
LFPB 300400Z AUTO 36007KT 330V040 CAVOK 12/06 Q1022 NOSIG,LFPB,2023-05-30T04:00:00Z,48.97,2.42,12.0,6.0,360,7,,6.21,30.177166,,,TRUE,,,TRUE,,,,,CAVOK,,,,,,,,VFR,,,,,,,,,,,,METAR,50.0
LFOZ 300400Z AUTO 04010KT CAVOK 12/08 Q1020,LFOZ,2023-05-30T04:00:00Z,47.9,2.17,12.0,8.0,40,10,,6.21,30.11811,,,TRUE,,,,,,,,CAVOK,,,,,,,,VFR,,,,,,,,,,,,METAR,121.0
LFOV 300400Z AUTO 01009KT CAVOK 11/09 Q1021,LFOV,2023-05-30T04:00:00Z,48.03,-0.75,11.0,9.0,10,9,,6.21,30.147638,,,TRUE,,,,,,,,CAVOK,,,,,,,,VFR,,,,,,,,,,,,METAR,99.0
LFOP 300400Z AUTO 03012KT CAVOK 08/06 Q1023,LFOP,2023-05-30T04:00:00Z,49.37,1.17,8.0,6.0,30,12,,6.21,30.206694,,,TRUE,,,,,,,,CAVOK,,,,,,,,VFR,,,,,,,,,,,,METAR,149.0
LFOK 300400Z AUTO 02013KT CAVOK 11/07 Q1021 NOSIG,LFOK,2023-05-30T04:00:00Z,48.78,4.15,11.0,7.0,20,13,,6.21,30.147638,,,TRUE,,,TRUE,,,,,CAVOK,,,,,,,,VFR,,,,,,,,,,,,METAR,166.0
LFOJ 300400Z AUTO 03010KT CAVOK 11/08 Q1020 NOSIG,LFOJ,2023-05-30T04:00:00Z,47.98,1.75,11.0,8.0,30,10,,6.21,30.11811,,,TRUE,,,TRUE,,,,,CAVOK,,,,,,,,VFR,,,,,,,,,,,,METAR,122.0
LFOH 300400Z AUTO 05010KT CAVOK 10/08 Q1024,LFOH,2023-05-30T04:00:00Z,49.52,0.08,10.0,8.0,50,10,,6.21,30.236221,,,TRUE,,,,,,,,CAVOK,,,,,,,,VFR,,,,,,,,,,,,METAR,87.0
LFOE 300400Z AUTO 04008KT CAVOK 10/07 Q1023 NOSIG,LFOE,2023-05-30T04:00:00Z,49.02,1.22,10.0,7.0,40,8,,6.21,30.206694,,,TRUE,,,TRUE,,,,,CAVOK,,,,,,,,VFR,,,,,,,,,,,,METAR,132.0
LFOB 300400Z AUTO 04007KT 010V080 CAVOK 09/06 Q1024 NOSIG,LFOB,2023-05-30T04:00:00Z,49.47,2.12,9.0,6.0,40,7,,6.21,30.236221,,,TRUE,,,TRUE,,,,,CAVOK,,,,,,,,VFR,,,,,,,,,,,,METAR,99.0
LFOA 300400Z AUTO 05011KT CAVOK 14/11 Q1018 NOSIG,LFOA,2023-05-30T04:00:00Z,47.05,2.63,14.0,11.0,50,11,,6.21,30.059055,,,TRUE,,,TRUE,,,,,CAVOK,,,,,,,,VFR,,,,,,,,,,,,METAR,174.0
LFMY 300400Z AUTO 04003KT CAVOK 13/13 Q1014,LFMY,2023-05-30T04:00:00Z,43.6,5.1,13.0,13.0,40,3,,6.21,29.940945,,,TRUE,,,,,,,,CAVOK,,,,,,,,VFR,,,,,,,,,,,,METAR,57.0
LFMV 300400Z AUTO VRB02KT 3100 BR OVC002 15/15 Q1015 TEMPO 2000 BR,LFMV,2023-05-30T04:00:00Z,43.9,4.9,15.0,15.0,0,2,,1.93,29.970472,,,TRUE,,,,,,,BR,OVC,200,,,,,,,LIFR,,,,,,,,,,,,METAR,33.0
LFMU 300400Z AUTO 31002KT CAVOK 15/13 Q1015 NOSIG,LFMU,2023-05-30T04:00:00Z,43.32,3.35,15.0,13.0,310,2,,6.21,29.970472,,,TRUE,,,TRUE,,,,,CAVOK,,,,,,,,VFR,,,,,,,,,,,,METAR,14.0
LFMT 300400Z AUTO 33004KT CAVOK 15/15 Q1015 NOSIG,LFMT,2023-05-30T04:00:00Z,43.57,3.97,15.0,15.0,330,4,,6.21,29.970472,,,TRUE,,,TRUE,,,,,CAVOK,,,,,,,,VFR,,,,,,,,,,,,METAR,1.0
LFMP 300400Z AUTO 24004KT 9999 OVC016 17/14 Q1015 TEMPO 3000 BR BKN012,LFMP,2023-05-30T04:00:00Z,42.73,2.87,17.0,14.0,240,4,,6.21,29.970472,,,TRUE,,,,,,,,OVC,1600,,,,,,,MVFR,,,,,,,,,,,,METAR,41.0
LFMO 300400Z AUTO 31003KT CAVOK 13/13 Q1015 TEMPO 3000 BR,LFMO,2023-05-30T04:00:00Z,44.13,4.87,13.0,13.0,310,3,,6.21,29.970472,,,TRUE,,,,,,,,CAVOK,,,,,,,,VFR,,,,,,,,,,,,METAR,56.0
LFMN 300400Z 34013KT CAVOK 19/11 Q1014 NOSIG,LFMN,2023-05-30T04:00:00Z,43.65,7.2,19.0,11.0,340,13,,6.21,29.940945,,,,,,TRUE,,,,,CAVOK,,,,,,,,VFR,,,,,,,,,,,,METAR,4.0
LFML 300400Z AUTO 07010KT CAVOK 17/13 Q1014 NOSIG,LFML,2023-05-30T04:00:00Z,43.45,5.22,17.0,13.0,70,10,,6.21,29.940945,,,TRUE,,,TRUE,,,,,CAVOK,,,,,,,,VFR,,,,,,,,,,,,METAR,20.0
LFMK 300400Z AUTO 22001KT CAVOK 16/14 Q1015 NOSIG,LFMK,2023-05-30T04:00:00Z,43.22,2.32,16.0,14.0,220,1,,6.21,29.970472,,,TRUE,,,TRUE,,,,,CAVOK,,,,,,,,VFR,,,,,,,,,,,,METAR,124.0
LFMI 300400Z AUTO 03006KT CAVOK 16/13 Q1014 NOSIG,LFMI,2023-05-30T04:00:00Z,43.52,4.93,16.0,13.0,30,6,,6.21,29.940945,,,TRUE,,,TRUE,,,,,CAVOK,,,,,,,,VFR,,,,,,,,,,,,METAR,20.0
LFMH 300400Z AUTO 00000KT CAVOK 10/09 Q1017,LFMH,2023-05-30T04:00:00Z,45.52,4.28,10.0,9.0,0,0,,6.21,30.029528,,,TRUE,,,,,,,,CAVOK,,,,,,,,VFR,,,,,,,,,,,,METAR,400.0
LFMD 300400Z AUTO 35003KT 320V040 CAVOK 16/12 Q1013 NOSIG,LFMD,2023-05-30T04:00:00Z,43.53,6.95,16.0,12.0,350,3,,6.21,29.911417,,,TRUE,,,TRUE,,,,,CAVOK,,,,,,,,VFR,,,,,,,,,,,,METAR,2.0
LFMC 300400Z AUTO 00000KT 9999 ////// 13/12 Q1014,LFMC,2023-05-30T04:00:00Z,43.37,6.38,13.0,12.0,0,0,,6.21,29.940945,,,TRUE,,,,,,,,,,,,,,,,,,,,,,,,,,,,METAR,79.0
LFLY 300400Z AUTO 13002KT CAVOK 12/11 Q1016 NOSIG,LFLY,2023-05-30T04:00:00Z,45.72,4.95,12.0,11.0,130,2,,6.21,30.0,,,TRUE,,,TRUE,,,,,CAVOK,,,,,,,,VFR,,,,,,,,,,,,METAR,197.0
LFLX 300400Z AUTO 01006KT CAVOK 11/09 Q1018 NOSIG,LFLX,2023-05-30T04:00:00Z,46.87,1.73,11.0,9.0,10,6,,6.21,30.059055,,,TRUE,,,TRUE,,,,,CAVOK,,,,,,,,VFR,,,,,,,,,,,,METAR,157.0
LFLW 300400Z AUTO 11003KT 9000 NSC 10/10 Q1017,LFLW,2023-05-30T04:00:00Z,44.88,2.42,10.0,10.0,110,3,,5.59,30.029528,,,TRUE,,,,,,,,CLR,,,,,,,,VFR,,,,,,,,,,,,METAR,638.0
LFLP 300400Z AUTO 03002KT CAVOK 12/10 Q1018 NOSIG,LFLP,2023-05-30T04:00:00Z,45.92,6.1,12.0,10.0,30,2,,6.21,30.059055,,,TRUE,,,TRUE,,,,,CAVOK,,,,,,,,VFR,,,,,,,,,,,,METAR,460.0
LFLN 300400Z AUTO 36002KT CAVOK 09/08 Q1017,LFLN,2023-05-30T04:00:00Z,46.42,4.02,9.0,8.0,360,2,,6.21,30.029528,,,TRUE,,,,,,,,CAVOK,,,,,,,,VFR,,,,,,,,,,,,METAR,238.0
LFLL 300400Z 15004KT CAVOK 14/12 Q1016 NOSIG,LFLL,2023-05-30T04:00:00Z,45.72,5.07,14.0,12.0,150,4,,6.21,30.0,,,,,,TRUE,,,,,CAVOK,,,,,,,,VFR,,,,,,,,,,,,METAR,234.0
LFLC 300400Z AUTO 16001KT CAVOK 10/08 Q1017 NOSIG,LFLC,2023-05-30T04:00:00Z,45.78,3.17,10.0,8.0,160,1,,6.21,30.029528,,,TRUE,,,TRUE,,,,,CAVOK,,,,,,,,VFR,,,,,,,,,,,,METAR,325.0
LFLB 300400Z AUTO 16005KT CAVOK 13/12 Q1016 NOSIG,LFLB,2023-05-30T04:00:00Z,45.63,5.87,13.0,12.0,160,5,,6.21,30.0,,,TRUE,,,TRUE,,,,,CAVOK,,,,,,,,VFR,,,,,,,,,,,,METAR,234.0
LFKS 300400Z AUTO 27006KT CAVOK 18/12 Q1013,LFKS,2023-05-30T04:00:00Z,41.92,9.4,18.0,12.0,270,6,,6.21,29.911417,,,TRUE,,,,,,,,CAVOK,,,,,,,,VFR,,,,,,,,,,,,METAR,22.0
LFKJ 300400Z AUTO 03006KT 010V070 CAVOK 15/12 Q1012 NOSIG,LFKJ,2023-05-30T04:00:00Z,41.92,8.8,15.0,12.0,30,6,,6.21,29.88189,,,TRUE,,,TRUE,,,,,CAVOK,,,,,,,,VFR,,,,,,,,,,,,METAR,9.0
LFKF 300400Z AUTO 08001KT CAVOK 11/10 Q1013 NOSIG,LFKF,2023-05-30T04:00:00Z,41.5,9.08,11.0,10.0,80,1,,6.21,29.911417,,,TRUE,,,TRUE,,,,,CAVOK,,,,,,,,VFR,,,,,,,,,,,,METAR,15.0
LFKC 300400Z AUTO 18004KT CAVOK 15/12 Q1013 NOSIG,LFKC,2023-05-30T04:00:00Z,42.52,8.8,15.0,12.0,180,4,,6.21,29.911417,,,TRUE,,,TRUE,,,,,CAVOK,,,,,,,,VFR,,,,,,,,,,,,METAR,38.0
LFKB 300400Z AUTO 21004KT CAVOK 15/12 Q1013 NOSIG,LFKB,2023-05-30T04:00:00Z,42.55,9.48,15.0,12.0,210,4,,6.21,29.911417,,,TRUE,,,TRUE,,,,,CAVOK,,,,,,,,VFR,,,,,,,,,,,,METAR,7.0
LFJR 300400Z AUTO 02007KT 350V050 CAVOK 13/09 Q1020,LFJR,2023-05-30T04:00:00Z,47.57,-0.32,13.0,9.0,20,7,,6.21,30.11811,,,TRUE,,,,,,,,CAVOK,,,,,,,,VFR,,,,,,,,,,,,METAR,50.0
LFJL 300400Z AUTO 02007KT CAVOK 12/08 Q1021 NOSIG,LFJL,2023-05-30T04:00:00Z,48.97,6.25,12.0,8.0,20,7,,6.21,30.147638,,,TRUE,,,TRUE,,,,,CAVOK,,,,,,,,VFR,,,,,,,,,,,,METAR,259.0
LFGJ 300400Z AUTO 01005KT 340V050 CAVOK 13/09 Q1017,LFGJ,2023-05-30T04:00:00Z,47.05,5.43,13.0,9.0,10,5,,6.21,30.029528,,,TRUE,,,,,,,,CAVOK,,,,,,,,VFR,,,,,,,,,,,,METAR,191.0
LFGA 300400Z AUTO 01008KT CAVOK 15/08 Q1019,LFGA,2023-05-30T04:00:00Z,48.1,7.35,15.0,8.0,10,8,,6.21,30.088583,,,TRUE,,,,,,,,CAVOK,,,,,,,,VFR,,,,,,,,,,,,METAR,191.0
LFCR 300400Z AUTO 04002KT 8000 NSC 12/11 Q1016 NOSIG,LFCR,2023-05-30T04:00:00Z,44.4,2.47,12.0,11.0,40,2,,4.97,30.0,,,TRUE,,,TRUE,,,,,CLR,,,,,,,,MVFR,,,,,,,,,,,,METAR,576.0
LFCK 300400Z AUTO 11004KT CAVOK 16/12 Q1016,LFCK,2023-05-30T04:00:00Z,43.55,2.28,16.0,12.0,110,4,,6.21,30.0,,,TRUE,,,,,,,,CAVOK,,,,,,,,VFR,,,,,,,,,,,,METAR,223.0
LFBZ 300400Z AUTO 17003KT 5000 BR NSC 15/15 Q1015 TEMPO 2000 BR BKN007,LFBZ,2023-05-30T04:00:00Z,43.47,-1.53,15.0,15.0,170,3,,3.11,29.970472,,,TRUE,,,,,,,BR,CLR,,,,,,,,MVFR,,,,,,,,,,,,METAR,70.0
LFBY 300400Z AUTO 14003KT 0150 // ////// 16/16 Q1015,LFBY,2023-05-30T04:00:00Z,43.68,-1.07,16.0,16.0,140,3,,0.09,29.970472,,,TRUE,,,,,,,,,,,,,,,,,,,,,,,,,,,,METAR,32.0
LFBX 300400Z AUTO 00000KT CAVOK 11/10 Q1015,LFBX,2023-05-30T04:00:00Z,45.2,0.82,11.0,10.0,0,0,,6.21,29.970472,,,TRUE,,,,,,,,CAVOK,,,,,,,,VFR,,,,,,,,,,,,METAR,97.0
LFBU 300400Z AUTO 01008KT CAVOK 15/12 Q1016,LFBU,2023-05-30T04:00:00Z,45.72,0.22,15.0,12.0,10,8,,6.21,30.0,,,TRUE,,,,,,,,CAVOK,,,,,,,,VFR,,,,,,,,,,,,METAR,124.0
LFBT 300400Z AUTO 17004KT CAVOK 13/11 Q1016 NOSIG,LFBT,2023-05-30T04:00:00Z,43.18,0.0,13.0,11.0,170,4,,6.21,30.0,,,TRUE,,,TRUE,,,,,CAVOK,,,,,,,,VFR,,,,,,,,,,,,METAR,359.0
LFBP 300400Z AUTO 15003KT CAVOK 14/14 Q1015 TEMPO 4000 BR,LFBP,2023-05-30T04:00:00Z,43.38,-0.42,14.0,14.0,150,3,,6.21,29.970472,,,TRUE,,,,,,,,CAVOK,,,,,,,,VFR,,,,,,,,,,,,METAR,182.0
LFBO 300400Z AUTO 17002KT 9999 3900 NSC 16/13 Q1015 NOSIG,LFBO,2023-05-30T04:00:00Z,43.62,1.37,16.0,13.0,170,2,,6.21,29.970472,,,TRUE,,,TRUE,,,,,CLR,,,,,,,,VFR,,,,,,,,,,,,METAR,150.0
LFBM 300400Z AUTO 00000KT 4900 BR NSC ///// Q1015 TEMPO 0500 FG,LFBM,2023-05-30T04:00:00Z,43.92,-0.5,,,0,0,,3.04,29.970472,,,TRUE,,,,,,,BR,CLR,,,,,,,,MVFR,,,,,,,,,,,,METAR,56.0
LFBL 300400Z AUTO 04006KT CAVOK 16/09 Q1017 NOSIG,LFBL,2023-05-30T04:00:00Z,45.87,1.17,16.0,9.0,40,6,,6.21,30.029528,,,TRUE,,,TRUE,,,,,CAVOK,,,,,,,,VFR,,,,,,,,,,,,METAR,402.0
LFBI 300400Z AUTO 36005KT CAVOK 12/10 Q1018 NOSIG,LFBI,2023-05-30T04:00:00Z,46.58,0.32,12.0,10.0,360,5,,6.21,30.059055,,,TRUE,,,TRUE,,,,,CAVOK,,,,,,,,VFR,,,,,,,,,,,,METAR,117.0
LFBH 300400Z AUTO 04010KT CAVOK 15/12 Q1016 NOSIG,LFBH,2023-05-30T04:00:00Z,46.18,-1.2,15.0,12.0,40,10,,6.21,30.0,,,TRUE,,,TRUE,,,,,CAVOK,,,,,,,,VFR,,,,,,,,,,,,METAR,18.0
LFBG 300400Z AUTO 03007KT CAVOK 17/13 Q1016,LFBG,2023-05-30T04:00:00Z,45.67,-0.32,17.0,13.0,30,7,,6.21,30.0,,,TRUE,,,,,,,,CAVOK,,,,,,,,VFR,,,,,,,,,,,,METAR,28.0
LFBF 300400Z AUTO 19001KT CAVOK 15/14 Q1015,LFBF,2023-05-30T04:00:00Z,43.53,1.37,15.0,14.0,190,1,,6.21,29.970472,,,TRUE,,,,,,,,CAVOK,,,,,,,,VFR,,,,,,,,,,,,METAR,159.0
LFBE 300400Z AUTO VRB02KT CAVOK 11/11 Q1015 NOSIG,LFBE,2023-05-30T04:00:00Z,44.82,0.52,11.0,11.0,0,2,,6.21,29.970472,,,TRUE,,,TRUE,,,,,CAVOK,,,,,,,,VFR,,,,,,,,,,,,METAR,49.0
LFBD 300400Z AUTO 18005KT CAVOK 15/14 Q1015 TEMPO 1200 MIFG,LFBD,2023-05-30T04:00:00Z,44.82,-0.7,15.0,14.0,180,5,,6.21,29.970472,,,TRUE,,,,,,,,CAVOK,,,,,,,,VFR,,,,,,,,,,,,METAR,48.0
LFBC 300400Z AUTO 15004KT 3800 1300 R24/P2000 BR NSC 14/14 Q1015,LFBC,2023-05-30T04:00:00Z,44.52,-1.12,14.0,14.0,150,4,,2.36,29.970472,,,TRUE,,,,,,,BR,CLR,,,,,,,,IFR,,,,,,,,,,,,METAR,22.0
LFBA 300400Z AUTO VRB03KT 8000 NSC 14/13 Q1015,LFBA,2023-05-30T04:00:00Z,44.17,0.6,14.0,13.0,0,3,,4.97,29.970472,,,TRUE,,,,,,,,CLR,,,,,,,,MVFR,,,,,,,,,,,,METAR,68.0
LFAT 300400Z AUTO 04007KT 360V080 CAVOK 10/07 Q1026,LFAT,2023-05-30T04:00:00Z,50.52,1.62,10.0,7.0,40,7,,6.21,30.295275,,,TRUE,,,,,,,,CAVOK,,,,,,,,VFR,,,,,,,,,,,,METAR,2.0
LFAQ 300400Z AUTO 03011KT CAVOK 09/06 Q1024,LFAQ,2023-05-30T04:00:00Z,49.97,2.7,9.0,6.0,30,11,,6.21,30.236221,,,TRUE,,,,,,,,CAVOK,,,,,,,,VFR,,,,,,,,,,,,METAR,107.0
LFAC 300400Z AUTO 06015KT 9999 BKN021 11/08 Q1027,LFAC,2023-05-30T04:00:00Z,50.97,1.95,11.0,8.0,60,15,,6.21,30.324802,,,TRUE,,,,,,,,BKN,2100,,,,,,,MVFR,,,,,,,,,,,,METAR,3.0
LEZL 300400Z 34003KT 310V010 CAVOK 17/16 Q1015 NOSIG,LEZL,2023-05-30T04:00:00Z,37.42,-5.9,17.0,16.0,340,3,,6.21,29.970472,,,,,,TRUE,,,,,CAVOK,,,,,,,,VFR,,,,,,,,,,,,METAR,26.0
LEZG 300400Z 29006KT 9999 FEW070 17/13 Q1014,LEZG,2023-05-30T04:00:00Z,41.67,-1.02,17.0,13.0,290,6,,6.21,29.940945,,,,,,,,,,,FEW,7000,,,,,,,VFR,,,,,,,,,,,,METAR,245.0
LEXJ 300400Z VRB01KT 1500 BR BKN005 16/16 Q1015,LEXJ,2023-05-30T04:00:00Z,43.42,-3.82,16.0,16.0,0,1,,0.93,29.970472,,,,,,,,,,BR,BKN,500,,,,,,,LIFR,,,,,,,,,,,,METAR,1.0
LEVX 300400Z VRB02KT 4300 BCFG FEW001 SCT002 BKN006 14/14 Q1015 TEMPO 0300 BKN001,LEVX,2023-05-30T04:00:00Z,42.23,-8.62,14.0,14.0,0,2,,2.67,29.970472,,,,,,,,,,BCFG,FEW,100,SCT,200,BKN,600,,,IFR,,,,,,,,,,,,METAR,253.0
LEVT 300400Z VRB02KT 7000 NSC 08/07 Q1016,LEVT,2023-05-30T04:00:00Z,42.87,-2.72,8.0,7.0,0,2,,4.35,30.0,,,,,,,,,,,CLR,,,,,,,,MVFR,,,,,,,,,,,,METAR,501.0
LEVS 300400Z AUTO 00000KT CAVOK 13/13 Q1015,LEVS,2023-05-30T04:00:00Z,40.37,-3.78,13.0,13.0,0,0,,6.21,29.970472,,,TRUE,,,,,,,,CAVOK,,,,,,,,VFR,,,,,,,,,,,,METAR,683.0
LEVD 300400Z AUTO 10005KT 050V120 CAVOK 12/11 Q1015,LEVD,2023-05-30T04:00:00Z,41.72,-4.85,12.0,11.0,100,5,,6.21,29.970472,,,TRUE,,,,,,,,CAVOK,,,,,,,,VFR,,,,,,,,,,,,METAR,844.0
LEVC 300400Z 30003KT 9999 FEW040 15/14 Q1014 NOSIG,LEVC,2023-05-30T04:00:00Z,39.5,-0.47,15.0,14.0,300,3,,6.21,29.940945,,,,,,TRUE,,,,,FEW,4000,,,,,,,VFR,,,,,,,,,,,,METAR,58.0
LETU 300400Z AUTO 29003KT 250V320 CAVOK 16/11 Q1015,LETU,2023-05-30T04:00:00Z,,,16.0,11.0,290,3,,6.21,29.970472,,,TRUE,,,,,,,,CAVOK,,,,,,,,VFR,,,,,,,,,,,,METAR,
LETO 300400Z 02006KT 360V080 CAVOK 10/10 Q1015 NOSIG,LETO,2023-05-30T04:00:00Z,40.48,-3.47,10.0,10.0,20,6,,6.21,29.970472,,,,,,TRUE,,,,,CAVOK,,,,,,,,VFR,,,,,,,,,,,,METAR,598.0
LETL 300400Z AUTO 26003KT 230V290 9999 FEW010 SCT035 09/09 Q1016,LETL,2023-05-30T04:00:00Z,40.42,-1.22,9.0,9.0,260,3,,6.21,30.0,,,TRUE,,,,,,,,FEW,1000,SCT,3500,,,,,VFR,,,,,,,,,,,,METAR,1024.0
LEST 300400Z VRB01KT 0800 R17/1300U R35/1200D FG BKN002 14/14 Q1015 NOSIG,LEST,2023-05-30T04:00:00Z,42.88,-8.42,14.0,14.0,0,1,,0.5,29.970472,,,,,,TRUE,,,,FG,BKN,200,,,,,,,LIFR,,,,,,,,,,,,METAR,363.0
LESO 300400Z VRB01KT CAVOK 17/15 Q1015,LESO,2023-05-30T04:00:00Z,43.35,-1.8,17.0,15.0,0,1,,6.21,29.970472,,,,,,,,,,,CAVOK,,,,,,,,VFR,,,,,,,,,,,,METAR,3.0
LESB 300400Z AUTO 36003KT CAVOK 16/14 Q1014,LESB,2023-05-30T04:00:00Z,39.6,2.7,16.0,14.0,360,3,,6.21,29.940945,,,TRUE,,,,,,,,CAVOK,,,,,,,,VFR,,,,,,,,,,,,METAR,48.0
LESA 300400Z AUTO 10003KT 7000 NCD 11/10 Q1015,LESA,2023-05-30T04:00:00Z,40.95,-5.5,11.0,10.0,100,3,,4.35,29.970472,,,TRUE,,,,,,,,CLR,,,,,,,,MVFR,,,,,,,,,,,,METAR,788.0
LERT 300400Z VRB02KT CAVOK 17/14 Q1015 NOSIG,LERT,2023-05-30T04:00:00Z,36.63,-6.33,17.0,14.0,0,2,,6.21,29.970472,,,,,,TRUE,,,,,CAVOK,,,,,,,,VFR,,,,,,,,,,,,METAR,27.0
LERS 300400Z AUTO 04005KT CAVOK 15/14 Q1014,LERS,2023-05-30T04:00:00Z,41.13,1.17,15.0,14.0,40,5,,6.21,29.940945,,,TRUE,,,,,,,,CAVOK,,,,,,,,VFR,,,,,,,,,,,,METAR,68.0
LEPP 300400Z VRB01KT CAVOK 10/09 Q1016,LEPP,2023-05-30T04:00:00Z,42.77,-1.65,10.0,9.0,0,1,,6.21,30.0,,,,,,,,,,,CAVOK,,,,,,,,VFR,,,,,,,,,,,,METAR,448.0
LEPA 300400Z 06003KT 9999 FEW015 SCT065 15/15 Q1013 NOSIG,LEPA,2023-05-30T04:00:00Z,39.55,2.73,15.0,15.0,60,3,,6.21,29.911417,,,,,,TRUE,,,,,FEW,1500,SCT,6500,,,,,VFR,,,,,,,,,,,,METAR,8.0
LEMO 300400Z VRB02KT 9999 FEW049 14/13 Q1015 NOSIG,LEMO,2023-05-30T04:00:00Z,37.17,-5.62,14.0,13.0,0,2,,6.21,29.970472,,,,,,TRUE,,,,,FEW,4900,,,,,,,VFR,,,,,,,,,,,,METAR,82.0
LEMI 300400Z AUTO 34004KT CAVOK 18/13 Q1014,LEMI,2023-05-30T04:00:00Z,37.8,-1.12,18.0,13.0,340,4,,6.21,29.940945,,,TRUE,,,,,,,,CAVOK,,,,,,,,VFR,,,,,,,,,,,,METAR,193.0
LEMH 300400Z 34003KT 9999 -RA FEW015 SCT045 16/14 Q1014,LEMH,2023-05-30T04:00:00Z,39.87,4.22,16.0,14.0,340,3,,6.21,29.940945,,,,,,,,,,-RA,FEW,1500,SCT,4500,,,,,VFR,,,,,,,,,,,,METAR,82.0
LEMG 300400Z 28012KT CAVOK 19/12 Q1013 NOSIG,LEMG,2023-05-30T04:00:00Z,36.67,-4.47,19.0,12.0,280,12,,6.21,29.911417,,,,,,TRUE,,,,,CAVOK,,,,,,,,VFR,,,,,,,,,,,,METAR,5.0
LEMD 300400Z 02002KT 8000 NSC 12/11 Q1015 NOSIG,LEMD,2023-05-30T04:00:00Z,40.45,-3.57,12.0,11.0,20,2,,4.97,29.970472,,,,,,TRUE,,,,,CLR,,,,,,,,MVFR,,,,,,,,,,,,METAR,589.0
LELO 300400Z AUTO VRB01KT CAVOK 11/10 Q1015,LELO,2023-05-30T04:00:00Z,42.45,-2.32,11.0,10.0,0,1,,6.21,29.970472,,,TRUE,,,,,,,,CAVOK,,,,,,,,VFR,,,,,,,,,,,,METAR,352.0
LELN 300400Z AUTO 35006KT CAVOK 11/09 Q1016,LELN,2023-05-30T04:00:00Z,42.58,-5.65,11.0,9.0,350,6,,6.21,30.0,,,TRUE,,,,,,,,CAVOK,,,,,,,,VFR,,,,,,,,,,,,METAR,911.0
LELL 300400Z AUTO VRB02KT CAVOK 15/12 Q1015,LELL,2023-05-30T04:00:00Z,41.52,2.1,15.0,12.0,0,2,,6.21,29.970472,,,TRUE,,,,,,,,CAVOK,,,,,,,,VFR,,,,,,,,,,,,METAR,136.0
LELC 300400Z AUTO VRB01KT CAVOK 19/16 Q1014,LELC,2023-05-30T04:00:00Z,37.77,-0.8,19.0,16.0,0,1,,6.21,29.940945,,,TRUE,,,,,,,,CAVOK,,,,,,,,VFR,,,,,,,,,,,,METAR,3.0
LEJR 300400Z 00000KT CAVOK 14/13 Q1015,LEJR,2023-05-30T04:00:00Z,36.75,-6.07,14.0,13.0,0,0,,6.21,29.970472,,,,,,,,,,,CAVOK,,,,,,,,VFR,,,,,,,,,,,,METAR,25.0
LEIB 300400Z VRB01KT 9999 FEW020 17/16 Q1013 NOSIG,LEIB,2023-05-30T04:00:00Z,38.87,1.38,17.0,16.0,0,1,,6.21,29.911417,,,,,,TRUE,,,,,FEW,2000,,,,,,,VFR,,,,,,,,,,,,METAR,4.0
LEHC 300400Z AUTO 00000KT CAVOK 15/12 Q1015,LEHC,2023-05-30T04:00:00Z,42.08,-0.32,15.0,12.0,0,0,,6.21,29.970472,,,TRUE,,,,,,,,CAVOK,,,,,,,,VFR,,,,,,,,,,,,METAR,540.0
LEGR 300400Z 22004KT 170V240 CAVOK 13/11 Q1016,LEGR,2023-05-30T04:00:00Z,37.18,-3.78,13.0,11.0,220,4,,6.21,30.0,,,,,,,,,,,CAVOK,,,,,,,,VFR,,,,,,,,,,,,METAR,560.0
LEGE 300400Z 00000KT 9999 FEW055 14/12 Q1015,LEGE,2023-05-30T04:00:00Z,41.9,2.77,14.0,12.0,0,0,,6.21,29.970472,,,,,,,,,,,FEW,5500,,,,,,,VFR,,,,,,,,,,,,METAR,140.0
LEDA 300400Z AUTO 05005KT CAVOK 14/12 Q1015,LEDA,2023-05-30T04:00:00Z,41.73,0.53,14.0,12.0,50,5,,6.21,29.970472,,,TRUE,,,,,,,,CAVOK,,,,,,,,VFR,,,,,,,,,,,,METAR,352.0
LECO 300400Z VRB01KT 8000 NSC 15/15 Q1015 NOSIG,LECO,2023-05-30T04:00:00Z,43.3,-8.37,15.0,15.0,0,1,,4.97,29.970472,,,,,,TRUE,,,,,CLR,,,,,,,,MVFR,,,,,,,,,,,,METAR,80.0
LECH 300400Z AUTO 36004KT 330V030 4600 BR NSC 14/14 Q1015,LECH,2023-05-30T04:00:00Z,40.2,0.07,14.0,14.0,360,4,,2.86,29.970472,,,TRUE,,,,,,,BR,CLR,,,,,,,,IFR,,,,,,,,,,,,METAR,360.0
LEBT 300400Z AUTO VRB02KT 9999 OVC035 13/12 Q1014,LEBT,2023-05-30T04:00:00Z,39.58,-0.45,13.0,12.0,0,2,,6.21,29.940945,,,TRUE,,,,,,,,OVC,3500,,,,,,,VFR,,,,,,,,,,,,METAR,50.0
LEBR 300400Z AUTO 22002KT CAVOK 15/13 Q1015,LEBR,2023-05-30T04:00:00Z,42.2,-1.43,15.0,13.0,220,2,,6.21,29.970472,,,TRUE,,,,,,,,CAVOK,,,,,,,,VFR,,,,,,,,,,,,METAR,347.0
LEBL 300400Z 32007KT 9000 FEW015 17/15 Q1014 NOSIG,LEBL,2023-05-30T04:00:00Z,41.28,2.07,17.0,15.0,320,7,,5.59,29.940945,,,,,,TRUE,,,,,FEW,1500,,,,,,,VFR,,,,,,,,,,,,METAR,2.0
LEBG 300400Z AUTO 06003KT CAVOK 09/09 Q1016,LEBG,2023-05-30T04:00:00Z,42.37,-3.62,9.0,9.0,60,3,,6.21,30.0,,,TRUE,,,,,,,,CAVOK,,,,,,,,VFR,,,,,,,,,,,,METAR,892.0
LEBB 300400Z VRB02KT CAVOK 15/14 Q1015 NOSIG,LEBB,2023-05-30T04:00:00Z,43.28,-2.92,15.0,14.0,0,2,,6.21,29.970472,,,,,,TRUE,,,,,CAVOK,,,,,,,,VFR,,,,,,,,,,,,METAR,38.0
LEBA 300400Z AUTO 15003KT CAVOK 16/14 Q1015,LEBA,2023-05-30T04:00:00Z,37.85,-4.83,16.0,14.0,150,3,,6.21,29.970472,,,TRUE,,,,,,,,CAVOK,,,,,,,,VFR,,,,,,,,,,,,METAR,88.0
LEAS 300400Z 25003KT 160V290 6000 OVC004 16/15 Q1015 TEMPO 3000 BR BKN005,LEAS,2023-05-30T04:00:00Z,43.57,-6.03,16.0,15.0,250,3,,3.73,29.970472,,,,,,,,,,,OVC,400,,,,,,,LIFR,,,,,,,,,,,,METAR,120.0
LEAM 300400Z VRB01KT 9999 FEW030 SCT090 19/16 Q1013,LEAM,2023-05-30T04:00:00Z,36.85,-2.37,19.0,16.0,0,1,,6.21,29.911417,,,,,,,,,,,FEW,3000,SCT,9000,,,,,VFR,,,,,,,,,,,,METAR,16.0
LEAL 300400Z 28005KT 9999 FEW025 18/16 Q1013 NOSIG,LEAL,2023-05-30T04:00:00Z,38.27,-0.55,18.0,16.0,280,5,,6.21,29.911417,,,,,,TRUE,,,,,FEW,2500,,,,,,,VFR,,,,,,,,,,,,METAR,26.0
LEAG 300400Z AUTO 25004KT 210V290 CAVOK 19/14 Q1015,LEAG,2023-05-30T04:00:00Z,36.12,-5.45,19.0,14.0,250,4,,6.21,29.970472,,,TRUE,,,,,,,,CAVOK,,,,,,,,VFR,,,,,,,,,,,,METAR,4.0
LEAB 300400Z 00000KT CAVOK 13/13 Q1016 NOSIG,LEAB,2023-05-30T04:00:00Z,38.95,-1.85,13.0,13.0,0,0,,6.21,30.0,,,,,,TRUE,,,,,CAVOK,,,,,,,,VFR,,,,,,,,,,,,METAR,704.0
LDZD 300400Z VRB03KT CAVOK 13/13 Q1013 NOSIG,LDZD,2023-05-30T04:00:00Z,44.1,15.33,13.0,13.0,0,3,,6.21,29.911417,,,,,,TRUE,,,,,CAVOK,,,,,,,,VFR,,,,,,,,,,,,METAR,82.0
LDZA 300400Z VRB01KT CAVOK 15/14 Q1016 NOSIG,LDZA,2023-05-30T04:00:00Z,45.72,16.07,15.0,14.0,0,1,,6.21,30.0,,,,,,TRUE,,,,,CAVOK,,,,,,,,VFR,,,,,,,,,,,,METAR,103.0
LDSP 300400Z 35004KT 300V030 9999 FEW080 19/12 Q1012 NOSIG,LDSP,2023-05-30T04:00:00Z,43.53,16.3,19.0,12.0,350,4,,6.21,29.88189,,,,,,TRUE,,,,,FEW,8000,,,,,,,VFR,,,,,,,,,,,,METAR,16.0
LDPL 300400Z 06007KT CAVOK 19/11 Q1013 NOSIG,LDPL,2023-05-30T04:00:00Z,44.88,13.92,19.0,11.0,60,7,,6.21,29.911417,,,,,,TRUE,,,,,CAVOK,,,,,,,,VFR,,,,,,,,,,,,METAR,63.0
LDOS 300400Z 23002KT 7000 SCT043 16/15 Q1015,LDOS,2023-05-30T04:00:00Z,45.47,18.82,16.0,15.0,230,2,,4.35,29.970472,,,,,,,,,,,SCT,4300,,,,,,,MVFR,,,,,,,,,,,,METAR,82.0
LDDU 300400Z 10003KT 050V160 CAVOK 17/13 Q1013 NOSIG,LDDU,2023-05-30T04:00:00Z,42.57,18.27,17.0,13.0,100,3,,6.21,29.911417,,,,,,TRUE,,,,,CAVOK,,,,,,,,VFR,,,,,,,,,,,,METAR,156.0
LBWN 300400Z AUTO 30003KT 210V010 9999 FEW044/// 17/15 Q1013 NOSIG,LBWN,2023-05-30T04:00:00Z,43.22,27.82,17.0,15.0,300,3,,6.21,29.911417,,,TRUE,,,TRUE,,,,,FEW,4400,,,,,,,VFR,,,,,,,,,,,,METAR,74.0
LBSF 300400Z VRB02KT 9999 BKN086 11/11 Q1016 TEMPO 5000 BR,LBSF,2023-05-30T04:00:00Z,42.65,23.37,11.0,11.0,0,2,,6.21,30.0,,,,,,,,,,,BKN,8600,,,,,,,VFR,,,,,,,,,,,,METAR,592.0
LBPD 300400Z AUTO 29005KT 9999 SCT055/// OVC083/// 16/16 Q1014 NOSIG,LBPD,2023-05-30T04:00:00Z,42.05,24.85,16.0,16.0,290,5,,6.21,29.940945,,,TRUE,,,TRUE,,,,,SCT,5500,OVC,8300,,,,,VFR,,,,,,,,,,,,METAR,182.0
LBGO 300400Z AUTO 00000KT 9999 FEW023/// OVC056/// 16/16 Q1015 NOSIG,LBGO,2023-05-30T04:00:00Z,43.15,25.72,16.0,16.0,0,0,,6.21,29.970472,,,TRUE,,,TRUE,,,,,FEW,2300,OVC,5600,,,,,VFR,,,,,,,,,,,,METAR,84.0
LBBG 300400Z AUTO 33010KT 9999 NSC 19/15 Q1012 NOSIG,LBBG,2023-05-30T04:00:00Z,42.57,27.52,19.0,15.0,330,10,,6.21,29.88189,,,TRUE,,,TRUE,,,,,CLR,,,,,,,,VFR,,,,,,,,,,,,METAR,41.0
KTRK 300400Z AUTO 00000KT 10SM BKN035 OVC042 13/07 A3007 RMK AO2,KTRK,2023-05-30T04:00:00Z,39.32,-120.13,13.0,7.0,0,0,,10.0,30.070866,,,TRUE,TRUE,,,,,,,BKN,3500,OVC,4200,,,,,VFR,,,,,,,,,,,,METAR,1800.0
KS71 300400Z AUTO 00000KT 10SM 17/13 A2980 ,KS71,2023-05-30T04:00:00Z,48.6,-109.25,17.0,13.0,0,0,,10.0,29.799213,,,TRUE,,,,,,,,,,,,,,,,,,,,,,,,,,,,METAR,736.0
KQFX 300400Z AUTO 17004KT 9999 FEW038 28/17 A2980 RMK A02 TSNO,KQFX,2023-05-30T04:00:00Z,,,28.0,17.0,170,4,,6.21,29.799213,,,TRUE,TRUE,,,TRUE,,,,FEW,3800,,,,,,,VFR,,,,,,,,,,,,METAR,
KQFW 300400Z AUTO 33010G13KT 9999 CLR 25/14 A2969 RMK A02 TSNO,KQFW,2023-05-30T04:00:00Z,,,25.0,14.0,330,10,13,6.21,29.68996,,,TRUE,TRUE,,,TRUE,,,,CLR,,,,,,,,VFR,,,,,,,,,,,,METAR,
KQFV 300400Z AUTO 10007G15KT 9999 CLR 24/11 A2991 RMK A02 TSNO,KQFV,2023-05-30T04:00:00Z,,,24.0,11.0,100,7,15,6.21,29.911417,,,TRUE,TRUE,,,TRUE,,,,CLR,,,,,,,,VFR,,,,,,,,,,,,METAR,
KQFU 300400Z AUTO 03004KT 9999 FEW170 28/14 A2987 RMK A02 TSNO,KQFU,2023-05-30T04:00:00Z,,,28.0,14.0,30,4,,6.21,29.870079,,,TRUE,TRUE,,,TRUE,,,,FEW,17000,,,,,,,VFR,,,,,,,,,,,,METAR,
KQFT 300400Z AUTO 01005G11KT 9999 FEW190 27/14 A2982 RMK A02 TSNO,KQFT,2023-05-30T04:00:00Z,,,27.0,14.0,10,5,11,6.21,29.819881,,,TRUE,TRUE,,,TRUE,,,,FEW,19000,,,,,,,VFR,,,,,,,,,,,,METAR,
KQFB 300400Z AUTO 03004G12KT 9999 BKN027 23/17 A2992 RMK A02 TSNO,KQFB,2023-05-30T04:00:00Z,,,23.0,17.0,30,4,12,6.21,29.920275,,,TRUE,TRUE,,,TRUE,,,,BKN,2700,,,,,,,MVFR,,,,,,,,,,,,METAR,
KQEY 300400Z AUTO 05006KT 9999 FEW029 SCT170 BKN210 25/17 A2954 RMK A02 TSNO,KQEY,2023-05-30T04:00:00Z,,,25.0,17.0,50,6,,6.21,29.53937,,,TRUE,TRUE,,,TRUE,,,,FEW,2900,SCT,17000,BKN,21000,,,VFR,,,,,,,,,,,,METAR,
KQEX 300400Z AUTO 19002KT 9999 CLR 24/16 / RMK A02 TSNO,KQEX,2023-05-30T04:00:00Z,,,24.0,16.0,190,2,,6.21,,,,TRUE,TRUE,,,TRUE,,,,CLR,,,,,,,,VFR,,,,,,,,,,,,METAR,
KQEW 300400Z AUTO 09002KT 9999 OVC028 22/18 A2986 RMK A02 TSNO,KQEW,2023-05-30T04:00:00Z,,,22.0,18.0,90,2,,6.21,29.861221,,,TRUE,TRUE,,,TRUE,,,,OVC,2800,,,,,,,MVFR,,,,,,,,,,,,METAR,
KQEV 300400Z AUTO 11005G10KT 9999 CLR 26/17 A2978 RMK A02 TSNO,KQEV,2023-05-30T04:00:00Z,,,26.0,17.0,110,5,10,6.21,29.778543,,,TRUE,TRUE,,,TRUE,,,,CLR,,,,,,,,VFR,,,,,,,,,,,,METAR,
KQEQ 300400Z AUTO 36005KT 9999 CLR 26/16 A2987 RMK A02 TSNO,KQEQ,2023-05-30T04:00:00Z,,,26.0,16.0,360,5,,6.21,29.870079,,,TRUE,TRUE,,,TRUE,,,,CLR,,,,,,,,VFR,,,,,,,,,,,,METAR,
KQEP 300400Z AUTO 16002KT M0400 -DZ OVC027 26/20 A2984 RMK A02 TSNO,KQEP,2023-05-30T04:00:00Z,,,26.0,20.0,160,2,,0.25,29.840551,,,TRUE,TRUE,,,TRUE,,,-DZ,OVC,2700,,,,,,,LIFR,,,,,,,,,,,,METAR,
KQEN 300400Z AUTO 11002KT M0400 FG CLR 12/12 A2999 RMK A02 TSNO,KQEN,2023-05-30T04:00:00Z,,,12.0,12.0,110,2,,0.25,29.991142,,,TRUE,TRUE,,,TRUE,,,FG,CLR,,,,,,,,LIFR,,,,,,,,,,,,METAR,
KQEJ 300400Z AUTO 07004G12KT 9999 CLR 24/11 A2987 RMK A02 TSNO,KQEJ,2023-05-30T04:00:00Z,,,24.0,11.0,70,4,12,6.21,29.870079,,,TRUE,TRUE,,,TRUE,,,,CLR,,,,,,,,VFR,,,,,,,,,,,,METAR,
KQEI 300400Z AUTO 31010G14KT 9999 FEW043 23/14 A2987 RMK A02 TSNO,KQEI,2023-05-30T04:00:00Z,,,23.0,14.0,310,10,14,6.21,29.870079,,,TRUE,TRUE,,,TRUE,,,,FEW,4300,,,,,,,VFR,,,,,,,,,,,,METAR,
KNEL 300400Z AUTO 07010KT CLR 14/11 A3014 RMK AO2 SLP203 T01390106 $,KNEL,2023-05-30T04:00:00Z,40.03,-74.33,13.9,10.6,70,10,,,30.138779,1020.3,,TRUE,TRUE,TRUE,,,,,,CLR,,,,,,,,,,,,,,,,,,,,METAR,26.0
KMTK 300400Z AUTO 13010KT 10SM CLR 25/18 A2992 RMK A01,KMTK,2023-05-30T04:00:00Z,,,25.0,18.0,130,10,,10.0,29.920275,,,TRUE,TRUE,,,,,,,CLR,,,,,,,,VFR,,,,,,,,,,,,METAR,
KMML 300400Z AUTO 20014G28KT 10SM VCTS -RA FEW080 OVC110 22/16 A2985 RMK AO2 LTG DSNT ALQDS TSE0358B00 P0000 $,KMML,2023-05-30T04:00:00Z,44.45,-95.82,22.0,16.0,200,14,28,10.0,29.84941,,,TRUE,TRUE,TRUE,,,,,VCTS -RA,FEW,8000,OVC,11000,,,,,VFR,,,,,,0.005,,,,,,SPECI,358.0
KJYL 300400Z AUTO 00000KT 10SM OVC070 21/20 A2992 RMK AO2 T02060196,KJYL,2023-05-30T04:00:00Z,32.65,-81.6,20.6,19.6,0,0,,10.0,29.920275,,,TRUE,TRUE,,,,,,,OVC,7000,,,,,,,VFR,,,,,,,,,,,,METAR,54.0
KIKT 300400Z AUTO 14005KT 10SM CLR 25/15 A2993 RMK A01,KIKT,2023-05-30T04:00:00Z,28.52,-88.28,25.0,15.0,140,5,,10.0,29.929134,,,TRUE,TRUE,,,,,,,CLR,,,,,,,,VFR,,,,,,,,,,,,METAR,36.0
KHRF 300400Z AUTO 18003KT 10SM CLR 14/06 A2985 RMK AO2,KHRF,2023-05-30T04:00:00Z,46.25,-114.13,14.0,6.0,180,3,,10.0,29.84941,,,TRUE,TRUE,,,,,,,CLR,,,,,,,,VFR,,,,,,,,,,,,METAR,1112.0
KGVW 300400Z AUTO 10008KT 10SM FEW024 SCT120 26/21 A2993 RMK A01,KGVW,2023-05-30T04:00:00Z,29.13,-94.55,26.0,21.0,100,8,,10.0,29.929134,,,TRUE,TRUE,,,,,,,FEW,2400,SCT,12000,,,,,VFR,,,,,,,,,,,,METAR,37.0
KGUL 300400Z AUTO 12005KT 10SM FEW021 SCT028 BKN034 26/22 A2989 RMK A01,KGUL,2023-05-30T04:00:00Z,27.3,-93.53,26.0,22.0,120,5,,10.0,29.890747,,,TRUE,TRUE,,,,,,,FEW,2100,SCT,2800,BKN,3400,,,VFR,,,,,,,,,,,,METAR,20.0
KEAR 300400Z AUTO 30022G31KT 10SM VCTS BKN070 23/13 A2992 RMK AO2 PK WND 31028/0357 WSHFT 0344 LTG DSNT ALQDS TSB00,KEAR,2023-05-30T04:00:00Z,40.72,-99.0,23.0,13.0,300,22,31,10.0,29.920275,,,TRUE,TRUE,,,,,,VCTS,BKN,7000,,,,,,,VFR,,,,,,,,,,,,SPECI,649.0
KDSF 300400Z AUTO 09005KT 10SM CLR 26/15 A2993 RMK A01,KDSF,2023-05-30T04:00:00Z,28.35,-88.27,26.0,15.0,90,5,,10.0,29.929134,,,TRUE,TRUE,,,,,,,CLR,,,,,,,,VFR,,,,,,,,,,,,METAR,40.0
KDAA 300400Z AUTO 00000KT 10SM -RA OVC028 16/15 A3007 RMK AO2 RAB00 SLP185 $,KDAA,2023-05-30T04:00:00Z,38.72,-77.17,16.0,15.0,0,0,,10.0,30.070866,1018.5,,TRUE,TRUE,TRUE,,,,,-RA,OVC,2800,,,,,,,MVFR,,,,,,,,,,,,SPECI,17.0
KATP 300400Z AUTO 12011KT 10SM CLR 26/19 A2991 RMK A01,KATP,2023-05-30T04:00:00Z,27.2,-90.03,26.0,19.0,120,11,,10.0,29.911417,,,TRUE,TRUE,,,,,,,CLR,,,,,,,,VFR,,,,,,,,,,,,METAR,50.0
KAKO 300400Z AUTO 09015G24KT 10SM CLR 17/07 A2996 RMK AO2 WSHFT 0340 T01720067 $,KAKO,2023-05-30T04:00:00Z,40.17,-103.22,17.2,6.7,90,15,24,10.0,29.958662,,,TRUE,TRUE,TRUE,,,,,,CLR,,,,,,,,VFR,,,,,,,,,,,,METAR,1431.0
K3U3 300400Z AUTO 00000KT 10SM 13/05 A2993 ,K3U3,2023-05-30T04:00:00Z,46.15,-112.87,13.0,5.0,0,0,,10.0,29.929134,,,TRUE,,,,,,,,,,,,,,,,,,,,,,,,,,,,METAR,1534.0
K38S 300400Z AUTO 24004KT 10SM 12/08 A2994 ,K38S,2023-05-30T04:00:00Z,46.38,-112.77,12.0,8.0,240,4,,10.0,29.940945,,,TRUE,,,,,,,,,,,,,,,,,,,,,,,,,,,,METAR,1430.0
K1S3 300400Z AUTO 15004KT 10SM 18/13 A2981 ,K1S3,2023-05-30T04:00:00Z,46.27,-106.62,18.0,13.0,150,4,,10.0,29.811024,,,TRUE,,,,,,,,,,,,,,,,,,,,,,,,,,,,METAR,831.0
HRYR 300400Z 19004KT 9999 SCT025 BKN090 19/15 Q1023 NOSIG,HRYR,2023-05-30T04:00:00Z,-1.97,30.13,19.0,15.0,190,4,,6.21,30.206694,,,,,,TRUE,,,,,SCT,2500,BKN,9000,,,,,VFR,,,,,,,,,,,,METAR,1493.0
HECA 300400Z 07003KT 9999 FEW025 23/14 Q1014 NOSIG,HECA,2023-05-30T04:00:00Z,30.12,31.4,23.0,14.0,70,3,,6.21,29.940945,,,,,,TRUE,,,,,FEW,2500,,,,,,,VFR,,,,,,,,,,,,METAR,68.0
GVSV 300400Z 06014KT 9999 FEW017 SCT200 23/19 Q1014 NOSIG,GVSV,2023-05-30T04:00:00Z,16.83,-25.07,23.0,19.0,60,14,,6.21,29.940945,,,,,,TRUE,,,,,FEW,1700,SCT,20000,,,,,VFR,,,,,,,,,,,,METAR,16.0
GVNP 300400Z 01017KT CAVOK 26/16 Q1013 NOSIG,GVNP,2023-05-30T04:00:00Z,14.95,-23.48,26.0,16.0,10,17,,6.21,29.911417,,,,,,TRUE,,,,,CAVOK,,,,,,,,VFR,,,,,,,,,,,,METAR,70.0
GVAC 300400Z 03014KT 9999 FEW013 BKN200 23/19 Q1014 NOSIG,GVAC,2023-05-30T04:00:00Z,16.73,-22.93,23.0,19.0,30,14,,6.21,29.940945,,,,,,TRUE,,,,,FEW,1300,BKN,20000,,,,,VFR,,,,,,,,,,,,METAR,54.0
GQPP 300400Z 01018KT 8000 NSC 21/16 Q1015 NOSIG,GQPP,2023-05-30T04:00:00Z,20.92,-17.02,21.0,16.0,10,18,,4.97,29.970472,,,,,,TRUE,,,,,CLR,,,,,,,,MVFR,,,,,,,,,,,,METAR,5.0
GMTT 300400Z 24006KT 6000 SCT016 20/18 Q1015 NOSIG,GMTT,2023-05-30T04:00:00Z,35.72,-5.9,20.0,18.0,240,6,,3.73,29.970472,,,,,,TRUE,,,,,SCT,1600,,,,,,,MVFR,,,,,,,,,,,,METAR,19.0
GMTN 300400Z VRB02KT 9999 FEW020 18/15 Q1015 NOSIG,GMTN,2023-05-30T04:00:00Z,35.58,-5.32,18.0,15.0,0,2,,6.21,29.970472,,,,,,TRUE,,,,,FEW,2000,,,,,,,VFR,,,,,,,,,,,,METAR,10.0
GMTA 300400Z 18004KT 140V200 CAVOK 18/12 Q1014 NOSIG,GMTA,2023-05-30T04:00:00Z,35.17,-3.85,18.0,12.0,180,4,,6.21,29.940945,,,,,,TRUE,,,,,CAVOK,,,,,,,,VFR,,,,,,,,,,,,METAR,14.0
GMMZ 300400Z 25006KT CAVOK 16/02 Q1015 NOSIG,GMMZ,2023-05-30T04:00:00Z,30.93,-6.9,16.0,2.0,250,6,,6.21,29.970472,,,,,,TRUE,,,,,CAVOK,,,,,,,,VFR,,,,,,,,,,,,METAR,1139.0
GMMX 300400Z 32003KT 240V030 9999 BKN023 18/12 Q1017 NOSIG,GMMX,2023-05-30T04:00:00Z,31.62,-8.03,18.0,12.0,320,3,,6.21,30.029528,,,,,,TRUE,,,,,BKN,2300,,,,,,,MVFR,,,,,,,,,,,,METAR,465.0
GMMW 300400Z 33004KT 9999 SCT029 BKN065 18/14 Q1015 NOSIG,GMMW,2023-05-30T04:00:00Z,34.98,-3.02,18.0,14.0,330,4,,6.21,29.970472,,,,,,TRUE,,,,,SCT,2900,BKN,6500,,,,,VFR,,,,,,,,,,,,METAR,174.0
GMMN 300400Z 22003KT 9999 SCT020 13/11 Q1017 NOSIG,GMMN,2023-05-30T04:00:00Z,33.37,-7.58,13.0,11.0,220,3,,6.21,30.029528,,,,,,TRUE,,,,,SCT,2000,,,,,,,VFR,,,,,,,,,,,,METAR,196.0
GMML 300400Z 01005KT CAVOK 17/17 Q1018 NOSIG,GMML,2023-05-30T04:00:00Z,27.13,-13.23,17.0,17.0,10,5,,6.21,30.059055,,,,,,TRUE,,,,,CAVOK,,,,,,,,VFR,,,,,,,,,,,,METAR,63.0
GMMI 300400Z AUTO 06004KT 8000 FEW023 15/// Q1017 NOSIG,GMMI,2023-05-30T04:00:00Z,31.4,-9.68,,,60,4,,4.97,30.029528,,,TRUE,,,TRUE,,,,,FEW,2300,,,,,,,MVFR,,,,,,,,,,,,METAR,102.0
GMME 300400Z 00000KT 6000 SCT020 13/13 Q1016 NOSIG,GMME,2023-05-30T04:00:00Z,34.05,-6.77,13.0,13.0,0,0,,3.73,30.0,,,,,,TRUE,,,,,SCT,2000,,,,,,,MVFR,,,,,,,,,,,,METAR,84.0
GMFO 300400Z 23004KT 9999 FEW033 SCT100 16/08 Q1016 NOSIG,GMFO,2023-05-30T04:00:00Z,34.78,-1.92,16.0,8.0,230,4,,6.21,30.0,,,,,,TRUE,,,,,FEW,3300,SCT,10000,,,,,VFR,,,,,,,,,,,,METAR,452.0
GMFM 300400Z 19004KT 8000 SCT020 12/11 Q1018 NOSIG,GMFM,2023-05-30T04:00:00Z,33.87,-5.52,12.0,11.0,190,4,,4.97,30.059055,,,,,,TRUE,,,,,SCT,2000,,,,,,,MVFR,,,,,,,,,,,,METAR,569.0
GMFK 300400Z 27002KT 9999 FEW030 14/09 Q1017 NOSIG,GMFK,2023-05-30T04:00:00Z,31.95,-4.4,14.0,9.0,270,2,,6.21,30.029528,,,,,,TRUE,,,,,FEW,3000,,,,,,,VFR,,,,,,,,,,,,METAR,1033.0
GMFF 300400Z VRB02KT 9999 FEW010 12/12 Q1018 NOSIG,GMFF,2023-05-30T04:00:00Z,33.92,-4.97,12.0,12.0,0,2,,6.21,30.059055,,,,,,TRUE,,,,,FEW,1000,,,,,,,VFR,,,,,,,,,,,,METAR,575.0
GMAD 300400Z 07003KT 050V110 9999 FEW026 17/15 Q1015 NOSIG,GMAD,2023-05-30T04:00:00Z,30.32,-9.42,17.0,15.0,70,3,,6.21,29.970472,,,,,,TRUE,,,,,FEW,2600,,,,,,,VFR,,,,,,,,,,,,METAR,66.0
GEML 300400Z 27010KT 190V310 9999 -RA FEW055 19/12 Q1014,GEML,2023-05-30T04:00:00Z,35.27,-2.95,19.0,12.0,270,10,,6.21,29.940945,,,,,,,,,,-RA,FEW,5500,,,,,,,VFR,,,,,,,,,,,,METAR,48.0
GECE 300400Z AUTO 23007KT CAVOK 20/15 Q1014,GECE,2023-05-30T04:00:00Z,35.88,-5.3,20.0,15.0,230,7,,6.21,29.940945,,,TRUE,,,,,,,,CAVOK,,,,,,,,VFR,,,,,,,,,,,,METAR,2.0
GCXO 300400Z AUTO 26007KT CAVOK 14/10 Q1021,GCXO,2023-05-30T04:00:00Z,28.48,-16.35,14.0,10.0,260,7,,6.21,30.147638,,,TRUE,,,,,,,,CAVOK,,,,,,,,VFR,,,,,,,,,,,,METAR,623.0
GCTS 300400Z 33004KT 9999 FEW030 19/14 Q1019 NOSIG,GCTS,2023-05-30T04:00:00Z,28.05,-16.57,19.0,14.0,330,4,,6.21,30.088583,,,,,,TRUE,,,,,FEW,3000,,,,,,,VFR,,,,,,,,,,,,METAR,59.0
GCRR 300400Z AUTO VRB02KT CAVOK 18/15 Q1018,GCRR,2023-05-30T04:00:00Z,28.95,-13.58,18.0,15.0,0,2,,6.21,30.059055,,,TRUE,,,,,,,,CAVOK,,,,,,,,VFR,,,,,,,,,,,,METAR,9.0
GCLP 300400Z 27004KT 230V290 9999 FEW030 19/12 Q1019 NOSIG,GCLP,2023-05-30T04:00:00Z,27.92,-15.38,19.0,12.0,270,4,,6.21,30.088583,,,,,,TRUE,,,,,FEW,3000,,,,,,,VFR,,,,,,,,,,,,METAR,16.0
GCLA 300400Z AUTO 27006KT CAVOK 19/12 Q1019,GCLA,2023-05-30T04:00:00Z,28.62,-17.75,19.0,12.0,270,6,,6.21,30.088583,,,TRUE,,,,,,,,CAVOK,,,,,,,,VFR,,,,,,,,,,,,METAR,20.0
GCHI 300400Z AUTO 31004KT 9999 BKN024 20/15 Q1019,GCHI,2023-05-30T04:00:00Z,27.82,-17.88,20.0,15.0,310,4,,6.21,30.088583,,,TRUE,,,,,,,,BKN,2400,,,,,,,MVFR,,,,,,,,,,,,METAR,21.0
GCGM 300400Z AUTO 28003KT 9999 BKN017 OVC022 19/16 Q1020 RMK R09/29003KT 250V310 ARP/28004KT,GCGM,2023-05-30T04:00:00Z,28.03,-17.22,19.0,16.0,280,3,,6.21,30.11811,,,TRUE,,,,,,,,BKN,1700,OVC,2200,,,,,MVFR,,,,,,,,,,,,METAR,217.0
GCFV 300400Z AUTO 30005KT CAVOK 19/15 Q1019,GCFV,2023-05-30T04:00:00Z,28.43,-13.87,19.0,15.0,300,5,,6.21,30.088583,,,TRUE,,,,,,,,CAVOK,,,,,,,,VFR,,,,,,,,,,,,METAR,11.0
GBYD 300400Z 2806KT CAVOK 26/24 Q1009,GBYD,2023-05-30T04:00:00Z,13.33,-16.65,26.0,24.0,,,,6.21,29.793306,,,,,,,,,,,CAVOK,,,,,,,,VFR,,,,,,,,,,,,METAR,29.0
FSIA 300400Z 13011KT 9999 SCT023 29/23 Q1013 NOSIG,FSIA,2023-05-30T04:00:00Z,-4.67,55.52,29.0,23.0,130,11,,6.21,29.911417,,,,,,TRUE,,,,,SCT,2300,,,,,,,VFR,,,,,,,,,,,,METAR,3.0
FQXA 300400Z 04005KT 9999 SCT025 20/19 Q1022,FQXA,2023-05-30T04:00:00Z,-25.05,33.62,20.0,19.0,40,5,,6.21,30.177166,,,,,,,,,,,SCT,2500,,,,,,,VFR,,,,,,,,,,,,METAR,3.0
FQTT 300400Z 00000KT CAVOK 16/15 Q1020,FQTT,2023-05-30T04:00:00Z,-16.1,33.63,16.0,15.0,0,0,,6.21,30.11811,,,,,,,,,,,CAVOK,,,,,,,,VFR,,,,,,,,,,,,METAR,146.0
FQQL 300400Z 00000KT 1000 BR BKN018 18/18 Q1020,FQQL,2023-05-30T04:00:00Z,-17.87,36.87,18.0,18.0,0,0,,0.62,30.11811,,,,,,,,,,BR,BKN,1800,,,,,,,LIFR,,,,,,,,,,,,METAR,5.0
FQPB 300400Z 23006KT 9999 FEW020 22/22 Q1017,FQPB,2023-05-30T04:00:00Z,-12.98,40.52,22.0,22.0,230,6,,6.21,30.029528,,,,,,,,,,,FEW,2000,,,,,,,VFR,,,,,,,,,,,,METAR,101.0
FQMA 300400Z 00000KT 9999 BKN020 20/19 Q1021 NOSIG,FQMA,2023-05-30T04:00:00Z,-25.92,32.57,20.0,19.0,0,0,,6.21,30.147638,,,,,,TRUE,,,,,BKN,2000,,,,,,,MVFR,,,,,,,,,,,,METAR,34.0
FQLC 300400Z 13006KT 9999 FEW016 13/10 Q1025,FQLC,2023-05-30T04:00:00Z,-13.27,35.25,13.0,10.0,130,6,,6.21,30.265747,,,,,,,,,,,FEW,1600,,,,,,,VFR,,,,,,,,,,,,METAR,1362.0
FQBR 300400Z /////KT 9999 BKN018 20/20 Q1019,FQBR,2023-05-30T04:00:00Z,-19.8,34.9,20.0,20.0,,,,6.21,30.088583,,,,,,,,,,,BKN,1800,,,,,,,MVFR,,,,,,,,,,,,METAR,14.0
FMMI 300400Z 14004KT 110V170 9999 FEW017 15/13 Q1025 NOSIG,FMMI,2023-05-30T04:00:00Z,-18.8,47.47,15.0,13.0,140,4,,6.21,30.265747,,,,,,TRUE,,,,,FEW,1700,,,,,,,VFR,,,,,,,,,,,,METAR,1269.0
FMCZ 300400Z AUTO 20011KT 9999 FEW025 27/24 Q1015 NOSIG,FMCZ,2023-05-30T04:00:00Z,-12.8,45.27,27.0,24.0,200,11,,6.21,29.970472,,,TRUE,,,TRUE,,,,,FEW,2500,,,,,,,VFR,,,,,,,,,,,,METAR,7.0
FLKK 300400Z 13005KT CAVOK 14/11 Q1023,FLKK,2023-05-30T04:00:00Z,-15.32,28.45,14.0,11.0,130,5,,6.21,30.206694,,,,,,,,,,,CAVOK,,,,,,,,VFR,,,,,,,,,,,,METAR,1149.0
FIMP 300400Z 00000KT 9999 FEW018 SCT050 21/19 Q1020,FIMP,2023-05-30T04:00:00Z,-20.43,57.68,21.0,19.0,0,0,,6.21,30.11811,,,,,,,,,,,FEW,1800,SCT,5000,,,,,VFR,,,,,,,,,,,,METAR,57.0
FAUT 300400Z 29002KT 9999 SCT008 BKN015 11/11 Q1018,FAUT,2023-05-30T04:00:00Z,-31.53,28.67,11.0,11.0,290,2,,6.21,30.059055,,,,,,,,,,,SCT,800,BKN,1500,,,,,MVFR,,,,,,,,,,,,METAR,735.0
FAUP 300400Z 28004KT 9999 FEW050 06/03 Q1020 NOSIG,FAUP,2023-05-30T04:00:00Z,-28.38,21.27,6.0,3.0,280,4,,6.21,30.11811,,,,,,TRUE,,,,,FEW,5000,,,,,,,VFR,,,,,,,,,,,,METAR,845.0
FAPE 300400Z 35002KT 8000 -RA FEW049 16/15 Q1017 NOSIG,FAPE,2023-05-30T04:00:00Z,-33.98,25.6,16.0,15.0,350,2,,4.97,30.029528,,,,,,TRUE,,,,-RA,FEW,4900,,,,,,,MVFR,,,,,,,,,,,,METAR,58.0
FAOR 300400Z 02014KT 9999 FEW016 09/08 Q1025 NOSIG,FAOR,2023-05-30T04:00:00Z,-26.13,28.23,9.0,8.0,20,14,,6.21,30.265747,,,,,,TRUE,,,,,FEW,1600,,,,,,,VFR,,,,,,,,,,,,METAR,1684.0
FAMM 300400Z AUTO 06016KT //// // ////// 14/09 Q1021,FAMM,2023-05-30T04:00:00Z,-25.8,25.53,14.0,9.0,60,16,,,30.147638,,,TRUE,,,,,,,,,,,,,,,,,,,,,,,,,,,,METAR,1280.0
FALE 300400Z VRB01KT CAVOK 15/13 Q1020 NOSIG,FALE,2023-05-30T04:00:00Z,-29.62,31.12,15.0,13.0,0,1,,6.21,30.11811,,,,,,TRUE,,,,,CAVOK,,,,,,,,VFR,,,,,,,,,,,,METAR,109.0
FALA 300400Z 02010KT CAVOK 12/09 Q1025 NOSIG,FALA,2023-05-30T04:00:00Z,-25.93,27.92,12.0,9.0,20,10,,6.21,30.265747,,,,,,TRUE,,,,,CAVOK,,,,,,,,VFR,,,,,,,,,,,,METAR,1365.0
FAKM 300400Z 33007KT 6000 RA OVC020 13/12 Q1020,FAKM,2023-05-30T04:00:00Z,-28.8,24.77,13.0,12.0,330,7,,3.73,30.11811,,,,,,,,,,RA,OVC,2000,,,,,,,MVFR,,,,,,,,,,,,METAR,1203.0
FAGG 300400Z 27003KT 240V330 CAVOK 13/12 Q1013,FAGG,2023-05-30T04:00:00Z,-34.0,22.37,13.0,12.0,270,3,,6.21,29.911417,,,,,,,,,,,CAVOK,,,,,,,,VFR,,,,,,,,,,,,METAR,196.0
FAEL 300400Z 03009KT CAVOK 17/15 Q1017,FAEL,2023-05-30T04:00:00Z,-33.03,27.82,17.0,15.0,30,9,,6.21,30.029528,,,,,,,,,,,CAVOK,,,,,,,,VFR,,,,,,,,,,,,METAR,127.0
FACT 300400Z 36010KT 9999 FEW010 BKN040 13/12 Q1016 NOSIG,FACT,2023-05-30T04:00:00Z,-33.97,18.6,13.0,12.0,360,10,,6.21,30.0,,,,,,TRUE,,,,,FEW,1000,BKN,4000,,,,,VFR,,,,,,,,,,,,METAR,48.0
EPZG 300400Z VRB01KT CAVOK 09/05 Q1022,EPZG,2023-05-30T04:00:00Z,52.13,15.77,9.0,5.0,0,1,,6.21,30.177166,,,,,,,,,,,CAVOK,,,,,,,,VFR,,,,,,,,,,,,METAR,59.0
EPWR 300400Z 29005KT CAVOK 10/07 Q1021,EPWR,2023-05-30T04:00:00Z,51.1,16.88,10.0,7.0,290,5,,6.21,30.147638,,,,,,,,,,,CAVOK,,,,,,,,VFR,,,,,,,,,,,,METAR,118.0
EPWA 300400Z 01006KT CAVOK 13/05 Q1019 NOSIG,EPWA,2023-05-30T04:00:00Z,52.17,20.97,13.0,5.0,10,6,,6.21,30.088583,,,,,,TRUE,,,,,CAVOK,,,,,,,,VFR,,,,,,,,,,,,METAR,107.0
EPSY 300400Z VRB03KT CAVOK 09/07 Q1020,EPSY,2023-05-30T04:00:00Z,53.47,20.93,9.0,7.0,0,3,,6.21,30.11811,,,,,,,,,,,CAVOK,,,,,,,,VFR,,,,,,,,,,,,METAR,136.0
EPSC 300400Z 14003KT CAVOK 05/04 Q1022,EPSC,2023-05-30T04:00:00Z,53.58,14.9,5.0,4.0,140,3,,6.21,30.177166,,,,,,,,,,,CAVOK,,,,,,,,VFR,,,,,,,,,,,,METAR,47.0
EPRZ 300400Z 27004KT CAVOK 10/09 Q1018,EPRZ,2023-05-30T04:00:00Z,50.1,22.02,10.0,9.0,270,4,,6.21,30.059055,,,,,,,,,,,CAVOK,,,,,,,,VFR,,,,,,,,,,,,METAR,206.0
EPRA 300400Z 35004KT CAVOK 12/08 Q1019,EPRA,2023-05-30T04:00:00Z,51.38,21.22,12.0,8.0,350,4,,6.21,30.088583,,,,,,,,,,,CAVOK,,,,,,,,VFR,,,,,,,,,,,,METAR,182.0
EPPO 300400Z 34005KT CAVOK 09/05 Q1022,EPPO,2023-05-30T04:00:00Z,52.42,16.83,9.0,5.0,340,5,,6.21,30.177166,,,,,,,,,,,CAVOK,,,,,,,,VFR,,,,,,,,,,,,METAR,87.0
EPMO 300400Z 35005KT CAVOK 10/06 Q1019,EPMO,2023-05-30T04:00:00Z,52.45,20.65,10.0,6.0,350,5,,6.21,30.088583,,,,,,,,,,,CAVOK,,,,,,,,VFR,,,,,,,,,,,,METAR,102.0
EPLL 300400Z 01003KT 330V030 CAVOK 13/06 Q1019,EPLL,2023-05-30T04:00:00Z,51.72,19.4,13.0,6.0,10,3,,6.21,30.088583,,,,,,,,,,,CAVOK,,,,,,,,VFR,,,,,,,,,,,,METAR,176.0
EPLB 300400Z VRB01KT CAVOK 12/11 Q1018,EPLB,2023-05-30T04:00:00Z,51.23,22.72,12.0,11.0,0,1,,6.21,30.059055,,,,,,,,,,,CAVOK,,,,,,,,VFR,,,,,,,,,,,,METAR,206.0
EPKT 300400Z 32003KT CAVOK 11/09 Q1019,EPKT,2023-05-30T04:00:00Z,50.47,19.08,11.0,9.0,320,3,,6.21,30.088583,,,,,,,,,,,CAVOK,,,,,,,,VFR,,,,,,,,,,,,METAR,296.0
EPKK 300400Z 24002KT CAVOK 10/09 Q1018,EPKK,2023-05-30T04:00:00Z,50.07,19.8,10.0,9.0,240,2,,6.21,30.059055,,,,,,,,,,,CAVOK,,,,,,,,VFR,,,,,,,,,,,,METAR,237.0
EPGD 300400Z 28002KT CAVOK 07/05 Q1021,EPGD,2023-05-30T04:00:00Z,54.37,18.47,7.0,5.0,280,2,,6.21,30.147638,,,,,,,,,,,CAVOK,,,,,,,,VFR,,,,,,,,,,,,METAR,136.0
EPBY 300400Z 28003KT CAVOK 08/06 Q1021,EPBY,2023-05-30T04:00:00Z,53.1,18.0,8.0,6.0,280,3,,6.21,30.147638,,,,,,,,,,,CAVOK,,,,,,,,VFR,,,,,,,,,,,,METAR,66.0
EINN 300400Z 02004KT CAVOK 08/06 Q1030 NOSIG,EINN,2023-05-30T04:00:00Z,52.7,-8.92,8.0,6.0,20,4,,6.21,30.413385,,,,,,TRUE,,,,,CAVOK,,,,,,,,VFR,,,,,,,,,,,,METAR,20.0
EIDW 300400Z 36001KT CAVOK 08/07 Q1032 NOSIG,EIDW,2023-05-30T04:00:00Z,53.42,-6.28,8.0,7.0,360,1,,6.21,30.47244,,,,,,TRUE,,,,,CAVOK,,,,,,,,VFR,,,,,,,,,,,,METAR,75.0
EICK 300400Z 07009KT 9999 FEW030 SCT230 11/07 Q1029 NOSIG,EICK,2023-05-30T04:00:00Z,51.85,-8.47,11.0,7.0,70,9,,6.21,30.383858,,,,,,TRUE,,,,,FEW,3000,SCT,23000,,,,,VFR,,,,,,,,,,,,METAR,158.0
EHGR 300400Z AUTO 02006KT 340V060 9999 SCT019 OVC310 07/06 Q1027 WHT,EHGR,2023-05-30T04:00:00Z,51.55,4.93,7.0,6.0,20,6,,6.21,30.324802,,,TRUE,,,,,,,,SCT,1900,OVC,31000,,,,,VFR,,,,,,,,,,,,SPECI,12.0
DTTZ 300400Z 04008KT 5000 FEW033 20/14 Q1010,DTTZ,2023-05-30T04:00:00Z,33.93,8.1,20.0,14.0,40,8,,3.11,29.822834,,,,,,,,,,,FEW,3300,,,,,,,MVFR,,,,,,,,,,,,METAR,87.0
DTTX 300400Z 35008KT 9999 FEW030 20/16 Q1012,DTTX,2023-05-30T04:00:00Z,34.72,10.68,20.0,16.0,350,8,,6.21,29.88189,,,,,,,,,,,FEW,3000,,,,,,,VFR,,,,,,,,,,,,METAR,17.0
DTTG 300400Z 06014KT 5000 FEW020 SCT030 20/18 Q1011 NOSIG,DTTG,2023-05-30T04:00:00Z,33.73,9.92,20.0,18.0,60,14,,3.11,29.852362,,,,,,TRUE,,,,,FEW,2000,SCT,3000,,,,,MVFR,,,,,,,,,,,,METAR,120.0
DTTF 300400Z 06012KT 010V080 9999 SCT023 17/14 Q1013,DTTF,2023-05-30T04:00:00Z,34.42,8.82,17.0,14.0,60,12,,6.21,29.911417,,,,,,,,,,,SCT,2300,,,,,,,VFR,,,,,,,,,,,,METAR,314.0
DTKA 300400Z 09003KT 9999 SCT020 15/15 Q1013 NOSIG,DTKA,2023-05-30T04:00:00Z,36.98,8.88,15.0,15.0,90,3,,6.21,29.911417,,,,,,TRUE,,,,,SCT,2000,,,,,,,VFR,,,,,,,,,,,,METAR,70.0
DIAP 300400Z 20006KT 9999 SCT011 BKN040 28/25 Q1010 NOSIG,DIAP,2023-05-30T04:00:00Z,5.25,-3.92,28.0,25.0,200,6,,6.21,29.822834,,,,,,TRUE,,,,,SCT,1100,BKN,4000,,,,,VFR,,,,,,,,,,,,METAR,4.0
DAOO 300400Z 21006KT CAVOK 15/12 Q1014,DAOO,2023-05-30T04:00:00Z,35.62,-0.62,15.0,12.0,210,6,,6.21,29.940945,,,,,,,,,,,CAVOK,,,,,,,,VFR,,,,,,,,,,,,METAR,87.0
DAON 300400Z 18002KT CAVOK 16/08 Q1015,DAON,2023-05-30T04:00:00Z,35.02,-1.47,16.0,8.0,180,2,,6.21,29.970472,,,,,,,,,,,CAVOK,,,,,,,,VFR,,,,,,,,,,,,METAR,245.0
DABC 300400Z VRB02KT 6000 FEW023 BKN070 11/10 Q1015,DABC,2023-05-30T04:00:00Z,36.27,6.62,11.0,10.0,0,2,,3.73,29.970472,,,,,,,,,,,FEW,2300,BKN,7000,,,,,MVFR,,,,,,,,,,,,METAR,686.0
DABB 300400Z VRB02KT 7000 FEW020 15/14 Q1013,DABB,2023-05-30T04:00:00Z,36.82,7.82,15.0,14.0,0,2,,4.35,29.911417,,,,,,,,,,,FEW,2000,,,,,,,MVFR,,,,,,,,,,,,METAR,3.0
DAAT 300400Z 33005KT CAVOK 21/// Q1017,DAAT,2023-05-30T04:00:00Z,22.82,5.47,,,330,5,,6.21,30.029528,,,,,,,,,,,CAVOK,,,,,,,,VFR,,,0.0,,,,,,,,,METAR,1376.0
DAAG 300400Z VRB02KT 9000 FEW020 14/13 Q1014,DAAG,2023-05-30T04:00:00Z,36.68,3.22,14.0,13.0,0,2,,5.59,29.940945,,,,,,,,,,,FEW,2000,,,,,,,VFR,,,,,,,,,,,,METAR,18.0
CYBR 300400Z 25004KT 15SM FEW045 FEW110 SCT170 18/17 A2968 RMK SC1AC1AC2 SLP054 DENSITY ALT 2300FT,CYBR,2023-05-30T04:00:00Z,49.92,-99.95,18.0,17.0,250,4,,15.0,29.681103,1005.4,,,,,,,,,,FEW,4500,FEW,11000,SCT,17000,,,VFR,,,,,,,,,,,,METAR,405.0
BKPR 300400Z VRB03KT 9999 FEW005 11/11 Q1016 NOSIG,BKPR,2023-05-30T04:00:00Z,42.58,21.03,11.0,11.0,0,3,,6.21,30.0,,,,,,TRUE,,,,,FEW,500,,,,,,,VFR,,,,,,,,,,,,METAR,545.0
BIRK 300400Z 21017KT 6000 -DZ FEW008 BKN014 07/06 Q1017,BIRK,2023-05-30T04:00:00Z,64.13,-21.93,7.0,6.0,210,17,,3.73,30.029528,,,,,,,,,,-DZ,FEW,800,BKN,1400,,,,,MVFR,,,,,,,,,,,,METAR,12.0
BIKF 300400Z 22023KT 9999 BKN008 OVC035 07/06 Q1016,BIKF,2023-05-30T04:00:00Z,63.98,-22.6,7.0,6.0,220,23,,6.21,30.0,,,,,,,,,,,BKN,800,OVC,3500,,,,,IFR,,,,,,,,,,,,METAR,49.0
BIEG 300400Z 24018KT 9999 VCBLDU FEW055 15/03 Q1011,BIEG,2023-05-30T04:00:00Z,65.27,-14.4,15.0,3.0,240,18,,6.21,29.852362,,,,,,,,,,VCBLDU,FEW,5500,,,,,,,VFR,,,,,,,,,,,,METAR,20.0
AYPY 300400Z 13005G15KT 9999 SCT050 29/24 Q1012,AYPY,2023-05-30T04:00:00Z,-9.43,147.22,29.0,24.0,130,5,15,6.21,29.88189,,,,,,,,,,,SCT,5000,,,,,,,VFR,,,,,,,,,,,,METAR,44.0
AYNZ 300400Z 12005G10KT 9999 HZ BKN050 33/22 Q1008,AYNZ,2023-05-30T04:00:00Z,-6.57,146.72,33.0,22.0,120,5,10,6.21,29.763779,,,,,,,,,,HZ,BKN,5000,,,,,,,VFR,,,,,,,,,,,,METAR,74.0
ANYN 300400Z 34004KT 9999 FEW020 SCT100 BKN300 31/26 Q1009,ANYN,2023-05-30T04:00:00Z,-0.55,166.92,31.0,26.0,340,4,,6.21,29.793306,,,,,,,,,,,FEW,2000,SCT,10000,BKN,30000,,,VFR,,,,,,,,,,,,METAR,7.0
AGGH 300400Z 02003KT 9999 FEW018 FW019CB SCT028 BKN100 28/25 Q1011,AGGH,2023-05-30T04:00:00Z,-9.42,160.05,28.0,25.0,20,3,,6.21,29.852362,,,,,,,,,,,FEW,1800,SCT,2800,BKN,10000,,,VFR,,,,,,,,,,,,METAR,6.0
VEAT 300359Z 30005KT 5000 HZ SCT020 35/25 Q1008 NOSIG,VEAT,2023-05-30T03:59:00Z,23.88,91.25,35.0,25.0,300,5,,3.11,29.763779,,,,,,TRUE,,,,HZ,SCT,2000,,,,,,,MVFR,,,,,,,,,,,,METAR,20.0
RODE 300359Z AUTO A2973 RMK AO2 SLPNO PWINO TSNO $,RODE,2023-05-30T03:59:00Z,26.72,127.77,,,,,,,29.731298,,,TRUE,TRUE,TRUE,,TRUE,,TRUE,,,,,,,,,,,,,,,,,,,,,,METAR,69.0
MUCF 300359Z AUTO 06004KT 25/23 Q1013,MUCF,2023-05-30T03:59:00Z,22.15,-80.4,25.0,23.0,60,4,,,29.911417,,,TRUE,,,,,,,,,,,,,,,,,,,,,,,,,,,,METAR,35.0
MTPP 300359Z AUTO 09003KT 060V120 //// ////// 27/24 Q1012 A2991 NOSIG,MTPP,2023-05-30T03:59:00Z,18.57,-72.3,27.0,24.0,90,3,,,29.88189,,,TRUE,,,TRUE,,,,,,,,,,,,,,,,,,,,,,,,,METAR,36.0
KP92 300359Z AUTO 00000KT 24/ A2991 RMK AO1 SLP128 T0239 $,KP92,2023-05-30T03:59:00Z,29.57,-91.53,23.9,,0,0,,,29.911417,1012.8,,TRUE,TRUE,TRUE,,,,,,,,,,,,,,,,,,,,,,,,,,METAR,1.0
KOXD 300359Z AUTO 10005KT 10SM SCT080 23/05 A2999 RMK AO2,KOXD,2023-05-30T03:59:00Z,39.5,-84.78,23.0,5.0,100,5,,10.0,29.991142,,,TRUE,TRUE,,,,,,,SCT,8000,,,,,,,VFR,,,,,,,,,,,,METAR,317.0
KORF 300359Z 06007KT 9SM SCT004 SCT025 BKN029 18/18 A2997 RMK AO2 LTG DSNT NE T01780178 $,KORF,2023-05-30T03:59:00Z,36.9,-76.2,17.8,17.8,60,7,,9.0,29.970472,,,,TRUE,TRUE,,,,,,SCT,400,SCT,2500,BKN,2900,,,MVFR,,,,,,,,,,,,SPECI,5.0
KNGU 300359Z 05005KT 7SM BKN004 OVC010CB 19/18 A2999 RMK AO2 RAE08 TSB42E43B45E58 SLP154 OCNL LTGICCCCG DSNT MOV W TS DSNT MOV W T2 SET P0000 T01940183 $,KNGU,2023-05-30T03:59:00Z,36.93,-76.27,19.4,18.3,50,5,,7.0,29.991142,1015.4,,,TRUE,TRUE,,,,,,BKN,400,OVC,1000,,,,,LIFR,,,,,,0.005,,,,,,METAR,3.0
KMRT 300359Z AUTO 00000KT 10SM CLR 19/11 A3001 RMK AO1,KMRT,2023-05-30T03:59:00Z,40.22,-83.35,19.0,11.0,0,0,,10.0,30.008858,,,TRUE,TRUE,,,,,,,CLR,,,,,,,,VFR,,,,,,,,,,,,METAR,302.0
KFAR 300359Z 11012G25KT 3SM -TSRA FEW019 SCT043 BKN075 21/16 A2973 RMK AO2 LTG DSNT ALQDS TSB56 P0011 T02060161 $,KFAR,2023-05-30T03:59:00Z,46.9,-96.82,20.6,16.1,110,12,25,3.0,29.731298,,,,TRUE,TRUE,,,,,-TSRA,FEW,1900,SCT,4300,BKN,7500,,,MVFR,,,,,,0.11,,,,,,SPECI,276.0
K2V6 300359Z AUTO 03013G24KT 10SM VCTS 16/09 A2997 RMK AO2 LTG DSNT NE THRU SE,K2V6,2023-05-30T03:59:00Z,40.1,-102.72,16.0,9.0,30,13,24,10.0,29.970472,,,TRUE,TRUE,,,,,,VCTS,,,,,,,,,,,,,,,,,,,,,METAR,1257.0
K04W 300359Z AUTO 11003KT 10SM CLR 20/09 A2988 RMK AO2,K04W,2023-05-30T03:59:00Z,46.02,-92.9,20.0,9.0,110,3,,10.0,29.878937,,,TRUE,TRUE,,,,,,,CLR,,,,,,,,VFR,,,,,,,,,,,,METAR,310.0
CYDN 300359Z AUTO 00000KT 1 1/4SM BR BKN130 BKN160 15/15 A2964 RMK SLP042 DENSITY ALT 1600FT,CYDN,2023-05-30T03:59:00Z,51.1,-100.05,15.0,15.0,0,0,,1.25,29.639763,1004.2,,TRUE,,,,,,,BR,BKN,13000,BKN,16000,,,,,IFR,,,,,,,,,,,,SPECI,302.0
KUZA 300358Z AUTO 00000KT 1 3/4SM BR CLR 15/14 A2995 RMK AO2 VIS 3/4V5 T01500144,KUZA,2023-05-30T03:58:00Z,34.98,-81.05,15.0,14.4,0,0,,1.75,29.949802,,,TRUE,TRUE,,,,,,BR,CLR,,,,,,,,IFR,,,,,,,,,,,,SPECI,198.0
KSAW 300358Z AUTO 18004KT 10SM CLR 17/03 A3001 RMK AO2 T01660034,KSAW,2023-05-30T03:58:00Z,46.35,-87.4,16.6,3.4,180,4,,10.0,30.008858,,,TRUE,TRUE,,,,,,,CLR,,,,,,,,VFR,,,,,,,,,,,,METAR,359.0
KROG 300358Z 16004KT 10SM CLR 19/17 A2999 RMK AO2 SLP140 T01940172,KROG,2023-05-30T03:58:00Z,36.37,-94.1,19.4,17.2,160,4,,10.0,29.991142,1014.0,,,TRUE,,,,,,,CLR,,,,,,,,VFR,,,,,,,,,,,,METAR,407.0
KPRN 300358Z AUTO 00000KT 10SM CLR 16/16 A2994 RMK AO2 SLP085 T01610156,KPRN,2023-05-30T03:58:00Z,31.85,-86.62,16.1,15.6,0,0,,10.0,29.940945,1008.5,,TRUE,TRUE,,,,,,,CLR,,,,,,,,VFR,,,,,,,,,,,,METAR,137.0
KMRH 300358Z AUTO 00000KT 10SM CLR 19/18 A2992 RMK AO2 SLP132 T01890178,KMRH,2023-05-30T03:58:00Z,34.73,-76.65,18.9,17.8,0,0,,10.0,29.920275,1013.2,,TRUE,TRUE,,,,,,,CLR,,,,,,,,VFR,,,,,,,,,,,,METAR,2.0
KMEI 300358Z AUTO 00000KT 10SM CLR 18/17 A2995 RMK AO2 SLP138 T01830167,KMEI,2023-05-30T03:58:00Z,32.33,-88.75,18.3,16.7,0,0,,10.0,29.949802,1013.8,,TRUE,TRUE,,,,,,,CLR,,,,,,,,VFR,,,,,,,,,,,,METAR,90.0
KEUF 300358Z AUTO 00000KT 10SM CLR 18/16 A2994 RMK AO2 SLP135 T01780161,KEUF,2023-05-30T03:58:00Z,31.95,-85.13,17.8,16.1,0,0,,10.0,29.940945,1013.5,,TRUE,TRUE,,,,,,,CLR,,,,,,,,VFR,,,,,,,,,,,,METAR,87.0
KBKF 300358Z 11005KT 10SM FEW160 17/06 A2999 RMK AO2A SLP087 T01650060,KBKF,2023-05-30T03:58:00Z,39.72,-104.75,16.5,6.0,110,5,,10.0,29.991142,1008.7,,,TRUE,,,,,,,FEW,16000,,,,,,,VFR,,,,,,,,,,,,METAR,1703.0
KBCR 300358Z AUTO 00000KT 10SM CLR 18/16 A2993 RMK AO2 SLP094 T01780156 $ ,KBCR,2023-05-30T03:58:00Z,30.85,-85.6,17.8,15.6,0,0,,10.0,29.929134,1009.4,,TRUE,TRUE,TRUE,,,,,,CLR,,,,,,,,VFR,,,,,,,,,,,,METAR,26.0
K0J4 300358Z AUTO 00000KT 10SM CLR 18/14 A2995 RMK AO2 SLP139 T01830144,K0J4,2023-05-30T03:58:00Z,31.05,-86.32,18.3,14.4,0,0,,10.0,29.949802,1013.9,,TRUE,TRUE,,,,,,,CLR,,,,,,,,VFR,,,,,,,,,,,,METAR,96.0
RCSS 300357Z 07014KT 9999 -SHRA FEW012 SCT018 BKN040 31/25 Q1004 NOSIG RMK A2966,RCSS,2023-05-30T03:57:00Z,25.07,121.55,31.0,25.0,70,14,,6.21,29.64567,,,,,,TRUE,,,,-SHRA,FEW,1200,SCT,1800,BKN,4000,,,VFR,,,,,,,,,,,,SPECI,8.0
PHNG 300357Z AUTO 06012G17KT 10SM FEW029 FEW041 28/20 A2999 RMK AO2 SLP151 T02780200 $ ,PHNG,2023-05-30T03:57:00Z,21.43,-157.77,27.8,20.0,60,12,17,10.0,29.991142,1015.1,,TRUE,TRUE,TRUE,,,,,,FEW,2900,FEW,4100,,,,,VFR,,,,,,,,,,,,METAR,1.0
PGWT 300357Z 09012KT 7SM SCT016 SCT040 BKN080 BKN120 30/25,PGWT,2023-05-30T03:57:00Z,14.98,145.62,30.0,25.0,90,12,,7.0,,,,,,,,,,,,SCT,1600,SCT,4000,BKN,8000,BKN,12000,VFR,,,,,,,,,,,,METAR,84.0
KSDB 300357Z AUTO 19009KT 150V220 1 3/4SM BR BKN002 10/09 A3002 RMK AO2 VIS 1V4 T01000089 $,KSDB,2023-05-30T03:57:00Z,34.75,-118.72,10.0,8.9,190,9,,1.75,30.02067,,,TRUE,TRUE,TRUE,,,,,BR,BKN,200,,,,,,,LIFR,,,,,,,,,,,,SPECI,1377.0
KNYL 300357Z AUTO 15011KT 10SM CLR 27/02 A2977 RMK AO2 SLP077 T02720017 $ ,KNYL,2023-05-30T03:57:00Z,32.65,-114.62,27.2,1.7,150,11,,10.0,29.769686,1007.7,,TRUE,TRUE,TRUE,,,,,,CLR,,,,,,,,VFR,,,,,,,,,,,,METAR,58.0
KNJW 300357Z AUTO 00000KT 10SM CLR 18/14 A2998 RMK AO2 SLP066 T01780144 $,KNJW,2023-05-30T03:57:00Z,32.78,-88.82,17.8,14.4,0,0,,10.0,29.97933,1006.6,,TRUE,TRUE,TRUE,,,,,,CLR,,,,,,,,VFR,,,,,,,,,,,,METAR,165.0
KNJM 300357Z AUTO 00000KT 8SM CLR 17/16 A2993 RMK AO2 SLP138 T01720161,KNJM,2023-05-30T03:57:00Z,34.68,-77.02,17.2,16.1,0,0,,8.0,29.929134,1013.8,,TRUE,TRUE,,,,,,,CLR,,,,,,,,VFR,,,,,,,,,,,,METAR,5.0
KMNM 300357Z AUTO 16004KT 10SM CLR 17/08 A3001 RMK AO2 SLP176 T01720083 PNO $,KMNM,2023-05-30T03:57:00Z,45.12,-87.63,17.2,8.3,160,4,,10.0,30.008858,1017.6,,TRUE,TRUE,TRUE,,,,,,CLR,,,,,,,,VFR,,,,,,,,,,,,METAR,188.0
KFLG 300357Z AUTO 00000KT 10SM CLR 10/M04 A3017 RMK AO2 SLP137 T01001039,KFLG,2023-05-30T03:57:00Z,35.13,-111.67,10.0,-3.9,0,0,,10.0,30.171259,1013.7,,TRUE,TRUE,,,,,,,CLR,,,,,,,,VFR,,,,,,,,,,,,METAR,2134.0
KBBB 300357Z AUTO 25009G19KT 10SM -RA SCT065 BKN080 BKN110 21/14 A2984 RMK AO2,KBBB,2023-05-30T03:57:00Z,45.32,-95.65,21.0,14.0,250,9,19,10.0,29.840551,,,TRUE,TRUE,,,,,,-RA,SCT,6500,BKN,8000,BKN,11000,,,VFR,,,,,,,,,,,,METAR,315.0
KAQV 300357Z AUTO 00000KT 6SM HZ BKN060 OVC090 22/18 A2992 RMK AO2 SLP127 T02220178,KAQV,2023-05-30T03:57:00Z,31.4,-93.3,22.2,17.8,0,0,,6.0,29.920275,1012.7,,TRUE,TRUE,,,,,,HZ,BKN,6000,OVC,9000,,,,,VFR,,,,,,,,,,,,METAR,123.0
RJOI 300356Z 11004KT 10SM SCT010 BKN025 OVC040 21/19 A2983 RMK AO2 SLP102 T02110194 ,RJOI,2023-05-30T03:56:00Z,34.13,132.23,21.1,19.4,110,4,,10.0,29.828741,1010.2,,,TRUE,,,,,,,SCT,1000,BKN,2500,OVC,4000,,,MVFR,,,,,,,,,,,,METAR,2.0
PPIZ 300356Z AUTO 20004KT 10SM SCT007 OVC044 01/M02 A2954 RMK AO2 SLP005 T00111017 FZRANO,PPIZ,2023-05-30T03:56:00Z,69.73,-163.0,1.1,-1.7,200,4,,10.0,29.53937,1000.5,,TRUE,TRUE,,,,TRUE,,,SCT,700,OVC,4400,,,,,VFR,,,,,,,,,,,,METAR,5.0
PMDY 300356Z AUTO 10SM SCT015 BKN055 24/21 A3011 RMK AO2 SLP198 T02390206 TSNO $,PMDY,2023-05-30T03:56:00Z,28.22,-177.37,23.9,20.6,,,,10.0,30.109253,1019.8,,TRUE,TRUE,TRUE,,TRUE,,,,SCT,1500,BKN,5500,,,,,VFR,,,,,,,,,,,,METAR,6.0
PHNY 300356Z AUTO 03013KT 10SM CLR 22/18 A3004 RMK AO2 SLP155 T02170183,PHNY,2023-05-30T03:56:00Z,20.77,-156.95,21.7,18.3,30,13,,10.0,30.041338,1015.5,,TRUE,TRUE,,,,,,,CLR,,,,,,,,VFR,,,,,,,,,,,,METAR,395.0
PFWS 300356Z AUTO 24016KT 10SM OVC021 07/05 A2981 RMK AO2 SLP138 T00670050,PFWS,2023-05-30T03:56:00Z,58.7,-157.0,6.7,5.0,240,16,,10.0,29.811024,1013.8,,TRUE,TRUE,,,,,,,OVC,2100,,,,,,,MVFR,,,,,,,,,,,,METAR,40.0
PFSH 300356Z AUTO 22006KT 10SM OVC008 04/02 A2965 RMK AO2 SLP038 T00390017,PFSH,2023-05-30T03:56:00Z,64.37,-161.22,3.9,1.7,220,6,,10.0,29.648623,1003.8,,TRUE,TRUE,,,,,,,OVC,800,,,,,,,IFR,,,,,,,,,,,,METAR,6.0
PFKW 300356Z AUTO 20017KT 10SM OVC012 04/02 A2975 RMK AO2 SLP072 T00440022,PFKW,2023-05-30T03:56:00Z,60.8,-161.43,4.4,2.2,200,17,,10.0,29.749016,1007.2,,TRUE,TRUE,,,,,,,OVC,1200,,,,,,,MVFR,,,,,,,,,,,,METAR,4.0
PFKT 300356Z AUTO 26003KT 6SM BR 01/01 A2955 RMK AO2 UPB38E50 SLP008 P0000 T00110006 FZRANO $,PFKT,2023-05-30T03:56:00Z,65.33,-166.47,1.1,0.6,260,3,,6.0,29.551182,1000.8,,TRUE,TRUE,TRUE,,,TRUE,,BR,,,,,,,,,,,,,,,0.005,,,,,,METAR,8.0
PFEL 300356Z AUTO 21007KT 10SM UP OVC003 02/01 A2962 RMK AO2 UPB07 SLP031 P0000 T00220011 FZRANO,PFEL,2023-05-30T03:56:00Z,64.62,-162.27,2.2,1.1,210,7,,10.0,29.619095,1003.1,,TRUE,TRUE,,,,TRUE,,UP,OVC,300,,,,,,,LIFR,,,,,,0.005,,,,,,METAR,50.0
PAZK 300356Z AUTO 10003KT 10SM -RA FEW004 SCT029 OVC039 02/01 A2963 RMK AO2 SLP073 P0001 T00220011 FZRANO,PAZK,2023-05-30T03:56:00Z,61.93,-147.17,2.2,1.1,100,3,,10.0,29.630905,1007.3,,TRUE,TRUE,,,,TRUE,,-RA,FEW,400,SCT,2900,OVC,3900,,,VFR,,,,,,0.01,,,,,,METAR,1002.0
PAWS 300356Z AUTO 06006KT 10SM BKN070 OVC100 11/03 A2973 RMK AO2 SLP071 T01060028,PAWS,2023-05-30T03:56:00Z,61.57,-149.53,10.6,2.8,60,6,,10.0,29.731298,1007.1,,TRUE,TRUE,,,,,,,BKN,7000,OVC,10000,,,,,VFR,,,,,,,,,,,,METAR,102.0
PAWN 300356Z AUTO 19005KT 10SM -RA BKN016 BKN024 OVC030 04/02 RMK AO2 SLPNO P0000 T00440017 $,PAWN,2023-05-30T03:56:00Z,67.57,-162.98,4.4,1.7,190,5,,10.0,,,,TRUE,TRUE,TRUE,,,,,-RA,BKN,1600,BKN,2400,OVC,3000,,,MVFR,,,,,,0.005,,,,,,METAR,26.0
PAWM 300356Z AUTO 20010KT 5SM -RA BR OVC003 01/01 A2959 RMK AO2 SLP025 P0000 T00110011 FZRANO,PAWM,2023-05-30T03:56:00Z,64.68,-163.42,1.1,1.1,200,10,,5.0,29.589567,1002.5,,TRUE,TRUE,,,,TRUE,,-RA BR,OVC,300,,,,,,,LIFR,,,,,,0.005,,,,,,METAR,80.0
PAWG 300356Z 00000KT 10SM -RA FEW005 BKN033 OVC040 09/07 A3001,PAWG,2023-05-30T03:56:00Z,56.48,-132.37,9.0,7.0,0,0,,10.0,30.008858,,,,,,,,,,-RA,FEW,500,BKN,3300,OVC,4000,,,VFR,,,,,,,,,,,,METAR,6.0
PAVD 300356Z 25006KT 9SM -RA FEW030 BKN045 OVC070 07/05 RMK AO2 SLPNO A2989 P0000 T00670050 $,PAVD,2023-05-30T03:56:00Z,61.13,-146.25,6.7,5.0,250,6,,9.0,,,,,TRUE,TRUE,,,,,-RA,FEW,3000,BKN,4500,OVC,7000,,,VFR,,,,,,0.005,,,,,,METAR,21.0
PAVC 300356Z AUTO 32012KT 10SM OVC022 06/03 A3001 RMK AO2 SLP165 T00610028 PNO $,PAVC,2023-05-30T03:56:00Z,55.12,-162.27,6.1,2.8,320,12,,10.0,30.008858,1016.5,,TRUE,TRUE,TRUE,,,,,,OVC,2200,,,,,,,MVFR,,,,,,,,,,,,METAR,48.0
PAUN 300356Z AUTO 23005KT 10SM OVC040 04/02 A2966 RMK AO2 SLP048 T00390017,PAUN,2023-05-30T03:56:00Z,63.88,-160.8,3.9,1.7,230,5,,10.0,29.660433,1004.8,,TRUE,TRUE,,,,,,,OVC,4000,,,,,,,VFR,,,,,,,,,,,,METAR,4.0
PATQ 300356Z AUTO 09006KT 10SM OVC055 08/02 A2948 RMK AO2 SLP987 T00780017 TSNO,PATQ,2023-05-30T03:56:00Z,70.47,-157.43,7.8,1.7,90,6,,10.0,29.480314,998.7,,TRUE,TRUE,,,TRUE,,,,OVC,5500,,,,,,,VFR,,,,,,,,,,,,METAR,28.0
PATG 300356Z AUTO 10SM OVC055 07/02 A2983 RMK AO2 SLP102 T00720022 $,PATG,2023-05-30T03:56:00Z,59.05,-160.38,7.2,2.2,,,,10.0,29.828741,1010.2,,TRUE,TRUE,TRUE,,,,,,OVC,5500,,,,,,,VFR,,,,,,,,,,,,METAR,1.0
PATE 300356Z AUTO 20012KT 10SM OVC009 02/00 A2952 RMK AO2 SLP004 T00170000 FZRANO,PATE,2023-05-30T03:56:00Z,65.23,-166.33,1.7,0.0,200,12,,10.0,29.518702,1000.4,,TRUE,TRUE,,,,TRUE,,,OVC,900,,,,,,,IFR,,,,,,,,,,,,METAR,93.0
PASX 300356Z AUTO 25011KT 10SM SCT033 OVC042 10/04 A2977 RMK AO2 SLP088 T01000044,PASX,2023-05-30T03:56:00Z,60.48,-151.05,10.0,4.4,250,11,,10.0,29.769686,1008.8,,TRUE,TRUE,,,,,,,SCT,3300,OVC,4200,,,,,VFR,,,,,,,,,,,,METAR,28.0
PASM 300356Z AUTO 20017G21KT 10SM OVC011 04/01 A2968 RMK AO2 SLP059 T00440011,PASM,2023-05-30T03:56:00Z,62.07,-163.3,4.4,1.1,200,17,21,10.0,29.681103,1005.9,,TRUE,TRUE,,,,,,,OVC,1100,,,,,,,MVFR,,,,,,,,,,,,METAR,108.0
PASL 300356Z AUTO VRB04KT 10SM OVC048 08/03 A2976 RMK AO2 SLP069 T00830028,PASL,2023-05-30T03:56:00Z,61.68,-157.15,8.3,2.8,0,4,,10.0,29.760826,1006.9,,TRUE,TRUE,,,,,,,OVC,4800,,,,,,,VFR,,,,,,,,,,,,METAR,64.0
PASK 300356Z AUTO 18006KT 10SM BKN032 OVC042 07/02 A2958 RMK AO2 SLP013 T00720022,PASK,2023-05-30T03:56:00Z,66.6,-160.0,7.2,2.2,180,6,,10.0,29.58071,1001.3,,TRUE,TRUE,,,,,,,BKN,3200,OVC,4200,,,,,VFR,,,,,,,,,,,,METAR,3.0
PASD 300356Z AUTO 32009KT 10SM OVC024 08/02 A2999 RMK AO2 SLP157 T00830022 PNO $,PASD,2023-05-30T03:56:00Z,55.33,-160.52,8.3,2.2,320,9,,10.0,29.991142,1015.7,,TRUE,TRUE,TRUE,,,,,,OVC,2400,,,,,,,MVFR,,,,,,,,,,,,METAR,6.0
PARY 300356Z AUTO 24008G16KT 10SM BKN024 OVC100 10/04 A2958 RMK AO2 SLP025 T01000039,PARY,2023-05-30T03:56:00Z,64.73,-155.47,10.0,3.9,240,8,16,10.0,29.58071,1002.5,,TRUE,TRUE,,,,,,,BKN,2400,OVC,10000,,,,,MVFR,,,,,,,,,,,,METAR,185.0
PARS 300356Z AUTO 21008KT 10SM OVC022 06/02 A2971 RMK AO2 SLP062 T00610022 $,PARS,2023-05-30T03:56:00Z,61.77,-161.32,6.1,2.2,210,8,,10.0,29.71063,1006.2,,TRUE,TRUE,TRUE,,,,,,OVC,2200,,,,,,,MVFR,,,,,,,,,,,,METAR,15.0
PARC 300356Z AUTO 21003KT 10SM BKN048 OVC060 12/05 A2946 RMK AO2 RAE30 SLP000 P0000 T01170050,PARC,2023-05-30T03:56:00Z,68.12,-145.58,11.7,5.0,210,3,,10.0,29.459646,1000.0,,TRUE,TRUE,,,,,,,BKN,4800,OVC,6000,,,,,VFR,,,,,,0.005,,,,,,METAR,626.0
PAPO 300356Z AUTO 32004KT 10SM -RA OVC060 01/M02 A2956 RMK AO2 UPE04B40E48RAB04 SLP009 T00111017 FZRANO PNO $,PAPO,2023-05-30T03:56:00Z,68.35,-166.8,1.1,-1.7,320,4,,10.0,29.56004,1000.9,,TRUE,TRUE,TRUE,,,TRUE,,-RA,OVC,6000,,,,,,,VFR,,,,,,,,,,,,METAR,4.0
PAPN 300356Z AUTO 26018G22KT 6SM BR OVC007 04/03 A2990 RMK AO2 SLP126 T00390028,PAPN,2023-05-30T03:56:00Z,57.58,-157.57,3.9,2.8,260,18,22,6.0,29.899607,1012.6,,TRUE,TRUE,,,,,,BR,OVC,700,,,,,,,IFR,,,,,,,,,,,,METAR,19.0
PAPM 300356Z AUTO 25015KT 8SM OVC005 03/02 A2985 RMK AO2 SLP111 T00280017,PAPM,2023-05-30T03:56:00Z,59.02,-161.82,2.8,1.7,250,15,,8.0,29.84941,1011.1,,TRUE,TRUE,,,,,,,OVC,500,,,,,,,IFR,,,,,,,,,,,,METAR,4.0
PAPG 300356Z 03003KT 9SM RA BKN008 BKN017 OVC026 07/06 A2998 RMK AO2 SLP155 P0009 T00670056,PAPG,2023-05-30T03:56:00Z,56.82,-132.93,6.7,5.6,30,3,,9.0,29.97933,1015.5,,,TRUE,,,,,,RA,BKN,800,BKN,1700,OVC,2600,,,IFR,,,,,,0.09,,,,,,METAR,24.0
PAOU 300356Z AUTO 27016KT 10SM FEW011 OVC024 04/03 A2999 RMK AO2 RAB32E45 SLP156 T00440028 PNO $,PAOU,2023-05-30T03:56:00Z,56.0,-161.17,4.4,2.8,270,16,,10.0,29.991142,1015.6,,TRUE,TRUE,TRUE,,,,,,FEW,1100,OVC,2400,,,,,MVFR,,,,,,,,,,,,METAR,3.0
PAOH 300356Z AUTO 00000KT 10SM 08/06 A2989 RMK AO2 RAE13 SLP120 T00780056 PNO $,PAOH,2023-05-30T03:56:00Z,58.1,-135.45,7.8,5.6,0,0,,10.0,29.890747,1012.0,,TRUE,TRUE,TRUE,,,,,,,,,,,,,,,,,,,,,,,,,,METAR,0.0
PANW 300356Z AUTO 22004KT 10SM OVC034 10/05 A2976 RMK AO2 SLP084 T01000050,PANW,2023-05-30T03:56:00Z,59.45,-157.32,10.0,5.0,220,4,,10.0,29.760826,1008.4,,TRUE,TRUE,,,,,,,OVC,3400,,,,,,,VFR,,,,,,,,,,,,METAR,100.0
PANV 300356Z AUTO 23008KT 8SM -RA 07/02 A2966 RMK AO2 RAB54 SLP115 P0000 T00720022 TSNO $,PANV,2023-05-30T03:56:00Z,62.65,-160.18,7.2,2.2,230,8,,8.0,29.660433,1011.5,,TRUE,TRUE,TRUE,,TRUE,,,-RA,,,,,,,,,,,,,,,0.005,,,,,,METAR,91.0
PAMY 300356Z AUTO 24013KT 10SM OVC010 03/01 A2970 RMK AO2 SLP057 T00330011 PNO $,PAMY,2023-05-30T03:56:00Z,60.37,-166.27,3.3,1.1,240,13,,10.0,29.698818,1005.7,,TRUE,TRUE,TRUE,,,,,,OVC,1000,,,,,,,MVFR,,,,,,,,,,,,METAR,14.0
PAMO 300356Z AUTO 20013G21KT 10SM OVC010 03/01 A2967 RMK AO2 CIG 008V012 SLP051 T00280011,PAMO,2023-05-30T03:56:00Z,62.1,-163.68,2.8,1.1,200,13,21,10.0,29.66929,1005.1,,TRUE,TRUE,,,,,,,OVC,1000,,,,,,,MVFR,,,,,,,,,,,,METAR,93.0
PAMM 300356Z AUTO 21007KT 10SM CLR 10/05 A3000 RMK AO2 SLP253 T01000050 $,PAMM,2023-05-30T03:56:00Z,55.13,-131.58,10.0,5.0,210,7,,10.0,30.0,1025.3,,TRUE,TRUE,TRUE,,,,,,CLR,,,,,,,,VFR,,,,,,,,,,,,METAR,0.0
PAMK 300356Z AUTO 10007KT 10SM -RA FEW018 SCT031 OVC046 04/03 A2964 RMK AO2 RAB02 SLP039 P0000 T00390028,PAMK,2023-05-30T03:56:00Z,63.48,-162.12,3.9,2.8,100,7,,10.0,29.639763,1003.9,,TRUE,TRUE,,,,,,-RA,FEW,1800,SCT,3100,OVC,4600,,,VFR,,,,,,0.005,,,,,,METAR,31.0
PAMH 300356Z AUTO 22003KT 10SM -RA OVC034 10/07 A2961 RMK AO2 SLP024 P0000 T01000072,PAMH,2023-05-30T03:56:00Z,63.9,-152.28,10.0,7.2,220,3,,10.0,29.610237,1002.4,,TRUE,TRUE,,,,,,-RA,OVC,3400,,,,,,,VFR,,,,,,0.005,,,,,,METAR,200.0
PAMB 300356Z AUTO 25013G19KT 9SM CLR 08/03 A2980 RMK AO2 SLP095 T00830028 $,PAMB,2023-05-30T03:56:00Z,58.98,-159.05,8.3,2.8,250,13,19,9.0,29.799213,1009.5,,TRUE,TRUE,TRUE,,,,,,CLR,,,,,,,,VFR,,,,,,,,,,,,METAR,28.0
PALG 300356Z AUTO 22005KT 8SM -RA SCT021 BKN027 OVC039 06/03 A2973 RMK AO2 SLP070 P0000 T00610033,PALG,2023-05-30T03:56:00Z,61.53,-160.33,6.1,3.3,220,5,,8.0,29.731298,1007.0,,TRUE,TRUE,,,,,,-RA,SCT,2100,BKN,2700,OVC,3900,,,MVFR,,,,,,0.005,,,,,,METAR,13.0
PAKP 300356Z AUTO 35006KT 10SM FEW065 12/03 A2943 RMK AO2 SLP990 T01220033,PAKP,2023-05-30T03:56:00Z,68.13,-151.73,12.2,3.3,350,6,,10.0,29.430119,999.0,,TRUE,TRUE,,,,,,,FEW,6500,,,,,,,VFR,,,,,,,,,,,,METAR,649.0
PAKI 300356Z AUTO 10SM UP OVC005 02/02 A2975 RMK AO2 RAB43E52UPB52 SLP078 P0000 T00220017 FZRANO $,PAKI,2023-05-30T03:56:00Z,59.93,-164.03,2.2,1.7,,,,10.0,29.749016,1007.8,,TRUE,TRUE,TRUE,,,TRUE,,UP,OVC,500,,,,,,,IFR,,,,,,0.005,,,,,,METAR,4.0
PAKH 300356Z AUTO 10SM SCT049 BKN060 OVC100 07/02 A2987 RMK AO2 SLP114 T00720022 TSNO $,PAKH,2023-05-30T03:56:00Z,56.93,-154.18,7.2,2.2,,,,10.0,29.870079,1011.4,,TRUE,TRUE,TRUE,,TRUE,,,,SCT,4900,BKN,6000,OVC,10000,,,VFR,,,,,,,,,,,,METAR,15.0
PAKF 300356Z AUTO 27009G15KT 10SM BKN034 09/02 A3001 RMK AO2 SLP161 T00940022,PAKF,2023-05-30T03:56:00Z,54.85,-163.42,9.4,2.2,270,9,15,10.0,30.008858,1016.1,,TRUE,TRUE,,,,,,,BKN,3400,,,,,,,VFR,,,,,,,,,,,,METAR,2.0
PAJZ 300356Z AUTO 21008KT 7SM -RA FEW025 OVC037 09/08 A2980 RMK AO2 RAB43 SLP097 P0000 T00890078 $,PAJZ,2023-05-30T03:56:00Z,59.73,-157.27,8.9,7.8,210,8,,7.0,29.799213,1009.7,,TRUE,TRUE,TRUE,,,,,-RA,FEW,2500,OVC,3700,,,,,VFR,,,,,,0.005,,,,,,METAR,80.0
PAIN 300356Z AUTO 11003KT 10SM -RA OVC029 06/05 A2963 RMK AO2 SLP051 T00610050 PNO $,PAIN,2023-05-30T03:56:00Z,63.73,-148.92,6.1,5.0,110,3,,10.0,29.630905,1005.1,,TRUE,TRUE,TRUE,,,,,-RA,OVC,2900,,,,,,,MVFR,,,,,,,,,,,,METAR,525.0
PAIK 300356Z AUTO 00000KT 10SM OVC031 07/02 A2958 RMK AO2 SLP018 T00720017,PAIK,2023-05-30T03:56:00Z,66.98,-160.43,7.2,1.7,0,0,,10.0,29.58071,1001.8,,TRUE,TRUE,,,,,,,OVC,3100,,,,,,,VFR,,,,,,,,,,,,METAR,49.0
PAIG 300356Z AUTO 20013G18KT 10SM OVC042 09/05 A2979 RMK AO2 SLP095 T00890050 $,PAIG,2023-05-30T03:56:00Z,59.32,-155.9,8.9,5.0,200,13,18,10.0,29.790354,1009.5,,TRUE,TRUE,TRUE,,,,,,OVC,4200,,,,,,,VFR,,,,,,,,,,,,METAR,24.0
PAHY 300356Z AUTO 16006KT 10SM -RA BKN037 OVC048 09/04 A2998 RMK AO2 RAB54 SLP151 P0000 T00890039 $,PAHY,2023-05-30T03:56:00Z,55.2,-132.83,8.9,3.9,160,6,,10.0,29.97933,1015.1,,TRUE,TRUE,TRUE,,,,,-RA,BKN,3700,OVC,4800,,,,,VFR,,,,,,0.005,,,,,,METAR,0.0
PAHL 300356Z AUTO 19006KT 10SM -RA OVC055 09/07 A2955 RMK AO2 RAB13 SLP008 P0000 T00940072,PAHL,2023-05-30T03:56:00Z,65.7,-156.35,9.4,7.2,190,6,,10.0,29.551182,1000.8,,TRUE,TRUE,,,,,,-RA,OVC,5500,,,,,,,VFR,,,,,,0.005,,,,,,METAR,49.0
PAHC 300356Z AUTO 19004KT 10SM -RA OVC025 07/03 A2970 RMK AO2 RAB26 SLP062 P0000 T00670033,PAHC,2023-05-30T03:56:00Z,62.18,-159.78,6.7,3.3,190,4,,10.0,29.698818,1006.2,,TRUE,TRUE,,,,,,-RA,OVC,2500,,,,,,,MVFR,,,,,,0.005,,,,,,METAR,21.0
PAGS 300356Z AUTO 13008KT 10SM -RA FEW036 OVC047 07/06 A2990 RMK AO2 SLP123 P0001 T00720056,PAGS,2023-05-30T03:56:00Z,58.42,-135.7,7.2,5.6,130,8,,10.0,29.899607,1012.3,,TRUE,TRUE,,,,,,-RA,FEW,3600,OVC,4700,,,,,VFR,,,,,,0.01,,,,,,METAR,9.0
PAGN 300356Z AUTO 13004KT 10SM BKN036 OVC046 09/05 A2993 RMK AO2 RAE29 SLP123 P0000 T00890050,PAGN,2023-05-30T03:56:00Z,57.5,-134.58,8.9,5.0,130,4,,10.0,29.929134,1012.3,,TRUE,TRUE,,,,,,,BKN,3600,OVC,4600,,,,,VFR,,,,,,0.005,,,,,,METAR,2.0
PAFM 300356Z AUTO 28007KT 10SM CLR 09/02 A2959 RMK AO2 SLP024 T00890017,PAFM,2023-05-30T03:56:00Z,67.1,-157.85,8.9,1.7,280,7,,10.0,29.589567,1002.4,,TRUE,TRUE,,,,,,,CLR,,,,,,,,VFR,,,,,,,,,,,,METAR,79.0
PAFE 300356Z AUTO 11006KT 10SM FEW016 OVC021 07/06 A2996 RMK AO2 RAE51 SLP159 P0001 T00670061 $,PAFE,2023-05-30T03:56:00Z,56.97,-133.92,6.7,6.1,110,6,,10.0,29.958662,1015.9,,TRUE,TRUE,TRUE,,,,,,FEW,1600,OVC,2100,,,,,MVFR,,,,,,0.01,,,,,,METAR,1.0
PADU 300356Z 21012KT 10SM OVC031 08/04 A3004 RMK AO2 SLP178 T00830039,PADU,2023-05-30T03:56:00Z,53.9,-166.53,8.3,3.9,210,12,,10.0,30.041338,1017.8,,,TRUE,,,,,,,OVC,3100,,,,,,,VFR,,,,,,,,,,,,METAR,4.0
PADM 300356Z AUTO 16012G16KT 10SM OVC016 05/02 A2974 RMK AO2 SLP076 T00500022,PADM,2023-05-30T03:56:00Z,61.87,-162.03,5.0,2.2,160,12,16,10.0,29.740158,1007.6,,TRUE,TRUE,,,,,,,OVC,1600,,,,,,,MVFR,,,,,,,,,,,,METAR,17.0
PADL 300356Z 25014G20KT 10SM FEW038 12/02 A2978 RMK AO2 SLP086 T01170022,PADL,2023-05-30T03:56:00Z,59.05,-158.5,11.7,2.2,250,14,20,10.0,29.778543,1008.6,,,TRUE,,,,,,,FEW,3800,,,,,,,VFR,,,,,,,,,,,,METAR,20.0
PADK 300356Z AUTO 25025KT CLR 08/05 A3024 RMK AO2 PK WND 25026/0356 SLP239 T00830050 PWINO $,PADK,2023-05-30T03:56:00Z,51.88,-176.65,8.3,5.0,250,25,,,30.239174,1023.9,,TRUE,TRUE,TRUE,,,,TRUE,,CLR,,,,,,,,,,,,,,,,,,,,METAR,3.0
PACM 300356Z AUTO 17011KT BKN021 OVC033 02/01 A2967 RMK AO2 SLP044 T00170011 PWINO FZRANO $,PACM,2023-05-30T03:56:00Z,61.85,-165.57,1.7,1.1,170,11,,,29.66929,1004.4,,TRUE,TRUE,TRUE,,,TRUE,TRUE,,BKN,2100,OVC,3300,,,,,,,,,,,,,,,,,METAR,3.0
PABV 300356Z AUTO 02004KT 10SM OVC070 12/02 A2972 RMK AO2 SLP070 T01220022,PABV,2023-05-30T03:56:00Z,61.42,-149.52,12.2,2.2,20,4,,10.0,29.719488,1007.0,,TRUE,TRUE,,,,,,,OVC,7000,,,,,,,VFR,,,,,,,,,,,,METAR,21.0
PABL 300356Z AUTO 21013KT 10SM -RA SCT038 OVC050 07/01 A2957 RMK AO2 RAB54 SLP016 P0000 T00720011,PABL,2023-05-30T03:56:00Z,65.98,-161.15,7.2,1.1,210,13,,10.0,29.568897,1001.6,,TRUE,TRUE,,,,,,-RA,SCT,3800,OVC,5000,,,,,VFR,,,,,,0.005,,,,,,METAR,7.0
PAAK 300356Z AUTO 28012G18KT 5SM BR OVC004 06/06 A3023 RMK AO2 SLP237 T00560056,PAAK,2023-05-30T03:56:00Z,52.22,-174.2,5.6,5.6,280,12,18,5.0,30.230314,1023.7,,TRUE,TRUE,,,,,,BR,OVC,400,,,,,,,LIFR,,,,,,,,,,,,METAR,11.0
KYKN 300356Z AUTO 19009KT 10SM CLR 26/14 A2978 RMK AO2 SLP086 T02610139,KYKN,2023-05-30T03:56:00Z,42.92,-97.37,26.1,13.9,190,9,,10.0,29.778543,1008.6,,TRUE,TRUE,,,,,,,CLR,,,,,,,,VFR,,,,,,,,,,,,METAR,388.0
KY50 300356Z AUTO 00000KT 10SM CLR 14/11 A3000 RMK AO2 SLP152 T01390111 $,KY50,2023-05-30T03:56:00Z,44.03,-89.3,13.9,11.1,0,0,,10.0,30.0,1015.2,,TRUE,TRUE,TRUE,,,,,,CLR,,,,,,,,VFR,,,,,,,,,,,,METAR,261.0
KWWD 300356Z AUTO 06012KT 9SM BKN014 OVC100 16/13 A3011 RMK AO2 LTG DSNT SW SLP195 T01560128 $,KWWD,2023-05-30T03:56:00Z,39.02,-74.92,15.6,12.8,60,12,,9.0,30.109253,1019.5,,TRUE,TRUE,TRUE,,,,,,BKN,1400,OVC,10000,,,,,MVFR,,,,,,,,,,,,METAR,4.0
KWVL 300356Z AUTO 20003KT 10SM CLR 08/06 A3022 RMK AO2 SLP261 T00780061,KWVL,2023-05-30T03:56:00Z,44.52,-69.67,7.8,6.1,200,3,,10.0,30.221457,1026.1,,TRUE,TRUE,,,,,,,CLR,,,,,,,,VFR,,,,,,,,,,,,METAR,87.0
KWMC 300356Z AUTO 04012KT 10SM CLR 18/06 A2991 RMK AO2 SLP090 T01830061 $,KWMC,2023-05-30T03:56:00Z,40.9,-117.8,18.3,6.1,40,12,,10.0,29.911417,1009.0,,TRUE,TRUE,TRUE,,,,,,CLR,,,,,,,,VFR,,,,,,,,,,,,METAR,1311.0
KWJF 300356Z AUTO 25019KT 10SM CLR 16/09 A2993 RMK AO2 SLP125 T01560094,KWJF,2023-05-30T03:56:00Z,34.73,-118.22,15.6,9.4,250,19,,10.0,29.929134,1012.5,,TRUE,TRUE,,,,,,,CLR,,,,,,,,VFR,,,,,,,,,,,,METAR,712.0
KVPZ 300356Z AUTO 03004KT 10SM OVC100 19/06 A3000 RMK AO2 RAB0258E31 SLP154 P0000 T01940056,KVPZ,2023-05-30T03:56:00Z,41.45,-87.0,19.4,5.6,30,4,,10.0,30.0,1015.4,,TRUE,TRUE,,,,,,,OVC,10000,,,,,,,VFR,,,,,,0.005,,,,,,METAR,235.0
KVIS 300356Z AUTO 24010KT 10SM FEW070 21/09 A2988 RMK AO2 SLP124 T02060089,KVIS,2023-05-30T03:56:00Z,36.32,-119.4,20.6,8.9,240,10,,10.0,29.878937,1012.4,,TRUE,TRUE,,,,,,,FEW,7000,,,,,,,VFR,,,,,,,,,,,,METAR,92.0
KVBT 300356Z AUTO 17003KT 10SM CLR 22/16 A2999 RMK AO2 SLP146 T02170161,KVBT,2023-05-30T03:56:00Z,36.35,-94.22,21.7,16.1,170,3,,10.0,29.991142,1014.6,,TRUE,TRUE,,,,,,,CLR,,,,,,,,VFR,,,,,,,,,,,,METAR,390.0
KUKI 300356Z AUTO 16008KT 10SM CLR 15/11 A2993 RMK AO2 SLP131 T01500106,KUKI,2023-05-30T03:56:00Z,39.12,-123.2,15.0,10.6,160,8,,10.0,29.929134,1013.1,,TRUE,TRUE,,,,,,,CLR,,,,,,,,VFR,,,,,,,,,,,,METAR,183.0
KUDG 300356Z AUTO 09003KT 10SM BKN090 18/18 A2995 RMK AO2 SLP141 T01830183 402390161,KUDG,2023-05-30T03:56:00Z,34.45,-79.88,18.3,18.3,90,3,,10.0,29.949802,1014.1,,TRUE,TRUE,,,,,,,BKN,9000,,,,,,,VFR,,,,23.9,16.1,,,,,,,METAR,57.0
KUCP 300356Z AUTO 00000KT 10SM CLR 17/12 A3004 RMK AO2 SLP180 T01670117,KUCP,2023-05-30T03:56:00Z,41.03,-80.42,16.7,11.7,0,0,,10.0,30.041338,1018.0,,TRUE,TRUE,,,,,,,CLR,,,,,,,,VFR,,,,,,,,,,,,METAR,313.0
KTVF 300356Z AUTO 10017KT 10SM VCTS -RA FEW042 SCT080 OVC110 18/ A2976 RMK AO2 LTG DSNT NE SLP075 P0010 T0178,KTVF,2023-05-30T03:56:00Z,48.07,-96.17,17.8,,100,17,,10.0,29.760826,1007.5,,TRUE,TRUE,,,,,,VCTS -RA,FEW,4200,SCT,8000,OVC,11000,,,VFR,,,,,,0.1,,,,,,METAR,339.0
KTPH 300356Z AUTO 14007KT 10SM CLR 17/M05 A2996 RMK AO2 SLP088 T01671050,KTPH,2023-05-30T03:56:00Z,38.05,-117.08,16.7,-5.0,140,7,,10.0,29.958662,1008.8,,TRUE,TRUE,,,,,,,CLR,,,,,,,,VFR,,,,,,,,,,,,METAR,1647.0
KSXT 300356Z AUTO 34005KT 10SM CLR 15/07 A2996 RMK AO2 SLP110 T01500067 $,KSXT,2023-05-30T03:56:00Z,42.6,-123.37,15.0,6.7,340,5,,10.0,29.958662,1011.0,,TRUE,TRUE,TRUE,,,,,,CLR,,,,,,,,VFR,,,,,,,,,,,,METAR,1151.0
KSUE 300356Z AUTO 16006KT 10SM CLR 17/06 A3001 RMK AO2 SLP159 T01670056,KSUE,2023-05-30T03:56:00Z,44.85,-87.42,16.7,5.6,160,6,,10.0,30.008858,1015.9,,TRUE,TRUE,,,,,,,CLR,,,,,,,,VFR,,,,,,,,,,,,METAR,215.0
KSRC 300356Z AUTO 00000KT 10SM CLR 18/17 A2996 RMK AO2 SLP142 T01830167,KSRC,2023-05-30T03:56:00Z,35.22,-91.73,18.3,16.7,0,0,,10.0,29.958662,1014.2,,TRUE,TRUE,,,,,,,CLR,,,,,,,,VFR,,,,,,,,,,,,METAR,80.0
KSQI 300356Z AUTO 10003KT 10SM CLR 18/09 A2998 RMK AO2 SLP015 T01780094,KSQI,2023-05-30T03:56:00Z,41.75,-89.67,17.8,9.4,100,3,,10.0,29.97933,1001.5,,TRUE,TRUE,,,,,,,CLR,,,,,,,,VFR,,,,,,,,,,,,METAR,196.0
KSPD 300356Z AUTO 16010KT 18/14 A2997 RMK AO1 SLP093 T01830139,KSPD,2023-05-30T03:56:00Z,37.28,-102.62,18.3,13.9,160,10,,,29.970472,1009.3,,TRUE,TRUE,,,,,,,,,,,,,,,,,,,,,,,,,,,METAR,1340.0
KSOP 300356Z AUTO 00000KT 7SM BKN023 OVC037 18/18 A2997 RMK AO2 SLP152 T01780178,KSOP,2023-05-30T03:56:00Z,35.23,-79.4,17.8,17.8,0,0,,7.0,29.970472,1015.2,,TRUE,TRUE,,,,,,,BKN,2300,OVC,3700,,,,,MVFR,,,,,,,,,,,,METAR,135.0
KSMP 300356Z AUTO VRB04KT 10SM CLR 09/05 A2995 RMK AO2 SLP137 T00940050,KSMP,2023-05-30T03:56:00Z,47.28,-121.33,9.4,5.0,0,4,,10.0,29.949802,1013.7,,TRUE,TRUE,,,,,,,CLR,,,,,,,,VFR,,,,,,,,,,,,METAR,1206.0
KSMN 300356Z AUTO 19003KT 10SM CLR 17/08 A2986 RMK AO2 SLP811 T01720078,KSMN,2023-05-30T03:56:00Z,45.12,-113.87,17.2,7.8,190,3,,10.0,29.861221,981.1,,TRUE,TRUE,,,,,,,CLR,,,,,,,,VFR,,,,,,,,,,,,METAR,1228.0
KSLG 300356Z AUTO 00000KT 10SM CLR 20/17 A2998 RMK AO2 SLP139 T02000172,KSLG,2023-05-30T03:56:00Z,36.2,-94.48,20.0,17.2,0,0,,10.0,29.97933,1013.9,,TRUE,TRUE,,,,,,,CLR,,,,,,,,VFR,,,,,,,,,,,,METAR,361.0
KSLE 300356Z AUTO 28006KT 10SM CLR 17/08 A2989 RMK AO2 SLP122 T01720083 $,KSLE,2023-05-30T03:56:00Z,44.9,-123.0,17.2,8.3,280,6,,10.0,29.890747,1012.2,,TRUE,TRUE,TRUE,,,,,,CLR,,,,,,,,VFR,,,,,,,,,,,,METAR,63.0
KSKX 300356Z AUTO 05008KT 10SM CLR 12/M09 A3015 RMK AO2 SLP152 T01221094,KSKX,2023-05-30T03:56:00Z,36.45,-105.67,12.2,-9.4,50,8,,10.0,30.15059,1015.2,,TRUE,TRUE,,,,,,,CLR,,,,,,,,VFR,,,,,,,,,,,,METAR,2163.0
KSHV 300356Z 00000KT 10SM BKN250 22/19 A2993 RMK SLPNO,KSHV,2023-05-30T03:56:00Z,32.45,-93.83,22.0,19.0,0,0,,10.0,29.929134,,,,,,,,,,,BKN,25000,,,,,,,VFR,,,,,,,,,,,,METAR,70.0
KSGU 300356Z AUTO 30004KT 10SM CLR 27/M02 A2985 RMK AO2 SLP074 T02721022,KSGU,2023-05-30T03:56:00Z,37.03,-113.52,27.2,-2.2,300,4,,10.0,29.84941,1007.4,,TRUE,TRUE,,,,,,,CLR,,,,,,,,VFR,,,,,,,,,,,,METAR,877.0
KSGT 300356Z AUTO 10004KT 10SM CLR 24/15 A2996 RMK AO2 SLP142 T02390150,KSGT,2023-05-30T03:56:00Z,34.6,-91.57,23.9,15.0,100,4,,10.0,29.958662,1014.2,,TRUE,TRUE,,,,,,,CLR,,,,,,,,VFR,,,,,,,,,,,,METAR,67.0
KSGJ 300356Z AUTO 21007KT 10SM 22/17 A2992 RMK AO2 SLP131 T02220167 402830172 $,KSGJ,2023-05-30T03:56:00Z,29.97,-81.33,22.2,16.7,210,7,,10.0,29.920275,1013.1,,TRUE,TRUE,TRUE,,,,,,,,,,,,,,,,,,28.3,17.2,,,,,,,METAR,2.0
KSGH 300356Z AUTO 15005KT 10SM SCT110 21/12 A3001 RMK AO2 SLP155 T02060122 402890122,KSGH,2023-05-30T03:56:00Z,39.83,-83.83,20.6,12.2,150,5,,10.0,30.008858,1015.5,,TRUE,TRUE,,,,,,,SCT,11000,,,,,,,VFR,,,,28.9,12.2,,,,,,,METAR,318.0
KSFZ 300356Z AUTO 07003KT 10SM CLR 07/05 A3022 RMK AO2 SLP233 T00720050,KSFZ,2023-05-30T03:56:00Z,41.92,-71.5,7.2,5.0,70,3,,10.0,30.221457,1023.3,,TRUE,TRUE,,,,,,,CLR,,,,,,,,VFR,,,,,,,,,,,,METAR,129.0
KSFO 300356Z 24007KT 10SM FEW026 SCT150 SCT200 15/09 A2995 RMK AO2 SLP143 T01500089,KSFO,2023-05-30T03:56:00Z,37.62,-122.37,15.0,8.9,240,7,,10.0,29.949802,1014.3,,,TRUE,,,,,,,FEW,2600,SCT,15000,SCT,20000,,,VFR,,,,,,,,,,,,METAR,2.0
KSFM 300356Z AUTO 00000KT 10SM SCT002 04/04 A3025 RMK AO2 SLP247 T00440039 402110044,KSFM,2023-05-30T03:56:00Z,43.38,-70.72,4.4,3.9,0,0,,10.0,30.250984,1024.7,,TRUE,TRUE,,,,,,,SCT,200,,,,,,,VFR,,,,21.1,4.4,,,,,,,METAR,70.0
KSDY 300356Z AUTO 14003KT 10SM FEW075 15/14 A2976 RMK AO2 SLP076 T01500139,KSDY,2023-05-30T03:56:00Z,47.7,-104.2,15.0,13.9,140,3,,10.0,29.760826,1007.6,,TRUE,TRUE,,,,,,,FEW,7500,,,,,,,VFR,,,,,,,,,,,,METAR,600.0
KSDF 300356Z 12005KT 10SM BKN095 24/14 A2996 RMK AO2 SLP141 T02390144,KSDF,2023-05-30T03:56:00Z,38.18,-85.73,23.9,14.4,120,5,,10.0,29.958662,1014.1,,,TRUE,,,,,,,BKN,9500,,,,,,,VFR,,,,,,,,,,,,METAR,146.0
KSBP 300356Z AUTO 31007KT 10SM OVC032 14/09 A2999 RMK AO2 SLP155 T01390089,KSBP,2023-05-30T03:56:00Z,35.23,-120.63,13.9,8.9,310,7,,10.0,29.991142,1015.5,,TRUE,TRUE,,,,,,,OVC,3200,,,,,,,VFR,,,,,,,,,,,,METAR,52.0
KRUT 300356Z AUTO 13011KT 10SM CLR 16/06 A3017 RMK AO2 SLP209 T01560061 $,KRUT,2023-05-30T03:56:00Z,43.53,-72.95,15.6,6.1,130,11,,10.0,30.171259,1020.9,,TRUE,TRUE,TRUE,,,,,,CLR,,,,,,,,VFR,,,,,,,,,,,,METAR,238.0
KRKD 300356Z AUTO 27003KT 10SM CLR 06/05 A3025 RMK AO2 SLP244 T00610050,KRKD,2023-05-30T03:56:00Z,44.07,-69.1,6.1,5.0,270,3,,10.0,30.250984,1024.4,,TRUE,TRUE,,,,,,,CLR,,,,,,,,VFR,,,,,,,,,,,,METAR,15.0
KRDM 300356Z 36005KT 10SM CLR 19/03 A2989 RMK AO2 SLP099 T01940033 $,KRDM,2023-05-30T03:56:00Z,44.25,-121.15,19.4,3.3,360,5,,10.0,29.890747,1009.9,,,TRUE,TRUE,,,,,,CLR,,,,,,,,VFR,,,,,,,,,,,,METAR,930.0
KPWT 300356Z AUTO 20003KT 10SM CLR 14/09 A2993 RMK AO2 SLP137 T01440089,KPWT,2023-05-30T03:56:00Z,47.5,-122.77,14.4,8.9,200,3,,10.0,29.929134,1013.7,,TRUE,TRUE,,,,,,,CLR,,,,,,,,VFR,,,,,,,,,,,,METAR,143.0
KPWG 300356Z AUTO 13004KT 10SM CLR 22/18 A2995 RMK AO2 SLP132 T02220183,KPWG,2023-05-30T03:56:00Z,31.48,-97.32,22.2,18.3,130,4,,10.0,29.949802,1013.2,,TRUE,TRUE,,,,,,,CLR,,,,,,,,VFR,,,,,,,,,,,,METAR,178.0
KPVU 300356Z AUTO 04003KT 10SM CLR 19/02 A2992 RMK AO2 SLP086 T01940022,KPVU,2023-05-30T03:56:00Z,40.22,-111.72,19.4,2.2,40,3,,10.0,29.920275,1008.6,,TRUE,TRUE,,,,,,,CLR,,,,,,,,VFR,,,,,,,,,,,,METAR,1370.0
KPVG 300356Z AUTO 8SM BKN003 18/18 A2997 RMK AO2 LTG DSNT SW RAE16 SLP151 P0000 T01830183 402720183 $,KPVG,2023-05-30T03:56:00Z,36.78,-76.45,18.3,18.3,,,,8.0,29.970472,1015.1,,TRUE,TRUE,TRUE,,,,,,BKN,300,,,,,,,LIFR,,,,27.2,18.3,0.005,,,,,,METAR,7.0
KPVC 300356Z AUTO 10004KT 10SM CLR 07/05 A3023 RMK AO2 SLP237 T00720050,KPVC,2023-05-30T03:56:00Z,42.07,-70.22,7.2,5.0,100,4,,10.0,30.230314,1023.7,,TRUE,TRUE,,,,,,,CLR,,,,,,,,VFR,,,,,,,,,,,,METAR,1.0
KPTV 300356Z AUTO 14005KT 10SM CLR 19/09 A2991 RMK AO2 SLP126 T01940094,KPTV,2023-05-30T03:56:00Z,36.02,-119.07,19.4,9.4,140,5,,10.0,29.911417,1012.6,,TRUE,TRUE,,,,,,,CLR,,,,,,,,VFR,,,,,,,,,,,,METAR,132.0
KPTN 300356Z AUTO 00000KT 10SM CLR 23/21 A2994 RMK AO2 SLP137 T02280206 $,KPTN,2023-05-30T03:56:00Z,29.72,-91.33,22.8,20.6,0,0,,10.0,29.940945,1013.7,,TRUE,TRUE,TRUE,,,,,,CLR,,,,,,,,VFR,,,,,,,,,,,,METAR,2.0
KPRX 300356Z AUTO 20005KT 10SM -RA CLR 20/20 A2994 RMK AO2 SLP136 P0001 T02000200,KPRX,2023-05-30T03:56:00Z,33.63,-95.45,20.0,20.0,200,5,,10.0,29.940945,1013.6,,TRUE,TRUE,,,,,,-RA,CLR,,,,,,,,VFR,,,,,,0.01,,,,,,METAR,165.0
KPQI 300356Z AUTO 00000KT 10SM CLR 07/04 A3017 RMK AO2 SLP247 T00670044,KPQI,2023-05-30T03:56:00Z,46.68,-68.05,6.7,4.4,0,0,,10.0,30.171259,1024.7,,TRUE,TRUE,,,,,,,CLR,,,,,,,,VFR,,,,,,,,,,,,METAR,154.0
KPIB 300356Z AUTO 00000KT 10SM 19/19 A2996 RMK AO2 SLP142 T01890189,KPIB,2023-05-30T03:56:00Z,31.47,-89.33,18.9,18.9,0,0,,10.0,29.958662,1014.2,,TRUE,TRUE,,,,,,,,,,,,,,,,,,,,,,,,,,,METAR,91.0
KP60 300356Z AUTO 00000KT 06/04 A3017 RMK AO1 SLP183 T00560044 ,KP60,2023-05-30T03:56:00Z,44.55,-110.42,5.6,4.4,0,0,,,30.171259,1018.3,,TRUE,TRUE,,,,,,,,,,,,,,,,,,,,,,,,,,,METAR,2377.0
KP53 300356Z AUTO 20004KT 15/06 A2999 RMK AO1 SLP156 T01500061 $,KP53,2023-05-30T03:56:00Z,46.42,-86.65,15.0,6.1,200,4,,,29.991142,1015.6,,TRUE,TRUE,TRUE,,,,,,,,,,,,,,,,,,,,,,,,,,METAR,185.0
KP28 300356Z AUTO 14004KT 22/18 A2991 RMK AO1 SLP116 T02170178 $,KP28,2023-05-30T03:56:00Z,37.28,-98.55,21.7,17.8,140,4,,,29.911417,1011.6,,TRUE,TRUE,TRUE,,,,,,,,,,,,,,,,,,,,,,,,,,METAR,469.0
KOWB 300356Z AUTO 00000KT 10SM CLR 22/13 A2994 RMK AO2 SLP138 T02220133,KOWB,2023-05-30T03:56:00Z,37.72,-87.17,22.2,13.3,0,0,,10.0,29.940945,1013.8,,TRUE,TRUE,,,,,,,CLR,,,,,,,,VFR,,,,,,,,,,,,METAR,121.0
KOTH 300356Z AUTO 01017G24KT 10SM OVC010 12/09 A3000 RMK AO2 SLP158 T01170094,KOTH,2023-05-30T03:56:00Z,43.42,-124.25,11.7,9.4,10,17,24,10.0,30.0,1015.8,,TRUE,TRUE,,,,,,,OVC,1000,,,,,,,MVFR,,,,,,,,,,,,METAR,3.0
KOTG 300356Z AUTO 12014KT 10SM SCT090 BKN110 19/16 A2984 RMK AO2 LTG DSNT ALQDS RAE03 SLP100 T01940156 PNO $,KOTG,2023-05-30T03:56:00Z,43.65,-95.57,19.4,15.6,120,14,,10.0,29.840551,1010.0,,TRUE,TRUE,TRUE,,,,,,SCT,9000,BKN,11000,,,,,VFR,,,,,,,,,,,,METAR,478.0
KOLU 300356Z AUTO 29018G23KT 10SM BKN060 BKN070 23/14 A2990 RMK AO2 LTG DSNT SW AND W SLP116 T02330139,KOLU,2023-05-30T03:56:00Z,41.45,-97.33,23.3,13.9,290,18,23,10.0,29.899607,1011.6,,TRUE,TRUE,,,,,,,BKN,6000,BKN,7000,,,,,VFR,,,,,,,,,,,,METAR,438.0
KOKK 300356Z AUTO 07007KT 10SM CLR 22/09 A2999 RMK AO2 SLP150 T02170089 PNO $,KOKK,2023-05-30T03:56:00Z,40.53,-86.07,21.7,8.9,70,7,,10.0,29.991142,1015.0,,TRUE,TRUE,TRUE,,,,,,CLR,,,,,,,,VFR,,,,,,,,,,,,METAR,251.0
KOFK 300356Z AUTO 24014KT 10SM 24/13 A2985 RMK AO2 PK WND 25028/0314 WSHFT 0301 SLP094 T02390128,KOFK,2023-05-30T03:56:00Z,41.98,-97.43,23.9,12.8,240,14,,10.0,29.84941,1009.4,,TRUE,TRUE,,,,,,,,,,,,,,,,,,,,,,,,,,,METAR,476.0
KOCH 300356Z AUTO 00000KT 10SM CLR 21/21 A2996 RMK AO2 SLP146 T02110211,KOCH,2023-05-30T03:56:00Z,31.57,-94.72,21.1,21.1,0,0,,10.0,29.958662,1014.6,,TRUE,TRUE,,,,,,,CLR,,,,,,,,VFR,,,,,,,,,,,,METAR,105.0
KOAJ 300356Z AUTO 00000KT 10SM OVC033 18/18 A2994 RMK AO2 SLP141 T01830178,KOAJ,2023-05-30T03:56:00Z,34.82,-77.62,18.3,17.8,0,0,,10.0,29.940945,1014.1,,TRUE,TRUE,,,,,,,OVC,3300,,,,,,,VFR,,,,,,,,,,,,METAR,26.0
KNYG 300356Z AUTO 06012KT 8SM OVC024 18/ A3008 RMK AO2 SLP188 T0183 $ ,KNYG,2023-05-30T03:56:00Z,38.5,-77.3,18.3,,60,12,,8.0,30.079725,1018.8,,TRUE,TRUE,TRUE,,,,,,OVC,2400,,,,,,,MVFR,,,,,,,,,,,,METAR,2.0
KNXP 300356Z AUTO 19010KT 10SM CLR 25/06 A2990 RMK AO2 SLP091 T02500061,KNXP,2023-05-30T03:56:00Z,34.28,-116.13,25.0,6.1,190,10,,10.0,29.899607,1009.1,,TRUE,TRUE,,,,,,,CLR,,,,,,,,VFR,,,,,,,,,,,,METAR,610.0
KNXF 300356Z AUTO 30004KT 10SM -RA OVC028 16/13 A2998 RMK AO2 RAE05B32 SLP238 P0000 T01610128 $ ,KNXF,2023-05-30T03:56:00Z,33.28,-117.45,16.1,12.8,300,4,,10.0,29.97933,1023.8,,TRUE,TRUE,TRUE,,,,,-RA,OVC,2800,,,,,,,MVFR,,,,,,0.005,,,,,,METAR,28.0
KNUC 300356Z AUTO 30008KT OVC023 14/ A3001 RMK AO2 SLP159 T0144 $,KNUC,2023-05-30T03:56:00Z,33.02,-118.57,14.4,,300,8,,,30.008858,1015.9,,TRUE,TRUE,TRUE,,,,,,OVC,2300,,,,,,,,,,,,,,,,,,,METAR,52.0
KNTU 300356Z 03009KT 6SM BR FEW005 FEW110 19/17 A2996 RMK AO2 TSE00 SLP146 T01890167 $,KNTU,2023-05-30T03:56:00Z,36.82,-76.02,18.9,16.7,30,9,,6.0,29.958662,1014.6,,,TRUE,TRUE,,,,,BR,FEW,500,FEW,11000,,,,,VFR,,,,,,,,,,,,METAR,6.0
KNSE 300356Z AUTO 00000KT 10SM CLR 18/16 A2993 RMK AO2 SLP120 T01780156 $,KNSE,2023-05-30T03:56:00Z,30.73,-87.02,17.8,15.6,0,0,,10.0,29.929134,1012.0,,TRUE,TRUE,TRUE,,,,,,CLR,,,,,,,,VFR,,,,,,,,,,,,METAR,56.0
KNQI 300356Z AUTO 03003KT 10SM CLR 24/22 A2992 RMK AO2 SLP127 T02440222 $ ,KNQI,2023-05-30T03:56:00Z,27.5,-97.82,24.4,22.2,30,3,,10.0,29.920275,1012.7,,TRUE,TRUE,TRUE,,,,,,CLR,,,,,,,,VFR,,,,,,,,,,,,METAR,15.0
KNPA 300356Z AUTO 00000KT 8SM CLR 20/18 A2992 RMK AO2 SLP133 T02000183,KNPA,2023-05-30T03:56:00Z,30.35,-87.32,20.0,18.3,0,0,,8.0,29.920275,1013.3,,TRUE,TRUE,,,,,,,CLR,,,,,,,,VFR,,,,,,,,,,,,METAR,6.0
KNOG 300356Z AUTO 36007KT 10SM SCT025 BKN032 23/21 A2995 RMK AO2 SLP120 T02330211 TSNO PNO $,KNOG,2023-05-30T03:56:00Z,27.9,-98.05,23.3,21.1,360,7,,10.0,29.949802,1012.0,,TRUE,TRUE,TRUE,,TRUE,,,,SCT,2500,BKN,3200,,,,,VFR,,,,,,,,,,,,METAR,72.0
KNMM 300356Z AUTO 00000KT 10SM CLR A2995 RMK AO2 SLPNO $,KNMM,2023-05-30T03:56:00Z,32.53,-88.53,,,0,0,,10.0,29.949802,,,TRUE,TRUE,TRUE,,,,,,CLR,,,,,,,,VFR,,,,,,,,,,,,METAR,94.0
KNLC 300356Z AUTO 26006KT 10SM CLR 21/08 A2988 RMK AO2 SLP117 T02060083 $,KNLC,2023-05-30T03:56:00Z,36.32,-119.95,20.6,8.3,260,6,,10.0,29.878937,1011.7,,TRUE,TRUE,TRUE,,,,,,CLR,,,,,,,,VFR,,,,,,,,,,,,METAR,69.0
KNKT 300356Z AUTO 00000KT 10SM CLR 17/17 A2993 RMK AO2 SLP133 T01720172,KNKT,2023-05-30T03:56:00Z,34.9,-76.88,17.2,17.2,0,0,,10.0,29.929134,1013.3,,TRUE,TRUE,,,,,,,CLR,,,,,,,,VFR,,,,,,,,,,,,METAR,8.0
KNJK 300356Z AUTO 28016KT 10SM CLR 26/08 A2977 RMK AO2 SLP095 T02610078 $,KNJK,2023-05-30T03:56:00Z,32.82,-115.67,26.1,7.8,280,16,,10.0,29.769686,1009.5,,TRUE,TRUE,TRUE,,,,,,CLR,,,,,,,,VFR,,,,,,,,,,,,METAR,-15.0
KNID 300356Z AUTO 18010KT 10SM CLR 23/06 A2983 RMK AO2 SLP084 T02280061 $,KNID,2023-05-30T03:56:00Z,35.68,-117.68,22.8,6.1,180,10,,10.0,29.828741,1008.4,,TRUE,TRUE,TRUE,,,,,,CLR,,,,,,,,VFR,,,,,,,,,,,,METAR,682.0
KNGP 300356Z AUTO 12005KT 10SM FEW024 28/22 A2992 RMK AO2 SLP130 T02780222 $,KNGP,2023-05-30T03:56:00Z,27.68,-97.28,27.8,22.2,120,5,,10.0,29.920275,1013.0,,TRUE,TRUE,TRUE,,,,,,FEW,2400,,,,,,,VFR,,,,,,,,,,,,METAR,5.0
KNFL 300356Z AUTO 31008KT 9SM -RA SCT090 OVC110 18/10 A2993 RMK AO2 RAB44 SLP108 P0001 T01780100 $,KNFL,2023-05-30T03:56:00Z,39.42,-118.7,17.8,10.0,310,8,,9.0,29.929134,1010.8,,TRUE,TRUE,TRUE,,,,,-RA,SCT,9000,OVC,11000,,,,,VFR,,,,,,0.01,,,,,,METAR,1199.0
KNDZ 300356Z AUTO 00000KT 10SM CLR 18/16 A2993 RMK AO2 SLP120 T01830161 $,KNDZ,2023-05-30T03:56:00Z,30.7,-87.02,18.3,16.1,0,0,,10.0,29.929134,1012.0,,TRUE,TRUE,TRUE,,,,,,CLR,,,,,,,,VFR,,,,,,,,,,,,METAR,51.0
KNCA 300356Z AUTO 28004KT 10SM CLR 17/16 A2992 RMK AO2 SLP135 T01720161,KNCA,2023-05-30T03:56:00Z,34.72,-77.45,17.2,16.1,280,4,,10.0,29.920275,1013.5,,TRUE,TRUE,,,,,,,CLR,,,,,,,,VFR,,,,,,,,,,,,METAR,9.0
KNBC 300356Z AUTO 00000KT 10SM CLR 20/18 A2991 RMK AO2 SLP129 T02000183,KNBC,2023-05-30T03:56:00Z,32.47,-80.72,20.0,18.3,0,0,,10.0,29.911417,1012.9,,TRUE,TRUE,,,,,,,CLR,,,,,,,,VFR,,,,,,,,,,,,METAR,9.0
KMYR 300356Z AUTO 10003KT 10SM CLR 19/19 A2994 RMK AO2 SLP138 T01940194,KMYR,2023-05-30T03:56:00Z,33.68,-78.92,19.4,19.4,100,3,,10.0,29.940945,1013.8,,TRUE,TRUE,,,,,,,CLR,,,,,,,,VFR,,,,,,,,,,,,METAR,7.0
KMVN 300356Z AUTO 00000KT 10SM CLR 16/14 A2996 RMK AO2 SLP147 T01610144,KMVN,2023-05-30T03:56:00Z,38.32,-88.87,16.1,14.4,0,0,,10.0,29.958662,1014.7,,TRUE,TRUE,,,,,,,CLR,,,,,,,,VFR,,,,,,,,,,,,METAR,145.0
KMTW 300356Z AUTO 00000KT 10SM CLR 14/09 A3001 RMK AO2 SLP163 T01390089,KMTW,2023-05-30T03:56:00Z,44.12,-87.67,13.9,8.9,0,0,,10.0,30.008858,1016.3,,TRUE,TRUE,,,,,,,CLR,,,,,,,,VFR,,,,,,,,,,,,METAR,197.0
KMSV 300356Z AUTO 12005KT 10SM CLR 14/04 A3020 RMK AO2 SLP222 T01390044,KMSV,2023-05-30T03:56:00Z,41.7,-74.78,13.9,4.4,120,5,,10.0,30.200787,1022.2,,TRUE,TRUE,,,,,,,CLR,,,,,,,,VFR,,,,,,,,,,,,METAR,427.0
KMRF 300356Z AUTO 12007KT 10SM CLR 21/06 A3006 RMK AO2 SLP115 T02060061,KMRF,2023-05-30T03:56:00Z,30.37,-104.02,20.6,6.1,120,7,,10.0,30.059055,1011.5,,TRUE,TRUE,,,,,,,CLR,,,,,,,,VFR,,,,,,,,,,,,METAR,1476.0
KMQY 300356Z AUTO 00000KT 10SM CLR 17/15 A2997 RMK AO2 SLP154 T01670150,KMQY,2023-05-30T03:56:00Z,36.02,-86.52,16.7,15.0,0,0,,10.0,29.970472,1015.4,,TRUE,TRUE,,,,,,,CLR,,,,,,,,VFR,,,,,,,,,,,,METAR,156.0
KMOB 300356Z 00000KT 10SM CLR 21/18 A2994 RMK AO2 SLP136 T02060178,KMOB,2023-05-30T03:56:00Z,30.68,-88.25,20.6,17.8,0,0,,10.0,29.940945,1013.6,,,TRUE,,,,,,,CLR,,,,,,,,VFR,,,,,,,,,,,,METAR,67.0
KMKY 300356Z AUTO 10SM FEW027 24/20 A2993 RMK AO2 SLP134 T02440200 403110217 TSNO PNO $,KMKY,2023-05-30T03:56:00Z,26.0,-81.67,24.4,20.0,,,,10.0,29.929134,1013.4,,TRUE,TRUE,TRUE,,TRUE,,,,FEW,2700,,,,,,,VFR,,,,31.1,21.7,,,,,,,METAR,2.0
KMKT 300356Z AUTO 18011KT 10SM SCT120 22/13 A2986 RMK AO2 SLP107 T02220133,KMKT,2023-05-30T03:56:00Z,44.22,-93.92,22.2,13.3,180,11,,10.0,29.861221,1010.7,,TRUE,TRUE,,,,,,,SCT,12000,,,,,,,VFR,,,,,,,,,,,,METAR,309.0
KMHS 300356Z AUTO VRB03KT 10SM OVC060 19/10 A2994 RMK AO2 SLP128 T01890100 $,KMHS,2023-05-30T03:56:00Z,41.32,-122.32,18.9,10.0,0,3,,10.0,29.940945,1012.8,,TRUE,TRUE,TRUE,,,,,,OVC,6000,,,,,,,VFR,,,,,,,,,,,,METAR,1080.0
KMEH 300356Z AUTO 00000KT 10SM CLR 14/06 A2990 RMK AO2 SLP106 T01440061,KMEH,2023-05-30T03:56:00Z,45.52,-118.42,14.4,6.1,0,0,,10.0,29.899607,1010.6,,TRUE,TRUE,,,,,,,CLR,,,,,,,,VFR,,,,,,,,,,,,METAR,1138.0
KMDT 300356Z 10010KT 10SM FEW110 18/07 A3012 RMK AO2 SLP200 T01780067,KMDT,2023-05-30T03:56:00Z,40.2,-76.77,17.8,6.7,100,10,,10.0,30.121063,1020.0,,,TRUE,,,,,,,FEW,11000,,,,,,,VFR,,,,,,,,,,,,METAR,91.0
KMBL 300356Z AUTO 09003KT 10SM CLR 11/08 A3002 RMK AO2 SLP163 T01110083 402890050,KMBL,2023-05-30T03:56:00Z,44.27,-86.25,11.1,8.3,90,3,,10.0,30.02067,1016.3,,TRUE,TRUE,,,,,,,CLR,,,,,,,,VFR,,,,28.9,5.0,,,,,,,METAR,187.0
KM19 300356Z AUTO 00000KT 9SM CLR 22/13 A2996 RMK AO2 SLP142 T02220133 PNO $,KM19,2023-05-30T03:56:00Z,35.65,-91.17,22.2,13.3,0,0,,9.0,29.958662,1014.2,,TRUE,TRUE,TRUE,,,,,,CLR,,,,,,,,VFR,,,,,,,,,,,,METAR,72.0
KLZU 300356Z AUTO 00000KT 10SM OVC070 18/14 A2995 RMK AO2 SLP146 T01830144 402560128,KLZU,2023-05-30T03:56:00Z,33.98,-83.97,18.3,14.4,0,0,,10.0,29.949802,1014.6,,TRUE,TRUE,,,,,,,OVC,7000,,,,,,,VFR,,,,25.6,12.8,,,,,,,METAR,316.0
KLWS 300356Z 00000KT 10SM CLR 25/04 A2975 RMK AO2 SLP066 T02500044,KLWS,2023-05-30T03:56:00Z,46.37,-117.02,25.0,4.4,0,0,,10.0,29.749016,1006.6,,,TRUE,,,,,,,CLR,,,,,,,,VFR,,,,,,,,,,,,METAR,435.0
KLRD 300356Z AUTO 07007KT 10SM SCT065 BKN080 24/19 A2991 RMK AO2 SLP125 T02390194,KLRD,2023-05-30T03:56:00Z,27.55,-99.47,23.9,19.4,70,7,,10.0,29.911417,1012.5,,TRUE,TRUE,,,,,,,SCT,6500,BKN,8000,,,,,VFR,,,,,,,,,,,,METAR,150.0
KLNR 300356Z AUTO 09003KT 10SM 15/09 A2997 RMK AO2 SLP142 T01500094 $,KLNR,2023-05-30T03:56:00Z,43.22,-90.18,15.0,9.4,90,3,,10.0,29.970472,1014.2,,TRUE,TRUE,TRUE,,,,,,,,,,,,,,,,,,,,,,,,,,METAR,218.0
KLGD 300356Z AUTO 29007KT 10SM CLR 18/10 A2984 RMK AO2 SLP092 T01780100,KLGD,2023-05-30T03:56:00Z,45.28,-118.0,17.8,10.0,290,7,,10.0,29.840551,1009.2,,TRUE,TRUE,,,,,,,CLR,,,,,,,,VFR,,,,,,,,,,,,METAR,827.0
KLEW 300356Z AUTO 00000KT 10SM CLR 06/06 A3024 RMK AO2 SLP246 T00610056 PNO $,KLEW,2023-05-30T03:56:00Z,44.03,-70.28,6.1,5.6,0,0,,10.0,30.239174,1024.6,,TRUE,TRUE,TRUE,,,,,,CLR,,,,,,,,VFR,,,,,,,,,,,,METAR,81.0
KLCI 300356Z AUTO 32003KT 10SM CLR 09/05 A3023 RMK AO2 SLP238 T00890050,KLCI,2023-05-30T03:56:00Z,43.57,-71.42,8.9,5.0,320,3,,10.0,30.230314,1023.8,,TRUE,TRUE,,,,,,,CLR,,,,,,,,VFR,,,,,,,,,,,,METAR,166.0
KLBT 300356Z AUTO 00000KT 10SM BKN021 OVC080 19/18 A2995 RMK AO2 SLP139 T01940183,KLBT,2023-05-30T03:56:00Z,34.6,-79.07,19.4,18.3,0,0,,10.0,29.949802,1013.9,,TRUE,TRUE,,,,,,,BKN,2100,OVC,8000,,,,,MVFR,,,,,,,,,,,,METAR,37.0
KLBL 300356Z AUTO 15007KT 10SM CLR 19/15 A2995 RMK AO2 SLP118 T01890150,KLBL,2023-05-30T03:56:00Z,37.03,-100.97,18.9,15.0,150,7,,10.0,29.949802,1011.8,,TRUE,TRUE,,,,,,,CLR,,,,,,,,VFR,,,,,,,,,,,,METAR,877.0
KLAS 300356Z 20007KT 10SM FEW250 29/M06 A2980 RMK AO2 SLP065 T02941056,KLAS,2023-05-30T03:56:00Z,36.07,-115.17,29.4,-5.6,200,7,,10.0,29.799213,1006.5,,,TRUE,,,,,,,FEW,25000,,,,,,,VFR,,,,,,,,,,,,METAR,662.0
KKLS 300356Z AUTO 28007KT CLR 13/07 A2997 RMK AO2 SLP154 T01280072 PWINO $,KKLS,2023-05-30T03:56:00Z,46.12,-122.9,12.8,7.2,280,7,,,29.970472,1015.4,,TRUE,TRUE,TRUE,,,,TRUE,,CLR,,,,,,,,,,,,,,,,,,,,METAR,4.0
KJXN 300356Z AUTO 00000KT 10SM CLR 15/11 A3003 RMK AO2 SLP165 T01500106 $,KJXN,2023-05-30T03:56:00Z,42.27,-84.47,15.0,10.6,0,0,,10.0,30.029528,1016.5,,TRUE,TRUE,TRUE,,,,,,CLR,,,,,,,,VFR,,,,,,,,,,,,METAR,303.0
KJRB 300356Z AUTO 04012G16KT 10SM CLR 16/08 A3018 RMK AO2 SLP220 T01610083 402560161,KJRB,2023-05-30T03:56:00Z,40.7,-74.02,16.1,8.3,40,12,16,10.0,30.180119,1022.0,,TRUE,TRUE,,,,,,,CLR,,,,,,,,VFR,,,,25.6,16.1,,,,,,,METAR,2.0
KJMS 300356Z AUTO 31006KT 10SM SCT100 17/13 A2975 RMK AO2 RAE21 TSB02E17 SLP071 P0002 T01720133,KJMS,2023-05-30T03:56:00Z,46.93,-98.67,17.2,13.3,310,6,,10.0,29.749016,1007.1,,TRUE,TRUE,,,,,,,SCT,10000,,,,,,,VFR,,,,,,0.02,,,,,,METAR,455.0
KJHW 300356Z AUTO 10006KT 10SM CLR 20/09 A3008 RMK AO2 SLP180 T02000094 PNO $,KJHW,2023-05-30T03:56:00Z,42.15,-79.27,20.0,9.4,100,6,,10.0,30.079725,1018.0,,TRUE,TRUE,TRUE,,,,,,CLR,,,,,,,,VFR,,,,,,,,,,,,METAR,520.0
KJAX 300356Z 22007KT 10SM SCT070 BKN100 BKN250 23/18 A2989 RMK AO2 SLP120 T02330183,KJAX,2023-05-30T03:56:00Z,30.5,-81.68,23.3,18.3,220,7,,10.0,29.890747,1012.0,,,TRUE,,,,,,,SCT,7000,BKN,10000,BKN,25000,,,VFR,,,,,,,,,,,,METAR,8.0
KJAC 300356Z AUTO 36008KT 10SM CLR 07/06 A3010 RMK AO2 SLP174 T00720061 PNO $,KJAC,2023-05-30T03:56:00Z,43.62,-110.73,7.2,6.1,360,8,,10.0,30.100393,1017.4,,TRUE,TRUE,TRUE,,,,,,CLR,,,,,,,,VFR,,,,,,,,,,,,METAR,1967.0
KIWD 300356Z AUTO VRB03KT 10SM CLR 19/07 A2996 RMK AO2 SLP142 T01940072,KIWD,2023-05-30T03:56:00Z,46.52,-90.12,19.4,7.2,0,3,,10.0,29.958662,1014.2,,TRUE,TRUE,,,,,,,CLR,,,,,,,,VFR,,,,,,,,,,,,METAR,373.0
KITH 300356Z AUTO 08003KT 10SM CLR 15/12 A3010 RMK AO2 SLP186 T01500117 402890078,KITH,2023-05-30T03:56:00Z,42.48,-76.45,15.0,11.7,80,3,,10.0,30.100393,1018.6,,TRUE,TRUE,,,,,,,CLR,,,,,,,,VFR,,,,28.9,7.8,,,,,,,METAR,338.0
KISP 300356Z 07005KT 10SM FEW250 12/09 A3018 RMK AO2 SLP219 LAST T01220089,KISP,2023-05-30T03:56:00Z,40.8,-73.1,12.2,8.9,70,5,,10.0,30.180119,1021.9,,,TRUE,,,,,,,FEW,25000,,,,,,,VFR,,,,,,,,,,,,METAR,25.0
KISM 300356Z AUTO 00000KT 10SM CLR 22/18 A2995 RMK AO2 SLP141 T02220178 PNO $,KISM,2023-05-30T03:56:00Z,28.28,-81.43,22.2,17.8,0,0,,10.0,29.949802,1014.1,,TRUE,TRUE,TRUE,,,,,,CLR,,,,,,,,VFR,,,,,,,,,,,,METAR,25.0
KINW 300356Z AUTO 23011KT 10SM CLR 20/M06 A3005 RMK AO2 SLP109 T02001061,KINW,2023-05-30T03:56:00Z,35.03,-110.72,20.0,-6.1,230,11,,10.0,30.050198,1010.9,,TRUE,TRUE,,,,,,,CLR,,,,,,,,VFR,,,,,,,,,,,,METAR,1492.0
KILE 300356Z AUTO 14004KT 10SM CLR 23/19 A2994 RMK AO2 SLP130 T02280194,KILE,2023-05-30T03:56:00Z,31.08,-97.68,22.8,19.4,140,4,,10.0,29.940945,1013.0,,TRUE,TRUE,,,,,,,CLR,,,,,,,,VFR,,,,,,,,,,,,METAR,256.0
KI69 300356Z AUTO 00000KT 10SM OVC075 23/16 A3001 RMK AO1 T02290160,KI69,2023-05-30T03:56:00Z,39.08,-84.22,22.9,16.0,0,0,,10.0,30.008858,,,TRUE,TRUE,,,,,,,OVC,7500,,,,,,,VFR,,,,,,,,,,,,METAR,238.0
KHYS 300356Z AUTO 16009KT 10SM CLR 21/16 A2991 RMK AO2 SLP116 T02110161 $,KHYS,2023-05-30T03:56:00Z,38.85,-99.27,21.1,16.1,160,9,,10.0,29.911417,1011.6,,TRUE,TRUE,TRUE,,,,,,CLR,,,,,,,,VFR,,,,,,,,,,,,METAR,607.0
KHYI 300356Z AUTO 15005KT 10SM CLR 21/20 A2992 RMK AO2 SLP124 T02110200,KHYI,2023-05-30T03:56:00Z,29.88,-97.87,21.1,20.0,150,5,,10.0,29.920275,1012.4,,TRUE,TRUE,,,,,,,CLR,,,,,,,,VFR,,,,,,,,,,,,METAR,180.0
KHYA 300356Z AUTO 00000KT 10SM CLR 06/04 A3020 RMK AO2 SLP227 T00610044 $,KHYA,2023-05-30T03:56:00Z,41.67,-70.27,6.1,4.4,0,0,,10.0,30.200787,1022.7,,TRUE,TRUE,TRUE,,,,,,CLR,,,,,,,,VFR,,,,,,,,,,,,METAR,11.0
KHWV 300356Z AUTO 07003KT 10SM CLR 12/07 A3019 RMK AO2 SLP224 T01220072,KHWV,2023-05-30T03:56:00Z,40.82,-72.87,12.2,7.2,70,3,,10.0,30.188976,1022.4,,TRUE,TRUE,,,,,,,CLR,,,,,,,,VFR,,,,,,,,,,,,METAR,20.0
KHPN 300356Z 11007KT 10SM CLR 14/07 A3019 RMK AO2 SLP219 T01390067,KHPN,2023-05-30T03:56:00Z,41.07,-73.7,13.9,6.7,110,7,,10.0,30.188976,1021.9,,,TRUE,,,,,,,CLR,,,,,,,,VFR,,,,,,,,,,,,METAR,113.0
KHND 300356Z AUTO 19010KT 10SM CLR 28/M06 A2984 RMK AO2 SLP091 T02781056,KHND,2023-05-30T03:56:00Z,35.98,-115.13,27.8,-5.6,190,10,,10.0,29.840551,1009.1,,TRUE,TRUE,,,,,,,CLR,,,,,,,,VFR,,,,,,,,,,,,METAR,740.0
KHNB 300356Z AUTO 00000KT 10SM OVC090 22/17 A2995 RMK AO2 SLP139 T02170167,KHNB,2023-05-30T03:56:00Z,38.25,-86.95,21.7,16.7,0,0,,10.0,29.949802,1013.9,,TRUE,TRUE,,,,,,,OVC,9000,,,,,,,VFR,,,,,,,,,,,,METAR,159.0
KHEZ 300356Z AUTO 00000KT 10SM CLR 20/18 A2996 RMK AO2 SLP143 T02000183,KHEZ,2023-05-30T03:56:00Z,31.62,-91.3,20.0,18.3,0,0,,10.0,29.958662,1014.3,,TRUE,TRUE,,,,,,,CLR,,,,,,,,VFR,,,,,,,,,,,,METAR,82.0
KHEF 300356Z VRB05KT 10SM OVC027 17/15 A3009 RMK AO2 RAE35 SLP192 P0000 T01720150 402500161,KHEF,2023-05-30T03:56:00Z,38.72,-77.52,17.2,15.0,0,5,,10.0,30.088583,1019.2,,,TRUE,,,,,,,OVC,2700,,,,,,,MVFR,,,,25.0,16.1,0.005,,,,,,METAR,53.0
KHDN 300356Z AUTO 09007KT 10SM CLR 14/04 A3007 RMK AO2 SLP120 T01390039,KHDN,2023-05-30T03:56:00Z,40.48,-107.22,13.9,3.9,90,7,,10.0,30.070866,1012.0,,TRUE,TRUE,,,,,,,CLR,,,,,,,,VFR,,,,,,,,,,,,METAR,2012.0
KGXY 300356Z AUTO 03005KT 10SM CLR 17/10 A2998 RMK AO2 SLP121 T01670100,KGXY,2023-05-30T03:56:00Z,40.43,-104.62,16.7,10.0,30,5,,10.0,29.97933,1012.1,,TRUE,TRUE,,,,,,,CLR,,,,,,,,VFR,,,,,,,,,,,,METAR,1420.0
KGVQ 300356Z AUTO 11003KT 10SM CLR 17/04 A3008 RMK AO2 SLP181 T01670039,KGVQ,2023-05-30T03:56:00Z,43.03,-78.17,16.7,3.9,110,3,,10.0,30.079725,1018.1,,TRUE,TRUE,,,,,,,CLR,,,,,,,,VFR,,,,,,,,,,,,METAR,279.0
KGUC 300356Z AUTO 33007KT 10SM CLR 13/M04 A3016 RMK AO2 SLP145 T01331044,KGUC,2023-05-30T03:56:00Z,38.52,-106.93,13.3,-4.4,330,7,,10.0,30.159449,1014.5,,TRUE,TRUE,,,,,,,CLR,,,,,,,,VFR,,,,,,,,,,,,METAR,2337.0
KGTU 300356Z AUTO 15003KT 10SM CLR 23/19 A2996 RMK AO2 SLP139 T02330189,KGTU,2023-05-30T03:56:00Z,30.68,-97.68,23.3,18.9,150,3,,10.0,29.958662,1013.9,,TRUE,TRUE,,,,,,,CLR,,,,,,,,VFR,,,,,,,,,,,,METAR,232.0
KGTR 300356Z AUTO 00000KT 10SM CLR 21/16 A2995 RMK AO2 SLP149 T02060161,KGTR,2023-05-30T03:56:00Z,33.45,-88.58,20.6,16.1,0,0,,10.0,29.949802,1014.9,,TRUE,TRUE,,,,,,,CLR,,,,,,,,VFR,,,,,,,,,,,,METAR,80.0
KGRD 300356Z AUTO 00000KT 10SM SCT055 17/16 A2995 RMK AO2 SLP138 T01670161,KGRD,2023-05-30T03:56:00Z,34.25,-82.15,16.7,16.1,0,0,,10.0,29.949802,1013.8,,TRUE,TRUE,,,,,,,SCT,5500,,,,,,,VFR,,,,,,,,,,,,METAR,188.0
KGPZ 300356Z AUTO 14007KT 10SM CLR 19/08 A2987 RMK AO2 SLP112 T01940083,KGPZ,2023-05-30T03:56:00Z,47.22,-93.52,19.4,8.3,140,7,,10.0,29.870079,1011.2,,TRUE,TRUE,,,,,,,CLR,,,,,,,,VFR,,,,,,,,,,,,METAR,410.0
KGON 300356Z AUTO 04004KT 10SM CLR 12/07 A3020 RMK AO2 SLP226 T01170067 $,KGON,2023-05-30T03:56:00Z,41.33,-72.05,11.7,6.7,40,4,,10.0,30.200787,1022.6,,TRUE,TRUE,TRUE,,,,,,CLR,,,,,,,,VFR,,,,,,,,,,,,METAR,2.0
KGNR 300356Z AUTO 00000KT 10/04 A3018 RMK AO1 SLP224 T01000044 $,KGNR,2023-05-30T03:56:00Z,45.47,-69.55,10.0,4.4,0,0,,,30.180119,1022.4,,TRUE,TRUE,TRUE,,,,,,,,,,,,,,,,,,,,,,,,,,METAR,426.0
KGNA 300356Z AUTO 01003KT 07/03 A2994 RMK AO1 SLP142 T00720028,KGNA,2023-05-30T03:56:00Z,47.75,-90.35,7.2,2.8,10,3,,,29.940945,1014.2,,TRUE,TRUE,,,,,,,,,,,,,,,,,,,,,,,,,,,METAR,186.0
KGDV 300356Z AUTO 25004KT 10SM CLR 16/14 A2979 RMK AO2 SLP080 T01610144 TSNO,KGDV,2023-05-30T03:56:00Z,47.13,-104.8,16.1,14.4,250,4,,10.0,29.790354,1008.0,,TRUE,TRUE,,,TRUE,,,,CLR,,,,,,,,VFR,,,,,,,,,,,,METAR,749.0
KGBD 300356Z AUTO 16005KT 10SM CLR 19/17 A2992 RMK AO2 SLP119 T01940167,KGBD,2023-05-30T03:56:00Z,38.35,-98.87,19.4,16.7,160,5,,10.0,29.920275,1011.9,,TRUE,TRUE,,,,,,,CLR,,,,,,,,VFR,,,,,,,,,,,,METAR,573.0
KGAI 300356Z AUTO VRB03KT 9SM -RA OVC065 17/12 A3011 RMK AO2 LTG DSNT SE RAB56 SLP205 P0000 T01720122,KGAI,2023-05-30T03:56:00Z,39.17,-77.17,17.2,12.2,0,3,,9.0,30.109253,1020.5,,TRUE,TRUE,,,,,,-RA,OVC,6500,,,,,,,VFR,,,,,,0.005,,,,,,METAR,151.0
KGAD 300356Z AUTO 00000KT 10SM CLR 13/13 A2997 RMK AO2 SLP152 T01330133 PNO $,KGAD,2023-05-30T03:56:00Z,33.97,-86.08,13.3,13.3,0,0,,10.0,29.970472,1015.2,,TRUE,TRUE,TRUE,,,,,,CLR,,,,,,,,VFR,,,,,,,,,,,,METAR,169.0
KFSD 300356Z 18011G18KT 10SM SCT090 BKN110 27/13 A2977 RMK AO2 SLP072 T02670133,KFSD,2023-05-30T03:56:00Z,43.58,-96.75,26.7,13.3,180,11,18,10.0,29.769686,1007.2,,,TRUE,,,,,,,SCT,9000,BKN,11000,,,,,VFR,,,,,,,,,,,,METAR,433.0
KFRM 300356Z AUTO 15014KT 10SM CLR 20/16 A2987 RMK AO2 LTG DSNT SE-W SLP112 T02000156,KFRM,2023-05-30T03:56:00Z,43.63,-94.42,20.0,15.6,150,14,,10.0,29.870079,1011.2,,TRUE,TRUE,,,,,,,CLR,,,,,,,,VFR,,,,,,,,,,,,METAR,353.0
KFOD 300356Z AUTO 16007KT 10SM CLR 24/12 A2991 RMK AO2 SLP132 T02390122,KFOD,2023-05-30T03:56:00Z,42.53,-94.17,23.9,12.2,160,7,,10.0,29.911417,1013.2,,TRUE,TRUE,,,,,,,CLR,,,,,,,,VFR,,,,,,,,,,,,METAR,347.0
KFNL 300356Z 33004KT 10SM CLR 16/07 A3000 RMK AO2 SLP111 T01610072,KFNL,2023-05-30T03:56:00Z,40.45,-105.02,16.1,7.2,330,4,,10.0,30.0,1011.1,,,TRUE,,,,,,,CLR,,,,,,,,VFR,,,,,,,,,,,,METAR,1529.0
KFLP 300356Z AUTO 00000KT 8SM CLR 18/16 A2996 RMK AO2 SLP142 T01830156,KFLP,2023-05-30T03:56:00Z,36.28,-92.58,18.3,15.6,0,0,,8.0,29.958662,1014.2,,TRUE,TRUE,,,,,,,CLR,,,,,,,,VFR,,,,,,,,,,,,METAR,215.0
KFKL 300356Z AUTO 08003KT 10SM CLR 18/11 A3007 RMK AO2 SLP174 T01830106,KFKL,2023-05-30T03:56:00Z,41.37,-79.87,18.3,10.6,80,3,,10.0,30.070866,1017.4,,TRUE,TRUE,,,,,,,CLR,,,,,,,,VFR,,,,,,,,,,,,METAR,468.0
KFCI 300356Z AUTO 06005KT 10SM OVC008 20/20 RMK AO2 SLPNO T02000200 402780178 $,KFCI,2023-05-30T03:56:00Z,37.4,-77.52,20.0,20.0,60,5,,10.0,,,,TRUE,TRUE,TRUE,,,,,,OVC,800,,,,,,,IFR,,,,27.8,17.8,,,,,,,METAR,63.0
KFAM 300356Z AUTO 00000KT 10SM CLR 16/13 A2998 RMK AO2 SLP156 T01610133,KFAM,2023-05-30T03:56:00Z,37.77,-90.42,16.1,13.3,0,0,,10.0,29.97933,1015.6,,TRUE,TRUE,,,,,,,CLR,,,,,,,,VFR,,,,,,,,,,,,METAR,276.0
KEWK 300356Z AUTO 13007KT 10SM CLR 19/19 A2995 RMK AO2 SLP129 T01940189,KEWK,2023-05-30T03:56:00Z,38.05,-97.27,19.4,18.9,130,7,,10.0,29.949802,1012.9,,TRUE,TRUE,,,,,,,CLR,,,,,,,,VFR,,,,,,,,,,,,METAR,468.0
KEUL 300356Z AUTO 34004KT 10SM CLR 21/10 A2981 RMK AO2 SLP078 T02110100,KEUL,2023-05-30T03:56:00Z,43.63,-116.62,21.1,10.0,340,4,,10.0,29.811024,1007.8,,TRUE,TRUE,,,,,,,CLR,,,,,,,,VFR,,,,,,,,,,,,METAR,741.0
KESC 300356Z AUTO 00000KT 10SM CLR 09/08 A3001 RMK AO2 SLP166 T00940083,KESC,2023-05-30T03:56:00Z,45.72,-87.08,9.4,8.3,0,0,,10.0,30.008858,1016.6,,TRUE,TRUE,,,,,,,CLR,,,,,,,,VFR,,,,,,,,,,,,METAR,180.0
KENV 300356Z AUTO 01015G21KT 10SM CLR 20/05 A2990 RMK AO2 PK WND 02031/0332 SLP096 T02000050 PNO $,KENV,2023-05-30T03:56:00Z,40.72,-114.02,20.0,5.0,10,15,21,10.0,29.899607,1009.6,,TRUE,TRUE,TRUE,,,,,,CLR,,,,,,,,VFR,,,,,,,,,,,,METAR,1291.0
KELZ 300356Z AUTO 10003KT 10SM CLR 18/11 A3013 RMK AO2 SLP191 T01780106,KELZ,2023-05-30T03:56:00Z,42.1,-77.98,17.8,10.6,100,3,,10.0,30.129921,1019.1,,TRUE,TRUE,,,,,,,CLR,,,,,,,,VFR,,,,,,,,,,,,METAR,639.0
KEKY 300356Z AUTO 00000KT 10SM CLR 16/15 A2997 RMK AO2 SLP997 T01610150,KEKY,2023-05-30T03:56:00Z,33.32,-86.93,16.1,15.0,0,0,,10.0,29.970472,999.7,,TRUE,TRUE,,,,,,,CLR,,,,,,,,VFR,,,,,,,,,,,,METAR,213.0
KEKQ 300356Z AUTO 00000KT 10SM CLR 14/14 A3001 RMK AO2 SLP155 T01440139 402330128,KEKQ,2023-05-30T03:56:00Z,36.85,-84.85,14.4,13.9,0,0,,10.0,30.008858,1015.5,,TRUE,TRUE,,,,,,,CLR,,,,,,,,VFR,,,,23.3,12.8,,,,,,,METAR,291.0
KEKO 300356Z AUTO 01011G22KT 10SM FEW080 BKN110 18/05 A2999 RMK AO2 WSHFT 0324 SLP113 T01780050,KEKO,2023-05-30T03:56:00Z,40.82,-115.78,17.8,5.0,10,11,22,10.0,29.991142,1011.3,,TRUE,TRUE,,,,,,,FEW,8000,BKN,11000,,,,,VFR,,,,,,,,,,,,METAR,1541.0
KEHR 300356Z AUTO 00000KT 10SM CLR 19/14 A2995 RMK AO2 SLP138 T01890144,KEHR,2023-05-30T03:56:00Z,37.82,-87.67,18.9,14.4,0,0,,10.0,29.949802,1013.8,,TRUE,TRUE,,,,,,,CLR,,,,,,,,VFR,,,,,,,,,,,,METAR,117.0
KEGE 300356Z AUTO 09006KT 10SM CLR 16/M03 A3009 RMK AO2 SLP096 T01561028,KEGE,2023-05-30T03:56:00Z,39.63,-106.92,15.6,-2.8,90,6,,10.0,30.088583,1009.6,,TRUE,TRUE,,,,,,,CLR,,,,,,,,VFR,,,,,,,,,,,,METAR,1993.0
KEEN 300356Z AUTO 10SM CLR 10/05 A3023 RMK AO2 SLP240 T01000050 $,KEEN,2023-05-30T03:56:00Z,42.88,-72.27,10.0,5.0,,,,10.0,30.230314,1024.0,,TRUE,TRUE,TRUE,,,,,,CLR,,,,,,,,VFR,,,,,,,,,,,,METAR,143.0
KEED 300356Z AUTO 18009KT 10SM CLR 31/M01 A2976 RMK AO2 SLP046 T03111006,KEED,2023-05-30T03:56:00Z,34.77,-114.62,31.1,-0.6,180,9,,10.0,29.760826,1004.6,,TRUE,TRUE,,,,,,,CLR,,,,,,,,VFR,,,,,,,,,,,,METAR,271.0
KEAU 300356Z AUTO 15005KT 10SM CLR 20/06 A2992 RMK AO2 SLP127 T02000061,KEAU,2023-05-30T03:56:00Z,44.87,-91.48,20.0,6.1,150,5,,10.0,29.920275,1012.7,,TRUE,TRUE,,,,,,,CLR,,,,,,,,VFR,,,,,,,,,,,,METAR,271.0
KDYR 300356Z AUTO 00000KT 10SM CLR 19/16 A2996 RMK AO2 SLP149 T01890156,KDYR,2023-05-30T03:56:00Z,36.0,-89.4,18.9,15.6,0,0,,10.0,29.958662,1014.9,,TRUE,TRUE,,,,,,,CLR,,,,,,,,VFR,,,,,,,,,,,,METAR,98.0
KDWU 300356Z AUTO 00000KT 7SM BKN100 OVC110 18/ A3000 RMK AO2 RAE30 SLP156 P0002 T0183 402720133,KDWU,2023-05-30T03:56:00Z,38.55,-82.73,18.3,,0,0,,7.0,30.0,1015.6,,TRUE,TRUE,,,,,,,BKN,10000,OVC,11000,,,,,VFR,,,,27.2,13.3,0.02,,,,,,METAR,165.0
KDVL 300356Z AUTO 16004KT 10SM BKN120 17/14 A2974 RMK AO2 RAE25 SLP080 P0000 T01670144,KDVL,2023-05-30T03:56:00Z,48.12,-98.92,16.7,14.4,160,4,,10.0,29.740158,1008.0,,TRUE,TRUE,,,,,,,BKN,12000,,,,,,,VFR,,,,,,0.005,,,,,,METAR,439.0
KDUG 300356Z AUTO 25007KT 10SM CLR 24/M04 A3001 RMK AO2 SLP094 T02391044 TSNO,KDUG,2023-05-30T03:56:00Z,31.47,-109.6,23.9,-4.4,250,7,,10.0,30.008858,1009.4,,TRUE,TRUE,,,TRUE,,,,CLR,,,,,,,,VFR,,,,,,,,,,,,METAR,1260.0
KDIK 300356Z AUTO 17005KT 10SM FEW002 14/13 A2977 RMK AO2 SLP070 T01440133,KDIK,2023-05-30T03:56:00Z,46.8,-102.8,14.4,13.3,170,5,,10.0,29.769686,1007.0,,TRUE,TRUE,,,,,,,FEW,200,,,,,,,VFR,,,,,,,,,,,,METAR,788.0
KDIJ 300356Z AUTO 24008KT 10SM -RA SCT065 OVC100 12/06 A3010 RMK AO2 RAB09 SLP152 P0000 T01220056,KDIJ,2023-05-30T03:56:00Z,43.75,-111.1,12.2,5.6,240,8,,10.0,30.100393,1015.2,,TRUE,TRUE,,,,,,-RA,SCT,6500,OVC,10000,,,,,VFR,,,,,,0.005,,,,,,METAR,1896.0
KDAY 300356Z 12005KT 10SM SCT090 22/12 A3000 RMK AO2 SLP151 T02170117,KDAY,2023-05-30T03:56:00Z,39.9,-84.22,21.7,11.7,120,5,,10.0,30.0,1015.1,,,TRUE,,,,,,,SCT,9000,,,,,,,VFR,,,,,,,,,,,,METAR,303.0
KD07 300356Z AUTO 04005KT 16/12 A2981 RMK AO1 SLP086 T01560117 $,KD07,2023-05-30T03:56:00Z,45.03,-102.02,15.6,11.7,40,5,,,29.811024,1008.6,,TRUE,TRUE,TRUE,,,,,,,,,,,,,,,,,,,,,,,,,,METAR,786.0
KCXY 300356Z AUTO 11009KT 10SM CLR 18/07 A3013 RMK AO2 SLP201 T01830067,KCXY,2023-05-30T03:56:00Z,40.22,-76.85,18.3,6.7,110,9,,10.0,30.129921,1020.1,,TRUE,TRUE,,,,,,,CLR,,,,,,,,VFR,,,,,,,,,,,,METAR,102.0
KCWI 300356Z AUTO 13007KT 10SM CLR 21/07 A2997 RMK AO2 SLP148 T02060067,KCWI,2023-05-30T03:56:00Z,41.82,-90.32,20.6,6.7,130,7,,10.0,29.970472,1014.8,,TRUE,TRUE,,,,,,,CLR,,,,,,,,VFR,,,,,,,,,,,,METAR,212.0
KCVO 300356Z AUTO 31014G20KT 10SM CLR 17/08 A2990 RMK AO2 SLP126 T01670083,KCVO,2023-05-30T03:56:00Z,44.5,-123.28,16.7,8.3,310,14,20,10.0,29.899607,1012.6,,TRUE,TRUE,,,,,,,CLR,,,,,,,,VFR,,,,,,,,,,,,METAR,75.0
KCVN 300356Z AUTO 12006KT 10SM CLR 18/14 A3001 RMK AO2 SLP131 T01780144,KCVN,2023-05-30T03:56:00Z,34.42,-103.07,17.8,14.4,120,6,,10.0,30.008858,1013.1,,TRUE,TRUE,,,,,,,CLR,,,,,,,,VFR,,,,,,,,,,,,METAR,1278.0
KCTB 300356Z AUTO 25009KT 10SM CLR 14/08 A2981 RMK AO2 SLP074 T01440078,KCTB,2023-05-30T03:56:00Z,48.6,-112.37,14.4,7.8,250,9,,10.0,29.811024,1007.4,,TRUE,TRUE,,,,,,,CLR,,,,,,,,VFR,,,,,,,,,,,,METAR,1172.0
KCOE 300356Z AUTO 18004KT 10SM 21/03 A2979 RMK AO2 SLP088 T02110028 PNO $,KCOE,2023-05-30T03:56:00Z,47.77,-116.82,21.1,2.8,180,4,,10.0,29.790354,1008.8,,TRUE,TRUE,TRUE,,,,,,,,,,,,,,,,,,,,,,,,,,METAR,693.0
KCOD 300356Z AUTO 24011G18KT 220V280 10SM OVC100 18/04 A2998 RMK AO2 RAB23E33 SLP105 P0000 T01830039,KCOD,2023-05-30T03:56:00Z,44.52,-109.02,18.3,3.9,240,11,18,10.0,29.97933,1010.5,,TRUE,TRUE,,,,,,,OVC,10000,,,,,,,VFR,,,,,,0.005,,,,,,METAR,1550.0
KCKC 300356Z AUTO 07003KT 10SM CLR 14/02 A2996 RMK AO2,KCKC,2023-05-30T03:56:00Z,47.83,-90.38,14.0,2.0,70,3,,10.0,29.958662,,,TRUE,TRUE,,,,,,,CLR,,,,,,,,VFR,,,,,,,,,,,,METAR,544.0
KCIU 300356Z AUTO 13006KT 10SM CLR 16/04 A3005 RMK AO2 SLP170 T01560044,KCIU,2023-05-30T03:56:00Z,46.25,-84.47,15.6,4.4,130,6,,10.0,30.050198,1017.0,,TRUE,TRUE,,,,,,,CLR,,,,,,,,VFR,,,,,,,,,,,,METAR,242.0
KCHS 300356Z 00000KT 10SM FEW075 19/17 A2992 RMK AO2 SLP132 T01940172,KCHS,2023-05-30T03:56:00Z,32.9,-80.03,19.4,17.2,0,0,,10.0,29.920275,1013.2,,,TRUE,,,,,,,FEW,7500,,,,,,,VFR,,,,,,,,,,,,METAR,12.0
KCEC 300356Z AUTO 15013G19KT 10SM OVC006 10/09 A2998 RMK AO2 SLP151 T01000094,KCEC,2023-05-30T03:56:00Z,41.78,-124.23,10.0,9.4,150,13,19,10.0,29.97933,1015.1,,TRUE,TRUE,,,,,,,OVC,600,,,,,,,IFR,,,,,,,,,,,,METAR,17.0
KCAE 300356Z 06004KT 10SM SCT100 21/17 A2992 RMK AO2 SLP129 T02110172,KCAE,2023-05-30T03:56:00Z,33.93,-81.12,21.1,17.2,60,4,,10.0,29.920275,1012.9,,,TRUE,,,,,,,SCT,10000,,,,,,,VFR,,,,,,,,,,,,METAR,69.0
KBZN 300356Z 14009KT 10SM BKN110 15/09 A2990 RMK AO2 SLP097 T01500089,KBZN,2023-05-30T03:56:00Z,45.78,-111.17,15.0,8.9,140,9,,10.0,29.899607,1009.7,,,TRUE,,,,,,,BKN,11000,,,,,,,VFR,,,,,,,,,,,,METAR,1349.0
KBVX 300356Z AUTO 00000KT 10SM CLR 19/16 A2997 RMK AO2 SLP146 T01890156,KBVX,2023-05-30T03:56:00Z,35.73,-91.65,18.9,15.6,0,0,,10.0,29.970472,1014.6,,TRUE,TRUE,,,,,,,CLR,,,,,,,,VFR,,,,,,,,,,,,METAR,137.0
KBTP 300356Z AUTO 12006KT 10SM CLR 21/09 A3005 RMK AO2 SLP173 T02060089 TSNO $,KBTP,2023-05-30T03:56:00Z,40.77,-79.95,20.6,8.9,120,6,,10.0,30.050198,1017.3,,TRUE,TRUE,TRUE,,TRUE,,,,CLR,,,,,,,,VFR,,,,,,,,,,,,METAR,375.0
KBOK 300356Z AUTO 15005KT 2SM BR OVC003 10/10 A2998 RMK AO2 SLP154 T01000100,KBOK,2023-05-30T03:56:00Z,42.07,-124.28,10.0,10.0,150,5,,2.0,29.97933,1015.4,,TRUE,TRUE,,,,,,BR,OVC,300,,,,,,,LIFR,,,,,,,,,,,,METAR,140.0
KBMI 300356Z AUTO 03007KT 10SM CLR 19/07 A2998 RMK AO2 SLP146 T01940072,KBMI,2023-05-30T03:56:00Z,40.47,-88.92,19.4,7.2,30,7,,10.0,29.97933,1014.6,,TRUE,TRUE,,,,,,,CLR,,,,,,,,VFR,,,,,,,,,,,,METAR,262.0
KBLM 300356Z AUTO 06010KT 10SM CLR 14/13 A3017 RMK AO2 SLP215 T01440128,KBLM,2023-05-30T03:56:00Z,40.17,-74.12,14.4,12.8,60,10,,10.0,30.171259,1021.5,,TRUE,TRUE,,,,,,,CLR,,,,,,,,VFR,,,,,,,,,,,,METAR,45.0
KBKX 300356Z AUTO 14016KT 10SM SCT080 21/16 A2979 RMK AO2 LTG DSNT NE-SE TSE0257RAE0257 SLP089 T02060156,KBKX,2023-05-30T03:56:00Z,44.3,-96.82,20.6,15.6,140,16,,10.0,29.790354,1008.9,,TRUE,TRUE,,,,,,,SCT,8000,,,,,,,VFR,,,,,,,,,,,,METAR,494.0
KBIH 300356Z AUTO 14017G24KT 10SM CLR 21/M01 A2985 RMK AO2 SLP064 T02111006,KBIH,2023-05-30T03:56:00Z,37.37,-118.35,21.1,-0.6,140,17,24,10.0,29.84941,1006.4,,TRUE,TRUE,,,,,,,CLR,,,,,,,,VFR,,,,,,,,,,,,METAR,1252.0
KBID 300356Z AUTO 09007KT 10SM CLR 11/07 A3021 RMK AO2 SLP230 T01110072 401780111,KBID,2023-05-30T03:56:00Z,41.17,-71.58,11.1,7.2,90,7,,10.0,30.209646,1023.0,,TRUE,TRUE,,,,,,,CLR,,,,,,,,VFR,,,,17.8,11.1,,,,,,,METAR,32.0
KBHB 300356Z AUTO 00000KT 10SM CLR 04/03 A3025 RMK AO2 SLP245 T00440033 402110044,KBHB,2023-05-30T03:56:00Z,44.45,-68.37,4.4,3.3,0,0,,10.0,30.250984,1024.5,,TRUE,TRUE,,,,,,,CLR,,,,,,,,VFR,,,,21.1,4.4,,,,,,,METAR,21.0
KAWO 300356Z AUTO 31009KT 10SM CLR 13/09 A2993 RMK AO2 SLP140 T01280089,KAWO,2023-05-30T03:56:00Z,48.17,-122.17,12.8,8.9,310,9,,10.0,29.929134,1014.0,,TRUE,TRUE,,,,,,,CLR,,,,,,,,VFR,,,,,,,,,,,,METAR,38.0
KASH 300356Z AUTO 00000KT 10SM CLR 09/07 A3024 RMK AO2 SLP245 T00940067,KASH,2023-05-30T03:56:00Z,42.78,-71.52,9.4,6.7,0,0,,10.0,30.239174,1024.5,,TRUE,TRUE,,,,,,,CLR,,,,,,,,VFR,,,,,,,,,,,,METAR,56.0
KART 300356Z AUTO 00000KT 10SM CLR 11/08 A3006 RMK AO2 SLP176 T01060078,KART,2023-05-30T03:56:00Z,43.98,-76.03,10.6,7.8,0,0,,10.0,30.059055,1017.6,,TRUE,TRUE,,,,,,,CLR,,,,,,,,VFR,,,,,,,,,,,,METAR,100.0
KARG 300356Z AUTO 15003KT 10SM CLR 22/14 A2996 RMK AO2 SLP143 T02170144,KARG,2023-05-30T03:56:00Z,36.12,-90.92,21.7,14.4,150,3,,10.0,29.958662,1014.3,,TRUE,TRUE,,,,,,,CLR,,,,,,,,VFR,,,,,,,,,,,,METAR,82.0
KAND 300356Z AUTO 05004KT 10SM BKN060 BKN075 21/16 A2994 RMK AO2 SLP132 T02060161,KAND,2023-05-30T03:56:00Z,34.5,-82.72,20.6,16.1,50,4,,10.0,29.940945,1013.2,,TRUE,TRUE,,,,,,,BKN,6000,BKN,7500,,,,,VFR,,,,,,,,,,,,METAR,233.0
KALK 300356Z AUTO 24010KT 10SM CLR 21/M05 A3007 RMK AO2 SLP091 T02111050,KALK,2023-05-30T03:56:00Z,31.6,-110.43,21.1,-5.0,240,10,,10.0,30.070866,1009.1,,TRUE,TRUE,,,,,,,CLR,,,,,,,,VFR,,,,,,,,,,,,METAR,1451.0
KAJO 300356Z AUTO 26005KT 10SM OVC038 16/12 A2997 RMK AO2 SLP146 T01560122,KAJO,2023-05-30T03:56:00Z,33.9,-117.6,15.6,12.2,260,5,,10.0,29.970472,1014.6,,TRUE,TRUE,,,,,,,OVC,3800,,,,,,,VFR,,,,,,,,,,,,METAR,161.0
KAIZ 300356Z AUTO 00000KT 10SM CLR 18/13 RMK AO2 SLPNO T01780133 $,KAIZ,2023-05-30T03:56:00Z,38.1,-92.53,17.8,13.3,0,0,,10.0,,,,TRUE,TRUE,TRUE,,,,,,CLR,,,,,,,,VFR,,,,,,,,,,,,METAR,263.0
KAFJ 300356Z AUTO 16006KT 10SM BKN070 19/12 A3007 RMK AO2 SLP174 T01940122,KAFJ,2023-05-30T03:56:00Z,40.13,-80.28,19.4,12.2,160,6,,10.0,30.070866,1017.4,,TRUE,TRUE,,,,,,,BKN,7000,,,,,,,VFR,,,,,,,,,,,,METAR,360.0
KADF 300356Z AUTO 00000KT 10SM 19/18 A2995 RMK AO2 SLP140 T01890178 $,KADF,2023-05-30T03:56:00Z,34.1,-93.07,18.9,17.8,0,0,,10.0,29.949802,1014.0,,TRUE,TRUE,TRUE,,,,,,,,,,,,,,,,,,,,,,,,,,METAR,54.0
KADC 300356Z AUTO 13006KT 10SM CLR 20/13 A2979 RMK AO2 PWINO TSNO,KADC,2023-05-30T03:56:00Z,46.45,-95.22,20.0,13.0,130,6,,10.0,29.790354,,,TRUE,TRUE,,,TRUE,,TRUE,,CLR,,,,,,,,VFR,,,,,,,,,,,,METAR,416.0
K8D3 300356Z AUTO 17013KT 22/15 A2972 RMK AO1 SLP045 T02170150,K8D3,2023-05-30T03:56:00Z,45.67,-96.98,21.7,15.0,170,13,,,29.719488,1004.5,,TRUE,TRUE,,,,,,,,,,,,,,,,,,,,,,,,,,,METAR,535.0
K79J 300356Z AUTO 00000KT 10SM CLR 19/16 A2993 RMK AO2 SLP132 T01940156,K79J,2023-05-30T03:56:00Z,31.32,-86.4,19.4,15.6,0,0,,10.0,29.929134,1013.2,,TRUE,TRUE,,,,,,,CLR,,,,,,,,VFR,,,,,,,,,,,,METAR,93.0
K2WX 300356Z AUTO 02007KT 17/11 A2979 RMK AO1 SLP072 T01720106,K2WX,2023-05-30T03:56:00Z,45.6,-103.55,17.2,10.6,20,7,,,29.790354,1007.2,,TRUE,TRUE,,,,,,,,,,,,,,,,,,,,,,,,,,,METAR,925.0
K1M4 300356Z AUTO 00000KT 10SM CLR 15/15 A3000 RMK AO2 SLP147 T01500150,K1M4,2023-05-30T03:56:00Z,34.28,-87.6,15.0,15.0,0,0,,10.0,30.0,1014.7,,TRUE,TRUE,,,,,,,CLR,,,,,,,,VFR,,,,,,,,,,,,METAR,283.0
EKYT 300356Z 22001KT CAVOK 08/07 Q1024 RMK SKC,EKYT,2023-05-30T03:56:00Z,57.1,9.87,8.0,7.0,220,1,,6.21,30.236221,,,,,,,,,,,CAVOK,,,,,,,,VFR,,,,,,,,,,,,METAR,2.0
CYNA 300356Z AUTO 00000KT 1 1/2SM BR CLR 00/M00 A3006 RMK SLP184,CYNA,2023-05-30T03:56:00Z,50.18,-61.78,0.0,0.0,0,0,,1.5,30.059055,1018.4,,TRUE,,,,,,,BR,CLR,,,,,,,,IFR,,,,,,,,,,,,SPECI,9.0
TXKF 300355Z 19002KT 9999 FEW010 SCT140 BKN160 BKN200 22/22 Q1015 ,TXKF,2023-05-30T03:55:00Z,32.37,-64.68,22.0,22.0,190,2,,6.21,29.970472,,,,,,,,,,,FEW,1000,SCT,14000,BKN,16000,BKN,20000,VFR,,,,,,,,,,,,METAR,4.0
TNCE 300355Z AUTO 08011KT //// // ///////// 27/21 Q1014 RE//,TNCE,2023-05-30T03:55:00Z,17.48,-62.97,27.0,21.0,80,11,,,29.940945,,,TRUE,,,,,,,,,,,,,,,,,,,,,,,,,,,,METAR,38.0
TNCB 300355Z AUTO 09011KT 9999 FEW014/// SCT018/// 28/24 Q1011,TNCB,2023-05-30T03:55:00Z,12.13,-68.28,28.0,24.0,90,11,,6.21,29.852362,,,TRUE,,,,,,,,FEW,1400,SCT,1800,,,,,VFR,,,,,,,,,,,,METAR,6.0
TJPS 300355Z AUTO 00000KT 10SM 26/22 A2993 RMK AO2 TSNO,TJPS,2023-05-30T03:55:00Z,18.02,-66.57,26.0,22.0,0,0,,10.0,29.929134,,,TRUE,TRUE,,,TRUE,,,,,,,,,,,,,,,,,,,,,,,,METAR,12.0
RKSG 300355Z 09007KT 10SM FEW120 SCT180 27/26 A2979 RMK AO2A SLPNO T02660260 $,RKSG,2023-05-30T03:55:00Z,36.97,127.02,26.6,26.0,90,7,,10.0,29.790354,,,,TRUE,TRUE,,,,,,FEW,12000,SCT,18000,,,,,VFR,,,,,,,,,,,,METAR,12.0
RJTY 300355Z AUTO 19006KT 10SM FEW140 SCT160 SCT200 24/18 A2977 RMK AO2 SLP082 T02420179 $,RJTY,2023-05-30T03:55:00Z,35.75,139.33,24.2,17.9,190,6,,10.0,29.769686,1008.2,,TRUE,TRUE,TRUE,,,,,,FEW,14000,SCT,16000,SCT,20000,,,VFR,,,,,,,,,,,,METAR,136.0
PWAK 300355Z AUTO 05015KT 9SM SCT021 30/22 A2997 RMK AO2 SLP155 T02970224,PWAK,2023-05-30T03:55:00Z,19.28,166.62,29.7,22.4,50,15,,9.0,29.970472,1015.5,,TRUE,TRUE,,,,,,,SCT,2100,,,,,,,VFR,,,,,,,,,,,,METAR,7.0
PHSF 300355Z AUTO 28004KT 10SM FEW016 15/11 A3030 RMK AO2 SLP160 T01530109 $,PHSF,2023-05-30T03:55:00Z,19.77,-155.55,15.3,10.9,280,4,,10.0,30.301182,1016.0,,TRUE,TRUE,TRUE,,,,,,FEW,1600,,,,,,,VFR,,,,,,,,,,,,METAR,1863.0
PHHI 300355Z AUTO 08007KT 10SM FEW027 SCT047 BKN065 23/17 A3003 RMK AO2 SLP162 T02330168 $,PHHI,2023-05-30T03:55:00Z,21.48,-158.05,23.3,16.8,80,7,,10.0,30.029528,1016.2,,TRUE,TRUE,TRUE,,,,,,FEW,2700,SCT,4700,BKN,6500,,,VFR,,,,,,,,,,,,METAR,246.0
PATL 300355Z AUTO 00000KT 10SM BKN038 07/03 A2969 RMK AO2 SLP059 T00730027 TSNO $,PATL,2023-05-30T03:55:00Z,62.9,-155.97,7.3,2.7,0,0,,10.0,29.68996,1005.9,,TRUE,TRUE,TRUE,,TRUE,,,,BKN,3800,,,,,,,VFR,,,,,,,,,,,,METAR,261.0
PATC 300355Z AUTO 02023KT 1SM -SN BR FEW005 OVC013 M01/M01 A2952 RMK AO2 SNB0256 SLP002 P0000 T10061008,PATC,2023-05-30T03:55:00Z,65.57,-167.92,-0.6,-0.8,20,23,,1.0,29.518702,1000.2,,TRUE,TRUE,,,,,,-SN BR,FEW,500,OVC,1300,,,,,IFR,,,,,,0.005,,,,,,METAR,77.0
PASY 300355Z AUTO M M M M 07/05 A3031 RMK AO2 SLP268 T00670049 RVRNO PWINO FZRANO CHINO RWY10 $,PASY,2023-05-30T03:55:00Z,52.72,174.12,6.7,4.9,,,,,30.31004,1026.8,,TRUE,TRUE,TRUE,,,TRUE,TRUE,,,,,,,,,,,,,,,,,,,,,,METAR,6.0
PASV 300355Z AUTO VRB06KT 10SM FEW046 07/04 A2969 RMK AO2 SHRAB0255E0308 SLP064 T00720035,PASV,2023-05-30T03:55:00Z,61.1,-155.57,7.2,3.5,0,6,,10.0,29.68996,1006.4,,TRUE,TRUE,,,,,,,FEW,4600,,,,,,,VFR,,,,,,,,,,,,METAR,462.0
PALU 300355Z AUTO 35005KT 10SM -RASN SCT008 OVC020 02/01 A2954 RMK AO2 RAB0211E0302 SLP004 T00230008,PALU,2023-05-30T03:55:00Z,68.88,-166.1,2.3,0.8,350,5,,10.0,29.53937,1000.4,,TRUE,TRUE,,,,,,-RA -SN,SCT,800,OVC,2000,,,,,MVFR,,,,,,,,,,,,METAR,8.0
PAKX 300355Z AUTO 00000KT 10SM OVC070 11/03 A2973 RMK AO2,PAKX,2023-05-30T03:55:00Z,60.2,-154.32,11.0,3.0,0,0,,10.0,29.731298,,,TRUE,TRUE,,,,,,,OVC,7000,,,,,,,VFR,,,,,,,,,,,,METAR,88.0
PAIM 300355Z AUTO 26010G14KT 230V290 10SM BKN060 14/03 A2949 RMK AO2 SLP986 T01400033,PAIM,2023-05-30T03:55:00Z,66.0,-153.7,14.0,3.3,260,10,14,10.0,29.489174,998.6,,TRUE,TRUE,,,,,,,BKN,6000,,,,,,,VFR,,,,,,,,,,,,METAR,309.0
PAFR 300355Z AUTO 11014G20KT 9SM BKN060 BKN095 12/M01 A2971 RMK AO2 SLP067 T01191013 $,PAFR,2023-05-30T03:55:00Z,61.27,-149.65,11.9,-1.3,110,14,20,9.0,29.71063,1006.7,,TRUE,TRUE,TRUE,,,,,,BKN,6000,BKN,9500,,,,,VFR,,,,,,,,,,,,METAR,106.0
PAFB 300355Z AUTO 23006KT 7SM -RA SCT019 BKN025 OVC038 09/07 A2957 RMK AO2 RAB10 CIG 020V025 SLP021 P0001 T00920068 FZRANO $,PAFB,2023-05-30T03:55:00Z,64.83,-147.62,9.2,6.8,230,6,,7.0,29.568897,1002.1,,TRUE,TRUE,TRUE,,,TRUE,,-RA,SCT,1900,BKN,2500,OVC,3800,,,MVFR,,,,,,0.01,,,,,,METAR,137.0
PAEI 300355Z 21005KT 10SM BKN024 OVC032 10/05 A2956 RMK AO2A SLP015 T00950045,PAEI,2023-05-30T03:55:00Z,64.67,-147.1,9.5,4.5,210,5,,10.0,29.56004,1001.5,,,TRUE,,,,,,,BKN,2400,OVC,3200,,,,,MVFR,,,,,,,,,,,,METAR,166.0
PAED 300355Z 19010KT 10SM FEW040 SCT060 BKN095 14/00 A2969 RMK AO2A SLP050 T01420004,PAED,2023-05-30T03:55:00Z,61.25,-149.83,14.2,0.4,190,10,,10.0,29.68996,1005.0,,,TRUE,,,,,,,FEW,4000,SCT,6000,BKN,9500,,,VFR,,,,,,,,,,,,METAR,54.0
PACZ 300355Z AUTO 23010KT M1/4SM -SN FG VV002 M01/M01 A2962 RMK AO2 SNB0232 SLP039 P0002 T10061007,PACZ,2023-05-30T03:55:00Z,61.78,-166.03,-0.6,-0.7,230,10,,0.25,29.619095,1003.9,,TRUE,TRUE,,,,,,-SN FG,OVX,0,,,,,,,LIFR,,,,,,0.02,,,,,200,METAR,129.0
PAAD 300355Z AUTO 04004KT 10SM SCT002 M01/M01 A2956 RMK AO2 T10071015 PWINO,PAAD,2023-05-30T03:55:00Z,70.13,-146.28,-0.7,-1.5,40,4,,10.0,29.56004,,,TRUE,TRUE,,,,,TRUE,,SCT,200,,,,,,,VFR,,,,,,,,,,,,METAR,8.0
OPLA 300355Z 12005KT 6000 SCT040 BKN100 26/17 Q1012 TEMPO 34015G30KT RMK QFE986 A29.90,OPLA,2023-05-30T03:55:00Z,31.52,74.4,26.0,17.0,120,5,,3.73,29.88189,,,,,,,,,,,SCT,4000,BKN,10000,,,,,MVFR,,,,,,,,,,,,METAR,217.0
OKAS 300355Z 33019G25KT 8000 HZ SCT150 29/12 A2984 RMK AO2A PK WND 33026/31 SLP099 T02940123 FZRANO $,OKAS,2023-05-30T03:55:00Z,29.35,47.52,29.4,12.3,330,19,25,4.97,29.840551,1009.9,,,TRUE,TRUE,,,TRUE,,HZ,SCT,15000,,,,,,,MVFR,,,,,,,,,,,,METAR,144.0
OEPS 300355Z 30006KT 9999 CLR 31/14 A2997 RMK AO2A SLP127 WND DATA ESTMD T03060138,OEPS,2023-05-30T03:55:00Z,24.07,47.58,30.6,13.8,300,6,,6.21,29.970472,1012.7,,,TRUE,,,,,,,CLR,,,,,,,,VFR,,,,,,,,,,,,METAR,503.0
NZCM 300355Z AUTO 06008KT 9999 CLR M27/M32 A2917 RMK AO2 SLP886 T12681321,NZCM,2023-05-30T03:55:00Z,-77.85,166.67,-26.8,-32.1,60,8,,6.21,29.170275,988.6,,TRUE,TRUE,,,,,,,CLR,,,,,,,,VFR,,,,,,,,,,,,METAR,24.0
LIRS 300355Z 06003KT CAVOK 15/12 Q1013,LIRS,2023-05-30T03:55:00Z,42.75,11.07,15.0,12.0,60,3,,6.21,29.911417,,,,,,,,,,,CAVOK,,,,,,,,VFR,,,,,,,,,,,,METAR,3.0
LIRM 300355Z 35007KT 9999 FEW060 18/15 Q1012,LIRM,2023-05-30T03:55:00Z,41.05,14.07,18.0,15.0,350,7,,6.21,29.88189,,,,,,,,,,,FEW,6000,,,,,,,VFR,,,,,,,,,,,,METAR,6.0
LIPC 300355Z 26005KT CAVOK 14/12 Q1015,LIPC,2023-05-30T03:55:00Z,44.22,12.3,14.0,12.0,260,5,,6.21,29.970472,,,,,,,,,,,CAVOK,,,,,,,,VFR,,,,,,,,,,,,METAR,10.0
LICT 300355Z 12003KT 9999 SCT020 18/15 Q1012,LICT,2023-05-30T03:55:00Z,37.92,12.5,18.0,15.0,120,3,,6.21,29.88189,,,,,,,,,,,SCT,2000,,,,,,,VFR,,,,,,,,,,,,METAR,4.0
KZPH 300355Z AUTO 00000KT 10SM CLR 19/17 A2994 RMK A02 T01870171,KZPH,2023-05-30T03:55:00Z,28.23,-82.15,18.7,17.1,0,0,,10.0,29.940945,,,TRUE,TRUE,,,,,,,CLR,,,,,,,,VFR,,,,,,,,,,,,METAR,26.0
KZER 300355Z AUTO 13017G22KT 10SM CLR 13/05 A3016 RMK AO2 LTG DSNT SE AND SW,KZER,2023-05-30T03:55:00Z,40.7,-76.37,13.0,5.0,130,17,22,10.0,30.159449,,,TRUE,TRUE,,,,,,,CLR,,,,,,,,VFR,,,,,,,,,,,,METAR,518.0
KY70 300355Z AUTO 08004KT 10SM CLR 21/05 A3002 RMK AO2 T02100052,KY70,2023-05-30T03:55:00Z,42.93,-85.07,21.0,5.2,80,4,,10.0,30.02067,,,TRUE,TRUE,,,,,,,CLR,,,,,,,,VFR,,,,,,,,,,,,METAR,247.0
KY63 300355Z AUTO 15012KT 10SM CLR 21/13 A2977 RMK AO2 T02100125,KY63,2023-05-30T03:55:00Z,45.98,-96.0,21.0,12.5,150,12,,10.0,29.769686,,,TRUE,TRUE,,,,,,,CLR,,,,,,,,VFR,,,,,,,,,,,,METAR,367.0
KY51 300355Z AUTO 13007KT 10SM CLR 19/09 A2998 RMK AO1 T01880085,KY51,2023-05-30T03:55:00Z,43.58,-90.9,18.8,8.5,130,7,,10.0,29.97933,,,TRUE,TRUE,,,,,,,CLR,,,,,,,,VFR,,,,,,,,,,,,METAR,390.0
KY49 300355Z AUTO 17005KT 10SM SCT100 21/12 A2981 RMK AO2 LTG DSNT SW AND NW T02100115,KY49,2023-05-30T03:55:00Z,47.15,-94.65,21.0,11.5,170,5,,10.0,29.811024,,,TRUE,TRUE,,,,,,,SCT,10000,,,,,,,VFR,,,,,,,,,,,,METAR,413.0
KY31 300355Z AUTO 00000KT 10SM CLR 10/06 A3004 RMK AO2 T01030064,KY31,2023-05-30T03:55:00Z,44.25,-84.18,10.3,6.4,0,0,,10.0,30.041338,,,TRUE,TRUE,,,,,,,CLR,,,,,,,,VFR,,,,,,,,,,,,METAR,264.0
KY23 300355Z AUTO 12004KT 10SM CLR 19/10 A2993 RMK AO2 T01910102,KY23,2023-05-30T03:55:00Z,45.3,-91.63,19.1,10.2,120,4,,10.0,29.929134,,,TRUE,TRUE,,,,,,,CLR,,,,,,,,VFR,,,,,,,,,,,,METAR,322.0
KY19 300355Z AUTO 28008KT 10SM CLR 13/13 A2977 RMK AO2,KY19,2023-05-30T03:55:00Z,46.77,-100.9,13.0,13.0,280,8,,10.0,29.769686,,,TRUE,TRUE,,,,,,,CLR,,,,,,,,VFR,,,,,,,,,,,,METAR,591.0
KXSA 300355Z AUTO 03008KT 010V080 10SM OVC005 17/17 A3005 RMK AO2 LTG DSNT N AND E T01720172,KXSA,2023-05-30T03:55:00Z,37.87,-76.9,17.2,17.2,30,8,,10.0,30.050198,,,TRUE,TRUE,,,,,,,OVC,500,,,,,,,IFR,,,,,,,,,,,,METAR,41.0
KXNO 300355Z AUTO 02004KT 10SM FEW100 18/18 A2992 RMK AO2 SLP133 T01830183 $,KXNO,2023-05-30T03:55:00Z,33.62,-81.07,18.3,18.3,20,4,,10.0,29.920275,1013.3,,TRUE,TRUE,TRUE,,,,,,FEW,10000,,,,,,,VFR,,,,,,,,,,,,METAR,94.0
KXMR 300355Z AUTO 00000KT 10SM FEW220 21/17 A2989 RMK AO2 SLP125 T02130169 $,KXMR,2023-05-30T03:55:00Z,28.47,-80.57,21.3,16.9,0,0,,10.0,29.890747,1012.5,,TRUE,TRUE,TRUE,,,,,,FEW,22000,,,,,,,VFR,,,,,,,,,,,,METAR,5.0
KXLL 300355Z AUTO 07003KT 10SM CLR 15/05 A3018 RMK AO2 LTG DSNT SE AND S,KXLL,2023-05-30T03:55:00Z,40.57,-75.48,15.0,5.0,70,3,,10.0,30.180119,,,TRUE,TRUE,,,,,,,CLR,,,,,,,,VFR,,,,,,,,,,,,METAR,118.0
KXIF 300355Z AUTO 00000KT 6SM HZ CLR 17/08 A3010 RMK AO2 LTG DSNT SE SLP191 T01740083 $,KXIF,2023-05-30T03:55:00Z,,,17.4,8.3,0,0,,6.0,30.100393,1019.1,,TRUE,TRUE,TRUE,,,,,HZ,CLR,,,,,,,,VFR,,,,,,,,,,,,METAR,
KX60 300355Z AUTO 00000KT 10SM CLR 19/18 A2993 RMK AO2 T01890182,KX60,2023-05-30T03:55:00Z,29.35,-82.47,18.9,18.2,0,0,,10.0,29.929134,,,TRUE,TRUE,,,,,,,CLR,,,,,,,,VFR,,,,,,,,,,,,METAR,21.0
KX07 300355Z AUTO 00000KT 10SM CLR 21/17 A2994 RMK A01,KX07,2023-05-30T03:55:00Z,27.9,-81.62,21.0,17.0,0,0,,10.0,29.940945,,,TRUE,TRUE,,,,,,,CLR,,,,,,,,VFR,,,,,,,,,,,,METAR,36.0
KWYS 300355Z AUTO 00000KT 10SM SCT075 SCT090 BKN110 10/07 A3005 RMK AO2,KWYS,2023-05-30T03:55:00Z,44.68,-111.12,10.0,7.0,0,0,,10.0,30.050198,,,TRUE,TRUE,,,,,,,SCT,7500,SCT,9000,BKN,11000,,,VFR,,,,,,,,,,,,METAR,2025.0
KWWR 300355Z AUTO 16008KT 10SM CLR 20/14 A2995 RMK AO2,KWWR,2023-05-30T03:55:00Z,36.45,-99.52,20.0,14.0,160,8,,10.0,29.949802,,,TRUE,TRUE,,,,,,,CLR,,,,,,,,VFR,,,,,,,,,,,,METAR,664.0
KWRI 300355Z AUTO 08007KT 10SM CLR 13/09 A3014 RMK AO2 SLP206 T01300093,KWRI,2023-05-30T03:55:00Z,40.02,-74.58,13.0,9.3,80,7,,10.0,30.138779,1020.6,,TRUE,TRUE,,,,,,,CLR,,,,,,,,VFR,,,,,,,,,,,,METAR,35.0
KWRB 300355Z AUTO 00000KT 10SM CLR 16/16 A2992 RMK AO2 SLP132 T01620157 $,KWRB,2023-05-30T03:55:00Z,32.63,-83.58,16.2,15.7,0,0,,10.0,29.920275,1013.2,,TRUE,TRUE,TRUE,,,,,,CLR,,,,,,,,VFR,,,,,,,,,,,,METAR,82.0
KWDR 300355Z AUTO 00000KT 10SM OVC070 19/13 A2996 RMK AO2,KWDR,2023-05-30T03:55:00Z,33.98,-83.67,19.0,13.0,0,0,,10.0,29.958662,,,TRUE,TRUE,,,,,,,OVC,7000,,,,,,,VFR,,,,,,,,,,,,METAR,280.0
KWDG 300355Z AUTO 11003KT 10SM CLR 19/17 A2992 RMK AO2,KWDG,2023-05-30T03:55:00Z,36.37,-97.78,19.0,17.0,110,3,,10.0,29.920275,,,TRUE,TRUE,,,,,,,CLR,,,,,,,,VFR,,,,,,,,,,,,METAR,352.0
KW99 300355Z AUTO 31004KT 10SM SCT025 BKN042 BKN050 18/17 A3007 RMK AO2 LTG DSNT E,KW99,2023-05-30T03:55:00Z,39.0,-79.15,18.0,17.0,310,4,,10.0,30.070866,,,TRUE,TRUE,,,,,,,SCT,2500,BKN,4200,BKN,5000,,,VFR,,,,,,,,,,,,METAR,288.0
KW96 300355Z AUTO 05005KT 5SM OVC006 19/19 A3001 RMK AO1 T01900188,KW96,2023-05-30T03:55:00Z,37.5,-77.12,19.0,18.8,50,5,,5.0,30.008858,,,TRUE,TRUE,,,,,,,OVC,600,,,,,,,IFR,,,,,,,,,,,,METAR,35.0
KW81 300355Z AUTO 03003KT 10SM SCT008 BKN015 BKN022 18/17 A2999 RMK AO1 P0002 T01810166,KW81,2023-05-30T03:55:00Z,37.18,-78.1,18.1,16.6,30,3,,10.0,29.991142,,,TRUE,TRUE,,,,,,,SCT,800,BKN,1500,BKN,2200,,,MVFR,,,,,,0.02,,,,,,METAR,121.0
KW78 300355Z AUTO 00000KT 10SM SCT040 SCT047 OVC065 19/17 A2998 RMK AO1 T01880172,KW78,2023-05-30T03:55:00Z,36.7,-78.85,18.8,17.2,0,0,,10.0,29.97933,,,TRUE,TRUE,,,,,,,SCT,4000,SCT,4700,OVC,6500,,,VFR,,,,,,,,,,,,METAR,120.0
KW75 300355Z AUTO 06007KT 10SM OVC004 17/17 A3003 RMK AO1 T01730167,KW75,2023-05-30T03:55:00Z,37.6,-76.45,17.3,16.7,60,7,,10.0,30.029528,,,TRUE,TRUE,,,,,,,OVC,400,,,,,,,LIFR,,,,,,,,,,,,METAR,8.0
KW63 300355Z AUTO 00000KT 10SM OVC065 19/19 A2997 RMK AO1,KW63,2023-05-30T03:55:00Z,36.6,-78.55,19.0,19.0,0,0,,10.0,29.970472,,,TRUE,TRUE,,,,,,,OVC,6500,,,,,,,VFR,,,,,,,,,,,,METAR,126.0
KW43 300355Z AUTO 20006KT 10SM CLR 13/10 A2992 RMK AO2,KW43,2023-05-30T03:55:00Z,44.67,-104.57,13.0,10.0,200,6,,10.0,29.920275,,,TRUE,TRUE,,,,,,,CLR,,,,,,,,VFR,,,,,,,,,,,,METAR,1292.0
KW31 300355Z AUTO 10SM BKN018 BKN025 OVC029 M38/M38 A2998 RMK AO1 T13801385,KW31,2023-05-30T03:55:00Z,36.95,-78.18,-38.0,-38.5,,,,10.0,29.97933,,,TRUE,TRUE,,,,,,,BKN,1800,BKN,2500,OVC,2900,,,MVFR,,,,,,,,,,,,METAR,159.0
KW22 300355Z AUTO 09005KT 10SM CLR 18/14 A3005 RMK AO2,KW22,2023-05-30T03:55:00Z,39.0,-80.27,18.0,14.0,90,5,,10.0,30.050198,,,TRUE,TRUE,,,,,,,CLR,,,,,,,,VFR,,,,,,,,,,,,METAR,497.0
KW13 300355Z AUTO 01004KT 10SM BKN013 OVC019 18/18 A3005 RMK AO1 T01760175,KW13,2023-05-30T03:55:00Z,38.08,-78.95,17.6,17.5,10,4,,10.0,30.050198,,,TRUE,TRUE,,,,,,,BKN,1300,OVC,1900,,,,,MVFR,,,,,,,,,,,,METAR,440.0
KVYS 300355Z AUTO 10005KT 10SM CLR 21/07 A2997 RMK AO2 T02110072,KVYS,2023-05-30T03:55:00Z,41.35,-89.15,21.1,7.2,100,5,,10.0,29.970472,,,TRUE,TRUE,,,,,,,CLR,,,,,,,,VFR,,,,,,,,,,,,METAR,198.0
KVWU 300355Z AUTO 00000KT 10SM BKN080 OVC090 21/14 A2982 RMK AO2,KVWU,2023-05-30T03:55:00Z,48.15,-94.52,21.0,14.0,0,0,,10.0,29.819881,,,TRUE,TRUE,,,,,,,BKN,8000,OVC,9000,,,,,VFR,,,,,,,,,,,,METAR,359.0
KVVV 300355Z AUTO 14014KT 10SM CLR 21/16 A2976 RMK AO2 LTG DSNT N SE AND SW,KVVV,2023-05-30T03:55:00Z,45.3,-96.42,21.0,16.0,140,14,,10.0,29.760826,,,TRUE,TRUE,,,,,,,CLR,,,,,,,,VFR,,,,,,,,,,,,METAR,334.0
KVTP 300355Z AUTO 28005KT 10SM CLR 11/M07 A3031 RMK AO2,KVTP,2023-05-30T03:55:00Z,37.5,-105.17,11.0,-7.0,280,5,,10.0,30.31004,,,TRUE,TRUE,,,,,,,CLR,,,,,,,,VFR,,,,,,,,,,,,METAR,3086.0
KVTI 300355Z AUTO 16003KT 10SM CLR 20/06 A2995 RMK AO2 T02020062,KVTI,2023-05-30T03:55:00Z,42.22,-92.02,20.2,6.2,160,3,,10.0,29.949802,,,TRUE,TRUE,,,,,,,CLR,,,,,,,,VFR,,,,,,,,,,,,METAR,256.0
KVQQ 300355Z AUTO 23005KT 10SM FEW090 23/19 A2990 RMK AO2,KVQQ,2023-05-30T03:55:00Z,30.22,-81.88,23.0,19.0,230,5,,10.0,29.899607,,,TRUE,TRUE,,,,,,,FEW,9000,,,,,,,VFR,,,,,,,,,,,,METAR,21.0
KVPS 300355Z AUTO 00000KT 10SM CLR 22/16 A2992 RMK AO2 SLP138 T02230156 $,KVPS,2023-05-30T03:55:00Z,30.47,-86.52,22.3,15.6,0,0,,10.0,29.920275,1013.8,,TRUE,TRUE,TRUE,,,,,,CLR,,,,,,,,VFR,,,,,,,,,,,,METAR,21.0
KVPC 300355Z AUTO 00000KT 10SM CLR 16/14 A2996 RMK AO2,KVPC,2023-05-30T03:55:00Z,34.1,-84.85,16.0,14.0,0,0,,10.0,29.958662,,,TRUE,TRUE,,,,,,,CLR,,,,,,,,VFR,,,,,,,,,,,,METAR,234.0
KVOK 300355Z AUTO 08004KT 10SM CLR 11/08 A2995 RMK AO2 SLP144 T01120082,KVOK,2023-05-30T03:55:00Z,43.93,-90.27,11.2,8.2,80,4,,10.0,29.949802,1014.4,,TRUE,TRUE,,,,,,,CLR,,,,,,,,VFR,,,,,,,,,,,,METAR,278.0
KVOA 300355Z AUTO VRB06KT 10SM CLR 27/18 A2993 RMK A01,KVOA,2023-05-30T03:55:00Z,29.23,-87.78,27.0,18.0,0,6,,10.0,29.929134,,,TRUE,TRUE,,,,,,,CLR,,,,,,,,VFR,,,,,,,,,,,,METAR,53.0
KVNW 300355Z AUTO 09006KT 10SM SCT085 21/05 A3001 RMK AO2,KVNW,2023-05-30T03:55:00Z,40.87,-84.62,21.0,5.0,90,6,,10.0,30.008858,,,TRUE,TRUE,,,,,,,SCT,8500,,,,,,,VFR,,,,,,,,,,,,METAR,238.0
KVNC 300355Z AUTO 02005KT 10SM CLR 24/18 A2993 RMK AO2,KVNC,2023-05-30T03:55:00Z,27.07,-82.43,24.0,18.0,20,5,,10.0,29.929134,,,TRUE,TRUE,,,,,,,CLR,,,,,,,,VFR,,,,,,,,,,,,METAR,4.0
KVLL 300355Z AUTO 00000KT 10SM CLR 20/07 A3006 RMK AO2 T02000066,KVLL,2023-05-30T03:55:00Z,42.55,-83.18,20.0,6.6,0,0,,10.0,30.059055,,,TRUE,TRUE,,,,,,,CLR,,,,,,,,VFR,,,,,,,,,,,,METAR,214.0
KVKY 300355Z AUTO 21005KT 10SM CLR A2995 RMK A01,KVKY,2023-05-30T03:55:00Z,29.25,-88.43,,,210,5,,10.0,29.949802,,,TRUE,TRUE,,,,,,,CLR,,,,,,,,VFR,,,,,,,,,,,,METAR,32.0
KVKS 300355Z AUTO 00000KT 10SM CLR 20/M39 A2993 RMK A01,KVKS,2023-05-30T03:55:00Z,32.23,-90.93,20.0,-39.0,0,0,,10.0,29.929134,,,TRUE,TRUE,,,,,,,CLR,,,,,,,,VFR,,,,,,,,,,,,METAR,31.0
KVJI 300355Z AUTO 10004KT 10SM BKN080 14/14 A3004 RMK AO2 T01360136,KVJI,2023-05-30T03:55:00Z,36.68,-82.03,13.6,13.6,100,4,,10.0,30.041338,,,TRUE,TRUE,,,,,,,BKN,8000,,,,,,,VFR,,,,,,,,,,,,METAR,636.0
KVHN 300355Z AUTO 00000KT 10SM CLR 25/M07 A2999 RMK AO2 T02481074,KVHN,2023-05-30T03:55:00Z,31.07,-104.78,24.8,-7.4,0,0,,10.0,29.991142,,,TRUE,TRUE,,,,,,,CLR,,,,,,,,VFR,,,,,,,,,,,,METAR,1200.0
KVGC 300355Z AUTO 14005KT 10SM CLR 17/10 A3011 RMK AO2,KVGC,2023-05-30T03:55:00Z,42.85,-75.57,17.0,10.0,140,5,,10.0,30.109253,,,TRUE,TRUE,,,,,,,CLR,,,,,,,,VFR,,,,,,,,,,,,METAR,346.0
KVER 300355Z AUTO 12004KT 10SM CLR 21/13 A2996 RMK AO2 T02090127,KVER,2023-05-30T03:55:00Z,38.95,-92.68,20.9,12.7,120,4,,10.0,29.958662,,,TRUE,TRUE,,,,,,,CLR,,,,,,,,VFR,,,,,,,,,,,,METAR,209.0
KVDI 300355Z AUTO 35003KT 10SM CLR 20/16 A2992 RMK AO2,KVDI,2023-05-30T03:55:00Z,32.2,-82.37,20.0,16.0,350,3,,10.0,29.920275,,,TRUE,TRUE,,,,,,,CLR,,,,,,,,VFR,,,,,,,,,,,,METAR,81.0
KVDF 300355Z AUTO 32004KT 10SM CLR 20/18 A2994 RMK AO2,KVDF,2023-05-30T03:55:00Z,28.02,-82.33,20.0,18.0,320,4,,10.0,29.940945,,,TRUE,TRUE,,,,,,,CLR,,,,,,,,VFR,,,,,,,,,,,,METAR,5.0
KVCV 300355Z AUTO 19010KT 10SM CLR 16/08 A2996 RMK AO2,KVCV,2023-05-30T03:55:00Z,34.58,-117.38,16.0,8.0,190,10,,10.0,29.958662,,,TRUE,TRUE,,,,,,,CLR,,,,,,,,VFR,,,,,,,,,,,,METAR,871.0
KVBW 300355Z AUTO 00000KT 10SM SCT021 SCT039 BKN048 18/18 A3005 RMK AO1 T01750175,KVBW,2023-05-30T03:55:00Z,38.37,-78.97,17.5,17.5,0,0,,10.0,30.050198,,,TRUE,TRUE,,,,,,,SCT,2100,SCT,3900,BKN,4800,,,VFR,,,,,,,,,,,,METAR,362.0
KVBG 300355Z AUTO 33003KT 10SM FEW013 OVC032 13/11 A3001 RMK AO2 SLP165 T01300114 TSNO $,KVBG,2023-05-30T03:55:00Z,34.73,-120.58,13.0,11.4,330,3,,10.0,30.008858,1016.5,,TRUE,TRUE,TRUE,,TRUE,,,,FEW,1300,OVC,3200,,,,,VFR,,,,,,,,,,,,METAR,96.0
KVAF 300355Z AUTO 08008KT 10SM FEW020 26/21 A2991 RMK A01,KVAF,2023-05-30T03:55:00Z,27.35,-94.63,26.0,21.0,80,8,,10.0,29.911417,,,TRUE,TRUE,,,,,,,FEW,2000,,,,,,,VFR,,,,,,,,,,,,METAR,38.0
KVAD 300355Z AUTO 00000KT 10SM CLR 21/18 A2988 RMK AO2 SLP119 T02090179 $,KVAD,2023-05-30T03:55:00Z,30.97,-83.2,20.9,17.9,0,0,,10.0,29.878937,1011.9,,TRUE,TRUE,TRUE,,,,,,CLR,,,,,,,,VFR,,,,,,,,,,,,METAR,70.0
KUYF 300355Z AUTO 00000KT 10SM CLR 17/08 A3001 RMK AO2,KUYF,2023-05-30T03:55:00Z,39.93,-83.47,17.0,8.0,0,0,,10.0,30.008858,,,TRUE,TRUE,,,,,,,CLR,,,,,,,,VFR,,,,,,,,,,,,METAR,326.0
KUXL 300355Z AUTO 00000KT 10SM CLR 23/20 A2993 RMK AO2 T02320200,KUXL,2023-05-30T03:55:00Z,30.13,-93.38,23.2,20.0,0,0,,10.0,29.929134,,,TRUE,TRUE,,,,,,,CLR,,,,,,,,VFR,,,,,,,,,,,,METAR,2.0
KUVA 300355Z AUTO 00000KT 19/19 A2995 RMK AO2 T01850185 PWINO,KUVA,2023-05-30T03:55:00Z,29.22,-99.75,18.5,18.5,0,0,,,29.949802,,,TRUE,TRUE,,,,,TRUE,,,,,,,,,,,,,,,,,,,,,,METAR,285.0
KUUV 300355Z AUTO 00000KT 10SM CLR 15/11 A3000 RMK AO2,KUUV,2023-05-30T03:55:00Z,38.23,-91.17,15.0,11.0,0,0,,10.0,30.0,,,TRUE,TRUE,,,,,,,CLR,,,,,,,,VFR,,,,,,,,,,,,METAR,284.0
KUTA 300355Z AUTO 00000KT 10SM CLR 20/15 A2996 RMK AO2 T02040151 $,KUTA,2023-05-30T03:55:00Z,34.68,-90.35,20.4,15.1,0,0,,10.0,29.958662,,,TRUE,TRUE,TRUE,,,,,,CLR,,,,,,,,VFR,,,,,,,,,,,,METAR,58.0
KUSE 300355Z AUTO 10004KT 10SM SCT110 19/05 A3002 RMK AO2,KUSE,2023-05-30T03:55:00Z,41.62,-84.13,19.0,5.0,100,4,,10.0,30.02067,,,TRUE,TRUE,,,,,,,SCT,11000,,,,,,,VFR,,,,,,,,,,,,METAR,237.0
KUOX 300355Z AUTO 00000KT 10SM CLR 17/15 A2998 RMK AO2,KUOX,2023-05-30T03:55:00Z,34.38,-89.53,17.0,15.0,0,0,,10.0,29.97933,,,TRUE,TRUE,,,,,,,CLR,,,,,,,,VFR,,,,,,,,,,,,METAR,123.0
KUNV 300355Z AUTO 17011G18KT 10SM CLR 20/09 A3010 RMK AO2 LTG DSNT S T02000085,KUNV,2023-05-30T03:55:00Z,40.85,-77.83,20.0,8.5,170,11,18,10.0,30.100393,,,TRUE,TRUE,,,,,,,CLR,,,,,,,,VFR,,,,,,,,,,,,METAR,365.0
KUNU 300355Z AUTO 00000KT 10SM CLR 18/06 A3001 RMK AO2 T01810061,KUNU,2023-05-30T03:55:00Z,43.42,-88.7,18.1,6.1,0,0,,10.0,30.008858,,,TRUE,TRUE,,,,,,,CLR,,,,,,,,VFR,,,,,,,,,,,,METAR,281.0
KUNI 300355Z AUTO 00000KT 10SM CLR 19/16 A3000 RMK AO2 T01870160 402850140,KUNI,2023-05-30T03:55:00Z,39.22,-82.23,18.7,16.0,0,0,,10.0,30.0,,,TRUE,TRUE,,,,,,,CLR,,,,,,,,VFR,,,,28.5,14.0,,,,,,,METAR,232.0
KUMP 300355Z AUTO 00000KT 10SM CLR 20/14 A2997 RMK AO2 T01990143 403060111,KUMP,2023-05-30T03:55:00Z,39.93,-86.05,19.9,14.3,0,0,,10.0,29.970472,,,TRUE,TRUE,,,,,,,CLR,,,,,,,,VFR,,,,30.6,11.1,,,,,,,METAR,247.0
KUKT 300355Z AUTO 00000KT 10SM CLR 14/06 A3017 RMK A01,KUKT,2023-05-30T03:55:00Z,40.43,-75.38,14.0,6.0,0,0,,10.0,30.171259,,,TRUE,TRUE,,,,,,,CLR,,,,,,,,VFR,,,,,,,,,,,,METAR,156.0
KUKL 300355Z AUTO 15005KT 10SM SCT055 SCT070 19/16 A2995 RMK AO2 T01900155,KUKL,2023-05-30T03:55:00Z,38.3,-95.73,19.0,15.5,150,5,,10.0,29.949802,,,TRUE,TRUE,,,,,,,SCT,5500,SCT,7000,,,,,VFR,,,,,,,,,,,,METAR,357.0
KUES 300355Z AUTO 00000KT 10SM CLR 16/05 A3001 RMK AO2,KUES,2023-05-30T03:55:00Z,43.05,-88.25,16.0,5.0,0,0,,10.0,30.008858,,,TRUE,TRUE,,,,,,,CLR,,,,,,,,VFR,,,,,,,,,,,,METAR,273.0
KUCY 300355Z AUTO 00000KT 10SM CLR 17/16 A2994 RMK A01,KUCY,2023-05-30T03:55:00Z,36.38,-88.98,17.0,16.0,0,0,,10.0,29.940945,,,TRUE,TRUE,,,,,,,CLR,,,,,,,,VFR,,,,,,,,,,,,METAR,97.0
KUBE 300355Z AUTO 12006KT 10SM CLR 18/10 A2993 RMK AO2,KUBE,2023-05-30T03:55:00Z,45.5,-91.98,18.0,10.0,120,6,,10.0,29.929134,,,TRUE,TRUE,,,,,,,CLR,,,,,,,,VFR,,,,,,,,,,,,METAR,376.0
KU69 300355Z AUTO 29007KT 10SM CLR 19/M01 A2999 RMK A01,KU69,2023-05-30T03:55:00Z,40.2,-110.38,19.0,-1.0,290,7,,10.0,29.991142,,,TRUE,TRUE,,,,,,,CLR,,,,,,,,VFR,,,,,,,,,,,,METAR,1776.0
KU64 300355Z AUTO 23008KT 10SM FEW220 12/M04 A3010 RMK AO2 T01251044 $,KU64,2023-05-30T03:55:00Z,,,12.5,-4.4,230,8,,10.0,30.100393,,,TRUE,TRUE,TRUE,,,,,,FEW,22000,,,,,,,VFR,,,,,,,,,,,,METAR,
KU55 300355Z AUTO 18005KT 10SM FEW047 FEW055 12/M07 A3010 RMK A01,KU55,2023-05-30T03:55:00Z,37.85,-112.38,12.0,-7.0,180,5,,10.0,30.100393,,,TRUE,TRUE,,,,,,,FEW,4700,FEW,5500,,,,,VFR,,,,,,,,,,,,METAR,2060.0
KU42 300355Z AUTO 30007KT 10SM CLR 19/07 A2993 RMK AO1 T01930072,KU42,2023-05-30T03:55:00Z,40.62,-111.98,19.3,7.2,300,7,,10.0,29.929134,,,TRUE,TRUE,,,,,,,CLR,,,,,,,,VFR,,,,,,,,,,,,METAR,1399.0
KTZR 300355Z AUTO 00000KT 10SM CLR 19/13 A3001 RMK AO2 T01910125,KTZR,2023-05-30T03:55:00Z,39.9,-83.13,19.1,12.5,0,0,,10.0,30.008858,,,TRUE,TRUE,,,,,,,CLR,,,,,,,,VFR,,,,,,,,,,,,METAR,275.0
KTYQ 300355Z AUTO 00000KT 10SM CLR 18/12 A2998 RMK AO2 T01830118 402950104,KTYQ,2023-05-30T03:55:00Z,40.03,-86.25,18.3,11.8,0,0,,10.0,29.97933,,,TRUE,TRUE,,,,,,,CLR,,,,,,,,VFR,,,,29.5,10.4,,,,,,,METAR,279.0
KTYL 300355Z AUTO 28004KT 10SM CLR 18/M04 A3011 RMK AO2,KTYL,2023-05-30T03:55:00Z,34.45,-110.12,18.0,-4.0,280,4,,10.0,30.109253,,,TRUE,TRUE,,,,,,,CLR,,,,,,,,VFR,,,,,,,,,,,,METAR,1748.0
KTXW 300355Z AUTO 24006KT 10SM -VCTSRA SCT120 25/22 A2988 RMK AO2 LTG DSNT ALQDS P0002,KTXW,2023-05-30T03:55:00Z,26.18,-97.97,25.0,22.0,240,6,,10.0,29.878937,,,TRUE,TRUE,,,,,,VCTS -RA,SCT,12000,,,,,,,VFR,,,,,,0.02,,,,,,METAR,21.0
KTWT 300355Z AUTO 00000KT 10SM OVC075 21/14 A2994 RMK AO2,KTWT,2023-05-30T03:55:00Z,37.55,-87.95,21.0,14.0,0,0,,10.0,29.940945,,,TRUE,TRUE,,,,,,,OVC,7500,,,,,,,VFR,,,,,,,,,,,,METAR,113.0
KTWM 300355Z AUTO 02003KT 10SM 13/07 A2992 RMK AO2,KTWM,2023-05-30T03:55:00Z,47.05,-91.75,13.0,7.0,20,3,,10.0,29.920275,,,TRUE,TRUE,,,,,,,,,,,,,,,,,,,,,,,,,,,METAR,331.0
KTVY 300355Z AUTO 22003KT 10SM CLR 19/08 A2991 RMK AO2,KTVY,2023-05-30T03:55:00Z,40.62,-112.35,19.0,8.0,220,3,,10.0,29.911417,,,TRUE,TRUE,,,,,,,CLR,,,,,,,,VFR,,,,,,,,,,,,METAR,1310.0
KTVK 300355Z AUTO 15004KT 10SM FEW038 FEW070 FEW095 19/10 A2997 RMK AO2,KTVK,2023-05-30T03:55:00Z,40.68,-92.9,19.0,10.0,150,4,,10.0,29.970472,,,TRUE,TRUE,,,,,,,FEW,3800,FEW,7000,FEW,9500,,,VFR,,,,,,,,,,,,METAR,311.0
KTVI 300355Z AUTO 00000KT 10SM CLR 18/18 A2992 RMK AO2,KTVI,2023-05-30T03:55:00Z,30.9,-83.88,18.0,18.0,0,0,,10.0,29.920275,,,TRUE,TRUE,,,,,,,CLR,,,,,,,,VFR,,,,,,,,,,,,METAR,74.0
KTTS 300355Z AUTO 15003KT 10SM CLR 20/18 A2990 RMK AO2 SLP129 T01950180 $,KTTS,2023-05-30T03:55:00Z,28.58,-80.67,19.5,18.0,150,3,,10.0,29.899607,1012.9,,TRUE,TRUE,TRUE,,,,,,CLR,,,,,,,,VFR,,,,,,,,,,,,METAR,1.0
KTTF 300355Z AUTO 00000KT 10SM CLR 16/10 A3003 RMK AO2 T01600103 402760093,KTTF,2023-05-30T03:55:00Z,41.93,-83.42,16.0,10.3,0,0,,10.0,30.029528,,,TRUE,TRUE,,,,,,,CLR,,,,,,,,VFR,,,,27.6,9.3,,,,,,,METAR,186.0
KTSP 300355Z AUTO 31009KT 10SM CLR 14/07 A2999 RMK AO2,KTSP,2023-05-30T03:55:00Z,35.13,-118.43,14.0,7.0,310,9,,10.0,29.991142,,,TRUE,TRUE,,,,,,,CLR,,,,,,,,VFR,,,,,,,,,,,,METAR,1209.0
KTQV 300355Z AUTO 00000KT 10SM CLR 19/17 A2997 RMK A01,KTQV,2023-05-30T03:55:00Z,36.0,-78.93,19.0,17.0,0,0,,10.0,29.970472,,,TRUE,TRUE,,,,,,,CLR,,,,,,,,VFR,,,,,,,,,,,,METAR,230.0
KTQK 300355Z AUTO 18012KT 10SM CLR 21/12 A2994 RMK AO2 T02120123,KTQK,2023-05-30T03:55:00Z,38.47,-100.88,21.2,12.3,180,12,,10.0,29.940945,,,TRUE,TRUE,,,,,,,CLR,,,,,,,,VFR,,,,,,,,,,,,METAR,906.0
KTQH 300355Z AUTO 00000KT 10SM CLR 20/15 A2996 RMK AO2,KTQH,2023-05-30T03:55:00Z,35.93,-95.0,20.0,15.0,0,0,,10.0,29.958662,,,TRUE,TRUE,,,,,,,CLR,,,,,,,,VFR,,,,,,,,,,,,METAR,265.0
KTPF 300355Z AUTO 01003KT 10SM OVC100 23/18 A2993 RMK AO2,KTPF,2023-05-30T03:55:00Z,27.92,-82.45,23.0,18.0,10,3,,10.0,29.929134,,,TRUE,TRUE,,,,,,,OVC,10000,,,,,,,VFR,,,,,,,,,,,,METAR,1.0
KTOC 300355Z AUTO 00000KT 10SM BKN050 OVC060 20/17 A2996 RMK AO2 T02000172,KTOC,2023-05-30T03:55:00Z,34.6,-83.3,20.0,17.2,0,0,,10.0,29.958662,,,TRUE,TRUE,,,,,,,BKN,5000,OVC,6000,,,,,VFR,,,,,,,,,,,,METAR,292.0
KTOB 300355Z AUTO 14009KT 10SM CLR 20/02 A2991 RMK AO2,KTOB,2023-05-30T03:55:00Z,44.02,-92.82,20.0,2.0,140,9,,10.0,29.911417,,,TRUE,TRUE,,,,,,,CLR,,,,,,,,VFR,,,,,,,,,,,,METAR,394.0
KTNU 300355Z AUTO 16006KT 10SM CLR 21/09 A2993 RMK A01,KTNU,2023-05-30T03:55:00Z,41.67,-93.02,21.0,9.0,160,6,,10.0,29.929134,,,TRUE,TRUE,,,,,,,CLR,,,,,,,,VFR,,,,,,,,,,,,METAR,287.0
KTNB 300355Z AUTO 00000KT 10SM BKN014 OVC020 14/14 A3007 RMK AO2 T01350135,KTNB,2023-05-30T03:55:00Z,36.2,-81.65,13.5,13.5,0,0,,10.0,30.070866,,,TRUE,TRUE,,,,,,,BKN,1400,OVC,2000,,,,,MVFR,,,,,,,,,,,,METAR,958.0
KTMT 300355Z AUTO 04005KT 10SM CLR 15/07 A2997 RMK AO2 LTG DSNT NW T01450071,KTMT,2023-05-30T03:55:00Z,39.47,-117.2,14.5,7.1,40,5,,10.0,29.970472,,,TRUE,TRUE,,,,,,,CLR,,,,,,,,VFR,,,,,,,,,,,,METAR,1748.0
KTMK 300355Z AUTO 30009G16KT 10SM CLR 12/08 A3000 RMK AO2,KTMK,2023-05-30T03:55:00Z,45.42,-123.82,12.0,8.0,300,9,16,10.0,30.0,,,TRUE,TRUE,,,,,,,CLR,,,,,,,,VFR,,,,,,,,,,,,METAR,8.0
KTME 300355Z AUTO 02004KT 7SM BKN040 23/22 A2996 RMK AO2,KTME,2023-05-30T03:55:00Z,29.8,-95.9,23.0,22.0,20,4,,7.0,29.958662,,,TRUE,TRUE,,,,,,,BKN,4000,,,,,,,VFR,,,,,,,,,,,,METAR,49.0
KTMA 300355Z AUTO VRB05KT 10SM CLR 22/16 A2993 RMK AO2 T02160157 $,KTMA,2023-05-30T03:55:00Z,31.43,-83.48,21.6,15.7,0,5,,10.0,29.929134,,,TRUE,TRUE,TRUE,,,,,,CLR,,,,,,,,VFR,,,,,,,,,,,,METAR,105.0
KTKX 300355Z AUTO 00000KT 8SM CLR 20/12 A2994 RMK AO2,KTKX,2023-05-30T03:55:00Z,36.22,-90.03,20.0,12.0,0,0,,8.0,29.940945,,,TRUE,TRUE,,,,,,,CLR,,,,,,,,VFR,,,,,,,,,,,,METAR,73.0
KTKV 300355Z AUTO 00000KT 10SM CLR 12/08 A3000 RMK AO2 T01160078 PWINO,KTKV,2023-05-30T03:55:00Z,45.47,-89.82,11.6,7.8,0,0,,10.0,30.0,,,TRUE,TRUE,,,,,TRUE,,CLR,,,,,,,,VFR,,,,,,,,,,,,METAR,449.0
KTKC 300355Z AUTO 19015KT 10SM CLR 21/16 A2984 RMK AO2 LTG DSNT S-NW,KTKC,2023-05-30T03:55:00Z,44.25,-95.62,21.0,16.0,190,15,,10.0,29.840551,,,TRUE,TRUE,,,,,,,CLR,,,,,,,,VFR,,,,,,,,,,,,METAR,408.0
KTIP 300355Z AUTO 00000KT 10SM CLR 22/06 A2997 RMK AO2 T02210058,KTIP,2023-05-30T03:55:00Z,40.28,-88.15,22.1,5.8,0,0,,10.0,29.970472,,,TRUE,TRUE,,,,,,,CLR,,,,,,,,VFR,,,,,,,,,,,,METAR,224.0
KTIK 300355Z AUTO 16006KT 10SM SCT100 19/18 A2990 RMK AO2 SLP122 T01940179 $,KTIK,2023-05-30T03:55:00Z,35.4,-97.38,19.4,17.9,160,6,,10.0,29.899607,1012.2,,TRUE,TRUE,TRUE,,,,,,SCT,10000,,,,,,,VFR,,,,,,,,,,,,METAR,387.0
KTIF 300355Z AUTO 15006KT 10SM SCT110 17/12 A2987 RMK AO2 T01680124,KTIF,2023-05-30T03:55:00Z,41.97,-100.57,16.8,12.4,150,6,,10.0,29.870079,,,TRUE,TRUE,,,,,,,SCT,11000,,,,,,,VFR,,,,,,,,,,,,METAR,888.0
KTHA 300355Z AUTO 00000KT 10SM CLR 14/13 A2996 RMK A01,KTHA,2023-05-30T03:55:00Z,35.38,-86.25,14.0,13.0,0,0,,10.0,29.958662,,,TRUE,TRUE,,,,,,,CLR,,,,,,,,VFR,,,,,,,,,,,,METAR,333.0
KTEX 300355Z AUTO 13005KT 10SM CLR 12/M11 A3029 RMK AO2,KTEX,2023-05-30T03:55:00Z,37.95,-107.9,12.0,-11.0,130,5,,10.0,30.28937,,,TRUE,TRUE,,,,,,,CLR,,,,,,,,VFR,,,,,,,,,,,,METAR,2760.0
KTEW 300355Z AUTO 00000KT 10SM CLR 18/12 A3003 RMK AO2 T01760117,KTEW,2023-05-30T03:55:00Z,42.57,-84.42,17.6,11.7,0,0,,10.0,30.029528,,,TRUE,TRUE,,,,,,,CLR,,,,,,,,VFR,,,,,,,,,,,,METAR,281.0
KTDR 300355Z AUTO 29004KT 10SM CLR 23/21 A2988 RMK AO2 SLP122 T02330208 $,KTDR,2023-05-30T03:55:00Z,30.05,-85.52,23.3,20.8,290,4,,10.0,29.878937,1012.2,,TRUE,TRUE,TRUE,,,,,,CLR,,,,,,,,VFR,,,,,,,,,,,,METAR,4.0
KTCY 300355Z AUTO VRB05KT 10SM CLR 18/10 A2990 RMK A01,KTCY,2023-05-30T03:55:00Z,37.68,-121.43,18.0,10.0,0,5,,10.0,29.899607,,,TRUE,TRUE,,,,,,,CLR,,,,,,,,VFR,,,,,,,,,,,,METAR,51.0
KTCM 300355Z AUTO 28008KT 10SM FEW040 16/07 A2992 RMK AO2 SLP136 T01570067 $,KTCM,2023-05-30T03:55:00Z,47.13,-122.47,15.7,6.7,280,8,,10.0,29.920275,1013.6,,TRUE,TRUE,TRUE,,,,,,FEW,4000,,,,,,,VFR,,,,,,,,,,,,METAR,87.0
KTBX 300355Z AUTO 10SM CLR 13/00 A3016 RMK AO2,KTBX,2023-05-30T03:55:00Z,43.47,-108.23,13.0,0.0,,,,10.0,30.159449,,,TRUE,TRUE,,,,,,,CLR,,,,,,,,VFR,,,,,,,,,,,,METAR,2230.0
KTBR 300355Z AUTO 00000KT 10SM OVC065 19/17 A2992 RMK AO2 T01900167 PWINO,KTBR,2023-05-30T03:55:00Z,32.48,-81.73,19.0,16.7,0,0,,10.0,29.920275,,,TRUE,TRUE,,,,,TRUE,,OVC,6500,,,,,,,VFR,,,,,,,,,,,,METAR,54.0
KTBN 300355Z AUTO 11004KT 10SM CLR 18/13 A2995 RMK AO2 SLP136 T01830129 $,KTBN,2023-05-30T03:55:00Z,37.73,-92.13,18.3,12.9,110,4,,10.0,29.949802,1013.6,,TRUE,TRUE,TRUE,,,,,,CLR,,,,,,,,VFR,,,,,,,,,,,,METAR,349.0
KTAZ 300355Z AUTO 00000KT 10SM CLR 20/13 A2997 RMK AO2 T02000126,KTAZ,2023-05-30T03:55:00Z,39.53,-89.33,20.0,12.6,0,0,,10.0,29.970472,,,TRUE,TRUE,,,,,,,CLR,,,,,,,,VFR,,,,,,,,,,,,METAR,188.0
KT89 300355Z AUTO 05007KT 10SM CLR 24/12 A2989 RMK A01,KT89,2023-05-30T03:55:00Z,29.27,-103.68,24.0,12.0,50,7,,10.0,29.890747,,,TRUE,TRUE,,,,,,,CLR,,,,,,,,VFR,,,,,,,,,,,,METAR,801.0
KT82 300355Z AUTO 00000KT 10SM CLR 17/17 A2997 RMK AO2 T01720165,KT82,2023-05-30T03:55:00Z,30.25,-98.92,17.2,16.5,0,0,,10.0,29.970472,,,TRUE,TRUE,,,,,,,CLR,,,,,,,,VFR,,,,,,,,,,,,METAR,509.0
KT78 300355Z AUTO 34004KT 9SM BKN029 21/19 A2993 RMK AO2,KT78,2023-05-30T03:55:00Z,30.08,-94.7,21.0,19.0,340,4,,9.0,29.929134,,,TRUE,TRUE,,,,,,,BKN,2900,,,,,,,MVFR,,,,,,,,,,,,METAR,21.0
KT74 300355Z AUTO 10SM CLR 22/19 A2994 RMK AO2 T02180192,KT74,2023-05-30T03:55:00Z,30.57,-97.45,21.8,19.2,,,,10.0,29.940945,,,TRUE,TRUE,,,,,,,CLR,,,,,,,,VFR,,,,,,,,,,,,METAR,169.0
KT70 300355Z AUTO 08007KT 5SM HZ CLR 21/17 A2990 RMK AO2 SLP114 T02050173 $,KT70,2023-05-30T03:55:00Z,29.12,-100.48,20.5,17.3,80,7,,5.0,29.899607,1011.4,,TRUE,TRUE,TRUE,,,,,HZ,CLR,,,,,,,,MVFR,,,,,,,,,,,,METAR,296.0
KT69 300355Z AUTO 00000KT 8SM FEW060 24/23 A2993 RMK A01,KT69,2023-05-30T03:55:00Z,28.03,-97.55,24.0,23.0,0,0,,8.0,29.929134,,,TRUE,TRUE,,,,,,,FEW,6000,,,,,,,VFR,,,,,,,,,,,,METAR,15.0
KT41 300355Z AUTO 00000KT 10SM CLR 24/20 A2993 RMK AO2 T02370205,KT41,2023-05-30T03:55:00Z,29.67,-95.07,23.7,20.5,0,0,,10.0,29.929134,,,TRUE,TRUE,,,,,,,CLR,,,,,,,,VFR,,,,,,,,,,,,METAR,8.0
KT35 300355Z AUTO 00000KT CLR 23/19 A2994 RMK AO2 T02300188 PWINO,KT35,2023-05-30T03:55:00Z,30.88,-96.97,23.0,18.8,0,0,,,29.940945,,,TRUE,TRUE,,,,,TRUE,,CLR,,,,,,,,,,,,,,,,,,,,METAR,122.0
KT20 300355Z AUTO 15004KT 10SM SCT024 23/20 A2992 RMK AO2 T02250203,KT20,2023-05-30T03:55:00Z,29.52,-97.47,22.5,20.3,150,4,,10.0,29.920275,,,TRUE,TRUE,,,,,,,SCT,2400,,,,,,,VFR,,,,,,,,,,,,METAR,107.0
KSZY 300355Z AUTO 00000KT 10SM CLR 17/15 A2996 RMK A01,KSZY,2023-05-30T03:55:00Z,35.2,-88.5,17.0,15.0,0,0,,10.0,29.958662,,,TRUE,TRUE,,,,,,,CLR,,,,,,,,VFR,,,,,,,,,,,,METAR,184.0
KSZT 300355Z AUTO 28003KT 10SM CLR 15/09 A2977 RMK AO2,KSZT,2023-05-30T03:55:00Z,48.3,-116.57,15.0,9.0,280,3,,10.0,29.769686,,,TRUE,TRUE,,,,,,,CLR,,,,,,,,VFR,,,,,,,,,,,,METAR,649.0
KSZL 300355Z AUTO 15005KT 10SM CLR 22/12 A2993 RMK AO2 SLP131 T02150121 $,KSZL,2023-05-30T03:55:00Z,38.73,-93.53,21.5,12.1,150,5,,10.0,29.929134,1013.1,,TRUE,TRUE,TRUE,,,,,,CLR,,,,,,,,VFR,,,,,,,,,,,,METAR,259.0
KSYN 300355Z AUTO 15008KT 10SM CLR 23/03 A2987 RMK AO2 T02310032,KSYN,2023-05-30T03:55:00Z,44.47,-93.02,23.1,3.2,150,8,,10.0,29.870079,,,TRUE,TRUE,,,,,,,CLR,,,,,,,,VFR,,,,,,,,,,,,METAR,280.0
KSYM 300355Z AUTO 00000KT 10SM BKN100 OVC120 20/16 A3001 RMK AO2,KSYM,2023-05-30T03:55:00Z,38.22,-83.58,20.0,16.0,0,0,,10.0,30.008858,,,TRUE,TRUE,,,,,,,BKN,10000,OVC,12000,,,,,VFR,,,,,,,,,,,,METAR,307.0
KSYI 300355Z AUTO 00000KT 10SM CLR 15/14 A2996 RMK A01,KSYI,2023-05-30T03:55:00Z,35.57,-86.45,15.0,14.0,0,0,,10.0,29.958662,,,TRUE,TRUE,,,,,,,CLR,,,,,,,,VFR,,,,,,,,,,,,METAR,244.0
KSYF 300355Z AUTO 09012G20KT 10SM SCT095 SCT120 18/10 A2994 RMK AO2 T01770101 PWINO,KSYF,2023-05-30T03:55:00Z,39.77,-101.8,17.7,10.1,90,12,20,10.0,29.940945,,,TRUE,TRUE,,,,,TRUE,,SCT,9500,SCT,12000,,,,,VFR,,,,,,,,,,,,METAR,1041.0
KSXU 300355Z AUTO 12010KT 10SM CLR 21/10 A2999 RMK AO2 T02110100,KSXU,2023-05-30T03:55:00Z,34.93,-104.65,21.1,10.0,120,10,,10.0,29.991142,,,TRUE,TRUE,,,,,,,CLR,,,,,,,,VFR,,,,,,,,,,,,METAR,1465.0
KSXS 300355Z AUTO 01003KT 10SM CLR 21/15 A2992 RMK AO2 SLP130 T02070150,KSXS,2023-05-30T03:55:00Z,31.37,-85.85,20.7,15.0,10,3,,10.0,29.920275,1013.0,,TRUE,TRUE,,,,,,,CLR,,,,,,,,VFR,,,,,,,,,,,,METAR,120.0
KSXK 300355Z AUTO 17018G23KT 10SM FEW080 24/14 A2980 RMK AO2,KSXK,2023-05-30T03:55:00Z,42.98,-96.17,24.0,14.0,170,18,23,10.0,29.799213,,,TRUE,TRUE,,,,,,,FEW,8000,,,,,,,VFR,,,,,,,,,,,,METAR,430.0
KSWW 300355Z AUTO 15009KT 10SM CLR 23/17 A2998 RMK AO2 T02250170,KSWW,2023-05-30T03:55:00Z,32.47,-100.47,22.5,17.0,150,9,,10.0,29.97933,,,TRUE,TRUE,,,,,,,CLR,,,,,,,,VFR,,,,,,,,,,,,METAR,718.0
KSVN 300355Z AUTO 11004KT 10SM OVC080 21/18 A2988 RMK AO2 VIS 2 1/4 RWY10 SLP121 T02050175 $,KSVN,2023-05-30T03:55:00Z,32.02,-81.12,20.5,17.5,110,4,,10.0,29.878937,1012.1,,TRUE,TRUE,TRUE,,,,,,OVC,8000,,,,,,,VFR,,,,,,,,,,,,METAR,13.0
KSVE 300355Z AUTO 24003KT 10SM BKN120 16/08 A2996 RMK AO2,KSVE,2023-05-30T03:55:00Z,40.37,-120.57,16.0,8.0,240,3,,10.0,29.958662,,,TRUE,TRUE,,,,,,,BKN,12000,,,,,,,VFR,,,,,,,,,,,,METAR,1263.0
KSVC 300355Z AUTO 32008KT 10SM CLR 18/01 A3007 RMK AO2 T01800011,KSVC,2023-05-30T03:55:00Z,32.63,-108.15,18.0,1.1,320,8,,10.0,30.070866,,,TRUE,TRUE,,,,,,,CLR,,,,,,,,VFR,,,,,,,,,,,,METAR,1638.0
KSUZ 300355Z AUTO 00000KT 10SM CLR 18/18 A2995 RMK A01,KSUZ,2023-05-30T03:55:00Z,34.58,-92.48,18.0,18.0,0,0,,10.0,29.949802,,,TRUE,TRUE,,,,,,,CLR,,,,,,,,VFR,,,,,,,,,,,,METAR,114.0
KSUW 300355Z AUTO 04003KT 10SM CLR 08/05 A2992 RMK AO2 T00820045,KSUW,2023-05-30T03:55:00Z,46.68,-92.1,8.2,4.5,40,3,,10.0,29.920275,,,TRUE,TRUE,,,,,,,CLR,,,,,,,,VFR,,,,,,,,,,,,METAR,205.0
KSUU 300355Z AUTO 23016G25KT 10SM CLR 15/09 A2990 RMK AO2 PK WND 23026/22 SLP131 T01490086 $,KSUU,2023-05-30T03:55:00Z,38.27,-121.93,14.9,8.6,230,16,25,10.0,29.899607,1013.1,,TRUE,TRUE,TRUE,,,,,,CLR,,,,,,,,VFR,,,,,,,,,,,,METAR,9.0
KSUA 300355Z AUTO 05007KT 10SM CLR 26/19 A2993 RMK AO2 T02550186,KSUA,2023-05-30T03:55:00Z,27.18,-80.22,25.5,18.6,50,7,,10.0,29.929134,,,TRUE,TRUE,,,,,,,CLR,,,,,,,,VFR,,,,,,,,,,,,METAR,4.0
KSTK 300355Z AUTO 04003KT 10SM CLR 16/11 A2994 RMK AO2 LTG DSNT E AND SE,KSTK,2023-05-30T03:55:00Z,40.62,-103.27,16.0,11.0,40,3,,10.0,29.940945,,,TRUE,TRUE,,,,,,,CLR,,,,,,,,VFR,,,,,,,,,,,,METAR,1228.0
KSTF 300355Z AUTO 00000KT 10SM FEW070 34/34 A2993 RMK AO2,KSTF,2023-05-30T03:55:00Z,33.43,-88.85,34.0,34.0,0,0,,10.0,29.929134,,,TRUE,TRUE,,,,,,,FEW,7000,,,,,,,VFR,,,,,,,,,,,,METAR,99.0
KSTE 300355Z AUTO 05003KT 10SM CLR 16/08 A3000 RMK AO2 T01550080,KSTE,2023-05-30T03:55:00Z,44.55,-89.53,15.5,8.0,50,3,,10.0,30.0,,,TRUE,TRUE,,,,,,,CLR,,,,,,,,VFR,,,,,,,,,,,,METAR,335.0
KSSC 300355Z AUTO 00000KT 10SM BKN080 BKN095 19/17 A2992 RMK AO2 SLP132 T01890165 $,KSSC,2023-05-30T03:55:00Z,33.97,-80.47,18.9,16.5,0,0,,10.0,29.920275,1013.2,,TRUE,TRUE,TRUE,,,,,,BKN,8000,BKN,9500,,,,,VFR,,,,,,,,,,,,METAR,71.0
KSRR 300355Z AUTO 23009KT 10SM CLR 18/M09 A3017 RMK AO2,KSRR,2023-05-30T03:55:00Z,33.47,-105.52,18.0,-9.0,230,9,,10.0,30.171259,,,TRUE,TRUE,,,,,,,CLR,,,,,,,,VFR,,,,,,,,,,,,METAR,2063.0
KSRE 300355Z AUTO 11003KT 8SM CLR 20/17 A2994 RMK AO2,KSRE,2023-05-30T03:55:00Z,35.27,-96.68,20.0,17.0,110,3,,8.0,29.940945,,,TRUE,TRUE,,,,,,,CLR,,,,,,,,VFR,,,,,,,,,,,,METAR,306.0
KSRB 300355Z AUTO 00000KT 10SM FEW050 15/15 A2998 RMK AO2,KSRB,2023-05-30T03:55:00Z,36.05,-85.53,15.0,15.0,0,0,,10.0,29.97933,,,TRUE,TRUE,,,,,,,FEW,5000,,,,,,,VFR,,,,,,,,,,,,METAR,303.0
KSPK 300355Z AUTO 13006KT 10SM CLR 18/03 A2991 RMK AO2,KSPK,2023-05-30T03:55:00Z,40.15,-111.67,18.0,3.0,130,6,,10.0,29.911417,,,TRUE,TRUE,,,,,,,CLR,,,,,,,,VFR,,,,,,,,,,,,METAR,1381.0
KSPF 300355Z AUTO 00000KT 10SM CLR 14/11 A2990 RMK AO2,KSPF,2023-05-30T03:55:00Z,44.47,-103.78,14.0,11.0,0,0,,10.0,29.899607,,,TRUE,TRUE,,,,,,,CLR,,,,,,,,VFR,,,,,,,,,,,,METAR,1191.0
KSPA 300355Z AUTO 00000KT 10SM SCT046 17/16 A2996 RMK AO2,KSPA,2023-05-30T03:55:00Z,34.92,-81.95,17.0,16.0,0,0,,10.0,29.958662,,,TRUE,TRUE,,,,,,,SCT,4600,,,,,,,VFR,,,,,,,,,,,,METAR,242.0
KSOW 300355Z AUTO 18004KT 10SM CLR 16/M02 A3015 RMK AO2,KSOW,2023-05-30T03:55:00Z,34.27,-110.0,16.0,-2.0,180,4,,10.0,30.15059,,,TRUE,TRUE,,,,,,,CLR,,,,,,,,VFR,,,,,,,,,,,,METAR,1954.0
KSOA 300355Z AUTO 00000KT 10SM CLR 21/16 A3000 RMK AO2,KSOA,2023-05-30T03:55:00Z,30.58,-100.65,21.0,16.0,0,0,,10.0,30.0,,,TRUE,TRUE,,,,,,,CLR,,,,,,,,VFR,,,,,,,,,,,,METAR,654.0
KSNL 300355Z AUTO 00000KT 10SM CLR 20/19 A2994 RMK AO2 T02000189,KSNL,2023-05-30T03:55:00Z,35.35,-96.95,20.0,18.9,0,0,,10.0,29.940945,,,TRUE,TRUE,,,,,,,CLR,,,,,,,,VFR,,,,,,,,,,,,METAR,327.0
KSNK 300355Z AUTO 09005KT 10SM CLR 22/17 A2995 RMK AO2 T02220170,KSNK,2023-05-30T03:55:00Z,32.7,-100.95,22.2,17.0,90,5,,10.0,29.949802,,,TRUE,TRUE,,,,,,,CLR,,,,,,,,VFR,,,,,,,,,,,,METAR,738.0
KSNC 300355Z AUTO 00000KT 10SM CLR 10/09 A3021 RMK AO2,KSNC,2023-05-30T03:55:00Z,41.38,-72.5,10.0,9.0,0,0,,10.0,30.209646,,,TRUE,TRUE,,,,,,,CLR,,,,,,,,VFR,,,,,,,,,,,,METAR,114.0
KSMS 300355Z AUTO 00000KT 10SM FEW060 BKN075 19/18 A2994 RMK AO2,KSMS,2023-05-30T03:55:00Z,34.0,-80.37,19.0,18.0,0,0,,10.0,29.940945,,,TRUE,TRUE,,,,,,,FEW,6000,BKN,7500,,,,,VFR,,,,,,,,,,,,METAR,53.0
KSME 300355Z AUTO 00000KT 10SM CLR 17/17 A2998 RMK AO2,KSME,2023-05-30T03:55:00Z,37.05,-84.62,17.0,17.0,0,0,,10.0,29.97933,,,TRUE,TRUE,,,,,,,CLR,,,,,,,,VFR,,,,,,,,,,,,METAR,279.0
KSLR 300355Z AUTO 21006KT 10SM -RA SCT075 SCT100 20/20 A2996 RMK AO2 LTG DSNT S P0004 T02040196,KSLR,2023-05-30T03:55:00Z,33.17,-95.62,20.4,19.6,210,6,,10.0,29.958662,,,TRUE,TRUE,,,,,,-RA,SCT,7500,SCT,10000,,,,,VFR,,,,,,0.04,,,,,,METAR,144.0
KSLI 300355Z AUTO 19005KT 10SM FEW018 OVC035 17/14 A2995 RMK AO2 SLP145 T01660135 $,KSLI,2023-05-30T03:55:00Z,33.78,-118.03,16.6,13.5,190,5,,10.0,29.949802,1014.5,,TRUE,TRUE,TRUE,,,,,,FEW,1800,OVC,3500,,,,,VFR,,,,,,,,,,,,METAR,8.0
KSLH 300355Z AUTO 16004KT 10SM CLR 18/11 A3002 RMK AO2,KSLH,2023-05-30T03:55:00Z,45.65,-84.52,18.0,11.0,160,4,,10.0,30.02067,,,TRUE,TRUE,,,,,,,CLR,,,,,,,,VFR,,,,,,,,,,,,METAR,193.0
KSLB 300355Z AUTO 16012KT 10SM CLR 23/13 A2988 RMK AO2,KSLB,2023-05-30T03:55:00Z,42.6,-95.23,23.0,13.0,160,12,,10.0,29.878937,,,TRUE,TRUE,,,,,,,CLR,,,,,,,,VFR,,,,,,,,,,,,METAR,450.0
KSKA 300355Z AUTO 22003KT 10SM CLR 19/08 A2976 RMK AO2 SLP063 T01940075 $,KSKA,2023-05-30T03:55:00Z,47.62,-117.67,19.4,7.5,220,3,,10.0,29.760826,1006.3,,TRUE,TRUE,TRUE,,,,,,CLR,,,,,,,,VFR,,,,,,,,,,,,METAR,754.0
KSJX 300355Z AUTO 10003KT 10SM CLR 12/08 A3002 RMK AO2 T01220079,KSJX,2023-05-30T03:55:00Z,45.7,-85.57,12.2,7.9,100,3,,10.0,30.02067,,,TRUE,TRUE,,,,,,,CLR,,,,,,,,VFR,,,,,,,,,,,,METAR,202.0
KSJS 300355Z AUTO 00000KT 10SM SCT075 SCT085 17/17 A3002 RMK AO2 T01700165,KSJS,2023-05-30T03:55:00Z,37.75,-82.63,17.0,16.5,0,0,,10.0,30.02067,,,TRUE,TRUE,,,,,,,SCT,7500,SCT,8500,,,,,VFR,,,,,,,,,,,,METAR,359.0
KSIK 300355Z AUTO 00000KT 10SM CLR 18/13 A2995 RMK AO2,KSIK,2023-05-30T03:55:00Z,36.9,-89.57,18.0,13.0,0,0,,10.0,29.949802,,,TRUE,TRUE,,,,,,,CLR,,,,,,,,VFR,,,,,,,,,,,,METAR,95.0
KSHM 300355Z AUTO 01003KT 10SM FEW130 OVC210 17/03 A3003 RMK AO2 SLP097 T01680028 $,KSHM,2023-05-30T03:55:00Z,38.8,-104.52,16.8,2.8,10,3,,10.0,30.029528,1009.7,,TRUE,TRUE,TRUE,,,,,,FEW,13000,OVC,21000,,,,,VFR,,,,,,,,,,,,METAR,1900.0
KSHL 300355Z AUTO 16014G19KT 10SM CLR 24/14 A2980 RMK AO2,KSHL,2023-05-30T03:55:00Z,43.22,-95.83,24.0,14.0,160,14,19,10.0,29.799213,,,TRUE,TRUE,,,,,,,CLR,,,,,,,,VFR,,,,,,,,,,,,METAR,430.0
KSHD 300355Z AUTO 03003KT 10SM BKN022 BKN027 OVC033 18/18 A3007 RMK AO2 T01760175,KSHD,2023-05-30T03:55:00Z,38.27,-78.9,17.6,17.5,30,3,,10.0,30.070866,,,TRUE,TRUE,,,,,,,BKN,2200,BKN,2700,OVC,3300,,,MVFR,,,,,,,,,,,,METAR,360.0
KSGS 300355Z AUTO 14006KT 10SM CLR 23/08 A2986 RMK AO2 T02310076,KSGS,2023-05-30T03:55:00Z,44.87,-93.03,23.1,7.6,140,6,,10.0,29.861221,,,TRUE,TRUE,,,,,,,CLR,,,,,,,,VFR,,,,,,,,,,,,METAR,250.0
KSFQ 300355Z AUTO 03005KT 10SM SCT005 SCT021 SCT033 19/19 A2997 RMK AO2 LTG DSNT N THRU SE T01920188,KSFQ,2023-05-30T03:55:00Z,36.68,-76.6,19.2,18.8,30,5,,10.0,29.970472,,,TRUE,TRUE,,,,,,,SCT,500,SCT,2100,SCT,3300,,,VFR,,,,,,,,,,,,METAR,19.0
KSEZ 300355Z AUTO 21004KT 10SM CLR 21/M03 A3004 RMK AO2,KSEZ,2023-05-30T03:55:00Z,34.85,-111.78,21.0,-3.0,210,4,,10.0,30.041338,,,TRUE,TRUE,,,,,,,CLR,,,,,,,,VFR,,,,,,,,,,,,METAR,1455.0
KSEQ 300355Z AUTO 05004KT 10SM SCT160 21/20 A2988 RMK AO2 SLP115 T02060199,KSEQ,2023-05-30T03:55:00Z,29.57,-97.9,20.6,19.9,50,4,,10.0,29.878937,1011.5,,TRUE,TRUE,,,,,,,SCT,16000,,,,,,,VFR,,,,,,,,,,,,METAR,160.0
KSEP 300355Z AUTO 00000KT 10SM CLR 21/19 A2997 RMK AO2 T02050186,KSEP,2023-05-30T03:55:00Z,32.22,-98.17,20.5,18.6,0,0,,10.0,29.970472,,,TRUE,TRUE,,,,,,,CLR,,,,,,,,VFR,,,,,,,,,,,,METAR,399.0
KSEM 300355Z AUTO 00000KT 10SM FEW055 FEW065 18/18 A2994 RMK AO2,KSEM,2023-05-30T03:55:00Z,32.35,-86.98,18.0,18.0,0,0,,10.0,29.940945,,,TRUE,TRUE,,,,,,,FEW,5500,FEW,6500,,,,,VFR,,,,,,,,,,,,METAR,48.0
KSEF 300355Z AUTO 00000KT 10SM CLR 22/18 A2994 RMK AO2 T02180180,KSEF,2023-05-30T03:55:00Z,27.45,-81.35,21.8,18.0,0,0,,10.0,29.940945,,,TRUE,TRUE,,,,,,,CLR,,,,,,,,VFR,,,,,,,,,,,,METAR,17.0
KSEE 300355Z AUTO 29005KT 10SM OVC024 16/12 A2998 RMK AO2,KSEE,2023-05-30T03:55:00Z,32.82,-116.97,16.0,12.0,290,5,,10.0,29.97933,,,TRUE,TRUE,,,,,,,OVC,2400,,,,,,,MVFR,,,,,,,,,,,,METAR,113.0
KSDC 300355Z AUTO 00000KT 10SM CLR 16/06 A3007 RMK AO2,KSDC,2023-05-30T03:55:00Z,43.23,-77.12,16.0,6.0,0,0,,10.0,30.070866,,,TRUE,TRUE,,,,,,,CLR,,,,,,,,VFR,,,,,,,,,,,,METAR,127.0
KSDA 300355Z AUTO 17007KT 9SM CLR 23/13 A2989 RMK AO2,KSDA,2023-05-30T03:55:00Z,40.75,-95.42,23.0,13.0,170,7,,9.0,29.890747,,,TRUE,TRUE,,,,,,,CLR,,,,,,,,VFR,,,,,,,,,,,,METAR,293.0
KSCX 300355Z AUTO 00000KT 10SM OVC039 17/16 A3000 RMK A01,KSCX,2023-05-30T03:55:00Z,36.45,-84.58,17.0,16.0,0,0,,10.0,30.0,,,TRUE,TRUE,,,,,,,OVC,3900,,,,,,,VFR,,,,,,,,,,,,METAR,462.0
KSCK 300355Z AUTO 32010KT 10SM CLR 16/10 A2991 RMK AO2 SLP129 T01610100,KSCK,2023-05-30T03:55:00Z,37.88,-121.22,16.1,10.0,320,10,,10.0,29.911417,1012.9,,TRUE,TRUE,,,,,,,CLR,,,,,,,,VFR,,,,,,,,,,,,METAR,8.0
KSCD 300355Z AUTO 00000KT 10SM CLR 17/15 A2996 RMK AO2 T01650146,KSCD,2023-05-30T03:55:00Z,33.17,-86.3,16.5,14.6,0,0,,10.0,29.958662,,,TRUE,TRUE,,,,,,,CLR,,,,,,,,VFR,,,,,,,,,,,,METAR,164.0
KSBS 300355Z AUTO 00000KT 10SM CLR 14/M01 A3008 RMK AO1 T01371010,KSBS,2023-05-30T03:55:00Z,40.52,-106.87,13.7,-1.0,0,0,,10.0,30.079725,,,TRUE,TRUE,,,,,,,CLR,,,,,,,,VFR,,,,,,,,,,,,METAR,2097.0
KSBO 300355Z AUTO 00000KT 10SM CLR A2993 RMK AO2,KSBO,2023-05-30T03:55:00Z,32.62,-82.37,,,0,0,,10.0,29.929134,,,TRUE,TRUE,,,,,,,CLR,,,,,,,,VFR,,,,,,,,,,,,METAR,98.0
KSAZ 300355Z AUTO 12003KT 10SM CLR 21/13 A2982 RMK AO2,KSAZ,2023-05-30T03:55:00Z,46.37,-94.8,21.0,13.0,120,3,,10.0,29.819881,,,TRUE,TRUE,,,,,,,CLR,,,,,,,,VFR,,,,,,,,,,,,METAR,391.0
KSAA 300355Z AUTO 17008KT 10SM CLR 10/01 A3012 RMK AO2,KSAA,2023-05-30T03:55:00Z,41.45,-106.8,10.0,1.0,170,8,,10.0,30.121063,,,TRUE,TRUE,,,,,,,CLR,,,,,,,,VFR,,,,,,,,,,,,METAR,2093.0
KS85 300355Z AUTO 24005KT 10SM 17/16 A2973 RMK A01 Culbertson ,KS85,2023-05-30T03:55:00Z,48.15,-104.5,17.0,16.0,240,5,,10.0,29.731298,,,TRUE,TRUE,,,,,,,,,,,,,,,,,,,,,,,,,,,METAR,596.0
KS52 300355Z AUTO 33010KT 10SM BKN100 BKN120 22/03 A2976 RMK AO2 T02170032,KS52,2023-05-30T03:55:00Z,48.42,-120.15,21.7,3.2,330,10,,10.0,29.760826,,,TRUE,TRUE,,,,,,,BKN,10000,BKN,12000,,,,,VFR,,,,,,,,,,,,METAR,517.0
KS39 300355Z AUTO 34010KT 10SM CLR 18/01 A2990 RMK AO2,KS39,2023-05-30T03:55:00Z,44.28,-120.9,18.0,1.0,340,10,,10.0,29.899607,,,TRUE,TRUE,,,,,,,CLR,,,,,,,,VFR,,,,,,,,,,,,METAR,987.0
KS33 300355Z AUTO 31010G14KT 10SM CLR A2990 RMK AO2,KS33,2023-05-30T03:55:00Z,44.67,-121.15,,,310,10,14,10.0,29.899607,,,TRUE,TRUE,,,,,,,CLR,,,,,,,,VFR,,,,,,,,,,,,METAR,739.0
KS32 300355Z AUTO 27011KT 10SM -DZ FEW018 SCT042 BKN060 18/18 A2978 RMK AO2 TSNO,KS32,2023-05-30T03:55:00Z,47.42,-98.1,18.0,18.0,270,11,,10.0,29.778543,,,TRUE,TRUE,,,TRUE,,,-DZ,FEW,1800,SCT,4200,BKN,6000,,,VFR,,,,,,,,,,,,METAR,435.0
KS25 300355Z AUTO 23005KT 10SM CLR 16/16 A2976 RMK AO2,KS25,2023-05-30T03:55:00Z,47.8,-103.25,16.0,16.0,230,5,,10.0,29.760826,,,TRUE,TRUE,,,,,,,CLR,,,,,,,,VFR,,,,,,,,,,,,METAR,632.0
KS24 300355Z AUTO 03004KT 10SM CLR 15/11 A3002 RMK AO2,KS24,2023-05-30T03:55:00Z,41.3,-83.03,15.0,11.0,30,4,,10.0,30.02067,,,TRUE,TRUE,,,,,,,CLR,,,,,,,,VFR,,,,,,,,,,,,METAR,203.0
KS21 300355Z AUTO 21012KT 10SM CLR 17/03 A2998 RMK AO2,KS21,2023-05-30T03:55:00Z,43.88,-121.45,17.0,3.0,210,12,,10.0,29.97933,,,TRUE,TRUE,,,,,,,CLR,,,,,,,,VFR,,,,,,,,,,,,METAR,1269.0
KS12 300355Z AUTO 33007KT 10SM CLR 19/10 A2988 RMK AO2,KS12,2023-05-30T03:55:00Z,,,19.0,10.0,330,7,,10.0,29.878937,,,TRUE,TRUE,,,,,,,CLR,,,,,,,,VFR,,,,,,,,,,,,METAR,
KRZT 300355Z AUTO 19003KT 10SM SCT120 21/15 A3001 RMK AO2 PWINO,KRZT,2023-05-30T03:55:00Z,39.43,-83.02,21.0,15.0,190,3,,10.0,30.008858,,,TRUE,TRUE,,,,,TRUE,,SCT,12000,,,,,,,VFR,,,,,,,,,,,,METAR,217.0
KRZR 300355Z AUTO 00000KT 10SM CLR 15/15 A2996 RMK A01,KRZR,2023-05-30T03:55:00Z,35.22,-84.8,15.0,15.0,0,0,,10.0,29.958662,,,TRUE,TRUE,,,,,,,CLR,,,,,,,,VFR,,,,,,,,,,,,METAR,259.0
KRZL 300355Z AUTO 03005KT 10SM BKN095 19/06 A3000 RMK AO2,KRZL,2023-05-30T03:55:00Z,40.95,-87.18,19.0,6.0,30,5,,10.0,30.0,,,TRUE,TRUE,,,,,,,BKN,9500,,,,,,,VFR,,,,,,,,,,,,METAR,210.0
KRYW 300355Z AUTO 17004KT 10SM CLR 23/18 A2997 RMK AO2 T02250182,KRYW,2023-05-30T03:55:00Z,30.5,-97.97,22.5,18.2,170,4,,10.0,29.970472,,,TRUE,TRUE,,,,,,,CLR,,,,,,,,VFR,,,,,,,,,,,,METAR,370.0
KRYN 300355Z AUTO 27009G15KT 6SM HZ CLR 28/07 A2989 RMK AO2,KRYN,2023-05-30T03:55:00Z,32.15,-111.17,28.0,7.0,270,9,15,6.0,29.890747,,,TRUE,TRUE,,,,,,HZ,CLR,,,,,,,,VFR,,,,,,,,,,,,METAR,731.0
KRYM 300355Z AUTO 14005KT 10SM CLR 20/12 A2981 RMK AO2 LTG DSNT NW SLP093 T02020122 $,KRYM,2023-05-30T03:55:00Z,46.08,-94.37,20.2,12.2,140,5,,10.0,29.811024,1009.3,,TRUE,TRUE,TRUE,,,,,,CLR,,,,,,,,VFR,,,,,,,,,,,,METAR,344.0
KRWV 300355Z AUTO 00000KT CLR 21/19 A2995 RMK AO2 PWINO T02140186,KRWV,2023-05-30T03:55:00Z,30.52,-96.7,21.4,18.6,0,0,,,29.949802,,,TRUE,TRUE,,,,,TRUE,,CLR,,,,,,,,,,,,,,,,,,,,METAR,116.0
KRVL 300355Z AUTO 00000KT 10SM CLR 20/07 A3011 RMK AO2,KRVL,2023-05-30T03:55:00Z,40.68,-77.63,20.0,7.0,0,0,,10.0,30.109253,,,TRUE,TRUE,,,,,,,CLR,,,,,,,,VFR,,,,,,,,,,,,METAR,250.0
KRVJ 300355Z AUTO 00000KT 10SM SCT065 19/17 A2991 RMK AO2 T01920175,KRVJ,2023-05-30T03:55:00Z,32.07,-82.15,19.2,17.5,0,0,,10.0,29.911417,,,TRUE,TRUE,,,,,,,SCT,6500,,,,,,,VFR,,,,,,,,,,,,METAR,60.0
KRVF 300355Z AUTO 11010KT 10SM CLR 17/07 A2992 RMK AO2,KRVF,2023-05-30T03:55:00Z,45.53,-112.3,17.0,7.0,110,10,,10.0,29.920275,,,TRUE,TRUE,,,,,,,CLR,,,,,,,,VFR,,,,,,,,,,,,METAR,1445.0
KRUG 300355Z AUTO 22007KT 10SM CLR 17/14 A2972 RMK AO2,KRUG,2023-05-30T03:55:00Z,48.38,-100.02,17.0,14.0,220,7,,10.0,29.719488,,,TRUE,TRUE,,,,,,,CLR,,,,,,,,VFR,,,,,,,,,,,,METAR,469.0
KRTS 300355Z AUTO 29009G15KT 8SM -DZ SCT025 SCT035 BKN055 13/10 A3000 RMK AO2 P0001,KRTS,2023-05-30T03:55:00Z,39.67,-119.88,13.0,10.0,290,9,15,8.0,30.0,,,TRUE,TRUE,,,,,,-DZ,SCT,2500,SCT,3500,BKN,5500,,,VFR,,,,,,0.01,,,,,,METAR,1537.0
KRSN 300355Z AUTO 00000KT 10SM CLR 19/19 A2994 RMK AO2 T01950195 $,KRSN,2023-05-30T03:55:00Z,32.52,-92.58,19.5,19.5,0,0,,10.0,29.940945,,,TRUE,TRUE,TRUE,,,,,,CLR,,,,,,,,VFR,,,,,,,,,,,,METAR,86.0
KRRT 300355Z AUTO 15009KT 10SM SCT080 17/15 A2977 RMK AO2,KRRT,2023-05-30T03:55:00Z,48.93,-95.33,17.0,15.0,150,9,,10.0,29.769686,,,TRUE,TRUE,,,,,,,SCT,8000,,,,,,,VFR,,,,,,,,,,,,METAR,327.0
KRQO 300355Z AUTO 15006KT 19/18 A2995 RMK AO2 T01870178,KRQO,2023-05-30T03:55:00Z,35.47,-98.0,18.7,17.8,150,6,,,29.949802,,,TRUE,TRUE,,,,,,,,,,,,,,,,,,,,,,,,,,,METAR,431.0
KRQB 300355Z AUTO 00000KT 10SM CLR 15/09 A3004 RMK AO2 T01530085,KRQB,2023-05-30T03:55:00Z,43.72,-85.5,15.3,8.5,0,0,,10.0,30.041338,,,TRUE,TRUE,,,,,,,CLR,,,,,,,,VFR,,,,,,,,,,,,METAR,282.0
KRPJ 300355Z AUTO 11007KT 10SM BKN110 21/04 A2999 RMK AO2 T02090040 TSNO,KRPJ,2023-05-30T03:55:00Z,41.88,-89.08,20.9,4.0,110,7,,10.0,29.991142,,,TRUE,TRUE,,,TRUE,,,,BKN,11000,,,,,,,VFR,,,,,,,,,,,,METAR,234.0
KRPH 300355Z AUTO 00000KT 10SM CLR 19/19 A2991 RMK AO2 T01910187 $,KRPH,2023-05-30T03:55:00Z,33.12,-98.55,19.1,18.7,0,0,,10.0,29.911417,,,TRUE,TRUE,TRUE,,,,,,CLR,,,,,,,,VFR,,,,,,,,,,,,METAR,341.0
KRPD 300355Z AUTO 12006KT 10SM CLR 19/11 A2994 RMK AO2 T01900111,KRPD,2023-05-30T03:55:00Z,45.42,-91.77,19.0,11.1,120,6,,10.0,29.940945,,,TRUE,TRUE,,,,,,,CLR,,,,,,,,VFR,,,,,,,,,,,,METAR,334.0
KROX 300355Z AUTO 16010KT 10SM SCT075 18/15 A2976 RMK AO2,KROX,2023-05-30T03:55:00Z,48.85,-95.7,18.0,15.0,160,10,,10.0,29.760826,,,TRUE,TRUE,,,,,,,SCT,7500,,,,,,,VFR,,,,,,,,,,,,METAR,320.0
KROS 300355Z AUTO 14003KT 10SM SCT120 23/08 A2988 RMK AO2 T02310081,KROS,2023-05-30T03:55:00Z,45.7,-92.95,23.1,8.1,140,3,,10.0,29.878937,,,TRUE,TRUE,,,,,,,SCT,12000,,,,,,,VFR,,,,,,,,,,,,METAR,282.0
KRNP 300355Z AUTO 00000KT 10SM CLR 16/07 A3004 RMK AO2 T01590069,KRNP,2023-05-30T03:55:00Z,43.0,-84.13,15.9,6.9,0,0,,10.0,30.041338,,,TRUE,TRUE,,,,,,,CLR,,,,,,,,VFR,,,,,,,,,,,,METAR,224.0
KRNO 300355Z 10009KT 10SM BKN050 BKN100 15/11 A2997 RMK AO2 RAE09 SLP114 P0000 T01500111 $,KRNO,2023-05-30T03:55:00Z,39.5,-119.77,15.0,11.1,100,9,,10.0,29.970472,1011.4,,,TRUE,TRUE,,,,,,BKN,5000,BKN,10000,,,,,VFR,,,,,,0.005,,,,,,METAR,1344.0
KRNH 300355Z AUTO 13007KT 10SM CLR 20/11 A2989 RMK AO2 T02030111,KRNH,2023-05-30T03:55:00Z,45.15,-92.53,20.3,11.1,130,7,,10.0,29.890747,,,TRUE,TRUE,,,,,,,CLR,,,,,,,,VFR,,,,,,,,,,,,METAR,302.0
KRND 300355Z AUTO 35004KT 10SM CLR 19/19 A2989 RMK AO2 SLP116 T01900188 TSNO $,KRND,2023-05-30T03:55:00Z,29.53,-98.27,19.0,18.8,350,4,,10.0,29.890747,1011.6,,TRUE,TRUE,TRUE,,TRUE,,,,CLR,,,,,,,,VFR,,,,,,,,,,,,METAR,224.0
KRNC 300355Z AUTO 00000KT 10SM CLR 15/14 A2997 RMK A01,KRNC,2023-05-30T03:55:00Z,35.7,-85.85,15.0,14.0,0,0,,10.0,29.970472,,,TRUE,TRUE,,,,,,,CLR,,,,,,,,VFR,,,,,,,,,,,,METAR,310.0
KRMY 300355Z AUTO 00000KT 10SM CLR 17/11 A3002 RMK AO2 T01680110,KRMY,2023-05-30T03:55:00Z,42.25,-84.95,16.8,11.0,0,0,,10.0,30.02067,,,TRUE,TRUE,,,,,,,CLR,,,,,,,,VFR,,,,,,,,,,,,METAR,285.0
KRMN 300355Z AUTO 04003KT 10SM VCTS OVC022 18/14 A3007 RMK AO2 LTG DSNT E T01810138,KRMN,2023-05-30T03:55:00Z,38.4,-77.45,18.1,13.8,40,3,,10.0,30.070866,,,TRUE,TRUE,,,,,,VCTS,OVC,2200,,,,,,,MVFR,,,,,,,,,,,,METAR,50.0
KRLD 300355Z AUTO 28004G08KT 10SM CLR 27/05 A2971 RMK AO2 T02710046,KRLD,2023-05-30T03:55:00Z,46.3,-119.3,27.1,4.6,280,4,8,10.0,29.71063,,,TRUE,TRUE,,,,,,,CLR,,,,,,,,VFR,,,,,,,,,,,,METAR,118.0
KRKW 300355Z AUTO 00000KT 10SM BKN047 15/14 A3000 RMK A01,KRKW,2023-05-30T03:55:00Z,35.92,-84.68,15.0,14.0,0,0,,10.0,30.0,,,TRUE,TRUE,,,,,,,BKN,4700,,,,,,,VFR,,,,,,,,,,,,METAR,505.0
KRKR 300355Z AUTO 10SM CLR 21/16 A2993 RMK AO2,KRKR,2023-05-30T03:55:00Z,35.02,-94.62,21.0,16.0,,,,10.0,29.929134,,,TRUE,TRUE,,,,,,,CLR,,,,,,,,VFR,,,,,,,,,,,,METAR,136.0
KRIV 300355Z 00000KT 10SM FEW035 SCT250 14/11 A2997 RMK AO2A SLP143 T01420113,KRIV,2023-05-30T03:55:00Z,33.87,-117.23,14.2,11.3,0,0,,10.0,29.970472,1014.3,,,TRUE,,,,,,,FEW,3500,SCT,25000,,,,,VFR,,,,,,,,,,,,METAR,454.0
KRHV 300355Z 34007KT 10SM 17/09 A2997,KRHV,2023-05-30T03:55:00Z,37.33,-121.82,17.0,9.0,340,7,,10.0,29.970472,,,,,,,,,,,,,,,,,,,,,,,,,,,,,,,METAR,37.0
KRGK 300355Z AUTO 13006KT 10SM CLR 22/07 A2988 RMK AO2,KRGK,2023-05-30T03:55:00Z,44.58,-92.48,22.0,7.0,130,6,,10.0,29.878937,,,TRUE,TRUE,,,,,,,CLR,,,,,,,,VFR,,,,,,,,,,,,METAR,238.0
KRGA 300355Z AUTO 14003KT 10SM OVC110 17/16 A3001 RMK AO2,KRGA,2023-05-30T03:55:00Z,37.63,-84.33,17.0,16.0,140,3,,10.0,30.008858,,,TRUE,TRUE,,,,,,,OVC,11000,,,,,,,VFR,,,,,,,,,,,,METAR,301.0
KRFI 300355Z AUTO 00000KT 7SM CLR 22/19 A2997 RMK AO2 LTG DSNT W AND NW T02230186,KRFI,2023-05-30T03:55:00Z,32.15,-94.85,22.3,18.6,0,0,,7.0,29.970472,,,TRUE,TRUE,,,,,,,CLR,,,,,,,,VFR,,,,,,,,,,,,METAR,133.0
KREG 300355Z AUTO 21003KT 10SM SCT065 25/20 A2992 RMK AO2 T02480202,KREG,2023-05-30T03:55:00Z,30.17,-90.93,24.8,20.2,210,3,,10.0,29.920275,,,TRUE,TRUE,,,,,,,SCT,6500,,,,,,,VFR,,,,,,,,,,,,METAR,3.0
KRDK 300355Z AUTO 17006KT 10SM CLR 22/13 A2990 RMK AO2,KRDK,2023-05-30T03:55:00Z,41.02,-95.27,22.0,13.0,170,6,,10.0,29.899607,,,TRUE,TRUE,,,,,,,CLR,,,,,,,,VFR,,,,,,,,,,,,METAR,317.0
KRCX 300355Z AUTO 12004KT 10SM CLR 17/11 A2997 RMK AO2 T01700109,KRCX,2023-05-30T03:55:00Z,45.5,-91.0,17.0,10.9,120,4,,10.0,29.970472,,,TRUE,TRUE,,,,,,,CLR,,,,,,,,VFR,,,,,,,,,,,,METAR,373.0
KRCV 300355Z AUTO 24008KT 10SM CLR 12/M02 A3020 RMK AO2 T01211020,KRCV,2023-05-30T03:55:00Z,37.72,-106.35,12.1,-2.0,240,8,,10.0,30.200787,,,TRUE,TRUE,,,,,,,CLR,,,,,,,,VFR,,,,,,,,,,,,METAR,2418.0
KRCR 300355Z AUTO 00000KT 10SM CLR 21/09 A2999 RMK AO2,KRCR,2023-05-30T03:55:00Z,41.07,-86.18,21.0,9.0,0,0,,10.0,29.991142,,,TRUE,TRUE,,,,,,,CLR,,,,,,,,VFR,,,,,,,,,,,,METAR,240.0
KRCM 300355Z AUTO 15003KT 10SM CLR 21/13 A2994 RMK AO2,KRCM,2023-05-30T03:55:00Z,38.78,-93.8,21.0,13.0,150,3,,10.0,29.940945,,,TRUE,TRUE,,,,,,,CLR,,,,,,,,VFR,,,,,,,,,,,,METAR,242.0
KRCE 300355Z AUTO 14006KT 10SM CLR 19/17 A2993 RMK AO2,KRCE,2023-05-30T03:55:00Z,35.48,-97.82,19.0,17.0,140,6,,10.0,29.929134,,,TRUE,TRUE,,,,,,,CLR,,,,,,,,VFR,,,,,,,,,,,,METAR,412.0
KRCA 300355Z AUTO 30003KT 10SM CLR 14/11 A2983 RMK AO2 SLP087 T01410113 $,KRCA,2023-05-30T03:55:00Z,44.15,-103.12,14.1,11.3,300,3,,10.0,29.828741,1008.7,,TRUE,TRUE,TRUE,,,,,,CLR,,,,,,,,VFR,,,,,,,,,,,,METAR,993.0
KRBW 300355Z AUTO 00000KT 10SM CLR 18/17 A2993 RMK AO2,KRBW,2023-05-30T03:55:00Z,32.92,-80.63,18.0,17.0,0,0,,10.0,29.929134,,,TRUE,TRUE,,,,,,,CLR,,,,,,,,VFR,,,,,,,,,,,,METAR,30.0
KRBO 300355Z AUTO 00000KT 10SM SCT090 23/22 A2993 RMK AO2 LTG DSNT NW T02320220,KRBO,2023-05-30T03:55:00Z,27.78,-97.68,23.2,22.0,0,0,,10.0,29.929134,,,TRUE,TRUE,,,,,,,SCT,9000,,,,,,,VFR,,,,,,,,,,,,METAR,24.0
KRAW 300355Z AUTO 13003KT 10SM CLR 20/13 A2996 RMK AO2,KRAW,2023-05-30T03:55:00Z,38.35,-93.35,20.0,13.0,130,3,,10.0,29.958662,,,TRUE,TRUE,,,,,,,CLR,,,,,,,,VFR,,,,,,,,,,,,METAR,285.0
KRAS 300355Z AUTO 09004KT 10SM SCT025 SCT030 27/22 A2993 RMK AO2 T02660216,KRAS,2023-05-30T03:55:00Z,27.82,-97.08,26.6,21.6,90,4,,10.0,29.929134,,,TRUE,TRUE,,,,,,,SCT,2500,SCT,3000,,,,,VFR,,,,,,,,,,,,METAR,3.0
KQVF 300355Z AUTO 25004KT 6000 BR FEW005 SCT025 BKN041 BKN050 23/23 A2998 RMK AO2 RAB21E50 SLP155 WND DATA ESTMD P0002 T02340229,KQVF,2023-05-30T03:55:00Z,,,23.4,22.9,250,4,,3.73,29.97933,1015.5,,TRUE,TRUE,,,,,,BR,FEW,500,SCT,2500,BKN,4100,BKN,5000,MVFR,,,,,,0.02,,,,,,METAR,
KQRH 300355Z AUTO 00000KT 9000 HZ BKN180 29/25 A2983 RMK AO2 SLP104 WND DATA ESTMD T02850247,KQRH,2023-05-30T03:55:00Z,,,28.5,24.7,0,0,,5.59,29.828741,1010.4,,TRUE,TRUE,,,,,,HZ,BKN,18000,,,,,,,VFR,,,,,,,,,,,,METAR,
KQN3 300355Z 23006KT 9999 FEW200 SCT300 33/22 A2983 RMK AO2A SLP080 T03210219,KQN3,2023-05-30T03:55:00Z,,,32.1,21.9,230,6,,6.21,29.828741,1008.0,,,TRUE,,,,,,,FEW,20000,SCT,30000,,,,,VFR,,,,,,,,,,,,METAR,
KQHY 300355Z AUTO 00000KT 10SM CLR 22/19 A2993 RMK AO2 SLP142 T02180188 TSNO $,KQHY,2023-05-30T03:55:00Z,,,21.8,18.8,0,0,,10.0,29.929134,1014.2,,TRUE,TRUE,TRUE,,TRUE,,,,CLR,,,,,,,,VFR,,,,,,,,,,,,METAR,
KQDG 300355Z AUTO 35011KT 9999 FEW075 21/08 A2971 RMK AO2 SLP062 T02070080 $,KQDG,2023-05-30T03:55:00Z,,,20.7,8.0,350,11,,6.21,29.71063,1006.2,,TRUE,TRUE,TRUE,,,,,,FEW,7500,,,,,,,VFR,,,,,,,,,,,,METAR,
KQD3 300355Z AUTO VRB03KT 9999 FEW150 29/23 A2988 RMK AO2 SLP103 WND DATA ESTMD T02920233,KQD3,2023-05-30T03:55:00Z,,,29.2,23.3,0,3,,6.21,29.878937,1010.3,,TRUE,TRUE,,,,,,,FEW,15000,,,,,,,VFR,,,,,,,,,,,,METAR,
KQBL 300355Z AUTO 00000KT 10SM CLR 22/19 A2995 RMK AO2 SLP140 WND DATA ESTMD T02160192,KQBL,2023-05-30T03:55:00Z,,,21.6,19.2,0,0,,10.0,29.949802,1014.0,,TRUE,TRUE,,,,,,,CLR,,,,,,,,VFR,,,,,,,,,,,,METAR,
KQAZ 300355Z AUTO VRB03KT 9999 CLR 30/M00 A2985 RMK AO2 SLP099 WND DATA ESTMD T02971004,KQAZ,2023-05-30T03:55:00Z,,,29.7,-0.4,0,3,,6.21,29.84941,1009.9,,TRUE,TRUE,,,,,,,CLR,,,,,,,,VFR,,,,,,,,,,,,METAR,
KPZZ 300355Z AUTO 12009KT 10SM FEW023 26/21 A2992 RMK A01,KPZZ,2023-05-30T03:55:00Z,28.43,-91.03,26.0,21.0,120,9,,10.0,29.920275,,,TRUE,TRUE,,,,,,,FEW,2300,,,,,,,VFR,,,,,,,,,,,,METAR,25.0
KPZQ 300355Z AUTO 17007KT 10SM CLR 18/10 A3005 RMK AO2 T01810100 402360063,KPZQ,2023-05-30T03:55:00Z,45.4,-83.82,18.1,10.0,170,7,,10.0,30.050198,,,TRUE,TRUE,,,,,,,CLR,,,,,,,,VFR,,,,23.6,6.3,,,,,,,METAR,199.0
KPYX 300355Z AUTO 15006KT 10SM CLR 17/13 A2994 RMK AO2 T01670125,KPYX,2023-05-30T03:55:00Z,36.42,-100.75,16.7,12.5,150,6,,10.0,29.940945,,,TRUE,TRUE,,,,,,,CLR,,,,,,,,VFR,,,,,,,,,,,,METAR,890.0
KPXE 300355Z AUTO 00000KT 10SM CLR 16/14 A2994 RMK AO2 T01550143,KPXE,2023-05-30T03:55:00Z,32.52,-83.77,15.5,14.3,0,0,,10.0,29.940945,,,TRUE,TRUE,,,,,,,CLR,,,,,,,,VFR,,,,,,,,,,,,METAR,126.0
KPWD 300355Z AUTO 26005KT 10SM BKN120 17/14 A2974 RMK AO2,KPWD,2023-05-30T03:55:00Z,48.78,-104.52,17.0,14.0,260,5,,10.0,29.740158,,,TRUE,TRUE,,,,,,,BKN,12000,,,,,,,VFR,,,,,,,,,,,,METAR,690.0
KPWC 300355Z AUTO 14004KT 10SM CLR 18/10 A2987 RMK AO2,KPWC,2023-05-30T03:55:00Z,46.72,-94.38,18.0,10.0,140,4,,10.0,29.870079,,,TRUE,TRUE,,,,,,,CLR,,,,,,,,VFR,,,,,,,,,,,,METAR,394.0
KPVW 300355Z AUTO 14008KT 10SM CLR 20/16 A2998 RMK AO2 T01960162,KPVW,2023-05-30T03:55:00Z,34.17,-101.72,19.6,16.2,140,8,,10.0,29.97933,,,TRUE,TRUE,,,,,,,CLR,,,,,,,,VFR,,,,,,,,,,,,METAR,1029.0
KPVJ 300355Z AUTO 00000KT 10SM CLR 20/19 A2993 RMK AO2 T02010189,KPVJ,2023-05-30T03:55:00Z,34.72,-97.22,20.1,18.9,0,0,,10.0,29.929134,,,TRUE,TRUE,,,,,,,CLR,,,,,,,,VFR,,,,,,,,,,,,METAR,287.0
KPVF 300355Z AUTO 22005KT 10SM 14/09 A2998 RMK AO1,KPVF,2023-05-30T03:55:00Z,38.72,-120.75,14.0,9.0,220,5,,10.0,29.97933,,,TRUE,TRUE,,,,,,,,,,,,,,,,,,,,,,,,,,,METAR,788.0
KPVE 300355Z AUTO 00000KT 10SM CLR 17/16 A2996 RMK A01,KPVE,2023-05-30T03:55:00Z,35.65,-88.2,17.0,16.0,0,0,,10.0,29.958662,,,TRUE,TRUE,,,,,,,CLR,,,,,,,,VFR,,,,,,,,,,,,METAR,146.0
KPVB 300355Z AUTO 12006KT 10SM CLR 21/01 A2998 RMK AO1 T02130007,KPVB,2023-05-30T03:55:00Z,42.68,-90.43,21.3,0.7,120,6,,10.0,29.97933,,,TRUE,TRUE,,,,,,,CLR,,,,,,,,VFR,,,,,,,,,,,,METAR,311.0
KPUJ 300355Z AUTO 00000KT 10SM CLR 14/14 A2996 RMK AO2,KPUJ,2023-05-30T03:55:00Z,33.92,-84.93,14.0,14.0,0,0,,10.0,29.958662,,,TRUE,TRUE,,,,,,,CLR,,,,,,,,VFR,,,,,,,,,,,,METAR,385.0
KPTT 300355Z AUTO 16009KT 10SM CLR 23/17 A2993 RMK AO2 T02280170,KPTT,2023-05-30T03:55:00Z,37.7,-98.75,22.8,17.0,160,9,,10.0,29.929134,,,TRUE,TRUE,,,,,,,CLR,,,,,,,,VFR,,,,,,,,,,,,METAR,594.0
KPTS 300355Z AUTO 00000KT 10SM SCT095 SCT120 21/19 A2993 RMK AO2 T02070185 PWINO,KPTS,2023-05-30T03:55:00Z,37.45,-94.73,20.7,18.5,0,0,,10.0,29.929134,,,TRUE,TRUE,,,,,TRUE,,SCT,9500,SCT,12000,,,,,VFR,,,,,,,,,,,,METAR,286.0
KPTD 300355Z AUTO 05004KT 10SM SCT042 OVC050 12/05 A3009 RMK AO2,KPTD,2023-05-30T03:55:00Z,44.68,-74.95,12.0,5.0,50,4,,10.0,30.088583,,,TRUE,TRUE,,,,,,,SCT,4200,OVC,5000,,,,,VFR,,,,,,,,,,,,METAR,144.0
KPTB 300355Z AUTO 05009KT 10SM BKN007 OVC120 20/19 A2999 RMK AO2 T01970190,KPTB,2023-05-30T03:55:00Z,37.17,-77.52,19.7,19.0,50,9,,10.0,29.991142,,,TRUE,TRUE,,,,,,,BKN,700,OVC,12000,,,,,IFR,,,,,,,,,,,,METAR,56.0
KPSO 300355Z AUTO 00000KT 10SM CLR 10/M04 A3019 RMK AO2 T00981036,KPSO,2023-05-30T03:55:00Z,37.28,-107.05,9.8,-3.6,0,0,,10.0,30.188976,,,TRUE,TRUE,,,,,,,CLR,,,,,,,,VFR,,,,,,,,,,,,METAR,2332.0
KPSN 300355Z AUTO 00000KT 5SM -RA BR FEW036 BKN041 OVC120 20/20 A2994 RMK AO2 P0003,KPSN,2023-05-30T03:55:00Z,31.78,-95.7,20.0,20.0,0,0,,5.0,29.940945,,,TRUE,TRUE,,,,,,-RA BR,FEW,3600,BKN,4100,OVC,12000,,,MVFR,,,,,,0.03,,,,,,METAR,124.0
KPSM 300355Z 00000KT 10SM SCT200 09/07 A3023 RMK AO2A SLP240 T00850068,KPSM,2023-05-30T03:55:00Z,43.08,-70.82,8.5,6.8,0,0,,10.0,30.230314,1024.0,,,TRUE,,,,,,,SCT,20000,,,,,,,VFR,,,,,,,,,,,,METAR,34.0
KPSK 300355Z AUTO 05003KT 10SM SCT015 SCT027 15/14 A3005 RMK AO2 T01490144,KPSK,2023-05-30T03:55:00Z,37.13,-80.67,14.9,14.4,50,3,,10.0,30.050198,,,TRUE,TRUE,,,,,,,SCT,1500,SCT,2700,,,,,VFR,,,,,,,,,,,,METAR,629.0
KPRS 300355Z AUTO 00000KT 10SM CLR 26/13 A2992 RMK AO2 T02570128,KPRS,2023-05-30T03:55:00Z,29.63,-104.35,25.7,12.8,0,0,,10.0,29.920275,,,TRUE,TRUE,,,,,,,CLR,,,,,,,,VFR,,,,,,,,,,,,METAR,890.0
KPRO 300355Z AUTO 15008KT 10SM CLR 22/12 A2991 RMK AO2 T02170118 403070127,KPRO,2023-05-30T03:55:00Z,41.83,-94.17,21.7,11.8,150,8,,10.0,29.911417,,,TRUE,TRUE,,,,,,,CLR,,,,,,,,VFR,,,,30.7,12.7,,,,,,,METAR,308.0
KPRG 300355Z AUTO 00000KT 10SM SCT090 19/11 A2997 RMK AO2 T01900108,KPRG,2023-05-30T03:55:00Z,39.7,-87.67,19.0,10.8,0,0,,10.0,29.970472,,,TRUE,TRUE,,,,,,,SCT,9000,,,,,,,VFR,,,,,,,,,,,,METAR,197.0
KPPQ 300355Z AUTO 29003KT 10SM CLR 17/13 A2998 RMK AO2 T01710130,KPPQ,2023-05-30T03:55:00Z,39.63,-90.78,17.1,13.0,290,3,,10.0,29.97933,,,TRUE,TRUE,,,,,,,CLR,,,,,,,,VFR,,,,,,,,,,,,METAR,215.0
KPPO 300355Z AUTO 05006KT 10SM CLR 20/02 A3001 RMK AO2 T01960022,KPPO,2023-05-30T03:55:00Z,41.57,-86.73,19.6,2.2,50,6,,10.0,30.008858,,,TRUE,TRUE,,,,,,,CLR,,,,,,,,VFR,,,,,,,,,,,,METAR,242.0
KPPA 300355Z AUTO 16008KT 10SM 21/16 A3000 RMK AO2 T02080160,KPPA,2023-05-30T03:55:00Z,35.62,-101.0,20.8,16.0,160,8,,10.0,30.0,,,TRUE,TRUE,,,,,,,,,,,,,,,,,,,,,,,,,,,METAR,989.0
KPOY 300355Z AUTO 25011KT 10SM CLR 16/00 A2994 RMK AO2,KPOY,2023-05-30T03:55:00Z,44.87,-108.8,16.0,0.0,250,11,,10.0,29.940945,,,TRUE,TRUE,,,,,,,CLR,,,,,,,,VFR,,,,,,,,,,,,METAR,1547.0
KPOV 300355Z AUTO 08005KT 10SM CLR 17/09 A3002 RMK AO2 T01740086 PWINO,KPOV,2023-05-30T03:55:00Z,41.22,-81.25,17.4,8.6,80,5,,10.0,30.02067,,,TRUE,TRUE,,,,,TRUE,,CLR,,,,,,,,VFR,,,,,,,,,,,,METAR,363.0
KPOE 300355Z AUTO 00000KT 10SM CLR 21/21 A2992 RMK AO2 SLP132 T02120207,KPOE,2023-05-30T03:55:00Z,31.05,-93.2,21.2,20.7,0,0,,10.0,29.920275,1013.2,,TRUE,TRUE,,,,,,,CLR,,,,,,,,VFR,,,,,,,,,,,,METAR,98.0
KPOB 300355Z AUTO 00000KT 10SM FEW005 BKN027 OVC032 18/18 A2995 RMK AO2 CIG 026 RWY23 SLP144 T01790177 $,KPOB,2023-05-30T03:55:00Z,35.17,-79.02,17.9,17.7,0,0,,10.0,29.949802,1014.4,,TRUE,TRUE,TRUE,,,,,,FEW,500,BKN,2700,OVC,3200,,,MVFR,,,,,,,,,,,,METAR,57.0
KPO1 300355Z AUTO 26010KT 10SM FEW080 18/14 A2976 RMK AO2,KPO1,2023-05-30T03:55:00Z,48.13,-105.17,18.0,14.0,260,10,,10.0,29.760826,,,TRUE,TRUE,,,,,,,FEW,8000,,,,,,,VFR,,,,,,,,,,,,METAR,621.0
KPNT 300355Z AUTO 08005KT 10SM CLR 21/04 A2998 RMK AO2 T02080039,KPNT,2023-05-30T03:55:00Z,40.92,-88.62,20.8,3.9,80,5,,10.0,29.97933,,,TRUE,TRUE,,,,,,,CLR,,,,,,,,VFR,,,,,,,,,,,,METAR,199.0
KPNM 300355Z AUTO 17003KT 10SM CLR 21/12 A2987 RMK AO2,KPNM,2023-05-30T03:55:00Z,45.53,-93.6,21.0,12.0,170,3,,10.0,29.870079,,,TRUE,TRUE,,,,,,,CLR,,,,,,,,VFR,,,,,,,,,,,,METAR,298.0
KPNA 300355Z AUTO 29008KT 10SM CLR 08/02 A3013 RMK AO2,KPNA,2023-05-30T03:55:00Z,42.8,-109.8,8.0,2.0,290,8,,10.0,30.129921,,,TRUE,TRUE,,,,,,,CLR,,,,,,,,VFR,,,,,,,,,,,,METAR,2158.0
KPMV 300355Z AUTO 17007KT 10SM CLR 23/14 A2989 RMK AO2 T02250140,KPMV,2023-05-30T03:55:00Z,40.95,-95.92,22.5,14.0,170,7,,10.0,29.890747,,,TRUE,TRUE,,,,,,,CLR,,,,,,,,VFR,,,,,,,,,,,,METAR,365.0
KPMU 300355Z AUTO 00000KT 10SM CLR 18/17 A2995 RMK AO2,KPMU,2023-05-30T03:55:00Z,34.37,-89.9,18.0,17.0,0,0,,10.0,29.949802,,,TRUE,TRUE,,,,,,,CLR,,,,,,,,VFR,,,,,,,,,,,,METAR,67.0
KPLU 300355Z AUTO 00000KT 10SM BKN040 16/08 A2993 RMK AO2,KPLU,2023-05-30T03:55:00Z,47.1,-122.28,16.0,8.0,0,0,,10.0,29.929134,,,TRUE,TRUE,,,,,,,BKN,4000,,,,,,,VFR,,,,,,,,,,,,METAR,164.0
KPLR 300355Z AUTO 00000KT 10SM CLR 15/15 A2997 RMK A01,KPLR,2023-05-30T03:55:00Z,33.57,-86.25,15.0,15.0,0,0,,10.0,29.970472,,,TRUE,TRUE,,,,,,,CLR,,,,,,,,VFR,,,,,,,,,,,,METAR,145.0
KPLD 300355Z AUTO 10004KT 10SM CLR 22/07 A2999 RMK AO2,KPLD,2023-05-30T03:55:00Z,40.45,-84.98,22.0,7.0,100,4,,10.0,29.991142,,,TRUE,TRUE,,,,,,,CLR,,,,,,,,VFR,,,,,,,,,,,,METAR,282.0
KPKV 300355Z AUTO 00000KT 10SM SCT025 25/21 A2991 RMK AO2 T02470211,KPKV,2023-05-30T03:55:00Z,28.65,-96.68,24.7,21.1,0,0,,10.0,29.911417,,,TRUE,TRUE,,,,,,,SCT,2500,,,,,,,VFR,,,,,,,,,,,,METAR,8.0
KPJC 300355Z AUTO 00000KT 10SM CLR 15/12 A3003 RMK AO2,KPJC,2023-05-30T03:55:00Z,40.8,-80.17,15.0,12.0,0,0,,10.0,30.029528,,,TRUE,TRUE,,,,,,,CLR,,,,,,,,VFR,,,,,,,,,,,,METAR,273.0
KPIM 300355Z AUTO 00000KT 10SM CLR 16/13 A2995 RMK AO2 T01560134 402420124,KPIM,2023-05-30T03:55:00Z,32.83,-84.88,15.6,13.4,0,0,,10.0,29.949802,,,TRUE,TRUE,,,,,,,CLR,,,,,,,,VFR,,,,24.2,12.4,,,,,,,METAR,274.0
KPHT 300355Z AUTO 00000KT 10SM CLR 17/15 A2995 RMK A01,KPHT,2023-05-30T03:55:00Z,36.33,-88.38,17.0,15.0,0,0,,10.0,29.949802,,,TRUE,TRUE,,,,,,,CLR,,,,,,,,VFR,,,,,,,,,,,,METAR,172.0
KPHP 300355Z AUTO 27006KT 10SM CLR 17/14 A2981 RMK AO2 SLP079 T01670139 $,KPHP,2023-05-30T03:55:00Z,44.05,-101.6,16.7,13.9,270,6,,10.0,29.811024,1007.9,,TRUE,TRUE,TRUE,,,,,,CLR,,,,,,,,VFR,,,,,,,,,,,,METAR,673.0
KPHN 300355Z AUTO 05003KT 10SM CLR 12/07 A3005 RMK AO2,KPHN,2023-05-30T03:55:00Z,42.92,-82.52,12.0,7.0,50,3,,10.0,30.050198,,,TRUE,TRUE,,,,,,,CLR,,,,,,,,VFR,,,,,,,,,,,,METAR,195.0
KPEZ 300355Z AUTO 00000KT 10SM CLR 20/19 A2991 RMK AO2 T02020190,KPEZ,2023-05-30T03:55:00Z,28.95,-98.52,20.2,19.0,0,0,,10.0,29.911417,,,TRUE,TRUE,,,,,,,CLR,,,,,,,,VFR,,,,,,,,,,,,METAR,126.0
KPEX 300355Z AUTO 15008KT 10SM CLR 21/13 A2984 RMK AO2,KPEX,2023-05-30T03:55:00Z,45.37,-94.73,21.0,13.0,150,8,,10.0,29.840551,,,TRUE,TRUE,,,,,,,CLR,,,,,,,,VFR,,,,,,,,,,,,METAR,359.0
KPEQ 300355Z AUTO 10008KT 10SM CLR 25/10 A2987 RMK AO2 T02480104,KPEQ,2023-05-30T03:55:00Z,31.38,-103.52,24.8,10.4,100,8,,10.0,29.870079,,,TRUE,TRUE,,,,,,,CLR,,,,,,,,VFR,,,,,,,,,,,,METAR,794.0
KPEA 300355Z AUTO 15005KT 10SM CLR 21/10 A2994 RMK AO2 T02140097,KPEA,2023-05-30T03:55:00Z,41.4,-92.95,21.4,9.7,150,5,,10.0,29.940945,,,TRUE,TRUE,,,,,,,CLR,,,,,,,,VFR,,,,,,,,,,,,METAR,264.0
KPDC 300355Z AUTO 00000KT 10SM CLR 17/09 A2996 RMK AO2 T01690087,KPDC,2023-05-30T03:55:00Z,43.02,-91.12,16.9,8.7,0,0,,10.0,29.958662,,,TRUE,TRUE,,,,,,,CLR,,,,,,,,VFR,,,,,,,,,,,,METAR,201.0
KPCZ 300355Z AUTO 00000KT 10SM CLR 16/10 A2999 RMK AO2 T01630104,KPCZ,2023-05-30T03:55:00Z,44.33,-89.02,16.3,10.4,0,0,,10.0,29.991142,,,TRUE,TRUE,,,,,,,CLR,,,,,,,,VFR,,,,,,,,,,,,METAR,248.0
KPCW 300355Z AUTO 08009KT 10SM CLR 19/14 A3001 RMK AO2,KPCW,2023-05-30T03:55:00Z,41.52,-82.87,19.0,14.0,80,9,,10.0,30.008858,,,TRUE,TRUE,,,,,,,CLR,,,,,,,,VFR,,,,,,,,,,,,METAR,179.0
KPCM 300355Z AUTO 00000KT 10SM CLR 23/19 A2995 RMK AO2,KPCM,2023-05-30T03:55:00Z,28.0,-82.17,23.0,19.0,0,0,,10.0,29.949802,,,TRUE,TRUE,,,,,,,CLR,,,,,,,,VFR,,,,,,,,,,,,METAR,43.0
KPBX 300355Z AUTO 17003KT 10SM BKN002 BKN070 OVC085 16/16 A3002 RMK AO2 T01600160,KPBX,2023-05-30T03:55:00Z,37.57,-82.57,16.0,16.0,170,3,,10.0,30.02067,,,TRUE,TRUE,,,,,,,BKN,200,BKN,7000,OVC,8500,,,LIFR,,,,,,,,,,,,METAR,447.0
KPBH 300355Z AUTO 00000KT 10SM CLR 12/10 A2997 RMK AO2 T01220098,KPBH,2023-05-30T03:55:00Z,45.7,-90.4,12.2,9.8,0,0,,10.0,29.970472,,,TRUE,TRUE,,,,,,,CLR,,,,,,,,VFR,,,,,,,,,,,,METAR,445.0
KPAN 300355Z AUTO 27004KT 10SM CLR 21/M03 A3008 RMK AO2 PWINO TSNO,KPAN,2023-05-30T03:55:00Z,34.25,-111.33,21.0,-3.0,270,4,,10.0,30.079725,,,TRUE,TRUE,,,TRUE,,TRUE,,CLR,,,,,,,,VFR,,,,,,,,,,,,METAR,1575.0
KPAM 300355Z AUTO 30005KT 10SM CLR 23/21 A2991 RMK AO2 SLP131 T02320205 $,KPAM,2023-05-30T03:55:00Z,30.07,-85.57,23.2,20.5,300,5,,10.0,29.911417,1013.1,,TRUE,TRUE,TRUE,,,,,,CLR,,,,,,,,VFR,,,,,,,,,,,,METAR,4.0
KP58 300355Z AUTO 00000KT 12/09 A3003 RMK AO1 SLP167 T01220094,KP58,2023-05-30T03:55:00Z,44.02,-82.8,12.2,9.4,0,0,,,30.029528,1016.7,,TRUE,TRUE,,,,,,,,,,,,,,,,,,,,,,,,,,,METAR,180.0
KP52 300355Z AUTO 22007KT 10SM CLR 21/M04 A2996 RMK AO2,KP52,2023-05-30T03:55:00Z,34.73,-112.03,21.0,-4.0,220,7,,10.0,29.958662,,,TRUE,TRUE,,,,,,,CLR,,,,,,,,VFR,,,,,,,,,,,,METAR,1085.0
KP08 300355Z AUTO 32004KT 10SM CLR 27/03 A2984 RMK AO2,KP08,2023-05-30T03:55:00Z,32.93,-111.43,27.0,3.0,320,4,,10.0,29.840551,,,TRUE,TRUE,,,,,,,CLR,,,,,,,,VFR,,,,,,,,,,,,METAR,477.0
KOZW 300355Z AUTO 00000KT 10SM CLR 16/11 A3004 RMK AO2 T01630113,KOZW,2023-05-30T03:55:00Z,42.62,-83.98,16.3,11.3,0,0,,10.0,30.041338,,,TRUE,TRUE,,,,,,,CLR,,,,,,,,VFR,,,,,,,,,,,,METAR,288.0
KOZS 300355Z AUTO 15003KT 10SM CLR 20/12 A2997 RMK AO2,KOZS,2023-05-30T03:55:00Z,37.97,-92.68,20.0,12.0,150,3,,10.0,29.970472,,,TRUE,TRUE,,,,,,,CLR,,,,,,,,VFR,,,,,,,,,,,,METAR,321.0
KOZR 300355Z AUTO 33003KT 10SM CLR 19/14 A2992 RMK AO2 SLP132 T01930143,KOZR,2023-05-30T03:55:00Z,31.28,-85.72,19.3,14.3,330,3,,10.0,29.920275,1013.2,,TRUE,TRUE,,,,,,,CLR,,,,,,,,VFR,,,,,,,,,,,,METAR,90.0
KOZA 300355Z AUTO 18008KT 10SM CLR 21/15 A2998 RMK AO2,KOZA,2023-05-30T03:55:00Z,30.73,-101.2,21.0,15.0,180,8,,10.0,29.97933,,,TRUE,TRUE,,,,,,,CLR,,,,,,,,VFR,,,,,,,,,,,,METAR,721.0
KOYM 300355Z AUTO 00000KT 10SM BKN100 OVC120 19/11 A3013 RMK AO2 PWINO,KOYM,2023-05-30T03:55:00Z,41.42,-78.5,19.0,11.0,0,0,,10.0,30.129921,,,TRUE,TRUE,,,,,TRUE,,BKN,10000,OVC,12000,,,,,VFR,,,,,,,,,,,,METAR,582.0
KOXV 300355Z AUTO 15006KT 10SM CLR 22/10 A2994 RMK AO2,KOXV,2023-05-30T03:55:00Z,41.28,-93.12,22.0,10.0,150,6,,10.0,29.940945,,,TRUE,TRUE,,,,,,,CLR,,,,,,,,VFR,,,,,,,,,,,,METAR,280.0
KOXI 300355Z AUTO 01005KT 10SM CLR 17/06 A3000 RMK AO1,KOXI,2023-05-30T03:55:00Z,41.33,-86.67,17.0,6.0,10,5,,10.0,30.0,,,TRUE,TRUE,,,,,,,CLR,,,,,,,,VFR,,,,,,,,,,,,METAR,208.0
KOWX 300355Z AUTO 05004KT 10SM CLR 17/05 A3003 RMK AO1,KOWX,2023-05-30T03:55:00Z,41.03,-83.98,17.0,5.0,50,4,,10.0,30.029528,,,TRUE,TRUE,,,,,,,CLR,,,,,,,,VFR,,,,,,,,,,,,METAR,232.0
KOWP 300355Z AUTO 00000KT 10SM CLR 24/19 A2996 RMK AO2 T02350186,KOWP,2023-05-30T03:55:00Z,36.18,-96.15,23.5,18.6,0,0,,10.0,29.958662,,,TRUE,TRUE,,,,,,,CLR,,,,,,,,VFR,,,,,,,,,,,,METAR,267.0
KOWI 300355Z AUTO 15004KT 10SM OVC070 20/16 A2993 RMK AO2 PWINO,KOWI,2023-05-30T03:55:00Z,38.53,-95.25,20.0,16.0,150,4,,10.0,29.929134,,,TRUE,TRUE,,,,,TRUE,,OVC,7000,,,,,,,VFR,,,,,,,,,,,,METAR,292.0
KOVL 300355Z AUTO 15007KT 10SM CLR 19/13 A2982 RMK AO2 LTG DSNT S AND W,KOVL,2023-05-30T03:55:00Z,44.78,-95.03,19.0,13.0,150,7,,10.0,29.819881,,,TRUE,TRUE,,,,,,,CLR,,,,,,,,VFR,,,,,,,,,,,,METAR,329.0
KOUN 300355Z AUTO 11005KT 10SM CLR 20/18 A2992 RMK AO2 T02010179,KOUN,2023-05-30T03:55:00Z,35.25,-97.47,20.1,17.9,110,5,,10.0,29.920275,,,TRUE,TRUE,,,,,,,CLR,,,,,,,,VFR,,,,,,,,,,,,METAR,359.0
KOSC 300355Z AUTO 00000KT 10SM CLR 12/04 A3004 RMK AO2 T01170043,KOSC,2023-05-30T03:55:00Z,44.45,-83.4,11.7,4.3,0,0,,10.0,30.041338,,,TRUE,TRUE,,,,,,,CLR,,,,,,,,VFR,,,,,,,,,,,,METAR,191.0
KOSA 300355Z AUTO 00000KT 10SM CLR 21/20 A2995 RMK AO2 T02090199,KOSA,2023-05-30T03:55:00Z,33.1,-94.97,20.9,19.9,0,0,,10.0,29.949802,,,TRUE,TRUE,,,,,,,CLR,,,,,,,,VFR,,,,,,,,,,,,METAR,108.0
KORS 300355Z AUTO 18015G21KT 10SM CLR 13/08 A2986 RMK AO2,KORS,2023-05-30T03:55:00Z,48.7,-122.92,13.0,8.0,180,15,21,10.0,29.861221,,,TRUE,TRUE,,,,,,,CLR,,,,,,,,VFR,,,,,,,,,,,,METAR,7.0
KORK 300355Z AUTO 00000KT 10SM SCT050 BKN065 22/15 A2995 RMK AO2,KORK,2023-05-30T03:55:00Z,34.83,-92.25,22.0,15.0,0,0,,10.0,29.949802,,,TRUE,TRUE,,,,,,,SCT,5000,BKN,6500,,,,,VFR,,,,,,,,,,,,METAR,166.0
KORG 300355Z AUTO 00000KT 10SM CLR 23/20 A2995 RMK AO2 T02260201,KORG,2023-05-30T03:55:00Z,30.07,-93.8,22.6,20.1,0,0,,10.0,29.949802,,,TRUE,TRUE,,,,,,,CLR,,,,,,,,VFR,,,,,,,,,,,,METAR,2.0
KOQN 300355Z AUTO 07005KT 10SM CLR 16/05 A3015 RMK AO2 LTG DSNT SE AND SW,KOQN,2023-05-30T03:55:00Z,39.98,-75.58,16.0,5.0,70,5,,10.0,30.15059,,,TRUE,TRUE,,,,,,,CLR,,,,,,,,VFR,,,,,,,,,,,,METAR,141.0
KOPN 300355Z AUTO 34003KT 10SM CLR 16/11 A2996 RMK AO2,KOPN,2023-05-30T03:55:00Z,32.95,-84.27,16.0,11.0,340,3,,10.0,29.958662,,,TRUE,TRUE,,,,,,,CLR,,,,,,,,VFR,,,,,,,,,,,,METAR,241.0
KOPL 300355Z AUTO 00000KT 10SM CLR 22/18 A2994 RMK AO2 T02210179,KOPL,2023-05-30T03:55:00Z,30.55,-92.1,22.1,17.9,0,0,,10.0,29.940945,,,TRUE,TRUE,,,,,,,CLR,,,,,,,,VFR,,,,,,,,,,,,METAR,22.0
KOOA 300355Z AUTO 14007KT 10SM CLR 21/07 A2996 RMK AO2 T02060067,KOOA,2023-05-30T03:55:00Z,41.23,-92.5,20.6,6.7,140,7,,10.0,29.958662,,,TRUE,TRUE,,,,,,,CLR,,,,,,,,VFR,,,,,,,,,,,,METAR,256.0
KONZ 300355Z AUTO 05003KT 10SM CLR 18/08 A3002 RMK AO2 T01760080,KONZ,2023-05-30T03:55:00Z,42.1,-83.15,17.6,8.0,50,3,,10.0,30.02067,,,TRUE,TRUE,,,,,,,CLR,,,,,,,,VFR,,,,,,,,,,,,METAR,179.0
KONP 300355Z AUTO 35011G20KT 10SM CLR 10/07 A3002 RMK AO2,KONP,2023-05-30T03:55:00Z,44.57,-124.05,10.0,7.0,350,11,20,10.0,30.02067,,,TRUE,TRUE,,,,,,,CLR,,,,,,,,VFR,,,,,,,,,,,,METAR,43.0
KONM 300355Z AUTO 30003KT 10SM CLR 24/M05 A2999 RMK AO2 T02381050,KONM,2023-05-30T03:55:00Z,34.02,-106.9,23.8,-5.0,300,3,,10.0,29.991142,,,TRUE,TRUE,,,,,,,CLR,,,,,,,,VFR,,,,,,,,,,,,METAR,1467.0
KONL 300355Z AUTO 22012G21KT 10SM BKN110 21/11 A2987 RMK AO2 LTG DSNT S T02110110,KONL,2023-05-30T03:55:00Z,42.47,-98.68,21.1,11.0,220,12,21,10.0,29.870079,,,TRUE,TRUE,,,,,,,BKN,11000,,,,,,,VFR,,,,,,,,,,,,METAR,619.0
KONA 300355Z AUTO 15006KT 10SM CLR 20/08 A2993 RMK AO2,KONA,2023-05-30T03:55:00Z,44.07,-91.7,20.0,8.0,150,6,,10.0,29.929134,,,TRUE,TRUE,,,,,,,CLR,,,,,,,,VFR,,,,,,,,,,,,METAR,200.0
KOMH 300355Z AUTO 04005KT 7SM OVC004 18/18 A3007 RMK AO2 LTG DSNT NE,KOMH,2023-05-30T03:55:00Z,38.25,-78.05,18.0,18.0,40,5,,7.0,30.070866,,,TRUE,TRUE,,,,,,,OVC,400,,,,,,,LIFR,,,,,,,,,,,,METAR,136.0
KOLZ 300355Z AUTO 15007KT 10SM CLR 19/04 A2995 RMK A01,KOLZ,2023-05-30T03:55:00Z,42.67,-91.97,19.0,4.0,150,7,,10.0,29.949802,,,TRUE,TRUE,,,,,,,CLR,,,,,,,,VFR,,,,,,,,,,,,METAR,328.0
KOLV 300355Z AUTO 00000KT 10SM FEW055 19/13 A2995 RMK A01,KOLV,2023-05-30T03:55:00Z,34.98,-89.78,19.0,13.0,0,0,,10.0,29.949802,,,TRUE,TRUE,,,,,,,FEW,5500,,,,,,,VFR,,,,,,,,,,,,METAR,124.0
KOLG 300355Z AUTO 14005KT 10SM CLR 18/04 A2991 RMK AO1,KOLG,2023-05-30T03:55:00Z,46.3,-91.82,18.0,4.0,140,5,,10.0,29.911417,,,TRUE,TRUE,,,,,,,CLR,,,,,,,,VFR,,,,,,,,,,,,METAR,334.0
KOKZ 300355Z AUTO 00000KT 10SM CLR 15/14 A2993 RMK AO2 T01470138,KOKZ,2023-05-30T03:55:00Z,32.97,-82.83,14.7,13.8,0,0,,10.0,29.929134,,,TRUE,TRUE,,,,,,,CLR,,,,,,,,VFR,,,,,,,,,,,,METAR,128.0
KOKV 300355Z AUTO 00000KT 10SM SCT015 SCT022 OVC044 16/14 A3008 RMK AO2 LTG DSNT E,KOKV,2023-05-30T03:55:00Z,39.13,-78.15,16.0,14.0,0,0,,10.0,30.079725,,,TRUE,TRUE,,,,,,,SCT,1500,SCT,2200,OVC,4400,,,VFR,,,,,,,,,,,,METAR,213.0
KOKM 300355Z AUTO 20007KT 10SM CLR 22/21 A2993 RMK AO2 T02160206,KOKM,2023-05-30T03:55:00Z,35.67,-95.95,21.6,20.6,200,7,,10.0,29.929134,,,TRUE,TRUE,,,,,,,CLR,,,,,,,,VFR,,,,,,,,,,,,METAR,215.0
KOJA 300355Z AUTO 15005KT 10SM CLR 20/18 A2994 RMK AO2 T02010179,KOJA,2023-05-30T03:55:00Z,35.55,-98.67,20.1,17.9,150,5,,10.0,29.940945,,,TRUE,TRUE,,,,,,,CLR,,,,,,,,VFR,,,,,,,,,,,,METAR,490.0
KOIN 300355Z AUTO 34011G22KT 7SM BKN075 OVC085 17/13 A3003 RMK AO1 T01690133,KOIN,2023-05-30T03:55:00Z,39.83,-100.53,16.9,13.3,340,11,22,7.0,30.029528,,,TRUE,TRUE,,,,,,,BKN,7500,OVC,8500,,,,,VFR,,,,,,,,,,,,METAR,810.0
KOIC 300355Z AUTO 18004KT 10SM CLR 18/09 A3014 RMK AO2 T01800089 PWINO,KOIC,2023-05-30T03:55:00Z,42.57,-75.52,18.0,8.9,180,4,,10.0,30.138779,,,TRUE,TRUE,,,,,TRUE,,CLR,,,,,,,,VFR,,,,,,,,,,,,METAR,311.0
KOGS 300355Z AUTO 05003KT 10SM CLR 13/04 A3006 RMK AO2,KOGS,2023-05-30T03:55:00Z,44.67,-75.47,13.0,4.0,50,3,,10.0,30.059055,,,TRUE,TRUE,,,,,,,CLR,,,,,,,,VFR,,,,,,,,,,,,METAR,88.0
KOGA 300355Z AUTO 16010G15KT 10SM -RA SCT045 SCT080 BKN110 19/11 A2988 RMK AO2 LTG DSNT S AND SW P0001 T01940108,KOGA,2023-05-30T03:55:00Z,41.12,-101.77,19.4,10.8,160,10,15,10.0,29.878937,,,TRUE,TRUE,,,,,,-RA,SCT,4500,SCT,8000,BKN,11000,,,VFR,,,,,,0.01,,,,,,METAR,991.0
KOFF 300355Z 15007KT 10SM CLR 24/14 A2990 RMK AO2A SLP121 T02370135 PWINO PNO FZRANO TSNO CHINO RWY31 $,KOFF,2023-05-30T03:55:00Z,41.12,-95.92,23.7,13.5,150,7,,10.0,29.899607,1012.1,,,TRUE,TRUE,,TRUE,TRUE,TRUE,,CLR,,,,,,,,VFR,,,,,,,,,,,,METAR,308.0
KOEO 300355Z AUTO 13008KT 10SM CLR 22/10 A2991 RMK AO2 T02200096,KOEO,2023-05-30T03:55:00Z,45.32,-92.7,22.0,9.6,130,8,,10.0,29.911417,,,TRUE,TRUE,,,,,,,CLR,,,,,,,,VFR,,,,,,,,,,,,METAR,269.0
KOEL 300355Z AUTO 20004KT 10SM CLR 17/12 A2994 RMK AO1 T01720120,KOEL,2023-05-30T03:55:00Z,39.12,-100.82,17.2,12.0,200,4,,10.0,29.940945,,,TRUE,TRUE,,,,,,,CLR,,,,,,,,VFR,,,,,,,,,,,,METAR,924.0
KOEB 300355Z AUTO 00000KT 10SM CLR 17/11 A3002 RMK AO2 T01720112,KOEB,2023-05-30T03:55:00Z,41.92,-85.05,17.2,11.2,0,0,,10.0,30.02067,,,TRUE,TRUE,,,,,,,CLR,,,,,,,,VFR,,,,,,,,,,,,METAR,291.0
KOBE 300355Z AUTO 00000KT 10SM CLR 21/19 A2991 RMK AO2,KOBE,2023-05-30T03:55:00Z,27.27,-80.85,21.0,19.0,0,0,,10.0,29.911417,,,TRUE,TRUE,,,,,,,CLR,,,,,,,,VFR,,,,,,,,,,,,METAR,11.0
KOAR 300355Z AUTO 32004KT 10SM SCT011 12/10 A3000 RMK AO2 PWINO,KOAR,2023-05-30T03:55:00Z,36.67,-121.77,12.0,10.0,320,4,,10.0,30.0,,,TRUE,TRUE,,,,,TRUE,,SCT,1100,,,,,,,VFR,,,,,,,,,,,,METAR,41.0
KO86 300355Z AUTO 00000KT 10SM 19/15 A2989 RMK A01,KO86,2023-05-30T03:55:00Z,40.98,-122.7,19.0,15.0,0,0,,10.0,29.890747,,,TRUE,TRUE,,,,,,,,,,,,,,,,,,,,,,,,,,,METAR,729.0
KO69 300355Z AUTO 25003KT 10SM SCT022 12/09 A2999 RMK A01,KO69,2023-05-30T03:55:00Z,38.25,-122.6,12.0,9.0,250,3,,10.0,29.991142,,,TRUE,TRUE,,,,,,,SCT,2200,,,,,,,VFR,,,,,,,,,,,,METAR,26.0
KO32 300355Z AUTO 33008KT 9SM -RA CLR 23/11 A2985 RMK AO2 P0000 T02250112 $,KO32,2023-05-30T03:55:00Z,36.67,-119.45,22.5,11.2,330,8,,9.0,29.84941,,,TRUE,TRUE,TRUE,,,,,-RA,CLR,,,,,,,,VFR,,,,,,0.005,,,,,,METAR,117.0
KO22 300355Z AUTO 00000KT 10SM BKN065 17/09 A2993 RMK A01,KO22,2023-05-30T03:55:00Z,38.03,-120.42,17.0,9.0,0,0,,10.0,29.929134,,,TRUE,TRUE,,,,,,,BKN,6500,,,,,,,VFR,,,,,,,,,,,,METAR,637.0
KNUQ 300355Z AUTO 04006KT 10SM CLR 16/10 A2995 RMK AO2,KNUQ,2023-05-30T03:55:00Z,37.4,-122.05,16.0,10.0,40,6,,10.0,29.949802,,,TRUE,TRUE,,,,,,,CLR,,,,,,,,VFR,,,,,,,,,,,,METAR,9.0
KNTD 300355Z AUTO 28007KT 5SM HZ OVC037 16/12 A2999 RMK AO2 SLP158 T01560122 CHINO S VISNO S $,KNTD,2023-05-30T03:55:00Z,34.12,-119.12,15.6,12.2,280,7,,5.0,29.991142,1015.8,,TRUE,TRUE,TRUE,,,,,HZ,OVC,3700,,,,,,,MVFR,,,,,,,,,,,,METAR,1.0
KNRN 300355Z AUTO 36026G37KT 10SM SCT050 SCT065 BKN095 22/10 A3000 RMK AO2,KNRN,2023-05-30T03:55:00Z,39.85,-99.9,22.0,10.0,360,26,37,10.0,30.0,,,TRUE,TRUE,,,,,,,SCT,5000,SCT,6500,BKN,9500,,,VFR,,,,,,,,,,,,METAR,726.0
KNOW 300355Z AUTO 28015KT 10SM CLR 11/09 A2995 RMK AO2 T01100087,KNOW,2023-05-30T03:55:00Z,48.13,-123.4,11.0,8.7,280,15,,10.0,29.949802,,,TRUE,TRUE,,,,,,,CLR,,,,,,,,VFR,,,,,,,,,,,,METAR,3.0
KNKX 300355Z 27004KT 10SM OVC024 15/12 A2998 RMK AO2 SLP149 T01500122 $,KNKX,2023-05-30T03:55:00Z,32.87,-117.13,15.0,12.2,270,4,,10.0,29.97933,1014.9,,,TRUE,TRUE,,,,,,OVC,2400,,,,,,,MVFR,,,,,,,,,,,,METAR,138.0
KNBG 300355Z AUTO 00000KT 10SM FEW095 22/19 A2991 RMK AO2 SLP128 T02170194 $,KNBG,2023-05-30T03:55:00Z,29.83,-90.02,21.7,19.4,0,0,,10.0,29.911417,1012.8,,TRUE,TRUE,TRUE,,,,,,FEW,9500,,,,,,,VFR,,,,,,,,,,,,METAR,0.0
KN79 300355Z AUTO 11007KT 10SM CLR 17/05 A3013 RMK AO2 RAE0353 P0000 T01700053,KN79,2023-05-30T03:55:00Z,,,17.0,5.3,110,7,,10.0,30.129921,,,TRUE,TRUE,,,,,,,CLR,,,,,,,,VFR,,,,,,0.005,,,,,,METAR,
KN38 300355Z AUTO 8/08333308KT 10SM CLR 19/10 A3012 RMK AO2,KN38,2023-05-30T03:55:00Z,41.73,-77.4,19.0,10.0,83,0,,10.0,30.121063,,,TRUE,TRUE,,,,,,,CLR,,,,,,,,VFR,,,,,,,,,,,,METAR,576.0
KN03 300355Z AUTO 13003KT 10SM CLR 20/08 A3010 RMK AO2,KN03,2023-05-30T03:55:00Z,42.6,-76.22,20.0,8.0,130,3,,10.0,30.100393,,,TRUE,TRUE,,,,,,,CLR,,,,,,,,VFR,,,,,,,,,,,,METAR,361.0
KMZZ 300355Z AUTO 07005KT 10SM CLR 21/10 A2999 RMK AO2 T02090103,KMZZ,2023-05-30T03:55:00Z,40.48,-85.68,20.9,10.3,70,5,,10.0,29.991142,,,TRUE,TRUE,,,,,,,CLR,,,,,,,,VFR,,,,,,,,,,,,METAR,260.0
KMZH 300355Z AUTO 04003KT 10SM CLR 13/06 A2989 RMK AO2,KMZH,2023-05-30T03:55:00Z,46.42,-92.8,13.0,6.0,40,3,,10.0,29.890747,,,TRUE,TRUE,,,,,,,CLR,,,,,,,,VFR,,,,,,,,,,,,METAR,331.0
KMYZ 300355Z AUTO 17003KT 10SM CLR 21/15 A2992 RMK AO2,KMYZ,2023-05-30T03:55:00Z,39.85,-96.63,21.0,15.0,170,3,,10.0,29.920275,,,TRUE,TRUE,,,,,,,CLR,,,,,,,,VFR,,,,,,,,,,,,METAR,388.0
KMYJ 300355Z AUTO 00000KT 10SM CLR 17/11 A2997 RMK AO2,KMYJ,2023-05-30T03:55:00Z,39.15,-91.82,17.0,11.0,0,0,,10.0,29.970472,,,TRUE,TRUE,,,,,,,CLR,,,,,,,,VFR,,,,,,,,,,,,METAR,249.0
KMXF 300355Z AUTO 35004KT 10SM CLR 19/13 A2992 RMK AO2 SLP133 T01880134,KMXF,2023-05-30T03:55:00Z,32.38,-86.37,18.8,13.4,350,4,,10.0,29.920275,1013.3,,TRUE,TRUE,,,,,,,CLR,,,,,,,,VFR,,,,,,,,,,,,METAR,47.0
KMWO 300355Z AUTO 00000KT 10SM OVC090 17/11 A2999 RMK AO2 T01730114,KMWO,2023-05-30T03:55:00Z,39.53,-84.4,17.3,11.4,0,0,,10.0,29.991142,,,TRUE,TRUE,,,,,,,OVC,9000,,,,,,,VFR,,,,,,,,,,,,METAR,197.0
KMWN 300355Z 30011KT 80SM SCT140 BKN200 07/M04 RMK,KMWN,2023-05-30T03:55:00Z,44.27,-71.3,7.0,-4.0,300,11,,80.0,,,,,,,,,,,,SCT,14000,BKN,20000,,,,,VFR,,,,,,,,,,,,METAR,1911.0
KMWM 300355Z AUTO 15017G25KT 10SM -RA CLR 19/15 A2984 RMK AO2 LTG DSNT W,KMWM,2023-05-30T03:55:00Z,43.9,-95.1,19.0,15.0,150,17,25,10.0,29.840551,,,TRUE,TRUE,,,,,,-RA,CLR,,,,,,,,VFR,,,,,,,,,,,,METAR,427.0
KMWA 300355Z AUTO 00000KT 10SM CLR 18/12 A2997 RMK AO2 T01750117,KMWA,2023-05-30T03:55:00Z,37.77,-89.02,17.5,11.7,0,0,,10.0,29.970472,,,TRUE,TRUE,,,,,,,CLR,,,,,,,,VFR,,,,,,,,,,,,METAR,142.0
KMVE 300355Z AUTO 18016G22KT 5SM /VCTSRA SCT016 BKN070 OVC095 20/16 A2982 RMK AO2 LTG DSNT ALQDS P0002,KMVE,2023-05-30T03:55:00Z,44.97,-95.72,20.0,16.0,180,16,22,5.0,29.819881,,,TRUE,TRUE,,,,,,VCTS RA,SCT,1600,BKN,7000,OVC,9500,,,MVFR,,,,,,0.02,,,,,,METAR,319.0
KMUT 300355Z AUTO 00000KT 10SM CLR 18/11 A2996 RMK AO2,KMUT,2023-05-30T03:55:00Z,41.37,-91.15,18.0,11.0,0,0,,10.0,29.958662,,,TRUE,TRUE,,,,,,,CLR,,,,,,,,VFR,,,,,,,,,,,,METAR,166.0
KMUO 300355Z AUTO 20012KT 10SM BKN120 21/08 A2982 RMK AO2 SLP077 T02080081 $,KMUO,2023-05-30T03:55:00Z,43.03,-115.87,20.8,8.1,200,12,,10.0,29.819881,1007.7,,TRUE,TRUE,TRUE,,,,,,BKN,12000,,,,,,,VFR,,,,,,,,,,,,METAR,915.0
KMUI 300355Z AUTO 09006KT 10SM CLR 17/04 A3014 RMK AO2 SLP207 T01650042 TSNO $,KMUI,2023-05-30T03:55:00Z,40.43,-76.57,16.5,4.2,90,6,,10.0,30.138779,1020.7,,TRUE,TRUE,TRUE,,TRUE,,,,CLR,,,,,,,,VFR,,,,,,,,,,,,METAR,146.0
KMTV 300355Z AUTO 00000KT 10SM BKN013 OVC024 17/16 A3004 RMK AO2 T01700155,KMTV,2023-05-30T03:55:00Z,36.63,-80.02,17.0,15.5,0,0,,10.0,30.041338,,,TRUE,TRUE,,,,,,,BKN,1300,OVC,2400,,,,,MVFR,,,,,,,,,,,,METAR,276.0
KMTC 300355Z AUTO 01004KT 10SM CLR 15/08 A3001 RMK AO2 SLP165 T01530078 $,KMTC,2023-05-30T03:55:00Z,42.62,-82.83,15.3,7.8,10,4,,10.0,30.008858,1016.5,,TRUE,TRUE,TRUE,,,,,,CLR,,,,,,,,VFR,,,,,,,,,,,,METAR,177.0
KMRJ 300355Z AUTO 11003KT 10SM CLR 22/01 A3001 RMK AO2 PWINO,KMRJ,2023-05-30T03:55:00Z,42.88,-90.23,22.0,1.0,110,3,,10.0,30.008858,,,TRUE,TRUE,,,,,TRUE,,CLR,,,,,,,,VFR,,,,,,,,,,,,METAR,350.0
KMQW 300355Z AUTO 00000KT 10SM CLR 17/15 A2992 RMK AO2 T01660145,KMQW,2023-05-30T03:55:00Z,32.1,-82.88,16.6,14.5,0,0,,10.0,29.920275,,,TRUE,TRUE,,,,,,,CLR,,,,,,,,VFR,,,,,,,,,,,,METAR,62.0
KMQS 300355Z AUTO 07005G15KT 10SM 15/06 A3015 RMK AO2,KMQS,2023-05-30T03:55:00Z,39.98,-75.87,15.0,6.0,70,5,15,10.0,30.15059,,,TRUE,TRUE,,,,,,,,,,,,,,,,,,,,,,,,,,,METAR,200.0
KMQJ 300355Z AUTO 00000KT 10SM CLR 16/12 A2997 RMK AO1,KMQJ,2023-05-30T03:55:00Z,39.85,-85.9,16.0,12.0,0,0,,10.0,29.970472,,,TRUE,TRUE,,,,,,,CLR,,,,,,,,VFR,,,,,,,,,,,,METAR,262.0
KMQB 300355Z AUTO 00000KT 10SM CLR 19/09 A2999 RMK AO2 T01870088,KMQB,2023-05-30T03:55:00Z,40.52,-90.65,18.7,8.8,0,0,,10.0,29.991142,,,TRUE,TRUE,,,,,,,CLR,,,,,,,,VFR,,,,,,,,,,,,METAR,205.0
KMPZ 300355Z AUTO 17003KT 10SM CLR 18/10 A2997 RMK AO2,KMPZ,2023-05-30T03:55:00Z,40.95,-91.52,18.0,10.0,170,3,,10.0,29.970472,,,TRUE,TRUE,,,,,,,CLR,,,,,,,,VFR,,,,,,,,,,,,METAR,222.0
KMPR 300355Z AUTO 14007KT 10SM CLR 21/18 A2993 RMK AO2 T02120175,KMPR,2023-05-30T03:55:00Z,38.35,-97.68,21.2,17.5,140,7,,10.0,29.929134,,,TRUE,TRUE,,,,,,,CLR,,,,,,,,VFR,,,,,,,,,,,,METAR,455.0
KMOX 300355Z AUTO 17020KT 10SM SCT090 SCT110 21/12 A2978 RMK AO2 LTG DSNT N SE AND S,KMOX,2023-05-30T03:55:00Z,45.57,-95.97,21.0,12.0,170,20,,10.0,29.778543,,,TRUE,TRUE,,,,,,,SCT,9000,SCT,11000,,,,,VFR,,,,,,,,,,,,METAR,346.0
KMOP 300355Z AUTO 00000KT 10SM CLR 15/06 A3003 RMK AO2 T01460063,KMOP,2023-05-30T03:55:00Z,43.62,-84.73,14.6,6.3,0,0,,10.0,30.029528,,,TRUE,TRUE,,,,,,,CLR,,,,,,,,VFR,,,,,,,,,,,,METAR,229.0
KMNZ 300355Z AUTO 00000KT 10SM CLR 20/18 A2997 RMK AO2 T02000182,KMNZ,2023-05-30T03:55:00Z,31.67,-98.15,20.0,18.2,0,0,,10.0,29.970472,,,TRUE,TRUE,,,,,,,CLR,,,,,,,,VFR,,,,,,,,,,,,METAR,397.0
KMNV 300355Z AUTO 00000KT 10SM 15/15 A2998 RMK A01,KMNV,2023-05-30T03:55:00Z,35.55,-84.38,15.0,15.0,0,0,,10.0,29.97933,,,TRUE,TRUE,,,,,,,,,,,,,,,,,,,,,,,,,,,METAR,306.0
KMNI 300355Z AUTO 15003KT 10SM CLR 17/16 A2993 RMK AO2,KMNI,2023-05-30T03:55:00Z,33.58,-80.22,17.0,16.0,150,3,,10.0,29.929134,,,TRUE,TRUE,,,,,,,CLR,,,,,,,,VFR,,,,,,,,,,,,METAR,29.0
KMMU 300355Z AUTO 00000KT 10SM CLR 14/09 A3018 RMK AO2 LTG DSNT S,KMMU,2023-05-30T03:55:00Z,40.78,-74.42,14.0,9.0,0,0,,10.0,30.180119,,,TRUE,TRUE,,,,,,,CLR,,,,,,,,VFR,,,,,,,,,,,,METAR,55.0
KMMI 300355Z AUTO 00000KT 10SM CLR 15/14 A3000 RMK A01,KMMI,2023-05-30T03:55:00Z,35.4,-84.57,15.0,14.0,0,0,,10.0,30.0,,,TRUE,TRUE,,,,,,,CLR,,,,,,,,VFR,,,,,,,,,,,,METAR,252.0
KMMH 300355Z AUTO 23003KT 10SM CLR 10/02 A3005 RMK AO2 T01040023,KMMH,2023-05-30T03:55:00Z,37.62,-118.83,10.4,2.3,230,3,,10.0,30.050198,,,TRUE,TRUE,,,,,,,CLR,,,,,,,,VFR,,,,,,,,,,,,METAR,2167.0
KMLJ 300355Z AUTO 00000KT 10SM CLR 17/16 A2992 RMK AO2,KMLJ,2023-05-30T03:55:00Z,33.15,-83.25,17.0,16.0,0,0,,10.0,29.920275,,,TRUE,TRUE,,,,,,,CLR,,,,,,,,VFR,,,,,,,,,,,,METAR,115.0
KMLE 300355Z AUTO 16007KT 10SM CLR 25/14 A2988 RMK AO2 T02490143,KMLE,2023-05-30T03:55:00Z,41.2,-96.12,24.9,14.3,160,7,,10.0,29.878937,,,TRUE,TRUE,,,,,,,CLR,,,,,,,,VFR,,,,,,,,,,,,METAR,318.0
KMKS 300355Z AUTO 00000KT 10SM SCT075 SCT090 18/17 A2993 RMK AO2,KMKS,2023-05-30T03:55:00Z,33.18,-80.03,18.0,17.0,0,0,,10.0,29.929134,,,TRUE,TRUE,,,,,,,SCT,7500,SCT,9000,,,,,VFR,,,,,,,,,,,,METAR,22.0
KMKN 300355Z AUTO 20004KT 10SM 20/17 A2995 RMK AO2 T01950167,KMKN,2023-05-30T03:55:00Z,31.92,-98.6,19.5,16.7,200,4,,10.0,29.949802,,,TRUE,TRUE,,,,,,,,,,,,,,,,,,,,,,,,,,,METAR,428.0
KMKJ 300355Z AUTO 00000KT 10SM SCT008 SCT023 BKN050 14/14 A3008 RMK AO2 LTG DSNT W T01380135,KMKJ,2023-05-30T03:55:00Z,36.88,-81.33,13.8,13.5,0,0,,10.0,30.079725,,,TRUE,TRUE,,,,,,,SCT,800,SCT,2300,BKN,5000,,,VFR,,,,,,,,,,,,METAR,777.0
KMKG 300355Z AUTO 00000KT 10SM CLR 18/08 A3001 RMK AO2 SLP159 T01830078 $,KMKG,2023-05-30T03:55:00Z,43.17,-86.23,18.3,7.8,0,0,,10.0,30.008858,1015.9,,TRUE,TRUE,TRUE,,,,,,CLR,,,,,,,,VFR,,,,,,,,,,,,METAR,190.0
KMJQ 300355Z AUTO 15013G19KT 10SM SCT032 SCT045 BKN080 18/15 A2988 RMK AO2 PWINO P0001,KMJQ,2023-05-30T03:55:00Z,43.63,-94.98,18.0,15.0,150,13,19,10.0,29.878937,,,TRUE,TRUE,,,,,TRUE,,SCT,3200,SCT,4500,BKN,8000,,,VFR,,,,,,0.01,,,,,,METAR,439.0
KMJD 300355Z AUTO 01005KT 10SM SCT033 OVC050 25/22 A2992 RMK AO2,KMJD,2023-05-30T03:55:00Z,30.48,-89.65,25.0,22.0,10,5,,10.0,29.920275,,,TRUE,TRUE,,,,,,,SCT,3300,OVC,5000,,,,,VFR,,,,,,,,,,,,METAR,17.0
KMIO 300355Z AUTO 00000KT 10SM FEW050 FEW055 21/17 A2994 RMK AO2,KMIO,2023-05-30T03:55:00Z,36.92,-94.88,21.0,17.0,0,0,,10.0,29.940945,,,TRUE,TRUE,,,,,,,FEW,5000,FEW,5500,,,,,VFR,,,,,,,,,,,,METAR,245.0
KMIB 300355Z 24003KT 10SM BKN100 BKN140 17/13 A2969 RMK AO2A SLP056 T01720133 $,KMIB,2023-05-30T03:55:00Z,48.42,-101.35,17.2,13.3,240,3,,10.0,29.68996,1005.6,,,TRUE,TRUE,,,,,,BKN,10000,BKN,14000,,,,,VFR,,,,,,,,,,,,METAR,505.0
KMHR 300355Z AUTO 21008G13KT 10SM FEW100 17/09 A2990 RMK AO2,KMHR,2023-05-30T03:55:00Z,38.55,-121.28,17.0,9.0,210,8,13,10.0,29.899607,,,TRUE,TRUE,,,,,,,FEW,10000,,,,,,,VFR,,,,,,,,,,,,METAR,30.0
KMHP 300355Z AUTO 36004KT 10SM CLR 19/ A2991 RMK AO2 T0188////,KMHP,2023-05-30T03:55:00Z,32.37,-82.08,18.8,,360,4,,10.0,29.911417,,,TRUE,TRUE,,,,,,,CLR,,,,,,,,VFR,,,,,,,,,,,,METAR,60.0
KMHL 300355Z AUTO 11005KT 10SM CLR 21/12 A2996 RMK AO2,KMHL,2023-05-30T03:55:00Z,39.1,-93.2,21.0,12.0,110,5,,10.0,29.958662,,,TRUE,TRUE,,,,,,,CLR,,,,,,,,VFR,,,,,,,,,,,,METAR,236.0
KMGR 300355Z AUTO 32003KT 10SM CLR 21/16 A2991 RMK AO2 T02070159,KMGR,2023-05-30T03:55:00Z,31.08,-83.8,20.7,15.9,320,3,,10.0,29.911417,,,TRUE,TRUE,,,,,,,CLR,,,,,,,,VFR,,,,,,,,,,,,METAR,86.0
KMGN 300355Z AUTO 00000KT 10SM CLR 18/08 A3001 RMK AO2 T01820081,KMGN,2023-05-30T03:55:00Z,45.43,-84.92,18.2,8.1,0,0,,10.0,30.008858,,,TRUE,TRUE,,,,,,,CLR,,,,,,,,VFR,,,,,,,,,,,,METAR,205.0
KMGG 300355Z AUTO 15003KT 10SM CLR 22/11 A2986 RMK AO2 T02200112 403050175,KMGG,2023-05-30T03:55:00Z,45.23,-93.98,22.0,11.2,150,3,,10.0,29.861221,,,TRUE,TRUE,,,,,,,CLR,,,,,,,,VFR,,,,30.5,17.5,,,,,,,METAR,310.0
KMGE 300355Z AUTO 27007KT 10SM CLR 16/13 A2994 RMK AO2 SLP135 T01600127 $,KMGE,2023-05-30T03:55:00Z,33.92,-84.52,16.0,12.7,270,7,,10.0,29.940945,1013.5,,TRUE,TRUE,TRUE,,,,,,CLR,,,,,,,,VFR,,,,,,,,,,,,METAR,309.0
KMGC 300355Z AUTO 00000KT 10SM CLR 13/07 A3002 RMK AO2,KMGC,2023-05-30T03:55:00Z,41.7,-86.82,13.0,7.0,0,0,,10.0,30.02067,,,TRUE,TRUE,,,,,,,CLR,,,,,,,,VFR,,,,,,,,,,,,METAR,199.0
KMFV 300355Z AUTO 06012G16KT 7SM OVC005 15/15 A3002 RMK AO2 LTG DSNT N THRU SE T01520146,KMFV,2023-05-30T03:55:00Z,37.63,-75.77,15.2,14.6,60,12,16,7.0,30.02067,,,TRUE,TRUE,,,,,,,OVC,500,,,,,,,IFR,,,,,,,,,,,,METAR,13.0
KMEZ 300355Z AUTO 00000KT 10SM CLR 17/17 A2997 RMK AO2 T01730173,KMEZ,2023-05-30T03:55:00Z,34.55,-94.2,17.3,17.3,0,0,,10.0,29.970472,,,TRUE,TRUE,,,,,,,CLR,,,,,,,,VFR,,,,,,,,,,,,METAR,320.0
KMEV 300355Z AUTO 09005KT 10SM BKN110 13/08 A2998 RMK AO2,KMEV,2023-05-30T03:55:00Z,38.98,-119.75,13.0,8.0,90,5,,10.0,29.97933,,,TRUE,TRUE,,,,,,,BKN,11000,,,,,,,VFR,,,,,,,,,,,,METAR,1437.0
KMDZ 300355Z AUTO 14003KT 10SM CLR 16/06 A2998 RMK AO2 T01640059 PWINO,KMDZ,2023-05-30T03:55:00Z,45.1,-90.3,16.4,5.9,140,3,,10.0,29.97933,,,TRUE,TRUE,,,,,TRUE,,CLR,,,,,,,,VFR,,,,,,,,,,,,METAR,446.0
KMDS 300355Z AUTO 12008KT 10SM CLR 22/14 A2978 RMK AO2 LTG DSNT SE AND NW,KMDS,2023-05-30T03:55:00Z,44.02,-97.08,22.0,14.0,120,8,,10.0,29.778543,,,TRUE,TRUE,,,,,,,CLR,,,,,,,,VFR,,,,,,,,,,,,METAR,524.0
KMDQ 300355Z AUTO 00000KT 10SM CLR 16/14 A2998 RMK A02 T01580143,KMDQ,2023-05-30T03:55:00Z,34.87,-86.55,15.8,14.3,0,0,,10.0,29.97933,,,TRUE,TRUE,,,,,,,CLR,,,,,,,,VFR,,,,,,,,,,,,METAR,221.0
KMDD 300355Z AUTO 13011G15KT 10SM CLR 26/13 A2994 RMK AO2 T02650133,KMDD,2023-05-30T03:55:00Z,32.03,-102.1,26.5,13.3,130,11,15,10.0,29.940945,,,TRUE,TRUE,,,,,,,CLR,,,,,,,,VFR,,,,,,,,,,,,METAR,853.0
KMCJ 300355Z AUTO 13005KT 10SM FEW030 SCT038 BKN055 25/20 A2993 RMK A01,KMCJ,2023-05-30T03:55:00Z,29.72,-95.4,25.0,20.0,130,5,,10.0,29.929134,,,TRUE,TRUE,,,,,,,FEW,3000,SCT,3800,BKN,5500,,,VFR,,,,,,,,,,,,METAR,70.0
KMCF 300355Z AUTO 02003KT 10SM CLR 21/18 A2989 RMK AO2 SLP124 T02140176 FZRANO $,KMCF,2023-05-30T03:55:00Z,27.85,-82.52,21.4,17.6,20,3,,10.0,29.890747,1012.4,,TRUE,TRUE,TRUE,,,TRUE,,,CLR,,,,,,,,VFR,,,,,,,,,,,,METAR,3.0
KMCD 300355Z AUTO 10007KT 10SM CLR 12/08 A3002 RMK AO2 T01170082 402180087,KMCD,2023-05-30T03:55:00Z,45.85,-84.63,11.7,8.2,100,7,,10.0,30.02067,,,TRUE,TRUE,,,,,,,CLR,,,,,,,,VFR,,,,21.8,8.7,,,,,,,METAR,228.0
KMCC 300355Z AUTO 20007G16KT 10SM BKN100 18/09 A2990 RMK AO2,KMCC,2023-05-30T03:55:00Z,38.67,-121.4,18.0,9.0,200,7,16,10.0,29.899607,,,TRUE,TRUE,,,,,,,BKN,10000,,,,,,,VFR,,,,,,,,,,,,METAR,21.0
KMBY 300355Z AUTO 14003KT 10SM CLR 18/10 A2997 RMK AO2,KMBY,2023-05-30T03:55:00Z,39.47,-92.43,18.0,10.0,140,3,,10.0,29.970472,,,TRUE,TRUE,,,,,,,CLR,,,,,,,,VFR,,,,,,,,,,,,METAR,263.0
KMBT 300355Z AUTO 00000KT 10SM OVC046 18/14 A2995 RMK A01,KMBT,2023-05-30T03:55:00Z,35.88,-86.38,18.0,14.0,0,0,,10.0,29.949802,,,TRUE,TRUE,,,,,,,OVC,4600,,,,,,,VFR,,,,,,,,,,,,METAR,187.0
KMBO 300355Z AUTO 00000KT 10SM CLR 19/17 A2994 RMK AO2,KMBO,2023-05-30T03:55:00Z,32.43,-90.1,19.0,17.0,0,0,,10.0,29.940945,,,TRUE,TRUE,,,,,,,CLR,,,,,,,,VFR,,,,,,,,,,,,METAR,98.0
KMAW 300355Z AUTO 00000KT 10SM CLR 21/12 A2996 RMK AO1,KMAW,2023-05-30T03:55:00Z,36.6,-90.0,21.0,12.0,0,0,,10.0,29.958662,,,TRUE,TRUE,,,,,,,CLR,,,,,,,,VFR,,,,,,,,,,,,METAR,88.0
KMAO 300355Z AUTO 00000KT 10SM BKN037 18/18 A2994 RMK AO2,KMAO,2023-05-30T03:55:00Z,34.18,-79.33,18.0,18.0,0,0,,10.0,29.940945,,,TRUE,TRUE,,,,,,,BKN,3700,,,,,,,VFR,,,,,,,,,,,,METAR,27.0
KMAN 300355Z AUTO 05005KT 10SM CLR 24/09 A2981 RMK A01,KMAN,2023-05-30T03:55:00Z,43.58,-116.52,24.0,9.0,50,5,,10.0,29.811024,,,TRUE,TRUE,,,,,,,CLR,,,,,,,,VFR,,,,,,,,,,,,METAR,773.0
KM75 300355Z AUTO 35010KT 10SM CLR 18/11 A2975 RMK A01,KM75,2023-05-30T03:55:00Z,48.37,-107.92,18.0,11.0,350,10,,10.0,29.749016,,,TRUE,TRUE,,,,,,,CLR,,,,,,,,VFR,,,,,,,,,,,,METAR,687.0
KM40 300355Z AUTO 00000KT 10SM CLR 17/17 A2997 RMK AO2,KM40,2023-05-30T03:55:00Z,33.87,-88.48,17.0,17.0,0,0,,10.0,29.970472,,,TRUE,TRUE,,,,,,,CLR,,,,,,,,VFR,,,,,,,,,,,,METAR,68.0
KM30 300355Z AUTO 00000KT 10SM CLR 18/12 A2996 RMK AO2 T01810124,KM30,2023-05-30T03:55:00Z,37.18,-88.75,18.1,12.4,0,0,,10.0,29.958662,,,TRUE,TRUE,,,,,,,CLR,,,,,,,,VFR,,,,,,,,,,,,METAR,116.0
KM25 300355Z AUTO 00000KT 10SM CLR 18/13 A2997 RMK AO2 PWINO,KM25,2023-05-30T03:55:00Z,36.77,-88.58,18.0,13.0,0,0,,10.0,29.970472,,,TRUE,TRUE,,,,,TRUE,,CLR,,,,,,,,VFR,,,,,,,,,,,,METAR,157.0
KM21 300355Z AUTO 00000KT 10SM BKN080 19/16 A2995 RMK AO2 T01910164,KM21,2023-05-30T03:55:00Z,37.22,-87.15,19.1,16.4,0,0,,10.0,29.949802,,,TRUE,TRUE,,,,,,,BKN,8000,,,,,,,VFR,,,,,,,,,,,,METAR,127.0
KM02 300355Z AUTO 00000KT 10SM FEW040 BKN050 17/15 A2996 RMK A01,KM02,2023-05-30T03:55:00Z,36.13,-87.43,17.0,15.0,0,0,,10.0,29.958662,,,TRUE,TRUE,,,,,,,FEW,4000,BKN,5000,,,,,VFR,,,,,,,,,,,,METAR,268.0
KM01 300355Z AUTO 00000KT 10SM CLR 18/17 A2993 RMK AO2 T01830168 $,KM01,2023-05-30T03:55:00Z,35.2,-90.05,18.3,16.8,0,0,,10.0,29.929134,,,TRUE,TRUE,TRUE,,,,,,CLR,,,,,,,,VFR,,,,,,,,,,,,METAR,68.0
KLYV 300355Z AUTO 15010G26KT 10SM VCTS BKN080 OVC100 22/14 A2980 RMK AO2 LTG DSNT E THRU SW,KLYV,2023-05-30T03:55:00Z,43.62,-96.22,22.0,14.0,150,10,26,10.0,29.799213,,,TRUE,TRUE,,,,,,VCTS,BKN,8000,OVC,10000,,,,,VFR,,,,,,,,,,,,METAR,435.0
KLYO 300355Z AUTO 14011KT 10SM CLR 21/18 A2992 RMK AO2 T02130179,KLYO,2023-05-30T03:55:00Z,38.35,-98.23,21.3,17.9,140,11,,10.0,29.920275,,,TRUE,TRUE,,,,,,,CLR,,,,,,,,VFR,,,,,,,,,,,,METAR,515.0
KLXY 300355Z AUTO 13004KT 10SM CLR 22/18 A2995 RMK AO2 T02210182,KLXY,2023-05-30T03:55:00Z,31.63,-96.52,22.1,18.2,130,4,,10.0,29.949802,,,TRUE,TRUE,,,,,,,CLR,,,,,,,,VFR,,,,,,,,,,,,METAR,164.0
KLXN 300355Z AUTO 36010KT 10SM -RA SCT080 17/15 A2995 RMK AO2 LTG DSNT E AND S P0003 T01710147,KLXN,2023-05-30T03:55:00Z,40.78,-99.77,17.1,14.7,360,10,,10.0,29.949802,,,TRUE,TRUE,,,,,,-RA,SCT,8000,,,,,,,VFR,,,,,,0.03,,,,,,METAR,734.0
KLXL 300355Z AUTO 12003KT 10SM CLR 20/12 A2983 RMK AO2 LTG DSNT W,KLXL,2023-05-30T03:55:00Z,45.95,-94.33,20.0,12.0,120,3,,10.0,29.828741,,,TRUE,TRUE,,,,,,,CLR,,,,,,,,VFR,,,,,,,,,,,,METAR,335.0
KLWB 300355Z AUTO 03004KT 4SM BR SCT023 BKN043 OVC050 15/15 A3007 RMK AO2 T01480146,KLWB,2023-05-30T03:55:00Z,37.87,-80.4,14.8,14.6,30,4,,4.0,30.070866,,,TRUE,TRUE,,,,,,BR,SCT,2300,BKN,4300,OVC,5000,,,MVFR,,,,,,,,,,,,METAR,702.0
KLWA 300355Z AUTO 00000KT 10SM CLR 14/09 A3001 RMK AO2 T01400086,KLWA,2023-05-30T03:55:00Z,42.35,-86.25,14.0,8.6,0,0,,10.0,30.008858,,,TRUE,TRUE,,,,,,,CLR,,,,,,,,VFR,,,,,,,,,,,,METAR,199.0
KLVN 300355Z AUTO 00000KT 10SM CLR 19/11 A2988 RMK AO2,KLVN,2023-05-30T03:55:00Z,44.63,-93.23,19.0,11.0,0,0,,10.0,29.878937,,,TRUE,TRUE,,,,,,,CLR,,,,,,,,VFR,,,,,,,,,,,,METAR,292.0
KLVL 300355Z AUTO 00000KT 10SM SCT029 SCT036 SCT055 20/19 A2997 RMK AO1 T01950190,KLVL,2023-05-30T03:55:00Z,36.78,-77.8,19.5,19.0,0,0,,10.0,29.970472,,,TRUE,TRUE,,,,,,,SCT,2900,SCT,3600,SCT,5500,,,VFR,,,,,,,,,,,,METAR,98.0
KLUX 300355Z AUTO 05003KT 10SM SCT070 16/16 A2995 RMK AO2,KLUX,2023-05-30T03:55:00Z,34.5,-81.95,16.0,16.0,50,3,,10.0,29.949802,,,TRUE,TRUE,,,,,,,SCT,7000,,,,,,,VFR,,,,,,,,,,,,METAR,213.0
KLUV 300355Z AUTO 10011KT 10SM BKN090 OVC110 23/17 A2997 RMK AO2,KLUV,2023-05-30T03:55:00Z,32.75,-101.92,23.0,17.0,100,11,,10.0,29.970472,,,TRUE,TRUE,,,,,,,BKN,9000,OVC,11000,,,,,VFR,,,,,,,,,,,,METAR,910.0
KLUM 300355Z 00000KT 10SM CLR 19/05 A2992 RMK AO2 T01920048 PWINO,KLUM,2023-05-30T03:55:00Z,44.9,-91.87,19.2,4.8,0,0,,10.0,29.920275,,,,TRUE,,,,,TRUE,,CLR,,,,,,,,VFR,,,,,,,,,,,,METAR,271.0
KLUL 300355Z AUTO 00000KT 10SM CLR 19/19 A2994 RMK A02 T01910187,KLUL,2023-05-30T03:55:00Z,31.67,-89.17,19.1,18.7,0,0,,10.0,29.940945,,,TRUE,TRUE,,,,,,,CLR,,,,,,,,VFR,,,,,,,,,,,,METAR,74.0
KLUG 300355Z AUTO 00000KT 10SM BKN050 15/15 A2996 RMK A01,KLUG,2023-05-30T03:55:00Z,35.52,-86.8,15.0,15.0,0,0,,10.0,29.958662,,,TRUE,TRUE,,,,,,,BKN,5000,,,,,,,VFR,,,,,,,,,,,,METAR,218.0
KLUF 300355Z AUTO 23009KT 10SM CLR 30/M06 A2980 RMK AO2 SLP076 T03031061 $,KLUF,2023-05-30T03:55:00Z,33.53,-112.37,30.3,-6.1,230,9,,10.0,29.799213,1007.6,,TRUE,TRUE,TRUE,,,,,,CLR,,,,,,,,VFR,,,,,,,,,,,,METAR,333.0
KLUD 300355Z AUTO 12007KT 7SM CLR 21/18 A2994 RMK AO2 T02080180,KLUD,2023-05-30T03:55:00Z,33.25,-97.58,20.8,18.0,120,7,,7.0,29.940945,,,TRUE,TRUE,,,,,,,CLR,,,,,,,,VFR,,,,,,,,,,,,METAR,319.0
KLUA 300355Z AUTO 04004KT 10SM SCT016 SCT024 BKN038 16/15 A3006 RMK AO2 LTG DSNT E,KLUA,2023-05-30T03:55:00Z,38.67,-78.5,16.0,15.0,40,4,,10.0,30.059055,,,TRUE,TRUE,,,,,,,SCT,1600,SCT,2400,BKN,3800,,,VFR,,,,,,,,,,,,METAR,273.0
KLTS 300355Z AUTO 10009KT 7/8SM R18L/5000V5500FT HZ CLR 21/17 A2989 RMK AO2 SLP109 T02100174 $,KLTS,2023-05-30T03:55:00Z,34.67,-99.27,21.0,17.4,100,9,,0.88,29.890747,1010.9,,TRUE,TRUE,TRUE,,,,,HZ,CLR,,,,,,,,LIFR,,,,,,,,,,,,METAR,416.0
KLSV 300355Z AUTO 13017KT 10SM CLR 30/M06 A2975 RMK AO2 SLP050 T02981065 $,KLSV,2023-05-30T03:55:00Z,36.23,-115.05,29.8,-6.5,130,17,,10.0,29.749016,1005.0,,TRUE,TRUE,TRUE,,,,,,CLR,,,,,,,,VFR,,,,,,,,,,,,METAR,563.0
KLSF 300355Z AUTO 00000KT 10SM CLR 16/15 A2991 RMK AO2 SLP132 T01600145 $,KLSF,2023-05-30T03:55:00Z,32.32,-84.97,16.0,14.5,0,0,,10.0,29.911417,1013.2,,TRUE,TRUE,TRUE,,,,,,CLR,,,,,,,,VFR,,,,,,,,,,,,METAR,68.0
KLRY 300355Z AUTO 00000KT 10SM CLR 19/15 A2997 RMK AO2,KLRY,2023-05-30T03:55:00Z,38.62,-94.35,19.0,15.0,0,0,,10.0,29.970472,,,TRUE,TRUE,,,,,,,CLR,,,,,,,,VFR,,,,,,,,,,,,METAR,272.0
KLRU 300355Z AUTO 27006KT 10SM CLR 26/00 A3000 RMK AO2 T02561001,KLRU,2023-05-30T03:55:00Z,32.28,-106.92,25.6,-0.1,270,6,,10.0,30.0,,,TRUE,TRUE,,,,,,,CLR,,,,,,,,VFR,,,,,,,,,,,,METAR,1355.0
KLRO 300355Z AUTO 00000KT 6SM BR SCT055 SCT100 20/20 A2992 RMK AO2,KLRO,2023-05-30T03:55:00Z,32.9,-79.78,20.0,20.0,0,0,,6.0,29.920275,,,TRUE,TRUE,,,,,,BR,SCT,5500,SCT,10000,,,,,VFR,,,,,,,,,,,,METAR,3.0
KLRJ 300355Z AUTO 16016KT 8SM CLR 25/15 A2980 RMK AO2,KLRJ,2023-05-30T03:55:00Z,42.77,-96.2,25.0,15.0,160,16,,8.0,29.799213,,,TRUE,TRUE,,,,,,,CLR,,,,,,,,VFR,,,,,,,,,,,,METAR,363.0
KLQK 300355Z AUTO 06003KT 10SM SCT037 OVC049 20/17 A2996 RMK AO2 T02040166,KLQK,2023-05-30T03:55:00Z,34.82,-82.7,20.4,16.6,60,3,,10.0,29.958662,,,TRUE,TRUE,,,,,,,SCT,3700,OVC,4900,,,,,VFR,,,,,,,,,,,,METAR,291.0
KLOT 300355Z AUTO 07007KT 10SM CLR 19/05 A3000 RMK AO2,KLOT,2023-05-30T03:55:00Z,41.6,-88.1,19.0,5.0,70,7,,10.0,30.0,,,TRUE,TRUE,,,,,,,CLR,,,,,,,,VFR,,,,,,,,,,,,METAR,205.0
KLOR 300355Z AUTO 00000KT 10SM CLR 17/15 A2993 RMK AO2 SLP117 T01710151,KLOR,2023-05-30T03:55:00Z,31.35,-85.75,17.1,15.1,0,0,,10.0,29.929134,1011.7,,TRUE,TRUE,,,,,,,CLR,,,,,,,,VFR,,,,,,,,,,,,METAR,92.0
KLOM 300355Z AUTO 07007KT 10SM CLR 14/06 A3016 RMK AO2 T01430064,KLOM,2023-05-30T03:55:00Z,40.13,-75.27,14.3,6.4,70,7,,10.0,30.159449,,,TRUE,TRUE,,,,,,,CLR,,,,,,,,VFR,,,,,,,,,,,,METAR,87.0
KLNQ 300355Z AUTO 00000KT 10SM CLR 25/20 A2993 RMK AO2 T02450195,KLNQ,2023-05-30T03:55:00Z,29.35,-89.43,24.5,19.5,0,0,,10.0,29.929134,,,TRUE,TRUE,,,,,,,CLR,,,,,,,,VFR,,,,,,,,,,,,METAR,1.0
KLNP 300355Z AUTO 06003KT 10SM OVC004 13/13 A3007 RMK AO2,KLNP,2023-05-30T03:55:00Z,36.98,-82.52,13.0,13.0,60,3,,10.0,30.070866,,,TRUE,TRUE,,,,,,,OVC,400,,,,,,,LIFR,,,,,,,,,,,,METAR,817.0
KLNN 300355Z AUTO 09003KT 10SM CLR 19/08 A3001 RMK AO1 T01850083,KLNN,2023-05-30T03:55:00Z,41.68,-81.38,18.5,8.3,90,3,,10.0,30.008858,,,TRUE,TRUE,,,,,,,CLR,,,,,,,,VFR,,,,,,,,,,,,METAR,190.0
KLNL 300355Z AUTO 00000KT 10SM CLR 13/09 A3002 RMK AO2 T01310091,KLNL,2023-05-30T03:55:00Z,46.15,-89.22,13.1,9.1,0,0,,10.0,30.02067,,,TRUE,TRUE,,,,,,,CLR,,,,,,,,VFR,,,,,,,,,,,,METAR,517.0
KLNC 300355Z AUTO 13004KT 10SM CLR 19/18 A2997 RMK AO2 LTG DSNT NE T01930182,KLNC,2023-05-30T03:55:00Z,32.58,-96.72,19.3,18.2,130,4,,10.0,29.970472,,,TRUE,TRUE,,,,,,,CLR,,,,,,,,VFR,,,,,,,,,,,,METAR,152.0
KLNA 300355Z AUTO 06005KT 10SM SCT026 SCT031 27/22 A2992 RMK AO2 T02700222 403020226,KLNA,2023-05-30T03:55:00Z,26.6,-80.08,27.0,22.2,60,5,,10.0,29.920275,,,TRUE,TRUE,,,,,,,SCT,2600,SCT,3100,,,,,VFR,,,,30.2,22.6,,,,,,,METAR,3.0
KLMS 300355Z AUTO 00000KT 9SM CLR 18/16 A2998 RMK AO2,KLMS,2023-05-30T03:55:00Z,,,18.0,16.0,0,0,,9.0,29.97933,,,TRUE,TRUE,,,,,,,CLR,,,,,,,,VFR,,,,,,,,,,,,METAR,
KLMO 300355Z AUTO 32005KT 10SM CLR 17/09 A3002 RMK AO2 T01660092,KLMO,2023-05-30T03:55:00Z,40.17,-105.17,16.6,9.2,320,5,,10.0,30.02067,,,TRUE,TRUE,,,,,,,CLR,,,,,,,,VFR,,,,,,,,,,,,METAR,1535.0
KLLN 300355Z AUTO 12013KT 10SM CLR 22/17 A2999 RMK AO2,KLLN,2023-05-30T03:55:00Z,33.55,-102.37,22.0,17.0,120,13,,10.0,29.991142,,,TRUE,TRUE,,,,,,,CLR,,,,,,,,VFR,,,,,,,,,,,,METAR,1071.0
KLLJ 300355Z AUTO 03004KT 10SM SCT110 17/06 A2991 RMK AO2 SLP082 T01670056,KLLJ,2023-05-30T03:55:00Z,44.52,-114.22,16.7,5.6,30,4,,10.0,29.911417,1008.2,,TRUE,TRUE,,,,,,,SCT,11000,,,,,,,VFR,,,,,,,,,,,,METAR,1535.0
KLKU 300355Z AUTO 07006KT 5SM DZ BR OVC005 19/18 A3005 RMK AO2 LTG DSNT NE T01860181,KLKU,2023-05-30T03:55:00Z,38.02,-77.97,18.6,18.1,70,6,,5.0,30.050198,,,TRUE,TRUE,,,,,,DZ BR,OVC,500,,,,,,,IFR,,,,,,,,,,,,METAR,146.0
KLKR 300355Z AUTO 00000KT 9SM CLR 18/17 A2994 RMK AO2 LTG DSNT NE AND E,KLKR,2023-05-30T03:55:00Z,34.72,-80.85,18.0,17.0,0,0,,9.0,29.940945,,,TRUE,TRUE,,,,,,,CLR,,,,,,,,VFR,,,,,,,,,,,,METAR,166.0
KLJF 300355Z AUTO 15004KT 10SM CLR 21/12 A2984 RMK AO2,KLJF,2023-05-30T03:55:00Z,45.1,-94.52,21.0,12.0,150,4,,10.0,29.840551,,,TRUE,TRUE,,,,,,,CLR,,,,,,,,VFR,,,,,,,,,,,,METAR,347.0
KLIC 300355Z AUTO 19003KT 10SM SCT120 16/08 A3000 RMK AO2 SLP092 T01610083,KLIC,2023-05-30T03:55:00Z,39.27,-103.67,16.1,8.3,190,3,,10.0,30.0,1009.2,,TRUE,TRUE,,,,,,,SCT,12000,,,,,,,VFR,,,,,,,,,,,,METAR,1635.0
KLHW 300355Z AUTO 00000KT 10SM OVC080 20/18 A2987 RMK AO2 SLP118 T01950180 $,KLHW,2023-05-30T03:55:00Z,31.88,-81.57,19.5,18.0,0,0,,10.0,29.870079,1011.8,,TRUE,TRUE,TRUE,,,,,,OVC,8000,,,,,,,VFR,,,,,,,,,,,,METAR,14.0
KLHM 300355Z AUTO 16005KT 10SM CLR 18/09 A2989 RMK AO1,KLHM,2023-05-30T03:55:00Z,38.92,-121.35,18.0,9.0,160,5,,10.0,29.890747,,,TRUE,TRUE,,,,,,,CLR,,,,,,,,VFR,,,,,,,,,,,,METAR,36.0
KLHB 300355Z AUTO 09004KT 7SM CLR 22/19 A2995 RMK AO2 T02230191,KLHB,2023-05-30T03:55:00Z,30.87,-96.62,22.3,19.1,90,4,,7.0,29.949802,,,TRUE,TRUE,,,,,,,CLR,,,,,,,,VFR,,,,,,,,,,,,METAR,83.0
KLGF 300355Z AUTO 20009KT M M CLR 29/M02 A2976 RMK AO2 SLP075 T02871025 RVRNO PWINO TSNO $,KLGF,2023-05-30T03:55:00Z,32.87,-114.4,28.7,-2.5,200,9,,,29.760826,1007.5,,TRUE,TRUE,TRUE,,TRUE,,TRUE,,CLR,,,,,,,,,,,,,,,,,,,,METAR,118.0
KLGC 300355Z AUTO 00000KT 10SM CLR 14/13 A2995 RMK AO2 T01420130,KLGC,2023-05-30T03:55:00Z,33.0,-85.07,14.2,13.0,0,0,,10.0,29.949802,,,TRUE,TRUE,,,,,,,CLR,,,,,,,,VFR,,,,,,,,,,,,METAR,209.0
KLDM 300355Z AUTO 00000KT 10SM CLR 12/08 A3002 RMK AO2 T01200082,KLDM,2023-05-30T03:55:00Z,43.97,-86.4,12.0,8.2,0,0,,10.0,30.02067,,,TRUE,TRUE,,,,,,,CLR,,,,,,,,VFR,,,,,,,,,,,,METAR,194.0
KLCQ 300355Z AUTO 24004KT 10SM BKN110 21/19 A2991 RMK AO2,KLCQ,2023-05-30T03:55:00Z,30.18,-82.58,21.0,19.0,240,4,,10.0,29.911417,,,TRUE,TRUE,,,,,,,BKN,11000,,,,,,,VFR,,,,,,,,,,,,METAR,59.0
KLCK 300355Z AUTO 13004KT 10SM OVC120 21/14 A2999 RMK AO2 T02070140,KLCK,2023-05-30T03:55:00Z,39.82,-82.92,20.7,14.0,130,4,,10.0,29.991142,,,TRUE,TRUE,,,,,,,OVC,12000,,,,,,,VFR,,,,,,,,,,,,METAR,225.0
KLCG 300355Z AUTO 18014KT 10SM BKN085 BKN110 26/14 A2983 RMK AO2 T02560135,KLCG,2023-05-30T03:55:00Z,42.25,-96.98,25.6,13.5,180,14,,10.0,29.828741,,,TRUE,TRUE,,,,,,,BKN,8500,BKN,11000,,,,,VFR,,,,,,,,,,,,METAR,434.0
KLBO 300355Z AUTO 00000KT 10SM CLR 19/12 A2999 RMK AO2,KLBO,2023-05-30T03:55:00Z,37.65,-92.65,19.0,12.0,0,0,,10.0,29.991142,,,TRUE,TRUE,,,,,,,CLR,,,,,,,,VFR,,,,,,,,,,,,METAR,399.0
KLBE 300355Z AUTO 00000KT 10SM CLR 20/10 A3006 RMK AO2,KLBE,2023-05-30T03:55:00Z,40.27,-79.4,20.0,10.0,0,0,,10.0,30.059055,,,TRUE,TRUE,,,,,,,CLR,,,,,,,,VFR,,,,,,,,,,,,METAR,345.0
KLAM 300355Z AUTO 28011KT 10SM CLR 20/M09 A3013 RMK AO2 T01951091 $,KLAM,2023-05-30T03:55:00Z,35.87,-106.27,19.5,-9.1,280,11,,10.0,30.129921,,,TRUE,TRUE,TRUE,,,,,,CLR,,,,,,,,VFR,,,,,,,,,,,,METAR,2166.0
KL35 300355Z AUTO 00000KT 10SM CLR 11/M03 A3009 RMK AO2,KL35,2023-05-30T03:55:00Z,34.27,-116.85,11.0,-3.0,0,0,,10.0,30.088583,,,TRUE,TRUE,,,,,,,CLR,,,,,,,,VFR,,,,,,,,,,,,METAR,2062.0
KL18 300355Z AUTO 22003KT 10SM OVC022 14/12 A2999 RMK AO2,KL18,2023-05-30T03:55:00Z,33.35,-117.25,14.0,12.0,220,3,,10.0,29.991142,,,TRUE,TRUE,,,,,,,OVC,2200,,,,,,,MVFR,,,,,,,,,,,,METAR,215.0
KL08 300355Z AUTO 33017G23KT 10SM CLR 25/10 A2979 RMK AO2,KL08,2023-05-30T03:55:00Z,33.27,-116.32,25.0,10.0,330,17,23,10.0,29.790354,,,TRUE,TRUE,,,,,,,CLR,,,,,,,,VFR,,,,,,,,,,,,METAR,156.0
KKY8 300355Z AUTO 00000KT 10SM OVC090 22/19 A2994 RMK A01,KKY8,2023-05-30T03:55:00Z,37.95,-86.87,22.0,19.0,0,0,,10.0,29.940945,,,TRUE,TRUE,,,,,,,OVC,9000,,,,,,,VFR,,,,,,,,,,,,METAR,124.0
KKNB 300355Z AUTO 00000KT 10SM CLR 17/M04 A3002 RMK A01,KKNB,2023-05-30T03:55:00Z,37.02,-112.53,17.0,-4.0,0,0,,10.0,30.02067,,,TRUE,TRUE,,,,,,,CLR,,,,,,,,VFR,,,,,,,,,,,,METAR,1476.0
KK88 300355Z AUTO 12003KT 10SM BKN070 OVC080 21/18 A2996 RMK AO1 T02110175,KK88,2023-05-30T03:55:00Z,37.87,-95.38,21.1,17.5,120,3,,10.0,29.958662,,,TRUE,TRUE,,,,,,,BKN,7000,OVC,8000,,,,,VFR,,,,,,,,,,,,METAR,308.0
KK82 300355Z AUTO 17009KT 10SM CLR 22/15 A2989 RMK AO2 T02250148,KK82,2023-05-30T03:55:00Z,39.77,-98.8,22.5,14.8,170,9,,10.0,29.890747,,,TRUE,TRUE,,,,,,,CLR,,,,,,,,VFR,,,,,,,,,,,,METAR,548.0
KK62 300355Z AUTO 15004KT 10SM SCT065 OVC110 20/16 A2999 RMK AO2,KK62,2023-05-30T03:55:00Z,38.7,-84.4,20.0,16.0,150,4,,10.0,29.991142,,,TRUE,TRUE,,,,,,,SCT,6500,OVC,11000,,,,,VFR,,,,,,,,,,,,METAR,274.0
KJZP 300355Z AUTO 31003KT 10SM SCT070 16/13 A2997 RMK AO2 T01640128,KJZP,2023-05-30T03:55:00Z,34.45,-84.47,16.4,12.8,310,3,,10.0,29.970472,,,TRUE,TRUE,,,,,,,SCT,7000,,,,,,,VFR,,,,,,,,,,,,METAR,462.0
KJZI 300355Z AUTO 00000KT 9SM FEW080 19/19 A2993 RMK AO2,KJZI,2023-05-30T03:55:00Z,32.7,-80.0,19.0,19.0,0,0,,9.0,29.929134,,,TRUE,TRUE,,,,,,,FEW,8000,,,,,,,VFR,,,,,,,,,,,,METAR,5.0
KJYR 300355Z AUTO 18011G18KT 10SM CLR 24/14 A2989 RMK AO2 LTG DSNT N AND NW,KJYR,2023-05-30T03:55:00Z,40.9,-97.62,24.0,14.0,180,11,18,10.0,29.890747,,,TRUE,TRUE,,,,,,,CLR,,,,,,,,VFR,,,,,,,,,,,,METAR,508.0
KJYO 300355Z AUTO 14003KT 10SM VCTS OVC044 17/17 A3010 RMK AO2,KJYO,2023-05-30T03:55:00Z,39.07,-77.57,17.0,17.0,140,3,,10.0,30.100393,,,TRUE,TRUE,,,,,,VCTS,OVC,4400,,,,,,,VFR,,,,,,,,,,,,METAR,112.0
KJYM 300355Z AUTO 00000KT 10SM BKN095 18/08 A3003 RMK AO2 T01760081,KJYM,2023-05-30T03:55:00Z,41.92,-84.58,17.6,8.1,0,0,,10.0,30.029528,,,TRUE,TRUE,,,,,,,BKN,9500,,,,,,,VFR,,,,,,,,,,,,METAR,357.0
KJYG 300355Z AUTO 15014KT 10SM CLR 20/14 A2985 RMK AO2 TSNO,KJYG,2023-05-30T03:55:00Z,43.98,-94.55,20.0,14.0,150,14,,10.0,29.84941,,,TRUE,TRUE,,,TRUE,,,,CLR,,,,,,,,VFR,,,,,,,,,,,,METAR,323.0
KJWY 300355Z AUTO 10003KT 10SM SCT060 BKN110 21/19 A2998 RMK AO2 T02060188,KJWY,2023-05-30T03:55:00Z,32.45,-96.92,20.6,18.8,100,3,,10.0,29.97933,,,TRUE,TRUE,,,,,,,SCT,6000,BKN,11000,,,,,VFR,,,,,,,,,,,,METAR,211.0
KJWN 300355Z AUTO 00000KT 10SM CLR 17/15 A2994 RMK AO2,KJWN,2023-05-30T03:55:00Z,36.18,-86.88,17.0,15.0,0,0,,10.0,29.940945,,,TRUE,TRUE,,,,,,,CLR,,,,,,,,VFR,,,,,,,,,,,,METAR,149.0
KJWG 300355Z AUTO 15008KT 10SM CLR 21/18 A2995 RMK AO2 T02070178,KJWG,2023-05-30T03:55:00Z,35.87,-98.42,20.7,17.8,150,8,,10.0,29.949802,,,TRUE,TRUE,,,,,,,CLR,,,,,,,,VFR,,,,,,,,,,,,METAR,469.0
KJVY 300355Z AUTO 15004KT 10SM CLR 20/17 A2993 RMK AO2,KJVY,2023-05-30T03:55:00Z,38.37,-85.73,20.0,17.0,150,4,,10.0,29.929134,,,TRUE,TRUE,,,,,,,CLR,,,,,,,,VFR,,,,,,,,,,,,METAR,141.0
KJVW 300355Z AUTO 00000KT 9SM CLR 18/18 A2995 RMK AO2,KJVW,2023-05-30T03:55:00Z,32.3,-90.42,18.0,18.0,0,0,,9.0,29.949802,,,TRUE,TRUE,,,,,,,CLR,,,,,,,,VFR,,,,,,,,,,,,METAR,73.0
KJVL 300355Z AUTO 00000KT 10SM CLR 20/03 A2999 RMK AO2,KJVL,2023-05-30T03:55:00Z,42.62,-89.05,20.0,3.0,0,0,,10.0,29.991142,,,TRUE,TRUE,,,,,,,CLR,,,,,,,,VFR,,,,,,,,,,,,METAR,244.0
KJTC 300355Z AUTO 21006KT 10SM CLR 13/M02 A3019 RMK AO2,KJTC,2023-05-30T03:55:00Z,34.13,-109.32,13.0,-2.0,210,6,,10.0,30.188976,,,TRUE,TRUE,,,,,,,CLR,,,,,,,,VFR,,,,,,,,,,,,METAR,2148.0
KJSV 300355Z AUTO 08003KT 10SM CLR 22/18 A2992 RMK AO2,KJSV,2023-05-30T03:55:00Z,35.43,-94.8,22.0,18.0,80,3,,10.0,29.920275,,,TRUE,TRUE,,,,,,,CLR,,,,,,,,VFR,,,,,,,,,,,,METAR,158.0
KJSO 300355Z AUTO 00000KT 10SM SCT120 22/19 A2998 RMK AO2 T02170194 TSNO,KJSO,2023-05-30T03:55:00Z,31.87,-95.22,21.7,19.4,0,0,,10.0,29.97933,,,TRUE,TRUE,,,TRUE,,,,SCT,12000,,,,,,,VFR,,,,,,,,,,,,METAR,204.0
KJRO 300355Z AUTO 00000KT 10SM BKN100 19/17 A3001 RMK AO2,KJRO,2023-05-30T03:55:00Z,38.98,-82.58,19.0,17.0,0,0,,10.0,30.008858,,,TRUE,TRUE,,,,,,,BKN,10000,,,,,,,VFR,,,,,,,,,,,,METAR,224.0
KJPX 300355Z AUTO 10007KT 10SM CLR 12/06 A3020 RMK AO2 LTG DSNT S T01160055,KJPX,2023-05-30T03:55:00Z,40.95,-72.25,11.6,5.5,100,7,,10.0,30.200787,,,TRUE,TRUE,,,,,,,CLR,,,,,,,,VFR,,,,,,,,,,,,METAR,10.0
KJOT 300355Z AUTO 08004KT 10SM CLR 20/05 A2998 RMK AO2 T02010050,KJOT,2023-05-30T03:55:00Z,41.52,-88.18,20.1,5.0,80,4,,10.0,29.97933,,,TRUE,TRUE,,,,,,,CLR,,,,,,,,VFR,,,,,,,,,,,,METAR,175.0
KJMR 300355Z AUTO 13003KT 10SM CLR 21/06 A2990 RMK AO2,KJMR,2023-05-30T03:55:00Z,45.88,-93.27,21.0,6.0,130,3,,10.0,29.899607,,,TRUE,TRUE,,,,,,,CLR,,,,,,,,VFR,,,,,,,,,,,,METAR,301.0
KJKJ 300355Z AUTO 12009KT 10SM -RA SCT055 BKN080 OVC090 22/16 A2977 RMK AO2 TSNO P0004,KJKJ,2023-05-30T03:55:00Z,46.83,-96.67,22.0,16.0,120,9,,10.0,29.769686,,,TRUE,TRUE,,,TRUE,,,-RA,SCT,5500,BKN,8000,OVC,9000,,,VFR,,,,,,0.04,,,,,,METAR,280.0
KJKA 300355Z AUTO 00000KT 8SM CLR 22/21 A2992 RMK AO2,KJKA,2023-05-30T03:55:00Z,30.28,-87.67,22.0,21.0,0,0,,8.0,29.920275,,,TRUE,TRUE,,,,,,,CLR,,,,,,,,VFR,,,,,,,,,,,,METAR,5.0
KJHN 300355Z AUTO 14007KT 10SM CLR 19/15 A2994 RMK AO2 T01910150,KJHN,2023-05-30T03:55:00Z,37.58,-101.73,19.1,15.0,140,7,,10.0,29.940945,,,TRUE,TRUE,,,,,,,CLR,,,,,,,,VFR,,,,,,,,,,,,METAR,1013.0
KJFZ 300355Z AUTO 07003KT 1/2SM FG OVC003 15/15 A3007 RMK AO2 T01470147,KJFZ,2023-05-30T03:55:00Z,37.07,-81.8,14.7,14.7,70,3,,0.5,30.070866,,,TRUE,TRUE,,,,,,FG,OVC,300,,,,,,,LIFR,,,,,,,,,,,,METAR,809.0
KJFX 300355Z AUTO 00000KT 10SM CLR 15/15 A2997 RMK AO2,KJFX,2023-05-30T03:55:00Z,33.9,-87.32,15.0,15.0,0,0,,10.0,29.970472,,,TRUE,TRUE,,,,,,,CLR,,,,,,,,VFR,,,,,,,,,,,,METAR,144.0
KJES 300355Z AUTO 00000KT 10SM SCT070 20/18 A2992 RMK AO2,KJES,2023-05-30T03:55:00Z,31.55,-81.88,20.0,18.0,0,0,,10.0,29.920275,,,TRUE,TRUE,,,,,,,SCT,7000,,,,,,,VFR,,,,,,,,,,,,METAR,26.0
KJDD 300355Z AUTO 32004KT 10SM OVC095 19/18 A2998 RMK AO2 LTG DSNT S,KJDD,2023-05-30T03:55:00Z,32.75,-95.5,19.0,18.0,320,4,,10.0,29.97933,,,TRUE,TRUE,,,,,,,OVC,9500,,,,,,,VFR,,,,,,,,,,,,METAR,127.0
KJCA 300355Z AUTO 29003KT 10SM OVC070 20/15 A2995 RMK AO2 T01970152,KJCA,2023-05-30T03:55:00Z,34.18,-83.57,19.7,15.2,290,3,,10.0,29.949802,,,TRUE,TRUE,,,,,,,OVC,7000,,,,,,,VFR,,,,,,,,,,,,METAR,287.0
KJAS 300355Z AUTO 00000KT 8SM 21/21 A2993 RMK AO2,KJAS,2023-05-30T03:55:00Z,30.88,-94.03,21.0,21.0,0,0,,8.0,29.929134,,,TRUE,TRUE,,,,,,,,,,,,,,,,,,,,,,,,,,,METAR,60.0
KJAQ 300355Z AUTO 32004KT 10SM SCT075 15/10 A2995 RMK AO1 T01450095,KJAQ,2023-05-30T03:55:00Z,38.37,-120.8,14.5,9.5,320,4,,10.0,29.949802,,,TRUE,TRUE,,,,,,,SCT,7500,,,,,,,VFR,,,,,,,,,,,,METAR,518.0
KIZA 300355Z AUTO 29003KT 10SM OVC020 14/11 A2999 RMK AO2,KIZA,2023-05-30T03:55:00Z,34.6,-120.07,14.0,11.0,290,3,,10.0,29.991142,,,TRUE,TRUE,,,,,,,OVC,2000,,,,,,,MVFR,,,,,,,,,,,,METAR,200.0
KIYA 300355Z AUTO 00000KT CLR 23/19 A2993 RMK AO2 T02290185 403130186 PWINO,KIYA,2023-05-30T03:55:00Z,29.98,-92.08,22.9,18.5,0,0,,,29.929134,,,TRUE,TRUE,,,,,TRUE,,CLR,,,,,,,,,,,,31.3,18.6,,,,,,,METAR,4.0
KIUA 300355Z AUTO 26003KT 10SM CLR 13/09 A3008 RMK AO2 T01300085,KIUA,2023-05-30T03:55:00Z,42.92,-77.33,13.0,8.5,260,3,,10.0,30.079725,,,TRUE,TRUE,,,,,,,CLR,,,,,,,,VFR,,,,,,,,,,,,METAR,248.0
KISQ 300355Z AUTO 00000KT 10SM CLR 11/05 A3001 RMK AO2 T01080052 402620043,KISQ,2023-05-30T03:55:00Z,45.97,-86.17,10.8,5.2,0,0,,10.0,30.008858,,,TRUE,TRUE,,,,,,,CLR,,,,,,,,VFR,,,,26.2,4.3,,,,,,,METAR,206.0
KIRS 300355Z AUTO 10004KT 10SM CLR 19/04 A3001 RMK AO2 T01870040,KIRS,2023-05-30T03:55:00Z,41.8,-85.43,18.7,4.0,100,4,,10.0,30.008858,,,TRUE,TRUE,,,,,,,CLR,,,,,,,,VFR,,,,,,,,,,,,METAR,282.0
KIRK 300355Z AUTO 13006KT 10SM CLR 19/09 A2997 RMK AO2 SLP145 T01890094,KIRK,2023-05-30T03:55:00Z,40.1,-92.55,18.9,9.4,130,6,,10.0,29.970472,1014.5,,TRUE,TRUE,,,,,,,CLR,,,,,,,,VFR,,,,,,,,,,,,METAR,292.0
KIOB 300355Z AUTO 00000KT 10SM BKN090 OVC110 18/17 A3002 RMK AO2 PWINO,KIOB,2023-05-30T03:55:00Z,38.05,-83.98,18.0,17.0,0,0,,10.0,30.02067,,,TRUE,TRUE,,,,,TRUE,,BKN,9000,OVC,11000,,,,,VFR,,,,,,,,,,,,METAR,301.0
KINS 300355Z AUTO 19010KT 10SM CLR 25/M06 A2984 RMK AO2 SLP059 T02541061 $,KINS,2023-05-30T03:55:00Z,36.58,-115.68,25.4,-6.1,190,10,,10.0,29.840551,1005.9,,TRUE,TRUE,TRUE,,,,,,CLR,,,,,,,,VFR,,,,,,,,,,,,METAR,954.0
KINJ 300355Z AUTO 09008KT 10SM SCT055 23/19 A2995 RMK AO2 T02280186,KINJ,2023-05-30T03:55:00Z,32.08,-97.1,22.8,18.6,90,8,,10.0,29.949802,,,TRUE,TRUE,,,,,,,SCT,5500,,,,,,,VFR,,,,,,,,,,,,METAR,208.0
KINF 300355Z AUTO 00000KT 7SM CLR 18/18 A2994 RMK AO2,KINF,2023-05-30T03:55:00Z,28.8,-82.32,18.0,18.0,0,0,,7.0,29.940945,,,TRUE,TRUE,,,,,,,CLR,,,,,,,,VFR,,,,,,,,,,,,METAR,14.0
KIMS 300355Z AUTO 11008KT 10SM CLR 18/14 A2999 RMK AO2,KIMS,2023-05-30T03:55:00Z,38.75,-85.47,18.0,14.0,110,8,,10.0,29.991142,,,TRUE,TRUE,,,,,,,CLR,,,,,,,,VFR,,,,,,,,,,,,METAR,244.0
KIMM 300355Z AUTO 06003KT 10SM OVC055 A2991 RMK AO2,KIMM,2023-05-30T03:55:00Z,26.43,-81.4,,,60,3,,10.0,29.911417,,,TRUE,TRUE,,,,,,,OVC,5500,,,,,,,VFR,,,,,,,,,,,,METAR,11.0
KIKW 300355Z AUTO 00000KT 10SM CLR 16/08 A3004 RMK AO2 T01560081,KIKW,2023-05-30T03:55:00Z,43.67,-84.27,15.6,8.1,0,0,,10.0,30.041338,,,TRUE,TRUE,,,,,,,CLR,,,,,,,,VFR,,,,,,,,,,,,METAR,190.0
KIKV 300355Z AUTO 00000KT 9SM CLR 21/11 A2993 RMK AO2,KIKV,2023-05-30T03:55:00Z,41.68,-93.57,21.0,11.0,0,0,,9.0,29.929134,,,TRUE,TRUE,,,,,,,CLR,,,,,,,,VFR,,,,,,,,,,,,METAR,270.0
KIKK 300355Z AUTO 05003KT 10SM CLR 18/07 A2999 RMK AO2 T01810065 PWINO,KIKK,2023-05-30T03:55:00Z,41.07,-87.85,18.1,6.5,50,3,,10.0,29.991142,,,TRUE,TRUE,,,,,TRUE,,CLR,,,,,,,,VFR,,,,,,,,,,,,METAR,188.0
KIKG 300355Z AUTO 30003KT 10SM -RA SCT120 23/21 A2994 RMK AO2 T02320211,KIKG,2023-05-30T03:55:00Z,27.55,-98.03,23.2,21.1,300,3,,10.0,29.940945,,,TRUE,TRUE,,,,,,-RA,SCT,12000,,,,,,,VFR,,,,,,,,,,,,METAR,37.0
KIJX 300355Z AUTO 00000KT 10SM CLR 18/10 A2996 RMK AO2 T01770103,KIJX,2023-05-30T03:55:00Z,39.77,-90.25,17.7,10.3,0,0,,10.0,29.958662,,,TRUE,TRUE,,,,,,,CLR,,,,,,,,VFR,,,,,,,,,,,,METAR,187.0
KIIY 300355Z AUTO 00000KT 10SM OVC085 19/17 A2994 RMK AO2 T01880169,KIIY,2023-05-30T03:55:00Z,33.78,-82.82,18.8,16.9,0,0,,10.0,29.940945,,,TRUE,TRUE,,,,,,,OVC,8500,,,,,,,VFR,,,,,,,,,,,,METAR,192.0
KIIB 300355Z AUTO 15006KT 10SM CLR 18/05 A2997 RMK AO2 T01760049,KIIB,2023-05-30T03:55:00Z,42.45,-91.95,17.6,4.9,150,6,,10.0,29.970472,,,TRUE,TRUE,,,,,,,CLR,,,,,,,,VFR,,,,,,,,,,,,METAR,294.0
KIFP 300355Z AUTO 18012KT 10SM CLR 29/M02 A2974 RMK AO2,KIFP,2023-05-30T03:55:00Z,35.15,-114.57,29.0,-2.0,180,12,,10.0,29.740158,,,TRUE,TRUE,,,,,,,CLR,,,,,,,,VFR,,,,,,,,,,,,METAR,210.0
KIFA 300355Z AUTO 16007KT 10SM CLR 21/11 A2994 RMK AO2 T02100114,KIFA,2023-05-30T03:55:00Z,42.47,-93.27,21.0,11.4,160,7,,10.0,29.940945,,,TRUE,TRUE,,,,,,,CLR,,,,,,,,VFR,,,,,,,,,,,,METAR,344.0
KIER 300355Z AUTO 00000KT 10SM SCT075 21/20 A2994 RMK AO2 T02120195,KIER,2023-05-30T03:55:00Z,31.73,-93.1,21.2,19.5,0,0,,10.0,29.940945,,,TRUE,TRUE,,,,,,,SCT,7500,,,,,,,VFR,,,,,,,,,,,,METAR,35.0
KIDP 300355Z AUTO 00000KT 7SM CLR 18/18 A2994 RMK AO2 T01830175,KIDP,2023-05-30T03:55:00Z,37.17,-95.78,18.3,17.5,0,0,,7.0,29.940945,,,TRUE,TRUE,,,,,,,CLR,,,,,,,,VFR,,,,,,,,,,,,METAR,252.0
KIDI 300355Z AUTO 15004KT 10SM SCT050 SCT060 20/08 A3010 RMK A01,KIDI,2023-05-30T03:55:00Z,40.63,-79.1,20.0,8.0,150,4,,10.0,30.100393,,,TRUE,TRUE,,,,,,,SCT,5000,SCT,6000,,,,,VFR,,,,,,,,,,,,METAR,425.0
KICL 300355Z AUTO 20004KT 10SM 19/14 A2992 RMK AO2,KICL,2023-05-30T03:55:00Z,40.72,-95.02,19.0,14.0,200,4,,10.0,29.920275,,,TRUE,TRUE,,,,,,,,,,,,,,,,,,,,,,,,,,,METAR,299.0
KIBM 300355Z AUTO 00000KT 10SM CLR 13/11 A3000 RMK AO2 LTG DSNT SE T01340106,KIBM,2023-05-30T03:55:00Z,41.18,-103.68,13.4,10.6,0,0,,10.0,30.0,,,TRUE,TRUE,,,,,,,CLR,,,,,,,,VFR,,,,,,,,,,,,METAR,1494.0
KIAB 300355Z AUTO 15008KT 10SM CLR 21/18 A2991 RMK AO2 SLP122 T02070177 $,KIAB,2023-05-30T03:55:00Z,37.62,-97.27,20.7,17.7,150,8,,10.0,29.911417,1012.2,,TRUE,TRUE,TRUE,,,,,,CLR,,,,,,,,VFR,,,,,,,,,,,,METAR,413.0
KI95 300355Z AUTO 00000KT 10SM SCT048 OVC055 19/06 A3000 RMK A01,KI95,2023-05-30T03:55:00Z,,,19.0,6.0,0,0,,10.0,30.0,,,TRUE,TRUE,,,,,,,SCT,4800,OVC,5500,,,,,VFR,,,,,,,,,,,,METAR,
KI75 300355Z AUTO 15005KT 10SM CLR 19/12 A2994 RMK AO2 T01920120,KI75,2023-05-30T03:55:00Z,41.05,-93.68,19.2,12.0,150,5,,10.0,29.940945,,,TRUE,TRUE,,,,,,,CLR,,,,,,,,VFR,,,,,,,,,,,,METAR,336.0
KI74 300355Z AUTO 04003KT 10SM CLR 18/13 A3001 RMK AO2,KI74,2023-05-30T03:55:00Z,40.12,-83.75,18.0,13.0,40,3,,10.0,30.008858,,,TRUE,TRUE,,,,,,,CLR,,,,,,,,VFR,,,,,,,,,,,,METAR,322.0
KI68 300355Z AUTO 13004KT 10SM OVC090 23/13 A2998 RMK AO2,KI68,2023-05-30T03:55:00Z,39.47,-84.25,23.0,13.0,130,4,,10.0,29.97933,,,TRUE,TRUE,,,,,,,OVC,9000,,,,,,,VFR,,,,,,,,,,,,METAR,274.0
KI67 300355Z AUTO 00000KT 10SM SCT085 OVC110 20/12 A2997 RMK AO1,KI67,2023-05-30T03:55:00Z,39.25,-84.78,20.0,12.0,0,0,,10.0,29.970472,,,TRUE,TRUE,,,,,,,SCT,8500,OVC,11000,,,,,VFR,,,,,,,,,,,,METAR,177.0
KI63 300355Z AUTO 00000KT 10SM CLR 16/11 A2997 RMK AO2 T01590107,KI63,2023-05-30T03:55:00Z,39.98,-90.8,15.9,10.7,0,0,,10.0,29.970472,,,TRUE,TRUE,,,,,,,CLR,,,,,,,,VFR,,,,,,,,,,,,METAR,221.0
KI23 300355Z AUTO 15003KT 10SM SCT080 SCT100 20/14 A3000 RMK AO1,KI23,2023-05-30T03:55:00Z,39.57,-83.42,20.0,14.0,150,3,,10.0,30.0,,,TRUE,TRUE,,,,,,,SCT,8000,SCT,10000,,,,,VFR,,,,,,,,,,,,METAR,298.0
KI19 300355Z AUTO 00000KT 10SM OVC110 20/14 A2999 RMK AO2,KI19,2023-05-30T03:55:00Z,39.7,-83.98,20.0,14.0,0,0,,10.0,29.991142,,,TRUE,TRUE,,,,,,,OVC,11000,,,,,,,VFR,,,,,,,,,,,,METAR,285.0
KHZX 300355Z AUTO 12005KT 10SM CLR 18/07 A2987 RMK AO2,KHZX,2023-05-30T03:55:00Z,46.62,-93.32,18.0,7.0,120,5,,10.0,29.870079,,,TRUE,TRUE,,,,,,,CLR,,,,,,,,VFR,,,,,,,,,,,,METAR,374.0
KHZL 300355Z AUTO 11004KT SCT085 14/05 A3018 RMK AO2 LTG DSNT S PWINO,KHZL,2023-05-30T03:55:00Z,40.98,-76.0,14.0,5.0,110,4,,,30.180119,,,TRUE,TRUE,,,,,TRUE,,SCT,8500,,,,,,,,,,,,,,,,,,,METAR,481.0
KHZE 300355Z AUTO 18007KT 10SM CLR 15/14 A2977 RMK AO2,KHZE,2023-05-30T03:55:00Z,47.28,-101.58,15.0,14.0,180,7,,10.0,29.769686,,,TRUE,TRUE,,,,,,,CLR,,,,,,,,VFR,,,,,,,,,,,,METAR,542.0
KHZD 300355Z AUTO 00000KT 10SM FEW055 17/15 A2995 RMK A01,KHZD,2023-05-30T03:55:00Z,36.08,-88.47,17.0,15.0,0,0,,10.0,29.949802,,,TRUE,TRUE,,,,,,,FEW,5500,,,,,,,VFR,,,,,,,,,,,,METAR,147.0
KHYX 300355Z AUTO 00000KT 10SM CLR 17/10 A3004 RMK AO2 T01660095,KHYX,2023-05-30T03:55:00Z,43.43,-83.87,16.6,9.5,0,0,,10.0,30.041338,,,TRUE,TRUE,,,,,,,CLR,,,,,,,,VFR,,,,,,,,,,,,METAR,181.0
KHYW 300355Z AUTO 00000KT 10SM SCT038 17/16 A2994 RMK AO2,KHYW,2023-05-30T03:55:00Z,33.83,-79.12,17.0,16.0,0,0,,10.0,29.940945,,,TRUE,TRUE,,,,,,,SCT,3800,,,,,,,VFR,,,,,,,,,,,,METAR,10.0
KHXD 300355Z AUTO 00000KT 9SM OVC065 20/20 A2992 RMK AO2,KHXD,2023-05-30T03:55:00Z,32.22,-80.7,20.0,20.0,0,0,,9.0,29.920275,,,TRUE,TRUE,,,,,,,OVC,6500,,,,,,,VFR,,,,,,,,,,,,METAR,5.0
KHWY 300355Z AUTO 05004KT 10SM VCTS OVC023 18/16 A3008 RMK AO2 LTG DSNT E T01750160,KHWY,2023-05-30T03:55:00Z,38.58,-77.72,17.5,16.0,50,4,,10.0,30.079725,,,TRUE,TRUE,,,,,,VCTS,OVC,2300,,,,,,,MVFR,,,,,,,,,,,,METAR,93.0
KHVS 300355Z AUTO 00000KT 10SM FEW048 FEW060 18/17 A2994 RMK AO2 LTG DSNT E AND SW,KHVS,2023-05-30T03:55:00Z,34.4,-80.12,18.0,17.0,0,0,,10.0,29.940945,,,TRUE,TRUE,,,,,,,FEW,4800,FEW,6000,,,,,VFR,,,,,,,,,,,,METAR,110.0
KHVE 300355Z AUTO 14004KT 10SM CLR 23/M08 A2992 RMK AO2,KHVE,2023-05-30T03:55:00Z,38.42,-110.7,23.0,-8.0,140,4,,10.0,29.920275,,,TRUE,TRUE,,,,,,,CLR,,,,,,,,VFR,,,,,,,,,,,,METAR,1351.0
KHVC 300355Z AUTO 00000KT 10SM OVC075 21/17 A2995 RMK AO2,KHVC,2023-05-30T03:55:00Z,,,21.0,17.0,0,0,,10.0,29.949802,,,TRUE,TRUE,,,,,,,OVC,7500,,,,,,,VFR,,,,,,,,,,,,METAR,
KHUM 300355Z AUTO 00000KT 7SM CLR 23/19 A2993 RMK AO2 T02330190,KHUM,2023-05-30T03:55:00Z,29.57,-90.67,23.3,19.0,0,0,,7.0,29.929134,,,TRUE,TRUE,,,,,,,CLR,,,,,,,,VFR,,,,,,,,,,,,METAR,1.0
KHUA 300355Z AUTO 00000KT 10SM CLR 16/15 A2997 RMK AO2 SLP146 T01630153,KHUA,2023-05-30T03:55:00Z,34.68,-86.68,16.3,15.3,0,0,,10.0,29.970472,1014.6,,TRUE,TRUE,,,,,,,CLR,,,,,,,,VFR,,,,,,,,,,,,METAR,200.0
KHTH 300355Z AUTO 33010KT 10SM FEW036 SCT045 BKN050 21/05 A2989 RMK A01,KHTH,2023-05-30T03:55:00Z,38.55,-118.63,21.0,5.0,330,10,,10.0,29.890747,,,TRUE,TRUE,,,,,,,FEW,3600,SCT,4500,BKN,5000,,,VFR,,,,,,,,,,,,METAR,1281.0
KHST 300355Z AUTO 19003KT 10SM CLR 25/21 A2989 RMK AO2 SLP125 T02490214 $,KHST,2023-05-30T03:55:00Z,25.48,-80.37,24.9,21.4,190,3,,10.0,29.890747,1012.5,,TRUE,TRUE,TRUE,,,,,,CLR,,,,,,,,VFR,,,,,,,,,,,,METAR,1.0
KHSP 300355Z AUTO 08007KT M1/4SM RA OVC002 15/15 A3012 RMK AO2 LTG DSNT NE T01530150,KHSP,2023-05-30T03:55:00Z,37.95,-79.82,15.3,15.0,80,7,,0.25,30.121063,,,TRUE,TRUE,,,,,,RA,OVC,200,,,,,,,LIFR,,,,,,,,,,,,METAR,1148.0
KHSG 300355Z AUTO 22004KT 10SM CLR 15/06 A2994 RMK AO2 T01510062,KHSG,2023-05-30T03:55:00Z,43.72,-108.38,15.1,6.2,220,4,,10.0,29.940945,,,TRUE,TRUE,,,,,,,CLR,,,,,,,,VFR,,,,,,,,,,,,METAR,1497.0
KHSD 300355Z AUTO 14007KT 10SM CLR 21/18 A2993 RMK A01,KHSD,2023-05-30T03:55:00Z,35.6,-97.72,21.0,18.0,140,7,,10.0,29.929134,,,TRUE,TRUE,,,,,,,CLR,,,,,,,,VFR,,,,,,,,,,,,METAR,358.0
KHSB 300355Z AUTO 00000KT 10SM CLR 20/11 A2996 RMK AO2 T01990110,KHSB,2023-05-30T03:55:00Z,37.82,-88.55,19.9,11.0,0,0,,10.0,29.958662,,,TRUE,TRUE,,,,,,,CLR,,,,,,,,VFR,,,,,,,,,,,,METAR,118.0
KHRX 300355Z AUTO 10SM CLR 20/17 A3000 RMK AO2 T02010166 TSNO,KHRX,2023-05-30T03:55:00Z,34.87,-102.33,20.1,16.6,,,,10.0,30.0,,,TRUE,TRUE,,,TRUE,,,,CLR,,,,,,,,VFR,,,,,,,,,,,,METAR,1153.0
KHRT 300355Z AUTO 00000KT 10SM CLR 21/18 A2992 RMK AO2 SLP133 T02130179,KHRT,2023-05-30T03:55:00Z,30.42,-86.68,21.3,17.9,0,0,,10.0,29.920275,1013.3,,TRUE,TRUE,,,,,,,CLR,,,,,,,,VFR,,,,,,,,,,,,METAR,10.0
KHQZ 300355Z AUTO 12008KT 10SM SCT060 20/19 A2996 RMK AO1 T02000192,KHQZ,2023-05-30T03:55:00Z,32.75,-96.53,20.0,19.2,120,8,,10.0,29.958662,,,TRUE,TRUE,,,,,,,SCT,6000,,,,,,,VFR,,,,,,,,,,,,METAR,136.0
KHQU 300355Z AUTO 00000KT 10SM CLR 17/16 A2994 RMK AO2 T01680159,KHQU,2023-05-30T03:55:00Z,33.53,-82.52,16.8,15.9,0,0,,10.0,29.940945,,,TRUE,TRUE,,,,,,,CLR,,,,,,,,VFR,,,,,,,,,,,,METAR,141.0
KHQG 300355Z AUTO 15008KT 10SM CLR 19/16 A2995 RMK AO2 T01900156 PWINO,KHQG,2023-05-30T03:55:00Z,37.17,-101.37,19.0,15.6,150,8,,10.0,29.949802,,,TRUE,TRUE,,,,,TRUE,,CLR,,,,,,,,VFR,,,,,,,,,,,,METAR,956.0
KHQG 300355Z AUTO 15008KT 10SM CLR 19/16 A2995 RMK AO2 T01900156 PWINO,KHQG,2023-05-30T03:55:00Z,37.17,-101.37,19.0,15.6,150,8,,10.0,29.949802,,,TRUE,TRUE,,,,,TRUE,,CLR,,,,,,,,VFR,,,,,,,,,,,,METAR,956.0
KHPT 300355Z AUTO 18006KT 10SM CLR 20/10 A2993 RMK AO2,KHPT,2023-05-30T03:55:00Z,42.72,-93.23,20.0,10.0,180,6,,10.0,29.929134,,,TRUE,TRUE,,,,,,,CLR,,,,,,,,VFR,,,,,,,,,,,,METAR,354.0
KHOP 300355Z AUTO 23003KT 10SM BKN080 21/18 A2994 RMK AO2 SLP137 T02090181,KHOP,2023-05-30T03:55:00Z,36.67,-87.5,20.9,18.1,230,3,,10.0,29.940945,1013.7,,TRUE,TRUE,,,,,,,BKN,8000,,,,,,,VFR,,,,,,,,,,,,METAR,170.0
KHON 300355Z AUTO 33006KT 10SM VCTS CLR 23/13 A2972 RMK AO2 LTG DSNT S AND SW SLP056 T02330128,KHON,2023-05-30T03:55:00Z,44.38,-98.23,23.3,12.8,330,6,,10.0,29.719488,1005.6,,TRUE,TRUE,,,,,,VCTS,CLR,,,,,,,,VFR,,,,,,,,,,,,METAR,391.0
KHOE 300355Z AUTO 31003KT 10SM SCT085 21/17 A2990 RMK AO2 T02150176,KHOE,2023-05-30T03:55:00Z,31.05,-82.78,21.5,17.6,310,3,,10.0,29.899607,,,TRUE,TRUE,,,,,,,SCT,8500,,,,,,,VFR,,,,,,,,,,,,METAR,56.0
KHOB 300355Z AUTO 11013KT 10SM CLR 24/10 A2995 RMK AO2,KHOB,2023-05-30T03:55:00Z,32.67,-103.22,24.0,10.0,110,13,,10.0,29.949802,,,TRUE,TRUE,,,,,,,CLR,,,,,,,,VFR,,,,,,,,,,,,METAR,1112.0
KHNR 300355Z AUTO 18008KT 10SM CLR 23/14 A2990 RMK A01,KHNR,2023-05-30T03:55:00Z,41.58,-95.33,23.0,14.0,180,8,,10.0,29.899607,,,TRUE,TRUE,,,,,,,CLR,,,,,,,,VFR,,,,,,,,,,,,METAR,364.0
KHMZ 300355Z AUTO 00000KT 10SM CLR 14/09 A3009 RMK AO2 LTG DSNT SE T01430094,KHMZ,2023-05-30T03:55:00Z,40.08,-78.52,14.3,9.4,0,0,,10.0,30.088583,,,TRUE,TRUE,,,,,,,CLR,,,,,,,,VFR,,,,,,,,,,,,METAR,351.0
KHMT 300355Z AUTO 24007KT 10SM SCT022 SCT032 14/12 A2999 RMK AO2 T01350123,KHMT,2023-05-30T03:55:00Z,33.73,-117.02,13.5,12.3,240,7,,10.0,29.991142,,,TRUE,TRUE,,,,,,,SCT,2200,SCT,3200,,,,,VFR,,,,,,,,,,,,METAR,462.0
KHMP 300355Z AUTO 32003KT 10SM CLR 16/14 A2998 RMK AO2 T01560137,KHMP,2023-05-30T03:55:00Z,33.38,-84.33,15.6,13.7,320,3,,10.0,29.97933,,,TRUE,TRUE,,,,,,,CLR,,,,,,,,VFR,,,,,,,,,,,,METAR,263.0
KHMN 300355Z AUTO 25004KT 10SM CLR 24/M04 A2998 RMK AO2 SLP082 T02371045 $,KHMN,2023-05-30T03:55:00Z,32.85,-106.1,23.7,-4.5,250,4,,10.0,29.97933,1008.2,,TRUE,TRUE,TRUE,,,,,,CLR,,,,,,,,VFR,,,,,,,,,,,,METAR,1240.0
KHLX 300355Z AUTO 00000KT 10SM SCT002 BKN009 OVC013 15/15 A3005 RMK AO2 T01500149,KHLX,2023-05-30T03:55:00Z,36.77,-80.82,15.0,14.9,0,0,,10.0,30.050198,,,TRUE,TRUE,,,,,,,SCT,200,BKN,900,OVC,1300,,,IFR,,,,,,,,,,,,METAR,819.0
KHLB 300355Z AUTO 00000KT 10SM CLR 16/10 A2997 RMK A01,KHLB,2023-05-30T03:55:00Z,39.35,-85.27,16.0,10.0,0,0,,10.0,29.970472,,,TRUE,TRUE,,,,,,,CLR,,,,,,,,VFR,,,,,,,,,,,,METAR,297.0
KHJH 300355Z AUTO 17011G16KT 10SM CLR 24/17 A2989 RMK AO2 T02350167,KHJH,2023-05-30T03:55:00Z,40.15,-97.58,23.5,16.7,170,11,16,10.0,29.890747,,,TRUE,TRUE,,,,,,,CLR,,,,,,,,VFR,,,,,,,,,,,,METAR,449.0
KHHW 300355Z AUTO 17003KT 10SM CLR 20/17 A2994 RMK AO2,KHHW,2023-05-30T03:55:00Z,34.03,-95.55,20.0,17.0,170,3,,10.0,29.940945,,,TRUE,TRUE,,,,,,,CLR,,,,,,,,VFR,,,,,,,,,,,,METAR,178.0
KHHG 300355Z AUTO 08003KT 10SM CLR 21/07 A3000 RMK AO2 T02090074,KHHG,2023-05-30T03:55:00Z,40.85,-85.45,20.9,7.4,80,3,,10.0,30.0,,,TRUE,TRUE,,,,,,,CLR,,,,,,,,VFR,,,,,,,,,,,,METAR,247.0
KHHF 300355Z AUTO 20007KT 21/16 A2993 RMK AO2 T02080155 PWINO,KHHF,2023-05-30T03:55:00Z,35.9,-100.4,20.8,15.5,200,7,,,29.929134,,,TRUE,TRUE,,,,,TRUE,,,,,,,,,,,,,,,,,,,,,,METAR,729.0
KHFY 300355Z AUTO 00000KT 10SM CLR 21/10 A2997 RMK AO2 T02050103,KHFY,2023-05-30T03:55:00Z,39.63,-86.08,20.5,10.3,0,0,,10.0,29.970472,,,TRUE,TRUE,,,,,,,CLR,,,,,,,,VFR,,,,,,,,,,,,METAR,250.0
KHFJ 300355Z AUTO 14004KT 10SM CLR 20/15 A2996 RMK AO2,KHFJ,2023-05-30T03:55:00Z,36.9,-94.02,20.0,15.0,140,4,,10.0,29.958662,,,TRUE,TRUE,,,,,,,CLR,,,,,,,,VFR,,,,,,,,,,,,METAR,398.0
KHFF 300355Z AUTO 06003KT 10SM BKN025 OVC042 19/19 A2993 RMK AO2 LTG DSNT NE-E SLP136 T01890187 $,KHFF,2023-05-30T03:55:00Z,35.03,-79.5,18.9,18.7,60,3,,10.0,29.929134,1013.6,,TRUE,TRUE,TRUE,,,,,,BKN,2500,OVC,4200,,,,,MVFR,,,,,,,,,,,,METAR,100.0
KHEY 300355Z AUTO 00000KT 10SM CLR 19/16 A2990 RMK AO2 SLP125 T01850159,KHEY,2023-05-30T03:55:00Z,31.35,-85.65,18.5,15.9,0,0,,10.0,29.899607,1012.5,,TRUE,TRUE,,,,,,,CLR,,,,,,,,VFR,,,,,,,,,,,,METAR,95.0
KHEQ 300355Z AUTO 32014G31KT 2SM +TSRA BKN009 BKN021 OVC060 15/10 A3005 RMK AO2 VIS 1V5 P0030 LTG DSNT ALQS,KHEQ,2023-05-30T03:55:00Z,40.57,-102.28,15.0,10.0,320,14,31,2.0,30.050198,,,TRUE,TRUE,,,,,,+TSRA,BKN,900,BKN,2100,OVC,6000,,,IFR,,,,,,0.3,,,,,,METAR,1136.0
KHEG 300355Z AUTO 00000KT 8SM SCT100 23/18 A2992 RMK AO2,KHEG,2023-05-30T03:55:00Z,30.28,-81.8,23.0,18.0,0,0,,8.0,29.920275,,,TRUE,TRUE,,,,,,,SCT,10000,,,,,,,VFR,,,,,,,,,,,,METAR,25.0
KHDL 300355Z AUTO 00000KT 10SM FEW050 21/17 A2993 RMK AO2,KHDL,2023-05-30T03:55:00Z,31.37,-85.32,21.0,17.0,0,0,,10.0,29.929134,,,TRUE,TRUE,,,,,,,FEW,5000,,,,,,,VFR,,,,,,,,,,,,METAR,109.0
KHDE 300355Z AUTO 33017G28KT 10SM -RA BKN070 OVC120 21/12 A2994 RMK AO2 LTG DSNT SW THRU N T02070118,KHDE,2023-05-30T03:55:00Z,40.45,-99.33,20.7,11.8,330,17,28,10.0,29.940945,,,TRUE,TRUE,,,,,,-RA,BKN,7000,OVC,12000,,,,,VFR,,,,,,,,,,,,METAR,703.0
KHDC 300355Z AUTO 00000KT 10SM BKN047 OVC090 22/20 A2993 RMK AO2 P0004 T02230202,KHDC,2023-05-30T03:55:00Z,30.52,-90.42,22.3,20.2,0,0,,10.0,29.929134,,,TRUE,TRUE,,,,,,,BKN,4700,OVC,9000,,,,,VFR,,,,,,0.04,,,,,,METAR,12.0
KHCR 300355Z AUTO 10SM CLR 12/03 A2998 RMK AO2,KHCR,2023-05-30T03:55:00Z,40.48,-111.43,12.0,3.0,,,,10.0,29.97933,,,TRUE,TRUE,,,,,,,CLR,,,,,,,,VFR,,,,,,,,,,,,METAR,1708.0
KHCO 300355Z AUTO 13012KT 10SM SCT100 19/16 A2970 RMK AO2 LTG DSNT S,KHCO,2023-05-30T03:55:00Z,48.75,-96.93,19.0,16.0,130,12,,10.0,29.698818,,,TRUE,TRUE,,,,,,,SCT,10000,,,,,,,VFR,,,,,,,,,,,,METAR,250.0
KHCD 300355Z AUTO 14005KT 10SM CLR 21/13 A2985 RMK AO2 LTG DSNT S T02110130 PNO,KHCD,2023-05-30T03:55:00Z,44.87,-94.38,21.1,13.0,140,5,,10.0,29.84941,,,TRUE,TRUE,,,,,,,CLR,,,,,,,,VFR,,,,,,,,,,,,METAR,320.0
KHBV 300355Z AUTO 10009KT 10SM BKN070 BKN085 21/20 A2993 RMK AO2 LTG DSNT E THRU SW T02130195,KHBV,2023-05-30T03:55:00Z,27.35,-98.73,21.3,19.5,100,9,,10.0,29.929134,,,TRUE,TRUE,,,,,,,BKN,7000,BKN,8500,,,,,VFR,,,,,,,,,,,,METAR,200.0
KHAI 300355Z AUTO 00000KT 10SM CLR 19/10 A3002 RMK AO2 T01910103,KHAI,2023-05-30T03:55:00Z,41.97,-85.6,19.1,10.3,0,0,,10.0,30.02067,,,TRUE,TRUE,,,,,,,CLR,,,,,,,,VFR,,,,,,,,,,,,METAR,250.0
KHAF 300355Z AUTO 18007KT 9SM CLR 13/11 A2999 RMK AO2,KHAF,2023-05-30T03:55:00Z,37.52,-122.5,13.0,11.0,180,7,,9.0,29.991142,,,TRUE,TRUE,,,,,,,CLR,,,,,,,,VFR,,,,,,,,,,,,METAR,11.0
KHAE 300355Z AUTO 00000KT 10SM CLR 17/10 A2997 RMK AO2,KHAE,2023-05-30T03:55:00Z,39.73,-91.45,17.0,10.0,0,0,,10.0,29.970472,,,TRUE,TRUE,,,,,,,CLR,,,,,,,,VFR,,,,,,,,,,,,METAR,230.0
KGZS 300355Z AUTO 00000KT 14/14 RMK A01,KGZS,2023-05-30T03:55:00Z,35.15,-87.05,14.0,14.0,0,0,,,,,,TRUE,TRUE,,,,,,,,,,,,,,,,,,,,,,,,,,,METAR,198.0
KGZL 300355Z AUTO 11004KT 10SM 24/16 A2992 RMK AO2,KGZL,2023-05-30T03:55:00Z,35.28,-95.1,24.0,16.0,110,4,,10.0,29.920275,,,TRUE,TRUE,,,,,,,,,,,,,,,,,,,,,,,,,,,METAR,176.0
KGYL 300355Z AUTO 15003KT 10SM SCT085 21/13 A2984 RMK AO2 T02100128,KGYL,2023-05-30T03:55:00Z,44.77,-94.08,21.0,12.8,150,3,,10.0,29.840551,,,TRUE,TRUE,,,,,,,SCT,8500,,,,,,,VFR,,,,,,,,,,,,METAR,304.0
KGYI 300355Z AUTO 00000KT 10SM CLR 20/18 A2995 RMK AO2 T01980183 TSNO,KGYI,2023-05-30T03:55:00Z,33.72,-96.67,19.8,18.3,0,0,,10.0,29.949802,,,TRUE,TRUE,,,TRUE,,,,CLR,,,,,,,,VFR,,,,,,,,,,,,METAR,227.0
KGYH 300355Z AUTO 04005KT 10SM SCT032 OVC046 20/16 A2997 RMK A02 T02000164,KGYH,2023-05-30T03:55:00Z,34.75,-82.38,20.0,16.4,40,5,,10.0,29.970472,,,TRUE,TRUE,,,,,,,SCT,3200,OVC,4600,,,,,VFR,,,,,,,,,,,,METAR,283.0
KGYF 300355Z AUTO 09006KT 10SM SCT021 26/21 A2989 RMK AO2 T02610211,KGYF,2023-05-30T03:55:00Z,26.13,-94.9,26.1,21.1,90,6,,10.0,29.890747,,,TRUE,TRUE,,,,,,,SCT,2100,,,,,,,VFR,,,,,,,,,,,,METAR,65.0
KGYB 300355Z AUTO 00000KT 10SM BKN110 22/19 A2994 RMK AO2 T02180193,KGYB,2023-05-30T03:55:00Z,30.17,-96.98,21.8,19.3,0,0,,10.0,29.940945,,,TRUE,TRUE,,,,,,,BKN,11000,,,,,,,VFR,,,,,,,,,,,,METAR,140.0
KGXF 300355Z AUTO 22009KT 10SM CLR 29/01 A2981 RMK AO2 SLP082 T02870012 FZRANO $,KGXF,2023-05-30T03:55:00Z,32.88,-112.72,28.7,1.2,220,9,,10.0,29.811024,1008.2,,TRUE,TRUE,TRUE,,,TRUE,,,CLR,,,,,,,,VFR,,,,,,,,,,,,METAR,261.0
KGXA 300355Z AUTO 34005KT 10SM CLR 15/08 A2990 RMK AO2 SLP107 WND DATA ESTMD T01530076,KGXA,2023-05-30T03:55:00Z,34.57,-117.67,15.3,7.6,340,5,,10.0,29.899607,1010.7,,TRUE,TRUE,,,,,,,CLR,,,,,,,,VFR,,,,,,,,,,,,METAR,927.0
KGWR 300355Z AUTO 35017KT 10SM FEW065 20/13 A2975 RMK A01,KGWR,2023-05-30T03:55:00Z,46.22,-97.65,20.0,13.0,350,17,,10.0,29.749016,,,TRUE,TRUE,,,,,,,FEW,6500,,,,,,,VFR,,,,,,,,,,,,METAR,381.0
KGWB 300355Z AUTO 00000KT 10SM CLR 17/10 A3002 RMK AO2,KGWB,2023-05-30T03:55:00Z,41.3,-85.07,17.0,10.0,0,0,,10.0,30.02067,,,TRUE,TRUE,,,,,,,CLR,,,,,,,,VFR,,,,,,,,,,,,METAR,268.0
KGVT 300355Z AUTO 15009KT 7SM -RA SCT110 19/19 A2995 RMK AO2 P0002 TSNO T01940190,KGVT,2023-05-30T03:55:00Z,33.07,-96.07,19.4,19.0,150,9,,7.0,29.949802,,,TRUE,TRUE,,,TRUE,,,-RA,SCT,11000,,,,,,,VFR,,,,,,0.02,,,,,,METAR,165.0
KGVE 300355Z AUTO 06004KT 10SM BKN009 OVC013 19/18 A3004 RMK AO1 T01910182,KGVE,2023-05-30T03:55:00Z,38.15,-78.17,19.1,18.2,60,4,,10.0,30.041338,,,TRUE,TRUE,,,,,,,BKN,900,OVC,1300,,,,,IFR,,,,,,,,,,,,METAR,138.0
KGUS 300355Z AUTO 09008KT 10SM CLR 23/08 A2996 RMK AO2 SLP143 T02270084 $,KGUS,2023-05-30T03:55:00Z,40.63,-86.15,22.7,8.4,90,8,,10.0,29.958662,1014.3,,TRUE,TRUE,TRUE,,,,,,CLR,,,,,,,,VFR,,,,,,,,,,,,METAR,245.0
KGUR 300355Z AUTO 00000KT 10SM CLR 17/06 A2990 RMK AO2 SLP106 T01660061,KGUR,2023-05-30T03:55:00Z,42.25,-104.72,16.6,6.1,0,0,,10.0,29.899607,1010.6,,TRUE,TRUE,,,,,,,CLR,,,,,,,,VFR,,,,,,,,,,,,METAR,1341.0
KGTB 300355Z AUTO 00000KT 10SM CLR 14/08 A3004 RMK AO2 SLP171 T01430076 $,KGTB,2023-05-30T03:55:00Z,44.07,-75.72,14.3,7.6,0,0,,10.0,30.041338,1017.1,,TRUE,TRUE,TRUE,,,,,,CLR,,,,,,,,VFR,,,,,,,,,,,,METAR,206.0
KGSB 300355Z 28003KT 10SM OVC041 20/18 A2992 RMK AO2A SLP135 WND DATA ESTMD T01950183 $,KGSB,2023-05-30T03:55:00Z,35.33,-77.93,19.5,18.3,280,3,,10.0,29.920275,1013.5,,,TRUE,TRUE,,,,,,OVC,4100,,,,,,,VFR,,,,,,,,,,,,METAR,33.0
KGRY 300355Z AUTO 15008KT 10SM FEW035 24/19 A2991 RMK A01,KGRY,2023-05-30T03:55:00Z,27.63,-90.45,24.0,19.0,150,8,,10.0,29.911417,,,TRUE,TRUE,,,,,,,FEW,3500,,,,,,,VFR,,,,,,,,,,,,METAR,58.0
KGRN 300355Z AUTO 23007KT 10SM CLR 16/11 A2989 RMK AO2 T01550110,KGRN,2023-05-30T03:55:00Z,42.8,-102.17,15.5,11.0,230,7,,10.0,29.890747,,,TRUE,TRUE,,,,,,,CLR,,,,,,,,VFR,,,,,,,,,,,,METAR,1080.0
KGRK 300355Z AUTO 16003KT 10SM SCT150 21/18 A2993 RMK AO2 SLP126 T02120182,KGRK,2023-05-30T03:55:00Z,31.07,-97.83,21.2,18.2,160,3,,10.0,29.929134,1012.6,,TRUE,TRUE,,,,,,,SCT,15000,,,,,,,VFR,,,,,,,,,,,,METAR,311.0
KGRF 300355Z AUTO 27009KT 10SM CLR 15/06 A2990 RMK AO2 SLP129 T01450058 $,KGRF,2023-05-30T03:55:00Z,47.07,-122.57,14.5,5.8,270,9,,10.0,29.899607,1012.9,,TRUE,TRUE,TRUE,,,,,,CLR,,,,,,,,VFR,,,,,,,,,,,,METAR,91.0
KGPM 300355Z AUTO 11007KT 10SM CLR 22/18 A2995 RMK AO2 T02200178,KGPM,2023-05-30T03:55:00Z,32.7,-97.05,22.0,17.8,110,7,,10.0,29.949802,,,TRUE,TRUE,,,,,,,CLR,,,,,,,,VFR,,,,,,,,,,,,METAR,178.0
KGPI 300355Z 35003KT 10SM OVC110 14/11 A2981 RMK AO2 SLP086 T01390106,KGPI,2023-05-30T03:55:00Z,48.32,-114.25,13.9,10.6,350,3,,10.0,29.811024,1008.6,,,TRUE,,,,,,,OVC,11000,,,,,,,VFR,,,,,,,,,,,,METAR,903.0
KGPH 300355Z AUTO 00000KT 10SM CLR 20/14 A2994 RMK AO2,KGPH,2023-05-30T03:55:00Z,39.33,-94.32,20.0,14.0,0,0,,10.0,29.940945,,,TRUE,TRUE,,,,,,,CLR,,,,,,,,VFR,,,,,,,,,,,,METAR,233.0
KGPC 300355Z AUTO 00000KT 10SM CLR 19/13 A2997 RMK AO2 T01890126,KGPC,2023-05-30T03:55:00Z,39.63,-86.82,18.9,12.6,0,0,,10.0,29.970472,,,TRUE,TRUE,,,,,,,CLR,,,,,,,,VFR,,,,,,,,,,,,METAR,254.0
KGOV 300355Z AUTO 00000KT 10SM CLR 12/04 A3005 RMK AO2 RAB08E13RAB19E30 SLP179 P0000 T01230038 403090004 $,KGOV,2023-05-30T03:55:00Z,44.68,-84.73,12.3,3.8,0,0,,10.0,30.050198,1017.9,,TRUE,TRUE,TRUE,,,,,,CLR,,,,,,,,VFR,,,,30.9,0.4,0.005,,,,,,METAR,350.0
KGOO 300355Z AUTO 00000KT 10SM CLR 15/10 A2996 RMK A01,KGOO,2023-05-30T03:55:00Z,39.22,-121.0,15.0,10.0,0,0,,10.0,29.958662,,,TRUE,TRUE,,,,,,,CLR,,,,,,,,VFR,,,,,,,,,,,,METAR,950.0
KGNT 300355Z AUTO 20008KT 10SM SCT120 21/M05 A3015 RMK AO2 T02051051,KGNT,2023-05-30T03:55:00Z,35.17,-107.9,20.5,-5.1,200,8,,10.0,30.15059,,,TRUE,TRUE,,,,,,,SCT,12000,,,,,,,VFR,,,,,,,,,,,,METAR,1988.0
KGNG 300355Z AUTO 28006KT 10SM CLR 19/07 A2993 RMK AO2,KGNG,2023-05-30T03:55:00Z,42.92,-114.77,19.0,7.0,280,6,,10.0,29.929134,,,TRUE,TRUE,,,,,,,CLR,,,,,,,,VFR,,,,,,,,,,,,METAR,1128.0
KGNB 300355Z AUTO 13003KT 10SM CLR 09/M01 A3020 RMK AO2 T00901009,KGNB,2023-05-30T03:55:00Z,40.08,-105.92,9.0,-0.9,130,3,,10.0,30.200787,,,TRUE,TRUE,,,,,,,CLR,,,,,,,,VFR,,,,,,,,,,,,METAR,2500.0
KGMJ 300355Z AUTO 00000KT 10SM CLR 20/19 A2994 RMK AO2,KGMJ,2023-05-30T03:55:00Z,36.6,-94.73,20.0,19.0,0,0,,10.0,29.940945,,,TRUE,TRUE,,,,,,,CLR,,,,,,,,VFR,,,,,,,,,,,,METAR,251.0
KGLY 300355Z AUTO 13003KT 10SM CLR 21/15 A2994 RMK AO2,KGLY,2023-05-30T03:55:00Z,38.35,-93.68,21.0,15.0,130,3,,10.0,29.940945,,,TRUE,TRUE,,,,,,,CLR,,,,,,,,VFR,,,,,,,,,,,,METAR,247.0
KGLW 300355Z AUTO 00000KT 10SM CLR 17/16 A2997 RMK AO2 T01670155 402550116,KGLW,2023-05-30T03:55:00Z,37.03,-85.95,16.7,15.5,0,0,,10.0,29.970472,,,TRUE,TRUE,,,,,,,CLR,,,,,,,,VFR,,,,25.5,11.6,,,,,,,METAR,216.0
KGLE 300355Z AUTO 15005KT 10SM CLR 20/18 A2996 RMK AO2 T01950182 PWINO,KGLE,2023-05-30T03:55:00Z,33.65,-97.2,19.5,18.2,150,5,,10.0,29.958662,,,TRUE,TRUE,,,,,TRUE,,CLR,,,,,,,,VFR,,,,,,,,,,,,METAR,250.0
KGKT 300355Z AUTO 00000KT 10SM CLR 14/14 A3000 RMK A01,KGKT,2023-05-30T03:55:00Z,35.85,-83.53,14.0,14.0,0,0,,10.0,30.0,,,TRUE,TRUE,,,,,,,CLR,,,,,,,,VFR,,,,,,,,,,,,METAR,305.0
KGIC 300355Z AUTO 20006KT 10SM CLR 16/10 A2986 RMK AO1,KGIC,2023-05-30T03:55:00Z,45.95,-116.12,16.0,10.0,200,6,,10.0,29.861221,,,TRUE,TRUE,,,,,,,CLR,,,,,,,,VFR,,,,,,,,,,,,METAR,1002.0
KGHW 300355Z AUTO 13009KT 10SM CLR 19/13 A2982 RMK AO2 LTG DSNT NW,KGHW,2023-05-30T03:55:00Z,45.63,-95.32,19.0,13.0,130,9,,10.0,29.819881,,,TRUE,TRUE,,,,,,,CLR,,,,,,,,VFR,,,,,,,,,,,,METAR,423.0
KGHG 300355Z AUTO 00000KT 10SM CLR 07/05 A3022 RMK AO2,KGHG,2023-05-30T03:55:00Z,42.1,-70.67,7.0,5.0,0,0,,10.0,30.221457,,,TRUE,TRUE,,,,,,,CLR,,,,,,,,VFR,,,,,,,,,,,,METAR,3.0
KGGP 300355Z AUTO 02005KT 10SM CLR 22/07 A2999 RMK AO2,KGGP,2023-05-30T03:55:00Z,40.72,-86.37,22.0,7.0,20,5,,10.0,29.991142,,,TRUE,TRUE,,,,,,,CLR,,,,,,,,VFR,,,,,,,,,,,,METAR,224.0
KGGI 300355Z AUTO 14005KT 10SM CLR 22/09 A2996 RMK AO2 T02190090,KGGI,2023-05-30T03:55:00Z,41.72,-92.73,21.9,9.0,140,5,,10.0,29.958662,,,TRUE,TRUE,,,,,,,CLR,,,,,,,,VFR,,,,,,,,,,,,METAR,305.0
KGGF 300355Z AUTO 15009KT 10SM FEW100 FEW120 17/13 A2991 RMK AO2 LTG DSNT SE-SW P0001,KGGF,2023-05-30T03:55:00Z,40.87,-101.73,17.0,13.0,150,9,,10.0,29.911417,,,TRUE,TRUE,,,,,,,FEW,10000,FEW,12000,,,,,VFR,,,,,,0.01,,,,,,METAR,1044.0
KGGE 300355Z AUTO 00000KT 7SM CLR 16/16 A2994 RMK AO2,KGGE,2023-05-30T03:55:00Z,33.32,-79.32,16.0,16.0,0,0,,7.0,29.940945,,,TRUE,TRUE,,,,,,,CLR,,,,,,,,VFR,,,,,,,,,,,,METAR,9.0
KGFA 300355Z AUTO 00000KT 9SM BKN100 OVC120 17/08 A2983 RMK AO2 SLP089 T01720083 $,KGFA,2023-05-30T03:55:00Z,47.5,-111.18,17.2,8.3,0,0,,9.0,29.828741,1008.9,,TRUE,TRUE,TRUE,,,,,,BKN,10000,OVC,12000,,,,,VFR,,,,,,,,,,,,METAR,1058.0
KGDJ 300355Z AUTO 22003KT 10SM CLR 21/20 A2995 RMK AO2 T02060195,KGDJ,2023-05-30T03:55:00Z,32.45,-97.82,20.6,19.5,220,3,,10.0,29.949802,,,TRUE,TRUE,,,,,,,CLR,,,,,,,,VFR,,,,,,,,,,,,METAR,235.0
KGDB 300355Z AUTO 20011KT 10SM VCTS BKN085 21/15 A2985 RMK AO2 LTG DSNT SW THRU NW T02060152,KGDB,2023-05-30T03:55:00Z,44.75,-95.55,20.6,15.2,200,11,,10.0,29.84941,,,TRUE,TRUE,,,,,,VCTS,BKN,8500,,,,,,,VFR,,,,,,,,,,,,METAR,316.0
KGDA 300355Z AUTO 00000KT 10SM CLR 19/13 A2996 RMK AO2 T01930134 PWINO,KGDA,2023-05-30T03:55:00Z,37.33,-88.1,19.3,13.4,0,0,,10.0,29.958662,,,TRUE,TRUE,,,,,TRUE,,CLR,,,,,,,,VFR,,,,,,,,,,,,METAR,199.0
KGCY 300355Z AUTO 00000KT 10SM BKN023 14/14 A3001 RMK A01,KGCY,2023-05-30T03:55:00Z,36.2,-82.82,14.0,14.0,0,0,,10.0,30.008858,,,TRUE,TRUE,,,,,,,BKN,2300,,,,,,,MVFR,,,,,,,,,,,,METAR,488.0
KGCM 300355Z AUTO 12003KT 10SM OVC065 23/20 A2993 RMK AO2,KGCM,2023-05-30T03:55:00Z,36.3,-95.48,23.0,20.0,120,3,,10.0,29.929134,,,TRUE,TRUE,,,,,,,OVC,6500,,,,,,,VFR,,,,,,,,,,,,METAR,215.0
KGCD 300355Z AUTO 32004KT 10SM SCT100 20/04 A2988 RMK AO2 T02000043,KGCD,2023-05-30T03:55:00Z,44.4,-118.97,20.0,4.3,320,4,,10.0,29.878937,,,TRUE,TRUE,,,,,,,SCT,10000,,,,,,,VFR,,,,,,,,,,,,METAR,1122.0
KGBG 300355Z AUTO 00000KT 10SM CLR 16/07 A2998 RMK AO2 T01620072 TSNO,KGBG,2023-05-30T03:55:00Z,40.93,-90.43,16.2,7.2,0,0,,10.0,29.97933,,,TRUE,TRUE,,,TRUE,,,,CLR,,,,,,,,VFR,,,,,,,,,,,,METAR,230.0
KGAO 300355Z AUTO 00000KT 10SM BKN085 22/19 A2993 RMK AO2 T02230192,KGAO,2023-05-30T03:55:00Z,29.45,-90.27,22.3,19.2,0,0,,10.0,29.929134,,,TRUE,TRUE,,,,,,,BKN,8500,,,,,,,VFR,,,,,,,,,,,,METAR,0.0
KGAF 300355Z AUTO 23009G22KT 190V250 10SM SCT060 BKN080 22/15 A2973 RMK AO2,KGAF,2023-05-30T03:55:00Z,48.4,-97.37,22.0,15.0,230,9,22,10.0,29.731298,,,TRUE,TRUE,,,,,,,SCT,6000,BKN,8000,,,,,VFR,,,,,,,,,,,,METAR,250.0
KFZG 300355Z AUTO 01003KT 10SM CLR 21/14 A2993 RMK AO2 T02070143,KFZG,2023-05-30T03:55:00Z,31.68,-83.27,20.7,14.3,10,3,,10.0,29.929134,,,TRUE,TRUE,,,,,,,CLR,,,,,,,,VFR,,,,,,,,,,,,METAR,105.0
KFYM 300355Z AUTO 00000KT 10SM FEW004 FEW048 16/15 A2999 RMK A01,KFYM,2023-05-30T03:55:00Z,35.07,-86.57,16.0,15.0,0,0,,10.0,29.991142,,,TRUE,TRUE,,,,,,,FEW,400,FEW,4800,,,,,VFR,,,,,,,,,,,,METAR,297.0
KFYJ 300355Z AUTO 06005KT 4SM BKN006 OVC011 18/18 A3002 RMK AO1 P0001 T01820177,KFYJ,2023-05-30T03:55:00Z,37.52,-76.77,18.2,17.7,60,5,,4.0,30.02067,,,TRUE,TRUE,,,,,,,BKN,600,OVC,1100,,,,,IFR,,,,,,0.01,,,,,,METAR,3.0
KFYG 300355Z AUTO 00000KT 10SM CLR 17/13 A2996 RMK AO2,KFYG,2023-05-30T03:55:00Z,38.58,-91.0,17.0,13.0,0,0,,10.0,29.958662,,,TRUE,TRUE,,,,,,,CLR,,,,,,,,VFR,,,,,,,,,,,,METAR,147.0
KFYE 300355Z AUTO 00000KT 10SM CLR 17/15 A2994 RMK A01,KFYE,2023-05-30T03:55:00Z,35.2,-89.38,17.0,15.0,0,0,,10.0,29.940945,,,TRUE,TRUE,,,,,,,CLR,,,,,,,,VFR,,,,,,,,,,,,METAR,133.0
KFXY 300355Z AUTO 32009KT 10SM BKN080 BKN110 21/12 A2993 RMK AO2,KFXY,2023-05-30T03:55:00Z,43.23,-93.62,21.0,12.0,320,9,,10.0,29.929134,,,TRUE,TRUE,,,,,,,BKN,8000,BKN,11000,,,,,VFR,,,,,,,,,,,,METAR,366.0
KFWS 300355Z AUTO 10012G16KT 10SM CLR 23/18 A2996 RMK AO2 LTG DSNT E T02290176,KFWS,2023-05-30T03:55:00Z,32.57,-97.3,22.9,17.6,100,12,16,10.0,29.958662,,,TRUE,TRUE,,,,,,,CLR,,,,,,,,VFR,,,,,,,,,,,,METAR,211.0
KFWC 300355Z AUTO 00000KT 10SM CLR 19/13 A2994 RMK AO1 T01890130,KFWC,2023-05-30T03:55:00Z,38.38,-88.42,18.9,13.0,0,0,,10.0,29.940945,,,TRUE,TRUE,,,,,,,CLR,,,,,,,,VFR,,,,,,,,,,,,METAR,131.0
KFWB 300355Z AUTO 00000KT 10SM CLR 21/13 A2998 RMK AO2,KFWB,2023-05-30T03:55:00Z,36.7,-93.4,21.0,13.0,0,0,,10.0,29.97933,,,TRUE,TRUE,,,,,,,CLR,,,,,,,,VFR,,,,,,,,,,,,METAR,392.0
KFVX 300355Z AUTO 02005KT 7SM BKN008 BKN024 19/19 A2998 RMK AO2 LTG DSNT E T01860186,KFVX,2023-05-30T03:55:00Z,37.35,-78.43,18.6,18.6,20,5,,7.0,29.97933,,,TRUE,TRUE,,,,,,,BKN,800,BKN,2400,,,,,IFR,,,,,,,,,,,,METAR,129.0
KFTN 300355Z AUTO 10007G14KT 10SM CLR 23/19 A2993 RMK A01,KFTN,2023-05-30T03:55:00Z,28.22,-100.02,23.0,19.0,100,7,14,10.0,29.929134,,,TRUE,TRUE,,,,,,,CLR,,,,,,,,VFR,,,,,,,,,,,,METAR,236.0
KFTK 300355Z AUTO 15003KT 10SM OVC100 22/13 A2995 RMK AO2 SLP139 T02180134 TSNO $,KFTK,2023-05-30T03:55:00Z,37.9,-85.97,21.8,13.4,150,3,,10.0,29.949802,1013.9,,TRUE,TRUE,TRUE,,TRUE,,,,OVC,10000,,,,,,,VFR,,,,,,,,,,,,METAR,225.0
KFSW 300355Z AUTO 00000KT 10SM 19/11 A2996 RMK AO2,KFSW,2023-05-30T03:55:00Z,40.67,-91.32,19.0,11.0,0,0,,10.0,29.958662,,,TRUE,TRUE,,,,,,,,,,,,,,,,,,,,,,,,,,,METAR,219.0
KFSI 300355Z AUTO 15008KT 10SM CLR 21/20 A2990 RMK AO2 SLP118 T02110204 FZRANO $,KFSI,2023-05-30T03:55:00Z,34.65,-98.4,21.1,20.4,150,8,,10.0,29.899607,1011.8,,TRUE,TRUE,TRUE,,,TRUE,,,CLR,,,,,,,,VFR,,,,,,,,,,,,METAR,360.0
KFRR 300355Z AUTO 10006KT 10SM BKN022 OVC027 18/14 A3008 RMK AO1,KFRR,2023-05-30T03:55:00Z,38.92,-78.25,18.0,14.0,100,6,,10.0,30.079725,,,TRUE,TRUE,,,,,,,BKN,2200,OVC,2700,,,,,MVFR,,,,,,,,,,,,METAR,213.0
KFRI 300355Z AUTO 15008KT 10SM CLR 21/17 A2991 RMK AO2 SLP118 T02090165 $,KFRI,2023-05-30T03:55:00Z,39.05,-96.77,20.9,16.5,150,8,,10.0,29.911417,1011.8,,TRUE,TRUE,TRUE,,,,,,CLR,,,,,,,,VFR,,,,,,,,,,,,METAR,232.0
KFRH 300355Z AUTO 00000KT 10SM CLR 21/10 A2996 RMK AO1,KFRH,2023-05-30T03:55:00Z,38.5,-86.63,21.0,10.0,0,0,,10.0,29.958662,,,TRUE,TRUE,,,,,,,CLR,,,,,,,,VFR,,,,,,,,,,,,METAR,241.0
KFPY 300355Z AUTO 24003KT 10SM SCT090 23/21 A2992 RMK AO2 T02280208 403050151,KFPY,2023-05-30T03:55:00Z,30.07,-83.57,22.8,20.8,240,3,,10.0,29.920275,,,TRUE,TRUE,,,,,,,SCT,9000,,,,,,,VFR,,,,30.5,15.1,,,,,,,METAR,12.0
KFOT 300355Z AUTO 00000KT 2SM OVC002 09/09 A2999 RMK AO1,KFOT,2023-05-30T03:55:00Z,40.55,-124.13,9.0,9.0,0,0,,2.0,29.991142,,,TRUE,TRUE,,,,,,,OVC,200,,,,,,,LIFR,,,,,,,,,,,,METAR,118.0
KFOA 300355Z AUTO 00000KT 10SM CLR 22/14 A2995 RMK AO2,KFOA,2023-05-30T03:55:00Z,38.67,-88.45,22.0,14.0,0,0,,10.0,29.949802,,,TRUE,TRUE,,,,,,,CLR,,,,,,,,VFR,,,,,,,,,,,,METAR,141.0
KFMM 300355Z AUTO 10SM CLR 15/11 A2997 RMK AO2,KFMM,2023-05-30T03:55:00Z,40.33,-103.8,15.0,11.0,,,,10.0,29.970472,,,TRUE,TRUE,,,,,,,CLR,,,,,,,,VFR,,,,,,,,,,,,METAR,1376.0
KFLY 300355Z AUTO 11005KT 10SM BKN120 16/04 A3010 RMK AO2 LTG DSNT SE T01550044,KFLY,2023-05-30T03:55:00Z,38.95,-104.57,15.5,4.4,110,5,,10.0,30.100393,,,TRUE,TRUE,,,,,,,BKN,12000,,,,,,,VFR,,,,,,,,,,,,METAR,2096.0
KFKS 300355Z AUTO 00000KT 10SM CLR 12/06 A3002 RMK AO2 T01160062,KFKS,2023-05-30T03:55:00Z,44.63,-86.2,11.6,6.2,0,0,,10.0,30.02067,,,TRUE,TRUE,,,,,,,CLR,,,,,,,,VFR,,,,,,,,,,,,METAR,189.0
KFKR 300355Z AUTO 05008KT 10SM FEW042 FEW050 BKN070 22/09 A2996 RMK AO2,KFKR,2023-05-30T03:55:00Z,40.27,-86.57,22.0,9.0,50,8,,10.0,29.958662,,,TRUE,TRUE,,,,,,,FEW,4200,FEW,5000,BKN,7000,,,VFR,,,,,,,,,,,,METAR,260.0
KFKN 300355Z AUTO 03003KT 10SM BKN007 19/19 A2997 RMK AO2 LTG DSNT N NE AND S T01870185,KFKN,2023-05-30T03:55:00Z,36.7,-76.9,18.7,18.5,30,3,,10.0,29.970472,,,TRUE,TRUE,,,,,,,BKN,700,,,,,,,IFR,,,,,,,,,,,,METAR,9.0
KFIN 300355Z AUTO 00000KT 10SM CLR 19/17 A2993 RMK AO2 T01870172,KFIN,2023-05-30T03:55:00Z,29.47,-81.2,18.7,17.2,0,0,,10.0,29.929134,,,TRUE,TRUE,,,,,,,CLR,,,,,,,,VFR,,,,,,,,,,,,METAR,10.0
KFHU 300355Z AUTO 23008KT 10SM CLR 24/M06 A3006 RMK AO2 SLP115 T02411061,KFHU,2023-05-30T03:55:00Z,31.58,-110.35,24.1,-6.1,230,8,,10.0,30.059055,1011.5,,TRUE,TRUE,,,,,,,CLR,,,,,,,,VFR,,,,,,,,,,,,METAR,1424.0
KFHB 300355Z AUTO 21007KT 10SM SCT070 OVC090 23/21 A2989 RMK AO2,KFHB,2023-05-30T03:55:00Z,30.62,-81.47,23.0,21.0,210,7,,10.0,29.890747,,,TRUE,TRUE,,,,,,,SCT,7000,OVC,9000,,,,,VFR,,,,,,,,,,,,METAR,4.0
KFGX 300355Z AUTO 00000KT 10SM SCT085 OVC120 20/17 A3002 RMK AO2 T02010165,KFGX,2023-05-30T03:55:00Z,38.55,-83.75,20.1,16.5,0,0,,10.0,30.02067,,,TRUE,TRUE,,,,,,,SCT,8500,OVC,12000,,,,,VFR,,,,,,,,,,,,METAR,279.0
KFFX 300355Z AUTO 00000KT 10SM CLR 16/09 A3002 RMK AO2 T01640091,KFFX,2023-05-30T03:55:00Z,43.43,-86.0,16.4,9.1,0,0,,10.0,30.02067,,,TRUE,TRUE,,,,,,,CLR,,,,,,,,VFR,,,,,,,,,,,,METAR,234.0
KFFO 300355Z AUTO 00000KT 10SM BKN110 22/13 A2996 RMK AO2 SLP143 T02180126,KFFO,2023-05-30T03:55:00Z,39.83,-84.03,21.8,12.6,0,0,,10.0,29.958662,1014.3,,TRUE,TRUE,,,,,,,BKN,11000,,,,,,,VFR,,,,,,,,,,,,METAR,250.0
KFFM 300355Z AUTO 14011KT 10SM VCTS CLR 22/14 A2974 RMK AO2 LTG DSNT NW,KFFM,2023-05-30T03:55:00Z,46.28,-96.15,22.0,14.0,140,11,,10.0,29.740158,,,TRUE,TRUE,,,,,,VCTS,CLR,,,,,,,,VFR,,,,,,,,,,,,METAR,362.0
KFFL 300355Z AUTO 17005KT 10SM CLR 21/05 A2996 RMK A01,KFFL,2023-05-30T03:55:00Z,41.05,-91.97,21.0,5.0,170,5,,10.0,29.958662,,,TRUE,TRUE,,,,,,,CLR,,,,,,,,VFR,,,,,,,,,,,,METAR,240.0
KFET 300355Z AUTO 16011G15KT 10SM CLR 25/15 A2988 RMK AO2 T02520149,KFET,2023-05-30T03:55:00Z,41.45,-96.52,25.2,14.9,160,11,15,10.0,29.878937,,,TRUE,TRUE,,,,,,,CLR,,,,,,,,VFR,,,,,,,,,,,,METAR,366.0
KFEP 300355Z AUTO 12004KT 10SM CLR 19/09 A3000 RMK AO2 T01920093,KFEP,2023-05-30T03:55:00Z,42.25,-89.58,19.2,9.3,120,4,,10.0,30.0,,,TRUE,TRUE,,,,,,,CLR,,,,,,,,VFR,,,,,,,,,,,,METAR,255.0
KFDW 300355Z AUTO 00000KT 10SM BKN060 18/17 A2994 RMK AO1,KFDW,2023-05-30T03:55:00Z,34.32,-81.12,18.0,17.0,0,0,,10.0,29.940945,,,TRUE,TRUE,,,,,,,BKN,6000,,,,,,,VFR,,,,,,,,,,,,METAR,174.0
KFCS 300355Z 17006KT 10SM SCT100 18/03 A3005 RMK AO2A SLP030 WND DATA ESTMD T01790029,KFCS,2023-05-30T03:55:00Z,38.67,-104.77,17.9,2.9,170,6,,10.0,30.050198,1003.0,,,TRUE,,,,,,,SCT,10000,,,,,,,VFR,,,,,,,,,,,,METAR,1789.0
KFBR 300355Z AUTO 00000KT 10SM SCT120 12/03 A3012 RMK AO2 T01200030,KFBR,2023-05-30T03:55:00Z,41.4,-110.4,12.0,3.0,0,0,,10.0,30.121063,,,TRUE,TRUE,,,,,,,SCT,12000,,,,,,,VFR,,,,,,,,,,,,METAR,2140.0
KFBL 300355Z AUTO 12006KT 10SM CLR 22/12 A2987 RMK AO2,KFBL,2023-05-30T03:55:00Z,44.33,-93.32,22.0,12.0,120,6,,10.0,29.870079,,,TRUE,TRUE,,,,,,,CLR,,,,,,,,VFR,,,,,,,,,,,,METAR,318.0
KFBG 300355Z AUTO 00000KT 10SM OVC023 18/17 A2994 RMK AO2 SLP140 T01760174 $,KFBG,2023-05-30T03:55:00Z,35.12,-78.92,17.6,17.4,0,0,,10.0,29.940945,1014.0,,TRUE,TRUE,TRUE,,,,,,OVC,2300,,,,,,,MVFR,,,,,,,,,,,,METAR,69.0
KF70 300355Z AUTO 21005KT 10SM OVC016 14/12 A2999 RMK AO2,KF70,2023-05-30T03:55:00Z,33.57,-117.13,14.0,12.0,210,5,,10.0,29.991142,,,TRUE,TRUE,,,,,,,OVC,1600,,,,,,,MVFR,,,,,,,,,,,,METAR,406.0
KF46 300355Z AUTO 12009G14KT 10SM -RA SCT100 20/20 A2995 RMK AO2 LTG DSNT SE T01960196,KF46,2023-05-30T03:55:00Z,32.93,-96.43,19.6,19.6,120,9,14,10.0,29.949802,,,TRUE,TRUE,,,,,,-RA,SCT,10000,,,,,,,VFR,,,,,,,,,,,,METAR,175.0
KF44 300355Z AUTO 02011G18KT 10SM -VCTSRA SCT021 BKN043 OVC070 20/20 A2998 RMK AO2 LTG DSNT W THRU NE P0005,KF44,2023-05-30T03:55:00Z,32.17,-95.83,20.0,20.0,20,11,18,10.0,29.97933,,,TRUE,TRUE,,,,,,VCTS -RA,SCT,2100,BKN,4300,OVC,7000,,,VFR,,,,,,0.05,,,,,,METAR,137.0
KF17 300355Z AUTO 00000KT 10SM SCT085 21/20 A2995 RMK AO2,KF17,2023-05-30T03:55:00Z,31.83,-94.15,21.0,20.0,0,0,,10.0,29.949802,,,TRUE,TRUE,,,,,,,SCT,8500,,,,,,,VFR,,,,,,,,,,,,METAR,93.0
KF05 300355Z AUTO 16004KT 10SM CLR 23/18 A2992 RMK AO2 T02300177,KF05,2023-05-30T03:55:00Z,34.23,-99.28,23.0,17.7,160,4,,10.0,29.920275,,,TRUE,TRUE,,,,,,,CLR,,,,,,,,VFR,,,,,,,,,,,,METAR,384.0
KF00 300355Z AUTO 16005KT 10SM -RA SCT090 19/19 A2994 RMK AO2 P0002 T01920185,KF00,2023-05-30T03:55:00Z,33.62,-96.18,19.2,18.5,160,5,,10.0,29.940945,,,TRUE,TRUE,,,,,,-RA,SCT,9000,,,,,,,VFR,,,,,,0.02,,,,,,METAR,189.0
KEZZ 300355Z AUTO 12005KT 10SM CLR 22/14 A2995 RMK AO2 T02180137,KEZZ,2023-05-30T03:55:00Z,39.72,-94.28,21.8,13.7,120,5,,10.0,29.949802,,,TRUE,TRUE,,,,,,,CLR,,,,,,,,VFR,,,,,,,,,,,,METAR,317.0
KEZP 300355Z AUTO 14012KT 10SM CLR 26/20 A2992 RMK A01,KEZP,2023-05-30T03:55:00Z,28.22,-92.8,26.0,20.0,140,12,,10.0,29.920275,,,TRUE,TRUE,,,,,,,CLR,,,,,,,,VFR,,,,,,,,,,,,METAR,30.0
KEZM 300355Z AUTO 00000KT 10SM CLR 16/15 A2994 RMK AO2,KEZM,2023-05-30T03:55:00Z,32.22,-83.13,16.0,15.0,0,0,,10.0,29.940945,,,TRUE,TRUE,,,,,,,CLR,,,,,,,,VFR,,,,,,,,,,,,METAR,86.0
KEZF 300355Z AUTO 07011G18KT 10SM OVC015 18/14 A3006 RMK AO2 T01820144,KEZF,2023-05-30T03:55:00Z,38.27,-77.45,18.2,14.4,70,11,18,10.0,30.059055,,,TRUE,TRUE,,,,,,,OVC,1500,,,,,,,MVFR,,,,,,,,,,,,METAR,26.0
KEVU 300355Z AUTO 17006KT 7SM CLR 21/15 A2993 RMK AO2 T02140147,KEVU,2023-05-30T03:55:00Z,40.35,-94.92,21.4,14.7,170,6,,7.0,29.929134,,,TRUE,TRUE,,,,,,,CLR,,,,,,,,VFR,,,,,,,,,,,,METAR,351.0
KETB 300355Z AUTO 00000KT 10SM CLR 13/08 A3001 RMK AO2,KETB,2023-05-30T03:55:00Z,43.42,-88.13,13.0,8.0,0,0,,10.0,30.008858,,,TRUE,TRUE,,,,,,,CLR,,,,,,,,VFR,,,,,,,,,,,,METAR,269.0
KERY 300355Z AUTO 12004KT 10SM CLR 17/04 A3001 RMK AO2 T01650041,KERY,2023-05-30T03:55:00Z,46.3,-85.45,16.5,4.1,120,4,,10.0,30.008858,,,TRUE,TRUE,,,,,,,CLR,,,,,,,,VFR,,,,,,,,,,,,METAR,261.0
KERV 300355Z AUTO 00000KT 10SM CLR 16/16 A2997 RMK AO2 T01600155,KERV,2023-05-30T03:55:00Z,29.98,-99.08,16.0,15.5,0,0,,10.0,29.970472,,,TRUE,TRUE,,,,,,,CLR,,,,,,,,VFR,,,,,,,,,,,,METAR,483.0
KEQA 300355Z AUTO 14005KT 10SM CLR 20/18 A2994 RMK AO2,KEQA,2023-05-30T03:55:00Z,37.78,-96.82,20.0,18.0,140,5,,10.0,29.940945,,,TRUE,TRUE,,,,,,,CLR,,,,,,,,VFR,,,,,,,,,,,,METAR,422.0
KEOK 300355Z AUTO 00000KT 10SM BKN044 OVC050 18/11 A2996 RMK A01,KEOK,2023-05-30T03:55:00Z,40.47,-91.42,18.0,11.0,0,0,,10.0,29.958662,,,TRUE,TRUE,,,,,,,BKN,4400,OVC,5000,,,,,VFR,,,,,,,,,,,,METAR,206.0
KEOE 300355Z AUTO 05005KT 10SM SCT060 19/18 A2997 RMK AO2,KEOE,2023-05-30T03:55:00Z,34.32,-81.63,19.0,18.0,50,5,,10.0,29.970472,,,TRUE,TRUE,,,,,,,SCT,6000,,,,,,,VFR,,,,,,,,,,,,METAR,166.0
KENL 300355Z AUTO 00000KT 10SM CLR 18/15 A2996 RMK AO2 T01780146,KENL,2023-05-30T03:55:00Z,38.52,-89.1,17.8,14.6,0,0,,10.0,29.958662,,,TRUE,TRUE,,,,,,,CLR,,,,,,,,VFR,,,,,,,,,,,,METAR,161.0
KEND 300355Z AUTO 14007KT 10SM CLR 20/16 A2990 RMK AO2 SLP116 T02040160 $,KEND,2023-05-30T03:55:00Z,36.33,-97.92,20.4,16.0,140,7,,10.0,29.899607,1011.6,,TRUE,TRUE,TRUE,,,,,,CLR,,,,,,,,VFR,,,,,,,,,,,,METAR,392.0
KEMV 300355Z AUTO 00000KT 10SM SCT018 BKN026 BKN036 18/18 A2999 RMK AO2 LTG DSNT N AND NE T01800180,KEMV,2023-05-30T03:55:00Z,36.68,-77.48,18.0,18.0,0,0,,10.0,29.991142,,,TRUE,TRUE,,,,,,,SCT,1800,BKN,2600,BKN,3600,,,MVFR,,,,,,,,,,,,SPECI,35.0
KEMM 300355Z AUTO 32010KT 10SM CLR 11/03 A3010 RMK AO2 TSNO,KEMM,2023-05-30T03:55:00Z,41.82,-110.55,11.0,3.0,320,10,,10.0,30.100393,,,TRUE,TRUE,,,TRUE,,,,CLR,,,,,,,,VFR,,,,,,,,,,,,METAR,2219.0
KELO 300355Z AUTO 15008KT 10SM SCT090 18/03 A2992 RMK AO2,KELO,2023-05-30T03:55:00Z,47.82,-91.83,18.0,3.0,150,8,,10.0,29.920275,,,TRUE,TRUE,,,,,,,SCT,9000,,,,,,,VFR,,,,,,,,,,,,METAR,438.0
KELK 300355Z AUTO 17004KT 10SM CLR 21/19 A2994 RMK AO2 SLP425 T02060190 $,KELK,2023-05-30T03:55:00Z,35.43,-99.4,20.6,19.0,170,4,,10.0,29.940945,1042.5,,TRUE,TRUE,TRUE,,,,,,CLR,,,,,,,,VFR,,,,,,,,,,,,METAR,603.0
KELA 300355Z AUTO 00000KT 10SM SCT110 23/22 A2993 RMK AO2 T02300215,KELA,2023-05-30T03:55:00Z,29.6,-96.32,23.0,21.5,0,0,,10.0,29.929134,,,TRUE,TRUE,,,,,,,SCT,11000,,,,,,,VFR,,,,,,,,,,,,METAR,56.0
KEKX 300355Z AUTO 00000KT 10SM SCT075 SCT100 20/15 A2997 RMK AO2 T01970147,KEKX,2023-05-30T03:55:00Z,37.68,-85.92,19.7,14.7,0,0,,10.0,29.970472,,,TRUE,TRUE,,,,,,,SCT,7500,SCT,10000,,,,,VFR,,,,,,,,,,,,METAR,234.0
KEKS 300355Z AUTO 19011KT 10SM CLR 13/07 A3000 RMK AO2,KEKS,2023-05-30T03:55:00Z,45.27,-111.65,13.0,7.0,190,11,,10.0,30.0,,,TRUE,TRUE,,,,,,,CLR,,,,,,,,VFR,,,,,,,,,,,,METAR,1636.0
KEKM 300355Z 00000KT 2SM HZ CLR 20/09 A3001 RMK AO2 T01980088 $,KEKM,2023-05-30T03:55:00Z,41.72,-86.0,19.8,8.8,0,0,,2.0,30.008858,,,,TRUE,TRUE,,,,,HZ,CLR,,,,,,,,IFR,,,,,,,,,,,,METAR,236.0
KEIK 300355Z AUTO 00000KT 10SM CLR 16/08 A2999 RMK AO2 T01630082,KEIK,2023-05-30T03:55:00Z,40.02,-105.05,16.3,8.2,0,0,,10.0,29.991142,,,TRUE,TRUE,,,,,,,CLR,,,,,,,,VFR,,,,,,,,,,,,METAR,1551.0
KEGV 300355Z AUTO 00000KT 10SM CLR 13/07 A3001 RMK AO2 T01300074,KEGV,2023-05-30T03:55:00Z,45.93,-89.27,13.0,7.4,0,0,,10.0,30.008858,,,TRUE,TRUE,,,,,,,CLR,,,,,,,,VFR,,,,,,,,,,,,METAR,499.0
KEGT 300355Z AUTO 12005KT 10SM CLR 20/19 A2994 RMK AO2 T02000188,KEGT,2023-05-30T03:55:00Z,37.32,-97.38,20.0,18.8,120,5,,10.0,29.940945,,,TRUE,TRUE,,,,,,,CLR,,,,,,,,VFR,,,,,,,,,,,,METAR,387.0
KEGI 300355Z AUTO 00000KT 10SM CLR 18/15 A2992 RMK AO2 SLP131 T01770146 $,KEGI,2023-05-30T03:55:00Z,30.65,-86.52,17.7,14.6,0,0,,10.0,29.920275,1013.1,,TRUE,TRUE,TRUE,,,,,,CLR,,,,,,,,VFR,,,,,,,,,,,,METAR,59.0
KEFT 300355Z AUTO 12007KT 10SM CLR 20/06 A2999 RMK AO2 T02040057,KEFT,2023-05-30T03:55:00Z,42.62,-89.6,20.4,5.7,120,7,,10.0,29.991142,,,TRUE,TRUE,,,,,,,CLR,,,,,,,,VFR,,,,,,,,,,,,METAR,332.0
KEFK 300355Z AUTO 18003KT 10SM CLR 12/05 A3017 RMK AO2 T01150046,KEFK,2023-05-30T03:55:00Z,44.88,-72.23,11.5,4.6,180,3,,10.0,30.171259,,,TRUE,TRUE,,,,,,,CLR,,,,,,,,VFR,,,,,,,,,,,,METAR,282.0
KEDW 300355Z AUTO 24017KT 10SM FEW220 17/09 A2989 RMK AO2 PK WND 24026/17 SLP109 T01660088,KEDW,2023-05-30T03:55:00Z,34.9,-117.87,16.6,8.8,240,17,,10.0,29.890747,1010.9,,TRUE,TRUE,,,,,,,FEW,22000,,,,,,,VFR,,,,,,,,,,,,METAR,698.0
KEDU 300355Z AUTO 24004KT 10SM CLR 17/09 A2990 RMK AO1,KEDU,2023-05-30T03:55:00Z,38.53,-121.78,17.0,9.0,240,4,,10.0,29.899607,,,TRUE,TRUE,,,,,,,CLR,,,,,,,,VFR,,,,,,,,,,,,METAR,20.0
KEDN 300355Z AUTO 00000KT 10SM CLR 18/16 A2993 RMK AO2 T01800159 PWINO,KEDN,2023-05-30T03:55:00Z,31.3,-85.9,18.0,15.9,0,0,,10.0,29.929134,,,TRUE,TRUE,,,,,TRUE,,CLR,,,,,,,,VFR,,,,,,,,,,,,METAR,103.0
KEDJ 300355Z AUTO 08005KT 10SM FEW055 21/07 A3002 RMK A01,KEDJ,2023-05-30T03:55:00Z,40.37,-83.82,21.0,7.0,80,5,,10.0,30.02067,,,TRUE,TRUE,,,,,,,FEW,5500,,,,,,,VFR,,,,,,,,,,,,METAR,341.0
KEDC 300355Z AUTO 16006KT 9SM SCT040 22/20 A2992 RMK AO2,KEDC,2023-05-30T03:55:00Z,30.4,-97.57,22.0,20.0,160,6,,9.0,29.920275,,,TRUE,TRUE,,,,,,,SCT,4000,,,,,,,VFR,,,,,,,,,,,,METAR,184.0
KECU 300355Z AUTO 00000KT 10SM CLR 18/16 A3001 RMK AO2,KECU,2023-05-30T03:55:00Z,29.95,-100.17,18.0,16.0,0,0,,10.0,30.008858,,,TRUE,TRUE,,,,,,,CLR,,,,,,,,VFR,,,,,,,,,,,,METAR,725.0
KECS 300355Z AUTO 02009KT 10SM CLR 15/07 A2992 RMK AO2,KECS,2023-05-30T03:55:00Z,43.88,-104.32,15.0,7.0,20,9,,10.0,29.920275,,,TRUE,TRUE,,,,,,,CLR,,,,,,,,VFR,,,,,,,,,,,,METAR,1273.0
KEBS 300355Z AUTO 15008KT 10SM CLR 22/11 A2990 RMK AO2,KEBS,2023-05-30T03:55:00Z,42.43,-93.87,22.0,11.0,150,8,,10.0,29.899607,,,TRUE,TRUE,,,,,,,CLR,,,,,,,,VFR,,,,,,,,,,,,METAR,340.0
KEBG 300355Z AUTO 23003KT 10SM VCTS SCT017 24/23 A2990 RMK AO2 LTG DSNT SE THRU SW P0003 T02420230,KEBG,2023-05-30T03:55:00Z,26.45,-98.13,24.2,23.0,230,3,,10.0,29.899607,,,TRUE,TRUE,,,,,,VCTS,SCT,1700,,,,,,,VFR,,,,,,0.03,,,,,,METAR,21.0
KEBA 300355Z AUTO 00000KT 7SM BR SCT060 OVC080 19/17 A2994 RMK AO2 T01850170,KEBA,2023-05-30T03:55:00Z,34.1,-82.82,18.5,17.0,0,0,,7.0,29.940945,,,TRUE,TRUE,,,,,,BR,SCT,6000,OVC,8000,,,,,VFR,,,,,,,,,,,,METAR,180.0
KEAT 300355Z AUTO 30019G25KT 10SM CLR 23/04 A2974 RMK AO2 SLP063 T02280039 $,KEAT,2023-05-30T03:55:00Z,47.4,-120.2,22.8,3.9,300,19,25,10.0,29.740158,1006.3,,TRUE,TRUE,TRUE,,,,,,CLR,,,,,,,,VFR,,,,,,,,,,,,METAR,375.0
KE42 300355Z AUTO 15008KT 10SM CLR 20/17 A2997 RMK AO2 T01990166,KE42,2023-05-30T03:55:00Z,36.22,-101.2,19.9,16.6,150,8,,10.0,29.970472,,,TRUE,TRUE,,,,,,,CLR,,,,,,,,VFR,,,,,,,,,,,,METAR,942.0
KE41 300355Z AUTO 14011KT 10SM CLR 23/15 A2996 RMK AO2 T02260153,KE41,2023-05-30T03:55:00Z,31.2,-101.47,22.6,15.3,140,11,,10.0,29.958662,,,TRUE,TRUE,,,,,,,CLR,,,,,,,,VFR,,,,,,,,,,,,METAR,825.0
KE38 300355Z AUTO 23003KT 10SM CLR 22/07 A3007 RMK AO2 T02170067,KE38,2023-05-30T03:55:00Z,30.38,-103.68,21.7,6.7,230,3,,10.0,30.070866,,,TRUE,TRUE,,,,,,,CLR,,,,,,,,VFR,,,,,,,,,,,,METAR,1372.0
KE16 300355Z AUTO 17008KT 10SM SCT035 14/09 A2999 RMK AO2 PWINO PNO,KE16,2023-05-30T03:55:00Z,37.08,-121.6,14.0,9.0,170,8,,10.0,29.991142,,,TRUE,TRUE,,,,,TRUE,,SCT,3500,,,,,,,VFR,,,,,,,,,,,,METAR,84.0
KE11 300355Z AUTO 11009KT 10SM CLR 23/15 A2996 RMK AO2 T02300145,KE11,2023-05-30T03:55:00Z,32.33,-102.53,23.0,14.5,110,9,,10.0,29.958662,,,TRUE,TRUE,,,,,,,CLR,,,,,,,,VFR,,,,,,,,,,,,METAR,966.0
KDZJ 300355Z AUTO 00000KT 10SM OVC041 15/13 A3001 RMK AO2 T01480133,KDZJ,2023-05-30T03:55:00Z,34.85,-84.0,14.8,13.3,0,0,,10.0,30.008858,,,TRUE,TRUE,,,,,,,OVC,4100,,,,,,,VFR,,,,,,,,,,,,METAR,578.0
KDZB 300355Z AUTO 00000KT 10SM CLR 20/19 A2996 RMK AO2 T01980186,KDZB,2023-05-30T03:55:00Z,30.53,-98.37,19.8,18.6,0,0,,10.0,29.958662,,,TRUE,TRUE,,,,,,,CLR,,,,,,,,VFR,,,,,,,,,,,,METAR,329.0
KDYT 300355Z AUTO 06008KT 10SM BKN050 BKN065 OVC075 10/06 A2991 RMK AO2,KDYT,2023-05-30T03:55:00Z,46.72,-92.03,10.0,6.0,60,8,,10.0,29.911417,,,TRUE,TRUE,,,,,,,BKN,5000,BKN,6500,OVC,7500,,,VFR,,,,,,,,,,,,METAR,185.0
KDYS 300355Z AUTO 17007KT 10SM CLR 21/17 A2991 RMK AO2 SLP093 T02100168 $,KDYS,2023-05-30T03:55:00Z,32.42,-99.83,21.0,16.8,170,7,,10.0,29.911417,1009.3,,TRUE,TRUE,TRUE,,,,,,CLR,,,,,,,,VFR,,,,,,,,,,,,METAR,544.0
KDYB 300355Z AUTO 00000KT 10SM OVC060 19/19 A2992 RMK AO2,KDYB,2023-05-30T03:55:00Z,33.07,-80.28,19.0,19.0,0,0,,10.0,29.920275,,,TRUE,TRUE,,,,,,,OVC,6000,,,,,,,VFR,,,,,,,,,,,,METAR,15.0
KDYA 300355Z AUTO 00000KT 10SM CLR 17/16 A2995 RMK AO2 T01700155,KDYA,2023-05-30T03:55:00Z,32.47,-87.95,17.0,15.5,0,0,,10.0,29.949802,,,TRUE,TRUE,,,,,,,CLR,,,,,,,,VFR,,,,,,,,,,,,METAR,33.0
KDXX 300355Z AUTO 16019G25KT 10SM CLR 21/14 A2978 RMK AO2 LTG DSNT W P0004,KDXX,2023-05-30T03:55:00Z,44.98,-96.18,21.0,14.0,160,19,25,10.0,29.778543,,,TRUE,TRUE,,,,,,,CLR,,,,,,,,VFR,,,,,,0.04,,,,,,METAR,327.0
KDWX 300355Z AUTO 01006KT 10SM CLR 12/03 A3010 RMK AO2 T01230028,KDWX,2023-05-30T03:55:00Z,41.03,-107.5,12.3,2.8,10,6,,10.0,30.100393,,,TRUE,TRUE,,,,,,,CLR,,,,,,,,VFR,,,,,,,,,,,,METAR,1974.0
KDWA 300355Z AUTO 22009KT 10SM FEW110 17/09 A2990 RMK AO2,KDWA,2023-05-30T03:55:00Z,38.58,-121.85,17.0,9.0,220,9,,10.0,29.899607,,,TRUE,TRUE,,,,,,,FEW,11000,,,,,,,VFR,,,,,,,,,,,,METAR,28.0
KDVO 300355Z AUTO VRB03KT 10SM CLR 14/09 A2997 RMK AO2,KDVO,2023-05-30T03:55:00Z,38.15,-122.55,14.0,9.0,0,3,,10.0,29.970472,,,TRUE,TRUE,,,,,,,CLR,,,,,,,,VFR,,,,,,,,,,,,METAR,1.0
KDUX 300355Z AUTO 14008KT 10SM CLR 20/15 A2999 RMK AO2 T01950145,KDUX,2023-05-30T03:55:00Z,35.85,-102.02,19.5,14.5,140,8,,10.0,29.991142,,,TRUE,TRUE,,,,,,,CLR,,,,,,,,VFR,,,,,,,,,,,,METAR,1129.0
KDUH 300355Z AUTO 00000KT 10SM CLR 15/09 A3002 RMK AO2 T01510086,KDUH,2023-05-30T03:55:00Z,41.73,-83.65,15.1,8.6,0,0,,10.0,30.02067,,,TRUE,TRUE,,,,,,,CLR,,,,,,,,VFR,,,,,,,,,,,,METAR,203.0
KDUC 300355Z AUTO 15007KT 10SM CLR 21/18 A2995 RMK AO2 T02050178,KDUC,2023-05-30T03:55:00Z,34.47,-97.97,20.5,17.8,150,7,,10.0,29.949802,,,TRUE,TRUE,,,,,,,CLR,,,,,,,,VFR,,,,,,,,,,,,METAR,339.0
KDUA 300355Z AUTO 17009KT 10SM CLR 20/17 A2995 RMK AO2,KDUA,2023-05-30T03:55:00Z,33.95,-96.4,20.0,17.0,170,9,,10.0,29.949802,,,TRUE,TRUE,,,,,,,CLR,,,,,,,,VFR,,,,,,,,,,,,METAR,209.0
KDTL 300355Z AUTO 13007KT 10SM CLR 20/14 A2977 RMK AO2 LTG DSNT W AND NW,KDTL,2023-05-30T03:55:00Z,46.82,-95.88,20.0,14.0,130,7,,10.0,29.769686,,,TRUE,TRUE,,,,,,,CLR,,,,,,,,VFR,,,,,,,,,,,,METAR,425.0
KDTA 300355Z AUTO 17011KT 10SM CLR 18/M04 A2993 RMK AO1,KDTA,2023-05-30T03:55:00Z,39.38,-112.5,18.0,-4.0,170,11,,10.0,29.929134,,,TRUE,TRUE,,,,,,,CLR,,,,,,,,VFR,,,,,,,,,,,,METAR,1452.0
KDRM 300355Z AUTO 00000KT 10SM CLR 14/09 A3004 RMK AO2 T01390093,KDRM,2023-05-30T03:55:00Z,46.0,-83.75,13.9,9.3,0,0,,10.0,30.041338,,,TRUE,TRUE,,,,,,,CLR,,,,,,,,VFR,,,,,,,,,,,,METAR,201.0
KDRI 300355Z AUTO 00000KT 10SM FEW170 23/20 A2994 RMK AO2 T02290205 $,KDRI,2023-05-30T03:55:00Z,30.83,-93.33,22.9,20.5,0,0,,10.0,29.940945,,,TRUE,TRUE,TRUE,,,,,,FEW,17000,,,,,,,VFR,,,,,,,,,,,,METAR,59.0
KDQH 300355Z AUTO 01005KT 10SM CLR 22/15 A2992 RMK AO2 T02150152,KDQH,2023-05-30T03:55:00Z,31.48,-82.87,21.5,15.2,10,5,,10.0,29.920275,,,TRUE,TRUE,,,,,,,CLR,,,,,,,,VFR,,,,,,,,,,,,METAR,76.0
KDOV 300355Z AUTO 06011KT 10SM SCT019 BKN120 16/13 A3009 RMK AO2 LTG DSNT S-SW SLP193 T01560133 402440146,KDOV,2023-05-30T03:55:00Z,39.12,-75.47,15.6,13.3,60,11,,10.0,30.088583,1019.3,,TRUE,TRUE,,,,,,,SCT,1900,BKN,12000,,,,,VFR,,,,24.4,14.6,,,,,,,METAR,6.0
KDNV 300355Z AUTO 00000KT 10SM SCT100 22/09 A2997 RMK AO2 T02170088,KDNV,2023-05-30T03:55:00Z,40.2,-87.6,21.7,8.8,0,0,,10.0,29.970472,,,TRUE,TRUE,,,,,,,SCT,10000,,,,,,,VFR,,,,,,,,,,,,METAR,208.0
KDNS 300355Z AUTO 16011KT 10SM CLR 23/13 A2990 RMK AO2,KDNS,2023-05-30T03:55:00Z,41.98,-95.37,23.0,13.0,160,11,,10.0,29.899607,,,TRUE,TRUE,,,,,,,CLR,,,,,,,,VFR,,,,,,,,,,,,METAR,382.0
KDNN 300355Z AUTO 32006KT 10SM CLR 17/14 A2995 RMK AO2 T01670145,KDNN,2023-05-30T03:55:00Z,34.72,-84.87,16.7,14.5,320,6,,10.0,29.949802,,,TRUE,TRUE,,,,,,,CLR,,,,,,,,VFR,,,,,,,,,,,,METAR,216.0
KDNA 300355Z AUTO 22004KT 10SM CLR 27/M03 A2997 RMK AO2,KDNA,2023-05-30T03:55:00Z,31.88,-106.7,27.0,-3.0,220,4,,10.0,29.970472,,,TRUE,TRUE,,,,,,,CLR,,,,,,,,VFR,,,,,,,,,,,,METAR,1254.0
KDMA 300355Z 22004KT 10SM CLR 28/01 A2989 RMK AO2A SLP077 T02790006 $,KDMA,2023-05-30T03:55:00Z,32.17,-110.88,27.9,0.6,220,4,,10.0,29.890747,1007.7,,,TRUE,TRUE,,,,,,CLR,,,,,,,,VFR,,,,,,,,,,,,METAR,804.0
KDLZ 300355Z AUTO 00000KT 10SM CLR 20/11 A3001 RMK AO2,KDLZ,2023-05-30T03:55:00Z,40.28,-83.12,20.0,11.0,0,0,,10.0,30.008858,,,TRUE,TRUE,,,,,,,CLR,,,,,,,,VFR,,,,,,,,,,,,METAR,287.0
KDLP 300355Z AUTO 00000KT 10SM CLR 26/18 A2983 RMK A01,KDLP,2023-05-30T03:55:00Z,29.12,-89.55,26.0,18.0,0,0,,10.0,29.828741,,,TRUE,TRUE,,,,,,,CLR,,,,,,,,VFR,,,,,,,,,,,,METAR,31.0
KDLO 300355Z AUTO 28006KT 10SM CLR 17/07 A2989 RMK AO2 T01650071,KDLO,2023-05-30T03:55:00Z,35.75,-119.23,16.5,7.1,280,6,,10.0,29.890747,,,TRUE,TRUE,,,,,,,CLR,,,,,,,,VFR,,,,,,,,,,,,METAR,97.0
KDLL 300355Z AUTO 15004KT 10SM CLR 17/09 A2998 RMK AO2 T01740086,KDLL,2023-05-30T03:55:00Z,43.52,-89.77,17.4,8.6,150,4,,10.0,29.97933,,,TRUE,TRUE,,,,,,,CLR,,,,,,,,VFR,,,,,,,,,,,,METAR,297.0
KDLH 300355Z 11006KT 10SM CLR 14/06 A2992 RMK AO2 SLP133 T01390056 $,KDLH,2023-05-30T03:55:00Z,46.85,-92.2,13.9,5.6,110,6,,10.0,29.920275,1013.3,,,TRUE,TRUE,,,,,,CLR,,,,,,,,VFR,,,,,,,,,,,,METAR,434.0
KDLF 300355Z AUTO 12004KT 10SM CLR 22/17 A2987 RMK AO2 SLP105 T02180172 $,KDLF,2023-05-30T03:55:00Z,29.37,-100.78,21.8,17.2,120,4,,10.0,29.870079,1010.5,,TRUE,TRUE,TRUE,,,,,,CLR,,,,,,,,VFR,,,,,,,,,,,,METAR,328.0
KDKX 300355Z AUTO 00000KT 10SM CLR 15/15 A2999 RMK A01,KDKX,2023-05-30T03:55:00Z,35.97,-83.87,15.0,15.0,0,0,,10.0,29.991142,,,TRUE,TRUE,,,,,,,CLR,,,,,,,,VFR,,,,,,,,,,,,METAR,253.0
KDKR 300355Z AUTO 00000KT 10SM OVC130 21/20 A2995 RMK AO2,KDKR,2023-05-30T03:55:00Z,31.3,-95.4,21.0,20.0,0,0,,10.0,29.949802,,,TRUE,TRUE,,,,,,,OVC,13000,,,,,,,VFR,,,,,,,,,,,,METAR,105.0
KDKB 300355Z AUTO 10004KT 10SM CLR 19/08 A3000 RMK AO2 T01890079,KDKB,2023-05-30T03:55:00Z,41.93,-88.7,18.9,7.9,100,4,,10.0,30.0,,,TRUE,TRUE,,,,,,,CLR,,,,,,,,VFR,,,,,,,,,,,,METAR,277.0
KDEH 300355Z AUTO 14008KT 10SM SCT039 BKN047 OVC055 20/07 A2994 RMK AO2,KDEH,2023-05-30T03:55:00Z,43.27,-91.73,20.0,7.0,140,8,,10.0,29.940945,,,TRUE,TRUE,,,,,,,SCT,3900,BKN,4700,OVC,5500,,,VFR,,,,,,,,,,,,METAR,348.0
KDCY 300355Z AUTO 00000KT 10SM CLR 19/13 A2994 RMK AO2 T01880134,KDCY,2023-05-30T03:55:00Z,38.7,-87.13,18.8,13.4,0,0,,10.0,29.940945,,,TRUE,TRUE,,,,,,,CLR,,,,,,,,VFR,,,,,,,,,,,,METAR,143.0
KDCM 300355Z AUTO 00000KT 10SM CLR 16/16 A2996 RMK AO2 LTG DSNT E W AND NW,KDCM,2023-05-30T03:55:00Z,34.78,-81.2,16.0,16.0,0,0,,10.0,29.958662,,,TRUE,TRUE,,,,,,,CLR,,,,,,,,VFR,,,,,,,,,,,,METAR,191.0
KDBN 300355Z AUTO 00000KT 10SM CLR 15/13 A2995 RMK AO2,KDBN,2023-05-30T03:55:00Z,32.57,-82.98,15.0,13.0,0,0,,10.0,29.949802,,,TRUE,TRUE,,,,,,,CLR,,,,,,,,VFR,,,,,,,,,,,,METAR,90.0
KD95 300355Z AUTO 00000KT 10SM CLR 15/08 A3004 RMK AO2 T01490081,KD95,2023-05-30T03:55:00Z,43.07,-83.27,14.9,8.1,0,0,,10.0,30.041338,,,TRUE,TRUE,,,,,,,CLR,,,,,,,,VFR,,,,,,,,,,,,METAR,253.0
KD73 300355Z AUTO 00000KT 10SM OVC070 18/16 A2995 RMK AO2 T01760160,KD73,2023-05-30T03:55:00Z,33.78,-83.7,17.6,16.0,0,0,,10.0,29.949802,,,TRUE,TRUE,,,,,,,OVC,7000,,,,,,,VFR,,,,,,,,,,,,METAR,254.0
KD60 300355Z AUTO 00000KT 10SM CLR 15/15 A2976 RMK AO2,KD60,2023-05-30T03:55:00Z,48.38,-102.9,15.0,15.0,0,0,,10.0,29.760826,,,TRUE,TRUE,,,,,,,CLR,,,,,,,,VFR,,,,,,,,,,,,METAR,682.0
KD57 300355Z AUTO 27005KT 10SM FEW003 SCT065 BKN095 16/14 A2977 RMK AO2 P0001,KD57,2023-05-30T03:55:00Z,46.82,-101.87,16.0,14.0,270,5,,10.0,29.769686,,,TRUE,TRUE,,,,,,,FEW,300,SCT,6500,BKN,9500,,,VFR,,,,,,0.01,,,,,,METAR,636.0
KD55 300355Z AUTO 19013KT 8SM FEW003 SCT050 OVC080 18/18 A2974 RMK AO2,KD55,2023-05-30T03:55:00Z,48.75,-98.4,18.0,18.0,190,13,,8.0,29.740158,,,TRUE,TRUE,,,,,,,FEW,300,SCT,5000,OVC,8000,,,VFR,,,,,,,,,,,,METAR,488.0
KD50 300355Z AUTO 20010KT 10SM CLR 17/17 A2972 RMK AO2,KD50,2023-05-30T03:55:00Z,48.93,-103.3,17.0,17.0,200,10,,10.0,29.719488,,,TRUE,TRUE,,,,,,,CLR,,,,,,,,VFR,,,,,,,,,,,,METAR,591.0
KD39 300355Z AUTO 13006KT 10SM CLR 20/13 A2982 RMK AO2 T01960125,KD39,2023-05-30T03:55:00Z,45.7,-94.93,19.6,12.5,130,6,,10.0,29.819881,,,TRUE,TRUE,,,,,,,CLR,,,,,,,,VFR,,,,,,,,,,,,METAR,378.0
KD25 300355Z AUTO 15003KT 10SM CLR 12/09 A2998 RMK AO2 T01230089,KD25,2023-05-30T03:55:00Z,46.12,-89.88,12.3,8.9,150,3,,10.0,29.97933,,,TRUE,TRUE,,,,,,,CLR,,,,,,,,VFR,,,,,,,,,,,,METAR,490.0
KCZT 300355Z AUTO 10SM CLR 21/21 A2988 RMK AO2,KCZT,2023-05-30T03:55:00Z,28.52,-99.82,21.0,21.0,,,,10.0,29.878937,,,TRUE,TRUE,,,,,,,CLR,,,,,,,,VFR,,,,,,,,,,,,METAR,176.0
KCZL 300355Z AUTO 00000KT 10SM CLR 17/15 A2997 RMK AO2,KCZL,2023-05-30T03:55:00Z,34.47,-84.93,17.0,15.0,0,0,,10.0,29.970472,,,TRUE,TRUE,,,,,,,CLR,,,,,,,,VFR,,,,,,,,,,,,METAR,197.0
KCYD 300355Z AUTO 10009KT 10SM CLR 25/17 A2994 RMK A02 T02550173,KCYD,2023-05-30T03:55:00Z,28.17,-89.22,25.5,17.3,100,9,,10.0,29.940945,,,TRUE,TRUE,,,,,,,CLR,,,,,,,,VFR,,,,,,,,,,,,METAR,30.0
KCXW 300355Z AUTO 00000KT 9SM FEW043 BKN050 OVC060 20/05 A2994 RMK A01,KCXW,2023-05-30T03:55:00Z,35.02,-92.55,20.0,5.0,0,0,,9.0,29.940945,,,TRUE,TRUE,,,,,,,FEW,4300,BKN,5000,OVC,6000,,,VFR,,,,,,,,,,,,METAR,84.0
KCXU 300355Z AUTO 00000KT 10SM CLR 18/15 A2992 RMK AO1 T01820150,KCXU,2023-05-30T03:55:00Z,31.22,-84.23,18.2,15.0,0,0,,10.0,29.920275,,,TRUE,TRUE,,,,,,,CLR,,,,,,,,VFR,,,,,,,,,,,,METAR,48.0
KCXP 300355Z AUTO 30003G15KT 10SM FEW075 OVC100 17/08 A2999 RMK AO2,KCXP,2023-05-30T03:55:00Z,39.18,-119.73,17.0,8.0,300,3,15,10.0,29.991142,,,TRUE,TRUE,,,,,,,FEW,7500,OVC,10000,,,,,VFR,,,,,,,,,,,,METAR,1431.0
KCXE 300355Z AUTO 10SM BKN050 18/18 A2999 RMK AO1 T01800180 402520173,KCXE,2023-05-30T03:55:00Z,36.78,-78.5,18.0,18.0,,,,10.0,29.991142,,,TRUE,TRUE,,,,,,,BKN,5000,,,,,,,VFR,,,,25.2,17.3,,,,,,,METAR,154.0
KCWV 300355Z AUTO 00000KT 7SM OVC070 21/20 A2991 RMK AO2 T02070196,KCWV,2023-05-30T03:55:00Z,32.2,-81.87,20.7,19.6,0,0,,7.0,29.911417,,,TRUE,TRUE,,,,,,,OVC,7000,,,,,,,VFR,,,,,,,,,,,,METAR,32.0
KCWN 300355Z AUTO 19009KT 10SM BKN250 18/03 A3002 RMK AO2 PRESRR SLP981 T01770028 $,KCWN,2023-05-30T03:55:00Z,38.75,-104.85,17.7,2.8,190,9,,10.0,30.02067,998.1,,TRUE,TRUE,TRUE,,,,,,BKN,25000,,,,,,,VFR,,,,,,,,,,,,METAR,2040.0
KCWF 300355Z AUTO 21004KT 10SM CLR 26/19 A2993 RMK AO2 T02560189,KCWF,2023-05-30T03:55:00Z,30.22,-93.15,25.6,18.9,210,4,,10.0,29.929134,,,TRUE,TRUE,,,,,,,CLR,,,,,,,,VFR,,,,,,,,,,,,METAR,4.0
KCWC 300355Z AUTO 11009KT 10SM CLR 22/20 A2994 RMK AO2 P0002 T02200195,KCWC,2023-05-30T03:55:00Z,33.85,-98.48,22.0,19.5,110,9,,10.0,29.940945,,,TRUE,TRUE,,,,,,,CLR,,,,,,,,VFR,,,,,,0.02,,,,,,METAR,304.0
KCWA 300355Z AUTO 08004KT 10SM CLR 15/09 A3000 RMK AO2,KCWA,2023-05-30T03:55:00Z,44.78,-89.67,15.0,9.0,80,4,,10.0,30.0,,,TRUE,TRUE,,,,,,,CLR,,,,,,,,VFR,,,,,,,,,,,,METAR,387.0
KCVX 300355Z AUTO 00000KT 10SM CLR 16/07 A3002 RMK AO2 T01550071 402350081,KCVX,2023-05-30T03:55:00Z,45.3,-85.27,15.5,7.1,0,0,,10.0,30.02067,,,TRUE,TRUE,,,,,,,CLR,,,,,,,,VFR,,,,23.5,8.1,,,,,,,METAR,196.0
KCVS 300355Z AUTO 10008KT 10SM CLR 18/16 A2999 RMK AO2 SLP109 T01840160 $,KCVS,2023-05-30T03:55:00Z,34.37,-103.32,18.4,16.0,100,8,,10.0,29.991142,1010.9,,TRUE,TRUE,TRUE,,,,,,CLR,,,,,,,,VFR,,,,,,,,,,,,METAR,1305.0
KCVH 300355Z AUTO 26004KT 10SM CLR 13/09 A3000 RMK A01,KCVH,2023-05-30T03:55:00Z,36.9,-121.42,13.0,9.0,260,4,,10.0,30.0,,,TRUE,TRUE,,,,,,,CLR,,,,,,,,VFR,,,,,,,,,,,,METAR,68.0
KCVC 300355Z AUTO 00000KT 10SM CLR 17/14 A2994 RMK AO2,KCVC,2023-05-30T03:55:00Z,33.63,-83.85,17.0,14.0,0,0,,10.0,29.940945,,,TRUE,TRUE,,,,,,,CLR,,,,,,,,VFR,,,,,,,,,,,,METAR,240.0
KCUH 300355Z AUTO 00000KT 10SM CLR 19/18 A2993 RMK AO2 T01850180,KCUH,2023-05-30T03:55:00Z,35.95,-96.77,18.5,18.0,0,0,,10.0,29.929134,,,TRUE,TRUE,,,,,,,CLR,,,,,,,,VFR,,,,,,,,,,,,METAR,274.0
KCTY 300355Z AUTO 21004KT 10SM CLR 21/20 A2992 RMK AO2,KCTY,2023-05-30T03:55:00Z,29.63,-83.1,21.0,20.0,210,4,,10.0,29.920275,,,TRUE,TRUE,,,,,,,CLR,,,,,,,,VFR,,,,,,,,,,,,METAR,12.0
KCTJ 300355Z AUTO 36004KT 10SM CLR 14/06 A2999 RMK AO2 T01380057,KCTJ,2023-05-30T03:55:00Z,33.63,-85.15,13.8,5.7,360,4,,10.0,29.991142,,,TRUE,TRUE,,,,,,,CLR,,,,,,,,VFR,,,,,,,,,,,,METAR,351.0
KCSQ 300355Z AUTO 14006KT 10SM CLR 20/13 A2993 RMK AO2,KCSQ,2023-05-30T03:55:00Z,41.02,-94.37,20.0,13.0,140,6,,10.0,29.929134,,,TRUE,TRUE,,,,,,,CLR,,,,,,,,VFR,,,,,,,,,,,,METAR,394.0
KCRX 300355Z AUTO 00000KT 10SM CLR 18/18 A2996 RMK AO2,KCRX,2023-05-30T03:55:00Z,34.92,-88.6,18.0,18.0,0,0,,10.0,29.958662,,,TRUE,TRUE,,,,,,,CLR,,,,,,,,VFR,,,,,,,,,,,,METAR,128.0
KCQW 300355Z AUTO 10003KT 10SM 18/18 A2994 RMK AO2,KCQW,2023-05-30T03:55:00Z,34.72,-79.95,18.0,18.0,100,3,,10.0,29.940945,,,TRUE,TRUE,,,,,,,,,,,,,,,,,,,,,,,,,,,METAR,67.0
KCQM 300355Z AUTO 14006KT 10SM CLR 19/06 A2987 RMK AO2,KCQM,2023-05-30T03:55:00Z,47.82,-92.68,19.0,6.0,140,6,,10.0,29.870079,,,TRUE,TRUE,,,,,,,CLR,,,,,,,,VFR,,,,,,,,,,,,METAR,406.0
KCQF 300355Z AUTO 00000KT 7SM CLR 19/19 A2993 RMK AO2,KCQF,2023-05-30T03:55:00Z,30.47,-87.88,19.0,19.0,0,0,,7.0,29.929134,,,TRUE,TRUE,,,,,,,CLR,,,,,,,,VFR,,,,,,,,,,,,METAR,21.0
KCQB 300355Z AUTO 00000KT 10SM BKN110 20/18 A2994 RMK AO2 T01990183,KCQB,2023-05-30T03:55:00Z,35.72,-96.82,19.9,18.3,0,0,,10.0,29.940945,,,TRUE,TRUE,,,,,,,BKN,11000,,,,,,,VFR,,,,,,,,,,,,METAR,298.0
KCPW 300355Z AUTO 25008KT 10SM CLR 05/M10 A3050 RMK AO2,KCPW,2023-05-30T03:55:00Z,37.45,-106.8,5.0,-10.0,250,8,,10.0,30.499016,,,TRUE,TRUE,,,,,,,CLR,,,,,,,,VFR,,,,,,,,,,,,METAR,3570.0
KCPU 300355Z AUTO 33003KT 10SM CLR 16/09 A2993 RMK AO2 T01630088,KCPU,2023-05-30T03:55:00Z,38.15,-120.65,16.3,8.8,330,3,,10.0,29.929134,,,TRUE,TRUE,,,,,,,CLR,,,,,,,,VFR,,,,,,,,,,,,METAR,400.0
KCPT 300355Z AUTO 08016G21KT 10SM SCT050 SCT120 23/20 A2996 RMK A01,KCPT,2023-05-30T03:55:00Z,32.35,-97.43,23.0,20.0,80,16,21,10.0,29.958662,,,TRUE,TRUE,,,,,,,SCT,5000,SCT,12000,,,,,VFR,,,,,,,,,,,,METAR,260.0
KCPP 300355Z AUTO 00000KT 10SM BKN075 17/15 A2994 RMK AO2,KCPP,2023-05-30T03:55:00Z,,,17.0,15.0,0,0,,10.0,29.940945,,,TRUE,TRUE,,,,,,,BKN,7500,,,,,,,VFR,,,,,,,,,,,,METAR,
KCPK 300355Z AUTO 00000KT 10SM OVC005 19/18 A2997 RMK AO2 LTG DSNT N THRU SE T01880179,KCPK,2023-05-30T03:55:00Z,36.67,-76.32,18.8,17.9,0,0,,10.0,29.970472,,,TRUE,TRUE,,,,,,,OVC,500,,,,,,,IFR,,,,,,,,,,,,METAR,4.0
KCPF 300355Z AUTO 00000KT 7SM SCT120 15/15 A3001 RMK AO2,KCPF,2023-05-30T03:55:00Z,37.38,-83.27,15.0,15.0,0,0,,7.0,30.008858,,,TRUE,TRUE,,,,,,,SCT,12000,,,,,,,VFR,,,,,,,,,,,,SPECI,382.0
KCOQ 300355Z AUTO 00000KT 10SM CLR 11/03 A2990 RMK AO2 TSNO,KCOQ,2023-05-30T03:55:00Z,46.7,-92.5,11.0,3.0,0,0,,10.0,29.899607,,,TRUE,TRUE,,,TRUE,,,,CLR,,,,,,,,VFR,,,,,,,,,,,,METAR,390.0
KCOM 300355Z AUTO 18004KT 10SM CLR 20/18 A2995 RMK AO2 T01980177,KCOM,2023-05-30T03:55:00Z,31.83,-99.4,19.8,17.7,180,4,,10.0,29.949802,,,TRUE,TRUE,,,,,,,CLR,,,,,,,,VFR,,,,,,,,,,,,METAR,516.0
KCOF 300355Z AUTO 11005KT 10SM CLR 25/18 A2989 RMK AO2 SLP126 T02480175 $,KCOF,2023-05-30T03:55:00Z,28.23,-80.6,24.8,17.5,110,5,,10.0,29.890747,1012.6,,TRUE,TRUE,TRUE,,,,,,CLR,,,,,,,,VFR,,,,,,,,,,,,METAR,1.0
KCNW 300355Z 11004KT 10SM SKC 22/18 A2993,KCNW,2023-05-30T03:55:00Z,31.63,-97.07,22.0,18.0,110,4,,10.0,29.929134,,,,,,,,,,,SKC,,,,,,,,VFR,,,,,,,,,,,,METAR,139.0
KCNK 300355Z AUTO 16012KT 10SM CLR 23/17 A2989 RMK AO2 SLP108 T02280167,KCNK,2023-05-30T03:55:00Z,39.55,-97.65,22.8,16.7,160,12,,10.0,29.890747,1010.8,,TRUE,TRUE,,,,,,,CLR,,,,,,,,VFR,,,,,,,,,,,,METAR,445.0
KCNI 300355Z AUTO 07003KT 10SM CLR 16/13 A2997 RMK AO2 T01590131,KCNI,2023-05-30T03:55:00Z,34.32,-84.42,15.9,13.1,70,3,,10.0,29.970472,,,TRUE,TRUE,,,,,,,CLR,,,,,,,,VFR,,,,,,,,,,,,METAR,371.0
KCNC 300355Z AUTO 15006KT 10SM CLR 20/11 A2994 RMK AO2,KCNC,2023-05-30T03:55:00Z,41.02,-93.37,20.0,11.0,150,6,,10.0,29.940945,,,TRUE,TRUE,,,,,,,CLR,,,,,,,,VFR,,,,,,,,,,,,METAR,319.0
KCNB 300355Z AUTO 12015KT 10SM -RA SCT016 BKN080 BKN120 20/16 A2980 RMK AO2 LTG DSNT ALQS T01990164 P0007,KCNB,2023-05-30T03:55:00Z,44.73,-96.27,19.9,16.4,120,15,,10.0,29.799213,,,TRUE,TRUE,,,,,,-RA,SCT,1600,BKN,8000,BKN,12000,,,VFR,,,,,,0.07,,,,,,METAR,363.0
KCMY 300355Z AUTO 00000KT 10SM CLR 10/10 A2994 RMK AO2 SLP140 T01000097 FZRANO $,KCMY,2023-05-30T03:55:00Z,43.97,-90.73,10.0,9.7,0,0,,10.0,29.940945,1014.0,,TRUE,TRUE,TRUE,,,TRUE,,,CLR,,,,,,,,VFR,,,,,,,,,,,,METAR,253.0
KCMR 300355Z AUTO 18007KT 10SM CLR 13/M06 A3014 RMK AO2,KCMR,2023-05-30T03:55:00Z,35.3,-112.2,13.0,-6.0,180,7,,10.0,30.138779,,,TRUE,TRUE,,,,,,,CLR,,,,,,,,VFR,,,,,,,,,,,,METAR,2039.0
KCMD 300355Z AUTO 00000KT 9SM CLR 14/14 A2999 RMK AO2,KCMD,2023-05-30T03:55:00Z,34.27,-86.85,14.0,14.0,0,0,,9.0,29.991142,,,TRUE,TRUE,,,,,,,CLR,,,,,,,,VFR,,,,,,,,,,,,METAR,294.0
KCMA 300355Z 27009KT 10SM OVC038 16/12 A2998 RMK AO2 SLP161 T01610117,KCMA,2023-05-30T03:55:00Z,34.22,-119.1,16.1,11.7,270,9,,10.0,29.97933,1016.1,,,TRUE,,,,,,,OVC,3800,,,,,,,VFR,,,,,,,,,,,,METAR,20.0
KCLW 300355Z AUTO 00000KT 10SM CLR 21/17 A2993 RMK AO2,KCLW,2023-05-30T03:55:00Z,27.98,-82.75,21.0,17.0,0,0,,10.0,29.929134,,,TRUE,TRUE,,,,,,,CLR,,,,,,,,VFR,,,,,,,,,,,,METAR,21.0
KCLS 300355Z AUTO 00000KT 10SM CLR 13/08 A2996 RMK AO2,KCLS,2023-05-30T03:55:00Z,46.68,-122.98,13.0,8.0,0,0,,10.0,29.958662,,,TRUE,TRUE,,,,,,,CLR,,,,,,,,VFR,,,,,,,,,,,,METAR,52.0
KCLK 300355Z AUTO 15008KT 10SM CLR 21/18 A2994 RMK AO2,KCLK,2023-05-30T03:55:00Z,35.53,-98.93,21.0,18.0,150,8,,10.0,29.940945,,,TRUE,TRUE,,,,,,,CLR,,,,,,,,VFR,,,,,,,,,,,,METAR,489.0
KCLI 300355Z AUTO 00000KT 10SM CLR 18/08 A3000 RMK AO2 T01780080,KCLI,2023-05-30T03:55:00Z,44.62,-88.73,17.8,8.0,0,0,,10.0,30.0,,,TRUE,TRUE,,,,,,,CLR,,,,,,,,VFR,,,,,,,,,,,,METAR,248.0
KCKZ 300355Z AUTO 08006KT 10SM CLR 13/05 A3017 RMK AO2,KCKZ,2023-05-30T03:55:00Z,40.38,-75.28,13.0,5.0,80,6,,10.0,30.171259,,,TRUE,TRUE,,,,,,,CLR,,,,,,,,VFR,,,,,,,,,,,,METAR,160.0
KCKP 300355Z AUTO 17007KT 10SM CLR 22/13 A2985 RMK AO2 LTG DSNT N T02240132,KCKP,2023-05-30T03:55:00Z,42.73,-95.55,22.4,13.2,170,7,,10.0,29.84941,,,TRUE,TRUE,,,,,,,CLR,,,,,,,,VFR,,,,,,,,,,,,METAR,369.0
KCKN 300355Z AUTO 09010KT 10SM VCTS SCT090 20/16 A2973 RMK AO2 LTG DSNT S THRU N,KCKN,2023-05-30T03:55:00Z,47.85,-96.62,20.0,16.0,90,10,,10.0,29.731298,,,TRUE,TRUE,,,,,,VCTS,SCT,9000,,,,,,,VFR,,,,,,,,,,,,METAR,272.0
KCKM 300355Z AUTO 00000KT 10SM 21/15 A2996 RMK A01,KCKM,2023-05-30T03:55:00Z,34.3,-90.52,21.0,15.0,0,0,,10.0,29.958662,,,TRUE,TRUE,,,,,,,,,,,,,,,,,,,,,,,,,,,METAR,52.0
KCKI 300355Z AUTO 00000KT 10SM BKN090 18/16 A2993 RMK AO2,KCKI,2023-05-30T03:55:00Z,33.72,-79.85,18.0,16.0,0,0,,10.0,29.929134,,,TRUE,TRUE,,,,,,,BKN,9000,,,,,,,VFR,,,,,,,,,,,,METAR,19.0
KCKF 300355Z AUTO 00000KT 10SM OVC002 18/14 A2994 RMK AO2 T01840143,KCKF,2023-05-30T03:55:00Z,31.98,-83.77,18.4,14.3,0,0,,10.0,29.940945,,,TRUE,TRUE,,,,,,,OVC,200,,,,,,,LIFR,,,,,,,,,,,,METAR,92.0
KCJR 300355Z AUTO 05003KT 10SM VCTS OVC020 18/14 A3009 RMK AO2 T01800135,KCJR,2023-05-30T03:55:00Z,38.53,-77.87,18.0,13.5,50,3,,10.0,30.088583,,,TRUE,TRUE,,,,,,VCTS,OVC,2000,,,,,,,MVFR,,,,,,,,,,,,METAR,90.0
KCIN 300355Z AUTO 15007KT 10SM CLR 21/13 A2989 RMK AO2,KCIN,2023-05-30T03:55:00Z,42.03,-94.78,21.0,13.0,150,7,,10.0,29.890747,,,TRUE,TRUE,,,,,,,CLR,,,,,,,,VFR,,,,,,,,,,,,METAR,365.0
KCII 300355Z AUTO 26005KT 10SM 16/07 A2985 RMK A01 ,KCII,2023-05-30T03:55:00Z,47.83,-112.17,16.0,7.0,260,5,,10.0,29.84941,,,TRUE,TRUE,,,,,,,,,,,,,,,,,,,,,,,,,,,METAR,1202.0
KCHK 300355Z AUTO 13005KT 10SM CLR 20/18 A2990 RMK AO2 T01970183,KCHK,2023-05-30T03:55:00Z,35.1,-97.97,19.7,18.3,130,5,,10.0,29.899607,,,TRUE,TRUE,,,,,,,CLR,,,,,,,,VFR,,,,,,,,,,,,METAR,346.0
KCGF 300355Z AUTO 07005KT 10SM CLR 20/09 A3003 RMK AO2 T01980092,KCGF,2023-05-30T03:55:00Z,41.57,-81.47,19.8,9.2,70,5,,10.0,30.029528,,,TRUE,TRUE,,,,,,,CLR,,,,,,,,VFR,,,,,,,,,,,,METAR,265.0
KCGC 300355Z AUTO 00000KT 10SM CLR 18/17 A2993 RMK AO2,KCGC,2023-05-30T03:55:00Z,28.87,-82.57,18.0,17.0,0,0,,10.0,29.929134,,,TRUE,TRUE,,,,,,,CLR,,,,,,,,VFR,,,,,,,,,,,,METAR,3.0
KCFS 300355Z AUTO 00000KT 10SM CLR 14/09 A3003 RMK AO2 T01430091,KCFS,2023-05-30T03:55:00Z,43.47,-83.45,14.3,9.1,0,0,,10.0,30.029528,,,TRUE,TRUE,,,,,,,CLR,,,,,,,,VFR,,,,,,,,,,,,METAR,214.0
KCFO 300355Z AUTO 05004KT 10SM CLR 16/08 A3000 RMK AO2 T01620080,KCFO,2023-05-30T03:55:00Z,39.78,-104.55,16.2,8.0,50,4,,10.0,30.0,,,TRUE,TRUE,,,,,,,CLR,,,,,,,,VFR,,,,,,,,,,,,METAR,1672.0
KCFJ 300355Z AUTO 00000KT 10SM CLR 18/06 A2996 RMK AO2 T01810061,KCFJ,2023-05-30T03:55:00Z,39.98,-86.92,18.1,6.1,0,0,,10.0,29.958662,,,TRUE,TRUE,,,,,,,CLR,,,,,,,,VFR,,,,,,,,,,,,METAR,243.0
KCFE 300355Z AUTO 15006KT 10SM BKN039 BKN045 OVC085 21/12 A2984 RMK AO2,KCFE,2023-05-30T03:55:00Z,45.17,-93.85,21.0,12.0,150,6,,10.0,29.840551,,,TRUE,TRUE,,,,,,,BKN,3900,BKN,4500,OVC,8500,,,VFR,,,,,,,,,,,,METAR,292.0
KCFD 300355Z AUTO 09004KT 10SM CLR 22/19 A2996 RMK AO2 T02200192,KCFD,2023-05-30T03:55:00Z,30.72,-96.33,22.0,19.2,90,4,,10.0,29.958662,,,TRUE,TRUE,,,,,,,CLR,,,,,,,,VFR,,,,,,,,,,,,METAR,106.0
KCEY 300355Z AUTO 00000KT 10SM BKN070 18/16 A2996 RMK A01,KCEY,2023-05-30T03:55:00Z,36.67,-88.37,18.0,16.0,0,0,,10.0,29.958662,,,TRUE,TRUE,,,,,,,BKN,7000,,,,,,,VFR,,,,,,,,,,,,METAR,172.0
KCEF 300355Z AUTO 11005KT 10SM CLR 12/02 A3019 RMK AO2 SLP229 T01200024,KCEF,2023-05-30T03:55:00Z,42.2,-72.52,12.0,2.4,110,5,,10.0,30.188976,1022.9,,TRUE,TRUE,,,,,,,CLR,,,,,,,,VFR,,,,,,,,,,,,METAR,72.0
KCDN 300355Z AUTO 00000KT 10SM FEW080 18/17 A2994 RMK AO2,KCDN,2023-05-30T03:55:00Z,34.28,-80.57,18.0,17.0,0,0,,10.0,29.940945,,,TRUE,TRUE,,,,,,,FEW,8000,,,,,,,VFR,,,,,,,,,,,,METAR,90.0
KCDI 300355Z AUTO 00000KT 10SM CLR 15/14 A3002 RMK AO2 T01450136,KCDI,2023-05-30T03:55:00Z,39.97,-81.58,14.5,13.6,0,0,,10.0,30.02067,,,TRUE,TRUE,,,,,,,CLR,,,,,,,,VFR,,,,,,,,,,,,METAR,241.0
KCDH 300355Z AUTO 00000KT 7SM CLR 20/19 A2994 RMK AO2,KCDH,2023-05-30T03:55:00Z,33.62,-92.77,20.0,19.0,0,0,,7.0,29.940945,,,TRUE,TRUE,,,,,,,CLR,,,,,,,,VFR,,,,,,,,,,,,METAR,38.0
KCDA 300355Z AUTO 13006KT 10SM CLR 14/06 A3021 RMK AO2 T01370060,KCDA,2023-05-30T03:55:00Z,44.57,-72.02,13.7,6.0,130,6,,10.0,30.209646,,,TRUE,TRUE,,,,,,,CLR,,,,,,,,VFR,,,,,,,,,,,,METAR,357.0
KCCY 300355Z AUTO 14007KT 10SM CLR 21/05 A2993 RMK AO2,KCCY,2023-05-30T03:55:00Z,43.07,-92.62,21.0,5.0,140,7,,10.0,29.929134,,,TRUE,TRUE,,,,,,,CLR,,,,,,,,VFR,,,,,,,,,,,,METAR,340.0
KCCU 300355Z AUTO 25012KT 10SM CLR 08/M08 A3044 RMK AO2,KCCU,2023-05-30T03:55:00Z,39.48,-106.15,8.0,-8.0,250,12,,10.0,30.43996,,,TRUE,TRUE,,,,,,,CLR,,,,,,,,VFR,,,,,,,,,,,,METAR,3672.0
KCCO 300355Z AUTO 35007KT 10SM CLR 17/14 A2996 RMK AO2 T01680135,KCCO,2023-05-30T03:55:00Z,33.32,-84.77,16.8,13.5,350,7,,10.0,29.958662,,,TRUE,TRUE,,,,,,,CLR,,,,,,,,VFR,,,,,,,,,,,,METAR,290.0
KCCA 300355Z AUTO 00000KT 10SM CLR 18/18 A2997 RMK AO2,KCCA,2023-05-30T03:55:00Z,35.6,-92.45,18.0,18.0,0,0,,10.0,29.970472,,,TRUE,TRUE,,,,,,,CLR,,,,,,,,VFR,,,,,,,,,,,,METAR,152.0
KCBM 300355Z AUTO 00000KT 10SM FEW075 M A2991 RMK AO2 SLPNO ALSTG ESTMD $,KCBM,2023-05-30T03:55:00Z,33.65,-88.45,,,0,0,,10.0,29.911417,,,TRUE,TRUE,TRUE,,,,,,FEW,7500,,,,,,,VFR,,,,,,,,,,,,METAR,59.0
KCBK 300355Z AUTO 03014G26KT 10SM CLR 20/10 A2998 RMK AO2 T02000097,KCBK,2023-05-30T03:55:00Z,39.43,-101.05,20.0,9.7,30,14,26,10.0,29.97933,,,TRUE,TRUE,,,,,,,CLR,,,,,,,,VFR,,,,,,,,,,,,METAR,970.0
KCBG 300355Z AUTO 12006KT 10SM SCT095 23/10 A2986 RMK AO2,KCBG,2023-05-30T03:55:00Z,45.57,-93.27,23.0,10.0,120,6,,10.0,29.861221,,,TRUE,TRUE,,,,,,,SCT,9500,,,,,,,VFR,,,,,,,,,,,,METAR,285.0
KCBF 300355Z AUTO 17009KT 10SM CLR 23/11 A2987 RMK AO2,KCBF,2023-05-30T03:55:00Z,41.27,-95.77,23.0,11.0,170,9,,10.0,29.870079,,,TRUE,TRUE,,,,,,,CLR,,,,,,,,VFR,,,,,,,,,,,,METAR,379.0
KCAV 300355Z AUTO 16008KT 10SM 22/11 A2991 RMK A01,KCAV,2023-05-30T03:55:00Z,42.75,-93.77,22.0,11.0,160,8,,10.0,29.911417,,,TRUE,TRUE,,,,,,,,,,,,,,,,,,,,,,,,,,,METAR,352.0
KCAO 300355Z AUTO 29005KT 10SM CLR 18/09 A2999 RMK AO2 WSHFT 0303 SLP098 T01830089,KCAO,2023-05-30T03:55:00Z,36.45,-103.15,18.3,8.9,290,5,,10.0,29.991142,1009.8,,TRUE,TRUE,,,,,,,CLR,,,,,,,,VFR,,,,,,,,,,,,METAR,1517.0
KCAD 300355Z AUTO 00000KT 10SM CLR 13/07 A3005 RMK AO2 T01270069,KCAD,2023-05-30T03:55:00Z,44.27,-85.42,12.7,6.9,0,0,,10.0,30.050198,,,TRUE,TRUE,,,,,,,CLR,,,,,,,,VFR,,,,,,,,,,,,METAR,397.0
KC83 300355Z AUTO 24018G24KT 10SM CLR 16/09 A2991 RMK AO2,KC83,2023-05-30T03:55:00Z,37.83,-121.62,16.0,9.0,240,18,24,10.0,29.911417,,,TRUE,TRUE,,,,,,,CLR,,,,,,,,VFR,,,,,,,,,,,,METAR,16.0
KC75 300355Z AUTO 13006KT 10SM CLR 21/09 A2996 RMK AO2,KC75,2023-05-30T03:55:00Z,41.02,-89.38,21.0,9.0,130,6,,10.0,29.958662,,,TRUE,TRUE,,,,,,,CLR,,,,,,,,VFR,,,,,,,,,,,,METAR,166.0
KC65 300355Z AUTO 00000KT 10SM CLR 18/08 A3000 RMK A01,KC65,2023-05-30T03:55:00Z,41.37,-86.3,18.0,8.0,0,0,,10.0,30.0,,,TRUE,TRUE,,,,,,,CLR,,,,,,,,VFR,,,,,,,,,,,,METAR,241.0
KC62 300355Z AUTO 10003KT 10SM CLR 18/10 A3002 RMK AO2 T01800102,KC62,2023-05-30T03:55:00Z,41.47,-85.25,18.0,10.2,100,3,,10.0,30.02067,,,TRUE,TRUE,,,,,,,CLR,,,,,,,,VFR,,,,,,,,,,,,METAR,304.0
KC35 300355Z AUTO 00000KT 10SM CLR 15/09 A2998 RMK AO2 T01460090 PWINO,KC35,2023-05-30T03:55:00Z,43.53,-89.98,14.6,9.0,0,0,,10.0,29.97933,,,TRUE,TRUE,,,,,TRUE,,CLR,,,,,,,,VFR,,,,,,,,,,,,METAR,272.0
KC29 300355Z AUTO 11003KT 10SM CLR 20/06 A3000 RMK AO1 T02000062,KC29,2023-05-30T03:55:00Z,43.12,-89.53,20.0,6.2,110,3,,10.0,30.0,,,TRUE,TRUE,,,,,,,CLR,,,,,,,,VFR,,,,,,,,,,,,METAR,282.0
KC09 300355Z AUTO 09004KT 10SM CLR 21/07 A2998 RMK AO2 T02100068,KC09,2023-05-30T03:55:00Z,41.43,-88.42,21.0,6.8,90,4,,10.0,29.97933,,,TRUE,TRUE,,,,,,,CLR,,,,,,,,VFR,,,,,,,,,,,,METAR,179.0
KC07 300355Z AUTO 00000KT 10SM CLR 08/M03 A3033 RMK AO2,KC07,2023-05-30T03:55:00Z,40.35,-106.7,8.0,-3.0,0,0,,10.0,30.33071,,,TRUE,TRUE,,,,,,,CLR,,,,,,,,VFR,,,,,,,,,,,,METAR,3224.0
KBYY 300355Z AUTO 06003KT 10SM CLR 21/20 A2993 RMK AO2 T02150202,KBYY,2023-05-30T03:55:00Z,28.97,-95.87,21.5,20.2,60,3,,10.0,29.929134,,,TRUE,TRUE,,,,,,,CLR,,,,,,,,VFR,,,,,,,,,,,,METAR,12.0
KBYS 300355Z AUTO 25015KT 10SM CLR 23/M01 A2982 RMK AO2 SLP076 T02321010 $,KBYS,2023-05-30T03:55:00Z,35.28,-116.63,23.2,-1.0,250,15,,10.0,29.819881,1007.6,,TRUE,TRUE,TRUE,,,,,,CLR,,,,,,,,VFR,,,,,,,,,,,,METAR,717.0
KBYL 300355Z AUTO 00000KT 7SM CLR 15/15 A3001 RMK AO1,KBYL,2023-05-30T03:55:00Z,36.8,-84.2,15.0,15.0,0,0,,7.0,30.008858,,,TRUE,TRUE,,,,,,,CLR,,,,,,,,VFR,,,,,,,,,,,,METAR,355.0
KBXK 300355Z AUTO 24004KT 10SM CLR 29/M06 A2983 RMK A01,KBXK,2023-05-30T03:55:00Z,33.42,-112.68,29.0,-6.0,240,4,,10.0,29.828741,,,TRUE,TRUE,,,,,,,CLR,,,,,,,,VFR,,,,,,,,,,,,METAR,303.0
KBXA 300355Z AUTO 00000KT 10SM BKN095 22/20 A2993 RMK AO2 T02220202,KBXA,2023-05-30T03:55:00Z,30.82,-89.87,22.2,20.2,0,0,,10.0,29.929134,,,TRUE,TRUE,,,,,,,BKN,9500,,,,,,,VFR,,,,,,,,,,,,METAR,35.0
KBWW 300355Z AUTO 33003KT 10SM CLR 16/13 A2982 RMK AO2,KBWW,2023-05-30T03:55:00Z,46.17,-103.3,16.0,13.0,330,3,,10.0,29.819881,,,TRUE,TRUE,,,,,,,CLR,,,,,,,,VFR,,,,,,,,,,,,METAR,911.0
KBWP 300355Z AUTO 15014G19KT 10SM CLR 23/13 A2971 RMK AO2 LTG DSNT SW-N,KBWP,2023-05-30T03:55:00Z,46.25,-96.62,23.0,13.0,150,14,19,10.0,29.71063,,,TRUE,TRUE,,,,,,,CLR,,,,,,,,VFR,,,,,,,,,,,,METAR,294.0
KBVU 300355Z AUTO 17007KT 10SM CLR 28/M06 A2981 RMK AO2,KBVU,2023-05-30T03:55:00Z,35.95,-114.87,28.0,-6.0,170,7,,10.0,29.811024,,,TRUE,TRUE,,,,,,,CLR,,,,,,,,VFR,,,,,,,,,,,,METAR,654.0
KBVS 300355Z AUTO 21004KT 10SM CLR 12/10 A2994 RMK A01,KBVS,2023-05-30T03:55:00Z,48.47,-122.42,12.0,10.0,210,4,,10.0,29.940945,,,TRUE,TRUE,,,,,,,CLR,,,,,,,,VFR,,,,,,,,,,,,METAR,31.0
KBVN 300355Z AUTO 29008G15KT 10SM -TSRA SCT049 SCT070 OVC090 18/15 A2995 RMK AO2 LTG DSNT ALQS P0009 T01810150,KBVN,2023-05-30T03:55:00Z,41.73,-98.05,18.1,15.0,290,8,15,10.0,29.949802,,,TRUE,TRUE,,,,,,-TSRA,SCT,4900,SCT,7000,OVC,9000,,,VFR,,,,,,0.09,,,,,,METAR,547.0
KBVI 300355Z AUTO 14004KT 10SM CLR 23/09 A3004 RMK AO2 T02270090,KBVI,2023-05-30T03:55:00Z,40.77,-80.37,22.7,9.0,140,4,,10.0,30.041338,,,TRUE,TRUE,,,,,,,CLR,,,,,,,,VFR,,,,,,,,,,,,METAR,387.0
KBUU 300355Z AUTO 00000KT 10SM CLR 14/07 A3000 RMK AO2 T01410073 PWINO,KBUU,2023-05-30T03:55:00Z,42.68,-88.3,14.1,7.3,0,0,,10.0,30.0,,,TRUE,TRUE,,,,,TRUE,,CLR,,,,,,,,VFR,,,,,,,,,,,,METAR,238.0
KBTN 300355Z AUTO 33011G17KT 10SM CLR 20/12 A2974 RMK AO2,KBTN,2023-05-30T03:55:00Z,45.82,-97.75,20.0,12.0,330,11,17,10.0,29.740158,,,TRUE,TRUE,,,,,,,CLR,,,,,,,,VFR,,,,,,,,,,,,METAR,400.0
KBTA 300355Z AUTO 17012G18KT 10SM CLR 25/14 A2988 RMK AO2 T02490140,KBTA,2023-05-30T03:55:00Z,41.42,-96.12,24.9,14.0,170,12,18,10.0,29.878937,,,TRUE,TRUE,,,,,,,CLR,,,,,,,,VFR,,,,,,,,,,,,METAR,400.0
KBRY 300355Z AUTO 22004KT 8SM FEW008 BKN065 OVC080 20/18 A2995 RMK AO2 RAE0355 P0000 T02030183,KBRY,2023-05-30T03:55:00Z,37.82,-85.5,20.3,18.3,220,4,,8.0,29.949802,,,TRUE,TRUE,,,,,,,FEW,800,BKN,6500,OVC,8000,,,VFR,,,,,,0.005,,,,,,METAR,192.0
KBRG 300355Z AUTO 30008KT 10SM CLR 22/M05 A3002 RMK AO2 T02201048,KBRG,2023-05-30T03:55:00Z,34.65,-106.83,22.0,-4.8,300,8,,10.0,30.02067,,,TRUE,TRUE,,,,,,,CLR,,,,,,,,VFR,,,,,,,,,,,,METAR,1585.0
KBQX 300355Z AUTO 12006G12KT 10SM BKN017 26/22 A2992 RMK A01,KBQX,2023-05-30T03:55:00Z,28.5,-95.72,26.0,22.0,120,6,12,10.0,29.920275,,,TRUE,TRUE,,,,,,,BKN,1700,,,,,,,MVFR,,,,,,,,,,,,METAR,34.0
KBQP 300355Z AUTO 00000KT CLR 20/16 A2995 RMK AO2 T01970161 PWINO,KBQP,2023-05-30T03:55:00Z,32.75,-91.88,19.7,16.1,0,0,,,29.949802,,,TRUE,TRUE,,,,,TRUE,,CLR,,,,,,,,,,,,,,,,,,,,METAR,50.0
KBQK 300355Z AUTO 12004KT 10SM OVC075 22/19 A2990 RMK AO2 T02240187,KBQK,2023-05-30T03:55:00Z,31.25,-81.47,22.4,18.7,120,4,,10.0,29.899607,,,TRUE,TRUE,,,,,,,OVC,7500,,,,,,,VFR,,,,,,,,,,,,METAR,7.0
KBPG 300355Z AUTO 13015KT 10SM CLR 24/17 A2994 RMK AO2 T02380168,KBPG,2023-05-30T03:55:00Z,32.22,-101.52,23.8,16.8,130,15,,10.0,29.940945,,,TRUE,TRUE,,,,,,,CLR,,,,,,,,VFR,,,,,,,,,,,,METAR,782.0
KBPC 300355Z AUTO 17010KT 10SM CLR 21/15 A2995 RMK AO2,KBPC,2023-05-30T03:55:00Z,35.88,-101.03,21.0,15.0,170,10,,10.0,29.949802,,,TRUE,TRUE,,,,,,,CLR,,,,,,,,VFR,,,,,,,,,,,,METAR,844.0
KBOW 300355Z AUTO 04004KT 10SM CLR 23/17 A2994 RMK AO2,KBOW,2023-05-30T03:55:00Z,27.93,-81.77,23.0,17.0,40,4,,10.0,29.940945,,,TRUE,TRUE,,,,,,,CLR,,,,,,,,VFR,,,,,,,,,,,,METAR,38.0
KBNW 300355Z AUTO 15008KT 10SM 22/12 A2991 RMK AO2,KBNW,2023-05-30T03:55:00Z,42.03,-93.83,22.0,12.0,150,8,,10.0,29.911417,,,TRUE,TRUE,,,,,,,,,,,,,,,,,,,,,,,,,,,METAR,350.0
KBNL 300355Z AUTO 00000KT 10SM FEW100 18/17 A2992 RMK AO2,KBNL,2023-05-30T03:55:00Z,33.25,-81.38,18.0,17.0,0,0,,10.0,29.920275,,,TRUE,TRUE,,,,,,,FEW,10000,,,,,,,VFR,,,,,,,,,,,,METAR,76.0
KBMT 300355Z AUTO 00000KT 10SM CLR 23/21 A2993 RMK AO2 T02290206,KBMT,2023-05-30T03:55:00Z,30.07,-94.22,22.9,20.6,0,0,,10.0,29.929134,,,TRUE,TRUE,,,,,,,CLR,,,,,,,,VFR,,,,,,,,,,,,METAR,8.0
KBLV 300355Z 00000KT 10SM FEW130 18/12 A2994 RMK AO2A SLP139 T01840115 $,KBLV,2023-05-30T03:55:00Z,38.53,-89.83,18.4,11.5,0,0,,10.0,29.940945,1013.9,,,TRUE,TRUE,,,,,,FEW,13000,,,,,,,VFR,,,,,,,,,,,,METAR,134.0
KBKT 300355Z AUTO 01005KT 10SM BKN006 OVC011 19/19 A2999 RMK AO1 T01900190,KBKT,2023-05-30T03:55:00Z,37.07,-77.95,19.0,19.0,10,5,,10.0,29.991142,,,TRUE,TRUE,,,,,,,BKN,600,OVC,1100,,,,,IFR,,,,,,,,,,,,METAR,134.0
KBKS 300355Z AUTO 36003KT 10SM SCT140 24/23 A2992 RMK AO2 LTG DSNT S AND W AND NW SLP092 T02380233 $,KBKS,2023-05-30T03:55:00Z,27.2,-98.12,23.8,23.3,360,3,,10.0,29.920275,1009.2,,TRUE,TRUE,TRUE,,,,,,SCT,14000,,,,,,,VFR,,,,,,,,,,,,METAR,34.0
KBKN 300355Z AUTO 00000KT 19/18 A2993 RMK AO2,KBKN,2023-05-30T03:55:00Z,36.75,-97.35,19.0,18.0,0,0,,,29.929134,,,TRUE,TRUE,,,,,,,,,,,,,,,,,,,,,,,,,,,METAR,208.0
KBKD 300355Z AUTO 15003KT 10SM CLR 22/17 A2992 RMK AO2 T02180171,KBKD,2023-05-30T03:55:00Z,32.72,-98.88,21.8,17.1,150,3,,10.0,29.920275,,,TRUE,TRUE,,,,,,,CLR,,,,,,,,VFR,,,,,,,,,,,,METAR,383.0
KBJI 300355Z AUTO 15006KT 10SM CLR 20/12 A2980 RMK AO2 LTG DSNT SW T01950121,KBJI,2023-05-30T03:55:00Z,47.5,-94.92,19.5,12.1,150,6,,10.0,29.799213,,,TRUE,TRUE,,,,,,,CLR,,,,,,,,VFR,,,,,,,,,,,,METAR,422.0
KBIX 300355Z AUTO 00000KT 10SM FEW045 24/20 A2990 RMK AO2 SLP128 T02430202,KBIX,2023-05-30T03:55:00Z,30.42,-88.92,24.3,20.2,0,0,,10.0,29.899607,1012.8,,TRUE,TRUE,,,,,,,FEW,4500,,,,,,,VFR,,,,,,,,,,,,METAR,4.0
KBIJ 300355Z AUTO 00000KT 10SM CLR 19/15 A2993 RMK AO2,KBIJ,2023-05-30T03:55:00Z,31.4,-84.9,19.0,15.0,0,0,,10.0,29.929134,,,TRUE,TRUE,,,,,,,CLR,,,,,,,,VFR,,,,,,,,,,,,METAR,63.0
KBIF 300355Z 24006KT 7SM FEW160 28/M04 A2994 RMK SLPNO ALSTG WND DATA ESTMD,KBIF,2023-05-30T03:55:00Z,31.85,-106.38,28.0,-4.0,240,6,,7.0,29.940945,,,,,,,,,,,FEW,16000,,,,,,,VFR,,,,,,,,,,,,METAR,1201.0
KBIE 300355Z AUTO 18009G15KT 10SM CLR 23/15 A2990 RMK AO2 T02300153,KBIE,2023-05-30T03:55:00Z,40.28,-96.75,23.0,15.3,180,9,15,10.0,29.899607,,,TRUE,TRUE,,,,,,,CLR,,,,,,,,VFR,,,,,,,,,,,,METAR,398.0
KBHC 300355Z AUTO 35003KT 10SM CLR 19/16 A2991 RMK AO2,KBHC,2023-05-30T03:55:00Z,31.72,-82.4,19.0,16.0,350,3,,10.0,29.911417,,,TRUE,TRUE,,,,,,,CLR,,,,,,,,VFR,,,,,,,,,,,,METAR,61.0
KBGF 300355Z AUTO 00000KT 10SM CLR 15/15 A2997 RMK A01,KBGF,2023-05-30T03:55:00Z,35.18,-86.07,15.0,15.0,0,0,,10.0,29.970472,,,TRUE,TRUE,,,,,,,CLR,,,,,,,,VFR,,,,,,,,,,,,METAR,295.0
KBGE 300355Z AUTO 30003KT 10SM CLR 20/15 A2992 RMK AO2 T02040154,KBGE,2023-05-30T03:55:00Z,30.97,-84.63,20.4,15.4,300,3,,10.0,29.920275,,,TRUE,TRUE,,,,,,,CLR,,,,,,,,VFR,,,,,,,,,,,,METAR,40.0
KBEC 300355Z AUTO 13007KT 10SM CLR 20/18 A2994 RMK AO2 T01990183,KBEC,2023-05-30T03:55:00Z,37.7,-97.22,19.9,18.3,130,7,,10.0,29.940945,,,TRUE,TRUE,,,,,,,CLR,,,,,,,,VFR,,,,,,,,,,,,METAR,421.0
KBEA 300355Z AUTO 00000KT 10SM RA SCT045 BKN080 OVC100 20/19 A2993 RMK AO2 LTG DSNT NE S AND SW T02010194,KBEA,2023-05-30T03:55:00Z,28.37,-97.78,20.1,19.4,0,0,,10.0,29.929134,,,TRUE,TRUE,,,,,,RA,SCT,4500,BKN,8000,OVC,10000,,,VFR,,,,,,,,,,,,METAR,83.0
KBDU 300355Z AUTO 00000KT 10SM CLR 18/06 A3000 RMK AO2,KBDU,2023-05-30T03:55:00Z,40.03,-105.23,18.0,6.0,0,0,,10.0,30.0,,,TRUE,TRUE,,,,,,,CLR,,,,,,,,VFR,,,,,,,,,,,,METAR,1614.0
KBDN 300355Z AUTO 36006KT 10SM CLR 20/03 A2990 RMK AO2,KBDN,2023-05-30T03:55:00Z,44.1,-121.2,20.0,3.0,360,6,,10.0,29.899607,,,TRUE,TRUE,,,,,,,CLR,,,,,,,,VFR,,,,,,,,,,,,METAR,1044.0
KBDH 300355Z AUTO 13010KT 10SM CLR 21/13 A2984 RMK AO2 LTG DSNT W,KBDH,2023-05-30T03:55:00Z,45.12,-95.13,21.0,13.0,130,10,,10.0,29.840551,,,TRUE,TRUE,,,,,,,CLR,,,,,,,,VFR,,,,,,,,,,,,METAR,341.0
KBDG 300355Z AUTO 01012KT 10SM 16/M08 A3010 RMK AO1 T01591085,KBDG,2023-05-30T03:55:00Z,37.58,-109.47,15.9,-8.5,10,12,,10.0,30.100393,,,TRUE,TRUE,,,,,,,,,,,,,,,,,,,,,,,,,,,METAR,1778.0
KBCK 300355Z AUTO 00000KT 10SM CLR 11/08 A2995 RMK AO2 T01050079,KBCK,2023-05-30T03:55:00Z,44.25,-90.85,10.5,7.9,0,0,,10.0,29.949802,,,TRUE,TRUE,,,,,,,CLR,,,,,,,,VFR,,,,,,,,,,,,METAR,256.0
KBCB 300355Z AUTO 04003KT 10SM BKN017 BKN022 BKN028 17/17 A3008 RMK AO2 T01710171,KBCB,2023-05-30T03:55:00Z,37.22,-80.42,17.1,17.1,40,3,,10.0,30.079725,,,TRUE,TRUE,,,,,,,BKN,1700,BKN,2200,BKN,2800,,,MVFR,,,,,,,,,,,,METAR,642.0
KBBP 300355Z AUTO 05003KT 10SM BKN055 OVC085 18/18 A2994 RMK AO2,KBBP,2023-05-30T03:55:00Z,34.62,-79.73,18.0,18.0,50,3,,10.0,29.940945,,,TRUE,TRUE,,,,,,,BKN,5500,OVC,8500,,,,,VFR,,,,,,,,,,,,METAR,44.0
KBBG 300355Z AUTO 00000KT 10SM CLR 20/13 A2998 RMK AO2,KBBG,2023-05-30T03:55:00Z,36.53,-93.2,20.0,13.0,0,0,,10.0,29.97933,,,TRUE,TRUE,,,,,,,CLR,,,,,,,,VFR,,,,,,,,,,,,METAR,403.0
KBBD 300355Z AUTO 17004KT 10SM FEW042 19/16 A2996 RMK AO2,KBBD,2023-05-30T03:55:00Z,31.18,-99.32,19.0,16.0,170,4,,10.0,29.958662,,,TRUE,TRUE,,,,,,,FEW,4200,,,,,,,VFR,,,,,,,,,,,,METAR,554.0
KBAX 300355Z AUTO 00000KT 10SM CLR 13/12 A3004 RMK AO2 T01280120,KBAX,2023-05-30T03:55:00Z,43.78,-82.98,12.8,12.0,0,0,,10.0,30.041338,,,TRUE,TRUE,,,,,,,CLR,,,,,,,,VFR,,,,,,,,,,,,METAR,229.0
KBAM 300355Z AUTO 13003KT 10SM BKN110 21/04 A2993 RMK AO1,KBAM,2023-05-30T03:55:00Z,40.6,-116.87,21.0,4.0,130,3,,10.0,29.929134,,,TRUE,TRUE,,,,,,,BKN,11000,,,,,,,VFR,,,,,,,,,,,,METAR,1381.0
KBAD 300355Z AUTO 00000KT 10SM CLR 22/18 A2993 RMK AO2 SLP138 T02180184 $,KBAD,2023-05-30T03:55:00Z,32.5,-93.67,21.8,18.4,0,0,,10.0,29.929134,1013.8,,TRUE,TRUE,TRUE,,,,,,CLR,,,,,,,,VFR,,,,,,,,,,,,METAR,49.0
KBAC 300355Z AUTO 33012G17KT 10SM FEW065 SCT090 19/14 A2976 RMK AO2 LTG DSNT ALQDS,KBAC,2023-05-30T03:55:00Z,46.93,-98.02,19.0,14.0,330,12,17,10.0,29.760826,,,TRUE,TRUE,,,,,,,FEW,6500,SCT,9000,,,,,VFR,,,,,,,,,,,,METAR,423.0
KBAB 300355Z AUTO 16007KT 10SM CLR 19/10 A2987 RMK AO2 SLP118 T01870095 $,KBAB,2023-05-30T03:55:00Z,39.13,-121.43,18.7,9.5,160,7,,10.0,29.870079,1011.8,,TRUE,TRUE,TRUE,,,,,,CLR,,,,,,,,VFR,,,,,,,,,,,,METAR,31.0
KAZE 300355Z AUTO 01004KT 10SM CLR 21/15 A2991 RMK AO2 T02100153,KAZE,2023-05-30T03:55:00Z,31.88,-82.65,21.0,15.3,10,4,,10.0,29.911417,,,TRUE,TRUE,,,,,,,CLR,,,,,,,,VFR,,,,,,,,,,,,METAR,78.0
KAZC 300355Z AUTO 34003KT 10SM CLR 19/M02 A3001 RMK AO2,KAZC,2023-05-30T03:55:00Z,36.97,-113.02,19.0,-2.0,340,3,,10.0,30.008858,,,TRUE,TRUE,,,,,,,CLR,,,,,,,,VFR,,,,,,,,,,,,METAR,1476.0
KAYS 300355Z AUTO 00000KT 10SM SCT070 19/19 A2990 RMK AO2 T01930186,KAYS,2023-05-30T03:55:00Z,31.25,-82.4,19.3,18.6,0,0,,10.0,29.899607,,,TRUE,TRUE,,,,,,,SCT,7000,,,,,,,VFR,,,,,,,,,,,,METAR,42.0
KAXX 300355Z AUTO 18012KT 10SM CLR 13/05 A3025 RMK AO2 T01250045,KAXX,2023-05-30T03:55:00Z,36.42,-105.28,12.5,4.5,180,12,,10.0,30.250984,,,TRUE,TRUE,,,,,,,CLR,,,,,,,,VFR,,,,,,,,,,,,METAR,2543.0
KAXV 300355Z AUTO 06003KT 10SM CLR 19/08 A3000 RMK AO2,KAXV,2023-05-30T03:55:00Z,40.5,-84.3,19.0,8.0,60,3,,10.0,30.0,,,TRUE,TRUE,,,,,,,CLR,,,,,,,,VFR,,,,,,,,,,,,METAR,278.0
KAXS 300355Z AUTO 11006KT 10SM CLR 23/18 A2993 RMK AO2 T02260175,KAXS,2023-05-30T03:55:00Z,34.7,-99.33,22.6,17.5,110,6,,10.0,29.929134,,,TRUE,TRUE,,,,,,,CLR,,,,,,,,VFR,,,,,,,,,,,,METAR,433.0
KAXH 300355Z AUTO 00000KT 10SM SCT120 24/22 A2993 RMK AO2 T02420220,KAXH,2023-05-30T03:55:00Z,29.52,-95.48,24.2,22.0,0,0,,10.0,29.929134,,,TRUE,TRUE,,,,,,,SCT,12000,,,,,,,VFR,,,,,,,,,,,,METAR,18.0
KAXA 300355Z AUTO 14008G15KT 10SM FEW100 23/12 A2990 RMK A01,KAXA,2023-05-30T03:55:00Z,43.07,-94.27,23.0,12.0,140,8,15,10.0,29.899607,,,TRUE,TRUE,,,,,,,FEW,10000,,,,,,,VFR,,,,,,,,,,,,METAR,371.0
KAWG 300355Z AUTO 19005KT 10SM CLR 21/08 A2994 RMK AO2,KAWG,2023-05-30T03:55:00Z,41.27,-91.67,21.0,8.0,190,5,,10.0,29.940945,,,TRUE,TRUE,,,,,,,CLR,,,,,,,,VFR,,,,,,,,,,,,METAR,229.0
KAVQ 300355Z AUTO 26009KT 10SM 30/04 A2986 RMK AO2 T03000037,KAVQ,2023-05-30T03:55:00Z,32.4,-111.22,30.0,3.7,260,9,,10.0,29.861221,,,TRUE,TRUE,,,,,,,,,,,,,,,,,,,,,,,,,,,METAR,618.0
KAVC 300355Z AUTO 00000KT 10SM SCT050 19/19 A3003 RMK AO2 T01870185,KAVC,2023-05-30T03:55:00Z,36.68,-78.05,18.7,18.5,0,0,,10.0,30.029528,,,TRUE,TRUE,,,,,,,SCT,5000,,,,,,,VFR,,,,,,,,,,,,METAR,119.0
KAUN 300355Z AUTO 20006KT 10SM FEW080 17/09 A2994 RMK A01,KAUN,2023-05-30T03:55:00Z,38.95,-121.08,17.0,9.0,200,6,,10.0,29.940945,,,TRUE,TRUE,,,,,,,FEW,8000,,,,,,,VFR,,,,,,,,,,,,METAR,453.0
KAUM 300355Z AUTO 16004KT 10SM CLR 23/04 A2992 RMK AO2 LTG DSNT SW,KAUM,2023-05-30T03:55:00Z,43.67,-92.92,23.0,4.0,160,4,,10.0,29.920275,,,TRUE,TRUE,,,,,,,CLR,,,,,,,,VFR,,,,,,,,,,,,METAR,376.0
KAUH 300355Z AUTO 35011G14KT 10SM SCT075 BKN120 24/13 A2993 RMK AO2 LTG DSNT N AND NW T02360132,KAUH,2023-05-30T03:55:00Z,40.88,-98.0,23.6,13.2,350,11,14,10.0,29.929134,,,TRUE,TRUE,,,,,,,SCT,7500,BKN,12000,,,,,VFR,,,,,,,,,,,,METAR,549.0
KATW 300355Z AUTO 13004KT 10SM CLR 20/09 A2999 RMK AO2,KATW,2023-05-30T03:55:00Z,44.27,-88.52,20.0,9.0,130,4,,10.0,29.991142,,,TRUE,TRUE,,,,,,,CLR,,,,,,,,VFR,,,,,,,,,,,,METAR,266.0
KATS 300355Z AUTO 18006KT 10SM CLR 24/M01 A2992 RMK AO2,KATS,2023-05-30T03:55:00Z,32.85,-104.47,24.0,-1.0,180,6,,10.0,29.920275,,,TRUE,TRUE,,,,,,,CLR,,,,,,,,VFR,,,,,,,,,,,,METAR,1073.0
KATA 300355Z AUTO 00000KT 8SM CLR 20/20 A2993 RMK AO2 SLP034 T02000196 $,KATA,2023-05-30T03:55:00Z,33.1,-94.2,20.0,19.6,0,0,,8.0,29.929134,1003.4,,TRUE,TRUE,TRUE,,,,,,CLR,,,,,,,,VFR,,,,,,,,,,,,METAR,85.0
KASW 300355Z AUTO 00000KT 10SM CLR 17/11 A3000 RMK AO2 T01770114,KASW,2023-05-30T03:55:00Z,41.27,-85.83,17.7,11.4,0,0,,10.0,30.0,,,TRUE,TRUE,,,,,,,CLR,,,,,,,,VFR,,,,,,,,,,,,METAR,253.0
KAST 300355Z AUTO 33014G20KT 10SM OVC024 12/06 A3001 RMK AO2 SLP162 T01170061,KAST,2023-05-30T03:55:00Z,46.15,-123.88,11.7,6.1,330,14,20,10.0,30.008858,1016.2,,TRUE,TRUE,,,,,,,OVC,2400,,,,,,,MVFR,,,,,,,,,,,,METAR,3.0
KASN 300355Z AUTO 00000KT 10SM CLR 16/15 A2997 RMK AO2 T01600145 402350126,KASN,2023-05-30T03:55:00Z,33.57,-86.05,16.0,14.5,0,0,,10.0,29.970472,,,TRUE,TRUE,,,,,,,CLR,,,,,,,,VFR,,,,23.5,12.6,,,,,,,METAR,159.0
KASL 300355Z AUTO 35003KT 1 3/4SM BR CLR 21/21 A2993 RMK AO2 T02090209 $,KASL,2023-05-30T03:55:00Z,32.52,-94.3,20.9,20.9,350,3,,1.75,29.929134,,,TRUE,TRUE,TRUE,,,,,BR,CLR,,,,,,,,IFR,,,,,,,,,,,,METAR,104.0
KARW 300355Z AUTO 20003KT 10SM CLR 20/18 A2991 RMK AO2,KARW,2023-05-30T03:55:00Z,32.42,-80.63,20.0,18.0,200,3,,10.0,29.911417,,,TRUE,TRUE,,,,,,,CLR,,,,,,,,VFR,,,,,,,,,,,,METAR,2.0
KARV 300355Z AUTO 00000KT 10SM CLR 15/09 A2999 RMK AO2 T01450085,KARV,2023-05-30T03:55:00Z,45.92,-89.72,14.5,8.5,0,0,,10.0,29.991142,,,TRUE,TRUE,,,,,,,CLR,,,,,,,,VFR,,,,,,,,,,,,METAR,494.0
KARM 300355Z AUTO 00000KT 10SM SCT120 22/22 A2994 RMK AO2 T02150215 TSNO,KARM,2023-05-30T03:55:00Z,29.25,-96.15,21.5,21.5,0,0,,10.0,29.940945,,,TRUE,TRUE,,,TRUE,,,,SCT,12000,,,,,,,VFR,,,,,,,,,,,,METAR,29.0
KAQX 300355Z AUTO 00000KT 10SM FEW070 SCT090 19/17 A2991 RMK AO2,KAQX,2023-05-30T03:55:00Z,32.98,-81.27,19.0,17.0,0,0,,10.0,29.911417,,,TRUE,TRUE,,,,,,,FEW,7000,SCT,9000,,,,,VFR,,,,,,,,,,,,METAR,48.0
KAQO 300355Z AUTO 00000KT 4SM BR BKN037 19/19 A2995 RMK AO2,KAQO,2023-05-30T03:55:00Z,30.78,-98.67,19.0,19.0,0,0,,4.0,29.949802,,,TRUE,TRUE,,,,,,BR,BKN,3700,,,,,,,MVFR,,,,,,,,,,,,METAR,334.0
KAPY 300355Z AUTO 07007KT 10SM 24/19 A2994 RMK AO2 P0001 T02380192 TSNO,KAPY,2023-05-30T03:55:00Z,26.97,-99.25,23.8,19.2,70,7,,10.0,29.940945,,,TRUE,TRUE,,,TRUE,,,,,,,,,,,,,,,,,,0.01,,,,,,METAR,129.0
KANW 300355Z AUTO 18010KT 10SM SCT090 BKN110 19/13 A2986 RMK AO2 T01860130,KANW,2023-05-30T03:55:00Z,42.57,-100.0,18.6,13.0,180,10,,10.0,29.861221,,,TRUE,TRUE,,,,,,,SCT,9000,BKN,11000,,,,,VFR,,,,,,,,,,,,METAR,788.0
KANQ 300355Z AUTO 00000KT 10SM FEW060 16/11 A3001 RMK AO2,KANQ,2023-05-30T03:55:00Z,41.63,-85.08,16.0,11.0,0,0,,10.0,30.008858,,,TRUE,TRUE,,,,,,,FEW,6000,,,,,,,VFR,,,,,,,,,,,,METAR,299.0
KANJ 300355Z AUTO 11003KT 10SM CLR 17/08 A3004 RMK AO2 SLP169 T01720078,KANJ,2023-05-30T03:55:00Z,46.47,-84.37,17.2,7.8,110,3,,10.0,30.041338,1016.9,,TRUE,TRUE,,,,,,,CLR,,,,,,,,VFR,,,,,,,,,,,,METAR,220.0
KANE 300355Z AUTO 14006KT 10SM CLR 24/07 A2986 RMK AO2,KANE,2023-05-30T03:55:00Z,45.15,-93.22,24.0,7.0,140,6,,10.0,29.861221,,,TRUE,TRUE,,,,,,,CLR,,,,,,,,VFR,,,,,,,,,,,,METAR,276.0
KAMN 300355Z AUTO 04005KT 10SM CLR 16/05 A3003 RMK AO2 T01590047,KAMN,2023-05-30T03:55:00Z,43.32,-84.68,15.9,4.7,40,5,,10.0,30.029528,,,TRUE,TRUE,,,,,,,CLR,,,,,,,,VFR,,,,,,,,,,,,METAR,228.0
KALX 300355Z AUTO 00000KT 10SM CLR 16/16 A2996 RMK AO2 T01600158,KALX,2023-05-30T03:55:00Z,32.92,-85.97,16.0,15.8,0,0,,10.0,29.958662,,,TRUE,TRUE,,,,,,,CLR,,,,,,,,VFR,,,,,,,,,,,,METAR,198.0
KALN 300355Z AUTO 00000KT 10SM CLR 18/11 A2996 RMK AO2 T01840110,KALN,2023-05-30T03:55:00Z,38.88,-90.03,18.4,11.0,0,0,,10.0,29.958662,,,TRUE,TRUE,,,,,,,CLR,,,,,,,,VFR,,,,,,,,,,,,METAR,159.0
KALM 300355Z AUTO 09005KT 10SM CLR 21/M09 A2997 RMK AO2,KALM,2023-05-30T03:55:00Z,32.83,-105.98,21.0,-9.0,90,5,,10.0,29.970472,,,TRUE,TRUE,,,,,,,CLR,,,,,,,,VFR,,,,,,,,,,,,METAR,1267.0
KAJZ 300355Z AUTO 00000KT 10SM CLR 24/M08 A2998 RMK AO2 T02351084 PWINO,KAJZ,2023-05-30T03:55:00Z,38.78,-108.07,23.5,-8.4,0,0,,10.0,29.97933,,,TRUE,TRUE,,,,,TRUE,,CLR,,,,,,,,VFR,,,,,,,,,,,,METAR,1583.0
KAJR 300355Z AUTO 04004KT 10SM SCT047 BKN070 20/17 A2996 RMK AO2 T01960170,KAJR,2023-05-30T03:55:00Z,34.5,-83.55,19.6,17.0,40,4,,10.0,29.958662,,,TRUE,TRUE,,,,,,,SCT,4700,BKN,7000,,,,,VFR,,,,,,,,,,,,METAR,441.0
KAJG 300355Z AUTO 00000KT 10SM BKN090 22/15 A2995 RMK AO2 T02220148,KAJG,2023-05-30T03:55:00Z,38.62,-87.73,22.2,14.8,0,0,,10.0,29.949802,,,TRUE,TRUE,,,,,,,BKN,9000,,,,,,,VFR,,,,,,,,,,,,METAR,130.0
KAIT 300355Z AUTO 12005KT 10SM CLR 17/08 A2985 RMK AO2,KAIT,2023-05-30T03:55:00Z,46.53,-93.67,17.0,8.0,120,5,,10.0,29.84941,,,TRUE,TRUE,,,,,,,CLR,,,,,,,,VFR,,,,,,,,,,,,METAR,367.0
KAIO 300355Z AUTO 16009KT 10SM CLR 23/15 A2989 RMK AO2,KAIO,2023-05-30T03:55:00Z,41.4,-95.03,23.0,15.0,160,9,,10.0,29.890747,,,TRUE,TRUE,,,,,,,CLR,,,,,,,,VFR,,,,,,,,,,,,METAR,349.0
KAIK 300355Z AUTO 07004KT 10SM CLR 17/16 A2994 RMK AO2 T01730157,KAIK,2023-05-30T03:55:00Z,33.65,-81.68,17.3,15.7,70,4,,10.0,29.940945,,,TRUE,TRUE,,,,,,,CLR,,,,,,,,VFR,,,,,,,,,,,,METAR,155.0
KAIG 300355Z AUTO 00000KT 10SM CLR 14/09 A3002 RMK AO2 T01360089 402650072,KAIG,2023-05-30T03:55:00Z,45.15,-89.12,13.6,8.9,0,0,,10.0,30.02067,,,TRUE,TRUE,,,,,,,CLR,,,,,,,,VFR,,,,26.5,7.2,,,,,,,METAR,462.0
KAID 300355Z AUTO 08003KT 10SM CLR 21/09 A2999 RMK AO2 T02110089,KAID,2023-05-30T03:55:00Z,40.12,-85.62,21.1,8.9,80,3,,10.0,29.991142,,,TRUE,TRUE,,,,,,,CLR,,,,,,,,VFR,,,,,,,,,,,,METAR,277.0
KAHQ 300355Z AUTO 17010KT 10SM 24/14 A2988 RMK AO2 T02400141,KAHQ,2023-05-30T03:55:00Z,41.23,-96.6,24.0,14.1,170,10,,10.0,29.878937,,,TRUE,TRUE,,,,,,,,,,,,,,,,,,,,,,,,,,,METAR,372.0
KAGO 300355Z AUTO 00000KT 8SM CLR 19/17 A2993 RMK A01,KAGO,2023-05-30T03:55:00Z,33.23,-93.22,19.0,17.0,0,0,,8.0,29.929134,,,TRUE,TRUE,,,,,,,CLR,,,,,,,,VFR,,,,,,,,,,,,METAR,91.0
KAGI 300355Z AUTO 10014KT 10SM CLR 25/20 A2989 RMK AO2 T02500199,KAGI,2023-05-30T03:55:00Z,27.55,-92.45,25.0,19.9,100,14,,10.0,29.890747,,,TRUE,TRUE,,,,,,,CLR,,,,,,,,VFR,,,,,,,,,,,,METAR,41.0
KAFO 300355Z AUTO 07003KT 10SM CLR 09/04 A3009 RMK AO2 LTG DSNT W,KAFO,2023-05-30T03:55:00Z,42.72,-110.95,9.0,4.0,70,3,,10.0,30.088583,,,TRUE,TRUE,,,,,,,CLR,,,,,,,,VFR,,,,,,,,,,,,METAR,1881.0
KAFK 300355Z AUTO 20010KT 10SM CLR 23/14 A2990 RMK AO2 T02300143,KAFK,2023-05-30T03:55:00Z,40.6,-95.85,23.0,14.3,200,10,,10.0,29.899607,,,TRUE,TRUE,,,,,,,CLR,,,,,,,,VFR,,,,,,,,,,,,METAR,353.0
KAEL 300355Z AUTO 16008KT 10SM BKN080 23/12 A2990 RMK AO2 LTG DSNT S,KAEL,2023-05-30T03:55:00Z,43.68,-93.37,23.0,12.0,160,8,,10.0,29.899607,,,TRUE,TRUE,,,,,,,BKN,8000,,,,,,,VFR,,,,,,,,,,,,METAR,382.0
KAEJ 300355Z AUTO 27006KT 10SM CLR 12/M03 A3018 RMK AO2 T01151028,KAEJ,2023-05-30T03:55:00Z,38.82,-106.12,11.5,-2.8,270,6,,10.0,30.180119,,,TRUE,TRUE,,,,,,,CLR,,,,,,,,VFR,,,,,,,,,,,,METAR,2420.0
KAEG 300355Z AUTO 27010KT 10SM CLR 22/M04 A3006 RMK AO2 T02161037,KAEG,2023-05-30T03:55:00Z,35.13,-106.8,21.6,-3.7,270,10,,10.0,30.059055,,,TRUE,TRUE,,,,,,,CLR,,,,,,,,VFR,,,,,,,,,,,,METAR,1771.0
KADU 300355Z AUTO 16003KT 10SM SCT049 SCT060 BKN070 20/13 A2990 RMK AO2 PWINO,KADU,2023-05-30T03:55:00Z,41.7,-94.92,20.0,13.0,160,3,,10.0,29.899607,,,TRUE,TRUE,,,,,TRUE,,SCT,4900,SCT,6000,BKN,7000,,,VFR,,,,,,,,,,,,METAR,391.0
KADT 300355Z AUTO 03013G16KT 10SM CLR 17/12 A2999 RMK AO2 LTG DSNT NE E AND W T01680124,KADT,2023-05-30T03:55:00Z,39.83,-101.05,16.8,12.4,30,13,16,10.0,29.991142,,,TRUE,TRUE,,,,,,,CLR,,,,,,,,VFR,,,,,,,,,,,,METAR,899.0
KADS 300355Z AUTO 12012G16KT 10SM SCT055 22/18 A2996 RMK AO2 T02150175,KADS,2023-05-30T03:55:00Z,32.97,-96.83,21.5,17.5,120,12,16,10.0,29.958662,,,TRUE,TRUE,,,,,,,SCT,5500,,,,,,,VFR,,,,,,,,,,,,METAR,198.0
KADM 300355Z AUTO 00000KT 10SM BKN120 21/18 A2992 RMK AO2,KADM,2023-05-30T03:55:00Z,34.3,-97.02,21.0,18.0,0,0,,10.0,29.920275,,,TRUE,TRUE,,,,,,,BKN,12000,,,,,,,VFR,,,,,,,,,,,,METAR,223.0
KADH 300355Z AUTO 00000KT 10SM CLR 20/20 A2995 RMK AO2,KADH,2023-05-30T03:55:00Z,34.8,-96.67,20.0,20.0,0,0,,10.0,29.949802,,,TRUE,TRUE,,,,,,,CLR,,,,,,,,VFR,,,,,,,,,,,,METAR,301.0
KACQ 300355Z AUTO 21011KT 10SM SCT120 22/12 A2989 RMK AO2 LTG DSNT S AND SW,KACQ,2023-05-30T03:55:00Z,44.07,-93.55,22.0,12.0,210,11,,10.0,29.890747,,,TRUE,TRUE,,,,,,,SCT,12000,,,,,,,VFR,,,,,,,,,,,,METAR,339.0
KACP 300355Z AUTO 00000KT 7SM CLR 21/19 A2993 RMK AO2,KACP,2023-05-30T03:55:00Z,30.75,-92.68,21.0,19.0,0,0,,7.0,29.929134,,,TRUE,TRUE,,,,,,,CLR,,,,,,,,VFR,,,,,,,,,,,,METAR,31.0
KACJ 300355Z AUTO 35003KT 10SM CLR 18/15 A2994 RMK AO2 T01840153,KACJ,2023-05-30T03:55:00Z,32.12,-84.18,18.4,15.3,350,3,,10.0,29.940945,,,TRUE,TRUE,,,,,,,CLR,,,,,,,,VFR,,,,,,,,,,,,METAR,140.0
KACB 300355Z AUTO 00000KT 10SM CLR 12/09 A3003 RMK AO2 T01200088,KACB,2023-05-30T03:55:00Z,44.98,-85.2,12.0,8.8,0,0,,10.0,30.029528,,,TRUE,TRUE,,,,,,,CLR,,,,,,,,VFR,,,,,,,,,,,,METAR,189.0
KABH 300355Z AUTO 11003KT 9SM OVC180 17/06 A3004 RMK AO2 SLP106 T01720055,KABH,2023-05-30T03:55:00Z,38.75,-104.3,17.2,5.5,110,3,,9.0,30.041338,1010.6,,TRUE,TRUE,,,,,,,OVC,18000,,,,,,,VFR,,,,,,,,,,,,METAR,1838.0
KAAT 300355Z AUTO 00000KT 10SM FEW090 16/07 A2997 RMK AO2 SLP121 T01610067 $,KAAT,2023-05-30T03:55:00Z,41.48,-120.57,16.1,6.7,0,0,,10.0,29.970472,1012.1,,TRUE,TRUE,TRUE,,,,,,FEW,9000,,,,,,,VFR,,,,,,,,,,,,METAR,1336.0
KAAA 300355Z AUTO 00000KT 10SM 22/10 A2996 RMK AO2 T02190103,KAAA,2023-05-30T03:55:00Z,40.17,-89.33,21.9,10.3,0,0,,10.0,29.958662,,,TRUE,TRUE,,,,,,,,,,,,,,,,,,,,,,,,,,,METAR,179.0
KA39 300355Z AUTO 30007KT 10SM OVC100 28/M01 A2985 RMK AO2,KA39,2023-05-30T03:55:00Z,32.98,-111.92,28.0,-1.0,300,7,,10.0,29.84941,,,TRUE,TRUE,,,,,,,OVC,10000,,,,,,,VFR,,,,,,,,,,,,METAR,391.0
K9V9 300355Z AUTO 25006KT 10SM CLR 21/15 A2977 RMK AO2 T02090146,K9V9,2023-05-30T03:55:00Z,43.77,-99.32,20.9,14.6,250,6,,10.0,29.769686,,,TRUE,TRUE,,,,,,,CLR,,,,,,,,VFR,,,,,,,,,,,,METAR,511.0
K9MN 300355Z AUTO 12009KT 10SM CLR 21/06 A2992 RMK AO1 T02130060,K9MN,2023-05-30T03:55:00Z,44.02,-92.48,21.3,6.0,120,9,,10.0,29.920275,,,TRUE,TRUE,,,,,,,CLR,,,,,,,,VFR,,,,,,,,,,,,METAR,308.0
K9L2 300355Z AUTO 21011KT 10SM FEW220 17/07 A2989 RMK AO2 SLP109 T01720070,K9L2,2023-05-30T03:55:00Z,34.98,-117.87,17.2,7.0,210,11,,10.0,29.890747,1010.9,,TRUE,TRUE,,,,,,,FEW,22000,,,,,,,VFR,,,,,,,,,,,,METAR,697.0
K9D7 300355Z AUTO 00000KT 10SM BKN110 17/17 A2974 RMK AO2 TSNO,K9D7,2023-05-30T03:55:00Z,48.48,-99.23,17.0,17.0,0,0,,10.0,29.740158,,,TRUE,TRUE,,,TRUE,,,,BKN,11000,,,,,,,VFR,,,,,,,,,,,,METAR,451.0
K9A5 300355Z AUTO 00000KT 5SM CLR 14/14 A2998 RMK AO2 T01440144,K9A5,2023-05-30T03:55:00Z,34.68,-85.28,14.4,14.4,0,0,,5.0,29.97933,,,TRUE,TRUE,,,,,,,CLR,,,,,,,,MVFR,,,,,,,,,,,,METAR,234.0
K96D 300355Z AUTO 22013G18KT 10SM FEW065 FEW075 BKN120 21/15 A2970 RMK AO2,K96D,2023-05-30T03:55:00Z,48.93,-97.9,21.0,15.0,220,13,18,10.0,29.698818,,,TRUE,TRUE,,,,,,,FEW,6500,FEW,7500,BKN,12000,,,VFR,,,,,,,,,,,,METAR,290.0
K8W2 300355Z AUTO 01005KT 10SM OVC020 19/18 A3006 RMK AO1 T01880182 402250150,K8W2,2023-05-30T03:55:00Z,38.65,-78.7,18.8,18.2,10,5,,10.0,30.059055,,,TRUE,TRUE,,,,,,,OVC,2000,,,,,,,MVFR,,,,22.5,15.0,,,,,,,METAR,295.0
K8T6 300355Z AUTO 13008G13KT 10SM FEW070 SCT100 BKN120 21/21 A2990 RMK AO2 LTG DSNT SE P0029,K8T6,2023-05-30T03:55:00Z,28.37,-98.12,21.0,21.0,130,8,13,10.0,29.899607,,,TRUE,TRUE,,,,,,,FEW,7000,SCT,10000,BKN,12000,,,VFR,,,,,,0.29,,,,,,METAR,39.0
K8A0 300355Z AUTO 00000KT 10SM CLR 15/13 A2997 RMK AO2,K8A0,2023-05-30T03:55:00Z,34.23,-86.25,15.0,13.0,0,0,,10.0,29.970472,,,TRUE,TRUE,,,,,,,CLR,,,,,,,,VFR,,,,,,,,,,,,METAR,313.0
K82V 300355Z AUTO 01003KT 10SM 12/10 A3002 RMK AO2,K82V,2023-05-30T03:55:00Z,41.15,-104.13,12.0,10.0,10,3,,10.0,30.02067,,,TRUE,TRUE,,,,,,,,,,,,,,,,,,,,,,,,,,,METAR,1563.0
K82C 300355Z AUTO 00000KT 10SM CLR 13/09 A2997 RMK AO2 T01260094,K82C,2023-05-30T03:55:00Z,43.83,-90.13,12.6,9.4,0,0,,10.0,29.970472,,,TRUE,TRUE,,,,,,,CLR,,,,,,,,VFR,,,,,,,,,,,,METAR,273.0
K81R 300355Z AUTO 10003KT 10SM CLR 20/18 A2996 RMK AO2 T01960181,K81R,2023-05-30T03:55:00Z,31.23,-98.72,19.6,18.1,100,3,,10.0,29.958662,,,TRUE,TRUE,,,,,,,CLR,,,,,,,,VFR,,,,,,,,,,,,METAR,381.0
K7W4 300355Z AUTO 3SM OVC004 19/18 A3004 RMK AO1 T01850182,K7W4,2023-05-30T03:55:00Z,37.97,-77.75,18.5,18.2,,,,3.0,30.041338,,,TRUE,TRUE,,,,,,,OVC,400,,,,,,,LIFR,,,,,,,,,,,,METAR,115.0
K7L2 300355Z AUTO 00000KT 10SM FEW080 FEW095 15/15 A2978 RMK AO2,K7L2,2023-05-30T03:55:00Z,46.22,-100.25,15.0,15.0,0,0,,10.0,29.778543,,,TRUE,TRUE,,,,,,,FEW,8000,FEW,9500,,,,,VFR,,,,,,,,,,,,METAR,541.0
K7BM 300355Z AUTO 33005KT 10SM CLR 12/M10 A3029 RMK AO2,K7BM,2023-05-30T03:55:00Z,38.78,-106.22,12.0,-10.0,330,5,,10.0,30.28937,,,TRUE,TRUE,,,,,,,CLR,,,,,,,,VFR,,,,,,,,,,,,METAR,2996.0
K77S 300355Z AUTO 34010KT 10SM CLR 20/09 A2987 RMK A01,K77S,2023-05-30T03:55:00Z,43.93,-123.0,20.0,9.0,340,10,,10.0,29.870079,,,TRUE,TRUE,,,,,,,CLR,,,,,,,,VFR,,,,,,,,,,,,METAR,161.0
K6S8 300355Z AUTO 34011KT 10SM 19/07 A2987 RMK A01 LAUREL,K6S8,2023-05-30T03:55:00Z,45.7,-108.77,19.0,7.0,340,11,,10.0,29.870079,,,TRUE,TRUE,,,,,,,,,,,,,,,,,,,,,,,,,,,METAR,1072.0
K6S2 300355Z AUTO 34014G24KT 10SM CLR 12/10 A2996 RMK AO2,K6S2,2023-05-30T03:55:00Z,43.98,-124.12,12.0,10.0,340,14,24,10.0,29.958662,,,TRUE,TRUE,,,,,,,CLR,,,,,,,,VFR,,,,,,,,,,,,METAR,16.0
K6S0 300355Z AUTO 26010KT 10SM CLR 16/05 A2991 RMK A01,K6S0,2023-05-30T03:55:00Z,45.8,-109.97,16.0,5.0,260,10,,10.0,29.911417,,,TRUE,TRUE,,,,,,,CLR,,,,,,,,VFR,,,,,,,,,,,,METAR,1364.0
K6R3 300355Z AUTO 00000KT 10SM -RA SCT040 BKN047 OVC065 21/20 A2996 RMK AO2 P0022 T02110200,K6R3,2023-05-30T03:55:00Z,30.35,-95.0,21.1,20.0,0,0,,10.0,29.958662,,,TRUE,TRUE,,,,,,-RA,SCT,4000,BKN,4700,OVC,6500,,,VFR,,,,,,0.22,,,,,,METAR,44.0
K6P9 300355Z AUTO 18003KT 10SM CLR 20/18 A2995 RMK AO2 T02000176,K6P9,2023-05-30T03:55:00Z,32.43,-98.6,20.0,17.6,180,3,,10.0,29.949802,,,TRUE,TRUE,,,,,,,CLR,,,,,,,,VFR,,,,,,,,,,,,METAR,451.0
K6L4 300355Z AUTO 00000KT M1/4SM FG BKN001 OVC049 16/17 A3003 RMK AO2,K6L4,2023-05-30T03:55:00Z,37.85,-81.92,16.0,17.0,0,0,,0.25,30.029528,,,TRUE,TRUE,,,,,,FG,BKN,100,OVC,4900,,,,,LIFR,,,,,,,,,,,,METAR,504.0
K6I2 300355Z AUTO 00000KT 10SM FEW110 20/16 A2999 RMK AO2,K6I2,2023-05-30T03:55:00Z,37.63,-85.25,20.0,16.0,0,0,,10.0,29.991142,,,TRUE,TRUE,,,,,,,FEW,11000,,,,,,,VFR,,,,,,,,,,,,METAR,258.0
K6B9 300355Z AUTO 12003KT 10SM CLR 16/12 A3007 RMK AO2,K6B9,2023-05-30T03:55:00Z,42.92,-76.43,16.0,12.0,120,3,,10.0,30.070866,,,TRUE,TRUE,,,,,,,CLR,,,,,,,,VFR,,,,,,,,,,,,METAR,306.0
K6B0 300355Z AUTO 14006KT 10SM CLR 17/07 A3014 RMK AO2 LTG DSNT S T01700065,K6B0,2023-05-30T03:55:00Z,43.98,-73.1,17.0,6.5,140,6,,10.0,30.138779,,,TRUE,TRUE,,,,,,,CLR,,,,,,,,VFR,,,,,,,,,,,,METAR,149.0
K6A2 300355Z AUTO 33004KT 10SM CLR 16/15 A2995 RMK AO2,K6A2,2023-05-30T03:55:00Z,33.23,-84.27,16.0,15.0,330,4,,10.0,29.949802,,,TRUE,TRUE,,,,,,,CLR,,,,,,,,VFR,,,,,,,,,,,,METAR,290.0
K6A1 300355Z AUTO 32003KT 10SM CLR 18/14 A2995 RMK AO2 T01800137,K6A1,2023-05-30T03:55:00Z,32.57,-84.25,18.0,13.7,320,3,,10.0,29.949802,,,TRUE,TRUE,,,,,,,CLR,,,,,,,,VFR,,,,,,,,,,,,METAR,198.0
K66R 300355Z AUTO 00000KT 10SM CLR 23/22 A2994 RMK AO2 T02250215,K66R,2023-05-30T03:55:00Z,29.65,-96.52,22.5,21.5,0,0,,10.0,29.940945,,,TRUE,TRUE,,,,,,,CLR,,,,,,,,VFR,,,,,,,,,,,,METAR,70.0
K65S 300355Z AUTO 00000KT 10SM CLR 20/06 A2976 RMK AO2 LTG DSNT N AND NW,K65S,2023-05-30T03:55:00Z,48.73,-116.3,20.0,6.0,0,0,,10.0,29.760826,,,TRUE,TRUE,,,,,,,CLR,,,,,,,,VFR,,,,,,,,,,,,METAR,708.0
K63S 300355Z AUTO 00000KT 10SM CLR 17/11 A2974 RMK A01,K63S,2023-05-30T03:55:00Z,48.53,-117.88,17.0,11.0,0,0,,10.0,29.740158,,,TRUE,TRUE,,,,,,,CLR,,,,,,,,VFR,,,,,,,,,,,,METAR,571.0
K5T9 300355Z AUTO 14006KT 10SM CLR 22/20 A2988 RMK A01,K5T9,2023-05-30T03:55:00Z,28.85,-100.52,22.0,20.0,140,6,,10.0,29.878937,,,TRUE,TRUE,,,,,,,CLR,,,,,,,,VFR,,,,,,,,,,,,METAR,269.0
K5SM 300355Z AUTO 23009G15KT 10SM CLR 06/M06 A3037 RMK AO2,K5SM,2023-05-30T03:55:00Z,39.43,-107.38,6.0,-6.0,230,9,15,10.0,30.369095,,,TRUE,TRUE,,,,,,,CLR,,,,,,,,VFR,,,,,,,,,,,,METAR,3229.0
K5R8 300355Z AUTO 00000KT 10SM CLR 22/20 A2994 RMK AO2 T02200198,K5R8,2023-05-30T03:55:00Z,30.43,-93.47,22.0,19.8,0,0,,10.0,29.940945,,,TRUE,TRUE,,,,,,,CLR,,,,,,,,VFR,,,,,,,,,,,,METAR,26.0
K5H4 300355Z AUTO 24005KT 10SM CLR 17/04 A2974 RMK AO2,K5H4,2023-05-30T03:55:00Z,47.78,-99.93,17.0,4.0,240,5,,10.0,29.740158,,,TRUE,TRUE,,,,,,,CLR,,,,,,,,VFR,,,,,,,,,,,,METAR,490.0
K5C1 300355Z AUTO 00000KT 10SM CLR 16/16 A2996 RMK AO1,K5C1,2023-05-30T03:55:00Z,29.72,-98.7,16.0,16.0,0,0,,10.0,29.958662,,,TRUE,TRUE,,,,,,,CLR,,,,,,,,VFR,,,,,,,,,,,,METAR,422.0
K5A6 300355Z AUTO 00000KT 10SM 17/15 A2995 RMK AO2 T01660149,K5A6,2023-05-30T03:55:00Z,33.47,-89.73,16.6,14.9,0,0,,10.0,29.949802,,,TRUE,TRUE,,,,,,,,,,,,,,,,,,,,,,,,,,,METAR,109.0
K57C 300355Z AUTO 00000KT CLR 15/08 A3000 RMK AO2 T01530079 PWINO,K57C,2023-05-30T03:55:00Z,42.8,-88.37,15.3,7.9,0,0,,,30.0,,,TRUE,TRUE,,,,,TRUE,,CLR,,,,,,,,,,,,,,,,,,,,METAR,454.0
K54J 300355Z AUTO 35004KT 10SM CLR 20/14 A2994 RMK AO2 T02020140,K54J,2023-05-30T03:55:00Z,30.73,-86.15,20.2,14.0,350,4,,10.0,29.940945,,,TRUE,TRUE,,,,,,,CLR,,,,,,,,VFR,,,,,,,,,,,,METAR,87.0
K54A 300355Z AUTO 04005KT 10SM CLR 23/18 A2992 RMK AO2,K54A,2023-05-30T03:55:00Z,26.85,-82.25,23.0,18.0,40,5,,10.0,29.920275,,,TRUE,TRUE,,,,,,,CLR,,,,,,,,VFR,,,,,,,,,,,,METAR,2.0
K4V1 300355Z AUTO 21004KT 10SM CLR 17/00 A3003 RMK AO2 T01741001,K4V1,2023-05-30T03:55:00Z,37.7,-104.78,17.4,-0.1,210,4,,10.0,30.029528,,,TRUE,TRUE,,,,,,,CLR,,,,,,,,VFR,,,,,,,,,,,,METAR,1847.0
K4V0 300355Z AUTO 00000KT 10SM CLR 15/01 A2996 RMK AO2 T01480014,K4V0,2023-05-30T03:55:00Z,40.1,-108.77,14.8,1.4,0,0,,10.0,29.958662,,,TRUE,TRUE,,,,,,,CLR,,,,,,,,VFR,,,,,,,,,,,,METAR,1602.0
K4U6 300355Z AUTO 22006KT 10SM 17/15 A2977 RMK A01 Circle ,K4U6,2023-05-30T03:55:00Z,47.42,-105.57,17.0,15.0,220,6,,10.0,29.769686,,,TRUE,TRUE,,,,,,,,,,,,,,,,,,,,,,,,,,,METAR,739.0
K4S2 300355Z AUTO 00000KT 10SM CLR 20/04 A2984 RMK AO2,K4S2,2023-05-30T03:55:00Z,45.68,-121.55,20.0,4.0,0,0,,10.0,29.840551,,,TRUE,TRUE,,,,,,,CLR,,,,,,,,VFR,,,,,,,,,,,,METAR,183.0
K4S1 300355Z AUTO 20009KT 5SM BR CLR 10/10 A2997 RMK AO2,K4S1,2023-05-30T03:55:00Z,42.42,-124.42,10.0,10.0,200,9,,5.0,29.970472,,,TRUE,TRUE,,,,,,BR,CLR,,,,,,,,MVFR,,,,,,,,,,,,METAR,7.0
K4R5 300355Z AUTO 00000KT 10SM SCT110 08/06 A2992 RMK AO2 T00800055,K4R5,2023-05-30T03:55:00Z,46.78,-90.77,8.0,5.5,0,0,,10.0,29.920275,,,TRUE,TRUE,,,,,,,SCT,11000,,,,,,,VFR,,,,,,,,,,,,METAR,195.0
K4O4 300355Z AUTO 19004KT 7SM BKN055 OVC065 23/21 A2994 RMK AO2,K4O4,2023-05-30T03:55:00Z,33.92,-94.87,23.0,21.0,190,4,,7.0,29.940945,,,TRUE,TRUE,,,,,,,BKN,5500,OVC,6500,,,,,VFR,,,,,,,,,,,,METAR,148.0
K4MR 300355Z AUTO 13010KT 10SM CLR 20/11 A2994 RMK AO2 SLP064 T01950113 $,K4MR,2023-05-30T03:55:00Z,34.3,-103.8,19.5,11.3,130,10,,10.0,29.940945,1006.4,,TRUE,TRUE,TRUE,,,,,,CLR,,,,,,,,VFR,,,,,,,,,,,,METAR,1339.0
K4M9 300355Z AUTO 00000KT 10SM CLR 22/16 A2995 RMK AO2 PWINO,K4M9,2023-05-30T03:55:00Z,36.4,-90.65,22.0,16.0,0,0,,10.0,29.949802,,,TRUE,TRUE,,,,,TRUE,,CLR,,,,,,,,VFR,,,,,,,,,,,,METAR,86.0
K4I3 300355Z AUTO 01004KT 10SM CLR 21/11 A3003 RMK AO2,K4I3,2023-05-30T03:55:00Z,40.33,-82.53,21.0,11.0,10,4,,10.0,30.029528,,,TRUE,TRUE,,,,,,,CLR,,,,,,,,VFR,,,,,,,,,,,,METAR,361.0
K4F2 300355Z AUTO 00000KT 3 1/2SM BR CLR 20/20 A2994 RMK AO2 T02040200,K4F2,2023-05-30T03:55:00Z,32.18,-94.3,20.4,20.0,0,0,,3.5,29.940945,,,TRUE,TRUE,,,,,,BR,CLR,,,,,,,,MVFR,,,,,,,,,,,,METAR,76.0
K4BM 300355Z AUTO 21006KT 10SM CLR 08/M08 A3039 RMK AO2,K4BM,2023-05-30T03:55:00Z,39.05,-105.52,8.0,-8.0,210,6,,10.0,30.389763,,,TRUE,TRUE,,,,,,,CLR,,,,,,,,VFR,,,,,,,,,,,,METAR,3432.0
K4A9 300355Z AUTO 00000KT 10SM CLR 13/13 A2996 RMK AO2 T01330130,K4A9,2023-05-30T03:55:00Z,34.47,-85.72,13.3,13.0,0,0,,10.0,29.958662,,,TRUE,TRUE,,,,,,,CLR,,,,,,,,VFR,,,,,,,,,,,,METAR,273.0
K4A6 300355Z AUTO 00000KT 10SM FEW039 15/15 A2997 RMK AO2,K4A6,2023-05-30T03:55:00Z,34.68,-86.0,15.0,15.0,0,0,,10.0,29.970472,,,TRUE,TRUE,,,,,,,FEW,3900,,,,,,,VFR,,,,,,,,,,,,METAR,191.0
K49A 300355Z AUTO 04007G12KT 010V070 10SM CLR 17/14 A2997 RMK AO2,K49A,2023-05-30T03:55:00Z,34.63,-84.53,17.0,14.0,40,7,12,10.0,29.970472,,,TRUE,TRUE,,,,,,,CLR,,,,,,,,VFR,,,,,,,,,,,,METAR,449.0
K48A 300355Z AUTO 00000KT 10SM CLR 17/15 A2993 RMK AO2 T01680149,K48A,2023-05-30T03:55:00Z,32.4,-83.27,16.8,14.9,0,0,,10.0,29.929134,,,TRUE,TRUE,,,,,,,CLR,,,,,,,,VFR,,,,,,,,,,,,METAR,115.0
K46U 300355Z AUTO 12007KT 10SM SCT120 12/06 A3007 RMK A01,K46U,2023-05-30T03:55:00Z,43.18,-111.05,12.0,6.0,120,7,,10.0,30.070866,,,TRUE,TRUE,,,,,,,SCT,12000,,,,,,,VFR,,,,,,,,,,,,METAR,1718.0
K46D 300355Z AUTO 14005KT 10SM CLR 17/16 A2974 RMK AO2 LTG DSNT E,K46D,2023-05-30T03:55:00Z,47.45,-99.15,17.0,16.0,140,5,,10.0,29.740158,,,TRUE,TRUE,,,,,,,CLR,,,,,,,,VFR,,,,,,,,,,,,METAR,488.0
K42J 300355Z AUTO 22004KT 10SM CLR 20/20 A2991 RMK A01,K42J,2023-05-30T03:55:00Z,29.85,-82.05,20.0,20.0,220,4,,10.0,29.911417,,,TRUE,TRUE,,,,,,,CLR,,,,,,,,VFR,,,,,,,,,,,,METAR,57.0
K41U 300355Z AUTO 17006KT 10SM CLR 16/00 A2999 RMK AO1 T01621001,K41U,2023-05-30T03:55:00Z,39.33,-111.6,16.2,-0.1,170,6,,10.0,29.991142,,,TRUE,TRUE,,,,,,,CLR,,,,,,,,VFR,,,,,,,,,,,,METAR,1676.0
K40U 300355Z AUTO 00000KT 10SM SCT120 10/08 A3007 RMK AO2 LTG DSNT NE T00980079,K40U,2023-05-30T03:55:00Z,40.98,-109.68,9.8,7.9,0,0,,10.0,30.070866,,,TRUE,TRUE,,,,,,,SCT,12000,,,,,,,VFR,,,,,,,,,,,,METAR,1882.0
K3T5 300355Z AUTO 00000KT 10SM FEW120 22/22 A2991 RMK AO2 T02240217 $,K3T5,2023-05-30T03:55:00Z,29.9,-96.95,22.4,21.7,0,0,,10.0,29.911417,,,TRUE,TRUE,TRUE,,,,,,FEW,12000,,,,,,,VFR,,,,,,,,,,,,METAR,96.0
K3S8 300355Z AUTO 32007KT 10SM CLR 24/09 A2988 RMK AO2,K3S8,2023-05-30T03:55:00Z,42.5,-123.4,24.0,9.0,320,7,,10.0,29.878937,,,TRUE,TRUE,,,,,,,CLR,,,,,,,,VFR,,,,,,,,,,,,METAR,339.0
K3R7 300355Z AUTO 00000KT 10SM CLR 24/20 A2993 RMK AO2 T02410197,K3R7,2023-05-30T03:55:00Z,30.25,-92.67,24.1,19.7,0,0,,10.0,29.929134,,,TRUE,TRUE,,,,,,,CLR,,,,,,,,VFR,,,,,,,,,,,,METAR,5.0
K3N8 300355Z AUTO 15007KT 10SM CLR 20/14 A2976 RMK AO2 LTG DSNT SW THRU NW T02000136,K3N8,2023-05-30T03:55:00Z,47.25,-95.92,20.0,13.6,150,7,,10.0,29.760826,,,TRUE,TRUE,,,,,,,CLR,,,,,,,,VFR,,,,,,,,,,,,METAR,379.0
K3LF 300355Z AUTO 00000KT 10SM CLR 21/10 A2998 RMK AO2 T02110096,K3LF,2023-05-30T03:55:00Z,39.17,-89.67,21.1,9.6,0,0,,10.0,29.97933,,,TRUE,TRUE,,,,,,,CLR,,,,,,,,VFR,,,,,,,,,,,,METAR,207.0
K3L4 300355Z AUTO 00000KT 9SM CLR 24/22 A2992 RMK A01,K3L4,2023-05-30T03:55:00Z,29.8,-92.8,24.0,22.0,0,0,,9.0,29.920275,,,TRUE,TRUE,,,,,,,CLR,,,,,,,,VFR,,,,,,,,,,,,METAR,1.0
K3K3 300355Z AUTO 13007KT 10SM 18/13 A2994 RMK AO2,K3K3,2023-05-30T03:55:00Z,38.0,-101.75,18.0,13.0,130,7,,10.0,29.940945,,,TRUE,TRUE,,,,,,,,,,,,,,,,,,,,,,,,,,,METAR,1010.0
K3F3 300355Z AUTO 14009KT 10SM CLR 21/20 A2997 RMK AO2 T02110198,K3F3,2023-05-30T03:55:00Z,32.07,-93.77,21.1,19.8,140,9,,10.0,29.970472,,,TRUE,TRUE,,,,,,,CLR,,,,,,,,VFR,,,,,,,,,,,,METAR,96.0
K3D2 300355Z AUTO 16005KT 10SM CLR 17/04 A3000 RMK AO2 T01650038,K3D2,2023-05-30T03:55:00Z,45.13,-87.18,16.5,3.8,160,5,,10.0,30.0,,,TRUE,TRUE,,,,,,,CLR,,,,,,,,VFR,,,,,,,,,,,,METAR,233.0
K3AU 300355Z AUTO 14004KT 10SM CLR 19/17 A2994 RMK AO2,K3AU,2023-05-30T03:55:00Z,37.67,-97.08,19.0,17.0,140,4,,10.0,29.940945,,,TRUE,TRUE,,,,,,,CLR,,,,,,,,VFR,,,,,,,,,,,,METAR,403.0
K35A 300355Z AUTO 04003KT 10SM SCT065 18/17 A2999 RMK A02 T01800170,K35A,2023-05-30T03:55:00Z,34.68,-81.63,18.0,17.0,40,3,,10.0,29.991142,,,TRUE,TRUE,,,,,,,SCT,6500,,,,,,,VFR,,,,,,,,,,,,METAR,186.0
K33V 300355Z AUTO 36008KT 10SM CLR 12/00 A3019 RMK AO1,K33V,2023-05-30T03:55:00Z,40.75,-106.28,12.0,0.0,360,8,,10.0,30.188976,,,TRUE,TRUE,,,,,,,CLR,,,,,,,,VFR,,,,,,,,,,,,METAR,2486.0
K33N 300355Z AUTO 09006KT 10SM FEW060 OVC120 16/12 A3010 RMK A01,K33N,2023-05-30T03:55:00Z,39.22,-75.6,16.0,12.0,90,6,,10.0,30.100393,,,TRUE,TRUE,,,,,,,FEW,6000,OVC,12000,,,,,VFR,,,,,,,,,,,,METAR,17.0
K2V5 300355Z AUTO 08012KT 4SM -VCTSRA SCT022 SCT060 OVC100 16/11 A2998 RMK AO2 LTG DSNT ALQS P0006,K2V5,2023-05-30T03:55:00Z,40.1,-102.25,16.0,11.0,80,12,,4.0,29.97933,,,TRUE,TRUE,,,,,,VCTS -RA,SCT,2200,SCT,6000,OVC,10000,,,MVFR,,,,,,0.06,,,,,,METAR,1117.0
K2R9 300355Z AUTO 05011KT 10SM -RA SCT070 BKN100 20/19 A2993 RMK AO2 P0009 T02020192,K2R9,2023-05-30T03:55:00Z,28.82,-97.87,20.2,19.2,50,11,,10.0,29.929134,,,TRUE,TRUE,,,,,,-RA,SCT,7000,BKN,10000,,,,,VFR,,,,,,0.09,,,,,,METAR,88.0
K2P2 300355Z AUTO 00000KT 10SM BKN110 10/06 A3000 RMK AO2 T01040059,K2P2,2023-05-30T03:55:00Z,45.38,-86.92,10.4,5.9,0,0,,10.0,30.0,,,TRUE,TRUE,,,,,,,BKN,11000,,,,,,,VFR,,,,,,,,,,,,METAR,182.0
K2M2 300355Z AUTO 00000KT 10SM BKN045 16/15 A2997 RMK A01,K2M2,2023-05-30T03:55:00Z,35.23,-87.25,16.0,15.0,0,0,,10.0,29.970472,,,TRUE,TRUE,,,,,,,BKN,4500,,,,,,,VFR,,,,,,,,,,,,METAR,286.0
K2J9 300355Z AUTO 00000KT 7SM FEW050 20/19 A2993 RMK AO2,K2J9,2023-05-30T03:55:00Z,30.6,-84.55,20.0,19.0,0,0,,7.0,29.929134,,,TRUE,TRUE,,,,,,,FEW,5000,,,,,,,VFR,,,,,,,,,,,,METAR,62.0
K2J5 300355Z AUTO 10SM CLR 17/16 A2993 RMK AO2 T01720157,K2J5,2023-05-30T03:55:00Z,32.9,-81.97,17.2,15.7,,,,10.0,29.929134,,,TRUE,TRUE,,,,,,,CLR,,,,,,,,VFR,,,,,,,,,,,,METAR,72.0
K2I0 300355Z AUTO 00000KT 10SM BKN085 23/14 A2995 RMK AO2 T02290141,K2I0,2023-05-30T03:55:00Z,37.35,-87.4,22.9,14.1,0,0,,10.0,29.949802,,,TRUE,TRUE,,,,,,,BKN,8500,,,,,,,VFR,,,,,,,,,,,,METAR,127.0
K2G9 300355Z AUTO 19008KT 10SM SCT085 16/10 A3011 RMK AO2,K2G9,2023-05-30T03:55:00Z,40.03,-79.02,16.0,10.0,190,8,,10.0,30.109253,,,TRUE,TRUE,,,,,,,SCT,8500,,,,,,,VFR,,,,,,,,,,,,METAR,677.0
K2G2 300355Z AUTO 14005KT 10SM 21/11 A3002 RMK A01,K2G2,2023-05-30T03:55:00Z,40.37,-80.7,21.0,11.0,140,5,,10.0,30.02067,,,TRUE,TRUE,,,,,,,,,,,,,,,,,,,,,,,,,,,METAR,365.0
K2DP 300355Z AUTO 01006KT 10SM FEW180 M A2990 RMK AO2 LTG DSNT NE-SE SLPNO ALSTG ESTMD $,K2DP,2023-05-30T03:55:00Z,35.68,-75.9,,,10,6,,10.0,29.899607,,,TRUE,TRUE,TRUE,,,,,,FEW,18000,,,,,,,VFR,,,,,,,,,,,,METAR,1.0
K2D5 300355Z AUTO 34011KT 9SM SCT048 BKN055 19/13 A2976 RMK AO2,K2D5,2023-05-30T03:55:00Z,46.17,-98.08,19.0,13.0,340,11,,9.0,29.760826,,,TRUE,TRUE,,,,,,,SCT,4800,BKN,5500,,,,,VFR,,,,,,,,,,,,METAR,407.0
K2C8 300355Z AUTO 24010G17KT 10SM BKN055 BKN065 OVC090 22/16 A2971 RMK AO2 LTG DSNT SE AND S,K2C8,2023-05-30T03:55:00Z,48.78,-97.63,22.0,16.0,240,10,17,10.0,29.71063,,,TRUE,TRUE,,,,,,,BKN,5500,BKN,6500,OVC,9000,,,VFR,,,,,,,,,,,,METAR,271.0
K2A0 300355Z AUTO 00000KT 10SM BKN039 OVC049 18/17 A2997 RMK A01,K2A0,2023-05-30T03:55:00Z,35.48,-84.93,18.0,17.0,0,0,,10.0,29.970472,,,TRUE,TRUE,,,,,,,BKN,3900,OVC,4900,,,,,VFR,,,,,,,,,,,,METAR,219.0
K28J 300355Z AUTO 20004KT 10SM OVC060 20/16 A2992 RMK AO2,K28J,2023-05-30T03:55:00Z,29.65,-81.68,20.0,16.0,200,4,,10.0,29.920275,,,TRUE,TRUE,,,,,,,OVC,6000,,,,,,,VFR,,,,,,,,,,,,METAR,9.0
K22N 300355Z AUTO 05003KT 10SM CLR 15/04 A3018 RMK AO2 LTG DSNT SE AND SW,K22N,2023-05-30T03:55:00Z,40.8,-75.77,15.0,4.0,50,3,,10.0,30.180119,,,TRUE,TRUE,,,,,,,CLR,,,,,,,,VFR,,,,,,,,,,,,METAR,159.0
K21D 300355Z AUTO 14006KT 10SM CLR 21/07 A2988 RMK AO2,K21D,2023-05-30T03:55:00Z,45.0,-92.85,21.0,7.0,140,6,,10.0,29.878937,,,TRUE,TRUE,,,,,,,CLR,,,,,,,,VFR,,,,,,,,,,,,METAR,281.0
K20V 300355Z AUTO 00000KT 10SM CLR 10/02 A3015 RMK AO2,K20V,2023-05-30T03:55:00Z,40.05,-106.37,10.0,2.0,0,0,,10.0,30.15059,,,TRUE,TRUE,,,,,,,CLR,,,,,,,,VFR,,,,,,,,,,,,METAR,2259.0
K20U 300355Z AUTO 17003KT 10SM CLR 14/14 A2981 RMK AO2,K20U,2023-05-30T03:55:00Z,46.93,-103.98,14.0,14.0,170,3,,10.0,29.811024,,,TRUE,TRUE,,,,,,,CLR,,,,,,,,VFR,,,,,,,,,,,,METAR,839.0
K1YT 300355Z AUTO 01006KT 10SM CLR 22/02 A2975 RMK AO2 SLP070 T02200016 $,K1YT,2023-05-30T03:55:00Z,46.67,-120.45,22.0,1.6,10,6,,10.0,29.749016,1007.0,,TRUE,TRUE,TRUE,,,,,,CLR,,,,,,,,VFR,,,,,,,,,,,,METAR,423.0
K1V6 300355Z AUTO 00000KT 10SM CLR 18/03 A3002 RMK AO2,K1V6,2023-05-30T03:55:00Z,38.43,-105.1,18.0,3.0,0,0,,10.0,30.02067,,,TRUE,TRUE,,,,,,,CLR,,,,,,,,VFR,,,,,,,,,,,,METAR,1658.0
K1U7 300355Z AUTO 02006G11KT 10SM CLR 11/07 A3004 RMK A01,K1U7,2023-05-30T03:55:00Z,42.25,-111.33,11.0,7.0,20,6,11,10.0,30.041338,,,TRUE,TRUE,,,,,,,CLR,,,,,,,,VFR,,,,,,,,,,,,METAR,1808.0
K1S5 300355Z AUTO 34005KT 10SM CLR 24/05 A2972 RMK AO2 T02420051,K1S5,2023-05-30T03:55:00Z,46.33,-119.97,24.2,5.1,340,5,,10.0,29.719488,,,TRUE,TRUE,,,,,,,CLR,,,,,,,,VFR,,,,,,,,,,,,METAR,228.0
K1R8 300355Z AUTO 00000KT 10SM SCT055 18/17 A2993 RMK AO2,K1R8,2023-05-30T03:55:00Z,30.87,-87.82,18.0,17.0,0,0,,10.0,29.929134,,,TRUE,TRUE,,,,,,,SCT,5500,,,,,,,VFR,,,,,,,,,,,,METAR,76.0
K1R7 300355Z AUTO 00000KT 10SM CLR 19/19 A2997 RMK AO2 PWINO,K1R7,2023-05-30T03:55:00Z,31.6,-90.42,19.0,19.0,0,0,,10.0,29.970472,,,TRUE,TRUE,,,,,TRUE,,CLR,,,,,,,,VFR,,,,,,,,,,,,METAR,142.0
K1OW 300355Z AUTO 14008KT 10SM CLR 14/09 A3013 RMK AO2 SLP152 T01430089 $,K1OW,2023-05-30T03:55:00Z,40.88,-104.0,14.3,8.9,140,8,,10.0,30.129921,1015.2,,TRUE,TRUE,TRUE,,,,,,CLR,,,,,,,,VFR,,,,,,,,,,,,METAR,1650.0
K1ON 300355Z AUTO 26006KT 10SM OVC110 16/14 A2969 RMK AO2 SLP058 T01630138 $,K1ON,2023-05-30T03:55:00Z,,,16.3,13.8,260,6,,10.0,29.68996,1005.8,,TRUE,TRUE,TRUE,,,,,,OVC,11000,,,,,,,VFR,,,,,,,,,,,,METAR,
K1OM 300355Z AUTO 00000KT 10SM SCT100 BKN130 18/10 A2981 RMK AO2 SLP076 P0001 T01750099 $,K1OM,2023-05-30T03:55:00Z,47.33,-108.93,17.5,9.9,0,0,,10.0,29.811024,1007.6,,TRUE,TRUE,TRUE,,,,,,SCT,10000,BKN,13000,,,,,VFR,,,,,,0.01,,,,,,METAR,1088.0
K1NW 300355Z AUTO 11007KT 10SM M 16/09 A2997 RMK AO2 LTG DSNT E PRESRR SLP096 T01590086 $,K1NW,2023-05-30T03:55:00Z,40.63,-103.83,15.9,8.6,110,7,,10.0,29.970472,1009.6,,TRUE,TRUE,TRUE,,,,,,,,,,,,,,,,,,,,,,,,,,METAR,1461.0
K1NN 300355Z AUTO 25006KT 10SM BKN130 M A2971 RMK AO2 SLPNO ALSTG ESTMD $,K1NN,2023-05-30T03:55:00Z,,,,,250,6,,10.0,29.71063,,,TRUE,TRUE,TRUE,,,,,,BKN,13000,,,,,,,VFR,,,,,,,,,,,,METAR,
K1MW 300355Z AUTO 10004KT 10SM FEW140 BKN200 BKN230 16/10 A2995 RMK AO2 LTG DSNT E SLP099 T01590104 $,K1MW,2023-05-30T03:55:00Z,40.7,-103.48,15.9,10.4,100,4,,10.0,29.949802,1009.9,,TRUE,TRUE,TRUE,,,,,,FEW,14000,BKN,20000,BKN,23000,,,VFR,,,,,,,,,,,,METAR,1338.0
K1MN 300355Z AUTO 24005KT 10SM FEW100 BKN120 BKN140 17/15 A2970 RMK AO2 SLP057 T01650154 $,K1MN,2023-05-30T03:55:00Z,,,16.5,15.4,240,5,,10.0,29.698818,1005.7,,TRUE,TRUE,TRUE,,,,,,FEW,10000,BKN,12000,BKN,14000,,,VFR,,,,,,,,,,,,METAR,
K1MM 300355Z AUTO 13004KT 10SM FEW140 12/09 A2985 RMK AO2 SLP096 T01240085 $,K1MM,2023-05-30T03:55:00Z,47.02,-109.63,12.4,8.5,130,4,,10.0,29.84941,1009.6,,TRUE,TRUE,TRUE,,,,,,FEW,14000,,,,,,,VFR,,,,,,,,,,,,METAR,1256.0
K1M5 300355Z AUTO 00000KT 10SM CLR 18/17 A2995 RMK A01,K1M5,2023-05-30T03:55:00Z,36.6,-86.48,18.0,17.0,0,0,,10.0,29.949802,,,TRUE,TRUE,,,,,,,CLR,,,,,,,,VFR,,,,,,,,,,,,METAR,239.0
K1LN 300355Z AUTO 23008KT 10SM CLR 15/15 A2972 RMK AO2 SLP062 T01510148 $,K1LN,2023-05-30T03:55:00Z,,,15.1,14.8,230,8,,10.0,29.719488,1006.2,,TRUE,TRUE,TRUE,,,,,,CLR,,,,,,,,VFR,,,,,,,,,,,,METAR,
K1KN 300355Z AUTO 22007KT 10SM OVC110 16/14 A2973 RMK AO2 SLP065 T01570144 $,K1KN,2023-05-30T03:55:00Z,,,15.7,14.4,220,7,,10.0,29.731298,1006.5,,TRUE,TRUE,TRUE,,,,,,OVC,11000,,,,,,,VFR,,,,,,,,,,,,METAR,
K1JW 300355Z AUTO 13008KT 10SM OVC180 15/10 M RMK AO2 LTG DSNT E-SE SLPNO T01520102 $,K1JW,2023-05-30T03:55:00Z,40.97,-103.2,15.2,10.2,130,8,,10.0,,,,TRUE,TRUE,TRUE,,,,,,OVC,18000,,,,,,,VFR,,,,,,,,,,,,METAR,1382.0
K1JN 300355Z AUTO 24010KT 10SM BKN140 15/15 A2972 RMK AO2 SLP064 T01520152 $,K1JN,2023-05-30T03:55:00Z,,,15.2,15.2,240,10,,10.0,29.719488,1006.4,,TRUE,TRUE,TRUE,,,,,,BKN,14000,,,,,,,VFR,,,,,,,,,,,,METAR,
K1JM 300355Z AUTO 00000KT 10SM OVC110 14/10 A2982 RMK AO2 SLP087 T01410099 $,K1JM,2023-05-30T03:55:00Z,47.75,-111.55,14.1,9.9,0,0,,10.0,29.819881,1008.7,,TRUE,TRUE,TRUE,,,,,,OVC,11000,,,,,,,VFR,,,,,,,,,,,,METAR,1154.0
K1IW 300355Z AUTO 16008KT 10SM BKN190 15/11 A2994 RMK AO2 LTG DSNT N AND SE SLP101 T01510111 $,K1IW,2023-05-30T03:55:00Z,41.05,-102.87,15.1,11.1,160,8,,10.0,29.940945,1010.1,,TRUE,TRUE,TRUE,,,,,,BKN,19000,,,,,,,VFR,,,,,,,,,,,,METAR,1294.0
K1IN 300355Z AUTO 22003KT 10SM SCT120 BKN200 16/14 A2972 RMK AO2 SLP063 T01570137 $,K1IN,2023-05-30T03:55:00Z,,,15.7,13.7,220,3,,10.0,29.719488,1006.3,,TRUE,TRUE,TRUE,,,,,,SCT,12000,BKN,20000,,,,,VFR,,,,,,,,,,,,METAR,
K1IM 300355Z AUTO 02007KT 10SM M 17/08 A2980 RMK AO2 SLP076 T01730076 $,K1IM,2023-05-30T03:55:00Z,47.32,-111.47,17.3,7.6,20,7,,10.0,29.799213,1007.6,,TRUE,TRUE,TRUE,,,,,,,,,,,,,,,,,,,,,,,,,,METAR,1110.0
K1HW 300355Z AUTO 23005KT 10SM -RA FEW032 FEW075 OVC095 15/12 A2993 RMK AO2 LTG DSNT E-SE RAB00E19RAB44 SLP097 P0000 T01530117 $,K1HW,2023-05-30T03:55:00Z,41.32,-102.83,15.3,11.7,230,5,,10.0,29.929134,1009.7,,TRUE,TRUE,TRUE,,,,,-RA,FEW,3200,FEW,7500,OVC,9500,,,VFR,,,,,,0.005,,,,,,METAR,1265.0
K1HM 300355Z AUTO 00000KT 10SM CLR 16/08 A2982 RMK AO2 SLP083 T01600077 $,K1HM,2023-05-30T03:55:00Z,47.7,-111.95,16.0,7.7,0,0,,10.0,29.819881,1008.3,,TRUE,TRUE,TRUE,,,,,,CLR,,,,,,,,VFR,,,,,,,,,,,,METAR,1181.0
K1H2 300355Z AUTO 00000KT 10SM OVC090 19/13 A2997 RMK AO2 T01910130,K1H2,2023-05-30T03:55:00Z,39.07,-88.53,19.1,13.0,0,0,,10.0,29.970472,,,TRUE,TRUE,,,,,,,OVC,9000,,,,,,,VFR,,,,,,,,,,,,METAR,174.0
K1GN 300355Z AUTO 24005KT 10SM BKN110 15/15 A2972 RMK AO2 SLP071 T01520149 $,K1GN,2023-05-30T03:55:00Z,,,15.2,14.9,240,5,,10.0,29.719488,1007.1,,TRUE,TRUE,TRUE,,,,,,BKN,11000,,,,,,,VFR,,,,,,,,,,,,METAR,
K1GM 300355Z AUTO 32010KT 10SM CLR 15/05 M RMK AO2 SLPNO T01460054 $,K1GM,2023-05-30T03:55:00Z,47.33,-112.1,14.6,5.4,320,10,,10.0,,,,TRUE,TRUE,TRUE,,,,,,CLR,,,,,,,,VFR,,,,,,,,,,,,METAR,1317.0
K1FW 300355Z AUTO 00000KT 10SM SCT100 SCT130 15/13 A2997 RMK AO2 SLP100 T01520129 $,K1FW,2023-05-30T03:55:00Z,41.37,-103.48,15.2,12.9,0,0,,10.0,29.970472,1010.0,,TRUE,TRUE,TRUE,,,,,,SCT,10000,SCT,13000,,,,,VFR,,,,,,,,,,,,METAR,1451.0
K1F0 300355Z AUTO 14006KT 10SM SCT120 20/19 A2993 RMK AO2 T02040187,K1F0,2023-05-30T03:55:00Z,34.15,-97.12,20.4,18.7,140,6,,10.0,29.929134,,,TRUE,TRUE,,,,,,,SCT,12000,,,,,,,VFR,,,,,,,,,,,,METAR,256.0
K1EW 300355Z AUTO 07003KT 10SM CLR 14/09 A2999 RMK AO2 SLP109 T01430087 $,K1EW,2023-05-30T03:55:00Z,41.12,-103.98,14.3,8.7,70,3,,10.0,29.991142,1010.9,,TRUE,TRUE,TRUE,,,,,,CLR,,,,,,,,VFR,,,,,,,,,,,,METAR,1609.0
K1EN 300355Z AUTO 21008KT 10SM CLR 17/13 A2953 RMK AO2 SLP003 T01650128 $,K1EN,2023-05-30T03:55:00Z,,,16.5,12.8,210,8,,10.0,29.530512,1000.3,,TRUE,TRUE,TRUE,,,,,,CLR,,,,,,,,VFR,,,,,,,,,,,,METAR,
K1EM 300355Z AUTO 16005KT 10SM OVC130 16/11 A2982 RMK AO2 LTG DSNT E SLP083 T01550109 $,K1EM,2023-05-30T03:55:00Z,47.45,-109.42,15.5,10.9,160,5,,10.0,29.819881,1008.3,,TRUE,TRUE,TRUE,,,,,,OVC,13000,,,,,,,VFR,,,,,,,,,,,,METAR,1118.0
K1DW 300355Z AUTO 08004KT 10SM SCT110 SCT130 15/10 A3000 RMK AO2 SLP111 T01510101 $,K1DW,2023-05-30T03:55:00Z,41.37,-103.8,15.1,10.1,80,4,,10.0,30.0,1011.1,,TRUE,TRUE,TRUE,,,,,,SCT,11000,SCT,13000,,,,,VFR,,,,,,,,,,,,METAR,1539.0
K1DM 300355Z AUTO 20006KT 10SM FEW120 16/11 A2983 RMK AO2 SLP086 T01580110 $,K1DM,2023-05-30T03:55:00Z,47.37,-109.8,15.8,11.0,200,6,,10.0,29.828741,1008.6,,TRUE,TRUE,TRUE,,,,,,FEW,12000,,,,,,,VFR,,,,,,,,,,,,METAR,1093.0
K1CW 300355Z AUTO 20006KT 10SM CLR 15/10 A2997 RMK AO2 SLP106 T01480098 $,K1CW,2023-05-30T03:55:00Z,41.58,-103.57,14.8,9.8,200,6,,10.0,29.970472,1010.6,,TRUE,TRUE,TRUE,,,,,,CLR,,,,,,,,VFR,,,,,,,,,,,,METAR,1370.0
K1CN 300355Z AUTO 19007KT 10SM CLR 15/13 A2973 RMK AO2 SLP067 T01480132 $,K1CN,2023-05-30T03:55:00Z,,,14.8,13.2,190,7,,10.0,29.731298,1006.7,,TRUE,TRUE,TRUE,,,,,,CLR,,,,,,,,VFR,,,,,,,,,,,,METAR,
K1CM 300355Z AUTO 00000KT 10SM CLR 13/10 A2987 RMK AO2 SLP100 T01340100 $,K1CM,2023-05-30T03:55:00Z,47.1,-110.17,13.4,10.0,0,0,,10.0,29.870079,1010.0,,TRUE,TRUE,TRUE,,,,,,CLR,,,,,,,,VFR,,,,,,,,,,,,METAR,1338.0
K1BW 300355Z AUTO 00000KT 10SM CLR 15/07 A3004 RMK AO2 SLP124 T01450066 $,K1BW,2023-05-30T03:55:00Z,41.52,-104.0,14.5,6.6,0,0,,10.0,30.041338,1012.4,,TRUE,TRUE,TRUE,,,,,,CLR,,,,,,,,VFR,,,,,,,,,,,,METAR,1606.0
K1BN 300355Z AUTO 22011KT 10SM FEW240 17/13 A2971 RMK AO2 SLP059 T01700133 $,K1BN,2023-05-30T03:55:00Z,,,17.0,13.3,220,11,,10.0,29.71063,1005.9,,TRUE,TRUE,TRUE,,,,,,FEW,24000,,,,,,,VFR,,,,,,,,,,,,METAR,
K1AN 300355Z AUTO 18003KT 10SM FEW180 OVC210 18/14 A2966 RMK AO2 SLP060 T01760141 $,K1AN,2023-05-30T03:55:00Z,,,17.6,14.1,180,3,,10.0,29.660433,1006.0,,TRUE,TRUE,TRUE,,,,,,FEW,18000,OVC,21000,,,,,VFR,,,,,,,,,,,,METAR,
K1AM 300355Z AUTO 00000KT 10SM FEW080 14/10 A2985 RMK AO2 SLP094 T01390103 $,K1AM,2023-05-30T03:55:00Z,47.28,-110.8,13.9,10.3,0,0,,10.0,29.84941,1009.4,,TRUE,TRUE,TRUE,,,,,,FEW,8000,,,,,,,VFR,,,,,,,,,,,,METAR,1228.0
K1A9 300355Z AUTO 00000KT 10SM CLR 18/15 A2994 RMK AO2 T01750150,K1A9,2023-05-30T03:55:00Z,32.43,-86.52,17.5,15.0,0,0,,10.0,29.940945,,,TRUE,TRUE,,,,,,,CLR,,,,,,,,VFR,,,,,,,,,,,,METAR,65.0
K1A6 300355Z AUTO 00000KT 10SM BKN037 15/15 A3002 RMK AO2 T01530150,K1A6,2023-05-30T03:55:00Z,36.62,-83.73,15.3,15.0,0,0,,10.0,30.02067,,,TRUE,TRUE,,,,,,,BKN,3700,,,,,,,VFR,,,,,,,,,,,,METAR,348.0
K18H 300355Z AUTO 00000KT 10SM CLR 26/22 A2988 RMK A01,K18H,2023-05-30T03:55:00Z,26.13,-92.03,26.0,22.0,0,0,,10.0,29.878937,,,TRUE,TRUE,,,,,,,CLR,,,,,,,,VFR,,,,,,,,,,,,METAR,30.0
K18A 300355Z AUTO 11005KT 5SM HZ BKN050 OVC075 21/15 A3001 RMK AO2 T02070151,K18A,2023-05-30T03:55:00Z,34.35,-83.13,20.7,15.1,110,5,,5.0,30.008858,,,TRUE,TRUE,,,,,,HZ,BKN,5000,OVC,7500,,,,,MVFR,,,,,,,,,,,,METAR,260.0
K17J 300355Z AUTO 34003KT 10SM CLR 21/14 A2992 RMK AO2 T02070136,K17J,2023-05-30T03:55:00Z,31.0,-84.87,20.7,13.6,340,3,,10.0,29.920275,,,TRUE,TRUE,,,,,,,CLR,,,,,,,,VFR,,,,,,,,,,,,METAR,42.0
K15M 300355Z AUTO 00000KT 10SM CLR 17/15 A2997 RMK AO2 T01730155 $,K15M,2023-05-30T03:55:00Z,34.77,-88.17,17.3,15.5,0,0,,10.0,29.970472,,,TRUE,TRUE,TRUE,,,,,,CLR,,,,,,,,VFR,,,,,,,,,,,,METAR,192.0
K14Y 300355Z AUTO 15005KT 7SM CLR 18/12 A2983 RMK AO2 LTG DSNT NW,K14Y,2023-05-30T03:55:00Z,45.9,-94.87,18.0,12.0,150,5,,7.0,29.828741,,,TRUE,TRUE,,,,,,,CLR,,,,,,,,VFR,,,,,,,,,,,,METAR,404.0
K13K 300355Z AUTO 14003KT 10SM SCT065 19/18 A2996 RMK AO2 T01920180,K13K,2023-05-30T03:55:00Z,37.85,-96.3,19.2,18.0,140,3,,10.0,29.958662,,,TRUE,TRUE,,,,,,,SCT,6500,,,,,,,VFR,,,,,,,,,,,,METAR,367.0
K11R 300355Z AUTO 00000KT 7SM CLR 21/20 A2994 RMK AO2 T02130202,K11R,2023-05-30T03:55:00Z,30.22,-96.37,21.3,20.2,0,0,,7.0,29.940945,,,TRUE,TRUE,,,,,,,CLR,,,,,,,,VFR,,,,,,,,,,,,METAR,87.0
K10U 300355Z AUTO 10008KT 10SM BKN120 13/06 A2998 RMK AO2,K10U,2023-05-30T03:55:00Z,,,13.0,6.0,100,8,,10.0,29.97933,,,TRUE,TRUE,,,,,,,BKN,12000,,,,,,,VFR,,,,,,,,,,,,METAR,
K10G 300355Z AUTO 35003KT 10SM OVC100 22/07 A3003 RMK AO2,K10G,2023-05-30T03:55:00Z,40.53,-81.95,22.0,7.0,350,3,,10.0,30.029528,,,TRUE,TRUE,,,,,,,OVC,10000,,,,,,,VFR,,,,,,,,,,,,METAR,371.0
K0VG 300355Z AUTO 00000KT 10SM SCT030 16/15 A3002 RMK AO2,K0VG,2023-05-30T03:55:00Z,36.65,-83.22,16.0,15.0,0,0,,10.0,30.02067,,,TRUE,TRUE,,,,,,,SCT,3000,,,,,,,VFR,,,,,,,,,,,,METAR,426.0
K0V4 300355Z AUTO 08007KT 10SM SCT014 BKN039 OVC048 17/17 A3000 RMK AO1,K0V4,2023-05-30T03:55:00Z,37.15,-79.02,17.0,17.0,80,7,,10.0,30.0,,,TRUE,TRUE,,,,,,,SCT,1400,BKN,3900,OVC,4800,,,VFR,,,,,,,,,,,,METAR,186.0
K0S9 300355Z AUTO 00000KT 10SM CLR 12/09 A2992 RMK AO2,K0S9,2023-05-30T03:55:00Z,48.05,-122.82,12.0,9.0,0,0,,10.0,29.920275,,,TRUE,TRUE,,,,,,,CLR,,,,,,,,VFR,,,,,,,,,,,,METAR,33.0
K0R0 300355Z AUTO 00000KT A2996 RMK AO2 PWINO TSNO,K0R0,2023-05-30T03:55:00Z,31.3,-89.82,,,0,0,,,29.958662,,,TRUE,TRUE,,,TRUE,,TRUE,,,,,,,,,,,,,,,,,,,,,,METAR,76.0
K0F2 300355Z AUTO 10SM CLR 20/18 A2994 RMK AO2 T02020180,K0F2,2023-05-30T03:55:00Z,33.6,-97.78,20.2,18.0,,,,10.0,29.940945,,,TRUE,TRUE,,,,,,,CLR,,,,,,,,VFR,,,,,,,,,,,,METAR,330.0
K0E0 300355Z AUTO 27003KT 10SM CLR 14/03 A3010 RMK AO2 T01440025,K0E0,2023-05-30T03:55:00Z,34.98,-106.0,14.4,2.5,270,3,,10.0,30.100393,,,TRUE,TRUE,,,,,,,CLR,,,,,,,,VFR,,,,,,,,,,,,METAR,1887.0
K0A9 300355Z AUTO 00000KT 5SM BR SCT090 14/14 A3002 RMK AO2,K0A9,2023-05-30T03:55:00Z,36.37,-82.17,14.0,14.0,0,0,,5.0,30.02067,,,TRUE,TRUE,,,,,,BR,SCT,9000,,,,,,,MVFR,,,,,,,,,,,,METAR,479.0
K0A0 300355Z AUTO 00000KT 10SM CLR 22/M05 A2999 RMK AO2,K0A0,2023-05-30T03:55:00Z,32.98,-106.97,22.0,-5.0,0,0,,10.0,29.991142,,,TRUE,TRUE,,,,,,,CLR,,,,,,,,VFR,,,,,,,,,,,,METAR,1401.0
K08D 300355Z AUTO 22006KT 10SM CLR 15/15 A2975 RMK AO2,K08D,2023-05-30T03:55:00Z,48.3,-102.4,15.0,15.0,220,6,,10.0,29.749016,,,TRUE,TRUE,,,,,,,CLR,,,,,,,,VFR,,,,,,,,,,,,METAR,683.0
K06D 300355Z AUTO 22010KT 10SM CLR 17/15 A2973 RMK AO2,K06D,2023-05-30T03:55:00Z,48.88,-99.62,17.0,15.0,220,10,,10.0,29.731298,,,TRUE,TRUE,,,,,,,CLR,,,,,,,,VFR,,,,,,,,,,,,METAR,554.0
K06C 300355Z AUTO 00000KT 10SM CLR 20/09 A3000 RMK AO2 T01970087,K06C,2023-05-30T03:55:00Z,41.98,-88.1,19.7,8.7,0,0,,10.0,30.0,,,TRUE,TRUE,,,,,,,CLR,,,,,,,,VFR,,,,,,,,,,,,METAR,243.0
K04V 300355Z AUTO 31008KT 10SM CLR 13/M02 A3020 RMK AO2,K04V,2023-05-30T03:55:00Z,38.1,-106.17,13.0,-2.0,310,8,,10.0,30.200787,,,TRUE,TRUE,,,,,,,CLR,,,,,,,,VFR,,,,,,,,,,,,METAR,2389.0
FJDG 300355Z 19010KT 9999 FEW020 SCT050 BKN080 27/24 A2992 RMK SLP129 T02720244,FJDG,2023-05-30T03:55:00Z,-7.32,72.42,27.2,24.4,190,10,,6.21,29.920275,1012.9,,,,,,,,,,FEW,2000,SCT,5000,BKN,8000,,,VFR,,,,,,,,,,,,METAR,3.0
ETOU 300355Z AUTO 34006KT 9999 CLR 12/12 A3019 RMK AO2 SLP225 T01230121,ETOU,2023-05-30T03:55:00Z,50.03,8.32,12.3,12.1,340,6,,6.21,30.188976,1022.5,,TRUE,TRUE,,,,,,,CLR,,,,,,,,VFR,,,,,,,,,,,,METAR,141.0
ETIK 300355Z AUTO 00000KT 9999 CLR 07/05 A3016 RMK AO2 SLP214 T00730053 $,ETIK,2023-05-30T03:55:00Z,49.47,10.38,7.3,5.3,0,0,,6.21,30.159449,1021.4,,TRUE,TRUE,TRUE,,,,,,CLR,,,,,,,,VFR,,,,,,,,,,,,METAR,326.0
ETIH 300355Z AUTO 32003KT 9999 FEW080 10/06 A3013 RMK AO2 SLP202 T01040058 $,ETIH,2023-05-30T03:55:00Z,49.22,11.83,10.4,5.8,320,3,,6.21,30.129921,1020.2,,TRUE,TRUE,TRUE,,,,,,FEW,8000,,,,,,,VFR,,,,,,,,,,,,METAR,436.0
ETIC 300355Z AUTO 00000KT 9999 CLR 09/06 A3013 RMK AO2 SLP204 T00910058 $,ETIC,2023-05-30T03:55:00Z,49.7,11.93,9.1,5.8,0,0,,6.21,30.129921,1020.4,,TRUE,TRUE,TRUE,,,,,,CLR,,,,,,,,VFR,,,,,,,,,,,,METAR,414.0
ETEB 300355Z AUTO 01007KT 9999 CLR 12/05 A3013 RMK AO2 SLP213 T01160052 $,ETEB,2023-05-30T03:55:00Z,49.32,10.63,11.6,5.2,10,7,,6.21,30.129921,1021.3,,TRUE,TRUE,TRUE,,,,,,CLR,,,,,,,,VFR,,,,,,,,,,,,METAR,466.0
ETAR 300355Z AUTO 11003KT 9999 CLR 10/07 A3016 RMK AO2 SLP216 T01020067,ETAR,2023-05-30T03:55:00Z,49.43,7.58,10.2,6.7,110,3,,6.21,30.159449,1021.6,,TRUE,TRUE,,,,,,,CLR,,,,,,,,VFR,,,,,,,,,,,,METAR,231.0
ETAD 300355Z AUTO 06006KT 9999 CLR 10/03 A3019 RMK AO2 SLP214 T01010029 $,ETAD,2023-05-30T03:55:00Z,49.98,6.7,10.1,2.9,60,6,,6.21,30.188976,1021.4,,TRUE,TRUE,TRUE,,,,,,CLR,,,,,,,,VFR,,,,,,,,,,,,METAR,365.0
EHWO 300355Z AUTO 05011KT 020V090 9999 OVC350 09/06 Q1027 BLU,EHWO,2023-05-30T03:55:00Z,51.45,4.33,9.0,6.0,50,11,,6.21,30.324802,,,TRUE,,,,,,,,OVC,35000,,,,,,,VFR,,,,,,,,,,,,METAR,15.0
EHVL 300355Z AUTO 01016KT 9999 OVC016 11/07 Q1029 WHT,EHVL,2023-05-30T03:55:00Z,53.28,5.08,11.0,7.0,10,16,,6.21,30.383858,,,TRUE,,,,,,,,OVC,1600,,,,,,,MVFR,,,,,,,,,,,,METAR,2.0
EHVK 300355Z AUTO 04005KT 360V060 9999 OVC017 09/06 Q1027 WHT,EHVK,2023-05-30T03:55:00Z,51.65,5.7,9.0,6.0,40,5,,6.21,30.324802,,,TRUE,,,,,,,,OVC,1700,,,,,,,MVFR,,,,,,,,,,,,METAR,20.0
EHSC 300355Z AUTO 05021KT 9999 ///////// 11/08 Q1029 W13/H15,EHSC,2023-05-30T03:55:00Z,51.93,3.67,11.0,8.0,50,21,,6.21,30.383858,,,TRUE,,,,,,,,,,,,,,,,,,,,,,,,,,,,METAR,19.0
EHSA 300355Z AUTO 03022KT 9999 ///////// 11/07 Q1028 W11/H18,EHSA,2023-05-30T03:55:00Z,52.0,3.28,11.0,7.0,30,22,,6.21,30.35433,,,TRUE,,,,,,,,,,,,,,,,,,,,,,,,,,,,METAR,18.0
EHRD 300355Z AUTO 03007KT 340V060 9999 OVC020 11/07 Q1028 NOSIG,EHRD,2023-05-30T03:55:00Z,51.95,4.45,11.0,7.0,30,7,,6.21,30.35433,,,TRUE,,,TRUE,,,,,OVC,2000,,,,,,,MVFR,,,,,,,,,,,,METAR,-4.0
EHPG 300355Z AUTO 03017KT 320V070 9999 OVC018 11/07 Q1029,EHPG,2023-05-30T03:55:00Z,52.37,3.35,11.0,7.0,30,17,,6.21,30.383858,,,TRUE,,,,,,,,OVC,1800,,,,,,,MVFR,,,,,,,,,,,,METAR,24.0
EHMG 300355Z AUTO 36015KT 9999 BKN012 OVC014 11/07 Q1029,EHMG,2023-05-30T03:55:00Z,53.62,4.97,11.0,7.0,360,15,,6.21,30.383858,,,TRUE,,,,,,,,BKN,1200,OVC,1400,,,,,MVFR,,,,,,,,,,,,METAR,30.0
EHMA 300355Z AUTO 02017KT 9999 SCT013 OVC015 11/08 Q1028,EHMA,2023-05-30T03:55:00Z,53.5,5.95,11.0,8.0,20,17,,6.21,30.35433,,,TRUE,,,,,,,,SCT,1300,OVC,1500,,,,,MVFR,,,,,,,,,,,,METAR,27.0
EHLW 300355Z AUTO 02007KT 330V040 9999 BKN020 OVC023 11/07 Q1028 WHT,EHLW,2023-05-30T03:55:00Z,53.22,5.75,11.0,7.0,20,7,,6.21,30.35433,,,TRUE,,,,,,,,BKN,2000,OVC,2300,,,,,MVFR,,,,,,,,,,,,METAR,1.0
EHLE 300355Z AUTO 03011KT 9999 OVC018 10/06 Q1028,EHLE,2023-05-30T03:55:00Z,52.45,5.52,10.0,6.0,30,11,,6.21,30.35433,,,TRUE,,,,,,,,OVC,1800,,,,,,,MVFR,,,,,,,,,,,,METAR,-3.0
EHKV 300355Z AUTO 04015KT 9999 BKN016 OVC019 11/07 Q1030,EHKV,2023-05-30T03:55:00Z,53.27,3.63,11.0,7.0,40,15,,6.21,30.413385,,,TRUE,,,,,,,,BKN,1600,OVC,1900,,,,,MVFR,,,,,,,,,,,,METAR,28.0
EHKD 300355Z AUTO 01008KT 320V060 9999 OVC019 11/07 Q1029 WHT,EHKD,2023-05-30T03:55:00Z,52.92,4.77,11.0,7.0,10,8,,6.21,30.383858,,,TRUE,,,,,,,,OVC,1900,,,,,,,MVFR,,,,,,,,,,,,METAR,1.0
EHJR 300355Z AUTO 04013KT //// // ///////// 11/07 Q1030 RE// W13/H15,EHJR,2023-05-30T03:55:00Z,53.22,3.22,11.0,7.0,40,13,,,30.413385,,,TRUE,,,,,,,,,,,,,,,,,,,,,,,,,,,,METAR,31.0
EHJA 300355Z AUTO 02014KT 9999 SCT013/// OVC015/// 11/07 Q1030,EHJA,2023-05-30T03:55:00Z,53.82,2.95,11.0,7.0,20,14,,6.21,30.413385,,,TRUE,,,,,,,,SCT,1300,OVC,1500,,,,,MVFR,,,,,,,,,,,,METAR,34.0
EHHW 300355Z AUTO 35014G24KT 9999 BKN009/// OVC010/// 11/08 Q1028,EHHW,2023-05-30T03:55:00Z,54.03,6.03,11.0,8.0,350,14,24,6.21,30.35433,,,TRUE,,,,,,,,BKN,900,OVC,1000,,,,,IFR,,,,,,,,,,,,METAR,10.0
EHGG 300355Z AUTO 01006KT 330V050 9999 OVC019 11/07 Q1028,EHGG,2023-05-30T03:55:00Z,53.12,6.57,11.0,7.0,10,6,,6.21,30.35433,,,TRUE,,,,,,,,OVC,1900,,,,,,,MVFR,,,,,,,,,,,,METAR,2.0
EHFS 300355Z AUTO 04006KT 9999 NCD 09/07 Q1027,EHFS,2023-05-30T03:55:00Z,51.45,3.6,9.0,7.0,40,6,,6.21,30.324802,,,TRUE,,,,,,,,CLR,,,,,,,,VFR,,,,,,,,,,,,METAR,1.0
EHFD 300355Z AUTO VRB14KT 8000 FEW005/// BKN010/// BKN013/// 10/09 Q1029,EHFD,2023-05-30T03:55:00Z,54.85,4.7,10.0,9.0,0,14,,4.97,30.383858,,,TRUE,,,,,,,,FEW,500,BKN,1000,BKN,1300,,,MVFR,,,,,,,,,,,,METAR,24.0
EHEH 300355Z AUTO 02008KT 350V050 9999 OVC016 08/06 Q1027 WHT,EHEH,2023-05-30T03:55:00Z,51.45,5.38,8.0,6.0,20,8,,6.21,30.324802,,,TRUE,,,,,,,,OVC,1600,,,,,,,MVFR,,,,,,,,,,,,METAR,20.0
EHDV 300355Z AUTO 36015KT 9999 SCT009/// OVC010/// 11/// Q1030,EHDV,2023-05-30T03:55:00Z,54.32,2.93,,,360,15,,6.21,30.413385,,,TRUE,,,,,,,,SCT,900,OVC,1000,,,,,MVFR,,0.0,,,,,,,,,,METAR,36.0
EHDL 300355Z AUTO 03007KT 330V070 9999 OVC016 10/06 Q1027 WHT,EHDL,2023-05-30T03:55:00Z,52.07,5.88,10.0,6.0,30,7,,6.21,30.324802,,,TRUE,,,,,,,,OVC,1600,,,,,,,MVFR,,,,,,,,,,,,METAR,49.0
EHBK 300355Z AUTO 04008KT 9999 NSC 08/05 Q1026,EHBK,2023-05-30T03:55:00Z,50.92,5.77,8.0,5.0,40,8,,6.21,30.295275,,,TRUE,,,,,,,,CLR,,,,,,,,VFR,,,,,,,,,,,,METAR,112.0
EHAM 300355Z 04011KT 010V080 9999 BKN021 11/07 Q1028 TEMPO BKN018,EHAM,2023-05-30T03:55:00Z,52.32,4.78,11.0,7.0,40,11,,6.21,30.35433,,,,,,,,,,,BKN,2100,,,,,,,MVFR,,,,,,,,,,,,METAR,-2.0
EHAK 300355Z AUTO 01020KT 310V080 9999 FEW012/// BKN014/// OVC016/// 11/08 Q1029,EHAK,2023-05-30T03:55:00Z,55.38,3.82,11.0,8.0,10,20,,6.21,30.383858,,,TRUE,,,,,,,,FEW,1200,BKN,1400,OVC,1600,,,MVFR,,,,,,,,,,,,METAR,33.0
EGVA 300355Z AUTO 02007KT 9999 BKN019 07/07 A3039 RMK AO2 BKN V SCT SLP295 T00740073 FZRANO $,EGVA,2023-05-30T03:55:00Z,51.67,-1.78,7.4,7.3,20,7,,6.21,30.389763,1029.5,,TRUE,TRUE,TRUE,,,TRUE,,,BKN,1900,,,,,,,MVFR,,,,,,,,,,,,METAR,84.0
EGUN 300355Z 05010KT 9999 OVC025 10/08 A3042 RMK AO2A CIG 023 RWY28 SLP304 T01030084 $,EGUN,2023-05-30T03:55:00Z,52.37,0.48,10.3,8.4,50,10,,6.21,30.41929,1030.4,,,TRUE,TRUE,,,,,,OVC,2500,,,,,,,MVFR,,,,,,,,,,,,METAR,10.0
EGUL 300355Z 04010KT 9999 BKN024 11/10 A3041 RMK AO2A SLP301 T01050096 RVRNO VISNO RWY24 $,EGUL,2023-05-30T03:55:00Z,52.42,0.57,10.5,9.6,40,10,,6.21,30.410433,1030.1,,,TRUE,TRUE,,,,,,BKN,2400,,,,,,,MVFR,,,,,,,,,,,,METAR,8.0
EBLB 300355Z AUTO 07005KT 9999 NCD 06/02 Q1024 BLU,EBLB,2023-05-30T03:55:00Z,50.47,6.17,6.0,2.0,70,5,,6.21,30.236221,,,TRUE,,,,,,,,CLR,,,,,,,,VFR,,,,,,,,,,,,METAR,563.0
EBFS 300355Z AUTO 04008KT 9999 FEW110/// BKN220/// 07/04 Q1024 BLU,EBFS,2023-05-30T03:55:00Z,50.23,4.65,7.0,4.0,40,8,,6.21,30.236221,,,TRUE,,,,,,,,FEW,11000,BKN,22000,,,,,VFR,,,,,,,,,,,,METAR,276.0
EBFN 300355Z AUTO 06007KT 9999 NCD 09/07 Q1027 BLU,EBFN,2023-05-30T03:55:00Z,51.08,2.65,9.0,7.0,60,7,,6.21,30.324802,,,TRUE,,,,,,,,CLR,,,,,,,,VFR,,,,,,,,,,,,METAR,9.0
EBDT 300355Z AUTO 03008KT 9999 NCD 08/06 Q1026 BLU,EBDT,2023-05-30T03:55:00Z,51.02,5.07,8.0,6.0,30,8,,6.21,30.295275,,,TRUE,,,,,,,,CLR,,,,,,,,VFR,,,,,,,,,,,,METAR,25.0
EBCV 300355Z AUTO 04010KT 9999 SCT095/// BKN110/// 09/06 Q1026 BLU,EBCV,2023-05-30T03:55:00Z,50.57,3.82,9.0,6.0,40,10,,6.21,30.295275,,,TRUE,,,,,,,,SCT,9500,BKN,11000,,,,,VFR,,,,,,,,,,,,METAR,56.0
EBBL 300355Z AUTO 02008KT 9999 NCD 08/06 Q1026 BLU,EBBL,2023-05-30T03:55:00Z,51.17,5.47,8.0,6.0,20,8,,6.21,30.295275,,,TRUE,,,,,,,,CLR,,,,,,,,VFR,,,,,,,,,,,,METAR,50.0
EBBE 300355Z AUTO 03008KT 9999 NCD 08/06 Q1026 BLU,EBBE,2023-05-30T03:55:00Z,50.75,4.77,8.0,6.0,30,8,,6.21,30.295275,,,TRUE,,,,,,,,CLR,,,,,,,,VFR,,,,,,,,,,,,METAR,127.0
CYCY 300355Z AUTO 36008KT 3/4SM -SN VV009 M04/M04 A2955 RMK PCPN 1.0MM PAST HR SLP010,CYCY,2023-05-30T03:55:00Z,70.48,-68.52,-4.0,-4.0,360,8,,0.75,29.551182,1001.0,,TRUE,,,,,,,-SN,OVX,0,,,,,,,LIFR,,,,,,,,,,,900,SPECI,73.0
BGTL 300355Z AUTO 05003KT 9999 CLR M04/M16 A2975 RMK AO2 SLP061 T10381164 410151054 TSNO $,BGTL,2023-05-30T03:55:00Z,76.53,-68.75,-3.8,-16.4,50,3,,6.21,29.749016,1006.1,,TRUE,TRUE,TRUE,,TRUE,,,,CLR,,,,,,,,VFR,,,,-1.5,-5.4,,,,,,,METAR,79.0
PHOG 300354Z 04018G23KT 10SM SCT050 27/17 A2999 RMK AO2 SLP159 T02670167 $,PHOG,2023-05-30T03:54:00Z,20.9,-156.43,26.7,16.7,40,18,23,10.0,29.991142,1015.9,,,TRUE,TRUE,,,,,,SCT,5000,,,,,,,VFR,,,,,,,,,,,,METAR,14.0
PHMK 300354Z 04010G18KT 10SM CLR 24/18 A3001 RMK AO2 SLP165 T02440178,PHMK,2023-05-30T03:54:00Z,21.15,-157.1,24.4,17.8,40,10,18,10.0,30.008858,1016.5,,,TRUE,,,,,,,CLR,,,,,,,,VFR,,,,,,,,,,,,METAR,135.0
PGSN 300354Z 09011KT 10SM SCT018 SCT026 30/26 A2987,PGSN,2023-05-30T03:54:00Z,15.12,145.72,30.0,26.0,90,11,,10.0,29.870079,,,,,,,,,,,SCT,1800,SCT,2600,,,,,VFR,,,,,,,,,,,,METAR,65.0
PAKN 300354Z 20006KT 8SM OVC009 07/05 A2978 RMK AO2 SLP085 T00720050 $,PAKN,2023-05-30T03:54:00Z,58.68,-156.65,7.2,5.0,200,6,,8.0,29.778543,1008.5,,,TRUE,TRUE,,,,,,OVC,900,,,,,,,IFR,,,,,,,,,,,,METAR,20.0
PAHN 300354Z AUTO 09010G17KT 060V130 FEW015 BKN070 OVC085 08/04 A2986 RMK AO2 SLP114 T00780044 TSNO $,PAHN,2023-05-30T03:54:00Z,59.25,-135.52,7.8,4.4,90,10,17,,29.861221,1011.4,,TRUE,TRUE,TRUE,,TRUE,,,,FEW,1500,BKN,7000,OVC,8500,,,,,,,,,,,,,,,METAR,15.0
KWLD 300354Z AUTO 09003KT 10SM CLR 21/18 A2995 RMK AO2 SLP133 T02060183 $,KWLD,2023-05-30T03:54:00Z,37.17,-97.03,20.6,18.3,90,3,,10.0,29.949802,1013.3,,TRUE,TRUE,TRUE,,,,,,CLR,,,,,,,,VFR,,,,,,,,,,,,METAR,351.0
KWAL 300354Z AUTO 03013G19KT 7SM OVC015 17/14 A3004 RMK AO2 SLP169 T01720144,KWAL,2023-05-30T03:54:00Z,37.93,-75.47,17.2,14.4,30,13,19,7.0,30.041338,1016.9,,TRUE,TRUE,,,,,,,OVC,1500,,,,,,,MVFR,,,,,,,,,,,,METAR,10.0
KVTA 300354Z AUTO 00000KT 10SM CLR 17/13 A2999 RMK AO2 SLP151 T01670133,KVTA,2023-05-30T03:54:00Z,40.02,-82.47,16.7,13.3,0,0,,10.0,29.991142,1015.1,,TRUE,TRUE,,,,,,,CLR,,,,,,,,VFR,,,,,,,,,,,,METAR,268.0
KVSF 300354Z AUTO 00000KT 10SM CLR 11/07 A3022 RMK AO2 SLP233 T01110072,KVSF,2023-05-30T03:54:00Z,43.35,-72.52,11.1,7.2,0,0,,10.0,30.221457,1023.3,,TRUE,TRUE,,,,,,,CLR,,,,,,,,VFR,,,,,,,,,,,,METAR,176.0
KVAY 300354Z AUTO 05004KT 10SM CLR 14/08 A3014 RMK AO2 SLP206 T01440078 $,KVAY,2023-05-30T03:54:00Z,39.93,-74.83,14.4,7.8,50,4,,10.0,30.138779,1020.6,,TRUE,TRUE,TRUE,,,,,,CLR,,,,,,,,VFR,,,,,,,,,,,,METAR,15.0
KUIN 300354Z AUTO 00000KT 10SM CLR 21/09 A2997 RMK AO2 SLP141 T02110089,KUIN,2023-05-30T03:54:00Z,39.95,-91.2,21.1,8.9,0,0,,10.0,29.970472,1014.1,,TRUE,TRUE,,,,,,,CLR,,,,,,,,VFR,,,,,,,,,,,,METAR,233.0
KTQE 300354Z AUTO 16009KT 10SM CLR 24/13 A2985 RMK AO2 SLP095 T02440133,KTQE,2023-05-30T03:54:00Z,41.77,-96.18,24.4,13.3,160,9,,10.0,29.84941,1009.5,,TRUE,TRUE,,,,,,,CLR,,,,,,,,VFR,,,,,,,,,,,,METAR,312.0
KTAD 300354Z AUTO 25015G20KT 10SM CLR 19/04 A3001 RMK AO2 SLP083 T01940039,KTAD,2023-05-30T03:54:00Z,37.27,-104.33,19.4,3.9,250,15,20,10.0,30.008858,1008.3,,TRUE,TRUE,,,,,,,CLR,,,,,,,,VFR,,,,,,,,,,,,METAR,1751.0
KSYR 300354Z 09004KT 10SM FEW250 18/09 A3005 RMK AO2 SLP171 T01830094,KSYR,2023-05-30T03:54:00Z,43.12,-76.1,18.3,9.4,90,4,,10.0,30.050198,1017.1,,,TRUE,,,,,,,FEW,25000,,,,,,,VFR,,,,,,,,,,,,METAR,125.0
KSUS 300354Z AUTO 00000KT 10SM CLR 17/12 A2995 RMK AO2 SLP136 T01670122,KSUS,2023-05-30T03:54:00Z,38.65,-90.65,16.7,12.2,0,0,,10.0,29.949802,1013.6,,TRUE,TRUE,,,,,,,CLR,,,,,,,,VFR,,,,,,,,,,,,METAR,140.0
KSLC 300354Z 35008KT 10SM FEW085 SCT250 21/09 A2989 RMK AO2 SLP072 T02110094,KSLC,2023-05-30T03:54:00Z,40.77,-111.97,21.1,9.4,350,8,,10.0,29.890747,1007.2,,,TRUE,,,,,,,FEW,8500,SCT,25000,,,,,VFR,,,,,,,,,,,,METAR,1286.0
KSET 300354Z AUTO 22005KT 10SM CLR 17/13 A2995 RMK AO2 SLP138 T01720128 $,KSET,2023-05-30T03:54:00Z,38.93,-90.43,17.2,12.8,220,5,,10.0,29.949802,1013.8,,TRUE,TRUE,TRUE,,,,,,CLR,,,,,,,,VFR,,,,,,,,,,,,METAR,133.0
KSBY 300354Z AUTO 04010KT 10SM BKN009 OVC020 16/14 A3006 RMK AO2 LTG DSNT N CIG 007V013 SLP180 T01610144,KSBY,2023-05-30T03:54:00Z,38.33,-75.5,16.1,14.4,40,10,,10.0,30.059055,1018.0,,TRUE,TRUE,,,,,,,BKN,900,OVC,2000,,,,,IFR,,,,,,,,,,,,METAR,14.0
KSBN 300354Z 00000KT 10SM CLR 18/07 A3001 RMK AO2 SLP158 T01780067,KSBN,2023-05-30T03:54:00Z,41.7,-86.32,17.8,6.7,0,0,,10.0,30.008858,1015.8,,,TRUE,,,,,,,CLR,,,,,,,,VFR,,,,,,,,,,,,METAR,236.0
KSBD 300354Z 25008KT 7SM FEW040 16/10 A2997,KSBD,2023-05-30T03:54:00Z,34.08,-117.25,16.0,10.0,250,8,,7.0,29.970472,,,,,,,,,,,FEW,4000,,,,,,,VFR,,,,,,,,,,,,METAR,353.0
KRST 300354Z 15011KT 10SM CLR 19/08 A2992 RMK AO2 SLP125 T01940078,KRST,2023-05-30T03:54:00Z,43.9,-92.5,19.4,7.8,150,11,,10.0,29.920275,1012.5,,,TRUE,,,,,,,CLR,,,,,,,,VFR,,,,,,,,,,,,METAR,398.0
KRSP 300354Z AUTO 07010G16KT 020V100 10SM CLR 17/08 A3012 RMK AO2 SLP192 T01670078 $,KRSP,2023-05-30T03:54:00Z,39.65,-77.47,16.7,7.8,70,10,16,10.0,30.121063,1019.2,,TRUE,TRUE,TRUE,,,,,,CLR,,,,,,,,VFR,,,,,,,,,,,,METAR,555.0
KROC 300354Z 07006KT 10SM CLR 18/06 A3008 RMK AO2 SLP185 T01830056,KROC,2023-05-30T03:54:00Z,43.12,-77.68,18.3,5.6,70,6,,10.0,30.079725,1018.5,,,TRUE,,,,,,,CLR,,,,,,,,VFR,,,,,,,,,,,,METAR,166.0
KROA 300354Z 32003KT 10SM FEW023 BKN029 OVC048 18/16 A3004 RMK AO2 RAB23E35 SLP164 P0000 T01830156,KROA,2023-05-30T03:54:00Z,37.32,-79.97,18.3,15.6,320,3,,10.0,30.041338,1016.4,,,TRUE,,,,,,,FEW,2300,BKN,2900,OVC,4800,,,MVFR,,,,,,0.005,,,,,,METAR,349.0
KRKS 300354Z AUTO 16017G25KT 10SM VCTS FEW065 BKN100 BKN120 14/06 A3010 RMK AO2 LTG DSNT SE-SW SLP129 T01390061,KRKS,2023-05-30T03:54:00Z,41.6,-109.07,13.9,6.1,160,17,25,10.0,30.100393,1012.9,,TRUE,TRUE,,,,,,VCTS,FEW,6500,BKN,10000,BKN,12000,,,VFR,,,,,,,,,,,,METAR,2062.0
KRIC 300354Z 04009KT 2 1/2SM -DZ BR OVC006 19/18 A3000 RMK AO2 DZB16 SLP163 CIG 004V011 P0000 T01940183,KRIC,2023-05-30T03:54:00Z,37.52,-77.32,19.4,18.3,40,9,,2.5,30.0,1016.3,,,TRUE,,,,,,-DZ BR,OVC,600,,,,,,,IFR,,,,,,0.005,,,,,,METAR,51.0
KRFD 300354Z 00000KT 10SM SCT140 SCT250 18/07 A2999 RMK AO2 SLP152 T01780072 $,KRFD,2023-05-30T03:54:00Z,42.2,-89.1,17.8,7.2,0,0,,10.0,29.991142,1015.2,,,TRUE,TRUE,,,,,,SCT,14000,SCT,25000,,,,,VFR,,,,,,,,,,,,METAR,222.0
KRDG 300354Z AUTO 06007KT 10SM CLR 17/05 A3014 RMK AO2 SLP210 T01720050 $,KRDG,2023-05-30T03:54:00Z,40.37,-75.97,17.2,5.0,60,7,,10.0,30.138779,1021.0,,TRUE,TRUE,TRUE,,,,,,CLR,,,,,,,,VFR,,,,,,,,,,,,METAR,101.0
KRBL 300354Z AUTO 16011KT 10SM CLR 24/13 A2984 RMK AO2 SLP102 T02390128,KRBL,2023-05-30T03:54:00Z,40.15,-122.25,23.9,12.8,160,11,,10.0,29.840551,1010.2,,TRUE,TRUE,,,,,,,CLR,,,,,,,,VFR,,,,,,,,,,,,METAR,107.0
KPTW 300354Z AUTO 08003KT 10SM CLR 14/05 A3017 RMK AO2 SLP213 T01390050 $,KPTW,2023-05-30T03:54:00Z,40.23,-75.55,13.9,5.0,80,3,,10.0,30.171259,1021.3,,TRUE,TRUE,TRUE,,,,,,CLR,,,,,,,,VFR,,,,,,,,,,,,METAR,88.0
KPSF 300354Z AUTO 00000KT 10SM CLR 12/03 A3020 RMK AO2 SLP206 T01220033,KPSF,2023-05-30T03:54:00Z,42.43,-73.28,12.2,3.3,0,0,,10.0,30.200787,1020.6,,TRUE,TRUE,,,,,,,CLR,,,,,,,,VFR,,,,,,,,,,,,METAR,352.0
KPNE 300354Z 07010KT 10SM CLR 16/07 A3016 RMK AO2 SLP212 T01560072,KPNE,2023-05-30T03:54:00Z,40.08,-75.02,15.6,7.2,70,10,,10.0,30.159449,1021.2,,,TRUE,,,,,,,CLR,,,,,,,,VFR,,,,,,,,,,,,METAR,32.0
KPLN 300354Z AUTO 00000KT 10SM CLR 12/08 A3003 RMK AO2 SLP166 T01220083,KPLN,2023-05-30T03:54:00Z,45.57,-84.8,12.2,8.3,0,0,,10.0,30.029528,1016.6,,TRUE,TRUE,,,,,,,CLR,,,,,,,,VFR,,,,,,,,,,,,METAR,215.0
KPIA 300354Z 00000KT 10SM CLR 19/10 A2996 RMK AO2 SLP143 T01890100,KPIA,2023-05-30T03:54:00Z,40.67,-89.68,18.9,10.0,0,0,,10.0,29.958662,1014.3,,,TRUE,,,,,,,CLR,,,,,,,,VFR,,,,,,,,,,,,METAR,200.0
KPHL 300354Z 07010KT 10SM CLR 16/06 A3014 RMK AO2 SLP206 T01560061,KPHL,2023-05-30T03:54:00Z,39.87,-75.23,15.6,6.1,70,10,,10.0,30.138779,1020.6,,,TRUE,,,,,,,CLR,,,,,,,,VFR,,,,,,,,,,,,METAR,2.0
KPHF 300354Z AUTO 02008KT 7SM -RA OVC004 19/19 A2997 RMK AO2 LTG DSNT W TSE17 SLP149 P0002 T01890189,KPHF,2023-05-30T03:54:00Z,37.13,-76.5,18.9,18.9,20,8,,7.0,29.970472,1014.9,,TRUE,TRUE,,,,,,-RA,OVC,400,,,,,,,LIFR,,,,,,0.02,,,,,,METAR,12.0
KORH 300354Z 00000KT 10SM CLR 11/02 A3022 RMK AO2 SLP233 T01110022 $,KORH,2023-05-30T03:54:00Z,42.27,-71.87,11.1,2.2,0,0,,10.0,30.221457,1023.3,,,TRUE,TRUE,,,,,,CLR,,,,,,,,VFR,,,,,,,,,,,,METAR,306.0
KOLS 300354Z AUTO 15005KT 10SM CLR 23/M03 A3000 RMK AO2 SLP092 T02331028 $,KOLS,2023-05-30T03:54:00Z,31.42,-110.85,23.3,-2.8,150,5,,10.0,30.0,1009.2,,TRUE,TRUE,TRUE,,,,,,CLR,,,,,,,,VFR,,,,,,,,,,,,METAR,1194.0
KOLM 300354Z AUTO 21006KT 10SM CLR 13/06 A2993 RMK AO2 SLP136 T01280061,KOLM,2023-05-30T03:54:00Z,46.97,-122.9,12.8,6.1,210,6,,10.0,29.929134,1013.6,,TRUE,TRUE,,,,,,,CLR,,,,,,,,VFR,,,,,,,,,,,,METAR,58.0
KOFP 300354Z AUTO 06007KT 030V110 2 1/2SM -RA BR OVC004 19/19 A3003 RMK AO2 RAB31 SLP167 P0003 T01890189,KOFP,2023-05-30T03:54:00Z,37.7,-77.43,18.9,18.9,60,7,,2.5,30.029528,1016.7,,TRUE,TRUE,,,,,,-RA BR,OVC,400,,,,,,,LIFR,,,,,,0.03,,,,,,METAR,63.0
KNAK 300354Z AUTO 06004KT 5SM -RA SCT050 BKN060 OVC080 16/13 A3011 RMK AO2 SLP196 P0010 T01610133 $,KNAK,2023-05-30T03:54:00Z,38.98,-76.48,16.1,13.3,60,4,,5.0,30.109253,1019.6,,TRUE,TRUE,TRUE,,,,,-RA,SCT,5000,BKN,6000,OVC,8000,,,MVFR,,,,,,0.1,,,,,,METAR,2.0
KMVL 300354Z AUTO 21003KT 10SM CLR 09/06 A3016 RMK AO2 SLP215 T00890061,KMVL,2023-05-30T03:54:00Z,44.53,-72.62,8.9,6.1,210,3,,10.0,30.159449,1021.5,,TRUE,TRUE,,,,,,,CLR,,,,,,,,VFR,,,,,,,,,,,,METAR,226.0
KMTP 300354Z AUTO 00000KT 12/07 A3021 RMK AO1 SLP229 T01170072,KMTP,2023-05-30T03:54:00Z,41.07,-71.92,11.7,7.2,0,0,,,30.209646,1022.9,,TRUE,TRUE,,,,,,,,,,,,,,,,,,,,,,,,,,,METAR,2.0
KMRY 300354Z AUTO 32003KT 10SM OVC040 13/11 A3000 RMK AO2 SLP169 T01280106,KMRY,2023-05-30T03:54:00Z,36.58,-121.85,12.8,10.6,320,3,,10.0,30.0,1016.9,,TRUE,TRUE,,,,,,,OVC,4000,,,,,,,VFR,,,,,,,,,,,,METAR,51.0
KMOT 300354Z AUTO 01003KT 10SM OVC100 17/13 A2972 RMK AO2 SLP060 T01720133,KMOT,2023-05-30T03:54:00Z,48.25,-101.27,17.2,13.3,10,3,,10.0,29.719488,1006.0,,TRUE,TRUE,,,,,,,OVC,10000,,,,,,,VFR,,,,,,,,,,,,METAR,507.0
KMKC 300354Z 20003KT 10SM CLR 24/16 A2993 RMK AO2 SLP126 T02390156,KMKC,2023-05-30T03:54:00Z,39.12,-94.6,23.9,15.6,200,3,,10.0,29.929134,1012.6,,,TRUE,,,,,,,CLR,,,,,,,,VFR,,,,,,,,,,,,METAR,228.0
KMIV 300354Z AUTO 07008KT 10SM FEW110 14/11 A3011 RMK AO2 SLP195 T01440106 $,KMIV,2023-05-30T03:54:00Z,39.37,-75.08,14.4,10.6,70,8,,10.0,30.109253,1019.5,,TRUE,TRUE,TRUE,,,,,,FEW,11000,,,,,,,VFR,,,,,,,,,,,,METAR,18.0
KMGJ 300354Z AUTO 00000KT 10SM CLR 11/07 A3018 RMK AO2 SLP220 T01110072,KMGJ,2023-05-30T03:54:00Z,41.52,-74.27,11.1,7.2,0,0,,10.0,30.180119,1022.0,,TRUE,TRUE,,,,,,,CLR,,,,,,,,VFR,,,,,,,,,,,,METAR,106.0
KMFI 300354Z AUTO 10004KT 9SM CLR 16/08 A2998 RMK AO2 SLP147 T01560078,KMFI,2023-05-30T03:54:00Z,44.63,-90.18,15.6,7.8,100,4,,9.0,29.97933,1014.7,,TRUE,TRUE,,,,,,,CLR,,,,,,,,VFR,,,,,,,,,,,,METAR,383.0
KMEM 300354Z 22003KT 10SM FEW250 22/12 A2995 RMK AO2 SLP139 T02170117 $,KMEM,2023-05-30T03:54:00Z,35.07,-89.98,21.7,11.7,220,3,,10.0,29.949802,1013.9,,,TRUE,TRUE,,,,,,FEW,25000,,,,,,,VFR,,,,,,,,,,,,METAR,78.0
KLYH 300354Z AUTO 03005KT 10SM SCT036 19/18 A3001 RMK AO2 SLP156 T01890183,KLYH,2023-05-30T03:54:00Z,37.32,-79.2,18.9,18.3,30,5,,10.0,30.008858,1015.6,,TRUE,TRUE,,,,,,,SCT,3600,,,,,,,VFR,,,,,,,,,,,,METAR,282.0
KLWT 300354Z AUTO 16006KT 10SM CLR 14/09 A2988 RMK AO2 SLP091 T01390094,KLWT,2023-05-30T03:54:00Z,47.05,-109.47,13.9,9.4,160,6,,10.0,29.878937,1009.1,,TRUE,TRUE,,,,,,,CLR,,,,,,,,VFR,,,,,,,,,,,,METAR,1254.0
KLWM 300354Z AUTO 09005KT 10SM CLR 11/07 A3025 RMK AO2 SLP243 T01060067,KLWM,2023-05-30T03:54:00Z,42.72,-71.13,10.6,6.7,90,5,,10.0,30.250984,1024.3,,TRUE,TRUE,,,,,,,CLR,,,,,,,,VFR,,,,,,,,,,,,METAR,42.0
KLNK 300354Z AUTO 19012KT 10SM CLR 25/15 A2989 RMK AO2 SLP109 T02500150,KLNK,2023-05-30T03:54:00Z,40.85,-96.77,25.0,15.0,190,12,,10.0,29.890747,1010.9,,TRUE,TRUE,,,,,,,CLR,,,,,,,,VFR,,,,,,,,,,,,METAR,357.0
KLEX 300354Z 00000KT 10SM OVC110 21/17 A2999 RMK AO2 SLP149 T02060167 $,KLEX,2023-05-30T03:54:00Z,38.03,-84.6,20.6,16.7,0,0,,10.0,29.991142,1014.9,,,TRUE,TRUE,,,,,,OVC,11000,,,,,,,VFR,,,,,,,,,,,,METAR,294.0
KLAF 300354Z AUTO 03008KT 10SM BKN110 22/09 A2996 RMK AO2 SLP140 T02220089,KLAF,2023-05-30T03:54:00Z,40.42,-86.93,22.2,8.9,30,8,,10.0,29.958662,1014.0,,TRUE,TRUE,,,,,,,BKN,11000,,,,,,,VFR,,,,,,,,,,,,METAR,182.0
KJST 300354Z AUTO 13004KT 10SM CLR 18/09 A3009 RMK AO2 SLP177 T01780094,KJST,2023-05-30T03:54:00Z,40.32,-78.83,17.8,9.4,130,4,,10.0,30.088583,1017.7,,TRUE,TRUE,,,,,,,CLR,,,,,,,,VFR,,,,,,,,,,,,METAR,695.0
KJAN 300354Z 00000KT 10SM CLR 19/15 A2995 RMK AO2 SLP136 T01940150,KJAN,2023-05-30T03:54:00Z,32.32,-90.08,19.4,15.0,0,0,,10.0,29.949802,1013.6,,,TRUE,,,,,,,CLR,,,,,,,,VFR,,,,,,,,,,,,METAR,92.0
KIZG 300354Z AUTO 00000KT 10SM CLR 06/04 A3024 RMK AO2 SLP240 T00560044 $,KIZG,2023-05-30T03:54:00Z,43.98,-70.95,5.6,4.4,0,0,,10.0,30.239174,1024.0,,TRUE,TRUE,TRUE,,,,,,CLR,,,,,,,,VFR,,,,,,,,,,,,METAR,138.0
KISW 300354Z AUTO 00000KT 10SM CLR 14/09 A2999 RMK AO2 SLP152 T01390089,KISW,2023-05-30T03:54:00Z,44.37,-89.83,13.9,8.9,0,0,,10.0,29.991142,1015.2,,TRUE,TRUE,,,,,,,CLR,,,,,,,,VFR,,,,,,,,,,,,METAR,311.0
KIPT 300354Z AUTO 10008KT 10SM CLR 20/08 A3011 RMK AO2 SLP192 T02000078,KIPT,2023-05-30T03:54:00Z,41.25,-76.92,20.0,7.8,100,8,,10.0,30.109253,1019.2,,TRUE,TRUE,,,,,,,CLR,,,,,,,,VFR,,,,,,,,,,,,METAR,160.0
KINT 300354Z AUTO 00000KT 1/4SM FG BKN001 BKN027 BKN033 17/17 A2999 RMK AO2 SLP149 T01720172 $,KINT,2023-05-30T03:54:00Z,36.13,-80.22,17.2,17.2,0,0,,0.25,29.991142,1014.9,,TRUE,TRUE,TRUE,,,,,FG,BKN,100,BKN,2700,BKN,3300,,,LIFR,,,,,,,,,,,,METAR,292.0
KINL 300354Z AUTO 15007KT 10SM FEW110 21/09 A2981 RMK AO2 SLP091 T02110089,KINL,2023-05-30T03:54:00Z,48.57,-93.4,21.1,8.9,150,7,,10.0,29.811024,1009.1,,TRUE,TRUE,,,,,,,FEW,11000,,,,,,,VFR,,,,,,,,,,,,METAR,353.0
KIND 300354Z 00000KT 10SM FEW095 FEW250 23/10 A2996 RMK AO2 SLP137 T02280100 $,KIND,2023-05-30T03:54:00Z,39.72,-86.27,22.8,10.0,0,0,,10.0,29.958662,1013.7,,,TRUE,TRUE,,,,,,FEW,9500,FEW,25000,,,,,VFR,,,,,,,,,,,,METAR,242.0
KIMT 300354Z AUTO 00000KT 10SM CLR 14/08 A2999 RMK AO2 SLP152 T01440078 $,KIMT,2023-05-30T03:54:00Z,45.82,-88.12,14.4,7.8,0,0,,10.0,29.991142,1015.2,,TRUE,TRUE,TRUE,,,,,,CLR,,,,,,,,VFR,,,,,,,,,,,,METAR,343.0
KILN 300354Z AUTO 18003KT 10SM CLR 20/14 A3000 RMK AO2 SLP149 T02000144,KILN,2023-05-30T03:54:00Z,39.43,-83.8,20.0,14.4,180,3,,10.0,30.0,1014.9,,TRUE,TRUE,,,,,,,CLR,,,,,,,,VFR,,,,,,,,,,,,METAR,325.0
KHWD 300354Z 28007KT 10SM CLR 15/09 A2996 RMK AO2 SLP156 T01500094,KHWD,2023-05-30T03:54:00Z,37.67,-122.12,15.0,9.4,280,7,,10.0,29.958662,1015.6,,,TRUE,,,,,,,CLR,,,,,,,,VFR,,,,,,,,,,,,METAR,9.0
KGSO 300354Z 09003KT 6SM BR MIFG FEW009 FEW028 SCT065 18/17 A2998 RMK AO2 SLP145 T01780172,KGSO,2023-05-30T03:54:00Z,36.1,-79.95,17.8,17.2,90,3,,6.0,29.97933,1014.5,,,TRUE,,,,,,BR MIFG,FEW,900,FEW,2800,SCT,6500,,,VFR,,,,,,,,,,,,METAR,275.0
KGED 300354Z AUTO 05013KT 6SM VCTS -RA BR BKN008 BKN040 OVC055 16/15 A3009 RMK AO2 SLP188 T01610150 PNO $,KGED,2023-05-30T03:54:00Z,38.68,-75.37,16.1,15.0,50,13,,6.0,30.088583,1018.8,,TRUE,TRUE,TRUE,,,,,VCTS -RA BR,BKN,800,BKN,4000,OVC,5500,,,IFR,,,,,,,,,,,,METAR,15.0
KGCN 300354Z 23005KT 10SM CLR 14/M08 A3013 RMK AO2 SLP115 T01391078,KGCN,2023-05-30T03:54:00Z,35.95,-112.15,13.9,-7.8,230,5,,10.0,30.129921,1011.5,,,TRUE,,,,,,,CLR,,,,,,,,VFR,,,,,,,,,,,,METAR,1993.0
KGCK 300354Z AUTO 17006KT 10SM CLR 18/13 A2994 RMK AO2 SLP111 T01780133 $,KGCK,2023-05-30T03:54:00Z,37.92,-100.72,17.8,13.3,170,6,,10.0,29.940945,1011.1,,TRUE,TRUE,TRUE,,,,,,CLR,,,,,,,,VFR,,,,,,,,,,,,METAR,877.0
KFZY 300354Z AUTO 00000KT 10SM CLR 16/09 A3005 RMK AO2 SLP174 T01610089,KFZY,2023-05-30T03:54:00Z,43.35,-76.38,16.1,8.9,0,0,,10.0,30.050198,1017.4,,TRUE,TRUE,,,,,,,CLR,,,,,,,,VFR,,,,,,,,,,,,METAR,143.0
KFWA 300354Z 08003KT 10SM FEW090 FEW250 21/07 A3000 RMK AO2 SLP154 T02110067,KFWA,2023-05-30T03:54:00Z,40.98,-85.2,21.1,6.7,80,3,,10.0,30.0,1015.4,,,TRUE,,,,,,,FEW,9000,FEW,25000,,,,,VFR,,,,,,,,,,,,METAR,243.0
KFIG 300354Z AUTO 04005KT 10SM CLR 17/12 A3010 RMK AO2 SLP183 T01670117,KFIG,2023-05-30T03:54:00Z,41.05,-78.42,16.7,11.7,40,5,,10.0,30.100393,1018.3,,TRUE,TRUE,,,,,,,CLR,,,,,,,,VFR,,,,,,,,,,,,METAR,461.0
KFFZ 300354Z 26010KT 10SM CLR 31/M01 A2981 RMK AO2 SLP070 T03061011,KFFZ,2023-05-30T03:54:00Z,33.47,-111.72,30.6,-1.1,260,10,,10.0,29.811024,1007.0,,,TRUE,,,,,,,CLR,,,,,,,,VFR,,,,,,,,,,,,METAR,420.0
KEWN 300354Z AUTO 22003KT 5SM BR CLR 17/17 A2993 RMK AO2 SLP136 T01720167 $,KEWN,2023-05-30T03:54:00Z,35.07,-77.05,17.2,16.7,220,3,,5.0,29.929134,1013.6,,TRUE,TRUE,TRUE,,,,,BR,CLR,,,,,,,,MVFR,,,,,,,,,,,,METAR,3.0
KEVV 300354Z AUTO 24003KT 10SM CLR 19/15 A2995 RMK AO2 SLP137 T01890150 $,KEVV,2023-05-30T03:54:00Z,38.05,-87.52,18.9,15.0,240,3,,10.0,29.949802,1013.7,,TRUE,TRUE,TRUE,,,,,,CLR,,,,,,,,VFR,,,,,,,,,,,,METAR,123.0
KEUG 300354Z VRB03KT 10SM CLR 17/09 A2988 RMK AO2 SLP118 T01720094,KEUG,2023-05-30T03:54:00Z,44.13,-123.22,17.2,9.4,0,3,,10.0,29.878937,1011.8,,,TRUE,,,,,,,CLR,,,,,,,,VFR,,,,,,,,,,,,METAR,109.0
KEFD 300354Z 00000KT 10SM FEW028 SCT036 25/20 A2989,KEFD,2023-05-30T03:54:00Z,29.6,-95.17,25.0,20.0,0,0,,10.0,29.890747,,,,,,,,,,,FEW,2800,SCT,3600,,,,,VFR,,,,,,,,,,,,METAR,9.0
KECG 300354Z AUTO 01006KT 10SM CLR 19/18 A2994 RMK AO2 SLP138 T01940183,KECG,2023-05-30T03:54:00Z,36.27,-76.18,19.4,18.3,10,6,,10.0,29.940945,1013.8,,TRUE,TRUE,,,,,,,CLR,,,,,,,,VFR,,,,,,,,,,,,METAR,2.0
KDYL 300354Z AUTO VRB04KT 10SM CLR 15/05 A3015 RMK AO2 SLP206 T01500050,KDYL,2023-05-30T03:54:00Z,40.33,-75.12,15.0,5.0,0,4,,10.0,30.15059,1020.6,,TRUE,TRUE,,,,,,,CLR,,,,,,,,VFR,,,,,,,,,,,,METAR,121.0
KDSV 300354Z AUTO 17003KT 10SM CLR 15/10 A3009 RMK AO2 SLP195 T01500100 $,KDSV,2023-05-30T03:54:00Z,42.57,-77.72,15.0,10.0,170,3,,10.0,30.088583,1019.5,,TRUE,TRUE,TRUE,,,,,,CLR,,,,,,,,VFR,,,,,,,,,,,,METAR,195.0
KDSM 300354Z 14007KT 10SM CLR 22/12 A2993 RMK AO2 SLP127 T02220117,KDSM,2023-05-30T03:54:00Z,41.53,-93.67,22.2,11.7,140,7,,10.0,29.929134,1012.7,,,TRUE,,,,,,,CLR,,,,,,,,VFR,,,,,,,,,,,,METAR,286.0
KDMH 300354Z AUTO 19/09 A3013 RMK AO1 SLP201 T01890089,KDMH,2023-05-30T03:54:00Z,39.28,-76.62,18.9,8.9,,,,,30.129921,1020.1,,TRUE,TRUE,,,,,,,,,,,,,,,,,,,,,,,,,,,METAR,4.0
KDEC 300354Z AUTO 00000KT 10SM CLR 17/10 A2997 RMK AO2 SLP144 T01670100,KDEC,2023-05-30T03:54:00Z,39.83,-88.87,16.7,10.0,0,0,,10.0,29.970472,1014.4,,TRUE,TRUE,,,,,,,CLR,,,,,,,,VFR,,,,,,,,,,,,METAR,205.0
KDDH 300354Z AUTO 10008KT 10SM CLR 15/ A3018 RMK AO2 SLP215 T0150 $,KDDH,2023-05-30T03:54:00Z,42.9,-73.25,15.0,,100,8,,10.0,30.180119,1021.5,,TRUE,TRUE,TRUE,,,,,,CLR,,,,,,,,VFR,,,,,,,,,,,,METAR,241.0
KCRW 300354Z 00000KT 10SM FEW026 BKN080 18/18 A3001 RMK AO2 RAE08 SLP156 VLY FG P0000 T01780178,KCRW,2023-05-30T03:54:00Z,38.38,-81.58,17.8,17.8,0,0,,10.0,30.008858,1015.6,,,TRUE,,,,,,,FEW,2600,BKN,8000,,,,,VFR,,,,,,0.005,,,,,,METAR,278.0
KCOU 300354Z AUTO 11006KT 10SM CLR 22/10 A2997 RMK AO2 SLP139 T02170100,KCOU,2023-05-30T03:54:00Z,38.82,-92.22,21.7,10.0,110,6,,10.0,29.970472,1013.9,,TRUE,TRUE,,,,,,,CLR,,,,,,,,VFR,,,,,,,,,,,,METAR,272.0
KCOS 300354Z 15007KT 10SM SCT150 BKN240 17/05 A3007 RMK AO2 SLP103 T01720050 $,KCOS,2023-05-30T03:54:00Z,38.82,-104.68,17.2,5.0,150,7,,10.0,30.070866,1010.3,,,TRUE,TRUE,,,,,,SCT,15000,BKN,24000,,,,,VFR,,,,,,,,,,,,METAR,1886.0
KCEU 300354Z AUTO 09004KT 10SM SCT047 BKN055 OVC080 21/16 A2996 RMK AO2 SLP135 T02060161,KCEU,2023-05-30T03:54:00Z,34.67,-82.88,20.6,16.1,90,4,,10.0,29.958662,1013.5,,TRUE,TRUE,,,,,,,SCT,4700,BKN,5500,OVC,8000,,,VFR,,,,,,,,,,,,METAR,270.0
KCDD 300354Z AUTO 00000KT 10SM CLR 16/07 A2988 RMK AO2 PWINO,KCDD,2023-05-30T03:54:00Z,48.27,-92.48,16.0,7.0,0,0,,10.0,29.878937,,,TRUE,TRUE,,,,,TRUE,,CLR,,,,,,,,VFR,,,,,,,,,,,,METAR,344.0
KCAR 300354Z AUTO 25004KT 10SM CLR 09/04 A3015 RMK AO2 SLP216 T00940039,KCAR,2023-05-30T03:54:00Z,46.87,-68.02,9.4,3.9,250,4,,10.0,30.15059,1021.6,,TRUE,TRUE,,,,,,,CLR,,,,,,,,VFR,,,,,,,,,,,,METAR,189.0
KBWI 300354Z 07016G22KT 7SM FEW080 OVC110 18/10 A3010 RMK AO2 LTG DSNT SW SLP192 T01830100,KBWI,2023-05-30T03:54:00Z,39.17,-76.68,18.3,10.0,70,16,22,7.0,30.100393,1019.2,,,TRUE,,,,,,,FEW,8000,OVC,11000,,,,,VFR,,,,,,,,,,,,METAR,42.0
KBUY 300354Z AUTO 02003KT 10SM FEW018 SCT033 BKN070 17/17 A2998 RMK AO2 SLP147 T01720167,KBUY,2023-05-30T03:54:00Z,36.05,-79.47,17.2,16.7,20,3,,10.0,29.97933,1014.7,,TRUE,TRUE,,,,,,,FEW,1800,SCT,3300,BKN,7000,,,VFR,,,,,,,,,,,,METAR,185.0
KBUF 300354Z 07006KT 10SM CLR 18/03 A3006 RMK AO2 SLP177 T01830033 $,KBUF,2023-05-30T03:54:00Z,42.93,-78.73,18.3,3.3,70,6,,10.0,30.059055,1017.7,,,TRUE,TRUE,,,,,,CLR,,,,,,,,VFR,,,,,,,,,,,,METAR,217.0
KBTV 300354Z 19004KT 10SM CLR 13/08 A3012 RMK AO2 SLP199 T01330078,KBTV,2023-05-30T03:54:00Z,44.47,-73.15,13.3,7.8,190,4,,10.0,30.121063,1019.9,,,TRUE,,,,,,,CLR,,,,,,,,VFR,,,,,,,,,,,,METAR,101.0
KBOS 300354Z 11005KT 10SM CLR 12/07 A3023 RMK AO2 SLP237 T01220067,KBOS,2023-05-30T03:54:00Z,42.37,-71.02,12.2,6.7,110,5,,10.0,30.230314,1023.7,,,TRUE,,,,,,,CLR,,,,,,,,VFR,,,,,,,,,,,,METAR,4.0
KBFL 300354Z 35012KT 8SM CLR 19/09 A2989 RMK AO2 SLP116 T01940094,KBFL,2023-05-30T03:54:00Z,35.43,-119.05,19.4,9.4,350,12,,8.0,29.890747,1011.6,,,TRUE,,,,,,,CLR,,,,,,,,VFR,,,,,,,,,,,,METAR,146.0
KAVP 300354Z AUTO 00000KT 9SM R04/0600VP6000FT FEW085 16/06 A3014 RMK AO2 SLP199 T01610056 $,KAVP,2023-05-30T03:54:00Z,41.33,-75.72,16.1,5.6,0,0,,9.0,30.138779,1019.9,,TRUE,TRUE,TRUE,,,,,,FEW,8500,,,,,,,VFR,,,,,,,,,,,,METAR,290.0
KAVL 300354Z AUTO 35005KT 10SM OVC039 17/14 A3002 RMK AO2 SLP148 T01670144,KAVL,2023-05-30T03:54:00Z,35.43,-82.53,16.7,14.4,350,5,,10.0,30.02067,1014.8,,TRUE,TRUE,,,,,,,OVC,3900,,,,,,,VFR,,,,,,,,,,,,METAR,646.0
KAUW 300354Z AUTO 00000KT 10SM CLR 17/09 A2998 RMK AO2 SLP150 T01670089,KAUW,2023-05-30T03:54:00Z,44.93,-89.62,16.7,8.9,0,0,,10.0,29.97933,1015.0,,TRUE,TRUE,,,,,,,CLR,,,,,,,,VFR,,,,,,,,,,,,METAR,367.0
KAPN 300354Z AUTO 00000KT 10SM CLR 11/07 A3005 RMK AO2 SLP176 T01060067,KAPN,2023-05-30T03:54:00Z,45.07,-83.57,10.6,6.7,0,0,,10.0,30.050198,1017.6,,TRUE,TRUE,,,,,,,CLR,,,,,,,,VFR,,,,,,,,,,,,METAR,208.0
KAPC 300354Z AUTO 27010KT 10SM CLR 14/09 A2996 RMK AO2 SLP138 T01440094,KAPC,2023-05-30T03:54:00Z,38.2,-122.28,14.4,9.4,270,10,,10.0,29.958662,1013.8,,TRUE,TRUE,,,,,,,CLR,,,,,,,,VFR,,,,,,,,,,,,METAR,5.0
KALO 300354Z AUTO 15005KT 10SM CLR 22/07 A2993 RMK AO2 SLP128 T02170072,KALO,2023-05-30T03:54:00Z,42.55,-92.4,21.7,7.2,150,5,,10.0,29.929134,1012.8,,TRUE,TRUE,,,,,,,CLR,,,,,,,,VFR,,,,,,,,,,,,METAR,264.0
KAKR 300354Z AUTO 19005KT 10SM CLR 20/06 A3002 RMK AO2 SLP156 T02000061,KAKR,2023-05-30T03:54:00Z,41.03,-81.47,20.0,6.1,190,5,,10.0,30.02067,1015.6,,TRUE,TRUE,,,,,,,CLR,,,,,,,,VFR,,,,,,,,,,,,METAR,319.0
KAKQ 300354Z AUTO VRB05KT 5SM -RA BR BKN004 OVC009 20/19 A2998 RMK AO2 LTG DSNT NE AND S RAE02B52 SLP151 P0000 T02000189,KAKQ,2023-05-30T03:54:00Z,36.98,-77.0,20.0,18.9,0,5,,5.0,29.97933,1015.1,,TRUE,TRUE,,,,,,-RA BR,BKN,400,OVC,900,,,,,LIFR,,,,,,0.005,,,,,,METAR,34.0
KAKH 300354Z AUTO 00000KT 1 1/2SM BR CLR 16/15 A2996 RMK AO2 SLP140 T01560150,KAKH,2023-05-30T03:54:00Z,35.2,-81.15,15.6,15.0,0,0,,1.5,29.958662,1014.0,,TRUE,TRUE,,,,,,BR,CLR,,,,,,,,IFR,,,,,,,,,,,,METAR,242.0
KACY 300354Z 06009KT 10SM CLR 14/11 A3012 RMK AO2 SLP198 T01440111,KACY,2023-05-30T03:54:00Z,39.45,-74.57,14.4,11.1,60,9,,10.0,30.121063,1019.8,,,TRUE,,,,,,,CLR,,,,,,,,VFR,,,,,,,,,,,,METAR,18.0
KAAO 300354Z AUTO 14009KT 10SM CLR 21/17 A2994 RMK AO2 SLP128 T02060172,KAAO,2023-05-30T03:54:00Z,37.75,-97.22,20.6,17.2,140,9,,10.0,29.940945,1012.8,,TRUE,TRUE,,,,,,,CLR,,,,,,,,VFR,,,,,,,,,,,,METAR,429.0
K1V4 300354Z AUTO 16/06 A3017 RMK AO1 SLP208 T01560056,K1V4,2023-05-30T03:54:00Z,44.42,-72.02,15.6,5.6,,,,,30.171259,1020.8,,TRUE,TRUE,,,,,,,,,,,,,,,,,,,,,,,,,,,METAR,213.0
K12N 300354Z AUTO 00000KT 13/09 A3018 RMK AO1 SLP213 T01280089 $,K12N,2023-05-30T03:54:00Z,41.02,-74.73,12.8,8.9,0,0,,,30.180119,1021.3,,TRUE,TRUE,TRUE,,,,,,,,,,,,,,,,,,,,,,,,,,METAR,178.0
CYFB 300354Z 15007KT 30SM FEW015 OVC024 03/01 A2956 RMK SC1SC8 SC TR SLP013,CYFB,2023-05-30T03:54:00Z,63.75,-68.55,3.0,1.0,150,7,,30.0,29.56004,1001.3,,,,,,,,,,FEW,1500,OVC,2400,,,,,MVFR,,,,,,,,,,,,METAR,23.0
TJNR 300353Z AUTO 12005KT 10SM SCT028 SCT050 SCT075 27/22 A2996 RMK AO2 SLP145 T02670222 403060250,TJNR,2023-05-30T03:53:00Z,18.25,-65.63,26.7,22.2,120,5,,10.0,29.958662,1014.5,,TRUE,TRUE,,,,,,,SCT,2800,SCT,5000,SCT,7500,,,VFR,,,,30.6,25.0,,,,,,,METAR,7.0
TISX 300353Z AUTO 06006KT 10SM FEW026 BKN075 27/22 A2995 RMK AO2 SLP139 T02670222 403170239,TISX,2023-05-30T03:53:00Z,17.7,-64.8,26.7,22.2,60,6,,10.0,29.949802,1013.9,,TRUE,TRUE,,,,,,,FEW,2600,BKN,7500,,,,,VFR,,,,31.7,23.9,,,,,,,METAR,16.0
PTYA 300353Z 08007KT 10SM -SHRA SCT017TCU BKN130 OVC300 28/26 A2980 RMK TCU ALQDS SLP093 T02770258,PTYA,2023-05-30T03:53:00Z,9.48,138.08,27.7,25.8,80,7,,10.0,29.799213,1009.3,,,,,,,,,-SHRA,SCT,1700,BKN,13000,OVC,30000,,,VFR,,,,,,,,,,,,METAR,4.0
PHTO 300353Z 03005KT 10SM CLR 26/18 A3001 RMK AO2 SLP162 T02560183,PHTO,2023-05-30T03:53:00Z,19.72,-155.05,25.6,18.3,30,5,,10.0,30.008858,1016.2,,,TRUE,,,,,,,CLR,,,,,,,,VFR,,,,,,,,,,,,METAR,9.0
PHNL 300353Z 06017KT 10SM FEW025 FEW033 SCT250 27/18 A3000 RMK AO2 SLP157 T02720178,PHNL,2023-05-30T03:53:00Z,21.33,-157.93,27.2,17.8,60,17,,10.0,30.0,1015.7,,,TRUE,,,,,,,FEW,2500,FEW,3300,SCT,25000,,,VFR,,,,,,,,,,,,METAR,2.0
PHLI 300353Z 06012KT 10SM FEW026 25/20 A3003 RMK AO2 RAB05E16 SLP166 P0000 T02500200,PHLI,2023-05-30T03:53:00Z,21.97,-159.33,25.0,20.0,60,12,,10.0,30.029528,1016.6,,,TRUE,,,,,,,FEW,2600,,,,,,,VFR,,,,,,0.005,,,,,,METAR,32.0
PHKO 300353Z 24011KT 10SM BKN055 27/19 A2997 RMK AO2 SLP149 T02720194,PHKO,2023-05-30T03:53:00Z,19.73,-156.05,27.2,19.4,240,11,,10.0,29.970472,1014.9,,,TRUE,,,,,,,BKN,5500,,,,,,,VFR,,,,,,,,,,,,METAR,11.0
PHJR 300353Z VRB06G15KT 10SM CLR 27/16 A3001 RMK AO2 SLP167 T02720161,PHJR,2023-05-30T03:53:00Z,21.32,-158.07,27.2,16.1,0,6,15,10.0,30.008858,1016.7,,,TRUE,,,,,,,CLR,,,,,,,,VFR,,,,,,,,,,,,METAR,9.0
PAYA 300353Z AUTO 00000KT 7SM -RA OVC028 06/04 A2987 RMK AO2 SLP114 P0017 T00560044 TSNO $,PAYA,2023-05-30T03:53:00Z,59.52,-139.67,5.6,4.4,0,0,,7.0,29.870079,1011.4,,TRUE,TRUE,TRUE,,TRUE,,,-RA,OVC,2800,,,,,,,MVFR,,,,,,0.17,,,,,,METAR,9.0
PAWI 300353Z AUTO 27004KT 10SM BKN047 OVC055 01/M02 A2950 RMK AO2 SLP991 T00061017 TSNO $,PAWI,2023-05-30T03:53:00Z,70.63,-160.02,0.6,-1.7,270,4,,10.0,29.500984,999.1,,TRUE,TRUE,TRUE,,TRUE,,,,BKN,4700,OVC,5500,,,,,VFR,,,,,,,,,,,,METAR,12.0
PAWD 300353Z AUTO 16011KT 10SM SCT050 OVC080 08/03 A2980 RMK AO2 SLP090 T00780033 TSNO,PAWD,2023-05-30T03:53:00Z,60.12,-149.42,7.8,3.3,160,11,,10.0,29.799213,1009.0,,TRUE,TRUE,,,TRUE,,,,SCT,5000,OVC,8000,,,,,VFR,,,,,,,,,,,,METAR,3.0
PAVL 300353Z AUTO 17005KT 2 1/2SM -SN BR FEW004 BKN034 OVC048 01/00 A2954 RMK AO2 SLP002 P0000 T00060000 TSNO $,PAVL,2023-05-30T03:53:00Z,67.73,-164.55,0.6,0.0,170,5,,2.5,29.53937,1000.2,,TRUE,TRUE,TRUE,,TRUE,,,-SN BR,FEW,400,BKN,3400,OVC,4800,,,IFR,,,,,,0.005,,,,,,METAR,6.0
PATO 300353Z AUTO 12005KT 10SM BKN041 07/03 A2981 RMK AO2 SLP095 T00720033 TSNO,PATO,2023-05-30T03:53:00Z,60.78,-148.85,7.2,3.3,120,5,,10.0,29.811024,1009.5,,TRUE,TRUE,,,TRUE,,,,BKN,4100,,,,,,,VFR,,,,,,,,,,,,METAR,47.0
PATK 300353Z AUTO 19008G17KT 10SM BKN080 OVC100 12/01 A2967 RMK AO2 SLP050 T01220006 TSNO,PATK,2023-05-30T03:53:00Z,62.32,-150.1,12.2,0.6,190,8,17,10.0,29.66929,1005.0,,TRUE,TRUE,,,TRUE,,,,BKN,8000,OVC,10000,,,,,VFR,,,,,,,,,,,,METAR,107.0
PASO 300353Z AUTO 18007KT 10SM OVC100 10/06 A2978 RMK AO2 SLP085 T01000056 TSNO,PASO,2023-05-30T03:53:00Z,59.45,-151.7,10.0,5.6,180,7,,10.0,29.778543,1008.5,,TRUE,TRUE,,,TRUE,,,,OVC,10000,,,,,,,VFR,,,,,,,,,,,,METAR,20.0
PASN 300353Z AUTO 25020G27KT 10SM OVC008 04/02 A2989 RMK AO2 PK WND 26028/0350 SLP123 T00440017 TSNO $,PASN,2023-05-30T03:53:00Z,57.15,-170.22,4.4,1.7,250,20,27,10.0,29.890747,1012.3,,TRUE,TRUE,TRUE,,TRUE,,,,OVC,800,,,,,,,IFR,,,,,,,,,,,,METAR,8.0
PASI 300353Z 13006KT 4SM -RA FEW016 BKN023 OVC034 08/04 A2990 RMK AO2 RAB0254E05B10 SLP126 P0002 T00780044 $,PASI,2023-05-30T03:53:00Z,57.03,-135.35,7.8,4.4,130,6,,4.0,29.899607,1012.6,,,TRUE,TRUE,,,,,-RA,FEW,1600,BKN,2300,OVC,3400,,,MVFR,,,,,,0.02,,,,,,METAR,2.0
PASC 300353Z 09005KT 10SM OVC075 03/01 A2953 RMK AO2 SLP999 T00280006,PASC,2023-05-30T03:53:00Z,70.2,-148.47,2.8,0.6,90,5,,10.0,29.530512,999.9,,,TRUE,,,,,,,OVC,7500,,,,,,,VFR,,,,,,,,,,,,METAR,17.0
PAQT 300353Z AUTO 03008KT 10SM BKN120 04/01 A2954 RMK AO2 SLP003 T00390011 $,PAQT,2023-05-30T03:53:00Z,70.22,-151.0,3.9,1.1,30,8,,10.0,29.53937,1000.3,,TRUE,TRUE,TRUE,,,,,,BKN,12000,,,,,,,VFR,,,,,,,,,,,,METAR,11.0
PAOT 300353Z 07004KT 10SM FEW017 OVC025 03/02 A2953 RMK AO2 RAE13 SLP001 P0000 T00330017,PAOT,2023-05-30T03:53:00Z,66.88,-162.6,3.3,1.7,70,4,,10.0,29.530512,1000.1,,,TRUE,,,,,,,FEW,1700,OVC,2500,,,,,MVFR,,,,,,0.005,,,,,,METAR,3.0
PAOR 300353Z AUTO 23004KT 10SM -RA BKN019 OVC026 06/03 A2961 RMK AO2 SLP042 P0002 T00560028 TSNO $,PAOR,2023-05-30T03:53:00Z,62.97,-141.93,5.6,2.8,230,4,,10.0,29.610237,1004.2,,TRUE,TRUE,TRUE,,TRUE,,,-RA,BKN,1900,OVC,2600,,,,,MVFR,,,,,,0.02,,,,,,METAR,524.0
PAOM 300353Z 18009KT 6SM BR OVC003 01/01 A2955 RMK AO2 SLP008 T00110011 $,PAOM,2023-05-30T03:53:00Z,64.5,-165.43,1.1,1.1,180,9,,6.0,29.551182,1000.8,,,TRUE,TRUE,,,,,BR,OVC,300,,,,,,,LIFR,,,,,,,,,,,,METAR,6.0
PANN 300353Z AUTO 10SM -RA FEW033 OVC043 09/07 A2956 RMK AO2 RAB0257 SLP017 P0001 T00890067 TSNO $,PANN,2023-05-30T03:53:00Z,64.55,-149.08,8.9,6.7,,,,10.0,29.56004,1001.7,,TRUE,TRUE,TRUE,,TRUE,,,-RA,FEW,3300,OVC,4300,,,,,VFR,,,,,,0.01,,,,,,METAR,110.0
PANC 300353Z 15011G18KT 10SM FEW045 SCT086 BKN230 12/02 A2971 RMK AO2 SLP060 SH DSNT NE T01170017,PANC,2023-05-30T03:53:00Z,61.17,-150.02,11.7,1.7,150,11,18,10.0,29.71063,1006.0,,,TRUE,,,,,,,FEW,4500,SCT,8600,BKN,23000,,,VFR,,,,,,,,,,,,METAR,39.0
PAMR 300353Z 18008G14KT 140V200 10SM CLR 13/M01 A2971 RMK AO2 SLP061 T01281011,PAMR,2023-05-30T03:53:00Z,61.22,-149.85,12.8,-1.1,180,8,14,10.0,29.71063,1006.1,,,TRUE,,,,,,,CLR,,,,,,,,VFR,,,,,,,,,,,,METAR,43.0
PAMC 300353Z AUTO 25008KT 10SM BKN045 BKN060 OVC075 10/03 A2966 RMK AO2 SLP049 T01000028 TSNO,PAMC,2023-05-30T03:53:00Z,62.97,-155.62,10.0,2.8,250,8,,10.0,29.660433,1004.9,,TRUE,TRUE,,,TRUE,,,,BKN,4500,BKN,6000,OVC,7500,,,VFR,,,,,,,,,,,,METAR,101.0
PALH 300353Z 19009KT 10SM CLR 12/00 A2972 RMK AO2 SLP064 T01220000,PALH,2023-05-30T03:53:00Z,61.18,-149.97,12.2,0.0,190,9,,10.0,29.719488,1006.4,,,TRUE,,,,,,,CLR,,,,,,,,VFR,,,,,,,,,,,,METAR,26.0
PAKW 300353Z AUTO 20004KT 10SM SCT028 BKN060 08/05 A2996 RMK AO2 RAE0245 SLP146 P0000 T00830050 TSNO $,PAKW,2023-05-30T03:53:00Z,55.58,-133.07,8.3,5.0,200,4,,10.0,29.958662,1014.6,,TRUE,TRUE,TRUE,,TRUE,,,,SCT,2800,BKN,6000,,,,,VFR,,,,,,0.005,,,,,,METAR,7.0
PAKV 300353Z AUTO 29007KT 10SM OVC055 10/01 A2963 RMK AO2 SLP035 T01000006 TSNO $,PAKV,2023-05-30T03:53:00Z,64.33,-158.72,10.0,0.6,290,7,,10.0,29.630905,1003.5,,TRUE,TRUE,TRUE,,TRUE,,,,OVC,5500,,,,,,,VFR,,,,,,,,,,,,METAR,53.0
PAKT 300353Z 00000KT 10SM SCT030 BKN035 BKN050 09/04 A2998 RMK AO2 SLP154 HARBOR WIND 14005KT T00940039,PAKT,2023-05-30T03:53:00Z,55.35,-131.72,9.4,3.9,0,0,,10.0,29.97933,1015.4,,,TRUE,,,,,,,SCT,3000,BKN,3500,BKN,5000,,,VFR,,,,,,,,,,,,METAR,27.0
PAJN 300353Z 13007KT 6SM RA BR FEW006 SCT021 OVC028 07/05 A2990 RMK AO2 SLP126 P0003 T00670050 $,PAJN,2023-05-30T03:53:00Z,58.35,-134.55,6.7,5.0,130,7,,6.0,29.899607,1012.6,,,TRUE,TRUE,,,,,RA BR,FEW,600,SCT,2100,OVC,2800,,,MVFR,,,,,,0.03,,,,,,METAR,6.0
PAIL 300353Z AUTO 22011KT 10SM CLR 11/04 A2977 RMK AO2 SLP083 T01110039 TSNO $,PAIL,2023-05-30T03:53:00Z,59.75,-154.92,11.1,3.9,220,11,,10.0,29.769686,1008.3,,TRUE,TRUE,TRUE,,TRUE,,,,CLR,,,,,,,,VFR,,,,,,,,,,,,METAR,44.0
PAHO 300353Z 23006KT 10SM SCT038 OVC095 10/04 A2978 RMK AO2 SLP085 T01000044,PAHO,2023-05-30T03:53:00Z,59.63,-151.48,10.0,4.4,230,6,,10.0,29.778543,1008.5,,,TRUE,,,,,,,SCT,3800,OVC,9500,,,,,VFR,,,,,,,,,,,,METAR,6.0
PAGY 300353Z AUTO 20021G27KT 10SM SCT035 BKN095 08/04 A2984 RMK AO2 PK WND 21028/0339 SLP104 T00830039 TSNO,PAGY,2023-05-30T03:53:00Z,59.47,-135.32,8.3,3.9,200,21,27,10.0,29.840551,1010.4,,TRUE,TRUE,,,TRUE,,,,SCT,3500,BKN,9500,,,,,VFR,,,,,,,,,,,,METAR,7.0
PAFA 300353Z 23007KT 7SM BKN024 OVC042 09/06 A2957 RMK AO2 RAB32E53 SLP018 P0000 T00940061 $,PAFA,2023-05-30T03:53:00Z,64.8,-147.87,9.4,6.1,230,7,,7.0,29.568897,1001.8,,,TRUE,TRUE,,,,,,BKN,2400,OVC,4200,,,,,MVFR,,,,,,0.005,,,,,,METAR,130.0
PAEN 300353Z 20014KT 10SM CLR 08/05 A2975 RMK AO2 SLP075 T00830050 $,PAEN,2023-05-30T03:53:00Z,60.57,-151.25,8.3,5.0,200,14,,10.0,29.749016,1007.5,,,TRUE,TRUE,,,,,,CLR,,,,,,,,VFR,,,,,,,,,,,,METAR,30.0
PAEG 300353Z AUTO VRB03KT 10SM CLR 14/03 A2952 RMK AO2 SLP998 T01390028 TSNO $,PAEG,2023-05-30T03:53:00Z,64.78,-141.15,13.9,2.8,0,3,,10.0,29.518702,999.8,,TRUE,TRUE,TRUE,,TRUE,,,,CLR,,,,,,,,VFR,,,,,,,,,,,,METAR,273.0
PADQ 300353Z 11006KT 10SM SCT065 OVC095 08/05 A2981 RMK AO2 SLP094 T00830050,PADQ,2023-05-30T03:53:00Z,57.75,-152.5,8.3,5.0,110,6,,10.0,29.811024,1009.4,,,TRUE,,,,,,,SCT,6500,OVC,9500,,,,,VFR,,,,,,,,,,,,METAR,5.0
PADE 300353Z AUTO 19009KT 10SM -RA BKN029 OVC034 06/02 A2952 RMK AO2 RAB49 SLP996 P0000 T00610022 TSNO $,PADE,2023-05-30T03:53:00Z,66.07,-162.77,6.1,2.2,190,9,,10.0,29.518702,999.6,,TRUE,TRUE,TRUE,,TRUE,,,-RA,BKN,2900,OVC,3400,,,,,MVFR,,,,,,0.005,,,,,,METAR,5.0
PACV 300353Z 11008KT 10SM BKN043 OVC065 08/03 A2983 RMK AO2 SLP103 T00780033,PACV,2023-05-30T03:53:00Z,60.5,-145.47,7.8,3.3,110,8,,10.0,29.828741,1010.3,,,TRUE,,,,,,,BKN,4300,OVC,6500,,,,,VFR,,,,,,,,,,,,METAR,15.0
PACD 300353Z AUTO 28012KT 6SM -RA BR SCT010 OVC015 05/04 A3001 RMK AO2 RAB51 SLP163 P0000 T00500039 TSNO $,PACD,2023-05-30T03:53:00Z,55.22,-162.72,5.0,3.9,280,12,,6.0,30.008858,1016.3,,TRUE,TRUE,TRUE,,TRUE,,,-RA BR,SCT,1000,OVC,1500,,,,,MVFR,,,,,,0.005,,,,,,METAR,23.0
PABT 300353Z 00000KT 10SM FEW040 SCT080 BKN110 18/03 A2941 RMK AO2 SLP964 T01780033 $,PABT,2023-05-30T03:53:00Z,66.92,-151.52,17.8,3.3,0,0,,10.0,29.409449,996.4,,,TRUE,TRUE,,,,,,FEW,4000,SCT,8000,BKN,11000,,,VFR,,,,,,,,,,,,METAR,195.0
PABR 300353Z 10004KT 10SM CLR 03/M01 A2951 RMK AO2 SLP995 T00281006 $,PABR,2023-05-30T03:53:00Z,71.28,-156.78,2.8,-0.6,100,4,,10.0,29.509842,999.5,,,TRUE,TRUE,,,,,,CLR,,,,,,,,VFR,,,,,,,,,,,,METAR,6.0
PABI 300353Z 05005KT 10SM -RA FEW022 OVC041 08/06 A2962 RMK AO2 SLP041 P0001 T00780056,PABI,2023-05-30T03:53:00Z,64.0,-145.72,7.8,5.6,50,5,,10.0,29.619095,1004.1,,,TRUE,,,,,,-RA,FEW,2200,OVC,4100,,,,,VFR,,,,,,0.01,,,,,,METAR,388.0
PABE 300353Z 20015KT 10SM OVC010 04/02 A2975 RMK AO2 SLP076 T00440022,PABE,2023-05-30T03:53:00Z,60.78,-161.83,4.4,2.2,200,15,,10.0,29.749016,1007.6,,,TRUE,,,,,,,OVC,1000,,,,,,,MVFR,,,,,,,,,,,,METAR,28.0
PAAQ 300353Z AUTO 13012KT 10SM OVC070 11/01 A2971 RMK AO2 RAB0258E07 SLP064 P0000 T01110011 TSNO $,PAAQ,2023-05-30T03:53:00Z,61.6,-149.08,11.1,1.1,130,12,,10.0,29.71063,1006.4,,TRUE,TRUE,TRUE,,TRUE,,,,OVC,7000,,,,,,,VFR,,,,,,0.005,,,,,,METAR,68.0
KZZV 300353Z AUTO 00000KT 10SM CLR 19/13 A3001 RMK AO2 SLP155 T01940133,KZZV,2023-05-30T03:53:00Z,39.95,-81.9,19.4,13.3,0,0,,10.0,30.008858,1015.5,,TRUE,TRUE,,,,,,,CLR,,,,,,,,VFR,,,,,,,,,,,,METAR,268.0
KYKM 300353Z AUTO 34014G20KT 10SM CLR 24/03 A2977 RMK AO2 SLP072 T02390028,KYKM,2023-05-30T03:53:00Z,46.57,-120.53,23.9,2.8,340,14,20,10.0,29.769686,1007.2,,TRUE,TRUE,,,,,,,CLR,,,,,,,,VFR,,,,,,,,,,,,METAR,319.0
KYIP 300353Z 00000KT 10SM CLR 18/08 A3004 RMK AO2 SLP165 T01830083,KYIP,2023-05-30T03:53:00Z,42.23,-83.53,18.3,8.3,0,0,,10.0,30.041338,1016.5,,,TRUE,,,,,,,CLR,,,,,,,,VFR,,,,,,,,,,,,METAR,215.0
KXVG 300353Z AUTO 13003KT 10SM CLR 19/08 A2983 RMK AO2,KXVG,2023-05-30T03:53:00Z,46.98,-94.2,19.0,8.0,130,3,,10.0,29.828741,,,TRUE,TRUE,,,,,,,CLR,,,,,,,,VFR,,,,,,,,,,,,METAR,407.0
KXNA 300353Z AUTO 18003KT 10SM CLR 22/15 A2997 RMK AO2 SLP136 T02170150,KXNA,2023-05-30T03:53:00Z,36.28,-94.3,21.7,15.0,180,3,,10.0,29.970472,1013.6,,TRUE,TRUE,,,,,,,CLR,,,,,,,,VFR,,,,,,,,,,,,METAR,390.0
KWVI 300353Z AUTO 27004KT 10SM FEW032 12/09 A3000 RMK AO2 SLP157 T01170094,KWVI,2023-05-30T03:53:00Z,36.93,-121.78,11.7,9.4,270,4,,10.0,30.0,1015.7,,TRUE,TRUE,,,,,,,FEW,3200,,,,,,,VFR,,,,,,,,,,,,METAR,47.0
KWST 300353Z AUTO 00000KT 10SM CLR 09/06 A3020 RMK AO2 SLP227 T00940061,KWST,2023-05-30T03:53:00Z,41.35,-71.8,9.4,6.1,0,0,,10.0,30.200787,1022.7,,TRUE,TRUE,,,,,,,CLR,,,,,,,,VFR,,,,,,,,,,,,METAR,20.0
KWRL 300353Z AUTO 18005KT 10SM CLR 14/06 A2989 RMK AO2 SLP094 T01440056,KWRL,2023-05-30T03:53:00Z,43.97,-107.95,14.4,5.6,180,5,,10.0,29.890747,1009.4,,TRUE,TRUE,,,,,,,CLR,,,,,,,,VFR,,,,,,,,,,,,METAR,1281.0
KVUO 300353Z AUTO 34005KT 10SM CLR 18/08 A2992 RMK AO2 SLP131 T01780083,KVUO,2023-05-30T03:53:00Z,45.62,-122.65,17.8,8.3,340,5,,10.0,29.920275,1013.1,,TRUE,TRUE,,,,,,,CLR,,,,,,,,VFR,,,,,,,,,,,,METAR,7.0
KVRB 300353Z 08004KT 10SM CLR 24/17 A2992 RMK AO2 SLP131 T02390172,KVRB,2023-05-30T03:53:00Z,27.65,-80.42,23.9,17.2,80,4,,10.0,29.920275,1013.1,,,TRUE,,,,,,,CLR,,,,,,,,VFR,,,,,,,,,,,,METAR,7.0
KVLD 300353Z AUTO 00000KT 10SM CLR 21/19 A2990 RMK AO1 SLP131 T02060189,KVLD,2023-05-30T03:53:00Z,30.78,-83.27,20.6,18.9,0,0,,10.0,29.899607,1013.1,,TRUE,TRUE,,,,,,,CLR,,,,,,,,VFR,,,,,,,,,,,,METAR,59.0
KVIH 300353Z AUTO 11006KT 10SM CLR 19/09 A2998 RMK AO2 SLP142 T01940094,KVIH,2023-05-30T03:53:00Z,38.13,-91.77,19.4,9.4,110,6,,10.0,29.97933,1014.2,,TRUE,TRUE,,,,,,,CLR,,,,,,,,VFR,,,,,,,,,,,,METAR,342.0
KVGT 300353Z AUTO 20010KT 10SM CLR 31/M07 A2978 RMK AO2 SLP076 T03061067,KVGT,2023-05-30T03:53:00Z,36.22,-115.2,30.6,-6.7,200,10,,10.0,29.778543,1007.6,,TRUE,TRUE,,,,,,,CLR,,,,,,,,VFR,,,,,,,,,,,,METAR,664.0
KVEL 300353Z AUTO 35004KT 10SM CLR 18/02 A2995 RMK AO2 SLP086 T01830022 $,KVEL,2023-05-30T03:53:00Z,40.45,-109.52,18.3,2.2,350,4,,10.0,29.949802,1008.6,,TRUE,TRUE,TRUE,,,,,,CLR,,,,,,,,VFR,,,,,,,,,,,,METAR,1604.0
KUUU 300353Z AUTO 08003KT 10SM CLR 09/06 A3021 RMK AO2 SLP227 T00890056,KUUU,2023-05-30T03:53:00Z,41.53,-71.28,8.9,5.6,80,3,,10.0,30.209646,1022.7,,TRUE,TRUE,,,,,,,CLR,,,,,,,,VFR,,,,,,,,,,,,METAR,45.0
KUTS 300353Z AUTO 00000KT 10SM CLR 23/17 A2994 RMK AO2 SLP132 T02330172,KUTS,2023-05-30T03:53:00Z,30.75,-95.58,23.3,17.2,0,0,,10.0,29.940945,1013.2,,TRUE,TRUE,,,,,,,CLR,,,,,,,,VFR,,,,,,,,,,,,METAR,103.0
KUNO 300353Z AUTO 00000KT 10SM CLR 17/14 A2999 RMK AO2 SLP145 T01670144 $,KUNO,2023-05-30T03:53:00Z,36.88,-91.9,16.7,14.4,0,0,,10.0,29.991142,1014.5,,TRUE,TRUE,TRUE,,,,,,CLR,,,,,,,,VFR,,,,,,,,,,,,METAR,376.0
KUIL 300353Z AUTO 30006KT 10SM OVC020 11/06 A3001 RMK AO2 SLP161 T01110061,KUIL,2023-05-30T03:53:00Z,47.93,-124.55,11.1,6.1,300,6,,10.0,30.008858,1016.1,,TRUE,TRUE,,,,,,,OVC,2000,,,,,,,MVFR,,,,,,,,,,,,METAR,58.0
KUAO 300353Z AUTO 34007KT 10SM CLR 19/07 A2990 RMK AO2 SLP122 T01890072,KUAO,2023-05-30T03:53:00Z,45.25,-122.77,18.9,7.2,340,7,,10.0,29.899607,1012.2,,TRUE,TRUE,,,,,,,CLR,,,,,,,,VFR,,,,,,,,,,,,METAR,60.0
KTYS 300353Z 00000KT 10SM SCT037 16/14 A2998 RMK AO2 SLP147 T01610139,KTYS,2023-05-30T03:53:00Z,35.82,-83.98,16.1,13.9,0,0,,10.0,29.97933,1014.7,,,TRUE,,,,,,,SCT,3700,,,,,,,VFR,,,,,,,,,,,,METAR,300.0
KTYR 300353Z AUTO 34014G21KT 10SM FEW033 BKN044 BKN120 22/16 A2998 RMK AO2 LTG DSNT SW AND W SLP144 T02170161,KTYR,2023-05-30T03:53:00Z,32.37,-95.4,21.7,16.1,340,14,21,10.0,29.97933,1014.4,,TRUE,TRUE,,,,,,,FEW,3300,BKN,4400,BKN,12000,,,VFR,,,,,,,,,,,,METAR,161.0
KTXK 300353Z AUTO 00000KT 10SM CLR 24/16 A2994 RMK AO2 SLP134 T02390161 $,KTXK,2023-05-30T03:53:00Z,33.45,-93.98,23.9,16.1,0,0,,10.0,29.940945,1013.4,,TRUE,TRUE,TRUE,,,,,,CLR,,,,,,,,VFR,,,,,,,,,,,,METAR,118.0
KTWF 300353Z AUTO 21013G23KT 10SM CLR 16/08 A2991 RMK AO2 SLP085 T01560078,KTWF,2023-05-30T03:53:00Z,42.48,-114.48,15.6,7.8,210,13,23,10.0,29.911417,1008.5,,TRUE,TRUE,,,,,,,CLR,,,,,,,,VFR,,,,,,,,,,,,METAR,1269.0
KTVR 300353Z AUTO 00000KT 9SM CLR 19/18 A2994 RMK AO2 SLP144 T01940178,KTVR,2023-05-30T03:53:00Z,32.35,-91.03,19.4,17.8,0,0,,9.0,29.940945,1014.4,,TRUE,TRUE,,,,,,,CLR,,,,,,,,VFR,,,,,,,,,,,,METAR,25.0
KTVL 300353Z AUTO 00000KT 10SM FEW110 08/08 A3005 RMK AO2 SLP139 T00830078,KTVL,2023-05-30T03:53:00Z,38.9,-120.0,8.3,7.8,0,0,,10.0,30.050198,1013.9,,TRUE,TRUE,,,,,,,FEW,11000,,,,,,,VFR,,,,,,,,,,,,METAR,1907.0
KTVC 300353Z AUTO 00000KT 10SM CLR 14/09 A3001 RMK AO2 SLP162 T01440089,KTVC,2023-05-30T03:53:00Z,44.73,-85.58,14.4,8.9,0,0,,10.0,30.008858,1016.2,,TRUE,TRUE,,,,,,,CLR,,,,,,,,VFR,,,,,,,,,,,,METAR,188.0
KTUS 300353Z 27005KT 10SM CLR 30/03 A2992 RMK AO2 SLP082 T03000033,KTUS,2023-05-30T03:53:00Z,32.13,-110.95,30.0,3.3,270,5,,10.0,29.920275,1008.2,,,TRUE,,,,,,,CLR,,,,,,,,VFR,,,,,,,,,,,,METAR,776.0
KTUP 300353Z AUTO 00000KT 10SM FEW075 22/14 A2995 RMK AO2 SLP139 T02170144 $,KTUP,2023-05-30T03:53:00Z,34.27,-88.77,21.7,14.4,0,0,,10.0,29.949802,1013.9,,TRUE,TRUE,TRUE,,,,,,FEW,7500,,,,,,,VFR,,,,,,,,,,,,METAR,107.0
KTUL 300353Z 14004KT 10SM OVC250 21/19 A2993 RMK AO2 SLP127 T02110194,KTUL,2023-05-30T03:53:00Z,36.2,-95.88,21.1,19.4,140,4,,10.0,29.929134,1012.7,,,TRUE,,,,,,,OVC,25000,,,,,,,VFR,,,,,,,,,,,,METAR,196.0
KTTN 300353Z AUTO 06007KT 10SM CLR 14/07 A3015 RMK AO2 SLP201 T01390072,KTTN,2023-05-30T03:53:00Z,40.28,-74.82,13.9,7.2,60,7,,10.0,30.15059,1020.1,,TRUE,TRUE,,,,,,,CLR,,,,,,,,VFR,,,,,,,,,,,,METAR,58.0
KTTD 300353Z 31008KT 10SM CLR 19/08 A2989 RMK AO2 SLP123 T01890083,KTTD,2023-05-30T03:53:00Z,45.55,-122.42,18.9,8.3,310,8,,10.0,29.890747,1012.3,,,TRUE,,,,,,,CLR,,,,,,,,VFR,,,,,,,,,,,,METAR,8.0
KTRI 300353Z 00000KT 10SM SCT090 14/14 A3002 RMK AO2 SLP148 T01440139,KTRI,2023-05-30T03:53:00Z,36.48,-82.4,14.4,13.9,0,0,,10.0,30.02067,1014.8,,,TRUE,,,,,,,SCT,9000,,,,,,,VFR,,,,,,,,,,,,METAR,456.0
KTPA 300353Z 36003KT 10SM FEW250 23/18 A2993 RMK AO2 SLP135 T02280183,KTPA,2023-05-30T03:53:00Z,27.97,-82.53,22.8,18.3,360,3,,10.0,29.929134,1013.5,,,TRUE,,,,,,,FEW,25000,,,,,,,VFR,,,,,,,,,,,,METAR,2.0
KTOR 300353Z AUTO 11005KT 10SM CLR 15/11 A2992 RMK AO2 SLP090 T01500111,KTOR,2023-05-30T03:53:00Z,42.07,-104.15,15.0,11.1,110,5,,10.0,29.920275,1009.0,,TRUE,TRUE,,,,,,,CLR,,,,,,,,VFR,,,,,,,,,,,,METAR,1285.0
KTOP 300353Z AUTO 00000KT 10SM CLR 22/14 A2993 RMK AO2 SLP127 T02170144 $,KTOP,2023-05-30T03:53:00Z,39.07,-95.63,21.7,14.4,0,0,,10.0,29.929134,1012.7,,TRUE,TRUE,TRUE,,,,,,CLR,,,,,,,,VFR,,,,,,,,,,,,METAR,268.0
KTOI 300353Z AUTO 00000KT 10SM CLR 18/16 A2994 RMK AO2 SLP135 T01830156,KTOI,2023-05-30T03:53:00Z,31.85,-86.02,18.3,15.6,0,0,,10.0,29.940945,1013.5,,TRUE,TRUE,,,,,,,CLR,,,,,,,,VFR,,,,,,,,,,,,METAR,120.0
KTMB 300353Z AUTO 08005KT 10SM CLR 26/22 A2989 RMK AO2 SLP122 T02560217 $,KTMB,2023-05-30T03:53:00Z,25.65,-80.43,25.6,21.7,80,5,,10.0,29.890747,1012.2,,TRUE,TRUE,TRUE,,,,,,CLR,,,,,,,,VFR,,,,,,,,,,,,METAR,2.0
KTLH 300353Z AUTO 25004KT 10SM CLR 21/18 A2992 RMK AO2 SLP129 T02110183,KTLH,2023-05-30T03:53:00Z,30.4,-84.35,21.1,18.3,250,4,,10.0,29.920275,1012.9,,TRUE,TRUE,,,,,,,CLR,,,,,,,,VFR,,,,,,,,,,,,METAR,17.0
KTKI 300353Z AUTO 13008KT 10SM FEW085 20/18 A2994 RMK AO2 SLP134 T02000178,KTKI,2023-05-30T03:53:00Z,33.18,-96.58,20.0,17.8,130,8,,10.0,29.940945,1013.4,,TRUE,TRUE,,,,,,,FEW,8500,,,,,,,VFR,,,,,,,,,,,,METAR,173.0
KTIW 300353Z AUTO 24006KT 10SM CLR 15/07 A2993 RMK AO2 SLP135 T01500072,KTIW,2023-05-30T03:53:00Z,47.27,-122.58,15.0,7.2,240,6,,10.0,29.929134,1013.5,,TRUE,TRUE,,,,,,,CLR,,,,,,,,VFR,,,,,,,,,,,,METAR,89.0
KTHV 300353Z AUTO 10008KT 10SM CLR 16/07 A3013 RMK AO2 SLP201 T01610072,KTHV,2023-05-30T03:53:00Z,39.92,-76.88,16.1,7.2,100,8,,10.0,30.129921,1020.1,,TRUE,TRUE,,,,,,,CLR,,,,,,,,VFR,,,,,,,,,,,,METAR,141.0
KTDZ 300353Z AUTO 07004KT 10SM CLR 19/09 A3003 RMK AO2 SLP164 T01890089,KTDZ,2023-05-30T03:53:00Z,41.57,-83.48,18.9,8.9,70,4,,10.0,30.029528,1016.4,,TRUE,TRUE,,,,,,,CLR,,,,,,,,VFR,,,,,,,,,,,,METAR,189.0
KTCS 300353Z AUTO 26005KT 10SM CLR 24/M04 A3000 RMK AO2 SLP070 T02391039 $,KTCS,2023-05-30T03:53:00Z,33.23,-107.27,23.9,-3.9,260,5,,10.0,30.0,1007.0,,TRUE,TRUE,TRUE,,,,,,CLR,,,,,,,,VFR,,,,,,,,,,,,METAR,1471.0
KTCL 300353Z AUTO 00000KT 10SM CLR 18/16 A2995 RMK AO2 SLP142 T01830161,KTCL,2023-05-30T03:53:00Z,33.22,-87.62,18.3,16.1,0,0,,10.0,29.949802,1014.2,,TRUE,TRUE,,,,,,,CLR,,,,,,,,VFR,,,,,,,,,,,,METAR,48.0
KSWO 300353Z 15004KT 10SM CLR 21/17 A2993 RMK AO2 SLP122 T02110167,KSWO,2023-05-30T03:53:00Z,36.17,-97.08,21.1,16.7,150,4,,10.0,29.929134,1012.2,,,TRUE,,,,,,,CLR,,,,,,,,VFR,,,,,,,,,,,,METAR,293.0
KSTS 300353Z AUTO 23006KT 10SM CLR 14/08 A2998 RMK AO2 SLP145 T01390083,KSTS,2023-05-30T03:53:00Z,38.5,-122.82,13.9,8.3,230,6,,10.0,29.97933,1014.5,,TRUE,TRUE,,,,,,,CLR,,,,,,,,VFR,,,,,,,,,,,,METAR,35.0
KSTP 300353Z AUTO 15010KT 10SM CLR 23/09 A2987 RMK AO2 SLP107 T02280094,KSTP,2023-05-30T03:53:00Z,44.93,-93.05,22.8,9.4,150,10,,10.0,29.870079,1010.7,,TRUE,TRUE,,,,,,,CLR,,,,,,,,VFR,,,,,,,,,,,,METAR,213.0
KSTJ 300353Z AUTO 18004KT 10SM CLR 22/14 A2993 RMK AO2 SLP127 T02170144,KSTJ,2023-05-30T03:53:00Z,39.77,-94.92,21.7,14.4,180,4,,10.0,29.929134,1012.7,,TRUE,TRUE,,,,,,,CLR,,,,,,,,VFR,,,,,,,,,,,,METAR,247.0
KSSI 300353Z AUTO 14006KT 10SM BKN080 OVC110 25/20 A2990 RMK AO2 SLP124 T02500200,KSSI,2023-05-30T03:53:00Z,31.15,-81.38,25.0,20.0,140,6,,10.0,29.899607,1012.4,,TRUE,TRUE,,,,,,,BKN,8000,OVC,11000,,,,,VFR,,,,,,,,,,,,METAR,6.0
KSSF 300353Z AUTO 35003KT 10SM CLR 19/18 A2990 RMK AO2 SLP116 T01940183 $,KSSF,2023-05-30T03:53:00Z,29.33,-98.47,19.4,18.3,350,3,,10.0,29.899607,1011.6,,TRUE,TRUE,TRUE,,,,,,CLR,,,,,,,,VFR,,,,,,,,,,,,METAR,175.0
KSRQ 300353Z AUTO 01005KT 10SM CLR 24/17 A2991 RMK AO2 SLP126 T02390172,KSRQ,2023-05-30T03:53:00Z,27.4,-82.57,23.9,17.2,10,5,,10.0,29.911417,1012.6,,TRUE,TRUE,,,,,,,CLR,,,,,,,,VFR,,,,,,,,,,,,METAR,5.0
KSPW 300353Z AUTO 12009KT 10SM CLR 24/13 A2986 RMK AO2 SLP103 T02390128,KSPW,2023-05-30T03:53:00Z,43.17,-95.22,23.9,12.8,120,9,,10.0,29.861221,1010.3,,TRUE,TRUE,,,,,,,CLR,,,,,,,,VFR,,,,,,,,,,,,METAR,407.0
KSPG 300353Z AUTO 35004KT 10SM CLR 24/19 A2991 RMK AO2 SLP127 T02390194,KSPG,2023-05-30T03:53:00Z,27.77,-82.63,23.9,19.4,350,4,,10.0,29.911417,1012.7,,TRUE,TRUE,,,,,,,CLR,,,,,,,,VFR,,,,,,,,,,,,METAR,1.0
KSPB 300353Z AUTO 33010KT 10SM CLR 16/08 A2991 RMK AO2 SLP129 T01560078,KSPB,2023-05-30T03:53:00Z,45.77,-122.87,15.6,7.8,330,10,,10.0,29.911417,1012.9,,TRUE,TRUE,,,,,,,CLR,,,,,,,,VFR,,,,,,,,,,,,METAR,15.0
KSNY 300353Z AUTO 13005KT 10SM FEW090 14/11 A2995 RMK AO2 LTG DSNT NE AND E SLP102 T01440106 $,KSNY,2023-05-30T03:53:00Z,41.1,-102.98,14.4,10.6,130,5,,10.0,29.949802,1010.2,,TRUE,TRUE,TRUE,,,,,,FEW,9000,,,,,,,VFR,,,,,,,,,,,,METAR,1307.0
KSNS 300353Z AUTO 32007KT 10SM OVC018 16/10 A2999 RMK AO2 SLP164 T01560100 $,KSNS,2023-05-30T03:53:00Z,36.67,-121.6,15.6,10.0,320,7,,10.0,29.991142,1016.4,,TRUE,TRUE,TRUE,,,,,,OVC,1800,,,,,,,MVFR,,,,,,,,,,,,METAR,20.0
KSNA 300353Z 17004KT 10SM OVC029 18/12 A2998 RMK AO2 SLP152 T01780122,KSNA,2023-05-30T03:53:00Z,33.67,-117.87,17.8,12.2,170,4,,10.0,29.97933,1015.2,,,TRUE,,,,,,,OVC,2900,,,,,,,MVFR,,,,,,,,,,,,METAR,14.0
KSMQ 300353Z AUTO 10005KT 10SM CLR 14/07 A3016 RMK AO2 SLP212 T01440072,KSMQ,2023-05-30T03:53:00Z,40.62,-74.67,14.4,7.2,100,5,,10.0,30.159449,1021.2,,TRUE,TRUE,,,,,,,CLR,,,,,,,,VFR,,,,,,,,,,,,METAR,30.0
KSMF 300353Z 20011KT 10SM BKN100 18/10 A2988 RMK AO2 SLP117 T01780100,KSMF,2023-05-30T03:53:00Z,38.7,-121.6,17.8,10.0,200,11,,10.0,29.878937,1011.7,,,TRUE,,,,,,,BKN,10000,,,,,,,VFR,,,,,,,,,,,,METAR,7.0
KSLN 300353Z 14009KT 10SM CLR 22/17 A2991 RMK AO2 SLP117 T02220172,KSLN,2023-05-30T03:53:00Z,38.8,-97.65,22.2,17.2,140,9,,10.0,29.911417,1011.7,,,TRUE,,,,,,,CLR,,,,,,,,VFR,,,,,,,,,,,,METAR,377.0
KSJC 300353Z 30005KT 10SM FEW006 FEW070 BKN150 16/09 A2996 RMK AO2 SLP145 T01610089,KSJC,2023-05-30T03:53:00Z,37.37,-121.92,16.1,8.9,300,5,,10.0,29.958662,1014.5,,,TRUE,,,,,,,FEW,600,FEW,7000,BKN,15000,,,VFR,,,,,,,,,,,,METAR,13.0
KSIY 300353Z AUTO 14010KT 10SM OVC065 17/13 A2994 RMK AO2 LTG DSNT S RAE28 TSB0254E11B21E36 SLP136 P0000 T01670128,KSIY,2023-05-30T03:53:00Z,41.77,-122.47,16.7,12.8,140,10,,10.0,29.940945,1013.6,,TRUE,TRUE,,,,,,,OVC,6500,,,,,,,VFR,,,,,,0.005,,,,,,METAR,807.0
KSHR 300353Z AUTO 00000KT 10SM BKN100 14/09 A2990 RMK AO2 SLP100 T01440089,KSHR,2023-05-30T03:53:00Z,44.77,-106.97,14.4,8.9,0,0,,10.0,29.899607,1010.0,,TRUE,TRUE,,,,,,,BKN,10000,,,,,,,VFR,,,,,,,,,,,,METAR,1212.0
KSHN 300353Z AUTO 24009KT 10SM CLR 12/07 A2991 RMK AO2 SLP130 T01220067,KSHN,2023-05-30T03:53:00Z,47.23,-123.13,12.2,6.7,240,9,,10.0,29.911417,1013.0,,TRUE,TRUE,,,,,,,CLR,,,,,,,,VFR,,,,,,,,,,,,METAR,84.0
KSGR 300353Z AUTO 13005KT 10SM OVC120 26/21 A2993 RMK AO2 SLP134 T02560206,KSGR,2023-05-30T03:53:00Z,29.62,-95.65,25.6,20.6,130,5,,10.0,29.929134,1013.4,,TRUE,TRUE,,,,,,,OVC,12000,,,,,,,VFR,,,,,,,,,,,,METAR,22.0
KSFF 300353Z AUTO 00000KT 10SM CLR 19/07 A2976 RMK AO2 SLP066 T01940067,KSFF,2023-05-30T03:53:00Z,47.68,-117.32,19.4,6.7,0,0,,10.0,29.760826,1006.6,,TRUE,TRUE,,,,,,,CLR,,,,,,,,VFR,,,,,,,,,,,,METAR,593.0
KSFB 300353Z AUTO 20003KT 10SM CLR 23/17 A2992 RMK AO2 SLP131 T02330167,KSFB,2023-05-30T03:53:00Z,28.77,-81.23,23.3,16.7,200,3,,10.0,29.920275,1013.1,,TRUE,TRUE,,,,,,,CLR,,,,,,,,VFR,,,,,,,,,,,,METAR,16.0
KSEG 300353Z AUTO 13012G18KT 10SM CLR 19/07 A3014 RMK AO2 SLP202 T01890067,KSEG,2023-05-30T03:53:00Z,40.82,-76.87,18.9,6.7,130,12,18,10.0,30.138779,1020.2,,TRUE,TRUE,,,,,,,CLR,,,,,,,,VFR,,,,,,,,,,,,METAR,136.0
KSEA 300353Z 25008KT 10SM BKN043 17/09 A2992 RMK AO2 SLP136 T01720094,KSEA,2023-05-30T03:53:00Z,47.45,-122.32,17.2,9.4,250,8,,10.0,29.920275,1013.6,,,TRUE,,,,,,,BKN,4300,,,,,,,VFR,,,,,,,,,,,,METAR,115.0
KSDM 300353Z AUTO 27004KT 10SM OVC022 15/11 A2999 RMK AO2 SLP152 T01500111,KSDM,2023-05-30T03:53:00Z,32.58,-117.0,15.0,11.1,270,4,,10.0,29.991142,1015.2,,TRUE,TRUE,,,,,,,OVC,2200,,,,,,,MVFR,,,,,,,,,,,,METAR,161.0
KSDL 300353Z AUTO 26010G17KT 10SM CLR 31/M06 A2984 RMK AO2 SLP078 T03061056,KSDL,2023-05-30T03:53:00Z,33.62,-111.92,30.6,-5.6,260,10,17,10.0,29.840551,1007.8,,TRUE,TRUE,,,,,,,CLR,,,,,,,,VFR,,,,,,,,,,,,METAR,438.0
KSBM 300353Z AUTO 00000KT 10SM CLR 14/09 A3001 RMK AO2 SLP159 T01390094 $,KSBM,2023-05-30T03:53:00Z,43.78,-87.85,13.9,9.4,0,0,,10.0,30.008858,1015.9,,TRUE,TRUE,TRUE,,,,,,CLR,,,,,,,,VFR,,,,,,,,,,,,METAR,225.0
KSBA 300353Z 26005KT 10SM OVC039 16/11 A2997 RMK AO2 SLP149 T01610111 $,KSBA,2023-05-30T03:53:00Z,34.43,-119.85,16.1,11.1,260,5,,10.0,29.970472,1014.9,,,TRUE,TRUE,,,,,,OVC,3900,,,,,,,VFR,,,,,,,,,,,,METAR,2.0
KSAV 300353Z 10003KT 10SM SCT120 21/17 A2991 RMK AO2 SLP128 LAST T02060167,KSAV,2023-05-30T03:53:00Z,32.12,-81.2,20.6,16.7,100,3,,10.0,29.911417,1012.8,,,TRUE,,,,,,,SCT,12000,,,,,,,VFR,,,,,,,,,,,,METAR,10.0
KSAF 300353Z AUTO 01004KT 10SM CLR 17/M08 A3007 RMK AO2 SLP087 T01721078,KSAF,2023-05-30T03:53:00Z,35.62,-106.1,17.2,-7.8,10,4,,10.0,30.070866,1008.7,,TRUE,TRUE,,,,,,,CLR,,,,,,,,VFR,,,,,,,,,,,,METAR,1918.0
KSAC 300353Z AUTO 21011G17KT 10SM BKN110 16/10 A2990 RMK AO2 SLP124 T01610100,KSAC,2023-05-30T03:53:00Z,38.5,-121.5,16.1,10.0,210,11,17,10.0,29.899607,1012.4,,TRUE,TRUE,,,,,,,BKN,11000,,,,,,,VFR,,,,,,,,,,,,METAR,5.0
KRXE 300353Z AUTO 17007KT 10SM BKN110 15/08 A2999 RMK AO2 RAE33 SLP126 P0000 T01500078,KRXE,2023-05-30T03:53:00Z,43.83,-111.8,15.0,7.8,170,7,,10.0,29.991142,1012.6,,TRUE,TRUE,,,,,,,BKN,11000,,,,,,,VFR,,,,,,0.005,,,,,,METAR,1483.0
KRWL 300353Z AUTO 00000KT 10SM FEW100 14/00 A3008 RMK AO2 PK WND 33031/0254 SLP105 T01390000,KRWL,2023-05-30T03:53:00Z,41.8,-107.2,13.9,0.0,0,0,,10.0,30.079725,1010.5,,TRUE,TRUE,,,,,,,FEW,10000,,,,,,,VFR,,,,,,,,,,,,METAR,2066.0
KRWI 300353Z AUTO 00000KT 10SM SCT043 BKN050 18/17 A2996 RMK AO2 SLP145 T01830167,KRWI,2023-05-30T03:53:00Z,35.85,-77.9,18.3,16.7,0,0,,10.0,29.958662,1014.5,,TRUE,TRUE,,,,,,,SCT,4300,BKN,5000,,,,,VFR,,,,,,,,,,,,METAR,46.0
KRWF 300353Z AUTO 15012KT 10SM CLR 21/14 A2982 RMK AO2 SLP090 T02060144,KRWF,2023-05-30T03:53:00Z,44.55,-95.08,20.6,14.4,150,12,,10.0,29.819881,1009.0,,TRUE,TRUE,,,,,,,CLR,,,,,,,,VFR,,,,,,,,,,,,METAR,312.0
KRVS 300353Z AUTO 00000KT 10SM CLR 21/18 A2992 RMK AO2 SLP136 T02110183,KRVS,2023-05-30T03:53:00Z,36.05,-95.98,21.1,18.3,0,0,,10.0,29.920275,1013.6,,TRUE,TRUE,,,,,,,CLR,,,,,,,,VFR,,,,,,,,,,,,METAR,191.0
KRUE 300353Z AUTO 00000KT 10SM CLR 20/14 A2993 RMK AO2 SLP129 T02000139 $,KRUE,2023-05-30T03:53:00Z,35.25,-93.1,20.0,13.9,0,0,,10.0,29.929134,1012.9,,TRUE,TRUE,TRUE,,,,,,CLR,,,,,,,,VFR,,,,,,,,,,,,METAR,119.0
KRTN 300353Z AUTO 25005KT 10SM CLR 14/06 A3010 RMK AO2 SLP122 T01390056,KRTN,2023-05-30T03:53:00Z,36.73,-104.5,13.9,5.6,250,5,,10.0,30.100393,1012.2,,TRUE,TRUE,,,,,,,CLR,,,,,,,,VFR,,,,,,,,,,,,METAR,1939.0
KRSW 300353Z AUTO 09004KT 10SM CLR 24/21 A2992 RMK AO2 SLP128 T02440206,KRSW,2023-05-30T03:53:00Z,26.53,-81.75,24.4,20.6,90,4,,10.0,29.920275,1012.8,,TRUE,TRUE,,,,,,,CLR,,,,,,,,VFR,,,,,,,,,,,,METAR,8.0
KRSL 300353Z AUTO 17009KT 10SM CLR 22/16 A2989 RMK AO2 SLP107 T02170156,KRSL,2023-05-30T03:53:00Z,38.87,-98.82,21.7,15.6,170,9,,10.0,29.890747,1010.7,,TRUE,TRUE,,,,,,,CLR,,,,,,,,VFR,,,,,,,,,,,,METAR,569.0
KRQE 300353Z AUTO 00000KT 10SM CLR 13/M05 A3014 RMK AO2 SLP103 T01331050,KRQE,2023-05-30T03:53:00Z,35.65,-109.07,13.3,-5.0,0,0,,10.0,30.138779,1010.3,,TRUE,TRUE,,,,,,,CLR,,,,,,,,VFR,,,,,,,,,,,,METAR,2056.0
KRNT 300353Z 00000KT 6SM SCT049 19/11 A2990 RMK AO2 SLP129 T01940111,KRNT,2023-05-30T03:53:00Z,47.5,-122.22,19.4,11.1,0,0,,6.0,29.899607,1012.9,,,TRUE,,,,,,,SCT,4900,,,,,,,VFR,,,,,,,,,,,,METAR,7.0
KRNM 300353Z AUTO 27006KT 10SM FEW008 OVC019 14/12 A2998 RMK AO2 SLP145 T01390117 $,KRNM,2023-05-30T03:53:00Z,33.03,-116.92,13.9,11.7,270,6,,10.0,29.97933,1014.5,,TRUE,TRUE,TRUE,,,,,,FEW,800,OVC,1900,,,,,MVFR,,,,,,,,,,,,METAR,423.0
KRMG 300353Z AUTO 17003KT 10SM CLR 16/13 A2995 RMK AO2 SLP135 T01560133,KRMG,2023-05-30T03:53:00Z,34.35,-85.17,15.6,13.3,170,3,,10.0,29.949802,1013.5,,TRUE,TRUE,,,,,,,CLR,,,,,,,,VFR,,,,,,,,,,,,METAR,196.0
KRME 300353Z AUTO 09008KT 10SM CLR 20/08 A3008 RMK AO2 SLP182 T02000083,KRME,2023-05-30T03:53:00Z,43.22,-75.4,20.0,8.3,90,8,,10.0,30.079725,1018.2,,TRUE,TRUE,,,,,,,CLR,,,,,,,,VFR,,,,,,,,,,,,METAR,146.0
KRKP 300353Z AUTO 13004KT 7SM CLR 26/22 A2991 RMK AO2 SLP129 T02560217,KRKP,2023-05-30T03:53:00Z,28.08,-97.05,25.6,21.7,130,4,,7.0,29.911417,1012.9,,TRUE,TRUE,,,,,,,CLR,,,,,,,,VFR,,,,,,,,,,,,METAR,8.0
KRIW 300353Z AUTO 32012KT 10SM CLR 16/03 A2999 RMK AO2 SLP099 T01560033,KRIW,2023-05-30T03:53:00Z,43.07,-108.43,15.6,3.3,320,12,,10.0,29.991142,1009.9,,TRUE,TRUE,,,,,,,CLR,,,,,,,,VFR,,,,,,,,,,,,METAR,1662.0
KRIL 300353Z AUTO 07007KT 10SM CLR 18/00 A2998 RMK AO2 SLP093 T01780000,KRIL,2023-05-30T03:53:00Z,39.53,-107.73,17.8,0.0,70,7,,10.0,29.97933,1009.3,,TRUE,TRUE,,,,,,,CLR,,,,,,,,VFR,,,,,,,,,,,,METAR,1683.0
KRHI 300353Z AUTO 00000KT 10SM CLR 14/09 A3001 RMK AO2 SLP157 T01440089 $,KRHI,2023-05-30T03:53:00Z,45.63,-89.48,14.4,8.9,0,0,,10.0,30.008858,1015.7,,TRUE,TRUE,TRUE,,,,,,CLR,,,,,,,,VFR,,,,,,,,,,,,METAR,493.0
KRDD 300353Z AUTO 17008KT 10SM BKN085 24/14 A2982 RMK AO2 SLP094 T02440144,KRDD,2023-05-30T03:53:00Z,40.52,-122.3,24.4,14.4,170,8,,10.0,29.819881,1009.4,,TRUE,TRUE,,,,,,,BKN,8500,,,,,,,VFR,,,,,,,,,,,,METAR,152.0
KRBG 300353Z AUTO 33007KT 10SM CLR 23/08 A2987 RMK AO2 SLP112 T02280078,KRBG,2023-05-30T03:53:00Z,43.23,-123.35,22.8,7.8,330,7,,10.0,29.870079,1011.2,,TRUE,TRUE,,,,,,,CLR,,,,,,,,VFR,,,,,,,,,,,,METAR,152.0
KRBD 300353Z AUTO 14011KT 10SM CLR 21/18 A2994 RMK AO2 SLP131 T02060183,KRBD,2023-05-30T03:53:00Z,32.68,-96.87,20.6,18.3,140,11,,10.0,29.940945,1013.1,,TRUE,TRUE,,,,,,,CLR,,,,,,,,VFR,,,,,,,,,,,,METAR,200.0
KRAL 300353Z AUTO 27006KT 10SM CLR 15/12 A2997 RMK AO2 SLP137 T01500117 $,KRAL,2023-05-30T03:53:00Z,33.95,-117.45,15.0,11.7,270,6,,10.0,29.970472,1013.7,,TRUE,TRUE,TRUE,,,,,,CLR,,,,,,,,VFR,,,,,,,,,,,,METAR,254.0
KRAC 300353Z AUTO 00000KT 10SM CLR 16/07 A3001 RMK AO2 SLP160 T01560067,KRAC,2023-05-30T03:53:00Z,42.77,-87.82,15.6,6.7,0,0,,10.0,30.008858,1016.0,,TRUE,TRUE,,,,,,,CLR,,,,,,,,VFR,,,,,,,,,,,,METAR,203.0
KPWA 300353Z AUTO 17004KT 10SM CLR 21/17 A2993 RMK AO2 SLP122 T02060172,KPWA,2023-05-30T03:53:00Z,35.53,-97.65,20.6,17.2,170,4,,10.0,29.929134,1012.2,,TRUE,TRUE,,,,,,,CLR,,,,,,,,VFR,,,,,,,,,,,,METAR,390.0
KPUW 300353Z AUTO 28005KT 10SM CLR 19/02 A2982 RMK AO2 SLP086 T01890022,KPUW,2023-05-30T03:53:00Z,46.75,-117.12,18.9,2.2,280,5,,10.0,29.819881,1008.6,,TRUE,TRUE,,,,,,,CLR,,,,,,,,VFR,,,,,,,,,,,,METAR,774.0
KPUC 300353Z AUTO 01007KT 10SM CLR 15/M03 A2998 RMK AO2 SLP094 T01501033,KPUC,2023-05-30T03:53:00Z,39.62,-110.75,15.0,-3.3,10,7,,10.0,29.97933,1009.4,,TRUE,TRUE,,,,,,,CLR,,,,,,,,VFR,,,,,,,,,,,,METAR,1777.0
KPUB 300353Z 11016G28KT 10SM CLR 18/06 A2995 RMK AO2 PK WND 07029/0255 SLP084 T01830061,KPUB,2023-05-30T03:53:00Z,38.28,-104.5,18.3,6.1,110,16,28,10.0,29.949802,1008.4,,,TRUE,,,,,,,CLR,,,,,,,,VFR,,,,,,,,,,,,METAR,1441.0
KPTK 300353Z 09005KT 10SM CLR 19/06 A3005 RMK SLPNO LAST,KPTK,2023-05-30T03:53:00Z,42.67,-83.42,19.0,6.0,90,5,,10.0,30.050198,,,,,,,,,,,CLR,,,,,,,,VFR,,,,,,,,,,,,METAR,295.0
KPSX 300353Z AUTO 07005KT 10SM CLR 24/21 A2991 RMK AO2 SLP127 T02390206,KPSX,2023-05-30T03:53:00Z,28.72,-96.25,23.9,20.6,70,5,,10.0,29.911417,1012.7,,TRUE,TRUE,,,,,,,CLR,,,,,,,,VFR,,,,,,,,,,,,METAR,4.0
KPSP 300353Z 32018KT 10SM CLR 25/11 A2980 RMK AO2 PK WND 32026/0339 SLP088 T02500106 $,KPSP,2023-05-30T03:53:00Z,33.82,-116.5,25.0,10.6,320,18,,10.0,29.799213,1008.8,,,TRUE,TRUE,,,,,,CLR,,,,,,,,VFR,,,,,,,,,,,,METAR,123.0
KPSC 300353Z 24004KT 10SM CLR 27/06 A2970 RMK AO2 SLP054 T02670061,KPSC,2023-05-30T03:53:00Z,46.27,-119.12,26.7,6.1,240,4,,10.0,29.698818,1005.4,,,TRUE,,,,,,,CLR,,,,,,,,VFR,,,,,,,,,,,,METAR,121.0
KPRC 300353Z 19005KT 10SM CLR 18/M02 A3005 RMK AO2 SLP103 T01831017,KPRC,2023-05-30T03:53:00Z,34.65,-112.42,18.3,-1.7,190,5,,10.0,30.050198,1010.3,,,TRUE,,,,,,,CLR,,,,,,,,VFR,,,,,,,,,,,,METAR,1528.0
KPRB 300353Z AUTO 20004KT 10SM OVC027 14/08 A2998 RMK AO2 SLP149 T01390083,KPRB,2023-05-30T03:53:00Z,35.67,-120.63,13.9,8.3,200,4,,10.0,29.97933,1014.9,,TRUE,TRUE,,,,,,,OVC,2700,,,,,,,MVFR,,,,,,,,,,,,METAR,249.0
KPQL 300353Z AUTO 00000KT 7SM CLR 20/19 A2993 RMK AO2 SLP135 T02000189,KPQL,2023-05-30T03:53:00Z,30.47,-88.53,20.0,18.9,0,0,,7.0,29.929134,1013.5,,TRUE,TRUE,,,,,,,CLR,,,,,,,,VFR,,,,,,,,,,,,METAR,4.0
KPOU 300353Z AUTO 15003KT 10SM CLR 14/07 A3019 RMK AO2 SLP219 T01440072,KPOU,2023-05-30T03:53:00Z,41.63,-73.88,14.4,7.2,150,3,,10.0,30.188976,1021.9,,TRUE,TRUE,,,,,,,CLR,,,,,,,,VFR,,,,,,,,,,,,METAR,45.0
KPOF 300353Z AUTO 00000KT 10SM CLR 18/14 A2995 RMK AO2 SLP137 T01830144,KPOF,2023-05-30T03:53:00Z,36.77,-90.32,18.3,14.4,0,0,,10.0,29.949802,1013.7,,TRUE,TRUE,,,,,,,CLR,,,,,,,,VFR,,,,,,,,,,,,METAR,99.0
KPNS 300353Z 01003KT 10SM CLR 23/19 A2992 RMK AO2 SLP134 T02330194,KPNS,2023-05-30T03:53:00Z,30.48,-87.18,23.3,19.4,10,3,,10.0,29.920275,1013.4,,,TRUE,,,,,,,CLR,,,,,,,,VFR,,,,,,,,,,,,METAR,34.0
KPNC 300353Z AUTO 18004KT 10SM CLR 23/16 A2993 RMK AO2 SLP123 T02280161,KPNC,2023-05-30T03:53:00Z,36.73,-97.1,22.8,16.1,180,4,,10.0,29.929134,1012.3,,TRUE,TRUE,,,,,,,CLR,,,,,,,,VFR,,,,,,,,,,,,METAR,304.0
KPMP 300353Z AUTO 06006KT 10SM FEW060 27/22 A2991 RMK AO2 SLP127 T02670217,KPMP,2023-05-30T03:53:00Z,26.25,-80.12,26.7,21.7,60,6,,10.0,29.911417,1012.7,,TRUE,TRUE,,,,,,,FEW,6000,,,,,,,VFR,,,,,,,,,,,,METAR,4.0
KPMD 300353Z 25007KT 10SM CLR 16/05 A2992 RMK AO2 SLP113 T01610050,KPMD,2023-05-30T03:53:00Z,34.63,-118.08,16.1,5.0,250,7,,10.0,29.920275,1011.3,,,TRUE,,,,,,,CLR,,,,,,,,VFR,,,,,,,,,,,,METAR,764.0
KPKD 300353Z AUTO 14008KT 10SM SCT110 19/14 A2980 RMK AO2 SLP085 T01890144,KPKD,2023-05-30T03:53:00Z,46.9,-95.07,18.9,14.4,140,8,,10.0,29.799213,1008.5,,TRUE,TRUE,,,,,,,SCT,11000,,,,,,,VFR,,,,,,,,,,,,METAR,439.0
KPKB 300353Z AUTO 00000KT 10SM BKN075 BKN100 17/16 A3002 RMK AO2 SLP158 T01670156,KPKB,2023-05-30T03:53:00Z,39.35,-81.43,16.7,15.6,0,0,,10.0,30.02067,1015.8,,TRUE,TRUE,,,,,,,BKN,7500,BKN,10000,,,,,VFR,,,,,,,,,,,,METAR,245.0
KPIR 300353Z AUTO 36004KT 10SM SCT080 19/15 A2975 RMK AO2 SLP064 T01890150,KPIR,2023-05-30T03:53:00Z,44.38,-100.28,18.9,15.0,360,4,,10.0,29.749016,1006.4,,TRUE,TRUE,,,,,,,SCT,8000,,,,,,,VFR,,,,,,,,,,,,METAR,524.0
KPIL 300353Z AUTO 13007KT 10SM FEW080 27/22 A2987 RMK AO2 LTG DSNT W SLP115 T02670222,KPIL,2023-05-30T03:53:00Z,26.17,-97.33,26.7,22.2,130,7,,10.0,29.870079,1011.5,,TRUE,TRUE,,,,,,,FEW,8000,,,,,,,VFR,,,,,,,,,,,,METAR,5.0
KPIH 300353Z 17005KT 10SM CLR 16/06 A2996 RMK AO2 SLP110 T01560056,KPIH,2023-05-30T03:53:00Z,42.92,-112.57,15.6,5.6,170,5,,10.0,29.958662,1011.0,,,TRUE,,,,,,,CLR,,,,,,,,VFR,,,,,,,,,,,,METAR,1357.0
KPIE 300353Z AUTO 35004KT 10SM CLR 23/19 A2993 RMK AO2 SLP133 T02280194,KPIE,2023-05-30T03:53:00Z,27.92,-82.68,22.8,19.4,350,4,,10.0,29.929134,1013.3,,TRUE,TRUE,,,,,,,CLR,,,,,,,,VFR,,,,,,,,,,,,METAR,1.0
KPHD 300353Z AUTO 00000KT 10SM CLR 18/14 A3002 RMK AO2 SLP159 T01830139,KPHD,2023-05-30T03:53:00Z,40.47,-81.42,18.3,13.9,0,0,,10.0,30.02067,1015.9,,TRUE,TRUE,,,,,,,CLR,,,,,,,,VFR,,,,,,,,,,,,METAR,272.0
KPGD 300353Z AUTO 03006KT 10SM CLR 23/17 A2994 RMK AO2 SLP136 T02330172,KPGD,2023-05-30T03:53:00Z,26.92,-82.0,23.3,17.2,30,6,,10.0,29.940945,1013.6,,TRUE,TRUE,,,,,,,CLR,,,,,,,,VFR,,,,,,,,,,,,METAR,7.0
KPGA 300353Z AUTO 23006KT 10SM CLR 27/M10 A2992 RMK AO2 SLP065 T02721100,KPGA,2023-05-30T03:53:00Z,36.92,-111.45,27.2,-10.0,230,6,,10.0,29.920275,1006.5,,TRUE,TRUE,,,,,,,CLR,,,,,,,,VFR,,,,,,,,,,,,METAR,1310.0
KPEO 300353Z AUTO 00000KT 10SM CLR 14/ A3008 RMK AO2 SLP182 T0144 $,KPEO,2023-05-30T03:53:00Z,42.65,-77.05,14.4,,0,0,,10.0,30.079725,1018.2,,TRUE,TRUE,TRUE,,,,,,CLR,,,,,,,,VFR,,,,,,,,,,,,METAR,268.0
KPDX 300353Z 33007KT 10SM FEW200 18/08 A2991 RMK AO2 SLP127 T01830083,KPDX,2023-05-30T03:53:00Z,45.6,-122.62,18.3,8.3,330,7,,10.0,29.911417,1012.7,,,TRUE,,,,,,,FEW,20000,,,,,,,VFR,,,,,,,,,,,,METAR,7.0
KPDT 300353Z AUTO 27012KT 10SM CLR 19/04 A2978 RMK AO2 SLP071 T01890039,KPDT,2023-05-30T03:53:00Z,45.7,-118.83,18.9,3.9,270,12,,10.0,29.778543,1007.1,,TRUE,TRUE,,,,,,,CLR,,,,,,,,VFR,,,,,,,,,,,,METAR,453.0
KPDK 300353Z AUTO 31003KT 10SM CLR 18/13 A2994 RMK AO2 SLP131 T01780133,KPDK,2023-05-30T03:53:00Z,33.88,-84.3,17.8,13.3,310,3,,10.0,29.940945,1013.1,,TRUE,TRUE,,,,,,,CLR,,,,,,,,VFR,,,,,,,,,,,,METAR,299.0
KPBI 300353Z 06007KT 10SM FEW035 FEW250 27/21 A2992 RMK AO2 SLP130 T02670206,KPBI,2023-05-30T03:53:00Z,26.68,-80.1,26.7,20.6,60,7,,10.0,29.920275,1013.0,,,TRUE,,,,,,,FEW,3500,FEW,25000,,,,,VFR,,,,,,,,,,,,METAR,4.0
KPBG 300353Z AUTO 00000KT 10SM CLR 12/05 A3011 RMK AO2 SLP196 T01170050,KPBG,2023-05-30T03:53:00Z,44.65,-73.47,11.7,5.0,0,0,,10.0,30.109253,1019.6,,TRUE,TRUE,,,,,,,CLR,,,,,,,,VFR,,,,,,,,,,,,METAR,61.0
KPBF 300353Z AUTO 00000KT 10SM CLR 21/16 A2995 RMK AO2 SLP139 T02110161,KPBF,2023-05-30T03:53:00Z,34.18,-91.93,21.1,16.1,0,0,,10.0,29.949802,1013.9,,TRUE,TRUE,,,,,,,CLR,,,,,,,,VFR,,,,,,,,,,,,METAR,63.0
KPAH 300353Z 00000KT 10SM CLR 18/14 A2994 RMK AO2 SLP136 T01780139,KPAH,2023-05-30T03:53:00Z,37.07,-88.77,17.8,13.9,0,0,,10.0,29.940945,1013.6,,,TRUE,,,,,,,CLR,,,,,,,,VFR,,,,,,,,,,,,METAR,125.0
KPAE 300353Z 36007G16KT 10SM BKN038 12/09 A2993 RMK AO2 SLP135 T01220089,KPAE,2023-05-30T03:53:00Z,47.92,-122.28,12.2,8.9,360,7,16,10.0,29.929134,1013.5,,,TRUE,,,,,,,BKN,3800,,,,,,,VFR,,,,,,,,,,,,METAR,166.0
KP68 300353Z AUTO VRB03KT 12/07 A2998 RMK AO1 SLP097 T01220067,KP68,2023-05-30T03:53:00Z,39.6,-116.0,12.2,6.7,0,3,,,29.97933,1009.7,,TRUE,TRUE,,,,,,,,,,,,,,,,,,,,,,,,,,,METAR,1813.0
KOXB 300353Z AUTO 04011G21KT 8SM OVC009 17/14 A3006 RMK AO2 SLP178 T01670144 $,KOXB,2023-05-30T03:53:00Z,38.32,-75.12,16.7,14.4,40,11,21,8.0,30.059055,1017.8,,TRUE,TRUE,TRUE,,,,,,OVC,900,,,,,,,IFR,,,,,,,,,,,,METAR,2.0
KOWD 300353Z AUTO 00000KT 10SM CLR 07/04 A3023 RMK AO2 SLP235 T00720044 $,KOWD,2023-05-30T03:53:00Z,42.18,-71.17,7.2,4.4,0,0,,10.0,30.230314,1023.5,,TRUE,TRUE,TRUE,,,,,,CLR,,,,,,,,VFR,,,,,,,,,,,,METAR,14.0
KOWA 300353Z AUTO 14006KT 10SM CLR 23/12 A2987 RMK AO2 LTG DSNT S,KOWA,2023-05-30T03:53:00Z,44.12,-93.25,23.0,12.0,140,6,,10.0,29.870079,,,TRUE,TRUE,,,,,,,CLR,,,,,,,,VFR,,,,,,,,,,,,METAR,345.0
KOVS 300353Z AUTO 00000KT 10SM CLR 14/09 A2997 RMK AO2 SLP147 T01390094,KOVS,2023-05-30T03:53:00Z,43.15,-90.68,13.9,9.4,0,0,,10.0,29.970472,1014.7,,TRUE,TRUE,,,,,,,CLR,,,,,,,,VFR,,,,,,,,,,,,METAR,205.0
KOTM 300353Z AUTO 15006KT 10SM CLR 19/08 A2995 RMK AO2 SLP136 T01940078,KOTM,2023-05-30T03:53:00Z,41.1,-92.45,19.4,7.8,150,6,,10.0,29.949802,1013.6,,TRUE,TRUE,,,,,,,CLR,,,,,,,,VFR,,,,,,,,,,,,METAR,254.0
KOSU 300353Z AUTO 04004KT 10SM SCT095 19/13 A3000 RMK AO2 SLP151 T01940128,KOSU,2023-05-30T03:53:00Z,40.08,-83.08,19.4,12.8,40,4,,10.0,30.0,1015.1,,TRUE,TRUE,,,,,,,SCT,9500,,,,,,,VFR,,,,,,,,,,,,METAR,276.0
KOSH 300353Z AUTO 19004KT 10SM CLR 18/06 A2999 RMK AO2 SLP145 T01830056,KOSH,2023-05-30T03:53:00Z,43.98,-88.55,18.3,5.6,190,4,,10.0,29.991142,1014.5,,TRUE,TRUE,,,,,,,CLR,,,,,,,,VFR,,,,,,,,,,,,METAR,239.0
KORB 300353Z AUTO 14006KT 10SM CLR 19/07 A2985 RMK AO2,KORB,2023-05-30T03:53:00Z,48.02,-92.87,19.0,7.0,140,6,,10.0,29.84941,,,TRUE,TRUE,,,,,,,CLR,,,,,,,,VFR,,,,,,,,,,,,METAR,407.0
KOQT 300353Z AUTO 00000KT 10SM CLR 17/15 A3000 RMK AO2 SLP153 T01670150,KOQT,2023-05-30T03:53:00Z,36.02,-84.23,16.7,15.0,0,0,,10.0,30.0,1015.3,,TRUE,TRUE,,,,,,,CLR,,,,,,,,VFR,,,,,,,,,,,,METAR,276.0
KOPF 300353Z AUTO 05008KT 10SM FEW028 SCT034 27/21 A2991 RMK AO2 SLP128 T02670211 $,KOPF,2023-05-30T03:53:00Z,25.92,-80.28,26.7,21.1,50,8,,10.0,29.911417,1012.8,,TRUE,TRUE,TRUE,,,,,,FEW,2800,SCT,3400,,,,,VFR,,,,,,,,,,,,METAR,1.0
KONT 300353Z 24009KT 10SM SCT029 SCT250 16/12 A2997 RMK AO2 SLP142 T01560117,KONT,2023-05-30T03:53:00Z,34.05,-117.58,15.6,11.7,240,9,,10.0,29.970472,1014.2,,,TRUE,,,,,,,SCT,2900,SCT,25000,,,,,VFR,,,,,,,,,,,,METAR,279.0
KONO 300353Z AUTO 35005KT 10SM CLR 22/08 A2981 RMK AO2 SLP079 T02220078 $,KONO,2023-05-30T03:53:00Z,44.02,-117.02,22.2,7.8,350,5,,10.0,29.811024,1007.9,,TRUE,TRUE,TRUE,,,,,,CLR,,,,,,,,VFR,,,,,,,,,,,,METAR,668.0
KOMK 300353Z AUTO 18009KT 10SM CLR 23/07 A2969 RMK AO2 SLP047 T02330072,KOMK,2023-05-30T03:53:00Z,48.47,-119.52,23.3,7.2,180,9,,10.0,29.68996,1004.7,,TRUE,TRUE,,,,,,,CLR,,,,,,,,VFR,,,,,,,,,,,,METAR,395.0
KOLF 300353Z AUTO 27010KT 10SM BKN100 18/12 A2977 RMK AO2 RAE14B31E45 TSB02E17 SLP075 P0001 T01780117,KOLF,2023-05-30T03:53:00Z,48.1,-105.58,17.8,11.7,270,10,,10.0,29.769686,1007.5,,TRUE,TRUE,,,,,,,BKN,10000,,,,,,,VFR,,,,,,0.01,,,,,,METAR,605.0
KOJC 300353Z AUTO 00000KT 10SM CLR 22/15 A2995 RMK AO2 SLP130 T02170150,KOJC,2023-05-30T03:53:00Z,38.85,-94.73,21.7,15.0,0,0,,10.0,29.949802,1013.0,,TRUE,TRUE,,,,,,,CLR,,,,,,,,VFR,,,,,,,,,,,,METAR,328.0
KOGB 300353Z AUTO 00000KT 10SM SCT028 OVC100 21/17 A2993 RMK AO2 SLP132 T02110172,KOGB,2023-05-30T03:53:00Z,33.47,-80.85,21.1,17.2,0,0,,10.0,29.929134,1013.2,,TRUE,TRUE,,,,,,,SCT,2800,OVC,10000,,,,,VFR,,,,,,,,,,,,METAR,59.0
KODX 300353Z AUTO 24010KT 10SM -TSRA FEW055 OVC100 18/15 A2991 RMK AO2 LTG DSNT E-SW TSE0256B10 SLP120 P0005 T01780150,KODX,2023-05-30T03:53:00Z,41.62,-98.95,17.8,15.0,240,10,,10.0,29.911417,1012.0,,TRUE,TRUE,,,,,,-TSRA,FEW,5500,OVC,10000,,,,,VFR,,,,,,0.05,,,,,,METAR,628.0
KODO 300353Z AUTO 18010KT 10SM CLR 27/ A2994 RMK AO2 SLP088 T0272 $,KODO,2023-05-30T03:53:00Z,31.92,-102.4,27.2,,180,10,,10.0,29.940945,1008.8,,TRUE,TRUE,TRUE,,,,,,CLR,,,,,,,,VFR,,,,,,,,,,,,METAR,912.0
KOAK 300353Z 27008KT 10SM FEW014 FEW024 SCT120 SCT180 15/09 A2997 RMK AO2 SLP148 T01500094,KOAK,2023-05-30T03:53:00Z,37.72,-122.23,15.0,9.4,270,8,,10.0,29.970472,1014.8,,,TRUE,,,,,,,FEW,1400,FEW,2400,SCT,12000,SCT,18000,VFR,,,,,,,,,,,,METAR,3.0
KNUW 300353Z AUTO 23013KT 10SM CLR 11/08 A2993 RMK AO2 SLP140 T01110078 $,KNUW,2023-05-30T03:53:00Z,48.35,-122.65,11.1,7.8,230,13,,10.0,29.929134,1014.0,,TRUE,TRUE,TRUE,,,,,,CLR,,,,,,,,VFR,,,,,,,,,,,,METAR,14.0
KNUI 300353Z AUTO 05011G18KT 9SM OVC014 17/14 A3005 RMK AO2 SLP174 T01720144 $,KNUI,2023-05-30T03:53:00Z,38.15,-76.43,17.2,14.4,50,11,18,9.0,30.050198,1017.4,,TRUE,TRUE,TRUE,,,,,,OVC,1400,,,,,,,MVFR,,,,,,,,,,,,METAR,4.0
KNRS 300353Z AUTO 24003KT 10SM SCT019 OVC028 16/12 A3000 RMK AO2 SLP157 T01610122 $,KNRS,2023-05-30T03:53:00Z,32.57,-117.12,16.1,12.2,240,3,,10.0,30.0,1015.7,,TRUE,TRUE,TRUE,,,,,,SCT,1900,OVC,2800,,,,,MVFR,,,,,,,,,,,,METAR,15.0
KNQX 300353Z AUTO 00000KT 10SM CLR A2991 RMK AO2 SLP129 $,KNQX,2023-05-30T03:53:00Z,24.57,-81.67,,,0,0,,10.0,29.911417,1012.9,,TRUE,TRUE,TRUE,,,,,,CLR,,,,,,,,VFR,,,,,,,,,,,,METAR,2.0
KNIP 300353Z AUTO 20006KT 10SM CLR 25/18 A2991 RMK AO2 SLP122 T02500178 $,KNIP,2023-05-30T03:53:00Z,30.23,-81.67,25.0,17.8,200,6,,10.0,29.911417,1012.2,,TRUE,TRUE,TRUE,,,,,,CLR,,,,,,,,VFR,,,,,,,,,,,,METAR,3.0
KNFG 300353Z AUTO 00000KT OVC028 17/12 A2999 RMK AO2 SLP153 T01670122 $,KNFG,2023-05-30T03:53:00Z,33.3,-117.35,16.7,12.2,0,0,,,29.991142,1015.3,,TRUE,TRUE,TRUE,,,,,,OVC,2800,,,,,,,,,,,,,,,,,,,METAR,21.0
KNEW 300353Z AUTO 19007KT 10SM CLR 26/19 A2992 RMK AO2 SLP124 T02610189,KNEW,2023-05-30T03:53:00Z,30.05,-90.03,26.1,18.9,190,7,,10.0,29.920275,1012.4,,TRUE,TRUE,,,,,,,CLR,,,,,,,,VFR,,,,,,,,,,,,METAR,1.0
KMYV 300353Z AUTO 15010KT 10SM -RA CLR 19/11 A2988 RMK AO2 SLP122 P0000 T01890111,KMYV,2023-05-30T03:53:00Z,39.1,-121.57,18.9,11.1,150,10,,10.0,29.878937,1012.2,,TRUE,TRUE,,,,,,-RA,CLR,,,,,,,,VFR,,,,,,0.005,,,,,,METAR,18.0
KMYF 300353Z 26006KT 10SM OVC025 16/12 A2999 RMK AO2 SLP151 T01560117,KMYF,2023-05-30T03:53:00Z,32.82,-117.13,15.6,11.7,260,6,,10.0,29.991142,1015.1,,,TRUE,,,,,,,OVC,2500,,,,,,,MVFR,,,,,,,,,,,,METAR,128.0
KMWT 300353Z AUTO 00000KT 10SM CLR 18/16 A2994 RMK AO2 SLP127 T01830156,KMWT,2023-05-30T03:53:00Z,34.55,-93.58,18.3,15.6,0,0,,10.0,29.940945,1012.7,,TRUE,TRUE,,,,,,,CLR,,,,,,,,VFR,,,,,,,,,,,,METAR,220.0
KMWL 300353Z AUTO 07004KT 10SM CLR 22/18 A2992 RMK AO2 SLP118 T02220183,KMWL,2023-05-30T03:53:00Z,32.78,-98.07,22.2,18.3,70,4,,10.0,29.920275,1011.8,,TRUE,TRUE,,,,,,,CLR,,,,,,,,VFR,,,,,,,,,,,,METAR,288.0
KMVY 300353Z AUTO 00000KT 10SM CLR 04/02 A3020 RMK AO2 SLP226 T00390022,KMVY,2023-05-30T03:53:00Z,41.4,-70.62,3.9,2.2,0,0,,10.0,30.200787,1022.6,,TRUE,TRUE,,,,,,,CLR,,,,,,,,VFR,,,,,,,,,,,,METAR,18.0
KMTO 300353Z AUTO 00000KT 10SM OVC090 20/11 A2995 RMK AO2 SLP136 T02000106,KMTO,2023-05-30T03:53:00Z,39.47,-88.27,20.0,10.6,0,0,,10.0,29.949802,1013.6,,TRUE,TRUE,,,,,,,OVC,9000,,,,,,,VFR,,,,,,,,,,,,METAR,216.0
KMTJ 300353Z AUTO 16011KT 10SM CLR 19/M04 A3004 RMK AO2 SLP097 T01891044,KMTJ,2023-05-30T03:53:00Z,38.5,-107.9,18.9,-4.4,160,11,,10.0,30.041338,1009.7,,TRUE,TRUE,,,,,,,CLR,,,,,,,,VFR,,,,,,,,,,,,METAR,1755.0
KMTH 300353Z AUTO 00000KT 10SM FEW080 SCT110 26/19 A2989 RMK AO2 SLP122 T02560194,KMTH,2023-05-30T03:53:00Z,24.73,-81.05,25.6,19.4,0,0,,10.0,29.890747,1012.2,,TRUE,TRUE,,,,,,,FEW,8000,SCT,11000,,,,,VFR,,,,,,,,,,,,METAR,1.0
KMSY 300353Z 22004KT 10SM FEW050 OVC270 24/18 A2992 RMK AO2 SLP135 T02440183,KMSY,2023-05-30T03:53:00Z,30.0,-90.25,24.4,18.3,220,4,,10.0,29.920275,1013.5,,,TRUE,,,,,,,FEW,5000,OVC,27000,,,,,VFR,,,,,,,,,,,,METAR,0.0
KMSS 300353Z AUTO 04005KT 10SM CLR 13/04 A3011 RMK AO2 SLP197 T01280044,KMSS,2023-05-30T03:53:00Z,44.93,-74.85,12.8,4.4,40,5,,10.0,30.109253,1019.7,,TRUE,TRUE,,,,,,,CLR,,,,,,,,VFR,,,,,,,,,,,,METAR,60.0
KMSP 300353Z 16005KT 10SM FEW140 SCT250 23/08 A2987 RMK AO2 SLP108 T02330083,KMSP,2023-05-30T03:53:00Z,44.88,-93.23,23.3,8.3,160,5,,10.0,29.870079,1010.8,,,TRUE,,,,,,,FEW,14000,SCT,25000,,,,,VFR,,,,,,,,,,,,METAR,255.0
KMSO 300353Z 34006KT 10SM CLR 16/09 A2983 RMK AO2 SLP090 T01610094,KMSO,2023-05-30T03:53:00Z,46.92,-114.1,16.1,9.4,340,6,,10.0,29.828741,1009.0,,,TRUE,,,,,,,CLR,,,,,,,,VFR,,,,,,,,,,,,METAR,974.0
KMSN 300353Z 00000KT 10SM BKN200 19/08 A2998 RMK AO2 SLP149 LAST T01890078 $,KMSN,2023-05-30T03:53:00Z,43.13,-89.35,18.9,7.8,0,0,,10.0,29.97933,1014.9,,,TRUE,TRUE,,,,,,BKN,20000,,,,,,,VFR,,,,,,,,,,,,METAR,262.0
KMSL 300353Z AUTO 00000KT 10SM CLR 18/14 A2996 RMK AO2 SLP142 T01780144,KMSL,2023-05-30T03:53:00Z,34.75,-87.6,17.8,14.4,0,0,,10.0,29.958662,1014.2,,TRUE,TRUE,,,,,,,CLR,,,,,,,,VFR,,,,,,,,,,,,METAR,170.0
KMRB 300353Z AUTO 14004KT 10SM BKN075 17/14 A3008 RMK AO2 SLP184 T01670139,KMRB,2023-05-30T03:53:00Z,39.4,-77.98,16.7,13.9,140,4,,10.0,30.079725,1018.4,,TRUE,TRUE,,,,,,,BKN,7500,,,,,,,VFR,,,,,,,,,,,,METAR,165.0
KMPO 300353Z AUTO 12007KT 10SM CLR 11/04 A3017 RMK AO2 SLP213 T01110044,KMPO,2023-05-30T03:53:00Z,41.13,-75.38,11.1,4.4,120,7,,10.0,30.171259,1021.3,,TRUE,TRUE,,,,,,,CLR,,,,,,,,VFR,,,,,,,,,,,,METAR,576.0
KMOD 300353Z 33010KT 300V360 10SM CLR 18/11 A2990 RMK AO2 SLP124 T01780106 $,KMOD,2023-05-30T03:53:00Z,37.62,-120.95,17.8,10.6,330,10,,10.0,29.899607,1012.4,,,TRUE,TRUE,,,,,,CLR,,,,,,,,VFR,,,,,,,,,,,,METAR,25.0
KMNN 300353Z AUTO 00000KT 10SM CLR 19/08 A3001 RMK AO2 SLP157 T01890078,KMNN,2023-05-30T03:53:00Z,40.62,-83.07,18.9,7.8,0,0,,10.0,30.008858,1015.7,,TRUE,TRUE,,,,,,,CLR,,,,,,,,VFR,,,,,,,,,,,,METAR,301.0
KMMV 300353Z AUTO 21007KT 10SM CLR 16/09 A2989 RMK AO2 SLP122 T01560094,KMMV,2023-05-30T03:53:00Z,45.2,-123.13,15.6,9.4,210,7,,10.0,29.890747,1012.2,,TRUE,TRUE,,,,,,,CLR,,,,,,,,VFR,,,,,,,,,,,,METAR,48.0
KMMK 300353Z AUTO 00000KT 10SM CLR 11/07 A3021 RMK AO2 SLP228 T01110067 $,KMMK,2023-05-30T03:53:00Z,41.52,-72.83,11.1,6.7,0,0,,10.0,30.209646,1022.8,,TRUE,TRUE,TRUE,,,,,,CLR,,,,,,,,VFR,,,,,,,,,,,,METAR,30.0
KMLU 300353Z AUTO 00000KT 10SM CLR 22/17 A2995 RMK AO2 SLP139 T02170172 $,KMLU,2023-05-30T03:53:00Z,32.52,-92.03,21.7,17.2,0,0,,10.0,29.949802,1013.9,,TRUE,TRUE,TRUE,,,,,,CLR,,,,,,,,VFR,,,,,,,,,,,,METAR,22.0
KMLT 300353Z AUTO 00000KT 10SM CLR 09/07 A3020 RMK AO2 SLP234 T00940072,KMLT,2023-05-30T03:53:00Z,45.65,-68.7,9.4,7.2,0,0,,10.0,30.200787,1023.4,,TRUE,TRUE,,,,,,,CLR,,,,,,,,VFR,,,,,,,,,,,,METAR,121.0
KMLS 300353Z AUTO 03006KT 10SM CLR 17/13 A2980 RMK AO2 SLP083 T01720133,KMLS,2023-05-30T03:53:00Z,46.43,-105.88,17.2,13.3,30,6,,10.0,29.799213,1008.3,,TRUE,TRUE,,,,,,,CLR,,,,,,,,VFR,,,,,,,,,,,,METAR,800.0
KMLP 300353Z AUTO 26004KT 10SM CLR 12/01 A2996 RMK AO2 SLP064 T01220006,KMLP,2023-05-30T03:53:00Z,47.45,-115.67,12.2,0.6,260,4,,10.0,29.958662,1006.4,,TRUE,TRUE,,,,,,,CLR,,,,,,,,VFR,,,,,,,,,,,,METAR,1837.0
KMLC 300353Z AUTO VRB04KT 10SM FEW075 22/19 A2994 RMK AO2 SLP128 T02220194,KMLC,2023-05-30T03:53:00Z,34.88,-95.78,22.2,19.4,0,4,,10.0,29.940945,1012.8,,TRUE,TRUE,,,,,,,FEW,7500,,,,,,,VFR,,,,,,,,,,,,METAR,231.0
KMLB 300353Z AUTO 09005KT 10SM CLR 25/17 A2991 RMK AO2 SLP129 T02500167,KMLB,2023-05-30T03:53:00Z,28.1,-80.65,25.0,16.7,90,5,,10.0,29.911417,1012.9,,TRUE,TRUE,,,,,,,CLR,,,,,,,,VFR,,,,,,,,,,,,METAR,7.0
KMKO 300353Z AUTO 14003KT 10SM CLR 22/17 A2994 RMK AO2 SLP133 T02170172,KMKO,2023-05-30T03:53:00Z,35.65,-95.37,21.7,17.2,140,3,,10.0,29.940945,1013.3,,TRUE,TRUE,,,,,,,CLR,,,,,,,,VFR,,,,,,,,,,,,METAR,184.0
KMKL 300353Z AUTO 00000KT 10SM CLR 17/15 A2996 RMK AO2 SLP142 T01670150,KMKL,2023-05-30T03:53:00Z,35.6,-88.92,16.7,15.0,0,0,,10.0,29.958662,1014.2,,TRUE,TRUE,,,,,,,CLR,,,,,,,,VFR,,,,,,,,,,,,METAR,130.0
KMIW 300353Z AUTO 15005KT 10SM CLR 21/08 A2993 RMK AO2 SLP129 T02110078 $,KMIW,2023-05-30T03:53:00Z,42.12,-92.92,21.1,7.8,150,5,,10.0,29.929134,1012.9,,TRUE,TRUE,TRUE,,,,,,CLR,,,,,,,,VFR,,,,,,,,,,,,METAR,296.0
KMIE 300353Z AUTO 09005KT 10SM CLR 20/11 A2998 RMK AO2 SLP142 T02000106,KMIE,2023-05-30T03:53:00Z,40.23,-85.4,20.0,10.6,90,5,,10.0,29.97933,1014.2,,TRUE,TRUE,,,,,,,CLR,,,,,,,,VFR,,,,,,,,,,,,METAR,286.0
KMIC 300353Z AUTO 14003KT 10SM CLR 23/12 A2985 RMK AO2 SLP102 T02280117,KMIC,2023-05-30T03:53:00Z,45.07,-93.35,22.8,11.7,140,3,,10.0,29.84941,1010.2,,TRUE,TRUE,,,,,,,CLR,,,,,,,,VFR,,,,,,,,,,,,METAR,263.0
KMIA 300353Z 02007KT 10SM -RA BKN030 BKN150 BKN250 27/22 A2990 RMK AO2 RAB05E32B53 SLP126 P0000 T02670222 $,KMIA,2023-05-30T03:53:00Z,25.8,-80.32,26.7,22.2,20,7,,10.0,29.899607,1012.6,,,TRUE,TRUE,,,,,-RA,BKN,3000,BKN,15000,BKN,25000,,,MVFR,,,,,,0.005,,,,,,METAR,1.0
KMHT 300353Z COR 00000KT 10SM FEW200 10/04 A3022 RMK AO2 SLP246 T01000044,KMHT,2023-05-30T03:53:00Z,42.93,-71.43,10.0,4.4,0,0,,10.0,30.221457,1024.6,TRUE,,TRUE,,,,,,,FEW,20000,,,,,,,VFR,,,,,,,,,,,,METAR,68.0
KMHE 300353Z AUTO 14006KT 10SM CLR 23/14 A2974 RMK AO2 SLP063 T02330144,KMHE,2023-05-30T03:53:00Z,43.77,-98.03,23.3,14.4,140,6,,10.0,29.740158,1006.3,,TRUE,TRUE,,,,,,,CLR,,,,,,,,VFR,,,,,,,,,,,,METAR,397.0
KMGY 300353Z AUTO 12004KT 10SM FEW090 22/12 A2998 RMK AO2 SLP145 T02170117 $,KMGY,2023-05-30T03:53:00Z,39.6,-84.23,21.7,11.7,120,4,,10.0,29.97933,1014.5,,TRUE,TRUE,TRUE,,,,,,FEW,9000,,,,,,,VFR,,,,,,,,,,,,METAR,290.0
KMGW 300353Z AUTO 00000KT 10SM FEW120 21/12 A3006 RMK AO2 SLP168 T02110122 $,KMGW,2023-05-30T03:53:00Z,39.65,-79.92,21.1,12.2,0,0,,10.0,30.059055,1016.8,,TRUE,TRUE,TRUE,,,,,,FEW,12000,,,,,,,VFR,,,,,,,,,,,,METAR,375.0
KMGM 300353Z AUTO 36004KT 10SM CLR 21/16 A2994 RMK AO2 SLP136 T02060156,KMGM,2023-05-30T03:53:00Z,32.3,-86.4,20.6,15.6,360,4,,10.0,29.940945,1013.6,,TRUE,TRUE,,,,,,,CLR,,,,,,,,VFR,,,,,,,,,,,,METAR,64.0
KMFR 300353Z AUTO 01005KT 10SM R14/0400VP6000FT FEW120 24/06 A2984 RMK AO2 SLP097 T02390056,KMFR,2023-05-30T03:53:00Z,42.38,-122.87,23.9,5.6,10,5,,10.0,29.840551,1009.7,,TRUE,TRUE,,,,,,,FEW,12000,,,,,,,VFR,,,,,,,,,,,,METAR,397.0
KMFE 300353Z 00000KT 7SM -TSRA SCT026 SCT110 23/22 A2989 RMK AO2 WSHFT 0309 LTG DSNT ALQDS RAB06 TSB0255E38B39 SLP118 P0026 T02330217 $,KMFE,2023-05-30T03:53:00Z,26.18,-98.25,23.3,21.7,0,0,,7.0,29.890747,1011.8,,,TRUE,TRUE,,,,,-TSRA,SCT,2600,SCT,11000,,,,,VFR,,,,,,0.26,,,,,,METAR,29.0
KMDW 300353Z 09006KT 10SM FEW190 FEW250 19/05 A2999 RMK AO2 SLP148 T01940050 $,KMDW,2023-05-30T03:53:00Z,41.78,-87.75,19.4,5.0,90,6,,10.0,29.991142,1014.8,,,TRUE,TRUE,,,,,,FEW,19000,FEW,25000,,,,,VFR,,,,,,,,,,,,METAR,186.0
KMCW 300353Z AUTO 18006KT 10SM SCT120 19/09 A2993 RMK AO2 LTG DSNT W AND NW SLP123 T01940094,KMCW,2023-05-30T03:53:00Z,43.15,-93.33,19.4,9.4,180,6,,10.0,29.929134,1012.3,,TRUE,TRUE,,,,,,,SCT,12000,,,,,,,VFR,,,,,,,,,,,,METAR,363.0
KMCO 300353Z 25003KT 10SM FEW250 23/16 A2994 RMK AO2 SLP135 T02280161,KMCO,2023-05-30T03:53:00Z,28.42,-81.33,22.8,16.1,250,3,,10.0,29.940945,1013.5,,,TRUE,,,,,,,FEW,25000,,,,,,,VFR,,,,,,,,,,,,METAR,27.0
KMCN 300353Z AUTO 00000KT 10SM CLR 17/15 A2993 RMK AO2 SLP131 T01670150,KMCN,2023-05-30T03:53:00Z,32.68,-83.65,16.7,15.0,0,0,,10.0,29.929134,1013.1,,TRUE,TRUE,,,,,,,CLR,,,,,,,,VFR,,,,,,,,,,,,METAR,104.0
KMCI 300353Z 20004KT 10SM CLR 19/15 A2994 RMK AO2 SLP130 T01940150,KMCI,2023-05-30T03:53:00Z,39.3,-94.73,19.4,15.0,200,4,,10.0,29.940945,1013.0,,,TRUE,,,,,,,CLR,,,,,,,,VFR,,,,,,,,,,,,METAR,308.0
KMCE 300353Z AUTO 27009KT 10SM CLR 18/08 A2989 RMK AO2 SLP122 T01780083,KMCE,2023-05-30T03:53:00Z,37.28,-120.5,17.8,8.3,270,9,,10.0,29.890747,1012.2,,TRUE,TRUE,,,,,,,CLR,,,,,,,,VFR,,,,,,,,,,,,METAR,49.0
KMCB 300353Z AUTO 00000KT 10SM CLR 20/17 A2994 RMK AO2 SLP133 T02000167,KMCB,2023-05-30T03:53:00Z,31.18,-90.47,20.0,16.7,0,0,,10.0,29.940945,1013.3,,TRUE,TRUE,,,,,,,CLR,,,,,,,,VFR,,,,,,,,,,,,METAR,124.0
KMBS 300353Z AUTO 06005KT 10SM CLR 16/09 A3004 RMK AO2 SLP170 T01560089,KMBS,2023-05-30T03:53:00Z,43.53,-84.08,15.6,8.9,60,5,,10.0,30.041338,1017.0,,TRUE,TRUE,,,,,,,CLR,,,,,,,,VFR,,,,,,,,,,,,METAR,201.0
KMAI 300353Z AUTO 00000KT 10SM CLR 21/15 A2992 RMK AO2 SLP129 T02060150,KMAI,2023-05-30T03:53:00Z,30.83,-85.18,20.6,15.0,0,0,,10.0,29.920275,1012.9,,TRUE,TRUE,,,,,,,CLR,,,,,,,,VFR,,,,,,,,,,,,METAR,33.0
KMAF 300353Z 13009KT 10SM CLR 26/13 A2993 RMK AO2 SLP088 T02560128,KMAF,2023-05-30T03:53:00Z,31.95,-102.2,25.6,12.8,130,9,,10.0,29.929134,1008.8,,,TRUE,,,,,,,CLR,,,,,,,,VFR,,,,,,,,,,,,METAR,874.0
KMAE 300353Z AUTO 29010KT 10SM CLR 18/09 A2989 RMK AO2 SLP119 T01830089,KMAE,2023-05-30T03:53:00Z,36.98,-120.12,18.3,8.9,290,10,,10.0,29.890747,1011.9,,TRUE,TRUE,,,,,,,CLR,,,,,,,,VFR,,,,,,,,,,,,METAR,77.0
KLXV 300353Z AUTO 04004KT 10SM CLR 06/M05 A3029 RMK AO2 SLP110 T00611050,KLXV,2023-05-30T03:53:00Z,39.23,-106.32,6.1,-5.0,40,4,,10.0,30.28937,1011.0,,TRUE,TRUE,,,,,,,CLR,,,,,,,,VFR,,,,,,,,,,,,METAR,3027.0
KLXT 300353Z AUTO 00000KT 10SM CLR 22/14 A2995 RMK AO2 SLP133 T02220144,KLXT,2023-05-30T03:53:00Z,38.97,-94.37,22.2,14.4,0,0,,10.0,29.949802,1013.3,,TRUE,TRUE,,,,,,,CLR,,,,,,,,VFR,,,,,,,,,,,,METAR,306.0
KLWV 300353Z AUTO 00000KT 10SM BKN090 22/14 A2994 RMK AO2 SLP136 T02170139,KLWV,2023-05-30T03:53:00Z,38.77,-87.6,21.7,13.9,0,0,,10.0,29.940945,1013.6,,TRUE,TRUE,,,,,,,BKN,9000,,,,,,,VFR,,,,,,,,,,,,METAR,128.0
KLWD 300353Z AUTO 15007KT 10SM CLR 22/11 A2994 RMK AO2 SLP131 T02220106,KLWD,2023-05-30T03:53:00Z,40.63,-93.9,22.2,10.6,150,7,,10.0,29.940945,1013.1,,TRUE,TRUE,,,,,,,CLR,,,,,,,,VFR,,,,,,,,,,,,METAR,345.0
KLVS 300353Z AUTO 07011G26KT 10SM CLR 17/07 A3014 RMK AO2 PK WND 05029/0319 SLP102 T01720072,KLVS,2023-05-30T03:53:00Z,35.65,-105.13,17.2,7.2,70,11,26,10.0,30.138779,1010.2,,TRUE,TRUE,,,,,,,CLR,,,,,,,,VFR,,,,,,,,,,,,METAR,2095.0
KLVM 300353Z AUTO 26015KT 10SM CLR 16/07 A2990 RMK AO2 SLP091 T01610072,KLVM,2023-05-30T03:53:00Z,45.7,-110.43,16.1,7.2,260,15,,10.0,29.899607,1009.1,,TRUE,TRUE,,,,,,,CLR,,,,,,,,VFR,,,,,,,,,,,,METAR,1418.0
KLVK 300353Z 28009KT 10SM CLR 14/09 A2995 RMK AO2 SLP138 T01390089,KLVK,2023-05-30T03:53:00Z,37.7,-121.82,13.9,8.9,280,9,,10.0,29.949802,1013.8,,,TRUE,,,,,,,CLR,,,,,,,,VFR,,,,,,,,,,,,METAR,120.0
KLVJ 300353Z AUTO 00000KT 10SM CLR 26/21 A2994 RMK AO2 SLP137 T02610206,KLVJ,2023-05-30T03:53:00Z,29.52,-95.25,26.1,20.6,0,0,,10.0,29.940945,1013.7,,TRUE,TRUE,,,,,,,CLR,,,,,,,,VFR,,,,,,,,,,,,METAR,11.0
KLUK 300353Z AUTO 23003KT 10SM BKN075 OVC100 23/17 A2998 RMK AO2 SLP147 T02280167,KLUK,2023-05-30T03:53:00Z,39.1,-84.42,22.8,16.7,230,3,,10.0,29.97933,1014.7,,TRUE,TRUE,,,,,,,BKN,7500,OVC,10000,,,,,VFR,,,,,,,,,,,,METAR,144.0
KLSE 300353Z AUTO 12005KT 10SM CLR 21/08 A2993 RMK AO2 SLP128 T02060078 $,KLSE,2023-05-30T03:53:00Z,43.88,-91.25,20.6,7.8,120,5,,10.0,29.929134,1012.8,,TRUE,TRUE,TRUE,,,,,,CLR,,,,,,,,VFR,,,,,,,,,,,,METAR,198.0
KLPR 300353Z AUTO 08003KT 10SM CLR 19/10 A3002 RMK AO2 SLP160 T01940100,KLPR,2023-05-30T03:53:00Z,41.35,-82.18,19.4,10.0,80,3,,10.0,30.02067,1016.0,,TRUE,TRUE,,,,,,,CLR,,,,,,,,VFR,,,,,,,,,,,,METAR,241.0
KLOZ 300353Z AUTO 00000KT 10SM CLR 17/16 A3001 RMK AO2 SLP153 T01670156,KLOZ,2023-05-30T03:53:00Z,37.08,-84.07,16.7,15.6,0,0,,10.0,30.008858,1015.3,,TRUE,TRUE,,,,,,,CLR,,,,,,,,VFR,,,,,,,,,,,,METAR,361.0
KLOU 300353Z AUTO 13005KT 10SM BKN095 23/14 A2996 RMK AO2 SLP142 T02330139,KLOU,2023-05-30T03:53:00Z,38.22,-85.67,23.3,13.9,130,5,,10.0,29.958662,1014.2,,TRUE,TRUE,,,,,,,BKN,9500,,,,,,,VFR,,,,,,,,,,,,METAR,165.0
KLOL 300353Z AUTO 30019G29KT 10SM CLR 19/07 A2988 RMK AO2 PK WND 32032/0334 LTG DSNT E SLP093 T01940067,KLOL,2023-05-30T03:53:00Z,40.07,-118.57,19.4,6.7,300,19,29,10.0,29.878937,1009.3,,TRUE,TRUE,,,,,,,CLR,,,,,,,,VFR,,,,,,,,,,,,METAR,1191.0
KLNS 300353Z AUTO 09006KT 10SM CLR 15/06 A3014 RMK AO2 SLP205 T01500061,KLNS,2023-05-30T03:53:00Z,40.12,-76.3,15.0,6.1,90,6,,10.0,30.138779,1020.5,,TRUE,TRUE,,,,,,,CLR,,,,,,,,VFR,,,,,,,,,,,,METAR,122.0
KLND 300353Z AUTO 34005KT 10SM CLR 16/03 A2998 RMK AO2 SLP096 T01560033,KLND,2023-05-30T03:53:00Z,42.82,-108.73,15.6,3.3,340,5,,10.0,29.97933,1009.6,,TRUE,TRUE,,,,,,,CLR,,,,,,,,VFR,,,,,,,,,,,,METAR,1700.0
KLMT 300353Z AUTO 21016KT 3SM RA OVC060 15/11 A2996 RMK AO2 LTG DSNT S RAB31 SLP115 P0009 T01500111,KLMT,2023-05-30T03:53:00Z,42.15,-121.72,15.0,11.1,210,16,,3.0,29.958662,1011.5,,TRUE,TRUE,,,,,,RA,OVC,6000,,,,,,,MVFR,,,,,,0.09,,,,,,METAR,1246.0
KLLQ 300353Z AUTO 00000KT 10SM CLR 19/17 A2995 RMK AO2 SLP138 T01940172,KLLQ,2023-05-30T03:53:00Z,33.63,-91.75,19.4,17.2,0,0,,10.0,29.949802,1013.8,,TRUE,TRUE,,,,,,,CLR,,,,,,,,VFR,,,,,,,,,,,,METAR,86.0
KLKV 300353Z AUTO 27008KT 10SM SCT090 BKN110 14/08 A2998 RMK AO2 RAB0255E15 SLP130 P0000 T01390078,KLKV,2023-05-30T03:53:00Z,42.17,-120.4,13.9,7.8,270,8,,10.0,29.97933,1013.0,,TRUE,TRUE,,,,,,,SCT,9000,BKN,11000,,,,,VFR,,,,,,0.005,,,,,,METAR,1440.0
KLIT 300353Z 00000KT 10SM SCT250 22/15 A2995 RMK AO2 SLP140 T02220150,KLIT,2023-05-30T03:53:00Z,34.73,-92.23,22.2,15.0,0,0,,10.0,29.949802,1014.0,,,TRUE,,,,,,,SCT,25000,,,,,,,VFR,,,,,,,,,,,,METAR,77.0
KLHX 300353Z AUTO 7SM -TSRA FEW030 BKN110 21/08 A3001 RMK AO2 LTG DSNT N AND NW RAB52 TSB52 PRESRR SLP108 P0001 T02110078,KLHX,2023-05-30T03:53:00Z,38.05,-103.52,21.1,7.8,,,,7.0,30.008858,1010.8,,TRUE,TRUE,,,,,,-TSRA,FEW,3000,BKN,11000,,,,,VFR,,,,,,0.01,,,,,,METAR,1289.0
KLHQ 300353Z AUTO 00000KT 10SM BKN120 18/14 A3000 RMK AO2 SLP154 T01830144,KLHQ,2023-05-30T03:53:00Z,39.75,-82.67,18.3,14.4,0,0,,10.0,30.0,1015.4,,TRUE,TRUE,,,,,,,BKN,12000,,,,,,,VFR,,,,,,,,,,,,METAR,259.0
KLGB 300353Z 30008KT 10SM BKN020 OVC027 17/12 A2998 RMK AO2 SLP150 T01720122,KLGB,2023-05-30T03:53:00Z,33.82,-118.15,17.2,12.2,300,8,,10.0,29.97933,1015.0,,,TRUE,,,,,,,BKN,2000,OVC,2700,,,,,MVFR,,,,,,,,,,,,METAR,10.0
KLFT 300353Z AUTO 00000KT 10SM CLR 24/22 A2993 RMK AO2 SLP134 T02440217,KLFT,2023-05-30T03:53:00Z,30.2,-91.97,24.4,21.7,0,0,,10.0,29.929134,1013.4,,TRUE,TRUE,,,,,,,CLR,,,,,,,,VFR,,,,,,,,,,,,METAR,9.0
KLFK 300353Z AUTO 24003KT 10SM CLR 21/20 A2995 RMK AO2 SLP138 T02110200,KLFK,2023-05-30T03:53:00Z,31.23,-94.75,21.1,20.0,240,3,,10.0,29.949802,1013.8,,TRUE,TRUE,,,,,,,CLR,,,,,,,,VFR,,,,,,,,,,,,METAR,87.0
KLEE 300353Z AUTO 00000KT 10SM CLR 21/17 A2994 RMK AO2 SLP137 T02110172,KLEE,2023-05-30T03:53:00Z,28.82,-81.82,21.1,17.2,0,0,,10.0,29.940945,1013.7,,TRUE,TRUE,,,,,,,CLR,,,,,,,,VFR,,,,,,,,,,,,METAR,21.0
KLEB 300353Z AUTO 00000KT 10SM CLR 11/06 A3020 RMK AO2 SLP221 T01110061,KLEB,2023-05-30T03:53:00Z,43.63,-72.3,11.1,6.1,0,0,,10.0,30.200787,1022.1,,TRUE,TRUE,,,,,,,CLR,,,,,,,,VFR,,,,,,,,,,,,METAR,169.0
KLCH 300353Z AUTO 00000KT 10SM CLR 23/20 A2992 RMK AO2 SLP140 T02280200 $,KLCH,2023-05-30T03:53:00Z,30.13,-93.22,22.8,20.0,0,0,,10.0,29.920275,1014.0,,TRUE,TRUE,TRUE,,,,,,CLR,,,,,,,,VFR,,,,,,,,,,,,METAR,2.0
KLBX 300353Z AUTO 00000KT 10SM CLR 22/21 A2992 RMK AO2 SLP131 T02170206,KLBX,2023-05-30T03:53:00Z,29.12,-95.47,21.7,20.6,0,0,,10.0,29.920275,1013.1,,TRUE,TRUE,,,,,,,CLR,,,,,,,,VFR,,,,,,,,,,,,METAR,4.0
KLBF 300353Z AUTO 10007KT 10SM CLR 16/14 A2989 RMK AO2 RAE08 SLP103 P0000 T01610139,KLBF,2023-05-30T03:53:00Z,41.12,-100.67,16.1,13.9,100,7,,10.0,29.890747,1010.3,,TRUE,TRUE,,,,,,,CLR,,,,,,,,VFR,,,,,,0.005,,,,,,METAR,843.0
KLBB 300353Z 13011KT 10SM CLR 22/17 A2997 RMK AO2 SLP104 T02170172 $,KLBB,2023-05-30T03:53:00Z,33.67,-101.82,21.7,17.2,130,11,,10.0,29.970472,1010.4,,,TRUE,TRUE,,,,,,CLR,,,,,,,,VFR,,,,,,,,,,,,METAR,996.0
KLAX 300353Z 27011KT 10SM BKN039 16/13 A2998 RMK AO2 SLP151 T01610128 $,KLAX,2023-05-30T03:53:00Z,33.93,-118.38,16.1,12.8,270,11,,10.0,29.97933,1015.1,,,TRUE,TRUE,,,,,,BKN,3900,,,,,,,VFR,,,,,,,,,,,,METAR,30.0
KLAW 300353Z AUTO 12007KT 10SM CLR 22/19 A2992 RMK AO2 SLP124 T02170194,KLAW,2023-05-30T03:53:00Z,34.55,-98.42,21.7,19.4,120,7,,10.0,29.920275,1012.4,,TRUE,TRUE,,,,,,,CLR,,,,,,,,VFR,,,,,,,,,,,,METAR,328.0
KLAR 300353Z AUTO 33010KT 10SM CLR 12/01 A3010 RMK AO2 SLP099 T01170011 $,KLAR,2023-05-30T03:53:00Z,41.32,-105.67,11.7,1.1,330,10,,10.0,30.100393,1009.9,,TRUE,TRUE,TRUE,,,,,,CLR,,,,,,,,VFR,,,,,,,,,,,,METAR,2217.0
KLAN 300353Z 08004KT 10SM CLR 20/08 A3003 RMK AO2 SLP164 T02000078,KLAN,2023-05-30T03:53:00Z,42.78,-84.58,20.0,7.8,80,4,,10.0,30.029528,1016.4,,,TRUE,,,,,,,CLR,,,,,,,,VFR,,,,,,,,,,,,METAR,261.0
KLAA 300353Z AUTO 05003KT 10SM CLR 18/12 A2994 RMK AO2 SLP094 T01830122,KLAA,2023-05-30T03:53:00Z,38.07,-102.68,18.3,12.2,50,3,,10.0,29.940945,1009.4,,TRUE,TRUE,,,,,,,CLR,,,,,,,,VFR,,,,,,,,,,,,METAR,1129.0
KJLN 300353Z AUTO 00000KT 9SM CLR 20/16 A2995 RMK AO2 SLP133 T02000161,KJLN,2023-05-30T03:53:00Z,37.15,-94.5,20.0,16.1,0,0,,9.0,29.949802,1013.3,,TRUE,TRUE,,,,,,,CLR,,,,,,,,VFR,,,,,,,,,,,,METAR,297.0
KJKL 300353Z AUTO 10003KT 10SM FEW100 17/15 A3001 RMK AO2 SLP152 T01720150,KJKL,2023-05-30T03:53:00Z,37.6,-83.32,17.2,15.0,100,3,,10.0,30.008858,1015.2,,TRUE,TRUE,,,,,,,FEW,10000,,,,,,,VFR,,,,,,,,,,,,METAR,414.0
KJER 300353Z AUTO 12006KT 10SM CLR 16/07 A2993 RMK AO2 SLP107 T01560072 $,KJER,2023-05-30T03:53:00Z,42.72,-114.45,15.6,7.2,120,6,,10.0,29.929134,1010.7,,TRUE,TRUE,TRUE,,,,,,CLR,,,,,,,,VFR,,,,,,,,,,,,METAR,1226.0
KJEF 300353Z AUTO 13005KT 10SM CLR 21/11 A2995 RMK AO2 SLP129 T02110106 $,KJEF,2023-05-30T03:53:00Z,38.6,-92.15,21.1,10.6,130,5,,10.0,29.949802,1012.9,,TRUE,TRUE,TRUE,,,,,,CLR,,,,,,,,VFR,,,,,,,,,,,,METAR,167.0
KJBR 300353Z AUTO 00000KT 10SM CLR 20/14 A2996 RMK AO2 SLP142 T02000139 $,KJBR,2023-05-30T03:53:00Z,35.83,-90.65,20.0,13.9,0,0,,10.0,29.958662,1014.2,,TRUE,TRUE,TRUE,,,,,,CLR,,,,,,,,VFR,,,,,,,,,,,,METAR,79.0
KIXD 300353Z AUTO 18003KT 10SM CLR 19/15 A2995 RMK AO2 SLP133 T01940150,KIXD,2023-05-30T03:53:00Z,38.82,-94.88,19.4,15.0,180,3,,10.0,29.949802,1013.3,,TRUE,TRUE,,,,,,,CLR,,,,,,,,VFR,,,,,,,,,,,,METAR,322.0
KIWI 300353Z AUTO 00000KT 10SM CLR 06/04 A3026 RMK AO2 SLP247 T00610044,KIWI,2023-05-30T03:53:00Z,43.97,-69.72,6.1,4.4,0,0,,10.0,30.259842,1024.7,,TRUE,TRUE,,,,,,,CLR,,,,,,,,VFR,,,,,,,,,,,,METAR,16.0
KITR 300353Z AUTO 17010KT 10SM CLR 19/12 A2994 RMK AO2 SLP086 T01890117,KITR,2023-05-30T03:53:00Z,39.23,-102.28,18.9,11.7,170,10,,10.0,29.940945,1008.6,,TRUE,TRUE,,,,,,,CLR,,,,,,,,VFR,,,,,,,,,,,,METAR,1285.0
KIPL 300353Z AUTO 28013KT 10SM CLR 25/08 A2975 RMK AO2 SLP074 T02500078,KIPL,2023-05-30T03:53:00Z,32.83,-115.58,25.0,7.8,280,13,,10.0,29.749016,1007.4,,TRUE,TRUE,,,,,,,CLR,,,,,,,,VFR,,,,,,,,,,,,METAR,-16.0
KINK 300353Z AUTO 14014G23KT 10SM CLR 28/13 A2988 RMK AO2 SLP071 T02780133,KINK,2023-05-30T03:53:00Z,31.78,-103.2,27.8,13.3,140,14,23,10.0,29.878937,1007.1,,TRUE,TRUE,,,,,,,CLR,,,,,,,,VFR,,,,,,,,,,,,METAR,857.0
KILM 300353Z AUTO 00000KT 10SM FEW029 17/16 A2994 RMK AO2 SLP137 T01720156,KILM,2023-05-30T03:53:00Z,34.27,-77.9,17.2,15.6,0,0,,10.0,29.940945,1013.7,,TRUE,TRUE,,,,,,,FEW,2900,,,,,,,VFR,,,,,,,,,,,,METAR,9.0
KIDA 300353Z AUTO 36003KT 10SM CLR 15/07 A3000 RMK AO2 SLP129 T01500072,KIDA,2023-05-30T03:53:00Z,43.52,-112.07,15.0,7.2,360,3,,10.0,30.0,1012.9,,TRUE,TRUE,,,,,,,CLR,,,,,,,,VFR,,,,,,,,,,,,METAR,1444.0
KICT 300353Z 14009KT 10SM FEW055 FEW200 21/18 A2993 RMK AO2 SLP123 T02110178,KICT,2023-05-30T03:53:00Z,37.65,-97.43,21.1,17.8,140,9,,10.0,29.929134,1012.3,,,TRUE,,,,,,,FEW,5500,FEW,20000,,,,,VFR,,,,,,,,,,,,METAR,428.0
KICR 300353Z AUTO 19015G23KT 10SM CLR 21/14 A2979 RMK AO2 SLP072 T02110139 $,KICR,2023-05-30T03:53:00Z,43.38,-99.85,21.1,13.9,190,15,23,10.0,29.790354,1007.2,,TRUE,TRUE,TRUE,,,,,,CLR,,,,,,,,VFR,,,,,,,,,,,,METAR,618.0
KIAH 300353Z 04012KT 10SM FEW033 FEW075 BKN150 BKN250 23/17 A2994 RMK AO2 WSHFT 0314 SLP139 T02330167,KIAH,2023-05-30T03:53:00Z,30.0,-95.37,23.3,16.7,40,12,,10.0,29.940945,1013.9,,,TRUE,,,,,,,FEW,3300,FEW,7500,BKN,15000,BKN,25000,VFR,,,,,,,,,,,,METAR,27.0
KIAG 300353Z AUTO 08005KT 10SM CLR 18/06 A3006 RMK AO2 SLP175 T01780056 $,KIAG,2023-05-30T03:53:00Z,43.12,-78.93,17.8,5.6,80,5,,10.0,30.059055,1017.5,,TRUE,TRUE,TRUE,,,,,,CLR,,,,,,,,VFR,,,,,,,,,,,,METAR,179.0
KHZY 300353Z AUTO 00000KT 10SM CLR 16/10 A3003 RMK AO2 SLP163 T01560100,KHZY,2023-05-30T03:53:00Z,41.78,-80.7,15.6,10.0,0,0,,10.0,30.029528,1016.3,,TRUE,TRUE,,,,,,,CLR,,,,,,,,VFR,,,,,,,,,,,,METAR,279.0
KHYR 300353Z AUTO 14006KT 10SM CLR 19/07 A2994 RMK AO2 SLP133 T01940067,KHYR,2023-05-30T03:53:00Z,46.02,-91.45,19.4,6.7,140,6,,10.0,29.940945,1013.3,,TRUE,TRUE,,,,,,,CLR,,,,,,,,VFR,,,,,,,,,,,,METAR,369.0
KHWO 300353Z AUTO 05008KT 10SM FEW028 27/22 A2992 RMK AO2 SLP130 T02670222 $,KHWO,2023-05-30T03:53:00Z,26.0,-80.23,26.7,22.2,50,8,,10.0,29.920275,1013.0,,TRUE,TRUE,TRUE,,,,,,FEW,2800,,,,,,,VFR,,,,,,,,,,,,METAR,2.0
KHVR 300353Z AUTO 08006KT 10SM CLR 16/12 A2978 RMK AO2 SLP075 T01610122,KHVR,2023-05-30T03:53:00Z,48.55,-109.77,16.1,12.2,80,6,,10.0,29.778543,1007.5,,TRUE,TRUE,,,,,,,CLR,,,,,,,,VFR,,,,,,,,,,,,METAR,789.0
KHVN 300353Z AUTO 09008KT 10SM CLR 14/09 A3021 RMK AO2 SLP230 T01440089 $,KHVN,2023-05-30T03:53:00Z,41.27,-72.88,14.4,8.9,90,8,,10.0,30.209646,1023.0,,TRUE,TRUE,TRUE,,,,,,CLR,,,,,,,,VFR,,,,,,,,,,,,METAR,4.0
KHUL 300353Z AUTO 18004KT 10SM CLR 06/03 A3016 RMK AO2 SLP217 T00560028,KHUL,2023-05-30T03:53:00Z,46.12,-67.8,5.6,2.8,180,4,,10.0,30.159449,1021.7,,TRUE,TRUE,,,,,,,CLR,,,,,,,,VFR,,,,,,,,,,,,METAR,148.0
KHUF 300353Z 00000KT 10SM CLR 19/13 A2995 RMK AO2 SLP139 T01940133,KHUF,2023-05-30T03:53:00Z,39.45,-87.32,19.4,13.3,0,0,,10.0,29.949802,1013.9,,,TRUE,,,,,,,CLR,,,,,,,,VFR,,,,,,,,,,,,METAR,174.0
KHTL 300353Z AUTO 08005KT 10SM CLR 13/06 A3005 RMK AO2 SLP175 T01330061,KHTL,2023-05-30T03:53:00Z,44.35,-84.67,13.3,6.1,80,5,,10.0,30.050198,1017.5,,TRUE,TRUE,,,,,,,CLR,,,,,,,,VFR,,,,,,,,,,,,METAR,350.0
KHSV 300353Z 00000KT 10SM CLR 17/15 A2997 RMK AO2 SLP144 T01720150,KHSV,2023-05-30T03:53:00Z,34.65,-86.78,17.2,15.0,0,0,,10.0,29.970472,1014.4,,,TRUE,,,,,,,CLR,,,,,,,,VFR,,,,,,,,,,,,METAR,190.0
KHSI 300353Z AUTO 16008KT 10SM CLR 23/13 A2989 RMK AO2 LTG DSNT N SLP104 T02330133,KHSI,2023-05-30T03:53:00Z,40.6,-98.43,23.3,13.3,160,8,,10.0,29.890747,1010.4,,TRUE,TRUE,,,,,,,CLR,,,,,,,,VFR,,,,,,,,,,,,METAR,592.0
KHRO 300353Z AUTO 17003KT 10SM CLR 19/14 A2998 RMK AO2 SLP140 T01940139,KHRO,2023-05-30T03:53:00Z,36.27,-93.15,19.4,13.9,170,3,,10.0,29.97933,1014.0,,TRUE,TRUE,,,,,,,CLR,,,,,,,,VFR,,,,,,,,,,,,METAR,417.0
KHRI 300353Z AUTO 22010KT 10SM CLR 24/07 A2974 RMK AO2 SLP066 T02390067,KHRI,2023-05-30T03:53:00Z,45.83,-119.27,23.9,6.7,220,10,,10.0,29.740158,1006.6,,TRUE,TRUE,,,,,,,CLR,,,,,,,,VFR,,,,,,,,,,,,METAR,194.0
KHQM 300353Z AUTO 31010KT 10SM FEW020 12/07 A2999 RMK AO2 SLP160 T01170067,KHQM,2023-05-30T03:53:00Z,46.97,-123.93,11.7,6.7,310,10,,10.0,29.991142,1016.0,,TRUE,TRUE,,,,,,,FEW,2000,,,,,,,VFR,,,,,,,,,,,,METAR,4.0
KHOU 300353Z 11004KT 10SM FEW035 SCT140 26/21 A2993 RMK AO2 SLP138 T02610206 $,KHOU,2023-05-30T03:53:00Z,29.63,-95.28,26.1,20.6,110,4,,10.0,29.929134,1013.8,,,TRUE,TRUE,,,,,,FEW,3500,SCT,14000,,,,,VFR,,,,,,,,,,,,METAR,13.0
KHOT 300353Z AUTO 00000KT 9SM CLR 22/15 A2995 RMK AO2 SLP137 T02170150,KHOT,2023-05-30T03:53:00Z,34.48,-93.1,21.7,15.0,0,0,,9.0,29.949802,1013.7,,TRUE,TRUE,,,,,,,CLR,,,,,,,,VFR,,,,,,,,,,,,METAR,153.0
KHLN 300353Z AUTO 26005KT 10SM CLR 19/07 A2986 RMK AO2 SLP101 T01890072,KHLN,2023-05-30T03:53:00Z,46.6,-111.98,18.9,7.2,260,5,,10.0,29.861221,1010.1,,TRUE,TRUE,,,,,,,CLR,,,,,,,,VFR,,,,,,,,,,,,METAR,1178.0
KHLG 300353Z AUTO 13005KT 10SM CLR 21/11 A3003 RMK AO2 SLP162 T02060106,KHLG,2023-05-30T03:53:00Z,40.17,-80.65,20.6,10.6,130,5,,10.0,30.029528,1016.2,,TRUE,TRUE,,,,,,,CLR,,,,,,,,VFR,,,,,,,,,,,,METAR,365.0
KHLC 300353Z AUTO 17010KT 10SM CLR 23/16 A2991 RMK AO2 SLP104 T02330156,KHLC,2023-05-30T03:53:00Z,39.37,-99.83,23.3,15.6,170,10,,10.0,29.911417,1010.4,,TRUE,TRUE,,,,,,,CLR,,,,,,,,VFR,,,,,,,,,,,,METAR,667.0
KHKY 300353Z AUTO 33003KT 10SM FEW070 17/16 A2997 RMK AO2 SLP133 T01670156,KHKY,2023-05-30T03:53:00Z,35.75,-81.38,16.7,15.6,330,3,,10.0,29.970472,1013.3,,TRUE,TRUE,,,,,,,FEW,7000,,,,,,,VFR,,,,,,,,,,,,METAR,357.0
KHKS 300353Z AUTO 00000KT 10SM CLR 21/14 A2995 RMK AO2 SLP134 T02060144,KHKS,2023-05-30T03:53:00Z,32.33,-90.22,20.6,14.4,0,0,,10.0,29.949802,1013.4,,TRUE,TRUE,,,,,,,CLR,,,,,,,,VFR,,,,,,,,,,,,METAR,103.0
KHKA 300353Z AUTO 09003KT 10SM CLR 22/12 A2995 RMK AO2 SLP138 T02170117 $,KHKA,2023-05-30T03:53:00Z,35.93,-89.83,21.7,11.7,90,3,,10.0,29.949802,1013.8,,TRUE,TRUE,TRUE,,,,,,CLR,,,,,,,,VFR,,,,,,,,,,,,METAR,78.0
KHJO 300353Z AUTO 26007KT 10SM CLR 22/09 A2987 RMK AO2 SLP116 T02170089,KHJO,2023-05-30T03:53:00Z,36.32,-119.62,21.7,8.9,260,7,,10.0,29.870079,1011.6,,TRUE,TRUE,,,,,,,CLR,,,,,,,,VFR,,,,,,,,,,,,METAR,73.0
KHIO 300353Z 32014KT 10SM CLR 16/07 A2990 RMK AO2 SLP124 T01610067,KHIO,2023-05-30T03:53:00Z,45.55,-122.95,16.1,6.7,320,14,,10.0,29.899607,1012.4,,,TRUE,,,,,,,CLR,,,,,,,,VFR,,,,,,,,,,,,METAR,62.0
KHIB 300353Z AUTO 14006KT 10SM CLR 16/06 A2987 RMK AO2 SLP116 T01560056,KHIB,2023-05-30T03:53:00Z,47.38,-92.83,15.6,5.6,140,6,,10.0,29.870079,1011.6,,TRUE,TRUE,,,,,,,CLR,,,,,,,,VFR,,,,,,,,,,,,METAR,409.0
KHHR 300353Z 27005KT 10SM OVC038 18/12 A2998 RMK AO2 SLP152 T01830122,KHHR,2023-05-30T03:53:00Z,33.92,-118.33,18.3,12.2,270,5,,10.0,29.97933,1015.2,,,TRUE,,,,,,,OVC,3800,,,,,,,VFR,,,,,,,,,,,,METAR,21.0
KHGR 300353Z AUTO 08008KT 10SM CLR 20/09 A3010 RMK AO2 SLP196 T02000094,KHGR,2023-05-30T03:53:00Z,39.7,-77.73,20.0,9.4,80,8,,10.0,30.100393,1019.6,,TRUE,TRUE,,,,,,,CLR,,,,,,,,VFR,,,,,,,,,,,,METAR,206.0
KHFD 300353Z 13004KT 10SM CLR 14/04 A3021 RMK AO2 SLP230 T01390039,KHFD,2023-05-30T03:53:00Z,41.73,-72.65,13.9,3.9,130,4,,10.0,30.209646,1023.0,,,TRUE,,,,,,,CLR,,,,,,,,VFR,,,,,,,,,,,,METAR,3.0
KHEI 300353Z AUTO 00000KT 10SM CLR 13/12 A2981 RMK AO2 SLP083 T01330117 $,KHEI,2023-05-30T03:53:00Z,46.02,-102.65,13.3,11.7,0,0,,10.0,29.811024,1008.3,,TRUE,TRUE,TRUE,,,,,,CLR,,,,,,,,VFR,,,,,,,,,,,,METAR,824.0
KHBG 300353Z AUTO 00000KT 10SM CLR 21/19 A2994 RMK AO2 SLP136 T02060189,KHBG,2023-05-30T03:53:00Z,31.27,-89.25,20.6,18.9,0,0,,10.0,29.940945,1013.6,,TRUE,TRUE,,,,,,,CLR,,,,,,,,VFR,,,,,,,,,,,,METAR,45.0
KHAO 300353Z AUTO 00000KT 10SM FEW095 20/12 A2998 RMK AO2 SLP149 T02000117,KHAO,2023-05-30T03:53:00Z,39.37,-84.52,20.0,11.7,0,0,,10.0,29.97933,1014.9,,TRUE,TRUE,,,,,,,FEW,9500,,,,,,,VFR,,,,,,,,,,,,METAR,185.0
KGZH 300353Z AUTO 00000KT 7SM CLR 18/16 A2994 RMK AO2 SLP137 T01780161,KGZH,2023-05-30T03:53:00Z,31.42,-87.05,17.8,16.1,0,0,,7.0,29.940945,1013.7,,TRUE,TRUE,,,,,,,CLR,,,,,,,,VFR,,,,,,,,,,,,METAR,77.0
KGWO 300353Z AUTO 02003KT 10SM CLR 20/16 A2994 RMK AO2 SLP137 T02000161,KGWO,2023-05-30T03:53:00Z,33.5,-90.08,20.0,16.1,20,3,,10.0,29.940945,1013.7,,TRUE,TRUE,,,,,,,CLR,,,,,,,,VFR,,,,,,,,,,,,METAR,42.0
KGVL 300353Z AUTO 32004KT 10SM OVC070 19/14 A2997 RMK AO2 SLP136 T01890139,KGVL,2023-05-30T03:53:00Z,34.27,-83.83,18.9,13.9,320,4,,10.0,29.970472,1013.6,,TRUE,TRUE,,,,,,,OVC,7000,,,,,,,VFR,,,,,,,,,,,,METAR,387.0
KGUY 300353Z AUTO 15007KT 10SM CLR 21/17 A2994 RMK AO2 SLP097 T02060167 $,KGUY,2023-05-30T03:53:00Z,36.68,-101.5,20.6,16.7,150,7,,10.0,29.940945,1009.7,,TRUE,TRUE,TRUE,,,,,,CLR,,,,,,,,VFR,,,,,,,,,,,,METAR,950.0
KGUP 300353Z AUTO 19006KT 10SM CLR 16/M03 A3013 RMK AO2 SLP060 T01561028,KGUP,2023-05-30T03:53:00Z,35.52,-108.8,15.6,-2.8,190,6,,10.0,30.129921,1006.0,,TRUE,TRUE,,,,,,,CLR,,,,,,,,VFR,,,,,,,,,,,,METAR,1972.0
KGTF 300353Z 25003KT 10SM BKN095 OVC110 17/08 A2984 RMK AO2 WSHFT 0240 SLP083 T01720078,KGTF,2023-05-30T03:53:00Z,47.47,-111.38,17.2,7.8,250,3,,10.0,29.840551,1008.3,,,TRUE,,,,,,,BKN,9500,OVC,11000,,,,,VFR,,,,,,,,,,,,METAR,1117.0
KGSP 300353Z 04003KT 10SM FEW025 OVC042 19/16 A2997 RMK AO2 SLP139 T01890156,KGSP,2023-05-30T03:53:00Z,34.9,-82.22,18.9,15.6,40,3,,10.0,29.970472,1013.9,,,TRUE,,,,,,,FEW,2500,OVC,4200,,,,,VFR,,,,,,,,,,,,METAR,285.0
KGSH 300353Z AUTO VRB03KT 10SM CLR 19/11 A3000 RMK AO2 SLP154 T01890106,KGSH,2023-05-30T03:53:00Z,41.53,-85.78,18.9,10.6,0,3,,10.0,30.0,1015.4,,TRUE,TRUE,,,,,,,CLR,,,,,,,,VFR,,,,,,,,,,,,METAR,252.0
KGRR 300353Z 06006KT 10SM FEW250 19/09 A3002 RMK AO2 SLP162 LAST T01940094 $,KGRR,2023-05-30T03:53:00Z,42.88,-85.52,19.4,9.4,60,6,,10.0,30.02067,1016.2,,,TRUE,TRUE,,,,,,FEW,25000,,,,,,,VFR,,,,,,,,,,,,METAR,239.0
KGRI 300353Z AUTO 36024G31KT 10SM TS OVC070 22/11 A2992 RMK AO2 PK WND 33033/0321 LTG DSNT N AND NE TSB51 SLP121 T02170111,KGRI,2023-05-30T03:53:00Z,40.97,-98.32,21.7,11.1,360,24,31,10.0,29.920275,1012.1,,TRUE,TRUE,,,,,,TS,OVC,7000,,,,,,,VFR,,,,,,,,,,,,METAR,562.0
KGRB 300353Z 14004KT 10SM CLR 18/07 A3000 RMK AO2 SLP156 T01830067 $,KGRB,2023-05-30T03:53:00Z,44.48,-88.13,18.3,6.7,140,4,,10.0,30.0,1015.6,,,TRUE,TRUE,,,,,,CLR,,,,,,,,VFR,,,,,,,,,,,,METAR,209.0
KGPT 300353Z 00000KT 10SM FEW048 BKN065 23/21 A2992 RMK AO2 SLP130 T02280211,KGPT,2023-05-30T03:53:00Z,30.42,-89.08,22.8,21.1,0,0,,10.0,29.920275,1013.0,,,TRUE,,,,,,,FEW,4800,BKN,6500,,,,,VFR,,,,,,,,,,,,METAR,5.0
KGOK 300353Z AUTO 14005KT 10SM CLR 20/17 A2991 RMK AO2 SLP122 T02000172,KGOK,2023-05-30T03:53:00Z,35.85,-97.4,20.0,17.2,140,5,,10.0,29.911417,1012.2,,TRUE,TRUE,,,,,,,CLR,,,,,,,,VFR,,,,,,,,,,,,METAR,326.0
KGNV 300353Z AUTO 26004KT 10SM CLR 22/19 A2994 RMK AO2 SLP134 T02170189 $,KGNV,2023-05-30T03:53:00Z,29.7,-82.28,21.7,18.9,260,4,,10.0,29.940945,1013.4,,TRUE,TRUE,TRUE,,,,,,CLR,,,,,,,,VFR,,,,,,,,,,,,METAR,41.0
KGMU 300353Z AUTO 00000KT 10SM BKN045 OVC055 21/16 A2997 RMK AO2 SLP140 T02110156,KGMU,2023-05-30T03:53:00Z,34.85,-82.35,21.1,15.6,0,0,,10.0,29.970472,1014.0,,TRUE,TRUE,,,,,,,BKN,4500,OVC,5500,,,,,VFR,,,,,,,,,,,,METAR,309.0
KGLR 300353Z AUTO 15006KT 10SM CLR 18/04 A3006 RMK AO2 SLP172 T01830044,KGLR,2023-05-30T03:53:00Z,45.02,-84.68,18.3,4.4,150,6,,10.0,30.059055,1017.2,,TRUE,TRUE,,,,,,,CLR,,,,,,,,VFR,,,,,,,,,,,,METAR,403.0
KGLH 300353Z AUTO 00000KT 10SM CLR 19/14 A2994 RMK AO2 SLP143 T01890144,KGLH,2023-05-30T03:53:00Z,33.47,-90.98,18.9,14.4,0,0,,10.0,29.940945,1014.3,,TRUE,TRUE,,,,,,,CLR,,,,,,,,VFR,,,,,,,,,,,,METAR,40.0
KGLD 300353Z AUTO 15008KT 10SM CLR 18/12 A2992 RMK AO2 SLP092 T01830122,KGLD,2023-05-30T03:53:00Z,39.37,-101.7,18.3,12.2,150,8,,10.0,29.920275,1009.2,,TRUE,TRUE,,,,,,,CLR,,,,,,,,VFR,,,,,,,,,,,,METAR,1111.0
KGKY 300353Z AUTO 10011KT 10SM CLR 23/18 A2994 RMK AO2 SLP130 T02280178 $,KGKY,2023-05-30T03:53:00Z,32.67,-97.1,22.8,17.8,100,11,,10.0,29.940945,1013.0,,TRUE,TRUE,TRUE,,,,,,CLR,,,,,,,,VFR,,,,,,,,,,,,METAR,189.0
KGKJ 300353Z AUTO 10004KT 10SM CLR 20/12 A3005 RMK AO2 SLP165 T02000117,KGKJ,2023-05-30T03:53:00Z,41.63,-80.22,20.0,11.7,100,4,,10.0,30.050198,1016.5,,TRUE,TRUE,,,,,,,CLR,,,,,,,,VFR,,,,,,,,,,,,METAR,428.0
KGJT 300353Z 04003KT 10SM CLR 21/M08 A2993 RMK AO2 SLP070 T02061083,KGJT,2023-05-30T03:53:00Z,39.13,-108.53,20.6,-8.3,40,3,,10.0,29.929134,1007.0,,,TRUE,,,,,,,CLR,,,,,,,,VFR,,,,,,,,,,,,METAR,1475.0
KGIF 300353Z AUTO 10SM CLR 23/17 A2995 RMK AO2 SLP138 T02280167,KGIF,2023-05-30T03:53:00Z,28.07,-81.75,22.8,16.7,,,,10.0,29.949802,1013.8,,TRUE,TRUE,,,,,,,CLR,,,,,,,,VFR,,,,,,,,,,,,METAR,44.0
KGGW 300353Z AUTO 08008KT 10SM FEW110 18/13 A2977 RMK AO2 SLP073 T01830128,KGGW,2023-05-30T03:53:00Z,48.22,-106.62,18.3,12.8,80,8,,10.0,29.769686,1007.3,,TRUE,TRUE,,,,,,,FEW,11000,,,,,,,VFR,,,,,,,,,,,,METAR,698.0
KGGG 300353Z AUTO 31004KT 10SM BKN090 22/21 A2995 RMK AO2 SLP135 T02220206,KGGG,2023-05-30T03:53:00Z,32.38,-94.72,22.2,20.6,310,4,,10.0,29.949802,1013.5,,TRUE,TRUE,,,,,,,BKN,9000,,,,,,,VFR,,,,,,,,,,,,METAR,107.0
KGFL 300353Z AUTO 19006KT 10SM CLR 16/07 A3015 RMK AO2 SLP208 T01560072,KGFL,2023-05-30T03:53:00Z,43.33,-73.62,15.6,7.2,190,6,,10.0,30.15059,1020.8,,TRUE,TRUE,,,,,,,CLR,,,,,,,,VFR,,,,,,,,,,,,METAR,99.0
KGFK 300353Z VRB03KT 10SM -TSRA SCT080CB OVC100 20/16 A2971 RMK AO2 LTG DSNT S AND SW RAB06E23B31 TSB24 SLP058 FRQ LTGIC OHD TS OHD MOV NE P0006 T02000161 $,KGFK,2023-05-30T03:53:00Z,47.95,-97.18,20.0,16.1,0,3,,10.0,29.71063,1005.8,,,TRUE,TRUE,,,,,-TSRA,SCT,8000,OVC,10000,,,,,VFR,,,,,,0.06,,,,,,METAR,256.0
KGEZ 300353Z AUTO 00000KT 10SM CLR 21/08 A2995 RMK AO2 SLP136 T02060078,KGEZ,2023-05-30T03:53:00Z,39.58,-85.8,20.6,7.8,0,0,,10.0,29.949802,1013.6,,TRUE,TRUE,,,,,,,CLR,,,,,,,,VFR,,,,,,,,,,,,METAR,245.0
KGEY 300353Z AUTO 32009KT 10SM SCT095 20/04 A2988 RMK AO2 SLP086 T02000044,KGEY,2023-05-30T03:53:00Z,44.52,-108.08,20.0,4.4,320,9,,10.0,29.878937,1008.6,,TRUE,TRUE,,,,,,,SCT,9500,,,,,,,VFR,,,,,,,,,,,,METAR,1191.0
KGEG 300353Z 20005KT 10SM FEW100 22/04 A2978 RMK AO2 SLP069 T02220039 $,KGEG,2023-05-30T03:53:00Z,47.62,-117.53,22.2,3.9,200,5,,10.0,29.778543,1006.9,,,TRUE,TRUE,,,,,,FEW,10000,,,,,,,VFR,,,,,,,,,,,,METAR,718.0
KGCC 300353Z AUTO 21005KT 10SM CLR 12/10 A2991 RMK AO2 SLP102 T01220100,KGCC,2023-05-30T03:53:00Z,44.33,-105.55,12.2,10.0,210,5,,10.0,29.911417,1010.2,,TRUE,TRUE,,,,,,,CLR,,,,,,,,VFR,,,,,,,,,,,,METAR,1328.0
KGAG 300353Z AUTO 16009KT 10SM CLR 21/15 A2992 RMK AO2 SLP109 T02110150,KGAG,2023-05-30T03:53:00Z,36.3,-99.77,21.1,15.0,160,9,,10.0,29.920275,1010.9,,TRUE,TRUE,,,,,,,CLR,,,,,,,,VFR,,,,,,,,,,,,METAR,670.0
KFYV 300353Z AUTO 00000KT 9SM CLR 19/16 A2997 RMK AO2 SLP137 T01890156,KFYV,2023-05-30T03:53:00Z,36.02,-94.17,18.9,15.6,0,0,,9.0,29.970472,1013.7,,TRUE,TRUE,,,,,,,CLR,,,,,,,,VFR,,,,,,,,,,,,METAR,377.0
KFXE 300353Z AUTO 05006KT 10SM CLR 27/22 A2990 RMK AO2 SLP128 T02670222 PNO,KFXE,2023-05-30T03:53:00Z,26.2,-80.18,26.7,22.2,50,6,,10.0,29.899607,1012.8,,TRUE,TRUE,,,,,,,CLR,,,,,,,,VFR,,,,,,,,,,,,METAR,3.0
KFWN 300353Z AUTO 00000KT 10SM CLR 12/09 A3019 RMK AO2 SLP220 T01220089,KFWN,2023-05-30T03:53:00Z,41.2,-74.63,12.2,8.9,0,0,,10.0,30.188976,1022.0,,TRUE,TRUE,,,,,,,CLR,,,,,,,,VFR,,,,,,,,,,,,METAR,129.0
KFVE 300353Z AUTO 33003KT 10SM CLR 11/M01 A3016 RMK AO2 SLP214 T01061006 $,KFVE,2023-05-30T03:53:00Z,47.28,-68.3,10.6,-0.6,330,3,,10.0,30.159449,1021.4,,TRUE,TRUE,TRUE,,,,,,CLR,,,,,,,,VFR,,,,,,,,,,,,METAR,299.0
KFUL 300353Z VRB04KT 10SM FEW018 OVC038 17/14 A2997 RMK AO2 SLP147 T01720139 $,KFUL,2023-05-30T03:53:00Z,33.87,-117.98,17.2,13.9,0,4,,10.0,29.970472,1014.7,,,TRUE,TRUE,,,,,,FEW,1800,OVC,3800,,,,,VFR,,,,,,,,,,,,METAR,23.0
KFTY 300353Z 00000KT 10SM CLR 16/14 A2995 RMK AO2 SLP137 T01610144,KFTY,2023-05-30T03:53:00Z,33.78,-84.52,16.1,14.4,0,0,,10.0,29.949802,1013.7,,,TRUE,,,,,,,CLR,,,,,,,,VFR,,,,,,,,,,,,METAR,245.0
KFTW 300353Z 10006KT 10SM CLR 22/18 A2993 RMK AO2 SLP125 T02220183,KFTW,2023-05-30T03:53:00Z,32.83,-97.37,22.2,18.3,100,6,,10.0,29.929134,1012.5,,,TRUE,,,,,,,CLR,,,,,,,,VFR,,,,,,,,,,,,METAR,213.0
KFST 300353Z AUTO 15013KT 10SM CLR 24/14 A2992 RMK AO2 SLP082 T02440139 $,KFST,2023-05-30T03:53:00Z,30.92,-102.92,24.4,13.9,150,13,,10.0,29.920275,1008.2,,TRUE,TRUE,TRUE,,,,,,CLR,,,,,,,,VFR,,,,,,,,,,,,METAR,917.0
KFSM 300353Z AUTO 00000KT 10SM CLR 24/16 A2992 RMK AO2 SLP128 T02440156,KFSM,2023-05-30T03:53:00Z,35.33,-94.37,24.4,15.6,0,0,,10.0,29.920275,1012.8,,TRUE,TRUE,,,,,,,CLR,,,,,,,,VFR,,,,,,,,,,,,METAR,136.0
KFRG 300353Z AUTO 09007KT 10SM CLR 14/09 A3018 RMK AO2 SLP219 T01390089 $,KFRG,2023-05-30T03:53:00Z,40.73,-73.42,13.9,8.9,90,7,,10.0,30.180119,1021.9,,TRUE,TRUE,TRUE,,,,,,CLR,,,,,,,,VFR,,,,,,,,,,,,METAR,23.0
KFPR 300353Z AUTO 08004KT 10SM CLR 23/18 A2992 RMK AO2 SLP130 T02330178,KFPR,2023-05-30T03:53:00Z,27.5,-80.38,23.3,17.8,80,4,,10.0,29.920275,1013.0,,TRUE,TRUE,,,,,,,CLR,,,,,,,,VFR,,,,,,,,,,,,METAR,7.0
KFOZ 300353Z AUTO 14005KT 10SM CLR 21/08 A2988 RMK AO2,KFOZ,2023-05-30T03:53:00Z,47.77,-93.65,21.0,8.0,140,5,,10.0,29.878937,,,TRUE,TRUE,,,,,,,CLR,,,,,,,,VFR,,,,,,,,,,,,METAR,412.0
KFOK 300353Z AUTO 08007KT 050V120 10SM CLR 12/08 A3020 RMK AO2 SLP226 T01220083,KFOK,2023-05-30T03:53:00Z,40.85,-72.62,12.2,8.3,80,7,,10.0,30.200787,1022.6,,TRUE,TRUE,,,,,,,CLR,,,,,,,,VFR,,,,,,,,,,,,METAR,13.0
KFOE 300353Z AUTO 00000KT 10SM CLR 18/15 A2994 RMK AO2 SLP130 T01830150 $,KFOE,2023-05-30T03:53:00Z,38.93,-95.65,18.3,15.0,0,0,,10.0,29.940945,1013.0,,TRUE,TRUE,TRUE,,,,,,CLR,,,,,,,,VFR,,,,,,,,,,,,METAR,315.0
KFNT 300353Z AUTO 10005KT 10SM CLR 18/08 A3004 RMK AO2 SLP168 T01830078,KFNT,2023-05-30T03:53:00Z,42.97,-83.75,18.3,7.8,100,5,,10.0,30.041338,1016.8,,TRUE,TRUE,,,,,,,CLR,,,,,,,,VFR,,,,,,,,,,,,METAR,235.0
KFNB 300353Z AUTO 19007KT 10SM CLR 23/15 A2991 RMK AO2 SLP118 T02280150,KFNB,2023-05-30T03:53:00Z,40.07,-95.58,22.8,15.0,190,7,,10.0,29.911417,1011.8,,TRUE,TRUE,,,,,,,CLR,,,,,,,,VFR,,,,,,,,,,,,METAR,301.0
KFMY 300353Z AUTO 09005KT 10SM CLR 26/21 A2991 RMK AO2 SLP130 T02610206,KFMY,2023-05-30T03:53:00Z,26.58,-81.87,26.1,20.6,90,5,,10.0,29.911417,1013.0,,TRUE,TRUE,,,,,,,CLR,,,,,,,,VFR,,,,,,,,,,,,METAR,4.0
KFMN 300353Z 00000KT 10SM CLR 19/M06 A3001 RMK AO2 SLP110 T01941061,KFMN,2023-05-30T03:53:00Z,36.75,-108.23,19.4,-6.1,0,0,,10.0,30.008858,1011.0,,,TRUE,,,,,,,CLR,,,,,,,,VFR,,,,,,,,,,,,METAR,1677.0
KFLO 300353Z 10004KT 10SM SCT065 19/17 A2994 RMK AO2 SLP134 T01890172,KFLO,2023-05-30T03:53:00Z,34.18,-79.73,18.9,17.2,100,4,,10.0,29.940945,1013.4,,,TRUE,,,,,,,SCT,6500,,,,,,,VFR,,,,,,,,,,,,METAR,43.0
KFLL 300353Z 06009KT 10SM -DZ BKN022 BKN060 BKN250 26/23 A2989 RMK DZB15 SLP122 P0000 T02610228,KFLL,2023-05-30T03:53:00Z,26.07,-80.15,26.1,22.8,60,9,,10.0,29.890747,1012.2,,,,,,,,,-DZ,BKN,2200,BKN,6000,BKN,25000,,,MVFR,,,,,,0.005,,,,,,METAR,1.0
KFLD 300353Z AUTO 17004KT 10SM CLR 18/07 A3000 RMK AO2 SLP154 T01780067,KFLD,2023-05-30T03:53:00Z,43.77,-88.48,17.8,6.7,170,4,,10.0,30.0,1015.4,,TRUE,TRUE,,,,,,,CLR,,,,,,,,VFR,,,,,,,,,,,,METAR,242.0
KFHR 300353Z AUTO 25009G18KT 10SM CLR 12/07 A2989 RMK AO2 SLP122 T01220067 $,KFHR,2023-05-30T03:53:00Z,48.52,-123.03,12.2,6.7,250,9,18,10.0,29.890747,1012.2,,TRUE,TRUE,TRUE,,,,,,CLR,,,,,,,,VFR,,,,,,,,,,,,METAR,34.0
KFFT 300353Z AUTO 00000KT 10SM BKN065 OVC090 20/18 A2998 RMK AO2 SLP146 T02000183,KFFT,2023-05-30T03:53:00Z,38.18,-84.9,20.0,18.3,0,0,,10.0,29.97933,1014.6,,TRUE,TRUE,,,,,,,BKN,6500,OVC,9000,,,,,VFR,,,,,,,,,,,,METAR,235.0
KFFC 300353Z AUTO 29003KT 10SM CLR 17/13 A2995 RMK AO2 SLP140 T01670133,KFFC,2023-05-30T03:53:00Z,33.35,-84.57,16.7,13.3,290,3,,10.0,29.949802,1014.0,,TRUE,TRUE,,,,,,,CLR,,,,,,,,VFR,,,,,,,,,,,,METAR,242.0
KFDY 300353Z AUTO 08005KT 10SM CLR 20/06 A3000 RMK AO2 SLP149 T02000056,KFDY,2023-05-30T03:53:00Z,41.02,-83.67,20.0,5.6,80,5,,10.0,30.0,1014.9,,TRUE,TRUE,,,,,,,CLR,,,,,,,,VFR,,,,,,,,,,,,METAR,247.0
KFDR 300353Z AUTO 14010KT 10SM CLR 22/18 A2989 RMK AO2 SLP105 T02220178,KFDR,2023-05-30T03:53:00Z,34.35,-98.98,22.2,17.8,140,10,,10.0,29.890747,1010.5,,TRUE,TRUE,,,,,,,CLR,,,,,,,,VFR,,,,,,,,,,,,METAR,378.0
KFCM 300353Z AUTO 14006KT 10SM CLR 21/13 A2985 RMK AO2 SLP104 T02060128,KFCM,2023-05-30T03:53:00Z,44.83,-93.47,20.6,12.8,140,6,,10.0,29.84941,1010.4,,TRUE,TRUE,,,,,,,CLR,,,,,,,,VFR,,,,,,,,,,,,METAR,276.0
KFAY 300353Z 03003KT 9SM FEW012 OVC022 19/18 A2995 RMK AO2 SLP137 T01890183,KFAY,2023-05-30T03:53:00Z,34.98,-78.88,18.9,18.3,30,3,,9.0,29.949802,1013.7,,,TRUE,,,,,,,FEW,1200,OVC,2200,,,,,MVFR,,,,,,,,,,,,METAR,57.0
KFAT 300353Z 31014KT 10SM FEW100 BKN150 BKN200 22/10 A2987 RMK AO2 SLP114 T02220100,KFAT,2023-05-30T03:53:00Z,36.78,-119.72,22.2,10.0,310,14,,10.0,29.870079,1011.4,,,TRUE,,,,,,,FEW,10000,BKN,15000,BKN,20000,,,VFR,,,,,,,,,,,,METAR,102.0
KEYE 300353Z AUTO 00000KT 10SM SCT100 21/16 A2995 RMK AO2 SLP136 T02110156 $,KEYE,2023-05-30T03:53:00Z,39.83,-86.3,21.1,15.6,0,0,,10.0,29.949802,1013.6,,TRUE,TRUE,TRUE,,,,,,SCT,10000,,,,,,,VFR,,,,,,,,,,,,METAR,248.0
KEWB 300353Z AUTO 00000KT 10SM CLR 06/06 A3021 RMK AO2 SLP230 T00610061,KEWB,2023-05-30T03:53:00Z,41.68,-70.95,6.1,6.1,0,0,,10.0,30.209646,1023.0,,TRUE,TRUE,,,,,,,CLR,,,,,,,,VFR,,,,,,,,,,,,METAR,22.0
KEVW 300353Z AUTO 32005KT 10SM CLR 14/01 A3008 RMK AO2 SLP108 T01440011 $,KEVW,2023-05-30T03:53:00Z,41.27,-111.03,14.4,1.1,320,5,,10.0,30.079725,1010.8,,TRUE,TRUE,TRUE,,,,,,CLR,,,,,,,,VFR,,,,,,,,,,,,METAR,2178.0
KESF 300353Z AUTO 00000KT 10SM BKN065 OVC085 21/19 A2993 RMK AO2 SLP131 T02110189 $,KESF,2023-05-30T03:53:00Z,31.4,-92.28,21.1,18.9,0,0,,10.0,29.929134,1013.1,,TRUE,TRUE,TRUE,,,,,,BKN,6500,OVC,8500,,,,,VFR,,,,,,,,,,,,METAR,27.0
KEQY 300353Z AUTO 04005KT 10SM CLR 17/17 A2994 RMK AO2 SLP145 T01720167 $,KEQY,2023-05-30T03:53:00Z,35.02,-80.62,17.2,16.7,40,5,,10.0,29.940945,1014.5,,TRUE,TRUE,TRUE,,,,,,CLR,,,,,,,,VFR,,,,,,,,,,,,METAR,205.0
KEPH 300353Z AUTO 31011KT 10SM CLR 24/04 A2971 RMK AO2 SLP053 T02440039,KEPH,2023-05-30T03:53:00Z,47.3,-119.52,24.4,3.9,310,11,,10.0,29.71063,1005.3,,TRUE,TRUE,,,,,,,CLR,,,,,,,,VFR,,,,,,,,,,,,METAR,382.0
KENW 300353Z AUTO 08004KT 10SM CLR 14/06 A3000 RMK AO2 SLP155 T01440056,KENW,2023-05-30T03:53:00Z,42.6,-87.93,14.4,5.6,80,4,,10.0,30.0,1015.5,,TRUE,TRUE,,,,,,,CLR,,,,,,,,VFR,,,,,,,,,,,,METAR,222.0
KEMP 300353Z AUTO 16006KT 10SM FEW055 19/17 A2994 RMK AO2 SLP130 T01940167,KEMP,2023-05-30T03:53:00Z,38.33,-96.2,19.4,16.7,160,6,,10.0,29.940945,1013.0,,TRUE,TRUE,,,,,,,FEW,5500,,,,,,,VFR,,,,,,,,,,,,METAR,366.0
KELY 300353Z AUTO 21006KT 10SM CLR 13/M02 A3002 RMK AO2 SLP091 T01281017,KELY,2023-05-30T03:53:00Z,39.3,-114.85,12.8,-1.7,210,6,,10.0,30.02067,1009.1,,TRUE,TRUE,,,,,,,CLR,,,,,,,,VFR,,,,,,,,,,,,METAR,1906.0
KELN 300353Z AUTO 31019G28KT 10SM CLR 19/06 A2981 RMK AO2 PK WND 30038/0311 SLP086 T01890061,KELN,2023-05-30T03:53:00Z,47.03,-120.53,18.9,6.1,310,19,28,10.0,29.811024,1008.6,,TRUE,TRUE,,,,,,,CLR,,,,,,,,VFR,,,,,,,,,,,,METAR,532.0
KELM 300353Z AUTO 22003KT 10SM CLR 17/11 A3009 RMK AO2 SLP182 T01670106,KELM,2023-05-30T03:53:00Z,42.15,-76.9,16.7,10.6,220,3,,10.0,30.088583,1018.2,,TRUE,TRUE,,,,,,,CLR,,,,,,,,VFR,,,,,,,,,,,,METAR,287.0
KELD 300353Z AUTO 00000KT 10SM CLR 19/17 A2995 RMK AO2 SLP137 T01890172,KELD,2023-05-30T03:53:00Z,33.22,-92.82,18.9,17.2,0,0,,10.0,29.949802,1013.7,,TRUE,TRUE,,,,,,,CLR,,,,,,,,VFR,,,,,,,,,,,,METAR,76.0
KEET 300353Z AUTO 00000KT 10SM CLR 17/16 A2996 RMK AO2 SLP141 T01720156,KEET,2023-05-30T03:53:00Z,33.18,-86.78,17.2,15.6,0,0,,10.0,29.958662,1014.1,,TRUE,TRUE,,,,,,,CLR,,,,,,,,VFR,,,,,,,,,,,,METAR,172.0
KEEO 300353Z AUTO 07004KT 10SM CLR 11/02 A3004 RMK AO2 SLP110 T01060022,KEEO,2023-05-30T03:53:00Z,40.05,-107.88,10.6,2.2,70,4,,10.0,30.041338,1011.0,,TRUE,TRUE,,,,,,,CLR,,,,,,,,VFR,,,,,,,,,,,,METAR,1957.0
KECP 300353Z AUTO 00000KT 8SM CLR 21/19 A2991 RMK AO1 SLP139 T02060189,KECP,2023-05-30T03:53:00Z,30.35,-85.8,20.6,18.9,0,0,,8.0,29.911417,1013.9,,TRUE,TRUE,,,,,,,CLR,,,,,,,,VFR,,,,,,,,,,,,METAR,17.0
KDXR 300353Z AUTO 09003KT 10SM CLR 13/07 A3021 RMK AO2 SLP229 T01330072,KDXR,2023-05-30T03:53:00Z,41.37,-73.48,13.3,7.2,90,3,,10.0,30.209646,1022.9,,TRUE,TRUE,,,,,,,CLR,,,,,,,,VFR,,,,,,,,,,,,METAR,138.0
KDWH 300353Z AUTO 07010G17KT 10SM FEW065 24/17 A2995 RMK AO2 SLP139 T02390172,KDWH,2023-05-30T03:53:00Z,30.07,-95.55,23.9,17.2,70,10,17,10.0,29.949802,1013.9,,TRUE,TRUE,,,,,,,FEW,6500,,,,,,,VFR,,,,,,,,,,,,METAR,46.0
KDVT 300353Z 26013KT 10SM CLR 30/M06 A2983 RMK AO2 SLP078 T03001061,KDVT,2023-05-30T03:53:00Z,33.68,-112.07,30.0,-6.1,260,13,,10.0,29.828741,1007.8,,,TRUE,,,,,,,CLR,,,,,,,,VFR,,,,,,,,,,,,METAR,454.0
KDVP 300353Z AUTO 10014KT 4SM VCTSRA SCT012 BKN016 OVC031 19/16 A2988 RMK AO2 LTG DSNT ALQS T01910155 P0034,KDVP,2023-05-30T03:53:00Z,43.98,-95.78,19.1,15.5,100,14,,4.0,29.878937,,,TRUE,TRUE,,,,,,VCTSRA,SCT,1200,BKN,1600,OVC,3100,,,MVFR,,,,,,0.34,,,,,,METAR,493.0
KDUJ 300353Z AUTO 11004KT 10SM CLR 19/09 A3008 RMK AO2 SLP172 T01940094,KDUJ,2023-05-30T03:53:00Z,41.17,-78.9,19.4,9.4,110,4,,10.0,30.079725,1017.2,,TRUE,TRUE,,,,,,,CLR,,,,,,,,VFR,,,,,,,,,,,,METAR,552.0
KDUB 300353Z AUTO 34010KT 10SM CLR 09/02 A3010 RMK AO2,KDUB,2023-05-30T03:53:00Z,43.55,-109.68,9.0,2.0,340,10,,10.0,30.100393,,,TRUE,TRUE,,,,,,,CLR,,,,,,,,VFR,,,,,,,,,,,,METAR,2205.0
KDTW 300353Z 09003KT 10SM FEW250 21/06 A3004 RMK AO2 SLP169 T02060061,KDTW,2023-05-30T03:53:00Z,42.23,-83.33,20.6,6.1,90,3,,10.0,30.041338,1016.9,,,TRUE,,,,,,,FEW,25000,,,,,,,VFR,,,,,,,,,,,,METAR,192.0
KDTS 300353Z AUTO 36004KT 10SM CLR 23/16 A2992 RMK AO2 SLP132 T02280156,KDTS,2023-05-30T03:53:00Z,30.4,-86.47,22.8,15.6,360,4,,10.0,29.920275,1013.2,,TRUE,TRUE,,,,,,,CLR,,,,,,,,VFR,,,,,,,,,,,,METAR,5.0
KDTO 300353Z AUTO 12009KT 10SM CLR 22/18 A2993 RMK AO2 SLP127 T02220183,KDTO,2023-05-30T03:53:00Z,33.2,-97.2,22.2,18.3,120,9,,10.0,29.929134,1012.7,,TRUE,TRUE,,,,,,,CLR,,,,,,,,VFR,,,,,,,,,,,,METAR,199.0
KDTN 300353Z AUTO 00000KT 10SM CLR 23/19 A2994 RMK AO2 SLP136 T02280194,KDTN,2023-05-30T03:53:00Z,32.55,-93.75,22.8,19.4,0,0,,10.0,29.940945,1013.6,,TRUE,TRUE,,,,,,,CLR,,,,,,,,VFR,,,,,,,,,,,,METAR,53.0
KDRT 300353Z AUTO 15005KT 10SM CLR 23/17 A2989 RMK AO2 SLP113 T02330167 $,KDRT,2023-05-30T03:53:00Z,29.37,-100.92,23.3,16.7,150,5,,10.0,29.890747,1011.3,,TRUE,TRUE,TRUE,,,,,,CLR,,,,,,,,VFR,,,,,,,,,,,,METAR,303.0
KDRO 300353Z AUTO 01004KT 10SM CLR 14/M02 A3010 RMK AO2 SLP120 T01441017 $,KDRO,2023-05-30T03:53:00Z,37.15,-107.77,14.4,-1.7,10,4,,10.0,30.100393,1012.0,,TRUE,TRUE,TRUE,,,,,,CLR,,,,,,,,VFR,,,,,,,,,,,,METAR,2021.0
KDRA 300353Z AUTO 23004KT 10SM CLR 23/M04 A2985 RMK AO2 SLP064 T02331044,KDRA,2023-05-30T03:53:00Z,36.62,-116.03,23.3,-4.4,230,4,,10.0,29.84941,1006.4,,TRUE,TRUE,,,,,,,CLR,,,,,,,,VFR,,,,,,,,,,,,METAR,988.0
KDNL 300353Z AUTO 00000KT 10SM CLR 20/15 A2993 RMK AO2 SLP131 T02000150,KDNL,2023-05-30T03:53:00Z,33.47,-82.03,20.0,15.0,0,0,,10.0,29.929134,1013.1,,TRUE,TRUE,,,,,,,CLR,,,,,,,,VFR,,,,,,,,,,,,METAR,126.0
KDMO 300353Z AUTO 16005KT 9SM CLR 21/12 A2996 RMK AO2 SLP137 T02110117 $,KDMO,2023-05-30T03:53:00Z,38.72,-93.17,21.1,11.7,160,5,,9.0,29.958662,1013.7,,TRUE,TRUE,TRUE,,,,,,CLR,,,,,,,,VFR,,,,,,,,,,,,METAR,271.0
KDMN 300353Z AUTO 27006KT 10SM CLR 24/M02 A2999 RMK AO2 SLP077 T02391017,KDMN,2023-05-30T03:53:00Z,32.27,-107.72,23.9,-1.7,270,6,,10.0,29.991142,1007.7,,TRUE,TRUE,,,,,,,CLR,,,,,,,,VFR,,,,,,,,,,,,METAR,1310.0
KDLS 300353Z AUTO 26013KT 10SM CLR 23/04 A2978 RMK AO2 SLP084 T02330039,KDLS,2023-05-30T03:53:00Z,45.62,-121.17,23.3,3.9,260,13,,10.0,29.778543,1008.4,,TRUE,TRUE,,,,,,,CLR,,,,,,,,VFR,,,,,,,,,,,,METAR,71.0
KDLN 300353Z AUTO 00000KT 10SM CLR 14/07 A2992 RMK AO2 SLP095 T01390072,KDLN,2023-05-30T03:53:00Z,45.25,-112.55,13.9,7.2,0,0,,10.0,29.920275,1009.5,,TRUE,TRUE,,,,,,,CLR,,,,,,,,VFR,,,,,,,,,,,,METAR,1586.0
KDKK 300353Z AUTO 00000KT 10SM CLR 18/11 A3004 RMK AO2 SLP170 T01780106,KDKK,2023-05-30T03:53:00Z,42.5,-79.28,17.8,10.6,0,0,,10.0,30.041338,1017.0,,TRUE,TRUE,,,,,,,CLR,,,,,,,,VFR,,,,,,,,,,,,METAR,205.0
KDHT 300353Z AUTO 16010KT 10SM CLR 20/15 A2998 RMK AO2 SLP103 T02000150,KDHT,2023-05-30T03:53:00Z,36.02,-102.55,20.0,15.0,160,10,,10.0,29.97933,1010.3,,TRUE,TRUE,,,,,,,CLR,,,,,,,,VFR,,,,,,,,,,,,METAR,1217.0
KDHN 300353Z AUTO 34004KT 10SM CLR 21/15 A2996 RMK AO2 SLP141 T02110150,KDHN,2023-05-30T03:53:00Z,31.32,-85.45,21.1,15.0,340,4,,10.0,29.958662,1014.1,,TRUE,TRUE,,,,,,,CLR,,,,,,,,VFR,,,,,,,,,,,,METAR,113.0
KDGW 300353Z AUTO 00000KT 10SM CLR 13/08 A2996 RMK AO2 SLP099 T01330078 $,KDGW,2023-05-30T03:53:00Z,42.8,-105.38,13.3,7.8,0,0,,10.0,29.958662,1009.9,,TRUE,TRUE,TRUE,,,,,,CLR,,,,,,,,VFR,,,,,,,,,,,,METAR,1503.0
KDFW 300353Z 13007KT 10SM FEW160 BKN250 22/19 A2992 RMK AO2 SLP124 T02220189,KDFW,2023-05-30T03:53:00Z,32.9,-97.02,22.2,18.9,130,7,,10.0,29.920275,1012.4,,,TRUE,,,,,,,FEW,16000,BKN,25000,,,,,VFR,,,,,,,,,,,,METAR,168.0
KDFI 300353Z AUTO 00000KT 10SM BKN095 18/08 A3001 RMK AO2 SLP158 T01830083,KDFI,2023-05-30T03:53:00Z,41.33,-84.43,18.3,8.3,0,0,,10.0,30.008858,1015.8,,TRUE,TRUE,,,,,,,BKN,9500,,,,,,,VFR,,,,,,,,,,,,METAR,215.0
KDEW 300353Z AUTO 00000KT 10SM CLR 16/09 A2977 RMK AO2 SLP070 T01610094,KDEW,2023-05-30T03:53:00Z,47.97,-117.43,16.1,9.4,0,0,,10.0,29.769686,1007.0,,TRUE,TRUE,,,,,,,CLR,,,,,,,,VFR,,,,,,,,,,,,METAR,672.0
KDET 300353Z 00000KT 10SM CLR 19/07 A3004 RMK AO2 SLP170 T01940067,KDET,2023-05-30T03:53:00Z,42.4,-83.02,19.4,6.7,0,0,,10.0,30.041338,1017.0,,,TRUE,,,,,,,CLR,,,,,,,,VFR,,,,,,,,,,,,METAR,190.0
KDEN 300353Z 08004KT 10SM FEW160 17/07 A2998 RMK AO2 SLP084 T01670067,KDEN,2023-05-30T03:53:00Z,39.85,-104.65,16.7,6.7,80,4,,10.0,29.97933,1008.4,,,TRUE,,,,,,,FEW,16000,,,,,,,VFR,,,,,,,,,,,,METAR,1656.0
KDCU 300353Z AUTO 00000KT 10SM CLR 16/13 A2998 RMK AO2 SLP147 T01560133,KDCU,2023-05-30T03:53:00Z,34.65,-86.95,15.6,13.3,0,0,,10.0,29.97933,1014.7,,TRUE,TRUE,,,,,,,CLR,,,,,,,,VFR,,,,,,,,,,,,METAR,180.0
KDBQ 300353Z AUTO 12005KT 10SM CLR 21/06 A2998 RMK AO2 SLP145 T02060061 $,KDBQ,2023-05-30T03:53:00Z,42.4,-90.7,20.6,6.1,120,5,,10.0,29.97933,1014.5,,TRUE,TRUE,TRUE,,,,,,CLR,,,,,,,,VFR,,,,,,,,,,,,METAR,317.0
KDAN 300353Z AUTO 00000KT 10SM FEW034 OVC046 18/17 A2999 RMK AO2 SLP146 T01830172,KDAN,2023-05-30T03:53:00Z,36.57,-79.33,18.3,17.2,0,0,,10.0,29.991142,1014.6,,TRUE,TRUE,,,,,,,FEW,3400,OVC,4600,,,,,VFR,,,,,,,,,,,,METAR,170.0
KDAL 300353Z 13012G17KT 10SM FEW065 SCT170 BKN230 22/18 A2993 RMK AO2 SLP130 T02170178,KDAL,2023-05-30T03:53:00Z,32.85,-96.85,21.7,17.8,130,12,17,10.0,29.929134,1013.0,,,TRUE,,,,,,,FEW,6500,SCT,17000,BKN,23000,,,VFR,,,,,,,,,,,,METAR,148.0
KDAB 300353Z 23005KT 10SM FEW150 SCT250 19/17 A2993 RMK AO2 SLP134 T01940167,KDAB,2023-05-30T03:53:00Z,29.18,-81.07,19.4,16.7,230,5,,10.0,29.929134,1013.4,,,TRUE,,,,,,,FEW,15000,SCT,25000,,,,,VFR,,,,,,,,,,,,METAR,8.0
KCYS 300353Z AUTO 00000KT 10SM CLR 14/07 A3005 RMK AO2 SLP097 T01440067,KCYS,2023-05-30T03:53:00Z,41.15,-104.8,14.4,6.7,0,0,,10.0,30.050198,1009.7,,TRUE,TRUE,,,,,,,CLR,,,,,,,,VFR,,,,,,,,,,,,METAR,1868.0
KCXO 300353Z AUTO 08006KT 10SM -RA FEW060 SCT090 BKN120 20/18 A2995 RMK AO2 RAE07B16 TSB02E20 SLP138 P0000 T02000183 $,KCXO,2023-05-30T03:53:00Z,30.35,-95.42,20.0,18.3,80,6,,10.0,29.949802,1013.8,,TRUE,TRUE,TRUE,,,,,-RA,FEW,6000,SCT,9000,BKN,12000,,,VFR,,,,,,0.005,,,,,,METAR,69.0
KCUT 300353Z AUTO 31004KT 10SM CLR 13/04 A2997 RMK AO2 SLP095 T01280044 $,KCUT,2023-05-30T03:53:00Z,43.73,-103.62,12.8,4.4,310,4,,10.0,29.970472,1009.5,,TRUE,TRUE,TRUE,,,,,,CLR,,,,,,,,VFR,,,,,,,,,,,,METAR,1700.0
KCUB 300353Z AUTO 00000KT 10SM CLR 21/17 A2993 RMK AO2 SLP134 T02060167,KCUB,2023-05-30T03:53:00Z,33.97,-81.0,20.6,16.7,0,0,,10.0,29.929134,1013.4,,TRUE,TRUE,,,,,,,CLR,,,,,,,,VFR,,,,,,,,,,,,METAR,55.0
KCSV 300353Z AUTO 00000KT 10SM BKN047 14/14 A3001 RMK AO2 SLP153 T01440139,KCSV,2023-05-30T03:53:00Z,35.95,-85.08,14.4,13.9,0,0,,10.0,30.008858,1015.3,,TRUE,TRUE,,,,,,,BKN,4700,,,,,,,VFR,,,,,,,,,,,,METAR,569.0
KCSM 300353Z AUTO 14007KT 10SM CLR 21/18 A2994 RMK AO2 SLP120 T02110178,KCSM,2023-05-30T03:53:00Z,35.35,-99.2,21.1,17.8,140,7,,10.0,29.940945,1012.0,,TRUE,TRUE,,,,,,,CLR,,,,,,,,VFR,,,,,,,,,,,,METAR,586.0
KCRS 300353Z AUTO 06008KT 10SM SCT045 OVC075 23/18 A2998 RMK AO2 LTG DSNT NE SLP146 T02330183,KCRS,2023-05-30T03:53:00Z,32.03,-96.4,23.3,18.3,60,8,,10.0,29.97933,1014.6,,TRUE,TRUE,,,,,,,SCT,4500,OVC,7500,,,,,VFR,,,,,,,,,,,,METAR,136.0
KCRQ 300353Z AUTO 28004KT 10SM FEW014 OVC025 16/12 A2998 RMK AO2 SLP149 T01610122,KCRQ,2023-05-30T03:53:00Z,33.13,-117.28,16.1,12.2,280,4,,10.0,29.97933,1014.9,,TRUE,TRUE,,,,,,,FEW,1400,OVC,2500,,,,,MVFR,,,,,,,,,,,,METAR,96.0
KCRG 300353Z AUTO 19003KT 10SM FEW100 23/18 A2990 RMK AO2 SLP125 T02280178,KCRG,2023-05-30T03:53:00Z,30.33,-81.52,22.8,17.8,190,3,,10.0,29.899607,1012.5,,TRUE,TRUE,,,,,,,FEW,10000,,,,,,,VFR,,,,,,,,,,,,METAR,12.0
KCRE 300353Z AUTO 00000KT 10SM SCT032 18/17 A2994 RMK AO1 SLP138 T01780167,KCRE,2023-05-30T03:53:00Z,33.82,-78.72,17.8,16.7,0,0,,10.0,29.940945,1013.8,,TRUE,TRUE,,,,,,,SCT,3200,,,,,,,VFR,,,,,,,,,,,,METAR,9.0
KCQC 300353Z AUTO 21007KT 10SM CLR 15/M06 A3015 RMK AO2 SLP119 T01501061,KCQC,2023-05-30T03:53:00Z,35.0,-105.67,15.0,-6.1,210,7,,10.0,30.15059,1011.9,,TRUE,TRUE,,,,,,,CLR,,,,,,,,VFR,,,,,,,,,,,,METAR,2163.0
KCPS 300353Z AUTO 00000KT 10SM CLR 17/11 A2995 RMK AO2 SLP140 T01670106 $,KCPS,2023-05-30T03:53:00Z,38.53,-90.15,16.7,10.6,0,0,,10.0,29.949802,1014.0,,TRUE,TRUE,TRUE,,,,,,CLR,,,,,,,,VFR,,,,,,,,,,,,METAR,125.0
KCPR 300353Z AUTO 28003KT 10SM CLR 14/04 A2996 RMK AO2 SLP091 T01390039,KCPR,2023-05-30T03:53:00Z,42.9,-106.47,13.9,3.9,280,3,,10.0,29.958662,1009.1,,TRUE,TRUE,,,,,,,CLR,,,,,,,,VFR,,,,,,,,,,,,METAR,1623.0
KCOT 300353Z AUTO 16006KT 10SM CLR 22/19 A2988 RMK AO2 RAE17 SLP111 P0000 T02170194 TSNO $,KCOT,2023-05-30T03:53:00Z,28.45,-99.22,21.7,19.4,160,6,,10.0,29.878937,1011.1,,TRUE,TRUE,TRUE,,TRUE,,,,CLR,,,,,,,,VFR,,,,,,0.005,,,,,,METAR,144.0
KCNY 300353Z AUTO 00000KT 10SM CLR 21/M09 A2989 RMK AO2 SLP065 T02111094,KCNY,2023-05-30T03:53:00Z,38.77,-109.75,21.1,-9.4,0,0,,10.0,29.890747,1006.5,,TRUE,TRUE,,,,,,,CLR,,,,,,,,VFR,,,,,,,,,,,,METAR,1392.0
KCNO 300353Z 26008KT 10SM CLR 15/11 A2998 RMK AO2 SLP149 T01500111 $,KCNO,2023-05-30T03:53:00Z,33.98,-117.62,15.0,11.1,260,8,,10.0,29.97933,1014.9,,,TRUE,TRUE,,,,,,CLR,,,,,,,,VFR,,,,,,,,,,,,METAR,191.0
KCNM 300353Z AUTO 16006KT 10SM CLR 23/M02 A2988 RMK AO2 SLP068 T02281022,KCNM,2023-05-30T03:53:00Z,32.33,-104.25,22.8,-2.2,160,6,,10.0,29.878937,1006.8,,TRUE,TRUE,,,,,,,CLR,,,,,,,,VFR,,,,,,,,,,,,METAR,993.0
KCMX 300353Z AUTO 00000KT 10SM CLR 13/04 A2996 RMK AO2 SLP142 T01330039,KCMX,2023-05-30T03:53:00Z,47.17,-88.48,13.3,3.9,0,0,,10.0,29.958662,1014.2,,TRUE,TRUE,,,,,,,CLR,,,,,,,,VFR,,,,,,,,,,,,METAR,326.0
KCMI 300353Z AUTO 29005KT 10SM BKN085 21/06 A2997 RMK AO2 SLP143 T02110056,KCMI,2023-05-30T03:53:00Z,40.03,-88.27,21.1,5.6,290,5,,10.0,29.970472,1014.3,,TRUE,TRUE,,,,,,,BKN,8500,,,,,,,VFR,,,,,,,,,,,,METAR,227.0
KCLM 300353Z AUTO 28008G14KT 10SM CLR 11/07 A2995 RMK AO2 SLP143 T01060067,KCLM,2023-05-30T03:53:00Z,48.12,-123.5,10.6,6.7,280,8,14,10.0,29.949802,1014.3,,TRUE,TRUE,,,,,,,CLR,,,,,,,,VFR,,,,,,,,,,,,METAR,81.0
KCLL 300353Z AUTO 08006KT 10SM CLR 24/18 A2994 RMK AO2 SLP133 T02390183,KCLL,2023-05-30T03:53:00Z,30.58,-96.37,23.9,18.3,80,6,,10.0,29.940945,1013.3,,TRUE,TRUE,,,,,,,CLR,,,,,,,,VFR,,,,,,,,,,,,METAR,96.0
KCKB 300353Z AUTO 00000KT 10SM CLR 19/12 A3004 RMK AO2 SLP158 T01940122,KCKB,2023-05-30T03:53:00Z,39.3,-80.22,19.4,12.2,0,0,,10.0,30.041338,1015.8,,TRUE,TRUE,,,,,,,CLR,,,,,,,,VFR,,,,,,,,,,,,METAR,368.0
KCHO 300353Z AUTO 05007KT 10SM BKN008 OVC019 21/18 A3004 RMK AO2 RAE33 CIG 005V010 SLP165 P0001 T02060178,KCHO,2023-05-30T03:53:00Z,38.13,-78.45,20.6,17.8,50,7,,10.0,30.041338,1016.5,,TRUE,TRUE,,,,,,,BKN,800,OVC,1900,,,,,IFR,,,,,,0.01,,,,,,METAR,193.0
KCHA 300353Z 00000KT 10SM FEW040 FEW250 18/14 A2997 RMK AO2 SLP144 LAST T01780139,KCHA,2023-05-30T03:53:00Z,35.03,-85.2,17.8,13.9,0,0,,10.0,29.970472,1014.4,,,TRUE,,,,,,,FEW,4000,FEW,25000,,,,,VFR,,,,,,,,,,,,METAR,203.0
KCGI 300353Z AUTO 27003KT 10SM CLR 18/13 A2995 RMK AO2 SLP139 T01780128,KCGI,2023-05-30T03:53:00Z,37.23,-89.58,17.8,12.8,270,3,,10.0,29.949802,1013.9,,TRUE,TRUE,,,,,,,CLR,,,,,,,,VFR,,,,,,,,,,,,METAR,103.0
KCEZ 300353Z AUTO 06008KT 10SM CLR 13/02 A3005 RMK AO2 SLP107 T01330022,KCEZ,2023-05-30T03:53:00Z,37.3,-108.63,13.3,2.2,60,8,,10.0,30.050198,1010.7,,TRUE,TRUE,,,,,,,CLR,,,,,,,,VFR,,,,,,,,,,,,METAR,1801.0
KCEW 300353Z AUTO 00000KT 10SM CLR 17/14 A2994 RMK AO2 SLP136 T01670144 $,KCEW,2023-05-30T03:53:00Z,30.78,-86.52,16.7,14.4,0,0,,10.0,29.940945,1013.6,,TRUE,TRUE,TRUE,,,,,,CLR,,,,,,,,VFR,,,,,,,,,,,,METAR,47.0
KCDW 300353Z AUTO 12008KT 10SM CLR 16/05 A3019 RMK AO2 SLP227 T01560050,KCDW,2023-05-30T03:53:00Z,40.88,-74.28,15.6,5.0,120,8,,10.0,30.188976,1022.7,,TRUE,TRUE,,,,,,,CLR,,,,,,,,VFR,,,,,,,,,,,,METAR,52.0
KCDS 300353Z AUTO 14007KT 10SM CLR 21/18 A2993 RMK AO2 SLP112 T02110178,KCDS,2023-05-30T03:53:00Z,34.43,-100.28,21.1,17.8,140,7,,10.0,29.929134,1011.2,,TRUE,TRUE,,,,,,,CLR,,,,,,,,VFR,,,,,,,,,,,,METAR,595.0
KCDR 300353Z AUTO 31004KT 10SM SCT095 18/12 A2988 RMK AO2 RAE0259B19E49 SLP099 P0000 T01780122,KCDR,2023-05-30T03:53:00Z,42.83,-103.1,17.8,12.2,310,4,,10.0,29.878937,1009.9,,TRUE,TRUE,,,,,,,SCT,9500,,,,,,,VFR,,,,,,0.005,,,,,,METAR,1002.0
KCDC 300353Z AUTO 22006KT 10SM CLR 16/M03 A3001 RMK AO2 SLP102 T01561028,KCDC,2023-05-30T03:53:00Z,37.7,-113.1,15.6,-2.8,220,6,,10.0,30.008858,1010.2,,TRUE,TRUE,,,,,,,CLR,,,,,,,,VFR,,,,,,,,,,,,METAR,1703.0
KCCR 300353Z 24009KT 10SM CLR 14/09 A2996 RMK AO2 SLP131 T01440094 $,KCCR,2023-05-30T03:53:00Z,38.0,-122.05,14.4,9.4,240,9,,10.0,29.958662,1013.1,,,TRUE,TRUE,,,,,,CLR,,,,,,,,VFR,,,,,,,,,,,,METAR,6.0
KCAG 300353Z AUTO 21005KT 10SM CLR 11/04 A3004 RMK AO2 SLP122 T01110044,KCAG,2023-05-30T03:53:00Z,40.5,-107.52,11.1,4.4,210,5,,10.0,30.041338,1012.2,,TRUE,TRUE,,,,,,,CLR,,,,,,,,VFR,,,,,,,,,,,,METAR,1888.0
KBYI 300353Z AUTO 00000KT 10SM CLR 14/11 A2992 RMK AO2 SLP098 T01390106,KBYI,2023-05-30T03:53:00Z,42.55,-113.77,13.9,10.6,0,0,,10.0,29.920275,1009.8,,TRUE,TRUE,,,,,,,CLR,,,,,,,,VFR,,,,,,,,,,,,METAR,1263.0
KBYG 300353Z AUTO 25005KT 10SM CLR 16/09 A2995 RMK AO2 SLP095 T01560094,KBYG,2023-05-30T03:53:00Z,44.38,-106.72,15.6,9.4,250,5,,10.0,29.949802,1009.5,,TRUE,TRUE,,,,,,,CLR,,,,,,,,VFR,,,,,,,,,,,,METAR,1503.0
KBWG 300353Z AUTO 10003KT 10SM CLR 19/14 A2996 RMK AO2 SLP139 T01890144,KBWG,2023-05-30T03:53:00Z,36.97,-86.42,18.9,14.4,100,3,,10.0,29.958662,1013.9,,TRUE,TRUE,,,,,,,CLR,,,,,,,,VFR,,,,,,,,,,,,METAR,159.0
KBVY 300353Z AUTO 00000KT 10SM CLR 08/07 RMK AO2 SLPNO T00780067 $,KBVY,2023-05-30T03:53:00Z,42.58,-70.92,7.8,6.7,0,0,,10.0,,,,TRUE,TRUE,TRUE,,,,,,CLR,,,,,,,,VFR,,,,,,,,,,,,METAR,28.0
KBVO 300353Z AUTO 00000KT 10SM BKN060 19/18 A2994 RMK AO2 SLP129 T01940178,KBVO,2023-05-30T03:53:00Z,36.77,-96.02,19.4,17.8,0,0,,10.0,29.940945,1012.9,,TRUE,TRUE,,,,,,,BKN,6000,,,,,,,VFR,,,,,,,,,,,,METAR,210.0
KBUR 300353Z 17007KT 10SM OVC023 16/11 A2998 RMK AO2 SLP141 T01610111,KBUR,2023-05-30T03:53:00Z,34.2,-118.37,16.1,11.1,170,7,,10.0,29.97933,1014.1,,,TRUE,,,,,,,OVC,2300,,,,,,,MVFR,,,,,,,,,,,,METAR,221.0
KBTR 300353Z 00000KT 10SM FEW060 BKN075 25/19 A2993 RMK AO2 SLP132 T02500194,KBTR,2023-05-30T03:53:00Z,30.53,-91.15,25.0,19.4,0,0,,10.0,29.929134,1013.2,,,TRUE,,,,,,,FEW,6000,BKN,7500,,,,,VFR,,,,,,,,,,,,METAR,20.0
KBTM 300353Z AUTO 11005KT 10SM FEW085 13/08 A2996 RMK AO2 SLP105 T01330078 $,KBTM,2023-05-30T03:53:00Z,45.97,-112.5,13.3,7.8,110,5,,10.0,29.958662,1010.5,,TRUE,TRUE,TRUE,,,,,,FEW,8500,,,,,,,VFR,,,,,,,,,,,,METAR,1680.0
KBTL 300353Z AUTO 15004KT 10SM CLR 21/11 A3002 RMK AO2 SLP160 T02110111,KBTL,2023-05-30T03:53:00Z,42.32,-85.25,21.1,11.1,150,4,,10.0,30.02067,1016.0,,TRUE,TRUE,,,,,,,CLR,,,,,,,,VFR,,,,,,,,,,,,METAR,282.0
KBRO 300353Z 12004KT 10SM CLR 27/22 A2988 RMK AO2 LTG DSNT NW SLP118 T02670222 $,KBRO,2023-05-30T03:53:00Z,25.92,-97.42,26.7,22.2,120,4,,10.0,29.878937,1011.8,,,TRUE,TRUE,,,,,,CLR,,,,,,,,VFR,,,,,,,,,,,,METAR,6.0
KBRL 300353Z AUTO 00000KT 10SM CLR 19/08 A2996 RMK AO2 SLP140 T01890078 $,KBRL,2023-05-30T03:53:00Z,40.77,-91.13,18.9,7.8,0,0,,10.0,29.958662,1014.0,,TRUE,TRUE,TRUE,,,,,,CLR,,,,,,,,VFR,,,,,,,,,,,,METAR,208.0
KBRD 300353Z AUTO 14004KT 10SM CLR 20/10 A2984 RMK AO2 SLP100 T02000100,KBRD,2023-05-30T03:53:00Z,46.4,-94.13,20.0,10.0,140,4,,10.0,29.840551,1010.0,,TRUE,TRUE,,,,,,,CLR,,,,,,,,VFR,,,,,,,,,,,,METAR,372.0
KBPT 300353Z AUTO 00000KT 10SM CLR 22/21 A2992 RMK AO2 SLP131 T02220206,KBPT,2023-05-30T03:53:00Z,29.95,-94.03,22.2,20.6,0,0,,10.0,29.920275,1013.1,,TRUE,TRUE,,,,,,,CLR,,,,,,,,VFR,,,,,,,,,,,,METAR,6.0
KBPK 300353Z AUTO 17003KT 10SM CLR 20/12 A2996 RMK AO2 SLP136 T02000117,KBPK,2023-05-30T03:53:00Z,36.37,-92.47,20.0,11.7,170,3,,10.0,29.958662,1013.6,,TRUE,TRUE,,,,,,,CLR,,,,,,,,VFR,,,,,,,,,,,,METAR,279.0
KBPI 300353Z AUTO 02007KT 10SM CLR 09/04 A3011 RMK AO2 SLP131 T00940044 $,KBPI,2023-05-30T03:53:00Z,42.58,-110.1,9.4,4.4,20,7,,10.0,30.109253,1013.1,,TRUE,TRUE,TRUE,,,,,,CLR,,,,,,,,VFR,,,,,,,,,,,,METAR,2120.0
KBOI 300353Z 01004KT 10SM CLR 23/07 A2982 RMK AO2 SLP071 T02330067,KBOI,2023-05-30T03:53:00Z,43.57,-116.23,23.3,6.7,10,4,,10.0,29.819881,1007.1,,,TRUE,,,,,,,CLR,,,,,,,,VFR,,,,,,,,,,,,METAR,860.0
KBNO 300353Z AUTO 06008G17KT 10SM -RA SCT055 OVC090 19/08 A2990 RMK AO2 LTG DSNT SE RAB31 SLP091 P0002 T01890078,KBNO,2023-05-30T03:53:00Z,43.6,-118.95,18.9,7.8,60,8,17,10.0,29.899607,1009.1,,TRUE,TRUE,,,,,,-RA,SCT,5500,OVC,9000,,,,,VFR,,,,,,0.02,,,,,,METAR,1263.0
KBNA 300353Z 19003KT 10SM FEW050 19/14 A2996 RMK AO2 SLP142 T01940139 $,KBNA,2023-05-30T03:53:00Z,36.12,-86.68,19.4,13.9,190,3,,10.0,29.958662,1014.2,,,TRUE,TRUE,,,,,,FEW,5000,,,,,,,VFR,,,,,,,,,,,,METAR,168.0
KBMQ 300353Z AUTO 00000KT 10SM CLR 20/19 A2997 RMK AO2 SLP133 T02000189,KBMQ,2023-05-30T03:53:00Z,30.73,-98.23,20.0,18.9,0,0,,10.0,29.970472,1013.3,,TRUE,TRUE,,,,,,,CLR,,,,,,,,VFR,,,,,,,,,,,,METAR,387.0
KBMG 300353Z AUTO 00000KT 10SM CLR 17/13 A2996 RMK AO2 SLP138 T01670128,KBMG,2023-05-30T03:53:00Z,39.15,-86.62,16.7,12.8,0,0,,10.0,29.958662,1013.8,,TRUE,TRUE,,,,,,,CLR,,,,,,,,VFR,,,,,,,,,,,,METAR,254.0
KBLI 300353Z 18013G22KT 10SM CLR 15/09 A2988 RMK AO2 SLP126 T01500089,KBLI,2023-05-30T03:53:00Z,48.8,-122.53,15.0,8.9,180,13,22,10.0,29.878937,1012.6,,,TRUE,,,,,,,CLR,,,,,,,,VFR,,,,,,,,,,,,METAR,46.0
KBKV 300353Z AUTO 00000KT 10SM CLR 19/18 A2994 RMK AO2 SLP137 T01890178,KBKV,2023-05-30T03:53:00Z,28.47,-82.45,18.9,17.8,0,0,,10.0,29.940945,1013.7,,TRUE,TRUE,,,,,,,CLR,,,,,,,,VFR,,,,,,,,,,,,METAR,21.0
KBKL 300353Z 04003KT 10SM CLR 18/12 A3000 RMK AO2 SLP156 T01830122,KBKL,2023-05-30T03:53:00Z,41.53,-81.67,18.3,12.2,40,3,,10.0,30.0,1015.6,,,TRUE,,,,,,,CLR,,,,,,,,VFR,,,,,,,,,,,,METAR,177.0
KBKE 300353Z AUTO 26005KT 10SM CLR 14/11 A2987 RMK AO2 SLP103 T01390111,KBKE,2023-05-30T03:53:00Z,44.85,-117.82,13.9,11.1,260,5,,10.0,29.870079,1010.3,,TRUE,TRUE,,,,,,,CLR,,,,,,,,VFR,,,,,,,,,,,,METAR,1025.0
KBIV 300353Z AUTO 00000KT 10SM CLR 16/07 A3001 RMK AO2 SLP159 T01560067,KBIV,2023-05-30T03:53:00Z,42.75,-86.1,15.6,6.7,0,0,,10.0,30.008858,1015.9,,TRUE,TRUE,,,,,,,CLR,,,,,,,,VFR,,,,,,,,,,,,METAR,207.0
KBIL 300353Z 26008KT 10SM TS SCT065CB BKN080 BKN110 19/11 A2988 RMK AO2 RAB19E43 TSB0259 SLP091 OCNL LTGIC OHD TS OHD MOV E CB DSNT ALQDS P0005 T01890106 $,KBIL,2023-05-30T03:53:00Z,45.8,-108.55,18.9,10.6,260,8,,10.0,29.878937,1009.1,,,TRUE,TRUE,,,,,TS,SCT,6500,BKN,8000,BKN,11000,,,VFR,,,,,,0.05,,,,,,METAR,1089.0
KBHM 300353Z 09003KT 10SM FEW250 17/14 A2999 RMK AO2 SLP148 T01720139,KBHM,2023-05-30T03:53:00Z,33.57,-86.75,17.2,13.9,90,3,,10.0,29.991142,1014.8,,,TRUE,,,,,,,FEW,25000,,,,,,,VFR,,,,,,,,,,,,METAR,191.0
KBGR 300353Z 19006KT 10SM FEW250 09/04 A3024 RMK AO2 SLP240 T00890044,KBGR,2023-05-30T03:53:00Z,44.8,-68.82,8.9,4.4,190,6,,10.0,30.239174,1024.0,,,TRUE,,,,,,,FEW,25000,,,,,,,VFR,,,,,,,,,,,,METAR,45.0
KBGM 300353Z AUTO 17008KT 10SM CLR 19/09 A3012 RMK AO2 SLP190 T01940089,KBGM,2023-05-30T03:53:00Z,42.22,-75.98,19.4,8.9,170,8,,10.0,30.121063,1019.0,,TRUE,TRUE,,,,,,,CLR,,,,,,,,VFR,,,,,,,,,,,,METAR,485.0
KBFM 300353Z AUTO 00000KT 10SM CLR 19/17 A2995 RMK AO2 SLP140 T01940167,KBFM,2023-05-30T03:53:00Z,30.62,-88.07,19.4,16.7,0,0,,10.0,29.949802,1014.0,,TRUE,TRUE,,,,,,,CLR,,,,,,,,VFR,,,,,,,,,,,,METAR,7.0
KBFI 300353Z VRB03KT 10SM CLR 17/10 A2990 RMK AO2 SLP125 T01720100 $,KBFI,2023-05-30T03:53:00Z,47.55,-122.32,17.2,10.0,0,3,,10.0,29.899607,1012.5,,,TRUE,TRUE,,,,,,CLR,,,,,,,,VFR,,,,,,,,,,,,METAR,7.0
KBFF 300353Z AUTO 02005KT 10SM CLR 16/12 A2994 RMK AO2 SLP099 T01560122,KBFF,2023-05-30T03:53:00Z,41.87,-103.6,15.6,12.2,20,5,,10.0,29.940945,1009.9,,TRUE,TRUE,,,,,,,CLR,,,,,,,,VFR,,,,,,,,,,,,METAR,1204.0
KBFD 300353Z AUTO 00000KT 10SM CLR 16/11 A3011 RMK AO2 SLP181 T01610111,KBFD,2023-05-30T03:53:00Z,41.8,-78.63,16.1,11.1,0,0,,10.0,30.109253,1018.1,,TRUE,TRUE,,,,,,,CLR,,,,,,,,VFR,,,,,,,,,,,,METAR,642.0
KBEH 300353Z AUTO 00000KT 10SM CLR 14/08 A3000 RMK AO2 SLP157 T01390083 $,KBEH,2023-05-30T03:53:00Z,42.13,-86.42,13.9,8.3,0,0,,10.0,30.0,1015.7,,TRUE,TRUE,TRUE,,,,,,CLR,,,,,,,,VFR,,,,,,,,,,,,METAR,196.0
KBDE 300353Z AUTO 16006KT 10SM -RA OVC100 18/15 A2981 RMK AO2 SLP091 P0001 T01830150 $,KBDE,2023-05-30T03:53:00Z,48.73,-94.62,18.3,15.0,160,6,,10.0,29.811024,1009.1,,TRUE,TRUE,TRUE,,,,,-RA,OVC,10000,,,,,,,VFR,,,,,,0.01,,,,,,METAR,330.0
KBCE 300353Z AUTO 26004KT 10SM CLR 08/M02 A3014 RMK AO2 SLP109 T00831017,KBCE,2023-05-30T03:53:00Z,37.7,-112.15,8.3,-1.7,260,4,,10.0,30.138779,1010.9,,TRUE,TRUE,,,,,,,CLR,,,,,,,,VFR,,,,,,,,,,,,METAR,2311.0
KBBW 300353Z AUTO 29010KT 10SM -RA OVC095 19/13 A2993 RMK AO2 WSHFT 0240 LTG DSNT E AND SE RAE13B33 TSE25 SLP116 P0002 T01890133,KBBW,2023-05-30T03:53:00Z,41.43,-99.63,18.9,13.3,290,10,,10.0,29.929134,1011.6,,TRUE,TRUE,,,,,,-RA,OVC,9500,,,,,,,VFR,,,,,,0.02,,,,,,METAR,771.0
KBAF 300353Z AUTO 00000KT 10SM CLR 12/03 A3021 RMK AO2 SLP231 T01170028 $,KBAF,2023-05-30T03:53:00Z,42.17,-72.72,11.7,2.8,0,0,,10.0,30.209646,1023.1,,TRUE,TRUE,TRUE,,,,,,CLR,,,,,,,,VFR,,,,,,,,,,,,METAR,80.0
KAZO 300353Z AUTO 00000KT 10SM CLR 19/09 A3002 RMK AO2 SLP160 T01890094,KAZO,2023-05-30T03:53:00Z,42.23,-85.55,18.9,9.4,0,0,,10.0,30.02067,1016.0,,TRUE,TRUE,,,,,,,CLR,,,,,,,,VFR,,,,,,,,,,,,METAR,264.0
KAXN 300353Z AUTO 13009KT 10SM CLR 20/13 A2981 RMK AO2 LTG DSNT SW SLP087 T02000128,KAXN,2023-05-30T03:53:00Z,45.87,-95.4,20.0,12.8,130,9,,10.0,29.811024,1008.7,,TRUE,TRUE,,,,,,,CLR,,,,,,,,VFR,,,,,,,,,,,,METAR,433.0
KAWM 300353Z AUTO 00000KT 10SM CLR A2994 RMK AO2 SLPNO $,KAWM,2023-05-30T03:53:00Z,35.13,-90.23,,,0,0,,10.0,29.940945,,,TRUE,TRUE,TRUE,,,,,,CLR,,,,,,,,VFR,,,,,,,,,,,,METAR,64.0
KAUS 300353Z 18006KT 10SM FEW250 22/20 A2991 RMK AO2 SLP121 T02170200 $,KAUS,2023-05-30T03:53:00Z,30.18,-97.68,21.7,20.0,180,6,,10.0,29.911417,1012.1,,,TRUE,TRUE,,,,,,FEW,25000,,,,,,,VFR,,,,,,,,,,,,METAR,148.0
KAUG 300353Z AUTO 00000KT 10SM CLR 09/06 A3024 RMK AO2 SLP242 T00940061,KAUG,2023-05-30T03:53:00Z,44.32,-69.8,9.4,6.1,0,0,,10.0,30.239174,1024.2,,TRUE,TRUE,,,,,,,CLR,,,,,,,,VFR,,,,,,,,,,,,METAR,107.0
KATY 300353Z AUTO 09003KT 10SM VCTS BKN075 BKN100 24/13 A2975 RMK AO2 LTG DSNT NE AND E SLP064 T02390133,KATY,2023-05-30T03:53:00Z,44.9,-97.15,23.9,13.3,90,3,,10.0,29.749016,1006.4,,TRUE,TRUE,,,,,,VCTS,BKN,7500,BKN,10000,,,,,VFR,,,,,,,,,,,,METAR,531.0
KASX 300353Z AUTO 00000KT 10SM CLR 10/08 A2993 RMK AO2 SLP135 T01000078,KASX,2023-05-30T03:53:00Z,46.55,-90.92,10.0,7.8,0,0,,10.0,29.929134,1013.5,,TRUE,TRUE,,,,,,,CLR,,,,,,,,VFR,,,,,,,,,,,,METAR,249.0
KASE 300353Z AUTO 21009KT 10SM CLR 12/M05 A3015 RMK AO2 SLP103 T01171050,KASE,2023-05-30T03:53:00Z,39.23,-106.87,11.7,-5.0,210,9,,10.0,30.15059,1010.3,,TRUE,TRUE,,,,,,,CLR,,,,,,,,VFR,,,,,,,,,,,,METAR,2384.0
KASD 300353Z AUTO 00000KT 10SM SCT035 BKN065 OVC100 24/22 A2992 RMK AO2 RAE00 SLP131 P0000 T02390222,KASD,2023-05-30T03:53:00Z,30.35,-89.82,23.9,22.2,0,0,,10.0,29.920275,1013.1,,TRUE,TRUE,,,,,,,SCT,3500,BKN,6500,OVC,10000,,,VFR,,,,,,0.005,,,,,,METAR,8.0
KARB 300353Z 00000KT 10SM CLR 14/10 A3004 RMK AO2 SLP168 T01440100,KARB,2023-05-30T03:53:00Z,42.22,-83.73,14.4,10.0,0,0,,10.0,30.041338,1016.8,,,TRUE,,,,,,,CLR,,,,,,,,VFR,,,,,,,,,,,,METAR,251.0
KARA 300353Z AUTO 00000KT 10SM CLR 23/20 A2993 RMK AO2 SLP133 T02280200,KARA,2023-05-30T03:53:00Z,30.03,-91.88,22.8,20.0,0,0,,10.0,29.929134,1013.3,,TRUE,TRUE,,,,,,,CLR,,,,,,,,VFR,,,,,,,,,,,,METAR,5.0
KAQP 300353Z AUTO 16010KT 10SM -RA 20/15 A2977 RMK AO2 LTG DSNT NE THRU S,KAQP,2023-05-30T03:53:00Z,45.22,-96.0,20.0,15.0,160,10,,10.0,29.769686,,,TRUE,TRUE,,,,,,-RA,,,,,,,,,,,,,,,,,,,,,METAR,312.0
KAPF 300353Z AUTO 08007KT 10SM CLR 26/21 A2991 RMK AO2 SLP126 T02610206 PWINO,KAPF,2023-05-30T03:53:00Z,26.15,-81.77,26.1,20.6,80,7,,10.0,29.911417,1012.6,,TRUE,TRUE,,,,,TRUE,,CLR,,,,,,,,VFR,,,,,,,,,,,,METAR,2.0
KAPA 300353Z 03004KT 10SM FEW140 17/06 A3000 RMK AO2 SLP094 T01720056,KAPA,2023-05-30T03:53:00Z,39.57,-104.85,17.2,5.6,30,4,,10.0,30.0,1009.4,,,TRUE,,,,,,,FEW,14000,,,,,,,VFR,,,,,,,,,,,,METAR,1791.0
KAOO 300353Z AUTO 12010KT 10SM CLR 20/10 A3010 RMK AO2 SLP184 T02000100,KAOO,2023-05-30T03:53:00Z,40.3,-78.32,20.0,10.0,120,10,,10.0,30.100393,1018.4,,TRUE,TRUE,,,,,,,CLR,,,,,,,,VFR,,,,,,,,,,,,METAR,450.0
KAOH 300353Z AUTO 06004KT 10SM CLR 18/08 A3001 RMK AO2 SLP154 T01830083,KAOH,2023-05-30T03:53:00Z,40.7,-84.02,18.3,8.3,60,4,,10.0,30.008858,1015.4,,TRUE,TRUE,,,,,,,CLR,,,,,,,,VFR,,,,,,,,,,,,METAR,294.0
KANB 300353Z AUTO 00000KT 10SM CLR 15/14 A2996 RMK AO2 SLP140 T01500139,KANB,2023-05-30T03:53:00Z,33.58,-85.85,15.0,13.9,0,0,,10.0,29.958662,1014.0,,TRUE,TRUE,,,,,,,CLR,,,,,,,,VFR,,,,,,,,,,,,METAR,187.0
KAMW 300353Z AUTO 15006KT 10SM CLR 21/11 A2992 RMK AO2 SLP123 T02060111,KAMW,2023-05-30T03:53:00Z,41.98,-93.62,20.6,11.1,150,6,,10.0,29.920275,1012.3,,TRUE,TRUE,,,,,,,CLR,,,,,,,,VFR,,,,,,,,,,,,METAR,282.0
KAMA 300353Z 14010KT 10SM CLR 20/16 A2998 RMK AO2 SLP107 T02000156,KAMA,2023-05-30T03:53:00Z,35.22,-101.72,20.0,15.6,140,10,,10.0,29.97933,1010.7,,,TRUE,,,,,,,CLR,,,,,,,,VFR,,,,,,,,,,,,METAR,1102.0
KALW 300353Z AUTO 14007KT 10SM CLR 23/06 A2975 RMK AO2 SLP068 T02280061,KALW,2023-05-30T03:53:00Z,46.1,-118.28,22.8,6.1,140,7,,10.0,29.749016,1006.8,,TRUE,TRUE,,,,,,,CLR,,,,,,,,VFR,,,,,,,,,,,,METAR,355.0
KALI 300353Z AUTO 00000KT 10SM BKN085 22/22 A2993 RMK AO2 LTG DSNT N AND SW SLP131 T02220217,KALI,2023-05-30T03:53:00Z,27.73,-98.02,22.2,21.7,0,0,,10.0,29.929134,1013.1,,TRUE,TRUE,,,,,,,BKN,8500,,,,,,,VFR,,,,,,,,,,,,METAR,52.0
KAIA 300353Z AUTO 32004KT 10SM CLR 13/11 A2992 RMK AO2 SLP097 T01330106 $,KAIA,2023-05-30T03:53:00Z,42.05,-102.8,13.3,10.6,320,4,,10.0,29.920275,1009.7,,TRUE,TRUE,TRUE,,,,,,CLR,,,,,,,,VFR,,,,,,,,,,,,METAR,1198.0
KAGS 300353Z 00000KT 10SM CLR 16/16 A2991 RMK AO2 SLP127 T01610156,KAGS,2023-05-30T03:53:00Z,33.37,-81.97,16.1,15.6,0,0,,10.0,29.911417,1012.7,,,TRUE,,,,,,,CLR,,,,,,,,VFR,,,,,,,,,,,,METAR,40.0
KAGC 300353Z 16006KT 10SM OVC100 22/09 A3004 RMK AO2 SLP167 T02220094,KAGC,2023-05-30T03:53:00Z,40.35,-79.92,22.2,9.4,160,6,,10.0,30.041338,1016.7,,,TRUE,,,,,,,OVC,10000,,,,,,,VFR,,,,,,,,,,,,METAR,380.0
KAFW 300353Z 11007KT 10SM FEW250 22/18 A2992 RMK AO2 SLP118 T02220183,KAFW,2023-05-30T03:53:00Z,32.97,-97.32,22.2,18.3,110,7,,10.0,29.920275,1011.8,,,TRUE,,,,,,,FEW,25000,,,,,,,VFR,,,,,,,,,,,,METAR,208.0
KAEX 300353Z 00000KT 7SM FEW070 OVC085 25/18 A2992 RMK AO2 SLP135 T02500178,KAEX,2023-05-30T03:53:00Z,31.33,-92.57,25.0,17.8,0,0,,7.0,29.920275,1013.5,,,TRUE,,,,,,,FEW,7000,OVC,8500,,,,,VFR,,,,,,,,,,,,METAR,25.0
KADG 300353Z AUTO 10003KT 10SM OVC100 21/06 A3004 RMK AO2 SLP169 T02060056,KADG,2023-05-30T03:53:00Z,41.87,-84.08,20.6,5.6,100,3,,10.0,30.041338,1016.9,,TRUE,TRUE,,,,,,,OVC,10000,,,,,,,VFR,,,,,,,,,,,,METAR,244.0
KACV 300353Z AUTO 19005KT 9SM OVC006 10/09 A2998 RMK AO2 SLP160 T01000094 $,KACV,2023-05-30T03:53:00Z,40.98,-124.1,10.0,9.4,190,5,,9.0,29.97933,1016.0,,TRUE,TRUE,TRUE,,,,,,OVC,600,,,,,,,IFR,,,,,,,,,,,,METAR,63.0
KACK 300353Z AUTO 07005KT 10SM CLR 08/06 A3020 RMK AO2 SLP227 T00830056 $,KACK,2023-05-30T03:53:00Z,41.25,-70.07,8.3,5.6,70,5,,10.0,30.200787,1022.7,,TRUE,TRUE,TRUE,,,,,,CLR,,,,,,,,VFR,,,,,,,,,,,,METAR,12.0
KABY 300353Z AUTO 01004KT 10SM CLR 21/14 A2994 RMK AO2 SLP136 T02110139,KABY,2023-05-30T03:53:00Z,31.53,-84.2,21.1,13.9,10,4,,10.0,29.940945,1013.6,,TRUE,TRUE,,,,,,,CLR,,,,,,,,VFR,,,,,,,,,,,,METAR,60.0
KABR 300353Z AUTO 35011KT 10SM CLR 21/11 A2977 RMK AO2 PK WND 34034/0258 WSHFT 0256 SLP073 T02060111,KABR,2023-05-30T03:53:00Z,45.45,-98.42,20.6,11.1,350,11,,10.0,29.769686,1007.3,,TRUE,TRUE,,,,,,,CLR,,,,,,,,VFR,,,,,,,,,,,,METAR,397.0
KAAF 300353Z AUTO 28003KT 10SM CLR 23/19 A2991 RMK AO2 SLP129 T02280194 $,KAAF,2023-05-30T03:53:00Z,29.73,-85.03,22.8,19.4,280,3,,10.0,29.911417,1012.9,,TRUE,TRUE,TRUE,,,,,,CLR,,,,,,,,VFR,,,,,,,,,,,,METAR,5.0
PATA 300352Z 23013G17KT 10SM BKN070 OVC120 13/07 A2952 RMK AO2 RAE0253 SLP999 P0000 T01280072 $,PATA,2023-05-30T03:52:00Z,65.17,-152.1,12.8,7.2,230,13,17,10.0,29.518702,999.9,,,TRUE,TRUE,,,,,,BKN,7000,OVC,12000,,,,,VFR,,,,,,0.005,,,,,,METAR,62.0
PABA 300352Z AUTO 36005KT 10SM CLR 01/M01 A2955 RMK AO2 SLP013 T00061006 FZRANO,PABA,2023-05-30T03:52:00Z,70.13,-143.58,0.6,-0.6,360,5,,10.0,29.551182,1001.3,,TRUE,TRUE,,,,TRUE,,,CLR,,,,,,,,VFR,,,,,,,,,,,,METAR,1.0
MMTC 300352Z 11002KT 8SM SKC 28/06 A2998,MMTC,2023-05-30T03:52:00Z,25.57,-103.4,28.0,6.0,110,2,,8.0,29.97933,,,,,,,,,,,SKC,,,,,,,,VFR,,,,,,,,,,,,METAR,1128.0
KVTN 300352Z AUTO 21013KT 10SM CLR 21/11 A2982 RMK AO2 SLP081 T02060111 $,KVTN,2023-05-30T03:52:00Z,42.87,-100.55,20.6,11.1,210,13,,10.0,29.819881,1008.1,,TRUE,TRUE,TRUE,,,,,,CLR,,,,,,,,VFR,,,,,,,,,,,,METAR,790.0
KTRM 300352Z AUTO 31015G22KT 10SM CLR 26/11 A2975 RMK AO2 SLP076 T02560106 $,KTRM,2023-05-30T03:52:00Z,33.63,-116.17,25.6,10.6,310,15,22,10.0,29.749016,1007.6,,TRUE,TRUE,TRUE,,,,,,CLR,,,,,,,,VFR,,,,,,,,,,,,METAR,-39.0
KTOL 300352Z 07003KT 10SM OVC110 19/08 A3002 RMK AO2 SLP161 T01940083,KTOL,2023-05-30T03:52:00Z,41.58,-83.8,19.4,8.3,70,3,,10.0,30.02067,1016.1,,,TRUE,,,,,,,OVC,11000,,,,,,,VFR,,,,,,,,,,,,METAR,206.0
KTAN 300352Z AUTO 00000KT 10SM CLR 06/03 A3022 RMK AO2 SLP233 T00560033,KTAN,2023-05-30T03:52:00Z,41.88,-71.02,5.6,3.3,0,0,,10.0,30.221457,1023.3,,TRUE,TRUE,,,,,,,CLR,,,,,,,,VFR,,,,,,,,,,,,METAR,8.0
KSUX 300352Z AUTO 16013G21KT 10SM CLR 25/14 A2982 RMK AO2 SLP090 T02500144,KSUX,2023-05-30T03:52:00Z,42.38,-96.38,25.0,14.4,160,13,21,10.0,29.819881,1009.0,,TRUE,TRUE,,,,,,,CLR,,,,,,,,VFR,,,,,,,,,,,,METAR,332.0
KSPS 300352Z AUTO 12007KT 10SM CLR 22/19 A2992 RMK AO2 SLP120 T02170194,KSPS,2023-05-30T03:52:00Z,33.98,-98.5,21.7,19.4,120,7,,10.0,29.920275,1012.0,,TRUE,TRUE,,,,,,,CLR,,,,,,,,VFR,,,,,,,,,,,,METAR,310.0
KSPI 300352Z AUTO 00000KT 10SM CLR 21/13 A2996 RMK AO2 SLP139 T02060133,KSPI,2023-05-30T03:52:00Z,39.85,-89.68,20.6,13.3,0,0,,10.0,29.958662,1013.9,,TRUE,TRUE,,,,,,,CLR,,,,,,,,VFR,,,,,,,,,,,,METAR,179.0
KSGF 300352Z 15003KT 10SM CLR 19/13 A2996 RMK AO2 SLP135 T01890133,KSGF,2023-05-30T03:52:00Z,37.23,-93.38,18.9,13.3,150,3,,10.0,29.958662,1013.5,,,TRUE,,,,,,,CLR,,,,,,,,VFR,,,,,,,,,,,,METAR,387.0
KREO 300352Z AUTO 02005KT 20/03 A2987 RMK AO1 SLP083 T02000033,KREO,2023-05-30T03:52:00Z,42.58,-117.87,20.0,3.3,20,5,,,29.870079,1008.3,,TRUE,TRUE,,,,,,,,,,,,,,,,,,,,,,,,,,,METAR,1237.0
KRAP 300352Z 31007KT 10SM FEW002 14/12 A2985 RMK AO2 SLP091 T01390117,KRAP,2023-05-30T03:52:00Z,44.05,-103.05,13.9,11.7,310,7,,10.0,29.84941,1009.1,,,TRUE,,,,,,,FEW,200,,,,,,,VFR,,,,,,,,,,,,METAR,965.0
KPYM 300352Z AUTO 00000KT 10SM CLR 08/06 A3021 RMK AO2 SLP233 T00830061,KPYM,2023-05-30T03:52:00Z,41.92,-70.73,8.3,6.1,0,0,,10.0,30.209646,1023.3,,TRUE,TRUE,,,,,,,CLR,,,,,,,,VFR,,,,,,,,,,,,METAR,42.0
KPWK 300352Z AUTO 00000KT 10SM CLR 17/07 A3001 RMK AO2 SLP158 T01670067 $,KPWK,2023-05-30T03:52:00Z,42.12,-87.9,16.7,6.7,0,0,,10.0,30.008858,1015.8,,TRUE,TRUE,TRUE,,,,,,CLR,,,,,,,,VFR,,,,,,,,,,,,METAR,194.0
KPPF 300352Z AUTO 00000KT 9SM BKN110 21/17 A2995 RMK AO2 SLP134 T02060172,KPPF,2023-05-30T03:52:00Z,37.33,-95.5,20.6,17.2,0,0,,9.0,29.949802,1013.4,,TRUE,TRUE,,,,,,,BKN,11000,,,,,,,VFR,,,,,,,,,,,,METAR,265.0
KP69 300352Z AUTO 00000KT 17/13 A2977 RMK AO1 SLP069 T01670128,KP69,2023-05-30T03:52:00Z,46.15,-115.6,16.7,12.8,0,0,,,29.769686,1006.9,,TRUE,TRUE,,,,,,,,,,,,,,,,,,,,,,,,,,,METAR,447.0
KORE 300352Z AUTO 00000KT 10SM CLR 09/05 A3024 RMK AO2 SLP239 T00940050,KORE,2023-05-30T03:52:00Z,42.57,-72.28,9.4,5.0,0,0,,10.0,30.239174,1023.9,,TRUE,TRUE,,,,,,,CLR,,,,,,,,VFR,,,,,,,,,,,,METAR,165.0
KOMA 300352Z 17012KT 10SM FEW150 BKN250 25/14 A2987 RMK AO2 SLP106 T02500139,KOMA,2023-05-30T03:52:00Z,41.32,-95.9,25.0,13.9,170,12,,10.0,29.870079,1010.6,,,TRUE,,,,,,,FEW,15000,BKN,25000,,,,,VFR,,,,,,,,,,,,METAR,299.0
KOKC 300352Z 13005KT 10SM FEW200 SCT250 19/18 A2993 RMK AO2 SLP123 T01940183,KOKC,2023-05-30T03:52:00Z,35.38,-97.6,19.4,18.3,130,5,,10.0,29.929134,1012.3,,,TRUE,,,,,,,FEW,20000,SCT,25000,,,,,VFR,,,,,,,,,,,,METAR,391.0
KOKB 300352Z AUTO 29004KT 10SM OVC028 17/12 A2998 RMK AO2 SLP150 T01670122,KOKB,2023-05-30T03:52:00Z,33.22,-117.35,16.7,12.2,290,4,,10.0,29.97933,1015.0,,TRUE,TRUE,,,,,,,OVC,2800,,,,,,,MVFR,,,,,,,,,,,,METAR,7.0
KNZY 300352Z AUTO 27003KT 10SM FEW016 OVC029 16/13 A2998 RMK AO2 SLP151 T01610128 $,KNZY,2023-05-30T03:52:00Z,32.7,-117.22,16.1,12.8,270,3,,10.0,29.97933,1015.1,,TRUE,TRUE,TRUE,,,,,,FEW,1600,OVC,2900,,,,,MVFR,,,,,,,,,,,,METAR,4.0
KNRB 300352Z AUTO 20008KT 10SM CLR 24/18 A2990 RMK AO2 SLP124 T02390178 $,KNRB,2023-05-30T03:52:00Z,30.38,-81.42,23.9,17.8,200,8,,10.0,29.899607,1012.4,,TRUE,TRUE,TRUE,,,,,,CLR,,,,,,,,VFR,,,,,,,,,,,,METAR,4.0
KNHK 300352Z AUTO 04009KT 10SM OVC017 18/14 A3007 RMK AO2 SLP183 T01830139 $,KNHK,2023-05-30T03:52:00Z,38.28,-76.4,18.3,13.9,40,9,,10.0,30.070866,1018.3,,TRUE,TRUE,TRUE,,,,,,OVC,1700,,,,,,,MVFR,,,,,,,,,,,,METAR,5.0
KNFW 300352Z AUTO 07007KT CLR 23/18 A2993 RMK AO2 SLP120 T02280183 TSNO CHINO S VISNO S $,KNFW,2023-05-30T03:52:00Z,32.78,-97.43,22.8,18.3,70,7,,,29.929134,1012.0,,TRUE,TRUE,TRUE,,TRUE,,,,CLR,,,,,,,,,,,,,,,,,,,,METAR,188.0
KN60 300352Z AUTO 17004KT 13/12 A2974 RMK AO1 SLP068 T01330122,KN60,2023-05-30T03:52:00Z,47.65,-101.43,13.3,12.2,170,4,,,29.740158,1006.8,,TRUE,TRUE,,,,,,,,,,,,,,,,,,,,,,,,,,,METAR,582.0
KMWH 300352Z 23007KT 10SM CLR 24/07 A2972 RMK AO2 SLP056 T02440072,KMWH,2023-05-30T03:52:00Z,47.2,-119.32,24.4,7.2,230,7,,10.0,29.719488,1005.6,,,TRUE,,,,,,,CLR,,,,,,,,VFR,,,,,,,,,,,,METAR,355.0
KMLI 300352Z AUTO 08003KT 10SM CLR 19/10 A2995 RMK AO2 SLP140 T01940100 $,KMLI,2023-05-30T03:52:00Z,41.45,-90.52,19.4,10.0,80,3,,10.0,29.949802,1014.0,,TRUE,TRUE,TRUE,,,,,,CLR,,,,,,,,VFR,,,,,,,,,,,,METAR,174.0
KMLF 300352Z AUTO 15009KT 10SM CLR 15/M03 A2996 RMK AO2 SLP096 T01501028,KMLF,2023-05-30T03:52:00Z,38.42,-113.02,15.0,-2.8,150,9,,10.0,29.958662,1009.6,,TRUE,TRUE,,,,,,,CLR,,,,,,,,VFR,,,,,,,,,,,,METAR,1537.0
KMKE 300352Z 06003KT 10SM SCT250 16/08 A3000 RMK AO2 SLP156 T01610083,KMKE,2023-05-30T03:52:00Z,42.95,-87.9,16.1,8.3,60,3,,10.0,30.0,1015.6,,,TRUE,,,,,,,SCT,25000,,,,,,,VFR,,,,,,,,,,,,METAR,203.0
KMHK 300352Z AUTO 19004KT 10SM CLR 21/16 A2992 RMK AO2 SLP123 T02110161,KMHK,2023-05-30T03:52:00Z,39.13,-96.68,21.1,16.1,190,4,,10.0,29.920275,1012.3,,TRUE,TRUE,,,,,,,CLR,,,,,,,,VFR,,,,,,,,,,,,METAR,320.0
KMFD 300352Z AUTO 00000KT 10SM CLR 18/07 A3003 RMK AO2 SLP160 T01830072,KMFD,2023-05-30T03:52:00Z,40.82,-82.52,18.3,7.2,0,0,,10.0,30.029528,1016.0,,TRUE,TRUE,,,,,,,CLR,,,,,,,,VFR,,,,,,,,,,,,METAR,394.0
KMEB 300352Z AUTO 05003KT 8SM BKN019 BKN047 OVC075 19/18 A2996 RMK AO2 SLP142 T01940178,KMEB,2023-05-30T03:52:00Z,34.78,-79.37,19.4,17.8,50,3,,8.0,29.958662,1014.2,,TRUE,TRUE,,,,,,,BKN,1900,BKN,4700,OVC,7500,,,MVFR,,,,,,,,,,,,METAR,65.0
KMDH 300352Z AUTO 00000KT 6SM HZ CLR 18/13 A2995 RMK AO2 SLP140 T01780128,KMDH,2023-05-30T03:52:00Z,37.78,-89.25,17.8,12.8,0,0,,6.0,29.949802,1014.0,,TRUE,TRUE,,,,,,HZ,CLR,,,,,,,,VFR,,,,,,,,,,,,METAR,122.0
KMBG 300352Z AUTO 08011KT 10SM CLR 17/13 A2975 RMK AO2 SLP066 T01720128,KMBG,2023-05-30T03:52:00Z,45.55,-100.42,17.2,12.8,80,11,,10.0,29.749016,1006.6,,TRUE,TRUE,,,,,,,CLR,,,,,,,,VFR,,,,,,,,,,,,METAR,515.0
KLWC 300352Z AUTO 00000KT 9SM CLR 17/16 A2994 RMK AO1 SLP131 T01720156,KLWC,2023-05-30T03:52:00Z,39.02,-95.22,17.2,15.6,0,0,,9.0,29.940945,1013.1,,TRUE,TRUE,,,,,,,CLR,,,,,,,,VFR,,,,,,,,,,,,METAR,252.0
KIOW 300352Z AUTO 00000KT 10SM CLR 18/09 A2996 RMK AO2 SLP142 T01830094,KIOW,2023-05-30T03:52:00Z,41.63,-91.55,18.3,9.4,0,0,,10.0,29.958662,1014.2,,TRUE,TRUE,,,,,,,CLR,,,,,,,,VFR,,,,,,,,,,,,METAR,199.0
KIJD 300352Z AUTO 05003KT 10SM CLR 08/04 A3021 RMK AO2 SLP230 T00830044,KIJD,2023-05-30T03:52:00Z,41.75,-72.18,8.3,4.4,50,3,,10.0,30.209646,1023.0,,TRUE,TRUE,,,,,,,CLR,,,,,,,,VFR,,,,,,,,,,,,METAR,73.0
KIEN 300352Z AUTO 23004KT 10SM CLR 17/11 A2988 RMK AO2 SLP093 T01670111,KIEN,2023-05-30T03:52:00Z,43.03,-102.52,16.7,11.1,230,4,,10.0,29.878937,1009.3,,TRUE,TRUE,,,,,,,CLR,,,,,,,,VFR,,,,,,,,,,,,METAR,1002.0
KIAD 300352Z 10008KT 10SM OVC033 18/15 A3008 RMK AO2 LTG DSNT E SLP185 T01780150 $,KIAD,2023-05-30T03:52:00Z,38.93,-77.45,17.8,15.0,100,8,,10.0,30.079725,1018.5,,,TRUE,TRUE,,,,,,OVC,3300,,,,,,,VFR,,,,,,,,,,,,METAR,90.0
KHUT 300352Z AUTO 13007KT 10SM CLR 21/18 A2993 RMK AO2 SLP113 T02110178,KHUT,2023-05-30T03:52:00Z,38.07,-97.87,21.1,17.8,130,7,,10.0,29.929134,1011.3,,TRUE,TRUE,,,,,,,CLR,,,,,,,,VFR,,,,,,,,,,,,METAR,464.0
KHRL 300352Z 11007KT 10SM -RA FEW065 FEW080 BKN100 25/24 A2986 RMK AO2 LTG DSNT SW AND W RAB39 SLP111 P0000 T02500239,KHRL,2023-05-30T03:52:00Z,26.23,-97.65,25.0,23.9,110,7,,10.0,29.861221,1011.1,,,TRUE,,,,,,-RA,FEW,6500,FEW,8000,BKN,10000,,,VFR,,,,,,0.005,,,,,,METAR,9.0
KHIE 300352Z AUTO 00000KT 10SM CLR 09/06 A3019 RMK AO2 SLP223 T00890056,KHIE,2023-05-30T03:52:00Z,44.37,-71.55,8.9,5.6,0,0,,10.0,30.188976,1022.3,,TRUE,TRUE,,,,,,,CLR,,,,,,,,VFR,,,,,,,,,,,,METAR,321.0
KGLS 300352Z AUTO 13007KT 10SM FEW027 26/21 A2992 RMK AO2 SLP133 T02560211,KGLS,2023-05-30T03:52:00Z,29.27,-94.87,25.6,21.1,130,7,,10.0,29.920275,1013.3,,TRUE,TRUE,,,,,,,FEW,2700,,,,,,,VFR,,,,,,,,,,,,METAR,2.0
KFIT 300352Z AUTO 34003KT 10SM CLR 09/04 A3024 RMK AO2 SLP240 T00940039,KFIT,2023-05-30T03:52:00Z,42.55,-71.75,9.4,3.9,340,3,,10.0,30.239174,1024.0,,TRUE,TRUE,,,,,,,CLR,,,,,,,,VFR,,,,,,,,,,,,METAR,102.0
KDVN 300352Z AUTO 16005KT 10SM CLR 19/07 A2998 RMK AO2 SLP144 T01940067,KDVN,2023-05-30T03:52:00Z,41.62,-90.58,19.4,6.7,160,5,,10.0,29.97933,1014.4,,TRUE,TRUE,,,,,,,CLR,,,,,,,,VFR,,,,,,,,,,,,METAR,227.0
KDPA 300352Z 09004KT 10SM CLR 21/05 A2999 RMK AO2 SLP150 T02060050,KDPA,2023-05-30T03:52:00Z,41.88,-88.25,20.6,5.0,90,4,,10.0,29.991142,1015.0,,,TRUE,,,,,,,CLR,,,,,,,,VFR,,,,,,,,,,,,METAR,228.0
KDDC 300352Z AUTO 15010KT 8SM CLR 21/15 A2993 RMK AO2 SLP109 T02060150,KDDC,2023-05-30T03:52:00Z,37.77,-99.97,20.6,15.0,150,10,,8.0,29.929134,1010.9,,TRUE,TRUE,,,,,,,CLR,,,,,,,,VFR,,,,,,,,,,,,METAR,786.0
KDCA 300352Z 08011KT 10SM -TSRA SCT035 OVC045CB 18/15 A3009 RMK AO2 RAB30 TSB48 SLP189 OCNL LTGCCCG NE TS NE MOV W P0002 T01780150,KDCA,2023-05-30T03:52:00Z,38.85,-77.03,17.8,15.0,80,11,,10.0,30.088583,1018.9,,,TRUE,,,,,,-TSRA,SCT,3500,OVC,4500,,,,,VFR,,,,,,0.02,,,,,,METAR,4.0
KCVG 300352Z 16009KT 10SM OVC110 22/17 A2998 RMK AO2 CIG 080 36R SLP143 T02220172 $,KCVG,2023-05-30T03:52:00Z,39.05,-84.67,22.2,17.2,160,9,,10.0,29.97933,1014.3,,,TRUE,TRUE,,,,,,OVC,11000,,,,,,,VFR,,,,,,,,,,,,METAR,264.0
KCQX 300352Z AUTO 05005KT 10SM CLR 12/07 A3021 RMK AO2 SLP232 T01170067,KCQX,2023-05-30T03:52:00Z,41.68,-70.0,11.7,6.7,50,5,,10.0,30.209646,1023.2,,TRUE,TRUE,,,,,,,CLR,,,,,,,,VFR,,,,,,,,,,,,METAR,17.0
KCNU 300352Z AUTO 00000KT 10SM BKN110 20/18 A2994 RMK AO2 SLP130 T02000178,KCNU,2023-05-30T03:52:00Z,37.67,-95.48,20.0,17.8,0,0,,10.0,29.940945,1013.0,,TRUE,TRUE,,,,,,,BKN,11000,,,,,,,VFR,,,,,,,,,,,,METAR,301.0
KCLT 300352Z 03005KT 10SM FEW043 18/16 A2996 RMK AO2 SLP154 T01780161 $,KCLT,2023-05-30T03:52:00Z,35.22,-80.95,17.8,16.1,30,5,,10.0,29.958662,1015.4,,,TRUE,TRUE,,,,,,FEW,4300,,,,,,,VFR,,,,,,,,,,,,METAR,223.0
KCKV 300352Z AUTO 27003KT 10SM BKN080 22/14 A2995 RMK AO2 SLP136 T02220144 $,KCKV,2023-05-30T03:52:00Z,36.62,-87.42,22.2,14.4,270,3,,10.0,29.949802,1013.6,,TRUE,TRUE,TRUE,,,,,,BKN,8000,,,,,,,VFR,,,,,,,,,,,,METAR,166.0
KCID 300352Z 00000KT 10SM CLR 19/07 A2995 RMK AO2 SLP136 T01890067,KCID,2023-05-30T03:52:00Z,41.88,-91.72,18.9,6.7,0,0,,10.0,29.949802,1013.6,,,TRUE,,,,,,,CLR,,,,,,,,VFR,,,,,,,,,,,,METAR,257.0
KCFV 300352Z AUTO 00000KT 10SM FEW100 20/19 A2993 RMK AO2 SLP128 T02000189,KCFV,2023-05-30T03:52:00Z,37.08,-95.57,20.0,18.9,0,0,,10.0,29.929134,1012.8,,TRUE,TRUE,,,,,,,FEW,10000,,,,,,,VFR,,,,,,,,,,,,METAR,228.0
KBLU 300352Z AUTO 00000KT 10SM CLR 11/09 A3005 RMK AO2 SLP114 T01110089,KBLU,2023-05-30T03:52:00Z,39.28,-120.7,11.1,8.9,0,0,,10.0,30.050198,1011.4,,TRUE,TRUE,,,,,,,CLR,,,,,,,,VFR,,,,,,,,,,,,METAR,1605.0
KBLH 300352Z AUTO 19013KT 10SM CLR 30/03 A2975 RMK AO2 SLP069 T03000033,KBLH,2023-05-30T03:52:00Z,33.62,-114.72,30.0,3.3,190,13,,10.0,29.749016,1006.9,,TRUE,TRUE,,,,,,,CLR,,,,,,,,VFR,,,,,,,,,,,,METAR,119.0
KBLF 300352Z AUTO 00000KT 1/4SM FG VV002 14/14 A3007 RMK AO2 SLP166 T01390139 $,KBLF,2023-05-30T03:52:00Z,37.3,-81.2,13.9,13.9,0,0,,0.25,30.070866,1016.6,,TRUE,TRUE,TRUE,,,,,FG,OVX,0,,,,,,,LIFR,,,,,,,,,,,200,METAR,871.0
KBKB 300352Z AUTO 00000KT 10SM CLR 21/18 A2991 RMK AO2 SLP152 T02060183,KBKB,2023-05-30T03:52:00Z,31.02,-92.92,20.6,18.3,0,0,,10.0,29.911417,1015.2,,TRUE,TRUE,,,,,,,CLR,,,,,,,,VFR,,,,,,,,,,,,METAR,74.0
KBIS 300352Z AUTO 31004KT 10SM CLR 15/14 A2975 RMK AO2 SLP071 T01500144,KBIS,2023-05-30T03:52:00Z,46.77,-100.75,15.0,14.4,310,4,,10.0,29.749016,1007.1,,TRUE,TRUE,,,,,,,CLR,,,,,,,,VFR,,,,,,,,,,,,METAR,506.0
KBDR 300352Z AUTO 09011KT 10SM CLR 14/08 A3020 RMK AO2 SLP228 T01390078,KBDR,2023-05-30T03:52:00Z,41.17,-73.13,13.9,7.8,90,11,,10.0,30.200787,1022.8,,TRUE,TRUE,,,,,,,CLR,,,,,,,,VFR,,,,,,,,,,,,METAR,5.0
KBAN 300352Z AUTO 00000KT 10SM CLR 09/06 A3003 RMK AO2 SLP104 T00940061 PWINO $,KBAN,2023-05-30T03:52:00Z,38.35,-119.52,9.4,6.1,0,0,,10.0,30.029528,1010.4,,TRUE,TRUE,TRUE,,,,TRUE,,CLR,,,,,,,,VFR,,,,,,,,,,,,METAR,2067.0
KATL 300352Z 31008KT 10SM FEW250 18/14 A2995 RMK AO2 SLP136 T01780139 $,KATL,2023-05-30T03:52:00Z,33.63,-84.45,17.8,13.9,310,8,,10.0,29.949802,1013.6,,,TRUE,TRUE,,,,,,FEW,25000,,,,,,,VFR,,,,,,,,,,,,METAR,309.0
KARR 300352Z AUTO 06003KT 9SM CLR 19/07 A2998 RMK AO2 SLP148 T01940067,KARR,2023-05-30T03:52:00Z,41.77,-88.48,19.4,6.7,60,3,,9.0,29.97933,1014.8,,TRUE,TRUE,,,,,,,CLR,,,,,,,,VFR,,,,,,,,,,,,METAR,213.0
KAQW 300352Z AUTO VRB05KT 10SM CLR 16/03 A3019 RMK AO2 SLP223 T01610028,KAQW,2023-05-30T03:52:00Z,42.7,-73.17,16.1,2.8,0,5,,10.0,30.188976,1022.3,,TRUE,TRUE,,,,,,,CLR,,,,,,,,VFR,,,,,,,,,,,,METAR,196.0
KALS 300352Z AUTO 30006KT 10SM CLR 12/M01 A3015 RMK AO2 SLP128 T01221011,KALS,2023-05-30T03:52:00Z,37.43,-105.87,12.2,-1.1,300,6,,10.0,30.15059,1012.8,,TRUE,TRUE,,,,,,,CLR,,,,,,,,VFR,,,,,,,,,,,,METAR,2299.0
KAFN 300352Z AUTO 00000KT 10SM CLR 09/04 A3023 RMK AO2 SLP243 T00890044,KAFN,2023-05-30T03:52:00Z,42.8,-72.0,8.9,4.4,0,0,,10.0,30.230314,1024.3,,TRUE,TRUE,,,,,,,CLR,,,,,,,,VFR,,,,,,,,,,,,METAR,308.0
KABQ 300352Z 25012G20KTKT 10SM SCT150 25/M01 A3016,KABQ,2023-05-30T03:52:00Z,35.05,-106.62,25.0,-1.0,,,,10.0,30.159449,,,,,,,,,,,SCT,15000,,,,,,,VFR,,,,,,,,,,,,METAR,1620.0
KABI 300352Z 16005KT 10SM CLR 22/18 A2994 RMK AO2 SLP117 T02170178,KABI,2023-05-30T03:52:00Z,32.42,-99.68,21.7,17.8,160,5,,10.0,29.940945,1011.7,,,TRUE,,,,,,,CLR,,,,,,,,VFR,,,,,,,,,,,,METAR,543.0
PHBK 300351Z AUTO 27004KT 10SM FEW047 FEW070 27/18 A2998 RMK AO2 SLP155 T02670183,PHBK,2023-05-30T03:51:00Z,22.03,-159.78,26.7,18.3,270,4,,10.0,29.97933,1015.5,,TRUE,TRUE,,,,,,,FEW,4700,FEW,7000,,,,,VFR,,,,,,,,,,,,METAR,5.0
PAMD 300351Z AUTO VRB03KT 10SM FEW012 BKN040 07/04 A2981 RMK AO2 SLP084 T00720044 PNO $,PAMD,2023-05-30T03:51:00Z,59.43,-146.3,7.2,4.4,0,3,,10.0,29.811024,1008.4,,TRUE,TRUE,TRUE,,,,,,FEW,1200,BKN,4000,,,,,VFR,,,,,,,,,,,,METAR,20.0
MUGM 300351Z 29005KT 10SM FEW075 FEW100 BKN250 26/23 A2993 RMK AO2 SLP135 T02610233 $,MUGM,2023-05-30T03:51:00Z,19.9,-75.2,26.1,23.3,290,5,,10.0,29.929134,1013.5,,,TRUE,TRUE,,,,,,FEW,7500,FEW,10000,BKN,25000,,,VFR,,,,,,,,,,,,METAR,21.0
KYNG 300351Z 09004KT 10SM CLR 17/12 A3003 RMK AO2 SLP162 T01720117,KYNG,2023-05-30T03:51:00Z,41.25,-80.67,17.2,11.7,90,4,,10.0,30.029528,1016.2,,,TRUE,,,,,,,CLR,,,,,,,,VFR,,,,,,,,,,,,METAR,356.0
KXWA 300351Z AUTO 24007KT 10SM CLR 16/13 A2975 RMK AO2 SLP073 T01560128,KXWA,2023-05-30T03:51:00Z,48.27,-103.75,15.6,12.8,240,7,,10.0,29.749016,1007.3,,TRUE,TRUE,,,,,,,CLR,,,,,,,,VFR,,,,,,,,,,,,METAR,717.0
KVNY 300351Z 14006KT 10SM BKN027 BKN034 18/11 A2996 RMK AO2 SLP140 T01780111,KVNY,2023-05-30T03:51:00Z,34.22,-118.48,17.8,11.1,140,6,,10.0,29.958662,1014.0,,,TRUE,,,,,,,BKN,2700,BKN,3400,,,,,MVFR,,,,,,,,,,,,METAR,241.0
KVCT 300351Z AUTO 00000KT 10SM SCT095 SCT110 23/23 A2992 RMK AO2 SLP129 T02280228,KVCT,2023-05-30T03:51:00Z,28.87,-96.93,22.8,22.8,0,0,,10.0,29.920275,1012.9,,TRUE,TRUE,,,,,,,SCT,9500,SCT,11000,,,,,VFR,,,,,,,,,,,,METAR,33.0
KUGN 300351Z AUTO 00000KT 10SM CLR 13/08 A2999 RMK AO2 SLP149 T01330083,KUGN,2023-05-30T03:51:00Z,42.42,-87.87,13.3,8.3,0,0,,10.0,29.991142,1014.9,,TRUE,TRUE,,,,,,,CLR,,,,,,,,VFR,,,,,,,,,,,,METAR,217.0
KTPL 300351Z AUTO 12006KT CLR 22/18 A2995 RMK AO2 SLP130 T02170183 PWINO RVRNO $,KTPL,2023-05-30T03:51:00Z,31.15,-97.4,21.7,18.3,120,6,,,29.949802,1013.0,,TRUE,TRUE,TRUE,,,,TRUE,,CLR,,,,,,,,,,,,,,,,,,,,METAR,206.0
KTEB 300351Z 10009KT 10SM CLR 15/06 A3018 RMK AO2 SLP218 T01500061 $,KTEB,2023-05-30T03:51:00Z,40.87,-74.05,15.0,6.1,100,9,,10.0,30.180119,1021.8,,,TRUE,TRUE,,,,,,CLR,,,,,,,,VFR,,,,,,,,,,,,METAR,3.0
KSTL 300351Z 00000KT 10SM FEW100 FEW250 23/10 A2997 RMK AO2 SLP136 T02280100 $,KSTL,2023-05-30T03:51:00Z,38.75,-90.37,22.8,10.0,0,0,,10.0,29.970472,1013.6,,,TRUE,TRUE,,,,,,FEW,10000,FEW,25000,,,,,VFR,,,,,,,,,,,,METAR,163.0
KSNT 300351Z AUTO 20003KT 14/01 A3002 RMK AO1 SLP095 T01440006,KSNT,2023-05-30T03:51:00Z,44.17,-114.93,14.4,0.6,200,3,,,30.02067,1009.5,,TRUE,TRUE,,,,,,,,,,,,,,,,,,,,,,,,,,,METAR,1980.0
KSMX 300351Z AUTO 30003KT 10SM OVC026 13/10 A3000 RMK AO2 SLP161 T01330100,KSMX,2023-05-30T03:51:00Z,34.9,-120.45,13.3,10.0,300,3,,10.0,30.0,1016.1,,TRUE,TRUE,,,,,,,OVC,2600,,,,,,,MVFR,,,,,,,,,,,,METAR,73.0
KSMO 300351Z AUTO 24006KT 10SM OVC041 16/12 A2998 RMK AO2 SLP152 T01610117,KSMO,2023-05-30T03:51:00Z,34.02,-118.45,16.1,11.7,240,6,,10.0,29.97933,1015.2,,TRUE,TRUE,,,,,,,OVC,4100,,,,,,,VFR,,,,,,,,,,,,METAR,56.0
KSLK 300351Z AUTO 00000KT 10SM CLR 07/03 A3013 RMK AO2 SLP201 T00720028,KSLK,2023-05-30T03:51:00Z,44.4,-74.2,7.2,2.8,0,0,,10.0,30.129921,1020.1,,TRUE,TRUE,,,,,,,CLR,,,,,,,,VFR,,,,,,,,,,,,METAR,502.0
KSJT 300351Z AUTO 16006KT 10SM CLR 21/17 A2993 RMK AO2 SLP116 T02110167,KSJT,2023-05-30T03:51:00Z,31.37,-100.5,21.1,16.7,160,6,,10.0,29.929134,1011.6,,TRUE,TRUE,,,,,,,CLR,,,,,,,,VFR,,,,,,,,,,,,METAR,582.0
KSAT 300351Z 00000KT 10SM FEW120 SCT250 20/18 A2993 RMK AO2 SLP119 T02000178 $,KSAT,2023-05-30T03:51:00Z,29.53,-98.48,20.0,17.8,0,0,,10.0,29.929134,1011.9,,,TRUE,TRUE,,,,,,FEW,12000,SCT,25000,,,,,VFR,,,,,,,,,,,,METAR,246.0
KSAN 300351Z 29004KT 10SM FEW018 OVC029 17/12 A3000 RMK AO2 SLP158 T01670122,KSAN,2023-05-30T03:51:00Z,32.73,-117.18,16.7,12.2,290,4,,10.0,30.0,1015.8,,,TRUE,,,,,,,FEW,1800,OVC,2900,,,,,MVFR,,,,,,,,,,,,METAR,3.0
KSAD 300351Z AUTO 31010KT 10SM CLR 28/01 A2989 RMK AO2 SLP065 T02830011,KSAD,2023-05-30T03:51:00Z,32.85,-109.63,28.3,1.1,310,10,,10.0,29.890747,1006.5,,TRUE,TRUE,,,,,,,CLR,,,,,,,,VFR,,,,,,,,,,,,METAR,937.0
KROW 300351Z AUTO 17004KT 10SM CLR 25/M01 A2990 RMK AO2 SLP063 T02501011,KROW,2023-05-30T03:51:00Z,33.3,-104.5,25.0,-1.1,170,4,,10.0,29.899607,1006.3,,TRUE,TRUE,,,,,,,CLR,,,,,,,,VFR,,,,,,,,,,,,METAR,1105.0
KRDU 300351Z 00000KT 10SM BKN031 BKN070 17/16 A2997 RMK AO2 SLP146 T01720161,KRDU,2023-05-30T03:51:00Z,35.9,-78.78,17.2,16.1,0,0,,10.0,29.970472,1014.6,,,TRUE,,,,,,,BKN,3100,BKN,7000,,,,,VFR,,,,,,,,,,,,METAR,121.0
KPWM 300351Z 17003KT 10SM CLR 09/07 A3025 RMK AO2 SLP243 T00890072,KPWM,2023-05-30T03:51:00Z,43.65,-70.3,8.9,7.2,170,3,,10.0,30.250984,1024.3,,,TRUE,,,,,,,CLR,,,,,,,,VFR,,,,,,,,,,,,METAR,15.0
KPVD 300351Z COR 05005KT 10SM CLR 09/05 A3022 RMK AO2 SLP233 LAST T00940050,KPVD,2023-05-30T03:51:00Z,41.72,-71.43,9.4,5.0,50,5,,10.0,30.221457,1023.3,TRUE,,TRUE,,,,,,,CLR,,,,,,,,VFR,,,,,,,,,,,,METAR,15.0
KPIT 300351Z 15004KT 10SM BKN100 22/08 A3003 RMK AO2 SLP168 T02220083,KPIT,2023-05-30T03:51:00Z,40.47,-80.2,22.2,8.3,150,4,,10.0,30.029528,1016.8,,,TRUE,,,,,,,BKN,10000,,,,,,,VFR,,,,,,,,,,,,METAR,339.0
KPHX 300351Z 28016KT 10SM CLR 32/M06 A2980 RMK AO2 SLP070 T03221056 $,KPHX,2023-05-30T03:51:00Z,33.43,-112.02,32.2,-5.6,280,16,,10.0,29.799213,1007.0,,,TRUE,TRUE,,,,,,CLR,,,,,,,,VFR,,,,,,,,,,,,METAR,338.0
KP59 300351Z AUTO 25008KT 16/ A2994 RMK AO1 SLP138 T0161 ,KP59,2023-05-30T03:51:00Z,47.47,-87.88,16.1,,250,8,,,29.940945,1013.8,,TRUE,TRUE,,,,,,,,,,,,,,,,,,,,,,,,,,,METAR,185.0
KOXR 300351Z 29010KT 10SM OVC038 16/12 A2998 RMK AO2 SLP151 T01560117,KOXR,2023-05-30T03:51:00Z,34.2,-119.2,15.6,11.7,290,10,,10.0,29.97933,1015.1,,,TRUE,,,,,,,OVC,3800,,,,,,,VFR,,,,,,,,,,,,METAR,12.0
KOXC 300351Z AUTO 13005KT 10SM CLR 11/09 A3022 RMK AO2 SLP245 T01110089,KOXC,2023-05-30T03:51:00Z,41.47,-73.13,11.1,8.9,130,5,,10.0,30.221457,1024.5,,TRUE,TRUE,,,,,,,CLR,,,,,,,,VFR,,,,,,,,,,,,METAR,211.0
KORD 300351Z 09005KT 10SM BKN200 BKN250 21/04 A2999 RMK AO2 SLP150 T02060044,KORD,2023-05-30T03:51:00Z,41.95,-87.93,20.6,4.4,90,5,,10.0,29.991142,1015.0,,,TRUE,,,,,,,BKN,20000,BKN,25000,,,,,VFR,,,,,,,,,,,,METAR,202.0
KOCF 300351Z AUTO 00000KT 10SM CLR 20/18 A2993 RMK AO2 SLP135 T02000183 PNO $,KOCF,2023-05-30T03:51:00Z,29.17,-82.22,20.0,18.3,0,0,,10.0,29.929134,1013.5,,TRUE,TRUE,TRUE,,,,,,CLR,,,,,,,,VFR,,,,,,,,,,,,METAR,24.0
KNYC 300351Z AUTO 07004KT 10SM CLR 16/06 A3021 RMK AO2 SLP219 T01610061 $,KNYC,2023-05-30T03:51:00Z,40.78,-73.97,16.1,6.1,70,4,,10.0,30.209646,1021.9,,TRUE,TRUE,TRUE,,,,,,CLR,,,,,,,,VFR,,,,,,,,,,,,METAR,33.0
KNBT 300351Z AUTO 30003KT 10SM CLR 23/19 A2992 RMK AO2 SLP136 T02280189,KNBT,2023-05-30T03:51:00Z,35.02,-76.47,22.8,18.9,300,3,,10.0,29.920275,1013.6,,TRUE,TRUE,,,,,,,CLR,,,,,,,,VFR,,,,,,,,,,,,METAR,5.0
KMYL 300351Z AUTO 05003KT 10SM CLR 12/07 A2993 RMK AO2 SLP109 T01220067,KMYL,2023-05-30T03:51:00Z,44.9,-116.1,12.2,6.7,50,3,,10.0,29.929134,1010.9,,TRUE,TRUE,,,,,,,CLR,,,,,,,,VFR,,,,,,,,,,,,METAR,1532.0
KMPV 300351Z AUTO 17005KT 10SM CLR 14/06 A3022 RMK AO2 SLP232 T01390056,KMPV,2023-05-30T03:51:00Z,44.2,-72.57,13.9,5.6,170,5,,10.0,30.221457,1023.2,,TRUE,TRUE,,,,,,,CLR,,,,,,,,VFR,,,,,,,,,,,,METAR,336.0
KLGU 300351Z AUTO 02008KT 10SM CLR 16/09 A2998 RMK AO2 LTG DSNT N SLP116 T01560089,KLGU,2023-05-30T03:51:00Z,41.78,-111.85,15.6,8.9,20,8,,10.0,29.97933,1011.6,,TRUE,TRUE,,,,,,,CLR,,,,,,,,VFR,,,,,,,,,,,,METAR,1359.0
KLGA 300351Z 07007KT 10SM FEW250 16/06 A3018 RMK AO2 SLP218 T01560061 $,KLGA,2023-05-30T03:51:00Z,40.78,-73.88,15.6,6.1,70,7,,10.0,30.180119,1021.8,,,TRUE,TRUE,,,,,,FEW,25000,,,,,,,VFR,,,,,,,,,,,,METAR,9.0
KJFK 300351Z 09009KT 10SM FEW250 14/09 A3018 RMK AO2 SLP220 T01390094,KJFK,2023-05-30T03:51:00Z,40.63,-73.77,13.9,9.4,90,9,,10.0,30.180119,1022.0,,,TRUE,,,,,,,FEW,25000,,,,,,,VFR,,,,,,,,,,,,METAR,3.0
KJCT 300351Z AUTO 08003KT 10SM CLR 20/17 A2997 RMK AO2 SLP114 T02000167,KJCT,2023-05-30T03:51:00Z,30.5,-99.77,20.0,16.7,80,3,,10.0,29.970472,1011.4,,TRUE,TRUE,,,,,,,CLR,,,,,,,,VFR,,,,,,,,,,,,METAR,522.0
KILG 300351Z 07010KT 10SM CLR 17/08 A3014 RMK AO2 SLP204 T01670078 $,KILG,2023-05-30T03:51:00Z,39.67,-75.6,16.7,7.8,70,10,,10.0,30.138779,1020.4,,,TRUE,TRUE,,,,,,CLR,,,,,,,,VFR,,,,,,,,,,,,METAR,22.0
KIGM 300351Z AUTO 19009KT 10SM CLR 21/M04 A2993 RMK AO2 SLP069 T02061039,KIGM,2023-05-30T03:51:00Z,35.25,-113.93,20.6,-3.9,190,9,,10.0,29.929134,1006.9,,TRUE,TRUE,,,,,,,CLR,,,,,,,,VFR,,,,,,,,,,,,METAR,1045.0
KHTS 300351Z 00000KT 10SM CLR 19/17 A3000 RMK AO2 SLP154 T01890167,KHTS,2023-05-30T03:51:00Z,38.37,-82.55,18.9,16.7,0,0,,10.0,30.0,1015.4,,,TRUE,,,,,,,CLR,,,,,,,,VFR,,,,,,,,,,,,METAR,252.0
KHSE 300351Z AUTO 04003KT 10SM CLR 20/20 A2991 RMK AO2 SLP127 T02000200 $,KHSE,2023-05-30T03:51:00Z,35.23,-75.62,20.0,20.0,40,3,,10.0,29.911417,1012.7,,TRUE,TRUE,TRUE,,,,,,CLR,,,,,,,,VFR,,,,,,,,,,,,METAR,4.0
KHDO 300351Z AUTO 05003KT 10SM CLR 19/18 A2994 RMK AO2 SLP126 T01890183,KHDO,2023-05-30T03:51:00Z,29.37,-99.17,18.9,18.3,50,3,,10.0,29.940945,1012.6,,TRUE,TRUE,,,,,,,CLR,,,,,,,,VFR,,,,,,,,,,,,METAR,280.0
KGDP 300351Z AUTO 00000KT 8SM CLR 25/M06 RMK AO2 SLPNO T02501061 $,KGDP,2023-05-30T03:51:00Z,31.83,-104.82,25.0,-6.1,0,0,,8.0,,,,TRUE,TRUE,TRUE,,,,,,CLR,,,,,,,,VFR,,,,,,,,,,,,METAR,1664.0
KEWR 300351Z 08008KT 10SM CLR 17/08 A3017 RMK AO2 SLP217 T01720078 $,KEWR,2023-05-30T03:51:00Z,40.68,-74.17,17.2,7.8,80,8,,10.0,30.171259,1021.7,,,TRUE,TRUE,,,,,,CLR,,,,,,,,VFR,,,,,,,,,,,,METAR,2.0
KERI 300351Z 00000KT 10SM CLR 18/10 A3001 RMK AO2 SLP161 T01780100,KERI,2023-05-30T03:51:00Z,42.08,-80.18,17.8,10.0,0,0,,10.0,30.008858,1016.1,,,TRUE,,,,,,,CLR,,,,,,,,VFR,,,,,,,,,,,,METAR,222.0
KELP 300351Z 24005KT 10SM FEW120 28/M04 A2994 RMK AO2 SLP059 T02831044 $,KELP,2023-05-30T03:51:00Z,31.82,-106.35,28.3,-4.4,240,5,,10.0,29.940945,1005.9,,,TRUE,TRUE,,,,,,FEW,12000,,,,,,,VFR,,,,,,,,,,,,METAR,1205.0
KEKN 300351Z AUTO 00000KT 10SM CLR 13/12 A3007 RMK AO2 SLP181 T01330122,KEKN,2023-05-30T03:51:00Z,38.88,-79.85,13.3,12.2,0,0,,10.0,30.070866,1018.1,,TRUE,TRUE,,,,,,,CLR,,,,,,,,VFR,,,,,,,,,,,,METAR,596.0
KDAW 300351Z AUTO 00000KT 10SM CLR 08/06 A3023 RMK AO2 SLP235 T00830056,KDAW,2023-05-30T03:51:00Z,43.28,-70.92,8.3,5.6,0,0,,10.0,30.230314,1023.5,,TRUE,TRUE,,,,,,,CLR,,,,,,,,VFR,,,,,,,,,,,,METAR,100.0
KCSG 300351Z AUTO 02003KT 10SM CLR 19/14 A2994 RMK AO2 SLP134 T01940144,KCSG,2023-05-30T03:51:00Z,32.52,-84.95,19.4,14.4,20,3,,10.0,29.940945,1013.4,,TRUE,TRUE,,,,,,,CLR,,,,,,,,VFR,,,,,,,,,,,,METAR,120.0
KCRP 300351Z 16003KT 10SM FEW024 FEW035 FEW095 SCT190 BKN250 25/23 A2992 RMK AO2 SLP130 FRQ LTGICCC DSNT SW NW CB DSNT SW NW MOV SE T02500228,KCRP,2023-05-30T03:51:00Z,27.77,-97.5,25.0,22.8,160,3,,10.0,29.920275,1013.0,,,TRUE,,,,,,,FEW,2400,FEW,3500,FEW,9500,SCT,19000,VFR,,,,,,,,,,,,METAR,11.0
KCON 300351Z AUTO 00000KT 10SM CLR 08/04 A3023 RMK AO2 SLP239 T00830039 $,KCON,2023-05-30T03:51:00Z,43.2,-71.5,8.3,3.9,0,0,,10.0,30.230314,1023.9,,TRUE,TRUE,TRUE,,,,,,CLR,,,,,,,,VFR,,,,,,,,,,,,METAR,102.0
KCMH 300351Z 12003KT 10SM SCT100 20/15 A2999 RMK AO2 SLP149 T02000150,KCMH,2023-05-30T03:51:00Z,40.0,-82.88,20.0,15.0,120,3,,10.0,29.991142,1014.9,,,TRUE,,,,,,,SCT,10000,,,,,,,VFR,,,,,,,,,,,,METAR,257.0
KCLE 300351Z 03003KT 10SM CLR 21/08 A3000 RMK AO2 SLP168 T02110078,KCLE,2023-05-30T03:51:00Z,41.42,-81.85,21.1,7.8,30,3,,10.0,30.0,1016.8,,,TRUE,,,,,,,CLR,,,,,,,,VFR,,,,,,,,,,,,METAR,237.0
KCDJ 300351Z AUTO 00000KT 21/13 A2995 RMK AO1 SLP131 T02060133,KCDJ,2023-05-30T03:51:00Z,39.82,-93.57,20.6,13.3,0,0,,,29.949802,1013.1,,TRUE,TRUE,,,,,,,,,,,,,,,,,,,,,,,,,,,METAR,234.0
KCAK 300351Z 12004KT 10SM FEW090 20/09 A3003 RMK AO2 SLP159 T02000094,KCAK,2023-05-30T03:51:00Z,40.92,-81.45,20.0,9.4,120,4,,10.0,30.029528,1015.9,,,TRUE,,,,,,,FEW,9000,,,,,,,VFR,,,,,,,,,,,,METAR,369.0
KBKW 300351Z AUTO 00000KT 10SM CLR 15/14 A3006 RMK AO2 VIS 1/4 RWY19 SLP165 T01500139,KBKW,2023-05-30T03:51:00Z,37.8,-81.12,15.0,13.9,0,0,,10.0,30.059055,1016.5,,TRUE,TRUE,,,,,,,CLR,,,,,,,,VFR,,,,,,,,,,,,METAR,762.0
KBHK 300351Z AUTO 24003KT 10SM CLR 15/11 A2982 RMK AO2 SLP083 T01500106,KBHK,2023-05-30T03:51:00Z,46.35,-104.25,15.0,10.6,240,3,,10.0,29.819881,1008.3,,TRUE,TRUE,,,,,,,CLR,,,,,,,,VFR,,,,,,,,,,,,METAR,904.0
KBGD 300351Z AUTO 13010KT 10SM CLR 23/ A2997 RMK AO2 SLP113 T0228 $,KBGD,2023-05-30T03:51:00Z,35.7,-101.4,22.8,,130,10,,10.0,29.970472,1011.3,,TRUE,TRUE,TRUE,,,,,,CLR,,,,,,,,VFR,,,,,,,,,,,,METAR,928.0
KBED 300351Z AUTO 00000KT 10SM CLR 08/06 A3022 RMK AO2 SLP245 T00830056,KBED,2023-05-30T03:51:00Z,42.47,-71.3,8.3,5.6,0,0,,10.0,30.221457,1024.5,,TRUE,TRUE,,,,,,,CLR,,,,,,,,VFR,,,,,,,,,,,,METAR,39.0
KBDL 300351Z 09004KT 10SM FEW250 14/02 A3021 RMK AO2 SLP230 T01440022,KBDL,2023-05-30T03:51:00Z,41.93,-72.68,14.4,2.2,90,4,,10.0,30.209646,1023.0,,,TRUE,,,,,,,FEW,25000,,,,,,,VFR,,,,,,,,,,,,METAR,52.0
KBAZ 300351Z AUTO 00000KT 3/4SM BR CLR 21/19 A2990 RMK AO2 SLP118 T02110194,KBAZ,2023-05-30T03:51:00Z,29.72,-98.05,21.1,19.4,0,0,,0.75,29.899607,1011.8,,TRUE,TRUE,,,,,,BR,CLR,,,,,,,,LIFR,,,,,,,,,,,,METAR,199.0
KAVX 300351Z AUTO 25004KT 1/2SM FG VV002 12/12 A3000 RMK AO2 SLP149 T01220117 $,KAVX,2023-05-30T03:51:00Z,33.4,-118.42,12.2,11.7,250,4,,0.5,30.0,1014.9,,TRUE,TRUE,TRUE,,,,,FG,OVX,0,,,,,,,LIFR,,,,,,,,,,,200,METAR,482.0
KATT 300351Z AUTO VRB04KT 10SM CLR 24/19 A2994 RMK AO2 SLP127 T02390194 $,KATT,2023-05-30T03:51:00Z,30.32,-97.77,23.9,19.4,0,4,,10.0,29.940945,1012.7,,TRUE,TRUE,TRUE,,,,,,CLR,,,,,,,,VFR,,,,,,,,,,,,METAR,203.0
KALB 300351Z 14007KT 10SM CLR 18/04 A3017 RMK AO2 SLP214 T01830039,KALB,2023-05-30T03:51:00Z,42.75,-73.8,18.3,3.9,140,7,,10.0,30.171259,1021.4,,,TRUE,,,,,,,CLR,,,,,,,,VFR,,,,,,,,,,,,METAR,82.0
KAHN 300351Z AUTO 30003KT 10SM OVC080 20/15 A2994 RMK AO2 SLP132 T02000150,KAHN,2023-05-30T03:51:00Z,33.95,-83.33,20.0,15.0,300,3,,10.0,29.940945,1013.2,,TRUE,TRUE,,,,,,,OVC,8000,,,,,,,VFR,,,,,,,,,,,,METAR,241.0
KACT 300351Z 11005KT 10SM CLR 21/19 A2993 RMK AO2 SLP130 T02110194,KACT,2023-05-30T03:51:00Z,31.62,-97.23,21.1,19.4,110,5,,10.0,29.929134,1013.0,,,TRUE,,,,,,,CLR,,,,,,,,VFR,,,,,,,,,,,,METAR,150.0
KABE 300351Z 10010KT 10SM CLR 15/05 A3017 RMK AO2 SLP214 T01500050,KABE,2023-05-30T03:51:00Z,40.65,-75.45,15.0,5.0,100,10,,10.0,30.171259,1021.4,,,TRUE,,,,,,,CLR,,,,,,,,VFR,,,,,,,,,,,,METAR,117.0
K6R6 300351Z AUTO 10009KT 24/21 A2995 RMK AO1 SLP108 T02390211 $ ,K6R6,2023-05-30T03:51:00Z,30.05,-102.22,23.9,21.1,100,9,,,29.949802,1010.8,,TRUE,TRUE,TRUE,,,,,,,,,,,,,,,,,,,,,,,,,,METAR,702.0
RKSU 300350Z 17003KT 9999 BKN030 BKN200 27/20 A2986 RMK CIG030,RKSU,2023-05-30T03:50:00Z,37.42,127.62,27.0,20.0,170,3,,6.21,29.861221,,,,,,,,,,,BKN,3000,BKN,20000,,,,,MVFR,,,,,,,,,,,,SPECI,43.0
PTRO 300350Z 14007KT 14SM BKN016 BKN140 BKN300 29/25 A2980 ,PTRO,2023-05-30T03:50:00Z,7.37,134.55,29.0,25.0,140,7,,14.0,29.799213,,,,,,,,,,,BKN,1600,BKN,14000,BKN,30000,,,MVFR,,,,,,,,,,,,METAR,30.0
PTKK 300350Z 08006KT 15SM SCT014TCU SCT120 BKN280 32/27 A2978 RMK TCU W SLP086 T03170268,PTKK,2023-05-30T03:50:00Z,7.47,151.85,31.7,26.8,80,6,,15.0,29.778543,1008.6,,,,,,,,,,SCT,1400,SCT,12000,BKN,28000,,,VFR,,,,,,,,,,,,METAR,3.0
PKMR 300350Z 00000KT 15SM FEW014 SCT050 OVC110 28/25 A2980 RMK SLP091 T02830245,PKMR,2023-05-30T03:50:00Z,7.08,171.38,28.3,24.5,0,0,,15.0,29.799213,1009.1,,,,,,,,,,FEW,1400,SCT,5000,OVC,11000,,,VFR,,,,,,,,,,,,METAR,7.0
PGRO 300350Z 14011KT 7SM BKN012 BKN050 OVC100 26/24 A2986,PGRO,2023-05-30T03:50:00Z,14.18,145.25,26.0,24.0,140,11,,7.0,29.861221,,,,,,,,,,,BKN,1200,BKN,5000,OVC,10000,,,MVFR,,,,,,,,,,,,METAR,181.0
OOSA 300350Z VRB03KT 9999 FEW025 31/25 Q1010 NOSIG,OOSA,2023-05-30T03:50:00Z,17.03,54.1,31.0,25.0,0,3,,6.21,29.822834,,,,,,TRUE,,,,,FEW,2500,,,,,,,VFR,,,,,,,,,,,,METAR,20.0
OOMS 300350Z 20011KT CAVOK 38/20 Q1006 NOSIG,OOMS,2023-05-30T03:50:00Z,23.58,58.28,38.0,20.0,200,11,,6.21,29.704725,,,,,,TRUE,,,,,CAVOK,,,,,,,,VFR,,,,,,,,,,,,METAR,8.0
OOKB 300350Z VRB01KT CAVOK 33/23 Q1006 NOSIG,OOKB,2023-05-30T03:50:00Z,26.17,56.23,33.0,23.0,0,1,,6.21,29.704725,,,,,,TRUE,,,,,CAVOK,,,,,,,,VFR,,,,,,,,,,,,METAR,30.0
OODQ 300350Z AUTO 20025KT CAVOK ////// 30/25 Q1009 NOSIG,OODQ,2023-05-30T03:50:00Z,19.52,57.65,30.0,25.0,200,25,,6.21,29.793306,,,TRUE,,,TRUE,,,,,CAVOK,,,,,,,,VFR,,,,,,,,,,,,METAR,116.0
OOAD 300350Z AUTO 11006KT 080V140 9999 // NCD 30/23 Q1011 NOSIG,OOAD,2023-05-30T03:50:00Z,22.5,57.37,30.0,23.0,110,6,,6.21,29.852362,,,TRUE,,,TRUE,,,,,CLR,,,,,,,,VFR,,,,,,,,,,,,METAR,327.0
NSTU 300350Z 12013KT 12SM BKN016TCU BKN040 28/27 A2985 RMK TCU ALQDS SLP110 T02840267,NSTU,2023-05-30T03:50:00Z,-14.33,-170.72,28.4,26.7,120,13,,12.0,29.84941,1011.0,,,,,,,,,,BKN,1600,BKN,4000,,,,,MVFR,,,,,,,,,,,,METAR,8.0
MUVR 300350Z 06005KT 8000 FEW030 SCT100 25/23 Q1013,MUVR,2023-05-30T03:50:00Z,23.03,-81.43,25.0,23.0,60,5,,4.97,29.911417,,,,,,,,,,,FEW,3000,SCT,10000,,,,,MVFR,,,,,,,,,,,,METAR,65.0
MUSC 300350Z 26003KT 9000 NSC 22/21 Q1013,MUSC,2023-05-30T03:50:00Z,22.5,-79.92,22.0,21.0,260,3,,5.59,29.911417,,,,,,,,,,,CLR,,,,,,,,VFR,,,,,,,,,,,,METAR,97.0
MUHG 300350Z VRB02KT 8000 -RA FEW012 BKN105 24/24 Q1014,MUHG,2023-05-30T03:50:00Z,20.78,-76.32,24.0,24.0,0,2,,4.97,29.940945,,,,,,,,,,-RA,FEW,1200,BKN,10500,,,,,MVFR,,,,,,,,,,,,METAR,100.0
MUHA 300350Z 07003KT 9000 SCT025 BKN100 24/23 Q1013,MUHA,2023-05-30T03:50:00Z,22.98,-82.42,24.0,23.0,70,3,,5.59,29.911417,,,,,,,,,,,SCT,2500,BKN,10000,,,,,VFR,,,,,,,,,,,,METAR,61.0
MUCU 300350Z 36005KT 9000 FEW020 26/22 Q1013,MUCU,2023-05-30T03:50:00Z,19.97,-75.83,26.0,22.0,360,5,,5.59,29.911417,,,,,,,,,,,FEW,2000,,,,,,,VFR,,,,,,,,,,,,METAR,70.0
MUCM 300350Z 05005KT 9000 FEW020 23/22 Q1014,MUCM,2023-05-30T03:50:00Z,21.42,-77.85,23.0,22.0,50,5,,5.59,29.940945,,,,,,,,,,,FEW,2000,,,,,,,VFR,,,,,,,,,,,,METAR,125.0
MUCC 300350Z VRB01KT 9000 SCT020 24/24 Q1013,MUCC,2023-05-30T03:50:00Z,22.47,-78.33,24.0,24.0,0,1,,5.59,29.911417,,,,,,,,,,,SCT,2000,,,,,,,VFR,,,,,,,,,,,,METAR,7.0
MSLP 300350Z VRB01KT 9999 FEW015 SCT050 28/25 Q1011 A2985 NOSIG,MSLP,2023-05-30T03:50:00Z,13.43,-89.05,28.0,25.0,0,1,,6.21,29.852362,,,,,,TRUE,,,,,FEW,1500,SCT,5000,,,,,VFR,,,,,,,,,,,,METAR,25.0
MMVR 300350Z 10004KT 6SM SCT045 OVC070 27/24 A2982 RMK 8/57/,MMVR,2023-05-30T03:50:00Z,19.15,-96.18,27.0,24.0,100,4,,6.0,29.819881,,,,,,,,,,,SCT,4500,OVC,7000,,,,,VFR,,,,,,,,,,,,METAR,26.0
LXGB 300350Z 26008KT CAVOK 19/15 Q1014 RMK BLU,LXGB,2023-05-30T03:50:00Z,36.15,-5.33,19.0,15.0,260,8,,6.21,29.940945,,,,,,,,,,,CAVOK,,,,,,,,VFR,,,,,,,,,,,,METAR,5.0
LTFO 300350Z 24005KT 210V270 9999 SCT035 BKN100 19/17 Q1010,LTFO,2023-05-30T03:50:00Z,41.18,40.85,19.0,17.0,240,5,,6.21,29.822834,,,,,,,,,,,SCT,3500,BKN,10000,,,,,VFR,,,,,,,,,,,,METAR,5.0
LTFM 300350Z 35006KT 300V010 8000 BKN008 BKN022 17/15 Q1012 NOSIG RMK RWY17L 31003KT RWY34L 34004KT RWY16R 00000KT RWY36 36005KT RWY18 33004KT 290V350,LTFM,2023-05-30T03:50:00Z,41.27,28.75,17.0,15.0,350,6,,4.97,29.88189,,,,,,TRUE,,,,,BKN,800,BKN,2200,,,,,IFR,,,,,,,,,,,,METAR,99.0
LTFJ 300350Z 00000KT 5000 BR BKN009 BKN020 18/18 Q1012 BECMG 8000 NSW RMK RWY24 VRB03KT,LTFJ,2023-05-30T03:50:00Z,40.9,29.3,18.0,18.0,0,0,,3.11,29.88189,,,,,,,,,,BR,BKN,900,BKN,2000,,,,,IFR,,,,,,,,,,,,METAR,83.0
LTFH 300350Z 20003KT 6000 FEW012 SCT030 BKN100 17/17 Q1011 NOSIG,LTFH,2023-05-30T03:50:00Z,41.27,36.57,17.0,17.0,200,3,,3.73,29.852362,,,,,,TRUE,,,,,FEW,1200,SCT,3000,BKN,10000,,,MVFR,,,,,,,,,,,,METAR,7.0
LTFG 300350Z 12004KT 9999 SCT030 17/15 Q1013,LTFG,2023-05-30T03:50:00Z,36.3,32.3,17.0,15.0,120,4,,6.21,29.911417,,,,,,,,,,,SCT,3000,,,,,,,VFR,,,,,,,,,,,,METAR,26.0
LTFE 300350Z VRB02KT 9999 SCT020 BKN100 17/16 Q1011 NOSIG RMK RWY10 VRB02KT,LTFE,2023-05-30T03:50:00Z,37.25,27.67,17.0,16.0,0,2,,6.21,29.852362,,,,,,TRUE,,,,,SCT,2000,BKN,10000,,,,,VFR,,,,,,,,,,,,METAR,6.0
LTFD 300350Z 09008KT 9999 SCT035 19/15 Q1012,LTFD,2023-05-30T03:50:00Z,39.55,27.02,19.0,15.0,90,8,,6.21,29.88189,,,,,,,,,,,SCT,3500,,,,,,,VFR,,,,,,,,,,,,METAR,15.0
LTFC 300350Z VRB01KT 6000 SHRA FEW004 FEW015CB BKN030 12/12 Q1014 RMK RWY23 00000KT,LTFC,2023-05-30T03:50:00Z,37.87,30.38,12.0,12.0,0,1,,3.73,29.940945,,,,,,,,,,SHRA,FEW,400,FEW,1500,BKN,3000,,,MVFR,,,,,,,,,,,,METAR,862.0
LTFB 300350Z 24003KT 210V270 9999 BKN035 20/19 Q1011,LTFB,2023-05-30T03:50:00Z,37.95,27.33,20.0,19.0,240,3,,6.21,29.852362,,,,,,,,,,,BKN,3500,,,,,,,VFR,,,,,,,,,,,,METAR,3.0
LTDA 300350Z 07003KT 040V110 9999 FEW035 18/15 Q1013 NOSIG,LTDA,2023-05-30T03:50:00Z,36.37,36.28,18.0,15.0,70,3,,6.21,29.911417,,,,,,TRUE,,,,,FEW,3500,,,,,,,VFR,,,,,,,,,,,,METAR,80.0
LTCW 300350Z 10011KT 9000 SCT030 BKN070 14/08 Q1022,LTCW,2023-05-30T03:50:00Z,37.55,44.23,14.0,8.0,100,11,,5.59,30.177166,,,,,,,,,,,SCT,3000,BKN,7000,,,,,VFR,,,,,,,,,,,,METAR,1852.0
LTCV 300350Z 24005KT CAVOK 20/15 Q1015,LTCV,2023-05-30T03:50:00Z,37.37,42.07,20.0,15.0,240,5,,6.21,29.970472,,,,,,,,,,,CAVOK,,,,,,,,VFR,,,,,,,,,,,,METAR,620.0
LTCT 300350Z 32006KT 290V350 9999 SCT040 BKN100 18/13 Q1016,LTCT,2023-05-30T03:50:00Z,39.98,43.87,18.0,13.0,320,6,,6.21,30.0,,,,,,,,,,,SCT,4000,BKN,10000,,,,,VFR,,,,,,,,,,,,METAR,936.0
LTCS 300350Z 09008KT CAVOK 17/15 Q1016 RMK RWY22 07008KT SKC,LTCS,2023-05-30T03:50:00Z,37.45,38.9,17.0,15.0,90,8,,6.21,30.0,,,,,,,,,,,CAVOK,,,,,,,,VFR,,,,,,,,,,,,METAR,825.0
LTCR 300350Z 11003KT 050V150 9999 FEW040 SCT100 24/14 Q1014,LTCR,2023-05-30T03:50:00Z,37.22,40.63,24.0,14.0,110,3,,6.21,29.940945,,,,,,,,,,,FEW,4000,SCT,10000,,,,,VFR,,,,,,,,,,,,METAR,529.0
LTCP 300350Z 08009KT 9999 FEW040 17/14 Q1015,LTCP,2023-05-30T03:50:00Z,37.73,38.47,17.0,14.0,80,9,,6.21,29.970472,,,,,,,,,,,FEW,4000,,,,,,,VFR,,,,,,,,,,,,METAR,672.0
LTCO 300350Z 12004KT 100V160 9999 SCT035 BKN070 13/11 Q1020,LTCO,2023-05-30T03:50:00Z,39.65,43.03,13.0,11.0,120,4,,6.21,30.11811,,,,,,,,,,,SCT,3500,BKN,7000,,,,,VFR,,,,,,,,,,,,METAR,1657.0
LTCN 300350Z VRB02KT CAVOK 15/15 Q1015,LTCN,2023-05-30T03:50:00Z,37.53,36.95,15.0,15.0,0,2,,6.21,29.970472,,,,,,,,,,,CAVOK,,,,,,,,VFR,,,,,,,,,,,,METAR,505.0
LTCL 300350Z 00000KT CAVOK 19/16 Q1016,LTCL,2023-05-30T03:50:00Z,37.98,41.83,19.0,16.0,0,0,,6.21,30.0,,,,,,,,,,,CAVOK,,,,,,,,VFR,,,,,,,,,,,,METAR,602.0
LTCK 300350Z 28007KT 9999 SCT035 BKN100 13/10 Q1020,LTCK,2023-05-30T03:50:00Z,38.75,41.67,13.0,10.0,280,7,,6.21,30.11811,,,,,,,,,,,SCT,3500,BKN,10000,,,,,VFR,,,,,,,,,,,,METAR,1267.0
LTCJ 300350Z 03004KT 360V060 9999 FEW040 SCT100 19/16 Q1015 NOSIG RMK RWY20 35006KT 1CU040 3AC100,LTCJ,2023-05-30T03:50:00Z,37.93,41.12,19.0,16.0,30,4,,6.21,29.970472,,,,,,TRUE,,,,,FEW,4000,SCT,10000,,,,,VFR,,,,,,,,,,,,METAR,559.0
LTCI 300350Z VRB01KT 9999 SCT030 SCT070 15/10 Q1023 TEMPO -TSRA,LTCI,2023-05-30T03:50:00Z,38.47,43.33,15.0,10.0,0,1,,6.21,30.206694,,,,,,,,,,,SCT,3000,SCT,7000,,,,,VFR,,,,,,,,,,,,METAR,1654.0
LTCG 300350Z VRB02KT 9999 SCT035 BKN100 20/16 Q1010 NOSIG RMK RWY29 31003KT,LTCG,2023-05-30T03:50:00Z,41.0,39.77,20.0,16.0,0,2,,6.21,29.822834,,,,,,TRUE,,,,,SCT,3500,BKN,10000,,,,,VFR,,,,,,,,,,,,METAR,28.0
LTCF 300350Z 24003KT 210V270 9999 SCT035 BKN070 12/09 Q1021 NOSIG,LTCF,2023-05-30T03:50:00Z,40.57,43.12,12.0,9.0,240,3,,6.21,30.147638,,,,,,TRUE,,,,,SCT,3500,BKN,7000,,,,,VFR,,,,,,,,,,,,METAR,1794.0
LTCE 300350Z VRB02KT 9999 FEW040 SCT080 10/07 Q1020 NOSIG RMK RWY08R 32004KT 290V010 RWY26R VRB02KT RWY08L 34004KT 240V020 2CU040 4AC080,LTCE,2023-05-30T03:50:00Z,39.95,41.17,10.0,7.0,0,2,,6.21,30.11811,,,,,,TRUE,,,,,FEW,4000,SCT,8000,,,,,VFR,,,,,,,,,,,,METAR,1758.0
LTCD 300350Z 00000KT 9999 SCT070 12/10 Q1018 NOSIG,LTCD,2023-05-30T03:50:00Z,39.72,39.52,12.0,10.0,0,0,,6.21,30.059055,,,,,,TRUE,,,,,SCT,7000,,,,,,,VFR,,,,,,,,,,,,METAR,1146.0
LTCC 300350Z 25003KT 9999 FEW040 SCT100 17/14 Q1016 NOSIG RMK RWY16 01003KT 330V040 2CU040 4AC100,LTCC,2023-05-30T03:50:00Z,37.88,40.2,17.0,14.0,250,3,,6.21,30.0,,,,,,TRUE,,,,,FEW,4000,SCT,10000,,,,,VFR,,,,,,,,,,,,METAR,676.0
LTCB 300350Z 17005KT 9999 FEW015 BKN033 20/16 Q1011 RESHRA NOSIG,LTCB,2023-05-30T03:50:00Z,40.97,38.07,20.0,16.0,170,5,,6.21,29.852362,,,,,,TRUE,,,,,FEW,1500,BKN,3300,,,,,VFR,,,,,,,,,,,,METAR,5.0
LTCA 300350Z VRB01KT 9999 FEW018 SCT035 13/13 Q1017 NOSIG,LTCA,2023-05-30T03:50:00Z,38.6,39.28,13.0,13.0,0,1,,6.21,30.029528,,,,,,TRUE,,,,,FEW,1800,SCT,3500,,,,,VFR,,,,,,,,,,,,METAR,887.0
LTBY 300350Z 27008KT 9999 FEW015 BKN030 13/13 Q1012,LTBY,2023-05-30T03:50:00Z,39.82,30.52,13.0,13.0,270,8,,6.21,29.88189,,,,,,,,,,,FEW,1500,BKN,3000,,,,,MVFR,,,,,,,,,,,,METAR,788.0
LTBU 300350Z 02004KT 360V060 7000 FEW015 BKN025 17/16 Q1012 RMK RWY22 01004KT,LTBU,2023-05-30T03:50:00Z,41.13,27.92,17.0,16.0,20,4,,4.35,29.88189,,,,,,,,,,,FEW,1500,BKN,2500,,,,,MVFR,,,,,,,,,,,,METAR,165.0
LTBS 300350Z 00000KT 9999 SCT030 BKN100 16/16 Q1011 NOSIG RMK RWY19 33003KT 4CU030 5AC100,LTBS,2023-05-30T03:50:00Z,36.7,28.78,16.0,16.0,0,0,,6.21,29.852362,,,,,,TRUE,,,,,SCT,3000,BKN,10000,,,,,VFR,,,,,,,,,,,,METAR,2.0
LTBR 300350Z VRB02KT 4500 BR SCT028 BKN090 16/16 Q1012 NOSIG RMK RWY07 23004KT,LTBR,2023-05-30T03:50:00Z,40.25,29.57,16.0,16.0,0,2,,2.8,29.88189,,,,,,TRUE,,,,BR,SCT,2800,BKN,9000,,,,,IFR,,,,,,,,,,,,METAR,233.0
LTBQ 300350Z 29004KT 250V320 4000 BR SCT012 OVC018 16/15 Q1012 TEMPO 2000 BKN008 OVC018,LTBQ,2023-05-30T03:50:00Z,40.73,30.07,16.0,15.0,290,4,,2.49,29.88189,,,,,,,,,,BR,SCT,1200,OVC,1800,,,,,IFR,,,,,,,,,,,,METAR,51.0
LTBO 300350Z 00000KT 9999 -SHRA BKN036 BKN090 13/13 Q1013,LTBO,2023-05-30T03:50:00Z,38.67,29.47,13.0,13.0,0,0,,6.21,29.911417,,,,,,,,,,-SHRA,BKN,3600,BKN,9000,,,,,VFR,,,,,,,,,,,,METAR,868.0
LTBJ 300350Z 19002KT 9999 SCT030 BKN100 17/17 Q1011 NOSIG RMK RWY16 18003KT,LTBJ,2023-05-30T03:50:00Z,38.28,27.15,17.0,17.0,190,2,,6.21,29.852362,,,,,,TRUE,,,,,SCT,3000,BKN,10000,,,,,VFR,,,,,,,,,,,,METAR,123.0
LTBH 300350Z 08005KT 9999 SCT035 BKN100 18/16 Q1012,LTBH,2023-05-30T03:50:00Z,40.13,26.42,18.0,16.0,80,5,,6.21,29.88189,,,,,,,,,,,SCT,3500,BKN,10000,,,,,VFR,,,,,,,,,,,,METAR,8.0
LTBF 300350Z 33001KT 9999 FEW015 SCT035 BKN100 17/16 Q1012 NOSIG,LTBF,2023-05-30T03:50:00Z,39.62,27.92,17.0,16.0,330,1,,6.21,29.88189,,,,,,TRUE,,,,,FEW,1500,SCT,3500,BKN,10000,,,VFR,,,,,,,,,,,,METAR,95.0
LTBD 300350Z 08006KT 4000 -SHRA SCT030 BKN090 18/17 Q1011,LTBD,2023-05-30T03:50:00Z,37.82,27.88,18.0,17.0,80,6,,2.49,29.852362,,,,,,,,,,-SHRA,SCT,3000,BKN,9000,,,,,IFR,,,,,,,,,,,,METAR,29.0
LTBA 300350Z 35007KT 9999 SCT011 BKN040 18/16 Q1012 RMK RWY23 36004KT,LTBA,2023-05-30T03:50:00Z,40.97,28.82,18.0,16.0,350,7,,6.21,29.88189,,,,,,,,,,,SCT,1100,BKN,4000,,,,,VFR,,,,,,,,,,,,METAR,33.0
LTAZ 300350Z 12005KT 9999 FEW040 BKN100 13/09 Q1014 RMK RWY29 VRB02KT,LTAZ,2023-05-30T03:50:00Z,38.77,34.52,13.0,9.0,120,5,,6.21,29.940945,,,,,,,,,,,FEW,4000,BKN,10000,,,,,VFR,,,,,,,,,,,,METAR,944.0
LTAY 300350Z 00000KT 9999 FEW010 SCT030 BKN090 13/13 Q1013 NOSIG,LTAY,2023-05-30T03:50:00Z,37.78,29.7,13.0,13.0,0,0,,6.21,29.911417,,,,,,TRUE,,,,,FEW,1000,SCT,3000,BKN,9000,,,VFR,,,,,,,,,,,,METAR,851.0
LTAW 300350Z 06003KT 010V100 9999 SCT040 16/13 Q1012,LTAW,2023-05-30T03:50:00Z,40.3,36.37,16.0,13.0,60,3,,6.21,29.88189,,,,,,,,,,,SCT,4000,,,,,,,VFR,,,,,,,,,,,,METAR,561.0
LTAU 300350Z 04003KT 010V080 9999 SCT040 11/08 Q1014 NOSIG RMK RWY07 36005KT,LTAU,2023-05-30T03:50:00Z,38.77,35.48,11.0,8.0,40,3,,6.21,29.940945,,,,,,TRUE,,,,,SCT,4000,,,,,,,VFR,,,,,,,,,,,,METAR,1053.0
LTAT 300350Z 02003KT 360V060 9999 FEW012 SCT033 BKN090 14/14 Q1018 NOSIG RMK RWY03 02004KT,LTAT,2023-05-30T03:50:00Z,38.43,38.08,14.0,14.0,20,3,,6.21,30.059055,,,,,,TRUE,,,,,FEW,1200,SCT,3300,BKN,9000,,,VFR,,,,,,,,,,,,METAR,850.0
LTAS 300350Z 20003KT 8000 FEW015 SCT030 BKN080 17/16 Q1011,LTAS,2023-05-30T03:50:00Z,41.52,32.08,17.0,16.0,200,3,,4.97,29.852362,,,,,,,,,,,FEW,1500,SCT,3000,BKN,8000,,,MVFR,,,,,,,,,,,,METAR,13.0
LTAR 300350Z 14009KT 9999 SCT040 10/08 Q1017,LTAR,2023-05-30T03:50:00Z,39.8,36.9,10.0,8.0,140,9,,6.21,30.029528,,,,,,,,,,,SCT,4000,,,,,,,VFR,,,,,,,,,,,,METAR,1601.0
LTAP 300350Z 00000KT 9000 SCT040 14/14 Q1011 NOSIG RMK RWY23 VRB02KT,LTAP,2023-05-30T03:50:00Z,40.83,35.52,14.0,14.0,0,0,,5.59,29.852362,,,,,,TRUE,,,,,SCT,4000,,,,,,,VFR,,,,,,,,,,,,METAR,536.0
LTAN 300350Z VRB02KT 9999 SCT035 BKN090 13/11 Q1014 RESHRA NOSIG,LTAN,2023-05-30T03:50:00Z,37.97,32.55,13.0,11.0,0,2,,6.21,29.940945,,,,,,TRUE,,,,,SCT,3500,BKN,9000,,,,,VFR,,,,,,,,,,,,METAR,1029.0
LTAJ 300350Z 00000KT CAVOK 14/13 Q1014 NOSIG RMK RWY10 00000KT SKC,LTAJ,2023-05-30T03:50:00Z,36.95,37.48,14.0,13.0,0,0,,6.21,29.940945,,,,,,TRUE,,,,,CAVOK,,,,,,,,VFR,,,,,,,,,,,,METAR,684.0
LTAI 300350Z 04003KT 9999 FEW020CB BKN030 18/17 Q1012 NOSIG RMK RWY18C 02003KT 340V060 RWY36R VRB02KT RWY18L 04003KT,LTAI,2023-05-30T03:50:00Z,36.9,30.8,18.0,17.0,40,3,,6.21,29.88189,,,,,,TRUE,,,,,FEW,2000,BKN,3000,,,,,MVFR,,,,,,,,,,,,METAR,50.0
LTAG 300350Z 09004KT 9999 SCT035 BKN100 20/18 Q1012 NOSIG RMK 3CU035 6AC100,LTAG,2023-05-30T03:50:00Z,37.0,35.42,20.0,18.0,90,4,,6.21,29.88189,,,,,,TRUE,,,,,SCT,3500,BKN,10000,,,,,VFR,,,,,,,,,,,,METAR,62.0
LTAF 300350Z VRB02KT 9999 BKN025 21/19 Q1013 NOSIG RMK RWY23 08004KT 5CU025,LTAF,2023-05-30T03:50:00Z,36.98,35.28,21.0,19.0,0,2,,6.21,29.911417,,,,,,TRUE,,,,,BKN,2500,,,,,,,MVFR,,,,,,,,,,,,METAR,19.0
LTAE 300350Z VRB01KT 9999 FEW017 SCT036 BKN100 13/13 Q1012 NOSIG RMK RWY21 VRB02KT,LTAE,2023-05-30T03:50:00Z,40.07,32.57,13.0,13.0,0,1,,6.21,29.88189,,,,,,TRUE,,,,,FEW,1700,SCT,3600,BKN,10000,,,VFR,,,,,,,,,,,,METAR,836.0
LTAC 300350Z 00000KT 9999 SCT040 BKN100 13/12 Q1012 NOSIG RMK RWY21L 00000KT RWY03L 00000KT RWY21R 00000KT,LTAC,2023-05-30T03:50:00Z,40.12,32.98,13.0,12.0,0,0,,6.21,29.88189,,,,,,TRUE,,,,,SCT,4000,BKN,10000,,,,,VFR,,,,,,,,,,,,METAR,952.0
LSZS 300350Z AUTO 00000KT 9999 BKN033 04/04 Q1021,LSZS,2023-05-30T03:50:00Z,46.53,9.88,4.0,4.0,0,0,,6.21,30.147638,,,TRUE,,,,,,,,BKN,3300,,,,,,,VFR,,,,,,,,,,,,METAR,1708.0
LSZR 300350Z AUTO 26005KT 9999 NCD 13/09 Q1018,LSZR,2023-05-30T03:50:00Z,47.48,9.57,13.0,9.0,260,5,,6.21,30.059055,,,TRUE,,,,,,,,CLR,,,,,,,,VFR,,,,,,,,,,,,METAR,396.0
LSZL 300350Z AUTO 24001KT 9999NDV FEW079 15/14 Q1017 RMK,LSZL,2023-05-30T03:50:00Z,46.17,8.88,15.0,14.0,240,1,,,30.029528,,,TRUE,,,,,,,,FEW,7900,,,,,,,,,,,,,,,,,,,METAR,198.0
LSZH 300350Z 32005KT CAVOK 11/06 Q1018 NOSIG,LSZH,2023-05-30T03:50:00Z,47.48,8.53,11.0,6.0,320,5,,6.21,30.059055,,,,,,TRUE,,,,,CAVOK,,,,,,,,VFR,,,,,,,,,,,,METAR,424.0
LSZG 300350Z AUTO 00000KT CAVOK 09/06 Q1018,LSZG,2023-05-30T03:50:00Z,47.17,7.42,9.0,6.0,0,0,,6.21,30.059055,,,TRUE,,,,,,,,CAVOK,,,,,,,,VFR,,,,,,,,,,,,METAR,428.0
LSZC 300350Z AUTO 24003KT CAVOK 12/08 Q1018,LSZC,2023-05-30T03:50:00Z,46.97,8.38,12.0,8.0,240,3,,6.21,30.059055,,,TRUE,,,,,,,,CAVOK,,,,,,,,VFR,,,,,,,,,,,,METAR,445.0
LSZB 300350Z AUTO VRB01KT CAVOK 07/07 Q1018,LSZB,2023-05-30T03:50:00Z,46.92,7.5,7.0,7.0,0,1,,6.21,30.059055,,,TRUE,,,,,,,,CAVOK,,,,,,,,VFR,,,,,,,,,,,,METAR,510.0
LSZA 300350Z AUTO VRB01KT 9999 SCT080 16/14 Q1017,LSZA,2023-05-30T03:50:00Z,46.0,8.92,16.0,14.0,0,1,,6.21,30.029528,,,TRUE,,,,,,,,SCT,8000,,,,,,,VFR,,,,,,,,,,,,METAR,276.0
LSMP 300350Z AUTO 00000KT 9999NDV NCD 10/07 Q1017 RMK,LSMP,2023-05-30T03:50:00Z,46.83,6.92,10.0,7.0,0,0,,,30.029528,,,TRUE,,,,,,,,CLR,,,,,,,,,,,,,,,,,,,,METAR,490.0
LSMM 300350Z AUTO VRB02KT 9999NDV NCD 09/08 Q1018 RMK,LSMM,2023-05-30T03:50:00Z,46.75,8.12,9.0,8.0,0,2,,,30.059055,,,TRUE,,,,,,,,CLR,,,,,,,,,,,,,,,,,,,,METAR,570.0
LSME 300350Z AUTO 00000KT 9999NDV NCD 10/10 Q1018 RMK,LSME,2023-05-30T03:50:00Z,47.1,8.3,10.0,10.0,0,0,,,30.059055,,,TRUE,,,,,,,,CLR,,,,,,,,,,,,,,,,,,,,METAR,427.0
LSMD 300350Z AUTO VRB01KT 9999NDV NCD 11/07 Q1019 RMK,LSMD,2023-05-30T03:50:00Z,47.4,8.65,11.0,7.0,0,1,,,30.088583,,,TRUE,,,,,,,,CLR,,,,,,,,,,,,,,,,,,,,METAR,436.0
LSMA 300350Z AUTO VRB02KT 9999NDV NCD 10/08 Q1018 RMK,LSMA,2023-05-30T03:50:00Z,46.95,8.28,10.0,8.0,0,2,,,30.059055,,,TRUE,,,,,,,,CLR,,,,,,,,,,,,,,,,,,,,METAR,441.0
LSGS 300350Z AUTO VRB01KT CAVOK 17/11 Q1017,LSGS,2023-05-30T03:50:00Z,46.22,7.32,17.0,11.0,0,1,,6.21,30.029528,,,TRUE,,,,,,,,CAVOK,,,,,,,,VFR,,,,,,,,,,,,METAR,482.0
LSGG 300350Z 32002KT CAVOK 12/08 Q1017 NOSIG,LSGG,2023-05-30T03:50:00Z,46.25,6.12,12.0,8.0,320,2,,6.21,30.029528,,,,,,TRUE,,,,,CAVOK,,,,,,,,VFR,,,,,,,,,,,,METAR,411.0
LSGC 300350Z AUTO 05004KT CAVOK 10/05 Q1019,LSGC,2023-05-30T03:50:00Z,47.08,6.8,10.0,5.0,50,4,,6.21,30.088583,,,TRUE,,,,,,,,CAVOK,,,,,,,,VFR,,,,,,,,,,,,METAR,1018.0
LOXZ 300350Z 00000KT 9999 FEW230 SCT300 07/06 Q1020,LOXZ,2023-05-30T03:50:00Z,47.2,14.75,7.0,6.0,0,0,,6.21,30.11811,,,,,,,,,,,FEW,23000,SCT,30000,,,,,VFR,,,,,,,,,,,,METAR,678.0
LOWW 300350Z 33007KT CAVOK 13/08 Q1018 NOSIG,LOWW,2023-05-30T03:50:00Z,48.12,16.57,13.0,8.0,330,7,,6.21,30.059055,,,,,,TRUE,,,,,CAVOK,,,,,,,,VFR,,,,,,,,,,,,METAR,179.0
LOWS 300350Z AUTO VRB01KT CAVOK 10/07 Q1019 NOSIG,LOWS,2023-05-30T03:50:00Z,47.78,13.02,10.0,7.0,0,1,,6.21,30.088583,,,TRUE,,,TRUE,,,,,CAVOK,,,,,,,,VFR,,,,,,,,,,,,METAR,427.0
LOWL 300350Z AUTO VRB01KT CAVOK 12/08 Q1019 NOSIG,LOWL,2023-05-30T03:50:00Z,48.22,14.18,12.0,8.0,0,1,,6.21,30.088583,,,TRUE,,,TRUE,,,,,CAVOK,,,,,,,,VFR,,,,,,,,,,,,METAR,290.0
LOWK 300350Z AUTO 30004KT 9999 FEW050 12/11 Q1019 NOSIG,LOWK,2023-05-30T03:50:00Z,46.65,14.32,12.0,11.0,300,4,,6.21,30.088583,,,TRUE,,,TRUE,,,,,FEW,5000,,,,,,,VFR,,,,,,,,,,,,METAR,450.0
LOWI 300350Z 27002KT CAVOK 10/07 Q1020 NOSIG,LOWI,2023-05-30T03:50:00Z,47.27,11.33,10.0,7.0,270,2,,6.21,30.11811,,,,,,TRUE,,,,,CAVOK,,,,,,,,VFR,,,,,,,,,,,,METAR,570.0
LOWG 300350Z VRB01KT CAVOK 10/09 Q1018 NOSIG,LOWG,2023-05-30T03:50:00Z,47.0,15.43,10.0,9.0,0,1,,6.21,30.059055,,,,,,TRUE,,,,,CAVOK,,,,,,,,VFR,,,,,,,,,,,,METAR,337.0
LLIB 300350Z AUTO VRB02KT CAVOK 17/15 Q1014,LLIB,2023-05-30T03:50:00Z,32.98,35.57,17.0,15.0,0,2,,6.21,29.940945,,,TRUE,,,,,,,,CAVOK,,,,,,,,VFR,,,,,,,,,,,,METAR,268.0
LLHA 300350Z AUTO VRB02KT CAVOK 20/16 Q1014,LLHA,2023-05-30T03:50:00Z,32.8,35.03,20.0,16.0,0,2,,6.21,29.940945,,,TRUE,,,,,,,,CAVOK,,,,,,,,VFR,,,,,,,,,,,,METAR,3.0
LLER 300350Z 34008KT CAVOK 23/11 Q1014 RMK SCT100,LLER,2023-05-30T03:50:00Z,29.72,35.02,23.0,11.0,340,8,,6.21,29.940945,,,,,,,,,,,CAVOK,,,,,,,,VFR,,,,,,,,,,,,METAR,88.0
LLBG 300350Z VRB02KT CAVOK 19/15 Q1014 NOSIG,LLBG,2023-05-30T03:50:00Z,32.0,34.88,19.0,15.0,0,2,,6.21,29.940945,,,,,,TRUE,,,,,CAVOK,,,,,,,,VFR,,,,,,,,,,,,METAR,35.0
LIRZ 300350Z AUTO VRB01KT 9999 NCD 11/10 Q1014,LIRZ,2023-05-30T03:50:00Z,43.1,12.5,11.0,10.0,0,1,,6.21,29.940945,,,TRUE,,,,,,,,CLR,,,,,,,,VFR,,,,,,,,,,,,METAR,206.0
LIRQ 300350Z VRB01KT CAVOK 13/12 Q1014,LIRQ,2023-05-30T03:50:00Z,43.8,11.2,13.0,12.0,0,1,,6.21,29.940945,,,,,,,,,,,CAVOK,,,,,,,,VFR,,,,,,,,,,,,METAR,33.0
LIRN 300350Z VRB02KT CAVOK 18/14 Q1012 NOSIG,LIRN,2023-05-30T03:50:00Z,40.88,14.3,18.0,14.0,0,2,,6.21,29.88189,,,,,,TRUE,,,,,CAVOK,,,,,,,,VFR,,,,,,,,,,,,METAR,76.0
LIRF 300350Z 04006KT CAVOK 16/13 Q1012 NOSIG,LIRF,2023-05-30T03:50:00Z,41.78,12.23,16.0,13.0,40,6,,6.21,29.88189,,,,,,TRUE,,,,,CAVOK,,,,,,,,VFR,,,,,,,,,,,,METAR,2.0
LIRA 300350Z 05004KT CAVOK 14/12 Q1013,LIRA,2023-05-30T03:50:00Z,41.8,12.58,14.0,12.0,50,4,,6.21,29.911417,,,,,,,,,,,CAVOK,,,,,,,,VFR,,,,,,,,,,,,METAR,101.0
LIPZ 300350Z 01007KT CAVOK 19/13 Q1015 NOSIG,LIPZ,2023-05-30T03:50:00Z,45.5,12.35,19.0,13.0,10,7,,6.21,29.970472,,,,,,TRUE,,,,,CAVOK,,,,,,,,VFR,,,,,,,,,,,,METAR,3.0
LIPY 300350Z AUTO 18004KT 9999 NCD 16/13 Q1014,LIPY,2023-05-30T03:50:00Z,43.62,13.37,16.0,13.0,180,4,,6.21,29.940945,,,TRUE,,,,,,,,CLR,,,,,,,,VFR,,,,,,,,,,,,METAR,11.0
LIPX 300350Z 03004KT 9999 BKN090 20/12 Q1015,LIPX,2023-05-30T03:50:00Z,45.38,10.87,20.0,12.0,30,4,,6.21,29.970472,,,,,,,,,,,BKN,9000,,,,,,,VFR,,,,,,,,,,,,METAR,67.0
LIPR 300350Z AUTO 24003KT 9999 NCD 15/12 Q1014,LIPR,2023-05-30T03:50:00Z,44.02,12.62,15.0,12.0,240,3,,6.21,29.940945,,,TRUE,,,,,,,,CLR,,,,,,,,VFR,,,,,,,,,,,,METAR,10.0
LIPQ 300350Z AUTO 02006KT 9999 NCD 16/12 Q1015,LIPQ,2023-05-30T03:50:00Z,45.82,13.47,16.0,12.0,20,6,,6.21,29.970472,,,TRUE,,,,,,,,CLR,,,,,,,,VFR,,,,,,,,,,,,METAR,6.0
LIPO 300350Z AUTO 04004KT 9999 BKN067/// BKN120/// 20/13 Q1015,LIPO,2023-05-30T03:50:00Z,45.42,10.33,20.0,13.0,40,4,,6.21,29.970472,,,TRUE,,,,,,,,BKN,6700,BKN,12000,,,,,VFR,,,,,,,,,,,,METAR,104.0
LIPE 300350Z 20007KT 150V240 9999 SCT070 16/12 Q1015,LIPE,2023-05-30T03:50:00Z,44.52,11.3,16.0,12.0,200,7,,6.21,29.970472,,,,,,,,,,,SCT,7000,,,,,,,VFR,,,,,,,,,,,,METAR,37.0
LIMZ 300350Z AUTO 23005KT 9999 NCD 12/10 Q1017,LIMZ,2023-05-30T03:50:00Z,44.53,7.62,12.0,10.0,230,5,,6.21,30.029528,,,TRUE,,,,,,,,CLR,,,,,,,,VFR,,,,,,,,,,,,METAR,377.0
LIMW 300350Z AUTO VRB01KT 9999 NCD 12/11 Q1019,LIMW,2023-05-30T03:50:00Z,45.73,7.37,12.0,11.0,0,1,,6.21,30.088583,,,TRUE,,,,,,,,CLR,,,,,,,,VFR,,,,,,,,,,,,METAR,554.0
LIML 300350Z VRB02KT 9999 SCT065 17/15 Q1015 NOSIG,LIML,2023-05-30T03:50:00Z,45.47,9.27,17.0,15.0,0,2,,6.21,29.970472,,,,,,TRUE,,,,,SCT,6500,,,,,,,VFR,,,,,,,,,,,,METAR,109.0
LIMJ 300350Z 05014KT CAVOK 21/13 Q1014,LIMJ,2023-05-30T03:50:00Z,44.42,8.83,21.0,13.0,50,14,,6.21,29.940945,,,,,,,,,,,CAVOK,,,,,,,,VFR,,,,,,,,,,,,METAR,3.0
LIMF 300350Z 27003KT CAVOK 15/11 Q1016,LIMF,2023-05-30T03:50:00Z,45.22,7.65,15.0,11.0,270,3,,6.21,30.0,,,,,,,,,,,CAVOK,,,,,,,,VFR,,,,,,,,,,,,METAR,295.0
LIME 300350Z VRB02KT 9999 SCT100 16/12 Q1016 NOSIG,LIME,2023-05-30T03:50:00Z,45.67,9.7,16.0,12.0,0,2,,6.21,30.0,,,,,,TRUE,,,,,SCT,10000,,,,,,,VFR,,,,,,,,,,,,METAR,239.0
LIMC 300350Z 34004KT 9999 SCT090 18/15 Q1016 NOSIG,LIMC,2023-05-30T03:50:00Z,45.62,8.72,18.0,15.0,340,4,,6.21,30.0,,,,,,TRUE,,,,,SCT,9000,,,,,,,VFR,,,,,,,,,,,,METAR,221.0
LIEO 300350Z 21001KT CAVOK 15/14 Q1013,LIEO,2023-05-30T03:50:00Z,40.88,9.52,15.0,14.0,210,1,,6.21,29.911417,,,,,,,,,,,CAVOK,,,,,,,,VFR,,,,,,,,,,,,METAR,8.0
LIEE 300350Z 33004KT CAVOK 18/15 Q1012,LIEE,2023-05-30T03:50:00Z,39.25,9.07,18.0,15.0,330,4,,6.21,29.88189,,,,,,,,,,,CAVOK,,,,,,,,VFR,,,,,,,,,,,,METAR,1.0
LIEA 300350Z VRB02KT CAVOK 15/14 Q1012,LIEA,2023-05-30T03:50:00Z,40.62,8.28,15.0,14.0,0,2,,6.21,29.88189,,,,,,,,,,,CAVOK,,,,,,,,VFR,,,,,,,,,,,,METAR,22.0
LICR 300350Z AUTO 02003KT 9999 NCD 18/10 Q1012,LICR,2023-05-30T03:50:00Z,38.07,15.65,18.0,10.0,20,3,,6.21,29.88189,,,TRUE,,,,,,,,CLR,,,,,,,,VFR,,,,,,,,,,,,METAR,16.0
LICJ 300350Z 21005KT CAVOK 20/17 Q1012,LICJ,2023-05-30T03:50:00Z,38.17,13.08,20.0,17.0,210,5,,6.21,29.88189,,,,,,,,,,,CAVOK,,,,,,,,VFR,,,,,,,,,,,,METAR,20.0
LICD 300350Z AUTO 35007KT 5000 RA OVC094/// 19/18 Q1012,LICD,2023-05-30T03:50:00Z,35.5,12.62,19.0,18.0,350,7,,3.11,29.88189,,,TRUE,,,,,,,RA,OVC,9400,,,,,,,MVFR,,,,,,,,,,,,METAR,20.0
LICC 300350Z 24004KT 4000 BR NSC 16/16 Q1012,LICC,2023-05-30T03:50:00Z,37.47,15.05,16.0,16.0,240,4,,2.49,29.88189,,,,,,,,,,BR,CLR,,,,,,,,IFR,,,,,,,,,,,,METAR,6.0
LICB 300350Z AUTO 05004KT 9999 BKN150/// 15/13 Q1013,LICB,2023-05-30T03:50:00Z,37.0,14.62,15.0,13.0,50,4,,6.21,29.911417,,,TRUE,,,,,,,,BKN,15000,,,,,,,VFR,,,,,,,,,,,,METAR,212.0
LICA 300350Z AUTO 08005KT 9999 NCD 15/15 Q1012,LICA,2023-05-30T03:50:00Z,38.9,16.25,15.0,15.0,80,5,,6.21,29.88189,,,TRUE,,,,,,,,CLR,,,,,,,,VFR,,,,,,,,,,,,METAR,7.0
LIBR 300350Z 30004KT CAVOK 17/16 Q1012,LIBR,2023-05-30T03:50:00Z,40.65,17.95,17.0,16.0,300,4,,6.21,29.88189,,,,,,,,,,,CAVOK,,,,,,,,VFR,,,,,,,,,,,,METAR,5.0
LIBP 300350Z AUTO VRB02KT 9999 BKN140/// 16/14 Q1013,LIBP,2023-05-30T03:50:00Z,42.42,14.18,16.0,14.0,0,2,,6.21,29.911417,,,TRUE,,,,,,,,BKN,14000,,,,,,,VFR,,,,,,,,,,,,METAR,10.0
LIBD 300350Z VRB01KT CAVOK 15/14 Q1013,LIBD,2023-05-30T03:50:00Z,41.13,16.77,15.0,14.0,0,1,,6.21,29.911417,,,,,,,,,,,CAVOK,,,,,,,,VFR,,,,,,,,,,,,METAR,42.0
LGZA 300350Z 00000KT 9999 SCT015 SCT020 16/15 Q1012,LGZA,2023-05-30T03:50:00Z,37.75,20.88,16.0,15.0,0,0,,6.21,29.88189,,,,,,,,,,,SCT,1500,SCT,2000,,,,,VFR,,,,,,,,,,,,METAR,3.0
LGTS 300350Z VRB03KT 9999 FEW035 17/17 Q1014 NOSIG,LGTS,2023-05-30T03:50:00Z,40.52,22.97,17.0,17.0,0,3,,6.21,29.940945,,,,,,TRUE,,,,,FEW,3500,,,,,,,VFR,,,,,,,,,,,,METAR,4.0
LGSR 300350Z 29006KT CAVOK 19/15 Q1012,LGSR,2023-05-30T03:50:00Z,36.4,25.48,19.0,15.0,290,6,,6.21,29.88189,,,,,,,,,,,CAVOK,,,,,,,,VFR,,,,,,,,,,,,METAR,31.0
LGSO 300350Z AUTO 33005KT //// // ////// 19/14 Q1012 RE//,LGSO,2023-05-30T03:50:00Z,37.42,24.95,19.0,14.0,330,5,,,29.88189,,,TRUE,,,,,,,,,,,,,,,,,,,,,,,,,,,,METAR,71.0
LGSM 300350Z 00000KT 9999 FEW015 SCT020 17/15 Q1011,LGSM,2023-05-30T03:50:00Z,37.68,26.92,17.0,15.0,0,0,,6.21,29.852362,,,,,,,,,,,FEW,1500,SCT,2000,,,,,VFR,,,,,,,,,,,,METAR,5.0
LGSA 300350Z 00000KT 9999 FEW020 17/15 Q1011,LGSA,2023-05-30T03:50:00Z,35.53,24.13,17.0,15.0,0,0,,6.21,29.852362,,,,,,,,,,,FEW,2000,,,,,,,VFR,,,,,,,,,,,,METAR,122.0
LGRX 300350Z 00000KT CAVOK 15/14 Q1012,LGRX,2023-05-30T03:50:00Z,38.17,21.42,15.0,14.0,0,0,,6.21,29.88189,,,,,,,,,,,CAVOK,,,,,,,,VFR,,,,,,,,,,,,METAR,16.0
LGRP 300350Z 22004KT 9999 FEW015 19/17 Q1011 NOSIG,LGRP,2023-05-30T03:50:00Z,36.4,28.08,19.0,17.0,220,4,,6.21,29.852362,,,,,,TRUE,,,,,FEW,1500,,,,,,,VFR,,,,,,,,,,,,METAR,3.0
LGPZ 300350Z 00000KT 9999 FEW080 18/17 Q1012,LGPZ,2023-05-30T03:50:00Z,38.92,20.77,18.0,17.0,0,0,,6.21,29.88189,,,,,,,,,,,FEW,8000,,,,,,,VFR,,,,,,,,,,,,METAR,3.0
LGPA 300350Z 34005KT 9999 FEW025 19/16 Q1012,LGPA,2023-05-30T03:50:00Z,37.02,25.1,19.0,16.0,340,5,,6.21,29.88189,,,,,,,,,,,FEW,2500,,,,,,,VFR,,,,,,,,,,,,METAR,42.0
LGNX 300350Z 34008KT 9999 FEW018 19/15 Q1012,LGNX,2023-05-30T03:50:00Z,37.08,25.37,19.0,15.0,340,8,,6.21,29.88189,,,,,,,,,,,FEW,1800,,,,,,,VFR,,,,,,,,,,,,METAR,3.0
LGMT 300350Z 31005KT 9999 FEW020 19/16 Q1011,LGMT,2023-05-30T03:50:00Z,39.05,26.6,19.0,16.0,310,5,,6.21,29.852362,,,,,,,,,,,FEW,2000,,,,,,,VFR,,,,,,,,,,,,METAR,4.0
LGMK 300350Z 34009KT 9999 SCT020 19/14 Q1012,LGMK,2023-05-30T03:50:00Z,37.43,25.35,19.0,14.0,340,9,,6.21,29.88189,,,,,,,,,,,SCT,2000,,,,,,,VFR,,,,,,,,,,,,METAR,126.0
LGLM 300350Z VRB03KT 9999 FEW020 18/16 Q1012,LGLM,2023-05-30T03:50:00Z,39.92,25.23,18.0,16.0,0,3,,6.21,29.88189,,,,,,,,,,,FEW,2000,,,,,,,VFR,,,,,,,,,,,,METAR,4.0
LGKZ 300350Z 35005KT 9999 FEW030 SCT070 12/11 Q1015,LGKZ,2023-05-30T03:50:00Z,40.28,21.83,12.0,11.0,350,5,,6.21,29.970472,,,,,,,,,,,FEW,3000,SCT,7000,,,,,VFR,,,,,,,,,,,,METAR,615.0
LGKV 300350Z 00000KT 9999 SCT025 SCT070 17/16 Q1013,LGKV,2023-05-30T03:50:00Z,40.92,24.62,17.0,16.0,0,0,,6.21,29.911417,,,,,,,,,,,SCT,2500,SCT,7000,,,,,VFR,,,,,,,,,,,,METAR,5.0
LGKR 300350Z 00000KT CAVOK 18/17 Q1011 NOSIG,LGKR,2023-05-30T03:50:00Z,39.62,19.92,18.0,17.0,0,0,,6.21,29.852362,,,,,,TRUE,,,,,CAVOK,,,,,,,,VFR,,,,,,,,,,,,METAR,2.0
LGKO 300350Z VRB02KT 8000 FEW016 19/16 Q1011,LGKO,2023-05-30T03:50:00Z,36.8,27.08,19.0,16.0,0,2,,4.97,29.852362,,,,,,,,,,,FEW,1600,,,,,,,MVFR,,,,,,,,,,,,METAR,130.0
LGKL 300350Z VRB02KT CAVOK 14/13 Q1012,LGKL,2023-05-30T03:50:00Z,37.07,22.02,14.0,13.0,0,2,,6.21,29.88189,,,,,,,,,,,CAVOK,,,,,,,,VFR,,,,,,,,,,,,METAR,4.0
LGIR 300350Z 18006KT 9999 FEW025 16/13 Q1013 NOSIG,LGIR,2023-05-30T03:50:00Z,35.33,25.17,16.0,13.0,180,6,,6.21,29.911417,,,,,,TRUE,,,,,FEW,2500,,,,,,,VFR,,,,,,,,,,,,METAR,37.0
LGIO 300350Z AUTO VRB02KT //// // ////// 12/12 Q1014 RE//,LGIO,2023-05-30T03:50:00Z,39.7,20.82,12.0,12.0,0,2,,,29.940945,,,TRUE,,,,,,,,,,,,,,,,,,,,,,,,,,,,METAR,476.0
LGHI 300350Z 35004KT 9999 FEW030 20/17 Q1010,LGHI,2023-05-30T03:50:00Z,38.33,26.13,20.0,17.0,350,4,,6.21,29.822834,,,,,,,,,,,FEW,3000,,,,,,,VFR,,,,,,,,,,,,METAR,6.0
LGEL 300350Z 00000KT 9999 FEW025 20/13 Q1012,LGEL,2023-05-30T03:50:00Z,38.07,23.55,20.0,13.0,0,0,,6.21,29.88189,,,,,,,,,,,FEW,2500,,,,,,,VFR,,,,,,,,,,,,METAR,21.0
LGBL 300350Z 00000KT 9999 FEW030 SCT070 15/13 Q1013,LGBL,2023-05-30T03:50:00Z,39.22,22.8,15.0,13.0,0,0,,6.21,29.911417,,,,,,,,,,,FEW,3000,SCT,7000,,,,,VFR,,,,,,,,,,,,METAR,13.0
LGAV 300350Z VRB01KT 9999 FEW030 20/12 Q1012 NOSIG,LGAV,2023-05-30T03:50:00Z,37.93,23.95,20.0,12.0,0,1,,6.21,29.88189,,,,,,TRUE,,,,,FEW,3000,,,,,,,VFR,,,,,,,,,,,,METAR,83.0
LGAL 300350Z 00000KT 9999 SCT030 17/16 Q1012,LGAL,2023-05-30T03:50:00Z,40.85,25.95,17.0,16.0,0,0,,6.21,29.88189,,,,,,,,,,,SCT,3000,,,,,,,VFR,,,,,,,,,,,,METAR,5.0
LGAD 300350Z 00000KT CAVOK 14/13 Q1012,LGAD,2023-05-30T03:50:00Z,37.92,21.28,14.0,13.0,0,0,,6.21,29.88189,,,,,,,,,,,CAVOK,,,,,,,,VFR,,,,,,,,,,,,METAR,8.0
LCRA 300350Z 05002KT 9999 FEW012 19/15 Q1013 NOSIG,LCRA,2023-05-30T03:50:00Z,34.58,32.98,19.0,15.0,50,2,,6.21,29.911417,,,,,,TRUE,,,,,FEW,1200,,,,,,,VFR,,,,,,,,,,,,METAR,23.0
LCEN 300350Z 26004KT 6000 SCT015 17/15 Q1013 NOSIG RMK RWY11 00000KT,LCEN,2023-05-30T03:50:00Z,35.15,33.5,17.0,15.0,260,4,,3.73,29.911417,,,,,,TRUE,,,,,SCT,1500,,,,,,,MVFR,,,,,,,,,,,,METAR,91.0
LATI 300350Z 18001KT 1900 0600N R17/0900N R35/1000N BCFG NSC 15/15 Q1013 BECMG FM0600 CAVOK,LATI,2023-05-30T03:50:00Z,41.42,19.72,15.0,15.0,180,1,,1.18,29.911417,,,,,,,,,,BCFG,CLR,,,,,,,,IFR,,,,,,,,,,,,METAR,32.0
KXNX 300350Z AUTO 00000KT 10SM FEW042 18/16 A2999 RMK A01,KXNX,2023-05-30T03:50:00Z,36.38,-86.42,18.0,16.0,0,0,,10.0,29.991142,,,TRUE,TRUE,,,,,,,FEW,4200,,,,,,,VFR,,,,,,,,,,,,METAR,178.0
KXBP 300350Z AUTO 13004KT 10SM CLR 21/19 A2995 RMK AO2 T02080186,KXBP,2023-05-30T03:50:00Z,33.18,-97.83,20.8,18.6,130,4,,10.0,29.949802,,,TRUE,TRUE,,,,,,,CLR,,,,,,,,VFR,,,,,,,,,,,,METAR,256.0
KX26 300350Z AUTO 10SM CLR 24/17 A2993 RMK AO2 TSNO T02380172,KX26,2023-05-30T03:50:00Z,27.82,-80.5,23.8,17.2,,,,10.0,29.929134,,,TRUE,TRUE,,,TRUE,,,,CLR,,,,,,,,VFR,,,,,,,,,,,,METAR,5.0
KVVS 300350Z AUTO 04003KT 10SM SCT100 19/11 A3006 RMK AO2 T01920112,KVVS,2023-05-30T03:50:00Z,39.95,-79.65,19.2,11.2,40,3,,10.0,30.059055,,,TRUE,TRUE,,,,,,,SCT,10000,,,,,,,VFR,,,,,,,,,,,,METAR,386.0
KVES 300350Z AUTO 08003KT 10SM OVC095 22/06 A3000 RMK AO2,KVES,2023-05-30T03:50:00Z,40.2,-84.53,22.0,6.0,80,3,,10.0,30.0,,,TRUE,TRUE,,,,,,,OVC,9500,,,,,,,VFR,,,,,,,,,,,,METAR,308.0
KU68 300350Z AUTO 04005KT 10SM CLR 18/06 A2989 RMK AO2,KU68,2023-05-30T03:50:00Z,44.92,-108.45,18.0,6.0,40,5,,10.0,29.890747,,,TRUE,TRUE,,,,,,,CLR,,,,,,,,VFR,,,,,,,,,,,,METAR,1244.0
KSUT 300350Z AUTO 00000KT 10SM SCT031 18/15 A2995 RMK AO2 T01760153,KSUT,2023-05-30T03:50:00Z,33.93,-78.08,17.6,15.3,0,0,,10.0,29.949802,,,TRUE,TRUE,,,,,,,SCT,3100,,,,,,,VFR,,,,,,,,,,,,METAR,6.0
KRYY 300350Z AUTO 27005KT 10SM CLR 18/14 A2997 RMK AO2 SLP141 T01780139 402280139 $,KRYY,2023-05-30T03:50:00Z,34.02,-84.6,17.8,13.9,270,5,,10.0,29.970472,1014.1,,TRUE,TRUE,TRUE,,,,,,CLR,,,,,,,,VFR,,,,22.8,13.9,,,,,,,METAR,306.0
KRHP 300350Z AUTO 10003KT 10SM OVC070 16/14 A3000 RMK AO2 T01630144,KRHP,2023-05-30T03:50:00Z,35.18,-83.85,16.3,14.4,100,3,,10.0,30.0,,,TRUE,TRUE,,,,,,,OVC,7000,,,,,,,VFR,,,,,,,,,,,,METAR,515.0
KRCZ 300350Z AUTO 04003KT 10SM OVC050 19/18 A2995 RMK AO2 T01860177,KRCZ,2023-05-30T03:50:00Z,34.88,-79.77,18.6,17.7,40,3,,10.0,29.949802,,,TRUE,TRUE,,,,,,,OVC,5000,,,,,,,VFR,,,,,,,,,,,,METAR,110.0
KQER 300350Z AUTO 34010G14KT 2000 HZ SCT1100 25/11 A2982 RMK A02 TSNO,KQER,2023-05-30T03:50:00Z,,,25.0,11.0,340,10,14,1.24,29.819881,,,TRUE,TRUE,,,TRUE,,,HZ,,,,,,,,,,,,,,,,,,,,,METAR,
KOLY 300350Z AUTO 00000KT 10SM SCT080 21/14 A2995 RMK AO2 T02120141 PWINO,KOLY,2023-05-30T03:50:00Z,38.72,-88.18,21.2,14.1,0,0,,10.0,29.949802,,,TRUE,TRUE,,,,,TRUE,,SCT,8000,,,,,,,VFR,,,,,,,,,,,,METAR,144.0
KNQA 300350Z 00000KT 10SM CLR 18/16 A2994,KNQA,2023-05-30T03:50:00Z,35.35,-89.87,18.0,16.0,0,0,,10.0,29.940945,,,,,,,,,,,CLR,,,,,,,,VFR,,,,,,,,,,,,METAR,90.0
KMRC 300350Z AUTO 00000KT 10SM CLR 16/16 A2995 RMK A01,KMRC,2023-05-30T03:50:00Z,35.55,-87.18,16.0,16.0,0,0,,10.0,29.949802,,,TRUE,TRUE,,,,,,,CLR,,,,,,,,VFR,,,,,,,,,,,,METAR,205.0
KMQI 300350Z AUTO 00000KT 10SM CLR 18/17 A2994 RMK AO2 T01800171,KMQI,2023-05-30T03:50:00Z,35.92,-75.7,18.0,17.1,0,0,,10.0,29.940945,,,TRUE,TRUE,,,,,,,CLR,,,,,,,,VFR,,,,,,,,,,,,METAR,3.0
KM91 300350Z AUTO 00000KT 10SM FEW042 SCT075 17/16 A2994 RMK A01,KM91,2023-05-30T03:50:00Z,36.53,-86.92,17.0,16.0,0,0,,10.0,29.940945,,,TRUE,TRUE,,,,,,,FEW,4200,SCT,7500,,,,,VFR,,,,,,,,,,,,METAR,214.0
KM54 300350Z AUTO 00000KT 10SM OVC044 17/15 A2994 RMK A01,KM54,2023-05-30T03:50:00Z,36.18,-86.32,17.0,15.0,0,0,,10.0,29.940945,,,TRUE,TRUE,,,,,,,OVC,4400,,,,,,,VFR,,,,,,,,,,,,METAR,168.0
KM04 300350Z AUTO 00000KT 10SM CLR 19/16 A2995 RMK A01,KM04,2023-05-30T03:50:00Z,35.58,-89.58,19.0,16.0,0,0,,10.0,29.949802,,,TRUE,TRUE,,,,,,,CLR,,,,,,,,VFR,,,,,,,,,,,,METAR,83.0
KLHZ 300350Z AUTO 00000KT 10SM SCT031 OVC041 17/17 A2998 RMK AO2,KLHZ,2023-05-30T03:50:00Z,36.02,-78.33,17.0,17.0,0,0,,10.0,29.97933,,,TRUE,TRUE,,,,,,,SCT,3100,OVC,4100,,,,,VFR,,,,,,,,,,,,METAR,104.0
KLFI 300350Z AUTO 05005KT 9SM VCTS -RA OVC005 20/19 A2996 RMK AO2 TSE05 SLP152 $,KLFI,2023-05-30T03:50:00Z,37.08,-76.33,20.0,19.0,50,5,,9.0,29.958662,1015.2,,TRUE,TRUE,TRUE,,,,,VCTS -RA,OVC,500,,,,,,,IFR,,,,,,,,,,,,SPECI,2.0
KLAL 300350Z 01004KT 10SM SKC 22/17 A2993,KLAL,2023-05-30T03:50:00Z,27.98,-82.02,22.0,17.0,10,4,,10.0,29.929134,,,,,,,,,,,SKC,,,,,,,,VFR,,,,,,,,,,,,METAR,39.0
KK70 300350Z AUTO VRB04KT 10SM CLR 27/M35 A2989 RMK AO2,KK70,2023-05-30T03:50:00Z,25.32,-80.28,27.0,-35.0,0,4,,10.0,29.890747,,,TRUE,TRUE,,,,,,,CLR,,,,,,,,VFR,,,,,,,,,,,,METAR,20.0
KJAU 300350Z AUTO 00000KT 8SM SCT038 14/14 A3004 RMK A01,KJAU,2023-05-30T03:50:00Z,36.33,-84.17,14.0,14.0,0,0,,8.0,30.041338,,,TRUE,TRUE,,,,,,,SCT,3800,,,,,,,VFR,,,,,,,,,,,,METAR,350.0
KIXA 300350Z AUTO 00000KT 10SM SCT034 SCT044 16/16 A2997 RMK AO2,KIXA,2023-05-30T03:50:00Z,36.33,-77.63,16.0,16.0,0,0,,10.0,29.970472,,,TRUE,TRUE,,,,,,,SCT,3400,SCT,4400,,,,,VFR,,,,,,,,,,,,METAR,43.0
KHNZ 300350Z AUTO 00000KT 1/2SM FG VV005 15/15 A2997 RMK AO2 T01540152,KHNZ,2023-05-30T03:50:00Z,36.37,-78.53,15.4,15.2,0,0,,0.5,29.970472,,,TRUE,TRUE,,,,,,FG,OVX,0,,,,,,,LIFR,,,,,,,,,,,500,METAR,158.0
KGWW 300350Z AUTO 00000KT 10SM BKN049 18/18 A2995 RMK AO2 T01810181,KGWW,2023-05-30T03:50:00Z,35.47,-77.97,18.1,18.1,0,0,,10.0,29.949802,,,TRUE,TRUE,,,,,,,BKN,4900,,,,,,,VFR,,,,,,,,,,,,METAR,40.0
KGNC 300350Z AUTO 12010KT 10SM CLR 25/15 A3000 RMK AO2 T02450151,KGNC,2023-05-30T03:50:00Z,32.68,-102.65,24.5,15.1,120,10,,10.0,30.0,,,TRUE,TRUE,,,,,,,CLR,,,,,,,,VFR,,,,,,,,,,,,METAR,1002.0
KFSK 300350Z AUTO 13003KT 10SM OVC085 21/18 A2995 RMK AO2 T02090175,KFSK,2023-05-30T03:50:00Z,37.8,-94.77,20.9,17.5,130,3,,10.0,29.949802,,,TRUE,TRUE,,,,,,,OVC,8500,,,,,,,VFR,,,,,,,,,,,,METAR,276.0
KFFA 300350Z AUTO 00000KT 10SM CLR 18/18 A2992 RMK AO2 T01830175,KFFA,2023-05-30T03:50:00Z,36.02,-75.67,18.3,17.5,0,0,,10.0,29.920275,,,TRUE,TRUE,,,,,,,CLR,,,,,,,,VFR,,,,,,,,,,,,METAR,2.0
KFDK 300350Z AUTO 06004KT 10SM VCTS OVC090 19/14 A3009 RMK AO2 LTG DSNT NE,KFDK,2023-05-30T03:50:00Z,39.42,-77.37,19.0,14.0,60,4,,10.0,30.088583,,,TRUE,TRUE,,,,,,VCTS,OVC,9000,,,,,,,VFR,,,,,,,,,,,,METAR,82.0
KEYF 300350Z AUTO 00000KT 7SM SCT020 OVC055 18/17 A2996 RMK AO2 T01760172,KEYF,2023-05-30T03:50:00Z,34.6,-78.58,17.6,17.2,0,0,,7.0,29.958662,,,TRUE,TRUE,,,,,,,SCT,2000,OVC,5500,,,,,VFR,,,,,,,,,,,,METAR,39.0
KEXX 300350Z AUTO 00000KT 1 1/4SM BR SCT002 BKN034 17/17 A2997 RMK AO2 T01680168,KEXX,2023-05-30T03:50:00Z,35.78,-80.3,16.8,16.8,0,0,,1.25,29.970472,,,TRUE,TRUE,,,,,,BR,SCT,200,BKN,3400,,,,,IFR,,,,,,,,,,,,METAR,221.0
KEKE 300350Z AUTO 10011KT 10SM CLR 26/21 A2984 RMK A01,KEKE,2023-05-30T03:50:00Z,28.5,-91.58,26.0,21.0,100,11,,10.0,29.840551,,,TRUE,TRUE,,,,,,,CLR,,,,,,,,VFR,,,,,,,,,,,,METAR,31.0
KEAN 300350Z AUTO 22006KT 10SM CLR 18/03 A2995 RMK AO2 T01760034,KEAN,2023-05-30T03:50:00Z,42.05,-104.93,17.6,3.4,220,6,,10.0,29.949802,,,TRUE,TRUE,,,,,,,CLR,,,,,,,,VFR,,,,,,,,,,,,METAR,1452.0
KDAG 300350Z AUTO 25017KT 10SM CLR 23/M03 A2985 RMK AO2 PK WND 26027/0309 SLP087 T02331033 $,KDAG,2023-05-30T03:50:00Z,34.85,-116.78,23.3,-3.3,250,17,,10.0,29.84941,1008.7,,TRUE,TRUE,TRUE,,,,,,CLR,,,,,,,,VFR,,,,,,,,,,,,METAR,584.0
KCGS 300350Z AUTO 07006KT 7SM -RA SCT050 BKN070 OVC120 16/15 A3010 RMK AO2 P0003 T01650153,KCGS,2023-05-30T03:50:00Z,38.98,-76.92,16.5,15.3,70,6,,7.0,30.100393,,,TRUE,TRUE,,,,,,-RA,SCT,5000,BKN,7000,OVC,12000,,,VFR,,,,,,0.03,,,,,,METAR,15.0
KCCB 300350Z AUTO 23008KT 10SM OVC023 15/12 A2997 RMK AO2,KCCB,2023-05-30T03:50:00Z,34.12,-117.68,15.0,12.0,230,8,,10.0,29.970472,,,TRUE,TRUE,,,,,,,OVC,2300,,,,,,,MVFR,,,,,,,,,,,,METAR,440.0
KBMC 300350Z AUTO 34018G21KT 10SM SCT100 SCT120 19/03 A2993 RMK AO1 T01930034,KBMC,2023-05-30T03:50:00Z,41.55,-112.07,19.3,3.4,340,18,21,10.0,29.929134,,,TRUE,TRUE,,,,,,,SCT,10000,SCT,12000,,,,,VFR,,,,,,,,,,,,METAR,1289.0
KANK 300350Z AUTO 26012G15KT 10SM CLR A3021 RMK AO1,KANK,2023-05-30T03:50:00Z,38.53,-106.05,,,260,12,15,10.0,30.209646,,,TRUE,TRUE,,,,,,,CLR,,,,,,,,VFR,,,,,,,,,,,,METAR,2293.0
KAFP 300350Z AUTO 00000KT 10SM OVC050 17/17 A2995 RMK AO2 T01710165,KAFP,2023-05-30T03:50:00Z,35.02,-80.08,17.1,16.5,0,0,,10.0,29.949802,,,TRUE,TRUE,,,,,,,OVC,5000,,,,,,,VFR,,,,,,,,,,,,METAR,91.0
K9S9 300350Z AUTO 25009KT 10SM CLR 21/02 A2984 RMK AO2 PWINO,K9S9,2023-05-30T03:50:00Z,45.45,-119.68,21.0,2.0,250,9,,10.0,29.840551,,,TRUE,TRUE,,,,,TRUE,,CLR,,,,,,,,VFR,,,,,,,,,,,,METAR,498.0
K8A3 300350Z AUTO 00000KT 10SM CLR 17/14 A2998 RMK A01,K8A3,2023-05-30T03:50:00Z,36.42,-85.32,17.0,14.0,0,0,,10.0,29.97933,,,TRUE,TRUE,,,,,,,CLR,,,,,,,,VFR,,,,,,,,,,,,METAR,413.0
K1A5 300350Z AUTO 00000KT 5SM DZ OVC010 17/16 A3005 RMK AO2 P0002 T01650159,K1A5,2023-05-30T03:50:00Z,35.22,-83.42,16.5,15.9,0,0,,5.0,30.050198,,,TRUE,TRUE,,,,,,DZ,OVC,1000,,,,,,,MVFR,,,,,,0.02,,,,,,METAR,611.0
K19S 300350Z AUTO 19008KT 10SM CLR 20/13 A2995 RMK AO2 T01980131,K19S,2023-05-30T03:50:00Z,37.48,-100.83,19.8,13.1,190,8,,10.0,29.949802,,,TRUE,TRUE,,,,,,,CLR,,,,,,,,VFR,,,,,,,,,,,,METAR,886.0
EYVI 300350Z 32005KT 9999 SCT062CB 12/05 Q1018 NOSIG,EYVI,2023-05-30T03:50:00Z,54.63,25.28,12.0,5.0,320,5,,6.21,30.059055,,,,,,TRUE,,,,,SCT,6200,,,,,,,VFR,,,,,,,,,,,,METAR,180.0
EYSA 300350Z 35008KT CAVOK 11/07 Q1019 NOSIG,EYSA,2023-05-30T03:50:00Z,55.9,23.4,11.0,7.0,350,8,,6.21,30.088583,,,,,,TRUE,,,,,CAVOK,,,,,,,,VFR,,,,,,,,,,,,METAR,135.0
EYPA 300350Z VRB02KT 9999 BKN004 10/10 Q1020,EYPA,2023-05-30T03:50:00Z,55.97,21.08,10.0,10.0,0,2,,6.21,30.11811,,,,,,,,,,,BKN,400,,,,,,,LIFR,,,,,,,,,,,,METAR,15.0
EYKA 300350Z 29004KT CAVOK 09/05 Q1018,EYKA,2023-05-30T03:50:00Z,54.97,24.08,9.0,5.0,290,4,,6.21,30.059055,,,,,,,,,,,CAVOK,,,,,,,,VFR,,,,,,,,,,,,METAR,68.0
EVVA 300350Z AUTO 00000KT CAVOK 06/06 Q1019,EVVA,2023-05-30T03:50:00Z,57.35,21.55,6.0,6.0,0,0,,6.21,30.088583,,,TRUE,,,,,,,,CAVOK,,,,,,,,VFR,,,,,,,,,,,,METAR,1.0
EVRA 300350Z VRB01KT CAVOK 10/06 Q1019 NOSIG,EVRA,2023-05-30T03:50:00Z,56.92,23.97,10.0,6.0,0,1,,6.21,30.088583,,,,,,TRUE,,,,,CAVOK,,,,,,,,VFR,,,,,,,,,,,,METAR,7.0
EVLA 300350Z AUTO 06002KT 1300 R24/1400U R06/P2000N BR FEW001/// BKN004/// 07/07 Q1020,EVLA,2023-05-30T03:50:00Z,56.52,21.1,7.0,7.0,60,2,,0.81,30.11811,,,TRUE,,,,,,,BR,FEW,100,BKN,400,,,,,LIFR,,,,,,,,,,,,METAR,5.0
EVGA 300350Z 01004KT CAVOK 10/05 Q1018 NOSIG,EVGA,2023-05-30T03:50:00Z,56.78,24.85,10.0,5.0,10,4,,6.21,30.059055,,,,,,TRUE,,,,,CAVOK,,,,,,,,VFR,,,,,,,,,,,,METAR,61.0
ETNT 300350Z 36007KT 9000 -RA BKN011 11/08 Q1027 BLACKGRN,ETNT,2023-05-30T03:50:00Z,53.53,7.67,11.0,8.0,360,7,,5.59,30.324802,,,,,,,,,,-RA,BKN,1100,,,,,,,MVFR,,,,,,,,,,,,SPECI,5.0
ETNG 300350Z 02003KT CAVOK 08/05 Q1026,ETNG,2023-05-30T03:50:00Z,50.97,6.03,8.0,5.0,20,3,,6.21,30.295275,,,,,,,,,,,CAVOK,,,,,,,,VFR,,,,,,,,,,,,SPECI,76.0
ESUT 300350Z AUTO VRB05G17KT 9999 OVC015/// 03/00 Q1017,ESUT,2023-05-30T03:50:00Z,65.8,15.08,3.0,0.0,0,5,17,6.21,30.029528,,,TRUE,,,,,,,,OVC,1500,,,,,,,MVFR,,,,,,,,,,,,METAR,457.0
ESUP 300350Z AUTO 27005KT 240V300 9999 NCD 06/// Q1014,ESUP,2023-05-30T03:50:00Z,67.25,23.07,,,270,5,,6.21,29.940945,,,TRUE,,,,,,,,CLR,,,,,,,,VFR,,,,,,,,,,,,METAR,164.0
ESTL 300350Z AUTO 00000KT 9999 NCD 04/04 Q1024,ESTL,2023-05-30T03:50:00Z,56.07,13.2,4.0,4.0,0,0,,6.21,30.236221,,,TRUE,,,,,,,,CLR,,,,,,,,VFR,,,,,,,,,,,,METAR,39.0
ESTA 300350Z AUTO 14003KT 9999 NCD 06/05 Q1023,ESTA,2023-05-30T03:50:00Z,56.28,12.83,6.0,5.0,140,3,,6.21,30.206694,,,TRUE,,,,,,,,CLR,,,,,,,,VFR,,,,,,,,,,,,METAR,19.0
ESSV 300350Z 32008KT CAVOK 11/07 Q1021,ESSV,2023-05-30T03:50:00Z,57.67,18.35,11.0,7.0,320,8,,6.21,30.147638,,,,,,,,,,,CAVOK,,,,,,,,VFR,,,,,,,,,,,,METAR,38.0
ESST 300350Z 00000KT CAVOK 06/03 Q1025,ESST,2023-05-30T03:50:00Z,60.15,12.98,6.0,3.0,0,0,,6.21,30.265747,,,,,,,,,,,CAVOK,,,,,,,,VFR,,,,,,,,,,,,METAR,110.0
ESSP 300350Z 34005KT 270V070 CAVOK 10/04 Q1023,ESSP,2023-05-30T03:50:00Z,58.58,16.25,10.0,4.0,340,5,,6.21,30.206694,,,,,,,,,,,CAVOK,,,,,,,,VFR,,,,,,,,,,,,METAR,3.0
ESSL 300350Z 33006KT 300V360 CAVOK 10/04 Q1023,ESSL,2023-05-30T03:50:00Z,58.4,15.67,10.0,4.0,330,6,,6.21,30.206694,,,,,,,,,,,CAVOK,,,,,,,,VFR,,,,,,,,,,,,METAR,51.0
ESSD 300350Z AUTO 29006KT 9999 NCD 06/M00 Q1024,ESSD,2023-05-30T03:50:00Z,60.42,15.5,6.0,0.0,290,6,,6.21,30.236221,,,TRUE,,,,,,,,CLR,,,,,,,,VFR,,,,,,,,,,,,METAR,151.0
ESSB 300350Z AUTO 32007KT 9999 NCD 10/01 Q1022,ESSB,2023-05-30T03:50:00Z,59.35,17.93,10.0,1.0,320,7,,6.21,30.177166,,,TRUE,,,,,,,,CLR,,,,,,,,VFR,,,,,,,,,,,,METAR,14.0
ESSA 300350Z 34009KT CAVOK 08/01 Q1022 NOSIG,ESSA,2023-05-30T03:50:00Z,59.65,17.93,8.0,1.0,340,9,,6.21,30.177166,,,,,,TRUE,,,,,CAVOK,,,,,,,,VFR,,,,,,,,,,,,METAR,36.0
ESPE 300350Z AUTO 27004KT 9999 FEW220/// 04/01 Q1017,ESPE,2023-05-30T03:50:00Z,65.88,20.15,4.0,1.0,270,4,,6.21,30.029528,,,TRUE,,,,,,,,FEW,22000,,,,,,,VFR,,,,,,,,,,,,METAR,182.0
ESPA 300350Z 34009KT CAVOK 07/01 Q1016,ESPA,2023-05-30T03:50:00Z,65.53,22.12,7.0,1.0,340,9,,6.21,30.0,,,,,,,,,,,CAVOK,,,,,,,,VFR,,,,,,,,,,,,METAR,12.0
ESOW 300350Z AUTO 35005KT 320V030 9999 NCD 09/00 Q1023,ESOW,2023-05-30T03:50:00Z,59.58,16.63,9.0,0.0,350,5,,6.21,30.206694,,,TRUE,,,,,,,,CLR,,,,,,,,VFR,,,,,,,,,,,,METAR,7.0
ESOK 300350Z AUTO 02007KT 9999 NCD 09/M00 Q1025,ESOK,2023-05-30T03:50:00Z,59.45,13.33,9.0,0.0,20,7,,6.21,30.265747,,,TRUE,,,,,,,,CLR,,,,,,,,VFR,,,,,,,,,,,,METAR,101.0
ESOH 300350Z 00000KT 9999 NSC 06/01 Q1025,ESOH,2023-05-30T03:50:00Z,60.02,13.58,6.0,1.0,0,0,,6.21,30.265747,,,,,,,,,,,CLR,,,,,,,,VFR,,,,,,,,,,,,METAR,145.0
ESOE 300350Z 02009KT CAVOK 08/01 Q1024,ESOE,2023-05-30T03:50:00Z,59.22,15.05,8.0,1.0,20,9,,6.21,30.236221,,,,,,,,,,,CAVOK,,,,,,,,VFR,,,,,,,,,,,,METAR,57.0
ESNZ 300350Z 28011KT 9999 SCT030 05/M08 Q1022,ESNZ,2023-05-30T03:50:00Z,63.18,14.5,5.0,-8.0,280,11,,6.21,30.177166,,,,,,,,,,,SCT,3000,,,,,,,VFR,,,,,,,,,,,,METAR,360.0
ESNX 300350Z 29008KT CAVOK 03/00 Q1016,ESNX,2023-05-30T03:50:00Z,65.58,19.28,3.0,0.0,290,8,,6.21,30.0,,,,,,,,,,,CAVOK,,,,,,,,VFR,,,,,,,,,,,,METAR,380.0
ESNV 300350Z 00000KT 9999 BKN160 03/M01 Q1019,ESNV,2023-05-30T03:50:00Z,64.58,16.83,3.0,-1.0,0,0,,6.21,30.088583,,,,,,,,,,,BKN,16000,,,,,,,VFR,,,,,,,,,,,,METAR,348.0
ESNU 300350Z 32009KT CAVOK 07/02 Q1018,ESNU,2023-05-30T03:50:00Z,63.78,20.28,7.0,2.0,320,9,,6.21,30.059055,,,,,,,,,,,CAVOK,,,,,,,,VFR,,,,,,,,,,,,METAR,8.0
ESNS 300350Z 30008KT CAVOK 06/04 Q1017,ESNS,2023-05-30T03:50:00Z,64.62,21.07,6.0,4.0,300,8,,6.21,30.029528,,,,,,,,,,,CAVOK,,,,,,,,VFR,,,,,,,,,,,,METAR,41.0
ESNQ 300350Z AUTO 23010KT 9999 FEW200/// 04/M03 Q1012,ESNQ,2023-05-30T03:50:00Z,67.82,20.33,4.0,-3.0,230,10,,6.21,29.88189,,,TRUE,,,,,,,,FEW,20000,,,,,,,VFR,,,,,,,,,,,,METAR,447.0
ESNO 300350Z 31009KT CAVOK 06/00 Q1019,ESNO,2023-05-30T03:50:00Z,63.4,18.97,6.0,0.0,310,9,,6.21,30.088583,,,,,,,,,,,CAVOK,,,,,,,,VFR,,,,,,,,,,,,METAR,100.0
ESNN 300350Z VRB03KT CAVOK 07/01 Q1022,ESNN,2023-05-30T03:50:00Z,62.52,17.43,7.0,1.0,0,3,,6.21,30.177166,,,,,,,,,,,CAVOK,,,,,,,,VFR,,,,,,,,,,,,METAR,4.0
ESNL 300350Z AUTO 31005KT 280V350 9999 NCD 05/M00 Q1018,ESNL,2023-05-30T03:50:00Z,64.55,18.72,5.0,0.0,310,5,,6.21,30.059055,,,TRUE,,,,,,,,CLR,,,,,,,,VFR,,,,,,,,,,,,METAR,220.0
ESNK 300350Z 34009KT CAVOK 06/01 Q1021,ESNK,2023-05-30T03:50:00Z,63.03,17.77,6.0,1.0,340,9,,6.21,30.147638,,,,,,,,,,,CAVOK,,,,,,,,VFR,,,,,,,,,,,,METAR,4.0
ESNG 300350Z 00000KT CAVOK 03/M01 Q1014,ESNG,2023-05-30T03:50:00Z,67.13,20.82,3.0,-1.0,0,0,,6.21,29.940945,,,,,,,,,,,CAVOK,,,,,,,,VFR,,,,,,,,,,,,METAR,300.0
ESND 300350Z AUTO VRB03KT 9999 NCD 03/M01 Q1023,ESND,2023-05-30T03:50:00Z,62.05,14.42,3.0,-1.0,0,3,,6.21,30.206694,,,TRUE,,,,,,,,CLR,,,,,,,,VFR,,,,,,,,,,,,METAR,352.0
ESMX 300350Z 35005KT CAVOK 08/03 Q1023,ESMX,2023-05-30T03:50:00Z,56.92,14.72,8.0,3.0,350,5,,6.21,30.206694,,,,,,,,,,,CAVOK,,,,,,,,VFR,,,,,,,,,,,,METAR,176.0
ESMT 300350Z AUTO 08003KT 9999 NCD 06/03 Q1024,ESMT,2023-05-30T03:50:00Z,56.68,12.82,6.0,3.0,80,3,,6.21,30.236221,,,TRUE,,,,,,,,CLR,,,,,,,,VFR,,,,,,,,,,,,METAR,24.0
ESMS 300350Z 35004KT CAVOK 07/07 Q1023,ESMS,2023-05-30T03:50:00Z,55.53,13.37,7.0,7.0,350,4,,6.21,30.206694,,,,,,,,,,,CAVOK,,,,,,,,VFR,,,,,,,,,,,,METAR,68.0
ESMQ 300350Z 34006KT CAVOK 09/04 Q1022,ESMQ,2023-05-30T03:50:00Z,56.68,16.3,9.0,4.0,340,6,,6.21,30.177166,,,,,,,,,,,CAVOK,,,,,,,,VFR,,,,,,,,,,,,METAR,3.0
ESMK 300350Z 29005KT CAVOK 08/04 Q1023,ESMK,2023-05-30T03:50:00Z,55.92,14.08,8.0,4.0,290,5,,6.21,30.206694,,,,,,,,,,,CAVOK,,,,,,,,VFR,,,,,,,,,,,,METAR,20.0
ESKS 300350Z AUTO 30007KT 9999 NCD 04/M02 Q1024,ESKS,2023-05-30T03:50:00Z,61.17,12.83,4.0,-2.0,300,7,,6.21,30.236221,,,TRUE,,,,,,,,CLR,,,,,,,,VFR,,,,,,,,,,,,METAR,503.0
ESKN 300350Z 35006KT 300V030 CAVOK 10/03 Q1022,ESKN,2023-05-30T03:50:00Z,58.78,16.92,10.0,3.0,350,6,,6.21,30.177166,,,,,,,,,,,CAVOK,,,,,,,,VFR,,,,,,,,,,,,METAR,41.0
ESKM 300350Z AUTO 26004KT 9999 NCD 06/M01 Q1024,ESKM,2023-05-30T03:50:00Z,60.97,14.52,6.0,-1.0,260,4,,6.21,30.236221,,,TRUE,,,,,,,,CLR,,,,,,,,VFR,,,,,,,,,,,,METAR,184.0
ESIB 300350Z AUTO VRB01KT 9999 NCD 05/04 Q1024,ESIB,2023-05-30T03:50:00Z,58.42,12.7,5.0,4.0,0,1,,6.21,30.236221,,,TRUE,,,,,,,,CLR,,,,,,,,VFR,,,,,,,,,,,,METAR,51.0
ESIA 300350Z AUTO 36006KT 9999 NCD 10/06 Q1024,ESIA,2023-05-30T03:50:00Z,58.52,14.5,10.0,6.0,360,6,,6.21,30.236221,,,TRUE,,,,,,,,CLR,,,,,,,,VFR,,,,,,,,,,,,METAR,94.0
ESGT 300350Z AUTO 01004KT 9999 R15///// R33///// NCD 05/03 Q1025,ESGT,2023-05-30T03:50:00Z,58.32,12.33,5.0,3.0,10,4,,6.21,30.265747,,,TRUE,,,,,,,,CLR,,,,,,,,VFR,,,,,,,,,,,,METAR,40.0
ESGP 300350Z AUTO 00000KT 9999 NCD 06/04 Q1024,ESGP,2023-05-30T03:50:00Z,57.77,11.87,6.0,4.0,0,0,,6.21,30.236221,,,TRUE,,,,,,,,CLR,,,,,,,,VFR,,,,,,,,,,,,METAR,15.0
ESGJ 300350Z AUTO 27003KT 9999 NCD 04/01 Q1023,ESGJ,2023-05-30T03:50:00Z,57.77,14.07,4.0,1.0,270,3,,6.21,30.206694,,,TRUE,,,,,,,,CLR,,,,,,,,VFR,,,,,,,,,,,,METAR,224.0
ESGG 300350Z 03005KT CAVOK 07/05 Q1023,ESGG,2023-05-30T03:50:00Z,57.67,12.3,7.0,5.0,30,5,,6.21,30.206694,,,,,,,,,,,CAVOK,,,,,,,,VFR,,,,,,,,,,,,METAR,152.0
ESDF 300350Z AUTO 01004KT 9999 NCD 09/05 Q1022,ESDF,2023-05-30T03:50:00Z,56.27,15.27,9.0,5.0,10,4,,6.21,30.177166,,,TRUE,,,,,,,,CLR,,,,,,,,VFR,,,,,,,,,,,,METAR,52.0
ESCM 300350Z AUTO 35008KT 9999 NCD 08/02 Q1022,ESCM,2023-05-30T03:50:00Z,59.88,17.6,8.0,2.0,350,8,,6.21,30.177166,,,TRUE,,,,,,,,CLR,,,,,,,,VFR,,,,,,,,,,,,METAR,21.0
ESCF 300350Z 35006KT CAVOK 09/04 Q1023,ESCF,2023-05-30T03:50:00Z,58.38,15.52,9.0,4.0,350,6,,6.21,30.206694,,,,,,,,,,,CAVOK,,,,,,,,VFR,,,,,,,,,,,,METAR,86.0
ENZV 300350Z 35007KT 9999 SCT026 09/08 Q1028,ENZV,2023-05-30T03:50:00Z,58.88,5.63,9.0,8.0,350,7,,6.21,30.35433,,,,,,,,,,,SCT,2600,,,,,,,VFR,,,,,,,,,,,,METAR,7.0
ENWV 300350Z AUTO 34021KT 5000NDV OVC009/// 09/08 Q1029 W///S4,ENWV,2023-05-30T03:50:00Z,56.28,3.4,9.0,8.0,340,21,,,30.383858,,,TRUE,,,,,,,,OVC,900,,,,,,,,,,,,,,,,,,,METAR,30.0
ENVD 300350Z 27013KT CAVOK 06/01 Q1009,ENVD,2023-05-30T03:50:00Z,70.07,29.85,6.0,1.0,270,13,,6.21,29.793306,,,,,,,,,,,CAVOK,,,,,,,,VFR,,,,,,,,,,,,METAR,39.0
ENVA 300350Z 30008KT 9999 VCSH SCT016 OVC020 08/06 Q1025 RMK WIND 670FT 29013KT,ENVA,2023-05-30T03:50:00Z,63.47,10.92,8.0,6.0,300,8,,6.21,30.265747,,,,,,,,,,VCSH,SCT,1600,OVC,2000,,,,,MVFR,,,,,,,,,,,,METAR,12.0
ENUN 300350Z 24019KT 9999 FEW015 BKN045 06/04 Q1016 W07/S4,ENUN,2023-05-30T03:50:00Z,,,6.0,4.0,240,19,,6.21,30.0,,,,,,,,,,,FEW,1500,BKN,4500,,,,,VFR,,,,,,,,,,,,METAR,
ENUG 300350Z AUTO 28025KT 9999NDV FEW020/// OVC028/// 06/00 Q1006 W///S5,ENUG,2023-05-30T03:50:00Z,71.3,22.25,6.0,0.0,280,25,,,29.704725,,,TRUE,,,,,,,,FEW,2000,OVC,2800,,,,,,,,,,,,,,,,,METAR,30.0
ENTO 300350Z 01006KT CAVOK 09/04 Q1025,ENTO,2023-05-30T03:50:00Z,59.2,10.27,9.0,4.0,10,6,,6.21,30.265747,,,,,,,,,,,CAVOK,,,,,,,,VFR,,,,,,,,,,,,METAR,84.0
ENTC 300350Z 24008KT 9999 -SHRA SCT014 BKN023 03/01 Q1012 RMK WIND 2600FT 24015KT,ENTC,2023-05-30T03:50:00Z,69.68,18.92,3.0,1.0,240,8,,6.21,29.88189,,,,,,,,,,-SHRA,SCT,1400,BKN,2300,,,,,MVFR,,,,,,,,,,,,METAR,9.0
ENST 300350Z 23012KT 9999 SCT025 BKN034 06/03 Q1020 RMK WIND 300FT 24010KT,ENST,2023-05-30T03:50:00Z,65.97,12.47,6.0,3.0,230,12,,6.21,30.11811,,,,,,,,,,,SCT,2500,BKN,3400,,,,,VFR,,,,,,,,,,,,METAR,17.0
ENSS 300350Z AUTO 27013KT 9999 BKN033/// BKN047/// OVC196/// 05/00 Q1008 RMK WIND 0500FT 26023KT,ENSS,2023-05-30T03:50:00Z,70.35,31.05,5.0,0.0,270,13,,6.21,29.763779,,,TRUE,,,,,,,,BKN,3300,BKN,4700,OVC,19600,,,VFR,,,,,,,,,,,,METAR,13.0
ENSL 300350Z AUTO 32018KT 9999NDV OVC009/// 10/08 Q1031 W08/S4,ENSL,2023-05-30T03:50:00Z,58.37,1.9,10.0,8.0,320,18,,,30.442913,,,TRUE,,,,,,,,OVC,900,,,,,,,,,,,,,,,,,,,METAR,50.0
ENSK 300350Z 27010KT 9999 SHRA FEW015 SCT020 BKN027 05/03 Q1014,ENSK,2023-05-30T03:50:00Z,68.57,15.02,5.0,3.0,270,10,,6.21,29.940945,,,,,,,,,,SHRA,FEW,1500,SCT,2000,BKN,2700,,,MVFR,,,,,,,,,,,,METAR,3.0
ENSH 300350Z 23008KT 9999 VCSH FEW013 SCT027 SCT035 06/02 Q1014 RMK WIND 0150FT 19006KT,ENSH,2023-05-30T03:50:00Z,68.25,14.67,6.0,2.0,230,8,,6.21,29.940945,,,,,,,,,,VCSH,FEW,1300,SCT,2700,SCT,3500,,,VFR,,,,,,,,,,,,METAR,9.0
ENSG 300350Z AUTO 22003KT 9999 FEW007/// BKN009/// OVC011/// 06/06 Q1027 RMK WIND 3806FT 29007KT,ENSG,2023-05-30T03:50:00Z,61.15,7.13,6.0,6.0,220,3,,6.21,30.324802,,,TRUE,,,,,,,,FEW,700,BKN,900,OVC,1100,,,IFR,,,,,,,,,,,,METAR,493.0
ENSF 300350Z AUTO 28012KT 9999NDV FEW018/// OVC031/// ///// Q//// W///S4,ENSF,2023-05-30T03:50:00Z,61.25,1.85,,,280,12,,,,,,TRUE,,,,,,,,FEW,1800,OVC,3100,,,,,,,,,,,,,,,,,METAR,15.0
ENSE 300350Z AUTO 29014KT //// BKN015/// BKN031/// 09/08 Q1029 W///S4,ENSE,2023-05-30T03:50:00Z,61.45,2.15,9.0,8.0,290,14,,,30.383858,,,TRUE,,,,,,,,BKN,1500,BKN,3100,,,,,,,,,,,,,,,,,METAR,10.0
ENSD 300350Z VRB02KT 9999 FEW001 SCT011 07/07 Q1028 RMK WIND RWY26 00000KT WIND 1140FT VRB02KT,ENSD,2023-05-30T03:50:00Z,61.82,6.12,7.0,7.0,0,2,,6.21,30.35433,,,,,,,,,,,FEW,100,SCT,1100,,,,,VFR,,,,,,,,,,,,METAR,61.0
ENSB 300350Z 25007KT 9999 FEW017 BKN050 02/M00 Q1000 RMK WIND 1400FT 25002KT,ENSB,2023-05-30T03:50:00Z,78.25,15.47,2.0,0.0,250,7,,6.21,29.52756,,,,,,,,,,,FEW,1700,BKN,5000,,,,,VFR,,,,,,,,,,,,METAR,30.0
ENRY 300350Z AUTO 01004KT 9999 NCD 10/04 Q1026,ENRY,2023-05-30T03:50:00Z,59.37,10.77,10.0,4.0,10,4,,6.21,30.295275,,,TRUE,,,,,,,,CLR,,,,,,,,VFR,,,,,,,,,,,,METAR,45.0
ENRS 300350Z AUTO 25016KT 9999 OVC029/// 06/02 Q1016,ENRS,2023-05-30T03:50:00Z,67.52,12.1,6.0,2.0,250,16,,6.21,30.0,,,TRUE,,,,,,,,OVC,2900,,,,,,,MVFR,,,,,,,,,,,,METAR,4.0
ENRO 300350Z 23007KT 9999 FEW026 SCT030 04/M01 Q1023,ENRO,2023-05-30T03:50:00Z,62.57,11.33,4.0,-1.0,230,7,,6.21,30.206694,,,,,,,,,,,FEW,2600,SCT,3000,,,,,VFR,,,,,,,,,,,,METAR,624.0
ENRM 300350Z 25011KT 9999 FEW020 SCT024 BKN060 07/04 Q1022,ENRM,2023-05-30T03:50:00Z,64.83,11.13,7.0,4.0,250,11,,6.21,30.177166,,,,,,,,,,,FEW,2000,SCT,2400,BKN,6000,,,VFR,,,,,,,,,,,,METAR,4.0
ENRA 300350Z AUTO 31005KT 260V340 9999 OVC018/// 05/03 Q1019,ENRA,2023-05-30T03:50:00Z,66.37,14.3,5.0,3.0,310,5,,6.21,30.088583,,,TRUE,,,,,,,,OVC,1800,,,,,,,MVFR,,,,,,,,,,,,METAR,66.0
ENQR 300350Z AUTO 28010KT 9999NDV BKN015/// BKN031/// 09/08 Q1028 W10/S4,ENQR,2023-05-30T03:50:00Z,61.52,2.22,9.0,8.0,280,10,,,30.35433,,,TRUE,,,,,,,,BKN,1500,BKN,3100,,,,,,,,,,,,,,,,,METAR,10.0
ENQC 300350Z AUTO 31007KT 8000NDV OVC009/// 10/08 Q1029 W///S4,ENQC,2023-05-30T03:50:00Z,60.88,3.62,10.0,8.0,310,7,,,30.383858,,,TRUE,,,,,,,,OVC,900,,,,,,,,,,,,,,,,,,,METAR,20.0
ENQA 300350Z AUTO 34010KT 9000NDV OVC011/// 08/07 Q1029 W12/S4,ENQA,2023-05-30T03:50:00Z,60.65,3.72,8.0,7.0,340,10,,,30.383858,,,TRUE,,,,,,,,OVC,1100,,,,,,,,,,,,,,,,,,,METAR,90.0
ENOV 300350Z 00000KT 9999 FEW003 SCT020 BKN026 08/07 Q1027 RMK WIND RWY24 00000KT WIND 2090FT 21012KT,ENOV,2023-05-30T03:50:00Z,62.17,6.07,8.0,7.0,0,0,,6.21,30.324802,,,,,,,,,,,FEW,300,SCT,2000,BKN,2600,,,MVFR,,,-1.2,,,,,,,,,METAR,72.0
ENOL 300350Z 26012KT 9999 SCT014 BKN020 08/06 Q1025,ENOL,2023-05-30T03:50:00Z,63.7,9.6,8.0,6.0,260,12,,6.21,30.265747,,,,,,,,,,,SCT,1400,BKN,2000,,,,,MVFR,,,,,,,,,,,,METAR,9.0
ENOA 300350Z 32014KT 4000 BR BKN008 08/08 Q1029 W///S4,ENOA,2023-05-30T03:50:00Z,60.5,2.83,8.0,8.0,320,14,,2.49,30.383858,,,,,,,,,,BR,BKN,800,,,,,,,IFR,,,,,,,,,,,,METAR,5.0
ENNM 300350Z AUTO 24010KT 9999 SCT025/// OVC033/// 07/04 Q1023,ENNM,2023-05-30T03:50:00Z,64.47,11.57,7.0,4.0,240,10,,6.21,30.206694,,,TRUE,,,,,,,,SCT,2500,OVC,3300,,,,,VFR,,,,,,,,,,,,METAR,2.0
ENNE 300350Z AUTO 24017KT 9999NDV FEW018/// BKN074/// 07/03 Q1018 W///S4,ENNE,2023-05-30T03:50:00Z,66.03,8.08,7.0,3.0,240,17,,,30.059055,,,TRUE,,,,,,,,FEW,1800,BKN,7400,,,,,,,,,,,,,,,,,METAR,10.0
ENNA 300350Z AUTO 24006KT 190V320 9999 SCT048/// BKN059/// 07/M03 Q1009 RMK WIND 1800FT 28017KT,ENNA,2023-05-30T03:50:00Z,70.07,24.97,7.0,-3.0,240,6,,6.21,29.793306,,,TRUE,,,,,,,,SCT,4800,BKN,5900,,,,,VFR,,,,,,,,,,,,METAR,12.0
ENMS 300350Z VRB02KT 9999 FEW025 BKN030 06/02 Q1020 RMK WIND 412FT 16004G17KT,ENMS,2023-05-30T03:50:00Z,65.78,13.22,6.0,2.0,0,2,,6.21,30.11811,,,,,,,,,,,FEW,2500,BKN,3000,,,,,MVFR,,,,,,,,,,,,METAR,44.0
ENML 300350Z 25006KT 9999 FEW012 SCT024 BKN045 09/08 Q1026,ENML,2023-05-30T03:50:00Z,62.75,7.27,9.0,8.0,250,6,,6.21,30.295275,,,,,,,,,,,FEW,1200,SCT,2400,BKN,4500,,,VFR,,,,,,,,,,,,METAR,3.0
ENMH 300350Z 25016KT 9999 -RA FEW018 BKN024 05/02 Q1006,ENMH,2023-05-30T03:50:00Z,71.02,27.82,5.0,2.0,250,16,,6.21,29.704725,,,,,,,,,,-RA,FEW,1800,BKN,2400,,,,,MVFR,,,,,,,,,,,,METAR,10.0
ENLK 300350Z 25007KT 9999 SHRA FEW015 BKN025 06/03 Q1015,ENLK,2023-05-30T03:50:00Z,68.15,13.62,6.0,3.0,250,7,,6.21,29.970472,,,,,,,,,,SHRA,FEW,1500,BKN,2500,,,,,MVFR,,,,,,,,,,,,METAR,26.0
ENLE 300350Z 33022KT 9999 SCT010 BKN015 10/08 Q1030 W11/S4,ENLE,2023-05-30T03:50:00Z,56.53,3.22,10.0,8.0,330,22,,6.21,30.413385,,,,,,,,,,,SCT,1000,BKN,1500,,,,,MVFR,,,,,,,,,,,,METAR,10.0
ENLA 300350Z AUTO 31016KT 9999NDV BKN015/// 10/09 Q1029 W///S4,ENLA,2023-05-30T03:50:00Z,57.1,2.83,10.0,9.0,310,16,,,30.383858,,,TRUE,,,,,,,,BKN,1500,,,,,,,,,,,,,,,,,,,METAR,10.0
ENKR 300350Z AUTO 27009KT 9999 FEW038/// OVC051/// 05/00 Q1009 RMK WIND 731FT 27015KT,ENKR,2023-05-30T03:50:00Z,69.72,29.88,5.0,0.0,270,9,,6.21,29.793306,,,TRUE,,,,,,,,FEW,3800,OVC,5100,,,,,VFR,,,,,,,,,,,,METAR,86.0
ENKB 300350Z 25013KT 7000 BKN006 07/06 Q1026 RMK WIND 745FT 25017KT,ENKB,2023-05-30T03:50:00Z,63.12,7.82,7.0,6.0,250,13,,4.35,30.295275,,,,,,,,,,,BKN,600,,,,,,,IFR,,,,,,,,,,,,METAR,62.0
ENJS 300350Z 35016KT 9000 BKN006 OVC017 09/08 Q1031 W09/S/,ENJS,2023-05-30T03:50:00Z,,,9.0,8.0,350,16,,5.59,30.442913,,,,,,,,,,,BKN,600,OVC,1700,,,,,IFR,,,,,,,,,,,,METAR,
ENHV 300350Z 25019KT 9999 -RA SCT017 BKN043 05/01 Q1007,ENHV,2023-05-30T03:50:00Z,71.02,25.97,5.0,1.0,250,19,,6.21,29.734253,,,,,,,,,,-RA,SCT,1700,BKN,4300,,,,,VFR,,,,,,,,,,,,METAR,13.0
ENHM 300350Z AUTO 32015KT //// FEW006/// SCT015/// BKN022/// 09/09 Q1030 W10/S/,ENHM,2023-05-30T03:50:00Z,59.57,2.23,9.0,9.0,320,15,,,30.413385,,,TRUE,,,,,,,,FEW,600,SCT,1500,BKN,2200,,,,,,,,,,,,,,,METAR,10.0
ENHK 300350Z AUTO 28015KT 9999 FEW020/// SCT027/// BKN051/// 05/02 Q1009 REDZRA,ENHK,2023-05-30T03:50:00Z,70.48,22.13,5.0,2.0,280,15,,6.21,29.793306,,,TRUE,,,,,,,RA,FEW,2000,SCT,2700,BKN,5100,,,VFR,,,,,,,,,,,,METAR,6.0
ENHF 300350Z 26015G27KT 9999 -SHRA FEW009 SCT012 BKN020 03/01 Q1008 RMK WIND 1254FT 27029KT,ENHF,2023-05-30T03:50:00Z,70.67,23.67,3.0,1.0,260,15,27,6.21,29.763779,,,,,,,,,,-SHRA,FEW,900,SCT,1200,BKN,2000,,,MVFR,,,,,,,,,,,,METAR,79.0
ENHE 300350Z 26021KT 9999 SCT015 BKN085 07/04 Q1020 W///S4,ENHE,2023-05-30T03:50:00Z,65.33,2.33,7.0,4.0,260,21,,6.21,30.11811,,,,,,,,,,,SCT,1500,BKN,8500,,,,,VFR,,,,,,,,,,,,METAR,10.0
ENHD 300350Z AUTO 34007KT 9999 SCT005/// BKN007/// OVC013/// 09/08 Q1029,ENHD,2023-05-30T03:50:00Z,59.35,5.22,9.0,8.0,340,7,,6.21,30.383858,,,TRUE,,,,,,,,SCT,500,BKN,700,OVC,1300,,,IFR,,,,,,,,,,,,METAR,22.0
ENGM 300350Z 00000KT CAVOK 07/01 Q1025 NOSIG,ENGM,2023-05-30T03:50:00Z,60.2,11.07,7.0,1.0,0,0,,6.21,30.265747,,,,,,TRUE,,,,,CAVOK,,,,,,,,VFR,,,,,,,,,,,,METAR,204.0
ENGC 300350Z 31012KT 9999 BKN020 09/07 Q1029 W08/S4,ENGC,2023-05-30T03:50:00Z,61.02,2.02,9.0,7.0,310,12,,6.21,30.383858,,,,,,,,,,,BKN,2000,,,,,,,MVFR,,,,,,,,,,,,METAR,10.0
ENFL 300350Z 27004KT 9999 FEW007 BKN010 07/06 Q1029,ENFL,2023-05-30T03:50:00Z,61.57,5.02,7.0,6.0,270,4,,6.21,30.383858,,,,,,,,,,,FEW,700,BKN,1000,,,,,MVFR,,,,,,,,,,,,METAR,1.0
ENFB 300350Z AUTO 28011KT 9999NDV BKN030/// ///// Q//// W///S4,ENFB,2023-05-30T03:50:00Z,61.2,1.83,,,280,11,,,,,,TRUE,,,,,,,,BKN,3000,,,,,,,,,,,,,,,,,,,METAR,10.0
ENEV 300350Z 25009G19KT 190V290 9999 -RA SCT019 BKN029 05/03 Q1014 RMK WIND 1400FT 24022G33KT,ENEV,2023-05-30T03:50:00Z,68.48,16.67,5.0,3.0,250,9,19,6.21,29.940945,,,,,,,,,,-RA,SCT,1900,BKN,2900,,,,,MVFR,,,,,,,,,,,,METAR,26.0
ENDU 300350Z 21005KT 170V260 9999 VCSH FEW015 BKN035 06/01 Q1012 RMK WIND 1100FT 22015KT WIND 2200FT 25013KT,ENDU,2023-05-30T03:50:00Z,69.05,18.55,6.0,1.0,210,5,,6.21,29.88189,,,,,,,,,,VCSH,FEW,1500,BKN,3500,,,,,VFR,,,,,,,,,,,,METAR,65.0
ENDR 300350Z AUTO 25023KT 9999NDV BKN015/// 07/04 Q1023 W///S4,ENDR,2023-05-30T03:50:00Z,64.35,7.77,7.0,4.0,250,23,,,30.206694,,,TRUE,,,,,,,,BKN,1500,,,,,,,,,,,,,,,,,,,METAR,10.0
ENCN 300350Z VRB03KT CAVOK 07/04 Q1025,ENCN,2023-05-30T03:50:00Z,58.2,8.07,7.0,4.0,0,3,,6.21,30.265747,,,,,,,,,,,CAVOK,,,,,,,,VFR,,,,,,,,,,,,METAR,17.0
ENBV 300350Z AUTO 26023KT 9999 FEW027/// OVC072/// 06/01 Q1006,ENBV,2023-05-30T03:50:00Z,70.87,29.02,6.0,1.0,260,23,,6.21,29.704725,,,TRUE,,,,,,,,FEW,2700,OVC,7200,,,,,VFR,,,,,,,,,,,,METAR,13.0
ENBS 300350Z AUTO 22017KT 9999 SCT032/// BKN086/// OVC100/// 04/M00 Q1007,ENBS,2023-05-30T03:50:00Z,70.62,29.68,4.0,0.0,220,17,,6.21,29.734253,,,TRUE,,,,,,,,SCT,3200,BKN,8600,OVC,10000,,,VFR,,,,,,,,,,,,METAR,144.0
ENBR 300350Z 32004KT 9999 BKN005 08/08 Q1029 RMK WIND 1200FT 33005KT,ENBR,2023-05-30T03:50:00Z,60.28,5.22,8.0,8.0,320,4,,6.21,30.383858,,,,,,,,,,,BKN,500,,,,,,,IFR,,,,,,,,,,,,METAR,49.0
ENBO 300350Z 25017KT 9999 FEW012 SCT016 BKN031 06/05 Q1017,ENBO,2023-05-30T03:50:00Z,67.27,14.37,6.0,5.0,250,17,,6.21,30.029528,,,,,,,,,,,FEW,1200,SCT,1600,BKN,3100,,,VFR,,,,,,,,,,,,METAR,13.0
ENBN 300350Z AUTO 23008KT 9999NDV OVC033/// 07/03 Q1021,ENBN,2023-05-30T03:50:00Z,65.47,12.22,7.0,3.0,230,8,,,30.147638,,,TRUE,,,,,,,,OVC,3300,,,,,,,,,,,,,,,,,,,METAR,3.0
ENBL 300350Z VRB02KT 1500 -DZ BR SCT001 BKN003 06/06 Q1027,ENBL,2023-05-30T03:50:00Z,61.4,5.77,6.0,6.0,0,2,,0.93,30.324802,,,,,,,,,,-DZ BR,SCT,100,BKN,300,,,,,LIFR,,,,,,,,,,,,METAR,313.0
ENAT 300350Z 26007KT 220V300 9999 SCT022 BKN043 07/M00 Q1010 RMK WIND 700FT 24010KT,ENAT,2023-05-30T03:50:00Z,69.97,23.37,7.0,0.0,260,7,,6.21,29.822834,,,,,,,,,,,SCT,2200,BKN,4300,,,,,VFR,,,,,,,,,,,,METAR,3.0
ENAN 300350Z 23011KT 9999 SCT024 BKN036 06/03 Q1012,ENAN,2023-05-30T03:50:00Z,69.3,16.13,6.0,3.0,230,11,,6.21,29.88189,,,,,,,,,,,SCT,2400,BKN,3600,,,,,VFR,,,,,,,,,,,,METAR,13.0
ENAL 300350Z AUTO 25014KT 9999 FEW007/// OVC011/// 08/07 Q1027,ENAL,2023-05-30T03:50:00Z,62.57,6.12,8.0,7.0,250,14,,6.21,30.324802,,,TRUE,,,,,,,,FEW,700,OVC,1100,,,,,MVFR,,,,,,,,,,,,METAR,21.0
ELLX 300350Z 04012KT CAVOK 11/04 Q1022 NOSIG,ELLX,2023-05-30T03:50:00Z,49.63,6.2,11.0,4.0,40,12,,6.21,30.177166,,,,,,TRUE,,,,,CAVOK,,,,,,,,VFR,,,,,,,,,,,,METAR,374.0
EKVG 300350Z AUTO 25015KT 9999 OVC003/// 09/08 Q1028 RMK OVC003/// WIND SKEID 26028G39KT,EKVG,2023-05-30T03:50:00Z,62.07,-7.27,9.0,8.0,250,15,,6.21,30.35433,,,TRUE,,,,,,,,OVC,300,,,,,,,LIFR,,,,,,,,,,,,METAR,89.0
EKVD 300350Z AUTO 31007KT //// ///////// 10/07 Q1025,EKVD,2023-05-30T03:50:00Z,55.43,9.32,10.0,7.0,310,7,,,30.265747,,,TRUE,,,,,,,,,,,,,,,,,,,,,,,,,,,,METAR,41.0
EKSP 300350Z 32007KT 9999 BKN015 10/07 Q1025,EKSP,2023-05-30T03:50:00Z,55.22,9.27,10.0,7.0,320,7,,6.21,30.265747,,,,,,,,,,,BKN,1500,,,,,,,MVFR,,,,,,,,,,,,METAR,40.0
EKSB 300350Z AUTO 32009KT 300V360 9999 OVC016/// 11/08 Q1025,EKSB,2023-05-30T03:50:00Z,54.97,9.8,11.0,8.0,320,9,,6.21,30.265747,,,TRUE,,,,,,,,OVC,1600,,,,,,,MVFR,,,,,,,,,,,,METAR,23.0
EKRS 300350Z AUTO VRB00KT 9999 SCT013/// 07/07 Q1024,EKRS,2023-05-30T03:50:00Z,55.42,11.8,7.0,7.0,0,0,,6.21,30.236221,,,TRUE,,,,,,,,SCT,1300,,,,,,,VFR,,,,,,,,,,,,METAR,34.0
EKRN 300350Z AUTO 34007KT 9999 NCD 10/06 Q1022,EKRN,2023-05-30T03:50:00Z,55.07,14.75,10.0,6.0,340,7,,6.21,30.177166,,,TRUE,,,,,,,,CLR,,,,,,,,VFR,,,,,,,,,,,,METAR,14.0
EKRK 300350Z AUTO 27002KT 9999 OVC011/// 09/08 Q1024,EKRK,2023-05-30T03:50:00Z,55.58,12.13,9.0,8.0,270,2,,6.21,30.236221,,,TRUE,,,,,,,,OVC,1100,,,,,,,MVFR,,,,,,,,,,,,METAR,40.0
EKKA 300350Z AUTO 31003KT 9999 BKN010/// 10/08 Q1025,EKKA,2023-05-30T03:50:00Z,56.3,9.12,10.0,8.0,310,3,,6.21,30.265747,,,TRUE,,,,,,,,BKN,1000,,,,,,,MVFR,,,,,,,,,,,,METAR,50.0
EKEB 300350Z AUTO 33008KT 9999 OVC010/// 10/08 Q1025,EKEB,2023-05-30T03:50:00Z,55.52,8.55,10.0,8.0,330,8,,6.21,30.265747,,,TRUE,,,,,,,,OVC,1000,,,,,,,MVFR,,,,,,,,,,,,METAR,29.0
EKCH 300350Z AUTO 32005KT 9999 NCD 10/08 Q1024 NOSIG,EKCH,2023-05-30T03:50:00Z,55.62,12.67,10.0,8.0,320,5,,6.21,30.236221,,,TRUE,,,TRUE,,,,,CLR,,,,,,,,VFR,,,,,,,,,,,,METAR,4.0
EKBI 300350Z AUTO 30007KT 9999 OVC014/// 10/07 Q1025,EKBI,2023-05-30T03:50:00Z,55.73,9.15,10.0,7.0,300,7,,6.21,30.265747,,,TRUE,,,,,,,,OVC,1400,,,,,,,MVFR,,,,,,,,,,,,METAR,67.0
EKAH 300350Z AUTO 28006KT 9999 NCD 09/08 Q1024,EKAH,2023-05-30T03:50:00Z,56.28,10.62,9.0,8.0,280,6,,6.21,30.236221,,,TRUE,,,,,,,,CLR,,,,,,,,VFR,,,,,,,,,,,,METAR,25.0
EGYP 300350Z 30018KT CAVOK 08/03 Q1003,EGYP,2023-05-30T03:50:00Z,-51.82,-58.45,8.0,3.0,300,18,,6.21,29.616142,,,,,,,,,,,CAVOK,,,,,,,,VFR,,,,,,,,,,,,METAR,70.0
EGYM 300350Z 04009KT 9999 BKN023 11/06 Q1030,EGYM,2023-05-30T03:50:00Z,52.63,0.57,11.0,6.0,40,9,,6.21,30.413385,,,,,,,,,,,BKN,2300,,,,,,,MVFR,,,,,,,,,,,,METAR,25.0
EGYH 300350Z AUTO 06015KT 9999 OVC022/// 11/06 Q1031,EGYH,2023-05-30T03:50:00Z,52.87,0.15,11.0,6.0,60,15,,6.21,30.442913,,,TRUE,,,,,,,,OVC,2200,,,,,,,MVFR,,,,,,,,,,,,METAR,5.0
EGYE 300350Z AUTO 04008KT //// ///////// ///// Q////,EGYE,2023-05-30T03:50:00Z,52.97,-0.57,,,40,8,,,,,,TRUE,,,,,,,,,,,,,,,,,,,,,,,,,,,,METAR,105.0
EGYD 300350Z AUTO 03007KT 9999 OVC021/// 10/07 Q1031,EGYD,2023-05-30T03:50:00Z,53.03,-0.5,10.0,7.0,30,7,,6.21,30.442913,,,TRUE,,,,,,,,OVC,2100,,,,,,,MVFR,,,,,,,,,,,,METAR,65.0
EGXZ 300350Z AUTO 27002KT 9999 OVC019/// 06/05 Q1033,EGXZ,2023-05-30T03:50:00Z,54.2,-1.38,6.0,5.0,270,2,,6.21,30.501968,,,TRUE,,,,,,,,OVC,1900,,,,,,,MVFR,,,,,,,,,,,,METAR,24.0
EGXW 300350Z AUTO 03006KT 9999 OVC020/// 09/07 Q1032,EGXW,2023-05-30T03:50:00Z,53.18,-0.52,9.0,7.0,30,6,,6.21,30.47244,,,TRUE,,,,,,,,OVC,2000,,,,,,,MVFR,,,,,,,,,,,,METAR,70.0
EGXV 300350Z AUTO 33003KT 9999 OVC024/// 09/07 Q1032,EGXV,2023-05-30T03:50:00Z,53.87,-0.45,9.0,7.0,330,3,,6.21,30.47244,,,TRUE,,,,,,,,OVC,2400,,,,,,,MVFR,,,,,,,,,,,,METAR,6.0
EGXT 300350Z AUTO 02007KT 9999 OVC022/// 09/06 Q1030,EGXT,2023-05-30T03:50:00Z,52.62,-0.47,9.0,6.0,20,7,,6.21,30.413385,,,TRUE,,,,,,,,OVC,2200,,,,,,,MVFR,,,,,,,,,,,,METAR,74.0
EGXS 300350Z AUTO 02012KT 9999 OVC021/// 12/07 Q1031,EGXS,2023-05-30T03:50:00Z,53.48,0.15,12.0,7.0,20,12,,6.21,30.442913,,,TRUE,,,,,,,,OVC,2100,,,,,,,MVFR,,,,,,,,,,,,METAR,6.0
EGXE 300350Z AUTO 31003KT 9999 OVC019/// 06/05 Q1033,EGXE,2023-05-30T03:50:00Z,54.28,-1.52,6.0,5.0,310,3,,6.21,30.501968,,,TRUE,,,,,,,,OVC,1900,,,,,,,MVFR,,,,,,,,,,,,METAR,30.0
EGXC 300350Z 02005KT 9999 OVC023 10/07 Q1031 RMK WHT,EGXC,2023-05-30T03:50:00Z,53.1,-0.17,10.0,7.0,20,5,,6.21,30.442913,,,,,,,,,,,OVC,2300,,,,,,,MVFR,,,,,,,,,,,,METAR,9.0
EGWU 300350Z AUTO 06010KT 9999 OVC020/// 10/06 Q1029,EGWU,2023-05-30T03:50:00Z,51.55,-0.42,10.0,6.0,60,10,,6.21,30.383858,,,TRUE,,,,,,,,OVC,2000,,,,,,,MVFR,,,,,,,,,,,,METAR,33.0
EGWC 300350Z AUTO 34004KT //// ///////// ///// Q////,EGWC,2023-05-30T03:50:00Z,52.63,-2.3,,,340,4,,,,,,TRUE,,,,,,,,,,,,,,,,,,,,,,,,,,,,METAR,79.0
EGVP 300350Z AUTO 05009KT 9999 NCD 08/06 Q1028,EGVP,2023-05-30T03:50:00Z,51.13,-1.57,8.0,6.0,50,9,,6.21,30.35433,,,TRUE,,,,,,,,CLR,,,,,,,,VFR,,,,,,,,,,,,METAR,80.0
EGVO 300350Z AUTO 02006KT 9999 OVC017/// 08/06 Q1029,EGVO,2023-05-30T03:50:00Z,51.23,-0.95,8.0,6.0,20,6,,6.21,30.383858,,,TRUE,,,,,,,,OVC,1700,,,,,,,MVFR,,,,,,,,,,,,METAR,118.0
EGVN 300350Z 04007KT 9999 BKN018 08/06 Q1030 NOSIG RMK WHT WHT,EGVN,2023-05-30T03:50:00Z,51.77,-1.58,8.0,6.0,40,7,,6.21,30.413385,,,,,,TRUE,,,,,BKN,1800,,,,,,,MVFR,,,,,,,,,,,,METAR,83.0
EGUW 300350Z AUTO 04013KT 9999 OVC019/// 10/06 Q1029,EGUW,2023-05-30T03:50:00Z,52.12,0.97,10.0,6.0,40,13,,6.21,30.383858,,,TRUE,,,,,,,,OVC,1900,,,,,,,MVFR,,,,,,,,,,,,METAR,86.0
EGUB 300350Z AUTO 36004KT 9999 OVC018/// 06/05 Q1029,EGUB,2023-05-30T03:50:00Z,51.62,-1.08,6.0,5.0,360,4,,6.21,30.383858,,,TRUE,,,,,,,,OVC,1800,,,,,,,MVFR,,,,,,,,,,,,METAR,56.0
EGSY 300350Z AUTO 07009KT 9999 NCD 08/06 Q1029,EGSY,2023-05-30T03:50:00Z,51.4,-3.43,8.0,6.0,70,9,,6.21,30.383858,,,TRUE,,,,,,,,CLR,,,,,,,,VFR,,,,,,,,,,,,METAR,46.0
EGSS 300350Z AUTO 04010KT 9999 OVC018 09/06 Q1030,EGSS,2023-05-30T03:50:00Z,51.88,0.22,9.0,6.0,40,10,,6.21,30.413385,,,TRUE,,,,,,,,OVC,1800,,,,,,,MVFR,,,,,,,,,,,,METAR,101.0
EGSH 300350Z AUTO 03007KT 9999 OVC021/// 11/07 Q1031,EGSH,2023-05-30T03:50:00Z,52.68,1.28,11.0,7.0,30,7,,6.21,30.442913,,,TRUE,,,,,,,,OVC,2100,,,,,,,MVFR,,,,,,,,,,,,METAR,21.0
EGQS 300350Z 13004KT 9999 FEW010 SCT014 07/06 Q1033 RMK GRN,EGQS,2023-05-30T03:50:00Z,57.72,-3.32,7.0,6.0,130,4,,6.21,30.501968,,,,,,,,,,,FEW,1000,SCT,1400,,,,,VFR,,,,,,,,,,,,METAR,6.0
EGQM 300350Z AUTO 32004KT 9999 OVC016/// 09/08 Q1033,EGQM,2023-05-30T03:50:00Z,55.42,-1.6,9.0,8.0,320,4,,6.21,30.501968,,,TRUE,,,,,,,,OVC,1600,,,,,,,MVFR,,,,,,,,,,,,METAR,24.0
EGQL 300350Z 27004KT 9999 SKC 05/05 Q1034 RMK BLU,EGQL,2023-05-30T03:50:00Z,56.38,-2.87,5.0,5.0,270,4,,6.21,30.531496,,,,,,,,,,,SKC,,,,,,,,VFR,,,,,,,,,,,,METAR,11.0
EGQK 300350Z AUTO 12003KT 9999 NCD 05/05 Q1033,EGQK,2023-05-30T03:50:00Z,57.65,-3.57,5.0,5.0,120,3,,6.21,30.501968,,,TRUE,,,,,,,,CLR,,,,,,,,VFR,,,,,,,,,,,,METAR,5.0
EGQA 300350Z AUTO 28002KT 9999 OVC010/// 04/04 Q1033,EGQA,2023-05-30T03:50:00Z,57.83,-3.95,4.0,4.0,280,2,,6.21,30.501968,,,TRUE,,,,,,,,OVC,1000,,,,,,,MVFR,,,,,,,,,,,,METAR,4.0
EGPO 300350Z AUTO 00000KT 9999 OVC013/// 10/08 Q1033,EGPO,2023-05-30T03:50:00Z,58.22,-6.32,10.0,8.0,0,0,,6.21,30.501968,,,TRUE,,,,,,,,OVC,1300,,,,,,,MVFR,,,,,,,,,,,,METAR,10.0
EGPL 300350Z AUTO 07006KT 9999 OVC006/// 09/07 Q1033,EGPL,2023-05-30T03:50:00Z,57.47,-7.37,9.0,7.0,70,6,,6.21,30.501968,,,TRUE,,,,,,,,OVC,600,,,,,,,IFR,,,,,,,,,,,,METAR,3.0
EGPK 300350Z 03004KT CAVOK 06/05 Q1033,EGPK,2023-05-30T03:50:00Z,55.5,-4.58,6.0,5.0,30,4,,6.21,30.501968,,,,,,,,,,,CAVOK,,,,,,,,VFR,,,,,,,,,,,,METAR,14.0
EGPI 300350Z AUTO 00000KT 9999 NCD 03/02 Q1032,EGPI,2023-05-30T03:50:00Z,55.68,-6.25,3.0,2.0,0,0,,6.21,30.47244,,,TRUE,,,,,,,,CLR,,,,,,,,VFR,,,,,,,,,,,,METAR,17.0
EGPH 300350Z 10001KT CAVOK 06/05 Q1033,EGPH,2023-05-30T03:50:00Z,55.95,-3.35,6.0,5.0,100,1,,6.21,30.501968,,,,,,,,,,,CAVOK,,,,,,,,VFR,,,,,,,,,,,,METAR,29.0
EGPF 300350Z AUTO VRB01KT 9999 NCD 07/06 Q1033,EGPF,2023-05-30T03:50:00Z,55.87,-4.42,7.0,6.0,0,1,,6.21,30.501968,,,TRUE,,,,,,,,CLR,,,,,,,,VFR,,,,,,,,,,,,METAR,8.0
EGPE 300350Z 00000KT 9999 MIFG FEW030 03/02 Q1033,EGPE,2023-05-30T03:50:00Z,57.53,-4.05,3.0,2.0,0,0,,6.21,30.501968,,,,,,,,,,MIFG,FEW,3000,,,,,,,VFR,,,,,,,,,,,,METAR,7.0
EGPD 300350Z AUTO VRB02KT 9999 OVC010 09/07 Q1034,EGPD,2023-05-30T03:50:00Z,57.2,-2.22,9.0,7.0,0,2,,6.21,30.531496,,,TRUE,,,,,,,,OVC,1000,,,,,,,MVFR,,,,,,,,,,,,METAR,65.0
EGPC 300350Z AUTO 28005KT 9999 OVC012/// 10/08 Q1033,EGPC,2023-05-30T03:50:00Z,58.45,-3.08,10.0,8.0,280,5,,6.21,30.501968,,,TRUE,,,,,,,,OVC,1200,,,,,,,MVFR,,,,,,,,,,,,METAR,38.0
EGPB 300350Z AUTO 29010KT 9999 OVC012/// 10/07 Q1031,EGPB,2023-05-30T03:50:00Z,59.87,-1.3,10.0,7.0,290,10,,6.21,30.442913,,,TRUE,,,,,,,,OVC,1200,,,,,,,MVFR,,,,,,,,,,,,METAR,2.0
EGPA 300350Z AUTO 27005KT 4800 HZ BKN003/// BKN009/// OVC014/// 09/08 Q1033,EGPA,2023-05-30T03:50:00Z,58.95,-2.9,9.0,8.0,270,5,,2.98,30.501968,,,TRUE,,,,,,,HZ,BKN,300,BKN,900,OVC,1400,,,LIFR,,,,,,,,,,,,METAR,15.0
EGOV 300350Z AUTO 02007KT 9999 NCD 11/07 Q1031,EGOV,2023-05-30T03:50:00Z,53.25,-4.53,11.0,7.0,20,7,,6.21,30.442913,,,TRUE,,,,,,,,CLR,,,,,,,,VFR,,,,,,,,,,,,METAR,11.0
EGOS 300350Z AUTO 04002KT 9999 OVC015/// 06/05 Q1032,EGOS,2023-05-30T03:50:00Z,52.8,-2.67,6.0,5.0,40,2,,6.21,30.47244,,,TRUE,,,,,,,,OVC,1500,,,,,,,MVFR,,,,,,,,,,,,METAR,76.0
EGOP 300350Z AUTO 08009KT 9999 NCD 09/05 Q1029,EGOP,2023-05-30T03:50:00Z,51.72,-4.37,9.0,5.0,80,9,,6.21,30.383858,,,TRUE,,,,,,,,CLR,,,,,,,,VFR,,,,,,,,,,,,METAR,8.0
EGOM 300350Z AUTO 05005KT 9999 NCD 06/04 Q1032,EGOM,2023-05-30T03:50:00Z,55.05,-2.55,6.0,4.0,50,5,,6.21,30.47244,,,TRUE,,,,,,,,CLR,,,,,,,,VFR,,,,,,,,,,,,METAR,286.0
EGNX 300350Z 05007KT 9999 BKN021 09/06 Q1032,EGNX,2023-05-30T03:50:00Z,52.82,-1.32,9.0,6.0,50,7,,6.21,30.47244,,,,,,,,,,,BKN,2100,,,,,,,MVFR,,,,,,,,,,,,METAR,91.0
EGNT 300350Z VRB01KT CAVOK 05/05 Q1033,EGNT,2023-05-30T03:50:00Z,55.03,-1.7,5.0,5.0,0,1,,6.21,30.501968,,,,,,,,,,,CAVOK,,,,,,,,VFR,,,,,,,,,,,,METAR,77.0
EGNS 300350Z 03006KT CAVOK 11/09 Q1032,EGNS,2023-05-30T03:50:00Z,54.08,-4.63,11.0,9.0,30,6,,6.21,30.47244,,,,,,,,,,,CAVOK,,,,,,,,VFR,,,,,,,,,,,,METAR,18.0
EGNM 300350Z 02003KT 9999 SCT020 06/05 Q1032,EGNM,2023-05-30T03:50:00Z,53.87,-1.65,6.0,5.0,20,3,,6.21,30.47244,,,,,,,,,,,SCT,2000,,,,,,,VFR,,,,,,,,,,,,METAR,221.0
EGNJ 300350Z AUTO 02003KT 9999 BKN023/// 11/09 Q1032,EGNJ,2023-05-30T03:50:00Z,53.57,-0.35,11.0,9.0,20,3,,6.21,30.47244,,,TRUE,,,,,,,,BKN,2300,,,,,,,MVFR,,,,,,,,,,,,METAR,23.0
EGMD 300350Z AUTO 05017KT 9999 OVC020/// 11/08 Q1028,EGMD,2023-05-30T03:50:00Z,50.95,0.93,11.0,8.0,50,17,,6.21,30.35433,,,TRUE,,,,,,,,OVC,2000,,,,,,,MVFR,,,,,,,,,,,,METAR,4.0
EGLL 300350Z AUTO 05009KT 9999 BKN021 10/06 Q1029,EGLL,2023-05-30T03:50:00Z,51.48,-0.45,10.0,6.0,50,9,,6.21,30.383858,,,TRUE,,,,,,,,BKN,2100,,,,,,,MVFR,,,,,,,,,,,,METAR,26.0
EGLF 300350Z AUTO 05009KT 020V080 9999 OVC019/// 09/06 Q1029,EGLF,2023-05-30T03:50:00Z,51.28,-0.77,9.0,6.0,50,9,,6.21,30.383858,,,TRUE,,,,,,,,OVC,1900,,,,,,,MVFR,,,,,,,,,,,,METAR,65.0
EGLC 300350Z AUTO 05005KT 330V100 9999 OVC023 10/06 Q1030,EGLC,2023-05-30T03:50:00Z,51.5,0.05,10.0,6.0,50,5,,6.21,30.413385,,,TRUE,,,,,,,,OVC,2300,,,,,,,MVFR,,,,,,,,,,,,METAR,10.0
EGKK 300350Z 03006KT 9999 SCT020 09/06 Q1028,EGKK,2023-05-30T03:50:00Z,51.13,-0.18,9.0,6.0,30,6,,6.21,30.35433,,,,,,,,,,,SCT,2000,,,,,,,VFR,,,,,,,,,,,,METAR,58.0
EGJJ 300350Z AUTO 07015G25KT 030V100 9999 BKN011/// 11/10 Q1024,EGJJ,2023-05-30T03:50:00Z,49.22,-2.2,11.0,10.0,70,15,25,6.21,30.236221,,,TRUE,,,,,,,,BKN,1100,,,,,,,MVFR,,,,,,,,,,,,METAR,84.0
EGJB 300350Z 06014KT 9999 FEW011 BKN013 11/09 Q1025,EGJB,2023-05-30T03:50:00Z,49.42,-2.6,11.0,9.0,60,14,,6.21,30.265747,,,,,,,,,,,FEW,1100,BKN,1300,,,,,MVFR,,,,,,,,,,,,METAR,102.0
EGHQ 300350Z AUTO /////KT 9999 NCD 09/05 Q1027,EGHQ,2023-05-30T03:50:00Z,50.43,-5.0,9.0,5.0,,,,6.21,30.324802,,,TRUE,,,,,,,,CLR,,,,,,,,VFR,,,,,,,,,,,,METAR,101.0
EGGW 300350Z AUTO 03006KT 9999 OVC016 08/06 Q1030,EGGW,2023-05-30T03:50:00Z,51.87,-0.37,8.0,6.0,30,6,,6.21,30.413385,,,TRUE,,,,,,,,OVC,1600,,,,,,,MVFR,,,,,,,,,,,,METAR,159.0
EGGP 300350Z AUTO 10003KT 9999 NCD 07/05 Q1032,EGGP,2023-05-30T03:50:00Z,53.33,-2.85,7.0,5.0,100,3,,6.21,30.47244,,,TRUE,,,,,,,,CLR,,,,,,,,VFR,,,,,,,,,,,,METAR,23.0
EGGD 300350Z AUTO 07012KT 9999 NCD 07/05 Q1029,EGGD,2023-05-30T03:50:00Z,51.37,-2.72,7.0,5.0,70,12,,6.21,30.383858,,,TRUE,,,,,,,,CLR,,,,,,,,VFR,,,,,,,,,,,,METAR,182.0
EGFF 300350Z AUTO 06011KT 9999 NCD 09/06 Q1029,EGFF,2023-05-30T03:50:00Z,51.38,-3.35,9.0,6.0,60,11,,6.21,30.383858,,,TRUE,,,,,,,,CLR,,,,,,,,VFR,,,,,,,,,,,,METAR,65.0
EGDY 300350Z 03008KT 9999 FEW014 07/05 Q1029 BLU,EGDY,2023-05-30T03:50:00Z,51.0,-2.63,7.0,5.0,30,8,,6.21,30.383858,,,,,,,,,,,FEW,1400,,,,,,,VFR,,,,,,,,,,,,METAR,21.0
EGDR 300350Z AUTO 06010KT 9999 NCD 11/07 Q1026,EGDR,2023-05-30T03:50:00Z,50.08,-5.25,11.0,7.0,60,10,,6.21,30.295275,,,TRUE,,,,,,,,CLR,,,,,,,,VFR,,,,,,,,,,,,METAR,74.0
EGDM 300350Z AUTO 04007KT 9999 NCD 08/05 Q1029,EGDM,2023-05-30T03:50:00Z,51.17,-1.75,8.0,5.0,40,7,,6.21,30.383858,,,TRUE,,,,,,,,CLR,,,,,,,,VFR,,,,,,,,,,,,METAR,122.0
EGCK 300350Z AUTO VRB01KT 9999 NCD 06/05 Q1031,EGCK,2023-05-30T03:50:00Z,53.1,-4.33,6.0,5.0,0,1,,6.21,30.442913,,,TRUE,,,,,,,,CLR,,,,,,,,VFR,,,,,,,,,,,,METAR,6.0
EGCC 300350Z AUTO 06005KT 9999 NCD 05/03 Q1032,EGCC,2023-05-30T03:50:00Z,53.35,-2.27,5.0,3.0,60,5,,6.21,30.47244,,,TRUE,,,,,,,,CLR,,,,,,,,VFR,,,,,,,,,,,,METAR,78.0
EGBB 300350Z 01006KT 9999 BKN020 08/06 Q1031,EGBB,2023-05-30T03:50:00Z,52.47,-1.75,8.0,6.0,10,6,,6.21,30.442913,,,,,,,,,,,BKN,2000,,,,,,,MVFR,,,,,,,,,,,,METAR,91.0
EGAC 300350Z AUTO VRB01KT 9999 NCD 08/06 Q1032,EGAC,2023-05-30T03:50:00Z,54.62,-5.87,8.0,6.0,0,1,,6.21,30.47244,,,TRUE,,,,,,,,CLR,,,,,,,,VFR,,,,,,,,,,,,METAR,2.0
EGAA 300350Z 08003KT 9999 MIFG NSC 02/02 Q1032,EGAA,2023-05-30T03:50:00Z,54.65,-6.22,2.0,2.0,80,3,,6.21,30.47244,,,,,,,,,,MIFG,CLR,,,,,,,,VFR,,,,,,,,,,,,METAR,65.0
EFVA 300350Z AUTO 33008KT 9999 SCT011 07/05 Q1017,EFVA,2023-05-30T03:50:00Z,63.05,21.77,7.0,5.0,330,8,,6.21,30.029528,,,TRUE,,,,,,,,SCT,1100,,,,,,,VFR,,,,,,,,,,,,METAR,4.0
EFUT 300350Z 32006KT 290V350 CAVOK 08/M00 Q1016,EFUT,2023-05-30T03:50:00Z,60.88,26.93,8.0,0.0,320,6,,6.21,30.0,,,,,,,,,,,CAVOK,,,,,,,,VFR,,,,,,,,,,,,METAR,104.0
EFTU 300350Z AUTO 33006KT 280V020 CAVOK 08/05 Q1018,EFTU,2023-05-30T03:50:00Z,60.52,22.27,8.0,5.0,330,6,,6.21,30.059055,,,TRUE,,,,,,,,CAVOK,,,,,,,,VFR,,,,,,,,,,,,METAR,47.0
EFTP 300350Z AUTO 26004KT 240V300 CAVOK 07/04 Q1016,EFTP,2023-05-30T03:50:00Z,61.42,23.62,7.0,4.0,260,4,,6.21,30.0,,,TRUE,,,,,,,,CAVOK,,,,,,,,VFR,,,,,,,,,,,,METAR,111.0
EFSI 300350Z AUTO 29005KT 260V330 CAVOK 06/04 Q1016,EFSI,2023-05-30T03:50:00Z,62.7,22.83,6.0,4.0,290,5,,6.21,30.0,,,TRUE,,,,,,,,CAVOK,,,,,,,,VFR,,,,,,,,,,,,METAR,90.0
EFSA 300350Z 36005KT 330V030 9999 VCSH NSC 09/04 Q1015,EFSA,2023-05-30T03:50:00Z,61.95,28.93,9.0,4.0,360,5,,6.21,29.970472,,,,,,,,,,VCSH,CLR,,,,,,,,VFR,,,,,,,,,,,,METAR,90.0
EFRO 300350Z AUTO 34009KT 300V010 CAVOK 06/M03 Q1013,EFRO,2023-05-30T03:50:00Z,66.57,25.82,6.0,-3.0,340,9,,6.21,29.911417,,,TRUE,,,,,,,,CAVOK,,,,,,,,VFR,,,,,,,,,,,,METAR,201.0
EFPO 300350Z AUTO 33010KT 300V360 9999 FEW021 08/05 Q1018,EFPO,2023-05-30T03:50:00Z,61.47,21.8,8.0,5.0,330,10,,6.21,30.059055,,,TRUE,,,,,,,,FEW,2100,,,,,,,VFR,,,,,,,,,,,,METAR,10.0
EFOU 300350Z AUTO 26006KT 220V290 9999 SCT007 07/05 Q1015,EFOU,2023-05-30T03:50:00Z,64.92,25.37,7.0,5.0,260,6,,6.21,29.970472,,,TRUE,,,,,,,,SCT,700,,,,,,,VFR,,,,,,,,,,,,METAR,15.0
EFMI 300350Z AUTO 28008KT CAVOK 07/01 Q1016,EFMI,2023-05-30T03:50:00Z,61.68,27.2,7.0,1.0,280,8,,6.21,30.0,,,TRUE,,,,,,,,CAVOK,,,,,,,,VFR,,,,,,,,,,,,METAR,99.0
EFMA 300350Z 34011KT CAVOK 09/03 Q1020,EFMA,2023-05-30T03:50:00Z,60.12,19.9,9.0,3.0,340,11,,6.21,30.11811,,,,,,,,,,,CAVOK,,,,,,,,VFR,,,,,,,,,,,,METAR,6.0
EFLP 300350Z AUTO 30006KT 260V340 CAVOK 08/01 Q1016,EFLP,2023-05-30T03:50:00Z,61.03,28.15,8.0,1.0,300,6,,6.21,30.0,,,TRUE,,,,,,,,CAVOK,,,,,,,,VFR,,,,,,,,,,,,METAR,102.0
EFKU 300350Z AUTO 28006KT CAVOK 07/02 Q1015,EFKU,2023-05-30T03:50:00Z,63.02,27.8,7.0,2.0,280,6,,6.21,29.970472,,,TRUE,,,,,,,,CAVOK,,,,,,,,VFR,,,,,,,,,,,,METAR,92.0
EFKT 300350Z AUTO 29006KT 240V330 CAVOK 05/M02 Q1012,EFKT,2023-05-30T03:50:00Z,67.7,24.85,5.0,-2.0,290,6,,6.21,29.88189,,,TRUE,,,,,,,,CAVOK,,,,,,,,VFR,,,,,,,,,,,,METAR,190.0
EFKS 300350Z AUTO 28005KT 250V320 CAVOK 06/02 Q1012,EFKS,2023-05-30T03:50:00Z,66.0,29.23,6.0,2.0,280,5,,6.21,29.88189,,,TRUE,,,,,,,,CAVOK,,,,,,,,VFR,,,,,,,,,,,,METAR,270.0
EFKK 300350Z AUTO VRB01KT 9999 FEW002 OVC032 06/06 Q1016,EFKK,2023-05-30T03:50:00Z,63.72,23.13,6.0,6.0,0,1,,6.21,30.0,,,TRUE,,,,,,,,FEW,200,OVC,3200,,,,,VFR,,,,,,,,,,,,METAR,25.0
EFKI 300350Z AUTO 29007KT CAVOK 06/04 Q1015,EFKI,2023-05-30T03:50:00Z,64.27,27.67,6.0,4.0,290,7,,6.21,29.970472,,,TRUE,,,,,,,,CAVOK,,,,,,,,VFR,,,,,,,,,,,,METAR,132.0
EFKE 300350Z AUTO 01009KT CAVOK 07/M00 Q1014,EFKE,2023-05-30T03:50:00Z,65.78,24.57,7.0,0.0,10,9,,6.21,29.940945,,,TRUE,,,,,,,,CAVOK,,,,,,,,VFR,,,,,,,,,,,,METAR,15.0
EFJY 300350Z AUTO 26005KT 9999 OVC049 06/02 Q1016,EFJY,2023-05-30T03:50:00Z,62.4,25.68,6.0,2.0,260,5,,6.21,30.0,,,TRUE,,,,,,,,OVC,4900,,,,,,,VFR,,,,,,,,,,,,METAR,139.0
EFJO 300350Z AUTO VRB01KT CAVOK 07/04 Q1015,EFJO,2023-05-30T03:50:00Z,62.67,29.62,7.0,4.0,0,1,,6.21,29.970472,,,TRUE,,,,,,,,CAVOK,,,,,,,,VFR,,,,,,,,,,,,METAR,118.0
EFIV 300350Z AUTO 22005KT CAVOK 05/02 Q1011,EFIV,2023-05-30T03:50:00Z,68.62,27.42,5.0,2.0,220,5,,6.21,29.852362,,,TRUE,,,,,,,,CAVOK,,,,,,,,VFR,,,,,,,,,,,,METAR,145.0
EFHK 300350Z 23006KT CAVOK 09/03 Q1017 TEMPO FEW050CB,EFHK,2023-05-30T03:50:00Z,60.32,24.97,9.0,3.0,230,6,,6.21,30.029528,,,,,,,,,,,CAVOK,,,,,,,,VFR,,,,,,,,,,,,METAR,56.0
EFHA 300350Z AUTO 26003KT 9999 FEW020 OVC026 06/03 Q1016,EFHA,2023-05-30T03:50:00Z,61.85,24.8,6.0,3.0,260,3,,6.21,30.0,,,TRUE,,,,,,,,FEW,2000,OVC,2600,,,,,MVFR,,,,,,,,,,,,METAR,144.0
EFET 300350Z AUTO 26007KT CAVOK 05/M02 Q1011,EFET,2023-05-30T03:50:00Z,68.37,23.43,5.0,-2.0,260,7,,6.21,29.852362,,,TRUE,,,,,,,,CAVOK,,,,,,,,VFR,,,,,,,,,,,,METAR,300.0
EETU 300350Z AUTO 00000KT 9999 OVC120/// 07/04 Q1018,EETU,2023-05-30T03:50:00Z,58.32,26.68,7.0,4.0,0,0,,6.21,30.059055,,,TRUE,,,,,,,,OVC,12000,,,,,,,VFR,,,,,,,,,,,,METAR,67.0
EETN 300350Z 20008KT 9999 FEW030CB 09/03 Q1017 NOSIG,EETN,2023-05-30T03:50:00Z,59.4,24.82,9.0,3.0,200,8,,6.21,30.029528,,,,,,TRUE,,,,,FEW,3000,,,,,,,VFR,,,,,,,,,,,,METAR,41.0
EEPU 300350Z AUTO 00000KT 9999 OVC100/// 09/04 Q1018,EEPU,2023-05-30T03:50:00Z,58.42,24.47,9.0,4.0,0,0,,6.21,30.059055,,,TRUE,,,,,,,,OVC,10000,,,,,,,VFR,,,,,,,,,,,,METAR,13.0
EEKE 300350Z 28003KT 240V300 CAVOK 10/05 Q1019,EEKE,2023-05-30T03:50:00Z,58.23,22.52,10.0,5.0,280,3,,6.21,30.088583,,,,,,,,,,,CAVOK,,,,,,,,VFR,,,,,,,,,,,,METAR,4.0
EEKA 300350Z 22005KT 160V260 CAVOK 10/06 Q1018,EEKA,2023-05-30T03:50:00Z,58.98,22.83,10.0,6.0,220,5,,6.21,30.059055,,,,,,,,,,,CAVOK,,,,,,,,VFR,,,,,,,,,,,,METAR,6.0
EEEI 300350Z AUTO 22004KT CAVOK 09/04 Q1018,EEEI,2023-05-30T03:50:00Z,59.27,24.2,9.0,4.0,220,4,,6.21,30.059055,,,TRUE,,,,,,,,CAVOK,,,,,,,,VFR,,,,,,,,,,,,METAR,19.0
EDXW 300350Z AUTO 35013KT 9999 // FEW007/// BKN010/// OVC012/// 10/09 Q1026,EDXW,2023-05-30T03:50:00Z,54.92,8.33,10.0,9.0,350,13,,6.21,30.295275,,,TRUE,,,,,,,,FEW,700,BKN,1000,OVC,1200,,,MVFR,,,,,,,,,,,,METAR,8.0
EDWE 300350Z AUTO 34005KT 310V010 9999 // OVC016/// 11/07 Q1027,EDWE,2023-05-30T03:50:00Z,53.38,7.23,11.0,7.0,340,5,,6.21,30.324802,,,TRUE,,,,,,,,OVC,1600,,,,,,,MVFR,,,,,,,,,,,,METAR,0.0
EDVK 300350Z AUTO 29004KT 9999 // NCD 06/05 Q1025,EDVK,2023-05-30T03:50:00Z,51.4,9.37,6.0,5.0,290,4,,6.21,30.265747,,,TRUE,,,,,,,,CLR,,,,,,,,VFR,,,,,,,,,,,,METAR,277.0
EDVE 300350Z AUTO 28004KT 9999 NCD 07/06 Q1025,EDVE,2023-05-30T03:50:00Z,52.32,10.55,7.0,6.0,280,4,,6.21,30.265747,,,TRUE,,,,,,,,CLR,,,,,,,,VFR,,,,,,,,,,,,METAR,83.0
EDTY 300350Z AUTO VRB02KT 9999 // NCD 11/07 Q1020,EDTY,2023-05-30T03:50:00Z,49.12,9.78,11.0,7.0,0,2,,6.21,30.11811,,,TRUE,,,,,,,,CLR,,,,,,,,VFR,,,,,,,,,,,,METAR,398.0
EDTL 300350Z AUTO 01004KT 9999 // NCD 13/10 Q1019,EDTL,2023-05-30T03:50:00Z,48.37,7.83,13.0,10.0,10,4,,6.21,30.088583,,,TRUE,,,,,,,,CLR,,,,,,,,VFR,,,,,,,,,,,,METAR,152.0
EDSB 300350Z 04010KT CAVOK 13/08 Q1019,EDSB,2023-05-30T03:50:00Z,48.78,8.08,13.0,8.0,40,10,,6.21,30.088583,,,,,,,,,,,CAVOK,,,,,,,,VFR,,,,,,,,,,,,METAR,122.0
EDQM 300350Z AUTO 35004KT 310V030 9999 // NCD 09/03 Q1022,EDQM,2023-05-30T03:50:00Z,50.3,11.85,9.0,3.0,350,4,,6.21,30.177166,,,TRUE,,,,,,,,CLR,,,,,,,,VFR,,,,,,,,,,,,METAR,578.0
EDNY 300350Z 03005KT CAVOK 13/07 Q1018,EDNY,2023-05-30T03:50:00Z,47.67,9.52,13.0,7.0,30,5,,6.21,30.059055,,,,,,,,,,,CAVOK,,,,,,,,VFR,,,,,,,,,,,,METAR,411.0
EDMO 300350Z AUTO 05003KT 9999 // BKN190/// 10/06 Q1019,EDMO,2023-05-30T03:50:00Z,48.07,11.27,10.0,6.0,50,3,,6.21,30.088583,,,TRUE,,,,,,,,BKN,19000,,,,,,,VFR,,,,,,,,,,,,METAR,587.0
EDMA 300350Z AUTO 01006KT 9999 // BKN210/// 13/07 Q1019,EDMA,2023-05-30T03:50:00Z,48.42,10.92,13.0,7.0,10,6,,6.21,30.088583,,,TRUE,,,,,,,,BKN,21000,,,,,,,VFR,,,,,,,,,,,,METAR,462.0
EDLW 300350Z 05004KT 010V080 9999 BKN016 09/06 Q1026,EDLW,2023-05-30T03:50:00Z,51.52,7.62,9.0,6.0,50,4,,6.21,30.295275,,,,,,,,,,,BKN,1600,,,,,,,MVFR,,,,,,,,,,,,METAR,122.0
EDLV 300350Z 04004KT 360V080 9999 BKN018 09/06 Q1027,EDLV,2023-05-30T03:50:00Z,51.6,6.15,9.0,6.0,40,4,,6.21,30.324802,,,,,,,,,,,BKN,1800,,,,,,,MVFR,,,,,,,,,,,,METAR,27.0
EDLP 300350Z 23002KT CAVOK 06/05 Q1026,EDLP,2023-05-30T03:50:00Z,51.62,8.62,6.0,5.0,230,2,,6.21,30.295275,,,,,,,,,,,CAVOK,,,,,,,,VFR,,,,,,,,,,,,METAR,211.0
EDLN 300350Z AUTO 35005KT 320V020 7000 // NCD 09/06 Q1026,EDLN,2023-05-30T03:50:00Z,51.23,6.5,9.0,6.0,350,5,,4.35,30.295275,,,TRUE,,,,,,,,CLR,,,,,,,,MVFR,,,,,,,,,,,,METAR,38.0
EDJA 300350Z 06002KT CAVOK 10/05 Q1019,EDJA,2023-05-30T03:50:00Z,47.98,10.23,10.0,5.0,60,2,,6.21,30.088583,,,,,,,,,,,CAVOK,,,,,,,,VFR,,,,,,,,,,,,METAR,625.0
EDHL 300350Z AUTO 29004KT 9999 // NCD 07/06 Q1025,EDHL,2023-05-30T03:50:00Z,53.8,10.72,7.0,6.0,290,4,,6.21,30.265747,,,TRUE,,,,,,,,CLR,,,,,,,,VFR,,,,,,,,,,,,METAR,13.0
EDHK 300350Z AUTO 31005KT 9999 // OVC012/// 09/07 Q1025,EDHK,2023-05-30T03:50:00Z,54.38,10.15,9.0,7.0,310,5,,6.21,30.265747,,,TRUE,,,,,,,,OVC,1200,,,,,,,MVFR,,,,,,,,,,,,METAR,24.0
EDHI 300350Z 33007KT 290V360 9999 FEW014 09/07 Q1026,EDHI,2023-05-30T03:50:00Z,53.53,9.83,9.0,7.0,330,7,,6.21,30.295275,,,,,,,,,,,FEW,1400,,,,,,,VFR,,,,,,,,,,,,METAR,5.0
EDGS 300350Z AUTO 04007KT 9999 // NCD 07/04 Q1024,EDGS,2023-05-30T03:50:00Z,50.7,8.08,7.0,4.0,40,7,,6.21,30.236221,,,TRUE,,,,,,,,CLR,,,,,,,,VFR,,,,,,,,,,,,METAR,595.0
EDFM 300350Z 34008KT CAVOK 13/06 Q1021,EDFM,2023-05-30T03:50:00Z,49.47,8.52,13.0,6.0,340,8,,6.21,30.147638,,,,,,,,,,,CAVOK,,,,,,,,VFR,,,,,,,,,,,,METAR,94.0
EDFH 300350Z 02005KT CAVOK 08/05 Q1023,EDFH,2023-05-30T03:50:00Z,49.95,7.27,8.0,5.0,20,5,,6.21,30.206694,,,,,,,,,,,CAVOK,,,,,,,,VFR,,,,,,,,,,,,METAR,494.0
EDDW 300350Z AUTO 28004KT 9999 BKN016 08/07 Q1026 TEMPO BKN013,EDDW,2023-05-30T03:50:00Z,53.03,8.8,8.0,7.0,280,4,,6.21,30.295275,,,TRUE,,,,,,,,BKN,1600,,,,,,,MVFR,,,,,,,,,,,,METAR,5.0
EDDV 300350Z AUTO 27004KT CAVOK 07/06 Q1026 NOSIG,EDDV,2023-05-30T03:50:00Z,52.47,9.68,7.0,6.0,270,4,,6.21,30.295275,,,TRUE,,,TRUE,,,,,CAVOK,,,,,,,,VFR,,,,,,,,,,,,METAR,53.0
EDDS 300350Z AUTO 35005KT 330V030 CAVOK 13/07 Q1020,EDDS,2023-05-30T03:50:00Z,48.68,9.22,13.0,7.0,350,5,,6.21,30.11811,,,TRUE,,,,,,,,CAVOK,,,,,,,,VFR,,,,,,,,,,,,METAR,374.0
EDDR 300350Z AUTO 04012KT CAVOK 12/07 Q1021 NOSIG,EDDR,2023-05-30T03:50:00Z,49.22,7.1,12.0,7.0,40,12,,6.21,30.147638,,,TRUE,,,TRUE,,,,,CAVOK,,,,,,,,VFR,,,,,,,,,,,,METAR,317.0
EDDP 300350Z AUTO 35006KT CAVOK 09/02 Q1024 NOSIG,EDDP,2023-05-30T03:50:00Z,51.43,12.23,9.0,2.0,350,6,,6.21,30.236221,,,TRUE,,,TRUE,,,,,CAVOK,,,,,,,,VFR,,,,,,,,,,,,METAR,129.0
EDDN 300350Z AUTO 34004KT CAVOK 11/07 Q1021,EDDN,2023-05-30T03:50:00Z,49.5,11.05,11.0,7.0,340,4,,6.21,30.147638,,,TRUE,,,,,,,,CAVOK,,,,,,,,VFR,,,,,,,,,,,,METAR,312.0
EDDM 300350Z AUTO VRB02KT CAVOK 12/06 Q1019 NOSIG,EDDM,2023-05-30T03:50:00Z,48.35,11.82,12.0,6.0,0,2,,6.21,30.088583,,,TRUE,,,TRUE,,,,,CAVOK,,,,,,,,VFR,,,,,,,,,,,,METAR,445.0
EDDL 300350Z AUTO 01008KT CAVOK 08/05 Q1026 NOSIG,EDDL,2023-05-30T03:50:00Z,51.3,6.77,8.0,5.0,10,8,,6.21,30.295275,,,TRUE,,,TRUE,,,,,CAVOK,,,,,,,,VFR,,,,,,,,,,,,METAR,37.0
EDDK 300350Z AUTO 34005KT CAVOK 07/03 Q1025 NOSIG,EDDK,2023-05-30T03:50:00Z,50.87,7.15,7.0,3.0,340,5,,6.21,30.265747,,,TRUE,,,TRUE,,,,,CAVOK,,,,,,,,VFR,,,,,,,,,,,,METAR,92.0
EDDH 300350Z AUTO 33004KT CAVOK 08/06 Q1025 BECMG BKN012,EDDH,2023-05-30T03:50:00Z,53.63,10.0,8.0,6.0,330,4,,6.21,30.265747,,,TRUE,,,,,,,,CAVOK,,,,,,,,VFR,,,,,,,,,,,,METAR,8.0
EDDG 300350Z AUTO 36004KT 330V030 9999 OVC018 10/06 Q1027 NOSIG,EDDG,2023-05-30T03:50:00Z,52.13,7.7,10.0,6.0,360,4,,6.21,30.324802,,,TRUE,,,TRUE,,,,,OVC,1800,,,,,,,MVFR,,,,,,,,,,,,METAR,46.0
EDDF 300350Z AUTO 02008KT 340V040 CAVOK 13/06 Q1022 NOSIG,EDDF,2023-05-30T03:50:00Z,50.05,8.6,13.0,6.0,20,8,,6.21,30.177166,,,TRUE,,,TRUE,,,,,CAVOK,,,,,,,,VFR,,,,,,,,,,,,METAR,113.0
EDDE 300350Z AUTO 33004KT CAVOK 09/03 Q1024 NOSIG,EDDE,2023-05-30T03:50:00Z,50.98,10.97,9.0,3.0,330,4,,6.21,30.236221,,,TRUE,,,TRUE,,,,,CAVOK,,,,,,,,VFR,,,,,,,,,,,,METAR,314.0
EDDC 300350Z AUTO 31002KT CAVOK 09/07 Q1023 NOSIG,EDDC,2023-05-30T03:50:00Z,51.13,13.75,9.0,7.0,310,2,,6.21,30.206694,,,TRUE,,,TRUE,,,,,CAVOK,,,,,,,,VFR,,,,,,,,,,,,METAR,227.0
EDDB 300350Z AUTO 25004KT CAVOK 09/04 Q1023 NOSIG,EDDB,2023-05-30T03:50:00Z,52.38,13.53,9.0,4.0,250,4,,6.21,30.206694,,,TRUE,,,TRUE,,,,,CAVOK,,,,,,,,VFR,,,,,,,,,,,,METAR,48.0
EDBC 300350Z AUTO 30007KT 9999 // NCD 08/05 Q1024,EDBC,2023-05-30T03:50:00Z,51.85,11.42,8.0,5.0,300,7,,6.21,30.236221,,,TRUE,,,,,,,,CLR,,,,,,,,VFR,,,,,,,,,,,,METAR,178.0
EDAH 300350Z AUTO 31003KT 280V340 9999 // OVC120/// 11/08 Q1022,EDAH,2023-05-30T03:50:00Z,53.87,14.15,11.0,8.0,310,3,,6.21,30.177166,,,TRUE,,,,,,,,OVC,12000,,,,,,,VFR,,,,,,,,,,,,METAR,22.0
EDAC 300350Z AUTO VRB01KT 9999 // NCD 06/05 Q1023,EDAC,2023-05-30T03:50:00Z,50.98,12.5,6.0,5.0,0,1,,6.21,30.206694,,,TRUE,,,,,,,,CLR,,,,,,,,VFR,,,,,,,,,,,,METAR,193.0
EBOS 300350Z 06011KT 9999 FEW019 09/06 Q1027 NOSIG,EBOS,2023-05-30T03:50:00Z,51.2,2.87,9.0,6.0,60,11,,6.21,30.324802,,,,,,TRUE,,,,,FEW,1900,,,,,,,VFR,,,,,,,,,,,,METAR,5.0
EBLG 300350Z 04008KT CAVOK 07/05 Q1025 NOSIG,EBLG,2023-05-30T03:50:00Z,50.63,5.45,7.0,5.0,40,8,,6.21,30.265747,,,,,,TRUE,,,,,CAVOK,,,,,,,,VFR,,,,,,,,,,,,METAR,187.0
EBCI 300350Z 03009KT CAVOK 07/04 Q1025 NOSIG,EBCI,2023-05-30T03:50:00Z,50.47,4.45,7.0,4.0,30,9,,6.21,30.265747,,,,,,TRUE,,,,,CAVOK,,,,,,,,VFR,,,,,,,,,,,,METAR,176.0
EBBR 300350Z 04006KT CAVOK 07/06 Q1026 NOSIG,EBBR,2023-05-30T03:50:00Z,50.9,4.52,7.0,6.0,40,6,,6.21,30.295275,,,,,,TRUE,,,,,CAVOK,,,,,,,,VFR,,,,,,,,,,,,METAR,49.0
EBAW 300350Z AUTO 03007KT 9999 // VV/// 08/05 Q1027,EBAW,2023-05-30T03:50:00Z,51.2,4.47,8.0,5.0,30,7,,6.21,30.324802,,,TRUE,,,,,,,,OVX,0,,,,,,,LIFR,,,,,,,,,,,,METAR,7.0
BGSF 300350Z AUTO 05009KT 9999NDV SCT110/// BKN130/// 05/M05 Q1010,BGSF,2023-05-30T03:50:00Z,67.0,-50.72,5.0,-5.0,50,9,,,29.822834,,,TRUE,,,,,,,,SCT,11000,BKN,13000,,,,,,,,,,,,,,,,,METAR,75.0
BGJN 300350Z AUTO 16001KT 9999NDV -PL OVC046/// M00/M04 Q1009,BGJN,2023-05-30T03:50:00Z,69.25,-51.07,0.0,-4.0,160,1,,,29.793306,,,TRUE,,,,,,,-PL,OVC,4600,,,,,,,,,,,,,,,,,,,METAR,22.0
BGGH 300350Z AUTO 20015KT 9999 OVC065/// 01/M02 Q1014,BGGH,2023-05-30T03:50:00Z,64.2,-51.68,1.0,-2.0,200,15,,6.21,29.940945,,,TRUE,,,,,,,,OVC,6500,,,,,,,VFR,,,,,,,,,,,,METAR,76.0
BGBW 300350Z AUTO 08003KT 9999NDV FEW014/// SCT018/// OVC021/// 05/02 Q1017,BGBW,2023-05-30T03:50:00Z,61.17,-45.42,5.0,2.0,80,3,,,30.029528,,,TRUE,,,,,,,,FEW,1400,SCT,1800,OVC,2100,,,,,,,,,,,,,,,METAR,49.0
MMLP 300349Z 20014KT 10SM SKC 20/11 A2993,MMLP,2023-05-30T03:49:00Z,24.07,-110.37,20.0,11.0,200,14,,10.0,29.929134,,,,,,,,,,,SKC,,,,,,,,VFR,,,,,,,,,,,,METAR,16.0
MMLO 300349Z 31004KT 8SM SKC 20/M03 A3020,MMLO,2023-05-30T03:49:00Z,21.0,-101.47,20.0,-3.0,310,4,,8.0,30.200787,,,,,,,,,,,SKC,,,,,,,,VFR,,,,,,,,,,,,METAR,1805.0
KMTN 300349Z AUTO 07006G14KT 10SM VCTS OVC110 18/10 A3013 RMK AO2 LTG DSNT SE,KMTN,2023-05-30T03:49:00Z,39.32,-76.42,18.0,10.0,70,6,14,10.0,30.129921,,,TRUE,TRUE,,,,,,VCTS,OVC,11000,,,,,,,VFR,,,,,,,,,,,,METAR,2.0
KFME 300349Z AUTO 08008KT OVC065 15/12 A3013 RMK AO1,KFME,2023-05-30T03:49:00Z,39.08,-76.77,15.0,12.0,80,8,,,30.129921,,,TRUE,TRUE,,,,,,,OVC,6500,,,,,,,,,,,,,,,,,,,METAR,43.0
K2W6 300349Z AUTO 05003KT 10SM OVC013 16/14 A3009 RMK AO1,K2W6,2023-05-30T03:49:00Z,38.32,-76.55,16.0,14.0,50,3,,10.0,30.088583,,,TRUE,TRUE,,,,,,,OVC,1300,,,,,,,MVFR,,,,,,,,,,,,METAR,40.0
KJDN 300348Z AUTO 00000KT 17/13 A2980 RMK AO1 SLP082 T01670133 $,KJDN,2023-05-30T03:48:00Z,47.33,-106.95,16.7,13.3,0,0,,,29.799213,1008.2,,TRUE,TRUE,TRUE,,,,,,,,,,,,,,,,,,,,,,,,,,METAR,802.0
KBJC 300348Z 33009KT 10SM SCT110 18/08 A3002,KBJC,2023-05-30T03:48:00Z,39.9,-105.1,18.0,8.0,330,9,,10.0,30.02067,,,,,,,,,,,SCT,11000,,,,,,,VFR,,,,,,,,,,,,METAR,1694.0
CYIV 300348Z AUTO 22014G29KT 9SM -RA OVC081 23/13 A2968 RMK PRESRR SLP054 DENSITY ALT 2200FT,CYIV,2023-05-30T03:48:00Z,53.85,-94.65,23.0,13.0,220,14,29,9.0,29.681103,1005.4,,TRUE,,,,,,,-RA,OVC,8100,,,,,,,VFR,,,,,,,,,,,,SPECI,234.0
MMMM 300347Z 00000KT 7SM SKC 19/12 A3018 RMK HZY,MMMM,2023-05-30T03:47:00Z,19.85,-101.03,19.0,12.0,0,0,,7.0,30.180119,,,,,,,,,,,SKC,,,,,,,,VFR,,,,,,,,,,,,METAR,1840.0
KSUN 300347Z 29004KT 10SM BKN085 BKN120 14/09 A3003,KSUN,2023-05-30T03:47:00Z,43.5,-114.28,14.0,9.0,290,4,,10.0,30.029528,,,,,,,,,,,BKN,8500,BKN,12000,,,,,VFR,,,,,,,,,,,,METAR,1619.0
KSQL 300347Z 29004KT 10SM BKN200 15/09 A2997 RMK LAST,KSQL,2023-05-30T03:47:00Z,37.52,-122.25,15.0,9.0,290,4,,10.0,29.970472,,,,,,,,,,,BKN,20000,,,,,,,VFR,,,,,,,,,,,,METAR,1.0
KPAO 300347Z 30004KT 10SM SCT120 15/09 A2996 RMK LAST,KPAO,2023-05-30T03:47:00Z,37.47,-122.12,15.0,9.0,300,4,,10.0,29.958662,,,,,,,,,,,SCT,12000,,,,,,,VFR,,,,,,,,,,,,METAR,2.0
KIWA 300347Z 28014KT 10SM CLR 31/02 A2983,KIWA,2023-05-30T03:47:00Z,33.3,-111.65,31.0,2.0,280,14,,10.0,29.828741,,,,,,,,,,,CLR,,,,,,,,VFR,,,,,,,,,,,,METAR,420.0
KGYR 300347Z 24014KT 10SM SKC 30/M02 A2980 RMK LAST,KGYR,2023-05-30T03:47:00Z,33.42,-112.37,30.0,-2.0,240,14,,10.0,29.799213,,,,,,,,,,,SKC,,,,,,,,VFR,,,,,,,,,,,,METAR,292.0
KCQT 300347Z AUTO 26004KT 10SM OVC038 17/12 A2998 RMK AO2 SLP151 T01720122 $,KCQT,2023-05-30T03:47:00Z,34.02,-118.28,17.2,12.2,260,4,,10.0,29.97933,1015.1,,TRUE,TRUE,TRUE,,,,,,OVC,3800,,,,,,,VFR,,,,,,,,,,,,METAR,51.0
KCHD 300347Z 27011KT 10SM CLR 31/M01 A2981 RMK LAST,KCHD,2023-05-30T03:47:00Z,33.27,-111.82,31.0,-1.0,270,11,,10.0,29.811024,,,,,,,,,,,CLR,,,,,,,,VFR,,,,,,,,,,,,METAR,378.0
CYVT 300346Z AUTO 27007KT 240V300 9SM -RA FEW055 OVC090 18/09 A2970 RMK SLP064 DENSITY ALT 2400FT,CYVT,2023-05-30T03:46:00Z,55.83,-108.42,18.0,9.0,270,7,,9.0,29.698818,1006.4,,TRUE,,,,,,,-RA,FEW,5500,OVC,9000,,,,,VFR,,,,,,,,,,,,SPECI,438.0
PGUM 300345Z 15003KT 10SM -RA BKN100 24/23 A2990 RMK AO2 P0011 T02390228,PGUM,2023-05-30T03:45:00Z,13.48,144.8,23.9,22.8,150,3,,10.0,29.899607,,,,TRUE,,,,,,-RA,BKN,10000,,,,,,,VFR,,,,,,0.11,,,,,,SPECI,74.0
MMRX 300345Z 01012KT 6SM BKN035CB 24/21 A2991 RMK 60025 8/900 RAB40 TS/LTGIC,MMRX,2023-05-30T03:45:00Z,26.02,-98.22,24.0,21.0,10,12,,6.0,29.911417,,,,,,,,,,,BKN,3500,,,,,,,VFR,,,,,,,,,,,,METAR,45.0
MMPS 300345Z 02006KT 6SM SCT050 30/22 A2989 RMK 8/500 HZY,MMPS,2023-05-30T03:45:00Z,15.87,-97.08,30.0,22.0,20,6,,6.0,29.890747,,,,,,,,,,,SCT,5000,,,,,,,VFR,,,,,,,,,,,,METAR,65.0
MMMX 300345Z 15006KT 10SM SKC 18/09 A3030 NOSIG,MMMX,2023-05-30T03:45:00Z,19.43,-99.08,18.0,9.0,150,6,,10.0,30.301182,,,,,,TRUE,,,,,SKC,,,,,,,,VFR,,,,,,,,,,,,METAR,2224.0
LMML 300345Z 00000KT 7000 NSC 18/16 Q1012 TEMPO 5000,LMML,2023-05-30T03:45:00Z,35.85,14.47,18.0,16.0,0,0,,4.35,29.88189,,,,,,,,,,,CLR,,,,,,,,MVFR,,,,,,,,,,,,METAR,78.0
LIRP 300345Z 03004KT CAVOK 15/13 Q1013 NOSIG,LIRP,2023-05-30T03:45:00Z,43.68,10.38,15.0,13.0,30,4,,6.21,29.911417,,,,,,TRUE,,,,,CAVOK,,,,,,,,VFR,,,,,,,,,,,,METAR,1.0
LHSN 300345Z 20002KT 9999 FEW050TCU SCT065 BKN083 15/14 Q1016 TEMPO SHRA -TSRA RMK BLU,LHSN,2023-05-30T03:45:00Z,47.12,20.23,15.0,14.0,200,2,,6.21,30.0,,,,,,,,,,,FEW,5000,SCT,6500,BKN,8300,,,VFR,,,,,,,,,,,,METAR,89.0
LHSM 300345Z AUTO 34008KT 310V010 CAVOK 15/10 Q1016,LHSM,2023-05-30T03:45:00Z,46.68,17.17,15.0,10.0,340,8,,6.21,30.0,,,TRUE,,,,,,,,CAVOK,,,,,,,,VFR,,,,,,,,,,,,METAR,119.0
LHPR 300345Z AUTO 27006KT CAVOK 11/10 Q1016,LHPR,2023-05-30T03:45:00Z,47.63,17.82,11.0,10.0,270,6,,6.21,30.0,,,TRUE,,,,,,,,CAVOK,,,,,,,,VFR,,,,,,,,,,,,METAR,127.0
LHPP 300345Z AUTO 33005KT CAVOK 16/13 Q1016,LHPP,2023-05-30T03:45:00Z,45.98,18.23,16.0,13.0,330,5,,6.21,30.0,,,TRUE,,,,,,,,CAVOK,,,,,,,,VFR,,,,,,,,,,,,METAR,193.0
LHPA 300345Z 24002KT CAVOK 10/10 Q1017 NOSIG RMK BLU,LHPA,2023-05-30T03:45:00Z,47.35,17.5,10.0,10.0,240,2,,6.21,30.029528,,,,,,TRUE,,,,,CAVOK,,,,,,,,VFR,,,,,,,,,,,,METAR,143.0
LHKE 300345Z VRB02KT 9999 FEW045TCU SCT050 BKN083 15/14 Q1016 TEMPO -SHRA RMK BLU,LHKE,2023-05-30T03:45:00Z,46.92,19.75,15.0,14.0,0,2,,6.21,30.0,,,,,,,,,,,FEW,4500,SCT,5000,BKN,8300,,,VFR,,,,,,,,,,,,METAR,113.0
LHDC 300345Z AUTO 06003KT CAVOK 16/13 Q1015 NOSIG,LHDC,2023-05-30T03:45:00Z,47.48,21.62,16.0,13.0,60,3,,6.21,29.970472,,,TRUE,,,TRUE,,,,,CAVOK,,,,,,,,VFR,,,,,,,,,,,,METAR,105.0
KW29 300345Z AUTO 07006KT 7SM -RA SCT029 OVC045 15/15 A3010 RMK AO2 LTG DSNT SE THRU SW P0009 T01520147,KW29,2023-05-30T03:45:00Z,38.98,-76.33,15.2,14.7,70,6,,7.0,30.100393,,,TRUE,TRUE,,,,,,-RA,SCT,2900,OVC,4500,,,,,VFR,,,,,,0.09,,,,,,METAR,1.0
KVUJ 300345Z AUTO 00000KT 10SM SCT019 SCT026 OVC045 18/18 A3001 RMK AO2 T01810180,KVUJ,2023-05-30T03:45:00Z,35.42,-80.15,18.1,18.0,0,0,,10.0,30.008858,,,TRUE,TRUE,,,,,,,SCT,1900,SCT,2600,OVC,4500,,,VFR,,,,,,,,,,,,METAR,174.0
KUKF 300345Z AUTO 00000KT 3SM BR CLR 15/15 A3004 RMK AO2,KUKF,2023-05-30T03:45:00Z,36.22,-81.1,15.0,15.0,0,0,,3.0,30.041338,,,TRUE,TRUE,,,,,,BR,CLR,,,,,,,,MVFR,,,,,,,,,,,,METAR,383.0
KTTA 300345Z AUTO 00000KT 7SM OVC028 18/18 A2997 RMK AO2 T01780178,KTTA,2023-05-30T03:45:00Z,35.58,-79.1,17.8,17.8,0,0,,7.0,29.970472,,,TRUE,TRUE,,,,,,,OVC,2800,,,,,,,MVFR,,,,,,,,,,,,METAR,71.0
KTDF 300345Z AUTO 00000KT 3/4SM BR BKN002 BKN060 BKN070 15/13 A3000 RMK AO2,KTDF,2023-05-30T03:45:00Z,36.28,-78.98,15.0,13.0,0,0,,0.75,30.0,,,TRUE,TRUE,,,,,,BR,BKN,200,BKN,6000,BKN,7000,,,LIFR,,,,,,,,,,,,METAR,180.0
KSWF 300345Z 15009KT 10SM SKC 15/06 A3019,KSWF,2023-05-30T03:45:00Z,41.5,-74.08,15.0,6.0,150,9,,10.0,30.188976,,,,,,,,,,,SKC,,,,,,,,VFR,,,,,,,,,,,,METAR,139.0
KSVH 300345Z AUTO 00000KT 7SM BKN005 OVC009 17/17 A2997 RMK AO2 T01740169,KSVH,2023-05-30T03:45:00Z,35.75,-80.95,17.4,16.9,0,0,,7.0,29.970472,,,TRUE,TRUE,,,,,,,BKN,500,OVC,900,,,,,IFR,,,,,,,,,,,,METAR,286.0
KSIF 300345Z AUTO 00000KT 10SM BKN014 BKN027 BKN034 19/18 A2999 RMK AO2 T01850180,KSIF,2023-05-30T03:45:00Z,36.43,-79.85,18.5,18.0,0,0,,10.0,29.991142,,,TRUE,TRUE,,,,,,,BKN,1400,BKN,2700,BKN,3400,,,MVFR,,,,,,,,,,,,METAR,206.0
KSCR 300345Z AUTO 00000KT 10SM SCT029 SCT033 SCT040 17/17 A2998 RMK AO2 T01730173,KSCR,2023-05-30T03:45:00Z,35.7,-79.5,17.3,17.3,0,0,,10.0,29.97933,,,TRUE,TRUE,,,,,,,SCT,2900,SCT,3300,SCT,4000,,,VFR,,,,,,,,,,,,METAR,182.0
KRUQ 300345Z AUTO 00000KT 1/2SM FG OVC002 15/15 A2997 RMK AO2 T01500148,KRUQ,2023-05-30T03:45:00Z,35.65,-80.52,15.0,14.8,0,0,,0.5,29.970472,,,TRUE,TRUE,,,,,,FG,OVC,200,,,,,,,LIFR,,,,,,,,,,,,METAR,231.0
KPGV 300345Z AUTO 00000KT 4SM BR BKN038 17/17 A2994 RMK AO2,KPGV,2023-05-30T03:45:00Z,35.63,-77.4,17.0,17.0,0,0,,4.0,29.940945,,,TRUE,TRUE,,,,,,BR,BKN,3800,,,,,,,MVFR,,,,,,,,,,,,METAR,6.0
KONX 300345Z AUTO 01009KT 10SM SCT003 BKN011 BKN095 A2995 RMK AO2,KONX,2023-05-30T03:45:00Z,36.4,-76.02,,,10,9,,10.0,29.949802,,,TRUE,TRUE,,,,,,,SCT,300,BKN,1100,BKN,9500,,,MVFR,,,,,,,,,,,,METAR,4.0
KOCW 300345Z AUTO 00000KT 7SM SCT043 18/17 A2995 RMK AO2 T01810172,KOCW,2023-05-30T03:45:00Z,35.57,-77.05,18.1,17.2,0,0,,7.0,29.949802,,,TRUE,TRUE,,,,,,,SCT,4300,,,,,,,VFR,,,,,,,,,,,,METAR,10.0
KMWK 300345Z AUTO 01003KT 10SM RA SCT016 BKN047 OVC065 18/17 A3003 RMK AO2 T01800172,KMWK,2023-05-30T03:45:00Z,36.47,-80.55,18.0,17.2,10,3,,10.0,30.029528,,,TRUE,TRUE,,,,,,RA,SCT,1600,BKN,4700,OVC,6500,,,VFR,,,,,,,,,,,,METAR,374.0
KMRN 300345Z AUTO 00000KT 10SM SCT055 SCT065 SCT085 17/17 A2999 RMK AO2 T01740168,KMRN,2023-05-30T03:45:00Z,35.82,-81.62,17.4,16.8,0,0,,10.0,29.991142,,,TRUE,TRUE,,,,,,,SCT,5500,SCT,6500,SCT,8500,,,VFR,,,,,,,,,,,,METAR,375.0
KJNX 300345Z AUTO 00000KT 5SM BR BKN042 17/17 A2995 RMK AO2,KJNX,2023-05-30T03:45:00Z,35.53,-78.38,17.0,17.0,0,0,,5.0,29.949802,,,TRUE,TRUE,,,,,,BR,BKN,4200,,,,,,,MVFR,,,,,,,,,,,,METAR,41.0
KISO 300345Z AUTO 00000KT 10SM SCT049 19/18 A2994 RMK AO2 T01850178,KISO,2023-05-30T03:45:00Z,35.32,-77.62,18.5,17.8,0,0,,10.0,29.940945,,,TRUE,TRUE,,,,,,,SCT,4900,,,,,,,VFR,,,,,,,,,,,,METAR,27.0
KIPJ 300345Z AUTO 00000KT 1SM BR BKN001 15/15 A2997 RMK AO2 T01490147,KIPJ,2023-05-30T03:45:00Z,35.48,-81.17,14.9,14.7,0,0,,1.0,29.970472,,,TRUE,TRUE,,,,,,BR,BKN,100,,,,,,,LIFR,,,,,,,,,,,,METAR,266.0
KHRJ 300345Z AUTO 35003KT 7SM BKN070 17/17 A2997 RMK AO2 T01740172,KHRJ,2023-05-30T03:45:00Z,35.38,-78.73,17.4,17.2,350,3,,7.0,29.970472,,,TRUE,TRUE,,,,,,,BKN,7000,,,,,,,VFR,,,,,,,,,,,,METAR,55.0
KHBI 300345Z AUTO 00000KT 7SM SCT049 17/17 A2999 RMK AO2 T01660166,KHBI,2023-05-30T03:45:00Z,35.65,-79.9,16.6,16.6,0,0,,7.0,29.991142,,,TRUE,TRUE,,,,,,,SCT,4900,,,,,,,VFR,,,,,,,,,,,,METAR,199.0
KGEV 300345Z AUTO 00000KT 10SM SCT010 SCT016 BKN120 14/14 A3007 RMK AO2 T01410137,KGEV,2023-05-30T03:45:00Z,36.43,-81.42,14.1,13.7,0,0,,10.0,30.070866,,,TRUE,TRUE,,,,,,,SCT,1000,SCT,1600,BKN,12000,,,VFR,,,,,,,,,,,,METAR,961.0
KFMH 300345Z 06006KT 10SM CLR 08/05 A3021,KFMH,2023-05-30T03:45:00Z,41.65,-70.52,8.0,5.0,60,6,,10.0,30.209646,,,,,,,,,,,CLR,,,,,,,,VFR,,,,,,,,,,,,METAR,35.0
KESN 300345Z AUTO 07010KT 2SM -RA BR SCT030 SCT040 OVC065 15/13 A3008 RMK AO2 LTG DSNT E AND SE RAE0251B0327 P0004 T01470134 $,KESN,2023-05-30T03:45:00Z,38.8,-76.07,14.7,13.4,70,10,,2.0,30.079725,,,TRUE,TRUE,TRUE,,,,,-RA BR,SCT,3000,SCT,4000,OVC,6500,,,IFR,,,,,,0.04,,,,,,METAR,14.0
KEHO 300345Z AUTO 00000KT 10SM CLR 16/16 A2997 RMK AO2 T01600160,KEHO,2023-05-30T03:45:00Z,35.25,-81.6,16.0,16.0,0,0,,10.0,29.970472,,,TRUE,TRUE,,,,,,,CLR,,,,,,,,VFR,,,,,,,,,,,,METAR,261.0
KEDE 300345Z AUTO 03005KT 10SM SCT050 20/20 A2995 RMK AO2 T02040204,KEDE,2023-05-30T03:45:00Z,36.03,-76.57,20.4,20.4,30,5,,10.0,29.949802,,,TRUE,TRUE,,,,,,,SCT,5000,,,,,,,VFR,,,,,,,,,,,,METAR,4.0
KDPL 300345Z AUTO 00000KT 5SM BR OVC036 18/18 A2995 RMK AO2,KDPL,2023-05-30T03:45:00Z,35.0,-77.97,18.0,18.0,0,0,,5.0,29.949802,,,TRUE,TRUE,,,,,,BR,OVC,3600,,,,,,,MVFR,,,,,,,,,,,,METAR,39.0
KDMW 300345Z AUTO 10007G15KT 050V130 10SM SCT120 18/09 A3012 RMK AO2 LTG DSNT SE AND S,KDMW,2023-05-30T03:45:00Z,39.6,-77.0,18.0,9.0,100,7,15,10.0,30.121063,,,TRUE,TRUE,,,,,,,SCT,12000,,,,,,,VFR,,,,,,,,,,,,METAR,239.0
KCTZ 300345Z AUTO 00000KT 10SM OVC036 18/18 A2996 RMK AO2 T01810181,KCTZ,2023-05-30T03:45:00Z,34.98,-78.37,18.1,18.1,0,0,,10.0,29.958662,,,TRUE,TRUE,,,,,,,OVC,3600,,,,,,,VFR,,,,,,,,,,,,METAR,43.0
KCPC 300345Z AUTO 00000KT 10SM SCT016 BKN065 OVC080 18/17 A2996 RMK AO2 T01830173,KCPC,2023-05-30T03:45:00Z,34.28,-78.72,18.3,17.3,0,0,,10.0,29.958662,,,TRUE,TRUE,,,,,,,SCT,1600,BKN,6500,OVC,8000,,,VFR,,,,,,,,,,,,METAR,27.0
KCGE 300345Z AUTO 05006G16KT 10SM OVC025 16/15 A3007 RMK A01,KCGE,2023-05-30T03:45:00Z,38.53,-76.03,16.0,15.0,50,6,16,10.0,30.070866,,,TRUE,TRUE,,,,,,,OVC,2500,,,,,,,MVFR,,,,,,,,,,,,METAR,5.0
KCBE 300345Z AUTO 00000KT 10SM BKN100 19/14 A3012 RMK AO2 T01870144,KCBE,2023-05-30T03:45:00Z,39.62,-78.77,18.7,14.4,0,0,,10.0,30.121063,,,TRUE,TRUE,,,,,,,BKN,10000,,,,,,,VFR,,,,,,,,,,,,METAR,226.0
KASJ 300345Z AUTO 00000KT 10SM SCT018 18/18 A2996 RMK AO2 T01780178,KASJ,2023-05-30T03:45:00Z,36.28,-77.17,17.8,17.8,0,0,,10.0,29.958662,,,TRUE,TRUE,,,,,,,SCT,1800,,,,,,,VFR,,,,,,,,,,,,METAR,20.0
KACZ 300345Z AUTO 00000KT 10SM SCT028 OVC033 17/17 A2995 RMK AO2 T01730171,KACZ,2023-05-30T03:45:00Z,,,17.3,17.1,0,0,,10.0,29.949802,,,TRUE,TRUE,,,,,,,SCT,2800,OVC,3300,,,,,VFR,,,,,,,,,,,,METAR,
K7W6 300345Z AUTO 00000KT 10SM SCT110 19/18 A2992 RMK AO2 T01850181,K7W6,2023-05-30T03:45:00Z,35.55,-75.95,18.5,18.1,0,0,,10.0,29.920275,,,TRUE,TRUE,,,,,,,SCT,11000,,,,,,,VFR,,,,,,,,,,,,METAR,1.0
K2G4 300345Z AUTO 13009G15KT 10SM CLR 15/13 A3012 RMK AO2,K2G4,2023-05-30T03:45:00Z,39.58,-79.33,15.0,13.0,130,9,15,10.0,30.121063,,,TRUE,TRUE,,,,,,,CLR,,,,,,,,VFR,,,,,,,,,,,,METAR,908.0
K24A 300345Z AUTO 00000KT 1/4SM FG OVC003 16/16 A3005 RMK AO2 P0001 T01580157,K24A,2023-05-30T03:45:00Z,35.32,-83.2,15.8,15.7,0,0,,0.25,30.050198,,,TRUE,TRUE,,,,,,FG,OVC,300,,,,,,,LIFR,,,,,,0.01,,,,,,METAR,864.0
CYDQ 300345Z AUTO 22004KT 6SM HZ CLR 15/M01 A2974 RMK SLP080 DENSITY ALT 2900FT,CYDQ,2023-05-30T03:45:00Z,55.75,-120.18,15.0,-1.0,220,4,,6.0,29.740158,1008.0,,TRUE,,,,,,,HZ,CLR,,,,,,,,VFR,,,,,,,,,,,,SPECI,658.0
CWPF 300345Z AUTO 24008KT 13/07 RMK AO1 SLP123 T01290066 53008,CWPF,2023-05-30T03:45:00Z,48.43,-123.43,12.9,6.6,240,8,,,,1012.3,,TRUE,TRUE,,,,,,,,,,,,,,,,0.8,,,,,,,,,,,METAR,5.0
RKNN 300344Z 35005KT 8000 BR FEW013 SCT020 BKN030 BKN200 19/16 A2996 RMK CIG030,RKNN,2023-05-30T03:44:00Z,37.75,128.93,19.0,16.0,350,5,,4.97,29.958662,,,,,,,,,,BR,FEW,1300,SCT,2000,BKN,3000,BKN,20000,MVFR,,,,,,,,,,,,SPECI,11.0
MMTG 300344Z 16012KT 6SM SKC 28/19 A2993 RMK FU HZ ARND ISOLD AC CI,MMTG,2023-05-30T03:44:00Z,16.57,-93.03,28.0,19.0,160,12,,6.0,29.929134,,,,,,,,,,,SKC,,,,,,,,VFR,,,,,,,,,,,,METAR,463.0
MMPR 300344Z 23006KT 10SM OVC035 27/24 A2991 RMK 8/4// BINOVC HZY,MMPR,2023-05-30T03:44:00Z,20.67,-105.25,27.0,24.0,230,6,,10.0,29.911417,,,,,,,,,,,OVC,3500,,,,,,,VFR,,,,,,,,,,,,METAR,6.0
MMMZ 300343Z 31004KT 10SM SKC 25/21 A2990,MMMZ,2023-05-30T03:43:00Z,23.17,-106.27,25.0,21.0,310,4,,10.0,29.899607,,,,,,,,,,,SKC,,,,,,,,VFR,,,,,,,,,,,,METAR,7.0
MMMD 300343Z 12003KT 6SM SCT300 24/22 A2989 RMK 8/008 HZY DSNT CB LTGIC S,MMMD,2023-05-30T03:43:00Z,20.95,-89.65,24.0,22.0,120,3,,6.0,29.890747,,,,,,,,,,,SCT,30000,,,,,,,VFR,,,,,,,,,,,,METAR,10.0
KRDR 300343Z 22006KT 10SM -TSRA BKN075CB OVC100 22/15 A2971 RMK AO2A RAB43 TSB21 SLP061 $,KRDR,2023-05-30T03:43:00Z,47.93,-97.4,22.0,15.0,220,6,,10.0,29.71063,1006.1,,,TRUE,TRUE,,,,,-TSRA,BKN,7500,OVC,10000,,,,,VFR,,,,,,,,,,,,SPECI,276.0
CYVM 300343Z AUTO 32004KT 6SM -SN BKN020 BKN037 OVC066 M01/M02 A2943 RMK SLP969,CYVM,2023-05-30T03:43:00Z,67.55,-64.02,-1.0,-2.0,320,4,,6.0,29.430119,996.9,,TRUE,,,,,,,-SN,BKN,2000,BKN,3700,OVC,6600,,,MVFR,,,,,,,,,,,,SPECI,3.0
MMSM 300342Z 07004KT 8SM FEW020 15/10 A3028 RMK 8/500 HZY,MMSM,2023-05-30T03:42:00Z,19.75,-99.02,15.0,10.0,70,4,,8.0,30.280512,,,,,,,,,,,FEW,2000,,,,,,,VFR,,,,,,,,,,,,METAR,2250.0
MMLM 300342Z 16004KT 10SM SKC 24/19 A2988,MMLM,2023-05-30T03:42:00Z,25.68,-109.08,24.0,19.0,160,4,,10.0,29.878937,,,,,,,,,,,SKC,,,,,,,,VFR,,,,,,,,,,,,METAR,6.0
MMGL 300342Z 27010KT 10SM SKC 25/06 A3013,MMGL,2023-05-30T03:42:00Z,20.52,-103.32,25.0,6.0,270,10,,10.0,30.129921,,,,,,,,,,,SKC,,,,,,,,VFR,,,,,,,,,,,,METAR,1531.0
MMAS 300342Z 17004KT 11SM SKC 18/M10 A3016,MMAS,2023-05-30T03:42:00Z,21.7,-102.32,18.0,-10.0,170,4,,11.0,30.159449,,,,,,,,,,,SKC,,,,,,,,VFR,,,,,,,,,,,,METAR,1866.0
LTBG 300342Z 03006KT 9999 FEW011 SCT035 BKN100 17/16 Q1012 RESHRA NOSIG RMK RWY18 02004KT 330V060,LTBG,2023-05-30T03:42:00Z,40.32,27.97,17.0,16.0,30,6,,6.21,29.88189,,,,,,TRUE,,,,,FEW,1100,SCT,3500,BKN,10000,,,VFR,,,,,,,,,,,,METAR,42.0
RJOP 300341Z 32009KT 8000 -SHRA FEW005 SCT009 OVC020 20/17 Q1010 RMK 2ST005 4ST009 8CU020 A2984,RJOP,2023-05-30T03:41:00Z,34.0,134.62,20.0,17.0,320,9,,4.97,29.822834,,,,,,,,,,-SHRA,FEW,500,SCT,900,OVC,2000,,,MVFR,,,,,,,,,,,,METAR,3.0
MMTJ 300341Z 30005KT 7SM OVC017 15/12 A3001 RMK 8/5// HZY,MMTJ,2023-05-30T03:41:00Z,32.53,-116.97,15.0,12.0,300,5,,7.0,30.008858,,,,,,,,,,,OVC,1700,,,,,,,MVFR,,,,,,,,,,,,METAR,150.0
MMMY 300341Z 33007KT 10SM SKC 20/18 A2989,MMMY,2023-05-30T03:41:00Z,25.77,-100.1,20.0,18.0,330,7,,10.0,29.890747,,,,,,,,,,,SKC,,,,,,,,VFR,,,,,,,,,,,,METAR,382.0
MMCP 300341Z 34008KT 7SM SKC 26/23 A2988,MMCP,2023-05-30T03:41:00Z,19.82,-90.5,26.0,23.0,340,8,,7.0,29.878937,,,,,,,,,,,SKC,,,,,,,,VFR,,,,,,,,,,,,METAR,9.0
MMAA 300341Z 27004KT 5SM SCT090 BKN300 30/24 A2985 RMK 8/032 HZY,MMAA,2023-05-30T03:41:00Z,16.75,-99.75,30.0,24.0,270,4,,5.0,29.84941,,,,,,,,,,,SCT,9000,BKN,30000,,,,,MVFR,,,,,,,,,,,,METAR,5.0
RJAT 300340Z 15006KT 6000 FEW000 BKN006 BKN030 19/16 Q1011 RMK 1ST000 5ST006 5CU030 A2986,RJAT,2023-05-30T03:40:00Z,35.32,138.87,19.0,16.0,150,6,,3.73,29.852362,,,,,,,,,,,FEW,0,BKN,600,BKN,3000,,,IFR,,,,,,,,,,,,METAR,675.0
MMZC 300340Z E00000KT 10SM FEW050 21/M01 A3019 RMK 8/100,MMZC,2023-05-30T03:40:00Z,22.9,-102.68,21.0,-1.0,0,0,,10.0,30.188976,,,,,,,,,,,FEW,5000,,,,,,,VFR,,,,,,,,,,,,METAR,2175.0
MMUN 300340Z 00000KT 7SM SCT015 SCT080 OVC250 28/25 A2988 RMK 8/463,MMUN,2023-05-30T03:40:00Z,21.03,-86.85,28.0,25.0,0,0,,7.0,29.878937,,,,,,,,,,,SCT,1500,SCT,8000,OVC,25000,,,VFR,,,,,,,,,,,,METAR,13.0
MMTP 300340Z 00000KT 8SM SCT100 28/28 A2986 RMK 8/070,MMTP,2023-05-30T03:40:00Z,14.78,-92.37,28.0,28.0,0,0,,8.0,29.861221,,,,,,,,,,,SCT,10000,,,,,,,VFR,,,,,,,,,,,,METAR,27.0
MMTO 300340Z 10004KT 7SM SKC 11/08 A3038 RMK HZY,MMTO,2023-05-30T03:40:00Z,19.35,-99.57,11.0,8.0,100,4,,7.0,30.380905,,,,,,,,,,,SKC,,,,,,,,VFR,,,,,,,,,,,,METAR,2582.0
MMTM 300340Z E13005KT 7SM FEW010 BKN050 27/24 A2983 8/800,MMTM,2023-05-30T03:40:00Z,22.28,-97.87,27.0,24.0,130,5,,7.0,29.828741,,,,,,,,,,,FEW,1000,BKN,5000,,,,,VFR,,,,,,,,,,,,METAR,21.0
MMSP 300340Z 00000KT 8SM FEW030 19/12 A3016 RMK 8/500,MMSP,2023-05-30T03:40:00Z,22.25,-100.93,19.0,12.0,0,0,,8.0,30.159449,,,,,,,,,,,FEW,3000,,,,,,,VFR,,,,,,,,,,,,METAR,1841.0
MMSD 300340Z 10004KT 10SM SKC 26/04 A2991,MMSD,2023-05-30T03:40:00Z,23.15,-109.72,26.0,4.0,100,4,,10.0,29.911417,,,,,,,,,,,SKC,,,,,,,,VFR,,,,,,,,,,,,METAR,107.0
MMQT 300340Z 00000KT 8SM FEW020 21/05 A3021 RMK 8/500,MMQT,2023-05-30T03:40:00Z,20.62,-100.18,21.0,5.0,0,0,,8.0,30.209646,,,,,,,,,,,FEW,2000,,,,,,,VFR,,,,,,,,,,,,METAR,1909.0
MMML 300340Z 16007KT 10SM SKC 26/13 A2976,MMML,2023-05-30T03:40:00Z,32.62,-115.23,26.0,13.0,160,7,,10.0,29.760826,,,,,,,,,,,SKC,,,,,,,,VFR,,,,,,,,,,,,METAR,21.0
MMHO 300340Z 25004KT 10SM SKC 28/13 A2988 RMK HZY,MMHO,2023-05-30T03:40:00Z,29.08,-111.05,28.0,13.0,250,4,,10.0,29.878937,,,,,,,,,,,SKC,,,,,,,,VFR,,,,,,,,,,,,METAR,186.0
MMCL 300340Z 00000KT 10SM SKC 24/19 A2989 RMK HZY,MMCL,2023-05-30T03:40:00Z,24.77,-107.47,24.0,19.0,0,0,,10.0,29.890747,,,,,,,,,,,SKC,,,,,,,,VFR,,,,,,,,,,,,METAR,35.0
MMAN 300340Z 00000KT 10SM SKC 20/18 A2992,MMAN,2023-05-30T03:40:00Z,25.87,-100.23,20.0,18.0,0,0,,10.0,29.920275,,,,,,,,,,,SKC,,,,,,,,VFR,,,,,,,,,,,,METAR,447.0
KW40 300340Z AUTO 00000KT 10SM SCT024 OVC040 19/18 A2996 RMK AO2 T01900178,KW40,2023-05-30T03:40:00Z,35.22,-78.03,19.0,17.8,0,0,,10.0,29.958662,,,TRUE,TRUE,,,,,,,SCT,2400,OVC,4000,,,,,VFR,,,,,,,,,,,,METAR,50.0
KMHV 300340Z AUTO 22015KT 10SM CLR 18/07 A2990 RMK AO2,KMHV,2023-05-30T03:40:00Z,35.07,-118.15,18.0,7.0,220,15,,10.0,29.899607,,,TRUE,TRUE,,,,,,,CLR,,,,,,,,VFR,,,,,,,,,,,,METAR,841.0
KMCZ 300340Z AUTO 00000KT 2 1/2SM BR SCT002 19/18 A2995 RMK AO2 T01870185,KMCZ,2023-05-30T03:40:00Z,,,18.7,18.5,0,0,,2.5,29.949802,,,TRUE,TRUE,,,,,,BR,SCT,200,,,,,,,IFR,,,,,,,,,,,,METAR,
KI35 300340Z AUTO 00000KT 10SM CLR 16/16 A3003 RMK AO2,KI35,2023-05-30T03:40:00Z,36.87,-83.37,16.0,16.0,0,0,,10.0,30.029528,,,TRUE,TRUE,,,,,,,CLR,,,,,,,,VFR,,,,,,,,,,,,SPECI,467.0
KGZN 300340Z AUTO 16006KT 10SM CLR 19/18 A2993 RMK AO2,KGZN,2023-05-30T03:40:00Z,32.37,-99.02,19.0,18.0,160,6,,10.0,29.929134,,,TRUE,TRUE,,,,,,,CLR,,,,,,,,VFR,,,,,,,,,,,,METAR,522.0
KETC 300340Z AUTO 28003KT 7SM SCT037 SCT046 18/18 A2995 RMK AO2 T01810176,KETC,2023-05-30T03:40:00Z,35.93,-77.55,18.1,17.6,280,3,,7.0,29.949802,,,TRUE,TRUE,,,,,,,SCT,3700,SCT,4600,,,,,VFR,,,,,,,,,,,,METAR,15.0
ETMN 300340Z 35007KT 9000 -DZ BKN005 10/09 Q1026 YLO,ETMN,2023-05-30T03:40:00Z,53.77,8.67,10.0,9.0,350,7,,5.59,30.295275,,,,,,,,,,-DZ,BKN,500,,,,,,,IFR,,,,,,,,,,,,SPECI,23.0
KSFY 300337Z AUTO 00000KT 10SM CLR 19/07 A2996 RMK AO2,KSFY,2023-05-30T03:37:00Z,42.05,-90.12,19.0,7.0,0,0,,10.0,29.958662,,,TRUE,TRUE,,,,,,,CLR,,,,,,,,VFR,,,,,,,,,,,,SPECI,188.0
CYAT 300337Z AUTO 19005KT 6SM HZ 22/09 A2979 RMK CLD MISG SLP090 DENSITY ALT 1000FT,CYAT,2023-05-30T03:37:00Z,52.93,-82.43,22.0,9.0,190,5,,6.0,29.790354,1009.0,,TRUE,,,,,,,HZ,,,,,,,,,,,,,,,,,,,,,SPECI,4.0
KAPS 300336Z AUTO 23005KT 10SM CLR 24/19 A2993 RMK AO2,KAPS,2023-05-30T03:36:00Z,30.08,-90.58,24.0,19.0,230,5,,10.0,29.929134,,,TRUE,TRUE,,,,,,,CLR,,,,,,,,VFR,,,,,,,,,,,,SPECI,1.0
CYTE 300336Z AUTO 27009KT 9SM OVC003 00/00 A2949 RMK SLP991,CYTE,2023-05-30T03:36:00Z,64.22,-76.52,0.0,0.0,270,9,,9.0,29.489174,999.1,,TRUE,,,,,,,,OVC,300,,,,,,,LIFR,,,,,,,,,,,,SPECI,49.0
KOLE 300335Z AUTO 08005KT 10SM CLR 15/06 A3011 RMK AO2,KOLE,2023-05-30T03:35:00Z,42.23,-78.37,15.0,6.0,80,5,,10.0,30.109253,,,TRUE,TRUE,,,,,,,CLR,,,,,,,,VFR,,,,,,,,,,,,SPECI,651.0
KMWC 300335Z AUTO 00000KT 10SM CLR 17/00 A3002 RMK AO2,KMWC,2023-05-30T03:35:00Z,43.12,-88.03,17.0,0.0,0,0,,10.0,30.02067,,,TRUE,TRUE,,,,,,,CLR,,,,,,,,VFR,,,,,,,,,,,,METAR,225.0
KLZZ 300335Z AUTO 00000KT 10SM CLR 19/19 A2992 RMK AO2 T01870187,KLZZ,2023-05-30T03:35:00Z,31.1,-98.2,18.7,18.7,0,0,,10.0,29.920275,,,TRUE,TRUE,,,,,,,CLR,,,,,,,,VFR,,,,,,,,,,,,METAR,356.0
KETH 300335Z AUTO 13015KT 10SM CLR 22/14 A2975 RMK AO2 LTG DSNT NW,KETH,2023-05-30T03:35:00Z,45.78,-96.55,22.0,14.0,130,15,,10.0,29.749016,,,TRUE,TRUE,,,,,,,CLR,,,,,,,,VFR,,,,,,,,,,,,METAR,309.0
KBWD 300335Z AUTO 09003KT 7SM CLR 19/17 A2995 RMK AO1,KBWD,2023-05-30T03:35:00Z,31.8,-98.95,19.0,17.0,90,3,,7.0,29.949802,,,TRUE,TRUE,,,,,,,CLR,,,,,,,,VFR,,,,,,,,,,,,METAR,420.0
KMNE 300334Z AUTO 00000KT 10SM CLR 22/17 A2994 RMK AO2,KMNE,2023-05-30T03:34:00Z,32.65,-93.3,22.0,17.0,0,0,,10.0,29.940945,,,TRUE,TRUE,,,,,,,CLR,,,,,,,,VFR,,,,,,,,,,,,SPECI,84.0
LICZ 300332Z 23004KT 0100 FG SCT001 BKN010 OVC060 16/16 Q1011 RMK OVC VIS MIN 0100 WIND THR28 25004KT WIND THR10 23003KT A2987 RED,LICZ,2023-05-30T03:32:00Z,37.4,14.92,16.0,16.0,230,4,,0.06,29.852362,,,,,,,,,,FG,SCT,100,BKN,1000,OVC,6000,,,LIFR,,,,,,,,,,,,SPECI,22.0
ZYTX 300330Z 04002MPS 350V120 CAVOK 27/04 Q1013 NOSIG,ZYTX,2023-05-30T03:30:00Z,41.63,123.48,27.0,4.0,40,4,,6.21,29.911417,,,,,,TRUE,,,,,CAVOK,,,,,,,,VFR,,,,,,,,,,,,METAR,56.0
ZYTL 300330Z VRB01MPS 9999 BKN046 24/11 Q1014 NOSIG,ZYTL,2023-05-30T03:30:00Z,38.97,121.55,24.0,11.0,0,2,,6.21,29.940945,,,,,,TRUE,,,,,BKN,4600,,,,,,,VFR,,,,,,,,,,,,METAR,33.0
ZWWW 300330Z 25003MPS 220V300 CAVOK 21/M01 Q1022 NOSIG,ZWWW,2023-05-30T03:30:00Z,43.9,87.47,21.0,-1.0,250,6,,6.21,30.177166,,,,,,TRUE,,,,,CAVOK,,,,,,,,VFR,,,,,,,,,,,,METAR,654.0
ZSSS 300330Z VRB02MPS 9999 SCT020 29/22 Q1009 NOSIG,ZSSS,2023-05-30T03:30:00Z,31.2,121.33,29.0,22.0,0,4,,6.21,29.793306,,,,,,TRUE,,,,,SCT,2000,,,,,,,VFR,,,,,,,,,,,,METAR,2.0
ZSPD 300330Z 01003MPS 340V080 9999 BKN010 25/22 Q1009 NOSIG,ZSPD,2023-05-30T03:30:00Z,31.15,121.8,25.0,22.0,10,6,,6.21,29.793306,,,,,,TRUE,,,,,BKN,1000,,,,,,,MVFR,,,,,,,,,,,,METAR,4.0
ZSHC 300330Z 08002MPS 020V120 5000 BR BKN010 BKN020 28/24 Q1009 NOSIG,ZSHC,2023-05-30T03:30:00Z,30.22,120.43,28.0,24.0,80,4,,3.11,29.793306,,,,,,TRUE,,,,BR,BKN,1000,BKN,2000,,,,,MVFR,,,,,,,,,,,,METAR,8.0
ZGGG 300330Z 32004MPS 260V360 9999 FEW013 36/26 Q1005 NOSIG,ZGGG,2023-05-30T03:30:00Z,23.4,113.3,36.0,26.0,320,8,,6.21,29.675198,,,,,,TRUE,,,,,FEW,1300,,,,,,,VFR,,,,,,,,,,,,METAR,11.0
ZBYN 300330Z 19002MPS 140V240 9999 FEW016 17/14 Q1016 NOSIG,ZBYN,2023-05-30T03:30:00Z,37.73,112.63,17.0,14.0,190,4,,6.21,30.0,,,,,,TRUE,,,,,FEW,1600,,,,,,,VFR,,,,,,,,,,,,METAR,778.0
ZBTJ 300330Z 07002MPS CAVOK 26/10 Q1014 NOSIG,ZBTJ,2023-05-30T03:30:00Z,39.12,117.35,26.0,10.0,70,4,,6.21,29.940945,,,,,,TRUE,,,,,CAVOK,,,,,,,,VFR,,,,,,,,,,,,METAR,4.0
ZBAD 300330Z 05002MPS 010V080 CAVOK 24/14 Q1014 NOSIG,ZBAD,2023-05-30T03:30:00Z,39.5,116.42,24.0,14.0,50,4,,6.21,29.940945,,,,,,TRUE,,,,,CAVOK,,,,,,,,VFR,,,,,,,,,,,,METAR,25.0
ZBAA 300330Z 32002MPS 250V350 CAVOK 24/16 Q1014 NOSIG,ZBAA,2023-05-30T03:30:00Z,40.07,116.6,24.0,16.0,320,4,,6.21,29.940945,,,,,,TRUE,,,,,CAVOK,,,,,,,,VFR,,,,,,,,,,,,METAR,31.0
YWLM 300330Z 29013KT CAVOK 20/07 Q1021,YWLM,2023-05-30T03:30:00Z,-32.8,151.83,20.0,7.0,290,13,,6.21,30.147638,,,,,,,,,,,CAVOK,,,,,,,,VFR,,,,,,,,,,,,METAR,7.0
YMHB 300330Z 35009KT 9999 FEW043 SCT050 BKN280 17/09 Q1005 RF00.0/000.0,YMHB,2023-05-30T03:30:00Z,-42.83,147.52,17.0,9.0,350,9,,6.21,29.675198,,,,,,,,,,,FEW,4300,SCT,5000,BKN,28000,,,VFR,,,,,,,,,,,,SPECI,2.0
YLHI 300330Z 25011KT 9999 BKN035 BKN340 20/13 Q1020 RF00.0/000.0,YLHI,2023-05-30T03:30:00Z,-31.53,159.07,20.0,13.0,250,11,,6.21,30.11811,,,,,,,,,,,BKN,3500,BKN,34000,,,,,VFR,,,,,,,,,,,,METAR,2.0
WMKP 300330Z 00000KT 9999 FEW020 32/25 Q1010 NOSIG,WMKP,2023-05-30T03:30:00Z,5.28,100.27,32.0,25.0,0,0,,6.21,29.822834,,,,,,TRUE,,,,,FEW,2000,,,,,,,VFR,,,,,,,,,,,,METAR,4.0
WMKK 300330Z VRB02KT 9999 FEW018 34/23 Q1010 NOSIG,WMKK,2023-05-30T03:30:00Z,2.75,101.72,34.0,23.0,0,2,,6.21,29.822834,,,,,,TRUE,,,,,FEW,1800,,,,,,,VFR,,,,,,,,,,,,METAR,21.0
WIPP 300330Z 13006KT 090V180 9999 FEW010CB SCT010 31/24 Q1011 CB TO NW NOSIG,WIPP,2023-05-30T03:30:00Z,-2.88,104.7,31.0,24.0,130,6,,6.21,29.852362,,,,,,TRUE,,,,,FEW,1000,SCT,1000,,,,,VFR,,,,,,,,,,,,METAR,7.0
WIOO 300330Z 10007KT 9999 BKN012 31/26 Q1011 NOSIG,WIOO,2023-05-30T03:30:00Z,-0.15,109.4,31.0,26.0,100,7,,6.21,29.852362,,,,,,TRUE,,,,,BKN,1200,,,,,,,MVFR,,,,,,,,,,,,METAR,4.0
WIMM 300330Z 30006KT 9999 FEW020 32/23 Q1010 NOSIG,WIMM,2023-05-30T03:30:00Z,3.57,98.67,32.0,23.0,300,6,,6.21,29.822834,,,,,,TRUE,,,,,FEW,2000,,,,,,,VFR,,,,,,,,,,,,METAR,27.0
WIHH 300330Z 14006KT 5000 HZ SCT020 31/23 Q1011 NOSIG METAR ,WIHH,2023-05-30T03:30:00Z,-6.27,106.88,31.0,23.0,140,6,,3.11,29.852362,,,,,,TRUE,,,,HZ,SCT,2000,,,,,,,MVFR,,,,,,,,,,,,METAR,26.0
"WIEE 300330Z 25003KT 210V310 9999 VCTS FEW018CB SCT020 30/24 Q1011 NOSIG RMK CB TO W,SW",WIEE,2023-05-30T03:30:00Z,-0.78,100.28,30.0,24.0,250,3,,6.21,29.852362,,,,,,TRUE,,,,VCTS,FEW,1800,SCT,2000,,,,,VFR,,,,,,,,,,,,METAR,5.0
WIDN 300330Z 16008KT 9999 SCT017 31/27 Q1011 NOSIG,WIDN,2023-05-30T03:30:00Z,0.92,104.53,31.0,27.0,160,8,,6.21,29.852362,,,,,,TRUE,,,,,SCT,1700,,,,,,,VFR,,,,,,,,,,,,METAR,18.0
WIDD 300330Z 14008KT 9999 BKN014 32/25 Q1012 NOSIG,WIDD,2023-05-30T03:30:00Z,1.12,104.12,32.0,25.0,140,8,,6.21,29.88189,,,,,,TRUE,,,,,BKN,1400,,,,,,,MVFR,,,,,,,,,,,,METAR,26.0
WIBB 300330Z 00000KT 9999 FEW009 31/23 Q1010 NOSIG,WIBB,2023-05-30T03:30:00Z,0.47,101.45,31.0,23.0,0,0,,6.21,29.822834,,,,,,TRUE,,,,,FEW,900,,,,,,,VFR,,,,,,,,,,,,METAR,41.0
WBSB 300330Z 23006KT 9999 SCT015 FEW016CB BKN300 33/26 Q1011 NOSIG,WBSB,2023-05-30T03:30:00Z,4.93,114.92,33.0,26.0,230,6,,6.21,29.852362,,,,,,TRUE,,,,,SCT,1500,FEW,1600,BKN,30000,,,VFR,,,,,,,,,,,,METAR,15.0
WBKK 300330Z VRB04KT 9999 FEW014 34/26 Q1010 NOSIG,WBKK,2023-05-30T03:30:00Z,5.93,116.05,34.0,26.0,0,4,,6.21,29.822834,,,,,,TRUE,,,,,FEW,1400,,,,,,,VFR,,,,,,,,,,,,METAR,9.0
WBGG 300330Z 12004KT 070V170 9999 SCT016 28/25 Q1012 NOSIG,WBGG,2023-05-30T03:30:00Z,1.48,110.35,28.0,25.0,120,4,,6.21,29.88189,,,,,,TRUE,,,,,SCT,1600,,,,,,,VFR,,,,,,,,,,,,METAR,26.0
WATT 300330Z 12010G22KT 9999 FEW018 30/22 Q1013 NOSIG,WATT,2023-05-30T03:30:00Z,-10.17,123.67,30.0,22.0,120,10,22,6.21,29.911417,,,,,,TRUE,,,,,FEW,1800,,,,,,,VFR,,,,,,,,,,,,METAR,104.0
WAQQ 300330Z 27003KT 9999 SCT015 29/24 Q1011 NOSIG,WAQQ,2023-05-30T03:30:00Z,3.33,117.57,29.0,24.0,270,3,,6.21,29.852362,,,,,,TRUE,,,,,SCT,1500,,,,,,,VFR,,,,,,,,,,,,METAR,6.0
WAPP 300330Z 08005KT 040V130 2000 RA FEW015CB SCT016 28/25 Q1011 NOSIG RMK CB TO SE,WAPP,2023-05-30T03:30:00Z,-3.7,128.08,28.0,25.0,80,5,,1.24,29.852362,,,,,,TRUE,,,,RA,FEW,1500,SCT,1600,,,,,IFR,,,,,,,,,,,,METAR,20.0
WAOO 300330Z 07005KT 9999 SCT020 33/23 Q1010 NOSIG,WAOO,2023-05-30T03:30:00Z,-3.45,114.77,33.0,23.0,70,5,,6.21,29.822834,,,,,,TRUE,,,,,SCT,2000,,,,,,,VFR,,,,,,,,,,,,METAR,23.0
WALL 300330Z 21006KT 190V260 9999 FEW018 30/25 Q1011 NOSIG,WALL,2023-05-30T03:30:00Z,-1.27,116.9,30.0,25.0,210,6,,6.21,29.852362,,,,,,TRUE,,,,,FEW,1800,,,,,,,VFR,,,,,,,,,,,,METAR,3.0
WAKK 300330Z 11011KT 9000 OVC015 29/23 Q1012 NOSIG,WAKK,2023-05-30T03:30:00Z,-8.52,140.42,29.0,23.0,110,11,,5.59,29.88189,,,,,,TRUE,,,,,OVC,1500,,,,,,,MVFR,,,,,,,,,,,,METAR,5.0
WAHS 300330Z 09010KT 8000 FEW014 31/21 Q1011 NOSIG,WAHS,2023-05-30T03:30:00Z,-6.98,110.38,31.0,21.0,90,10,,4.97,29.852362,,,,,,TRUE,,,,,FEW,1400,,,,,,,MVFR,,,,,,,,,,,,METAR,3.0
WADD 300330Z 11009KT 9999 FEW017 30/24 Q1012 NOSIG,WADD,2023-05-30T03:30:00Z,-8.73,115.17,30.0,24.0,110,9,,6.21,29.88189,,,,,,TRUE,,,,,FEW,1700,,,,,,,VFR,,,,,,,,,,,,METAR,3.0
WABB 300330Z 13007KT 100V170 9999 FEW018 32/27 Q1009 NOSIG,WABB,2023-05-30T03:30:00Z,-1.18,136.12,32.0,27.0,130,7,,6.21,29.793306,,,,,,TRUE,,,,,FEW,1800,,,,,,,VFR,,,,,,,,,,,,METAR,12.0
WAAA 300330Z 09005KT 060V140 9999 FEW019 33/21 Q1011 NOSIG,WAAA,2023-05-30T03:30:00Z,-5.07,119.55,33.0,21.0,90,5,,6.21,29.852362,,,,,,TRUE,,,,,FEW,1900,,,,,,,VFR,,,,,,,,,,,,METAR,13.0
VYMD 300330Z 18005KT 7000 FEW025 32/24 Q1008 NOSIG,VYMD,2023-05-30T03:30:00Z,21.7,95.98,32.0,24.0,180,5,,4.35,29.763779,,,,,,TRUE,,,,,FEW,2500,,,,,,,MVFR,,,,,,,,,,,,METAR,87.0
VQPR 300330Z 05003KT 010V150 9999 FEW020 FEW060 23/11 Q1024,VQPR,2023-05-30T03:30:00Z,27.4,89.43,23.0,11.0,50,3,,6.21,30.236221,,,,,,,,,,,FEW,2000,FEW,6000,,,,,VFR,,,,,,,,,,,,METAR,2227.0
VOPB 300330Z 25008KT 6000 SCT014 BKN080 31/26 Q1010 NOSIG,VOPB,2023-05-30T03:30:00Z,11.63,92.73,31.0,26.0,250,8,,3.73,29.822834,,,,,,TRUE,,,,,SCT,1400,BKN,8000,,,,,MVFR,,,,,,,,,,,,METAR,1.0
VOND 300330Z 12006KT 9999 FEW080 30/21 Q1012 NOSIG,VOND,2023-05-30T03:30:00Z,19.18,77.32,30.0,21.0,120,6,,6.21,29.88189,,,,,,TRUE,,,,,FEW,8000,,,,,,,VFR,,,,,,,,,,,,METAR,86.0
VOMM 300330Z 21008KT 5000 FEW020 32/28 Q1009 NOSIG,VOMM,2023-05-30T03:30:00Z,13.0,80.17,32.0,28.0,210,8,,3.11,29.793306,,,,,,TRUE,,,,,FEW,2000,,,,,,,MVFR,,,,,,,,,,,,METAR,7.0
VOKN 300330Z 12004KT 6000 FEW012 30/26 Q1010 NOSIG,VOKN,2023-05-30T03:30:00Z,11.92,75.55,30.0,26.0,120,4,,3.73,29.822834,,,,,,TRUE,,,,,FEW,1200,,,,,,,MVFR,,,,,,,,,,,,METAR,105.0
VOHY 300330Z 09006KT 6000 FEW020 BKN100 27/19 Q1015 NOSIG,VOHY,2023-05-30T03:30:00Z,17.45,78.47,27.0,19.0,90,6,,3.73,29.970472,,,,,,TRUE,,,,,FEW,2000,BKN,10000,,,,,MVFR,,,,,,,,,,,,METAR,540.0
VOHS 300330Z 06010G20KT 5000 HZ SCT015 FEW030CB BKN100 26/19 Q1016 NOSIG,VOHS,2023-05-30T03:30:00Z,17.23,78.43,26.0,19.0,60,10,20,3.11,30.0,,,,,,TRUE,,,,HZ,SCT,1500,FEW,3000,BKN,10000,,,MVFR,,,,,,,,,,,,METAR,607.0
VOGO 300330Z 18006KT 6000 SCT020 30/26 Q1010 NOSIG,VOGO,2023-05-30T03:30:00Z,15.38,73.83,30.0,26.0,180,6,,3.73,29.822834,,,,,,TRUE,,,,,SCT,2000,,,,,,,MVFR,,,,,,,,,,,,METAR,56.0
VOGB 300330Z 23004KT 8000 FEW015 SCT020 BKN080 30/22 Q1014,VOGB,2023-05-30T03:30:00Z,17.35,76.85,30.0,22.0,230,4,,4.97,29.940945,,,,,,,,,,,FEW,1500,SCT,2000,BKN,8000,,,MVFR,,,,,,,,,,,,METAR,458.0
VOBM 300330Z 18005KT 9999 SCT012 SCT080 27/21 Q1017,VOBM,2023-05-30T03:30:00Z,15.85,74.62,27.0,21.0,180,5,,6.21,30.029528,,,,,,,,,,,SCT,1200,SCT,8000,,,,,VFR,,,,,,,,,,,,METAR,758.0
VMMC 300330Z 12005KT 100V160 9999 FEW025 32/26 Q1005 NOSIG,VMMC,2023-05-30T03:30:00Z,22.15,113.58,32.0,26.0,120,5,,6.21,29.675198,,,,,,TRUE,,,,,FEW,2500,,,,,,,VFR,,,,,,,,,,,,METAR,1.0
VISM 300330Z 00000KT 6000 SCT040 BKN060 19/15 Q1019,VISM,2023-05-30T03:30:00Z,31.08,77.07,19.0,15.0,0,0,,3.73,30.088583,,,,,,,,,,,SCT,4000,BKN,6000,,,,,MVFR,,,,,,,,,,,,METAR,1537.0
VILK 300330Z 14004KT 4500 HZ FEW100 33/25 Q1009 BECMG 5000 HZ,VILK,2023-05-30T03:30:00Z,26.75,80.88,33.0,25.0,140,4,,2.8,29.793306,,,,,,,,,,HZ,FEW,10000,,,,,,,IFR,,,,,,,,,,,,SPECI,121.0
VIJP 300330Z VRB03KT 3000 HZ FEW100 28/21 Q1013 NOSIG,VIJP,2023-05-30T03:30:00Z,26.82,75.8,28.0,21.0,0,3,,1.86,29.911417,,,,,,TRUE,,,,HZ,FEW,10000,,,,,,,IFR,,,,,,,,,,,,METAR,383.0
VIDP 300330Z 30003KT 1800 R28/2000 R29L/2000 HZ NSC 28/21 Q1011 NOSIG,VIDP,2023-05-30T03:30:00Z,28.57,77.12,28.0,21.0,300,3,,1.12,29.852362,,,,,,TRUE,,,,HZ,CLR,,,,,,,,IFR,,,,,,,,,,,,METAR,236.0
VIDN 300330Z 26005KT 6000 FEW030 BKN060 25/17 Q1013,VIDN,2023-05-30T03:30:00Z,30.2,78.18,25.0,17.0,260,5,,3.73,29.911417,,,,,,,,,,,FEW,3000,BKN,6000,,,,,MVFR,,,,,,,,,,,,METAR,550.0
VETJ 300330Z 00000KT 5000 HZ FEW100 33/23 Q1009 NOSIG,VETJ,2023-05-30T03:30:00Z,27.93,96.13,33.0,23.0,0,0,,3.11,29.793306,,,,,,TRUE,,,,HZ,FEW,10000,,,,,,,MVFR,,,,,,,,,,,,METAR,244.0
VERP 300330Z 24010KT 3000 HZ FEW100 35/20 Q1009 NOSIG,VERP,2023-05-30T03:30:00Z,21.18,81.73,35.0,20.0,240,10,,1.86,29.793306,,,,,,TRUE,,,,HZ,FEW,10000,,,,,,,IFR,,,,,,,,,,,,METAR,318.0
VEMR 300330Z 32004KT 4000 HZ FEW100 34/25 Q1010 BECMG 5000 HZ,VEMR,2023-05-30T03:30:00Z,25.88,93.77,34.0,25.0,320,4,,2.49,29.822834,,,,,,,,,,HZ,FEW,10000,,,,,,,IFR,,,,,,,,,,,,METAR,147.0
VELP 300330Z 04004KT 5000 HZ FEW018 SCT100 32/24 Q1011 NOSIG,VELP,2023-05-30T03:30:00Z,23.83,92.62,32.0,24.0,40,4,,3.11,29.852362,,,,,,TRUE,,,,HZ,FEW,1800,SCT,10000,,,,,MVFR,,,,,,,,,,,,METAR,429.0
VEHO 300330Z 18003KT 6000 NSW NSC 33/25 Q1009 NOSIG,VEHO,2023-05-30T03:30:00Z,,,33.0,25.0,180,3,,3.73,29.793306,,,,,,TRUE,,,,,CLR,,,,,,,,MVFR,,,,,,,,,,,,METAR,
VEBS 300330Z 19006KT 4000 HZ SCT018 31/31 Q1009 NOSIG,VEBS,2023-05-30T03:30:00Z,20.25,85.82,31.0,31.0,190,6,,2.49,29.793306,,,,,,TRUE,,,,HZ,SCT,1800,,,,,,,IFR,,,,,,,,,,,,METAR,42.0
VEBN 300330Z 01004KT 3000 HZ FEW025 33/22 Q1009 NOSIG,VEBN,2023-05-30T03:30:00Z,25.45,82.85,33.0,22.0,10,4,,1.86,29.793306,,,,,,TRUE,,,,HZ,FEW,2500,,,,,,,IFR,,,,,,,,,,,,METAR,81.0
VAUD 300330Z 04008KT 4000 HZ FEW030 SCT100 24/19 Q1014 BECMG 5000 HZ,VAUD,2023-05-30T03:30:00Z,24.62,73.9,24.0,19.0,40,8,,2.49,29.940945,,,,,,,,,,HZ,FEW,3000,SCT,10000,,,,,IFR,,,,,,,,,,,,METAR,506.0
VAKP 300330Z 03004KT 7000 NSC 30/20 Q1014,VAKP,2023-05-30T03:30:00Z,16.65,74.28,30.0,20.0,30,4,,4.35,29.940945,,,,,,,,,,,CLR,,,,,,,,MVFR,,,,,,,,,,,,METAR,612.0
VAID 300330Z 26004KT 6000 NSC 31/19 Q1014 NOSIG,VAID,2023-05-30T03:30:00Z,22.72,75.8,31.0,19.0,260,4,,3.73,29.940945,,,,,,TRUE,,,,,CLR,,,,,,,,MVFR,,,,,,,,,,,,METAR,564.0
VABO 300330Z 31008KT 5000 HZ NSC 30/23 Q1011 NOSIG,VABO,2023-05-30T03:30:00Z,22.33,73.22,30.0,23.0,310,8,,3.11,29.852362,,,,,,TRUE,,,,HZ,CLR,,,,,,,,MVFR,,,,,,,,,,,,METAR,36.0
UTNU 300330Z 06010KT CAVOK 23/01 Q1015 R31/CLRD70 NOSIG,UTNU,2023-05-30T03:30:00Z,41.58,60.63,23.0,1.0,60,10,,6.21,29.970472,,,,,,TRUE,,,,,CAVOK,,,,,,,,VFR,,,,,,,,,,,,METAR,97.0
UBBG 300330Z 27006KT 9999 SCT100 25/16 Q1011 NOSIG,UBBG,2023-05-30T03:30:00Z,40.73,46.32,25.0,16.0,270,6,,6.21,29.852362,,,,,,TRUE,,,,,SCT,10000,,,,,,,VFR,,,,,,,,,,,,METAR,333.0
RCTP 300330Z 03016KT 9999 FEW006 BKN008 BKN025 30/27 Q1004 NOSIG RMK A2965,RCTP,2023-05-30T03:30:00Z,25.07,121.22,30.0,27.0,30,16,,6.21,29.64567,,,,,,TRUE,,,,,FEW,600,BKN,800,BKN,2500,,,IFR,,,,,,,,,,,,METAR,33.0
RCNN 300330Z 26007KT 9999 FEW012 SCT025 32/22 Q1000 NOSIG RMK A2954,RCNN,2023-05-30T03:30:00Z,22.93,120.2,32.0,22.0,260,7,,6.21,29.52756,,,,,,TRUE,,,,,FEW,1200,SCT,2500,,,,,VFR,,,,,,,,,,,,METAR,15.0
RCMQ 300330Z 10004KT 9999 FEW012 SCT025 32/25 Q1001 NOSIG RMK A2956,RCMQ,2023-05-30T03:30:00Z,24.27,120.62,32.0,25.0,100,4,,6.21,29.557087,,,,,,TRUE,,,,,FEW,1200,SCT,2500,,,,,VFR,,,,,,,,,,,,METAR,202.0
RCKH 300330Z 25007KT 210V290 8000 FEW015 SCT025 BKN150 32/25 Q0999 NOSIG RMK A2952,RCKH,2023-05-30T03:30:00Z,22.57,120.33,32.0,25.0,250,7,,4.97,29.498032,,,,,,TRUE,,,,,FEW,1500,SCT,2500,BKN,15000,,,MVFR,,,,,,,,,,,,METAR,6.0
RCFN 300330Z 02016G29KT 310V080 9999 VCSH FEW030 BKN080 BKN180 32/23 Q1001 NOSIG RMK A2956,RCFN,2023-05-30T03:30:00Z,22.77,121.1,32.0,23.0,20,16,29,6.21,29.557087,,,,,,TRUE,,,,VCSH,FEW,3000,BKN,8000,BKN,18000,,,VFR,,,,,,,,,,,,METAR,42.0
NZWN 300330Z AUTO 36021G31KT 9999 SCT024/// BKN029/// BKN037/// 16/12 Q1009,NZWN,2023-05-30T03:30:00Z,-41.32,174.8,16.0,12.0,360,21,31,6.21,29.793306,,,TRUE,,,,,,,,SCT,2400,BKN,2900,BKN,3700,,,MVFR,,,,,,,,,,,,METAR,12.0
NZCH 300330Z AUTO 05007KT 330V090 9999 OVC090/// 17/07 Q1001,NZCH,2023-05-30T03:30:00Z,-43.48,172.52,17.0,7.0,50,7,,6.21,29.557087,,,TRUE,,,,,,,,OVC,9000,,,,,,,VFR,,,,,,,,,,,,METAR,36.0
NZAA 300330Z AUTO 35005KT 320V050 9999 BKN022/// 18/15 Q1015,NZAA,2023-05-30T03:30:00Z,-37.02,174.8,18.0,15.0,350,5,,6.21,29.970472,,,TRUE,,,,,,,,BKN,2200,,,,,,,MVFR,,,,,,,,,,,,METAR,7.0
NCRG 300330Z AUTO 13008KT 090V180 9999 BKN050/// 23/18 Q1016,NCRG,2023-05-30T03:30:00Z,-21.2,-159.82,23.0,18.0,130,8,,6.21,30.0,,,TRUE,,,,,,,,BKN,5000,,,,,,,VFR,,,,,,,,,,,,METAR,7.0
LQMO 300330Z 16005KT 110V180 9999 FEW035 SCT075 16/14 Q1012,LQMO,2023-05-30T03:30:00Z,43.28,17.83,16.0,14.0,160,5,,6.21,29.88189,,,,,,,,,,,FEW,3500,SCT,7500,,,,,VFR,,,,,,,,,,,,METAR,49.0
KETN 300330Z AUTO 14003KT 10SM CLR 20/17 A2994 RMK AO2 T01960171,KETN,2023-05-30T03:30:00Z,32.42,-98.82,19.6,17.1,140,3,,10.0,29.940945,,,TRUE,TRUE,,,,,,,CLR,,,,,,,,VFR,,,,,,,,,,,,METAR,445.0
KDED 300330Z AUTO 00000KT 10SM CLR 21/17 A2994 RMK AO2 T02080166,KDED,2023-05-30T03:30:00Z,29.07,-81.28,20.8,16.6,0,0,,10.0,29.940945,,,TRUE,TRUE,,,,,,,CLR,,,,,,,,VFR,,,,,,,,,,,,METAR,21.0
KADW 300330Z 08011G18KT 6SM -RA BR FEW002 15/15 A3006 RMK DZE0257RAB0257 SLP185 $,KADW,2023-05-30T03:30:00Z,38.82,-76.87,15.0,15.0,80,11,18,6.0,30.059055,1018.5,,,,TRUE,,,,,-RA BR,FEW,200,,,,,,,VFR,,,,,,,,,,,,SPECI,87.0
HUEN 300330Z 18013KT 9999 -TSVCRA BKN018 FEW021CB 23/18 Q1017,HUEN,2023-05-30T03:30:00Z,0.03,32.45,23.0,18.0,180,13,,6.21,30.029528,,,,,,,,,,TS RA,BKN,1800,FEW,2100,,,,,MVFR,,,,,,,,,,,,METAR,1147.0
HKJK 300330Z 22004KT 9999 BKN016 15/14 Q1024 NOSIG,HKJK,2023-05-30T03:30:00Z,-1.32,36.92,15.0,14.0,220,4,,6.21,30.236221,,,,,,TRUE,,,,,BKN,1600,,,,,,,MVFR,,,,,,,,,,,,METAR,1615.0
GQNO 300330Z 01011KT 7000 NSC 30/11 Q1011 NOSIG,GQNO,2023-05-30T03:30:00Z,18.3,-15.97,30.0,11.0,10,11,,4.35,29.852362,,,,,,TRUE,,,,,CLR,,,,,,,,MVFR,,,,,,,,,,,,METAR,1.0
GOBD 300330Z 36010KT 8000 NSC 26/19 Q1010 NOSIG,GOBD,2023-05-30T03:30:00Z,14.67,-17.07,26.0,19.0,360,10,,4.97,29.822834,,,,,,TRUE,,,,,CLR,,,,,,,,MVFR,,,,,,,,,,,,METAR,90.0
GABS 300330Z 25007KT CAVOK 29/23 Q1011 NOSIG,GABS,2023-05-30T03:30:00Z,12.53,-7.95,29.0,23.0,250,7,,6.21,29.852362,,,,,,TRUE,,,,,CAVOK,,,,,,,,VFR,,,,,,,,,,,,METAR,375.0
FMEP 300330Z AUTO 03006KT 360V060 CAVOK 22/14 Q1019 BECMG 13010KT,FMEP,2023-05-30T03:30:00Z,-21.32,55.42,22.0,14.0,30,6,,6.21,30.088583,,,TRUE,,,,,,,,CAVOK,,,,,,,,VFR,,,,,,,,,,,,METAR,21.0
FMEE 300330Z AUTO 17007KT CAVOK 22/17 Q1019 BECMG 10015KT,FMEE,2023-05-30T03:30:00Z,-20.88,55.52,22.0,17.0,170,7,,6.21,30.088583,,,TRUE,,,,,,,,CAVOK,,,,,,,,VFR,,1.5,,,,,,,,,,SPECI,20.0
FDSK 300330Z VRB02KT 9999 FEW025 17/15 Q1023 NOSIG,FDSK,2023-05-30T03:30:00Z,-26.35,31.72,17.0,15.0,0,2,,6.21,30.206694,,,,,,TRUE,,,,,FEW,2500,,,,,,,VFR,,,,,,,,,,,,METAR,323.0
DTTJ 300330Z 06013KT 9999 FEW020 SCT030 21/17 Q1010 NOSIG,DTTJ,2023-05-30T03:30:00Z,33.87,10.77,21.0,17.0,60,13,,6.21,29.822834,,,,,,TRUE,,,,,FEW,2000,SCT,3000,,,,,VFR,,,,,,,,,,,,METAR,3.0
DTTA 300330Z 20002KT 9999 SCT030 18/17 Q1013,DTTA,2023-05-30T03:30:00Z,36.85,10.22,18.0,17.0,200,2,,6.21,29.911417,,,,,,,,,,,SCT,3000,,,,,,,VFR,,,,,,,,,,,,METAR,4.0
DTNH 300330Z 32004KT 8000 FEW026 SCT033 18/17 Q1012,DTNH,2023-05-30T03:30:00Z,36.07,10.43,18.0,17.0,320,4,,4.97,29.88189,,,,,,,,,,,FEW,2600,SCT,3300,,,,,MVFR,,,,,,,,,,,,METAR,1.0
DTMB 300330Z 01006KT 9999 FEW026 20/18 Q1012 NOSIG,DTMB,2023-05-30T03:30:00Z,35.77,10.75,20.0,18.0,10,6,,6.21,29.88189,,,,,,TRUE,,,,,FEW,2600,,,,,,,VFR,,,,,,,,,,,,METAR,1.0
KSAR 300329Z AUTO 00000KT 10SM CLR 19/11 A2997 RMK AO2,KSAR,2023-05-30T03:29:00Z,38.15,-89.7,19.0,11.0,0,0,,10.0,29.970472,,,TRUE,TRUE,,,,,,,CLR,,,,,,,,VFR,,,,,,,,,,,,METAR,162.0
KFAF 300326Z AUTO 06004KT 10SM BKN030 BKN100 20/19 A2995 RMK AO2 LTG DSNT E RAB03E26 TSB00E15 PRESFR SLP145 $,KFAF,2023-05-30T03:26:00Z,37.13,-76.62,20.0,19.0,60,4,,10.0,29.949802,1014.5,,TRUE,TRUE,TRUE,,,,,,BKN,3000,BKN,10000,,,,,MVFR,,,,,,,,,,,,METAR,3.0
CYSJ 300325Z 00000KT 15SM SKC 02/00 A3021 RMK SLP235,CYSJ,2023-05-30T03:25:00Z,45.32,-65.88,2.0,0.0,0,0,,15.0,30.209646,1023.5,,,,,,,,,,SKC,,,,,,,,VFR,,,,,,,,,,,,SPECI,89.0
RJNY 300324Z 17011KT 9999 -RA FEW006 BKN010 OVC090 21/19 Q1008 RMK 1ST006 6ST010 8AS090 A2979,RJNY,2023-05-30T03:24:00Z,34.82,138.3,21.0,19.0,170,11,,6.21,29.763779,,,,,,,,,,-RA,FEW,600,BKN,1000,OVC,9000,,,MVFR,,,,,,,,,,,,SPECI,7.0
ETHC 300323Z 25002KT 9000 BKN360 07/07 Q1025 BLU+,ETHC,2023-05-30T03:23:00Z,52.6,10.02,7.0,7.0,250,2,,5.59,30.265747,,,,,,,,,,,BKN,36000,,,,,,,VFR,,,,,,,,,,,,SPECI,35.0
UTO8 M M M 103/00/-04/0314/M/ PK WND 0322 0211Z 1024 46MM,UTO8,2023-05-30T03:22:00Z,,,,,,,,0.64,,,,,,,,,,,,,,,,,,,,,,,,,,,,,,,,SPECI,
RKSW 300322Z 17008KT 9999 BKN030 BKN180 26/21 A2983 RMK CIG030,RKSW,2023-05-30T03:22:00Z,37.25,127.0,26.0,21.0,170,8,,6.21,29.828741,,,,,,,,,,,BKN,3000,BKN,18000,,,,,MVFR,,,,,,,,,,,,SPECI,24.0
ETWM 300320Z AUTO 02005KT //// // ////// 10/06 Q1027 ///,ETWM,2023-05-30T03:20:00Z,52.72,7.33,10.0,6.0,20,5,,,30.324802,,,TRUE,,,,,,,,,,,,,,,,,,,,,,,,,,,,METAR,18.0
ETSN 300320Z 02004KT 9999 BKN200 BKN300 12/06 Q1019 BLU+,ETSN,2023-05-30T03:20:00Z,48.72,11.22,12.0,6.0,20,4,,6.21,30.088583,,,,,,,,,,,BKN,20000,BKN,30000,,,,,VFR,,,,,,,,,,,,METAR,378.0
ETSL 300320Z 01002KT 9999 SCT200 BKN260 10/05 Q1019 BLU+,ETSL,2023-05-30T03:20:00Z,48.18,10.87,10.0,5.0,10,2,,6.21,30.088583,,,,,,,,,,,SCT,20000,BKN,26000,,,,,VFR,,,,,,,,,,,,METAR,548.0
ETSI 300320Z 06002KT 9999 BKN200 BKN280 13/06 Q1019 BLU+,ETSI,2023-05-30T03:20:00Z,48.72,11.53,13.0,6.0,60,2,,6.21,30.088583,,,,,,,,,,,BKN,20000,BKN,28000,,,,,VFR,,,,,,,,,,,,METAR,366.0
ETSH 300320Z 31002KT 9999 SCT150 05/03 Q1023 BLU+BLU+,ETSH,2023-05-30T03:20:00Z,51.77,13.17,5.0,3.0,310,2,,6.21,30.206694,,,,,,,,,,,SCT,15000,,,,,,,VFR,,,,,,,,,,,,METAR,79.0
ETSB 300320Z AUTO 02007KT //// // ////// 09/03 Q1023 ///,ETSB,2023-05-30T03:20:00Z,50.17,7.07,9.0,3.0,20,7,,,30.206694,,,TRUE,,,,,,,,,,,,,,,,,,,,,,,,,,,,METAR,477.0
ETNW 300320Z 31007KT 9999 FEW009 BKN320 08/07 Q1025 BLU+,ETNW,2023-05-30T03:20:00Z,52.45,9.42,8.0,7.0,310,7,,6.21,30.265747,,,,,,,,,,,FEW,900,BKN,32000,,,,,VFR,,,,,,,,,,,,METAR,57.0
ETNS 300320Z 32005KT 9000 OVC013 10/08 Q1025 GRN,ETNS,2023-05-30T03:20:00Z,54.47,9.52,10.0,8.0,320,5,,5.59,30.265747,,,,,,,,,,,OVC,1300,,,,,,,MVFR,,,,,,,,,,,,METAR,22.0
ETNN 300320Z 35003KT 9999 BKN300 07/03 Q1025 BLU+,ETNN,2023-05-30T03:20:00Z,50.82,6.67,7.0,3.0,350,3,,6.21,30.265747,,,,,,,,,,,BKN,30000,,,,,,,VFR,,,,,,,,,,,,METAR,108.0
ETNL 300320Z 30006KT 9999 FEW060 08/07 Q1023 BLU+,ETNL,2023-05-30T03:20:00Z,53.92,12.27,8.0,7.0,300,6,,6.21,30.206694,,,,,,,,,,,FEW,6000,,,,,,,VFR,,,,,,,,,,,,METAR,40.0
ETNH 300320Z 31003KT 8000 BKN010 10/08 Q1025 GRN,ETNH,2023-05-30T03:20:00Z,54.32,9.55,10.0,8.0,310,3,,4.97,30.265747,,,,,,,,,,,BKN,1000,,,,,,,MVFR,,,,,,,,,,,,METAR,6.0
ETHS 300320Z AUTO 00000KT 5000 // ////// 05/04 Q1025 ///,ETHS,2023-05-30T03:20:00Z,52.92,10.18,5.0,4.0,0,0,,3.11,30.265747,,,TRUE,,,,,,,,,,,,,,,,,,,,,,,,,,,,METAR,71.0
ETHN 300320Z 04007KT 9999 BKN250 10/07 Q1021 BLU+,ETHN,2023-05-30T03:20:00Z,49.38,9.97,10.0,7.0,40,7,,6.21,30.147638,,,,,,,,,,,BKN,25000,,,,,,,VFR,,,,,,,,,,,,METAR,466.0
ETHL 300320Z AUTO 05006KT 9999 // ////// 12/06 Q1019 ///,ETHL,2023-05-30T03:20:00Z,48.22,9.92,12.0,6.0,50,6,,6.21,30.088583,,,TRUE,,,,,,,,,,,,,,,,,,,,,,,,,,,,METAR,536.0
ETHF 300320Z 31007KT 9999 BKN300 08/04 Q1025 BLU+,ETHF,2023-05-30T03:20:00Z,51.12,9.28,8.0,4.0,310,7,,6.21,30.265747,,,,,,,,,,,BKN,30000,,,,,,,VFR,,,,,,,,,,,,METAR,171.0
ETHB 300320Z AUTO 31004KT 9999 // ////// 08/07 Q1026 ///,ETHB,2023-05-30T03:20:00Z,52.27,9.07,8.0,7.0,310,4,,6.21,30.295275,,,TRUE,,,,,,,,,,,,,,,,,,,,,,,,,,,,METAR,69.0
ETHA 300320Z 02001KT 9999 SCT160 BKN240 08/05 Q1019 BLU+,ETHA,2023-05-30T03:20:00Z,47.83,10.87,8.0,5.0,20,1,,6.21,30.088583,,,,,,,,,,,SCT,16000,BKN,24000,,,,,VFR,,,,,,,,,,,,METAR,738.0
ETGG 300320Z AUTO 34010KT 9999 // ////// 11/08 Q1025 ///,ETGG,2023-05-30T03:20:00Z,54.83,9.5,11.0,8.0,340,10,,6.21,30.265747,,,TRUE,,,,,,,,,,,,,,,,,,,,,,,,,,,,METAR,33.0
RJDM 300319Z 27010KT 6000 -SHRA FEW005 SCT010 BKN020 23/22 Q1010 RMK 2ST005 3CU010 5CU020 A2983,RJDM,2023-05-30T03:19:00Z,33.32,130.42,23.0,22.0,270,10,,3.73,29.822834,,,,,,,,,,-SHRA,FEW,500,SCT,1000,BKN,2000,,,MVFR,,,,,,,,,,,,METAR,19.0
CYAW 300318Z 00000KT 15SM SKC 05/01 A3022 RMK DENSITY ALT -1346FT LAST OBS /NEXT 301000 UTC SLP233,CYAW,2023-05-30T03:18:00Z,44.63,-63.5,5.0,1.0,0,0,,15.0,30.221457,1023.3,,,,,,,,,,SKC,,,,,,,,VFR,,,,,,,,,,,,SPECI,50.0
RJOZ 300317Z 01007KT 330V030 9999 FEW010 SCT015 BKN045 22/21 Q1009 RMK 2ST010 4CU015 5SC045 A2982,RJOZ,2023-05-30T03:17:00Z,34.03,131.05,22.0,21.0,10,7,,6.21,29.793306,,,,,,,,,,,FEW,1000,SCT,1500,BKN,4500,,,VFR,,,,,,,,,,,,METAR,4.0
K40B 300316Z AUTO 00000KT 07/04 A3017 RMK AO1 SLP216 T00660037 51010 60000,K40B,2023-05-30T03:16:00Z,46.62,-69.52,6.6,3.7,0,0,,,30.171259,1021.6,,TRUE,TRUE,,,,,,,,,,,,,,,,1.0,,,,,,0.005,,,,,METAR,344.0
RJOF 300315Z 30005KT 270V330 4500 -SHRA BR FEW006 SCT020 BKN050 23/20 Q1009 RMK 1ST006 3CU020 7SC050 A2982 VIS SW-NW 6KM,RJOF,2023-05-30T03:15:00Z,34.03,131.55,23.0,20.0,300,5,,2.8,29.793306,,,,,,,,,,-SHRA BR,FEW,600,SCT,2000,BKN,5000,,,IFR,,,,,,,,,,,,SPECI,2.0
KTFP 300315Z AUTO 00000KT 10SM SCT035 25/22 A2991 RMK AO2 T02450219,KTFP,2023-05-30T03:15:00Z,27.92,-97.22,24.5,21.9,0,0,,10.0,29.911417,,,TRUE,TRUE,,,,,,,SCT,3500,,,,,,,VFR,,,,,,,,,,,,METAR,5.0
VCRI 300310Z 24008KT 9999 FEW018 30/27 Q1011 NOSIG,VCRI,2023-05-30T03:10:00Z,6.28,81.13,30.0,27.0,240,8,,6.21,29.852362,,,,,,TRUE,,,,,FEW,1800,,,,,,,VFR,,,,,,,,,,,,METAR,50.0
VCBI 300310Z 20003KT 110V250 9999 SCT016 30/27 Q1011 NOSIG,VCBI,2023-05-30T03:10:00Z,7.17,79.88,30.0,27.0,200,3,,6.21,29.852362,,,,,,TRUE,,,,,SCT,1600,,,,,,,VFR,,,,,,,,,,,,METAR,10.0
CYYQ 300309Z 36013G18KT 1/8SM R33/2600V3500FT/N FG VV002 04/03 A2957 RMK FG8 SLP017,CYYQ,2023-05-30T03:09:00Z,58.75,-94.07,4.0,3.0,360,13,18,0.13,29.568897,1001.7,,,,,,,,,FG,OVX,0,,,,,,,LIFR,,,,,,,,,,,200,SPECI,20.0
LIVC 300306Z AUTO 04022KT //// 05/05 Q1020,LIVC,2023-05-30T03:06:00Z,44.2,10.68,5.0,5.0,40,22,,,30.11811,,,TRUE,,,,,,,,,,,,,,,,,,,,,,,,,,,,SPECI,2139.0
ORSU 300305Z 23005KT 8000 -RA FEW045 BKN070 19/15 Q1019,ORSU,2023-05-30T03:05:00Z,35.57,45.32,19.0,15.0,230,5,,4.97,30.088583,,,,,,,,,,-RA,FEW,4500,BKN,7000,,,,,MVFR,,,,,,,,,,,,METAR,760.0
SVVL 300303Z AUTO ///01KT NCD ///// Q////,SVVL,2023-05-30T03:03:00Z,9.33,-70.58,,,,,,,,,,TRUE,,,,,,,,CLR,,,,,,,,,,,,,,,,,,,,SPECI,575.0
SVVA 300303Z AUTO 20001KT NCD 27/25 Q1013,SVVA,2023-05-30T03:03:00Z,10.15,-67.92,27.0,25.0,200,1,,,29.911417,,,TRUE,,,,,,,,CLR,,,,,,,,,,,,,,,,,,,,METAR,428.0
SVSR 300303Z AUTO NIL,SVSR,2023-05-30T03:03:00Z,7.87,-67.43,,,,,,,,,,TRUE,,,,,,,,,,,,,,,,,,,,,,,,,,,,SPECI,49.0
SVSA 300303Z AUTO NIL,SVSA,2023-05-30T03:03:00Z,7.83,-72.45,,,,,,,,,,TRUE,,,,,,,,,,,,,,,,,,,,,,,,,,,,SPECI,383.0
SVPR 300303Z AUTO 08010KT NCD 26/22 Q1014,SVPR,2023-05-30T03:03:00Z,8.3,-62.77,26.0,22.0,80,10,,,29.940945,,,TRUE,,,,,,,,CLR,,,,,,,,,,,,,,,,,,,,METAR,140.0
SVPA 300303Z AUTO NIL,SVPA,2023-05-30T03:03:00Z,5.62,-67.6,,,,,,,,,,TRUE,,,,,,,,,,,,,,,,,,,,,,,,,,,,METAR,77.0
SVMT 300303Z AUTO 04004KT NCD 25/25 Q1013,SVMT,2023-05-30T03:03:00Z,9.75,-63.17,25.0,25.0,40,4,,,29.911417,,,TRUE,,,,,,,,CLR,,,,,,,,,,,,,,,,,,,,METAR,67.0
SVMG 300303Z AUTO 10011KT NCD 32/26 Q1013,SVMG,2023-05-30T03:03:00Z,10.92,-63.97,32.0,26.0,100,11,,,29.911417,,,TRUE,,,,,,,,CLR,,,,,,,,,,,,,,,,,,,,METAR,16.0
SVMC 300303Z AUTO 01002KT NCD 29/25 Q1010,SVMC,2023-05-30T03:03:00Z,10.57,-71.72,29.0,25.0,10,2,,,29.822834,,,TRUE,,,,,,,,CLR,,,,,,,,,,,,,,,,,,,,METAR,76.0
SVLO 300303Z AUTO NIL,SVLO,2023-05-30T03:03:00Z,11.8,-66.18,,,,,,,,,,TRUE,,,,,,,,,,,,,,,,,,,,,,,,,,,,SPECI,3.0
SVJM 300303Z AUTO 21001KT NCD 25/24 Q1012,SVJM,2023-05-30T03:03:00Z,9.92,-67.38,25.0,24.0,210,1,,,29.88189,,,TRUE,,,,,,,,CLR,,,,,,,,,,,,,,,,,,,,METAR,448.0
SVGU 300303Z AUTO 25001KT NCD 36/25 Q1012,SVGU,2023-05-30T03:03:00Z,9.03,-69.75,36.0,25.0,250,1,,,29.88189,,,TRUE,,,,,,,,CLR,,,,,,,,,,,,,,,,,,,,METAR,165.0
SVGD 300303Z AUTO 10003KT NCD 26/26 Q1012,SVGD,2023-05-30T03:03:00Z,7.22,-70.75,26.0,26.0,100,3,,,29.88189,,,TRUE,,,,,,,,CLR,,,,,,,,,,,,,,,,,,,,METAR,129.0
SVFM 300303Z AUTO NIL,SVFM,2023-05-30T03:03:00Z,10.48,-66.83,,,,,,,,,,TRUE,,,,,,,,,,,,,,,,,,,,,,,,,,,,METAR,852.0
SVCS 300303Z AUTO 08004KT NCD 23/20 Q1016,SVCS,2023-05-30T03:03:00Z,10.3,-66.82,23.0,20.0,80,4,,,30.0,,,TRUE,,,,,,,,CLR,,,,,,,,,,,,,,,,,,,,METAR,656.0
SVCB 300303Z AUTO 10004KT NCD 26/22 Q1011,SVCB,2023-05-30T03:03:00Z,8.12,-63.53,26.0,22.0,100,4,,,29.852362,,,TRUE,,,,,,,,CLR,,,,,,,,,,,,,,,,,,,,METAR,47.0
SVBS 300303Z AUTO 04002KT NCD 25/21 Q1014,SVBS,2023-05-30T03:03:00Z,10.25,-67.65,25.0,21.0,40,2,,,29.940945,,,TRUE,,,,,,,,CLR,,,,,,,,,,,,,,,,,,,,METAR,435.0
SVBM 300303Z AUTO 10008KT NCD 23/21 Q1015,SVBM,2023-05-30T03:03:00Z,10.05,-69.37,23.0,21.0,100,8,,,29.970472,,,TRUE,,,,,,,,CLR,,,,,,,,,,,,,,,,,,,,METAR,624.0
SVBI 300303Z AUTO /////KT NCD 32/26 Q1015,SVBI,2023-05-30T03:03:00Z,8.62,-70.22,32.0,26.0,,,,,29.970472,,,TRUE,,,,,,,,CLR,,,,,,,,,,,,,,,,,,,,METAR,185.0
SVBC 300303Z AUTO 18004KT NCD 28/26 Q1012,SVBC,2023-05-30T03:03:00Z,10.12,-64.68,28.0,26.0,180,4,,,29.88189,,,TRUE,,,,,,,,CLR,,,,,,,,,,,,,,,,,,,,METAR,7.0
KRPX 300303Z AUTO 10SM 20/09 A2977 RMK Roundup ,KRPX,2023-05-30T03:03:00Z,46.47,-108.55,20.0,9.0,,,,10.0,29.769686,,,TRUE,,,,,,,,,,,,,,,,,,,,,,,,,,,,METAR,1062.0
ZYHB 300300Z VRB03MPS CAVOK 21/07 Q1015 NOSIG,ZYHB,2023-05-30T03:00:00Z,45.62,126.25,21.0,7.0,0,6,,6.21,29.970472,,,,,,TRUE,,,,,CAVOK,,,,,,,,VFR,,,,,,,,,,,,METAR,134.0
ZYCC 300300Z VRB03MPS CAVOK 22/02 Q1015 NOSIG,ZYCC,2023-05-30T03:00:00Z,43.98,125.68,22.0,2.0,0,6,,6.21,29.970472,,,,,,TRUE,,,,,CAVOK,,,,,,,,VFR,,,,,,,,,,,,METAR,211.0
ZWSH 300300Z 04006MPS 010V070 3700 DU FEW040 19/04 Q1022 NOSIG,ZWSH,2023-05-30T03:00:00Z,39.55,76.02,19.0,4.0,40,12,,2.3,30.177166,,,,,,TRUE,,,,DU,FEW,4000,,,,,,,IFR,,,,,,,,,,,,METAR,1374.0
ZUUU 300300Z VRB01MPS CAVOK 33/20 Q1011 NOSIG,ZUUU,2023-05-30T03:00:00Z,30.58,103.95,33.0,20.0,0,2,,6.21,29.852362,,,,,,TRUE,,,,,CAVOK,,,,,,,,VFR,,,,,,,,,,,,METAR,494.0
ZUTF 300300Z 35002MPS 260V030 CAVOK 32/21 Q1011 NOSIG,ZUTF,2023-05-30T03:00:00Z,30.3,104.43,32.0,21.0,350,4,,6.21,29.852362,,,,,,TRUE,,,,,CAVOK,,,,,,,,VFR,,,,,,,,,,,,METAR,443.0
ZUGY 300300Z 21002MPS 140V280 9999 FEW026 OVC043 27/21 Q1016 NOSIG,ZUGY,2023-05-30T03:00:00Z,26.53,106.8,27.0,21.0,210,4,,6.21,30.0,,,,,,TRUE,,,,,FEW,2600,OVC,4300,,,,,VFR,,,,,,,,,,,,METAR,1130.0
ZUCK 300300Z 28002MPS 230V320 4500 -SHRA BR SCT016 OVC033 27/24 Q1011 NOSIG,ZUCK,2023-05-30T03:00:00Z,29.72,106.63,27.0,24.0,280,4,,2.8,29.852362,,,,,,TRUE,,,,-SHRA BR,SCT,1600,OVC,3300,,,,,IFR,,,,,,,,,,,,METAR,416.0
ZSQD 300300Z 02003MPS 8000 NSC 23/18 Q1012 NOSIG,ZSQD,2023-05-30T03:00:00Z,36.27,120.38,23.0,18.0,20,6,,4.97,29.88189,,,,,,TRUE,,,,,CLR,,,,,,,,MVFR,,,,,,,,,,,,METAR,8.0
ZSOF 300300Z 30002MPS 9000 BKN008 23/21 Q1010 BECMG AT0500 BKN010,ZSOF,2023-05-30T03:00:00Z,31.98,116.97,23.0,21.0,300,4,,5.59,29.822834,,,,,,,,,,,BKN,800,,,,,,,IFR,,,,,,,,,,,,METAR,23.0
ZSNJ 300300Z VRB01MPS 5000 -RA BR BKN009 OVC023 23/22 Q1009 NOSIG,ZSNJ,2023-05-30T03:00:00Z,31.75,118.87,23.0,22.0,0,2,,3.11,29.793306,,,,,,TRUE,,,,-RA BR,BKN,900,OVC,2300,,,,,IFR,,,,,,,,,,,,METAR,27.0
ZSNB 300300Z 02003MPS 340V060 7000 BKN016 30/24 Q1008 NOSIG,ZSNB,2023-05-30T03:00:00Z,29.83,121.47,30.0,24.0,20,6,,4.35,29.763779,,,,,,TRUE,,,,,BKN,1600,,,,,,,MVFR,,,,,,,,,,,,METAR,5.0
ZSFZ 300300Z 03008MPS 9999 FEW017 30/22 Q1007 NOSIG,ZSFZ,2023-05-30T03:00:00Z,25.93,119.67,30.0,22.0,30,16,,6.21,29.734253,,,,,,TRUE,,,,,FEW,1700,,,,,,,VFR,,,,,,,,,,,,METAR,14.0
ZSAM 300300Z 04006MPS CAVOK 34/22 Q1004 NOSIG,ZSAM,2023-05-30T03:00:00Z,24.53,118.13,34.0,22.0,40,12,,6.21,29.64567,,,,,,TRUE,,,,,CAVOK,,,,,,,,VFR,,,,,,,,,,,,METAR,13.0
ZPPP 300300Z 24003MPS 190V280 CAVOK 26/14 Q1023 NOSIG,ZPPP,2023-05-30T03:00:00Z,25.0,102.65,26.0,14.0,240,6,,6.21,30.206694,,,,,,TRUE,,,,,CAVOK,,,,,,,,VFR,,,,,,,,,,,,METAR,1885.0
ZLXY 300300Z VRB02MPS 9999 FEW033 26/18 Q1015 NOSIG,ZLXY,2023-05-30T03:00:00Z,34.43,108.75,26.0,18.0,0,4,,6.21,29.970472,,,,,,TRUE,,,,,FEW,3300,,,,,,,VFR,,,,,,,,,,,,METAR,478.0
ZLLL 300300Z 10003MPS 040V140 8000 NSC 21/06 Q1022 NOSIG,ZLLL,2023-05-30T03:00:00Z,36.52,103.62,21.0,6.0,100,6,,4.97,30.177166,,,,,,TRUE,,,,,CLR,,,,,,,,MVFR,,,,,,,,,,,,METAR,1939.0
ZJSY 300300Z 20003MPS 150V250 CAVOK 31/25 Q1007 NOSIG,ZJSY,2023-05-30T03:00:00Z,18.3,109.42,31.0,25.0,200,6,,6.21,29.734253,,,,,,TRUE,,,,,CAVOK,,,,,,,,VFR,,,,,,,,,,,,METAR,27.0
ZJHK 300300Z 31005MPS 280V340 CAVOK 33/24 Q1007 NOSIG,ZJHK,2023-05-30T03:00:00Z,19.93,110.43,33.0,24.0,310,10,,6.21,29.734253,,,,,,TRUE,,,,,CAVOK,,,,,,,,VFR,,,,,,,,,,,,METAR,21.0
ZHHH 300300Z 02003MPS 340V050 9999 FEW014 SCT026 25/22 Q1010 NOSIG,ZHHH,2023-05-30T03:00:00Z,30.78,114.22,25.0,22.0,20,6,,6.21,29.822834,,,,,,TRUE,,,,,FEW,1400,SCT,2600,,,,,VFR,,,,,,,,,,,,METAR,33.0
ZHCC 300300Z 31004MPS 5000 BR SCT007 OVC030 22/19 Q1014 NOSIG,ZHCC,2023-05-30T03:00:00Z,34.52,113.83,22.0,19.0,310,8,,3.11,29.940945,,,,,,TRUE,,,,BR,SCT,700,OVC,3000,,,,,MVFR,,,,,,,,,,,,METAR,149.0
ZGSZ 300300Z 23002MPS 200V280 8000 NSC 33/27 Q1005 NOSIG,ZGSZ,2023-05-30T03:00:00Z,22.63,113.8,33.0,27.0,230,4,,4.97,29.675198,,,,,,TRUE,,,,,CLR,,,,,,,,MVFR,,,,,,,,,,,,METAR,18.0
ZGOW 300300Z VRB02MPS CAVOK 34/25 Q1004 NOSIG,ZGOW,2023-05-30T03:00:00Z,23.55,116.5,34.0,25.0,0,4,,6.21,29.64567,,,,,,TRUE,,,,,CAVOK,,,,,,,,VFR,,,,,,,,,,,,METAR,4.0
ZGNN 300300Z 27003MPS 230V320 9999 FEW030 34/24 Q1008 NOSIG,ZGNN,2023-05-30T03:00:00Z,22.62,108.17,34.0,24.0,270,6,,6.21,29.763779,,,,,,TRUE,,,,,FEW,3000,,,,,,,VFR,,,,,,,,,,,,METAR,128.0
ZGKL 300300Z VRB01MPS CAVOK 34/24 Q1009 NOSIG,ZGKL,2023-05-30T03:00:00Z,25.22,110.03,34.0,24.0,0,2,,6.21,29.793306,,,,,,TRUE,,,,,CAVOK,,,,,,,,VFR,,,,,,,,,,,,METAR,151.0
ZGHA 300300Z 34005MPS 7000 SCT016 OVC040 30/25 Q1009 NOSIG,ZGHA,2023-05-30T03:00:00Z,28.18,113.22,30.0,25.0,340,10,,4.35,29.793306,,,,,,TRUE,,,,,SCT,1600,OVC,4000,,,,,MVFR,,,,,,,,,,,,METAR,61.0
ZBSJ 300300Z 30002MPS 250V340 4000 BR SCT016 22/20 Q1014 NOSIG,ZBSJ,2023-05-30T03:00:00Z,38.28,114.7,22.0,20.0,300,4,,2.49,29.940945,,,,,,TRUE,,,,BR,SCT,1600,,,,,,,IFR,,,,,,,,,,,,METAR,70.0
ZBHH 300300Z 23001MPS 7000 -RA FEW016 SCT040 14/13 Q1015 NOSIG,ZBHH,2023-05-30T03:00:00Z,40.85,111.82,14.0,13.0,230,2,,4.35,29.970472,,,,,,TRUE,,,,-RA,FEW,1600,SCT,4000,,,,,MVFR,,,,,,,,,,,,METAR,1081.0
WMSA 300300Z 32004KT 260V030 9999 FEW018 33/22 Q1011,WMSA,2023-05-30T03:00:00Z,3.13,101.55,33.0,22.0,320,4,,6.21,29.852362,,,,,,,,,,,FEW,1800,,,,,,,VFR,,,,,,,,,,,,METAR,19.0
WMKN 300300Z VRB03KT 9999 FEW020 32/26 Q1010,WMKN,2023-05-30T03:00:00Z,5.37,103.1,32.0,26.0,0,3,,6.21,29.822834,,,,,,,,,,,FEW,2000,,,,,,,VFR,,,,,,,,,,,,METAR,12.0
WMKM 300300Z 20004KT 110V280 9999 SCT020 31/25 Q1011,WMKM,2023-05-30T03:00:00Z,2.27,102.25,31.0,25.0,200,4,,6.21,29.852362,,,,,,,,,,,SCT,2000,,,,,,,VFR,,,,,,,,,,,,METAR,9.0
WMKL 300300Z 26004KT 190V350 9999 FEW020 31/27 Q1010,WMKL,2023-05-30T03:00:00Z,6.32,99.72,31.0,27.0,260,4,,6.21,29.822834,,,,,,,,,,,FEW,2000,,,,,,,VFR,,,,,,,,,,,,METAR,4.0
WMKJ 300300Z VRB05KT 9999 FEW018 32/24 Q1010,WMKJ,2023-05-30T03:00:00Z,1.63,103.67,32.0,24.0,0,5,,6.21,29.822834,,,,,,,,,,,FEW,1800,,,,,,,VFR,,,,,,,,,,,,METAR,38.0
WMKI 300300Z 03003KT 320V120 9999 FEW020 32/23 Q1010,WMKI,2023-05-30T03:00:00Z,4.57,101.08,32.0,23.0,30,3,,6.21,29.822834,,,,,,,,,,,FEW,2000,,,,,,,VFR,,,,,,,,,,,,METAR,37.0
WMKE 300300Z 14004KT 070V240 9999 SCT017 31/27 Q1010,WMKE,2023-05-30T03:00:00Z,4.53,103.43,31.0,27.0,140,4,,6.21,29.822834,,,,,,,,,,,SCT,1700,,,,,,,VFR,,,,,,,,,,,,METAR,5.0
WMKD 300300Z VRB04KT 9999 FEW020 32/25 Q1010 NOSIG,WMKD,2023-05-30T03:00:00Z,3.77,103.22,32.0,25.0,0,4,,6.21,29.822834,,,,,,TRUE,,,,,FEW,2000,,,,,,,VFR,,,,,,,,,,,,METAR,18.0
WMKC 300300Z VRB03KT 9999 FEW018 31/24 Q1010,WMKC,2023-05-30T03:00:00Z,6.17,102.28,31.0,24.0,0,3,,6.21,29.822834,,,,,,,,,,,FEW,1800,,,,,,,VFR,,,,,,,,,,,,METAR,7.0
WMKB 300300Z 06003KT 010V110 8000 FEW020 32/25 Q1010 NOSIG,WMKB,2023-05-30T03:00:00Z,5.47,100.38,32.0,25.0,60,3,,4.97,29.822834,,,,,,TRUE,,,,,FEW,2000,,,,,,,MVFR,,,,,,,,,,,,METAR,4.0
WMKA 300300Z 15004KT 080V190 9999 FEW020 30/27 Q1010,WMKA,2023-05-30T03:00:00Z,6.2,100.4,30.0,27.0,150,4,,6.21,29.822834,,,,,,,,,,,FEW,2000,,,,,,,VFR,,,,,,,,,,,,METAR,5.0
WMBA 300300Z VRB03KT 9999 FEW021 32/25 Q1010,WMBA,2023-05-30T03:00:00Z,4.22,100.7,32.0,25.0,0,3,,6.21,29.822834,,,,,,,,,,,FEW,2100,,,,,,,VFR,,,,,,,,,,,,METAR,9.0
WMAU 300300Z VRB01KT 9999 SCT020 33/26 Q1010,WMAU,2023-05-30T03:00:00Z,2.38,103.88,33.0,26.0,0,1,,6.21,29.822834,,,,,,,,,,,SCT,2000,,,,,,,VFR,,,,,,,,,,,,METAR,5.0
WILL 300300Z 31004KT 9999 FEW015 29/24 Q1012 NOSIG,WILL,2023-05-30T03:00:00Z,-5.25,105.18,29.0,24.0,310,4,,6.21,29.88189,,,,,,TRUE,,,,,FEW,1500,,,,,,,VFR,,,,,,,,,,,,METAR,83.0
WBKW 300300Z 24007KT 180V290 9999 FEW016 32/26 Q1010,WBKW,2023-05-30T03:00:00Z,4.32,118.12,32.0,26.0,240,7,,6.21,29.822834,,,,,,,,,,,FEW,1600,,,,,,,VFR,,,,,,,,,,,,METAR,17.0
WBKT 300300Z 25009KT 210V300 9999 FEW014 33/26 Q1010,WBKT,2023-05-30T03:00:00Z,6.92,116.83,33.0,26.0,250,9,,6.21,29.822834,,,,,,,,,,,FEW,1400,,,,,,,VFR,,,,,,,,,,,,METAR,11.0
WBKS 300300Z VRB04KT 9999 FEW016 32/25 Q1009,WBKS,2023-05-30T03:00:00Z,5.9,118.07,32.0,25.0,0,4,,6.21,29.793306,,,,,,,,,,,FEW,1600,,,,,,,VFR,,,,,,,,,,,,METAR,13.0
WBKL 300300Z VRB03KT 9999 FEW015 31/25 Q1010,WBKL,2023-05-30T03:00:00Z,5.3,115.25,31.0,25.0,0,3,,6.21,29.822834,,,,,,,,,,,FEW,1500,,,,,,,VFR,,,,,,,,,,,,METAR,29.0
WBGY 300300Z VRB02KT 9999 SCT016 27/25 Q1012,WBGY,2023-05-30T03:00:00Z,1.22,111.45,27.0,25.0,0,2,,6.21,29.88189,,,,,,,,,,,SCT,1600,,,,,,,VFR,,,,,,,,,,,,METAR,13.0
WBGS 300300Z 13008KT 100V170 9999 FEW015 27/24 Q1011,WBGS,2023-05-30T03:00:00Z,2.27,111.98,27.0,24.0,130,8,,6.21,29.852362,,,,,,,,,,,FEW,1500,,,,,,,VFR,,,,,,,,,,,,METAR,26.0
WBGR 300300Z VRB06KT 9999 FEW015CB SCT016 32/27 Q1011,WBGR,2023-05-30T03:00:00Z,4.32,113.98,32.0,27.0,0,6,,6.21,29.852362,,,,,,,,,,,FEW,1500,SCT,1600,,,,,VFR,,,,,,,,,,,,METAR,18.0
WBGB 300300Z 16005KT 9999 -TSRA FEW008 SCT014 FEW015CB 26/24 Q1012,WBGB,2023-05-30T03:00:00Z,3.12,113.02,26.0,24.0,160,5,,6.21,29.88189,,,,,,,,,,-TSRA,FEW,800,SCT,1400,FEW,1500,,,VFR,,,,,,,,,,,,METAR,34.0
WAYY 300300Z 09012KT 9999 SCT016 31/26 Q1013 NOSIG,WAYY,2023-05-30T03:00:00Z,-4.53,136.88,31.0,26.0,90,12,,6.21,29.911417,,,,,,TRUE,,,,,SCT,1600,,,,,,,VFR,,,,,,,,,,,,METAR,32.0
VOSM 300300Z 10003KT 6000 NSC 29/23 Q1011 NOSIG,VOSM,2023-05-30T03:00:00Z,11.78,78.07,29.0,23.0,100,3,,3.73,29.852362,,,,,,TRUE,,,,,CLR,,,,,,,,MVFR,,,,,,,,,,,,METAR,301.0
VOJV 300300Z 00000KT 5000 SCT015 BKN080 27/23 Q1014,VOJV,2023-05-30T03:00:00Z,15.17,76.63,27.0,23.0,0,0,,3.11,29.940945,,,,,,,,,,,SCT,1500,BKN,8000,,,,,MVFR,,,,,,,,,,,,METAR,508.0
VIBR 300300Z 32009KT 7000 FEW010 BKN030 BKN080 15/14 Q1019,VIBR,2023-05-30T03:00:00Z,31.82,77.15,15.0,14.0,320,9,,4.35,30.088583,,,,,,,,,,,FEW,1000,BKN,3000,BKN,8000,,,MVFR,,,,,,,,,,,,METAR,1089.0
VGEG 300300Z 00000KT 3500 HZ FEW018 SCT100 32/25 Q1008 NOSIG,VGEG,2023-05-30T03:00:00Z,22.23,91.82,32.0,25.0,0,0,,2.17,29.763779,,,,,,TRUE,,,,HZ,FEW,1800,SCT,10000,,,,,IFR,,,,,,,,,,,,METAR,7.0
VELR 300300Z 05004KT 7000 NSC 31/24 Q1009,VELR,2023-05-30T03:00:00Z,27.3,94.1,31.0,24.0,50,4,,4.35,29.793306,,,,,,,,,,,CLR,,,,,,,,MVFR,,,,,,,,,,,,METAR,101.0
VEKO 300300Z 09002KT 4000 HZ NSC 32/22 Q1009,VEKO,2023-05-30T03:00:00Z,24.82,79.92,32.0,22.0,90,2,,2.49,29.793306,,,,,,,,,,HZ,CLR,,,,,,,,IFR,,,,,,,,,,,,METAR,222.0
VEKI 300300Z 33005KT 3000 HZ NSC 32/21 Q1008 NOSIG,VEKI,2023-05-30T03:00:00Z,26.78,83.88,32.0,21.0,330,5,,1.86,29.763779,,,,,,TRUE,,,,HZ,CLR,,,,,,,,IFR,,,,,,,,,,,,METAR,81.0
VEBI 300300Z 09003KT 5000 HZ FEW020 27/21 Q1014 NOSIG,VEBI,2023-05-30T03:00:00Z,25.7,91.98,27.0,21.0,90,3,,3.11,29.940945,,,,,,TRUE,,,,HZ,FEW,2000,,,,,,,MVFR,,,,,,,,,,,,METAR,892.0
VASD 300300Z 35006KT 6000 NSC 30/15 Q1014 NOSIG,VASD,2023-05-30T03:00:00Z,19.68,74.38,30.0,15.0,350,6,,3.73,29.940945,,,,,,TRUE,,,,,CLR,,,,,,,,MVFR,,,,,,,,,,,,METAR,587.0
VAPR 300300Z 27012KT 6000 SCT020 31/25 Q1010 NOSIG,VAPR,2023-05-30T03:00:00Z,21.63,69.67,31.0,25.0,270,12,,3.73,29.822834,,,,,,TRUE,,,,,SCT,2000,,,,,,,MVFR,,,,,,,,,,,,METAR,8.0
TTPP 300300Z 07004KT 9999 SCT015 26/24 Q1013 NOSIG,TTPP,2023-05-30T03:00:00Z,10.58,-61.35,26.0,24.0,70,4,,6.21,29.911417,,,,,,TRUE,,,,,SCT,1500,,,,,,,VFR,,,,,,,,,,,,METAR,11.0
TTCP 300300Z 08008KT 9999 FEW016 27/24 Q1012 NOSIG,TTCP,2023-05-30T03:00:00Z,11.15,-60.85,27.0,24.0,80,8,,6.21,29.88189,,,,,,TRUE,,,,,FEW,1600,,,,,,,VFR,,,,,,,,,,,,METAR,13.0
TNCA 300300Z 09013KT 9999 SCT016 28/25 Q1012 NOSIG,TNCA,2023-05-30T03:00:00Z,12.5,-70.0,28.0,25.0,90,13,,6.21,29.88189,,,,,,TRUE,,,,,SCT,1600,,,,,,,VFR,,,,,,,,,,,,METAR,7.0
TGPY 300300Z 09015KT 9999 FEW018 28/24 Q1013 NOSIG,TGPY,2023-05-30T03:00:00Z,12.0,-61.78,28.0,24.0,90,15,,6.21,29.911417,,,,,,TRUE,,,,,FEW,1800,,,,,,,VFR,,,,,,,,,,,,METAR,12.0
SUMU 300300Z 00000KT CAVOK 09/06 Q1024 NOSIG,SUMU,2023-05-30T03:00:00Z,-34.83,-56.02,9.0,6.0,0,0,,6.21,30.236221,,,,,,TRUE,,,,,CAVOK,,,,,,,,VFR,,,,,,,,,,,,METAR,32.0
SPTN 300300Z VRB02KT 9999 OVC027 16/13 Q1018 RMK PP000,SPTN,2023-05-30T03:00:00Z,-18.03,-70.28,16.0,13.0,0,2,,6.21,30.059055,,,,,,,,,,,OVC,2700,,,,,,,MVFR,,,,,,,,,,,,METAR,459.0
SPQU 300300Z 03005KT CAVOK 12/M02 Q1029 NOSIG RMK PP000,SPQU,2023-05-30T03:00:00Z,-16.33,-71.57,12.0,-2.0,30,5,,6.21,30.383858,,,,,,TRUE,,,,,CAVOK,,,,,,,,VFR,,,,,,,,,,,,METAR,2527.0
SPME 300300Z 16003KT 9999 BKN020 25/23 Q1012 RMK BIRD HAZARD RWY 32/14 PP000,SPME,2023-05-30T03:00:00Z,-3.55,-80.4,25.0,23.0,160,3,,6.21,29.88189,,,,,,,,,,,BKN,2000,,,,,,,MVFR,,,,,,,,,,,,SPECI,26.0
SPCL 300300Z 24002KT 9999 SCT020 SCT080 24/24 Q1013 RMK PP000,SPCL,2023-05-30T03:00:00Z,-8.38,-74.58,24.0,24.0,240,2,,6.21,29.911417,,,,,,,,,,,SCT,2000,SCT,8000,,,,,VFR,,,,,,,,,,,,SPECI,154.0
SKVP 300300Z 00000KT 9999 VCSH FEW015 SCT070 24/24 Q1014 RMK VCSH/SE A2994,SKVP,2023-05-30T03:00:00Z,10.43,-73.25,24.0,24.0,0,0,,6.21,29.940945,,,,,,,,,,VCSH,FEW,1500,SCT,7000,,,,,VFR,,,,,,,,,,,,METAR,137.0
SKMR 300300Z 00000KT 9999 FEW025 BKN200 25/25 Q1010 RMK A2985,SKMR,2023-05-30T03:00:00Z,8.82,-75.83,25.0,25.0,0,0,,6.21,29.822834,,,,,,,,,,,FEW,2500,BKN,20000,,,,,VFR,,,,,,,,,,,,METAR,12.0
SELT 300300Z 29001KT 9999 SCT040 08/08 Q1032,SELT,2023-05-30T03:00:00Z,-0.92,-78.62,8.0,8.0,290,1,,6.21,30.47244,,,,,,,,,,,SCT,4000,,,,,,,VFR,,,,,,,,,,,,METAR,2779.0
SECU 300300Z 08004KT 9999 BKN040 15/12 Q1028,SECU,2023-05-30T03:00:00Z,-2.88,-78.98,15.0,12.0,80,4,,6.21,30.35433,,,,,,,,,,,BKN,4000,,,,,,,VFR,,,,,,,,,,,,METAR,2516.0
SCRM 300300Z 05019KT 9999 BKN020 M05/M09 Q0998 NOSIG,SCRM,2023-05-30T03:00:00Z,-62.18,-58.98,-5.0,-9.0,50,19,,6.21,29.468504,,,,,,TRUE,,,,,BKN,2000,,,,,,,MVFR,,,,,,,,,,,,METAR,45.0
SBUR 300300Z 07004KT 9999 FEW020 BKN100 21/17 Q1020,SBUR,2023-05-30T03:00:00Z,-19.77,-47.97,21.0,17.0,70,4,,6.21,30.11811,,,,,,,,,,,FEW,2000,BKN,10000,,,,,VFR,,,,,,,,,,,,METAR,807.0
SBUL 300300Z 12008KT 9999 FEW040 20/15 Q1020,SBUL,2023-05-30T03:00:00Z,-18.87,-48.22,20.0,15.0,120,8,,6.21,30.11811,,,,,,,,,,,FEW,4000,,,,,,,VFR,,,,,,,,,,,,METAR,945.0
SBTU 300300Z AUTO /////KT ///V/// //// // ///////// ///// Q////,SBTU,2023-05-30T03:00:00Z,-3.78,-49.72,,,,,,,,,,TRUE,,,,,,,,,,,,,,,,,,,,,,,,,,,,METAR,250.0
SBTA 300300Z 15006KT 9999 FEW019 BKN035 17/13 Q1023,SBTA,2023-05-30T03:00:00Z,-23.03,-45.5,17.0,13.0,150,6,,6.21,30.206694,,,,,,,,,,,FEW,1900,BKN,3500,,,,,VFR,,,,,,,,,,,,METAR,578.0
SBSR 300300Z 17007KT CAVOK 20/15 Q1019,SBSR,2023-05-30T03:00:00Z,-20.8,-49.4,20.0,15.0,170,7,,6.21,30.088583,,,,,,,,,,,CAVOK,,,,,,,,VFR,,,,,,,,,,,,METAR,537.0
SBSM 300300Z 18003KT 9999 SCT040 11/11 Q1022,SBSM,2023-05-30T03:00:00Z,-29.72,-53.7,11.0,11.0,180,3,,6.21,30.177166,,,,,,,,,,,SCT,4000,,,,,,,VFR,,,,,,,,,,,,METAR,86.0
SBSC 300300Z 19008KT 9999 -RA BKN015 OVC030 19/18 Q1022,SBSC,2023-05-30T03:00:00Z,-22.92,-43.72,19.0,18.0,190,8,,6.21,30.177166,,,,,,,,,,-RA,BKN,1500,OVC,3000,,,,,MVFR,,,,,,,,,,,,METAR,6.0
SBMK 300300Z 20003KT CAVOK 20/13 Q1019,SBMK,2023-05-30T03:00:00Z,-16.7,-43.82,20.0,13.0,200,3,,6.21,30.088583,,,,,,,,,,,CAVOK,,,,,,,,VFR,,,,,,,,,,,,METAR,665.0
SBMG 300300Z 14008KT 9999 SCT040 BKN100 17/15 Q1020,SBMG,2023-05-30T03:00:00Z,-23.48,-52.02,17.0,15.0,140,8,,6.21,30.11811,,,,,,,,,,,SCT,4000,BKN,10000,,,,,VFR,,,,,,,,,,,,METAR,543.0
SBME 300300Z 26003KT 9999 FEW020 BKN080 20/20 Q1021,SBME,2023-05-30T03:00:00Z,-22.35,-41.77,20.0,20.0,260,3,,6.21,30.147638,,,,,,,,,,,FEW,2000,BKN,8000,,,,,VFR,,,,,,,,,,,,METAR,2.0
SBLE 300300Z AUTO VRB02KT 9999 BKN020 21/19 Q1019,SBLE,2023-05-30T03:00:00Z,-12.48,-41.28,21.0,19.0,0,2,,6.21,30.088583,,,TRUE,,,,,,,,BKN,2000,,,,,,,MVFR,,,,,,,,,,,,METAR,495.0
SBLB 300300Z AUTO 19020KT 9999 FEW051 24/17 Q1019 W///S5,SBLB,2023-05-30T03:00:00Z,-22.1,-39.92,24.0,17.0,190,20,,6.21,30.088583,,,TRUE,,,,,,,,FEW,5100,,,,,,,VFR,,,,,,,,,,,,METAR,10.0
SBKG 300300Z 11004KT 9999 FEW018 SCT070 22/21 Q1017,SBKG,2023-05-30T03:00:00Z,-7.27,-35.88,22.0,21.0,110,4,,6.21,30.029528,,,,,,,,,,,FEW,1800,SCT,7000,,,,,VFR,,,,,,,,,,,,METAR,499.0
SBJU 300300Z 16004KT 9999 BKN020 26/21 Q1017,SBJU,2023-05-30T03:00:00Z,-7.22,-39.27,26.0,21.0,160,4,,6.21,30.029528,,,,,,,,,,,BKN,2000,,,,,,,MVFR,,,,,,,,,,,,METAR,407.0
SBIP 300300Z AUTO 19003KT 6000 NCD 16/12 Q1020,SBIP,2023-05-30T03:00:00Z,-19.47,-42.48,16.0,12.0,190,3,,3.73,30.11811,,,TRUE,,,,,,,,CLR,,,,,,,,MVFR,,,,,,,,,,,,METAR,240.0
SBDN 300300Z 12012KT CAVOK 18/15 Q1019,SBDN,2023-05-30T03:00:00Z,-22.18,-51.43,18.0,15.0,120,12,,6.21,30.088583,,,,,,,,,,,CAVOK,,,,,,,,VFR,,,,,,,,,,,,METAR,438.0
SBCO 300300Z 10005KT 9999 FEW030 BKN080 14/11 Q1023,SBCO,2023-05-30T03:00:00Z,-29.95,-51.15,14.0,11.0,100,5,,6.21,30.206694,,,,,,,,,,,FEW,3000,BKN,8000,,,,,VFR,,,,,,,,,,,,METAR,8.0
SBCC 300300Z 04002KT CAVOK 23/19 Q1015,SBCC,2023-05-30T03:00:00Z,-9.33,-54.95,23.0,19.0,40,2,,6.21,29.970472,,,,,,,,,,,CAVOK,,,,,,,,VFR,,,,,,,,,,,,METAR,540.0
SBBH 300300Z 11004KT CAVOK 16/12 Q1021,SBBH,2023-05-30T03:00:00Z,-19.85,-43.95,16.0,12.0,110,4,,6.21,30.147638,,,,,,,,,,,CAVOK,,,,,,,,VFR,,,,,,,,,,,,METAR,799.0
SBAN 300300Z 13006KT CAVOK 20/15 Q1021,SBAN,2023-05-30T03:00:00Z,-16.22,-48.97,20.0,15.0,130,6,,6.21,30.147638,,,,,,,,,,,CAVOK,,,,,,,,VFR,,,,,,,,,,,,METAR,1131.0
SAZM 300300Z 32008KT CAVOK 09/08 Q1022 RMK PP///,SAZM,2023-05-30T03:00:00Z,-37.92,-57.57,9.0,8.0,320,8,,6.21,30.177166,,,,,,,,,,,CAVOK,,,,,,,,VFR,,,,,,,,,,,,METAR,17.0
SARC 300300Z 16004KT CAVOK 13/13 Q1020,SARC,2023-05-30T03:00:00Z,-27.43,-58.77,13.0,13.0,160,4,,6.21,30.11811,,,,,,,,,,,CAVOK,,,,,,,,VFR,,,,,,,,,,,,METAR,60.0
SAOC 300300Z 36003KT CAVOK 08/03 Q1021,SAOC,2023-05-30T03:00:00Z,-33.08,-64.27,8.0,3.0,360,3,,6.21,30.147638,,,,,,,,,,,CAVOK,,,,,,,,VFR,,,,,,,,,,,,METAR,422.0
RKSM 300300Z 08003KT 9999 SCT030 BKN200 27/19 A2983,RKSM,2023-05-30T03:00:00Z,37.43,127.12,27.0,19.0,80,3,,6.21,29.828741,,,,,,,,,,,SCT,3000,BKN,20000,,,,,VFR,,,,,,,,,,,,METAR,18.0
RJAW 300300Z 16012KT 130V190 9999 FEW010 SCT210 28/25 Q1013 RMK 2CU010 A2993 WIND BY EQPT/25,RJAW,2023-05-30T03:00:00Z,24.78,141.32,28.0,25.0,160,12,,6.21,29.911417,,,,,,,,,,,FEW,1000,SCT,21000,,,,,VFR,,,,,,,,,,,,SPECI,116.0
ORER 300300Z VRB02KT 8000 FEW040 BKN090 23/14 Q1015,ORER,2023-05-30T03:00:00Z,36.23,43.97,23.0,14.0,0,2,,4.97,29.970472,,,,,,,,,,,FEW,4000,BKN,9000,,,,,MVFR,,,,,,,,,,,,METAR,399.0
OJAM 300300Z VRB02KT 5000 HZ NSC 17/10 Q1016 NOSIG,OJAM,2023-05-30T03:00:00Z,31.98,35.98,17.0,10.0,0,2,,3.11,30.0,,,,,,TRUE,,,,HZ,CLR,,,,,,,,MVFR,,,,,,,,,,,,METAR,765.0
OIMT 300300Z AUTO 12002KT //// // ////// 28/00 Q1012,OIMT,2023-05-30T03:00:00Z,33.67,56.88,28.0,0.0,120,2,,,29.88189,,,TRUE,,,,,,,,,,,,,,,,,,,,,,,,,,,,METAR,693.0
OIBV 300300Z 30006KT 4000 BR NSC 28/27 Q1004,OIBV,2023-05-30T03:00:00Z,26.82,53.35,28.0,27.0,300,6,,2.49,29.64567,,,,,,,,,,BR,CLR,,,,,,,,IFR,,,,,,,,,,,,METAR,23.0
OEYN 300300Z 06005KT 9999 FEW040 27/25 Q1008 NOSIG,OEYN,2023-05-30T03:00:00Z,24.13,38.07,27.0,25.0,60,5,,6.21,29.763779,,,,,,TRUE,,,,,FEW,4000,,,,,,,VFR,,,,,,,,,,,,METAR,20.0
OEWJ 300300Z 36004KT CAVOK 26/22 Q1010 NOSIG,OEWJ,2023-05-30T03:00:00Z,26.18,36.47,26.0,22.0,360,4,,6.21,29.822834,,,,,,TRUE,,,,,CAVOK,,,,,,,,VFR,,,,,,,,,,,,METAR,8.0
OEWD 300300Z 32014KT 9999 SCT030 SCT080 28/17 Q1013,OEWD,2023-05-30T03:00:00Z,20.5,45.2,28.0,17.0,320,14,,6.21,29.911417,,,,,,,,,,,SCT,3000,SCT,8000,,,,,VFR,,,,,,,,,,,,METAR,629.0
OETR 300300Z 00000KT CAVOK 16/16 Q1016 NOSIG,OETR,2023-05-30T03:00:00Z,31.7,38.73,16.0,16.0,0,0,,6.21,30.0,,,,,,TRUE,,,,,CAVOK,,,,,,,,VFR,,,,,,,,,,,,METAR,854.0
OETF 300300Z 30004KT 9999 FEW025CB SCT030 21/15 Q1021 NOSIG,OETF,2023-05-30T03:00:00Z,21.47,40.53,21.0,15.0,300,4,,6.21,30.147638,,,,,,TRUE,,,,,FEW,2500,SCT,3000,,,,,VFR,,,,,,,,,,,,METAR,1460.0
OETB 300300Z 29006KT 9999 FEW040 20/17 Q1015 NOSIG,OETB,2023-05-30T03:00:00Z,28.37,36.62,20.0,17.0,290,6,,6.21,29.970472,,,,,,TRUE,,,,,FEW,4000,,,,,,,VFR,,,,,,,,,,,,METAR,770.0
OESK 300300Z 27004KT 9999 FEW020 19/19 Q1017 NOSIG,OESK,2023-05-30T03:00:00Z,29.78,40.1,19.0,19.0,270,4,,6.21,30.029528,,,,,,TRUE,,,,,FEW,2000,,,,,,,VFR,,,,,,,,,,,,METAR,671.0
OESH 300300Z 27008KT 8000 SCT040 SCT080 27/17 Q1014 NOSIG,OESH,2023-05-30T03:00:00Z,17.47,47.12,27.0,17.0,270,8,,4.97,29.940945,,,,,,TRUE,,,,,SCT,4000,SCT,8000,,,,,MVFR,,,,,,,,,,,,METAR,720.0
OERR 300300Z 27004KT 9999 SCT030 20/19 Q1013 NOSIG,OERR,2023-05-30T03:00:00Z,30.9,41.13,20.0,19.0,270,4,,6.21,29.911417,,,,,,TRUE,,,,,SCT,3000,,,,,,,VFR,,,,,,,,,,,,METAR,554.0
OERF 300300Z 08011KT CAVOK 26/12 Q1012 NOSIG,OERF,2023-05-30T03:00:00Z,29.62,43.48,26.0,12.0,80,11,,6.21,29.88189,,,,,,TRUE,,,,,CAVOK,,,,,,,,VFR,,,,,,,,,,,,METAR,441.0
OEPA 300300Z 36016KT 8000 SCT035 29/10 Q1012 NOSIG,OEPA,2023-05-30T03:00:00Z,28.33,46.12,29.0,10.0,360,16,,4.97,29.88189,,,,,,TRUE,,,,,SCT,3500,,,,,,,MVFR,,,,,,,,,,,,METAR,361.0
OENG 300300Z 26004KT 9999 FEW030 BKN090 22/16 Q1018 NOSIG,OENG,2023-05-30T03:00:00Z,17.62,44.42,22.0,16.0,260,4,,6.21,30.059055,,,,,,TRUE,,,,,FEW,3000,BKN,9000,,,,,VFR,,,,,,,,,,,,METAR,1210.0
OEMN 300300Z 18008KT 9999 TS FEW030CB BKN035 28/25 Q1014,OEMN,2023-05-30T03:00:00Z,,,28.0,25.0,180,8,,6.21,29.940945,,,,,,,,,,TS,FEW,3000,BKN,3500,,,,,VFR,,,,,,,,,,,,METAR,
OEKM 300300Z 00000KT 9999 BKN022 FEW025CB 16/12 Q1025 NOSIG,OEKM,2023-05-30T03:00:00Z,18.3,42.78,16.0,12.0,0,0,,6.21,30.265747,,,,,,TRUE,,,,,BKN,2200,FEW,2500,,,,,MVFR,,,,,,,,,,,,METAR,2038.0
OEKJ 300300Z 28005KT CAVOK 31/14 Q1015,OEKJ,2023-05-30T03:00:00Z,24.07,47.58,31.0,14.0,280,5,,6.21,29.970472,,,,,,,,,,,CAVOK,,,,,,,,VFR,,,,,,,,,,,,METAR,487.0
OEHL 300300Z 04004KT 5000 DU SCT040 20/17 Q1017,OEHL,2023-05-30T03:00:00Z,27.43,41.68,20.0,17.0,40,4,,3.11,30.029528,,,,,,,,,,DU,SCT,4000,,,,,,,MVFR,,,,,,,,,,,,METAR,1002.0
OEGT 300300Z 00000KT 9999 SCT040 17/15 Q1015 NOSIG,OEGT,2023-05-30T03:00:00Z,31.42,37.27,17.0,15.0,0,0,,6.21,29.970472,,,,,,TRUE,,,,,SCT,4000,,,,,,,VFR,,,,,,,,,,,,METAR,512.0
OEGS 300300Z 16003KT 9999 FEW040 25/15 Q1013,OEGS,2023-05-30T03:00:00Z,26.3,43.77,25.0,15.0,160,3,,6.21,29.911417,,,,,,,,,,,FEW,4000,,,,,,,VFR,,,,,,,,,,,,METAR,647.0
OEGN 300300Z 12005KT 9999 FEW030 BKN100 29/22 Q1010 NOSIG,OEGN,2023-05-30T03:00:00Z,16.9,42.58,29.0,22.0,120,5,,6.21,29.822834,,,,,,TRUE,,,,,FEW,3000,BKN,10000,,,,,VFR,,,,,,,,,,,,METAR,5.0
OEDM 300300Z 18005KT 9999 SCT040 23/19 Q1015,OEDM,2023-05-30T03:00:00Z,24.45,44.12,23.0,19.0,180,5,,6.21,29.970472,,,,,,,,,,,SCT,4000,,,,,,,VFR,,,,,,,,,,,,METAR,922.0
OEBH 300300Z 18004KT 9999 FEW040 21/20 Q1018 NOSIG,OEBH,2023-05-30T03:00:00Z,19.98,42.62,21.0,20.0,180,4,,6.21,30.059055,,,,,,TRUE,,,,,FEW,4000,,,,,,,VFR,,,,,,,,,,,,METAR,1167.0
OEBA 300300Z 16003KT 9999 SCT030 19/11 Q1022 NOSIG,OEBA,2023-05-30T03:00:00Z,20.3,41.63,19.0,11.0,160,3,,6.21,30.177166,,,,,,TRUE,,,,,SCT,3000,,,,,,,VFR,,,,,,,,,,,,METAR,1659.0
OEAO 300300Z 00000KT CAVOK 25/19 Q1014 NOSIG,OEAO,2023-05-30T03:00:00Z,26.48,38.12,25.0,19.0,0,0,,6.21,29.940945,,,,,,TRUE,,,,,CAVOK,,,,,,,,VFR,,,,,,,,,,,,METAR,615.0
OEAH 300300Z 31006KT CAVOK 31/05 Q1008 NOSIG,OEAH,2023-05-30T03:00:00Z,25.28,49.48,31.0,5.0,310,6,,6.21,29.763779,,,,,,TRUE,,,,,CAVOK,,,,,,,,VFR,,,,,,,,,,,,METAR,180.0
NVVA 300300Z 18003KT 9999 FEW020 BKN120 27/20 Q1015,NVVA,2023-05-30T03:00:00Z,-20.25,169.77,27.0,20.0,180,3,,6.21,29.970472,,,,,,,,,,,FEW,2000,BKN,12000,,,,,VFR,,,,,,,,,,,,METAR,7.0
NVSG 300300Z 12007KT 9999 SCT020 BKN040 28/23 Q1013,NVSG,2023-05-30T03:00:00Z,-15.3,167.97,28.0,23.0,120,7,,6.21,29.911417,,,,,,,,,,,SCT,2000,BKN,4000,,,,,VFR,,,,,,,,,,,,METAR,31.0
NIUE 300300Z 10013KT 9999 -SHRA SCT018 BKN030 26/24 Q1015,NIUE,2023-05-30T03:00:00Z,-19.07,-169.92,26.0,24.0,100,13,,6.21,29.970472,,,,,,,,,,-SHRA,SCT,1800,BKN,3000,,,,,MVFR,,,,,,,,,,,,METAR,22.0
MWCR 300300Z 18003KT 9999 FEW016TCU 28/24 Q1012,MWCR,2023-05-30T03:00:00Z,19.3,-81.37,28.0,24.0,180,3,,6.21,29.88189,,,,,,,,,,,FEW,1600,,,,,,,VFR,,,,,,,,,,,,METAR,4.0
MPDA 300300Z VRB01KT 9999 SCT017 BKN090 25/24 Q1010,MPDA,2023-05-30T03:00:00Z,8.4,-82.43,25.0,24.0,0,1,,6.21,29.822834,,,,,,,,,,,SCT,1700,BKN,9000,,,,,VFR,,,,,,,,,,,,METAR,15.0
MNMG 300300Z 09004KT 9999 FEW020CB SCT070 27/25 Q1009 A2981 CB NW/N FL NOSIG,MNMG,2023-05-30T03:00:00Z,12.15,-86.17,27.0,25.0,90,4,,6.21,29.793306,,,,,,TRUE,,,,,FEW,2000,SCT,7000,,,,,VFR,,,,,,,,,,,,METAR,59.0
MKJP 300300Z 14007KT 9999 FEW020 29/25 Q1012,MKJP,2023-05-30T03:00:00Z,17.93,-76.78,29.0,25.0,140,7,,6.21,29.88189,,,,,,,,,,,FEW,2000,,,,,,,VFR,,,,,,,,,,,,METAR,3.0
MDPP 300300Z 00000KT 9999 FEW018CB SCT020 SCT300 25/24 Q1012 CB/E/SE/S/SW/W,MDPP,2023-05-30T03:00:00Z,19.75,-70.57,25.0,24.0,0,0,,6.21,29.88189,,,,,,,,,,,FEW,1800,SCT,2000,SCT,30000,,,VFR,,,,,,,,,,,,METAR,9.0
MDLR 300300Z 00000KT 9999 SCT016 BKN300 25/24 Q1013,MDLR,2023-05-30T03:00:00Z,18.45,-68.92,25.0,24.0,0,0,,6.21,29.911417,,,,,,,,,,,SCT,1600,BKN,30000,,,,,VFR,,,,,,,,,,,,METAR,66.0
MDJB 300300Z 00000KT 9999 FEW018 23/22 Q1014,MDJB,2023-05-30T03:00:00Z,18.57,-69.98,23.0,22.0,0,0,,6.21,29.940945,,,,,,,,,,,FEW,1800,,,,,,,VFR,,,,,,,,,,,,METAR,24.0
LCPH 300300Z 01005KT 360V080 9999 FEW018 18/14 Q1012 NOSIG,LCPH,2023-05-30T03:00:00Z,34.72,32.47,18.0,14.0,10,5,,6.21,29.88189,,,,,,TRUE,,,,,FEW,1800,,,,,,,VFR,,,,,,,,,,,,METAR,8.0
LCLK 300300Z 28003KT 9999 FEW020 17/16 Q1012 NOSIG,LCLK,2023-05-30T03:00:00Z,34.87,33.62,17.0,16.0,280,3,,6.21,29.88189,,,,,,TRUE,,,,,FEW,2000,,,,,,,VFR,,,,,,,,,,,,METAR,2.0
HTZA 300300Z 18010KT 9999 SCT012 SCT080 26/23 Q1015 NOSIG,HTZA,2023-05-30T03:00:00Z,-6.22,39.22,26.0,23.0,180,10,,6.21,29.970472,,,,,,TRUE,,,,,SCT,1200,SCT,8000,,,,,VFR,,,,,,,,,,,,METAR,19.0
HTMW 300300Z 12015KT 9999 FEW019 FEW020CB 19/1415 Q1019 NOSIG,HTMW,2023-05-30T03:00:00Z,-2.43,32.92,,,120,15,,6.21,30.088583,,,,,,TRUE,,,,,FEW,1900,FEW,2000,,,,,VFR,,,,,,,,,,,,SPECI,1144.0
HTKJ 300300Z 00000KT 9999 BKN022 18/17 Q1021 NOSIG,HTKJ,2023-05-30T03:00:00Z,-3.42,37.07,18.0,17.0,0,0,,6.21,30.147638,,,,,,TRUE,,,,,BKN,2200,,,,,,,MVFR,,,,,,,,,,,,METAR,893.0
HTDA 300300Z 24005KT 9999 FEW010 23/22 Q1016 NOSIG,HTDA,2023-05-30T03:00:00Z,-6.88,39.2,23.0,22.0,240,5,,6.21,30.0,,,,,,TRUE,,,,,FEW,1000,,,,,,,VFR,,,,,,,,,,,,METAR,53.0
HKWJ 300300Z 18004KT 9999 FEW023 BKN090 25/21 Q1013,HKWJ,2023-05-30T03:00:00Z,1.75,40.08,25.0,21.0,180,4,,6.21,29.911417,,,,,,,,,,,FEW,2300,BKN,9000,,,,,VFR,,,,,,,,,,,,METAR,254.0
HKNW 300300Z 00000KT 9999 BKN016 15/14 Q1025,HKNW,2023-05-30T03:00:00Z,-1.32,36.82,15.0,14.0,0,0,,6.21,30.265747,,,,,,,,,,,BKN,1600,,,,,,,MVFR,,,,,,,,,,,,METAR,1666.0
HKNK 300300Z 00000KT CAVOK 13/11,HKNK,2023-05-30T03:00:00Z,-0.3,36.17,13.0,11.0,0,0,,6.21,,,,,,,,,,,,CAVOK,,,,,,,,VFR,,,,,,,,,,,,METAR,1900.0
HKNI 300300Z 12004KT 9999 SCT016 BKN080 15/14 RERA,HKNI,2023-05-30T03:00:00Z,-0.33,36.92,15.0,14.0,120,4,,6.21,,,,,,,,,,,,SCT,1600,BKN,8000,,,,,VFR,,,,,,,,,,,,METAR,1769.0
HKMO 300300Z 24003KT 9999 FEW018 BKN080 24/22 Q1014 NOSIG,HKMO,2023-05-30T03:00:00Z,-4.02,39.62,24.0,22.0,240,3,,6.21,29.940945,,,,,,TRUE,,,,,FEW,1800,BKN,8000,,,,,VFR,,,,,,,,,,,,METAR,55.0
HKML 300300Z 28008KT 9999 RA BKN020 OVC080 23/22 Q1014,HKML,2023-05-30T03:00:00Z,-3.22,40.1,23.0,22.0,280,8,,6.21,29.940945,,,,,,,,,,RA,BKN,2000,OVC,8000,,,,,MVFR,,,,,,,,,,,,METAR,20.0
HKME 300300Z 00000KT 9999 BKN014 16/14,HKME,2023-05-30T03:00:00Z,0.07,37.65,16.0,14.0,0,0,,6.21,,,,,,,,,,,,BKN,1400,,,,,,,MVFR,,,,,,,,,,,,METAR,1609.0
HKLO 300300Z 00000KT CAVOK 26/15 Q1013,HKLO,2023-05-30T03:00:00Z,3.12,35.62,26.0,15.0,0,0,,6.21,29.911417,,,,,,,,,,,CAVOK,,,,,,,,VFR,,,,,,,,,,,,METAR,503.0
HKKT 300300Z 00000KT CAVOK 14/11,HKKT,2023-05-30T03:00:00Z,0.97,34.97,14.0,11.0,0,0,,6.21,,,,,,,,,,,,CAVOK,,,,,,,,VFR,,,,,,,,,,,,METAR,1829.0
HKKI 300300Z 07004KT CAVOK 18/15 Q1018,HKKI,2023-05-30T03:00:00Z,-0.1,34.75,18.0,15.0,70,4,,6.21,30.059055,,,,,,,,,,,CAVOK,,,,,,,,VFR,,,,,,,,,,,,METAR,1152.0
HKGO 300300Z AUTO 10005KT 14/14 Q1028 A30.36,HKGO,2023-05-30T03:00:00Z,,,14.0,14.0,100,5,,,30.35433,,,TRUE,,,,,,,,,,,,,,,,,,,,,,,,,,,,METAR,
HKEM 300300Z 00000KT 9999 BKN014 16/15,HKEM,2023-05-30T03:00:00Z,-0.57,37.48,16.0,15.0,0,0,,6.21,,,,,,,,,,,,BKN,1400,,,,,,,MVFR,,,,,,,,,,,,METAR,1265.0
HKEL 300300Z 14005KT CAVOK 13/11 Q1025,HKEL,2023-05-30T03:00:00Z,0.4,35.23,13.0,11.0,140,5,,6.21,30.265747,,,,,,,,,,,CAVOK,,,,,,,,VFR,,,,,,,,,,,,METAR,2116.0
HETR 300300Z 30018KT 5000 SA NSC 24/22 Q1012,HETR,2023-05-30T03:00:00Z,28.22,33.65,24.0,22.0,300,18,,3.11,29.88189,,,,,,,,,,SA,CLR,,,,,,,,MVFR,,,,,,,,,,,,METAR,35.0
HESW 300300Z 10009KT CAVOK 19/11 Q1012,HESW,2023-05-30T03:00:00Z,29.35,25.5,19.0,11.0,100,9,,6.21,29.88189,,,,,,,,,,,CAVOK,,,,,,,,VFR,,,,,,,,,,,,METAR,101.0
HESN 300300Z 36003KT CAVOK 24/05 Q1012 NOSIG,HESN,2023-05-30T03:00:00Z,23.97,32.82,24.0,5.0,360,3,,6.21,29.88189,,,,,,TRUE,,,,,CAVOK,,,,,,,,VFR,,,,,,,,,,,,METAR,197.0
HESH 300300Z 35007KT 4000 HZ NSC 26/17 Q1012 NOSIG,HESH,2023-05-30T03:00:00Z,27.97,34.38,26.0,17.0,350,7,,2.49,29.88189,,,,,,TRUE,,,,HZ,CLR,,,,,,,,IFR,,,,,,,,,,,,METAR,50.0
HESG 300300Z 18004KT CAVOK 22/07 Q1011 NOSIG,HESG,2023-05-30T03:00:00Z,26.33,31.75,22.0,7.0,180,4,,6.21,29.852362,,,,,,TRUE,,,,,CAVOK,,,,,,,,VFR,,,,,,,,,,,,METAR,70.0
HEPS 300300Z 35004KT 9999 SCT020 21/18 Q1013 NOSIG,HEPS,2023-05-30T03:00:00Z,31.28,32.25,21.0,18.0,350,4,,6.21,29.911417,,,,,,TRUE,,,,,SCT,2000,,,,,,,VFR,,,,,,,,,,,,METAR,2.0
HEMM 300300Z 00000KT 9999 SCT020 17/16 Q1013 NOSIG,HEMM,2023-05-30T03:00:00Z,31.32,27.22,17.0,16.0,0,0,,6.21,29.911417,,,,,,TRUE,,,,,SCT,2000,,,,,,,VFR,,,,,,,,,,,,METAR,26.0
HEMA 300300Z 32006KT CAVOK 24/10 Q1011 NOSIG,HEMA,2023-05-30T03:00:00Z,25.55,34.58,24.0,10.0,320,6,,6.21,29.852362,,,,,,TRUE,,,,,CAVOK,,,,,,,,VFR,,,,,,,,,,,,METAR,77.0
HELX 300300Z 16002KT CAVOK 25/07 Q1012 NOSIG,HELX,2023-05-30T03:00:00Z,25.67,32.7,25.0,7.0,160,2,,6.21,29.88189,,,,,,TRUE,,,,,CAVOK,,,,,,,,VFR,,,,,,,,,,,,METAR,86.0
HEGN 300300Z 28006KT CAVOK 25/06 Q1012 NOSIG,HEGN,2023-05-30T03:00:00Z,27.18,33.8,25.0,6.0,280,6,,6.21,29.88189,,,,,,TRUE,,,,,CAVOK,,,,,,,,VFR,,,,,,,,,,,,METAR,14.0
HEBL 300300Z 00000KT CAVOK 22/07 Q1013 NOSIG,HEBL,2023-05-30T03:00:00Z,22.38,31.62,22.0,7.0,0,0,,6.21,29.911417,,,,,,TRUE,,,,,CAVOK,,,,,,,,VFR,,,,,,,,,,,,METAR,184.0
HEBA 300300Z 09003KT CAVOK 18/16 Q1013 NOSIG,HEBA,2023-05-30T03:00:00Z,30.92,29.7,18.0,16.0,90,3,,6.21,29.911417,,,,,,TRUE,,,,,CAVOK,,,,,,,,VFR,,,,,,,,,,,,METAR,41.0
HEAT 300300Z 20002KT CAVOK 22/04 Q1014 NOSIG,HEAT,2023-05-30T03:00:00Z,27.05,31.02,22.0,4.0,200,2,,6.21,29.940945,,,,,,TRUE,,,,,CAVOK,,,,,,,,VFR,,,,,,,,,,,,METAR,229.0
HCMM 300300Z 19007KT 9999 BKN020 27/25 Q1013,HCMM,2023-05-30T03:00:00Z,2.02,45.3,27.0,25.0,190,7,,6.21,29.911417,,,,,,,,,,,BKN,2000,,,,,,,MVFR,,,,,,,,,,,,METAR,6.0
HAAB 300300Z 00000KT 9999 BKN024 14/12 Q1O28,HAAB,2023-05-30T03:00:00Z,8.97,38.78,14.0,12.0,0,0,,6.21,,,,,,,,,,,,BKN,2400,,,,,,,MVFR,,,,,,,,,,,,METAR,2319.0
GUCY 300300Z 22004KT 9999 FEW015 29/26 Q1010 NOSIG,GUCY,2023-05-30T03:00:00Z,9.57,-13.62,29.0,26.0,220,4,,6.21,29.822834,,,,,,TRUE,,,,,FEW,1500,,,,,,,VFR,,,,,,,,,,,,METAR,10.0
GOTT 300300Z 16008KT CAVOK 34/21 Q1010,GOTT,2023-05-30T03:00:00Z,13.73,-13.65,34.0,21.0,160,8,,6.21,29.822834,,,,,,,,,,,CAVOK,,,,,,,,VFR,,,,,,,,,,,,METAR,53.0
GOSS 300300Z 01008KT 310V060 CAVOK 27/18 Q1010,GOSS,2023-05-30T03:00:00Z,16.05,-16.45,27.0,18.0,10,8,,6.21,29.822834,,,,,,,,,,,CAVOK,,,,,,,,VFR,,,,,,,,,,,,METAR,3.0
GOSP 300300Z 04002KT CAVOK 35/18 Q1008,GOSP,2023-05-30T03:00:00Z,16.68,-14.97,35.0,18.0,40,2,,6.21,29.763779,,,,,,,,,,,CAVOK,,,,,,,,VFR,,,,,,,,,,,,METAR,10.0
GOSM 300300Z 00000KT CAVOK 35/19 Q1008,GOSM,2023-05-30T03:00:00Z,15.6,-13.33,35.0,19.0,0,0,,6.21,29.763779,,,,,,,,,,,CAVOK,,,,,,,,VFR,,,,,,,,,,,,METAR,28.0
GOOD 300300Z 00000KT CAVOK 31/19 Q1009,GOOD,2023-05-30T03:00:00Z,14.65,-16.22,31.0,19.0,0,0,,6.21,29.793306,,,,,,,,,,,CAVOK,,,,,,,,VFR,,,,,,,,,,,,METAR,9.0
GOGS 300300Z 26004KT CAVOK 28/23 Q1010,GOGS,2023-05-30T03:00:00Z,12.4,-16.75,28.0,23.0,260,4,,6.21,29.822834,,,,,,,,,,,CAVOK,,,,,,,,VFR,,,,,,,,,,,,METAR,13.0
GOGG 300300Z 18006KT CAVOK 27/25 Q1011,GOGG,2023-05-30T03:00:00Z,12.55,-16.27,27.0,25.0,180,6,,6.21,29.852362,,,,,,,,,,,CAVOK,,,,,,,,VFR,,,,,,,,,,,,METAR,24.0
GMMB 300300Z AUTO 16005KT 9999 NSC 15/15 Q1017 NOSIG,GMMB,2023-05-30T03:00:00Z,33.65,-7.22,15.0,15.0,160,5,,6.21,30.029528,,,TRUE,,,TRUE,,,,,CLR,,,,,,,,VFR,,,,,,,,,,,,METAR,191.0
GLRB 300300Z 01003KT 9999 SCT012 FEW023CB 26/25 Q1010 NOSIG RMK CB-SW,GLRB,2023-05-30T03:00:00Z,6.25,-10.35,26.0,25.0,10,3,,6.21,29.822834,,,,,,TRUE,,,,,SCT,1200,FEW,2300,,,,,VFR,,,,,,,,,,,,SPECI,12.0
GANR 300300Z 04006KT CAVOK 34/18 Q1010,GANR,2023-05-30T03:00:00Z,15.23,-9.58,34.0,18.0,40,6,,6.21,29.822834,,,,,,,,,,,CAVOK,,,,,,,,VFR,,,,,,,,,,,,METAR,237.0
GAMB 300300Z 02010KT CAVOK 35/10 Q1008,GAMB,2023-05-30T03:00:00Z,14.52,-4.08,35.0,10.0,20,10,,6.21,29.763779,,,,,,,,,,,CAVOK,,,,,,,,VFR,,,,,,,,,,,,METAR,271.0
GAKD 300300Z 10008KT CAVOK 39/14 Q1008,GAKD,2023-05-30T03:00:00Z,14.48,-11.4,39.0,14.0,100,8,,6.21,29.763779,,,,,,,,,,,CAVOK,,,,,,,,VFR,,,,,,,,,,,,METAR,53.0
FZAA 300300Z 00000KT 6000 BKN014 24/22 Q1014 NOSIG,FZAA,2023-05-30T03:00:00Z,-4.38,15.45,24.0,22.0,0,0,,3.73,29.940945,,,,,,TRUE,,,,,BKN,1400,,,,,,,MVFR,,,,,,,,,,,,METAR,309.0
FYWW 300300Z AUTO 11004KT //// // ////// 03/M05 Q1021,FYWW,2023-05-30T03:00:00Z,-22.57,17.1,3.0,-5.0,110,4,,,30.147638,,,TRUE,,,,,,,,,,,,,,,,,,,,,,,,,,,,METAR,1672.0
FYWE 300300Z 00000KT CAVOK M00/M07 Q1022,FYWE,2023-05-30T03:00:00Z,-22.62,17.08,0.0,-7.0,0,0,,6.21,30.177166,,,,,,,,,,,CAVOK,,,,,,,,VFR,,,,,,,,,,,,METAR,1700.0
FYOA 300300Z AUTO 16005KT //// // ////// 14/M02 Q1015,FYOA,2023-05-30T03:00:00Z,-17.88,15.97,14.0,-2.0,160,5,,,29.970472,,,TRUE,,,,,,,,,,,,,,,,,,,,,,,,,,,,METAR,1099.0
FYLZ 300300Z AUTO 11006KT //// // ////// 09/06 Q1020,FYLZ,2023-05-30T03:00:00Z,-26.68,15.25,9.0,6.0,110,6,,,30.11811,,,TRUE,,,,,,,,,,,,,,,,,,,,,,,,,,,,METAR,129.0
FYKT 300300Z 00000KT CAVOK 04/00 Q1021,FYKT,2023-05-30T03:00:00Z,-26.53,18.12,4.0,0.0,0,0,,6.21,30.147638,,,,,,,,,,,CAVOK,,,,,,,,VFR,,,,,,,,,,,,METAR,1064.0
FYKM 300300Z AUTO 06004KT //// // ////// 13/09 Q1017,FYKM,2023-05-30T03:00:00Z,-17.63,24.18,13.0,9.0,60,4,,,30.029528,,,TRUE,,,,,,,,,,,,,,,,,,,,,,,,,,,,METAR,959.0
FYGF 300300Z AUTO 22005KT //// // ////// 13/M03 Q1020,FYGF,2023-05-30T03:00:00Z,-19.6,18.12,13.0,-3.0,220,5,,,30.11811,,,TRUE,,,,,,,,,,,,,,,,,,,,,,,,,,,,METAR,1407.0
FQCH 300300Z /////KT 9999 BKN015 14/14 Q1023,FQCH,2023-05-30T03:00:00Z,-19.15,33.43,14.0,14.0,,,,6.21,30.206694,,,,,,,,,,,BKN,1500,,,,,,,MVFR,,,,,,,,,,,,METAR,695.0
FOOL 300300Z 14006KT 9999 SCT011 26/23 Q1011 NOSIG,FOOL,2023-05-30T03:00:00Z,0.45,9.42,26.0,23.0,140,6,,6.21,29.852362,,,,,,TRUE,,,,,SCT,1100,,,,,,,VFR,,,,,,,,,,,,METAR,9.0
FNLU 300300Z 18007KT 9000 BKN020 25/21 Q1012,FNLU,2023-05-30T03:00:00Z,-8.85,13.22,25.0,21.0,180,7,,5.59,29.88189,,,,,,,,,,,BKN,2000,,,,,,,MVFR,,,,,,,,,,,,METAR,75.0
FMSD 300300Z 10006KT 9999 FEW016 SCT033 20/18 Q1021,FMSD,2023-05-30T03:00:00Z,-25.03,46.95,20.0,18.0,100,6,,6.21,30.147638,,,,,,,,,,,FEW,1600,SCT,3300,,,,,VFR,,,,,,,,,,,,METAR,7.0
FMNM 300300Z 17003KT 9999 FEW040 22/19 Q1017 NOSIG,FMNM,2023-05-30T03:00:00Z,-15.67,46.35,22.0,19.0,170,3,,6.21,30.029528,,,,,,TRUE,,,,,FEW,4000,,,,,,,VFR,,,,,,,,,,,,METAR,18.0
FMNA 300300Z 16006KT 9999 FEW020 23/18 Q1014,FMNA,2023-05-30T03:00:00Z,-12.33,49.28,23.0,18.0,160,6,,6.21,29.940945,,,,,,,,,,,FEW,2000,,,,,,,VFR,,,,,,,,,,,,METAR,108.0
FMMT 300300Z 23007KT 9999 VCSH SCT017 BKN033 23/21 Q1019 TEMPO 4000 RA,FMMT,2023-05-30T03:00:00Z,-18.12,49.38,23.0,21.0,230,7,,6.21,30.088583,,,,,,,,,,VCSH,SCT,1700,BKN,3300,,,,,VFR,,,,,,,,,,,,METAR,13.0
FMMS 300300Z 12008KT 8000 -RA BKN017 OVC040 23/22 Q1018,FMMS,2023-05-30T03:00:00Z,-17.08,49.82,23.0,22.0,120,8,,4.97,30.059055,,,,,,,,,,-RA,BKN,1700,OVC,4000,,,,,MVFR,,,,,,,,,,,,METAR,4.0
FMCH 300300Z 14005KT 9999 FEW020 SCT050 25/21 Q1015 NOSIG,FMCH,2023-05-30T03:00:00Z,-11.53,43.27,25.0,21.0,140,5,,6.21,29.970472,,,,,,TRUE,,,,,FEW,2000,SCT,5000,,,,,VFR,,,,,,,,,,,,METAR,30.0
FKYS 300300Z 25002KT 8000 BKN006 23/23 Q1017 NOSIG,FKYS,2023-05-30T03:00:00Z,3.82,11.52,23.0,23.0,250,2,,4.97,30.029528,,,,,,TRUE,,,,,BKN,600,,,,,,,IFR,,,,,,,,,,,,METAR,694.0
FKKD 300300Z 32004KT 280V010 9999 TS BKN013 FEW016CB 25/24 Q1011 NOSIG,FKKD,2023-05-30T03:00:00Z,4.0,9.72,25.0,24.0,320,4,,6.21,29.852362,,,,,,TRUE,,,,TS,BKN,1300,FEW,1600,,,,,MVFR,,,,,,,,,,,,METAR,10.0
FGSL 300300Z 00000KT 9999 FEW010 25/25 Q1012 NOSIG,FGSL,2023-05-30T03:00:00Z,3.75,8.72,25.0,25.0,0,0,,6.21,29.88189,,,,,,TRUE,,,,,FEW,1000,,,,,,,VFR,,,,,,,,,,,,METAR,23.0
FEFF 300300Z 00000KT 8000 FEW006 23/22 Q1013 NOSIG,FEFF,2023-05-30T03:00:00Z,4.4,18.52,23.0,22.0,0,0,,4.97,29.911417,,,,,,TRUE,,,,,FEW,600,,,,,,,MVFR,,,,,,,,,,,,METAR,364.0
FCPP 300300Z 14003KT 9999 SCT007 OVC026 24/23 Q1012 NOSIG,FCPP,2023-05-30T03:00:00Z,-4.82,11.9,24.0,23.0,140,3,,6.21,29.88189,,,,,,TRUE,,,,,SCT,700,OVC,2600,,,,,MVFR,,,,,,,,,,,,METAR,18.0
FCBB 300300Z VRB02KT 8000 NSC 23/22 Q1014 NOSIG,FCBB,2023-05-30T03:00:00Z,-4.25,15.25,23.0,22.0,0,2,,4.97,29.940945,,,,,,TRUE,,,,,CLR,,,,,,,,MVFR,,,,,,,,,,,,METAR,316.0
FBSK 300300Z 07010KT CAVOK 14/10 Q1020 NOSIG,FBSK,2023-05-30T03:00:00Z,-24.55,25.92,14.0,10.0,70,10,,6.21,30.11811,,,,,,TRUE,,,,,CAVOK,,,,,,,,VFR,,,,,,,,,,,,METAR,1007.0
FBPM 300300Z 13004KT CAVOK 10/06 Q1021,FBPM,2023-05-30T03:00:00Z,-21.17,27.48,10.0,6.0,130,4,,6.21,30.147638,,,,,,,,,,,CAVOK,,,,,,,,VFR,,,,,,,,,,,,METAR,1009.0
FBMN 300300Z 04006KT CAVOK 16/10 Q1017,FBMN,2023-05-30T03:00:00Z,-19.97,23.42,16.0,10.0,40,6,,6.21,30.029528,,,,,,,,,,,CAVOK,,,,,,,,VFR,,,,,,,,,,,,METAR,946.0
FBKE 300300Z 11002KT CAVOK 11/11 Q1019,FBKE,2023-05-30T03:00:00Z,-17.82,25.17,11.0,11.0,110,2,,6.21,30.088583,,,,,,,,,,,CAVOK,,,,,,,,VFR,,,,,,,,,,,,METAR,999.0
FALW 300300Z AUTO 02010KT //// // ////// 12/11 Q1015,FALW,2023-05-30T03:00:00Z,-32.97,18.17,12.0,11.0,20,10,,,29.970472,,,TRUE,,,,,,,,,,,,,,,,,,,,,,,,,,,,METAR,31.0
FABL 300300Z AUTO 01014KT //// R02///// // ///////// 13/09 Q1022,FABL,2023-05-30T03:00:00Z,-29.1,26.3,13.0,9.0,10,14,,,30.177166,,,TRUE,,,,,,,,,,,,,,,,,,,,,,,,,,,,SPECI,1348.0
EIME 300300Z 11006KT CAVOK 10/08 Q1031,EIME,2023-05-30T03:00:00Z,53.3,-6.45,10.0,8.0,110,6,,6.21,30.442913,,,,,,,,,,,CAVOK,,,,,,,,VFR,,,,,,,,,,,,METAR,90.0
DXXX 300300Z 08002KT 9999 FEW010 26/24 Q1012 NOSIG,DXXX,2023-05-30T03:00:00Z,6.17,1.25,26.0,24.0,80,2,,6.21,29.88189,,,,,,TRUE,,,,,FEW,1000,,,,,,,VFR,,,,,,,,,,,,METAR,22.0
DXSK 300300Z 00000KT CAVOK 24/24 Q////,DXSK,2023-05-30T03:00:00Z,9.0,1.15,24.0,24.0,0,0,,6.21,,,,,,,,,,,,CAVOK,,,,,,,,VFR,,,,,,,,,,,,METAR,381.0
DXNG 300300Z 18002KT CAVOK 24/23 Q1012,DXNG,2023-05-30T03:00:00Z,9.77,1.1,24.0,23.0,180,2,,6.21,29.88189,,,,,,,,,,,CAVOK,,,,,,,,VFR,,,,,,,,,,,,METAR,343.0
DTTN 300300Z /////KT 8000 SCT020 SCT030 16/15 Q1013,DTTN,2023-05-30T03:00:00Z,36.47,8.8,16.0,15.0,,,,4.97,29.911417,,,,,,,,,,,SCT,2000,SCT,3000,,,,,MVFR,,,,,,,,,,,,SPECI,145.0
DTTL 300300Z 25003KT 200V350 9999 SCT020 SCT030 18/17 Q1012,DTTL,2023-05-30T03:00:00Z,36.85,11.07,18.0,17.0,250,3,,6.21,29.88189,,,,,,,,,,,SCT,2000,SCT,3000,,,,,VFR,,,,,,,,,,,,METAR,18.0
DTTK 300300Z 01004KT 340V080 8000 SCT023 BKN030 19/17 Q1013,DTTK,2023-05-30T03:00:00Z,35.67,10.08,19.0,17.0,10,4,,4.97,29.911417,,,,,,,,,,,SCT,2300,BKN,3000,,,,,MVFR,,,,,,,,,,,,METAR,65.0
DTTD 300300Z AUTO 06010KT 020V090 NCD 19/15 Q1010,DTTD,2023-05-30T03:00:00Z,32.32,10.4,19.0,15.0,60,10,,,29.822834,,,TRUE,,,,,,,,CLR,,,,,,,,,,,,,,,,,,,,METAR,306.0
DTTB 300300Z 26004KT 9999 SCT020 SCT030 17/16 Q1013,DTTB,2023-05-30T03:00:00Z,37.25,9.8,17.0,16.0,260,4,,6.21,29.911417,,,,,,,,,,,SCT,2000,SCT,3000,,,,,VFR,,,,,,,,,,,,METAR,4.0
DRRN 300300Z 25009KT CAVOK 32/20 Q1009 NOSIG,DRRN,2023-05-30T03:00:00Z,13.47,2.17,32.0,20.0,250,9,,6.21,29.793306,,,,,,TRUE,,,,,CAVOK,,,,,,,,VFR,,,,,,,,,,,,METAR,223.0
DNMM 300300Z 09003KT 8000 FEW008 24/23 Q1013 NOSIG,DNMM,2023-05-30T03:00:00Z,6.57,3.32,24.0,23.0,90,3,,4.97,29.911417,,,,,,TRUE,,,,,FEW,800,,,,,,,MVFR,,,,,,,,,,,,METAR,27.0
DNKN 300300Z 23010KT CAVOK 27/23 Q1014 NOSIG,DNKN,2023-05-30T03:00:00Z,12.05,8.52,27.0,23.0,230,10,,6.21,29.940945,,,,,,TRUE,,,,,CAVOK,,,,,,,,VFR,,,,,,,,,,,,METAR,471.0
DGAA 300300Z 26005KT 9999 FEW018 BKN022 26/24 Q1011 NOSIG,DGAA,2023-05-30T03:00:00Z,5.58,-0.17,26.0,24.0,260,5,,6.21,29.852362,,,,,,TRUE,,,,,FEW,1800,BKN,2200,,,,,MVFR,,,,,,,,,,,,METAR,68.0
DFOO 300300Z 19011KT 9999 FEW020 28/23 Q1011,DFOO,2023-05-30T03:00:00Z,11.17,-4.32,28.0,23.0,190,11,,6.21,29.852362,,,,,,,,,,,FEW,2000,,,,,,,VFR,,,,,,,,,,,,METAR,461.0
DBBB 300300Z 06003KT 9999 FEW010 25/23 Q1011 NOSIG,DBBB,2023-05-30T03:00:00Z,6.35,2.38,25.0,23.0,60,3,,6.21,29.852362,,,,,,TRUE,,,,,FEW,1000,,,,,,,VFR,,,,,,,,,,,,METAR,4.0
DAUZ 300300Z 30004KT 6000 NSC 26/02 Q1009,DAUZ,2023-05-30T03:00:00Z,28.05,9.63,26.0,2.0,300,4,,3.73,29.793306,,,,,,,,,,,CLR,,,,,,,,MVFR,,,,,,,,,,,,METAR,567.0
DAUU 300300Z 08014KT 6000 FEW046 SCT200 22/08 Q1009,DAUU,2023-05-30T03:00:00Z,31.92,5.4,22.0,8.0,80,14,,3.73,29.793306,,,,,,,,,,,FEW,4600,SCT,20000,,,,,MVFR,,,,,,,,,,,,METAR,147.0
DAUT 300300Z 06004KT CAVOK 23/03 Q1007,DAUT,2023-05-30T03:00:00Z,29.25,0.27,23.0,3.0,60,4,,6.21,29.734253,,,,,,,,,,,CAVOK,,,,,,,,VFR,,,,,,,,,,,,METAR,307.0
DAUO 300300Z 08005KT 050V110 8000 NSC 21/13 Q1010,DAUO,2023-05-30T03:00:00Z,33.5,6.78,21.0,13.0,80,5,,4.97,29.822834,,,,,,,,,,,CLR,,,,,,,,MVFR,,,,,,,,,,,,METAR,55.0
DAUL 300300Z 01004KT CAVOK 17/06 Q1014,DAUL,2023-05-30T03:00:00Z,33.77,2.92,17.0,6.0,10,4,,6.21,29.940945,,,,,,,,,,,CAVOK,,,,,,,,VFR,,,,,,,,,,,,METAR,755.0
DAUK 300300Z 06005KT 8000 NSC 21/11 Q1010,DAUK,2023-05-30T03:00:00Z,33.08,6.08,21.0,11.0,60,5,,4.97,29.822834,,,,,,,,,,,CLR,,,,,,,,MVFR,,,,,,,,,,,,METAR,83.0
DAUI 300300Z 24005KT 9000 NSC 24/M05 Q1007,DAUI,2023-05-30T03:00:00Z,27.25,2.52,24.0,-5.0,240,5,,5.59,29.734253,,,,,,,,,,,CLR,,,,,,,,VFR,,,,,,,,,,,,METAR,271.0
DAUG 300300Z 05005KT 8000 NSC 21/08 Q1011,DAUG,2023-05-30T03:00:00Z,32.38,3.78,21.0,8.0,50,5,,4.97,29.852362,,,,,,,,,,,CLR,,,,,,,,MVFR,,,,,,,,,,,,METAR,444.0
DAUE 300300Z 06004KT 9999 SCT040 24/07 Q1010,DAUE,2023-05-30T03:00:00Z,30.57,2.87,24.0,7.0,60,4,,6.21,29.822834,,,,,,,,,,,SCT,4000,,,,,,,VFR,,,,,,,,,,,,METAR,396.0
DAUB 300300Z VRB02KT 9999 FEW040 21/11 Q1011,DAUB,2023-05-30T03:00:00Z,34.78,5.73,21.0,11.0,0,2,,6.21,29.852362,,,,,,,,,,,FEW,4000,,,,,,,VFR,,,,,,,,,,,,METAR,75.0
DAUA 300300Z 25008KT CAVOK 21/02 Q1008,DAUA,2023-05-30T03:00:00Z,27.83,-0.18,21.0,2.0,250,8,,6.21,29.763779,,,,,,,,,,,CAVOK,,,,,,,,VFR,,,,,,,,,,,,METAR,278.0
DAOY 300300Z 03009KT 9999 FEW015 BKN026 12/09 Q1015,DAOY,2023-05-30T03:00:00Z,33.72,1.08,12.0,9.0,30,9,,6.21,29.970472,,,,,,,,,,,FEW,1500,BKN,2600,,,,,MVFR,,,,,,,,,,,,METAR,1340.0
DAOV 300300Z VRB02KT CAVOK 13/08 Q1015,DAOV,2023-05-30T03:00:00Z,35.2,0.15,13.0,8.0,0,2,,6.21,29.970472,,,,,,,,,,,CAVOK,,,,,,,,VFR,,,,,,,,,,,,METAR,506.0
DAOR 300300Z 35022KT 4000 DRDU SCT033 16/07 Q1015,DAOR,2023-05-30T03:00:00Z,31.65,-2.27,16.0,7.0,350,22,,2.49,29.970472,,,,,,,,,,DRDU,SCT,3300,,,,,,,IFR,,,,,,,,,,,,METAR,809.0
DAOL 300300Z 14002KT CAVOK 14/10 Q1015,DAOL,2023-05-30T03:00:00Z,35.53,-0.52,14.0,10.0,140,2,,6.21,29.970472,,,,,,,,,,,CAVOK,,,,,,,,VFR,,,,,,,,,,,,METAR,103.0
DAOI 300300Z 00000KT CAVOK 16/13 Q1015,DAOI,2023-05-30T03:00:00Z,36.22,1.32,16.0,13.0,0,0,,6.21,29.970472,,,,,,,,,,,CAVOK,,,,,,,,VFR,,,,,,,,,,,,METAR,141.0
DAOF 300300Z 27018KT CAVOK 16/09 Q1013,DAOF,2023-05-30T03:00:00Z,27.7,-8.17,16.0,9.0,270,18,,6.21,29.911417,,,,,,,,,,,CAVOK,,,,,,,,VFR,,,,,,,,,,,,METAR,441.0
DAOB 300300Z 22004KT 9999 FEW023 10/09 Q1016,DAOB,2023-05-30T03:00:00Z,35.33,1.47,10.0,9.0,220,4,,6.21,30.0,,,,,,,,,,,FEW,2300,,,,,,,VFR,,,,,,,,,,,,METAR,976.0
DABT 300300Z 20003KT 9999 SCT023 12/12 Q1015,DABT,2023-05-30T03:00:00Z,35.75,6.32,12.0,12.0,200,3,,6.21,29.970472,,,,,,,,,,,SCT,2300,,,,,,,VFR,,,,,,,,,,,,METAR,813.0
DABS 300300Z 35003KT 8000 FEW023 BKN033 14/13 Q1014,DABS,2023-05-30T03:00:00Z,35.43,8.12,14.0,13.0,350,3,,4.97,29.940945,,,,,,,,,,,FEW,2300,BKN,3300,,,,,MVFR,,,,,,,,,,,,METAR,806.0
DAAY 300300Z 03016KT 9999 SCT030 SCT100 14/08 Q1018,DAAY,2023-05-30T03:00:00Z,33.53,-0.25,14.0,8.0,30,16,,6.21,30.059055,,,,,,,,,,,SCT,3000,SCT,10000,,,,,VFR,,,,,,,,,,,,METAR,1116.0
DAAV 300300Z VRB02KT 9999 FEW020 16/14 Q1013,DAAV,2023-05-30T03:00:00Z,36.8,5.88,16.0,14.0,0,2,,6.21,29.911417,,,,,,,,,,,FEW,2000,,,,,,,VFR,,,,,,,,,,,,METAR,11.0
DAAS 300300Z 01004KT 7000 SCT026 10/09 Q1016,DAAS,2023-05-30T03:00:00Z,36.18,5.33,10.0,9.0,10,4,,4.35,30.0,,,,,,,,,,,SCT,2600,,,,,,,MVFR,,,,,,,,,,,,METAR,1012.0
DAAP 300300Z 21004KT 6000 NSC 25/M02 Q1010,DAAP,2023-05-30T03:00:00Z,26.72,8.62,25.0,-2.0,210,4,,3.73,29.822834,,,,,,,,,,,CLR,,,,,,,,MVFR,,,,,,,,,,,,METAR,542.0
DAAJ 300300Z 22004KT CAVOK 23/M02 Q1012,DAAJ,2023-05-30T03:00:00Z,24.28,9.47,23.0,-2.0,220,4,,6.21,29.88189,,,,,,,,,,,CAVOK,,,,,,,,VFR,,,,,,,,,,,,METAR,962.0
DAAE 300300Z 24004KT 9000 FEW016 SCT033 BKN090 15/14 Q1013,DAAE,2023-05-30T03:00:00Z,36.72,5.07,15.0,14.0,240,4,,5.59,29.911417,,,,,,,,,,,FEW,1600,SCT,3300,BKN,9000,,,VFR,,,,,,,,,,,,METAR,1.0
CZZJ 300300Z AUTO 30004KT 17/06 RMK AO1 SLP073 T01720055 53006,CZZJ,2023-05-30T03:00:00Z,53.58,-116.47,17.2,5.5,300,4,,,,1007.3,,TRUE,TRUE,,,,,,,,,,,,,,,,0.6,,,,,,,,,,,METAR,927.0
CZVL 300300Z AUTO 03009G15KT 9SM FEW140 19/09 A2971 RMK SLP064 DENSITY ALT 3600FT,CZVL,2023-05-30T03:00:00Z,53.67,-113.85,19.0,9.0,30,9,15,9.0,29.71063,1006.4,,TRUE,,,,,,,,FEW,14000,,,,,,,VFR,,,,,,,,,,,,METAR,685.0
CZUM 300300Z AUTO 27002KT 9SM OVC130 03/M00 A3002 RMK SLP187,CZUM,2023-05-30T03:00:00Z,53.55,-64.1,3.0,0.0,270,2,,9.0,30.02067,1018.7,,TRUE,,,,,,,,OVC,13000,,,,,,,VFR,,,,,,,,,,,,SPECI,431.0
CZTB 300300Z AUTO 09007KT 13/03 RMK AO1 SLP146 T01280032 51004,CZTB,2023-05-30T03:00:00Z,48.37,-89.32,12.8,3.2,90,7,,,,1014.6,,TRUE,TRUE,,,,,,,,,,,,,,,,0.4,,,,,,,,,,,METAR,197.0
CZSP 300300Z AUTO 15002KT 01/M00 RMK AO1 SLP228 T00121002 50003,CZSP,2023-05-30T03:00:00Z,46.45,-62.58,1.2,-0.2,150,2,,,,1022.8,,TRUE,TRUE,,,,,,,,,,,,,,,,0.3,,,,,,,,,,,METAR,31.0
CZSM 300300Z AUTO 29002KT 13/10 RMK AO1 SLP045 T01310095 53019,CZSM,2023-05-30T03:00:00Z,60.03,-111.93,13.1,9.5,290,2,,,,1004.5,,TRUE,TRUE,,,,,,,,,,,,,,,,1.9,,,,,,,,,,,SPECI,203.0
CZSJ 300300Z AUTO 17003KT 140V200 9SM CLR 24/07 A2969 RMK SLP056 DENSITY ALT 2500FT,CZSJ,2023-05-30T03:00:00Z,53.07,-93.35,24.0,7.0,170,3,,9.0,29.68996,1005.6,,TRUE,,,,,,,,CLR,,,,,,,,VFR,,,,,,,,,,,,METAR,286.0
CZPS 300300Z AUTO 06003KT 22/05 RMK AO1 T02180054,CZPS,2023-05-30T03:00:00Z,52.43,-113.6,21.8,5.4,60,3,,,,,,TRUE,TRUE,,,,,,,,,,,,,,,,,,,,,,,,,,,METAR,953.0
CZPC 300300Z AUTO 25013G18KT 9SM CLR 18/05 A2977 RMK SLP065 DENSITY ALT 5400FT,CZPC,2023-05-30T03:00:00Z,49.52,-114.0,18.0,5.0,250,13,18,9.0,29.769686,1006.5,,TRUE,,,,,,,,CLR,,,,,,,,VFR,,,,,,,,,,,,SPECI,1187.0
CZOL 300300Z AUTO 04005KT 19/11 RMK AO1 T01910106,CZOL,2023-05-30T03:00:00Z,53.65,-113.35,19.1,10.6,40,5,,,,,,TRUE,TRUE,,,,,,,,,,,,,,,,,,,,,,,,,,,METAR,645.0
CZMJ 300300Z AUTO 02003KT 21/09 RMK AO1 SLP063 T02100092 53012,CZMJ,2023-05-30T03:00:00Z,50.33,-105.53,21.0,9.2,20,3,,,,1006.3,,TRUE,TRUE,,,,,,,,,,,,,,,,1.2,,,,,,,,,,,METAR,571.0
CZMD 300300Z AUTO 20004KT 9SM BKN210 24/06 A2970 RMK SLP060 DENSITY ALT 2500FT,CZMD,2023-05-30T03:00:00Z,53.43,-91.77,24.0,6.0,200,4,,9.0,29.698818,1006.0,,TRUE,,,,,,,,BKN,21000,,,,,,,VFR,,,,,,,,,,,,METAR,276.0
CZKD 300300Z AUTO 21003KT 21/17 RMK AO1 SLP033 T02070166 53009,CZKD,2023-05-30T03:00:00Z,56.03,-96.52,20.7,16.6,210,3,,,,1003.3,,TRUE,TRUE,,,,,,,,,,,,,,,,0.9,,,,,,,,,,,METAR,190.0
CZHY 300300Z AUTO 23001KT 14/07 RMK AO1 SLP029 T01360070 52014,CZHY,2023-05-30T03:00:00Z,60.83,-115.78,13.6,7.0,230,1,,,,1002.9,,TRUE,TRUE,,,,,,,,,,,,,,,,1.4,,,,,,,,,,,SPECI,159.0
CZFS 300300Z AUTO 25004KT 10/07 RMK AO1 1007 SLP009 T01030070 50003,CZFS,2023-05-30T03:00:00Z,61.77,-121.23,10.3,7.0,250,4,,,,1000.9,,TRUE,TRUE,,,,,,,,,,,,,,,,0.3,,,,,,,,,,,SPECI,174.0
CZEV 300300Z AUTO 27005KT 20/03 RMK AO1 SLP989 T02030034 51002,CZEV,2023-05-30T03:00:00Z,68.32,-133.48,20.3,3.4,270,5,,,,998.9,,TRUE,TRUE,,,,,,,,,,,,,,,,0.2,,,,,,,,,,,SPECI,92.0
CZEL 300300Z AUTO 07003KT 16/06 RMK AO1 SLP185 T01620055 53010,CZEL,2023-05-30T03:00:00Z,43.65,-80.42,16.2,5.5,70,3,,,,1018.5,,TRUE,TRUE,,,,,,,,,,,,,,,,1.0,,,,,,,,,,,METAR,370.0
CZDB 300300Z AUTO 34002KT 02/M00 RMK AO1 SLP230 T00221004 51006,CZDB,2023-05-30T03:00:00Z,45.42,-63.47,2.2,-0.4,340,2,,,,1023.0,,TRUE,TRUE,,,,,,,,,,,,,,,,0.6,,,,,,,,,,,METAR,38.0
CZCR 300300Z AUTO 18001KT 06/05 RMK AO1 SLP218 T00560052 51008,CZCR,2023-05-30T03:00:00Z,47.98,-66.33,5.6,5.2,180,1,,,,1021.8,,TRUE,TRUE,,,,,,,,,,,,,,,,0.8,,,,,,,,,,,METAR,39.0
CZCP 300300Z AUTO 10015KT ////SM ////// 01/M00 A2962,CZCP,2023-05-30T03:00:00Z,70.17,-124.68,1.0,0.0,100,15,,,29.619095,,,TRUE,,,,,,,,,,,,,,,,,,,,,,,,,,,,SPECI,23.0
CZBF 300300Z AUTO 19004KT 9SM CLR 06/04 A3018 RMK SLP224,CZBF,2023-05-30T03:00:00Z,47.62,-65.75,6.0,4.0,190,4,,9.0,30.180119,1022.4,,TRUE,,,,,,,,CLR,,,,,,,,VFR,,,,,,,,,,,,METAR,60.0
CYZY 300300Z AUTO 28006KT 9SM CLR 16/M05 A2976 RMK SLP089 DENSITY ALT 3100FT,CYZY,2023-05-30T03:00:00Z,55.3,-123.13,16.0,-5.0,280,6,,9.0,29.760826,1008.9,,TRUE,,,,,,,,CLR,,,,,,,,VFR,,,,,,,,,,,,METAR,694.0
CYZX 300300Z 00000KT 15SM SKC 04/02 A3022 RMK DENSITY ALT -1429FT SLP235,CYZX,2023-05-30T03:00:00Z,44.98,-64.92,4.0,2.0,0,0,,15.0,30.221457,1023.5,,,,,,,,,,SKC,,,,,,,,VFR,,,,,,,,,,,,METAR,28.0
CYZV 300300Z 07002KT 15SM OVC170 06/03 A3009 RMK AC8 SLP194,CYZV,2023-05-30T03:00:00Z,50.22,-66.27,6.0,3.0,70,2,,15.0,30.088583,1019.4,,,,,,,,,,OVC,17000,,,,,,,VFR,,,,,,,,,,,,METAR,43.0
CYZU 300300Z 10002KT 15SM SCT100 19/06 A2971 RMK AC4 SLP067 DENSITY ALT 3900FT,CYZU,2023-05-30T03:00:00Z,54.15,-115.78,19.0,6.0,100,2,,15.0,29.71063,1006.7,,,,,,,,,,SCT,10000,,,,,,,VFR,,,,,,,,,,,,SPECI,785.0
CYZT 300300Z CCA 32012G20KT 20SM SCT025 BKN046 11/05 A3002 RMK SC3SC2 SLP168,CYZT,2023-05-30T03:00:00Z,50.68,-127.37,11.0,5.0,320,12,20,20.0,30.02067,1016.8,,,,,,,,,,SCT,2500,BKN,4600,,,,,VFR,,,,,,,,,,,,SPECI,13.0
CYZS 300300Z 35011KT 15SM FEW025 FEW130 FEW170 M02/M02 A2958 RMK SC1AS1AC1 SC TR AC TR SLP023,CYZS,2023-05-30T03:00:00Z,64.2,-83.35,-2.0,-2.0,350,11,,15.0,29.58071,1002.3,,,,,,,,,,FEW,2500,FEW,13000,FEW,17000,,,VFR,,,,,,,,,,,,SPECI,60.0
CYZR 300300Z AUTO 34002KT 9SM CLR 12/10 A3003 RMK SLP173,CYZR,2023-05-30T03:00:00Z,43.0,-82.3,12.0,10.0,340,2,,9.0,30.029528,1017.3,,TRUE,,,,,,,,CLR,,,,,,,,VFR,,,,,,,,,,,,SPECI,181.0
CYZP 300300Z AUTO 25016KT 9SM FEW055 11/03 A3001 RMK SLP163,CYZP,2023-05-30T03:00:00Z,53.25,-131.82,11.0,3.0,250,16,,9.0,30.008858,1016.3,,TRUE,,,,,,,,FEW,5500,,,,,,,VFR,,,,,,,,,,,,SPECI,7.0
CYZH 300300Z AUTO 27006KT 9SM CLR 18/01 A2972 RMK SLP071 DENSITY ALT 3000FT,CYZH,2023-05-30T03:00:00Z,55.28,-114.77,18.0,1.0,270,6,,9.0,29.719488,1007.1,,TRUE,,,,,,,,CLR,,,,,,,,VFR,,,,,,,,,,,,SPECI,583.0
CYZF 300300Z 00000KT 15SM -SHRA BKN061 BKN120 09/05 A2961 RMK SC7AC1 AC TR CVCTV CLD EMBD SLP038,CYZF,2023-05-30T03:00:00Z,62.47,-114.45,9.0,5.0,0,0,,15.0,29.610237,1003.8,,,,,,,,,-SHRA,BKN,6100,BKN,12000,,,,,VFR,,,,,,,,,,,,METAR,202.0
CYZE 300300Z AUTO 11003KT 9SM CLR 16/12 A3004 RMK SLP174,CYZE,2023-05-30T03:00:00Z,45.88,-82.57,16.0,12.0,110,3,,9.0,30.041338,1017.4,,TRUE,,,,,,,,CLR,,,,,,,,VFR,,,,,,,,,,,,SPECI,189.0
CYYZ 300300Z 08005KT 15SM SKC 19/06 A3007 RMK SLP183 DENSITY ALT 1000FT,CYYZ,2023-05-30T03:00:00Z,43.67,-79.62,19.0,6.0,80,5,,15.0,30.070866,1018.3,,,,,,,,,,SKC,,,,,,,,VFR,,,,,,,,,,,,METAR,171.0
CYYY 300300Z 21006KT 190V250 15SM BKN160 11/04 A3014 RMK AC6 SLP209,CYYY,2023-05-30T03:00:00Z,48.6,-68.22,11.0,4.0,210,6,,15.0,30.138779,1020.9,,,,,,,,,,BKN,16000,,,,,,,VFR,,,,,,,,,,,,SPECI,43.0
CYYW 300300Z AUTO 15006KT 9SM CLR 19/03 A2988 RMK SLP109 DENSITY ALT 1900FT,CYYW,2023-05-30T03:00:00Z,50.3,-88.9,19.0,3.0,150,6,,9.0,29.878937,1010.9,,TRUE,,,,,,,,CLR,,,,,,,,VFR,,,,,,,,,,,,METAR,320.0
CYYU 300300Z 19004KT 140V200 15SM FEW100 19/12 A2995 RMK AC1 SLP145 DENSITY ALT 1400FT,CYYU,2023-05-30T03:00:00Z,49.42,-82.47,19.0,12.0,190,4,,15.0,29.949802,1014.5,,,,,,,,,,FEW,10000,,,,,,,VFR,,,,,,,,,,,,SPECI,228.0
CYYT 300300Z 35011G17KT 15SM BKN013 01/M00 A3001 RMK SF6 SLP171,CYYT,2023-05-30T03:00:00Z,47.62,-52.73,1.0,0.0,350,11,17,15.0,30.008858,1017.1,,,,,,,,,,BKN,1300,,,,,,,MVFR,,,,,,,,,,,,METAR,128.0
CYYR 300300Z 28009KT 15SM BKN140 BKN270 04/M01 A3001 RMK AC7CI1 DENSITY ALT -1147FT SLP165,CYYR,2023-05-30T03:00:00Z,53.32,-60.42,4.0,-1.0,280,9,,15.0,30.008858,1016.5,,,,,,,,,,BKN,14000,BKN,27000,,,,,VFR,,,,,,,,,,,,METAR,42.0
CYYN 300300Z AUTO 25007KT 9SM OVC130 20/11 A2973 RMK SLP063 DENSITY ALT 4100FT,CYYN,2023-05-30T03:00:00Z,50.28,-107.68,20.0,11.0,250,7,,9.0,29.731298,1006.3,,TRUE,,,,,,,,OVC,13000,,,,,,,VFR,,,,,,,,,,,,SPECI,814.0
CYYL 300300Z AUTO 36003KT 5SM HZ CLR 18/07 A2964 RMK SLP047 DENSITY ALT 2200FT,CYYL,2023-05-30T03:00:00Z,56.87,-101.07,18.0,7.0,360,3,,5.0,29.639763,1004.7,,TRUE,,,,,,,HZ,CLR,,,,,,,,MVFR,,,,,,,,,,,,SPECI,351.0
CYYJ 300300Z 05004KT 30SM SKC 15/11 A2986 RMK SLP112,CYYJ,2023-05-30T03:00:00Z,48.63,-123.42,15.0,11.0,50,4,,30.0,29.861221,1011.2,,,,,,,,,,SKC,,,,,,,,VFR,,,,,,,,,,,,METAR,16.0
CYYH 300300Z 36005KT 15SM SCT024 BKN027 M02/M05 A2988 RMK SC4SC2 CIG RAG SLP122,CYYH,2023-05-30T03:00:00Z,69.53,-93.57,-2.0,-5.0,360,5,,15.0,29.878937,1012.2,,,,,,,,,,SCT,2400,BKN,2700,,,,,MVFR,,,,,,,,,,,,SPECI,19.0
CYYG 300300Z 18002KT 15SM BKN210 02/M01 A3019 RMK CI5 SLP229,CYYG,2023-05-30T03:00:00Z,46.28,-63.12,2.0,-1.0,180,2,,15.0,30.188976,1022.9,,,,,,,,,,BKN,21000,,,,,,,VFR,,,,,,,,,,,,SPECI,48.0
CYYF 300300Z 32006KT 290V020 15SM FEW070 SCT100 25/10 A2968 RMK CU1AC2 SLP048 DENSITY ALT 2900FT,CYYF,2023-05-30T03:00:00Z,49.47,-119.6,25.0,10.0,320,6,,15.0,29.681103,1004.8,,,,,,,,,,FEW,7000,SCT,10000,,,,,VFR,,,,,,,,,,,,SPECI,342.0
CYYE 300300Z 28011G16KT 240V310 30SM SCT100 15/M07 A2969 RMK AC3 SLP064 DENSITY ALT 1900FT,CYYE,2023-05-30T03:00:00Z,58.83,-122.58,15.0,-7.0,280,11,16,30.0,29.68996,1006.4,,,,,,,,,,SCT,10000,,,,,,,VFR,,,,,,,,,,,,SPECI,379.0
CYYD 300300Z 33013G21KT 25SM FEW080 13/M03 A2985 RMK AC2 LAST STFD OBS/NXT 301400Z SLP119,CYYD,2023-05-30T03:00:00Z,54.82,-127.18,13.0,-3.0,330,13,21,25.0,29.84941,1011.9,,,,,,,,,,FEW,8000,,,,,,,VFR,,,,,,,,,,,,SPECI,527.0
CYYC 300300Z 29007KT 20SM SCT080 SCT220 22/03 A2970 RMK AC3CI1 SLP049 DENSITY ALT 5500FT,CYYC,2023-05-30T03:00:00Z,51.12,-114.02,22.0,3.0,290,7,,20.0,29.698818,1004.9,,,,,,,,,,SCT,8000,SCT,22000,,,,,VFR,,,,,,,,,,,,METAR,1085.0
CYYB 300300Z AUTO 13009KT 9SM CLR 19/04 A3007 RMK SLP185 DENSITY ALT 1800FT,CYYB,2023-05-30T03:00:00Z,46.35,-79.42,19.0,4.0,130,9,,9.0,30.070866,1018.5,,TRUE,,,,,,,,CLR,,,,,,,,VFR,,,,,,,,,,,,SPECI,360.0
CYXY 300300Z 22013G18KT 40SM BKN080 BKN240 10/M08 A2967 RMK CU5CI2 SLP074 DENSITY ALT 2600FT,CYXY,2023-05-30T03:00:00Z,60.72,-135.07,10.0,-8.0,220,13,18,40.0,29.66929,1007.4,,,,,,,,,,BKN,8000,BKN,24000,,,,,VFR,,,,,,,,,,,,METAR,677.0
CYXX 300300Z 22010KT 30SM FEW065 17/05 A2988 RMK SC1 SC TR SLP122 DENSITY ALT 600FT,CYXX,2023-05-30T03:00:00Z,49.03,-122.38,17.0,5.0,220,10,,30.0,29.878937,1012.2,,,,,,,,,,FEW,6500,,,,,,,VFR,,,,,,,,,,,,METAR,54.0
CYXU 300300Z 08007KT 15SM FEW210 18/07 A3005 RMK CI1 SLP175 DENSITY ALT 1400FT,CYXU,2023-05-30T03:00:00Z,43.03,-81.15,18.0,7.0,80,7,,15.0,30.050198,1017.5,,,,,,,,,,FEW,21000,,,,,,,VFR,,,,,,,,,,,,METAR,278.0
CYXT 300300Z 24007KT 20SM BKN080 12/00 A2992 RMK AC6 SLP139,CYXT,2023-05-30T03:00:00Z,54.47,-128.57,12.0,0.0,240,7,,20.0,29.920275,1013.9,,,,,,,,,,BKN,8000,,,,,,,VFR,,,,,,,,,,,,SPECI,213.0
CYXS 300300Z AUTO 03006KT 9SM CLR 16/01 A2976 RMK SLP087 DENSITY ALT 3100FT,CYXS,2023-05-30T03:00:00Z,53.88,-122.68,16.0,1.0,30,6,,9.0,29.760826,1008.7,,TRUE,,,,,,,,CLR,,,,,,,,VFR,,,,,,,,,,,,SPECI,685.0
CYXR 300300Z AUTO 17003KT 9SM CLR 18/07 A3003 RMK SLP174 DENSITY ALT 1300FT,CYXR,2023-05-30T03:00:00Z,47.7,-79.85,18.0,7.0,170,3,,9.0,30.029528,1017.4,,TRUE,,,,,,,,CLR,,,,,,,,VFR,,,,,,,,,,,,SPECI,244.0
CYXL 300300Z VRB02KT 15SM SCT220 19/07 A2983 RMK CI3 SLP107 DENSITY ALT 2100FT,CYXL,2023-05-30T03:00:00Z,50.12,-91.9,19.0,7.0,0,2,,15.0,29.828741,1010.7,,,,,,,,,,SCT,22000,,,,,,,VFR,,,,,,,,,,,,SPECI,381.0
CYXJ 300300Z 26011KT 60SM FEW094 17/M05 A2971 RMK CU1 CU TR SLP073 DENSITY ALT 3300FT,CYXJ,2023-05-30T03:00:00Z,56.25,-120.73,17.0,-5.0,260,11,,60.0,29.71063,1007.3,,,,,,,,,,FEW,9400,,,,,,,VFR,,,,,,,,,,,,SPECI,700.0
CYXH 300300Z 12006KT 30SM FEW130 22/10 A2968 RMK AC2 CVCTV CLD EMBDLAST STFD OBS/NXT 301300Z SLP048 DENSITY ALT 4000FT,CYXH,2023-05-30T03:00:00Z,50.02,-110.72,22.0,10.0,120,6,,30.0,29.681103,1004.8,,,,,,,,,,FEW,13000,,,,,,,VFR,,,,,,,,,,,,SPECI,717.0
CYXE 300300Z 33006KT 15SM FEW071 FEW300 20/08 A2967 RMK AC1CI1 CI TR SLP052 DENSITY ALT 2900FT,CYXE,2023-05-30T03:00:00Z,52.17,-106.7,20.0,8.0,330,6,,15.0,29.66929,1005.2,,,,,,,,,,FEW,7100,FEW,30000,,,,,VFR,,,,,,,,,,,,SPECI,504.0
CYXC 300300Z 23007KT 190V250 25SM VCSH FEW070CB SCT130 BKN220 17/09 A2978 RMK CB2AC2CI1 CB DIST N + SE SLP079 DENSITY ALT 4300FT,CYXC,2023-05-30T03:00:00Z,49.6,-115.78,17.0,9.0,230,7,,25.0,29.778543,1007.9,,,,,,,,,VCSH,FEW,7000,SCT,13000,BKN,22000,,,VFR,,,,,,,,,,,,SPECI,928.0
CYWL 300300Z 04009KT 15SM SCT070 BKN100 17/02 A2974 RMK CU3AC2 SLP073 DENSITY ALT 4300FT,CYWL,2023-05-30T03:00:00Z,52.18,-122.07,17.0,2.0,40,9,,15.0,29.740158,1007.3,,,,,,,,,,SCT,7000,BKN,10000,,,,,VFR,,,,,,,,,,,,SPECI,942.0
CYWK 300300Z AUTO 21004KT 9SM BKN100 OVC120 08/01 A3005 RMK SLP195,CYWK,2023-05-30T03:00:00Z,52.92,-66.87,8.0,1.0,210,4,,9.0,30.050198,1019.5,,TRUE,,,,,,,,BKN,10000,OVC,12000,,,,,VFR,,,,,,,,,,,,METAR,547.0
CYWH 300300Z 24015KT 15SM SKC 14/08 A2988 RMK SLP120,CYWH,2023-05-30T03:00:00Z,48.42,-123.38,14.0,8.0,240,15,,15.0,29.878937,1012.0,,,,,,,,,,SKC,,,,,,,,VFR,,,,,,,,,,,,SPECI,4.0
CYWG 300300Z 20008KT 15SM FEW110 21/16 A2967 RMK AC2 SLP048 DENSITY ALT 2000FT,CYWG,2023-05-30T03:00:00Z,49.9,-97.23,21.0,16.0,200,8,,15.0,29.66929,1004.8,,,,,,,,,,FEW,11000,,,,,,,VFR,,,,,,,,,,,,METAR,238.0
CYWE 300300Z AUTO 11012G18KT 9SM CLR 07/M00 A2968 RMK SLP071,CYWE,2023-05-30T03:00:00Z,64.18,-114.08,7.0,0.0,110,12,18,9.0,29.681103,1007.1,,TRUE,,,,,,,,CLR,,,,,,,,VFR,,,,,,,,,,,,METAR,374.0
CYVV 300300Z 07003KT 15SM SKC 16/09 A3005 RMK SLP178,CYVV,2023-05-30T03:00:00Z,44.75,-81.1,16.0,9.0,70,3,,15.0,30.050198,1017.8,,,,,,,,,,SKC,,,,,,,,VFR,,,,,,,,,,,,SPECI,221.0
CYVR 300300Z 10010KT 20SM FEW050 17/10 A2987 RMK SC1 SC TR SLP116 DENSITY ALT 400FT,CYVR,2023-05-30T03:00:00Z,49.17,-123.17,17.0,10.0,100,10,,20.0,29.870079,1011.6,,,,,,,,,,FEW,5000,,,,,,,VFR,,,,,,,,,,,,METAR,2.0
CYVQ 300300Z 11014KT 30SM FEW058 FEW085 SCT140 BKN250 16/07 A2952 RMK CU1AC2AC2CI2 CU TR SLP002 DENSITY ALT 900FT,CYVQ,2023-05-30T03:00:00Z,65.27,-126.78,16.0,7.0,110,14,,30.0,29.518702,1000.2,,,,,,,,,,FEW,5800,FEW,8500,SCT,14000,BKN,25000,VFR,,,,,,,,,,,,SPECI,63.0
CYVP 300300Z 19008KT 15SM FEW050 BKN081 OVC090 08/05 A2981 RMK SC1AC6AC2 SC TR INTMT -RA SLP098,CYVP,2023-05-30T03:00:00Z,58.12,-68.42,8.0,5.0,190,8,,15.0,29.811024,1009.8,,,,,,,,,,FEW,5000,BKN,8100,OVC,9000,,,VFR,,,,,,,,,,,,METAR,28.0
CYVO 300300Z AUTO 17005KT 9SM CLR 16/03 A3005 RMK SLP185 DENSITY ALT 1400FT,CYVO,2023-05-30T03:00:00Z,48.07,-77.77,16.0,3.0,170,5,,9.0,30.050198,1018.5,,TRUE,,,,,,,,CLR,,,,,,,,VFR,,,,,,,,,,,,SPECI,329.0
CYVL 300300Z AUTO 12011KT 9SM CLR 13/04 A2956 RMK SLP024 DENSITY ALT 1400FT,CYVL,2023-05-30T03:00:00Z,67.02,-126.13,13.0,4.0,120,11,,9.0,29.56004,1002.4,,TRUE,,,,,,,,CLR,,,,,,,,VFR,,,,,,,,,,,,METAR,261.0
CYVC 300300Z 00000KT 4SM FU VV045 15/10 A2967 RMK FU8 SLP055 DENSITY ALT 1900FT,CYVC,2023-05-30T03:00:00Z,55.15,-105.27,15.0,10.0,0,0,,4.0,29.66929,1005.5,,,,,,,,,FU,OVX,0,,,,,,,LIFR,,,,,,,,,,,4500,SPECI,378.0
CYUY 300300Z 14003KT 15SM SKC 15/03 A3005 RMK SLP183,CYUY,2023-05-30T03:00:00Z,48.2,-78.82,15.0,3.0,140,3,,15.0,30.050198,1018.3,,,,,,,,,,SKC,,,,,,,,VFR,,,,,,,,,,,,METAR,304.0
CYUX 300300Z AUTO 01021KT 9SM OVC012 M02/M02 A2950 RMK SLP991,CYUX,2023-05-30T03:00:00Z,68.77,-81.22,-2.0,-2.0,10,21,,9.0,29.500984,999.1,,TRUE,,,,,,,,OVC,1200,,,,,,,MVFR,,,,,,,,,,,,SPECI,8.0
CYUL 300300Z 02007KT 15SM FEW250 15/03 A3011 RMK CI1 CI TR SLP199,CYUL,2023-05-30T03:00:00Z,45.47,-73.73,15.0,3.0,20,7,,15.0,30.109253,1019.9,,,,,,,,,,FEW,25000,,,,,,,VFR,,,,,,,,,,,,METAR,31.0
CYUA 300300Z AUTO 34007KT ////SM NCD ///// A////,CYUA,2023-05-30T03:00:00Z,68.92,-137.23,,,340,7,,,,,,TRUE,,,,,,,,CLR,,,,,,,,,,,,,,,,,,,,SPECI,25.0
CYTZ 300300Z AUTO 05017KT 9SM CLR 19/07 A3006 RMK SLP180 DENSITY ALT 700FT,CYTZ,2023-05-30T03:00:00Z,43.63,-79.4,19.0,7.0,50,17,,9.0,30.059055,1018.0,,TRUE,,,,,,,,CLR,,,,,,,,VFR,,,,,,,,,,,,SPECI,76.0
CYTS 300300Z 15009KT 15SM FEW250 22/08 A3000 RMK CI2 SLP161 DENSITY ALT 1900FT,CYTS,2023-05-30T03:00:00Z,48.57,-81.37,22.0,8.0,150,9,,15.0,30.0,1016.1,,,,,,,,,,FEW,25000,,,,,,,VFR,,,,,,,,,,,,SPECI,290.0
CYTR 300300Z 08006KT 15SM SKC 19/03 A3007 RMK DENSITY ALT 739FT SLP182,CYTR,2023-05-30T03:00:00Z,44.12,-77.52,19.0,3.0,80,6,,15.0,30.070866,1018.2,,,,,,,,,,SKC,,,,,,,,VFR,,,,,,,,,,,,METAR,80.0
CYTL 300300Z AUTO 20005KT 9SM BKN220 18/06 A2971 RMK SLP065 DENSITY ALT 1600FT,CYTL,2023-05-30T03:00:00Z,53.82,-89.88,18.0,6.0,200,5,,9.0,29.71063,1006.5,,TRUE,,,,,,,,BKN,22000,,,,,,,VFR,,,,,,,,,,,,METAR,218.0
CYTH 300300Z 27004KT 15SM SCT050 SCT100 OVC250 20/17 A2962 RMK CU3AC1CI4 SLP037 DENSITY ALT 1900FT,CYTH,2023-05-30T03:00:00Z,55.8,-97.83,20.0,17.0,270,4,,15.0,29.619095,1003.7,,,,,,,,,,SCT,5000,SCT,10000,OVC,25000,,,VFR,,,,,,,,,,,,SPECI,212.0
CYSM 300300Z CCB 31004KT 10SM FEW015 FEW060CB FEW100 FEW150 13/10 A2963 RMK CU1CB1AC1AC1 CU TR CB TR AC TR FU CB W MOV NE SLP040 DENSITY ALT 1000FT,CYSM,2023-05-30T03:00:00Z,60.03,-111.92,13.0,10.0,310,4,,10.0,29.630905,1004.0,,,,,,,,,,FEW,1500,FEW,6000,FEW,10000,FEW,15000,VFR,,,,,,,,,,,,METAR,203.0
CYSF 300300Z AUTO 12003KT 4SM HZ SCT130 17/10 A2957 RMK SLP019 DENSITY ALT 1600FT,CYSF,2023-05-30T03:00:00Z,59.25,-105.83,17.0,10.0,120,3,,4.0,29.568897,1001.9,,TRUE,,,,,,,HZ,SCT,13000,,,,,,,MVFR,,,,,,,,,,,,SPECI,238.0
CYSC 300300Z AUTO 09004KT 9SM CLR 11/06 A3013 RMK SLP209,CYSC,2023-05-30T03:00:00Z,45.43,-71.68,11.0,6.0,90,4,,9.0,30.129921,1020.9,,TRUE,,,,,,,,CLR,,,,,,,,VFR,,,,,,,,,,,,SPECI,236.0
CYSB 300300Z 18004KT 15SM SKC 20/11 A3006 RMK SLP181 DENSITY ALT 1900FT,CYSB,2023-05-30T03:00:00Z,46.63,-80.8,20.0,11.0,180,4,,15.0,30.059055,1018.1,,,,,,,,,,SKC,,,,,,,,VFR,,,,,,,,,,,,SPECI,349.0
CYRV 300300Z AUTO 33003KT 260V350 9SM CLR 22/09 A2967 RMK SLP045 DENSITY ALT 3000FT,CYRV,2023-05-30T03:00:00Z,50.97,-118.17,22.0,9.0,330,3,,9.0,29.66929,1004.5,,TRUE,,,,,,,,CLR,,,,,,,,VFR,,,,,,,,,,,,SPECI,456.0
CYRT 300300Z 36007KT 15SM FEW010 BKN110 BKN260 03/01 A2971 RMK ST1AC5CI1 ST TR SLP064,CYRT,2023-05-30T03:00:00Z,62.82,-92.12,3.0,1.0,360,7,,15.0,29.71063,1006.4,,,,,,,,,,FEW,1000,BKN,11000,BKN,26000,,,VFR,,,,,,,,,,,,SPECI,29.0
CYRQ 300300Z AUTO 01003KT 9SM CLR 10/06 A3013 RMK SLP208,CYRQ,2023-05-30T03:00:00Z,46.35,-72.68,10.0,6.0,10,3,,9.0,30.129921,1020.8,,TRUE,,,,,,,,CLR,,,,,,,,VFR,,,,,,,,,,,,METAR,58.0
CYRJ 300300Z 24003KT 25SM BKN230 10/02 A3012 RMK CI6 SLP205,CYRJ,2023-05-30T03:00:00Z,48.52,-72.27,10.0,2.0,240,3,,25.0,30.121063,1020.5,,,,,,,,,,BKN,23000,,,,,,,VFR,,,,,,,,,,,,SPECI,173.0
CYRB 300300Z 33005KT 30SM BKN059 M07/M10 A2989 RMK SC6 SLP131,CYRB,2023-05-30T03:00:00Z,74.72,-94.97,-7.0,-10.0,330,5,,30.0,29.890747,1013.1,,,,,,,,,,BKN,5900,,,,,,,VFR,,,,,,,,,,,,METAR,59.0
CYQZ 300300Z AUTO 36003KT 9SM SCT130 16/09 A2971 RMK SLP071 DENSITY ALT 2700FT,CYQZ,2023-05-30T03:00:00Z,53.02,-122.52,16.0,9.0,360,3,,9.0,29.71063,1007.1,,TRUE,,,,,,,,SCT,13000,,,,,,,VFR,,,,,,,,,,,,SPECI,548.0
CYQY 300300Z 33006KT 15SM SCT240 03/M01 A3017 RMK CI3 SLP220,CYQY,2023-05-30T03:00:00Z,46.17,-60.03,3.0,-1.0,330,6,,15.0,30.171259,1022.0,,,,,,,,,,SCT,24000,,,,,,,VFR,,,,,,,,,,,,METAR,58.0
CYQX 300300Z 33007KT 20SM OVC030 01/M00 A3003 RMK SC8 SLP178,CYQX,2023-05-30T03:00:00Z,48.95,-54.58,1.0,0.0,330,7,,20.0,30.029528,1017.8,,,,,,,,,,OVC,3000,,,,,,,MVFR,,,,,,,,,,,,METAR,144.0
CYQW 300300Z AUTO 01005KT 9SM CLR 19/07 A2971 RMK SLP062 DENSITY ALT 3000FT,CYQW,2023-05-30T03:00:00Z,52.77,-108.25,19.0,7.0,10,5,,9.0,29.71063,1006.2,,TRUE,,,,,,,,CLR,,,,,,,,VFR,,,,,,,,,,,,SPECI,545.0
CYQV 300300Z AUTO 18002KT 9SM SCT110 BKN220 BKN240 19/15 A2966 RMK SLP047 DENSITY ALT 2800FT,CYQV,2023-05-30T03:00:00Z,51.27,-102.47,19.0,15.0,180,2,,9.0,29.660433,1004.7,,TRUE,,,,,,,,SCT,11000,BKN,22000,BKN,24000,,,VFR,,,,,,,,,,,,SPECI,493.0
CYQU 300300Z 28011KT 25SM SKC 17/M02 A2974 RMK SLP078 DENSITY ALT 3200FT,CYQU,2023-05-30T03:00:00Z,55.18,-118.88,17.0,-2.0,280,11,,25.0,29.740158,1007.8,,,,,,,,,,SKC,,,,,,,,VFR,,,,,,,,,,,,SPECI,668.0
CYQT 300300Z 08009KT 15SM FEW250 12/03 A2995 RMK CI2 SLP147,CYQT,2023-05-30T03:00:00Z,48.37,-89.32,12.0,3.0,80,9,,15.0,29.949802,1014.7,,,,,,,,,,FEW,25000,,,,,,,VFR,,,,,,,,,,,,SPECI,197.0
CYQR 300300Z 00000KT 15SM FEW040 SCT260 21/11 A2968 RMK SC1CI3 SC TR SLP054 DENSITY ALT 3400FT,CYQR,2023-05-30T03:00:00Z,50.43,-104.67,21.0,11.0,0,0,,15.0,29.681103,1005.4,,,,,,,,,,FEW,4000,SCT,26000,,,,,VFR,,,,,,,,,,,,SPECI,576.0
CYQQ 300300Z CCA 20005KT 20SM FEW050 17/09 A2987 RMK SC1 DENSITY ALT 562FT SLP117,CYQQ,2023-05-30T03:00:00Z,49.72,-124.9,17.0,9.0,200,5,,20.0,29.870079,1011.7,,,,,,,,,,FEW,5000,,,,,,,VFR,,,,,,,,,,,,METAR,24.0
CYQM 300300Z 11006KT 15SM FEW220 04/01 A3018 RMK CI2 SLP226,CYQM,2023-05-30T03:00:00Z,46.12,-64.67,4.0,1.0,110,6,,15.0,30.180119,1022.6,,,,,,,,,,FEW,22000,,,,,,,VFR,,,,,,,,,,,,METAR,67.0
CYQL 300300Z 23012KT 60SM FEW080 FEW270 21/07 A2971 RMK AC1CI1 SLP052 DENSITY ALT 4700FT,CYQL,2023-05-30T03:00:00Z,49.63,-112.8,21.0,7.0,230,12,,60.0,29.71063,1005.2,,,,,,,,,,FEW,8000,FEW,27000,,,,,VFR,,,,,,,,,,,,SPECI,923.0
CYQK 300300Z 15006KT 20SM FEW065 SCT081 BKN120 BKN230 21/10 A2977 RMK SC2AC1AC2CI1 SLP082 DENSITY ALT 2500FT,CYQK,2023-05-30T03:00:00Z,49.78,-94.37,21.0,10.0,150,6,,20.0,29.769686,1008.2,,,,,,,,,,FEW,6500,SCT,8100,BKN,12000,BKN,23000,VFR,,,,,,,,,,,,SPECI,413.0
CYQI 300300Z 21002KT 15SM BKN250 06/03 A3023 RMK CS6 SLP239,CYQI,2023-05-30T03:00:00Z,43.83,-66.08,6.0,3.0,210,2,,15.0,30.230314,1023.9,,,,,,,,,,BKN,25000,,,,,,,VFR,,,,,,,,,,,,SPECI,37.0
CYQH 300300Z 25015G22KT 30SM OVC090 10/M05 A2971 RMK AC8 SLP081 DENSITY ALT 2500FT,CYQH,2023-05-30T03:00:00Z,60.12,-128.82,10.0,-5.0,250,15,22,30.0,29.71063,1008.1,,,,,,,,,,OVC,9000,,,,,,,VFR,,,,,,,,,,,,SPECI,692.0
CYQG 300300Z AUTO 06006KT 9SM CLR 16/09 A3003 RMK SLP169,CYQG,2023-05-30T03:00:00Z,42.27,-82.97,16.0,9.0,60,6,,9.0,30.029528,1016.9,,TRUE,,,,,,,,CLR,,,,,,,,VFR,,,,,,,,,,,,METAR,189.0
CYQF 300300Z AUTO 10008KT 9SM BKN110 OVC130 21/04 A2968 RMK SLP050 DENSITY ALT 4700FT,CYQF,2023-05-30T03:00:00Z,52.17,-113.9,21.0,4.0,100,8,,9.0,29.681103,1005.0,,TRUE,,,,,,,,BKN,11000,OVC,13000,,,,,VFR,,,,,,,,,,,,SPECI,912.0
CYQD 300300Z AUTO VRB02KT 9SM SCT055 SCT072 BKN093 OVC120 20/16 A2963 RMK SLP038 DENSITY ALT 2100FT,CYQD,2023-05-30T03:00:00Z,53.97,-101.08,20.0,16.0,0,2,,9.0,29.630905,1003.8,,TRUE,,,,,,,,SCT,5500,SCT,7200,BKN,9300,OVC,12000,VFR,,,,,,,,,,,,SPECI,268.0
CYQB 300300Z 01003KT 15SM FEW260 10/05 A3016 RMK CI1 CI TR SLP217,CYQB,2023-05-30T03:00:00Z,46.78,-71.38,10.0,5.0,10,3,,15.0,30.159449,1021.7,,,,,,,,,,FEW,26000,,,,,,,VFR,,,,,,,,,,,,METAR,73.0
CYQA 300300Z AUTO 10003KT 9SM CLR 14/10 A3007 RMK SLP186,CYQA,2023-05-30T03:00:00Z,44.97,-79.3,14.0,10.0,100,3,,9.0,30.070866,1018.6,,TRUE,,,,,,,,CLR,,,,,,,,VFR,,,,,,,,,,,,SPECI,277.0
CYPY 300300Z AUTO 33004KT 9SM FEW019 17/06 A2963 RMK SLP041 DENSITY ALT 1500FT,CYPY,2023-05-30T03:00:00Z,58.77,-111.12,17.0,6.0,330,4,,9.0,29.630905,1004.1,,TRUE,,,,,,,,FEW,1900,,,,,,,VFR,,,,,,,,,,,,SPECI,225.0
CYPX 300300Z AUTO 19011KT 9SM OVC012 03/02 A2961 RMK SLP030,CYPX,2023-05-30T03:00:00Z,60.03,-77.27,3.0,2.0,190,11,,9.0,29.610237,1003.0,,TRUE,,,,,,,,OVC,1200,,,,,,,MVFR,,,,,,,,,,,,SPECI,10.0
CYPR 300300Z AUTO /////KT 9SM 10/03 A3000 RMK CLD MISG SLP161,CYPR,2023-05-30T03:00:00Z,54.28,-130.45,10.0,3.0,,,,9.0,30.0,1016.1,,TRUE,,,,,,,,,,,,,,,,,,,,,,,,,,,,SPECI,30.0
CYPQ 300300Z AUTO 00000KT 9SM CLR 12/10 A3008 RMK SLP189,CYPQ,2023-05-30T03:00:00Z,44.22,-78.37,12.0,10.0,0,0,,9.0,30.079725,1018.9,,TRUE,,,,,,,,CLR,,,,,,,,VFR,,,,,,,,,,,,SPECI,190.0
CYPO 300300Z AUTO 19008KT 9SM BKN240 23/09 A2968 RMK SLP049 DENSITY ALT 1500FT,CYPO,2023-05-30T03:00:00Z,54.98,-85.43,23.0,9.0,190,8,,9.0,29.681103,1004.9,,TRUE,,,,,,,,BKN,24000,,,,,,,VFR,,,,,,,,,,,,METAR,49.0
CYPL 300300Z AUTO 22007KT 9SM FEW220 22/03 A2982 RMK SLP099 DENSITY ALT 2500FT,CYPL,2023-05-30T03:00:00Z,51.43,-90.22,22.0,3.0,220,7,,9.0,29.819881,1009.9,,TRUE,,,,,,,,FEW,22000,,,,,,,VFR,,,,,,,,,,,,METAR,390.0
CYPH 300300Z AUTO 21011KT 9SM FEW060 03/01 A2965 RMK SLP044,CYPH,2023-05-30T03:00:00Z,58.47,-78.08,3.0,1.0,210,11,,9.0,29.648623,1004.4,,TRUE,,,,,,,,FEW,6000,,,,,,,VFR,,,,,,,,,,,,SPECI,24.0
CYPE 300300Z 27010G18KT 15SM FEW080 17/M04 A2971 RMK FU2AC1 AC TR SLP069 DENSITY ALT 2800FT,CYPE,2023-05-30T03:00:00Z,56.22,-117.45,17.0,-4.0,270,10,18,15.0,29.71063,1006.9,,,,,,,,,,FEW,8000,,,,,,,VFR,,,,,,,,,,,,SPECI,572.0
CYPD 300300Z AUTO 36003KT 290V060 9SM CLR 01/M01 A3017 RMK SLP224,CYPD,2023-05-30T03:00:00Z,45.67,-61.37,1.0,-1.0,360,3,,9.0,30.171259,1022.4,,TRUE,,,,,,,,CLR,,,,,,,,VFR,,,,,,,,,,,,METAR,106.0
CYPA 300300Z 29004KT 7SM FEW072 SCT270 21/08 A2967 RMK CU1CI3 CU TR SLP052 DENSITY ALT 2700FT,CYPA,2023-05-30T03:00:00Z,53.22,-105.67,21.0,8.0,290,4,,7.0,29.66929,1005.2,,,,,,,,,,FEW,7200,SCT,27000,,,,,VFR,,,,,,,,,,,,SPECI,428.0
CYOW 300300Z 08006KT 15SM FEW250 14/02 A3011 RMK CI1 CI TR SLP198,CYOW,2023-05-30T03:00:00Z,45.32,-75.67,14.0,2.0,80,6,,15.0,30.109253,1019.8,,,,,,,,,,FEW,25000,,,,,,,VFR,,,,,,,,,,,,METAR,111.0
CYOO 300300Z AUTO 00000KT 9SM CLR 14/08 A3007 RMK SLP185,CYOO,2023-05-30T03:00:00Z,43.92,-78.9,14.0,8.0,0,0,,9.0,30.070866,1018.5,,TRUE,,,,,,,,CLR,,,,,,,,VFR,,,,,,,,,,,,METAR,136.0
CYOJ 300300Z 30005KT 15SM FEW090 BKN140 16/00 A2965 RMK AC1AC6 SLP050 DENSITY ALT 1900FT,CYOJ,2023-05-30T03:00:00Z,58.62,-117.17,16.0,0.0,300,5,,15.0,29.648623,1005.0,,,,,,,,,,FEW,9000,BKN,14000,,,,,VFR,,,,,,,,,,,,SPECI,339.0
CYOD 300300Z 01005KT 15SM BKN110 16/11 A2973 RMK AC7 DENSITY ALT 2721FT TCU EMBD SLP070,CYOD,2023-05-30T03:00:00Z,54.4,-110.28,16.0,11.0,10,5,,15.0,29.731298,1007.0,,,,,,,,,,BKN,11000,,,,,,,VFR,,,,,,,,,,,,SPECI,540.0
CYNM 300300Z AUTO 19004KT 9SM CLR 13/04 A3004 RMK SLP179,CYNM,2023-05-30T03:00:00Z,49.77,-77.78,13.0,4.0,190,4,,9.0,30.041338,1017.9,,TRUE,,,,,,,,CLR,,,,,,,,VFR,,,,,,,,,,,,SPECI,276.0
CYNE 300300Z AUTO 22003KT 180V250 9SM FEW091 SCT110 OVC140 17/13 A2967 RMK SLP052 DENSITY ALT 1500FT,CYNE,2023-05-30T03:00:00Z,53.97,-97.83,17.0,13.0,220,3,,9.0,29.66929,1005.2,,TRUE,,,,,,,,FEW,9100,SCT,11000,OVC,14000,,,VFR,,,,,,,,,,,,SPECI,220.0
CYMX 300300Z VRB02KT 25SM SKC 13/03 A3012 RMK SLP204,CYMX,2023-05-30T03:00:00Z,45.67,-74.03,13.0,3.0,0,2,,25.0,30.121063,1020.4,,,,,,,,,,SKC,,,,,,,,VFR,,,,,,,,,,,,METAR,78.0
CYMT 300300Z AUTO 00000KT 9SM CLR 10/04 A3010 RMK SLP203,CYMT,2023-05-30T03:00:00Z,49.77,-74.52,10.0,4.0,0,0,,9.0,30.100393,1020.3,,TRUE,,,,,,,,CLR,,,,,,,,VFR,,,,,,,,,,,,SPECI,388.0
CYMO 300300Z AUTO 16009KT 9SM CLR 22/10 A2988 RMK SLP119 DENSITY ALT 1000FT,CYMO,2023-05-30T03:00:00Z,51.28,-80.62,22.0,10.0,160,9,,9.0,29.878937,1011.9,,TRUE,,,,,,,,CLR,,,,,,,,VFR,,,,,,,,,,,,SPECI,8.0
CYMM 300300Z AUTO 23006KT 9SM CLR 19/01 A2965 RMK SLP047 DENSITY ALT 2300FT,CYMM,2023-05-30T03:00:00Z,56.65,-111.22,19.0,1.0,230,6,,9.0,29.648623,1004.7,,TRUE,,,,,,,,CLR,,,,,,,,VFR,,,,,,,,,,,,SPECI,371.0
CYMH 300300Z AUTO 30010KT 9SM OVC026 00/M04 A2996 RMK SLP147,CYMH,2023-05-30T03:00:00Z,52.3,-55.82,0.0,-4.0,300,10,,9.0,29.958662,1014.7,,TRUE,,,,,,,,OVC,2600,,,,,,,MVFR,,,,,,,,,,,,METAR,18.0
CYMA 300300Z 20004KT 160V270 20SM FEW065TCU BKN089 OVC220 13/M02 A2957 RMK TCU1AC5CI2 SLP031 DENSITY ALT 2200FT,CYMA,2023-05-30T03:00:00Z,63.62,-135.87,13.0,-2.0,200,4,,20.0,29.568897,1003.1,,,,,,,,,,FEW,6500,BKN,8900,OVC,22000,,,VFR,,,,,,,,,,,,SPECI,519.0
CYLW 300300Z AUTO 24010G18KT 190V270 9SM CLR 26/04 A2969 RMK SLP050 DENSITY ALT 3300FT,CYLW,2023-05-30T03:00:00Z,49.95,-119.37,26.0,4.0,240,10,18,9.0,29.68996,1005.0,,TRUE,,,,,,,,CLR,,,,,,,,VFR,,,,,,,,,,,,SPECI,420.0
CYLL 300300Z 33013G22KT 15SM VCSH BKN085CB 17/09 A2973 RMK CB7 VIRGA SW-W PRESRR SLP073 DENSITY ALT 3200FT,CYLL,2023-05-30T03:00:00Z,53.32,-110.07,17.0,9.0,330,13,22,15.0,29.731298,1007.3,,,,,,,,,VCSH,BKN,8500,,,,,,,VFR,,,,,,,,,,,,SPECI,664.0
CYLH 300300Z AUTO 20009KT 9SM BKN130 24/06 A2980 RMK SLP093 DENSITY ALT 2200FT,CYLH,2023-05-30T03:00:00Z,52.2,-87.93,24.0,6.0,200,9,,9.0,29.799213,1009.3,,TRUE,,,,,,,,BKN,13000,,,,,,,VFR,,,,,,,,,,,,METAR,245.0
CYKY 300300Z 13007KT 15SM FEW060 SCT095 21/06 A2969 RMK CU2AC1 SLP050 DENSITY ALT 3800FT,CYKY,2023-05-30T03:00:00Z,51.52,-109.17,21.0,6.0,130,7,,15.0,29.68996,1005.0,,,,,,,,,,FEW,6000,SCT,9500,,,,,VFR,,,,,,,,,,,,SPECI,692.0
CYKP 300300Z AUTO 22005KT 9SM CLR 23/05 A2983 RMK SLP096 DENSITY ALT 1800FT,CYKP,2023-05-30T03:00:00Z,51.67,-85.9,23.0,5.0,220,5,,9.0,29.828741,1009.6,,TRUE,,,,,,,,CLR,,,,,,,,VFR,,,,,,,,,,,,METAR,181.0
CYKJ 300300Z AUTO 15004KT 9SM CLR 18/07 A2963 RMK SLP041 DENSITY ALT 2800FT,CYKJ,2023-05-30T03:00:00Z,57.25,-105.62,18.0,7.0,150,4,,9.0,29.630905,1004.1,,TRUE,,,,,,,,CLR,,,,,,,,VFR,,,,,,,,,,,,SPECI,519.0
CYKF 300300Z AUTO 06003KT 9SM CLR 15/07 A3007 RMK SLP183,CYKF,2023-05-30T03:00:00Z,43.47,-80.38,15.0,7.0,60,3,,9.0,30.070866,1018.3,,TRUE,,,,,,,,CLR,,,,,,,,VFR,,,,,,,,,,,,SPECI,312.0
CYKA 300300Z 21011KT 190V250 40SM FEW100 FEW250 25/04 A2964 RMK CF1CI1 CF TR SLP038 DENSITY ALT 3000FT,CYKA,2023-05-30T03:00:00Z,50.7,-120.45,25.0,4.0,210,11,,40.0,29.639763,1003.8,,,,,,,,,,FEW,10000,FEW,25000,,,,,VFR,,,,,,,,,,,,SPECI,344.0
CYJT 300300Z 33004KT 280V350 15SM SKC 00/M02 A3013 RMK SLP206,CYJT,2023-05-30T03:00:00Z,48.55,-58.57,0.0,-2.0,330,4,,15.0,30.129921,1020.6,,,,,,,,,,SKC,,,,,,,,VFR,,,,,,,,,,,,METAR,7.0
CYIO 300300Z AUTO 07019G25KT 9SM OVC060 M03/M06 A2968 RMK SLP060,CYIO,2023-05-30T03:00:00Z,72.68,-77.97,-3.0,-6.0,70,19,25,9.0,29.681103,1006.0,,TRUE,,,,,,,,OVC,6000,,,,,,,VFR,,,,,,,,,,,,SPECI,61.0
CYIN 300300Z AUTO 22007G15KT 9SM CLR 18/01 A2974 RMK SLP061 DENSITY ALT 5100FT,CYIN,2023-05-30T03:00:00Z,51.27,-121.68,18.0,1.0,220,7,15,9.0,29.740158,1006.1,,TRUE,,,,,,,,CLR,,,,,,,,VFR,,,,,,,,,,,,METAR,1127.0
CYHZ 300300Z 00000KT 15SM SKC 06/M02 A3020 RMK SLP231,CYHZ,2023-05-30T03:00:00Z,44.87,-63.5,6.0,-2.0,0,0,,15.0,30.200787,1023.1,,,,,,,,,,SKC,,,,,,,,VFR,,,,,,,,,,,,METAR,136.0
CYHY 300300Z VRB02KT 15SM FEW100 BKN230 13/07 A2960 RMK AC2CI3 FU SLP033 DENSITY ALT 800FT,CYHY,2023-05-30T03:00:00Z,60.83,-115.77,13.0,7.0,0,2,,15.0,29.601377,1003.3,,,,,,,,,,FEW,10000,BKN,23000,,,,,VFR,,,,,,,,,,,,SPECI,159.0
CYHU 300300Z AUTO 01006KT 9SM CLR 12/03 A3011 RMK SLP199,CYHU,2023-05-30T03:00:00Z,45.52,-73.42,12.0,3.0,10,6,,9.0,30.109253,1019.9,,TRUE,,,,,,,,CLR,,,,,,,,VFR,,,,,,,,,,,,SPECI,26.0
CYHM 300300Z 04007KT 15SM SKC 15/09 A3006 RMK SLP181,CYHM,2023-05-30T03:00:00Z,43.17,-79.93,15.0,9.0,40,7,,15.0,30.059055,1018.1,,,,,,,,,,SKC,,,,,,,,VFR,,,,,,,,,,,,SPECI,237.0
CYHK 300300Z AUTO 35012KT 9SM CLR M04/M05 A2991 RMK SLP135,CYHK,2023-05-30T03:00:00Z,68.62,-95.85,-4.0,-5.0,350,12,,9.0,29.911417,1013.5,,TRUE,,,,,,,,CLR,,,,,,,,VFR,,,,,,,,,,,,SPECI,36.0
CYHE 300300Z AUTO 30005G18KT 260V330 9SM CLR 19/10 A2984 RMK SLP107 DENSITY ALT 800FT,CYHE,2023-05-30T03:00:00Z,49.37,-121.5,19.0,10.0,300,5,18,9.0,29.840551,1010.7,,TRUE,,,,,,,,CLR,,,,,,,,VFR,,,,,,,,,,,,SPECI,43.0
CYHD 300300Z AUTO 16007KT 9SM CLR 21/07 A2982 RMK SLP100 DENSITY ALT 2500FT,CYHD,2023-05-30T03:00:00Z,49.82,-92.75,21.0,7.0,160,7,,9.0,29.819881,1010.0,,TRUE,,,,,,,,CLR,,,,,,,,VFR,,,,,,,,,,,,SPECI,414.0
CYGX 300300Z 18005KT 15SM SCT024CB BKN220 21/17 A2960 RMK CB3CI3 SLP028 DENSITY ALT 1700FT,CYGX,2023-05-30T03:00:00Z,56.35,-94.7,21.0,17.0,180,5,,15.0,29.601377,1002.8,,,,,,,,,,SCT,2400,BKN,22000,,,,,VFR,,,,,,,,,,,,SPECI,145.0
CYGW 300300Z AUTO 17015G22KT 9SM CLR 19/01 A2980 RMK SLP093 DENSITY ALT 700FT,CYGW,2023-05-30T03:00:00Z,55.27,-77.77,19.0,1.0,170,15,22,9.0,29.799213,1009.3,,TRUE,,,,,,,,CLR,,,,,,,,VFR,,,,,,,,,,,,SPECI,13.0
CYGV 300300Z AUTO 31007KT 9SM BKN150 BKN170 05/02 A3008 RMK SLP189,CYGV,2023-05-30T03:00:00Z,50.28,-63.62,5.0,2.0,310,7,,9.0,30.079725,1018.9,,TRUE,,,,,,,,BKN,15000,BKN,17000,,,,,VFR,,,,,,,,,,,,SPECI,32.0
CYGT 300300Z 03022KT 15SM DRSN FEW014 BKN018 OVC024 M03/M05 A2954 RMK SC2SC4SC2 CALL OUT SLP009,CYGT,2023-05-30T03:00:00Z,69.37,-81.82,-3.0,-5.0,30,22,,15.0,29.53937,1000.9,,,,,,,,,DRSN,FEW,1400,BKN,1800,OVC,2400,,,MVFR,,,,,,,,,,,,SPECI,49.0
CYGP 300300Z VRB02KT 15SM OVC170 06/04 A3013 RMK AS8 SLP206,CYGP,2023-05-30T03:00:00Z,48.77,-64.47,6.0,4.0,0,2,,15.0,30.129921,1020.6,,,,,,,,,,OVC,17000,,,,,,,VFR,,,,,,,,,,,,SPECI,31.0
CYGL 300300Z 18005KT 15SM BKN240 17/02 A2993 RMK CI5 SLP142 DENSITY ALT 1100FT,CYGL,2023-05-30T03:00:00Z,53.62,-77.7,17.0,2.0,180,5,,15.0,29.929134,1014.2,,,,,,,,,,BKN,24000,,,,,,,VFR,,,,,,,,,,,,METAR,192.0
CYGK 300300Z 02006KT 15SM SKC 16/03 A3008 RMK LAST STFD OBS/ NXT 301000Z SLP187,CYGK,2023-05-30T03:00:00Z,44.22,-76.58,16.0,3.0,20,6,,15.0,30.079725,1018.7,,,,,,,,,,SKC,,,,,,,,VFR,,,,,,,,,,,,SPECI,91.0
CYFS 300300Z 27007KT 220V300 15SM FEW054 SCT068 BKN130 BKN210 BKN250 10/07 A2954 RMK SC1AC3AC2CC1CI1 SC TR CC TR SLP011,CYFS,2023-05-30T03:00:00Z,61.75,-121.22,10.0,7.0,270,7,,15.0,29.53937,1001.1,,,,,,,,,,FEW,5400,SCT,6800,BKN,13000,BKN,21000,VFR,,,,,,,,,,,,SPECI,174.0
CYFC 300300Z AUTO 21010KT 9SM CLR 09/03 A3018 RMK SLP223,CYFC,2023-05-30T03:00:00Z,45.87,-66.53,9.0,3.0,210,10,,9.0,30.180119,1022.3,,TRUE,,,,,,,,CLR,,,,,,,,VFR,,,,,,,,,,,,METAR,16.0
CYEV 300300Z 29003KT 230V320 15SM FEW068TCU SCT100 SCT250 21/03 A2946 RMK TCU2AC1CI2 AC TR CB TOPS DIST NE-W SLP982 DENSITY ALT 1500FT,CYEV,2023-05-30T03:00:00Z,68.32,-133.5,21.0,3.0,290,3,,15.0,29.459646,998.2,,,,,,,,,,FEW,6800,SCT,10000,SCT,25000,,,VFR,,,,,,,,,,,,SPECI,74.0
CYET 300300Z AUTO 33005KT 240V010 9SM FEW071 SCT092 SCT110 17/07 A2973 RMK SLP070 DENSITY ALT 4300FT,CYET,2023-05-30T03:00:00Z,53.57,-116.47,17.0,7.0,330,5,,9.0,29.731298,1007.0,,TRUE,,,,,,,,FEW,7100,SCT,9200,SCT,11000,,,VFR,,,,,,,,,,,,SPECI,925.0
CYER 300300Z AUTO VRB02KT 9SM FEW091 SCT110 BKN130 BKN220 15/12 A2965 RMK SLP043 DENSITY ALT 500FT,CYER,2023-05-30T03:00:00Z,56.02,-87.68,15.0,12.0,0,2,,9.0,29.648623,1004.3,,TRUE,,,,,,,,FEW,9100,SCT,11000,BKN,13000,BKN,22000,VFR,,,,,,,,,,,,METAR,11.0
CYEN 300300Z AUTO 22007KT 9SM BKN110 19/15 A2969 RMK SLP056 DENSITY ALT 3200FT,CYEN,2023-05-30T03:00:00Z,49.22,-102.97,19.0,15.0,220,7,,9.0,29.68996,1005.6,,TRUE,,,,,,,,BKN,11000,,,,,,,VFR,,,,,,,,,,,,SPECI,580.0
CYEK 300300Z AUTO 02015G20KT 9SM CLR 02/01 A2967 RMK SLP051,CYEK,2023-05-30T03:00:00Z,61.1,-94.07,2.0,1.0,20,15,20,9.0,29.66929,1005.1,,TRUE,,,,,,,,CLR,,,,,,,,VFR,,,,,,,,,,,,SPECI,7.0
CYEG 300300Z 02013G19KT 20SM SCT120 BKN250 20/09 A2969 RMK AC3CI4 SLP054 DENSITY ALT 3800FT,CYEG,2023-05-30T03:00:00Z,53.3,-113.58,20.0,9.0,20,13,19,20.0,29.68996,1005.4,,,,,,,,,,SCT,12000,BKN,25000,,,,,VFR,,,,,,,,,,,,METAR,710.0
CYDL 300300Z AUTO 26007KT 210V300 9SM OVC096 08/M04 A2980 RMK SLP105,CYDL,2023-05-30T03:00:00Z,58.42,-130.02,8.0,-4.0,260,7,,9.0,29.799213,1010.5,,TRUE,,,,,,,,OVC,9600,,,,,,,VFR,,,,,,,,,,,,METAR,804.0
CYDF 300300Z 20007KT 190V260 15SM SKC M01/M01 A3010 RMK SLP196,CYDF,2023-05-30T03:00:00Z,49.22,-57.4,-1.0,-1.0,200,7,,15.0,30.100393,1019.6,,,,,,,,,,SKC,,,,,,,,VFR,,,,,,,,,,,,SPECI,15.0
CYDB 300300Z AUTO 25006KT 9SM FEW066 06/M01 A2962 RMK SLP060,CYDB,2023-05-30T03:00:00Z,61.37,-139.02,6.0,-1.0,250,6,,9.0,29.619095,1006.0,,TRUE,,,,,,,,FEW,6600,,,,,,,VFR,,,,,,,,,,,,SPECI,807.0
CYDA 300300Z 19009KT 160V230 20SM FEW060 SCT080 BKN090 BKN220 11/02 A2957 RMK SC1AC3AS3CI1 CI TR OB FOR MEDEVAC LAST STFD OB/NXT 301400Z SLP029 DENSITY ALT 1500FT,CYDA,2023-05-30T03:00:00Z,64.03,-139.12,11.0,2.0,190,9,,20.0,29.568897,1002.9,,,,,,,,,,FEW,6000,SCT,8000,BKN,9000,BKN,22000,VFR,,,,,,,,,,,,SPECI,338.0
CYCO 300300Z 09014G22KT 15SM FEW020 02/M01 A2978 RMK SC1 SC TR SLP090,CYCO,2023-05-30T03:00:00Z,67.82,-115.15,2.0,-1.0,90,14,22,15.0,29.778543,1009.0,,,,,,,,,,FEW,2000,,,,,,,VFR,,,,,,,,,,,,SPECI,20.0
CYCK 300300Z AUTO 11005KT 9SM CLR 18/06 A3002 RMK SLP164 DENSITY ALT 1100FT,CYCK,2023-05-30T03:00:00Z,42.3,-82.08,18.0,6.0,110,5,,9.0,30.02067,1016.4,,TRUE,,,,,,,,CLR,,,,,,,,VFR,,,,,,,,,,,,METAR,196.0
CYCG 300300Z 15005KT 15SM SCT090 BKN140 BKN250 24/12 A2970 RMK CU4AC2CI1 SLP053 DENSITY ALT 3300FT,CYCG,2023-05-30T03:00:00Z,49.28,-117.63,24.0,12.0,150,5,,15.0,29.698818,1005.3,,,,,,,,,,SCT,9000,BKN,14000,BKN,25000,,,VFR,,,,,,,,,,,,SPECI,487.0
CYCD 300300Z 05004KT 010V080 30SM FEW050 FEW250 19/10 A2985 RMK SC1CI1 SLP112 DENSITY ALT 600FT,CYCD,2023-05-30T03:00:00Z,49.05,-123.87,19.0,10.0,50,4,,30.0,29.84941,1011.2,,,,,,,,,,FEW,5000,FEW,25000,,,,,VFR,,,,,,,,,,,,SPECI,30.0
CYCB 300300Z 08006KT 15SM BKN015 M05/M06 A3001 RMK SC7 SLP167,CYCB,2023-05-30T03:00:00Z,69.1,-105.12,-5.0,-6.0,80,6,,15.0,30.008858,1016.7,,,,,,,,,,BKN,1500,,,,,,,MVFR,,,,,,,,,,,,SPECI,19.0
CYCA 300300Z AUTO 32009KT 9SM OVC023 00/M03 A2999 RMK SLP158,CYCA,2023-05-30T03:00:00Z,53.68,-57.03,0.0,-3.0,320,9,,9.0,29.991142,1015.8,,TRUE,,,,,,,,OVC,2300,,,,,,,MVFR,,,,,,,,,,,,METAR,12.0
CYBX 300300Z 26010KT 15SM SKC 00/M00 A3002 RMK SLP169,CYBX,2023-05-30T03:00:00Z,51.45,-57.18,0.0,0.0,260,10,,15.0,30.02067,1016.9,,,,,,,,,,SKC,,,,,,,,VFR,,,,,,,,,,,,SPECI,32.0
CYBW 300300Z AUTO 27010KT 9SM CLR 18/05 A2973 RMK SLP066 DENSITY ALT 5500FT,CYBW,2023-05-30T03:00:00Z,51.1,-114.37,18.0,5.0,270,10,,9.0,29.731298,1006.6,,TRUE,,,,,,,,CLR,,,,,,,,VFR,,,,,,,,,,,,SPECI,1197.0
CYBU 300300Z AUTO /////KT 8SM SCT040 BKN091 20/13 A2963 RMK SLP037 DENSITY ALT 2500FT,CYBU,2023-05-30T03:00:00Z,53.32,-104.0,20.0,13.0,,,,8.0,29.630905,1003.7,,TRUE,,,,,,,,SCT,4000,BKN,9100,,,,,VFR,,,,,,,,,,,,SPECI,369.0
CYBQ 300300Z AUTO 01005KT 320V020 9SM SCT071 15/11 A2961 RMK SLP036 DENSITY ALT 1500FT,CYBQ,2023-05-30T03:00:00Z,58.7,-98.5,15.0,11.0,10,5,,9.0,29.610237,1003.6,,TRUE,,,,,,,,SCT,7100,,,,,,,VFR,,,,,,,,,,,,METAR,272.0
CYBL 300300Z 31011KT 30SM FEW060 FEW260 16/04 A2988 RMK CU1CI1 VIS LWR S-W FU SLP120 DENSITY ALT 700FT,CYBL,2023-05-30T03:00:00Z,49.95,-125.27,16.0,4.0,310,11,,30.0,29.878937,1012.0,,,,,,,,,,FEW,6000,FEW,26000,,,,,VFR,,,,,,,,,,,,SPECI,94.0
CYBK 300300Z 03012G17KT 20SM FEW020 FEW180 01/M03 A2982 RMK SC1AC1 SLP103,CYBK,2023-05-30T03:00:00Z,64.3,-96.07,1.0,-3.0,30,12,17,20.0,29.819881,1010.3,,,,,,,,,,FEW,2000,FEW,18000,,,,,VFR,,,,,,,,,,,,SPECI,14.0
CYBG 300300Z 15002KT 25SM FEW240 11/04 A3014 RMK CI2 DENSITY ALT 53FT SLP209,CYBG,2023-05-30T03:00:00Z,48.33,-70.98,11.0,4.0,150,2,,25.0,30.138779,1020.9,,,,,,,,,,FEW,24000,,,,,,,VFR,,,,,,,,,,,,METAR,151.0
CYBC 300300Z AUTO 22003KT 9SM BKN160 08/04 A3013 RMK SLP207,CYBC,2023-05-30T03:00:00Z,49.13,-68.2,8.0,4.0,220,3,,9.0,30.129921,1020.7,,TRUE,,,,,,,,BKN,16000,,,,,,,VFR,,,,,,,,,,,,SPECI,20.0
CYAY 300300Z AUTO /////KT 9SM M00/M02 A2998 RMK WIND MISG CLD MISG ICE MISG SLP155,CYAY,2023-05-30T03:00:00Z,51.38,-56.07,0.0,-2.0,,,,9.0,29.97933,1015.5,,TRUE,,,,,,,,,,,,,,,,,,,,,,,,,,,,SPECI,23.0
CYAM 300300Z 04003KT 20SM FEW180 FEW250 13/06 A3004 RMK AC1CI1 AC TR CI TR SLP175,CYAM,2023-05-30T03:00:00Z,46.48,-84.52,13.0,6.0,40,3,,20.0,30.041338,1017.5,,,,,,,,,,FEW,18000,FEW,25000,,,,,VFR,,,,,,,,,,,,SPECI,186.0
CYAH 300300Z AUTO 21009KT 9SM CLR 15/M01 A2998 RMK SLP162,CYAH,2023-05-30T03:00:00Z,53.75,-73.67,15.0,-1.0,210,9,,9.0,29.97933,1016.2,,TRUE,,,,,,,,CLR,,,,,,,,VFR,,,,,,,,,,,,SPECI,298.0
CXZV 300300Z AUTO 02001KT 06/02 RMK AO1 SLP192 T00570017 58004,CXZV,2023-05-30T03:00:00Z,50.22,-66.25,5.7,1.7,20,1,,,,1019.2,,TRUE,TRUE,,,,,,,,,,,,,,,,-0.4,,,,,,,,,,,METAR,43.0
CXZC 300300Z AUTO 15004KT 23/10 RMK AO1 SLP124 T02290100 57002,CXZC,2023-05-30T03:00:00Z,51.3,-80.62,22.9,10.0,150,4,,,,1012.4,,TRUE,TRUE,,,,,,,,,,,,,,,,-0.2,,,,,,,,,,,METAR,8.0
CXYH 300300Z AUTO 31003KT 13/01 RMK AO1 SLP001 T01290012 51005,CXYH,2023-05-30T03:00:00Z,61.25,-123.75,12.9,1.2,310,3,,,,1000.1,,TRUE,TRUE,,,,,,,,,,,,,,,,0.5,,,,,,,,,,,METAR,197.0
CXWN 300300Z AUTO 21001KT 22/16 RMK AO1 SLP048 T02160162 53007,CXWN,2023-05-30T03:00:00Z,49.88,-97.13,21.6,16.2,210,1,,,,1004.8,,TRUE,TRUE,,,,,,,,,,,,,,,,0.7,,,,,,,,,,,METAR,232.0
CXWM 300300Z AUTO 23008KT 18/10 RMK AO1 T01840095 50020,CXWM,2023-05-30T03:00:00Z,49.5,-112.12,18.4,9.5,230,8,,,,,,TRUE,TRUE,,,,,,,,,,,,,,,,2.0,,,,,,,,,,,METAR,947.0
CXWB 300300Z AUTO 35015KT M01/M05 RMK AO1 PK WND 02022/0215 SLP082 T10091054 53023,CXWB,2023-05-30T03:00:00Z,65.88,-89.45,-0.9,-5.4,350,15,,,,1008.2,,TRUE,TRUE,,,,,,,,,,,,,,,,2.3,,,,,,,,,,,METAR,14.0
CXVW 300300Z AUTO 31005KT 17/02 RMK AO1 SLP070 T01710016 53013,CXVW,2023-05-30T03:00:00Z,55.1,-117.2,17.1,1.6,310,5,,,,1007.0,,TRUE,TRUE,,,,,,,,,,,,,,,,1.3,,,,,,,,,,,METAR,696.0
CXVN 300300Z AUTO 25002KT 14/12 RMK AO1 SLP178 T01440116 53015,CXVN,2023-05-30T03:00:00Z,43.18,-79.4,14.4,11.6,250,2,,,,1017.8,,TRUE,TRUE,,,,,,,,,,,,,,,,1.5,,,,,,,,,,,METAR,86.0
CXVM 300300Z AUTO 30008KT 17/08 RMK AO1 T01680083,CXVM,2023-05-30T03:00:00Z,53.35,-110.88,16.8,8.3,300,8,,,,,,TRUE,TRUE,,,,,,,,,,,,,,,,,,,,,,,,,,,METAR,622.0
CXTV 300300Z AUTO 07008KT 18/05 RMK AO1 SLP988 T01840054 53004,CXTV,2023-05-30T03:00:00Z,68.75,-133.5,18.4,5.4,70,8,,,,998.8,,TRUE,TRUE,,,,,,,,,,,,,,,,0.4,,,,,,,,,,,METAR,91.0
CXTP 300300Z AUTO 32003KT M00/M01 RMK AO1 SLP168 T10041012 52009,CXTP,2023-05-30T03:00:00Z,48.55,-53.97,-0.4,-1.2,320,3,,,,1016.8,,TRUE,TRUE,,,,,,,,,,,,,,,,0.9,,,,,,,,,,,METAR,104.0
CXTO 300300Z AUTO 19/06 RMK AO1 SLP182 T01940055 53011,CXTO,2023-05-30T03:00:00Z,43.67,-79.4,19.4,5.5,,,,,,1018.2,,TRUE,TRUE,,,,,,,,,,,,,,,,1.1,,,,,,,,,,,METAR,115.0
CXTN 300300Z AUTO 17023KT 03/M01 RMK AO1 PK WND 18027/0300 SLP062 T00311013 50000,CXTN,2023-05-30T03:00:00Z,69.2,-122.35,3.1,-1.3,170,23,,,,1006.2,,TRUE,TRUE,,,,,,,,,,,,,,,,0.0,,,,,,,,,,,METAR,564.0
CXTH 300300Z AUTO 08008KT 16/12 RMK AO1 T01580121 50028,CXTH,2023-05-30T03:00:00Z,53.63,-111.68,15.8,12.1,80,8,,,,,,TRUE,TRUE,,,,,,,,,,,,,,,,2.8,,,,,,,,,,,METAR,679.0
CXTD 300300Z AUTO 35004KT 03/01 RMK AO1 SLP239 T00340008 50006,CXTD,2023-05-30T03:00:00Z,45.62,-61.68,3.4,0.8,350,4,,,,1023.9,,TRUE,TRUE,,,,,,,,,,,,,,,,0.6,,,,,,,,,,,METAR,58.0
CXSP 300300Z AUTO 01003KT 16/11 RMK AO1 T01610109,CXSP,2023-05-30T03:00:00Z,54.02,-111.27,16.1,10.9,10,3,,,,,,TRUE,TRUE,,,,,,,,,,,,,,,,,,,,,,,,,,,METAR,652.0
CXSL 300300Z AUTO 05003KT 16/12 RMK AO1 T01580115,CXSL,2023-05-30T03:00:00Z,54.28,-112.5,15.8,11.5,50,3,,,,,,TRUE,TRUE,,,,,,,,,,,,,,,,,,,,,,,,,,,METAR,680.0
CXSH 300300Z AUTO 34002KT 12/05 RMK AO1 SLP211 T01150051 53006,CXSH,2023-05-30T03:00:00Z,46.55,-72.73,11.5,5.1,340,2,,,,1021.1,,TRUE,TRUE,,,,,,,,,,,,,,,,0.6,,,,,,,,,,,METAR,106.0
CXSE 300300Z AUTO 27006KT M04/M05 RMK AO1 SOG 21 1008 SLP138 T10361052,CXSE,2023-05-30T03:00:00Z,73.77,-105.28,-3.6,-5.2,270,6,,,,1013.8,,TRUE,TRUE,,,,,,,,,,,,,,,,,,,,,,,,,,,METAR,11.0
CXSC 300300Z AUTO 18008KT 19/09 RMK AO1 PK WND 18018/0215 T01900088,CXSC,2023-05-30T03:00:00Z,50.3,-110.08,19.0,8.8,180,8,,,,,,TRUE,TRUE,,,,,,,,,,,,,,,,,,,,,,,,,,,METAR,809.0
CXRL 300300Z AUTO 20001KT 16/13 RMK AO1 T01580131,CXRL,2023-05-30T03:00:00Z,54.5,-111.7,15.8,13.1,200,1,,,,,,TRUE,TRUE,,,,,,,,,,,,,,,,,,,,,,,,,,,METAR,585.0
CXRH 300300Z AUTO 28002KT 01/M01 RMK AO1 SLP199 T00141007 51006,CXRH,2023-05-30T03:00:00Z,49.57,-57.88,1.4,-0.7,280,2,,,,1019.9,,TRUE,TRUE,,,,,,,,,,,,,,,,0.6,,,,,,,,,,,METAR,68.0
CXRB 300300Z AUTO 35005KT M06/M08 RMK AO1 SOG 10 1007 SLP127 T10621084,CXRB,2023-05-30T03:00:00Z,74.72,-94.98,-6.2,-8.4,350,5,,,,1012.7,,TRUE,TRUE,,,,,,,,,,,,,,,,,,,,,,,,,,,METAR,30.0
CXPL 300300Z AUTO 19005KT 21/07 RMK AO1 T02100068,CXPL,2023-05-30T03:00:00Z,51.13,-111.7,21.0,6.8,190,5,,,,,,TRUE,TRUE,,,,,,,,,,,,,,,,,,,,,,,,,,,METAR,735.0
CXPC 300300Z AUTO 16/10 RMK AO1 SLP176 T01620099 51008,CXPC,2023-05-30T03:00:00Z,45.35,-80.05,16.2,9.9,,,,,,1017.6,,TRUE,TRUE,,,,,,,,,,,,,,,,0.8,,,,,,,,,,,METAR,176.0
CXPA 300300Z AUTO 25005KT 18/M01 RMK AO1 T01801012,CXPA,2023-05-30T03:00:00Z,55.62,-118.3,18.0,-1.2,250,5,,,,,,TRUE,TRUE,,,,,,,,,,,,,,,,,,,,,,,,,,,METAR,628.0
CXOY 300300Z AUTO 11006KT 21/09 RMK AO1 T02070093,CXOY,2023-05-30T03:00:00Z,51.35,-110.35,20.7,9.3,110,6,,,,,,TRUE,TRUE,,,,,,,,,,,,,,,,,,,,,,,,,,,METAR,784.0
CXOX 300300Z AUTO 27001KT 15/06 RMK AO1 SLP049 T01530058 53010,CXOX,2023-05-30T03:00:00Z,55.15,-105.27,15.3,5.8,270,1,,,,1004.9,,TRUE,TRUE,,,,,,,,,,,,,,,,1.0,,,,,,,,,,,METAR,381.0
CXOL 300300Z AUTO 06005KT 20/07 RMK AO1 T01950068,CXOL,2023-05-30T03:00:00Z,51.77,-114.08,19.5,6.8,60,5,,,,,,TRUE,TRUE,,,,,,,,,,,,,,,,,,,,,,,,,,,METAR,1026.0
CXNP 300300Z AUTO 15001KT 05/01 RMK AO1 SLP226 T00470006 53009,CXNP,2023-05-30T03:00:00Z,45.75,-64.23,4.7,0.6,150,1,,,,1022.6,,TRUE,TRUE,,,,,,,,,,,,,,,,0.9,,,,,,,,,,,METAR,19.0
CXNM 300300Z AUTO 30005KT M01/M02 RMK AO1 T10081019,CXNM,2023-05-30T03:00:00Z,46.82,-60.67,-0.8,-1.9,300,5,,,,,,TRUE,TRUE,,,,,,,,,,,,,,,,,,,,,,,,,,,METAR,452.0
CXMY 300300Z AUTO M00/M01 RMK AO1 2PAST HR M P0001 T10011009 50002,CXMY,2023-05-30T03:00:00Z,44.98,-62.48,-0.1,-0.9,,,,,,,,TRUE,TRUE,,,,,,,,,,,,,,,,0.2,,,,,0.01,,,,,,METAR,37.0
CXMO 300300Z AUTO 07003KT 21/07 RMK AO1 T02140066,CXMO,2023-05-30T03:00:00Z,51.67,-112.68,21.4,6.6,70,3,,,,,,TRUE,TRUE,,,,,,,,,,,,,,,,,,,,,,,,,,,METAR,837.0
CXMM 300300Z AUTO 24005KT 19/01 RMK AO1 SLP046 T01860009 53011,CXMM,2023-05-30T03:00:00Z,56.65,-111.22,18.6,0.9,240,5,,,,1004.6,,TRUE,TRUE,,,,,,,,,,,,,,,,1.1,,,,,,,,,,,METAR,372.0
CXMI 300300Z AUTO 26001KT 06/04 RMK AO1 SLP225 T00630040 51009,CXMI,2023-05-30T03:00:00Z,44.6,-63.53,6.3,4.0,260,1,,,,1022.5,,TRUE,TRUE,,,,,,,,,,,,,,,,0.9,,,,,,,,,,,METAR,15.0
CXMG 300300Z AUTO 25006KT 19/M03 RMK AO1 T01891031,CXMG,2023-05-30T03:00:00Z,56.97,-117.45,18.9,-3.1,250,6,,,,,,TRUE,TRUE,,,,,,,,,,,,,,,,,,,,,,,,,,,METAR,467.0
CXMD 300300Z AUTO 19003KT 20/16 RMK AO1 SLP050 T01990158 53008,CXMD,2023-05-30T03:00:00Z,49.18,-98.08,19.9,15.8,190,3,,,,1005.0,,TRUE,TRUE,,,,,,,,,,,,,,,,0.8,,,,,,,,,,,METAR,297.0
CXLL 300300Z AUTO 13/09 RMK AO1 SLP012 T01270091 52001,CXLL,2023-05-30T03:00:00Z,61.12,-122.85,12.7,9.1,,,,,,1001.2,,TRUE,TRUE,,,,,,,,,,,,,,,,0.1,,,,,,,,,,,METAR,180.0
CXLB 300300Z AUTO 05002KT 08/03 RMK AO1 SLP227 T00830028 50010,CXLB,2023-05-30T03:00:00Z,44.37,-64.3,8.3,2.8,50,2,,,,1022.7,,TRUE,TRUE,,,,,,,,,,,,,,,,1.0,,,,,,,,,,,METAR,4.0
CXKT 300300Z AUTO 24003KT 05/M00 RMK AO1 SLP230 T00451002 52007,CXKT,2023-05-30T03:00:00Z,45.07,-64.48,4.5,-0.2,240,3,,,,1023.0,,TRUE,TRUE,,,,,,,,,,,,,,,,0.7,,,,,,,,,,,METAR,48.0
CXKM 300300Z AUTO 06010KT 18/10 RMK AO1 PK WND 04019/0202 T01760103,CXKM,2023-05-30T03:00:00Z,52.83,-111.87,17.6,10.3,60,10,,,,,,TRUE,TRUE,,,,,,,,,,,,,,,,,,,,,,,,,,,METAR,679.0
CXKI 300300Z AUTO 00000KT 13/09 RMK AO1 SLP166 T01280091 51007,CXKI,2023-05-30T03:00:00Z,48.13,-80.0,12.8,9.1,0,0,,,,1016.6,,TRUE,TRUE,,,,,,,,,,,,,,,,0.7,,,,,,,,,,,METAR,328.0
CXKE 300300Z AUTO 06002KT 13/02 RMK AO1 SLP191 T01250023 50005,CXKE,2023-05-30T03:00:00Z,45.0,-75.63,12.5,2.3,60,2,,,,1019.1,,TRUE,TRUE,,,,,,,,,,,,,,,,0.5,,,,,,,,,,,METAR,99.0
CXKA 300300Z AUTO 23004KT 20/10 RMK AO1 SLP148 T02040103 53010,CXKA,2023-05-30T03:00:00Z,49.4,-82.45,20.4,10.3,230,4,,,,1014.8,,TRUE,TRUE,,,,,,,,,,,,,,,,1.0,,,,,,,,,,,METAR,221.0
CXIB 300300Z AUTO 25001KT 01/M02 RMK AO1 SLP211 T00071017 51008,CXIB,2023-05-30T03:00:00Z,46.67,-60.4,0.7,-1.7,250,1,,,,1021.1,,TRUE,TRUE,,,,,,,,,,,,,,,,0.8,,,,,,,,,,,METAR,6.0
CXHR 300300Z AUTO 16007KT 21/06 RMK AO1 T02130056,CXHR,2023-05-30T03:00:00Z,51.18,-112.5,21.3,5.6,160,7,,,,,,TRUE,TRUE,,,,,,,,,,,,,,,,,,,,,,,,,,,METAR,975.0
CXHP 300300Z AUTO 26004KT 18/M02 RMK AO1 T01811016,CXHP,2023-05-30T03:00:00Z,55.4,-116.48,18.1,-1.6,260,4,,,,,,TRUE,TRUE,,,,,,,,,,,,,,,,,,,,,,,,,,,METAR,601.0
CXHM 300300Z AUTO 00000KT 14/07 RMK AO1 3010 SLP180 T01400072 50002,CXHM,2023-05-30T03:00:00Z,43.28,-79.9,14.0,7.2,0,0,,,,1018.0,,TRUE,TRUE,,,,,,,,,,,,,,,,0.2,,,,,,,,,,,METAR,105.0
CXHD 300300Z AUTO 06003KT 17/14 RMK AO1 T01740136 50006,CXHD,2023-05-30T03:00:00Z,53.18,-112.25,17.4,13.6,60,3,,,,,,TRUE,TRUE,,,,,,,,,,,,,,,,0.6,,,,,,,,,,,METAR,688.0
CXHA 300300Z AUTO 05003KT 16/09 RMK AO1 SLP163 T01630089 51016,CXHA,2023-05-30T03:00:00Z,42.03,-82.9,16.3,8.9,50,3,,,,1016.3,,TRUE,TRUE,,,,,,,,,,,,,,,,1.6,,,,,,,,,,,METAR,193.0
CXGH 300300Z AUTO 19010KT 20/16 RMK AO1 SLP042 T01960159 53003,CXGH,2023-05-30T03:00:00Z,50.63,-97.0,19.6,15.9,190,10,,,,1004.2,,TRUE,TRUE,,,,,,,,,,,,,,,,0.3,,,,,,,,,,,METAR,217.0
CXFR 300300Z AUTO 26011KT 17/M04 RMK AO1 PK WND 25020/0202 T01741040,CXFR,2023-05-30T03:00:00Z,56.08,-118.43,17.4,-4.0,260,11,,,,,,TRUE,TRUE,,,,,,,,,,,,,,,,,,,,,,,,,,,METAR,657.0
CXFM 300300Z AUTO 19011KT 20/10 RMK AO1 PK WND 20018/0225 T01960095,CXFM,2023-05-30T03:00:00Z,49.48,-111.48,19.6,9.5,190,11,,,,,,TRUE,TRUE,,,,,,,,,,,,,,,,,,,,,,,,,,,METAR,884.0
CXET 300300Z AUTO 13003KT 17/08 RMK AO1 SLP186 T01690075 51014,CXET,2023-05-30T03:00:00Z,44.23,-79.78,16.9,7.5,130,3,,,,1018.6,,TRUE,TRUE,,,,,,,,,,,,,,,,1.4,,,,,,,,,,,METAR,250.0
CXEG 300300Z AUTO 03013KT 20/09 RMK AO1 PK WND 01020/0208 SLP052 T02000087 53015,CXEG,2023-05-30T03:00:00Z,53.3,-113.6,20.0,8.7,30,13,,,,1005.2,,TRUE,TRUE,,,,,,,,,,,,,,,,1.5,,,,,,,,,,,METAR,706.0
CXEC 300300Z AUTO 04007KT 20/09 RMK AO1 SLP057 T02030094 52020,CXEC,2023-05-30T03:00:00Z,53.57,-113.52,20.3,9.4,40,7,,,,1005.7,,TRUE,TRUE,,,,,,,,,,,,,,,,2.0,,,,,,,,,,,METAR,666.0
CXEA 300300Z AUTO 16003KT 22/05 RMK AO1 SLP076 T02150051 55000,CXEA,2023-05-30T03:00:00Z,50.63,-93.22,21.5,5.1,160,3,,,,1007.6,,TRUE,TRUE,,,,,,,,,,,,,,,,0.0,,,,,,,,,,,METAR,351.0
CXDW 300300Z AUTO 15003KT 18/15 RMK AO1 SLP050 T01780151 53010,CXDW,2023-05-30T03:00:00Z,49.4,-98.32,17.8,15.1,150,3,,,,1005.0,,TRUE,TRUE,,,,,,,,,,,,,,,,1.0,,,,,,,,,,,METAR,341.0
CXDK 300300Z AUTO 12/01 RMK AO1 18 0216Z 1009 SLP024 T01170010,CXDK,2023-05-30T03:00:00Z,61.27,-124.47,11.7,1.0,,,,,,1002.4,,TRUE,TRUE,,,,,,,,,,,,,,,,,,,,,,,,,,,METAR,269.0
CXDI 300300Z AUTO 04002KT 17/07 RMK AO1 SLP172 T01690066 53011,CXDI,2023-05-30T03:00:00Z,42.87,-80.55,16.9,6.6,40,2,,,,1017.2,,TRUE,TRUE,,,,,,,,,,,,,,,,1.1,,,,,,,,,,,METAR,234.0
CXDE 300300Z AUTO 08010KT 12/02 RMK AO1 SLP021 T01200019 53001,CXDE,2023-05-30T03:00:00Z,65.22,-123.43,12.0,1.9,80,10,,,,1002.1,,TRUE,TRUE,,,,,,,,,,,,,,,,0.1,,,,,,,,,,,METAR,208.0
CXDB 300300Z AUTO 23010KT 16/07 RMK AO1 PK WND 24018/0206 T01550073,CXDB,2023-05-30T03:00:00Z,49.05,-112.82,15.5,7.3,230,10,,,,,,TRUE,TRUE,,,,,,,,,,,,,,,,,,,,,,,,,,,METAR,1311.0
CXCS 300300Z AUTO 14005KT 21/07 RMK AO1 T02060070,CXCS,2023-05-30T03:00:00Z,51.93,-110.72,20.6,7.0,140,5,,,,,,TRUE,TRUE,,,,,,,,,,,,,,,,,,,,,,,,,,,METAR,771.0
CXCP 300300Z AUTO 26006KT 22/02 RMK AO1 T02180020,CXCP,2023-05-30T03:00:00Z,50.28,-113.35,21.8,2.0,260,6,,,,,,TRUE,TRUE,,,,,,,,,,,,,,,,,,,,,,,,,,,METAR,999.0
CXCK 300300Z AUTO 29004KT 09/03 RMK AO1 SLP045 T00870034 55004,CXCK,2023-05-30T03:00:00Z,62.12,-136.2,8.7,3.4,290,4,,,,1004.5,,TRUE,TRUE,,,,,,,,,,,,,,,,-0.4,,,,,,,,,,,METAR,526.0
CXCD 300300Z AUTO 23007KT 17/M03 RMK AO1 T01671028,CXCD,2023-05-30T03:00:00Z,56.32,-119.75,16.7,-2.8,230,7,,,,,,TRUE,TRUE,,,,,,,,,,,,,,,,,,,,,,,,,,,METAR,628.0
CXCA 300300Z AUTO 17004KT 14/03 RMK AO1 SLP147 T01440033 53002,CXCA,2023-05-30T03:00:00Z,49.15,-88.35,14.4,3.3,170,4,,,,1014.7,,TRUE,TRUE,,,,,,,,,,,,,,,,0.2,,,,,,,,,,,METAR,228.0
CXBW 300300Z AUTO 23008KT 20/09 RMK AO1 T02020091,CXBW,2023-05-30T03:00:00Z,49.8,-112.3,20.2,9.1,230,8,,,,,,TRUE,TRUE,,,,,,,,,,,,,,,,,,,,,,,,,,,METAR,823.0
CXBR 300300Z AUTO 25017KT RMK AO1 PK WND 26025/0200,CXBR,2023-05-30T03:00:00Z,49.62,-113.82,,,250,17,,,,,,TRUE,TRUE,,,,,,,,,,,,,,,,,,,,,,,,,,,METAR,1137.0
CXBO 300300Z AUTO 03003KT 13/06 RMK AO1 T01290055,CXBO,2023-05-30T03:00:00Z,46.83,-71.2,12.9,5.5,30,3,,,,,,TRUE,TRUE,,,,,,,,,,,,,,,,,,,,,,,,,,,METAR,8.0
CXBK 300300Z AUTO 02003KT 19/10 RMK AO1 SLP055 T01920100 53013,CXBK,2023-05-30T03:00:00Z,50.2,-104.7,19.2,10.0,20,3,,,,1005.5,,TRUE,TRUE,,,,,,,,,,,,,,,,1.3,,,,,,,,,,,METAR,585.0
CXBI 300300Z AUTO 00000KT 15/10 RMK AO1 SLP192 T01540098 51017,CXBI,2023-05-30T03:00:00Z,44.48,-79.55,15.4,9.8,0,0,,,,1019.2,,TRUE,TRUE,,,,,,,,,,,,,,,,1.7,,,,,,,,,,,METAR,287.0
CXBA 300300Z AUTO 15005KT 22/06 RMK AO1 T02220062,CXBA,2023-05-30T03:00:00Z,52.12,-110.1,22.2,6.2,150,5,,,,,,TRUE,TRUE,,,,,,,,,,,,,,,,,,,,,,,,,,,METAR,696.0
CXAK 300300Z AUTO 02013KT 21/08 RMK AO1 PK WND 00020/0228 T02090077,CXAK,2023-05-30T03:00:00Z,52.35,-112.6,20.9,7.7,20,13,,,,,,TRUE,TRUE,,,,,,,,,,,,,,,,,,,,,,,,,,,METAR,799.0
CXAJ 300300Z AUTO 08002KT 17/11 RMK AO1 T01710108,CXAJ,2023-05-30T03:00:00Z,54.78,-112.82,17.1,10.8,80,2,,,,,,TRUE,TRUE,,,,,,,,,,,,,,,,,,,,,,,,,,,METAR,586.0
CXAG 300300Z AUTO 04006KT 16/13 RMK AO1 T01560128,CXAG,2023-05-30T03:00:00Z,53.92,-112.28,15.6,12.8,40,6,,,,,,TRUE,TRUE,,,,,,,,,,,,,,,,,,,,,,,,,,,METAR,632.0
CXAF 300300Z AUTO 04003KT 18/11 RMK AO1 T01770114,CXAF,2023-05-30T03:00:00Z,54.28,-112.97,17.7,11.4,40,3,,,,,,TRUE,TRUE,,,,,,,,,,,,,,,,,,,,,,,,,,,METAR,667.0
CWZW 300300Z AUTO 26011G18KT 09/M06 RMK AO1 PK WND 26018/0259 SLP089 T00891057 54000,CWZW,2023-05-30T03:00:00Z,60.17,-132.73,8.9,-5.7,260,11,18,,,1008.9,,TRUE,TRUE,,,,,,,,,,,,,,,,,,,,,,,,,,,METAR,683.0
CWZQ 300300Z AUTO 12004KT M00/M01 RMK AO1 SLP228 T10041007 51009,CWZQ,2023-05-30T03:00:00Z,46.53,-61.05,-0.4,-0.7,120,4,,,,1022.8,,TRUE,TRUE,,,,,,,,,,,,,,,,0.9,,,,,,,,,,,METAR,13.0
CWZO 300300Z AUTO 24007KT RMK AO1,CWZO,2023-05-30T03:00:00Z,48.57,-123.25,,,240,7,,,,,,TRUE,TRUE,,,,,,,,,,,,,,,,,,,,,,,,,,,METAR,5.0
CWZN 300300Z AUTO 06005KT 03/02 RMK AO1 SLP185 T00340020 51017,CWZN,2023-05-30T03:00:00Z,47.37,-55.8,3.4,2.0,60,5,,,,1018.5,,TRUE,TRUE,,,,,,,,,,,,,,,,1.7,,,,,,,,,,,METAR,63.0
CWZL 300300Z AUTO 29011KT 11/03 RMK AO1 PK WND 29017/0231 SLP168 T01110030 56011,CWZL,2023-05-30T03:00:00Z,53.03,-131.6,11.1,3.0,290,11,,,,1016.8,,TRUE,TRUE,,,,,,,,,,,,,,,,-1.1,,,,,,,,,,,METAR,17.0
CWZG 300300Z AUTO 21003KT 15/03 RMK AO1 SLP075 T01490030 55002,CWZG,2023-05-30T03:00:00Z,51.2,-115.55,14.9,3.0,210,3,,,,1007.5,,TRUE,TRUE,,,,,,,,,,,,,,,,-0.2,,,,,,,,,,,METAR,1402.0
CWZA 300300Z AUTO 23004KT 20/10 RMK AO1 SLP117 T01960095 55001,CWZA,2023-05-30T03:00:00Z,49.25,-121.77,19.6,9.5,230,4,,,,1011.7,,TRUE,TRUE,,,,,,,,,,,,,,,,-0.1,,,,,,,,,,,METAR,18.0
CWYY 300300Z AUTO 07001KT 24/10 RMK AO1 SLP039 T02430095 55005,CWYY,2023-05-30T03:00:00Z,49.03,-119.43,24.3,9.5,70,1,,,,1003.9,,TRUE,TRUE,,,,,,,,,,,,,,,,-0.5,,,,,,,,,,,METAR,284.0
CWYL 300300Z AUTO 33001KT 13/07 RMK AO1 SLP084 T01280070 55000,CWYL,2023-05-30T03:00:00Z,51.45,-116.33,12.8,7.0,330,1,,,,1008.4,,TRUE,TRUE,,,,,,,,,,,,,,,,0.0,,,,,,,,,,,METAR,1602.0
CWYJ 300300Z AUTO 24005KT 15/06 RMK AO1 SLP117 T01480055 56007,CWYJ,2023-05-30T03:00:00Z,48.45,-123.3,14.8,5.5,240,5,,,,1011.7,,TRUE,TRUE,,,,,,,,,,,,,,,,-0.7,,,,,,,,,,,METAR,59.0
CWXL 300300Z AUTO 19005KT 22/10 RMK AO1 SLP052 T02180101 52003,CWXL,2023-05-30T03:00:00Z,49.73,-111.45,21.8,10.1,190,5,,,,1005.2,,TRUE,TRUE,,,,,,,,,,,,,,,,0.3,,,,,,,,,,,METAR,815.0
CWXI 300300Z AUTO 23015KT 03/01 RMK AO1 PK WND 22019/0258 SLP158 T00260007 58006,CWXI,2023-05-30T03:00:00Z,51.02,-57.1,2.6,0.7,230,15,,,,1015.8,,TRUE,TRUE,,,,,,,,,,,,,,,,-0.6,,,,,,,,,,,METAR,15.0
CWXC 300300Z AUTO 00000KT 08/04 RMK AO1 SLP212 T00780044 51010,CWXC,2023-05-30T03:00:00Z,48.88,-71.03,7.8,4.4,0,0,,,,1021.2,,TRUE,TRUE,,,,,,,,,,,,,,,,1.0,,,,,,,,,,,METAR,306.0
CWXA 300300Z AUTO 00025KT 17/02 RMK AO1 SLP090 T01730019 53010,CWXA,2023-05-30T03:00:00Z,51.07,-115.07,17.3,1.9,0,25,,,,1009.0,,TRUE,TRUE,,,,,,,,,,,,,,,,1.0,,,,,,,,,,,METAR,1303.0
CWWZ 300300Z AUTO 07003KT 15/12 RMK AO1 SLP177 T01520121 53014,CWWZ,2023-05-30T03:00:00Z,43.25,-79.22,15.2,12.1,70,3,,,,1017.7,,TRUE,TRUE,,,,,,,,,,,,,,,,1.4,,,,,,,,,,,METAR,75.0
CWWS 300300Z AUTO 26005KT 15/14 RMK AO1 1PAST HR 8003 SLP041 P0004 T01480141 50029,CWWS,2023-05-30T03:00:00Z,52.82,-97.62,14.8,14.1,260,5,,,,1004.1,,TRUE,TRUE,,,,,,,,,,,,,,,,2.9,,,,,0.04,,,,,,METAR,220.0
CWWL 300300Z AUTO 27004KT 11/05 RMK AO1 SLP159 T01140051 57013,CWWL,2023-05-30T03:00:00Z,53.5,-130.63,11.4,5.1,270,4,,,,1015.9,,TRUE,TRUE,,,,,,,,,,,,,,,,-1.3,,,,,,,,,,,METAR,8.0
CWWK 300300Z AUTO 15004KT 18/06 RMK AO1 SLP124 T01780057 56009,CWWK,2023-05-30T03:00:00Z,49.02,-122.78,17.8,5.7,150,4,,,,1012.4,,TRUE,TRUE,,,,,,,,,,,,,,,,-0.9,,,,,,,,,,,METAR,10.0
CWWF 300300Z AUTO 30003KT 21/10 RMK AO1 SLP050 T02100095 53008,CWWF,2023-05-30T03:00:00Z,49.7,-103.8,21.0,9.5,300,3,,,,1005.0,,TRUE,TRUE,,,,,,,,,,,,,,,,0.8,,,,,,,,,,,METAR,583.0
CWWE 300300Z AUTO 03002KT RMK AO1 50013,CWWE,2023-05-30T03:00:00Z,43.98,-64.67,,,30,2,,,,,,TRUE,TRUE,,,,,,,,,,,,,,,,1.3,,,,,,,,,,,METAR,4.0
CWWB 300300Z AUTO 04003KT 19/08 RMK AO1 SLP181 T01850079 53011,CWWB,2023-05-30T03:00:00Z,43.3,-79.78,18.5,7.9,40,3,,,,1018.1,,TRUE,TRUE,,,,,,,,,,,,,,,,1.1,,,,,,,,,,,METAR,77.0
CWWA 300300Z AUTO 00000KT 17/11 RMK AO1 SLP119 T01720111 56009,CWWA,2023-05-30T03:00:00Z,49.35,-123.18,17.2,11.1,0,0,,,,1011.9,,TRUE,TRUE,,,,,,,,,,,,,,,,-0.9,,,,,,,,,,,METAR,172.0
CWVU 300300Z AUTO 17007KT 08/04 RMK AO1 SLP231 T00800041 51015,CWVU,2023-05-30T03:00:00Z,44.28,-66.33,8.0,4.1,170,7,,,,1023.1,,TRUE,TRUE,,,,,,,,,,,,,,,,1.5,,,,,,,,,,,METAR,4.0
CWVT 300300Z AUTO 32005KT 18/08 RMK AO1 PK WND 31023/0200 SLP066 T01810077 53016,CWVT,2023-05-30T03:00:00Z,55.83,-108.42,18.1,7.7,320,5,,,,1006.6,,TRUE,TRUE,,,,,,,,,,,,,,,,1.6,,,,,,,,,,,METAR,431.0
CWVQ 300300Z AUTO 36003KT 13/04 RMK AO1 SLP199 T01330039 50005,CWVQ,2023-05-30T03:00:00Z,45.42,-73.92,13.3,3.9,360,3,,,,1019.9,,TRUE,TRUE,,,,,,,,,,,,,,,,0.5,,,,,,,,,,,METAR,38.0
CWVP 300300Z AUTO 20004KT 14/08 RMK AO1 SLP077 T01350080 51006,CWVP,2023-05-30T03:00:00Z,49.63,-109.52,13.5,8.0,200,4,,,,1007.7,,TRUE,TRUE,,,,,,,,,,,,,,,,0.6,,,,,,,,,,,METAR,1269.0
CWVN 300300Z AUTO 28011KT 17/10 RMK AO1 3013 PK WND 27020/0226 SLP082 T01670096 50011,CWVN,2023-05-30T03:00:00Z,49.07,-107.58,16.7,9.6,280,11,,,,1008.2,,TRUE,TRUE,,,,,,,,,,,,,,,,1.1,,,,,,,,,,,METAR,792.0
CWVI 300300Z AUTO 07007KT 17/12 RMK AO1 3008 SLP048 T01730115 50002,CWVI,2023-05-30T03:00:00Z,53.52,-112.1,17.3,11.5,70,7,,,,1004.8,,TRUE,TRUE,,,,,,,,,,,,,,,,0.2,,,,,,,,,,,METAR,640.0
CWVF 300300Z AUTO 13012KT 17/10 RMK AO1 T01690100,CWVF,2023-05-30T03:00:00Z,49.1,-123.3,16.9,10.0,130,12,,,,,,TRUE,TRUE,,,,,,,,,,,,,,,,,,,,,,,,,,,METAR,13.0
CWUX 300300Z AUTO 22003KT 06/04 RMK AO1 SLP214 T00630035 51012,CWUX,2023-05-30T03:00:00Z,48.3,-70.93,6.3,3.5,220,3,,,,1021.4,,TRUE,TRUE,,,,,,,,,,,,,,,,1.2,,,,,,,,,,,METAR,150.0
CWUW 300300Z AUTO 18014KT ////SM ////// M03/M03 A2926,CWUW,2023-05-30T03:00:00Z,68.62,-71.12,-3.0,-3.0,180,14,,,29.258858,,,TRUE,,,,,,,,,,,,,,,,,,,,,,,,,,,,SPECI,173.0
CWUS 300300Z AUTO 31006KT 24/04 RMK AO1 SLP055 T02400036 53007,CWUS,2023-05-30T03:00:00Z,49.57,-119.65,24.0,3.6,310,6,,,,1005.5,,TRUE,TRUE,,,,,,,,,,,,,,,,0.7,,,,,,,,,,,METAR,455.0
CWTY 300300Z AUTO 01004KT 15/05 RMK AO1 SLP206 T01540053 52008,CWTY,2023-05-30T03:00:00Z,46.35,-72.52,15.4,5.3,10,4,,,,1020.6,,TRUE,TRUE,,,,,,,,,,,,,,,,0.8,,,,,,,,,,,METAR,8.0
CWTT 300300Z AUTO 00000KT 12/08 RMK AO1 T01240083,CWTT,2023-05-30T03:00:00Z,45.27,-72.17,12.4,8.3,0,0,,,,,,TRUE,TRUE,,,,,,,,,,,,,,,,,,,,,,,,,,,METAR,210.0
CWTN 300300Z AUTO 30001KT 08/06 RMK AO1 SLP214 T00770057 51003,CWTN,2023-05-30T03:00:00Z,47.07,-70.78,7.7,5.7,300,1,,,,1021.4,,TRUE,TRUE,,,,,,,,,,,,,,,,0.3,,,,,,,,,,,METAR,5.0
CWTG 300300Z AUTO 26012KT 10/06 RMK AO1 SLP200 T00950057 53002,CWTG,2023-05-30T03:00:00Z,49.32,-67.37,9.5,5.7,260,12,,,,1020.0,,TRUE,TRUE,,,,,,,,,,,,,,,,0.2,,,,,,,,,,,METAR,6.0
CWTA 300300Z AUTO 33003KT 17/03 RMK AO1 SLP200 T01720032 51005,CWTA,2023-05-30T03:00:00Z,45.5,-73.58,17.2,3.2,330,3,,,,1020.0,,TRUE,TRUE,,,,,,,,,,,,,,,,0.5,,,,,,,,,,,METAR,71.0
CWST 300300Z AUTO 12004KT 10/05 RMK AO1 SLP210 T00980054 50001,CWST,2023-05-30T03:00:00Z,47.35,-70.02,9.8,5.4,120,4,,,,1021.0,,TRUE,TRUE,,,,,,,,,,,,,,,,0.1,,,,,,,,,,,METAR,31.0
CWSS 300300Z AUTO 00000KT 04/03 RMK AO1 SLP239 T00410029 51015,CWSS,2023-05-30T03:00:00Z,45.2,-67.25,4.1,2.9,0,0,,,,1023.9,,TRUE,TRUE,,,,,,,,,,,,,,,,1.5,,,,,,,,,,,METAR,27.0
CWSR 300300Z AUTO 16003KT 20/04 RMK AO1 SLP057 T02000044 53010,CWSR,2023-05-30T03:00:00Z,53.37,-107.55,20.0,4.4,160,3,,,,1005.7,,TRUE,TRUE,,,,,,,,,,,,,,,,1.0,,,,,,,,,,,METAR,589.0
CWSP 300300Z AUTO 28028KT 10/08 RMK AO1 PK WND 28030/0258 SLP136 T01020083 58002,CWSP,2023-05-30T03:00:00Z,48.38,-123.92,10.2,8.3,280,28,,,,1013.6,,TRUE,TRUE,,,,,,,,,,,,,,,,-0.2,,,,,,,,,,,METAR,2.0
CWSL 300300Z AUTO 20002KT 24/08 RMK AO1 SLP046 T02380077 55005,CWSL,2023-05-30T03:00:00Z,50.7,-119.28,23.8,7.7,200,2,,,,1004.6,,TRUE,TRUE,,,,,,,,,,,,,,,,-0.5,,,,,,,,,,,METAR,353.0
CWSK 300300Z AUTO 15006KT 18/11 RMK AO1 SLP102 T01830106 53003,CWSK,2023-05-30T03:00:00Z,49.78,-123.17,18.3,10.6,150,6,,,,1010.2,,TRUE,TRUE,,,,,,,,,,,,,,,,0.3,,,,,,,,,,,METAR,59.0
CWSG 300300Z AUTO 25007KT 10/03 RMK AO1 SLP205 T01010028 51005,CWSG,2023-05-30T03:00:00Z,49.12,-66.65,10.1,2.8,250,7,,,,1020.5,,TRUE,TRUE,,,,,,,,,,,,,,,,0.5,,,,,,,,,,,METAR,5.0
CWSF 300300Z AUTO 28002KT 09/04 RMK AO1 SLP194 T00910036 50001,CWSF,2023-05-30T03:00:00Z,49.25,-65.32,9.1,3.6,280,2,,,,1019.4,,TRUE,TRUE,,,,,,,,,,,,,,,,0.1,,,,,,,,,,,METAR,15.0
CWSD 300300Z AUTO 13003KT 05/01 RMK AO1 SLP231 T00470008 51010,CWSD,2023-05-30T03:00:00Z,46.43,-63.85,4.7,0.8,130,3,,,,1023.1,,TRUE,TRUE,,,,,,,,,,,,,,,,1.0,,,,,,,,,,,METAR,12.0
CWSA 300300Z AUTO 01013G19KT 9SM 05/02 A3017 RMK CLD MISG SLP219,CWSA,2023-05-30T03:00:00Z,43.93,-60.0,5.0,2.0,10,13,19,9.0,30.171259,1021.9,,TRUE,,,,,,,,,,,,,,,,,,,,,,,,,,,,SPECI,4.0
CWRZ 300300Z AUTO 26009KT 06/02 RMK AO1 SLP213 T00610022 51004,CWRZ,2023-05-30T03:00:00Z,48.42,-64.32,6.1,2.2,260,9,,,,1021.3,,TRUE,TRUE,,,,,,,,,,,,,,,,0.4,,,,,,,,,,,METAR,16.0
CWRY 300300Z AUTO 14004KT 18/10 RMK AO1 SLP070 T01750095 53005,CWRY,2023-05-30T03:00:00Z,49.12,-112.05,17.5,9.5,140,4,,,,1007.0,,TRUE,TRUE,,,,,,,,,,,,,,,,0.5,,,,,,,,,,,METAR,1048.0
CWRX 300300Z AUTO ///// ////SM ////// M02/M03 A2940,CWRX,2023-05-30T03:00:00Z,69.07,-79.07,-2.0,-3.0,,,,,29.40059,,,TRUE,,,,,,,,,,,,,,,,,,,,,,,,,,,,SPECI,39.0
CWRU 300300Z AUTO 32031KT 09/ RMK AO1 PK WND 32034/0213 SLP151 T0094 55002,CWRU,2023-05-30T03:00:00Z,50.12,-127.93,9.4,,320,31,,,,1015.1,,TRUE,TRUE,,,,,,,,,,,,,,,,-0.2,,,,,,,,,,,METAR,76.0
CWRT 300300Z AUTO 27003KT 17/06 RMK AO1 SLP075 T01690061 53005,CWRT,2023-05-30T03:00:00Z,49.62,-114.47,16.9,6.1,270,3,,,,1007.5,,TRUE,TRUE,,,,,,,,,,,,,,,,0.5,,,,,,,,,,,METAR,1311.0
CWRO 300300Z AUTO 34005KT 08/ RMK AO1 SLP163 T0075 58012,CWRO,2023-05-30T03:00:00Z,54.17,-131.67,7.5,,340,5,,,,1016.3,,TRUE,TRUE,,,,,,,,,,,,,,,,-1.2,,,,,,,,,,,METAR,7.0
CWRN 300300Z AUTO 32008KT 05/01 RMK AO1 SLP226 T00470010 51013,CWRN,2023-05-30T03:00:00Z,45.35,-60.98,4.7,1.0,320,8,,,,1022.6,,TRUE,TRUE,,,,,,,,,,,,,,,,1.3,,,,,,,,,,,METAR,8.0
CWRM 300300Z AUTO 02004KT 20/04 RMK AO1 PK WND 28028/0208 SLP027 T01970043 53007,CWRM,2023-05-30T03:00:00Z,52.42,-114.92,19.7,4.3,20,4,,,,1002.7,,TRUE,TRUE,,,,,,,,,,,,,,,,0.7,,,,,,,,,,,METAR,986.0
CWRK 300300Z AUTO 00000KT 10/06 RMK AO1 SLP198 T01000061 52014,CWRK,2023-05-30T03:00:00Z,45.07,-77.87,10.0,6.1,0,0,,,,1019.8,,TRUE,TRUE,,,,,,,,,,,,,,,,1.4,,,,,,,,,,,METAR,328.0
CWRJ 300300Z AUTO 06003KT 22/08 RMK AO1 SLP052 T02150076 53008,CWRJ,2023-05-30T03:00:00Z,51.57,-107.92,21.5,7.6,60,3,,,,1005.2,,TRUE,TRUE,,,,,,,,,,,,,,,,0.8,,,,,,,,,,,METAR,586.0
CWRA 300300Z AUTO 36008KT M00/M02 RMK AO1 SLP170 T10021017 51014,CWRA,2023-05-30T03:00:00Z,46.65,-53.07,-0.2,-1.7,360,8,,,,1017.0,,TRUE,TRUE,,,,,,,,,,,,,,,,1.4,,,,,,,,,,,METAR,4.0
CWQV 300300Z AUTO 00000KT 11/ RMK AO1 T0109,CWQV,2023-05-30T03:00:00Z,48.27,-70.12,10.9,,0,0,,,,,,TRUE,TRUE,,,,,,,,,,,,,,,,,,,,,,,,,,,METAR,4.0
CWQS 300300Z AUTO 21005KT 08/04 RMK AO1 SLP168 T00840040 58011,CWQS,2023-05-30T03:00:00Z,53.32,-132.77,8.4,4.0,210,5,,,,1016.8,,TRUE,TRUE,,,,,,,,,,,,,,,,-1.1,,,,,,,,,,,METAR,10.0
CWQR 300300Z AUTO 29011KT 05/02 RMK AO1 T00450024,CWQR,2023-05-30T03:00:00Z,50.22,-64.22,4.5,2.4,290,11,,,,,,TRUE,TRUE,,,,,,,,,,,,,,,,,,,,,,,,,,,METAR,9.0
CWQP 300300Z AUTO 04010KT 16/04 RMK AO1 SLP185 T01630041 51012,CWQP,2023-05-30T03:00:00Z,43.83,-77.15,16.3,4.1,40,10,,,,1018.5,,TRUE,TRUE,,,,,,,,,,,,,,,,1.2,,,,,,,,,,,METAR,77.0
CWQO 300300Z AUTO 20007KT 09/05 RMK AO1 T00920047,CWQO,2023-05-30T03:00:00Z,48.42,-68.9,9.2,4.7,200,7,,,,,,TRUE,TRUE,,,,,,,,,,,,,,,,,,,,,,,,,,,METAR,7.0
CWQK 300300Z AUTO 28037G42KT 11/08 RMK AO1 PK WND 28042/0259 SLP122 T01060077 58007,CWQK,2023-05-30T03:00:00Z,48.3,-123.53,10.6,7.7,280,37,42,,,1012.2,,TRUE,TRUE,,,,,,,,,,,,,,,,-0.7,,,,,,,,,,,METAR,5.0
CWQH 300300Z AUTO 04006KT 12/05 RMK AO1 SLP205 T01230051 51008,CWQH,2023-05-30T03:00:00Z,45.37,-71.82,12.3,5.1,40,6,,,,1020.5,,TRUE,TRUE,,,,,,,,,,,,,,,,0.8,,,,,,,,,,,METAR,181.0
CWPZ 300300Z AUTO 30006KT 14/M03 RMK AO1 SLP101 T01421027 56003,CWPZ,2023-05-30T03:00:00Z,54.38,-125.97,14.2,-2.7,300,6,,,,1010.1,,TRUE,TRUE,,,,,,,,,,,,,,,,-0.3,,,,,,,,,,,METAR,715.0
CWPR 300300Z AUTO 31008KT 19/04 RMK AO1 SLP087 T01930042 53012,CWPR,2023-05-30T03:00:00Z,49.47,-120.52,19.3,4.2,310,8,,,,1008.7,,TRUE,TRUE,,,,,,,,,,,,,,,,1.2,,,,,,,,,,,METAR,703.0
CWPO 300300Z AUTO 18007KT 19/17 RMK AO1 SLP063 T01870167 53010,CWPO,2023-05-30T03:00:00Z,49.2,-98.9,18.7,16.7,180,7,,,,1006.3,,TRUE,TRUE,,,,,,,,,,,,,,,,1.0,,,,,,,,,,,METAR,471.0
CWPK 300300Z AUTO 06002KT 11/04 RMK AO1 SLP208 T01060036 51007,CWPK,2023-05-30T03:00:00Z,47.92,-74.62,10.6,3.6,60,2,,,,1020.8,,TRUE,TRUE,,,,,,,,,,,,,,,,0.7,,,,,,,,,,,METAR,443.0
CWPE 300300Z AUTO 33005KT 05/03 RMK AO1 SLP234 T00450030 51010,CWPE,2023-05-30T03:00:00Z,45.07,-66.47,4.5,3.0,330,5,,,,1023.4,,TRUE,TRUE,,,,,,,,,,,,,,,,1.0,,,,,,,,,,,METAR,9.0
CWPD 300300Z AUTO 06003KT 06/02 RMK AO1 SLP204 T00640015 51009,CWPD,2023-05-30T03:00:00Z,47.57,-71.22,6.4,1.5,60,3,,,,1020.4,,TRUE,TRUE,,,,,,,,,,,,,,,,0.9,,,,,,,,,,,METAR,795.0
CWOY 300300Z AUTO 25001KT 19/12 RMK AO1 SLP050 T01940115 53007,CWOY,2023-05-30T03:00:00Z,51.77,-104.2,19.4,11.5,250,1,,,,1005.0,,TRUE,TRUE,,,,,,,,,,,,,,,,0.7,,,,,,,,,,,METAR,557.0
CWOE 300300Z AUTO 10010KT 17/12 RMK AO1 3007 PK WND 10017/0246 SLP078 T01650123 50007,CWOE,2023-05-30T03:00:00Z,49.12,-110.47,16.5,12.3,100,10,,,,1007.8,,TRUE,TRUE,,,,,,,,,,,,,,,,0.7,,,,,,,,,,,METAR,931.0
CWOD 300300Z AUTO 30002KT 08/04 RMK AO1 SLP204 T00840043 58001,CWOD,2023-05-30T03:00:00Z,48.85,-72.55,8.4,4.3,300,2,,,,1020.4,,TRUE,TRUE,,,,,,,,,,,,,,,,-0.1,,,,,,,,,,,METAR,150.0
CWOC 300300Z AUTO 35001KT 03/02 RMK AO1 SLP219 T00310017 51004,CWOC,2023-05-30T03:00:00Z,48.02,-65.32,3.1,1.7,350,1,,,,1021.9,,TRUE,TRUE,,,,,,,,,,,,,,,,0.4,,,,,,,,,,,METAR,42.0
CWOB 300300Z AUTO 23028KT ////SM ////// ///// A2954,CWOB,2023-05-30T03:00:00Z,63.33,-64.15,,,230,28,,,29.53937,,,TRUE,,,,,,,,,,,,,,,,,,,,,,,,,,,,SPECI,369.0
CWNZ 300300Z AUTO 24004KT 17/06 RMK AO1 SLP146 T01710063 51012,CWNZ,2023-05-30T03:00:00Z,49.75,-84.17,17.1,6.3,240,4,,,,1014.6,,TRUE,TRUE,,,,,,,,,,,,,,,,1.2,,,,,,,,,,,METAR,261.0
CWNQ 300300Z AUTO 15002KT 13/08 RMK AO1 SLP204 T01290078 51006,CWNQ,2023-05-30T03:00:00Z,46.22,-72.65,12.9,7.8,150,2,,,,1020.4,,TRUE,TRUE,,,,,,,,,,,,,,,,0.6,,,,,,,,,,,METAR,9.0
CWNP 300300Z AUTO 34003KT 25/03 RMK AO1 SLP036 T02500030 53001,CWNP,2023-05-30T03:00:00Z,50.27,-117.82,25.0,3.0,340,3,,,,1003.6,,TRUE,TRUE,,,,,,,,,,,,,,,,0.1,,,,,,,,,,,METAR,517.0
CWNM 300300Z AUTO 02003KT 17/12 RMK AO1 SLP063 T01730118 53003,CWNM,2023-05-30T03:00:00Z,49.5,-117.3,17.3,11.8,20,3,,,,1006.3,,TRUE,TRUE,,,,,,,,,,,,,,,,0.3,,,,,,,,,,,METAR,533.0
CWNK 300300Z AUTO 18004KT 19/15 RMK AO1 SLP048 T01900150 53008,CWNK,2023-05-30T03:00:00Z,49.5,-98.03,19.0,15.0,180,4,,,,1004.8,,TRUE,TRUE,,,,,,,,,,,,,,,,0.8,,,,,,,,,,,METAR,271.0
CWNH 300300Z AUTO 18003KT 10/02 RMK AO1 SLP215 T01000019 50005,CWNH,2023-05-30T03:00:00Z,47.8,-69.53,10.0,1.9,180,3,,,,1021.5,,TRUE,TRUE,,,,,,,,,,,,,,,,0.5,,,,,,,,,,,METAR,147.0
CWNE 300300Z AUTO 18006KT 05/01 RMK AO1 SLP223 T00470006 50008,CWNE,2023-05-30T03:00:00Z,47.07,-64.0,4.7,0.6,180,6,,,,1022.3,,TRUE,TRUE,,,,,,,,,,,,,,,,0.8,,,,,,,,,,,METAR,5.0
CWND 300300Z AUTO 32005KT 03/01 RMK AO1 SLP972 T00300010 51007,CWND,2023-05-30T03:00:00Z,69.63,-135.43,3.0,1.0,320,5,,,,997.2,,TRUE,TRUE,,,,,,,,,,,,,,,,0.7,,,,,,,,,,,METAR,14.0
CWNC 300300Z AUTO 06002KT 15/09 RMK AO1 SLP181 T01480091 53010,CWNC,2023-05-30T03:00:00Z,43.95,-78.17,14.8,9.1,60,2,,,,1018.1,,TRUE,TRUE,,,,,,,,,,,,,,,,1.0,,,,,,,,,,,METAR,71.0
CWMT 300300Z AUTO 16005KT 10/08 RMK AO1 3PAST HR 2011 SLP032 P0001 T01000078 50005,CWMT,2023-05-30T03:00:00Z,63.13,-117.25,10.0,7.8,160,5,,,,1003.2,,TRUE,TRUE,,,,,,,,,,,,,,,,0.5,,,,,0.01,,,,,,SPECI,274.0
CWMQ 300300Z AUTO 19006KT 18/11 RMK AO1 SLP066 T01770106 52009,CWMQ,2023-05-30T03:00:00Z,49.9,-109.47,17.7,10.6,190,6,,,,1006.6,,TRUE,TRUE,,,,,,,,,,,,,,,,0.9,,,,,,,,,,,METAR,767.0
CWMM 300300Z AUTO 22003KT 19/09 RMK AO1 SLP121 T01940094 56007,CWMM,2023-05-30T03:00:00Z,49.22,-122.68,19.4,9.4,220,3,,,,1012.1,,TRUE,TRUE,,,,,,,,,,,,,,,,-0.7,,,,,,,,,,,METAR,2.0
CWMJ 300300Z AUTO 00000KT 11/07 RMK AO1 SLP201 T01100068 53011,CWMJ,2023-05-30T03:00:00Z,46.27,-76.0,11.0,6.8,0,0,,,,1020.1,,TRUE,TRUE,,,,,,,,,,,,,,,,1.1,,,,,,,,,,,METAR,198.0
CWME 300300Z AUTO 24013KT 13/05 RMK AO1 PK WND 23019/0240 SLP151 T01270053 56003,CWME,2023-05-30T03:00:00Z,52.18,-127.47,12.7,5.3,240,13,,,,1015.1,,TRUE,TRUE,,,,,,,,,,,,,,,,-0.3,,,,,,,,,,,METAR,23.0
CWLY 300300Z AUTO 18009G24KT 140V210 9SM CLR 23/06 A2970 RMK SLP057 DENSITY ALT 2100FT,CWLY,2023-05-30T03:00:00Z,50.22,-121.58,23.0,6.0,180,9,24,9.0,29.698818,1005.7,,TRUE,,,,,,,,CLR,,,,,,,,VFR,,,,,,,,,,,,SPECI,228.0
CWLX 300300Z AUTO ///// ////SM ////// M02/M02 A2929,CWLX,2023-05-30T03:00:00Z,68.9,-75.15,-2.0,-2.0,,,,,29.291338,,,TRUE,,,,,,,,,,,,,,,,,,,,,,,,,,,,SPECI,129.0
CWLS 300300Z AUTO 12002KT 19/09 RMK AO1 SLP184 T01860090 51016,CWLS,2023-05-30T03:00:00Z,43.97,-80.75,18.6,9.0,120,2,,,,1018.4,,TRUE,TRUE,,,,,,,,,,,,,,,,1.6,,,,,,,,,,,METAR,413.0
CWLP 300300Z AUTO 30015KT 11/06 RMK AO1 PK WND 31021/0208 SLP170 T01060061 56003,CWLP,2023-05-30T03:00:00Z,50.93,-127.63,10.6,6.1,300,15,,,,1017.0,,TRUE,TRUE,,,,,,,,,,,,,,,,-0.3,,,,,,,,,,,METAR,15.0
CWLM 300300Z AUTO 24016G24KT 12/08 RMK AO1 PK WND 24024/0251 SLP120 T01210075 56007,CWLM,2023-05-30T03:00:00Z,48.42,-123.32,12.1,7.5,240,16,24,,,1012.0,,TRUE,TRUE,,,,,,,,,,,,,,,,-0.7,,,,,,,,,,,METAR,62.0
CWLE 300300Z AUTO 08007KT 20/12 RMK AO1 SLP061 T02000120 53011,CWLE,2023-05-30T03:00:00Z,50.95,-107.15,20.0,12.0,80,7,,,,1006.1,,TRUE,TRUE,,,,,,,,,,,,,,,,1.1,,,,,,,,,,,METAR,666.0
CWLC 300300Z AUTO 27010KT 10/04 RMK AO1 T00990035,CWLC,2023-05-30T03:00:00Z,54.3,-130.62,9.9,3.5,270,10,,,,,,TRUE,TRUE,,,,,,,,,,,,,,,,,,,,,,,,,,,METAR,27.0
CWLB 300300Z AUTO 25001KT 17/13 RMK AO1 SLP072 T01700130 53012,CWLB,2023-05-30T03:00:00Z,54.77,-112.02,17.0,13.0,250,1,,,,1007.2,,TRUE,TRUE,,,,,,,,,,,,,,,,1.2,,,,,,,,,,,METAR,561.0
CWKX 300300Z AUTO 25007KT 08/M04 RMK AO1 SLP120 T00801040 56002,CWKX,2023-05-30T03:00:00Z,58.43,-130.02,8.0,-4.0,250,7,,,,1012.0,,TRUE,TRUE,,,,,,,,,,,,,,,,-0.2,,,,,,,,,,,METAR,807.0
CWKO 300300Z AUTO 27012G17KT 18/08 RMK AO1 PK WND 27017/0259 SLP081 T01750082 53018,CWKO,2023-05-30T03:00:00Z,49.17,-105.97,17.5,8.2,270,12,17,,,1008.1,,TRUE,TRUE,,,,,,,,,,,,,,,,1.8,,,,,,,,,,,METAR,914.0
CWKM 300300Z AUTO 31002KT ////SM SCT100 03/M00 A2953,CWKM,2023-05-30T03:00:00Z,69.6,-140.17,3.0,0.0,310,2,,,29.530512,,,TRUE,,,,,,,,SCT,10000,,,,,,,,,,,,,,,,,,,SPECI,8.0
CWKH 300300Z AUTO 17/M00 RMK AO1 SLP109 T01661002 56007,CWKH,2023-05-30T03:00:00Z,48.57,-123.55,16.6,-0.2,,,,,,1010.9,,TRUE,TRUE,,,,,,,,,,,,,,,,-0.7,,,,,,,,,,,METAR,327.0
CWKG 300300Z AUTO 16002KT 06/03 RMK AO1 SLP231 T00590026 50008,CWKG,2023-05-30T03:00:00Z,44.43,-65.2,5.9,2.6,160,2,,,,1023.1,,TRUE,TRUE,,,,,,,,,,,,,,,,0.8,,,,,,,,,,,METAR,154.0
CWKD 300300Z AUTO 09/M02 RMK AO1 SLP210 T00861018 53005,CWKD,2023-05-30T03:00:00Z,50.73,-71.02,8.6,-1.8,,,,,,1021.0,,TRUE,TRUE,,,,,,,,,,,,,,,,0.5,,,,,,,,,,,METAR,496.0
CWJX 300300Z AUTO 18008KT 21/07 RMK AO1 SOG 01 3006 SLP048 T02140074,CWJX,2023-05-30T03:00:00Z,50.88,-109.5,21.4,7.4,180,8,,,,1004.8,,TRUE,TRUE,,,,,,,,,,,,,,,,,,,,,,,,,,,METAR,671.0
CWJW 300300Z AUTO 16005KT 19/03 RMK AO1 SLP066 T01920029 53005,CWJW,2023-05-30T03:00:00Z,52.93,-118.03,19.2,2.9,160,5,,,,1006.6,,TRUE,TRUE,,,,,,,,,,,,,,,,0.5,,,,,,,,,,,METAR,1022.0
CWJV 300300Z AUTO 28003KT 23/05 RMK AO1 SLP049 T02310053 53001,CWJV,2023-05-30T03:00:00Z,50.22,-119.18,23.1,5.3,280,3,,,,1004.9,,TRUE,TRUE,,,,,,,,,,,,,,,,0.1,,,,,,,,,,,METAR,487.0
CWJU 300300Z AUTO 22007KT 09/05 RMK AO1 PK WND 22017/0212 SLP163 T00900052 58010,CWJU,2023-05-30T03:00:00Z,54.25,-133.07,9.0,5.2,220,7,,,,1016.3,,TRUE,TRUE,,,,,,,,,,,,,,,,-1.0,,,,,,,,,,,METAR,47.0
CWJT 300300Z AUTO 07001KT 12/06 RMK AO1 SLP206 T01200056 51010,CWJT,2023-05-30T03:00:00Z,46.07,-74.57,12.0,5.6,70,1,,,,1020.6,,TRUE,TRUE,,,,,,,,,,,,,,,,1.0,,,,,,,,,,,METAR,236.0
CWJR 300300Z AUTO 27004KT 22/11 RMK AO1 SLP062 T02170111 55003,CWJR,2023-05-30T03:00:00Z,49.03,-116.5,21.7,11.1,270,4,,,,1006.2,,TRUE,TRUE,,,,,,,,,,,,,,,,-0.3,,,,,,,,,,,METAR,642.0
CWJO 300300Z AUTO 00014KT 12/04 RMK AO1 SLP206 T01180039 51006,CWJO,2023-05-30T03:00:00Z,48.43,-71.15,11.8,3.9,0,14,,,,1020.6,,TRUE,TRUE,,,,,,,,,,,,,,,,0.6,,,,,,,,,,,METAR,113.0
CWJI 300300Z AUTO 34002KT 20/10 RMK AO1 SLP064 T01980104 53012,CWJI,2023-05-30T03:00:00Z,49.72,-105.93,19.8,10.4,340,2,,,,1006.4,,TRUE,TRUE,,,,,,,,,,,,,,,,1.2,,,,,,,,,,,METAR,724.0
CWJH 300300Z AUTO 24002KT 17/06 RMK AO1 SLP043 T01670063 53014,CWJH,2023-05-30T03:00:00Z,56.32,-103.27,16.7,6.3,240,2,,,,1004.3,,TRUE,TRUE,,,,,,,,,,,,,,,,1.4,,,,,,,,,,,METAR,345.0
CWJD 300300Z AUTO 03003KT 15/14 RMK AO1 3PAST HR 0003 SLP035 P0001 T01500143 50004,CWJD,2023-05-30T03:00:00Z,53.18,-99.27,15.0,14.3,30,3,,,,1003.5,,TRUE,TRUE,,,,,,,,,,,,,,,,0.4,,,,,0.01,,,,,,METAR,222.0
CWJC 300300Z AUTO 07009KT 03/02 RMK AO1 SLP076 T00330015 53018,CWJC,2023-05-30T03:00:00Z,61.13,-100.9,3.3,1.5,70,9,,,,1007.6,,TRUE,TRUE,,,,,,,,,,,,,,,,1.8,,,,,,,,,,,METAR,340.0
CWJB 300300Z AUTO 12/04 RMK AO1 T01160041,CWJB,2023-05-30T03:00:00Z,46.78,-71.28,11.6,4.1,,,,,,,,TRUE,TRUE,,,,,,,,,,,,,,,,,,,,,,,,,,,METAR,90.0
CWIZ 300300Z AUTO 02003KT 14/04 RMK AO1 T01400039,CWIZ,2023-05-30T03:00:00Z,45.28,-73.33,14.0,3.9,20,3,,,,,,TRUE,TRUE,,,,,,,,,,,,,,,,,,,,,,,,,,,METAR,45.0
CWIW 300300Z AUTO 26003KT 20/12 RMK AO1 SLP050 T02040123 53007,CWIW,2023-05-30T03:00:00Z,51.67,-105.4,20.4,12.3,260,3,,,,1005.0,,TRUE,TRUE,,,,,,,,,,,,,,,,0.7,,,,,,,,,,,METAR,524.0
CWIT 300300Z AUTO 28001KT 09/05 RMK AO1 SLP194 T00930053 50006,CWIT,2023-05-30T03:00:00Z,45.17,-73.67,9.3,5.3,280,1,,,,1019.4,,TRUE,TRUE,,,,,,,,,,,,,,,,0.6,,,,,,,,,,,METAR,53.0
CWIS 300300Z AUTO 14002KT 03/M00 RMK AO1 SLP238 T00261003 50002,CWIS,2023-05-30T03:00:00Z,47.28,-70.63,2.6,-0.3,140,2,,,,1023.8,,TRUE,TRUE,,,,,,,,,,,,,,,,0.2,,,,,,,,,,,METAR,720.0
CWIP 300300Z AUTO 26001KT 08/03 RMK AO1 T00790033,CWIP,2023-05-30T03:00:00Z,50.17,-66.43,7.9,3.3,260,1,,,,,,TRUE,TRUE,,,,,,,,,,,,,,,,,,,,,,,,,,,METAR,27.0
CWIL 300300Z AUTO ///// ////SM OVC009 M04/M06 A2996,CWIL,2023-05-30T03:00:00Z,68.32,-100.07,-4.0,-6.0,,,,,29.958662,,,TRUE,,,,,,,,OVC,900,,,,,,,,,,,,,,,,,,,SPECI,28.0
CWIK 300300Z AUTO 04002KT 18/15 RMK AO1 SLP053 T01840153 52012,CWIK,2023-05-30T03:00:00Z,50.37,-102.58,18.4,15.3,40,2,,,,1005.3,,TRUE,TRUE,,,,,,,,,,,,,,,,1.2,,,,,,,,,,,SPECI,597.0
CWIJ 300300Z AUTO 11012KT 05/M02 RMK AO1 PK WND 11018/0225 SLP118 T00471017 52006,CWIJ,2023-05-30T03:00:00Z,65.77,-111.23,4.7,-1.7,110,12,,,,1011.8,,TRUE,TRUE,,,,,,,,,,,,,,,,0.6,,,,,,,,,,,METAR,490.0
CWII 300300Z AUTO 15012KT 21/15 RMK AO1 PK WND 16018/0222 SLP045 T02090152 55002,CWII,2023-05-30T03:00:00Z,50.7,-96.57,20.9,15.2,150,12,,,,1004.5,,TRUE,TRUE,,,,,,,,,,,,,,,,-0.2,,,,,,,,,,,METAR,216.0
CWIG 300300Z AUTO 02001KT RMK AO1,CWIG,2023-05-30T03:00:00Z,47.07,-70.53,,,20,1,,,,,,TRUE,TRUE,,,,,,,,,,,,,,,,,,,,,,,,,,,METAR,12.0
CWID 300300Z AUTO 30005KT 14/07 RMK AO1 SLP023 T01390072 51008,CWID,2023-05-30T03:00:00Z,61.32,-117.6,13.9,7.2,300,5,,,,1002.3,,TRUE,TRUE,,,,,,,,,,,,,,,,0.8,,,,,,,,,,,METAR,160.0
CWHV 300300Z AUTO 24002KT 11/05 RMK AO1 SLP214 T01090054 51008,CWHV,2023-05-30T03:00:00Z,46.2,-70.78,10.9,5.4,240,2,,,,1021.4,,TRUE,TRUE,,,,,,,,,,,,,,,,0.8,,,,,,,,,,,METAR,227.0
CWHT 300300Z AUTO 26009G17KT 10/M07 RMK AO1 PK WND 26017/0251 SLP058 T01031074 52002,CWHT,2023-05-30T03:00:00Z,60.77,-137.58,10.3,-7.4,260,9,17,,,1005.8,,TRUE,TRUE,,,,,,,,,,,,,,,,0.2,,,,,,,,,,,METAR,601.0
CWHQ 300300Z AUTO 07001KT 08/04 RMK AO1 T00820041,CWHQ,2023-05-30T03:00:00Z,46.68,-71.97,8.2,4.1,70,1,,,,,,TRUE,TRUE,,,,,,,,,,,,,,,,,,,,,,,,,,,METAR,56.0
CWHP 300300Z AUTO 23004KT 05/03 RMK AO1 SLP189 T00520029 50003,CWHP,2023-05-30T03:00:00Z,49.08,-61.7,5.2,2.9,230,4,,,,1018.9,,TRUE,TRUE,,,,,,,,,,,,,,,,0.3,,,,,,,,,,,METAR,7.0
CWHO 300300Z AUTO 00023KT M00/M04 RMK AO1 SLP167 T10031037 58017,CWHO,2023-05-30T03:00:00Z,55.45,-60.22,-0.3,-3.7,0,23,,,,1016.7,,TRUE,TRUE,,,,,,,,,,,,,,,,-1.7,,,,,,,,,,,METAR,16.0
CWHL 300300Z AUTO 30010KT 10/04 RMK AO1 SLP154 T00980035 56011,CWHL,2023-05-30T03:00:00Z,54.17,-130.35,9.8,3.5,300,10,,,,1015.4,,TRUE,TRUE,,,,,,,,,,,,,,,,-1.1,,,,,,,,,,,METAR,5.0
CWHI 300300Z AUTO 11006KT 22/03 RMK AO1 PK WND 18034/0230 T02230032,CWHI,2023-05-30T03:00:00Z,51.7,-113.22,22.3,3.2,110,6,,,,,,TRUE,TRUE,,,,,,,,,,,,,,,,,,,,,,,,,,,METAR,906.0
CWGY 300300Z AUTO 16006KT 21/10 RMK AO1 SLP050 T02120096 53002,CWGY,2023-05-30T03:00:00Z,51.67,-110.2,21.2,9.6,160,6,,,,1005.0,,TRUE,TRUE,,,,,,,,,,,,,,,,0.2,,,,,,,,,,,METAR,709.0
CWGW 300300Z AUTO 21002KT 16/08 RMK AO1 SLP082 T01630077 53006,CWGW,2023-05-30T03:00:00Z,49.75,-114.9,16.3,7.7,210,2,,,,1008.2,,TRUE,TRUE,,,,,,,,,,,,,,,,0.6,,,,,,,,,,,METAR,1137.0
CWGT 300300Z AUTO 13011KT 18/12 RMK AO1 SLP114 T01750115 56009,CWGT,2023-05-30T03:00:00Z,49.48,-124.43,17.5,11.5,130,11,,,,1011.4,,TRUE,TRUE,,,,,,,,,,,,,,,,-0.9,,,,,,,,,,,METAR,5.0
CWGR 300300Z AUTO 24008KT 04/02 RMK AO1 SLP220 T00420019 51007,CWGR,2023-05-30T03:00:00Z,47.42,-61.77,4.2,1.9,240,8,,,,1022.0,,TRUE,TRUE,,,,,,,,,,,,,,,,0.7,,,,,,,,,,,METAR,4.0
CWGM 300300Z AUTO 20010G15KT 16/06 RMK AO1 PK WND 22021/0241 SLP076 T01610056 53007,CWGM,2023-05-30T03:00:00Z,49.13,-113.8,16.1,5.6,200,10,15,,,1007.6,,TRUE,TRUE,,,,,,,,,,,,,,,,0.7,,,,,,,,,,,METAR,1292.0
CWGL 300300Z AUTO 08001KT 18/12 RMK AO1 SLP172 T01820116 53017,CWGL,2023-05-30T03:00:00Z,44.53,-79.22,18.2,11.6,80,1,,,,1017.2,,TRUE,TRUE,,,,,,,,,,,,,,,,1.7,,,,,,,,,,,METAR,220.0
CWGH 300300Z AUTO 03004KT 16/04 RMK AO1 SLP181 T01550041 50004,CWGH,2023-05-30T03:00:00Z,44.42,-75.85,15.5,4.1,30,4,,,,1018.1,,TRUE,TRUE,,,,,,,,,,,,,,,,0.4,,,,,,,,,,,METAR,76.0
CWGD 300300Z AUTO 12006KT 20/11 RMK AO1 SLP171 T01950107 53014,CWGD,2023-05-30T03:00:00Z,43.77,-81.72,19.5,10.7,120,6,,,,1017.1,,TRUE,TRUE,,,,,,,,,,,,,,,,1.4,,,,,,,,,,,METAR,214.0
CWGB 300300Z AUTO 09014KT 17/ RMK AO1 SLP105 T0165 56009,CWGB,2023-05-30T03:00:00Z,49.35,-124.13,16.5,,90,14,,,,1010.5,,TRUE,TRUE,,,,,,,,,,,,,,,,-0.9,,,,,,,,,,,METAR,6.0
CWFQ 300300Z AUTO 09002KT 15/01 RMK AO1 SLP195 T01520011 50005,CWFQ,2023-05-30T03:00:00Z,45.03,-72.85,15.2,1.1,90,2,,,,1019.5,,TRUE,TRUE,,,,,,,,,,,,,,,,0.5,,,,,,,,,,,METAR,190.0
CWFJ 300300Z AUTO 22006KT 19/08 RMK AO1 T01860075,CWFJ,2023-05-30T03:00:00Z,49.2,-113.27,18.6,7.5,220,6,,,,,,TRUE,TRUE,,,,,,,,,,,,,,,,,,,,,,,,,,,METAR,1142.0
CWFF 300300Z AUTO 01002KT 22/08 RMK AO1 SLP043 T02230082 53009,CWFF,2023-05-30T03:00:00Z,52.82,-104.6,22.3,8.2,10,2,,,,1004.3,,TRUE,TRUE,,,,,,,,,,,,,,,,0.9,,,,,,,,,,,METAR,482.0
CWEZ 300300Z AUTO 18011KT 15/09 RMK AO1 SLP111 T01510092 56012,CWEZ,2023-05-30T03:00:00Z,48.78,-123.05,15.1,9.2,180,11,,,,1011.1,,TRUE,TRUE,,,,,,,,,,,,,,,,-1.2,,,,,,,,,,,METAR,23.0
CWEW 300300Z AUTO 03002KT 12/05 RMK AO1 SLP205 T01150051 50005,CWEW,2023-05-30T03:00:00Z,45.82,-73.43,11.5,5.1,30,2,,,,1020.5,,TRUE,TRUE,,,,,,,,,,,,,,,,0.5,,,,,,,,,,,METAR,17.0
CWEU 300300Z 11013KT 15SM FEW070 M04/M08 A2989 RMK AC1 AC TR LAST STFD OBS/NXT 300600Z SLP135,CWEU,2023-05-30T03:00:00Z,80.0,-85.93,-4.0,-8.0,110,13,,15.0,29.890747,1013.5,,,,,,,,,,FEW,7000,,,,,,,VFR,,,,,,,,,,,,SPECI,2.0
CWER 300300Z AUTO 36002KT RMK AO1,CWER,2023-05-30T03:00:00Z,47.0,-70.82,,,360,2,,,,,,TRUE,TRUE,,,,,,,,,,,,,,,,,,,,,,,,,,,METAR,4.0
CWEQ 300300Z AUTO 29002KT 17/15 RMK AO1 1009 SLP036 T01660147 50002,CWEQ,2023-05-30T03:00:00Z,52.12,-101.22,16.6,14.7,290,2,,,,1003.6,,TRUE,TRUE,,,,,,,,,,,,,,,,0.2,,,,,,,,,,,METAR,331.0
CWEP 300300Z AUTO 25003KT 02/M00 RMK AO1 SLP231 T00211001 51003,CWEP,2023-05-30T03:00:00Z,46.45,-61.98,2.1,-0.1,250,3,,,,1023.1,,TRUE,TRUE,,,,,,,,,,,,,,,,0.3,,,,,,,,,,,METAR,9.0
CWEL 300300Z AUTO 09012KT 17/14 RMK AO1 SLP108 T01720136 58009,CWEL,2023-05-30T03:00:00Z,49.22,-123.8,17.2,13.6,90,12,,,,1010.8,,TRUE,TRUE,,,,,,,,,,,,,,,,-0.9,,,,,,,,,,,METAR,0.0
CWEH 300300Z AUTO 18003KT 14/10 RMK AO1 SLP080 T01390104 50006,CWEH,2023-05-30T03:00:00Z,49.43,-108.98,13.9,10.4,180,3,,,,1008.0,,TRUE,TRUE,,,,,,,,,,,,,,,,0.6,,,,,,,,,,,METAR,1077.0
CWEF 300300Z AUTO 28012KT 04/02 RMK AO1 SLP204 T00410019 51006,CWEF,2023-05-30T03:00:00Z,47.22,-60.13,4.1,1.9,280,12,,,,1020.4,,TRUE,TRUE,,,,,,,,,,,,,,,,0.6,,,,,,,,,,,METAR,27.0
CWEE 300300Z AUTO 07/03 RMK AO1 SLP200 T00740031 51007,CWEE,2023-05-30T03:00:00Z,49.27,-73.35,7.4,3.1,,,,,,1020.0,,TRUE,TRUE,,,,,,,,,,,,,,,,0.7,,,,,,,,,,,METAR,302.0
CWEB 300300Z AUTO 00031KT 11/07 RMK AO1 SLP150 T01090068 56006,CWEB,2023-05-30T03:00:00Z,49.38,-126.55,10.9,6.8,0,31,,,,1015.0,,TRUE,TRUE,,,,,,,,,,,,,,,,-0.6,,,,,,,,,,,METAR,1.0
CWDZ 300300Z AUTO 18005KT 24/06 RMK AO1 SLP026 T02410056 53003,CWDZ,2023-05-30T03:00:00Z,51.43,-112.67,24.1,5.6,180,5,,,,1002.6,,TRUE,TRUE,,,,,,,,,,,,,,,,0.3,,,,,,,,,,,METAR,689.0
CWDV 300300Z AUTO 17003KT 19/06 RMK AO1 SLP127 T01880056 53005,CWDV,2023-05-30T03:00:00Z,49.02,-90.47,18.8,5.6,170,3,,,,1012.7,,TRUE,TRUE,,,,,,,,,,,,,,,,0.5,,,,,,,,,,,METAR,487.0
CWDQ 300300Z AUTO 11002KT 11/04 RMK AO1 SLP212 T01080044,CWDQ,2023-05-30T03:00:00Z,47.42,-72.78,10.8,4.4,110,2,,,,1021.2,,TRUE,TRUE,,,,,,,,,,,,,,,,,,,,,,,,,,,METAR,174.0
CWDO 300300Z AUTO 29013KT 01/M01 RMK AO1 PK WND 29018/0205 SLP158 T00111011 51005,CWDO,2023-05-30T03:00:00Z,49.68,-54.78,1.1,-1.1,290,13,,,,1015.8,,TRUE,TRUE,,,,,,,,,,,,,,,,0.5,,,,,,,,,,,METAR,89.0
CWDM 300300Z AUTO 22007KT 04/02 RMK AO1 SLP184 T00400023 58002,CWDM,2023-05-30T03:00:00Z,50.47,-59.63,4.0,2.3,220,7,,,,1018.4,,TRUE,TRUE,,,,,,,,,,,,,,,,-0.2,,,,,,,,,,,METAR,2.0
CWDK 300300Z AUTO 25012KT 21/04 RMK AO1 PK WND 26019/0209 SLP043 T02110042 53002,CWDK,2023-05-30T03:00:00Z,50.02,-113.62,21.1,4.2,250,12,,,,1004.3,,TRUE,TRUE,,,,,,,,,,,,,,,,0.2,,,,,,,,,,,METAR,1014.0
CWDJ 300300Z AUTO 33002KT 22/10 RMK AO1 SLP049 T02160096 53012,CWDJ,2023-05-30T03:00:00Z,50.4,-104.58,21.6,9.6,330,2,,,,1004.9,,TRUE,TRUE,,,,,,,,,,,,,,,,1.2,,,,,,,,,,,METAR,576.0
CWDA 300300Z AUTO 00031KT M00/ RMK AO1 T1004,CWDA,2023-05-30T03:00:00Z,50.72,-56.12,-0.4,,0,31,,,,,,TRUE,TRUE,,,,,,,,,,,,,,,,,,,,,,,,,,,METAR,30.0
CWCT 300300Z AUTO 13008KT 21/08 RMK AO1 SLP049 T02110077 53002,CWCT,2023-05-30T03:00:00Z,52.07,-111.43,21.1,7.7,130,8,,,,1004.9,,TRUE,TRUE,,,,,,,,,,,,,,,,0.2,,,,,,,,,,,METAR,793.0
CWCO 300300Z AUTO 18002KT 16/11 RMK AO1 SLP180 T01590113 52012,CWCO,2023-05-30T03:00:00Z,44.5,-80.22,15.9,11.3,180,2,,,,1018.0,,TRUE,TRUE,,,,,,,,,,,,,,,,1.2,,,,,,,,,,,METAR,182.0
CWCJ 300300Z AUTO 06002KT 10/02 RMK AO1 SLP159 T01000015 56004,CWCJ,2023-05-30T03:00:00Z,48.6,-86.28,10.0,1.5,60,2,,,,1015.9,,TRUE,TRUE,,,,,,,,,,,,,,,,-0.4,,,,,,,,,,,METAR,207.0
CWCI 300300Z AUTO 10010KT 08/04 RMK AO1 SLP160 T00750035 53003,CWCI,2023-05-30T03:00:00Z,47.33,-85.82,7.5,3.5,100,10,,,,1016.0,,TRUE,TRUE,,,,,,,,,,,,,,,,0.3,,,,,,,,,,,METAR,167.0
CWCF 300300Z AUTO 08006KT 17/14 RMK AO1 SLP046 T01700135 51002,CWCF,2023-05-30T03:00:00Z,52.35,-97.03,17.0,13.5,80,6,,,,1004.6,,TRUE,TRUE,,,,,,,,,,,,,,,,0.2,,,,,,,,,,,METAR,219.0
CWBZ 300300Z AUTO 07001KT 11/04 RMK AO1 SLP193 T01100037 52007,CWBZ,2023-05-30T03:00:00Z,45.12,-74.28,11.0,3.7,70,1,,,,1019.3,,TRUE,TRUE,,,,,,,,,,,,,,,,0.7,,,,,,,,,,,METAR,49.0
CWBY 300300Z AUTO 32002KT 08/M00 RMK AO1 SLP197 T00801001 50000,CWBY,2023-05-30T03:00:00Z,49.83,-64.28,8.0,-0.1,320,2,,,,1019.7,,TRUE,TRUE,,,,,,,,,,,,,,,,0.0,,,,,,,,,,,METAR,56.0
CWBV 300300Z AUTO 34005KT 05/03 RMK AO1 SLP216 T00530030 51012,CWBV,2023-05-30T03:00:00Z,44.82,-62.33,5.3,3.0,340,5,,,,1021.6,,TRUE,TRUE,,,,,,,,,,,,,,,,1.2,,,,,,,,,,,METAR,16.0
CWBU 300300Z AUTO 35003KT 21/12 RMK AO1 SLP034 T02110121 53010,CWBU,2023-05-30T03:00:00Z,53.33,-104.02,21.1,12.1,350,3,,,,1003.4,,TRUE,TRUE,,,,,,,,,,,,,,,,1.0,,,,,,,,,,,SPECI,369.0
CWBT 300300Z AUTO 28002KT 04/01 RMK AO1 SLP191 T00440011 50001,CWBT,2023-05-30T03:00:00Z,50.27,-64.23,4.4,1.1,280,2,,,,1019.1,,TRUE,TRUE,,,,,,,,,,,,,,,,0.1,,,,,,,,,,,METAR,12.0
CWBS 300300Z AUTO 02007KT 16/09 RMK AO1 T01640091,CWBS,2023-05-30T03:00:00Z,46.18,-72.92,16.4,9.1,20,7,,,,,,TRUE,TRUE,,,,,,,,,,,,,,,,,,,,,,,,,,,METAR,3.0
CWBO 300300Z AUTO 17003KT 21/09 RMK AO1 SLP042 T02110087 55000,CWBO,2023-05-30T03:00:00Z,50.53,-111.83,21.1,8.7,170,3,,,,1004.2,,TRUE,TRUE,,,,,,,,,,,,,,,,0.0,,,,,,,,,,,METAR,752.0
CWBK 300300Z AUTO 05003KT 06/02 RMK AO1 SLP230 T00550017 51003,CWBK,2023-05-30T03:00:00Z,45.77,-62.67,5.5,1.7,50,3,,,,1023.0,,TRUE,TRUE,,,,,,,,,,,,,,,,0.3,,,,,,,,,,,METAR,2.0
CWBA 300300Z AUTO 17003KT 11/07 RMK AO1 T01140070,CWBA,2023-05-30T03:00:00Z,46.72,-79.1,11.4,7.0,170,3,,,,,,TRUE,TRUE,,,,,,,,,,,,,,,,,,,,,,,,,,,METAR,181.0
CWAV 300300Z AUTO 25006KT 19/05 RMK AO1 SLP052 T01920048 53005,CWAV,2023-05-30T03:00:00Z,51.77,-114.67,19.2,4.8,250,6,,,,1005.2,,TRUE,TRUE,,,,,,,,,,,,,,,,0.5,,,,,,,,,,,METAR,1115.0
CWAR 300300Z AUTO 34011KT 03/01 RMK AO1 SLP180 T00280005 51013,CWAR,2023-05-30T03:00:00Z,47.28,-54.0,2.8,0.5,340,11,,,,1018.0,,TRUE,TRUE,,,,,,,,,,,,,,,,1.3,,,,,,,,,,,METAR,6.0
CWAQ 300300Z AUTO 21008KT 18/12 RMK AO1 SLP067 T01780115 53013,CWAQ,2023-05-30T03:00:00Z,49.05,-105.48,17.8,11.5,210,8,,,,1006.7,,TRUE,TRUE,,,,,,,,,,,,,,,,1.3,,,,,,,,,,,METAR,761.0
CWAJ 300300Z AUTO 04004KT RMK AO1 51013,CWAJ,2023-05-30T03:00:00Z,42.25,-81.9,,,40,4,,,,,,TRUE,TRUE,,,,,,,,,,,,,,,,1.3,,,,,,,,,,,METAR,177.0
CWAF 300300Z AUTO 19005KT 10/07 RMK AO1 T00990067,CWAF,2023-05-30T03:00:00Z,48.07,-69.55,9.9,6.7,190,5,,,,,,TRUE,TRUE,,,,,,,,,,,,,,,,,,,,,,,,,,,METAR,6.0
CTRA 300300Z AUTO 20003KT 20/07 RMK AO1 SLP088 T02040073 55006,CTRA,2023-05-30T03:00:00Z,49.67,-93.73,20.4,7.3,200,3,,,,1008.8,,TRUE,TRUE,,,,,,,,,,,,,,,,-0.6,,,,,,,,,,,METAR,432.0
CTNK 300300Z AUTO 00000KT 10/04 RMK AO1 SLP201 T00980044 52014,CTNK,2023-05-30T03:00:00Z,45.53,-78.27,9.8,4.4,0,0,,,,1020.1,,TRUE,TRUE,,,,,,,,,,,,,,,,1.4,,,,,,,,,,,METAR,405.0
CTCK 300300Z AUTO 09002KT 13/01 RMK AO1 SLP190 T01340012 51005,CTCK,2023-05-30T03:00:00Z,45.25,-74.97,13.4,1.2,90,2,,,,1019.0,,TRUE,TRUE,,,,,,,,,,,,,,,,0.5,,,,,,,,,,,METAR,84.0
CPSV 300300Z AUTO 12002KT 23/08 RMK AO1 T02280083,CPSV,2023-05-30T03:00:00Z,49.92,-110.92,22.8,8.3,120,2,,,,,,TRUE,TRUE,,,,,,,,,,,,,,,,,,,,,,,,,,,METAR,766.0
CPST 300300Z AUTO 30015KT 20/07 RMK AO1 PK WND 30023/0249 T01980069,CPST,2023-05-30T03:00:00Z,51.03,-113.28,19.8,6.9,300,15,,,,,,TRUE,TRUE,,,,,,,,,,,,,,,,,,,,,,,,,,,METAR,1005.0
CPRY 300300Z AUTO 23008KT 20/08 RMK AO1 T02010078,CPRY,2023-05-30T03:00:00Z,49.48,-112.68,20.1,7.8,230,8,,,,,,TRUE,TRUE,,,,,,,,,,,,,,,,,,,,,,,,,,,METAR,947.0
CPRO 300300Z AUTO 13007KT 20/09 RMK AO1 T02020090,CPRO,2023-05-30T03:00:00Z,50.83,-112.05,20.2,9.0,130,7,,,,,,TRUE,TRUE,,,,,,,,,,,,,,,,,,,,,,,,,,,METAR,733.0
CPIN 300300Z AUTO 11019KT ////SM ////// ///// A////,CPIN,2023-05-30T03:00:00Z,,,,,110,19,,,,,,TRUE,,,,,,,,,,,,,,,,,,,,,,,,,,,,METAR,
CPFI 300300Z AUTO 23008KT 20/11 RMK AO1 T02020108,CPFI,2023-05-30T03:00:00Z,49.8,-112.03,20.2,10.8,230,8,,,,,,TRUE,TRUE,,,,,,,,,,,,,,,,,,,,,,,,,,,METAR,804.0
CPEH 300300Z AUTO 20/07 RMK AO1 T02040074,CPEH,2023-05-30T03:00:00Z,50.18,-112.43,20.4,7.4,,,,,,,,TRUE,TRUE,,,,,,,,,,,,,,,,,,,,,,,,,,,METAR,814.0
CPBT 300300Z AUTO 25010KT 18/06 RMK AO1 PK WND 27021/0225 T01800061,CPBT,2023-05-30T03:00:00Z,49.53,-113.05,18.0,6.1,250,10,,,,,,TRUE,TRUE,,,,,,,,,,,,,,,,,,,,,,,,,,,METAR,998.0
CMGB 300300Z AUTO 00000KT 12/07 RMK AO1 SLP200 T01200070 50007,CMGB,2023-05-30T03:00:00Z,45.37,-72.77,12.0,7.0,0,0,,,,1020.0,,TRUE,TRUE,,,,,,,,,,,,,,,,0.7,,,,,,,,,,,SPECI,87.0
CMFM 300300Z AUTO 28001KT 04/01 RMK AO1 SLP232 T00420013 51006,CMFM,2023-05-30T03:00:00Z,47.32,-71.15,4.2,1.3,280,1,,,,1023.2,,TRUE,TRUE,,,,,,,,,,,,,,,,0.6,,,,,,,,,,,SPECI,663.0
CERM 300300Z AUTO 29002KT 06/03 RMK AO1 SLP219 T00550034 51009,CERM,2023-05-30T03:00:00Z,47.42,-68.32,5.5,3.4,290,2,,,,1021.9,,TRUE,TRUE,,,,,,,,,,,,,,,,0.9,,,,,,,,,,,METAR,151.0
CBBC 300300Z AUTO VRB04KT 9SM OVC044 11/04 A3000 RMK SLP162,CBBC,2023-05-30T03:00:00Z,52.18,-128.15,11.0,4.0,0,4,,9.0,30.0,1016.2,,TRUE,,,,,,,,OVC,4400,,,,,,,VFR,,,,,,,,,,,,METAR,36.0
CBAR 300300Z AUTO 08008KT ////SM ////// 13/04 A2952,CBAR,2023-05-30T03:00:00Z,,,13.0,4.0,80,8,,,29.518702,,,TRUE,,,,,,,,,,,,,,,,,,,,,,,,,,,,METAR,
CAHR 300300Z AUTO 18003KT 03/M00 RMK AO1 SLP231 T00271003 51006,CAHR,2023-05-30T03:00:00Z,46.35,-63.17,2.7,-0.3,180,3,,,,1023.1,,TRUE,TRUE,,,,,,,,,,,,,,,,0.6,,,,,,,,,,,METAR,52.0
BIAR 300300Z 18022G33KT //// R01///// NSC 12/03 Q1010,BIAR,2023-05-30T03:00:00Z,65.67,-18.07,12.0,3.0,180,22,33,,29.822834,,,,,,,,,,,CLR,,,,,,,,,,,,,,,,,,,,METAR,1.0
AYMH 300300Z 30010KT 9999 SCT040 23/17 Q1022,AYMH,2023-05-30T03:00:00Z,-5.83,144.3,23.0,17.0,300,10,,6.21,30.177166,,,,,,,,,,,SCT,4000,,,,,,,VFR,,,,,,,,,,,,METAR,1634.0
AGGR 300300Z 00000KT 9999 FEW017 FEW018CB SCT029 BKN100 26/26 Q1013,AGGR,2023-05-30T03:00:00Z,-11.53,160.07,26.0,26.0,0,0,,6.21,29.911417,,,,,,,,,,,FEW,1700,FEW,1800,SCT,2900,BKN,10000,VFR,,,,,,,,,,,,METAR,11.0
KNOZ 300259Z AUTO 14013KT 10SM CLR 28/00 A2978 RMK AO2 SLP032 T02830000 53003,KNOZ,2023-05-30T02:59:00Z,32.53,-114.5,28.3,0.0,140,13,,10.0,29.778543,1003.2,,TRUE,TRUE,,,,,,,CLR,,,,,,,,VFR,0.3,,,,,,,,,,,SPECI,78.0
PALJ 300258Z 07006KT 30SM BKN070 11/06 A2972 RMK LST RPT EST PASS OPN NOSPECI,PALJ,2023-05-30T02:58:00Z,60.2,-154.3,11.0,6.0,70,6,,30.0,29.719488,,,,,,,,,,,BKN,7000,,,,,,,VFR,,,,,,,,,,,,SPECI,88.0
TJSJ 300256Z 13004KT 10SM FEW030 FEW060 26/22 A2995 RMK AO2 SLP138 T02610222 51017 $,TJSJ,2023-05-30T02:56:00Z,18.43,-66.02,26.1,22.2,130,4,,10.0,29.949802,1013.8,,,TRUE,TRUE,,,,,,FEW,3000,FEW,6000,,,,,VFR,1.7,,,,,,,,,,,METAR,3.0
PGUA 300256Z COR 14005KT 7SM -RA OVC012 23/22 A2987 RMK SLPNO WND DATA/ALSTG ESTMD COR 0316,PGUA,2023-05-30T02:56:00Z,13.57,144.92,23.0,22.0,140,5,,7.0,29.870079,,TRUE,,,,,,,,-RA,OVC,1200,,,,,,,MVFR,,,,,,,,,,,,SPECI,159.0
PANI 300256Z AUTO 23012KT 10SM SCT027 OVC037 07/02 A2978 RMK AO2 SLP077 T00720022 58008 $,PANI,2023-05-30T02:56:00Z,61.58,-159.53,7.2,2.2,230,12,,10.0,29.778543,1007.7,,TRUE,TRUE,TRUE,,,,,,SCT,2700,OVC,3700,,,,,VFR,-0.8,,,,,,,,,,,METAR,21.0
KNFE 300256Z AUTO 35003KT 4SM BR OVC002 21/19 A2996 RMK AO2 TSB02E52 SLP146 60021 T02060189 50009,KNFE,2023-05-30T02:56:00Z,36.7,-76.13,20.6,18.9,350,3,,4.0,29.958662,1014.6,,TRUE,TRUE,,,,,,BR,OVC,200,,,,,,,LIFR,0.9,,,,,,0.21,,,,,METAR,4.0
RODN 300255Z 10008G14KT 10SM BKN016 BKN200 30/25 A2969 RMK AO2A CIG 015 RWY23 SLP059 T02960253 58004 FZRANO $,RODN,2023-05-30T02:55:00Z,26.35,127.77,29.6,25.3,100,8,14,10.0,29.68996,1005.9,,,TRUE,TRUE,,,TRUE,,,BKN,1600,BKN,20000,,,,,MVFR,-0.4,,,,,,,,,,,METAR,38.0
RKSO 300255Z 09009KT 7SM SCT029 BKN180 26/23 A2984 RMK AO2A SLP102 WND DATA ESTMD ALSTG/SLP ESTMD T02630233 58019 $,RKSO,2023-05-30T02:55:00Z,37.08,127.02,26.3,23.3,90,9,,7.0,29.840551,1010.2,,,TRUE,TRUE,,,,,,SCT,2900,BKN,18000,,,,,VFR,-1.9,,,,,,,,,,,SPECI,10.0
RKJK 300255Z 11004KT 8SM FEW140 SCT180 SCT210 27/16 A2978 RMK AO2A SLP088 T02720158 56010 VISNO RWY18 $,RKJK,2023-05-30T02:55:00Z,35.9,126.62,27.2,15.8,110,4,,8.0,29.778543,1008.8,,,TRUE,TRUE,,,,,,FEW,14000,SCT,18000,SCT,21000,,,VFR,-1.0,,,,,,,,,,,METAR,8.0
OTBH 300255Z VRB06KT 9000 HZ SCT300 28/22 A2971 Q1006 RMK AO2A SLP061 T02800224 FZRANO CHINO RWY34 $,OTBH,2023-05-30T02:55:00Z,25.12,51.32,28.0,22.4,0,6,,5.59,29.704725,1006.1,,,TRUE,TRUE,,,TRUE,,HZ,SCT,30000,,,,,,,VFR,,,,,,,,,,,,METAR,40.0
LIVT 300255Z AUTO 07008KT 030V120 //// 21/10 Q1014,LIVT,2023-05-30T02:55:00Z,45.68,13.75,21.0,10.0,70,8,,,29.940945,,,TRUE,,,,,,,,,,,,,,,,,,,,,,,,,,,,SPECI,20.0
LIVP 300255Z 00000KT 9999 BKN050 06/02 Q1021,LIVP,2023-05-30T02:55:00Z,46.15,11.03,6.0,2.0,0,0,,6.21,30.147638,,,,,,,,,,,BKN,5000,,,,,,,VFR,,,,,,,,,,,,METAR,2099.0
LIVM 300255Z AUTO /////KT //// 18/14 Q1014,LIVM,2023-05-30T02:55:00Z,44.45,12.3,18.0,14.0,,,,,29.940945,,,TRUE,,,,,,,,,,,,,,,,,,,,,,,,,,,,SPECI,6.0
LIVF 300255Z 00000KT 9999 FEW040 15/11 Q1014 RMK FEW MON LIB VAL FOSCHIA VIS MIN 9999,LIVF,2023-05-30T02:55:00Z,43.52,12.72,15.0,11.0,0,0,,6.21,29.940945,,,,,,,,,,,FEW,4000,,,,,,,VFR,,,,,,,,,,,,METAR,549.0
LIVE 300255Z 04003KT CAVOK 10/08 Q1019,LIVE,2023-05-30T02:55:00Z,46.82,10.5,10.0,8.0,40,3,,6.21,30.088583,,,,,,,,,,,CAVOK,,,,,,,,VFR,,,,,,,,,,,,METAR,1684.0
LIVD 300255Z AUTO 08001KT //// 06/06 Q1021,LIVD,2023-05-30T02:55:00Z,46.72,12.22,6.0,6.0,80,1,,,30.147638,,,TRUE,,,,,,,,,,,,,,,,,,,,,,,,,,,,SPECI,1221.0
LIRX 300255Z AUTO 36000KT //// ///// Q////,LIRX,2023-05-30T02:55:00Z,42.73,10.38,,,360,0,,,,,,TRUE,,,,,,,,,,,,,,,,,,,,,,,,,,,,SPECI,397.0
LIRK 300255Z AUTO /////KT //// 07/04 Q1020,LIRK,2023-05-30T02:55:00Z,42.47,12.97,7.0,4.0,,,,,30.11811,,,TRUE,,,,,,,,,,,,,,,,,,,,,,,,,,,,SPECI,1721.0
LIRE 300255Z 03007KT CAVOK 17/15 Q1013,LIRE,2023-05-30T02:55:00Z,41.65,12.43,17.0,15.0,30,7,,6.21,29.911417,,,,,,,,,,,CAVOK,,,,,,,,VFR,,,,,,,,,,,,METAR,16.0
LIQC 300255Z 00000KT CAVOK 19/16 Q1013 RMK SKC QUK / QUL / VIS MAR 10 KM VIS MIN 9999,LIQC,2023-05-30T02:55:00Z,40.55,14.2,19.0,16.0,0,0,,6.21,29.911417,,,,,,,,,,,CAVOK,,,,,,,,VFR,,,,,,,,,,,,METAR,154.0
LIPS 300255Z 01002KT 9999 BKN100 18/14 Q1015 RMK BKN VIS MIN 9999 WIND THR26 30002KT WIND THR08 35002KT BLU,LIPS,2023-05-30T02:55:00Z,45.68,12.1,18.0,14.0,10,2,,6.21,29.970472,,,,,,,,,,,BKN,10000,,,,,,,VFR,,,,,,,,,,,,SPECI,42.0
LIPL 300255Z 07004KT 9999 SCT034 21/18 Q1015 RMK BKN SCT090 VIS MIN 9999 WIND THR31 /////KT WIND THR13 08004KT BLU,LIPL,2023-05-30T02:55:00Z,45.42,10.27,21.0,18.0,70,4,,6.21,29.970472,,,,,,,,,,,SCT,3400,,,,,,,VFR,,,,,,,,,,,,METAR,96.0
LIPI 300255Z 35004KT 9999 FEW080 16/12 Q1015 RMK FEW VIS MIN 9999 WIND THR06 /////KT WIND THR24 36005KT BLU,LIPI,2023-05-30T02:55:00Z,45.97,13.05,16.0,12.0,350,4,,6.21,29.970472,,,,,,,,,,,FEW,8000,,,,,,,VFR,,,,,,,,,,,,METAR,49.0
LIED 300255Z 33004KT 9999 SCT040 16/15 Q1011 RMK BKN BKN080 VIS MIN 9999 WIND THR35 /////KT WIND THR17 35002KT BLU,LIED,2023-05-30T02:55:00Z,39.35,8.97,16.0,15.0,330,4,,6.21,29.852362,,,,,,,,,,,SCT,4000,,,,,,,VFR,,,,,,,,,,,,SPECI,26.0
LIEB 300255Z 03012KT CAVOK 18/15 Q1012 RMK BKN SCT090 SCT200 QUK / QUL / VIS MAR 20 KM MON INVIS VIS MIN 9999,LIEB,2023-05-30T02:55:00Z,39.93,9.72,18.0,15.0,30,12,,6.21,29.88189,,,,,,,,,,,CAVOK,,,,,,,,VFR,,,,,,,,,,,,SPECI,126.0
LIBV 300255Z 33003KT 8000 NSC 13/13 Q1012 RMK BKN BKN160 VIS MIN 8000 WIND THR32 02003KT WIND THR14 /////KT BLU,LIBV,2023-05-30T02:55:00Z,40.77,16.93,13.0,13.0,330,3,,4.97,29.88189,,,,,,,,,,,CLR,,,,,,,,MVFR,,,,,,,,,,,,METAR,344.0
LIBQ 300255Z AUTO 08005KT //// 10/03 Q1017,LIBQ,2023-05-30T02:55:00Z,39.32,16.38,10.0,3.0,80,5,,,30.029528,,,TRUE,,,,,,,,,,,,,,,,,,,,,,,,,,,,SPECI,1660.0
LIBN 300255Z VRB03KT 0100 FG BKN001 18/18 Q1012 RMK BKN VIS MIN 0100 WIND THR14 VRB03KT WIND THR32 VRB03KT RED,LIBN,2023-05-30T02:55:00Z,40.23,18.13,18.0,18.0,0,3,,0.06,29.88189,,,,,,,,,,FG,BKN,100,,,,,,,LIFR,,,,,,,,,,,,SPECI,46.0
LIBA 300255Z 30005KT CAVOK 14/12 Q1012 RMK FEW FEW090 VIS MIN 9999 WIND THR11 30004KT WIND THR29 /////KT BLU,LIBA,2023-05-30T02:55:00Z,41.53,15.72,14.0,12.0,300,5,,6.21,29.88189,,,,,,,,,,,CAVOK,,,,,,,,VFR,,,,,,,,,,,,METAR,55.0
KTHM 300255Z AUTO 00000KT 10SM 22/09 A2984 RMK Thompson Falls ,KTHM,2023-05-30T02:55:00Z,47.57,-115.28,22.0,9.0,0,0,,10.0,29.840551,,,TRUE,,,,,,,,,,,,,,,,,,,,,,,,,,,,METAR,751.0
KS34 300255Z AUTO 00000KT 10SM 22/M03 A2981 RMK Plains ,KS34,2023-05-30T02:55:00Z,47.47,-114.9,22.0,-3.0,0,0,,10.0,29.811024,,,TRUE,,,,,,,,,,,,,,,,,,,,,,,,,,,,METAR,750.0
KQTZ 300255Z VRB02KT 9999 SCT080 OVC120 26/19 A2985 RMK PRESRR SLP113 60000 53005,KQTZ,2023-05-30T02:55:00Z,,,26.0,19.0,0,2,,6.21,29.84941,1011.3,,,,,,,,,,SCT,8000,OVC,12000,,,,,VFR,0.5,,,,,,0.005,,,,,METAR,
KLRF 300255Z AUTO 00000KT 10SM CLR 20/17 A2992 RMK AO2 SLP132 T01970165 52013,KLRF,2023-05-30T02:55:00Z,34.92,-92.12,19.7,16.5,0,0,,10.0,29.920275,1013.2,,TRUE,TRUE,,,,,,,CLR,,,,,,,,VFR,1.3,,,,,,,,,,,SPECI,85.0
KHIF 300255Z AUTO 36003KT 10SM CLR 21/04 A2990 RMK AO2 SLP075 T02130044 53002,KHIF,2023-05-30T02:55:00Z,41.12,-111.97,21.3,4.4,360,3,,10.0,29.899607,1007.5,,TRUE,TRUE,,,,,,,CLR,,,,,,,,VFR,0.2,,,,,,,,,,,SPECI,1461.0
KFEW 300255Z AUTO 00000KT 10SM OVC120 13/07 A3004 RMK AO2 SLP111 T01250072 52009 $,KFEW,2023-05-30T02:55:00Z,41.13,-104.87,12.5,7.2,0,0,,10.0,30.041338,1011.1,,TRUE,TRUE,TRUE,,,,,,OVC,12000,,,,,,,VFR,0.9,,,,,,,,,,,METAR,1877.0
KGEU 300254Z 23010KT 10SM SKC 32/M07 A2977 RMK LAST,KGEU,2023-05-30T02:54:00Z,33.53,-112.3,32.0,-7.0,230,10,,10.0,29.769686,,,,,,,,,,,SKC,,,,,,,,VFR,,,,,,,,,,,,METAR,319.0
PAPB 300253Z AUTO 25014KT 10SM OVC009 06/02 A2994 RMK AO2 SLP128 T00610022 58006 TSNO $,PAPB,2023-05-30T02:53:00Z,56.58,-169.67,6.1,2.2,250,14,,10.0,29.940945,1012.8,,TRUE,TRUE,TRUE,,TRUE,,,,OVC,900,,,,,,,IFR,-0.6,,,,,,,,,,,METAR,33.0
MMIO 300253Z 36005KT 10SM SKC 21/08 A3012,MMIO,2023-05-30T02:53:00Z,25.55,-100.93,21.0,8.0,360,5,,10.0,30.121063,,,,,,,,,,,SKC,,,,,,,,VFR,,,,,,,,,,,,METAR,1430.0
KSTC 300253Z 12005KT 10SM CLR 22/12 A2984 RMK AO2 SLP107 T02220117 55000,KSTC,2023-05-30T02:53:00Z,45.55,-94.05,22.2,11.7,120,5,,10.0,29.840551,1010.7,,,TRUE,,,,,,,CLR,,,,,,,,VFR,0.0,,,,,,,,,,,METAR,302.0
KOGD 300253Z AUTO A2990 RMK AO2 SLPNO 6//// PWINO PNO $,KOGD,2023-05-30T02:53:00Z,41.2,-112.02,,,,,,,29.899607,,,TRUE,TRUE,TRUE,,,,TRUE,,,,,,,,,,,,,,,,,,,,,,METAR,1356.0
KMER 300253Z 26010KT 10SM CLR 21/07 A2989,KMER,2023-05-30T02:53:00Z,37.38,-120.57,21.0,7.0,260,10,,10.0,29.890747,,,,,,,,,,,CLR,,,,,,,,VFR,,,,,,,,,,,,METAR,58.0
KBCT 300253Z 08007KT 10SM SCT025 26/21 A2991,KBCT,2023-05-30T02:53:00Z,26.38,-80.1,26.0,21.0,80,7,,10.0,29.911417,,,,,,,,,,,SCT,2500,,,,,,,VFR,,,,,,,,,,,,METAR,3.0
KBML 300252Z AUTO 00000KT 10SM CLR 11/06 A3018 RMK AO2 SLP223 T01060056 51020 $,KBML,2023-05-30T02:52:00Z,44.58,-71.18,10.6,5.6,0,0,,10.0,30.180119,1022.3,,TRUE,TRUE,TRUE,,,,,,CLR,,,,,,,,VFR,2.0,,,,,,,,,,,METAR,344.0
FASB 300252Z 31011KT 0500 -DZ FG OVC001 08/07 Q1018,FASB,2023-05-30T02:52:00Z,-29.68,17.93,8.0,7.0,310,11,,0.31,30.059055,,,,,,,,,,-DZ FG,OVC,100,,,,,,,LIFR,,,,,,,,,,,,SPECI,811.0
