raw_text,station_id,observation_time,latitude,longitude,temp_c,dewpoint_c,wind_dir_degrees,wind_speed_kt,wind_gust_kt,visibility_statute_mi,altim_in_hg,sea_level_pressure_mb,corrected,auto,auto_station,maintenance_indicator_on,no_signal,lightning_sensor_off,freezing_rain_sensor_off,present_weather_sensor_off,wx_string,sky_cover,cloud_base_ft_agl,sky_cover,cloud_base_ft_agl,sky_cover,cloud_base_ft_agl,sky_cover,cloud_base_ft_agl,flight_category,three_hr_pressure_tendency_mb,maxT_c,minT_c,maxT24hr_c,minT24hr_c,precip_in,pcp3hr_in,pcp6hr_in,pcp24hr_in,snow_in,vert_vis_ft,metar_type,elevation_m
PKWA 200620Z AUTO 07009KT 10SM CLR 29/25 A2978 RMK AO2 T02910250 TSNO,PKWA,2023-05-20T06:20:00Z,8.72,167.72,29.1,25.0,70,9,,10.0,29.778543,,,TRUE,TRUE,,,TRUE,,,,CLR,,,,,,,,VFR,,,,,,,,,,,,METAR,6.0
LATI 200620Z 00000KT CAVOK 21/15 Q1013 NOSIG,LATI,2023-05-20T06:20:00Z,41.42,19.72,21.0,15.0,0,0,,6.21,29.911417,,,,,,TRUE,,,,,CAVOK,,,,,,,,VFR,,,,,,,,,,,,METAR,32.0
KSBD 200620Z AUTO 25005KT 10SM CLR 16/12 A3008 RMK AO2 T01610117,KSBD,2023-05-20T06:20:00Z,34.08,-117.25,16.1,11.7,250,5,,10.0,30.079725,,,TRUE,TRUE,,,,,,,CLR,,,,,,,,VFR,,,,,,,,,,,,METAR,353.0
KQFX 200620Z AUTO 23004KT 9999 BKN060 27/14 A2977 RMK A02 TSNO,KQFX,2023-05-20T06:20:00Z,,,27.0,14.0,230,4,,6.21,29.769686,,,TRUE,TRUE,,,TRUE,,,,BKN,6000,,,,,,,VFR,,,,,,,,,,,,METAR,
KQFV 200620Z AUTO 18004KT 9999 SCT043 SCT048 26/14 A2983 RMK A02 TSNO,KQFV,2023-05-20T06:20:00Z,,,26.0,14.0,180,4,,6.21,29.828741,,,TRUE,TRUE,,,TRUE,,,,SCT,4300,SCT,4800,,,,,VFR,,,,,,,,,,,,METAR,
KQFU 200620Z AUTO 20008G19KT 9999 BKN041 24/14 A2987 RMK A02 TSNO,KQFU,2023-05-20T06:20:00Z,,,24.0,14.0,200,8,19,6.21,29.870079,,,TRUE,TRUE,,,TRUE,,,,BKN,4100,,,,,,,VFR,,,,,,,,,,,,METAR,
KQEW 200620Z AUTO 08002KT 9999 // FEW050 27/14 A2979 RMK A02 TSNO,KQEW,2023-05-20T06:20:00Z,,,27.0,14.0,80,2,,6.21,29.790354,,,TRUE,TRUE,,,TRUE,,,,FEW,5000,,,,,,,VFR,,,,,,,,,,,,METAR,
KQEQ 200620Z AUTO 26007G18KT 9999 CLR 23/14 A2987 RMK A02 TSNO,KQEQ,2023-05-20T06:20:00Z,,,23.0,14.0,260,7,18,6.21,29.870079,,,TRUE,TRUE,,,TRUE,,,,CLR,,,,,,,,VFR,,,,,,,,,,,,METAR,
KQEN 200620Z AUTO 25007KT 9999 CLR 22/11 A2984 RMK A02 TSNO,KQEN,2023-05-20T06:20:00Z,,,22.0,11.0,250,7,,6.21,29.840551,,,TRUE,TRUE,,,TRUE,,,,CLR,,,,,,,,VFR,,,,,,,,,,,,METAR,
KPO1 200620Z AUTO 14009KT 10SM FEW044 12/05 A3011 RMK AO2,KPO1,2023-05-20T06:20:00Z,48.13,-105.17,12.0,5.0,140,9,,10.0,30.109253,,,TRUE,TRUE,,,,,,,FEW,4400,,,,,,,VFR,,,,,,,,,,,,SPECI,621.0
KMTK 200620Z AUTO 12008KT 10SM CLR 27/22 A3000 RMK A01,KMTK,2023-05-20T06:20:00Z,,,27.0,22.0,120,8,,10.0,30.0,,,TRUE,TRUE,,,,,,,CLR,,,,,,,,VFR,,,,,,,,,,,,METAR,
KJQF 200620Z AUTO 00000KT 7SM BKN023 OVC030 17/16 A3013 RMK AO2 LTG DSNT SE,KJQF,2023-05-20T06:20:00Z,35.38,-80.72,17.0,16.0,0,0,,7.0,30.129921,,,TRUE,TRUE,,,,,,,BKN,2300,OVC,3000,,,,,MVFR,,,,,,,,,,,,METAR,204.0
KIKT 200620Z AUTO 13009KT 10SM BKN021 BKN025 BKN032 26/22 A3001 RMK A01,KIKT,2023-05-20T06:20:00Z,28.52,-88.28,26.0,22.0,130,9,,10.0,30.008858,,,TRUE,TRUE,,,,,,,BKN,2100,BKN,2500,BKN,3200,,,MVFR,,,,,,,,,,,,SPECI,36.0
KHRF 200620Z AUTO 15004KT 10SM CLR 13/07 A3014 RMK AO2,KHRF,2023-05-20T06:20:00Z,46.25,-114.13,13.0,7.0,150,4,,10.0,30.138779,,,TRUE,TRUE,,,,,,,CLR,,,,,,,,VFR,,,,,,,,,,,,METAR,1112.0
KGVW 200620Z AUTO 22007KT 10SM SCT046 27/22 A3003 RMK A01,KGVW,2023-05-20T06:20:00Z,29.13,-94.55,27.0,22.0,220,7,,10.0,30.029528,,,TRUE,TRUE,,,,,,,SCT,4600,,,,,,,VFR,,,,,,,,,,,,SPECI,37.0
KGUL 200620Z AUTO 18004KT 10SM SCT027 26/20 A3002 RMK A01,KGUL,2023-05-20T06:20:00Z,27.3,-93.53,26.0,20.0,180,4,,10.0,30.02067,,,TRUE,TRUE,,,,,,,SCT,2700,,,,,,,VFR,,,,,,,,,,,,SPECI,20.0
KDSF 200620Z AUTO 07008KT 10SM SCT020 26/22 A3000 RMK A01,KDSF,2023-05-20T06:20:00Z,28.35,-88.27,26.0,22.0,70,8,,10.0,30.0,,,TRUE,TRUE,,,,,,,SCT,2000,,,,,,,VFR,,,,,,,,,,,,SPECI,40.0
KATP 200620Z AUTO 12003KT 10SM BKN020 OVC025 26/21 A3002 RMK A01,KATP,2023-05-20T06:20:00Z,27.2,-90.03,26.0,21.0,120,3,,10.0,30.02067,,,TRUE,TRUE,,,,,,,BKN,2000,OVC,2500,,,,,MVFR,,,,,,,,,,,,SPECI,50.0
FWCL 200620Z 10009KT CAVOK 23/16 Q1019 NOSIG,FWCL,2023-05-20T06:20:00Z,-15.67,34.97,23.0,16.0,100,9,,6.21,30.088583,,,,,,TRUE,,,,,CAVOK,,,,,,,,VFR,,,,,,,,,,,,METAR,774.0
EYKA 200620Z 09007KT 060V120 CAVOK 16/06 Q1030,EYKA,2023-05-20T06:20:00Z,54.97,24.08,16.0,6.0,90,7,,6.21,30.413385,,,,,,,,,,,CAVOK,,,,,,,,VFR,,,,,,,,,,,,METAR,68.0
EVRA 200620Z VRB02KT CAVOK 16/04 Q1033 NOSIG,EVRA,2023-05-20T06:20:00Z,56.92,23.97,16.0,4.0,0,2,,6.21,30.501968,,,,,,TRUE,,,,,CAVOK,,,,,,,,VFR,,,,,,,,,,,,METAR,7.0
EVGA 200620Z 08003KT 050V130 CAVOK 15/05 Q1032 NOSIG,EVGA,2023-05-20T06:20:00Z,56.78,24.85,15.0,5.0,80,3,,6.21,30.47244,,,,,,TRUE,,,,,CAVOK,,,,,,,,VFR,,,,,,,,,,,,METAR,61.0
EKVG 200620Z AUTO 23007KT 1000 R12/P1500N R30/P1500U DZ BR OVC001/// 09/09 Q1018 RMK OVC008/// WIND SKEID 28014G31KT 200V320,EKVG,2023-05-20T06:20:00Z,62.07,-7.27,9.0,9.0,230,7,,0.62,30.059055,,,TRUE,,,,,,,DZ BR,OVC,100,,,,,,,LIFR,,,,,,,,,,,,METAR,89.0
EETU 200620Z AUTO VRB03KT 9999 NCD 13/04 Q1033,EETU,2023-05-20T06:20:00Z,58.32,26.68,13.0,4.0,0,3,,6.21,30.501968,,,TRUE,,,,,,,,CLR,,,,,,,,VFR,,,,,,,,,,,,METAR,67.0
EETN 200620Z 11003KT CAVOK 14/02 Q1034 NOSIG,EETN,2023-05-20T06:20:00Z,59.4,24.82,14.0,2.0,110,3,,6.21,30.531496,,,,,,TRUE,,,,,CAVOK,,,,,,,,VFR,,,,,,,,,,,,METAR,41.0
EEPU 200620Z AUTO 12004KT 080V150 9999 NCD 13/04 Q1034,EEPU,2023-05-20T06:20:00Z,58.42,24.47,13.0,4.0,120,4,,6.21,30.531496,,,TRUE,,,,,,,,CLR,,,,,,,,VFR,,,,,,,,,,,,METAR,13.0
EEKE 200620Z 10007KT CAVOK 13/06 Q1033,EEKE,2023-05-20T06:20:00Z,58.23,22.52,13.0,6.0,100,7,,6.21,30.501968,,,,,,,,,,,CAVOK,,,,,,,,VFR,,,,,,,,,,,,METAR,4.0
EEKA 200620Z 12007KT CAVOK 14/M00 Q1034,EEKA,2023-05-20T06:20:00Z,58.98,22.83,14.0,0.0,120,7,,6.21,30.531496,,,,,,,,,,,CAVOK,,,,,,,,VFR,,,,,,,,,,,,METAR,6.0
PASD 200619Z AUTO 03005KT 10SM BKN016 06/03 A2959 RMK AO2 PNO $,PASD,2023-05-20T06:19:00Z,55.33,-160.52,6.0,3.0,30,5,,10.0,29.589567,,,TRUE,TRUE,TRUE,,,,,,BKN,1600,,,,,,,MVFR,,,,,,,,,,,,SPECI,6.0
CYZP 200619Z AUTO 34008KT 9SM FEW004 OVC018 10/10 A3021 RMK SLP232,CYZP,2023-05-20T06:19:00Z,53.25,-131.82,10.0,10.0,340,8,,9.0,30.209646,1023.2,,TRUE,,,,,,,,FEW,400,OVC,1800,,,,,MVFR,,,,,,,,,,,,SPECI,7.0
UTO8 M M M 236/-02/-06/3211/M/ 1012 48MM,UTO8,2023-05-20T06:18:14Z,,,,,,,,,,,,,,,,,,,,,,,,,,,,,,,,,,,,,,,,SPECI,
KSAW 200618Z AUTO 34005KT 10SM BKN022 BKN031 BKN047 07/05 A3008 RMK AO2 T00700052,KSAW,2023-05-20T06:18:00Z,46.35,-87.4,7.0,5.2,340,5,,10.0,30.079725,,,TRUE,TRUE,,,,,,,BKN,2200,BKN,3100,BKN,4700,,,MVFR,,,,,,,,,,,,SPECI,359.0
KPVG 200618Z AUTO 2 1/2SM BR OVC004 17/17 A3006 RMK AO2 $,KPVG,2023-05-20T06:18:00Z,36.78,-76.45,17.0,17.0,,,,2.5,30.059055,,,TRUE,TRUE,TRUE,,,,,BR,OVC,400,,,,,,,LIFR,,,,,,,,,,,,SPECI,7.0
KNCA 200618Z AUTO 01011KT 8SM OVC004 18/17 A3001 RMK AO2 T01780167 $ ,KNCA,2023-05-20T06:18:00Z,34.72,-77.45,17.8,16.7,10,11,,8.0,30.008858,,,TRUE,TRUE,TRUE,,,,,,OVC,400,,,,,,,LIFR,,,,,,,,,,,,SPECI,9.0
KMBL 200618Z AUTO 32006KT 10SM OVC011 08/06 A3004 RMK AO2 CIG 008V014,KMBL,2023-05-20T06:18:00Z,44.27,-86.25,8.0,6.0,320,6,,10.0,30.041338,,,TRUE,TRUE,,,,,,,OVC,1100,,,,,,,MVFR,,,,,,,,,,,,SPECI,187.0
KHSE 200618Z AUTO 00000KT 1 1/4SM -RA BR FEW012 BKN019 OVC100 21/21 A3001 RMK AO2 P0000 T02060206,KHSE,2023-05-20T06:18:00Z,35.23,-75.62,20.6,20.6,0,0,,1.25,30.008858,,,TRUE,TRUE,,,,,,-RA BR,FEW,1200,BKN,1900,OVC,10000,,,IFR,,,,,,0.005,,,,,,SPECI,4.0
KCMA 200618Z AUTO 27005KT 6SM BR OVC004 15/14 A3007 RMK AO2 T01500139,KCMA,2023-05-20T06:18:00Z,34.22,-119.1,15.0,13.9,270,5,,6.0,30.070866,,,TRUE,TRUE,,,,,,BR,OVC,400,,,,,,,LIFR,,,,,,,,,,,,SPECI,20.0
CYPQ 200618Z AUTO 05004KT 5SM -RA BR BKN036 BKN071 OVC096 14/14 A2994 RMK SLP142,CYPQ,2023-05-20T06:18:00Z,44.22,-78.37,14.0,14.0,50,4,,5.0,29.940945,1014.2,,TRUE,,,,,,,-RA BR,BKN,3600,BKN,7100,OVC,9600,,,MVFR,,,,,,,,,,,,SPECI,190.0
CYBQ 200618Z AUTO 36012G20KT 9SM -SN -UP BKN020 OVC026 01/M01 A2998 RMK SLP172,CYBQ,2023-05-20T06:18:00Z,58.7,-98.5,1.0,-1.0,360,12,20,9.0,29.97933,1017.2,,TRUE,,,,,,,-SN UP,BKN,2000,OVC,2600,,,,,MVFR,,,,,,,,,,,,SPECI,272.0
KWWD 200617Z AUTO 05008KT 3SM BR OVC004 15/15 A3014 RMK AO2 RAE14 P0000 $,KWWD,2023-05-20T06:17:00Z,39.02,-74.92,15.0,15.0,50,8,,3.0,30.138779,,,TRUE,TRUE,TRUE,,,,,BR,OVC,400,,,,,,,LIFR,,,,,,0.005,,,,,,SPECI,4.0
KNDZ 200617Z AUTO 07007KT 10SM SCT019 BKN039 22/21 A3002 RMK AO2 T02220206 $,KNDZ,2023-05-20T06:17:00Z,30.7,-87.02,22.2,20.6,70,7,,10.0,30.02067,,,TRUE,TRUE,TRUE,,,,,,SCT,1900,BKN,3900,,,,,VFR,,,,,,,,,,,,SPECI,51.0
KHRO 200617Z AUTO 36008KT 6SM BR OVC005 14/13 A3013 RMK AO2 T01390128,KHRO,2023-05-20T06:17:00Z,36.27,-93.15,13.9,12.8,360,8,,6.0,30.129921,,,TRUE,TRUE,,,,,,BR,OVC,500,,,,,,,IFR,,,,,,,,,,,,SPECI,417.0
KCQM 200617Z AUTO 00000KT 10SM CLR 05/03 A3019 RMK AO2,KCQM,2023-05-20T06:17:00Z,47.82,-92.68,5.0,3.0,0,0,,10.0,30.188976,,,TRUE,TRUE,,,,,,,CLR,,,,,,,,VFR,,,,,,,,,,,,SPECI,406.0
KANJ 200617Z AUTO VRB03KT 10SM BKN020 OVC036 11/08 A2998 RMK AO2 T01060083,KANJ,2023-05-20T06:17:00Z,46.47,-84.37,10.6,8.3,0,3,,10.0,29.97933,,,TRUE,TRUE,,,,,,,BKN,2000,OVC,3600,,,,,MVFR,,,,,,,,,,,,SPECI,220.0
SLVR 200616Z VRB02KT 3000 BR FEW003 SCT023 BKN070 23/22 Q1012,SLVR,2023-05-20T06:16:00Z,-17.63,-63.13,23.0,22.0,0,2,,1.86,29.88189,,,,,,,,,,BR,FEW,300,SCT,2300,BKN,7000,,,IFR,,,,,,,,,,,,SPECI,377.0
RCFN 200616Z 08005KT 9999 SHRA FEW006 FEW010TCU BKN013 BKN030 26/25 Q1011 NOSIG RMK TCU W A2986,RCFN,2023-05-20T06:16:00Z,22.77,121.1,26.0,25.0,80,5,,6.21,29.852362,,,,,,TRUE,,,,SHRA,FEW,600,FEW,1000,BKN,1300,BKN,3000,MVFR,,,,,,,,,,,,SPECI,42.0
KOWB 200616Z AUTO 05003KT 10SM BKN007 18/17 A3001 RMK AO2,KOWB,2023-05-20T06:16:00Z,37.72,-87.17,18.0,17.0,50,3,,10.0,30.008858,,,TRUE,TRUE,,,,,,,BKN,700,,,,,,,IFR,,,,,,,,,,,,METAR,121.0
KONT 200616Z 25005KT 7SM BKN012 16/14 A3006 RMK AO2 T01560139,KONT,2023-05-20T06:16:00Z,34.05,-117.58,15.6,13.9,250,5,,7.0,30.059055,,,,TRUE,,,,,,,BKN,1200,,,,,,,MVFR,,,,,,,,,,,,SPECI,279.0
KODO 200616Z AUTO 07011KT 9SM VCTS -RA SCT018 17/16 A3024 RMK AO2 LTG DSNT E TSE10 P0010 T01720161 $,KODO,2023-05-20T06:16:00Z,31.92,-102.4,17.2,16.1,70,11,,9.0,30.239174,,,TRUE,TRUE,TRUE,,,,,VCTS -RA,SCT,1800,,,,,,,VFR,,,,,,0.1,,,,,,SPECI,912.0
KJLN 200616Z AUTO 31004KT 3SM BR CLR 10/09 A3019 RMK AO2 T01000094,KJLN,2023-05-20T06:16:00Z,37.15,-94.5,10.0,9.4,310,4,,3.0,30.188976,,,TRUE,TRUE,,,,,,BR,CLR,,,,,,,,MVFR,,,,,,,,,,,,SPECI,297.0
KFTW 200616Z 34009KT 10SM BKN019 OVC037 21/17 A3012 RMK AO2 T02060172,KFTW,2023-05-20T06:16:00Z,32.83,-97.37,20.6,17.2,340,9,,10.0,30.121063,,,,TRUE,,,,,,,BKN,1900,OVC,3700,,,,,MVFR,,,,,,,,,,,,SPECI,213.0
KCKC 200616Z AUTO 30004KT 10SM CLR 07/02 A3014 RMK AO2,KCKC,2023-05-20T06:16:00Z,47.83,-90.38,7.0,2.0,300,4,,10.0,30.138779,,,TRUE,TRUE,,,,,,,CLR,,,,,,,,VFR,,,,,,,,,,,,SPECI,544.0
KADC 200616Z AUTO 26004KT 10SM CLR 07/04 A3025 RMK AO2 TSNO,KADC,2023-05-20T06:16:00Z,46.45,-95.22,7.0,4.0,260,4,,10.0,30.250984,,,TRUE,TRUE,,,TRUE,,,,CLR,,,,,,,,VFR,,,,,,,,,,,,SPECI,416.0
K40B 200616Z AUTO 17010KT 12/07 A3006 RMK AO1 SLP177 T01230068 10164 20122 52005,K40B,2023-05-20T06:16:00Z,46.62,-69.52,12.3,6.8,170,10,,,30.059055,1017.7,,TRUE,TRUE,,,,,,,,,,,,,,,,0.5,16.4,12.2,,,,,,,,,SPECI,344.0
CYZE 200616Z AUTO 04007KT 6SM -RA BR OVC025 08/07 A2993 RMK SLP141,CYZE,2023-05-20T06:16:00Z,45.88,-82.57,8.0,7.0,40,7,,6.0,29.929134,1014.1,,TRUE,,,,,,,-RA BR,OVC,2500,,,,,,,MVFR,,,,,,,,,,,,SPECI,189.0
CYTR 200616Z 09002KT 15SM -SHRA BKN049 OVC075 15/12 A2995 RMK SC6AC2 DENSITY ALT 499FT SLP143,CYTR,2023-05-20T06:16:00Z,44.12,-77.52,15.0,12.0,90,2,,15.0,29.949802,1014.3,,,,,,,,,-SHRA,BKN,4900,OVC,7500,,,,,VFR,,,,,,,,,,,,SPECI,80.0
TJPS 200615Z AUTO 06004KT 10SM FEW038 25/22 A2992 RMK AO2 TSNO,TJPS,2023-05-20T06:15:00Z,18.02,-66.57,25.0,22.0,60,4,,10.0,29.920275,,,TRUE,TRUE,,,TRUE,,,,FEW,3800,,,,,,,VFR,,,,,,,,,,,,SPECI,12.0
PAKX 200615Z AUTO 24006KT 10SM OVC065 08/05 A2986 RMK AO2,PAKX,2023-05-20T06:15:00Z,60.2,-154.32,8.0,5.0,240,6,,10.0,29.861221,,,TRUE,TRUE,,,,,,,OVC,6500,,,,,,,VFR,,,,,,,,,,,,METAR,88.0
PACD 200615Z AUTO 26009KT 10SM OVC014 04/03 A2958 RMK AO2 T00440028 TSNO $,PACD,2023-05-20T06:15:00Z,55.22,-162.72,4.4,2.8,260,9,,10.0,29.58071,,,TRUE,TRUE,TRUE,,TRUE,,,,OVC,1400,,,,,,,MVFR,,,,,,,,,,,,SPECI,23.0
PAAD 200615Z AUTO 19004KT 10SM CLR M02/M03 A2990 RMK AO2 T10221031 PWINO,PAAD,2023-05-20T06:15:00Z,70.13,-146.28,-2.2,-3.1,190,4,,10.0,29.899607,,,TRUE,TRUE,,,,,TRUE,,CLR,,,,,,,,VFR,,,,,,,,,,,,SPECI,8.0
LMML 200615Z 11012KT 6000 NSC 20/17 Q0998 BECMG 5000 DU,LMML,2023-05-20T06:15:00Z,35.85,14.47,20.0,17.0,110,12,,3.73,29.468504,,,,,,,,,,,CLR,,,,,,,,MVFR,,,,,,,,,,,,METAR,78.0
KZPH 200615Z AUTO 36003KT 10SM CLR 22/21 A3001 RMK A02 T02160213,KZPH,2023-05-20T06:15:00Z,28.23,-82.15,21.6,21.3,360,3,,10.0,30.008858,,,TRUE,TRUE,,,,,,,CLR,,,,,,,,VFR,,,,,,,,,,,,METAR,26.0
KZER 200615Z AUTO 13008KT 10SM CLR 10/07 A3015 RMK AO2,KZER,2023-05-20T06:15:00Z,40.7,-76.37,10.0,7.0,130,8,,10.0,30.15059,,,TRUE,TRUE,,,,,,,CLR,,,,,,,,VFR,,,,,,,,,,,,METAR,518.0
KY70 200615Z AUTO 28005KT 10SM CLR 09/06 A3001 RMK AO2 T00910060,KY70,2023-05-20T06:15:00Z,42.93,-85.07,9.1,6.0,280,5,,10.0,30.008858,,,TRUE,TRUE,,,,,,,CLR,,,,,,,,VFR,,,,,,,,,,,,SPECI,247.0
KY63 200615Z AUTO 00000KT 10SM CLR 08/03 A3026 RMK AO2 T00760034,KY63,2023-05-20T06:15:00Z,45.98,-96.0,7.6,3.4,0,0,,10.0,30.259842,,,TRUE,TRUE,,,,,,,CLR,,,,,,,,VFR,,,,,,,,,,,,METAR,367.0
KY51 200615Z AUTO 33004KT 10SM CLR 08/06 A3017 RMK AO1 T00750062,KY51,2023-05-20T06:15:00Z,43.58,-90.9,7.5,6.2,330,4,,10.0,30.171259,,,TRUE,TRUE,,,,,,,CLR,,,,,,,,VFR,,,,,,,,,,,,SPECI,390.0
KY49 200615Z AUTO 27003KT 10SM CLR 06/04 A3023 RMK AO2 T00610044,KY49,2023-05-20T06:15:00Z,47.15,-94.65,6.1,4.4,270,3,,10.0,30.230314,,,TRUE,TRUE,,,,,,,CLR,,,,,,,,VFR,,,,,,,,,,,,METAR,413.0
KY31 200615Z AUTO 00000KT 1/4SM FG VV002 04/04 A2997 RMK AO2 T00420040,KY31,2023-05-20T06:15:00Z,44.25,-84.18,4.2,4.0,0,0,,0.25,29.970472,,,TRUE,TRUE,,,,,,FG,OVX,0,,,,,,,LIFR,,,,,,,,,,,200,SPECI,264.0
KY23 200615Z AUTO 00000KT 10SM CLR 06/06 A3021 RMK AO2 T00620062,KY23,2023-05-20T06:15:00Z,45.3,-91.63,6.2,6.2,0,0,,10.0,30.209646,,,TRUE,TRUE,,,,,,,CLR,,,,,,,,VFR,,,,,,,,,,,,SPECI,322.0
KY19 200615Z AUTO 18007KT 10SM CLR 08/03 A3024 RMK AO2,KY19,2023-05-20T06:15:00Z,46.77,-100.9,8.0,3.0,180,7,,10.0,30.239174,,,TRUE,TRUE,,,,,,,CLR,,,,,,,,VFR,,,,,,,,,,,,SPECI,591.0
KXSA 200615Z AUTO 04003KT 10SM OVC005 16/16 A3010 RMK AO2 T01600160,KXSA,2023-05-20T06:15:00Z,37.87,-76.9,16.0,16.0,40,3,,10.0,30.100393,,,TRUE,TRUE,,,,,,,OVC,500,,,,,,,IFR,,,,,,,,,,,,SPECI,41.0
KXNX 200615Z AUTO VRB03KT 10SM OVC035 21/19 A3005 RMK A01,KXNX,2023-05-20T06:15:00Z,36.38,-86.42,21.0,19.0,0,3,,10.0,30.050198,,,TRUE,TRUE,,,,,,,OVC,3500,,,,,,,VFR,,,,,,,,,,,,SPECI,178.0
KXLL 200615Z AUTO 00000KT 10SM CLR 12/10 A3018 RMK AO2,KXLL,2023-05-20T06:15:00Z,40.57,-75.48,12.0,10.0,0,0,,10.0,30.180119,,,TRUE,TRUE,,,,,,,CLR,,,,,,,,VFR,,,,,,,,,,,,METAR,118.0
KX60 200615Z AUTO 00000KT 10SM CLR 22/21 A3002 RMK AO2 T02200205,KX60,2023-05-20T06:15:00Z,29.35,-82.47,22.0,20.5,0,0,,10.0,30.02067,,,TRUE,TRUE,,,,,,,CLR,,,,,,,,VFR,,,,,,,,,,,,METAR,21.0
KX07 200615Z AUTO 00000KT 9SM FEW100 23/23 A2999 RMK A01,KX07,2023-05-20T06:15:00Z,27.9,-81.62,23.0,23.0,0,0,,9.0,29.991142,,,TRUE,TRUE,,,,,,,FEW,10000,,,,,,,VFR,,,,,,,,,,,,SPECI,36.0
KWYS 200615Z AUTO 00000KT 10SM CLR 02/M03 A3030 RMK AO2,KWYS,2023-05-20T06:15:00Z,44.68,-111.12,2.0,-3.0,0,0,,10.0,30.301182,,,TRUE,TRUE,,,,,,,CLR,,,,,,,,VFR,,,,,,,,,,,,SPECI,2025.0
KWWR 200615Z AUTO 00000KT 10SM CLR 09/08 A3029 RMK AO2,KWWR,2023-05-20T06:15:00Z,36.45,-99.52,9.0,8.0,0,0,,10.0,30.28937,,,TRUE,TRUE,,,,,,,CLR,,,,,,,,VFR,,,,,,,,,,,,SPECI,664.0
KWDR 200615Z AUTO 00000KT 10SM OVC032 18/17 A3011 RMK AO2,KWDR,2023-05-20T06:15:00Z,33.98,-83.67,18.0,17.0,0,0,,10.0,30.109253,,,TRUE,TRUE,,,,,,,OVC,3200,,,,,,,VFR,,,,,,,,,,,,METAR,280.0
KWDG 200615Z AUTO 32005KT 10SM CLR 11/10 A3022 RMK AO2,KWDG,2023-05-20T06:15:00Z,36.37,-97.78,11.0,10.0,320,5,,10.0,30.221457,,,TRUE,TRUE,,,,,,,CLR,,,,,,,,VFR,,,,,,,,,,,,SPECI,352.0
KW96 200615Z AUTO 00000KT 10SM OVC004 15/15 A3008 RMK AO1 T01520148,KW96,2023-05-20T06:15:00Z,37.5,-77.12,15.2,14.8,0,0,,10.0,30.079725,,,TRUE,TRUE,,,,,,,OVC,400,,,,,,,LIFR,,,,,,,,,,,,METAR,35.0
KW81 200615Z AUTO 34003KT 10SM CLR 13/11 A3009 RMK AO1 T01260112,KW81,2023-05-20T06:15:00Z,37.18,-78.1,12.6,11.2,340,3,,10.0,30.088583,,,TRUE,TRUE,,,,,,,CLR,,,,,,,,VFR,,,,,,,,,,,,SPECI,121.0
KW78 200615Z AUTO 35003KT 10SM CLR 14/13 A3009 RMK AO1 T01400131,KW78,2023-05-20T06:15:00Z,36.7,-78.85,14.0,13.1,350,3,,10.0,30.088583,,,TRUE,TRUE,,,,,,,CLR,,,,,,,,VFR,,,,,,,,,,,,SPECI,120.0
KW75 200615Z AUTO 03005KT 10SM OVC006 17/16 A3008 RMK AO1 T01700161,KW75,2023-05-20T06:15:00Z,37.6,-76.45,17.0,16.1,30,5,,10.0,30.079725,,,TRUE,TRUE,,,,,,,OVC,600,,,,,,,IFR,,,,,,,,,,,,SPECI,8.0
KW43 200615Z AUTO 20012G15KT 10SM CLR 11/03 A3025 RMK AO2,KW43,2023-05-20T06:15:00Z,44.67,-104.57,11.0,3.0,200,12,15,10.0,30.250984,,,TRUE,TRUE,,,,,,,CLR,,,,,,,,VFR,,,,,,,,,,,,METAR,1292.0
KW31 200615Z AUTO 36004KT 10SM CLR A3007 RMK AO1,KW31,2023-05-20T06:15:00Z,36.95,-78.18,,,360,4,,10.0,30.070866,,,TRUE,TRUE,,,,,,,CLR,,,,,,,,VFR,,,,,,,,,,,,SPECI,159.0
KW22 200615Z AUTO 00000KT 10SM FEW095 15/11 A3004 RMK AO2,KW22,2023-05-20T06:15:00Z,39.0,-80.27,15.0,11.0,0,0,,10.0,30.041338,,,TRUE,TRUE,,,,,,,FEW,9500,,,,,,,VFR,,,,,,,,,,,,METAR,497.0
KW13 200615Z AUTO 17003KT 10SM OVC036 16/13 A3012 RMK AO1 T01600126,KW13,2023-05-20T06:15:00Z,38.08,-78.95,16.0,12.6,170,3,,10.0,30.121063,,,TRUE,TRUE,,,,,,,OVC,3600,,,,,,,VFR,,,,,,,,,,,,METAR,440.0
KVYS 200615Z AUTO 32007KT 10SM CLR 12/06 A3012 RMK AO2 T01150055,KVYS,2023-05-20T06:15:00Z,41.35,-89.15,11.5,5.5,320,7,,10.0,30.121063,,,TRUE,TRUE,,,,,,,CLR,,,,,,,,VFR,,,,,,,,,,,,METAR,198.0
KVVV 200615Z AUTO 00000KT 10SM CLR 08/04 A3026 RMK AO2,KVVV,2023-05-20T06:15:00Z,45.3,-96.42,8.0,4.0,0,0,,10.0,30.259842,,,TRUE,TRUE,,,,,,,CLR,,,,,,,,VFR,,,,,,,,,,,,METAR,334.0
KVTP 200615Z AUTO 23004KT 7SM SCT012 OVC018 02/M02 A3052 RMK AO2,KVTP,2023-05-20T06:15:00Z,37.5,-105.17,2.0,-2.0,230,4,,7.0,30.519686,,,TRUE,TRUE,,,,,,,SCT,1200,OVC,1800,,,,,MVFR,,,,,,,,,,,,SPECI,3086.0
KVTI 200615Z AUTO 33006KT CLR 11/06 A3019 RMK AO2 T01050058 PWINO,KVTI,2023-05-20T06:15:00Z,42.22,-92.02,10.5,5.8,330,6,,,30.188976,,,TRUE,TRUE,,,,,TRUE,,CLR,,,,,,,,,,,,,,,,,,,,SPECI,256.0
KVQQ 200615Z AUTO 00000KT 10SM CLR 21/21 A3003 RMK AO2,KVQQ,2023-05-20T06:15:00Z,30.22,-81.88,21.0,21.0,0,0,,10.0,30.029528,,,TRUE,TRUE,,,,,,,CLR,,,,,,,,VFR,,,,,,,,,,,,SPECI,21.0
KVPC 200615Z AUTO 00000KT 10SM OVC036 18/17 A3008 RMK AO2,KVPC,2023-05-20T06:15:00Z,34.1,-84.85,18.0,17.0,0,0,,10.0,30.079725,,,TRUE,TRUE,,,,,,,OVC,3600,,,,,,,VFR,,,,,,,,,,,,SPECI,234.0
KVOA 200615Z AUTO 14007KT 10SM SCT022 BKN026 26/22 A3002 RMK A01,KVOA,2023-05-20T06:15:00Z,29.23,-87.78,26.0,22.0,140,7,,10.0,30.02067,,,TRUE,TRUE,,,,,,,SCT,2200,BKN,2600,,,,,MVFR,,,,,,,,,,,,SPECI,53.0
KVNW 200615Z AUTO 36005KT 4SM RA SCT009 BKN014 OVC029 14/13 A3000 RMK AO2 P0002,KVNW,2023-05-20T06:15:00Z,40.87,-84.62,14.0,13.0,360,5,,4.0,30.0,,,TRUE,TRUE,,,,,,RA,SCT,900,BKN,1400,OVC,2900,,,MVFR,,,,,,0.02,,,,,,METAR,238.0
KVNC 200615Z AUTO 34003KT 10SM CLR 26/22 A2999 RMK AO2,KVNC,2023-05-20T06:15:00Z,27.07,-82.43,26.0,22.0,340,3,,10.0,29.991142,,,TRUE,TRUE,,,,,,,CLR,,,,,,,,VFR,,,,,,,,,,,,SPECI,4.0
KVLL 200615Z AUTO 33005KT 10SM SCT060 BKN070 OVC120 14/11 A2998 RMK AO2 T01380107,KVLL,2023-05-20T06:15:00Z,42.55,-83.18,13.8,10.7,330,5,,10.0,29.97933,,,TRUE,TRUE,,,,,,,SCT,6000,BKN,7000,OVC,12000,,,VFR,,,,,,,,,,,,SPECI,214.0
KVKY 200615Z AUTO 00000KT 10SM CLR A3004 RMK A01,KVKY,2023-05-20T06:15:00Z,29.25,-88.43,,,0,0,,10.0,30.041338,,,TRUE,TRUE,,,,,,,CLR,,,,,,,,VFR,,,,,,,,,,,,SPECI,32.0
KVJI 200615Z AUTO 10003KT 10SM CLR 15/12 A3011 RMK AO2 T01450123,KVJI,2023-05-20T06:15:00Z,36.68,-82.03,14.5,12.3,100,3,,10.0,30.109253,,,TRUE,TRUE,,,,,,,CLR,,,,,,,,VFR,,,,,,,,,,,,SPECI,636.0
KVHN 200615Z AUTO 04019G25KT 10SM OVC110 20/12 A3028 RMK AO2 T01970122,KVHN,2023-05-20T06:15:00Z,31.07,-104.78,19.7,12.2,40,19,25,10.0,30.280512,,,TRUE,TRUE,,,,,,,OVC,11000,,,,,,,VFR,,,,,,,,,,,,METAR,1200.0
KVGC 200615Z AUTO 16011G16KT 10SM CLR 14/06 A3009 RMK AO2,KVGC,2023-05-20T06:15:00Z,42.85,-75.57,14.0,6.0,160,11,16,10.0,30.088583,,,TRUE,TRUE,,,,,,,CLR,,,,,,,,VFR,,,,,,,,,,,,SPECI,346.0
KVER 200615Z AUTO 36005KT 10SM CLR 12/10 A3018 RMK AO2 T01230098,KVER,2023-05-20T06:15:00Z,38.95,-92.68,12.3,9.8,360,5,,10.0,30.180119,,,TRUE,TRUE,,,,,,,CLR,,,,,,,,VFR,,,,,,,,,,,,SPECI,209.0
KVDI 200615Z AUTO 00000KT 10SM OVC019 20/18 A3007 RMK AO2,KVDI,2023-05-20T06:15:00Z,32.2,-82.37,20.0,18.0,0,0,,10.0,30.070866,,,TRUE,TRUE,,,,,,,OVC,1900,,,,,,,MVFR,,,,,,,,,,,,METAR,81.0
KVDF 200615Z AUTO 04003KT 10SM CLR 23/22 A3000 RMK AO2,KVDF,2023-05-20T06:15:00Z,28.02,-82.33,23.0,22.0,40,3,,10.0,30.0,,,TRUE,TRUE,,,,,,,CLR,,,,,,,,VFR,,,,,,,,,,,,METAR,5.0
KVCV 200615Z AUTO 14008KT 10SM CLR 20/10 A3008 RMK AO2,KVCV,2023-05-20T06:15:00Z,34.58,-117.38,20.0,10.0,140,8,,10.0,30.079725,,,TRUE,TRUE,,,,,,,CLR,,,,,,,,VFR,,,,,,,,,,,,SPECI,871.0
KVBW 200615Z AUTO 18004KT 10SM OVC040 17/13 A3010 RMK AO1 T01680134,KVBW,2023-05-20T06:15:00Z,38.37,-78.97,16.8,13.4,180,4,,10.0,30.100393,,,TRUE,TRUE,,,,,,,OVC,4000,,,,,,,VFR,,,,,,,,,,,,METAR,362.0
KVBT 200615Z AUTO 01007KT 5SM BR FEW006 BKN010 OVC018 13/12 A3016 RMK AO2,KVBT,2023-05-20T06:15:00Z,36.35,-94.22,13.0,12.0,10,7,,5.0,30.159449,,,TRUE,TRUE,,,,,,BR,FEW,600,BKN,1000,OVC,1800,,,MVFR,,,,,,,,,,,,METAR,390.0
KVAF 200615Z AUTO 15006KT 10SM CLR 26/19 A3004 RMK A01,KVAF,2023-05-20T06:15:00Z,27.35,-94.63,26.0,19.0,150,6,,10.0,30.041338,,,TRUE,TRUE,,,,,,,CLR,,,,,,,,VFR,,,,,,,,,,,,SPECI,38.0
KUYF 200615Z AUTO 28006KT 10SM SCT037 BKN049 OVC100 17/16 A2998 RMK AO2,KUYF,2023-05-20T06:15:00Z,39.93,-83.47,17.0,16.0,280,6,,10.0,29.97933,,,TRUE,TRUE,,,,,,,SCT,3700,BKN,4900,OVC,10000,,,VFR,,,,,,,,,,,,METAR,326.0
KUXL 200615Z AUTO 00000KT 10SM CLR 25/23 A3002 RMK AO2 T02460231,KUXL,2023-05-20T06:15:00Z,30.13,-93.38,24.6,23.1,0,0,,10.0,30.02067,,,TRUE,TRUE,,,,,,,CLR,,,,,,,,VFR,,,,,,,,,,,,METAR,2.0
KUVA 200615Z AUTO 10008KT 10SM BKN060 BKN070 BKN095 26/25 A3006 RMK AO2 LTG DSNT S AND NW T02620249,KUVA,2023-05-20T06:15:00Z,29.22,-99.75,26.2,24.9,100,8,,10.0,30.059055,,,TRUE,TRUE,,,,,,,BKN,6000,BKN,7000,BKN,9500,,,VFR,,,,,,,,,,,,SPECI,285.0
KUUV 200615Z AUTO 00000KT 7SM SCT042 SCT050 OVC070 12/12 A3015 RMK AO2,KUUV,2023-05-20T06:15:00Z,38.23,-91.17,12.0,12.0,0,0,,7.0,30.15059,,,TRUE,TRUE,,,,,,,SCT,4200,SCT,5000,OVC,7000,,,VFR,,,,,,,,,,,,METAR,284.0
KUTA 200615Z AUTO 16011KT 9SM -RA SCT095 23/23 A2997 RMK AO2 RAB0612 P0000 T02300226 $,KUTA,2023-05-20T06:15:00Z,34.68,-90.35,23.0,22.6,160,11,,9.0,29.970472,,,TRUE,TRUE,TRUE,,,,,-RA,SCT,9500,,,,,,,VFR,,,,,,0.005,,,,,,METAR,58.0
KUSE 200615Z AUTO 35008KT 6SM -RA OVC035 14/14 A2998 RMK AO2,KUSE,2023-05-20T06:15:00Z,41.62,-84.13,14.0,14.0,350,8,,6.0,29.97933,,,TRUE,TRUE,,,,,,-RA,OVC,3500,,,,,,,VFR,,,,,,,,,,,,SPECI,237.0
KUOX 200615Z AUTO 17008G15KT 10SM OVC007 21/20 A3002 RMK AO2,KUOX,2023-05-20T06:15:00Z,34.38,-89.53,21.0,20.0,170,8,15,10.0,30.02067,,,TRUE,TRUE,,,,,,,OVC,700,,,,,,,IFR,,,,,,,,,,,,METAR,123.0
KUNV 200615Z AUTO 21005KT 10SM SCT060 15/09 A3010 RMK AO2 T01450089,KUNV,2023-05-20T06:15:00Z,40.85,-77.83,14.5,8.9,210,5,,10.0,30.100393,,,TRUE,TRUE,,,,,,,SCT,6000,,,,,,,VFR,,,,,,,,,,,,SPECI,365.0
KUNU 200615Z AUTO 33003KT 10SM CLR 08/04 A3012 RMK AO2 T00760043,KUNU,2023-05-20T06:15:00Z,43.42,-88.7,7.6,4.3,330,3,,10.0,30.121063,,,TRUE,TRUE,,,,,,,CLR,,,,,,,,VFR,,,,,,,,,,,,SPECI,281.0
KUNI 200615Z AUTO 00000KT 10SM SCT070 SCT085 16/14 A2998 RMK AO2 T01610144,KUNI,2023-05-20T06:15:00Z,39.22,-82.23,16.1,14.4,0,0,,10.0,29.97933,,,TRUE,TRUE,,,,,,,SCT,7000,SCT,8500,,,,,VFR,,,,,,,,,,,,METAR,232.0
KULM 200615Z AUTO 01003KT 10SM CLR 09/04 A3024 RMK AO2,KULM,2023-05-20T06:15:00Z,44.32,-94.5,9.0,4.0,10,3,,10.0,30.239174,,,TRUE,TRUE,,,,,,,CLR,,,,,,,,VFR,,,,,,,,,,,,METAR,305.0
KUKT 200615Z AUTO 00000KT 10SM CLR 09/09 A3017 RMK A01,KUKT,2023-05-20T06:15:00Z,40.43,-75.38,9.0,9.0,0,0,,10.0,30.171259,,,TRUE,TRUE,,,,,,,CLR,,,,,,,,VFR,,,,,,,,,,,,METAR,156.0
KUES 200615Z AUTO 32010KT 10SM CLR 07/03 A3011 RMK AO2,KUES,2023-05-20T06:15:00Z,43.05,-88.25,7.0,3.0,320,10,,10.0,30.109253,,,TRUE,TRUE,,,,,,,CLR,,,,,,,,VFR,,,,,,,,,,,,SPECI,273.0
KUCY 200615Z AUTO 01010KT 3SM BR FEW004 BKN010 OVC027 19/18 A3000 RMK A01,KUCY,2023-05-20T06:15:00Z,36.38,-88.98,19.0,18.0,10,10,,3.0,30.0,,,TRUE,TRUE,,,,,,BR,FEW,400,BKN,1000,OVC,2700,,,MVFR,,,,,,,,,,,,SPECI,97.0
KUBE 200615Z AUTO 28004KT 10SM CLR 05/05 A3022 RMK AO2,KUBE,2023-05-20T06:15:00Z,45.5,-91.98,5.0,5.0,280,4,,10.0,30.221457,,,TRUE,TRUE,,,,,,,CLR,,,,,,,,VFR,,,,,,,,,,,,SPECI,376.0
KU69 200615Z AUTO 00000KT 10SM FEW046 SCT055 SCT095 14/M02 A3029 RMK A01,KU69,2023-05-20T06:15:00Z,40.2,-110.38,14.0,-2.0,0,0,,10.0,30.28937,,,TRUE,TRUE,,,,,,,FEW,4600,SCT,5500,SCT,9500,,,VFR,,,,,,,,,,,,METAR,1776.0
KU64 200615Z AUTO 16014KT 10SM FEW045 BKN070 BKN090 10/07 A3036 RMK AO2 RAE0606 P0000 T00980073 $,KU64,2023-05-20T06:15:00Z,,,9.8,7.3,160,14,,10.0,30.360237,,,TRUE,TRUE,TRUE,,,,,,FEW,4500,BKN,7000,BKN,9000,,,VFR,,,,,,0.005,,,,,,METAR,
KU55 200615Z AUTO 26004KT 10SM FEW050 SCT060 BKN100 10/06 A3033 RMK A01,KU55,2023-05-20T06:15:00Z,37.85,-112.38,10.0,6.0,260,4,,10.0,30.33071,,,TRUE,TRUE,,,,,,,FEW,5000,SCT,6000,BKN,10000,,,VFR,,,,,,,,,,,,METAR,2060.0
KU42 200615Z AUTO 28006KT 10SM CLR 18/01 A3018 RMK AO1 T01810010,KU42,2023-05-20T06:15:00Z,40.62,-111.98,18.1,1.0,280,6,,10.0,30.180119,,,TRUE,TRUE,,,,,,,CLR,,,,,,,,VFR,,,,,,,,,,,,SPECI,1399.0
KTZR 200615Z AUTO 30005KT 10SM SCT028 18/16 A2999 RMK AO2 T01770155,KTZR,2023-05-20T06:15:00Z,39.9,-83.13,17.7,15.5,300,5,,10.0,29.991142,,,TRUE,TRUE,,,,,,,SCT,2800,,,,,,,VFR,,,,,,,,,,,,METAR,275.0
KTYQ 200615Z AUTO 35006KT 7SM -RA SCT030 SCT043 OVC085 13/12 A3005 RMK AO2 T01320115,KTYQ,2023-05-20T06:15:00Z,40.03,-86.25,13.2,11.5,350,6,,7.0,30.050198,,,TRUE,TRUE,,,,,,-RA,SCT,3000,SCT,4300,OVC,8500,,,VFR,,,,,,,,,,,,METAR,279.0
KTYL 200615Z AUTO 19007KT 10SM OVC110 12/09 A3032 RMK AO2,KTYL,2023-05-20T06:15:00Z,34.45,-110.12,12.0,9.0,190,7,,10.0,30.318897,,,TRUE,TRUE,,,,,,,OVC,11000,,,,,,,VFR,,,,,,,,,,,,SPECI,1748.0
KTXW 200615Z AUTO 14006KT 10SM SCT017 25/23 A3001 RMK AO2 T02510234,KTXW,2023-05-20T06:15:00Z,26.18,-97.97,25.1,23.4,140,6,,10.0,30.008858,,,TRUE,TRUE,,,,,,,SCT,1700,,,,,,,VFR,,,,,,,,,,,,METAR,21.0
KTWT 200615Z AUTO 33008KT 10SM BKN011 OVC070 18/17 A3002 RMK AO2,KTWT,2023-05-20T06:15:00Z,37.55,-87.95,18.0,17.0,330,8,,10.0,30.02067,,,TRUE,TRUE,,,,,,,BKN,1100,OVC,7000,,,,,MVFR,,,,,,,,,,,,METAR,113.0
KTWM 200615Z AUTO 30005KT 10SM CLR 10/04 A3017 RMK AO2,KTWM,2023-05-20T06:15:00Z,47.05,-91.75,10.0,4.0,300,5,,10.0,30.171259,,,TRUE,TRUE,,,,,,,CLR,,,,,,,,VFR,,,,,,,,,,,,METAR,331.0
KTVY 200615Z AUTO 18008KT 10SM CLR 13/03 A3017 RMK AO2,KTVY,2023-05-20T06:15:00Z,40.62,-112.35,13.0,3.0,180,8,,10.0,30.171259,,,TRUE,TRUE,,,,,,,CLR,,,,,,,,VFR,,,,,,,,,,,,SPECI,1310.0
KTVK 200615Z AUTO 34006KT 10SM CLR 09/05 A3021 RMK AO2,KTVK,2023-05-20T06:15:00Z,40.68,-92.9,9.0,5.0,340,6,,10.0,30.209646,,,TRUE,TRUE,,,,,,,CLR,,,,,,,,VFR,,,,,,,,,,,,METAR,311.0
KTVI 200615Z AUTO 00000KT 10SM CLR 19/19 A3007 RMK AO2,KTVI,2023-05-20T06:15:00Z,30.9,-83.88,19.0,19.0,0,0,,10.0,30.070866,,,TRUE,TRUE,,,,,,,CLR,,,,,,,,VFR,,,,,,,,,,,,METAR,74.0
KTTF 200615Z AUTO 33007KT 7SM -RA SCT050 BKN075 OVC090 14/12 A2995 RMK AO2 T01420119 P0001,KTTF,2023-05-20T06:15:00Z,41.93,-83.42,14.2,11.9,330,7,,7.0,29.949802,,,TRUE,TRUE,,,,,,-RA,SCT,5000,BKN,7500,OVC,9000,,,VFR,,,,,,0.01,,,,,,SPECI,186.0
KTSP 200615Z AUTO 29009KT 10SM CLR 17/04 A3016 RMK AO2,KTSP,2023-05-20T06:15:00Z,35.13,-118.43,17.0,4.0,290,9,,10.0,30.159449,,,TRUE,TRUE,,,,,,,CLR,,,,,,,,VFR,,,,,,,,,,,,SPECI,1209.0
KTQV 200615Z AUTO 36005KT 10SM SCT039 17/14 A3008 RMK A01,KTQV,2023-05-20T06:15:00Z,36.0,-78.93,17.0,14.0,360,5,,10.0,30.079725,,,TRUE,TRUE,,,,,,,SCT,3900,,,,,,,VFR,,,,,,,,,,,,SPECI,230.0
KTQK 200615Z AUTO 35003KT 10SM CLR 09/07 A3034 RMK AO2 T00950075,KTQK,2023-05-20T06:15:00Z,38.47,-100.88,9.5,7.5,350,3,,10.0,30.339567,,,TRUE,TRUE,,,,,,,CLR,,,,,,,,VFR,,,,,,,,,,,,METAR,906.0
KTQH 200615Z AUTO 36007KT 5SM HZ OVC008 15/11 A3014 RMK AO2,KTQH,2023-05-20T06:15:00Z,35.93,-95.0,15.0,11.0,360,7,,5.0,30.138779,,,TRUE,TRUE,,,,,,HZ,OVC,800,,,,,,,IFR,,,,,,,,,,,,SPECI,265.0
KTOC 200615Z AUTO 00000KT 10SM BKN019 OVC034 18/17 A3010 RMK AO2 T01820170,KTOC,2023-05-20T06:15:00Z,34.6,-83.3,18.2,17.0,0,0,,10.0,30.100393,,,TRUE,TRUE,,,,,,,BKN,1900,OVC,3400,,,,,MVFR,,,,,,,,,,,,METAR,292.0
KTOB 200615Z AUTO 00000KT 10SM CLR 07/04 A3022 RMK AO2,KTOB,2023-05-20T06:15:00Z,44.02,-92.82,7.0,4.0,0,0,,10.0,30.221457,,,TRUE,TRUE,,,,,,,CLR,,,,,,,,VFR,,,,,,,,,,,,METAR,394.0
KTNU 200615Z AUTO 34007KT 10SM CLR 09/05 A3020 RMK A01,KTNU,2023-05-20T06:15:00Z,41.67,-93.02,9.0,5.0,340,7,,10.0,30.200787,,,TRUE,TRUE,,,,,,,CLR,,,,,,,,VFR,,,,,,,,,,,,METAR,287.0
KTNB 200615Z AUTO 00000KT 7SM SCT003 BKN008 OVC016 13/13 A3016 RMK AO2 T01300130,KTNB,2023-05-20T06:15:00Z,36.2,-81.65,13.0,13.0,0,0,,7.0,30.159449,,,TRUE,TRUE,,,,,,,SCT,300,BKN,800,OVC,1600,,,IFR,,,,,,,,,,,,SPECI,958.0
KTMT 200615Z AUTO 21007KT 10SM CLR 10/02 A3022 RMK AO2 T00980015,KTMT,2023-05-20T06:15:00Z,39.47,-117.2,9.8,1.5,210,7,,10.0,30.221457,,,TRUE,TRUE,,,,,,,CLR,,,,,,,,VFR,,,,,,,,,,,,METAR,1748.0
KTMK 200615Z AUTO 26004KT 10SM OVC009 13/12 A3017 RMK AO2,KTMK,2023-05-20T06:15:00Z,45.42,-123.82,13.0,12.0,260,4,,10.0,30.171259,,,TRUE,TRUE,,,,,,,OVC,900,,,,,,,IFR,,,,,,,,,,,,METAR,8.0
KTME 200615Z AUTO 23005KT 10SM 24/21 A3006 RMK AO2,KTME,2023-05-20T06:15:00Z,29.8,-95.9,24.0,21.0,230,5,,10.0,30.059055,,,TRUE,TRUE,,,,,,,,,,,,,,,,,,,,,,,,,,,SPECI,49.0
KTMA 200615Z AUTO 02003KT 6SM BR CLR 17/17 A3007 RMK AO2 T01750175,KTMA,2023-05-20T06:15:00Z,31.43,-83.48,17.5,17.5,20,3,,6.0,30.070866,,,TRUE,TRUE,,,,,,BR,CLR,,,,,,,,VFR,,,,,,,,,,,,SPECI,105.0
KTKX 200615Z AUTO 04009G14KT 4SM BR OVC008 20/20 A2999 RMK AO2,KTKX,2023-05-20T06:15:00Z,36.22,-90.03,20.0,20.0,40,9,14,4.0,29.991142,,,TRUE,TRUE,,,,,,BR,OVC,800,,,,,,,IFR,,,,,,,,,,,,METAR,73.0
KTKV 200615Z AUTO 00000KT 10SM CLR 03/02 A3018 RMK AO2 T00320021 PWINO,KTKV,2023-05-20T06:15:00Z,45.47,-89.82,3.2,2.1,0,0,,10.0,30.180119,,,TRUE,TRUE,,,,,TRUE,,CLR,,,,,,,,VFR,,,,,,,,,,,,SPECI,449.0
KTKC 200615Z AUTO 00000KT 10SM CLR 07/05 A3026 RMK AO2,KTKC,2023-05-20T06:15:00Z,44.25,-95.62,7.0,5.0,0,0,,10.0,30.259842,,,TRUE,TRUE,,,,,,,CLR,,,,,,,,VFR,,,,,,,,,,,,METAR,408.0
KTIF 200615Z AUTO 00000KT 10SM CLR 06/04 A3032 RMK AO2 T00610043,KTIF,2023-05-20T06:15:00Z,41.97,-100.57,6.1,4.3,0,0,,10.0,30.318897,,,TRUE,TRUE,,,,,,,CLR,,,,,,,,VFR,,,,,,,,,,,,METAR,888.0
KTHA 200615Z AUTO 16005KT 10SM OVC031 19/17 A3004 RMK A01,KTHA,2023-05-20T06:15:00Z,35.38,-86.25,19.0,17.0,160,5,,10.0,30.041338,,,TRUE,TRUE,,,,,,,OVC,3100,,,,,,,VFR,,,,,,,,,,,,SPECI,333.0
KTEX 200615Z AUTO 24003KT 10SM BKN021 OVC026 07/03 A3048 RMK AO2,KTEX,2023-05-20T06:15:00Z,37.95,-107.9,7.0,3.0,240,3,,10.0,30.481298,,,TRUE,TRUE,,,,,,,BKN,2100,OVC,2600,,,,,MVFR,,,,,,,,,,,,METAR,2760.0
KTEW 200615Z AUTO 32004KT 10SM CLR 12/08 A2999 RMK AO2 T01210082,KTEW,2023-05-20T06:15:00Z,42.57,-84.42,12.1,8.2,320,4,,10.0,29.991142,,,TRUE,TRUE,,,,,,,CLR,,,,,,,,VFR,,,,,,,,,,,,METAR,281.0
KTCY 200615Z AUTO 35004KT 10SM CLR 19/08 A2998 RMK A01,KTCY,2023-05-20T06:15:00Z,37.68,-121.43,19.0,8.0,350,4,,10.0,29.97933,,,TRUE,TRUE,,,,,,,CLR,,,,,,,,VFR,,,,,,,,,,,,METAR,51.0
KTBR 200615Z AUTO 00000KT 10SM BKN005 BKN010 OVC025 19/17 A3006 RMK AO2 T01850173 PWINO,KTBR,2023-05-20T06:15:00Z,32.48,-81.73,18.5,17.3,0,0,,10.0,30.059055,,,TRUE,TRUE,,,,,TRUE,,BKN,500,BKN,1000,OVC,2500,,,IFR,,,,,,,,,,,,METAR,54.0
KTAZ 200615Z AUTO 36008KT 10SM SCT080 OVC100 14/08 A3010 RMK AO2 T01400078 PWINO,KTAZ,2023-05-20T06:15:00Z,39.53,-89.33,14.0,7.8,360,8,,10.0,30.100393,,,TRUE,TRUE,,,,,TRUE,,SCT,8000,OVC,10000,,,,,VFR,,,,,,,,,,,,METAR,188.0
KT89 200615Z AUTO 33006KT 10SM CLR 24/08 A3005 RMK A01,KT89,2023-05-20T06:15:00Z,29.27,-103.68,24.0,8.0,330,6,,10.0,30.050198,,,TRUE,TRUE,,,,,,,CLR,,,,,,,,VFR,,,,,,,,,,,,SPECI,801.0
KT82 200615Z AUTO 05010KT 10SM -RA SCT015 SCT041 BKN090 19/18 A3015 RMK AO2 LTG DSNT SW AND W T01920180,KT82,2023-05-20T06:15:00Z,30.25,-98.92,19.2,18.0,50,10,,10.0,30.15059,,,TRUE,TRUE,,,,,,-RA,SCT,1500,SCT,4100,BKN,9000,,,VFR,,,,,,,,,,,,SPECI,509.0
KT78 200615Z AUTO 00000KT 10SM FEW046 24/22 A3002 RMK AO2,KT78,2023-05-20T06:15:00Z,30.08,-94.7,24.0,22.0,0,0,,10.0,30.02067,,,TRUE,TRUE,,,,,,,FEW,4600,,,,,,,VFR,,,,,,,,,,,,METAR,21.0
KT74 200615Z AUTO 10SM SCT032 BKN070 OVC090 19/18 A3012 RMK AO2 LTG DSNT E THRU W T01910176,KT74,2023-05-20T06:15:00Z,30.57,-97.45,19.1,17.6,,,,10.0,30.121063,,,TRUE,TRUE,,,,,,,SCT,3200,BKN,7000,OVC,9000,,,VFR,,,,,,,,,,,,SPECI,169.0
KT69 200615Z AUTO 00000KT 10SM CLR 24/24 A3002 RMK A01,KT69,2023-05-20T06:15:00Z,28.03,-97.55,24.0,24.0,0,0,,10.0,30.02067,,,TRUE,TRUE,,,,,,,CLR,,,,,,,,VFR,,,,,,,,,,,,SPECI,15.0
KT41 200615Z AUTO 24006KT 10SM CLR 24/22 A3004 RMK AO2 T02390215,KT41,2023-05-20T06:15:00Z,29.67,-95.07,23.9,21.5,240,6,,10.0,30.041338,,,TRUE,TRUE,,,,,,,CLR,,,,,,,,VFR,,,,,,,,,,,,METAR,8.0
KSZY 200615Z AUTO 18007KT 10SM FEW008 20/19 A3001 RMK A01,KSZY,2023-05-20T06:15:00Z,35.2,-88.5,20.0,19.0,180,7,,10.0,30.008858,,,TRUE,TRUE,,,,,,,FEW,800,,,,,,,VFR,,,,,,,,,,,,SPECI,184.0
KSYN 200615Z AUTO 00000KT 10SM CLR 06/04 A3023 RMK AO2 T00600041,KSYN,2023-05-20T06:15:00Z,44.47,-93.02,6.0,4.1,0,0,,10.0,30.230314,,,TRUE,TRUE,,,,,,,CLR,,,,,,,,VFR,,,,,,,,,,,,SPECI,280.0
KSYM 200615Z AUTO 00000KT 10SM BKN044 BKN055 OVC065 19/17 A3001 RMK AO2,KSYM,2023-05-20T06:15:00Z,38.22,-83.58,19.0,17.0,0,0,,10.0,30.008858,,,TRUE,TRUE,,,,,,,BKN,4400,BKN,5500,OVC,6500,,,VFR,,,,,,,,,,,,METAR,307.0
KSYI 200615Z AUTO 18004KT 10SM OVC031 19/18 A3003 RMK A01,KSYI,2023-05-20T06:15:00Z,35.57,-86.45,19.0,18.0,180,4,,10.0,30.029528,,,TRUE,TRUE,,,,,,,OVC,3100,,,,,,,VFR,,,,,,,,,,,,SPECI,244.0
KSYF 200615Z AUTO 00000KT 7SM CLR 10/07 A3033 RMK AO2 T00960065 PWINO,KSYF,2023-05-20T06:15:00Z,39.77,-101.8,9.6,6.5,0,0,,7.0,30.33071,,,TRUE,TRUE,,,,,TRUE,,CLR,,,,,,,,VFR,,,,,,,,,,,,SPECI,1041.0
KSXU 200615Z AUTO 02005KT 5SM BR OVC022 12/11 A3038 RMK AO2 T01230106,KSXU,2023-05-20T06:15:00Z,34.93,-104.65,12.3,10.6,20,5,,5.0,30.380905,,,TRUE,TRUE,,,,,,BR,OVC,2200,,,,,,,MVFR,,,,,,,,,,,,METAR,1465.0
KSXK 200615Z AUTO 30005KT 10SM BKN040 BKN048 OVC055 07/04 A3026 RMK AO2,KSXK,2023-05-20T06:15:00Z,42.98,-96.17,7.0,4.0,300,5,,10.0,30.259842,,,TRUE,TRUE,,,,,,,BKN,4000,BKN,4800,OVC,5500,,,VFR,,,,,,,,,,,,METAR,430.0
KSWW 200615Z AUTO 03011G16KT 10SM OVC014 17/13 A3028 RMK AO2 T01650132,KSWW,2023-05-20T06:15:00Z,32.47,-100.47,16.5,13.2,30,11,16,10.0,30.280512,,,TRUE,TRUE,,,,,,,OVC,1400,,,,,,,MVFR,,,,,,,,,,,,METAR,718.0
KSVE 200615Z AUTO 26004KT 10SM CLR 18/07 A3015 RMK AO2,KSVE,2023-05-20T06:15:00Z,40.37,-120.57,18.0,7.0,260,4,,10.0,30.15059,,,TRUE,TRUE,,,,,,,CLR,,,,,,,,VFR,,,,,,,,,,,,SPECI,1263.0
KSVC 200615Z AUTO 10005KT 10SM CLR 17/06 A3025 RMK AO2 T01690063,KSVC,2023-05-20T06:15:00Z,32.63,-108.15,16.9,6.3,100,5,,10.0,30.250984,,,TRUE,TRUE,,,,,,,CLR,,,,,,,,VFR,,,,,,,,,,,,SPECI,1638.0
KSUZ 200615Z AUTO 28004KT 10SM OVC110 20/20 A2999 RMK A01,KSUZ,2023-05-20T06:15:00Z,34.58,-92.48,20.0,20.0,280,4,,10.0,29.991142,,,TRUE,TRUE,,,,,,,OVC,11000,,,,,,,VFR,,,,,,,,,,,,METAR,114.0
KSUW 200615Z AUTO 21006KT 10SM CLR 06/03 A3020 RMK AO2 T00550033,KSUW,2023-05-20T06:15:00Z,46.68,-92.1,5.5,3.3,210,6,,10.0,30.200787,,,TRUE,TRUE,,,,,,,CLR,,,,,,,,VFR,,,,,,,,,,,,SPECI,205.0
KSUN 200615Z AUTO 33008KT 10SM CLR 14/05 A3026 RMK AO2,KSUN,2023-05-20T06:15:00Z,43.5,-114.28,14.0,5.0,330,8,,10.0,30.259842,,,TRUE,TRUE,,,,,,,CLR,,,,,,,,VFR,,,,,,,,,,,,SPECI,1619.0
KSUA 200615Z AUTO 29003KT 10SM SCT020 BKN027 BKN036 26/22 A3001 RMK AO2 T02550219,KSUA,2023-05-20T06:15:00Z,27.18,-80.22,25.5,21.9,290,3,,10.0,30.008858,,,TRUE,TRUE,,,,,,,SCT,2000,BKN,2700,BKN,3600,,,MVFR,,,,,,,,,,,,METAR,4.0
KSTK 200615Z AUTO 23003KT 7SM CLR 07/07 A3032 RMK AO2,KSTK,2023-05-20T06:15:00Z,40.62,-103.27,7.0,7.0,230,3,,7.0,30.318897,,,TRUE,TRUE,,,,,,,CLR,,,,,,,,VFR,,,,,,,,,,,,SPECI,1228.0
KSTF 200615Z AUTO 16006KT 5SM BR BKN005 21/21 A3001 RMK AO2,KSTF,2023-05-20T06:15:00Z,33.43,-88.85,21.0,21.0,160,6,,5.0,30.008858,,,TRUE,TRUE,,,,,,BR,BKN,500,,,,,,,IFR,,,,,,,,,,,,METAR,99.0
KSTE 200615Z AUTO 34004KT 10SM CLR 09/03 A3015 RMK AO2 T00860030,KSTE,2023-05-20T06:15:00Z,44.55,-89.53,8.6,3.0,340,4,,10.0,30.15059,,,TRUE,TRUE,,,,,,,CLR,,,,,,,,VFR,,,,,,,,,,,,SPECI,335.0
KSRR 200615Z AUTO 12010KT 4SM BR OVC003 09/09 A3044 RMK AO2,KSRR,2023-05-20T06:15:00Z,33.47,-105.52,9.0,9.0,120,10,,4.0,30.43996,,,TRUE,TRUE,,,,,,BR,OVC,300,,,,,,,LIFR,,,,,,,,,,,,SPECI,2063.0
KSRE 200615Z AUTO 01009KT 5SM HZ OVC028 13/10 A3020 RMK AO2,KSRE,2023-05-20T06:15:00Z,35.27,-96.68,13.0,10.0,10,9,,5.0,30.200787,,,TRUE,TRUE,,,,,,HZ,OVC,2800,,,,,,,MVFR,,,,,,,,,,,,SPECI,306.0
KSRB 200615Z AUTO 00000KT 10SM OVC041 18/18 A3005 RMK AO2,KSRB,2023-05-20T06:15:00Z,36.05,-85.53,18.0,18.0,0,0,,10.0,30.050198,,,TRUE,TRUE,,,,,,,OVC,4100,,,,,,,VFR,,,,,,,,,,,,SPECI,303.0
KSQL 200615Z AUTO 27005KT 10SM CLR 13/10 A3011 RMK AO2,KSQL,2023-05-20T06:15:00Z,37.52,-122.25,13.0,10.0,270,5,,10.0,30.109253,,,TRUE,TRUE,,,,,,,CLR,,,,,,,,VFR,,,,,,,,,,,,SPECI,1.0
KSPK 200615Z AUTO 14009G16KT 10SM FEW042 BKN050 BKN055 18/02 A3018 RMK AO2,KSPK,2023-05-20T06:15:00Z,40.15,-111.67,18.0,2.0,140,9,16,10.0,30.180119,,,TRUE,TRUE,,,,,,,FEW,4200,BKN,5000,BKN,5500,,,VFR,,,,,,,,,,,,METAR,1381.0
KSPF 200615Z AUTO 00000KT 10SM CLR 08/04 A3025 RMK AO2,KSPF,2023-05-20T06:15:00Z,44.47,-103.78,8.0,4.0,0,0,,10.0,30.250984,,,TRUE,TRUE,,,,,,,CLR,,,,,,,,VFR,,,,,,,,,,,,SPECI,1191.0
KSPA 200615Z AUTO 00000KT 10SM BKN008 BKN020 OVC026 17/16 A3010 RMK AO2,KSPA,2023-05-20T06:15:00Z,34.92,-81.95,17.0,16.0,0,0,,10.0,30.100393,,,TRUE,TRUE,,,,,,,BKN,800,BKN,2000,OVC,2600,,,IFR,,,,,,,,,,,,SPECI,242.0
KSOW 200615Z AUTO 00000KT 10SM CLR 09/08 A3035 RMK AO2,KSOW,2023-05-20T06:15:00Z,34.27,-110.0,9.0,8.0,0,0,,10.0,30.351377,,,TRUE,TRUE,,,,,,,CLR,,,,,,,,VFR,,,,,,,,,,,,SPECI,1954.0
KSOA 200615Z AUTO 06006KT 10SM CLR 21/16 A3018 RMK AO2,KSOA,2023-05-20T06:15:00Z,30.58,-100.65,21.0,16.0,60,6,,10.0,30.180119,,,TRUE,TRUE,,,,,,,CLR,,,,,,,,VFR,,,,,,,,,,,,METAR,654.0
KSNK 200615Z AUTO 05010G18KT 7SM -RA OVC017 16/13 A3026 RMK AO2 T01590134,KSNK,2023-05-20T06:15:00Z,32.7,-100.95,15.9,13.4,50,10,18,7.0,30.259842,,,TRUE,TRUE,,,,,,-RA,OVC,1700,,,,,,,MVFR,,,,,,,,,,,,SPECI,738.0
KSNC 200615Z AUTO 00000KT 10SM OVC045 11/11 A3022 RMK AO2,KSNC,2023-05-20T06:15:00Z,41.38,-72.5,11.0,11.0,0,0,,10.0,30.221457,,,TRUE,TRUE,,,,,,,OVC,4500,,,,,,,VFR,,,,,,,,,,,,SPECI,114.0
KSMS 200615Z AUTO 00000KT 10SM SCT004 BKN007 OVC021 19/19 A3007 RMK AO2,KSMS,2023-05-20T06:15:00Z,34.0,-80.37,19.0,19.0,0,0,,10.0,30.070866,,,TRUE,TRUE,,,,,,,SCT,400,BKN,700,OVC,2100,,,IFR,,,,,,,,,,,,METAR,53.0
KSME 200615Z AUTO 23003KT 10SM BKN024 OVC065 20/20 A3002 RMK AO2,KSME,2023-05-20T06:15:00Z,37.05,-84.62,20.0,20.0,230,3,,10.0,30.02067,,,TRUE,TRUE,,,,,,,BKN,2400,OVC,6500,,,,,MVFR,,,,,,,,,,,,SPECI,279.0
KSMD 200615Z AUTO 31005KT 6SM BR OVC042 13/13 A3002 RMK A01,KSMD,2023-05-20T06:15:00Z,41.15,-85.15,13.0,13.0,310,5,,6.0,30.02067,,,TRUE,TRUE,,,,,,BR,OVC,4200,,,,,,,VFR,,,,,,,,,,,,METAR,252.0
KSLH 200615Z AUTO 27004KT 3SM -RA OVC006 07/07 A2996 RMK AO2,KSLH,2023-05-20T06:15:00Z,45.65,-84.52,7.0,7.0,270,4,,3.0,29.958662,,,TRUE,TRUE,,,,,,-RA,OVC,600,,,,,,,IFR,,,,,,,,,,,,SPECI,193.0
KSLB 200615Z AUTO 34005KT 10SM CLR 08/03 A3026 RMK AO2,KSLB,2023-05-20T06:15:00Z,42.6,-95.23,8.0,3.0,340,5,,10.0,30.259842,,,TRUE,TRUE,,,,,,,CLR,,,,,,,,VFR,,,,,,,,,,,,METAR,450.0
KSJX 200615Z AUTO 31004KT 7SM -RA OVC003 07/07 A3000 RMK AO2 T00650065,KSJX,2023-05-20T06:15:00Z,45.7,-85.57,6.5,6.5,310,4,,7.0,30.0,,,TRUE,TRUE,,,,,,-RA,OVC,300,,,,,,,LIFR,,,,,,,,,,,,SPECI,202.0
KSJS 200615Z AUTO 19005KT 10SM BKN055 OVC070 20/15 A3002 RMK AO2 T01970152,KSJS,2023-05-20T06:15:00Z,37.75,-82.63,19.7,15.2,190,5,,10.0,30.02067,,,TRUE,TRUE,,,,,,,BKN,5500,OVC,7000,,,,,VFR,,,,,,,,,,,,METAR,359.0
KSIK 200615Z AUTO 01009G15KT 7SM -DZ SCT016 OVC048 18/16 A3003 RMK AO2 P0001,KSIK,2023-05-20T06:15:00Z,36.9,-89.57,18.0,16.0,10,9,15,7.0,30.029528,,,TRUE,TRUE,,,,,,-DZ,SCT,1600,OVC,4800,,,,,VFR,,,,,,0.01,,,,,,METAR,95.0
KSHM 200615Z AUTO 16004KT 1 5/8SM BR BKN008 BKN011 BKN020 OVC041 09/09 A3036 RMK AO2 CIG 008V019 BKN008 V SCT SLP252 $,KSHM,2023-05-20T06:15:00Z,38.8,-104.52,9.0,9.0,160,4,,1.63,30.360237,1025.2,,TRUE,TRUE,TRUE,,,,,BR,BKN,800,BKN,1100,BKN,2000,OVC,4100,IFR,,,,,,,,,,,,SPECI,1900.0
KSHL 200615Z AUTO 30003KT 10SM FEW037 SCT044 OVC060 06/03 A3024 RMK AO2,KSHL,2023-05-20T06:15:00Z,43.22,-95.83,6.0,3.0,300,3,,10.0,30.239174,,,TRUE,TRUE,,,,,,,FEW,3700,SCT,4400,OVC,6000,,,VFR,,,,,,,,,,,,METAR,430.0
KSHD 200615Z AUTO 21004KT 10SM OVC040 16/13 A3013 RMK AO2 T01610127,KSHD,2023-05-20T06:15:00Z,38.27,-78.9,16.1,12.7,210,4,,10.0,30.129921,,,TRUE,TRUE,,,,,,,OVC,4000,,,,,,,VFR,,,,,,,,,,,,METAR,360.0
KSGS 200615Z AUTO 00000KT 10SM CLR 08/05 A3023 RMK AO2 T00820052,KSGS,2023-05-20T06:15:00Z,44.87,-93.03,8.2,5.2,0,0,,10.0,30.230314,,,TRUE,TRUE,,,,,,,CLR,,,,,,,,VFR,,,,,,,,,,,,METAR,250.0
KSFY 200615Z AUTO 34007KT 10SM CLR 11/04 A3015 RMK AO2,KSFY,2023-05-20T06:15:00Z,42.05,-90.12,11.0,4.0,340,7,,10.0,30.15059,,,TRUE,TRUE,,,,,,,CLR,,,,,,,,VFR,,,,,,,,,,,,METAR,188.0
KSFQ 200615Z AUTO 03007KT 4SM BR OVC005 18/18 A3005 RMK AO2 T01800176,KSFQ,2023-05-20T06:15:00Z,36.68,-76.6,18.0,17.6,30,7,,4.0,30.050198,,,TRUE,TRUE,,,,,,BR,OVC,500,,,,,,,IFR,,,,,,,,,,,,SPECI,19.0
KSEZ 200615Z AUTO 32005KT 10SM CLR 13/11 A3025 RMK AO2,KSEZ,2023-05-20T06:15:00Z,34.85,-111.78,13.0,11.0,320,5,,10.0,30.250984,,,TRUE,TRUE,,,,,,,CLR,,,,,,,,VFR,,,,,,,,,,,,SPECI,1455.0
KSEP 200615Z AUTO 35004KT 10SM BKN021 BKN110 20/17 A3020 RMK AO2 T02020170,KSEP,2023-05-20T06:15:00Z,32.22,-98.17,20.2,17.0,350,4,,10.0,30.200787,,,TRUE,TRUE,,,,,,,BKN,2100,BKN,11000,,,,,MVFR,,,,,,,,,,,,SPECI,399.0
KSEM 200615Z AUTO 00000KT 10SM SCT043 BKN048 20/20 A3005 RMK AO2,KSEM,2023-05-20T06:15:00Z,32.35,-86.98,20.0,20.0,0,0,,10.0,30.050198,,,TRUE,TRUE,,,,,,,SCT,4300,BKN,4800,,,,,VFR,,,,,,,,,,,,SPECI,48.0
KSEF 200615Z AUTO 08005KT 10SM SCT080 OVC100 23/ A2999 RMK AO2 T0229////,KSEF,2023-05-20T06:15:00Z,27.45,-81.35,22.9,,80,5,,10.0,29.991142,,,TRUE,TRUE,,,,,,,SCT,8000,OVC,10000,,,,,VFR,,,,,,,,,,,,METAR,17.0
KSEE 200615Z AUTO 27005KT 10SM OVC015 17/13 A3007 RMK AO2,KSEE,2023-05-20T06:15:00Z,32.82,-116.97,17.0,13.0,270,5,,10.0,30.070866,,,TRUE,TRUE,,,,,,,OVC,1500,,,,,,,MVFR,,,,,,,,,,,,SPECI,113.0
KSDC 200615Z AUTO 16007KT 10SM SCT065 SCT110 17/10 A2999 RMK AO2,KSDC,2023-05-20T06:15:00Z,43.23,-77.12,17.0,10.0,160,7,,10.0,29.991142,,,TRUE,TRUE,,,,,,,SCT,6500,SCT,11000,,,,,VFR,,,,,,,,,,,,METAR,127.0
KSDA 200615Z AUTO 05005KT 10SM CLR 09/05 A3024 RMK AO2,KSDA,2023-05-20T06:15:00Z,40.75,-95.42,9.0,5.0,50,5,,10.0,30.239174,,,TRUE,TRUE,,,,,,,CLR,,,,,,,,VFR,,,,,,,,,,,,METAR,293.0
KSCX 200615Z AUTO 20004KT 10SM OVC033 18/16 A3006 RMK A01,KSCX,2023-05-20T06:15:00Z,36.45,-84.58,18.0,16.0,200,4,,10.0,30.059055,,,TRUE,TRUE,,,,,,,OVC,3300,,,,,,,VFR,,,,,,,,,,,,SPECI,462.0
KSCD 200615Z AUTO 00000KT 10SM BKN017 19/17 A3007 RMK AO2 T01850173,KSCD,2023-05-20T06:15:00Z,33.17,-86.3,18.5,17.3,0,0,,10.0,30.070866,,,TRUE,TRUE,,,,,,,BKN,1700,,,,,,,MVFR,,,,,,,,,,,,SPECI,164.0
KSBS 200615Z AUTO 00000KT 10SM CLR 08/04 A3032 RMK AO1 T00790040,KSBS,2023-05-20T06:15:00Z,40.52,-106.87,7.9,4.0,0,0,,10.0,30.318897,,,TRUE,TRUE,,,,,,,CLR,,,,,,,,VFR,,,,,,,,,,,,METAR,2097.0
KSAZ 200615Z AUTO 00000KT 10SM CLR 08/03 A3024 RMK AO2,KSAZ,2023-05-20T06:15:00Z,46.37,-94.8,8.0,3.0,0,0,,10.0,30.239174,,,TRUE,TRUE,,,,,,,CLR,,,,,,,,VFR,,,,,,,,,,,,SPECI,391.0
KSAR 200615Z AUTO 33005KT 10SM SCT044 BKN050 16/12 A3009 RMK AO2 T01550116,KSAR,2023-05-20T06:15:00Z,38.15,-89.7,15.5,11.6,330,5,,10.0,30.088583,,,TRUE,TRUE,,,,,,,SCT,4400,BKN,5000,,,,,VFR,,,,,,,,,,,,SPECI,162.0
KSAA 200615Z AUTO 11008KT 10SM CLR 07/02 A3034 RMK AO2,KSAA,2023-05-20T06:15:00Z,41.45,-106.8,7.0,2.0,110,8,,10.0,30.339567,,,TRUE,TRUE,,,,,,,CLR,,,,,,,,VFR,,,,,,,,,,,,SPECI,2093.0
KS71 200615Z AUTO 00000KT 10SM 16/04 A3002 ,KS71,2023-05-20T06:15:00Z,48.6,-109.25,16.0,4.0,0,0,,10.0,30.02067,,,TRUE,,,,,,,,,,,,,,,,,,,,,,,,,,,,METAR,736.0
KS52 200615Z AUTO 00000KT 10SM SCT075 BKN100 OVC120 16/11 A3005 RMK AO2 T01650110,KS52,2023-05-20T06:15:00Z,48.42,-120.15,16.5,11.0,0,0,,10.0,30.050198,,,TRUE,TRUE,,,,,,,SCT,7500,BKN,10000,OVC,12000,,,VFR,,,,,,,,,,,,METAR,517.0
KS39 200615Z AUTO 09009KT 10SM SCT090 SCT110 18/10 A3016 RMK AO2,KS39,2023-05-20T06:15:00Z,44.28,-120.9,18.0,10.0,90,9,,10.0,30.159449,,,TRUE,TRUE,,,,,,,SCT,9000,SCT,11000,,,,,VFR,,,,,,,,,,,,SPECI,987.0
KS32 200615Z AUTO 20005KT 10SM FEW041 08/06 A3024 RMK AO2 TSNO,KS32,2023-05-20T06:15:00Z,47.42,-98.1,8.0,6.0,200,5,,10.0,30.239174,,,TRUE,TRUE,,,TRUE,,,,FEW,4100,,,,,,,VFR,,,,,,,,,,,,SPECI,435.0
KS25 200615Z AUTO 20008KT 10SM BKN029 OVC039 12/03 A3017 RMK AO2,KS25,2023-05-20T06:15:00Z,47.8,-103.25,12.0,3.0,200,8,,10.0,30.171259,,,TRUE,TRUE,,,,,,,BKN,2900,OVC,3900,,,,,MVFR,,,,,,,,,,,,SPECI,632.0
KS24 200615Z AUTO 03006KT 3SM -RA BR FEW018 BKN023 OVC029 13/13 A2996 RMK AO2 P0012,KS24,2023-05-20T06:15:00Z,41.3,-83.03,13.0,13.0,30,6,,3.0,29.958662,,,TRUE,TRUE,,,,,,-RA BR,FEW,1800,BKN,2300,OVC,2900,,,MVFR,,,,,,0.12,,,,,,SPECI,203.0
KS21 200615Z AUTO 10006G11KT 10SM CLR 17/09 A3025 RMK AO2,KS21,2023-05-20T06:15:00Z,43.88,-121.45,17.0,9.0,100,6,11,10.0,30.250984,,,TRUE,TRUE,,,,,,,CLR,,,,,,,,VFR,,,,,,,,,,,,METAR,1269.0
KS12 200615Z AUTO 02003KT 10SM CLR 17/13 A3009 RMK AO2,KS12,2023-05-20T06:15:00Z,,,17.0,13.0,20,3,,10.0,30.088583,,,TRUE,TRUE,,,,,,,CLR,,,,,,,,VFR,,,,,,,,,,,,METAR,
KRZR 200615Z AUTO 00000KT 9SM CLR 17/17 A3004 RMK A01,KRZR,2023-05-20T06:15:00Z,35.22,-84.8,17.0,17.0,0,0,,9.0,30.041338,,,TRUE,TRUE,,,,,,,CLR,,,,,,,,VFR,,,,,,,,,,,,SPECI,259.0
KRZL 200615Z AUTO 35004KT 10SM CLR 11/06 A3008 RMK AO2,KRZL,2023-05-20T06:15:00Z,40.95,-87.18,11.0,6.0,350,4,,10.0,30.079725,,,TRUE,TRUE,,,,,,,CLR,,,,,,,,VFR,,,,,,,,,,,,SPECI,210.0
KRYW 200615Z AUTO 04008KT 10SM OVC037 19/17 A3015 RMK AO2 LTG DSNT E T01930171,KRYW,2023-05-20T06:15:00Z,30.5,-97.97,19.3,17.1,40,8,,10.0,30.15059,,,TRUE,TRUE,,,,,,,OVC,3700,,,,,,,VFR,,,,,,,,,,,,SPECI,370.0
KRYN 200615Z AUTO 22005KT 10SM CLR 21/11 A3007 RMK AO2,KRYN,2023-05-20T06:15:00Z,32.15,-111.17,21.0,11.0,220,5,,10.0,30.070866,,,TRUE,TRUE,,,,,,,CLR,,,,,,,,VFR,,,,,,,,,,,,SPECI,731.0
KRVL 200615Z AUTO 00000KT 10SM CLR 15/09 A3010 RMK AO2,KRVL,2023-05-20T06:15:00Z,40.68,-77.63,15.0,9.0,0,0,,10.0,30.100393,,,TRUE,TRUE,,,,,,,CLR,,,,,,,,VFR,,,,,,,,,,,,SPECI,250.0
KRVJ 200615Z AUTO 00000KT 10SM OVC022 19/19 A3005 RMK AO2 T01930190,KRVJ,2023-05-20T06:15:00Z,32.07,-82.15,19.3,19.0,0,0,,10.0,30.050198,,,TRUE,TRUE,,,,,,,OVC,2200,,,,,,,MVFR,,,,,,,,,,,,METAR,60.0
KRVF 200615Z AUTO 19004KT 10SM FEW024 12/04 A3022 RMK AO2,KRVF,2023-05-20T06:15:00Z,45.53,-112.3,12.0,4.0,190,4,,10.0,30.221457,,,TRUE,TRUE,,,,,,,FEW,2400,,,,,,,VFR,,,,,,,,,,,,METAR,1445.0
KRUG 200615Z AUTO 20007G12KT 10SM CLR 09/03 A3019 RMK AO2,KRUG,2023-05-20T06:15:00Z,48.38,-100.02,9.0,3.0,200,7,12,10.0,30.188976,,,TRUE,TRUE,,,,,,,CLR,,,,,,,,VFR,,,,,,,,,,,,SPECI,469.0
KRTS 200615Z AUTO 33006KT 10SM BKN120 15/09 A3019 RMK AO2,KRTS,2023-05-20T06:15:00Z,39.67,-119.88,15.0,9.0,330,6,,10.0,30.188976,,,TRUE,TRUE,,,,,,,BKN,12000,,,,,,,VFR,,,,,,,,,,,,SPECI,1537.0
KRSN 200615Z AUTO 17003KT 9SM CLR 22/22 A3000 RMK AO2 LTG DSNT N T02220222 $,KRSN,2023-05-20T06:15:00Z,32.52,-92.58,22.2,22.2,170,3,,9.0,30.0,,,TRUE,TRUE,TRUE,,,,,,CLR,,,,,,,,VFR,,,,,,,,,,,,METAR,86.0
KRRT 200615Z AUTO 22003KT 10SM CLR 11/07 A3019 RMK AO2,KRRT,2023-05-20T06:15:00Z,48.93,-95.33,11.0,7.0,220,3,,10.0,30.188976,,,TRUE,TRUE,,,,,,,CLR,,,,,,,,VFR,,,,,,,,,,,,SPECI,327.0
KRRL 200615Z AUTO 00000KT 10SM CLR 06/05 A3016 RMK AO2 T00550050 TSNO,KRRL,2023-05-20T06:15:00Z,45.2,-89.72,5.5,5.0,0,0,,10.0,30.159449,,,TRUE,TRUE,,,TRUE,,,,CLR,,,,,,,,VFR,,,,,,,,,,,,SPECI,397.0
KRQO 200615Z AUTO 36010KT 4SM BR CLR 11/11 A3023 RMK AO2 T01140108,KRQO,2023-05-20T06:15:00Z,35.47,-98.0,11.4,10.8,360,10,,4.0,30.230314,,,TRUE,TRUE,,,,,,BR,CLR,,,,,,,,MVFR,,,,,,,,,,,,METAR,431.0
KRQB 200615Z AUTO 30004KT 10SM SCT055 08/05 A3000 RMK AO2 T00810053,KRQB,2023-05-20T06:15:00Z,43.72,-85.5,8.1,5.3,300,4,,10.0,30.0,,,TRUE,TRUE,,,,,,,SCT,5500,,,,,,,VFR,,,,,,,,,,,,SPECI,282.0
KRPJ 200615Z AUTO 32004KT 10SM CLR 09/04 A3012 RMK AO2 T00900037 TSNO,KRPJ,2023-05-20T06:15:00Z,41.88,-89.08,9.0,3.7,320,4,,10.0,30.121063,,,TRUE,TRUE,,,TRUE,,,,CLR,,,,,,,,VFR,,,,,,,,,,,,METAR,234.0
KRPH 200615Z AUTO 35011KT 330V040 10SM OVC013 18/15 A3018 RMK AO2 T01760152 $,KRPH,2023-05-20T06:15:00Z,33.12,-98.55,17.6,15.2,350,11,,10.0,30.180119,,,TRUE,TRUE,TRUE,,,,,,OVC,1300,,,,,,,MVFR,,,,,,,,,,,,SPECI,341.0
KRPD 200615Z AUTO 00000KT 5SM BR CLR 04/04 A3022 RMK AO2 T00420042,KRPD,2023-05-20T06:15:00Z,45.42,-91.77,4.2,4.2,0,0,,5.0,30.221457,,,TRUE,TRUE,,,,,,BR,CLR,,,,,,,,MVFR,,,,,,,,,,,,SPECI,334.0
KROX 200615Z AUTO 22006KT 10SM CLR 11/06 A3019 RMK AO2,KROX,2023-05-20T06:15:00Z,48.85,-95.7,11.0,6.0,220,6,,10.0,30.188976,,,TRUE,TRUE,,,,,,,CLR,,,,,,,,VFR,,,,,,,,,,,,METAR,320.0
KROS 200615Z AUTO 00000KT 10SM SCT110 08/06 A3023 RMK AO2 T00790064,KROS,2023-05-20T06:15:00Z,45.7,-92.95,7.9,6.4,0,0,,10.0,30.230314,,,TRUE,TRUE,,,,,,,SCT,11000,,,,,,,VFR,,,,,,,,,,,,METAR,282.0
KRNP 200615Z AUTO 00000KT 10SM CLR 11/07 A2999 RMK AO2 T01130073,KRNP,2023-05-20T06:15:00Z,43.0,-84.13,11.3,7.3,0,0,,10.0,29.991142,,,TRUE,TRUE,,,,,,,CLR,,,,,,,,VFR,,,,,,,,,,,,SPECI,224.0
KRNH 200615Z AUTO 00000KT 10SM CLR 06/06 A3022 RMK AO2 T00590058,KRNH,2023-05-20T06:15:00Z,45.15,-92.53,5.9,5.8,0,0,,10.0,30.221457,,,TRUE,TRUE,,,,,,,CLR,,,,,,,,VFR,,,,,,,,,,,,SPECI,302.0
KRNC 200615Z AUTO 00000KT 8SM OVC036 17/16 A3005 RMK A01,KRNC,2023-05-20T06:15:00Z,35.7,-85.85,17.0,16.0,0,0,,8.0,30.050198,,,TRUE,TRUE,,,,,,,OVC,3600,,,,,,,VFR,,,,,,,,,,,,SPECI,310.0
KRMY 200615Z AUTO 31003KT 10SM CLR 12/08 A3001 RMK AO2 T01180076,KRMY,2023-05-20T06:15:00Z,42.25,-84.95,11.8,7.6,310,3,,10.0,30.008858,,,TRUE,TRUE,,,,,,,CLR,,,,,,,,VFR,,,,,,,,,,,,SPECI,285.0
KRMN 200615Z AUTO 00000KT 7SM CLR 16/15 A3011 RMK AO2 T01610152,KRMN,2023-05-20T06:15:00Z,38.4,-77.45,16.1,15.2,0,0,,7.0,30.109253,,,TRUE,TRUE,,,,,,,CLR,,,,,,,,VFR,,,,,,,,,,,,METAR,50.0
KRLD 200615Z AUTO 18004KT 10SM CLR 27/12 A2996 RMK AO2 T02700117,KRLD,2023-05-20T06:15:00Z,46.3,-119.3,27.0,11.7,180,4,,10.0,29.958662,,,TRUE,TRUE,,,,,,,CLR,,,,,,,,VFR,,,,,,,,,,,,SPECI,118.0
KRKW 200615Z AUTO 22006KT 10SM BKN050 BKN060 17/15 A3006 RMK A01,KRKW,2023-05-20T06:15:00Z,35.92,-84.68,17.0,15.0,220,6,,10.0,30.059055,,,TRUE,TRUE,,,,,,,BKN,5000,BKN,6000,,,,,VFR,,,,,,,,,,,,SPECI,505.0
KRKR 200615Z AUTO 32008KT 10SM OVC022 17/15 A3010 RMK AO2,KRKR,2023-05-20T06:15:00Z,35.02,-94.62,17.0,15.0,320,8,,10.0,30.100393,,,TRUE,TRUE,,,,,,,OVC,2200,,,,,,,MVFR,,,,,,,,,,,,SPECI,136.0
KRID 200615Z AUTO 30008KT 5SM -RA BKN018 BKN033 OVC090 15/15 A3001 RMK AO2 P0001,KRID,2023-05-20T06:15:00Z,39.75,-84.85,15.0,15.0,300,8,,5.0,30.008858,,,TRUE,TRUE,,,,,,-RA,BKN,1800,BKN,3300,OVC,9000,,,MVFR,,,,,,0.01,,,,,,SPECI,346.0
KRGK 200615Z AUTO 00000KT 10SM CLR 08/04 A3021 RMK AO2,KRGK,2023-05-20T06:15:00Z,44.58,-92.48,8.0,4.0,0,0,,10.0,30.209646,,,TRUE,TRUE,,,,,,,CLR,,,,,,,,VFR,,,,,,,,,,,,METAR,238.0
KRGA 200615Z AUTO 25004KT 10SM BKN031 BKN038 OVC075 19/17 A3003 RMK AO2,KRGA,2023-05-20T06:15:00Z,37.63,-84.33,19.0,17.0,250,4,,10.0,30.029528,,,TRUE,TRUE,,,,,,,BKN,3100,BKN,3800,OVC,7500,,,VFR,,,,,,,,,,,,METAR,301.0
KRFI 200615Z AUTO 00000KT 10SM SCT085 25/20 A3004 RMK AO2 T02540195,KRFI,2023-05-20T06:15:00Z,32.15,-94.85,25.4,19.5,0,0,,10.0,30.041338,,,TRUE,TRUE,,,,,,,SCT,8500,,,,,,,VFR,,,,,,,,,,,,METAR,133.0
KREG 200615Z AUTO 00000KT 10SM CLR 23/22 A3000 RMK AO2 T02300217,KREG,2023-05-20T06:15:00Z,30.17,-90.93,23.0,21.7,0,0,,10.0,30.0,,,TRUE,TRUE,,,,,,,CLR,,,,,,,,VFR,,,,,,,,,,,,SPECI,3.0
KRDK 200615Z AUTO 02004KT 10SM CLR 07/04 A3025 RMK AO2,KRDK,2023-05-20T06:15:00Z,41.02,-95.27,7.0,4.0,20,4,,10.0,30.250984,,,TRUE,TRUE,,,,,,,CLR,,,,,,,,VFR,,,,,,,,,,,,METAR,317.0
KRCX 200615Z AUTO 30003KT 10SM CLR 05/05 A3021 RMK AO2 T00500050,KRCX,2023-05-20T06:15:00Z,45.5,-91.0,5.0,5.0,300,3,,10.0,30.209646,,,TRUE,TRUE,,,,,,,CLR,,,,,,,,VFR,,,,,,,,,,,,METAR,373.0
KRCV 200615Z AUTO 00000KT 10SM OVC019 07/06 A3045 RMK AO2 T00680055,KRCV,2023-05-20T06:15:00Z,37.72,-106.35,6.8,5.5,0,0,,10.0,30.448818,,,TRUE,TRUE,,,,,,,OVC,1900,,,,,,,MVFR,,,,,,,,,,,,SPECI,2418.0
KRCR 200615Z AUTO 34006KT 10SM OVC050 13/10 A3004 RMK AO2,KRCR,2023-05-20T06:15:00Z,41.07,-86.18,13.0,10.0,340,6,,10.0,30.041338,,,TRUE,TRUE,,,,,,,OVC,5000,,,,,,,VFR,,,,,,,,,,,,METAR,240.0
KRCM 200615Z AUTO 33005KT 10SM CLR 09/08 A3019 RMK AO2,KRCM,2023-05-20T06:15:00Z,38.78,-93.8,9.0,8.0,330,5,,10.0,30.188976,,,TRUE,TRUE,,,,,,,CLR,,,,,,,,VFR,,,,,,,,,,,,SPECI,242.0
KRCE 200615Z AUTO 35009KT 5SM BR OVC046 12/11 A3022 RMK AO2,KRCE,2023-05-20T06:15:00Z,35.48,-97.82,12.0,11.0,350,9,,5.0,30.221457,,,TRUE,TRUE,,,,,,BR,OVC,4600,,,,,,,MVFR,,,,,,,,,,,,METAR,412.0
KRBW 200615Z AUTO 00000KT 10SM OVC015 18/18 A3007 RMK AO2,KRBW,2023-05-20T06:15:00Z,32.92,-80.63,18.0,18.0,0,0,,10.0,30.070866,,,TRUE,TRUE,,,,,,,OVC,1500,,,,,,,MVFR,,,,,,,,,,,,METAR,30.0
KRBO 200615Z AUTO 12003KT 10SM CLR 24/24 A3003 RMK AO2 T02400237,KRBO,2023-05-20T06:15:00Z,27.78,-97.68,24.0,23.7,120,3,,10.0,30.029528,,,TRUE,TRUE,,,,,,,CLR,,,,,,,,VFR,,,,,,,,,,,,METAR,24.0
KRAW 200615Z AUTO 00000KT 7SM CLR 08/08 A3018 RMK AO2,KRAW,2023-05-20T06:15:00Z,38.35,-93.35,8.0,8.0,0,0,,7.0,30.180119,,,TRUE,TRUE,,,,,,,CLR,,,,,,,,VFR,,,,,,,,,,,,METAR,285.0
KRAS 200615Z AUTO 15007KT 10SM BKN015 26/24 A3005 RMK AO2 T02620236,KRAS,2023-05-20T06:15:00Z,27.82,-97.08,26.2,23.6,150,7,,10.0,30.050198,,,TRUE,TRUE,,,,,,,BKN,1500,,,,,,,MVFR,,,,,,,,,,,,METAR,3.0
KPZZ 200615Z AUTO 18008KT 10SM FEW019 A3003 RMK A01,KPZZ,2023-05-20T06:15:00Z,28.43,-91.03,,,180,8,,10.0,30.029528,,,TRUE,TRUE,,,,,,,FEW,1900,,,,,,,VFR,,,,,,,,,,,,SPECI,25.0
KPZQ 200615Z AUTO 30003KT 3SM BR BKN006 OVC009 08/08 A2997 RMK AO2 T00760076,KPZQ,2023-05-20T06:15:00Z,45.4,-83.82,7.6,7.6,300,3,,3.0,29.970472,,,TRUE,TRUE,,,,,,BR,BKN,600,OVC,900,,,,,IFR,,,,,,,,,,,,METAR,199.0
KPYX 200615Z AUTO 31005KT 7SM CLR 08/07 A3030 RMK AO2 T00790069,KPYX,2023-05-20T06:15:00Z,36.42,-100.75,7.9,6.9,310,5,,7.0,30.301182,,,TRUE,TRUE,,,,,,,CLR,,,,,,,,VFR,,,,,,,,,,,,SPECI,890.0
KPXE 200615Z AUTO 06003KT 10SM OVC028 19/18 A3009 RMK AO2 T01910176,KPXE,2023-05-20T06:15:00Z,32.52,-83.77,19.1,17.6,60,3,,10.0,30.088583,,,TRUE,TRUE,,,,,,,OVC,2800,,,,,,,MVFR,,,,,,,,,,,,METAR,126.0
KPWD 200615Z AUTO 17009KT 10SM CLR 11/04 A3011 RMK AO2,KPWD,2023-05-20T06:15:00Z,48.78,-104.52,11.0,4.0,170,9,,10.0,30.109253,,,TRUE,TRUE,,,,,,,CLR,,,,,,,,VFR,,,,,,,,,,,,METAR,690.0
KPWC 200615Z AUTO 00000KT 10SM CLR 05/03 A3027 RMK AO2,KPWC,2023-05-20T06:15:00Z,46.72,-94.38,5.0,3.0,0,0,,10.0,30.268702,,,TRUE,TRUE,,,,,,,CLR,,,,,,,,VFR,,,,,,,,,,,,SPECI,394.0
KPVJ 200615Z AUTO 01009G14KT 7SM CLR 14/12 A3018 RMK AO2 T01400115,KPVJ,2023-05-20T06:15:00Z,34.72,-97.22,14.0,11.5,10,9,14,7.0,30.180119,,,TRUE,TRUE,,,,,,,CLR,,,,,,,,VFR,,,,,,,,,,,,SPECI,287.0
KPVF 200615Z AUTO 00000KT 10SM 19/10 A3009 RMK AO1,KPVF,2023-05-20T06:15:00Z,38.72,-120.75,19.0,10.0,0,0,,10.0,30.088583,,,TRUE,TRUE,,,,,,,,,,,,,,,,,,,,,,,,,,,SPECI,788.0
KPVB 200615Z AUTO 34007KT 10SM CLR 09/04 A3016 RMK AO1 T00910041,KPVB,2023-05-20T06:15:00Z,42.68,-90.43,9.1,4.1,340,7,,10.0,30.159449,,,TRUE,TRUE,,,,,,,CLR,,,,,,,,VFR,,,,,,,,,,,,SPECI,311.0
KPUJ 200615Z AUTO 00000KT 4SM BR OVC026 16/16 A3008 RMK AO2,KPUJ,2023-05-20T06:15:00Z,33.92,-84.93,16.0,16.0,0,0,,4.0,30.079725,,,TRUE,TRUE,,,,,,BR,OVC,2600,,,,,,,MVFR,,,,,,,,,,,,SPECI,385.0
KPTS 200615Z AUTO 00000KT 4SM CLR 11/11 A3019 RMK AO2 T01100109 PWINO,KPTS,2023-05-20T06:15:00Z,37.45,-94.73,11.0,10.9,0,0,,4.0,30.188976,,,TRUE,TRUE,,,,,TRUE,,CLR,,,,,,,,MVFR,,,,,,,,,,,,SPECI,286.0
KPTD 200615Z AUTO 19008KT 10SM OVC060 18/10 A3002 RMK AO2,KPTD,2023-05-20T06:15:00Z,44.68,-74.95,18.0,10.0,190,8,,10.0,30.02067,,,TRUE,TRUE,,,,,,,OVC,6000,,,,,,,VFR,,,,,,,,,,,,SPECI,144.0
KPTB 200615Z AUTO 00000KT 10SM CLR 15/14 A3008 RMK AO2 T01470141,KPTB,2023-05-20T06:15:00Z,37.17,-77.52,14.7,14.1,0,0,,10.0,30.079725,,,TRUE,TRUE,,,,,,,CLR,,,,,,,,VFR,,,,,,,,,,,,METAR,56.0
KPSO 200615Z AUTO 00000KT 10SM BKN039 OVC046 08/08 A3043 RMK AO2 T00810081,KPSO,2023-05-20T06:15:00Z,37.28,-107.05,8.1,8.1,0,0,,10.0,30.431103,,,TRUE,TRUE,,,,,,,BKN,3900,OVC,4600,,,,,VFR,,,,,,,,,,,,METAR,2332.0
KPSN 200615Z AUTO 31005KT 10SM FEW050 SCT065 25/21 A3003 RMK AO2,KPSN,2023-05-20T06:15:00Z,31.78,-95.7,25.0,21.0,310,5,,10.0,30.029528,,,TRUE,TRUE,,,,,,,FEW,5000,SCT,6500,,,,,VFR,,,,,,,,,,,,METAR,124.0
KPSK 200615Z AUTO 00000KT 10SM OVC017 15/14 A3014 RMK AO2 T01510142,KPSK,2023-05-20T06:15:00Z,37.13,-80.67,15.1,14.2,0,0,,10.0,30.138779,,,TRUE,TRUE,,,,,,,OVC,1700,,,,,,,MVFR,,,,,,,,,,,,METAR,629.0
KPRS 200615Z AUTO 04004KT 10SM CLR 24/10 A3010 RMK AO2 T02370100,KPRS,2023-05-20T06:15:00Z,29.63,-104.35,23.7,10.0,40,4,,10.0,30.100393,,,TRUE,TRUE,,,,,,,CLR,,,,,,,,VFR,,,,,,,,,,,,SPECI,890.0
KPRO 200615Z AUTO 32003KT 10SM CLR 07/04 A3024 RMK AO2 T00710035,KPRO,2023-05-20T06:15:00Z,41.83,-94.17,7.1,3.5,320,3,,10.0,30.239174,,,TRUE,TRUE,,,,,,,CLR,,,,,,,,VFR,,,,,,,,,,,,SPECI,308.0
KPRG 200615Z AUTO 02004KT 10SM OVC100 14/12 A3007 RMK AO2 T01430116,KPRG,2023-05-20T06:15:00Z,39.7,-87.67,14.3,11.6,20,4,,10.0,30.070866,,,TRUE,TRUE,,,,,,,OVC,10000,,,,,,,VFR,,,,,,,,,,,,METAR,197.0
KPPQ 200615Z AUTO 34009KT 10SM CLR 12/07 A3014 RMK AO2 T01240066,KPPQ,2023-05-20T06:15:00Z,39.63,-90.78,12.4,6.6,340,9,,10.0,30.138779,,,TRUE,TRUE,,,,,,,CLR,,,,,,,,VFR,,,,,,,,,,,,METAR,215.0
KPPO 200615Z AUTO 31003KT 7SM CLR 09/08 A3007 RMK AO2 T00930076,KPPO,2023-05-20T06:15:00Z,41.57,-86.73,9.3,7.6,310,3,,7.0,30.070866,,,TRUE,TRUE,,,,,,,CLR,,,,,,,,VFR,,,,,,,,,,,,SPECI,242.0
KPPA 200615Z AUTO 35005KT 5SM BR 11/10 A3032 RMK AO2 T01070103,KPPA,2023-05-20T06:15:00Z,35.62,-101.0,10.7,10.3,350,5,,5.0,30.318897,,,TRUE,TRUE,,,,,,BR,,,,,,,,,,,,,,,,,,,,,METAR,989.0
KPOY 200615Z AUTO 23007KT 10SM CLR 13/M02 A3021 RMK AO2,KPOY,2023-05-20T06:15:00Z,44.87,-108.8,13.0,-2.0,230,7,,10.0,30.209646,,,TRUE,TRUE,,,,,,,CLR,,,,,,,,VFR,,,,,,,,,,,,METAR,1547.0
KPOV 200615Z AUTO 31003KT 10SM SCT011 BKN026 BKN038 16/14 A2995 RMK AO2 T01610138 PWINO,KPOV,2023-05-20T06:15:00Z,41.22,-81.25,16.1,13.8,310,3,,10.0,29.949802,,,TRUE,TRUE,,,,,TRUE,,SCT,1100,BKN,2600,BKN,3800,,,MVFR,,,,,,,,,,,,METAR,363.0
KPNM 200615Z AUTO 00000KT 1 3/4SM BR CLR 03/02 A3025 RMK AO2,KPNM,2023-05-20T06:15:00Z,45.53,-93.6,3.0,2.0,0,0,,1.75,30.250984,,,TRUE,TRUE,,,,,,BR,CLR,,,,,,,,IFR,,,,,,,,,,,,SPECI,298.0
KPNA 200615Z AUTO 00000KT 10SM SCT085 10/00 A3037 RMK AO2,KPNA,2023-05-20T06:15:00Z,42.8,-109.8,10.0,0.0,0,0,,10.0,30.369095,,,TRUE,TRUE,,,,,,,SCT,8500,,,,,,,VFR,,,,,,,,,,,,METAR,2158.0
KPMV 200615Z AUTO 34003KT 10SM CLR 08/04 A3026 RMK AO2 T00830035,KPMV,2023-05-20T06:15:00Z,40.95,-95.92,8.3,3.5,340,3,,10.0,30.259842,,,TRUE,TRUE,,,,,,,CLR,,,,,,,,VFR,,,,,,,,,,,,METAR,365.0
KPLU 200615Z AUTO 00000KT 10SM SCT060 SCT100 16/13 A3009 RMK AO2,KPLU,2023-05-20T06:15:00Z,47.1,-122.28,16.0,13.0,0,0,,10.0,30.088583,,,TRUE,TRUE,,,,,,,SCT,6000,SCT,10000,,,,,VFR,,,,,,,,,,,,SPECI,164.0
KPLR 200615Z AUTO 00000KT 7SM FEW044 FEW050 FEW075 17/17 A3007 RMK A01,KPLR,2023-05-20T06:15:00Z,33.57,-86.25,17.0,17.0,0,0,,7.0,30.070866,,,TRUE,TRUE,,,,,,,FEW,4400,FEW,5000,FEW,7500,,,VFR,,,,,,,,,,,,METAR,145.0
KPLD 200615Z AUTO 36008G16KT 4SM -RA SCT007 BKN010 OVC065 15/14 A3000 RMK AO2 P0001,KPLD,2023-05-20T06:15:00Z,40.45,-84.98,15.0,14.0,360,8,16,4.0,30.0,,,TRUE,TRUE,,,,,,-RA,SCT,700,BKN,1000,OVC,6500,,,MVFR,,,,,,0.01,,,,,,SPECI,282.0
KPKV 200615Z AUTO 00000KT 10SM CLR 24/22 A3005 RMK AO2 T02350221,KPKV,2023-05-20T06:15:00Z,28.65,-96.68,23.5,22.1,0,0,,10.0,30.050198,,,TRUE,TRUE,,,,,,,CLR,,,,,,,,VFR,,,,,,,,,,,,SPECI,8.0
KPJC 200615Z AUTO 13005KT 10SM BKN060 BKN070 OVC100 17/12 A2997 RMK AO2,KPJC,2023-05-20T06:15:00Z,40.8,-80.17,17.0,12.0,130,5,,10.0,29.970472,,,TRUE,TRUE,,,,,,,BKN,6000,BKN,7000,OVC,10000,,,VFR,,,,,,,,,,,,METAR,273.0
KPIM 200615Z AUTO 12004KT 10SM OVC026 19/17 A3008 RMK AO2 T01890166,KPIM,2023-05-20T06:15:00Z,32.83,-84.88,18.9,16.6,120,4,,10.0,30.079725,,,TRUE,TRUE,,,,,,,OVC,2600,,,,,,,MVFR,,,,,,,,,,,,METAR,274.0
KPHT 200615Z AUTO 20006G11KT 10SM SCT070 OVC090 20/20 A2999 RMK A01,KPHT,2023-05-20T06:15:00Z,36.33,-88.38,20.0,20.0,200,6,11,10.0,29.991142,,,TRUE,TRUE,,,,,,,SCT,7000,OVC,9000,,,,,VFR,,,,,,,,,,,,SPECI,172.0
KPHN 200615Z AUTO 31004KT 7SM BKN036 BKN047 OVC060 14/12 A2994 RMK AO2,KPHN,2023-05-20T06:15:00Z,42.92,-82.52,14.0,12.0,310,4,,7.0,29.940945,,,TRUE,TRUE,,,,,,,BKN,3600,BKN,4700,OVC,6000,,,VFR,,,,,,,,,,,,SPECI,195.0
KPEZ 200615Z AUTO 06006KT 10SM CLR 25/23 A3005 RMK AO2 LTG DSNT N T02500230,KPEZ,2023-05-20T06:15:00Z,28.95,-98.52,25.0,23.0,60,6,,10.0,30.050198,,,TRUE,TRUE,,,,,,,CLR,,,,,,,,VFR,,,,,,,,,,,,SPECI,126.0
KPEX 200615Z AUTO 24003KT 10SM CLR 04/03 A3026 RMK AO2,KPEX,2023-05-20T06:15:00Z,45.37,-94.73,4.0,3.0,240,3,,10.0,30.259842,,,TRUE,TRUE,,,,,,,CLR,,,,,,,,VFR,,,,,,,,,,,,SPECI,359.0
KPEQ 200615Z AUTO 02013G18KT 10SM SCT110 21/15 A3018 RMK AO2 T02110146,KPEQ,2023-05-20T06:15:00Z,31.38,-103.52,21.1,14.6,20,13,18,10.0,30.180119,,,TRUE,TRUE,,,,,,,SCT,11000,,,,,,,VFR,,,,,,,,,,,,METAR,794.0
KPEA 200615Z AUTO 34003KT 10SM CLR 08/04 A3020 RMK AO2 T00770043,KPEA,2023-05-20T06:15:00Z,41.4,-92.95,7.7,4.3,340,3,,10.0,30.200787,,,TRUE,TRUE,,,,,,,CLR,,,,,,,,VFR,,,,,,,,,,,,METAR,264.0
KPDC 200615Z AUTO 00000KT 10SM CLR 07/05 A3018 RMK AO2 T00680046,KPDC,2023-05-20T06:15:00Z,43.02,-91.12,6.8,4.6,0,0,,10.0,30.180119,,,TRUE,TRUE,,,,,,,CLR,,,,,,,,VFR,,,,,,,,,,,,SPECI,201.0
KPCZ 200615Z AUTO 32005KT 10SM CLR 10/06 A3014 RMK AO2 T00970055,KPCZ,2023-05-20T06:15:00Z,44.33,-89.02,9.7,5.5,320,5,,10.0,30.138779,,,TRUE,TRUE,,,,,,,CLR,,,,,,,,VFR,,,,,,,,,,,,SPECI,248.0
KPCW 200615Z AUTO 35005KT 3SM RA BKN027 BKN032 OVC041 14/14 A2994 RMK AO2,KPCW,2023-05-20T06:15:00Z,41.52,-82.87,14.0,14.0,350,5,,3.0,29.940945,,,TRUE,TRUE,,,,,,RA,BKN,2700,BKN,3200,OVC,4100,,,MVFR,,,,,,,,,,,,SPECI,179.0
KPCM 200615Z AUTO 04003KT 10SM CLR A3001 RMK AO2,KPCM,2023-05-20T06:15:00Z,28.0,-82.17,,,40,3,,10.0,30.008858,,,TRUE,TRUE,,,,,,,CLR,,,,,,,,VFR,,,,,,,,,,,,SPECI,43.0
KPCD 200615Z AUTO 33006KT A3007 RMK AO2,KPCD,2023-05-20T06:15:00Z,37.87,-89.87,,,330,6,,,30.070866,,,TRUE,TRUE,,,,,,,,,,,,,,,,,,,,,,,,,,,METAR,112.0
KPBX 200615Z AUTO 16004KT 10SM SCT050 BKN075 OVC100 19/14 A3004 RMK AO2 T01910140,KPBX,2023-05-20T06:15:00Z,37.57,-82.57,19.1,14.0,160,4,,10.0,30.041338,,,TRUE,TRUE,,,,,,,SCT,5000,BKN,7500,OVC,10000,,,VFR,,,,,,,,,,,,METAR,447.0
KPBH 200615Z AUTO 00000KT 2SM BR CLR 02/02 A3018 RMK AO2 VIS 1V5 T00230023,KPBH,2023-05-20T06:15:00Z,45.7,-90.4,2.3,2.3,0,0,,2.0,30.180119,,,TRUE,TRUE,,,,,,BR,CLR,,,,,,,,IFR,,,,,,,,,,,,METAR,445.0
KPAN 200615Z AUTO 02003KT 10SM CLR 14/08 A3026 RMK AO2 PWINO TSNO,KPAN,2023-05-20T06:15:00Z,34.25,-111.33,14.0,8.0,20,3,,10.0,30.259842,,,TRUE,TRUE,,,TRUE,,TRUE,,CLR,,,,,,,,VFR,,,,,,,,,,,,SPECI,1575.0
KP52 200615Z AUTO 22004KT 10SM BKN100 15/13 A3018 RMK AO2,KP52,2023-05-20T06:15:00Z,34.73,-112.03,15.0,13.0,220,4,,10.0,30.180119,,,TRUE,TRUE,,,,,,,BKN,10000,,,,,,,VFR,,,,,,,,,,,,METAR,1085.0
KP08 200615Z AUTO 35004KT 10SM CLR 23/12 A3004 RMK AO2,KP08,2023-05-20T06:15:00Z,32.93,-111.43,23.0,12.0,350,4,,10.0,30.041338,,,TRUE,TRUE,,,,,,,CLR,,,,,,,,VFR,,,,,,,,,,,,METAR,477.0
KOZW 200615Z AUTO 31005KT 7SM BKN032 12/10 A2999 RMK AO2 T01150095,KOZW,2023-05-20T06:15:00Z,42.62,-83.98,11.5,9.5,310,5,,7.0,29.991142,,,TRUE,TRUE,,,,,,,BKN,3200,,,,,,,VFR,,,,,,,,,,,,SPECI,288.0
KOZS 200615Z AUTO 32005KT 7SM SCT070 12/11 A3016 RMK AO2,KOZS,2023-05-20T06:15:00Z,37.97,-92.68,12.0,11.0,320,5,,7.0,30.159449,,,TRUE,TRUE,,,,,,,SCT,7000,,,,,,,VFR,,,,,,,,,,,,METAR,321.0
KOYM 200615Z AUTO 17004KT 10SM SCT055 SCT075 OVC100 15/10 A3008 RMK AO2 PWINO,KOYM,2023-05-20T06:15:00Z,41.42,-78.5,15.0,10.0,170,4,,10.0,30.079725,,,TRUE,TRUE,,,,,TRUE,,SCT,5500,SCT,7500,OVC,10000,,,VFR,,,,,,,,,,,,SPECI,582.0
KOXV 200615Z AUTO 34005KT 10SM CLR 09/05 A3020 RMK AO2,KOXV,2023-05-20T06:15:00Z,41.28,-93.12,9.0,5.0,340,5,,10.0,30.200787,,,TRUE,TRUE,,,,,,,CLR,,,,,,,,VFR,,,,,,,,,,,,SPECI,280.0
KOXI 200615Z AUTO 33004KT 7SM CLR 10/09 A3005 RMK AO1,KOXI,2023-05-20T06:15:00Z,41.33,-86.67,10.0,9.0,330,4,,7.0,30.050198,,,TRUE,TRUE,,,,,,,CLR,,,,,,,,VFR,,,,,,,,,,,,SPECI,208.0
KOXD 200615Z AUTO 32011KT 5SM +RA BKN015 OVC046 18/16 A3000 RMK AO2 T01810161 P0002,KOXD,2023-05-20T06:15:00Z,39.5,-84.78,18.1,16.1,320,11,,5.0,30.0,,,TRUE,TRUE,,,,,,+RA,BKN,1500,OVC,4600,,,,,MVFR,,,,,,0.02,,,,,,SPECI,317.0
KOVL 200615Z AUTO 00000KT 10SM CLR 07/03 A3024 RMK AO2,KOVL,2023-05-20T06:15:00Z,44.78,-95.03,7.0,3.0,0,0,,10.0,30.239174,,,TRUE,TRUE,,,,,,,CLR,,,,,,,,VFR,,,,,,,,,,,,SPECI,329.0
KOUN 200615Z AUTO 36011KT 7SM CLR 13/11 A3019 RMK AO2 T01310109,KOUN,2023-05-20T06:15:00Z,35.25,-97.47,13.1,10.9,360,11,,7.0,30.188976,,,TRUE,TRUE,,,,,,,CLR,,,,,,,,VFR,,,,,,,,,,,,METAR,359.0
KOSC 200615Z AUTO 31009KT 10SM CLR 09/06 A2995 RMK AO2 T00860060,KOSC,2023-05-20T06:15:00Z,44.45,-83.4,8.6,6.0,310,9,,10.0,29.949802,,,TRUE,TRUE,,,,,,,CLR,,,,,,,,VFR,,,,,,,,,,,,SPECI,191.0
KOSA 200615Z AUTO 35008KT 10SM OVC065 23/22 A3003 RMK AO2 T02350215,KOSA,2023-05-20T06:15:00Z,33.1,-94.97,23.5,21.5,350,8,,10.0,30.029528,,,TRUE,TRUE,,,,,,,OVC,6500,,,,,,,VFR,,,,,,,,,,,,METAR,108.0
KORS 200615Z AUTO 00000KT 10SM CLR 15/11 A3004 RMK AO2,KORS,2023-05-20T06:15:00Z,48.7,-122.92,15.0,11.0,0,0,,10.0,30.041338,,,TRUE,TRUE,,,,,,,CLR,,,,,,,,VFR,,,,,,,,,,,,SPECI,7.0
KORK 200615Z AUTO 36005KT 8SM OVC006 21/21 A2999 RMK AO2 LTG DSNT SE AND S,KORK,2023-05-20T06:15:00Z,34.83,-92.25,21.0,21.0,360,5,,8.0,29.991142,,,TRUE,TRUE,,,,,,,OVC,600,,,,,,,IFR,,,,,,,,,,,,METAR,166.0
KORG 200615Z AUTO 00000KT 10SM CLR 26/22 A3004 RMK AO2 T02600223,KORG,2023-05-20T06:15:00Z,30.07,-93.8,26.0,22.3,0,0,,10.0,30.041338,,,TRUE,TRUE,,,,,,,CLR,,,,,,,,VFR,,,,,,,,,,,,METAR,2.0
KOQN 200615Z AUTO 00000KT 10SM BKN007 12/11 A3016 RMK AO2,KOQN,2023-05-20T06:15:00Z,39.98,-75.58,12.0,11.0,0,0,,10.0,30.159449,,,TRUE,TRUE,,,,,,,BKN,700,,,,,,,IFR,,,,,,,,,,,,SPECI,141.0
KOPN 200615Z AUTO 12004KT 10SM OVC021 19/15 A3010 RMK AO2,KOPN,2023-05-20T06:15:00Z,32.95,-84.27,19.0,15.0,120,4,,10.0,30.100393,,,TRUE,TRUE,,,,,,,OVC,2100,,,,,,,MVFR,,,,,,,,,,,,METAR,241.0
KOPL 200615Z AUTO 27003KT 10SM CLR 23/20 A3001 RMK AO2 T02290200,KOPL,2023-05-20T06:15:00Z,30.55,-92.1,22.9,20.0,270,3,,10.0,30.008858,,,TRUE,TRUE,,,,,,,CLR,,,,,,,,VFR,,,,,,,,,,,,METAR,22.0
KOOA 200615Z AUTO 36006KT 10SM CLR 10/05 A3020 RMK AO2 T01020050,KOOA,2023-05-20T06:15:00Z,41.23,-92.5,10.2,5.0,360,6,,10.0,30.200787,,,TRUE,TRUE,,,,,,,CLR,,,,,,,,VFR,,,,,,,,,,,,METAR,256.0
KONZ 200615Z AUTO 32009KT 5SM -RA SCT018 SCT049 OVC095 15/14 A2995 RMK AO2 T01460141 P0003,KONZ,2023-05-20T06:15:00Z,42.1,-83.15,14.6,14.1,320,9,,5.0,29.949802,,,TRUE,TRUE,,,,,,-RA,SCT,1800,SCT,4900,OVC,9500,,,MVFR,,,,,,0.03,,,,,,SPECI,179.0
KONP 200615Z AUTO 35008KT 4SM BR OVC004 12/11 A3019 RMK AO2,KONP,2023-05-20T06:15:00Z,44.57,-124.05,12.0,11.0,350,8,,4.0,30.188976,,,TRUE,TRUE,,,,,,BR,OVC,400,,,,,,,LIFR,,,,,,,,,,,,METAR,43.0
KONM 200615Z AUTO 04010KT 7SM RA SCT043 BKN080 OVC085 13/12 A3030 RMK AO2 P0002 T01310121,KONM,2023-05-20T06:15:00Z,34.02,-106.9,13.1,12.1,40,10,,7.0,30.301182,,,TRUE,TRUE,,,,,,RA,SCT,4300,BKN,8000,OVC,8500,,,VFR,,,,,,0.02,,,,,,SPECI,1467.0
KONL 200615Z AUTO 00000KT 10SM CLR 07/05 A3028 RMK AO2 T00710047,KONL,2023-05-20T06:15:00Z,42.47,-98.68,7.1,4.7,0,0,,10.0,30.280512,,,TRUE,TRUE,,,,,,,CLR,,,,,,,,VFR,,,,,,,,,,,,METAR,619.0
KONA 200615Z AUTO 00000KT 10SM CLR 08/06 A3020 RMK AO2,KONA,2023-05-20T06:15:00Z,44.07,-91.7,8.0,6.0,0,0,,10.0,30.200787,,,TRUE,TRUE,,,,,,,CLR,,,,,,,,VFR,,,,,,,,,,,,SPECI,200.0
KOMH 200615Z AUTO 00000KT 10SM CLR 11/11 A3013 RMK AO2,KOMH,2023-05-20T06:15:00Z,38.25,-78.05,11.0,11.0,0,0,,10.0,30.129921,,,TRUE,TRUE,,,,,,,CLR,,,,,,,,VFR,,,,,,,,,,,,SPECI,136.0
KOLZ 200615Z AUTO 32007KT 10SM CLR 07/04 A3020 RMK A01,KOLZ,2023-05-20T06:15:00Z,42.67,-91.97,7.0,4.0,320,7,,10.0,30.200787,,,TRUE,TRUE,,,,,,,CLR,,,,,,,,VFR,,,,,,,,,,,,METAR,328.0
KOLV 200615Z AUTO 17008KT 10SM FEW010 22/21 A2997 RMK A01,KOLV,2023-05-20T06:15:00Z,34.98,-89.78,22.0,21.0,170,8,,10.0,29.970472,,,TRUE,TRUE,,,,,,,FEW,1000,,,,,,,VFR,,,,,,,,,,,,SPECI,124.0
KOLG 200615Z AUTO 23004KT 10SM CLR 02/01 A3020 RMK AO1,KOLG,2023-05-20T06:15:00Z,46.3,-91.82,2.0,1.0,230,4,,10.0,30.200787,,,TRUE,TRUE,,,,,,,CLR,,,,,,,,VFR,,,,,,,,,,,,SPECI,334.0
KOKZ 200615Z AUTO 00000KT 7SM BR OVC017 18/18 A3009 RMK AO2 T01830175,KOKZ,2023-05-20T06:15:00Z,32.97,-82.83,18.3,17.5,0,0,,7.0,30.088583,,,TRUE,TRUE,,,,,,BR,OVC,1700,,,,,,,MVFR,,,,,,,,,,,,METAR,128.0
KOKV 200615Z AUTO 00000KT 10SM CLR 10/10 A3010 RMK AO2,KOKV,2023-05-20T06:15:00Z,39.13,-78.15,10.0,10.0,0,0,,10.0,30.100393,,,TRUE,TRUE,,,,,,,CLR,,,,,,,,VFR,,,,,,,,,,,,METAR,213.0
KOKM 200615Z AUTO 34007KT 10SM CLR 13/13 A3018 RMK AO2 T01310125,KOKM,2023-05-20T06:15:00Z,35.67,-95.95,13.1,12.5,340,7,,10.0,30.180119,,,TRUE,TRUE,,,,,,,CLR,,,,,,,,VFR,,,,,,,,,,,,METAR,215.0
KOJA 200615Z AUTO 35003KT 5SM BR CLR 11/10 A3024 RMK AO2 T01140104,KOJA,2023-05-20T06:15:00Z,35.55,-98.67,11.4,10.4,350,3,,5.0,30.239174,,,TRUE,TRUE,,,,,,BR,CLR,,,,,,,,MVFR,,,,,,,,,,,,SPECI,490.0
KOIC 200615Z AUTO 18009KT 10SM BKN120 13/08 A3013 RMK AO2 T01330080,KOIC,2023-05-20T06:15:00Z,42.57,-75.52,13.3,8.0,180,9,,10.0,30.129921,,,TRUE,TRUE,,,,,,,BKN,12000,,,,,,,VFR,,,,,,,,,,,,METAR,311.0
KOGS 200615Z AUTO 10SM FEW060 17/11 A2999 RMK AO2,KOGS,2023-05-20T06:15:00Z,44.67,-75.47,17.0,11.0,,,,10.0,29.991142,,,TRUE,TRUE,,,,,,,FEW,6000,,,,,,,VFR,,,,,,,,,,,,METAR,88.0
KOGA 200615Z AUTO 00000KT 10SM CLR 08/05 A3031 RMK AO2 T00840046,KOGA,2023-05-20T06:15:00Z,41.12,-101.77,8.4,4.6,0,0,,10.0,30.31004,,,TRUE,TRUE,,,,,,,CLR,,,,,,,,VFR,,,,,,,,,,,,METAR,991.0
KOEO 200615Z AUTO 00000KT 5SM BR CLR 05/05 A3026 RMK AO2 T00460046,KOEO,2023-05-20T06:15:00Z,45.32,-92.7,4.6,4.6,0,0,,5.0,30.259842,,,TRUE,TRUE,,,,,,BR,CLR,,,,,,,,MVFR,,,,,,,,,,,,SPECI,269.0
KOEL 200615Z AUTO 00000KT 10SM CLR 08/04 A3032 RMK AO1 T00800040,KOEL,2023-05-20T06:15:00Z,39.12,-100.82,8.0,4.0,0,0,,10.0,30.318897,,,TRUE,TRUE,,,,,,,CLR,,,,,,,,VFR,,,,,,,,,,,,SPECI,924.0
KOEB 200615Z AUTO 32004KT 7SM CLR 11/09 A3001 RMK AO2 T01130088,KOEB,2023-05-20T06:15:00Z,41.92,-85.05,11.3,8.8,320,4,,7.0,30.008858,,,TRUE,TRUE,,,,,,,CLR,,,,,,,,VFR,,,,,,,,,,,,SPECI,291.0
KOCQ 200615Z AUTO 31006KT 10SM SCT039 BKN055 08/07 A3010 RMK AO1 T00790065,KOCQ,2023-05-20T06:15:00Z,44.87,-87.92,7.9,6.5,310,6,,10.0,30.100393,,,TRUE,TRUE,,,,,,,SCT,3900,BKN,5500,,,,,VFR,,,,,,,,,,,,SPECI,181.0
KOBE 200615Z AUTO 00000KT 6SM BR FEW055 SCT070 BKN075 23/23 A2997 RMK AO2,KOBE,2023-05-20T06:15:00Z,27.27,-80.85,23.0,23.0,0,0,,6.0,29.970472,,,TRUE,TRUE,,,,,,BR,FEW,5500,SCT,7000,BKN,7500,,,VFR,,,,,,,,,,,,METAR,11.0
KOAR 200615Z AUTO 26011KT 10SM OVC005 11/10 A3010 RMK AO2 PWINO,KOAR,2023-05-20T06:15:00Z,36.67,-121.77,11.0,10.0,260,11,,10.0,30.100393,,,TRUE,TRUE,,,,,TRUE,,OVC,500,,,,,,,IFR,,,,,,,,,,,,SPECI,41.0
KO86 200615Z AUTO 26005KT 10SM 17/08 A3008 RMK A01,KO86,2023-05-20T06:15:00Z,40.98,-122.7,17.0,8.0,260,5,,10.0,30.079725,,,TRUE,TRUE,,,,,,,,,,,,,,,,,,,,,,,,,,,METAR,729.0
KO69 200615Z AUTO 00000KT 3SM BR BKN020 BKN025 10/10 A3007 RMK A01,KO69,2023-05-20T06:15:00Z,38.25,-122.6,10.0,10.0,0,0,,3.0,30.070866,,,TRUE,TRUE,,,,,,BR,BKN,2000,BKN,2500,,,,,MVFR,,,,,,,,,,,,SPECI,26.0
KO32 200615Z AUTO 32004KT 10SM CLR 23/15 A2995 RMK AO2 T02270153 $,KO32,2023-05-20T06:15:00Z,36.67,-119.45,22.7,15.3,320,4,,10.0,29.949802,,,TRUE,TRUE,TRUE,,,,,,CLR,,,,,,,,VFR,,,,,,,,,,,,SPECI,117.0
KO22 200615Z AUTO 00000KT 10SM CLR 17/12 A3005 RMK A01,KO22,2023-05-20T06:15:00Z,38.03,-120.42,17.0,12.0,0,0,,10.0,30.050198,,,TRUE,TRUE,,,,,,,CLR,,,,,,,,VFR,,,,,,,,,,,,SPECI,637.0
KNUQ 200615Z AUTO 03006KT 10SM BKN013 13/11 A3009 RMK AO2,KNUQ,2023-05-20T06:15:00Z,37.4,-122.05,13.0,11.0,30,6,,10.0,30.088583,,,TRUE,TRUE,,,,,,,BKN,1300,,,,,,,MVFR,,,,,,,,,,,,SPECI,9.0
KNRN 200615Z AUTO 00000KT 10SM CLR 08/04 A3033 RMK AO2,KNRN,2023-05-20T06:15:00Z,39.85,-99.9,8.0,4.0,0,0,,10.0,30.33071,,,TRUE,TRUE,,,,,,,CLR,,,,,,,,VFR,,,,,,,,,,,,METAR,726.0
KN79 200615Z AUTO 17007G15KT 10SM CLR 14/11 A3013 RMK AO2 T01390107,KN79,2023-05-20T06:15:00Z,,,13.9,10.7,170,7,15,10.0,30.129921,,,TRUE,TRUE,,,,,,,CLR,,,,,,,,VFR,,,,,,,,,,,,SPECI,
KN38 200615Z AUTO 19010KT 10SM CLR 13/09 A3007 RMK AO2,KN38,2023-05-20T06:15:00Z,41.73,-77.4,13.0,9.0,190,10,,10.0,30.070866,,,TRUE,TRUE,,,,,,,CLR,,,,,,,,VFR,,,,,,,,,,,,METAR,576.0
KN03 200615Z AUTO 14003KT 10SM BKN075 BKN100 OVC120 15/08 A3008 RMK AO2,KN03,2023-05-20T06:15:00Z,42.6,-76.22,15.0,8.0,140,3,,10.0,30.079725,,,TRUE,TRUE,,,,,,,BKN,7500,BKN,10000,OVC,12000,,,VFR,,,,,,,,,,,,METAR,361.0
KMZZ 200615Z AUTO 35004KT 7SM BKN034 BKN047 OVC085 13/11 A3003 RMK AO2 P0001 T01330114,KMZZ,2023-05-20T06:15:00Z,40.48,-85.68,13.3,11.4,350,4,,7.0,30.029528,,,TRUE,TRUE,,,,,,,BKN,3400,BKN,4700,OVC,8500,,,VFR,,,,,,0.01,,,,,,METAR,260.0
KMZH 200615Z AUTO 21003KT 10SM SCT110 06/03 A3022 RMK AO2,KMZH,2023-05-20T06:15:00Z,46.42,-92.8,6.0,3.0,210,3,,10.0,30.221457,,,TRUE,TRUE,,,,,,,SCT,11000,,,,,,,VFR,,,,,,,,,,,,SPECI,331.0
KMYZ 200615Z AUTO 00000KT 10SM CLR 08/05 A3026 RMK AO2,KMYZ,2023-05-20T06:15:00Z,39.85,-96.63,8.0,5.0,0,0,,10.0,30.259842,,,TRUE,TRUE,,,,,,,CLR,,,,,,,,VFR,,,,,,,,,,,,METAR,388.0
KMYJ 200615Z AUTO 35008KT 10SM CLR 10/07 A3016 RMK AO2,KMYJ,2023-05-20T06:15:00Z,39.15,-91.82,10.0,7.0,350,8,,10.0,30.159449,,,TRUE,TRUE,,,,,,,CLR,,,,,,,,VFR,,,,,,,,,,,,SPECI,249.0
KMWO 200615Z AUTO 00000KT 10SM -RA SCT060 SCT065 OVC100 17/ A3000 RMK AO2 T0170////,KMWO,2023-05-20T06:15:00Z,39.53,-84.4,17.0,,0,0,,10.0,30.0,,,TRUE,TRUE,,,,,,-RA,SCT,6000,SCT,6500,OVC,10000,,,VFR,,,,,,,,,,,,METAR,197.0
KMWM 200615Z AUTO 00000KT 10SM CLR 06/03 A3025 RMK AO2,KMWM,2023-05-20T06:15:00Z,43.9,-95.1,6.0,3.0,0,0,,10.0,30.250984,,,TRUE,TRUE,,,,,,,CLR,,,,,,,,VFR,,,,,,,,,,,,SPECI,427.0
KMWL 200615Z AUTO 34010KT 10SM SCT017 OVC036 19/16 A3014 RMK AO2 T01940156,KMWL,2023-05-20T06:15:00Z,32.78,-98.07,19.4,15.6,340,10,,10.0,30.138779,,,TRUE,TRUE,,,,,,,SCT,1700,OVC,3600,,,,,VFR,,,,,,,,,,,,METAR,288.0
KMWC 200615Z AUTO 34011KT 10SM CLR 09/03 A3010 RMK AO2,KMWC,2023-05-20T06:15:00Z,43.12,-88.03,9.0,3.0,340,11,,10.0,30.100393,,,TRUE,TRUE,,,,,,,CLR,,,,,,,,VFR,,,,,,,,,,,,SPECI,225.0
KMWA 200615Z AUTO 34005KT 7SM BKN065 OVC080 15/15 A3007 RMK AO2 T01530153,KMWA,2023-05-20T06:15:00Z,37.77,-89.02,15.3,15.3,340,5,,7.0,30.070866,,,TRUE,TRUE,,,,,,,BKN,6500,OVC,8000,,,,,VFR,,,,,,,,,,,,SPECI,142.0
KMVE 200615Z AUTO 00000KT 10SM CLR 08/04 A3026 RMK AO2,KMVE,2023-05-20T06:15:00Z,44.97,-95.72,8.0,4.0,0,0,,10.0,30.259842,,,TRUE,TRUE,,,,,,,CLR,,,,,,,,VFR,,,,,,,,,,,,SPECI,319.0
KMUT 200615Z AUTO 32005KT 10SM CLR 10/05 A3017 RMK AO2,KMUT,2023-05-20T06:15:00Z,41.37,-91.15,10.0,5.0,320,5,,10.0,30.171259,,,TRUE,TRUE,,,,,,,CLR,,,,,,,,VFR,,,,,,,,,,,,METAR,166.0
KMTV 200615Z AUTO 00000KT 10SM OVC031 16/15 A3014 RMK AO2 T01640145,KMTV,2023-05-20T06:15:00Z,36.63,-80.02,16.4,14.5,0,0,,10.0,30.138779,,,TRUE,TRUE,,,,,,,OVC,3100,,,,,,,VFR,,,,,,,,,,,,SPECI,276.0
KMTH 200615Z AUTO 07008G22KT 010V120 1 1/2SM +RA BR FEW008 BKN021 OVC026 25/23 A2997 RMK AO2 RAB08 P0000 T02500228 $,KMTH,2023-05-20T06:15:00Z,24.73,-81.05,25.0,22.8,70,8,22,1.5,29.970472,,,TRUE,TRUE,TRUE,,,,,+RA BR,FEW,800,BKN,2100,OVC,2600,,,IFR,,,,,,0.005,,,,,,SPECI,1.0
KMRJ 200615Z AUTO 35005KT 10SM CLR 08/03 A3017 RMK AO2 PWINO,KMRJ,2023-05-20T06:15:00Z,42.88,-90.23,8.0,3.0,350,5,,10.0,30.171259,,,TRUE,TRUE,,,,,TRUE,,CLR,,,,,,,,VFR,,,,,,,,,,,,METAR,350.0
KMQW 200615Z AUTO 00000KT 10SM CLR 17/16 A3007 RMK AO2 T01680159,KMQW,2023-05-20T06:15:00Z,32.1,-82.88,16.8,15.9,0,0,,10.0,30.070866,,,TRUE,TRUE,,,,,,,CLR,,,,,,,,VFR,,,,,,,,,,,,METAR,62.0
KMQS 200615Z AUTO 00000KT 10SM 11/11 A3016 RMK AO2,KMQS,2023-05-20T06:15:00Z,39.98,-75.87,11.0,11.0,0,0,,10.0,30.159449,,,TRUE,TRUE,,,,,,,,,,,,,,,,,,,,,,,,,,,SPECI,200.0
KMQJ 200615Z AUTO 36012KT 5SM SCT009 BKN060 OVC090 13/13 A3003 RMK AO1,KMQJ,2023-05-20T06:15:00Z,39.85,-85.9,13.0,13.0,360,12,,5.0,30.029528,,,TRUE,TRUE,,,,,,,SCT,900,BKN,6000,OVC,9000,,,MVFR,,,,,,,,,,,,SPECI,262.0
KMQB 200615Z AUTO 35005KT 10SM CLR 10/06 A3017 RMK AO2 T00970055,KMQB,2023-05-20T06:15:00Z,40.52,-90.65,9.7,5.5,350,5,,10.0,30.171259,,,TRUE,TRUE,,,,,,,CLR,,,,,,,,VFR,,,,,,,,,,,,SPECI,205.0
KMPR 200615Z AUTO 35005KT 10SM CLR 07/05 A3025 RMK AO2 T00750055,KMPR,2023-05-20T06:15:00Z,38.35,-97.68,7.5,5.5,350,5,,10.0,30.250984,,,TRUE,TRUE,,,,,,,CLR,,,,,,,,VFR,,,,,,,,,,,,METAR,455.0
KMOX 200615Z AUTO 31003KT 10SM CLR 07/01 A3026 RMK AO2,KMOX,2023-05-20T06:15:00Z,45.57,-95.97,7.0,1.0,310,3,,10.0,30.259842,,,TRUE,TRUE,,,,,,,CLR,,,,,,,,VFR,,,,,,,,,,,,SPECI,346.0
KMOP 200615Z AUTO 00000KT 10SM BKN055 07/05 A3000 RMK AO2 T00730054,KMOP,2023-05-20T06:15:00Z,43.62,-84.73,7.3,5.4,0,0,,10.0,30.0,,,TRUE,TRUE,,,,,,,BKN,5500,,,,,,,VFR,,,,,,,,,,,,METAR,229.0
KMNZ 200615Z AUTO 24003KT 7SM RA BKN018 BKN032 OVC039 18/18 A3019 RMK AO2 LTG DSNT W P0003 T01840184,KMNZ,2023-05-20T06:15:00Z,31.67,-98.15,18.4,18.4,240,3,,7.0,30.188976,,,TRUE,TRUE,,,,,,RA,BKN,1800,BKN,3200,OVC,3900,,,MVFR,,,,,,0.03,,,,,,SPECI,397.0
KMNV 200615Z AUTO 24007KT 10SM 19/17 A3005 RMK A01,KMNV,2023-05-20T06:15:00Z,35.55,-84.38,19.0,17.0,240,7,,10.0,30.050198,,,TRUE,TRUE,,,,,,,,,,,,,,,,,,,,,,,,,,,SPECI,306.0
KMNN 200615Z AUTO 23005KT 4SM -RA BR SCT006 BKN055 OVC090 17/16 A2997 RMK AO2 P0002 T01720161,KMNN,2023-05-20T06:15:00Z,40.62,-83.07,17.2,16.1,230,5,,4.0,29.970472,,,TRUE,TRUE,,,,,,-RA BR,SCT,600,BKN,5500,OVC,9000,,,MVFR,,,,,,0.02,,,,,,METAR,301.0
KMNI 200615Z AUTO 05003KT 10SM OVC011 18/17 A3006 RMK AO2,KMNI,2023-05-20T06:15:00Z,33.58,-80.22,18.0,17.0,50,3,,10.0,30.059055,,,TRUE,TRUE,,,,,,,OVC,1100,,,,,,,MVFR,,,,,,,,,,,,SPECI,29.0
KMNH 200615Z AUTO 19008G16KT 4SM BR CLR 07/06 A3040 RMK AO2,KMNH,2023-05-20T06:15:00Z,39.22,-104.65,7.0,6.0,190,8,16,4.0,30.398623,,,TRUE,TRUE,,,,,,BR,CLR,,,,,,,,MVFR,,,,,,,,,,,,METAR,2152.0
KMMU 200615Z AUTO 00000KT 10SM SCT025 BKN050 09/08 A3018 RMK AO2,KMMU,2023-05-20T06:15:00Z,40.78,-74.42,9.0,8.0,0,0,,10.0,30.180119,,,TRUE,TRUE,,,,,,,SCT,2500,BKN,5000,,,,,VFR,,,,,,,,,,,,SPECI,55.0
KMMI 200615Z AUTO 00000KT 10SM FEW045 18/18 A3007 RMK A01,KMMI,2023-05-20T06:15:00Z,35.4,-84.57,18.0,18.0,0,0,,10.0,30.070866,,,TRUE,TRUE,,,,,,,FEW,4500,,,,,,,VFR,,,,,,,,,,,,SPECI,252.0
KMMH 200615Z AUTO 26009KT 10SM CLR 11/01 A3032 RMK AO2 T01050005,KMMH,2023-05-20T06:15:00Z,37.62,-118.83,10.5,0.5,260,9,,10.0,30.318897,,,TRUE,TRUE,,,,,,,CLR,,,,,,,,VFR,,,,,,,,,,,,SPECI,2167.0
KMLJ 200615Z AUTO 10004KT 3SM BR BKN007 BKN012 OVC019 19/19 A3008 RMK AO2,KMLJ,2023-05-20T06:15:00Z,33.15,-83.25,19.0,19.0,100,4,,3.0,30.079725,,,TRUE,TRUE,,,,,,BR,BKN,700,BKN,1200,OVC,1900,,,IFR,,,,,,,,,,,,METAR,115.0
KMLE 200615Z AUTO 36003KT 10SM CLR 10/04 A3027 RMK AO2 T00950036,KMLE,2023-05-20T06:15:00Z,41.2,-96.12,9.5,3.6,360,3,,10.0,30.268702,,,TRUE,TRUE,,,,,,,CLR,,,,,,,,VFR,,,,,,,,,,,,METAR,318.0
KMKS 200615Z AUTO 04004KT 10SM OVC014 20/17 A3005 RMK AO2,KMKS,2023-05-20T06:15:00Z,33.18,-80.03,20.0,17.0,40,4,,10.0,30.050198,,,TRUE,TRUE,,,,,,,OVC,1400,,,,,,,MVFR,,,,,,,,,,,,METAR,22.0
KMKN 200615Z AUTO 32007KT 10SM -RA 20/20 A3019 RMK AO2 LTG DSNT S P0001 T01950195,KMKN,2023-05-20T06:15:00Z,31.92,-98.6,19.5,19.5,320,7,,10.0,30.188976,,,TRUE,TRUE,,,,,,-RA,,,,,,,,,,,,,,,0.01,,,,,,SPECI,428.0
KMKJ 200615Z AUTO 07003KT 10SM OVC018 15/12 A3016 RMK AO2 T01470124,KMKJ,2023-05-20T06:15:00Z,36.88,-81.33,14.7,12.4,70,3,,10.0,30.159449,,,TRUE,TRUE,,,,,,,OVC,1800,,,,,,,MVFR,,,,,,,,,,,,SPECI,777.0
KMJD 200615Z AUTO 00000KT 9SM CLR 22/22 A3000 RMK AO2,KMJD,2023-05-20T06:15:00Z,30.48,-89.65,22.0,22.0,0,0,,9.0,30.0,,,TRUE,TRUE,,,,,,,CLR,,,,,,,,VFR,,,,,,,,,,,,METAR,17.0
KMIO 200615Z AUTO 31004KT 3SM BR OVC049 12/12 A3019 RMK AO2,KMIO,2023-05-20T06:15:00Z,36.92,-94.88,12.0,12.0,310,4,,3.0,30.188976,,,TRUE,TRUE,,,,,,BR,OVC,4900,,,,,,,MVFR,,,,,,,,,,,,SPECI,245.0
KMHR 200615Z AUTO 18009KT 10SM CLR 16/10 A2998 RMK A01,KMHR,2023-05-20T06:15:00Z,38.55,-121.28,16.0,10.0,180,9,,10.0,29.97933,,,TRUE,TRUE,,,,,,,CLR,,,,,,,,VFR,,,,,,,,,,,,METAR,30.0
KMHP 200615Z AUTO 04003KT 10SM BKN010 OVC021 19/ A3006 RMK AO2 T0193////,KMHP,2023-05-20T06:15:00Z,32.37,-82.08,19.3,,40,3,,10.0,30.059055,,,TRUE,TRUE,,,,,,,BKN,1000,OVC,2100,,,,,MVFR,,,,,,,,,,,,METAR,60.0
KMHL 200615Z AUTO 01007KT 10SM CLR 10/07 A3020 RMK AO2,KMHL,2023-05-20T06:15:00Z,39.1,-93.2,10.0,7.0,10,7,,10.0,30.200787,,,TRUE,TRUE,,,,,,,CLR,,,,,,,,VFR,,,,,,,,,,,,METAR,236.0
KMGR 200615Z AUTO 00000KT 9SM OVC025 19/19 A3007 RMK AO2 T01930191,KMGR,2023-05-20T06:15:00Z,31.08,-83.8,19.3,19.1,0,0,,9.0,30.070866,,,TRUE,TRUE,,,,,,,OVC,2500,,,,,,,MVFR,,,,,,,,,,,,SPECI,86.0
KMGN 200615Z AUTO 00000KT 7SM OVC004 06/06 A2998 RMK AO2 T00660066,KMGN,2023-05-20T06:15:00Z,45.43,-84.92,6.6,6.6,0,0,,7.0,29.97933,,,TRUE,TRUE,,,,,,,OVC,400,,,,,,,LIFR,,,,,,,,,,,,SPECI,205.0
KMGG 200615Z AUTO 00000KT 10SM CLR 05/04 A3026 RMK AO2 T00520037,KMGG,2023-05-20T06:15:00Z,45.23,-93.98,5.2,3.7,0,0,,10.0,30.259842,,,TRUE,TRUE,,,,,,,CLR,,,,,,,,VFR,,,,,,,,,,,,METAR,310.0
KMGC 200615Z AUTO 00000KT 2SM BR SCT060 08/07 A3007 RMK AO2 VIS 1 1/2V3,KMGC,2023-05-20T06:15:00Z,41.7,-86.82,8.0,7.0,0,0,,2.0,30.070866,,,TRUE,TRUE,,,,,,BR,SCT,6000,,,,,,,IFR,,,,,,,,,,,,METAR,199.0
KMFV 200615Z AUTO 06006KT 7SM -RA OVC003 15/14 A3007 RMK AO2 T01500144,KMFV,2023-05-20T06:15:00Z,37.63,-75.77,15.0,14.4,60,6,,7.0,30.070866,,,TRUE,TRUE,,,,,,-RA,OVC,300,,,,,,,LIFR,,,,,,,,,,,,SPECI,13.0
KMEZ 200615Z AUTO 36004KT 10SM BKN012 19/19 A3006 RMK AO2 CIG 011V016 T01920189,KMEZ,2023-05-20T06:15:00Z,34.55,-94.2,19.2,18.9,360,4,,10.0,30.059055,,,TRUE,TRUE,,,,,,,BKN,1200,,,,,,,MVFR,,,,,,,,,,,,SPECI,320.0
KMEV 200615Z AUTO 12005KT 10SM FEW047 FEW060 13/07 A3016 RMK AO2,KMEV,2023-05-20T06:15:00Z,38.98,-119.75,13.0,7.0,120,5,,10.0,30.159449,,,TRUE,TRUE,,,,,,,FEW,4700,FEW,6000,,,,,VFR,,,,,,,,,,,,METAR,1437.0
KMER 200615Z AUTO 32003KT 10SM CLR 18/09 A2999 RMK AO1,KMER,2023-05-20T06:15:00Z,37.38,-120.57,18.0,9.0,320,3,,10.0,29.991142,,,TRUE,TRUE,,,,,,,CLR,,,,,,,,VFR,,,,,,,,,,,,METAR,58.0
KMDZ 200615Z AUTO 31005KT 10SM CLR 04/04 A3017 RMK AO2 T00430043 PWINO,KMDZ,2023-05-20T06:15:00Z,45.1,-90.3,4.3,4.3,310,5,,10.0,30.171259,,,TRUE,TRUE,,,,,TRUE,,CLR,,,,,,,,VFR,,,,,,,,,,,,METAR,446.0
KMDS 200615Z AUTO 29005KT 10SM CLR 05/05 A3027 RMK AO2,KMDS,2023-05-20T06:15:00Z,44.02,-97.08,5.0,5.0,290,5,,10.0,30.268702,,,TRUE,TRUE,,,,,,,CLR,,,,,,,,VFR,,,,,,,,,,,,SPECI,524.0
KMDQ 200615Z AUTO 10SM OVC029 20/18 A3005 RMK A02 T02030177,KMDQ,2023-05-20T06:15:00Z,34.87,-86.55,20.3,17.7,,,,10.0,30.050198,,,TRUE,TRUE,,,,,,,OVC,2900,,,,,,,MVFR,,,,,,,,,,,,METAR,221.0
KMDD 200615Z AUTO 04014G19KT 10SM SCT029 BKN050 OVC085 17/15 A3025 RMK AO2 LTG DSNT S THRU W P0001 T01710152,KMDD,2023-05-20T06:15:00Z,32.03,-102.1,17.1,15.2,40,14,19,10.0,30.250984,,,TRUE,TRUE,,,,,,,SCT,2900,BKN,5000,OVC,8500,,,VFR,,,,,,0.01,,,,,,METAR,853.0
KMCJ 200615Z AUTO 25010KT 10SM OVC040 25/21 A3002 RMK A01,KMCJ,2023-05-20T06:15:00Z,29.72,-95.4,25.0,21.0,250,10,,10.0,30.02067,,,TRUE,TRUE,,,,,,,OVC,4000,,,,,,,VFR,,,,,,,,,,,,SPECI,70.0
KMCD 200615Z AUTO 32003KT 5SM -RA OVC003 06/06 A2997 RMK AO2 T00560056 P0001,KMCD,2023-05-20T06:15:00Z,45.85,-84.63,5.6,5.6,320,3,,5.0,29.970472,,,TRUE,TRUE,,,,,,-RA,OVC,300,,,,,,,LIFR,,,,,,0.01,,,,,,SPECI,228.0
KMCC 200615Z AUTO 16009KT 10SM CLR 17/11 A2998 RMK AO2,KMCC,2023-05-20T06:15:00Z,38.67,-121.4,17.0,11.0,160,9,,10.0,29.97933,,,TRUE,TRUE,,,,,,,CLR,,,,,,,,VFR,,,,,,,,,,,,METAR,21.0
KMBY 200615Z AUTO 35004KT 10SM CLR 10/05 A3018 RMK AO2,KMBY,2023-05-20T06:15:00Z,39.47,-92.43,10.0,5.0,350,4,,10.0,30.180119,,,TRUE,TRUE,,,,,,,CLR,,,,,,,,VFR,,,,,,,,,,,,METAR,263.0
KMBT 200615Z AUTO 17003KT 10SM OVC034 20/18 A3001 RMK A01,KMBT,2023-05-20T06:15:00Z,35.88,-86.38,20.0,18.0,170,3,,10.0,30.008858,,,TRUE,TRUE,,,,,,,OVC,3400,,,,,,,VFR,,,,,,,,,,,,SPECI,187.0
KMAW 200615Z AUTO 02010KT 4SM -DZ SCT006 SCT019 OVC039 18/17 A3003 RMK AO1 P0002,KMAW,2023-05-20T06:15:00Z,36.6,-90.0,18.0,17.0,20,10,,4.0,30.029528,,,TRUE,TRUE,,,,,,-DZ,SCT,600,SCT,1900,OVC,3900,,,MVFR,,,,,,0.02,,,,,,METAR,88.0
KMAO 200615Z AUTO 05003KT 10SM OVC013 18/18 A3006 RMK AO2,KMAO,2023-05-20T06:15:00Z,34.18,-79.33,18.0,18.0,50,3,,10.0,30.059055,,,TRUE,TRUE,,,,,,,OVC,1300,,,,,,,MVFR,,,,,,,,,,,,METAR,27.0
KMAN 200615Z AUTO 00000KT 10SM CLR 20/11 A3006 RMK A01,KMAN,2023-05-20T06:15:00Z,43.58,-116.52,20.0,11.0,0,0,,10.0,30.059055,,,TRUE,TRUE,,,,,,,CLR,,,,,,,,VFR,,,,,,,,,,,,SPECI,773.0
KM75 200615Z AUTO VRB03KT 10SM BKN050 16/07 A3002 RMK A01,KM75,2023-05-20T06:15:00Z,48.37,-107.92,16.0,7.0,0,3,,10.0,30.02067,,,TRUE,TRUE,,,,,,,BKN,5000,,,,,,,VFR,,,,,,,,,,,,METAR,687.0
KM40 200615Z AUTO 00000KT 7SM CLR 20/20 A3004 RMK AO2,KM40,2023-05-20T06:15:00Z,33.87,-88.48,20.0,20.0,0,0,,7.0,30.041338,,,TRUE,TRUE,,,,,,,CLR,,,,,,,,VFR,,,,,,,,,,,,METAR,68.0
KM30 200615Z AUTO 32006KT 300V360 7SM OVC006 18/18 A3004 RMK AO2 P0002 T01820177,KM30,2023-05-20T06:15:00Z,37.18,-88.75,18.2,17.7,320,6,,7.0,30.041338,,,TRUE,TRUE,,,,,,,OVC,600,,,,,,,IFR,,,,,,0.02,,,,,,SPECI,116.0
KM25 200615Z AUTO 02005G17KT 10SM BKN006 OVC048 17/17 A3002 RMK AO2 P0001 PWINO,KM25,2023-05-20T06:15:00Z,36.77,-88.58,17.0,17.0,20,5,17,10.0,30.02067,,,TRUE,TRUE,,,,,TRUE,,BKN,600,OVC,4800,,,,,IFR,,,,,,0.01,,,,,,SPECI,157.0
KM08 200615Z AUTO 15007KT 10SM OVC008 21/20 A2999 RMK A01,KM08,2023-05-20T06:15:00Z,35.22,-89.05,21.0,20.0,150,7,,10.0,29.991142,,,TRUE,TRUE,,,,,,,OVC,800,,,,,,,IFR,,,,,,,,,,,,SPECI,149.0
KM02 200615Z AUTO 19005KT 10SM FEW008 FEW025 OVC070 18/18 A3001 RMK A01,KM02,2023-05-20T06:15:00Z,36.13,-87.43,18.0,18.0,190,5,,10.0,30.008858,,,TRUE,TRUE,,,,,,,FEW,800,FEW,2500,OVC,7000,,,VFR,,,,,,,,,,,,SPECI,268.0
KM01 200615Z AUTO 16009KT 8SM FEW049 BKN080 24/22 A2994 RMK AO2 RAE0556 P0000 T02380220 $,KM01,2023-05-20T06:15:00Z,35.2,-90.05,23.8,22.0,160,9,,8.0,29.940945,,,TRUE,TRUE,TRUE,,,,,,FEW,4900,BKN,8000,,,,,VFR,,,,,,0.005,,,,,,METAR,68.0
KLYV 200615Z AUTO 33004KT 10SM CLR 06/02 A3026 RMK AO2,KLYV,2023-05-20T06:15:00Z,43.62,-96.22,6.0,2.0,330,4,,10.0,30.259842,,,TRUE,TRUE,,,,,,,CLR,,,,,,,,VFR,,,,,,,,,,,,METAR,435.0
KLYO 200615Z AUTO 33005KT 10SM CLR 09/06 A3026 RMK AO2 T00930057,KLYO,2023-05-20T06:15:00Z,38.35,-98.23,9.3,5.7,330,5,,10.0,30.259842,,,TRUE,TRUE,,,,,,,CLR,,,,,,,,VFR,,,,,,,,,,,,METAR,515.0
KLXY 200615Z AUTO 31003KT 10SM -DZ SCT120 25/20 A3008 RMK AO2 T02450200,KLXY,2023-05-20T06:15:00Z,31.63,-96.52,24.5,20.0,310,3,,10.0,30.079725,,,TRUE,TRUE,,,,,,-DZ,SCT,12000,,,,,,,VFR,,,,,,,,,,,,SPECI,164.0
KLXN 200615Z AUTO 36004KT 10SM CLR 08/06 A3030 RMK AO2 T00800063,KLXN,2023-05-20T06:15:00Z,40.78,-99.77,8.0,6.3,360,4,,10.0,30.301182,,,TRUE,TRUE,,,,,,,CLR,,,,,,,,VFR,,,,,,,,,,,,METAR,734.0
KLXL 200615Z AUTO 00000KT 10SM CLR 04/04 A3024 RMK AO2,KLXL,2023-05-20T06:15:00Z,45.95,-94.33,4.0,4.0,0,0,,10.0,30.239174,,,TRUE,TRUE,,,,,,,CLR,,,,,,,,VFR,,,,,,,,,,,,SPECI,335.0
KLWB 200615Z AUTO 00000KT 10SM OVC022 13/12 A3013 RMK AO2 T01250117,KLWB,2023-05-20T06:15:00Z,37.87,-80.4,12.5,11.7,0,0,,10.0,30.129921,,,TRUE,TRUE,,,,,,,OVC,2200,,,,,,,MVFR,,,,,,,,,,,,SPECI,702.0
KLWA 200615Z AUTO 33003KT 7SM OVC049 10/09 A3005 RMK AO2 T00950091,KLWA,2023-05-20T06:15:00Z,42.35,-86.25,9.5,9.1,330,3,,7.0,30.050198,,,TRUE,TRUE,,,,,,,OVC,4900,,,,,,,VFR,,,,,,,,,,,,SPECI,199.0
KLVN 200615Z AUTO 00000KT 10SM CLR 07/04 A3024 RMK AO2,KLVN,2023-05-20T06:15:00Z,44.63,-93.23,7.0,4.0,0,0,,10.0,30.239174,,,TRUE,TRUE,,,,,,,CLR,,,,,,,,VFR,,,,,,,,,,,,SPECI,292.0
KLUX 200615Z AUTO 00000KT 10SM OVC007 17/17 A3010 RMK AO2,KLUX,2023-05-20T06:15:00Z,34.5,-81.95,17.0,17.0,0,0,,10.0,30.100393,,,TRUE,TRUE,,,,,,,OVC,700,,,,,,,IFR,,,,,,,,,,,,METAR,213.0
KLUM 200615Z 24004KT 10SM CLR 08/05 A3021 RMK AO2 T00790048 PWINO,KLUM,2023-05-20T06:15:00Z,44.9,-91.87,7.9,4.8,240,4,,10.0,30.209646,,,,TRUE,,,,,TRUE,,CLR,,,,,,,,VFR,,,,,,,,,,,,SPECI,271.0
KLUL 200615Z AUTO 00000KT 10SM CLR 22/ A3004 RMK A02 T0217////,KLUL,2023-05-20T06:15:00Z,31.67,-89.17,21.7,,0,0,,10.0,30.041338,,,TRUE,TRUE,,,,,,,CLR,,,,,,,,VFR,,,,,,,,,,,,METAR,74.0
KLUG 200615Z AUTO 00000KT 10SM FEW019 OVC033 19/18 A3003 RMK A01,KLUG,2023-05-20T06:15:00Z,35.52,-86.8,19.0,18.0,0,0,,10.0,30.029528,,,TRUE,TRUE,,,,,,,FEW,1900,OVC,3300,,,,,VFR,,,,,,,,,,,,SPECI,218.0
KLUD 200615Z AUTO 36004KT 10SM OVC017 19/15 A3015 RMK AO2 T01870153,KLUD,2023-05-20T06:15:00Z,33.25,-97.58,18.7,15.3,360,4,,10.0,30.15059,,,TRUE,TRUE,,,,,,,OVC,1700,,,,,,,MVFR,,,,,,,,,,,,SPECI,319.0
KLUA 200615Z AUTO 00000KT 10SM CLR 09/09 A3011 RMK AO2,KLUA,2023-05-20T06:15:00Z,38.67,-78.5,9.0,9.0,0,0,,10.0,30.109253,,,TRUE,TRUE,,,,,,,CLR,,,,,,,,VFR,,,,,,,,,,,,METAR,273.0
KLRY 200615Z AUTO 01006KT 7SM CLR 08/08 A3022 RMK AO2 PWINO,KLRY,2023-05-20T06:15:00Z,38.62,-94.35,8.0,8.0,10,6,,7.0,30.221457,,,TRUE,TRUE,,,,,TRUE,,CLR,,,,,,,,VFR,,,,,,,,,,,,METAR,272.0
KLRU 200615Z AUTO 34005KT 10SM SCT100 20/10 A3023 RMK AO2 T02000098,KLRU,2023-05-20T06:15:00Z,32.28,-106.92,20.0,9.8,340,5,,10.0,30.230314,,,TRUE,TRUE,,,,,,,SCT,10000,,,,,,,VFR,,,,,,,,,,,,METAR,1355.0
KLRO 200615Z AUTO 00000KT 10SM BKN015 BKN019 OVC037 20/19 A3005 RMK AO2,KLRO,2023-05-20T06:15:00Z,32.9,-79.78,20.0,19.0,0,0,,10.0,30.050198,,,TRUE,TRUE,,,,,,,BKN,1500,BKN,1900,OVC,3700,,,MVFR,,,,,,,,,,,,METAR,3.0
KLRJ 200615Z AUTO 00000KT 10SM CLR 07/05 A3026 RMK AO2,KLRJ,2023-05-20T06:15:00Z,42.77,-96.2,7.0,5.0,0,0,,10.0,30.259842,,,TRUE,TRUE,,,,,,,CLR,,,,,,,,VFR,,,,,,,,,,,,METAR,363.0
KLQK 200615Z AUTO 00000KT 10SM OVC014 15/15 A3011 RMK AO2 T01510151,KLQK,2023-05-20T06:15:00Z,34.82,-82.7,15.1,15.1,0,0,,10.0,30.109253,,,TRUE,TRUE,,,,,,,OVC,1400,,,,,,,MVFR,,,,,,,,,,,,METAR,291.0
KLOT 200615Z AUTO 32006KT 10SM CLR 11/06 A3010 RMK AO2,KLOT,2023-05-20T06:15:00Z,41.6,-88.1,11.0,6.0,320,6,,10.0,30.100393,,,TRUE,TRUE,,,,,,,CLR,,,,,,,,VFR,,,,,,,,,,,,METAR,205.0
KLOM 200615Z AUTO 00000KT 10SM BKN041 BKN046 09/09 A3017 RMK AO2 T00950093,KLOM,2023-05-20T06:15:00Z,40.13,-75.27,9.5,9.3,0,0,,10.0,30.171259,,,TRUE,TRUE,,,,,,,BKN,4100,BKN,4600,,,,,VFR,,,,,,,,,,,,METAR,87.0
KLNQ 200615Z AUTO 00000KT 10SM CLR 25/22 A3002 RMK AO2 T02530223,KLNQ,2023-05-20T06:15:00Z,29.35,-89.43,25.3,22.3,0,0,,10.0,30.02067,,,TRUE,TRUE,,,,,,,CLR,,,,,,,,VFR,,,,,,,,,,,,METAR,1.0
KLNP 200615Z AUTO 17004KT 10SM BKN085 15/12 A3012 RMK AO2,KLNP,2023-05-20T06:15:00Z,36.98,-82.52,15.0,12.0,170,4,,10.0,30.121063,,,TRUE,TRUE,,,,,,,BKN,8500,,,,,,,VFR,,,,,,,,,,,,METAR,817.0
KLNN 200615Z AUTO 00000KT 2 1/2SM OVC009 15/14 A2994 RMK AO1 P0003 T01470135,KLNN,2023-05-20T06:15:00Z,41.68,-81.38,14.7,13.5,0,0,,2.5,29.940945,,,TRUE,TRUE,,,,,,,OVC,900,,,,,,,IFR,,,,,,0.03,,,,,,METAR,190.0
KLNL 200615Z AUTO 00000KT 10SM CLR 04/04 A3017 RMK AO2 T00360036,KLNL,2023-05-20T06:15:00Z,46.15,-89.22,3.6,3.6,0,0,,10.0,30.171259,,,TRUE,TRUE,,,,,,,CLR,,,,,,,,VFR,,,,,,,,,,,,SPECI,517.0
KLNC 200615Z AUTO 33003KT 10SM OVC055 22/20 A3009 RMK AO2 T02220200,KLNC,2023-05-20T06:15:00Z,32.58,-96.72,22.2,20.0,330,3,,10.0,30.088583,,,TRUE,TRUE,,,,,,,OVC,5500,,,,,,,VFR,,,,,,,,,,,,SPECI,152.0
KLNA 200615Z AUTO 14004KT 10SM SCT022 27/24 A2999 RMK AO2 T02700236,KLNA,2023-05-20T06:15:00Z,26.6,-80.08,27.0,23.6,140,4,,10.0,29.991142,,,TRUE,TRUE,,,,,,,SCT,2200,,,,,,,VFR,,,,,,,,,,,,SPECI,3.0
KLMS 200615Z AUTO 16009KT 5SM BR OVC004 21/21 A3005 RMK AO2,KLMS,2023-05-20T06:15:00Z,,,21.0,21.0,160,9,,5.0,30.050198,,,TRUE,TRUE,,,,,,BR,OVC,400,,,,,,,LIFR,,,,,,,,,,,,SPECI,
KLMO 200615Z AUTO 00000KT 4SM HZ SCT033 OVC042 12/10 A3034 RMK AO2 T01220096,KLMO,2023-05-20T06:15:00Z,40.17,-105.17,12.2,9.6,0,0,,4.0,30.339567,,,TRUE,TRUE,,,,,,HZ,SCT,3300,OVC,4200,,,,,MVFR,,,,,,,,,,,,METAR,1535.0
KLLN 200615Z AUTO 05018G23KT 6SM HZ BKN014 OVC019 14/11 A3032 RMK AO2,KLLN,2023-05-20T06:15:00Z,33.55,-102.37,14.0,11.0,50,18,23,6.0,30.318897,,,TRUE,TRUE,,,,,,HZ,BKN,1400,OVC,1900,,,,,MVFR,,,,,,,,,,,,METAR,1071.0
KLKU 200615Z AUTO 00000KT 7SM CLR 11/11 A3011 RMK AO2 T01110109,KLKU,2023-05-20T06:15:00Z,38.02,-77.97,11.1,10.9,0,0,,7.0,30.109253,,,TRUE,TRUE,,,,,,,CLR,,,,,,,,VFR,,,,,,,,,,,,METAR,146.0
KLKR 200615Z AUTO 00000KT 10SM OVC008 18/17 A3009 RMK AO2,KLKR,2023-05-20T06:15:00Z,34.72,-80.85,18.0,17.0,0,0,,10.0,30.088583,,,TRUE,TRUE,,,,,,,OVC,800,,,,,,,IFR,,,,,,,,,,,,METAR,166.0
KLJF 200615Z AUTO 00000KT 10SM CLR 08/03 A3025 RMK AO2,KLJF,2023-05-20T06:15:00Z,45.1,-94.52,8.0,3.0,0,0,,10.0,30.250984,,,TRUE,TRUE,,,,,,,CLR,,,,,,,,VFR,,,,,,,,,,,,SPECI,347.0
KLHM 200615Z AUTO 16007KT 10SM CLR 18/11 A2997 RMK AO1,KLHM,2023-05-20T06:15:00Z,38.92,-121.35,18.0,11.0,160,7,,10.0,29.970472,,,TRUE,TRUE,,,,,,,CLR,,,,,,,,VFR,,,,,,,,,,,,METAR,36.0
KLHB 200615Z AUTO 31007G16KT 10SM VCTS SCT035 SCT047 BKN110 24/22 A3010 RMK AO2 LTG DSNT SW THRU NW T02410215,KLHB,2023-05-20T06:15:00Z,30.87,-96.62,24.1,21.5,310,7,16,10.0,30.100393,,,TRUE,TRUE,,,,,,VCTS,SCT,3500,SCT,4700,BKN,11000,,,VFR,,,,,,,,,,,,METAR,83.0
KLGC 200615Z AUTO 00000KT 10SM OVC027 18/17 A3008 RMK AO2 T01840171,KLGC,2023-05-20T06:15:00Z,33.0,-85.07,18.4,17.1,0,0,,10.0,30.079725,,,TRUE,TRUE,,,,,,,OVC,2700,,,,,,,MVFR,,,,,,,,,,,,METAR,209.0
KLDM 200615Z AUTO 34009KT 10SM OVC013 09/07 A3005 RMK AO2 T00910065,KLDM,2023-05-20T06:15:00Z,43.97,-86.4,9.1,6.5,340,9,,10.0,30.050198,,,TRUE,TRUE,,,,,,,OVC,1300,,,,,,,MVFR,,,,,,,,,,,,SPECI,194.0
KLCQ 200615Z AUTO 00000KT 10SM CLR 19/18 A3003 RMK AO2,KLCQ,2023-05-20T06:15:00Z,30.18,-82.58,19.0,18.0,0,0,,10.0,30.029528,,,TRUE,TRUE,,,,,,,CLR,,,,,,,,VFR,,,,,,,,,,,,METAR,59.0
KLCG 200615Z AUTO 00000KT 10SM CLR 04/02 A3028 RMK AO2 T00380015,KLCG,2023-05-20T06:15:00Z,42.25,-96.98,3.8,1.5,0,0,,10.0,30.280512,,,TRUE,TRUE,,,,,,,CLR,,,,,,,,VFR,,,,,,,,,,,,METAR,434.0
KLBO 200615Z AUTO 36004KT 10SM OVC050 12/11 A3016 RMK AO2,KLBO,2023-05-20T06:15:00Z,37.65,-92.65,12.0,11.0,360,4,,10.0,30.159449,,,TRUE,TRUE,,,,,,,OVC,5000,,,,,,,VFR,,,,,,,,,,,,METAR,399.0
KLBE 200615Z AUTO 00000KT 10SM CLR 17/11 A3002 RMK AO2,KLBE,2023-05-20T06:15:00Z,40.27,-79.4,17.0,11.0,0,0,,10.0,30.02067,,,TRUE,TRUE,,,,,,,CLR,,,,,,,,VFR,,,,,,,,,,,,SPECI,345.0
KLAM 200615Z AUTO 21007KT 9SM OVC014 10/07 A3042 RMK AO2 T00970070 $,KLAM,2023-05-20T06:15:00Z,35.87,-106.27,9.7,7.0,210,7,,9.0,30.41929,,,TRUE,TRUE,TRUE,,,,,,OVC,1400,,,,,,,MVFR,,,,,,,,,,,,METAR,2166.0
KLAL 200615Z AUTO 06003KT 10SM CLR 23/23 A2999 RMK AO2 T02300225,KLAL,2023-05-20T06:15:00Z,27.98,-82.02,23.0,22.5,60,3,,10.0,29.991142,,,TRUE,TRUE,,,,,,,CLR,,,,,,,,VFR,,,,,,,,,,,,METAR,39.0
KL35 200615Z AUTO 00000KT 10SM CLR 07/01 A3030 RMK AO2,KL35,2023-05-20T06:15:00Z,34.27,-116.85,7.0,1.0,0,0,,10.0,30.301182,,,TRUE,TRUE,,,,,,,CLR,,,,,,,,VFR,,,,,,,,,,,,SPECI,2062.0
KL18 200615Z AUTO 00000KT 10SM OVC007 14/14 A3009 RMK AO2,KL18,2023-05-20T06:15:00Z,33.35,-117.25,14.0,14.0,0,0,,10.0,30.088583,,,TRUE,TRUE,,,,,,,OVC,700,,,,,,,IFR,,,,,,,,,,,,SPECI,215.0
KL08 200615Z AUTO 02005KT 10SM FEW039 FEW050 FEW120 30/09 A2994 RMK AO2,KL08,2023-05-20T06:15:00Z,33.27,-116.32,30.0,9.0,20,5,,10.0,29.940945,,,TRUE,TRUE,,,,,,,FEW,3900,FEW,5000,FEW,12000,,,VFR,,,,,,,,,,,,SPECI,156.0
KKY8 200615Z AUTO 02004KT 10SM FEW038 FEW044 OVC055 18/18 A3001 RMK A01,KKY8,2023-05-20T06:15:00Z,37.95,-86.87,18.0,18.0,20,4,,10.0,30.008858,,,TRUE,TRUE,,,,,,,FEW,3800,FEW,4400,OVC,5500,,,VFR,,,,,,,,,,,,METAR,124.0
KKNB 200615Z AUTO 00000KT 10SM FEW110 13/07 A3025 RMK A01,KKNB,2023-05-20T06:15:00Z,37.02,-112.53,13.0,7.0,0,0,,10.0,30.250984,,,TRUE,TRUE,,,,,,,FEW,11000,,,,,,,VFR,,,,,,,,,,,,METAR,1476.0
KK88 200615Z AUTO 00000KT 7SM CLR 09/08 A3021 RMK AO1 T00880084,KK88,2023-05-20T06:15:00Z,37.87,-95.38,8.8,8.4,0,0,,7.0,30.209646,,,TRUE,TRUE,,,,,,,CLR,,,,,,,,VFR,,,,,,,,,,,,METAR,308.0
KK82 200615Z AUTO 06007KT 10SM CLR 10/04 A3029 RMK AO2 T01030044,KK82,2023-05-20T06:15:00Z,39.77,-98.8,10.3,4.4,60,7,,10.0,30.28937,,,TRUE,TRUE,,,,,,,CLR,,,,,,,,VFR,,,,,,,,,,,,SPECI,548.0
KK70 200615Z AUTO 00000KT 10SM CLR 24/22 A2996 RMK AO2,KK70,2023-05-20T06:15:00Z,25.32,-80.28,24.0,22.0,0,0,,10.0,29.958662,,,TRUE,TRUE,,,,,,,CLR,,,,,,,,VFR,,,,,,,,,,,,SPECI,20.0
KJZP 200615Z AUTO 13008KT 10SM OVC016 18/16 A3010 RMK AO2 T01820162,KJZP,2023-05-20T06:15:00Z,34.45,-84.47,18.2,16.2,130,8,,10.0,30.100393,,,TRUE,TRUE,,,,,,,OVC,1600,,,,,,,MVFR,,,,,,,,,,,,METAR,462.0
KJZI 200615Z AUTO 30003KT 10SM FEW014 FEW031 OVC039 19/19 A3005 RMK AO2,KJZI,2023-05-20T06:15:00Z,32.7,-80.0,19.0,19.0,300,3,,10.0,30.050198,,,TRUE,TRUE,,,,,,,FEW,1400,FEW,3100,OVC,3900,,,VFR,,,,,,,,,,,,METAR,5.0
KJYR 200615Z AUTO 00000KT 10SM CLR 06/03 A3028 RMK AO2,KJYR,2023-05-20T06:15:00Z,40.9,-97.62,6.0,3.0,0,0,,10.0,30.280512,,,TRUE,TRUE,,,,,,,CLR,,,,,,,,VFR,,,,,,,,,,,,METAR,508.0
KJYO 200615Z AUTO 00000KT 10SM CLR 16/13 A3014 RMK AO2,KJYO,2023-05-20T06:15:00Z,39.07,-77.57,16.0,13.0,0,0,,10.0,30.138779,,,TRUE,TRUE,,,,,,,CLR,,,,,,,,VFR,,,,,,,,,,,,SPECI,112.0
KJYM 200615Z AUTO 33005KT 7SM SCT050 SCT075 OVC090 12/11 A2999 RMK AO2 T01220111,KJYM,2023-05-20T06:15:00Z,41.92,-84.58,12.2,11.1,330,5,,7.0,29.991142,,,TRUE,TRUE,,,,,,,SCT,5000,SCT,7500,OVC,9000,,,VFR,,,,,,,,,,,,SPECI,357.0
KJYL 200615Z AUTO 00000KT 10SM OVC024 20/19 A3008 RMK AO2 T01950187,KJYL,2023-05-20T06:15:00Z,32.65,-81.6,19.5,18.7,0,0,,10.0,30.079725,,,TRUE,TRUE,,,,,,,OVC,2400,,,,,,,MVFR,,,,,,,,,,,,SPECI,54.0
KJYG 200615Z AUTO 00000KT 10SM CLR 07/05 A3024 RMK AO2 TSNO,KJYG,2023-05-20T06:15:00Z,43.98,-94.55,7.0,5.0,0,0,,10.0,30.239174,,,TRUE,TRUE,,,TRUE,,,,CLR,,,,,,,,VFR,,,,,,,,,,,,SPECI,323.0
KJWY 200615Z AUTO 32005KT 10SM OVC060 22/20 A3011 RMK AO2 T02180201,KJWY,2023-05-20T06:15:00Z,32.45,-96.92,21.8,20.1,320,5,,10.0,30.109253,,,TRUE,TRUE,,,,,,,OVC,6000,,,,,,,VFR,,,,,,,,,,,,METAR,211.0
KJWN 200615Z AUTO 00000KT 10SM OVC038 20/18 A3000 RMK AO2,KJWN,2023-05-20T06:15:00Z,36.18,-86.88,20.0,18.0,0,0,,10.0,30.0,,,TRUE,TRUE,,,,,,,OVC,3800,,,,,,,VFR,,,,,,,,,,,,SPECI,149.0
KJWG 200615Z AUTO 34005KT 7SM BR CLR 11/10 A3027 RMK AO2 T01120100,KJWG,2023-05-20T06:15:00Z,35.87,-98.42,11.2,10.0,340,5,,7.0,30.268702,,,TRUE,TRUE,,,,,,BR,CLR,,,,,,,,VFR,,,,,,,,,,,,SPECI,469.0
KJVY 200615Z AUTO 00000KT 7SM RA BKN007 BKN013 17/17 A2998 RMK AO2 P0001,KJVY,2023-05-20T06:15:00Z,38.37,-85.73,17.0,17.0,0,0,,7.0,29.97933,,,TRUE,TRUE,,,,,,RA,BKN,700,BKN,1300,,,,,IFR,,,,,,0.01,,,,,,SPECI,141.0
KJVL 200615Z AUTO 33004KT 10SM CLR 08/05 A3012 RMK AO2,KJVL,2023-05-20T06:15:00Z,42.62,-89.05,8.0,5.0,330,4,,10.0,30.121063,,,TRUE,TRUE,,,,,,,CLR,,,,,,,,VFR,,,,,,,,,,,,METAR,244.0
KJTC 200615Z AUTO 23005KT 10SM CLR 08/07 A3038 RMK AO2,KJTC,2023-05-20T06:15:00Z,34.13,-109.32,8.0,7.0,230,5,,10.0,30.380905,,,TRUE,TRUE,,,,,,,CLR,,,,,,,,VFR,,,,,,,,,,,,METAR,2148.0
KJSV 200615Z AUTO 36007G13KT 2 1/2SM UP BR OVC012 17/16 A3012 RMK AO2 VIS 2V3,KJSV,2023-05-20T06:15:00Z,35.43,-94.8,17.0,16.0,360,7,13,2.5,30.121063,,,TRUE,TRUE,,,,,,BR UP,OVC,1200,,,,,,,IFR,,,,,,,,,,,,METAR,158.0
KJSO 200615Z AUTO 27003KT 10SM SCT060 25/20 A3006 RMK AO2 T02520198 TSNO,KJSO,2023-05-20T06:15:00Z,31.87,-95.22,25.2,19.8,270,3,,10.0,30.059055,,,TRUE,TRUE,,,TRUE,,,,SCT,6000,,,,,,,VFR,,,,,,,,,,,,SPECI,204.0
KJRO 200615Z AUTO 00000KT 7SM SCT075 SCT085 SCT110 15/14 A2999 RMK AO2,KJRO,2023-05-20T06:15:00Z,38.98,-82.58,15.0,14.0,0,0,,7.0,29.991142,,,TRUE,TRUE,,,,,,,SCT,7500,SCT,8500,SCT,11000,,,VFR,,,,,,,,,,,,METAR,224.0
KJPX 200615Z AUTO 00000KT 10SM OVC050 10/10 A3022 RMK AO2 T01030102,KJPX,2023-05-20T06:15:00Z,40.95,-72.25,10.3,10.2,0,0,,10.0,30.221457,,,TRUE,TRUE,,,,,,,OVC,5000,,,,,,,VFR,,,,,,,,,,,,SPECI,10.0
KJOT 200615Z AUTO 00000KT 10SM CLR 11/06 A3009 RMK AO2 T01130055,KJOT,2023-05-20T06:15:00Z,41.52,-88.18,11.3,5.5,0,0,,10.0,30.088583,,,TRUE,TRUE,,,,,,,CLR,,,,,,,,VFR,,,,,,,,,,,,SPECI,175.0
KJMR 200615Z AUTO 00000KT 10SM CLR 05/03 A3027 RMK AO2,KJMR,2023-05-20T06:15:00Z,45.88,-93.27,5.0,3.0,0,0,,10.0,30.268702,,,TRUE,TRUE,,,,,,,CLR,,,,,,,,VFR,,,,,,,,,,,,METAR,301.0
KJKJ 200615Z AUTO 22004KT 10SM CLR 09/03 A3025 RMK AO2 TSNO,KJKJ,2023-05-20T06:15:00Z,46.83,-96.67,9.0,3.0,220,4,,10.0,30.250984,,,TRUE,TRUE,,,TRUE,,,,CLR,,,,,,,,VFR,,,,,,,,,,,,METAR,280.0
KJKA 200615Z AUTO 00000KT 10SM SCT015 SCT021 23/22 A3001 RMK AO2,KJKA,2023-05-20T06:15:00Z,30.28,-87.67,23.0,22.0,0,0,,10.0,30.008858,,,TRUE,TRUE,,,,,,,SCT,1500,SCT,2100,,,,,VFR,,,,,,,,,,,,METAR,5.0
KJHN 200615Z AUTO 25003KT 7SM CLR 11/10 A3034 RMK AO2 T01050096,KJHN,2023-05-20T06:15:00Z,37.58,-101.73,10.5,9.6,250,3,,7.0,30.339567,,,TRUE,TRUE,,,,,,,CLR,,,,,,,,VFR,,,,,,,,,,,,SPECI,1013.0
KJFZ 200615Z AUTO 14007KT 10SM CLR 15/14 A3012 RMK AO2 T01500136,KJFZ,2023-05-20T06:15:00Z,37.07,-81.8,15.0,13.6,140,7,,10.0,30.121063,,,TRUE,TRUE,,,,,,,CLR,,,,,,,,VFR,,,,,,,,,,,,METAR,809.0
KJFX 200615Z AUTO 00000KT 10SM FEW011 OVC019 20/20 A3006 RMK AO2,KJFX,2023-05-20T06:15:00Z,33.9,-87.32,20.0,20.0,0,0,,10.0,30.059055,,,TRUE,TRUE,,,,,,,FEW,1100,OVC,1900,,,,,MVFR,,,,,,,,,,,,SPECI,144.0
KJDD 200615Z AUTO 34004KT 10SM BKN060 23/20 A3004 RMK AO2,KJDD,2023-05-20T06:15:00Z,32.75,-95.5,23.0,20.0,340,4,,10.0,30.041338,,,TRUE,TRUE,,,,,,,BKN,6000,,,,,,,VFR,,,,,,,,,,,,METAR,127.0
KJAS 200615Z AUTO 00000KT 9SM FEW036 SCT044 23/23 A3002 RMK AO2,KJAS,2023-05-20T06:15:00Z,30.88,-94.03,23.0,23.0,0,0,,9.0,30.02067,,,TRUE,TRUE,,,,,,,FEW,3600,SCT,4400,,,,,VFR,,,,,,,,,,,,METAR,60.0
KJAQ 200615Z AUTO 24005KT 10SM CLR 18/09 A3005 RMK AO1 T01750090,KJAQ,2023-05-20T06:15:00Z,38.37,-120.8,17.5,9.0,240,5,,10.0,30.050198,,,TRUE,TRUE,,,,,,,CLR,,,,,,,,VFR,,,,,,,,,,,,SPECI,518.0
KIZA 200615Z AUTO 27003KT 6SM BR 12/12 A3008 RMK AO2,KIZA,2023-05-20T06:15:00Z,34.6,-120.07,12.0,12.0,270,3,,6.0,30.079725,,,TRUE,TRUE,,,,,,BR,,,,,,,,,,,,,,,,,,,,,METAR,200.0
KIYA 200615Z AUTO 00000KT 10SM CLR 24/21 A3000 RMK AO2 T02360207,KIYA,2023-05-20T06:15:00Z,29.98,-92.08,23.6,20.7,0,0,,10.0,30.0,,,TRUE,TRUE,,,,,,,CLR,,,,,,,,VFR,,,,,,,,,,,,SPECI,4.0
KIWA 200615Z AUTO 33015KT 10SM CLR 25/09 A3004 RMK AO2 T02550095,KIWA,2023-05-20T06:15:00Z,33.3,-111.65,25.5,9.5,330,15,,10.0,30.041338,,,TRUE,TRUE,,,,,,,CLR,,,,,,,,VFR,,,,,,,,,,,,METAR,420.0
KIUA 200615Z AUTO 18006KT 10SM CLR 17/10 A2999 RMK AO2 T01650096,KIUA,2023-05-20T06:15:00Z,42.92,-77.33,16.5,9.6,180,6,,10.0,29.991142,,,TRUE,TRUE,,,,,,,CLR,,,,,,,,VFR,,,,,,,,,,,,METAR,248.0
KISQ 200615Z AUTO 34008KT 10SM -DZ OVC005 09/08 A3001 RMK AO2 T00850075 P0001,KISQ,2023-05-20T06:15:00Z,45.97,-86.17,8.5,7.5,340,8,,10.0,30.008858,,,TRUE,TRUE,,,,,,-DZ,OVC,500,,,,,,,IFR,,,,,,0.01,,,,,,SPECI,206.0
KIRS 200615Z AUTO 33006KT 10SM CLR 11/07 A3002 RMK AO2 T01130074,KIRS,2023-05-20T06:15:00Z,41.8,-85.43,11.3,7.4,330,6,,10.0,30.02067,,,TRUE,TRUE,,,,,,,CLR,,,,,,,,VFR,,,,,,,,,,,,SPECI,282.0
KIOB 200615Z AUTO 25005KT 10SM SCT035 OVC042 19/16 A3002 RMK AO2 PWINO,KIOB,2023-05-20T06:15:00Z,38.05,-83.98,19.0,16.0,250,5,,10.0,30.02067,,,TRUE,TRUE,,,,,TRUE,,SCT,3500,OVC,4200,,,,,VFR,,,,,,,,,,,,SPECI,301.0
KINJ 200615Z AUTO 30008KT 10SM RA SCT075 SCT100 BKN120 20/20 A3011 RMK AO2 P0001 T02020202,KINJ,2023-05-20T06:15:00Z,32.08,-97.1,20.2,20.2,300,8,,10.0,30.109253,,,TRUE,TRUE,,,,,,RA,SCT,7500,SCT,10000,BKN,12000,,,VFR,,,,,,0.01,,,,,,SPECI,208.0
KINF 200615Z AUTO 05004KT 5SM BR OVC005 22/22 A3002 RMK AO2,KINF,2023-05-20T06:15:00Z,28.8,-82.32,22.0,22.0,50,4,,5.0,30.02067,,,TRUE,TRUE,,,,,,BR,OVC,500,,,,,,,IFR,,,,,,,,,,,,SPECI,14.0
KIMS 200615Z AUTO 00000KT 5SM -RA SCT039 BKN075 OVC110 16/16 A3002 RMK AO2 P0001,KIMS,2023-05-20T06:15:00Z,38.75,-85.47,16.0,16.0,0,0,,5.0,30.02067,,,TRUE,TRUE,,,,,,-RA,SCT,3900,BKN,7500,OVC,11000,,,MVFR,,,,,,0.01,,,,,,SPECI,244.0
KIMM 200615Z AUTO 00000KT 8SM SCT055 33/33 A2997 RMK AO2,KIMM,2023-05-20T06:15:00Z,26.43,-81.4,33.0,33.0,0,0,,8.0,29.970472,,,TRUE,TRUE,,,,,,,SCT,5500,,,,,,,VFR,,,,,,,,,,,,SPECI,11.0
KIKW 200615Z AUTO 00000KT 10SM CLR 07/07 A2999 RMK AO2 T00700065,KIKW,2023-05-20T06:15:00Z,43.67,-84.27,7.0,6.5,0,0,,10.0,29.991142,,,TRUE,TRUE,,,,,,,CLR,,,,,,,,VFR,,,,,,,,,,,,SPECI,190.0
KIKV 200615Z AUTO 35006KT 10SM CLR 09/04 A3023 RMK AO2,KIKV,2023-05-20T06:15:00Z,41.68,-93.57,9.0,4.0,350,6,,10.0,30.230314,,,TRUE,TRUE,,,,,,,CLR,,,,,,,,VFR,,,,,,,,,,,,METAR,270.0
KIKK 200615Z AUTO 35003KT 10SM CLR 10/06 A3009 RMK AO2 T01020060 PWINO,KIKK,2023-05-20T06:15:00Z,41.07,-87.85,10.2,6.0,350,3,,10.0,30.088583,,,TRUE,TRUE,,,,,TRUE,,CLR,,,,,,,,VFR,,,,,,,,,,,,METAR,188.0
KIKG 200615Z AUTO 11003KT 10SM CLR 24/22 A3003 RMK AO2 T02360223,KIKG,2023-05-20T06:15:00Z,27.55,-98.03,23.6,22.3,110,3,,10.0,30.029528,,,TRUE,TRUE,,,,,,,CLR,,,,,,,,VFR,,,,,,,,,,,,METAR,37.0
KIJX 200615Z AUTO 33004KT 10SM CLR 11/07 A3012 RMK AO2 T01050072,KIJX,2023-05-20T06:15:00Z,39.77,-90.25,10.5,7.2,330,4,,10.0,30.121063,,,TRUE,TRUE,,,,,,,CLR,,,,,,,,VFR,,,,,,,,,,,,METAR,187.0
KIIY 200615Z AUTO 00000KT 10SM OVC027 18/17 A3010 RMK AO2 T01820173,KIIY,2023-05-20T06:15:00Z,33.78,-82.82,18.2,17.3,0,0,,10.0,30.100393,,,TRUE,TRUE,,,,,,,OVC,2700,,,,,,,MVFR,,,,,,,,,,,,METAR,192.0
KIIB 200615Z AUTO 33007KT 10SM CLR 07/04 A3021 RMK AO2 T00680043,KIIB,2023-05-20T06:15:00Z,42.45,-91.95,6.8,4.3,330,7,,10.0,30.209646,,,TRUE,TRUE,,,,,,,CLR,,,,,,,,VFR,,,,,,,,,,,,METAR,294.0
KIGQ 200615Z AUTO 00000KT 10SM CLR 08/07 A3008 RMK AO2 T00840065,KIGQ,2023-05-20T06:15:00Z,41.53,-87.53,8.4,6.5,0,0,,10.0,30.079725,,,TRUE,TRUE,,,,,,,CLR,,,,,,,,VFR,,,,,,,,,,,,SPECI,187.0
KIFP 200615Z AUTO 14005KT 10SM CLR 28/12 A2997 RMK AO2,KIFP,2023-05-20T06:15:00Z,35.15,-114.57,28.0,12.0,140,5,,10.0,29.970472,,,TRUE,TRUE,,,,,,,CLR,,,,,,,,VFR,,,,,,,,,,,,METAR,210.0
KIFA 200615Z AUTO 32005KT 10SM CLR 07/05 A3023 RMK AO2 T00670047,KIFA,2023-05-20T06:15:00Z,42.47,-93.27,6.7,4.7,320,5,,10.0,30.230314,,,TRUE,TRUE,,,,,,,CLR,,,,,,,,VFR,,,,,,,,,,,,SPECI,344.0
KIER 200615Z AUTO 00000KT 10SM CLR 22/22 A3001 RMK AO2 T02240215,KIER,2023-05-20T06:15:00Z,31.73,-93.1,22.4,21.5,0,0,,10.0,30.008858,,,TRUE,TRUE,,,,,,,CLR,,,,,,,,VFR,,,,,,,,,,,,SPECI,35.0
KIDP 200615Z AUTO 00000KT 7SM CLR 10/09 A3022 RMK AO2 T00960089,KIDP,2023-05-20T06:15:00Z,37.17,-95.78,9.6,8.9,0,0,,7.0,30.221457,,,TRUE,TRUE,,,,,,,CLR,,,,,,,,VFR,,,,,,,,,,,,METAR,252.0
KIDI 200615Z AUTO 17010KT 10SM CLR 16/11 A3006 RMK A01,KIDI,2023-05-20T06:15:00Z,40.63,-79.1,16.0,11.0,170,10,,10.0,30.059055,,,TRUE,TRUE,,,,,,,CLR,,,,,,,,VFR,,,,,,,,,,,,SPECI,425.0
KICL 200615Z AUTO 01005KT 10SM CLR 08/05 A3026 RMK AO2,KICL,2023-05-20T06:15:00Z,40.72,-95.02,8.0,5.0,10,5,,10.0,30.259842,,,TRUE,TRUE,,,,,,,CLR,,,,,,,,VFR,,,,,,,,,,,,METAR,299.0
KIBM 200615Z AUTO 18006KT 7SM CLR 08/06 A3034 RMK AO2 T00770061,KIBM,2023-05-20T06:15:00Z,41.18,-103.68,7.7,6.1,180,6,,7.0,30.339567,,,TRUE,TRUE,,,,,,,CLR,,,,,,,,VFR,,,,,,,,,,,,METAR,1494.0
KI95 200615Z AUTO 26007KT 5SM BR BKN033 BKN050 OVC065 16/16 A2996 RMK A01,KI95,2023-05-20T06:15:00Z,,,16.0,16.0,260,7,,5.0,29.958662,,,TRUE,TRUE,,,,,,BR,BKN,3300,BKN,5000,OVC,6500,,,MVFR,,,,,,,,,,,,METAR,
KI75 200615Z AUTO 32004KT 7SM CLR 08/05 A3022 RMK AO2 T00760050,KI75,2023-05-20T06:15:00Z,41.05,-93.68,7.6,5.0,320,4,,7.0,30.221457,,,TRUE,TRUE,,,,,,,CLR,,,,,,,,VFR,,,,,,,,,,,,METAR,336.0
KI74 200615Z AUTO 00000KT 10SM DZ BKN012 BKN017 OVC070 16/16 A2999 RMK AO2,KI74,2023-05-20T06:15:00Z,40.12,-83.75,16.0,16.0,0,0,,10.0,29.991142,,,TRUE,TRUE,,,,,,DZ,BKN,1200,BKN,1700,OVC,7000,,,MVFR,,,,,,,,,,,,SPECI,322.0
KI68 200615Z AUTO 31003KT 18/16 A2999 RMK AO1 T01760155 PWINO,KI68,2023-05-20T06:15:00Z,39.47,-84.25,17.6,15.5,310,3,,,29.991142,,,TRUE,TRUE,,,,,TRUE,,,,,,,,,,,,,,,,,,,,,,METAR,274.0
KI67 200615Z AUTO 00000KT 10SM SCT043 OVC050 17/15 A2999 RMK AO1,KI67,2023-05-20T06:15:00Z,39.25,-84.78,17.0,15.0,0,0,,10.0,29.991142,,,TRUE,TRUE,,,,,,,SCT,4300,OVC,5000,,,,,VFR,,,,,,,,,,,,SPECI,177.0
KI63 200615Z AUTO 35009KT 10SM CLR 11/05 A3013 RMK AO2 T01060052,KI63,2023-05-20T06:15:00Z,39.98,-90.8,10.6,5.2,350,9,,10.0,30.129921,,,TRUE,TRUE,,,,,,,CLR,,,,,,,,VFR,,,,,,,,,,,,METAR,221.0
KI23 200615Z AUTO 32006KT 10SM CLR 17/15 A2998 RMK AO1,KI23,2023-05-20T06:15:00Z,39.57,-83.42,17.0,15.0,320,6,,10.0,29.97933,,,TRUE,TRUE,,,,,,,CLR,,,,,,,,VFR,,,,,,,,,,,,SPECI,298.0
KI19 200615Z AUTO 00000KT 10SM BKN055 OVC065 17/16 A2997 RMK AO2,KI19,2023-05-20T06:15:00Z,39.7,-83.98,17.0,16.0,0,0,,10.0,29.970472,,,TRUE,TRUE,,,,,,,BKN,5500,OVC,6500,,,,,VFR,,,,,,,,,,,,SPECI,285.0
KHZX 200615Z AUTO 00000KT 10SM CLR 04/02 A3022 RMK AO2,KHZX,2023-05-20T06:15:00Z,46.62,-93.32,4.0,2.0,0,0,,10.0,30.221457,,,TRUE,TRUE,,,,,,,CLR,,,,,,,,VFR,,,,,,,,,,,,SPECI,374.0
KHZL 200615Z AUTO 00000KT CLR 12/08 A3018 RMK AO2 PWINO,KHZL,2023-05-20T06:15:00Z,40.98,-76.0,12.0,8.0,0,0,,,30.180119,,,TRUE,TRUE,,,,,TRUE,,CLR,,,,,,,,,,,,,,,,,,,,METAR,481.0
KHZE 200615Z AUTO 17009KT 10SM CLR 07/03 A3023 RMK AO2,KHZE,2023-05-20T06:15:00Z,47.28,-101.58,7.0,3.0,170,9,,10.0,30.230314,,,TRUE,TRUE,,,,,,,CLR,,,,,,,,VFR,,,,,,,,,,,,METAR,542.0
KHZD 200615Z AUTO 20006KT 9SM FEW031 SCT065 BKN075 21/20 A2999 RMK A01,KHZD,2023-05-20T06:15:00Z,36.08,-88.47,21.0,20.0,200,6,,9.0,29.991142,,,TRUE,TRUE,,,,,,,FEW,3100,SCT,6500,BKN,7500,,,VFR,,,,,,,,,,,,SPECI,147.0
KHYX 200615Z AUTO 31004KT 10SM CLR 10/09 A2998 RMK AO2 T00950085,KHYX,2023-05-20T06:15:00Z,43.43,-83.87,9.5,8.5,310,4,,10.0,29.97933,,,TRUE,TRUE,,,,,,,CLR,,,,,,,,VFR,,,,,,,,,,,,SPECI,181.0
KHYW 200615Z AUTO 00000KT 10SM OVC008 18/17 A3005 RMK AO2,KHYW,2023-05-20T06:15:00Z,33.83,-79.12,18.0,17.0,0,0,,10.0,30.050198,,,TRUE,TRUE,,,,,,,OVC,800,,,,,,,IFR,,,,,,,,,,,,METAR,10.0
KHXD 200615Z AUTO 04009KT 10SM FEW012 OVC034 21/19 A3004 RMK AO2,KHXD,2023-05-20T06:15:00Z,32.22,-80.7,21.0,19.0,40,9,,10.0,30.041338,,,TRUE,TRUE,,,,,,,FEW,1200,OVC,3400,,,,,VFR,,,,,,,,,,,,METAR,5.0
KHWY 200615Z AUTO 00000KT 10SM CLR 11/10 A3012 RMK AO2 T01120098,KHWY,2023-05-20T06:15:00Z,38.58,-77.72,11.2,9.8,0,0,,10.0,30.121063,,,TRUE,TRUE,,,,,,,CLR,,,,,,,,VFR,,,,,,,,,,,,SPECI,93.0
KHVS 200615Z AUTO 00000KT 10SM BKN008 OVC011 18/17 A3007 RMK AO2,KHVS,2023-05-20T06:15:00Z,34.4,-80.12,18.0,17.0,0,0,,10.0,30.070866,,,TRUE,TRUE,,,,,,,BKN,800,OVC,1100,,,,,IFR,,,,,,,,,,,,METAR,110.0
KHVE 200615Z AUTO 15011G16KT 10SM OVC100 20/06 A3022 RMK AO2,KHVE,2023-05-20T06:15:00Z,38.42,-110.7,20.0,6.0,150,11,16,10.0,30.221457,,,TRUE,TRUE,,,,,,,OVC,10000,,,,,,,VFR,,,,,,,,,,,,METAR,1351.0
KHVC 200615Z AUTO 17003KT 10SM OVC019 20/20 A2999 RMK AO2,KHVC,2023-05-20T06:15:00Z,,,20.0,20.0,170,3,,10.0,29.991142,,,TRUE,TRUE,,,,,,,OVC,1900,,,,,,,MVFR,,,,,,,,,,,,SPECI,
KHUM 200615Z AUTO 00000KT 7SM CLR 23/22 A3002 RMK AO2 T02320223,KHUM,2023-05-20T06:15:00Z,29.57,-90.67,23.2,22.3,0,0,,7.0,30.02067,,,TRUE,TRUE,,,,,,,CLR,,,,,,,,VFR,,,,,,,,,,,,METAR,1.0
KHTH 200615Z AUTO 21005KT 10SM CLR 20/02 A3010 RMK A01,KHTH,2023-05-20T06:15:00Z,38.55,-118.63,20.0,2.0,210,5,,10.0,30.100393,,,TRUE,TRUE,,,,,,,CLR,,,,,,,,VFR,,,,,,,,,,,,METAR,1281.0
KHSG 200615Z AUTO 25004KT 10SM CLR 07/03 A3024 RMK AO2 T00720034,KHSG,2023-05-20T06:15:00Z,43.72,-108.38,7.2,3.4,250,4,,10.0,30.239174,,,TRUE,TRUE,,,,,,,CLR,,,,,,,,VFR,,,,,,,,,,,,METAR,1497.0
KHSD 200615Z AUTO 33006KT 7SM CLR 12/11 A3023 RMK A01,KHSD,2023-05-20T06:15:00Z,35.6,-97.72,12.0,11.0,330,6,,7.0,30.230314,,,TRUE,TRUE,,,,,,,CLR,,,,,,,,VFR,,,,,,,,,,,,SPECI,358.0
KHSB 200615Z AUTO 34007KT 5SM -RA SCT023 SCT060 OVC070 19/14 A3005 RMK AO2 T01860141,KHSB,2023-05-20T06:15:00Z,37.82,-88.55,18.6,14.1,340,7,,5.0,30.050198,,,TRUE,TRUE,,,,,,-RA,SCT,2300,SCT,6000,OVC,7000,,,MVFR,,,,,,,,,,,,SPECI,118.0
KHRX 200615Z AUTO 02009KT 5SM BR OVC019 13/12 A3035 RMK AO2 T01300115,KHRX,2023-05-20T06:15:00Z,34.87,-102.33,13.0,11.5,20,9,,5.0,30.351377,,,TRUE,TRUE,,,,,,BR,OVC,1900,,,,,,,MVFR,,,,,,,,,,,,SPECI,1153.0
KHQZ 200615Z AUTO 34007KT 10SM SCT014 OVC060 22/20 A3009 RMK AO1 T02170201,KHQZ,2023-05-20T06:15:00Z,32.75,-96.53,21.7,20.1,340,7,,10.0,30.088583,,,TRUE,TRUE,,,,,,,SCT,1400,OVC,6000,,,,,VFR,,,,,,,,,,,,METAR,136.0
KHQU 200615Z AUTO 07003KT 10SM OVC025 19/17 A3008 RMK AO2 T01850174,KHQU,2023-05-20T06:15:00Z,33.53,-82.52,18.5,17.4,70,3,,10.0,30.079725,,,TRUE,TRUE,,,,,,,OVC,2500,,,,,,,MVFR,,,,,,,,,,,,SPECI,141.0
KHQG 200615Z AUTO 29006KT 5SM CLR 10/09 A3033 RMK AO2 T00950086 PWINO,KHQG,2023-05-20T06:15:00Z,37.17,-101.37,9.5,8.6,290,6,,5.0,30.33071,,,TRUE,TRUE,,,,,TRUE,,CLR,,,,,,,,MVFR,,,,,,,,,,,,SPECI,956.0
KHQG 200615Z AUTO 29006KT 5SM CLR 10/09 A3033 RMK AO2 T00950086 PWINO,KHQG,2023-05-20T06:15:00Z,37.17,-101.37,9.5,8.6,290,6,,5.0,30.33071,,,TRUE,TRUE,,,,,TRUE,,CLR,,,,,,,,MVFR,,,,,,,,,,,,SPECI,956.0
KHPT 200615Z AUTO 34006KT 10SM CLR 07/03 A3022 RMK AO2,KHPT,2023-05-20T06:15:00Z,42.72,-93.23,7.0,3.0,340,6,,10.0,30.221457,,,TRUE,TRUE,,,,,,,CLR,,,,,,,,VFR,,,,,,,,,,,,METAR,354.0
KHOE 200615Z AUTO 00000KT 7SM CLR 18/17 A3006 RMK AO2 T01830175,KHOE,2023-05-20T06:15:00Z,31.05,-82.78,18.3,17.5,0,0,,7.0,30.059055,,,TRUE,TRUE,,,,,,,CLR,,,,,,,,VFR,,,,,,,,,,,,SPECI,56.0
KHOB 200615Z AUTO 03008KT 7SM FEW033 SCT049 BKN070 16/15 A3030 RMK AO2,KHOB,2023-05-20T06:15:00Z,32.67,-103.22,16.0,15.0,30,8,,7.0,30.301182,,,TRUE,TRUE,,,,,,,FEW,3300,SCT,4900,BKN,7000,,,VFR,,,,,,,,,,,,SPECI,1112.0
KHNR 200615Z AUTO 36005KT 10SM CLR 05/04 A3025 RMK A01,KHNR,2023-05-20T06:15:00Z,41.58,-95.33,5.0,4.0,360,5,,10.0,30.250984,,,TRUE,TRUE,,,,,,,CLR,,,,,,,,VFR,,,,,,,,,,,,METAR,364.0
KHMZ 200615Z AUTO 00000KT 10SM CLR 13/10 A3009 RMK AO2 T01340095,KHMZ,2023-05-20T06:15:00Z,40.08,-78.52,13.4,9.5,0,0,,10.0,30.088583,,,TRUE,TRUE,,,,,,,CLR,,,,,,,,VFR,,,,,,,,,,,,METAR,351.0
KHMT 200615Z AUTO 23008KT 5SM HZ CLR 13/ A3007 RMK AO2 T0134////,KHMT,2023-05-20T06:15:00Z,33.73,-117.02,13.4,,230,8,,5.0,30.070866,,,TRUE,TRUE,,,,,,HZ,CLR,,,,,,,,MVFR,,,,,,,,,,,,METAR,462.0
KHMP 200615Z AUTO 11006KT 10SM SCT010 OVC021 19/17 A3012 RMK AO2 T01860169,KHMP,2023-05-20T06:15:00Z,33.38,-84.33,18.6,16.9,110,6,,10.0,30.121063,,,TRUE,TRUE,,,,,,,SCT,1000,OVC,2100,,,,,MVFR,,,,,,,,,,,,METAR,263.0
KHLX 200615Z AUTO 00000KT 3SM BR OVC004 13/13 A3014 RMK AO2 T01330130,KHLX,2023-05-20T06:15:00Z,36.77,-80.82,13.3,13.0,0,0,,3.0,30.138779,,,TRUE,TRUE,,,,,,BR,OVC,400,,,,,,,LIFR,,,,,,,,,,,,METAR,819.0
KHLB 200615Z AUTO 00000KT 5SM BR FEW009 SCT019 BKN027 16/16 A3000 RMK A01,KHLB,2023-05-20T06:15:00Z,39.35,-85.27,16.0,16.0,0,0,,5.0,30.0,,,TRUE,TRUE,,,,,,BR,FEW,900,SCT,1900,BKN,2700,,,MVFR,,,,,,,,,,,,SPECI,297.0
KHJH 200615Z AUTO 00000KT 10SM CLR 08/06 A3027 RMK AO2 T00840055,KHJH,2023-05-20T06:15:00Z,40.15,-97.58,8.4,5.5,0,0,,10.0,30.268702,,,TRUE,TRUE,,,,,,,CLR,,,,,,,,VFR,,,,,,,,,,,,METAR,449.0
KHHG 200615Z AUTO 10SM OVC038 13/10 A3002 RMK AO2 T01300099 PNO,KHHG,2023-05-20T06:15:00Z,40.85,-85.45,13.0,9.9,,,,10.0,30.02067,,,TRUE,TRUE,,,,,,,OVC,3800,,,,,,,VFR,,,,,,,,,,,,METAR,247.0
KHHF 200615Z AUTO 00000KT 7SM CLR 11/10 A3029 RMK AO2 T01070098,KHHF,2023-05-20T06:15:00Z,35.9,-100.4,10.7,9.8,0,0,,7.0,30.28937,,,TRUE,TRUE,,,,,,,CLR,,,,,,,,VFR,,,,,,,,,,,,SPECI,729.0
KHFY 200615Z AUTO 00000KT 5SM BKN014 BKN047 OVC110 17/16 A3003 RMK AO2 T01650160,KHFY,2023-05-20T06:15:00Z,39.63,-86.08,16.5,16.0,0,0,,5.0,30.029528,,,TRUE,TRUE,,,,,,,BKN,1400,BKN,4700,OVC,11000,,,MVFR,,,,,,,,,,,,METAR,250.0
KHFJ 200615Z AUTO 33005KT 7SM BKN007 11/11 A3017 RMK AO2,KHFJ,2023-05-20T06:15:00Z,36.9,-94.02,11.0,11.0,330,5,,7.0,30.171259,,,TRUE,TRUE,,,,,,,BKN,700,,,,,,,IFR,,,,,,,,,,,,SPECI,398.0
KHEQ 200615Z AUTO 00000KT 10SM CLR 08/06 A3033 RMK AO2,KHEQ,2023-05-20T06:15:00Z,40.57,-102.28,8.0,6.0,0,0,,10.0,30.33071,,,TRUE,TRUE,,,,,,,CLR,,,,,,,,VFR,,,,,,,,,,,,METAR,1136.0
KHEG 200615Z AUTO 00000KT 10SM FEW022 FEW028 20/19 A3005 RMK AO2,KHEG,2023-05-20T06:15:00Z,30.28,-81.8,20.0,19.0,0,0,,10.0,30.050198,,,TRUE,TRUE,,,,,,,FEW,2200,FEW,2800,,,,,VFR,,,,,,,,,,,,METAR,25.0
KHDL 200615Z AUTO 00000KT 10SM CLR 19/19 A3004 RMK AO2,KHDL,2023-05-20T06:15:00Z,31.37,-85.32,19.0,19.0,0,0,,10.0,30.041338,,,TRUE,TRUE,,,,,,,CLR,,,,,,,,VFR,,,,,,,,,,,,METAR,109.0
KHDE 200615Z AUTO 02005KT 10SM CLR 08/05 A3028 RMK AO2 T00770045,KHDE,2023-05-20T06:15:00Z,40.45,-99.33,7.7,4.5,20,5,,10.0,30.280512,,,TRUE,TRUE,,,,,,,CLR,,,,,,,,VFR,,,,,,,,,,,,METAR,703.0
KHDC 200615Z AUTO 00000KT 10SM CLR 23/22 A3001 RMK AO2 T02300215,KHDC,2023-05-20T06:15:00Z,30.52,-90.42,23.0,21.5,0,0,,10.0,30.008858,,,TRUE,TRUE,,,,,,,CLR,,,,,,,,VFR,,,,,,,,,,,,METAR,12.0
KHCR 200615Z AUTO 11003KT 10SM CLR 10/02 A3025 RMK AO2,KHCR,2023-05-20T06:15:00Z,40.48,-111.43,10.0,2.0,110,3,,10.0,30.250984,,,TRUE,TRUE,,,,,,,CLR,,,,,,,,VFR,,,,,,,,,,,,SPECI,1708.0
KHCO 200615Z AUTO 19007KT 10SM 09/04 A3019 RMK AO2,KHCO,2023-05-20T06:15:00Z,48.75,-96.93,9.0,4.0,190,7,,10.0,30.188976,,,TRUE,TRUE,,,,,,,,,,,,,,,,,,,,,,,,,,,SPECI,250.0
KHCD 200615Z AUTO 00000KT 10SM CLR 07/05 A3026 RMK AO2 T00690045,KHCD,2023-05-20T06:15:00Z,44.87,-94.38,6.9,4.5,0,0,,10.0,30.259842,,,TRUE,TRUE,,,,,,,CLR,,,,,,,,VFR,,,,,,,,,,,,SPECI,320.0
KHAI 200615Z AUTO 33004KT 10SM CLR 12/07 A3004 RMK AO2 T01170070,KHAI,2023-05-20T06:15:00Z,41.97,-85.6,11.7,7.0,330,4,,10.0,30.041338,,,TRUE,TRUE,,,,,,,CLR,,,,,,,,VFR,,,,,,,,,,,,SPECI,250.0
KHAF 200615Z AUTO 34007G13KT 4SM BR OVC006 12/11 A3012 RMK AO2,KHAF,2023-05-20T06:15:00Z,37.52,-122.5,12.0,11.0,340,7,13,4.0,30.121063,,,TRUE,TRUE,,,,,,BR,OVC,600,,,,,,,IFR,,,,,,,,,,,,SPECI,11.0
KHAE 200615Z AUTO 34004KT 10SM CLR 11/05 A3015 RMK AO2,KHAE,2023-05-20T06:15:00Z,39.73,-91.45,11.0,5.0,340,4,,10.0,30.15059,,,TRUE,TRUE,,,,,,,CLR,,,,,,,,VFR,,,,,,,,,,,,SPECI,230.0
KGZS 200615Z AUTO 18003KT 19/19 RMK A01,KGZS,2023-05-20T06:15:00Z,35.15,-87.05,19.0,19.0,180,3,,,,,,TRUE,TRUE,,,,,,,,,,,,,,,,,,,,,,,,,,,SPECI,198.0
KGZL 200615Z AUTO 35007G17KT 3SM BR OVC009 16/15 A3013 RMK AO2,KGZL,2023-05-20T06:15:00Z,35.28,-95.1,16.0,15.0,350,7,17,3.0,30.129921,,,TRUE,TRUE,,,,,,BR,OVC,900,,,,,,,IFR,,,,,,,,,,,,METAR,176.0
KGYI 200615Z AUTO 02012G20KT 10SM OVC014 19/15 A3015 RMK AO2 T01850152 TSNO,KGYI,2023-05-20T06:15:00Z,33.72,-96.67,18.5,15.2,20,12,20,10.0,30.15059,,,TRUE,TRUE,,,TRUE,,,,OVC,1400,,,,,,,MVFR,,,,,,,,,,,,SPECI,227.0
KGYH 200615Z AUTO 08007KT 10SM BKN012 OVC034 18/16 A3011 RMK A02 T01750158,KGYH,2023-05-20T06:15:00Z,34.75,-82.38,17.5,15.8,80,7,,10.0,30.109253,,,TRUE,TRUE,,,,,,,BKN,1200,OVC,3400,,,,,MVFR,,,,,,,,,,,,SPECI,283.0
KGYF 200615Z AUTO 16007KT 10SM SCT027 A3002 RMK AO2,KGYF,2023-05-20T06:15:00Z,26.13,-94.9,,,160,7,,10.0,30.02067,,,TRUE,TRUE,,,,,,,SCT,2700,,,,,,,VFR,,,,,,,,,,,,METAR,65.0
KGYB 200615Z AUTO 19004KT 10SM CLR 24/21 A3007 RMK AO2 T02400210,KGYB,2023-05-20T06:15:00Z,30.17,-96.98,24.0,21.0,190,4,,10.0,30.070866,,,TRUE,TRUE,,,,,,,CLR,,,,,,,,VFR,,,,,,,,,,,,SPECI,140.0
KGWR 200615Z AUTO 25007KT 10SM CLR 07/07 A3026 RMK A01,KGWR,2023-05-20T06:15:00Z,46.22,-97.65,7.0,7.0,250,7,,10.0,30.259842,,,TRUE,TRUE,,,,,,,CLR,,,,,,,,VFR,,,,,,,,,,,,SPECI,381.0
KGWB 200615Z AUTO 32005KT 7SM BKN045 12/11 A3002 RMK AO2,KGWB,2023-05-20T06:15:00Z,41.3,-85.07,12.0,11.0,320,5,,7.0,30.02067,,,TRUE,TRUE,,,,,,,BKN,4500,,,,,,,VFR,,,,,,,,,,,,SPECI,268.0
KGRY 200615Z AUTO 00000KT 10SM CLR 26/21 A3003 RMK A01,KGRY,2023-05-20T06:15:00Z,27.63,-90.45,26.0,21.0,0,0,,10.0,30.029528,,,TRUE,TRUE,,,,,,,CLR,,,,,,,,VFR,,,,,,,,,,,,SPECI,58.0
KGRN 200615Z AUTO 00000KT 10SM CLR 04/03 A3032 RMK AO2 T00400030,KGRN,2023-05-20T06:15:00Z,42.8,-102.17,4.0,3.0,0,0,,10.0,30.318897,,,TRUE,TRUE,,,,,,,CLR,,,,,,,,VFR,,,,,,,,,,,,METAR,1080.0
KGPM 200615Z AUTO 34007KT 10SM OVC017 22/18 A3012 RMK AO2 T02210184,KGPM,2023-05-20T06:15:00Z,32.7,-97.05,22.1,18.4,340,7,,10.0,30.121063,,,TRUE,TRUE,,,,,,,OVC,1700,,,,,,,MVFR,,,,,,,,,,,,SPECI,178.0
KGPH 200615Z AUTO 00000KT 10SM CLR 11/06 A3022 RMK AO2,KGPH,2023-05-20T06:15:00Z,39.33,-94.32,11.0,6.0,0,0,,10.0,30.221457,,,TRUE,TRUE,,,,,,,CLR,,,,,,,,VFR,,,,,,,,,,,,SPECI,233.0
KGPC 200615Z AUTO 01007KT 5SM -RA BR BKN100 OVC120 14/12 A3004 RMK AO2 T01410124,KGPC,2023-05-20T06:15:00Z,39.63,-86.82,14.1,12.4,10,7,,5.0,30.041338,,,TRUE,TRUE,,,,,,-RA BR,BKN,10000,OVC,12000,,,,,MVFR,,,,,,,,,,,,SPECI,254.0
KGOO 200615Z AUTO 00000KT 10SM BKN027 OVC032 20/10 A3009 RMK A01,KGOO,2023-05-20T06:15:00Z,39.22,-121.0,20.0,10.0,0,0,,10.0,30.088583,,,TRUE,TRUE,,,,,,,BKN,2700,OVC,3200,,,,,MVFR,,,,,,,,,,,,METAR,950.0
KGNT 200615Z AUTO 21005KT 10SM SCT060 SCT070 SCT090 10/08 A3040 RMK AO2 T00950077,KGNT,2023-05-20T06:15:00Z,35.17,-107.9,9.5,7.7,210,5,,10.0,30.398623,,,TRUE,TRUE,,,,,,,SCT,6000,SCT,7000,SCT,9000,,,VFR,,,,,,,,,,,,SPECI,1988.0
KGNG 200615Z AUTO 00000KT 10SM FEW025 BKN039 OVC050 18/02 A3016 RMK AO2,KGNG,2023-05-20T06:15:00Z,42.92,-114.77,18.0,2.0,0,0,,10.0,30.159449,,,TRUE,TRUE,,,,,,,FEW,2500,BKN,3900,OVC,5000,,,VFR,,,,,,,,,,,,METAR,1128.0
KGMJ 200615Z AUTO 36004KT 7SM BKN031 BKN075 12/12 A3018 RMK AO2,KGMJ,2023-05-20T06:15:00Z,36.6,-94.73,12.0,12.0,360,4,,7.0,30.180119,,,TRUE,TRUE,,,,,,,BKN,3100,BKN,7500,,,,,VFR,,,,,,,,,,,,METAR,251.0
KGLY 200615Z AUTO 00000KT 1/4SM FG BKN060 09/09 A3018 RMK AO2,KGLY,2023-05-20T06:15:00Z,38.35,-93.68,9.0,9.0,0,0,,0.25,30.180119,,,TRUE,TRUE,,,,,,FG,BKN,6000,,,,,,,LIFR,,,,,,,,,,,,SPECI,247.0
KGLW 200615Z AUTO 22004KT 10SM OVC029 19/18 A3001 RMK AO2 T01900177,KGLW,2023-05-20T06:15:00Z,37.03,-85.95,19.0,17.7,220,4,,10.0,30.008858,,,TRUE,TRUE,,,,,,,OVC,2900,,,,,,,MVFR,,,,,,,,,,,,METAR,216.0
KGKT 200615Z AUTO 32003KT 10SM FEW046 20/17 A3005 RMK A01,KGKT,2023-05-20T06:15:00Z,35.85,-83.53,20.0,17.0,320,3,,10.0,30.050198,,,TRUE,TRUE,,,,,,,FEW,4600,,,,,,,VFR,,,,,,,,,,,,SPECI,305.0
KGIC 200615Z AUTO 16003KT 10SM CLR 16/11 A3012 RMK AO1,KGIC,2023-05-20T06:15:00Z,45.95,-116.12,16.0,11.0,160,3,,10.0,30.121063,,,TRUE,TRUE,,,,,,,CLR,,,,,,,,VFR,,,,,,,,,,,,METAR,1002.0
KGHW 200615Z AUTO 28004KT 10SM CLR 09/03 A3026 RMK AO2,KGHW,2023-05-20T06:15:00Z,45.63,-95.32,9.0,3.0,280,4,,10.0,30.259842,,,TRUE,TRUE,,,,,,,CLR,,,,,,,,VFR,,,,,,,,,,,,METAR,423.0
KGHG 200615Z AUTO 00000KT 10SM FEW039 OVC055 09/07 A3025 RMK AO2,KGHG,2023-05-20T06:15:00Z,42.1,-70.67,9.0,7.0,0,0,,10.0,30.250984,,,TRUE,TRUE,,,,,,,FEW,3900,OVC,5500,,,,,VFR,,,,,,,,,,,,SPECI,3.0
KGGP 200615Z AUTO 36008KT 10SM SCT120 12/08 A3005 RMK AO2,KGGP,2023-05-20T06:15:00Z,40.72,-86.37,12.0,8.0,360,8,,10.0,30.050198,,,TRUE,TRUE,,,,,,,SCT,12000,,,,,,,VFR,,,,,,,,,,,,METAR,224.0
KGGI 200615Z AUTO 32006KT 10SM CLR 08/05 A3021 RMK AO2 T00780046,KGGI,2023-05-20T06:15:00Z,41.72,-92.73,7.8,4.6,320,6,,10.0,30.209646,,,TRUE,TRUE,,,,,,,CLR,,,,,,,,VFR,,,,,,,,,,,,METAR,305.0
KGGE 200615Z AUTO 32003KT 10SM OVC015 18/17 A3006 RMK AO2,KGGE,2023-05-20T06:15:00Z,33.32,-79.32,18.0,17.0,320,3,,10.0,30.059055,,,TRUE,TRUE,,,,,,,OVC,1500,,,,,,,MVFR,,,,,,,,,,,,SPECI,9.0
KGDJ 200615Z AUTO 30008KT 10SM OVC027 21/17 A3015 RMK AO2 T02060170,KGDJ,2023-05-20T06:15:00Z,32.45,-97.82,20.6,17.0,300,8,,10.0,30.15059,,,TRUE,TRUE,,,,,,,OVC,2700,,,,,,,MVFR,,,,,,,,,,,,SPECI,235.0
KGDB 200615Z AUTO 00000KT 10SM CLR 07/04 A3027 RMK AO2 T00700035,KGDB,2023-05-20T06:15:00Z,44.75,-95.55,7.0,3.5,0,0,,10.0,30.268702,,,TRUE,TRUE,,,,,,,CLR,,,,,,,,VFR,,,,,,,,,,,,METAR,316.0
KGDA 200615Z AUTO 35006KT 7SM OVC005 17/17 A3003 RMK AO2 T01700165 PWINO,KGDA,2023-05-20T06:15:00Z,37.33,-88.1,17.0,16.5,350,6,,7.0,30.029528,,,TRUE,TRUE,,,,,TRUE,,OVC,500,,,,,,,IFR,,,,,,,,,,,,METAR,199.0
KGCY 200615Z AUTO VRB04KT 10SM BKN028 OVC037 19/13 A3007 RMK A01,KGCY,2023-05-20T06:15:00Z,36.2,-82.82,19.0,13.0,0,4,,10.0,30.070866,,,TRUE,TRUE,,,,,,,BKN,2800,OVC,3700,,,,,MVFR,,,,,,,,,,,,SPECI,488.0
KGCM 200615Z AUTO 01006KT 6SM BR BKN032 BKN038 12/12 A3017 RMK AO2,KGCM,2023-05-20T06:15:00Z,36.3,-95.48,12.0,12.0,10,6,,6.0,30.171259,,,TRUE,TRUE,,,,,,BR,BKN,3200,BKN,3800,,,,,VFR,,,,,,,,,,,,METAR,215.0
KGCD 200615Z AUTO 21003KT 10SM CLR 16/08 A3022 RMK AO2 T01590081,KGCD,2023-05-20T06:15:00Z,44.4,-118.97,15.9,8.1,210,3,,10.0,30.221457,,,TRUE,TRUE,,,,,,,CLR,,,,,,,,VFR,,,,,,,,,,,,METAR,1122.0
KGBG 200615Z AUTO 34005KT 10SM CLR 09/06 A3016 RMK AO2 T00850056,KGBG,2023-05-20T06:15:00Z,40.93,-90.43,8.5,5.6,340,5,,10.0,30.159449,,,TRUE,TRUE,,,,,,,CLR,,,,,,,,VFR,,,,,,,,,,,,METAR,230.0
KGAO 200615Z AUTO 00000KT 10SM CLR 25/22 A3001 RMK AO2 T02540222,KGAO,2023-05-20T06:15:00Z,29.45,-90.27,25.4,22.2,0,0,,10.0,30.008858,,,TRUE,TRUE,,,,,,,CLR,,,,,,,,VFR,,,,,,,,,,,,METAR,0.0
KGAF 200615Z AUTO 25008KT 10SM CLR 08/04 A3021 RMK AO2,KGAF,2023-05-20T06:15:00Z,48.4,-97.37,8.0,4.0,250,8,,10.0,30.209646,,,TRUE,TRUE,,,,,,,CLR,,,,,,,,VFR,,,,,,,,,,,,METAR,250.0
KFZG 200615Z AUTO 00000KT 7SM CLR 19/18 A3007 RMK AO2 T01850177,KFZG,2023-05-20T06:15:00Z,31.68,-83.27,18.5,17.7,0,0,,7.0,30.070866,,,TRUE,TRUE,,,,,,,CLR,,,,,,,,VFR,,,,,,,,,,,,METAR,105.0
KFYM 200615Z AUTO 18005KT 10SM OVC029 20/18 A3006 RMK A01,KFYM,2023-05-20T06:15:00Z,35.07,-86.57,20.0,18.0,180,5,,10.0,30.059055,,,TRUE,TRUE,,,,,,,OVC,2900,,,,,,,MVFR,,,,,,,,,,,,SPECI,297.0
KFYJ 200615Z AUTO 00000KT 10SM OVC007 17/16 A3009 RMK AO1 T01700160,KFYJ,2023-05-20T06:15:00Z,37.52,-76.77,17.0,16.0,0,0,,10.0,30.088583,,,TRUE,TRUE,,,,,,,OVC,700,,,,,,,IFR,,,,,,,,,,,,SPECI,3.0
KFYG 200615Z AUTO 00000KT 8SM FEW060 BKN080 BKN095 14/14 A3011 RMK AO2,KFYG,2023-05-20T06:15:00Z,38.58,-91.0,14.0,14.0,0,0,,8.0,30.109253,,,TRUE,TRUE,,,,,,,FEW,6000,BKN,8000,BKN,9500,,,VFR,,,,,,,,,,,,SPECI,147.0
KFYE 200615Z AUTO 16008KT 10SM OVC009 22/20 A2997 RMK A01,KFYE,2023-05-20T06:15:00Z,35.2,-89.38,22.0,20.0,160,8,,10.0,29.970472,,,TRUE,TRUE,,,,,,,OVC,900,,,,,,,IFR,,,,,,,,,,,,SPECI,133.0
KFWS 200615Z AUTO 31009KT 10SM OVC034 22/18 A3013 RMK AO2 T02180185,KFWS,2023-05-20T06:15:00Z,32.57,-97.3,21.8,18.5,310,9,,10.0,30.129921,,,TRUE,TRUE,,,,,,,OVC,3400,,,,,,,VFR,,,,,,,,,,,,SPECI,211.0
KFWC 200615Z AUTO 33004KT 5SM -DZ BKN070 OVC080 15/15 A3006 RMK AO1 T01540146,KFWC,2023-05-20T06:15:00Z,38.38,-88.42,15.4,14.6,330,4,,5.0,30.059055,,,TRUE,TRUE,,,,,,-DZ,BKN,7000,OVC,8000,,,,,MVFR,,,,,,,,,,,,METAR,131.0
KFWB 200615Z AUTO 36007KT 4SM BR FEW009 FEW013 OVC024 13/13 A3014 RMK AO2,KFWB,2023-05-20T06:15:00Z,36.7,-93.4,13.0,13.0,360,7,,4.0,30.138779,,,TRUE,TRUE,,,,,,BR,FEW,900,FEW,1300,OVC,2400,,,MVFR,,,,,,,,,,,,SPECI,392.0
KFVX 200615Z AUTO 33003KT 10SM CLR 15/14 A3009 RMK AO2 T01450135,KFVX,2023-05-20T06:15:00Z,37.35,-78.43,14.5,13.5,330,3,,10.0,30.088583,,,TRUE,TRUE,,,,,,,CLR,,,,,,,,VFR,,,,,,,,,,,,SPECI,129.0
KFSW 200615Z AUTO 35004KT 10SM 11/06 A3016 RMK AO2,KFSW,2023-05-20T06:15:00Z,40.67,-91.32,11.0,6.0,350,4,,10.0,30.159449,,,TRUE,TRUE,,,,,,,,,,,,,,,,,,,,,,,,,,,METAR,219.0
KFSE 200615Z AUTO 17004KT 10SM CLR 05/02 A3024 RMK AO2,KFSE,2023-05-20T06:15:00Z,47.58,-95.77,5.0,2.0,170,4,,10.0,30.239174,,,TRUE,TRUE,,,,,,,CLR,,,,,,,,VFR,,,,,,,,,,,,SPECI,389.0
KFRR 200615Z AUTO 00000KT 10SM CLR 12/11 A3010 RMK AO1,KFRR,2023-05-20T06:15:00Z,38.92,-78.25,12.0,11.0,0,0,,10.0,30.100393,,,TRUE,TRUE,,,,,,,CLR,,,,,,,,VFR,,,,,,,,,,,,SPECI,213.0
KFRH 200615Z AUTO 00000KT 7SM SCT003 BKN026 OVC048 A3001 RMK AO1,KFRH,2023-05-20T06:15:00Z,38.5,-86.63,,,0,0,,7.0,30.008858,,,TRUE,TRUE,,,,,,,SCT,300,BKN,2600,OVC,4800,,,MVFR,,,,,,,,,,,,METAR,241.0
KFPY 200615Z AUTO 04003KT 10SM CLR 21/19 A3004 RMK AO2 T02050189,KFPY,2023-05-20T06:15:00Z,30.07,-83.57,20.5,18.9,40,3,,10.0,30.041338,,,TRUE,TRUE,,,,,,,CLR,,,,,,,,VFR,,,,,,,,,,,,METAR,12.0
KFPK 200615Z AUTO 32005KT 10SM CLR 11/07 A3000 RMK AO2 T01110065,KFPK,2023-05-20T06:15:00Z,42.57,-84.82,11.1,6.5,320,5,,10.0,30.0,,,TRUE,TRUE,,,,,,,CLR,,,,,,,,VFR,,,,,,,,,,,,SPECI,269.0
KFOT 200615Z AUTO 29004KT 4SM OVC004 11/11 A3015 RMK AO1,KFOT,2023-05-20T06:15:00Z,40.55,-124.13,11.0,11.0,290,4,,4.0,30.15059,,,TRUE,TRUE,,,,,,,OVC,400,,,,,,,LIFR,,,,,,,,,,,,METAR,118.0
KFOA 200615Z AUTO 34007KT 7SM SCT090 16/14 A3007 RMK AO2,KFOA,2023-05-20T06:15:00Z,38.67,-88.45,16.0,14.0,340,7,,7.0,30.070866,,,TRUE,TRUE,,,,,,,SCT,9000,,,,,,,VFR,,,,,,,,,,,,METAR,141.0
KFMM 200615Z AUTO 05005KT 4SM BR CLR 08/08 A3033 RMK AO2,KFMM,2023-05-20T06:15:00Z,40.33,-103.8,8.0,8.0,50,5,,4.0,30.33071,,,TRUE,TRUE,,,,,,BR,CLR,,,,,,,,MVFR,,,,,,,,,,,,METAR,1376.0
KFLY 200615Z AUTO 19005KT 1 1/2SM BR OVC005 08/08 A3042 RMK AO2 T00800075,KFLY,2023-05-20T06:15:00Z,38.95,-104.57,8.0,7.5,190,5,,1.5,30.41929,,,TRUE,TRUE,,,,,,BR,OVC,500,,,,,,,IFR,,,,,,,,,,,,SPECI,2096.0
KFKS 200615Z AUTO 31007KT 7SM DZ OVC006 08/06 A3004 RMK AO2 T00750064,KFKS,2023-05-20T06:15:00Z,44.63,-86.2,7.5,6.4,310,7,,7.0,30.041338,,,TRUE,TRUE,,,,,,DZ,OVC,600,,,,,,,IFR,,,,,,,,,,,,SPECI,189.0
KFKR 200615Z AUTO 36005KT 7SM OVC037 14/11 A3004 RMK AO2,KFKR,2023-05-20T06:15:00Z,40.27,-86.57,14.0,11.0,360,5,,7.0,30.041338,,,TRUE,TRUE,,,,,,,OVC,3700,,,,,,,VFR,,,,,,,,,,,,METAR,260.0
KFKN 200615Z AUTO 04004KT 10SM OVC008 18/16 A3006 RMK AO2 T01750160,KFKN,2023-05-20T06:15:00Z,36.7,-76.9,17.5,16.0,40,4,,10.0,30.059055,,,TRUE,TRUE,,,,,,,OVC,800,,,,,,,IFR,,,,,,,,,,,,SPECI,9.0
KFKA 200615Z AUTO 31005KT 10SM CLR 06/05 A3019 RMK AO2,KFKA,2023-05-20T06:15:00Z,43.68,-92.17,6.0,5.0,310,5,,10.0,30.188976,,,TRUE,TRUE,,,,,,,CLR,,,,,,,,VFR,,,,,,,,,,,,SPECI,388.0
KFIN 200615Z AUTO 05003KT 10SM CLR 22/21 A3002 RMK AO2 T02240207,KFIN,2023-05-20T06:15:00Z,29.47,-81.2,22.4,20.7,50,3,,10.0,30.02067,,,TRUE,TRUE,,,,,,,CLR,,,,,,,,VFR,,,,,,,,,,,,SPECI,10.0
KFHB 200615Z AUTO 10006KT 10SM BKN016 BKN025 OVC035 22/ A3003 RMK AO2,KFHB,2023-05-20T06:15:00Z,30.62,-81.47,22.0,,100,6,,10.0,30.029528,,,TRUE,TRUE,,,,,,,BKN,1600,BKN,2500,OVC,3500,,,MVFR,,,,,,,,,,,,METAR,4.0
KFGN 200615Z AUTO 27010KT 10SM CLR 14/03 A3017 RMK AO2,KFGN,2023-05-20T06:15:00Z,49.32,-94.9,14.0,3.0,270,10,,10.0,30.171259,,,TRUE,TRUE,,,,,,,CLR,,,,,,,,VFR,,,,,,,,,,,,SPECI,327.0
KFFX 200615Z AUTO 33006KT 10SM CLR 07/07 A3003 RMK AO2 T00720066,KFFX,2023-05-20T06:15:00Z,43.43,-86.0,7.2,6.6,330,6,,10.0,30.029528,,,TRUE,TRUE,,,,,,,CLR,,,,,,,,VFR,,,,,,,,,,,,SPECI,234.0
KFFM 200615Z AUTO 00000KT 10SM CLR 08/06 A3025 RMK AO2,KFFM,2023-05-20T06:15:00Z,46.28,-96.15,8.0,6.0,0,0,,10.0,30.250984,,,TRUE,TRUE,,,,,,,CLR,,,,,,,,VFR,,,,,,,,,,,,METAR,362.0
KFFL 200615Z AUTO 34006KT 10SM FEW041 BKN050 OVC065 08/04 A3018 RMK A01,KFFL,2023-05-20T06:15:00Z,41.05,-91.97,8.0,4.0,340,6,,10.0,30.180119,,,TRUE,TRUE,,,,,,,FEW,4100,BKN,5000,OVC,6500,,,VFR,,,,,,,,,,,,METAR,240.0
KFET 200615Z AUTO 29003KT 10SM CLR 07/04 A3028 RMK AO2 T00720039,KFET,2023-05-20T06:15:00Z,41.45,-96.52,7.2,3.9,290,3,,10.0,30.280512,,,TRUE,TRUE,,,,,,,CLR,,,,,,,,VFR,,,,,,,,,,,,METAR,366.0
KFEP 200615Z AUTO 33006KT 10SM CLR 09/07 A3015 RMK AO2 T00850071,KFEP,2023-05-20T06:15:00Z,42.25,-89.58,8.5,7.1,330,6,,10.0,30.15059,,,TRUE,TRUE,,,,,,,CLR,,,,,,,,VFR,,,,,,,,,,,,METAR,255.0
KFDW 200615Z AUTO 00000KT 5SM -RA OVC004 17/17 A3008 RMK AO1,KFDW,2023-05-20T06:15:00Z,34.32,-81.12,17.0,17.0,0,0,,5.0,30.079725,,,TRUE,TRUE,,,,,,-RA,OVC,400,,,,,,,LIFR,,,,,,,,,,,,METAR,174.0
KFBL 200615Z AUTO 00000KT 10SM CLR 06/05 A3023 RMK AO2,KFBL,2023-05-20T06:15:00Z,44.33,-93.32,6.0,5.0,0,0,,10.0,30.230314,,,TRUE,TRUE,,,,,,,CLR,,,,,,,,VFR,,,,,,,,,,,,METAR,318.0
KF70 200615Z AUTO 16004KT 7SM OVC004 14/14 A3008 RMK AO2,KF70,2023-05-20T06:15:00Z,33.57,-117.13,14.0,14.0,160,4,,7.0,30.079725,,,TRUE,TRUE,,,,,,,OVC,400,,,,,,,LIFR,,,,,,,,,,,,SPECI,406.0
KF46 200615Z AUTO 01007KT 10SM BKN012 OVC050 21/21 A3009 RMK AO2 T02100208,KF46,2023-05-20T06:15:00Z,32.93,-96.43,21.0,20.8,10,7,,10.0,30.088583,,,TRUE,TRUE,,,,,,,BKN,1200,OVC,5000,,,,,MVFR,,,,,,,,,,,,SPECI,175.0
KF44 200615Z AUTO 32003KT 10SM CLR 23/20 A3004 RMK AO2,KF44,2023-05-20T06:15:00Z,32.17,-95.83,23.0,20.0,320,3,,10.0,30.041338,,,TRUE,TRUE,,,,,,,CLR,,,,,,,,VFR,,,,,,,,,,,,SPECI,137.0
KF17 200615Z AUTO 00000KT 10SM CLR 24/21 A3003 RMK AO2,KF17,2023-05-20T06:15:00Z,31.83,-94.15,24.0,21.0,0,0,,10.0,30.029528,,,TRUE,TRUE,,,,,,,CLR,,,,,,,,VFR,,,,,,,,,,,,SPECI,93.0
KF05 200615Z AUTO 03008KT 7SM CLR 16/12 A3026 RMK AO2 T01600119,KF05,2023-05-20T06:15:00Z,34.23,-99.28,16.0,11.9,30,8,,7.0,30.259842,,,TRUE,TRUE,,,,,,,CLR,,,,,,,,VFR,,,,,,,,,,,,SPECI,384.0
KF00 200615Z AUTO 36011G17KT 10SM OVC013 18/17 A3010 RMK AO2 T01830167,KF00,2023-05-20T06:15:00Z,33.62,-96.18,18.3,16.7,360,11,17,10.0,30.100393,,,TRUE,TRUE,,,,,,,OVC,1300,,,,,,,MVFR,,,,,,,,,,,,SPECI,189.0
KEZZ 200615Z AUTO 36007KT 10SM CLR 09/05 A3022 RMK AO2 T00930054,KEZZ,2023-05-20T06:15:00Z,39.72,-94.28,9.3,5.4,360,7,,10.0,30.221457,,,TRUE,TRUE,,,,,,,CLR,,,,,,,,VFR,,,,,,,,,,,,METAR,317.0
KEZP 200615Z AUTO 23007KT 10SM CLR 26/21 A3002 RMK A01,KEZP,2023-05-20T06:15:00Z,28.22,-92.8,26.0,21.0,230,7,,10.0,30.02067,,,TRUE,TRUE,,,,,,,CLR,,,,,,,,VFR,,,,,,,,,,,,METAR,30.0
KEZM 200615Z AUTO 00000KT 10SM OVC023 17/17 A3008 RMK AO2,KEZM,2023-05-20T06:15:00Z,32.22,-83.13,17.0,17.0,0,0,,10.0,30.079725,,,TRUE,TRUE,,,,,,,OVC,2300,,,,,,,MVFR,,,,,,,,,,,,SPECI,86.0
KEZF 200615Z AUTO 00000KT 10SM CLR 13/13 A3009 RMK AO2 T01300130,KEZF,2023-05-20T06:15:00Z,38.27,-77.45,13.0,13.0,0,0,,10.0,30.088583,,,TRUE,TRUE,,,,,,,CLR,,,,,,,,VFR,,,,,,,,,,,,SPECI,26.0
KEVU 200615Z AUTO 36004KT 10SM CLR 10/06 A3023 RMK AO2 T00970060,KEVU,2023-05-20T06:15:00Z,40.35,-94.92,9.7,6.0,360,4,,10.0,30.230314,,,TRUE,TRUE,,,,,,,CLR,,,,,,,,VFR,,,,,,,,,,,,SPECI,351.0
KETB 200615Z AUTO 34004KT 10SM SCT022 07/05 A3010 RMK AO2,KETB,2023-05-20T06:15:00Z,43.42,-88.13,7.0,5.0,340,4,,10.0,30.100393,,,TRUE,TRUE,,,,,,,SCT,2200,,,,,,,VFR,,,,,,,,,,,,SPECI,269.0
KERY 200615Z AUTO 35007KT 7SM -RA OVC003 08/07 A3000 RMK AO2 T00770069 P0009,KERY,2023-05-20T06:15:00Z,46.3,-85.45,7.7,6.9,350,7,,7.0,30.0,,,TRUE,TRUE,,,,,,-RA,OVC,300,,,,,,,LIFR,,,,,,0.09,,,,,,SPECI,261.0
KERV 200615Z AUTO 34016G19KT 10SM -TSRA SCT060 BKN070 BKN090 19/19 A3016 RMK AO2 LTG DSNT W P0001 T01930188,KERV,2023-05-20T06:15:00Z,29.98,-99.08,19.3,18.8,340,16,19,10.0,30.159449,,,TRUE,TRUE,,,,,,-TSRA,SCT,6000,BKN,7000,BKN,9000,,,VFR,,,,,,0.01,,,,,,SPECI,483.0
KEQA 200615Z AUTO 00000KT 3SM BR CLR 08/08 A3023 RMK AO2,KEQA,2023-05-20T06:15:00Z,37.78,-96.82,8.0,8.0,0,0,,3.0,30.230314,,,TRUE,TRUE,,,,,,BR,CLR,,,,,,,,MVFR,,,,,,,,,,,,SPECI,422.0
KEOK 200615Z AUTO 34005KT 10SM FEW039 SCT048 BKN070 10/05 A3016 RMK A01,KEOK,2023-05-20T06:15:00Z,40.47,-91.42,10.0,5.0,340,5,,10.0,30.159449,,,TRUE,TRUE,,,,,,,FEW,3900,SCT,4800,BKN,7000,,,VFR,,,,,,,,,,,,METAR,206.0
KEOE 200615Z AUTO 02003KT 2SM -DZ OVC003 17/16 A3012 RMK AO2 P0001,KEOE,2023-05-20T06:15:00Z,34.32,-81.63,17.0,16.0,20,3,,2.0,30.121063,,,TRUE,TRUE,,,,,,-DZ,OVC,300,,,,,,,LIFR,,,,,,0.01,,,,,,SPECI,166.0
KENL 200615Z AUTO 00000KT 10SM OVC080 17/12 A3008 RMK AO2 T01660122,KENL,2023-05-20T06:15:00Z,38.52,-89.1,16.6,12.2,0,0,,10.0,30.079725,,,TRUE,TRUE,,,,,,,OVC,8000,,,,,,,VFR,,,,,,,,,,,,SPECI,161.0
KEMV 200615Z AUTO 00000KT 10SM CLR 14/14 A3008 RMK AO2 T01420140,KEMV,2023-05-20T06:15:00Z,36.68,-77.48,14.2,14.0,0,0,,10.0,30.079725,,,TRUE,TRUE,,,,,,,CLR,,,,,,,,VFR,,,,,,,,,,,,SPECI,35.0
KEMM 200615Z AUTO 10SM CLR 07/00 A3036 RMK AO2 TSNO,KEMM,2023-05-20T06:15:00Z,41.82,-110.55,7.0,0.0,,,,10.0,30.360237,,,TRUE,TRUE,,,TRUE,,,,CLR,,,,,,,,VFR,,,,,,,,,,,,SPECI,2219.0
KELO 200615Z AUTO 00000KT 10SM CLR 04/04 A3019 RMK AO2,KELO,2023-05-20T06:15:00Z,47.82,-91.83,4.0,4.0,0,0,,10.0,30.188976,,,TRUE,TRUE,,,,,,,CLR,,,,,,,,VFR,,,,,,,,,,,,SPECI,438.0
KELK 200615Z AUTO 31004KT 8SM CLR 11/11 A3025 RMK AO2 SLP525 T01090109 $,KELK,2023-05-20T06:15:00Z,35.43,-99.4,10.9,10.9,310,4,,8.0,30.250984,1052.5,,TRUE,TRUE,TRUE,,,,,,CLR,,,,,,,,VFR,,,,,,,,,,,,SPECI,603.0
KELA 200615Z AUTO 25003KT 10SM CLR 23/21 A3006 RMK AO2 T02300210,KELA,2023-05-20T06:15:00Z,29.6,-96.32,23.0,21.0,250,3,,10.0,30.059055,,,TRUE,TRUE,,,,,,,CLR,,,,,,,,VFR,,,,,,,,,,,,METAR,56.0
KEKX 200615Z AUTO 21004KT 10SM BKN037 OVC050 19/18 A3001 RMK AO2 T01850178,KEKX,2023-05-20T06:15:00Z,37.68,-85.92,18.5,17.8,210,4,,10.0,30.008858,,,TRUE,TRUE,,,,,,,BKN,3700,OVC,5000,,,,,VFR,,,,,,,,,,,,METAR,234.0
KEKS 200615Z AUTO 00000KT 10SM FEW044 BKN050 BKN060 09/00 A3027 RMK AO2,KEKS,2023-05-20T06:15:00Z,45.27,-111.65,9.0,0.0,0,0,,10.0,30.268702,,,TRUE,TRUE,,,,,,,FEW,4400,BKN,5000,BKN,6000,,,VFR,,,,,,,,,,,,METAR,1636.0
KEKM 200615Z 29003KT 10SM FEW250 11/10 A3005 RMK AO2 T01100096 $,KEKM,2023-05-20T06:15:00Z,41.72,-86.0,11.0,9.6,290,3,,10.0,30.050198,,,,TRUE,TRUE,,,,,,FEW,25000,,,,,,,VFR,,,,,,,,,,,,SPECI,236.0
KEKE 200615Z AUTO 17006KT 10SM CLR 26/22 A2996 RMK A01,KEKE,2023-05-20T06:15:00Z,28.5,-91.58,26.0,22.0,170,6,,10.0,29.958662,,,TRUE,TRUE,,,,,,,CLR,,,,,,,,VFR,,,,,,,,,,,,SPECI,31.0
KEIK 200615Z AUTO 00000KT 1 1/2SM BR SCT035 10/09 A3033 RMK AO2 T00970085,KEIK,2023-05-20T06:15:00Z,40.02,-105.05,9.7,8.5,0,0,,1.5,30.33071,,,TRUE,TRUE,,,,,,BR,SCT,3500,,,,,,,IFR,,,,,,,,,,,,SPECI,1551.0
KEHA 200615Z AUTO 00000KT 5SM BR CLR 11/09 A3036 RMK AO2 T01050093,KEHA,2023-05-20T06:15:00Z,37.0,-101.87,10.5,9.3,0,0,,5.0,30.360237,,,TRUE,TRUE,,,,,,BR,CLR,,,,,,,,MVFR,,,,,,,,,,,,METAR,1103.0
KEGV 200615Z AUTO 00000KT 10SM SCT006 03/03 A3015 RMK AO2 T00330033,KEGV,2023-05-20T06:15:00Z,45.93,-89.27,3.3,3.3,0,0,,10.0,30.15059,,,TRUE,TRUE,,,,,,,SCT,600,,,,,,,VFR,,,,,,,,,,,,SPECI,499.0
KEGT 200615Z AUTO 00000KT 7SM CLR 09/08 A3025 RMK AO2 T00890084,KEGT,2023-05-20T06:15:00Z,37.32,-97.38,8.9,8.4,0,0,,7.0,30.250984,,,TRUE,TRUE,,,,,,,CLR,,,,,,,,VFR,,,,,,,,,,,,METAR,387.0
KEFT 200615Z AUTO 35006KT 10SM CLR 09/05 A3012 RMK AO2 T00900045,KEFT,2023-05-20T06:15:00Z,42.62,-89.6,9.0,4.5,350,6,,10.0,30.121063,,,TRUE,TRUE,,,,,,,CLR,,,,,,,,VFR,,,,,,,,,,,,SPECI,332.0
KEFK 200615Z AUTO 16009KT 10SM -DZ OVC055 14/10 A3013 RMK AO2 T01350099,KEFK,2023-05-20T06:15:00Z,44.88,-72.23,13.5,9.9,160,9,,10.0,30.129921,,,TRUE,TRUE,,,,,,-DZ,OVC,5500,,,,,,,VFR,,,,,,,,,,,,SPECI,282.0
KEDU 200615Z AUTO 21005KT 10SM CLR 15/10 A2996 RMK AO1,KEDU,2023-05-20T06:15:00Z,38.53,-121.78,15.0,10.0,210,5,,10.0,29.958662,,,TRUE,TRUE,,,,,,,CLR,,,,,,,,VFR,,,,,,,,,,,,METAR,20.0
KEDN 200615Z AUTO 00000KT 10SM CLR 19/19 A3004 RMK AO2 T01900188 PWINO,KEDN,2023-05-20T06:15:00Z,31.3,-85.9,19.0,18.8,0,0,,10.0,30.041338,,,TRUE,TRUE,,,,,TRUE,,CLR,,,,,,,,VFR,,,,,,,,,,,,SPECI,103.0
KEDJ 200615Z AUTO 29007KT 6SM BR SCT009 BKN025 OVC047 16/16 A2999 RMK A01 P0010,KEDJ,2023-05-20T06:15:00Z,40.37,-83.82,16.0,16.0,290,7,,6.0,29.991142,,,TRUE,TRUE,,,,,,BR,SCT,900,BKN,2500,OVC,4700,,,MVFR,,,,,,0.1,,,,,,SPECI,341.0
KEDC 200615Z AUTO 03015G26KT 6SM -RA SCT010 BKN032 OVC041 19/19 A3010 RMK AO2 P0001,KEDC,2023-05-20T06:15:00Z,30.4,-97.57,19.0,19.0,30,15,26,6.0,30.100393,,,TRUE,TRUE,,,,,,-RA,SCT,1000,BKN,3200,OVC,4100,,,VFR,,,,,,0.01,,,,,,SPECI,184.0
KECU 200615Z AUTO 05008KT 9SM VCTS FEW003 BKN025 BKN050 20/17 A3019 RMK AO2 LTG DSNT E-S,KECU,2023-05-20T06:15:00Z,29.95,-100.17,20.0,17.0,50,8,,9.0,30.188976,,,TRUE,TRUE,,,,,,VCTS,FEW,300,BKN,2500,BKN,5000,,,MVFR,,,,,,,,,,,,METAR,725.0
KECS 200615Z AUTO 12011KT 10SM CLR 09/01 A3031 RMK AO2,KECS,2023-05-20T06:15:00Z,43.88,-104.32,9.0,1.0,120,11,,10.0,30.31004,,,TRUE,TRUE,,,,,,,CLR,,,,,,,,VFR,,,,,,,,,,,,SPECI,1273.0
KEBA 200615Z AUTO 00000KT 10SM SCT012 OVC033 18/18 A3009 RMK AO2 T01830175,KEBA,2023-05-20T06:15:00Z,34.1,-82.82,18.3,17.5,0,0,,10.0,30.088583,,,TRUE,TRUE,,,,,,,SCT,1200,OVC,3300,,,,,VFR,,,,,,,,,,,,METAR,180.0
KE42 200615Z AUTO 33004KT 5SM BR CLR 10/09 A3032 RMK AO2 T00980088,KE42,2023-05-20T06:15:00Z,36.22,-101.2,9.8,8.8,330,4,,5.0,30.318897,,,TRUE,TRUE,,,,,,BR,CLR,,,,,,,,MVFR,,,,,,,,,,,,SPECI,942.0
KE41 200615Z AUTO 05010G17KT 10SM SCT014 BKN024 BKN110 19/17 A3020 RMK AO2 T01920167,KE41,2023-05-20T06:15:00Z,31.2,-101.47,19.2,16.7,50,10,17,10.0,30.200787,,,TRUE,TRUE,,,,,,,SCT,1400,BKN,2400,BKN,11000,,,MVFR,,,,,,,,,,,,METAR,825.0
KE38 200615Z AUTO 34015G19KT 10SM CLR 21/06 A3027 RMK AO2 T02070064,KE38,2023-05-20T06:15:00Z,30.38,-103.68,20.7,6.4,340,15,19,10.0,30.268702,,,TRUE,TRUE,,,,,,,CLR,,,,,,,,VFR,,,,,,,,,,,,METAR,1372.0
KE16 200615Z AUTO 32003KT 10SM CLR 14/10 A3010 RMK AO2 PWINO PNO,KE16,2023-05-20T06:15:00Z,37.08,-121.6,14.0,10.0,320,3,,10.0,30.100393,,,TRUE,TRUE,,,,,TRUE,,CLR,,,,,,,,VFR,,,,,,,,,,,,METAR,84.0
KDZJ 200615Z AUTO 13006KT 10SM OVC032 18/15 A3011 RMK AO2 T01810152,KDZJ,2023-05-20T06:15:00Z,34.85,-84.0,18.1,15.2,130,6,,10.0,30.109253,,,TRUE,TRUE,,,,,,,OVC,3200,,,,,,,VFR,,,,,,,,,,,,METAR,578.0
KDZB 200615Z AUTO 05007KT 10SM BKN041 22/18 A3015 RMK AO2 T02150180,KDZB,2023-05-20T06:15:00Z,30.53,-98.37,21.5,18.0,50,7,,10.0,30.15059,,,TRUE,TRUE,,,,,,,BKN,4100,,,,,,,VFR,,,,,,,,,,,,SPECI,329.0
KDYT 200615Z AUTO 22009KT 10SM CLR 08/05 A3018 RMK AO2,KDYT,2023-05-20T06:15:00Z,46.72,-92.03,8.0,5.0,220,9,,10.0,30.180119,,,TRUE,TRUE,,,,,,,CLR,,,,,,,,VFR,,,,,,,,,,,,SPECI,185.0
KDYB 200615Z AUTO 00000KT 10SM OVC015 19/19 A3004 RMK AO2,KDYB,2023-05-20T06:15:00Z,33.07,-80.28,19.0,19.0,0,0,,10.0,30.041338,,,TRUE,TRUE,,,,,,,OVC,1500,,,,,,,MVFR,,,,,,,,,,,,SPECI,15.0
KDYA 200615Z AUTO 00000KT 10SM SCT060 20/20 A3004 RMK AO2 T02030198,KDYA,2023-05-20T06:15:00Z,32.47,-87.95,20.3,19.8,0,0,,10.0,30.041338,,,TRUE,TRUE,,,,,,,SCT,6000,,,,,,,VFR,,,,,,,,,,,,SPECI,33.0
KDXX 200615Z AUTO 31003KT 10SM CLR 08/03 A3028 RMK AO2,KDXX,2023-05-20T06:15:00Z,44.98,-96.18,8.0,3.0,310,3,,10.0,30.280512,,,TRUE,TRUE,,,,,,,CLR,,,,,,,,VFR,,,,,,,,,,,,METAR,327.0
KDWX 200615Z AUTO 01006KT 10SM SCT120 12/04 A3033 RMK AO2 T01150037,KDWX,2023-05-20T06:15:00Z,41.03,-107.5,11.5,3.7,10,6,,10.0,30.33071,,,TRUE,TRUE,,,,,,,SCT,12000,,,,,,,VFR,,,,,,,,,,,,SPECI,1974.0
KDWA 200615Z AUTO 16005KT 10SM CLR 16/11 A2997 RMK AO2,KDWA,2023-05-20T06:15:00Z,38.58,-121.85,16.0,11.0,160,5,,10.0,29.970472,,,TRUE,TRUE,,,,,,,CLR,,,,,,,,VFR,,,,,,,,,,,,METAR,28.0
KDVO 200615Z AUTO 09004KT 10SM CLR 12/12 A3005 RMK AO2,KDVO,2023-05-20T06:15:00Z,38.15,-122.55,12.0,12.0,90,4,,10.0,30.050198,,,TRUE,TRUE,,,,,,,CLR,,,,,,,,VFR,,,,,,,,,,,,METAR,1.0
KDUX 200615Z AUTO 29004KT 2 1/2SM BR 09/09 A3035 RMK AO2 SKY OBSCURED T00910085,KDUX,2023-05-20T06:15:00Z,35.85,-102.02,9.1,8.5,290,4,,2.5,30.351377,,,TRUE,TRUE,,,,,,BR,,,,,,,,,,,,,,,,,,,,,METAR,1129.0
KDUH 200615Z AUTO 34006KT 7SM -RA SCT010 SCT018 OVC034 14/14 A2996 RMK AO2 T01400139,KDUH,2023-05-20T06:15:00Z,41.73,-83.65,14.0,13.9,340,6,,7.0,29.958662,,,TRUE,TRUE,,,,,,-RA,SCT,1000,SCT,1800,OVC,3400,,,VFR,,,,,,,,,,,,SPECI,203.0
KDUC 200615Z AUTO 01011G16KT 5SM BR SCT014 15/12 A3022 RMK AO2 T01460120,KDUC,2023-05-20T06:15:00Z,34.47,-97.97,14.6,12.0,10,11,16,5.0,30.221457,,,TRUE,TRUE,,,,,,BR,SCT,1400,,,,,,,MVFR,,,,,,,,,,,,METAR,339.0
KDUA 200615Z AUTO 34011G17KT 10SM OVC013 18/14 A3013 RMK AO2,KDUA,2023-05-20T06:15:00Z,33.95,-96.4,18.0,14.0,340,11,17,10.0,30.129921,,,TRUE,TRUE,,,,,,,OVC,1300,,,,,,,MVFR,,,,,,,,,,,,SPECI,209.0
KDTL 200615Z AUTO 00000KT 10SM CLR 07/05 A3025 RMK AO2,KDTL,2023-05-20T06:15:00Z,46.82,-95.88,7.0,5.0,0,0,,10.0,30.250984,,,TRUE,TRUE,,,,,,,CLR,,,,,,,,VFR,,,,,,,,,,,,SPECI,425.0
KDTA 200615Z AUTO 07012KT 10SM CLR 16/00 A3017 RMK AO1,KDTA,2023-05-20T06:15:00Z,39.38,-112.5,16.0,0.0,70,12,,10.0,30.171259,,,TRUE,TRUE,,,,,,,CLR,,,,,,,,VFR,,,,,,,,,,,,SPECI,1452.0
KDRM 200615Z AUTO 00000KT 2 1/2SM -RA SCT002 BKN010 OVC016 10/10 A2995 RMK AO2 T00950095 P0002,KDRM,2023-05-20T06:15:00Z,46.0,-83.75,9.5,9.5,0,0,,2.5,29.949802,,,TRUE,TRUE,,,,,,-RA,SCT,200,BKN,1000,OVC,1600,,,IFR,,,,,,0.02,,,,,,METAR,201.0
KDRI 200615Z AUTO 26004KT 10SM FEW280 24/23 A3003 RMK AO2 T02410228 $,KDRI,2023-05-20T06:15:00Z,30.83,-93.33,24.1,22.8,260,4,,10.0,30.029528,,,TRUE,TRUE,TRUE,,,,,,FEW,28000,,,,,,,VFR,,,,,,,,,,,,SPECI,59.0
KDQH 200615Z AUTO 00000KT 10SM CLR 18/17 A3007 RMK AO2 T01790174,KDQH,2023-05-20T06:15:00Z,31.48,-82.87,17.9,17.4,0,0,,10.0,30.070866,,,TRUE,TRUE,,,,,,,CLR,,,,,,,,VFR,,,,,,,,,,,,METAR,76.0
KDNV 200615Z AUTO 01010KT 10SM SCT045 BKN120 14/08 A3007 RMK AO2 T01390084,KDNV,2023-05-20T06:15:00Z,40.2,-87.6,13.9,8.4,10,10,,10.0,30.070866,,,TRUE,TRUE,,,,,,,SCT,4500,BKN,12000,,,,,VFR,,,,,,,,,,,,SPECI,208.0
KDNS 200615Z AUTO 00000KT 10SM CLR 05/05 A3027 RMK AO2,KDNS,2023-05-20T06:15:00Z,41.98,-95.37,5.0,5.0,0,0,,10.0,30.268702,,,TRUE,TRUE,,,,,,,CLR,,,,,,,,VFR,,,,,,,,,,,,METAR,382.0
KDNN 200615Z AUTO 00000KT 10SM OVC042 18/17 A3007 RMK AO2 T01840169,KDNN,2023-05-20T06:15:00Z,34.72,-84.87,18.4,16.9,0,0,,10.0,30.070866,,,TRUE,TRUE,,,,,,,OVC,4200,,,,,,,VFR,,,,,,,,,,,,SPECI,216.0
KDNA 200615Z AUTO 13005G13KT 10SM OVC110 23/08 A3020 RMK AO2,KDNA,2023-05-20T06:15:00Z,31.88,-106.7,23.0,8.0,130,5,13,10.0,30.200787,,,TRUE,TRUE,,,,,,,OVC,11000,,,,,,,VFR,,,,,,,,,,,,SPECI,1254.0
KDLZ 200615Z AUTO 00000KT 10SM -DZ SCT042 SCT070 OVC110 16/15 A2998 RMK AO2 P0001,KDLZ,2023-05-20T06:15:00Z,40.28,-83.12,16.0,15.0,0,0,,10.0,29.97933,,,TRUE,TRUE,,,,,,-DZ,SCT,4200,SCT,7000,OVC,11000,,,VFR,,,,,,0.01,,,,,,SPECI,287.0
KDLP 200615Z AUTO 00000KT 10SM CLR 27/21 A2992 RMK A01,KDLP,2023-05-20T06:15:00Z,29.12,-89.55,27.0,21.0,0,0,,10.0,29.920275,,,TRUE,TRUE,,,,,,,CLR,,,,,,,,VFR,,,,,,,,,,,,SPECI,31.0
KDLO 200615Z AUTO 34006KT 10SM CLR 23/11 A2997 RMK AO2 T02300107,KDLO,2023-05-20T06:15:00Z,35.75,-119.23,23.0,10.7,340,6,,10.0,29.970472,,,TRUE,TRUE,,,,,,,CLR,,,,,,,,VFR,,,,,,,,,,,,METAR,97.0
KDLL 200615Z AUTO 33005KT 10SM CLR 10/07 A3014 RMK AO2 T01000065,KDLL,2023-05-20T06:15:00Z,43.52,-89.77,10.0,6.5,330,5,,10.0,30.138779,,,TRUE,TRUE,,,,,,,CLR,,,,,,,,VFR,,,,,,,,,,,,SPECI,297.0
KDKX 200615Z AUTO 26004KT 10SM CLR 20/17 A3004 RMK A01,KDKX,2023-05-20T06:15:00Z,35.97,-83.87,20.0,17.0,260,4,,10.0,30.041338,,,TRUE,TRUE,,,,,,,CLR,,,,,,,,VFR,,,,,,,,,,,,SPECI,253.0
KDKR 200615Z AUTO 00000KT 8SM BKN049 24/24 A3004 RMK AO2,KDKR,2023-05-20T06:15:00Z,31.3,-95.4,24.0,24.0,0,0,,8.0,30.041338,,,TRUE,TRUE,,,,,,,BKN,4900,,,,,,,VFR,,,,,,,,,,,,METAR,105.0
KDKB 200615Z AUTO 30006KT 10SM CLR 07/05 A3012 RMK AO2 T00730045,KDKB,2023-05-20T06:15:00Z,41.93,-88.7,7.3,4.5,300,6,,10.0,30.121063,,,TRUE,TRUE,,,,,,,CLR,,,,,,,,VFR,,,,,,,,,,,,METAR,277.0
KDEH 200615Z AUTO 31003KT 10SM FEW026 SCT048 BKN065 08/06 A3017 RMK AO2,KDEH,2023-05-20T06:15:00Z,43.27,-91.73,8.0,6.0,310,3,,10.0,30.171259,,,TRUE,TRUE,,,,,,,FEW,2600,SCT,4800,BKN,6500,,,VFR,,,,,,,,,,,,SPECI,348.0
KDCY 200615Z AUTO 33005KT 7SM SCT046 OVC090 17/15 A3004 RMK AO2 T01660150,KDCY,2023-05-20T06:15:00Z,38.7,-87.13,16.6,15.0,330,5,,7.0,30.041338,,,TRUE,TRUE,,,,,,,SCT,4600,OVC,9000,,,,,VFR,,,,,,,,,,,,METAR,143.0
KDCM 200615Z AUTO 02003KT 7SM BKN004 OVC010 17/16 A3011 RMK AO2,KDCM,2023-05-20T06:15:00Z,34.78,-81.2,17.0,16.0,20,3,,7.0,30.109253,,,TRUE,TRUE,,,,,,,BKN,400,OVC,1000,,,,,LIFR,,,,,,,,,,,,SPECI,191.0
KDBN 200615Z AUTO 06004KT 10SM OVC023 20/17 A3010 RMK AO2,KDBN,2023-05-20T06:15:00Z,32.57,-82.98,20.0,17.0,60,4,,10.0,30.100393,,,TRUE,TRUE,,,,,,,OVC,2300,,,,,,,MVFR,,,,,,,,,,,,METAR,90.0
KD95 200615Z AUTO 29003KT 10SM CLR 12/09 A2996 RMK AO2 T01180094,KD95,2023-05-20T06:15:00Z,43.07,-83.27,11.8,9.4,290,3,,10.0,29.958662,,,TRUE,TRUE,,,,,,,CLR,,,,,,,,VFR,,,,,,,,,,,,SPECI,253.0
KD60 200615Z AUTO 19004KT 10SM CLR 07/02 A3017 RMK AO2,KD60,2023-05-20T06:15:00Z,48.38,-102.9,7.0,2.0,190,4,,10.0,30.171259,,,TRUE,TRUE,,,,,,,CLR,,,,,,,,VFR,,,,,,,,,,,,SPECI,682.0
KD57 200615Z AUTO 18005KT 10SM FEW055 04/01 A3022 RMK AO2,KD57,2023-05-20T06:15:00Z,46.82,-101.87,4.0,1.0,180,5,,10.0,30.221457,,,TRUE,TRUE,,,,,,,FEW,5500,,,,,,,VFR,,,,,,,,,,,,SPECI,636.0
KD50 200615Z AUTO 20008KT 8SM CLR 09/05 A3013 RMK AO2,KD50,2023-05-20T06:15:00Z,48.93,-103.3,9.0,5.0,200,8,,8.0,30.129921,,,TRUE,TRUE,,,,,,,CLR,,,,,,,,VFR,,,,,,,,,,,,METAR,591.0
KD39 200615Z AUTO 00000KT 10SM CLR 05/04 A3026 RMK AO2 T00500038,KD39,2023-05-20T06:15:00Z,45.7,-94.93,5.0,3.8,0,0,,10.0,30.259842,,,TRUE,TRUE,,,,,,,CLR,,,,,,,,VFR,,,,,,,,,,,,SPECI,378.0
KD25 200615Z AUTO 00000KT 7SM CLR 03/03 A3016 RMK AO2 T00260026,KD25,2023-05-20T06:15:00Z,46.12,-89.88,2.6,2.6,0,0,,7.0,30.159449,,,TRUE,TRUE,,,,,,,CLR,,,,,,,,VFR,,,,,,,,,,,,SPECI,490.0
KCZL 200615Z AUTO 00000KT 10SM SCT040 18/17 A3008 RMK AO2,KCZL,2023-05-20T06:15:00Z,34.47,-84.93,18.0,17.0,0,0,,10.0,30.079725,,,TRUE,TRUE,,,,,,,SCT,4000,,,,,,,VFR,,,,,,,,,,,,SPECI,197.0
KCYD 200615Z AUTO 11004KT 10SM CLR 26/21 A3003 RMK A02 T02630212,KCYD,2023-05-20T06:15:00Z,28.17,-89.22,26.3,21.2,110,4,,10.0,30.029528,,,TRUE,TRUE,,,,,,,CLR,,,,,,,,VFR,,,,,,,,,,,,METAR,30.0
KCXW 200615Z AUTO 02005KT 7SM BKN011 OVC026 21/M38 A2999 RMK A01,KCXW,2023-05-20T06:15:00Z,35.02,-92.55,21.0,-38.0,20,5,,7.0,29.991142,,,TRUE,TRUE,,,,,,,BKN,1100,OVC,2600,,,,,MVFR,,,,,,,,,,,,SPECI,84.0
KCXU 200615Z AUTO 00000KT 10SM CLR 19/18 A3005 RMK AO1 T01890177,KCXU,2023-05-20T06:15:00Z,31.22,-84.23,18.9,17.7,0,0,,10.0,30.050198,,,TRUE,TRUE,,,,,,,CLR,,,,,,,,VFR,,,,,,,,,,,,SPECI,48.0
KCXP 200615Z AUTO 30004KT 10SM CLR 18/06 A3017 RMK AO2,KCXP,2023-05-20T06:15:00Z,39.18,-119.73,18.0,6.0,300,4,,10.0,30.171259,,,TRUE,TRUE,,,,,,,CLR,,,,,,,,VFR,,,,,,,,,,,,METAR,1431.0
KCXE 200615Z AUTO 10SM CLR 14/14 A3009 RMK AO1 T01350135,KCXE,2023-05-20T06:15:00Z,36.78,-78.5,13.5,13.5,,,,10.0,30.088583,,,TRUE,TRUE,,,,,,,CLR,,,,,,,,VFR,,,,,,,,,,,,SPECI,154.0
KCWV 200615Z AUTO 00000KT 7SM OVC021 20/19 A3006 RMK AO2 T02030190,KCWV,2023-05-20T06:15:00Z,32.2,-81.87,20.3,19.0,0,0,,7.0,30.059055,,,TRUE,TRUE,,,,,,,OVC,2100,,,,,,,MVFR,,,,,,,,,,,,METAR,32.0
KCWF 200615Z AUTO 26006KT 10SM CLR 26/22 A3001 RMK AO2 T02640218,KCWF,2023-05-20T06:15:00Z,30.22,-93.15,26.4,21.8,260,6,,10.0,30.008858,,,TRUE,TRUE,,,,,,,CLR,,,,,,,,VFR,,,,,,,,,,,,METAR,4.0
KCWC 200615Z AUTO 02017G21KT 10SM OVC018 17/13 A3023 RMK AO2 T01680130,KCWC,2023-05-20T06:15:00Z,33.85,-98.48,16.8,13.0,20,17,21,10.0,30.230314,,,TRUE,TRUE,,,,,,,OVC,1800,,,,,,,MVFR,,,,,,,,,,,,SPECI,304.0
KCWA 200615Z AUTO 33010KT 10SM SCT033 06/04 A3016 RMK AO2,KCWA,2023-05-20T06:15:00Z,44.78,-89.67,6.0,4.0,330,10,,10.0,30.159449,,,TRUE,TRUE,,,,,,,SCT,3300,,,,,,,VFR,,,,,,,,,,,,METAR,387.0
KCVX 200615Z AUTO 27007KT 10SM -DZ OVC004 07/05 A3000 RMK AO2 T00660051,KCVX,2023-05-20T06:15:00Z,45.3,-85.27,6.6,5.1,270,7,,10.0,30.0,,,TRUE,TRUE,,,,,,-DZ,OVC,400,,,,,,,LIFR,,,,,,,,,,,,SPECI,196.0
KCVH 200615Z AUTO 00000KT 10SM CLR 12/10 A3010 RMK A01,KCVH,2023-05-20T06:15:00Z,36.9,-121.42,12.0,10.0,0,0,,10.0,30.100393,,,TRUE,TRUE,,,,,,,CLR,,,,,,,,VFR,,,,,,,,,,,,SPECI,68.0
KCVC 200615Z AUTO 00000KT 10SM OVC007 17/17 A3009 RMK AO2,KCVC,2023-05-20T06:15:00Z,33.63,-83.85,17.0,17.0,0,0,,10.0,30.088583,,,TRUE,TRUE,,,,,,,OVC,700,,,,,,,IFR,,,,,,,,,,,,SPECI,240.0
KCUH 200615Z AUTO 35005KT 10SM CLR 12/11 A3021 RMK AO2 T01180109,KCUH,2023-05-20T06:15:00Z,35.95,-96.77,11.8,10.9,350,5,,10.0,30.209646,,,TRUE,TRUE,,,,,,,CLR,,,,,,,,VFR,,,,,,,,,,,,SPECI,274.0
KCTY 200615Z AUTO 00000KT 10SM CLR 21/20 A3003 RMK AO2,KCTY,2023-05-20T06:15:00Z,29.63,-83.1,21.0,20.0,0,0,,10.0,30.029528,,,TRUE,TRUE,,,,,,,CLR,,,,,,,,VFR,,,,,,,,,,,,SPECI,12.0
KCSQ 200615Z AUTO 01006KT 10SM CLR 08/06 A3022 RMK AO2,KCSQ,2023-05-20T06:15:00Z,41.02,-94.37,8.0,6.0,10,6,,10.0,30.221457,,,TRUE,TRUE,,,,,,,CLR,,,,,,,,VFR,,,,,,,,,,,,SPECI,394.0
KCRX 200615Z AUTO 17008KT 10SM BKN012 20/19 A3001 RMK AO2,KCRX,2023-05-20T06:15:00Z,34.92,-88.6,20.0,19.0,170,8,,10.0,30.008858,,,TRUE,TRUE,,,,,,,BKN,1200,,,,,,,MVFR,,,,,,,,,,,,SPECI,128.0
KCQW 200615Z AUTO 07004KT 10SM OVC014 18/17 A3007 RMK AO2,KCQW,2023-05-20T06:15:00Z,34.72,-79.95,18.0,17.0,70,4,,10.0,30.070866,,,TRUE,TRUE,,,,,,,OVC,1400,,,,,,,MVFR,,,,,,,,,,,,SPECI,67.0
KCQF 200615Z AUTO 00000KT 10SM CLR 22/21 A3002 RMK AO2,KCQF,2023-05-20T06:15:00Z,30.47,-87.88,22.0,21.0,0,0,,10.0,30.02067,,,TRUE,TRUE,,,,,,,CLR,,,,,,,,VFR,,,,,,,,,,,,METAR,21.0
KCQB 200615Z AUTO 36005KT 1 3/4SM BR VV007 12/11 A3022 RMK AO2 T01200108,KCQB,2023-05-20T06:15:00Z,35.72,-96.82,12.0,10.8,360,5,,1.75,30.221457,,,TRUE,TRUE,,,,,,BR,OVX,0,,,,,,,LIFR,,,,,,,,,,,700,METAR,298.0
KCPU 200615Z AUTO 00000KT 10SM CLR 19/10 A3004 RMK AO2 T01880099,KCPU,2023-05-20T06:15:00Z,38.15,-120.65,18.8,9.9,0,0,,10.0,30.041338,,,TRUE,TRUE,,,,,,,CLR,,,,,,,,VFR,,,,,,,,,,,,METAR,400.0
KCPT 200615Z AUTO 30005KT 10SM BKN019 BKN120 21/21 A3013 RMK A01,KCPT,2023-05-20T06:15:00Z,32.35,-97.43,21.0,21.0,300,5,,10.0,30.129921,,,TRUE,TRUE,,,,,,,BKN,1900,BKN,12000,,,,,MVFR,,,,,,,,,,,,SPECI,260.0
KCPP 200615Z AUTO 00000KT 10SM OVC024 17/17 A3009 RMK AO2,KCPP,2023-05-20T06:15:00Z,,,17.0,17.0,0,0,,10.0,30.088583,,,TRUE,TRUE,,,,,,,OVC,2400,,,,,,,MVFR,,,,,,,,,,,,METAR,
KCPK 200615Z AUTO 02005KT 3SM OVC004 A3004 RMK AO2,KCPK,2023-05-20T06:15:00Z,36.67,-76.32,,,20,5,,3.0,30.041338,,,TRUE,TRUE,,,,,,,OVC,400,,,,,,,LIFR,,,,,,,,,,,,SPECI,4.0
KCPF 200615Z AUTO 21004KT 10SM BKN080 OVC110 17/15 A3003 RMK AO2,KCPF,2023-05-20T06:15:00Z,37.38,-83.27,17.0,15.0,210,4,,10.0,30.029528,,,TRUE,TRUE,,,,,,,BKN,8000,OVC,11000,,,,,VFR,,,,,,,,,,,,SPECI,382.0
KCOQ 200615Z AUTO 28007KT 10SM CLR 08/03 A3019 RMK AO2 TSNO,KCOQ,2023-05-20T06:15:00Z,46.7,-92.5,8.0,3.0,280,7,,10.0,30.188976,,,TRUE,TRUE,,,TRUE,,,,CLR,,,,,,,,VFR,,,,,,,,,,,,METAR,390.0
KCOM 200615Z AUTO 01012KT 10SM SCT010 SCT024 BKN120 18/16 A3015 RMK AO2 LTG DSNT S T01800162,KCOM,2023-05-20T06:15:00Z,31.83,-99.4,18.0,16.2,10,12,,10.0,30.15059,,,TRUE,TRUE,,,,,,,SCT,1000,SCT,2400,BKN,12000,,,VFR,,,,,,,,,,,,METAR,516.0
KCNI 200615Z AUTO 13005KT 10SM BKN021 OVC030 18/16 A3010 RMK AO2 T01850165,KCNI,2023-05-20T06:15:00Z,34.32,-84.42,18.5,16.5,130,5,,10.0,30.100393,,,TRUE,TRUE,,,,,,,BKN,2100,OVC,3000,,,,,MVFR,,,,,,,,,,,,SPECI,371.0
KCNC 200615Z AUTO 33006KT 10SM CLR 08/06 A3020 RMK AO2,KCNC,2023-05-20T06:15:00Z,41.02,-93.37,8.0,6.0,330,6,,10.0,30.200787,,,TRUE,TRUE,,,,,,,CLR,,,,,,,,VFR,,,,,,,,,,,,SPECI,319.0
KCNB 200615Z AUTO 29003KT 10SM CLR 07/04 A3028 RMK AO2 T00680035,KCNB,2023-05-20T06:15:00Z,44.73,-96.27,6.8,3.5,290,3,,10.0,30.280512,,,TRUE,TRUE,,,,,,,CLR,,,,,,,,VFR,,,,,,,,,,,,METAR,363.0
KCMR 200615Z AUTO 15005KT 10SM CLR 09/07 A3031 RMK AO2,KCMR,2023-05-20T06:15:00Z,35.3,-112.2,9.0,7.0,150,5,,10.0,30.31004,,,TRUE,TRUE,,,,,,,CLR,,,,,,,,VFR,,,,,,,,,,,,SPECI,2039.0
KCMD 200615Z AUTO 18005KT 10SM OVC027 19/18 A3007 RMK AO2,KCMD,2023-05-20T06:15:00Z,34.27,-86.85,19.0,18.0,180,5,,10.0,30.070866,,,TRUE,TRUE,,,,,,,OVC,2700,,,,,,,MVFR,,,,,,,,,,,,SPECI,294.0
KCLW 200615Z AUTO 00000KT 10SM CLR 25/20 A2999 RMK AO2,KCLW,2023-05-20T06:15:00Z,27.98,-82.75,25.0,20.0,0,0,,10.0,29.991142,,,TRUE,TRUE,,,,,,,CLR,,,,,,,,VFR,,,,,,,,,,,,SPECI,21.0
KCLS 200615Z AUTO 25006KT 10SM BKN095 15/13 A3010 RMK AO2,KCLS,2023-05-20T06:15:00Z,46.68,-122.98,15.0,13.0,250,6,,10.0,30.100393,,,TRUE,TRUE,,,,,,,BKN,9500,,,,,,,VFR,,,,,,,,,,,,SPECI,52.0
KCLK 200615Z AUTO 01005KT 5SM BR CLR 11/10 A3025 RMK AO2,KCLK,2023-05-20T06:15:00Z,35.53,-98.93,11.0,10.0,10,5,,5.0,30.250984,,,TRUE,TRUE,,,,,,BR,CLR,,,,,,,,MVFR,,,,,,,,,,,,METAR,489.0
KCLI 200615Z AUTO 33008KT 10SM SCT032 BKN060 09/05 A3014 RMK AO2 T00880051,KCLI,2023-05-20T06:15:00Z,44.62,-88.73,8.8,5.1,330,8,,10.0,30.138779,,,TRUE,TRUE,,,,,,,SCT,3200,BKN,6000,,,,,VFR,,,,,,,,,,,,METAR,248.0
KCKZ 200615Z AUTO 00000KT 10SM FEW014 09/09 A3018 RMK AO2,KCKZ,2023-05-20T06:15:00Z,40.38,-75.28,9.0,9.0,0,0,,10.0,30.180119,,,TRUE,TRUE,,,,,,,FEW,1400,,,,,,,VFR,,,,,,,,,,,,SPECI,160.0
KCKP 200615Z AUTO 00000KT 10SM CLR 04/04 A3027 RMK AO2 T00410036,KCKP,2023-05-20T06:15:00Z,42.73,-95.55,4.1,3.6,0,0,,10.0,30.268702,,,TRUE,TRUE,,,,,,,CLR,,,,,,,,VFR,,,,,,,,,,,,METAR,369.0
KCKN 200615Z AUTO 20007KT 10SM CLR 09/04 A3022 RMK AO2,KCKN,2023-05-20T06:15:00Z,47.85,-96.62,9.0,4.0,200,7,,10.0,30.221457,,,TRUE,TRUE,,,,,,,CLR,,,,,,,,VFR,,,,,,,,,,,,SPECI,272.0
KCKM 200615Z AUTO 15008KT 10SM 23/23 A2997 RMK A01,KCKM,2023-05-20T06:15:00Z,34.3,-90.52,23.0,23.0,150,8,,10.0,29.970472,,,TRUE,TRUE,,,,,,,,,,,,,,,,,,,,,,,,,,,SPECI,52.0
KCKI 200615Z AUTO 00000KT 10SM OVC014 18/16 A3006 RMK AO2,KCKI,2023-05-20T06:15:00Z,33.72,-79.85,18.0,16.0,0,0,,10.0,30.059055,,,TRUE,TRUE,,,,,,,OVC,1400,,,,,,,MVFR,,,,,,,,,,,,SPECI,19.0
KCKF 200615Z AUTO 06003KT 10SM CLR 17/16 A3008 RMK AO2 T01700160,KCKF,2023-05-20T06:15:00Z,31.98,-83.77,17.0,16.0,60,3,,10.0,30.079725,,,TRUE,TRUE,,,,,,,CLR,,,,,,,,VFR,,,,,,,,,,,,METAR,92.0
KCJR 200615Z AUTO 00000KT 10SM BKN044 14/13 A3013 RMK AO2 T01420133,KCJR,2023-05-20T06:15:00Z,38.53,-77.87,14.2,13.3,0,0,,10.0,30.129921,,,TRUE,TRUE,,,,,,,BKN,4400,,,,,,,VFR,,,,,,,,,,,,SPECI,90.0
KCIN 200615Z AUTO 32004KT 10SM FEW046 OVC060 06/04 A3024 RMK AO2,KCIN,2023-05-20T06:15:00Z,42.03,-94.78,6.0,4.0,320,4,,10.0,30.239174,,,TRUE,TRUE,,,,,,,FEW,4600,OVC,6000,,,,,VFR,,,,,,,,,,,,METAR,365.0
KCIC 200615Z AUTO 12006KT 10SM CLR 25/12 A2997 RMK AO1,KCIC,2023-05-20T06:15:00Z,39.78,-121.85,25.0,12.0,120,6,,10.0,29.970472,,,TRUE,TRUE,,,,,,,CLR,,,,,,,,VFR,,,,,,,,,,,,METAR,72.0
KCHK 200615Z AUTO 35006KT 5SM CLR 13/12 A3020 RMK AO2 T01270117,KCHK,2023-05-20T06:15:00Z,35.1,-97.97,12.7,11.7,350,6,,5.0,30.200787,,,TRUE,TRUE,,,,,,,CLR,,,,,,,,MVFR,,,,,,,,,,,,METAR,346.0
KCGF 200615Z AUTO 1 1/2SM +RA BR SCT004 OVC009 16/15 A2996 RMK AO2 P0008 T01580155,KCGF,2023-05-20T06:15:00Z,41.57,-81.47,15.8,15.5,,,,1.5,29.958662,,,TRUE,TRUE,,,,,,+RA BR,SCT,400,OVC,900,,,,,IFR,,,,,,0.08,,,,,,METAR,265.0
KCGC 200615Z AUTO 05003KT 10SM SCT008 22/21 A3002 RMK AO2,KCGC,2023-05-20T06:15:00Z,28.87,-82.57,22.0,21.0,50,3,,10.0,30.02067,,,TRUE,TRUE,,,,,,,SCT,800,,,,,,,VFR,,,,,,,,,,,,SPECI,3.0
KCFS 200615Z AUTO 31005KT 10SM CLR 12/08 A2996 RMK AO2 T01200080,KCFS,2023-05-20T06:15:00Z,43.47,-83.45,12.0,8.0,310,5,,10.0,29.958662,,,TRUE,TRUE,,,,,,,CLR,,,,,,,,VFR,,,,,,,,,,,,SPECI,214.0
KCFO 200615Z AUTO 15004KT 4SM BR OVC037 12/10 A3035 RMK AO2 T01210101,KCFO,2023-05-20T06:15:00Z,39.78,-104.55,12.1,10.1,150,4,,4.0,30.351377,,,TRUE,TRUE,,,,,,BR,OVC,3700,,,,,,,MVFR,,,,,,,,,,,,METAR,1672.0
KCFJ 200615Z AUTO 36005KT 10SM SCT038 OVC090 13/07 A3005 RMK AO2 T01270069,KCFJ,2023-05-20T06:15:00Z,39.98,-86.92,12.7,6.9,360,5,,10.0,30.050198,,,TRUE,TRUE,,,,,,,SCT,3800,OVC,9000,,,,,VFR,,,,,,,,,,,,SPECI,243.0
KCFE 200615Z AUTO 00000KT 10SM OVC070 07/05 A3024 RMK AO2,KCFE,2023-05-20T06:15:00Z,45.17,-93.85,7.0,5.0,0,0,,10.0,30.239174,,,TRUE,TRUE,,,,,,,OVC,7000,,,,,,,VFR,,,,,,,,,,,,SPECI,292.0
KCFD 200615Z AUTO 26007KT 10SM SCT050 BKN095 OVC120 26/19 A3008 RMK AO2 T02550191,KCFD,2023-05-20T06:15:00Z,30.72,-96.33,25.5,19.1,260,7,,10.0,30.079725,,,TRUE,TRUE,,,,,,,SCT,5000,BKN,9500,OVC,12000,,,VFR,,,,,,,,,,,,METAR,106.0
KCEY 200615Z AUTO VRB04KT 1 1/4SM BR BKN004 BKN023 OVC032 20/20 A3000 RMK A01,KCEY,2023-05-20T06:15:00Z,36.67,-88.37,20.0,20.0,0,4,,1.25,30.0,,,TRUE,TRUE,,,,,,BR,BKN,400,BKN,2300,OVC,3200,,,LIFR,,,,,,,,,,,,SPECI,172.0
KCDN 200615Z AUTO 00000KT 9SM OVC019 18/18 A3008 RMK AO2,KCDN,2023-05-20T06:15:00Z,34.28,-80.57,18.0,18.0,0,0,,9.0,30.079725,,,TRUE,TRUE,,,,,,,OVC,1900,,,,,,,MVFR,,,,,,,,,,,,SPECI,90.0
KCDI 200615Z AUTO 00000KT 10SM SCT044 SCT050 BKN100 15/15 A2996 RMK AO2 T01480145,KCDI,2023-05-20T06:15:00Z,39.97,-81.58,14.8,14.5,0,0,,10.0,29.958662,,,TRUE,TRUE,,,,,,,SCT,4400,SCT,5000,BKN,10000,,,VFR,,,,,,,,,,,,SPECI,241.0
KCDH 200615Z AUTO 00000KT 9SM -RA FEW026 BKN038 OVC044 20/20 A3003 RMK AO2,KCDH,2023-05-20T06:15:00Z,33.62,-92.77,20.0,20.0,0,0,,9.0,30.029528,,,TRUE,TRUE,,,,,,-RA,FEW,2600,BKN,3800,OVC,4400,,,VFR,,,,,,,,,,,,SPECI,38.0
KCDD 200615Z AUTO 00000KT 10SM CLR 02/02 A3020 RMK AO2 PWINO,KCDD,2023-05-20T06:15:00Z,48.27,-92.48,2.0,2.0,0,0,,10.0,30.200787,,,TRUE,TRUE,,,,,TRUE,,CLR,,,,,,,,VFR,,,,,,,,,,,,SPECI,344.0
KCDA 200615Z AUTO 14004KT 7SM RA BKN070 OVC090 12/09 A3018 RMK AO2 T01230086,KCDA,2023-05-20T06:15:00Z,44.57,-72.02,12.3,8.6,140,4,,7.0,30.180119,,,TRUE,TRUE,,,,,,RA,BKN,7000,OVC,9000,,,,,VFR,,,,,,,,,,,,SPECI,357.0
KCCY 200615Z AUTO 32004KT 10SM CLR 07/07 A3021 RMK AO2,KCCY,2023-05-20T06:15:00Z,43.07,-92.62,7.0,7.0,320,4,,10.0,30.209646,,,TRUE,TRUE,,,,,,,CLR,,,,,,,,VFR,,,,,,,,,,,,METAR,340.0
KCCU 200615Z AUTO 17012KT 10SM BKN110 03/00 A3056 RMK AO2,KCCU,2023-05-20T06:15:00Z,39.48,-106.15,3.0,0.0,170,12,,10.0,30.561024,,,TRUE,TRUE,,,,,,,BKN,11000,,,,,,,VFR,,,,,,,,,,,,SPECI,3672.0
KCCO 200615Z AUTO 00000KT 10SM OVC026 18/17 A3008 RMK AO2 T01780172,KCCO,2023-05-20T06:15:00Z,33.32,-84.77,17.8,17.2,0,0,,10.0,30.079725,,,TRUE,TRUE,,,,,,,OVC,2600,,,,,,,MVFR,,,,,,,,,,,,METAR,290.0
KCCB 200615Z AUTO 27004KT 8SM 15/14 A3006 RMK AO2,KCCB,2023-05-20T06:15:00Z,34.12,-117.68,15.0,14.0,270,4,,8.0,30.059055,,,TRUE,TRUE,,,,,,,,,,,,,,,,,,,,,,,,,,,METAR,440.0
KCCA 200615Z AUTO 00000KT 10SM OVC014 20/20 A3004 RMK AO2,KCCA,2023-05-20T06:15:00Z,35.6,-92.45,20.0,20.0,0,0,,10.0,30.041338,,,TRUE,TRUE,,,,,,,OVC,1400,,,,,,,MVFR,,,,,,,,,,,,SPECI,152.0
KCBG 200615Z AUTO 00000KT 10SM CLR 06/M01 A3024 RMK AO2,KCBG,2023-05-20T06:15:00Z,45.57,-93.27,6.0,-1.0,0,0,,10.0,30.239174,,,TRUE,TRUE,,,,,,,CLR,,,,,,,,VFR,,,,,,,,,,,,SPECI,285.0
KCBF 200615Z AUTO 35004KT 10SM CLR 08/02 A3024 RMK AO2,KCBF,2023-05-20T06:15:00Z,41.27,-95.77,8.0,2.0,350,4,,10.0,30.239174,,,TRUE,TRUE,,,,,,,CLR,,,,,,,,VFR,,,,,,,,,,,,METAR,379.0
KCAV 200615Z AUTO 35006KT 10SM BKN045 BKN050 06/03 A3023 RMK A01,KCAV,2023-05-20T06:15:00Z,42.75,-93.77,6.0,3.0,350,6,,10.0,30.230314,,,TRUE,TRUE,,,,,,,BKN,4500,BKN,5000,,,,,VFR,,,,,,,,,,,,METAR,352.0
KCAD 200615Z AUTO 29004KT 10SM OVC010 08/06 A2999 RMK AO2 T00800062,KCAD,2023-05-20T06:15:00Z,44.27,-85.42,8.0,6.2,290,4,,10.0,29.991142,,,TRUE,TRUE,,,,,,,OVC,1000,,,,,,,MVFR,,,,,,,,,,,,SPECI,397.0
KC83 200615Z AUTO 24029G35KT 10SM CLR 15/10 A2998 RMK AO2,KC83,2023-05-20T06:15:00Z,37.83,-121.62,15.0,10.0,240,29,35,10.0,29.97933,,,TRUE,TRUE,,,,,,,CLR,,,,,,,,VFR,,,,,,,,,,,,METAR,16.0
KC75 200615Z AUTO 00000KT 10SM CLR 10/07 A3012 RMK AO2 T01020065,KC75,2023-05-20T06:15:00Z,41.02,-89.38,10.2,6.5,0,0,,10.0,30.121063,,,TRUE,TRUE,,,,,,,CLR,,,,,,,,VFR,,,,,,,,,,,,METAR,166.0
KC65 200615Z AUTO 00000KT 10SM SCT046 BKN050 11/08 A3004 RMK A01,KC65,2023-05-20T06:15:00Z,41.37,-86.3,11.0,8.0,0,0,,10.0,30.041338,,,TRUE,TRUE,,,,,,,SCT,4600,BKN,5000,,,,,VFR,,,,,,,,,,,,METAR,241.0
KC62 200615Z AUTO 34005KT 10SM OVC050 12/10 A3002 RMK AO2 T01230101,KC62,2023-05-20T06:15:00Z,41.47,-85.25,12.3,10.1,340,5,,10.0,30.02067,,,TRUE,TRUE,,,,,,,OVC,5000,,,,,,,VFR,,,,,,,,,,,,SPECI,304.0
KC35 200615Z AUTO 35005KT 10SM CLR 08/05 A3014 RMK AO2 T00820051 PWINO,KC35,2023-05-20T06:15:00Z,43.53,-89.98,8.2,5.1,350,5,,10.0,30.138779,,,TRUE,TRUE,,,,,TRUE,,CLR,,,,,,,,VFR,,,,,,,,,,,,SPECI,272.0
KC29 200615Z AUTO 33004KT 10SM CLR 10/05 A3013 RMK AO1 T00950053,KC29,2023-05-20T06:15:00Z,43.12,-89.53,9.5,5.3,330,4,,10.0,30.129921,,,TRUE,TRUE,,,,,,,CLR,,,,,,,,VFR,,,,,,,,,,,,SPECI,282.0
KC09 200615Z AUTO 34004KT 10SM CLR 11/05 A3009 RMK AO2 T01050052,KC09,2023-05-20T06:15:00Z,41.43,-88.42,10.5,5.2,340,4,,10.0,30.088583,,,TRUE,TRUE,,,,,,,CLR,,,,,,,,VFR,,,,,,,,,,,,SPECI,179.0
KC07 200615Z AUTO 00000KT 10SM CLR 02/02 A3049 RMK AO2,KC07,2023-05-20T06:15:00Z,40.35,-106.7,2.0,2.0,0,0,,10.0,30.490158,,,TRUE,TRUE,,,,,,,CLR,,,,,,,,VFR,,,,,,,,,,,,METAR,3224.0
KBYY 200615Z AUTO 00000KT 10SM CLR 22/21 A3005 RMK AO2 T02240213,KBYY,2023-05-20T06:15:00Z,28.97,-95.87,22.4,21.3,0,0,,10.0,30.050198,,,TRUE,TRUE,,,,,,,CLR,,,,,,,,VFR,,,,,,,,,,,,SPECI,12.0
KBYL 200615Z AUTO 00000KT 10SM FEW045 18/17 A3004 RMK AO1,KBYL,2023-05-20T06:15:00Z,36.8,-84.2,18.0,17.0,0,0,,10.0,30.041338,,,TRUE,TRUE,,,,,,,FEW,4500,,,,,,,VFR,,,,,,,,,,,,METAR,355.0
KBXK 200615Z AUTO 35013G19KT 10SM CLR 22/16 A3002 RMK A01,KBXK,2023-05-20T06:15:00Z,33.42,-112.68,22.0,16.0,350,13,19,10.0,30.02067,,,TRUE,TRUE,,,,,,,CLR,,,,,,,,VFR,,,,,,,,,,,,SPECI,303.0
KBXA 200615Z AUTO 00000KT 10SM CLR 23/22 A3002 RMK AO2 T02310215,KBXA,2023-05-20T06:15:00Z,30.82,-89.87,23.1,21.5,0,0,,10.0,30.02067,,,TRUE,TRUE,,,,,,,CLR,,,,,,,,VFR,,,,,,,,,,,,SPECI,35.0
KBWW 200615Z AUTO 19009KT 10SM CLR 07/04 A3023 RMK AO2,KBWW,2023-05-20T06:15:00Z,46.17,-103.3,7.0,4.0,190,9,,10.0,30.230314,,,TRUE,TRUE,,,,,,,CLR,,,,,,,,VFR,,,,,,,,,,,,SPECI,911.0
KBWP 200615Z AUTO 24003KT 8SM CLR 07/03 A3025 RMK AO2,KBWP,2023-05-20T06:15:00Z,46.25,-96.62,7.0,3.0,240,3,,8.0,30.250984,,,TRUE,TRUE,,,,,,,CLR,,,,,,,,VFR,,,,,,,,,,,,SPECI,294.0
KBVU 200615Z AUTO 23008KT 10SM CLR 25/10 A3002 RMK AO2,KBVU,2023-05-20T06:15:00Z,35.95,-114.87,25.0,10.0,230,8,,10.0,30.02067,,,TRUE,TRUE,,,,,,,CLR,,,,,,,,VFR,,,,,,,,,,,,SPECI,654.0
KBVS 200615Z AUTO 17005KT 10SM FEW110 12/12 A3008 RMK A01,KBVS,2023-05-20T06:15:00Z,48.47,-122.42,12.0,12.0,170,5,,10.0,30.079725,,,TRUE,TRUE,,,,,,,FEW,11000,,,,,,,VFR,,,,,,,,,,,,METAR,31.0
KBVN 200615Z AUTO 00000KT 10SM CLR 05/04 A3028 RMK AO2 T00500041,KBVN,2023-05-20T06:15:00Z,41.73,-98.05,5.0,4.1,0,0,,10.0,30.280512,,,TRUE,TRUE,,,,,,,CLR,,,,,,,,VFR,,,,,,,,,,,,METAR,547.0
KBVI 200615Z AUTO 17006KT 10SM BKN042 OVC050 19/14 A2997 RMK AO2 T01910135,KBVI,2023-05-20T06:15:00Z,40.77,-80.37,19.1,13.5,170,6,,10.0,29.970472,,,TRUE,TRUE,,,,,,,BKN,4200,OVC,5000,,,,,VFR,,,,,,,,,,,,SPECI,387.0
KBUU 200615Z AUTO 33007KT 10SM CLR 10/05 A3009 RMK AO2 T00960050 PWINO,KBUU,2023-05-20T06:15:00Z,42.68,-88.3,9.6,5.0,330,7,,10.0,30.088583,,,TRUE,TRUE,,,,,TRUE,,CLR,,,,,,,,VFR,,,,,,,,,,,,SPECI,238.0
KBTN 200615Z AUTO 29003KT 10SM CLR 06/06 A3026 RMK AO2,KBTN,2023-05-20T06:15:00Z,45.82,-97.75,6.0,6.0,290,3,,10.0,30.259842,,,TRUE,TRUE,,,,,,,CLR,,,,,,,,VFR,,,,,,,,,,,,SPECI,400.0
KBTA 200615Z AUTO 35005KT 10SM CLR 08/04 A3026 RMK AO2 T00810036,KBTA,2023-05-20T06:15:00Z,41.42,-96.12,8.1,3.6,350,5,,10.0,30.259842,,,TRUE,TRUE,,,,,,,CLR,,,,,,,,VFR,,,,,,,,,,,,SPECI,400.0
KBRY 200615Z AUTO 22003KT 10SM 20/19 A2998 RMK AO2 T01960186 $,KBRY,2023-05-20T06:15:00Z,37.82,-85.5,19.6,18.6,220,3,,10.0,29.97933,,,TRUE,TRUE,TRUE,,,,,,,,,,,,,,,,,,,,,,,,,,SPECI,192.0
KBRG 200615Z AUTO 15007KT 10SM SCT070 OVC095 14/12 A3033 RMK AO2 T01400115,KBRG,2023-05-20T06:15:00Z,34.65,-106.83,14.0,11.5,150,7,,10.0,30.33071,,,TRUE,TRUE,,,,,,,SCT,7000,OVC,9500,,,,,VFR,,,,,,,,,,,,SPECI,1585.0
KBQX 200615Z AUTO 19009KT 10SM BKN039 BKN046 BKN050 26/21 A3004 RMK A01,KBQX,2023-05-20T06:15:00Z,28.5,-95.72,26.0,21.0,190,9,,10.0,30.041338,,,TRUE,TRUE,,,,,,,BKN,3900,BKN,4600,BKN,5000,,,VFR,,,,,,,,,,,,SPECI,34.0
KBQP 200615Z AUTO 00000KT 22/21 A3001 RMK AO2 LTG DSNT NW THRU NE T02200212 PWINO,KBQP,2023-05-20T06:15:00Z,32.75,-91.88,22.0,21.2,0,0,,,30.008858,,,TRUE,TRUE,,,,,TRUE,,,,,,,,,,,,,,,,,,,,,,METAR,50.0
KBQK 200615Z AUTO 00000KT 10SM BKN031 20/19 A3004 RMK AO2 T01970186,KBQK,2023-05-20T06:15:00Z,31.25,-81.47,19.7,18.6,0,0,,10.0,30.041338,,,TRUE,TRUE,,,,,,,BKN,3100,,,,,,,VFR,,,,,,,,,,,,METAR,7.0
KBPG 200615Z AUTO 05021KT 10SM -RA SCT075 SCT085 OVC110 16/14 A3024 RMK AO2 T01650139,KBPG,2023-05-20T06:15:00Z,32.22,-101.52,16.5,13.9,50,21,,10.0,30.239174,,,TRUE,TRUE,,,,,,-RA,SCT,7500,SCT,8500,OVC,11000,,,VFR,,,,,,,,,,,,METAR,782.0
KBPC 200615Z AUTO 00000KT 5SM BR CLR 11/10 A3031 RMK AO2 PNO,KBPC,2023-05-20T06:15:00Z,35.88,-101.03,11.0,10.0,0,0,,5.0,30.31004,,,TRUE,TRUE,,,,,,BR,CLR,,,,,,,,MVFR,,,,,,,,,,,,SPECI,844.0
KBOW 200615Z AUTO 00000KT 10SM CLR 23/21 A2999 RMK AO2,KBOW,2023-05-20T06:15:00Z,27.93,-81.77,23.0,21.0,0,0,,10.0,29.991142,,,TRUE,TRUE,,,,,,,CLR,,,,,,,,VFR,,,,,,,,,,,,SPECI,38.0
KBNW 200615Z AUTO 32005KT 10SM CLR 07/05 A3021 RMK AO2,KBNW,2023-05-20T06:15:00Z,42.03,-93.83,7.0,5.0,320,5,,10.0,30.209646,,,TRUE,TRUE,,,,,,,CLR,,,,,,,,VFR,,,,,,,,,,,,METAR,350.0
KBNL 200615Z AUTO 03005KT 10SM OVC019 19/18 A3006 RMK AO2,KBNL,2023-05-20T06:15:00Z,33.25,-81.38,19.0,18.0,30,5,,10.0,30.059055,,,TRUE,TRUE,,,,,,,OVC,1900,,,,,,,MVFR,,,,,,,,,,,,SPECI,76.0
KBMT 200615Z AUTO 24007KT 10SM CLR 25/23 A3002 RMK AO2 T02450234,KBMT,2023-05-20T06:15:00Z,30.07,-94.22,24.5,23.4,240,7,,10.0,30.02067,,,TRUE,TRUE,,,,,,,CLR,,,,,,,,VFR,,,,,,,,,,,,METAR,8.0
KBKT 200615Z AUTO 35003KT 10SM CLR 14/14 A3008 RMK AO1 T01400140,KBKT,2023-05-20T06:15:00Z,37.07,-77.95,14.0,14.0,350,3,,10.0,30.079725,,,TRUE,TRUE,,,,,,,CLR,,,,,,,,VFR,,,,,,,,,,,,SPECI,134.0
KBKS 200615Z AUTO 15007KT 10SM CLR 25/25 A3001 RMK AO2 SLP123 T02480247 $,KBKS,2023-05-20T06:15:00Z,27.2,-98.12,24.8,24.7,150,7,,10.0,30.008858,1012.3,,TRUE,TRUE,TRUE,,,,,,CLR,,,,,,,,VFR,,,,,,,,,,,,SPECI,34.0
KBKN 200615Z AUTO 31005KT BKN065 10/10 A3024 RMK AO2,KBKN,2023-05-20T06:15:00Z,36.75,-97.35,10.0,10.0,310,5,,,30.239174,,,TRUE,TRUE,,,,,,,BKN,6500,,,,,,,,,,,,,,,,,,,SPECI,208.0
KBKD 200615Z AUTO 01006G14KT 10SM OVC017 19/15 A3020 RMK AO2 T01900145,KBKD,2023-05-20T06:15:00Z,32.72,-98.88,19.0,14.5,10,6,14,10.0,30.200787,,,TRUE,TRUE,,,,,,,OVC,1700,,,,,,,MVFR,,,,,,,,,,,,SPECI,383.0
KBJI 200615Z AUTO 00000KT 10SM CLR 06/04 A3023 RMK AO2 T00640037,KBJI,2023-05-20T06:15:00Z,47.5,-94.92,6.4,3.7,0,0,,10.0,30.230314,,,TRUE,TRUE,,,,,,,CLR,,,,,,,,VFR,,,,,,,,,,,,SPECI,422.0
KBJC 200615Z AUTO 07004KT 2 1/2SM BR SCT039 11/08 A3034 RMK AO2,KBJC,2023-05-20T06:15:00Z,39.9,-105.1,11.0,8.0,70,4,,2.5,30.339567,,,TRUE,TRUE,,,,,,BR,SCT,3900,,,,,,,IFR,,,,,,,,,,,,SPECI,1694.0
KBIJ 200615Z AUTO 00000KT 5SM BR CLR 17/16 A3006 RMK AO2,KBIJ,2023-05-20T06:15:00Z,31.4,-84.9,17.0,16.0,0,0,,5.0,30.059055,,,TRUE,TRUE,,,,,,BR,CLR,,,,,,,,MVFR,,,,,,,,,,,,SPECI,63.0
KBIE 200615Z AUTO 01004KT 10SM CLR 07/04 A3027 RMK AO2 T00710036,KBIE,2023-05-20T06:15:00Z,40.28,-96.75,7.1,3.6,10,4,,10.0,30.268702,,,TRUE,TRUE,,,,,,,CLR,,,,,,,,VFR,,,,,,,,,,,,METAR,398.0
KBHC 200615Z AUTO 06003KT 10SM OVC009 18/17 A3006 RMK AO2,KBHC,2023-05-20T06:15:00Z,31.72,-82.4,18.0,17.0,60,3,,10.0,30.059055,,,TRUE,TRUE,,,,,,,OVC,900,,,,,,,IFR,,,,,,,,,,,,METAR,61.0
KBGF 200615Z AUTO 20004KT 10SM OVC035 18/18 A3005 RMK A01,KBGF,2023-05-20T06:15:00Z,35.18,-86.07,18.0,18.0,200,4,,10.0,30.050198,,,TRUE,TRUE,,,,,,,OVC,3500,,,,,,,VFR,,,,,,,,,,,,SPECI,295.0
KBGE 200615Z AUTO 07005KT 10SM CLR 19/18 A3005 RMK AO2 T01880177,KBGE,2023-05-20T06:15:00Z,30.97,-84.63,18.8,17.7,70,5,,10.0,30.050198,,,TRUE,TRUE,,,,,,,CLR,,,,,,,,VFR,,,,,,,,,,,,METAR,40.0
KBFR 200615Z AUTO 35004KT 7SM -DZ SCT006 OVC016 16/14 A3001 RMK AO2,KBFR,2023-05-20T06:15:00Z,38.83,-86.45,16.0,14.0,350,4,,7.0,30.008858,,,TRUE,TRUE,,,,,,-DZ,SCT,600,OVC,1600,,,,,MVFR,,,,,,,,,,,,SPECI,223.0
KBEC 200615Z AUTO 31004KT 10SM CLR 11/10 A3023 RMK AO2 T01100101,KBEC,2023-05-20T06:15:00Z,37.7,-97.22,11.0,10.1,310,4,,10.0,30.230314,,,TRUE,TRUE,,,,,,,CLR,,,,,,,,VFR,,,,,,,,,,,,METAR,421.0
KBEA 200615Z AUTO 17004KT 10SM CLR 23/22 A3001 RMK AO2 T02280220,KBEA,2023-05-20T06:15:00Z,28.37,-97.78,22.8,22.0,170,4,,10.0,30.008858,,,TRUE,TRUE,,,,,,,CLR,,,,,,,,VFR,,,,,,,,,,,,SPECI,83.0
KBDU 200615Z AUTO 00000KT 4SM BR CLR 10/09 A3033 RMK AO2,KBDU,2023-05-20T06:15:00Z,40.03,-105.23,10.0,9.0,0,0,,4.0,30.33071,,,TRUE,TRUE,,,,,,BR,CLR,,,,,,,,MVFR,,,,,,,,,,,,METAR,1614.0
KBDN 200615Z AUTO VRB05KT 10SM CLR 18/10 A3016 RMK AO2,KBDN,2023-05-20T06:15:00Z,44.1,-121.2,18.0,10.0,0,5,,10.0,30.159449,,,TRUE,TRUE,,,,,,,CLR,,,,,,,,VFR,,,,,,,,,,,,METAR,1044.0
KBDH 200615Z AUTO 00000KT 10SM CLR 07/04 A3028 RMK AO2,KBDH,2023-05-20T06:15:00Z,45.12,-95.13,7.0,4.0,0,0,,10.0,30.280512,,,TRUE,TRUE,,,,,,,CLR,,,,,,,,VFR,,,,,,,,,,,,SPECI,341.0
KBCK 200615Z AUTO 00000KT 7SM CLR 02/02 A3018 RMK AO2 T00190016,KBCK,2023-05-20T06:15:00Z,44.25,-90.85,1.9,1.6,0,0,,7.0,30.180119,,,TRUE,TRUE,,,,,,,CLR,,,,,,,,VFR,,,,,,,,,,,,SPECI,256.0
KBCB 200615Z AUTO 00000KT 10SM OVC023 16/16 A3017 RMK AO2 T01580155,KBCB,2023-05-20T06:15:00Z,37.22,-80.42,15.8,15.5,0,0,,10.0,30.171259,,,TRUE,TRUE,,,,,,,OVC,2300,,,,,,,MVFR,,,,,,,,,,,,METAR,642.0
KBBP 200615Z AUTO 34003KT 10SM SCT012 OVC020 17/17 A3007 RMK AO2,KBBP,2023-05-20T06:15:00Z,34.62,-79.73,17.0,17.0,340,3,,10.0,30.070866,,,TRUE,TRUE,,,,,,,SCT,1200,OVC,2000,,,,,MVFR,,,,,,,,,,,,METAR,44.0
KBBG 200615Z AUTO 35008KT 4SM BR OVC006 13/13 A3014 RMK AO2,KBBG,2023-05-20T06:15:00Z,36.53,-93.2,13.0,13.0,350,8,,4.0,30.138779,,,TRUE,TRUE,,,,,,BR,OVC,600,,,,,,,IFR,,,,,,,,,,,,SPECI,403.0
KBBD 200615Z AUTO 05012KT 10SM SCT120 20/18 A3012 RMK AO2,KBBD,2023-05-20T06:15:00Z,31.18,-99.32,20.0,18.0,50,12,,10.0,30.121063,,,TRUE,TRUE,,,,,,,SCT,12000,,,,,,,VFR,,,,,,,,,,,,METAR,554.0
KBBB 200615Z AUTO 00000KT 10SM CLR 04/02 A3027 RMK AO2,KBBB,2023-05-20T06:15:00Z,45.32,-95.65,4.0,2.0,0,0,,10.0,30.268702,,,TRUE,TRUE,,,,,,,CLR,,,,,,,,VFR,,,,,,,,,,,,SPECI,315.0
KBAX 200615Z AUTO 32003KT 7SM CLR 10/10 A2995 RMK AO2 T01020102,KBAX,2023-05-20T06:15:00Z,43.78,-82.98,10.2,10.2,320,3,,7.0,29.949802,,,TRUE,TRUE,,,,,,,CLR,,,,,,,,VFR,,,,,,,,,,,,SPECI,229.0
KBAM 200615Z AUTO 00000KT 10SM CLR 20/03 A3015 RMK AO1,KBAM,2023-05-20T06:15:00Z,40.6,-116.87,20.0,3.0,0,0,,10.0,30.15059,,,TRUE,TRUE,,,,,,,CLR,,,,,,,,VFR,,,,,,,,,,,,SPECI,1381.0
KBAC 200615Z AUTO 19007KT 10SM CLR 06/06 A3026 RMK AO2,KBAC,2023-05-20T06:15:00Z,46.93,-98.02,6.0,6.0,190,7,,10.0,30.259842,,,TRUE,TRUE,,,,,,,CLR,,,,,,,,VFR,,,,,,,,,,,,SPECI,423.0
KAZC 200615Z AUTO 10009KT 10SM CLR 15/09 A3024 RMK AO2,KAZC,2023-05-20T06:15:00Z,36.97,-113.02,15.0,9.0,100,9,,10.0,30.239174,,,TRUE,TRUE,,,,,,,CLR,,,,,,,,VFR,,,,,,,,,,,,SPECI,1476.0
KAYS 200615Z AUTO 00000KT 3SM BR CLR 19/18 A3005 RMK AO2 T01870180,KAYS,2023-05-20T06:15:00Z,31.25,-82.4,18.7,18.0,0,0,,3.0,30.050198,,,TRUE,TRUE,,,,,,BR,CLR,,,,,,,,MVFR,,,,,,,,,,,,METAR,42.0
KAXX 200615Z AUTO 21006KT 7SM OVC018 07/05 A3048 RMK AO2 T00650053,KAXX,2023-05-20T06:15:00Z,36.42,-105.28,6.5,5.3,210,6,,7.0,30.481298,,,TRUE,TRUE,,,,,,,OVC,1800,,,,,,,MVFR,,,,,,,,,,,,SPECI,2543.0
KAXV 200615Z AUTO 23003KT 4SM -RA SCT013 BKN025 OVC046 15/14 A2998 RMK AO2,KAXV,2023-05-20T06:15:00Z,40.5,-84.3,15.0,14.0,230,3,,4.0,29.97933,,,TRUE,TRUE,,,,,,-RA,SCT,1300,BKN,2500,OVC,4600,,,MVFR,,,,,,,,,,,,SPECI,278.0
KAXS 200615Z AUTO 36009KT 10SM CLR 15/11 A3027 RMK AO2 T01500106,KAXS,2023-05-20T06:15:00Z,34.7,-99.33,15.0,10.6,360,9,,10.0,30.268702,,,TRUE,TRUE,,,,,,,CLR,,,,,,,,VFR,,,,,,,,,,,,SPECI,433.0
KAXH 200615Z AUTO 00000KT 10SM CLR 23/22 A3005 RMK AO2 T02280220,KAXH,2023-05-20T06:15:00Z,29.52,-95.48,22.8,22.0,0,0,,10.0,30.050198,,,TRUE,TRUE,,,,,,,CLR,,,,,,,,VFR,,,,,,,,,,,,SPECI,18.0
KAXA 200615Z AUTO 30005KT 10SM CLR 08/05 A3022 RMK A01,KAXA,2023-05-20T06:15:00Z,43.07,-94.27,8.0,5.0,300,5,,10.0,30.221457,,,TRUE,TRUE,,,,,,,CLR,,,,,,,,VFR,,,,,,,,,,,,METAR,371.0
KAWG 200615Z AUTO 35008KT 10SM CLR 10/06 A3016 RMK AO2,KAWG,2023-05-20T06:15:00Z,41.27,-91.67,10.0,6.0,350,8,,10.0,30.159449,,,TRUE,TRUE,,,,,,,CLR,,,,,,,,VFR,,,,,,,,,,,,METAR,229.0
KAVQ 200615Z AUTO 30003KT 10SM 23/09 A3005 RMK AO2 T02320091,KAVQ,2023-05-20T06:15:00Z,32.4,-111.22,23.2,9.1,300,3,,10.0,30.050198,,,TRUE,TRUE,,,,,,,,,,,,,,,,,,,,,,,,,,,SPECI,618.0
KAVC 200615Z AUTO 36004KT 10SM CLR 14/14 A3012 RMK AO2 T01390136,KAVC,2023-05-20T06:15:00Z,36.68,-78.05,13.9,13.6,360,4,,10.0,30.121063,,,TRUE,TRUE,,,,,,,CLR,,,,,,,,VFR,,,,,,,,,,,,METAR,119.0
KAUN 200615Z AUTO 10005KT 10SM CLR 19/13 A3003 RMK A01,KAUN,2023-05-20T06:15:00Z,38.95,-121.08,19.0,13.0,100,5,,10.0,30.029528,,,TRUE,TRUE,,,,,,,CLR,,,,,,,,VFR,,,,,,,,,,,,METAR,453.0
KAUM 200615Z AUTO 32004KT 10SM CLR 08/04 A3022 RMK AO2,KAUM,2023-05-20T06:15:00Z,43.67,-92.92,8.0,4.0,320,4,,10.0,30.221457,,,TRUE,TRUE,,,,,,,CLR,,,,,,,,VFR,,,,,,,,,,,,SPECI,376.0
KAUH 200615Z AUTO 00000KT 10SM CLR 06/02 A3028 RMK AO2 T00550024,KAUH,2023-05-20T06:15:00Z,40.88,-98.0,5.5,2.4,0,0,,10.0,30.280512,,,TRUE,TRUE,,,,,,,CLR,,,,,,,,VFR,,,,,,,,,,,,METAR,549.0
KATW 200615Z AUTO 32008KT 10SM OVC050 04/00 A3010 RMK AO2,KATW,2023-05-20T06:15:00Z,44.27,-88.52,4.0,0.0,320,8,,10.0,30.100393,,,TRUE,TRUE,,,,,,,OVC,5000,,,,,,,VFR,,,,,,,,,,,,METAR,266.0
KATS 200615Z AUTO 04016KT 10SM OVC019 18/12 A3032 RMK AO2,KATS,2023-05-20T06:15:00Z,32.85,-104.47,18.0,12.0,40,16,,10.0,30.318897,,,TRUE,TRUE,,,,,,,OVC,1900,,,,,,,MVFR,,,,,,,,,,,,SPECI,1073.0
KATA 200615Z AUTO 31003KT 10SM SCT055 24/23 A3000 RMK AO2 LTG DSNT NE SLP059 T02350227 $,KATA,2023-05-20T06:15:00Z,33.1,-94.2,23.5,22.7,310,3,,10.0,30.0,1005.9,,TRUE,TRUE,TRUE,,,,,,SCT,5500,,,,,,,VFR,,,,,,,,,,,,SPECI,85.0
KASW 200615Z AUTO 32004KT 10SM SCT049 12/07 A3004 RMK AO2 T01200080,KASW,2023-05-20T06:15:00Z,41.27,-85.83,12.0,8.0,320,4,,10.0,30.041338,,,TRUE,TRUE,,,,,,,SCT,4900,,,,,,,VFR,,,,,,,,,,,,METAR,253.0
KASN 200615Z AUTO 00000KT 10SM CLR 17/17 A3007 RMK AO2 T01670166,KASN,2023-05-20T06:15:00Z,33.57,-86.05,16.7,16.6,0,0,,10.0,30.070866,,,TRUE,TRUE,,,,,,,CLR,,,,,,,,VFR,,,,,,,,,,,,SPECI,159.0
KASL 200615Z AUTO 30003KT 10SM CLR 25/22 A2999 RMK AO2 LTG DSNT SE T02530220 $,KASL,2023-05-20T06:15:00Z,32.52,-94.3,25.3,22.0,300,3,,10.0,29.991142,,,TRUE,TRUE,TRUE,,,,,,CLR,,,,,,,,VFR,,,,,,,,,,,,SPECI,104.0
KARW 200615Z AUTO 36004KT 10SM SCT013 OVC030 20/18 A3004 RMK AO2,KARW,2023-05-20T06:15:00Z,32.42,-80.63,20.0,18.0,360,4,,10.0,30.041338,,,TRUE,TRUE,,,,,,,SCT,1300,OVC,3000,,,,,MVFR,,,,,,,,,,,,SPECI,2.0
KARV 200615Z AUTO 00000KT 10SM CLR 03/03 A3016 RMK AO2 T00320026,KARV,2023-05-20T06:15:00Z,45.92,-89.72,3.2,2.6,0,0,,10.0,30.159449,,,TRUE,TRUE,,,,,,,CLR,,,,,,,,VFR,,,,,,,,,,,,METAR,494.0
KARM 200615Z AUTO 00000KT 10SM CLR 21/21 A3007 RMK AO2 T02110211 TSNO,KARM,2023-05-20T06:15:00Z,29.25,-96.15,21.1,21.1,0,0,,10.0,30.070866,,,TRUE,TRUE,,,TRUE,,,,CLR,,,,,,,,VFR,,,,,,,,,,,,METAR,29.0
KAQX 200615Z AUTO 00000KT 7SM FEW002 17/17 A3005 RMK AO2,KAQX,2023-05-20T06:15:00Z,32.98,-81.27,17.0,17.0,0,0,,7.0,30.050198,,,TRUE,TRUE,,,,,,,FEW,200,,,,,,,VFR,,,,,,,,,,,,METAR,48.0
KAQO 200615Z AUTO 00000KT 9SM -RA SCT039 BKN050 OVC070 20/19 A3015 RMK AO2,KAQO,2023-05-20T06:15:00Z,30.78,-98.67,20.0,19.0,0,0,,9.0,30.15059,,,TRUE,TRUE,,,,,,-RA,SCT,3900,BKN,5000,OVC,7000,,,VFR,,,,,,,,,,,,METAR,334.0
KAPY 200615Z AUTO 14006KT 10SM CLR 27/21 A3002 RMK AO2 T02650207 TSNO,KAPY,2023-05-20T06:15:00Z,26.97,-99.25,26.5,20.7,140,6,,10.0,30.02067,,,TRUE,TRUE,,,TRUE,,,,CLR,,,,,,,,VFR,,,,,,,,,,,,SPECI,129.0
KANW 200615Z AUTO 28005KT 10SM CLR 07/04 A3030 RMK AO2 T00660037,KANW,2023-05-20T06:15:00Z,42.57,-100.0,6.6,3.7,280,5,,10.0,30.301182,,,TRUE,TRUE,,,,,,,CLR,,,,,,,,VFR,,,,,,,,,,,,METAR,788.0
KANQ 200615Z AUTO VRB05KT 10SM FEW048 OVC055 12/09 A3001 RMK AO2,KANQ,2023-05-20T06:15:00Z,41.63,-85.08,12.0,9.0,0,5,,10.0,30.008858,,,TRUE,TRUE,,,,,,,FEW,4800,OVC,5500,,,,,VFR,,,,,,,,,,,,SPECI,299.0
KANE 200615Z AUTO 00000KT 10SM CLR 07/05 A3023 RMK AO2,KANE,2023-05-20T06:15:00Z,45.15,-93.22,7.0,5.0,0,0,,10.0,30.230314,,,TRUE,TRUE,,,,,,,CLR,,,,,,,,VFR,,,,,,,,,,,,METAR,276.0
KAMN 200615Z AUTO 28004KT 10SM CLR 07/06 A3000 RMK AO2 T00700059,KAMN,2023-05-20T06:15:00Z,43.32,-84.68,7.0,5.9,280,4,,10.0,30.0,,,TRUE,TRUE,,,,,,,CLR,,,,,,,,VFR,,,,,,,,,,,,METAR,228.0
KALX 200615Z AUTO 00000KT 10SM CLR 19/19 A3007 RMK AO2 T01860185,KALX,2023-05-20T06:15:00Z,32.92,-85.97,18.6,18.5,0,0,,10.0,30.070866,,,TRUE,TRUE,,,,,,,CLR,,,,,,,,VFR,,,,,,,,,,,,METAR,198.0
KALM 200615Z AUTO 04005KT 10SM FEW031 FEW042 SCT120 19/09 A3022 RMK AO2,KALM,2023-05-20T06:15:00Z,32.83,-105.98,19.0,9.0,40,5,,10.0,30.221457,,,TRUE,TRUE,,,,,,,FEW,3100,FEW,4200,SCT,12000,,,VFR,,,,,,,,,,,,SPECI,1267.0
KAJZ 200615Z AUTO 01007KT 10SM CLR 16/08 A3028 RMK AO2 T01570075 PWINO,KAJZ,2023-05-20T06:15:00Z,38.78,-108.07,15.7,7.5,10,7,,10.0,30.280512,,,TRUE,TRUE,,,,,TRUE,,CLR,,,,,,,,VFR,,,,,,,,,,,,SPECI,1583.0
KAJR 200615Z AUTO 00000KT 7SM OVC037 18/18 A3010 RMK AO2 T01830183,KAJR,2023-05-20T06:15:00Z,34.5,-83.55,18.3,18.3,0,0,,7.0,30.100393,,,TRUE,TRUE,,,,,,,OVC,3700,,,,,,,VFR,,,,,,,,,,,,METAR,441.0
KAJG 200615Z AUTO 34008KT 7SM -RA OVC095 18/15 A3005 RMK AO2 T01760145,KAJG,2023-05-20T06:15:00Z,38.62,-87.73,17.6,14.5,340,8,,7.0,30.050198,,,TRUE,TRUE,,,,,,-RA,OVC,9500,,,,,,,VFR,,,,,,,,,,,,SPECI,130.0
KAIT 200615Z AUTO 00000KT 10SM CLR 03/03 A3023 RMK AO2,KAIT,2023-05-20T06:15:00Z,46.53,-93.67,3.0,3.0,0,0,,10.0,30.230314,,,TRUE,TRUE,,,,,,,CLR,,,,,,,,VFR,,,,,,,,,,,,SPECI,367.0
KAIO 200615Z AUTO 00000KT 10SM CLR 06/06 A3024 RMK AO2,KAIO,2023-05-20T06:15:00Z,41.4,-95.03,6.0,6.0,0,0,,10.0,30.239174,,,TRUE,TRUE,,,,,,,CLR,,,,,,,,VFR,,,,,,,,,,,,METAR,349.0
KAIK 200615Z AUTO 04006KT 10SM SCT007 OVC018 18/17 A3007 RMK AO2 T01830173,KAIK,2023-05-20T06:15:00Z,33.65,-81.68,18.3,17.3,40,6,,10.0,30.070866,,,TRUE,TRUE,,,,,,,SCT,700,OVC,1800,,,,,MVFR,,,,,,,,,,,,METAR,155.0
KAIG 200615Z AUTO 31010KT 10SM CLR 06/05 A3014 RMK AO2 T00560045,KAIG,2023-05-20T06:15:00Z,45.15,-89.12,5.6,4.5,310,10,,10.0,30.138779,,,TRUE,TRUE,,,,,,,CLR,,,,,,,,VFR,,,,,,,,,,,,SPECI,462.0
KAID 200615Z AUTO 35008KT 7SM -RA SCT024 BKN035 OVC080 14/11 A3004 RMK AO2 P0001 T01360108,KAID,2023-05-20T06:15:00Z,40.12,-85.62,13.6,10.8,350,8,,7.0,30.041338,,,TRUE,TRUE,,,,,,-RA,SCT,2400,BKN,3500,OVC,8000,,,VFR,,,,,,0.01,,,,,,SPECI,277.0
KAHQ 200615Z AUTO 33004KT 10SM 06/03 A3027 RMK AO2 T00550025,KAHQ,2023-05-20T06:15:00Z,41.23,-96.6,5.5,2.5,330,4,,10.0,30.268702,,,TRUE,TRUE,,,,,,,,,,,,,,,,,,,,,,,,,,,METAR,372.0
KAGO 200615Z AUTO 00000KT 8SM FEW004 SCT034 BKN055 22/21 A2999 RMK A01,KAGO,2023-05-20T06:15:00Z,33.23,-93.22,22.0,21.0,0,0,,8.0,29.991142,,,TRUE,TRUE,,,,,,,FEW,400,SCT,3400,BKN,5500,,,VFR,,,,,,,,,,,,METAR,91.0
KAGI 200615Z AUTO 17006KT 10SM CLR 25/20 A3002 RMK AO2 T02490197,KAGI,2023-05-20T06:15:00Z,27.55,-92.45,24.9,19.7,170,6,,10.0,30.02067,,,TRUE,TRUE,,,,,,,CLR,,,,,,,,VFR,,,,,,,,,,,,SPECI,41.0
KAFK 200615Z AUTO 34006KT 10SM CLR 08/04 A3026 RMK AO2 T00810041,KAFK,2023-05-20T06:15:00Z,40.6,-95.85,8.1,4.1,340,6,,10.0,30.259842,,,TRUE,TRUE,,,,,,,CLR,,,,,,,,VFR,,,,,,,,,,,,METAR,353.0
KAEL 200615Z AUTO 00000KT 10SM CLR 06/05 A3023 RMK AO2,KAEL,2023-05-20T06:15:00Z,43.68,-93.37,6.0,5.0,0,0,,10.0,30.230314,,,TRUE,TRUE,,,,,,,CLR,,,,,,,,VFR,,,,,,,,,,,,SPECI,382.0
KAEJ 200615Z AUTO 00000KT 7SM OVC027 07/05 A3044 RMK AO2 T00660045,KAEJ,2023-05-20T06:15:00Z,38.82,-106.12,6.6,4.5,0,0,,7.0,30.43996,,,TRUE,TRUE,,,,,,,OVC,2700,,,,,,,MVFR,,,,,,,,,,,,SPECI,2420.0
KAEG 200615Z AUTO 13007KT 10SM SCT095 BKN110 13/08 A3036 RMK AO2 T01250081,KAEG,2023-05-20T06:15:00Z,35.13,-106.8,12.5,8.1,130,7,,10.0,30.360237,,,TRUE,TRUE,,,,,,,SCT,9500,BKN,11000,,,,,VFR,,,,,,,,,,,,SPECI,1771.0
KADU 200615Z AUTO 00000KT 10SM SCT047 SCT050 BKN070 05/03 A3024 RMK AO2 PWINO,KADU,2023-05-20T06:15:00Z,41.7,-94.92,5.0,3.0,0,0,,10.0,30.239174,,,TRUE,TRUE,,,,,TRUE,,SCT,4700,SCT,5000,BKN,7000,,,VFR,,,,,,,,,,,,METAR,391.0
KADS 200615Z AUTO 36011G14KT 10SM BKN014 BKN070 20/17 A3012 RMK AO2 T01960174,KADS,2023-05-20T06:15:00Z,32.97,-96.83,19.6,17.4,360,11,14,10.0,30.121063,,,TRUE,TRUE,,,,,,,BKN,1400,BKN,7000,,,,,MVFR,,,,,,,,,,,,SPECI,198.0
KADM 200615Z AUTO 01012G18KT 6SM HZ OVC014 16/13 A3016 RMK AO2,KADM,2023-05-20T06:15:00Z,34.3,-97.02,16.0,13.0,10,12,18,6.0,30.159449,,,TRUE,TRUE,,,,,,HZ,OVC,1400,,,,,,,MVFR,,,,,,,,,,,,METAR,223.0
KADH 200615Z AUTO 01009G18KT 5SM BR OVC012 14/13 A3018 RMK AO2,KADH,2023-05-20T06:15:00Z,34.8,-96.67,14.0,13.0,10,9,18,5.0,30.180119,,,TRUE,TRUE,,,,,,BR,OVC,1200,,,,,,,MVFR,,,,,,,,,,,,METAR,301.0
KACQ 200615Z AUTO 00000KT 10SM CLR 06/04 A3025 RMK AO2,KACQ,2023-05-20T06:15:00Z,44.07,-93.55,6.0,4.0,0,0,,10.0,30.250984,,,TRUE,TRUE,,,,,,,CLR,,,,,,,,VFR,,,,,,,,,,,,METAR,339.0
KACP 200615Z AUTO 00000KT 7SM CLR 22/20 A3000 RMK AO2,KACP,2023-05-20T06:15:00Z,30.75,-92.68,22.0,20.0,0,0,,7.0,30.0,,,TRUE,TRUE,,,,,,,CLR,,,,,,,,VFR,,,,,,,,,,,,SPECI,31.0
KACJ 200615Z AUTO 00000KT 4SM BR CLR 17/17 A3007 RMK AO2 T01710171,KACJ,2023-05-20T06:15:00Z,32.12,-84.18,17.1,17.1,0,0,,4.0,30.070866,,,TRUE,TRUE,,,,,,BR,CLR,,,,,,,,MVFR,,,,,,,,,,,,METAR,140.0
KACB 200615Z AUTO 00000KT 10SM OVC006 07/06 A3001 RMK AO2 T00700057,KACB,2023-05-20T06:15:00Z,44.98,-85.2,7.0,5.7,0,0,,10.0,30.008858,,,TRUE,TRUE,,,,,,,OVC,600,,,,,,,IFR,,,,,,,,,,,,METAR,189.0
KAAS 200615Z AUTO 23006KT 10SM OVC031 18/16 A3007 RMK AO1,KAAS,2023-05-20T06:15:00Z,37.35,-85.32,18.0,16.0,230,6,,10.0,30.070866,,,TRUE,TRUE,,,,,,,OVC,3100,,,,,,,VFR,,,,,,,,,,,,SPECI,270.0
KAAA 200615Z AUTO 01005KT 10SM 12/08 A3011 RMK AO2 T01210076,KAAA,2023-05-20T06:15:00Z,40.17,-89.33,12.1,7.6,10,5,,10.0,30.109253,,,TRUE,TRUE,,,,,,,,,,,,,,,,,,,,,,,,,,,METAR,179.0
KA39 200615Z AUTO 33007KT 10SM CLR 24/11 A3007 RMK AO2,KA39,2023-05-20T06:15:00Z,32.98,-111.92,24.0,11.0,330,7,,10.0,30.070866,,,TRUE,TRUE,,,,,,,CLR,,,,,,,,VFR,,,,,,,,,,,,METAR,391.0
K9S9 200615Z AUTO 13012KT 10SM CLR 22/10 A3006 RMK AO2 PWINO,K9S9,2023-05-20T06:15:00Z,45.45,-119.68,22.0,10.0,130,12,,10.0,30.059055,,,TRUE,TRUE,,,,,TRUE,,CLR,,,,,,,,VFR,,,,,,,,,,,,METAR,498.0
K9MN 200615Z AUTO 31004KT 10SM CLR 09/04 A3022 RMK AO1 T00880040,K9MN,2023-05-20T06:15:00Z,44.02,-92.48,8.8,4.0,310,4,,10.0,30.221457,,,TRUE,TRUE,,,,,,,CLR,,,,,,,,VFR,,,,,,,,,,,,SPECI,308.0
K9D7 200615Z AUTO 20009KT 10SM CLR 09/03 A3021 RMK AO2 TSNO,K9D7,2023-05-20T06:15:00Z,48.48,-99.23,9.0,3.0,200,9,,10.0,30.209646,,,TRUE,TRUE,,,TRUE,,,,CLR,,,,,,,,VFR,,,,,,,,,,,,SPECI,451.0
K9A5 200615Z AUTO 22003KT 10SM OVC036 17/17 A3007 RMK AO2 T01720172,K9A5,2023-05-20T06:15:00Z,34.68,-85.28,17.2,17.2,220,3,,10.0,30.070866,,,TRUE,TRUE,,,,,,,OVC,3600,,,,,,,VFR,,,,,,,,,,,,SPECI,234.0
K96D 200615Z AUTO 3/88000004KT 10SM CLR 11/01 A3017 RMK AO2,K96D,2023-05-20T06:15:00Z,48.93,-97.9,11.0,1.0,0,4,,10.0,30.171259,,,TRUE,TRUE,,,,,,,CLR,,,,,,,,VFR,,,,,,,,,,,,SPECI,290.0
K8W2 200615Z AUTO 00000KT 10SM BKN042 12/11 A3010 RMK AO1 T01200113,K8W2,2023-05-20T06:15:00Z,38.65,-78.7,12.0,11.3,0,0,,10.0,30.100393,,,TRUE,TRUE,,,,,,,BKN,4200,,,,,,,VFR,,,,,,,,,,,,METAR,295.0
K8T6 200615Z AUTO 14006KT 10SM FEW016 FEW043 25/25 A3001 RMK AO2,K8T6,2023-05-20T06:15:00Z,28.37,-98.12,25.0,25.0,140,6,,10.0,30.008858,,,TRUE,TRUE,,,,,,,FEW,1600,FEW,4300,,,,,VFR,,,,,,,,,,,,METAR,39.0
K8B0 200615Z AUTO 27003KT 10SM FEW040 SCT065 BKN080 11/08 A3016 RMK AO2,K8B0,2023-05-20T06:15:00Z,44.98,-70.65,11.0,8.0,270,3,,10.0,30.159449,,,TRUE,TRUE,,,,,,,FEW,4000,SCT,6500,BKN,8000,,,VFR,,,,,,,,,,,,SPECI,552.0
K8A3 200615Z AUTO 22005KT 10SM BKN038 OVC043 18/17 A3004 RMK A01,K8A3,2023-05-20T06:15:00Z,36.42,-85.32,18.0,17.0,220,5,,10.0,30.041338,,,TRUE,TRUE,,,,,,,BKN,3800,OVC,4300,,,,,VFR,,,,,,,,,,,,SPECI,413.0
K8A0 200615Z AUTO 00000KT 7SM CLR 17/16 A3007 RMK AO2,K8A0,2023-05-20T06:15:00Z,34.23,-86.25,17.0,16.0,0,0,,7.0,30.070866,,,TRUE,TRUE,,,,,,,CLR,,,,,,,,VFR,,,,,,,,,,,,METAR,313.0
K82C 200615Z AUTO 32004KT 10SM CLR 07/06 A3015 RMK AO2 T00710061,K82C,2023-05-20T06:15:00Z,43.83,-90.13,7.1,6.1,320,4,,10.0,30.15059,,,TRUE,TRUE,,,,,,,CLR,,,,,,,,VFR,,,,,,,,,,,,SPECI,273.0
K81R 200615Z AUTO 02008KT 10SM SCT019 SCT070 SCT110 20/19 A3016 RMK AO2 T02040194,K81R,2023-05-20T06:15:00Z,31.23,-98.72,20.4,19.4,20,8,,10.0,30.159449,,,TRUE,TRUE,,,,,,,SCT,1900,SCT,7000,SCT,11000,,,VFR,,,,,,,,,,,,SPECI,381.0
K7W4 200615Z AUTO 10SM CLR 13/13 A3010 RMK AO1 T01270125,K7W4,2023-05-20T06:15:00Z,37.97,-77.75,12.7,12.5,,,,10.0,30.100393,,,TRUE,TRUE,,,,,,,CLR,,,,,,,,VFR,,,,,,,,,,,,SPECI,115.0
K7L2 200615Z AUTO 16009KT 10SM CLR 09/05 A3027 RMK AO2,K7L2,2023-05-20T06:15:00Z,46.22,-100.25,9.0,5.0,160,9,,10.0,30.268702,,,TRUE,TRUE,,,,,,,CLR,,,,,,,,VFR,,,,,,,,,,,,SPECI,541.0
K77S 200615Z AUTO 26005KT 10SM CLR 18/12 A3008 RMK A01,K77S,2023-05-20T06:15:00Z,43.93,-123.0,18.0,12.0,260,5,,10.0,30.079725,,,TRUE,TRUE,,,,,,,CLR,,,,,,,,VFR,,,,,,,,,,,,SPECI,161.0
K6S2 200615Z AUTO 33011KT 5SM BR OVC003 13/13 A3015 RMK AO2,K6S2,2023-05-20T06:15:00Z,43.98,-124.12,13.0,13.0,330,11,,5.0,30.15059,,,TRUE,TRUE,,,,,,BR,OVC,300,,,,,,,LIFR,,,,,,,,,,,,SPECI,16.0
K6S0 200615Z AUTO 25005KT 10SM FEW050 11/05 A3019 RMK A01,K6S0,2023-05-20T06:15:00Z,45.8,-109.97,11.0,5.0,250,5,,10.0,30.188976,,,TRUE,TRUE,,,,,,,FEW,5000,,,,,,,VFR,,,,,,,,,,,,METAR,1364.0
K6R3 200615Z AUTO 00000KT 10SM CLR 24/22 A3005 RMK AO2 T02390215,K6R3,2023-05-20T06:15:00Z,30.35,-95.0,23.9,21.5,0,0,,10.0,30.050198,,,TRUE,TRUE,,,,,,,CLR,,,,,,,,VFR,,,,,,,,,,,,METAR,44.0
K6L4 200615Z AUTO VRB04KT 10SM CLR 18/15 A3004 RMK AO2,K6L4,2023-05-20T06:15:00Z,37.85,-81.92,18.0,15.0,0,4,,10.0,30.041338,,,TRUE,TRUE,,,,,,,CLR,,,,,,,,VFR,,,,,,,,,,,,SPECI,504.0
K6B9 200615Z AUTO 19009G18KT 150V220 10SM OVC110 17/09 A3003 RMK AO2,K6B9,2023-05-20T06:15:00Z,42.92,-76.43,17.0,9.0,190,9,18,10.0,30.029528,,,TRUE,TRUE,,,,,,,OVC,11000,,,,,,,VFR,,,,,,,,,,,,SPECI,306.0
K6B0 200615Z AUTO 18007KT 10SM BKN070 OVC100 15/08 A3014 RMK AO2 T01500077,K6B0,2023-05-20T06:15:00Z,43.98,-73.1,15.0,7.7,180,7,,10.0,30.138779,,,TRUE,TRUE,,,,,,,BKN,7000,OVC,10000,,,,,VFR,,,,,,,,,,,,SPECI,149.0
K6A2 200615Z AUTO 00000KT 10SM SCT008 OVC021 18/17 A3009 RMK AO2,K6A2,2023-05-20T06:15:00Z,33.23,-84.27,18.0,17.0,0,0,,10.0,30.088583,,,TRUE,TRUE,,,,,,,SCT,800,OVC,2100,,,,,MVFR,,,,,,,,,,,,SPECI,290.0
K6A1 200615Z AUTO 08003KT 10SM OVC029 19/17 A3009 RMK AO2 T01920172,K6A1,2023-05-20T06:15:00Z,32.57,-84.25,19.2,17.2,80,3,,10.0,30.088583,,,TRUE,TRUE,,,,,,,OVC,2900,,,,,,,MVFR,,,,,,,,,,,,METAR,198.0
K66R 200615Z AUTO 00000KT 10SM CLR 22/21 A3007 RMK AO2 T02200205,K66R,2023-05-20T06:15:00Z,29.65,-96.52,22.0,20.5,0,0,,10.0,30.070866,,,TRUE,TRUE,,,,,,,CLR,,,,,,,,VFR,,,,,,,,,,,,SPECI,70.0
K65S 200615Z AUTO 00000KT 10SM CLR 17/13 A3006 RMK AO2,K65S,2023-05-20T06:15:00Z,48.73,-116.3,17.0,13.0,0,0,,10.0,30.059055,,,TRUE,TRUE,,,,,,,CLR,,,,,,,,VFR,,,,,,,,,,,,METAR,708.0
K63S 200615Z AUTO 00000KT 10SM FEW065 SCT095 BKN120 16/11 A3005 RMK A01,K63S,2023-05-20T06:15:00Z,48.53,-117.88,16.0,11.0,0,0,,10.0,30.050198,,,TRUE,TRUE,,,,,,,FEW,6500,SCT,9500,BKN,12000,,,VFR,,,,,,,,,,,,METAR,571.0
K5T9 200615Z AUTO 22004KT 10SM CLR 24/21 A3000 RMK A01,K5T9,2023-05-20T06:15:00Z,28.85,-100.52,24.0,21.0,220,4,,10.0,30.0,,,TRUE,TRUE,,,,,,,CLR,,,,,,,,VFR,,,,,,,,,,,,METAR,269.0
K5SM 200615Z AUTO 21008KT 10SM CLR 02/00 A3053 RMK AO2,K5SM,2023-05-20T06:15:00Z,39.43,-107.38,2.0,0.0,210,8,,10.0,30.528543,,,TRUE,TRUE,,,,,,,CLR,,,,,,,,VFR,,,,,,,,,,,,METAR,3229.0
K5H4 200615Z AUTO 20007KT 10SM CLR 10/10 A3023 RMK AO2,K5H4,2023-05-20T06:15:00Z,47.78,-99.93,10.0,10.0,200,7,,10.0,30.230314,,,TRUE,TRUE,,,,,,,CLR,,,,,,,,VFR,,,,,,,,,,,,SPECI,490.0
K5C1 200615Z AUTO 06005KT 10SM SCT028 BKN085 OVC110 20/20 A3008 RMK AO1,K5C1,2023-05-20T06:15:00Z,29.72,-98.7,20.0,20.0,60,5,,10.0,30.079725,,,TRUE,TRUE,,,,,,,SCT,2800,BKN,8500,OVC,11000,,,VFR,,,,,,,,,,,,METAR,422.0
K5A6 200615Z AUTO 16003KT 7SM 21/21 A3002 RMK AO2 T02110205,K5A6,2023-05-20T06:15:00Z,33.47,-89.73,21.1,20.5,160,3,,7.0,30.02067,,,TRUE,TRUE,,,,,,,,,,,,,,,,,,,,,,,,,,,SPECI,109.0
K57C 200615Z AUTO 34005KT 10SM CLR 10/05 A3009 RMK AO2 T00960046,K57C,2023-05-20T06:15:00Z,42.8,-88.37,9.6,4.6,340,5,,10.0,30.088583,,,TRUE,TRUE,,,,,,,CLR,,,,,,,,VFR,,,,,,,,,,,,METAR,454.0
K54J 200615Z AUTO 09004KT 10SM CLR 20/19 A3004 RMK AO2 T01980186,K54J,2023-05-20T06:15:00Z,30.73,-86.15,19.8,18.6,90,4,,10.0,30.041338,,,TRUE,TRUE,,,,,,,CLR,,,,,,,,VFR,,,,,,,,,,,,METAR,87.0
K54A 200615Z AUTO 00000KT 10SM CLR 24/22 A2997 RMK AO2,K54A,2023-05-20T06:15:00Z,26.85,-82.25,24.0,22.0,0,0,,10.0,29.970472,,,TRUE,TRUE,,,,,,,CLR,,,,,,,,VFR,,,,,,,,,,,,SPECI,2.0
K4V1 200615Z AUTO 17003KT 3SM OVC065 10/09 A3039 RMK AO2 T01010091,K4V1,2023-05-20T06:15:00Z,37.7,-104.78,10.1,9.1,170,3,,3.0,30.389763,,,TRUE,TRUE,,,,,,,OVC,6500,,,,,,,MVFR,,,,,,,,,,,,METAR,1847.0
K4V0 200615Z AUTO 00000KT 10SM CLR 08/03 A3024 RMK AO2 T00780029,K4V0,2023-05-20T06:15:00Z,40.1,-108.77,7.8,2.9,0,0,,10.0,30.239174,,,TRUE,TRUE,,,,,,,CLR,,,,,,,,VFR,,,,,,,,,,,,SPECI,1602.0
K4S1 200615Z AUTO 00000KT 4SM BR CLR 12/12 A3014 RMK AO2,K4S1,2023-05-20T06:15:00Z,42.42,-124.42,12.0,12.0,0,0,,4.0,30.138779,,,TRUE,TRUE,,,,,,BR,CLR,,,,,,,,MVFR,,,,,,,,,,,,METAR,7.0
K4R5 200615Z AUTO 23004KT 10SM BKN110 04/04 A3016 RMK AO2 T00390035,K4R5,2023-05-20T06:15:00Z,46.78,-90.77,3.9,3.5,230,4,,10.0,30.159449,,,TRUE,TRUE,,,,,,,BKN,11000,,,,,,,VFR,,,,,,,,,,,,SPECI,195.0
K4O4 200615Z AUTO 32009KT 8SM FEW050 SCT055 SCT065 21/21 A3004 RMK AO2,K4O4,2023-05-20T06:15:00Z,33.92,-94.87,21.0,21.0,320,9,,8.0,30.041338,,,TRUE,TRUE,,,,,,,FEW,5000,SCT,5500,SCT,6500,,,VFR,,,,,,,,,,,,METAR,148.0
K4M9 200615Z AUTO 03013KT 1 1/4SM BR BKN021 OVC028 19/19 A3002 RMK AO2 PWINO,K4M9,2023-05-20T06:15:00Z,36.4,-90.65,19.0,19.0,30,13,,1.25,30.02067,,,TRUE,TRUE,,,,,TRUE,BR,BKN,2100,OVC,2800,,,,,IFR,,,,,,,,,,,,METAR,86.0
K4I3 200615Z AUTO 27003KT 10SM CLR 17/15 A2998 RMK AO2,K4I3,2023-05-20T06:15:00Z,40.33,-82.53,17.0,15.0,270,3,,10.0,29.97933,,,TRUE,TRUE,,,,,,,CLR,,,,,,,,VFR,,,,,,,,,,,,METAR,361.0
K4F2 200615Z AUTO 20003KT 10SM SCT060 SCT075 SCT090 24/22 A3000 RMK AO2 LTG DSNT E T02440222,K4F2,2023-05-20T06:15:00Z,32.18,-94.3,24.4,22.2,200,3,,10.0,30.0,,,TRUE,TRUE,,,,,,,SCT,6000,SCT,7500,SCT,9000,,,VFR,,,,,,,,,,,,METAR,76.0
K4BM 200615Z AUTO 16009KT M1/4SM OVC001 01/00 A3057 RMK AO2 PWINO,K4BM,2023-05-20T06:15:00Z,39.05,-105.52,1.0,0.0,160,9,,0.25,30.569881,,,TRUE,TRUE,,,,,TRUE,,OVC,100,,,,,,,LIFR,,,,,,,,,,,,SPECI,3432.0
K4A9 200615Z AUTO 00000KT 10SM OVC020 16/16 A3007 RMK AO2 T01620158,K4A9,2023-05-20T06:15:00Z,34.47,-85.72,16.2,15.8,0,0,,10.0,30.070866,,,TRUE,TRUE,,,,,,,OVC,2000,,,,,,,MVFR,,,,,,,,,,,,METAR,273.0
K4A6 200615Z AUTO 00000KT 10SM BKN028 OVC041 18/18 A3007 RMK AO2,K4A6,2023-05-20T06:15:00Z,34.68,-86.0,18.0,18.0,0,0,,10.0,30.070866,,,TRUE,TRUE,,,,,,,BKN,2800,OVC,4100,,,,,MVFR,,,,,,,,,,,,METAR,191.0
K49A 200615Z AUTO 14003KT 10SM SCT034 SCT055 17/17 A3008 RMK AO2,K49A,2023-05-20T06:15:00Z,34.63,-84.53,17.0,17.0,140,3,,10.0,30.079725,,,TRUE,TRUE,,,,,,,SCT,3400,SCT,5500,,,,,VFR,,,,,,,,,,,,METAR,449.0
K48A 200615Z AUTO 00000KT 10SM SCT022 17/17 A3008 RMK AO2 T01690167,K48A,2023-05-20T06:15:00Z,32.4,-83.27,16.9,16.7,0,0,,10.0,30.079725,,,TRUE,TRUE,,,,,,,SCT,2200,,,,,,,VFR,,,,,,,,,,,,METAR,115.0
K46U 200615Z AUTO 11007KT 10SM CLR 11/01 A3030 RMK A01,K46U,2023-05-20T06:15:00Z,43.18,-111.05,11.0,1.0,110,7,,10.0,30.301182,,,TRUE,TRUE,,,,,,,CLR,,,,,,,,VFR,,,,,,,,,,,,METAR,1718.0
K46D 200615Z AUTO 18008KT 10SM CLR 09/06 A3025 RMK AO2,K46D,2023-05-20T06:15:00Z,47.45,-99.15,9.0,6.0,180,8,,10.0,30.250984,,,TRUE,TRUE,,,,,,,CLR,,,,,,,,VFR,,,,,,,,,,,,SPECI,488.0
K42J 200615Z AUTO 00000KT 6SM BR FEW037 FEW045 FEW060 20/20 A3001 RMK A01,K42J,2023-05-20T06:15:00Z,29.85,-82.05,20.0,20.0,0,0,,6.0,30.008858,,,TRUE,TRUE,,,,,,BR,FEW,3700,FEW,4500,FEW,6000,,,VFR,,,,,,,,,,,,METAR,57.0
K41U 200615Z AUTO 00000KT 10SM BKN120 11/06 A3024 RMK AO1 T01110056,K41U,2023-05-20T06:15:00Z,39.33,-111.6,11.1,5.6,0,0,,10.0,30.239174,,,TRUE,TRUE,,,,,,,BKN,12000,,,,,,,VFR,,,,,,,,,,,,METAR,1676.0
K40U 200615Z AUTO 00000KT 7SM CLR 04/00 A3032 RMK AO2 T00360005,K40U,2023-05-20T06:15:00Z,40.98,-109.68,3.6,0.5,0,0,,7.0,30.318897,,,TRUE,TRUE,,,,,,,CLR,,,,,,,,VFR,,,,,,,,,,,,METAR,1882.0
K3U3 200615Z AUTO 00000KT 10SM 12/03 A3022 ,K3U3,2023-05-20T06:15:00Z,46.15,-112.87,12.0,3.0,0,0,,10.0,30.221457,,,TRUE,,,,,,,,,,,,,,,,,,,,,,,,,,,,METAR,1534.0
K3T5 200615Z AUTO 21006KT 10SM FEW140 24/23 A3005 RMK AO2 T02350233 $,K3T5,2023-05-20T06:15:00Z,29.9,-96.95,23.5,23.3,210,6,,10.0,30.050198,,,TRUE,TRUE,TRUE,,,,,,FEW,14000,,,,,,,VFR,,,,,,,,,,,,SPECI,96.0
K3S8 200615Z AUTO 33005KT 10SM CLR 22/13 A3009 RMK AO2,K3S8,2023-05-20T06:15:00Z,42.5,-123.4,22.0,13.0,330,5,,10.0,30.088583,,,TRUE,TRUE,,,,,,,CLR,,,,,,,,VFR,,,,,,,,,,,,METAR,339.0
K3R7 200615Z AUTO 00000KT 10SM CLR 25/23 A3000 RMK AO2 T02460225,K3R7,2023-05-20T06:15:00Z,30.25,-92.67,24.6,22.5,0,0,,10.0,30.0,,,TRUE,TRUE,,,,,,,CLR,,,,,,,,VFR,,,,,,,,,,,,SPECI,5.0
K3N8 200615Z AUTO 18005KT 10SM CLR 08/04 A3024 RMK AO2 T00750035,K3N8,2023-05-20T06:15:00Z,47.25,-95.92,7.5,3.5,180,5,,10.0,30.239174,,,TRUE,TRUE,,,,,,,CLR,,,,,,,,VFR,,,,,,,,,,,,SPECI,379.0
K3LF 200615Z AUTO 35006KT 10SM BKN070 OVC110 14/09 A3011 RMK AO2 T01420093,K3LF,2023-05-20T06:15:00Z,39.17,-89.67,14.2,9.3,350,6,,10.0,30.109253,,,TRUE,TRUE,,,,,,,BKN,7000,OVC,11000,,,,,VFR,,,,,,,,,,,,METAR,207.0
K3K3 200615Z AUTO 00000KT 5SM BR BKN100 OVC120 08/08 A3035 RMK AO2,K3K3,2023-05-20T06:15:00Z,38.0,-101.75,8.0,8.0,0,0,,5.0,30.351377,,,TRUE,TRUE,,,,,,BR,BKN,10000,OVC,12000,,,,,MVFR,,,,,,,,,,,,METAR,1010.0
K3F3 200615Z AUTO 21004KT 10SM VCTS CLR 25/22 A3004 RMK AO2 LTG DSNT NW T02500216,K3F3,2023-05-20T06:15:00Z,32.07,-93.77,25.0,21.6,210,4,,10.0,30.041338,,,TRUE,TRUE,,,,,,VCTS,CLR,,,,,,,,VFR,,,,,,,,,,,,METAR,96.0
K3D2 200615Z AUTO 32010G15KT 10SM OVC013 08/06 A3005 RMK AO2 T00750060,K3D2,2023-05-20T06:15:00Z,45.13,-87.18,7.5,6.0,320,10,15,10.0,30.050198,,,TRUE,TRUE,,,,,,,OVC,1300,,,,,,,MVFR,,,,,,,,,,,,SPECI,233.0
K3AU 200615Z AUTO 00000KT 7SM CLR 08/06 A3024 RMK AO2,K3AU,2023-05-20T06:15:00Z,37.67,-97.08,8.0,6.0,0,0,,7.0,30.239174,,,TRUE,TRUE,,,,,,,CLR,,,,,,,,VFR,,,,,,,,,,,,SPECI,403.0
K35A 200615Z AUTO 01003KT 3SM BR OVC006 17/17 A3014 RMK A02 T01740170,K35A,2023-05-20T06:15:00Z,34.68,-81.63,17.4,17.0,10,3,,3.0,30.138779,,,TRUE,TRUE,,,,,,BR,OVC,600,,,,,,,IFR,,,,,,,,,,,,SPECI,186.0
K33V 200615Z AUTO 00000KT 10SM CLR 04/01 A3040 RMK AO1,K33V,2023-05-20T06:15:00Z,40.75,-106.28,4.0,1.0,0,0,,10.0,30.398623,,,TRUE,TRUE,,,,,,,CLR,,,,,,,,VFR,,,,,,,,,,,,SPECI,2486.0
K33N 200615Z AUTO 10005KT 10SM OVC005 16/16 A3013 RMK A01,K33N,2023-05-20T06:15:00Z,39.22,-75.6,16.0,16.0,100,5,,10.0,30.129921,,,TRUE,TRUE,,,,,,,OVC,500,,,,,,,IFR,,,,,,,,,,,,SPECI,17.0
K2V5 200615Z AUTO 30003KT 10SM CLR 07/05 A3033 RMK AO2,K2V5,2023-05-20T06:15:00Z,40.1,-102.25,7.0,5.0,300,3,,10.0,30.33071,,,TRUE,TRUE,,,,,,,CLR,,,,,,,,VFR,,,,,,,,,,,,SPECI,1117.0
K2R9 200615Z AUTO 09003KT 10SM SCT050 24/23 A3006 RMK AO2 LTG DSNT NW T02380227,K2R9,2023-05-20T06:15:00Z,28.82,-97.87,23.8,22.7,90,3,,10.0,30.059055,,,TRUE,TRUE,,,,,,,SCT,5000,,,,,,,VFR,,,,,,,,,,,,METAR,88.0
K2P2 200615Z AUTO 34009KT 10SM OVC015 08/08 A3004 RMK AO2 T00750075,K2P2,2023-05-20T06:15:00Z,45.38,-86.92,7.5,7.5,340,9,,10.0,30.041338,,,TRUE,TRUE,,,,,,,OVC,1500,,,,,,,MVFR,,,,,,,,,,,,SPECI,182.0
K2M2 200615Z AUTO 18003KT 10SM SCT010 SCT040 18/18 A3003 RMK A01,K2M2,2023-05-20T06:15:00Z,35.23,-87.25,18.0,18.0,180,3,,10.0,30.029528,,,TRUE,TRUE,,,,,,,SCT,1000,SCT,4000,,,,,VFR,,,,,,,,,,,,SPECI,286.0
K2J9 200615Z AUTO 05003KT 10SM FEW031 FEW037 19/19 A3005 RMK AO2,K2J9,2023-05-20T06:15:00Z,30.6,-84.55,19.0,19.0,50,3,,10.0,30.050198,,,TRUE,TRUE,,,,,,,FEW,3100,FEW,3700,,,,,VFR,,,,,,,,,,,,SPECI,62.0
K2IS 200615Z AUTO 06005KT 7SM SCT100 21/21 A2999 RMK AO2 T02150208,K2IS,2023-05-20T06:15:00Z,26.73,-81.05,21.5,20.8,60,5,,7.0,29.991142,,,TRUE,TRUE,,,,,,,SCT,10000,,,,,,,VFR,,,,,,,,,,,,METAR,5.0
K2I0 200615Z AUTO 03010KT 2 1/2SM +RA BKN006 BKN024 OVC029 20/18 A3001 RMK AO2 P0025 T01950180,K2I0,2023-05-20T06:15:00Z,37.35,-87.4,19.5,18.0,30,10,,2.5,30.008858,,,TRUE,TRUE,,,,,,+RA,BKN,600,BKN,2400,OVC,2900,,,IFR,,,,,,0.25,,,,,,METAR,127.0
K2G9 200615Z AUTO 15008KT 10SM CLR 12/10 A3007 RMK AO2,K2G9,2023-05-20T06:15:00Z,40.03,-79.02,12.0,10.0,150,8,,10.0,30.070866,,,TRUE,TRUE,,,,,,,CLR,,,,,,,,VFR,,,,,,,,,,,,METAR,677.0
K2G4 200615Z AUTO 15010KT 10SM CLR 12/10 A3009 RMK AO2,K2G4,2023-05-20T06:15:00Z,39.58,-79.33,12.0,10.0,150,10,,10.0,30.088583,,,TRUE,TRUE,,,,,,,CLR,,,,,,,,VFR,,,,,,,,,,,,SPECI,908.0
K2G2 200615Z AUTO 18008KT 10SM 19/14 A2997 RMK A01,K2G2,2023-05-20T06:15:00Z,40.37,-80.7,19.0,14.0,180,8,,10.0,29.970472,,,TRUE,TRUE,,,,,,,,,,,,,,,,,,,,,,,,,,,SPECI,365.0
K2D5 200615Z AUTO 18003KT 10SM FEW034 SCT044 BKN065 06/06 A3026 RMK AO2,K2D5,2023-05-20T06:15:00Z,46.17,-98.08,6.0,6.0,180,3,,10.0,30.259842,,,TRUE,TRUE,,,,,,,FEW,3400,SCT,4400,BKN,6500,,,VFR,,,,,,,,,,,,SPECI,407.0
K2C8 200615Z AUTO 23006KT 10SM SCT050 12/03 A3018 RMK AO2,K2C8,2023-05-20T06:15:00Z,48.78,-97.63,12.0,3.0,230,6,,10.0,30.180119,,,TRUE,TRUE,,,,,,,SCT,5000,,,,,,,VFR,,,,,,,,,,,,SPECI,271.0
K2A0 200615Z AUTO 00000KT 10SM FEW024 18/18 A3004 RMK A01,K2A0,2023-05-20T06:15:00Z,35.48,-84.93,18.0,18.0,0,0,,10.0,30.041338,,,TRUE,TRUE,,,,,,,FEW,2400,,,,,,,VFR,,,,,,,,,,,,SPECI,219.0
K28J 200615Z AUTO 00000KT 7SM CLR 18/18 A3002 RMK AO2,K28J,2023-05-20T06:15:00Z,29.65,-81.68,18.0,18.0,0,0,,7.0,30.02067,,,TRUE,TRUE,,,,,,,CLR,,,,,,,,VFR,,,,,,,,,,,,METAR,9.0
K24J 200615Z AUTO 00000KT 10SM FEW022 FEW046 19/19 A3003 RMK A01,K24J,2023-05-20T06:15:00Z,30.3,-83.03,19.0,19.0,0,0,,10.0,30.029528,,,TRUE,TRUE,,,,,,,FEW,2200,FEW,4600,,,,,VFR,,,,,,,,,,,,METAR,30.0
K22N 200615Z AUTO 00000KT 10SM CLR 08/06 A3018 RMK AO2,K22N,2023-05-20T06:15:00Z,40.8,-75.77,8.0,6.0,0,0,,10.0,30.180119,,,TRUE,TRUE,,,,,,,CLR,,,,,,,,VFR,,,,,,,,,,,,METAR,159.0
K21D 200615Z AUTO 00000KT 10SM CLR 05/04 A3024 RMK AO2,K21D,2023-05-20T06:15:00Z,45.0,-92.85,5.0,4.0,0,0,,10.0,30.239174,,,TRUE,TRUE,,,,,,,CLR,,,,,,,,VFR,,,,,,,,,,,,SPECI,281.0
K20V 200615Z AUTO 00000KT 10SM CLR 05/03 A3038 RMK AO2,K20V,2023-05-20T06:15:00Z,40.05,-106.37,5.0,3.0,0,0,,10.0,30.380905,,,TRUE,TRUE,,,,,,,CLR,,,,,,,,VFR,,,,,,,,,,,,METAR,2259.0
K20U 200615Z AUTO 17010KT 10SM BKN022 OVC026 08/03 A3019 RMK AO2,K20U,2023-05-20T06:15:00Z,46.93,-103.98,8.0,3.0,170,10,,10.0,30.188976,,,TRUE,TRUE,,,,,,,BKN,2200,OVC,2600,,,,,MVFR,,,,,,,,,,,,METAR,839.0
K1V6 200615Z AUTO 11003KT 3SM BR OVC008 12/12 A3037 RMK AO2,K1V6,2023-05-20T06:15:00Z,38.43,-105.1,12.0,12.0,110,3,,3.0,30.369095,,,TRUE,TRUE,,,,,,BR,OVC,800,,,,,,,IFR,,,,,,,,,,,,SPECI,1658.0
K1U7 200615Z AUTO 28005KT 10SM FEW047 SCT055 BKN065 09/06 A3029 RMK A01,K1U7,2023-05-20T06:15:00Z,42.25,-111.33,9.0,6.0,280,5,,10.0,30.28937,,,TRUE,TRUE,,,,,,,FEW,4700,SCT,5500,BKN,6500,,,VFR,,,,,,,,,,,,METAR,1808.0
K1S5 200615Z AUTO 03008KT 10SM CLR 23/13 A2998 RMK AO2 T02260129,K1S5,2023-05-20T06:15:00Z,46.33,-119.97,22.6,12.9,30,8,,10.0,29.97933,,,TRUE,TRUE,,,,,,,CLR,,,,,,,,VFR,,,,,,,,,,,,METAR,228.0
K1S3 200615Z AUTO 00000KT 10SM 13/05 A3011 ,K1S3,2023-05-20T06:15:00Z,46.27,-106.62,13.0,5.0,0,0,,10.0,30.109253,,,TRUE,,,,,,,,,,,,,,,,,,,,,,,,,,,,METAR,831.0
K1R8 200615Z AUTO 00000KT 4SM BR FEW005 BKN039 BKN044 21/21 A3002 RMK AO2,K1R8,2023-05-20T06:15:00Z,30.87,-87.82,21.0,21.0,0,0,,4.0,30.02067,,,TRUE,TRUE,,,,,,BR,FEW,500,BKN,3900,BKN,4400,,,MVFR,,,,,,,,,,,,METAR,76.0
K1R7 200615Z AUTO 00000KT 6SM BR CLR 21/21 A3004 RMK AO2 PWINO,K1R7,2023-05-20T06:15:00Z,31.6,-90.42,21.0,21.0,0,0,,6.0,30.041338,,,TRUE,TRUE,,,,,TRUE,BR,CLR,,,,,,,,VFR,,,,,,,,,,,,METAR,142.0
K1P1 200615Z AUTO 00000KT 10SM SCT120 11/08 A3018 RMK AO2 T01120075,K1P1,2023-05-20T06:15:00Z,43.78,-71.75,11.2,7.5,0,0,,10.0,30.180119,,,TRUE,TRUE,,,,,,,SCT,12000,,,,,,,VFR,,,,,,,,,,,,SPECI,155.0
K1M5 200615Z AUTO 20007KT 10SM SCT037 BKN100 BKN120 20/18 A3001 RMK A01,K1M5,2023-05-20T06:15:00Z,36.6,-86.48,20.0,18.0,200,7,,10.0,30.008858,,,TRUE,TRUE,,,,,,,SCT,3700,BKN,10000,BKN,12000,,,VFR,,,,,,,,,,,,SPECI,239.0
K1H2 200615Z AUTO 29003KT 10SM SCT065 SCT090 SCT110 16/11 A3009 RMK AO2 T01560113,K1H2,2023-05-20T06:15:00Z,39.07,-88.53,15.6,11.3,290,3,,10.0,30.088583,,,TRUE,TRUE,,,,,,,SCT,6500,SCT,9000,SCT,11000,,,VFR,,,,,,,,,,,,METAR,174.0
K1F0 200615Z AUTO 01013G17KT 7SM HZ OVC012 16/13 A3017 RMK AO2 T01630135,K1F0,2023-05-20T06:15:00Z,34.15,-97.12,16.3,13.5,10,13,17,7.0,30.171259,,,TRUE,TRUE,,,,,,HZ,OVC,1200,,,,,,,MVFR,,,,,,,,,,,,SPECI,256.0
K1A9 200615Z AUTO 00000KT 10SM CLR 18/18 A3004 RMK AO2 T01760176,K1A9,2023-05-20T06:15:00Z,32.43,-86.52,17.6,17.6,0,0,,10.0,30.041338,,,TRUE,TRUE,,,,,,,CLR,,,,,,,,VFR,,,,,,,,,,,,SPECI,65.0
K1A6 200615Z AUTO 00000KT 10SM BKN034 BKN090 OVC110 17/16 A3006 RMK AO2 T01700156,K1A6,2023-05-20T06:15:00Z,36.62,-83.73,17.0,15.6,0,0,,10.0,30.059055,,,TRUE,TRUE,,,,,,,BKN,3400,BKN,9000,OVC,11000,,,VFR,,,,,,,,,,,,METAR,348.0
K18H 200615Z AUTO 07004KT 10SM FEW023 26/21 A3002 RMK A01,K18H,2023-05-20T06:15:00Z,26.13,-92.03,26.0,21.0,70,4,,10.0,30.02067,,,TRUE,TRUE,,,,,,,FEW,2300,,,,,,,VFR,,,,,,,,,,,,METAR,30.0
K17J 200615Z AUTO 06003KT 10SM CLR 19/17 A3005 RMK AO2 T01910170,K17J,2023-05-20T06:15:00Z,31.0,-84.87,19.1,17.0,60,3,,10.0,30.050198,,,TRUE,TRUE,,,,,,,CLR,,,,,,,,VFR,,,,,,,,,,,,METAR,42.0
K15M 200615Z AUTO 17003KT 6SM BR SCT007 19/18 A3003 RMK AO2 T01860182 $,K15M,2023-05-20T06:15:00Z,34.77,-88.17,18.6,18.2,170,3,,6.0,30.029528,,,TRUE,TRUE,TRUE,,,,,BR,SCT,700,,,,,,,VFR,,,,,,,,,,,,METAR,192.0
K14Y 200615Z AUTO 00000KT 10SM CLR 05/04 A3026 RMK AO2,K14Y,2023-05-20T06:15:00Z,45.9,-94.87,5.0,4.0,0,0,,10.0,30.259842,,,TRUE,TRUE,,,,,,,CLR,,,,,,,,VFR,,,,,,,,,,,,METAR,404.0
K13K 200615Z AUTO 29006KT 10SM CLR 08/08 A3024 RMK AO2 T00800076,K13K,2023-05-20T06:15:00Z,37.85,-96.3,8.0,7.6,290,6,,10.0,30.239174,,,TRUE,TRUE,,,,,,,CLR,,,,,,,,VFR,,,,,,,,,,,,METAR,367.0
K10U 200615Z AUTO 11005KT 10SM FEW039 FEW049 SCT055 16/03 A3023 RMK AO2,K10U,2023-05-20T06:15:00Z,,,16.0,3.0,110,5,,10.0,30.230314,,,TRUE,TRUE,,,,,,,FEW,3900,FEW,4900,SCT,5500,,,VFR,,,,,,,,,,,,METAR,
K10G 200615Z AUTO 32004KT 10SM BKN021 18/14 A2997 RMK AO2,K10G,2023-05-20T06:15:00Z,40.53,-81.95,18.0,14.0,320,4,,10.0,29.970472,,,TRUE,TRUE,,,,,,,BKN,2100,,,,,,,MVFR,,,,,,,,,,,,METAR,371.0
K0VG 200615Z AUTO 00000KT 10SM BKN028 OVC037 17/16 A3007 RMK AO2 LTG DSNT N AND NW,K0VG,2023-05-20T06:15:00Z,36.65,-83.22,17.0,16.0,0,0,,10.0,30.070866,,,TRUE,TRUE,,,,,,,BKN,2800,OVC,3700,,,,,MVFR,,,,,,,,,,,,METAR,426.0
K0V4 200615Z AUTO 09005KT 7SM OVC039 15/14 A3011 RMK AO1,K0V4,2023-05-20T06:15:00Z,37.15,-79.02,15.0,14.0,90,5,,7.0,30.109253,,,TRUE,TRUE,,,,,,,OVC,3900,,,,,,,VFR,,,,,,,,,,,,METAR,186.0
K0S9 200615Z AUTO 00000KT 10SM FEW110 15/10 A3007 RMK AO2,K0S9,2023-05-20T06:15:00Z,48.05,-122.82,15.0,10.0,0,0,,10.0,30.070866,,,TRUE,TRUE,,,,,,,FEW,11000,,,,,,,VFR,,,,,,,,,,,,SPECI,33.0
K0J4 200615Z AUTO 08003KT 10SM BKN029 21/18 A3006 RMK AO2 T02110183,K0J4,2023-05-20T06:15:00Z,31.05,-86.32,21.1,18.3,80,3,,10.0,30.059055,,,TRUE,TRUE,,,,,,,BKN,2900,,,,,,,MVFR,,,,,,,,,,,,SPECI,96.0
K0F2 200615Z AUTO 10SM OVC013 17/15 A3017 RMK AO2 T01720145,K0F2,2023-05-20T06:15:00Z,33.6,-97.78,17.2,14.5,,,,10.0,30.171259,,,TRUE,TRUE,,,,,,,OVC,1300,,,,,,,MVFR,,,,,,,,,,,,SPECI,330.0
K0E0 200615Z AUTO 00000KT 10SM OVC012 11/08 A3043 RMK AO2 T01050083,K0E0,2023-05-20T06:15:00Z,34.98,-106.0,10.5,8.3,0,0,,10.0,30.431103,,,TRUE,TRUE,,,,,,,OVC,1200,,,,,,,MVFR,,,,,,,,,,,,SPECI,1887.0
K0A9 200615Z AUTO 00000KT 10SM CLR 17/13 A3009 RMK AO2,K0A9,2023-05-20T06:15:00Z,36.37,-82.17,17.0,13.0,0,0,,10.0,30.088583,,,TRUE,TRUE,,,,,,,CLR,,,,,,,,VFR,,,,,,,,,,,,SPECI,479.0
K0A0 200615Z AUTO 02015KT 10SM BKN100 BKN120 17/10 A3025 RMK AO2,K0A0,2023-05-20T06:15:00Z,32.98,-106.97,17.0,10.0,20,15,,10.0,30.250984,,,TRUE,TRUE,,,,,,,BKN,10000,BKN,12000,,,,,VFR,,,,,,,,,,,,METAR,1401.0
K08D 200615Z AUTO 20006KT 10SM OVC038 08/02 A3017 RMK AO2,K08D,2023-05-20T06:15:00Z,48.3,-102.4,8.0,2.0,200,6,,10.0,30.171259,,,TRUE,TRUE,,,,,,,OVC,3800,,,,,,,VFR,,,,,,,,,,,,METAR,683.0
K06D 200615Z AUTO 16007KT 10SM CLR 09/01 A3019 RMK AO2,K06D,2023-05-20T06:15:00Z,48.88,-99.62,9.0,1.0,160,7,,10.0,30.188976,,,TRUE,TRUE,,,,,,,CLR,,,,,,,,VFR,,,,,,,,,,,,SPECI,554.0
K06C 200615Z AUTO 32005KT 10SM CLR 11/07 A3009 RMK AO2 T01060068,K06C,2023-05-20T06:15:00Z,41.98,-88.1,10.6,6.8,320,5,,10.0,30.088583,,,TRUE,TRUE,,,,,,,CLR,,,,,,,,VFR,,,,,,,,,,,,METAR,243.0
K04V 200615Z AUTO 09005KT 10SM SCT015 BKN028 OVC043 07/07 A3047 RMK AO2 P0001,K04V,2023-05-20T06:15:00Z,38.1,-106.17,7.0,7.0,90,5,,10.0,30.469488,,,TRUE,TRUE,,,,,,,SCT,1500,BKN,2800,OVC,4300,,,MVFR,,,,,,0.01,,,,,,METAR,2389.0
CYYW 200615Z AUTO VRB02KT 2 1/2SM BR CLR 05/04 A3004 RMK SLP185,CYYW,2023-05-20T06:15:00Z,50.3,-88.9,5.0,4.0,0,2,,2.5,30.041338,1018.5,,TRUE,,,,,,,BR,CLR,,,,,,,,IFR,,,,,,,,,,,,SPECI,320.0
CWPF 200615Z AUTO 19006KT 13/10 RMK AO1 SLP176 T01320099 51009,CWPF,2023-05-20T06:15:00Z,48.43,-123.43,13.2,9.9,190,6,,,,1017.6,,TRUE,TRUE,,,,,,,,,,,,,,,,0.9,,,,,,,,,,,METAR,5.0
SCJO 200614Z AUTO 00000KT 0600 FG VV001 M02/M02 Q1017,SCJO,2023-05-20T06:14:00Z,-40.6,-73.05,-2.0,-2.0,0,0,,0.37,30.029528,,,TRUE,,,,,,,FG,OVX,0,,,,,,,LIFR,,,,,,,,,,,100,SPECI,61.0
PADQ 200614Z AUTO 07015KT 9SM BKN012 OVC021 07/05 A2988 RMK AO2 T00670050 TSNO,PADQ,2023-05-20T06:14:00Z,57.75,-152.5,6.7,5.0,70,15,,9.0,29.878937,,,TRUE,TRUE,,,TRUE,,,,BKN,1200,OVC,2100,,,,,MVFR,,,,,,,,,,,,SPECI,5.0
KRTN 200614Z AUTO 21003KT 4SM BR FEW014 BKN020 OVC065 10/08 A3040 RMK AO2 T01000078,KRTN,2023-05-20T06:14:00Z,36.73,-104.5,10.0,7.8,210,3,,4.0,30.398623,,,TRUE,TRUE,,,,,,BR,FEW,1400,BKN,2000,OVC,6500,,,MVFR,,,,,,,,,,,,METAR,1939.0
KPKD 200614Z AUTO 00000KT 2 1/2SM HZ CLR 06/03 A3024 RMK AO2 T00560028,KPKD,2023-05-20T06:14:00Z,46.9,-95.07,5.6,2.8,0,0,,2.5,30.239174,,,TRUE,TRUE,,,,,,HZ,CLR,,,,,,,,IFR,,,,,,,,,,,,METAR,439.0
KMFD 200614Z AUTO 20004KT 2SM RA BR FEW043 BKN055 OVC080 17/16 A2997 RMK AO2 VIS 1 3/4V3 P0007 T01670156,KMFD,2023-05-20T06:14:00Z,40.82,-82.52,16.7,15.6,200,4,,2.0,29.970472,,,TRUE,TRUE,,,,,,RA BR,FEW,4300,BKN,5500,OVC,8000,,,IFR,,,,,,0.07,,,,,,SPECI,394.0
KFTK 200614Z AUTO 32007KT 6SM RA BR SCT006 BKN023 BKN028 OVC034 18/17 A2999 RMK AO2 RAB0558 CIG 014V023 SLP153 TSNO $,KFTK,2023-05-20T06:14:00Z,37.9,-85.97,18.0,17.0,320,7,,6.0,29.991142,1015.3,,TRUE,TRUE,TRUE,,TRUE,,,RA BR,SCT,600,BKN,2300,BKN,2800,OVC,3400,MVFR,,,,,,,,,,,,SPECI,225.0
KFRG 200614Z AUTO 17006KT 8SM FEW011 BKN023 OVC031 15/13 A3020 RMK AO2 T01500128,KFRG,2023-05-20T06:14:00Z,40.73,-73.42,15.0,12.8,170,6,,8.0,30.200787,,,TRUE,TRUE,,,,,,,FEW,1100,BKN,2300,OVC,3100,,,MVFR,,,,,,,,,,,,METAR,23.0
KAVL 200614Z AUTO 18004KT 10SM SCT009 OVC016 17/14 A3014 RMK AO2 T01670144 $,KAVL,2023-05-20T06:14:00Z,35.43,-82.53,16.7,14.4,180,4,,10.0,30.138779,,,TRUE,TRUE,TRUE,,,,,,SCT,900,OVC,1600,,,,,MVFR,,,,,,,,,,,,METAR,646.0
CYMT 200614Z AUTO 34002KT 6SM BR OVC029 05/05 A3002 RMK SLP182,CYMT,2023-05-20T06:14:00Z,49.77,-74.52,5.0,5.0,340,2,,6.0,30.02067,1018.2,,TRUE,,,,,,,BR,OVC,2900,,,,,,,MVFR,,,,,,,,,,,,SPECI,388.0
KXVG 200613Z AUTO 00000KT 10SM CLR 06/06 A3022 RMK AO2,KXVG,2023-05-20T06:13:00Z,46.98,-94.2,6.0,6.0,0,0,,10.0,30.221457,,,TRUE,TRUE,,,,,,,CLR,,,,,,,,VFR,,,,,,,,,,,,METAR,407.0
KWLD 200613Z AUTO 21004KT 3/4SM BR CLR 08/07 A3026 RMK AO2 T00780072,KWLD,2023-05-20T06:13:00Z,37.17,-97.03,7.8,7.2,210,4,,0.75,30.259842,,,TRUE,TRUE,,,,,,BR,CLR,,,,,,,,LIFR,,,,,,,,,,,,SPECI,351.0
KSSF 200613Z AUTO 08006KT 10SM VCTS FEW018 BKN049 OVC060 26/23 A3004 RMK AO2 LTG DSNT NW T02560228 $,KSSF,2023-05-20T06:13:00Z,29.33,-98.47,25.6,22.8,80,6,,10.0,30.041338,,,TRUE,TRUE,TRUE,,,,,VCTS,FEW,1800,BKN,4900,OVC,6000,,,VFR,,,,,,,,,,,,SPECI,175.0
KOWA 200613Z AUTO 00000KT 10SM CLR 04/03 A3023 RMK AO2,KOWA,2023-05-20T06:13:00Z,44.12,-93.25,4.0,3.0,0,0,,10.0,30.230314,,,TRUE,TRUE,,,,,,,CLR,,,,,,,,VFR,,,,,,,,,,,,METAR,345.0
KORB 200613Z AUTO 00000KT 10SM CLR 06/04 A3018 RMK AO2,KORB,2023-05-20T06:13:00Z,48.02,-92.87,6.0,4.0,0,0,,10.0,30.180119,,,TRUE,TRUE,,,,,,,CLR,,,,,,,,VFR,,,,,,,,,,,,METAR,407.0
KNXP 200613Z AUTO 03005KT 10SM TS OVC120 27/09 A3010 RMK AO2 TSB07 T02720089,KNXP,2023-05-20T06:13:00Z,34.28,-116.13,27.2,8.9,30,5,,10.0,30.100393,,,TRUE,TRUE,,,,,,TS,OVC,12000,,,,,,,VFR,,,,,,,,,,,,SPECI,610.0
KNGP 200613Z AUTO 16007KT 10SM BKN017 BKN026 28/24 A3002 RMK AO2 T02780239,KNGP,2023-05-20T06:13:00Z,27.68,-97.28,27.8,23.9,160,7,,10.0,30.02067,,,TRUE,TRUE,,,,,,,BKN,1700,BKN,2600,,,,,MVFR,,,,,,,,,,,,SPECI,5.0
KMLC 200613Z AUTO 35011KT 5SM BR OVC010 16/14 A3014 RMK AO2 T01560139,KMLC,2023-05-20T06:13:00Z,34.88,-95.78,15.6,13.9,350,11,,5.0,30.138779,,,TRUE,TRUE,,,,,,BR,OVC,1000,,,,,,,MVFR,,,,,,,,,,,,SPECI,231.0
KMIV 200613Z AUTO 07005KT 6SM BR OVC004 14/14 A3015 RMK AO2 CIG 003V007 T01440139,KMIV,2023-05-20T06:13:00Z,39.37,-75.08,14.4,13.9,70,5,,6.0,30.15059,,,TRUE,TRUE,,,,,,BR,OVC,400,,,,,,,LIFR,,,,,,,,,,,,SPECI,18.0
KLBT 200613Z AUTO 01004KT 10SM BKN020 OVC033 18/17 A3005 RMK AO2 T01780172,KLBT,2023-05-20T06:13:00Z,34.6,-79.07,17.8,17.2,10,4,,10.0,30.050198,,,TRUE,TRUE,,,,,,,BKN,2000,OVC,3300,,,,,MVFR,,,,,,,,,,,,SPECI,37.0
KFWN 200613Z AUTO 00000KT 2SM BR CLR 08/08 A3020 RMK AO2 VIS 1V5 T00830078,KFWN,2023-05-20T06:13:00Z,41.2,-74.63,8.3,7.8,0,0,,2.0,30.200787,,,TRUE,TRUE,,,,,,BR,CLR,,,,,,,,IFR,,,,,,,,,,,,SPECI,129.0
KFOZ 200613Z AUTO 00000KT 10SM CLR 05/04 A3025 RMK AO2,KFOZ,2023-05-20T06:13:00Z,47.77,-93.65,5.0,4.0,0,0,,10.0,30.250984,,,TRUE,TRUE,,,,,,,CLR,,,,,,,,VFR,,,,,,,,,,,,METAR,412.0
KETH 200613Z AUTO 00000KT 10SM CLR 08/05 A3027 RMK AO2,KETH,2023-05-20T06:13:00Z,45.78,-96.55,8.0,5.0,0,0,,10.0,30.268702,,,TRUE,TRUE,,,,,,,CLR,,,,,,,,VFR,,,,,,,,,,,,METAR,309.0
KERI 200613Z AUTO 24006G17KT 8SM -RA SCT008 BKN029 OVC039 16/14 A2994 RMK AO2 RAB0556 P0001 T01560139,KERI,2023-05-20T06:13:00Z,42.08,-80.18,15.6,13.9,240,6,17,8.0,29.940945,,,TRUE,TRUE,,,,,,-RA,SCT,800,BKN,2900,OVC,3900,,,MVFR,,,,,,0.01,,,,,,SPECI,222.0
KDYR 200613Z AUTO 03005KT 10SM -RA FEW007 BKN080 OVC110 19/ A3000 RMK AO2 LTG DSNT S P0000,KDYR,2023-05-20T06:13:00Z,36.0,-89.4,19.0,,30,5,,10.0,30.0,,,TRUE,TRUE,,,,,,-RA,FEW,700,BKN,8000,OVC,11000,,,VFR,,,,,,0.005,,,,,,SPECI,98.0
KDVP 200613Z AUTO 34004KT 10SM CLR 06/03 A3027 RMK AO2 T00640028,KDVP,2023-05-20T06:13:00Z,43.98,-95.78,6.4,2.8,340,4,,10.0,30.268702,,,TRUE,TRUE,,,,,,,CLR,,,,,,,,VFR,,,,,,,,,,,,METAR,493.0
KCOF 200613Z AUTO 23007KT 10SM CLR 26/22 A2996 RMK AO2 DZB03E13 SLPNO $,KCOF,2023-05-20T06:13:00Z,28.23,-80.6,26.0,22.0,230,7,,10.0,29.958662,,,TRUE,TRUE,TRUE,,,,,,CLR,,,,,,,,VFR,,,,,,,,,,,,SPECI,1.0
KAQP 200613Z AUTO 00000KT 10SM 07/02 A3026 RMK AO2,KAQP,2023-05-20T06:13:00Z,45.22,-96.0,7.0,2.0,0,0,,10.0,30.259842,,,TRUE,TRUE,,,,,,,,,,,,,,,,,,,,,,,,,,,SPECI,312.0
KAOH 200613Z AUTO 01008KT 3SM RA BR FEW006 BKN009 OVC021 15/14 A2998 RMK AO2 P0007 T01500139,KAOH,2023-05-20T06:13:00Z,40.7,-84.02,15.0,13.9,10,8,,3.0,29.97933,,,TRUE,TRUE,,,,,,RA BR,FEW,600,BKN,900,OVC,2100,,,IFR,,,,,,0.07,,,,,,SPECI,294.0
CYVT 200613Z AUTO 31004KT 6SM HZ CLR 10/05 A2994 RMK SLP153,CYVT,2023-05-20T06:13:00Z,55.83,-108.42,10.0,5.0,310,4,,6.0,29.940945,1015.3,,TRUE,,,,,,,HZ,CLR,,,,,,,,VFR,,,,,,,,,,,,SPECI,438.0
PMDY 200612Z AUTO 5SM -RA BR SCT015 BKN031 OVC075 22/22 A2985 RMK AO2 P0000 TSNO $,PMDY,2023-05-20T06:12:00Z,28.22,-177.37,22.0,22.0,,,,5.0,29.84941,,,TRUE,TRUE,TRUE,,TRUE,,,-RA BR,SCT,1500,BKN,3100,OVC,7500,,,MVFR,,,,,,0.005,,,,,,SPECI,6.0
PASI 200612Z 32007KT 2 1/2SM -RA BR OVC004 11/09 A3022 RMK AO2 DZE08RAB08 P0001 T01060089 $,PASI,2023-05-20T06:12:00Z,57.03,-135.35,10.6,8.9,320,7,,2.5,30.221457,,,,TRUE,TRUE,,,,,-RA BR,OVC,400,,,,,,,LIFR,,,,,,0.01,,,,,,SPECI,2.0
KTCL 200612Z AUTO 00000KT 9SM BKN010 BKN045 20/19 A3005 RMK AO2 CIG 008V014 T02000189,KTCL,2023-05-20T06:12:00Z,33.22,-87.62,20.0,18.9,0,0,,9.0,30.050198,,,TRUE,TRUE,,,,,,,BKN,1000,BKN,4500,,,,,MVFR,,,,,,,,,,,,SPECI,48.0
KSOP 200612Z AUTO 00000KT 8SM FEW007 OVC029 17/17 A3009 RMK AO2,KSOP,2023-05-20T06:12:00Z,35.23,-79.4,17.0,17.0,0,0,,8.0,30.088583,,,TRUE,TRUE,,,,,,,FEW,700,OVC,2900,,,,,MVFR,,,,,,,,,,,,SPECI,135.0
KPDK 200612Z 00000KT 10SM BKN009 BKN017 OVC026 18/17 A3009 RMK AO2 CIG 008V014 T01830167,KPDK,2023-05-20T06:12:00Z,33.88,-84.3,18.3,16.7,0,0,,10.0,30.088583,,,,TRUE,,,,,,,BKN,900,BKN,1700,OVC,2600,,,IFR,,,,,,,,,,,,SPECI,299.0
KOTH 200612Z AUTO 34007KT 4SM BR BKN005 OVC010 12/12 A3019 RMK AO2,KOTH,2023-05-20T06:12:00Z,43.42,-124.25,12.0,12.0,340,7,,4.0,30.188976,,,TRUE,TRUE,,,,,,BR,BKN,500,OVC,1000,,,,,IFR,,,,,,,,,,,,SPECI,3.0
KOFP 200612Z AUTO 00000KT 9SM SCT007 14/13 A3010 RMK AO2 T01390128,KOFP,2023-05-20T06:12:00Z,37.7,-77.43,13.9,12.8,0,0,,9.0,30.100393,,,TRUE,TRUE,,,,,,,SCT,700,,,,,,,VFR,,,,,,,,,,,,SPECI,63.0
KNFW 200612Z AUTO 31013KT BKN020 OVC039 21/17 A3013 RMK AO2 T02110172 TSNO CHINO S VISNO S $,KNFW,2023-05-20T06:12:00Z,32.78,-97.43,21.1,17.2,310,13,,,30.129921,,,TRUE,TRUE,TRUE,,TRUE,,,,BKN,2000,OVC,3900,,,,,,,,,,,,,,,,,SPECI,188.0
KGVL 200612Z AUTO VRB04KT 10SM SCT009 BKN015 OVC021 18/16 A3011 RMK AO2 T01830161,KGVL,2023-05-20T06:12:00Z,34.27,-83.83,18.3,16.1,0,4,,10.0,30.109253,,,TRUE,TRUE,,,,,,,SCT,900,BKN,1500,OVC,2100,,,MVFR,,,,,,,,,,,,SPECI,387.0
KAKH 200612Z AUTO 01003KT 5SM BR SCT005 BKN010 OVC030 17/17 A3010 RMK AO2 T01670167,KAKH,2023-05-20T06:12:00Z,35.2,-81.15,16.7,16.7,10,3,,5.0,30.100393,,,TRUE,TRUE,,,,,,BR,SCT,500,BKN,1000,OVC,3000,,,MVFR,,,,,,,,,,,,SPECI,242.0
KSSC 200611Z AUTO 01004KT 10SM BKN007 OVC023 19/18 A3005 RMK AO2 DZE11 CIG 005V007 BKN V OVC SLPNO,KSSC,2023-05-20T06:11:00Z,33.97,-80.47,19.0,18.0,10,4,,10.0,30.050198,,,TRUE,TRUE,,,,,,,BKN,700,OVC,2300,,,,,IFR,,,,,,,,,,,,SPECI,71.0
KSKF 200611Z AUTO 06006KT 10SM -TSRA BKN016 OVC029 25/23 A3006 RMK AO2 RAB11 TSB0557 CIG 016V031 PRESRR SLPNO $,KSKF,2023-05-20T06:11:00Z,29.38,-98.57,25.0,23.0,60,6,,10.0,30.059055,,,TRUE,TRUE,TRUE,,,,,-TSRA,BKN,1600,OVC,2900,,,,,MVFR,,,,,,,,,,,,SPECI,214.0
KSBY 200611Z AUTO 04006KT 4SM BR OVC003 17/16 A3010 RMK AO2 T01670161,KSBY,2023-05-20T06:11:00Z,38.33,-75.5,16.7,16.1,40,6,,4.0,30.100393,,,TRUE,TRUE,,,,,,BR,OVC,300,,,,,,,LIFR,,,,,,,,,,,,SPECI,14.0
KMAF 200611Z AUTO 22035G52KT 1 3/4SM +TSRA BR SQ BKN012 BKN027 OVC033 17/16 A3028 RMK AO2 PK WND 21052/0610 RAB11 TSB0556 P0000 T01670156,KMAF,2023-05-20T06:11:00Z,31.95,-102.2,16.7,15.6,220,35,52,1.75,30.280512,,,TRUE,TRUE,,,,,,+TSRA BR SQ,BKN,1200,BKN,2700,OVC,3300,,,IFR,,,,,,0.005,,,,,,SPECI,874.0
KISM 200611Z AUTO 05008KT 10SM -RA SCT008 BKN019 OVC033 23/21 A3002 RMK AO2 PNO $,KISM,2023-05-20T06:11:00Z,28.28,-81.43,23.0,21.0,50,8,,10.0,30.02067,,,TRUE,TRUE,TRUE,,,,,-RA,SCT,800,BKN,1900,OVC,3300,,,MVFR,,,,,,,,,,,,SPECI,25.0
KHOT 200611Z AUTO 00000KT 10SM SCT003 BKN100 20/19 A3002 RMK AO2 T02000194,KHOT,2023-05-20T06:11:00Z,34.48,-93.1,20.0,19.4,0,0,,10.0,30.02067,,,TRUE,TRUE,,,,,,,SCT,300,BKN,10000,,,,,VFR,,,,,,,,,,,,SPECI,153.0
KHKY 200611Z AUTO 06003KT 10SM OVC029 17/15 A3012 RMK AO2 T01720150,KHKY,2023-05-20T06:11:00Z,35.75,-81.38,17.2,15.0,60,3,,10.0,30.121063,,,TRUE,TRUE,,,,,,,OVC,2900,,,,,,,MVFR,,,,,,,,,,,,SPECI,357.0
KAUS 200611Z 36014G25KT 10SM -RA SCT018 BKN025 OVC045 22/20 A3011 RMK AO2 LTG DSNT NE OCNL LTG DSNT NE P0000 T02170200 $,KAUS,2023-05-20T06:11:00Z,30.18,-97.68,21.7,20.0,360,14,25,10.0,30.109253,,,,TRUE,TRUE,,,,,-RA,SCT,1800,BKN,2500,OVC,4500,,,MVFR,,,,,,0.005,,,,,,SPECI,148.0
CYOO 200611Z AUTO 10004KT 2 1/4SM +RA BR FEW028 BKN038 OVC055 15/14 A2992 RMK PCPN 2.5MM PAST HR SLP136,CYOO,2023-05-20T06:11:00Z,43.92,-78.9,15.0,14.0,100,4,,2.25,29.920275,1013.6,,TRUE,,,,,,,+RA BR,FEW,2800,BKN,3800,OVC,5500,,,IFR,,,,,,,,,,,,SPECI,136.0
VCRI 200610Z 21008KT 170V230 9999 SCT018 SCT080 31/27 Q1011 NOSIG,VCRI,2023-05-20T06:10:00Z,6.28,81.13,31.0,27.0,210,8,,6.21,29.852362,,,,,,TRUE,,,,,SCT,1800,SCT,8000,,,,,VFR,,,,,,,,,,,,METAR,50.0
VCBI 200610Z 24010KT 210V280 9999 BKN016 32/25 Q1011 NOSIG,VCBI,2023-05-20T06:10:00Z,7.17,79.88,32.0,25.0,240,10,,6.21,29.852362,,,,,,TRUE,,,,,BKN,1600,,,,,,,MVFR,,,,,,,,,,,,METAR,10.0
PGUA 200610Z AUTO 07009KT 10SM BKN016 29/23 A2982 RMK AO2 BKN V SCT CIG 013 RWY24L SLP088 $,PGUA,2023-05-20T06:10:00Z,13.57,144.92,29.0,23.0,70,9,,10.0,29.819881,1008.8,,TRUE,TRUE,TRUE,,,,,,BKN,1600,,,,,,,MVFR,,,,,,,,,,,,SPECI,159.0
KWRI 200610Z 13003KT 10SM OVC019 14/14 A3016 RMK AO2A SLP212,KWRI,2023-05-20T06:10:00Z,40.02,-74.58,14.0,14.0,130,3,,10.0,30.159449,1021.2,,,TRUE,,,,,,,OVC,1900,,,,,,,MVFR,,,,,,,,,,,,SPECI,35.0
KTAD 200610Z AUTO 00000KT 1 3/4SM BR OVC070 07/07 A3039 RMK AO2 T00720067,KTAD,2023-05-20T06:10:00Z,37.27,-104.33,7.2,6.7,0,0,,1.75,30.389763,,,TRUE,TRUE,,,,,,BR,OVC,7000,,,,,,,IFR,,,,,,,,,,,,SPECI,1751.0
KSVN 200610Z AUTO 01004KT 10SM OVC009 20/17 A3001 RMK AO2 SLPNO $,KSVN,2023-05-20T06:10:00Z,32.02,-81.12,20.0,17.0,10,4,,10.0,30.008858,,,TRUE,TRUE,TRUE,,,,,,OVC,900,,,,,,,IFR,,,,,,,,,,,,SPECI,13.0
KSUT 200610Z AUTO 35005KT 7SM BKN007 OVC013 16/15 A3002 RMK AO2 T01570150,KSUT,2023-05-20T06:10:00Z,33.93,-78.08,15.7,15.0,350,5,,7.0,30.02067,,,TRUE,TRUE,,,,,,,BKN,700,OVC,1300,,,,,IFR,,,,,,,,,,,,METAR,6.0
KSNH 200610Z AUTO 16005KT 10SM FEW013 FEW033 FEW050 19/19 A3000 RMK A01,KSNH,2023-05-20T06:10:00Z,35.17,-88.22,19.0,19.0,160,5,,10.0,30.0,,,TRUE,TRUE,,,,,,,FEW,1300,FEW,3300,FEW,5000,,,VFR,,,,,,,,,,,,SPECI,142.0
KS85 200610Z AUTO 17005KT 10SM 11/04 A3011 RMK A01 Culbertson ,KS85,2023-05-20T06:10:00Z,48.15,-104.5,11.0,4.0,170,5,,10.0,30.109253,,,TRUE,TRUE,,,,,,,,,,,,,,,,,,,,,,,,,,,METAR,596.0
KRHP 200610Z AUTO 00000KT 10SM BKN032 OVC040 16/15 A3011 RMK AO2 T01580147,KRHP,2023-05-20T06:10:00Z,35.18,-83.85,15.8,14.7,0,0,,10.0,30.109253,,,TRUE,TRUE,,,,,,,BKN,3200,OVC,4000,,,,,VFR,,,,,,,,,,,,METAR,515.0
KRCZ 200610Z AUTO 33003KT 10SM SCT007 SCT023 OVC030 18/17 A3008 RMK AO2 T01770170,KRCZ,2023-05-20T06:10:00Z,34.88,-79.77,17.7,17.0,330,3,,10.0,30.079725,,,TRUE,TRUE,,,,,,,SCT,700,SCT,2300,OVC,3000,,,MVFR,,,,,,,,,,,,METAR,110.0
KQFW 200610Z AUTO 22006G16KT 9999 SCT050 26/14 A2963 RMK A02 TSNO,KQFW,2023-05-20T06:10:00Z,,,26.0,14.0,220,6,16,6.21,29.630905,,,TRUE,TRUE,,,TRUE,,,,SCT,5000,,,,,,,VFR,,,,,,,,,,,,METAR,
KQFT 200610Z AUTO 31003KT 9999 FEW047 27/15 A2979 RMK A02 TSNO,KQFT,2023-05-20T06:10:00Z,,,27.0,15.0,310,3,,6.21,29.790354,,,TRUE,TRUE,,,TRUE,,,,FEW,4700,,,,,,,VFR,,,,,,,,,,,,METAR,
KQFB 200610Z AUTO 30004KT 9999 CLR 27/13 A2987 RMK A02 TSNO,KQFB,2023-05-20T06:10:00Z,,,27.0,13.0,300,4,,6.21,29.870079,,,TRUE,TRUE,,,TRUE,,,,CLR,,,,,,,,VFR,,,,,,,,,,,,METAR,
KQEY 200610Z AUTO 26004KT 9999 FEW049 27/14 A2954 RMK A02 TSNO,KQEY,2023-05-20T06:10:00Z,,,27.0,14.0,260,4,,6.21,29.53937,,,TRUE,TRUE,,,TRUE,,,,FEW,4900,,,,,,,VFR,,,,,,,,,,,,METAR,
KQEX 200610Z AUTO 04002KT 9999 CLR 28/12 A2973 RMK A02 TSNO,KQEX,2023-05-20T06:10:00Z,,,28.0,12.0,40,2,,6.21,29.731298,,,TRUE,TRUE,,,TRUE,,,,CLR,,,,,,,,VFR,,,,,,,,,,,,METAR,
KQEV 200610Z AUTO 23004G11KT 9999 FEW049 27/15 A2979 RMK A02 TSNO,KQEV,2023-05-20T06:10:00Z,,,27.0,15.0,230,4,11,6.21,29.790354,,,TRUE,TRUE,,,TRUE,,,,FEW,4900,,,,,,,VFR,,,,,,,,,,,,METAR,
KQER 200610Z AUTO 19006G17KT 9999 FEW046 FEW240 25/13 A2976 RMK A02 TSNO,KQER,2023-05-20T06:10:00Z,,,25.0,13.0,190,6,17,6.21,29.760826,,,TRUE,TRUE,,,TRUE,,,,FEW,4600,FEW,24000,,,,,VFR,,,,,,,,,,,,METAR,
KQEP 200610Z AUTO 22006G15KT 9999 FEW046 27/15 A2983 RMK A02 TSNO,KQEP,2023-05-20T06:10:00Z,,,27.0,15.0,220,6,15,6.21,29.828741,,,TRUE,TRUE,,,TRUE,,,,FEW,4600,,,,,,,VFR,,,,,,,,,,,,METAR,
KQEJ 200610Z AUTO 18007G14KT 9999 BKN050 26/13 A2976 RMK A02 TSNO,KQEJ,2023-05-20T06:10:00Z,,,26.0,13.0,180,7,14,6.21,29.760826,,,TRUE,TRUE,,,TRUE,,,,BKN,5000,,,,,,,VFR,,,,,,,,,,,,METAR,
KQEI 200610Z AUTO 15004G11KT 9999 BKN050 26/13 A2978 RMK A02 TSNO,KQEI,2023-05-20T06:10:00Z,,,26.0,13.0,150,4,11,6.21,29.778543,,,TRUE,TRUE,,,TRUE,,,,BKN,5000,,,,,,,VFR,,,,,,,,,,,,METAR,
KOWI 200610Z AUTO 34006KT 10SM FEW070 09/09 A3019 RMK AO2,KOWI,2023-05-20T06:10:00Z,38.53,-95.25,9.0,9.0,340,6,,10.0,30.188976,,,TRUE,TRUE,,,,,,,FEW,7000,,,,,,,VFR,,,,,,,,,,,,SPECI,292.0
KO05 200610Z AUTO 30005KT 10SM FEW060 14/07 A3018 RMK A01,KO05,2023-05-20T06:10:00Z,40.28,-121.23,14.0,7.0,300,5,,10.0,30.180119,,,TRUE,TRUE,,,,,,,FEW,6000,,,,,,,VFR,,,,,,,,,,,,METAR,1380.0
KMWT 200610Z AUTO 29004KT 10SM BKN015 21/19 A3001 RMK AO2 T02060189 $,KMWT,2023-05-20T06:10:00Z,34.55,-93.58,20.6,18.9,290,4,,10.0,30.008858,,,TRUE,TRUE,TRUE,,,,,,BKN,1500,,,,,,,MVFR,,,,,,,,,,,,METAR,220.0
KMRC 200610Z AUTO 17003KT 10SM CLR 19/19 A3001 RMK A01,KMRC,2023-05-20T06:10:00Z,35.55,-87.18,19.0,19.0,170,3,,10.0,30.008858,,,TRUE,TRUE,,,,,,,CLR,,,,,,,,VFR,,,,,,,,,,,,SPECI,205.0
KMQI 200610Z AUTO 00000KT 5SM BR BKN015 BKN021 OVC025 19/18 A3003 RMK AO2 T01850181,KMQI,2023-05-20T06:10:00Z,35.92,-75.7,18.5,18.1,0,0,,5.0,30.029528,,,TRUE,TRUE,,,,,,BR,BKN,1500,BKN,2100,OVC,2500,,,MVFR,,,,,,,,,,,,METAR,3.0
KMGE 200610Z AUTO 10006KT 10SM FEW013 BKN024 19/16 A3006 RMK AO2 BKN V SCT SLPNO $,KMGE,2023-05-20T06:10:00Z,33.92,-84.52,19.0,16.0,100,6,,10.0,30.059055,,,TRUE,TRUE,TRUE,,,,,,FEW,1300,BKN,2400,,,,,MVFR,,,,,,,,,,,,SPECI,309.0
KM91 200610Z AUTO 18006KT 10SM FEW031 OVC110 19/18 A3000 RMK A01,KM91,2023-05-20T06:10:00Z,36.53,-86.92,19.0,18.0,180,6,,10.0,30.0,,,TRUE,TRUE,,,,,,,FEW,3100,OVC,11000,,,,,VFR,,,,,,,,,,,,SPECI,214.0
KM54 200610Z AUTO 21006KT 10SM OVC035 20/18 A3001 RMK A01,KM54,2023-05-20T06:10:00Z,36.18,-86.32,20.0,18.0,210,6,,10.0,30.008858,,,TRUE,TRUE,,,,,,,OVC,3500,,,,,,,VFR,,,,,,,,,,,,SPECI,168.0
KM04 200610Z AUTO 01006KT 2 1/2SM BR SCT003 BKN016 OVC022 20/20 A2998 RMK A01,KM04,2023-05-20T06:10:00Z,35.58,-89.58,20.0,20.0,10,6,,2.5,29.97933,,,TRUE,TRUE,,,,,,BR,SCT,300,BKN,1600,OVC,2200,,,IFR,,,,,,,,,,,,SPECI,83.0
KLHZ 200610Z AUTO 01003KT 10SM CLR 15/14 A3008 RMK AO2,KLHZ,2023-05-20T06:10:00Z,36.02,-78.33,15.0,14.0,10,3,,10.0,30.079725,,,TRUE,TRUE,,,,,,,CLR,,,,,,,,VFR,,,,,,,,,,,,METAR,104.0
KLAX 200610Z 24006KT 10SM OVC010 16/14 A3007 RMK AO2 VIS W 2 T01610144,KLAX,2023-05-20T06:10:00Z,33.93,-118.38,16.1,14.4,240,6,,10.0,30.070866,,,,TRUE,,,,,,,OVC,1000,,,,,,,MVFR,,,,,,,,,,,,SPECI,30.0
KJAU 200610Z AUTO 23006KT 10SM BKN090 21/16 A3008 RMK A01,KJAU,2023-05-20T06:10:00Z,36.33,-84.17,21.0,16.0,230,6,,10.0,30.079725,,,TRUE,TRUE,,,,,,,BKN,9000,,,,,,,VFR,,,,,,,,,,,,SPECI,350.0
KIXA 200610Z AUTO 01003KT 10SM CLR 14/14 A3006 RMK AO2,KIXA,2023-05-20T06:10:00Z,36.33,-77.63,14.0,14.0,10,3,,10.0,30.059055,,,TRUE,TRUE,,,,,,,CLR,,,,,,,,VFR,,,,,,,,,,,,METAR,43.0
KHOP 200610Z AUTO 18006KT 10SM BKN021 BKN032 20/20 A2998 RMK AO2 CIG 021V085 BKN021 V SCT SLP150,KHOP,2023-05-20T06:10:00Z,36.67,-87.5,20.0,20.0,180,6,,10.0,29.97933,1015.0,,TRUE,TRUE,,,,,,,BKN,2100,BKN,3200,,,,,MVFR,,,,,,,,,,,,SPECI,170.0
KHNZ 200610Z AUTO 00000KT 10SM CLR 13/13 A3007 RMK AO2 T01330132,KHNZ,2023-05-20T06:10:00Z,36.37,-78.53,13.3,13.2,0,0,,10.0,30.070866,,,TRUE,TRUE,,,,,,,CLR,,,,,,,,VFR,,,,,,,,,,,,METAR,158.0
KGWW 200610Z AUTO 36003KT 10SM CLR 16/16 A3005 RMK AO2 T01570157,KGWW,2023-05-20T06:10:00Z,35.47,-77.97,15.7,15.7,360,3,,10.0,30.050198,,,TRUE,TRUE,,,,,,,CLR,,,,,,,,VFR,,,,,,,,,,,,METAR,40.0
KGED 200610Z AUTO 04007KT 2 1/2SM BR OVC003 17/15 A3012 RMK AO2 T01670150,KGED,2023-05-20T06:10:00Z,38.68,-75.37,16.7,15.0,40,7,,2.5,30.121063,,,TRUE,TRUE,,,,,,BR,OVC,300,,,,,,,LIFR,,,,,,,,,,,,SPECI,15.0
KFFA 200610Z AUTO 00000KT 1SM BR BKN014 BKN028 OVC038 18/18 A3001 RMK AO2 P0001 T01800180,KFFA,2023-05-20T06:10:00Z,36.02,-75.67,18.0,18.0,0,0,,1.0,30.008858,,,TRUE,TRUE,,,,,,BR,BKN,1400,BKN,2800,OVC,3800,,,IFR,,,,,,0.01,,,,,,METAR,2.0
KFAF 200610Z AUTO 04004KT 10SM OVC006 18/17 A3004 RMK AO2 SLP176 $,KFAF,2023-05-20T06:10:00Z,37.13,-76.62,18.0,17.0,40,4,,10.0,30.041338,1017.6,,TRUE,TRUE,TRUE,,,,,,OVC,600,,,,,,,IFR,,,,,,,,,,,,SPECI,3.0
KEYF 200610Z AUTO 35003KT 10SM BKN018 OVC033 18/17 A3005 RMK AO2 LTG DSNT SE T01800169,KEYF,2023-05-20T06:10:00Z,34.6,-78.58,18.0,16.9,350,3,,10.0,30.050198,,,TRUE,TRUE,,,,,,,BKN,1800,OVC,3300,,,,,MVFR,,,,,,,,,,,,METAR,39.0
KEXX 200610Z AUTO 00000KT 7SM OVC027 17/17 A3011 RMK AO2 T01650165,KEXX,2023-05-20T06:10:00Z,35.78,-80.3,16.5,16.5,0,0,,7.0,30.109253,,,TRUE,TRUE,,,,,,,OVC,2700,,,,,,,MVFR,,,,,,,,,,,,METAR,221.0
KEDE 200610Z AUTO 03005KT 7SM OVC005 19/19 A3004 RMK AO2 T01860186,KEDE,2023-05-20T06:10:00Z,36.03,-76.57,18.6,18.6,30,5,,7.0,30.041338,,,TRUE,TRUE,,,,,,,OVC,500,,,,,,,IFR,,,,,,,,,,,,METAR,4.0
KDTO 200610Z AUTO 34009KT 10SM BKN018 19/16 A3014 RMK AO2 PRESRR T01940161,KDTO,2023-05-20T06:10:00Z,33.2,-97.2,19.4,16.1,340,9,,10.0,30.138779,,,TRUE,TRUE,,,,,,,BKN,1800,,,,,,,MVFR,,,,,,,,,,,,SPECI,199.0
KCUB 200610Z AUTO 00000KT 7SM SCT009 BKN013 OVC022 18/18 A3008 RMK AO2 T01830178,KCUB,2023-05-20T06:10:00Z,33.97,-81.0,18.3,17.8,0,0,,7.0,30.079725,,,TRUE,TRUE,,,,,,,SCT,900,BKN,1300,OVC,2200,,,MVFR,,,,,,,,,,,,SPECI,55.0
KCII 200610Z AUTO 24004KT 10SM 16/06 A3009 RMK A01 ,KCII,2023-05-20T06:10:00Z,47.83,-112.17,16.0,6.0,240,4,,10.0,30.088583,,,TRUE,TRUE,,,,,,,,,,,,,,,,,,,,,,,,,,,METAR,1202.0
KCGS 200610Z AUTO 36004KT 10SM CLR 12/11 A3013 RMK AO2 T01230111,KCGS,2023-05-20T06:10:00Z,38.98,-76.92,12.3,11.1,360,4,,10.0,30.129921,,,TRUE,TRUE,,,,,,,CLR,,,,,,,,VFR,,,,,,,,,,,,SPECI,15.0
KAND 200610Z AUTO 00000KT 10SM BKN013 17/16 A3010 RMK AO2 T01720161,KAND,2023-05-20T06:10:00Z,34.5,-82.72,17.2,16.1,0,0,,10.0,30.100393,,,TRUE,TRUE,,,,,,,BKN,1300,,,,,,,MVFR,,,,,,,,,,,,SPECI,233.0
KAFP 200610Z AUTO 00000KT 10SM OVC013 18/17 A3008 RMK AO2 T01760170,KAFP,2023-05-20T06:10:00Z,35.02,-80.08,17.6,17.0,0,0,,10.0,30.079725,,,TRUE,TRUE,,,,,,,OVC,1300,,,,,,,MVFR,,,,,,,,,,,,METAR,91.0
K6S8 200610Z AUTO 00000KT 10SM 16/06 A3014 RMK A01 LAUREL,K6S8,2023-05-20T06:10:00Z,45.7,-108.77,16.0,6.0,0,0,,10.0,30.138779,,,TRUE,TRUE,,,,,,,,,,,,,,,,,,,,,,,,,,,SPECI,1072.0
K4U6 200610Z AUTO 22008KT 10SM 10/05 A3010 RMK A01 Circle ,K4U6,2023-05-20T06:10:00Z,47.42,-105.57,10.0,5.0,220,8,,10.0,30.100393,,,TRUE,TRUE,,,,,,,,,,,,,,,,,,,,,,,,,,,METAR,739.0
K1A5 200610Z AUTO 00000KT 10SM OVC039 18/15 A3015 RMK AO2 T01780145,K1A5,2023-05-20T06:10:00Z,35.22,-83.42,17.8,14.5,0,0,,10.0,30.15059,,,TRUE,TRUE,,,,,,,OVC,3900,,,,,,,VFR,,,,,,,,,,,,METAR,611.0
K05U 200610Z AUTO 01005KT 9SM CLR 10/02 A3026 RMK A01,K05U,2023-05-20T06:10:00Z,39.6,-116.0,10.0,2.0,10,5,,9.0,30.259842,,,TRUE,TRUE,,,,,,,CLR,,,,,,,,VFR,,,,,,,,,,,,METAR,1813.0
EGVA 200610Z AUTO 05007KT 9999 BKN008 08/08 A3032 RMK AO2 BKN V FEW SLP272 FZRANO $,EGVA,2023-05-20T06:10:00Z,51.67,-1.78,8.0,8.0,50,7,,6.21,30.318897,1027.2,,TRUE,TRUE,TRUE,,,TRUE,,,BKN,800,,,,,,,IFR,,,,,,,,,,,,SPECI,84.0
CYQG 200610Z AUTO 33010KT 7SM -RA FEW010 BKN029 OVC034 15/13 A2995 RMK SLP144,CYQG,2023-05-20T06:10:00Z,42.27,-82.97,15.0,13.0,330,10,,7.0,29.949802,1014.4,,TRUE,,,,,,,-RA,FEW,1000,BKN,2900,OVC,3400,,,MVFR,,,,,,,,,,,,SPECI,189.0
PAKF 200609Z AUTO 04009KT 10SM -RA BKN029 OVC035 04/03 A2959 RMK AO2 P0000,PAKF,2023-05-20T06:09:00Z,54.85,-163.42,4.0,3.0,40,9,,10.0,29.589567,,,TRUE,TRUE,,,,,,-RA,BKN,2900,OVC,3500,,,,,MVFR,,,,,,0.005,,,,,,SPECI,2.0
PAHY 200609Z AUTO 00000KT 10SM OVC010 11/10 A3022 RMK AO2 $,PAHY,2023-05-20T06:09:00Z,55.2,-132.83,11.0,10.0,0,0,,10.0,30.221457,,,TRUE,TRUE,TRUE,,,,,,OVC,1000,,,,,,,MVFR,,,,,,,,,,,,METAR,0.0
PAFE 200609Z AUTO 00000KT 8SM FEW002 OVC014 11/11 A3025 RMK AO2 $,PAFE,2023-05-20T06:09:00Z,56.97,-133.92,11.0,11.0,0,0,,8.0,30.250984,,,TRUE,TRUE,TRUE,,,,,,FEW,200,OVC,1400,,,,,MVFR,,,,,,,,,,,,METAR,1.0
PABR 200609Z AUTO 25014KT 10SM BKN010 01/M02 A2980 RMK AO2 T00061017 TSNO,PABR,2023-05-20T06:09:00Z,71.28,-156.78,0.6,-1.7,250,14,,10.0,29.799213,,,TRUE,TRUE,,,TRUE,,,,BKN,1000,,,,,,,MVFR,,,,,,,,,,,,METAR,6.0
KNEL 200609Z AUTO 10005KT BKN004 BKN014 OVC020 14/14 A3016 RMK AO2 RAB0526E0547 P0000 $,KNEL,2023-05-20T06:09:00Z,40.03,-74.33,14.0,14.0,100,5,,,30.159449,,,TRUE,TRUE,TRUE,,,,,,BKN,400,BKN,1400,OVC,2000,,,,,,,,,0.005,,,,,,SPECI,26.0
KMTN 200609Z AUTO 00000KT 10SM BKN012 15/13 A3015 RMK AO2,KMTN,2023-05-20T06:09:00Z,39.32,-76.42,15.0,13.0,0,0,,10.0,30.15059,,,TRUE,TRUE,,,,,,,BKN,1200,,,,,,,MVFR,,,,,,,,,,,,SPECI,2.0
KLLQ 200609Z AUTO 23003KT 7SM VCTS -RA SCT070 BKN090 OVC110 20/18 A3003 RMK AO2 LTG DSNT ALQDS TSE09 P0001 T02000183,KLLQ,2023-05-20T06:09:00Z,33.63,-91.75,20.0,18.3,230,3,,7.0,30.029528,,,TRUE,TRUE,,,,,,VCTS -RA,SCT,7000,BKN,9000,OVC,11000,,,VFR,,,,,,0.01,,,,,,METAR,86.0
KGRD 200609Z AUTO 03003KT 10SM BKN009 OVC027 18/17 A3010 RMK AO2 T01780167,KGRD,2023-05-20T06:09:00Z,34.25,-82.15,17.8,16.7,30,3,,10.0,30.100393,,,TRUE,TRUE,,,,,,,BKN,900,OVC,2700,,,,,IFR,,,,,,,,,,,,METAR,188.0
KFME 200609Z AUTO 00000KT 10/09 A3015 RMK AO1,KFME,2023-05-20T06:09:00Z,39.08,-76.77,10.0,9.0,0,0,,,30.15059,,,TRUE,TRUE,,,,,,,,,,,,,,,,,,,,,,,,,,,SPECI,43.0
K2W6 200609Z AUTO 08003KT 10SM OVC007 16/15 A3012 RMK AO1,K2W6,2023-05-20T06:09:00Z,38.32,-76.55,16.0,15.0,80,3,,10.0,30.121063,,,TRUE,TRUE,,,,,,,OVC,700,,,,,,,IFR,,,,,,,,,,,,SPECI,40.0
CYZV 200609Z 17004KT 15SM BKN060 OVC110 05/04 A2996 RMK SC5AC3 SLP151,CYZV,2023-05-20T06:09:00Z,50.22,-66.27,5.0,4.0,170,4,,15.0,29.958662,1015.1,,,,,,,,,,BKN,6000,OVC,11000,,,,,VFR,,,,,,,,,,,,SPECI,43.0
CYZR 200609Z AUTO 35007KT 8SM SCT002 SCT025 OVC030 12/12 A2993 RMK SLP141,CYZR,2023-05-20T06:09:00Z,43.0,-82.3,12.0,12.0,350,7,,8.0,29.929134,1014.1,,TRUE,,,,,,,,SCT,200,SCT,2500,OVC,3000,,,MVFR,,,,,,,,,,,,SPECI,181.0
CYTE 200609Z AUTO 29014KT 9SM -SN FEW019 OVC024 M07/M09 A2956 RMK SLP017,CYTE,2023-05-20T06:09:00Z,64.22,-76.52,-7.0,-9.0,290,14,,9.0,29.56004,1001.7,,TRUE,,,,,,,-SN,FEW,1900,OVC,2400,,,,,MVFR,,,,,,,,,,,,SPECI,49.0
PAKW 200608Z AUTO 00000KT 10SM OVC013 11/10 A3021 RMK AO2 T01110100 TSNO,PAKW,2023-05-20T06:08:00Z,55.58,-133.07,11.1,10.0,0,0,,10.0,30.209646,,,TRUE,TRUE,,,TRUE,,,,OVC,1300,,,,,,,MVFR,,,,,,,,,,,,METAR,7.0
KSRC 200608Z AUTO 02007KT 10SM -RA SCT007 OVC032 20/19 A3000 RMK AO2 P0001,KSRC,2023-05-20T06:08:00Z,35.22,-91.73,20.0,19.0,20,7,,10.0,30.0,,,TRUE,TRUE,,,,,,-RA,SCT,700,OVC,3200,,,,,VFR,,,,,,0.01,,,,,,SPECI,80.0
KRND 200608Z AUTO 35005KT 10SM -DZ OVC013 25/24 A3006 RMK AO2 DZB08 SLPNO TSNO $,KRND,2023-05-20T06:08:00Z,29.53,-98.27,25.0,24.0,350,5,,10.0,30.059055,,,TRUE,TRUE,TRUE,,TRUE,,,-DZ,OVC,1300,,,,,,,MVFR,,,,,,,,,,,,SPECI,224.0
KPOF 200608Z AUTO 01013KT 6SM -RA BR OVC010 18/16 A3004 RMK AO2 P0001 T01780161,KPOF,2023-05-20T06:08:00Z,36.77,-90.32,17.8,16.1,10,13,,6.0,30.041338,,,TRUE,TRUE,,,,,,-RA BR,OVC,1000,,,,,,,MVFR,,,,,,0.01,,,,,,METAR,99.0
KOCF 200608Z AUTO 06004KT 8SM BKN022 22/22 A3003 RMK AO2 $,KOCF,2023-05-20T06:08:00Z,29.17,-82.22,22.0,22.0,60,4,,8.0,30.029528,,,TRUE,TRUE,TRUE,,,,,,BKN,2200,,,,,,,MVFR,,,,,,,,,,,,SPECI,24.0
KLZU 200608Z AUTO 12005KT 10SM SCT023 OVC031 18/17 A3010 RMK AO2,KLZU,2023-05-20T06:08:00Z,33.98,-83.97,18.0,17.0,120,5,,10.0,30.100393,,,TRUE,TRUE,,,,,,,SCT,2300,OVC,3100,,,,,VFR,,,,,,,,,,,,SPECI,316.0
KIWD 200608Z AUTO 27004KT 10SM CLR 01/01 A3017 RMK AO2 FZRANO,KIWD,2023-05-20T06:08:00Z,46.52,-90.12,1.0,1.0,270,4,,10.0,30.171259,,,TRUE,TRUE,,,,TRUE,,,CLR,,,,,,,,VFR,,,,,,,,,,,,SPECI,373.0
RCKH 200607Z 26012KT 230V290 9999 FEW011 SCT025 32/25 Q1008 NOSIG RMK 22012KT/R09 A2979,RCKH,2023-05-20T06:07:00Z,22.57,120.33,32.0,25.0,260,12,,6.21,29.763779,,,,,,TRUE,,,,,FEW,1100,SCT,2500,,,,,VFR,,,,,,,,,,,,METAR,6.0
KUNO 200607Z AUTO 03013G21KT 6SM BR SCT006 BKN013 OVC038 13/12 A3010 RMK AO2 RAE00 P0000 T01330117,KUNO,2023-05-20T06:07:00Z,36.88,-91.9,13.3,11.7,30,13,21,6.0,30.100393,,,TRUE,TRUE,,,,,,BR,SCT,600,BKN,1300,OVC,3800,,,MVFR,,,,,,0.005,,,,,,SPECI,376.0
KPTW 200607Z AUTO 00000KT 10SM BKN015 11/09 A3018 RMK AO2 T01060094,KPTW,2023-05-20T06:07:00Z,40.23,-75.55,10.6,9.4,0,0,,10.0,30.180119,,,TRUE,TRUE,,,,,,,BKN,1500,,,,,,,MVFR,,,,,,,,,,,,SPECI,88.0
KLOU 200607Z AUTO 02006KT 3SM RA BR FEW008 BKN030 OVC039 17/17 A3000 RMK AO2 P0008 T01720167,KLOU,2023-05-20T06:07:00Z,38.22,-85.67,17.2,16.7,20,6,,3.0,30.0,,,TRUE,TRUE,,,,,,RA BR,FEW,800,BKN,3000,OVC,3900,,,MVFR,,,,,,0.08,,,,,,SPECI,165.0
KHKA 200607Z AUTO 00000KT 1 3/4SM +RA BR FEW025 BKN044 OVC055 20/19 A2999 RMK AO2 LTG DSNT SE RAB0554 P0000 T02000189 $,KHKA,2023-05-20T06:07:00Z,35.93,-89.83,20.0,18.9,0,0,,1.75,29.991142,,,TRUE,TRUE,TRUE,,,,,+RA BR,FEW,2500,BKN,4400,OVC,5500,,,IFR,,,,,,0.005,,,,,,SPECI,78.0
KCNO 200607Z AUTO 24005KT 6SM HZ OVC014 16/13 A3007 RMK AO2 T01610133,KCNO,2023-05-20T06:07:00Z,33.98,-117.62,16.1,13.3,240,5,,6.0,30.070866,,,TRUE,TRUE,,,,,,HZ,OVC,1400,,,,,,,MVFR,,,,,,,,,,,,SPECI,191.0
KCIU 200607Z AUTO 04007KT 10SM SCT003 OVC024 08/07 A2998 RMK AO2,KCIU,2023-05-20T06:07:00Z,46.25,-84.47,8.0,7.0,40,7,,10.0,29.97933,,,TRUE,TRUE,,,,,,,SCT,300,OVC,2400,,,,,MVFR,,,,,,,,,,,,SPECI,242.0
PAMD 200606Z AUTO 10013KT 1/2SM -RA FG OVC003 07/07 A3007 RMK AO2 PNO $,PAMD,2023-05-20T06:06:00Z,59.43,-146.3,7.0,7.0,100,13,,0.5,30.070866,,,TRUE,TRUE,TRUE,,,,,-RA FG,OVC,300,,,,,,,LIFR,,,,,,,,,,,,SPECI,20.0
LIVT 200606Z AUTO 05014G30KT 360V090 //// 19/12 Q1014,LIVT,2023-05-20T06:06:00Z,45.68,13.75,19.0,12.0,50,14,30,,29.940945,,,TRUE,,,,,,,,,,,,,,,,,,,,,,,,,,,,SPECI,20.0
KXNA 200606Z AUTO 01009KT 5SM BR OVC005 14/13 A3015 RMK AO2 T01390128,KXNA,2023-05-20T06:06:00Z,36.28,-94.3,13.9,12.8,10,9,,5.0,30.15059,,,TRUE,TRUE,,,,,,BR,OVC,500,,,,,,,IFR,,,,,,,,,,,,SPECI,390.0
KWVI 200606Z AUTO 08004KT 10SM BKN006 12/11 A3010 RMK AO2 T01170106,KWVI,2023-05-20T06:06:00Z,36.93,-121.78,11.7,10.6,80,4,,10.0,30.100393,,,TRUE,TRUE,,,,,,,BKN,600,,,,,,,IFR,,,,,,,,,,,,SPECI,47.0
KLIT 200606Z 27005KT 7SM BKN013 BKN020 OVC027 23/21 A2999 RMK AO2 T02280206 $,KLIT,2023-05-20T06:06:00Z,34.73,-92.23,22.8,20.6,270,5,,7.0,29.991142,,,,TRUE,TRUE,,,,,,BKN,1300,BKN,2000,OVC,2700,,,MVFR,,,,,,,,,,,,METAR,77.0
KILG 200606Z AUTO 08004KT 10SM SCT009 14/12 A3015 RMK AO2 T01440117,KILG,2023-05-20T06:06:00Z,39.67,-75.6,14.4,11.7,80,4,,10.0,30.15059,,,TRUE,TRUE,,,,,,,SCT,900,,,,,,,VFR,,,,,,,,,,,,SPECI,22.0
KGLH 200606Z 18006KT 10SM SCT090 24/21 A2998 RMK AO2 LTG DSNT W AND NW T02440206,KGLH,2023-05-20T06:06:00Z,33.47,-90.98,24.4,20.6,180,6,,10.0,29.97933,,,,TRUE,,,,,,,SCT,9000,,,,,,,VFR,,,,,,,,,,,,SPECI,40.0
KELD 200606Z AUTO 00000KT 7SM -TSRA BKN003 BKN060 21/20 A3001 RMK AO2 LTG DSNT ALQDS RAB05 TSB06 CIG 002V009 P0001 T02060200,KELD,2023-05-20T06:06:00Z,33.22,-92.82,20.6,20.0,0,0,,7.0,30.008858,,,TRUE,TRUE,,,,,,-TSRA,BKN,300,BKN,6000,,,,,LIFR,,,,,,0.01,,,,,,SPECI,76.0
K2DP 200606Z AUTO 00000KT 1 3/8SM -RA BKN002 OVC013 M A3000 RMK AO2 LTG DSNT S RAB06 BKN V OVC SLPNO ALSTG ESTMD $,K2DP,2023-05-20T06:06:00Z,35.68,-75.9,,,0,0,,1.38,30.0,,,TRUE,TRUE,TRUE,,,,,-RA,BKN,200,OVC,1300,,,,,LIFR,,,,,,,,,,,,SPECI,1.0
CYVO 200606Z AUTO 02008KT 9SM BKN008 BKN066 08/07 A2999 RMK SLP172,CYVO,2023-05-20T06:06:00Z,48.07,-77.77,8.0,7.0,20,8,,9.0,29.991142,1017.2,,TRUE,,,,,,,,BKN,800,BKN,6600,,,,,IFR,,,,,,,,,,,,SPECI,329.0
CYTZ 200606Z AUTO 08012KT 3SM -RA BR SCT040 OVC071 14/14 A2990 RMK SLP129,CYTZ,2023-05-20T06:06:00Z,43.63,-79.4,14.0,14.0,80,12,,3.0,29.899607,1012.9,,TRUE,,,,,,,-RA BR,SCT,4000,OVC,7100,,,,,MVFR,,,,,,,,,,,,SPECI,76.0
CYCK 200606Z AUTO 36003KT 2 1/4SM -RA BR CLR 13/13 A2991 RMK SLP132,CYCK,2023-05-20T06:06:00Z,42.3,-82.08,13.0,13.0,360,3,,2.25,29.911417,1013.2,,TRUE,,,,,,,-RA BR,CLR,,,,,,,,IFR,,,,,,,,,,,,SPECI,196.0
YPPD 200605Z AUTO 11017G27KT 9999 // NCD 28/01 Q1018 RF00/0/000/0,YPPD,2023-05-20T06:05:00Z,-20.37,118.62,28.0,1.0,110,17,27,6.21,30.059055,,,TRUE,,,,,,,,CLR,,,,,,,,VFR,,,,,,,,,,,,METAR,6.0
RKTB 200605Z 25012G022KT 4800 BR BKN010 15/13 A2986 RMK CIG010,RKTB,2023-05-20T06:05:00Z,37.05,126.0,15.0,13.0,250,12,22,2.98,29.861221,,,,,,,,,,BR,BKN,1000,,,,,,,IFR,,,,,,,,,,,,SPECI,12.0
KW40 200605Z AUTO 02005KT 10SM OVC022 17/16 A3005 RMK AO2 T01710159,KW40,2023-05-20T06:05:00Z,35.22,-78.03,17.1,15.9,20,5,,10.0,30.050198,,,TRUE,TRUE,,,,,,,OVC,2200,,,,,,,MVFR,,,,,,,,,,,,METAR,50.0
KW29 200605Z AUTO 10003KT 10SM CLR 15/ A3013 RMK AO2 T0146////,KW29,2023-05-20T06:05:00Z,38.98,-76.33,14.6,,100,3,,10.0,30.129921,,,TRUE,TRUE,,,,,,,CLR,,,,,,,,VFR,,,,,,,,,,,,SPECI,1.0
KVUJ 200605Z AUTO 00000KT 10SM OVC026 17/16 A3014 RMK AO2 T01730164,KVUJ,2023-05-20T06:05:00Z,35.42,-80.15,17.3,16.4,0,0,,10.0,30.138779,,,TRUE,TRUE,,,,,,,OVC,2600,,,,,,,MVFR,,,,,,,,,,,,METAR,174.0
KUKF 200605Z AUTO 00000KT 4SM BR OVC013 16/16 A3018 RMK AO2,KUKF,2023-05-20T06:05:00Z,36.22,-81.1,16.0,16.0,0,0,,4.0,30.180119,,,TRUE,TRUE,,,,,,BR,OVC,1300,,,,,,,MVFR,,,,,,,,,,,,METAR,383.0
KTTA 200605Z AUTO 00000KT 10SM OVC037 16/16 A3008 RMK AO2 T01620162,KTTA,2023-05-20T06:05:00Z,35.58,-79.1,16.2,16.2,0,0,,10.0,30.079725,,,TRUE,TRUE,,,,,,,OVC,3700,,,,,,,VFR,,,,,,,,,,,,METAR,71.0
KTDF 200605Z AUTO 00000KT 7SM CLR 13/12 A3010 RMK AO2,KTDF,2023-05-20T06:05:00Z,36.28,-78.98,13.0,12.0,0,0,,7.0,30.100393,,,TRUE,TRUE,,,,,,,CLR,,,,,,,,VFR,,,,,,,,,,,,METAR,180.0
KSVH 200605Z AUTO 00000KT 10SM OVC030 17/16 A3011 RMK AO2 T01710162,KSVH,2023-05-20T06:05:00Z,35.75,-80.95,17.1,16.2,0,0,,10.0,30.109253,,,TRUE,TRUE,,,,,,,OVC,3000,,,,,,,MVFR,,,,,,,,,,,,METAR,286.0
KSIF 200605Z AUTO 00000KT 10SM OVC031 17/16 A3011 RMK AO2 T01710155,KSIF,2023-05-20T06:05:00Z,36.43,-79.85,17.1,15.5,0,0,,10.0,30.109253,,,TRUE,TRUE,,,,,,,OVC,3100,,,,,,,VFR,,,,,,,,,,,,METAR,206.0
KSCR 200605Z AUTO 00000KT 10SM OVC030 17/17 A3009 RMK AO2 T01660166,KSCR,2023-05-20T06:05:00Z,35.7,-79.5,16.6,16.6,0,0,,10.0,30.088583,,,TRUE,TRUE,,,,,,,OVC,3000,,,,,,,MVFR,,,,,,,,,,,,METAR,182.0
KRUQ 200605Z AUTO 00000KT 7SM OVC026 17/16 A3011 RMK AO2 T01650160,KRUQ,2023-05-20T06:05:00Z,35.65,-80.52,16.5,16.0,0,0,,7.0,30.109253,,,TRUE,TRUE,,,,,,,OVC,2600,,,,,,,MVFR,,,,,,,,,,,,METAR,231.0
KPIB 200605Z AUTO 03005KT 1/4SM FG BKN001 22/ A3004 RMK AO2 RVRNO,KPIB,2023-05-20T06:05:00Z,31.47,-89.33,22.0,,30,5,,0.25,30.041338,,,TRUE,TRUE,,,,,,FG,BKN,100,,,,,,,LIFR,,,,,,,,,,,,SPECI,91.0
KPGV 200605Z AUTO 03006KT 7SM BKN007 BKN012 OVC019 17/17 A3004 RMK AO2,KPGV,2023-05-20T06:05:00Z,35.63,-77.4,17.0,17.0,30,6,,7.0,30.041338,,,TRUE,TRUE,,,,,,,BKN,700,BKN,1200,OVC,1900,,,IFR,,,,,,,,,,,,METAR,6.0
KONX 200605Z AUTO 02005KT 1 1/2SM BR OVC003 18/18 A3003 RMK AO2 T01800180,KONX,2023-05-20T06:05:00Z,36.4,-76.02,18.0,18.0,20,5,,1.5,30.029528,,,TRUE,TRUE,,,,,,BR,OVC,300,,,,,,,LIFR,,,,,,,,,,,,METAR,4.0
KOCW 200605Z AUTO 01004KT 10SM OVC007 18/16 A3004 RMK AO2 T01750163,KOCW,2023-05-20T06:05:00Z,35.57,-77.05,17.5,16.3,10,4,,10.0,30.041338,,,TRUE,TRUE,,,,,,,OVC,700,,,,,,,IFR,,,,,,,,,,,,METAR,10.0
KMWK 200605Z AUTO 00000KT 10SM OVC024 17/15 A3015 RMK AO2 T01670146,KMWK,2023-05-20T06:05:00Z,36.47,-80.55,16.7,14.6,0,0,,10.0,30.15059,,,TRUE,TRUE,,,,,,,OVC,2400,,,,,,,MVFR,,,,,,,,,,,,METAR,374.0
KMRN 200605Z AUTO 00000KT 10SM BKN019 OVC025 17/16 A3013 RMK AO2 T01670158,KMRN,2023-05-20T06:05:00Z,35.82,-81.62,16.7,15.8,0,0,,10.0,30.129921,,,TRUE,TRUE,,,,,,,BKN,1900,OVC,2500,,,,,MVFR,,,,,,,,,,,,METAR,375.0
KMMT 200605Z AUTO 00000KT 10SM SCT010 OVC018 18/18 A3005 RMK AO2 CIG 010V018 SLPNO $,KMMT,2023-05-20T06:05:00Z,33.92,-80.8,18.0,18.0,0,0,,10.0,30.050198,,,TRUE,TRUE,TRUE,,,,,,SCT,1000,OVC,1800,,,,,MVFR,,,,,,,,,,,,SPECI,76.0
KMCZ 200605Z AUTO 04003KT 10SM OVC008 17/16 A3004 RMK AO2 T01700162,KMCZ,2023-05-20T06:05:00Z,,,17.0,16.2,40,3,,10.0,30.041338,,,TRUE,TRUE,,,,,,,OVC,800,,,,,,,IFR,,,,,,,,,,,,METAR,
KJNX 200605Z AUTO 03003KT 10SM BKN034 16/16 A3005 RMK AO2 LTG DSNT E AND SE,KJNX,2023-05-20T06:05:00Z,35.53,-78.38,16.0,16.0,30,3,,10.0,30.050198,,,TRUE,TRUE,,,,,,,BKN,3400,,,,,,,VFR,,,,,,,,,,,,METAR,41.0
KISO 200605Z AUTO 01006KT 7SM OVC013 18/17 A3004 RMK AO2 T01750165,KISO,2023-05-20T06:05:00Z,35.32,-77.62,17.5,16.5,10,6,,7.0,30.041338,,,TRUE,TRUE,,,,,,,OVC,1300,,,,,,,MVFR,,,,,,,,,,,,METAR,27.0
KIPJ 200605Z AUTO 00000KT 7SM SCT007 SCT015 OVC032 17/16 A3011 RMK AO2 T01650162,KIPJ,2023-05-20T06:05:00Z,35.48,-81.17,16.5,16.2,0,0,,7.0,30.109253,,,TRUE,TRUE,,,,,,,SCT,700,SCT,1500,OVC,3200,,,VFR,,,,,,,,,,,,METAR,266.0
KHRJ 200605Z AUTO 00000KT 10SM BKN033 16/16 A3007 RMK AO2 T01600158,KHRJ,2023-05-20T06:05:00Z,35.38,-78.73,16.0,15.8,0,0,,10.0,30.070866,,,TRUE,TRUE,,,,,,,BKN,3300,,,,,,,VFR,,,,,,,,,,,,METAR,55.0
KHBI 200605Z AUTO 00000KT 10SM OVC026 17/16 A3012 RMK AO2 T01660157,KHBI,2023-05-20T06:05:00Z,35.65,-79.9,16.6,15.7,0,0,,10.0,30.121063,,,TRUE,TRUE,,,,,,,OVC,2600,,,,,,,MVFR,,,,,,,,,,,,METAR,199.0
KGKY 200605Z AUTO 31011KT 10SM BKN018 22/19 A3010 RMK AO2 T02220189 $,KGKY,2023-05-20T06:05:00Z,32.67,-97.1,22.2,18.9,310,11,,10.0,30.100393,,,TRUE,TRUE,TRUE,,,,,,BKN,1800,,,,,,,MVFR,,,,,,,,,,,,SPECI,189.0
KGEV 200605Z AUTO 00000KT 1SM BR OVC002 13/12 A3017 RMK AO2 T01260124,KGEV,2023-05-20T06:05:00Z,36.43,-81.42,12.6,12.4,0,0,,1.0,30.171259,,,TRUE,TRUE,,,,,,BR,OVC,200,,,,,,,LIFR,,,,,,,,,,,,METAR,961.0
KFDK 200605Z AUTO 00000KT 10SM CLR 12/12 A3013 RMK AO2,KFDK,2023-05-20T06:05:00Z,39.42,-77.37,12.0,12.0,0,0,,10.0,30.129921,,,TRUE,TRUE,,,,,,,CLR,,,,,,,,VFR,,,,,,,,,,,,SPECI,82.0
KEVV 200605Z AUTO 36005KT 7SM SCT006 BKN020 OVC070 18/17 A3002 RMK AO2 T01830172 $,KEVV,2023-05-20T06:05:00Z,38.05,-87.52,18.3,17.2,360,5,,7.0,30.02067,,,TRUE,TRUE,TRUE,,,,,,SCT,600,BKN,2000,OVC,7000,,,MVFR,,,,,,,,,,,,SPECI,123.0
KESN 200605Z AUTO 07004KT 10SM BKN005 14/13 A3012 RMK AO2 T01420131,KESN,2023-05-20T06:05:00Z,38.8,-76.07,14.2,13.1,70,4,,10.0,30.121063,,,TRUE,TRUE,,,,,,,BKN,500,,,,,,,IFR,,,,,,,,,,,,SPECI,14.0
KEHO 200605Z AUTO 04003KT 10SM OVC017 17/16 A3012 RMK AO2 T01660162,KEHO,2023-05-20T06:05:00Z,35.25,-81.6,16.6,16.2,40,3,,10.0,30.121063,,,TRUE,TRUE,,,,,,,OVC,1700,,,,,,,MVFR,,,,,,,,,,,,METAR,261.0
KECG 200605Z AUTO 02009KT 3SM BR OVC003 18/18 A3003 RMK AO2 T01830178,KECG,2023-05-20T06:05:00Z,36.27,-76.18,18.3,17.8,20,9,,3.0,30.029528,,,TRUE,TRUE,,,,,,BR,OVC,300,,,,,,,LIFR,,,,,,,,,,,,SPECI,2.0
KDPL 200605Z AUTO 36007KT 10SM BKN011 OVC021 17/17 A3005 RMK AO2,KDPL,2023-05-20T06:05:00Z,35.0,-77.97,17.0,17.0,360,7,,10.0,30.050198,,,TRUE,TRUE,,,,,,,BKN,1100,OVC,2100,,,,,MVFR,,,,,,,,,,,,METAR,39.0
KDMW 200605Z AUTO 00000KT 10SM CLR 14/12 A3013 RMK AO2 LTG DSNT S,KDMW,2023-05-20T06:05:00Z,39.6,-77.0,14.0,12.0,0,0,,10.0,30.129921,,,TRUE,TRUE,,,,,,,CLR,,,,,,,,VFR,,,,,,,,,,,,SPECI,239.0
KCTZ 200605Z AUTO 01004KT 10SM BKN021 OVC026 18/18 A3005 RMK AO2 T01810181,KCTZ,2023-05-20T06:05:00Z,34.98,-78.37,18.1,18.1,10,4,,10.0,30.050198,,,TRUE,TRUE,,,,,,,BKN,2100,OVC,2600,,,,,MVFR,,,,,,,,,,,,METAR,43.0
KCPC 200605Z AUTO 04004KT 10SM BKN011 OVC017 18/17 A3005 RMK AO2 T01830168,KCPC,2023-05-20T06:05:00Z,34.28,-78.72,18.3,16.8,40,4,,10.0,30.050198,,,TRUE,TRUE,,,,,,,BKN,1100,OVC,1700,,,,,MVFR,,,,,,,,,,,,METAR,27.0
KCLT 200605Z 36003KT 6SM BR SCT008 BKN015 OVC029 17/16 A3010 RMK AO2 T01720161,KCLT,2023-05-20T06:05:00Z,35.22,-80.95,17.2,16.1,360,3,,6.0,30.100393,,,,TRUE,,,,,,BR,SCT,800,BKN,1500,OVC,2900,,,MVFR,,,,,,,,,,,,SPECI,223.0
KCLE 200605Z 21006KT 3SM -RA BR FEW008 SCT016 OVC031 17/16 A2994 RMK AO2 P0008 T01720156,KCLE,2023-05-20T06:05:00Z,41.42,-81.85,17.2,15.6,210,6,,3.0,29.940945,,,,TRUE,,,,,,-RA BR,FEW,800,SCT,1600,OVC,3100,,,MVFR,,,,,,0.08,,,,,,SPECI,237.0
KCGE 200605Z AUTO 03004KT 10SM BKN019 15/15 A3011 RMK A01,KCGE,2023-05-20T06:05:00Z,38.53,-76.03,15.0,15.0,30,4,,10.0,30.109253,,,TRUE,TRUE,,,,,,,BKN,1900,,,,,,,MVFR,,,,,,,,,,,,SPECI,5.0
KCBE 200605Z AUTO 00000KT 10SM CLR 15/11 A3013 RMK AO2 T01490115,KCBE,2023-05-20T06:05:00Z,39.62,-78.77,14.9,11.5,0,0,,10.0,30.129921,,,TRUE,TRUE,,,,,,,CLR,,,,,,,,VFR,,,,,,,,,,,,METAR,226.0
KASJ 200605Z AUTO 01004KT 10SM OVC007 17/17 A3006 RMK AO2 T01690169,KASJ,2023-05-20T06:05:00Z,36.28,-77.17,16.9,16.9,10,4,,10.0,30.059055,,,TRUE,TRUE,,,,,,,OVC,700,,,,,,,IFR,,,,,,,,,,,,METAR,20.0
KAMA 200605Z AUTO 36006KT 2 1/2SM BR SCT041 11/10 A3032 RMK AO2 T01110100,KAMA,2023-05-20T06:05:00Z,35.22,-101.72,11.1,10.0,360,6,,2.5,30.318897,,,TRUE,TRUE,,,,,,BR,SCT,4100,,,,,,,IFR,,,,,,,,,,,,SPECI,1102.0
KACZ 200605Z AUTO 36005KT 10SM OVC012 18/17 A3003 RMK AO2 T01810166,KACZ,2023-05-20T06:05:00Z,,,18.1,16.6,360,5,,10.0,30.029528,,,TRUE,TRUE,,,,,,,OVC,1200,,,,,,,MVFR,,,,,,,,,,,,METAR,
KABH 200605Z AUTO 22005KT 2SM BR BKN031 OVC060 10/09 A3039 RMK AO2 SLP266,KABH,2023-05-20T06:05:00Z,38.75,-104.3,10.0,9.0,220,5,,2.0,30.389763,1026.6,,TRUE,TRUE,,,,,,BR,BKN,3100,OVC,6000,,,,,IFR,,,,,,,,,,,,METAR,1838.0
K7W6 200605Z AUTO 00000KT 2 1/2SM -RA BKN003 OVC012 18/18 A3002 RMK AO2 T01830182,K7W6,2023-05-20T06:05:00Z,35.55,-75.95,18.3,18.2,0,0,,2.5,30.02067,,,TRUE,TRUE,,,,,,-RA,BKN,300,OVC,1200,,,,,LIFR,,,,,,,,,,,,METAR,1.0
K24A 200605Z AUTO 12004KT 10SM SCT024 OVC031 16/13 A3014 RMK AO2 LTG DSNT SE T01570134,K24A,2023-05-20T06:05:00Z,35.32,-83.2,15.7,13.4,120,4,,10.0,30.138779,,,TRUE,TRUE,,,,,,,SCT,2400,OVC,3100,,,,,VFR,,,,,,,,,,,,METAR,864.0
SCAT 200604Z AUTO 24003KT 9999 OVC015/// 14/11 Q1014,SCAT,2023-05-20T06:04:00Z,-27.27,-70.77,14.0,11.0,240,3,,6.21,29.940945,,,TRUE,,,,,,,,OVC,1500,,,,,,,MVFR,,,,,,,,,,,,SPECI,209.0
PAIW 200604Z AUTO 05006KT 1/2SM UP FZFG OVC001 M01/M02 A3001 RMK AO2 P0000 FZRANO,PAIW,2023-05-20T06:04:00Z,65.62,-168.1,-1.0,-2.0,50,6,,0.5,30.008858,,,TRUE,TRUE,,,,TRUE,,FZFG UP,OVC,100,,,,,,,LIFR,,,,,,0.005,,,,,,SPECI,6.0
KROG 200604Z 01005KT 7SM SCT010 OVC018 13/12 A3017 RMK AO2,KROG,2023-05-20T06:04:00Z,36.37,-94.1,13.0,12.0,10,5,,7.0,30.171259,,,,TRUE,,,,,,,SCT,1000,OVC,1800,,,,,MVFR,,,,,,,,,,,,SPECI,407.0
KPAH 200604Z AUTO 36006KT 6SM BR BKN009 BKN013 OVC110 19/17 A3001 RMK AO2 CIG 006V011 T01890172,KPAH,2023-05-20T06:04:00Z,37.07,-88.77,18.9,17.2,360,6,,6.0,30.008858,,,TRUE,TRUE,,,,,,BR,BKN,900,BKN,1300,OVC,11000,,,IFR,,,,,,,,,,,,SPECI,125.0
KMRY 200604Z AUTO 27005KT 10SM OVC004 12/11 A3012 RMK AO2 T01170106,KMRY,2023-05-20T06:04:00Z,36.58,-121.85,11.7,10.6,270,5,,10.0,30.121063,,,TRUE,TRUE,,,,,,,OVC,400,,,,,,,LIFR,,,,,,,,,,,,SPECI,51.0
KGTR 200604Z AUTO 14007KT 10SM FEW023 SCT028 21/20 A3003 RMK AO2,KGTR,2023-05-20T06:04:00Z,33.45,-88.58,21.0,20.0,140,7,,10.0,30.029528,,,TRUE,TRUE,,,,,,,FEW,2300,SCT,2800,,,,,VFR,,,,,,,,,,,,SPECI,80.0
KDFW 200604Z 35013G19KT 10SM BKN018 OVC070 21/18 A3009 RMK AO2 T02110178,KDFW,2023-05-20T06:04:00Z,32.9,-97.02,21.1,17.8,350,13,19,10.0,30.088583,,,,TRUE,,,,,,,BKN,1800,OVC,7000,,,,,MVFR,,,,,,,,,,,,SPECI,168.0
CYSC 200604Z AUTO 13004KT 9SM SCT096 13/12 A3010 RMK SLP197,CYSC,2023-05-20T06:04:00Z,45.43,-71.68,13.0,12.0,130,4,,9.0,30.100393,1019.7,,TRUE,,,,,,,,SCT,9600,,,,,,,VFR,,,,,,,,,,,,SPECI,236.0
SVVL 200603Z AUTO ///01KT NCD ///// Q////,SVVL,2023-05-20T06:03:00Z,9.33,-70.58,,,,,,,,,,TRUE,,,,,,,,CLR,,,,,,,,,,,,,,,,,,,,METAR,575.0
SVVA 200603Z AUTO 33001KT NCD 28/24 Q1012,SVVA,2023-05-20T06:03:00Z,10.15,-67.92,28.0,24.0,330,1,,,29.88189,,,TRUE,,,,,,,,CLR,,,,,,,,,,,,,,,,,,,,METAR,428.0
SVSR 200603Z AUTO NIL,SVSR,2023-05-20T06:03:00Z,7.87,-67.43,,,,,,,,,,TRUE,,,,,,,,,,,,,,,,,,,,,,,,,,,,METAR,49.0
SVSA 200603Z AUTO NIL,SVSA,2023-05-20T06:03:00Z,7.83,-72.45,,,,,,,,,,TRUE,,,,,,,,,,,,,,,,,,,,,,,,,,,,METAR,383.0
SVPR 200603Z AUTO 08008KT NCD 25/22 Q1013,SVPR,2023-05-20T06:03:00Z,8.3,-62.77,25.0,22.0,80,8,,,29.911417,,,TRUE,,,,,,,,CLR,,,,,,,,,,,,,,,,,,,,METAR,140.0
SVPA 200603Z AUTO NIL,SVPA,2023-05-20T06:03:00Z,5.62,-67.6,,,,,,,,,,TRUE,,,,,,,,,,,,,,,,,,,,,,,,,,,,METAR,77.0
SVMT 200603Z AUTO 08006KT NCD 25/25 Q1012,SVMT,2023-05-20T06:03:00Z,9.75,-63.17,25.0,25.0,80,6,,,29.88189,,,TRUE,,,,,,,,CLR,,,,,,,,,,,,,,,,,,,,METAR,67.0
SVMI 200603Z AUTO 08007KT NCD 26/23 Q1012,SVMI,2023-05-20T06:03:00Z,10.6,-67.0,26.0,23.0,80,7,,,29.88189,,,TRUE,,,,,,,,CLR,,,,,,,,,,,,,,,,,,,,METAR,48.0
SVMG 200603Z AUTO 10015KT NCD 28/25 Q1011,SVMG,2023-05-20T06:03:00Z,10.92,-63.97,28.0,25.0,100,15,,,29.852362,,,TRUE,,,,,,,,CLR,,,,,,,,,,,,,,,,,,,,METAR,16.0
SVMC 200603Z AUTO 03008KT NCD 28/25 Q1009,SVMC,2023-05-20T06:03:00Z,10.57,-71.72,28.0,25.0,30,8,,,29.793306,,,TRUE,,,,,,,,CLR,,,,,,,,,,,,,,,,,,,,METAR,76.0
SVLO 200603Z AUTO NIL,SVLO,2023-05-20T06:03:00Z,11.8,-66.18,,,,,,,,,,TRUE,,,,,,,,,,,,,,,,,,,,,,,,,,,,METAR,3.0
SVJM 200603Z AUTO 03001KT NCD 25/24 Q1011,SVJM,2023-05-20T06:03:00Z,9.92,-67.38,25.0,24.0,30,1,,,29.852362,,,TRUE,,,,,,,,CLR,,,,,,,,,,,,,,,,,,,,METAR,448.0
SVGU 200603Z AUTO 02001KT NCD 19/23 Q1011,SVGU,2023-05-20T06:03:00Z,9.03,-69.75,19.0,23.0,20,1,,,29.852362,,,TRUE,,,,,,,,CLR,,,,,,,,,,,,,,,,,,,,METAR,165.0
SVGD 200603Z AUTO 30001KT NCD 25/25 Q1011,SVGD,2023-05-20T06:03:00Z,7.22,-70.75,25.0,25.0,300,1,,,29.852362,,,TRUE,,,,,,,,CLR,,,,,,,,,,,,,,,,,,,,METAR,129.0
SVFM 200603Z AUTO NIL,SVFM,2023-05-20T06:03:00Z,10.48,-66.83,,,,,,,,,,TRUE,,,,,,,,,,,,,,,,,,,,,,,,,,,,METAR,852.0
SVCS 200603Z AUTO 11003KT NCD 23/20 Q1016,SVCS,2023-05-20T06:03:00Z,10.3,-66.82,23.0,20.0,110,3,,,30.0,,,TRUE,,,,,,,,CLR,,,,,,,,,,,,,,,,,,,,METAR,656.0
SVCB 200603Z AUTO 08007KT NCD 27/23 Q1011,SVCB,2023-05-20T06:03:00Z,8.12,-63.53,27.0,23.0,80,7,,,29.852362,,,TRUE,,,,,,,,CLR,,,,,,,,,,,,,,,,,,,,METAR,47.0
SVBS 200603Z AUTO 03001KT NCD 26/22 Q1013,SVBS,2023-05-20T06:03:00Z,10.25,-67.65,26.0,22.0,30,1,,,29.911417,,,TRUE,,,,,,,,CLR,,,,,,,,,,,,,,,,,,,,METAR,435.0
SVBM 200603Z AUTO 11007KT NCD 23/21 Q1013,SVBM,2023-05-20T06:03:00Z,10.05,-69.37,23.0,21.0,110,7,,,29.911417,,,TRUE,,,,,,,,CLR,,,,,,,,,,,,,,,,,,,,METAR,624.0
SVBI 200603Z AUTO /////KT NCD 25/25 Q1014,SVBI,2023-05-20T06:03:00Z,8.62,-70.22,25.0,25.0,,,,,29.940945,,,TRUE,,,,,,,,CLR,,,,,,,,,,,,,,,,,,,,METAR,185.0
SVBC 200603Z AUTO 23003KT NCD 27/23 Q1011,SVBC,2023-05-20T06:03:00Z,10.12,-64.68,27.0,23.0,230,3,,,29.852362,,,TRUE,,,,,,,,CLR,,,,,,,,,,,,,,,,,,,,METAR,7.0
PAVD 200603Z 00000KT -RA FEW008 BKN014 OVC022 09/07 A3019 RMK AO2 PNO $,PAVD,2023-05-20T06:03:00Z,61.13,-146.25,9.0,7.0,0,0,,,30.188976,,,,TRUE,TRUE,,,,,-RA,FEW,800,BKN,1400,OVC,2200,,,,,,,,,,,,,,,SPECI,21.0
PATO 200603Z AUTO 15009G18KT 3SM -RA BR FEW025 OVC029 07/07 A3007 RMK AO2 P0000 T00720067 TSNO,PATO,2023-05-20T06:03:00Z,60.78,-148.85,7.2,6.7,150,9,18,3.0,30.070866,,,TRUE,TRUE,,,TRUE,,,-RA BR,FEW,2500,OVC,2900,,,,,MVFR,,,,,,0.005,,,,,,SPECI,47.0
PAOU 200603Z AUTO 00000KT 3SM BR OVC047 06/04 A2957 RMK AO2 PNO $,PAOU,2023-05-20T06:03:00Z,56.0,-161.17,6.0,4.0,0,0,,3.0,29.568897,,,TRUE,TRUE,TRUE,,,,,BR,OVC,4700,,,,,,,MVFR,,,,,,,,,,,,SPECI,3.0
KORF 200603Z 04010KT 3SM BR OVC003 18/18 A3004 RMK AO2 RAE02 P0000 T01780178,KORF,2023-05-20T06:03:00Z,36.9,-76.2,17.8,17.8,40,10,,3.0,30.041338,,,,TRUE,,,,,,BR,OVC,300,,,,,,,LIFR,,,,,,0.005,,,,,,SPECI,5.0
KI69 200603Z AUTO 00000KT 10SM OVC034 19/15 A3000 RMK AO1,KI69,2023-05-20T06:03:00Z,39.08,-84.22,19.0,15.0,0,0,,10.0,30.0,,,TRUE,TRUE,,,,,,,OVC,3400,,,,,,,VFR,,,,,,,,,,,,SPECI,238.0
KEUF 200603Z AUTO 00000KT 6SM BR SCT025 18/17 A3006 RMK AO2 T01830172,KEUF,2023-05-20T06:03:00Z,31.95,-85.13,18.3,17.2,0,0,,6.0,30.059055,,,TRUE,TRUE,,,,,,BR,SCT,2500,,,,,,,VFR,,,,,,,,,,,,SPECI,87.0
SBIP 200602Z AUTO 21002KT 2400 NSC 13/09 Q1019,SBIP,2023-05-20T06:02:00Z,-19.47,-42.48,13.0,9.0,210,2,,1.49,30.088583,,,TRUE,,,,,,,,CLR,,,,,,,,IFR,,,,,,,,,,,,SPECI,240.0
RCSS 200602Z VRB07KT 9999 -SHRA FEW005 FEW016CB BKN018 BKN040 25/22 Q1010 NOSIG RMK CB N A2984,RCSS,2023-05-20T06:02:00Z,25.07,121.55,25.0,22.0,0,7,,6.21,29.822834,,,,,,TRUE,,,,-SHRA,FEW,500,FEW,1600,BKN,1800,BKN,4000,MVFR,,,,,,,,,,,,METAR,8.0
PAHX 200602Z AUTO 18004KT 10SM CLR 16/04 A2981 RMK AO2 SLP095 T01610039 10194 20161 53009,PAHX,2023-05-20T06:02:00Z,62.7,-159.57,16.1,3.9,180,4,,10.0,29.811024,1009.5,,TRUE,TRUE,,,,,,,CLR,,,,,,,,VFR,0.9,19.4,16.1,,,,,,,,,SPECI,20.0
KRYY 200602Z AUTO 13004KT 10SM BKN026 OVC032 19/17 A3009 RMK AO2 $,KRYY,2023-05-20T06:02:00Z,34.02,-84.6,19.0,17.0,130,4,,10.0,30.088583,,,TRUE,TRUE,TRUE,,,,,,BKN,2600,OVC,3200,,,,,MVFR,,,,,,,,,,,,SPECI,306.0
KNTD 200602Z AUTO 29005KT 3SM BR OVC005 14/14 A3008 RMK AO2 T01440139 $,KNTD,2023-05-20T06:02:00Z,34.12,-119.12,14.4,13.9,290,5,,3.0,30.079725,,,TRUE,TRUE,TRUE,,,,,BR,OVC,500,,,,,,,IFR,,,,,,,,,,,,METAR,1.0
KLRF 200602Z AUTO 05007KT 10SM -DZ BKN007 OVC030 22/22 A2996 RMK AO2 DZB02 SLPNO $,KLRF,2023-05-20T06:02:00Z,34.92,-92.12,22.0,22.0,50,7,,10.0,29.958662,,,TRUE,TRUE,TRUE,,,,,-DZ,BKN,700,OVC,3000,,,,,IFR,,,,,,,,,,,,SPECI,85.0
KEVM 200602Z AUTO 00000KT 10SM CLR 04/03 A3021 RMK AO2,KEVM,2023-05-20T06:02:00Z,47.42,-92.5,4.0,3.0,0,0,,10.0,30.209646,,,TRUE,TRUE,,,,,,,CLR,,,,,,,,VFR,,,,,,,,,,,,SPECI,419.0
KEHR 200602Z AUTO 36004KT 10SM BKN009 BKN046 OVC080 18/17 A3003 RMK AO2 CIG 008V012,KEHR,2023-05-20T06:02:00Z,37.82,-87.67,18.0,17.0,360,4,,10.0,30.029528,,,TRUE,TRUE,,,,,,,BKN,900,BKN,4600,OVC,8000,,,IFR,,,,,,,,,,,,SPECI,117.0
KDET 200602Z 36009KT 7SM BKN030 BKN050 OVC090 16/11 A2995 RMK AO2 RAE0556 P0000 T01560111,KDET,2023-05-20T06:02:00Z,42.4,-83.02,15.6,11.1,360,9,,7.0,29.949802,,,,TRUE,,,,,,,BKN,3000,BKN,5000,OVC,9000,,,MVFR,,,,,,0.005,,,,,,SPECI,190.0
KAST 200602Z AUTO 33007KT 10SM OVC009 14/12 A3015 RMK AO2 T01390117,KAST,2023-05-20T06:02:00Z,46.15,-123.88,13.9,11.7,330,7,,10.0,30.15059,,,TRUE,TRUE,,,,,,,OVC,900,,,,,,,IFR,,,,,,,,,,,,SPECI,3.0
CZVL 200602Z AUTO 33004KT 2 1/2SM HZ BKN024 15/06 A3001 RMK SLP168 DENSITY ALT 2700FT,CZVL,2023-05-20T06:02:00Z,53.67,-113.85,15.0,6.0,330,4,,2.5,30.008858,1016.8,,TRUE,,,,,,,HZ,BKN,2400,,,,,,,IFR,,,,,,,,,,,,SPECI,685.0
PAFS 200601Z AUTO 20008G14KT 10SM BKN100 18/03 A2983 RMK AO2 SLP107 T01830033 10222 20183 53016,PAFS,2023-05-20T06:01:00Z,63.02,-154.35,18.3,3.3,200,8,14,10.0,29.828741,1010.7,,TRUE,TRUE,,,,,,,BKN,10000,,,,,,,VFR,1.6,22.2,18.3,,,,,,,,,SPECI,131.0
OMDB 200601Z 33011KT 280V340 CAVOK 39/15 Q1007 NOSIG,OMDB,2023-05-20T06:01:00Z,25.25,55.37,39.0,15.0,330,11,,6.21,29.734253,,,,,,TRUE,,,,,CAVOK,,,,,,,,VFR,,,,,,,,,,,,SPECI,5.0
KWRB 200601Z AUTO 00000KT 10SM BKN025 17/17 A3007 RMK AO2 BKN V FEW SLPNO,KWRB,2023-05-20T06:01:00Z,32.63,-83.58,17.0,17.0,0,0,,10.0,30.070866,,,TRUE,TRUE,,,,,,,BKN,2500,,,,,,,MVFR,,,,,,,,,,,,METAR,82.0
KW99 200601Z AUTO 00000KT 10SM CLR 12/12 A3009 RMK AO2,KW99,2023-05-20T06:01:00Z,39.0,-79.15,12.0,12.0,0,0,,10.0,30.088583,,,TRUE,TRUE,,,,,,,CLR,,,,,,,,VFR,,,,,,,,,,,,SPECI,288.0
KVIH 200601Z AUTO 34006KT 5SM BR BKN003 OVC065 13/12 A3014 RMK AO2 T01330122,KVIH,2023-05-20T06:01:00Z,38.13,-91.77,13.3,12.2,340,6,,5.0,30.138779,,,TRUE,TRUE,,,,,,BR,BKN,300,OVC,6500,,,,,LIFR,,,,,,,,,,,,SPECI,342.0
GMTA 200601Z VRB02KT CAVOK 16/09 Q1013 NOSIG,GMTA,2023-05-20T06:01:00Z,35.17,-3.85,16.0,9.0,0,2,,6.21,29.911417,,,,,,TRUE,,,,,CAVOK,,,,,,,,VFR,,,,,,,,,,,,METAR,14.0
CYKF 200601Z AUTO 19004KT 3SM -RA BR SCT024 BKN060 BKN074 OVC098 15/15 A2990 RMK SLP128 DENSITY ALT 1400FT,CYKF,2023-05-20T06:01:00Z,43.47,-80.38,15.0,15.0,190,4,,3.0,29.899607,1012.8,,TRUE,,,,,,,-RA BR,SCT,2400,BKN,6000,BKN,7400,OVC,9800,MVFR,,,,,,,,,,,,SPECI,312.0
ZYTX 200600Z 24005MPS 5000 DU NSC 21/05 Q1004 NOSIG,ZYTX,2023-05-20T06:00:00Z,41.63,123.48,21.0,5.0,240,10,,3.11,29.64567,,,,,,TRUE,,,,DU,CLR,,,,,,,,MVFR,,,,,,,,,,,,METAR,56.0
ZYTL 200600Z 30004MPS 270V340 6000 NSC 22/M00 Q1007 NOSIG,ZYTL,2023-05-20T06:00:00Z,38.97,121.55,22.0,0.0,300,8,,3.73,29.734253,,,,,,TRUE,,,,,CLR,,,,,,,,MVFR,,,,,,,,,,,,METAR,33.0
ZYHB 200600Z 20005MPS 140V230 1400 R23/1800U HZ OVC020 18/06 Q0998 BECMG TL0730 1600,ZYHB,2023-05-20T06:00:00Z,45.62,126.25,18.0,6.0,200,10,,0.87,29.468504,,,,,,,,,,HZ,OVC,2000,,,,,,,LIFR,,,,,,,,,,,,SPECI,134.0
ZYCC 200600Z 26006G11MPS 240V300 2500 SA OVC020 19/M00 Q1000 NOSIG,ZYCC,2023-05-20T06:00:00Z,43.98,125.68,19.0,0.0,260,12,21,1.55,29.52756,,,,,,TRUE,,,,SA,OVC,2000,,,,,,,IFR,,,,,,,,,,,,METAR,211.0
ZWWW 200600Z 05004MPS 010V090 CAVOK 25/05 Q1013 NOSIG,ZWWW,2023-05-20T06:00:00Z,43.9,87.47,25.0,5.0,50,8,,6.21,29.911417,,,,,,TRUE,,,,,CAVOK,,,,,,,,VFR,,,,,,,,,,,,METAR,654.0
ZWSH 200600Z 13005MPS 090V180 9999 FEW040 26/00 Q1014 NOSIG,ZWSH,2023-05-20T06:00:00Z,39.55,76.02,26.0,0.0,130,10,,6.21,29.940945,,,,,,TRUE,,,,,FEW,4000,,,,,,,VFR,,,,,,,,,,,,METAR,1374.0
ZUUU 200600Z VRB01MPS 6000 FEW030TCU SCT030 28/18 Q1006 NOSIG,ZUUU,2023-05-20T06:00:00Z,30.58,103.95,28.0,18.0,0,2,,3.73,29.704725,,,,,,TRUE,,,,,FEW,3000,SCT,3000,,,,,MVFR,,,,,,,,,,,,METAR,494.0
ZUTF 200600Z 09002MPS 040V170 9999 SCT023 25/20 Q1006 NOSIG,ZUTF,2023-05-20T06:00:00Z,30.3,104.43,25.0,20.0,90,4,,6.21,29.704725,,,,,,TRUE,,,,,SCT,2300,,,,,,,VFR,,,,,,,,,,,,METAR,443.0
ZUGY 200600Z 21005MPS 170V260 9999 BKN033 29/20 Q1009 NOSIG,ZUGY,2023-05-20T06:00:00Z,26.53,106.8,29.0,20.0,210,10,,6.21,29.793306,,,,,,TRUE,,,,,BKN,3300,,,,,,,VFR,,,,,,,,,,,,METAR,1130.0
ZUCK 200600Z VRB02MPS 6000 FEW022 OVC050 26/20 Q1006 NOSIG,ZUCK,2023-05-20T06:00:00Z,29.72,106.63,26.0,20.0,0,4,,3.73,29.704725,,,,,,TRUE,,,,,FEW,2200,OVC,5000,,,,,MVFR,,,,,,,,,,,,METAR,416.0
ZSSS 200600Z 13005MPS 100V160 CAVOK 26/17 Q1010 NOSIG,ZSSS,2023-05-20T06:00:00Z,31.2,121.33,26.0,17.0,130,10,,6.21,29.822834,,,,,,TRUE,,,,,CAVOK,,,,,,,,VFR,,,,,,,,,,,,METAR,2.0
ZSQD 200600Z VRB04MPS 9999 SCT050 28/19 Q1007 BECMG TL0650 33005MPS,ZSQD,2023-05-20T06:00:00Z,36.27,120.38,28.0,19.0,0,8,,6.21,29.734253,,,,,,,,,,,SCT,5000,,,,,,,VFR,,,,,,,,,,,,METAR,8.0
ZSPD 200600Z 14004MPS 110V190 9999 BKN020 23/18 Q1010 NOSIG,ZSPD,2023-05-20T06:00:00Z,31.15,121.8,23.0,18.0,140,8,,6.21,29.822834,,,,,,TRUE,,,,,BKN,2000,,,,,,,MVFR,,,,,,,,,,,,METAR,4.0
ZSOF 200600Z 10004MPS 060V130 CAVOK 32/21 Q1007 NOSIG,ZSOF,2023-05-20T06:00:00Z,31.98,116.97,32.0,21.0,100,8,,6.21,29.734253,,,,,,TRUE,,,,,CAVOK,,,,,,,,VFR,,,,,,,,,,,,METAR,23.0
ZSNJ 200600Z 14003MPS 090V200 CAVOK 29/12 Q1008 NOSIG,ZSNJ,2023-05-20T06:00:00Z,31.75,118.87,29.0,12.0,140,6,,6.21,29.763779,,,,,,TRUE,,,,,CAVOK,,,,,,,,VFR,,,,,,,,,,,,METAR,27.0
ZSNB 200600Z 16004MPS 130V200 CAVOK 26/19 Q1009 NOSIG,ZSNB,2023-05-20T06:00:00Z,29.83,121.47,26.0,19.0,160,8,,6.21,29.793306,,,,,,TRUE,,,,,CAVOK,,,,,,,,VFR,,,,,,,,,,,,METAR,5.0
ZSHC 200600Z 08004MPS 7000 NSC 27/20 Q1008 NOSIG,ZSHC,2023-05-20T06:00:00Z,30.22,120.43,27.0,20.0,80,8,,4.35,29.763779,,,,,,TRUE,,,,,CLR,,,,,,,,MVFR,,,,,,,,,,,,METAR,8.0
ZSFZ 200600Z 07004MPS 040V100 9999 BKN023 25/20 Q1010 NOSIG,ZSFZ,2023-05-20T06:00:00Z,25.93,119.67,25.0,20.0,70,8,,6.21,29.822834,,,,,,TRUE,,,,,BKN,2300,,,,,,,MVFR,,,,,,,,,,,,METAR,14.0
ZSAM 200600Z 12003MPS 050V170 8000 OVC018 27/22 Q1010 NOSIG,ZSAM,2023-05-20T06:00:00Z,24.53,118.13,27.0,22.0,120,6,,4.97,29.822834,,,,,,TRUE,,,,,OVC,1800,,,,,,,MVFR,,,,,,,,,,,,METAR,13.0
ZPPP 200600Z 27008MPS 240V330 9999 SCT026 27/06 Q1016 NOSIG,ZPPP,2023-05-20T06:00:00Z,25.0,102.65,27.0,6.0,270,16,,6.21,30.0,,,,,,TRUE,,,,,SCT,2600,,,,,,,VFR,,,,,,,,,,,,METAR,1885.0
ZMUB 200600Z 32006MPS 290V350 8000 -SNRA OVC030 04/M01 Q1020 NOSIG RMK QFE657.1 71 NW MO,ZMUB,2023-05-20T06:00:00Z,47.83,106.75,4.0,-1.0,320,12,,4.97,30.11811,,,,,,TRUE,,,,-SN -RA,OVC,3000,,,,,,,MVFR,,,,,,,,,,,,SPECI,1300.0
ZMCK 200600Z 31008MPS 9999 -SNRA BLSN OVC030 03/M00 Q1019 NOSIG RMK QFE648.7 81 MOP,ZMCK,2023-05-20T06:00:00Z,47.65,106.82,3.0,0.0,310,16,,6.21,30.088583,,,,,,TRUE,,,,-SN -RA BLSN,OVC,3000,,,,,,,MVFR,,,,,,,,,,,,METAR,1366.0
ZLXY 200600Z 07005MPS 020V110 9999 FEW050 30/18 Q1006 NOSIG,ZLXY,2023-05-20T06:00:00Z,34.43,108.75,30.0,18.0,70,10,,6.21,29.704725,,,,,,TRUE,,,,,FEW,5000,,,,,,,VFR,,,,,,,,,,,,METAR,478.0
ZLLL 200600Z 03008MPS 8000 BKN046 19/M05 Q1015 NOSIG,ZLLL,2023-05-20T06:00:00Z,36.52,103.62,19.0,-5.0,30,16,,4.97,29.970472,,,,,,TRUE,,,,,BKN,4600,,,,,,,MVFR,,,,,,,,,,,,METAR,1939.0
ZJSY 200600Z 15004MPS 100V190 CAVOK 34/26 Q1006 NOSIG,ZJSY,2023-05-20T06:00:00Z,18.3,109.42,34.0,26.0,150,8,,6.21,29.704725,,,,,,TRUE,,,,,CAVOK,,,,,,,,VFR,,,,,,,,,,,,METAR,27.0
ZJHK 200600Z 17005MPS 130V220 9999 FEW016 35/26 Q1005 NOSIG,ZJHK,2023-05-20T06:00:00Z,19.93,110.43,35.0,26.0,170,10,,6.21,29.675198,,,,,,TRUE,,,,,FEW,1600,,,,,,,VFR,,,,,,,,,,,,METAR,21.0
ZHHH 200600Z 18003MPS 150V220 CAVOK 30/20 Q1006 NOSIG,ZHHH,2023-05-20T06:00:00Z,30.78,114.22,30.0,20.0,180,6,,6.21,29.704725,,,,,,TRUE,,,,,CAVOK,,,,,,,,VFR,,,,,,,,,,,,METAR,33.0
ZHCC 200600Z 04007MPS 7000 FEW030 31/22 Q1006 NOSIG,ZHCC,2023-05-20T06:00:00Z,34.52,113.83,31.0,22.0,40,14,,4.35,29.704725,,,,,,TRUE,,,,,FEW,3000,,,,,,,MVFR,,,,,,,,,,,,METAR,149.0
ZGSZ 200600Z 17007MPS CAVOK 31/27 Q1007 NOSIG,ZGSZ,2023-05-20T06:00:00Z,22.63,113.8,31.0,27.0,170,14,,6.21,29.734253,,,,,,TRUE,,,,,CAVOK,,,,,,,,VFR,,,,,,,,,,,,METAR,18.0
ZGOW 200600Z 15003MPS 120V180 8000 FEW013 OVC023 28/25 Q1009 NOSIG,ZGOW,2023-05-20T06:00:00Z,23.55,116.5,28.0,25.0,150,6,,4.97,29.793306,,,,,,TRUE,,,,,FEW,1300,OVC,2300,,,,,MVFR,,,,,,,,,,,,METAR,4.0
ZGNN 200600Z 14004MPS 110V180 9999 FEW020 SCT033 32/26 Q1005 NOSIG,ZGNN,2023-05-20T06:00:00Z,22.62,108.17,32.0,26.0,140,8,,6.21,29.675198,,,,,,TRUE,,,,,FEW,2000,SCT,3300,,,,,VFR,,,,,,,,,,,,METAR,128.0
ZGKL 200600Z VRB01MPS 6000 FEW036CB FEW036 BKN070 30/26 Q1006 NOSIG,ZGKL,2023-05-20T06:00:00Z,25.22,110.03,30.0,26.0,0,2,,3.73,29.704725,,,,,,TRUE,,,,,FEW,3600,FEW,3600,BKN,7000,,,MVFR,,,,,,,,,,,,METAR,151.0
ZGHA 200600Z 16003MPS 9999 -RA SCT033 OVC050 28/22 Q1006 NOSIG,ZGHA,2023-05-20T06:00:00Z,28.18,113.22,28.0,22.0,160,6,,6.21,29.704725,,,,,,TRUE,,,,-RA,SCT,3300,OVC,5000,,,,,VFR,,,,,,,,,,,,METAR,61.0
ZGGG 200600Z 14005MPS 9999 FEW010 FEW033TCU SCT040 34/27 Q1006 NOSIG,ZGGG,2023-05-20T06:00:00Z,23.4,113.3,34.0,27.0,140,10,,6.21,29.704725,,,,,,TRUE,,,,,FEW,1000,FEW,3300,SCT,4000,,,VFR,,,,,,,,,,,,METAR,11.0
ZBYN 200600Z 36009G14MPS 330V030 CAVOK 24/M07 Q1012 NOSIG,ZBYN,2023-05-20T06:00:00Z,37.73,112.63,24.0,-7.0,360,17,27,6.21,29.88189,,,,,,TRUE,,,,,CAVOK,,,,,,,,VFR,,,,,,,,,,,,METAR,778.0
ZBTJ 200600Z 33007MPS CAVOK 24/M03 Q1009 NOSIG,ZBTJ,2023-05-20T06:00:00Z,39.12,117.35,24.0,-3.0,330,14,,6.21,29.793306,,,,,,TRUE,,,,,CAVOK,,,,,,,,VFR,,,,,,,,,,,,METAR,4.0
ZBSJ 200600Z VRB02MPS CAVOK 27/01 Q1009 NOSIG,ZBSJ,2023-05-20T06:00:00Z,38.28,114.7,27.0,1.0,0,4,,6.21,29.793306,,,,,,TRUE,,,,,CAVOK,,,,,,,,VFR,,,,,,,,,,,,METAR,70.0
ZBHH 200600Z 32008MPS 290V360 CAVOK 17/M14 Q1017 NOSIG,ZBHH,2023-05-20T06:00:00Z,40.85,111.82,17.0,-14.0,320,16,,6.21,30.029528,,,,,,TRUE,,,,,CAVOK,,,,,,,,VFR,,,,,,,,,,,,METAR,1081.0
ZBAD 200600Z 27003MPS 220V360 CAVOK 25/M07 Q1009 NOSIG,ZBAD,2023-05-20T06:00:00Z,39.5,116.42,25.0,-7.0,270,6,,6.21,29.793306,,,,,,TRUE,,,,,CAVOK,,,,,,,,VFR,,,,,,,,,,,,METAR,25.0
ZBAA 200600Z 28007G12MPS 260V320 CAVOK 24/M10 Q1008 NOSIG,ZBAA,2023-05-20T06:00:00Z,40.07,116.6,24.0,-10.0,280,14,23,6.21,29.763779,,,,,,TRUE,,,,,CAVOK,,,,,,,,VFR,,,,,,,,,,,,METAR,31.0
YWLM 200600Z AUTO 29009KT 9999 // NCD 17/05 Q1014 RF00.0/000.0,YWLM,2023-05-20T06:00:00Z,-32.8,151.83,17.0,5.0,290,9,,6.21,29.940945,,,TRUE,,,,,,,,CLR,,,,,,,,VFR,,,,,,,,,,,,SPECI,7.0
YSTW 200600Z AUTO 28011KT 9999 // NCD 16/02 Q1017 RF00.0/000.0,YSTW,2023-05-20T06:00:00Z,-31.08,150.85,16.0,2.0,280,11,,6.21,30.029528,,,TRUE,,,,,,,,CLR,,,,,,,,VFR,,,,,,,,,,,,SPECI,404.0
YSSY 200600Z 24016KT CAVOK 17/04 Q1014,YSSY,2023-05-20T06:00:00Z,-33.95,151.17,17.0,4.0,240,16,,6.21,29.940945,,,,,,,,,,,CAVOK,,,,,,,,VFR,,,,,,,,,,,,METAR,3.0
YSRI 200600Z AUTO 28013KT 9999 // NCD 17/05 Q1014 RF00.0/000.0,YSRI,2023-05-20T06:00:00Z,-33.6,150.77,17.0,5.0,280,13,,6.21,29.940945,,,TRUE,,,,,,,,CLR,,,,,,,,VFR,,,,,,,,,,,,SPECI,19.0
YSNF 200600Z AUTO 24011KT 9999 // SCT041 BKN047 BKN074 18/12 Q1013,YSNF,2023-05-20T06:00:00Z,-29.03,167.93,18.0,12.0,240,11,,6.21,29.911417,,,TRUE,,,,,,,,SCT,4100,BKN,4700,BKN,7400,,,VFR,,,,,,,,,,,,SPECI,113.0
YSDU 200600Z AUTO 24011KT 9999 // BKN049 OVC056 14/04 Q1018,YSDU,2023-05-20T06:00:00Z,-32.22,148.57,14.0,4.0,240,11,,6.21,30.059055,,,TRUE,,,,,,,,BKN,4900,OVC,5600,,,,,VFR,,,,,,,,,,,,SPECI,285.0
YSCB 200600Z AUTO 32013KT 9999 // OVC032 10/04 Q1014 RF00.0/000.0,YSCB,2023-05-20T06:00:00Z,-35.3,149.18,10.0,4.0,320,13,,6.21,29.940945,,,TRUE,,,,,,,,OVC,3200,,,,,,,VFR,,,,,,,,,,,,SPECI,577.0
YPXM 200600Z AUTO 09011KT 9999 // BKN014 28/23 Q1013 RF00.0/000.0,YPXM,2023-05-20T06:00:00Z,-10.45,105.68,28.0,23.0,90,11,,6.21,29.911417,,,TRUE,,,,,,,,BKN,1400,,,,,,,MVFR,,,,,,,,,,,,SPECI,262.0
YPWR 200600Z AUTO 21012KT 9999 // NCD 18/06 Q1023 RF00.0/000.0,YPWR,2023-05-20T06:00:00Z,-31.15,136.82,18.0,6.0,210,12,,6.21,30.206694,,,TRUE,,,,,,,,CLR,,,,,,,,VFR,,,,,,,,,,,,METAR,169.0
YPTN 200600Z AUTO 13007KT 9999 // NCD 28/05 Q1014 RF00.0////./,YPTN,2023-05-20T06:00:00Z,-14.52,132.38,28.0,5.0,130,7,,6.21,29.940945,,,TRUE,,,,,,,,CLR,,,,,,,,VFR,,,,,,,,,,,,SPECI,135.0
YPPH 200600Z 11010KT CAVOK 23/07 Q1029,YPPH,2023-05-20T06:00:00Z,-31.93,115.98,23.0,7.0,110,10,,6.21,30.383858,,,,,,,,,,,CAVOK,,,,,,,,VFR,,,,,,,,,,,,METAR,16.0
YPLM 200600Z AUTO 02015KT 9999 // NCD 27/09 Q1019 RF00.0/000.0,YPLM,2023-05-20T06:00:00Z,-22.23,114.08,27.0,9.0,20,15,,6.21,30.088583,,,TRUE,,,,,,,,CLR,,,,,,,,VFR,,,,,,,,,,,,SPECI,5.0
YPKU 200600Z AUTO 17011KT 9999 // ////// 28/06 Q1014 RF00.0/000.0,YPKU,2023-05-20T06:00:00Z,-15.77,128.7,28.0,6.0,170,11,,6.21,29.940945,,,TRUE,,,,,,,,,,,,,,,,,,,,,,,,,,,,SPECI,42.0
YPKG 200600Z AUTO 09008KT 060V160 9999 // NCD 17/03 Q1030 RF00.0/000.0,YPKG,2023-05-20T06:00:00Z,-30.78,121.45,17.0,3.0,90,8,,6.21,30.413385,,,TRUE,,,,,,,,CLR,,,,,,,,VFR,,,,,,,,,,,,SPECI,372.0
YPJT 200600Z AUTO 09011KT 9999 // NCD 22/09 Q1029 RF00.0/000.0,YPJT,2023-05-20T06:00:00Z,-32.1,115.88,22.0,9.0,90,11,,6.21,30.383858,,,TRUE,,,,,,,,CLR,,,,,,,,VFR,,,,,,,,,,,,METAR,29.0
YPGV 200600Z AUTO 16014KT 9999 // BKN034 BKN040 27/19 Q1012,YPGV,2023-05-20T06:00:00Z,-12.27,136.82,27.0,19.0,160,14,,6.21,29.88189,,,TRUE,,,,,,,,BKN,3400,BKN,4000,,,,,VFR,,,,,,,,,,,,SPECI,53.0
YPEA 200600Z AUTO 08010KT 9999 // NCD 22/06 Q1028 RF00.0/000.0,YPEA,2023-05-20T06:00:00Z,-31.67,116.02,22.0,6.0,80,10,,6.21,30.35433,,,TRUE,,,,,,,,CLR,,,,,,,,VFR,,,,,,,,,,,,SPECI,38.0
YPDN 200600Z 14009KT CAVOK 30/08 Q1012 SMOKE PLUME TO ENE,YPDN,2023-05-20T06:00:00Z,-12.42,130.9,30.0,8.0,140,9,,6.21,29.88189,,,,,,,,,,PL,CAVOK,,,,,,,,VFR,,,,,,,,,,,,SPECI,32.0
YPCC 200600Z AUTO 14011KT 9999 // OVC081 27/23 Q1012 RF00.0/000.0,YPCC,2023-05-20T06:00:00Z,-12.18,96.83,27.0,23.0,140,11,,6.21,29.88189,,,TRUE,,,,,,,,OVC,8100,,,,,,,VFR,,,,,,,,,,,,SPECI,3.0
YPAD 200600Z 25011KT 9999 FEW029 SCT036 BKN063 16/10 Q1021 RF00.0/000.4,YPAD,2023-05-20T06:00:00Z,-34.95,138.52,16.0,10.0,250,11,,6.21,30.147638,,,,,,,,,,,FEW,2900,SCT,3600,BKN,6300,,,VFR,,,,,,,,,,,,SPECI,2.0
YMML 200600Z 29007KT 9999 VCSH FEW035 SCT060 13/08 Q1014 RF00.0/001.4,YMML,2023-05-20T06:00:00Z,-37.67,144.82,13.0,8.0,290,7,,6.21,29.940945,,,,,,,,,,VCSH,FEW,3500,SCT,6000,,,,,VFR,,,,,,,,,,,,SPECI,115.0
YMLT 200600Z AUTO 33011KT 9999 // SCT037 SCT061 BKN072 11/04 Q1005,YMLT,2023-05-20T06:00:00Z,-41.53,147.2,11.0,4.0,330,11,,6.21,29.675198,,,TRUE,,,,,,,,SCT,3700,SCT,6100,BKN,7200,,,VFR,,,,,,,,,,,,SPECI,167.0
YMHB 200600Z 31012KT 9999 FEW030 BKN045 BKN180 12/04 Q1002 RF00.0/000.0,YMHB,2023-05-20T06:00:00Z,-42.83,147.52,12.0,4.0,310,12,,6.21,29.586615,,,,,,,,,,,FEW,3000,BKN,4500,BKN,18000,,,VFR,,,,,,,,,,,,SPECI,2.0
YMAV 200600Z AUTO 29012KT 9999 -SHRA SCT033 SCT040 SCT050 12/09 Q1014,YMAV,2023-05-20T06:00:00Z,-38.03,144.48,12.0,9.0,290,12,,6.21,29.940945,,,TRUE,,,,,,,-SHRA,SCT,3300,SCT,4000,SCT,5000,,,VFR,,,,,,,,,,,,METAR,11.0
YLHI 200600Z AUTO 24012KT 9999 // SCT034 19/12 Q1013 RF00.0/000.2,YLHI,2023-05-20T06:00:00Z,-31.53,159.07,19.0,12.0,240,12,,6.21,29.911417,,,TRUE,,,,,,,,SCT,3400,,,,,,,VFR,,,,,,,,,,,,METAR,2.0
YHID 200600Z AUTO 12013KT 9999 // NCD 29/22 Q1010 RF00.0/000.0,YHID,2023-05-20T06:00:00Z,-10.58,142.3,29.0,22.0,120,13,,6.21,29.822834,,,TRUE,,,,,,,,CLR,,,,,,,,VFR,,,,,,,,,,,,METAR,5.0
YGLA 200600Z AUTO 03009KT 9999 // NCD 22/07 Q1016 RF00.0/000.0,YGLA,2023-05-20T06:00:00Z,-23.87,151.22,22.0,7.0,30,9,,6.21,30.0,,,TRUE,,,,,,,,CLR,,,,,,,,VFR,,,,,,,,,,,,METAR,17.0
YGEL 200600Z AUTO 09018KT 9999 // NCD 26/02 Q1024 RF00.0/000.0,YGEL,2023-05-20T06:00:00Z,-28.8,114.7,26.0,2.0,90,18,,6.21,30.236221,,,TRUE,,,,,,,,CLR,,,,,,,,VFR,,,,,,,,,,,,METAR,32.0
YFRT 200600Z AUTO 20011KT 9999 // SCT051 BKN063 19/06 Q1028,YFRT,2023-05-20T06:00:00Z,-30.83,128.12,19.0,6.0,200,11,,6.21,30.35433,,,TRUE,,,,,,,,SCT,5100,BKN,6300,,,,,VFR,,,,,,,,,,,,SPECI,159.0
YCIN 200600Z AUTO 14017KT 9999 // NCD 28/03 Q1015 RF00.0/000.0,YCIN,2023-05-20T06:00:00Z,-17.58,123.83,28.0,3.0,140,17,,6.21,29.970472,,,TRUE,,,,,,,,CLR,,,,,,,,VFR,,,,,,,,,,,,SPECI,83.0
YCFS 200600Z AUTO 11005KT 9999 // ////// 19/07 Q1014 RF00.0/000.0,YCFS,2023-05-20T06:00:00Z,-30.32,153.12,19.0,7.0,110,5,,6.21,29.940945,,,TRUE,,,,,,,,,,,,,,,,,,,,,,,,,,,,METAR,2.0
YBWW 200600Z AUTO 26009KT 9999 // NCD 17/00 Q1016 RF00.0/000.0,YBWW,2023-05-20T06:00:00Z,-27.55,151.8,17.0,0.0,260,9,,6.21,30.0,,,TRUE,,,,,,,,CLR,,,,,,,,VFR,,,,,,,,,,,,METAR,460.0
YBTL 200600Z AUTO 06012KT 9999 // NCD 25/14 Q1014 RF00.0/000.0,YBTL,2023-05-20T06:00:00Z,-19.25,146.75,25.0,14.0,60,12,,6.21,29.940945,,,TRUE,,,,,,,,CLR,,,,,,,,VFR,,,,,,,,,,,,SPECI,4.0
YBSU 200600Z AUTO 07008KT 9999 // NCD 20/10 Q1015 RF00.0/000.2,YBSU,2023-05-20T06:00:00Z,-26.6,153.08,20.0,10.0,70,8,,6.21,29.970472,,,TRUE,,,,,,,,CLR,,,,,,,,VFR,,,,,,,,,,,,METAR,4.0
YBRM 200600Z AUTO 12009KT 9999 // NCD 28/09 Q1016 RF00.0/000.0,YBRM,2023-05-20T06:00:00Z,-17.93,122.23,28.0,9.0,120,9,,6.21,30.0,,,TRUE,,,,,,,,CLR,,,,,,,,VFR,,,,,,,,,,,,SPECI,11.0
YBRK 200600Z AUTO 28005KT 9999 // NCD 25/02 Q1015 RF00.0/000.0,YBRK,2023-05-20T06:00:00Z,-23.37,150.47,25.0,2.0,280,5,,6.21,29.970472,,,TRUE,,,,,,,,CLR,,,,,,,,VFR,,,,,,,,,,,,SPECI,10.0
YBMA 200600Z AUTO 18011KT 9999 // NCD 22/M03 Q1017 RF00.0/000.0,YBMA,2023-05-20T06:00:00Z,-20.67,139.48,22.0,-3.0,180,11,,6.21,30.029528,,,TRUE,,,,,,,,CLR,,,,,,,,VFR,,,,,,,,,,,,SPECI,346.0
YBLN 200600Z AUTO 08008KT 040V110 9999 // NCD 21/06 Q1030 RF00.0/000.0,YBLN,2023-05-20T06:00:00Z,-33.68,115.4,21.0,6.0,80,8,,6.21,30.413385,,,TRUE,,,,,,,,CLR,,,,,,,,VFR,,,,,,,,,,,,METAR,17.0
YBHM 200600Z AUTO 13013KT 9999 // NCD 22/13 Q1015 RF00.0/000.0,YBHM,2023-05-20T06:00:00Z,-20.35,148.95,22.0,13.0,130,13,,6.21,29.970472,,,TRUE,,,,,,,,CLR,,,,,,,,VFR,,,,,,,,,,,,SPECI,4.0
YBCS 200600Z AUTO 13011KT 9999 // NCD 26/17 Q1013 RF00.0/000.0,YBCS,2023-05-20T06:00:00Z,-16.87,145.75,26.0,17.0,130,11,,6.21,29.911417,,,TRUE,,,,,,,,CLR,,,,,,,,VFR,,,,,,,,,,,,SPECI,2.0
YBCG 200600Z AUTO 32006KT 9999 // NCD 22/05 Q1014 RF00.0/000.0,YBCG,2023-05-20T06:00:00Z,-28.17,153.5,22.0,5.0,320,6,,6.21,29.940945,,,TRUE,,,,,,,,CLR,,,,,,,,VFR,,,,,,,,,,,,SPECI,5.0
YBBN 200600Z 27006KT CAVOK 21/05 Q1015,YBBN,2023-05-20T06:00:00Z,-27.38,153.13,21.0,5.0,270,6,,6.21,29.970472,,,,,,,,,,,CAVOK,,,,,,,,VFR,,,,,,,,,,,,METAR,3.0
YBAS 200600Z AUTO 17013KT 9999 // NCD 18/M00 Q1023 RF00.0/000.0,YBAS,2023-05-20T06:00:00Z,-23.8,133.9,18.0,0.0,170,13,,6.21,30.206694,,,TRUE,,,,,,,,CLR,,,,,,,,VFR,,,,,,,,,,,,SPECI,549.0
YAMB 200600Z AUTO 26009KT 9999 // NCD 21/01 Q1015 RF00.0/000.0,YAMB,2023-05-20T06:00:00Z,-27.63,152.72,21.0,1.0,260,9,,6.21,29.970472,,,TRUE,,,,,,,,CLR,,,,,,,,VFR,,,,,,,,,,,,SPECI,26.0
WSSS 200600Z 20013KT 160V240 9999 FEW018TCU FEW020CB BKN300 32/26 Q1009 NOSIG,WSSS,2023-05-20T06:00:00Z,1.37,103.97,32.0,26.0,200,13,,6.21,29.793306,,,,,,TRUE,,,,,FEW,1800,FEW,2000,BKN,30000,,,VFR,,,,,,,,,,,,METAR,17.0
WSSL 200600Z 20010KT 160V230 9999 FEW018CB FEW020TCU BKN300 32/25 Q1009,WSSL,2023-05-20T06:00:00Z,1.42,103.87,32.0,25.0,200,10,,6.21,29.793306,,,,,,,,,,,FEW,1800,FEW,2000,BKN,30000,,,VFR,,,,,,,,,,,,METAR,11.0
WSAP 200600Z 17013KT 9999 FEW018 FEW020TCU BKN300 32/24 Q1009,WSAP,2023-05-20T06:00:00Z,1.37,103.92,32.0,24.0,170,13,,6.21,29.793306,,,,,,,,,,,FEW,1800,FEW,2000,BKN,30000,,,VFR,,,,,,,,,,,,METAR,20.0
WMSA 200600Z 30010KT 250V010 9999 FEW018 34/24 Q1009,WMSA,2023-05-20T06:00:00Z,3.13,101.55,34.0,24.0,300,10,,6.21,29.793306,,,,,,,,,,,FEW,1800,,,,,,,VFR,,,,,,,,,,,,METAR,19.0
WMKP 200600Z VRB04KT 9999 SCT020 33/25 Q1009 NOSIG,WMKP,2023-05-20T06:00:00Z,5.28,100.27,33.0,25.0,0,4,,6.21,29.793306,,,,,,TRUE,,,,,SCT,2000,,,,,,,VFR,,,,,,,,,,,,METAR,4.0
WMKN 200600Z 05005KT 340V150 9999 FEW018 33/27 Q1008,WMKN,2023-05-20T06:00:00Z,5.37,103.1,33.0,27.0,50,5,,6.21,29.763779,,,,,,,,,,,FEW,1800,,,,,,,VFR,,,,,,,,,,,,METAR,12.0
WMKM 200600Z 22007KT 150V290 9999 SCT021 32/26 Q1010,WMKM,2023-05-20T06:00:00Z,2.27,102.25,32.0,26.0,220,7,,6.21,29.822834,,,,,,,,,,,SCT,2100,,,,,,,VFR,,,,,,,,,,,,METAR,9.0
WMKL 200600Z VRB05KT 9999 FEW017CB SCT020 33/26 Q1009,WMKL,2023-05-20T06:00:00Z,6.32,99.72,33.0,26.0,0,5,,6.21,29.793306,,,,,,,,,,,FEW,1700,SCT,2000,,,,,VFR,,,,,,,,,,,,METAR,4.0
WMKK 200600Z VRB04KT 9999 SCT018 34/24 Q1009 NOSIG,WMKK,2023-05-20T06:00:00Z,2.75,101.72,34.0,24.0,0,4,,6.21,29.793306,,,,,,TRUE,,,,,SCT,1800,,,,,,,VFR,,,,,,,,,,,,METAR,21.0
WMKJ 200600Z 19007KT 120V260 9999 FEW017CB 32/25 Q1009,WMKJ,2023-05-20T06:00:00Z,1.63,103.67,32.0,25.0,190,7,,6.21,29.793306,,,,,,,,,,,FEW,1700,,,,,,,VFR,,,,,,,,,,,,METAR,38.0
WMKI 200600Z 33006KT 250V030 9999 SCT020 35/23 Q1009,WMKI,2023-05-20T06:00:00Z,4.57,101.08,35.0,23.0,330,6,,6.21,29.793306,,,,,,,,,,,SCT,2000,,,,,,,VFR,,,,,,,,,,,,METAR,37.0
WMKE 200600Z 13004KT 070V210 9999 FEW017 31/27 Q1009,WMKE,2023-05-20T06:00:00Z,4.53,103.43,31.0,27.0,130,4,,6.21,29.793306,,,,,,,,,,,FEW,1700,,,,,,,VFR,,,,,,,,,,,,METAR,5.0
WMKD 200600Z VRB03KT 9999 FEW020 34/26 Q1008 NOSIG,WMKD,2023-05-20T06:00:00Z,3.77,103.22,34.0,26.0,0,3,,6.21,29.763779,,,,,,TRUE,,,,,FEW,2000,,,,,,,VFR,,,,,,,,,,,,METAR,18.0
WMKC 200600Z 35008KT 310V020 9999 FEW018 33/26 Q1008,WMKC,2023-05-20T06:00:00Z,6.17,102.28,33.0,26.0,350,8,,6.21,29.763779,,,,,,,,,,,FEW,1800,,,,,,,VFR,,,,,,,,,,,,METAR,7.0
WMKB 200600Z 30006KT 240V020 9999 FEW017CB 34/26 Q1009 NOSIG,WMKB,2023-05-20T06:00:00Z,5.47,100.38,34.0,26.0,300,6,,6.21,29.793306,,,,,,TRUE,,,,,FEW,1700,,,,,,,VFR,,,,,,,,,,,,METAR,4.0
WMKA 200600Z 26007KT 200V320 9999 FEW017CB 32/27 Q1009,WMKA,2023-05-20T06:00:00Z,6.2,100.4,32.0,27.0,260,7,,6.21,29.793306,,,,,,,,,,,FEW,1700,,,,,,,VFR,,,,,,,,,,,,METAR,5.0
WMBA 200600Z VRB06KT 9999 FEW021 34/24 Q1009,WMBA,2023-05-20T06:00:00Z,4.22,100.7,34.0,24.0,0,6,,6.21,29.793306,,,,,,,,,,,FEW,2100,,,,,,,VFR,,,,,,,,,,,,METAR,9.0
WMAU 200600Z 08008KT 050V130 9999 SCT020 33/28 Q1009,WMAU,2023-05-20T06:00:00Z,2.38,103.88,33.0,28.0,80,8,,6.21,29.793306,,,,,,,,,,,SCT,2000,,,,,,,VFR,,,,,,,,,,,,METAR,5.0
WIPP 200600Z 14004KT 9999 SCT010 31/24 Q1009 NOSIG,WIPP,2023-05-20T06:00:00Z,-2.88,104.7,31.0,24.0,140,4,,6.21,29.793306,,,,,,TRUE,,,,,SCT,1000,,,,,,,VFR,,,,,,,,,,,,METAR,7.0
WIOO 200600Z 18005KT 9999 BKN012 32/24 Q1008 NOSIG,WIOO,2023-05-20T06:00:00Z,-0.15,109.4,32.0,24.0,180,5,,6.21,29.763779,,,,,,TRUE,,,,,BKN,1200,,,,,,,MVFR,,,,,,,,,,,,METAR,4.0
WIMM 200600Z 32008KT 9999 SCT018 32/25 Q1009 NOSIG,WIMM,2023-05-20T06:00:00Z,3.57,98.67,32.0,25.0,320,8,,6.21,29.793306,,,,,,TRUE,,,,,SCT,1800,,,,,,,VFR,,,,,,,,,,,,METAR,27.0
WILL 200600Z 02002KT 9999 FEW015 SCT030 33/24 Q1010 NOSIG,WILL,2023-05-20T06:00:00Z,-5.25,105.18,33.0,24.0,20,2,,6.21,29.822834,,,,,,TRUE,,,,,FEW,1500,SCT,3000,,,,,VFR,,,,,,,,,,,,METAR,83.0
WIII 200600Z 09010KT 8000 FEW020 32/24 Q1010 NOSIG,WIII,2023-05-20T06:00:00Z,-6.13,106.67,32.0,24.0,90,10,,4.97,29.822834,,,,,,TRUE,,,,,FEW,2000,,,,,,,MVFR,,,,,,,,,,,,METAR,9.0
WIHH 200600Z 11010KT 6000 SCT020 32/22 Q1009 NOSIG ,WIHH,2023-05-20T06:00:00Z,-6.27,106.88,32.0,22.0,110,10,,3.73,29.793306,,,,,,TRUE,,,,,SCT,2000,,,,,,,MVFR,,,,,,,,,,,,METAR,26.0
WIEE 200600Z VRB04KT 9999 FEW020 31/25 Q1009 NOSIG,WIEE,2023-05-20T06:00:00Z,-0.78,100.28,31.0,25.0,0,4,,6.21,29.793306,,,,,,TRUE,,,,,FEW,2000,,,,,,,VFR,,,,,,,,,,,,METAR,5.0
WIDN 200600Z 20011KT 9999 SCT017 33/26 Q1010 NOSIG,WIDN,2023-05-20T06:00:00Z,0.92,104.53,33.0,26.0,200,11,,6.21,29.822834,,,,,,TRUE,,,,,SCT,1700,,,,,,,VFR,,,,,,,,,,,,METAR,18.0
WIDD 200600Z 20014KT 9999 SCT014 32/24 Q1011 NOSIG,WIDD,2023-05-20T06:00:00Z,1.12,104.12,32.0,24.0,200,14,,6.21,29.852362,,,,,,TRUE,,,,,SCT,1400,,,,,,,VFR,,,,,,,,,,,,METAR,26.0
WBSB 200600Z 27010KT 9999 SCT015 FEW016CB BKN300 33/27 Q1008 NOSIG,WBSB,2023-05-20T06:00:00Z,4.93,114.92,33.0,27.0,270,10,,6.21,29.763779,,,,,,TRUE,,,,,SCT,1500,FEW,1600,BKN,30000,,,VFR,,,,,,,,,,,,METAR,15.0
WBKW 200600Z 17006KT 110V240 9999 FEW016 32/25 Q1009,WBKW,2023-05-20T06:00:00Z,4.32,118.12,32.0,25.0,170,6,,6.21,29.793306,,,,,,,,,,,FEW,1600,,,,,,,VFR,,,,,,,,,,,,METAR,17.0
WBKT 200600Z 28007KT 240V320 9999 FEW014 FEW015CB 29/26 Q1010,WBKT,2023-05-20T06:00:00Z,6.92,116.83,29.0,26.0,280,7,,6.21,29.822834,,,,,,,,,,,FEW,1400,FEW,1500,,,,,VFR,,,,,,,,,,,,METAR,11.0
WBKS 200600Z 03007KT 340V070 9999 FEW016 31/26 Q1009,WBKS,2023-05-20T06:00:00Z,5.9,118.07,31.0,26.0,30,7,,6.21,29.793306,,,,,,,,,,,FEW,1600,,,,,,,VFR,,,,,,,,,,,,METAR,13.0
WBKL 200600Z 30005KT 230V020 9999 FEW014 FEW017CB 31/24 Q1008,WBKL,2023-05-20T06:00:00Z,5.3,115.25,31.0,24.0,300,5,,6.21,29.763779,,,,,,,,,,,FEW,1400,FEW,1700,,,,,VFR,,,,,,,,,,,,METAR,29.0
WBKK 200600Z 34003KT 240V050 9999 TS FEW014 FEW016CB 31/27 Q1009 NOSIG,WBKK,2023-05-20T06:00:00Z,5.93,116.05,31.0,27.0,340,3,,6.21,29.793306,,,,,,TRUE,,,,TS,FEW,1400,FEW,1600,,,,,VFR,,,,,,,,,,,,METAR,9.0
WBGY 200600Z VRB03KT 9999 SCT022 33/25 Q1009,WBGY,2023-05-20T06:00:00Z,1.22,111.45,33.0,25.0,0,3,,6.21,29.793306,,,,,,,,,,,SCT,2200,,,,,,,VFR,,,,,,,,,,,,METAR,13.0
WBGS 200600Z 14005KT 060V200 9999 SCT016 33/24 Q1009,WBGS,2023-05-20T06:00:00Z,2.27,111.98,33.0,24.0,140,5,,6.21,29.793306,,,,,,,,,,,SCT,1600,,,,,,,VFR,,,,,,,,,,,,METAR,26.0
WBGR 200600Z 28007KT 200V350 9999 SCT016 32/26 Q1008,WBGR,2023-05-20T06:00:00Z,4.32,113.98,32.0,26.0,280,7,,6.21,29.763779,,,,,,,,,,,SCT,1600,,,,,,,VFR,,,,,,,,,,,,METAR,18.0
WBGG 200600Z 19005KT 150V250 9999 SCT020 34/24 Q1009 NOSIG,WBGG,2023-05-20T06:00:00Z,1.48,110.35,34.0,24.0,190,5,,6.21,29.793306,,,,,,TRUE,,,,,SCT,2000,,,,,,,VFR,,,,,,,,,,,,METAR,26.0
WBGB 200600Z VRB03KT 9999 SCT016 33/25 Q1009,WBGB,2023-05-20T06:00:00Z,3.12,113.02,33.0,25.0,0,3,,6.21,29.793306,,,,,,,,,,,SCT,1600,,,,,,,VFR,,,,,,,,,,,,METAR,34.0
WAYY 200600Z 30002KT 9999 SCT015 30/27 Q1009 NOSIG,WAYY,2023-05-20T06:00:00Z,-4.53,136.88,30.0,27.0,300,2,,6.21,29.793306,,,,,,TRUE,,,,,SCT,1500,,,,,,,VFR,,,,,,,,,,,,METAR,32.0
WATT 200600Z 12011KT 9999 SCT017 30/21 Q1012 NOSIG,WATT,2023-05-20T06:00:00Z,-10.17,123.67,30.0,21.0,120,11,,6.21,29.88189,,,,,,TRUE,,,,,SCT,1700,,,,,,,VFR,,,,,,,,,,,,METAR,104.0
WARR 200600Z 05008KT 9999 FEW020 32/24 Q1010 NOSIG METAR ,WARR,2023-05-20T06:00:00Z,-7.37,112.78,32.0,24.0,50,8,,6.21,29.822834,,,,,,TRUE,,,,,FEW,2000,,,,,,,VFR,,,,,,,,,,,,METAR,3.0
WAPP 200600Z 17005KT 140V210 9999 SCT017 30/21 Q1010 NOSIG,WAPP,2023-05-20T06:00:00Z,-3.7,128.08,30.0,21.0,170,5,,6.21,29.822834,,,,,,TRUE,,,,,SCT,1700,,,,,,,VFR,,,,,,,,,,,,METAR,20.0
WAOO 200600Z 19004KT 150V230 9999 SCT018 32/28 Q1008 NOSIG,WAOO,2023-05-20T06:00:00Z,-3.45,114.77,32.0,28.0,190,4,,6.21,29.763779,,,,,,TRUE,,,,,SCT,1800,,,,,,,VFR,,,,,,,,,,,,METAR,23.0
WAMM 200600Z 09004KT 050V170 6000 -TSRA FEW018CB SCT019 25/24 Q1010 NOSIG,WAMM,2023-05-20T06:00:00Z,1.55,124.92,25.0,24.0,90,4,,3.73,29.822834,,,,,,TRUE,,,,-TSRA,FEW,1800,SCT,1900,,,,,MVFR,,,,,,,,,,,,METAR,86.0
WALL 200600Z 21006KT 9999 FEW020 31/24 Q1009 NOSIG,WALL,2023-05-20T06:00:00Z,-1.27,116.9,31.0,24.0,210,6,,6.21,29.793306,,,,,,TRUE,,,,,FEW,2000,,,,,,,VFR,,,,,,,,,,,,METAR,3.0
WAJJ 200600Z 29013KT 9999 FEW014 30/21 Q1007 NOSIG,WAJJ,2023-05-20T06:00:00Z,-2.58,140.52,30.0,21.0,290,13,,6.21,29.734253,,,,,,TRUE,,,,,FEW,1400,,,,,,,VFR,,,,,,,,,,,,METAR,93.0
WAHS 200600Z 06008KT 9000 FEW014 33/22 Q1009 NOSIG,WAHS,2023-05-20T06:00:00Z,-6.98,110.38,33.0,22.0,60,8,,5.59,29.793306,,,,,,TRUE,,,,,FEW,1400,,,,,,,VFR,,,,,,,,,,,,METAR,3.0
WADL 200600Z 12012KT 080V150 8000 FEW016 30/20 Q1011 NOSIG,WADL,2023-05-20T06:00:00Z,-8.75,116.28,30.0,20.0,120,12,,4.97,29.852362,,,,,,TRUE,,,,,FEW,1600,,,,,,,MVFR,,,,,,,,,,,,METAR,97.0
WADD 200600Z 11016KT 9999 FEW017 30/25 Q1011 NOSIG,WADD,2023-05-20T06:00:00Z,-8.73,115.17,30.0,25.0,110,16,,6.21,29.852362,,,,,,TRUE,,,,,FEW,1700,,,,,,,VFR,,,,,,,,,,,,METAR,3.0
WABB 200600Z 25009KT 080V250 9999 SCT017 30/24 Q1009 NOSIG,WABB,2023-05-20T06:00:00Z,-1.18,136.12,30.0,24.0,250,9,,6.21,29.793306,,,,,,TRUE,,,,,SCT,1700,,,,,,,VFR,,,,,,,,,,,,METAR,12.0
WAAA 200600Z 25009KT 200V270 9999 FEW019 32/24 Q1008 NOSIG,WAAA,2023-05-20T06:00:00Z,-5.07,119.55,32.0,24.0,250,9,,6.21,29.763779,,,,,,TRUE,,,,,FEW,1900,,,,,,,VFR,,,,,,,,,,,,METAR,13.0
VYYY 200600Z 33006KT 7000 SCT018 FEW020TCU 33/24 Q1008 NOSIG,VYYY,2023-05-20T06:00:00Z,16.9,96.13,33.0,24.0,330,6,,4.35,29.763779,,,,,,TRUE,,,,,SCT,1800,FEW,2000,,,,,MVFR,,,,,,,,,,,,METAR,31.0
VYNT 200600Z 16004KT 7000 FEW022 35/22 Q1008 NOSIG,VYNT,2023-05-20T06:00:00Z,19.62,96.2,35.0,22.0,160,4,,4.35,29.763779,,,,,,TRUE,,,,,FEW,2200,,,,,,,MVFR,,,,,,,,,,,,METAR,610.0
VVVD 200600Z 18011KT 9999 FEW030 33/26 Q1006 NOSIG,VVVD,2023-05-20T06:00:00Z,21.12,107.42,33.0,26.0,180,11,,6.21,29.704725,,,,,,TRUE,,,,,FEW,3000,,,,,,,VFR,,,,,,,,,,,,METAR,8.0
VVTS 200600Z 25009KT 210V280 9999 SCT020 SCT050 33/27 Q1008 NOSIG,VVTS,2023-05-20T06:00:00Z,10.82,106.67,33.0,27.0,250,9,,6.21,29.763779,,,,,,TRUE,,,,,SCT,2000,SCT,5000,,,,,VFR,,,,,,,,,,,,METAR,10.0
VVPQ 200600Z 27010KT 9999 SCT015 34/25 Q1008 NOSIG,VVPQ,2023-05-20T06:00:00Z,10.23,103.97,34.0,25.0,270,10,,6.21,29.763779,,,,,,TRUE,,,,,SCT,1500,,,,,,,VFR,,,,,,,,,,,,METAR,8.0
VVPB 200600Z 05009KT 9999 FEW015 37/25 Q1005 NOSIG,VVPB,2023-05-20T06:00:00Z,16.38,107.7,37.0,25.0,50,9,,6.21,29.675198,,,,,,TRUE,,,,,FEW,1500,,,,,,,VFR,,,,,,,,,,,,METAR,15.0
VVNB 200600Z 10008KT 040V130 9999 SCT034 35/27 Q1004 NOSIG,VVNB,2023-05-20T06:00:00Z,21.22,105.8,35.0,27.0,100,8,,6.21,29.64567,,,,,,TRUE,,,,,SCT,3400,,,,,,,VFR,,,,,,,,,,,,METAR,6.0
VVDN 200600Z 09007KT 9999 FEW015 35/25 Q1005 NOSIG,VVDN,2023-05-20T06:00:00Z,16.03,108.2,35.0,25.0,90,7,,6.21,29.675198,,,,,,TRUE,,,,,FEW,1500,,,,,,,VFR,,,,,,,,,,,,METAR,7.0
VVCT 200600Z 28005KT 220V350 9999 SCT015 SCT050 34/25 Q1007 NOSIG,VVCT,2023-05-20T06:00:00Z,10.08,105.72,34.0,25.0,280,5,,6.21,29.734253,,,,,,TRUE,,,,,SCT,1500,SCT,5000,,,,,VFR,,,,,,,,,,,,METAR,6.0
VVCR 200600Z 16007KT 130V210 9999 FEW015 37/23 Q1007 NOSIG,VVCR,2023-05-20T06:00:00Z,12.0,109.22,37.0,23.0,160,7,,6.21,29.734253,,,,,,TRUE,,,,,FEW,1500,,,,,,,VFR,,,,,,,,,,,,METAR,12.0
VVCI 200600Z 13011KT 9999 SCT015 BKN022 31/27 Q1005 NOSIG,VVCI,2023-05-20T06:00:00Z,20.82,106.73,31.0,27.0,130,11,,6.21,29.675198,,,,,,TRUE,,,,,SCT,1500,BKN,2200,,,,,MVFR,,,,,,,,,,,,METAR,6.0
VTUW 200600Z 23006KT 150V290 9000 FEW040 37/22 Q1005 NOSIG,VTUW,2023-05-20T06:00:00Z,17.38,104.63,37.0,22.0,230,6,,5.59,29.675198,,,,,,TRUE,,,,,FEW,4000,,,,,,,VFR,,,,,,,,,,,,METAR,167.0
VTUV 200600Z 25007KT 220V290 8000 FEW030 38/22 Q1006 NOSIG,VTUV,2023-05-20T06:00:00Z,16.12,103.78,38.0,22.0,250,7,,4.97,29.704725,,,,,,TRUE,,,,,FEW,3000,,,,,,,MVFR,,,,,,,,,,,,METAR,136.0
VTUU 200600Z VRB04KT 9000 FEW045 38/25 Q1006 NOSIG,VTUU,2023-05-20T06:00:00Z,15.25,104.87,38.0,25.0,0,4,,5.59,29.704725,,,,,,TRUE,,,,,FEW,4500,,,,,,,VFR,,,,,,,,,,,,METAR,119.0
VTUQ 200600Z 28006KT 210V320 8000 SCT030 38/19 Q1007 NOSIG,VTUQ,2023-05-20T06:00:00Z,14.95,102.32,38.0,19.0,280,6,,4.97,29.734253,,,,,,TRUE,,,,,SCT,3000,,,,,,,MVFR,,,,,,,,,,,,METAR,225.0
VTUO 200600Z 22005KT 180V280 9000 FEW030 37/17 Q1006 NOSIG,VTUO,2023-05-20T06:00:00Z,15.23,103.25,37.0,17.0,220,5,,5.59,29.704725,,,,,,TRUE,,,,,FEW,3000,,,,,,,VFR,,,,,,,,,,,,METAR,182.0
VTUL 200600Z VRB03KT 9000 SCT030 38/23 Q1006 NOSIG,VTUL,2023-05-20T06:00:00Z,17.43,101.72,38.0,23.0,0,3,,5.59,29.704725,,,,,,TRUE,,,,,SCT,3000,,,,,,,VFR,,,,,,,,,,,,METAR,257.0
VTUK 200600Z 26005KT 150V320 9000 SCT030 37/21 Q1007 NOSIG,VTUK,2023-05-20T06:00:00Z,16.47,102.78,37.0,21.0,260,5,,5.59,29.734253,,,,,,TRUE,,,,,SCT,3000,,,,,,,VFR,,,,,,,,,,,,METAR,190.0
VTUI 200600Z 30012KT 170V310 5000 TSRA FEW020CB SCT060 BKN100 29/23 Q1006 NOSIG,VTUI,2023-05-20T06:00:00Z,17.2,104.12,29.0,23.0,300,12,,3.11,29.704725,,,,,,TRUE,,,,TSRA,FEW,2000,SCT,6000,BKN,10000,,,MVFR,,,,,,,,,,,,METAR,162.0
VTUD 200600Z 28007KT 240V320 9999 FEW030 38/21 Q1005 NOSIG,VTUD,2023-05-20T06:00:00Z,17.37,102.78,38.0,21.0,280,7,,6.21,29.675198,,,,,,TRUE,,,,,FEW,3000,,,,,,,VFR,,,,,,,,,,,,METAR,177.0
VTSY 200600Z 23008KT 190V260 9999 SCT030 32/23 Q1010 NOSIG,VTSY,2023-05-20T06:00:00Z,5.78,101.15,32.0,23.0,230,8,,6.21,29.822834,,,,,,TRUE,,,,,SCT,3000,,,,,,,VFR,,,,,,,,,,,,METAR,225.0
VTST 200600Z 26007KT 230V310 9999 FEW030 33/25 Q1008 NOSIG,VTST,2023-05-20T06:00:00Z,7.52,99.62,33.0,25.0,260,7,,6.21,29.763779,,,,,,TRUE,,,,,FEW,3000,,,,,,,VFR,,,,,,,,,,,,METAR,17.0
VTSS 200600Z 25006KT 9999 SCT020 35/25 Q1008 NOSIG,VTSS,2023-05-20T06:00:00Z,6.92,100.38,35.0,25.0,250,6,,6.21,29.763779,,,,,,TRUE,,,,,SCT,2000,,,,,,,VFR,,,,,,,,,,,,METAR,28.0
VTSR 200600Z 28008KT 230V350 9999 FEW025 33/24 Q1009 NOSIG,VTSR,2023-05-20T06:00:00Z,9.78,98.58,33.0,24.0,280,8,,6.21,29.793306,,,,,,TRUE,,,,,FEW,2500,,,,,,,VFR,,,,,,,,,,,,METAR,23.0
VTSP 200600Z VRB10KT 9000 4000N -RA FEW015CB BKN020 27/25 Q1010 NOSIG,VTSP,2023-05-20T06:00:00Z,8.12,98.32,27.0,25.0,0,10,,5.59,29.822834,,,,,,TRUE,,,,-RA,FEW,1500,BKN,2000,,,,,MVFR,,,,,,,,,,,,METAR,12.0
VTSM 200600Z 32009KT 280V350 9999 FEW020 34/25 Q1009 NOSIG,VTSM,2023-05-20T06:00:00Z,9.55,100.07,34.0,25.0,320,9,,6.21,29.793306,,,,,,TRUE,,,,,FEW,2000,,,,,,,VFR,,,,,,,,,,,,METAR,12.0
VTSG 200600Z 24009KT 210V270 9999 VCSH FEW030CB SCT050 33/26 Q1009 TEMPO FM0610 TL0640 4000 TSRA,VTSG,2023-05-20T06:00:00Z,8.1,98.98,33.0,26.0,240,9,,6.21,29.793306,,,,,,,,,,VCSH,FEW,3000,SCT,5000,,,,,VFR,,,,,,,,,,,,SPECI,32.0
VTSF 200600Z VRB03KT 9999 SCT018 37/26 Q1008 NOSIG,VTSF,2023-05-20T06:00:00Z,8.53,99.95,37.0,26.0,0,3,,6.21,29.763779,,,,,,TRUE,,,,,SCT,1800,,,,,,,VFR,,,,,,,,,,,,METAR,6.0
VTSE 200600Z 28010KT 240V310 9999 VCSH FEW018TCU 37/22 Q1007 NOSIG,VTSE,2023-05-20T06:00:00Z,10.72,99.37,37.0,22.0,280,10,,6.21,29.734253,,,,,,TRUE,,,,VCSH,FEW,1800,,,,,,,VFR,,,,,,,,,,,,METAR,8.0
VTSC 200600Z 27008KT 230V320 9999 FEW022 35/24 Q1008 NOSIG,VTSC,2023-05-20T06:00:00Z,6.52,101.75,35.0,24.0,270,8,,6.21,29.763779,,,,,,TRUE,,,,,FEW,2200,,,,,,,VFR,,,,,,,,,,,,METAR,5.0
VTSB 200600Z 30004KT 250V360 9999 FEW018TCU SCT020 34/25 Q1008 NOSIG,VTSB,2023-05-20T06:00:00Z,9.12,99.15,34.0,25.0,300,4,,6.21,29.763779,,,,,,TRUE,,,,,FEW,1800,SCT,2000,,,,,VFR,,,,,,,,,,,,METAR,10.0
VTPT 200600Z /////KT 9999 SCT026 36/24 Q1007 NOSIG,VTPT,2023-05-20T06:00:00Z,16.88,99.25,36.0,24.0,,,,6.21,29.734253,,,,,,TRUE,,,,,SCT,2600,,,,,,,VFR,,,,,,,,,,,,METAR,148.0
VTPP 200600Z VRB03KT 9999 FEW030 37/23 Q1006 NOSIG,VTPP,2023-05-20T06:00:00Z,16.78,100.28,37.0,23.0,0,3,,6.21,29.704725,,,,,,TRUE,,,,,FEW,3000,,,,,,,VFR,,,,,,,,,,,,METAR,45.0
VTPO 200600Z VRB03KT 9999 FEW025 37/23 Q1006 NOSIG,VTPO,2023-05-20T06:00:00Z,17.23,99.82,37.0,23.0,0,3,,6.21,29.704725,,,,,,TRUE,,,,,FEW,2500,,,,,,,VFR,,,,,,,,,,,,METAR,58.0
VTPM 200600Z 24008KT 190V280 9999 SCT040 33/24 Q1009 NOSIG,VTPM,2023-05-20T06:00:00Z,16.7,98.53,33.0,24.0,240,8,,6.21,29.793306,,,,,,TRUE,,,,,SCT,4000,,,,,,,VFR,,,,,,,,,,,,METAR,211.0
VTPH 200600Z 13009KT 9999 FEW030 34/24 Q1007 NOSIG,VTPH,2023-05-20T06:00:00Z,12.63,99.95,34.0,24.0,130,9,,6.21,29.734253,,,,,,TRUE,,,,,FEW,3000,,,,,,,VFR,,,,,,,,,,,,METAR,12.0
VTPB 200600Z 16006KT 100V210 8000 NSC 37/22 Q1006 NOSIG,VTPB,2023-05-20T06:00:00Z,16.67,101.2,37.0,22.0,160,6,,4.97,29.704725,,,,,,TRUE,,,,,CLR,,,,,,,,MVFR,,,,,,,,,,,,METAR,134.0
VTCT 200600Z 21005KT 9000 SCT040 35/21 Q1007 NOSIG,VTCT,2023-05-20T06:00:00Z,19.95,99.88,35.0,21.0,210,5,,5.59,29.734253,,,,,,TRUE,,,,,SCT,4000,,,,,,,VFR,,,,,,,,,,,,METAR,389.0
VTCP 200600Z 02003KT 320V120 9999 FEW040 37/21 Q1006 NOSIG,VTCP,2023-05-20T06:00:00Z,18.13,100.17,37.0,21.0,20,3,,6.21,29.704725,,,,,,TRUE,,,,,FEW,4000,,,,,,,VFR,,,,,,,,,,,,METAR,166.0
VTCN 200600Z 18005KT 090V250 9999 FEW020 38/21 Q1006 NOSIG,VTCN,2023-05-20T06:00:00Z,18.82,100.78,38.0,21.0,180,5,,6.21,29.704725,,,,,,TRUE,,,,,FEW,2000,,,,,,,VFR,,,,,,,,,,,,METAR,211.0
VTCL 200600Z VRB03KT 9999 FEW025 36/23 Q1007 NOSIG,VTCL,2023-05-20T06:00:00Z,18.27,99.52,36.0,23.0,0,3,,6.21,29.734253,,,,,,TRUE,,,,,FEW,2500,,,,,,,VFR,,,,,,,,,,,,METAR,240.0
VTCH 200600Z VRB03KT 9000 FEW025 35/23 Q1008 NOSIG,VTCH,2023-05-20T06:00:00Z,19.3,97.98,35.0,23.0,0,3,,5.59,29.763779,,,,,,TRUE,,,,,FEW,2500,,,,,,,VFR,,,,,,,,,,,,METAR,266.0
VTCC 200600Z 13004KT 050V190 9000 FEW035 35/22 Q1008 NOSIG,VTCC,2023-05-20T06:00:00Z,18.77,98.97,35.0,22.0,130,4,,5.59,29.763779,,,,,,TRUE,,,,,FEW,3500,,,,,,,VFR,,,,,,,,,,,,METAR,308.0
VTBU 200600Z 27009KT 9999 FEW020 36/19 Q1008 NOSIG,VTBU,2023-05-20T06:00:00Z,12.68,101.0,36.0,19.0,270,9,,6.21,29.763779,,,,,,TRUE,,,,,FEW,2000,,,,,,,VFR,,,,,,,,,,,,METAR,12.0
VTBS 200600Z VRB03KT 9999 FEW020 37/20 Q1006 NOSIG,VTBS,2023-05-20T06:00:00Z,13.68,100.75,37.0,20.0,0,3,,6.21,29.704725,,,,,,TRUE,,,,,FEW,2000,,,,,,,VFR,,,,,,,,,,,,METAR,1.0
VTBO 200600Z 21011KT 8000 FEW020 33/25 Q1007,VTBO,2023-05-20T06:00:00Z,12.28,102.32,33.0,25.0,210,11,,4.97,29.734253,,,,,,,,,,,FEW,2000,,,,,,,MVFR,,,,,,,,,,,,METAR,25.0
VTBD 200600Z VRB06KT 9999 FEW030 37/22 Q1007 NOSIG,VTBD,2023-05-20T06:00:00Z,13.92,100.6,37.0,22.0,0,6,,6.21,29.734253,,,,,,TRUE,,,,,FEW,3000,,,,,,,VFR,,,,,,,,,,,,METAR,6.0
VRMM 200600Z 26005KT 9999 FEW018 32/26 Q1011 NOSIG,VRMM,2023-05-20T06:00:00Z,4.2,73.52,32.0,26.0,260,5,,6.21,29.852362,,,,,,TRUE,,,,,FEW,1800,,,,,,,VFR,,,,,,,,,,,,METAR,2.0
VRMH 200600Z 32004KT 9999 FEW018TCU BKN270 32/26 Q1011,VRMH,2023-05-20T06:00:00Z,6.75,73.17,32.0,26.0,320,4,,6.21,29.852362,,,,,,,,,,,FEW,1800,BKN,27000,,,,,VFR,,,,,,,,,,,,METAR,1.0
"VRMG 200600Z 32012KT 9999 SCT017 FEW018CB SCT260 29/25 Q1012 CB E,S,W,NW TEMPO 5000 SHRA",VRMG,2023-05-20T06:00:00Z,-0.7,73.15,29.0,25.0,320,12,,6.21,29.88189,,,,,,,,,,,SCT,1700,FEW,1800,SCT,26000,,,VFR,,,,,,,,,,,,METAR,2.0
VQPR 200600Z VRB09KT 9999 FEW040 BKN080 23/05 Q1018,VQPR,2023-05-20T06:00:00Z,27.4,89.43,23.0,5.0,0,9,,6.21,30.059055,,,,,,,,,,,FEW,4000,BKN,8000,,,,,VFR,,,,,,,,,,,,METAR,2227.0
VOVZ 200600Z 22012KT 4000 HZ SCT018 35/24 Q1008 NOSIG,VOVZ,2023-05-20T06:00:00Z,17.72,83.22,35.0,24.0,220,12,,2.49,29.763779,,,,,,TRUE,,,,HZ,SCT,1800,,,,,,,IFR,,,,,,,,,,,,METAR,4.0
VOTV 200600Z 28004KT 6000 SCT015 FEW025TCU SCT080 34/25 Q1010 NOSIG,VOTV,2023-05-20T06:00:00Z,8.48,76.92,34.0,25.0,280,4,,3.73,29.822834,,,,,,TRUE,,,,,SCT,1500,FEW,2500,SCT,8000,,,MVFR,,,,,,,,,,,,METAR,9.0
VOTR 200600Z 25006KT 7000 FEW016 36/24 Q1009 NOSIG,VOTR,2023-05-20T06:00:00Z,10.77,78.72,36.0,24.0,250,6,,4.35,29.793306,,,,,,TRUE,,,,,FEW,1600,,,,,,,MVFR,,,,,,,,,,,,METAR,90.0
VOTP 200600Z 22004KT 5000 HZ FEW020 36/24 Q1008 NOSIG,VOTP,2023-05-20T06:00:00Z,13.63,79.55,36.0,24.0,220,4,,3.11,29.763779,,,,,,TRUE,,,,HZ,FEW,2000,,,,,,,MVFR,,,,,,,,,,,,METAR,103.0
VOTK 200600Z 31006KT 7000 FEW020 34/23 Q1009 NOSIG,VOTK,2023-05-20T06:00:00Z,8.72,78.02,34.0,23.0,310,6,,4.35,29.793306,,,,,,TRUE,,,,,FEW,2000,,,,,,,MVFR,,,,,,,,,,,,METAR,25.0
VOSR 200600Z 29014KT 5000 FU FEW020 SCT090 33/23 Q1010 NOSIG,VOSR,2023-05-20T06:00:00Z,16.0,73.53,33.0,23.0,290,14,,3.11,29.822834,,,,,,TRUE,,,,FU,FEW,2000,SCT,9000,,,,,MVFR,,,,,,,,,,,,METAR,62.0
VOSM 200600Z VRB02KT 7000 FEW020 34/21 Q1010 NOSIG,VOSM,2023-05-20T06:00:00Z,11.78,78.07,34.0,21.0,0,2,,4.35,29.822834,,,,,,TRUE,,,,,FEW,2000,,,,,,,MVFR,,,,,,,,,,,,METAR,301.0
VORY 200600Z 23006KT 6000 SCT020 36/25 Q1008 NOSIG,VORY,2023-05-20T06:00:00Z,17.1,81.82,36.0,25.0,230,6,,3.73,29.763779,,,,,,TRUE,,,,,SCT,2000,,,,,,,MVFR,,,,,,,,,,,,METAR,47.0
VOPB 200600Z 28010KT 6000 SCT014 SCT020 33/24 Q1009 NOSIG,VOPB,2023-05-20T06:00:00Z,11.63,92.73,33.0,24.0,280,10,,3.73,29.793306,,,,,,TRUE,,,,,SCT,1400,SCT,2000,,,,,MVFR,,,,,,,,,,,,METAR,1.0
VOMY 200600Z 32005KT CAVOK 32/19 Q1014,VOMY,2023-05-20T06:00:00Z,12.23,76.65,32.0,19.0,320,5,,6.21,29.940945,,,,,,,,,,,CAVOK,,,,,,,,VFR,,,,,,,,,,,,METAR,727.0
VOMM 200600Z 21005KT 6000 FEW020 36/28 Q1007 NOSIG,VOMM,2023-05-20T06:00:00Z,13.0,80.17,36.0,28.0,210,5,,3.73,29.734253,,,,,,TRUE,,,,,FEW,2000,,,,,,,MVFR,,,,,,,,,,,,METAR,7.0
VOML 200600Z 27006KT 6000 FEW015 SCT020 33/24 Q1010 NOSIG,VOML,2023-05-20T06:00:00Z,12.97,74.88,33.0,24.0,270,6,,3.73,29.822834,,,,,,TRUE,,,,,FEW,1500,SCT,2000,,,,,MVFR,,,,,,,,,,,,METAR,100.0
VOMD 200600Z 29004KT 7000 FEW020 35/23 Q1009 NOSIG,VOMD,2023-05-20T06:00:00Z,9.83,78.08,35.0,23.0,290,4,,4.35,29.793306,,,,,,TRUE,,,,,FEW,2000,,,,,,,MVFR,,,,,,,,,,,,METAR,135.0
VOKN 200600Z 09004KT 6000 FEW012 SCT018 34/25 Q1010 NOSIG,VOKN,2023-05-20T06:00:00Z,11.92,75.55,34.0,25.0,90,4,,3.73,29.822834,,,,,,TRUE,,,,,FEW,1200,SCT,1800,,,,,MVFR,,,,,,,,,,,,METAR,105.0
VOJV 200600Z 32008KT 7000 NSC 34/19 Q1013,VOJV,2023-05-20T06:00:00Z,15.17,76.63,34.0,19.0,320,8,,4.35,29.911417,,,,,,,,,,,CLR,,,,,,,,MVFR,,,,,,,,,,,,METAR,508.0
VOHY 200600Z 29006KT 6000 NSC 36/16 Q1012 NOSIG,VOHY,2023-05-20T06:00:00Z,17.45,78.47,36.0,16.0,290,6,,3.73,29.88189,,,,,,TRUE,,,,,CLR,,,,,,,,MVFR,,,,,,,,,,,,METAR,540.0
VOHS 200600Z 26005KT 6000 FEW020 36/20 Q1012 NOSIG,VOHS,2023-05-20T06:00:00Z,17.23,78.43,36.0,20.0,260,5,,3.73,29.88189,,,,,,TRUE,,,,,FEW,2000,,,,,,,MVFR,,,,,,,,,,,,METAR,607.0
VOGO 200600Z 33011KT 6000 FEW020 33/22 Q1010 NOSIG,VOGO,2023-05-20T06:00:00Z,15.38,73.83,33.0,22.0,330,11,,3.73,29.822834,,,,,,TRUE,,,,,FEW,2000,,,,,,,MVFR,,,,,,,,,,,,METAR,56.0
VOGA 200600Z 31006KT 8000 FEW020 32/22 Q1011 NOSIG,VOGA,2023-05-20T06:00:00Z,,,32.0,22.0,310,6,,4.97,29.852362,,,,,,TRUE,,,,,FEW,2000,,,,,,,MVFR,,,,,,,,,,,,METAR,
VOCP 200600Z 26011KT 6000 FEW020 BKN090 34/20 Q1008 NOSIG,VOCP,2023-05-20T06:00:00Z,14.5,78.77,34.0,20.0,260,11,,3.73,29.763779,,,,,,TRUE,,,,,FEW,2000,BKN,9000,,,,,MVFR,,,,,,,,,,,,METAR,134.0
VOCL 200600Z 26011KT 6000 FEW015 SCT018 32/23 Q1010 NOSIG,VOCL,2023-05-20T06:00:00Z,11.13,75.95,32.0,23.0,260,11,,3.73,29.822834,,,,,,TRUE,,,,,FEW,1500,SCT,1800,,,,,MVFR,,,,,,,,,,,,METAR,104.0
VOCI 200600Z 26004KT 5000 HZ SCT015 SCT080 33/26 Q1010 NOSIG,VOCI,2023-05-20T06:00:00Z,10.15,76.4,33.0,26.0,260,4,,3.11,29.822834,,,,,,TRUE,,,,HZ,SCT,1500,SCT,8000,,,,,MVFR,,,,,,,,,,,,METAR,8.0
VOCB 200600Z 23005KT 6000 FEW015 32/26 Q1012 NOSIG,VOCB,2023-05-20T06:00:00Z,11.02,77.03,32.0,26.0,230,5,,3.73,29.88189,,,,,,TRUE,,,,,FEW,1500,,,,,,,MVFR,,,,,,,,,,,,METAR,394.0
VOBZ 200600Z 20005KT 6000 FEW020 SCT025 37/27 Q1007 NOSIG,VOBZ,2023-05-20T06:00:00Z,16.52,80.78,37.0,27.0,200,5,,3.73,29.734253,,,,,,TRUE,,,,,FEW,2000,SCT,2500,,,,,MVFR,,,,,,,,,,,,METAR,26.0
VOBM 200600Z 36008KT CAVOK 36/13 Q1015,VOBM,2023-05-20T06:00:00Z,15.85,74.62,36.0,13.0,360,8,,6.21,29.970472,,,,,,,,,,,CAVOK,,,,,,,,VFR,,,,,,,,,,,,METAR,758.0
VOBL 200600Z 35006KT 8000 FEW015 31/18 Q1015 NOSIG,VOBL,2023-05-20T06:00:00Z,13.2,77.7,31.0,18.0,350,6,,4.97,29.970472,,,,,,TRUE,,,,,FEW,1500,,,,,,,MVFR,,,,,,,,,,,,METAR,908.0
VOBG 200600Z 32006KT 8000 NSC 32/21 Q1016,VOBG,2023-05-20T06:00:00Z,12.95,77.65,32.0,21.0,320,6,,4.97,30.0,,,,,,,,,,,CLR,,,,,,,,MVFR,,,,,,,,,,,,METAR,884.0
VOAT 200600Z 32005KT 6000 FEW015 SCT020 33/25 Q1011 NOSIG,VOAT,2023-05-20T06:00:00Z,10.82,72.18,33.0,25.0,320,5,,3.73,29.852362,,,,,,TRUE,,,,,FEW,1500,SCT,2000,,,,,MVFR,,,,,,,,,,,,METAR,5.0
VMMC 200600Z 17011KT 9999 FEW012 SCT025 30/27 Q1008 NOSIG,VMMC,2023-05-20T06:00:00Z,22.15,113.58,30.0,27.0,170,11,,6.21,29.763779,,,,,,TRUE,,,,,FEW,1200,SCT,2500,,,,,VFR,,,,,,,,,,,,METAR,1.0
VISM 200600Z 25006KT 6000 NSC 26/09 Q1015,VISM,2023-05-20T06:00:00Z,31.08,77.07,26.0,9.0,250,6,,3.73,29.970472,,,,,,,,,,,CLR,,,,,,,,MVFR,,,,,,,,,,,,METAR,1537.0
VIPT 200600Z 21002KT 3500 FU NSC 33/19 Q1006,VIPT,2023-05-20T06:00:00Z,29.03,79.47,33.0,19.0,210,2,,2.17,29.704725,,,,,,,,,,FU,CLR,,,,,,,,IFR,,,,,,,,,,,,METAR,236.0
VILK 200600Z 28006KT 5000 HZ NSC 37/20 Q1005 NOSIG,VILK,2023-05-20T06:00:00Z,26.75,80.88,37.0,20.0,280,6,,3.11,29.675198,,,,,,TRUE,,,,HZ,CLR,,,,,,,,MVFR,,,,,,,,,,,,METAR,121.0
VIJP 200600Z 29008KT 6000 NSC 38/09 Q1009 NOSIG,VIJP,2023-05-20T06:00:00Z,26.82,75.8,38.0,9.0,290,8,,3.73,29.793306,,,,,,TRUE,,,,,CLR,,,,,,,,MVFR,,,,,,,,,,,,METAR,383.0
VIGG 200600Z 00000KT 6000 FEW035 32/12 Q1009,VIGG,2023-05-20T06:00:00Z,32.17,76.25,32.0,12.0,0,0,,3.73,29.793306,,,,,,,,,,,FEW,3500,,,,,,,MVFR,,,,,,,,,,,,METAR,760.0
VIDP 200600Z 32004KT 3500 HZ NSC 36/13 Q1007 BECMG 5000 HZ,VIDP,2023-05-20T06:00:00Z,28.57,77.12,36.0,13.0,320,4,,2.17,29.734253,,,,,,,,,,HZ,CLR,,,,,,,,IFR,,,,,,,,,,,,METAR,236.0
VIDN 200600Z 29004KT 6000 FEW030 32/12 Q1008,VIDN,2023-05-20T06:00:00Z,30.2,78.18,32.0,12.0,290,4,,3.73,29.763779,,,,,,,,,,,FEW,3000,,,,,,,MVFR,,,,,,,,,,,,METAR,550.0
VIBR 200600Z 16002KT 7000 FEW030 26/10 Q1011,VIBR,2023-05-20T06:00:00Z,31.82,77.15,26.0,10.0,160,2,,4.35,29.852362,,,,,,,,,,,FEW,3000,,,,,,,MVFR,,,,,,,,,,,,METAR,1089.0
VIAR 200600Z 26006KT 6000 NSC 38/13 Q1005 NOSIG,VIAR,2023-05-20T06:00:00Z,31.7,74.8,38.0,13.0,260,6,,3.73,29.675198,,,,,,TRUE,,,,,CLR,,,,,,,,MVFR,,,,,,,,,,,,METAR,226.0
VHHH 200600Z 20012KT 9999 FEW010 SCT025 31/25 Q1008 NOSIG,VHHH,2023-05-20T06:00:00Z,22.32,113.92,31.0,25.0,200,12,,6.21,29.763779,,,,,,TRUE,,,,,FEW,1000,SCT,2500,,,,,VFR,,,,,,,,,,,,METAR,9.0
VGHS 200600Z 19012KT 4000 HZ FEW015 SCT100 33/23 Q1007 NOSIG,VGHS,2023-05-20T06:00:00Z,23.85,90.4,33.0,23.0,190,12,,2.49,29.734253,,,,,,TRUE,,,,HZ,FEW,1500,SCT,10000,,,,,IFR,,,,,,,,,,,,METAR,11.0
VGEG 200600Z 15011KT 5000 SCT018 BKN100 32/25 Q1008 NOSIG,VGEG,2023-05-20T06:00:00Z,22.23,91.82,32.0,25.0,150,11,,3.11,29.763779,,,,,,TRUE,,,,,SCT,1800,BKN,10000,,,,,MVFR,,,,,,,,,,,,METAR,7.0
VERU 200600Z 10003KT 5000 BR FEW020 SCT100 28/24 Q1007 NOSIG,VERU,2023-05-20T06:00:00Z,26.13,89.92,28.0,24.0,100,3,,3.11,29.734253,,,,,,TRUE,,,,BR,FEW,2000,SCT,10000,,,,,MVFR,,,,,,,,,,,,METAR,45.0
VERP 200600Z 26005KT 5000 HZ NSC 36/21 Q1008 NOSIG,VERP,2023-05-20T06:00:00Z,21.18,81.73,36.0,21.0,260,5,,3.11,29.763779,,,,,,TRUE,,,,HZ,CLR,,,,,,,,MVFR,,,,,,,,,,,,METAR,318.0
VERC 200600Z 24006KT 5000 HZ SCT020 SCT100 37/14 Q1010 NOSIG,VERC,2023-05-20T06:00:00Z,23.32,85.32,37.0,14.0,240,6,,3.11,29.822834,,,,,,TRUE,,,,HZ,SCT,2000,SCT,10000,,,,,MVFR,,,,,,,,,,,,METAR,646.0
VEPY 200600Z 21002KT 5000 BR SCT015 SCT020 22/18 Q1015 NOSIG,VEPY,2023-05-20T06:00:00Z,27.22,88.58,22.0,18.0,210,2,,3.11,29.970472,,,,,,TRUE,,,,BR,SCT,1500,SCT,2000,,,,,MVFR,,,,,,,,,,,,METAR,1399.0
VEPT 200600Z 03004KT 4000 HZ NSC 37/26 Q1004 NOSIG,VEPT,2023-05-20T06:00:00Z,25.6,85.08,37.0,26.0,30,4,,2.49,29.64567,,,,,,TRUE,,,,HZ,CLR,,,,,,,,IFR,,,,,,,,,,,,METAR,53.0
VEMR 200600Z 23009KT 6000 SCT020 35/21 Q1007 NOSIG,VEMR,2023-05-20T06:00:00Z,25.88,93.77,35.0,21.0,230,9,,3.73,29.734253,,,,,,TRUE,,,,,SCT,2000,,,,,,,MVFR,,,,,,,,,,,,METAR,147.0
VEMN 200600Z 14007KT 3500 -RA FEW010 SCT018 FEW025CB BKN100 24/23 Q1007 NOSIG,VEMN,2023-05-20T06:00:00Z,27.47,95.02,24.0,23.0,140,7,,2.17,29.734253,,,,,,TRUE,,,,-RA,FEW,1000,SCT,1800,FEW,2500,BKN,10000,IFR,,,,,,,,,,,,METAR,111.0
VELR 200600Z 11004KT 4500 BR FEW010 SCT018 FEW025CB BKN090 27/23 Q1008,VELR,2023-05-20T06:00:00Z,27.3,94.1,27.0,23.0,110,4,,2.8,29.763779,,,,,,,,,,BR,FEW,1000,SCT,1800,FEW,2500,BKN,9000,IFR,,,,,,,,,,,,METAR,101.0
VELP 200600Z 11003KT 5000 HZ SCT018 BKN100 30/23 Q1010 NOSIG,VELP,2023-05-20T06:00:00Z,23.83,92.62,30.0,23.0,110,3,,3.11,29.822834,,,,,,TRUE,,,,HZ,SCT,1800,BKN,10000,,,,,MVFR,,,,,,,,,,,,METAR,429.0
VEKO 200600Z 18004KT 6000 FEW025 41/08 Q1005,VEKO,2023-05-20T06:00:00Z,24.82,79.92,41.0,8.0,180,4,,3.73,29.675198,,,,,,,,,,,FEW,2500,,,,,,,MVFR,,,,,,,,,,,,METAR,222.0
VEKI 200600Z 12007KT 4000 HZ FEW025 33/21 Q1005 NOSIG,VEKI,2023-05-20T06:00:00Z,26.78,83.88,33.0,21.0,120,7,,2.49,29.675198,,,,,,TRUE,,,,HZ,FEW,2500,,,,,,,IFR,,,,,,,,,,,,METAR,81.0
VEJS 200600Z 00000KT 4000 HZ NSC 38/20 Q1006,VEJS,2023-05-20T06:00:00Z,22.82,86.17,38.0,20.0,0,0,,2.49,29.704725,,,,,,,,,,HZ,CLR,,,,,,,,IFR,,,,,,,,,,,,METAR,151.0
VEJR 200600Z 23008KT 5000 HZ SCT025 BKN080 30/22 Q1012,VEJR,2023-05-20T06:00:00Z,19.07,82.03,30.0,22.0,230,8,,3.11,29.88189,,,,,,,,,,HZ,SCT,2500,BKN,8000,,,,,MVFR,,,,,,,,,,,,METAR,555.0
VEJH 200600Z 23006KT 4000 HZ NSC 38/18 Q1008,VEJH,2023-05-20T06:00:00Z,21.92,84.03,38.0,18.0,230,6,,2.49,29.763779,,,,,,,,,,HZ,CLR,,,,,,,,IFR,,,,,,,,,,,,METAR,231.0
VEIM 200600Z 16006KT 6000 FEW018 SCT100 29/22 Q1013 NOSIG,VEIM,2023-05-20T06:00:00Z,24.77,93.9,29.0,22.0,160,6,,3.73,29.911417,,,,,,TRUE,,,,,FEW,1800,SCT,10000,,,,,MVFR,,,,,,,,,,,,METAR,777.0
VEGY 200600Z 25008G18KT 5000 HZ NSC 40/15 Q1005 NOSIG,VEGY,2023-05-20T06:00:00Z,24.75,84.95,40.0,15.0,250,8,18,3.11,29.675198,,,,,,TRUE,,,,HZ,CLR,,,,,,,,MVFR,,,,,,,,,,,,METAR,115.0
VEGT 200600Z 33007KT 5000 BR SCT018 FEW025CB BKN100 30/26 Q1007 NOSIG,VEGT,2023-05-20T06:00:00Z,26.1,91.58,30.0,26.0,330,7,,3.11,29.734253,,,,,,TRUE,,,,BR,SCT,1800,FEW,2500,BKN,10000,,,MVFR,,,,,,,,,,,,METAR,50.0
VEDG 200600Z 24008KT 6000 FEW090 39/16 Q1005 NOSIG,VEDG,2023-05-20T06:00:00Z,23.62,87.25,39.0,16.0,240,8,,3.73,29.675198,,,,,,TRUE,,,,,FEW,9000,,,,,,,MVFR,,,,,,,,,,,,METAR,88.0
VECO 200600Z 16004KT 5000 HZ FEW020 31/24 Q1007 NOSIG,VECO,2023-05-20T06:00:00Z,26.33,89.47,31.0,24.0,160,4,,3.11,29.734253,,,,,,TRUE,,,,HZ,FEW,2000,,,,,,,MVFR,,,,,,,,,,,,METAR,48.0
VECC 200600Z 18013KT 4500 HZ SCT020 35/27 Q1006 BECMG 5000 HZ,VECC,2023-05-20T06:00:00Z,22.65,88.43,35.0,27.0,180,13,,2.8,29.704725,,,,,,,,,,HZ,SCT,2000,,,,,,,IFR,,,,,,,,,,,,METAR,11.0
VEBU 200600Z 27006KT 6000 NSC 37/21 Q1008 NOSIG,VEBU,2023-05-20T06:00:00Z,21.98,82.12,37.0,21.0,270,6,,3.73,29.763779,,,,,,TRUE,,,,,CLR,,,,,,,,MVFR,,,,,,,,,,,,METAR,274.0
VEBS 200600Z 12003KT 5000 HZ FEW018 36/25 Q1008 NOSIG,VEBS,2023-05-20T06:00:00Z,20.25,85.82,36.0,25.0,120,3,,3.11,29.763779,,,,,,TRUE,,,,HZ,FEW,1800,,,,,,,MVFR,,,,,,,,,,,,METAR,42.0
VEBN 200600Z 27006KT 5000 HZ NSC 40/15 Q1005 NOSIG,VEBN,2023-05-20T06:00:00Z,25.45,82.85,40.0,15.0,270,6,,3.11,29.675198,,,,,,TRUE,,,,HZ,CLR,,,,,,,,MVFR,,,,,,,,,,,,METAR,81.0
VEBI 200600Z 32008KT 4000 DZ SCT018 FEW025CB SCT090 27/19 Q1012 NOSIG,VEBI,2023-05-20T06:00:00Z,25.7,91.98,27.0,19.0,320,8,,2.49,29.88189,,,,,,TRUE,,,,DZ,SCT,1800,FEW,2500,SCT,9000,,,IFR,,,,,,,,,,,,METAR,892.0
VEAT 200600Z 20010KT 6000 SCT020 35/25 Q1007 NOSIG,VEAT,2023-05-20T06:00:00Z,23.88,91.25,35.0,25.0,200,10,,3.73,29.734253,,,,,,TRUE,,,,,SCT,2000,,,,,,,MVFR,,,,,,,,,,,,METAR,20.0
VDSV 200600Z 35011KT 9000 TS SCT015 FEW017CB SCT040 31/26 Q1008 RMK CB:SE/NW,VDSV,2023-05-20T06:00:00Z,10.58,103.63,31.0,26.0,350,11,,5.59,29.763779,,,,,,,,,,TS,SCT,1500,FEW,1700,SCT,4000,,,VFR,,,,,,,,,,,,METAR,1.0
VDSR 200600Z VRB03KT 9999 SCT015 36/24 Q1006,VDSR,2023-05-20T06:00:00Z,13.42,103.8,36.0,24.0,0,3,,6.21,29.704725,,,,,,,,,,,SCT,1500,,,,,,,VFR,,,,,,,,,,,,METAR,16.0
VDPP 200600Z VRB03KT 9999 SCT017 37/22 Q1006,VDPP,2023-05-20T06:00:00Z,11.55,104.83,37.0,22.0,0,3,,6.21,29.704725,,,,,,,,,,,SCT,1700,,,,,,,VFR,,,,,,,,,,,,METAR,10.0
VAUD 200600Z 29006KT 6000 SCT030 38/13 Q1010 NOSIG,VAUD,2023-05-20T06:00:00Z,24.62,73.9,38.0,13.0,290,6,,3.73,29.822834,,,,,,TRUE,,,,,SCT,3000,,,,,,,MVFR,,,,,,,,,,,,METAR,506.0
VASU 200600Z 22006KT 6000 FEW025 34/25 Q1010 NOSIG,VASU,2023-05-20T06:00:00Z,21.12,72.73,34.0,25.0,220,6,,3.73,29.822834,,,,,,TRUE,,,,,FEW,2500,,,,,,,MVFR,,,,,,,,,,,,METAR,6.0
VARK 200600Z 25005KT 6000 NSC 35/23 Q1010 NOSIG,VARK,2023-05-20T06:00:00Z,22.3,70.77,35.0,23.0,250,5,,3.73,29.822834,,,,,,TRUE,,,,,CLR,,,,,,,,MVFR,,,,,,,,,,,,METAR,125.0
VAPR 200600Z 28013KT 6000 FEW020 33/24 Q1010 NOSIG,VAPR,2023-05-20T06:00:00Z,21.63,69.67,33.0,24.0,280,13,,3.73,29.822834,,,,,,TRUE,,,,,FEW,2000,,,,,,,MVFR,,,,,,,,,,,,METAR,8.0
VAOZ 200600Z 30009KT 9999 FEW040 34/17 Q1013 NOSIG,VAOZ,2023-05-20T06:00:00Z,20.12,73.92,34.0,17.0,300,9,,6.21,29.911417,,,,,,TRUE,,,,,FEW,4000,,,,,,,VFR,,,,,,,,,,,,METAR,598.0
VANP 200600Z 34004KT 5000 HZ SCT020 40/18 Q1009 NOSIG,VANP,2023-05-20T06:00:00Z,21.08,79.05,40.0,18.0,340,4,,3.11,29.793306,,,,,,TRUE,,,,HZ,SCT,2000,,,,,,,MVFR,,,,,,,,,,,,METAR,309.0
VAKP 200600Z 29005KT 7000 NSC 34/12 Q1014,VAKP,2023-05-20T06:00:00Z,16.65,74.28,34.0,12.0,290,5,,4.35,29.940945,,,,,,,,,,,CLR,,,,,,,,MVFR,,,,,,,,,,,,METAR,612.0
VAKE 200600Z 21005KT 5000 FU NSC 36/23 Q1009 NOSIG,VAKE,2023-05-20T06:00:00Z,23.13,70.12,36.0,23.0,210,5,,3.11,29.793306,,,,,,TRUE,,,,FU,CLR,,,,,,,,MVFR,,,,,,,,,,,,METAR,29.0
VAJL 200600Z 31010KT 7000 NSC 38/20 Q1009 NOSIG,VAJL,2023-05-20T06:00:00Z,20.97,75.63,38.0,20.0,310,10,,4.35,29.793306,,,,,,TRUE,,,,,CLR,,,,,,,,MVFR,,,,,,,,,,,,METAR,257.0
VAJJ 200600Z 27009KT 5000 HZ FEW020 32/25 Q1010 NOSIG,VAJJ,2023-05-20T06:00:00Z,19.08,72.83,32.0,25.0,270,9,,3.11,29.822834,,,,,,TRUE,,,,HZ,FEW,2000,,,,,,,MVFR,,,,,,,,,,,,METAR,1.0
VAJB 200600Z 01003KT 6000 FEW025 37/16 Q1009 NOSIG,VAJB,2023-05-20T06:00:00Z,23.18,80.05,37.0,16.0,10,3,,3.73,29.793306,,,,,,TRUE,,,,,FEW,2500,,,,,,,MVFR,,,,,,,,,,,,METAR,489.0
VAID 200600Z 32004KT 6000 FEW025 36/20 Q1012 NOSIG,VAID,2023-05-20T06:00:00Z,22.72,75.8,36.0,20.0,320,4,,3.73,29.88189,,,,,,TRUE,,,,,FEW,2500,,,,,,,MVFR,,,,,,,,,,,,METAR,564.0
VABV 200600Z VRB03KT 5000 FU NSC 36/23 Q1009,VABV,2023-05-20T06:00:00Z,21.75,72.2,36.0,23.0,0,3,,3.11,29.793306,,,,,,,,,,FU,CLR,,,,,,,,MVFR,,,,,,,,,,,,METAR,8.0
VABP 200600Z 29010 KT 6000 FEW030 38/08 Q1010 NOSIG,VABP,2023-05-20T06:00:00Z,23.28,77.33,38.0,8.0,290,10,,3.73,29.822834,,,,,,TRUE,,,,,FEW,3000,,,,,,,MVFR,,,,,,,,,,,,METAR,520.0
VABO 200600Z 23004KT 6000 NSC 36/22 Q1009 NOSIG,VABO,2023-05-20T06:00:00Z,22.33,73.22,36.0,22.0,230,4,,3.73,29.793306,,,,,,TRUE,,,,,CLR,,,,,,,,MVFR,,,,,,,,,,,,METAR,36.0
VABB 200600Z 27007G17KT 4000 HZ FEW020 33/25 Q1010 NOSIG,VABB,2023-05-20T06:00:00Z,19.1,72.87,33.0,25.0,270,7,17,2.49,29.822834,,,,,,TRUE,,,,HZ,FEW,2000,,,,,,,IFR,,,,,,,,,,,,METAR,14.0
VAAU 200600Z 29006KT 6000 NSC 38/16 Q1011 NOSIG,VAAU,2023-05-20T06:00:00Z,19.85,75.4,38.0,16.0,290,6,,3.73,29.852362,,,,,,TRUE,,,,,CLR,,,,,,,,MVFR,,,,,,,,,,,,METAR,578.0
VAAH 200600Z 25006KT 6000 NSC 36/22 Q1008 NOSIG,VAAH,2023-05-20T06:00:00Z,23.07,72.63,36.0,22.0,250,6,,3.73,29.763779,,,,,,TRUE,,,,,CLR,,,,,,,,MVFR,,,,,,,,,,,,METAR,52.0
UWWW 200600Z 05005MPS 010V080 9999 FEW033 16/07 Q1020 R15/CLRD60 NOSIG RMK QFE753/1005,UWWW,2023-05-20T06:00:00Z,53.5,50.17,16.0,7.0,50,10,,6.21,30.11811,,,,,,TRUE,,,,,FEW,3300,,,,,,,VFR,,,,,,,,,,,,SPECI,124.0
UWUU 200600Z 09005MPS 030V130 CAVOK 19/01 Q1022 R14R/0///60 NOSIG,UWUU,2023-05-20T06:00:00Z,54.57,55.87,19.0,1.0,90,10,,6.21,30.177166,,,,,,TRUE,,,,,CAVOK,,,,,,,,VFR,,,,,,,,,,,,SPECI,137.0
UWSG 200600Z 07003MPS 050V110 CAVOK 18/06 Q1019 R08/CLRD70 NOSIG RMK QFE762/1016,UWSG,2023-05-20T06:00:00Z,51.72,46.17,18.0,6.0,70,6,,6.21,30.088583,,,,,,TRUE,,,,,CAVOK,,,,,,,,VFR,,,,,,,,,,,,METAR,31.0
UWPS 200600Z 03002MPS 9999 SCT040 16/08 Q1020 R20/CLRD60 NOSIG RMK QFE747,UWPS,2023-05-20T06:00:00Z,54.12,45.2,16.0,8.0,30,4,,6.21,30.11811,,,,,,TRUE,,,,,SCT,4000,,,,,,,VFR,,,,,,,,,,,,METAR,206.0
UWOR 200600Z 10007MPS CAVOK 18/02 Q1019 R07/150060 NOSIG RMK QFE739/0986,UWOR,2023-05-20T06:00:00Z,51.07,58.6,18.0,2.0,100,14,,6.21,30.088583,,,,,,TRUE,,,,,CAVOK,,,,,,,,VFR,,,,,,,,,,,,SPECI,270.0
UWOO 200600Z 12005MPS 9999 BKN040CB 14/09 Q1018 R08/250055 NOSIG RMK QFE753/1004,UWOO,2023-05-20T06:00:00Z,51.8,55.47,14.0,9.0,120,10,,6.21,30.059055,,,,,,TRUE,,,,,BKN,4000,,,,,,,VFR,,,,,,,,,,,,METAR,90.0
UWLW 200600Z 05003MPS 350V130 CAVOK 18/07 Q1021 R02/CLRD60 NOSIG RMK QFE759/1012,UWLW,2023-05-20T06:00:00Z,54.4,48.8,18.0,7.0,50,6,,6.21,30.147638,,,,,,TRUE,,,,,CAVOK,,,,,,,,VFR,,,,,,,,,,,,SPECI,67.0
UWLL 200600Z 07002MPS 330V100 CAVOK 15/05 Q1022 R02/090065 NOSIG RMK QFE754/1005,UWLL,2023-05-20T06:00:00Z,54.27,48.23,15.0,5.0,70,4,,6.21,30.177166,,,,,,TRUE,,,,,CAVOK,,,,,,,,VFR,,,,,,,,,,,,SPECI,119.0
UWKS 200600Z 13004MPS CAVOK 17/06 Q1022 R06/010060 NOSIG RMK QFE751,UWKS,2023-05-20T06:00:00Z,56.08,47.35,17.0,6.0,130,8,,6.21,30.177166,,,,,,TRUE,,,,,CAVOK,,,,,,,,VFR,,,,,,,,,,,,METAR,165.0
UWKE 200600Z 12005MPS 090V160 CAVOK 16/07 Q1022 R03/090070 NOSIG RMK QFE750/1000,UWKE,2023-05-20T06:00:00Z,55.57,52.08,16.0,7.0,120,10,,6.21,30.177166,,,,,,TRUE,,,,,CAVOK,,,,,,,,VFR,,,,,,,,,,,,SPECI,193.0
UWKD 200600Z 06002MPS 010V130 CAVOK 17/04 Q1022 R11/70D NOSIG RMK QFE756/1008,UWKD,2023-05-20T06:00:00Z,55.62,49.28,17.0,4.0,60,4,,6.21,30.177166,,,,,,TRUE,,,,,CAVOK,,,,,,,,VFR,,,,,,,,,,,,METAR,114.0
UWGG 200600Z 33002MPS 290V010 9999 BKN011 12/11 Q1022 R36R/190060 NOSIG,UWGG,2023-05-20T06:00:00Z,56.23,43.78,12.0,11.0,330,4,,6.21,30.177166,,,,,,TRUE,,,,,BKN,1100,,,,,,,MVFR,,,,,,,,,,,,METAR,73.0
UUYY 200600Z 01003MPS 9999 OVC012 12/10 Q1026 R36/19//55 NOSIG RMK QFE760/1014,UUYY,2023-05-20T06:00:00Z,61.65,50.83,12.0,10.0,10,6,,6.21,30.295275,,,,,,TRUE,,,,,OVC,1200,,,,,,,MVFR,,,,,,,,,,,,METAR,107.0
UUWW 200600Z 34005MPS 9999 FEW020 11/06 Q1026 R06/000070 NOSIG,UUWW,2023-05-20T06:00:00Z,55.6,37.27,11.0,6.0,340,10,,6.21,30.295275,,,,,,TRUE,,,,,FEW,2000,,,,,,,VFR,,,,,,,,,,,,SPECI,195.0
UUOO 200600Z 36005MPS CAVOK 15/09 Q1022 R30/010070 NOSIG RMK QFE753,UUOO,2023-05-20T06:00:00Z,51.82,39.23,15.0,9.0,360,10,,6.21,30.177166,,,,,,TRUE,,,,,CAVOK,,,,,,,,VFR,,,,,,,,,,,,METAR,154.0
UUOL 200600Z AUTO 02006MPS 9999 NCD 14/06 Q1023,UUOL,2023-05-20T06:00:00Z,52.7,39.53,14.0,6.0,20,12,,6.21,30.206694,,,TRUE,,,,,,,,CLR,,,,,,,,VFR,,,,,,,,,,,,METAR,176.0
UUOK 200600Z 06007MPS 030V090 CAVOK 15/08 Q1024 R12/090060 NOSIG RMK QFE750/1000,UUOK,2023-05-20T06:00:00Z,51.75,36.28,15.0,8.0,60,14,,6.21,30.236221,,,,,,TRUE,,,,,CAVOK,,,,,,,,VFR,,,,,,,,,,,,METAR,203.0
UUOB 200600Z 04004MPS CAVOK 17/11 Q1022 R11/010070 NOSIG,UUOB,2023-05-20T06:00:00Z,50.65,36.58,17.0,11.0,40,8,,6.21,30.177166,,,,,,TRUE,,,,,CAVOK,,,,,,,,VFR,,,,,,,,,,,,METAR,218.0
UUMO 200600Z 33006MPS 310V010 CAVOK 12/06 Q1026 R25/CLRD60 NOSIG RMK QFE754/1005,UUMO,2023-05-20T06:00:00Z,55.52,37.5,12.0,6.0,330,12,,6.21,30.295275,,,,,,TRUE,,,,,CAVOK,,,,,,,,VFR,,,,,,,,,,,,METAR,167.0
UUEE 200600Z 34006MPS CAVOK 11/06 Q1026 R06R/CLRD62 R06C/CLRD62 NOSIG,UUEE,2023-05-20T06:00:00Z,55.97,37.42,11.0,6.0,340,12,,6.21,30.295275,,,,,,TRUE,,,,,CAVOK,,,,,,,,VFR,,,,,,,,,,,,SPECI,186.0
UUDL 200600Z 34003MPS CAVOK 12/06 Q1025 R23/010060 NOSIG RMK QFE761,UUDL,2023-05-20T06:00:00Z,57.57,40.17,12.0,6.0,340,6,,6.21,30.265747,,,,,,TRUE,,,,,CAVOK,,,,,,,,VFR,,,,,,,,,,,,METAR,88.0
UUDD 200600Z 36007MPS 340V040 9999 SCT025 13/06 Q1025 R88/CLRD60 NOSIG,UUDD,2023-05-20T06:00:00Z,55.4,37.9,13.0,6.0,360,14,,6.21,30.265747,,,,,,TRUE,,,,,SCT,2500,,,,,,,VFR,,,,,,,,,,,,SPECI,165.0
UUBW 200600Z 34005MPS 9999 SCT025 12/06 Q1025 R30/010060 NOSIG,UUBW,2023-05-20T06:00:00Z,55.55,38.15,12.0,6.0,340,10,,6.21,30.265747,,,,,,TRUE,,,,,SCT,2500,,,,,,,VFR,,,,,,,,,,,,METAR,111.0
UUBP 200600Z 01005MPS CAVOK 13/05 Q1027 R34/////// NOSIG RMK QFE752/1003,UUBP,2023-05-20T06:00:00Z,53.22,34.18,13.0,5.0,10,10,,6.21,30.324802,,,,,,TRUE,,,,,CAVOK,,,,,,,,VFR,,,,,,,,,,,,SPECI,197.0
UUBC 200600Z 34004MPS 300V050 9999 BKN039 12/03 Q1027 R31/CLRD60 NOSIG RMK QFE753/1004,UUBC,2023-05-20T06:00:00Z,54.55,36.37,12.0,3.0,340,8,,6.21,30.324802,,,,,,TRUE,,,,,BKN,3900,,,,,,,VFR,,,,,,,,,,,,METAR,198.0
UTTT 200600Z 18012G24KT 120V210 7000 NSC 27/08 Q1014 WS R08R R08R/CLRD70 NOSIG,UTTT,2023-05-20T06:00:00Z,41.27,69.27,27.0,8.0,180,12,24,4.35,29.940945,,,,,,TRUE,,,,,CLR,,,,,,,,MVFR,,,,,,,,,,,,METAR,429.0
UTST 200600Z 21002KT CAVOK 32/06 Q1012 R25/CLRD70 NOSIG,UTST,2023-05-20T06:00:00Z,37.28,67.32,32.0,6.0,210,2,,6.21,29.88189,,,,,,TRUE,,,,,CAVOK,,,,,,,,VFR,,,,,,,,,,,,SPECI,311.0
UTSS 200600Z 29008KT 230V340 9999 NSC 27/07 Q1015 R27/CLRD70 NOSIG,UTSS,2023-05-20T06:00:00Z,39.7,66.98,27.0,7.0,290,8,,6.21,29.970472,,,,,,TRUE,,,,,CLR,,,,,,,,VFR,,,,,,,,,,,,SPECI,665.0
UTSK 200600Z 02004KT 010V110 CAVOK 31/06 Q1014 R16/CLRD70,UTSK,2023-05-20T06:00:00Z,38.8,65.77,31.0,6.0,20,4,,6.21,29.940945,,,,,,,,,,,CAVOK,,,,,,,,VFR,,,,,,,,,,,,SPECI,399.0
UTSB 200600Z 34004KT 300V040 CAVOK 28/07 Q1014 R01/CLRD70 NOSIG,UTSB,2023-05-20T06:00:00Z,39.77,64.48,28.0,7.0,340,4,,6.21,29.940945,,,,,,TRUE,,,,,CAVOK,,,,,,,,VFR,,,,,,,,,,,,SPECI,225.0
UTSA 200600Z 25008KT 200V300 9999 NSC 28/04 Q1014 R25/CLRD70 NOSIG,UTSA,2023-05-20T06:00:00Z,40.12,65.17,28.0,4.0,250,8,,6.21,29.940945,,,,,,TRUE,,,,,CLR,,,,,,,,VFR,,,,,,,,,,,,SPECI,346.0
UTNU 200600Z 35004KT CAVOK 24/11 Q1015 R31/CLRD70 NOSIG,UTNU,2023-05-20T06:00:00Z,41.58,60.63,24.0,11.0,350,4,,6.21,29.970472,,,,,,TRUE,,,,,CAVOK,,,,,,,,VFR,,,,,,,,,,,,SPECI,97.0
UTNN 200600Z 02004KT CAVOK 23/11 Q1015 R33/CLRD60 NOSIG,UTNN,2023-05-20T06:00:00Z,42.48,59.63,23.0,11.0,20,4,,6.21,29.970472,,,,,,TRUE,,,,,CAVOK,,,,,,,,VFR,,,,,,,,,,,,SPECI,76.0
UTFN 200600Z 09006KT 030V120 9999 NSC 24/10 Q1015 R28/CLRD70 NOSIG,UTFN,2023-05-20T06:00:00Z,40.98,71.57,24.0,10.0,90,6,,6.21,29.970472,,,,,,TRUE,,,,,CLR,,,,,,,,VFR,,,,,,,,,,,,METAR,477.0
UTFF 200600Z 33006KT 300V360 9999 NSC 23/11 Q1016 R18/CLRD70,UTFF,2023-05-20T06:00:00Z,40.37,71.73,23.0,11.0,330,6,,6.21,30.0,,,,,,,,,,,CLR,,,,,,,,VFR,,,,,,,,,,,,METAR,612.0
UTDT 200600Z VRB01MPS 9999 BKN120 31/11 Q1012 R35/CLRD70 RMK QFE720/0960,UTDT,2023-05-20T06:00:00Z,37.87,68.87,31.0,11.0,0,2,,6.21,29.88189,,,,,,,,,,,BKN,12000,,,,,,,VFR,,,,,,,,,,,,METAR,443.0
UTDL 200600Z 09004MPS 9999 -SHRA FEW066CB BKN086 24/11 Q1015 R08/CLRD70 NOSIG RMK QFE722/0963,UTDL,2023-05-20T06:00:00Z,40.22,69.7,24.0,11.0,90,8,,6.21,29.970472,,,,,,TRUE,,,,-SHRA,FEW,6600,BKN,8600,,,,,VFR,,,,,,,,,,,,SPECI,436.0
UTDK 200600Z VRB02MPS 9999 NSC 30/07 Q1015 R01/09//70 RMK QFE704/0938,UTDK,2023-05-20T06:00:00Z,37.98,69.8,30.0,7.0,0,4,,6.21,29.970472,,,,,,,,,,,CLR,,,,,,,,VFR,,,,,,,,,,,,METAR,675.0
UTDD 200600Z VRB02MPS 9999 FEW066 28/12 Q1016 R09/D NOSIG RMK QFE693/0924,UTDD,2023-05-20T06:00:00Z,38.53,68.82,28.0,12.0,0,4,,6.21,30.0,,,,,,TRUE,,,,,FEW,6600,,,,,,,VFR,,,,,,,,,,,,METAR,785.0
UTAV 200600Z 01004KT CAVOK 30/08 Q1013 R31/CLRD70 NOSIG,UTAV,2023-05-20T06:00:00Z,39.08,63.62,30.0,8.0,10,4,,6.21,29.911417,,,,,,TRUE,,,,,CAVOK,,,,,,,,VFR,,,,,,,,,,,,SPECI,187.0
UTAT 200600Z 33004KT CAVOK 23/12 Q1015 R26/CLRD70 NOSIG,UTAT,2023-05-20T06:00:00Z,41.77,59.83,23.0,12.0,330,4,,6.21,29.970472,,,,,,TRUE,,,,,CAVOK,,,,,,,,VFR,,,,,,,,,,,,SPECI,84.0
UTAM 200600Z 04006KT CAVOK 30/10 Q1012 R88/CLRD70 NOSIG,UTAM,2023-05-20T06:00:00Z,37.62,61.9,30.0,10.0,40,6,,6.21,29.88189,,,,,,TRUE,,,,,CAVOK,,,,,,,,VFR,,,,,,,,,,,,SPECI,218.0
UTAK 200600Z 12012KT CAVOK 26/07 Q1014 R16R/CLRD70 NOSIG,UTAK,2023-05-20T06:00:00Z,40.05,53.0,26.0,7.0,120,12,,6.21,29.940945,,,,,,TRUE,,,,,CAVOK,,,,,,,,VFR,,,,,,,,,,,,SPECI,83.0
UTAA 200600Z 34006KT 290V040 9999 NSC 26/05 Q1015 R88/70D NOSIG,UTAA,2023-05-20T06:00:00Z,37.98,58.37,26.0,5.0,340,6,,6.21,29.970472,,,,,,TRUE,,,,,CLR,,,,,,,,VFR,,,,,,,,,,,,METAR,207.0
USTR 200600Z 12003MPS 050V200 CAVOK 20/M04 Q1027 R12/090065 R03/090065 NOSIG,USTR,2023-05-20T06:00:00Z,57.18,65.32,20.0,-4.0,120,6,,6.21,30.324802,,,,,,TRUE,,,,,CAVOK,,,,,,,,VFR,,,,,,,,,,,,SPECI,93.0
USSS 200600Z 07003MPS 010V130 CAVOK 20/M04 Q1026 R08L/010060 NOSIG RMK QFE749/0999,USSS,2023-05-20T06:00:00Z,56.75,60.78,20.0,-4.0,70,6,,6.21,30.295275,,,,,,TRUE,,,,,CAVOK,,,,,,,,VFR,,,,,,,,,,,,SPECI,222.0
USRR 200600Z 21003MPS 160V280 CAVOK 21/M03 Q1027 R25/CLRD60 NOSIG RMK QFE765,USRR,2023-05-20T06:00:00Z,61.33,73.42,21.0,-3.0,210,6,,6.21,30.324802,,,,,,TRUE,,,,,CAVOK,,,,,,,,VFR,,,,,,,,,,,,SPECI,52.0
USPP 200600Z 09003MPS 060V150 CAVOK 18/04 Q1025 R21/090060 NOSIG RMK QFE757,USPP,2023-05-20T06:00:00Z,57.92,56.02,18.0,4.0,90,6,,6.21,30.265747,,,,,,TRUE,,,,,CAVOK,,,,,,,,VFR,,,,,,,,,,,,SPECI,120.0
USNN 200600Z 25003MPS 200V290 CAVOK 22/M02 Q1027 R21/0///65 NOSIG RMK QFE766,USNN,2023-05-20T06:00:00Z,60.95,76.48,22.0,-2.0,250,6,,6.21,30.324802,,,,,,TRUE,,,,,CAVOK,,,,,,,,VFR,,,,,,,,,,,,SPECI,52.0
USHH 200600Z 23004MPS 190V260 CAVOK 21/M05 Q1027 R24/010060 NOSIG,USHH,2023-05-20T06:00:00Z,61.03,69.08,21.0,-5.0,230,8,,6.21,30.324802,,,,,,TRUE,,,,,CAVOK,,,,,,,,VFR,,,,,,,,,,,,METAR,46.0
USDA 200600Z 27005MPS 9999 SCT007 M03/M04 Q1025 R22/190055 NOSIG RMK QFE768/1024,USDA,2023-05-20T06:00:00Z,71.2,72.05,-3.0,-4.0,270,10,,6.21,30.265747,,,,,,TRUE,,,,,SCT,700,,,,,,,VFR,,,,,,,,,,,,METAR,5.0
USCM 200600Z 07007MPS 9999 NSC 17/M03 Q1022 R36/090060 TEMPO 06013MPS RMK QFE728,USCM,2023-05-20T06:00:00Z,53.4,58.75,17.0,-3.0,70,14,,6.21,30.177166,,,,,,,,,,,CLR,,,,,,,,VFR,,,,,,,,,,,,METAR,425.0
USCC 200600Z 10007G12MPS CAVOK 20/M05 Q1025 R09/000060 NOSIG RMK QFE748,USCC,2023-05-20T06:00:00Z,55.3,61.5,20.0,-5.0,100,14,23,6.21,30.265747,,,,,,TRUE,,,,,CAVOK,,,,,,,,VFR,,,,,,,,,,,,SPECI,227.0
URWW 200600Z 18003MPS CAVOK 22/05 Q1020 R05/010070 NOSIG,URWW,2023-05-20T06:00:00Z,48.78,44.33,22.0,5.0,180,6,,6.21,30.11811,,,,,,TRUE,,,,,CAVOK,,,,,,,,VFR,,,,,,,,,,,,SPECI,131.0
URWI 200600Z 07004MPS CAVOK 21/06 Q1018 NOSIG,URWI,2023-05-20T06:00:00Z,46.37,44.33,21.0,6.0,70,8,,6.21,30.059055,,,,,,TRUE,,,,,CAVOK,,,,,,,,VFR,,,,,,,,,,,,METAR,145.0
URWA 200600Z 03005MPS 9999 SCT/// 21/09 Q1018 R09/010070 NOSIG RMK QFE765/1021,URWA,2023-05-20T06:00:00Z,46.28,47.98,21.0,9.0,30,10,,6.21,30.059055,,,,,,TRUE,,,,,,,,,,,,,,,,,,,,,,,,,SPECI,-19.0
URSS 200600Z 17003MPS 9999 NSC 18/14 Q1012 R02/010070 R06/010070 NOSIG RMK R06/17004MPS QFE758,URSS,2023-05-20T06:00:00Z,43.45,39.92,18.0,14.0,170,6,,6.21,29.88189,,,,,,TRUE,,,,,CLR,,,,,,,,VFR,,,,,,,,,,,,SPECI,4.0
URRP 200600Z 10004MPS CAVOK 21/09 Q1018 R05/CLRD70 NOSIG RMK QFE759/1012,URRP,2023-05-20T06:00:00Z,47.5,39.92,21.0,9.0,100,8,,6.21,30.059055,,,,,,TRUE,,,,,CAVOK,,,,,,,,VFR,,,,,,,,,,,,METAR,73.0
URMT 200600Z 11009MPS CAVOK 19/08 Q1016 R07/010070 NOSIG RMK QFE722,URMT,2023-05-20T06:00:00Z,45.12,42.12,19.0,8.0,110,17,,6.21,30.0,,,,,,TRUE,,,,,CAVOK,,,,,,,,VFR,,,,,,,,,,,,SPECI,448.0
URMO 200600Z 04002MPS 9999 BKN059 BKN/// 18/09 Q1016 R09/010070 NOSIG RMK QFE718/0957,URMO,2023-05-20T06:00:00Z,43.2,44.6,18.0,9.0,40,4,,6.21,30.0,,,,,,TRUE,,,,,BKN,5900,,,,,,,VFR,,,,,,,,,,,,METAR,505.0
URMN 200600Z 05001MPS 9999 BKN080 17/11 Q1014 R24/010070 TEMPO -TSRA BKN020CB RMK QFE724,URMN,2023-05-20T06:00:00Z,43.52,43.63,17.0,11.0,50,2,,6.21,29.940945,,,,,,,,,,,BKN,8000,,,,,,,VFR,,,,,,,,,,,,SPECI,424.0
URMM 200600Z 10006MPS 9999 NSC 19/10 Q1015 R12/090070 NOSIG RMK QFE733/0978,URMM,2023-05-20T06:00:00Z,44.22,43.07,19.0,10.0,100,12,,6.21,29.970472,,,,,,TRUE,,,,,CLR,,,,,,,,VFR,,,,,,,,,,,,SPECI,318.0
URML 200600Z 15005MPS 9999 NSC 20/11 Q1016 R14/01//70 NOSIG RMK QFE762/1016,URML,2023-05-20T06:00:00Z,42.82,47.65,20.0,11.0,150,10,,6.21,30.0,,,,,,TRUE,,,,,CLR,,,,,,,,VFR,,,,,,,,,,,,SPECI,4.0
URMG 200600Z 08005MPS 050V110 CAVOK 19/12 Q1015 R26/090070 NOSIG RMK QFE747/0996,URMG,2023-05-20T06:00:00Z,43.38,45.7,19.0,12.0,80,10,,6.21,29.970472,,,,,,TRUE,,,,,CAVOK,,,,,,,,VFR,,,,,,,,,,,,METAR,160.0
URKK 200600Z 08007MPS 050V110 CAVOK 22/11 Q1014 R05R/CLRD70 NOSIG RMK QFE757,URKK,2023-05-20T06:00:00Z,45.03,39.15,22.0,11.0,80,14,,6.21,29.940945,,,,,,TRUE,,,,,CAVOK,,,,,,,,VFR,,,,,,,,,,,,SPECI,29.0
URKA 200600Z 11008MPS CAVOK 22/12 Q1013 R04/010070 NOSIG RMK QFE756/1008,URKA,2023-05-20T06:00:00Z,45.0,37.35,22.0,12.0,110,16,,6.21,29.911417,,,,,,TRUE,,,,,CAVOK,,,,,,,,VFR,,,,,,,,,,,,SPECI,41.0
UOOO 200600Z 26008MPS 0150 R19/0150N FG VV002 00/00 Q1013 R19/29//60 NOSIG RMK QFE743/0991,UOOO,2023-05-20T06:00:00Z,69.32,87.33,0.0,0.0,260,16,,0.09,29.911417,,,,,,TRUE,,,,FG,OVX,0,,,,,,,LIFR,,,,,,,,,,,200,SPECI,177.0
UNWW 200600Z 06007MPS 020V090 CAVOK 17/M04 Q1022 R01/09//55 NOSIG RMK QFE739,UNWW,2023-05-20T06:00:00Z,53.82,86.88,17.0,-4.0,60,14,,6.21,30.177166,,,,,,TRUE,,,,,CAVOK,,,,,,,,VFR,,,,,,,,,,,,SPECI,307.0
UNTT 200600Z 03005MPS 340V080 CAVOK 19/M00 Q1025 R21/090060 NOSIG RMK QFE753,UNTT,2023-05-20T06:00:00Z,56.38,85.22,19.0,0.0,30,10,,6.21,30.265747,,,,,,TRUE,,,,,CAVOK,,,,,,,,VFR,,,,,,,,,,,,METAR,179.0
UNOO 200600Z 07007MPS CAVOK 20/M03 Q1025 R25/CLRD60 NOSIG RMK QFE760,UNOO,2023-05-20T06:00:00Z,54.97,73.32,20.0,-3.0,70,14,,6.21,30.265747,,,,,,TRUE,,,,,CAVOK,,,,,,,,VFR,,,,,,,,,,,,SPECI,85.0
UNNT 200600Z 06006MPS 020V090 CAVOK 20/M00 Q1024 R07/090070 R16/090070 NOSIG RMK QFE758/1010,UNNT,2023-05-20T06:00:00Z,55.02,82.65,20.0,0.0,60,12,,6.21,30.236221,,,,,,TRUE,,,,,CAVOK,,,,,,,,VFR,,,,,,,,,,,,SPECI,106.0
UNKL 200600Z 15003MPS 110V240 CAVOK 17/M03 Q1027 R11/CLRD65 NOSIG RMK QFE745,UNKL,2023-05-20T06:00:00Z,56.17,92.48,17.0,-3.0,150,6,,6.21,30.324802,,,,,,TRUE,,,,,CAVOK,,,,,,,,VFR,,,,,,,,,,,,SPECI,278.0
UNEE 200600Z 06004MPS 020V110 CAVOK 18/M02 Q1024 R23/CLRD60 NOSIG RMK QFE745,UNEE,2023-05-20T06:00:00Z,55.27,86.1,18.0,-2.0,60,8,,6.21,30.236221,,,,,,TRUE,,,,,CAVOK,,,,,,,,VFR,,,,,,,,,,,,SPECI,261.0
UNBB 200600Z 06008G13MPS CAVOK 19/M05 Q1021 R06/CLRD66 NOSIG RMK QFE743,UNBB,2023-05-20T06:00:00Z,53.37,83.53,19.0,-5.0,60,16,25,6.21,30.147638,,,,,,TRUE,,,,,CAVOK,,,,,,,,VFR,,,,,,,,,,,,SPECI,249.0
UNAA 200600Z 10005MPS CAVOK 17/M07 Q1025 R02/CLRD64 NOSIG RMK QFE746,UNAA,2023-05-20T06:00:00Z,53.75,91.4,17.0,-7.0,100,10,,6.21,30.265747,,,,,,TRUE,,,,,CAVOK,,,,,,,,VFR,,,,,,,,,,,,SPECI,249.0
UMOO 200600Z 04003MPS CAVOK 14/07 Q1031 NOSIG,UMOO,2023-05-20T06:00:00Z,53.95,30.1,14.0,7.0,40,6,,6.21,30.442913,,,,,,TRUE,,,,,CAVOK,,,,,,,,VFR,,,,,,,,,,,,METAR,188.0
UMMS 200600Z 03003G06MPS 340V080 CAVOK 14/05 Q1030 NOSIG,UMMS,2023-05-20T06:00:00Z,53.88,28.03,14.0,5.0,30,6,12,6.21,30.413385,,,,,,TRUE,,,,,CAVOK,,,,,,,,VFR,,,,,,,,,,,,METAR,196.0
UMMG 200600Z 08002MPS CAVOK 13/07 Q1029 NOSIG,UMMG,2023-05-20T06:00:00Z,53.6,24.05,13.0,7.0,80,4,,6.21,30.383858,,,,,,TRUE,,,,,CAVOK,,,,,,,,VFR,,,,,,,,,,,,METAR,125.0
UMKK 200600Z 08004MPS CAVOK 14/08 Q1029 R24/CLRD95 NOSIG RMK QFE771/1028,UMKK,2023-05-20T06:00:00Z,54.88,20.57,14.0,8.0,80,8,,6.21,30.383858,,,,,,TRUE,,,,,CAVOK,,,,,,,,VFR,,,,,,,,,,,,METAR,6.0
UMIO 200600Z 07003MPS 040V100 CAVOK 13/05 Q1030 NOSIG RMK QFE755/1006,UMIO,2023-05-20T06:00:00Z,54.43,30.3,13.0,5.0,70,6,,6.21,30.413385,,,,,,TRUE,,,,,CAVOK,,,,,,,,VFR,,,,,,,,,,,,METAR,189.0
UMII 200600Z 06003G06MPS CAVOK 11/06 Q1030 NOSIG,UMII,2023-05-20T06:00:00Z,55.13,30.35,11.0,6.0,60,6,12,6.21,30.413385,,,,,,TRUE,,,,,CAVOK,,,,,,,,VFR,,,,,,,,,,,,METAR,208.0
UMGG 200600Z 02005MPS CAVOK 16/06 Q1028 NOSIG,UMGG,2023-05-20T06:00:00Z,52.53,31.02,16.0,6.0,20,10,,6.21,30.35433,,,,,,TRUE,,,,,CAVOK,,,,,,,,VFR,,,,,,,,,,,,METAR,135.0
UMBB 200600Z 07004MPS 6000 NSC 15/10 Q1027 NOSIG,UMBB,2023-05-20T06:00:00Z,52.12,23.9,15.0,10.0,70,8,,3.73,30.324802,,,,,,TRUE,,,,,CLR,,,,,,,,MVFR,,,,,,,,,,,,METAR,138.0
ULWC 200600Z 35004MPS 9999 BKN018 10/06 Q1029 R21/010060 NOSIG RMK QFE761/1015,ULWC,2023-05-20T06:00:00Z,59.28,38.02,10.0,6.0,350,8,,6.21,30.383858,,,,,,TRUE,,,,,BKN,1800,,,,,,,MVFR,,,,,,,,,,,,METAR,113.0
ULPB 200600Z VRB01MPS CAVOK 14/04 Q1032 R19/09//60 NOSIG RMK QFE770/1027,ULPB,2023-05-20T06:00:00Z,61.88,34.15,14.0,4.0,0,2,,6.21,30.47244,,,,,,TRUE,,,,,CAVOK,,,,,,,,VFR,,,,,,,,,,,,METAR,41.0
ULOO 200600Z 09002MPS 040V150 CAVOK 13/05 Q1033 R01/090060 NOSIG RMK QFE771,ULOO,2023-05-20T06:00:00Z,57.78,28.4,13.0,5.0,90,4,,6.21,30.501968,,,,,,TRUE,,,,,CAVOK,,,,,,,,VFR,,,,,,,,,,,,METAR,46.0
ULMM 200600Z 24004MPS 200V270 CAVOK 17/06 Q1022 R13/090070 NOSIG RMK QFE760,ULMM,2023-05-20T06:00:00Z,68.78,32.75,17.0,6.0,240,8,,6.21,30.177166,,,,,,TRUE,,,,,CAVOK,,,,,,,,VFR,,,,,,,,,,,,METAR,79.0
ULLI 200600Z 32004MPS CAVOK 13/06 Q1033 R88/090060 NOSIG,ULLI,2023-05-20T06:00:00Z,59.8,30.27,13.0,6.0,320,8,,6.21,30.501968,,,,,,TRUE,,,,,CAVOK,,,,,,,,VFR,,,,,,,,,,,,SPECI,25.0
UIUU 200600Z 33008MPS 9999 FEW050 10/01 Q1021 R26/CLRD60 NOSIG RMK QFE721/0962,UIUU,2023-05-20T06:00:00Z,51.8,107.45,10.0,1.0,330,16,,6.21,30.147638,,,,,,TRUE,,,,,FEW,5000,,,,,,,VFR,,,,,,,,,,,,SPECI,508.0
UIII 200600Z 26006MPS 9999 SCT024CB 09/04 Q1024 R30/290150 NOSIG RMK QFE723/0964,UIII,2023-05-20T06:00:00Z,52.27,104.37,9.0,4.0,260,12,,6.21,30.236221,,,,,,TRUE,,,,,SCT,2400,,,,,,,VFR,,,,,,,,,,,,SPECI,480.0
UIBB 200600Z 31005MPS 250V010 9999 NSC 16/M06 Q1025 R30/CLRD60 NOSIG RMK QFE725/0967,UIBB,2023-05-20T06:00:00Z,56.37,101.7,16.0,-6.0,310,10,,6.21,30.265747,,,,,,TRUE,,,,,CLR,,,,,,,,VFR,,,,,,,,,,,,SPECI,485.0
UIAA 200600Z 36002MPS 310V070 9999 SCT050CB 21/M06 Q1011 R29/CLRD70 NOSIG RMK QFE699/0933,UIAA,2023-05-20T06:00:00Z,52.02,113.32,21.0,-6.0,360,4,,6.21,29.852362,,,,,,TRUE,,,,,SCT,5000,,,,,,,VFR,,,,,,,,,,,,SPECI,650.0
UHWW 200600Z 18008MPS 9999 FEW023 SCT040CB 14/07 Q1006 R25L/0///70 NOSIG RMK QFE754,UHWW,2023-05-20T06:00:00Z,43.4,132.15,14.0,7.0,180,16,,6.21,29.704725,,,,,,TRUE,,,,,FEW,2300,SCT,4000,,,,,VFR,,,,,,,,,,,,METAR,11.0
UHSS 200600Z 21007MPS 9999 NSC 15/06 Q1014 R19/70D NOSIG RMK QFE759/1012,UHSS,2023-05-20T06:00:00Z,46.88,142.72,15.0,6.0,210,14,,6.21,29.940945,,,,,,TRUE,,,,,CLR,,,,,,,,VFR,,,,,,,,,,,,METAR,14.0
UHPP 200600Z 18004MPS 9999 -SHRA SCT006 OVC026CB 03/03 Q1019 R16R/290250 NOSIG RMK MT OBSC QFE761/1015,UHPP,2023-05-20T06:00:00Z,53.17,158.45,3.0,3.0,180,8,,6.21,30.088583,,,,,,TRUE,,,,-SHRA,SCT,600,OVC,2600,,,,,MVFR,,,,,,,,,,,,METAR,33.0
UHMM 200600Z 10006MPS 9999 FEW010 BKN023CB 04/01 Q1007 R10/290255 NOSIG RMK MT OBSC QFE740 R28/12007MPS,UHMM,2023-05-20T06:00:00Z,59.92,150.72,4.0,1.0,100,12,,6.21,29.734253,,,,,,TRUE,,,,,FEW,1000,BKN,2300,,,,,MVFR,,,,,,,,,,,,METAR,175.0
UHMA 200600Z 20003MPS 9999 VCFG NSC 01/00 Q1017 R01/////// NOSIG RMK MID 22002MPS END R01/24002MPS QFE759/1012,UHMA,2023-05-20T06:00:00Z,64.73,177.73,1.0,0.0,200,6,,6.21,30.029528,,,,,,TRUE,,,,VCFG,CLR,,,,,,,,VFR,,,,,,,,,,,,METAR,53.0
UHHH 200600Z 23003G08MPS 9999 -SHRA SCT028CB 17/09 Q1007 R88/090060 NOSIG RMK QFE749/0999,UHHH,2023-05-20T06:00:00Z,48.52,135.18,17.0,9.0,230,6,16,6.21,29.734253,,,,,,TRUE,,,,-SHRA,SCT,2800,,,,,,,VFR,,,,,,,,,,,,METAR,74.0
UHBB 200600Z 10008MPS 9000 -SHRA BKN026CB 10/09 Q1003 R18/290250 NOSIG RMK QFE737/0982,UHBB,2023-05-20T06:00:00Z,50.43,127.42,10.0,9.0,100,16,,5.59,29.616142,,,,,,TRUE,,,,-SHRA,BKN,2600,,,,,,,MVFR,,,,,,,,,,,,METAR,185.0
UGTB 200600Z 00000KT 9999 BKN037 OVC043 18/15 Q1015 NOSIG,UGTB,2023-05-20T06:00:00Z,41.67,44.95,18.0,15.0,0,0,,6.21,29.970472,,,,,,TRUE,,,,,BKN,3700,OVC,4300,,,,,VFR,,,,,,,,,,,,METAR,468.0
UGSB 200600Z 26003KT 220V290 9999 FEW028 17/15 Q1013 NOSIG,UGSB,2023-05-20T06:00:00Z,41.62,41.6,17.0,15.0,260,3,,6.21,29.911417,,,,,,TRUE,,,,,FEW,2800,,,,,,,VFR,,,,,,,,,,,,METAR,32.0
UGMS 200600Z VRB02KT 9999 SCT100 16/07 Q1017,UGMS,2023-05-20T06:00:00Z,43.05,42.75,16.0,7.0,0,2,,6.21,30.029528,,,,,,,,,,,SCT,10000,,,,,,,VFR,,,,,,,,,,,,METAR,1442.0
UGKO 200600Z VRB02KT 9999 BKN012 17/13 Q1012 NOSIG,UGKO,2023-05-20T06:00:00Z,42.18,42.48,17.0,13.0,0,2,,6.21,29.88189,,,,,,TRUE,,,,,BKN,1200,,,,,,,MVFR,,,,,,,,,,,,METAR,44.0
UGAM 200600Z 26004KT 9999 SCT100 19/14 Q1012,UGAM,2023-05-20T06:00:00Z,42.53,43.13,19.0,14.0,260,4,,6.21,29.88189,,,,,,,,,,,SCT,10000,,,,,,,VFR,,,,,,,,,,,,METAR,544.0
UERR 200600Z 28005G10MPS 9999 SCT030CB 12/03 Q1011 R25/CLRD60 NOSIG RMK QFE727/0970,UERR,2023-05-20T06:00:00Z,62.53,114.05,12.0,3.0,280,10,19,6.21,29.852362,,,,,,TRUE,,,,,SCT,3000,,,,,,,VFR,,,,,,,,,,,,SPECI,352.0
UEEE 200600Z 27004MPS CAVOK 12/M05 Q1006 R05/09//60 NOSIG RMK QFE746,UEEE,2023-05-20T06:00:00Z,62.08,129.77,12.0,-5.0,270,8,,6.21,29.704725,,,,,,TRUE,,,,,CAVOK,,,,,,,,VFR,,,,,,,,,,,,METAR,106.0
UDYZ 200600Z 14008KT 9999 SCT040CB 18/12 Q1014 NOSIG,UDYZ,2023-05-20T06:00:00Z,40.15,44.4,18.0,12.0,140,8,,6.21,29.940945,,,,,,TRUE,,,,,SCT,4000,,,,,,,VFR,,,,,,,,,,,,METAR,851.0
UDSG 200600Z VRB01KT 9999 SCT049 14/09 Q1017 NOSIG,UDSG,2023-05-20T06:00:00Z,40.75,43.87,14.0,9.0,0,1,,6.21,30.029528,,,,,,TRUE,,,,,SCT,4900,,,,,,,VFR,,,,,,,,,,,,METAR,1515.0
UCFO 200600Z 05004MPS 9999 -SHRA SCT043CB 21/14 Q1017 NOSIG,UCFO,2023-05-20T06:00:00Z,40.6,72.8,21.0,14.0,50,8,,6.21,30.029528,,,,,,TRUE,,,,-SHRA,SCT,4300,,,,,,,VFR,,,,,,,,,,,,METAR,881.0
UCFM 200600Z 14002MPS 9999 FEW066CB 24/06 Q1014 NOSIG,UCFM,2023-05-20T06:00:00Z,43.07,74.48,24.0,6.0,140,4,,6.21,29.940945,,,,,,TRUE,,,,,FEW,6600,,,,,,,VFR,,,,,,,,,,,,METAR,632.0
UBEE 200600Z 12005KT 9999 SCT040 OVC100 19/13 Q1015 NOSIG,UBEE,2023-05-20T06:00:00Z,40.63,47.13,19.0,13.0,120,5,,6.21,29.970472,,,,,,TRUE,,,,,SCT,4000,OVC,10000,,,,,VFR,,,,,,,,,,,,METAR,14.0
UBBZ 200600Z 04008KT 3000 BR BKN002 17/16 Q1016 NOSIG RMK MT OBSC,UBBZ,2023-05-20T06:00:00Z,39.1,46.73,17.0,16.0,40,8,,1.86,30.0,,,,,,TRUE,,,,BR,BKN,200,,,,,,,LIFR,,,,,,,,,,,,METAR,489.0
UBBY 200600Z 17006KT 9999 SCT020 BKN100 20/16 Q1018 NOSIG RMK MT PT OBSC,UBBY,2023-05-20T06:00:00Z,41.57,46.67,20.0,16.0,170,6,,6.21,30.059055,,,,,,TRUE,,,,,SCT,2000,BKN,10000,,,,,VFR,,,,,,,,,,,,METAR,383.0
UBBQ 200600Z 15005KT 9999 BKN036 18/09 Q1016 NOSIG RMK MT OBSC,UBBQ,2023-05-20T06:00:00Z,40.82,47.72,18.0,9.0,150,5,,6.21,30.0,,,,,,TRUE,,,,,BKN,3600,,,,,,,VFR,,,,,,,,,,,,METAR,339.0
UBBN 200600Z 11006KT 9999 SCT040CB OVC080 17/14 Q1015 NOSIG RMK MT OP QFE686,UBBN,2023-05-20T06:00:00Z,39.18,45.45,17.0,14.0,110,6,,6.21,29.970472,,,,,,TRUE,,,,,SCT,4000,OVC,8000,,,,,VFR,,,,,,,,,,,,SPECI,857.0
UBBL 200600Z 12005KT 9999 BKN013 21/17 Q1014 NOSIG RMK MT PT OBSC,UBBL,2023-05-20T06:00:00Z,38.75,48.82,21.0,17.0,120,5,,6.21,29.940945,,,,,,TRUE,,,,,BKN,1300,,,,,,,MVFR,,,,,,,,,,,,METAR,-11.0
UBBF 200600Z 33008KT 9999 SCT040 BKN080 19/14 Q1015 NOSIG RMK MT OBSC,UBBF,2023-05-20T06:00:00Z,39.6,47.2,19.0,14.0,330,8,,6.21,29.970472,,,,,,TRUE,,,,,SCT,4000,BKN,8000,,,,,VFR,,,,,,,,,,,,METAR,370.0
UBBB 200600Z 35006KT CAVOK 21/13 Q1016 NOSIG,UBBB,2023-05-20T06:00:00Z,40.47,50.07,21.0,13.0,350,6,,6.21,30.0,,,,,,TRUE,,,,,CAVOK,,,,,,,,VFR,,,,,,,,,,,,METAR,94.0
UAUU 200600Z 07008G13MPS 030V120 CAVOK 21/M03 Q1021 NOSIG RMK QFE749/0999,UAUU,2023-05-20T06:00:00Z,53.2,63.55,21.0,-3.0,70,16,25,6.21,30.147638,,,,,,TRUE,,,,,CAVOK,,,,,,,,VFR,,,,,,,,,,,,SPECI,177.0
UATT 200600Z 08005MPS 9999 SCT032CB 19/11 Q1017 NOSIG RMK QFE743/0991,UATT,2023-05-20T06:00:00Z,50.25,57.2,19.0,11.0,80,10,,6.21,30.029528,,,,,,TRUE,,,,,SCT,3200,,,,,,,VFR,,,,,,,,,,,,METAR,217.0
UATG 200600Z 03005MPS 360V060 CAVOK 23/11 Q1016 NOSIG RMK QFE763/1018,UATG,2023-05-20T06:00:00Z,47.12,51.83,23.0,11.0,30,10,,6.21,30.0,,,,,,TRUE,,,,,CAVOK,,,,,,,,VFR,,,,,,,,,,,,SPECI,-23.0
UATE 200600Z 03003MPS 340V070 CAVOK 21/10 Q1016 NOSIG RMK QFE760/1013,UATE,2023-05-20T06:00:00Z,43.87,51.1,21.0,10.0,30,6,,6.21,30.0,,,,,,TRUE,,,,,CAVOK,,,,,,,,VFR,,,,,,,,,,,,METAR,21.0
UASS 200600Z 04004MPS 340V110 CAVOK 22/M04 Q1014 NOSIG RMK QFE740/0987,UASS,2023-05-20T06:00:00Z,50.35,80.23,22.0,-4.0,40,8,,6.21,29.940945,,,,,,TRUE,,,,,CAVOK,,,,,,,,VFR,,,,,,,,,,,,SPECI,215.0
UASP 200600Z 07010MPS CAVOK 22/M05 Q1019 NOSIG RMK QFE754/1005,UASP,2023-05-20T06:00:00Z,52.2,77.07,22.0,-5.0,70,19,,6.21,30.088583,,,,,,TRUE,,,,,CAVOK,,,,,,,,VFR,,,,,,,,,,,,SPECI,122.0
UASK 200600Z 22002MPS 9999 NSC 22/M02 Q1014 NOSIG RMK QFE735/0980,UASK,2023-05-20T06:00:00Z,50.03,82.5,22.0,-2.0,220,4,,6.21,29.940945,,,,,,TRUE,,,,,CLR,,,,,,,,VFR,,,,,,,,,,,,METAR,285.0
UARR 200600Z 01005MPS 340V040 9999 BKN026CB 16/10 Q1018 NOSIG RMK QFE760/1013,UARR,2023-05-20T06:00:00Z,51.15,51.53,16.0,10.0,10,10,,6.21,30.059055,,,,,,TRUE,,,,,BKN,2600,,,,,,,MVFR,,,,,,,,,,,,SPECI,33.0
UAOO 200600Z 32002MPS CAVOK 23/12 Q1012 NOSIG RMK QFE747/0997,UAOO,2023-05-20T06:00:00Z,44.7,65.6,23.0,12.0,320,4,,6.21,29.88189,,,,,,TRUE,,,,,CAVOK,,,,,,,,VFR,,,,,,,,,,,,SPECI,130.0
UAKK 200600Z 07008MPS CAVOK 20/M05 Q1015 NOSIG RMK QFE714/0952,UAKK,2023-05-20T06:00:00Z,49.68,73.35,20.0,-5.0,70,16,,6.21,29.970472,,,,,,TRUE,,,,,CAVOK,,,,,,,,VFR,,,,,,,,,,,,SPECI,532.0
UAKD 200600Z 02003MPS 320V080 9000 SCT056CB 17/08 Q1013 NOSIG RMK QFE726/0968,UAKD,2023-05-20T06:00:00Z,47.7,67.73,17.0,8.0,20,6,,5.59,29.911417,,,,,,TRUE,,,,,SCT,5600,,,,,,,VFR,,,,,,,,,,,,SPECI,379.0
UAIT 200600Z 28004MPS 240V310 9999 SCT046 25/09 Q1012 NOSIG RMK QFE732/0977,UAIT,2023-05-20T06:00:00Z,43.32,68.55,25.0,9.0,280,8,,6.21,29.88189,,,,,,TRUE,,,,,SCT,4600,,,,,,,VFR,,,,,,,,,,,,METAR,301.0
UAII 200600Z 27008MPS 230V300 9999 SCT050CB 27/01 Q1012 NOSIG RMK QFE722/0963,UAII,2023-05-20T06:00:00Z,42.37,69.48,27.0,1.0,270,16,,6.21,29.88189,,,,,,TRUE,,,,,SCT,5000,,,,,,,VFR,,,,,,,,,,,,SPECI,410.0
UADD 200600Z 22005MPS 9999 SCT040CB BKN100 25/04 Q1013 NOSIG RMK QFE703/0937,UADD,2023-05-20T06:00:00Z,42.85,71.3,25.0,4.0,220,10,,6.21,29.911417,,,,,,TRUE,,,,,SCT,4000,BKN,10000,,,,,VFR,,,,,,,,,,,,SPECI,663.0
UACP 200600Z 10008MPS 060V120 CAVOK 20/M01 Q1024 NOSIG RMK QFE756/1008,UACP,2023-05-20T06:00:00Z,54.78,69.18,20.0,-1.0,100,16,,6.21,30.236221,,,,,,TRUE,,,,,CAVOK,,,,,,,,VFR,,,,,,,,,,,,SPECI,134.0
UACK 200600Z 09008MPS 050V120 CAVOK 19/M03 Q1022 NOSIG RMK QFE742/0990,UACK,2023-05-20T06:00:00Z,53.32,69.58,19.0,-3.0,90,16,,6.21,30.177166,,,,,,TRUE,,,,,CAVOK,,,,,,,,VFR,,,,,,,,,,,,SPECI,261.0
UACC 200600Z 09010MPS CAVOK 20/M05 Q1017 NOSIG RMK QFE731/0975,UACC,2023-05-20T06:00:00Z,51.02,71.47,20.0,-5.0,90,19,,6.21,30.029528,,,,,,TRUE,,,,,CAVOK,,,,,,,,VFR,,,,,,,,,,,,METAR,354.0
UAAT 200600Z 23005MPS 9999 BKN050CB BKN100 21/11 Q1014 NOSIG RMK QFE709/0946,UAAT,2023-05-20T06:00:00Z,45.12,78.45,21.0,11.0,230,10,,6.21,29.940945,,,,,,TRUE,,,,,BKN,5000,BKN,10000,,,,,VFR,,,,,,,,,,,,METAR,588.0
UAAH 200600Z 26003MPS 190V340 CAVOK 21/04 Q1013 NOSIG RMK QFE722/0963,UAAH,2023-05-20T06:00:00Z,46.9,75.0,21.0,4.0,260,6,,6.21,29.911417,,,,,,TRUE,,,,,CAVOK,,,,,,,,VFR,,,,,,,,,,,,SPECI,427.0
UAAA 200600Z VRB01MPS 9999 SCT050CB BKN100 24/07 Q1014 NOSIG,UAAA,2023-05-20T06:00:00Z,43.35,77.03,24.0,7.0,0,2,,6.21,29.940945,,,,,,TRUE,,,,,SCT,5000,BKN,10000,,,,,VFR,,,,,,,,,,,,METAR,673.0
TTPP 200600Z 10006KT 9999 VCSH FEW016 SCT040 26/24 Q1012 NOSIG RMK VCSH-N/SE,TTPP,2023-05-20T06:00:00Z,10.58,-61.35,26.0,24.0,100,6,,6.21,29.88189,,,,,,TRUE,,,,VCSH,FEW,1600,SCT,4000,,,,,VFR,,,,,,,,,,,,SPECI,11.0
TTCP 200600Z 09010KT 9999 VCSH FEW016 27/23 Q1012 NOSIG RMK VCSH-NE,TTCP,2023-05-20T06:00:00Z,11.15,-60.85,27.0,23.0,90,10,,6.21,29.88189,,,,,,TRUE,,,,VCSH,FEW,1600,,,,,,,VFR,,,,,,,,,,,,SPECI,13.0
TNCM 200600Z 09010KT 060V120 9999 FEW016 27/23 Q1015 ,TNCM,2023-05-20T06:00:00Z,18.05,-63.12,27.0,23.0,90,10,,6.21,29.970472,,,,,,,,,,,FEW,1600,,,,,,,VFR,,,,,,,,,,,,METAR,9.0
TNCC 200600Z 11011KT 9999 FEW017 27/24 Q1011 NOSIG,TNCC,2023-05-20T06:00:00Z,12.2,-68.97,27.0,24.0,110,11,,6.21,29.852362,,,,,,TRUE,,,,,FEW,1700,,,,,,,VFR,,,,,,,,,,,,METAR,10.0
TNCA 200600Z 10017KT 9999 FEW018 27/24 Q1010 NOSIG,TNCA,2023-05-20T06:00:00Z,12.5,-70.0,27.0,24.0,100,17,,6.21,29.822834,,,,,,TRUE,,,,,FEW,1800,,,,,,,VFR,,,,,,,,,,,,METAR,7.0
TLPL 200600Z 10017KT 9999 FEW024 BKN040 28/24 Q1013 NOSIG,TLPL,2023-05-20T06:00:00Z,13.75,-60.95,28.0,24.0,100,17,,6.21,29.911417,,,,,,TRUE,,,,,FEW,2400,BKN,4000,,,,,VFR,,,,,,,,,,,,METAR,13.0
TGPY 200600Z 09014KT 9999 FEW018 27/24 Q1012 NOSIG,TGPY,2023-05-20T06:00:00Z,12.0,-61.78,27.0,24.0,90,14,,6.21,29.88189,,,,,,TRUE,,,,,FEW,1800,,,,,,,VFR,,,,,,,,,,,,METAR,12.0
TFFR 200600Z AUTO 12004KT 9999 FEW030 25/22 Q1014 TEMPO 4000 SHRA BKN020TCU,TFFR,2023-05-20T06:00:00Z,16.27,-61.53,25.0,22.0,120,4,,6.21,29.940945,,,TRUE,,,,,,,,FEW,3000,,,,,,,VFR,,,,,,,,,,,,METAR,6.0
TFFF 200600Z AUTO 11008KT 9999 FEW025 26/22 Q1013 NOSIG,TFFF,2023-05-20T06:00:00Z,14.6,-61.0,26.0,22.0,110,8,,6.21,29.911417,,,TRUE,,,TRUE,,,,,FEW,2500,,,,,,,VFR,,,,,,,,,,,,METAR,3.0
TBPB 200600Z 11014KT 9999 BKN018 SCT042 27/23 Q1012 NOSIG,TBPB,2023-05-20T06:00:00Z,13.07,-59.48,27.0,23.0,110,14,,6.21,29.88189,,,,,,TRUE,,,,,BKN,1800,SCT,4200,,,,,MVFR,,,,,,,,,,,,METAR,55.0
TAPA 200600Z 09008KT 050V150 9999 FEW018 26/22 Q1014 NOSIG,TAPA,2023-05-20T06:00:00Z,17.13,-61.78,26.0,22.0,90,8,,6.21,29.940945,,,,,,TRUE,,,,,FEW,1800,,,,,,,VFR,,,,,,,,,,,,METAR,15.0
SYCJ 200600Z VRB02KT 9999 FEW015 26/25 Q1011 NOSIG,SYCJ,2023-05-20T06:00:00Z,6.5,-58.25,26.0,25.0,0,2,,6.21,29.852362,,,,,,TRUE,,,,,FEW,1500,,,,,,,VFR,,,,,,,,,,,,METAR,30.0
SUMU 200600Z 18011KT 150V210 9999 -RA SCT005 OVC033 15/15 Q1018 TEMPO RA DZ,SUMU,2023-05-20T06:00:00Z,-34.83,-56.02,15.0,15.0,180,11,,6.21,30.059055,,,,,,,,,,-RA,SCT,500,OVC,3300,,,,,VFR,,,,,,,,,,,,METAR,32.0
SULS 200600Z 20011KT 3000 RABR BKN008 OVC015 17/16 Q1017,SULS,2023-05-20T06:00:00Z,-34.87,-55.1,17.0,16.0,200,11,,1.86,30.029528,,,,,,,,,,RA BR,BKN,800,OVC,1500,,,,,IFR,,,,,,,,,,,,METAR,22.0
SPUR 200600Z 16004KT CAVOK 24/20 Q1014 RMK PP000,SPUR,2023-05-20T06:00:00Z,-5.17,-80.58,24.0,20.0,160,4,,6.21,29.940945,,,,,,,,,,,CAVOK,,,,,,,,VFR,,,,,,,,,,,,METAR,55.0
SPSO 200600Z 26003KT 6000 OVC033 20/18 Q1014 RMK FU PP000,SPSO,2023-05-20T06:00:00Z,-13.73,-76.22,20.0,18.0,260,3,,3.73,29.940945,,,,,,,,,,,OVC,3300,,,,,,,MVFR,,,,,,,,,,,,METAR,8.0
SPRU 200600Z 16003KT 120V190 5000 BR OVC033 22/19 Q1013 RMK PP000,SPRU,2023-05-20T06:00:00Z,-8.08,-79.12,22.0,19.0,160,3,,3.11,29.911417,,,,,,,,,,BR,OVC,3300,,,,,,,MVFR,,,,,,,,,,,,METAR,23.0
SPQT 200600Z 23003KT 190V250 9999 SCT006 BKN100 25/24 Q1012 NOSIG RMK PP000,SPQT,2023-05-20T06:00:00Z,-3.78,-73.32,25.0,24.0,230,3,,6.21,29.88189,,,,,,TRUE,,,,,SCT,600,BKN,10000,,,,,VFR,,,,,,,,,,,,SPECI,92.0
SPJC 200600Z 15013KT 9999 OVC030 22/17 Q1013 NOSIG RMK PP000,SPJC,2023-05-20T06:00:00Z,-12.02,-77.12,22.0,17.0,150,13,,6.21,29.911417,,,,,,TRUE,,,,,OVC,3000,,,,,,,MVFR,,,,,,,,,,,,SPECI,26.0
SPHI 200600Z 18010KT 9999 BKN030 23/19 Q1013 RMK BIRD HAZARD RWY 19/01 PP000,SPHI,2023-05-20T06:00:00Z,-6.78,-79.82,23.0,19.0,180,10,,6.21,29.911417,,,,,,,,,,,BKN,3000,,,,,,,MVFR,,,,,,,,,,,,METAR,33.0
SOCA 200600Z AUTO VRB03KT 9999 FEW012/// SCT022/// BKN035/// ///TCU 24/24 Q1010 BECMG SCT015,SOCA,2023-05-20T06:00:00Z,4.82,-52.37,24.0,24.0,0,3,,6.21,29.822834,,,TRUE,,,,,,,,FEW,1200,SCT,2200,BKN,3500,,,VFR,,,,,,,,,,,,METAR,7.0
SMJP 200600Z 13001KT 9999 FEW008 SCT020 25/24 Q1010 NOSIG,SMJP,2023-05-20T06:00:00Z,5.45,-55.18,25.0,24.0,130,1,,6.21,29.822834,,,,,,TRUE,,,,,FEW,800,SCT,2000,,,,,VFR,,,,,,,,,,,,METAR,14.0
SLLP 200600Z 05004KT 9999 FEW003 03/02 Q1039,SLLP,2023-05-20T06:00:00Z,-16.52,-68.17,3.0,2.0,50,4,,6.21,30.679134,,,,,,,,,,,FEW,300,,,,,,,VFR,,,,,,,,,,,,METAR,4061.0
SLCB 200600Z 00000KT 9999 NSC 11/06 Q1024,SLCB,2023-05-20T06:00:00Z,-17.42,-66.18,11.0,6.0,0,0,,6.21,30.236221,,,,,,,,,,,CLR,,,,,,,,VFR,,,,,,,,,,,,METAR,2560.0
SKSP 200600Z 06008KT 9999 SCT016 28/24 Q1012 RMK A2989,SKSP,2023-05-20T06:00:00Z,12.58,-81.72,28.0,24.0,60,8,,6.21,29.88189,,,,,,,,,,,SCT,1600,,,,,,,VFR,,,,,,,,,,,,METAR,6.0
SKRG 200600Z VRB02KT 8000 RA BKN015 OVC080 16/16 Q1026 NOSIG RMK A3031,SKRG,2023-05-20T06:00:00Z,6.17,-75.42,16.0,16.0,0,2,,4.97,30.295275,,,,,,TRUE,,,,RA,BKN,1500,OVC,8000,,,,,MVFR,,,,,,,,,,,,METAR,2132.0
SKPE 200600Z VRB02KT 9999 SCT020 SCT090 21/20 Q1018 RMK A3006,SKPE,2023-05-20T06:00:00Z,4.82,-75.73,21.0,20.0,0,2,,6.21,30.059055,,,,,,,,,,,SCT,2000,SCT,9000,,,,,VFR,,,,,,,,,,,,SPECI,1341.0
SKLT 200600Z 00000KT CAVOK 24/24 Q1010 RMK A2984,SKLT,2023-05-20T06:00:00Z,-4.2,-69.93,24.0,24.0,0,0,,6.21,29.822834,,,,,,,,,,,CAVOK,,,,,,,,VFR,,,,,,,,,,,,METAR,78.0
SKCL 200600Z 34007KT 9999 SCT023 BKN090 24/21 Q1015 NOSIG RMK A2999,SKCL,2023-05-20T06:00:00Z,3.53,-76.37,24.0,21.0,340,7,,6.21,29.970472,,,,,,TRUE,,,,,SCT,2300,BKN,9000,,,,,VFR,,,,,,,,,,,,METAR,967.0
SKCG 200600Z 36004KT 350V060 9999 FEW017 28/25 Q1008 RMK A2977,SKCG,2023-05-20T06:00:00Z,10.43,-75.52,28.0,25.0,360,4,,6.21,29.763779,,,,,,,,,,,FEW,1700,,,,,,,VFR,,,,,,,,,,,,METAR,6.0
SKBQ 200600Z 03008KT 8000 VCFG SCT010 28/25 Q1008 NOSIG RMK A2978,SKBQ,2023-05-20T06:00:00Z,10.87,-74.77,28.0,25.0,30,8,,4.97,29.763779,,,,,,TRUE,,,,VCFG,SCT,1000,,,,,,,MVFR,,,,,,,,,,,,METAR,23.0
SKBO 200600Z 05005KT 9999 SCT020 14/11 Q1028 NOSIG RMK A3034,SKBO,2023-05-20T06:00:00Z,4.7,-74.15,14.0,11.0,50,5,,6.21,30.35433,,,,,,TRUE,,,,,SCT,2000,,,,,,,VFR,,,,,,,,,,,,METAR,2547.0
SGAS 200600Z 08006KT CAVOK 22/17 Q1014,SGAS,2023-05-20T06:00:00Z,-25.25,-57.52,22.0,17.0,80,6,,6.21,29.940945,,,,,,,,,,,CAVOK,,,,,,,,VFR,,,,,,,,,,,,METAR,83.0
SEQM 200600Z 08003KT 9999 OVC005 14/13 Q1028 NOSIG RMK A3036,SEQM,2023-05-20T06:00:00Z,-0.12,-78.35,14.0,13.0,80,3,,6.21,30.35433,,,,,,TRUE,,,,,OVC,500,,,,,,,IFR,,,,,,,,,,,,SPECI,2386.0
SEMT 200600Z 22009KT 9999 FEW020 BKN100 25/22 Q1012,SEMT,2023-05-20T06:00:00Z,-0.95,-80.67,25.0,22.0,220,9,,6.21,29.88189,,,,,,,,,,,FEW,2000,BKN,10000,,,,,VFR,,,,,,,,,,,,METAR,13.0
SEGU 200600Z 23006KT 9999 -RA FEW010 BKN023 BKN100 25/24 Q1011 NOSIG RMK A2988,SEGU,2023-05-20T06:00:00Z,-2.15,-79.88,25.0,24.0,230,6,,6.21,29.852362,,,,,,TRUE,,,,-RA,FEW,1000,BKN,2300,BKN,10000,,,MVFR,,,,,,,,,,,,METAR,6.0
SCVM 200600Z 15005KT CAVOK 09/08 Q1015,SCVM,2023-05-20T06:00:00Z,-32.95,-71.48,9.0,8.0,150,5,,6.21,29.970472,,,,,,,,,,,CAVOK,,,,,,,,VFR,,,,,,,,,,,,METAR,136.0
SCVD 200600Z AUTO 00000KT 1100 R35///// FG VV002 00/00 Q1019,SCVD,2023-05-20T06:00:00Z,-39.65,-73.08,0.0,0.0,0,0,,0.68,30.088583,,,TRUE,,,,,,,FG,OVX,0,,,,,,,LIFR,,,,,,,,,,,200,SPECI,19.0
SCTN 200600Z AUTO 07004KT 320V120 CAVOK 03/02 Q1017,SCTN,2023-05-20T06:00:00Z,-42.92,-72.7,3.0,2.0,70,4,,6.21,30.029528,,,TRUE,,,,,,,,CAVOK,,,,,,,,VFR,,,,,,,,,,,,METAR,8.0
SCTE 200600Z 00000KT 8000 VCFG NSC M00/M00 Q1017 NOSIG,SCTE,2023-05-20T06:00:00Z,-41.43,-73.08,0.0,0.0,0,0,,4.97,30.029528,,,,,,TRUE,,,,VCFG,CLR,,,,,,,,MVFR,,,,,,,,,,,,METAR,85.0
SCSN 200600Z AUTO VRB01KT //// R/////// // NCD 06/06 Q1016,SCSN,2023-05-20T06:00:00Z,-33.65,-71.62,6.0,6.0,0,1,,,30.0,,,TRUE,,,,,,,,CLR,,,,,,,,,,,,,,,,,,,,METAR,73.0
SCSE 200600Z AUTO 09003KT 6000 BKN009/// OVC013/// 11/11 Q1015,SCSE,2023-05-20T06:00:00Z,-29.92,-71.2,11.0,11.0,90,3,,3.73,29.970472,,,TRUE,,,,,,,,BKN,900,OVC,1300,,,,,IFR,,,,,,,,,,,,METAR,141.0
SCRM 200600Z 25022KT 8000 OVC015 M01/M03 Q0988 NOSIG,SCRM,2023-05-20T06:00:00Z,-62.18,-58.98,-1.0,-3.0,250,22,,4.97,29.17323,,,,,,TRUE,,,,,OVC,1500,,,,,,,MVFR,,,,,,,,,,,,METAR,45.0
SCQP 200600Z VRB02KT 5000 0900S BCFG FEW003 M00/M00 Q1018,SCQP,2023-05-20T06:00:00Z,-38.92,-72.65,0.0,0.0,0,2,,3.11,30.059055,,,,,,,,,,BCFG,FEW,300,,,,,,,MVFR,,,,,,,,,,,,METAR,97.0
SCPQ 200600Z AUTO VRB01KT CAVOK 00/00 Q1016,SCPQ,2023-05-20T06:00:00Z,-42.33,-73.72,0.0,0.0,0,1,,6.21,30.0,,,TRUE,,,,,,,,CAVOK,,,,,,,,VFR,,,,,,,,,,,,METAR,166.0
SCON 200600Z AUTO 04006KT 9999 SCT200/// 05/04 Q1017,SCON,2023-05-20T06:00:00Z,-43.13,-73.62,5.0,4.0,40,6,,6.21,30.029528,,,TRUE,,,,,,,,SCT,20000,,,,,,,VFR,,,,,,,,,,,,METAR,11.0
SCMK 200600Z AUTO 36021KT //// // OVC043/// 09/06 Q1015,SCMK,2023-05-20T06:00:00Z,-43.9,-73.73,9.0,6.0,360,21,,,29.970472,,,TRUE,,,,,,,,OVC,4300,,,,,,,,,,,,,,,,,,,METAR,22.0
SCIP 200600Z 12003KT CAVOK 14/13 Q1026 NOSIG,SCIP,2023-05-20T06:00:00Z,-27.17,-109.43,14.0,13.0,120,3,,6.21,30.295275,,,,,,TRUE,,,,,CAVOK,,,,,,,,VFR,,,,,,,,,,,,METAR,48.0
SCIE 200600Z 18004KT CAVOK 05/05 Q1018,SCIE,2023-05-20T06:00:00Z,-36.77,-73.07,5.0,5.0,180,4,,6.21,30.059055,,,,,,,,,,,CAVOK,,,,,,,,VFR,,,,,,,,,,,,METAR,8.0
SCIC 200600Z AUTO 12003KT //// R/////// // NCD 07/06 Q1016,SCIC,2023-05-20T06:00:00Z,-34.97,-71.22,7.0,6.0,120,3,,,30.0,,,TRUE,,,,,,,,CLR,,,,,,,,,,,,,,,,,,,,METAR,230.0
SCHR 200600Z AUTO 36004KT CAVOK 00/M02 Q1009,SCHR,2023-05-20T06:00:00Z,-47.23,-72.58,0.0,-2.0,360,4,,6.21,29.793306,,,TRUE,,,,,,,,CAVOK,,,,,,,,VFR,,,,,,,,,,,,METAR,203.0
SCFT 200600Z AUTO VRB02KT 0550 FZFG VV002 M02/M02 Q1019,SCFT,2023-05-20T06:00:00Z,-43.18,-71.85,-2.0,-2.0,0,2,,0.34,30.088583,,,TRUE,,,,,,,FZFG,OVX,0,,,,,,,LIFR,,,,,,,,,,,200,METAR,345.0
SCFA 200600Z 30003KT 9999 OVC023 16/11 Q1016 NOSIG,SCFA,2023-05-20T06:00:00Z,-23.43,-70.43,16.0,11.0,300,3,,6.21,30.0,,,,,,TRUE,,,,,OVC,2300,,,,,,,MVFR,,,,,,,,,,,,METAR,113.0
SCEL 200600Z 00000KT 6000 NSC 09/05 Q1016 NOSIG,SCEL,2023-05-20T06:00:00Z,-33.38,-70.78,9.0,5.0,0,0,,3.73,30.0,,,,,,TRUE,,,,,CLR,,,,,,,,MVFR,,,,,,,,,,,,METAR,478.0
SCDA 200600Z 15003KT 9999 BKN031 19/12 Q1015,SCDA,2023-05-20T06:00:00Z,-20.53,-70.17,19.0,12.0,150,3,,6.21,29.970472,,,,,,,,,,,BKN,3100,,,,,,,VFR,,,,,,,,,,,,METAR,41.0
SCCY 200600Z AUTO 01004KT 320V040 CAVOK 02/M02 Q1014,SCCY,2023-05-20T06:00:00Z,-45.58,-72.1,2.0,-2.0,10,4,,6.21,29.940945,,,TRUE,,,,,,,,CAVOK,,,,,,,,VFR,,,,,,,,,,,,METAR,301.0
SCCI 200600Z 34007KT 9999 FEW049 OVC150 03/M00 Q1002 NOSIG,SCCI,2023-05-20T06:00:00Z,-53.0,-70.85,3.0,0.0,340,7,,6.21,29.586615,,,,,,TRUE,,,,,FEW,4900,OVC,15000,,,,,VFR,,,,,,,,,,,,METAR,37.0
SCCF 200600Z 10014KT CAVOK 06/M14 Q1025,SCCF,2023-05-20T06:00:00Z,-22.5,-68.9,6.0,-14.0,100,14,,6.21,30.265747,,,,,,,,,,,CAVOK,,,,,,,,VFR,,,,,,,,,,,,METAR,2290.0
SCBA 200600Z AUTO 30008KT 9999 OVC150/// 02/M02 Q1012,SCBA,2023-05-20T06:00:00Z,-45.92,-71.68,2.0,-2.0,300,8,,6.21,29.88189,,,TRUE,,,,,,,,OVC,15000,,,,,,,VFR,,,,,,,,,,,,METAR,516.0
SCAR 200600Z 18006KT 9999 OVC028 19/14 Q1014,SCAR,2023-05-20T06:00:00Z,-18.35,-70.33,19.0,14.0,180,6,,6.21,29.940945,,,,,,,,,,,OVC,2800,,,,,,,MVFR,,,,,,,,,,,,METAR,57.0
SCAP 200600Z AUTO /////KT ///V/// //// // ////// ///// Q////,SCAP,2023-05-20T06:00:00Z,-43.62,-71.8,,,,,,,,,,TRUE,,,,,,,,,,,,,,,,,,,,,,,,,,,,METAR,252.0
SBVT 200600Z 31005KT CAVOK 17/15 Q1019,SBVT,2023-05-20T06:00:00Z,-20.25,-40.28,17.0,15.0,310,5,,6.21,30.088583,,,,,,,,,,,CAVOK,,,,,,,,VFR,,,,,,,,,,,,METAR,4.0
SBUR 200600Z 10004KT CAVOK 17/10 Q1019,SBUR,2023-05-20T06:00:00Z,-19.77,-47.97,17.0,10.0,100,4,,6.21,30.088583,,,,,,,,,,,CAVOK,,,,,,,,VFR,,,,,,,,,,,,METAR,807.0
SBUL 200600Z 10009KT CAVOK 15/10 Q1020,SBUL,2023-05-20T06:00:00Z,-18.87,-48.22,15.0,10.0,100,9,,6.21,30.11811,,,,,,,,,,,CAVOK,,,,,,,,VFR,,,,,,,,,,,,METAR,945.0
SBTU 200600Z AUTO 21004KT 180V250 9999 // BKN001/// BKN010/// 24/23 Q1012,SBTU,2023-05-20T06:00:00Z,-3.78,-49.72,24.0,23.0,210,4,,6.21,29.88189,,,TRUE,,,,,,,,BKN,100,BKN,1000,,,,,LIFR,,,,,,,,,,,,METAR,250.0
SBTE 200600Z 00000KT 9999 SCT006 BKN008 OVC070 25/23 Q1011,SBTE,2023-05-20T06:00:00Z,-5.05,-42.82,25.0,23.0,0,0,,6.21,29.852362,,,,,,,,,,,SCT,600,BKN,800,OVC,7000,,,IFR,,,,,,,,,,,,METAR,60.0
SBSV 200600Z 16011KT 9999 SCT020 SCT070 27/20 Q1015,SBSV,2023-05-20T06:00:00Z,-12.9,-38.32,27.0,20.0,160,11,,6.21,29.970472,,,,,,,,,,,SCT,2000,SCT,7000,,,,,VFR,,,,,,,,,,,,METAR,9.0
SBSR 200600Z 12003KT CAVOK 18/10 Q1017,SBSR,2023-05-20T06:00:00Z,-20.8,-49.4,18.0,10.0,120,3,,6.21,30.029528,,,,,,,,,,,CAVOK,,,,,,,,VFR,,,,,,,,,,,,METAR,537.0
SBSP 200600Z AUTO 08005KT 040V100 CAVOK 14/12 Q1022,SBSP,2023-05-20T06:00:00Z,-23.62,-46.65,14.0,12.0,80,5,,6.21,30.177166,,,TRUE,,,,,,,,CAVOK,,,,,,,,VFR,,,,,,,,,,,,METAR,802.0
SBSN 200600Z 07010KT 9999 FEW015 27/25 Q1010,SBSN,2023-05-20T06:00:00Z,-2.42,-54.78,27.0,25.0,70,10,,6.21,29.822834,,,,,,,,,,,FEW,1500,,,,,,,VFR,,,,,,,,,,,,METAR,57.0
SBSL 200600Z 14004KT 9999 SCT015 26/25 Q1011,SBSL,2023-05-20T06:00:00Z,-2.58,-44.23,26.0,25.0,140,4,,6.21,29.852362,,,,,,,,,,,SCT,1500,,,,,,,VFR,,,,,,,,,,,,METAR,53.0
SBSG 200600Z 20003KT 170V240 9999 FEW018 BKN090 24/23 Q1012,SBSG,2023-05-20T06:00:00Z,-5.77,-35.37,24.0,23.0,200,3,,6.21,29.88189,,,,,,,,,,,FEW,1800,BKN,9000,,,,,VFR,,,,,,,,,,,,METAR,83.0
SBSC 200600Z 01003KT CAVOK 13/12 Q1020,SBSC,2023-05-20T06:00:00Z,-22.92,-43.72,13.0,12.0,10,3,,6.21,30.11811,,,,,,,,,,,CAVOK,,,,,,,,VFR,,,,,,,,,,,,METAR,6.0
SBRP 200600Z 10005KT CAVOK 13/10 Q1018,SBRP,2023-05-20T06:00:00Z,-21.13,-47.77,13.0,10.0,100,5,,6.21,30.059055,,,,,,,,,,,CAVOK,,,,,,,,VFR,,,,,,,,,,,,METAR,550.0
SBRJ 200600Z 01002KT CAVOK 20/16 Q1019,SBRJ,2023-05-20T06:00:00Z,-22.9,-43.17,20.0,16.0,10,2,,6.21,30.088583,,,,,,,,,,,CAVOK,,,,,,,,VFR,,,,,,,,,,,,METAR,6.0
SBRF 200600Z VRB02KT 9999 SCT018 BKN040 24/22 Q1013,SBRF,2023-05-20T06:00:00Z,-8.13,-34.92,24.0,22.0,0,2,,6.21,29.911417,,,,,,,,,,,SCT,1800,BKN,4000,,,,,VFR,,,,,,,,,,,,METAR,10.0
SBRB 200600Z 00000KT CAVOK 23/23 Q1011,SBRB,2023-05-20T06:00:00Z,-9.87,-67.88,23.0,23.0,0,0,,6.21,29.852362,,,,,,,,,,,CAVOK,,,,,,,,VFR,,,,,,,,,,,,METAR,190.0
SBPV 200600Z 00000KT 9999 FEW040 26/25 Q1010,SBPV,2023-05-20T06:00:00Z,-8.72,-63.9,26.0,25.0,0,0,,6.21,29.822834,,,,,,,,,,,FEW,4000,,,,,,,VFR,,,,,,,,,,,,METAR,89.0
SBPS 200600Z 25008KT 9999 SCT020 BKN070 19/18 Q1017,SBPS,2023-05-20T06:00:00Z,-16.43,-39.07,19.0,18.0,250,8,,6.21,30.029528,,,,,,,,,,,SCT,2000,BKN,7000,,,,,VFR,,,,,,,,,,,,METAR,44.0
SBPL 200600Z 18007KT 9999 BKN025 24/19 Q1016,SBPL,2023-05-20T06:00:00Z,-9.37,-40.57,24.0,19.0,180,7,,6.21,30.0,,,,,,,,,,,BKN,2500,,,,,,,MVFR,,,,,,,,,,,,METAR,386.0
SBPJ 200600Z 10002KT CAVOK 24/21 Q1012,SBPJ,2023-05-20T06:00:00Z,-10.28,-48.37,24.0,21.0,100,2,,6.21,29.88189,,,,,,,,,,,CAVOK,,,,,,,,VFR,,,,,,,,,,,,METAR,226.0
SBPA 200600Z 30003KT 0100 R29/0325 R11/0400 FG VV001 16/16 Q1017,SBPA,2023-05-20T06:00:00Z,-30.0,-51.17,16.0,16.0,300,3,,0.06,30.029528,,,,,,,,,,FG,OVX,0,,,,,,,LIFR,,,,,,,,,,,100,METAR,3.0
SBNT 200600Z 21004KT 9999 FEW021 SCT050 BKN070 24/24 Q1012,SBNT,2023-05-20T06:00:00Z,-5.92,-35.25,24.0,24.0,210,4,,6.21,29.88189,,,,,,,,,,,FEW,2100,SCT,5000,BKN,7000,,,VFR,,,,,,,,,,,,METAR,51.0
SBMQ 200600Z 02002KT 9999 SCT010 25/25 Q1010,SBMQ,2023-05-20T06:00:00Z,0.05,-51.07,25.0,25.0,20,2,,6.21,29.822834,,,,,,,,,,,SCT,1000,,,,,,,VFR,,,,,,,,,,,,METAR,15.0
SBMO 200600Z 23004KT 2500 RA BR BKN006 BKN019 OVC080 23/23 Q1014,SBMO,2023-05-20T06:00:00Z,-9.52,-35.78,23.0,23.0,230,4,,1.55,29.940945,,,,,,,,,,RA BR,BKN,600,BKN,1900,OVC,8000,,,IFR,,,,,,,,,,,,METAR,116.0
SBMN 200600Z 02003KT CAVOK 27/24 Q1010,SBMN,2023-05-20T06:00:00Z,-3.13,-59.98,27.0,24.0,20,3,,6.21,29.822834,,,,,,,,,,,CAVOK,,,,,,,,VFR,,,,,,,,,,,,METAR,71.0
SBMG 200600Z 08008KT CAVOK 16/11 Q1018,SBMG,2023-05-20T06:00:00Z,-23.48,-52.02,16.0,11.0,80,8,,6.21,30.059055,,,,,,,,,,,CAVOK,,,,,,,,VFR,,,,,,,,,,,,METAR,543.0
SBME 200600Z 32004KT CAVOK 14/14 Q1019,SBME,2023-05-20T06:00:00Z,-22.35,-41.77,14.0,14.0,320,4,,6.21,30.088583,,,,,,,,,,,CAVOK,,,,,,,,VFR,,,,,,,,,,,,METAR,2.0
SBMA 200600Z 00000KT CAVOK 24/24 Q1011,SBMA,2023-05-20T06:00:00Z,-5.37,-49.13,24.0,24.0,0,0,,6.21,29.852362,,,,,,,,,,,CAVOK,,,,,,,,VFR,,,,,,,,,,,,METAR,110.0
SBLO 200600Z 19003KT CAVOK 14/13 Q1019,SBLO,2023-05-20T06:00:00Z,-23.33,-51.12,14.0,13.0,190,3,,6.21,30.088583,,,,,,,,,,,CAVOK,,,,,,,,VFR,,,,,,,,,,,,METAR,563.0
SBLB 200600Z AUTO 16011KT 9999 SCT031 24/17 Q1018 W///S4,SBLB,2023-05-20T06:00:00Z,-22.1,-39.92,24.0,17.0,160,11,,6.21,30.059055,,,TRUE,,,,,,,,SCT,3100,,,,,,,VFR,,,,,,,,,,,,METAR,10.0
SBKP 200600Z 12012KT CAVOK 14/12 Q1019,SBKP,2023-05-20T06:00:00Z,-23.0,-47.13,14.0,12.0,120,12,,6.21,30.088583,,,,,,,,,,,CAVOK,,,,,,,,VFR,,,,,,,,,,,,METAR,659.0
SBKG 200600Z 10005KT CAVOK 22/20 Q1015,SBKG,2023-05-20T06:00:00Z,-7.27,-35.88,22.0,20.0,100,5,,6.21,29.970472,,,,,,,,,,,CAVOK,,,,,,,,VFR,,,,,,,,,,,,METAR,499.0
SBJU 200600Z 19006KT 9999 FEW020 24/21 Q1016,SBJU,2023-05-20T06:00:00Z,-7.22,-39.27,24.0,21.0,190,6,,6.21,30.0,,,,,,,,,,,FEW,2000,,,,,,,VFR,,,,,,,,,,,,METAR,407.0
SBJP 200600Z 20004KT 9999 FEW020 24/24 Q1013,SBJP,2023-05-20T06:00:00Z,-7.15,-34.95,24.0,24.0,200,4,,6.21,29.911417,,,,,,,,,,,FEW,2000,,,,,,,VFR,,,,,,,,,,,,METAR,66.0
SBIZ 200600Z 10003KT CAVOK 25/23 Q1011,SBIZ,2023-05-20T06:00:00Z,-5.52,-47.45,25.0,23.0,100,3,,6.21,29.852362,,,,,,,,,,,CAVOK,,,,,,,,VFR,,,,,,,,,,,,METAR,131.0
SBGR 200600Z 08007KT 4000 BR FEW001 BKN003 OVC005 13/12 Q1021,SBGR,2023-05-20T06:00:00Z,-23.42,-46.47,13.0,12.0,80,7,,2.49,30.147638,,,,,,,,,,BR,FEW,100,BKN,300,OVC,500,,,LIFR,,,,,,,,,,,,METAR,745.0
SBGO 200600Z 00000KT CAVOK 14/13 Q1018,SBGO,2023-05-20T06:00:00Z,-16.62,-49.22,14.0,13.0,0,0,,6.21,30.059055,,,,,,,,,,,CAVOK,,,,,,,,VFR,,,,,,,,,,,,METAR,740.0
SBGL 200600Z 36002KT 7000 NSC 16/15 Q1019,SBGL,2023-05-20T06:00:00Z,-22.82,-43.25,16.0,15.0,360,2,,4.35,30.088583,,,,,,,,,,,CLR,,,,,,,,MVFR,,,,,,,,,,,,METAR,3.0
SBFZ 200600Z 20003KT 9999 BKN020 27/25 Q1011,SBFZ,2023-05-20T06:00:00Z,-3.77,-38.52,27.0,25.0,200,3,,6.21,29.852362,,,,,,,,,,,BKN,2000,,,,,,,MVFR,,,,,,,,,,,,METAR,32.0
SBFN 200600Z AUTO 10003KT CAVOK 23/23 Q1012,SBFN,2023-05-20T06:00:00Z,-3.85,-32.42,23.0,23.0,100,3,,6.21,29.88189,,,TRUE,,,,,,,,CAVOK,,,,,,,,VFR,,,,,,,,,,,,METAR,52.0
SBFL 200600Z 31014KT 9999 BKN020 20/16 Q1018,SBFL,2023-05-20T06:00:00Z,-27.67,-48.53,20.0,16.0,310,14,,6.21,30.059055,,,,,,,,,,,BKN,2000,,,,,,,MVFR,,,,,,,,,,,,METAR,5.0
SBFI 200600Z 09004KT 8000 BCFG NSC 15/15 Q1017,SBFI,2023-05-20T06:00:00Z,-25.6,-54.48,15.0,15.0,90,4,,4.97,30.029528,,,,,,,,,,BCFG,CLR,,,,,,,,MVFR,,,,,,,,,,,,METAR,233.0
SBEG 200600Z 00000KT CAVOK 25/24 Q1010,SBEG,2023-05-20T06:00:00Z,-3.03,-60.03,25.0,24.0,0,0,,6.21,29.822834,,,,,,,,,,,CAVOK,,,,,,,,VFR,,,,,,,,,,,,METAR,69.0
SBDN 200600Z 15005KT CAVOK 14/12 Q1018,SBDN,2023-05-20T06:00:00Z,-22.18,-51.43,14.0,12.0,150,5,,6.21,30.059055,,,,,,,,,,,CAVOK,,,,,,,,VFR,,,,,,,,,,,,METAR,438.0
SBCZ 200600Z 27003KT 9999 FEW003 SCT010 OVC100 25/25 Q1011,SBCZ,2023-05-20T06:00:00Z,-7.58,-72.77,25.0,25.0,270,3,,6.21,29.852362,,,,,,,,,,,FEW,300,SCT,1000,OVC,10000,,,VFR,,,,,,,,,,,,METAR,193.0
SBCY 200600Z 20002KT CAVOK 21/19 Q1013,SBCY,2023-05-20T06:00:00Z,-15.65,-56.12,21.0,19.0,200,2,,6.21,29.911417,,,,,,,,,,,CAVOK,,,,,,,,VFR,,,,,,,,,,,,METAR,182.0
SBCT 200600Z 09003KT 0900 R15/1200 R33/1200 FG VV001 11/10 Q1022,SBCT,2023-05-20T06:00:00Z,-25.52,-49.17,11.0,10.0,90,3,,0.56,30.177166,,,,,,,,,,FG,OVX,0,,,,,,,LIFR,,,,,,,,,,,100,METAR,914.0
SBCG 200600Z 07008KT CAVOK 19/13 Q1017,SBCG,2023-05-20T06:00:00Z,-20.47,-54.67,19.0,13.0,70,8,,6.21,30.029528,,,,,,,,,,,CAVOK,,,,,,,,VFR,,,,,,,,,,,,METAR,556.0
SBCF 200600Z 13006KT CAVOK 12/10 Q1021,SBCF,2023-05-20T06:00:00Z,-19.63,-43.97,12.0,10.0,130,6,,6.21,30.147638,,,,,,,,,,,CAVOK,,,,,,,,VFR,,,,,,,,,,,,METAR,825.0
SBBV 200600Z 03002KT CAVOK 25/23 Q1010,SBBV,2023-05-20T06:00:00Z,2.85,-60.7,25.0,23.0,30,2,,6.21,29.822834,,,,,,,,,,,CAVOK,,,,,,,,VFR,,,,,,,,,,,,METAR,80.0
SBBR 200600Z 27003KT CAVOK 13/08 Q1020,SBBR,2023-05-20T06:00:00Z,-15.87,-47.92,13.0,8.0,270,3,,6.21,30.11811,,,,,,,,,,,CAVOK,,,,,,,,VFR,,,,,,,,,,,,METAR,1051.0
SBBH 200600Z 10004KT CAVOK 12/07 Q1021,SBBH,2023-05-20T06:00:00Z,-19.85,-43.95,12.0,7.0,100,4,,6.21,30.147638,,,,,,,,,,,CAVOK,,,,,,,,VFR,,,,,,,,,,,,METAR,799.0
SBBG 200600Z AUTO 23002KT CAVOK 14/14 Q1017,SBBG,2023-05-20T06:00:00Z,-31.38,-54.12,14.0,14.0,230,2,,6.21,30.029528,,,TRUE,,,,,,,,CAVOK,,,,,,,,VFR,,,,,,,,,,,,METAR,182.0
SBBE 200600Z 10004KT CAVOK 24/23 Q1010,SBBE,2023-05-20T06:00:00Z,-1.37,-48.47,24.0,23.0,100,4,,6.21,29.822834,,,,,,,,,,,CAVOK,,,,,,,,VFR,,,,,,,,,,,,METAR,16.0
SBAR 200600Z 17010KT 140V200 9999 SCT035 BKN070 27/20 Q1014,SBAR,2023-05-20T06:00:00Z,-10.98,-37.07,27.0,20.0,170,10,,6.21,29.940945,,,,,,,,,,,SCT,3500,BKN,7000,,,,,VFR,,,,,,,,,,,,METAR,4.0
SBAN 200600Z 09006KT CAVOK 16/09 Q1020,SBAN,2023-05-20T06:00:00Z,-16.22,-48.97,16.0,9.0,90,6,,6.21,30.11811,,,,,,,,,,,CAVOK,,,,,,,,VFR,,,,,,,,,,,,METAR,1131.0
SAZS 200600Z 18006KT CAVOK M03/M06 Q1020 RMK PP///,SAZS,2023-05-20T06:00:00Z,-41.15,-71.17,-3.0,-6.0,180,6,,6.21,30.11811,,,,,,,,,,,CAVOK,,,,,,,,VFR,,,,,,,,,,,,METAR,843.0
SAZN 200600Z 00000KT CAVOK M01/M04 Q1024,SAZN,2023-05-20T06:00:00Z,-38.95,-68.15,-1.0,-4.0,0,0,,6.21,30.236221,,,,,,,,,,,CAVOK,,,,,,,,VFR,,,,,,,,,,,,METAR,273.0
SAWH 200600Z VRB02KT 9999 BKN045 04/M01 Q1000 RMK PP000,SAWH,2023-05-20T06:00:00Z,-54.85,-68.3,4.0,-1.0,0,2,,6.21,29.52756,,,,,,,,,,,BKN,4500,,,,,,,VFR,,,,,,,,,,,,METAR,22.0
SAWG 200600Z 33011KT CAVOK 03/M02 Q1005,SAWG,2023-05-20T06:00:00Z,-51.62,-69.27,3.0,-2.0,330,11,,6.21,29.675198,,,,,,,,,,,CAVOK,,,,,,,,VFR,,,,,,,,,,,,METAR,15.0
SAWE 200600Z 32012KT CAVOK 04/01 Q1004 RMK PP000,SAWE,2023-05-20T06:00:00Z,-53.78,-67.75,4.0,1.0,320,12,,6.21,29.64567,,,,,,,,,,,CAVOK,,,,,,,,VFR,,,,,,,,,,,,METAR,22.0
SAVC 200600Z 04005KT 350V070 CAVOK 04/M04 Q1019 RMK PP000,SAVC,2023-05-20T06:00:00Z,-45.78,-67.47,4.0,-4.0,40,5,,6.21,30.088583,,,,,,,,,,,CAVOK,,,,,,,,VFR,,,,,,,,,,,,METAR,58.0
SASJ 200600Z 31003KT 9999 SCT020 OVC030 19/17 Q1018 RMK PP000,SASJ,2023-05-20T06:00:00Z,-24.38,-65.1,19.0,17.0,310,3,,6.21,30.059055,,,,,,,,,,,SCT,2000,OVC,3000,,,,,MVFR,,,,,,,,,,,,METAR,913.0
SASA 200600Z 27001KT 9999 BKN030 16/15 Q1020 RMK PP000,SASA,2023-05-20T06:00:00Z,-24.85,-65.48,16.0,15.0,270,1,,6.21,30.11811,,,,,,,,,,,BKN,3000,,,,,,,MVFR,,,,,,,,,,,,METAR,1235.0
SARP 200600Z 14004KT CAVOK 18/16 Q1017,SARP,2023-05-20T06:00:00Z,-27.38,-55.97,18.0,16.0,140,4,,6.21,30.029528,,,,,,,,,,,CAVOK,,,,,,,,VFR,,,,,,,,,,,,METAR,123.0
SARL 200600Z 18008KT CAVOK 19/16 Q1017,SARL,2023-05-20T06:00:00Z,-29.68,-57.15,19.0,16.0,180,8,,6.21,30.029528,,,,,,,,,,,CAVOK,,,,,,,,VFR,,,,,,,,,,,,METAR,70.0
SARI 200600Z 04005KT CAVOK 15/14 Q1017 RMK PP000,SARI,2023-05-20T06:00:00Z,-25.73,-54.47,15.0,14.0,40,5,,6.21,30.029528,,,,,,,,,,,CAVOK,,,,,,,,VFR,,,,,,,,,,,,METAR,268.0
SARF 200600Z 07006KT CAVOK 22/17 Q1014,SARF,2023-05-20T06:00:00Z,-26.22,-58.22,22.0,17.0,70,6,,6.21,29.940945,,,,,,,,,,,CAVOK,,,,,,,,VFR,,,,,,,,,,,,METAR,65.0
SARE 200600Z 10003KT CAVOK 21/17 Q1014 RMK PP///,SARE,2023-05-20T06:00:00Z,-27.43,-59.05,21.0,17.0,100,3,,6.21,29.940945,,,,,,,,,,,CAVOK,,,,,,,,VFR,,,,,,,,,,,,METAR,52.0
SAOC 200600Z 23003KT 9000 BKN010 12/12 Q1023,SAOC,2023-05-20T06:00:00Z,-33.08,-64.27,12.0,12.0,230,3,,5.59,30.206694,,,,,,,,,,,BKN,1000,,,,,,,MVFR,,,,,,,,,,,,METAR,422.0
SANT 200600Z 22004KT 160V260 8000 BKN034 OVC097 19/17 Q1018 RMK PP000,SANT,2023-05-20T06:00:00Z,-26.85,-65.1,19.0,17.0,220,4,,4.97,30.059055,,,,,,,,,,,BKN,3400,OVC,9700,,,,,MVFR,,,,,,,,,,,,METAR,446.0
SAME 200600Z 18005KT 9999 SCT045 12/02 Q1024,SAME,2023-05-20T06:00:00Z,-32.82,-68.78,12.0,2.0,180,5,,6.21,30.236221,,,,,,,,,,,SCT,4500,,,,,,,VFR,,,,,,,,,,,,METAR,709.0
SAEZ 200600Z 20003KT 9999 BKN006 10/09 Q1021 NOSIG,SAEZ,2023-05-20T06:00:00Z,-34.82,-58.53,10.0,9.0,200,3,,6.21,30.147638,,,,,,TRUE,,,,,BKN,600,,,,,,,IFR,,,,,,,,,,,,METAR,16.0
SADF 200600Z 20009KT 9999 FEW009 BKN015 12/11 Q1020 RMK PP000,SADF,2023-05-20T06:00:00Z,-34.45,-58.58,12.0,11.0,200,9,,6.21,30.11811,,,,,,,,,,,FEW,900,BKN,1500,,,,,MVFR,,,,,,,,,,,,METAR,4.0
SACO 200600Z 18008KT 9999 BKN012 OVC019 14/12 Q1023 NOSIG RMK PP000,SACO,2023-05-20T06:00:00Z,-31.32,-64.22,14.0,12.0,180,8,,6.21,30.206694,,,,,,TRUE,,,,,BKN,1200,OVC,1900,,,,,MVFR,,,,,,,,,,,,METAR,474.0
SABE 200600Z 19006KT 140V250 9999 BKN010 13/11 Q1020 NOSIG RMK PP000,SABE,2023-05-20T06:00:00Z,-34.57,-58.42,13.0,11.0,190,6,,6.21,30.11811,,,,,,TRUE,,,,,BKN,1000,,,,,,,MVFR,,,,,,,,,,,,METAR,3.0
SAAR 200600Z 18012KT 9999 BKN004 OVC047 12/12 Q1021 RMK PP000,SAAR,2023-05-20T06:00:00Z,-32.92,-60.77,12.0,12.0,180,12,,6.21,30.147638,,,,,,,,,,,BKN,400,OVC,4700,,,,,LIFR,,,,,,,,,,,,METAR,24.0
RPVP 200600Z 15004KT 9999 -RA FEW019 OVC080 28/24 Q1010 RMK A2983,RPVP,2023-05-20T06:00:00Z,9.75,118.75,28.0,24.0,150,4,,6.21,29.822834,,,,,,,,,,-RA,FEW,1900,OVC,8000,,,,,VFR,,,,,,,,,,,,METAR,15.0
RPVM 200600Z 18006KT 9999 FEW018CB SCT300 32/25 Q1010 NOSIG RMK A2983 CB W-NW,RPVM,2023-05-20T06:00:00Z,10.32,123.98,32.0,25.0,180,6,,6.21,29.822834,,,,,,TRUE,,,,,FEW,1800,SCT,30000,,,,,VFR,,,,,,,,,,,,METAR,9.0
"RPVD 200600Z 14010KT 9999 VCSH FEW014CB 30/26 Q1010 RMK A2983 CB/VCSH N,NE,SE,SW,NW",RPVD,2023-05-20T06:00:00Z,9.33,123.3,30.0,26.0,140,10,,6.21,29.822834,,,,,,,,,,VCSH,FEW,1400,,,,,,,VFR,,,,,,,,,,,,METAR,11.0
RPMZ 200600Z 04003KT 360V100 9999 FEW016CB BKN090 29/25 Q1011 RMK A2985 CB NW-NE,RPMZ,2023-05-20T06:00:00Z,6.92,122.07,29.0,25.0,40,3,,6.21,29.852362,,,,,,,,,,,FEW,1600,BKN,9000,,,,,VFR,,,,,,,,,,,,METAR,8.0
RPMR 200600Z 14010KT 9000 VCSH VCSHRA FEW017CB BKN080 30/24 Q1011 RMK A2985 CB N-NW,RPMR,2023-05-20T06:00:00Z,6.05,125.1,30.0,24.0,140,10,,5.59,29.852362,,,,,,,,,,VCSH VCSHRA,FEW,1700,BKN,8000,,,,,VFR,,,,,,,,,,,,METAR,47.0
RPMD 200600Z 07004KT 030V100 9999 FEW015CB SCT090 OVC260 31/23 Q1010 RMK A2983 CB NW,RPMD,2023-05-20T06:00:00Z,7.12,125.65,31.0,23.0,70,4,,6.21,29.822834,,,,,,,,,,,FEW,1500,SCT,9000,OVC,26000,,,VFR,,,,,,,,,,,,METAR,19.0
RPLL 200600Z 23004KT 170V260 7000 SCT025 BKN100 31/26 Q1009 NOSIG RMK A2980,RPLL,2023-05-20T06:00:00Z,14.52,121.0,31.0,26.0,230,4,,4.35,29.793306,,,,,,TRUE,,,,,SCT,2500,BKN,10000,,,,,MVFR,,,,,,,,,,,,METAR,15.0
"RPLI 200600Z 31008KT 280V340 9999 FEW017CB 34/25 Q1008 NOSIG RMK A2977 CB NE-E,SE",RPLI,2023-05-20T06:00:00Z,18.17,120.52,34.0,25.0,310,8,,6.21,29.763779,,,,,,TRUE,,,,,FEW,1700,,,,,,,VFR,,,,,,,,,,,,METAR,5.0
RPLC 200600Z 16008KT 8000 SCT020 BKN100 32/24 Q1010 NOSIG RMK A2983,RPLC,2023-05-20T06:00:00Z,15.18,120.55,32.0,24.0,160,8,,4.97,29.822834,,,,,,TRUE,,,,,SCT,2000,BKN,10000,,,,,MVFR,,,,,,,,,,,,METAR,138.0
RPLB 200600Z 21009KT 9999 TS FEW018CB SCT020 BKN080 30/25 Q1010 RMK A2983 CB N,RPLB,2023-05-20T06:00:00Z,14.8,120.27,30.0,25.0,210,9,,6.21,29.822834,,,,,,,,,,TS,FEW,1800,SCT,2000,BKN,8000,,,VFR,,,,,,,,,,,,METAR,19.0
ROYN 200600Z AUTO 08008KT 040V120 9999 BKN019 BKN050 27/22 Q1010,ROYN,2023-05-20T06:00:00Z,24.47,122.97,27.0,22.0,80,8,,6.21,29.822834,,,TRUE,,,,,,,,BKN,1900,BKN,5000,,,,,MVFR,,,,,,,,,,,,METAR,21.0
RORY 200600Z AUTO 33012KT 9999 NCD 25/19 Q1010,RORY,2023-05-20T06:00:00Z,27.05,128.4,25.0,19.0,330,12,,6.21,29.822834,,,TRUE,,,,,,,,CLR,,,,,,,,VFR,,,,,,,,,,,,METAR,13.0
RORT 200600Z AUTO VRB04KT 9999 NCD 27/21 Q1010,RORT,2023-05-20T06:00:00Z,24.63,124.7,27.0,21.0,0,4,,6.21,29.822834,,,TRUE,,,,,,,,CLR,,,,,,,,VFR,,,,,,,,,,,,METAR,9.0
RORS 200600Z 02010KT 9999 FEW028 SCT/// 28/20 Q1010,RORS,2023-05-20T06:00:00Z,24.82,125.15,28.0,20.0,20,10,,6.21,29.822834,,,,,,,,,,,FEW,2800,,,,,,,VFR,,,,,,,,,,,,METAR,13.0
RORK 200600Z AUTO 29010KT 260V320 9999 SCT019 SCT024 26/21 Q1009,RORK,2023-05-20T06:00:00Z,25.93,131.32,26.0,21.0,290,10,,6.21,29.793306,,,TRUE,,,,,,,,SCT,1900,SCT,2400,,,,,VFR,,,,,,,,,,,,METAR,11.0
ROMY 200600Z 05006KT 350V150 9999 FEW027 BKN/// 26/20 Q1010,ROMY,2023-05-20T06:00:00Z,24.78,125.27,26.0,20.0,50,6,,6.21,29.822834,,,,,,,,,,,FEW,2700,,,,,,,VFR,,,,,,,,,,,,METAR,38.0
ROMD 200600Z AUTO 31010KT 280V350 9999 FEW020 26/20 Q1009,ROMD,2023-05-20T06:00:00Z,25.83,131.25,26.0,20.0,310,10,,6.21,29.793306,,,TRUE,,,,,,,,FEW,2000,,,,,,,VFR,,,,,,,,,,,,METAR,45.0
ROIG 200600Z 08006KT 040V130 9999 FEW018 27/22 Q1010,ROIG,2023-05-20T06:00:00Z,24.38,124.23,27.0,22.0,80,6,,6.21,29.822834,,,,,,,,,,,FEW,1800,,,,,,,VFR,,,,,,,,,,,,METAR,37.0
ROAH 200600Z 34010KT 9999 FEW026 SCT032 25/19 Q1010,ROAH,2023-05-20T06:00:00Z,26.18,127.65,25.0,19.0,340,10,,6.21,29.822834,,,,,,,,,,,FEW,2600,SCT,3200,,,,,VFR,,,,,,,,,,,,METAR,6.0
RKTU 200600Z 24008KT CAVOK 28/16 Q1009,RKTU,2023-05-20T06:00:00Z,36.7,127.5,28.0,16.0,240,8,,6.21,29.793306,,,,,,,,,,,CAVOK,,,,,,,,VFR,,,,,,,,,,,,METAR,46.0
RKTN 200600Z 36004KT 9999 FEW050 SCT200 28/11 Q1009,RKTN,2023-05-20T06:00:00Z,35.88,128.65,28.0,11.0,360,4,,6.21,29.793306,,,,,,,,,,,FEW,5000,SCT,20000,,,,,VFR,,,,,,,,,,,,METAR,25.0
RKSS 200600Z 23012KT 190V280 CAVOK 25/14 Q1010 NOSIG,RKSS,2023-05-20T06:00:00Z,37.55,126.78,25.0,14.0,230,12,,6.21,29.822834,,,,,,TRUE,,,,,CAVOK,,,,,,,,VFR,,,,,,,,,,,,METAR,18.0
RKSM 200600Z 25011KT 9999 FEW040 26/15 A2981,RKSM,2023-05-20T06:00:00Z,37.43,127.12,26.0,15.0,250,11,,6.21,29.811024,,,,,,,,,,,FEW,4000,,,,,,,VFR,,,,,,,,,,,,METAR,18.0
RKSI 200600Z 21011KT 190V250 CAVOK 21/13 Q1010 NOSIG,RKSI,2023-05-20T06:00:00Z,37.47,126.45,21.0,13.0,210,11,,6.21,29.822834,,,,,,TRUE,,,,,CAVOK,,,,,,,,VFR,,,,,,,,,,,,METAR,7.0
RKPK 200600Z 21009KT 9999 FEW030 SCT200 23/13 Q1010,RKPK,2023-05-20T06:00:00Z,35.17,128.93,23.0,13.0,210,9,,6.21,29.822834,,,,,,,,,,,FEW,3000,SCT,20000,,,,,VFR,,,,,,,,,,,,METAR,3.0
RKPC 200600Z 32007KT 9999 FEW025 SCT200 20/16 Q1012 NOSIG,RKPC,2023-05-20T06:00:00Z,33.5,126.48,20.0,16.0,320,7,,6.21,29.88189,,,,,,TRUE,,,,,FEW,2500,SCT,20000,,,,,VFR,,,,,,,,,,,,METAR,23.0
RKNY 200600Z 14009KT 120V180 CAVOK 21/13 Q1007 NOSIG,RKNY,2023-05-20T06:00:00Z,38.07,128.67,21.0,13.0,140,9,,6.21,29.734253,,,,,,TRUE,,,,,CAVOK,,,,,,,,VFR,,,,,,,,,,,,METAR,76.0
RKJB 200600Z 30009KT 9999 FEW030 22/16 Q1011 NOSIG,RKJB,2023-05-20T06:00:00Z,34.98,126.38,22.0,16.0,300,9,,6.21,29.852362,,,,,,TRUE,,,,,FEW,3000,,,,,,,VFR,,,,,,,,,,,,METAR,16.0
RJTT 200600Z 05013KT 9999 FEW025 BKN030 22/18 Q1008 NOSIG,RJTT,2023-05-20T06:00:00Z,35.55,139.77,22.0,18.0,50,13,,6.21,29.763779,,,,,,TRUE,,,,,FEW,2500,BKN,3000,,,,,MVFR,,,,,,,,,,,,METAR,5.0
RJTO 200600Z 03019KT 9999 FEW015 22/18 Q1007,RJTO,2023-05-20T06:00:00Z,34.77,139.37,22.0,18.0,30,19,,6.21,29.734253,,,,,,,,,,,FEW,1500,,,,,,,VFR,,,,,,,,,,,,METAR,37.0
RJTI 200600Z 06014KT 030V120 9999 FEW015 SCT020 BKN030 22/16 Q1008,RJTI,2023-05-20T06:00:00Z,35.63,139.83,22.0,16.0,60,14,,6.21,29.763779,,,,,,,,,,,FEW,1500,SCT,2000,BKN,3000,,,MVFR,,,,,,,,,,,,METAR,4.0
RJTF 200600Z 07006KT 030V100 9999 FEW015 SCT020 BKN030 22/17 Q1008,RJTF,2023-05-20T06:00:00Z,35.67,139.52,22.0,17.0,70,6,,6.21,29.763779,,,,,,,,,,,FEW,1500,SCT,2000,BKN,3000,,,MVFR,,,,,,,,,,,,METAR,37.0
RJSY 200600Z VRB04KT 9999 FEW030 25/16 Q1008,RJSY,2023-05-20T06:00:00Z,38.82,139.78,25.0,16.0,0,4,,6.21,29.763779,,,,,,,,,,,FEW,3000,,,,,,,VFR,,,,,,,,,,,,METAR,17.0
RJSS 200600Z 11004KT 060V170 9999 FEW020 SCT040 BKN050 17/13 Q1011,RJSS,2023-05-20T06:00:00Z,38.13,140.92,17.0,13.0,110,4,,6.21,29.852362,,,,,,,,,,,FEW,2000,SCT,4000,BKN,5000,,,VFR,,,,,,,,,,,,METAR,5.0
RJSR 200600Z 05007KT 350V080 9999 FEW030 21/13 Q1009,RJSR,2023-05-20T06:00:00Z,40.18,140.37,21.0,13.0,50,7,,6.21,29.793306,,,,,,,,,,,FEW,3000,,,,,,,VFR,,,,,,,,,,,,METAR,83.0
RJSN 200600Z 35012KT 9999 FEW030 20/16 Q1008,RJSN,2023-05-20T06:00:00Z,37.95,139.12,20.0,16.0,350,12,,6.21,29.763779,,,,,,,,,,,FEW,3000,,,,,,,VFR,,,,,,,,,,,,METAR,4.0
RJSM 200600Z 09011KT 9999 FEW005 BKN007 BKN020 13/10 Q1014,RJSM,2023-05-20T06:00:00Z,40.7,141.37,13.0,10.0,90,11,,6.21,29.940945,,,,,,,,,,,FEW,500,BKN,700,BKN,2000,,,IFR,,,,,,,,,,,,METAR,31.0
RJSK 200600Z 14007KT 060V190 9999 FEW030 25/14 Q1008,RJSK,2023-05-20T06:00:00Z,39.62,140.22,25.0,14.0,140,7,,6.21,29.763779,,,,,,,,,,,FEW,3000,,,,,,,VFR,,,,,,,,,,,,METAR,95.0
RJSI 200600Z 01006KT 340V050 9999 FEW030 BKN040 22/15 Q1009,RJSI,2023-05-20T06:00:00Z,39.42,141.13,22.0,15.0,10,6,,6.21,29.793306,,,,,,,,,,,FEW,3000,BKN,4000,,,,,VFR,,,,,,,,,,,,METAR,89.0
RJSF 200600Z 35013KT 9999 FEW015 SCT035 BKN100 19/15 Q1010,RJSF,2023-05-20T06:00:00Z,37.22,140.42,19.0,15.0,350,13,,6.21,29.822834,,,,,,,,,,,FEW,1500,SCT,3500,BKN,10000,,,VFR,,,,,,,,,,,,METAR,373.0
RJSC 200600Z 09011KT 9999 FEW025 SCT040 BKN050 22/14 Q1010,RJSC,2023-05-20T06:00:00Z,38.42,140.37,22.0,14.0,90,11,,6.21,29.822834,,,,,,,,,,,FEW,2500,SCT,4000,BKN,5000,,,VFR,,,,,,,,,,,,METAR,104.0
RJSA 200600Z 01010KT 330V050 9999 FEW015 19/11 Q1010,RJSA,2023-05-20T06:00:00Z,40.72,140.68,19.0,11.0,10,10,,6.21,29.822834,,,,,,,,,,,FEW,1500,,,,,,,VFR,,,,,,,,,,,,METAR,196.0
RJOY 200600Z 32010KT 290V010 9999 FEW025 BKN040 24/15 Q1008,RJOY,2023-05-20T06:00:00Z,34.6,135.6,24.0,15.0,320,10,,6.21,29.763779,,,,,,,,,,,FEW,2500,BKN,4000,,,,,VFR,,,,,,,,,,,,METAR,10.0
RJOW 200600Z 01007KT 330V050 9999 FEW010 SCT035 BKN/// 20/17 Q1010,RJOW,2023-05-20T06:00:00Z,34.67,131.8,20.0,17.0,10,7,,6.21,29.822834,,,,,,,,,,,FEW,1000,SCT,3500,,,,,VFR,,,,,,,,,,,,METAR,54.0
RJOT 200600Z 26004KT 9999 FEW025 BKN035 21/16 Q1010,RJOT,2023-05-20T06:00:00Z,34.22,134.02,21.0,16.0,260,4,,6.21,29.822834,,,,,,,,,,,FEW,2500,BKN,3500,,,,,VFR,,,,,,,,,,,,METAR,181.0
RJOS 200600Z 33011KT 9999 FEW030 BKN050 25/14 Q1008,RJOS,2023-05-20T06:00:00Z,34.12,134.62,25.0,14.0,330,11,,6.21,29.763779,,,,,,,,,,,FEW,3000,BKN,5000,,,,,VFR,,,,,,,,,,,,METAR,3.0
RJOR 200600Z 02005KT 9999 FEW015 SCT025 BKN035 18/15 Q1010,RJOR,2023-05-20T06:00:00Z,35.52,134.17,18.0,15.0,20,5,,6.21,29.822834,,,,,,,,,,,FEW,1500,SCT,2500,BKN,3500,,,VFR,,,,,,,,,,,,METAR,11.0
RJOO 200600Z 34015KT 9999 FEW020 SCT040 23/15 Q1008,RJOO,2023-05-20T06:00:00Z,34.78,135.43,23.0,15.0,340,15,,6.21,29.763779,,,,,,,,,,,FEW,2000,SCT,4000,,,,,VFR,,,,,,,,,,,,METAR,11.0
RJOM 200600Z 35012KT 9999 FEW030 SCT045 BKN/// 23/16 Q1008,RJOM,2023-05-20T06:00:00Z,33.82,132.68,23.0,16.0,350,12,,6.21,29.763779,,,,,,,,,,,FEW,3000,SCT,4500,,,,,VFR,,,,,,,,,,,,SPECI,3.0
RJOK 200600Z 14008KT 9999 FEW007 SCT010 BKN/// 22/19 Q1007,RJOK,2023-05-20T06:00:00Z,33.53,133.67,22.0,19.0,140,8,,6.21,29.734253,,,,,,,,,,,FEW,700,SCT,1000,,,,,VFR,,,,,,,,,,,,SPECI,7.0
RJOH 200600Z 07010KT 040V100 9999 FEW025 SCT270 20/15 Q1010,RJOH,2023-05-20T06:00:00Z,35.48,133.25,20.0,15.0,70,10,,6.21,29.822834,,,,,,,,,,,FEW,2500,SCT,27000,,,,,VFR,,,,,,,,,,,,METAR,6.0
RJOC 200600Z 08009KT 9999 FEW020 SCT025 BKN035 21/15 Q1010,RJOC,2023-05-20T06:00:00Z,35.42,132.88,21.0,15.0,80,9,,6.21,29.822834,,,,,,,,,,,FEW,2000,SCT,2500,BKN,3500,,,VFR,,,,,,,,,,,,METAR,2.0
RJOB 200600Z 34006KT 300V040 9999 FEW025 SCT035 BKN/// 23/16 Q1009,RJOB,2023-05-20T06:00:00Z,34.75,133.85,23.0,16.0,340,6,,6.21,29.793306,,,,,,,,,,,FEW,2500,SCT,3500,,,,,VFR,,,,,,,,,,,,SPECI,242.0
RJOA 200600Z 14005KT 090V190 9999 FEW020 SCT025 BKN035 21/16 Q1010,RJOA,2023-05-20T06:00:00Z,34.43,132.92,21.0,16.0,140,5,,6.21,29.822834,,,,,,,,,,,FEW,2000,SCT,2500,BKN,3500,,,VFR,,,,,,,,,,,,METAR,318.0
RJNW 200600Z 15004KT 090V220 9999 FEW008 SCT010 BKN015 18/16 Q1010,RJNW,2023-05-20T06:00:00Z,37.3,136.97,18.0,16.0,150,4,,6.21,29.822834,,,,,,,,,,,FEW,800,SCT,1000,BKN,1500,,,MVFR,,,,,,,,,,,,METAR,222.0
RJNT 200600Z 11004KT 060V190 9999 FEW010 SCT025 BKN030 21/16 Q1009,RJNT,2023-05-20T06:00:00Z,36.63,137.18,21.0,16.0,110,4,,6.21,29.793306,,,,,,,,,,,FEW,1000,SCT,2500,BKN,3000,,,MVFR,,,,,,,,,,,,METAR,30.0
RJNS 200600Z 08008KT 050V120 9999 FEW015 SCT050 24/17 Q1006,RJNS,2023-05-20T06:00:00Z,34.8,138.18,24.0,17.0,80,8,,6.21,29.704725,,,,,,,,,,,FEW,1500,SCT,5000,,,,,VFR,,,,,,,,,,,,METAR,133.0
RJNK 200600Z 36012KT 9999 FEW010 SCT060 20/16 Q1009,RJNK,2023-05-20T06:00:00Z,36.38,136.42,20.0,16.0,360,12,,6.21,29.793306,,,,,,,,,,,FEW,1000,SCT,6000,,,,,VFR,,,,,,,,,,,,METAR,7.0
RJKI 200600Z AUTO 33010KT 9999 FEW017 25/21 Q1008,RJKI,2023-05-20T06:00:00Z,28.32,129.92,25.0,21.0,330,10,,6.21,29.763779,,,TRUE,,,,,,,,FEW,1700,,,,,,,VFR,,,,,,,,,,,,METAR,6.0
RJKA 200600Z 31010KT 9999 FEW015 SCT025 26/19 Q1008,RJKA,2023-05-20T06:00:00Z,28.42,129.72,26.0,19.0,310,10,,6.21,29.763779,,,,,,,,,,,FEW,1500,SCT,2500,,,,,VFR,,,,,,,,,,,,METAR,7.0
RJGG 200600Z 32009KT 9999 FEW025 25/18 Q1006 NOSIG,RJGG,2023-05-20T06:00:00Z,34.87,136.8,25.0,18.0,320,9,,6.21,29.704725,,,,,,TRUE,,,,,FEW,2500,,,,,,,VFR,,,,,,,,,,,,METAR,5.0
RJFU 200600Z 32011KT 9999 FEW030 SCT/// 25/17 Q1008,RJFU,2023-05-20T06:00:00Z,32.92,129.92,25.0,17.0,320,11,,6.21,29.763779,,,,,,,,,,,FEW,3000,,,,,,,VFR,,,,,,,,,,,,SPECI,2.0
RJFT 200600Z VRB05KT 9999 FEW040 SCT/// 26/15 Q1008,RJFT,2023-05-20T06:00:00Z,32.83,130.85,26.0,15.0,0,5,,6.21,29.763779,,,,,,,,,,,FEW,4000,,,,,,,VFR,,,,,,,,,,,,SPECI,188.0
RJFS 200600Z 04011KT 360V070 9999 FEW035 SCT/// 25/17 Q1008,RJFS,2023-05-20T06:00:00Z,33.15,130.3,25.0,17.0,40,11,,6.21,29.763779,,,,,,,,,,,FEW,3500,,,,,,,VFR,,,,,,,,,,,,METAR,2.0
RJFR 200600Z 36008KT 9999 FEW030 24/16 Q1009,RJFR,2023-05-20T06:00:00Z,33.83,131.03,24.0,16.0,360,8,,6.21,29.793306,,,,,,,,,,,FEW,3000,,,,,,,VFR,,,,,,,,,,,,METAR,9.0
RJFO 200600Z 02011KT 9999 FEW020 BKN040 22/16 Q1008,RJFO,2023-05-20T06:00:00Z,33.47,131.73,22.0,16.0,20,11,,6.21,29.763779,,,,,,,,,,,FEW,2000,BKN,4000,,,,,VFR,,,,,,,,,,,,METAR,3.0
RJFM 200600Z 13007KT 9999 FEW025 SCT/// 23/17 Q1008,RJFM,2023-05-20T06:00:00Z,31.87,131.43,23.0,17.0,130,7,,6.21,29.763779,,,,,,,,,,,FEW,2500,,,,,,,VFR,,,,,,,,,,,,SPECI,10.0
RJFK 200600Z 21009KT 170V240 9999 FEW030 BKN060 25/19 Q1008,RJFK,2023-05-20T06:00:00Z,31.8,130.72,25.0,19.0,210,9,,6.21,29.763779,,,,,,,,,,,FEW,3000,BKN,6000,,,,,VFR,,,,,,,,,,,,METAR,271.0
RJFG 200600Z 10007KT 050V120 9999 FEW015 BKN/// 21/18 Q1009,RJFG,2023-05-20T06:00:00Z,30.62,130.98,21.0,18.0,100,7,,6.21,29.793306,,,,,,,,,,,FEW,1500,,,,,,,VFR,,,,,,,,,,,,SPECI,234.0
RJFF 200600Z 34011KT 9999 FEW020 SCT030 23/16 Q1009 NOSIG,RJFF,2023-05-20T06:00:00Z,33.58,130.45,23.0,16.0,340,11,,6.21,29.793306,,,,,,TRUE,,,,,FEW,2000,SCT,3000,,,,,VFR,,,,,,,,,,,,METAR,7.0
RJFE 200600Z 03007KT 350V080 9999 FEW020 BKN025 22/17 Q1009,RJFE,2023-05-20T06:00:00Z,32.67,128.82,22.0,17.0,30,7,,6.21,29.793306,,,,,,,,,,,FEW,2000,BKN,2500,,,,,MVFR,,,,,,,,,,,,METAR,80.0
RJEC 200600Z 19007KT 120V230 9999 FEW030 SCT070 BKN/// 23/06 Q1010,RJEC,2023-05-20T06:00:00Z,43.67,142.43,23.0,6.0,190,7,,6.21,29.822834,,,,,,,,,,,FEW,3000,SCT,7000,,,,,VFR,,,,,,,,,,,,SPECI,209.0
RJEB 200600Z 09009KT 040V110 9999 FEW002 BKN/// 10/09 Q1013,RJEB,2023-05-20T06:00:00Z,44.3,143.4,10.0,9.0,90,9,,6.21,29.911417,,,,,,,,,,,FEW,200,,,,,,,VFR,,,,,,,,,,,,SPECI,24.0
RJDT 200600Z 04009KT 360V090 9999 FEW015 BKN/// 20/16 Q1010,RJDT,2023-05-20T06:00:00Z,34.28,129.32,20.0,16.0,40,9,,6.21,29.822834,,,,,,,,,,,FEW,1500,,,,,,,VFR,,,,,,,,,,,,SPECI,61.0
RJDC 200600Z 17005KT 9999 FEW025 SCT035 24/17 Q1008,RJDC,2023-05-20T06:00:00Z,33.92,131.27,24.0,17.0,170,5,,6.21,29.763779,,,,,,,,,,,FEW,2500,SCT,3500,,,,,VFR,,,,,,,,,,,,METAR,5.0
RJDB 200600Z AUTO 03014KT 9999 NCD 21/17 Q1010,RJDB,2023-05-20T06:00:00Z,33.75,129.78,21.0,17.0,30,14,,6.21,29.822834,,,TRUE,,,,,,,,CLR,,,,,,,,VFR,,,,,,,,,,,,METAR,13.0
RJCW 200600Z 09011KT 9999 FEW010 BKN/// 13/07 Q1013,RJCW,2023-05-20T06:00:00Z,45.4,141.8,13.0,7.0,90,11,,6.21,29.911417,,,,,,,,,,,FEW,1000,,,,,,,VFR,,,,,,,,,,,,SPECI,11.0
RJCO 200600Z 14014KT 9999 FEW040 SCT200 23/09 Q1012,RJCO,2023-05-20T06:00:00Z,43.12,141.37,23.0,9.0,140,14,,6.21,29.88189,,,,,,,,,,,FEW,4000,SCT,20000,,,,,VFR,,,,,,,,,,,,METAR,7.0
RJCN 200600Z 07008KT 030V110 9999 FEW025 SCT/// 17/07 Q1014,RJCN,2023-05-20T06:00:00Z,43.57,144.97,17.0,7.0,70,8,,6.21,29.940945,,,,,,,,,,,FEW,2500,,,,,,,VFR,,,,,,,,,,,,SPECI,62.0
RJCM 200600Z 05008KT 010V090 9999 FEW040 18/07 Q1013,RJCM,2023-05-20T06:00:00Z,43.88,144.17,18.0,7.0,50,8,,6.21,29.911417,,,,,,,,,,,FEW,4000,,,,,,,VFR,,,,,,,,,,,,METAR,30.0
RJCK 200600Z 19009KT 9999 FEW040 SCT/// 13/07 Q1015,RJCK,2023-05-20T06:00:00Z,43.03,144.18,13.0,7.0,190,9,,6.21,29.970472,,,,,,,,,,,FEW,4000,,,,,,,VFR,,,,,,,,,,,,SPECI,94.0
RJCH 200600Z 13014KT 9999 FEW012 SCT030 15/09 Q1013,RJCH,2023-05-20T06:00:00Z,41.77,140.82,15.0,9.0,130,14,,6.21,29.911417,,,,,,,,,,,FEW,1200,SCT,3000,,,,,VFR,,,,,,,,,,,,METAR,36.0
RJCC 200600Z 17017KT 9999 FEW008 SCT/// 14/10 Q1013,RJCC,2023-05-20T06:00:00Z,42.77,141.68,14.0,10.0,170,17,,6.21,29.911417,,,,,,,,,,,FEW,800,,,,,,,VFR,,,,,,,,,,,,SPECI,19.0
RJCB 200600Z 15012KT 9999 FEW040 17/08 Q1014,RJCB,2023-05-20T06:00:00Z,42.72,143.22,17.0,8.0,150,12,,6.21,29.940945,,,,,,,,,,,FEW,4000,,,,,,,VFR,,,,,,,,,,,,METAR,149.0
RJBT 200600Z 34003KT 290V020 9999 FEW005 SCT010 BKN015 17/14 Q1011,RJBT,2023-05-20T06:00:00Z,35.5,134.8,17.0,14.0,340,3,,6.21,29.852362,,,,,,,,,,,FEW,500,SCT,1000,BKN,1500,,,MVFR,,,,,,,,,,,,METAR,172.0
RJBE 200600Z 35007KT 310V060 9999 FEW020 BKN035 23/15 Q1008,RJBE,2023-05-20T06:00:00Z,34.63,135.23,23.0,15.0,350,7,,6.21,29.763779,,,,,,,,,,,FEW,2000,BKN,3500,,,,,VFR,,,,,,,,,,,,METAR,5.0
RJBD 200600Z 30011KT 9999 FEW025 BKN050 25/17 Q1007,RJBD,2023-05-20T06:00:00Z,33.67,135.37,25.0,17.0,300,11,,6.21,29.734253,,,,,,,,,,,FEW,2500,BKN,5000,,,,,VFR,,,,,,,,,,,,METAR,91.0
RJBB 200600Z 35010KT 9999 FEW020 BKN040 21/17 Q1008 BECMG 31007KT,RJBB,2023-05-20T06:00:00Z,34.43,135.25,21.0,17.0,350,10,,6.21,29.763779,,,,,,,,,,,FEW,2000,BKN,4000,,,,,VFR,,,,,,,,,,,,METAR,8.0
RJAW 200600Z 25012KT 9999 FEW010 SCT100 27/23 Q1010 RMK 1CU010 3AC100 A2983 WIND BY EQPT/25,RJAW,2023-05-20T06:00:00Z,24.78,141.32,27.0,23.0,250,12,,6.21,29.822834,,,,,,,,,,,FEW,1000,SCT,10000,,,,,VFR,,,,,,,,,,,,SPECI,116.0
RJAH 200600Z 06015KT 9999 FEW010 SCT015 BKN030 19/16 Q1008,RJAH,2023-05-20T06:00:00Z,36.17,140.42,19.0,16.0,60,15,,6.21,29.763779,,,,,,,,,,,FEW,1000,SCT,1500,BKN,3000,,,MVFR,,,,,,,,,,,,METAR,31.0
RJAF 200600Z 33009KT 290V350 9999 FEW050 25/14 Q1008,RJAF,2023-05-20T06:00:00Z,36.17,137.92,25.0,14.0,330,9,,6.21,29.763779,,,,,,,,,,,FEW,5000,,,,,,,VFR,,,,,,,,,,,,METAR,652.0
RJAA 200600Z 03018KT 9999 FEW018 BKN025 20/16 Q1008 TEMPO 03016G26KT,RJAA,2023-05-20T06:00:00Z,35.77,140.38,20.0,16.0,30,18,,6.21,29.763779,,,,,,,,,,,FEW,1800,BKN,2500,,,,,MVFR,,,,,,,,,,,,SPECI,36.0
RCTP 200600Z 07005KT 030V100 9999 FEW005 BKN017 25/23 Q1010 NOSIG RMK A2984,RCTP,2023-05-20T06:00:00Z,25.07,121.22,25.0,23.0,70,5,,6.21,29.822834,,,,,,TRUE,,,,,FEW,500,BKN,1700,,,,,MVFR,,,,,,,,,,,,METAR,33.0
RCNN 200600Z 24009KT 9999 VCSH FEW010 FEW016TCU BKN018 BKN120 29/25 Q1009 NOSIG RMK A2981 VCSH S TCU E,RCNN,2023-05-20T06:00:00Z,22.93,120.2,29.0,25.0,240,9,,6.21,29.793306,,,,,,TRUE,,,,VCSH,FEW,1000,FEW,1600,BKN,1800,BKN,12000,MVFR,,,,,,,,,,,,METAR,15.0
RCMQ 200600Z 31008KT 4800 BR FEW010 FEW012CB BKN020 29/25 Q1010 NOSIG RMK A2983 CB E,RCMQ,2023-05-20T06:00:00Z,24.27,120.62,29.0,25.0,310,8,,2.98,29.822834,,,,,,TRUE,,,,BR,FEW,1000,FEW,1200,BKN,2000,,,IFR,,,,,,,,,,,,METAR,202.0
PLCH 200600Z 10006KT 9999 FEW020 27/25 Q1009,PLCH,2023-05-20T06:00:00Z,1.98,-157.35,27.0,25.0,100,6,,6.21,29.793306,,,,,,,,,,,FEW,2000,,,,,,,VFR,,,,,,,,,,,,METAR,5.0
OTHH 200600Z 35008KT CAVOK 34/18 Q1008 NOSIG,OTHH,2023-05-20T06:00:00Z,25.27,51.6,34.0,18.0,350,8,,6.21,29.763779,,,,,,TRUE,,,,,CAVOK,,,,,,,,VFR,,,,,,,,,,,,METAR,3.0
OTBD 200600Z 34008KT CAVOK 35/16 Q1008 NOSIG,OTBD,2023-05-20T06:00:00Z,25.25,51.57,35.0,16.0,340,8,,6.21,29.763779,,,,,,TRUE,,,,,CAVOK,,,,,,,,VFR,,,,,,,,,,,,METAR,13.0
OSLK 200600Z 19010KT 6000 SCT026 CB BKN030 20/16 Q1010,OSLK,2023-05-20T06:00:00Z,35.4,35.95,20.0,16.0,190,10,,3.73,29.822834,,,,,,,,,,,SCT,2600,BKN,3000,,,,,MVFR,,,,,,,,,,,,SPECI,47.0
OSKL 200600Z 05022KT 6000 SCT026 BKN100 19/12 Q1010,OSKL,2023-05-20T06:00:00Z,37.03,41.2,19.0,12.0,50,22,,3.73,29.822834,,,,,,,,,,,SCT,2600,BKN,10000,,,,,MVFR,,,,,,,,,,,,SPECI,443.0
OSDI 200600Z 24006KT 9999 FEW030 SCT100 17/10 Q1012,OSDI,2023-05-20T06:00:00Z,33.42,36.52,17.0,10.0,240,6,,6.21,29.88189,,,,,,,,,,,FEW,3000,SCT,10000,,,,,VFR,,,,,,,,,,,,SPECI,614.0
OSAP 200600Z 25010KT CAVOK 21/13 Q1011,OSAP,2023-05-20T06:00:00Z,36.17,37.22,21.0,13.0,250,10,,6.21,29.852362,,,,,,,,,,,CAVOK,,,,,,,,VFR,,,,,,,,,,,,SPECI,390.0
ORSU 200600Z 33012KT 6000 TSRA FEW035CB BKN040 BKN080 18/15 Q10 14,ORSU,2023-05-20T06:00:00Z,35.57,45.32,18.0,15.0,330,12,,3.73,,,,,,,,,,,TSRA,FEW,3500,BKN,4000,BKN,8000,,,MVFR,,,,,,,,,,,,METAR,760.0
ORNI 200600Z 19008KT 5000 DU BKN030 32/13 Q1004,ORNI,2023-05-20T06:00:00Z,31.98,44.4,32.0,13.0,190,8,,3.11,29.64567,,,,,,,,,,DU,BKN,3000,,,,,,,MVFR,,,,,,,,,,,,METAR,33.0
ORMM 200600Z 12020KT 8000 SCT040 SCT100 35/14 Q1005 NOSIG,ORMM,2023-05-20T06:00:00Z,30.53,47.67,35.0,14.0,120,20,,4.97,29.675198,,,,,,TRUE,,,,,SCT,4000,SCT,10000,,,,,MVFR,,,,,,,,,,,,METAR,2.0
ORER 200600Z 28012KT 6000 -TSRA FEW025CB SCT040 BKN090 21/15 Q1012,ORER,2023-05-20T06:00:00Z,36.23,43.97,21.0,15.0,280,12,,3.73,29.88189,,,,,,,,,,-TSRA,FEW,2500,SCT,4000,BKN,9000,,,MVFR,,,,,,,,,,,,METAR,399.0
ORBI 200600Z 15013KT 5000 DU BKN030 33/15 Q1004,ORBI,2023-05-20T06:00:00Z,33.27,44.23,33.0,15.0,150,13,,3.11,29.64567,,,,,,,,,,DU,BKN,3000,,,,,,,MVFR,,,,,,,,,,,,METAR,37.0
OPST 200600Z 27004KT 5000 HZ NSC 35/13 Q1005 NOSIG 28%,OPST,2023-05-20T06:00:00Z,32.53,74.37,35.0,13.0,270,4,,3.11,29.675198,,,,,,TRUE,,,,HZ,CLR,,,,,,,,MVFR,,,,,,,,,,,,METAR,234.0
OPSK 200600Z 18010KT 5000 HZ NSC 39/22 Q1003 NOSIG,OPSK,2023-05-20T06:00:00Z,27.72,68.8,39.0,22.0,180,10,,3.11,29.616142,,,,,,TRUE,,,,HZ,CLR,,,,,,,,MVFR,,,,,,,,,,,,METAR,62.0
OPPS 200600Z 36010KT 8000 HZ FEW200 36/12 Q1006,OPPS,2023-05-20T06:00:00Z,33.98,71.52,36.0,12.0,360,10,,4.97,29.704725,,,,,,,,,,HZ,FEW,20000,,,,,,,MVFR,,,,,,,,,,,,METAR,356.0
OPNH 200600Z 18010KT 6000 NSC 37/22 Q1005,OPNH,2023-05-20T06:00:00Z,26.22,68.38,37.0,22.0,180,10,,3.73,29.675198,,,,,,,,,,,CLR,,,,,,,,MVFR,,,,,,,,,,,,METAR,30.0
OPMT 200600Z 31006KT 5000 HZ NSC 36/21 Q1003 NOSIG,OPMT,2023-05-20T06:00:00Z,30.2,71.42,36.0,21.0,310,6,,3.11,29.616142,,,,,,TRUE,,,,HZ,CLR,,,,,,,,MVFR,,,,,,,,,,,,METAR,122.0
OPKC 200600Z 26010KT 6000 FEW020 34/22 Q1009 NOSIG,OPKC,2023-05-20T06:00:00Z,24.9,67.13,34.0,22.0,260,10,,3.73,29.793306,,,,,,TRUE,,,,,FEW,2000,,,,,,,MVFR,,,,,,,,,,,,METAR,20.0
OPIS 200600Z 31014KT 7000 NSC 35/11 Q1007 NOSIG,OPIS,2023-05-20T06:00:00Z,33.55,72.83,35.0,11.0,310,14,,4.35,29.734253,,,,,,TRUE,,,,,CLR,,,,,,,,MVFR,,,,,,,,,,,,METAR,542.0
OPFA 200600Z 23004KT 5000 HZ NSC 38/18 Q1005 NOSIG,OPFA,2023-05-20T06:00:00Z,31.37,73.0,38.0,18.0,230,4,,3.11,29.675198,,,,,,TRUE,,,,HZ,CLR,,,,,,,,MVFR,,,,,,,,,,,,METAR,180.0
OMSJ 200600Z 26006KT 190V350 CAVOK 37/12 Q1008 NOSIG,OMSJ,2023-05-20T06:00:00Z,25.32,55.52,37.0,12.0,260,6,,6.21,29.763779,,,,,,TRUE,,,,,CAVOK,,,,,,,,VFR,,,,,,,,,,,,METAR,33.0
OMRK 200600Z 36012KT 330V030 CAVOK 37/15 Q1008 A2978,OMRK,2023-05-20T06:00:00Z,25.62,55.93,37.0,15.0,360,12,,6.21,29.763779,,,,,,,,,,,CAVOK,,,,,,,,VFR,,,,,,,,,,,,METAR,18.0
OMFJ 200600Z 09008KT 060V120 7000 NSC 30/25 Q1007 A2976,OMFJ,2023-05-20T06:00:00Z,25.1,56.32,30.0,25.0,90,8,,4.35,29.734253,,,,,,,,,,,CLR,,,,,,,,MVFR,,,,,,,,,,,,METAR,27.0
OMDW 200600Z 20018KT 5000 BLDU NSC 41/12 Q1007 TEMPO 3000,OMDW,2023-05-20T06:00:00Z,24.9,55.17,41.0,12.0,200,18,,3.11,29.734253,,,,,,,,,,BLDU,CLR,,,,,,,,MVFR,,,,,,,,,,,,METAR,34.0
OMAL 200600Z 17015KT CAVOK 38/16 Q1010 NOSIG,OMAL,2023-05-20T06:00:00Z,24.25,55.6,38.0,16.0,170,15,,6.21,29.822834,,,,,,TRUE,,,,,CAVOK,,,,,,,,VFR,,,,,,,,,,,,METAR,247.0
OMAD 200600Z 18005KT 130V260 CAVOK 40/08 Q1007 NOSIG,OMAD,2023-05-20T06:00:00Z,24.42,54.47,40.0,8.0,180,5,,6.21,29.734253,,,,,,TRUE,,,,,CAVOK,,,,,,,,VFR,,,,,,,,,,,,METAR,9.0
OMAA 200600Z 18010KT CAVOK 40/08 Q1007 NOSIG,OMAA,2023-05-20T06:00:00Z,24.42,54.65,40.0,8.0,180,10,,6.21,29.734253,,,,,,TRUE,,,,,CAVOK,,,,,,,,VFR,,,,,,,,,,,,METAR,13.0
OLBA 200600Z 20011KT 7000 BKN026 22/14 Q1012 NOSIG,OLBA,2023-05-20T06:00:00Z,33.82,35.48,22.0,14.0,200,11,,4.35,29.88189,,,,,,TRUE,,,,,BKN,2600,,,,,,,MVFR,,,,,,,,,,,,METAR,29.0
OKKK 200600Z 12017KT 8000 BLDU SCT040 BKN080 34/14 Q1007 NOSIG,OKKK,2023-05-20T06:00:00Z,,,34.0,14.0,120,17,,4.97,29.734253,,,,,,TRUE,,,,BLDU,SCT,4000,BKN,8000,,,,,MVFR,,,,,,,,,,,,METAR,
OJAQ 200600Z 36005KT 5000 HZ NSC 21/11 Q1012 NOSIG,OJAQ,2023-05-20T06:00:00Z,29.62,35.02,21.0,11.0,360,5,,3.11,29.88189,,,,,,TRUE,,,,HZ,CLR,,,,,,,,MVFR,,,,,,,,,,,,METAR,45.0
OJAM 200600Z 26009KT 6000 SCT030 17/09 Q1014 NOSIG,OJAM,2023-05-20T06:00:00Z,31.98,35.98,17.0,9.0,260,9,,3.73,29.940945,,,,,,TRUE,,,,,SCT,3000,,,,,,,MVFR,,,,,,,,,,,,METAR,765.0
OJAI 200600Z 28013KT 5000 HZ FEW030 16/09 Q1014 NOSIG,OJAI,2023-05-20T06:00:00Z,31.72,36.0,16.0,9.0,280,13,,3.11,29.940945,,,,,,TRUE,,,,HZ,FEW,3000,,,,,,,MVFR,,,,,,,,,,,,METAR,723.0
OIZJ 200600Z 13010KT 5000 BR NSC 30/29 Q1006,OIZJ,2023-05-20T06:00:00Z,25.65,57.8,30.0,29.0,130,10,,3.11,29.704725,,,,,,,,,,BR,CLR,,,,,,,,MVFR,,,,,,,,,,,,METAR,6.0
OIZI 200600Z 00000KT CAVOK 37/08 Q1011,OIZI,2023-05-20T06:00:00Z,27.23,60.72,37.0,8.0,0,0,,6.21,29.852362,,,,,,,,,,,CAVOK,,,,,,,,VFR,,,,,,,,,,,,METAR,622.0
OIZH 200600Z 02006KT CAVOK 32/M01 Q1017 A3003 NOSIG,OIZH,2023-05-20T06:00:00Z,29.47,60.92,32.0,-1.0,20,6,,6.21,30.029528,,,,,,TRUE,,,,,CAVOK,,,,,,,,VFR,,,,,,,,,,,,METAR,1378.0
OIZC 200600Z 13008KT 4000 HZ SCT170 35/24 Q1006 A2973,OIZC,2023-05-20T06:00:00Z,25.45,60.38,35.0,24.0,130,8,,2.49,29.704725,,,,,,,,,,HZ,SCT,17000,,,,,,,IFR,,,,,,,,,,,,METAR,13.0
OIZB 200600Z 34018KT CAVOK 38/02 Q1009,OIZB,2023-05-20T06:00:00Z,31.1,61.55,38.0,2.0,340,18,,6.21,29.793306,,,,,,,,,,,CAVOK,,,,,,,,VFR,,,,,,,,,,,,METAR,483.0
OIYY 200600Z 02004KT 9999 FEW035 SCT090 28/07 Q1015 NOSIG,OIYY,2023-05-20T06:00:00Z,31.9,54.28,28.0,7.0,20,4,,6.21,29.970472,,,,,,TRUE,,,,,FEW,3500,SCT,9000,,,,,VFR,,,,,,,,,,,,METAR,1226.0
OITZ 200600Z 35004KT 9999 FEW035 SCT130 BKN160 18/08 Q1017 A3005,OITZ,2023-05-20T06:00:00Z,36.77,48.37,18.0,8.0,350,4,,6.21,30.029528,,,,,,,,,,,FEW,3500,SCT,13000,BKN,16000,,,VFR,,,,,,,,,,,,METAR,1630.0
OITT 200600Z 16002KT 5000 RA BR SCT010 SCT032CB OVC080 12/11 Q1020 A3012,OITT,2023-05-20T06:00:00Z,38.13,46.23,12.0,11.0,160,2,,3.11,30.11811,,,,,,,,,,RA BR,SCT,1000,SCT,3200,OVC,8000,,,MVFR,,,,,,,,,,,,METAR,1353.0
OITR 200600Z 06004KT 8000 -RA FEW015 SCT030CB OVC070 11/10 Q1017 A3005 TEMPO 5000 RA,OITR,2023-05-20T06:00:00Z,37.67,45.07,11.0,10.0,60,4,,4.97,30.029528,,,,,,,,,,-RA,FEW,1500,SCT,3000,OVC,7000,,,MVFR,,,,,,,,,,,,SPECI,1312.0
OITP 200600Z 12006KT 9999 BKN035 BKN180 20/19 Q1013,OITP,2023-05-20T06:00:00Z,39.6,47.88,20.0,19.0,120,6,,6.21,29.911417,,,,,,,,,,,BKN,3500,BKN,18000,,,,,VFR,,,,,,,,,,,,METAR,72.0
OITM 200600Z 06004KT 9999 FEW022 BKN080 BKN170 17/09 Q1016 RERA,OITM,2023-05-20T06:00:00Z,37.35,46.15,17.0,9.0,60,4,,6.21,30.0,,,,,,,,,,,FEW,2200,BKN,8000,BKN,17000,,,VFR,,,,,,,,,,,,METAR,1340.0
OITL 200600Z VRB02KT 9999 FEW040 BKN180 18/11 Q1016 NOSIG,OITL,2023-05-20T06:00:00Z,38.33,48.42,18.0,11.0,0,2,,6.21,30.0,,,,,,TRUE,,,,,FEW,4000,BKN,18000,,,,,VFR,,,,,,,,,,,,METAR,1314.0
OISY 200600Z 00000KT 9999 FEW035 19/10 Q1024,OISY,2023-05-20T06:00:00Z,30.7,51.55,19.0,10.0,0,0,,6.21,30.236221,,,,,,,,,,,FEW,3500,,,,,,,VFR,,,,,,,,,,,,METAR,1800.0
OISS 200600Z 00000KT 9999 FEW040TCU SCT100 25/09 Q1019 A3010,OISS,2023-05-20T06:00:00Z,29.53,52.58,25.0,9.0,0,0,,6.21,30.088583,,,,,,,,,,,FEW,4000,SCT,10000,,,,,VFR,,,,,,,,,,,,METAR,1484.0
OISR 200600Z 30006KT 9999 FEW040 SCT200 34/16 Q1012 A2989 NOSIG,OISR,2023-05-20T06:00:00Z,27.37,53.2,34.0,16.0,300,6,,6.21,29.88189,,,,,,TRUE,,,,,FEW,4000,SCT,20000,,,,,VFR,,,,,,,,,,,,METAR,402.0
OISL 200600Z 26008KT 9999 FEW035CB SCT040 34/10 Q1012 A2991 NOSIG,OISL,2023-05-20T06:00:00Z,27.67,54.37,34.0,10.0,260,8,,6.21,29.88189,,,,,,TRUE,,,,,FEW,3500,SCT,4000,,,,,VFR,,,,,,,,,,,,METAR,804.0
OISF 200600Z 17010KT 8000 FEW035 29/07 Q1018 A3006,OISF,2023-05-20T06:00:00Z,28.9,53.72,29.0,7.0,170,10,,4.97,30.059055,,,,,,,,,,,FEW,3500,,,,,,,MVFR,,,,,,,,,,,,METAR,1305.0
OINZ 200600Z 24004KT CAVOK 24/15 Q1013,OINZ,2023-05-20T06:00:00Z,36.63,53.2,24.0,15.0,240,4,,6.21,29.911417,,,,,,,,,,,CAVOK,,,,,,,,VFR,,,,,,,,,,,,METAR,8.0
OINR 200600Z 02006KT 9999 FEW020TCU SCT190 21/17 Q1012,OINR,2023-05-20T06:00:00Z,36.9,50.67,21.0,17.0,20,6,,6.21,29.88189,,,,,,,,,,,FEW,2000,SCT,19000,,,,,VFR,,,,,,,,,,,,METAR,-19.0
OINN 200600Z 36004KT CAVOK 22/13 Q1012,OINN,2023-05-20T06:00:00Z,36.67,51.47,22.0,13.0,360,4,,6.21,29.88189,,,,,,,,,,,CAVOK,,,,,,,,VFR,,,,,,,,,,,,METAR,-25.0
OING 200600Z 00000KT 9999 FEW035 25/15 Q1014 NOSIG,OING,2023-05-20T06:00:00Z,36.9,54.4,25.0,15.0,0,0,,6.21,29.940945,,,,,,TRUE,,,,,FEW,3500,,,,,,,VFR,,,,,,,,,,,,METAR,0.0
OINE 200600Z 00000KT 7000 BKN020 23/16 Q1013,OINE,2023-05-20T06:00:00Z,37.38,55.45,23.0,16.0,0,0,,4.35,29.911417,,,,,,,,,,,BKN,2000,,,,,,,MVFR,,,,,,,,,,,,METAR,125.0
OIMS 200600Z 09016KT CAVOK 30/01 Q1015,OIMS,2023-05-20T06:00:00Z,36.17,57.6,30.0,1.0,90,16,,6.21,29.970472,,,,,,,,,,,CAVOK,,,,,,,,VFR,,,,,,,,,,,,METAR,920.0
OIMN 200600Z 00000KT CAVOK 24/08 Q1017,OIMN,2023-05-20T06:00:00Z,37.48,57.3,24.0,8.0,0,0,,6.21,30.029528,,,,,,,,,,,CAVOK,,,,,,,,VFR,,,,,,,,,,,,METAR,1065.0
OIMM 200600Z 35004KT 9999 FEW040 BKN200 28/10 Q1017 A3004,OIMM,2023-05-20T06:00:00Z,36.23,59.63,28.0,10.0,350,4,,6.21,30.029528,,,,,,,,,,,FEW,4000,BKN,20000,,,,,VFR,,,,,,,,,,,,METAR,995.0
OIMJ 200600Z 06014KT CAVOK 26/03 Q1016,OIMJ,2023-05-20T06:00:00Z,36.43,55.1,26.0,3.0,60,14,,6.21,30.0,,,,,,,,,,,CAVOK,,,,,,,,VFR,,,,,,,,,,,,METAR,1285.0
OIMB 200600Z 00000KT 9999 FEW035CB SCT040 BKN090 27/M05 Q1018 A3009,OIMB,2023-05-20T06:00:00Z,32.9,59.28,27.0,-5.0,0,0,,6.21,30.059055,,,,,,,,,,,FEW,3500,SCT,4000,BKN,9000,,,VFR,,,,,,,,,,,,METAR,1512.0
OIKQ 200600Z 21010KT 7000 FEW030 SCT100 34/27 Q1007 NOSIG,OIKQ,2023-05-20T06:00:00Z,26.75,55.9,34.0,27.0,210,10,,4.35,29.734253,,,,,,TRUE,,,,,FEW,3000,SCT,10000,,,,,MVFR,,,,,,,,,,,,METAR,9.0
OIKK 200600Z 23012KT 9999 FEW045 BKN200 28/05 Q1019 A3012,OIKK,2023-05-20T06:00:00Z,30.25,56.97,28.0,5.0,230,12,,6.21,30.088583,,,,,,,,,,,FEW,4500,BKN,20000,,,,,VFR,,,,,,,,,,,,METAR,1749.0
OIKB 200600Z 24008KT 5000 HZ SCT090 36/18 Q1007 A2974 NOSIG,OIKB,2023-05-20T06:00:00Z,27.22,56.37,36.0,18.0,240,8,,3.11,29.734253,,,,,,TRUE,,,,HZ,SCT,9000,,,,,,,MVFR,,,,,,,,,,,,METAR,6.0
OIIP 200600Z 28006KT 8000 NSC 25/07 Q1014 A2995,OIIP,2023-05-20T06:00:00Z,35.78,50.83,25.0,7.0,280,6,,4.97,29.940945,,,,,,,,,,,CLR,,,,,,,,MVFR,,,,,,,,,,,,METAR,1270.0
OIIK 200600Z 18004KT CAVOK 23/11 Q1015,OIIK,2023-05-20T06:00:00Z,36.25,50.05,23.0,11.0,180,4,,6.21,29.970472,,,,,,,,,,,CAVOK,,,,,,,,VFR,,,,,,,,,,,,METAR,1278.0
OIII 200600Z 10006KT 9999 FEW100 BKN190 30/M03 Q1014 A2995 NOSIG,OIII,2023-05-20T06:00:00Z,35.68,51.3,30.0,-3.0,100,6,,6.21,29.940945,,,,,,TRUE,,,,,FEW,10000,BKN,19000,,,,,VFR,,,,,,,,,,,,METAR,1182.0
OIIE 200600Z 33006KT 9999 FEW040 SCT100 BKN180 28/03 Q1013,OIIE,2023-05-20T06:00:00Z,35.42,51.15,28.0,3.0,330,6,,6.21,29.911417,,,,,,,,,,,FEW,4000,SCT,10000,BKN,18000,,,VFR,,,,,,,,,,,,METAR,993.0
OIHR 200600Z 33008KT 7000 FEW035 BKN190 24/05 Q1017,OIHR,2023-05-20T06:00:00Z,34.13,49.85,24.0,5.0,330,8,,4.35,30.029528,,,,,,,,,,,FEW,3500,BKN,19000,,,,,MVFR,,,,,,,,,,,,METAR,1658.0
OIHH 200600Z 33004KT 9999 SCT040 21/04 Q1018 A3007,OIHH,2023-05-20T06:00:00Z,34.87,48.55,21.0,4.0,330,4,,6.21,30.059055,,,,,,,,,,,SCT,4000,,,,,,,VFR,,,,,,,,,,,,METAR,1742.0
OIGG 200600Z 05004KT CAVOK 21/17 Q1013,OIGG,2023-05-20T06:00:00Z,37.33,49.6,21.0,17.0,50,4,,6.21,29.911417,,,,,,,,,,,CAVOK,,,,,,,,VFR,,,,,,,,,,,,METAR,-16.0
OIFS 200600Z 15004KT 9999 FEW040 21/04 Q1021,OIFS,2023-05-20T06:00:00Z,32.28,50.85,21.0,4.0,150,4,,6.21,30.147638,,,,,,,,,,,FEW,4000,,,,,,,VFR,,,,,,,,,,,,METAR,2042.0
OIFM 200600Z 25004KT CAVOK 24/05 Q1018 A3007,OIFM,2023-05-20T06:00:00Z,32.75,51.87,24.0,5.0,250,4,,6.21,30.059055,,,,,,,,,,,CAVOK,,,,,,,,VFR,,,,,,,,,,,,METAR,1539.0
OICS 200600Z 18004KT 7000 NSC 21/07 Q1015 A3000,OICS,2023-05-20T06:00:00Z,35.25,47.02,21.0,7.0,180,4,,4.35,29.970472,,,,,,,,,,,CLR,,,,,,,,MVFR,,,,,,,,,,,,METAR,1369.0
OICK 200600Z 00000KT 5000 DU NSC 27/09 Q1015 A2999,OICK,2023-05-20T06:00:00Z,33.43,48.28,27.0,9.0,0,0,,3.11,29.970472,,,,,,,,,,DU,CLR,,,,,,,,MVFR,,,,,,,,,,,,METAR,1156.0
OICI 200600Z 13010KT 8000 FEW035CB SCT040 OVC090 25/08 Q1016 A3001,OICI,2023-05-20T06:00:00Z,33.58,46.4,25.0,8.0,130,10,,4.97,30.0,,,,,,,,,,,FEW,3500,SCT,4000,OVC,9000,,,MVFR,,,,,,,,,,,,METAR,1323.0
OICC 200600Z 10010KT 7000 FEW050 BKN170 25/06 Q1016 A3001,OICC,2023-05-20T06:00:00Z,34.35,47.17,25.0,6.0,100,10,,4.35,30.0,,,,,,,,,,,FEW,5000,BKN,17000,,,,,MVFR,,,,,,,,,,,,METAR,1310.0
OIBV 200600Z 28012KT 8000 FEW025CB SCT030 BKN090 35/17 Q1007,OIBV,2023-05-20T06:00:00Z,26.82,53.35,35.0,17.0,280,12,,4.97,29.734253,,,,,,,,,,,FEW,2500,SCT,3000,BKN,9000,,,MVFR,,,,,,,,,,,,METAR,23.0
OIBS 200600Z 14004KT 4000 HZ FEW030 BKN100 31/25 Q1008,OIBS,2023-05-20T06:00:00Z,25.9,54.55,31.0,25.0,140,4,,2.49,29.763779,,,,,,,,,,HZ,FEW,3000,BKN,10000,,,,,IFR,,,,,,,,,,,,METAR,4.0
OIBQ 200600Z 17004KT 9999 SCT040 BKN090 34/15 Q1007,OIBQ,2023-05-20T06:00:00Z,29.27,50.32,34.0,15.0,170,4,,6.21,29.734253,,,,,,,,,,,SCT,4000,BKN,9000,,,,,VFR,,,,,,,,,,,,METAR,3.0
OIBP 200600Z 19006KT 9999 SCT040 39/16 Q1007 A2975,OIBP,2023-05-20T06:00:00Z,27.38,52.73,39.0,16.0,190,6,,6.21,29.734253,,,,,,,,,,,SCT,4000,,,,,,,VFR,,,,,,,,,,,,METAR,13.0
OIBL 200600Z 15004KT 9999 FEW030CB SCT040 BKN100 32/24 Q1007,OIBL,2023-05-20T06:00:00Z,26.53,54.82,32.0,24.0,150,4,,6.21,29.734253,,,,,,,,,,,FEW,3000,SCT,4000,BKN,10000,,,VFR,,,,,,,,,,,,METAR,25.0
OIBK 200600Z 31006KT 9999 FEW030CB BKN035 37/14 Q1007 NOSIG,OIBK,2023-05-20T06:00:00Z,26.53,53.98,37.0,14.0,310,6,,6.21,29.734253,,,,,,TRUE,,,,,FEW,3000,BKN,3500,,,,,VFR,,,,,,,,,,,,METAR,27.0
OIBJ 200600Z AUTO 05004KT //// // ////// 34/11 Q////,OIBJ,2023-05-20T06:00:00Z,27.82,52.35,34.0,11.0,50,4,,,,,,TRUE,,,,,,,,,,,,,,,,,,,,,,,,,,,,METAR,647.0
OIBH 200600Z 36008KT 9999 BKN040 35/13 Q1008 A2977,OIBH,2023-05-20T06:00:00Z,27.2,54.32,35.0,13.0,360,8,,6.21,29.763779,,,,,,,,,,,BKN,4000,,,,,,,VFR,,,,,,,,,,,,METAR,412.0
OIBB 200600Z 23006KT 9999 FEW040 SCT110 34/16 Q1007 A2976 NOSIG,OIBB,2023-05-20T06:00:00Z,28.93,50.83,34.0,16.0,230,6,,6.21,29.734253,,,,,,TRUE,,,,,FEW,4000,SCT,11000,,,,,VFR,,,,,,,,,,,,METAR,15.0
OIBA 200600Z 17008KT 5000 HZ FEW030 33/25 Q1006,OIBA,2023-05-20T06:00:00Z,25.88,55.03,33.0,25.0,170,8,,3.11,29.704725,,,,,,,,,,HZ,FEW,3000,,,,,,,MVFR,,,,,,,,,,,,METAR,7.0
OIAW 200600Z 11008KT 8000 FEW035CB SCT040 BKN100 34/14 Q1006,OIAW,2023-05-20T06:00:00Z,31.33,48.77,34.0,14.0,110,8,,4.97,29.704725,,,,,,,,,,,FEW,3500,SCT,4000,BKN,10000,,,MVFR,,,,,,,,,,,,METAR,25.0
OIAM 200600Z 08008KT 7000 FEW035CB SCT040 33/14 Q1006,OIAM,2023-05-20T06:00:00Z,30.55,49.15,33.0,14.0,80,8,,4.35,29.704725,,,,,,,,,,,FEW,3500,SCT,4000,,,,,MVFR,,,,,,,,,,,,METAR,7.0
OIAH 200600Z 09006KT 9999 FEW035TCU BKN100 29/10 Q1014,OIAH,2023-05-20T06:00:00Z,30.33,50.83,29.0,10.0,90,6,,6.21,29.940945,,,,,,,,,,,FEW,3500,BKN,10000,,,,,VFR,,,,,,,,,,,,METAR,730.0
OIAG 200600Z 09008KT 9999 FEW035CB SCT040 33/15 Q1009,OIAG,2023-05-20T06:00:00Z,30.73,49.68,33.0,15.0,90,8,,6.21,29.793306,,,,,,,,,,,FEW,3500,SCT,4000,,,,,VFR,,,,,,,,,,,,METAR,17.0
OIAA 200600Z 13006KT 5000 DU FEW035CB SCT040 34/19 Q1006,OIAA,2023-05-20T06:00:00Z,30.35,48.22,34.0,19.0,130,6,,3.11,29.704725,,,,,,,,,,DU,FEW,3500,SCT,4000,,,,,MVFR,,,,,,,,,,,,METAR,4.0
OEYN 200600Z 27010KT CAVOK 28/20 Q1007 NOSIG,OEYN,2023-05-20T06:00:00Z,24.13,38.07,28.0,20.0,270,10,,6.21,29.734253,,,,,,TRUE,,,,,CAVOK,,,,,,,,VFR,,,,,,,,,,,,METAR,20.0
OEWJ 200600Z 22003KT 9999 FEW040 27/20 Q1009 NOSIG,OEWJ,2023-05-20T06:00:00Z,26.18,36.47,27.0,20.0,220,3,,6.21,29.793306,,,,,,TRUE,,,,,FEW,4000,,,,,,,VFR,,,,,,,,,,,,METAR,8.0
OEWD 200600Z 30006KT 9999 SCT030 32/10 Q1011,OEWD,2023-05-20T06:00:00Z,20.5,45.2,32.0,10.0,300,6,,6.21,29.852362,,,,,,,,,,,SCT,3000,,,,,,,VFR,,,,,,,,,,,,METAR,629.0
OETR 200600Z 35005KT CAVOK 19/06 Q1012 NOSIG,OETR,2023-05-20T06:00:00Z,31.7,38.73,19.0,6.0,350,5,,6.21,29.88189,,,,,,TRUE,,,,,CAVOK,,,,,,,,VFR,,,,,,,,,,,,METAR,854.0
OETF 200600Z 23012KT CAVOK 27/11 Q1018 NOSIG,OETF,2023-05-20T06:00:00Z,21.47,40.53,27.0,11.0,230,12,,6.21,30.059055,,,,,,TRUE,,,,,CAVOK,,,,,,,,VFR,,,,,,,,,,,,METAR,1460.0
OETB 200600Z 34005KT CAVOK 20/04 Q1013 NOSIG,OETB,2023-05-20T06:00:00Z,28.37,36.62,20.0,4.0,340,5,,6.21,29.911417,,,,,,TRUE,,,,,CAVOK,,,,,,,,VFR,,,,,,,,,,,,METAR,770.0
OESK 200600Z 30010KT CAVOK 23/03 Q1012 NOSIG,OESK,2023-05-20T06:00:00Z,29.78,40.1,23.0,3.0,300,10,,6.21,29.88189,,,,,,TRUE,,,,,CAVOK,,,,,,,,VFR,,,,,,,,,,,,METAR,671.0
OESH 200600Z 19008KT 9999 SCT035 33/13 Q1013 NOSIG,OESH,2023-05-20T06:00:00Z,17.47,47.12,33.0,13.0,190,8,,6.21,29.911417,,,,,,TRUE,,,,,SCT,3500,,,,,,,VFR,,,,,,,,,,,,METAR,720.0
OERR 200600Z 36013KT CAVOK 26/04 Q1008 NOSIG,OERR,2023-05-20T06:00:00Z,30.9,41.13,26.0,4.0,360,13,,6.21,29.763779,,,,,,TRUE,,,,,CAVOK,,,,,,,,VFR,,,,,,,,,,,,METAR,554.0
OERK 200600Z 26008KT 8000 NSC 31/11 Q1011 NOSIG,OERK,2023-05-20T06:00:00Z,24.95,46.72,31.0,11.0,260,8,,4.97,29.852362,,,,,,TRUE,,,,,CLR,,,,,,,,MVFR,,,,,,,,,,,,METAR,618.0
OERF 200600Z 23008KT 3000 DU SCT040 30/09 Q1005 NOSIG,OERF,2023-05-20T06:00:00Z,29.62,43.48,30.0,9.0,230,8,,1.86,29.675198,,,,,,TRUE,,,,DU,SCT,4000,,,,,,,IFR,,,,,,,,,,,,METAR,441.0
OEPA 200600Z 18014KT 5000 DU NSC 34/08 Q1006 TEMPO 4000,OEPA,2023-05-20T06:00:00Z,28.33,46.12,34.0,8.0,180,14,,3.11,29.704725,,,,,,,,,,DU,CLR,,,,,,,,MVFR,,,,,,,,,,,,METAR,361.0
OENG 200600Z 21005KT CAVOK 30/06 Q1016 NOSIG,OENG,2023-05-20T06:00:00Z,17.62,44.42,30.0,6.0,210,5,,6.21,30.0,,,,,,TRUE,,,,,CAVOK,,,,,,,,VFR,,,,,,,,,,,,METAR,1210.0
OEMN 200600Z 26002KT 9999 FEW035 31/23 Q1010,OEMN,2023-05-20T06:00:00Z,,,31.0,23.0,260,2,,6.21,29.822834,,,,,,,,,,,FEW,3500,,,,,,,VFR,,,,,,,,,,,,METAR,
OEMA 200600Z 29007KT CAVOK 30/M02 Q1012 NOSIG,OEMA,2023-05-20T06:00:00Z,24.55,39.7,30.0,-2.0,290,7,,6.21,29.88189,,,,,,TRUE,,,,,CAVOK,,,,,,,,VFR,,,,,,,,,,,,METAR,639.0
OEKM 200600Z 22012KT 9999 FEW022 23/08 Q1024 NOSIG,OEKM,2023-05-20T06:00:00Z,18.3,42.78,23.0,8.0,220,12,,6.21,30.236221,,,,,,TRUE,,,,,FEW,2200,,,,,,,VFR,,,,,,,,,,,,METAR,2038.0
OEKJ 200600Z 21005KT 9000 NSC 34/12 Q1012,OEKJ,2023-05-20T06:00:00Z,24.07,47.58,34.0,12.0,210,5,,5.59,29.88189,,,,,,,,,,,CLR,,,,,,,,VFR,,,,,,,,,,,,METAR,487.0
OEJN 200600Z 30008KT CAVOK 31/20 Q1008 NOSIG,OEJN,2023-05-20T06:00:00Z,21.68,39.15,31.0,20.0,300,8,,6.21,29.763779,,,,,,TRUE,,,,,CAVOK,,,,,,,,VFR,,,,,,,,,,,,METAR,8.0
OEHL 200600Z 26006KT CAVOK 28/03 Q1012,OEHL,2023-05-20T06:00:00Z,27.43,41.68,28.0,3.0,260,6,,6.21,29.88189,,,,,,,,,,,CAVOK,,,,,,,,VFR,,,,,,,,,,,,METAR,1002.0
OEGT 200600Z 31016KT CAVOK 19/09 Q1012 NOSIG,OEGT,2023-05-20T06:00:00Z,31.42,37.27,19.0,9.0,310,16,,6.21,29.88189,,,,,,TRUE,,,,,CAVOK,,,,,,,,VFR,,,,,,,,,,,,METAR,512.0
OEGS 200600Z 24012KT CAVOK 32/15 Q1009,OEGS,2023-05-20T06:00:00Z,26.3,43.77,32.0,15.0,240,12,,6.21,29.793306,,,,,,,,,,,CAVOK,,,,,,,,VFR,,,,,,,,,,,,METAR,647.0
OEGN 200600Z 25003KT 210V270 9000 FEW030 SCT100 38/15 Q1007 NOSIG,OEGN,2023-05-20T06:00:00Z,16.9,42.58,38.0,15.0,250,3,,5.59,29.734253,,,,,,TRUE,,,,,FEW,3000,SCT,10000,,,,,VFR,,,,,,,,,,,,METAR,5.0
OEDR 200600Z 19004KT 1500 DU SCT040 BKN090 35/12 Q1007,OEDR,2023-05-20T06:00:00Z,26.27,50.17,35.0,12.0,190,4,,0.93,29.734253,,,,,,,,,,DU,SCT,4000,BKN,9000,,,,,LIFR,,,,,,,,,,,,METAR,17.0
OEDM 200600Z 21010KT CAVOK 29/09 Q1012,OEDM,2023-05-20T06:00:00Z,24.45,44.12,29.0,9.0,210,10,,6.21,29.88189,,,,,,,,,,,CAVOK,,,,,,,,VFR,,,,,,,,,,,,METAR,922.0
OEDF 200600Z 23006KT 6000 FEW040 BKN100 35/11 Q1007 TEMPO 5000,OEDF,2023-05-20T06:00:00Z,26.43,49.82,35.0,11.0,230,6,,3.73,29.734253,,,,,,,,,,,FEW,4000,BKN,10000,,,,,MVFR,,,,,,,,,,,,METAR,15.0
OEBH 200600Z 18006KT CAVOK 24/20 Q1015 NOSIG,OEBH,2023-05-20T06:00:00Z,19.98,42.62,24.0,20.0,180,6,,6.21,29.970472,,,,,,TRUE,,,,,CAVOK,,,,,,,,VFR,,,,,,,,,,,,METAR,1167.0
OEBA 200600Z 19010KT 9999 FEW030 26/12 Q1019 NOSIG,OEBA,2023-05-20T06:00:00Z,20.3,41.63,26.0,12.0,190,10,,6.21,30.088583,,,,,,TRUE,,,,,FEW,3000,,,,,,,VFR,,,,,,,,,,,,METAR,1659.0
OEAO 200600Z 36010KT CAVOK 27/01 Q1012,OEAO,2023-05-20T06:00:00Z,26.48,38.12,27.0,1.0,360,10,,6.21,29.88189,,,,,,,,,,,CAVOK,,,,,,,,VFR,,,,,,,,,,,,METAR,615.0
OEAH 200600Z 07007KT 8000 NSC 35/09 Q1007 NOSIG,OEAH,2023-05-20T06:00:00Z,25.28,49.48,35.0,9.0,70,7,,4.97,29.734253,,,,,,TRUE,,,,,CLR,,,,,,,,MVFR,,,,,,,,,,,,METAR,180.0
OEAB 200600Z 19014KT 9999 FEW020 23/07 Q1024 NOSIG,OEAB,2023-05-20T06:00:00Z,18.23,42.65,23.0,7.0,190,14,,6.21,30.236221,,,,,,TRUE,,,,,FEW,2000,,,,,,,VFR,,,,,,,,,,,,METAR,2092.0
OBBI 200600Z VRB02KT 6000 NSC 35/14 Q1008 NOSIG,OBBI,2023-05-20T06:00:00Z,26.27,50.63,35.0,14.0,0,2,,3.73,29.763779,,,,,,TRUE,,,,,CLR,,,,,,,,MVFR,,,,,,,,,,,,METAR,6.0
NZWN 200600Z AUTO 19028KT 7000 -RA BKN009/// 14/13 Q0984,NZWN,2023-05-20T06:00:00Z,-41.32,174.8,14.0,13.0,190,28,,4.35,29.055119,,,TRUE,,,,,,,-RA,BKN,900,,,,,,,IFR,,,,,,,,,,,,METAR,12.0
NZCH 200600Z AUTO 24009KT 4400 -RA BR OVC005/// 10/10 Q0989,NZCH,2023-05-20T06:00:00Z,-43.48,172.52,10.0,10.0,240,9,,2.73,29.202755,,,TRUE,,,,,,,-RA BR,OVC,500,,,,,,,IFR,,,,,,,,,,,,METAR,36.0
NZAA 200600Z AUTO 27026KT 5000 -RA HZ FEW021/// BKN028/// 16/14 Q0990,NZAA,2023-05-20T06:00:00Z,-37.02,174.8,16.0,14.0,270,26,,3.11,29.232283,,,TRUE,,,,,,,-RA HZ,FEW,2100,BKN,2800,,,,,MVFR,,,,,,,,,,,,METAR,7.0
NWWW 200600Z AUTO 17005KT CAVOK 22/13 Q1014 NOSIG,NWWW,2023-05-20T06:00:00Z,-22.02,166.22,22.0,13.0,170,5,,6.21,29.940945,,,TRUE,,,TRUE,,,,,CAVOK,,,,,,,,VFR,,,,,,,,,,,,METAR,16.0
NVVW 200600Z 18006KT 9999 SCT020 OVC040 25/20 Q1012,NVVW,2023-05-20T06:00:00Z,-19.45,169.22,25.0,20.0,180,6,,6.21,29.88189,,,,,,,,,,,SCT,2000,OVC,4000,,,,,VFR,,,,,,,,,,,,METAR,5.0
NVVV 200600Z 09005KT 9999 SCT020 BKN045 OVC110 23/22 Q1012,NVVV,2023-05-20T06:00:00Z,-17.68,168.3,23.0,22.0,90,5,,6.21,29.88189,,,,,,,,,,,SCT,2000,BKN,4500,OVC,11000,,,VFR,,,,,,,,,,,,METAR,23.0
NVVA 200600Z 13003KT 9999 FEW020 BKN040 24/20 Q1013,NVVA,2023-05-20T06:00:00Z,-20.25,169.77,24.0,20.0,130,3,,6.21,29.911417,,,,,,,,,,,FEW,2000,BKN,4000,,,,,VFR,,,,,,,,,,,,METAR,7.0
NVSS 200600Z 12005KT 9999 SCT020 BKN045 OVC110 28/24 Q1009,NVSS,2023-05-20T06:00:00Z,-15.52,167.22,28.0,24.0,120,5,,6.21,29.793306,,,,,,,,,,,SCT,2000,BKN,4500,OVC,11000,,,VFR,,,,,,,,,,,,METAR,47.0
NVSG 200600Z 10006KT 9999 SCT020 BKN040 27/24 Q1010,NVSG,2023-05-20T06:00:00Z,-15.3,167.97,27.0,24.0,100,6,,6.21,29.822834,,,,,,,,,,,SCT,2000,BKN,4000,,,,,VFR,,,,,,,,,,,,METAR,31.0
NTAA 200600Z 15004KT 080V190 9999 FEW023 27/23 Q1014 NOSIG,NTAA,2023-05-20T06:00:00Z,-17.55,-149.62,27.0,23.0,150,4,,6.21,29.940945,,,,,,TRUE,,,,,FEW,2300,,,,,,,VFR,,,,,,,,,,,,METAR,2.0
NSFA 200600Z 09007KT 9999 SCT022 BKN270 27/26 Q1011,NSFA,2023-05-20T06:00:00Z,-13.83,-172.0,27.0,26.0,90,7,,6.21,29.852362,,,,,,,,,,,SCT,2200,BKN,27000,,,,,VFR,,,,,,,,,,,,METAR,6.0
NLWW 200600Z AUTO 13003KT 090V160 9999 FEW015/// 28/26 Q1011 TEMPO 3000 SHRA BKN012 FEW015CB SCT018TCU,NLWW,2023-05-20T06:00:00Z,-13.23,-176.18,28.0,26.0,130,3,,6.21,29.852362,,,TRUE,,,,,,,,FEW,1500,,,,,,,VFR,,,,,,,,,,,,METAR,24.0
NIUE 200600Z AUTO 07005KT 030V090 NCD 26/25 Q1013,NIUE,2023-05-20T06:00:00Z,-19.07,-169.92,26.0,25.0,70,5,,,29.911417,,,TRUE,,,,,,,,CLR,,,,,,,,,,,,,,,,,,,,METAR,22.0
NGTA 200600Z 07006KT 9999 SCT020 30/26 Q1007,NGTA,2023-05-20T06:00:00Z,1.37,173.13,30.0,26.0,70,6,,6.21,29.734253,,,,,,,,,,,SCT,2000,,,,,,,VFR,,,,,,,,,,,,METAR,8.0
NFTV 200600Z 36005KT 9999 SCT016 BKN300 27/26 Q1012,NFTV,2023-05-20T06:00:00Z,-18.58,-173.97,27.0,26.0,360,5,,6.21,29.88189,,,,,,,,,,,SCT,1600,BKN,30000,,,,,VFR,,,,,,,,,,,,METAR,71.0
NFTL 200600Z 31004KT 9999 FEW016 BKN280 27/26 Q1011,NFTL,2023-05-20T06:00:00Z,-19.78,-174.33,27.0,26.0,310,4,,6.21,29.852362,,,,,,,,,,,FEW,1600,BKN,28000,,,,,VFR,,,,,,,,,,,,METAR,10.0
NFTF 200600Z 34005KT 9999 FEW007 SCT014TCU BKN120 26/26 Q1011,NFTF,2023-05-20T06:00:00Z,-21.23,-175.15,26.0,26.0,340,5,,6.21,29.852362,,,,,,,,,,,FEW,700,SCT,1400,BKN,12000,,,VFR,,,,,,,,,,,,METAR,38.0
NFNA 200600Z VRB02KT 9999 SCT010 SCT017TCU BKN040 25/24 Q1012,NFNA,2023-05-20T06:00:00Z,-18.05,178.57,25.0,24.0,0,2,,6.21,29.88189,,,,,,,,,,,SCT,1000,SCT,1700,BKN,4000,,,VFR,,,,,,,,,,,,METAR,6.0
NFFN 200600Z 19005KT 9999 -SHRA FEW008 SCT022TCU BKN100 26/22 Q1011 NOSIG,NFFN,2023-05-20T06:00:00Z,-17.75,177.45,26.0,22.0,190,5,,6.21,29.852362,,,,,,TRUE,,,,-SHRA,FEW,800,SCT,2200,BKN,10000,,,VFR,,,,,,,,,,,,METAR,14.0
NCSW 200600Z AUTO NIL,NCSW,2023-05-20T06:00:00Z,,,,,,,,,,,,TRUE,,,,,,,,,,,,,,,,,,,,,,,,,,,,METAR,
NCRK 200600Z AUTO NIL,NCRK,2023-05-20T06:00:00Z,-10.02,-161.1,,,,,,,,,,TRUE,,,,,,,,,,,,,,,,,,,,,,,,,,,,METAR,7.0
NCRG 200600Z AUTO 11003KT 080V150 9999 NCD 22/17 Q1016,NCRG,2023-05-20T06:00:00Z,-21.2,-159.82,22.0,17.0,110,3,,6.21,30.0,,,TRUE,,,,,,,,CLR,,,,,,,,VFR,,,,,,,,,,,,METAR,7.0
NCPY 200600Z AUTO NIL,NCPY,2023-05-20T06:00:00Z,-9.02,-158.03,,,,,,,,,,TRUE,,,,,,,,,,,,,,,,,,,,,,,,,,,,METAR,2.0
NCPL 200600Z AUTO NIL,NCPL,2023-05-20T06:00:00Z,1.98,-157.48,,,,,,,,,,TRUE,,,,,,,,,,,,,,,,,,,,,,,,,,,,METAR,3.0
NCPK 200600Z AUTO NIL,NCPK,2023-05-20T06:00:00Z,-10.9,-165.83,,,,,,,,,,TRUE,,,,,,,,,,,,,,,,,,,,,,,,,,,,METAR,5.0
NCNS 200600Z AUTO NIL,NCNS,2023-05-20T06:00:00Z,,,,,,,,,,,,TRUE,,,,,,,,,,,,,,,,,,,,,,,,,,,,METAR,
NCMR 200600Z AUTO 09003KT //// ////// ///// Q1014,NCMR,2023-05-20T06:00:00Z,-19.85,-157.7,,,90,3,,,29.940945,,,TRUE,,,,,,,,,,,,,,,,,,,,,,,,,,,,METAR,8.0
NCMK 200600Z AUTO 15004KT //// ////// 24/21 Q1013,NCMK,2023-05-20T06:00:00Z,-20.15,-157.33,24.0,21.0,150,4,,,29.911417,,,TRUE,,,,,,,,,,,,,,,,,,,,,,,,,,,,METAR,13.0
NCMH 200600Z AUTO NIL,NCMH,2023-05-20T06:00:00Z,-10.38,-161.0,,,,,,,,,,TRUE,,,,,,,,,,,,,,,,,,,,,,,,,,,,METAR,1.0
NCMG 200600Z AUTO 13005KT //// ////// ///// Q////,NCMG,2023-05-20T06:00:00Z,-21.88,-157.9,,,130,5,,,,,,TRUE,,,,,,,,,,,,,,,,,,,,,,,,,,,,METAR,14.0
NCAT 200600Z AUTO NIL,NCAT,2023-05-20T06:00:00Z,-19.97,-158.12,,,,,,,,,,TRUE,,,,,,,,,,,,,,,,,,,,,,,,,,,,METAR,11.0
NCAI 200600Z AUTO 17005KT //// ////// 25/21 Q1015,NCAI,2023-05-20T06:00:00Z,-18.82,-159.77,25.0,21.0,170,5,,,29.970472,,,TRUE,,,,,,,,,,,,,,,,,,,,,,,,,,,,METAR,7.0
MYSM 200600Z AUTO 10010KT 9999 FEW016/// SCT110/// BKN130/// 25/23 A2999,MYSM,2023-05-20T06:00:00Z,24.05,-74.52,25.0,23.0,100,10,,6.21,29.991142,,,TRUE,,,,,,,,FEW,1600,SCT,11000,BKN,13000,,,VFR,,,,,,,,,,,,METAR,5.0
MYNN 200600Z 08003KT 050V120 9999 FEW025 24/23 A3000,MYNN,2023-05-20T06:00:00Z,25.03,-77.47,24.0,23.0,80,3,,6.21,30.0,,,,,,,,,,,FEW,2500,,,,,,,VFR,,,,,,,,,,,,METAR,5.0
MYGF 200600Z AUTO VRB01KT //// R06///// // NCD 24/22 A2999,MYGF,2023-05-20T06:00:00Z,26.55,-78.7,24.0,22.0,0,1,,,29.991142,,,TRUE,,,,,,,,CLR,,,,,,,,,,,,,,,,,,,,METAR,2.0
MYEM 200600Z AUTO 09004KT 050V120 CAVOK 24/23 Q1015 A2998,MYEM,2023-05-20T06:00:00Z,25.28,-76.33,24.0,23.0,90,4,,6.21,29.970472,,,TRUE,,,,,,,,CAVOK,,,,,,,,VFR,,,,,,,,,,,,METAR,8.0
MROC 200600Z 12005KT 080V150 9999 FEW035 SCT100 23/19 A2999 NOSIG,MROC,2023-05-20T06:00:00Z,10.0,-84.22,23.0,19.0,120,5,,6.21,29.991142,,,,,,TRUE,,,,,FEW,3500,SCT,10000,,,,,VFR,,,,,,,,,,,,METAR,900.0
MRLB 200600Z 08007KT CAVOK 27/20 A2982,MRLB,2023-05-20T06:00:00Z,10.6,-85.55,27.0,20.0,80,7,,6.21,29.819881,,,,,,,,,,,CAVOK,,,,,,,,VFR,,,,,,,,,,,,METAR,79.0
MPTO 200600Z 23004KT 9999 FEW020 27/24 Q1011 NOSIG,MPTO,2023-05-20T06:00:00Z,9.05,-79.38,27.0,24.0,230,4,,6.21,29.852362,,,,,,TRUE,,,,,FEW,2000,,,,,,,VFR,,,,,,,,,,,,METAR,7.0
MPMG 200600Z AUTO 33005KT //// R01///// // FEW067/// SCT160/// 27/24 Q1010,MPMG,2023-05-20T06:00:00Z,8.98,-79.57,27.0,24.0,330,5,,,29.822834,,,TRUE,,,,,,,,FEW,6700,SCT,16000,,,,,,,,,,,,,,,,,SPECI,6.0
MKJS 200600Z 00000KT 9999 FEW022 26/22 Q1013,MKJS,2023-05-20T06:00:00Z,18.5,-77.92,26.0,22.0,0,0,,6.21,29.911417,,,,,,,,,,,FEW,2200,,,,,,,VFR,,,,,,,,,,,,METAR,3.0
MKJP 200600Z 33005KT 9999 FEW022 28/25 Q1013,MKJP,2023-05-20T06:00:00Z,17.93,-76.78,28.0,25.0,330,5,,6.21,29.911417,,,,,,,,,,,FEW,2200,,,,,,,VFR,,,,,,,,,,,,METAR,3.0
MHTG 200600Z 03007KT 9999 SCT034 25/20 Q1020 A3012 NOSIG,MHTG,2023-05-20T06:00:00Z,14.07,-87.22,25.0,20.0,30,7,,6.21,30.11811,,,,,,TRUE,,,,,SCT,3400,,,,,,,VFR,,,,,,,,,,,,METAR,1001.0
MHRO 200600Z 09010KT 9999 FEW020 28/24 Q1014 A2995 NOSIG,MHRO,2023-05-20T06:00:00Z,16.32,-86.53,28.0,24.0,90,10,,6.21,29.940945,,,,,,TRUE,,,,,FEW,2000,,,,,,,VFR,,,,,,,,,,,,METAR,6.0
MHPR 200600Z 36012KT 8000 FEW048 SCT100 25/21 Q1018 A3007 NOSIG,MHPR,2023-05-20T06:00:00Z,14.38,-87.62,25.0,21.0,360,12,,4.97,30.059055,,,,,,TRUE,,,,,FEW,4800,SCT,10000,,,,,MVFR,,,,,,,,,,,,METAR,628.0
MHLM 200600Z 35002KT 9999 FEW025 26/24 Q1014 A2994 NOSIG,MHLM,2023-05-20T06:00:00Z,15.45,-87.93,26.0,24.0,350,2,,6.21,29.940945,,,,,,TRUE,,,,,FEW,2500,,,,,,,VFR,,,,,,,,,,,,METAR,32.0
MGPB 200600Z 00000KT 9999 SCT017 SCT200 25/24 Q1013 A2991,MGPB,2023-05-20T06:00:00Z,15.73,-88.58,25.0,24.0,0,0,,6.21,29.911417,,,,,,,,,,,SCT,1700,SCT,20000,,,,,VFR,,,,,,,,,,,,METAR,6.0
MGMM 200600Z 10004KT CAVOK 26/23 Q1015 A2997,MGMM,2023-05-20T06:00:00Z,16.9,-89.87,26.0,23.0,100,4,,6.21,29.970472,,,,,,,,,,,CAVOK,,,,,,,,VFR,,,,,,,,,,,,METAR,105.0
MGHT 200600Z 00000KT CAVOK 15/12 BKN090,MGHT,2023-05-20T06:00:00Z,15.32,-91.5,15.0,12.0,0,0,,6.21,,,,,,,,,,,,BKN,9000,,,,,,,VFR,,,,,,,,,,,,METAR,1875.0
MGGT 200600Z 03010KT CAVOK 20/15 Q1024 A3024 BKN200,MGGT,2023-05-20T06:00:00Z,14.58,-90.53,20.0,15.0,30,10,,6.21,30.236221,,,,,,,,,,,BKN,20000,,,,,,,VFR,,,,,,,,,,,,METAR,1497.0
MDST 200600Z 00000KT 9999 BKN016 23/23 Q1014 RESH,MDST,2023-05-20T06:00:00Z,19.4,-70.6,23.0,23.0,0,0,,6.21,29.940945,,,,,,,,,,,BKN,1600,,,,,,,MVFR,,,,,,,,,,,,METAR,175.0
MDSD 200600Z 04004KT 9999 SCT016 24/23 Q1013,MDSD,2023-05-20T06:00:00Z,18.42,-69.67,24.0,23.0,40,4,,6.21,29.911417,,,,,,,,,,,SCT,1600,,,,,,,VFR,,,,,,,,,,,,METAR,18.0
MDPP 200600Z 00000KT 9999 SCT018 24/23 Q1013,MDPP,2023-05-20T06:00:00Z,19.75,-70.57,24.0,23.0,0,0,,6.21,29.911417,,,,,,,,,,,SCT,1800,,,,,,,VFR,,,,,,,,,,,,METAR,9.0
MDPC 200600Z 13006KT 9999 SCT020 SCT300 27/24 Q1014,MDPC,2023-05-20T06:00:00Z,18.57,-68.37,27.0,24.0,130,6,,6.21,29.940945,,,,,,,,,,,SCT,2000,SCT,30000,,,,,VFR,,,,,,,,,,,,METAR,10.0
LZZI 200600Z 11005KT CAVOK 12/10 Q1023,LZZI,2023-05-20T06:00:00Z,49.23,18.62,12.0,10.0,110,5,,6.21,30.206694,,,,,,,,,,,CAVOK,,,,,,,,VFR,,,,,,,,,,,,METAR,311.0
LZTT 200600Z VRB02KT 0900 R27/P2000N FG OVC002 08/08 Q1025 NOSIG,LZTT,2023-05-20T06:00:00Z,49.07,20.25,8.0,8.0,0,2,,0.56,30.265747,,,,,,TRUE,,,,FG,OVC,200,,,,,,,LIFR,,,,,,,,,,,,METAR,693.0
LZPP 200600Z 35009KT CAVOK 15/12 Q1021,LZPP,2023-05-20T06:00:00Z,48.62,17.83,15.0,12.0,350,9,,6.21,30.147638,,,,,,,,,,,CAVOK,,,,,,,,VFR,,,,,,,,,,,,METAR,160.0
LZKZ 200600Z 02010KT CAVOK 16/11 Q1023 NOSIG,LZKZ,2023-05-20T06:00:00Z,48.67,21.23,16.0,11.0,20,10,,6.21,30.206694,,,,,,TRUE,,,,,CAVOK,,,,,,,,VFR,,,,,,,,,,,,METAR,227.0
LZIB 200600Z 03005KT 9999 FEW040 17/13 Q1021 NOSIG,LZIB,2023-05-20T06:00:00Z,48.17,17.22,17.0,13.0,30,5,,6.21,30.147638,,,,,,TRUE,,,,,FEW,4000,,,,,,,VFR,,,,,,,,,,,,METAR,129.0
LYVR 200600Z AUTO 05005KT 010V070 CAVOK 17/14 Q1020,LYVR,2023-05-20T06:00:00Z,45.13,21.32,17.0,14.0,50,5,,6.21,30.11811,,,TRUE,,,,,,,,CAVOK,,,,,,,,VFR,,,,,,,,,,,,METAR,82.0
LYTV 200600Z VRB01KT 9999 FEW060 20/14 Q1013 NOSIG,LYTV,2023-05-20T06:00:00Z,42.4,18.72,20.0,14.0,0,1,,6.21,29.911417,,,,,,TRUE,,,,,FEW,6000,,,,,,,VFR,,,,,,,,,,,,METAR,3.0
LYPG 200600Z VRB02KT 9999 SCT090 20/10 Q1014 NOSIG,LYPG,2023-05-20T06:00:00Z,42.37,19.25,20.0,10.0,0,2,,6.21,29.940945,,,,,,TRUE,,,,,SCT,9000,,,,,,,VFR,,,,,,,,,,,,METAR,32.0
LYNI 200600Z VRB01KT 0500 R29/0700U R11/0600D FG VV002 12/12 Q1020 BECMG FM0700 2000 BR BKN005,LYNI,2023-05-20T06:00:00Z,43.33,21.85,12.0,12.0,0,1,,0.31,30.11811,,,,,,,,,,FG,OVX,0,,,,,,,LIFR,,,,,,,,,,,200,SPECI,197.0
LYKV 200600Z 00000KT 0500 R31/1900U R13/1800U FG VV002 13/13 Q1019 BECMG 1500 BR BKN005,LYKV,2023-05-20T06:00:00Z,43.82,20.58,13.0,13.0,0,0,,0.31,30.088583,,,,,,,,,,FG,OVX,0,,,,,,,LIFR,,,,,,,,,,,200,METAR,209.0
LYBT 200600Z 04004KT 010V070 2500 BR SCT002 14/14 Q1019 BECMG 5000,LYBT,2023-05-20T06:00:00Z,44.93,20.25,14.0,14.0,40,4,,1.55,30.088583,,,,,,,,,,BR,SCT,200,,,,,,,IFR,,,,,,,,,,,,METAR,78.0
LYBE 200600Z 02004KT 9999 FEW003 17/15 Q1019 NOSIG,LYBE,2023-05-20T06:00:00Z,44.82,20.28,17.0,15.0,20,4,,6.21,30.088583,,,,,,TRUE,,,,,FEW,300,,,,,,,VFR,,,,,,,,,,,,METAR,93.0
LWSK 200600Z 19002KT CAVOK 14/12 Q1019 NOSIG,LWSK,2023-05-20T06:00:00Z,41.97,21.63,14.0,12.0,190,2,,6.21,30.088583,,,,,,TRUE,,,,,CAVOK,,,,,,,,VFR,,,,,,,,,,,,METAR,232.0
LWOH 200600Z 34006KT 9999 FEW050 16/10 Q1018,LWOH,2023-05-20T06:00:00Z,41.18,20.75,16.0,10.0,340,6,,6.21,30.059055,,,,,,,,,,,FEW,5000,,,,,,,VFR,,,,,,,,,,,,METAR,700.0
LUKK 200600Z 02010KT 350V050 CAVOK 20/13 Q1020 NOSIG,LUKK,2023-05-20T06:00:00Z,46.93,28.93,20.0,13.0,20,10,,6.21,30.11811,,,,,,TRUE,,,,,CAVOK,,,,,,,,VFR,,,,,,,,,,,,METAR,102.0
LRTR 200600Z VRB02KT CAVOK 17/13 Q1020,LRTR,2023-05-20T06:00:00Z,45.82,21.33,17.0,13.0,0,2,,6.21,30.11811,,,,,,,,,,,CAVOK,,,,,,,,VFR,,,,,,,,,,,,METAR,104.0
LRTM 200600Z 25003KT 8000 FEW007 SCT039 14/13 Q1022,LRTM,2023-05-20T06:00:00Z,46.47,24.42,14.0,13.0,250,3,,4.97,30.177166,,,,,,,,,,,FEW,700,SCT,3900,,,,,MVFR,,,,,,,,,,,,METAR,289.0
LRTC 200600Z 35014KT CAVOK 20/10 Q1017,LRTC,2023-05-20T06:00:00Z,45.07,28.72,20.0,10.0,350,14,,6.21,30.029528,,,,,,,,,,,CAVOK,,,,,,,,VFR,,,,,,,,,,,,METAR,52.0
LRSV 200600Z 34012KT CAVOK 17/15 Q1024,LRSV,2023-05-20T06:00:00Z,47.68,26.35,17.0,15.0,340,12,,6.21,30.236221,,,,,,,,,,,CAVOK,,,,,,,,VFR,,,,,,,,,,,,METAR,406.0
LRSM 200600Z 06003KT 020V080 CAVOK 19/14 Q1022,LRSM,2023-05-20T06:00:00Z,47.7,22.88,19.0,14.0,60,3,,6.21,30.177166,,,,,,,,,,,CAVOK,,,,,,,,VFR,,,,,,,,,,,,METAR,123.0
LRSB 200600Z 00000KT CAVOK 16/12 Q1022 NOSIG,LRSB,2023-05-20T06:00:00Z,45.78,24.08,16.0,12.0,0,0,,6.21,30.177166,,,,,,TRUE,,,,,CAVOK,,,,,,,,VFR,,,,,,,,,,,,METAR,442.0
LROP 200600Z 11003KT 070V150 CAVOK 19/12 Q1020 NOSIG,LROP,2023-05-20T06:00:00Z,44.57,26.1,19.0,12.0,110,3,,6.21,30.11811,,,,,,TRUE,,,,,CAVOK,,,,,,,,VFR,,,,,,,,,,,,METAR,92.0
LROD 200600Z 09006KT CAVOK 18/12 Q1021,LROD,2023-05-20T06:00:00Z,47.03,21.88,18.0,12.0,90,6,,6.21,30.147638,,,,,,,,,,,CAVOK,,,,,,,,VFR,,,,,,,,,,,,METAR,132.0
LRIA 200600Z 33012KT CAVOK 17/14 Q1022,LRIA,2023-05-20T06:00:00Z,47.17,27.62,17.0,14.0,330,12,,6.21,30.177166,,,,,,,,,,,CAVOK,,,,,,,,VFR,,,,,,,,,,,,METAR,71.0
LRCV 200600Z 08004KT 040V130 CAVOK 17/13 Q1020,LRCV,2023-05-20T06:00:00Z,44.32,23.88,17.0,13.0,80,4,,6.21,30.11811,,,,,,,,,,,CAVOK,,,,,,,,VFR,,,,,,,,,,,,METAR,192.0
LRCL 200600Z 27004KT 230V310 CAVOK 15/12 Q1023,LRCL,2023-05-20T06:00:00Z,46.78,23.68,15.0,12.0,270,4,,6.21,30.206694,,,,,,,,,,,CAVOK,,,,,,,,VFR,,,,,,,,,,,,METAR,313.0
LRCK 200600Z 33015KT CAVOK 17/13 Q1017 NOSIG,LRCK,2023-05-20T06:00:00Z,44.37,28.48,17.0,13.0,330,15,,6.21,30.029528,,,,,,TRUE,,,,,CAVOK,,,,,,,,VFR,,,,,,,,,,,,METAR,108.0
LRBS 200600Z 08004KT 020V120 CAVOK 19/11 Q1020 NOSIG,LRBS,2023-05-20T06:00:00Z,44.5,26.08,19.0,11.0,80,4,,6.21,30.11811,,,,,,TRUE,,,,,CAVOK,,,,,,,,VFR,,,,,,,,,,,,METAR,91.0
LRBM 200600Z AUTO 00000KT 9999 BKN100/// 17/13 Q1022,LRBM,2023-05-20T06:00:00Z,47.67,23.47,17.0,13.0,0,0,,6.21,30.177166,,,TRUE,,,,,,,,BKN,10000,,,,,,,VFR,,,,,,,,,,,,METAR,180.0
LRBC 200600Z 35016KT 9999 FEW020 17/12 Q1022,LRBC,2023-05-20T06:00:00Z,46.52,26.92,17.0,12.0,350,16,,6.21,30.177166,,,,,,,,,,,FEW,2000,,,,,,,VFR,,,,,,,,,,,,METAR,183.0
LRAR 200600Z 15003KT 130V190 CAVOK 18/13 Q1020,LRAR,2023-05-20T06:00:00Z,46.18,21.27,18.0,13.0,150,3,,6.21,30.11811,,,,,,,,,,,CAVOK,,,,,,,,VFR,,,,,,,,,,,,METAR,102.0
LQTZ 200600Z VRB02KT 0350 R09/0250N FG BKN002 11/11 Q1018,LQTZ,2023-05-20T06:00:00Z,44.47,18.73,11.0,11.0,0,2,,0.22,30.059055,,,,,,,,,,FG,BKN,200,,,,,,,LIFR,,,,,,,,,,,,METAR,242.0
LQSA 200600Z VRB02KT 4000 BR FEW002 SCT015 11/11 Q1018 BECMG 5000,LQSA,2023-05-20T06:00:00Z,43.82,18.32,11.0,11.0,0,2,,2.49,30.059055,,,,,,,,,,BR,FEW,200,SCT,1500,,,,,IFR,,,,,,,,,,,,SPECI,505.0
LQMO 200600Z VRB02KT 9999 BKN082 16/13 Q1013,LQMO,2023-05-20T06:00:00Z,43.28,17.83,16.0,13.0,0,2,,6.21,29.911417,,,,,,,,,,,BKN,8200,,,,,,,VFR,,,,,,,,,,,,METAR,49.0
LQBK 200600Z VRB02KT 3500 BR FEW003 OVC005 14/14 Q1018 NOSIG,LQBK,2023-05-20T06:00:00Z,44.93,17.3,14.0,14.0,0,2,,2.17,30.059055,,,,,,TRUE,,,,BR,FEW,300,OVC,500,,,,,IFR,,,,,,,,,,,,METAR,114.0
LPPT 200600Z 05007KT CAVOK 17/03 Q1013,LPPT,2023-05-20T06:00:00Z,38.77,-9.13,17.0,3.0,50,7,,6.21,29.911417,,,,,,,,,,,CAVOK,,,,,,,,VFR,,,,,,,,,,,,METAR,98.0
LPPS 200600Z 36011KT 340V040 9999 FEW015 SCT030 18/10 Q1019,LPPS,2023-05-20T06:00:00Z,33.07,-16.35,18.0,10.0,360,11,,6.21,30.088583,,,,,,,,,,,FEW,1500,SCT,3000,,,,,VFR,,,,,,,,,,,,METAR,89.0
LPPR 200600Z 06005KT 040V100 CAVOK 16/04 Q1016,LPPR,2023-05-20T06:00:00Z,41.23,-8.68,16.0,4.0,60,5,,6.21,30.0,,,,,,,,,,,CAVOK,,,,,,,,VFR,,,,,,,,,,,,METAR,64.0
LPPD 200600Z 04008KT 020V080 9999 FEW020 16/11 Q1029,LPPD,2023-05-20T06:00:00Z,37.73,-25.68,16.0,11.0,40,8,,6.21,30.383858,,,,,,,,,,,FEW,2000,,,,,,,VFR,,,,,,,,,,,,METAR,62.0
LPMA 200600Z 01006KT 320V050 9999 SCT015 17/10 Q1019,LPMA,2023-05-20T06:00:00Z,32.7,-16.77,17.0,10.0,10,6,,6.21,30.088583,,,,,,,,,,,SCT,1500,,,,,,,VFR,,,,,,,,,,,,METAR,54.0
LPLA 200600Z /////KT 9999 FEW020 SCT040 17/15 Q1031,LPLA,2023-05-20T06:00:00Z,38.77,-27.1,17.0,15.0,,,,6.21,30.442913,,,,,,,,,,,FEW,2000,SCT,4000,,,,,VFR,,,,,,,,,,,,METAR,60.0
LPHR 200600Z 03004KT 360V100 9999 FEW014 15/11 Q1031,LPHR,2023-05-20T06:00:00Z,38.52,-28.72,15.0,11.0,30,4,,6.21,30.442913,,,,,,,,,,,FEW,1400,,,,,,,VFR,,,,,,,,,,,,METAR,39.0
LPFR 200600Z 03005KT CAVOK 16/09 Q1012,LPFR,2023-05-20T06:00:00Z,37.02,-7.97,16.0,9.0,30,5,,6.21,29.88189,,,,,,,,,,,CAVOK,,,,,,,,VFR,,,,,,,,,,,,METAR,3.0
LPCS 200600Z 06012KT 9999 FEW030 19/02 Q1013,LPCS,2023-05-20T06:00:00Z,38.73,-9.35,19.0,2.0,60,12,,6.21,29.911417,,,,,,,,,,,FEW,3000,,,,,,,VFR,,,,,,,,,,,,METAR,99.0
LPBJ 200600Z 05002KT CAVOK 14/02 Q1013,LPBJ,2023-05-20T06:00:00Z,38.08,-7.93,14.0,2.0,50,2,,6.21,29.911417,,,,,,,,,,,CAVOK,,,,,,,,VFR,,,,,,,,,,,,METAR,196.0
LPAZ 200600Z 04010KT 9999 FEW022 16/12 Q1028,LPAZ,2023-05-20T06:00:00Z,36.97,-25.17,16.0,12.0,40,10,,6.21,30.35433,,,,,,,,,,,FEW,2200,,,,,,,VFR,,,,,,,,,,,,METAR,96.0
LKTB 200600Z 07015KT 8000 FEW010 12/09 Q1022 NOSIG,LKTB,2023-05-20T06:00:00Z,49.15,16.68,12.0,9.0,70,15,,4.97,30.177166,,,,,,TRUE,,,,,FEW,1000,,,,,,,MVFR,,,,,,,,,,,,METAR,233.0
LKPR 200600Z 07009KT 040V100 9999 FEW010 11/09 Q1022 NOSIG,LKPR,2023-05-20T06:00:00Z,50.1,14.27,11.0,9.0,70,9,,6.21,30.177166,,,,,,TRUE,,,,,FEW,1000,,,,,,,VFR,,,,,,,,,,,,METAR,364.0
LKPD 200600Z 08007KT CAVOK 13/09 Q1023 NOSIG RMK BLU BLU,LKPD,2023-05-20T06:00:00Z,50.02,15.73,13.0,9.0,80,7,,6.21,30.206694,,,,,,TRUE,,,,,CAVOK,,,,,,,,VFR,,,,,,,,,,,,SPECI,226.0
LKNA 200600Z 05006KT CAVOK 12/09 Q1022 NOSIG RMK BLU BLU,LKNA,2023-05-20T06:00:00Z,49.17,16.12,12.0,9.0,50,6,,6.21,30.177166,,,,,,TRUE,,,,,CAVOK,,,,,,,,VFR,,,,,,,,,,,,SPECI,460.0
LKMT 200600Z 05007KT 010V080 3500 BR OVC004 10/09 Q1025 NOSIG,LKMT,2023-05-20T06:00:00Z,49.68,18.12,10.0,9.0,50,7,,2.17,30.265747,,,,,,TRUE,,,,BR,OVC,400,,,,,,,LIFR,,,,,,,,,,,,METAR,251.0
LKLN 200600Z AUTO 05006KT 310V090 9000 OVC016 11/09 Q1021,LKLN,2023-05-20T06:00:00Z,49.68,13.27,11.0,9.0,50,6,,5.59,30.147638,,,TRUE,,,,,,,,OVC,1600,,,,,,,MVFR,,,,,,,,,,,,METAR,353.0
LKKV 200600Z 07010KT 040V100 9999 BKN007 BKN026 09/08 Q1021,LKKV,2023-05-20T06:00:00Z,50.2,12.92,9.0,8.0,70,10,,6.21,30.147638,,,,,,,,,,,BKN,700,BKN,2600,,,,,IFR,,,,,,,,,,,,METAR,600.0
LKKB 200600Z 05007KT 020V080 9999 FEW010 12/09 Q1022 NOSIG,LKKB,2023-05-20T06:00:00Z,50.12,14.53,12.0,9.0,50,7,,6.21,30.177166,,,,,,TRUE,,,,,FEW,1000,,,,,,,VFR,,,,,,,,,,,,METAR,281.0
LKCV 200600Z 11004KT 070V140 CAVOK 13/10 Q1022 NOSIG RMK BLU BLU,LKCV,2023-05-20T06:00:00Z,49.93,15.38,13.0,10.0,110,4,,6.21,30.177166,,,,,,TRUE,,,,,CAVOK,,,,,,,,VFR,,,,,,,,,,,,SPECI,234.0
LJPZ 200600Z 09006KT 050V120 CAVOK 19/12 Q1014,LJPZ,2023-05-20T06:00:00Z,45.47,13.62,19.0,12.0,90,6,,6.21,29.940945,,,,,,,,,,,CAVOK,,,,,,,,VFR,,,,,,,,,,,,METAR,2.0
LJMB 200600Z 36008KT 9999 FEW023 BKN030 16/12 Q1020,LJMB,2023-05-20T06:00:00Z,46.47,15.67,16.0,12.0,360,8,,6.21,30.11811,,,,,,,,,,,FEW,2300,BKN,3000,,,,,MVFR,,,,,,,,,,,,METAR,263.0
LJLJ 200600Z 28004KT 240V300 9999 FEW008 SCT045 BKN100 14/12 Q1019 NOSIG,LJLJ,2023-05-20T06:00:00Z,46.22,14.47,14.0,12.0,280,4,,6.21,30.088583,,,,,,TRUE,,,,,FEW,800,SCT,4500,BKN,10000,,,VFR,,,,,,,,,,,,METAR,363.0
LJCE 200600Z VRB01KT 9999 FEW009 SCT017 BKN030 16/13 Q1019 RMK BLU,LJCE,2023-05-20T06:00:00Z,45.9,15.52,16.0,13.0,0,1,,6.21,30.088583,,,,,,,,,,,FEW,900,SCT,1700,BKN,3000,,,MVFR,,,,,,,,,,,,METAR,153.0
LHBP 200600Z 08011KT CAVOK 18/11 Q1021 NOSIG,LHBP,2023-05-20T06:00:00Z,47.43,19.27,18.0,11.0,80,11,,6.21,30.147638,,,,,,TRUE,,,,,CAVOK,,,,,,,,VFR,,,,,,,,,,,,METAR,141.0
LFYR 200600Z AUTO 01003KT 320V080 CAVOK 12/08 Q1018,LFYR,2023-05-20T06:00:00Z,47.32,1.68,12.0,8.0,10,3,,6.21,30.059055,,,TRUE,,,,,,,,CAVOK,,,,,,,,VFR,,,,,,,,,,,,METAR,83.0
LFVP 200600Z AUTO 22019KT CAVOK 04/02 Q1030,LFVP,2023-05-20T06:00:00Z,46.77,-56.18,4.0,2.0,220,19,,6.21,30.413385,,,TRUE,,,,,,,,CAVOK,,,,,,,,VFR,,,,,,,,,,,,METAR,5.0
LFTW 200600Z AUTO 35008KT 320V020 CAVOK 15/10 Q1012 NOSIG,LFTW,2023-05-20T06:00:00Z,43.75,4.42,15.0,10.0,350,8,,6.21,29.88189,,,TRUE,,,TRUE,,,,,CAVOK,,,,,,,,VFR,,,,,,,,,,,,METAR,91.0
LFTH 200600Z AUTO 34004KT 9999 OVC039 16/13 Q1011 TEMPO 4000 RA FEW030TCU,LFTH,2023-05-20T06:00:00Z,43.1,6.15,16.0,13.0,340,4,,6.21,29.852362,,,TRUE,,,,,,,,OVC,3900,,,,,,,VFR,,,,,,,,,,,,SPECI,3.0
LFSX 200600Z AUTO 00000KT CAVOK 13/09 Q1015,LFSX,2023-05-20T06:00:00Z,47.77,6.35,13.0,9.0,0,0,,6.21,29.970472,,,TRUE,,,,,,,,CAVOK,,,,,,,,VFR,,,,,,,,,,,,METAR,266.0
LFST 200600Z AUTO 03009KT CAVOK 14/09 Q1017 NOSIG,LFST,2023-05-20T06:00:00Z,48.53,7.63,14.0,9.0,30,9,,6.21,30.029528,,,TRUE,,,TRUE,,,,,CAVOK,,,,,,,,VFR,,,,,,,,,,,,METAR,149.0
LFSO 200600Z AUTO 04005KT 360V070 CAVOK 13/07 Q1017,LFSO,2023-05-20T06:00:00Z,48.57,5.97,13.0,7.0,40,5,,6.21,30.029528,,,TRUE,,,,,,,,CAVOK,,,,,,,,VFR,,,,,,,,,,,,METAR,328.0
LFSN 200600Z AUTO 03009KT CAVOK 14/08 Q1017,LFSN,2023-05-20T06:00:00Z,48.68,6.22,14.0,8.0,30,9,,6.21,30.029528,,,TRUE,,,,,,,,CAVOK,,,,,,,,VFR,,,,,,,,,,,,METAR,214.0
LFSM 200600Z AUTO 08008KT 9999 BKN036 OVC049 13/08 Q1016,LFSM,2023-05-20T06:00:00Z,47.48,6.78,13.0,8.0,80,8,,6.21,30.0,,,TRUE,,,,,,,,BKN,3600,OVC,4900,,,,,VFR,,,,,,,,,,,,METAR,317.0
LFSL 200600Z AUTO 34008KT CAVOK 13/07 Q1016 NOSIG,LFSL,2023-05-20T06:00:00Z,45.03,1.48,13.0,7.0,340,8,,6.21,30.0,,,TRUE,,,TRUE,,,,,CAVOK,,,,,,,,VFR,,,,,,,,,,,,METAR,300.0
LFSI 200600Z AUTO 03006KT CAVOK 14/07 Q1017,LFSI,2023-05-20T06:00:00Z,48.62,4.9,14.0,7.0,30,6,,6.21,30.029528,,,TRUE,,,,,,,,CAVOK,,,,,,,,VFR,,,,,,,,,,,,METAR,136.0
LFSG 200600Z AUTO 01010KT CAVOK 12/08 Q1017,LFSG,2023-05-20T06:00:00Z,48.33,6.07,12.0,8.0,10,10,,6.21,30.029528,,,TRUE,,,,,,,,CAVOK,,,,,,,,VFR,,,,,,,,,,,,METAR,320.0
LFSD 200600Z AUTO 01007KT 330V030 9999 OVC047 13/08 Q1015,LFSD,2023-05-20T06:00:00Z,47.27,5.08,13.0,8.0,10,7,,6.21,29.970472,,,TRUE,,,,,,,,OVC,4700,,,,,,,VFR,,,,,,,,,,,,METAR,218.0
LFSB 200600Z AUTO 34006KT 9999 OVC039 12/09 Q1016 NOSIG,LFSB,2023-05-20T06:00:00Z,47.6,7.52,12.0,9.0,340,6,,6.21,30.0,,,TRUE,,,TRUE,,,,,OVC,3900,,,,,,,VFR,,,,,,,,,,,,METAR,262.0
LFRZ 200600Z AUTO 01009KT CAVOK 10/08 Q1021 NOSIG,LFRZ,2023-05-20T06:00:00Z,47.32,-2.17,10.0,8.0,10,9,,6.21,30.147638,,,TRUE,,,TRUE,,,,,CAVOK,,,,,,,,VFR,,,,,,,,,,,,METAR,2.0
LFRV 200600Z AUTO 02009KT CAVOK 09/07 Q1022,LFRV,2023-05-20T06:00:00Z,47.72,-2.72,9.0,7.0,20,9,,6.21,30.177166,,,TRUE,,,,,,,,CAVOK,,,,,,,,VFR,,,,,,,,,,,,METAR,132.0
LFRU 200600Z AUTO VRB01KT 6000 FEW012 10/10 Q1024,LFRU,2023-05-20T06:00:00Z,48.6,-3.82,10.0,10.0,0,1,,3.73,30.236221,,,TRUE,,,,,,,,FEW,1200,,,,,,,MVFR,,,,,,,,,,,,METAR,85.0
LFRT 200600Z AUTO 34004KT 320V020 CAVOK 11/08 Q1023,LFRT,2023-05-20T06:00:00Z,48.53,-2.85,11.0,8.0,340,4,,6.21,30.206694,,,TRUE,,,,,,,,CAVOK,,,,,,,,VFR,,,,,,,,,,,,METAR,134.0
LFRS 200600Z AUTO 36006KT 320V050 CAVOK 10/06 Q1020 NOSIG,LFRS,2023-05-20T06:00:00Z,47.17,-1.6,10.0,6.0,360,6,,6.21,30.11811,,,TRUE,,,TRUE,,,,,CAVOK,,,,,,,,VFR,,,,,,,,,,,,METAR,26.0
LFRQ 200600Z AUTO 02009KT 6000 NSC 11/08 Q1023 NOSIG,LFRQ,2023-05-20T06:00:00Z,47.97,-4.17,11.0,8.0,20,9,,3.73,30.206694,,,TRUE,,,TRUE,,,,,CLR,,,,,,,,MVFR,,,,,,,,,,,,METAR,94.0
LFRO 200600Z AUTO 03005KT 350V070 4900 BR BKN007 12/10 Q1024,LFRO,2023-05-20T06:00:00Z,48.75,-3.47,12.0,10.0,30,5,,3.04,30.236221,,,TRUE,,,,,,,BR,BKN,700,,,,,,,IFR,,,,,,,,,,,,METAR,86.0
LFRN 200600Z AUTO 36005KT 330V030 CAVOK 10/08 Q1022 TEMPO BKN008,LFRN,2023-05-20T06:00:00Z,48.07,-1.73,10.0,8.0,360,5,,6.21,30.177166,,,TRUE,,,,,,,,CAVOK,,,,,,,,VFR,,,,,,,,,,,,SPECI,35.0
LFRM 200600Z AUTO 01009KT 330V040 CAVOK 10/07 Q1020 NOSIG,LFRM,2023-05-20T06:00:00Z,47.95,0.2,10.0,7.0,10,9,,6.21,30.11811,,,TRUE,,,TRUE,,,,,CAVOK,,,,,,,,VFR,,,,,,,,,,,,METAR,51.0
LFRL 200600Z AUTO 04005KT 010V070 6000 NSC 11/09 Q1024,LFRL,2023-05-20T06:00:00Z,48.27,-4.43,11.0,9.0,40,5,,3.73,30.236221,,,TRUE,,,,,,,,CLR,,,,,,,,MVFR,,,,,,,,,,,,METAR,80.0
LFRK 200600Z AUTO 02011KT 340V040 9999 OVC010 12/10 Q1023 NOSIG,LFRK,2023-05-20T06:00:00Z,49.17,-0.45,12.0,10.0,20,11,,6.21,30.206694,,,TRUE,,,TRUE,,,,,OVC,1000,,,,,,,MVFR,,,,,,,,,,,,METAR,66.0
LFRJ 200600Z AUTO 02005KT 3100 BR NSC 10/07 Q1024,LFRJ,2023-05-20T06:00:00Z,48.52,-4.15,10.0,7.0,20,5,,1.93,30.236221,,,TRUE,,,,,,,BR,CLR,,,,,,,,IFR,,,,,,,,,,,,METAR,109.0
LFRI 200600Z AUTO 02008KT CAVOK 09/07 Q1020 NOSIG,LFRI,2023-05-20T06:00:00Z,46.7,-1.37,9.0,7.0,20,8,,6.21,30.11811,,,TRUE,,,TRUE,,,,,CAVOK,,,,,,,,VFR,,,,,,,,,,,,METAR,89.0
LFRH 200600Z AUTO 01006KT 330V050 CAVOK 10/07 Q1022 NOSIG,LFRH,2023-05-20T06:00:00Z,47.77,-3.45,10.0,7.0,10,6,,6.21,30.177166,,,TRUE,,,TRUE,,,,,CAVOK,,,,,,,,VFR,,,,,,,,,,,,METAR,46.0
LFRG 200600Z AUTO 03006KT 360V070 6000 OVC008 11/10 Q1023 BECMG SCT020,LFRG,2023-05-20T06:00:00Z,49.37,0.15,11.0,10.0,30,6,,3.73,30.206694,,,TRUE,,,,,,,,OVC,800,,,,,,,IFR,,,,,,,,,,,,SPECI,146.0
LFRD 200600Z AUTO 05011KT 9999 BKN014 11/09 Q1023 TEMPO BKN008,LFRD,2023-05-20T06:00:00Z,48.58,-2.07,11.0,9.0,50,11,,6.21,30.206694,,,TRUE,,,,,,,,BKN,1400,,,,,,,MVFR,,,,,,,,,,,,SPECI,56.0
LFRC 200600Z AUTO 03009KT 360V080 9999 FEW013 11/08 Q1024 TEMPO BKN007,LFRC,2023-05-20T06:00:00Z,49.63,-1.47,11.0,8.0,30,9,,6.21,30.236221,,,TRUE,,,,,,,,FEW,1300,,,,,,,VFR,,,,,,,,,,,,METAR,137.0
LFRB 200600Z AUTO 03005KT 3200 BR NSC 11/10 Q1024 TEMPO VV/// BECMG 9999 NSW,LFRB,2023-05-20T06:00:00Z,48.45,-4.42,11.0,10.0,30,5,,1.99,30.236221,,,TRUE,,,,,,,BR,CLR,,,,,,,,IFR,,,,,,,,,,,,SPECI,91.0
LFQQ 200600Z AUTO 03012KT CAVOK 12/08 Q1022 NOSIG,LFQQ,2023-05-20T06:00:00Z,50.57,3.1,12.0,8.0,30,12,,6.21,30.177166,,,TRUE,,,TRUE,,,,,CAVOK,,,,,,,,VFR,,,,,,,,,,,,METAR,43.0
LFQG 200600Z AUTO 01005KT CAVOK 12/09 Q1017,LFQG,2023-05-20T06:00:00Z,47.0,3.1,12.0,9.0,10,5,,6.21,30.029528,,,TRUE,,,,,,,,CAVOK,,,,,,,,VFR,,,,,,,,,,,,METAR,172.0
LFQB 200600Z AUTO 35006KT CAVOK 14/09 Q1018,LFQB,2023-05-20T06:00:00Z,48.32,4.02,14.0,9.0,350,6,,6.21,30.059055,,,TRUE,,,,,,,,CAVOK,,,,,,,,VFR,,,,,,,,,,,,METAR,107.0
LFQA 200600Z AUTO 31003KT 260V360 CAVOK 13/08 Q1019,LFQA,2023-05-20T06:00:00Z,49.2,4.15,13.0,8.0,310,3,,6.21,30.088583,,,TRUE,,,,,,,,CAVOK,,,,,,,,VFR,,,,,,,,,,,,METAR,92.0
LFPV 200600Z AUTO 36008KT 330V030 CAVOK 11/07 Q1019 NOSIG,LFPV,2023-05-20T06:00:00Z,48.77,2.2,11.0,7.0,360,8,,6.21,30.088583,,,TRUE,,,TRUE,,,,,CAVOK,,,,,,,,VFR,,,,,,,,,,,,METAR,171.0
LFPT 200600Z AUTO VRB03KT CAVOK 11/07 Q1020,LFPT,2023-05-20T06:00:00Z,49.1,2.03,11.0,7.0,0,3,,6.21,30.11811,,,TRUE,,,,,,,,CAVOK,,,,,,,,VFR,,,,,,,,,,,,METAR,91.0
LFPO 200600Z 36010KT CAVOK 12/07 Q1019 NOSIG,LFPO,2023-05-20T06:00:00Z,48.72,2.38,12.0,7.0,360,10,,6.21,30.088583,,,,,,TRUE,,,,,CAVOK,,,,,,,,VFR,,,,,,,,,,,,METAR,88.0
LFPN 200600Z AUTO 36007KT 330V040 CAVOK 11/07 Q1020 NOSIG,LFPN,2023-05-20T06:00:00Z,48.75,2.12,11.0,7.0,360,7,,6.21,30.11811,,,TRUE,,,TRUE,,,,,CAVOK,,,,,,,,VFR,,,,,,,,,,,,METAR,152.0
LFPM 200600Z AUTO 36008KT CAVOK 12/07 Q1019,LFPM,2023-05-20T06:00:00Z,48.62,2.67,12.0,7.0,360,8,,6.21,30.088583,,,TRUE,,,,,,,,CAVOK,,,,,,,,VFR,,,,,,,,,,,,METAR,91.0
LFPG 200600Z 01011KT CAVOK 11/08 Q1020 NOSIG,LFPG,2023-05-20T06:00:00Z,49.02,2.53,11.0,8.0,10,11,,6.21,30.11811,,,,,,TRUE,,,,,CAVOK,,,,,,,,VFR,,,,,,,,,,,,METAR,107.0
LFPB 200600Z AUTO 35008KT 320V020 CAVOK 11/08 Q1020 NOSIG,LFPB,2023-05-20T06:00:00Z,48.97,2.42,11.0,8.0,350,8,,6.21,30.11811,,,TRUE,,,TRUE,,,,,CAVOK,,,,,,,,VFR,,,,,,,,,,,,METAR,50.0
LFOZ 200600Z AUTO 02008KT 350V050 CAVOK 12/07 Q1018,LFOZ,2023-05-20T06:00:00Z,47.9,2.17,12.0,7.0,20,8,,6.21,30.059055,,,TRUE,,,,,,,,CAVOK,,,,,,,,VFR,,,,,,,,,,,,METAR,121.0
LFOV 200600Z AUTO 36011KT 8000 NSC 10/08 Q1021,LFOV,2023-05-20T06:00:00Z,48.03,-0.75,10.0,8.0,360,11,,4.97,30.147638,,,TRUE,,,,,,,,CLR,,,,,,,,MVFR,,,,,,,,,,,,METAR,99.0
LFOT 200600Z AUTO 01005KT 330V040 CAVOK 11/08 Q1019 NOSIG,LFOT,2023-05-20T06:00:00Z,47.43,0.72,11.0,8.0,10,5,,6.21,30.088583,,,TRUE,,,TRUE,,,,,CAVOK,,,,,,,,VFR,,,,,,,,,,,,METAR,107.0
LFOP 200600Z AUTO 01011KT 9000 NSC 10/08 Q1021 NOSIG,LFOP,2023-05-20T06:00:00Z,49.37,1.17,10.0,8.0,10,11,,5.59,30.147638,,,TRUE,,,TRUE,,,,,CLR,,,,,,,,VFR,,,,,,,,,,,,METAR,149.0
LFOK 200600Z AUTO 02010KT CAVOK 13/08 Q1018 NOSIG,LFOK,2023-05-20T06:00:00Z,48.78,4.15,13.0,8.0,20,10,,6.21,30.059055,,,TRUE,,,TRUE,,,,,CAVOK,,,,,,,,VFR,,,,,,,,,,,,METAR,166.0
LFOJ 200600Z AUTO 36008KT CAVOK 11/08 Q1018 NOSIG,LFOJ,2023-05-20T06:00:00Z,47.98,1.75,11.0,8.0,360,8,,6.21,30.059055,,,TRUE,,,TRUE,,,,,CAVOK,,,,,,,,VFR,,,,,,,,,,,,METAR,122.0
LFOH 200600Z AUTO 04011KT 6000 BKN009 11/10 Q1023 NOSIG,LFOH,2023-05-20T06:00:00Z,49.52,0.08,11.0,10.0,40,11,,3.73,30.206694,,,TRUE,,,TRUE,,,,,BKN,900,,,,,,,IFR,,,,,,,,,,,,METAR,87.0
LFOE 200600Z AUTO 01005KT 310V060 CAVOK 11/08 Q1021 NOSIG,LFOE,2023-05-20T06:00:00Z,49.02,1.22,11.0,8.0,10,5,,6.21,30.147638,,,TRUE,,,TRUE,,,,,CAVOK,,,,,,,,VFR,,,,,,,,,,,,METAR,132.0
LFOB 200600Z AUTO 36005KT 330V030 CAVOK 10/08 Q1021 NOSIG,LFOB,2023-05-20T06:00:00Z,49.47,2.12,10.0,8.0,360,5,,6.21,30.147638,,,TRUE,,,TRUE,,,,,CAVOK,,,,,,,,VFR,,,,,,,,,,,,METAR,99.0
LFOA 200600Z AUTO 01006KT CAVOK 12/08 Q1017,LFOA,2023-05-20T06:00:00Z,47.05,2.63,12.0,8.0,10,6,,6.21,30.029528,,,TRUE,,,,,,,,CAVOK,,,,,,,,VFR,,,,,,,,,,,,METAR,174.0
LFMY 200600Z AUTO 02002KT CAVOK 13/13 Q1012 TEMPO BKN012,LFMY,2023-05-20T06:00:00Z,43.6,5.1,13.0,13.0,20,2,,6.21,29.88189,,,TRUE,,,,,,,,CAVOK,,,,,,,,VFR,,,,,,,,,,,,METAR,57.0
LFMV 200600Z AUTO 02003KT 350V060 CAVOK 13/12 Q1012 NOSIG,LFMV,2023-05-20T06:00:00Z,43.9,4.9,13.0,12.0,20,3,,6.21,29.88189,,,TRUE,,,TRUE,,,,,CAVOK,,,,,,,,VFR,,,,,,,,,,,,METAR,33.0
LFMU 200600Z AUTO 28007KT 9999 -RA //////TCU 14/10 Q1013 BECMG FEW040 SCT060 BKN110,LFMU,2023-05-20T06:00:00Z,43.32,3.35,14.0,10.0,280,7,,6.21,29.911417,,,TRUE,,,,,,,-RA,,,,,,,,,,,,,,,,,,,,,METAR,14.0
LFMT 200600Z AUTO 33003KT 290V350 CAVOK 15/13 Q1012 NOSIG,LFMT,2023-05-20T06:00:00Z,43.57,3.97,15.0,13.0,330,3,,6.21,29.88189,,,TRUE,,,TRUE,,,,,CAVOK,,,,,,,,VFR,,,,,,,,,,,,METAR,1.0
LFMP 200600Z AUTO 30018KT 9999 OVC076 16/07 Q1013 NOSIG,LFMP,2023-05-20T06:00:00Z,42.73,2.87,16.0,7.0,300,18,,6.21,29.911417,,,TRUE,,,TRUE,,,,,OVC,7600,,,,,,,VFR,,,,,,,,,,,,METAR,41.0
LFMO 200600Z AUTO 35016KT 330V030 CAVOK 15/10 Q1012 NOSIG,LFMO,2023-05-20T06:00:00Z,44.13,4.87,15.0,10.0,350,16,,6.21,29.88189,,,TRUE,,,TRUE,,,,,CAVOK,,,,,,,,VFR,,,,,,,,,,,,METAR,56.0
LFMN 200600Z 32006KT 9999 FEW040 BKN083 16/12 Q1011 NOSIG,LFMN,2023-05-20T06:00:00Z,43.65,7.2,16.0,12.0,320,6,,6.21,29.852362,,,,,,TRUE,,,,,FEW,4000,BKN,8300,,,,,VFR,,,,,,,,,,,,METAR,4.0
LFML 200600Z AUTO 36007KT CAVOK 15/13 Q1012 NOSIG,LFML,2023-05-20T06:00:00Z,43.45,5.22,15.0,13.0,360,7,,6.21,29.88189,,,TRUE,,,TRUE,,,,,CAVOK,,,,,,,,VFR,,,,,,,,,,,,METAR,20.0
LFMK 200600Z AUTO 27006KT 240V300 9999 OVC080 11/09 Q1015 TEMPO 4000 -SHRA BKN030TCU,LFMK,2023-05-20T06:00:00Z,43.22,2.32,11.0,9.0,270,6,,6.21,29.970472,,,TRUE,,,,,,,,OVC,8000,,,,,,,VFR,,,,,,,,,,,,SPECI,124.0
LFMI 200600Z AUTO 02005KT CAVOK 14/14 Q1012 NOSIG,LFMI,2023-05-20T06:00:00Z,43.52,4.93,14.0,14.0,20,5,,6.21,29.88189,,,TRUE,,,TRUE,,,,,CAVOK,,,,,,,,VFR,,,,,,,,,,,,METAR,20.0
LFMH 200600Z AUTO 35006KT 310V020 9999 BKN049 OVC110 12/09 Q1015,LFMH,2023-05-20T06:00:00Z,45.52,4.28,12.0,9.0,350,6,,6.21,29.970472,,,TRUE,,,,,,,,BKN,4900,OVC,11000,,,,,VFR,,,,,,,,,,,,METAR,400.0
LFMD 200600Z AUTO VRB01KT 9999 -RA OVC088 15/12 Q1011 TEMPO RA BKN014,LFMD,2023-05-20T06:00:00Z,43.53,6.95,15.0,12.0,0,1,,6.21,29.852362,,,TRUE,,,,,,,-RA,OVC,8800,,,,,,,VFR,,,,,,,,,,,,SPECI,2.0
LFMC 200600Z AUTO VRB02KT 9999 ////// 13/13 Q1011,LFMC,2023-05-20T06:00:00Z,43.37,6.38,13.0,13.0,0,2,,6.21,29.852362,,,TRUE,,,,,,,,,,,,,,,,,,,,,,,,,,,,METAR,79.0
LFLY 200600Z AUTO 35006KT 310V010 CAVOK 13/09 Q1014 NOSIG,LFLY,2023-05-20T06:00:00Z,45.72,4.95,13.0,9.0,350,6,,6.21,29.940945,,,TRUE,,,TRUE,,,,,CAVOK,,,,,,,,VFR,,,,,,,,,,,,METAR,197.0
LFLX 200600Z AUTO 01007KT CAVOK 11/08 Q1017 NOSIG,LFLX,2023-05-20T06:00:00Z,46.87,1.73,11.0,8.0,10,7,,6.21,30.029528,,,TRUE,,,TRUE,,,,,CAVOK,,,,,,,,VFR,,,,,,,,,,,,METAR,157.0
LFLW 200600Z AUTO VRB02KT CAVOK 08/07 Q1015 NOSIG,LFLW,2023-05-20T06:00:00Z,44.88,2.42,8.0,7.0,0,2,,6.21,29.970472,,,TRUE,,,TRUE,,,,,CAVOK,,,,,,,,VFR,,,,,,,,,,,,METAR,638.0
LFLV 200600Z AUTO VRB02KT CAVOK 11/08 Q1016,LFLV,2023-05-20T06:00:00Z,46.17,3.38,11.0,8.0,0,2,,6.21,30.0,,,TRUE,,,,,,,,CAVOK,,,,,,,,VFR,,,,,,,,,,,,METAR,248.0
LFLU 200600Z AUTO 01009KT 9999 BKN042 OVC130 13/10 Q1013,LFLU,2023-05-20T06:00:00Z,44.92,4.98,13.0,10.0,10,9,,6.21,29.911417,,,TRUE,,,,,,,,BKN,4200,OVC,13000,,,,,VFR,,,,,,,,,,,,METAR,162.0
LFLS 200600Z AUTO VRB02KT 9999 FEW028 SCT037 OVC130 11/10 Q1014 TEMPO 0800 FG VV///,LFLS,2023-05-20T06:00:00Z,45.37,5.32,11.0,10.0,0,2,,6.21,29.940945,,,TRUE,,,,,,,,FEW,2800,SCT,3700,OVC,13000,,,VFR,,,,,,,,,,,,SPECI,386.0
LFLP 200600Z AUTO 00000KT 9999 FEW037 BKN130 10/09 Q1015 NOSIG,LFLP,2023-05-20T06:00:00Z,45.92,6.1,10.0,9.0,0,0,,6.21,29.970472,,,TRUE,,,TRUE,,,,,FEW,3700,BKN,13000,,,,,VFR,,,,,,,,,,,,METAR,460.0
LFLN 200600Z AUTO VRB02KT CAVOK 10/09 Q1016 NOSIG,LFLN,2023-05-20T06:00:00Z,46.42,4.02,10.0,9.0,0,2,,6.21,30.0,,,TRUE,,,TRUE,,,,,CAVOK,,,,,,,,VFR,,,,,,,,,,,,METAR,238.0
LFLL 200600Z 33005KT CAVOK 12/09 Q1014 NOSIG,LFLL,2023-05-20T06:00:00Z,45.72,5.07,12.0,9.0,330,5,,6.21,29.940945,,,,,,TRUE,,,,,CAVOK,,,,,,,,VFR,,,,,,,,,,,,METAR,234.0
LFLH 200600Z AUTO 01008KT 350V050 9999 OVC047 13/08 Q1015,LFLH,2023-05-20T06:00:00Z,46.83,4.82,13.0,8.0,10,8,,6.21,29.970472,,,TRUE,,,,,,,,OVC,4700,,,,,,,VFR,,,,,,,,,,,,METAR,190.0
LFLC 200600Z AUTO 35006KT 310V020 9999 FEW045 BKN056 BKN076 13/07 Q1016 TEMPO BKN013,LFLC,2023-05-20T06:00:00Z,45.78,3.17,13.0,7.0,350,6,,6.21,30.0,,,TRUE,,,,,,,,FEW,4500,BKN,5600,BKN,7600,,,VFR,,,,,,,,,,,,SPECI,325.0
LFLB 200600Z AUTO 02008KT 9999 BKN028 OVC034 14/10 Q1014 NOSIG,LFLB,2023-05-20T06:00:00Z,45.63,5.87,14.0,10.0,20,8,,6.21,29.940945,,,TRUE,,,TRUE,,,,,BKN,2800,OVC,3400,,,,,MVFR,,,,,,,,,,,,METAR,234.0
LFKS 200600Z AUTO 34015KT 3300 +RA BR BKN010/// OVC016/// //////TCU 15/14 Q1008,LFKS,2023-05-20T06:00:00Z,41.92,9.4,15.0,14.0,340,15,,2.05,29.763779,,,TRUE,,,,,,,+RA BR,BKN,1000,OVC,1600,,,,,IFR,,,,,,,,,,,,METAR,22.0
LFKJ 200600Z AUTO VRB02KT 9000 -RA FEW011/// BKN060/// BKN076/// //////TCU 14/13 Q1007 BECMG RA,LFKJ,2023-05-20T06:00:00Z,41.92,8.8,14.0,13.0,0,2,,5.59,29.734253,,,TRUE,,,,,,,-RA,FEW,1100,BKN,6000,BKN,7600,,,VFR,,,,,,,,,,,,METAR,9.0
LFKF 200600Z AUTO 07011KT 9999 -DZ BKN032 OVC039 15/14 Q1006 TEMPO 05015G25KT RA FEW040TCU,LFKF,2023-05-20T06:00:00Z,41.5,9.08,15.0,14.0,70,11,,6.21,29.704725,,,TRUE,,,,,,,-DZ,BKN,3200,OVC,3900,,,,,VFR,,,,,,,,,,,,SPECI,15.0
LFKC 200600Z AUTO 02015KT 350V050 9999 FEW021 SCT052 BKN130 16/13 Q1007 TEMPO RA FEW040 FEW045CB BKN050,LFKC,2023-05-20T06:00:00Z,42.52,8.8,16.0,13.0,20,15,,6.21,29.734253,,,TRUE,,,,,,,,FEW,2100,SCT,5200,BKN,13000,,,VFR,,,,,,,,,,,,SPECI,38.0
LFKB 200600Z AUTO 02008KT 3200 RA BR BKN007/// OVC012/// //////TCU 15/15 Q1010 TEMPO 2000 BKN008 FEW025CB BKN030,LFKB,2023-05-20T06:00:00Z,42.55,9.48,15.0,15.0,20,8,,1.99,29.822834,,,TRUE,,,,,,,RA BR,BKN,700,OVC,1200,,,,,IFR,,,,,,,,,,,,METAR,7.0
LFJR 200600Z AUTO 36006KT CAVOK 09/07 Q1020,LFJR,2023-05-20T06:00:00Z,47.57,-0.32,9.0,7.0,360,6,,6.21,30.11811,,,TRUE,,,,,,,,CAVOK,,,,,,,,VFR,,,,,,,,,,,,METAR,50.0
LFJL 200600Z AUTO 02006KT 300V060 CAVOK 13/08 Q1018 NOSIG,LFJL,2023-05-20T06:00:00Z,48.97,6.25,13.0,8.0,20,6,,6.21,30.059055,,,TRUE,,,TRUE,,,,,CAVOK,,,,,,,,VFR,,,,,,,,,,,,METAR,259.0
LFGJ 200600Z AUTO 01009KT CAVOK 13/09 Q1015 NOSIG,LFGJ,2023-05-20T06:00:00Z,47.05,5.43,13.0,9.0,10,9,,6.21,29.970472,,,TRUE,,,TRUE,,,,,CAVOK,,,,,,,,VFR,,,,,,,,,,,,METAR,191.0
LFGA 200600Z AUTO 02008KT 350V050 9999 BKN038 OVC046 14/08 Q1016,LFGA,2023-05-20T06:00:00Z,48.1,7.35,14.0,8.0,20,8,,6.21,30.0,,,TRUE,,,,,,,,BKN,3800,OVC,4600,,,,,VFR,,,,,,,,,,,,METAR,191.0
LFCR 200600Z AUTO 35007KT CAVOK 11/07 Q1015 NOSIG,LFCR,2023-05-20T06:00:00Z,44.4,2.47,11.0,7.0,350,7,,6.21,29.970472,,,TRUE,,,TRUE,,,,,CAVOK,,,,,,,,VFR,,,,,,,,,,,,METAR,576.0
LFCK 200600Z AUTO 28004KT 9999 OVC014 12/09 Q1017 NOSIG,LFCK,2023-05-20T06:00:00Z,43.55,2.28,12.0,9.0,280,4,,6.21,30.029528,,,TRUE,,,TRUE,,,,,OVC,1400,,,,,,,MVFR,,,,,,,,,,,,METAR,223.0
LFBZ 200600Z AUTO 30004KT CAVOK 15/11 Q1017 NOSIG,LFBZ,2023-05-20T06:00:00Z,43.47,-1.53,15.0,11.0,300,4,,6.21,30.029528,,,TRUE,,,TRUE,,,,,CAVOK,,,,,,,,VFR,,,,,,,,,,,,METAR,70.0
LFBY 200600Z AUTO VRB02KT 9999 // ////// 11/10 Q1017,LFBY,2023-05-20T06:00:00Z,43.68,-1.07,11.0,10.0,0,2,,6.21,30.029528,,,TRUE,,,,,,,,,,,,,,,,,,,,,,,,,,,,METAR,32.0
LFBX 200600Z AUTO VRB02KT CAVOK 13/08 Q1016,LFBX,2023-05-20T06:00:00Z,45.2,0.82,13.0,8.0,0,2,,6.21,30.0,,,TRUE,,,,,,,,CAVOK,,,,,,,,VFR,,,,,,,,,,,,METAR,97.0
LFBU 200600Z AUTO 35007KT CAVOK 11/08 Q1017 NOSIG,LFBU,2023-05-20T06:00:00Z,45.72,0.22,11.0,8.0,350,7,,6.21,30.029528,,,TRUE,,,TRUE,,,,,CAVOK,,,,,,,,VFR,,,,,,,,,,,,METAR,124.0
LFBT 200600Z AUTO 18005KT 9999 FEW009 OVC066 11/09 Q1017 NOSIG,LFBT,2023-05-20T06:00:00Z,43.18,0.0,11.0,9.0,180,5,,6.21,30.029528,,,TRUE,,,TRUE,,,,,FEW,900,OVC,6600,,,,,VFR,,,,,,,,,,,,METAR,359.0
LFBP 200600Z AUTO 21003KT 9999 FEW012 BKN084 OVC100 12/11 Q1017 TEMPO BKN007,LFBP,2023-05-20T06:00:00Z,43.38,-0.42,12.0,11.0,210,3,,6.21,30.029528,,,TRUE,,,,,,,,FEW,1200,BKN,8400,OVC,10000,,,VFR,,,,,,,,,,,,SPECI,182.0
LFBO 200600Z AUTO 27010KT CAVOK 12/10 Q1016 NOSIG,LFBO,2023-05-20T06:00:00Z,43.62,1.37,12.0,10.0,270,10,,6.21,30.0,,,TRUE,,,TRUE,,,,,CAVOK,,,,,,,,VFR,,,,,,,,,,,,METAR,150.0
LFBM 200600Z AUTO VRB02KT CAVOK 11/09 Q1017 NOSIG,LFBM,2023-05-20T06:00:00Z,43.92,-0.5,11.0,9.0,0,2,,6.21,30.029528,,,TRUE,,,TRUE,,,,,CAVOK,,,,,,,,VFR,,,,,,,,,,,,METAR,56.0
LFBL 200600Z AUTO 01008KT 340V040 CAVOK 11/07 Q1017 NOSIG,LFBL,2023-05-20T06:00:00Z,45.87,1.17,11.0,7.0,10,8,,6.21,30.029528,,,TRUE,,,TRUE,,,,,CAVOK,,,,,,,,VFR,,,,,,,,,,,,METAR,402.0
LFBI 200600Z AUTO 33007KT CAVOK 09/08 Q1019 NOSIG,LFBI,2023-05-20T06:00:00Z,46.58,0.32,9.0,8.0,330,7,,6.21,30.088583,,,TRUE,,,TRUE,,,,,CAVOK,,,,,,,,VFR,,,,,,,,,,,,METAR,117.0
LFBH 200600Z AUTO 02009KT CAVOK 11/09 Q1019 NOSIG,LFBH,2023-05-20T06:00:00Z,46.18,-1.2,11.0,9.0,20,9,,6.21,30.088583,,,TRUE,,,TRUE,,,,,CAVOK,,,,,,,,VFR,,,,,,,,,,,,METAR,18.0
LFBG 200600Z AUTO 36003KT CAVOK 11/08 Q1018,LFBG,2023-05-20T06:00:00Z,45.67,-0.32,11.0,8.0,360,3,,6.21,30.059055,,,TRUE,,,,,,,,CAVOK,,,,,,,,VFR,,,,,,,,,,,,METAR,28.0
LFBF 200600Z AUTO 27005KT CAVOK 13/10 Q1016,LFBF,2023-05-20T06:00:00Z,43.53,1.37,13.0,10.0,270,5,,6.21,30.0,,,TRUE,,,,,,,,CAVOK,,,,,,,,VFR,,,,,,,,,,,,METAR,159.0
LFBE 200600Z AUTO 27005KT CAVOK 12/08 Q1016 NOSIG,LFBE,2023-05-20T06:00:00Z,44.82,0.52,12.0,8.0,270,5,,6.21,30.0,,,TRUE,,,TRUE,,,,,CAVOK,,,,,,,,VFR,,,,,,,,,,,,METAR,49.0
LFBD 200600Z AUTO 01005KT CAVOK 13/08 Q1017 NOSIG,LFBD,2023-05-20T06:00:00Z,44.82,-0.7,13.0,8.0,10,5,,6.21,30.029528,,,TRUE,,,TRUE,,,,,CAVOK,,,,,,,,VFR,,,,,,,,,,,,METAR,48.0
LFBC 200600Z AUTO 36007KT CAVOK 12/08 Q1017,LFBC,2023-05-20T06:00:00Z,44.52,-1.12,12.0,8.0,360,7,,6.21,30.029528,,,TRUE,,,,,,,,CAVOK,,,,,,,,VFR,,,,,,,,,,,,METAR,22.0
LFBA 200600Z AUTO 27005KT CAVOK 14/08 Q1016 NOSIG,LFBA,2023-05-20T06:00:00Z,44.17,0.6,14.0,8.0,270,5,,6.21,30.0,,,TRUE,,,TRUE,,,,,CAVOK,,,,,,,,VFR,,,,,,,,,,,,METAR,68.0
LFAT 200600Z AUTO 03008KT CAVOK 12/10 Q1023 NOSIG,LFAT,2023-05-20T06:00:00Z,50.52,1.62,12.0,10.0,30,8,,6.21,30.206694,,,TRUE,,,TRUE,,,,,CAVOK,,,,,,,,VFR,,,,,,,,,,,,METAR,2.0
LFAQ 200600Z AUTO 03012KT 9000 NSC 11/08 Q1021 NOSIG,LFAQ,2023-05-20T06:00:00Z,49.97,2.7,11.0,8.0,30,12,,5.59,30.147638,,,TRUE,,,TRUE,,,,,CLR,,,,,,,,VFR,,,,,,,,,,,,METAR,107.0
LFAC 200600Z AUTO 04013KT CAVOK 13/11 Q1023,LFAC,2023-05-20T06:00:00Z,50.97,1.95,13.0,11.0,40,13,,6.21,30.206694,,,TRUE,,,,,,,,CAVOK,,,,,,,,VFR,,,,,,,,,,,,METAR,3.0
LEZL 200600Z VRB02KT 9999 FEW012 BKN030 18/15 Q1013 NOSIG,LEZL,2023-05-20T06:00:00Z,37.42,-5.9,18.0,15.0,0,2,,6.21,29.911417,,,,,,TRUE,,,,,FEW,1200,BKN,3000,,,,,MVFR,,,,,,,,,,,,METAR,26.0
LEZG 200600Z 30012KT CAVOK 12/06 Q1015,LEZG,2023-05-20T06:00:00Z,41.67,-1.02,12.0,6.0,300,12,,6.21,29.970472,,,,,,,,,,,CAVOK,,,,,,,,VFR,,,,,,,,,,,,METAR,245.0
LEXJ 200600Z 23006KT 200V260 9999 SCT018 BKN058 14/11 Q1020,LEXJ,2023-05-20T06:00:00Z,43.42,-3.82,14.0,11.0,230,6,,6.21,30.11811,,,,,,,,,,,SCT,1800,BKN,5800,,,,,VFR,,,,,,,,,,,,METAR,1.0
LEVX 200600Z 08003KT 020V130 CAVOK 12/05 Q1017 NOSIG,LEVX,2023-05-20T06:00:00Z,42.23,-8.62,12.0,5.0,80,3,,6.21,30.029528,,,,,,TRUE,,,,,CAVOK,,,,,,,,VFR,,,,,,,,,,,,METAR,253.0
LEVT 200600Z 31009KT 280V350 9999 FEW015 BKN028 BKN045 10/08 Q1018,LEVT,2023-05-20T06:00:00Z,42.87,-2.72,10.0,8.0,310,9,,6.21,30.059055,,,,,,,,,,,FEW,1500,BKN,2800,BKN,4500,,,MVFR,,,,,,,,,,,,METAR,501.0
LEVS 200600Z 02003KT 330V100 CAVOK 10/M00 Q1016,LEVS,2023-05-20T06:00:00Z,40.37,-3.78,10.0,0.0,20,3,,6.21,30.0,,,,,,,,,,,CAVOK,,,,,,,,VFR,,,,,,,,,,,,METAR,683.0
LEVD 200600Z 06006KT 030V090 CAVOK 05/03 Q1018,LEVD,2023-05-20T06:00:00Z,41.72,-4.85,5.0,3.0,60,6,,6.21,30.059055,,,,,,,,,,,CAVOK,,,,,,,,VFR,,,,,,,,,,,,METAR,844.0
LEVC 200600Z 30006KT 9999 FEW035 14/05 Q1014 NOSIG,LEVC,2023-05-20T06:00:00Z,39.5,-0.47,14.0,5.0,300,6,,6.21,29.940945,,,,,,TRUE,,,,,FEW,3500,,,,,,,VFR,,,,,,,,,,,,METAR,58.0
LETU 200600Z AUTO 31012KT 9999 NCD 13/06 Q1016,LETU,2023-05-20T06:00:00Z,,,13.0,6.0,310,12,,6.21,30.0,,,TRUE,,,,,,,,CLR,,,,,,,,VFR,,,,,,,,,,,,METAR,
LETO 200600Z 02006KT CAVOK 06/M02 Q1016 NOSIG,LETO,2023-05-20T06:00:00Z,40.48,-3.47,6.0,-2.0,20,6,,6.21,30.0,,,,,,TRUE,,,,,CAVOK,,,,,,,,VFR,,,,,,,,,,,,METAR,598.0
LETL 200600Z AUTO 02003KT 340V050 CAVOK 03/00 Q1016,LETL,2023-05-20T06:00:00Z,40.42,-1.22,3.0,0.0,20,3,,6.21,30.0,,,TRUE,,,,,,,,CAVOK,,,,,,,,VFR,,,,,,,,,,,,METAR,1024.0
LEST 200600Z 02011KT 340V060 9999 FEW015 10/08 Q1020 NOSIG,LEST,2023-05-20T06:00:00Z,42.88,-8.42,10.0,8.0,20,11,,6.21,30.11811,,,,,,TRUE,,,,,FEW,1500,,,,,,,VFR,,,,,,,,,,,,METAR,363.0
LESO 200600Z 31008KT 260V350 9999 SCT013 FEW016TCU BKN027 16/14 Q1017,LESO,2023-05-20T06:00:00Z,43.35,-1.8,16.0,14.0,310,8,,6.21,30.029528,,,,,,,,,,,SCT,1300,FEW,1600,BKN,2700,,,MVFR,,,,,,,,,,,,METAR,3.0
LESB 200600Z AUTO 35004KT 320V020 8000 -RA FEW013/// SCT034/// BKN039/// 15/12 Q1012,LESB,2023-05-20T06:00:00Z,39.6,2.7,15.0,12.0,350,4,,4.97,29.88189,,,TRUE,,,,,,,-RA,FEW,1300,SCT,3400,BKN,3900,,,MVFR,,,,,,,,,,,,METAR,48.0
LESA 200600Z 07006KT 040V100 CAVOK 07/02 Q1018,LESA,2023-05-20T06:00:00Z,40.95,-5.5,7.0,2.0,70,6,,6.21,30.059055,,,,,,,,,,,CAVOK,,,,,,,,VFR,,,,,,,,,,,,METAR,788.0
LERT 200600Z 19008KT 160V220 9000 SCT008 BKN014 18/16 Q1013 NOSIG,LERT,2023-05-20T06:00:00Z,36.63,-6.33,18.0,16.0,190,8,,5.59,29.911417,,,,,,TRUE,,,,,SCT,800,BKN,1400,,,,,MVFR,,,,,,,,,,,,METAR,27.0
LERS 200600Z VRB01KT CAVOK 14/11 Q1013,LERS,2023-05-20T06:00:00Z,41.13,1.17,14.0,11.0,0,1,,6.21,29.911417,,,,,,,,,,,CAVOK,,,,,,,,VFR,,,,,,,,,,,,METAR,68.0
LERI 200600Z 24004KT 9999 FEW030 13/11 Q1014 NOSIG,LERI,2023-05-20T06:00:00Z,37.95,-1.22,13.0,11.0,240,4,,6.21,29.940945,,,,,,TRUE,,,,,FEW,3000,,,,,,,VFR,,,,,,,,,,,,METAR,74.0
LEPP 200600Z 32008KT 9999 SCT032 11/06 Q1017,LEPP,2023-05-20T06:00:00Z,42.77,-1.65,11.0,6.0,320,8,,6.21,30.029528,,,,,,,,,,,SCT,3200,,,,,,,VFR,,,,,,,,,,,,METAR,448.0
LEPA 200600Z VRB02KT 9999 -RA SCT025 BKN045 16/14 Q1012 NOSIG,LEPA,2023-05-20T06:00:00Z,39.55,2.73,16.0,14.0,0,2,,6.21,29.88189,,,,,,TRUE,,,,-RA,SCT,2500,BKN,4500,,,,,VFR,,,,,,,,,,,,METAR,8.0
LEMO 200600Z 15002KT 9999 FEW016 12/09 Q1013 NOSIG,LEMO,2023-05-20T06:00:00Z,37.17,-5.62,12.0,9.0,150,2,,6.21,29.911417,,,,,,TRUE,,,,,FEW,1600,,,,,,,VFR,,,,,,,,,,,,METAR,82.0
LEMI 200600Z 27003KT 240V300 CAVOK 14/10 Q1014,LEMI,2023-05-20T06:00:00Z,37.8,-1.12,14.0,10.0,270,3,,6.21,29.940945,,,,,,,,,,,CAVOK,,,,,,,,VFR,,,,,,,,,,,,METAR,193.0
LEMH 200600Z 36015KT 320V020 9999 FEW020 BKN025 16/12 Q1010,LEMH,2023-05-20T06:00:00Z,39.87,4.22,16.0,12.0,360,15,,6.21,29.822834,,,,,,,,,,,FEW,2000,BKN,2500,,,,,MVFR,,,,,,,,,,,,METAR,82.0
LEMG 200600Z 28007KT CAVOK 14/11 Q1013 NOSIG,LEMG,2023-05-20T06:00:00Z,36.67,-4.47,14.0,11.0,280,7,,6.21,29.911417,,,,,,TRUE,,,,,CAVOK,,,,,,,,VFR,,,,,,,,,,,,METAR,5.0
LEMD 200600Z VRB01KT CAVOK 08/M01 Q1016 NOSIG,LEMD,2023-05-20T06:00:00Z,40.45,-3.57,8.0,-1.0,0,1,,6.21,30.0,,,,,,TRUE,,,,,CAVOK,,,,,,,,VFR,,,,,,,,,,,,METAR,589.0
LELO 200600Z AUTO 29007KT 260V320 9999 FEW033 SCT050 OVC066 10/06 Q1018,LELO,2023-05-20T06:00:00Z,42.45,-2.32,10.0,6.0,290,7,,6.21,30.059055,,,TRUE,,,,,,,,FEW,3300,SCT,5000,OVC,6600,,,VFR,,,,,,,,,,,,METAR,352.0
LELN 200600Z 32004KT CAVOK 06/00 Q1018,LELN,2023-05-20T06:00:00Z,42.58,-5.65,6.0,0.0,320,4,,6.21,30.059055,,,,,,,,,,,CAVOK,,,,,,,,VFR,,,,,,,,,,,,METAR,911.0
LELL 200600Z VRB02KT 9999 FEW016 14/09 Q1013,LELL,2023-05-20T06:00:00Z,41.52,2.1,14.0,9.0,0,2,,6.21,29.911417,,,,,,,,,,,FEW,1600,,,,,,,VFR,,,,,,,,,,,,METAR,136.0
LELC 200600Z AUTO VRB02KT CAVOK 16/13 Q1014,LELC,2023-05-20T06:00:00Z,37.77,-0.8,16.0,13.0,0,2,,6.21,29.940945,,,TRUE,,,,,,,,CAVOK,,,,,,,,VFR,,,,,,,,,,,,METAR,3.0
LEJR 200600Z VRB01KT 9999 SCT014 13/11 Q1013,LEJR,2023-05-20T06:00:00Z,36.75,-6.07,13.0,11.0,0,1,,6.21,29.911417,,,,,,,,,,,SCT,1400,,,,,,,VFR,,,,,,,,,,,,METAR,25.0
LEIB 200600Z 33004KT 300V010 9999 FEW040 15/12 Q1013 NOSIG,LEIB,2023-05-20T06:00:00Z,38.87,1.38,15.0,12.0,330,4,,6.21,29.911417,,,,,,TRUE,,,,,FEW,4000,,,,,,,VFR,,,,,,,,,,,,METAR,4.0
LEHC 200600Z AUTO 27007KT 240V310 CAVOK 09/05 Q1014,LEHC,2023-05-20T06:00:00Z,42.08,-0.32,9.0,5.0,270,7,,6.21,29.940945,,,TRUE,,,,,,,,CAVOK,,,,,,,,VFR,,,,,,,,,,,,METAR,540.0
LEGT 200600Z 06005KT CAVOK 10/M00 Q1016,LEGT,2023-05-20T06:00:00Z,40.28,-3.72,10.0,0.0,60,5,,6.21,30.0,,,,,,,,,,,CAVOK,,,,,,,,VFR,,,,,,,,,,,,METAR,619.0
LEGR 200600Z 00000KT 7000 NSC 09/09 Q1015,LEGR,2023-05-20T06:00:00Z,37.18,-3.78,9.0,9.0,0,0,,4.35,29.970472,,,,,,,,,,,CLR,,,,,,,,MVFR,,,,,,,,,,,,METAR,560.0
LEGE 200600Z 00000KT CAVOK 12/10 Q1012,LEGE,2023-05-20T06:00:00Z,41.9,2.77,12.0,10.0,0,0,,6.21,29.88189,,,,,,,,,,,CAVOK,,,,,,,,VFR,,,,,,,,,,,,METAR,140.0
LEDA 200600Z 21006KT CAVOK 11/07 Q1014,LEDA,2023-05-20T06:00:00Z,41.73,0.53,11.0,7.0,210,6,,6.21,29.940945,,,,,,,,,,,CAVOK,,,,,,,,VFR,,,,,,,,,,,,METAR,352.0
LECO 200600Z 02006KT 330V060 9999 FEW028 13/09 Q1021 NOSIG,LECO,2023-05-20T06:00:00Z,43.3,-8.37,13.0,9.0,20,6,,6.21,30.147638,,,,,,TRUE,,,,,FEW,2800,,,,,,,VFR,,,,,,,,,,,,METAR,80.0
LECH 200600Z AUTO 00000KT CAVOK 13/06 Q1014,LECH,2023-05-20T06:00:00Z,40.2,0.07,13.0,6.0,0,0,,6.21,29.940945,,,TRUE,,,,,,,,CAVOK,,,,,,,,VFR,,,,,,,,,,,,METAR,360.0
LEBZ 200600Z 36005KT CAVOK 13/03 Q1013,LEBZ,2023-05-20T06:00:00Z,38.87,-6.82,13.0,3.0,360,5,,6.21,29.911417,,,,,,,,,,,CAVOK,,,,,,,,VFR,,,,,,,,,,,,METAR,183.0
LEBT 200600Z AUTO VRB01KT CAVOK 11/05 Q1014,LEBT,2023-05-20T06:00:00Z,39.58,-0.45,11.0,5.0,0,1,,6.21,29.940945,,,TRUE,,,,,,,,CAVOK,,,,,,,,VFR,,,,,,,,,,,,METAR,50.0
LEBR 200600Z AUTO 31016KT 9999 NCD 12/06 Q1016,LEBR,2023-05-20T06:00:00Z,42.2,-1.43,12.0,6.0,310,16,,6.21,30.0,,,TRUE,,,,,,,,CLR,,,,,,,,VFR,,,,,,,,,,,,METAR,347.0
LEBL 200600Z 31009G20KT 280V350 CAVOK 14/11 Q1012 NOSIG,LEBL,2023-05-20T06:00:00Z,41.28,2.07,14.0,11.0,310,9,20,6.21,29.88189,,,,,,TRUE,,,,,CAVOK,,,,,,,,VFR,,,,,,,,,,,,METAR,2.0
LEBG 200600Z 03005KT 350V080 9999 FEW060 06/03 Q1018,LEBG,2023-05-20T06:00:00Z,42.37,-3.62,6.0,3.0,30,5,,6.21,30.059055,,,,,,,,,,,FEW,6000,,,,,,,VFR,,,,,,,,,,,,METAR,892.0
LEBB 200600Z VRB02KT 9999 FEW017 BKN027 13/11 Q1019 NOSIG,LEBB,2023-05-20T06:00:00Z,43.28,-2.92,13.0,11.0,0,2,,6.21,30.088583,,,,,,TRUE,,,,,FEW,1700,BKN,2700,,,,,MVFR,,,,,,,,,,,,METAR,38.0
LEBA 200600Z 15004KT 9999 FEW020 SCT030 15/10 Q1013,LEBA,2023-05-20T06:00:00Z,37.85,-4.83,15.0,10.0,150,4,,6.21,29.911417,,,,,,,,,,,FEW,2000,SCT,3000,,,,,VFR,,,,,,,,,,,,METAR,88.0
LEAS 200600Z 23004KT 9999 FEW017 SCT051 12/10 Q1021 NOSIG,LEAS,2023-05-20T06:00:00Z,43.57,-6.03,12.0,10.0,230,4,,6.21,30.147638,,,,,,TRUE,,,,,FEW,1700,SCT,5100,,,,,VFR,,,,,,,,,,,,METAR,120.0
LEAO 200600Z 05003KT 350V120 9999 FEW035 10/M00 Q1015,LEAO,2023-05-20T06:00:00Z,38.95,-3.73,10.0,0.0,50,3,,6.21,29.970472,,,,,,,,,,,FEW,3500,,,,,,,VFR,,,,,,,,,,,,METAR,621.0
LEAM 200600Z 36003KT 9999 FEW030 15/12 Q1013,LEAM,2023-05-20T06:00:00Z,36.85,-2.37,15.0,12.0,360,3,,6.21,29.911417,,,,,,,,,,,FEW,3000,,,,,,,VFR,,,,,,,,,,,,METAR,16.0
LEAL 200600Z VRB02KT CAVOK 15/11 Q1013 NOSIG,LEAL,2023-05-20T06:00:00Z,38.27,-0.55,15.0,11.0,0,2,,6.21,29.911417,,,,,,TRUE,,,,,CAVOK,,,,,,,,VFR,,,,,,,,,,,,METAR,26.0
LEAG 200600Z AUTO VRB01KT CAVOK 14/11 Q1013,LEAG,2023-05-20T06:00:00Z,36.12,-5.45,14.0,11.0,0,1,,6.21,29.911417,,,TRUE,,,,,,,,CAVOK,,,,,,,,VFR,,,,,,,,,,,,METAR,4.0
LEAB 200600Z 03003KT 350V070 CAVOK 09/04 Q1015 NOSIG,LEAB,2023-05-20T06:00:00Z,38.95,-1.85,9.0,4.0,30,3,,6.21,29.970472,,,,,,TRUE,,,,,CAVOK,,,,,,,,VFR,,,,,,,,,,,,METAR,704.0
LDZD 200600Z 07012KT 020V100 CAVOK 19/11 Q1014 NOSIG,LDZD,2023-05-20T06:00:00Z,44.1,15.33,19.0,11.0,70,12,,6.21,29.940945,,,,,,TRUE,,,,,CAVOK,,,,,,,,VFR,,,,,,,,,,,,METAR,82.0
LDZA 200600Z 05004KT 340V130 9999 FEW025 16/14 Q1018 BECMG 05010KT,LDZA,2023-05-20T06:00:00Z,45.72,16.07,16.0,14.0,50,4,,6.21,30.059055,,,,,,,,,,,FEW,2500,,,,,,,VFR,,,,,,,,,,,,SPECI,103.0
LDSP 200600Z 03003KT CAVOK 18/13 Q1014 NOSIG,LDSP,2023-05-20T06:00:00Z,43.53,16.3,18.0,13.0,30,3,,6.21,29.940945,,,,,,TRUE,,,,,CAVOK,,,,,,,,VFR,,,,,,,,,,,,METAR,16.0
LDSB 200600Z 11004KT CAVOK 16/09 Q1015,LDSB,2023-05-20T06:00:00Z,43.28,16.68,16.0,9.0,110,4,,6.21,29.970472,,,,,,,,,,,CAVOK,,,,,,,,VFR,,,,,,,,,,,,METAR,525.0
LDRI 200600Z 30003KT 260V030 9999 SCT040 19/12 Q1015,LDRI,2023-05-20T06:00:00Z,45.22,14.57,19.0,12.0,300,3,,6.21,29.970472,,,,,,,,,,,SCT,4000,,,,,,,VFR,,,,,,,,,,,,METAR,80.0
LDPL 200600Z 07013KT CAVOK 19/12 Q1014 NOSIG,LDPL,2023-05-20T06:00:00Z,44.88,13.92,19.0,12.0,70,13,,6.21,29.940945,,,,,,TRUE,,,,,CAVOK,,,,,,,,VFR,,,,,,,,,,,,METAR,63.0
LDOS 200600Z 07008KT 0700 FG OVC002 15/14 Q1019,LDOS,2023-05-20T06:00:00Z,45.47,18.82,15.0,14.0,70,8,,0.43,30.088583,,,,,,,,,,FG,OVC,200,,,,,,,LIFR,,,,,,,,,,,,METAR,82.0
LDLO 200600Z 03010KT CAVOK 18/14 Q1013,LDLO,2023-05-20T06:00:00Z,44.57,14.4,18.0,14.0,30,10,,6.21,29.911417,,,,,,,,,,,CAVOK,,,,,,,,VFR,,,,,,,,,,,,METAR,46.0
LDDU 200600Z 08005KT 050V120 CAVOK 20/09 Q1014 NOSIG,LDDU,2023-05-20T06:00:00Z,42.57,18.27,20.0,9.0,80,5,,6.21,29.940945,,,,,,TRUE,,,,,CAVOK,,,,,,,,VFR,,,,,,,,,,,,METAR,156.0
LCPH 200600Z 10004KT 360V170 9999 FEW020 FEW025TCU BKN040 22/15 Q1009 NOSIG,LCPH,2023-05-20T06:00:00Z,34.72,32.47,22.0,15.0,100,4,,6.21,29.793306,,,,,,TRUE,,,,,FEW,2000,FEW,2500,BKN,4000,,,VFR,,,,,,,,,,,,METAR,8.0
LCLK 200600Z 14005KT 100V180 9999 FEW010 SCT020 22/16 Q1009 NOSIG,LCLK,2023-05-20T06:00:00Z,34.87,33.62,22.0,16.0,140,5,,6.21,29.793306,,,,,,TRUE,,,,,FEW,1000,SCT,2000,,,,,VFR,,,,,,,,,,,,METAR,2.0
LBWN 200600Z 36013KT 9999 SCT025 BKN040 16/12 Q1016 NOSIG,LBWN,2023-05-20T06:00:00Z,43.22,27.82,16.0,12.0,360,13,,6.21,30.0,,,,,,TRUE,,,,,SCT,2500,BKN,4000,,,,,VFR,,,,,,,,,,,,METAR,74.0
LBSF 200600Z VRB01KT CAVOK 14/09 Q1020 NOSIG,LBSF,2023-05-20T06:00:00Z,42.65,23.37,14.0,9.0,0,1,,6.21,30.11811,,,,,,TRUE,,,,,CAVOK,,,,,,,,VFR,,,,,,,,,,,,METAR,592.0
LBPD 200600Z AUTO VRB02KT 9999 FEW079/// 16/12 Q1018 NOSIG,LBPD,2023-05-20T06:00:00Z,42.05,24.85,16.0,12.0,0,2,,6.21,30.059055,,,TRUE,,,TRUE,,,,,FEW,7900,,,,,,,VFR,,,,,,,,,,,,METAR,182.0
LBGO 200600Z AUTO 34003KT 280V030 9999 BKN099/// BKN130/// 18/13 Q1020 NOSIG,LBGO,2023-05-20T06:00:00Z,43.15,25.72,18.0,13.0,340,3,,6.21,30.11811,,,TRUE,,,TRUE,,,,,BKN,9900,BKN,13000,,,,,VFR,,,,,,,,,,,,METAR,84.0
LBBG 200600Z 35011KT 330V030 9000 -RA FEW023 BKN049 16/13 Q1016 NOSIG,LBBG,2023-05-20T06:00:00Z,42.57,27.52,16.0,13.0,350,11,,5.59,30.0,,,,,,TRUE,,,,-RA,FEW,2300,BKN,4900,,,,,VFR,,,,,,,,,,,,METAR,41.0
KTRK 200600Z AUTO 00000KT 10SM CLR 10/07 A3027 RMK AO2,KTRK,2023-05-20T06:00:00Z,39.32,-120.13,10.0,7.0,0,0,,10.0,30.268702,,,TRUE,TRUE,,,,,,,CLR,,,,,,,,VFR,,,,,,,,,,,,SPECI,1800.0
KTKI 200600Z AUTO 36010G19KT 10SM BKN015 20/17 A3010 RMK AO2 T02000172,KTKI,2023-05-20T06:00:00Z,33.18,-96.58,20.0,17.2,360,10,19,10.0,30.100393,,,TRUE,TRUE,,,,,,,BKN,1500,,,,,,,MVFR,,,,,,,,,,,,SPECI,173.0
KMHV 200600Z AUTO 31022KT 10SM CLR 25/01 A3002 RMK AO2,KMHV,2023-05-20T06:00:00Z,35.07,-118.15,25.0,1.0,310,22,,10.0,30.02067,,,TRUE,TRUE,,,,,,,CLR,,,,,,,,VFR,,,,,,,,,,,,METAR,841.0
KLSF 200600Z AUTO 13003KT 5SM BR CLR 18/17 A3004 RMK AO2 SLPNO $,KLSF,2023-05-20T06:00:00Z,32.32,-84.97,18.0,17.0,130,3,,5.0,30.041338,,,TRUE,TRUE,TRUE,,,,,BR,CLR,,,,,,,,MVFR,,,,,,,,,,,,SPECI,68.0
KGZN 200600Z AUTO 36008G13KT 10SM SCT015 BKN034 OVC055 18/15 A3018 RMK AO2,KGZN,2023-05-20T06:00:00Z,32.37,-99.02,18.0,15.0,360,8,13,10.0,30.180119,,,TRUE,TRUE,,,,,,,SCT,1500,BKN,3400,OVC,5500,,,VFR,,,,,,,,,,,,METAR,522.0
KFMH 200600Z 19005KT 10SM BKN040 12/11 A3028,KFMH,2023-05-20T06:00:00Z,41.65,-70.52,12.0,11.0,190,5,,10.0,30.280512,,,,,,,,,,,BKN,4000,,,,,,,VFR,,,,,,,,,,,,METAR,35.0
KETC 200600Z AUTO 02006KT 7SM OVC008 17/16 A3005 RMK AO2 T01710158,KETC,2023-05-20T06:00:00Z,35.93,-77.55,17.1,15.8,20,6,,7.0,30.050198,,,TRUE,TRUE,,,,,,,OVC,800,,,,,,,IFR,,,,,,,,,,,,SPECI,15.0
KBYS 200600Z AUTO 13021G26KT 9SM FEW060 SCT160 SCT180 BKN230 25/10 A2998 RMK AO2 WSHFT 0549 SLP123 $,KBYS,2023-05-20T06:00:00Z,35.28,-116.63,25.0,10.0,130,21,26,9.0,29.97933,1012.3,,TRUE,TRUE,TRUE,,,,,,FEW,6000,SCT,16000,SCT,18000,BKN,23000,VFR,,,,,,,,,,,,SPECI,717.0
KBKL 200600Z AUTO 00000KT 1SM RA BR OVC009 17/16 A2993 RMK AO2 CIG 006V012 P0005 T01720161,KBKL,2023-05-20T06:00:00Z,41.53,-81.67,17.2,16.1,0,0,,1.0,29.929134,,,TRUE,TRUE,,,,,,RA BR,OVC,900,,,,,,,IFR,,,,,,0.05,,,,,,SPECI,177.0
HTZA 200600Z 21010KT 9999 FEW016 SCT080 27/25 Q1016 NOSIG,HTZA,2023-05-20T06:00:00Z,-6.22,39.22,27.0,25.0,210,10,,6.21,30.0,,,,,,TRUE,,,,,FEW,1600,SCT,8000,,,,,VFR,,,,,,,,,,,,METAR,19.0
HTTB 200600Z 12010KT CAVOK 21/16 Q1021 NOSIG,HTTB,2023-05-20T06:00:00Z,-5.07,32.82,21.0,16.0,120,10,,6.21,30.147638,,,,,,TRUE,,,,,CAVOK,,,,,,,,VFR,,,,,,,,,,,,METAR,1185.0
HTSU 200600Z 00000KT 9999 FEW020 18/12 Q1026,HTSU,2023-05-20T06:00:00Z,-7.95,31.6,18.0,12.0,0,0,,6.21,30.295275,,,,,,,,,,,FEW,2000,,,,,,,VFR,,,,,,,,,,,,METAR,1820.0
HTSO 200600Z 00000KT 9999 SCT018 20/18 Q1022,HTSO,2023-05-20T06:00:00Z,-10.67,35.58,20.0,18.0,0,0,,6.21,30.177166,,,,,,,,,,,SCT,1800,,,,,,,VFR,,,,,,,,,,,,METAR,1058.0
HTMW 200600Z 10005KT 9999 FEW024 FEW025CB 25/18 Q1020 NOSIG,HTMW,2023-05-20T06:00:00Z,-2.43,32.92,25.0,18.0,100,5,,6.21,30.11811,,,,,,TRUE,,,,,FEW,2400,FEW,2500,,,,,VFR,,,,,,,,,,,,METAR,1144.0
HTMU 200600Z 10010KT 9999 FEW024 FEW026CB 24/18 Q1020,HTMU,2023-05-20T06:00:00Z,-1.5,33.8,24.0,18.0,100,10,,6.21,30.11811,,,,,,,,,,,FEW,2400,FEW,2600,,,,,VFR,,,,,,,,,,,,METAR,1154.0
HTMT 200600Z 17010KT 9999 FEW020 26/24 Q1016 NOSIG,HTMT,2023-05-20T06:00:00Z,-10.33,40.18,26.0,24.0,170,10,,6.21,30.0,,,,,,TRUE,,,,,FEW,2000,,,,,,,VFR,,,,,,,,,,,,METAR,114.0
HTMP 200600Z 09003KT 9999 FEW018 22/18 Q1021,HTMP,2023-05-20T06:00:00Z,-6.35,31.08,22.0,18.0,90,3,,6.21,30.147638,,,,,,,,,,,FEW,1800,,,,,,,VFR,,,,,,,,,,,,METAR,1073.0
HTMG 200600Z 00000KT 9999 SCT019 21/21 Q1018,HTMG,2023-05-20T06:00:00Z,-6.78,37.65,21.0,21.0,0,0,,6.21,30.059055,,,,,,,,,,,SCT,1900,,,,,,,VFR,,,,,,,,,,,,METAR,512.0
HTKJ 200600Z 11007KT 9999 SCT024 23/18 Q11021 NOSIG,HTKJ,2023-05-20T06:00:00Z,-3.42,37.07,23.0,18.0,110,7,,6.21,,,,,,,TRUE,,,,,SCT,2400,,,,,,,VFR,,,,,,,,,,,,SPECI,893.0
HTKA 200600Z 00000KT 9999 FEW020 23/20 Q1016 NOSIG,HTKA,2023-05-20T06:00:00Z,-4.88,29.67,23.0,20.0,0,0,,6.21,30.0,,,,,,TRUE,,,,,FEW,2000,,,,,,,VFR,,,,,,,,,,,,METAR,819.0
HTIR 200600Z 00000KT 9999 FEW022 19/12 Q1023,HTIR,2023-05-20T06:00:00Z,-7.67,35.75,19.0,12.0,0,0,,6.21,30.206694,,,,,,,,,,,FEW,2200,,,,,,,VFR,,,,,,,,,,,,METAR,1432.0
HTIB 200600Z 00000KT CAVOK 23/15 Q1019,HTIB,2023-05-20T06:00:00Z,,,23.0,15.0,0,0,,6.21,30.088583,,,,,,,,,,,CAVOK,,,,,,,,VFR,,,,,,,,,,,,METAR,
HTDO 200600Z 10008KT 9999 FEW019 20/16 Q1021 NOSIG,HTDO,2023-05-20T06:00:00Z,-6.17,35.77,20.0,16.0,100,8,,6.21,30.147638,,,,,,TRUE,,,,,FEW,1900,,,,,,,VFR,,,,,,,,,,,,METAR,1119.0
HTDA 200600Z 21007KT 9999 FEW015 SCT017 27/24 Q1016 NOSIG,HTDA,2023-05-20T06:00:00Z,-6.88,39.2,27.0,24.0,210,7,,6.21,30.0,,,,,,TRUE,,,,,FEW,1500,SCT,1700,,,,,VFR,,,,,,,,,,,,METAR,53.0
HTBU 200600Z 24005KT 9999 FEW018 FEW020CB 25/20 Q1019 NOSIG,HTBU,2023-05-20T06:00:00Z,-1.32,31.82,25.0,20.0,240,5,,6.21,30.088583,,,,,,TRUE,,,,,FEW,1800,FEW,2000,,,,,VFR,,,,,,,,,,,,METAR,1144.0
HTAR 200600Z 13008KT 9999 BKN022 19/16 Q1024 NOSIG,HTAR,2023-05-20T06:00:00Z,-3.37,36.63,19.0,16.0,130,8,,6.21,30.236221,,,,,,TRUE,,,,,BKN,2200,,,,,,,MVFR,,,,,,,,,,,,METAR,1386.0
HRZA 200600Z 20003KT 9999 FEW025 22/19 Q1023 NOSIG,HRZA,2023-05-20T06:00:00Z,-2.47,28.92,22.0,19.0,200,3,,6.21,30.206694,,,,,,TRUE,,,,,FEW,2500,,,,,,,VFR,,,,,,,,,,,,METAR,1591.0
HRYR 200600Z VRB02KT 9999 SCT025 22/18 Q1023 NOSIG,HRYR,2023-05-20T06:00:00Z,-1.97,30.13,22.0,18.0,0,2,,6.21,30.206694,,,,,,TRUE,,,,,SCT,2500,,,,,,,VFR,,,,,,,,,,,,METAR,1493.0
HKWJ 200600Z 18009KT 9999 FEW028 28/21 Q1013,HKWJ,2023-05-20T06:00:00Z,1.75,40.08,28.0,21.0,180,9,,6.21,29.911417,,,,,,,,,,,FEW,2800,,,,,,,VFR,,,,,,,,,,,,METAR,254.0
HKNW 200600Z 00000KT 9999 FEW020 SCT210 19/14 Q1025,HKNW,2023-05-20T06:00:00Z,-1.32,36.82,19.0,14.0,0,0,,6.21,30.265747,,,,,,,,,,,FEW,2000,SCT,21000,,,,,VFR,,,,,,,,,,,,METAR,1666.0
HKNI 200600Z 00000KT 9999 FG BKN010 16/14,HKNI,2023-05-20T06:00:00Z,-0.33,36.92,16.0,14.0,0,0,,6.21,,,,,,,,,,,FG,BKN,1000,,,,,,,MVFR,,,,,,,,,,,,METAR,1769.0
HKML 200600Z 18010KT 9999 SCT021 28/23 Q1014,HKML,2023-05-20T06:00:00Z,-3.22,40.1,28.0,23.0,180,10,,6.21,29.940945,,,,,,,,,,,SCT,2100,,,,,,,VFR,,,,,,,,,,,,METAR,20.0
HKLO 200600Z 07003KT CAVOK 30/17 Q1012,HKLO,2023-05-20T06:00:00Z,3.12,35.62,30.0,17.0,70,3,,6.21,29.88189,,,,,,,,,,,CAVOK,,,,,,,,VFR,,,,,,,,,,,,METAR,503.0
HKKT 200600Z 00000KT CAVOK 18/15,HKKT,2023-05-20T06:00:00Z,0.97,34.97,18.0,15.0,0,0,,6.21,,,,,,,,,,,,CAVOK,,,,,,,,VFR,,,,,,,,,,,,METAR,1829.0
HKKI 200600Z 11003KT 9999 FEW024CB SCT080 25/16 Q1019,HKKI,2023-05-20T06:00:00Z,-0.1,34.75,25.0,16.0,110,3,,6.21,30.088583,,,,,,,,,,,FEW,2400,SCT,8000,,,,,VFR,,,,,,,,,,,,METAR,1152.0
HKJK 200600Z 00000KT 9999 FEW020 18/14 Q1024 NOSIG,HKJK,2023-05-20T06:00:00Z,-1.32,36.92,18.0,14.0,0,0,,6.21,30.236221,,,,,,TRUE,,,,,FEW,2000,,,,,,,VFR,,,,,,,,,,,,METAR,1615.0
HKGO 200600Z AUTO VRB02KT 15/15 Q1029 A30.38,HKGO,2023-05-20T06:00:00Z,,,15.0,15.0,0,2,,,30.383858,,,TRUE,,,,,,,,,,,,,,,,,,,,,,,,,,,,METAR,
HKGA 200600Z 18008KT 9999 SCT023 27/22 Q1015,HKGA,2023-05-20T06:00:00Z,-0.47,39.65,27.0,22.0,180,8,,6.21,29.970472,,,,,,,,,,,SCT,2300,,,,,,,VFR,,,,,,,,,,,,METAR,147.0
HKEL 200600Z 12004KT 9999 FEW017CB BKN080 19/14 Q1027,HKEL,2023-05-20T06:00:00Z,0.4,35.23,19.0,14.0,120,4,,6.21,30.324802,,,,,,,,,,,FEW,1700,BKN,8000,,,,,VFR,,,,,,,,,,,,METAR,2116.0
HECA 200600Z 01004KT 6000 NSC 20/14 Q1013 NOSIG,HECA,2023-05-20T06:00:00Z,30.12,31.4,20.0,14.0,10,4,,3.73,29.911417,,,,,,TRUE,,,,,CLR,,,,,,,,MVFR,,,,,,,,,,,,METAR,68.0
HDAM 200600Z 07007KT 9999 FEW023 34/26 Q1009,HDAM,2023-05-20T06:00:00Z,11.55,43.17,34.0,26.0,70,7,,6.21,29.793306,,,,,,,,,,,FEW,2300,,,,,,,VFR,,,,,,,,,,,,METAR,6.0
HCMM 200600Z 20010KT 9999 SCT023 30/26 Q1013,HCMM,2023-05-20T06:00:00Z,2.02,45.3,30.0,26.0,200,10,,6.21,29.911417,,,,,,,,,,,SCT,2300,,,,,,,VFR,,,,,,,,,,,,METAR,6.0
HCMF 200600Z 16017KT 9999 FEW032 35/23 Q1007,HCMF,2023-05-20T06:00:00Z,11.27,49.13,35.0,23.0,160,17,,6.21,29.734253,,,,,,,,,,,FEW,3200,,,,,,,VFR,,,,,,,,,,,,METAR,8.0
HAAB 200600Z 21003KT 9999 FEW025 FEW070 18/13 Q1028,HAAB,2023-05-20T06:00:00Z,8.97,38.78,18.0,13.0,210,3,,6.21,30.35433,,,,,,,,,,,FEW,2500,FEW,7000,,,,,VFR,,,,,,,,,,,,METAR,2319.0
GVSV 200600Z 06015KT 9999 FEW022 SCT200 22/17 Q1014 NOSIG,GVSV,2023-05-20T06:00:00Z,16.83,-25.07,22.0,17.0,60,15,,6.21,29.940945,,,,,,TRUE,,,,,FEW,2200,SCT,20000,,,,,VFR,,,,,,,,,,,,METAR,16.0
GVNP 200600Z 03011KT 9999 FEW016 BKN100 22/18 Q1014 NOSIG,GVNP,2023-05-20T06:00:00Z,14.95,-23.48,22.0,18.0,30,11,,6.21,29.940945,,,,,,TRUE,,,,,FEW,1600,BKN,10000,,,,,VFR,,,,,,,,,,,,METAR,70.0
GVAC 200600Z 03010KT 9999 SCT014 BKN200 22/18 Q1014 NOSIG,GVAC,2023-05-20T06:00:00Z,16.73,-22.93,22.0,18.0,30,10,,6.21,29.940945,,,,,,TRUE,,,,,SCT,1400,BKN,20000,,,,,VFR,,,,,,,,,,,,METAR,54.0
GUCY 200600Z 06004KT 9999 BKN015 BKN110 26/25 Q1011 NOSIG,GUCY,2023-05-20T06:00:00Z,9.57,-13.62,26.0,25.0,60,4,,6.21,29.852362,,,,,,TRUE,,,,,BKN,1500,BKN,11000,,,,,MVFR,,,,,,,,,,,,METAR,10.0
GQPP 200600Z 01017KT 8000 NSC 18/12 Q1014 NOSIG,GQPP,2023-05-20T06:00:00Z,20.92,-17.02,18.0,12.0,10,17,,4.97,29.940945,,,,,,TRUE,,,,,CLR,,,,,,,,MVFR,,,,,,,,,,,,METAR,5.0
GQNO 200600Z 34009KT 8000 NSC 20/16 Q1011 NOSIG,GQNO,2023-05-20T06:00:00Z,18.3,-15.97,20.0,16.0,340,9,,4.97,29.852362,,,,,,TRUE,,,,,CLR,,,,,,,,MVFR,,,,,,,,,,,,METAR,1.0
GOTT 200600Z 21004KT CAVOK 30/22 Q1010,GOTT,2023-05-20T06:00:00Z,13.73,-13.65,30.0,22.0,210,4,,6.21,29.822834,,,,,,,,,,,CAVOK,,,,,,,,VFR,,,,,,,,,,,,METAR,53.0
GOSP 200600Z 28004KT CAVOK 25/14 Q1010,GOSP,2023-05-20T06:00:00Z,16.68,-14.97,25.0,14.0,280,4,,6.21,29.822834,,,,,,,,,,,CAVOK,,,,,,,,VFR,,,,,,,,,,,,METAR,10.0
GOSM 200600Z 36002KT CAVOK 29/12 Q1009,GOSM,2023-05-20T06:00:00Z,15.6,-13.33,29.0,12.0,360,2,,6.21,29.793306,,,,,,,,,,,CAVOK,,,,,,,,VFR,,,,,,,,,,,,METAR,28.0
GOOY 200600Z 32012KT CAVOK 23/21 Q1011,GOOY,2023-05-20T06:00:00Z,14.73,-17.5,23.0,21.0,320,12,,6.21,29.852362,,,,,,,,,,,CAVOK,,,,,,,,VFR,,,,,,,,,,,,METAR,21.0
GOOG 200600Z 32004KT CAVOK 28/11 Q1008,GOOG,2023-05-20T06:00:00Z,15.4,-15.08,28.0,11.0,320,4,,6.21,29.763779,,,,,,,,,,,CAVOK,,,,,,,,VFR,,,,,,,,,,,,METAR,38.0
GOOD 200600Z 36006KT CAVOK 25/17 Q1010,GOOD,2023-05-20T06:00:00Z,14.65,-16.22,25.0,17.0,360,6,,6.21,29.822834,,,,,,,,,,,CAVOK,,,,,,,,VFR,,,,,,,,,,,,METAR,9.0
GOGS 200600Z 32004KT CAVOK 25/23 Q1011,GOGS,2023-05-20T06:00:00Z,12.4,-16.75,25.0,23.0,320,4,,6.21,29.852362,,,,,,,,,,,CAVOK,,,,,,,,VFR,,,,,,,,,,,,METAR,13.0
GOGG 200600Z 32002KT CAVOK 24/24 Q1011,GOGG,2023-05-20T06:00:00Z,12.55,-16.27,24.0,24.0,320,2,,6.21,29.852362,,,,,,,,,,,CAVOK,,,,,,,,VFR,,,,,,,,,,,,METAR,24.0
GOBD 200600Z 35013KT 8000 NSC 23/22 Q1011 NOSIG,GOBD,2023-05-20T06:00:00Z,14.67,-17.07,23.0,22.0,350,13,,4.97,29.852362,,,,,,TRUE,,,,,CLR,,,,,,,,MVFR,,,,,,,,,,,,METAR,90.0
GMTT 200600Z 08002KT 7000 NSC 13/13 Q1013 NOSIG,GMTT,2023-05-20T06:00:00Z,35.72,-5.9,13.0,13.0,80,2,,4.35,29.911417,,,,,,TRUE,,,,,CLR,,,,,,,,MVFR,,,,,,,,,,,,METAR,19.0
GMTN 200600Z 20006KT 9999 FEW020 13/09 Q1013 NOSIG,GMTN,2023-05-20T06:00:00Z,35.58,-5.32,13.0,9.0,200,6,,6.21,29.911417,,,,,,TRUE,,,,,FEW,2000,,,,,,,VFR,,,,,,,,,,,,METAR,10.0
GMMZ 200600Z AUTO 29004KT CAVOK 12/M02 Q1017 NOSIG,GMMZ,2023-05-20T06:00:00Z,30.93,-6.9,12.0,-2.0,290,4,,6.21,30.029528,,,TRUE,,,TRUE,,,,,CAVOK,,,,,,,,VFR,,,,,,,,,,,,METAR,1139.0
GMMX 200600Z 25004KT CAVOK 14/09 Q1014 NOSIG,GMMX,2023-05-20T06:00:00Z,31.62,-8.03,14.0,9.0,250,4,,6.21,29.940945,,,,,,TRUE,,,,,CAVOK,,,,,,,,VFR,,,,,,,,,,,,METAR,465.0
GMMW 200600Z VRB01KT CAVOK 11/10 Q1014 NOSIG,GMMW,2023-05-20T06:00:00Z,34.98,-3.02,11.0,10.0,0,1,,6.21,29.940945,,,,,,TRUE,,,,,CAVOK,,,,,,,,VFR,,,,,,,,,,,,METAR,174.0
GMMN 200600Z 21005KT 0200 R35L/0375N FG BKN005 11/10 Q1014 NOSIG,GMMN,2023-05-20T06:00:00Z,33.37,-7.58,11.0,10.0,210,5,,0.12,29.940945,,,,,,TRUE,,,,FG,BKN,500,,,,,,,LIFR,,,,,,,,,,,,METAR,196.0
GMML 200600Z 02005KT 6000 SCT030 16/16 Q1016 NOSIG,GMML,2023-05-20T06:00:00Z,27.13,-13.23,16.0,16.0,20,5,,3.73,30.0,,,,,,TRUE,,,,,SCT,3000,,,,,,,MVFR,,,,,,,,,,,,METAR,63.0
GMMI 200600Z AUTO 15003KT 6000 NSC 12/// Q1015 NOSIG,GMMI,2023-05-20T06:00:00Z,31.4,-9.68,,,150,3,,3.73,29.970472,,,TRUE,,,TRUE,,,,,CLR,,,,,,,,MVFR,,,,,,,,,,,,METAR,102.0
GMMH 200600Z 05017KT 8000 NSC 18/15 Q10186 NOSIG,GMMH,2023-05-20T06:00:00Z,23.72,-15.93,18.0,15.0,50,17,,4.97,,,,,,,TRUE,,,,,CLR,,,,,,,,MVFR,,,,,,,,,,,,METAR,11.0
GMME 200600Z 00000KT 6000 NSC 09/09 Q1013 NOSIG,GMME,2023-05-20T06:00:00Z,34.05,-6.77,9.0,9.0,0,0,,3.73,29.911417,,,,,,TRUE,,,,,CLR,,,,,,,,MVFR,,,,,,,,,,,,METAR,84.0
GMMD 200600Z 36004KT CAVOK 12/09 Q1013 NOSIG,GMMD,2023-05-20T06:00:00Z,32.4,-6.32,12.0,9.0,360,4,,6.21,29.911417,,,,,,TRUE,,,,,CAVOK,,,,,,,,VFR,,,,,,,,,,,,METAR,515.0
GMMC 200600Z 24004KT 5000 SCT010 SCT200 15/14 Q1014,GMMC,2023-05-20T06:00:00Z,33.57,-7.67,15.0,14.0,240,4,,3.11,29.940945,,,,,,,,,,,SCT,1000,SCT,20000,,,,,MVFR,,,,,,,,,,,,METAR,62.0
GMMB 200600Z AUTO 16003KT 3200 NSC ///// Q1013 NOSIG,GMMB,2023-05-20T06:00:00Z,33.65,-7.22,,,160,3,,1.99,29.911417,,,TRUE,,,TRUE,,,,,CLR,,,,,,,,IFR,,,,,,,,,,,,METAR,191.0
GMFO 200600Z 25004KT 220V310 CAVOK 10/08 Q1015 NOSIG,GMFO,2023-05-20T06:00:00Z,34.78,-1.92,10.0,8.0,250,4,,6.21,29.970472,,,,,,TRUE,,,,,CAVOK,,,,,,,,VFR,,,,,,,,,,,,METAR,452.0
GMFM 200600Z 16007KT 11/09 Q1014,GMFM,2023-05-20T06:00:00Z,33.87,-5.52,11.0,9.0,160,7,,,29.940945,,,,,,,,,,,,,,,,,,,,,,,,,,,,,,,METAR,569.0
GMFK 200600Z 01002KT CAVOK 13/05 Q1018 NOSIG,GMFK,2023-05-20T06:00:00Z,31.95,-4.4,13.0,5.0,10,2,,6.21,30.059055,,,,,,TRUE,,,,,CAVOK,,,,,,,,VFR,,,,,,,,,,,,METAR,1033.0
GMFF 200600Z 19006KT CAVOK 10/08 Q1014 NOSIG,GMFF,2023-05-20T06:00:00Z,33.92,-4.97,10.0,8.0,190,6,,6.21,29.940945,,,,,,TRUE,,,,,CAVOK,,,,,,,,VFR,,,,,,,,,,,,METAR,575.0
GMFB 200600Z 14002KT CAVOK 09/06 Q1018 NOSIG,GMFB,2023-05-20T06:00:00Z,32.52,-1.98,9.0,6.0,140,2,,6.21,30.059055,,,,,,TRUE,,,,,CAVOK,,,,,,,,VFR,,,,,,,,,,,,METAR,1106.0
GMAT 200600Z 01012KT 9999 BKN020 16/10 Q1015 NOSIG,GMAT,2023-05-20T06:00:00Z,28.43,-11.15,16.0,10.0,10,12,,6.21,29.970472,,,,,,TRUE,,,,,BKN,2000,,,,,,,MVFR,,,,,,,,,,,,METAR,192.0
GMAG 200600Z AUTO 30006KT VRB 9999 OVC022 15/11 Q1014,GMAG,2023-05-20T06:00:00Z,29.03,-10.05,15.0,11.0,300,6,,6.21,29.940945,,,TRUE,,,,,,,,OVC,2200,,,,,,,MVFR,,,,,,,,,,,,METAR,333.0
GMAD 200600Z 08004KT CAVOK 12/10 Q1014 NOSIG,GMAD,2023-05-20T06:00:00Z,30.32,-9.42,12.0,10.0,80,4,,6.21,29.940945,,,,,,TRUE,,,,,CAVOK,,,,,,,,VFR,,,,,,,,,,,,METAR,66.0
GLRB 200600Z 00000KT 9999 SCT012 FEW023CB 25/24 Q1011 NOSIG RMK CB-SW,GLRB,2023-05-20T06:00:00Z,6.25,-10.35,25.0,24.0,0,0,,6.21,29.852362,,,,,,TRUE,,,,,SCT,1200,FEW,2300,,,,,VFR,,,,,,,,,,,,SPECI,12.0
GGOV 200600Z VRB02KT 6000 NSC 25/23 Q1011 NOSIG,GGOV,2023-05-20T06:00:00Z,11.88,-15.65,25.0,23.0,0,2,,3.73,29.852362,,,,,,TRUE,,,,,CLR,,,,,,,,MVFR,,,,,,,,,,,,METAR,31.0
GEML 200600Z 33003KT 9999 FEW030 15/09 Q1013,GEML,2023-05-20T06:00:00Z,35.27,-2.95,15.0,9.0,330,3,,6.21,29.911417,,,,,,,,,,,FEW,3000,,,,,,,VFR,,,,,,,,,,,,METAR,48.0
GECE 200600Z AUTO 30003KT 270V330 CAVOK 17/14 Q1013,GECE,2023-05-20T06:00:00Z,35.88,-5.3,17.0,14.0,300,3,,6.21,29.911417,,,TRUE,,,,,,,,CAVOK,,,,,,,,VFR,,,,,,,,,,,,METAR,2.0
GCXO 200600Z 30015KT 9999 BKN011 14/11 Q1018 NOSIG,GCXO,2023-05-20T06:00:00Z,28.48,-16.35,14.0,11.0,300,15,,6.21,30.059055,,,,,,TRUE,,,,,BKN,1100,,,,,,,MVFR,,,,,,,,,,,,METAR,623.0
GCTS 200600Z 01005KT 9999 SCT040 17/11 Q1017 NOSIG,GCTS,2023-05-20T06:00:00Z,28.05,-16.57,17.0,11.0,10,5,,6.21,30.029528,,,,,,TRUE,,,,,SCT,4000,,,,,,,VFR,,,,,,,,,,,,METAR,59.0
GCRR 200600Z 36004KT 320V030 9999 BKN035 19/10 Q1016,GCRR,2023-05-20T06:00:00Z,28.95,-13.58,19.0,10.0,360,4,,6.21,30.0,,,,,,,,,,,BKN,3500,,,,,,,VFR,,,,,,,,,,,,METAR,9.0
GCLP 200600Z 35008KT 9999 FEW035 SCT040 19/13 Q1017 NOSIG,GCLP,2023-05-20T06:00:00Z,27.92,-15.38,19.0,13.0,350,8,,6.21,30.029528,,,,,,TRUE,,,,,FEW,3500,SCT,4000,,,,,VFR,,,,,,,,,,,,METAR,16.0
GCLA 200600Z 33006KT 300V360 9999 FEW030 BKN045 19/11 Q1018,GCLA,2023-05-20T06:00:00Z,28.62,-17.75,19.0,11.0,330,6,,6.21,30.059055,,,,,,,,,,,FEW,3000,BKN,4500,,,,,VFR,,,,,,,,,,,,METAR,20.0
GCHI 200600Z AUTO 02014KT 330V050 CAVOK 19/13 Q1017,GCHI,2023-05-20T06:00:00Z,27.82,-17.88,19.0,13.0,20,14,,6.21,30.029528,,,TRUE,,,,,,,,CAVOK,,,,,,,,VFR,,,,,,,,,,,,METAR,21.0
GCGM 200600Z 32004KT 9999 FEW040 17/11 Q1017 RMK R09/31005KT ARP/31004KT,GCGM,2023-05-20T06:00:00Z,28.03,-17.22,17.0,11.0,320,4,,6.21,30.029528,,,,,,,,,,,FEW,4000,,,,,,,VFR,,,,,,,,,,,,METAR,217.0
GCFV 200600Z 35008KT 9999 FEW030 18/11 Q1016,GCFV,2023-05-20T06:00:00Z,28.43,-13.87,18.0,11.0,350,8,,6.21,30.0,,,,,,,,,,,FEW,3000,,,,,,,VFR,,,,,,,,,,,,METAR,11.0
GBYD 200600Z 00000KT CAVOK 23/21 Q1010,GBYD,2023-05-20T06:00:00Z,13.33,-16.65,23.0,21.0,0,0,,6.21,29.822834,,,,,,,,,,,CAVOK,,,,,,,,VFR,,,,,,,,,,,,METAR,29.0
GANR 200600Z 24004KT CAVOK 32/19 Q1012,GANR,2023-05-20T06:00:00Z,15.23,-9.58,32.0,19.0,240,4,,6.21,29.88189,,,,,,,,,,,CAVOK,,,,,,,,VFR,,,,,,,,,,,,METAR,237.0
GAMB 200600Z 01004KT 8000 NSC 30/14 Q1010,GAMB,2023-05-20T06:00:00Z,14.52,-4.08,30.0,14.0,10,4,,4.97,29.822834,,,,,,,,,,,CLR,,,,,,,,MVFR,,,,,,,,,,,,METAR,271.0
GAKD 200600Z 16004KT CAVOK 34/19 Q1010,GAKD,2023-05-20T06:00:00Z,14.48,-11.4,34.0,19.0,160,4,,6.21,29.822834,,,,,,,,,,,CAVOK,,,,,,,,VFR,,,,,,,,,,,,METAR,53.0
GABS 200600Z VRB01KT 9999 FEW030 25/24 Q1012 NOSIG,GABS,2023-05-20T06:00:00Z,12.53,-7.95,25.0,24.0,0,1,,6.21,29.88189,,,,,,TRUE,,,,,FEW,3000,,,,,,,VFR,,,,,,,,,,,,METAR,375.0
FYWW 200600Z 10007KT CAVOK 12/M00 Q1023,FYWW,2023-05-20T06:00:00Z,-22.57,17.1,12.0,0.0,100,7,,6.21,30.206694,,,,,,,,,,,CAVOK,,,,,,,,VFR,,,,,,,,,,,,METAR,1672.0
FYWH 200600Z 27005KT CAVOK 06/02 Q1024 NOSIG,FYWH,2023-05-20T06:00:00Z,-22.47,17.47,6.0,2.0,270,5,,6.21,30.236221,,,,,,TRUE,,,,,CAVOK,,,,,,,,VFR,,,,,,,,,,,,METAR,1699.0
FYWE 200600Z 17005KT CAVOK 06/01 Q1024,FYWE,2023-05-20T06:00:00Z,-22.62,17.08,6.0,1.0,170,5,,6.21,30.236221,,,,,,,,,,,CAVOK,,,,,,,,VFR,,,,,,,,,,,,METAR,1700.0
FYOA 200600Z AUTO 06003KT //// // ////// 13/02 Q1016,FYOA,2023-05-20T06:00:00Z,-17.88,15.97,13.0,2.0,60,3,,,30.0,,,TRUE,,,,,,,,,,,,,,,,,,,,,,,,,,,,SPECI,1099.0
FYLZ 200600Z AUTO 00000KT //// // ////// 09/04 Q1016,FYLZ,2023-05-20T06:00:00Z,-26.68,15.25,9.0,4.0,0,0,,,30.0,,,TRUE,,,,,,,,,,,,,,,,,,,,,,,,,,,,METAR,129.0
FYKT 200600Z AUTO 03008KT //// // ////// 09/M03 Q1022,FYKT,2023-05-20T06:00:00Z,-26.53,18.12,9.0,-3.0,30,8,,,30.177166,,,TRUE,,,,,,,,,,,,,,,,,,,,,,,,,,,,METAR,1064.0
FYKM 200600Z AUTO 00000KT //// // ////// 16/07 Q1018,FYKM,2023-05-20T06:00:00Z,-17.63,24.18,16.0,7.0,0,0,,,30.059055,,,TRUE,,,,,,,,,,,,,,,,,,,,,,,,,,,,METAR,959.0
FYGF 200600Z AUTO 26002KT //// // ////// 11/M01 Q1023,FYGF,2023-05-20T06:00:00Z,-19.6,18.12,11.0,-1.0,260,2,,,30.206694,,,TRUE,,,,,,,,,,,,,,,,,,,,,,,,,,,,METAR,1407.0
FWKI 200600Z 11006KT CAVOK 20/15 Q1021 NOSIG,FWKI,2023-05-20T06:00:00Z,-13.78,33.78,20.0,15.0,110,6,,6.21,30.147638,,,,,,TRUE,,,,,CAVOK,,,,,,,,VFR,,,,,,,,,,,,METAR,1225.0
FVWN 200600Z 00000KT CAVOK 14/08 Q1020,FVWN,2023-05-20T06:00:00Z,-18.63,27.0,14.0,8.0,0,0,,6.21,30.11811,,,,,,,,,,,CAVOK,,,,,,,,VFR,,,,,,,,,,,,METAR,1087.0
FVRG 200600Z 07005KT 040V100 CAVOK 18/11 Q1024 NOSIG,FVRG,2023-05-20T06:00:00Z,-17.93,31.1,18.0,11.0,70,5,,6.21,30.236221,,,,,,TRUE,,,,,CAVOK,,,,,,,,VFR,,,,,,,,,,,,METAR,1490.0
FVKB 200600Z 00000KT CAVOK 22/15 Q1016,FVKB,2023-05-20T06:00:00Z,-16.52,28.88,22.0,15.0,0,0,,6.21,30.0,,,,,,,,,,,CAVOK,,,,,,,,VFR,,,,,,,,,,,,METAR,515.0
FVJN 200600Z 14004KT CAVOK 16/06 Q1023 NOSIG,FVJN,2023-05-20T06:00:00Z,-20.02,28.63,16.0,6.0,140,4,,6.21,30.206694,,,,,,TRUE,,,,,CAVOK,,,,,,,,VFR,,,,,,,,,,,,METAR,1331.0
FVFA 200600Z VRB02KT 5000 HZ SCT100 21/10 Q1020 BECMG 9999,FVFA,2023-05-20T06:00:00Z,-18.1,25.85,21.0,10.0,0,2,,3.11,30.11811,,,,,,,,,,HZ,SCT,10000,,,,,,,MVFR,,,,,,,,,,,,SPECI,1069.0
FSIA 200600Z 13010KT 9999 FEW022 30/25 Q1013 NOSIG,FSIA,2023-05-20T06:00:00Z,-4.67,55.52,30.0,25.0,130,10,,6.21,29.911417,,,,,,TRUE,,,,,FEW,2200,,,,,,,VFR,,,,,,,,,,,,METAR,3.0
FPST 200600Z 18012KT 9999 FEW023 BKN110 26/23 Q1011 NOSIG,FPST,2023-05-20T06:00:00Z,0.37,6.72,26.0,23.0,180,12,,6.21,29.852362,,,,,,TRUE,,,,,FEW,2300,BKN,11000,,,,,VFR,,,,,,,,,,,,METAR,11.0
FOON 200600Z /////KT 8000 FEW004 23/23 Q1013,FOON,2023-05-20T06:00:00Z,-1.65,13.43,23.0,23.0,,,,4.97,29.911417,,,,,,,,,,,FEW,400,,,,,,,MVFR,,,,,,,,,,,,METAR,440.0
FOOL 200600Z 16011KT 8000 SCT011 FEW018CB BKN033 27/24 Q1011 NOSIG,FOOL,2023-05-20T06:00:00Z,0.45,9.42,27.0,24.0,160,11,,4.97,29.852362,,,,,,TRUE,,,,,SCT,1100,FEW,1800,BKN,3300,,,MVFR,,,,,,,,,,,,METAR,9.0
FOOG 200600Z 18008KT 9999 FEW008 27/24 Q1012,FOOG,2023-05-20T06:00:00Z,-0.7,8.75,27.0,24.0,180,8,,6.21,29.88189,,,,,,,,,,,FEW,800,,,,,,,VFR,,,,,,,,,,,,METAR,4.0
FNUE 200600Z AUTO 22007KT 190V250 9999 NCD 17/13 Q1023,FNUE,2023-05-20T06:00:00Z,-11.77,19.9,17.0,13.0,220,7,,6.21,30.206694,,,TRUE,,,,,,,,CLR,,,,,,,,VFR,,,,,,,,,,,,METAR,1354.0
FNLU 200600Z VRB03KT 9999 BKN020 25/21 Q1012 NOSIG,FNLU,2023-05-20T06:00:00Z,-8.85,13.22,25.0,21.0,0,3,,6.21,29.88189,,,,,,TRUE,,,,,BKN,2000,,,,,,,MVFR,,,,,,,,,,,,METAR,75.0
FNHU 200600Z AUTO 25004KT 9999 // NCD 15/11 Q1023,FNHU,2023-05-20T06:00:00Z,-12.82,15.77,15.0,11.0,250,4,,6.21,30.206694,,,TRUE,,,,,,,,CLR,,,,,,,,VFR,,,,,,,,,,,,SPECI,1697.0
FNGI 200600Z AUTO VRB01KT 9999 ////// 15/05 Q1019,FNGI,2023-05-20T06:00:00Z,-17.05,15.68,15.0,5.0,0,1,,6.21,30.088583,,,TRUE,,,,,,,,,,,,,,,,,,,,,,,,,,,,METAR,1116.0
FNCT 200600Z AUTO VRB02KT //// ////// ///// Q////,FNCT,2023-05-20T06:00:00Z,-12.48,13.48,,,0,2,,,,,,TRUE,,,,,,,,,,,,,,,,,,,,,,,,,,,,METAR,6.0
FNCA 200600Z 15004KT 9000 FEW013 SCT050 25/23 Q1012,FNCA,2023-05-20T06:00:00Z,-5.58,12.18,25.0,23.0,150,4,,5.59,29.88189,,,,,,,,,,,FEW,1300,SCT,5000,,,,,VFR,,,,,,,,,,,,METAR,14.0
FMSD 200600Z 32005KT 9999 FEW040 26/17 Q1014,FMSD,2023-05-20T06:00:00Z,-25.03,46.95,26.0,17.0,320,5,,6.21,29.940945,,,,,,,,,,,FEW,4000,,,,,,,VFR,,,,,,,,,,,,METAR,7.0
FMNN 200600Z 14002KT 9999 FEW020 30/// Q1016,FMNN,2023-05-20T06:00:00Z,-13.32,48.32,,,140,2,,6.21,30.0,,,,,,,,,,,FEW,2000,,,,,,,VFR,,,,,,,,,,,,METAR,10.0
FMNM 200600Z 23004KT 120V290 9999 FEW023 30/20 Q1017 NOSIG,FMNM,2023-05-20T06:00:00Z,-15.67,46.35,30.0,20.0,230,4,,6.21,30.029528,,,,,,TRUE,,,,,FEW,2300,,,,,,,VFR,,,,,,,,,,,,METAR,18.0
FMNA 200600Z 14012KT 9999 FEW020 30/21 Q1014,FMNA,2023-05-20T06:00:00Z,-12.33,49.28,30.0,21.0,140,12,,6.21,29.940945,,,,,,,,,,,FEW,2000,,,,,,,VFR,,,,,,,,,,,,METAR,108.0
FMMT 200600Z 01007KT 340V050 9999 FEW017 28/22 Q1016 NOSIG,FMMT,2023-05-20T06:00:00Z,-18.12,49.38,28.0,22.0,10,7,,6.21,30.0,,,,,,TRUE,,,,,FEW,1700,,,,,,,VFR,,,,,,,,,,,,METAR,13.0
FMMI 200600Z VRB02KT 7000 FEW010 19/15 Q1023 NOSIG,FMMI,2023-05-20T06:00:00Z,-18.8,47.47,19.0,15.0,0,2,,4.35,30.206694,,,,,,TRUE,,,,,FEW,1000,,,,,,,MVFR,,,,,,,,,,,,METAR,1269.0
FMEP 200600Z AUTO 26006KT 220V290 CAVOK 28/21 Q1016 NOSIG,FMEP,2023-05-20T06:00:00Z,-21.32,55.42,28.0,21.0,260,6,,6.21,30.0,,,TRUE,,,TRUE,,,,,CAVOK,,,,,,,,VFR,,,,,,,,,,,,METAR,21.0
FMEE 200600Z AUTO 36003KT CAVOK 29/22 Q1016 TEMPO 32015G25KT,FMEE,2023-05-20T06:00:00Z,-20.88,55.52,29.0,22.0,360,3,,6.21,30.0,,,TRUE,,,,,,,,CAVOK,,,,,,,,VFR,,,,,,,,,,,,SPECI,20.0
FMCZ 200600Z AUTO 16009KT 9999 SCT020 30/24 Q1015 NOSIG,FMCZ,2023-05-20T06:00:00Z,-12.8,45.27,30.0,24.0,160,9,,6.21,29.970472,,,TRUE,,,TRUE,,,,,SCT,2000,,,,,,,VFR,,,,,,,,,,,,METAR,7.0
FLKK 200600Z 26002KT CAVOK 20/15 Q1022,FLKK,2023-05-20T06:00:00Z,-15.32,28.45,20.0,15.0,260,2,,6.21,30.177166,,,,,,,,,,,CAVOK,,,,,,,,VFR,,,,,,,,,,,,METAR,1149.0
FKYS 200600Z VRB02KT 6000 BKN009 24/24 Q1017 NOSIG,FKYS,2023-05-20T06:00:00Z,3.82,11.52,24.0,24.0,0,2,,3.73,30.029528,,,,,,TRUE,,,,,BKN,900,,,,,,,IFR,,,,,,,,,,,,METAR,694.0
FKKD 200600Z VRB02KT 7000 -TSRA SCT004 BKN010 SCT013CB 25/25 Q1012 TEMPO 3500 TSRA,FKKD,2023-05-20T06:00:00Z,4.0,9.72,25.0,25.0,0,2,,4.35,29.88189,,,,,,,,,,-TSRA,SCT,400,BKN,1000,SCT,1300,,,MVFR,,,,,,,,,,,,METAR,10.0
FIMP 200600Z VRB02KT 9999 FEW017 28/21 Q1017,FIMP,2023-05-20T06:00:00Z,-20.43,57.68,28.0,21.0,0,2,,6.21,30.029528,,,,,,,,,,,FEW,1700,,,,,,,VFR,,,,,,,,,,,,METAR,57.0
FGSL 200600Z 03002KT 6000 -TSRA FEW010 FEW020CB BKN040 26/26 Q1 012 TEMPO 4000 TSRA,FGSL,2023-05-20T06:00:00Z,3.75,8.72,26.0,26.0,30,2,,3.73,,,,,,,,,,,-TSRA,FEW,1000,FEW,2000,BKN,4000,,,MVFR,,,,,,,,,,,,SPECI,23.0
FEFF 200600Z VRB03KT 8000 NSC 24/22 Q1013 NOSIG,FEFF,2023-05-20T06:00:00Z,4.4,18.52,24.0,22.0,0,3,,4.97,29.911417,,,,,,TRUE,,,,,CLR,,,,,,,,MVFR,,,,,,,,,,,,METAR,364.0
FDSK 200600Z VRB02KT 9999 FEW035 15/12 Q1022 NOSIG,FDSK,2023-05-20T06:00:00Z,-26.35,31.72,15.0,12.0,0,2,,6.21,30.177166,,,,,,TRUE,,,,,FEW,3500,,,,,,,VFR,,,,,,,,,,,,METAR,323.0
FDOT 200600Z AUTO 00000KT //// // ////// 13/13 Q1022,FDOT,2023-05-20T06:00:00Z,-26.7,31.43,13.0,13.0,0,0,,,30.177166,,,TRUE,,,,,,,,,,,,,,,,,,,,,,,,,,,,METAR,342.0
FCPP 200600Z 00000KT 6000 FEW008 24/23 Q1012 BECMG 4000 BR,FCPP,2023-05-20T06:00:00Z,-4.82,11.9,24.0,23.0,0,0,,3.73,29.88189,,,,,,,,,,,FEW,800,,,,,,,MVFR,,,,,,,,,,,,METAR,18.0
FCOD 200600Z 00000KT 4000 BR SCT030 23/23 Q1013,FCOD,2023-05-20T06:00:00Z,,,23.0,23.0,0,0,,2.49,29.911417,,,,,,,,,,BR,SCT,3000,,,,,,,IFR,,,,,,,,,,,,METAR,
FCBB 200600Z VRB01KT 9999 FEW010 24/22 Q1013 NOSIG,FCBB,2023-05-20T06:00:00Z,-4.25,15.25,24.0,22.0,0,1,,6.21,29.911417,,,,,,TRUE,,,,,FEW,1000,,,,,,,VFR,,,,,,,,,,,,METAR,316.0
FAWB 200600Z AUTO 22002KT //// // ////// 09/03 Q1022,FAWB,2023-05-20T06:00:00Z,-25.65,28.22,9.0,3.0,220,2,,,30.177166,,,TRUE,,,,,,,,,,,,,,,,,,,,,,,,,,,,METAR,1245.0
FAVV 200600Z AUTO 34002KT //// // ////// 05/03 Q1026,FAVV,2023-05-20T06:00:00Z,-26.57,27.97,5.0,3.0,340,2,,,30.295275,,,TRUE,,,,,,,,,,,,,,,,,,,,,,,,,,,,SPECI,1480.0
FAUT 200600Z 30001KT CAVOK 07/06 Q1019,FAUT,2023-05-20T06:00:00Z,-31.53,28.67,7.0,6.0,300,1,,6.21,30.088583,,,,,,,,,,,CAVOK,,,,,,,,VFR,,,,,,,,,,,,METAR,735.0
FAUP 200600Z 04002KT CAVOK 05/M02 Q1022 NOSIG,FAUP,2023-05-20T06:00:00Z,-28.38,21.27,5.0,-2.0,40,2,,6.21,30.177166,,,,,,TRUE,,,,,CAVOK,,,,,,,,VFR,,,,,,,,,,,,METAR,845.0
FASI 200600Z AUTO 15001KT //// // ////// 05/02 Q1027,FASI,2023-05-20T06:00:00Z,-26.25,28.4,5.0,2.0,150,1,,,30.324802,,,TRUE,,,,,,,,,,,,,,,,,,,,,,,,,,,,METAR,1627.0
FAPP 200600Z 07008KT 5000 BR BKN008 14/13 Q1025 BECMG 6000 BKN010,FAPP,2023-05-20T06:00:00Z,-23.83,29.45,14.0,13.0,70,8,,3.11,30.265747,,,,,,,,,,BR,BKN,800,,,,,,,IFR,,,,,,,,,,,,METAR,1238.0
FAPN 200600Z AUTO 06001KT //// // ////// 06/03 Q1023,FAPN,2023-05-20T06:00:00Z,-25.33,27.17,6.0,3.0,60,1,,,30.206694,,,TRUE,,,,,,,,,,,,,,,,,,,,,,,,,,,,METAR,1045.0
FAPE 200600Z 29005KT CAVOK 11/10 Q1019 NOSIG,FAPE,2023-05-20T06:00:00Z,-33.98,25.6,11.0,10.0,290,5,,6.21,30.088583,,,,,,TRUE,,,,,CAVOK,,,,,,,,VFR,,,,,,,,,,,,METAR,58.0
FAOR 200600Z 18004KT 150V250 CAVOK 09/M00 Q1024 NOSIG,FAOR,2023-05-20T06:00:00Z,-26.13,28.23,9.0,0.0,180,4,,6.21,30.236221,,,,,,TRUE,,,,,CAVOK,,,,,,,,VFR,,,,,,,,,,,,METAR,1684.0
FAMM 200600Z 09004KT CAVOK 08/03 Q1023 NOSIG,FAMM,2023-05-20T06:00:00Z,-25.8,25.53,8.0,3.0,90,4,,6.21,30.206694,,,,,,TRUE,,,,,CAVOK,,,,,,,,VFR,,,,,,,,,,,,METAR,1280.0
FALW 200600Z AUTO 20002KT //// // ////// 06/03 Q1019,FALW,2023-05-20T06:00:00Z,-32.97,18.17,6.0,3.0,200,2,,,30.088583,,,TRUE,,,,,,,,,,,,,,,,,,,,,,,,,,,,METAR,31.0
FALE 200600Z 20004KT 180V240 9999 FEW025 13/10 Q1019 NOSIG,FALE,2023-05-20T06:00:00Z,-29.62,31.12,13.0,10.0,200,4,,6.21,30.088583,,,,,,TRUE,,,,,FEW,2500,,,,,,,VFR,,,,,,,,,,,,METAR,109.0
FALA 200600Z 00000KT CAVOK 06/03 Q1024 NOSIG,FALA,2023-05-20T06:00:00Z,-25.93,27.92,6.0,3.0,0,0,,6.21,30.236221,,,,,,TRUE,,,,,CAVOK,,,,,,,,VFR,,,,,,,,,,,,METAR,1365.0
FAKN 200600Z AUTO 01002KT //// // ////// 14/11 Q1023,FAKN,2023-05-20T06:00:00Z,-25.38,31.1,14.0,11.0,10,2,,,30.206694,,,TRUE,,,,,,,,,,,,,,,,,,,,,,,,,,,,METAR,864.0
FAKM 200600Z 31003KT CAVOK 04/02 Q1022,FAKM,2023-05-20T06:00:00Z,-28.8,24.77,4.0,2.0,310,3,,6.21,30.177166,,,,,,,,,,,CAVOK,,,,,,,,VFR,,,,,,,,,,,,METAR,1203.0
FAJB 200600Z AUTO 27001KT //// // ////// 08/01 Q1023,FAJB,2023-05-20T06:00:00Z,-26.15,28.0,8.0,1.0,270,1,,,30.206694,,,TRUE,,,,,,,,,,,,,,,,,,,,,,,,,,,,SPECI,1626.0
FAHS 200600Z AUTO 16004KT //// // ////// 18/14 Q1021,FAHS,2023-05-20T06:00:00Z,-24.37,31.03,18.0,14.0,160,4,,,30.147638,,,TRUE,,,,,,,,,,,,,,,,,,,,,,,,,,,,METAR,532.0
FAGG 200600Z 34004KT CAVOK 10/06 Q1018,FAGG,2023-05-20T06:00:00Z,-34.0,22.37,10.0,6.0,340,4,,6.21,30.059055,,,,,,,,,,,CAVOK,,,,,,,,VFR,,,,,,,,,,,,METAR,196.0
FAEL 200600Z 32006KT CAVOK 13/08 Q1019,FAEL,2023-05-20T06:00:00Z,-33.03,27.82,13.0,8.0,320,6,,6.21,30.088583,,,,,,,,,,,CAVOK,,,,,,,,VFR,,,,,,,,,,,,METAR,127.0
FACT 200600Z 04008KT 9999 BKN038 12/09 Q1020 NOSIG,FACT,2023-05-20T06:00:00Z,-33.97,18.6,12.0,9.0,40,8,,6.21,30.11811,,,,,,TRUE,,,,,BKN,3800,,,,,,,VFR,,,,,,,,,,,,METAR,48.0
FABL 200600Z 00000KT CAVOK 04/01 Q1023 NOSIG,FABL,2023-05-20T06:00:00Z,-29.1,26.3,4.0,1.0,0,0,,6.21,30.206694,,,,,,TRUE,,,,,CAVOK,,,,,,,,VFR,,,,,,,,,,,,METAR,1348.0
EPZG 200600Z 06007KT 030V090 8000 OVC017 12/11 Q1027,EPZG,2023-05-20T06:00:00Z,52.13,15.77,12.0,11.0,60,7,,4.97,30.324802,,,,,,,,,,,OVC,1700,,,,,,,MVFR,,,,,,,,,,,,METAR,59.0
EPWR 200600Z 10007KT 9999 OVC012 12/10 Q1026,EPWR,2023-05-20T06:00:00Z,51.1,16.88,12.0,10.0,100,7,,6.21,30.295275,,,,,,,,,,,OVC,1200,,,,,,,MVFR,,,,,,,,,,,,METAR,118.0
EPWA 200600Z 09005KT 060V120 9999 BKN040 15/11 Q1027 NOSIG,EPWA,2023-05-20T06:00:00Z,52.17,20.97,15.0,11.0,90,5,,6.21,30.324802,,,,,,TRUE,,,,,BKN,4000,,,,,,,VFR,,,,,,,,,,,,METAR,107.0
EPSY 200600Z 05003KT 010V100 9999 SCT038 13/07 Q1028,EPSY,2023-05-20T06:00:00Z,53.47,20.93,13.0,7.0,50,3,,6.21,30.35433,,,,,,,,,,,SCT,3800,,,,,,,VFR,,,,,,,,,,,,METAR,136.0
EPSC 200600Z 05005KT 9999 OVC030 10/07 Q1028,EPSC,2023-05-20T06:00:00Z,53.58,14.9,10.0,7.0,50,5,,6.21,30.35433,,,,,,,,,,,OVC,3000,,,,,,,MVFR,,,,,,,,,,,,METAR,47.0
EPRZ 200600Z 16004KT 120V190 8000 OVC004 13/12 Q1026,EPRZ,2023-05-20T06:00:00Z,50.1,22.02,13.0,12.0,160,4,,4.97,30.295275,,,,,,,,,,,OVC,400,,,,,,,LIFR,,,,,,,,,,,,METAR,206.0
EPRA 200600Z 12003KT 080V150 9999 BKN031 15/13 Q1026,EPRA,2023-05-20T06:00:00Z,51.38,21.22,15.0,13.0,120,3,,6.21,30.295275,,,,,,,,,,,BKN,3100,,,,,,,VFR,,,,,,,,,,,,METAR,182.0
EPPO 200600Z 07006KT 9999 OVC019 12/09 Q1027,EPPO,2023-05-20T06:00:00Z,52.42,16.83,12.0,9.0,70,6,,6.21,30.324802,,,,,,,,,,,OVC,1900,,,,,,,MVFR,,,,,,,,,,,,METAR,87.0
EPMO 200600Z 04006KT 9999 BKN045 14/11 Q1027,EPMO,2023-05-20T06:00:00Z,52.45,20.65,14.0,11.0,40,6,,6.21,30.324802,,,,,,,,,,,BKN,4500,,,,,,,VFR,,,,,,,,,,,,METAR,102.0
EPLL 200600Z VRB02KT 9999 FEW011 OVC015 13/11 Q1027,EPLL,2023-05-20T06:00:00Z,51.72,19.4,13.0,11.0,0,2,,6.21,30.324802,,,,,,,,,,,FEW,1100,OVC,1500,,,,,MVFR,,,,,,,,,,,,METAR,176.0
EPLB 200600Z 08007KT CAVOK 15/13 Q1027,EPLB,2023-05-20T06:00:00Z,51.23,22.72,15.0,13.0,80,7,,6.21,30.324802,,,,,,,,,,,CAVOK,,,,,,,,VFR,,,,,,,,,,,,METAR,206.0
EPKT 200600Z 06006KT 9999 SCT007 OVC008 12/10 Q1025,EPKT,2023-05-20T06:00:00Z,50.47,19.08,12.0,10.0,60,6,,6.21,30.265747,,,,,,,,,,,SCT,700,OVC,800,,,,,IFR,,,,,,,,,,,,METAR,296.0
EPKK 200600Z 06003KT 3500 BR FEW003 OVC005 12/11 Q1025,EPKK,2023-05-20T06:00:00Z,50.07,19.8,12.0,11.0,60,3,,2.17,30.265747,,,,,,,,,,BR,FEW,300,OVC,500,,,,,IFR,,,,,,,,,,,,METAR,237.0
EPGD 200600Z 04008KT 9999 BKN041 11/07 Q1029,EPGD,2023-05-20T06:00:00Z,54.37,18.47,11.0,7.0,40,8,,6.21,30.383858,,,,,,,,,,,BKN,4100,,,,,,,VFR,,,,,,,,,,,,METAR,136.0
EPBY 200600Z 07006KT 9999 OVC027 12/08 Q1028,EPBY,2023-05-20T06:00:00Z,53.1,18.0,12.0,8.0,70,6,,6.21,30.35433,,,,,,,,,,,OVC,2700,,,,,,,MVFR,,,,,,,,,,,,METAR,66.0
EINN 200600Z 26002KT 9000 BKN006 BKN007 12/12 Q1029 NOSIG,EINN,2023-05-20T06:00:00Z,52.7,-8.92,12.0,12.0,260,2,,5.59,30.383858,,,,,,TRUE,,,,,BKN,600,BKN,700,,,,,IFR,,,,,,,,,,,,METAR,20.0
EIME 200600Z 10004KT CAVOK 12/09 Q1029,EIME,2023-05-20T06:00:00Z,53.3,-6.45,12.0,9.0,100,4,,6.21,30.383858,,,,,,,,,,,CAVOK,,,,,,,,VFR,,,,,,,,,,,,METAR,90.0
EIKN 200600Z 18004KT 140V220 0700 FG VV002 11/11 Q1029 NOSIG,EIKN,2023-05-20T06:00:00Z,53.92,-8.82,11.0,11.0,180,4,,0.43,30.383858,,,,,,TRUE,,,,FG,OVX,0,,,,,,,LIFR,,,,,,,,,,,200,METAR,201.0
EIDW 200600Z 10003KT 9999 FEW012 SCT029 BKN120 11/10 Q1029 NOSIG,EIDW,2023-05-20T06:00:00Z,53.42,-6.28,11.0,10.0,100,3,,6.21,30.383858,,,,,,TRUE,,,,,FEW,1200,SCT,2900,BKN,12000,,,VFR,,,,,,,,,,,,METAR,75.0
EICK 200600Z 32007KT 8000 FEW015 BKN080 11/10 Q1029 NOSIG,EICK,2023-05-20T06:00:00Z,51.85,-8.47,11.0,10.0,320,7,,4.97,30.383858,,,,,,TRUE,,,,,FEW,1500,BKN,8000,,,,,MVFR,,,,,,,,,,,,METAR,158.0
DTTZ 200600Z 29015KT 7000 SCT030 20/09 Q1003,DTTZ,2023-05-20T06:00:00Z,33.93,8.1,20.0,9.0,290,15,,4.35,29.616142,,,,,,,,,,,SCT,3000,,,,,,,MVFR,,,,,,,,,,,,METAR,87.0
DTTX 200600Z 27011KT 9999 FEW020 19/12 Q1001,DTTX,2023-05-20T06:00:00Z,34.72,10.68,19.0,12.0,270,11,,6.21,29.557087,,,,,,,,,,,FEW,2000,,,,,,,VFR,,,,,,,,,,,,METAR,17.0
DTTR 200600Z 24017KT 8000 NSC 16/08 Q1007,DTTR,2023-05-20T06:00:00Z,31.7,9.27,16.0,8.0,240,17,,4.97,29.734253,,,,,,,,,,,CLR,,,,,,,,MVFR,,,,,,,,,,,,METAR,253.0
DTTN 200600Z ///06KT 9999 SCT020 SCT030 15/12 Q1001,DTTN,2023-05-20T06:00:00Z,36.47,8.8,15.0,12.0,,,,6.21,29.557087,,,,,,,,,,,SCT,2000,SCT,3000,,,,,VFR,,,,,,,,,,,,METAR,145.0
DTTL 200600Z 04003KT 8000 SCT020 SCT030 18/17 Q0998 RERA,DTTL,2023-05-20T06:00:00Z,36.85,11.07,18.0,17.0,40,3,,4.97,29.468504,,,,,,,,,,,SCT,2000,SCT,3000,,,,,MVFR,,,,,,,,,,,,METAR,18.0
DTTJ 200600Z 26019KT 3500 SA FEW020 SCT026 20/13 Q1001 NOSIG,DTTJ,2023-05-20T06:00:00Z,33.87,10.77,20.0,13.0,260,19,,2.17,29.557087,,,,,,TRUE,,,,SA,FEW,2000,SCT,2600,,,,,IFR,,,,,,,,,,,,METAR,3.0
DTTG 200600Z 22020KT 5000 FEW020 SCT030 16/10 Q1002 NOSIG,DTTG,2023-05-20T06:00:00Z,33.73,9.92,16.0,10.0,220,20,,3.11,29.586615,,,,,,TRUE,,,,,FEW,2000,SCT,3000,,,,,MVFR,,,,,,,,,,,,METAR,120.0
DTTF 200600Z 36009KT 9999 BKN023 17/10 Q1003,DTTF,2023-05-20T06:00:00Z,34.42,8.82,17.0,10.0,360,9,,6.21,29.616142,,,,,,,,,,,BKN,2300,,,,,,,MVFR,,,,,,,,,,,,METAR,314.0
DTTD 200600Z 26015KT 210V290 4000 SA NSC 18/08 Q1005,DTTD,2023-05-20T06:00:00Z,32.32,10.4,18.0,8.0,260,15,,2.49,29.675198,,,,,,,,,,SA,CLR,,,,,,,,IFR,,,,,,,,,,,,METAR,306.0
DTTB 200600Z 28004KT 8000 -TSRA SCT016TCU FEW023CB BKN030 16/15 Q1000,DTTB,2023-05-20T06:00:00Z,37.25,9.8,16.0,15.0,280,4,,4.97,29.52756,,,,,,,,,,-TSRA,SCT,1600,FEW,2300,BKN,3000,,,MVFR,,,,,,,,,,,,METAR,4.0
DTTA 200600Z 32007KT 290V360 8000 -TSRA SCT026 FEW030CB BKN040 15/15 Q1000,DTTA,2023-05-20T06:00:00Z,36.85,10.22,15.0,15.0,320,7,,4.97,29.52756,,,,,,,,,,-TSRA,SCT,2600,FEW,3000,BKN,4000,,,MVFR,,,,,,,,,,,,METAR,4.0
DTNH 200600Z 31020KT 9999 BKN026 SCT033 18/12 Q0999,DTNH,2023-05-20T06:00:00Z,36.07,10.43,18.0,12.0,310,20,,6.21,29.498032,,,,,,,,,,,BKN,2600,SCT,3300,,,,,MVFR,,,,,,,,,,,,METAR,1.0
DTMB 200600Z 35010KT 6000 TS SCT023 FEW030CB SCT040 18/15 Q1000,DTMB,2023-05-20T06:00:00Z,35.77,10.75,18.0,15.0,350,10,,3.73,29.52756,,,,,,,,,,TS,SCT,2300,FEW,3000,SCT,4000,,,MVFR,,,,,,,,,,,,METAR,1.0
DTKA 200600Z 24014KT 9999 SCT020 BKN030 15/14 Q0999 NOSIG,DTKA,2023-05-20T06:00:00Z,36.98,8.88,15.0,14.0,240,14,,6.21,29.498032,,,,,,TRUE,,,,,SCT,2000,BKN,3000,,,,,MVFR,,,,,,,,,,,,METAR,70.0
DIYO 200600Z 00000KT 9999 FEW010 24/23 Q1013 NOSIG,DIYO,2023-05-20T06:00:00Z,6.9,-5.35,24.0,23.0,0,0,,6.21,29.911417,,,,,,TRUE,,,,,FEW,1000,,,,,,,VFR,,,,,,,,,,,,METAR,202.0
DIBK 200600Z 20008KT 8000 BKN010 24/24 Q1013 NOSIG,DIBK,2023-05-20T06:00:00Z,7.73,-5.07,24.0,24.0,200,8,,4.97,29.911417,,,,,,TRUE,,,,,BKN,1000,,,,,,,MVFR,,,,,,,,,,,,METAR,363.0
DIAP 200600Z 19003KT 9999 SCT012 27/25 Q1012 NOSIG,DIAP,2023-05-20T06:00:00Z,5.25,-3.92,27.0,25.0,190,3,,6.21,29.88189,,,,,,TRUE,,,,,SCT,1200,,,,,,,VFR,,,,,,,,,,,,METAR,4.0
DAUZ 200600Z 30010KT 2500 HZ NSC 20/07 Q1011,DAUZ,2023-05-20T06:00:00Z,28.05,9.63,20.0,7.0,300,10,,1.55,29.852362,,,,,,,,,,HZ,CLR,,,,,,,,IFR,,,,,,,,,,,,METAR,567.0
DAUU 200600Z 34008KT CAVOK 16/08 Q1009,DAUU,2023-05-20T06:00:00Z,31.92,5.4,16.0,8.0,340,8,,6.21,29.793306,,,,,,,,,,,CAVOK,,,,,,,,VFR,,,,,,,,,,,,METAR,147.0
DAUT 200600Z 01003KT 6000 NSC 16/04 Q1015,DAUT,2023-05-20T06:00:00Z,29.25,0.27,16.0,4.0,10,3,,3.73,29.970472,,,,,,,,,,,CLR,,,,,,,,MVFR,,,,,,,,,,,,METAR,307.0
DAUO 200600Z 31017KT 5000 NSC 17/09 Q1006,DAUO,2023-05-20T06:00:00Z,33.5,6.78,17.0,9.0,310,17,,3.11,29.704725,,,,,,,,,,,CLR,,,,,,,,MVFR,,,,,,,,,,,,METAR,55.0
DAUL 200600Z 00000KT 9999 FEW026 12/07 Q1012,DAUL,2023-05-20T06:00:00Z,33.77,2.92,12.0,7.0,0,0,,6.21,29.88189,,,,,,,,,,,FEW,2600,,,,,,,VFR,,,,,,,,,,,,METAR,755.0
DAUK 200600Z 30016KT 5000 DRSA FEW040 17/07 Q1007,DAUK,2023-05-20T06:00:00Z,33.08,6.08,17.0,7.0,300,16,,3.11,29.734253,,,,,,,,,,DRSA,FEW,4000,,,,,,,MVFR,,,,,,,,,,,,METAR,83.0
DAUI 200600Z 02004KT 8000 NSC 18/03 Q1014,DAUI,2023-05-20T06:00:00Z,27.25,2.52,18.0,3.0,20,4,,4.97,29.940945,,,,,,,,,,,CLR,,,,,,,,MVFR,,,,,,,,,,,,METAR,271.0
DAUH 200600Z 30016KT 6000 NSC 16/09 Q1009,DAUH,2023-05-20T06:00:00Z,31.67,6.15,16.0,9.0,300,16,,3.73,29.793306,,,,,,,,,,,CLR,,,,,,,,MVFR,,,,,,,,,,,,METAR,141.0
DAUG 200600Z 32018KT CAVOK 14/06 Q1011,DAUG,2023-05-20T06:00:00Z,32.38,3.78,14.0,6.0,320,18,,6.21,29.852362,,,,,,,,,,,CAVOK,,,,,,,,VFR,,,,,,,,,,,,METAR,444.0
DAUE 200600Z VRB02KT CAVOK 14/06 Q1014,DAUE,2023-05-20T06:00:00Z,30.57,2.87,14.0,6.0,0,2,,6.21,29.940945,,,,,,,,,,,CAVOK,,,,,,,,VFR,,,,,,,,,,,,METAR,396.0
DAUB 200600Z 32014KT 9999 SCT040 17/09 Q1007,DAUB,2023-05-20T06:00:00Z,34.78,5.73,17.0,9.0,320,14,,6.21,29.734253,,,,,,,,,,,SCT,4000,,,,,,,VFR,,,,,,,,,,,,METAR,75.0
DAUA 200600Z 03008KT 5000 NSC 16/03 Q1014,DAUA,2023-05-20T06:00:00Z,27.83,-0.18,16.0,3.0,30,8,,3.11,29.940945,,,,,,,,,,,CLR,,,,,,,,MVFR,,,,,,,,,,,,METAR,278.0
DATM 200600Z 03005KT 4000 SA NSC 23/M06 Q1011,DATM,2023-05-20T06:00:00Z,21.38,0.92,23.0,-6.0,30,5,,2.49,29.852362,,,,,,,,,,SA,CLR,,,,,,,,IFR,,,,,,,,,,,,METAR,398.0
DAOY 200600Z 35010KT 3000 BR OVC006 06/05 Q1014,DAOY,2023-05-20T06:00:00Z,33.72,1.08,6.0,5.0,350,10,,1.86,29.940945,,,,,,,,,,BR,OVC,600,,,,,,,IFR,,,,,,,,,,,,METAR,1340.0
DAOV 200600Z 14003KT 9999 FEW026 11/10 Q1015,DAOV,2023-05-20T06:00:00Z,35.2,0.15,11.0,10.0,140,3,,6.21,29.970472,,,,,,,,,,,FEW,2600,,,,,,,VFR,,,,,,,,,,,,METAR,506.0
DAOR 200600Z VRB02KT 9999 FEW033 11/06 Q1016,DAOR,2023-05-20T06:00:00Z,31.65,-2.27,11.0,6.0,0,2,,6.21,30.0,,,,,,,,,,,FEW,3300,,,,,,,VFR,,,,,,,,,,,,METAR,809.0
DAOO 200600Z 00000KT 9999 FEW020 14/13 Q1014,DAOO,2023-05-20T06:00:00Z,35.62,-0.62,14.0,13.0,0,0,,6.21,29.940945,,,,,,,,,,,FEW,2000,,,,,,,VFR,,,,,,,,,,,,METAR,87.0
DAON 200600Z 08004KT 9999 FEW026 10/09 Q1015,DAON,2023-05-20T06:00:00Z,35.02,-1.47,10.0,9.0,80,4,,6.21,29.970472,,,,,,,,,,,FEW,2600,,,,,,,VFR,,,,,,,,,,,,METAR,245.0
DAOL 200600Z 13004KT CAVOK 13/12 Q1015,DAOL,2023-05-20T06:00:00Z,35.53,-0.52,13.0,12.0,130,4,,6.21,29.970472,,,,,,,,,,,CAVOK,,,,,,,,VFR,,,,,,,,,,,,METAR,103.0
DAOI 200600Z VRB02KT 7000 BKN023 12/10 Q1015,DAOI,2023-05-20T06:00:00Z,36.22,1.32,12.0,10.0,0,2,,4.35,29.970472,,,,,,,,,,,BKN,2300,,,,,,,MVFR,,,,,,,,,,,,METAR,141.0
DAOF 200600Z 27008KT CAVOK 13/01 Q1012,DAOF,2023-05-20T06:00:00Z,27.7,-8.17,13.0,1.0,270,8,,6.21,29.88189,,,,,,,,,,,CAVOK,,,,,,,,VFR,,,,,,,,,,,,METAR,441.0
DAOB 200600Z 28006KT 9999 FEW020 BKN023 08/08 Q1015,DAOB,2023-05-20T06:00:00Z,35.33,1.47,8.0,8.0,280,6,,6.21,29.970472,,,,,,,,,,,FEW,2000,BKN,2300,,,,,MVFR,,,,,,,,,,,,METAR,976.0
DABT 200600Z 28010KT 6000 FEW010 BKN020 10/09 Q1008,DABT,2023-05-20T06:00:00Z,35.75,6.32,10.0,9.0,280,10,,3.73,29.763779,,,,,,,,,,,FEW,1000,BKN,2000,,,,,MVFR,,,,,,,,,,,,METAR,813.0
DABS 200600Z 29018KT 9999 FEW020 BKN030 11/08 Q1004,DABS,2023-05-20T06:00:00Z,35.43,8.12,11.0,8.0,290,18,,6.21,29.64567,,,,,,,,,,,FEW,2000,BKN,3000,,,,,MVFR,,,,,,,,,,,,METAR,806.0
DABC 200600Z 32010KT 9999 SCT010 OVC023 11/10 Q1007,DABC,2023-05-20T06:00:00Z,36.27,6.62,11.0,10.0,320,10,,6.21,29.734253,,,,,,,,,,,SCT,1000,OVC,2300,,,,,MVFR,,,,,,,,,,,,METAR,686.0
DABB 200600Z 30009KT 6000 -RA FEW020 BKN033 15/14 Q1002,DABB,2023-05-20T06:00:00Z,36.82,7.82,15.0,14.0,300,9,,3.73,29.586615,,,,,,,,,,-RA,FEW,2000,BKN,3300,,,,,MVFR,,,,,,,,,,,,METAR,3.0
DAAY 200600Z 20006KT 9999 SCT020 SCT033 07/05 Q1017,DAAY,2023-05-20T06:00:00Z,33.53,-0.25,7.0,5.0,200,6,,6.21,30.029528,,,,,,,,,,,SCT,2000,SCT,3300,,,,,VFR,,,,,,,,,,,,METAR,1116.0
DAAV 200600Z 31015KT 6000 -RA FEW020 FEW023TCU FEW026CB SCT033 17/15 Q1007 RERA,DAAV,2023-05-20T06:00:00Z,36.8,5.88,17.0,15.0,310,15,,3.73,29.734253,,,,,,,,,,-RA,FEW,2000,FEW,2300,FEW,2600,SCT,3300,MVFR,,,,,,,,,,,,METAR,11.0
DAAT 200600Z VRB02KT CAVOK 18/M13 Q1017,DAAT,2023-05-20T06:00:00Z,22.82,5.47,18.0,-13.0,0,2,,6.21,30.029528,,,,,,,,,,,CAVOK,,,,,,,,VFR,,,,,,,,,,,,METAR,1376.0
DAAS 200600Z 32012KT 8000 FEW010 BKN026 10/06 Q1009,DAAS,2023-05-20T06:00:00Z,36.18,5.33,10.0,6.0,320,12,,4.97,29.793306,,,,,,,,,,,FEW,1000,BKN,2600,,,,,MVFR,,,,,,,,,,,,METAR,1012.0
DAAP 200600Z 31010KT 4000 SA NSC 21/09 Q1013,DAAP,2023-05-20T06:00:00Z,26.72,8.62,21.0,9.0,310,10,,2.49,29.911417,,,,,,,,,,SA,CLR,,,,,,,,IFR,,,,,,,,,,,,METAR,542.0
DAAJ 200600Z 31006KT 5000 NSC 26/// Q1013,DAAJ,2023-05-20T06:00:00Z,24.28,9.47,,,310,6,,3.11,29.911417,,,,,,,,,,,CLR,,,,,,,,MVFR,,,,,,,,,,,,METAR,962.0
DAAG 200600Z 25005KT 210V280 9999 FEW020 FEW026CB BKN040 14/13 Q1012,DAAG,2023-05-20T06:00:00Z,36.68,3.22,14.0,13.0,250,5,,6.21,29.88189,,,,,,,,,,,FEW,2000,FEW,2600,BKN,4000,,,VFR,,,,,,,,,,,,METAR,18.0
DAAE 200600Z 25009KT 6000 FEW016 FEW023TCU BKN033 15/13 Q1009,DAAE,2023-05-20T06:00:00Z,36.72,5.07,15.0,13.0,250,9,,3.73,29.793306,,,,,,,,,,,FEW,1600,FEW,2300,BKN,3300,,,MVFR,,,,,,,,,,,,METAR,1.0
DAAD 200600Z 30014KT 9999 FEW010 SCT030 14/07 Q1012,DAAD,2023-05-20T06:00:00Z,35.32,4.2,14.0,7.0,300,14,,6.21,29.88189,,,,,,,,,,,FEW,1000,SCT,3000,,,,,VFR,,,,,,,,,,,,METAR,461.0
CZZJ 200600Z AUTO 29005KT 15/06 RMK AO1 SLP176 T01480055 51013,CZZJ,2023-05-20T06:00:00Z,53.58,-116.47,14.8,5.5,290,5,,,,1017.6,,TRUE,TRUE,,,,,,,,,,,,,,,,1.3,,,,,,,,,,,METAR,927.0
CZUM 200600Z AUTO 26003KT 9SM CLR 02/01 A2986 RMK SLP132,CZUM,2023-05-20T06:00:00Z,53.55,-64.1,2.0,1.0,260,3,,9.0,29.861221,1013.2,,TRUE,,,,,,,,CLR,,,,,,,,VFR,,,,,,,,,,,,METAR,431.0
CZTB 200600Z AUTO 24004KT 06/05 RMK AO1 SLP208 T00620051 51002,CZTB,2023-05-20T06:00:00Z,48.37,-89.32,6.2,5.1,240,4,,,,1020.8,,TRUE,TRUE,,,,,,,,,,,,,,,,0.2,,,,,,,,,,,METAR,197.0
CZSP 200600Z AUTO 19017G24KT 07/M01 RMK AO1 PK WND 19028/0503 SLP234 T00741006 58008,CZSP,2023-05-20T06:00:00Z,46.45,-62.58,7.4,-0.6,190,17,24,,,1023.4,,TRUE,TRUE,,,,,,,,,,,,,,,,-0.8,,,,,,,,,,,METAR,31.0
CZSM 200600Z AUTO 36005KT 07/M01 RMK AO1 SLP232 T00671007 53021,CZSM,2023-05-20T06:00:00Z,60.03,-111.93,6.7,-0.7,360,5,,,,1023.2,,TRUE,TRUE,,,,,,,,,,,,,,,,2.1,,,,,,,,,,,METAR,203.0
CZSJ 200600Z AUTO 24004KT 200V280 9SM CLR 14/00 A2992 RMK SLP140,CZSJ,2023-05-20T06:00:00Z,53.07,-93.35,14.0,0.0,240,4,,9.0,29.920275,1014.0,,TRUE,,,,,,,,CLR,,,,,,,,VFR,,,,,,,,,,,,METAR,286.0
CZPC 200600Z AUTO 25009KT 9SM CLR 15/07 A3009 RMK SLP172 DENSITY ALT 4600FT,CZPC,2023-05-20T06:00:00Z,49.52,-114.0,15.0,7.0,250,9,,9.0,30.088583,1017.2,,TRUE,,,,,,,,CLR,,,,,,,,VFR,,,,,,,,,,,,METAR,1187.0
CZOL 200600Z AUTO 01001KT 11/06 RMK AO1 T01140062,CZOL,2023-05-20T06:00:00Z,53.65,-113.35,11.4,6.2,10,1,,,,,,TRUE,TRUE,,,,,,,,,,,,,,,,,,,,,,,,,,,METAR,645.0
CZMJ 200600Z AUTO 20018KT 15/02 RMK AO1 PK WND 20022/0547 SLP168 T01480024 58016,CZMJ,2023-05-20T06:00:00Z,50.33,-105.53,14.8,2.4,200,18,,,,1016.8,,TRUE,TRUE,,,,,,,,,,,,,,,,-1.6,,,,,,,,,,,METAR,571.0
CZMD 200600Z AUTO 23011KT 9SM CLR 13/02 A2987 RMK SLP124,CZMD,2023-05-20T06:00:00Z,53.43,-91.77,13.0,2.0,230,11,,9.0,29.870079,1012.4,,TRUE,,,,,,,,CLR,,,,,,,,VFR,,,,,,,,,,,,METAR,276.0
CZKD 200600Z AUTO 02004KT 12/06 RMK AO1 SLP105 T01230056 53019,CZKD,2023-05-20T06:00:00Z,56.03,-96.52,12.3,5.6,20,4,,,,1010.5,,TRUE,TRUE,,,,,,,,,,,,,,,,1.9,,,,,,,,,,,METAR,190.0
CZHY 200600Z AUTO 06003KT 06/01 RMK AO1 SLP237 T00580007 51008,CZHY,2023-05-20T06:00:00Z,60.83,-115.78,5.8,0.7,60,3,,,,1023.7,,TRUE,TRUE,,,,,,,,,,,,,,,,0.8,,,,,,,,,,,METAR,159.0
CZFS 200600Z AUTO 34001KT 05/02 RMK AO1 SLP219 T00500022 56007,CZFS,2023-05-20T06:00:00Z,61.77,-121.23,5.0,2.2,340,1,,,,1021.9,,TRUE,TRUE,,,,,,,,,,,,,,,,-0.7,,,,,,,,,,,METAR,174.0
CZEV 200600Z AUTO 14004KT 10/M07 RMK AO1 SLP169 T00961069 56017,CZEV,2023-05-20T06:00:00Z,68.32,-133.48,9.6,-6.9,140,4,,,,1016.9,,TRUE,TRUE,,,,,,,,,,,,,,,,-1.7,,,,,,,,,,,METAR,92.0
CZEL 200600Z AUTO 18004KT 14/14 RMK AO1 1PAST HR 6013 SLP128 P0004 T01430136 50034,CZEL,2023-05-20T06:00:00Z,43.65,-80.42,14.3,13.6,180,4,,,,1012.8,,TRUE,TRUE,,,,,,,,,,,,,,,,3.4,,,,,0.04,,,,,,METAR,370.0
CZDB 200600Z AUTO 19003KT 06/02 RMK AO1 SLP267 T00590022 58008,CZDB,2023-05-20T06:00:00Z,45.42,-63.47,5.9,2.2,190,3,,,,1026.7,,TRUE,TRUE,,,,,,,,,,,,,,,,-0.8,,,,,,,,,,,METAR,38.0
CZCR 200600Z AUTO 25009G19KT 13/05 RMK AO1 PK WND 24019/0558 SLP156 T01340053 55005,CZCR,2023-05-20T06:00:00Z,47.98,-66.33,13.4,5.3,250,9,19,,,1015.6,,TRUE,TRUE,,,,,,,,,,,,,,,,-0.5,,,,,,,,,,,METAR,39.0
CZCP 200600Z AUTO 14008KT ////SM ////// M03/M03 A3011,CZCP,2023-05-20T06:00:00Z,70.17,-124.68,-3.0,-3.0,140,8,,,30.109253,,,TRUE,,,,,,,,,,,,,,,,,,,,,,,,,,,,METAR,23.0
CZBF 200600Z AUTO 20008KT 9SM BKN240 10/05 A3003 RMK SLP173,CZBF,2023-05-20T06:00:00Z,47.62,-65.75,10.0,5.0,200,8,,9.0,30.029528,1017.3,,TRUE,,,,,,,,BKN,24000,,,,,,,VFR,,,,,,,,,,,,SPECI,60.0
CYZY 200600Z AUTO 00000KT 9SM CLR 13/04 A3004 RMK SLP182 DENSITY ALT 2500FT,CYZY,2023-05-20T06:00:00Z,55.3,-123.13,13.0,4.0,0,0,,9.0,30.041338,1018.2,,TRUE,,,,,,,,CLR,,,,,,,,VFR,,,,,,,,,,,,SPECI,694.0
CYZX 200600Z 22007KT 15SM BKN250 08/04 A3031 RMK CI7 DENSITY ALT -1051FT SLP264,CYZX,2023-05-20T06:00:00Z,44.98,-64.92,8.0,4.0,220,7,,15.0,30.31004,1026.4,,,,,,,,,,BKN,25000,,,,,,,VFR,,,,,,,,,,,,SPECI,28.0
CYZT 200600Z VRB02KT 15SM SCT220 12/10 A3017 RMK CI4 SLP219,CYZT,2023-05-20T06:00:00Z,50.68,-127.37,12.0,10.0,0,2,,15.0,30.171259,1021.9,,,,,,,,,,SCT,22000,,,,,,,VFR,,,,,,,,,,,,METAR,13.0
CYZS 200600Z 34007KT 15SM SCT110 BKN210 M12/M14 A2966 RMK AC4CI2 SLP051,CYZS,2023-05-20T06:00:00Z,64.2,-83.35,-12.0,-14.0,340,7,,15.0,29.660433,1005.1,,,,,,,,,,SCT,11000,BKN,21000,,,,,VFR,,,,,,,,,,,,METAR,60.0
CYZH 200600Z AUTO 13003KT 080V160 1 1/4SM HZ OVC040 14/10 A3002 RMK SLP177 DENSITY ALT 2200FT,CYZH,2023-05-20T06:00:00Z,55.28,-114.77,14.0,10.0,130,3,,1.25,30.02067,1017.7,,TRUE,,,,,,,HZ,OVC,4000,,,,,,,IFR,,,,,,,,,,,,METAR,583.0
CYZF 200600Z 07008KT 15SM FEW200 BKN240 06/M03 A3023 RMK CC2CI3 SLP249,CYZF,2023-05-20T06:00:00Z,62.47,-114.45,6.0,-3.0,70,8,,15.0,30.230314,1024.9,,,,,,,,,,FEW,20000,BKN,24000,,,,,VFR,,,,,,,,,,,,SPECI,202.0
CYYZ 200600Z 11008KT 6SM -RA BR BKN025 OVC090 16/16 A2990 RMK NS6NS2 SLP125 DENSITY ALT 800FT,CYYZ,2023-05-20T06:00:00Z,43.67,-79.62,16.0,16.0,110,8,,6.0,29.899607,1012.5,,,,,,,,,-RA BR,BKN,2500,OVC,9000,,,,,MVFR,,,,,,,,,,,,SPECI,171.0
CYYY 200600Z 14007KT 10SM -RA OVC065 11/07 A3001 RMK SC8 SLP165,CYYY,2023-05-20T06:00:00Z,48.6,-68.22,11.0,7.0,140,7,,10.0,30.008858,1016.5,,,,,,,,,-RA,OVC,6500,,,,,,,VFR,,,,,,,,,,,,METAR,43.0
CYYU 200600Z 16002KT 15SM SKC 01/00 A3006 RMK SLP191,CYYU,2023-05-20T06:00:00Z,49.42,-82.47,1.0,0.0,160,2,,15.0,30.059055,1019.1,,,,,,,,,,SKC,,,,,,,,VFR,,,,,,,,,,,,METAR,228.0
CYYT 200600Z 25020G25KT 15SM BKN200 05/M02 A3041 RMK CI6 SLP304,CYYT,2023-05-20T06:00:00Z,47.62,-52.73,5.0,-2.0,250,20,25,15.0,30.410433,1030.4,,,,,,,,,,BKN,20000,,,,,,,VFR,,,,,,,,,,,,SPECI,128.0
CYYR 200600Z 23013KT 15SM FEW042 SCT049 BKN070 08/04 A2985 RMK SC1SC3AC3 DENSITY ALT -522FT SLP111,CYYR,2023-05-20T06:00:00Z,53.32,-60.42,8.0,4.0,230,13,,15.0,29.84941,1011.1,,,,,,,,,,FEW,4200,SCT,4900,BKN,7000,,,VFR,,,,,,,,,,,,SPECI,42.0
CYYQ 200600Z 35023G30KT 15SM SCT011 BKN024 02/00 A2982 RMK SC3SC4 SLP101,CYYQ,2023-05-20T06:00:00Z,58.75,-94.07,2.0,0.0,350,23,30,15.0,29.819881,1010.1,,,,,,,,,,SCT,1100,BKN,2400,,,,,MVFR,,,,,,,,,,,,SPECI,20.0
CYYN 200600Z AUTO 19011G18KT 9SM CLR 17/07 A2998 RMK ICE MISG SLP150 DENSITY ALT 3500FT,CYYN,2023-05-20T06:00:00Z,50.28,-107.68,17.0,7.0,190,11,18,9.0,29.97933,1015.0,,TRUE,,,,,,,,CLR,,,,,,,,VFR,,,,,,,,,,,,METAR,814.0
CYYL 200600Z AUTO 03012G19KT 9SM BKN170 12/07 A2991 RMK SLP138,CYYL,2023-05-20T06:00:00Z,56.87,-101.07,12.0,7.0,30,12,19,9.0,29.911417,1013.8,,TRUE,,,,,,,,BKN,17000,,,,,,,VFR,,,,,,,,,,,,METAR,351.0
CYYJ 200600Z 00000KT 20SM FEW120 FEW250 14/12 A3004 RMK AC1CI2 AC TR SLP174,CYYJ,2023-05-20T06:00:00Z,48.63,-123.42,14.0,12.0,0,0,,20.0,30.041338,1017.4,,,,,,,,,,FEW,12000,FEW,25000,,,,,VFR,,,,,,,,,,,,SPECI,16.0
CYYH 200600Z 30012KT 15SM SCT033 BKN036 M12/M15 A2989 RMK SC4SC3 SLP127,CYYH,2023-05-20T06:00:00Z,69.53,-93.57,-12.0,-15.0,300,12,,15.0,29.890747,1012.7,,,,,,,,,,SCT,3300,BKN,3600,,,,,VFR,,,,,,,,,,,,METAR,19.0
CYYG 200600Z 19015G22KT 15SM SCT025 BKN260 08/02 A3022 RMK SC3CI1 SLP238,CYYG,2023-05-20T06:00:00Z,46.28,-63.12,8.0,2.0,190,15,22,15.0,30.221457,1023.8,,,,,,,,,,SCT,2500,BKN,26000,,,,,VFR,,,,,,,,,,,,METAR,48.0
CYYF 200600Z 33004KT 270V040 15SM FEW240 20/09 A2999 RMK CI1 SLP155 DENSITY ALT 1900FT,CYYF,2023-05-20T06:00:00Z,49.47,-119.6,20.0,9.0,330,4,,15.0,29.991142,1015.5,,,,,,,,,,FEW,24000,,,,,,,VFR,,,,,,,,,,,,METAR,342.0
CYYE 200600Z 02003KT 10SM FEW070 BKN130 BKN250 13/06 A3008 RMK FU2AC3CI1 SLP198,CYYE,2023-05-20T06:00:00Z,58.83,-122.58,13.0,6.0,20,3,,10.0,30.079725,1019.8,,,,,,,,,,FEW,7000,BKN,13000,BKN,25000,,,VFR,,,,,,,,,,,,METAR,379.0
CYYD 200600Z AUTO 36004KT 9SM CLR 16/05 A3010 RMK SLP195 DENSITY ALT 2000FT,CYYD,2023-05-20T06:00:00Z,54.82,-127.18,16.0,5.0,360,4,,9.0,30.100393,1019.5,,TRUE,,,,,,,,CLR,,,,,,,,VFR,,,,,,,,,,,,METAR,527.0
CYYC 200600Z 23005KT 7SM BKN048 18/07 A3009 RMK FU6 SLP179 DENSITY ALT 4600FT,CYYC,2023-05-20T06:00:00Z,51.12,-114.02,18.0,7.0,230,5,,7.0,30.088583,1017.9,,,,,,,,,,BKN,4800,,,,,,,VFR,,,,,,,,,,,,SPECI,1085.0
CYYB 200600Z AUTO 05003KT 6SM BR OVC020 11/10 A2993 RMK SLP141,CYYB,2023-05-20T06:00:00Z,46.35,-79.42,11.0,10.0,50,3,,6.0,29.929134,1014.1,,TRUE,,,,,,,BR,OVC,2000,,,,,,,MVFR,,,,,,,,,,,,METAR,360.0
CYXY 200600Z 16008KT 40SM FEW060 FEW090 BKN240 13/03 A3004 RMK SC1AC2CI4 SC TR SLP186,CYXY,2023-05-20T06:00:00Z,60.72,-135.07,13.0,3.0,160,8,,40.0,30.041338,1018.6,,,,,,,,,,FEW,6000,FEW,9000,BKN,24000,,,VFR,,,,,,,,,,,,SPECI,677.0
CYXX 200600Z 28003KT 220V290 15SM FEW120 17/12 A3005 RMK AC2 ACC ASOCTD SLP177 DENSITY ALT 400FT,CYXX,2023-05-20T06:00:00Z,49.03,-122.38,17.0,12.0,280,3,,15.0,30.050198,1017.7,,,,,,,,,,FEW,12000,,,,,,,VFR,,,,,,,,,,,,SPECI,54.0
CYXU 200600Z 22003KT 5SM -RA BR OVC035 14/14 A2991 RMK NS8 SLP129,CYXU,2023-05-20T06:00:00Z,43.03,-81.15,14.0,14.0,220,3,,5.0,29.911417,1012.9,,,,,,,,,-RA BR,OVC,3500,,,,,,,MVFR,,,,,,,,,,,,SPECI,278.0
CYXT 200600Z 20006KT 20SM SCT230 14/07 A3014 RMK CI3 SLP212,CYXT,2023-05-20T06:00:00Z,54.47,-128.57,14.0,7.0,200,6,,20.0,30.138779,1021.2,,,,,,,,,,SCT,23000,,,,,,,VFR,,,,,,,,,,,,METAR,213.0
CYXS 200600Z AUTO 00000KT 9SM CLR 13/07 A3004 RMK SLP179,CYXS,2023-05-20T06:00:00Z,53.88,-122.68,13.0,7.0,0,0,,9.0,30.041338,1017.9,,TRUE,,,,,,,,CLR,,,,,,,,VFR,,,,,,,,,,,,METAR,685.0
CYXR 200600Z AUTO 34008KT 9SM OVC042 08/06 A2999 RMK SLP165,CYXR,2023-05-20T06:00:00Z,47.7,-79.85,8.0,6.0,340,8,,9.0,29.991142,1016.5,,TRUE,,,,,,,,OVC,4200,,,,,,,VFR,,,,,,,,,,,,METAR,244.0
CYXL 200600Z 27005KT 15SM SKC 11/04 A3011 RMK SLP206,CYXL,2023-05-20T06:00:00Z,50.12,-91.9,11.0,4.0,270,5,,15.0,30.109253,1020.6,,,,,,,,,,SKC,,,,,,,,VFR,,,,,,,,,,,,METAR,381.0
CYXJ 200600Z 32004KT 3SM FU VV032 10/05 A3009 RMK FU8 SLP204,CYXJ,2023-05-20T06:00:00Z,56.25,-120.73,10.0,5.0,320,4,,3.0,30.088583,1020.4,,,,,,,,,FU,OVX,0,,,,,,,LIFR,,,,,,,,,,,3200,METAR,700.0
CYXH 200600Z AUTO 36022G36KT 6SM HZ SCT110 OVC160 21/09 A2996 RMK SLP137 DENSITY ALT 3600FT,CYXH,2023-05-20T06:00:00Z,50.02,-110.72,21.0,9.0,360,22,36,6.0,29.958662,1013.7,,TRUE,,,,,,,HZ,SCT,11000,OVC,16000,,,,,VFR,,,,,,,,,,,,METAR,717.0
CYXE 200600Z 17007KT 15SM FEW300 16/03 A2990 RMK CI2 SLP132 DENSITY ALT 2200FT,CYXE,2023-05-20T06:00:00Z,52.17,-106.7,16.0,3.0,170,7,,15.0,29.899607,1013.2,,,,,,,,,,FEW,30000,,,,,,,VFR,,,,,,,,,,,,METAR,504.0
CYXC 200600Z 29010G15KT 250V310 15SM FEW220 20/06 A3009 RMK CI1 CI TR SLP173 DENSITY ALT 4200FT,CYXC,2023-05-20T06:00:00Z,49.6,-115.78,20.0,6.0,290,10,15,15.0,30.088583,1017.3,,,,,,,,,,FEW,22000,,,,,,,VFR,,,,,,,,,,,,METAR,928.0
CYWL 200600Z 33002KT 15SM SCT095 BKN200 19/06 A3006 RMK AC4CI1 SLP172 DENSITY ALT 4200FT,CYWL,2023-05-20T06:00:00Z,52.18,-122.07,19.0,6.0,330,2,,15.0,30.059055,1017.2,,,,,,,,,,SCT,9500,BKN,20000,,,,,VFR,,,,,,,,,,,,METAR,942.0
CYWK 200600Z AUTO 26003KT 9SM CLR 02/01 A2990 RMK SLP149,CYWK,2023-05-20T06:00:00Z,52.92,-66.87,2.0,1.0,260,3,,9.0,29.899607,1014.9,,TRUE,,,,,,,,CLR,,,,,,,,VFR,,,,,,,,,,,,SPECI,547.0
CYWG 200600Z 21012KT 15SM SKC 14/02 A3014 RMK SLP211,CYWG,2023-05-20T06:00:00Z,49.9,-97.23,14.0,2.0,210,12,,15.0,30.138779,1021.1,,,,,,,,,,SKC,,,,,,,,VFR,,,,,,,,,,,,SPECI,238.0
CYWE 200600Z AUTO 13002KT 9SM CLR 01/M06 A3021 RMK ICE MISG SLP259,CYWE,2023-05-20T06:00:00Z,64.18,-114.08,1.0,-6.0,130,2,,9.0,30.209646,1025.9,,TRUE,,,,,,,,CLR,,,,,,,,VFR,,,,,,,,,,,,METAR,374.0
CYVV 200600Z 35003KT 1/2SM FG VV001 11/11 A2988 RMK FG8 SLP122,CYVV,2023-05-20T06:00:00Z,44.75,-81.1,11.0,11.0,350,3,,0.5,29.878937,1012.2,,,,,,,,,FG,OVX,0,,,,,,,LIFR,,,,,,,,,,,100,METAR,221.0
CYVR 200600Z 09009KT 15SM FEW060 FEW150 FEW230 15/13 A3004 RMK SC1AC1CI2 SC TR AC TR SLP176,CYVR,2023-05-20T06:00:00Z,49.17,-123.17,15.0,13.0,90,9,,15.0,30.041338,1017.6,,,,,,,,,,FEW,6000,FEW,15000,FEW,23000,,,VFR,,,,,,,,,,,,METAR,2.0
CYVQ 200600Z 11009KT 30SM FEW250 10/M03 A3004 RMK CI2 SLP179,CYVQ,2023-05-20T06:00:00Z,65.27,-126.78,10.0,-3.0,110,9,,30.0,30.041338,1017.9,,,,,,,,,,FEW,25000,,,,,,,VFR,,,,,,,,,,,,METAR,63.0
CYVP 200600Z 28007KT 240V300 15SM -SN OVC029 M01/M07 A2981 RMK SC8 SLP098,CYVP,2023-05-20T06:00:00Z,58.12,-68.42,-1.0,-7.0,280,7,,15.0,29.811024,1009.8,,,,,,,,,-SN,OVC,2900,,,,,,,MVFR,,,,,,,,,,,,SPECI,28.0
CYVM 200600Z AUTO 33004KT 9SM OVC045 M07/M09 A2939 RMK SLP956,CYVM,2023-05-20T06:00:00Z,67.55,-64.02,-7.0,-9.0,330,4,,9.0,29.388779,995.6,,TRUE,,,,,,,,OVC,4500,,,,,,,VFR,,,,,,,,,,,,METAR,3.0
CYVL 200600Z AUTO 16008KT 9SM CLR 06/M05 A3007 RMK SLP203,CYVL,2023-05-20T06:00:00Z,67.02,-126.13,6.0,-5.0,160,8,,9.0,30.070866,1020.3,,TRUE,,,,,,,,CLR,,,,,,,,VFR,,,,,,,,,,,,METAR,261.0
CYVC 200600Z 05003KT 6SM FU OVC050 10/02 A2991 RMK SC8 SLP139,CYVC,2023-05-20T06:00:00Z,55.15,-105.27,10.0,2.0,50,3,,6.0,29.911417,1013.9,,,,,,,,,FU,OVC,5000,,,,,,,VFR,,,,,,,,,,,,METAR,378.0
CYUX 200600Z AUTO 32018KT 9SM BKN230 M14/M16 A2961 RMK SLP029,CYUX,2023-05-20T06:00:00Z,68.77,-81.22,-14.0,-16.0,320,18,,9.0,29.610237,1002.9,,TRUE,,,,,,,,BKN,23000,,,,,,,VFR,,,,,,,,,,,,METAR,8.0
CYUL 200600Z 14007KT 15SM OVC060 17/11 A3002 RMK SC8 SLP167,CYUL,2023-05-20T06:00:00Z,45.47,-73.73,17.0,11.0,140,7,,15.0,30.02067,1016.7,,,,,,,,,,OVC,6000,,,,,,,VFR,,,,,,,,,,,,SPECI,31.0
CYUA 200600Z AUTO 11012KT ////SM NCD ///// A////,CYUA,2023-05-20T06:00:00Z,68.92,-137.23,,,110,12,,,,,,TRUE,,,,,,,,CLR,,,,,,,,,,,,,,,,,,,,METAR,25.0
CYTS 200600Z 02006KT 10SM FEW006 OVC017 07/06 A3004 RMK SF2SC6 SLP186,CYTS,2023-05-20T06:00:00Z,48.57,-81.37,7.0,6.0,20,6,,10.0,30.041338,1018.6,,,,,,,,,,FEW,600,OVC,1700,,,,,MVFR,,,,,,,,,,,,SPECI,290.0
CYTL 200600Z AUTO 26008KT 9SM CLR 12/01 A2981 RMK SLP105,CYTL,2023-05-20T06:00:00Z,53.82,-89.88,12.0,1.0,260,8,,9.0,29.811024,1010.5,,TRUE,,,,,,,,CLR,,,,,,,,VFR,,,,,,,,,,,,SPECI,218.0
CYTH 200600Z 03010G15KT 10SM VV055 14/03 A2983 RMK FU8 SLP108,CYTH,2023-05-20T06:00:00Z,55.8,-97.83,14.0,3.0,30,10,15,10.0,29.828741,1010.8,,,,,,,,,,OVX,0,,,,,,,LIFR,,,,,,,,,,,5500,SPECI,212.0
CYSM 200600Z 34004KT 15SM FEW090 06/M01 A3018 RMK AC2 SLP229,CYSM,2023-05-20T06:00:00Z,60.03,-111.92,6.0,-1.0,340,4,,15.0,30.180119,1022.9,,,,,,,,,,FEW,9000,,,,,,,VFR,,,,,,,,,,,,METAR,203.0
CYSJ 200600Z 21015G21KT 15SM FEW012 BKN230 08/06 A3025 RMK SF1CI4 SLP249,CYSJ,2023-05-20T06:00:00Z,45.32,-65.88,8.0,6.0,210,15,21,15.0,30.250984,1024.9,,,,,,,,,,FEW,1200,BKN,23000,,,,,VFR,,,,,,,,,,,,SPECI,89.0
CYSF 200600Z AUTO 04004KT 020V090 9SM CLR 04/M00 A3012 RMK SLP211,CYSF,2023-05-20T06:00:00Z,59.25,-105.83,4.0,0.0,40,4,,9.0,30.121063,1021.1,,TRUE,,,,,,,,CLR,,,,,,,,VFR,,,,,,,,,,,,METAR,238.0
CYSB 200600Z 04008KT 15SM OVC022 09/06 A2994 RMK SC8 SLP150,CYSB,2023-05-20T06:00:00Z,46.63,-80.8,9.0,6.0,40,8,,15.0,29.940945,1015.0,,,,,,,,,,OVC,2200,,,,,,,MVFR,,,,,,,,,,,,METAR,349.0
CYRV 200600Z AUTO VRB02KT 9SM CLR 17/10 A3005 RMK SLP174 DENSITY ALT 1900FT,CYRV,2023-05-20T06:00:00Z,50.97,-118.17,17.0,10.0,0,2,,9.0,30.050198,1017.4,,TRUE,,,,,,,,CLR,,,,,,,,VFR,,,,,,,,,,,,METAR,456.0
CYRT 200600Z 02016G22KT 4SM -SN SCT015 OVC035 M03/M04 A2977 RMK SC3SC5 SLP088,CYRT,2023-05-20T06:00:00Z,62.82,-92.12,-3.0,-4.0,20,16,22,4.0,29.769686,1008.8,,,,,,,,,-SN,SCT,1500,OVC,3500,,,,,MVFR,,,,,,,,,,,,METAR,29.0
CYRQ 200600Z AUTO 20009KT 9SM BKN055 OVC074 16/12 A3002 RMK SLP170,CYRQ,2023-05-20T06:00:00Z,46.35,-72.68,16.0,12.0,200,9,,9.0,30.02067,1017.0,,TRUE,,,,,,,,BKN,5500,OVC,7400,,,,,VFR,,,,,,,,,,,,METAR,58.0
CYRJ 200600Z 15002KT 25SM OVC068 10/05 A3005 RMK AC8 SLP179,CYRJ,2023-05-20T06:00:00Z,48.52,-72.27,10.0,5.0,150,2,,25.0,30.050198,1017.9,,,,,,,,,,OVC,6800,,,,,,,VFR,,,,,,,,,,,,METAR,173.0
CYRB 200600Z 32023KT 6SM -SN BLSN OVC030 M12/M15 A2971 RMK SC8 SLP072,CYRB,2023-05-20T06:00:00Z,74.72,-94.97,-12.0,-15.0,320,23,,6.0,29.71063,1007.2,,,,,,,,,-SN BLSN,OVC,3000,,,,,,,MVFR,,,,,,,,,,,,SPECI,59.0
CYQZ 200600Z AUTO 00000KT 9SM BKN140 15/11 A3000 RMK SLP166 DENSITY ALT 2100FT,CYQZ,2023-05-20T06:00:00Z,53.02,-122.52,15.0,11.0,0,0,,9.0,30.0,1016.6,,TRUE,,,,,,,,BKN,14000,,,,,,,VFR,,,,,,,,,,,,METAR,548.0
CYQY 200600Z 23009G15KT 15SM FEW240 05/03 A3032 RMK CI1 SLP272,CYQY,2023-05-20T06:00:00Z,46.17,-60.03,5.0,3.0,230,9,15,15.0,30.318897,1027.2,,,,,,,,,,FEW,24000,,,,,,,VFR,,,,,,,,,,,,SPECI,58.0
CYQX 200600Z 20008KT 180V260 20SM BKN210 OVC230 04/M01 A3027 RMK CI6CI2 SLP256,CYQX,2023-05-20T06:00:00Z,48.95,-54.58,4.0,-1.0,200,8,,20.0,30.268702,1025.6,,,,,,,,,,BKN,21000,OVC,23000,,,,,VFR,,,,,,,,,,,,SPECI,144.0
CYQW 200600Z AUTO 00000KT 7SM OVC044 14/08 A2992 RMK SLP139 DENSITY ALT 2200FT,CYQW,2023-05-20T06:00:00Z,52.77,-108.25,14.0,8.0,0,0,,7.0,29.920275,1013.9,,TRUE,,,,,,,,OVC,4400,,,,,,,VFR,,,,,,,,,,,,METAR,545.0
CYQV 200600Z AUTO 20011G16KT 9SM CLR 13/03 A3001 RMK SLP173,CYQV,2023-05-20T06:00:00Z,51.27,-102.47,13.0,3.0,200,11,16,9.0,30.008858,1017.3,,TRUE,,,,,,,,CLR,,,,,,,,VFR,,,,,,,,,,,,METAR,493.0
CYQU 200600Z 28006KT 1 1/2SM FU VV015 11/05 A3006 RMK FU8 SLP187,CYQU,2023-05-20T06:00:00Z,55.18,-118.88,11.0,5.0,280,6,,1.5,30.059055,1018.7,,,,,,,,,FU,OVX,0,,,,,,,LIFR,,,,,,,,,,,1500,METAR,668.0
CYQT 200600Z 23004KT 15SM SKC 05/04 A3012 RMK SLP208,CYQT,2023-05-20T06:00:00Z,48.37,-89.32,5.0,4.0,230,4,,15.0,30.121063,1020.8,,,,,,,,,,SKC,,,,,,,,VFR,,,,,,,,,,,,METAR,197.0
CYQR 200600Z 17010KT 15SM FEW250 11/02 A3003 RMK CI1 SLP181,CYQR,2023-05-20T06:00:00Z,50.43,-104.67,11.0,2.0,170,10,,15.0,30.029528,1018.1,,,,,,,,,,FEW,25000,,,,,,,VFR,,,,,,,,,,,,METAR,576.0
CYQQ 200600Z 34007KT 20SM FEW250 18/12 A3006 RMK CI2 DENSITY ALT 500FT SLP178,CYQQ,2023-05-20T06:00:00Z,49.72,-124.9,18.0,12.0,340,7,,20.0,30.059055,1017.8,,,,,,,,,,FEW,25000,,,,,,,VFR,,,,,,,,,,,,SPECI,24.0
CYQM 200600Z 21015KT 15SM FEW220 09/04 A3019 RMK CI2 SLP227,CYQM,2023-05-20T06:00:00Z,46.12,-64.67,9.0,4.0,210,15,,15.0,30.188976,1022.7,,,,,,,,,,FEW,22000,,,,,,,VFR,,,,,,,,,,,,SPECI,67.0
CYQL 200600Z AUTO 31010G16KT 9SM CLR 20/06 A3002 RMK SLP150 DENSITY ALT 4200FT,CYQL,2023-05-20T06:00:00Z,49.63,-112.8,20.0,6.0,310,10,16,9.0,30.02067,1015.0,,TRUE,,,,,,,,CLR,,,,,,,,VFR,,,,,,,,,,,,METAR,923.0
CYQK 200600Z 25005KT 15SM SKC 11/05 A3015 RMK SLP219,CYQK,2023-05-20T06:00:00Z,49.78,-94.37,11.0,5.0,250,5,,15.0,30.15059,1021.9,,,,,,,,,,SKC,,,,,,,,VFR,,,,,,,,,,,,SPECI,413.0
CYQI 200600Z 20014G20KT 15SM SKC 09/07 A3031 RMK SLP268,CYQI,2023-05-20T06:00:00Z,43.83,-66.08,9.0,7.0,200,14,20,15.0,30.31004,1026.8,,,,,,,,,,SKC,,,,,,,,VFR,,,,,,,,,,,,SPECI,37.0
CYQH 200600Z 28009KT 30SM SCT100 17/04 A3001 RMK AC4 CLIMAT 26.6/17.2/0.0 SLP167 DENSITY ALT 3000FT,CYQH,2023-05-20T06:00:00Z,60.12,-128.82,17.0,4.0,280,9,,30.0,30.008858,1016.7,,,,,,,,,,SCT,10000,,,,,,,VFR,,,,,,,,,,,,METAR,692.0
CYQF 200600Z AUTO 20004KT 8SM CLR 12/06 A3005 RMK SLP181 DENSITY ALT 3200FT,CYQF,2023-05-20T06:00:00Z,52.17,-113.9,12.0,6.0,200,4,,8.0,30.050198,1018.1,,TRUE,,,,,,,,CLR,,,,,,,,VFR,,,,,,,,,,,,METAR,912.0
CYQD 200600Z AUTO 20007KT 9SM SCT071 SCT090 SCT120 BKN140 16/M01 A2988 RMK SLP123 DENSITY ALT 1200FT,CYQD,2023-05-20T06:00:00Z,53.97,-101.08,16.0,-1.0,200,7,,9.0,29.878937,1012.3,,TRUE,,,,,,,,SCT,7100,SCT,9000,SCT,12000,BKN,14000,VFR,,,,,,,,,,,,METAR,268.0
CYQB 200600Z 25006KT 15SM BKN050 BKN085 OVC100 16/11 A3002 RMK SC5AC2AC1 SLP168,CYQB,2023-05-20T06:00:00Z,46.78,-71.38,16.0,11.0,250,6,,15.0,30.02067,1016.8,,,,,,,,,,BKN,5000,BKN,8500,OVC,10000,,,VFR,,,,,,,,,,,,SPECI,73.0
CYPY 200600Z AUTO 05012G19KT 9SM OVC100 12/00 A3011 RMK SLP205,CYPY,2023-05-20T06:00:00Z,58.77,-111.12,12.0,0.0,50,12,19,9.0,30.109253,1020.5,,TRUE,,,,,,,,OVC,10000,,,,,,,VFR,,,,,,,,,,,,METAR,225.0
CYPX 200600Z AUTO 23010KT 9SM OVC016 M03/M06 A2973 RMK SLP073,CYPX,2023-05-20T06:00:00Z,60.03,-77.27,-3.0,-6.0,230,10,,9.0,29.731298,1007.3,,TRUE,,,,,,,,OVC,1600,,,,,,,MVFR,,,,,,,,,,,,METAR,10.0
CYPR 200600Z AUTO 32003KT 9SM CLR 11/10 A3019 RMK SLP228,CYPR,2023-05-20T06:00:00Z,54.28,-130.45,11.0,10.0,320,3,,9.0,30.188976,1022.8,,TRUE,,,,,,,,CLR,,,,,,,,VFR,,,,,,,,,,,,METAR,30.0
CYPO 200600Z AUTO 20012G18KT 9SM SCT091 BKN140 BKN240 10/02 A2963 RMK SLP036,CYPO,2023-05-20T06:00:00Z,54.98,-85.43,10.0,2.0,200,12,18,9.0,29.630905,1003.6,,TRUE,,,,,,,,SCT,9100,BKN,14000,BKN,24000,,,VFR,,,,,,,,,,,,METAR,49.0
CYPL 200600Z AUTO 27010G16KT 9SM CLR 12/03 A3001 RMK SLP174,CYPL,2023-05-20T06:00:00Z,51.43,-90.22,12.0,3.0,270,10,16,9.0,30.008858,1017.4,,TRUE,,,,,,,,CLR,,,,,,,,VFR,,,,,,,,,,,,SPECI,390.0
CYPH 200600Z AUTO 22006KT 9SM OVC014 M03/M05 A2977 RMK SLP085,CYPH,2023-05-20T06:00:00Z,58.47,-78.08,-3.0,-5.0,220,6,,9.0,29.769686,1008.5,,TRUE,,,,,,,,OVC,1400,,,,,,,MVFR,,,,,,,,,,,,METAR,24.0
CYPE 200600Z 01008KT 2SM FU OVC035 13/07 A3005 RMK FU8 SLP185,CYPE,2023-05-20T06:00:00Z,56.22,-117.45,13.0,7.0,10,8,,2.0,30.050198,1018.5,,,,,,,,,FU,OVC,3500,,,,,,,IFR,,,,,,,,,,,,METAR,572.0
CYPD 200600Z AUTO 21010G15KT 200V260 9SM CLR 06/04 A3033 RMK SLP276,CYPD,2023-05-20T06:00:00Z,45.67,-61.37,6.0,4.0,210,10,15,9.0,30.33071,1027.6,,TRUE,,,,,,,,CLR,,,,,,,,VFR,,,,,,,,,,,,METAR,106.0
CYPA 200600Z 13006KT 15SM BKN270 09/02 A2990 RMK CI5 SLP136,CYPA,2023-05-20T06:00:00Z,53.22,-105.67,9.0,2.0,130,6,,15.0,29.899607,1013.6,,,,,,,,,,BKN,27000,,,,,,,VFR,,,,,,,,,,,,METAR,428.0
CYOW 200600Z 16004KT 15SM BKN055 16/13 A3000 RMK SC7 SLP163,CYOW,2023-05-20T06:00:00Z,45.32,-75.67,16.0,13.0,160,4,,15.0,30.0,1016.3,,,,,,,,,,BKN,5500,,,,,,,VFR,,,,,,,,,,,,SPECI,111.0
CYOJ 200600Z AUTO 35006KT 9SM CLR 11/04 A3011 RMK SLP210,CYOJ,2023-05-20T06:00:00Z,58.62,-117.17,11.0,4.0,350,6,,9.0,30.109253,1021.0,,TRUE,,,,,,,,CLR,,,,,,,,VFR,,,,,,,,,,,,METAR,339.0
CYOD 200600Z 36004KT 1/2SM R31R/P6000FT/D FU VV019 15/07 A2994 RMK FU8 DENSITY ALT 2263FT VIS VRB 1/4-3/4 SLP143,CYOD,2023-05-20T06:00:00Z,54.4,-110.28,15.0,7.0,360,4,,0.5,29.940945,1014.3,,,,,,,,,FU,OVX,0,,,,,,,LIFR,,,,,,,,,,,1900,METAR,540.0
CYNM 200600Z AUTO VRB02KT 9SM OVC019 06/05 A3004 RMK SLP185,CYNM,2023-05-20T06:00:00Z,49.77,-77.78,6.0,5.0,0,2,,9.0,30.041338,1018.5,,TRUE,,,,,,,,OVC,1900,,,,,,,MVFR,,,,,,,,,,,,METAR,276.0
CYNE 200600Z AUTO 22007KT 9SM CLR 12/02 A2988 RMK SLP127,CYNE,2023-05-20T06:00:00Z,53.97,-97.83,12.0,2.0,220,7,,9.0,29.878937,1012.7,,TRUE,,,,,,,,CLR,,,,,,,,VFR,,,,,,,,,,,,METAR,220.0
CYNA 200600Z AUTO 12003KT 9SM BKN210 04/02 A2996 RMK SLP147,CYNA,2023-05-20T06:00:00Z,50.18,-61.78,4.0,2.0,120,3,,9.0,29.958662,1014.7,,TRUE,,,,,,,,BKN,21000,,,,,,,VFR,,,,,,,,,,,,METAR,9.0
CYMX 200600Z 18002KT 25SM BKN055 OVC120 16/12 A3002 RMK SC6AC2 SLP167,CYMX,2023-05-20T06:00:00Z,45.67,-74.03,16.0,12.0,180,2,,25.0,30.02067,1016.7,,,,,,,,,,BKN,5500,OVC,12000,,,,,VFR,,,,,,,,,,,,SPECI,78.0
CYMO 200600Z AUTO 17006KT 1/4SM FG VV002 02/02 A3003 RMK SLP172,CYMO,2023-05-20T06:00:00Z,51.28,-80.62,2.0,2.0,170,6,,0.25,30.029528,1017.2,,TRUE,,,,,,,FG,OVX,0,,,,,,,LIFR,,,,,,,,,,,200,METAR,8.0
CYMM 200600Z AUTO 03006KT 7SM CLR 15/04 A3002 RMK SLP174,CYMM,2023-05-20T06:00:00Z,56.65,-111.22,15.0,4.0,30,6,,7.0,30.02067,1017.4,,TRUE,,,,,,,,CLR,,,,,,,,VFR,,,,,,,,,,,,METAR,371.0
CYMH 200600Z AUTO 21009G15KT 9SM BKN091 OVC120 05/02 A2995 RMK SLP143,CYMH,2023-05-20T06:00:00Z,52.3,-55.82,5.0,2.0,210,9,15,9.0,29.949802,1014.3,,TRUE,,,,,,,,BKN,9100,OVC,12000,,,,,VFR,,,,,,,,,,,,SPECI,18.0
CYMA 200600Z 36007KT 20SM SCT080 BKN100 BKN220 19/M00 A2981 RMK AC3AC2CI2 CLIMAT 24.5/18.5/0.0 SLP105 DENSITY ALT 2600FT,CYMA,2023-05-20T06:00:00Z,63.62,-135.87,19.0,0.0,360,7,,20.0,29.811024,1010.5,,,,,,,,,,SCT,8000,BKN,10000,BKN,22000,,,VFR,,,,,,,,,,,,METAR,519.0
CYLW 200600Z AUTO 05004KT 320V050 9SM FEW110 18/12 A3001 RMK SLP158 DENSITY ALT 2100FT,CYLW,2023-05-20T06:00:00Z,49.95,-119.37,18.0,12.0,50,4,,9.0,30.008858,1015.8,,TRUE,,,,,,,,FEW,11000,,,,,,,VFR,,,,,,,,,,,,METAR,420.0
CYLL 200600Z AUTO 28007KT 4SM HZ CLR 15/08 A2993 RMK SLP141 DENSITY ALT 2800FT,CYLL,2023-05-20T06:00:00Z,53.32,-110.07,15.0,8.0,280,7,,4.0,29.929134,1014.1,,TRUE,,,,,,,HZ,CLR,,,,,,,,MVFR,,,,,,,,,,,,METAR,664.0
CYLH 200600Z AUTO 24005KT 9SM CLR 11/05 A2993 RMK SLP143,CYLH,2023-05-20T06:00:00Z,52.2,-87.93,11.0,5.0,240,5,,9.0,29.929134,1014.3,,TRUE,,,,,,,,CLR,,,,,,,,VFR,,,,,,,,,,,,METAR,245.0
CYKY 200600Z 35003KT 15SM SCT065 OVC140 19/07 A2993 RMK SC3AC5 SLP133 DENSITY ALT 3300FT,CYKY,2023-05-20T06:00:00Z,51.52,-109.17,19.0,7.0,350,3,,15.0,29.929134,1013.3,,,,,,,,,,SCT,6500,OVC,14000,,,,,VFR,,,,,,,,,,,,METAR,692.0
CYKP 200600Z AUTO 20007KT 9SM CLR 09/05 A2996 RMK SLP148,CYKP,2023-05-20T06:00:00Z,51.67,-85.9,9.0,5.0,200,7,,9.0,29.958662,1014.8,,TRUE,,,,,,,,CLR,,,,,,,,VFR,,,,,,,,,,,,METAR,181.0
CYKL 200600Z AUTO 29011KT 9SM CLR 00/M05 A2982 RMK SLP127,CYKL,2023-05-20T06:00:00Z,54.8,-66.8,0.0,-5.0,290,11,,9.0,29.819881,1012.7,,TRUE,,,,,,,,CLR,,,,,,,,VFR,,,,,,,,,,,,SPECI,507.0
CYKJ 200600Z AUTO 05010KT 9SM CLR 11/06 A3000 RMK SLP171,CYKJ,2023-05-20T06:00:00Z,57.25,-105.62,11.0,6.0,50,10,,9.0,30.0,1017.1,,TRUE,,,,,,,,CLR,,,,,,,,VFR,,,,,,,,,,,,METAR,519.0
CYKA 200600Z 00000KT 40SM FEW250 23/06 A2997 RMK CI2 SLP148 DENSITY ALT 2300FT,CYKA,2023-05-20T06:00:00Z,50.7,-120.45,23.0,6.0,0,0,,40.0,29.970472,1014.8,,,,,,,,,,FEW,25000,,,,,,,VFR,,,,,,,,,,,,METAR,344.0
CYJT 200600Z 19011KT 15SM FEW110 06/02 A3023 RMK AC1 AC TR SLP238,CYJT,2023-05-20T06:00:00Z,48.55,-58.57,6.0,2.0,190,11,,15.0,30.230314,1023.8,,,,,,,,,,FEW,11000,,,,,,,VFR,,,,,,,,,,,,SPECI,7.0
CYIV 200600Z AUTO 25006KT 220V310 9SM CLR 13/02 A2987 RMK SLP121,CYIV,2023-05-20T06:00:00Z,53.85,-94.65,13.0,2.0,250,6,,9.0,29.870079,1012.1,,TRUE,,,,,,,,CLR,,,,,,,,VFR,,,,,,,,,,,,METAR,234.0
CYIO 200600Z AUTO 21017KT 9SM BKN044 M12/M14 A2937 RMK SLP955,CYIO,2023-05-20T06:00:00Z,72.68,-77.97,-12.0,-14.0,210,17,,9.0,29.371063,995.5,,TRUE,,,,,,,,BKN,4400,,,,,,,VFR,,,,,,,,,,,,METAR,61.0
CYIN 200600Z AUTO 27003KT 9SM SCT096 16/05 A3009 RMK SLP175 DENSITY ALT 4500FT,CYIN,2023-05-20T06:00:00Z,51.27,-121.68,16.0,5.0,270,3,,9.0,30.088583,1017.5,,TRUE,,,,,,,,SCT,9600,,,,,,,VFR,,,,,,,,,,,,METAR,1127.0
CYHZ 200600Z 19012KT 15SM SCT250 06/05 A3034 RMK CI3 SLP278,CYHZ,2023-05-20T06:00:00Z,44.87,-63.5,6.0,5.0,190,12,,15.0,30.339567,1027.8,,,,,,,,,,SCT,25000,,,,,,,VFR,,,,,,,,,,,,SPECI,136.0
CYHU 200600Z AUTO 18009G15KT 9SM OVC060 17/10 A3003 RMK SLP172 DENSITY ALT 300FT,CYHU,2023-05-20T06:00:00Z,45.52,-73.42,17.0,10.0,180,9,15,9.0,30.029528,1017.2,,TRUE,,,,,,,,OVC,6000,,,,,,,VFR,,,,,,,,,,,,METAR,26.0
CYHM 200600Z VRB02KT 12SM -RA FEW015 SCT072 OVC098 16/15 A2990 RMK CF1AC2AC5 SLP127 DENSITY ALT 1100FT,CYHM,2023-05-20T06:00:00Z,43.17,-79.93,16.0,15.0,0,2,,12.0,29.899607,1012.7,,,,,,,,,-RA,FEW,1500,SCT,7200,OVC,9800,,,VFR,,,,,,,,,,,,METAR,237.0
CYHK 200600Z AUTO 35018G23KT 9SM -SN OVC023 M11/M15 A2996 RMK SLP154,CYHK,2023-05-20T06:00:00Z,68.62,-95.85,-11.0,-15.0,350,18,23,9.0,29.958662,1015.4,,TRUE,,,,,,,-SN,OVC,2300,,,,,,,MVFR,,,,,,,,,,,,METAR,36.0
CYHE 200600Z AUTO /////KT RMK WIND MISG CLD MISG WX MISG VIS MISG PCPN MISG PRES MISG T MISG DP MISG ICE MISG DENSITY ALT MISG,CYHE,2023-05-20T06:00:00Z,49.37,-121.5,,,,,,,,,,TRUE,,,,,,,,,,,,,,,,,,,,,,,,,,,,METAR,43.0
CYHD 200600Z AUTO 25007KT 9SM CLR 10/04 A3013 RMK SLP215,CYHD,2023-05-20T06:00:00Z,49.82,-92.75,10.0,4.0,250,7,,9.0,30.129921,1021.5,,TRUE,,,,,,,,CLR,,,,,,,,VFR,,,,,,,,,,,,METAR,414.0
CYGX 200600Z 35009KT 4SM FU VV005 09/06 A2979 RMK FU8 SLP096,CYGX,2023-05-20T06:00:00Z,56.35,-94.7,9.0,6.0,350,9,,4.0,29.790354,1009.6,,,,,,,,,FU,OVX,0,,,,,,,LIFR,,,,,,,,,,,500,METAR,145.0
CYGW 200600Z AUTO 13006KT 9SM FEW110 SCT170 M01/M03 A2988 RMK SLP122,CYGW,2023-05-20T06:00:00Z,55.27,-77.77,-1.0,-3.0,130,6,,9.0,29.878937,1012.2,,TRUE,,,,,,,,FEW,11000,SCT,17000,,,,,VFR,,,,,,,,,,,,METAR,13.0
CYGV 200600Z AUTO VRB02KT 9SM BKN091 OVC110 06/02 A2995 RMK SLP145,CYGV,2023-05-20T06:00:00Z,50.28,-63.62,6.0,2.0,0,2,,9.0,29.949802,1014.5,,TRUE,,,,,,,,BKN,9100,OVC,11000,,,,,VFR,,,,,,,,,,,,METAR,32.0
CYGP 200600Z 25013G19KT 15SM SCT220 OVC230 14/03 A2996 RMK CI3CC5 SLP147,CYGP,2023-05-20T06:00:00Z,48.77,-64.47,14.0,3.0,250,13,19,15.0,29.958662,1014.7,,,,,,,,,,SCT,22000,OVC,23000,,,,,VFR,,,,,,,,,,,,METAR,31.0
CYGL 200600Z 20008KT 15SM SCT100 BKN220 M02/M03 A2995 RMK AC4CI2 SLP155,CYGL,2023-05-20T06:00:00Z,53.62,-77.7,-2.0,-3.0,200,8,,15.0,29.949802,1015.5,,,,,,,,,,SCT,10000,BKN,22000,,,,,VFR,,,,,,,,,,,,SPECI,192.0
CYFS 200600Z 00000KT 15SM SCT250 06/02 A3015 RMK CI3 SLP221,CYFS,2023-05-20T06:00:00Z,61.75,-121.22,6.0,2.0,0,0,,15.0,30.15059,1022.1,,,,,,,,,,SCT,25000,,,,,,,VFR,,,,,,,,,,,,METAR,174.0
CYFC 200600Z AUTO 20005KT 9SM FEW091 07/05 A3020 RMK SLP227,CYFC,2023-05-20T06:00:00Z,45.87,-66.53,7.0,5.0,200,5,,9.0,30.200787,1022.7,,TRUE,,,,,,,,FEW,9100,,,,,,,VFR,,,,,,,,,,,,SPECI,16.0
CYFB 200600Z 33010KT 10SM -SN BKN014 OVC025 M03/M06 A2948 RMK SC6SC2 SLP987,CYFB,2023-05-20T06:00:00Z,63.75,-68.55,-3.0,-6.0,330,10,,10.0,29.480314,998.7,,,,,,,,,-SN,BKN,1400,OVC,2500,,,,,MVFR,,,,,,,,,,,,SPECI,23.0
CYEV 200600Z 13005KT 15SM SKC 10/M07 A3000 RMK SLP164,CYEV,2023-05-20T06:00:00Z,68.32,-133.5,10.0,-7.0,130,5,,15.0,30.0,1016.4,,,,,,,,,,SKC,,,,,,,,VFR,,,,,,,,,,,,METAR,74.0
CYET 200600Z AUTO 29005KT 4SM HZ OVC036 14/07 A3006 RMK SLP175 DENSITY ALT 3500FT,CYET,2023-05-20T06:00:00Z,53.57,-116.47,14.0,7.0,290,5,,4.0,30.059055,1017.5,,TRUE,,,,,,,HZ,OVC,3600,,,,,,,MVFR,,,,,,,,,,,,METAR,925.0
CYER 200600Z AUTO 25012G19KT 4SM HZ FEW091 BKN240 15/05 A2953 RMK SLP004 DENSITY ALT 500FT,CYER,2023-05-20T06:00:00Z,56.02,-87.68,15.0,5.0,250,12,19,4.0,29.530512,1000.4,,TRUE,,,,,,,HZ,FEW,9100,BKN,24000,,,,,MVFR,,,,,,,,,,,,METAR,11.0
CYEN 200600Z AUTO 18007KT 9SM CLR 09/05 A3012 RMK SLP214,CYEN,2023-05-20T06:00:00Z,49.22,-102.97,9.0,5.0,180,7,,9.0,30.121063,1021.4,,TRUE,,,,,,,,CLR,,,,,,,,VFR,,,,,,,,,,,,METAR,580.0
CYEK 200600Z AUTO 33029G36KT 9SM OVC014 01/M00 A2976 RMK SLP079,CYEK,2023-05-20T06:00:00Z,61.1,-94.07,1.0,0.0,330,29,36,9.0,29.760826,1007.9,,TRUE,,,,,,,,OVC,1400,,,,,,,MVFR,,,,,,,,,,,,METAR,7.0
CYEG 200600Z 22003KT 2 1/2SM FU VV024 11/08 A3001 RMK FU8 SLP167,CYEG,2023-05-20T06:00:00Z,53.3,-113.58,11.0,8.0,220,3,,2.5,30.008858,1016.7,,,,,,,,,FU,OVX,0,,,,,,,LIFR,,,,,,,,,,,2400,SPECI,710.0
CYDQ 200600Z AUTO 28003KT 1 1/2SM HZ CLR 11/05 A3009 RMK SLP197,CYDQ,2023-05-20T06:00:00Z,55.75,-120.18,11.0,5.0,280,3,,1.5,30.088583,1019.7,,TRUE,,,,,,,HZ,CLR,,,,,,,,IFR,,,,,,,,,,,,SPECI,658.0
CYDN 200600Z AUTO 24014G19KT 9SM CLR 16/00 A3002 RMK SLP172 DENSITY ALT 1300FT,CYDN,2023-05-20T06:00:00Z,51.1,-100.05,16.0,0.0,240,14,19,9.0,30.02067,1017.2,,TRUE,,,,,,,,CLR,,,,,,,,VFR,,,,,,,,,,,,METAR,302.0
CYDL 200600Z AUTO 25010G16KT 9SM OVC066 14/03 A3011 RMK SLP195 DENSITY ALT 3000FT,CYDL,2023-05-20T06:00:00Z,58.42,-130.02,14.0,3.0,250,10,16,9.0,30.109253,1019.5,,TRUE,,,,,,,,OVC,6600,,,,,,,VFR,,,,,,,,,,,,METAR,804.0
CYDF 200600Z 19006KT 15SM FEW220 06/01 A3017 RMK CI2 SLP220,CYDF,2023-05-20T06:00:00Z,49.22,-57.4,6.0,1.0,190,6,,15.0,30.171259,1022.0,,,,,,,,,,FEW,22000,,,,,,,VFR,,,,,,,,,,,,METAR,15.0
CYDB 200600Z AUTO 12012G20KT 9SM CLR 12/02 A2992 RMK SLP155 DENSITY ALT 2900FT,CYDB,2023-05-20T06:00:00Z,61.37,-139.02,12.0,2.0,120,12,20,9.0,29.920275,1015.5,,TRUE,,,,,,,,CLR,,,,,,,,VFR,,,,,,,,,,,,METAR,807.0
CYCY 200600Z AUTO 31010KT 9SM OVC043 M10/M11 A2937 RMK SLP950,CYCY,2023-05-20T06:00:00Z,70.48,-68.52,-10.0,-11.0,310,10,,9.0,29.371063,995.0,,TRUE,,,,,,,,OVC,4300,,,,,,,VFR,,,,,,,,,,,,METAR,73.0
CYCO 200600Z 08004KT 15SM FEW025 BKN048 M02/M04 A3023 RMK SC1SC5 SLP241,CYCO,2023-05-20T06:00:00Z,67.82,-115.15,-2.0,-4.0,80,4,,15.0,30.230314,1024.1,,,,,,,,,,FEW,2500,BKN,4800,,,,,VFR,,,,,,,,,,,,METAR,20.0
CYCA 200600Z AUTO 20003KT 9SM BKN086 BKN100 OVC120 04/00 A2984 RMK SLP107,CYCA,2023-05-20T06:00:00Z,53.68,-57.03,4.0,0.0,200,3,,9.0,29.840551,1010.7,,TRUE,,,,,,,,BKN,8600,BKN,10000,OVC,12000,,,VFR,,,,,,,,,,,,METAR,12.0
CYBX 200600Z 26004KT 15SM SCT090 BKN110 BKN130 03/01 A3002 RMK AC3AC2AC1 SLP170,CYBX,2023-05-20T06:00:00Z,51.45,-57.18,3.0,1.0,260,4,,15.0,30.02067,1017.0,,,,,,,,,,SCT,9000,BKN,11000,BKN,13000,,,VFR,,,,,,,,,,,,METAR,32.0
CYBU 200600Z AUTO 17006KT 9SM CLR 12/M00 A2990 RMK SLP132,CYBU,2023-05-20T06:00:00Z,53.32,-104.0,12.0,0.0,170,6,,9.0,29.899607,1013.2,,TRUE,,,,,,,,CLR,,,,,,,,VFR,,,,,,,,,,,,METAR,369.0
CYBR 200600Z 24009KT 15SM SKC 08/01 A3013 RMK SLP213,CYBR,2023-05-20T06:00:00Z,49.92,-99.95,8.0,1.0,240,9,,15.0,30.129921,1021.3,,,,,,,,,,SKC,,,,,,,,VFR,,,,,,,,,,,,METAR,405.0
CYBK 200600Z 35021G27KT 15SM -SN DRSN BKN028 BKN140 M05/M09 A2997 RMK SC5AC2 SLP154,CYBK,2023-05-20T06:00:00Z,64.3,-96.07,-5.0,-9.0,350,21,27,15.0,29.970472,1015.4,,,,,,,,,-SN DRSN,BKN,2800,BKN,14000,,,,,MVFR,,,,,,,,,,,,METAR,14.0
CYBG 200600Z 25006KT 25SM SCT065 OVC130 12/05 A3004 RMK SC4AC4 DENSITY ALT 298FT SLP174,CYBG,2023-05-20T06:00:00Z,48.33,-70.98,12.0,5.0,250,6,,25.0,30.041338,1017.4,,,,,,,,,,SCT,6500,OVC,13000,,,,,VFR,,,,,,,,,,,,SPECI,151.0
CYBC 200600Z AUTO 16002KT 9SM -RA OVC096 08/06 A3002 RMK SLP170,CYBC,2023-05-20T06:00:00Z,49.13,-68.2,8.0,6.0,160,2,,9.0,30.02067,1017.0,,TRUE,,,,,,,-RA,OVC,9600,,,,,,,VFR,,,,,,,,,,,,METAR,20.0
CYAY 200600Z AUTO 22022G33KT 9SM FEW091 BKN110 OVC130 09/00 A3003 RMK SLP172,CYAY,2023-05-20T06:00:00Z,51.38,-56.07,9.0,0.0,220,22,33,9.0,30.029528,1017.2,,TRUE,,,,,,,,FEW,9100,BKN,11000,OVC,13000,,,VFR,,,,,,,,,,,,METAR,23.0
CYAT 200600Z AUTO 18007KT 9SM OVC096 06/03 A2991 RMK SLP129,CYAT,2023-05-20T06:00:00Z,52.93,-82.43,6.0,3.0,180,7,,9.0,29.911417,1012.9,,TRUE,,,,,,,,OVC,9600,,,,,,,VFR,,,,,,,,,,,,METAR,4.0
CYAM 200600Z 29008KT 6SM BR SCT021 BKN032 OVC037 06/06 A2998 RMK SC4SC1SC3 SLP161,CYAM,2023-05-20T06:00:00Z,46.48,-84.52,6.0,6.0,290,8,,6.0,29.97933,1016.1,,,,,,,,,BR,SCT,2100,BKN,3200,OVC,3700,,,VFR,,,,,,,,,,,,METAR,186.0
CYAH 200600Z AUTO 20004KT 9SM CLR 00/M01 A2994 RMK SLP158,CYAH,2023-05-20T06:00:00Z,53.75,-73.67,0.0,-1.0,200,4,,9.0,29.940945,1015.8,,TRUE,,,,,,,,CLR,,,,,,,,VFR,,,,,,,,,,,,METAR,298.0
CXZV 200600Z AUTO 15004KT 05/03 RMK AO1 SLP145 T00530032 58002,CXZV,2023-05-20T06:00:00Z,50.22,-66.25,5.3,3.2,150,4,,,,1014.5,,TRUE,TRUE,,,,,,,,,,,,,,,,-0.2,,,,,,,,,,,METAR,43.0
CXZC 200600Z AUTO 15003KT 02/02 RMK AO1 SLP178 T00200019 58012,CXZC,2023-05-20T06:00:00Z,51.3,-80.62,2.0,1.9,150,3,,,,1017.8,,TRUE,TRUE,,,,,,,,,,,,,,,,-1.2,,,,,,,,,,,METAR,8.0
CXYH 200600Z AUTO 19004KT 12/M00 RMK AO1 SLP188 T01221001 55002,CXYH,2023-05-20T06:00:00Z,61.25,-123.75,12.2,-0.1,190,4,,,,1018.8,,TRUE,TRUE,,,,,,,,,,,,,,,,-0.2,,,,,,,,,,,METAR,197.0
CXWN 200600Z AUTO 21004KT 15/01 RMK AO1 SLP209 T01450014 58005,CXWN,2023-05-20T06:00:00Z,49.88,-97.13,14.5,1.4,210,4,,,,1020.9,,TRUE,TRUE,,,,,,,,,,,,,,,,-0.5,,,,,,,,,,,METAR,232.0
CXWM 200600Z AUTO 28012KT 18/07 RMK AO1 PK WND 25017/0543 T01800066,CXWM,2023-05-20T06:00:00Z,49.5,-112.12,18.0,6.6,280,12,,,,,,TRUE,TRUE,,,,,,,,,,,,,,,,,,,,,,,,,,,METAR,947.0
CXVW 200600Z AUTO 27006KT 14/06 RMK AO1 SLP170 T01410055 51015,CXVW,2023-05-20T06:00:00Z,55.1,-117.2,14.1,5.5,270,6,,,,1017.0,,TRUE,TRUE,,,,,,,,,,,,,,,,1.5,,,,,,,,,,,METAR,696.0
CXVN 200600Z AUTO 30007KT 14/12 RMK AO1 PK WND 19019/0520 SLP132 T01420124 55006,CXVN,2023-05-20T06:00:00Z,43.18,-79.4,14.2,12.4,300,7,,,,1013.2,,TRUE,TRUE,,,,,,,,,,,,,,,,-0.6,,,,,,,,,,,METAR,86.0
CXVM 200600Z AUTO 30005KT 15/08 RMK AO1 T01480075,CXVM,2023-05-20T06:00:00Z,53.35,-110.88,14.8,7.5,300,5,,,,,,TRUE,TRUE,,,,,,,,,,,,,,,,,,,,,,,,,,,METAR,622.0
CXTP 200600Z AUTO 22007KT 04/M01 RMK AO1 PK WND 21021/0500 SLP265 T00411009 56010,CXTP,2023-05-20T06:00:00Z,48.55,-53.97,4.1,-0.9,220,7,,,,1026.5,,TRUE,TRUE,,,,,,,,,,,,,,,,-1.0,,,,,,,,,,,METAR,104.0
CXTO 200600Z AUTO 16/14 RMK AO1 1PAST HR 6013 SLP131 P0020 T01560135 50090,CXTO,2023-05-20T06:00:00Z,43.67,-79.4,15.6,13.5,,,,,,1013.1,,TRUE,TRUE,,,,,,,,,,,,,,,,9.0,,,,,0.2,,,,,,METAR,115.0
CXTN 200600Z AUTO 23006KT M04/M05 RMK AO1 SOG 03 8011 SLP218 T10391048,CXTN,2023-05-20T06:00:00Z,69.2,-122.35,-3.9,-4.8,230,6,,,,1021.8,,TRUE,TRUE,,,,,,,,,,,,,,,,,,,,,,,,,,,METAR,564.0
CXTH 200600Z AUTO 32008KT 14/07 RMK AO1 T01400071,CXTH,2023-05-20T06:00:00Z,53.63,-111.68,14.0,7.1,320,8,,,,,,TRUE,TRUE,,,,,,,,,,,,,,,,,,,,,,,,,,,METAR,679.0
CXTD 200600Z AUTO 20015G21KT 06/04 RMK AO1 PK WND 19024/0505 SLP281 T00550040 58008,CXTD,2023-05-20T06:00:00Z,45.62,-61.68,5.5,4.0,200,15,21,,,1028.1,,TRUE,TRUE,,,,,,,,,,,,,,,,-0.8,,,,,,,,,,,METAR,58.0
CXSP 200600Z AUTO 31006KT 14/08 RMK AO1 T01390081,CXSP,2023-05-20T06:00:00Z,54.02,-111.27,13.9,8.1,310,6,,,,,,TRUE,TRUE,,,,,,,,,,,,,,,,,,,,,,,,,,,METAR,652.0
CXSL 200600Z AUTO 35006KT 14/07 RMK AO1 T01410071,CXSL,2023-05-20T06:00:00Z,54.28,-112.5,14.1,7.1,350,6,,,,,,TRUE,TRUE,,,,,,,,,,,,,,,,,,,,,,,,,,,METAR,680.0
CXSH 200600Z AUTO 20005KT 16/10 RMK AO1 SLP168 T01580103 51004,CXSH,2023-05-20T06:00:00Z,46.55,-72.73,15.8,10.3,200,5,,,,1016.8,,TRUE,TRUE,,,,,,,,,,,,,,,,0.4,,,,,,,,,,,METAR,106.0
CXSE 200600Z AUTO 30014KT M11/M14 RMK AO1 SOG 21 8003 PK WND 29018/0518 SLP141 T11141139,CXSE,2023-05-20T06:00:00Z,73.77,-105.28,-11.4,-13.9,300,14,,,,1014.1,,TRUE,TRUE,,,,,,,,,,,,,,,,,,,,,,,,,,,METAR,11.0
CXSC 200600Z AUTO 29022KT 18/10 RMK AO1 7PAST HR M PK WND 29035/0558 P0003 T01780102 50007,CXSC,2023-05-20T06:00:00Z,50.3,-110.08,17.8,10.2,290,22,,,,,,TRUE,TRUE,,,,,,,,,,,,,,,,0.7,,,,,0.03,,,,,,METAR,809.0
CXRL 200600Z AUTO 31004KT 13/07 RMK AO1 T01290067,CXRL,2023-05-20T06:00:00Z,54.5,-111.7,12.9,6.7,310,4,,,,,,TRUE,TRUE,,,,,,,,,,,,,,,,,,,,,,,,,,,METAR,585.0
CXRH 200600Z AUTO 22011G18KT 10/M01 RMK AO1 PK WND 22033/0501 SLP207 T01001010 58006,CXRH,2023-05-20T06:00:00Z,49.57,-57.88,10.0,-1.0,220,11,18,,,1020.7,,TRUE,TRUE,,,,,,,,,,,,,,,,-0.6,,,,,,,,,,,METAR,68.0
CXRB 200600Z AUTO 33021KT M12/M14 RMK AO1 PK WND 32025/0516 SLP066 T11221144 53002,CXRB,2023-05-20T06:00:00Z,74.72,-94.98,-12.2,-14.4,330,21,,,,1006.6,,TRUE,TRUE,,,,,,,,,,,,,,,,0.2,,,,,,,,,,,METAR,30.0
CXPL 200600Z AUTO 04006KT 17/12 RMK AO1 T01680118,CXPL,2023-05-20T06:00:00Z,51.13,-111.7,16.8,11.8,40,6,,,,,,TRUE,TRUE,,,,,,,,,,,,,,,,,,,,,,,,,,,METAR,735.0
CXPC 200600Z AUTO 13/12 RMK AO1 7PAST HR 5016 SLP132 P0003 T01250117 50069,CXPC,2023-05-20T06:00:00Z,45.35,-80.05,12.5,11.7,,,,,,1013.2,,TRUE,TRUE,,,,,,,,,,,,,,,,6.9,,,,,0.03,,,,,,METAR,176.0
CXPA 200600Z AUTO 30007KT 11/05 RMK AO1 T01130048,CXPA,2023-05-20T06:00:00Z,55.62,-118.3,11.3,4.8,300,7,,,,,,TRUE,TRUE,,,,,,,,,,,,,,,,,,,,,,,,,,,METAR,628.0
CXOY 200600Z AUTO 24009KT 20/08 RMK AO1 PK WND 29023/0541 T01970077,CXOY,2023-05-20T06:00:00Z,51.35,-110.35,19.7,7.7,240,9,,,,,,TRUE,TRUE,,,,,,,,,,,,,,,,,,,,,,,,,,,METAR,784.0
CXOX 200600Z AUTO 05002KT 10/02 RMK AO1 SLP130 T00980015 53005,CXOX,2023-05-20T06:00:00Z,55.15,-105.27,9.8,1.5,50,2,,,,1013.0,,TRUE,TRUE,,,,,,,,,,,,,,,,0.5,,,,,,,,,,,METAR,381.0
CXOL 200600Z AUTO 26007KT 12/08 RMK AO1 T01160078 50004,CXOL,2023-05-20T06:00:00Z,51.77,-114.08,11.6,7.8,260,7,,,,,,TRUE,TRUE,,,,,,,,,,,,,,,,0.4,,,,,,,,,,,METAR,1026.0
CXNP 200600Z AUTO 19009KT 08/02 RMK AO1 PK WND 19023/0500 SLP243 T00790024 55005,CXNP,2023-05-20T06:00:00Z,45.75,-64.23,7.9,2.4,190,9,,,,1024.3,,TRUE,TRUE,,,,,,,,,,,,,,,,-0.5,,,,,,,,,,,METAR,19.0
CXNM 200600Z AUTO 24020G29KT 06/M03 RMK AO1 PK WND 24034/0547 T00601025,CXNM,2023-05-20T06:00:00Z,46.82,-60.67,6.0,-2.5,240,20,29,,,,,TRUE,TRUE,,,,,,,,,,,,,,,,,,,,,,,,,,,METAR,452.0
CXMY 200600Z AUTO 06/05 RMK AO1 T00570048,CXMY,2023-05-20T06:00:00Z,44.98,-62.48,5.7,4.8,,,,,,,,TRUE,TRUE,,,,,,,,,,,,,,,,,,,,,,,,,,,METAR,37.0
CXMO 200600Z AUTO 30003KT 14/10 RMK AO1 T01390099,CXMO,2023-05-20T06:00:00Z,51.67,-112.68,13.9,9.9,300,3,,,,,,TRUE,TRUE,,,,,,,,,,,,,,,,,,,,,,,,,,,METAR,837.0
CXMM 200600Z AUTO 03007KT 14/04 RMK AO1 SLP172 T01390043 51023,CXMM,2023-05-20T06:00:00Z,56.65,-111.22,13.9,4.3,30,7,,,,1017.2,,TRUE,TRUE,,,,,,,,,,,,,,,,2.3,,,,,,,,,,,METAR,372.0
CXMG 200600Z AUTO 35005KT 09/03 RMK AO1 T00930034,CXMG,2023-05-20T06:00:00Z,56.97,-117.45,9.3,3.4,350,5,,,,,,TRUE,TRUE,,,,,,,,,,,,,,,,,,,,,,,,,,,METAR,467.0
CXMD 200600Z AUTO 23005KT 12/02 RMK AO1 SLP220 T01230017 58006,CXMD,2023-05-20T06:00:00Z,49.18,-98.08,12.3,1.7,230,5,,,,1022.0,,TRUE,TRUE,,,,,,,,,,,,,,,,-0.6,,,,,,,,,,,METAR,297.0
CXLL 200600Z AUTO 06/02 RMK AO1 SLP217 T00570024 56004,CXLL,2023-05-20T06:00:00Z,61.12,-122.85,5.7,2.4,,,,,,1021.7,,TRUE,TRUE,,,,,,,,,,,,,,,,-0.4,,,,,,,,,,,METAR,180.0
CXLB 200600Z AUTO 20009KT 07/06 RMK AO1 SLP275 T00650059 58012,CXLB,2023-05-20T06:00:00Z,44.37,-64.3,6.5,5.9,200,9,,,,1027.5,,TRUE,TRUE,,,,,,,,,,,,,,,,-1.2,,,,,,,,,,,METAR,4.0
CXKT 200600Z AUTO 21008KT 08/04 RMK AO1 SLP261 T00770038 58008,CXKT,2023-05-20T06:00:00Z,45.07,-64.48,7.7,3.8,210,8,,,,1026.1,,TRUE,TRUE,,,,,,,,,,,,,,,,-0.8,,,,,,,,,,,METAR,48.0
CXKM 200600Z AUTO 29007KT 12/09 RMK AO1 T01210088,CXKM,2023-05-20T06:00:00Z,52.83,-111.87,12.1,8.8,290,7,,,,,,TRUE,TRUE,,,,,,,,,,,,,,,,,,,,,,,,,,,METAR,679.0
CXKI 200600Z AUTO 04002KT 08/07 RMK AO1 SLP162 T00830069 58003,CXKI,2023-05-20T06:00:00Z,48.13,-80.0,8.3,6.9,40,2,,,,1016.2,,TRUE,TRUE,,,,,,,,,,,,,,,,-0.3,,,,,,,,,,,METAR,328.0
CXKE 200600Z AUTO 16001KT 13/11 RMK AO1 SLP160 T01340110 58006,CXKE,2023-05-20T06:00:00Z,45.0,-75.63,13.4,11.0,160,1,,,,1016.0,,TRUE,TRUE,,,,,,,,,,,,,,,,-0.6,,,,,,,,,,,METAR,99.0
CXKA 200600Z AUTO 00000KT 02/02 RMK AO1 SLP192 T00190018 50003,CXKA,2023-05-20T06:00:00Z,49.4,-82.45,1.9,1.8,0,0,,,,1019.2,,TRUE,TRUE,,,,,,,,,,,,,,,,0.3,,,,,,,,,,,METAR,221.0
CXIB 200600Z AUTO 22004KT 08/M03 RMK AO1 SLP240 T00781032 58007,CXIB,2023-05-20T06:00:00Z,46.67,-60.4,7.8,-3.2,220,4,,,,1024.0,,TRUE,TRUE,,,,,,,,,,,,,,,,-0.7,,,,,,,,,,,METAR,6.0
CXHR 200600Z AUTO 24002KT 15/09 RMK AO1 T01540087 50031,CXHR,2023-05-20T06:00:00Z,51.18,-112.5,15.4,8.7,240,2,,,,,,TRUE,TRUE,,,,,,,,,,,,,,,,3.1,,,,,,,,,,,METAR,975.0
CXHP 200600Z AUTO 06003KT 13/07 RMK AO1 T01250066 50004,CXHP,2023-05-20T06:00:00Z,55.4,-116.48,12.5,6.6,60,3,,,,,,TRUE,TRUE,,,,,,,,,,,,,,,,0.4,,,,,,,,,,,METAR,601.0
CXHM 200600Z AUTO 12004KT 15/14 RMK AO1 5PAST HR 6007 SLP128 P0002 T01490136 50029,CXHM,2023-05-20T06:00:00Z,43.28,-79.9,14.9,13.6,120,4,,,,1012.8,,TRUE,TRUE,,,,,,,,,,,,,,,,2.9,,,,,0.02,,,,,,METAR,105.0
CXHD 200600Z AUTO 31007KT 12/07 RMK AO1 T01160071,CXHD,2023-05-20T06:00:00Z,53.18,-112.25,11.6,7.1,310,7,,,,,,TRUE,TRUE,,,,,,,,,,,,,,,,,,,,,,,,,,,METAR,688.0
CXHA 200600Z AUTO 29004KT 15/14 RMK AO1 7PAST HR 8002 SLP138 P0003 T01450136 50095,CXHA,2023-05-20T06:00:00Z,42.03,-82.9,14.5,13.6,290,4,,,,1013.8,,TRUE,TRUE,,,,,,,,,,,,,,,,9.5,,,,,0.03,,,,,,METAR,193.0
CXGH 200600Z AUTO 23005KT 14/02 RMK AO1 SLP199 T01380021 58005,CXGH,2023-05-20T06:00:00Z,50.63,-97.0,13.8,2.1,230,5,,,,1019.9,,TRUE,TRUE,,,,,,,,,,,,,,,,-0.5,,,,,,,,,,,METAR,217.0
CXFR 200600Z AUTO 33003KT 12/05 RMK AO1 T01180049,CXFR,2023-05-20T06:00:00Z,56.08,-118.43,11.8,4.9,330,3,,,,,,TRUE,TRUE,,,,,,,,,,,,,,,,,,,,,,,,,,,METAR,657.0
CXFM 200600Z AUTO 23009KT 18/08 RMK AO1 T01780079,CXFM,2023-05-20T06:00:00Z,49.48,-111.48,17.8,7.9,230,9,,,,,,TRUE,TRUE,,,,,,,,,,,,,,,,,,,,,,,,,,,METAR,884.0
CXET 200600Z AUTO 13003KT 14/14 RMK AO1 2PAST HR 6019 SLP129 P0009 T01410135 50074,CXET,2023-05-20T06:00:00Z,44.23,-79.78,14.1,13.5,130,3,,,,1012.9,,TRUE,TRUE,,,,,,,,,,,,,,,,7.4,,,,,0.09,,,,,,METAR,250.0
CXEG 200600Z AUTO 21003KT 10/07 RMK AO1 SLP164 T01010068 51014,CXEG,2023-05-20T06:00:00Z,53.3,-113.6,10.1,6.8,210,3,,,,1016.4,,TRUE,TRUE,,,,,,,,,,,,,,,,1.4,,,,,,,,,,,METAR,706.0
CXEC 200600Z AUTO 33002KT 17/06 RMK AO1 SLP159 T01740062 51018,CXEC,2023-05-20T06:00:00Z,53.57,-113.52,17.4,6.2,330,2,,,,1015.9,,TRUE,TRUE,,,,,,,,,,,,,,,,1.8,,,,,,,,,,,METAR,666.0
CXEA 200600Z AUTO 22001KT 07/05 RMK AO1 SLP190 T00710047 58003,CXEA,2023-05-20T06:00:00Z,50.63,-93.22,7.1,4.7,220,1,,,,1019.0,,TRUE,TRUE,,,,,,,,,,,,,,,,-0.3,,,,,,,,,,,METAR,351.0
CXDW 200600Z AUTO 23012KT 12/01 RMK AO1 SLP216 T01150013 58006,CXDW,2023-05-20T06:00:00Z,49.4,-98.32,11.5,1.3,230,12,,,,1021.6,,TRUE,TRUE,,,,,,,,,,,,,,,,-0.6,,,,,,,,,,,METAR,341.0
CXDK 200600Z AUTO 11/04 RMK AO1 SLP195 T01080037 55000,CXDK,2023-05-20T06:00:00Z,61.27,-124.47,10.8,3.7,,,,,,1019.5,,TRUE,TRUE,,,,,,,,,,,,,,,,0.0,,,,,,,,,,,METAR,269.0
CXDI 200600Z AUTO 30002KT 16/15 RMK AO1 3PAST HR 8004 SLP122 P0001 T01580148 50020,CXDI,2023-05-20T06:00:00Z,42.87,-80.55,15.8,14.8,300,2,,,,1012.2,,TRUE,TRUE,,,,,,,,,,,,,,,,2.0,,,,,0.01,,,,,,METAR,234.0
CXDE 200600Z AUTO 10007KT 01/M04 RMK AO1 SLP223 T00101041 58010,CXDE,2023-05-20T06:00:00Z,65.22,-123.43,1.0,-4.1,100,7,,,,1022.3,,TRUE,TRUE,,,,,,,,,,,,,,,,-1.0,,,,,,,,,,,METAR,208.0
CXDB 200600Z AUTO 26011KT 14/06 RMK AO1 T01440060,CXDB,2023-05-20T06:00:00Z,49.05,-112.82,14.4,6.0,260,11,,,,,,TRUE,TRUE,,,,,,,,,,,,,,,,,,,,,,,,,,,METAR,1311.0
CXCS 200600Z AUTO 27011KT 16/07 RMK AO1 T01610066,CXCS,2023-05-20T06:00:00Z,51.93,-110.72,16.1,6.6,270,11,,,,,,TRUE,TRUE,,,,,,,,,,,,,,,,,,,,,,,,,,,METAR,771.0
CXCP 200600Z AUTO 02009KT 17/07 RMK AO1 PK WND 03022/0502 T01680066,CXCP,2023-05-20T06:00:00Z,50.28,-113.35,16.8,6.6,20,9,,,,,,TRUE,TRUE,,,,,,,,,,,,,,,,,,,,,,,,,,,METAR,999.0
CXCK 200600Z AUTO 13006KT 16/03 RMK AO1 SLP138 T01550032 53013,CXCK,2023-05-20T06:00:00Z,62.12,-136.2,15.5,3.2,130,6,,,,1013.8,,TRUE,TRUE,,,,,,,,,,,,,,,,1.3,,,,,,,,,,,METAR,526.0
CXCD 200600Z AUTO 28001KT 10/06 RMK AO1 T01040058,CXCD,2023-05-20T06:00:00Z,56.32,-119.75,10.4,5.8,280,1,,,,,,TRUE,TRUE,,,,,,,,,,,,,,,,,,,,,,,,,,,METAR,628.0
CXCA 200600Z AUTO 01002KT 03/02 RMK AO1 SLP201 T00290020 51003,CXCA,2023-05-20T06:00:00Z,49.15,-88.35,2.9,2.0,10,2,,,,1020.1,,TRUE,TRUE,,,,,,,,,,,,,,,,0.3,,,,,,,,,,,METAR,228.0
CXBW 200600Z AUTO 05006KT 17/07 RMK AO1 T01700070,CXBW,2023-05-20T06:00:00Z,49.8,-112.3,17.0,7.0,50,6,,,,,,TRUE,TRUE,,,,,,,,,,,,,,,,,,,,,,,,,,,METAR,823.0
CXBR 200600Z AUTO 32008KT RMK AO1,CXBR,2023-05-20T06:00:00Z,49.62,-113.82,,,320,8,,,,,,TRUE,TRUE,,,,,,,,,,,,,,,,,,,,,,,,,,,METAR,1137.0
CXBO 200600Z AUTO 29004KT 18/11 RMK AO1 T01820107,CXBO,2023-05-20T06:00:00Z,46.83,-71.2,18.2,10.7,290,4,,,,,,TRUE,TRUE,,,,,,,,,,,,,,,,,,,,,,,,,,,METAR,8.0
CXBK 200600Z AUTO 17011KT 10/01 RMK AO1 SLP179 T00990007 58011,CXBK,2023-05-20T06:00:00Z,50.2,-104.7,9.9,0.7,170,11,,,,1017.9,,TRUE,TRUE,,,,,,,,,,,,,,,,-1.1,,,,,,,,,,,METAR,585.0
CXBI 200600Z AUTO 10005KT 14/13 RMK AO1 6PAST HR 8021 SLP135 P0010 T01370134 50112,CXBI,2023-05-20T06:00:00Z,44.48,-79.55,13.7,13.4,100,5,,,,1013.5,,TRUE,TRUE,,,,,,,,,,,,,,,,0.0,,,,,0.1,,,,,,METAR,287.0
CXBA 200600Z AUTO 25006KT 15/08 RMK AO1 T01490078,CXBA,2023-05-20T06:00:00Z,52.12,-110.1,14.9,7.8,250,6,,,,,,TRUE,TRUE,,,,,,,,,,,,,,,,,,,,,,,,,,,METAR,696.0
CXAT 200600Z AUTO 34015KT M12/M16 RMK AO1 SOG 06 5000 PK WND 33018/0558 SLP002 T11241159,CXAT,2023-05-20T06:00:00Z,73.0,-85.03,-12.4,-15.9,340,15,,,,1000.2,,TRUE,TRUE,,,,,,,,,,,,,,,,,,,,,,,,,,,METAR,10.0
CXAK 200600Z AUTO 25006KT 13/12 RMK AO1 T01320116,CXAK,2023-05-20T06:00:00Z,52.35,-112.6,13.2,11.6,250,6,,,,,,TRUE,TRUE,,,,,,,,,,,,,,,,,,,,,,,,,,,METAR,799.0
CXAJ 200600Z AUTO 01004KT 14/07 RMK AO1 T01350074,CXAJ,2023-05-20T06:00:00Z,54.78,-112.82,13.5,7.4,10,4,,,,,,TRUE,TRUE,,,,,,,,,,,,,,,,,,,,,,,,,,,METAR,586.0
CXAG 200600Z AUTO 33006KT 16/07 RMK AO1 T01570069,CXAG,2023-05-20T06:00:00Z,53.92,-112.28,15.7,6.9,330,6,,,,,,TRUE,TRUE,,,,,,,,,,,,,,,,,,,,,,,,,,,METAR,632.0
CXAF 200600Z AUTO 32004KT 12/08 RMK AO1 T01220080,CXAF,2023-05-20T06:00:00Z,54.28,-112.97,12.2,8.0,320,4,,,,,,TRUE,TRUE,,,,,,,,,,,,,,,,,,,,,,,,,,,METAR,667.0
CWZZ 200600Z AUTO 29020G25KT ////SM ////// ///// A2953,CWZZ,2023-05-20T06:00:00Z,58.47,-62.65,,,290,20,25,,29.530512,,,TRUE,,,,,,,,,,,,,,,,,,,,,,,,,,,,METAR,50.0
CWZW 200600Z AUTO 28004KT 12/03 RMK AO1 SLP206 T01240031 51015,CWZW,2023-05-20T06:00:00Z,60.17,-132.73,12.4,3.1,280,4,,,,1020.6,,TRUE,TRUE,,,,,,,,,,,,,,,,1.5,,,,,,,,,,,METAR,683.0
CWZQ 200600Z AUTO 18012G17KT 08/M01 RMK AO1 PK WND 19021/0531 SLP260 T00771009 58003,CWZQ,2023-05-20T06:00:00Z,46.53,-61.05,7.7,-0.9,180,12,17,,,1026.0,,TRUE,TRUE,,,,,,,,,,,,,,,,-0.3,,,,,,,,,,,METAR,13.0
CWZO 200600Z AUTO 16010KT RMK AO1,CWZO,2023-05-20T06:00:00Z,48.57,-123.25,,,160,10,,,,,,TRUE,TRUE,,,,,,,,,,,,,,,,,,,,,,,,,,,METAR,5.0
CWZN 200600Z AUTO 20024KT 04/02 RMK AO1 PK WND 20029/0503 SLP280 T00400015 56008,CWZN,2023-05-20T06:00:00Z,47.37,-55.8,4.0,1.5,200,24,,,,1028.0,,TRUE,TRUE,,,,,,,,,,,,,,,,-0.8,,,,,,,,,,,METAR,63.0
CWZL 200600Z AUTO 36006KT 10/09 RMK AO1 SLP232 T01040094 53009,CWZL,2023-05-20T06:00:00Z,53.03,-131.6,10.4,9.4,360,6,,,,1023.2,,TRUE,TRUE,,,,,,,,,,,,,,,,0.9,,,,,,,,,,,METAR,17.0
CWZG 200600Z AUTO 00000KT 11/01 RMK AO1 SLP191 T01100009 51016,CWZG,2023-05-20T06:00:00Z,51.2,-115.55,11.0,0.9,0,0,,,,1019.1,,TRUE,TRUE,,,,,,,,,,,,,,,,1.6,,,,,,,,,,,METAR,1402.0
CWZA 200600Z AUTO 09002KT 20/13 RMK AO1 SLP177 T01970130 51017,CWZA,2023-05-20T06:00:00Z,49.25,-121.77,19.7,13.0,90,2,,,,1017.7,,TRUE,TRUE,,,,,,,,,,,,,,,,1.7,,,,,,,,,,,METAR,18.0
CWYY 200600Z AUTO 06001KT 20/15 RMK AO1 SLP148 T02040151 51019,CWYY,2023-05-20T06:00:00Z,49.03,-119.43,20.4,15.1,60,1,,,,1014.8,,TRUE,TRUE,,,,,,,,,,,,,,,,1.9,,,,,,,,,,,METAR,284.0
CWYL 200600Z AUTO 07002KT 10/02 RMK AO1 SLP202 T01000015 51009,CWYL,2023-05-20T06:00:00Z,51.45,-116.33,10.0,1.5,70,2,,,,1020.2,,TRUE,TRUE,,,,,,,,,,,,,,,,0.9,,,,,,,,,,,METAR,1602.0
CWYJ 200600Z AUTO 25003KT 14/10 RMK AO1 SLP177 T01370097 51005,CWYJ,2023-05-20T06:00:00Z,48.45,-123.3,13.7,9.7,250,3,,,,1017.7,,TRUE,TRUE,,,,,,,,,,,,,,,,0.5,,,,,,,,,,,METAR,59.0
CWXL 200600Z AUTO 05009KT 19/07 RMK AO1 PK WND 33019/0522 SLP146 T01880073 53015,CWXL,2023-05-20T06:00:00Z,49.73,-111.45,18.8,7.3,50,9,,,,1014.6,,TRUE,TRUE,,,,,,,,,,,,,,,,1.5,,,,,,,,,,,METAR,815.0
CWXI 200600Z AUTO 21025G31KT 05/02 RMK AO1 PK WND 20032/0542 SLP155 T00510017 55000,CWXI,2023-05-20T06:00:00Z,51.02,-57.1,5.1,1.7,210,25,31,,,1015.5,,TRUE,TRUE,,,,,,,,,,,,,,,,0.0,,,,,,,,,,,METAR,15.0
CWXC 200600Z AUTO 13001KT 10/04 RMK AO1 SLP164 T00960036 50010,CWXC,2023-05-20T06:00:00Z,48.88,-71.03,9.6,3.6,130,1,,,,1016.4,,TRUE,TRUE,,,,,,,,,,,,,,,,1.0,,,,,,,,,,,METAR,306.0
CWXA 200600Z AUTO 00025KT 09/02 RMK AO1 SLP216 T00940022 51021,CWXA,2023-05-20T06:00:00Z,51.07,-115.07,9.4,2.2,0,25,,,,1021.6,,TRUE,TRUE,,,,,,,,,,,,,,,,2.1,,,,,,,,,,,METAR,1303.0
CWWZ 200600Z AUTO 26013G19KT 17/12 RMK AO1 PK WND 16021/0541 SLP129 T01660119 55012,CWWZ,2023-05-20T06:00:00Z,43.25,-79.22,16.6,11.9,260,13,19,,,1012.9,,TRUE,TRUE,,,,,,,,,,,,,,,,-1.2,,,,,,,,,,,METAR,75.0
CWWS 200600Z AUTO 22016KT 07/02 RMK AO1 PK WND 22018/0521 SLP150 T00700015 58011,CWWS,2023-05-20T06:00:00Z,52.82,-97.62,7.0,1.5,220,16,,,,1015.0,,TRUE,TRUE,,,,,,,,,,,,,,,,-1.1,,,,,,,,,,,METAR,220.0
CWWL 200600Z AUTO 04001KT 10/09 RMK AO1 SLP225 T01000087 51004,CWWL,2023-05-20T06:00:00Z,53.5,-130.63,10.0,8.7,40,1,,,,1022.5,,TRUE,TRUE,,,,,,,,,,,,,,,,0.4,,,,,,,,,,,METAR,8.0
CWWK 200600Z AUTO 00000KT 16/12 RMK AO1 SLP182 T01550119 51009,CWWK,2023-05-20T06:00:00Z,49.02,-122.78,15.5,11.9,0,0,,,,1018.2,,TRUE,TRUE,,,,,,,,,,,,,,,,0.9,,,,,,,,,,,METAR,10.0
CWWF 200600Z AUTO 18007KT 08/03 RMK AO1 SLP199 T00760029 58009,CWWF,2023-05-20T06:00:00Z,49.7,-103.8,7.6,2.9,180,7,,,,1019.9,,TRUE,TRUE,,,,,,,,,,,,,,,,-0.9,,,,,,,,,,,METAR,583.0
CWWE 200600Z AUTO 19005KT 05/05 RMK AO1 SLP278 T00540051 58011,CWWE,2023-05-20T06:00:00Z,43.98,-64.67,5.4,5.1,190,5,,,,1027.8,,TRUE,TRUE,,,,,,,,,,,,,,,,-1.1,,,,,,,,,,,METAR,4.0
CWWB 200600Z AUTO 02011KT 12/12 RMK AO1 SLP127 T01160116 57009,CWWB,2023-05-20T06:00:00Z,43.3,-79.78,11.6,11.6,20,11,,,,1012.7,,TRUE,TRUE,,,,,,,,,,,,,,,,-0.9,,,,,,,,,,,METAR,77.0
CWWA 200600Z AUTO 04001KT 17/13 RMK AO1 SLP180 T01700128 53010,CWWA,2023-05-20T06:00:00Z,49.35,-123.18,17.0,12.8,40,1,,,,1018.0,,TRUE,TRUE,,,,,,,,,,,,,,,,1.0,,,,,,,,,,,METAR,172.0
CWVU 200600Z AUTO 15013G19KT 08/06 RMK AO1 PK WND 16020/0527 SLP254 T00780064 58011,CWVU,2023-05-20T06:00:00Z,44.28,-66.33,7.8,6.4,150,13,19,,,1025.4,,TRUE,TRUE,,,,,,,,,,,,,,,,-1.1,,,,,,,,,,,METAR,4.0
CWVT 200600Z AUTO 33001KT 09/04 RMK AO1 SLP163 T00940044 51017,CWVT,2023-05-20T06:00:00Z,55.83,-108.42,9.4,4.4,330,1,,,,1016.3,,TRUE,TRUE,,,,,,,,,,,,,,,,1.7,,,,,,,,,,,METAR,431.0
CWVQ 200600Z AUTO 14003KT 16/11 RMK AO1 SLP167 T01640110 58001,CWVQ,2023-05-20T06:00:00Z,45.42,-73.92,16.4,11.0,140,3,,,,1016.7,,TRUE,TRUE,,,,,,,,,,,,,,,,-0.1,,,,,,,,,,,METAR,38.0
CWVP 200600Z AUTO 21005KT 15/03 RMK AO1 SLP167 T01460029 58001,CWVP,2023-05-20T06:00:00Z,49.63,-109.52,14.6,2.9,210,5,,,,1016.7,,TRUE,TRUE,,,,,,,,,,,,,,,,-0.1,,,,,,,,,,,METAR,1269.0
CWVN 200600Z AUTO 20006KT 13/04 RMK AO1 SLP176 T01290041 58004,CWVN,2023-05-20T06:00:00Z,49.07,-107.58,12.9,4.1,200,6,,,,1017.6,,TRUE,TRUE,,,,,,,,,,,,,,,,-0.4,,,,,,,,,,,METAR,792.0
CWVI 200600Z AUTO 33008KT 14/07 RMK AO1 SLP152 T01420068 51017,CWVI,2023-05-20T06:00:00Z,53.52,-112.1,14.2,6.8,330,8,,,,1015.2,,TRUE,TRUE,,,,,,,,,,,,,,,,1.7,,,,,,,,,,,METAR,640.0
CWVF 200600Z AUTO 13008KT 17/12 RMK AO1 T01680116,CWVF,2023-05-20T06:00:00Z,49.1,-123.3,16.8,11.6,130,8,,,,,,TRUE,TRUE,,,,,,,,,,,,,,,,,,,,,,,,,,,METAR,13.0
CWUX 200600Z AUTO 24005KT 13/05 RMK AO1 1028 SLP175 T01270049 50004,CWUX,2023-05-20T06:00:00Z,48.3,-70.93,12.7,4.9,240,5,,,,1017.5,,TRUE,TRUE,,,,,,,,,,,,,,,,0.4,,,,,,,,,,,METAR,150.0
CWUW 200600Z AUTO 17002KT 140V220 ////SM ////// M09/M09 A2926,CWUW,2023-05-20T06:00:00Z,68.62,-71.12,-9.0,-9.0,170,2,,,29.258858,,,TRUE,,,,,,,,,,,,,,,,,,,,,,,,,,,,METAR,173.0
CWUS 200600Z AUTO 25003KT 22/07 RMK AO1 SLP157 T02160073 52020,CWUS,2023-05-20T06:00:00Z,49.57,-119.65,21.6,7.3,250,3,,,,1015.7,,TRUE,TRUE,,,,,,,,,,,,,,,,2.0,,,,,,,,,,,METAR,455.0
CWTY 200600Z AUTO 22012KT 16/12 RMK AO1 PK WND 21017/0528 SLP171 T01560116 53005,CWTY,2023-05-20T06:00:00Z,46.35,-72.52,15.6,11.6,220,12,,,,1017.1,,TRUE,TRUE,,,,,,,,,,,,,,,,0.5,,,,,,,,,,,METAR,8.0
CWTT 200600Z AUTO 22004KT 13/11 RMK AO1 T01250110,CWTT,2023-05-20T06:00:00Z,45.27,-72.17,12.5,11.0,220,4,,,,,,TRUE,TRUE,,,,,,,,,,,,,,,,,,,,,,,,,,,METAR,210.0
CWTN 200600Z AUTO 28003KT 13/10 RMK AO1 SLP166 T01340098 53014,CWTN,2023-05-20T06:00:00Z,47.07,-70.78,13.4,9.8,280,3,,,,1016.6,,TRUE,TRUE,,,,,,,,,,,,,,,,1.4,,,,,,,,,,,METAR,5.0
CWTG 200600Z AUTO 02004KT 06/04 RMK AO1 4PAST HR 1028 SLP164 P0002 T00590035 50014,CWTG,2023-05-20T06:00:00Z,49.32,-67.37,5.9,3.5,20,4,,,,1016.4,,TRUE,TRUE,,,,,,,,,,,,,,,,1.4,,,,,0.02,,,,,,METAR,6.0
CWTA 200600Z AUTO 17003KT 17/10 RMK AO1 SLP170 T01680103 50000,CWTA,2023-05-20T06:00:00Z,45.5,-73.58,16.8,10.3,170,3,,,,1017.0,,TRUE,TRUE,,,,,,,,,,,,,,,,0.0,,,,,,,,,,,METAR,71.0
CWST 200600Z AUTO 26011G17KT 17/09 RMK AO1 PK WND 30023/0545 SLP165 T01670090 53018,CWST,2023-05-20T06:00:00Z,47.35,-70.02,16.7,9.0,260,11,17,,,1016.5,,TRUE,TRUE,,,,,,,,,,,,,,,,1.8,,,,,,,,,,,METAR,31.0
CWSS 200600Z AUTO 15003KT 08/07 RMK AO1 SLP235 T00790067 58010,CWSS,2023-05-20T06:00:00Z,45.2,-67.25,7.9,6.7,150,3,,,,1023.5,,TRUE,TRUE,,,,,,,,,,,,,,,,-1.0,,,,,,,,,,,METAR,27.0
CWSR 200600Z AUTO 13001KT 12/04 RMK AO1 SLP129 T01200040 58003,CWSR,2023-05-20T06:00:00Z,53.37,-107.55,12.0,4.0,130,1,,,,1012.9,,TRUE,TRUE,,,,,,,,,,,,,,,,-0.3,,,,,,,,,,,METAR,589.0
CWSP 200600Z AUTO 28024KT 10/10 RMK AO1 PK WND 29027/0556 SLP191 T01000096 51006,CWSP,2023-05-20T06:00:00Z,48.38,-123.92,10.0,9.6,280,24,,,,1019.1,,TRUE,TRUE,,,,,,,,,,,,,,,,0.6,,,,,,,,,,,METAR,2.0
CWSL 200600Z AUTO 18002KT 18/12 RMK AO1 SLP160 T01820117 53014,CWSL,2023-05-20T06:00:00Z,50.7,-119.28,18.2,11.7,180,2,,,,1016.0,,TRUE,TRUE,,,,,,,,,,,,,,,,1.4,,,,,,,,,,,METAR,353.0
CWSK 200600Z AUTO 01001KT 17/14 RMK AO1 SLP177 T01650135 51016,CWSK,2023-05-20T06:00:00Z,49.78,-123.17,16.5,13.5,10,1,,,,1017.7,,TRUE,TRUE,,,,,,,,,,,,,,,,1.6,,,,,,,,,,,METAR,59.0
CWSG 200600Z AUTO 19004KT 07/04 RMK AO1 SLP168 T00670044 51034,CWSG,2023-05-20T06:00:00Z,49.12,-66.65,6.7,4.4,190,4,,,,1016.8,,TRUE,TRUE,,,,,,,,,,,,,,,,3.4,,,,,,,,,,,METAR,5.0
CWSF 200600Z AUTO 27004KT 08/03 RMK AO1 3028 SLP160 T00840030 50004,CWSF,2023-05-20T06:00:00Z,49.25,-65.32,8.4,3.0,270,4,,,,1016.0,,TRUE,TRUE,,,,,,,,,,,,,,,,0.4,,,,,,,,,,,METAR,15.0
CWSD 200600Z AUTO 21020G27KT 09/05 RMK AO1 PK WND 21028/0530 SLP225 T00860048 58007,CWSD,2023-05-20T06:00:00Z,46.43,-63.85,8.6,4.8,210,20,27,,,1022.5,,TRUE,TRUE,,,,,,,,,,,,,,,,-0.7,,,,,,,,,,,METAR,12.0
CWSA 200600Z AUTO 19014KT 9SM 07/05 A3046 RMK CLD MISG SLP315,CWSA,2023-05-20T06:00:00Z,43.93,-60.0,7.0,5.0,190,14,,9.0,30.46063,1031.5,,TRUE,,,,,,,,,,,,,,,,,,,,,,,,,,,,METAR,4.0
CWRZ 200600Z AUTO 25010KT 08/04 RMK AO1 SLP165 T00780035 58005,CWRZ,2023-05-20T06:00:00Z,48.42,-64.32,7.8,3.5,250,10,,,,1016.5,,TRUE,TRUE,,,,,,,,,,,,,,,,-0.5,,,,,,,,,,,METAR,16.0
CWRY 200600Z AUTO 30009KT 14/08 RMK AO1 0004 SLP160 T01440083 50002,CWRY,2023-05-20T06:00:00Z,49.12,-112.05,14.4,8.3,300,9,,,,1016.0,,TRUE,TRUE,,,,,,,,,,,,,,,,0.2,,,,,,,,,,,METAR,1048.0
CWRX 200600Z AUTO ///// ////SM ////// M11/M13 A2948,CWRX,2023-05-20T06:00:00Z,69.07,-79.07,-11.0,-13.0,,,,,29.480314,,,TRUE,,,,,,,,,,,,,,,,,,,,,,,,,,,,METAR,39.0
CWRU 200600Z AUTO 33021KT 11/ RMK AO1 PK WND 33024/0533 SLP210 T0109 58001,CWRU,2023-05-20T06:00:00Z,50.12,-127.93,10.9,,330,21,,,,1021.0,,TRUE,TRUE,,,,,,,,,,,,,,,,-0.1,,,,,,,,,,,METAR,76.0
CWRT 200600Z AUTO 13001KT 09/06 RMK AO1 SLP190 T00900063 51021,CWRT,2023-05-20T06:00:00Z,49.62,-114.47,9.0,6.3,130,1,,,,1019.0,,TRUE,TRUE,,,,,,,,,,,,,,,,2.1,,,,,,,,,,,METAR,1311.0
CWRN 200600Z AUTO 20009G16KT 07/04 RMK AO1 SLP288 T00710035 58003,CWRN,2023-05-20T06:00:00Z,45.35,-60.98,7.1,3.5,200,9,16,,,1028.8,,TRUE,TRUE,,,,,,,,,,,,,,,,-0.3,,,,,,,,,,,METAR,8.0
CWRM 200600Z AUTO 27003KT 12/07 RMK AO1 SLP153 T01210069 51012,CWRM,2023-05-20T06:00:00Z,52.42,-114.92,12.1,6.9,270,3,,,,1015.3,,TRUE,TRUE,,,,,,,,,,,,,,,,1.2,,,,,,,,,,,METAR,986.0
CWRK 200600Z AUTO 15001KT 14/13 RMK AO1 5PAST HR 8008 SLP148 P0002 T01360132 50029,CWRK,2023-05-20T06:00:00Z,45.07,-77.87,13.6,13.2,150,1,,,,1014.8,,TRUE,TRUE,,,,,,,,,,,,,,,,2.9,,,,,0.02,,,,,,METAR,328.0
CWRJ 200600Z AUTO 20011KT 17/03 RMK AO1 SLP128 T01700026 58005,CWRJ,2023-05-20T06:00:00Z,51.57,-107.92,17.0,2.6,200,11,,,,1012.8,,TRUE,TRUE,,,,,,,,,,,,,,,,-0.5,,,,,,,,,,,METAR,586.0
CWRA 200600Z AUTO 23016KT 03/01 RMK AO1 PK WND 23020/0559 SLP323 T00260013 58015,CWRA,2023-05-20T06:00:00Z,46.65,-53.07,2.6,1.3,230,16,,,,1032.3,,TRUE,TRUE,,,,,,,,,,,,,,,,-1.5,,,,,,,,,,,METAR,4.0
CWQV 200600Z AUTO 28009KT 15/ RMK AO1 PK WND 29019/0544 T0150,CWQV,2023-05-20T06:00:00Z,48.27,-70.12,15.0,,280,9,,,,,,TRUE,TRUE,,,,,,,,,,,,,,,,,,,,,,,,,,,METAR,4.0
CWQS 200600Z AUTO 21006KT 09/08 RMK AO1 SLP238 T00890081 52006,CWQS,2023-05-20T06:00:00Z,53.32,-132.77,8.9,8.1,210,6,,,,1023.8,,TRUE,TRUE,,,,,,,,,,,,,,,,0.6,,,,,,,,,,,METAR,10.0
CWQR 200600Z AUTO 04003KT 07/02 RMK AO1 T00650015,CWQR,2023-05-20T06:00:00Z,50.22,-64.22,6.5,1.5,40,3,,,,,,TRUE,TRUE,,,,,,,,,,,,,,,,,,,,,,,,,,,METAR,9.0
CWQP 200600Z AUTO 16013KT 11/09 RMK AO1 SLP149 T01080088 58010,CWQP,2023-05-20T06:00:00Z,43.83,-77.15,10.8,8.8,160,13,,,,1014.9,,TRUE,TRUE,,,,,,,,,,,,,,,,-1.0,,,,,,,,,,,METAR,77.0
CWQO 200600Z AUTO 36010KT 08/05 RMK AO1 T00800054,CWQO,2023-05-20T06:00:00Z,48.42,-68.9,8.0,5.4,360,10,,,,,,TRUE,TRUE,,,,,,,,,,,,,,,,,,,,,,,,,,,METAR,7.0
CWQK 200600Z AUTO 28037G42KT 11/10 RMK AO1 PK WND 27044/0529 SLP174 T01060102 53006,CWQK,2023-05-20T06:00:00Z,48.3,-123.53,10.6,10.2,280,37,42,,,1017.4,,TRUE,TRUE,,,,,,,,,,,,,,,,0.6,,,,,,,,,,,METAR,5.0
CWQH 200600Z AUTO 15003KT 14/12 RMK AO1 2PAST HR 0008 SLP192 P0001 T01350119 50010,CWQH,2023-05-20T06:00:00Z,45.37,-71.82,13.5,11.9,150,3,,,,1019.2,,TRUE,TRUE,,,,,,,,,,,,,,,,1.0,,,,,0.01,,,,,,METAR,181.0
CWPZ 200600Z AUTO 34001KT 08/02 RMK AO1 SLP209 T00750022 52015,CWPZ,2023-05-20T06:00:00Z,54.38,-125.97,7.5,2.2,340,1,,,,1020.9,,TRUE,TRUE,,,,,,,,,,,,,,,,1.5,,,,,,,,,,,METAR,715.0
CWPR 200600Z AUTO 33005KT 18/09 RMK AO1 SLP173 T01810089 52020,CWPR,2023-05-20T06:00:00Z,49.47,-120.52,18.1,8.9,330,5,,,,1017.3,,TRUE,TRUE,,,,,,,,,,,,,,,,2.0,,,,,,,,,,,METAR,703.0
CWPO 200600Z AUTO 20007KT 06/01 RMK AO1 SLP235 T00630008 58005,CWPO,2023-05-20T06:00:00Z,49.2,-98.9,6.3,0.8,200,7,,,,1023.5,,TRUE,TRUE,,,,,,,,,,,,,,,,-0.5,,,,,,,,,,,METAR,471.0
CWPK 200600Z AUTO 00000KT 09/07 RMK AO1 5004 SLP165 T00940071 50002,CWPK,2023-05-20T06:00:00Z,47.92,-74.62,9.4,7.1,0,0,,,,1016.5,,TRUE,TRUE,,,,,,,,,,,,,,,,0.2,,,,,,,,,,,METAR,443.0
CWPE 200600Z AUTO 20007KT 07/06 RMK AO1 SLP250 T00740063 58010,CWPE,2023-05-20T06:00:00Z,45.07,-66.47,7.4,6.3,200,7,,,,1025.0,,TRUE,TRUE,,,,,,,,,,,,,,,,-1.0,,,,,,,,,,,METAR,9.0
CWPD 200600Z AUTO 00000KT 08/04 RMK AO1 SLP148 T00760043 50008,CWPD,2023-05-20T06:00:00Z,47.57,-71.22,7.6,4.3,0,0,,,,1014.8,,TRUE,TRUE,,,,,,,,,,,,,,,,0.8,,,,,,,,,,,METAR,795.0
CWOY 200600Z AUTO 20015KT 17/01 RMK AO1 PK WND 21019/0557 SLP149 T01710010 58013,CWOY,2023-05-20T06:00:00Z,51.77,-104.2,17.1,1.0,200,15,,,,1014.9,,TRUE,TRUE,,,,,,,,,,,,,,,,-1.3,,,,,,,,,,,METAR,557.0
CWOE 200600Z AUTO 08003KT 17/05 RMK AO1 SLP157 T01690051 51006,CWOE,2023-05-20T06:00:00Z,49.12,-110.47,16.9,5.1,80,3,,,,1015.7,,TRUE,TRUE,,,,,,,,,,,,,,,,0.6,,,,,,,,,,,METAR,931.0
CWOD 200600Z AUTO 29003KT 10/05 RMK AO1 SLP177 T00980054 51010,CWOD,2023-05-20T06:00:00Z,48.85,-72.55,9.8,5.4,290,3,,,,1017.7,,TRUE,TRUE,,,,,,,,,,,,,,,,1.0,,,,,,,,,,,METAR,150.0
CWOC 200600Z AUTO 21003KT 09/05 RMK AO1 SLP166 T00900049 56011,CWOC,2023-05-20T06:00:00Z,48.02,-65.32,9.0,4.9,210,3,,,,1016.6,,TRUE,TRUE,,,,,,,,,,,,,,,,-1.1,,,,,,,,,,,METAR,42.0
CWOB 200600Z AUTO 08002KT ////SM ////// M07/M10 A2936,CWOB,2023-05-20T06:00:00Z,63.33,-64.15,-7.0,-10.0,80,2,,,29.359253,,,TRUE,,,,,,,,,,,,,,,,,,,,,,,,,,,,METAR,369.0
CWNZ 200600Z AUTO 23002KT 01/M00 RMK AO1 SLP191 T00051001 50002,CWNZ,2023-05-20T06:00:00Z,49.75,-84.17,0.5,-0.1,230,2,,,,1019.1,,TRUE,TRUE,,,,,,,,,,,,,,,,0.2,,,,,,,,,,,METAR,261.0
CWNQ 200600Z AUTO 23008KT 17/11 RMK AO1 SLP168 T01700114 51004,CWNQ,2023-05-20T06:00:00Z,46.22,-72.65,17.0,11.4,230,8,,,,1016.8,,TRUE,TRUE,,,,,,,,,,,,,,,,0.4,,,,,,,,,,,METAR,9.0
CWNP 200600Z AUTO 08003KT 15/10 RMK AO1 SLP169 T01490101 51020,CWNP,2023-05-20T06:00:00Z,50.27,-117.82,14.9,10.1,80,3,,,,1016.9,,TRUE,TRUE,,,,,,,,,,,,,,,,2.0,,,,,,,,,,,METAR,517.0
CWNM 200600Z AUTO 24001KT 15/14 RMK AO1 SLP172 T01460138 51021,CWNM,2023-05-20T06:00:00Z,49.5,-117.3,14.6,13.8,240,1,,,,1017.2,,TRUE,TRUE,,,,,,,,,,,,,,,,2.1,,,,,,,,,,,METAR,533.0
CWNK 200600Z AUTO 23008KT 11/02 RMK AO1 SLP217 T01050021 58004,CWNK,2023-05-20T06:00:00Z,49.5,-98.03,10.5,2.1,230,8,,,,1021.7,,TRUE,TRUE,,,,,,,,,,,,,,,,-0.4,,,,,,,,,,,METAR,271.0
CWNH 200600Z AUTO 26005KT 16/07 RMK AO1 SLP165 T01560068 53021,CWNH,2023-05-20T06:00:00Z,47.8,-69.53,15.6,6.8,260,5,,,,1016.5,,TRUE,TRUE,,,,,,,,,,,,,,,,2.1,,,,,,,,,,,METAR,147.0
CWNE 200600Z AUTO 21024G33KT 09/06 RMK AO1 PK WND 21033/0507 SLP197 T00940057 56010,CWNE,2023-05-20T06:00:00Z,47.07,-64.0,9.4,5.7,210,24,33,,,1019.7,,TRUE,TRUE,,,,,,,,,,,,,,,,-1.0,,,,,,,,,,,METAR,5.0
CWND 200600Z AUTO 12011KT 01/M01 RMK AO1 SLP124 T00141013 58024,CWND,2023-05-20T06:00:00Z,69.63,-135.43,1.4,-1.3,120,11,,,,1012.4,,TRUE,TRUE,,,,,,,,,,,,,,,,-2.4,,,,,,,,,,,METAR,14.0
CWNC 200600Z AUTO 07003KT 15/14 RMK AO1 0PAST HR 6012 SLP142 P0020 T01460142 50052,CWNC,2023-05-20T06:00:00Z,43.95,-78.17,14.6,14.2,70,3,,,,1014.2,,TRUE,TRUE,,,,,,,,,,,,,,,,5.2,,,,,0.2,,,,,,METAR,71.0
CWMT 200600Z AUTO 07003KT 00/M03 RMK AO1 SLP246 T00001032 50001,CWMT,2023-05-20T06:00:00Z,63.13,-117.25,0.0,-3.2,70,3,,,,1024.6,,TRUE,TRUE,,,,,,,,,,,,,,,,0.1,,,,,,,,,,,METAR,274.0
CWMQ 200600Z AUTO 18012KT 19/05 RMK AO1 PK WND 18019/0520 SLP140 T01900051 51001,CWMQ,2023-05-20T06:00:00Z,49.9,-109.47,19.0,5.1,180,12,,,,1014.0,,TRUE,TRUE,,,,,,,,,,,,,,,,0.1,,,,,,,,,,,METAR,767.0
CWMM 200600Z AUTO 12001KT 18/11 RMK AO1 SLP181 T01830113 51014,CWMM,2023-05-20T06:00:00Z,49.22,-122.68,18.3,11.3,120,1,,,,1018.1,,TRUE,TRUE,,,,,,,,,,,,,,,,1.4,,,,,,,,,,,METAR,2.0
CWMJ 200600Z AUTO 00000KT 14/14 RMK AO1 6003 SLP153 T01350135 50011,CWMJ,2023-05-20T06:00:00Z,46.27,-76.0,13.5,13.5,0,0,,,,1015.3,,TRUE,TRUE,,,,,,,,,,,,,,,,1.1,,,,,,,,,,,METAR,198.0
CWME 200600Z AUTO 23007KT 15/11 RMK AO1 SLP210 T01520114 51005,CWME,2023-05-20T06:00:00Z,52.18,-127.47,15.2,11.4,230,7,,,,1021.0,,TRUE,TRUE,,,,,,,,,,,,,,,,0.5,,,,,,,,,,,METAR,23.0
CWLY 200600Z AUTO 19009KT 150V250 9SM CLR 25/07 A2998 RMK SLP150 DENSITY ALT 2000FT,CWLY,2023-05-20T06:00:00Z,50.22,-121.58,25.0,7.0,190,9,,9.0,29.97933,1015.0,,TRUE,,,,,,,,CLR,,,,,,,,VFR,,,,,,,,,,,,METAR,228.0
CWLX 200600Z AUTO ///// ////SM ////// M13/M14 A2936,CWLX,2023-05-20T06:00:00Z,68.9,-75.15,-13.0,-14.0,,,,,29.359253,,,TRUE,,,,,,,,,,,,,,,,,,,,,,,,,,,,METAR,129.0
CWLS 200600Z AUTO 17005KT 14/13 RMK AO1 7PAST HR 6015 SLP121 P0011 T01370131 50083,CWLS,2023-05-20T06:00:00Z,43.97,-80.75,13.7,13.1,170,5,,,,1012.1,,TRUE,TRUE,,,,,,,,,,,,,,,,8.3,,,,,0.11,,,,,,METAR,413.0
CWLP 200600Z AUTO 30011KT 10/10 RMK AO1 PK WND 29019/0504 SLP223 T01020097 53003,CWLP,2023-05-20T06:00:00Z,50.93,-127.63,10.2,9.7,300,11,,,,1022.3,,TRUE,TRUE,,,,,,,,,,,,,,,,0.3,,,,,,,,,,,METAR,15.0
CWLM 200600Z AUTO 25016G21KT 12/10 RMK AO1 PK WND 26021/0558 SLP180 T01180096 51006,CWLM,2023-05-20T06:00:00Z,48.42,-123.32,11.8,9.6,250,16,21,,,1018.0,,TRUE,TRUE,,,,,,,,,,,,,,,,0.6,,,,,,,,,,,METAR,62.0
CWLE 200600Z AUTO 21015KT 16/03 RMK AO1 SLP145 T01620033 58008,CWLE,2023-05-20T06:00:00Z,50.95,-107.15,16.2,3.3,210,15,,,,1014.5,,TRUE,TRUE,,,,,,,,,,,,,,,,-0.8,,,,,,,,,,,METAR,666.0
CWLC 200600Z AUTO 27005KT 11/10 RMK AO1 T01070099,CWLC,2023-05-20T06:00:00Z,54.3,-130.62,10.7,9.9,270,5,,,,,,TRUE,TRUE,,,,,,,,,,,,,,,,,,,,,,,,,,,METAR,27.0
CWLB 200600Z AUTO 36004KT 14/07 RMK AO1 SLP163 T01420068 51022,CWLB,2023-05-20T06:00:00Z,54.77,-112.02,14.2,6.8,360,4,,,,1016.3,,TRUE,TRUE,,,,,,,,,,,,,,,,2.2,,,,,,,,,,,METAR,561.0
CWKX 200600Z AUTO 25008G15KT 14/03 RMK AO1 SLP210 T01400031 53018,CWKX,2023-05-20T06:00:00Z,58.43,-130.02,14.0,3.1,250,8,15,,,1021.0,,TRUE,TRUE,,,,,,,,,,,,,,,,1.8,,,,,,,,,,,METAR,807.0
CWKO 200600Z AUTO 20014KT 11/02 RMK AO1 PK WND 20017/0505 SLP193 T01140018 58009,CWKO,2023-05-20T06:00:00Z,49.17,-105.97,11.4,1.8,200,14,,,,1019.3,,TRUE,TRUE,,,,,,,,,,,,,,,,-0.9,,,,,,,,,,,METAR,914.0
CWKM 200600Z AUTO 26010KT ////SM NCD M00/M01 A2991,CWKM,2023-05-20T06:00:00Z,69.6,-140.17,0.0,-1.0,260,10,,,29.911417,,,TRUE,,,,,,,,CLR,,,,,,,,,,,,,,,,,,,,METAR,8.0
CWKH 200600Z AUTO 20/10 RMK AO1 SLP171 T01980095 50003,CWKH,2023-05-20T06:00:00Z,48.57,-123.55,19.8,9.5,,,,,,1017.1,,TRUE,TRUE,,,,,,,,,,,,,,,,0.3,,,,,,,,,,,METAR,327.0
CWKG 200600Z AUTO 19004KT 06/05 RMK AO1 SLP269 T00640047 58012,CWKG,2023-05-20T06:00:00Z,44.43,-65.2,6.4,4.7,190,4,,,,1026.9,,TRUE,TRUE,,,,,,,,,,,,,,,,-1.2,,,,,,,,,,,METAR,154.0
CWJX 200600Z AUTO 01008KT 20/04 RMK AO1 SOG 01 1011 SLP135 T02000041,CWJX,2023-05-20T06:00:00Z,50.88,-109.5,20.0,4.1,10,8,,,,1013.5,,TRUE,TRUE,,,,,,,,,,,,,,,,,,,,,,,,,,,METAR,671.0
CWJW 200600Z AUTO 15002KT 10/06 RMK AO1 SLP197 T00990056 51015,CWJW,2023-05-20T06:00:00Z,52.93,-118.03,9.9,5.6,150,2,,,,1019.7,,TRUE,TRUE,,,,,,,,,,,,,,,,1.5,,,,,,,,,,,METAR,1022.0
CWJV 200600Z AUTO 09002KT 20/11 RMK AO1 SLP160 T01970109 51018,CWJV,2023-05-20T06:00:00Z,50.22,-119.18,19.7,10.9,90,2,,,,1016.0,,TRUE,TRUE,,,,,,,,,,,,,,,,1.8,,,,,,,,,,,METAR,487.0
CWJU 200600Z AUTO 23004KT 09/08 RMK AO1 SLP242 T00910083 53004,CWJU,2023-05-20T06:00:00Z,54.25,-133.07,9.1,8.3,230,4,,,,1024.2,,TRUE,TRUE,,,,,,,,,,,,,,,,0.4,,,,,,,,,,,METAR,47.0
CWJT 200600Z AUTO 00000KT 15/14 RMK AO1 SLP161 T01510137 58003,CWJT,2023-05-20T06:00:00Z,46.07,-74.57,15.1,13.7,0,0,,,,1016.1,,TRUE,TRUE,,,,,,,,,,,,,,,,-0.3,,,,,,,,,,,METAR,236.0
CWJR 200600Z AUTO 03003KT 20/11 RMK AO1 SLP169 T02040110 53019,CWJR,2023-05-20T06:00:00Z,49.03,-116.5,20.4,11.0,30,3,,,,1016.9,,TRUE,TRUE,,,,,,,,,,,,,,,,1.9,,,,,,,,,,,METAR,642.0
CWJI 200600Z AUTO 18007KT 13/02 RMK AO1 SLP176 T01310016 58011,CWJI,2023-05-20T06:00:00Z,49.72,-105.93,13.1,1.6,180,7,,,,1017.6,,TRUE,TRUE,,,,,,,,,,,,,,,,-1.1,,,,,,,,,,,METAR,724.0
CWJH 200600Z AUTO 01003KT 13/04 RMK AO1 SLP141 T01250040 53027,CWJH,2023-05-20T06:00:00Z,56.32,-103.27,12.5,4.0,10,3,,,,1014.1,,TRUE,TRUE,,,,,,,,,,,,,,,,2.7,,,,,,,,,,,METAR,345.0
CWJD 200600Z AUTO 21005KT 11/02 RMK AO1 SLP137 T01050018 58010,CWJD,2023-05-20T06:00:00Z,53.18,-99.27,10.5,1.8,210,5,,,,1013.7,,TRUE,TRUE,,,,,,,,,,,,,,,,-1.0,,,,,,,,,,,METAR,222.0
CWJC 200600Z AUTO 36022KT M02/M07 RMK AO1 PK WND 00032/0504 SLP214 T10231070 53026,CWJC,2023-05-20T06:00:00Z,61.13,-100.9,-2.3,-7.0,360,22,,,,1021.4,,TRUE,TRUE,,,,,,,,,,,,,,,,2.6,,,,,,,,,,,METAR,340.0
CWJB 200600Z AUTO 18/11 RMK AO1 T01780111,CWJB,2023-05-20T06:00:00Z,46.78,-71.28,17.8,11.1,,,,,,,,TRUE,TRUE,,,,,,,,,,,,,,,,,,,,,,,,,,,METAR,90.0
CWIZ 200600Z AUTO 18012G17KT 16/10 RMK AO1 PK WND 16018/0501 T01610100,CWIZ,2023-05-20T06:00:00Z,45.28,-73.33,16.1,10.0,180,12,17,,,,,TRUE,TRUE,,,,,,,,,,,,,,,,,,,,,,,,,,,METAR,45.0
CWIW 200600Z AUTO 18011KT 12/04 RMK AO1 SLP146 T01200037 58009,CWIW,2023-05-20T06:00:00Z,51.67,-105.4,12.0,3.7,180,11,,,,1014.6,,TRUE,TRUE,,,,,,,,,,,,,,,,-0.9,,,,,,,,,,,METAR,524.0
CWIT 200600Z AUTO 16005KT 16/10 RMK AO1 SLP167 T01600101 58005,CWIT,2023-05-20T06:00:00Z,45.17,-73.67,16.0,10.1,160,5,,,,1016.7,,TRUE,TRUE,,,,,,,,,,,,,,,,-0.5,,,,,,,,,,,METAR,53.0
CWIS 200600Z AUTO 32004KT 11/06 RMK AO1 SLP177 T01090064 53009,CWIS,2023-05-20T06:00:00Z,47.28,-70.63,10.9,6.4,320,4,,,,1017.7,,TRUE,TRUE,,,,,,,,,,,,,,,,0.9,,,,,,,,,,,METAR,720.0
CWIP 200600Z AUTO 17005KT 06/02 RMK AO1 T00590015,CWIP,2023-05-20T06:00:00Z,50.17,-66.43,5.9,1.5,170,5,,,,,,TRUE,TRUE,,,,,,,,,,,,,,,,,,,,,,,,,,,METAR,27.0
CWIL 200600Z AUTO ///// ////SM OVC032 M08/M11 A3005,CWIL,2023-05-20T06:00:00Z,68.32,-100.07,-8.0,-11.0,,,,,30.050198,,,TRUE,,,,,,,,OVC,3200,,,,,,,,,,,,,,,,,,,METAR,28.0
CWIK 200600Z AUTO 20009KT 12/03 RMK AO1 SLP193 T01200033 58010,CWIK,2023-05-20T06:00:00Z,50.37,-102.58,12.0,3.3,200,9,,,,1019.3,,TRUE,TRUE,,,,,,,,,,,,,,,,-1.0,,,,,,,,,,,METAR,597.0
CWIJ 200600Z AUTO 25005KT M02/M06 RMK AO1 SLP252 T10181060 53001,CWIJ,2023-05-20T06:00:00Z,65.77,-111.23,-1.8,-6.0,250,5,,,,1025.2,,TRUE,TRUE,,,,,,,,,,,,,,,,0.1,,,,,,,,,,,METAR,490.0
CWII 200600Z AUTO 23016KT 14/04 RMK AO1 PK WND 22020/0509 SLP197 T01350039 58007,CWII,2023-05-20T06:00:00Z,50.7,-96.57,13.5,3.9,230,16,,,,1019.7,,TRUE,TRUE,,,,,,,,,,,,,,,,-0.7,,,,,,,,,,,METAR,216.0
CWIG 200600Z AUTO 23011KT RMK AO1 PK WND 24017/0537,CWIG,2023-05-20T06:00:00Z,47.07,-70.53,,,230,11,,,,,,TRUE,TRUE,,,,,,,,,,,,,,,,,,,,,,,,,,,METAR,12.0
CWID 200600Z AUTO 10002KT 08/02 RMK AO1 SLP234 T00820018 53005,CWID,2023-05-20T06:00:00Z,61.32,-117.6,8.2,1.8,100,2,,,,1023.4,,TRUE,TRUE,,,,,,,,,,,,,,,,0.5,,,,,,,,,,,METAR,160.0
CWHV 200600Z AUTO 21004KT 16/10 RMK AO1 SLP179 T01640099 53006,CWHV,2023-05-20T06:00:00Z,46.2,-70.78,16.4,9.9,210,4,,,,1017.9,,TRUE,TRUE,,,,,,,,,,,,,,,,0.6,,,,,,,,,,,METAR,227.0
CWHT 200600Z AUTO 36004KT 11/03 RMK AO1 SLP179 T01110030 53007,CWHT,2023-05-20T06:00:00Z,60.77,-137.58,11.1,3.0,360,4,,,,1017.9,,TRUE,TRUE,,,,,,,,,,,,,,,,0.7,,,,,,,,,,,METAR,601.0
CWHQ 200600Z AUTO 28002KT 16/10 RMK AO1 T01640101,CWHQ,2023-05-20T06:00:00Z,46.68,-71.97,16.4,10.1,280,2,,,,,,TRUE,TRUE,,,,,,,,,,,,,,,,,,,,,,,,,,,METAR,56.0
CWHO 200600Z AUTO 00025KT 04/M01 RMK AO1 SLP078 T00431006 53006,CWHO,2023-05-20T06:00:00Z,55.45,-60.22,4.3,-0.6,0,25,,,,1007.8,,TRUE,TRUE,,,,,,,,,,,,,,,,0.6,,,,,,,,,,,METAR,16.0
CWHL 200600Z AUTO 28004KT 09/09 RMK AO1 SLP221 T00940090 50000,CWHL,2023-05-20T06:00:00Z,54.17,-130.35,9.4,9.0,280,4,,,,1022.1,,TRUE,TRUE,,,,,,,,,,,,,,,,0.0,,,,,,,,,,,METAR,5.0
CWHI 200600Z AUTO 26006KT 11/07 RMK AO1 T01070072,CWHI,2023-05-20T06:00:00Z,51.7,-113.22,10.7,7.2,260,6,,,,,,TRUE,TRUE,,,,,,,,,,,,,,,,,,,,,,,,,,,METAR,906.0
CWGY 200600Z AUTO 26010KT 18/08 RMK AO1 SLP147 T01810075 51008,CWGY,2023-05-20T06:00:00Z,51.67,-110.2,18.1,7.5,260,10,,,,1014.7,,TRUE,TRUE,,,,,,,,,,,,,,,,0.8,,,,,,,,,,,METAR,709.0
CWGW 200600Z AUTO 29002KT 13/07 RMK AO1 SLP189 T01280068 51023,CWGW,2023-05-20T06:00:00Z,49.75,-114.9,12.8,6.8,290,2,,,,1018.9,,TRUE,TRUE,,,,,,,,,,,,,,,,2.3,,,,,,,,,,,METAR,1137.0
CWGT 200600Z AUTO 28002KT 20/14 RMK AO1 SLP176 T01980142 52006,CWGT,2023-05-20T06:00:00Z,49.48,-124.43,19.8,14.2,280,2,,,,1017.6,,TRUE,TRUE,,,,,,,,,,,,,,,,0.6,,,,,,,,,,,METAR,5.0
CWGR 200600Z AUTO 19018G27KT 06/02 RMK AO1 PK WND 18030/0546 SLP216 T00630019 58009,CWGR,2023-05-20T06:00:00Z,47.42,-61.77,6.3,1.9,190,18,27,,,1021.6,,TRUE,TRUE,,,,,,,,,,,,,,,,-0.9,,,,,,,,,,,METAR,4.0
CWGM 200600Z AUTO 19011KT 16/06 RMK AO1 SLP171 T01600056 51013,CWGM,2023-05-20T06:00:00Z,49.13,-113.8,16.0,5.6,190,11,,,,1017.1,,TRUE,TRUE,,,,,,,,,,,,,,,,1.3,,,,,,,,,,,METAR,1292.0
CWGL 200600Z AUTO 14006KT 15/14 RMK AO1 SLP121 T01460141 58015,CWGL,2023-05-20T06:00:00Z,44.53,-79.22,14.6,14.1,140,6,,,,1012.1,,TRUE,TRUE,,,,,,,,,,,,,,,,-1.5,,,,,,,,,,,METAR,220.0
CWGH 200600Z AUTO 18001KT 15/10 RMK AO1 SLP159 T01450103 56006,CWGH,2023-05-20T06:00:00Z,44.42,-75.85,14.5,10.3,180,1,,,,1015.9,,TRUE,TRUE,,,,,,,,,,,,,,,,-0.6,,,,,,,,,,,METAR,76.0
CWGD 200600Z AUTO 31006KT 09/08 RMK AO1 5005 SLP130 T00860081 50177,CWGD,2023-05-20T06:00:00Z,43.77,-81.72,8.6,8.1,310,6,,,,1013.0,,TRUE,TRUE,,,,,,,,,,,,,,,,0.0,,,,,,,,,,,METAR,214.0
CWGB 200600Z AUTO 23008KT 21/ RMK AO1 SLP167 T0207 51006,CWGB,2023-05-20T06:00:00Z,49.35,-124.13,20.7,,230,8,,,,1016.7,,TRUE,TRUE,,,,,,,,,,,,,,,,0.6,,,,,,,,,,,METAR,6.0
CWFQ 200600Z AUTO 17006KT 14/11 RMK AO1 8003 SLP183 T01360114 50013,CWFQ,2023-05-20T06:00:00Z,45.03,-72.85,13.6,11.4,170,6,,,,1018.3,,TRUE,TRUE,,,,,,,,,,,,,,,,1.3,,,,,,,,,,,METAR,190.0
CWFJ 200600Z AUTO 26009KT 21/06 RMK AO1 T02130056,CWFJ,2023-05-20T06:00:00Z,49.2,-113.27,21.3,5.6,260,9,,,,,,TRUE,TRUE,,,,,,,,,,,,,,,,,,,,,,,,,,,METAR,1142.0
CWFF 200600Z AUTO 21008KT 14/01 RMK AO1 SLP135 T01420012 57007,CWFF,2023-05-20T06:00:00Z,52.82,-104.6,14.2,1.2,210,8,,,,1013.5,,TRUE,TRUE,,,,,,,,,,,,,,,,-0.7,,,,,,,,,,,METAR,482.0
CWEZ 200600Z AUTO 25013KT 15/10 RMK AO1 SLP171 T01490102 51006,CWEZ,2023-05-20T06:00:00Z,48.78,-123.05,14.9,10.2,250,13,,,,1017.1,,TRUE,TRUE,,,,,,,,,,,,,,,,0.6,,,,,,,,,,,METAR,23.0
CWEW 200600Z AUTO 17005KT 17/11 RMK AO1 SLP174 T01670110 51003,CWEW,2023-05-20T06:00:00Z,45.82,-73.43,16.7,11.0,170,5,,,,1017.4,,TRUE,TRUE,,,,,,,,,,,,,,,,0.3,,,,,,,,,,,METAR,17.0
CWEU 200600Z 01021KT 15SM DRSN FEW017 M15/M19 A2949 RMK SC1 SC TR SLP999,CWEU,2023-05-20T06:00:00Z,80.0,-85.93,-15.0,-19.0,10,21,,15.0,29.489174,999.9,,,,,,,,,DRSN,FEW,1700,,,,,,,VFR,,,,,,,,,,,,METAR,2.0
CWER 200600Z AUTO 26006KT RMK AO1,CWER,2023-05-20T06:00:00Z,47.0,-70.82,,,260,6,,,,,,TRUE,TRUE,,,,,,,,,,,,,,,,,,,,,,,,,,,METAR,4.0
CWEQ 200600Z AUTO 21010KT 15/02 RMK AO1 PK WND 21017/0500 SLP149 T01530016 56013,CWEQ,2023-05-20T06:00:00Z,52.12,-101.22,15.3,1.6,210,10,,,,1014.9,,TRUE,TRUE,,,,,,,,,,,,,,,,-1.3,,,,,,,,,,,METAR,331.0
CWEP 200600Z AUTO 18020G26KT 06/03 RMK AO1 PK WND 20029/0531 SLP250 T00630028 58007,CWEP,2023-05-20T06:00:00Z,46.45,-61.98,6.3,2.8,180,20,26,,,1025.0,,TRUE,TRUE,,,,,,,,,,,,,,,,-0.7,,,,,,,,,,,METAR,9.0
CWEL 200600Z AUTO 14005KT 16/13 RMK AO1 SLP170 T01560132 51008,CWEL,2023-05-20T06:00:00Z,49.22,-123.8,15.6,13.2,140,5,,,,1017.0,,TRUE,TRUE,,,,,,,,,,,,,,,,0.8,,,,,,,,,,,METAR,0.0
CWEH 200600Z AUTO 20006KT 13/03 RMK AO1 SLP169 T01330032 58002,CWEH,2023-05-20T06:00:00Z,49.43,-108.98,13.3,3.2,200,6,,,,1016.9,,TRUE,TRUE,,,,,,,,,,,,,,,,-0.2,,,,,,,,,,,METAR,1077.0
CWEF 200600Z AUTO 17021G26KT 06/01 RMK AO1 PK WND 18030/0547 SLP230 T00570011 55000,CWEF,2023-05-20T06:00:00Z,47.22,-60.13,5.7,1.1,170,21,26,,,1023.0,,TRUE,TRUE,,,,,,,,,,,,,,,,0.0,,,,,,,,,,,METAR,27.0
CWEB 200600Z AUTO 00032KT 12/11 RMK AO1 SLP213 T01200114 53001,CWEB,2023-05-20T06:00:00Z,49.38,-126.55,12.0,11.4,0,32,,,,1021.3,,TRUE,TRUE,,,,,,,,,,,,,,,,0.1,,,,,,,,,,,METAR,1.0
CWDZ 200600Z AUTO 25002KT 17/10 RMK AO1 SLP155 T01690098 51015,CWDZ,2023-05-20T06:00:00Z,51.43,-112.67,16.9,9.8,250,2,,,,1015.5,,TRUE,TRUE,,,,,,,,,,,,,,,,1.5,,,,,,,,,,,METAR,689.0
CWDV 200600Z AUTO 29003KT 04/03 RMK AO1 SLP214 T00380032 50001,CWDV,2023-05-20T06:00:00Z,49.02,-90.47,3.8,3.2,290,3,,,,1021.4,,TRUE,TRUE,,,,,,,,,,,,,,,,0.1,,,,,,,,,,,METAR,487.0
CWDQ 200600Z AUTO 05001KT 13/11 RMK AO1 SLP168 T01320110 53001,CWDQ,2023-05-20T06:00:00Z,47.42,-72.78,13.2,11.0,50,1,,,,1016.8,,TRUE,TRUE,,,,,,,,,,,,,,,,0.1,,,,,,,,,,,METAR,174.0
CWDO 200600Z AUTO 22014G21KT 04/M00 RMK AO1 PK WND 21023/0539 SLP214 T00421004 58008,CWDO,2023-05-20T06:00:00Z,49.68,-54.78,4.2,-0.4,220,14,21,,,1021.4,,TRUE,TRUE,,,,,,,,,,,,,,,,-0.8,,,,,,,,,,,METAR,89.0
CWDM 200600Z AUTO 21008KT 05/02 RMK AO1 SLP163 T00480024 56010,CWDM,2023-05-20T06:00:00Z,50.47,-59.63,4.8,2.4,210,8,,,,1016.3,,TRUE,TRUE,,,,,,,,,,,,,,,,-1.0,,,,,,,,,,,METAR,2.0
CWDK 200600Z AUTO 30011KT 16/07 RMK AO1 PK WND 35019/0504 SLP171 T01610067 53033,CWDK,2023-05-20T06:00:00Z,50.02,-113.62,16.1,6.7,300,11,,,,1017.1,,TRUE,TRUE,,,,,,,,,,,,,,,,3.3,,,,,,,,,,,METAR,1014.0
CWDJ 200600Z AUTO 18010KT 12/01 RMK AO1 SLP175 T01170011 58009,CWDJ,2023-05-20T06:00:00Z,50.4,-104.58,11.7,1.1,180,10,,,,1017.5,,TRUE,TRUE,,,,,,,,,,,,,,,,-0.9,,,,,,,,,,,METAR,576.0
CWDC 200600Z AUTO 07006KT 06/M00 RMK AO1 SLP217 T00621001 51029,CWDC,2023-05-20T06:00:00Z,59.57,-108.48,6.2,-0.1,70,6,,,,1021.7,,TRUE,TRUE,,,,,,,,,,,,,,,,2.9,,,,,,,,,,,METAR,311.0
CWDA 200600Z AUTO 00009KT 05/ RMK AO1 T0047,CWDA,2023-05-20T06:00:00Z,50.72,-56.12,4.7,,0,9,,,,,,TRUE,TRUE,,,,,,,,,,,,,,,,,,,,,,,,,,,METAR,30.0
CWCT 200600Z AUTO 29006KT 11/08 RMK AO1 SLP169 T01090078 51007,CWCT,2023-05-20T06:00:00Z,52.07,-111.43,10.9,7.8,290,6,,,,1016.9,,TRUE,TRUE,,,,,,,,,,,,,,,,0.7,,,,,,,,,,,METAR,793.0
CWCO 200600Z AUTO 11001KT 13/13 RMK AO1 3PAST HR 8022 SLP123 P0028 T01310126 50216,CWCO,2023-05-20T06:00:00Z,44.5,-80.22,13.1,12.6,110,1,,,,1012.3,,TRUE,TRUE,,,,,,,,,,,,,,,,0.0,,,,,0.28,,,,,,METAR,182.0
CWCJ 200600Z AUTO 06002KT 02/01 RMK AO1 SLP202 T00170007 51007,CWCJ,2023-05-20T06:00:00Z,48.6,-86.28,1.7,0.7,60,2,,,,1020.2,,TRUE,TRUE,,,,,,,,,,,,,,,,0.7,,,,,,,,,,,METAR,207.0
CWCF 200600Z AUTO 22009G16KT 13/03 RMK AO1 SLP161 T01310029 58011,CWCF,2023-05-20T06:00:00Z,52.35,-97.03,13.1,2.9,220,9,16,,,1016.1,,TRUE,TRUE,,,,,,,,,,,,,,,,-1.1,,,,,,,,,,,METAR,219.0
CWBZ 200600Z AUTO 08001KT 15/12 RMK AO1 SLP160 T01540118 58004,CWBZ,2023-05-20T06:00:00Z,45.12,-74.28,15.4,11.8,80,1,,,,1016.0,,TRUE,TRUE,,,,,,,,,,,,,,,,-0.4,,,,,,,,,,,METAR,49.0
CWBY 200600Z AUTO 04002KT 07/03 RMK AO1 SLP148 T00710031 53007,CWBY,2023-05-20T06:00:00Z,49.83,-64.28,7.1,3.1,40,2,,,,1014.8,,TRUE,TRUE,,,,,,,,,,,,,,,,0.7,,,,,,,,,,,METAR,56.0
CWBV 200600Z AUTO 21018KT 06/04 RMK AO1 PK WND 21022/0522 SLP267 T00570044 58009,CWBV,2023-05-20T06:00:00Z,44.82,-62.33,5.7,4.4,210,18,,,,1026.7,,TRUE,TRUE,,,,,,,,,,,,,,,,-0.9,,,,,,,,,,,METAR,16.0
CWBU 200600Z AUTO 19006KT 13/M02 RMK AO1 SLP126 T01291021 58005,CWBU,2023-05-20T06:00:00Z,53.33,-104.02,12.9,-2.1,190,6,,,,1012.6,,TRUE,TRUE,,,,,,,,,,,,,,,,-0.5,,,,,,,,,,,METAR,369.0
CWBT 200600Z AUTO 31001KT 06/03 RMK AO1 SLP150 T00570032 53003,CWBT,2023-05-20T06:00:00Z,50.27,-64.23,5.7,3.2,310,1,,,,1015.0,,TRUE,TRUE,,,,,,,,,,,,,,,,0.3,,,,,,,,,,,METAR,12.0
CWBS 200600Z AUTO 19019KT 16/12 RMK AO1 PK WND 20024/0537 T01640115,CWBS,2023-05-20T06:00:00Z,46.18,-72.92,16.4,11.5,190,19,,,,,,TRUE,TRUE,,,,,,,,,,,,,,,,,,,,,,,,,,,METAR,3.0
CWBO 200600Z AUTO 03010KT 18/10 RMK AO1 PK WND 01022/0510 SLP151 T01810096 51024,CWBO,2023-05-20T06:00:00Z,50.53,-111.83,18.1,9.6,30,10,,,,1015.1,,TRUE,TRUE,,,,,,,,,,,,,,,,2.4,,,,,,,,,,,METAR,752.0
CWBK 200600Z AUTO 21009KT 07/03 RMK AO1 PK WND 20022/0500 SLP258 T00730033 56008,CWBK,2023-05-20T06:00:00Z,45.77,-62.67,7.3,3.3,210,9,,,,1025.8,,TRUE,TRUE,,,,,,,,,,,,,,,,-0.8,,,,,,,,,,,METAR,2.0
CWBA 200600Z AUTO 33004KT 08/08 RMK AO1 T00830081 50001,CWBA,2023-05-20T06:00:00Z,46.72,-79.1,8.3,8.1,330,4,,,,,,TRUE,TRUE,,,,,,,,,,,,,,,,0.1,,,,,,,,,,,METAR,181.0
CWAV 200600Z AUTO 00000KT 11/06 RMK AO1 SLP183 T01140064 51013,CWAV,2023-05-20T06:00:00Z,51.77,-114.67,11.4,6.4,0,0,,,,1018.3,,TRUE,TRUE,,,,,,,,,,,,,,,,1.3,,,,,,,,,,,METAR,1115.0
CWAR 200600Z AUTO 17020KT 04/02 RMK AO1 PK WND 16026/0544 SLP304 T00390023 56017,CWAR,2023-05-20T06:00:00Z,47.28,-54.0,3.9,2.3,170,20,,,,1030.4,,TRUE,TRUE,,,,,,,,,,,,,,,,-1.7,,,,,,,,,,,METAR,6.0
CWAQ 200600Z AUTO 14010KT 11/03 RMK AO1 SLP194 T01080027 58009,CWAQ,2023-05-20T06:00:00Z,49.05,-105.48,10.8,2.7,140,10,,,,1019.4,,TRUE,TRUE,,,,,,,,,,,,,,,,-0.9,,,,,,,,,,,METAR,761.0
CWAJ 200600Z AUTO 30002KT RMK AO1 58002,CWAJ,2023-05-20T06:00:00Z,42.25,-81.9,,,300,2,,,,,,TRUE,TRUE,,,,,,,,,,,,,,,,-0.2,,,,,,,,,,,METAR,177.0
CWAF 200600Z AUTO 36008KT 13/06 RMK AO1 T01280057,CWAF,2023-05-20T06:00:00Z,48.07,-69.55,12.8,5.7,360,8,,,,,,TRUE,TRUE,,,,,,,,,,,,,,,,,,,,,,,,,,,METAR,6.0
CTNK 200600Z AUTO 00000KT 13/12 RMK AO1 3PAST HR 8007 SLP146 P0005 T01260122 50101,CTNK,2023-05-20T06:00:00Z,45.53,-78.27,12.6,12.2,0,0,,,,1014.6,,TRUE,TRUE,,,,,,,,,,,,,,,,0.0,,,,,0.05,,,,,,METAR,405.0
CTCK 200600Z AUTO 00000KT 15/12 RMK AO1 SLP156 T01520122 58004,CTCK,2023-05-20T06:00:00Z,45.25,-74.97,15.2,12.2,0,0,,,,1015.6,,TRUE,TRUE,,,,,,,,,,,,,,,,-0.4,,,,,,,,,,,METAR,84.0
CPSV 200600Z AUTO 01018KT 21/08 RMK AO1 PK WND 00025/0543 T02070079,CPSV,2023-05-20T06:00:00Z,49.92,-110.92,20.7,7.9,10,18,,,,,,TRUE,TRUE,,,,,,,,,,,,,,,,,,,,,,,,,,,METAR,766.0
CPST 200600Z AUTO 13005KT 15/08 RMK AO1 T01530078,CPST,2023-05-20T06:00:00Z,51.03,-113.28,15.3,7.8,130,5,,,,,,TRUE,TRUE,,,,,,,,,,,,,,,,,,,,,,,,,,,METAR,1005.0
CPRY 200600Z AUTO 26009KT 17/07 RMK AO1 T01670067,CPRY,2023-05-20T06:00:00Z,49.48,-112.68,16.7,6.7,260,9,,,,,,TRUE,TRUE,,,,,,,,,,,,,,,,,,,,,,,,,,,METAR,947.0
CPRO 200600Z AUTO 11007KT 15/11 RMK AO1 T01510114 50016,CPRO,2023-05-20T06:00:00Z,50.83,-112.05,15.1,11.4,110,7,,,,,,TRUE,TRUE,,,,,,,,,,,,,,,,1.6,,,,,,,,,,,METAR,733.0
CPIN 200600Z AUTO 33006KT ////SM ////// ///// A////,CPIN,2023-05-20T06:00:00Z,,,,,330,6,,,,,,TRUE,,,,,,,,,,,,,,,,,,,,,,,,,,,,METAR,
CPFI 200600Z AUTO 36006KT 18/08 RMK AO1 PK WND 28017/0503 T01790077,CPFI,2023-05-20T06:00:00Z,49.8,-112.03,17.9,7.7,360,6,,,,,,TRUE,TRUE,,,,,,,,,,,,,,,,,,,,,,,,,,,METAR,804.0
CPEH 200600Z AUTO 17/08 RMK AO1 T01710083,CPEH,2023-05-20T06:00:00Z,50.18,-112.43,17.1,8.3,,,,,,,,TRUE,TRUE,,,,,,,,,,,,,,,,,,,,,,,,,,,METAR,814.0
CPBT 200600Z AUTO 32012KT 17/06 RMK AO1 T01720055,CPBT,2023-05-20T06:00:00Z,49.53,-113.05,17.2,5.5,320,12,,,,,,TRUE,TRUE,,,,,,,,,,,,,,,,,,,,,,,,,,,METAR,998.0
CMGB 200600Z AUTO 20004KT 16/11 RMK AO1 SLP179 T01570111 58002,CMGB,2023-05-20T06:00:00Z,45.37,-72.77,15.7,11.1,200,4,,,,1017.9,,TRUE,TRUE,,,,,,,,,,,,,,,,-0.2,,,,,,,,,,,METAR,87.0
CMFM 200600Z AUTO 02001KT 10/06 RMK AO1 SLP177 T01000057 50010,CMFM,2023-05-20T06:00:00Z,47.32,-71.15,10.0,5.7,20,1,,,,1017.7,,TRUE,TRUE,,,,,,,,,,,,,,,,1.0,,,,,,,,,,,METAR,663.0
CERM 200600Z AUTO 11004KT 12/06 RMK AO1 SLP172 T01230061 55000,CERM,2023-05-20T06:00:00Z,47.42,-68.32,12.3,6.1,110,4,,,,1017.2,,TRUE,TRUE,,,,,,,,,,,,,,,,0.0,,,,,,,,,,,METAR,151.0
CBBC 200600Z AUTO 00000KT 9SM CLR 10/08 A3018 RMK SLP224,CBBC,2023-05-20T06:00:00Z,52.18,-128.15,10.0,8.0,0,0,,9.0,30.180119,1022.4,,TRUE,,,,,,,,CLR,,,,,,,,VFR,,,,,,,,,,,,METAR,36.0
CBAR 200600Z AUTO 12006KT ////SM ////// M03/M05 A3007,CBAR,2023-05-20T06:00:00Z,,,-3.0,-5.0,120,6,,,30.070866,,,TRUE,,,,,,,,,,,,,,,,,,,,,,,,,,,,METAR,
CAHR 200600Z AUTO 19016G25KT 07/02 RMK AO1 PK WND 18025/0556 SLP233 T00740023 58006,CAHR,2023-05-20T06:00:00Z,46.35,-63.17,7.4,2.3,190,16,25,,,1023.3,,TRUE,TRUE,,,,,,,,,,,,,,,,-0.6,,,,,,,,,,,METAR,52.0
BKPR 200600Z VRB02KT 0400 R17/1300D R35/0700D FG BKN003 11/11 Q1019 BECMG 0800,BKPR,2023-05-20T06:00:00Z,42.58,21.03,11.0,11.0,0,2,,0.25,30.088583,,,,,,,,,,FG,BKN,300,,,,,,,LIFR,,,,,,,,,,,,SPECI,545.0
BIRK 200600Z 21023G37KT 9999 -SHRA SCT026 BKN046 BKN067 06/03 Q1002,BIRK,2023-05-20T06:00:00Z,64.13,-21.93,6.0,3.0,210,23,37,6.21,29.586615,,,,,,,,,,-SHRA,SCT,2600,BKN,4600,BKN,6700,,,VFR,,,,,,,,,,,,METAR,12.0
BIKF 200600Z 22027G37KT 9999 VCSH FEW021CB SCT026 BKN058 06/02 Q1000,BIKF,2023-05-20T06:00:00Z,63.98,-22.6,6.0,2.0,220,27,37,6.21,29.52756,,,,,,,,,,VCSH,FEW,2100,SCT,2600,BKN,5800,,,VFR,,,,,,,,,,,,METAR,49.0
BIEG 200600Z 20010KT 9999 FEW040 SCT230 08/00 Q1003,BIEG,2023-05-20T06:00:00Z,65.27,-14.4,8.0,0.0,200,10,,6.21,29.616142,,,,,,,,,,,FEW,4000,SCT,23000,,,,,VFR,,,,,,,,,,,,METAR,20.0
BIAR 200600Z 18020G31KT 9999 FEW062 08/M01 Q0998,BIAR,2023-05-20T06:00:00Z,65.67,-18.07,8.0,-1.0,180,20,31,6.21,29.468504,,,,,,,,,,,FEW,6200,,,,,,,VFR,,,,,,,,,,,,METAR,1.0
AYMH 200600Z 30015KT 9999 SHRA FEW020 BKN040 18/17 Q1019,AYMH,2023-05-20T06:00:00Z,-5.83,144.3,18.0,17.0,300,15,,6.21,30.088583,,,,,,,,,,SHRA,FEW,2000,BKN,4000,,,,,VFR,,,,,,,,,,,,METAR,1634.0
AGGH 200600Z 27004KT 9999 FEW017TCU FEW018CB SCT100 BKN300 29/25 Q1007 RMK CB TO N,AGGH,2023-05-20T06:00:00Z,-9.42,160.05,29.0,25.0,270,4,,6.21,29.734253,,,,,,,,,,,FEW,1700,FEW,1800,SCT,10000,BKN,30000,VFR,,,,,,,,,,,,SPECI,6.0
MTPP 200559Z AUTO VRB01KT 9000 ////// 27/23 Q1012 A2990 NOSIG,MTPP,2023-05-20T05:59:00Z,18.57,-72.3,27.0,23.0,0,1,,5.59,29.88189,,,TRUE,,,TRUE,,,,,,,,,,,,,,,,,,,,,,,,,METAR,36.0
LIBG 200559Z 06006KT 9999 FEW040 18/14 Q1011,LIBG,2023-05-20T05:59:00Z,40.52,17.4,18.0,14.0,60,6,,6.21,29.852362,,,,,,,,,,,FEW,4000,,,,,,,VFR,,,,,,,,,,,,SPECI,64.0
LIBC 200559Z 03008KT 360V060 9999 SCT030 17/16 Q1011,LIBC,2023-05-20T05:59:00Z,39.0,17.07,17.0,16.0,30,8,,6.21,29.852362,,,,,,,,,,,SCT,3000,,,,,,,VFR,,,,,,,,,,,,SPECI,158.0
KVCT 200559Z AUTO 03004KT 8SM SCT017 23/23 A3005 RMK AO2 T02330228,KVCT,2023-05-20T05:59:00Z,28.87,-96.93,23.3,22.8,30,4,,8.0,30.050198,,,TRUE,TRUE,,,,,,,SCT,1700,,,,,,,VFR,,,,,,,,,,,,SPECI,33.0
KP92 200559Z AUTO VRB04KT 26/22 A3000 RMK AO1 SLP157 T02610222 10278 20261 402890222 51005,KP92,2023-05-20T05:59:00Z,29.57,-91.53,26.1,22.2,0,4,,,30.0,1015.7,,TRUE,TRUE,,,,,,,,,,,,,,,,0.5,27.8,26.1,28.9,22.2,,,,,,,METAR,1.0
KOXR 200559Z AUTO 29006KT 3SM BR OVC004 14/13 A3008 RMK AO2 T01390133,KOXR,2023-05-20T05:59:00Z,34.2,-119.2,13.9,13.3,290,6,,3.0,30.079725,,,TRUE,TRUE,,,,,,BR,OVC,400,,,,,,,LIFR,,,,,,,,,,,,SPECI,12.0
KNOZ 200559Z AUTO 15007KT 10SM CLR 28/13 A2999 RMK AO2 SLP103 T02780128 10350 20278 51026,KNOZ,2023-05-20T05:59:00Z,32.53,-114.5,27.8,12.8,150,7,,10.0,29.991142,1010.3,,TRUE,TRUE,,,,,,,CLR,,,,,,,,VFR,2.6,35.0,27.8,,,,,,,,,METAR,78.0
KNGU 200559Z 02010KT 2SM BR OVC005 18/17 A3006 RMK AO2 RAE58 SLP180 P0001 60006 T01830172 10183 20183 58026 $,KNGU,2023-05-20T05:59:00Z,36.93,-76.27,18.3,17.2,20,10,,2.0,30.059055,1018.0,,,TRUE,TRUE,,,,,BR,OVC,500,,,,,,,IFR,-2.6,18.3,18.3,,,0.01,,,,,,SPECI,3.0
KMRT 200559Z AUTO 27003KT 10SM SCT032 SCT041 SCT060 16/15 A2998 RMK AO1 P0002,KMRT,2023-05-20T05:59:00Z,40.22,-83.35,16.0,15.0,270,3,,10.0,29.97933,,,TRUE,TRUE,,,,,,,SCT,3200,SCT,4100,SCT,6000,,,VFR,,,,,,0.02,,,,,,SPECI,302.0
KI35 200559Z AUTO 00000KT 10SM SCT042 BKN070 OVC100 17/17 A3007 RMK AO2,KI35,2023-05-20T05:59:00Z,36.87,-83.37,17.0,17.0,0,0,,10.0,30.070866,,,TRUE,TRUE,,,,,,,SCT,4200,BKN,7000,OVC,10000,,,VFR,,,,,,,,,,,,METAR,467.0
KCQX 200559Z AUTO VRB03KT 10SM FEW005 OVC060 13/12 A3027 RMK AO2 T01330117,KCQX,2023-05-20T05:59:00Z,41.68,-70.0,13.3,11.7,0,3,,10.0,30.268702,,,TRUE,TRUE,,,,,,,FEW,500,OVC,6000,,,,,VFR,,,,,,,,,,,,SPECI,17.0
KCOS 200559Z 13008KT 2SM BR BKN025 OVC050 09/08 A3039 RMK AO2 T00940083,KCOS,2023-05-20T05:59:00Z,38.82,-104.68,9.4,8.3,130,8,,2.0,30.389763,,,,TRUE,,,,,,BR,BKN,2500,OVC,5000,,,,,IFR,,,,,,,,,,,,SPECI,1886.0
K2V6 200559Z AUTO 00000KT 10SM 07/00 A3033 RMK AO2,K2V6,2023-05-20T05:59:00Z,40.1,-102.72,7.0,0.0,0,0,,10.0,30.33071,,,TRUE,TRUE,,,,,,,,,,,,,,,,,,,,,,,,,,,SPECI,1257.0
K04W 200559Z AUTO 26004KT 10SM CLR 05/05 A3023 RMK AO2,K04W,2023-05-20T05:59:00Z,46.02,-92.9,5.0,5.0,260,4,,10.0,30.230314,,,TRUE,TRUE,,,,,,,CLR,,,,,,,,VFR,,,,,,,,,,,,SPECI,310.0
MUCF 200558Z AUTO 03005KT 22/22 Q1015,MUCF,2023-05-20T05:58:00Z,22.15,-80.4,22.0,22.0,30,5,,,29.970472,,,TRUE,,,,,,,,,,,,,,,,,,,,,,,,,,,,METAR,35.0
MMGL 200558Z 22014KT 6SM TSRA BKN030CB OVC090 18/12 A3029 RMK 8/96/ TSRAB56 LTGIC,MMGL,2023-05-20T05:58:00Z,20.52,-103.32,18.0,12.0,220,14,,6.0,30.28937,,,,,,,,,,TSRA,BKN,3000,OVC,9000,,,,,MVFR,,,,,,,,,,,,METAR,1531.0
KPRN 200558Z AUTO 10003KT 10SM CLR 18/17 A3004 RMK AO2 SLP120 T01780172 10228 20178 58008,KPRN,2023-05-20T05:58:00Z,31.85,-86.62,17.8,17.2,100,3,,10.0,30.041338,1012.0,,TRUE,TRUE,,,,,,,CLR,,,,,,,,VFR,-0.8,22.8,17.8,,,,,,,,,SPECI,137.0
KMRH 200558Z AUTO 03006KT 6SM -RA BR OVC003 19/19 A3000 RMK AO2 RAB50 SLP160 P0001 60006 T01940194 10211 20194 58018,KMRH,2023-05-20T05:58:00Z,34.73,-76.65,19.4,19.4,30,6,,6.0,30.0,1016.0,,TRUE,TRUE,,,,,,-RA BR,OVC,300,,,,,,,LIFR,-1.8,21.1,19.4,,,0.01,,,,,,SPECI,2.0
KMEI 200558Z AUTO 00000KT 10SM SCT022 22/21 A3004 RMK AO2 SLP168 T02220211 10283 20222 403000211 53004,KMEI,2023-05-20T05:58:00Z,32.33,-88.75,22.2,21.1,0,0,,10.0,30.041338,1016.8,,TRUE,TRUE,,,,,,,SCT,2200,,,,,,,VFR,0.4,28.3,22.2,30.0,21.1,,,,,,,SPECI,90.0
KBKF 200558Z 15005KT 6SM BR BKN040 OVC060 08/08 A3033 RMK AO2A SLP244 60000 T00820079 10109 20082 58005,KBKF,2023-05-20T05:58:00Z,39.72,-104.75,8.2,7.9,150,5,,6.0,30.33071,1024.4,,,TRUE,,,,,,BR,BKN,4000,OVC,6000,,,,,VFR,-0.5,10.9,8.2,,,,,0.005,,,,METAR,1703.0
KBCR 200558Z AUTO 00000KT 10SM CLR 20/18 A3006 RMK AO2 SLP135 6//// T02000183 10244 20194 56008 PNO $,KBCR,2023-05-20T05:58:00Z,30.85,-85.6,20.0,18.3,0,0,,10.0,30.059055,1013.5,,TRUE,TRUE,TRUE,,,,,,CLR,,,,,,,,VFR,-0.8,24.4,19.4,,,,,,,,,METAR,26.0
PHNG 200557Z AUTO 12004KT CLR 27/23 A3002 RMK AO2 SLP162 T02670228 10311 20267 53018 $,PHNG,2023-05-20T05:57:00Z,21.43,-157.77,26.7,22.8,120,4,,,30.02067,1016.2,,TRUE,TRUE,TRUE,,,,,,CLR,,,,,,,,,1.8,31.1,26.7,,,,,,,,,SPECI,1.0
MMLO 200557Z RTD 02007KT 8SM BKN030 OVC090 18/13 A3041 RMK SLP160 52020 937 8/46/ -RA E25,MMLO,2023-05-20T05:57:00Z,21.0,-101.47,18.0,13.0,20,7,,8.0,30.410433,1016.0,,,,,,,,,,BKN,3000,OVC,9000,,,,,MVFR,2.0,,,,,,,,,,,SPECI,1805.0
KNYL 200557Z COR 08006KT 7SM CLR 28/13 A2996 RMK AO2 SLP144 LAST T02830128 10356 20278 51026,KNYL,2023-05-20T05:57:00Z,32.65,-114.62,28.3,12.8,80,6,,7.0,29.958662,1014.4,TRUE,,TRUE,,,,,,,CLR,,,,,,,,VFR,2.6,35.6,27.8,,,,,,,,,SPECI,58.0
KNJW 200557Z AUTO 13006KT 6SM BR OVC003 21/20 A3006 RMK AO2 SLP092 T02110200 10239 20206 402780194 56004,KNJW,2023-05-20T05:57:00Z,32.78,-88.82,21.1,20.0,130,6,,6.0,30.059055,1009.2,,TRUE,TRUE,,,,,,BR,OVC,300,,,,,,,LIFR,-0.4,23.9,20.6,27.8,19.4,,,,,,,METAR,165.0
KNJM 200557Z AUTO 02009KT 4SM BR OVC003 18/18 A3001 RMK AO2 RAB13E24 SLP165 P0000 60003 T01830183 10200 20183 58017,KNJM,2023-05-20T05:57:00Z,34.68,-77.02,18.3,18.3,20,9,,4.0,30.008858,1016.5,,TRUE,TRUE,,,,,,BR,OVC,300,,,,,,,LIFR,-1.7,20.0,18.3,,,0.005,,,,,,SPECI,5.0
KMNM 200557Z AUTO 33006KT 10SM BKN026 OVC065 08/06 A3009 RMK AO2 SLP211 6//// T00830056 10117 20083 58003 PNO $,KMNM,2023-05-20T05:57:00Z,45.12,-87.63,8.3,5.6,330,6,,10.0,30.088583,1021.1,,TRUE,TRUE,TRUE,,,,,,BKN,2600,OVC,6500,,,,,MVFR,-0.3,11.7,8.3,,,,,,,,,METAR,188.0
KFLG 200557Z AUTO 08003KT 8SM FEW045 BKN090 BKN120 09/07 A3034 RMK AO2 SLP198 60001 T00890072 10106 20089 51007,KFLG,2023-05-20T05:57:00Z,35.13,-111.67,8.9,7.2,80,3,,8.0,30.339567,1019.8,,TRUE,TRUE,,,,,,,FEW,4500,BKN,9000,BKN,12000,,,VFR,0.7,10.6,8.9,,,,,0.01,,,,METAR,2134.0
KAQV 200557Z AUTO 27003KT 10SM CLR 24/20 A3000 RMK AO2 SLP155 T02390200 10283 20222 403390167 53011,KAQV,2023-05-20T05:57:00Z,31.4,-93.3,23.9,20.0,270,3,,10.0,30.0,1015.5,,TRUE,TRUE,,,,,,,CLR,,,,,,,,VFR,1.1,28.3,22.2,33.9,16.7,,,,,,,METAR,123.0
TJSJ 200556Z 00000KT 10SM CLR 25/24 A2995 RMK AO2 SLP142 60008 T02500239 10267 20244 58020,TJSJ,2023-05-20T05:56:00Z,18.43,-66.02,25.0,23.9,0,0,,10.0,29.949802,1014.2,,,TRUE,,,,,,,CLR,,,,,,,,VFR,-2.0,26.7,24.4,,,,,,,,,SPECI,3.0
ROTM 200556Z 32010KT 9999 BKN025 BKN150 26/19 A2986 RMK SLP095 T02600194 10265 20244 56003,ROTM,2023-05-20T05:56:00Z,26.27,127.75,26.0,19.4,320,10,,6.21,29.861221,1009.5,,,,,,,,,,BKN,2500,BKN,15000,,,,,MVFR,-0.3,26.5,24.4,,,,,,,,,SPECI,80.0
RJOI 200556Z 15008KT 10SM FEW025 FEW035 BKN045 23/17 A2979 RMK AO2 SLP088 T02280167 10244 20206 58008,RJOI,2023-05-20T05:56:00Z,34.13,132.23,22.8,16.7,150,8,,10.0,29.790354,1008.8,,,TRUE,,,,,,,FEW,2500,FEW,3500,BKN,4500,,,VFR,-0.8,24.4,20.6,,,,,,,,,SPECI,2.0
PTSA 200556Z 11002KT 10SM VCSH BKN019TCU BKN130 BKN300 29/24 A2973 RMK VCSH N TCU NW-N,PTSA,2023-05-20T05:56:00Z,5.35,162.95,29.0,24.0,110,2,,10.0,29.731298,,,,,,,,,,VCSH,BKN,1900,BKN,13000,BKN,30000,,,MVFR,,,,,,,,,,,,SPECI,3.0
PPIZ 200556Z AUTO 23016KT 10SM CLR 00/M02 A2992 RMK AO2 SLP136 T00001017 10028 20000 53005 FZRANO,PPIZ,2023-05-20T05:56:00Z,69.73,-163.0,0.0,-1.7,230,16,,10.0,29.920275,1013.6,,TRUE,TRUE,,,,TRUE,,,CLR,,,,,,,,VFR,0.5,2.8,0.0,,,,,,,,,METAR,5.0
PHNY 200556Z AUTO 33004KT 10SM CLR 21/21 A3011 RMK AO2 SLP176 T02110206 10278 20211 51013,PHNY,2023-05-20T05:56:00Z,20.77,-156.95,21.1,20.6,330,4,,10.0,30.109253,1017.6,,TRUE,TRUE,,,,,,,CLR,,,,,,,,VFR,1.3,27.8,21.1,,,,,,,,,SPECI,395.0
PFYU 200556Z AUTO 02004KT 10SM CLR 17/00 A2981 RMK AO2 SLP103 T01720000 10200 20172 55009,PFYU,2023-05-20T05:56:00Z,66.57,-145.23,17.2,0.0,20,4,,10.0,29.811024,1010.3,,TRUE,TRUE,,,,,,,CLR,,,,,,,,VFR,-0.9,20.0,17.2,,,,,,,,,METAR,130.0
PFSH 200556Z AUTO 01021KT 10SM CLR 08/00 A2987 RMK AO2 PK WND 01028/0458 SLP115 T00780000 10122 20078 53012,PFSH,2023-05-20T05:56:00Z,64.37,-161.22,7.8,0.0,10,21,,10.0,29.870079,1011.5,,TRUE,TRUE,,,,,,,CLR,,,,,,,,VFR,1.2,12.2,7.8,,,,,,,,,METAR,6.0
PFNO 200556Z AUTO 30007KT 10SM CLR 08/M01 A2996 RMK AO2 SLP227 T00831006 10111 20083 56003 $,PFNO,2023-05-20T05:56:00Z,66.82,-161.02,8.3,-0.6,300,7,,10.0,29.958662,1022.7,,TRUE,TRUE,TRUE,,,,,,CLR,,,,,,,,VFR,-0.3,11.1,8.3,,,,,,,,,METAR,14.0
PFKW 200556Z AUTO 12006KT 10SM -RA BKN075 OVC090 10/06 A2979 RMK AO2 SLP088 P0001 60001 T01000061 10144 20100 51021,PFKW,2023-05-20T05:56:00Z,60.8,-161.43,10.0,6.1,120,6,,10.0,29.790354,1008.8,,TRUE,TRUE,,,,,,-RA,BKN,7500,OVC,9000,,,,,VFR,2.1,14.4,10.0,,,0.01,,0.01,,,,METAR,4.0
PFKT 200556Z AUTO 24004KT 10SM 01/M01 A2999 RMK AO2 SLP155 T00111006 10083 20006 55001 FZRANO $,PFKT,2023-05-20T05:56:00Z,65.33,-166.47,1.1,-0.6,240,4,,10.0,29.991142,1015.5,,TRUE,TRUE,TRUE,,,TRUE,,,,,,,,,,,,-0.1,8.3,0.6,,,,,,,,,METAR,8.0
PFEL 200556Z AUTO 36012KT 10SM CLR 11/M02 A2988 RMK AO2 SLP120 T01111022 10139 20111 53003,PFEL,2023-05-20T05:56:00Z,64.62,-162.27,11.1,-2.2,360,12,,10.0,29.878937,1012.0,,TRUE,TRUE,,,,,,,CLR,,,,,,,,VFR,0.3,13.9,11.1,,,,,,,,,METAR,50.0
PFCL 200556Z AUTO 07006KT 10SM BKN045 OVC055 09/06 A2978 RMK AO2 RAE19 SLP076 P0000 60000 T00940061 10150 20094 51027 TSNO,PFCL,2023-05-20T05:56:00Z,58.83,-158.53,9.4,6.1,70,6,,10.0,29.778543,1007.6,,TRUE,TRUE,,,TRUE,,,,BKN,4500,OVC,5500,,,,,VFR,2.7,15.0,9.4,,,0.005,,0.005,,,,METAR,23.0
PAZK 200556Z AUTO 20007KT 10SM CLR 08/02 A2995 RMK AO2 SLP164 T00780017 10139 20078 53009,PAZK,2023-05-20T05:56:00Z,61.93,-147.17,7.8,1.7,200,7,,10.0,29.949802,1016.4,,TRUE,TRUE,,,,,,,CLR,,,,,,,,VFR,0.9,13.9,7.8,,,,,,,,,METAR,1002.0
PAWS 200556Z AUTO 03007KT 10SM CLR 14/04 A2999 RMK AO2 SLP157 T01390039 10178 20139 53009,PAWS,2023-05-20T05:56:00Z,61.57,-149.53,13.9,3.9,30,7,,10.0,29.991142,1015.7,,TRUE,TRUE,,,,,,,CLR,,,,,,,,VFR,0.9,17.8,13.9,,,,,,,,,METAR,102.0
PAWN 200556Z AUTO 32007KT 10SM CLR 04/M01 RMK AO2 SLPNO T00391006 10078 20039 $,PAWN,2023-05-20T05:56:00Z,67.57,-162.98,3.9,-0.6,320,7,,10.0,,,,TRUE,TRUE,TRUE,,,,,,CLR,,,,,,,,VFR,,7.8,3.9,,,,,,,,,METAR,26.0
PAWM 200556Z AUTO 35008KT 8SM CLR 11/M03 A2991 RMK AO2 SLP131 T01061028 10117 20094 55001,PAWM,2023-05-20T05:56:00Z,64.68,-163.42,10.6,-2.8,350,8,,8.0,29.911417,1013.1,,TRUE,TRUE,,,,,,,CLR,,,,,,,,VFR,-0.1,11.7,9.4,,,,,,,,,METAR,80.0
PAWG 200556Z VRB03KT 10SM BKN050 OVC070 14/10 A3022,PAWG,2023-05-20T05:56:00Z,56.48,-132.37,14.0,10.0,0,3,,10.0,30.221457,,,,,,,,,,,BKN,5000,OVC,7000,,,,,VFR,,,,,,,,,,,,METAR,6.0
PAVC 200556Z AUTO 35010KT 10SM OVC011 04/04 A2959 RMK AO2 RAE10 SLP020 6//// T00440044 10072 20044 53018 PNO $,PAVC,2023-05-20T05:56:00Z,55.12,-162.27,4.4,4.4,350,10,,10.0,29.589567,1002.0,,TRUE,TRUE,TRUE,,,,,,OVC,1100,,,,,,,MVFR,1.8,7.2,4.4,,,,,,,,,METAR,48.0
PAUN 200556Z AUTO 30006KT 10SM CLR 08/02 A2983 RMK AO2 SLP106 T00830017 10178 20083 53006,PAUN,2023-05-20T05:56:00Z,63.88,-160.8,8.3,1.7,300,6,,10.0,29.828741,1010.6,,TRUE,TRUE,,,,,,,CLR,,,,,,,,VFR,0.6,17.8,8.3,,,,,,,,,METAR,4.0
PATQ 200556Z AUTO 25015KT 10SM CLR 02/M01 A2986 RMK AO2 SLP116 T00221011 10078 20022 56009 FZRANO TSNO,PATQ,2023-05-20T05:56:00Z,70.47,-157.43,2.2,-1.1,250,15,,10.0,29.861221,1011.6,,TRUE,TRUE,,,TRUE,TRUE,,,CLR,,,,,,,,VFR,-0.9,7.8,2.2,,,,,,,,,METAR,28.0
PATE 200556Z AUTO 00000KT 10SM CLR 06/M01 A2997 RMK AO2 SLP154 T00561006 10072 20044 56002,PATE,2023-05-20T05:56:00Z,65.23,-166.33,5.6,-0.6,0,0,,10.0,29.970472,1015.4,,TRUE,TRUE,,,,,,,CLR,,,,,,,,VFR,-0.2,7.2,4.4,,,,,,,,,METAR,93.0
PASX 200556Z AUTO 07006KT 10SM CLR 13/04 A2997 RMK AO2 SLP156 T01280044 10161 20128 53010,PASX,2023-05-20T05:56:00Z,60.48,-151.05,12.8,4.4,70,6,,10.0,29.970472,1015.6,,TRUE,TRUE,,,,,,,CLR,,,,,,,,VFR,1.0,16.1,12.8,,,,,,,,,METAR,28.0
PASM 200556Z AUTO 00000KT 10SM OVC090 11/02 A2984 RMK AO2 SLP113 T01060022 10150 20106 53013,PASM,2023-05-20T05:56:00Z,62.07,-163.3,10.6,2.2,0,0,,10.0,29.840551,1011.3,,TRUE,TRUE,,,,,,,OVC,9000,,,,,,,VFR,1.3,15.0,10.6,,,,,,,,,METAR,108.0
PASL 200556Z AUTO 00000KT 10SM BKN100 13/07 A2989 RMK AO2 SLP111 60000 T01280067 10189 20128 53017,PASL,2023-05-20T05:56:00Z,61.68,-157.15,12.8,6.7,0,0,,10.0,29.890747,1011.1,,TRUE,TRUE,,,,,,,BKN,10000,,,,,,,VFR,1.7,18.9,12.8,,,,,0.005,,,,METAR,64.0
PASK 200556Z AUTO 29007KT 10SM CLR 06/M01 A2995 RMK AO2 SLP140 T00611011 10094 20061 55002,PASK,2023-05-20T05:56:00Z,66.6,-160.0,6.1,-1.1,290,7,,10.0,29.949802,1014.0,,TRUE,TRUE,,,,,,,CLR,,,,,,,,VFR,-0.2,9.4,6.1,,,,,,,,,METAR,3.0
PARY 200556Z AUTO 00000KT 10SM CLR 19/00 A2979 RMK AO2 SLP093 T01890000 10194 20183 53001,PARY,2023-05-20T05:56:00Z,64.73,-155.47,18.9,0.0,0,0,,10.0,29.790354,1009.3,,TRUE,TRUE,,,,,,,CLR,,,,,,,,VFR,0.1,19.4,18.3,,,,,,,,,METAR,185.0
PARC 200556Z AUTO 30005KT 10SM CLR 09/M04 A2989 RMK AO2 SLP154 T00891039 10111 20089 56009,PARC,2023-05-20T05:56:00Z,68.12,-145.58,8.9,-3.9,300,5,,10.0,29.890747,1015.4,,TRUE,TRUE,,,,,,,CLR,,,,,,,,VFR,-0.9,11.1,8.9,,,,,,,,,METAR,626.0
PAPO 200556Z AUTO 16004KT 10SM CLR 01/M02 A3000 RMK AO2 SLP158 6//// T00061017 10028 20006 53004 FZRANO PNO $,PAPO,2023-05-20T05:56:00Z,68.35,-166.8,0.6,-1.7,160,4,,10.0,30.0,1015.8,,TRUE,TRUE,TRUE,,,TRUE,,,CLR,,,,,,,,VFR,0.4,2.8,0.6,,,,,,,,,METAR,4.0
PAPN 200556Z AUTO 10015G23KT 8SM OVC040 07/03 A2972 RMK AO2 SLP066 T00670033 10128 20067 53019,PAPN,2023-05-20T05:56:00Z,57.58,-157.57,6.7,3.3,100,15,23,8.0,29.719488,1006.6,,TRUE,TRUE,,,,,,,OVC,4000,,,,,,,VFR,1.9,12.8,6.7,,,,,,,,,METAR,19.0
PAPM 200556Z AUTO 06012KT 10SM -RA BKN049 OVC060 08/06 A2974 RMK AO2 RAB45 SLP073 P0000 60000 T00830061 10156 20083 53022,PAPM,2023-05-20T05:56:00Z,59.02,-161.82,8.3,6.1,60,12,,10.0,29.740158,1007.3,,TRUE,TRUE,,,,,,-RA,BKN,4900,OVC,6000,,,,,VFR,2.2,15.6,8.3,,,0.005,,0.005,,,,METAR,4.0
PAPH 200556Z AUTO 08005KT 10SM OVC036 07/02 A2969 RMK AO2 SLP055 60000 T00670022 10122 20067 51022,PAPH,2023-05-20T05:56:00Z,56.95,-158.62,6.7,2.2,80,5,,10.0,29.68996,1005.5,,TRUE,TRUE,,,,,,,OVC,3600,,,,,,,VFR,2.2,12.2,6.7,,,,,0.005,,,,METAR,29.0
PAPG 200556Z 08005KT 10SM FEW035 OVC055 11/10 A3023 RMK AO2 SLP238 6//// T01110100 10161 20111 51005,PAPG,2023-05-20T05:56:00Z,56.82,-132.93,11.1,10.0,80,5,,10.0,30.230314,1023.8,,,TRUE,,,,,,,FEW,3500,OVC,5500,,,,,VFR,0.5,16.1,11.1,,,,,,,,,METAR,24.0
PAOO 200556Z AUTO OVC080 09/03 A2979 RMK AO2 SLP093 T00940033 10111 20094 51017 PWINO TSNO $,PAOO,2023-05-20T05:56:00Z,60.53,-165.08,9.4,3.3,,,,,29.790354,1009.3,,TRUE,TRUE,TRUE,,TRUE,,TRUE,,OVC,8000,,,,,,,,1.7,11.1,9.4,,,,,,,,,METAR,15.0
PAOH 200556Z AUTO 00000KT 10SM BKN017 OVC026 12/10 A3021 RMK AO2 SLPNO 60000 T01220100 10150 20122 53007,PAOH,2023-05-20T05:56:00Z,58.1,-135.45,12.2,10.0,0,0,,10.0,30.209646,,,TRUE,TRUE,,,,,,,BKN,1700,OVC,2600,,,,,MVFR,0.7,15.0,12.2,,,,,0.005,,,,METAR,0.0
PANW 200556Z AUTO 09018G25KT 10SM FEW080 BKN120 08/04 A2982 RMK AO2 PK WND 10030/0500 SLP102 60000 T00780044 10106 20078 51017,PANW,2023-05-20T05:56:00Z,59.45,-157.32,7.8,4.4,90,18,25,10.0,29.819881,1010.2,,TRUE,TRUE,,,,,,,FEW,8000,BKN,12000,,,,,VFR,1.7,10.6,7.8,,,,,0.005,,,,METAR,100.0
PANV 200556Z AUTO 03004KT 10SM 16/01 A2980 RMK AO2 SLP149 T01610006 10183 20161 53014 TSNO $,PANV,2023-05-20T05:56:00Z,62.65,-160.18,16.1,0.6,30,4,,10.0,29.799213,1014.9,,TRUE,TRUE,TRUE,,TRUE,,,,,,,,,,,,,1.4,18.3,16.1,,,,,,,,,METAR,91.0
PANI 200556Z AUTO 17010KT 10SM -RA OVC080 12/05 A2990 RMK AO2 RAB49 SLP116 P0000 60000 T01220050 10183 20122 51026 $,PANI,2023-05-20T05:56:00Z,61.58,-159.53,12.2,5.0,170,10,,10.0,29.899607,1011.6,,TRUE,TRUE,TRUE,,,,,-RA,OVC,8000,,,,,,,VFR,2.6,18.3,12.2,,,0.005,,0.005,,,,METAR,21.0
PAMY 200556Z AUTO 33003KT 10SM OVC085 02/00 A2982 RMK AO2 SLP097 6//// T00220000 10044 20022 53007 FZRANO PNO $,PAMY,2023-05-20T05:56:00Z,60.37,-166.27,2.2,0.0,330,3,,10.0,29.819881,1009.7,,TRUE,TRUE,TRUE,,,TRUE,,,OVC,8500,,,,,,,VFR,0.7,4.4,2.2,,,,,,,,,METAR,14.0
PAMO 200556Z AUTO 35009KT 10SM OVC120 09/03 A2984 RMK AO2 SLP110 T00890033 10117 20083 53014,PAMO,2023-05-20T05:56:00Z,62.1,-163.68,8.9,3.3,350,9,,10.0,29.840551,1011.0,,TRUE,TRUE,,,,,,,OVC,12000,,,,,,,VFR,1.4,11.7,8.3,,,,,,,,,METAR,93.0
PAMM 200556Z AUTO 00000KT 10SM OVC040 12/09 A3022 RMK AO2 SLP329 T01220094 10128 20117 58000 $,PAMM,2023-05-20T05:56:00Z,55.13,-131.58,12.2,9.4,0,0,,10.0,30.221457,1032.9,,TRUE,TRUE,TRUE,,,,,,OVC,4000,,,,,,,VFR,0.0,12.8,11.7,,,,,,,,,METAR,0.0
PAMK 200556Z AUTO VRB06KT 10SM OVC110 07/00 A2989 RMK AO2 SLP121 T00720000 10078 20061 53012,PAMK,2023-05-20T05:56:00Z,63.48,-162.12,7.2,0.0,0,6,,10.0,29.890747,1012.1,,TRUE,TRUE,,,,,,,OVC,11000,,,,,,,VFR,1.2,7.8,6.1,,,,,,,,,METAR,31.0
PAMH 200556Z AUTO 22011G18KT 10SM BKN120 18/03 A2979 RMK AO2 SLP085 T01830033 10222 20183 53012,PAMH,2023-05-20T05:56:00Z,63.9,-152.28,18.3,3.3,220,11,18,10.0,29.790354,1008.5,,TRUE,TRUE,,,,,,,BKN,12000,,,,,,,VFR,1.2,22.2,18.3,,,,,,,,,METAR,200.0
PAMB 200556Z AUTO 04007KT 9SM BKN020 OVC028 08/07 A2978 RMK AO2 RAE50 SLP087 P0000 60000 T00780067 10144 20078 51024 $,PAMB,2023-05-20T05:56:00Z,58.98,-159.05,7.8,6.7,40,7,,9.0,29.778543,1008.7,,TRUE,TRUE,TRUE,,,,,,BKN,2000,OVC,2800,,,,,MVFR,2.4,14.4,7.8,,,0.005,,0.005,,,,METAR,28.0
PALG 200556Z AUTO 10005KT 10SM OVC080 11/04 A2983 RMK AO2 RAB15E41 SLP105 P0000 60000 T01060044 10172 20106 51025,PALG,2023-05-20T05:56:00Z,61.53,-160.33,10.6,4.4,100,5,,10.0,29.828741,1010.5,,TRUE,TRUE,,,,,,,OVC,8000,,,,,,,VFR,2.5,17.2,10.6,,,0.005,,0.005,,,,METAR,13.0
PAKP 200556Z AUTO 00000KT 10SM CLR 09/M03 A2986 RMK AO2 SLP141 T00891028 10122 20089 56006,PAKP,2023-05-20T05:56:00Z,68.13,-151.73,8.9,-2.8,0,0,,10.0,29.861221,1014.1,,TRUE,TRUE,,,,,,,CLR,,,,,,,,VFR,-0.6,12.2,8.9,,,,,,,,,METAR,649.0
PAKI 200556Z AUTO 10SM -RA BKN065 OVC085 07/04 A2975 RMK AO2 RAB0457 SLP076 P0000 60000 T00670044 10089 20067 53011 $,PAKI,2023-05-20T05:56:00Z,59.93,-164.03,6.7,4.4,,,,10.0,29.749016,1007.6,,TRUE,TRUE,TRUE,,,,,-RA,BKN,6500,OVC,8500,,,,,VFR,1.1,8.9,6.7,,,0.005,,0.005,,,,METAR,4.0
PAKH 200556Z AUTO 10SM BKN027 OVC036 07/03 A2977 RMK AO2 RAB0459E27 SLP081 P0000 60000 T00670033 10072 20061 53012 TSNO $,PAKH,2023-05-20T05:56:00Z,56.93,-154.18,6.7,3.3,,,,10.0,29.769686,1008.1,,TRUE,TRUE,TRUE,,TRUE,,,,BKN,2700,OVC,3600,,,,,MVFR,1.2,7.2,6.1,,,0.005,,0.005,,,,METAR,15.0
PAJZ 200556Z AUTO 10024G34KT 9SM BKN120 08/04 A2990 RMK AO2 PK WND 10034/0553 SLP133 60000 T00830044 10094 20083 51015 $,PAJZ,2023-05-20T05:56:00Z,59.73,-157.27,8.3,4.4,100,24,34,9.0,29.899607,1013.3,,TRUE,TRUE,TRUE,,,,,,BKN,12000,,,,,,,VFR,1.5,9.4,8.3,,,,,0.005,,,,METAR,80.0
PAIN 200556Z AUTO 17009KT 140V200 10SM CLR 16/01 A2990 RMK AO2 SLP130 T01610006 10206 20161 53020,PAIN,2023-05-20T05:56:00Z,63.73,-148.92,16.1,0.6,170,9,,10.0,29.899607,1013.0,,TRUE,TRUE,,,,,,,CLR,,,,,,,,VFR,2.0,20.6,16.1,,,,,,,,,METAR,525.0
PAIK 200556Z AUTO 32008KT 10SM CLR 10/M04 A2997 RMK AO2 SLP149 T01001044 10122 20100 55002,PAIK,2023-05-20T05:56:00Z,66.98,-160.43,10.0,-4.4,320,8,,10.0,29.970472,1014.9,,TRUE,TRUE,,,,,,,CLR,,,,,,,,VFR,-0.2,12.2,10.0,,,,,,,,,METAR,49.0
PAIG 200556Z AUTO 09014G19KT 10SM CLR 07/04 A2984 RMK AO2 SLP113 T00720039 10100 20050 50018 $,PAIG,2023-05-20T05:56:00Z,59.32,-155.9,7.2,3.9,90,14,19,10.0,29.840551,1011.3,,TRUE,TRUE,TRUE,,,,,,CLR,,,,,,,,VFR,1.8,10.0,5.0,,,,,,,,,METAR,24.0
PAHL 200556Z AUTO 34007KT 10SM CLR 17/M02 A2984 RMK AO2 SLP108 T01671017 10189 20167 53000,PAHL,2023-05-20T05:56:00Z,65.7,-156.35,16.7,-1.7,340,7,,10.0,29.840551,1010.8,,TRUE,TRUE,,,,,,,CLR,,,,,,,,VFR,0.0,18.9,16.7,,,,,,,,,METAR,49.0
PAHC 200556Z AUTO 21007KT 10SM SCT075 16/06 A2982 RMK AO2 SLP104 T01560056 10189 20156 53024,PAHC,2023-05-20T05:56:00Z,62.18,-159.78,15.6,5.6,210,7,,10.0,29.819881,1010.4,,TRUE,TRUE,,,,,,,SCT,7500,,,,,,,VFR,2.4,18.9,15.6,,,,,,,,,METAR,21.0
PAGS 200556Z AUTO 27003KT 5SM -RA BR OVC003 11/11 A3023 RMK AO2 RAB06 SLP236 P0001 60002 T01060106 10150 20106 51006,PAGS,2023-05-20T05:56:00Z,58.42,-135.7,10.6,10.6,270,3,,5.0,30.230314,1023.6,,TRUE,TRUE,,,,,,-RA BR,OVC,300,,,,,,,LIFR,0.6,15.0,10.6,,,0.01,,0.02,,,,METAR,9.0
PAGN 200556Z AUTO VRB04KT 10SM BKN028 OVC034 11/10 A3023 RMK AO2 SLP227 60000 T01060100 10133 20106 53004,PAGN,2023-05-20T05:56:00Z,57.5,-134.58,10.6,10.0,0,4,,10.0,30.230314,1022.7,,TRUE,TRUE,,,,,,,BKN,2800,OVC,3400,,,,,MVFR,0.4,13.3,10.6,,,,,0.005,,,,METAR,2.0
PAFM 200556Z AUTO 03006KT 10SM CLR 10/M02 A2994 RMK AO2 SLP143 T01001022 10139 20100 55002,PAFM,2023-05-20T05:56:00Z,67.1,-157.85,10.0,-2.2,30,6,,10.0,29.940945,1014.3,,TRUE,TRUE,,,,,,,CLR,,,,,,,,VFR,-0.2,13.9,10.0,,,,,,,,,METAR,79.0
PADU 200556Z AUTO 32022G27KT 10SM -RA OVC017 04/02 A2969 RMK AO2 PK WND 32029/0516 SLP060 P0000 60003 T00440017 10044 20033 53001,PADU,2023-05-20T05:56:00Z,53.9,-166.53,4.4,1.7,320,22,27,10.0,29.68996,1006.0,,TRUE,TRUE,,,,,,-RA,OVC,1700,,,,,,,MVFR,0.1,4.4,3.3,,,0.005,,0.03,,,,METAR,4.0
PADM 200556Z AUTO 07008KT 10SM OVC070 13/04 A2986 RMK AO2 RAB25E51 SLP116 P0000 60000 T01330039 10183 20122 51022,PADM,2023-05-20T05:56:00Z,61.87,-162.03,13.3,3.9,70,8,,10.0,29.861221,1011.6,,TRUE,TRUE,,,,,,,OVC,7000,,,,,,,VFR,2.2,18.3,12.2,,,0.005,,0.005,,,,METAR,17.0
PADL 200556Z AUTO 04007KT 10SM BKN050 OVC060 08/07 A2980 RMK AO2 RAE25 SLPNO P0000 6//// T00830067 10122 20083 52027,PADL,2023-05-20T05:56:00Z,59.05,-158.5,8.3,6.7,40,7,,10.0,29.799213,,,TRUE,TRUE,,,,,,,BKN,5000,OVC,6000,,,,,VFR,2.7,12.2,8.3,,,0.005,,,,,,METAR,20.0
PADK 200556Z AUTO 03005KT OVC023 05/01 A2993 RMK AO2 SLP137 T00500011 10078 20050 58007 PWINO $,PADK,2023-05-20T05:56:00Z,51.88,-176.65,5.0,1.1,30,5,,,29.929134,1013.7,,TRUE,TRUE,TRUE,,,,TRUE,,OVC,2300,,,,,,,,-0.7,7.8,5.0,,,,,,,,,METAR,3.0
PACM 200556Z AUTO VRB03KT OVC100 04/M01 A2993 RMK AO2 SLP131 T00441006 10050 20039 53007 PWINO $,PACM,2023-05-20T05:56:00Z,61.85,-165.57,4.4,-0.6,0,3,,,29.929134,1013.1,,TRUE,TRUE,TRUE,,,,TRUE,,OVC,10000,,,,,,,,0.7,5.0,3.9,,,,,,,,,METAR,3.0
PABV 200556Z AUTO 00000KT 10SM FEW110 14/06 A2997 RMK AO2 SLP153 T01390056 10178 20133 53006,PABV,2023-05-20T05:56:00Z,61.42,-149.52,13.9,5.6,0,0,,10.0,29.970472,1015.3,,TRUE,TRUE,,,,,,,FEW,11000,,,,,,,VFR,0.6,17.8,13.3,,,,,,,,,METAR,21.0
PABL 200556Z AUTO 30010KT 10SM CLR 06/M01 A2997 RMK AO2 SLP151 T00611011 10106 20061 53003,PABL,2023-05-20T05:56:00Z,65.98,-161.15,6.1,-1.1,300,10,,10.0,29.970472,1015.1,,TRUE,TRUE,,,,,,,CLR,,,,,,,,VFR,0.3,10.6,6.1,,,,,,,,,METAR,7.0
PAAK 200556Z AUTO 30006KT 10SM OVC029 04/00 A2995 RMK AO2 SLP142 T00390000 10044 20033 56006,PAAK,2023-05-20T05:56:00Z,52.22,-174.2,3.9,0.0,300,6,,10.0,29.949802,1014.2,,TRUE,TRUE,,,,,,,OVC,2900,,,,,,,MVFR,-0.6,4.4,3.3,,,,,,,,,METAR,11.0
KYKN 200556Z AUTO 00000KT 10SM CLR 07/04 A3028 RMK AO2 SLP273 T00720039 10144 20072 401440056 51008,KYKN,2023-05-20T05:56:00Z,42.92,-97.37,7.2,3.9,0,0,,10.0,30.280512,1027.3,,TRUE,TRUE,,,,,,,CLR,,,,,,,,VFR,0.8,14.4,7.2,14.4,5.6,,,,,,,METAR,388.0
KY50 200556Z AUTO 32004KT 10SM FEW050 09/06 A3014 RMK AO2 SLP207 T00890056 10139 20089 401670089 50003 $,KY50,2023-05-20T05:56:00Z,44.03,-89.3,8.9,5.6,320,4,,10.0,30.138779,1020.7,,TRUE,TRUE,TRUE,,,,,,FEW,5000,,,,,,,VFR,0.3,13.9,8.9,16.7,8.9,,,,,,,METAR,261.0
KWVL 200556Z AUTO 21009KT 10SM CLR 11/08 A3016 RMK AO2 SLP240 T01060078 10128 20106 55005,KWVL,2023-05-20T05:56:00Z,44.52,-69.67,10.6,7.8,210,9,,10.0,30.159449,1024.0,,TRUE,TRUE,,,,,,,CLR,,,,,,,,VFR,-0.5,12.8,10.6,,,,,,,,,METAR,87.0
KWMC 200556Z AUTO 00000KT 10SM CLR 17/05 A3012 RMK AO2 SLP153 T01720050 10300 20150 51010,KWMC,2023-05-20T05:56:00Z,40.9,-117.8,17.2,5.0,0,0,,10.0,30.121063,1015.3,,TRUE,TRUE,,,,,,,CLR,,,,,,,,VFR,1.0,30.0,15.0,,,,,,,,,METAR,1311.0
KWJF 200556Z AUTO 23011KT 10SM CLR 22/10 A3003 RMK AO2 SLP147 T02170100 10300 20217 51016,KWJF,2023-05-20T05:56:00Z,34.73,-118.22,21.7,10.0,230,11,,10.0,30.029528,1014.7,,TRUE,TRUE,,,,,,,CLR,,,,,,,,VFR,1.6,30.0,21.7,,,,,,,,,METAR,712.0
KVPZ 200556Z AUTO 35003KT 7SM CLR 10/07 A3007 RMK AO2 SLP183 T01000072 10150 20100 402280100 51006 $,KVPZ,2023-05-20T05:56:00Z,41.45,-87.0,10.0,7.2,350,3,,7.0,30.070866,1018.3,,TRUE,TRUE,TRUE,,,,,,CLR,,,,,,,,VFR,0.6,15.0,10.0,22.8,10.0,,,,,,,METAR,235.0
KVIS 200556Z AUTO 31011KT 10SM CLR 24/12 A2997 RMK AO2 SLP153 T02440122 10339 20244 51019,KVIS,2023-05-20T05:56:00Z,36.32,-119.4,24.4,12.2,310,11,,10.0,29.970472,1015.3,,TRUE,TRUE,,,,,,,CLR,,,,,,,,VFR,1.9,33.9,24.4,,,,,,,,,METAR,92.0
KUKI 200556Z AUTO 01004KT 10SM CLR 15/09 A3006 RMK AO2 SLP172 T01500089 10294 20150 51016,KUKI,2023-05-20T05:56:00Z,39.12,-123.2,15.0,8.9,10,4,,10.0,30.059055,1017.2,,TRUE,TRUE,,,,,,,CLR,,,,,,,,VFR,1.6,29.4,15.0,,,,,,,,,METAR,183.0
KUDG 200556Z AUTO 01006KT 10SM OVC008 18/18 A3008 RMK AO2 RAB10E23 CIG 004V010 SLP186 P0000 60000 T01830183 10194 20183 56008,KUDG,2023-05-20T05:56:00Z,34.45,-79.88,18.3,18.3,10,6,,10.0,30.079725,1018.6,,TRUE,TRUE,,,,,,,OVC,800,,,,,,,IFR,-0.8,19.4,18.3,,,0.005,,0.005,,,,METAR,57.0
KUCP 200556Z AUTO 16005KT 10SM FEW045 SCT100 18/15 A2997 RMK AO2 SLP160 T01830150 10206 20183 58011,KUCP,2023-05-20T05:56:00Z,41.03,-80.42,18.3,15.0,160,5,,10.0,29.970472,1016.0,,TRUE,TRUE,,,,,,,FEW,4500,SCT,10000,,,,,VFR,-1.1,20.6,18.3,,,,,,,,,METAR,313.0
KTVF 200556Z AUTO 23006KT 10SM CLR 10/03 A3024 RMK AO2 SLP246 T01000033 10189 20094 50001,KTVF,2023-05-20T05:56:00Z,48.07,-96.17,10.0,3.3,230,6,,10.0,30.239174,1024.6,,TRUE,TRUE,,,,,,,CLR,,,,,,,,VFR,0.1,18.9,9.4,,,,,,,,,METAR,339.0
KTPH 200556Z AUTO A3018 RMK AO2 SLPNO 53012 PWINO $,KTPH,2023-05-20T05:56:00Z,38.05,-117.08,,,,,,,30.180119,,,TRUE,TRUE,TRUE,,,,TRUE,,,,,,,,,,,1.2,,,,,,,,,,,METAR,1647.0
KSUE 200556Z AUTO 33011KT 10SM OVC019 09/06 A3009 RMK AO2 SLP189 6//// T00890061 10117 20083 401670083 58000,KSUE,2023-05-20T05:56:00Z,44.85,-87.42,8.9,6.1,330,11,,10.0,30.088583,1018.9,,TRUE,TRUE,,,,,,,OVC,1900,,,,,,,MVFR,0.0,11.7,8.3,16.7,8.3,,,,,,,METAR,215.0
KSQI 200556Z AUTO 33006KT 10SM CLR 11/06 A3014 RMK AO2 SLP070 T01060061 10167 20106 402000106 51005,KSQI,2023-05-20T05:56:00Z,41.75,-89.67,10.6,6.1,330,6,,10.0,30.138779,1007.0,,TRUE,TRUE,,,,,,,CLR,,,,,,,,VFR,0.5,16.7,10.6,20.0,10.6,,,,,,,METAR,196.0
KSPD 200556Z AUTO 00000KT 08/07 A3035 RMK AO1 SLP252 T00830067 10156 20083 50009,KSPD,2023-05-20T05:56:00Z,37.28,-102.62,8.3,6.7,0,0,,,30.351377,1025.2,,TRUE,TRUE,,,,,,,,,,,,,,,,0.9,15.6,8.3,,,,,,,,,METAR,1340.0
KSMP 200556Z AUTO 22003KT 8SM SCT075 14/13 A3019 RMK AO2 SLP198 T01390128 10233 20139 53008,KSMP,2023-05-20T05:56:00Z,47.28,-121.33,13.9,12.8,220,3,,8.0,30.188976,1019.8,,TRUE,TRUE,,,,,,,SCT,7500,,,,,,,VFR,0.8,23.3,13.9,,,,,,,,,SPECI,1206.0
KSMN 200556Z AUTO 00000KT 10SM CLR 15/07 A3016 RMK AO2 SLP902 60000 T01500067 10278 20144 51021,KSMN,2023-05-20T05:56:00Z,45.12,-113.87,15.0,6.7,0,0,,10.0,30.159449,990.2,,TRUE,TRUE,,,,,,,CLR,,,,,,,,VFR,2.1,27.8,14.4,,,,,0.005,,,,METAR,1228.0
KSLG 200556Z AUTO 36010KT 4SM BR OVC006 13/13 A3016 RMK AO2 SLP204 60001 T01330133 10172 20133 402170133 51017,KSLG,2023-05-20T05:56:00Z,36.2,-94.48,13.3,13.3,360,10,,4.0,30.159449,1020.4,,TRUE,TRUE,,,,,,BR,OVC,600,,,,,,,IFR,1.7,17.2,13.3,21.7,13.3,,,0.01,,,,METAR,361.0
KSLE 200556Z AUTO 34004KT 10SM OVC050 18/12 A3007 RMK AO2 SLP182 T01780122 10289 20178 51024,KSLE,2023-05-20T05:56:00Z,44.9,-123.0,17.8,12.2,340,4,,10.0,30.070866,1018.2,,TRUE,TRUE,,,,,,,OVC,5000,,,,,,,VFR,2.4,28.9,17.8,,,,,,,,,METAR,63.0
KSKX 200556Z AUTO 02005KT 10SM OVC048 08/08 A3044 RMK AO2 RAE51 SLP277 P0001 60002 T00830078 10128 20083 50006,KSKX,2023-05-20T05:56:00Z,36.45,-105.67,8.3,7.8,20,5,,10.0,30.43996,1027.7,,TRUE,TRUE,,,,,,,OVC,4800,,,,,,,VFR,0.6,12.8,8.3,,,0.01,,0.02,,,,METAR,2163.0
KSHV 200556Z 21008KT 10SM SCT060 BKN120 OVC200 26/21 A3000 RMK SLPNO,KSHV,2023-05-20T05:56:00Z,32.45,-93.83,26.0,21.0,210,8,,10.0,30.0,,,,,,,,,,,SCT,6000,BKN,12000,OVC,20000,,,VFR,,,,,,,,,,,,METAR,70.0
KSGU 200556Z AUTO 12010KT 10SM CLR 21/10 A3007 RMK AO2 SLP152 60011 T02110100 10300 20211 51027,KSGU,2023-05-20T05:56:00Z,37.03,-113.52,21.1,10.0,120,10,,10.0,30.070866,1015.2,,TRUE,TRUE,,,,,,,CLR,,,,,,,,VFR,2.7,30.0,21.1,,,,,0.11,,,,METAR,877.0
KSGT 200556Z AUTO 28008KT 10SM -RA BKN042 OVC050 23/21 A2998 RMK AO2 LTG DSNT S TSE22 SLP152 P0003 60005 T02330211 10283 20233 403000194 51010,KSGT,2023-05-20T05:56:00Z,34.6,-91.57,23.3,21.1,280,8,,10.0,29.97933,1015.2,,TRUE,TRUE,,,,,,-RA,BKN,4200,OVC,5000,,,,,VFR,1.0,28.3,23.3,30.0,19.4,0.03,,0.05,,,,METAR,67.0
KSGJ 200556Z AUTO 05006KT 10SM 23/21 A3004 RMK AO2 SLP170 T02330206 10244 20233 58018 $,KSGJ,2023-05-20T05:56:00Z,29.97,-81.33,23.3,20.6,50,6,,10.0,30.041338,1017.0,,TRUE,TRUE,TRUE,,,,,,,,,,,,,,,-1.8,24.4,23.3,,,,,,,,,METAR,2.0
KSGH 200556Z AUTO 29005KT 10SM -RA FEW006 OVC095 17/ A2999 RMK AO2 RAB03 SLP152 P0002 60008 T0167 10233 20167 58002,KSGH,2023-05-20T05:56:00Z,39.83,-83.83,16.7,,290,5,,10.0,29.991142,1015.2,,TRUE,TRUE,,,,,,-RA,FEW,600,OVC,9500,,,,,VFR,-0.2,23.3,16.7,,,0.02,,0.08,,,,METAR,318.0
KSFZ 200556Z AUTO 00000KT 10SM FEW038 09/09 A3025 RMK AO2 SLP242 T00940089 10139 20094 58016,KSFZ,2023-05-20T05:56:00Z,41.92,-71.5,9.4,8.9,0,0,,10.0,30.250984,1024.2,,TRUE,TRUE,,,,,,,FEW,3800,,,,,,,VFR,-1.6,13.9,9.4,,,,,,,,,METAR,129.0
KSFO 200556Z 27011G18KT 10SM FEW004 OVC008 13/11 A3009 RMK AO2 SLP190 T01330106 10167 20133 51012,KSFO,2023-05-20T05:56:00Z,37.62,-122.37,13.3,10.6,270,11,18,10.0,30.088583,1019.0,,,TRUE,,,,,,,FEW,400,OVC,800,,,,,IFR,1.2,16.7,13.3,,,,,,,,,METAR,2.0
KSFM 200556Z AUTO 21003KT 10SM CLR 11/06 A3023 RMK AO2 SLP238 T01110061 10150 20111 55002,KSFM,2023-05-20T05:56:00Z,43.38,-70.72,11.1,6.1,210,3,,10.0,30.230314,1023.8,,TRUE,TRUE,,,,,,,CLR,,,,,,,,VFR,-0.2,15.0,11.1,,,,,,,,,METAR,70.0
KSDY 200556Z AUTO 21007KT 10SM CLR 10/04 A3016 RMK AO2 SLP220 T01000044 10206 20089 58003,KSDY,2023-05-20T05:56:00Z,47.7,-104.2,10.0,4.4,210,7,,10.0,30.159449,1022.0,,TRUE,TRUE,,,,,,,CLR,,,,,,,,VFR,-0.3,20.6,8.9,,,,,,,,,METAR,600.0
KSDF 200556Z 01010KT 3SM +RA BR SCT007 BKN013 OVC039 18/17 A3001 RMK AO2 WSHFT 0527 SLP157 P0037 60037 T01780167 10239 20178 51003,KSDF,2023-05-20T05:56:00Z,38.18,-85.73,17.8,16.7,10,10,,3.0,30.008858,1015.7,,,TRUE,,,,,,+RA BR,SCT,700,BKN,1300,OVC,3900,,,MVFR,0.3,23.9,17.8,,,0.37,,0.37,,,,METAR,146.0
KSBP 200556Z 16003KT 9SM OVC005 13/11 A3008 RMK AO2 SLP185 T01280111 10183 20128 50009,KSBP,2023-05-20T05:56:00Z,35.23,-120.63,12.8,11.1,160,3,,9.0,30.079725,1018.5,,,TRUE,,,,,,,OVC,500,,,,,,,IFR,0.9,18.3,12.8,,,,,,,,,METAR,52.0
KRUT 200556Z AUTO 12007KT 10SM FEW095 OVC110 14/08 A3016 RMK AO2 SLP206 T01390083 10183 20139 56005 $,KRUT,2023-05-20T05:56:00Z,43.53,-72.95,13.9,8.3,120,7,,10.0,30.159449,1020.6,,TRUE,TRUE,TRUE,,,,,,FEW,9500,OVC,11000,,,,,VFR,-0.5,18.3,13.9,,,,,,,,,METAR,238.0
KRPX 200556Z AUTO 10SM 15/04 A3003 RMK Roundup ,KRPX,2023-05-20T05:56:00Z,46.47,-108.55,15.0,4.0,,,,10.0,30.029528,,,TRUE,,,,,,,,,,,,,,,,,,,,,,,,,,,,METAR,1062.0
KRKD 200556Z AUTO 22008KT 10SM CLR 11/08 A3023 RMK AO2 SLP236 T01110078 10111 20094 56006,KRKD,2023-05-20T05:56:00Z,44.07,-69.1,11.1,7.8,220,8,,10.0,30.230314,1023.6,,TRUE,TRUE,,,,,,,CLR,,,,,,,,VFR,-0.6,11.1,9.4,,,,,,,,,METAR,15.0
KRDM 200556Z AUTO 32008KT 10SM FEW055 18/11 A3016 RMK AO2 RAB25E34 SLP188 P0000 60000 T01830111 10200 20183 51014,KRDM,2023-05-20T05:56:00Z,44.25,-121.15,18.3,11.1,320,8,,10.0,30.159449,1018.8,,TRUE,TRUE,,,,,,,FEW,5500,,,,,,,VFR,1.4,20.0,18.3,,,0.005,,0.005,,,,METAR,930.0
KPWT 200556Z AUTO 00000KT 10SM CLR 15/13 A3009 RMK AO2 SLP194 T01500128 10244 20144 51011,KPWT,2023-05-20T05:56:00Z,47.5,-122.77,15.0,12.8,0,0,,10.0,30.088583,1019.4,,TRUE,TRUE,,,,,,,CLR,,,,,,,,VFR,1.1,24.4,14.4,,,,,,,,,METAR,143.0
KPWG 200556Z AUTO 18006KT 10SM RA SCT060 OVC070 19/18 A3013 RMK AO2 TSE21 SLP194 P0013 60173 T01940183 10283 20189 403390189 50040,KPWG,2023-05-20T05:56:00Z,31.48,-97.32,19.4,18.3,180,6,,10.0,30.129921,1019.4,,TRUE,TRUE,,,,,,RA,SCT,6000,OVC,7000,,,,,VFR,4.0,28.3,18.9,33.9,18.9,0.13,,1.73,,,,METAR,178.0
KPVU 200556Z AUTO 19008KT 9SM CLR 17/08 A3018 RMK AO2 SLP176 T01720083 10250 20156 51014,KPVU,2023-05-20T05:56:00Z,40.22,-111.72,17.2,8.3,190,8,,9.0,30.180119,1017.6,,TRUE,TRUE,,,,,,,CLR,,,,,,,,VFR,1.4,25.0,15.6,,,,,,,,,METAR,1370.0
KPVC 200556Z AUTO 17006KT 10SM BKN060 13/12 A3026 RMK AO2 SLP247 T01280122 10128 20122 58015,KPVC,2023-05-20T05:56:00Z,42.07,-70.22,12.8,12.2,170,6,,10.0,30.259842,1024.7,,TRUE,TRUE,,,,,,,BKN,6000,,,,,,,VFR,-1.5,12.8,12.2,,,,,,,,,METAR,1.0
KPTV 200556Z AUTO 00000KT 10SM CLR 23/13 A2998 RMK AO2 SLP148 T02330133 10344 20222 51017,KPTV,2023-05-20T05:56:00Z,36.02,-119.07,23.3,13.3,0,0,,10.0,29.97933,1014.8,,TRUE,TRUE,,,,,,,CLR,,,,,,,,VFR,1.7,34.4,22.2,,,,,,,,,METAR,132.0
KPRX 200556Z AUTO 34012G15KT 10SM OVC009 20/20 A3006 RMK AO2 SLP176 60000 T02000200 10250 20200 403170194 51022,KPRX,2023-05-20T05:56:00Z,33.63,-95.45,20.0,20.0,340,12,15,10.0,30.059055,1017.6,,TRUE,TRUE,,,,,,,OVC,900,,,,,,,IFR,2.2,25.0,20.0,31.7,19.4,,,0.005,,,,METAR,165.0
KPQI 200556Z AUTO 17009KT 10SM BKN060 BKN100 11/07 A3010 RMK AO2 SLP217 6//// T01060067 10150 20100 55001 PNO $,KPQI,2023-05-20T05:56:00Z,46.68,-68.05,10.6,6.7,170,9,,10.0,30.100393,1021.7,,TRUE,TRUE,TRUE,,,,,,BKN,6000,BKN,10000,,,,,VFR,-0.1,15.0,10.0,,,,,,,,,METAR,154.0
KP60 200556Z AUTO 31003KT 01/M02 A3040 RMK AO1 SLP265 T00061022 10156 20006 51009,KP60,2023-05-20T05:56:00Z,44.55,-110.42,0.6,-2.2,310,3,,,30.398623,1026.5,,TRUE,TRUE,,,,,,,,,,,,,,,,0.9,15.6,0.6,,,,,,,,,METAR,2377.0
KP53 200556Z AUTO 32010KT 05/04 A3006 RMK AO1 SLP186 P0004 60030 T00500044 10056 20050 $,KP53,2023-05-20T05:56:00Z,46.42,-86.65,5.0,4.4,320,10,,,30.059055,1018.6,,TRUE,TRUE,TRUE,,,,,,,,,,,,,,,,5.6,5.0,,,0.04,,0.3,,,,METAR,185.0
KOTG 200556Z AUTO 28004KT 10SM CLR 06/03 A3026 RMK AO2 SLP258 6//// T00610028 10128 20056 52005 PNO $,KOTG,2023-05-20T05:56:00Z,43.65,-95.57,6.1,2.8,280,4,,10.0,30.259842,1025.8,,TRUE,TRUE,TRUE,,,,,,CLR,,,,,,,,VFR,0.5,12.8,5.6,,,,,,,,,METAR,478.0
KOLU 200556Z AUTO 00000KT 10SM CLR 07/05 A3029 RMK AO2 SLP261 T00720050 10161 20067 401890067 51005,KOLU,2023-05-20T05:56:00Z,41.45,-97.33,7.2,5.0,0,0,,10.0,30.28937,1026.1,,TRUE,TRUE,,,,,,,CLR,,,,,,,,VFR,0.5,16.1,6.7,18.9,6.7,,,,,,,METAR,438.0
KOKK 200556Z AUTO 35007KT 9SM -RA OVC036 14/11 A3004 RMK AO2 RAB55 SLP168 6//// T01390106 10178 20139 51010 PNO $,KOKK,2023-05-20T05:56:00Z,40.53,-86.07,13.9,10.6,350,7,,9.0,30.041338,1016.8,,TRUE,TRUE,TRUE,,,,,-RA,OVC,3600,,,,,,,VFR,1.0,17.8,13.9,,,,,,,,,METAR,251.0
KOFK 200556Z AUTO 00000KT 10SM CLR 04/02 A3028 RMK AO2 SLP257 T00440022 10144 20044 401780044 51005,KOFK,2023-05-20T05:56:00Z,41.98,-97.43,4.4,2.2,0,0,,10.0,30.280512,1025.7,,TRUE,TRUE,,,,,,,CLR,,,,,,,,VFR,0.5,14.4,4.4,17.8,4.4,,,,,,,METAR,476.0
KOCH 200556Z AUTO 00000KT 10SM CLR 23/23 A3004 RMK AO2 SLP173 T02330233 10283 20233 403220178 53019,KOCH,2023-05-20T05:56:00Z,31.57,-94.72,23.3,23.3,0,0,,10.0,30.041338,1017.3,,TRUE,TRUE,,,,,,,CLR,,,,,,,,VFR,1.9,28.3,23.3,32.2,17.8,,,,,,,METAR,105.0
KOAJ 200556Z AUTO 01006KT 4SM BR OVC005 18/17 A3003 RMK AO2 SLP170 60003 T01780172 10189 20178 58017,KOAJ,2023-05-20T05:56:00Z,34.82,-77.62,17.8,17.2,10,6,,4.0,30.029528,1017.0,,TRUE,TRUE,,,,,,BR,OVC,500,,,,,,,IFR,-1.7,18.9,17.8,,,,,0.03,,,,METAR,26.0
KNYG 200556Z AUTO 00000KT 9SM CLR 17/14 A3013 RMK AO2 SLP202 T01670144 10200 20167 58021 $,KNYG,2023-05-20T05:56:00Z,38.5,-77.3,16.7,14.4,0,0,,9.0,30.129921,1020.2,,TRUE,TRUE,TRUE,,,,,,CLR,,,,,,,,VFR,-2.1,20.0,16.7,,,,,,,,,METAR,2.0
KNUC 200556Z AUTO 34003KT OVC010 14/ A3009 RMK AO2 SLP188 T0144 10156 20144 50009 $,KNUC,2023-05-20T05:56:00Z,33.02,-118.57,14.4,,340,3,,,30.088583,1018.8,,TRUE,TRUE,TRUE,,,,,,OVC,1000,,,,,,,,0.9,15.6,14.4,,,,,,,,,METAR,52.0
KNTU 200556Z 05007KT 2 1/2SM BR OVC002 18/17 A3004 RMK RAB11E22 SLP175 P0000 60020 T017801072 10178 20173 58022,KNTU,2023-05-20T05:56:00Z,36.82,-76.02,17.8,17.0,50,7,,2.5,30.041338,1017.5,,,,,,,,,BR,OVC,200,,,,,,,LIFR,-2.2,17.8,17.3,,,0.005,,0.2,,,,METAR,6.0
KNSE 200556Z AUTO 09003KT 6SM BR FEW020 BKN033 BKN040 21/21 A3003 RMK AO2 SLP152 T02110206 10228 20206 403000189 58009 $,KNSE,2023-05-20T05:56:00Z,30.73,-87.02,21.1,20.6,90,3,,6.0,30.029528,1015.2,,TRUE,TRUE,TRUE,,,,,BR,FEW,2000,BKN,3300,BKN,4000,,,VFR,-0.9,22.8,20.6,30.0,18.9,,,,,,,SPECI,56.0
KNQI 200556Z AUTO 15006KT 10SM BKN017 26/24 A3002 RMK AO2 SLP161 T02610244 10300 20261 403440217 51009 $,KNQI,2023-05-20T05:56:00Z,27.5,-97.82,26.1,24.4,150,6,,10.0,30.02067,1016.1,,TRUE,TRUE,TRUE,,,,,,BKN,1700,,,,,,,MVFR,0.9,30.0,26.1,34.4,21.7,,,,,,,METAR,15.0
KNPA 200556Z AUTO 13003KT 10SM SCT015 BKN019 BKN041 23/21 A3000 RMK AO2 SLP162 T02330211 10256 20222 402780200 58010,KNPA,2023-05-20T05:56:00Z,30.35,-87.32,23.3,21.1,130,3,,10.0,30.0,1016.2,,TRUE,TRUE,,,,,,,SCT,1500,BKN,1900,BKN,4100,,,MVFR,-1.0,25.6,22.2,27.8,20.0,,,,,,,SPECI,6.0
KNOG 200556Z AUTO 13006KT 10SM CLR 24/23 A3003 RMK AO2 SLP149 T02390228 10306 20239 403330200 51007 TSNO $,KNOG,2023-05-20T05:56:00Z,27.9,-98.05,23.9,22.8,130,6,,10.0,30.029528,1014.9,,TRUE,TRUE,TRUE,,TRUE,,,,CLR,,,,,,,,VFR,0.7,30.6,23.9,33.3,20.0,,,,,,,METAR,72.0
KNMM 200556Z AUTO 00000KT 5SM HZ CLR A3004 RMK AO2 VIS 1/4 SOUTH SLPNO 55003 $,KNMM,2023-05-20T05:56:00Z,32.53,-88.53,,,0,0,,5.0,30.041338,,,TRUE,TRUE,TRUE,,,,,HZ,CLR,,,,,,,,MVFR,-0.3,,,,,,,,,,,METAR,94.0
KNLC 200556Z AUTO A2997 RMK AO2 SLPNO 51017 PWINO RVRNO $,KNLC,2023-05-20T05:56:00Z,36.32,-119.95,,,,,,,29.970472,,,TRUE,TRUE,TRUE,,,,TRUE,,,,,,,,,,,1.7,,,,,,,,,,,METAR,69.0
KNKT 200556Z 03010KT 8SM OVC003 19/ A3002 RMK AO2 SLP163 60002 T0189 10200 20183 58017 $,KNKT,2023-05-20T05:56:00Z,34.9,-76.88,18.9,,30,10,,8.0,30.02067,1016.3,,,TRUE,TRUE,,,,,,OVC,300,,,,,,,LIFR,-1.7,20.0,18.3,,,,,,,,,SPECI,8.0
KNJK 200556Z AUTO 15006KT 10SM CLR 27/13 A2993 RMK AO2 SLP151 T02720133 10367 20261 51025 $,KNJK,2023-05-20T05:56:00Z,32.82,-115.67,27.2,13.3,150,6,,10.0,29.929134,1015.1,,TRUE,TRUE,TRUE,,,,,,CLR,,,,,,,,VFR,2.5,36.7,26.1,,,,,,,,,METAR,-15.0
KNID 200556Z AUTO 17013KT 10SM FEW100 SCT160 29/06 A2993 RMK AO2 SLP111 T02890056 10372 20289 50015 $,KNID,2023-05-20T05:56:00Z,35.68,-117.68,28.9,5.6,170,13,,10.0,29.929134,1011.1,,TRUE,TRUE,TRUE,,,,,,FEW,10000,SCT,16000,,,,,VFR,1.5,37.2,28.9,,,,,,,,,SPECI,682.0
KNFE 200556Z AUTO 03005KT 2SM BR OVC004 19/17 A3005 RMK AO2 SLP176 60006 T01890167 10189 20189 56019,KNFE,2023-05-20T05:56:00Z,36.7,-76.13,18.9,16.7,30,5,,2.0,30.050198,1017.6,,TRUE,TRUE,,,,,,BR,OVC,400,,,,,,,LIFR,-1.9,18.9,18.9,,,,,0.06,,,,METAR,4.0
KNBC 200556Z AUTO 01006KT 10SM FEW007 OVC031 21/18 A3005 RMK AO2 SLP176 T02060183 10222 20206 58010,KNBC,2023-05-20T05:56:00Z,32.47,-80.72,20.6,18.3,10,6,,10.0,30.050198,1017.6,,TRUE,TRUE,,,,,,,FEW,700,OVC,3100,,,,,VFR,-1.0,22.2,20.6,,,,,,,,,SPECI,9.0
KMYR 200556Z AUTO 01007KT 10SM OVC009 19/19 A3005 RMK AO2 CIG 007V013 SLP175 T01940189 10222 20189 55004,KMYR,2023-05-20T05:56:00Z,33.68,-78.92,19.4,18.9,10,7,,10.0,30.050198,1017.5,,TRUE,TRUE,,,,,,,OVC,900,,,,,,,IFR,-0.4,22.2,18.9,,,,,,,,,METAR,7.0
KMVN 200556Z AUTO 00000KT 7SM FEW050 OVC080 16/14 A3008 RMK AO2 RAE40 SLP186 P0000 60011 T01560139 10189 20156 53002,KMVN,2023-05-20T05:56:00Z,38.32,-88.87,15.6,13.9,0,0,,7.0,30.079725,1018.6,,TRUE,TRUE,,,,,,,FEW,5000,OVC,8000,,,,,VFR,0.2,18.9,15.6,,,0.005,,0.11,,,,METAR,145.0
KMTW 200556Z AUTO 32007KT 10SM FEW044 OVC060 09/06 A3009 RMK AO2 SLP192 T00940056 10144 20089 51005,KMTW,2023-05-20T05:56:00Z,44.12,-87.67,9.4,5.6,320,7,,10.0,30.088583,1019.2,,TRUE,TRUE,,,,,,,FEW,4400,OVC,6000,,,,,VFR,0.5,14.4,8.9,,,,,,,,,METAR,197.0
KMSV 200556Z AUTO 10004KT 10SM CLR 09/08 A3019 RMK AO2 SLP225 T00890083 10167 20089 58010,KMSV,2023-05-20T05:56:00Z,41.7,-74.78,8.9,8.3,100,4,,10.0,30.188976,1022.5,,TRUE,TRUE,,,,,,,CLR,,,,,,,,VFR,-1.0,16.7,8.9,,,,,,,,,METAR,427.0
KMRF 200556Z AUTO 02003KT 10SM CLR 14/11 A3025 RMK AO2 SLP185 T01440106 10233 20144 51010,KMRF,2023-05-20T05:56:00Z,30.37,-104.02,14.4,10.6,20,3,,10.0,30.250984,1018.5,,TRUE,TRUE,,,,,,,CLR,,,,,,,,VFR,1.0,23.3,14.4,,,,,,,,,METAR,1476.0
KMQY 200556Z AUTO 17003KT 10SM BKN035 19/17 A3004 RMK AO2 SLP176 T01940172 10222 20194 402330167 58009,KMQY,2023-05-20T05:56:00Z,36.02,-86.52,19.4,17.2,170,3,,10.0,30.041338,1017.6,,TRUE,TRUE,,,,,,,BKN,3500,,,,,,,VFR,-0.9,22.2,19.4,23.3,16.7,,,,,,,METAR,156.0
KMOB 200556Z AUTO 00000KT 9SM CLR 23/22 A3002 RMK AO2 SLP162 T02330217 10278 20233 403000217 56009,KMOB,2023-05-20T05:56:00Z,30.68,-88.25,23.3,21.7,0,0,,9.0,30.02067,1016.2,,TRUE,TRUE,,,,,,,CLR,,,,,,,,VFR,-0.9,27.8,23.3,30.0,21.7,,,,,,,METAR,67.0
KMML 200556Z AUTO 27003KT 10SM CLR 07/03 A3027 RMK AO2 SLP259 T00720033 10156 20072 401560044 51008 $,KMML,2023-05-20T05:56:00Z,44.45,-95.82,7.2,3.3,270,3,,10.0,30.268702,1025.9,,TRUE,TRUE,TRUE,,,,,,CLR,,,,,,,,VFR,0.8,15.6,7.2,15.6,4.4,,,,,,,METAR,358.0
KMKY 200556Z AUTO 00000KT 10SM CLR 26/22 A2998 RMK AO2 SLP151 T02560222 10289 20256 58018 TSNO $,KMKY,2023-05-20T05:56:00Z,26.0,-81.67,25.6,22.2,0,0,,10.0,29.97933,1015.1,,TRUE,TRUE,TRUE,,TRUE,,,,CLR,,,,,,,,VFR,-1.8,28.9,25.6,,,,,,,,,METAR,2.0
KMKT 200556Z AUTO 00000KT 10SM CLR 09/04 A3024 RMK AO2 SLP248 T00890044 10144 20089 401440061 51006,KMKT,2023-05-20T05:56:00Z,44.22,-93.92,8.9,4.4,0,0,,10.0,30.239174,1024.8,,TRUE,TRUE,,,,,,,CLR,,,,,,,,VFR,0.6,14.4,8.9,14.4,6.1,,,,,,,METAR,309.0
KMDT 200556Z 10005KT 10SM CLR 14/11 A3013 RMK AO2 SLP204 T01390106 10206 20139 58014,KMDT,2023-05-20T05:56:00Z,40.2,-76.77,13.9,10.6,100,5,,10.0,30.129921,1020.4,,,TRUE,,,,,,,CLR,,,,,,,,VFR,-1.4,20.6,13.9,,,,,,,,,METAR,91.0
KM19 200556Z AUTO 35007KT 5SM RA BR SCT007 BKN045 OVC060 19/19 A3000 RMK AO2 SLP157 6//// T01940189 10272 20194 402940167 50007 PNO $,KM19,2023-05-20T05:56:00Z,35.65,-91.17,19.4,18.9,350,7,,5.0,30.0,1015.7,,TRUE,TRUE,TRUE,,,,,RA BR,SCT,700,BKN,4500,OVC,6000,,,MVFR,0.7,27.2,19.4,29.4,16.7,,,,,,,METAR,72.0
KLWS 200556Z AUTO 20003KT 10SM CLR 24/11 A3001 RMK AO2 SLP153 T02390111 10333 20228 51017 $,KLWS,2023-05-20T05:56:00Z,46.37,-117.02,23.9,11.1,200,3,,10.0,30.008858,1015.3,,TRUE,TRUE,TRUE,,,,,,CLR,,,,,,,,VFR,1.7,33.3,22.8,,,,,,,,,METAR,435.0
KLRD 200556Z AUTO 16013KT 10SM CLR 27/22 A3001 RMK AO2 LTG DSNT NW SLP159 T02720217 10356 20272 53020,KLRD,2023-05-20T05:56:00Z,27.55,-99.47,27.2,21.7,160,13,,10.0,30.008858,1015.9,,TRUE,TRUE,,,,,,,CLR,,,,,,,,VFR,2.0,35.6,27.2,,,,,,,,,METAR,150.0
KLNR 200556Z AUTO 31006KT 10SM CLR 10/05 A3015 RMK AO2 SLP207 T01000050 10156 20100 401780100 51005,KLNR,2023-05-20T05:56:00Z,43.22,-90.18,10.0,5.0,310,6,,10.0,30.15059,1020.7,,TRUE,TRUE,,,,,,,CLR,,,,,,,,VFR,0.5,15.6,10.0,17.8,10.0,,,,,,,METAR,218.0
KLGD 200556Z AUTO 29013KT 10SM CLR 21/13 A3012 RMK AO2 SLP182 T02110128 10272 20183 51017,KLGD,2023-05-20T05:56:00Z,45.28,-118.0,21.1,12.8,290,13,,10.0,30.121063,1018.2,,TRUE,TRUE,,,,,,,CLR,,,,,,,,VFR,1.7,27.2,18.3,,,,,,,,,METAR,827.0
KLEW 200556Z AUTO 18007KT 10SM CLR 11/07 A3019 RMK AO2 SLP229 T01110072 10133 20111 58006,KLEW,2023-05-20T05:56:00Z,44.03,-70.28,11.1,7.2,180,7,,10.0,30.188976,1022.9,,TRUE,TRUE,,,,,,,CLR,,,,,,,,VFR,-0.6,13.3,11.1,,,,,,,,,METAR,81.0
KLCI 200556Z AUTO 20012G18KT 10SM CLR 13/06 A3019 RMK AO2 SLP224 T01280061 10183 20128 57007,KLCI,2023-05-20T05:56:00Z,43.57,-71.42,12.8,6.1,200,12,18,10.0,30.188976,1022.4,,TRUE,TRUE,,,,,,,CLR,,,,,,,,VFR,-0.7,18.3,12.8,,,,,,,,,METAR,166.0
KLBL 200556Z AUTO 31006KT 6SM BR CLR 09/09 A3032 RMK AO2 SLP263 T00940094 10161 20094 50012,KLBL,2023-05-20T05:56:00Z,37.03,-100.97,9.4,9.4,310,6,,6.0,30.318897,1026.3,,TRUE,TRUE,,,,,,BR,CLR,,,,,,,,VFR,1.2,16.1,9.4,,,,,,,,,METAR,877.0
KLAS 200556Z 22010G16KT 10SM FEW090 SCT150 28/08 A2999 RMK AO2 SLP129 T02780078 10350 20278 51016,KLAS,2023-05-20T05:56:00Z,36.07,-115.17,27.8,7.8,220,10,16,10.0,29.991142,1012.9,,,TRUE,,,,,,,FEW,9000,SCT,15000,,,,,VFR,1.6,35.0,27.8,,,,,,,,,METAR,662.0
KKLS 200556Z AUTO 32006KT CLR 16/12 A3012 RMK AO2 SLP203 T01560117 10256 20156 51024 PWINO $,KKLS,2023-05-20T05:56:00Z,46.12,-122.9,15.6,11.7,320,6,,,30.121063,1020.3,,TRUE,TRUE,TRUE,,,,TRUE,,CLR,,,,,,,,,2.4,25.6,15.6,,,,,,,,,METAR,4.0
KJXN 200556Z AUTO 00000KT 7SM CLR 11/09 A3000 RMK AO2 SLP158 T01110089 10144 20111 51006,KJXN,2023-05-20T05:56:00Z,42.27,-84.47,11.1,8.9,0,0,,7.0,30.0,1015.8,,TRUE,TRUE,,,,,,,CLR,,,,,,,,VFR,0.6,14.4,11.1,,,,,,,,,METAR,303.0
KJRB 200556Z AUTO 00000KT 10SM OVC050 14/11 A3020 RMK AO2 SLP227 T01440111 10156 20139 58022,KJRB,2023-05-20T05:56:00Z,40.7,-74.02,14.4,11.1,0,0,,10.0,30.200787,1022.7,,TRUE,TRUE,,,,,,,OVC,5000,,,,,,,VFR,-2.2,15.6,13.9,,,,,,,,,METAR,2.0
KJMS 200556Z AUTO 19004KT 10SM CLR 08/04 A3025 RMK AO2 SLP247 T00830039 10189 20083 401940056 58003,KJMS,2023-05-20T05:56:00Z,46.93,-98.67,8.3,3.9,190,4,,10.0,30.250984,1024.7,,TRUE,TRUE,,,,,,,CLR,,,,,,,,VFR,-0.3,18.9,8.3,19.4,5.6,,,,,,,METAR,455.0
KJHW 200556Z AUTO 19006KT 10SM OVC037 16/11 A2999 RMK AO2 SLP157 6//// T01560111 10161 20150 57013 PNO $,KJHW,2023-05-20T05:56:00Z,42.15,-79.27,15.6,11.1,190,6,,10.0,29.991142,1015.7,,TRUE,TRUE,TRUE,,,,,,OVC,3700,,,,,,,VFR,-1.3,16.1,15.0,,,,,,,,,METAR,520.0
KJAX 200556Z 00000KT 10SM BKN017 21/19 A3002 RMK AO2 SLP166 T02110189 10244 20206 58015,KJAX,2023-05-20T05:56:00Z,30.5,-81.68,21.1,18.9,0,0,,10.0,30.02067,1016.6,,,TRUE,,,,,,,BKN,1700,,,,,,,MVFR,-1.5,24.4,20.6,,,,,,,,,METAR,8.0
KJAC 200556Z AUTO 03007KT 10SM CLR 06/M02 A3031 RMK AO2 SLP239 6//// T00611017 10217 20061 51015 PNO $,KJAC,2023-05-20T05:56:00Z,43.62,-110.73,6.1,-1.7,30,7,,10.0,30.31004,1023.9,,TRUE,TRUE,TRUE,,,,,,CLR,,,,,,,,VFR,1.5,21.7,6.1,,,,,,,,,METAR,1967.0
KITH 200556Z AUTO 17010G17KT 10SM CLR 16/09 A3007 RMK AO2 SLP180 T01560089 10183 20156 58006,KITH,2023-05-20T05:56:00Z,42.48,-76.45,15.6,8.9,170,10,17,10.0,30.070866,1018.0,,TRUE,TRUE,,,,,,,CLR,,,,,,,,VFR,-0.6,18.3,15.6,,,,,,,,,METAR,338.0
KISP 200556Z AUTO 13004KT 10SM OVC032 14/12 A3020 RMK AO2 SLP226 T01440122 10150 20139 56022,KISP,2023-05-20T05:56:00Z,40.8,-73.1,14.4,12.2,130,4,,10.0,30.200787,1022.6,,TRUE,TRUE,,,,,,,OVC,3200,,,,,,,VFR,-2.2,15.0,13.9,,,,,,,,,METAR,25.0
KINW 200556Z AUTO 24007KT 10SM CLR 14/11 A3026 RMK AO2 SLP191 60001 T01390106 10189 20133 51015,KINW,2023-05-20T05:56:00Z,35.03,-110.72,13.9,10.6,240,7,,10.0,30.259842,1019.1,,TRUE,TRUE,,,,,,,CLR,,,,,,,,VFR,1.5,18.9,13.3,,,,,0.01,,,,METAR,1492.0
KHYS 200556Z AUTO 36007KT 10SM CLR 09/04 A3029 RMK AO2 SLP260 T00890044 10194 20083 402000083 51009 $,KHYS,2023-05-20T05:56:00Z,38.85,-99.27,8.9,4.4,360,7,,10.0,30.28937,1026.0,,TRUE,TRUE,TRUE,,,,,,CLR,,,,,,,,VFR,0.9,19.4,8.3,20.0,8.3,,,,,,,METAR,607.0
KHYI 200556Z AUTO 19004KT 10SM FEW036 24/22 A3008 RMK AO2 SLP177 T02390222 10306 20233 403220206 51025,KHYI,2023-05-20T05:56:00Z,29.88,-97.87,23.9,22.2,190,4,,10.0,30.079725,1017.7,,TRUE,TRUE,,,,,,,FEW,3600,,,,,,,VFR,2.5,30.6,23.3,32.2,20.6,,,,,,,METAR,180.0
KHYA 200556Z AUTO 14004KT 10SM BKN007 BKN047 OVC060 13/12 A3025 RMK AO2 SLP244 T01280122 10133 20128 58013,KHYA,2023-05-20T05:56:00Z,41.67,-70.27,12.8,12.2,140,4,,10.0,30.250984,1024.4,,TRUE,TRUE,,,,,,,BKN,700,BKN,4700,OVC,6000,,,IFR,-1.3,13.3,12.8,,,,,,,,,METAR,11.0
KHWV 200556Z AUTO 14003KT 10SM OVC046 14/11 A3022 RMK AO2 SLP232 T01440111 10150 20133 56020,KHWV,2023-05-20T05:56:00Z,40.82,-72.87,14.4,11.1,140,3,,10.0,30.221457,1023.2,,TRUE,TRUE,,,,,,,OVC,4600,,,,,,,VFR,-2.0,15.0,13.3,,,,,,,,,METAR,20.0
KHPN 200556Z 00000KT 10SM CLR 11/09 A3019 RMK AO2 SLP224 T01060089 10144 20100 57020,KHPN,2023-05-20T05:56:00Z,41.07,-73.7,10.6,8.9,0,0,,10.0,30.188976,1022.4,,,TRUE,,,,,,,CLR,,,,,,,,VFR,-2.0,14.4,10.0,,,,,,,,,METAR,113.0
KHND 200556Z AUTO 17014KT 10SM CLR 24/12 A3002 RMK AO2 RAE18 SLP156 P0001 60002 T02440117 10350 20239 50016,KHND,2023-05-20T05:56:00Z,35.98,-115.13,24.4,11.7,170,14,,10.0,30.02067,1015.6,,TRUE,TRUE,,,,,,,CLR,,,,,,,,VFR,1.6,35.0,23.9,,,0.01,,0.02,,,,METAR,740.0
KHNB 200556Z AUTO 00000KT 7SM FEW006 OVC017 18/18 A3003 RMK AO2 RAE23 SLP166 P0001 60094 T01780178 10233 20178 50003,KHNB,2023-05-20T05:56:00Z,38.25,-86.95,17.8,17.8,0,0,,7.0,30.029528,1016.6,,TRUE,TRUE,,,,,,,FEW,600,OVC,1700,,,,,MVFR,0.3,23.3,17.8,,,0.01,,0.94,,,,METAR,159.0
KHEZ 200556Z AUTO 00000KT 10SM CLR 22/20 A3003 RMK AO2 SLP167 T02170200 10300 20211 53011,KHEZ,2023-05-20T05:56:00Z,31.62,-91.3,21.7,20.0,0,0,,10.0,30.029528,1016.7,,TRUE,TRUE,,,,,,,CLR,,,,,,,,VFR,1.1,30.0,21.1,,,,,,,,,METAR,82.0
KHEF 200556Z AUTO 00000KT 10SM CLR 11/11 A3013 RMK AO2 SLP208 T01110111 10189 20111 58018,KHEF,2023-05-20T05:56:00Z,38.72,-77.52,11.1,11.1,0,0,,10.0,30.129921,1020.8,,TRUE,TRUE,,,,,,,CLR,,,,,,,,VFR,-1.8,18.9,11.1,,,,,,,,,METAR,53.0
KHDN 200556Z AUTO 12005KT 10SM CLR 09/06 A3032 RMK AO2 SLP216 T00940056 10172 20094 402000044 51010,KHDN,2023-05-20T05:56:00Z,40.48,-107.22,9.4,5.6,120,5,,10.0,30.318897,1021.6,,TRUE,TRUE,,,,,,,CLR,,,,,,,,VFR,1.0,17.2,9.4,20.0,4.4,,,,,,,METAR,2012.0
KGXY 200556Z AUTO 10006KT 7SM OVC049 12/08 A3033 RMK AO2 SLP264 T01220083 10172 20122 58002,KGXY,2023-05-20T05:56:00Z,40.43,-104.62,12.2,8.3,100,6,,7.0,30.33071,1026.4,,TRUE,TRUE,,,,,,,OVC,4900,,,,,,,VFR,-0.2,17.2,12.2,,,,,,,,,METAR,1420.0
KGVQ 200556Z AUTO VRB06KT 10SM CLR 18/11 A2995 RMK AO2 SLP137 T01780111 10178 20156 58016,KGVQ,2023-05-20T05:56:00Z,43.03,-78.17,17.8,11.1,0,6,,10.0,29.949802,1013.7,,TRUE,TRUE,,,,,,,CLR,,,,,,,,VFR,-1.6,17.8,15.6,,,,,,,,,METAR,279.0
KGUC 200556Z AUTO 06006KT 10SM BKN049 08/04 A3041 RMK AO2 SLP235 60000 T00830044 10117 20083 401890017 50006,KGUC,2023-05-20T05:56:00Z,38.52,-106.93,8.3,4.4,60,6,,10.0,30.410433,1023.5,,TRUE,TRUE,,,,,,,BKN,4900,,,,,,,VFR,0.6,11.7,8.3,18.9,1.7,,,0.005,,,,METAR,2337.0
KGTU 200556Z AUTO 02012KT 10SM OVC050 20/17 A3014 RMK AO2 PK WND 35030/0457 LTG DSNT E AND SE TSB0457E12RAB15E39 SLP198 P0000 60000 T02000167 10306 20194 403280194 51042,KGTU,2023-05-20T05:56:00Z,30.68,-97.68,20.0,16.7,20,12,,10.0,30.138779,1019.8,,TRUE,TRUE,,,,,,,OVC,5000,,,,,,,VFR,4.2,30.6,19.4,32.8,19.4,0.005,,0.005,,,,METAR,232.0
KGPZ 200556Z AUTO 28004KT 10SM CLR 09/04 A3023 RMK AO2 SLP248 T00940039 10161 20056 50004,KGPZ,2023-05-20T05:56:00Z,47.22,-93.52,9.4,3.9,280,4,,10.0,30.230314,1024.8,,TRUE,TRUE,,,,,,,CLR,,,,,,,,VFR,0.4,16.1,5.6,,,,,,,,,METAR,410.0
KGON 200556Z AUTO 00000KT 10SM FEW039 OVC055 14/11 A3022 RMK AO2 SLP234 T01390111 10144 20117 58019,KGON,2023-05-20T05:56:00Z,41.33,-72.05,13.9,11.1,0,0,,10.0,30.221457,1023.4,,TRUE,TRUE,,,,,,,FEW,3900,OVC,5500,,,,,VFR,-1.9,14.4,11.7,,,,,,,,,METAR,2.0
KGNR 200556Z AUTO 14008KT 08/06 A3012 RMK AO1 SLP204 T00830061 10128 20083 55005,KGNR,2023-05-20T05:56:00Z,45.47,-69.55,8.3,6.1,140,8,,,30.121063,1020.4,,TRUE,TRUE,,,,,,,,,,,,,,,,-0.5,12.8,8.3,,,,,,,,,METAR,426.0
KGNA 200556Z AUTO 00000KT 03/02 A3013 RMK AO1 SLP208 T00280017 10067 20022 401440022 58004,KGNA,2023-05-20T05:56:00Z,47.75,-90.35,2.8,1.7,0,0,,,30.129921,1020.8,,TRUE,TRUE,,,,,,,,,,,,,,,,-0.4,6.7,2.2,14.4,2.2,,,,,,,METAR,186.0
KGDV 200556Z AUTO 21008KT 10SM CLR 09/04 A3016 RMK AO2 SLP218 T00940044 10194 20089 58004 TSNO,KGDV,2023-05-20T05:56:00Z,47.13,-104.8,9.4,4.4,210,8,,10.0,30.159449,1021.8,,TRUE,TRUE,,,TRUE,,,,CLR,,,,,,,,VFR,-0.4,19.4,8.9,,,,,,,,,METAR,749.0
KGBD 200556Z AUTO 31003KT 10SM CLR 10/07 A3028 RMK AO2 SLP253 T01000067 10194 20100 401940100 51010,KGBD,2023-05-20T05:56:00Z,38.35,-98.87,10.0,6.7,310,3,,10.0,30.280512,1025.3,,TRUE,TRUE,,,,,,,CLR,,,,,,,,VFR,1.0,19.4,10.0,19.4,10.0,,,,,,,METAR,573.0
KGAI 200556Z AUTO 00000KT 10SM CLR 13/12 A3014 RMK AO2 SLP219 T01280117 10183 20128 58018,KGAI,2023-05-20T05:56:00Z,39.17,-77.17,12.8,11.7,0,0,,10.0,30.138779,1021.9,,TRUE,TRUE,,,,,,,CLR,,,,,,,,VFR,-1.8,18.3,12.8,,,,,,,,,METAR,151.0
KGAD 200556Z AUTO 00000KT 10SM CLR 17/17 A3007 RMK AO2 SLP183 6//// T01670167 10211 20167 402220167 58007 PNO $,KGAD,2023-05-20T05:56:00Z,33.97,-86.08,16.7,16.7,0,0,,10.0,30.070866,1018.3,,TRUE,TRUE,TRUE,,,,,,CLR,,,,,,,,VFR,-0.7,21.1,16.7,22.2,16.7,,,,,,,METAR,169.0
KFSD 200556Z AUTO 27003KT 10SM CLR 06/03 A3027 RMK AO2 SLP257 T00610028 10139 20056 401390056 50004,KFSD,2023-05-20T05:56:00Z,43.58,-96.75,6.1,2.8,270,3,,10.0,30.268702,1025.7,,TRUE,TRUE,,,,,,,CLR,,,,,,,,VFR,0.4,13.9,5.6,13.9,5.6,,,,,,,METAR,433.0
KFRM 200556Z AUTO 27005KT 10SM CLR 07/04 A3025 RMK AO2 SLP251 T00720044 10122 20067 401280067 51006,KFRM,2023-05-20T05:56:00Z,43.63,-94.42,7.2,4.4,270,5,,10.0,30.250984,1025.1,,TRUE,TRUE,,,,,,,CLR,,,,,,,,VFR,0.6,12.2,6.7,12.8,6.7,,,,,,,METAR,353.0
KFOD 200556Z AUTO 34004KT 10SM CLR 07/03 A3024 RMK AO2 SLP257 T00670033 10128 20067 50002,KFOD,2023-05-20T05:56:00Z,42.53,-94.17,6.7,3.3,340,4,,10.0,30.239174,1025.7,,TRUE,TRUE,,,,,,,CLR,,,,,,,,VFR,0.2,12.8,6.7,,,,,,,,,METAR,347.0
KFNL 200556Z 00000KT 3SM BR OVC045 12/10 A3033 RMK AO2 SLP245 T01170100 10133 20106 58004,KFNL,2023-05-20T05:56:00Z,40.45,-105.02,11.7,10.0,0,0,,3.0,30.33071,1024.5,,,TRUE,,,,,,BR,OVC,4500,,,,,,,MVFR,-0.4,13.3,10.6,,,,,,,,,METAR,1529.0
KFLP 200556Z AUTO 35011G16KT 3SM -RA BR BKN006 BKN009 OVC012 16/14 A3009 RMK AO2 SLP184 P0001 60085 T01560144 10211 20156 402440139 51008,KFLP,2023-05-20T05:56:00Z,36.28,-92.58,15.6,14.4,350,11,16,3.0,30.088583,1018.4,,TRUE,TRUE,,,,,,-RA BR,BKN,600,BKN,900,OVC,1200,,,IFR,0.8,21.1,15.6,24.4,13.9,0.01,,0.85,,,,METAR,215.0
KFKL 200556Z AUTO 17011KT 10SM FEW044 16/12 A2999 RMK AO2 SLP153 T01610117 10183 20161 58013,KFKL,2023-05-20T05:56:00Z,41.37,-79.87,16.1,11.7,170,11,,10.0,29.991142,1015.3,,TRUE,TRUE,,,,,,,FEW,4400,,,,,,,VFR,-1.3,18.3,16.1,,,,,,,,,METAR,468.0
KFCI 200556Z AUTO 01003KT 10SM CLR 15/15 RMK AO2 SLPNO T01500150 10200 20139 $,KFCI,2023-05-20T05:56:00Z,37.4,-77.52,15.0,15.0,10,3,,10.0,,,,TRUE,TRUE,TRUE,,,,,,CLR,,,,,,,,VFR,,20.0,13.9,,,,,,,,,METAR,63.0
KFAM 200556Z AUTO 34006KT 7SM OVC034 14/12 A3011 RMK AO2 RAB02E29 SLP199 6//// T01440122 10206 20144 402780128 58002 PNO $,KFAM,2023-05-20T05:56:00Z,37.77,-90.42,14.4,12.2,340,6,,7.0,30.109253,1019.9,,TRUE,TRUE,TRUE,,,,,,OVC,3400,,,,,,,VFR,-0.2,20.6,14.4,27.8,12.8,,,,,,,METAR,276.0
KEWK 200556Z AUTO 34005KT 10SM CLR 10/10 A3024 RMK AO2 SLP239 T01000100 10156 20089 51012,KEWK,2023-05-20T05:56:00Z,38.05,-97.27,10.0,10.0,340,5,,10.0,30.239174,1023.9,,TRUE,TRUE,,,,,,,CLR,,,,,,,,VFR,1.2,15.6,8.9,,,,,,,,,METAR,468.0
KEUL 200556Z AUTO 00000KT 10SM CLR 20/10 A3006 RMK AO2 SLP159 T02000100 10322 20194 51013,KEUL,2023-05-20T05:56:00Z,43.63,-116.62,20.0,10.0,0,0,,10.0,30.059055,1015.9,,TRUE,TRUE,,,,,,,CLR,,,,,,,,VFR,1.3,32.2,19.4,,,,,,,,,METAR,741.0
KESC 200556Z AUTO 33007KT 10SM OVC013 A3007 RMK AO2 RAE38 SLPNO P0000 60000 54000 FZRANO $,KESC,2023-05-20T05:56:00Z,45.72,-87.08,,,330,7,,10.0,30.070866,,,TRUE,TRUE,TRUE,,,TRUE,,,OVC,1300,,,,,,,MVFR,,,,,,0.005,,0.005,,,,METAR,180.0
KENV 200556Z AUTO 29006KT 10SM CLR 19/03 A3018 RMK AO2 SLP187 6//// T01890028 10272 20183 51014 PNO $,KENV,2023-05-20T05:56:00Z,40.72,-114.02,18.9,2.8,290,6,,10.0,30.180119,1018.7,,TRUE,TRUE,TRUE,,,,,,CLR,,,,,,,,VFR,1.4,27.2,18.3,,,,,,,,,METAR,1291.0
KELZ 200556Z AUTO 18012G23KT 10SM FEW095 15/09 A3005 RMK AO2 PK WND 17028/0502 SLP169 T01500089 10178 20150 56009,KELZ,2023-05-20T05:56:00Z,42.1,-77.98,15.0,8.9,180,12,23,10.0,30.050198,1016.9,,TRUE,TRUE,,,,,,,FEW,9500,,,,,,,VFR,-0.9,17.8,15.0,,,,,,,,,METAR,639.0
KEKY 200556Z AUTO 13003KT 10SM CLR 18/18 A3006 RMK AO2 SLP026 T01780178 10217 20178 58009,KEKY,2023-05-20T05:56:00Z,33.32,-86.93,17.8,17.8,130,3,,10.0,30.059055,1002.6,,TRUE,TRUE,,,,,,,CLR,,,,,,,,VFR,-0.9,21.7,17.8,,,,,,,,,METAR,213.0
KEKQ 200556Z AUTO 26003KT 10SM SCT060 OVC085 18/18 A3006 RMK AO2 SLP171 T01780178 10228 20178 58004,KEKQ,2023-05-20T05:56:00Z,36.85,-84.85,17.8,17.8,260,3,,10.0,30.059055,1017.1,,TRUE,TRUE,,,,,,,SCT,6000,OVC,8500,,,,,VFR,-0.4,22.8,17.8,,,,,,,,,METAR,291.0
KEKO 200556Z AUTO 09004KT 10SM CLR 16/06 A3019 RMK AO2 SLP177 T01610056 10272 20161 51013,KEKO,2023-05-20T05:56:00Z,40.82,-115.78,16.1,5.6,90,4,,10.0,30.188976,1017.7,,TRUE,TRUE,,,,,,,CLR,,,,,,,,VFR,1.3,27.2,16.1,,,,,,,,,METAR,1541.0
KEGE 200556Z AUTO 10004KT 6SM HZ CLR 08/04 A3035 RMK AO2 SLP172 T00830044 10167 20083 402110044 51012,KEGE,2023-05-20T05:56:00Z,39.63,-106.92,8.3,4.4,100,4,,6.0,30.351377,1017.2,,TRUE,TRUE,,,,,,HZ,CLR,,,,,,,,VFR,1.2,16.7,8.3,21.1,4.4,,,,,,,METAR,1993.0
KEEN 200556Z AUTO 10SM CLR 12/07 A3021 RMK AO2 SLP235 6//// T01170067 10172 20100 58010 $,KEEN,2023-05-20T05:56:00Z,42.88,-72.27,11.7,6.7,,,,10.0,30.209646,1023.5,,TRUE,TRUE,TRUE,,,,,,CLR,,,,,,,,VFR,-1.0,17.2,10.0,,,,,,,,,METAR,143.0
KEED 200556Z AUTO 23011KT 10SM -RA FEW080 BKN100 26/16 A3001 RMK AO2 LTG DSNT E-SW RAB25 TSB34E49 SLP132 P0000 60000 T02560156 10372 20256 50003,KEED,2023-05-20T05:56:00Z,34.77,-114.62,25.6,15.6,230,11,,10.0,30.008858,1013.2,,TRUE,TRUE,,,,,,-RA,FEW,8000,BKN,10000,,,,,VFR,0.3,37.2,25.6,,,0.005,,0.005,,,,METAR,271.0
KEAU 200556Z AUTO 34003KT 10SM CLR 06/04 A3019 RMK AO2 SLP228 T00610039 10133 20061 401670061 50001,KEAU,2023-05-20T05:56:00Z,44.87,-91.48,6.1,3.9,340,3,,10.0,30.188976,1022.8,,TRUE,TRUE,,,,,,,CLR,,,,,,,,VFR,0.1,13.3,6.1,16.7,6.1,,,,,,,METAR,271.0
KEAR 200556Z AUTO 32003KT 10SM CLR 09/04 A3029 RMK AO2 SLP257 T00890044 10183 20089 401940089 50005,KEAR,2023-05-20T05:56:00Z,40.72,-99.0,8.9,4.4,320,3,,10.0,30.28937,1025.7,,TRUE,TRUE,,,,,,,CLR,,,,,,,,VFR,0.5,18.3,8.9,19.4,8.9,,,,,,,METAR,649.0
KDWU 200556Z AUTO 00000KT 10SM BKN070 BKN090 OVC110 18/ A2999 RMK AO2 SLP152 T0178 10239 20167 58008,KDWU,2023-05-20T05:56:00Z,38.55,-82.73,17.8,,0,0,,10.0,29.991142,1015.2,,TRUE,TRUE,,,,,,,BKN,7000,BKN,9000,OVC,11000,,,VFR,-0.8,23.9,16.7,,,,,,,,,METAR,165.0
KDVL 200556Z AUTO 21006KT 10SM CLR 12/04 A3022 RMK AO2 SLP250 T01170039 10189 20083 58005,KDVL,2023-05-20T05:56:00Z,48.12,-98.92,11.7,3.9,210,6,,10.0,30.221457,1025.0,,TRUE,TRUE,,,,,,,CLR,,,,,,,,VFR,-0.5,18.9,8.3,,,,,,,,,METAR,439.0
KDUG 200556Z AUTO 22004KT 10SM CLR 18/06 A3016 RMK AO2 SLP154 T01780061 10256 20161 51017 TSNO,KDUG,2023-05-20T05:56:00Z,31.47,-109.6,17.8,6.1,220,4,,10.0,30.159449,1015.4,,TRUE,TRUE,,,TRUE,,,,CLR,,,,,,,,VFR,1.7,25.6,16.1,,,,,,,,,METAR,1260.0
KDIK 200556Z AUTO 19009KT 10SM CLR 07/03 A3020 RMK AO2 SLP231 T00720028 10183 20061 58004,KDIK,2023-05-20T05:56:00Z,46.8,-102.8,7.2,2.8,190,9,,10.0,30.200787,1023.1,,TRUE,TRUE,,,,,,,CLR,,,,,,,,VFR,-0.4,18.3,6.1,,,,,,,,,METAR,788.0
KDIJ 200556Z AUTO 02004KT 10SM CLR 08/01 A3031 RMK AO2 SLP227 T00780006 10228 20078 51010,KDIJ,2023-05-20T05:56:00Z,43.75,-111.1,7.8,0.6,20,4,,10.0,30.31004,1022.7,,TRUE,TRUE,,,,,,,CLR,,,,,,,,VFR,1.0,22.8,7.8,,,,,,,,,METAR,1896.0
KDAY 200556Z 28006KT 9SM -RA FEW018 BKN025 OVC095 17/16 A3000 RMK AO2 SLP153 P0003 60022 T01720156 10239 20172 58006,KDAY,2023-05-20T05:56:00Z,39.9,-84.22,17.2,15.6,280,6,,9.0,30.0,1015.3,,,TRUE,,,,,,-RA,FEW,1800,BKN,2500,OVC,9500,,,MVFR,-0.6,23.9,17.2,,,0.03,,0.22,,,,METAR,303.0
KD07 200556Z AUTO 17010KT 06/03 A3027 RMK AO1 SLP262 6//// T00560028 10167 20056 PNO $,KD07,2023-05-20T05:56:00Z,45.03,-102.02,5.6,2.8,170,10,,,30.268702,1026.2,,TRUE,TRUE,TRUE,,,,,,,,,,,,,,,,16.7,5.6,,,,,,,,,METAR,786.0
KCXY 200556Z AUTO 09006KT 10SM CLR 14/11 A3014 RMK AO2 SLP206 T01440106 10211 20144 58014,KCXY,2023-05-20T05:56:00Z,40.22,-76.85,14.4,10.6,90,6,,10.0,30.138779,1020.6,,TRUE,TRUE,,,,,,,CLR,,,,,,,,VFR,-1.4,21.1,14.4,,,,,,,,,METAR,102.0
KCWI 200556Z AUTO 34009KT 10SM CLR 08/06 A3015 RMK AO2 SLP215 T00780061 10172 20078 402060078 50006,KCWI,2023-05-20T05:56:00Z,41.82,-90.32,7.8,6.1,340,9,,10.0,30.15059,1021.5,,TRUE,TRUE,,,,,,,CLR,,,,,,,,VFR,0.6,17.2,7.8,20.6,7.8,,,,,,,METAR,212.0
KCVO 200556Z AUTO 30016G21KT 10SM CLR 14/11 A3010 RMK AO2 SLP194 T01390111 10272 20139 53023,KCVO,2023-05-20T05:56:00Z,44.5,-123.28,13.9,11.1,300,16,21,10.0,30.100393,1019.4,,TRUE,TRUE,,,,,,,CLR,,,,,,,,VFR,2.3,27.2,13.9,,,,,,,,,METAR,75.0
KCVN 200556Z AUTO 03014KT 4SM HZ SCT013 OVC019 13/10 A3035 RMK AO2 SLP253 T01280100 10150 20128 50010,KCVN,2023-05-20T05:56:00Z,34.42,-103.07,12.8,10.0,30,14,,4.0,30.351377,1025.3,,TRUE,TRUE,,,,,,HZ,SCT,1300,OVC,1900,,,,,MVFR,1.0,15.0,12.8,,,,,,,,,METAR,1278.0
KCTB 200556Z AUTO 29012KT 10SM CLR 15/07 A3007 RMK AO2 SLP161 T01500067 10278 20133 51007,KCTB,2023-05-20T05:56:00Z,48.6,-112.37,15.0,6.7,290,12,,10.0,30.070866,1016.1,,TRUE,TRUE,,,,,,,CLR,,,,,,,,VFR,0.7,27.8,13.3,,,,,,,,,METAR,1172.0
KCOE 200556Z AUTO 08004KT 10SM CLR 18/13 A3007 RMK AO2 SLP184 6//// T01780133 10300 20172 51013 PNO $,KCOE,2023-05-20T05:56:00Z,47.77,-116.82,17.8,13.3,80,4,,10.0,30.070866,1018.4,,TRUE,TRUE,TRUE,,,,,,CLR,,,,,,,,VFR,1.3,30.0,17.2,,,,,,,,,METAR,693.0
KCOD 200556Z AUTO 19005KT 10SM CLR 10/01 A3025 RMK AO2 SLP213 T01000006 10222 20094 50007,KCOD,2023-05-20T05:56:00Z,44.52,-109.02,10.0,0.6,190,5,,10.0,30.250984,1021.3,,TRUE,TRUE,,,,,,,CLR,,,,,,,,VFR,0.7,22.2,9.4,,,,,,,,,METAR,1550.0
KCHS 200556Z 01003KT 10SM OVC014 21/18 A3005 RMK AO2 SLP175 T02060183 10222 20200 58004,KCHS,2023-05-20T05:56:00Z,32.9,-80.03,20.6,18.3,10,3,,10.0,30.050198,1017.5,,,TRUE,,,,,,,OVC,1400,,,,,,,MVFR,-0.4,22.2,20.0,,,,,,,,,METAR,12.0
KCGZ 200556Z AUTO 33011KT 10SM CLR 26/10 A3004 RMK AO2 SLP158 6//// T02560100 10322 20244 53007 PNO $,KCGZ,2023-05-20T05:56:00Z,32.95,-111.77,25.6,10.0,330,11,,10.0,30.041338,1015.8,,TRUE,TRUE,TRUE,,,,,,CLR,,,,,,,,VFR,0.7,32.2,24.4,,,,,,,,,METAR,444.0
KCEC 200556Z AUTO 30006KT 2 1/2SM BR OVC003 12/12 A3017 RMK AO2 RAB14E23 SLP217 P0000 60000 T01170117 10133 20117 50004,KCEC,2023-05-20T05:56:00Z,41.78,-124.23,11.7,11.7,300,6,,2.5,30.171259,1021.7,,TRUE,TRUE,,,,,,BR,OVC,300,,,,,,,LIFR,0.4,13.3,11.7,,,0.005,,0.005,,,,METAR,17.0
KCAE 200556Z 01003KT 6SM -DZ BR OVC004 19/18 A3007 RMK AO2 DZE18B52 SLP179 P0000 60000 T01890178 10200 20189 58015 $,KCAE,2023-05-20T05:56:00Z,33.93,-81.12,18.9,17.8,10,3,,6.0,30.070866,1017.9,,,TRUE,TRUE,,,,,-DZ BR,OVC,400,,,,,,,LIFR,-1.5,20.0,18.9,,,0.005,,0.005,,,,METAR,69.0
KBZN 200556Z AUTO 15006KT 7SM CLR 10/03 A3018 RMK AO2 SLP198 T01000028 10261 20100 51010,KBZN,2023-05-20T05:56:00Z,45.78,-111.17,10.0,2.8,150,6,,7.0,30.180119,1019.8,,TRUE,TRUE,,,,,,,CLR,,,,,,,,VFR,1.0,26.1,10.0,,,,,,,,,METAR,1349.0
KBVX 200556Z AUTO 28003KT 5SM BR OVC007 19/19 A3002 RMK AO2 CIG 006V011 SLP164 P0002 60040 T01890189 10256 20189 402830156 50005,KBVX,2023-05-20T05:56:00Z,35.73,-91.65,18.9,18.9,280,3,,5.0,30.02067,1016.4,,TRUE,TRUE,,,,,,BR,OVC,700,,,,,,,IFR,0.5,25.6,18.9,28.3,15.6,0.02,,0.4,,,,METAR,137.0
KBTP 200556Z AUTO 15007KT 10SM BKN055 17/12 A3000 RMK AO2 SLP160 T01720117 10200 20172 56013 TSNO $,KBTP,2023-05-20T05:56:00Z,40.77,-79.95,17.2,11.7,150,7,,10.0,30.0,1016.0,,TRUE,TRUE,TRUE,,TRUE,,,,BKN,5500,,,,,,,VFR,-1.3,20.0,17.2,,,,,,,,,METAR,375.0
KBOK 200556Z AUTO 00000KT 9SM OVC008 12/12 A3016 RMK AO2 SLP216 6//// T01220122 10139 20122 50009,KBOK,2023-05-20T05:56:00Z,42.07,-124.28,12.2,12.2,0,0,,9.0,30.159449,1021.6,,TRUE,TRUE,,,,,,,OVC,800,,,,,,,IFR,0.9,13.9,12.2,,,,,,,,,METAR,140.0
KBMI 200556Z AUTO 36009KT 10SM CLR 12/05 A3011 RMK AO2 SLP191 T01170050 10172 20117 402440117 51008,KBMI,2023-05-20T05:56:00Z,40.47,-88.92,11.7,5.0,360,9,,10.0,30.109253,1019.1,,TRUE,TRUE,,,,,,,CLR,,,,,,,,VFR,0.8,17.2,11.7,24.4,11.7,,,,,,,METAR,262.0
KBLM 200556Z AUTO 12005KT 8SM OVC022 14/ A3019 RMK AO2 RAB0458E46 SLP224 P0000 60000 T0144 10144 20133 58025 $,KBLM,2023-05-20T05:56:00Z,40.17,-74.12,14.4,,120,5,,8.0,30.188976,1022.4,,TRUE,TRUE,TRUE,,,,,,OVC,2200,,,,,,,MVFR,-2.5,14.4,13.3,,,0.005,,0.005,,,,METAR,45.0
KBKX 200556Z AUTO 32003KT 10SM CLR 06/03 A3027 RMK AO2 SLP275 T00560033 10122 20056 401220028 51006,KBKX,2023-05-20T05:56:00Z,44.3,-96.82,5.6,3.3,320,3,,10.0,30.268702,1027.5,,TRUE,TRUE,,,,,,,CLR,,,,,,,,VFR,0.6,12.2,5.6,12.2,2.8,,,,,,,METAR,494.0
KBIH 200556Z AUTO 36003KT 10SM CLR 22/04 A3009 RMK AO2 SLP137 T02170039 10328 20194 50015,KBIH,2023-05-20T05:56:00Z,37.37,-118.35,21.7,3.9,360,3,,10.0,30.088583,1013.7,,TRUE,TRUE,,,,,,,CLR,,,,,,,,VFR,1.5,32.8,19.4,,,,,,,,,METAR,1252.0
KBID 200556Z AUTO 16006KT 10SM SCT040 OVC055 13/12 A3024 RMK AO2 SLP241 T01330117 10133 20117 58019,KBID,2023-05-20T05:56:00Z,41.17,-71.58,13.3,11.7,160,6,,10.0,30.239174,1024.1,,TRUE,TRUE,,,,,,,SCT,4000,OVC,5500,,,,,VFR,-1.9,13.3,11.7,,,,,,,,,METAR,32.0
KBHB 200556Z AUTO 21009KT 10SM CLR 09/08 A3023 RMK AO2 SLP239 T00940078 10094 20094 58007,KBHB,2023-05-20T05:56:00Z,44.45,-68.37,9.4,7.8,210,9,,10.0,30.230314,1023.9,,TRUE,TRUE,,,,,,,CLR,,,,,,,,VFR,-0.7,9.4,9.4,,,,,,,,,METAR,21.0
KAWO 200556Z AUTO 00000KT 10SM CLR 14/10 A3010 RMK AO2 SLP198 T01390100 10211 20139 51014,KAWO,2023-05-20T05:56:00Z,48.17,-122.17,13.9,10.0,0,0,,10.0,30.100393,1019.8,,TRUE,TRUE,,,,,,,CLR,,,,,,,,VFR,1.4,21.1,13.9,,,,,,,,,METAR,38.0
KASH 200556Z AUTO 00000KT 10SM CLR 11/08 A3023 RMK AO2 SLP241 T01060078 10178 20106 56010,KASH,2023-05-20T05:56:00Z,42.78,-71.52,10.6,7.8,0,0,,10.0,30.230314,1024.1,,TRUE,TRUE,,,,,,,CLR,,,,,,,,VFR,-1.0,17.8,10.6,,,,,,,,,METAR,56.0
KART 200556Z AUTO 17006KT 10SM CLR 18/09 A3000 RMK AO2 SLP154 T01830094 10194 20161 57006,KART,2023-05-20T05:56:00Z,43.98,-76.03,18.3,9.4,170,6,,10.0,30.0,1015.4,,TRUE,TRUE,,,,,,,CLR,,,,,,,,VFR,-0.6,19.4,16.1,,,,,,,,,METAR,100.0
KARG 200556Z AUTO 01006KT 6SM -RA BR BKN009 BKN016 OVC034 19/19 A3001 RMK AO2 CIG 007V012 SLP163 P0004 60019 T01940194 10261 20194 402830167 50001,KARG,2023-05-20T05:56:00Z,36.12,-90.92,19.4,19.4,10,6,,6.0,30.008858,1016.3,,TRUE,TRUE,,,,,,-RA BR,BKN,900,BKN,1600,OVC,3400,,,IFR,0.1,26.1,19.4,28.3,16.7,0.04,,0.19,,,,METAR,82.0
KALK 200556Z AUTO 23009KT 10SM FEW100 19/M01 A3022 RMK AO2 SLP144 T01941011 10267 20183 51015,KALK,2023-05-20T05:56:00Z,31.6,-110.43,19.4,-1.1,230,9,,10.0,30.221457,1014.4,,TRUE,TRUE,,,,,,,FEW,10000,,,,,,,VFR,1.5,26.7,18.3,,,,,,,,,METAR,1451.0
KAJO 200556Z AUTO 30005KT 9SM CLR 16/14 A3007 RMK AO2 SLP179 T01560144 10206 20156 50011,KAJO,2023-05-20T05:56:00Z,33.9,-117.6,15.6,14.4,300,5,,9.0,30.070866,1017.9,,TRUE,TRUE,,,,,,,CLR,,,,,,,,VFR,1.1,20.6,15.6,,,,,,,,,METAR,161.0
KAIZ 200556Z AUTO 32003KT 8SM CLR 12/11 RMK AO2 SLPNO 60000 T01170111 10144 20117 402440117 $,KAIZ,2023-05-20T05:56:00Z,38.1,-92.53,11.7,11.1,320,3,,8.0,,,,TRUE,TRUE,TRUE,,,,,,CLR,,,,,,,,VFR,,14.4,11.7,24.4,11.7,,,0.005,,,,METAR,263.0
KAFJ 200556Z AUTO 19003KT 10SM FEW070 BKN100 17/13 A3003 RMK AO2 SLP162 T01670133 10217 20150 58010,KAFJ,2023-05-20T05:56:00Z,40.13,-80.28,16.7,13.3,190,3,,10.0,30.029528,1016.2,,TRUE,TRUE,,,,,,,FEW,7000,BKN,10000,,,,,VFR,-1.0,21.7,15.0,,,,,,,,,METAR,360.0
KADF 200556Z AUTO 00000KT 10SM SCT004 BKN060 OVC085 19/19 A3002 RMK AO2 LTG DSNT S TSE11RAE02 SLP163 P0000 60156 T01940189 10278 20183 403060167 55004,KADF,2023-05-20T05:56:00Z,34.1,-93.07,19.4,18.9,0,0,,10.0,30.02067,1016.3,,TRUE,TRUE,,,,,,,SCT,400,BKN,6000,OVC,8500,,,VFR,-0.4,27.8,18.3,30.6,16.7,0.005,,1.56,,,,METAR,54.0
K8D3 200556Z AUTO 00000KT 07/03 A3026 RMK AO1 SLP250 T00720028 10178 20067 401780067 50002,K8D3,2023-05-20T05:56:00Z,45.67,-96.98,7.2,2.8,0,0,,,30.259842,1025.0,,TRUE,TRUE,,,,,,,,,,,,,,,,0.2,17.8,6.7,17.8,6.7,,,,,,,SPECI,535.0
K2WX 200556Z AUTO 16010KT 09/03 A3020 RMK AO1 SLP231 T00890028 10183 20083 58006,K2WX,2023-05-20T05:56:00Z,45.6,-103.55,8.9,2.8,160,10,,,30.200787,1023.1,,TRUE,TRUE,,,,,,,,,,,,,,,,-0.6,18.3,8.3,,,,,,,,,METAR,925.0
K1M4 200556Z AUTO 19006KT 10SM OVC006 19/19 A3009 RMK AO2 SLP174 T01890189 10200 20189 55003,K1M4,2023-05-20T05:56:00Z,34.28,-87.6,18.9,18.9,190,6,,10.0,30.088583,1017.4,,TRUE,TRUE,,,,,,,OVC,600,,,,,,,IFR,-0.3,20.0,18.9,,,,,,,,,METAR,283.0
TXKF 200555Z 11014KT 9999 VCSH BKN015 OVC028 22/20 Q1023 ,TXKF,2023-05-20T05:55:00Z,32.37,-64.68,22.0,20.0,110,14,,6.21,30.206694,,,,,,,,,,VCSH,BKN,1500,OVC,2800,,,,,MVFR,,,,,,,,,,,,METAR,4.0
TNCE 200555Z AUTO 09009KT 040V120 //// // ///////// 27/23 Q1014 RE//,TNCE,2023-05-20T05:55:00Z,17.48,-62.97,27.0,23.0,90,9,,,29.940945,,,TRUE,,,,,,,,,,,,,,,,,,,,,,,,,,,,METAR,38.0
TNCB 200555Z AUTO 09012KT 060V120 9999 FEW011/// SCT015/// BKN019/// 27/24 Q1010,TNCB,2023-05-20T05:55:00Z,12.13,-68.28,27.0,24.0,90,12,,6.21,29.822834,,,TRUE,,,,,,,,FEW,1100,SCT,1500,BKN,1900,,,MVFR,,,,,,,,,,,,METAR,6.0
RODN 200555Z 35005KT 10SM OVC028 25/20 A2981 RMK AO2A SLP100 60000 T02520195 10266 20247 55002 FZRANO $,RODN,2023-05-20T05:55:00Z,26.35,127.77,25.2,19.5,350,5,,10.0,29.811024,1010.0,,,TRUE,TRUE,,,TRUE,,,OVC,2800,,,,,,,MVFR,-0.2,26.6,24.7,,,,,,,,,SPECI,38.0
RKSO 200555Z 25012KT 7SM SCT040 27/17 A2981 RMK AO2A SLP098 T02660171 10274 20224 57009 $,RKSO,2023-05-20T05:55:00Z,37.08,127.02,26.6,17.1,250,12,,7.0,29.811024,1009.8,,,TRUE,TRUE,,,,,,SCT,4000,,,,,,,VFR,-0.9,27.4,22.4,,,,,,,,,METAR,10.0
RKSG 200555Z 25008G16KT 10SM CLR 27/15 A2983 RMK RMK AO2A SLP102 WND DATA ALSTG/SLP ESTMD $,RKSG,2023-05-20T05:55:00Z,36.97,127.02,27.0,15.0,250,8,16,10.0,29.828741,1010.2,,,TRUE,TRUE,,,,,,CLR,,,,,,,,VFR,,,,,,,,,,,,METAR,12.0
RKJK 200555Z AUTO 26011KT 7SM FEW150 21/14 A2984 RMK AO2 SLP109 T02090143 10239 20196 58002,RKJK,2023-05-20T05:55:00Z,35.9,126.62,20.9,14.3,260,11,,7.0,29.840551,1010.9,,TRUE,TRUE,,,,,,,FEW,15000,,,,,,,VFR,-0.2,23.9,19.6,,,,,,,,,METAR,8.0
RJTY 200555Z AUTO 06004KT 10SM OVC036 21/17 A2981 RMK AO2 SLP096 60000 T02130169 10228 20181 55000 $,RJTY,2023-05-20T05:55:00Z,35.75,139.33,21.3,16.9,60,4,,10.0,29.811024,1009.6,,TRUE,TRUE,TRUE,,,,,,OVC,3600,,,,,,,VFR,0.0,22.8,18.1,,,,,,,,,SPECI,136.0
PWAK 200555Z AUTO 07006KT 10SM FEW026 FEW032 28/21 A2983 RMK AO2 SLP107 T02750210 10285 20273 56011,PWAK,2023-05-20T05:55:00Z,19.28,166.62,27.5,21.0,70,6,,10.0,29.828741,1010.7,,TRUE,TRUE,,,,,,,FEW,2600,FEW,3200,,,,,VFR,-1.1,28.5,27.3,,,,,,,,,SPECI,7.0
PTTP 200555Z 12003KT 15SM FEW018 BKN300 32/25 A2977 RMK SLP081 60000 8/101 T03190253 10322 20295 55003,PTTP,2023-05-20T05:55:00Z,6.97,158.22,31.9,25.3,120,3,,15.0,29.769686,1008.1,,,,,,,,,,FEW,1800,BKN,30000,,,,,VFR,-0.3,32.2,29.5,,,,,,,,,SPECI,36.0
PHSF 200555Z AUTO 00000KT 10SM SCT170 14/12 A3041 RMK AO2 SLP194 T01350115 10219 20135 52016 $,PHSF,2023-05-20T05:55:00Z,19.77,-155.55,13.5,11.5,0,0,,10.0,30.410433,1019.4,,TRUE,TRUE,TRUE,,,,,,SCT,17000,,,,,,,VFR,1.6,21.9,13.5,,,,,,,,,SPECI,1863.0
PHHI 200555Z 00000KT 10SM SCT140 22/18 A3007 RMK AO2A SLP174 T02200176 10277 20220 52017 $,PHHI,2023-05-20T05:55:00Z,21.48,-158.05,22.0,17.6,0,0,,10.0,30.070866,1017.4,,,TRUE,TRUE,,,,,,SCT,14000,,,,,,,VFR,1.7,27.7,22.0,,,,,,,,,SPECI,246.0
PATL 200555Z AUTO 00000KT 10SM BKN110 BKN150 16/01 A2985 RMK AO2 SLP106 T01640013 10205 20171 53026 TSNO $,PATL,2023-05-20T05:55:00Z,62.9,-155.97,16.4,1.3,0,0,,10.0,29.84941,1010.6,,TRUE,TRUE,TRUE,,TRUE,,,,BKN,11000,BKN,15000,,,,,VFR,2.6,20.5,17.1,,,,,,,,,METAR,261.0
PATC 200555Z AUTO 04009KT 10SM CLR M01/M02 A2998 RMK AO2 SLP157 T10121022 11009 21024 57003,PATC,2023-05-20T05:55:00Z,65.57,-167.92,-1.2,-2.2,40,9,,10.0,29.97933,1015.7,,TRUE,TRUE,,,,,,,CLR,,,,,,,,VFR,-0.3,-0.9,-2.4,,,,,,,,,METAR,77.0
PASY 200555Z 33025KT 7SM BKN010 OVC030 04/02 A3010 RMK AO2A PK WND 32029/08 SLP197 T00430017 10054 20043 57013 PNO FZRANO $,PASY,2023-05-20T05:55:00Z,52.72,174.12,4.3,1.7,330,25,,7.0,30.100393,1019.7,,,TRUE,TRUE,,,TRUE,,,BKN,1000,OVC,3000,,,,,MVFR,-1.3,5.4,4.3,,,,,,,,,METAR,6.0
PASV 200555Z AUTO 12002KT 10SM SCT190 11/04 A2986 RMK AO2 SLP112 60006 T01080037 10136 20098 52014,PASV,2023-05-20T05:55:00Z,61.1,-155.57,10.8,3.7,120,2,,10.0,29.861221,1011.2,,TRUE,TRUE,,,,,,,SCT,19000,,,,,,,VFR,1.4,13.6,9.8,,,,,0.06,,,,METAR,462.0
PALU 200555Z AUTO 22021G31KT 140V290 10SM CLR 06/00 A2994 RMK AO2 PK WND 23038/0455 SLP138 T00580001 10067 20042 52020,PALU,2023-05-20T05:55:00Z,68.88,-166.1,5.8,0.1,220,21,31,10.0,29.940945,1013.8,,TRUE,TRUE,,,,,,,CLR,,,,,,,,VFR,2.0,6.7,4.2,,,,,,,,,METAR,8.0
PAIM 200555Z AUTO VRB03KT 10SM CLR 13/M02 A2983 RMK AO2 SLP102 T01341023 10170 20151 55001,PAIM,2023-05-20T05:55:00Z,66.0,-153.7,13.4,-2.3,0,3,,10.0,29.828741,1010.2,,TRUE,TRUE,,,,,,,CLR,,,,,,,,VFR,-0.1,17.0,15.1,,,,,,,,,METAR,309.0
PAFR 200555Z AUTO 12010G19KT 9SM FEW065 OVC120 14/02 A2996 RMK AO2 PK WND 11026/29 SLP151 T01360022 10162 20134 52003 $,PAFR,2023-05-20T05:55:00Z,61.27,-149.65,13.6,2.2,120,10,19,9.0,29.958662,1015.1,,TRUE,TRUE,TRUE,,,,,,FEW,6500,OVC,12000,,,,,VFR,0.3,16.2,13.4,,,,,,,,,METAR,106.0
PAFB 200555Z AUTO 23012KT 8SM CLR 23/00 A2973 RMK AO2 SLP072 T02260004 10259 20226 53011 $,PAFB,2023-05-20T05:55:00Z,64.83,-147.62,22.6,0.4,230,12,,8.0,29.731298,1007.2,,TRUE,TRUE,TRUE,,,,,,CLR,,,,,,,,VFR,1.1,25.9,22.6,,,,,,,,,METAR,137.0
PAEI 200555Z AUTO 25010KT 10SM CLR 22/01 A2971 RMK AO2 SLP062 T02230007 10265 20223 53014 $,PAEI,2023-05-20T05:55:00Z,64.67,-147.1,22.3,0.7,250,10,,10.0,29.71063,1006.2,,TRUE,TRUE,TRUE,,,,,,CLR,,,,,,,,VFR,1.4,26.5,22.3,,,,,,,,,METAR,166.0
PAEH 200555Z AUTO 08015KT 040V130 10SM OVC025 10/05 A2974 RMK AO2 SLP074 T00960051 10128 20094 53019,PAEH,2023-05-20T05:55:00Z,58.65,-162.07,9.6,5.1,80,15,,10.0,29.740158,1007.4,,TRUE,TRUE,,,,,,,OVC,2500,,,,,,,MVFR,1.9,12.8,9.4,,,,,,,,,METAR,101.0
PAED 200555Z 32003KT 10SM BKN130 14/04 A2994 RMK AO2A SLP135 T01350041 10171 20135 50004,PAED,2023-05-20T05:55:00Z,61.25,-149.83,13.5,4.1,320,3,,10.0,29.940945,1013.5,,,TRUE,,,,,,,BKN,13000,,,,,,,VFR,0.4,17.1,13.5,,,,,,,,,METAR,54.0
PACZ 200555Z AUTO 05031KT 10SM BKN100 05/M04 A2982 RMK AO2 PK WND 04037/0457 SLP104 T00471036 10051 20018 53008,PACZ,2023-05-20T05:55:00Z,61.78,-166.03,4.7,-3.6,50,31,,10.0,29.819881,1010.4,,TRUE,TRUE,,,,,,,BKN,10000,,,,,,,VFR,0.8,5.1,1.8,,,,,,,,,METAR,129.0
OTBH 200555Z 31012KT 9999 BKN170 35/15 A2977 Q1007 RMK AO2A SLP082 T03460145 10346 20262 51014 FZRANO CHINO RWY34 $,OTBH,2023-05-20T05:55:00Z,25.12,51.32,34.6,14.5,310,12,,6.21,29.734253,1008.2,,,TRUE,TRUE,,,TRUE,,,BKN,17000,,,,,,,VFR,1.4,34.6,26.2,,,,,,,,,SPECI,40.0
OPLA 200555Z 31012KT 6000 NSC 37/16 Q1004 TEMPO 33015G30KT RMK QFE979 A29.67,OPLA,2023-05-20T05:55:00Z,31.52,74.4,37.0,16.0,310,12,,3.73,29.64567,,,,,,,,,,,CLR,,,,,,,,MVFR,,,,,,,,,,,,METAR,217.0
OKAS 200555Z 14014KT 9999 SCT150 33/14 A2976 RMK AO2A SLP073 T03290140 10330 20268 52011 FZRANO $,OKAS,2023-05-20T05:55:00Z,29.35,47.52,32.9,14.0,140,14,,6.21,29.760826,1007.3,,,TRUE,TRUE,,,TRUE,,,SCT,15000,,,,,,,VFR,1.1,33.0,26.8,,,,,,,,,METAR,144.0
OEPS 200555Z VRB05KT 9999 SCT150 33/12 A2988 RMK AO2A SLP097 WND DATA ESTMD 60001 T03340124 10355 20247,OEPS,2023-05-20T05:55:00Z,24.07,47.58,33.4,12.4,0,5,,6.21,29.878937,1009.7,,,TRUE,,,,,,,SCT,15000,,,,,,,VFR,,35.5,24.7,,,,,,,,,SPECI,503.0
NZCM 200555Z AUTO 00000KT 9999 FEW085 M27/M32 A2912 RMK AO2 SLP869 T12721321 11257 21287 57001,NZCM,2023-05-20T05:55:00Z,-77.85,166.67,-27.2,-32.1,0,0,,6.21,29.120079,986.9,,TRUE,TRUE,,,,,,,FEW,8500,,,,,,,VFR,-0.1,-25.7,-28.7,,,,,,,,,SPECI,24.0
MMML 200555Z 15008KT 10SM SKC 24/16 A2995 RMK SLP142 52023 937 ISOL-CI,MMML,2023-05-20T05:55:00Z,32.62,-115.23,24.0,16.0,150,8,,10.0,29.949802,1014.2,,,,,,,,,,SKC,,,,,,,,VFR,2.3,,,,,,,,,,,METAR,21.0
LIVR 200555Z 34008KT 9999 OVC025 04/02 Q1020 RMK OVC MON GEN INC VIS MIN 9999,LIVR,2023-05-20T05:55:00Z,46.28,11.78,4.0,2.0,340,8,,6.21,30.11811,,,,,,,,,,,OVC,2500,,,,,,,MVFR,,,,,,,,,,,,METAR,1997.0
LIVP 200555Z 04005KT 360V080 0900 -RA FG VV/// 02/01 Q1018 RMK MON INVIS VAL INVIS VIS MIN 0900,LIVP,2023-05-20T05:55:00Z,46.15,11.03,2.0,1.0,40,5,,0.56,30.059055,,,,,,,,,,-RA FG,OVX,0,,,,,,,LIFR,,,,,,,,,,,,SPECI,2099.0
LIVM 200555Z AUTO VRB03KT //// 16/14 Q1014,LIVM,2023-05-20T05:55:00Z,44.45,12.3,16.0,14.0,0,3,,,29.940945,,,TRUE,,,,,,,,,,,,,,,,,,,,,,,,,,,,SPECI,6.0
LIVF 200555Z 12005KT 6000 -RA FEW004 OVC015 11/10 Q1013 RMK OVC MON S W CIME INC ELEV SLW VAL CLD SCT VIS MIN 6000,LIVF,2023-05-20T05:55:00Z,43.52,12.72,11.0,10.0,120,5,,3.73,29.911417,,,,,,,,,,-RA,FEW,400,OVC,1500,,,,,MVFR,,,,,,,,,,,,SPECI,549.0
LIVD 200555Z AUTO 08008KT //// 08/07 Q1021,LIVD,2023-05-20T05:55:00Z,46.72,12.22,8.0,7.0,80,8,,,30.147638,,,TRUE,,,,,,,,,,,,,,,,,,,,,,,,,,,,SPECI,1221.0
LIVC 200555Z AUTO 10027G37KT //// ///// Q////,LIVC,2023-05-20T05:55:00Z,44.2,10.68,,,100,27,37,,,,,TRUE,,,,,,,,,,,,,,,,,,,,,,,,,,,,SPECI,2139.0
LIRX 200555Z AUTO 12008KT //// 13/13 Q1009,LIRX,2023-05-20T05:55:00Z,42.73,10.38,13.0,13.0,120,8,,,29.793306,,,TRUE,,,,,,,,,,,,,,,,,,,,,,,,,,,,SPECI,397.0
LIRV 200555Z 05010KT 9999 FEW015 SCT030 14/12 Q1011 RMK OVC BKN060 MON E SE CIME INC NC VIS MIN 9999 WIND THR04 ///// KT BLU,LIRV,2023-05-20T05:55:00Z,42.42,12.07,14.0,12.0,50,10,,6.21,29.852362,,,,,,,,,,,FEW,1500,SCT,3000,,,,,VFR,,,,,,,,,,,,METAR,294.0
LIRT 200555Z 12006KT 0000 FG VV/// 09/08 Q1011 RMK MON INVIS VAL INVIS VIS MIN 0000,LIRT,2023-05-20T05:55:00Z,41.03,15.22,9.0,8.0,120,6,,0.0,29.852362,,,,,,,,,,FG,OVX,0,,,,,,,LIFR,,,,,,,,,,,,METAR,1058.0
LIRS 200555Z 05014KT 9999 FEW015 SCT025 BKN060 16/14 Q1009 RERA RMK OVC VIS MIN 9999 WIND THR03 06013KT WIND THR21 05012KT BLU,LIRS,2023-05-20T05:55:00Z,42.75,11.07,16.0,14.0,50,14,,6.21,29.793306,,,,,,,,,,,FEW,1500,SCT,2500,BKN,6000,,,VFR,,,,,,,,,,,,SPECI,3.0
LIRM 200555Z 01014KT 9999 -RA SCT040 BKN070 16/13 Q1007 RMK OVC VIS MIN 9999 WIND THR06 05015KT BLU,LIRM,2023-05-20T05:55:00Z,41.05,14.07,16.0,13.0,10,14,,6.21,29.734253,,,,,,,,,,-RA,SCT,4000,BKN,7000,,,,,VFR,,,,,,,,,,,,METAR,6.0
LIRK 200555Z AUTO /////KT //// 05/05 Q1019,LIRK,2023-05-20T05:55:00Z,42.47,12.97,5.0,5.0,,,,,30.088583,,,TRUE,,,,,,,,,,,,,,,,,,,,,,,,,,,,SPECI,1721.0
LIRH 200555Z 12002KT 7000 -DZ SCT035 15/14 Q1010 RMK OVC BKN100 MON CIME INC NC VIS MIN 7000 WHT,LIRH,2023-05-20T05:55:00Z,41.65,13.3,15.0,14.0,120,2,,4.35,29.822834,,,,,,,,,,-DZ,SCT,3500,,,,,,,MVFR,,,,,,,,,,,,SPECI,183.0
LIRE 200555Z 36005KT 9999 FEW050 17/15 Q1007 RMK OVC SCT100 VIS MIN 9999 WIND THR13 36006KT WIND THR31 /////KT BLU,LIRE,2023-05-20T05:55:00Z,41.65,12.43,17.0,15.0,360,5,,6.21,29.734253,,,,,,,,,,,FEW,5000,,,,,,,VFR,,,,,,,,,,,,SPECI,16.0
LIQC 200555Z 06009KT 9999 SCT025 17/13 Q1007 RMK OVC BKN070 QUK 2 QUL 2 NE VIS MAR 15 KM VIS MIN 9999,LIQC,2023-05-20T05:55:00Z,40.55,14.2,17.0,13.0,60,9,,6.21,29.734253,,,,,,,,,,,SCT,2500,,,,,,,VFR,,,,,,,,,,,,METAR,154.0
LIPS 200555Z 03006KT 9999 BKN100 17/12 Q1015 RMK BKN VIS MIN 9999 WIND THR26 03006KT WIND THR08 06006KT BLU,LIPS,2023-05-20T05:55:00Z,45.68,12.1,17.0,12.0,30,6,,6.21,29.970472,,,,,,,,,,,BKN,10000,,,,,,,VFR,,,,,,,,,,,,SPECI,42.0
LIPL 200555Z 04005KT 9999 SCT040 SCT070 14/13 Q1014 RMK BKN VIS MIN 9999 WIND THR31 /////KT WIND THR13 02004KT BLU,LIPL,2023-05-20T05:55:00Z,45.42,10.27,14.0,13.0,40,5,,6.21,29.940945,,,,,,,,,,,SCT,4000,SCT,7000,,,,,VFR,,,,,,,,,,,,SPECI,96.0
LIPI 200555Z 36006KT 9999 BKN080 SCT110 17/13 Q1015 RMK OVC VIS MIN 9999 WIND THR06 04007KT WIND THR24 01005KT BLU,LIPI,2023-05-20T05:55:00Z,45.97,13.05,17.0,13.0,360,6,,6.21,29.970472,,,,,,,,,,,BKN,8000,SCT,11000,,,,,VFR,,,,,,,,,,,,SPECI,49.0
LIPC 200555Z 26006KT 2500 BR SCT010 BKN025 14/14 Q1014 RMK OVC VIS MIN 2500 WIND THR11 27006KT WIND THR29 26005KT YLO,LIPC,2023-05-20T05:55:00Z,44.22,12.3,14.0,14.0,260,6,,1.55,29.940945,,,,,,,,,,BR,SCT,1000,BKN,2500,,,,,IFR,,,,,,,,,,,,SPECI,10.0
LIPA 200555Z 04008KT 9999 FEW050 BKN080 19/13 Q1015 RMK BKN VIS MIN 9999 WIND THR05 07009KT WIND THR23 04008KT A2999 BLU,LIPA,2023-05-20T05:55:00Z,46.02,12.58,19.0,13.0,40,8,,6.21,29.970472,,,,,,,,,,,FEW,5000,BKN,8000,,,,,VFR,,,,,,,,,,,,SPECI,113.0
LIMV 200555Z /////KT 9999 FEW006 11/10 Q1014 RMK OVC SCT060 MON N CIME INC S LIB VAL NIL VIS MIN 9999,LIMV,2023-05-20T05:55:00Z,44.55,8.93,11.0,10.0,,,,6.21,29.940945,,,,,,,,,,,FEW,600,,,,,,,VFR,,,,,,,,,,,,METAR,474.0
LIMU 200555Z 36015KT 9999 FEW020 SCT023 14/11 Q1012 RMK OVC QUK 3 QUL 1 SE VIS MAR 35 KM VIS MIN 9999,LIMU,2023-05-20T05:55:00Z,43.95,8.17,14.0,11.0,360,15,,6.21,29.88189,,,,,,,,,,,FEW,2000,SCT,2300,,,,,VFR,,,,,,,,,,,,METAR,215.0
LIMS 200555Z 07001KT 2000 -RA BR BKN005 SCT020 18/18 Q1014 RMK OVC VIS MIN 2000 WIND THR30 05001KT YLO,LIMS,2023-05-20T05:55:00Z,44.92,9.72,18.0,18.0,70,1,,1.24,29.940945,,,,,,,,,,-RA BR,BKN,500,SCT,2000,,,,,IFR,,,,,,,,,,,,SPECI,132.0
LIMK 200555Z 36014KT 330V030 0100 -RA FG VV/// 09/09 Q1015 RMK VAL INVIS VIS MIN 0100,LIMK,2023-05-20T05:55:00Z,45.02,7.72,9.0,9.0,360,14,,0.06,29.970472,,,,,,,,,,-RA FG,OVX,0,,,,,,,LIFR,,,,,,,,,,,,SPECI,693.0
LIMH 200555Z AUTO /////KT //// ///// Q////,LIMH,2023-05-20T05:55:00Z,45.93,7.7,,,,,,,,,,TRUE,,,,,,,,,,,,,,,,,,,,,,,,,,,,SPECI,3473.0
LIED 200555Z 34007KT 9999 FEW025CB SCT030 16/14 Q1002 RMK OVC BKN080 VIS MIN 9999 WIND THR35 /////KT WIND THR17 34006KT BLU,LIED,2023-05-20T05:55:00Z,39.35,8.97,16.0,14.0,340,7,,6.21,29.586615,,,,,,,,,,,FEW,2500,SCT,3000,,,,,VFR,,,,,,,,,,,,SPECI,26.0
LIEB 200555Z 06023KT 9999 -TSRA FEW025CB BKN030 15/13 Q1004 RMK OVC QUK 3 QUL 0 VIS MAR 20 KM MON W CIME INC NC VIS MIN 9999,LIEB,2023-05-20T05:55:00Z,39.93,9.72,15.0,13.0,60,23,,6.21,29.64567,,,,,,,,,,-TSRA,FEW,2500,BKN,3000,,,,,MVFR,,,,,,,,,,,,SPECI,126.0
LICZ 200555Z 06034G44KT 3000 -RA BR SCT025 BKN070 17/17 Q1001 RMK OVC BKN160 VIS MIN 3000 WIND THR28 06030G40KT WIND THR10 06034G44KT A2958 YLO,LICZ,2023-05-20T05:55:00Z,37.4,14.92,17.0,17.0,60,34,44,1.86,29.557087,,,,,,,,,,-RA BR,SCT,2500,BKN,7000,,,,,IFR,,,,,,,,,,,,METAR,22.0
LICT 200555Z 08009KT 9999 FEW020TCU 20/13 Q0999 RMK OVC SCT060 BKN150 VIS MIN 9999 WIND THR13 08009KT BLU,LICT,2023-05-20T05:55:00Z,37.92,12.5,20.0,13.0,80,9,,6.21,29.498032,,,,,,,,,,,FEW,2000,,,,,,,VFR,,,,,,,,,,,,SPECI,4.0
LICF 200555Z 24009KT 9999 FEW040 21/13 Q1004 RMK OVC BKN080 OVC090 QUK 2 QUL 1 SW VIS MAR 20 KM MON LIB VAR RAPID VIS MIN 9999,LICF,2023-05-20T05:55:00Z,38.2,15.55,21.0,13.0,240,9,,6.21,29.64567,,,,,,,,,,,FEW,4000,,,,,,,VFR,,,,,,,,,,,,METAR,66.0
LIBY 200555Z ///10KT 9999 SCT025 18/16 Q1010 RMK OVC BKN080 QUK 0 QUL 0 VIS MAR 10 KM VIS MIN 9999,LIBY,2023-05-20T05:55:00Z,39.82,18.35,18.0,16.0,,,,6.21,29.822834,,,,,,,,,,,SCT,2500,,,,,,,VFR,,,,,,,,,,,,METAR,105.0
LIBV 200555Z 02004KT 7000 NSC 14/14 Q1011 RMK OVC SCT060 BKN100 VIS MIN 7000 WIND THR32 03005KT WIND THR14 02003KT WHT,LIBV,2023-05-20T05:55:00Z,40.77,16.93,14.0,14.0,20,4,,4.35,29.852362,,,,,,,,,,,CLR,,,,,,,,MVFR,,,,,,,,,,,,SPECI,344.0
LIBQ 200555Z AUTO 09014G32KT 010V150 //// 11/05 Q1012,LIBQ,2023-05-20T05:55:00Z,39.32,16.38,11.0,5.0,90,14,32,,29.88189,,,TRUE,,,,,,,,,,,,,,,,,,,,,,,,,,,,SPECI,1660.0
LIBN 200555Z 05004KT 8000 FEW035 18/17 Q1011 RMK BKN BKN120 VIS MIN 8000 WIND THR14 04004KT WIND THR32 05003KT BLU,LIBN,2023-05-20T05:55:00Z,40.23,18.13,18.0,17.0,50,4,,4.97,29.852362,,,,,,,,,,,FEW,3500,,,,,,,MVFR,,,,,,,,,,,,METAR,46.0
LIBA 200555Z 35003KT 9999 FEW050 15/14 Q1012 RMK OVC OVC100 VIS MIN 9999 WIND THR11 34002KT WIND THR29 /////KT BLU,LIBA,2023-05-20T05:55:00Z,41.53,15.72,15.0,14.0,350,3,,6.21,29.88189,,,,,,,,,,,FEW,5000,,,,,,,VFR,,,,,,,,,,,,SPECI,55.0
KXNO 200555Z AUTO 36004KT 10SM SCT007 OVC018 18/18 A3006 RMK AO2 DZB40E52 CIG 006V018 SLPNO P0000 60000 T01810181 10190 20181 57013 $,KXNO,2023-05-20T05:55:00Z,33.62,-81.07,18.1,18.1,360,4,,10.0,30.059055,,,TRUE,TRUE,TRUE,,,,,,SCT,700,OVC,1800,,,,,MVFR,-1.3,19.0,18.1,,,0.005,,0.005,,,,METAR,94.0
KXMR 200555Z AUTO 03003KT 10SM BKN110 23/22 A2998 RMK AO2 SLPNO 60010 T02320218 10258 20231 57014 $,KXMR,2023-05-20T05:55:00Z,28.47,-80.57,23.2,21.8,30,3,,10.0,29.97933,,,TRUE,TRUE,TRUE,,,,,,BKN,11000,,,,,,,VFR,-1.4,25.8,23.1,,,,,0.1,,,,METAR,5.0
KW63 200555Z AUTO 00000KT 10SM CLR 15/15 A3008 RMK AO1,KW63,2023-05-20T05:55:00Z,36.6,-78.55,15.0,15.0,0,0,,10.0,30.079725,,,TRUE,TRUE,,,,,,,CLR,,,,,,,,VFR,,,,,,,,,,,,METAR,126.0
KVPS 200555Z AUTO 08006KT 10SM CLR 23/19 A3002 RMK AO2 SLPNO T02250194 10257 20225 402880202 58008 $,KVPS,2023-05-20T05:55:00Z,30.47,-86.52,22.5,19.4,80,6,,10.0,30.02067,,,TRUE,TRUE,TRUE,,,,,,CLR,,,,,,,,VFR,-0.8,25.7,22.5,28.8,20.2,,,,,,,METAR,21.0
KVOK 200555Z AUTO 29005KT 10SM CLR 04/03 A3015 RMK AO2 SLP217 T00360032 10138 20034 401620034 50001,KVOK,2023-05-20T05:55:00Z,43.93,-90.27,3.6,3.2,290,5,,10.0,30.15059,1021.7,,TRUE,TRUE,,,,,,,CLR,,,,,,,,VFR,0.1,13.8,3.4,16.2,3.4,,,,,,,METAR,278.0
KVKS 200555Z AUTO 00000KT 10SM CLR 22/M38 A3000 RMK A01,KVKS,2023-05-20T05:55:00Z,32.23,-90.93,22.0,-38.0,0,0,,10.0,30.0,,,TRUE,TRUE,,,,,,,CLR,,,,,,,,VFR,,,,,,,,,,,,METAR,31.0
KVBG 200555Z AUTO 31005KT 4SM BR OVC003 11/11 A3010 RMK AO2 SLP196 T01090109 10136 20109 50006 TSNO $,KVBG,2023-05-20T05:55:00Z,34.73,-120.58,10.9,10.9,310,5,,4.0,30.100393,1019.6,,TRUE,TRUE,TRUE,,TRUE,,,BR,OVC,300,,,,,,,LIFR,0.6,13.6,10.9,,,,,,,,,METAR,96.0
KVAD 200555Z AUTO 00000KT 10SM CLR 19/17 A3004 RMK AO2 SLPNO T01870174 10231 20187 58006 $,KVAD,2023-05-20T05:55:00Z,30.97,-83.2,18.7,17.4,0,0,,10.0,30.041338,,,TRUE,TRUE,TRUE,,,,,,CLR,,,,,,,,VFR,-0.6,23.1,18.7,,,,,,,,,METAR,70.0
KUMP 200555Z AUTO 36003KT 7SM BKN060 OVC070 14/14 A3004 RMK AO2 60001 T01430137 10185 20143,KUMP,2023-05-20T05:55:00Z,39.93,-86.05,14.3,13.7,360,3,,7.0,30.041338,,,TRUE,TRUE,,,,,,,BKN,6000,OVC,7000,,,,,VFR,,18.5,14.3,,,,,,,,,SPECI,247.0
KUKL 200555Z AUTO 33007KT 10SM CLR 09/08 A3022 RMK AO2 T00900075 10142 20086 401850086,KUKL,2023-05-20T05:55:00Z,38.3,-95.73,9.0,7.5,330,7,,10.0,30.221457,,,TRUE,TRUE,,,,,,,CLR,,,,,,,,VFR,,14.2,8.6,18.5,8.6,,,,,,,METAR,357.0
KTTS 200555Z AUTO 00000KT 10SM OVC100 23/22 A2998 RMK AO2 RAB13E27DZB27E30 SLPNO P0000 60000 T02270215 10248 20227 58012 $,KTTS,2023-05-20T05:55:00Z,28.58,-80.67,22.7,21.5,0,0,,10.0,29.97933,,,TRUE,TRUE,TRUE,,,,,,OVC,10000,,,,,,,VFR,-1.2,24.8,22.7,,,0.005,,0.005,,,,METAR,1.0
KTIK 200555Z AUTO 36012KT 10SM CLR 13/12 A3018 RMK AO2 SLPNO T01270116 10167 20127 402610127 52009 $,KTIK,2023-05-20T05:55:00Z,35.4,-97.38,12.7,11.6,360,12,,10.0,30.180119,,,TRUE,TRUE,TRUE,,,,,,CLR,,,,,,,,VFR,0.9,16.7,12.7,26.1,12.7,,,,,,,METAR,387.0
KTDR 200555Z AUTO 07007KT 10SM CLR 22/20 A2998 RMK AO2 SLPNO T02220203 10269 20222 403010204 58009 $,KTDR,2023-05-20T05:55:00Z,30.05,-85.52,22.2,20.3,70,7,,10.0,29.97933,,,TRUE,TRUE,TRUE,,,,,,CLR,,,,,,,,VFR,-0.9,26.9,22.2,30.1,20.4,,,,,,,METAR,4.0
KTCM 200555Z AUTO 00000KT 10SM CLR 18/12 A3007 RMK AO2 SLP185 T01810116 10247 20157 52012,KTCM,2023-05-20T05:55:00Z,47.13,-122.47,18.1,11.6,0,0,,10.0,30.070866,1018.5,,TRUE,TRUE,,,,,,,CLR,,,,,,,,VFR,1.2,24.7,15.7,,,,,,,,,METAR,87.0
KTBX 200555Z AUTO 10SM CLR 10/M02 A3044 RMK AO2,KTBX,2023-05-20T05:55:00Z,43.47,-108.23,10.0,-2.0,,,,10.0,30.43996,,,TRUE,TRUE,,,,,,,CLR,,,,,,,,VFR,,,,,,,,,,,,SPECI,2230.0
KTBN 200555Z AUTO 33006KT 7SM FEW005 SCT037 OVC060 13/13 A3012 RMK AO2 SLPNO 60003 T01250125 10146 20125 402450125 52005 $,KTBN,2023-05-20T05:55:00Z,37.73,-92.13,12.5,12.5,330,6,,7.0,30.121063,,,TRUE,TRUE,TRUE,,,,,,FEW,500,SCT,3700,OVC,6000,,,VFR,0.5,14.6,12.5,24.5,12.5,,,0.03,,,,METAR,349.0
KT70 200555Z AUTO 00000KT 9SM FEW055 SCT170 26/22 A3001 RMK AO2 LTG DSNT SE RAB0456E15RAB30E39 SLPNO P0000 60000 T02560219 10325 20254 403370195 51014 $,KT70,2023-05-20T05:55:00Z,29.12,-100.48,25.6,21.9,0,0,,9.0,30.008858,,,TRUE,TRUE,TRUE,,,,,,FEW,5500,SCT,17000,,,,,VFR,1.4,32.5,25.4,33.7,19.5,0.005,,0.005,,,,METAR,296.0
KT35 200555Z AUTO 35018G29KT 1 1/4SM +TSRA BKN007 BKN013 OVC017 21/20 A3013 RMK AO2 LTG DSNT ALQS P0054 60054 T02050198 10299 20205 403270205,KT35,2023-05-20T05:55:00Z,30.88,-96.97,20.5,19.8,350,18,29,1.25,30.129921,,,TRUE,TRUE,,,,,,+TSRA,BKN,700,BKN,1300,OVC,1700,,,IFR,,29.9,20.5,32.7,20.5,0.54,,,,,,SPECI,122.0
KT20 200555Z AUTO 00000KT 10SM CLR 24/23 A3008 RMK AO2 LTG DSNT N T02380230 10307 20237 403260207,KT20,2023-05-20T05:55:00Z,29.52,-97.47,23.8,23.0,0,0,,10.0,30.079725,,,TRUE,TRUE,,,,,,,CLR,,,,,,,,VFR,,30.7,23.7,32.6,20.7,,,,,,,SPECI,107.0
KSZT 200555Z AUTO 30003KT 10SM CLR 15/12 A3006 RMK AO2,KSZT,2023-05-20T05:55:00Z,48.3,-116.57,15.0,12.0,300,3,,10.0,30.059055,,,TRUE,TRUE,,,,,,,CLR,,,,,,,,VFR,,,,,,,,,,,,SPECI,649.0
KSZL 200555Z AUTO 29003KT 10SM CLR 09/08 A3016 RMK AO2 SLPNO T00860080 10142 20085 401910085 51006 $,KSZL,2023-05-20T05:55:00Z,38.73,-93.53,8.6,8.0,290,3,,10.0,30.159449,,,TRUE,TRUE,TRUE,,,,,,CLR,,,,,,,,VFR,0.6,14.2,8.5,19.1,8.5,,,,,,,METAR,259.0
KSXS 200555Z AUTO 00000KT 10SM CLR 19/19 A3003 RMK AO2 SLPNO T01880186 10230 20188 402630188 57012,KSXS,2023-05-20T05:55:00Z,31.37,-85.85,18.8,18.6,0,0,,10.0,30.029528,,,TRUE,TRUE,,,,,,,CLR,,,,,,,,VFR,-1.2,23.0,18.8,26.3,18.8,,,,,,,METAR,120.0
KSUU 200555Z AUTO 22021G27KT 10SM CLR 14/10 A2997 RMK AO2 PK WND 22029/03 SLP155 T01380096 10245 20138 52010,KSUU,2023-05-20T05:55:00Z,38.27,-121.93,13.8,9.6,220,21,27,10.0,29.970472,1015.5,,TRUE,TRUE,,,,,,,CLR,,,,,,,,VFR,1.0,24.5,13.8,,,,,,,,,METAR,9.0
KSLR 200555Z AUTO 36009KT 10SM OVC012 22/21 A3009 RMK AO2 T02210205 10250 20221 403160190,KSLR,2023-05-20T05:55:00Z,33.17,-95.62,22.1,20.5,360,9,,10.0,30.088583,,,TRUE,TRUE,,,,,,,OVC,1200,,,,,,,MVFR,,25.0,22.1,31.6,19.0,,,,,,,SPECI,144.0
KSLI 200555Z AUTO 19003KT 10SM OVC016 16/14 A3004 RMK AO2 SLP176 T01640139 10185 20163 50008,KSLI,2023-05-20T05:55:00Z,33.78,-118.03,16.4,13.9,190,3,,10.0,30.041338,1017.6,,TRUE,TRUE,,,,,,,OVC,1600,,,,,,,MVFR,0.8,18.5,16.3,,,,,,,,,METAR,8.0
KSKA 200555Z 28004KT 6SM FU CLR 20/10 A3005 RMK AO2A SLP158 T02020103 10292 20192 51012,KSKA,2023-05-20T05:55:00Z,47.62,-117.67,20.2,10.3,280,4,,6.0,30.050198,1015.8,,,TRUE,,,,,,FU,CLR,,,,,,,,VFR,1.2,29.2,19.2,,,,,,,,,METAR,754.0
KSEQ 200555Z AUTO 12004KT 9SM CLR 23/23 A3004 RMK AO2 SLPNO T02330229 10298 20230 403170188 50023,KSEQ,2023-05-20T05:55:00Z,29.57,-97.9,23.3,22.9,120,4,,9.0,30.041338,,,TRUE,TRUE,,,,,,,CLR,,,,,,,,VFR,2.3,29.8,23.0,31.7,18.8,,,,,,,METAR,160.0
KSCK 200555Z AUTO 28006KT 10SM CLR 17/09 A2999 RMK AO2 SLP156 T01670089 10300 20167 51012,KSCK,2023-05-20T05:55:00Z,37.88,-121.22,16.7,8.9,280,6,,10.0,29.991142,1015.6,,TRUE,TRUE,,,,,,,CLR,,,,,,,,VFR,1.2,30.0,16.7,,,,,,,,,METAR,8.0
KSBO 200555Z AUTO 00000KT 7SM OVC017 A3009 RMK AO2,KSBO,2023-05-20T05:55:00Z,32.62,-82.37,,,0,0,,7.0,30.088583,,,TRUE,TRUE,,,,,,,OVC,1700,,,,,,,MVFR,,,,,,,,,,,,METAR,98.0
KS33 200555Z AUTO 00000KT 10SM SCT100 A3015 RMK AO2,KS33,2023-05-20T05:55:00Z,44.67,-121.15,,,0,0,,10.0,30.15059,,,TRUE,TRUE,,,,,,,SCT,10000,,,,,,,VFR,,,,,,,,,,,,SPECI,739.0
KRZT 200555Z AUTO 24006KT 10SM CLR 18/17 A2999 RMK AO2 PWINO,KRZT,2023-05-20T05:55:00Z,39.43,-83.02,18.0,17.0,240,6,,10.0,29.991142,,,TRUE,TRUE,,,,,TRUE,,CLR,,,,,,,,VFR,,,,,,,,,,,,SPECI,217.0
KRYM 200555Z AUTO 00000KT 10SM CLR 05/04 A3023 RMK AO2 SLP247 T00540036 10157 20048 401610048 51007 $,KRYM,2023-05-20T05:55:00Z,46.08,-94.37,5.4,3.6,0,0,,10.0,30.230314,1024.7,,TRUE,TRUE,TRUE,,,,,,CLR,,,,,,,,VFR,0.7,15.7,4.8,16.1,4.8,,,,,,,METAR,344.0
KRWV 200555Z AUTO 21005KT 10SM CLR 24/19 A3007 RMK AO2 LTG DSNT W THRU N T02450195 10299 20244,KRWV,2023-05-20T05:55:00Z,30.52,-96.7,24.5,19.5,210,5,,10.0,30.070866,,,TRUE,TRUE,,,,,,,CLR,,,,,,,,VFR,,29.9,24.4,,,,,,,,,SPECI,116.0
KRNO 200555Z 28005KT 10SM SCT100 23/07 A3014 RMK AO2 SLP146 T02330067 10317 20233 53017,KRNO,2023-05-20T05:55:00Z,39.5,-119.77,23.3,6.7,280,5,,10.0,30.138779,1014.6,,,TRUE,,,,,,,SCT,10000,,,,,,,VFR,1.7,31.7,23.3,,,,,,,,,METAR,1344.0
KRIV 200555Z AUTO 29004KT 10SM CLR 15/14 A3007 RMK AO2 SLP174 T01480143 10238 20148 51012,KRIV,2023-05-20T05:55:00Z,33.87,-117.23,14.8,14.3,290,4,,10.0,30.070866,1017.4,,TRUE,TRUE,,,,,,,CLR,,,,,,,,VFR,1.2,23.8,14.8,,,,,,,,,METAR,454.0
KRDR 200555Z AUTO 22004KT 10SM CLR 09/04 A3020 RMK AO2 SLP235 T00860036 10195 20074 402040043 58003 $,KRDR,2023-05-20T05:55:00Z,47.93,-97.4,8.6,3.6,220,4,,10.0,30.200787,1023.5,,TRUE,TRUE,TRUE,,,,,,CLR,,,,,,,,VFR,-0.3,19.5,7.4,20.4,4.3,,,,,,,METAR,276.0
KRCA 200555Z AUTO 14007KT 10SM CLR 09/05 A3025 RMK AO2 SLP248 T00850045 10163 20085 58001 $,KRCA,2023-05-20T05:55:00Z,44.15,-103.12,8.5,4.5,140,7,,10.0,30.250984,1024.8,,TRUE,TRUE,TRUE,,,,,,CLR,,,,,,,,VFR,-0.1,16.3,8.5,,,,,,,,,METAR,993.0
KQVF 200555Z AUTO 18012KT 9999 FEW018 SCT022 29/24 A2996 RMK AO2 SLPNO WND DATA ESTMD T02920243 10296 20252 52018,KQVF,2023-05-20T05:55:00Z,,,29.2,24.3,180,12,,6.21,29.958662,,,TRUE,TRUE,,,,,,,FEW,1800,SCT,2200,,,,,VFR,1.8,29.6,25.2,,,,,,,,,METAR,
KQTZ 200555Z 15009KT 9000 HZ SCT020 BKN150 32/14 A2965 RMK TS DSNT NW MOV NNE DU SCT020 SLP044 53007,KQTZ,2023-05-20T05:55:00Z,,,32.0,14.0,150,9,,5.59,29.648623,1004.4,,,,,,,,,HZ,SCT,2000,BKN,15000,,,,,VFR,0.7,,,,,,,,,,,SPECI,
KQRH 200555Z AUTO VRB03KT 9999 CLR 35/24 A2974 RMK AO2 SLP073 WND DATA ESTMD T03510240 10356 20304 51008,KQRH,2023-05-20T05:55:00Z,,,35.1,24.0,0,3,,6.21,29.740158,1007.3,,TRUE,TRUE,,,,,,,CLR,,,,,,,,VFR,0.8,35.6,30.4,,,,,,,,,METAR,
KQOA 200555Z AUTO 33009KT 9999 FEW070 25/23 A3001 RMK AO2 SLP113 T02500230 10298 20250 403550227 50005 PNO FZRANO TSNO $,KQOA,2023-05-20T05:55:00Z,,,25.0,23.0,330,9,,6.21,30.008858,1011.3,,TRUE,TRUE,TRUE,,TRUE,TRUE,,,FEW,7000,,,,,,,VFR,0.5,29.8,25.0,35.5,22.7,,,,,,,METAR,
KQN3 200555Z 22005KT 9999 CLR 31/22 A2985 RMK AO2A SLP087 T03060217 10340 20304 53009,KQN3,2023-05-20T05:55:00Z,,,30.6,21.7,220,5,,6.21,29.84941,1008.7,,,TRUE,,,,,,,CLR,,,,,,,,VFR,0.9,34.0,30.4,,,,,,,,,METAR,
KQHY 200555Z AUTO 12004KT 10SM BKN019 BKN025 BKN041 25/21 A3002 RMK AO2 LTG DSNT N SLPNO T02460211 10259 20238 402750205 58008,KQHY,2023-05-20T05:55:00Z,,,24.6,21.1,120,4,,10.0,30.02067,,,TRUE,TRUE,,,,,,,BKN,1900,BKN,2500,BKN,4100,,,MVFR,-0.8,25.9,23.8,27.5,20.5,,,,,,,METAR,
KQDG 200555Z AUTO 13009KT 9999 OVC009 14/11 A2994 RMK AO2 SLP140 T01380106 10159 20117 55002 $,KQDG,2023-05-20T05:55:00Z,,,13.8,10.6,130,9,,6.21,29.940945,1014.0,,TRUE,TRUE,TRUE,,,,,,OVC,900,,,,,,,IFR,-0.2,15.9,11.7,,,,,,,,,METAR,
KQD3 200555Z AUTO VRB05KT 9000 HZ CLR 34/24 A2979 RMK AO2 SLPNO WND DATA ESTMD T03430236 10347 20301,KQD3,2023-05-20T05:55:00Z,,,34.3,23.6,0,5,,5.59,29.790354,,,TRUE,TRUE,,,,,,HZ,CLR,,,,,,,,VFR,,34.7,30.1,,,,,,,,,METAR,
KQAZ 200555Z AUTO 34006KT 9999 CLR 31/01 A2982 RMK AO2 SLPNO WND DATA ESTMD T03110005 10331 20297 53009,KQAZ,2023-05-20T05:55:00Z,,,31.1,0.5,340,6,,6.21,29.819881,,,TRUE,TRUE,,,,,,,CLR,,,,,,,,VFR,0.9,33.1,29.7,,,,,,,,,SPECI,
KPVW 200555Z AUTO 05009KT 7SM OVC014 13/10 A3033 RMK AO2 T01310100 10169 20130 402230130,KPVW,2023-05-20T05:55:00Z,34.17,-101.72,13.1,10.0,50,9,,7.0,30.33071,,,TRUE,TRUE,,,,,,,OVC,1400,,,,,,,MVFR,,16.9,13.0,22.3,13.0,,,,,,,SPECI,1029.0
KPTT 200555Z AUTO 33003KT 10SM CLR 10/10 A3028 RMK AO2 T01010096 10176 20100 401900100,KPTT,2023-05-20T05:55:00Z,37.7,-98.75,10.1,9.6,330,3,,10.0,30.280512,,,TRUE,TRUE,,,,,,,CLR,,,,,,,,VFR,,17.6,10.0,19.0,10.0,,,,,,,METAR,594.0
KPSM 200555Z 22005KT 10SM BKN250 10/06 A3022 RMK AO2A SLP236 T01030059 10152 20103 58003,KPSM,2023-05-20T05:55:00Z,43.08,-70.82,10.3,5.9,220,5,,10.0,30.221457,1023.6,,,TRUE,,,,,,,BKN,25000,,,,,,,VFR,-0.3,15.2,10.3,,,,,,,,,METAR,34.0
KPOE 200555Z AUTO 26003KT 10SM FEW250 25/21 A3000 RMK AO2 SLPNO T02470212 10313 20247 403320183 53009,KPOE,2023-05-20T05:55:00Z,31.05,-93.2,24.7,21.2,260,3,,10.0,30.0,,,TRUE,TRUE,,,,,,,FEW,25000,,,,,,,VFR,0.9,31.3,24.7,33.2,18.3,,,,,,,METAR,98.0
KPOB 200555Z AUTO 33003KT 10SM BKN033 17/17 A3006 RMK AO2 SLPNO 60003 T01700168 10184 20170 57017 $,KPOB,2023-05-20T05:55:00Z,35.17,-79.02,17.0,16.8,330,3,,10.0,30.059055,,,TRUE,TRUE,TRUE,,,,,,BKN,3300,,,,,,,VFR,-1.7,18.4,17.0,,,,,0.03,,,,METAR,57.0
KPMU 200555Z AUTO 17004KT 10SM CLR 22/21 A2999 RMK AO2,KPMU,2023-05-20T05:55:00Z,34.37,-89.9,22.0,21.0,170,4,,10.0,29.991142,,,TRUE,TRUE,,,,,,,CLR,,,,,,,,VFR,,,,,,,,,,,,SPECI,67.0
KPHP 200555Z AUTO 29004KT 10SM CLR 07/04 A3029 RMK AO2 SLP258 T00670039 10172 20061 50000,KPHP,2023-05-20T05:55:00Z,44.05,-101.6,6.7,3.9,290,4,,10.0,30.28937,1025.8,,TRUE,TRUE,,,,,,,CLR,,,,,,,,VFR,0.0,17.2,6.1,,,,,,,,,METAR,673.0
KPAM 200555Z AUTO 06006KT 10SM CLR 22/19 A3001 RMK AO2 SLPNO 60001 T02170192 10259 20217 402900203 58008 $,KPAM,2023-05-20T05:55:00Z,30.07,-85.57,21.7,19.2,60,6,,10.0,30.008858,,,TRUE,TRUE,TRUE,,,,,,CLR,,,,,,,,VFR,-0.8,25.9,21.7,29.0,20.3,,,0.01,,,,METAR,4.0
KP58 200555Z AUTO VRB03KT 10/08 A2993 RMK AO1 SLP134 T01000083 10150 20100 58000,KP58,2023-05-20T05:55:00Z,44.02,-82.8,10.0,8.3,0,3,,,29.929134,1013.4,,TRUE,TRUE,,,,,,,,,,,,,,,,0.0,15.0,10.0,,,,,,,,,SPECI,180.0
KOZR 200555Z AUTO 09003KT 10SM CLR 19/18 A3004 RMK AO2 SLPNO T01880175 10228 20188 402600188 57013,KOZR,2023-05-20T05:55:00Z,31.28,-85.72,18.8,17.5,90,3,,10.0,30.041338,,,TRUE,TRUE,,,,,,,CLR,,,,,,,,VFR,-1.3,22.8,18.8,26.0,18.8,,,,,,,METAR,90.0
KOZA 200555Z AUTO 05006KT 10SM SCT120 20/14 A3017 RMK AO2,KOZA,2023-05-20T05:55:00Z,30.73,-101.2,20.0,14.0,50,6,,10.0,30.171259,,,TRUE,TRUE,,,,,,,SCT,12000,,,,,,,VFR,,,,,,,,,,,,SPECI,721.0
KOWX 200555Z AUTO 36005KT 3SM SCT016 BKN023 OVC047 15/13 A3000 RMK AO1,KOWX,2023-05-20T05:55:00Z,41.03,-83.98,15.0,13.0,360,5,,3.0,30.0,,,TRUE,TRUE,,,,,,,SCT,1600,BKN,2300,OVC,4700,,,MVFR,,,,,,,,,,,,SPECI,232.0
KOFF 200555Z AUTO 35007KT 10SM CLR 10/03 A3027 RMK AO2 SLP256 T01030029 10175 20103 402050103 51006 PWINO PNO FZRANO TSNO $,KOFF,2023-05-20T05:55:00Z,41.12,-95.92,10.3,2.9,350,7,,10.0,30.268702,1025.6,,TRUE,TRUE,TRUE,,TRUE,TRUE,TRUE,,CLR,,,,,,,,VFR,0.6,17.5,10.3,20.5,10.3,,,,,,,METAR,308.0
KNOW 200555Z AUTO 29019G25KT 10SM SCT120 11/11 A3009 RMK AO2 T01100108 10137 20110,KNOW,2023-05-20T05:55:00Z,48.13,-123.4,11.0,10.8,290,19,25,10.0,30.088583,,,TRUE,TRUE,,,,,,,SCT,12000,,,,,,,VFR,,13.7,11.0,,,,,,,,,SPECI,3.0
KNKX 200555Z 32003KT 8SM OVC009 15/13 A3008 RMK AO2 SLP182 T01500133 10167 20150 52015,KNKX,2023-05-20T05:55:00Z,32.87,-117.13,15.0,13.3,320,3,,8.0,30.079725,1018.2,,,TRUE,,,,,,,OVC,900,,,,,,,IFR,1.5,16.7,15.0,,,,,,,,,SPECI,138.0
KNBG 200555Z AUTO 22004KT 10SM CLR 24/22 A3000 RMK AO2 SLP158 T02390222 10294 20239 403170211 55000 $,KNBG,2023-05-20T05:55:00Z,29.83,-90.02,23.9,22.2,220,4,,10.0,30.0,1015.8,,TRUE,TRUE,TRUE,,,,,,CLR,,,,,,,,VFR,0.0,29.4,23.9,31.7,21.1,,,,,,,METAR,0.0
KMXF 200555Z AUTO 14003KT 10SM CLR 18/16 A3003 RMK AO2 SLPNO T01830157 10232 20182 402470182 57010,KMXF,2023-05-20T05:55:00Z,32.38,-86.37,18.3,15.7,140,3,,10.0,30.029528,,,TRUE,TRUE,,,,,,,CLR,,,,,,,,VFR,-1.0,23.2,18.2,24.7,18.2,,,,,,,METAR,47.0
KMWN 200555Z 24020KT 40SM BKN010 OVC050 06/02 RMK HZ DSNT ALQDS 4/001 10056 20036,KMWN,2023-05-20T05:55:00Z,44.27,-71.3,6.0,2.0,240,20,,40.0,,,,,,,,,,,,BKN,1000,OVC,5000,,,,,MVFR,,5.6,3.6,,,,,,,1.0,,METAR,1911.0
KMUO 200555Z 01007KT 10SM CLR 19/07 A3006 RMK AO2A SLP155 T01900065 10298 20190 52013 $,KMUO,2023-05-20T05:55:00Z,43.03,-115.87,19.0,6.5,10,7,,10.0,30.059055,1015.5,,,TRUE,TRUE,,,,,,CLR,,,,,,,,VFR,1.3,29.8,19.0,,,,,,,,,METAR,915.0
KMUI 200555Z AUTO 00000KT 10SM CLR 10/08 A3014 RMK AO2 SLP209 T01010075 10200 20099 57015 TSNO $,KMUI,2023-05-20T05:55:00Z,40.43,-76.57,10.1,7.5,0,0,,10.0,30.138779,1020.9,,TRUE,TRUE,TRUE,,TRUE,,,,CLR,,,,,,,,VFR,-1.5,20.0,9.9,,,,,,,,,METAR,146.0
KMTC 200555Z AUTO 30007KT 10SM BKN034 14/12 A2992 RMK AO2 SLP135 60057 T01380117 10184 20138 55001 $,KMTC,2023-05-20T05:55:00Z,42.62,-82.83,13.8,11.7,300,7,,10.0,29.920275,1013.5,,TRUE,TRUE,TRUE,,,,,,BKN,3400,,,,,,,VFR,-0.1,18.4,13.8,,,,,0.57,,,,METAR,177.0
KMPZ 200555Z AUTO 35008KT 10SM CLR 10/04 A3017 RMK AO2,KMPZ,2023-05-20T05:55:00Z,40.95,-91.52,10.0,4.0,350,8,,10.0,30.171259,,,TRUE,TRUE,,,,,,,CLR,,,,,,,,VFR,,,,,,,,,,,,SPECI,222.0
KMKG 200555Z AUTO 34006KT 10SM FEW050 11/06 A3005 RMK AO2 SLP176 T01060061 10167 20106 50004,KMKG,2023-05-20T05:55:00Z,43.17,-86.23,10.6,6.1,340,6,,10.0,30.050198,1017.6,,TRUE,TRUE,,,,,,,FEW,5000,,,,,,,VFR,0.4,16.7,10.6,,,,,,,,,METAR,190.0
KMIB 200555Z AUTO 22007KT 10SM CLR 09/02 A3014 RMK AO2 SLP216 T00900021 10197 20079 402010012 57009 $,KMIB,2023-05-20T05:55:00Z,48.42,-101.35,9.0,2.1,220,7,,10.0,30.138779,1021.6,,TRUE,TRUE,TRUE,,,,,,CLR,,,,,,,,VFR,-0.9,19.7,7.9,20.1,1.2,,,,,,,METAR,505.0
KMCF 200555Z AUTO 06007KT 10SM CLR 24/21 A2995 RMK AO2 SLPNO T02350208 10277 20233 58011 FZRANO $,KMCF,2023-05-20T05:55:00Z,27.85,-82.52,23.5,20.8,60,7,,10.0,29.949802,,,TRUE,TRUE,TRUE,,,TRUE,,,CLR,,,,,,,,VFR,-1.1,27.7,23.3,,,,,,,,,METAR,3.0
KLZZ 200555Z AUTO 01003KT 10SM -RA CLR 18/18 A3013 RMK AO2 P0005 60011 T01810180 10276 20181 403200181,KLZZ,2023-05-20T05:55:00Z,31.1,-98.2,18.1,18.0,10,3,,10.0,30.129921,,,TRUE,TRUE,,,,,,-RA,CLR,,,,,,,,VFR,,27.6,18.1,32.0,18.1,0.05,,0.11,,,,METAR,356.0
KLUV 200555Z AUTO 04009KT 7SM -RA BR OVC016 15/15 A3031 RMK AO2 LTG DSNT S P0002,KLUV,2023-05-20T05:55:00Z,32.75,-101.92,15.0,15.0,40,9,,7.0,30.31004,,,TRUE,TRUE,,,,,,-RA BR,OVC,1600,,,,,,,MVFR,,,,,,0.02,,,,,,SPECI,910.0
KLUF 200555Z AUTO 33013KT 10SM FEW100 FEW120 SCT150 BKN210 24/13 A3001 RMK AO2 RAE0459DZB0459E07 SLP151 P0000 60008 T02390128 10324 20235 50011 $,KLUF,2023-05-20T05:55:00Z,33.53,-112.37,23.9,12.8,330,13,,10.0,30.008858,1015.1,,TRUE,TRUE,TRUE,,,,,,FEW,10000,FEW,12000,SCT,15000,BKN,21000,VFR,1.1,32.4,23.5,,,0.005,,0.08,,,,METAR,333.0
KLTS 200555Z AUTO 01010KT 10SM CLR 15/11 A3022 RMK AO2 SLPNO T01470105 10186 20146 402760146 50008 $,KLTS,2023-05-20T05:55:00Z,34.67,-99.27,14.7,10.5,10,10,,10.0,30.221457,,,TRUE,TRUE,TRUE,,,,,,CLR,,,,,,,,VFR,0.8,18.6,14.6,27.6,14.6,,,,,,,METAR,416.0
KLSV 200555Z AUTO 28003KT 10SM CLR 28/06 A2996 RMK AO2 SLP120 T02780060 10352 20278 52022 $,KLSV,2023-05-20T05:55:00Z,36.23,-115.05,27.8,6.0,280,3,,10.0,29.958662,1012.0,,TRUE,TRUE,TRUE,,,,,,CLR,,,,,,,,VFR,2.2,35.2,27.8,,,,,,,,,METAR,563.0
KLOR 200555Z AUTO 00000KT 7SM CLR 18/18 A3004 RMK AO2 SLPNO T01800175 10227 20180 402580180 57012,KLOR,2023-05-20T05:55:00Z,31.35,-85.75,18.0,17.5,0,0,,7.0,30.041338,,,TRUE,TRUE,,,,,,,CLR,,,,,,,,VFR,-1.2,22.7,18.0,25.8,18.0,,,,,,,METAR,92.0
KLLJ 200555Z AUTO 00000KT 10SM CLR 15/03 A3021 RMK AO2 SLP179 T01500033 10272 20150 51016,KLLJ,2023-05-20T05:55:00Z,44.52,-114.22,15.0,3.3,0,0,,10.0,30.209646,1017.9,,TRUE,TRUE,,,,,,,CLR,,,,,,,,VFR,1.6,27.2,15.0,,,,,,,,,METAR,1535.0
KLIC 200555Z AUTO 16003KT 2 1/2SM BR OVC026 11/09 A3036 RMK AO2 SLP245 T01110089 10144 20106 50000,KLIC,2023-05-20T05:55:00Z,39.27,-103.67,11.1,8.9,160,3,,2.5,30.360237,1024.5,,TRUE,TRUE,,,,,,BR,OVC,2600,,,,,,,IFR,0.0,14.4,10.6,,,,,,,,,METAR,1635.0
KLHW 200555Z AUTO 00000KT 10SM FEW014 OVC029 20/18 A3002 RMK AO2 SLPNO T01950181 10217 20195 58012 $,KLHW,2023-05-20T05:55:00Z,31.88,-81.57,19.5,18.1,0,0,,10.0,30.02067,,,TRUE,TRUE,TRUE,,,,,,FEW,1400,OVC,2900,,,,,MVFR,-1.2,21.7,19.5,,,,,,,,,METAR,14.0
KLGF 200555Z AUTO 09009KT M M FEW160 28/14 A2996 RMK AO2 SLP142 T02750141 10355 20274 50025 RVRNO PWINO TSNO $,KLGF,2023-05-20T05:55:00Z,32.87,-114.4,27.5,14.1,90,9,,,29.958662,1014.2,,TRUE,TRUE,TRUE,,TRUE,,TRUE,,FEW,16000,,,,,,,,2.5,35.5,27.4,,,,,,,,,METAR,118.0
KLFI 200555Z AUTO 05007KT 8SM OVC005 18/17 A3006 RMK AO2 RAB22E33 SLP186 P0000 60000 T01750173 10182 20175 57025 $,KLFI,2023-05-20T05:55:00Z,37.08,-76.33,17.5,17.3,50,7,,8.0,30.059055,1018.6,,TRUE,TRUE,TRUE,,,,,,OVC,500,,,,,,,IFR,-2.5,18.2,17.5,,,0.005,,0.005,,,,METAR,2.0
KLCK 200555Z AUTO 27003KT 10SM BKN027 BKN035 18/16 A2997 RMK AO2 T01800155 10239 20180 402700158,KLCK,2023-05-20T05:55:00Z,39.82,-82.92,18.0,15.5,270,3,,10.0,29.970472,,,TRUE,TRUE,,,,,,,BKN,2700,BKN,3500,,,,,MVFR,,23.9,18.0,27.0,15.8,,,,,,,METAR,225.0
KK62 200555Z AUTO 32003KT 10SM OVC023 16/15 A3000 RMK AO2,KK62,2023-05-20T05:55:00Z,38.7,-84.4,16.0,15.0,320,3,,10.0,30.0,,,TRUE,TRUE,,,,,,,OVC,2300,,,,,,,MVFR,,,,,,,,,,,,SPECI,274.0
KJES 200555Z AUTO 00000KT 7SM SCT025 18/17 A3008 RMK AO2,KJES,2023-05-20T05:55:00Z,31.55,-81.88,18.0,17.0,0,0,,7.0,30.079725,,,TRUE,TRUE,,,,,,,SCT,2500,,,,,,,VFR,,,,,,,,,,,,METAR,26.0
KJCA 200555Z AUTO 12004KT 10SM OVC011 18/18 A3011 RMK AO2 T01850177 10207 20182,KJCA,2023-05-20T05:55:00Z,34.18,-83.57,18.5,17.7,120,4,,10.0,30.109253,,,TRUE,TRUE,,,,,,,OVC,1100,,,,,,,MVFR,,20.7,18.2,,,,,,,,,METAR,287.0
KIRK 200555Z AUTO 35007KT 10SM CLR 09/04 A3019 RMK AO2 SLP226 T00940039 10167 20089 401830089 51012,KIRK,2023-05-20T05:55:00Z,40.1,-92.55,9.4,3.9,350,7,,10.0,30.188976,1022.6,,TRUE,TRUE,,,,,,,CLR,,,,,,,,VFR,1.2,16.7,8.9,18.3,8.9,,,,,,,METAR,292.0
KINS 200555Z AUTO 26005KT 10SM CLR 21/08 A3004 RMK AO2 SLP128 60000 T02070077 10292 20207 52016 $,KINS,2023-05-20T05:55:00Z,36.58,-115.68,20.7,7.7,260,5,,10.0,30.041338,1012.8,,TRUE,TRUE,TRUE,,,,,,CLR,,,,,,,,VFR,1.6,29.2,20.7,,,,,0.005,,,,METAR,954.0
KIAB 200555Z AUTO 00000KT 10SM CLR 11/09 A3020 RMK AO2 SLPNO T01110092 10151 20108 402120108 51011 $,KIAB,2023-05-20T05:55:00Z,37.62,-97.27,11.1,9.2,0,0,,10.0,30.200787,,,TRUE,TRUE,TRUE,,,,,,CLR,,,,,,,,VFR,1.1,15.1,10.8,21.2,10.8,,,,,,,SPECI,413.0
KHUA 200555Z AUTO 22005KT 10SM OVC029 20/19 A3004 RMK AO2 SLPNO T01990189 10210 20199 58007,KHUA,2023-05-20T05:55:00Z,34.68,-86.68,19.9,18.9,220,5,,10.0,30.041338,,,TRUE,TRUE,,,,,,,OVC,2900,,,,,,,MVFR,-0.7,21.0,19.9,,,,,,,,,METAR,200.0
KHST 200555Z AUTO 30003KT 10SM CLR 24/22 A2997 RMK AO2 SLPNO T02350223 10271 20234 58016,KHST,2023-05-20T05:55:00Z,25.48,-80.37,23.5,22.3,300,3,,10.0,29.970472,,,TRUE,TRUE,,,,,,,CLR,,,,,,,,VFR,-1.6,27.1,23.4,,,,,,,,,METAR,1.0
KHSP 200555Z AUTO 18006KT 3/4SM BR OVC003 13/12 A3018 RMK AO2 T01250124 10141 20125,KHSP,2023-05-20T05:55:00Z,37.95,-79.82,12.5,12.4,180,6,,0.75,30.180119,,,TRUE,TRUE,,,,,,BR,OVC,300,,,,,,,LIFR,,14.1,12.5,,,,,,,,,METAR,1148.0
KHRT 200555Z AUTO 08006KT 10SM CLR 24/20 A3000 RMK AO2 SLPNO 60000 T02380203 10253 20227 402740198 58008 $,KHRT,2023-05-20T05:55:00Z,30.42,-86.68,23.8,20.3,80,6,,10.0,30.0,,,TRUE,TRUE,TRUE,,,,,,CLR,,,,,,,,VFR,-0.8,25.3,22.7,27.4,19.8,,,0.005,,,,METAR,10.0
KHON 200555Z AUTO 00000KT 10SM CLR 06/04 A3028 RMK AO2 SLP259 T00610039 10172 20050 401890033 50006,KHON,2023-05-20T05:55:00Z,44.38,-98.23,6.1,3.9,0,0,,10.0,30.280512,1025.9,,TRUE,TRUE,,,,,,,CLR,,,,,,,,VFR,0.6,17.2,5.0,18.9,3.3,,,,,,,METAR,391.0
KHMN 200555Z AUTO 25009KT 10SM CLR 20/10 A3022 RMK AO2 SLP170 T01970098 10298 20194 52034 $,KHMN,2023-05-20T05:55:00Z,32.85,-106.1,19.7,9.8,250,9,,10.0,30.221457,1017.0,,TRUE,TRUE,TRUE,,,,,,CLR,,,,,,,,VFR,3.4,29.8,19.4,,,,,,,,,METAR,1240.0
KHLR 200555Z AUTO 05009KT 10SM -RA BKN095 BKN110 19/17 A3013 RMK AO2 LTG DSNT SE SLPNO P0000 60005 T01920173 10287 20183 403290183 50045,KHLR,2023-05-20T05:55:00Z,31.13,-97.72,19.2,17.3,50,9,,10.0,30.129921,,,TRUE,TRUE,,,,,,-RA,BKN,9500,BKN,11000,,,,,VFR,4.5,28.7,18.3,32.9,18.3,0.005,,0.05,,,,METAR,271.0
KHIF 200555Z AUTO 06005KT 10SM CLR 19/M01 A3016 RMK AO2 SLP160 T01851009 10251 20179 50009,KHIF,2023-05-20T05:55:00Z,41.12,-111.97,18.5,-0.9,60,5,,10.0,30.159449,1016.0,,TRUE,TRUE,,,,,,,CLR,,,,,,,,VFR,0.9,25.1,17.9,,,,,,,,,METAR,1461.0
KHFF 200555Z AUTO 36004KT 10SM OVC028 18/18 A3005 RMK AO2 LTG DSNT E SLPNO 60000 T01770175 10193 20176 57018 $,KHFF,2023-05-20T05:55:00Z,35.03,-79.5,17.7,17.5,360,4,,10.0,30.050198,,,TRUE,TRUE,TRUE,,,,,,OVC,2800,,,,,,,MVFR,-1.8,19.3,17.6,,,,,0.005,,,,METAR,100.0
KHEY 200555Z AUTO 00000KT 8SM CLR 19/19 A3002 RMK AO2 SLPNO T01880186 10235 20188 402510188 56011,KHEY,2023-05-20T05:55:00Z,31.35,-85.65,18.8,18.6,0,0,,8.0,30.02067,,,TRUE,TRUE,,,,,,,CLR,,,,,,,,VFR,-1.1,23.5,18.8,25.1,18.8,,,,,,,METAR,95.0
KHBV 200555Z AUTO 18003KT 10SM CLR 24/22 A3003 RMK AO2 T02400223 10320 20240,KHBV,2023-05-20T05:55:00Z,27.35,-98.73,24.0,22.3,180,3,,10.0,30.029528,,,TRUE,TRUE,,,,,,,CLR,,,,,,,,VFR,,32.0,24.0,,,,,,,,,METAR,200.0
KGXF 200555Z AUTO 31003KT 9SM CLR 24/12 A3003 RMK AO2 SLP158 T02430122 10320 20243 51024 FZRANO $,KGXF,2023-05-20T05:55:00Z,32.88,-112.72,24.3,12.2,310,3,,9.0,30.029528,1015.8,,TRUE,TRUE,TRUE,,,TRUE,,,CLR,,,,,,,,VFR,2.4,32.0,24.3,,,,,,,,,METAR,261.0
KGXA 200555Z AUTO 32003KT 10SM CLR 19/10 A3003 RMK AO2 SLP138 WND DATA ESTMD T01930095 10322 20193 51015,KGXA,2023-05-20T05:55:00Z,34.57,-117.67,19.3,9.5,320,3,,10.0,30.029528,1013.8,,TRUE,TRUE,,,,,,,CLR,,,,,,,,VFR,1.5,32.2,19.3,,,,,,,,,METAR,927.0
KGVT 200555Z AUTO 35007KT 10SM OVC009 21/20 A3009 RMK AO2 TSNO T02100201 10240 20210,KGVT,2023-05-20T05:55:00Z,33.07,-96.07,21.0,20.1,350,7,,10.0,30.088583,,,TRUE,TRUE,,,TRUE,,,,OVC,900,,,,,,,IFR,,24.0,21.0,,,,,,,,,METAR,165.0
KGUS 200555Z AUTO 36008KT 10SM OVC100 14/08 A3001 RMK AO2 SLP161 60002 T01360084 10178 20136 50007 TSNO $,KGUS,2023-05-20T05:55:00Z,40.63,-86.15,13.6,8.4,360,8,,10.0,30.008858,1016.1,,TRUE,TRUE,TRUE,,TRUE,,,,OVC,10000,,,,,,,VFR,0.7,17.8,13.6,,,,,0.02,,,,METAR,245.0
KGUR 200555Z AUTO 08004KT 9SM CLR 09/08 A3029 RMK AO2 SLP262 T00930077 10177 20091 50000,KGUR,2023-05-20T05:55:00Z,42.25,-104.72,9.3,7.7,80,4,,9.0,30.28937,1026.2,,TRUE,TRUE,,,,,,,CLR,,,,,,,,VFR,0.0,17.7,9.1,,,,,,,,,METAR,1341.0
KGTB 200555Z AUTO 16009KT 10SM BKN070 BKN120 BKN180 17/11 A2999 RMK AO2 SLP153 T01690107 10187 20168 57006,KGTB,2023-05-20T05:55:00Z,44.07,-75.72,16.9,10.7,160,9,,10.0,29.991142,1015.3,,TRUE,TRUE,,,,,,,BKN,7000,BKN,12000,BKN,18000,,,VFR,-0.6,18.7,16.8,,,,,,,,,METAR,206.0
KGSB 200555Z 02003KT 10SM BKN025 OVC040 17/17 A3002 RMK AO2A SLP170 WND DATA ESTMD T01690166 10188 20168 57018 $,KGSB,2023-05-20T05:55:00Z,35.33,-77.93,16.9,16.6,20,3,,10.0,30.02067,1017.0,,,TRUE,TRUE,,,,,,BKN,2500,OVC,4000,,,,,MVFR,-1.8,18.8,16.8,,,,,,,,,METAR,33.0
KGRK 200555Z 02009KT 8SM -RA FEW065 19/18 A3013 RMK AO2A LTG DSNT SE RAE04RAB20 SLPNO P0003 60013 T01900175 10279 20185 403210185 51046,KGRK,2023-05-20T05:55:00Z,31.07,-97.83,19.0,17.5,20,9,,8.0,30.129921,,,,TRUE,,,,,,-RA,FEW,6500,,,,,,,VFR,4.6,27.9,18.5,32.1,18.5,0.03,,0.13,,,,METAR,311.0
KGRF 200555Z AUTO 30004KT 10SM FEW095 18/10 A3006 RMK AO2 SLP182 T01820095 10246 20181 52013 $,KGRF,2023-05-20T05:55:00Z,47.07,-122.57,18.2,9.5,300,4,,10.0,30.059055,1018.2,,TRUE,TRUE,TRUE,,,,,,FEW,9500,,,,,,,VFR,1.3,24.6,18.1,,,,,,,,,SPECI,91.0
KGPI 200555Z 00000KT 8SM FU CLR 14/10 A3007 RMK AO2 SLP173 T01390100 10267 20111 51015,KGPI,2023-05-20T05:55:00Z,48.32,-114.25,13.9,10.0,0,0,,8.0,30.070866,1017.3,,,TRUE,,,,,,FU,CLR,,,,,,,,VFR,1.5,26.7,11.1,,,,,,,,,METAR,903.0
KGOV 200555Z AUTO 31008KT 10SM OVC010 07/06 A2998 RMK AO2 CIG 010V013 SLP161 T00720063 10125 20048 55005,KGOV,2023-05-20T05:55:00Z,44.68,-84.73,7.2,6.3,310,8,,10.0,29.97933,1016.1,,TRUE,TRUE,,,,,,,OVC,1000,,,,,,,MVFR,-0.5,12.5,4.8,,,,,,,,,METAR,350.0
KGNB 200555Z AUTO 00000KT 10SM CLR 04/02 A3041 RMK AO2 T00420024 10108 20039,KGNB,2023-05-20T05:55:00Z,40.08,-105.92,4.2,2.4,0,0,,10.0,30.410433,,,TRUE,TRUE,,,,,,,CLR,,,,,,,,VFR,,10.8,3.9,,,,,,,,,SPECI,2500.0
KGLE 200555Z AUTO 36010G16KT 10SM OVC017 18/16 A3017 RMK AO2 T01820155 10299 20181 403220181,KGLE,2023-05-20T05:55:00Z,33.65,-97.2,18.2,15.5,360,10,16,10.0,30.171259,,,TRUE,TRUE,,,,,,,OVC,1700,,,,,,,MVFR,,29.9,18.1,32.2,18.1,,,,,,,SPECI,250.0
KGGF 200555Z AUTO 00000KT 10SM CLR 08/06 A3031 RMK AO2,KGGF,2023-05-20T05:55:00Z,40.87,-101.73,8.0,6.0,0,0,,10.0,30.31004,,,TRUE,TRUE,,,,,,,CLR,,,,,,,,VFR,,,,,,,,,,,,SPECI,1044.0
KGFA 200555Z AUTO 17008KT 10SM CLR 14/08 A3006 RMK AO2 SLP171 T01430076 10266 20122 50002 $,KGFA,2023-05-20T05:55:00Z,47.5,-111.18,14.3,7.6,170,8,,10.0,30.059055,1017.1,,TRUE,TRUE,TRUE,,,,,,CLR,,,,,,,,VFR,0.2,26.6,12.2,,,,,,,,,METAR,1058.0
KFXY 200555Z AUTO 00000KT 10SM CLR 05/02 A3023 RMK AO2,KFXY,2023-05-20T05:55:00Z,43.23,-93.62,5.0,2.0,0,0,,10.0,30.230314,,,TRUE,TRUE,,,,,,,CLR,,,,,,,,VFR,,,,,,,,,,,,SPECI,366.0
KFSI 200555Z AUTO 02009KT 10SM CLR 14/12 A3019 RMK AO2 SLPNO T01390116 10181 20139 402830139 50019 FZRANO $,KFSI,2023-05-20T05:55:00Z,34.65,-98.4,13.9,11.6,20,9,,10.0,30.188976,,,TRUE,TRUE,TRUE,,,TRUE,,,CLR,,,,,,,,VFR,1.9,18.1,13.9,28.3,13.9,,,,,,,METAR,360.0
KFRI 200555Z AUTO 02005KT 10SM CLR 10/06 A3024 RMK AO2 SLPNO T01020058 10190 20099 52017 $,KFRI,2023-05-20T05:55:00Z,39.05,-96.77,10.2,5.8,20,5,,10.0,30.239174,,,TRUE,TRUE,TRUE,,,,,,CLR,,,,,,,,VFR,1.7,19.0,9.9,,,,,,,,,METAR,232.0
KFHU 200555Z AUTO 22007KT 10SM FEW100 17/04 A3021 RMK AO2 SLP175 T01670041 10261 20167 52014,KFHU,2023-05-20T05:55:00Z,31.58,-110.35,16.7,4.1,220,7,,10.0,30.209646,1017.5,,TRUE,TRUE,,,,,,,FEW,10000,,,,,,,VFR,1.4,26.1,16.7,,,,,,,,,METAR,1424.0
KFGX 200555Z AUTO 00000KT 10SM SCT038 BKN046 OVC060 18/17 A3001 RMK AO2 T01830165 10220 20178 402550165,KFGX,2023-05-20T05:55:00Z,38.55,-83.75,18.3,16.5,0,0,,10.0,30.008858,,,TRUE,TRUE,,,,,,,SCT,3800,BKN,4600,OVC,6000,,,VFR,,22.0,17.8,25.5,16.5,,,,,,,SPECI,279.0
KFFO 200555Z 28004KT 10SM SCT036 BKN060 OVC110 17/16 A2996 RMK AO2A SLP144 P0006 60021 T01680158 10236 20167 58001,KFFO,2023-05-20T05:55:00Z,39.83,-84.03,16.8,15.8,280,4,,10.0,29.958662,1014.4,,,TRUE,,,,,,,SCT,3600,BKN,6000,OVC,11000,,,VFR,-0.1,23.6,16.7,,,0.06,,,,,,SPECI,250.0
KFEW 200555Z AUTO 22005KT 2 1/2SM BR SCT038 BKN110 07/06 A3036 RMK AO2 SLP251 T00690060 10136 20059 58002 $,KFEW,2023-05-20T05:55:00Z,41.13,-104.87,6.9,6.0,220,5,,2.5,30.360237,1025.1,,TRUE,TRUE,TRUE,,,,,BR,SCT,3800,BKN,11000,,,,,IFR,-0.2,13.6,5.9,,,,,,,,,METAR,1877.0
KFCS 200555Z 16005KT 1 3/4SM BR SCT002 BKN015 10/10 A3036 RMK SLP271 T00990097 10108 20097 58001 $,KFCS,2023-05-20T05:55:00Z,38.67,-104.77,9.9,9.7,160,5,,1.75,30.360237,1027.1,,,,TRUE,,,,,BR,SCT,200,BKN,1500,,,,,IFR,-0.1,10.8,9.7,,,,,,,,,METAR,1789.0
KFBR 200555Z AUTO 20008KT 10SM CLR 09/M02 A3037 RMK AO2 T00921020 10190 20092 401930047,KFBR,2023-05-20T05:55:00Z,41.4,-110.4,9.2,-2.0,200,8,,10.0,30.369095,,,TRUE,TRUE,,,,,,,CLR,,,,,,,,VFR,,19.0,9.2,19.3,4.7,,,,,,,SPECI,2140.0
KFBG 200555Z AUTO 34004KT 10SM CLR 17/17 A3004 RMK AO2 SLPNO 60003 T01680166 10185 20168 57018,KFBG,2023-05-20T05:55:00Z,35.12,-78.92,16.8,16.6,340,4,,10.0,30.041338,,,TRUE,TRUE,,,,,,,CLR,,,,,,,,VFR,-1.8,18.5,16.8,,,,,0.03,,,,METAR,69.0
KEND 200555Z AUTO 32005KT 10SM CLR 10/09 A3021 RMK AO2 SLPNO T00960090 10149 20096 402020096 51004 $,KEND,2023-05-20T05:55:00Z,36.33,-97.92,9.6,9.0,320,5,,10.0,30.209646,,,TRUE,TRUE,TRUE,,,,,,CLR,,,,,,,,VFR,0.4,14.9,9.6,20.2,9.6,,,,,,,SPECI,392.0
KEGI 200555Z AUTO 06003KT 10SM CLR 21/19 A3002 RMK AO2 SLPNO T02100189 10257 20210 403060187 58007 TSNO $,KEGI,2023-05-20T05:55:00Z,30.65,-86.52,21.0,18.9,60,3,,10.0,30.02067,,,TRUE,TRUE,TRUE,,TRUE,,,,CLR,,,,,,,,VFR,-0.7,25.7,21.0,30.6,18.7,,,,,,,SPECI,59.0
KEDW 200555Z AUTO 21011KT 10SM SCT160 22/09 A3000 RMK AO2 SLP135 T02180087 10324 20218 52019,KEDW,2023-05-20T05:55:00Z,34.9,-117.87,21.8,8.7,210,11,,10.0,30.0,1013.5,,TRUE,TRUE,,,,,,,SCT,16000,,,,,,,VFR,1.9,32.4,21.8,,,,,,,,,METAR,698.0
KEBS 200555Z AUTO 32006KT 10SM CLR 06/03 A3021 RMK AO2,KEBS,2023-05-20T05:55:00Z,42.43,-93.87,6.0,3.0,320,6,,10.0,30.209646,,,TRUE,TRUE,,,,,,,CLR,,,,,,,,VFR,,,,,,,,,,,,SPECI,340.0
KEBG 200555Z AUTO 00000KT 10SM BKN017 24/23 A3002 RMK AO2 T02400232 10295 20240 403370220,KEBG,2023-05-20T05:55:00Z,26.45,-98.13,24.0,23.2,0,0,,10.0,30.02067,,,TRUE,TRUE,,,,,,,BKN,1700,,,,,,,MVFR,,29.5,24.0,33.7,22.0,,,,,,,METAR,21.0
KEAT 200555Z AUTO VRB05KT 10SM FEW090 FEW120 26/12 A3002 RMK AO2 LTG DSNT E AND S RAE38 SLP155 P0000 60000 T02560117 10322 20244 53021,KEAT,2023-05-20T05:55:00Z,47.4,-120.2,25.6,11.7,0,5,,10.0,30.02067,1015.5,,TRUE,TRUE,,,,,,,FEW,9000,FEW,12000,,,,,VFR,2.1,32.2,24.4,,,0.005,,0.005,,,,METAR,375.0
KE11 200555Z AUTO 05011KT 7SM RA SCT012 SCT021 OVC090 16/16 A3028 RMK AO2 P0007 60228 T01590159 10278 20142,KE11,2023-05-20T05:55:00Z,32.33,-102.53,15.9,15.9,50,11,,7.0,30.280512,,,TRUE,TRUE,,,,,,RA,SCT,1200,SCT,2100,OVC,9000,,,VFR,,27.8,14.2,,,0.07,,2.28,,,,METAR,966.0
KDYS 200555Z AUTO 01012KT 10SM OVC018 18/12 A3019 RMK AO2 SLPNO T01790119 10292 20179 403100179 52031,KDYS,2023-05-20T05:55:00Z,32.42,-99.83,17.9,11.9,10,12,,10.0,30.188976,,,TRUE,TRUE,,,,,,,OVC,1800,,,,,,,MVFR,3.1,29.2,17.9,31.0,17.9,,,,,,,METAR,544.0
KDOV 200555Z AUTO 09004KT 10SM OVC007 16/16 A3013 RMK AO2 SLP207 T01590159 10159 20146 57024,KDOV,2023-05-20T05:55:00Z,39.12,-75.47,15.9,15.9,90,4,,10.0,30.129921,1020.7,,TRUE,TRUE,,,,,,,OVC,700,,,,,,,IFR,-2.4,15.9,14.6,,,,,,,,,METAR,6.0
KDMA 200555Z AUTO 27007KT 10SM BKN130 24/09 A3007 RMK AO2 SLP142 T02370085 10307 20235 52018 RVRNO $,KDMA,2023-05-20T05:55:00Z,32.17,-110.88,23.7,8.5,270,7,,10.0,30.070866,1014.2,,TRUE,TRUE,TRUE,,,,,,BKN,13000,,,,,,,VFR,1.8,30.7,23.5,,,,,,,,,METAR,804.0
KDLH 200555Z 30007KT 10SM CLR 09/03 A3019 RMK AO2 SLP232 T00940033 10139 20067 401390061 52004 $,KDLH,2023-05-20T05:55:00Z,46.85,-92.2,9.4,3.3,300,7,,10.0,30.188976,1023.2,,,TRUE,TRUE,,,,,,CLR,,,,,,,,VFR,0.4,13.9,6.7,13.9,6.1,,,,,,,METAR,434.0
KDLF 200555Z AUTO 00000KT 10SM BKN130 BKN150 25/22 A3000 RMK AO2 SLPNO T02450220 10296 20241 403110192 53010 $,KDLF,2023-05-20T05:55:00Z,29.37,-100.78,24.5,22.0,0,0,,10.0,30.0,,,TRUE,TRUE,TRUE,,,,,,BKN,13000,BKN,15000,,,,,VFR,1.0,29.6,24.1,31.1,19.2,,,,,,,METAR,328.0
KDAA 200555Z AUTO 00000KT 10SM CLR 12/12 A3011 RMK AO2 SLP199 T01230121 10192 20122 57020 $,KDAA,2023-05-20T05:55:00Z,38.72,-77.17,12.3,12.1,0,0,,10.0,30.109253,1019.9,,TRUE,TRUE,TRUE,,,,,,CLR,,,,,,,,VFR,-2.0,19.2,12.2,,,,,,,,,METAR,17.0
KD73 200555Z AUTO 00000KT 10SM SCT008 OVC026 18/ A3010 RMK AO2 T0182//// 10205 20181,KD73,2023-05-20T05:55:00Z,33.78,-83.7,18.2,,0,0,,10.0,30.100393,,,TRUE,TRUE,,,,,,,SCT,800,OVC,2600,,,,,MVFR,,20.5,18.1,,,,,,,,,METAR,254.0
KCZT 200555Z AUTO 10SM TSRA SCT110 28/23 A3003 RMK AO2 LTG DSNT NE S AND SW,KCZT,2023-05-20T05:55:00Z,28.52,-99.82,28.0,23.0,,,,10.0,30.029528,,,TRUE,TRUE,,,,,,TSRA,SCT,11000,,,,,,,VFR,,,,,,,,,,,,SPECI,176.0
KCWN 200555Z AUTO 15010KT 1/8SM FG VV002 08/08 A3024 RMK AO2 SLP117 60000 T00840081 10094 20083 58001 RVRNO $,KCWN,2023-05-20T05:55:00Z,38.75,-104.85,8.4,8.1,150,10,,0.13,30.239174,1011.7,,TRUE,TRUE,TRUE,,,,,FG,OVX,0,,,,,,,LIFR,-0.1,9.4,8.3,,,,,0.005,,,200,METAR,2040.0
KCVS 200555Z 04013KT 3SM BR OVC014 12/12 A3032 RMK AO2A SLP230 T01240122 10150 20124 50007 $,KCVS,2023-05-20T05:55:00Z,34.37,-103.32,12.4,12.2,40,13,,3.0,30.318897,1023.0,,,TRUE,TRUE,,,,,BR,OVC,1400,,,,,,,MVFR,0.7,15.0,12.4,,,,,,,,,METAR,1305.0
KCTJ 200555Z AUTO 00000KT 7SM SCT001 SCT110 15/15 A3012 RMK AO2 T01470147,KCTJ,2023-05-20T05:55:00Z,33.63,-85.15,14.7,14.7,0,0,,7.0,30.121063,,,TRUE,TRUE,,,,,,,SCT,100,SCT,11000,,,,,VFR,,,,,,,,,,,,METAR,351.0
KCPW 200555Z AUTO 19005KT 1/2SM FZFG BKN001 BKN017 OVC024 00/00 A3062 RMK AO2,KCPW,2023-05-20T05:55:00Z,37.45,-106.8,0.0,0.0,190,5,,0.5,30.620079,,,TRUE,TRUE,,,,,,FZFG,BKN,100,BKN,1700,OVC,2400,,,LIFR,,,,,,,,,,,,METAR,3570.0
KCNK 200555Z AUTO 03004KT 10SM CLR 11/06 A3027 RMK AO2 SLP245 T01110056 10206 20111 402170111 51015,KCNK,2023-05-20T05:55:00Z,39.55,-97.65,11.1,5.6,30,4,,10.0,30.268702,1024.5,,TRUE,TRUE,,,,,,,CLR,,,,,,,,VFR,1.5,20.6,11.1,21.7,11.1,,,,,,,METAR,445.0
KCMY 200555Z AUTO 00000KT 10SM CLR 04/04 A3017 RMK AO2 SLP225 T00360035 10143 20034 50004 FZRANO $,KCMY,2023-05-20T05:55:00Z,43.97,-90.73,3.6,3.5,0,0,,10.0,30.171259,1022.5,,TRUE,TRUE,TRUE,,,TRUE,,,CLR,,,,,,,,VFR,0.4,14.3,3.4,,,,,,,,,METAR,253.0
KCEF 200555Z AUTO 18005KT 10SM CLR 10/07 A3019 RMK AO2 SLP229 T00990066 10167 20099 57015,KCEF,2023-05-20T05:55:00Z,42.2,-72.52,9.9,6.6,180,5,,10.0,30.188976,1022.9,,TRUE,TRUE,,,,,,,CLR,,,,,,,,VFR,-1.5,16.7,9.9,,,,,,,,,METAR,72.0
KCBM 200555Z AUTO 13004KT 6SM HZ CLR M A2999 RMK AO2 SLPNO ALSTG ESTMD 57005 $,KCBM,2023-05-20T05:55:00Z,33.65,-88.45,,,130,4,,6.0,29.991142,,,TRUE,TRUE,TRUE,,,,,HZ,CLR,,,,,,,,VFR,-0.5,,,,,,,,,,,SPECI,59.0
KCBK 200555Z AUTO 22003KT 10SM CLR 07/06 A3033 RMK AO2 T00710061 10177 20070,KCBK,2023-05-20T05:55:00Z,39.43,-101.05,7.1,6.1,220,3,,10.0,30.33071,,,TRUE,TRUE,,,,,,,CLR,,,,,,,,VFR,,17.7,7.0,,,,,,,,,METAR,970.0
KCAO 200555Z AUTO 01003KT 3SM BR OVC090 11/09 A3037 RMK AO2 SLP257 T01060089 10133 20094 50002,KCAO,2023-05-20T05:55:00Z,36.45,-103.15,10.6,8.9,10,3,,3.0,30.369095,1025.7,,TRUE,TRUE,,,,,,BR,OVC,9000,,,,,,,MVFR,0.2,13.3,9.4,,,,,,,,,METAR,1517.0
KC99 200555Z AUTO 22003KT 10SM CLR 00/00 A3050 RMK AO2,KC99,2023-05-20T05:55:00Z,39.87,-105.55,0.0,0.0,220,3,,10.0,30.499016,,,TRUE,TRUE,,,,,,,CLR,,,,,,,,VFR,,,,,,,,,,,,METAR,3334.0
KBWD 200555Z AUTO 08012KT 2SM SCT020 OVC032 19/19 A3013 RMK AO1 P0001,KBWD,2023-05-20T05:55:00Z,31.8,-98.95,19.0,19.0,80,12,,2.0,30.129921,,,TRUE,TRUE,,,,,,,SCT,2000,OVC,3200,,,,,IFR,,,,,,0.01,,,,,,SPECI,420.0
KBLV 200555Z 31006KT 9SM FEW055 BKN075 15/11 A3008 RMK AO2A SLP187 60000 T01480114 10179 20148 402790142 51002 $,KBLV,2023-05-20T05:55:00Z,38.53,-89.83,14.8,11.4,310,6,,9.0,30.079725,1018.7,,,TRUE,TRUE,,,,,,FEW,5500,BKN,7500,,,,,VFR,0.2,17.9,14.8,27.9,14.2,,,0.005,,,,METAR,134.0
KBIX 200555Z AUTO 17005KT 10SM FEW020 26/22 A2998 RMK AO2 SLPNO T02600218 10277 20260 402970225 58006,KBIX,2023-05-20T05:55:00Z,30.42,-88.92,26.0,21.8,170,5,,10.0,29.97933,,,TRUE,TRUE,,,,,,,FEW,2000,,,,,,,VFR,-0.6,27.7,26.0,29.7,22.5,,,,,,,METAR,4.0
KBIF 200555Z 09012KT 7SM BKN120 22/11 A3016 RMK AO2A VIRGA E-SW SLPNO ALSTG WND ESTMD T02220106 $,KBIF,2023-05-20T05:55:00Z,31.85,-106.38,22.2,10.6,90,12,,7.0,30.159449,,,,TRUE,TRUE,,,,,,BKN,12000,,,,,,,VFR,,,,,,,,,,,,METAR,1201.0
KBDG 200555Z AUTO 00000KT 10SM 13/08 A3041 RMK AO1 T01300076 10260 21038,KBDG,2023-05-20T05:55:00Z,37.58,-109.47,13.0,7.6,0,0,,10.0,30.410433,,,TRUE,TRUE,,,,,,,,,,,,,,,,,26.0,-3.8,,,,,,,,,SPECI,1778.0
KBAD 200555Z AUTO 23006KT 10SM FEW055 BKN110 26/20 A2999 RMK AO2 SLPNO T02640197 10302 20236 403270180 51013,KBAD,2023-05-20T05:55:00Z,32.5,-93.67,26.4,19.7,230,6,,10.0,29.991142,,,TRUE,TRUE,,,,,,,FEW,5500,BKN,11000,,,,,VFR,1.3,30.2,23.6,32.7,18.0,,,,,,,METAR,49.0
KBAB 200555Z AUTO 14007KT 8SM CLR 18/15 A2995 RMK AO2 SLP144 T01800145 10319 20180 52016 $,KBAB,2023-05-20T05:55:00Z,39.13,-121.43,18.0,14.5,140,7,,8.0,29.949802,1014.4,,TRUE,TRUE,TRUE,,,,,,CLR,,,,,,,,VFR,1.6,31.9,18.0,,,,,,,,,METAR,31.0
KAZE 200555Z AUTO 00000KT 10SM SCT026 19/18 A3005 RMK AO2 T01910176 10222 20190,KAZE,2023-05-20T05:55:00Z,31.88,-82.65,19.1,17.6,0,0,,10.0,30.050198,,,TRUE,TRUE,,,,,,,SCT,2600,,,,,,,VFR,,22.2,19.0,,,,,,,,,METAR,78.0
KAPS 200555Z AUTO 20004KT 10SM CLR 24/22 A3001 RMK AO2,KAPS,2023-05-20T05:55:00Z,30.08,-90.58,24.0,22.0,200,4,,10.0,30.008858,,,TRUE,TRUE,,,,,,,CLR,,,,,,,,VFR,,,,,,,,,,,,SPECI,1.0
KALN 200555Z AUTO 00000KT 10SM OVC060 15/10 A3011 RMK AO2 T01500104 10160 20149 402700149,KALN,2023-05-20T05:55:00Z,38.88,-90.03,15.0,10.4,0,0,,10.0,30.109253,,,TRUE,TRUE,,,,,,,OVC,6000,,,,,,,VFR,,16.0,14.9,27.0,14.9,,,,,,,SPECI,159.0
KAFO 200555Z AUTO 00000KT 10SM BKN100 08/02 A3031 RMK AO2,KAFO,2023-05-20T05:55:00Z,42.72,-110.95,8.0,2.0,0,0,,10.0,30.31004,,,TRUE,TRUE,,,,,,,BKN,10000,,,,,,,VFR,,,,,,,,,,,,SPECI,1881.0
KAFF 200555Z 20004KT 4SM BR OVC008 09/09 A3038 RMK AO2A SLP258 60000 T00880086 10096 20087 58001 $,KAFF,2023-05-20T05:55:00Z,38.97,-104.82,8.8,8.6,200,4,,4.0,30.380905,1025.8,,,TRUE,TRUE,,,,,BR,OVC,800,,,,,,,IFR,-0.1,9.6,8.7,,,,,0.005,,,,METAR,2003.0
KADW 200555Z AUTO 05003KT 10SM CLR 13/13 A3010 RMK AO2 SLP199 T01270125 10178 20118 57021 $,KADW,2023-05-20T05:55:00Z,38.82,-76.87,12.7,12.5,50,3,,10.0,30.100393,1019.9,,TRUE,TRUE,TRUE,,,,,,CLR,,,,,,,,VFR,-2.1,17.8,11.8,,,,,,,,,METAR,87.0
KADT 200555Z AUTO 00000KT 10SM CLR 08/05 A3036 RMK AO2 T00780053 10188 20077,KADT,2023-05-20T05:55:00Z,39.83,-101.05,7.8,5.3,0,0,,10.0,30.360237,,,TRUE,TRUE,,,,,,,CLR,,,,,,,,VFR,,18.8,7.7,,,,,,,,,METAR,899.0
KAAT 200555Z AUTO 00000KT 10SM CLR 15/04 A3015 RMK AO2 SLP169 T01500039 10306 20150 51016,KAAT,2023-05-20T05:55:00Z,41.48,-120.57,15.0,3.9,0,0,,10.0,30.15059,1016.9,,TRUE,TRUE,,,,,,,CLR,,,,,,,,VFR,1.6,30.6,15.0,,,,,,,,,METAR,1336.0
K9V9 200555Z AUTO 07003KT 10SM CLR 08/05 A3028 RMK AO2 T00810048 10188 20081 401940031,K9V9,2023-05-20T05:55:00Z,43.77,-99.32,8.1,4.8,70,3,,10.0,30.280512,,,TRUE,TRUE,,,,,,,CLR,,,,,,,,VFR,,18.8,8.1,19.4,3.1,,,,,,,METAR,511.0
K9S5 200555Z AUTO 00000KT 7SM 11/05 A3014 RMK Three Forks ,K9S5,2023-05-20T05:55:00Z,45.88,-111.57,11.0,5.0,0,0,,7.0,30.138779,,,TRUE,,,,,,,,,,,,,,,,,,,,,,,,,,,,METAR,1246.0
K9L2 200555Z AUTO 19013KT 10SM FEW160 22/08 A2999 RMK AO2 SLP132 T02180080 10339 20218 51015,K9L2,2023-05-20T05:55:00Z,34.98,-117.87,21.8,8.0,190,13,,10.0,29.991142,1013.2,,TRUE,TRUE,,,,,,,FEW,16000,,,,,,,VFR,1.5,33.9,21.8,,,,,,,,,METAR,697.0
K82V 200555Z AUTO 16003KT 7SM 08/07 A3035 RMK AO2,K82V,2023-05-20T05:55:00Z,41.15,-104.13,8.0,7.0,160,3,,7.0,30.351377,,,TRUE,TRUE,,,,,,,,,,,,,,,,,,,,,,,,,,,METAR,1563.0
K7BM 200555Z AUTO 00000KT 10SM OVC100 03/02 A3049 RMK AO2,K7BM,2023-05-20T05:55:00Z,38.78,-106.22,3.0,2.0,0,0,,10.0,30.490158,,,TRUE,TRUE,,,,,,,OVC,10000,,,,,,,VFR,,,,,,,,,,,,METAR,2996.0
K6P9 200555Z AUTO 36011G15KT SCT015 OVC028 18/15 A3019 RMK AO2 T01830150 10292 20183 403150183 PWINO,K6P9,2023-05-20T05:55:00Z,32.43,-98.6,18.3,15.0,360,11,15,,30.188976,,,TRUE,TRUE,,,,,TRUE,,SCT,1500,OVC,2800,,,,,,,29.2,18.3,31.5,18.3,,,,,,,SPECI,451.0
K6I2 200555Z AUTO 20005KT 10SM CLR 19/19 A3002 RMK AO2,K6I2,2023-05-20T05:55:00Z,37.63,-85.25,19.0,19.0,200,5,,10.0,30.02067,,,TRUE,TRUE,,,,,,,CLR,,,,,,,,VFR,,,,,,,,,,,,SPECI,258.0
K4S2 200555Z AUTO 00000KT 10SM CLR 21/16 A3002 RMK AO2,K4S2,2023-05-20T05:55:00Z,45.68,-121.55,21.0,16.0,0,0,,10.0,30.02067,,,TRUE,TRUE,,,,,,,CLR,,,,,,,,VFR,,,,,,,,,,,,METAR,183.0
K4MR 200555Z AUTO 07011KT 6SM HZ OVC014 13/10 A3030 RMK AO2 SLP198 T01320102 10170 20132 52011 $,K4MR,2023-05-20T05:55:00Z,34.3,-103.8,13.2,10.2,70,11,,6.0,30.301182,1019.8,,TRUE,TRUE,TRUE,,,,,HZ,OVC,1400,,,,,,,MVFR,1.1,17.0,13.2,,,,,,,,,METAR,1339.0
K2J5 200555Z AUTO 29003KT 10SM OVC023 19/18 A3008 RMK AO2 T01900178 10201 20188,K2J5,2023-05-20T05:55:00Z,32.9,-81.97,19.0,17.8,290,3,,10.0,30.079725,,,TRUE,TRUE,,,,,,,OVC,2300,,,,,,,MVFR,,20.1,18.8,,,,,,,,,METAR,72.0
K1YT 200555Z AUTO 10007KT 10SM CLR 24/07 A2998 RMK AO2 LTG DSNT NW TSB0456E19TSB27E49 SLPNO T02420069 10330 20237 51022,K1YT,2023-05-20T05:55:00Z,46.67,-120.45,24.2,6.9,100,7,,10.0,29.97933,,,TRUE,TRUE,,,,,,,CLR,,,,,,,,VFR,2.2,33.0,23.7,,,,,,,,,METAR,423.0
K1OW 200555Z AUTO 14006KT 7SM SCT030 07/05 A3046 RMK AO2 SLP294 T00700050 10137 20070 50001 $,K1OW,2023-05-20T05:55:00Z,40.88,-104.0,7.0,5.0,140,6,,7.0,30.46063,1029.4,,TRUE,TRUE,TRUE,,,,,,SCT,3000,,,,,,,VFR,0.1,13.7,7.0,,,,,,,,,METAR,1650.0
K1ON 200555Z AUTO 21005KT 10SM CLR 09/03 M RMK AO2 SLPNO T00870029 10203 20087 402070009 $,K1ON,2023-05-20T05:55:00Z,,,8.7,2.9,210,5,,10.0,,,,TRUE,TRUE,TRUE,,,,,,CLR,,,,,,,,VFR,,20.3,8.7,20.7,0.9,,,,,,,METAR,
K1OM 200555Z AUTO 00000KT 10SM CLR 12/05 A3007 RMK AO2 SLP179 T01220049 10230 20122 58000 $,K1OM,2023-05-20T05:55:00Z,47.33,-108.93,12.2,4.9,0,0,,10.0,30.070866,1017.9,,TRUE,TRUE,TRUE,,,,,,CLR,,,,,,,,VFR,0.0,23.0,12.2,,,,,,,,,METAR,1088.0
K1NW 200555Z AUTO 12006KT 7SM CLR 08/07 A3033 RMK AO2 SLP257 T00840073 10150 20083 50000 $,K1NW,2023-05-20T05:55:00Z,40.63,-103.83,8.4,7.3,120,6,,7.0,30.33071,1025.7,,TRUE,TRUE,TRUE,,,,,,CLR,,,,,,,,VFR,0.0,15.0,8.3,,,,,,,,,METAR,1461.0
K1MW 200555Z AUTO 14004KT 10SM CLR 09/07 A3032 RMK AO2 SLP252 T00920066 10153 20091 58001 PWINO $,K1MW,2023-05-20T05:55:00Z,40.7,-103.48,9.2,6.6,140,4,,10.0,30.318897,1025.2,,TRUE,TRUE,TRUE,,,,TRUE,,CLR,,,,,,,,VFR,-0.1,15.3,9.1,,,,,,,,,METAR,1338.0
K1MN 200555Z AUTO 21010KT 10SM CLR 11/04 A3014 RMK AO2 SLP215 T01070035 10193 20092 402000021 57009 $,K1MN,2023-05-20T05:55:00Z,,,10.7,3.5,210,10,,10.0,30.138779,1021.5,,TRUE,TRUE,TRUE,,,,,,CLR,,,,,,,,VFR,-0.9,19.3,9.2,20.0,2.1,,,,,,,METAR,
K1MM 200555Z AUTO 20007KT 10SM BKN140 13/05 A3009 RMK AO2 SLP176 T01270051 10234 20113 58001 $,K1MM,2023-05-20T05:55:00Z,47.02,-109.63,12.7,5.1,200,7,,10.0,30.088583,1017.6,,TRUE,TRUE,TRUE,,,,,,BKN,14000,,,,,,,VFR,-0.1,23.4,11.3,,,,,,,,,METAR,1256.0
K1LN 200555Z AUTO 21010KT 10SM CLR 11/03 A3014 RMK AO2 SLP213 T01130026 10195 20095 401990016 57008 $,K1LN,2023-05-20T05:55:00Z,,,11.3,2.6,210,10,,10.0,30.138779,1021.3,,TRUE,TRUE,TRUE,,,,,,CLR,,,,,,,,VFR,-0.8,19.5,9.5,19.9,1.6,,,,,,,METAR,
K1JW 200555Z AUTO 15004KT 10SM BKN042 10/06 M RMK AO2 SLPNO T00950064 10146 20083 $,K1JW,2023-05-20T05:55:00Z,40.97,-103.2,9.5,6.4,150,4,,10.0,,,,TRUE,TRUE,TRUE,,,,,,BKN,4200,,,,,,,VFR,,14.6,8.3,,,,,,,,,METAR,1382.0
K1JN 200555Z AUTO 21013KT 10SM CLR 10/03 A3015 RMK AO2 SLP220 T00950030 10181 20095 401900024 57009 $,K1JN,2023-05-20T05:55:00Z,,,9.5,3.0,210,13,,10.0,30.15059,1022.0,,TRUE,TRUE,TRUE,,,,,,CLR,,,,,,,,VFR,-0.9,18.1,9.5,19.0,2.4,,,,,,,METAR,
K1JM 200555Z AUTO 00000KT 7SM CLR 12/06 A3006 RMK AO2 SLP171 T01170064 10250 20110 51004 $,K1JM,2023-05-20T05:55:00Z,47.75,-111.55,11.7,6.4,0,0,,7.0,30.059055,1017.1,,TRUE,TRUE,TRUE,,,,,,CLR,,,,,,,,VFR,0.4,25.0,11.0,,,,,,,,,METAR,1154.0
K1IW 200555Z AUTO 26003KT 10SM M 07/05 A3030 RMK AO2 SLP255 T00740054 10155 20074 58002 $,K1IW,2023-05-20T05:55:00Z,41.05,-102.87,7.4,5.4,260,3,,10.0,30.301182,1025.5,,TRUE,TRUE,TRUE,,,,,,,,,,,,,,,-0.2,15.5,7.4,,,,,,,,,METAR,1294.0
K1IM 200555Z AUTO 00000KT 9SM CLR 14/07 A3005 RMK AO2 SLP166 T01410069 10248 20134 52008 $,K1IM,2023-05-20T05:55:00Z,47.32,-111.47,14.1,6.9,0,0,,9.0,30.050198,1016.6,,TRUE,TRUE,TRUE,,,,,,CLR,,,,,,,,VFR,0.8,24.8,13.4,,,,,,,,,METAR,1110.0
K1HW 200555Z AUTO 16004KT 10SM CLR 11/05 A3029 RMK AO2 SLP246 T01050051 10159 20091 58002 $,K1HW,2023-05-20T05:55:00Z,41.32,-102.83,10.5,5.1,160,4,,10.0,30.28937,1024.6,,TRUE,TRUE,TRUE,,,,,,CLR,,,,,,,,VFR,-0.2,15.9,9.1,,,,,,,,,METAR,1265.0
K1HN 200555Z AUTO 15012KT 10SM CLR 12/03 A3015 RMK AO2 SLP221 T01160026 10189 20115 401910007 57009 $,K1HN,2023-05-20T05:55:00Z,,,11.6,2.6,150,12,,10.0,30.15059,1022.1,,TRUE,TRUE,TRUE,,,,,,CLR,,,,,,,,VFR,-0.9,18.9,11.5,19.1,0.7,,,,,,,METAR,
K1HM 200555Z AUTO 26003KT 7SM CLR 15/06 A3006 RMK AO2 SLP163 T01520062 10258 20148 52006 $,K1HM,2023-05-20T05:55:00Z,47.7,-111.95,15.2,6.2,260,3,,7.0,30.059055,1016.3,,TRUE,TRUE,TRUE,,,,,,CLR,,,,,,,,VFR,0.6,25.8,14.8,,,,,,,,,METAR,1181.0
K1GN 200555Z AUTO 19012KT 10SM CLR 10/04 A3015 RMK AO2 SLP226 T01000035 10185 20095 401900007 57010 $,K1GN,2023-05-20T05:55:00Z,,,10.0,3.5,190,12,,10.0,30.15059,1022.6,,TRUE,TRUE,TRUE,,,,,,CLR,,,,,,,,VFR,-1.0,18.5,9.5,19.0,0.7,,,,,,,METAR,
K1GM 200555Z AUTO 26006KT 10SM CLR 16/05 M RMK AO2 SLPNO T01560046 10237 20136 $,K1GM,2023-05-20T05:55:00Z,47.33,-112.1,15.6,4.6,260,6,,10.0,,,,TRUE,TRUE,TRUE,,,,,,CLR,,,,,,,,VFR,,23.7,13.6,,,,,,,,,METAR,1317.0
K1FW 200555Z AUTO 17006KT 10SM CLR 09/08 A3031 RMK AO2 SLP246 T00860084 10143 20086 58004 $,K1FW,2023-05-20T05:55:00Z,41.37,-103.48,8.6,8.4,170,6,,10.0,30.31004,1024.6,,TRUE,TRUE,TRUE,,,,,,CLR,,,,,,,,VFR,-0.4,14.3,8.6,,,,,,,,,METAR,1451.0
K1EW 200555Z AUTO 35008KT 7SM CLR 08/06 A3032 RMK AO2 SLP247 T00840062 10143 20081 58002 $,K1EW,2023-05-20T05:55:00Z,41.12,-103.98,8.4,6.2,350,8,,7.0,30.318897,1024.7,,TRUE,TRUE,TRUE,,,,,,CLR,,,,,,,,VFR,-0.2,14.3,8.1,,,,,,,,,METAR,1609.0
K1EN 200555Z AUTO 20011KT 10SM CLR 09/02 A2996 RMK AO2 SLP161 T00910020 10181 20091 401840002 57007 $,K1EN,2023-05-20T05:55:00Z,,,9.1,2.0,200,11,,10.0,29.958662,1016.1,,TRUE,TRUE,TRUE,,,,,,CLR,,,,,,,,VFR,-0.7,18.1,9.1,18.4,0.2,,,,,,,METAR,
K1EM 200555Z AUTO 19004KT 10SM CLR 15/05 A3008 RMK AO2 SLP173 T01480045 10237 20147 58001 $,K1EM,2023-05-20T05:55:00Z,47.45,-109.42,14.8,4.5,190,4,,10.0,30.079725,1017.3,,TRUE,TRUE,TRUE,,,,,,CLR,,,,,,,,VFR,-0.1,23.7,14.7,,,,,,,,,METAR,1118.0
K1DM 200555Z AUTO 17009KT 10SM CLR 13/06 A3009 RMK AO2 SLP180 T01290058 10246 20128 50001 $,K1DM,2023-05-20T05:55:00Z,47.37,-109.8,12.9,5.8,170,9,,10.0,30.088583,1018.0,,TRUE,TRUE,TRUE,,,,,,CLR,,,,,,,,VFR,0.1,24.6,12.8,,,,,,,,,METAR,1093.0
K1CW 200555Z AUTO 16009KT 10SM BKN040 10/06 A3032 RMK AO2 SLP254 T00950057 10153 20091 58004 $,K1CW,2023-05-20T05:55:00Z,41.58,-103.57,9.5,5.7,160,9,,10.0,30.318897,1025.4,,TRUE,TRUE,TRUE,,,,,,BKN,4000,,,,,,,VFR,-0.4,15.3,9.1,,,,,,,,,METAR,1370.0
K1CN 200555Z AUTO 20008KT 10SM CLR 08/03 A3019 RMK AO2 SLP233 T00760025 10187 20074 401920003 57006 $,K1CN,2023-05-20T05:55:00Z,,,7.6,2.5,200,8,,10.0,30.188976,1023.3,,TRUE,TRUE,TRUE,,,,,,CLR,,,,,,,,VFR,-0.6,18.7,7.4,19.2,0.3,,,,,,,METAR,
K1CM 200555Z AUTO 21003KT 9SM CLR 15/05 A3011 RMK AO2 SLP175 T01460051 10223 20120 58001 $,K1CM,2023-05-20T05:55:00Z,47.1,-110.17,14.6,5.1,210,3,,9.0,30.109253,1017.5,,TRUE,TRUE,TRUE,,,,,,CLR,,,,,,,,VFR,-0.1,22.3,12.0,,,,,,,,,METAR,1338.0
K1BW 200555Z AUTO 17006KT 8SM CLR 07/05 A3036 RMK AO2 SLP273 T00720052 10133 20072 58002 $,K1BW,2023-05-20T05:55:00Z,41.52,-104.0,7.2,5.2,170,6,,8.0,30.360237,1027.3,,TRUE,TRUE,TRUE,,,,,,CLR,,,,,,,,VFR,-0.2,13.3,7.2,,,,,,,,,METAR,1606.0
K1BN 200555Z AUTO 22008KT 10SM CLR 09/02 A3018 RMK AO2 SLP229 T00870016 10187 20084 401870036 57009 $,K1BN,2023-05-20T05:55:00Z,,,8.7,1.6,220,8,,10.0,30.180119,1022.9,,TRUE,TRUE,TRUE,,,,,,CLR,,,,,,,,VFR,-0.9,18.7,8.4,18.7,3.6,,,,,,,METAR,
K1AN 200555Z AUTO 20007KT 10SM CLR 09/04 A3014 RMK AO2 SLP231 T00890041 10196 20089 401960046 58004 $,K1AN,2023-05-20T05:55:00Z,,,8.9,4.1,200,7,,10.0,30.138779,1023.1,,TRUE,TRUE,TRUE,,,,,,CLR,,,,,,,,VFR,-0.4,19.6,8.9,19.6,4.6,,,,,,,METAR,
K1AM 200555Z AUTO 00000KT 7SM CLR 12/08 A3009 RMK AO2 SLP178 T01240077 10243 20124 50003 $,K1AM,2023-05-20T05:55:00Z,47.28,-110.8,12.4,7.7,0,0,,7.0,30.088583,1017.8,,TRUE,TRUE,TRUE,,,,,,CLR,,,,,,,,VFR,0.3,24.3,12.4,,,,,,,,,METAR,1228.0
K18A 200555Z AUTO 00000KT 7SM SCT011 BKN047 17/16 A3018 RMK AO2 T01690164 10212 20169,K18A,2023-05-20T05:55:00Z,34.35,-83.13,16.9,16.4,0,0,,7.0,30.180119,,,TRUE,TRUE,,,,,,,SCT,1100,BKN,4700,,,,,VFR,,21.2,16.9,,,,,,,,,METAR,260.0
FJDG 200555Z 08013KT 9999 SCT018 BKN050 BKN080 30/26 A2986 RMK SLP108 T2 SET 8/870 T02960261 10296 20270 50007,FJDG,2023-05-20T05:55:00Z,-7.32,72.42,29.6,26.1,80,13,,6.21,29.861221,1010.8,,,,,,,,,,SCT,1800,BKN,5000,BKN,8000,,,VFR,0.7,29.6,27.0,,,,,,,,,SPECI,3.0
ETOU 200555Z AUTO 02005KT 9999 SCT075 BKN170 15/14 A3010 RMK AO2 SLP195 T01450143 10151 20118 56006,ETOU,2023-05-20T05:55:00Z,50.03,8.32,14.5,14.3,20,5,,6.21,30.100393,1019.5,,TRUE,TRUE,,,,,,,SCT,7500,BKN,17000,,,,,VFR,-0.6,15.1,11.8,,,,,,,,,SPECI,141.0
ETIK 200555Z AUTO 05007KT 9999 FEW140 13/09 A3007 RMK AO2 SLP184 T01260092 10128 20101 58002,ETIK,2023-05-20T05:55:00Z,49.47,10.38,12.6,9.2,50,7,,6.21,30.070866,1018.4,,TRUE,TRUE,,,,,,,FEW,14000,,,,,,,VFR,-0.2,12.8,10.1,,,,,,,,,METAR,326.0
ETIH 200555Z AUTO 04003KT 9999 FEW017 14/09 A3007 RMK AO2 SLP184 T01360092 10136 20101 58003,ETIH,2023-05-20T05:55:00Z,49.22,11.83,13.6,9.2,40,3,,6.21,30.070866,1018.4,,TRUE,TRUE,,,,,,,FEW,1700,,,,,,,VFR,-0.3,13.6,10.1,,,,,,,,,METAR,436.0
ETIC 200555Z AUTO 04003KT 9999 FEW022 14/09 A3007 RMK AO2 SLP185 T01360094 10136 20112 58003 $,ETIC,2023-05-20T05:55:00Z,49.7,11.93,13.6,9.4,40,3,,6.21,30.070866,1018.5,,TRUE,TRUE,TRUE,,,,,,FEW,2200,,,,,,,VFR,-0.3,13.6,11.2,,,,,,,,,METAR,414.0
ETEB 200555Z AUTO 05012KT 9999 CLR 13/09 A3005 RMK AO2 SLP190 T01270090 10127 20111 57003 $,ETEB,2023-05-20T05:55:00Z,49.32,10.63,12.7,9.0,50,12,,6.21,30.050198,1019.0,,TRUE,TRUE,TRUE,,,,,,CLR,,,,,,,,VFR,-0.3,12.7,11.1,,,,,,,,,METAR,466.0
ETAR 200555Z AUTO 07007KT 9999 CLR 13/08 A3007 RMK AO2 SLP186 T01290082 10133 20055 57007,ETAR,2023-05-20T05:55:00Z,49.43,7.58,12.9,8.2,70,7,,6.21,30.070866,1018.6,,TRUE,TRUE,,,,,,,CLR,,,,,,,,VFR,-0.7,13.3,5.5,,,,,,,,,METAR,231.0
ETAD 200555Z AUTO 05009KT 9999 FEW060 12/06 A3009 RMK AO2 SLP181 T01180063 10119 20101 57003,ETAD,2023-05-20T05:55:00Z,49.98,6.7,11.8,6.3,50,9,,6.21,30.088583,1018.1,,TRUE,TRUE,,,,,,,FEW,6000,,,,,,,VFR,-0.3,11.9,10.1,,,,,,,,,METAR,365.0
EHWO 200555Z AUTO 04007KT 360V080 9999 OVC150 12/08 Q1023 BLU TEMPO 01012G22KT,EHWO,2023-05-20T05:55:00Z,51.45,4.33,12.0,8.0,40,7,,6.21,30.206694,,,TRUE,,,,,,,,OVC,15000,,,,,,,VFR,,,,,,,,,,,,METAR,15.0
EHVL 200555Z AUTO 06014KT 9999 NCD 13/08 Q1026 BLU,EHVL,2023-05-20T05:55:00Z,53.28,5.08,13.0,8.0,60,14,,6.21,30.295275,,,TRUE,,,,,,,,CLR,,,,,,,,VFR,,,,,,,,,,,,METAR,2.0
EHVK 200555Z AUTO 04009KT 9999 NCD 13/08 Q1023 BLU,EHVK,2023-05-20T05:55:00Z,51.65,5.7,13.0,8.0,40,9,,6.21,30.206694,,,TRUE,,,,,,,,CLR,,,,,,,,VFR,,,,,,,,,,,,METAR,20.0
EHSC 200555Z AUTO 04018KT 9999 ///////// 12/10 Q1025 W13/H9,EHSC,2023-05-20T05:55:00Z,51.93,3.67,12.0,10.0,40,18,,6.21,30.265747,,,TRUE,,,,,,,,,,,,,,,,,,,,,,,,,,,,METAR,19.0
EHSA 200555Z AUTO 03018KT 9999 ///////// 12/10 Q1024 W10/H10,EHSA,2023-05-20T05:55:00Z,52.0,3.28,12.0,10.0,30,18,,6.21,30.236221,,,TRUE,,,,,,,,,,,,,,,,,,,,,,,,,,,,METAR,18.0
EHRD 200555Z AUTO 05009KT 9999 NSC 13/08 Q1024 NOSIG,EHRD,2023-05-20T05:55:00Z,51.95,4.45,13.0,8.0,50,9,,6.21,30.236221,,,TRUE,,,TRUE,,,,,CLR,,,,,,,,VFR,,,,,,,,,,,,METAR,-4.0
EHPG 200555Z AUTO 04020KT 9999 NCD 12/10 Q1025,EHPG,2023-05-20T05:55:00Z,52.37,3.35,12.0,10.0,40,20,,6.21,30.265747,,,TRUE,,,,,,,,CLR,,,,,,,,VFR,,,,,,,,,,,,METAR,24.0
EHMG 200555Z AUTO 06021KT 9999 NCD 12/09 Q1028,EHMG,2023-05-20T05:55:00Z,53.62,4.97,12.0,9.0,60,21,,6.21,30.35433,,,TRUE,,,,,,,,CLR,,,,,,,,VFR,,,,,,,,,,,,METAR,30.0
EHMA 200555Z AUTO 07017KT 050V110 9999 NSC 13/09 Q1027,EHMA,2023-05-20T05:55:00Z,53.5,5.95,13.0,9.0,70,17,,6.21,30.324802,,,TRUE,,,,,,,,CLR,,,,,,,,VFR,,,,,,,,,,,,METAR,27.0
EHLW 200555Z AUTO 06008KT 360V110 9999 FEW079 12/08 Q1026 BLU,EHLW,2023-05-20T05:55:00Z,53.22,5.75,12.0,8.0,60,8,,6.21,30.295275,,,TRUE,,,,,,,,FEW,7900,,,,,,,VFR,,,,,,,,,,,,METAR,1.0
EHLE 200555Z AUTO 05011KT 9999 NCD 13/09 Q1025 NOSIG,EHLE,2023-05-20T05:55:00Z,52.45,5.52,13.0,9.0,50,11,,6.21,30.265747,,,TRUE,,,TRUE,,,,,CLR,,,,,,,,VFR,,,,,,,,,,,,METAR,-3.0
EHKV 200555Z AUTO 05020KT 9999 NCD 12/09 Q1027,EHKV,2023-05-20T05:55:00Z,53.27,3.63,12.0,9.0,50,20,,6.21,30.324802,,,TRUE,,,,,,,,CLR,,,,,,,,VFR,,,,,,,,,,,,METAR,28.0
EHKD 200555Z AUTO 06012KT 020V090 9999 NCD 13/09 Q1026 BLU NOSIG,EHKD,2023-05-20T05:55:00Z,52.92,4.77,13.0,9.0,60,12,,6.21,30.295275,,,TRUE,,,TRUE,,,,,CLR,,,,,,,,VFR,,,,,,,,,,,,METAR,1.0
EHJR 200555Z AUTO 05019KT //// // ///////// 12/09 Q1027 RE// W11/H8,EHJR,2023-05-20T05:55:00Z,53.22,3.22,12.0,9.0,50,19,,,30.324802,,,TRUE,,,,,,,,,,,,,,,,,,,,,,,,,,,,METAR,31.0
EHJA 200555Z AUTO 05019KT 9999 NCD 11/09 Q1028,EHJA,2023-05-20T05:55:00Z,53.82,2.95,11.0,9.0,50,19,,6.21,30.35433,,,TRUE,,,,,,,,CLR,,,,,,,,VFR,,,,,,,,,,,,METAR,34.0
EHHW 200555Z AUTO 06018KT 040V100 9999 NCD 11/09 Q1028,EHHW,2023-05-20T05:55:00Z,54.03,6.03,11.0,9.0,60,18,,6.21,30.35433,,,TRUE,,,,,,,,CLR,,,,,,,,VFR,,,,,,,,,,,,METAR,10.0
EHGR 200555Z AUTO 03008KT 350V080 9999 SCT150 13/08 Q1023 BLU,EHGR,2023-05-20T05:55:00Z,51.55,4.93,13.0,8.0,30,8,,6.21,30.206694,,,TRUE,,,,,,,,SCT,15000,,,,,,,VFR,,,,,,,,,,,,METAR,12.0
EHGG 200555Z AUTO 05010KT 020V080 9999 NSC 13/07 Q1026 NOSIG,EHGG,2023-05-20T05:55:00Z,53.12,6.57,13.0,7.0,50,10,,6.21,30.295275,,,TRUE,,,TRUE,,,,,CLR,,,,,,,,VFR,,,,,,,,,,,,METAR,2.0
EHFS 200555Z AUTO 02012KT 350V050 9999 NSC 13/09 Q1023,EHFS,2023-05-20T05:55:00Z,51.45,3.6,13.0,9.0,20,12,,6.21,30.206694,,,TRUE,,,,,,,,CLR,,,,,,,,VFR,,,,,,,,,,,,METAR,1.0
EHFD 200555Z AUTO 05015KT 9999 NCD 11/09 Q1029,EHFD,2023-05-20T05:55:00Z,54.85,4.7,11.0,9.0,50,15,,6.21,30.383858,,,TRUE,,,,,,,,CLR,,,,,,,,VFR,,,,,,,,,,,,METAR,24.0
EHEH 200555Z AUTO 03010KT 340V070 9999 NCD 13/08 Q1023 BLU NOSIG,EHEH,2023-05-20T05:55:00Z,51.45,5.38,13.0,8.0,30,10,,6.21,30.206694,,,TRUE,,,TRUE,,,,,CLR,,,,,,,,VFR,,,,,,,,,,,,METAR,20.0
EHDV 200555Z AUTO 05020KT 310V100 9999 NCD 11/// Q1029,EHDV,2023-05-20T05:55:00Z,54.32,2.93,,,50,20,,6.21,30.383858,,,TRUE,,,,,,,,CLR,,,,,,,,VFR,,0.0,,,,,,,,,,METAR,36.0
EHDL 200555Z AUTO 05010KT 340V110 9999 NCD 12/08 Q1024 BLU,EHDL,2023-05-20T05:55:00Z,52.07,5.88,12.0,8.0,50,10,,6.21,30.236221,,,TRUE,,,,,,,,CLR,,,,,,,,VFR,,,,,,,,,,,,METAR,49.0
EHBK 200555Z AUTO 04009KT 010V070 9999 NCD 12/07 Q1022,EHBK,2023-05-20T05:55:00Z,50.92,5.77,12.0,7.0,40,9,,6.21,30.177166,,,TRUE,,,,,,,,CLR,,,,,,,,VFR,,,,,,,,,,,,METAR,112.0
EHAM 200555Z 04008KT 020V080 CAVOK 13/10 Q1025 NOSIG,EHAM,2023-05-20T05:55:00Z,52.32,4.78,13.0,10.0,40,8,,6.21,30.265747,,,,,,TRUE,,,,,CAVOK,,,,,,,,VFR,,,,,,,,,,,,METAR,-2.0
EHAK 200555Z AUTO 08017KT 9999 NCD 10/07 Q1030,EHAK,2023-05-20T05:55:00Z,55.38,3.82,10.0,7.0,80,17,,6.21,30.413385,,,TRUE,,,,,,,,CLR,,,,,,,,VFR,,,,,,,,,,,,METAR,33.0
EGUN 200555Z 02008KT 9999 FEW080 FEW250 09/09 A3033 RMK AO2A SLP274 T00910091 10091 20054 56004 $,EGUN,2023-05-20T05:55:00Z,52.37,0.48,9.1,9.1,20,8,,6.21,30.33071,1027.4,,,TRUE,TRUE,,,,,,FEW,8000,FEW,25000,,,,,VFR,-0.4,9.1,5.4,,,,,,,,,SPECI,10.0
EGUL 200555Z AUTO 06006KT 9999 CLR 09/09 A3033 RMK AO2 SLP274 T00870085 10087 20044 56004 $,EGUL,2023-05-20T05:55:00Z,52.42,0.57,8.7,8.5,60,6,,6.21,30.33071,1027.4,,TRUE,TRUE,TRUE,,,,,,CLR,,,,,,,,VFR,-0.4,8.7,4.4,,,,,,,,,SPECI,8.0
EBLB 200555Z AUTO 06006KT 9999 NCD 09/05 Q1020 BLU,EBLB,2023-05-20T05:55:00Z,50.47,6.17,9.0,5.0,60,6,,6.21,30.11811,,,TRUE,,,,,,,,CLR,,,,,,,,VFR,,,,,,,,,,,,METAR,563.0
EBFS 200555Z AUTO 02009KT 9999 BKN160/// BKN220/// 11/06 Q1021 BLU,EBFS,2023-05-20T05:55:00Z,50.23,4.65,11.0,6.0,20,9,,6.21,30.147638,,,TRUE,,,,,,,,BKN,16000,BKN,22000,,,,,VFR,,,,,,,,,,,,METAR,276.0
EBFN 200555Z AUTO 04010KT 9999 FEW067/// 13/10 Q1023 BLU,EBFN,2023-05-20T05:55:00Z,51.08,2.65,13.0,10.0,40,10,,6.21,30.206694,,,TRUE,,,,,,,,FEW,6700,,,,,,,VFR,,,,,,,,,,,,METAR,9.0
EBDT 200555Z AUTO 04007KT 9999 NCD 13/07 Q1022 BLU,EBDT,2023-05-20T05:55:00Z,51.02,5.07,13.0,7.0,40,7,,6.21,30.177166,,,TRUE,,,,,,,,CLR,,,,,,,,VFR,,,,,,,,,,,,METAR,25.0
EBCV 200555Z AUTO 04007KT 9999 FEW150/// BKN220/// 11/07 Q1022 BLU,EBCV,2023-05-20T05:55:00Z,50.57,3.82,11.0,7.0,40,7,,6.21,30.177166,,,TRUE,,,,,,,,FEW,15000,BKN,22000,,,,,VFR,,,,,,,,,,,,METAR,56.0
EBBL 200555Z AUTO 04009KT 9999 NCD 13/07 Q1022 BLU,EBBL,2023-05-20T05:55:00Z,51.17,5.47,13.0,7.0,40,9,,6.21,30.177166,,,TRUE,,,,,,,,CLR,,,,,,,,VFR,,,,,,,,,,,,METAR,50.0
EBBE 200555Z AUTO 04008KT 9999 NCD 12/07 Q1022 BLU,EBBE,2023-05-20T05:55:00Z,50.75,4.77,12.0,7.0,40,8,,6.21,30.177166,,,TRUE,,,,,,,,CLR,,,,,,,,VFR,,,,,,,,,,,,METAR,127.0
BGTL 200555Z AUTO 10006KT 9999 CLR M05/M09 A2900 RMK AO2 SLP807 T10461089 11010 21057 53006 TSNO $,BGTL,2023-05-20T05:55:00Z,76.53,-68.75,-4.6,-8.9,100,6,,6.21,28.999016,980.7,,TRUE,TRUE,TRUE,,TRUE,,,,CLR,,,,,,,,VFR,0.6,-1.0,-5.7,,,,,,,,,SPECI,79.0
PHOG 200554Z 29007KT 10SM CLR 25/21 A3004 RMK AO2 SLP176 T02500211 10294 20250 51016,PHOG,2023-05-20T05:54:00Z,20.9,-156.43,25.0,21.1,290,7,,10.0,30.041338,1017.6,,,TRUE,,,,,,,CLR,,,,,,,,VFR,1.6,29.4,25.0,,,,,,,,,METAR,14.0
PHMK 200554Z AUTO 00000KT 10SM CLR 23/19 A3006 RMK AO2 SLP182 T02280194 10300 20228 51014 TSNO,PHMK,2023-05-20T05:54:00Z,21.15,-157.1,22.8,19.4,0,0,,10.0,30.059055,1018.2,,TRUE,TRUE,,,TRUE,,,,CLR,,,,,,,,VFR,1.4,30.0,22.8,,,,,,,,,SPECI,135.0
PGUM 200554Z 10009G18KT 10SM FEW037 32/23 A2981 RMK AO2 SLP084 T03170233 10328 20306 56010,PGUM,2023-05-20T05:54:00Z,13.48,144.8,31.7,23.3,100,9,18,10.0,29.811024,1008.4,,,TRUE,,,,,,,FEW,3700,,,,,,,VFR,-1.0,32.8,30.6,,,,,,,,,SPECI,74.0
PGSN 200554Z 06012KT 10SM FEW021 31/25 A2981 RMK AO2 SLP115 6//// T03110250 10328 20306 56007 PNO $,PGSN,2023-05-20T05:54:00Z,15.12,145.72,31.1,25.0,60,12,,10.0,29.811024,1011.5,,,TRUE,TRUE,,,,,,FEW,2100,,,,,,,VFR,-0.7,32.8,30.6,,,,,,,,,SPECI,65.0
PAKN 200554Z 09025G34KT 10SM FEW080 09/03 A2972 RMK AO2 PK WND 09034/0525 SLP065 T00940028 10144 20094 53018,PAKN,2023-05-20T05:54:00Z,58.68,-156.65,9.4,2.8,90,25,34,10.0,29.719488,1006.5,,,TRUE,,,,,,,FEW,8000,,,,,,,VFR,1.8,14.4,9.4,,,,,,,,,METAR,20.0
PAHN 200554Z AUTO 07004KT -RA OVC018 13/09 A3018 RMK AO2 RAB30 SLP224 P0000 60000 T01280094 10167 20128 53004 TSNO $,PAHN,2023-05-20T05:54:00Z,59.25,-135.52,12.8,9.4,70,4,,,30.180119,1022.4,,TRUE,TRUE,TRUE,,TRUE,,,-RA,OVC,1800,,,,,,,,0.4,16.7,12.8,,,0.005,,0.005,,,,METAR,15.0
KWAL 200554Z AUTO 05010KT 6SM -RA BR OVC004 17/16 A3010 RMK AO2 SLP189 P0003 60005 T01720161 10172 20167 58027,KWAL,2023-05-20T05:54:00Z,37.93,-75.47,17.2,16.1,50,10,,6.0,30.100393,1018.9,,TRUE,TRUE,,,,,,-RA BR,OVC,400,,,,,,,LIFR,-2.7,17.2,16.7,,,0.03,,0.05,,,,METAR,10.0
KVTA 200554Z AUTO 30006KT 10SM FEW030 18/16 A2996 RMK AO2 SLP139 T01780156 10233 20167 58008,KVTA,2023-05-20T05:54:00Z,40.02,-82.47,17.8,15.6,300,6,,10.0,29.958662,1013.9,,TRUE,TRUE,,,,,,,FEW,3000,,,,,,,VFR,-0.8,23.3,16.7,,,,,,,,,METAR,268.0
KVSF 200554Z AUTO 16005KT 10SM CLR 12/07 A3019 RMK AO2 SLP224 T01220067 10178 20122 56005,KVSF,2023-05-20T05:54:00Z,43.35,-72.52,12.2,6.7,160,5,,10.0,30.188976,1022.4,,TRUE,TRUE,,,,,,,CLR,,,,,,,,VFR,-0.5,17.8,12.2,,,,,,,,,METAR,176.0
KVAY 200554Z AUTO 00000KT 10SM BKN026 OVC033 14/12 A3017 RMK AO2 SLP216 T01440117 10172 20133 56014,KVAY,2023-05-20T05:54:00Z,39.93,-74.83,14.4,11.7,0,0,,10.0,30.171259,1021.6,,TRUE,TRUE,,,,,,,BKN,2600,OVC,3300,,,,,MVFR,-1.4,17.2,13.3,,,,,,,,,METAR,15.0
KUZA 200554Z AUTO 04004KT 7SM FEW006 FEW010 OVC015 17/17 A3010 RMK AO2 SLP185 60001 T01720167 10183 20172 56014,KUZA,2023-05-20T05:54:00Z,34.98,-81.05,17.2,16.7,40,4,,7.0,30.100393,1018.5,,TRUE,TRUE,,,,,,,FEW,600,FEW,1000,OVC,1500,,,MVFR,-1.4,18.3,17.2,,,,,0.01,,,,METAR,198.0
KUIN 200554Z AUTO 34007KT 10SM CLR 11/06 A3014 RMK AO2 SLP204 T01110056 10167 20111 402060111 51010,KUIN,2023-05-20T05:54:00Z,39.95,-91.2,11.1,5.6,340,7,,10.0,30.138779,1020.4,,TRUE,TRUE,,,,,,,CLR,,,,,,,,VFR,1.0,16.7,11.1,20.6,11.1,,,,,,,METAR,233.0
KTQE 200554Z AUTO 32006KT 10SM CLR 07/03 A3027 RMK AO2 SLP246 T00720033 10156 20072 402000072 50004,KTQE,2023-05-20T05:54:00Z,41.77,-96.18,7.2,3.3,320,6,,10.0,30.268702,1024.6,,TRUE,TRUE,,,,,,,CLR,,,,,,,,VFR,0.4,15.6,7.2,20.0,7.2,,,,,,,METAR,312.0
KSYR 200554Z 16009KT 10SM SCT070 BKN085 OVC140 19/08 A3003 RMK AO2 SLP164 60000 T01890083 10211 20189 58007,KSYR,2023-05-20T05:54:00Z,43.12,-76.1,18.9,8.3,160,9,,10.0,30.029528,1016.4,,,TRUE,,,,,,,SCT,7000,BKN,8500,OVC,14000,,,VFR,-0.7,21.1,18.9,,,,,0.005,,,,METAR,125.0
KSUS 200554Z AUTO 28003KT 9SM SCT065 OVC080 14/13 A3010 RMK AO2 SLP189 60001 T01390128 10156 20133 402670133 51005,KSUS,2023-05-20T05:54:00Z,38.65,-90.65,13.9,12.8,280,3,,9.0,30.100393,1018.9,,TRUE,TRUE,,,,,,,SCT,6500,OVC,8000,,,,,VFR,0.5,15.6,13.3,26.7,13.3,,,0.01,,,,METAR,140.0
KSLC 200554Z 00000KT 9SM CLR 22/02 A3014 RMK AO2 SLP155 T02170017 10278 20217 50012,KSLC,2023-05-20T05:54:00Z,40.77,-111.97,21.7,1.7,0,0,,9.0,30.138779,1015.5,,,TRUE,,,,,,,CLR,,,,,,,,VFR,1.2,27.8,21.7,,,,,,,,,METAR,1286.0
KSET 200554Z AUTO 34006KT 10SM BKN070 OVC085 16/08 A3010 RMK AO2 SLP190 60000 T01560083 10161 20144 402610144 52007,KSET,2023-05-20T05:54:00Z,38.93,-90.43,15.6,8.3,340,6,,10.0,30.100393,1019.0,,TRUE,TRUE,,,,,,,BKN,7000,OVC,8500,,,,,VFR,0.7,16.1,14.4,26.1,14.4,,,0.005,,,,METAR,133.0
KSBN 200554Z AUTO 32007KT 8SM CLR 11/07 A3006 RMK AO2 SLP177 60001 T01060067 10150 20106 50004,KSBN,2023-05-20T05:54:00Z,41.7,-86.32,10.6,6.7,320,7,,8.0,30.059055,1017.7,,TRUE,TRUE,,,,,,,CLR,,,,,,,,VFR,0.4,15.0,10.6,,,,,0.01,,,,METAR,236.0
KRST 200554Z 36006KT 10SM CLR 07/04 A3020 RMK AO2 SLP234 T00670039 10128 20067 401390061 50003,KRST,2023-05-20T05:54:00Z,43.9,-92.5,6.7,3.9,360,6,,10.0,30.200787,1023.4,,,TRUE,,,,,,,CLR,,,,,,,,VFR,0.3,12.8,6.7,13.9,6.1,,,,,,,METAR,398.0
KRSP 200554Z AUTO VRB06KT 10SM CLR 13/09 A3013 RMK AO2 SLP202 T01330094 10178 20133 58017 $,KRSP,2023-05-20T05:54:00Z,39.65,-77.47,13.3,9.4,0,6,,10.0,30.129921,1020.2,,TRUE,TRUE,TRUE,,,,,,CLR,,,,,,,,VFR,-1.7,17.8,13.3,,,,,,,,,METAR,555.0
KROC 200554Z 19009G17KT 10SM SCT065 OVC170 19/11 A2996 RMK AO2 SLP147 60000 T01890106 10189 20172 58012,KROC,2023-05-20T05:54:00Z,43.12,-77.68,18.9,10.6,190,9,17,10.0,29.958662,1014.7,,,TRUE,,,,,,,SCT,6500,OVC,17000,,,,,VFR,-1.2,18.9,17.2,,,,,0.005,,,,METAR,166.0
KROA 200554Z 12003KT 10SM OVC034 18/14 A3014 RMK AO2 SLP198 T01780139 10200 20178 58013,KROA,2023-05-20T05:54:00Z,37.32,-79.97,17.8,13.9,120,3,,10.0,30.138779,1019.8,,,TRUE,,,,,,,OVC,3400,,,,,,,VFR,-1.3,20.0,17.8,,,,,,,,,METAR,349.0
KRKS 200554Z AUTO 06004KT 10SM CLR 11/M02 A3033 RMK AO2 SLP215 T01061022 10194 20106 51008,KRKS,2023-05-20T05:54:00Z,41.6,-109.07,10.6,-2.2,60,4,,10.0,30.33071,1021.5,,TRUE,TRUE,,,,,,,CLR,,,,,,,,VFR,0.8,19.4,10.6,,,,,,,,,METAR,2062.0
KRIC 200554Z 05006KT 10SM SCT005 SCT130 16/14 A3009 RMK AO2 SLP192 T01560139 10194 20150 57026,KRIC,2023-05-20T05:54:00Z,37.52,-77.32,15.6,13.9,50,6,,10.0,30.088583,1019.2,,,TRUE,,,,,,,SCT,500,SCT,13000,,,,,VFR,-2.6,19.4,15.0,,,,,,,,,METAR,51.0
KRFD 200554Z 33005KT 10SM CLR 10/07 A3013 RMK T01000067,KRFD,2023-05-20T05:54:00Z,42.2,-89.1,10.0,6.7,330,5,,10.0,30.129921,,,,,,,,,,,CLR,,,,,,,,VFR,,,,,,,,,,,,METAR,222.0
KRDG 200554Z AUTO 15003KT 10SM CLR 14/09 A3016 RMK AO2 SLP216 T01390094 10200 20139 58013,KRDG,2023-05-20T05:54:00Z,40.37,-75.97,13.9,9.4,150,3,,10.0,30.159449,1021.6,,TRUE,TRUE,,,,,,,CLR,,,,,,,,VFR,-1.3,20.0,13.9,,,,,,,,,METAR,101.0
KPSF 200554Z AUTO 16009G17KT 10SM CLR 11/07 A3018 RMK AO2 SLP207 T01110072 10161 20111 56014,KPSF,2023-05-20T05:54:00Z,42.43,-73.28,11.1,7.2,160,9,17,10.0,30.180119,1020.7,,TRUE,TRUE,,,,,,,CLR,,,,,,,,VFR,-1.4,16.1,11.1,,,,,,,,,METAR,352.0
KPNE 200554Z AUTO 00000KT 10SM OVC042 14/11 A3018 RMK AO2 SLP221 T01390111 10183 20128 56022,KPNE,2023-05-20T05:54:00Z,40.08,-75.02,13.9,11.1,0,0,,10.0,30.180119,1022.1,,TRUE,TRUE,,,,,,,OVC,4200,,,,,,,VFR,-2.2,18.3,12.8,,,,,,,,,METAR,32.0
KPLN 200554Z AUTO 31007KT 10SM OVC006 08/07 A2999 RMK AO2 SLP157 T00780067 10106 20078 56003,KPLN,2023-05-20T05:54:00Z,45.57,-84.8,7.8,6.7,310,7,,10.0,29.991142,1015.7,,TRUE,TRUE,,,,,,,OVC,600,,,,,,,IFR,-0.3,10.6,7.8,,,,,,,,,METAR,215.0
KPIA 200554Z COR 36004KT 10SM CLR 12/05 A3012 RMK AO2 SLP197 T01220050 10183 20122 402220122 51010,KPIA,2023-05-20T05:54:00Z,40.67,-89.68,12.2,5.0,360,4,,10.0,30.121063,1019.7,TRUE,,TRUE,,,,,,,CLR,,,,,,,,VFR,1.0,18.3,12.2,22.2,12.2,,,,,,,SPECI,200.0
KPHL 200554Z 05003KT 10SM BKN012 BKN040 BKN250 13/11 A3017 RMK AO2 SLP215 T01330111 10183 20128 58021,KPHL,2023-05-20T05:54:00Z,39.87,-75.23,13.3,11.1,50,3,,10.0,30.171259,1021.5,,,TRUE,,,,,,,BKN,1200,BKN,4000,BKN,25000,,,MVFR,-2.1,18.3,12.8,,,,,,,,,METAR,2.0
KPHF 200554Z AUTO 04007KT 10SM OVC005 17/17 A3007 RMK AO2 SLP182 T01720167 10178 20172 58026,KPHF,2023-05-20T05:54:00Z,37.13,-76.5,17.2,16.7,40,7,,10.0,30.070866,1018.2,,TRUE,TRUE,,,,,,,OVC,500,,,,,,,IFR,-2.6,17.8,17.2,,,,,,,,,METAR,12.0
KORH 200554Z AUTO 21007KT 10SM CLR 10/07 A3022 RMK AO2 SLP236 T01000072 10156 20100 58012,KORH,2023-05-20T05:54:00Z,42.27,-71.87,10.0,7.2,210,7,,10.0,30.221457,1023.6,,TRUE,TRUE,,,,,,,CLR,,,,,,,,VFR,-1.2,15.6,10.0,,,,,,,,,METAR,306.0
KOLS 200554Z AUTO 16004KT 10SM FEW110 21/04 A3016 RMK AO2 SLP151 T02060039 10278 20206 51020,KOLS,2023-05-20T05:54:00Z,31.42,-110.85,20.6,3.9,160,4,,10.0,30.159449,1015.1,,TRUE,TRUE,,,,,,,FEW,11000,,,,,,,VFR,2.0,27.8,20.6,,,,,,,,,METAR,1194.0
KOLM 200554Z AUTO 00000KT 10SM CLR 17/13 A3008 RMK AO2 SLP187 T01720133 10261 20161 51014,KOLM,2023-05-20T05:54:00Z,46.97,-122.9,17.2,13.3,0,0,,10.0,30.079725,1018.7,,TRUE,TRUE,,,,,,,CLR,,,,,,,,VFR,1.4,26.1,16.1,,,,,,,,,METAR,58.0
KNAK 200554Z AUTO 05003KT 10SM CLR 16/14 A3013 RMK AO2 SLP204 T01560139 10194 20156 58021 $,KNAK,2023-05-20T05:54:00Z,38.98,-76.48,15.6,13.9,50,3,,10.0,30.129921,1020.4,,TRUE,TRUE,TRUE,,,,,,CLR,,,,,,,,VFR,-2.1,19.4,15.6,,,,,,,,,METAR,2.0
KMVL 200554Z AUTO 15004KT 10SM OVC070 16/09 A3013 RMK AO2 RAB0455E04 SLP201 P0000 60000 T01560094 10200 20150 53004,KMVL,2023-05-20T05:54:00Z,44.53,-72.62,15.6,9.4,150,4,,10.0,30.129921,1020.1,,TRUE,TRUE,,,,,,,OVC,7000,,,,,,,VFR,0.4,20.0,15.0,,,0.005,,0.005,,,,METAR,226.0
KMTP 200554Z AUTO VRB03KT 14/12 A3024 RMK AO1 SLP238 T01390122 10144 20128 58021 $,KMTP,2023-05-20T05:54:00Z,41.07,-71.92,13.9,12.2,0,3,,,30.239174,1023.8,,TRUE,TRUE,TRUE,,,,,,,,,,,,,,,-2.1,14.4,12.8,,,,,,,,,METAR,2.0
KMOT 200554Z AUTO 18011KT 10SM CLR 13/01 A3017 RMK AO2 SLP218 T01280011 10200 20106 402060033 58009,KMOT,2023-05-20T05:54:00Z,48.25,-101.27,12.8,1.1,180,11,,10.0,30.171259,1021.8,,TRUE,TRUE,,,,,,,CLR,,,,,,,,VFR,-0.9,20.0,10.6,20.6,3.3,,,,,,,METAR,507.0
KMNE 200554Z AUTO 19004KT 10SM SCT060 SCT100 BKN120 24/22 A3000 RMK AO2 LTG DSNT N AND NE,KMNE,2023-05-20T05:54:00Z,32.65,-93.3,24.0,22.0,190,4,,10.0,30.0,,,TRUE,TRUE,,,,,,,SCT,6000,SCT,10000,BKN,12000,,,VFR,,,,,,,,,,,,SPECI,84.0
KMKC 200554Z 01009KT 10SM CLR 12/07 A3020 RMK AO2 SLP227 T01220067 10161 20111 402170111 53016,KMKC,2023-05-20T05:54:00Z,39.12,-94.6,12.2,6.7,10,9,,10.0,30.200787,1022.7,,,TRUE,,,,,,,CLR,,,,,,,,VFR,1.6,16.1,11.1,21.7,11.1,,,,,,,METAR,228.0
KMGJ 200554Z AUTO 00000KT 10SM CLR 07/06 A3019 RMK AO2 SLP225 T00720061 10161 20067 58010,KMGJ,2023-05-20T05:54:00Z,41.52,-74.27,7.2,6.1,0,0,,10.0,30.188976,1022.5,,TRUE,TRUE,,,,,,,CLR,,,,,,,,VFR,-1.0,16.1,6.7,,,,,,,,,METAR,106.0
KMFI 200554Z AUTO 35008KT 10SM CLR 08/05 A3016 RMK AO2 SLP220 T00780050 10122 20067 401440067 53001,KMFI,2023-05-20T05:54:00Z,44.63,-90.18,7.8,5.0,350,8,,10.0,30.159449,1022.0,,TRUE,TRUE,,,,,,,CLR,,,,,,,,VFR,0.1,12.2,6.7,14.4,6.7,,,,,,,METAR,383.0
KMEM 200554Z 16009KT 10SM SCT090 SCT120 23/21 A2997 RMK AO2 SLP143 T02280206 10267 20228 402780200 58003,KMEM,2023-05-20T05:54:00Z,35.07,-89.98,22.8,20.6,160,9,,10.0,29.970472,1014.3,,,TRUE,,,,,,,SCT,9000,SCT,12000,,,,,VFR,-0.3,26.7,22.8,27.8,20.0,,,,,,,METAR,78.0
KLYH 200554Z AUTO 00000KT 10SM OVC036 17/14 A3012 RMK AO2 SLP192 T01670144 10194 20167 58016,KLYH,2023-05-20T05:54:00Z,37.32,-79.2,16.7,14.4,0,0,,10.0,30.121063,1019.2,,TRUE,TRUE,,,,,,,OVC,3600,,,,,,,VFR,-1.6,19.4,16.7,,,,,,,,,METAR,282.0
KLWT 200554Z AUTO 11006KT 10SM CLR 10/04 A3013 RMK AO2 SLP183 T01000039 10233 20100 58000,KLWT,2023-05-20T05:54:00Z,47.05,-109.47,10.0,3.9,110,6,,10.0,30.129921,1018.3,,TRUE,TRUE,,,,,,,CLR,,,,,,,,VFR,0.0,23.3,10.0,,,,,,,,,METAR,1254.0
KLWM 200554Z AUTO 21005KT 10SM CLR 12/07 A3024 RMK AO2 SLP240 T01220067 10172 20117 58014,KLWM,2023-05-20T05:54:00Z,42.72,-71.13,12.2,6.7,210,5,,10.0,30.239174,1024.0,,TRUE,TRUE,,,,,,,CLR,,,,,,,,VFR,-1.4,17.2,11.7,,,,,,,,,METAR,42.0
KLNK 200554Z AUTO 35004KT 10SM CLR 06/02 A3028 RMK AO2 SLP256 T00560022 10183 20056 402170056 51006,KLNK,2023-05-20T05:54:00Z,40.85,-96.77,5.6,2.2,350,4,,10.0,30.280512,1025.6,,TRUE,TRUE,,,,,,,CLR,,,,,,,,VFR,0.6,18.3,5.6,21.7,5.6,,,,,,,METAR,357.0
KLEX 200554Z 23007KT 10SM SCT038 BKN049 OVC100 20/16 A3000 RMK AO2 SLP152 T02000161 10228 20189 58006,KLEX,2023-05-20T05:54:00Z,38.03,-84.6,20.0,16.1,230,7,,10.0,30.0,1015.2,,,TRUE,,,,,,,SCT,3800,BKN,4900,OVC,10000,,,VFR,-0.6,22.8,18.9,,,,,,,,,METAR,294.0
KLAF 200554Z AUTO 36006KT 9SM OVC110 14/08 A3005 RMK AO2 SLP172 60000 T01390083 10178 20139 51008,KLAF,2023-05-20T05:54:00Z,40.42,-86.93,13.9,8.3,360,6,,9.0,30.050198,1017.2,,TRUE,TRUE,,,,,,,OVC,11000,,,,,,,VFR,0.8,17.8,13.9,,,,,0.005,,,,METAR,182.0
KJST 200554Z AUTO 15006KT 10SM CLR 13/11 A3008 RMK AO2 SLP178 T01280106 10172 20128 58013,KJST,2023-05-20T05:54:00Z,40.32,-78.83,12.8,10.6,150,6,,10.0,30.079725,1017.8,,TRUE,TRUE,,,,,,,CLR,,,,,,,,VFR,-1.3,17.2,12.8,,,,,,,,,METAR,695.0
KJAN 200554Z AUTO 16006KT 10SM CLR 23/21 A3000 RMK AO2 SLP154 T02280211 10294 20228 403170183 50003,KJAN,2023-05-20T05:54:00Z,32.32,-90.08,22.8,21.1,160,6,,10.0,30.0,1015.4,,TRUE,TRUE,,,,,,,CLR,,,,,,,,VFR,0.3,29.4,22.8,31.7,18.3,,,,,,,METAR,92.0
KIZG 200554Z AUTO 19005KT 10SM CLR 13/07 A3018 RMK AO2 SLP219 T01330072 10189 20133 56003,KIZG,2023-05-20T05:54:00Z,43.98,-70.95,13.3,7.2,190,5,,10.0,30.180119,1021.9,,TRUE,TRUE,,,,,,,CLR,,,,,,,,VFR,-0.3,18.9,13.3,,,,,,,,,METAR,138.0
KISW 200554Z AUTO 35009KT 10SM CLR 08/05 A3016 RMK AO2 SLP217 T00780050 10133 20072 401610072 50000,KISW,2023-05-20T05:54:00Z,44.37,-89.83,7.8,5.0,350,9,,10.0,30.159449,1021.7,,TRUE,TRUE,,,,,,,CLR,,,,,,,,VFR,0.0,13.3,7.2,16.1,7.2,,,,,,,METAR,311.0
KIPT 200554Z AUTO VRB06G20KT 10SM CLR 16/08 A3010 RMK AO2 PK WND 18027/0507 SLP190 T01610083 10211 20161 58007,KIPT,2023-05-20T05:54:00Z,41.25,-76.92,16.1,8.3,0,6,20,10.0,30.100393,1019.0,,TRUE,TRUE,,,,,,,CLR,,,,,,,,VFR,-0.7,21.1,16.1,,,,,,,,,METAR,160.0
KINT 200554Z AUTO 01003KT 10SM OVC028 18/15 A3012 RMK AO2 SLP191 T01780150 10194 20178 58016,KINT,2023-05-20T05:54:00Z,36.13,-80.22,17.8,15.0,10,3,,10.0,30.121063,1019.1,,TRUE,TRUE,,,,,,,OVC,2800,,,,,,,MVFR,-1.6,19.4,17.8,,,,,,,,,METAR,292.0
KINL 200554Z AUTO 27004KT 10SM CLR 09/04 A3017 RMK AO2 SLP224 T00940044 10189 20061 401940050 51001,KINL,2023-05-20T05:54:00Z,48.57,-93.4,9.4,4.4,270,4,,10.0,30.171259,1022.4,,TRUE,TRUE,,,,,,,CLR,,,,,,,,VFR,0.1,18.9,6.1,19.4,5.0,,,,,,,METAR,353.0
KIND 200554Z 35007KT 5SM -RA BR FEW014 BKN070 OVC090 16/14 A3003 RMK AO2 SLP163 P0001 60018 T01560139 10183 20156 53002 $,KIND,2023-05-20T05:54:00Z,39.72,-86.27,15.6,13.9,350,7,,5.0,30.029528,1016.3,,,TRUE,TRUE,,,,,-RA BR,FEW,1400,BKN,7000,OVC,9000,,,MVFR,0.2,18.3,15.6,,,0.01,,0.18,,,,METAR,242.0
KIMT 200554Z AUTO 32011KT 10SM CLR 07/05 A3009 RMK AO2 SLP197 T00670050 10078 20067 401330067 51001 $,KIMT,2023-05-20T05:54:00Z,45.82,-88.12,6.7,5.0,320,11,,10.0,30.088583,1019.7,,TRUE,TRUE,TRUE,,,,,,CLR,,,,,,,,VFR,0.1,7.8,6.7,13.3,6.7,,,,,,,METAR,343.0
KILN 200554Z AUTO 32004KT 10SM FEW042 18/16 A2999 RMK AO2 SLP148 T01830156 10222 20183 58002,KILN,2023-05-20T05:54:00Z,39.43,-83.8,18.3,15.6,320,4,,10.0,29.991142,1014.8,,TRUE,TRUE,,,,,,,FEW,4200,,,,,,,VFR,-0.2,22.2,18.3,,,,,,,,,METAR,325.0
KHWD 200554Z AUTO 26009KT 10SM OVC009 13/11 A3010 RMK AO2 SLP201 T01330111 10167 20128 50010,KHWD,2023-05-20T05:54:00Z,37.67,-122.12,13.3,11.1,260,9,,10.0,30.100393,1020.1,,TRUE,TRUE,,,,,,,OVC,900,,,,,,,IFR,1.0,16.7,12.8,,,,,,,,,METAR,9.0
KHHW 200554Z AUTO 34008KT 10SM OVC011 18/16 A3008 RMK AO2,KHHW,2023-05-20T05:54:00Z,34.03,-95.55,18.0,16.0,340,8,,10.0,30.079725,,,TRUE,TRUE,,,,,,,OVC,1100,,,,,,,MVFR,,,,,,,,,,,,SPECI,178.0
KGSO 200554Z 00000KT 10SM OVC024 18/14 A3010 RMK AO2 SLP186 T01780144 10183 20172 56017,KGSO,2023-05-20T05:54:00Z,36.1,-79.95,17.8,14.4,0,0,,10.0,30.100393,1018.6,,,TRUE,,,,,,,OVC,2400,,,,,,,MVFR,-1.7,18.3,17.2,,,,,,,,,METAR,275.0
KGCN 200554Z AUTO 04006KT 10SM CLR 09/06 A3032 RMK AO2 SLP186 60000 T00890061 10183 20083 51007,KGCN,2023-05-20T05:54:00Z,35.95,-112.15,8.9,6.1,40,6,,10.0,30.318897,1018.6,,TRUE,TRUE,,,,,,,CLR,,,,,,,,VFR,0.7,18.3,8.3,,,,,0.005,,,,METAR,1993.0
KGCK 200554Z AUTO 36005KT 5SM BR CLR 10/09 A3032 RMK AO2 SLP261 T01000089 10172 20100 401780100 53012,KGCK,2023-05-20T05:54:00Z,37.92,-100.72,10.0,8.9,360,5,,5.0,30.318897,1026.1,,TRUE,TRUE,,,,,,BR,CLR,,,,,,,,MVFR,1.2,17.2,10.0,17.8,10.0,,,,,,,METAR,877.0
KFZY 200554Z AUTO 17008KT 10SM BKN065 OVC085 18/09 A3002 RMK AO2 SLP163 60000 T01830094 10194 20183 58008,KFZY,2023-05-20T05:54:00Z,43.35,-76.38,18.3,9.4,170,8,,10.0,30.02067,1016.3,,TRUE,TRUE,,,,,,,BKN,6500,OVC,8500,,,,,VFR,-0.8,19.4,18.3,,,,,0.005,,,,METAR,143.0
KFWA 200554Z 34006KT 6SM -RA OVC035 14/11 A3001 RMK AO2 RAE28B53 SLP159 P0000 60018 T01390111 10178 20139 51010,KFWA,2023-05-20T05:54:00Z,40.98,-85.2,13.9,11.1,340,6,,6.0,30.008858,1015.9,,,TRUE,,,,,,-RA,OVC,3500,,,,,,,VFR,1.0,17.8,13.9,,,0.005,,0.18,,,,METAR,243.0
KFIG 200554Z AUTO VRB03KT 10SM BKN100 15/10 A3007 RMK AO2 SLP178 T01500100 10189 20150 58010,KFIG,2023-05-20T05:54:00Z,41.05,-78.42,15.0,10.0,0,3,,10.0,30.070866,1017.8,,TRUE,TRUE,,,,,,,BKN,10000,,,,,,,VFR,-1.0,18.9,15.0,,,,,,,,,METAR,461.0
KFFZ 200554Z AUTO 02006KT 10SM CLR 25/11 A3003 RMK AO2 SLP147 T02500106 10328 20250 53011,KFFZ,2023-05-20T05:54:00Z,33.47,-111.72,25.0,10.6,20,6,,10.0,30.029528,1014.7,,TRUE,TRUE,,,,,,,CLR,,,,,,,,VFR,1.1,32.8,25.0,,,,,,,,,METAR,420.0
KEWN 200554Z AUTO 02007KT 3SM BR OVC004 18/18 A3003 RMK AO2 SLP168 60000 T01830178 10189 20183 58015,KEWN,2023-05-20T05:54:00Z,35.07,-77.05,18.3,17.8,20,7,,3.0,30.029528,1016.8,,TRUE,TRUE,,,,,,BR,OVC,400,,,,,,,LIFR,-1.5,18.9,18.3,,,,,0.005,,,,METAR,3.0
KEUG 200554Z 24009KT 10SM CLR 18/12 A3009 RMK AO2 SLP188 T01780117 10278 20178 51023,KEUG,2023-05-20T05:54:00Z,44.13,-123.22,17.8,11.7,240,9,,10.0,30.088583,1018.8,,,TRUE,,,,,,,CLR,,,,,,,,VFR,2.3,27.8,17.8,,,,,,,,,METAR,109.0
KEFD 200554Z 23008KT 10SM CLR 25/21 A3002,KEFD,2023-05-20T05:54:00Z,29.6,-95.17,25.0,21.0,230,8,,10.0,30.02067,,,,,,,,,,,CLR,,,,,,,,VFR,,,,,,,,,,,,METAR,9.0
KDYL 200554Z AUTO 00000KT 10SM CLR 11/09 A3017 RMK AO2 SLP214 T01110089 10178 20111 58018,KDYL,2023-05-20T05:54:00Z,40.33,-75.12,11.1,8.9,0,0,,10.0,30.171259,1021.4,,TRUE,TRUE,,,,,,,CLR,,,,,,,,VFR,-1.8,17.8,11.1,,,,,,,,,METAR,121.0
KDSV 200554Z AUTO 16009G16KT 10SM CLR 18/10 A3000 RMK AO2 SLP164 T01830100 10222 20183 56010,KDSV,2023-05-20T05:54:00Z,42.57,-77.72,18.3,10.0,160,9,16,10.0,30.0,1016.4,,TRUE,TRUE,,,,,,,CLR,,,,,,,,VFR,-1.0,22.2,18.3,,,,,,,,,METAR,195.0
KDSM 200554Z 34003KT 10SM CLR 10/04 A3023 RMK AO2 SLP235 T01000044 10150 20100 401890100 51006,KDSM,2023-05-20T05:54:00Z,41.53,-93.67,10.0,4.4,340,3,,10.0,30.230314,1023.5,,,TRUE,,,,,,,CLR,,,,,,,,VFR,0.6,15.0,10.0,18.9,10.0,,,,,,,METAR,286.0
KDMH 200554Z AUTO 17/12 A3014 RMK AO1 SLP206 T01670122 10217 20167 58019,KDMH,2023-05-20T05:54:00Z,39.28,-76.62,16.7,12.2,,,,,30.138779,1020.6,,TRUE,TRUE,,,,,,,,,,,,,,,,-1.9,21.7,16.7,,,,,,,,,METAR,4.0
KDEC 200554Z AUTO 35011G18KT 10SM FEW090 14/08 A3009 RMK AO2 SLP185 T01440078 10194 20144 402720144 51011,KDEC,2023-05-20T05:54:00Z,39.83,-88.87,14.4,7.8,350,11,18,10.0,30.088583,1018.5,,TRUE,TRUE,,,,,,,FEW,9000,,,,,,,VFR,1.1,19.4,14.4,27.2,14.4,,,,,,,METAR,205.0
KDDH 200554Z AUTO VRB04KT 10SM CLR 13/06 A3017 RMK AO2 SLP214 T01280061 10172 20117 56009,KDDH,2023-05-20T05:54:00Z,42.9,-73.25,12.8,6.1,0,4,,10.0,30.171259,1021.4,,TRUE,TRUE,,,,,,,CLR,,,,,,,,VFR,-0.9,17.2,11.7,,,,,,,,,METAR,241.0
KCRW 200554Z COR 18003KT 10SM FEW100 FEW250 18/14 A3001 RMK A02 SLP154 T01780139 10239 20172 58008,KCRW,2023-05-20T05:54:00Z,38.38,-81.58,17.8,13.9,180,3,,10.0,30.008858,1015.4,TRUE,,TRUE,,,,,,,FEW,10000,FEW,25000,,,,,VFR,-0.8,23.9,17.2,,,,,,,,,METAR,278.0
KCOU 200554Z AUTO 34007KT 10SM CLR 12/09 A3016 RMK AO2 SLP208 60000 T01220094 10144 20117 402220117 53007,KCOU,2023-05-20T05:54:00Z,38.82,-92.22,12.2,9.4,340,7,,10.0,30.159449,1020.8,,TRUE,TRUE,,,,,,,CLR,,,,,,,,VFR,0.7,14.4,11.7,22.2,11.7,,,0.005,,,,METAR,272.0
KCEU 200554Z AUTO 00000KT 10SM OVC045 18/17 A3011 RMK AO2 SLP188 T01830167 10217 20178 58009 $,KCEU,2023-05-20T05:54:00Z,34.67,-82.88,18.3,16.7,0,0,,10.0,30.109253,1018.8,,TRUE,TRUE,TRUE,,,,,,OVC,4500,,,,,,,VFR,-0.9,21.7,17.8,,,,,,,,,METAR,270.0
KCAR 200554Z AUTO 18010KT 10SM FEW055 11/06 A3007 RMK AO2 SLP188 T01060061 10167 20106 56003,KCAR,2023-05-20T05:54:00Z,46.87,-68.02,10.6,6.1,180,10,,10.0,30.070866,1018.8,,TRUE,TRUE,,,,,,,FEW,5500,,,,,,,VFR,-0.3,16.7,10.6,,,,,,,,,METAR,189.0
KBWI 200554Z 06004KT 10SM FEW050 15/12 A3013 RMK AO2 SLP202 T01500117 10206 20150 58019,KBWI,2023-05-20T05:54:00Z,39.17,-76.68,15.0,11.7,60,4,,10.0,30.129921,1020.2,,,TRUE,,,,,,,FEW,5000,,,,,,,VFR,-1.9,20.6,15.0,,,,,,,,,METAR,42.0
KBUY 200554Z AUTO 33003KT 10SM OVC035 17/15 A3009 RMK AO2 SLP187 T01670150 10183 20167 58012,KBUY,2023-05-20T05:54:00Z,36.05,-79.47,16.7,15.0,330,3,,10.0,30.088583,1018.7,,TRUE,TRUE,,,,,,,OVC,3500,,,,,,,VFR,-1.2,18.3,16.7,,,,,,,,,METAR,185.0
KBUF 200554Z 16012KT 10SM BKN190 BKN230 18/11 A2993 RMK AO2 SLP132 T01830106 10194 20178 57017,KBUF,2023-05-20T05:54:00Z,42.93,-78.73,18.3,10.6,160,12,,10.0,29.929134,1013.2,,,TRUE,,,,,,,BKN,19000,BKN,23000,,,,,VFR,-1.7,19.4,17.8,,,,,,,,,METAR,217.0
KBTV 200554Z AUTO 18011G23KT 10SM BKN060 OVC095 17/09 A3009 RMK AO2 PK WND 19026/0501 RAB02E50 SLP189 P0000 60000 T01670089 10206 20167 53001,KBTV,2023-05-20T05:54:00Z,44.47,-73.15,16.7,8.9,180,11,23,10.0,30.088583,1018.9,,TRUE,TRUE,,,,,,,BKN,6000,OVC,9500,,,,,VFR,0.1,20.6,16.7,,,0.005,,0.005,,,,METAR,101.0
KBOS 200554Z 20009KT 10SM BKN055 13/09 A3024 RMK AO2 SLP240 T01280094 10156 20128 58012,KBOS,2023-05-20T05:54:00Z,42.37,-71.02,12.8,9.4,200,9,,10.0,30.239174,1024.0,,,TRUE,,,,,,,BKN,5500,,,,,,,VFR,-1.2,15.6,12.8,,,,,,,,,METAR,4.0
KBFL 200554Z 35005KT 10SM CLR 24/08 A2996 RMK AO2 SLP140 T02390083 10350 20239 51017,KBFL,2023-05-20T05:54:00Z,35.43,-119.05,23.9,8.3,350,5,,10.0,29.958662,1014.0,,,TRUE,,,,,,,CLR,,,,,,,,VFR,1.7,35.0,23.9,,,,,,,,,METAR,146.0
KAVP 200554Z 26006KT 10SM FEW100 14/08 A3014 RMK AO2 SLP201 T01440083 10189 20144 58006,KAVP,2023-05-20T05:54:00Z,41.33,-75.72,14.4,8.3,260,6,,10.0,30.138779,1020.1,,,TRUE,,,,,,,FEW,10000,,,,,,,VFR,-0.6,18.9,14.4,,,,,,,,,METAR,290.0
KAUW 200554Z AUTO 31007KT 10SM FEW034 08/04 A3014 RMK AO2 SLP216 T00830039 10122 20083 401500083 51004,KAUW,2023-05-20T05:54:00Z,44.93,-89.62,8.3,3.9,310,7,,10.0,30.138779,1021.6,,TRUE,TRUE,,,,,,,FEW,3400,,,,,,,VFR,0.4,12.2,8.3,15.0,8.3,,,,,,,METAR,367.0
KAPN 200554Z AUTO 28003KT 10SM OVC014 10/08 A2996 RMK AO2 SLP148 T01000078 10117 20100 58001,KAPN,2023-05-20T05:54:00Z,45.07,-83.57,10.0,7.8,280,3,,10.0,29.958662,1014.8,,TRUE,TRUE,,,,,,,OVC,1400,,,,,,,MVFR,-0.1,11.7,10.0,,,,,,,,,METAR,208.0
KAPC 200554Z 23010KT 10SM CLR 12/10 A3005 RMK AO2 SLP166 T01220100 10222 20122 51015,KAPC,2023-05-20T05:54:00Z,38.2,-122.28,12.2,10.0,230,10,,10.0,30.050198,1016.6,,,TRUE,,,,,,,CLR,,,,,,,,VFR,1.5,22.2,12.2,,,,,,,,,METAR,5.0
KALO 200554Z AUTO 32007KT 10SM CLR 08/04 A3020 RMK AO2 SLP227 T00830039 10150 20083 401780083 51006,KALO,2023-05-20T05:54:00Z,42.55,-92.4,8.3,3.9,320,7,,10.0,30.200787,1022.7,,TRUE,TRUE,,,,,,,CLR,,,,,,,,VFR,0.6,15.0,8.3,17.8,8.3,,,,,,,METAR,264.0
KAKR 200554Z AUTO 30009KT 10SM BKN028 BKN044 OVC090 19/14 A2996 RMK AO2 SLP136 T01940139 10239 20194 55003,KAKR,2023-05-20T05:54:00Z,41.03,-81.47,19.4,13.9,300,9,,10.0,29.958662,1013.6,,TRUE,TRUE,,,,,,,BKN,2800,BKN,4400,OVC,9000,,,MVFR,-0.3,23.9,19.4,,,,,,,,,METAR,319.0
KAKQ 200554Z AUTO VRB03KT 10SM OVC007 17/16 A3007 RMK AO2 SLP181 T01720156 10189 20167 58010,KAKQ,2023-05-20T05:54:00Z,36.98,-77.0,17.2,15.6,0,3,,10.0,30.070866,1018.1,,TRUE,TRUE,,,,,,,OVC,700,,,,,,,IFR,-1.0,18.9,16.7,,,,,,,,,METAR,34.0
KACY 200554Z 05005KT 6SM BR BKN004 OVC014 14/14 A3017 RMK AO2 RAB06E19B37E54 SLP215 P0000 60003 T01440139 10150 20139 56018,KACY,2023-05-20T05:54:00Z,39.45,-74.57,14.4,13.9,50,5,,6.0,30.171259,1021.5,,,TRUE,,,,,,BR,BKN,400,OVC,1400,,,,,LIFR,-1.8,15.0,13.9,,,0.005,,0.03,,,,METAR,18.0
KAAO 200554Z AUTO 29004KT 9SM CLR 11/09 A3023 RMK AO2 SLP236 T01110089 10156 20100 401940100 51011,KAAO,2023-05-20T05:54:00Z,37.75,-97.22,11.1,8.9,290,4,,9.0,30.230314,1023.6,,TRUE,TRUE,,,,,,,CLR,,,,,,,,VFR,1.1,15.6,10.0,19.4,10.0,,,,,,,METAR,429.0
K1V4 200554Z AUTO 15/08 A3013 RMK AO1 SLP196 T01500078 10194 20150 53001,K1V4,2023-05-20T05:54:00Z,44.42,-72.02,15.0,7.8,,,,,30.129921,1019.6,,TRUE,TRUE,,,,,,,,,,,,,,,,0.1,19.4,15.0,,,,,,,,,METAR,213.0
K12N 200554Z AUTO 00000KT 12/09 A3019 RMK AO1 SLP222 T01170089 10189 20111 58012,K12N,2023-05-20T05:54:00Z,41.02,-74.73,11.7,8.9,0,0,,,30.188976,1022.2,,TRUE,TRUE,,,,,,,,,,,,,,,,-1.2,18.9,11.1,,,,,,,,,METAR,178.0
TJNR 200553Z AUTO 00000KT 10SM SCT075 24/23 A2997 RMK AO2 RAB17E30 SLP147 P0002 60009 T02390228 10267 20239 58017,TJNR,2023-05-20T05:53:00Z,18.25,-65.63,23.9,22.8,0,0,,10.0,29.970472,1014.7,,TRUE,TRUE,,,,,,,SCT,7500,,,,,,,VFR,-1.7,26.7,23.9,,,0.02,,,,,,SPECI,7.0
TISX 200553Z AUTO 10011KT 10SM FEW022 27/23 A2995 RMK AO2 SLP141 60000 T02670228 10272 20250 58019,TISX,2023-05-20T05:53:00Z,17.7,-64.8,26.7,22.8,100,11,,10.0,29.949802,1014.1,,TRUE,TRUE,,,,,,,FEW,2200,,,,,,,VFR,-1.9,27.2,25.0,,,,,,,,,SPECI,16.0
PHTO 200553Z 18003KT 10SM FEW021 SCT040 23/22 A3007 RMK AO2 SLP182 P0001 60005 T02280222 10256 20228 51019,PHTO,2023-05-20T05:53:00Z,19.72,-155.05,22.8,22.2,180,3,,10.0,30.070866,1018.2,,,TRUE,,,,,,,FEW,2100,SCT,4000,,,,,VFR,1.9,25.6,22.8,,,0.01,,0.05,,,,METAR,9.0
PHNL 200553Z 14005KT 10SM FEW028 FEW090 SCT150 26/21 A3004 RMK AO2 SLP172 T02560206 10289 20250 53015,PHNL,2023-05-20T05:53:00Z,21.33,-157.93,25.6,20.6,140,5,,10.0,30.041338,1017.2,,,TRUE,,,,,,,FEW,2800,FEW,9000,SCT,15000,,,VFR,1.5,28.9,25.0,,,,,,,,,METAR,2.0
PHLI 200553Z 22003KT 10SM CLR 24/21 A3004 RMK AO2 SLP170 60000 T02390206 10261 20233 53012,PHLI,2023-05-20T05:53:00Z,21.97,-159.33,23.9,20.6,220,3,,10.0,30.041338,1017.0,,,TRUE,,,,,,,CLR,,,,,,,,VFR,1.2,26.1,23.3,,,,,0.005,,,,METAR,32.0
PHKO 200553Z 30003KT 10SM BKN090 26/22 A3002 RMK AO2 SLP164 T02610217 10294 20261 50013,PHKO,2023-05-20T05:53:00Z,19.73,-156.05,26.1,21.7,300,3,,10.0,30.02067,1016.4,,,TRUE,,,,,,,BKN,9000,,,,,,,VFR,1.3,29.4,26.1,,,,,,,,,METAR,11.0
PHJR 200553Z 09003KT 10SM CLR 24/20 A3005 RMK AO2 SLP183 T02440200 10272 20239 53015,PHJR,2023-05-20T05:53:00Z,21.32,-158.07,24.4,20.0,90,3,,10.0,30.050198,1018.3,,,TRUE,,,,,,,CLR,,,,,,,,VFR,1.5,27.2,23.9,,,,,,,,,SPECI,9.0
PAYA 200553Z AUTO 11006KT 5SM -RA BR BKN006 OVC019 09/09 A3021 RMK AO2 SLP231 P0002 60011 T00940089 10106 20094 53006 TSNO,PAYA,2023-05-20T05:53:00Z,59.52,-139.67,9.4,8.9,110,6,,5.0,30.209646,1023.1,,TRUE,TRUE,,,TRUE,,,-RA BR,BKN,600,OVC,1900,,,,,IFR,0.6,10.6,9.4,,,0.02,,0.11,,,,METAR,9.0
PAWI 200553Z AUTO 23013KT 10SM CLR 01/M02 A2983 RMK AO2 SLP103 T00061017 10039 20006 TSNO $,PAWI,2023-05-20T05:53:00Z,70.63,-160.02,0.6,-1.7,230,13,,10.0,29.828741,1010.3,,TRUE,TRUE,TRUE,,TRUE,,,,CLR,,,,,,,,VFR,,3.9,0.6,,,,,,,,,METAR,12.0
PAWD 200553Z AUTO 14006KT 9SM -RA BKN023 OVC050 08/07 A3002 RMK AO2 SLP165 P0003 60004 T00830067 10117 20078 53010 TSNO,PAWD,2023-05-20T05:53:00Z,60.12,-149.42,8.3,6.7,140,6,,9.0,30.02067,1016.5,,TRUE,TRUE,,,TRUE,,,-RA,BKN,2300,OVC,5000,,,,,MVFR,1.0,11.7,7.8,,,0.03,,0.04,,,,METAR,3.0
PAVL 200553Z AUTO 25005KT 10SM CLR M01/M02 A2999 RMK AO2 SLP155 T10061017 10033 21006 55003 TSNO,PAVL,2023-05-20T05:53:00Z,67.73,-164.55,-0.6,-1.7,250,5,,10.0,29.991142,1015.5,,TRUE,TRUE,,,TRUE,,,,CLR,,,,,,,,VFR,-0.3,3.3,-0.6,,,,,,,,,METAR,6.0
PATK 200553Z AUTO 22004KT 10SM FEW120 16/03 A2998 RMK AO2 SLP153 60000 T01560033 10228 20156 53011 TSNO,PATK,2023-05-20T05:53:00Z,62.32,-150.1,15.6,3.3,220,4,,10.0,29.97933,1015.3,,TRUE,TRUE,,,TRUE,,,,FEW,12000,,,,,,,VFR,1.1,22.8,15.6,,,,,0.005,,,,METAR,107.0
PASO 200553Z AUTO 16004KT 10SM FEW044 BKN060 OVC100 09/06 A2995 RMK AO2 SLP141 60001 T00890061 10128 20089 51013 TSNO,PASO,2023-05-20T05:53:00Z,59.45,-151.7,8.9,6.1,160,4,,10.0,29.949802,1014.1,,TRUE,TRUE,,,TRUE,,,,FEW,4400,BKN,6000,OVC,10000,,,VFR,1.3,12.8,8.9,,,,,0.01,,,,METAR,20.0
PASN 200553Z AUTO 35019KT 10SM OVC065 02/M01 A2980 RMK AO2 PK WND 36028/0534 SLP093 T00171011 10022 20006 56005 TSNO $,PASN,2023-05-20T05:53:00Z,57.15,-170.22,1.7,-1.1,350,19,,10.0,29.799213,1009.3,,TRUE,TRUE,TRUE,,TRUE,,,,OVC,6500,,,,,,,VFR,-0.5,2.2,0.6,,,,,,,,,METAR,8.0
PASC 200553Z 18004KT 10SM CLR 00/M02 A2989 RMK AO2 SLP123 T00001017 10022 20000 58014,PASC,2023-05-20T05:53:00Z,70.2,-148.47,0.0,-1.7,180,4,,10.0,29.890747,1012.3,,,TRUE,,,,,,,CLR,,,,,,,,VFR,-1.4,2.2,0.0,,,,,,,,,METAR,17.0
PAQT 200553Z AUTO 25005KT 10SM CLR 01/M01 A2992 RMK AO2 SLP131 T00111011 10050 20011 56013,PAQT,2023-05-20T05:53:00Z,70.22,-151.0,1.1,-1.1,250,5,,10.0,29.920275,1013.1,,TRUE,TRUE,,,,,,,CLR,,,,,,,,VFR,-1.3,5.0,1.1,,,,,,,,,METAR,11.0
PAOT 200553Z 31008KT 10SM CLR 01/M01 A2996 RMK AO2 SLP147 T00061011 10017 20006 56003,PAOT,2023-05-20T05:53:00Z,66.88,-162.6,0.6,-1.1,310,8,,10.0,29.958662,1014.7,,,TRUE,,,,,,,CLR,,,,,,,,VFR,-0.3,1.7,0.6,,,,,,,,,METAR,3.0
PAOR 200553Z 25008KT 10SM SCT140 17/04 A2986 RMK AO2 SLP110 T01720039 10244 20172 53020,PAOR,2023-05-20T05:53:00Z,62.97,-141.93,17.2,3.9,250,8,,10.0,29.861221,1011.0,,,TRUE,,,,,,,SCT,14000,,,,,,,VFR,2.0,24.4,17.2,,,,,,,,,METAR,524.0
PAOM 200553Z 34007KT 10SM CLR 07/M01 A2992 RMK AO2 SLP131 T00671006 10106 20061 56003,PAOM,2023-05-20T05:53:00Z,64.5,-165.43,6.7,-0.6,340,7,,10.0,29.920275,1013.1,,,TRUE,,,,,,,CLR,,,,,,,,VFR,-0.3,10.6,6.1,,,,,,,,,METAR,6.0
PANN 200553Z AUTO 20006G18KT 10SM CLR 21/M01 A2973 RMK AO2 SLP072 T02111006 10250 20211 53010 TSNO $,PANN,2023-05-20T05:53:00Z,64.55,-149.08,21.1,-0.6,200,6,18,10.0,29.731298,1007.2,,TRUE,TRUE,TRUE,,TRUE,,,,CLR,,,,,,,,VFR,1.0,25.0,21.1,,,,,,,,,METAR,110.0
PANC 200553Z 17015G20KT 10SM FEW100 BKN120 BKN140 BKN200 12/04 A2995 RMK AO2 PK WND 16029/0515 SLP143 T01170039 10139 20111 53002,PANC,2023-05-20T05:53:00Z,61.17,-150.02,11.7,3.9,170,15,20,10.0,29.949802,1014.3,,,TRUE,,,,,,,FEW,10000,BKN,12000,BKN,14000,BKN,20000,VFR,0.2,13.9,11.1,,,,,,,,,METAR,39.0
PAMR 200553Z 28006KT 10SM SCT110 14/03 A2995 RMK AO2 SLP143 T01390028 10167 20133 51005,PAMR,2023-05-20T05:53:00Z,61.22,-149.85,13.9,2.8,280,6,,10.0,29.949802,1014.3,,,TRUE,,,,,,,SCT,11000,,,,,,,VFR,0.5,16.7,13.3,,,,,,,,,METAR,43.0
PAMC 200553Z AUTO 22005KT 10SM CLR 18/03 A2980 RMK AO2 SLP094 T01780033 10228 20178 53026 TSNO,PAMC,2023-05-20T05:53:00Z,62.97,-155.62,17.8,3.3,220,5,,10.0,29.799213,1009.4,,TRUE,TRUE,,,TRUE,,,,CLR,,,,,,,,VFR,2.6,22.8,17.8,,,,,,,,,METAR,101.0
PALH 200553Z 19006G15KT 10SM CLR 12/04 A2996 RMK AO2 PK WND 19026/0454 SLP147 T01220039 10150 20106 53002,PALH,2023-05-20T05:53:00Z,61.18,-149.97,12.2,3.9,190,6,15,10.0,29.958662,1014.7,,,TRUE,,,,,,,CLR,,,,,,,,VFR,0.2,15.0,10.6,,,,,,,,,METAR,26.0
PAKV 200553Z AUTO 05003KT 4SM HZ CLR 16/M02 A2986 RMK AO2 SLP112 T01561022 10178 20156 TSNO $,PAKV,2023-05-20T05:53:00Z,64.33,-158.72,15.6,-2.2,50,3,,4.0,29.861221,1011.2,,TRUE,TRUE,TRUE,,TRUE,,,HZ,CLR,,,,,,,,MVFR,,17.8,15.6,,,,,,,,,METAR,53.0
PAKT 200553Z AUTO 17003KT 10SM OVC050 13/10 A3021 RMK AO2 SLP231 T01280100 10167 20128 58001 TSNO,PAKT,2023-05-20T05:53:00Z,55.35,-131.72,12.8,10.0,170,3,,10.0,30.209646,1023.1,,TRUE,TRUE,,,TRUE,,,,OVC,5000,,,,,,,VFR,-0.1,16.7,12.8,,,,,,,,,METAR,27.0
PAJN 200553Z 13006KT 10SM -RA FEW014 BKN048 OVC070 12/12 A3020 RMK AO2 RAB12 SLP227 VIS LWR E P0002 60003 T01170117 10150 20117 53002,PAJN,2023-05-20T05:53:00Z,58.35,-134.55,11.7,11.7,130,6,,10.0,30.200787,1022.7,,,TRUE,,,,,,-RA,FEW,1400,BKN,4800,OVC,7000,,,VFR,0.2,15.0,11.7,,,0.02,,0.03,,,,METAR,6.0
PAIL 200553Z AUTO 13010KT 10SM FEW020 OVC038 07/04 A2991 RMK AO2 SLP131 T00720044 10111 20067 53022 TSNO,PAIL,2023-05-20T05:53:00Z,59.75,-154.92,7.2,4.4,130,10,,10.0,29.911417,1013.1,,TRUE,TRUE,,,TRUE,,,,FEW,2000,OVC,3800,,,,,VFR,2.2,11.1,6.7,,,,,,,,,METAR,44.0
PAHO 200553Z AUTO 13006KT 10SM FEW050 SCT070 OVC095 09/03 A2996 RMK AO2 SLP144 T00940033 10133 20094 52013 TSNO,PAHO,2023-05-20T05:53:00Z,59.63,-151.48,9.4,3.3,130,6,,10.0,29.958662,1014.4,,TRUE,TRUE,,,TRUE,,,,FEW,5000,SCT,7000,OVC,9500,,,VFR,1.3,13.3,9.4,,,,,,,,,METAR,6.0
PAGY 200553Z AUTO 00000KT 10SM BKN026 OVC045 10/09 A3017 RMK AO2 SLP216 60000 T01000089 10144 20100 51004 TSNO,PAGY,2023-05-20T05:53:00Z,59.47,-135.32,10.0,8.9,0,0,,10.0,30.171259,1021.6,,TRUE,TRUE,,,TRUE,,,,BKN,2600,OVC,4500,,,,,MVFR,0.4,14.4,10.0,,,,,0.005,,,,METAR,7.0
PAGK 200553Z AUTO 18007KT 10SM CLR 14/03 A3000 RMK AO2 SLP162 T01390033 10189 20133 53007 TSNO,PAGK,2023-05-20T05:53:00Z,62.15,-145.45,13.9,3.3,180,7,,10.0,30.0,1016.2,,TRUE,TRUE,,,TRUE,,,,CLR,,,,,,,,VFR,0.7,18.9,13.3,,,,,,,,,METAR,481.0
PAFA 200553Z 22010KT 10SM BKN200 23/01 A2974 RMK AO2 SLP072 T02280011 10267 20228 53010,PAFA,2023-05-20T05:53:00Z,64.8,-147.87,22.8,1.1,220,10,,10.0,29.740158,1007.2,,,TRUE,,,,,,,BKN,20000,,,,,,,VFR,1.0,26.7,22.8,,,,,,,,,METAR,130.0
PAEN 200553Z 10010KT 10SM CLR 13/04 A2995 RMK AO2 SLP143 T01330039 10150 20133 53007,PAEN,2023-05-20T05:53:00Z,60.57,-151.25,13.3,3.9,100,10,,10.0,29.949802,1014.3,,,TRUE,,,,,,,CLR,,,,,,,,VFR,0.7,15.0,13.3,,,,,,,,,METAR,30.0
PAEG 200553Z AUTO 00000KT 10SM CLR 18/03 A2975 RMK AO2 SLP075 T01830033 10250 20183 55001 TSNO,PAEG,2023-05-20T05:53:00Z,64.78,-141.15,18.3,3.3,0,0,,10.0,29.749016,1007.5,,TRUE,TRUE,,,TRUE,,,,CLR,,,,,,,,VFR,-0.1,25.0,18.3,,,,,,,,,METAR,273.0
PADE 200553Z AUTO 25004KT 10SM CLR 04/M01 A2997 RMK AO2 SLP148 T00391006 10067 20033 55001 TSNO $,PADE,2023-05-20T05:53:00Z,66.07,-162.77,3.9,-0.6,250,4,,10.0,29.970472,1014.8,,TRUE,TRUE,TRUE,,TRUE,,,,CLR,,,,,,,,VFR,-0.1,6.7,3.3,,,,,,,,,METAR,5.0
PACV 200553Z 11005KT 10SM FEW010 OVC027 11/08 A3012 RMK AO2 SLP201 60000 T01060078 10117 20100 53009,PACV,2023-05-20T05:53:00Z,60.5,-145.47,10.6,7.8,110,5,,10.0,30.121063,1020.1,,,TRUE,,,,,,,FEW,1000,OVC,2700,,,,,MVFR,0.9,11.7,10.0,,,,,0.005,,,,METAR,15.0
PABI 200553Z 19021G33KT 10SM CLR 18/02 A2981 RMK AO2 PK WND 19038/0527 SLP094 T01780022 10239 20178 53015,PABI,2023-05-20T05:53:00Z,64.0,-145.72,17.8,2.2,190,21,33,10.0,29.811024,1009.4,,,TRUE,,,,,,,CLR,,,,,,,,VFR,1.5,23.9,17.8,,,,,,,,,METAR,388.0
PABE 200553Z AUTO 10007KT 10SM -RA BKN070 OVC085 10/07 A2980 RMK AO2 RAB0457 SLP091 P0001 60001 T01000072 10150 20100 51022 TSNO,PABE,2023-05-20T05:53:00Z,60.78,-161.83,10.0,7.2,100,7,,10.0,29.799213,1009.1,,TRUE,TRUE,,,TRUE,,,-RA,BKN,7000,OVC,8500,,,,,VFR,2.2,15.0,10.0,,,0.01,,0.01,,,,METAR,28.0
PAAQ 200553Z AUTO 13016G24KT 10SM CLR 14/04 A2997 RMK AO2 PK WND 14027/0515 SLP150 T01390039 10172 20139 53011 TSNO,PAAQ,2023-05-20T05:53:00Z,61.6,-149.08,13.9,3.9,130,16,24,10.0,29.970472,1015.0,,TRUE,TRUE,,,TRUE,,,,CLR,,,,,,,,VFR,1.1,17.2,13.9,,,,,,,,,METAR,68.0
KZZV 200553Z AUTO 00000KT 10SM BKN040 BKN050 19/15 A2996 RMK AO2 SLP140 T01890150 10228 20183 58010,KZZV,2023-05-20T05:53:00Z,39.95,-81.9,18.9,15.0,0,0,,10.0,29.958662,1014.0,,TRUE,TRUE,,,,,,,BKN,4000,BKN,5000,,,,,VFR,-1.0,22.8,18.3,,,,,,,,,METAR,268.0
KYKM 200553Z AUTO 26008KT 10SM CLR 22/12 A3001 RMK AO2 SLP155 60000 T02220122 10350 20222 53014,KYKM,2023-05-20T05:53:00Z,46.57,-120.53,22.2,12.2,260,8,,10.0,30.008858,1015.5,,TRUE,TRUE,,,,,,,CLR,,,,,,,,VFR,1.4,35.0,22.2,,,,,0.005,,,,METAR,319.0
KYIP 200553Z 32008KT 7SM OVC055 14/11 A2997 RMK AO2 SLP143 60053 T01390106 10172 20139 53001,KYIP,2023-05-20T05:53:00Z,42.23,-83.53,13.9,10.6,320,8,,7.0,29.970472,1014.3,,,TRUE,,,,,,,OVC,5500,,,,,,,VFR,0.1,17.2,13.9,,,,,0.53,,,,METAR,215.0
KWST 200553Z AUTO 11003KT 10SM SCT044 OVC055 13/12 A3023 RMK AO2 SLP236 T01330117 10139 20122 58020,KWST,2023-05-20T05:53:00Z,41.35,-71.8,13.3,11.7,110,3,,10.0,30.230314,1023.6,,TRUE,TRUE,,,,,,,SCT,4400,OVC,5500,,,,,VFR,-2.0,13.9,12.2,,,,,,,,,METAR,20.0
KWRL 200553Z AUTO 16011KT 10SM CLR 13/03 A3019 RMK AO2 SLP199 T01330028 10239 20094 51008,KWRL,2023-05-20T05:53:00Z,43.97,-107.95,13.3,2.8,160,11,,10.0,30.188976,1019.9,,TRUE,TRUE,,,,,,,CLR,,,,,,,,VFR,0.8,23.9,9.4,,,,,,,,,METAR,1281.0
KVUO 200553Z AUTO 31004KT 10SM CLR 21/13 A3009 RMK AO2 SLP188 T02060133 10278 20206 53027,KVUO,2023-05-20T05:53:00Z,45.62,-122.65,20.6,13.3,310,4,,10.0,30.088583,1018.8,,TRUE,TRUE,,,,,,,CLR,,,,,,,,VFR,2.7,27.8,20.6,,,,,,,,,METAR,7.0
KVRB 200553Z AUTO 00000KT 10SM SCT070 24/21 A2999 RMK AO2 PRESFR SLP155 T02390211 10278 20239 58014,KVRB,2023-05-20T05:53:00Z,27.65,-80.42,23.9,21.1,0,0,,10.0,29.991142,1015.5,,TRUE,TRUE,,,,,,,SCT,7000,,,,,,,VFR,-1.4,27.8,23.9,,,,,,,,,METAR,7.0
KVLD 200553Z AUTO 00000KT 8SM CLR 19/18 A3005 RMK AO1 SLP181 T01890178 10244 20189 58007,KVLD,2023-05-20T05:53:00Z,30.78,-83.27,18.9,17.8,0,0,,8.0,30.050198,1018.1,,TRUE,TRUE,,,,,,,CLR,,,,,,,,VFR,-0.7,24.4,18.9,,,,,,,,,METAR,59.0
KVGT 200553Z AUTO 20010G15KT 10SM CLR 29/08 A2998 RMK AO2 SLP143 T02890078 10361 20289 51021,KVGT,2023-05-20T05:53:00Z,36.22,-115.2,28.9,7.8,200,10,15,10.0,29.97933,1014.3,,TRUE,TRUE,,,,,,,CLR,,,,,,,,VFR,2.1,36.1,28.9,,,,,,,,,METAR,664.0
KVEL 200553Z AUTO 27003KT 10SM CLR 11/01 A3024 RMK AO2 SLP195 T01060006 10228 20106 51011,KVEL,2023-05-20T05:53:00Z,40.45,-109.52,10.6,0.6,270,3,,10.0,30.239174,1019.5,,TRUE,TRUE,,,,,,,CLR,,,,,,,,VFR,1.1,22.8,10.6,,,,,,,,,METAR,1604.0
KVCB 200553Z AUTO VRB03KT 10SM CLR 18/11 A2997 RMK AO2 SLP146 T01830106 10300 20183 51011,KVCB,2023-05-20T05:53:00Z,38.38,-121.95,18.3,10.6,0,3,,10.0,29.970472,1014.6,,TRUE,TRUE,,,,,,,CLR,,,,,,,,VFR,1.1,30.0,18.3,,,,,,,,,METAR,30.0
KUUU 200553Z AUTO 14005KT 10SM FEW034 OVC055 13/12 A3024 RMK AO2 SLP239 T01330117 10133 20117 56019,KUUU,2023-05-20T05:53:00Z,41.53,-71.28,13.3,11.7,140,5,,10.0,30.239174,1023.9,,TRUE,TRUE,,,,,,,FEW,3400,OVC,5500,,,,,VFR,-1.9,13.3,11.7,,,,,,,,,METAR,45.0
KUTS 200553Z AUTO 21006KT 10SM CLR 27/20 A3004 RMK AO2 SLP166 T02670200 10317 20267 403390228 53013,KUTS,2023-05-20T05:53:00Z,30.75,-95.58,26.7,20.0,210,6,,10.0,30.041338,1016.6,,TRUE,TRUE,,,,,,,CLR,,,,,,,,VFR,1.3,31.7,26.7,33.9,22.8,,,,,,,METAR,103.0
KUIL 200553Z AUTO 01006KT 10SM OVC006 12/10 A3015 RMK AO2 SLP211 T01220100 10189 20122 51011 $,KUIL,2023-05-20T05:53:00Z,47.93,-124.55,12.2,10.0,10,6,,10.0,30.15059,1021.1,,TRUE,TRUE,TRUE,,,,,,OVC,600,,,,,,,IFR,1.1,18.9,12.2,,,,,,,,,METAR,58.0
KUAO 200553Z AUTO 30003KT 10SM CLR 20/14 A3008 RMK AO2 SLP185 T02000139 10294 20200 51027,KUAO,2023-05-20T05:53:00Z,45.25,-122.77,20.0,13.9,300,3,,10.0,30.079725,1018.5,,TRUE,TRUE,,,,,,,CLR,,,,,,,,VFR,2.7,29.4,20.0,,,,,,,,,METAR,60.0
KTYS 200553Z 24007KT 10SM FEW045 BKN150 20/16 A3004 RMK AO2 SLP164 T02000161 10250 20200 58007,KTYS,2023-05-20T05:53:00Z,35.82,-83.98,20.0,16.1,240,7,,10.0,30.041338,1016.4,,,TRUE,,,,,,,FEW,4500,BKN,15000,,,,,VFR,-0.7,25.0,20.0,,,,,,,,,METAR,300.0
KTYR 200553Z AUTO 28004KT 10SM SCT055 24/20 A3004 RMK AO2 SLP163 T02440200 10294 20244 403280194 51017,KTYR,2023-05-20T05:53:00Z,32.37,-95.4,24.4,20.0,280,4,,10.0,30.041338,1016.3,,TRUE,TRUE,,,,,,,SCT,5500,,,,,,,VFR,1.7,29.4,24.4,32.8,19.4,,,,,,,METAR,161.0
KTXK 200553Z AUTO 34006KT 10SM FEW110 24/21 A3001 RMK AO2 RAB20E29 SLP155 P0000 60001 T02390206 10306 20239 403390200 51019,KTXK,2023-05-20T05:53:00Z,33.45,-93.98,23.9,20.6,340,6,,10.0,30.008858,1015.5,,TRUE,TRUE,,,,,,,FEW,11000,,,,,,,VFR,1.9,30.6,23.9,33.9,20.0,0.005,,0.01,,,,METAR,118.0
KTWF 200553Z AUTO 19008KT 10SM FU CLR 16/01 A3016 RMK AO2 SLP165 T01610011 10272 20139 51010,KTWF,2023-05-20T05:53:00Z,42.48,-114.48,16.1,1.1,190,8,,10.0,30.159449,1016.5,,TRUE,TRUE,,,,,,FU,CLR,,,,,,,,VFR,1.0,27.2,13.9,,,,,,,,,METAR,1269.0
KTVR 200553Z AUTO 00000KT 10SM CLR 22/21 A3001 RMK AO2 SLP167 T02170206 10289 20217 403280189 53011,KTVR,2023-05-20T05:53:00Z,32.35,-91.03,21.7,20.6,0,0,,10.0,30.008858,1016.7,,TRUE,TRUE,,,,,,,CLR,,,,,,,,VFR,1.1,28.9,21.7,32.8,18.9,,,,,,,METAR,25.0
KTVL 200553Z AUTO 17005KT 10SM CLR 12/04 A3027 RMK AO2 SLP201 T01170044 10244 20117 51012,KTVL,2023-05-20T05:53:00Z,38.9,-120.0,11.7,4.4,170,5,,10.0,30.268702,1020.1,,TRUE,TRUE,,,,,,,CLR,,,,,,,,VFR,1.2,24.4,11.7,,,,,,,,,METAR,1907.0
KTVC 200553Z AUTO 29008KT 10SM OVC011 09/07 A3000 RMK AO2 SLP159 T00940067 10117 20094 58004,KTVC,2023-05-20T05:53:00Z,44.73,-85.58,9.4,6.7,290,8,,10.0,30.0,1015.9,,TRUE,TRUE,,,,,,,OVC,1100,,,,,,,MVFR,-0.4,11.7,9.4,,,,,,,,,METAR,188.0
KTUS 200553Z 29010KT 10SM FEW110 24/09 A3010 RMK AO2 SLP148 60001 T02440094 10328 20233 51020,KTUS,2023-05-20T05:53:00Z,32.13,-110.95,24.4,9.4,290,10,,10.0,30.100393,1014.8,,,TRUE,,,,,,,FEW,11000,,,,,,,VFR,2.0,32.8,23.3,,,,,0.01,,,,METAR,776.0
KTUP 200553Z AUTO 15006KT 10SM BKN008 22/19 A3002 RMK AO2 SLP163 T02170189 10244 20217 402720206 56003 $,KTUP,2023-05-20T05:53:00Z,34.27,-88.77,21.7,18.9,150,6,,10.0,30.02067,1016.3,,TRUE,TRUE,TRUE,,,,,,BKN,800,,,,,,,IFR,-0.3,24.4,21.7,27.2,20.6,,,,,,,METAR,107.0
KTUL 200553Z 34010KT 9SM SCT180 12/12 A3019 RMK AO2 SLP218 60000 T01220117 10156 20122 402060122 50010,KTUL,2023-05-20T05:53:00Z,36.2,-95.88,12.2,11.7,340,10,,9.0,30.188976,1021.8,,,TRUE,,,,,,,SCT,18000,,,,,,,VFR,1.0,15.6,12.2,20.6,12.2,,,0.005,,,,METAR,196.0
KTTN 200553Z AUTO 00000KT 10SM OVC045 13/11 A3017 RMK AO2 SLP211 T01280106 10172 20117 56021,KTTN,2023-05-20T05:53:00Z,40.28,-74.82,12.8,10.6,0,0,,10.0,30.171259,1021.1,,TRUE,TRUE,,,,,,,OVC,4500,,,,,,,VFR,-2.1,17.2,11.7,,,,,,,,,METAR,58.0
KTTD 200553Z AUTO 00000KT 10SM CLR 21/13 A3006 RMK AO2 SLP180 T02110133 10289 20211 53026,KTTD,2023-05-20T05:53:00Z,45.55,-122.42,21.1,13.3,0,0,,10.0,30.059055,1018.0,,TRUE,TRUE,,,,,,,CLR,,,,,,,,VFR,2.6,28.9,21.1,,,,,,,,,METAR,8.0
KTRL 200553Z AUTO 34005KT 10SM OVC060 23/19 A3007 RMK AO2 SLP176 60000 T02280194 10256 20222 403220189 51025,KTRL,2023-05-20T05:53:00Z,32.72,-96.27,22.8,19.4,340,5,,10.0,30.070866,1017.6,,TRUE,TRUE,,,,,,,OVC,6000,,,,,,,VFR,2.5,25.6,22.2,32.2,18.9,,,0.005,,,,METAR,144.0
KTRI 200553Z 12004KT 10SM SCT050 OVC065 19/13 A3008 RMK AO2 SLP162 T01890133 10244 20189 58006,KTRI,2023-05-20T05:53:00Z,36.48,-82.4,18.9,13.3,120,4,,10.0,30.079725,1016.2,,,TRUE,,,,,,,SCT,5000,OVC,6500,,,,,VFR,-0.6,24.4,18.9,,,,,,,,,METAR,456.0
KTPA 200553Z VRB05KT 10SM FEW040 FEW250 26/21 A3000 RMK AO2 SLP157 T02560211 10289 20256 58009,KTPA,2023-05-20T05:53:00Z,27.97,-82.53,25.6,21.1,0,5,,10.0,30.0,1015.7,,,TRUE,,,,,,,FEW,4000,FEW,25000,,,,,VFR,-0.9,28.9,25.6,,,,,,,,,METAR,2.0
KTOR 200553Z AUTO 09007KT 8SM CLR 08/06 A3030 RMK AO2 SLP250 T00780061 10172 20078 50000,KTOR,2023-05-20T05:53:00Z,42.07,-104.15,7.8,6.1,90,7,,8.0,30.301182,1025.0,,TRUE,TRUE,,,,,,,CLR,,,,,,,,VFR,0.0,17.2,7.8,,,,,,,,,METAR,1285.0
KTOP 200553Z AUTO 36009KT 10SM CLR 12/07 A3022 RMK AO2 SLP233 T01220067 10189 20100 51017,KTOP,2023-05-20T05:53:00Z,39.07,-95.63,12.2,6.7,360,9,,10.0,30.221457,1023.3,,TRUE,TRUE,,,,,,,CLR,,,,,,,,VFR,1.7,18.9,10.0,,,,,,,,,METAR,268.0
KTOI 200553Z AUTO 00000KT 10SM CLR 19/17 A3006 RMK AO2 SLP176 T01940172 10244 20189 402720189 57012,KTOI,2023-05-20T05:53:00Z,31.85,-86.02,19.4,17.2,0,0,,10.0,30.059055,1017.6,,TRUE,TRUE,,,,,,,CLR,,,,,,,,VFR,-1.2,24.4,18.9,27.2,18.9,,,,,,,METAR,120.0
KTMB 200553Z 30005KT 9SM CLR 23/23 A2998 RMK AO2 SLP151 60000 T02330228 10272 20233 58011,KTMB,2023-05-20T05:53:00Z,25.65,-80.43,23.3,22.8,300,5,,9.0,29.97933,1015.1,,,TRUE,,,,,,,CLR,,,,,,,,VFR,-1.1,27.2,23.3,,,,,0.005,,,,METAR,2.0
KTLH 200553Z AUTO 06004KT 10SM CLR 22/19 A3004 RMK AO2 SLP171 T02220194 10272 20222 58006,KTLH,2023-05-20T05:53:00Z,30.4,-84.35,22.2,19.4,60,4,,10.0,30.041338,1017.1,,TRUE,TRUE,,,,,,,CLR,,,,,,,,VFR,-0.6,27.2,22.2,,,,,,,,,METAR,17.0
KTIW 200553Z AUTO 30003KT 10SM CLR 17/09 A3008 RMK AO2 SLP185 T01720094 10239 20172 51011,KTIW,2023-05-20T05:53:00Z,47.27,-122.58,17.2,9.4,300,3,,10.0,30.079725,1018.5,,TRUE,TRUE,,,,,,,CLR,,,,,,,,VFR,1.1,23.9,17.2,,,,,,,,,METAR,89.0
KTHV 200553Z AUTO 11004KT 10SM CLR 13/10 A3013 RMK AO2 SLP205 T01280100 10194 20128 58017,KTHV,2023-05-20T05:53:00Z,39.92,-76.88,12.8,10.0,110,4,,10.0,30.129921,1020.5,,TRUE,TRUE,,,,,,,CLR,,,,,,,,VFR,-1.7,19.4,12.8,,,,,,,,,METAR,141.0
KTDZ 200553Z AUTO 29004KT 2 1/2SM -RA BR FEW018 BKN060 OVC075 16/14 A2997 RMK AO2 SLP144 P0005 60020 T01560139 10194 20156 58000,KTDZ,2023-05-20T05:53:00Z,41.57,-83.48,15.6,13.9,290,4,,2.5,29.970472,1014.4,,TRUE,TRUE,,,,,,-RA BR,FEW,1800,BKN,6000,OVC,7500,,,IFR,0.0,19.4,15.6,,,0.05,,0.2,,,,METAR,189.0
KTCS 200553Z AUTO 02016G22KT 10SM CLR 16/11 A3026 RMK AO2 PK WND 03032/0502 SLP179 60000 T01560106 10278 20156 51024,KTCS,2023-05-20T05:53:00Z,33.23,-107.27,15.6,10.6,20,16,22,10.0,30.259842,1017.9,,TRUE,TRUE,,,,,,,CLR,,,,,,,,VFR,2.4,27.8,15.6,,,,,,,,,SPECI,1471.0
KTCC 200553Z AUTO 03003KT 2 1/2SM BR FEW040 09/09 A3034 RMK AO2 SLP244 T00940089 10139 20094 50003,KTCC,2023-05-20T05:53:00Z,35.18,-103.6,9.4,8.9,30,3,,2.5,30.339567,1024.4,,TRUE,TRUE,,,,,,BR,FEW,4000,,,,,,,IFR,0.3,13.9,9.4,,,,,,,,,METAR,1233.0
KSWO 200553Z AUTO 35008KT 10SM CLR 13/11 A3021 RMK AO2 SLP221 T01280106 10156 20128 402170128 50002,KSWO,2023-05-20T05:53:00Z,36.17,-97.08,12.8,10.6,350,8,,10.0,30.209646,1022.1,,TRUE,TRUE,,,,,,,CLR,,,,,,,,VFR,0.2,15.6,12.8,21.7,12.8,,,,,,,METAR,293.0
KSTS 200553Z 15005KT 10SM CLR 12/09 A3005 RMK AO2 SLP169 T01170094 10217 20117 51016,KSTS,2023-05-20T05:53:00Z,38.5,-122.82,11.7,9.4,150,5,,10.0,30.050198,1016.9,,,TRUE,,,,,,,CLR,,,,,,,,VFR,1.6,21.7,11.7,,,,,,,,,METAR,35.0
KSTP 200553Z AUTO 27003KT 10SM CLR 09/05 A3024 RMK AO2 SLP241 T00890050 10150 20078 401560072 50005,KSTP,2023-05-20T05:53:00Z,44.93,-93.05,8.9,5.0,270,3,,10.0,30.239174,1024.1,,TRUE,TRUE,,,,,,,CLR,,,,,,,,VFR,0.5,15.0,7.8,15.6,7.2,,,,,,,METAR,213.0
KSTJ 200553Z AUTO 36007KT 10SM CLR 11/06 A3023 RMK AO2 SLP235 T01060061 10194 20106 402060106 51017 $,KSTJ,2023-05-20T05:53:00Z,39.77,-94.92,10.6,6.1,360,7,,10.0,30.230314,1023.5,,TRUE,TRUE,TRUE,,,,,,CLR,,,,,,,,VFR,1.7,19.4,10.6,20.6,10.6,,,,,,,METAR,247.0
KSTC 200553Z AUTO 00000KT 10SM CLR 06/04 A3025 RMK AO2 SLP257 T00610044 10150 20056 401610044 51008,KSTC,2023-05-20T05:53:00Z,45.55,-94.05,6.1,4.4,0,0,,10.0,30.250984,1025.7,,TRUE,TRUE,,,,,,,CLR,,,,,,,,VFR,0.8,15.0,5.6,16.1,4.4,,,,,,,METAR,302.0
KSSI 200553Z AUTO 35003KT 10SM CLR 22/19 A3003 RMK AO2 SLP171 T02170194 10250 20217 58012,KSSI,2023-05-20T05:53:00Z,31.15,-81.38,21.7,19.4,350,3,,10.0,30.029528,1017.1,,TRUE,TRUE,,,,,,,CLR,,,,,,,,VFR,-1.2,25.0,21.7,,,,,,,,,METAR,6.0
KSRQ 200553Z AUTO 04003KT 10SM CLR 25/21 A2997 RMK AO2 SLP148 T02500206 10278 20250 58010,KSRQ,2023-05-20T05:53:00Z,27.4,-82.57,25.0,20.6,40,3,,10.0,29.970472,1014.8,,TRUE,TRUE,,,,,,,CLR,,,,,,,,VFR,-1.0,27.8,25.0,,,,,,,,,METAR,5.0
KSPW 200553Z AUTO 27005KT 10SM CLR 06/02 A3025 RMK AO2 SLP250 T00610017 10144 20061 401560061 51005 $,KSPW,2023-05-20T05:53:00Z,43.17,-95.22,6.1,1.7,270,5,,10.0,30.250984,1025.0,,TRUE,TRUE,TRUE,,,,,,CLR,,,,,,,,VFR,0.5,14.4,6.1,15.6,6.1,,,,,,,METAR,407.0
KSPG 200553Z AUTO 06010KT 10SM CLR 27/23 A2998 RMK AO2 SLP150 T02670233 10278 20267 58011 $,KSPG,2023-05-20T05:53:00Z,27.77,-82.63,26.7,23.3,60,10,,10.0,29.97933,1015.0,,TRUE,TRUE,TRUE,,,,,,CLR,,,,,,,,VFR,-1.1,27.8,26.7,,,,,,,,,METAR,1.0
KSPB 200553Z AUTO 34006KT 10SM CLR 19/12 A3006 RMK AO2 SLP180 T01890122 10278 20189 51022,KSPB,2023-05-20T05:53:00Z,45.77,-122.87,18.9,12.2,340,6,,10.0,30.059055,1018.0,,TRUE,TRUE,,,,,,,CLR,,,,,,,,VFR,2.2,27.8,18.9,,,,,,,,,METAR,15.0
KSNY 200553Z AUTO 23003KT 6SM BR CLR 06/04 A3032 RMK AO2 SLP258 T00560039 10156 20044 58003,KSNY,2023-05-20T05:53:00Z,41.1,-102.98,5.6,3.9,230,3,,6.0,30.318897,1025.8,,TRUE,TRUE,,,,,,BR,CLR,,,,,,,,VFR,-0.3,15.6,4.4,,,,,,,,,METAR,1307.0
KSNS 200553Z AUTO 30010KT 10SM OVC007 14/11 A3010 RMK AO2 SLP202 T01390106 10183 20139 50011,KSNS,2023-05-20T05:53:00Z,36.67,-121.6,13.9,10.6,300,10,,10.0,30.100393,1020.2,,TRUE,TRUE,,,,,,,OVC,700,,,,,,,IFR,1.1,18.3,13.9,,,,,,,,,METAR,20.0
KSNA 200553Z 21003KT 8SM FEW010 OVC016 17/14 A3007 RMK AO2 SLP181 LAST T01670139 10183 20167 50009 $,KSNA,2023-05-20T05:53:00Z,33.67,-117.87,16.7,13.9,210,3,,8.0,30.070866,1018.1,,,TRUE,TRUE,,,,,,FEW,1000,OVC,1600,,,,,MVFR,0.9,18.3,16.7,,,,,,,,,METAR,14.0
KSMQ 200553Z AUTO 00000KT 9SM BKN055 10/09 A3017 RMK AO2 SLP218 T01000094 10172 20094 58018,KSMQ,2023-05-20T05:53:00Z,40.62,-74.67,10.0,9.4,0,0,,9.0,30.171259,1021.8,,TRUE,TRUE,,,,,,,BKN,5500,,,,,,,VFR,-1.8,17.2,9.4,,,,,,,,,METAR,30.0
KSMF 200553Z 15010KT 10SM CLR 18/11 A2996 RMK AO2 SLP146 T01780111 10300 20178 53014,KSMF,2023-05-20T05:53:00Z,38.7,-121.6,17.8,11.1,150,10,,10.0,29.958662,1014.6,,,TRUE,,,,,,,CLR,,,,,,,,VFR,1.4,30.0,17.8,,,,,,,,,METAR,7.0
KSLN 200553Z AUTO 35007KT 10SM CLR 11/06 A3026 RMK AO2 SLP246 T01060056 10194 20106 402060106 51016,KSLN,2023-05-20T05:53:00Z,38.8,-97.65,10.6,5.6,350,7,,10.0,30.259842,1024.6,,TRUE,TRUE,,,,,,,CLR,,,,,,,,VFR,1.6,19.4,10.6,20.6,10.6,,,,,,,METAR,377.0
KSJC 200553Z 33007KT 10SM FEW010 FEW020 14/11 A3010 RMK AO2 SLP191 T01390106 10206 20139 50013,KSJC,2023-05-20T05:53:00Z,37.37,-121.92,13.9,10.6,330,7,,10.0,30.100393,1019.1,,,TRUE,,,,,,,FEW,1000,FEW,2000,,,,,VFR,1.3,20.6,13.9,,,,,,,,,METAR,13.0
KSIY 200553Z AUTO 33011G17KT 10SM CLR 23/12 A3008 RMK AO2 SLP170 T02280122 10333 20228 51027,KSIY,2023-05-20T05:53:00Z,41.77,-122.47,22.8,12.2,330,11,17,10.0,30.079725,1017.0,,TRUE,TRUE,,,,,,,CLR,,,,,,,,VFR,2.7,33.3,22.8,,,,,,,,,METAR,807.0
KSHR 200553Z AUTO 00000KT 9SM CLR 08/04 A3017 RMK AO2 SLP208 T00780039 10217 20078 58002,KSHR,2023-05-20T05:53:00Z,44.77,-106.97,7.8,3.9,0,0,,9.0,30.171259,1020.8,,TRUE,TRUE,,,,,,,CLR,,,,,,,,VFR,-0.2,21.7,7.8,,,,,,,,,METAR,1212.0
KSHN 200553Z AUTO 25012G19KT 10SM 14/12 A3008 RMK AO2 SLP184 T01440117 10278 20144 $,KSHN,2023-05-20T05:53:00Z,47.23,-123.13,14.4,11.7,250,12,19,10.0,30.079725,1018.4,,TRUE,TRUE,TRUE,,,,,,,,,,,,,,,,27.8,14.4,,,,,,,,,METAR,84.0
KSGR 200553Z AUTO 24003KT 10SM CLR 23/21 A3004 RMK AO2 SLP173 T02330211 10306 20228 403280211 53012,KSGR,2023-05-20T05:53:00Z,29.62,-95.65,23.3,21.1,240,3,,10.0,30.041338,1017.3,,TRUE,TRUE,,,,,,,CLR,,,,,,,,VFR,1.2,30.6,22.8,32.8,21.1,,,,,,,METAR,22.0
KSFF 200553Z AUTO 02003KT 9SM FU CLR 21/13 A3005 RMK AO2 SLP159 T02060128 10317 20189 51015,KSFF,2023-05-20T05:53:00Z,47.68,-117.32,20.6,12.8,20,3,,9.0,30.050198,1015.9,,TRUE,TRUE,,,,,,FU,CLR,,,,,,,,VFR,1.5,31.7,18.9,,,,,,,,,METAR,593.0
KSFB 200553Z AUTO 03006KT 10SM FEW020 24/23 A3001 RMK AO2 SLP161 T02440228 10267 20244 58013,KSFB,2023-05-20T05:53:00Z,28.77,-81.23,24.4,22.8,30,6,,10.0,30.008858,1016.1,,TRUE,TRUE,,,,,,,FEW,2000,,,,,,,VFR,-1.3,26.7,24.4,,,,,,,,,METAR,16.0
KSEG 200553Z AUTO 18005KT 10SM CLR 15/09 A3013 RMK AO2 SLP202 T01500094 10206 20150 58009,KSEG,2023-05-20T05:53:00Z,40.82,-76.87,15.0,9.4,180,5,,10.0,30.129921,1020.2,,TRUE,TRUE,,,,,,,CLR,,,,,,,,VFR,-0.9,20.6,15.0,,,,,,,,,METAR,136.0
KSEA 200553Z 03009KT 10SM SCT100 SCT250 19/08 A3008 RMK AO2 SLP193 T01940078 10244 20194 51011,KSEA,2023-05-20T05:53:00Z,47.45,-122.32,19.4,7.8,30,9,,10.0,30.079725,1019.3,,,TRUE,,,,,,,SCT,10000,SCT,25000,,,,,VFR,1.1,24.4,19.4,,,,,,,,,METAR,115.0
KSDM 200553Z AUTO 26005KT 10SM OVC010 16/13 A3008 RMK AO2 SLP183 T01560128 10167 20156 52014,KSDM,2023-05-20T05:53:00Z,32.58,-117.0,15.6,12.8,260,5,,10.0,30.079725,1018.3,,TRUE,TRUE,,,,,,,OVC,1000,,,,,,,MVFR,1.4,16.7,15.6,,,,,,,,,METAR,161.0
KSDL 200553Z AUTO 34005KT 10SM CLR 24/10 A3005 RMK AO2 SLP153 T02440100 10317 20244 53014,KSDL,2023-05-20T05:53:00Z,33.62,-111.92,24.4,10.0,340,5,,10.0,30.050198,1015.3,,TRUE,TRUE,,,,,,,CLR,,,,,,,,VFR,1.4,31.7,24.4,,,,,,,,,METAR,438.0
KSBM 200553Z AUTO 33009KT 10SM CLR 09/04 A3009 RMK AO2 SLP189 T00890044 10156 20089 401890089 51006,KSBM,2023-05-20T05:53:00Z,43.78,-87.85,8.9,4.4,330,9,,10.0,30.088583,1018.9,,TRUE,TRUE,,,,,,,CLR,,,,,,,,VFR,0.6,15.6,8.9,18.9,8.9,,,,,,,METAR,225.0
KSBA 200553Z 00000KT 5SM BR OVC005 14/13 A3007 RMK AO2 SLP184 T01440128 10183 20144 53011 $,KSBA,2023-05-20T05:53:00Z,34.43,-119.85,14.4,12.8,0,0,,5.0,30.070866,1018.4,,,TRUE,TRUE,,,,,BR,OVC,500,,,,,,,IFR,1.1,18.3,14.4,,,,,,,,,METAR,2.0
KSAV 200553Z AUTO 34003KT 10SM OVC009 20/18 A3006 RMK AO2 SLP176 60000 T02000178 10222 20189 58014,KSAV,2023-05-20T05:53:00Z,32.12,-81.2,20.0,17.8,340,3,,10.0,30.059055,1017.6,,TRUE,TRUE,,,,,,,OVC,900,,,,,,,IFR,-1.4,22.2,18.9,,,,,0.005,,,,METAR,10.0
KSAF 200553Z AUTO 15011KT 10SM BKN049 OVC110 11/08 A3039 RMK AO2 SLP231 T01110078 10150 20111 51014,KSAF,2023-05-20T05:53:00Z,35.62,-106.1,11.1,7.8,150,11,,10.0,30.389763,1023.1,,TRUE,TRUE,,,,,,,BKN,4900,OVC,11000,,,,,VFR,1.4,15.0,11.1,,,,,,,,,METAR,1918.0
KSAC 200553Z AUTO VRB05KT 10SM CLR 16/11 A2999 RMK AO2 SLP154 T01560111 10283 20156 53015,KSAC,2023-05-20T05:53:00Z,38.5,-121.5,15.6,11.1,0,5,,10.0,29.991142,1015.4,,TRUE,TRUE,,,,,,,CLR,,,,,,,,VFR,1.5,28.3,15.6,,,,,,,,,METAR,5.0
KRXE 200553Z AUTO 00000KT 10SM CLR 12/01 A3020 RMK AO2 SLP197 T01220006 10250 20122 51012,KRXE,2023-05-20T05:53:00Z,43.83,-111.8,12.2,0.6,0,0,,10.0,30.200787,1019.7,,TRUE,TRUE,,,,,,,CLR,,,,,,,,VFR,1.2,25.0,12.2,,,,,,,,,METAR,1483.0
KRWL 200553Z AUTO 06008KT 6SM HZ CLR 09/05 A3034 RMK AO2 SLP213 T00940050 10194 20094 51009,KRWL,2023-05-20T05:53:00Z,41.8,-107.2,9.4,5.0,60,8,,6.0,30.339567,1021.3,,TRUE,TRUE,,,,,,HZ,CLR,,,,,,,,VFR,0.9,19.4,9.4,,,,,,,,,METAR,2066.0
KRWI 200553Z AUTO 01005KT 10SM CLR 17/14 A3006 RMK AO2 SLP179 6//// T01670144 10200 20167 56021 PNO,KRWI,2023-05-20T05:53:00Z,35.85,-77.9,16.7,14.4,10,5,,10.0,30.059055,1017.9,,TRUE,TRUE,,,,,,,CLR,,,,,,,,VFR,-2.1,20.0,16.7,,,,,,,,,METAR,46.0
KRWF 200553Z AUTO 31005KT 10SM CLR 09/04 A3025 RMK AO2 SLP247 T00890039 10167 20089 401670056 51006,KRWF,2023-05-20T05:53:00Z,44.55,-95.08,8.9,3.9,310,5,,10.0,30.250984,1024.7,,TRUE,TRUE,,,,,,,CLR,,,,,,,,VFR,0.6,16.7,8.9,16.7,5.6,,,,,,,METAR,312.0
KRVS 200553Z AUTO 36007KT 2SM CLR 13/10 A3018 RMK AO2 SLP226 60000 T01280100 10156 20128 402110128 50000,KRVS,2023-05-20T05:53:00Z,36.05,-95.98,12.8,10.0,360,7,,2.0,30.180119,1022.6,,TRUE,TRUE,,,,,,,CLR,,,,,,,,IFR,0.0,15.6,12.8,21.1,12.8,,,0.005,,,,METAR,191.0
KRSW 200553Z 00000KT 10SM CLR 25/23 A2997 RMK AO2 SLP145 60001 T02500228 10267 20239 58018,KRSW,2023-05-20T05:53:00Z,26.53,-81.75,25.0,22.8,0,0,,10.0,29.970472,1014.5,,,TRUE,,,,,,,CLR,,,,,,,,VFR,-1.8,26.7,23.9,,,,,0.01,,,,METAR,8.0
KRSL 200553Z AUTO 10SM CLR 11/04 A3027 RMK AO2 SLP250 6//// T01110039 10194 20100 402060100 53010 PNO $,KRSL,2023-05-20T05:53:00Z,38.87,-98.82,11.1,3.9,,,,10.0,30.268702,1025.0,,TRUE,TRUE,TRUE,,,,,,CLR,,,,,,,,VFR,1.0,19.4,10.0,20.6,10.0,,,,,,,SPECI,569.0
KRQE 200553Z AUTO 29006KT 10SM OVC100 10/08 A3034 RMK AO2 RAB0457E25 SLP186 P0000 60006 T01000078 10100 20094 50010,KRQE,2023-05-20T05:53:00Z,35.65,-109.07,10.0,7.8,290,6,,10.0,30.339567,1018.6,,TRUE,TRUE,,,,,,,OVC,10000,,,,,,,VFR,1.0,10.0,9.4,,,0.005,,0.06,,,,METAR,2056.0
KRNT 200553Z AUTO 35007KT 10SM FEW110 20/11 A3007 RMK AO2 SLP188 T02000106 10256 20200 51014,KRNT,2023-05-20T05:53:00Z,47.5,-122.22,20.0,10.6,350,7,,10.0,30.070866,1018.8,,TRUE,TRUE,,,,,,,FEW,11000,,,,,,,VFR,1.4,25.6,20.0,,,,,,,,,METAR,7.0
KRNM 200553Z AUTO 00000KT 5SM BR OVC006 15/13 A3008 RMK AO2 SLP177 T01500133 10222 20133 53010,KRNM,2023-05-20T05:53:00Z,33.03,-116.92,15.0,13.3,0,0,,5.0,30.079725,1017.7,,TRUE,TRUE,,,,,,BR,OVC,600,,,,,,,IFR,1.0,22.2,13.3,,,,,,,,,METAR,423.0
KRMG 200553Z AUTO 00000KT 5SM BR SCT037 17/16 A3006 RMK AO2 SLP173 T01720161 10228 20172 58008,KRMG,2023-05-20T05:53:00Z,34.35,-85.17,17.2,16.1,0,0,,5.0,30.059055,1017.3,,TRUE,TRUE,,,,,,BR,SCT,3700,,,,,,,MVFR,-0.8,22.8,17.2,,,,,,,,,METAR,196.0
KRME 200553Z AUTO 15006KT 10SM BKN070 OVC110 17/08 A3009 RMK AO2 SLP184 60000 T01720078 10211 20172 58003,KRME,2023-05-20T05:53:00Z,43.22,-75.4,17.2,7.8,150,6,,10.0,30.088583,1018.4,,TRUE,TRUE,,,,,,,BKN,7000,OVC,11000,,,,,VFR,-0.3,21.1,17.2,,,,,0.005,,,,METAR,146.0
KRKP 200553Z AUTO 16006KT 9SM FEW017 26/23 A3002 RMK AO2 SLP166 T02560228 10278 20256 403060228 50001,KRKP,2023-05-20T05:53:00Z,28.08,-97.05,25.6,22.8,160,6,,9.0,30.02067,1016.6,,TRUE,TRUE,,,,,,,FEW,1700,,,,,,,VFR,0.1,27.8,25.6,30.6,22.8,,,,,,,METAR,8.0
KRIW 200553Z AUTO 00000KT 10SM CLR 09/00 A3027 RMK AO2 SLP213 T00890000 10211 20089 51005,KRIW,2023-05-20T05:53:00Z,43.07,-108.43,8.9,0.0,0,0,,10.0,30.268702,1021.3,,TRUE,TRUE,,,,,,,CLR,,,,,,,,VFR,0.5,21.1,8.9,,,,,,,,,METAR,1662.0
KRIL 200553Z AUTO 21004KT 10SM CLR 10/05 A3027 RMK AO2 SLP204 6//// T01000050 10206 20100 51016 PNO,KRIL,2023-05-20T05:53:00Z,39.53,-107.73,10.0,5.0,210,4,,10.0,30.268702,1020.4,,TRUE,TRUE,,,,,,,CLR,,,,,,,,VFR,1.6,20.6,10.0,,,,,,,,,METAR,1683.0
KRHI 200553Z AUTO 00000KT 10SM CLR 04/03 A3016 RMK AO2 SLP223 T00390028 10078 20039 401060039 53002,KRHI,2023-05-20T05:53:00Z,45.63,-89.48,3.9,2.8,0,0,,10.0,30.159449,1022.3,,TRUE,TRUE,,,,,,,CLR,,,,,,,,VFR,0.2,7.8,3.9,10.6,3.9,,,,,,,METAR,493.0
KRDD 200553Z AUTO 03005KT 10SM CLR 24/14 A2996 RMK AO2 SLP138 T02390144 10344 20239 51021,KRDD,2023-05-20T05:53:00Z,40.52,-122.3,23.9,14.4,30,5,,10.0,29.958662,1013.8,,TRUE,TRUE,,,,,,,CLR,,,,,,,,VFR,2.1,34.4,23.9,,,,,,,,,METAR,152.0
KRBG 200553Z AUTO 01007KT 10SM CLR 19/11 A3008 RMK AO2 SLP185 T01940111 10289 20194 51023,KRBG,2023-05-20T05:53:00Z,43.23,-123.35,19.4,11.1,10,7,,10.0,30.079725,1018.5,,TRUE,TRUE,,,,,,,CLR,,,,,,,,VFR,2.3,28.9,19.4,,,,,,,,,METAR,152.0
KRBD 200553Z AUTO 34010KT 10SM CLR 21/19 A3008 RMK AO2 SLP179 60034 T02110194 10228 20211 403220206 53025 $,KRBD,2023-05-20T05:53:00Z,32.68,-96.87,21.1,19.4,340,10,,10.0,30.079725,1017.9,,TRUE,TRUE,TRUE,,,,,,CLR,,,,,,,,VFR,2.5,22.8,21.1,32.2,20.6,,,0.34,,,,METAR,200.0
KRAL 200553Z AUTO 28004KT 8SM CLR 16/13 A3007 RMK AO2 SLP170 T01560133 10222 20156 51012,KRAL,2023-05-20T05:53:00Z,33.95,-117.45,15.6,13.3,280,4,,8.0,30.070866,1017.0,,TRUE,TRUE,,,,,,,CLR,,,,,,,,VFR,1.2,22.2,15.6,,,,,,,,,METAR,254.0
KRAC 200553Z AUTO 33005KT 10SM CLR 11/05 A3010 RMK AO2 SLP191 T01060050 10172 20106 402170106 52005,KRAC,2023-05-20T05:53:00Z,42.77,-87.82,10.6,5.0,330,5,,10.0,30.100393,1019.1,,TRUE,TRUE,,,,,,,CLR,,,,,,,,VFR,0.5,17.2,10.6,21.7,10.6,,,,,,,METAR,203.0
KPWA 200553Z AUTO 36008KT 5SM BR CLR 13/11 A3021 RMK AO2 SLP223 T01280106 10156 20128 402560128 53008,KPWA,2023-05-20T05:53:00Z,35.53,-97.65,12.8,10.6,360,8,,5.0,30.209646,1022.3,,TRUE,TRUE,,,,,,BR,CLR,,,,,,,,MVFR,0.8,15.6,12.8,25.6,12.8,,,,,,,METAR,390.0
KPUW 200553Z AUTO 00000KT 6SM HZ CLR 18/11 A3009 RMK AO2 SLP175 T01780106 10289 20172 51012,KPUW,2023-05-20T05:53:00Z,46.75,-117.12,17.8,10.6,0,0,,6.0,30.088583,1017.5,,TRUE,TRUE,,,,,,HZ,CLR,,,,,,,,VFR,1.2,28.9,17.2,,,,,,,,,METAR,774.0
KPUC 200553Z AUTO 02009KT 10SM CLR 13/M03 A3026 RMK AO2 SLP193 T01331028 10233 20128 51019,KPUC,2023-05-20T05:53:00Z,39.62,-110.75,13.3,-2.8,20,9,,10.0,30.259842,1019.3,,TRUE,TRUE,,,,,,,CLR,,,,,,,,VFR,1.9,23.3,12.8,,,,,,,,,METAR,1777.0
KPUB 200553Z AUTO 13005KT 2 1/2SM HZ BKN019 OVC030 13/10 A3036 RMK AO2 SLP250 60000 T01280100 10144 20128 50003,KPUB,2023-05-20T05:53:00Z,38.28,-104.5,12.8,10.0,130,5,,2.5,30.360237,1025.0,,TRUE,TRUE,,,,,,HZ,BKN,1900,OVC,3000,,,,,IFR,0.3,14.4,12.8,,,,,0.005,,,,METAR,1441.0
KPTK 200553Z AUTO 32008KT 7SM FEW046 BKN065 13/ A2996 RMK AO2 SLP144 60019 T0128 10167 20128 50002 $,KPTK,2023-05-20T05:53:00Z,42.67,-83.42,12.8,,320,8,,7.0,29.958662,1014.4,,TRUE,TRUE,TRUE,,,,,,FEW,4600,BKN,6500,,,,,VFR,0.2,16.7,12.8,,,,,0.19,,,,METAR,295.0
KPSX 200553Z AUTO 18006KT 10SM CLR 26/22 A3004 RMK AO2 SLP172 T02610222 10283 20256 403060244 53008 $,KPSX,2023-05-20T05:53:00Z,28.72,-96.25,26.1,22.2,180,6,,10.0,30.041338,1017.2,,TRUE,TRUE,TRUE,,,,,,CLR,,,,,,,,VFR,0.8,28.3,25.6,30.6,24.4,,,,,,,METAR,4.0
KPSP 200553Z AUTO 06007KT 10SM CLR 27/14 A2996 RMK AO2 SLP142 T02720139 10361 20272 53023,KPSP,2023-05-20T05:53:00Z,33.82,-116.5,27.2,13.9,60,7,,10.0,29.958662,1014.2,,TRUE,TRUE,,,,,,,CLR,,,,,,,,VFR,2.3,36.1,27.2,,,,,,,,,METAR,123.0
KPSC 200553Z AUTO 23007KT 10SM CLR 26/12 A2997 RMK AO2 WSHFT 0440 SLP143 T02610122 10367 20256 50022,KPSC,2023-05-20T05:53:00Z,46.27,-119.12,26.1,12.2,230,7,,10.0,29.970472,1014.3,,TRUE,TRUE,,,,,,,CLR,,,,,,,,VFR,2.2,36.7,25.6,,,,,,,,,METAR,121.0
KPRC 200553Z AUTO 18005KT 10SM FEW095 FEW120 12/11 A3025 RMK AO2 SLP179 60013 T01220111 10133 20117 50011 $,KPRC,2023-05-20T05:53:00Z,34.65,-112.42,12.2,11.1,180,5,,10.0,30.250984,1017.9,,TRUE,TRUE,TRUE,,,,,,FEW,9500,FEW,12000,,,,,VFR,1.1,13.3,11.7,,,,,0.13,,,,METAR,1528.0
KPRB 200553Z AUTO 29011KT 10SM CLR 15/10 A3005 RMK AO2 SLP170 T01500100 10317 20150 51022,KPRB,2023-05-20T05:53:00Z,35.67,-120.63,15.0,10.0,290,11,,10.0,30.050198,1017.0,,TRUE,TRUE,,,,,,,CLR,,,,,,,,VFR,2.2,31.7,15.0,,,,,,,,,METAR,249.0
KPQL 200553Z AUTO 00000KT 8SM CLR 22/21 A3001 RMK AO2 SLP164 T02170211 10278 20217 403110211 55004,KPQL,2023-05-20T05:53:00Z,30.47,-88.53,21.7,21.1,0,0,,8.0,30.008858,1016.4,,TRUE,TRUE,,,,,,,CLR,,,,,,,,VFR,-0.4,27.8,21.7,31.1,21.1,,,,,,,METAR,4.0
KPOU 200553Z 00000KT 10SM CLR 10/08 A3019 RMK AO2 SLP219 T01000083 10178 20100 58014,KPOU,2023-05-20T05:53:00Z,41.63,-73.88,10.0,8.3,0,0,,10.0,30.188976,1021.9,,,TRUE,,,,,,,CLR,,,,,,,,VFR,-1.4,17.8,10.0,,,,,,,,,METAR,45.0
KPNS 200553Z AUTO 10008KT 10SM FEW014 BKN023 BKN029 24/22 A3001 RMK AO2 SLP163 T02440222 10267 20239 402890222 58009,KPNS,2023-05-20T05:53:00Z,30.48,-87.18,24.4,22.2,100,8,,10.0,30.008858,1016.3,,TRUE,TRUE,,,,,,,FEW,1400,BKN,2300,BKN,2900,,,MVFR,-0.9,26.7,23.9,28.9,22.2,,,,,,,METAR,34.0
KPNC 200553Z AUTO 00000KT 10SM CLR 11/10 A3024 RMK AO2 SLP236 T01110100 10156 20106 402220106 53014 $,KPNC,2023-05-20T05:53:00Z,36.73,-97.1,11.1,10.0,0,0,,10.0,30.239174,1023.6,,TRUE,TRUE,TRUE,,,,,,CLR,,,,,,,,VFR,1.4,15.6,10.6,22.2,10.6,,,,,,,METAR,304.0
KPMP 200553Z AUTO 14005KT 10SM CLR 27/22 A2998 RMK AO2 SLP152 T02670222 10283 20267 58010,KPMP,2023-05-20T05:53:00Z,26.25,-80.12,26.7,22.2,140,5,,10.0,29.97933,1015.2,,TRUE,TRUE,,,,,,,CLR,,,,,,,,VFR,-1.0,28.3,26.7,,,,,,,,,METAR,4.0
KPMD 200553Z AUTO 21010KT 10SM CLR 21/08 A3005 RMK AO2 SLP146 T02110083 10306 20211 51015,KPMD,2023-05-20T05:53:00Z,34.63,-118.08,21.1,8.3,210,10,,10.0,30.050198,1014.6,,TRUE,TRUE,,,,,,,CLR,,,,,,,,VFR,1.5,30.6,21.1,,,,,,,,,METAR,764.0
KPKB 200553Z AUTO 19007KT 10SM FEW060 SCT100 19/13 A2999 RMK AO2 SLP149 T01940128 10233 20172 58009,KPKB,2023-05-20T05:53:00Z,39.35,-81.43,19.4,12.8,190,7,,10.0,29.991142,1014.9,,TRUE,TRUE,,,,,,,FEW,6000,SCT,10000,,,,,VFR,-0.9,23.3,17.2,,,,,,,,,METAR,245.0
KPIR 200553Z AUTO 10004KT 10SM CLR 07/04 A3027 RMK AO2 SLP253 T00720039 10200 20061 402000028 50007,KPIR,2023-05-20T05:53:00Z,44.38,-100.28,7.2,3.9,100,4,,10.0,30.268702,1025.3,,TRUE,TRUE,,,,,,,CLR,,,,,,,,VFR,0.7,20.0,6.1,20.0,2.8,,,,,,,METAR,524.0
KPIL 200553Z AUTO 16007KT 10SM CLR 26/24 A3001 RMK AO2 SLP161 T02610244 10283 20261 403220244 50004 $,KPIL,2023-05-20T05:53:00Z,26.17,-97.33,26.1,24.4,160,7,,10.0,30.008858,1016.1,,TRUE,TRUE,TRUE,,,,,,CLR,,,,,,,,VFR,0.4,28.3,26.1,32.2,24.4,,,,,,,METAR,5.0
KPIH 200553Z 00000KT 10SM CLR 12/06 A3019 RMK AO2 SLP187 T01220056 10256 20122 51010,KPIH,2023-05-20T05:53:00Z,42.92,-112.57,12.2,5.6,0,0,,10.0,30.188976,1018.7,,,TRUE,,,,,,,CLR,,,,,,,,VFR,1.0,25.6,12.2,,,,,,,,,METAR,1357.0
KPIE 200553Z AUTO 05008KT 10SM CLR 26/22 A2999 RMK AO2 SLP156 T02610222 10272 20250 58011,KPIE,2023-05-20T05:53:00Z,27.92,-82.68,26.1,22.2,50,8,,10.0,29.991142,1015.6,,TRUE,TRUE,,,,,,,CLR,,,,,,,,VFR,-1.1,27.2,25.0,,,,,,,,,METAR,1.0
KPHD 200553Z AUTO 21003KT 10SM FEW040 BKN070 OVC090 18/15 A2996 RMK AO2 RAB25E52 SLP140 P0002 60002 T01830150 10228 20178 58012,KPHD,2023-05-20T05:53:00Z,40.47,-81.42,18.3,15.0,210,3,,10.0,29.958662,1014.0,,TRUE,TRUE,,,,,,,FEW,4000,BKN,7000,OVC,9000,,,VFR,-1.2,22.8,17.8,,,0.02,,0.02,,,,METAR,272.0
KPGD 200553Z AUTO 26004KT 10SM CLR 26/21 A2999 RMK AO2 SLP155 T02560206 10289 20256 58012,KPGD,2023-05-20T05:53:00Z,26.92,-82.0,25.6,20.6,260,4,,10.0,29.991142,1015.5,,TRUE,TRUE,,,,,,,CLR,,,,,,,,VFR,-1.2,28.9,25.6,,,,,,,,,METAR,7.0
KPGA 200553Z AUTO 20013G19KT 10SM CLR 20/08 A3018 RMK AO2 SLP163 T02000083 10267 20200 51022,KPGA,2023-05-20T05:53:00Z,36.92,-111.45,20.0,8.3,200,13,19,10.0,30.180119,1016.3,,TRUE,TRUE,,,,,,,CLR,,,,,,,,VFR,2.2,26.7,20.0,,,,,,,,,METAR,1310.0
KPEO 200553Z AUTO 19012KT 10SM OVC110 18/10 A3003 RMK AO2 SLP164 T01780100 10200 20178 58010,KPEO,2023-05-20T05:53:00Z,42.65,-77.05,17.8,10.0,190,12,,10.0,30.029528,1016.4,,TRUE,TRUE,,,,,,,OVC,11000,,,,,,,VFR,-1.0,20.0,17.8,,,,,,,,,METAR,268.0
KPDX 200553Z 34005KT 10SM FEW100 21/13 A3008 RMK AO2 SLP183 T02060133 10283 20206 53027,KPDX,2023-05-20T05:53:00Z,45.6,-122.62,20.6,13.3,340,5,,10.0,30.079725,1018.3,,,TRUE,,,,,,,FEW,10000,,,,,,,VFR,2.7,28.3,20.6,,,,,,,,,METAR,7.0
KPDT 200553Z AUTO 13007KT 10SM CLR 23/11 A3004 RMK AO2 PK WND 24033/0458 RAE43 SLP156 P0000 60000 T02330106 10322 20233 51021,KPDT,2023-05-20T05:53:00Z,45.7,-118.83,23.3,10.6,130,7,,10.0,30.041338,1015.6,,TRUE,TRUE,,,,,,,CLR,,,,,,,,VFR,2.1,32.2,23.3,,,0.005,,0.005,,,,METAR,453.0
KPBI 200553Z 00000KT 10SM FEW017 SCT250 27/24 A2999 RMK AO2 SLP155 T02670244 10278 20267 58007 $,KPBI,2023-05-20T05:53:00Z,26.68,-80.1,26.7,24.4,0,0,,10.0,29.991142,1015.5,,,TRUE,TRUE,,,,,,FEW,1700,SCT,25000,,,,,VFR,-0.7,27.8,26.7,,,,,,,,,METAR,4.0
KPBG 200553Z AUTO 14009KT 10SM BKN090 BKN120 14/08 A3006 RMK AO2 RAE04 SLP181 P0000 60000 T01390083 10194 20139 51000,KPBG,2023-05-20T05:53:00Z,44.65,-73.47,13.9,8.3,140,9,,10.0,30.059055,1018.1,,TRUE,TRUE,,,,,,,BKN,9000,BKN,12000,,,,,VFR,0.0,19.4,13.9,,,0.005,,0.005,,,,METAR,61.0
KPBF 200553Z AUTO 21008KT 10SM VCTS -RA FEW100 BKN120 22/18 A2999 RMK AO2 LTG DSNT E-SW TSB0456E11 SLP154 P0004 60008 T02170178 10294 20217 403170194 51012,KPBF,2023-05-20T05:53:00Z,34.18,-91.93,21.7,17.8,210,8,,10.0,29.991142,1015.4,,TRUE,TRUE,,,,,,VCTS -RA,FEW,10000,BKN,12000,,,,,VFR,1.2,29.4,21.7,31.7,19.4,0.04,,0.08,,,,METAR,63.0
KPAE 200553Z AUTO 03007KT 10SM SCT110 15/09 A3010 RMK AO2 SLP191 T01500094 10194 20144 51008,KPAE,2023-05-20T05:53:00Z,47.92,-122.28,15.0,9.4,30,7,,10.0,30.100393,1019.1,,TRUE,TRUE,,,,,,,SCT,11000,,,,,,,VFR,0.8,19.4,14.4,,,,,,,,,METAR,166.0
KP68 200553Z AUTO 19003KT 12/02 A3023 RMK AO1 SLP171 T01170022 10261 20111 51016,KP68,2023-05-20T05:53:00Z,39.6,-116.0,11.7,2.2,190,3,,,30.230314,1017.1,,TRUE,TRUE,,,,,,,,,,,,,,,,1.6,26.1,11.1,,,,,,,,,METAR,1813.0
KOXB 200553Z AUTO 06005KT 8SM -RA OVC004 17/16 A3012 RMK AO2 RAB39 SLP198 P0000 60001 T01720156 10172 20161 58027,KOXB,2023-05-20T05:53:00Z,38.32,-75.12,17.2,15.6,60,5,,8.0,30.121063,1019.8,,TRUE,TRUE,,,,,,-RA,OVC,400,,,,,,,LIFR,-2.7,17.2,16.1,,,0.005,,0.01,,,,METAR,2.0
KOWD 200553Z AUTO 17003KT 10SM BKN050 12/08 A3024 RMK AO2 SLP240 T01170083 10156 20106 58016,KOWD,2023-05-20T05:53:00Z,42.18,-71.17,11.7,8.3,170,3,,10.0,30.239174,1024.0,,TRUE,TRUE,,,,,,,BKN,5000,,,,,,,VFR,-1.6,15.6,10.6,,,,,,,,,METAR,14.0
KOVS 200553Z AUTO 21003KT 10SM CLR 07/04 A3018 RMK AO2 SLP221 T00670044 10161 20061 401830061 51006,KOVS,2023-05-20T05:53:00Z,43.15,-90.68,6.7,4.4,210,3,,10.0,30.180119,1022.1,,TRUE,TRUE,,,,,,,CLR,,,,,,,,VFR,0.6,16.1,6.1,18.3,6.1,,,,,,,METAR,205.0
KOTM 200553Z AUTO 34007KT 10SM CLR 07/04 A3018 RMK AO2 SLP222 T00670039 10172 20067 402110067 51007,KOTM,2023-05-20T05:53:00Z,41.1,-92.45,6.7,3.9,340,7,,10.0,30.180119,1022.2,,TRUE,TRUE,,,,,,,CLR,,,,,,,,VFR,0.7,17.2,6.7,21.1,6.7,,,,,,,METAR,254.0
KOSU 200553Z AUTO 30009KT 10SM SCT028 OVC110 19/15 A2998 RMK AO2 SLP144 T01940150 10250 20194 58002,KOSU,2023-05-20T05:53:00Z,40.08,-83.08,19.4,15.0,300,9,,10.0,29.97933,1014.4,,TRUE,TRUE,,,,,,,SCT,2800,OVC,11000,,,,,VFR,-0.2,25.0,19.4,,,,,,,,,METAR,276.0
KOSH 200553Z AUTO 34014G21KT 10SM OVC055 10/04 A3010 RMK AO2 SLP192 T01000044 10144 20089 401720089 50003,KOSH,2023-05-20T05:53:00Z,43.98,-88.55,10.0,4.4,340,14,21,10.0,30.100393,1019.2,,TRUE,TRUE,,,,,,,OVC,5500,,,,,,,VFR,0.3,14.4,8.9,17.2,8.9,,,,,,,METAR,239.0
KORL 200553Z AUTO 04005KT 10SM BKN100 23/21 A3001 RMK AO2 RAE29 SLP164 P0002 60070 T02330211 10272 20228 58014,KORL,2023-05-20T05:53:00Z,28.55,-81.33,23.3,21.1,40,5,,10.0,30.008858,1016.4,,TRUE,TRUE,,,,,,,BKN,10000,,,,,,,VFR,-1.4,27.2,22.8,,,0.02,,0.7,,,,METAR,32.0
KOQT 200553Z AUTO 00000KT 10SM CLR 20/17 A3006 RMK AO2 SLP168 T02000167 10250 20200 58005 $,KOQT,2023-05-20T05:53:00Z,36.02,-84.23,20.0,16.7,0,0,,10.0,30.059055,1016.8,,TRUE,TRUE,TRUE,,,,,,CLR,,,,,,,,VFR,-0.5,25.0,20.0,,,,,,,,,METAR,276.0
KOPF 200553Z AUTO 00000KT 10SM CLR 26/22 A2998 RMK AO2 SLP154 T02560222 10272 20250 58009,KOPF,2023-05-20T05:53:00Z,25.92,-80.28,25.6,22.2,0,0,,10.0,29.97933,1015.4,,TRUE,TRUE,,,,,,,CLR,,,,,,,,VFR,-0.9,27.2,25.0,,,,,,,,,METAR,1.0
KONO 200553Z AUTO 29003KT 10SM CLR 19/11 A3006 RMK AO2 SLP168 T01890111 10328 20189 51012,KONO,2023-05-20T05:53:00Z,44.02,-117.02,18.9,11.1,290,3,,10.0,30.059055,1016.8,,TRUE,TRUE,,,,,,,CLR,,,,,,,,VFR,1.2,32.8,18.9,,,,,,,,,METAR,668.0
KOMK 200553Z AUTO 28008KT 10SM CLR 23/11 A3000 RMK AO2 SLP149 T02280106 10333 20206 51018,KOMK,2023-05-20T05:53:00Z,48.47,-119.52,22.8,10.6,280,8,,10.0,30.0,1014.9,,TRUE,TRUE,,,,,,,CLR,,,,,,,,VFR,1.8,33.3,20.6,,,,,,,,,METAR,395.0
KOJC 200553Z AUTO 01008KT 10SM CLR 12/08 A3020 RMK AO2 SLP225 T01170083 10156 20106 402000106 53011,KOJC,2023-05-20T05:53:00Z,38.85,-94.73,11.7,8.3,10,8,,10.0,30.200787,1022.5,,TRUE,TRUE,,,,,,,CLR,,,,,,,,VFR,1.1,15.6,10.6,20.0,10.6,,,,,,,METAR,328.0
KOGB 200553Z AUTO 02005KT 9SM FEW009 OVC018 19/18 A3007 RMK AO2 SLP180 T01890183 10200 20189 58011,KOGB,2023-05-20T05:53:00Z,33.47,-80.85,18.9,18.3,20,5,,9.0,30.070866,1018.0,,TRUE,TRUE,,,,,,,FEW,900,OVC,1800,,,,,MVFR,-1.1,20.0,18.9,,,,,,,,,METAR,59.0
KODX 200553Z AUTO 00000KT 10SM CLR 07/05 A3027 RMK AO2 SLP254 T00720050 10172 20056 401890056 50001,KODX,2023-05-20T05:53:00Z,41.62,-98.95,7.2,5.0,0,0,,10.0,30.268702,1025.4,,TRUE,TRUE,,,,,,,CLR,,,,,,,,VFR,0.1,17.2,5.6,18.9,5.6,,,,,,,METAR,628.0
KOAK 200553Z 27012KT 10SM OVC010 13/10 A3010 RMK AO2 SLP193 T01280100 10161 20128 51011,KOAK,2023-05-20T05:53:00Z,37.72,-122.23,12.8,10.0,270,12,,10.0,30.100393,1019.3,,,TRUE,,,,,,,OVC,1000,,,,,,,MVFR,1.1,16.1,12.8,,,,,,,,,METAR,3.0
KNY0 200553Z AUTO 15005KT 10SM OVC090 12/08 A3014 RMK AO2,KNY0,2023-05-20T05:53:00Z,42.98,-74.33,12.0,8.0,150,5,,10.0,30.138779,,,TRUE,TRUE,,,,,,,OVC,9000,,,,,,,VFR,,,,,,,,,,,,SPECI,266.0
KNUI 200553Z AUTO 05005KT 10SM OVC007 17/16 A3010 RMK AO2 SLP192 T01720161 10183 20161 56026,KNUI,2023-05-20T05:53:00Z,38.15,-76.43,17.2,16.1,50,5,,10.0,30.100393,1019.2,,TRUE,TRUE,,,,,,,OVC,700,,,,,,,IFR,-2.6,18.3,16.1,,,,,,,,,METAR,4.0
KNSI 200553Z AUTO 31004KT 10SM OVC004 14/12 A3009 RMK AO2 SLP183 T01390122 10156 20139 52012 $,KNSI,2023-05-20T05:53:00Z,33.23,-119.45,13.9,12.2,310,4,,10.0,30.088583,1018.3,,TRUE,TRUE,TRUE,,,,,,OVC,400,,,,,,,LIFR,1.2,15.6,13.9,,,,,,,,,SPECI,161.0
KNRS 200553Z AUTO 25004KT 10SM OVC013 16/13 A3009 RMK AO2 SLP188 T01610133 10178 20161 52013,KNRS,2023-05-20T05:53:00Z,32.57,-117.12,16.1,13.3,250,4,,10.0,30.088583,1018.8,,TRUE,TRUE,,,,,,,OVC,1300,,,,,,,MVFR,1.3,17.8,16.1,,,,,,,,,METAR,15.0
KNQX 200553Z AUTO 06003KT 10SM CLR A2997 RMK AO2 SLP149 60016 58017 $,KNQX,2023-05-20T05:53:00Z,24.57,-81.67,,,60,3,,10.0,29.970472,1014.9,,TRUE,TRUE,TRUE,,,,,,CLR,,,,,,,,VFR,-1.7,,,,,,,,,,,SPECI,2.0
KNIP 200553Z AUTO 06006KT 10SM CLR 23/20 A3003 RMK AO2 SLP164 T02330200 10250 20233 58018,KNIP,2023-05-20T05:53:00Z,30.23,-81.67,23.3,20.0,60,6,,10.0,30.029528,1016.4,,TRUE,TRUE,,,,,,,CLR,,,,,,,,VFR,-1.8,25.0,23.3,,,,,,,,,METAR,3.0
KNEW 200553Z 21007KT 10SM SCT022 26/22 A3000 RMK AO2 SLP153 T02610222 10306 20256 403220233 50001,KNEW,2023-05-20T05:53:00Z,30.05,-90.03,26.1,22.2,210,7,,10.0,30.0,1015.3,,,TRUE,,,,,,,SCT,2200,,,,,,,VFR,0.1,30.6,25.6,32.2,23.3,,,,,,,METAR,1.0
KMYV 200553Z AUTO 15011KT 10SM CLR 21/13 A2996 RMK AO2 SLP149 T02110128 10322 20211 52016,KMYV,2023-05-20T05:53:00Z,39.1,-121.57,21.1,12.8,150,11,,10.0,29.958662,1014.9,,TRUE,TRUE,,,,,,,CLR,,,,,,,,VFR,1.6,32.2,21.1,,,,,,,,,METAR,18.0
KMYF 200553Z AUTO 24004KT 7SM OVC009 16/13 A3008 RMK AO2 SLP184 T01560133 10172 20156 52014,KMYF,2023-05-20T05:53:00Z,32.82,-117.13,15.6,13.3,240,4,,7.0,30.079725,1018.4,,TRUE,TRUE,,,,,,,OVC,900,,,,,,,IFR,1.4,17.2,15.6,,,,,,,,,METAR,128.0
KMVY 200553Z AUTO 15007KT 10SM FEW043 OVC060 14/13 A3025 RMK AO2 SLP245 T01390128 10139 20117 58017,KMVY,2023-05-20T05:53:00Z,41.4,-70.62,13.9,12.8,150,7,,10.0,30.250984,1024.5,,TRUE,TRUE,,,,,,,FEW,4300,OVC,6000,,,,,VFR,-1.7,13.9,11.7,,,,,,,,,METAR,18.0
KMTO 200553Z AUTO 34009KT 10SM OVC100 15/09 A3005 RMK AO2 SLP173 60001 T01500089 10178 20144 402670144 51003,KMTO,2023-05-20T05:53:00Z,39.47,-88.27,15.0,8.9,340,9,,10.0,30.050198,1017.3,,TRUE,TRUE,,,,,,,OVC,10000,,,,,,,VFR,0.3,17.8,14.4,26.7,14.4,,,0.01,,,,METAR,216.0
KMTJ 200553Z AUTO 00000KT 10SM BKN120 15/06 A3032 RMK AO2 SLP203 T01500061 10211 20150 51020,KMTJ,2023-05-20T05:53:00Z,38.5,-107.9,15.0,6.1,0,0,,10.0,30.318897,1020.3,,TRUE,TRUE,,,,,,,BKN,12000,,,,,,,VFR,2.0,21.1,15.0,,,,,,,,,METAR,1755.0
KMSY 200553Z 19003KT 10SM SCT250 25/22 A3000 RMK AO2 SLP162 T02500222 10300 20250 403220217 50002,KMSY,2023-05-20T05:53:00Z,30.0,-90.25,25.0,22.2,190,3,,10.0,30.0,1016.2,,,TRUE,,,,,,,SCT,25000,,,,,,,VFR,0.2,30.0,25.0,32.2,21.7,,,,,,,METAR,0.0
KMSS 200553Z AUTO 00000KT 10SM BKN075 BKN090 14/12 A3002 RMK AO2 SLP166 T01390122 10217 20133 58005,KMSS,2023-05-20T05:53:00Z,44.93,-74.85,13.9,12.2,0,0,,10.0,30.02067,1016.6,,TRUE,TRUE,,,,,,,BKN,7500,BKN,9000,,,,,VFR,-0.5,21.7,13.3,,,,,,,,,METAR,60.0
KMSP 200553Z 34004KT 10SM CLR 09/06 A3024 RMK AO2 SLP243 T00940056 10156 20094 401610067 51006 $,KMSP,2023-05-20T05:53:00Z,44.88,-93.23,9.4,5.6,340,4,,10.0,30.239174,1024.3,,,TRUE,TRUE,,,,,,CLR,,,,,,,,VFR,0.6,15.6,9.4,16.1,6.7,,,,,,,METAR,255.0
KMSO 200553Z AUTO 33003KT 8SM FU CLR 17/09 A3011 RMK AO2 SLP182 T01670094 10294 20161 51017,KMSO,2023-05-20T05:53:00Z,46.92,-114.1,16.7,9.4,330,3,,8.0,30.109253,1018.2,,TRUE,TRUE,,,,,,FU,CLR,,,,,,,,VFR,1.7,29.4,16.1,,,,,,,,,METAR,974.0
KMSN 200553Z AUTO 33005KT 10SM CLR 10/05 A3012 RMK AO2 SLP203 T01000050 10144 20094 401890094 51005,KMSN,2023-05-20T05:53:00Z,43.13,-89.35,10.0,5.0,330,5,,10.0,30.121063,1020.3,,TRUE,TRUE,,,,,,,CLR,,,,,,,,VFR,0.5,14.4,9.4,18.9,9.4,,,,,,,METAR,262.0
KMSL 200553Z AUTO 15003KT 7SM CLR 19/18 A3004 RMK AO2 SLP166 T01940178 10228 20194 402390194 55007 PWINO,KMSL,2023-05-20T05:53:00Z,34.75,-87.6,19.4,17.8,150,3,,7.0,30.041338,1016.6,,TRUE,TRUE,,,,,TRUE,,CLR,,,,,,,,VFR,-0.7,22.8,19.4,23.9,19.4,,,,,,,METAR,170.0
KMRB 200553Z AUTO 00000KT 10SM CLR 11/09 A3011 RMK AO2 SLP195 T01110094 10183 20106 58013,KMRB,2023-05-20T05:53:00Z,39.4,-77.98,11.1,9.4,0,0,,10.0,30.109253,1019.5,,TRUE,TRUE,,,,,,,CLR,,,,,,,,VFR,-1.3,18.3,10.6,,,,,,,,,METAR,165.0
KMPO 200553Z AUTO 11003KT 10SM CLR 09/07 A3017 RMK AO2 SLP218 T00940072 10156 20094 58014,KMPO,2023-05-20T05:53:00Z,41.13,-75.38,9.4,7.2,110,3,,10.0,30.171259,1021.8,,TRUE,TRUE,,,,,,,CLR,,,,,,,,VFR,-1.4,15.6,9.4,,,,,,,,,METAR,576.0
KMOD 200553Z 35008KT 10SM CLR 20/08 A2998 RMK AO2 SLP150 T02000078 10311 20200 51013,KMOD,2023-05-20T05:53:00Z,37.62,-120.95,20.0,7.8,350,8,,10.0,29.97933,1015.0,,,TRUE,,,,,,,CLR,,,,,,,,VFR,1.3,31.1,20.0,,,,,,,,,METAR,25.0
KMMV 200553Z AUTO 23009KT 10SM CLR 14/12 A3008 RMK AO2 SLP184 T01440117 10278 20144 53025,KMMV,2023-05-20T05:53:00Z,45.2,-123.13,14.4,11.7,230,9,,10.0,30.079725,1018.4,,TRUE,TRUE,,,,,,,CLR,,,,,,,,VFR,2.5,27.8,14.4,,,,,,,,,METAR,48.0
KMMK 200553Z AUTO 00000KT 10SM CLR 08/06 A3022 RMK AO2 SLP233 T00830061 10156 20083 58019,KMMK,2023-05-20T05:53:00Z,41.52,-72.83,8.3,6.1,0,0,,10.0,30.221457,1023.3,,TRUE,TRUE,,,,,,,CLR,,,,,,,,VFR,-1.9,15.6,8.3,,,,,,,,,METAR,30.0
KMLU 200553Z AUTO 20003KT 10SM CLR 23/21 A3000 RMK AO2 SLP157 T02280211 10306 20222 403280189 51015,KMLU,2023-05-20T05:53:00Z,32.52,-92.03,22.8,21.1,200,3,,10.0,30.0,1015.7,,TRUE,TRUE,,,,,,,CLR,,,,,,,,VFR,1.5,30.6,22.2,32.8,18.9,,,,,,,METAR,22.0
KMLT 200553Z AUTO 00000KT 10SM CLR 09/07 A3017 RMK AO2 SLP220 T00890072 10133 20083 56005,KMLT,2023-05-20T05:53:00Z,45.65,-68.7,8.9,7.2,0,0,,10.0,30.171259,1022.0,,TRUE,TRUE,,,,,,,CLR,,,,,,,,VFR,-0.5,13.3,8.3,,,,,,,,,METAR,121.0
KMLP 200553Z AUTO 34004KT 10SM CLR 15/05 A3027 RMK AO2 SLP155 T01500050 10206 20133 51008,KMLP,2023-05-20T05:53:00Z,47.45,-115.67,15.0,5.0,340,4,,10.0,30.268702,1015.5,,TRUE,TRUE,,,,,,,CLR,,,,,,,,VFR,0.8,20.6,13.3,,,,,,,,,METAR,1837.0
KMLB 200553Z AUTO 23004KT 10SM FEW065 24/21 A3000 RMK AO2 SLP156 T02440211 10278 20244 58013,KMLB,2023-05-20T05:53:00Z,28.1,-80.65,24.4,21.1,230,4,,10.0,30.0,1015.6,,TRUE,TRUE,,,,,,,FEW,6500,,,,,,,VFR,-1.3,27.8,24.4,,,,,,,,,METAR,7.0
KMKL 200553Z AUTO 18007KT 10SM FEW010 SCT090 BKN120 21/19 A3000 RMK AO2 LTG DSNT W SLP156 T02110194 10239 20211 402610183 55004,KMKL,2023-05-20T05:53:00Z,35.6,-88.92,21.1,19.4,180,7,,10.0,30.0,1015.6,,TRUE,TRUE,,,,,,,FEW,1000,SCT,9000,BKN,12000,,,VFR,-0.4,23.9,21.1,26.1,18.3,,,,,,,METAR,130.0
KMIW 200553Z AUTO 32005KT 10SM CLR 07/04 A3020 RMK AO2 SLP229 T00670039 10144 20067 401780067 50006,KMIW,2023-05-20T05:53:00Z,42.12,-92.92,6.7,3.9,320,5,,10.0,30.200787,1022.9,,TRUE,TRUE,,,,,,,CLR,,,,,,,,VFR,0.6,14.4,6.7,17.8,6.7,,,,,,,METAR,296.0
KMIE 200553Z AUTO 35011KT 5SM -RA SCT009 OVC015 15/12 A3002 RMK AO2 WSHFT 0533 SLP155 P0004 60054 T01500117 10183 20150 53007,KMIE,2023-05-20T05:53:00Z,40.23,-85.4,15.0,11.7,350,11,,5.0,30.02067,1015.5,,TRUE,TRUE,,,,,,-RA,SCT,900,OVC,1500,,,,,MVFR,0.7,18.3,15.0,,,0.04,,0.54,,,,METAR,286.0
KMIC 200553Z AUTO 00000KT 10SM CLR 08/04 A3023 RMK AO2 SLP240 T00780044 10150 20061 401610061 50005,KMIC,2023-05-20T05:53:00Z,45.07,-93.35,7.8,4.4,0,0,,10.0,30.230314,1024.0,,TRUE,TRUE,,,,,,,CLR,,,,,,,,VFR,0.5,15.0,6.1,16.1,6.1,,,,,,,METAR,263.0
KMIA 200553Z 00000KT 10SM SCT025 SCT250 26/23 A2998 RMK AO2 SLP152 T02610228 10283 20256 58008 $,KMIA,2023-05-20T05:53:00Z,25.8,-80.32,26.1,22.8,0,0,,10.0,29.97933,1015.2,,,TRUE,TRUE,,,,,,SCT,2500,SCT,25000,,,,,VFR,-0.8,28.3,25.6,,,,,,,,,METAR,1.0
KMHT 200553Z 18005KT 10SM BKN250 11/06 A3021 RMK AO2 SLP243 T01110056 10189 20111 58007,KMHT,2023-05-20T05:53:00Z,42.93,-71.43,11.1,5.6,180,5,,10.0,30.209646,1024.3,,,TRUE,,,,,,,BKN,25000,,,,,,,VFR,-0.7,18.9,11.1,,,,,,,,,METAR,68.0
KMHE 200553Z AUTO 00000KT 10SM CLR 08/04 A3028 RMK AO2 SLP260 T00830039 10183 20083 401830050 50008,KMHE,2023-05-20T05:53:00Z,43.77,-98.03,8.3,3.9,0,0,,10.0,30.280512,1026.0,,TRUE,TRUE,,,,,,,CLR,,,,,,,,VFR,0.8,18.3,8.3,18.3,5.0,,,,,,,METAR,397.0
KMGY 200553Z AUTO 30003KT 10SM FEW048 SCT055 BKN120 17/16 A2999 RMK AO2 RAE18 SLP148 P0001 60001 T01720156 10233 20172 58007,KMGY,2023-05-20T05:53:00Z,39.6,-84.23,17.2,15.6,300,3,,10.0,29.991142,1014.8,,TRUE,TRUE,,,,,,,FEW,4800,SCT,5500,BKN,12000,,,VFR,-0.7,23.3,17.2,,,0.01,,0.01,,,,METAR,290.0
KMGW 200553Z AUTO 15004KT 10SM SCT095 17/11 A3003 RMK AO2 SLP160 T01720106 10239 20172 58012 $,KMGW,2023-05-20T05:53:00Z,39.65,-79.92,17.2,10.6,150,4,,10.0,30.029528,1016.0,,TRUE,TRUE,TRUE,,,,,,SCT,9500,,,,,,,VFR,-1.2,23.9,17.2,,,,,,,,,METAR,375.0
KMGM 200553Z AUTO 13003KT 10SM CLR 19/18 A3006 RMK AO2 SLP176 T01890178 10239 20189 402560189 58009,KMGM,2023-05-20T05:53:00Z,32.3,-86.4,18.9,17.8,130,3,,10.0,30.059055,1017.6,,TRUE,TRUE,,,,,,,CLR,,,,,,,,VFR,-0.9,23.9,18.9,25.6,18.9,,,,,,,METAR,64.0
KMFR 200553Z AUTO 00000KT 10SM CLR 23/13 A3005 RMK AO2 SLP163 T02280133 10328 20228 51030,KMFR,2023-05-20T05:53:00Z,42.38,-122.87,22.8,13.3,0,0,,10.0,30.050198,1016.3,,TRUE,TRUE,,,,,,,CLR,,,,,,,,VFR,3.0,32.8,22.8,,,,,,,,,METAR,397.0
KMFE 200553Z AUTO 15007KT 10SM CLR 25/24 A3001 RMK AO2 SLP160 T02500239 10294 20250 403330239 51005,KMFE,2023-05-20T05:53:00Z,26.18,-98.25,25.0,23.9,150,7,,10.0,30.008858,1016.0,,TRUE,TRUE,,,,,,,CLR,,,,,,,,VFR,0.5,29.4,25.0,33.3,23.9,,,,,,,METAR,29.0
KMDW 200553Z 33008KT 10SM CLR 13/04 A3007 RMK AO2 SLP182 T01280044 10178 20122 402390122 50003 $,KMDW,2023-05-20T05:53:00Z,41.78,-87.75,12.8,4.4,330,8,,10.0,30.070866,1018.2,,,TRUE,TRUE,,,,,,CLR,,,,,,,,VFR,0.3,17.8,12.2,23.9,12.2,,,,,,,METAR,186.0
KMCW 200553Z AUTO 30005KT 10SM CLR 06/03 A3024 RMK AO2 SLP239 T00610033 10122 20056 401390056 51006,KMCW,2023-05-20T05:53:00Z,43.15,-93.33,6.1,3.3,300,5,,10.0,30.239174,1023.9,,TRUE,TRUE,,,,,,,CLR,,,,,,,,VFR,0.6,12.2,5.6,13.9,5.6,,,,,,,METAR,363.0
KMCO 200553Z 04007KT 10SM FEW025 SCT048 SCT120 OVC250 23/21 A3001 RMK AO2 RAE0456 SLP159 P0000 60000 T02330211 10267 20233 58012,KMCO,2023-05-20T05:53:00Z,28.42,-81.33,23.3,21.1,40,7,,10.0,30.008858,1015.9,,,TRUE,,,,,,,FEW,2500,SCT,4800,SCT,12000,OVC,25000,VFR,-1.2,26.7,23.3,,,0.005,,0.005,,,,METAR,27.0
KMCN 200553Z AUTO 00000KT 10SM BKN023 17/17 A3008 RMK AO2 SLP184 T01720167 10217 20167 56005,KMCN,2023-05-20T05:53:00Z,32.68,-83.65,17.2,16.7,0,0,,10.0,30.079725,1018.4,,TRUE,TRUE,,,,,,,BKN,2300,,,,,,,MVFR,-0.5,21.7,16.7,,,,,,,,,METAR,104.0
KMCK 200553Z AUTO 00000KT 10SM CLR 09/05 A3030 RMK AO2 SLP257 T00890050 10183 20078 401940078 50003 $,KMCK,2023-05-20T05:53:00Z,40.2,-100.58,8.9,5.0,0,0,,10.0,30.301182,1025.7,,TRUE,TRUE,TRUE,,,,,,CLR,,,,,,,,VFR,0.3,18.3,7.8,19.4,7.8,,,,,,,METAR,780.0
KMCI 200553Z 03006KT 10SM CLR 09/07 A3021 RMK AO2 SLP230 T00940067 10172 20094 401940094 53017,KMCI,2023-05-20T05:53:00Z,39.3,-94.73,9.4,6.7,30,6,,10.0,30.209646,1023.0,,,TRUE,,,,,,,CLR,,,,,,,,VFR,1.7,17.2,9.4,19.4,9.4,,,,,,,METAR,308.0
KMCE 200553Z AUTO 31003KT 10SM CLR 22/11 A2998 RMK AO2 SLP151 T02170106 10328 20211 51018,KMCE,2023-05-20T05:53:00Z,37.28,-120.5,21.7,10.6,310,3,,10.0,29.97933,1015.1,,TRUE,TRUE,,,,,,,CLR,,,,,,,,VFR,1.8,32.8,21.1,,,,,,,,,METAR,49.0
KMCB 200553Z AUTO 10003KT 8SM CLR 22/21 A3001 RMK AO2 SLP154 T02220211 10306 20222 403170183 51001,KMCB,2023-05-20T05:53:00Z,31.18,-90.47,22.2,21.1,100,3,,8.0,30.008858,1015.4,,TRUE,TRUE,,,,,,,CLR,,,,,,,,VFR,0.1,30.6,22.2,31.7,18.3,,,,,,,METAR,124.0
KMBS 200553Z AUTO 31006KT 10SM CLR 09/07 A2999 RMK AO2 SLP156 T00940067 10172 20094 50001,KMBS,2023-05-20T05:53:00Z,43.53,-84.08,9.4,6.7,310,6,,10.0,29.991142,1015.6,,TRUE,TRUE,,,,,,,CLR,,,,,,,,VFR,0.1,17.2,9.4,,,,,,,,,METAR,201.0
KMAI 200553Z AUTO 00000KT 10SM CLR 19/18 A3004 RMK AO2 SLP169 T01940183 10244 20194 402830194 58012,KMAI,2023-05-20T05:53:00Z,30.83,-85.18,19.4,18.3,0,0,,10.0,30.041338,1016.9,,TRUE,TRUE,,,,,,,CLR,,,,,,,,VFR,-1.2,24.4,19.4,28.3,19.4,,,,,,,METAR,33.0
KMAE 200553Z AUTO 29007KT 10SM CLR 21/12 A2999 RMK AO2 SLP152 T02060122 10333 20206 51019,KMAE,2023-05-20T05:53:00Z,36.98,-120.12,20.6,12.2,290,7,,10.0,29.991142,1015.2,,TRUE,TRUE,,,,,,,CLR,,,,,,,,VFR,1.9,33.3,20.6,,,,,,,,,METAR,77.0
KLXV 200553Z AUTO 04003KT 10SM OVC004 02/02 A3048 RMK AO2 SLP206 60001 T00220022 10050 20017 50001,KLXV,2023-05-20T05:53:00Z,39.23,-106.32,2.2,2.2,40,3,,10.0,30.481298,1020.6,,TRUE,TRUE,,,,,,,OVC,400,,,,,,,LIFR,0.1,5.0,1.7,,,,,0.01,,,,METAR,3027.0
KLXT 200553Z AUTO 01009KT 10SM CLR 11/08 A3020 RMK AO2 SLP228 T01060078 10144 20094 402060094 53013,KLXT,2023-05-20T05:53:00Z,38.97,-94.37,10.6,7.8,10,9,,10.0,30.200787,1022.8,,TRUE,TRUE,,,,,,,CLR,,,,,,,,VFR,1.3,14.4,9.4,20.6,9.4,,,,,,,METAR,306.0
KLWV 200553Z AUTO 34005KT 5SM BR OVC100 17/16 A3005 RMK AO2 SLP173 60020 T01720156 10211 20172 402780122 51010,KLWV,2023-05-20T05:53:00Z,38.77,-87.6,17.2,15.6,340,5,,5.0,30.050198,1017.3,,TRUE,TRUE,,,,,,BR,OVC,10000,,,,,,,MVFR,1.0,21.1,17.2,27.8,12.2,,,0.2,,,,METAR,128.0
KLWD 200553Z AUTO 36007KT 10SM CLR 08/04 A3021 RMK AO2 SLP233 T00780039 10178 20078 401830078 51009,KLWD,2023-05-20T05:53:00Z,40.63,-93.9,7.8,3.9,360,7,,10.0,30.209646,1023.3,,TRUE,TRUE,,,,,,,CLR,,,,,,,,VFR,0.9,17.8,7.8,18.3,7.8,,,,,,,METAR,345.0
KLVS 200553Z AUTO 05006KT 1 3/4SM BR OVC005 08/07 A3044 RMK AO2 SLP247 T00830072 10100 20083 50005,KLVS,2023-05-20T05:53:00Z,35.65,-105.13,8.3,7.2,50,6,,1.75,30.43996,1024.7,,TRUE,TRUE,,,,,,BR,OVC,500,,,,,,,IFR,0.5,10.0,8.3,,,,,,,,,METAR,2095.0
KLVK 200553Z AUTO 27007KT 10SM CLR 12/10 A3007 RMK AO2 SLP180 T01170100 10228 20117 51014,KLVK,2023-05-20T05:53:00Z,37.7,-121.82,11.7,10.0,270,7,,10.0,30.070866,1018.0,,TRUE,TRUE,,,,,,,CLR,,,,,,,,VFR,1.4,22.8,11.7,,,,,,,,,METAR,120.0
KLVJ 200553Z AUTO 27004KT 10SM CLR 24/22 A3005 RMK AO2 SLP176 T02440217 10306 20244 403390222 53009,KLVJ,2023-05-20T05:53:00Z,29.52,-95.25,24.4,21.7,270,4,,10.0,30.050198,1017.6,,TRUE,TRUE,,,,,,,CLR,,,,,,,,VFR,0.9,30.6,24.4,33.9,22.2,,,,,,,METAR,11.0
KLUK 200553Z AUTO 29004KT 6SM -RA FEW039 BKN050 OVC095 19/16 A2999 RMK AO2 RAB40 SLP153 P0000 60000 T01940156 10222 20167 58002,KLUK,2023-05-20T05:53:00Z,39.1,-84.42,19.4,15.6,290,4,,6.0,29.991142,1015.3,,TRUE,TRUE,,,,,,-RA,FEW,3900,BKN,5000,OVC,9500,,,VFR,-0.2,22.2,16.7,,,0.005,,0.005,,,,METAR,144.0
KLSE 200553Z AUTO 33004KT 10SM CLR 09/05 A3018 RMK AO2 SLP220 T00890050 10156 20078 401670078 50003,KLSE,2023-05-20T05:53:00Z,43.88,-91.25,8.9,5.0,330,4,,10.0,30.180119,1022.0,,TRUE,TRUE,,,,,,,CLR,,,,,,,,VFR,0.3,15.6,7.8,16.7,7.8,,,,,,,METAR,198.0
KLPR 200553Z AUTO 32009KT 280V340 4SM -RA BR SCT006 OVC011 17/16 A2996 RMK AO2 SLP139 P0018 60039 T01670161 10244 20167 58004,KLPR,2023-05-20T05:53:00Z,41.35,-82.18,16.7,16.1,320,9,,4.0,29.958662,1013.9,,TRUE,TRUE,,,,,,-RA BR,SCT,600,OVC,1100,,,,,MVFR,-0.4,24.4,16.7,,,0.18,,0.39,,,,METAR,241.0
KLOZ 200553Z AUTO 21004KT 10SM FEW023 SCT029 BKN038 20/17 A3004 RMK AO2 SLP161 T02000167 10250 20200 58003,KLOZ,2023-05-20T05:53:00Z,37.08,-84.07,20.0,16.7,210,4,,10.0,30.041338,1016.1,,TRUE,TRUE,,,,,,,FEW,2300,SCT,2900,BKN,3800,,,VFR,-0.3,25.0,20.0,,,,,,,,,METAR,361.0
KLOL 200553Z AUTO 17006KT 10SM CLR 15/03 A3008 RMK AO2 SLP151 T01500028 10311 20150 51011,KLOL,2023-05-20T05:53:00Z,40.07,-118.57,15.0,2.8,170,6,,10.0,30.079725,1015.1,,TRUE,TRUE,,,,,,,CLR,,,,,,,,VFR,1.1,31.1,15.0,,,,,,,,,METAR,1191.0
KLNS 200553Z AUTO 05003KT 10SM CLR 12/10 A3016 RMK AO2 SLP210 T01220100 10183 20117 58016,KLNS,2023-05-20T05:53:00Z,40.12,-76.3,12.2,10.0,50,3,,10.0,30.159449,1021.0,,TRUE,TRUE,,,,,,,CLR,,,,,,,,VFR,-1.6,18.3,11.7,,,,,,,,,METAR,122.0
KLND 200553Z AUTO 00000KT 10SM CLR 11/03 A3026 RMK AO2 SLP209 T01060033 10206 20100 50005,KLND,2023-05-20T05:53:00Z,42.82,-108.73,10.6,3.3,0,0,,10.0,30.259842,1020.9,,TRUE,TRUE,,,,,,,CLR,,,,,,,,VFR,0.5,20.6,10.0,,,,,,,,,METAR,1700.0
KLMT 200553Z AUTO 29008KT 10SM CLR 19/12 A3013 RMK AO2 SLP159 T01890117 10300 20189 51024,KLMT,2023-05-20T05:53:00Z,42.15,-121.72,18.9,11.7,290,8,,10.0,30.129921,1015.9,,TRUE,TRUE,,,,,,,CLR,,,,,,,,VFR,2.4,30.0,18.9,,,,,,,,,METAR,1246.0
KLKV 200553Z AUTO 01005KT 10SM FEW120 15/11 A3016 RMK AO2 SLP175 60000 T01500106 10294 20150 50016,KLKV,2023-05-20T05:53:00Z,42.17,-120.4,15.0,10.6,10,5,,10.0,30.159449,1017.5,,TRUE,TRUE,,,,,,,FEW,12000,,,,,,,VFR,1.6,29.4,15.0,,,,,0.005,,,,METAR,1440.0
KLHX 200553Z AUTO 15005KT 3SM BR BKN046 11/09 A3035 RMK AO2 SLP248 T01110089 10161 20111 50004,KLHX,2023-05-20T05:53:00Z,38.05,-103.52,11.1,8.9,150,5,,3.0,30.351377,1024.8,,TRUE,TRUE,,,,,,BR,BKN,4600,,,,,,,MVFR,0.4,16.1,11.1,,,,,,,,,METAR,1289.0
KLHQ 200553Z AUTO 24004KT 10SM FEW032 FEW085 19/16 A2997 RMK AO2 SLP143 T01940161 10233 20194 58007,KLHQ,2023-05-20T05:53:00Z,39.75,-82.67,19.4,16.1,240,4,,10.0,29.970472,1014.3,,TRUE,TRUE,,,,,,,FEW,3200,FEW,8500,,,,,VFR,-0.7,23.3,19.4,,,,,,,,,METAR,259.0
KLGB 200553Z 26004KT 10SM OVC016 17/13 A3006 RMK AO2 SLP180 T01720128 10194 20172 50006,KLGB,2023-05-20T05:53:00Z,33.82,-118.15,17.2,12.8,260,4,,10.0,30.059055,1018.0,,,TRUE,,,,,,,OVC,1600,,,,,,,MVFR,0.6,19.4,17.2,,,,,,,,,METAR,10.0
KLFT 200553Z AUTO 22004KT 10SM CLR 26/23 A2999 RMK AO2 SLP155 T02610233 10317 20250 403330211 51002,KLFT,2023-05-20T05:53:00Z,30.2,-91.97,26.1,23.3,220,4,,10.0,29.991142,1015.5,,TRUE,TRUE,,,,,,,CLR,,,,,,,,VFR,0.2,31.7,25.0,33.3,21.1,,,,,,,METAR,9.0
KLFK 200553Z AUTO 20003KT 10SM CLR 26/22 A3003 RMK AO2 SLP164 T02560217 10311 20256 403390200 53018,KLFK,2023-05-20T05:53:00Z,31.23,-94.75,25.6,21.7,200,3,,10.0,30.029528,1016.4,,TRUE,TRUE,,,,,,,CLR,,,,,,,,VFR,1.8,31.1,25.6,33.9,20.0,,,,,,,METAR,87.0
KLEE 200553Z AUTO 04007KT 10SM SCT012 OVC019 23/22 A3003 RMK AO2 SLP166 60007 T02330222 10261 20222 58013,KLEE,2023-05-20T05:53:00Z,28.82,-81.82,23.3,22.2,40,7,,10.0,30.029528,1016.6,,TRUE,TRUE,,,,,,,SCT,1200,OVC,1900,,,,,MVFR,-1.3,26.1,22.2,,,,,0.07,,,,METAR,21.0
KLEB 200553Z 20006KT 10SM CLR 14/07 A3017 RMK AO2 SLP211 T01390067 10183 20133 58001,KLEB,2023-05-20T05:53:00Z,43.63,-72.3,13.9,6.7,200,6,,10.0,30.171259,1021.1,,,TRUE,,,,,,,CLR,,,,,,,,VFR,-0.1,18.3,13.3,,,,,,,,,METAR,169.0
KLCH 200553Z AUTO 26005KT 10SM CLR 24/23 A3000 RMK AO2 SLP165 T02440228 10283 20244 403170194 58000,KLCH,2023-05-20T05:53:00Z,30.13,-93.22,24.4,22.8,260,5,,10.0,30.0,1016.5,,TRUE,TRUE,,,,,,,CLR,,,,,,,,VFR,0.0,28.3,24.4,31.7,19.4,,,,,,,METAR,2.0
KLBX 200553Z AUTO 00000KT 9SM CLR 22/21 A3004 RMK AO2 SLP171 T02220211 10283 20222 403170206 53005,KLBX,2023-05-20T05:53:00Z,29.12,-95.47,22.2,21.1,0,0,,9.0,30.041338,1017.1,,TRUE,TRUE,,,,,,,CLR,,,,,,,,VFR,0.5,28.3,22.2,31.7,20.6,,,,,,,METAR,4.0
KLBF 200553Z AUTO 00000KT 10SM CLR 08/05 A3031 RMK AO2 SLP262 T00780050 10178 20078 401890072 50003,KLBF,2023-05-20T05:53:00Z,41.12,-100.67,7.8,5.0,0,0,,10.0,30.31004,1026.2,,TRUE,TRUE,,,,,,,CLR,,,,,,,,VFR,0.3,17.8,7.8,18.9,7.2,,,,,,,METAR,843.0
KLBB 200553Z 05015G22KT 6SM HZ OVC015 15/12 A3030 RMK AO2 SLP224 60000 T01500117 10222 20150 402670150 53025,KLBB,2023-05-20T05:53:00Z,33.67,-101.82,15.0,11.7,50,15,22,6.0,30.301182,1022.4,,,TRUE,,,,,,HZ,OVC,1500,,,,,,,MVFR,2.5,22.2,15.0,26.7,15.0,,,0.005,,,,METAR,996.0
KLAW 200553Z AUTO 01015KT 5SM HZ CLR 15/11 A3020 RMK AO2 SLP219 T01500111 10189 20150 402890150 51015,KLAW,2023-05-20T05:53:00Z,34.55,-98.42,15.0,11.1,10,15,,5.0,30.200787,1021.9,,TRUE,TRUE,,,,,,HZ,CLR,,,,,,,,MVFR,1.5,18.9,15.0,28.9,15.0,,,,,,,METAR,328.0
KLAR 200553Z AUTO 16010KT 3SM BR CLR 06/04 A3036 RMK AO2 SLP225 T00560044 10139 20056 58000,KLAR,2023-05-20T05:53:00Z,41.32,-105.67,5.6,4.4,160,10,,3.0,30.360237,1022.5,,TRUE,TRUE,,,,,,BR,CLR,,,,,,,,MVFR,0.0,13.9,5.6,,,,,,,,,METAR,2217.0
KLAN 200553Z 32005KT 8SM CLR 11/07 A3001 RMK AO2 SLP160 T01110067 10167 20111 51004,KLAN,2023-05-20T05:53:00Z,42.78,-84.58,11.1,6.7,320,5,,8.0,30.008858,1016.0,,,TRUE,,,,,,,CLR,,,,,,,,VFR,0.4,16.7,11.1,,,,,,,,,METAR,261.0
KLAA 200553Z AUTO 21004KT 2 1/2SM BR CLR 10/08 A3034 RMK AO2 SLP253 T01000083 10172 20100 51007,KLAA,2023-05-20T05:53:00Z,38.07,-102.68,10.0,8.3,210,4,,2.5,30.339567,1025.3,,TRUE,TRUE,,,,,,BR,CLR,,,,,,,,IFR,0.7,17.2,10.0,,,,,,,,,METAR,1129.0
KJKL 200553Z AUTO 00000KT 10SM BKN110 19/16 A3003 RMK AO2 SLP155 T01940156 10239 20194 58006,KJKL,2023-05-20T05:53:00Z,37.6,-83.32,19.4,15.6,0,0,,10.0,30.029528,1015.5,,TRUE,TRUE,,,,,,,BKN,11000,,,,,,,VFR,-0.6,23.9,19.4,,,,,,,,,METAR,414.0
KJER 200553Z AUTO 12008KT 9SM CLR 17/04 A3015 RMK AO2 SLP174 T01670044 10278 20161 51008,KJER,2023-05-20T05:53:00Z,42.72,-114.45,16.7,4.4,120,8,,9.0,30.15059,1017.4,,TRUE,TRUE,,,,,,,CLR,,,,,,,,VFR,0.8,27.8,16.1,,,,,,,,,METAR,1226.0
KJEF 200553Z AUTO 31003KT 10SM SCT070 14/12 A3015 RMK AO2 SLP197 60001 T01390117 10156 20139 402500139 53007 $,KJEF,2023-05-20T05:53:00Z,38.6,-92.15,13.9,11.7,310,3,,10.0,30.15059,1019.7,,TRUE,TRUE,TRUE,,,,,,SCT,7000,,,,,,,VFR,0.7,15.6,13.9,25.0,13.9,,,0.01,,,,METAR,167.0
KJBR 200553Z AUTO 01010KT 10SM -RA FEW044 BKN090 BKN120 20/18 A2999 RMK AO2 SLP153 P0004 60040 T02000183 10267 20200 403060178 50001 $,KJBR,2023-05-20T05:53:00Z,35.83,-90.65,20.0,18.3,10,10,,10.0,29.991142,1015.3,,TRUE,TRUE,TRUE,,,,,-RA,FEW,4400,BKN,9000,BKN,12000,,,VFR,0.1,26.7,20.0,30.6,17.8,0.04,,0.4,,,,METAR,79.0
KIXD 200553Z AUTO 36011KT 10SM CLR 10/08 A3021 RMK AO2 SLP230 T01000078 10150 20094 401890094 53012 $,KIXD,2023-05-20T05:53:00Z,38.82,-94.88,10.0,7.8,360,11,,10.0,30.209646,1023.0,,TRUE,TRUE,TRUE,,,,,,CLR,,,,,,,,VFR,1.2,15.0,9.4,18.9,9.4,,,,,,,METAR,322.0
KIWI 200553Z AUTO 21010KT 10SM CLR 12/07 A3022 RMK AO2 SLP234 T01220067 10133 20122 58005,KIWI,2023-05-20T05:53:00Z,43.97,-69.72,12.2,6.7,210,10,,10.0,30.221457,1023.4,,TRUE,TRUE,,,,,,,CLR,,,,,,,,VFR,-0.5,13.3,12.2,,,,,,,,,METAR,16.0
KITR 200553Z AUTO 23005KT 6SM BR CLR 07/06 A3034 RMK AO2 SLP262 T00720056 10156 20067 51002,KITR,2023-05-20T05:53:00Z,39.23,-102.28,7.2,5.6,230,5,,6.0,30.339567,1026.2,,TRUE,TRUE,,,,,,BR,CLR,,,,,,,,VFR,0.2,15.6,6.7,,,,,,,,,METAR,1285.0
KIPL 200553Z AUTO 14008KT 10SM CLR 28/12 A2991 RMK AO2 SLP130 T02780122 10367 20278 53026,KIPL,2023-05-20T05:53:00Z,32.83,-115.58,27.8,12.2,140,8,,10.0,29.911417,1013.0,,TRUE,TRUE,,,,,,,CLR,,,,,,,,VFR,2.6,36.7,27.8,,,,,,,,,METAR,-16.0
KINK 200553Z AUTO 01013KT 10SM SCT120 19/16 A3020 RMK AO2 SLP182 60012 T01890156 10300 20189 403390161 51034,KINK,2023-05-20T05:53:00Z,31.78,-103.2,18.9,15.6,10,13,,10.0,30.200787,1018.2,,TRUE,TRUE,,,,,,,SCT,12000,,,,,,,VFR,3.4,30.0,18.9,33.9,16.1,,,0.12,,,,METAR,857.0
KIML 200553Z AUTO 00000KT 10SM CLR 09/05 A3031 RMK AO2 SLP260 T00940050 10178 20089 58003,KIML,2023-05-20T05:53:00Z,40.52,-101.62,9.4,5.0,0,0,,10.0,30.31004,1026.0,,TRUE,TRUE,,,,,,,CLR,,,,,,,,VFR,-0.3,17.8,8.9,,,,,,,,,METAR,997.0
KILM 200553Z AUTO 36006KT 8SM OVC006 19/17 A3002 RMK AO2 SLP165 60003 T01890172 10211 20189 58014,KILM,2023-05-20T05:53:00Z,34.27,-77.9,18.9,17.2,360,6,,8.0,30.02067,1016.5,,TRUE,TRUE,,,,,,,OVC,600,,,,,,,IFR,-1.4,21.1,18.9,,,,,0.03,,,,METAR,9.0
KIDA 200553Z AUTO 00000KT 9SM CLR 15/04 A3020 RMK AO2 SLP195 T01500044 10261 20117 51011,KIDA,2023-05-20T05:53:00Z,43.52,-112.07,15.0,4.4,0,0,,9.0,30.200787,1019.5,,TRUE,TRUE,,,,,,,CLR,,,,,,,,VFR,1.1,26.1,11.7,,,,,,,,,METAR,1444.0
KICT 200553Z 25003KT 8SM CLR 08/07 A3023 RMK AO2 SLP237 T00830072 10161 20083 402110083 51010,KICT,2023-05-20T05:53:00Z,37.65,-97.43,8.3,7.2,250,3,,8.0,30.230314,1023.7,,,TRUE,,,,,,,CLR,,,,,,,,VFR,1.0,16.1,8.3,21.1,8.3,,,,,,,METAR,428.0
KICR 200553Z AUTO 24005KT 10SM CLR 09/04 A3029 RMK AO2 SLP261 T00890044 10183 20078 401830039 51008,KICR,2023-05-20T05:53:00Z,43.38,-99.85,8.9,4.4,240,5,,10.0,30.28937,1026.1,,TRUE,TRUE,,,,,,,CLR,,,,,,,,VFR,0.8,18.3,7.8,18.3,3.9,,,,,,,METAR,618.0
KIAH 200553Z 23005KT 10SM BKN250 26/20 A3004 RMK AO2 SLP169 T02560200 10300 20256 403330211 53011,KIAH,2023-05-20T05:53:00Z,30.0,-95.37,25.6,20.0,230,5,,10.0,30.041338,1016.9,,,TRUE,,,,,,,BKN,25000,,,,,,,VFR,1.1,30.0,25.6,33.3,21.1,,,,,,,METAR,27.0
KIAG 200553Z AUTO 18010KT 10SM FEW110 19/12 A2991 RMK AO2 SLP125 T01890117 10194 20183 58017,KIAG,2023-05-20T05:53:00Z,43.12,-78.93,18.9,11.7,180,10,,10.0,29.911417,1012.5,,TRUE,TRUE,,,,,,,FEW,11000,,,,,,,VFR,-1.7,19.4,18.3,,,,,,,,,METAR,179.0
KHZY 200553Z AUTO 29006KT 10SM FEW030 OVC037 17/13 A2996 RMK AO2 SLP140 T01720133 10217 20172 55003,KHZY,2023-05-20T05:53:00Z,41.78,-80.7,17.2,13.3,290,6,,10.0,29.958662,1014.0,,TRUE,TRUE,,,,,,,FEW,3000,OVC,3700,,,,,VFR,-0.3,21.7,17.2,,,,,,,,,METAR,279.0
KHYR 200553Z AUTO 00000KT 10SM CLR 02/01 A3020 RMK AO2 SLP237 T00170006 10117 20011 401280011 51004,KHYR,2023-05-20T05:53:00Z,46.02,-91.45,1.7,0.6,0,0,,10.0,30.200787,1023.7,,TRUE,TRUE,,,,,,,CLR,,,,,,,,VFR,0.4,11.7,1.1,12.8,1.1,,,,,,,METAR,369.0
KHWO 200553Z AUTO 00000KT 10SM CLR 26/22 A2999 RMK AO2 SLP155 T02560222 10278 20256 58010,KHWO,2023-05-20T05:53:00Z,26.0,-80.23,25.6,22.2,0,0,,10.0,29.991142,1015.5,,TRUE,TRUE,,,,,,,CLR,,,,,,,,VFR,-1.0,27.8,25.6,,,,,,,,,METAR,2.0
KHVR 200553Z AUTO 30003KT 9SM CLR 16/04 A3001 RMK AO2 SLPNO T01610039 10272 20144 57001,KHVR,2023-05-20T05:53:00Z,48.55,-109.77,16.1,3.9,300,3,,9.0,30.008858,,,TRUE,TRUE,,,,,,,CLR,,,,,,,,VFR,-0.1,27.2,14.4,,,,,,,,,METAR,789.0
KHVN 200553Z AUTO 04003KT 10SM OVC055 13/10 A3022 RMK AO2 SLP231 T01280100 10167 20111 58021,KHVN,2023-05-20T05:53:00Z,41.27,-72.88,12.8,10.0,40,3,,10.0,30.221457,1023.1,,TRUE,TRUE,,,,,,,OVC,5500,,,,,,,VFR,-2.1,16.7,11.1,,,,,,,,,METAR,4.0
KHUL 200553Z AUTO 21010G18KT 10SM SCT100 09/06 A3012 RMK AO2 SLP202 T00940056 10133 20094 58002,KHUL,2023-05-20T05:53:00Z,46.12,-67.8,9.4,5.6,210,10,18,10.0,30.121063,1020.2,,TRUE,TRUE,,,,,,,SCT,10000,,,,,,,VFR,-0.2,13.3,9.4,,,,,,,,,METAR,148.0
KHUF 200553Z 32003KT 10SM -RA OVC110 15/12 A3004 RMK AO2 SLP169 P0000 60004 T01500117 10189 20150 51003,KHUF,2023-05-20T05:53:00Z,39.45,-87.32,15.0,11.7,320,3,,10.0,30.041338,1016.9,,,TRUE,,,,,,-RA,OVC,11000,,,,,,,VFR,0.3,18.9,15.0,,,0.005,,0.04,,,,METAR,174.0
KHSV 200553Z AUTO 18005KT 10SM OVC031 21/18 A3005 RMK AO2 SLP169 T02060183 10217 20206 402280189 58007,KHSV,2023-05-20T05:53:00Z,34.65,-86.78,20.6,18.3,180,5,,10.0,30.050198,1016.9,,TRUE,TRUE,,,,,,,OVC,3100,,,,,,,VFR,-0.7,21.7,20.6,22.8,18.9,,,,,,,METAR,190.0
KHSI 200553Z AUTO 00000KT 10SM CLR 09/03 A3029 RMK AO2 SLP255 T00890033 10189 20083 402000083 50006,KHSI,2023-05-20T05:53:00Z,40.6,-98.43,8.9,3.3,0,0,,10.0,30.28937,1025.5,,TRUE,TRUE,,,,,,,CLR,,,,,,,,VFR,0.6,18.9,8.3,20.0,8.3,,,,,,,METAR,592.0
KHRI 200553Z AUTO 29004KT 10SM CLR 24/12 A3000 RMK AO2 PK WND 21028/0510 SLP152 T02390122 10356 20239 51028,KHRI,2023-05-20T05:53:00Z,45.83,-119.27,23.9,12.2,290,4,,10.0,30.0,1015.2,,TRUE,TRUE,,,,,,,CLR,,,,,,,,VFR,2.8,35.6,23.9,,,,,,,,,METAR,194.0
KHQM 200553Z AUTO 30005KT 10SM OVC008 14/11 A3014 RMK AO2 SLP210 T01390111 10189 20133 52013,KHQM,2023-05-20T05:53:00Z,46.97,-123.93,13.9,11.1,300,5,,10.0,30.138779,1021.0,,TRUE,TRUE,,,,,,,OVC,800,,,,,,,IFR,1.3,18.9,13.3,,,,,,,,,METAR,4.0
KHOU 200553Z 25006KT 10SM BKN250 24/21 A3004 RMK AO2 SLP175 T02440211 10306 20244 403330228 53010,KHOU,2023-05-20T05:53:00Z,29.63,-95.28,24.4,21.1,250,6,,10.0,30.041338,1017.5,,,TRUE,,,,,,,BKN,25000,,,,,,,VFR,1.0,30.6,24.4,33.3,22.8,,,,,,,METAR,13.0
KHLN 200553Z AUTO 21003KT 7SM CLR 17/04 A3012 RMK AO2 SLP193 T01670044 10267 20156 50009 $,KHLN,2023-05-20T05:53:00Z,46.6,-111.98,16.7,4.4,210,3,,7.0,30.121063,1019.3,,TRUE,TRUE,TRUE,,,,,,CLR,,,,,,,,VFR,0.9,26.7,15.6,,,,,,,,,METAR,1178.0
KHLG 200553Z AUTO 17010KT 10SM SCT055 BKN100 19/12 A2998 RMK AO2 SLP149 T01890122 10217 20183 58012,KHLG,2023-05-20T05:53:00Z,40.17,-80.65,18.9,12.2,170,10,,10.0,29.97933,1014.9,,TRUE,TRUE,,,,,,,SCT,5500,BKN,10000,,,,,VFR,-1.2,21.7,18.3,,,,,,,,,METAR,365.0
KHLC 200553Z AUTO 36006KT 10SM CLR 09/03 A3030 RMK AO2 SLP255 T00890033 10206 20089 402170089 51005,KHLC,2023-05-20T05:53:00Z,39.37,-99.83,8.9,3.3,360,6,,10.0,30.301182,1025.5,,TRUE,TRUE,,,,,,,CLR,,,,,,,,VFR,0.5,20.6,8.9,21.7,8.9,,,,,,,METAR,667.0
KHKS 200553Z AUTO 14003KT 10SM CLR 23/21 A3001 RMK AO2 SLP153 T02280211 10289 20222 403110189 50004,KHKS,2023-05-20T05:53:00Z,32.33,-90.22,22.8,21.1,140,3,,10.0,30.008858,1015.3,,TRUE,TRUE,,,,,,,CLR,,,,,,,,VFR,0.4,28.9,22.2,31.1,18.9,,,,,,,METAR,103.0
KHJO 200553Z AUTO 33015KT 10SM CLR 26/10 A2997 RMK AO2 SLP147 T02560100 10350 20256 51018,KHJO,2023-05-20T05:53:00Z,36.32,-119.62,25.6,10.0,330,15,,10.0,29.970472,1014.7,,TRUE,TRUE,,,,,,,CLR,,,,,,,,VFR,1.8,35.0,25.6,,,,,,,,,METAR,73.0
KHIO 200553Z 29008KT 10SM FEW080 18/12 A3008 RMK AO2 SLP182 T01830122 10294 20183 51024,KHIO,2023-05-20T05:53:00Z,45.55,-122.95,18.3,12.2,290,8,,10.0,30.079725,1018.2,,,TRUE,,,,,,,FEW,8000,,,,,,,VFR,2.4,29.4,18.3,,,,,,,,,METAR,62.0
KHIB 200553Z AUTO 00000KT 10SM CLR 02/02 A3020 RMK AO2 SLP239 T00220017 10156 20022 401610022 51005,KHIB,2023-05-20T05:53:00Z,47.38,-92.83,2.2,1.7,0,0,,10.0,30.200787,1023.9,,TRUE,TRUE,,,,,,,CLR,,,,,,,,VFR,0.5,15.6,2.2,16.1,2.2,,,,,,,METAR,409.0
KHHR 200553Z AUTO 22005KT 10SM OVC013 18/13 A3007 RMK AO2 SLP181 T01830133 10206 20183 50001,KHHR,2023-05-20T05:53:00Z,33.92,-118.33,18.3,13.3,220,5,,10.0,30.070866,1018.1,,TRUE,TRUE,,,,,,,OVC,1300,,,,,,,MVFR,0.1,20.6,18.3,,,,,,,,,METAR,21.0
KHGR 200553Z AUTO 17006KT 10SM CLR 15/10 A3012 RMK AO2 SLP206 T01500100 10206 20150 58012 $,KHGR,2023-05-20T05:53:00Z,39.7,-77.73,15.0,10.0,170,6,,10.0,30.121063,1020.6,,TRUE,TRUE,TRUE,,,,,,CLR,,,,,,,,VFR,-1.2,20.6,15.0,,,,,,,,,METAR,206.0
KHFD 200553Z AUTO 00000KT 10SM CLR 11/08 A3022 RMK AO2 SLP233 T01110078 10161 20111 56020,KHFD,2023-05-20T05:53:00Z,41.73,-72.65,11.1,7.8,0,0,,10.0,30.221457,1023.3,,TRUE,TRUE,,,,,,,CLR,,,,,,,,VFR,-2.0,16.1,11.1,,,,,,,,,METAR,3.0
KHEI 200553Z AUTO 14003KT 10SM CLR 04/02 A3026 RMK AO2 SLP253 T00440022 10178 20044 58001,KHEI,2023-05-20T05:53:00Z,46.02,-102.65,4.4,2.2,140,3,,10.0,30.259842,1025.3,,TRUE,TRUE,,,,,,,CLR,,,,,,,,VFR,-0.1,17.8,4.4,,,,,,,,,METAR,824.0
KHBG 200553Z AUTO 00000KT 4SM BR CLR 22/22 A3002 RMK AO2 SLP163 60002 T02220217 10244 20222 403280200 50002,KHBG,2023-05-20T05:53:00Z,31.27,-89.25,22.2,21.7,0,0,,4.0,30.02067,1016.3,,TRUE,TRUE,,,,,,BR,CLR,,,,,,,,MVFR,0.2,24.4,22.2,32.8,20.0,,,0.02,,,,METAR,45.0
KHAO 200553Z AUTO 31003KT 10SM FEW055 FEW070 OVC110 18/16 A3000 RMK AO2 RAB35E51 SLP155 P0000 60000 T01830156 10228 20178 58009,KHAO,2023-05-20T05:53:00Z,39.37,-84.52,18.3,15.6,310,3,,10.0,30.0,1015.5,,TRUE,TRUE,,,,,,,FEW,5500,FEW,7000,OVC,11000,,,VFR,-0.9,22.8,17.8,,,0.005,,0.005,,,,METAR,185.0
KGZH 200553Z AUTO 11004KT 10SM SCT012 21/19 A3004 RMK AO2 SLP170 T02110189 10250 20211 403000200 58006,KGZH,2023-05-20T05:53:00Z,31.42,-87.05,21.1,18.9,110,4,,10.0,30.041338,1017.0,,TRUE,TRUE,,,,,,,SCT,1200,,,,,,,VFR,-0.6,25.0,21.1,30.0,20.0,,,,,,,METAR,77.0
KGWO 200553Z AUTO 15005KT 10SM CLR 24/21 A3000 RMK AO2 SLP157 T02390211 10294 20233 403110194 53007,KGWO,2023-05-20T05:53:00Z,33.5,-90.08,23.9,21.1,150,5,,10.0,30.0,1015.7,,TRUE,TRUE,,,,,,,CLR,,,,,,,,VFR,0.7,29.4,23.3,31.1,19.4,,,,,,,METAR,42.0
KGUY 200553Z AUTO 32007KT 7SM BKN049 12/11 A3032 RMK AO2 SLP247 T01170106 10161 20106 401670106 50007,KGUY,2023-05-20T05:53:00Z,36.68,-101.5,11.7,10.6,320,7,,7.0,30.318897,1024.7,,TRUE,TRUE,,,,,,,BKN,4900,,,,,,,VFR,0.7,16.1,10.6,16.7,10.6,,,,,,,METAR,950.0
KGUP 200553Z AUTO 04009KT 10SM BKN100 BKN110 11/09 A3033 RMK AO2 SLP155 60003 T01060094 10117 20100 50004,KGUP,2023-05-20T05:53:00Z,35.52,-108.8,10.6,9.4,40,9,,10.0,30.33071,1015.5,,TRUE,TRUE,,,,,,,BKN,10000,BKN,11000,,,,,VFR,0.4,11.7,10.0,,,,,0.03,,,,METAR,1972.0
KGTF 200553Z 21011KT 7SM FU CLR 13/07 A3007 RMK AO2 SLP166 T01280067 10256 20128 50002 $,KGTF,2023-05-20T05:53:00Z,47.47,-111.38,12.8,6.7,210,11,,7.0,30.070866,1016.6,,,TRUE,TRUE,,,,,FU,CLR,,,,,,,,VFR,0.2,25.6,12.8,,,,,,,,,METAR,1117.0
KGSP 200553Z 04003KT 10SM BKN010 OVC029 18/16 A3011 RMK AO2 SLP189 T01780156 10206 20178 58008 $,KGSP,2023-05-20T05:53:00Z,34.9,-82.22,17.8,15.6,40,3,,10.0,30.109253,1018.9,,,TRUE,TRUE,,,,,,BKN,1000,OVC,2900,,,,,MVFR,-0.8,20.6,17.8,,,,,,,,,METAR,285.0
KGRR 200553Z AUTO 30005KT 10SM SCT043 10/06 A3003 RMK AO2 SLP169 T01000056 10172 20100 50002,KGRR,2023-05-20T05:53:00Z,42.88,-85.52,10.0,5.6,300,5,,10.0,30.029528,1016.9,,TRUE,TRUE,,,,,,,SCT,4300,,,,,,,VFR,0.2,17.2,10.0,,,,,,,,,METAR,239.0
KGRI 200553Z AUTO 00000KT 10SM FU CLR 08/03 A3029 RMK AO2 SLP261 T00780033 10183 20078 402000078 50004,KGRI,2023-05-20T05:53:00Z,40.97,-98.32,7.8,3.3,0,0,,10.0,30.28937,1026.1,,TRUE,TRUE,,,,,,FU,CLR,,,,,,,,VFR,0.4,18.3,7.8,20.0,7.8,,,,,,,METAR,562.0
KGRB 200553Z AUTO 32007KT 10SM OVC055 09/05 A3010 RMK AO2 SLP196 T00940050 10139 20094 401720094 51001 $,KGRB,2023-05-20T05:53:00Z,44.48,-88.13,9.4,5.0,320,7,,10.0,30.100393,1019.6,,TRUE,TRUE,TRUE,,,,,,OVC,5500,,,,,,,VFR,0.1,13.9,9.4,17.2,9.4,,,,,,,METAR,209.0
KGPT 200553Z AUTO 19003KT 10SM SCT023 27/23 A3000 RMK AO2 SLP157 T02670228 10283 20267 403110228 58002 TSNO,KGPT,2023-05-20T05:53:00Z,30.42,-89.08,26.7,22.8,190,3,,10.0,30.0,1015.7,,TRUE,TRUE,,,TRUE,,,,SCT,2300,,,,,,,VFR,-0.2,28.3,26.7,31.1,22.8,,,,,,,METAR,5.0
KGOK 200553Z AUTO 36004KT 6SM BR CLR 12/11 A3020 RMK AO2 SLP225 T01170106 10144 20117 402330117 50005,KGOK,2023-05-20T05:53:00Z,35.85,-97.4,11.7,10.6,360,4,,6.0,30.200787,1022.5,,TRUE,TRUE,,,,,,BR,CLR,,,,,,,,VFR,0.5,14.4,11.7,23.3,11.7,,,,,,,METAR,326.0
KGNV 200553Z AUTO 00000KT 9SM CLR 21/20 A3005 RMK AO2 SLP172 T02110200 10272 20211 58015,KGNV,2023-05-20T05:53:00Z,29.7,-82.28,21.1,20.0,0,0,,9.0,30.050198,1017.2,,TRUE,TRUE,,,,,,,CLR,,,,,,,,VFR,-1.5,27.2,21.1,,,,,,,,,METAR,41.0
KGMU 200553Z AUTO 04006KT 10SM BKN017 BKN023 OVC035 19/16 A3012 RMK AO2 SLP190 T01890156 10217 20189 58009,KGMU,2023-05-20T05:53:00Z,34.85,-82.35,18.9,15.6,40,6,,10.0,30.121063,1019.0,,TRUE,TRUE,,,,,,,BKN,1700,BKN,2300,OVC,3500,,,MVFR,-0.9,21.7,18.9,,,,,,,,,METAR,309.0
KGLR 200553Z AUTO VRB04KT 10SM OVC008 08/05 A2997 RMK AO2 SLP151 T00830050 10122 20083 56005,KGLR,2023-05-20T05:53:00Z,45.02,-84.68,8.3,5.0,0,4,,10.0,29.970472,1015.1,,TRUE,TRUE,,,,,,,OVC,800,,,,,,,IFR,-0.5,12.2,8.3,,,,,,,,,METAR,403.0
KGLD 200553Z AUTO 00000KT 9SM CLR 07/06 A3032 RMK AO2 SLP258 T00720056 10161 20072 51002,KGLD,2023-05-20T05:53:00Z,39.37,-101.7,7.2,5.6,0,0,,9.0,30.318897,1025.8,,TRUE,TRUE,,,,,,,CLR,,,,,,,,VFR,0.2,16.1,7.2,,,,,,,,,METAR,1111.0
KGKJ 200553Z AUTO VRB04KT 10SM SCT036 BKN070 OVC095 18/13 A2995 RMK AO2 SLP136 T01830128 10194 20178 58014,KGKJ,2023-05-20T05:53:00Z,41.63,-80.22,18.3,12.8,0,4,,10.0,29.949802,1013.6,,TRUE,TRUE,,,,,,,SCT,3600,BKN,7000,OVC,9500,,,VFR,-1.4,19.4,17.8,,,,,,,,,METAR,428.0
KGJT 200553Z AUTO 12010KT 10SM CLR 18/05 A3022 RMK AO2 SLP173 60000 T01830050 10244 20178 51018,KGJT,2023-05-20T05:53:00Z,39.13,-108.53,18.3,5.0,120,10,,10.0,30.221457,1017.3,,TRUE,TRUE,,,,,,,CLR,,,,,,,,VFR,1.8,24.4,17.8,,,,,0.005,,,,METAR,1475.0
KGIF 200553Z AUTO VRB04KT 10SM CLR 24/22 A3000 RMK AO2 SLP158 60051 T02390222 10261 20233 58013 $,KGIF,2023-05-20T05:53:00Z,28.07,-81.75,23.9,22.2,0,4,,10.0,30.0,1015.8,,TRUE,TRUE,TRUE,,,,,,CLR,,,,,,,,VFR,-1.3,26.1,23.3,,,,,0.51,,,,METAR,44.0
KGGG 200553Z AUTO 25003KT 10SM FEW070 25/21 A3001 RMK AO2 SLP156 T02500211 10300 20244 403280194 53014,KGGG,2023-05-20T05:53:00Z,32.38,-94.72,25.0,21.1,250,3,,10.0,30.008858,1015.6,,TRUE,TRUE,,,,,,,FEW,7000,,,,,,,VFR,1.4,30.0,24.4,32.8,19.4,,,,,,,METAR,107.0
KGFL 200553Z AUTO 19008KT 10SM OVC110 14/08 A3015 RMK AO2 SLP209 T01390078 10183 20139 58001,KGFL,2023-05-20T05:53:00Z,43.33,-73.62,13.9,7.8,190,8,,10.0,30.15059,1020.9,,TRUE,TRUE,,,,,,,OVC,11000,,,,,,,VFR,-0.1,18.3,13.9,,,,,,,,,METAR,99.0
KGFK 200553Z AUTO 21008KT 10SM CLR 08/03 A3021 RMK AO2 SLP233 T00830033 10217 20078 402170044 58003,KGFK,2023-05-20T05:53:00Z,47.95,-97.18,8.3,3.3,210,8,,10.0,30.209646,1023.3,,TRUE,TRUE,,,,,,,CLR,,,,,,,,VFR,-0.3,21.7,7.8,21.7,4.4,,,,,,,METAR,256.0
KGEZ 200553Z AUTO 31003KT 5SM -RA OVC100 17/14 A3001 RMK AO2 SLP158 P0005 60039 T01720144 10261 20172 50004,KGEZ,2023-05-20T05:53:00Z,39.58,-85.8,17.2,14.4,310,3,,5.0,30.008858,1015.8,,TRUE,TRUE,,,,,,-RA,OVC,10000,,,,,,,MVFR,0.4,26.1,17.2,,,0.05,,0.39,,,,METAR,245.0
KGEY 200553Z AUTO 12004KT 10SM CLR 14/03 A3018 RMK AO2 SLP198 T01390033 10256 20139 51012,KGEY,2023-05-20T05:53:00Z,44.52,-108.08,13.9,3.3,120,4,,10.0,30.180119,1019.8,,TRUE,TRUE,,,,,,,CLR,,,,,,,,VFR,1.2,25.6,13.9,,,,,,,,,METAR,1191.0
KGEG 200553Z 25004KT 8SM CLR 22/13 A3006 RMK AO2 SLP161 FU HZ ALQDS T02170128 10306 20217 51012,KGEG,2023-05-20T05:53:00Z,47.62,-117.53,21.7,12.8,250,4,,8.0,30.059055,1016.1,,,TRUE,,,,,,,CLR,,,,,,,,VFR,1.2,30.6,21.7,,,,,,,,,METAR,718.0
KGCC 200553Z AUTO 18017KT 10SM CLR 11/05 A3023 RMK AO2 PK WND 18026/0528 SLP219 T01060050 10194 20089 50003,KGCC,2023-05-20T05:53:00Z,44.33,-105.55,10.6,5.0,180,17,,10.0,30.230314,1021.9,,TRUE,TRUE,,,,,,,CLR,,,,,,,,VFR,0.3,19.4,8.9,,,,,,,,,METAR,1328.0
KGAG 200553Z AUTO 25003KT 4SM BR CLR 10/09 A3027 RMK AO2 SLP243 T01000089 10161 20094 401940094 50003,KGAG,2023-05-20T05:53:00Z,36.3,-99.77,10.0,8.9,250,3,,4.0,30.268702,1024.3,,TRUE,TRUE,,,,,,BR,CLR,,,,,,,,MVFR,0.3,16.1,9.4,19.4,9.4,,,,,,,METAR,670.0
KFYV 200553Z AUTO 35011G17KT 3SM BR OVC005 15/13 A3014 RMK AO2 SLP199 T01500128 10194 20150 402280144 53024,KFYV,2023-05-20T05:53:00Z,36.02,-94.17,15.0,12.8,350,11,17,3.0,30.138779,1019.9,,TRUE,TRUE,,,,,,BR,OVC,500,,,,,,,IFR,2.4,19.4,15.0,22.8,14.4,,,,,,,METAR,377.0
KFXE 200553Z 11003KT 10SM CLR 26/23 A2998 RMK AO2 SLP153 6//// T02610233 10278 20261 58009 PNO,KFXE,2023-05-20T05:53:00Z,26.2,-80.18,26.1,23.3,110,3,,10.0,29.97933,1015.3,,,TRUE,,,,,,,CLR,,,,,,,,VFR,-0.9,27.8,26.1,,,,,,,,,METAR,3.0
KFVE 200553Z AUTO 16011KT 10SM CLR 11/05 A3004 RMK AO2 SLP170 T01060050 10172 20106 58002,KFVE,2023-05-20T05:53:00Z,47.28,-68.3,10.6,5.0,160,11,,10.0,30.041338,1017.0,,TRUE,TRUE,,,,,,,CLR,,,,,,,,VFR,-0.2,17.2,10.6,,,,,,,,,METAR,299.0
KFUL 200553Z AUTO 21004KT 10SM OVC017 17/14 A3006 RMK AO2 SLP177 T01720144 10206 20172 50008,KFUL,2023-05-20T05:53:00Z,33.87,-117.98,17.2,14.4,210,4,,10.0,30.059055,1017.7,,TRUE,TRUE,,,,,,,OVC,1700,,,,,,,MVFR,0.8,20.6,17.2,,,,,,,,,METAR,23.0
KFTY 200553Z 11004KT 10SM OVC028 19/17 A3008 RMK AO2 SLP179 T01940167 10222 20178 58010,KFTY,2023-05-20T05:53:00Z,33.78,-84.52,19.4,16.7,110,4,,10.0,30.079725,1017.9,,,TRUE,,,,,,,OVC,2800,,,,,,,MVFR,-1.0,22.2,17.8,,,,,,,,,METAR,245.0
KFST 200553Z AUTO 05012KT 10SM CLR 21/14 A3015 RMK AO2 SLP165 T02060139 10278 20206 403280189 52024,KFST,2023-05-20T05:53:00Z,30.92,-102.92,20.6,13.9,50,12,,10.0,30.15059,1016.5,,TRUE,TRUE,,,,,,,CLR,,,,,,,,VFR,2.4,27.8,20.6,32.8,18.9,,,,,,,METAR,917.0
KFSM 200553Z AUTO 31007KT 10SM OVC019 19/16 A3007 RMK AO2 SLP181 60021 T01940161 10222 20194 402670189 53011,KFSM,2023-05-20T05:53:00Z,35.33,-94.37,19.4,16.1,310,7,,10.0,30.070866,1018.1,,TRUE,TRUE,,,,,,,OVC,1900,,,,,,,MVFR,1.1,22.2,19.4,26.7,18.9,,,0.21,,,,METAR,136.0
KFPR 200553Z AUTO 00000KT 10SM CLR 23/22 A2999 RMK AO2 SLP156 T02330217 10272 20233 58013,KFPR,2023-05-20T05:53:00Z,27.5,-80.38,23.3,21.7,0,0,,10.0,29.991142,1015.6,,TRUE,TRUE,,,,,,,CLR,,,,,,,,VFR,-1.3,27.2,23.3,,,,,,,,,METAR,7.0
KFOK 200553Z AUTO 00000KT 10SM FEW042 OVC050 13/12 A3023 RMK AO2 SLP236 T01330122 10144 20106 58020,KFOK,2023-05-20T05:53:00Z,40.85,-72.62,13.3,12.2,0,0,,10.0,30.230314,1023.6,,TRUE,TRUE,,,,,,,FEW,4200,OVC,5000,,,,,VFR,-2.0,14.4,10.6,,,,,,,,,METAR,13.0
KFOE 200553Z AUTO 10SM CLR 12/07 A3022 RMK AO2 SLP231 T01220067 10172 20094 402060094 51015 $,KFOE,2023-05-20T05:53:00Z,38.93,-95.65,12.2,6.7,,,,10.0,30.221457,1023.1,,TRUE,TRUE,TRUE,,,,,,CLR,,,,,,,,VFR,1.5,17.2,9.4,20.6,9.4,,,,,,,METAR,315.0
KFNT 200553Z AUTO 30004KT 7SM CLR 11/09 A2998 RMK AO2 SLP153 60001 T01110094 10161 20111 51005,KFNT,2023-05-20T05:53:00Z,42.97,-83.75,11.1,9.4,300,4,,7.0,29.97933,1015.3,,TRUE,TRUE,,,,,,,CLR,,,,,,,,VFR,0.5,16.1,11.1,,,,,0.01,,,,METAR,235.0
KFNB 200553Z AUTO 35003KT 10SM CLR 10/06 A3024 RMK AO2 SLP239 T01000056 10189 20100 401940100 51014,KFNB,2023-05-20T05:53:00Z,40.07,-95.58,10.0,5.6,350,3,,10.0,30.239174,1023.9,,TRUE,TRUE,,,,,,,CLR,,,,,,,,VFR,1.4,18.9,10.0,19.4,10.0,,,,,,,METAR,301.0
KFMY 200553Z AUTO 31005KT 10SM CLR 27/21 A2996 RMK AO2 SLP146 T02720206 10294 20267 58019,KFMY,2023-05-20T05:53:00Z,26.58,-81.87,27.2,20.6,310,5,,10.0,29.958662,1014.6,,TRUE,TRUE,,,,,,,CLR,,,,,,,,VFR,-1.9,29.4,26.7,,,,,,,,,METAR,4.0
KFMN 200553Z AUTO 08008KT 10SM OVC070 12/08 A3033 RMK AO2 SLP228 60000 T01220083 10133 20122 53014,KFMN,2023-05-20T05:53:00Z,36.75,-108.23,12.2,8.3,80,8,,10.0,30.33071,1022.8,,TRUE,TRUE,,,,,,,OVC,7000,,,,,,,VFR,1.4,13.3,12.2,,,,,0.005,,,,METAR,1677.0
KFLO 200553Z AUTO 04005KT 10SM FEW009 SCT013 OVC021 19/18 A3007 RMK AO2 SLP179 60000 T01890178 10206 20189 58008,KFLO,2023-05-20T05:53:00Z,34.18,-79.73,18.9,17.8,40,5,,10.0,30.070866,1017.9,,TRUE,TRUE,,,,,,,FEW,900,SCT,1300,OVC,2100,,,MVFR,-0.8,20.6,18.9,,,,,0.005,,,,METAR,43.0
KFLL 200553Z 14003KT 10SM FEW022 SCT250 26/23 A2997 RMK AO2 SLP147 T02610233 10278 20261 58012,KFLL,2023-05-20T05:53:00Z,26.07,-80.15,26.1,23.3,140,3,,10.0,29.970472,1014.7,,,TRUE,,,,,,,FEW,2200,SCT,25000,,,,,VFR,-1.2,27.8,26.1,,,,,,,,,METAR,1.0
KFLD 200553Z AUTO 35008KT 10SM SCT055 09/04 A3011 RMK AO2 SLP199 T00890044 10150 20089 401830089 51005,KFLD,2023-05-20T05:53:00Z,43.77,-88.48,8.9,4.4,350,8,,10.0,30.109253,1019.9,,TRUE,TRUE,,,,,,,SCT,5500,,,,,,,VFR,0.5,15.0,8.9,18.3,8.9,,,,,,,METAR,242.0
KFHR 200553Z AUTO 00000KT 10SM CLR 12/08 A3007 RMK AO2 SLP181 T01170083 10267 20117 51007,KFHR,2023-05-20T05:53:00Z,48.52,-123.03,11.7,8.3,0,0,,10.0,30.070866,1018.1,,TRUE,TRUE,,,,,,,CLR,,,,,,,,VFR,0.7,26.7,11.7,,,,,,,,,METAR,34.0
KFFT 200553Z AUTO 21007KT 10SM OVC060 19/17 A2999 RMK AO2 SLP149 T01940167 10217 20183 58003,KFFT,2023-05-20T05:53:00Z,38.18,-84.9,19.4,16.7,210,7,,10.0,29.991142,1014.9,,TRUE,TRUE,,,,,,,OVC,6000,,,,,,,VFR,-0.3,21.7,18.3,,,,,,,,,METAR,235.0
KFFC 200553Z AUTO 14003KT 10SM OVC029 19/17 A3009 RMK AO2 SLP186 T01890167 10217 20183 58010,KFFC,2023-05-20T05:53:00Z,33.35,-84.57,18.9,16.7,140,3,,10.0,30.088583,1018.6,,TRUE,TRUE,,,,,,,OVC,2900,,,,,,,MVFR,-1.0,21.7,18.3,,,,,,,,,METAR,242.0
KFDY 200553Z AUTO 00000KT 3SM RA BR OVC025 15/13 A2997 RMK AO2 SLP141 P0011 60045 T01500133 10250 20144 53001,KFDY,2023-05-20T05:53:00Z,41.02,-83.67,15.0,13.3,0,0,,3.0,29.970472,1014.1,,TRUE,TRUE,,,,,,RA BR,OVC,2500,,,,,,,MVFR,0.1,25.0,14.4,,,0.11,,0.45,,,,METAR,247.0
KFDR 200553Z AUTO 01012G18KT 6SM HZ CLR 15/12 A3020 RMK AO2 SLP212 T01500117 10206 20150 402940150 50012,KFDR,2023-05-20T05:53:00Z,34.35,-98.98,15.0,11.7,10,12,18,6.0,30.200787,1021.2,,TRUE,TRUE,,,,,,HZ,CLR,,,,,,,,VFR,1.2,20.6,15.0,29.4,15.0,,,,,,,METAR,378.0
KFCM 200553Z AUTO 31003KT 10SM CLR 09/04 A3023 RMK AO2 SLP239 T00890044 10156 20089 401670072 51006,KFCM,2023-05-20T05:53:00Z,44.83,-93.47,8.9,4.4,310,3,,10.0,30.230314,1023.9,,TRUE,TRUE,,,,,,,CLR,,,,,,,,VFR,0.6,15.6,8.9,16.7,7.2,,,,,,,METAR,276.0
KFAY 200553Z 36005KT 10SM CLR 18/17 A3005 RMK AO2 SLP171 T01780172 10189 20178 58018,KFAY,2023-05-20T05:53:00Z,34.98,-78.88,17.8,17.2,360,5,,10.0,30.050198,1017.1,,,TRUE,,,,,,,CLR,,,,,,,,VFR,-1.8,18.9,17.8,,,,,,,,,METAR,57.0
KFAT 200553Z 30012KT 10SM CLR 24/13 A2997 RMK AO2 SLP146 T02440133 10344 20244 51020,KFAT,2023-05-20T05:53:00Z,36.78,-119.72,24.4,13.3,300,12,,10.0,29.970472,1014.6,,,TRUE,,,,,,,CLR,,,,,,,,VFR,2.0,34.4,24.4,,,,,,,,,METAR,102.0
KFAR 200553Z 21004KT 10SM CLR 11/03 A3025 RMK AO2 SLP247 T01060033 10200 20094 402000061 50002,KFAR,2023-05-20T05:53:00Z,46.9,-96.82,10.6,3.3,210,4,,10.0,30.250984,1024.7,,,TRUE,,,,,,,CLR,,,,,,,,VFR,0.2,20.0,9.4,20.0,6.1,,,,,,,METAR,276.0
KEYW 200553Z AUTO 00000KT 10SM FEW025 28/23 A2997 RMK AO2 SLP155 T02780228 10294 20267 58014,KEYW,2023-05-20T05:53:00Z,24.55,-81.75,27.8,22.8,0,0,,10.0,29.970472,1015.5,,TRUE,TRUE,,,,,,,FEW,2500,,,,,,,VFR,-1.4,29.4,26.7,,,,,,,,,METAR,1.0
KEYE 200553Z AUTO 35009KT 5SM -RA BR BKN065 OVC100 15/13 A3003 RMK AO2 SLP162 P0003 60011 T01500128 10189 20150 53004 $,KEYE,2023-05-20T05:53:00Z,39.83,-86.3,15.0,12.8,350,9,,5.0,30.029528,1016.2,,TRUE,TRUE,TRUE,,,,,-RA BR,BKN,6500,OVC,10000,,,,,MVFR,0.4,18.9,15.0,,,0.03,,0.11,,,,METAR,248.0
KEWB 200553Z AUTO 00000KT 10SM OVC038 09/09 A3025 RMK AO2 SLP242 T00940094 10128 20078 56015,KEWB,2023-05-20T05:53:00Z,41.68,-70.95,9.4,9.4,0,0,,10.0,30.250984,1024.2,,TRUE,TRUE,,,,,,,OVC,3800,,,,,,,VFR,-1.5,12.8,7.8,,,,,,,,,METAR,22.0
KEVW 200553Z AUTO 13006KT 10SM CLR 11/M03 A3034 RMK AO2 SLP204 T01111028 10189 20106 51008,KEVW,2023-05-20T05:53:00Z,41.27,-111.03,11.1,-2.8,130,6,,10.0,30.339567,1020.4,,TRUE,TRUE,,,,,,,CLR,,,,,,,,VFR,0.8,18.9,10.6,,,,,,,,,METAR,2178.0
KESF 200553Z AUTO 6SM BR CLR 21/21 A3001 RMK AO2 SLP160 T02110206 10311 20211 403330178 53010 $,KESF,2023-05-20T05:53:00Z,31.4,-92.28,21.1,20.6,,,,6.0,30.008858,1016.0,,TRUE,TRUE,TRUE,,,,,BR,CLR,,,,,,,,VFR,1.0,31.1,21.1,33.3,17.8,,,,,,,METAR,27.0
KEQY 200553Z AUTO 02006KT 9SM FEW005 SCT009 OVC028 17/16 A3009 RMK AO2 SLP194 60001 T01720161 10178 20172 58012,KEQY,2023-05-20T05:53:00Z,35.02,-80.62,17.2,16.1,20,6,,9.0,30.088583,1019.4,,TRUE,TRUE,,,,,,,FEW,500,SCT,900,OVC,2800,,,MVFR,-1.2,17.8,17.2,,,,,0.01,,,,METAR,205.0
KEPH 200553Z AUTO 21003KT 10SM CLR 24/11 A2999 RMK AO2 LTG DSNT SW AND W SLP147 T02390106 10333 20239 53012,KEPH,2023-05-20T05:53:00Z,47.3,-119.52,23.9,10.6,210,3,,10.0,29.991142,1014.7,,TRUE,TRUE,,,,,,,CLR,,,,,,,,VFR,1.2,33.3,23.9,,,,,,,,,METAR,382.0
KENW 200553Z AUTO 30003KT 10SM CLR 09/04 A3008 RMK AO2 SLP186 T00940044 10178 20094 402280094 50004,KENW,2023-05-20T05:53:00Z,42.6,-87.93,9.4,4.4,300,3,,10.0,30.079725,1018.6,,TRUE,TRUE,,,,,,,CLR,,,,,,,,VFR,0.4,17.8,9.4,22.8,9.4,,,,,,,METAR,222.0
KEMP 200553Z AUTO 29004KT 10SM CLR 09/08 A3021 RMK AO2 SLP235 T00890078 10156 20089 401940089 51010,KEMP,2023-05-20T05:53:00Z,38.33,-96.2,8.9,7.8,290,4,,10.0,30.209646,1023.5,,TRUE,TRUE,,,,,,,CLR,,,,,,,,VFR,1.0,15.6,8.9,19.4,8.9,,,,,,,METAR,366.0
KELY 200553Z AUTO 18006KT 10SM CLR 10/01 A3027 RMK AO2 SLP175 T01000011 10244 20100 51019,KELY,2023-05-20T05:53:00Z,39.3,-114.85,10.0,1.1,180,6,,10.0,30.268702,1017.5,,TRUE,TRUE,,,,,,,CLR,,,,,,,,VFR,1.9,24.4,10.0,,,,,,,,,METAR,1906.0
KELN 200553Z AUTO 28006KT 10SM FEW120 23/11 A3006 RMK AO2 PK WND 13028/0503 LTG DSNT E RAE15 TSB0454E19 SLP165 P0000 60034 T02280111 10328 20206 53008,KELN,2023-05-20T05:53:00Z,47.03,-120.53,22.8,11.1,280,6,,10.0,30.059055,1016.5,,TRUE,TRUE,,,,,,,FEW,12000,,,,,,,VFR,0.8,32.8,20.6,,,0.005,,0.34,,,,METAR,532.0
KELM 200553Z AUTO 18005KT 10SM CLR 17/09 A3007 RMK AO2 SLP178 T01670089 10200 20167 58005,KELM,2023-05-20T05:53:00Z,42.15,-76.9,16.7,8.9,180,5,,10.0,30.070866,1017.8,,TRUE,TRUE,,,,,,,CLR,,,,,,,,VFR,-0.5,20.0,16.7,,,,,,,,,METAR,287.0
KEET 200553Z AUTO 00000KT 10SM CLR 19/18 A3005 RMK AO2 SLP172 T01890178 10222 20189 402280183 58010,KEET,2023-05-20T05:53:00Z,33.18,-86.78,18.9,17.8,0,0,,10.0,30.050198,1017.2,,TRUE,TRUE,,,,,,,CLR,,,,,,,,VFR,-1.0,22.2,18.9,22.8,18.3,,,,,,,METAR,172.0
KEEO 200553Z AUTO 04008KT 10SM CLR 06/04 A3030 RMK AO2 SLP212 T00560039 10144 20056 51013,KEEO,2023-05-20T05:53:00Z,40.05,-107.88,5.6,3.9,40,8,,10.0,30.301182,1021.2,,TRUE,TRUE,,,,,,,CLR,,,,,,,,VFR,1.3,14.4,5.6,,,,,,,,,METAR,1957.0
KECP 200553Z AUTO 05004KT 10SM CLR 22/19 A3003 RMK AO1 SLP178 T02170194 10272 20217 58006,KECP,2023-05-20T05:53:00Z,30.35,-85.8,21.7,19.4,50,4,,10.0,30.029528,1017.8,,TRUE,TRUE,,,,,,,CLR,,,,,,,,VFR,-0.6,27.2,21.7,,,,,,,,,METAR,17.0
KDXR 200553Z 00000KT 10SM CLR 09/07 A3022 RMK AO2 SLP231 T00940072 10156 20094 58019,KDXR,2023-05-20T05:53:00Z,41.37,-73.48,9.4,7.2,0,0,,10.0,30.221457,1023.1,,,TRUE,,,,,,,CLR,,,,,,,,VFR,-1.9,15.6,9.4,,,,,,,,,METAR,138.0
KDWH 200553Z AUTO 22005KT 10SM CLR 25/19 A3004 RMK AO2 SLP170 T02500194 10311 20250 403390211 53011 $,KDWH,2023-05-20T05:53:00Z,30.07,-95.55,25.0,19.4,220,5,,10.0,30.041338,1017.0,,TRUE,TRUE,TRUE,,,,,,CLR,,,,,,,,VFR,1.1,31.1,25.0,33.9,21.1,,,,,,,METAR,46.0
KDVT 200553Z AUTO 33009KT 10SM SCT100 24/11 A3004 RMK AO2 SLP152 T02390111 10278 20239 51014,KDVT,2023-05-20T05:53:00Z,33.68,-112.07,23.9,11.1,330,9,,10.0,30.041338,1015.2,,TRUE,TRUE,,,,,,,SCT,10000,,,,,,,VFR,1.4,27.8,23.9,,,,,,,,,METAR,454.0
KDUJ 200553Z AUTO 15008G15KT 120V190 10SM BKN060 OVC075 17/10 A3003 RMK AO2 SLP159 T01670100 10200 20161 58013,KDUJ,2023-05-20T05:53:00Z,41.17,-78.9,16.7,10.0,150,8,15,10.0,30.029528,1015.9,,TRUE,TRUE,,,,,,,BKN,6000,OVC,7500,,,,,VFR,-1.3,20.0,16.1,,,,,,,,,METAR,552.0
KDUB 200553Z AUTO 30003KT 10SM CLR 08/M01 A3037 RMK AO2,KDUB,2023-05-20T05:53:00Z,43.55,-109.68,8.0,-1.0,300,3,,10.0,30.369095,,,TRUE,TRUE,,,,,,,CLR,,,,,,,,VFR,,,,,,,,,,,,SPECI,2205.0
KDTW 200553Z 32008KT 4SM -RA BR FEW030 BKN050 OVC075 14/12 A2996 RMK AO2 SLP144 P0002 60054 T01440122 10178 20144 55001,KDTW,2023-05-20T05:53:00Z,42.23,-83.33,14.4,12.2,320,8,,4.0,29.958662,1014.4,,,TRUE,,,,,,-RA BR,FEW,3000,BKN,5000,OVC,7500,,,MVFR,-0.1,17.8,14.4,,,0.02,,0.54,,,,METAR,192.0
KDTS 200553Z 10006KT 10SM FEW027 23/19 A3001 RMK AO2 SLP163 T02330194 10267 20233 402890222 58010,KDTS,2023-05-20T05:53:00Z,30.4,-86.47,23.3,19.4,100,6,,10.0,30.008858,1016.3,,,TRUE,,,,,,,FEW,2700,,,,,,,VFR,-1.0,26.7,23.3,28.9,22.2,,,,,,,METAR,5.0
KDTN 200553Z AUTO 24005KT 10SM OVC110 27/20 A3000 RMK AO2 LTG DSNT SW SLP155 T02720200 10306 20267 403220200 51014,KDTN,2023-05-20T05:53:00Z,32.55,-93.75,27.2,20.0,240,5,,10.0,30.0,1015.5,,TRUE,TRUE,,,,,,,OVC,11000,,,,,,,VFR,1.4,30.6,26.7,32.2,20.0,,,,,,,METAR,53.0
KDRT 200553Z AUTO 09008KT 10SM CLR 26/22 A3001 RMK AO2 SLP152 T02610222 10306 20250 403170211 53010,KDRT,2023-05-20T05:53:00Z,29.37,-100.92,26.1,22.2,90,8,,10.0,30.008858,1015.2,,TRUE,TRUE,,,,,,,CLR,,,,,,,,VFR,1.0,30.6,25.0,31.7,21.1,,,,,,,METAR,303.0
KDRO 200553Z AUTO 00000KT 10SM OVC065 09/08 A3039 RMK AO2 SLP229 60000 T00890078 10117 20089 51009,KDRO,2023-05-20T05:53:00Z,37.15,-107.77,8.9,7.8,0,0,,10.0,30.389763,1022.9,,TRUE,TRUE,,,,,,,OVC,6500,,,,,,,VFR,0.9,11.7,8.9,,,,,0.005,,,,METAR,2021.0
KDRA 200553Z AUTO 09003KT 10SM CLR 25/03 A3003 RMK AO2 SLP119 T02500033 10322 20250 51017,KDRA,2023-05-20T05:53:00Z,36.62,-116.03,25.0,3.3,90,3,,10.0,30.029528,1011.9,,TRUE,TRUE,,,,,,,CLR,,,,,,,,VFR,1.7,32.2,25.0,,,,,,,,,METAR,988.0
KDNL 200553Z AUTO 01005KT 10SM OVC022 19/17 A3008 RMK AO2 SLP182 T01890172 10194 20189 58015,KDNL,2023-05-20T05:53:00Z,33.47,-82.03,18.9,17.2,10,5,,10.0,30.079725,1018.2,,TRUE,TRUE,,,,,,,OVC,2200,,,,,,,MVFR,-1.5,19.4,18.9,,,,,,,,,METAR,126.0
KDMO 200553Z AUTO 30004KT 10SM CLR 11/09 A3017 RMK AO2 SLP216 T01110089 10144 20106 402170106 51005,KDMO,2023-05-20T05:53:00Z,38.72,-93.17,11.1,8.9,300,4,,10.0,30.171259,1021.6,,TRUE,TRUE,,,,,,,CLR,,,,,,,,VFR,0.5,14.4,10.6,21.7,10.6,,,,,,,METAR,271.0
KDMN 200553Z AUTO 05019G30KT 10SM BKN110 20/09 A3020 RMK AO2 PK WND 05030/0553 SLP156 T02000089 10300 20200 53014,KDMN,2023-05-20T05:53:00Z,32.27,-107.72,20.0,8.9,50,19,30,10.0,30.200787,1015.6,,TRUE,TRUE,,,,,,,BKN,11000,,,,,,,VFR,1.4,30.0,20.0,,,,,,,,,METAR,1310.0
KDLS 200553Z AUTO 32008G18KT 10SM CLR 25/14 A2999 RMK AO2 SLP153 T02500144 10317 20244 53028,KDLS,2023-05-20T05:53:00Z,45.62,-121.17,25.0,14.4,320,8,18,10.0,29.991142,1015.3,,TRUE,TRUE,,,,,,,CLR,,,,,,,,VFR,2.8,31.7,24.4,,,,,,,,,METAR,71.0
KDLN 200553Z AUTO 21007KT 7SM CLR 11/05 A3021 RMK AO2 SLP196 T01060050 10239 20106 51015,KDLN,2023-05-20T05:53:00Z,45.25,-112.55,10.6,5.0,210,7,,7.0,30.209646,1019.6,,TRUE,TRUE,,,,,,,CLR,,,,,,,,VFR,1.5,23.9,10.6,,,,,,,,,METAR,1586.0
KDKK 200553Z AUTO 17018G31KT 10SM CLR 20/11 A2991 RMK AO2 PK WND 19031/0551 SLP127 T02000106 10217 20200 56017,KDKK,2023-05-20T05:53:00Z,42.5,-79.28,20.0,10.6,170,18,31,10.0,29.911417,1012.7,,TRUE,TRUE,,,,,,,CLR,,,,,,,,VFR,-1.7,21.7,20.0,,,,,,,,,METAR,205.0
KDHT 200553Z AUTO 36004KT 3SM BR CLR 11/09 A3035 RMK AO2 SLP253 T01110094 10139 20111 401560111 50006,KDHT,2023-05-20T05:53:00Z,36.02,-102.55,11.1,9.4,360,4,,3.0,30.351377,1025.3,,TRUE,TRUE,,,,,,BR,CLR,,,,,,,,MVFR,0.6,13.9,11.1,15.6,11.1,,,,,,,METAR,1217.0
KDHN 200553Z AUTO 09003KT 10SM CLR 21/18 A3009 RMK AO2 SLP184 T02060178 10233 20200 57009,KDHN,2023-05-20T05:53:00Z,31.32,-85.45,20.6,17.8,90,3,,10.0,30.088583,1018.4,,TRUE,TRUE,,,,,,,CLR,,,,,,,,VFR,-0.9,23.3,20.0,,,,,,,,,METAR,113.0
KDGW 200553Z AUTO 12011KT 8SM CLR 09/07 A3030 RMK AO2 SLP231 T00940067 10183 20094 50000,KDGW,2023-05-20T05:53:00Z,42.8,-105.38,9.4,6.7,120,11,,8.0,30.301182,1023.1,,TRUE,TRUE,,,,,,,CLR,,,,,,,,VFR,0.0,18.3,9.4,,,,,,,,,METAR,1503.0
KDFI 200553Z AUTO 33006KT 4SM -RA BR BKN032 OVC041 14/13 A2999 RMK AO2 SLP153 P0007 60037 T01440128 10172 20144 53005,KDFI,2023-05-20T05:53:00Z,41.33,-84.43,14.4,12.8,330,6,,4.0,29.991142,1015.3,,TRUE,TRUE,,,,,,-RA BR,BKN,3200,OVC,4100,,,,,MVFR,0.5,17.2,14.4,,,0.07,,0.37,,,,METAR,215.0
KDEW 200553Z AUTO 00000KT 10SM CLR 14/11 A3006 RMK AO2 SLP168 T01440111 10306 20139 51014,KDEW,2023-05-20T05:53:00Z,47.97,-117.43,14.4,11.1,0,0,,10.0,30.059055,1016.8,,TRUE,TRUE,,,,,,,CLR,,,,,,,,VFR,1.4,30.6,13.9,,,,,,,,,METAR,672.0
KDEQ 200553Z AUTO 25003KT 10SM BKN070 OVC090 22/21 A3000 RMK AO2 SLP154 60000 T02170206 10267 20217 403060183 51017,KDEQ,2023-05-20T05:53:00Z,34.05,-94.4,21.7,20.6,250,3,,10.0,30.0,1015.4,,TRUE,TRUE,,,,,,,BKN,7000,OVC,9000,,,,,VFR,1.7,26.7,21.7,30.6,18.3,,,0.005,,,,METAR,107.0
KDEN 200553Z 14006KT 2SM BR OVC035 11/09 A3033 RMK AO2 SFC VIS 4 SLP233 T01110094 10133 20111 58005,KDEN,2023-05-20T05:53:00Z,39.85,-104.65,11.1,9.4,140,6,,2.0,30.33071,1023.3,,,TRUE,,,,,,BR,OVC,3500,,,,,,,IFR,-0.5,13.3,11.1,,,,,,,,,METAR,1656.0
KDCU 200553Z AUTO 17006KT 10SM OVC031 21/18 A3005 RMK AO2 SLP169 T02060178 10222 20206 402280172 58006,KDCU,2023-05-20T05:53:00Z,34.65,-86.95,20.6,17.8,170,6,,10.0,30.050198,1016.9,,TRUE,TRUE,,,,,,,OVC,3100,,,,,,,VFR,-0.6,22.2,20.6,22.8,17.2,,,,,,,METAR,180.0
KDBQ 200553Z AUTO 33007KT 10SM CLR 08/05 A3016 RMK AO2 SLP214 T00780050 10150 20078 401720078 51004,KDBQ,2023-05-20T05:53:00Z,42.4,-90.7,7.8,5.0,330,7,,10.0,30.159449,1021.4,,TRUE,TRUE,,,,,,,CLR,,,,,,,,VFR,0.4,15.0,7.8,17.2,7.8,,,,,,,METAR,317.0
KDAN 200553Z AUTO 00000KT 10SM CLR 16/14 A3010 RMK AO2 SLP185 T01560139 10194 20156 58019,KDAN,2023-05-20T05:53:00Z,36.57,-79.33,15.6,13.9,0,0,,10.0,30.100393,1018.5,,TRUE,TRUE,,,,,,,CLR,,,,,,,,VFR,-1.9,19.4,15.6,,,,,,,,,METAR,170.0
KDAL 200553Z 34012KT 10SM FEW015 BKN210 OVC250 21/18 A3009 RMK AO2 SLP184 60015 T02110183 10239 20211 403280211 53029,KDAL,2023-05-20T05:53:00Z,32.85,-96.85,21.1,18.3,340,12,,10.0,30.088583,1018.4,,,TRUE,,,,,,,FEW,1500,BKN,21000,OVC,25000,,,VFR,2.9,23.9,21.1,32.8,21.1,,,0.15,,,,METAR,148.0
KDAB 200553Z 04010KT 10SM BKN013 25/22 A3002 RMK AO2 SLP164 T02500217 10261 20250 58016,KDAB,2023-05-20T05:53:00Z,29.18,-81.07,25.0,21.7,40,10,,10.0,30.02067,1016.4,,,TRUE,,,,,,,BKN,1300,,,,,,,MVFR,-1.6,26.1,25.0,,,,,,,,,METAR,8.0
KCYS 200553Z AUTO 21004KT 3SM BR CLR 08/06 A3035 RMK AO2 SLP241 T00780061 10133 20078 58001,KCYS,2023-05-20T05:53:00Z,41.15,-104.8,7.8,6.1,210,4,,3.0,30.351377,1024.1,,TRUE,TRUE,,,,,,BR,CLR,,,,,,,,MVFR,-0.1,13.3,7.8,,,,,,,,,METAR,1868.0
KCXO 200553Z AUTO 24006KT 10SM CLR 25/19 A3003 RMK AO2 SLP166 T02500189 10311 20244 403330189 51009,KCXO,2023-05-20T05:53:00Z,30.35,-95.42,25.0,18.9,240,6,,10.0,30.029528,1016.6,,TRUE,TRUE,,,,,,,CLR,,,,,,,,VFR,0.9,31.1,24.4,33.3,18.9,,,,,,,METAR,69.0
KCUT 200553Z AUTO 26003KT 10SM CLR 04/01 A3033 RMK AO2 SLP254 T00390011 10111 20033 58001,KCUT,2023-05-20T05:53:00Z,43.73,-103.62,3.9,1.1,260,3,,10.0,30.33071,1025.4,,TRUE,TRUE,,,,,,,CLR,,,,,,,,VFR,-0.1,11.1,3.3,,,,,,,,,METAR,1700.0
KCSM 200553Z AUTO 35008KT 6SM BR CLR 12/11 A3025 RMK AO2 SLP229 T01170106 10150 20117 402440117 58001,KCSM,2023-05-20T05:53:00Z,35.35,-99.2,11.7,10.6,350,8,,6.0,30.250984,1022.9,,TRUE,TRUE,,,,,,BR,CLR,,,,,,,,VFR,-0.1,15.0,11.7,24.4,11.7,,,,,,,METAR,586.0
KCRS 200553Z AUTO 25006KT 10SM FEW110 23/20 A3008 RMK AO2 SLP179 60002 T02280200 10289 20228 403330206 51039,KCRS,2023-05-20T05:53:00Z,32.03,-96.4,22.8,20.0,250,6,,10.0,30.079725,1017.9,,TRUE,TRUE,,,,,,,FEW,11000,,,,,,,VFR,3.9,28.9,22.8,33.3,20.6,,,0.02,,,,METAR,136.0
KCRQ 200553Z AUTO 00000KT 10SM OVC011 16/13 A3007 RMK AO2 SLP181 T01610133 10172 20161 51014,KCRQ,2023-05-20T05:53:00Z,33.13,-117.28,16.1,13.3,0,0,,10.0,30.070866,1018.1,,TRUE,TRUE,,,,,,,OVC,1100,,,,,,,MVFR,1.4,17.2,16.1,,,,,,,,,METAR,96.0
KCRG 200553Z AUTO 00000KT 10SM CLR 21/19 A3003 RMK AO2 SLP168 T02060189 10244 20206 58015,KCRG,2023-05-20T05:53:00Z,30.33,-81.52,20.6,18.9,0,0,,10.0,30.029528,1016.8,,TRUE,TRUE,,,,,,,CLR,,,,,,,,VFR,-1.5,24.4,20.6,,,,,,,,,METAR,12.0
KCRE 200553Z AUTO 02005KT 3SM BR OVC006 18/18 A3003 RMK AO1 RAB26E47 CIG 004V010 SLP170 P0000 60000 T01830178 10217 20183 58007,KCRE,2023-05-20T05:53:00Z,33.82,-78.72,18.3,17.8,20,5,,3.0,30.029528,1017.0,,TRUE,TRUE,,,,,,BR,OVC,600,,,,,,,IFR,-0.7,21.7,18.3,,,0.005,,0.005,,,,METAR,9.0
KCQC 200553Z AUTO 09010KT 4SM BR OVC004 08/07 A3044 RMK AO2 SLP269 60000 T00780072 10111 20078 $,KCQC,2023-05-20T05:53:00Z,35.0,-105.67,7.8,7.2,90,10,,4.0,30.43996,1026.9,,TRUE,TRUE,TRUE,,,,,BR,OVC,400,,,,,,,LIFR,,11.1,7.8,,,,,0.005,,,,METAR,2163.0
KCPS 200553Z AUTO 34004KT 10SM BKN060 BKN110 14/11 A3010 RMK AO2 SLP189 60000 T01440106 10178 20144 402780144 51003,KCPS,2023-05-20T05:53:00Z,38.53,-90.15,14.4,10.6,340,4,,10.0,30.100393,1018.9,,TRUE,TRUE,,,,,,,BKN,6000,BKN,11000,,,,,VFR,0.3,17.8,14.4,27.8,14.4,,,0.005,,,,METAR,125.0
KCPR 200553Z AUTO 02006KT 7SM CLR 06/04 A3027 RMK AO2 SLP223 T00610044 10189 20061 50005,KCPR,2023-05-20T05:53:00Z,42.9,-106.47,6.1,4.4,20,6,,7.0,30.268702,1022.3,,TRUE,TRUE,,,,,,,CLR,,,,,,,,VFR,0.5,18.9,6.1,,,,,,,,,METAR,1623.0
KCNY 200553Z AUTO 15016G26KT 10SM CLR 19/07 A3018 RMK AO2 PK WND 15026/0550 SLP168 T01890072 10278 20183 51024,KCNY,2023-05-20T05:53:00Z,38.77,-109.75,18.9,7.2,150,16,26,10.0,30.180119,1016.8,,TRUE,TRUE,,,,,,,CLR,,,,,,,,VFR,2.4,27.8,18.3,,,,,,,,,METAR,1392.0
KCNM 200553Z AUTO 02015KT 10SM OVC070 18/15 A3025 RMK AO2 SLP192 60000 T01830150 10306 20178 50022,KCNM,2023-05-20T05:53:00Z,32.33,-104.25,18.3,15.0,20,15,,10.0,30.250984,1019.2,,TRUE,TRUE,,,,,,,OVC,7000,,,,,,,VFR,2.2,30.6,17.8,,,,,0.005,,,,METAR,993.0
KCMX 200553Z AUTO 30005KT 10SM CLR 04/03 A3013 RMK AO2 SLP211 T00440028 10078 20044 51007,KCMX,2023-05-20T05:53:00Z,47.17,-88.48,4.4,2.8,300,5,,10.0,30.129921,1021.1,,TRUE,TRUE,,,,,,,CLR,,,,,,,,VFR,0.7,7.8,4.4,,,,,,,,,METAR,326.0
KCMI 200553Z AUTO 36013KT 10SM SCT100 14/07 A3007 RMK AO2 SLP178 60000 T01440067 10200 20144 402940111 51007,KCMI,2023-05-20T05:53:00Z,40.03,-88.27,14.4,6.7,360,13,,10.0,30.070866,1017.8,,TRUE,TRUE,,,,,,,SCT,10000,,,,,,,VFR,0.7,20.0,14.4,29.4,11.1,,,0.005,,,,METAR,227.0
KCLM 200553Z AUTO 29008KT 10SM CLR 13/09 A3010 RMK AO2 SLP193 T01280094 10183 20128 50004,KCLM,2023-05-20T05:53:00Z,48.12,-123.5,12.8,9.4,290,8,,10.0,30.100393,1019.3,,TRUE,TRUE,,,,,,,CLR,,,,,,,,VFR,0.4,18.3,12.8,,,,,,,,,METAR,81.0
KCLL 200553Z AUTO 22008KT 10SM BKN110 26/19 A3005 RMK AO2 LTG DSNT NW SLP169 T02610194 10317 20256 403390211 51018,KCLL,2023-05-20T05:53:00Z,30.58,-96.37,26.1,19.4,220,8,,10.0,30.050198,1016.9,,TRUE,TRUE,,,,,,,BKN,11000,,,,,,,VFR,1.8,31.7,25.6,33.9,21.1,,,,,,,METAR,96.0
KCKB 200553Z AUTO 00000KT 10SM OVC095 16/11 A3002 RMK AO2 SLP153 T01610111 10233 20161 58010,KCKB,2023-05-20T05:53:00Z,39.3,-80.22,16.1,11.1,0,0,,10.0,30.02067,1015.3,,TRUE,TRUE,,,,,,,OVC,9500,,,,,,,VFR,-1.0,23.3,16.1,,,,,,,,,METAR,368.0
KCHO 200553Z AUTO 00000KT 10SM BKN044 18/12 A3011 RMK AO2 SLP191 T01780122 10217 20178 58016,KCHO,2023-05-20T05:53:00Z,38.13,-78.45,17.8,12.2,0,0,,10.0,30.109253,1019.1,,TRUE,TRUE,,,,,,,BKN,4400,,,,,,,VFR,-1.6,21.7,17.8,,,,,,,,,METAR,193.0
KCHA 200553Z AUTO 23003KT 10SM FEW029 SCT050 19/17 A3006 RMK AO2 SLP172 T01890167 10233 20183 58007,KCHA,2023-05-20T05:53:00Z,35.03,-85.2,18.9,16.7,230,3,,10.0,30.059055,1017.2,,TRUE,TRUE,,,,,,,FEW,2900,SCT,5000,,,,,VFR,-0.7,23.3,18.3,,,,,,,,,METAR,203.0
KCGI 200553Z AUTO 01013KT 5SM BR OVC080 17/16 A3003 RMK AO2 SLP166 60024 T01720156 10228 20172 402720167 55003,KCGI,2023-05-20T05:53:00Z,37.23,-89.58,17.2,15.6,10,13,,5.0,30.029528,1016.6,,TRUE,TRUE,,,,,,BR,OVC,8000,,,,,,,MVFR,-0.3,22.8,17.2,27.2,16.7,,,0.24,,,,METAR,103.0
KCEZ 200553Z AUTO 00000KT 10SM FEW080 SCT120 12/06 A3034 RMK AO2 SLP213 T01220061 10161 20117 51019,KCEZ,2023-05-20T05:53:00Z,37.3,-108.63,12.2,6.1,0,0,,10.0,30.339567,1021.3,,TRUE,TRUE,,,,,,,FEW,8000,SCT,12000,,,,,VFR,1.9,16.1,11.7,,,,,,,,,METAR,1801.0
KCEW 200553Z AUTO 00000KT 7SM SCT026 21/19 A3004 RMK AO2 SLP171 60036 T02060194 10228 20206 403110189 58007,KCEW,2023-05-20T05:53:00Z,30.78,-86.52,20.6,19.4,0,0,,7.0,30.041338,1017.1,,TRUE,TRUE,,,,,,,SCT,2600,,,,,,,VFR,-0.7,22.8,20.6,31.1,18.9,,,0.36,,,,METAR,47.0
KCDW 200553Z AUTO 00000KT 10SM CLR 11/08 A3020 RMK AO2 SLP232 T01060083 10167 20106 58017,KCDW,2023-05-20T05:53:00Z,40.88,-74.28,10.6,8.3,0,0,,10.0,30.200787,1023.2,,TRUE,TRUE,,,,,,,CLR,,,,,,,,VFR,-1.7,16.7,10.6,,,,,,,,,METAR,52.0
KCDS 200553Z AUTO 03008KT 5SM HZ CLR 15/11 A3026 RMK AO2 SLP230 T01500106 10194 20150 402720150 51012,KCDS,2023-05-20T05:53:00Z,34.43,-100.28,15.0,10.6,30,8,,5.0,30.259842,1023.0,,TRUE,TRUE,,,,,,HZ,CLR,,,,,,,,MVFR,1.2,19.4,15.0,27.2,15.0,,,,,,,METAR,595.0
KCDR 200553Z AUTO 25005KT 10SM CLR 07/04 A3030 RMK AO2 SLP268 T00720044 10167 20067 50001,KCDR,2023-05-20T05:53:00Z,42.83,-103.1,7.2,4.4,250,5,,10.0,30.301182,1026.8,,TRUE,TRUE,,,,,,,CLR,,,,,,,,VFR,0.1,16.7,6.7,,,,,,,,,METAR,1002.0
KCDC 200553Z AUTO 14006KT 10SM CLR 17/02 A3022 RMK AO2 SLP165 T01670022 10250 20156 51015 $,KCDC,2023-05-20T05:53:00Z,37.7,-113.1,16.7,2.2,140,6,,10.0,30.221457,1016.5,,TRUE,TRUE,TRUE,,,,,,CLR,,,,,,,,VFR,1.5,25.0,15.6,,,,,,,,,METAR,1703.0
KCCR 200553Z AUTO 19014KT 10SM CLR 13/10 A3004 RMK AO2 SLP160 T01330100 10250 20133 51015,KCCR,2023-05-20T05:53:00Z,38.0,-122.05,13.3,10.0,190,14,,10.0,30.041338,1016.0,,TRUE,TRUE,,,,,,,CLR,,,,,,,,VFR,1.5,25.0,13.3,,,,,,,,,METAR,6.0
KCAG 200553Z AUTO 12005KT 10SM CLR 10/04 A3029 RMK AO2 SLP207 T01000039 10200 20072 51009,KCAG,2023-05-20T05:53:00Z,40.5,-107.52,10.0,3.9,120,5,,10.0,30.28937,1020.7,,TRUE,TRUE,,,,,,,CLR,,,,,,,,VFR,0.9,20.0,7.2,,,,,,,,,METAR,1888.0
KBYI 200553Z AUTO 17003KT 9SM CLR 12/06 A3016 RMK AO2 SLP180 T01220061 10272 20122 51012,KBYI,2023-05-20T05:53:00Z,42.55,-113.77,12.2,6.1,170,3,,9.0,30.159449,1018.0,,TRUE,TRUE,,,,,,,CLR,,,,,,,,VFR,1.2,27.2,12.2,,,,,,,,,METAR,1263.0
KBYG 200553Z AUTO 15005KT 9SM CLR 12/03 A3022 RMK AO2 SLP201 T01220033 10189 20122 58005,KBYG,2023-05-20T05:53:00Z,44.38,-106.72,12.2,3.3,150,5,,9.0,30.221457,1020.1,,TRUE,TRUE,,,,,,,CLR,,,,,,,,VFR,-0.5,18.9,12.2,,,,,,,,,METAR,1503.0
KBWG 200553Z AUTO 19004KT 10SM OVC100 21/17 A3001 RMK AO2 SLP157 T02060172 10233 20206 402560183 58008,KBWG,2023-05-20T05:53:00Z,36.97,-86.42,20.6,17.2,190,4,,10.0,30.008858,1015.7,,TRUE,TRUE,,,,,,,OVC,10000,,,,,,,VFR,-0.8,23.3,20.6,25.6,18.3,,,,,,,METAR,159.0
KBVY 200553Z AUTO 19005KT 10SM CLR 12/08 A3023 RMK AO2 SLP232 T01170083 10150 20117 58012,KBVY,2023-05-20T05:53:00Z,42.58,-70.92,11.7,8.3,190,5,,10.0,30.230314,1023.2,,TRUE,TRUE,,,,,,,CLR,,,,,,,,VFR,-1.2,15.0,11.7,,,,,,,,,METAR,28.0
KBVO 200553Z AUTO 00000KT 6SM BR CLR 10/09 A3022 RMK AO2 SLP229 60000 T01000094 10139 20100 402110100 51014,KBVO,2023-05-20T05:53:00Z,36.77,-96.02,10.0,9.4,0,0,,6.0,30.221457,1022.9,,TRUE,TRUE,,,,,,BR,CLR,,,,,,,,VFR,1.4,13.9,10.0,21.1,10.0,,,0.005,,,,METAR,210.0
KBUR 200553Z 19003KT 4SM HZ OVC012 16/13 A3006 RMK AO2 SLP170 T01610133 10211 20161 50010,KBUR,2023-05-20T05:53:00Z,34.2,-118.37,16.1,13.3,190,3,,4.0,30.059055,1017.0,,,TRUE,,,,,,HZ,OVC,1200,,,,,,,MVFR,1.0,21.1,16.1,,,,,,,,,METAR,221.0
KBTR 200553Z AUTO 24006KT 10SM CLR 26/23 A3000 RMK AO2 SLP155 T02560228 10317 20244 403390200 53005,KBTR,2023-05-20T05:53:00Z,30.53,-91.15,25.6,22.8,240,6,,10.0,30.0,1015.5,,TRUE,TRUE,,,,,,,CLR,,,,,,,,VFR,0.5,31.7,24.4,33.9,20.0,,,,,,,METAR,20.0
KBTM 200553Z AUTO 13003KT 9SM CLR 12/04 A3025 RMK AO2 SLP200 T01170039 10250 20117 51012,KBTM,2023-05-20T05:53:00Z,45.97,-112.5,11.7,3.9,130,3,,9.0,30.250984,1020.0,,TRUE,TRUE,,,,,,,CLR,,,,,,,,VFR,1.2,25.0,11.7,,,,,,,,,METAR,1680.0
KBTL 200553Z AUTO 32007KT 10SM CLR 12/07 A3002 RMK AO2 SLP164 T01170067 10161 20117 51003,KBTL,2023-05-20T05:53:00Z,42.32,-85.25,11.7,6.7,320,7,,10.0,30.02067,1016.4,,TRUE,TRUE,,,,,,,CLR,,,,,,,,VFR,0.3,16.1,11.7,,,,,,,,,METAR,282.0
KBRO 200553Z AUTO 15005KT 10SM CLR 26/24 A3001 RMK AO2 SLP160 T02560239 10289 20256 403280244 50003,KBRO,2023-05-20T05:53:00Z,25.92,-97.42,25.6,23.9,150,5,,10.0,30.008858,1016.0,,TRUE,TRUE,,,,,,,CLR,,,,,,,,VFR,0.3,28.9,25.6,32.8,24.4,,,,,,,METAR,6.0
KBRL 200553Z AUTO 35006KT 10SM CLR 11/05 A3015 RMK AO2 SLP209 T01110050 10178 20111 401890111 51012,KBRL,2023-05-20T05:53:00Z,40.77,-91.13,11.1,5.0,350,6,,10.0,30.15059,1020.9,,TRUE,TRUE,,,,,,,CLR,,,,,,,,VFR,1.2,17.8,11.1,18.9,11.1,,,,,,,METAR,208.0
KBRD 200553Z AUTO 00000KT 10SM CLR 04/03 A3024 RMK AO2 SLP249 T00440028 10167 20044 401670044 51005,KBRD,2023-05-20T05:53:00Z,46.4,-94.13,4.4,2.8,0,0,,10.0,30.239174,1024.9,,TRUE,TRUE,,,,,,,CLR,,,,,,,,VFR,0.5,16.7,4.4,16.7,4.4,,,,,,,METAR,372.0
KBPT 200553Z AUTO 24004KT 10SM CLR 24/22 A3000 RMK AO2 SLP159 T02390222 10289 20233 403330206 50002,KBPT,2023-05-20T05:53:00Z,29.95,-94.03,23.9,22.2,240,4,,10.0,30.0,1015.9,,TRUE,TRUE,,,,,,,CLR,,,,,,,,VFR,0.2,28.9,23.3,33.3,20.6,,,,,,,METAR,6.0
KBPK 200553Z AUTO VRB03KT 5SM BR OVC005 15/14 A3008 RMK AO2 RAE33 SLP178 P0001 60063 T01500144 10206 20150 402440150 51007,KBPK,2023-05-20T05:53:00Z,36.37,-92.47,15.0,14.4,0,3,,5.0,30.079725,1017.8,,TRUE,TRUE,,,,,,BR,OVC,500,,,,,,,IFR,0.7,20.6,15.0,24.4,15.0,0.01,,0.63,,,,METAR,279.0
KBPI 200553Z AUTO 25003KT 10SM CLR 10/02 A3035 RMK AO2 SLP210 T01000017 10194 20089 51013,KBPI,2023-05-20T05:53:00Z,42.58,-110.1,10.0,1.7,250,3,,10.0,30.351377,1021.0,,TRUE,TRUE,,,,,,,CLR,,,,,,,,VFR,1.3,19.4,8.9,,,,,,,,,METAR,2120.0
KBOI 200553Z 11006KT 10SM CLR 22/09 A3007 RMK AO2 SLP154 T02170094 10322 20211 51010,KBOI,2023-05-20T05:53:00Z,43.57,-116.23,21.7,9.4,110,6,,10.0,30.070866,1015.4,,,TRUE,,,,,,,CLR,,,,,,,,VFR,1.0,32.2,21.1,,,,,,,,,METAR,860.0
KBNO 200553Z AUTO 30015KT 10SM FEW110 19/08 A3020 RMK AO2 LTG DSNT SW SLP189 T01890078 10289 20161 53025,KBNO,2023-05-20T05:53:00Z,43.6,-118.95,18.9,7.8,300,15,,10.0,30.200787,1018.9,,TRUE,TRUE,,,,,,,FEW,11000,,,,,,,VFR,2.5,28.9,16.1,,,,,,,,,METAR,1263.0
KBNA 200553Z 20003KT 10SM FEW034 BKN140 BKN250 20/17 A3003 RMK AO2 SLP165 T02000167 10228 20200 402440178 57008,KBNA,2023-05-20T05:53:00Z,36.12,-86.68,20.0,16.7,200,3,,10.0,30.029528,1016.5,,,TRUE,,,,,,,FEW,3400,BKN,14000,BKN,25000,,,VFR,-0.8,22.8,20.0,24.4,17.8,,,,,,,METAR,168.0
KBMQ 200553Z AUTO 36008KT 10SM -RA BKN041 BKN055 20/19 A3018 RMK AO2 RAE0455B48 SLP202 P0000 60005 T02000194 10294 20200 403170200 53038,KBMQ,2023-05-20T05:53:00Z,30.73,-98.23,20.0,19.4,360,8,,10.0,30.180119,1020.2,,TRUE,TRUE,,,,,,-RA,BKN,4100,BKN,5500,,,,,VFR,3.8,29.4,20.0,31.7,20.0,0.005,,0.05,,,,METAR,387.0
KBMG 200553Z AUTO 00000KT 5SM BR OVC110 16/14 A3003 RMK AO2 RAE51 SLP161 P0001 60016 T01610144 10233 20161 50003,KBMG,2023-05-20T05:53:00Z,39.15,-86.62,16.1,14.4,0,0,,5.0,30.029528,1016.1,,TRUE,TRUE,,,,,,BR,OVC,11000,,,,,,,MVFR,0.3,23.3,16.1,,,0.01,,0.16,,,,METAR,254.0
KBLI 200553Z AUTO 19005KT 10SM CLR 16/14 A3005 RMK AO2 SLP183 T01610139 10228 20161 51009,KBLI,2023-05-20T05:53:00Z,48.8,-122.53,16.1,13.9,190,5,,10.0,30.050198,1018.3,,TRUE,TRUE,,,,,,,CLR,,,,,,,,VFR,0.9,22.8,16.1,,,,,,,,,METAR,46.0
KBKV 200553Z AUTO 05006KT 10SM OVC075 23/22 A3001 RMK AO2 SLP161 T02280217 10278 20228 58010,KBKV,2023-05-20T05:53:00Z,28.47,-82.45,22.8,21.7,50,6,,10.0,30.008858,1016.1,,TRUE,TRUE,,,,,,,OVC,7500,,,,,,,VFR,-1.0,27.8,22.8,,,,,,,,,METAR,21.0
KBKE 200553Z AUTO 28004KT 10SM CLR 16/09 A3014 RMK AO2 SLP186 T01560089 10228 20156 50010,KBKE,2023-05-20T05:53:00Z,44.85,-117.82,15.6,8.9,280,4,,10.0,30.138779,1018.6,,TRUE,TRUE,,,,,,,CLR,,,,,,,,VFR,1.0,22.8,15.6,,,,,,,,,METAR,1025.0
KBIV 200553Z AUTO 33005KT 8SM OVC046 10/07 A3005 RMK AO2 SLP176 T01000072 10156 20072 51003,KBIV,2023-05-20T05:53:00Z,42.75,-86.1,10.0,7.2,330,5,,8.0,30.050198,1017.6,,TRUE,TRUE,,,,,,,OVC,4600,,,,,,,VFR,0.3,15.6,7.2,,,,,,,,,METAR,207.0
KBIL 200553Z 17007KT 10SM CLR 16/06 A3015 RMK AO2 SLP190 T01610056 10233 20161 58001,KBIL,2023-05-20T05:53:00Z,45.8,-108.55,16.1,5.6,170,7,,10.0,30.15059,1019.0,,,TRUE,,,,,,,CLR,,,,,,,,VFR,-0.1,23.3,16.1,,,,,,,,,METAR,1089.0
KBHM 200553Z 00000KT 10SM FEW010 FEW250 19/17 A3007 RMK AO2 SLP177 T01890167 10222 20189 402280189 58009,KBHM,2023-05-20T05:53:00Z,33.57,-86.75,18.9,16.7,0,0,,10.0,30.070866,1017.7,,,TRUE,,,,,,,FEW,1000,FEW,25000,,,,,VFR,-0.9,22.2,18.9,22.8,18.9,,,,,,,METAR,191.0
KBGR 200553Z 19006KT 10SM FEW090 SCT250 10/07 A3019 RMK AO2 SLP221 T01000072 10106 20094 58007,KBGR,2023-05-20T05:53:00Z,44.8,-68.82,10.0,7.2,190,6,,10.0,30.188976,1022.1,,,TRUE,,,,,,,FEW,9000,SCT,25000,,,,,VFR,-0.7,10.6,9.4,,,,,,,,,METAR,45.0
KBGM 200553Z AUTO 17007KT 10SM SCT120 15/08 A3010 RMK AO2 SLP189 T01500078 10183 20150 58008,KBGM,2023-05-20T05:53:00Z,42.22,-75.98,15.0,7.8,170,7,,10.0,30.100393,1018.9,,TRUE,TRUE,,,,,,,SCT,12000,,,,,,,VFR,-0.8,18.3,15.0,,,,,,,,,METAR,485.0
KBFM 200553Z AUTO 14008KT 10SM CLR 25/23 A3003 RMK AO2 SLP168 T02500228 10272 20250 402940217 57005,KBFM,2023-05-20T05:53:00Z,30.62,-88.07,25.0,22.8,140,8,,10.0,30.029528,1016.8,,TRUE,TRUE,,,,,,,CLR,,,,,,,,VFR,-0.5,27.2,25.0,29.4,21.7,,,,,,,METAR,7.0
KBFI 200553Z 30003KT 10SM FU FEW110 19/09 A3008 RMK AO2 SLP184 T01890094 10233 20189 51014,KBFI,2023-05-20T05:53:00Z,47.55,-122.32,18.9,9.4,300,3,,10.0,30.079725,1018.4,,,TRUE,,,,,,FU,FEW,11000,,,,,,,VFR,1.4,23.3,18.9,,,,,,,,,METAR,7.0
KBFF 200553Z AUTO 09006KT 10SM CLR 09/06 A3031 RMK AO2 SLP255 T00890056 10172 20089 58001,KBFF,2023-05-20T05:53:00Z,41.87,-103.6,8.9,5.6,90,6,,10.0,30.31004,1025.5,,TRUE,TRUE,,,,,,,CLR,,,,,,,,VFR,-0.1,17.2,8.9,,,,,,,,,METAR,1204.0
KBFD 200553Z AUTO 14006KT 10SM FEW049 SCT060 BKN095 16/10 A3003 RMK AO2 SLP159 T01610100 10194 20161 58013,KBFD,2023-05-20T05:53:00Z,41.8,-78.63,16.1,10.0,140,6,,10.0,30.029528,1015.9,,TRUE,TRUE,,,,,,,FEW,4900,SCT,6000,BKN,9500,,,VFR,-1.3,19.4,16.1,,,,,,,,,METAR,642.0
KBEH 200553Z AUTO 00000KT 4SM BR CLR 08/07 A3005 RMK AO2 SLP176 T00780067 10139 20078 50003,KBEH,2023-05-20T05:53:00Z,42.13,-86.42,7.8,6.7,0,0,,4.0,30.050198,1017.6,,TRUE,TRUE,,,,,,BR,CLR,,,,,,,,MVFR,0.3,13.9,7.8,,,,,,,,,METAR,196.0
KBDE 200553Z AUTO 25006KT 10SM CLR 12/03 A3020 RMK AO2 SLP232 T01170033 10194 20089 402000056 52001,KBDE,2023-05-20T05:53:00Z,48.73,-94.62,11.7,3.3,250,6,,10.0,30.200787,1023.2,,TRUE,TRUE,,,,,,,CLR,,,,,,,,VFR,0.1,19.4,8.9,20.0,5.6,,,,,,,METAR,330.0
KBCE 200553Z AUTO 36003KT 10SM CLR 08/04 A3037 RMK AO2 SLP188 T00780044 10161 20078 51012,KBCE,2023-05-20T05:53:00Z,37.7,-112.15,7.8,4.4,360,3,,10.0,30.369095,1018.8,,TRUE,TRUE,,,,,,,CLR,,,,,,,,VFR,1.2,16.1,7.8,,,,,,,,,METAR,2311.0
KBBW 200553Z AUTO 23004KT 10SM CLR 08/05 A3029 RMK AO2 SLP256 T00780050 10183 20067 401940067 50004,KBBW,2023-05-20T05:53:00Z,41.43,-99.63,7.8,5.0,230,4,,10.0,30.28937,1025.6,,TRUE,TRUE,,,,,,,CLR,,,,,,,,VFR,0.4,18.3,6.7,19.4,6.7,,,,,,,METAR,771.0
KBAF 200553Z 15003KT 10SM CLR 08/07 A3021 RMK AO2 SLP232 T00830067 10167 20083 58015,KBAF,2023-05-20T05:53:00Z,42.17,-72.72,8.3,6.7,150,3,,10.0,30.209646,1023.2,,,TRUE,,,,,,,CLR,,,,,,,,VFR,-1.5,16.7,8.3,,,,,,,,,METAR,80.0
KAZO 200553Z AUTO 33007KT 10SM CLR 11/07 A3003 RMK AO2 SLP168 T01110067 10167 20111 50004,KAZO,2023-05-20T05:53:00Z,42.23,-85.55,11.1,6.7,330,7,,10.0,30.029528,1016.8,,TRUE,TRUE,,,,,,,CLR,,,,,,,,VFR,0.4,16.7,11.1,,,,,,,,,METAR,264.0
KAXN 200553Z AUTO 00000KT 10SM CLR 07/04 A3026 RMK AO2 SLP257 T00720044 10156 20072 401670056 50006,KAXN,2023-05-20T05:53:00Z,45.87,-95.4,7.2,4.4,0,0,,10.0,30.259842,1025.7,,TRUE,TRUE,,,,,,,CLR,,,,,,,,VFR,0.6,15.6,7.2,16.7,5.6,,,,,,,METAR,433.0
KAWM 200553Z AUTO 18006KT 10SM BKN050 BKN080 23/19 A2996 RMK AO2 SLP141 T02330194 10267 20228 402830189 50003,KAWM,2023-05-20T05:53:00Z,35.13,-90.23,23.3,19.4,180,6,,10.0,29.958662,1014.1,,TRUE,TRUE,,,,,,,BKN,5000,BKN,8000,,,,,VFR,0.3,26.7,22.8,28.3,18.9,,,,,,,METAR,64.0
KAUO 200553Z AUTO 00000KT 10SM OVC019 18/18 A3009 RMK AO2 SLP181 T01830178 10206 20178 58010,KAUO,2023-05-20T05:53:00Z,32.62,-85.43,18.3,17.8,0,0,,10.0,30.088583,1018.1,,TRUE,TRUE,,,,,,,OVC,1900,,,,,,,MVFR,-1.0,20.6,17.8,,,,,,,,,METAR,231.0
KAUG 200553Z AUTO 20006KT 10SM CLR 12/07 A3019 RMK AO2 SLP223 T01170072 10128 20117 56007,KAUG,2023-05-20T05:53:00Z,44.32,-69.8,11.7,7.2,200,6,,10.0,30.188976,1022.3,,TRUE,TRUE,,,,,,,CLR,,,,,,,,VFR,-0.7,12.8,11.7,,,,,,,,,METAR,107.0
KATY 200553Z AUTO 00000KT 10SM CLR 04/03 A3026 RMK AO2 SLP259 T00440033 10133 20044 401390044 50002,KATY,2023-05-20T05:53:00Z,44.9,-97.15,4.4,3.3,0,0,,10.0,30.259842,1025.9,,TRUE,TRUE,,,,,,,CLR,,,,,,,,VFR,0.2,13.3,4.4,13.9,4.4,,,,,,,METAR,531.0
KASX 200553Z AUTO 24007KT 10SM CLR 06/04 A3018 RMK AO2 SLP225 T00610044 10117 20022 401220022 50002,KASX,2023-05-20T05:53:00Z,46.55,-90.92,6.1,4.4,240,7,,10.0,30.180119,1022.5,,TRUE,TRUE,,,,,,,CLR,,,,,,,,VFR,0.2,11.7,2.2,12.2,2.2,,,,,,,METAR,249.0
KASE 200553Z AUTO 21004KT 10SM CLR 07/04 A3036 RMK AO2 SLP186 60030 T00720044 10161 20072 58005,KASE,2023-05-20T05:53:00Z,39.23,-106.87,7.2,4.4,210,4,,10.0,30.360237,1018.6,,TRUE,TRUE,,,,,,,CLR,,,,,,,,VFR,-0.5,16.1,7.2,,,,,0.3,,,,METAR,2384.0
KASD 200553Z AUTO 00000KT 10SM FEW060 26/23 A3000 RMK AO2 SLP158 T02560233 10306 20256 403280206 51001,KASD,2023-05-20T05:53:00Z,30.35,-89.82,25.6,23.3,0,0,,10.0,30.0,1015.8,,TRUE,TRUE,,,,,,,FEW,6000,,,,,,,VFR,0.1,30.6,25.6,32.8,20.6,,,,,,,METAR,8.0
KARB 200553Z AUTO 32006KT 5SM HZ OVC055 13/11 A2997 RMK AO2 SLP145 P0001 60042 T01330106 10172 20133 51003,KARB,2023-05-20T05:53:00Z,42.22,-83.73,13.3,10.6,320,6,,5.0,29.970472,1014.5,,TRUE,TRUE,,,,,,HZ,OVC,5500,,,,,,,MVFR,0.3,17.2,13.3,,,0.01,,0.42,,,,METAR,251.0
KARA 200553Z AUTO 26003KT 10SM CLR 24/22 A3000 RMK AO2 SLP158 T02390217 10311 20233 403280200 53005,KARA,2023-05-20T05:53:00Z,30.03,-91.88,23.9,21.7,260,3,,10.0,30.0,1015.8,,TRUE,TRUE,,,,,,,CLR,,,,,,,,VFR,0.5,31.1,23.3,32.8,20.0,,,,,,,METAR,5.0
KAPF 200553Z AUTO 11003KT 10SM CLR 26/22 A2996 RMK AO2 SLP145 T02610222 10289 20261 58018 PWINO,KAPF,2023-05-20T05:53:00Z,26.15,-81.77,26.1,22.2,110,3,,10.0,29.958662,1014.5,,TRUE,TRUE,,,,,TRUE,,CLR,,,,,,,,VFR,-1.8,28.9,26.1,,,,,,,,,METAR,2.0
KAPA 200553Z 14004KT 3SM FU BKN040 BKN060 09/08 A3034 RMK AO2 SLP254 60001 T00940083 10117 20094 58006,KAPA,2023-05-20T05:53:00Z,39.57,-104.85,9.4,8.3,140,4,,3.0,30.339567,1025.4,,,TRUE,,,,,,FU,BKN,4000,BKN,6000,,,,,MVFR,-0.6,11.7,9.4,,,,,0.01,,,,METAR,1791.0
KAOO 200553Z AUTO 19004KT 10SM BKN100 14/10 A3010 RMK AO2 SLP188 T01440100 10189 20144 58012,KAOO,2023-05-20T05:53:00Z,40.3,-78.32,14.4,10.0,190,4,,10.0,30.100393,1018.8,,TRUE,TRUE,,,,,,,BKN,10000,,,,,,,VFR,-1.2,18.9,14.4,,,,,,,,,METAR,450.0
KANB 200553Z AUTO 00000KT 10SM FEW029 17/17 A3007 RMK AO2 SLP179 T01720167 10211 20172 402220172 58008,KANB,2023-05-20T05:53:00Z,33.58,-85.85,17.2,16.7,0,0,,10.0,30.070866,1017.9,,TRUE,TRUE,,,,,,,FEW,2900,,,,,,,VFR,-0.8,21.1,17.2,22.2,17.2,,,,,,,METAR,187.0
KAMW 200553Z AUTO 32004KT 10SM CLR 07/04 A3022 RMK AO2 SLP232 T00720039 10144 20072 401830072 51006,KAMW,2023-05-20T05:53:00Z,41.98,-93.62,7.2,3.9,320,4,,10.0,30.221457,1023.2,,TRUE,TRUE,,,,,,,CLR,,,,,,,,VFR,0.6,14.4,7.2,18.3,7.2,,,,,,,METAR,282.0
KALW 200553Z AUTO 19012KT 10SM FU CLR 23/11 A3004 RMK AO2 SLP163 T02280106 10328 20222 53028,KALW,2023-05-20T05:53:00Z,46.1,-118.28,22.8,10.6,190,12,,10.0,30.041338,1016.3,,TRUE,TRUE,,,,,,FU,CLR,,,,,,,,VFR,2.8,32.8,22.2,,,,,,,,,METAR,355.0
KALI 200553Z AUTO 12005KT 10SM CLR 23/23 A3002 RMK AO2 SLP162 T02330228 10306 20233 403440200 53007 $,KALI,2023-05-20T05:53:00Z,27.73,-98.02,23.3,22.8,120,5,,10.0,30.02067,1016.2,,TRUE,TRUE,TRUE,,,,,,CLR,,,,,,,,VFR,0.7,30.6,23.3,34.4,20.0,,,,,,,METAR,52.0
KAKO 200553Z AUTO 14006KT 8SM CLR 09/06 A3034 RMK AO2 SLP258 T00890056 10144 20083 58001 $,KAKO,2023-05-20T05:53:00Z,40.17,-103.22,8.9,5.6,140,6,,8.0,30.339567,1025.8,,TRUE,TRUE,TRUE,,,,,,CLR,,,,,,,,VFR,-0.1,14.4,8.3,,,,,,,,,METAR,1431.0
KAIA 200553Z AUTO 16004KT 10SM CLR 06/03 A3031 RMK AO2 SLP260 T00610033 10167 20061 50001 $,KAIA,2023-05-20T05:53:00Z,42.05,-102.8,6.1,3.3,160,4,,10.0,30.31004,1026.0,,TRUE,TRUE,TRUE,,,,,,CLR,,,,,,,,VFR,0.1,16.7,6.1,,,,,,,,,METAR,1198.0
KAGS 200553Z AUTO 02004KT 10SM OVC025 19/18 A3006 RMK AO2 SLP177 T01890178 10206 20189 58016,KAGS,2023-05-20T05:53:00Z,33.37,-81.97,18.9,17.8,20,4,,10.0,30.059055,1017.7,,TRUE,TRUE,,,,,,,OVC,2500,,,,,,,MVFR,-1.6,20.6,18.9,,,,,,,,,METAR,40.0
KAGC 200553Z 16007KT 10SM BKN100 18/11 A2999 RMK AO2 SLP156 T01830111 10222 20183 58012,KAGC,2023-05-20T05:53:00Z,40.35,-79.92,18.3,11.1,160,7,,10.0,29.991142,1015.6,,,TRUE,,,,,,,BKN,10000,,,,,,,VFR,-1.2,22.2,18.3,,,,,,,,,METAR,380.0
KAFW 200553Z 36013G21KT 10SM SCT018 BKN036 OVC250 21/17 A3012 RMK AO2 SLP184 60000 T02060167 10261 20206 403280206 53031,KAFW,2023-05-20T05:53:00Z,32.97,-97.32,20.6,16.7,360,13,21,10.0,30.121063,1018.4,,,TRUE,,,,,,,SCT,1800,BKN,3600,OVC,25000,,,VFR,3.1,26.1,20.6,32.8,20.6,,,0.005,,,,METAR,208.0
KAEX 200553Z 33004KT 9SM CLR 23/21 A3001 RMK AO2 SLP164 T02330206 10317 20233 403390200 53008,KAEX,2023-05-20T05:53:00Z,31.33,-92.57,23.3,20.6,330,4,,9.0,30.008858,1016.4,,,TRUE,,,,,,,CLR,,,,,,,,VFR,0.8,31.7,23.3,33.9,20.0,,,,,,,METAR,25.0
KADG 200553Z AUTO 33006KT 5SM HZ OVC042 14/12 A2999 RMK AO2 RAE16 SLP152 P0001 60038 T01440117 10178 20144 52002,KADG,2023-05-20T05:53:00Z,41.87,-84.08,14.4,11.7,330,6,,5.0,29.991142,1015.2,,TRUE,TRUE,,,,,,HZ,OVC,4200,,,,,,,MVFR,0.2,17.8,14.4,,,0.01,,0.38,,,,METAR,244.0
KACV 200553Z AUTO 33004KT 9SM OVC012 12/12 A3016 RMK AO2 SLP217 T01220117 10139 20122 50007,KACV,2023-05-20T05:53:00Z,40.98,-124.1,12.2,11.7,330,4,,9.0,30.159449,1021.7,,TRUE,TRUE,,,,,,,OVC,1200,,,,,,,MVFR,0.7,13.9,12.2,,,,,,,,,METAR,63.0
KACK 200553Z AUTO 13011KT 10SM OVC060 13/12 A3026 RMK AO2 SLP247 T01280117 10128 20106 58014,KACK,2023-05-20T05:53:00Z,41.25,-70.07,12.8,11.7,130,11,,10.0,30.259842,1024.7,,TRUE,TRUE,,,,,,,OVC,6000,,,,,,,VFR,-1.4,12.8,10.6,,,,,,,,,METAR,12.0
KABY 200553Z AUTO 07006KT 10SM FEW029 19/17 A3007 RMK AO2 SLP181 T01890167 10228 20189 56010,KABY,2023-05-20T05:53:00Z,31.53,-84.2,18.9,16.7,70,6,,10.0,30.070866,1018.1,,TRUE,TRUE,,,,,,,FEW,2900,,,,,,,VFR,-1.0,22.8,18.9,,,,,,,,,METAR,60.0
KABR 200553Z AUTO 17005KT 10SM CLR 04/03 A3027 RMK AO2 SLP257 T00440033 10167 20044 401890044 50001,KABR,2023-05-20T05:53:00Z,45.45,-98.42,4.4,3.3,170,5,,10.0,30.268702,1025.7,,TRUE,TRUE,,,,,,,CLR,,,,,,,,VFR,0.1,16.7,4.4,18.9,4.4,,,,,,,METAR,397.0
KAAF 200553Z AUTO 05004KT 10SM CLR 22/21 A3003 RMK AO2 SLP168 T02220211 10261 20222 58004,KAAF,2023-05-20T05:53:00Z,29.73,-85.03,22.2,21.1,50,4,,10.0,30.029528,1016.8,,TRUE,TRUE,,,,,,,CLR,,,,,,,,VFR,-0.4,26.1,22.2,,,,,,,,,METAR,5.0
RKSQ 200552Z 20005KT 8000 BR FEW002 SCT200 19/14 A2989,RKSQ,2023-05-20T05:52:00Z,37.67,125.7,19.0,14.0,200,5,,4.97,29.890747,,,,,,,,,,BR,FEW,200,SCT,20000,,,,,MVFR,,,,,,,,,,,,SPECI,6.0
PTYA 200552Z VRB06KT 12SM SCT017 BKN300 31/26 A2978 RMK SLP084 8/101 T03120258 10312 20302 58010,PTYA,2023-05-20T05:52:00Z,9.48,138.08,31.2,25.8,0,6,,12.0,29.778543,1008.4,,,,,,,,,,SCT,1700,BKN,30000,,,,,VFR,-1.0,31.2,30.2,,,,,,,,,SPECI,4.0
PTKK 200552Z 03007G25KT 15SM FEW013 SCT110 OVC280 28/26 A2968 RMK SLP054 60071 8/128 T02780259 10278 20256 57012,PTKK,2023-05-20T05:52:00Z,7.47,151.85,27.8,25.9,30,7,25,15.0,29.681103,1005.4,,,,,,,,,,FEW,1300,SCT,11000,OVC,28000,,,VFR,-1.2,27.8,25.6,,,,,,,,,SPECI,3.0
PGWT 200552Z 06013KT 040V090 7SM SCT017 SCT100 SCT150 30/23,PGWT,2023-05-20T05:52:00Z,14.98,145.62,30.0,23.0,60,13,,7.0,,,,,,,,,,,,SCT,1700,SCT,10000,SCT,15000,,,VFR,,,,,,,,,,,,METAR,84.0
PATA 200552Z AUTO 09004KT 10SM CLR 19/00 A2978 RMK AO2 SLP086 T01890000 10211 20144 53003 TSNO,PATA,2023-05-20T05:52:00Z,65.17,-152.1,18.9,0.0,90,4,,10.0,29.778543,1008.6,,TRUE,TRUE,,,TRUE,,,,CLR,,,,,,,,VFR,0.3,21.1,14.4,,,,,,,,,METAR,62.0
PABA 200552Z AUTO 10007KT 10SM CLR M01/M02 A2992 RMK AO2 SLP139 6//// T10111017 10017 21011 56023 FZRANO PNO $,PABA,2023-05-20T05:52:00Z,70.13,-143.58,-1.1,-1.7,100,7,,10.0,29.920275,1013.9,,TRUE,TRUE,TRUE,,,TRUE,,,CLR,,,,,,,,VFR,-2.3,1.7,-1.1,,,,,,,,,METAR,1.0
KVTN 200552Z AUTO 27005KT 10SM CLR 06/03 A3030 RMK AO2 SLP269 T00560033 10167 20050 401720033 50003,KVTN,2023-05-20T05:52:00Z,42.87,-100.55,5.6,3.3,270,5,,10.0,30.301182,1026.9,,TRUE,TRUE,,,,,,,CLR,,,,,,,,VFR,0.3,16.7,5.0,17.2,3.3,,,,,,,METAR,790.0
KTRM 200552Z AUTO 17005KT 9SM CLR 29/15 A2991 RMK AO2 SLP132 T02890150 10350 20272 53026 $,KTRM,2023-05-20T05:52:00Z,33.63,-116.17,28.9,15.0,170,5,,9.0,29.911417,1013.2,,TRUE,TRUE,TRUE,,,,,,CLR,,,,,,,,VFR,2.6,35.0,27.2,,,,,,,,,METAR,-39.0
KTOL 200552Z 31006KT 3SM -RA BR FEW050 BKN080 OVC090 16/14 A2997 RMK AO2 SLP143 P0004 60027 T01610144 10189 20156 50000,KTOL,2023-05-20T05:52:00Z,41.58,-83.8,16.1,14.4,310,6,,3.0,29.970472,1014.3,,,TRUE,,,,,,-RA BR,FEW,5000,BKN,8000,OVC,9000,,,MVFR,0.0,18.9,15.6,,,0.04,,0.27,,,,METAR,206.0
KTAN 200552Z AUTO 00000KT 10SM FEW040 OVC055 09/07 A3025 RMK AO2 SLP243 T00890072 10150 20072 56016,KTAN,2023-05-20T05:52:00Z,41.88,-71.02,8.9,7.2,0,0,,10.0,30.250984,1024.3,,TRUE,TRUE,,,,,,,FEW,4000,OVC,5500,,,,,VFR,-1.6,15.0,7.2,,,,,,,,,METAR,8.0
KSUX 200552Z AUTO 31003KT 10SM CLR 06/04 A3027 RMK AO2 SLP254 T00610039 10133 20050 401560050 51004,KSUX,2023-05-20T05:52:00Z,42.38,-96.38,6.1,3.9,310,3,,10.0,30.268702,1025.4,,TRUE,TRUE,,,,,,,CLR,,,,,,,,VFR,0.4,13.3,5.0,15.6,5.0,,,,,,,METAR,332.0
KSPS 200552Z 01016G22KT 4SM HZ OVC016 17/13 A3021 RMK AO2 SLP218 T01670128 10228 20167 403060167 53021,KSPS,2023-05-20T05:52:00Z,33.98,-98.5,16.7,12.8,10,16,22,4.0,30.209646,1021.8,,,TRUE,,,,,,HZ,OVC,1600,,,,,,,MVFR,2.1,22.8,16.7,30.6,16.7,,,,,,,METAR,310.0
KSPI 200552Z AUTO 35006KT 10SM CLR 12/08 A3011 RMK AO2 SLP193 T01220078 10172 20122 402560122 51010,KSPI,2023-05-20T05:52:00Z,39.85,-89.68,12.2,7.8,350,6,,10.0,30.109253,1019.3,,TRUE,TRUE,,,,,,,CLR,,,,,,,,VFR,1.0,17.2,12.2,25.6,12.2,,,,,,,METAR,179.0
KSGF 200552Z 35006KT 7SM CLR 11/11 A3015 RMK AO2 SLP204 60014 T01110106 10144 20111 402110111 51013,KSGF,2023-05-20T05:52:00Z,37.23,-93.38,11.1,10.6,350,6,,7.0,30.15059,1020.4,,,TRUE,,,,,,,CLR,,,,,,,,VFR,1.3,14.4,11.1,21.1,11.1,,,0.14,,,,METAR,387.0
KREO 200552Z AUTO 00000KT 16/05 A3013 RMK AO1 SLP168 T01560050 10300 20156 51016 $,KREO,2023-05-20T05:52:00Z,42.58,-117.87,15.6,5.0,0,0,,,30.129921,1016.8,,TRUE,TRUE,TRUE,,,,,,,,,,,,,,,1.6,30.0,15.6,,,,,,,,,METAR,1237.0
KRAP 200552Z AUTO 15005KT 10SM CLR 07/05 A3029 RMK AO2 SLP259 T00720050 10167 20061 50000 $,KRAP,2023-05-20T05:52:00Z,44.05,-103.05,7.2,5.0,150,5,,10.0,30.28937,1025.9,,TRUE,TRUE,TRUE,,,,,,CLR,,,,,,,,VFR,0.0,16.7,6.1,,,,,,,,,METAR,965.0
KPYM 200552Z AUTO 00000KT 10SM FEW042 BKN055 09/08 A3025 RMK AO2 SLP244 T00940083 10139 20094 57016,KPYM,2023-05-20T05:52:00Z,41.92,-70.73,9.4,8.3,0,0,,10.0,30.250984,1024.4,,TRUE,TRUE,,,,,,,FEW,4200,BKN,5500,,,,,VFR,-1.6,13.9,9.4,,,,,,,,,METAR,42.0
KPWK 200552Z AUTO 33004KT 10SM CLR 11/04 A3009 RMK AO2 SLP188 T01060044 10183 20106 402390106 50004,KPWK,2023-05-20T05:52:00Z,42.12,-87.9,10.6,4.4,330,4,,10.0,30.088583,1018.8,,TRUE,TRUE,,,,,,,CLR,,,,,,,,VFR,0.4,18.3,10.6,23.9,10.6,,,,,,,METAR,194.0
KPPF 200552Z AUTO 00000KT 7SM CLR 11/09 A3021 RMK AO2 SLP228 T01060094 10139 20106 402000106 52012 PWINO $,KPPF,2023-05-20T05:52:00Z,37.33,-95.5,10.6,9.4,0,0,,7.0,30.209646,1022.8,,TRUE,TRUE,TRUE,,,,TRUE,,CLR,,,,,,,,VFR,1.2,13.9,10.6,20.0,10.6,,,,,,,METAR,265.0
KORE 200552Z AUTO 17003KT 10SM CLR 11/07 A3022 RMK AO2 SLP236 T01110067 10172 20111 58011,KORE,2023-05-20T05:52:00Z,42.57,-72.28,11.1,6.7,170,3,,10.0,30.221457,1023.6,,TRUE,TRUE,,,,,,,CLR,,,,,,,,VFR,-1.1,17.2,11.1,,,,,,,,,METAR,165.0
KOMA 200552Z 36005KT 10SM CLR 08/03 A3026 RMK AO2 SLP247 T00780033 10161 20078 402000078 51007,KOMA,2023-05-20T05:52:00Z,41.32,-95.9,7.8,3.3,360,5,,10.0,30.259842,1024.7,,,TRUE,,,,,,,CLR,,,,,,,,VFR,0.7,16.1,7.8,20.0,7.8,,,,,,,METAR,299.0
KOKC 200552Z 36012KT 8SM FEW250 13/11 A3021 RMK AO2 SLP220 60000 T01330106 10167 20133 402610133 51009,KOKC,2023-05-20T05:52:00Z,35.38,-97.6,13.3,10.6,360,12,,8.0,30.209646,1022.0,,,TRUE,,,,,,,FEW,25000,,,,,,,VFR,0.9,16.7,13.3,26.1,13.3,,,0.005,,,,METAR,391.0
KOKB 200552Z AUTO 00000KT 10SM OVC013 17/13 A3007 RMK AO2 SLP183 T01670133 10183 20167 51014,KOKB,2023-05-20T05:52:00Z,33.22,-117.35,16.7,13.3,0,0,,10.0,30.070866,1018.3,,TRUE,TRUE,,,,,,,OVC,1300,,,,,,,MVFR,1.4,18.3,16.7,,,,,,,,,METAR,7.0
KNRB 200552Z AUTO 09007KT 10SM CLR 24/21 A3003 RMK AO2 SLP167 T02440211 10250 20239 58015,KNRB,2023-05-20T05:52:00Z,30.38,-81.42,24.4,21.1,90,7,,10.0,30.029528,1016.7,,TRUE,TRUE,,,,,,,CLR,,,,,,,,VFR,-1.5,25.0,23.9,,,,,,,,,METAR,4.0
KNHK 200552Z AUTO 07007KT 10SM OVC008 18/16 A3011 RMK AO2 SLP197 T01780156 10206 20172 56025,KNHK,2023-05-20T05:52:00Z,38.28,-76.4,17.8,15.6,70,7,,10.0,30.109253,1019.7,,TRUE,TRUE,,,,,,,OVC,800,,,,,,,IFR,-2.5,20.6,17.2,,,,,,,,,METAR,5.0
KNFG 200552Z AUTO 00000KT 6SM OVC010 17/14 A3008 RMK AO2 SLP185 T01670139 10178 20167 51013 $,KNFG,2023-05-20T05:52:00Z,33.3,-117.35,16.7,13.9,0,0,,6.0,30.079725,1018.5,,TRUE,TRUE,TRUE,,,,,,OVC,1000,,,,,,,MVFR,1.3,17.8,16.7,,,,,,,,,SPECI,21.0
KN60 200552Z AUTO 19004KT 07/01 A3021 RMK AO1 SLP235 T00720011 10189 20067 401890006 58004,KN60,2023-05-20T05:52:00Z,47.65,-101.43,7.2,1.1,190,4,,,30.209646,1023.5,,TRUE,TRUE,,,,,,,,,,,,,,,,-0.4,18.9,6.7,18.9,0.6,,,,,,,METAR,582.0
KMWH 200552Z AUTO 00000KT 9SM CLR 23/14 A3000 RMK AO2 LTG DSNT W SLP149 T02280144 10333 20222 53011,KMWH,2023-05-20T05:52:00Z,47.2,-119.32,22.8,14.4,0,0,,9.0,30.0,1014.9,,TRUE,TRUE,,,,,,,CLR,,,,,,,,VFR,1.1,33.3,22.2,,,,,,,,,METAR,355.0
KMLI 200552Z AUTO 34004KT 10SM CLR 13/05 A3014 RMK AO2 SLP206 T01330050 10194 20128 402170128 51011,KMLI,2023-05-20T05:52:00Z,41.45,-90.52,13.3,5.0,340,4,,10.0,30.138779,1020.6,,TRUE,TRUE,,,,,,,CLR,,,,,,,,VFR,1.1,19.4,12.8,21.7,12.8,,,,,,,METAR,174.0
KMLF 200552Z AUTO 30007KT 10SM CLR 13/04 A3019 RMK AO2 SLP172 T01330039 10261 20128 51018,KMLF,2023-05-20T05:52:00Z,38.42,-113.02,13.3,3.9,300,7,,10.0,30.188976,1017.2,,TRUE,TRUE,,,,,,,CLR,,,,,,,,VFR,1.8,26.1,12.8,,,,,,,,,METAR,1537.0
KMKE 200552Z 34010KT 10SM FEW060 12/05 A3008 RMK AO2 SLP185 T01170050 10172 20117 402110117 $,KMKE,2023-05-20T05:52:00Z,42.95,-87.9,11.7,5.0,340,10,,10.0,30.079725,1018.5,,,TRUE,TRUE,,,,,,FEW,6000,,,,,,,VFR,,17.2,11.7,21.1,11.7,,,,,,,METAR,203.0
KMHK 200552Z AUTO 02007KT 10SM CLR 13/06 A3024 RMK AO2 SLP240 60000 T01280056 10200 20094 402060094 51017,KMHK,2023-05-20T05:52:00Z,39.13,-96.68,12.8,5.6,20,7,,10.0,30.239174,1024.0,,TRUE,TRUE,,,,,,,CLR,,,,,,,,VFR,1.7,20.0,9.4,20.6,9.4,,,0.005,,,,METAR,320.0
KMEB 200552Z AUTO 36004KT 10SM SCT028 18/16 A3007 RMK AO2 SLP179 T01780161 10200 20178 58012,KMEB,2023-05-20T05:52:00Z,34.78,-79.37,17.8,16.1,360,4,,10.0,30.070866,1017.9,,TRUE,TRUE,,,,,,,SCT,2800,,,,,,,VFR,-1.2,20.0,17.8,,,,,,,,,METAR,65.0
KMDH 200552Z AUTO 34007KT 5SM BR OVC060 16/14 A3007 RMK AO2 RAE18 SLP178 P0000 60038 T01610139 10239 20161 402830139 51003,KMDH,2023-05-20T05:52:00Z,37.78,-89.25,16.1,13.9,340,7,,5.0,30.070866,1017.8,,TRUE,TRUE,,,,,,BR,OVC,6000,,,,,,,MVFR,0.3,23.9,16.1,28.3,13.9,0.005,,0.38,,,,METAR,122.0
KMBG 200552Z AUTO 13004KT 10SM CLR 08/03 A3025 RMK AO2 SLP249 T00780028 10206 20072 402110044 50005,KMBG,2023-05-20T05:52:00Z,45.55,-100.42,7.8,2.8,130,4,,10.0,30.250984,1024.9,,TRUE,TRUE,,,,,,,CLR,,,,,,,,VFR,0.5,20.6,7.2,21.1,4.4,,,,,,,METAR,515.0
KLWC 200552Z AUTO 01009KT 10SM CLR 12/07 A3022 RMK AO1 SLP231 T01220067 10178 20072 401940072 51016,KLWC,2023-05-20T05:52:00Z,39.02,-95.22,12.2,6.7,10,9,,10.0,30.221457,1023.1,,TRUE,TRUE,,,,,,,CLR,,,,,,,,VFR,1.6,17.8,7.2,19.4,7.2,,,,,,,METAR,252.0
KIOW 200552Z AUTO 32006KT 10SM CLR 11/05 A3019 RMK AO2 SLP222 T01110050 10183 20111 402000111 51010,KIOW,2023-05-20T05:52:00Z,41.63,-91.55,11.1,5.0,320,6,,10.0,30.188976,1022.2,,TRUE,TRUE,,,,,,,CLR,,,,,,,,VFR,1.0,18.3,11.1,20.0,11.1,,,,,,,METAR,199.0
KIJD 200552Z AUTO 00000KT 10SM CLR 09/08 A3024 RMK AO2 SLP241 T00940078 10156 20094 58016,KIJD,2023-05-20T05:52:00Z,41.75,-72.18,9.4,7.8,0,0,,10.0,30.239174,1024.1,,TRUE,TRUE,,,,,,,CLR,,,,,,,,VFR,-1.6,15.6,9.4,,,,,,,,,METAR,73.0
KIEN 200552Z AUTO 00000KT CLR 07/04 A3030 RMK AO2 SLP263 6//// T00670039 10167 20061 50001 PNO $,KIEN,2023-05-20T05:52:00Z,43.03,-102.52,6.7,3.9,0,0,,,30.301182,1026.3,,TRUE,TRUE,TRUE,,,,,,CLR,,,,,,,,,0.1,16.7,6.1,,,,,,,,,METAR,1002.0
KIAD 200552Z 00000KT 10SM SCT046 13/11 A3013 RMK AO2 SLP200 T01280111 10206 20128 58018,KIAD,2023-05-20T05:52:00Z,38.93,-77.45,12.8,11.1,0,0,,10.0,30.129921,1020.0,,,TRUE,,,,,,,SCT,4600,,,,,,,VFR,-1.8,20.6,12.8,,,,,,,,,METAR,90.0
KHUT 200552Z AUTO 34006KT 10SM CLR 08/07 A3024 RMK AO2 SLP235 T00780067 10172 20072 401940072 51012,KHUT,2023-05-20T05:52:00Z,38.07,-97.87,7.8,6.7,340,6,,10.0,30.239174,1023.5,,TRUE,TRUE,,,,,,,CLR,,,,,,,,VFR,1.2,17.2,7.2,19.4,7.2,,,,,,,METAR,464.0
KHRL 200552Z AUTO 14005KT 10SM CLR 24/24 A3001 RMK AO2 SLP161 T02390239 10289 20239 403330222 50005 $,KHRL,2023-05-20T05:52:00Z,26.23,-97.65,23.9,23.9,140,5,,10.0,30.008858,1016.1,,TRUE,TRUE,TRUE,,,,,,CLR,,,,,,,,VFR,0.5,28.9,23.9,33.3,22.2,,,,,,,METAR,9.0
KHIE 200552Z AUTO 00000KT 10SM FEW080 OVC110 11/07 A3015 RMK AO2 SLP209 T01060072 10189 20100 56005,KHIE,2023-05-20T05:52:00Z,44.37,-71.55,10.6,7.2,0,0,,10.0,30.15059,1020.9,,TRUE,TRUE,,,,,,,FEW,8000,OVC,11000,,,,,VFR,-0.5,18.9,10.0,,,,,,,,,METAR,321.0
KGLS 200552Z AUTO 23006KT 10SM CLR 26/23 A3004 RMK AO2 SLP170 T02560228 10283 20256 402940244 53003,KGLS,2023-05-20T05:52:00Z,29.27,-94.87,25.6,22.8,230,6,,10.0,30.041338,1017.0,,TRUE,TRUE,,,,,,,CLR,,,,,,,,VFR,0.3,28.3,25.6,29.4,24.4,,,,,,,METAR,2.0
KFIT 200552Z AUTO 13004KT 10SM CLR 12/06 A3023 RMK AO2 SLP236 T01170056 10178 20117 58014,KFIT,2023-05-20T05:52:00Z,42.55,-71.75,11.7,5.6,130,4,,10.0,30.230314,1023.6,,TRUE,TRUE,,,,,,,CLR,,,,,,,,VFR,-1.4,17.8,11.7,,,,,,,,,METAR,102.0
KEST 200552Z AUTO 23004KT 10SM CLR 06/03 A3024 RMK AO2 SLP246 T00560028 10122 20050 401280050 51004,KEST,2023-05-20T05:52:00Z,43.4,-94.75,5.6,2.8,230,4,,10.0,30.239174,1024.6,,TRUE,TRUE,,,,,,,CLR,,,,,,,,VFR,0.4,12.2,5.0,12.8,5.0,,,,,,,METAR,401.0
KDVN 200552Z AUTO 33005KT 10SM CLR 09/04 A3016 RMK AO2 SLP212 T00940044 10189 20094 402110094 51009,KDVN,2023-05-20T05:52:00Z,41.62,-90.58,9.4,4.4,330,5,,10.0,30.159449,1021.2,,TRUE,TRUE,,,,,,,CLR,,,,,,,,VFR,0.9,18.9,9.4,21.1,9.4,,,,,,,METAR,227.0
KDPA 200552Z 33007KT 10SM CLR 11/04 A3008 RMK AO2 SLP186 T01060044 10183 20100 402330100 50004,KDPA,2023-05-20T05:52:00Z,41.88,-88.25,10.6,4.4,330,7,,10.0,30.079725,1018.6,,,TRUE,,,,,,,CLR,,,,,,,,VFR,0.4,18.3,10.0,23.3,10.0,,,,,,,METAR,228.0
KDDC 200552Z AUTO 32004KT 6SM BR CLR 09/07 A3031 RMK AO2 SLP259 T00940072 10178 20094 401830094 53014,KDDC,2023-05-20T05:52:00Z,37.77,-99.97,9.4,7.2,320,4,,6.0,30.31004,1025.9,,TRUE,TRUE,,,,,,BR,CLR,,,,,,,,VFR,1.4,17.8,9.4,18.3,9.4,,,,,,,METAR,786.0
KDCA 200552Z 06004KT 10SM SCT250 16/13 A3013 RMK AO2 SLP202 T01610128 10200 20161 58019 $,KDCA,2023-05-20T05:52:00Z,38.85,-77.03,16.1,12.8,60,4,,10.0,30.129921,1020.2,,,TRUE,TRUE,,,,,,SCT,25000,,,,,,,VFR,-1.9,20.0,16.1,,,,,,,,,METAR,4.0
KCVG 200552Z 00000KT 9SM OVC037 18/16 A3000 RMK AO2 RAB29E40 SLP150 P0000 60001 T01830156 10217 20178 58006,KCVG,2023-05-20T05:52:00Z,39.05,-84.67,18.3,15.6,0,0,,9.0,30.0,1015.0,,,TRUE,,,,,,,OVC,3700,,,,,,,VFR,-0.6,21.7,17.8,,,0.005,,0.01,,,,METAR,264.0
KCNU 200552Z AUTO 31003KT 10SM CLR 11/09 A3020 RMK AO2 SLP224 T01110094 10150 20100 402000100 53007,KCNU,2023-05-20T05:52:00Z,37.67,-95.48,11.1,9.4,310,3,,10.0,30.200787,1022.4,,TRUE,TRUE,,,,,,,CLR,,,,,,,,VFR,0.7,15.0,10.0,20.0,10.0,,,,,,,METAR,301.0
KCKV 200552Z AUTO 18003KT 10SM OVC110 21/17 A3000 RMK AO2 SLP155 T02110172 10233 20211 402560189 56006,KCKV,2023-05-20T05:52:00Z,36.62,-87.42,21.1,17.2,180,3,,10.0,30.0,1015.5,,TRUE,TRUE,,,,,,,OVC,11000,,,,,,,VFR,-0.6,23.3,21.1,25.6,18.9,,,,,,,METAR,166.0
KCID 200552Z AUTO 33006KT 10SM CLR 08/04 A3017 RMK AO2 SLP219 T00780039 10167 20078 401830078 51009,KCID,2023-05-20T05:52:00Z,41.88,-91.72,7.8,3.9,330,6,,10.0,30.171259,1021.9,,TRUE,TRUE,,,,,,,CLR,,,,,,,,VFR,0.9,16.7,7.8,18.3,7.8,,,,,,,METAR,257.0
KCFV 200552Z AUTO 33003KT 10SM CLR 11/10 A3020 RMK AO2 SLP224 60000 T01110100 10144 20111 402060111 53013,KCFV,2023-05-20T05:52:00Z,37.08,-95.57,11.1,10.0,330,3,,10.0,30.200787,1022.4,,TRUE,TRUE,,,,,,,CLR,,,,,,,,VFR,1.3,14.4,11.1,20.6,11.1,,,0.005,,,,METAR,228.0
KBML 200552Z AUTO 12003KT 10SM CLR 11/08 A3014 RMK AO2 SLP206 T01110078 10194 20111 57004,KBML,2023-05-20T05:52:00Z,44.58,-71.18,11.1,7.8,120,3,,10.0,30.138779,1020.6,,TRUE,TRUE,,,,,,,CLR,,,,,,,,VFR,-0.4,19.4,11.1,,,,,,,,,METAR,344.0
KBLU 200552Z AUTO 06005KT 10SM CLR 17/08 A3023 RMK AO2 SLP146 T01670083 10222 20150 50004 $,KBLU,2023-05-20T05:52:00Z,39.28,-120.7,16.7,8.3,60,5,,10.0,30.230314,1014.6,,TRUE,TRUE,TRUE,,,,,,CLR,,,,,,,,VFR,0.4,22.2,15.0,,,,,,,,,METAR,1605.0
KBLF 200552Z AUTO 16007KT 10SM CLR 14/11 A3013 RMK AO2 SLP178 T01390111 10172 20139 58010,KBLF,2023-05-20T05:52:00Z,37.3,-81.2,13.9,11.1,160,7,,10.0,30.129921,1017.8,,TRUE,TRUE,,,,,,,CLR,,,,,,,,VFR,-1.0,17.2,13.9,,,,,,,,,METAR,871.0
KBKB 200552Z AUTO 00000KT 10SM CLR 24/21 A2998 RMK AO2 SLP178 T02390206 10300 20239 403390172 53005,KBKB,2023-05-20T05:52:00Z,31.02,-92.92,23.9,20.6,0,0,,10.0,29.97933,1017.8,,TRUE,TRUE,,,,,,,CLR,,,,,,,,VFR,0.5,30.0,23.9,33.9,17.2,,,,,,,METAR,74.0
KBIS 200552Z AUTO 14004KT 10SM CLR 07/03 A3024 RMK AO2 SLP247 T00670033 10194 20067 402000028 58004,KBIS,2023-05-20T05:52:00Z,46.77,-100.75,6.7,3.3,140,4,,10.0,30.239174,1024.7,,TRUE,TRUE,,,,,,,CLR,,,,,,,,VFR,-0.4,19.4,6.7,20.0,2.8,,,,,,,METAR,506.0
KBDR 200552Z AUTO 04003KT 10SM OVC050 13/09 A3021 RMK AO2 SLP230 T01280094 10150 20117 58020,KBDR,2023-05-20T05:52:00Z,41.17,-73.13,12.8,9.4,40,3,,10.0,30.209646,1023.0,,TRUE,TRUE,,,,,,,OVC,5000,,,,,,,VFR,-2.0,15.0,11.7,,,,,,,,,METAR,5.0
KBAN 200552Z AUTO 00000KT 10SM SCT100 11/01 A3029 RMK AO2 SLP159 T01110011 10250 20111 51014 PWINO $,KBAN,2023-05-20T05:52:00Z,38.35,-119.52,11.1,1.1,0,0,,10.0,30.28937,1015.9,,TRUE,TRUE,TRUE,,,,TRUE,,SCT,10000,,,,,,,VFR,1.4,25.0,11.1,,,,,,,,,SPECI,2067.0
KATL 200552Z 12007KT 10SM FEW010 BKN026 19/17 A3009 RMK AO2 SLP183 T01940167 10222 20189 58011,KATL,2023-05-20T05:52:00Z,33.63,-84.45,19.4,16.7,120,7,,10.0,30.088583,1018.3,,,TRUE,,,,,,,FEW,1000,BKN,2600,,,,,MVFR,-1.1,22.2,18.9,,,,,,,,,METAR,309.0
KARR 200552Z AUTO 31006KT 9SM CLR 07/04 A3009 RMK AO2 SLP190 T00720044 10178 20061 402280061 50004,KARR,2023-05-20T05:52:00Z,41.77,-88.48,7.2,4.4,310,6,,9.0,30.088583,1019.0,,TRUE,TRUE,,,,,,,CLR,,,,,,,,VFR,0.4,17.8,6.1,22.8,6.1,,,,,,,METAR,213.0
KAQW 200552Z AUTO 00000KT 10SM CLR 12/07 A3019 RMK AO2 SLP224 T01220067 10183 20117 56011,KAQW,2023-05-20T05:52:00Z,42.7,-73.17,12.2,6.7,0,0,,10.0,30.188976,1022.4,,TRUE,TRUE,,,,,,,CLR,,,,,,,,VFR,-1.1,18.3,11.7,,,,,,,,,METAR,196.0
KALS 200552Z AUTO 00000KT 10SM SCT050 OVC100 08/07 A3042 RMK AO2 SLP244 60014 T00780067 10094 20072 51003,KALS,2023-05-20T05:52:00Z,37.43,-105.87,7.8,6.7,0,0,,10.0,30.41929,1024.4,,TRUE,TRUE,,,,,,,SCT,5000,OVC,10000,,,,,VFR,0.3,9.4,7.2,,,,,0.14,,,,METAR,2299.0
KAFN 200552Z AUTO 19003KT 10SM CLR 11/06 A3022 RMK AO2 SLP238 T01110061 10172 20111 56010,KAFN,2023-05-20T05:52:00Z,42.8,-72.0,11.1,6.1,190,3,,10.0,30.221457,1023.8,,TRUE,TRUE,,,,,,,CLR,,,,,,,,VFR,-1.0,17.2,11.1,,,,,,,,,METAR,308.0
KABQ 200552Z 09017G24KT 10SM FEW038 SCT065 BKN090 OVC130 14/09 A3033 RMK AO2 SLP222 MTNS OBSC NE-SE 60002 T01440089 10189 20139 50007 $,KABQ,2023-05-20T05:52:00Z,35.05,-106.62,14.4,8.9,90,17,24,10.0,30.33071,1022.2,,,TRUE,TRUE,,,,,,FEW,3800,SCT,6500,BKN,9000,OVC,13000,VFR,0.7,18.9,13.9,,,,,0.02,,,,METAR,1620.0
KABI 200552Z 03009KT 10SM OVC018 18/14 A3021 RMK AO2 SLP207 T01830139 10294 20183 403220183 51027,KABI,2023-05-20T05:52:00Z,32.42,-99.68,18.3,13.9,30,9,,10.0,30.209646,1020.7,,,TRUE,,,,,,,OVC,1800,,,,,,,MVFR,2.7,29.4,18.3,32.2,18.3,,,,,,,METAR,543.0
PKMR 200551Z 07005KT 20SM FEW015 SCT300 30/26 A2976 RMK SLP080 8/101 T02960255 10303 20296 52002,PKMR,2023-05-20T05:51:00Z,7.08,171.38,29.6,25.5,70,5,,20.0,29.760826,1008.0,,,,,,,,,,FEW,1500,SCT,30000,,,,,VFR,0.2,30.3,29.6,,,,,,,,,SPECI,7.0
PHBK 200551Z AUTO 00000KT 10SM FEW060 BKN110 25/19 A3001 RMK AO2 SLP165 60001 T02500194 10267 20239 53010,PHBK,2023-05-20T05:51:00Z,22.03,-159.78,25.0,19.4,0,0,,10.0,30.008858,1016.5,,TRUE,TRUE,,,,,,,FEW,6000,BKN,11000,,,,,VFR,1.0,26.7,23.9,,,,,,,,,SPECI,5.0
MUGM 200551Z 32007KT 10SM FEW030 BKN250 26/22 A2994 RMK AO2 SLP138 T02560222 10278 20256 56012 $,MUGM,2023-05-20T05:51:00Z,19.9,-75.2,25.6,22.2,320,7,,10.0,29.940945,1013.8,,,TRUE,TRUE,,,,,,FEW,3000,BKN,25000,,,,,VFR,-1.2,27.8,25.6,,,,,,,,,SPECI,21.0
KYNG 200551Z 18010KT 10SM FEW060 OVC095 19/14 A2995 RMK AO2 SLP137 T01940139 10211 20189 58013 $,KYNG,2023-05-20T05:51:00Z,41.25,-80.67,19.4,13.9,180,10,,10.0,29.949802,1013.7,,,TRUE,TRUE,,,,,,FEW,6000,OVC,9500,,,,,VFR,-1.3,21.1,18.9,,,,,,,,,METAR,356.0
KXWA 200551Z AUTO 19011KT 10SM CLR 11/03 A3015 RMK AO2 SLP221 T01060033 10194 20100 401940022 58006,KXWA,2023-05-20T05:51:00Z,48.27,-103.75,10.6,3.3,190,11,,10.0,30.15059,1022.1,,TRUE,TRUE,,,,,,,CLR,,,,,,,,VFR,-0.6,19.4,10.0,19.4,2.2,,,,,,,METAR,717.0
KVNY 200551Z AUTO 09003KT 7SM OVC014 17/13 A3006 RMK AO2 SLP172 T01720133 10239 20172 50003,KVNY,2023-05-20T05:51:00Z,34.22,-118.48,17.2,13.3,90,3,,7.0,30.059055,1017.2,,TRUE,TRUE,,,,,,,OVC,1400,,,,,,,MVFR,0.3,23.9,17.2,,,,,,,,,METAR,241.0
KUGN 200551Z AUTO 30004KT 10SM CLR 11/04 A3008 RMK AO2 SLP181 T01060044 10172 20106 402280106 50004,KUGN,2023-05-20T05:51:00Z,42.42,-87.87,10.6,4.4,300,4,,10.0,30.079725,1018.1,,TRUE,TRUE,,,,,,,CLR,,,,,,,,VFR,0.4,17.2,10.6,22.8,10.6,,,,,,,METAR,217.0
KTPL 200551Z AUTO 01009G17KT FEW080 BKN095 OVC120 19/17 A3014 RMK AO2 PK WND 34031/0458 LTG DSNT E-S TSE25 SLP195 P0018 60071 T01890172 10278 20183 403220183 51035 PWINO RVRNO $,KTPL,2023-05-20T05:51:00Z,31.15,-97.4,18.9,17.2,10,9,17,,30.138779,1019.5,,TRUE,TRUE,TRUE,,,,TRUE,,FEW,8000,BKN,9500,OVC,12000,,,,3.5,27.8,18.3,32.2,18.3,0.18,,0.71,,,,METAR,206.0
KTEB 200551Z 00000KT 10SM CLR 13/10 A3019 RMK AO2 SLP221 T01280100 10161 20122 58019,KTEB,2023-05-20T05:51:00Z,40.87,-74.05,12.8,10.0,0,0,,10.0,30.188976,1022.1,,,TRUE,,,,,,,CLR,,,,,,,,VFR,-1.9,16.1,12.2,,,,,,,,,METAR,3.0
KSTL 200551Z 30004KT 10SM FEW055 BKN080 15/12 A3011 RMK AO2 SLP187 60000 T01500117 10172 20144 402830144 53005,KSTL,2023-05-20T05:51:00Z,38.75,-90.37,15.0,11.7,300,4,,10.0,30.109253,1018.7,,,TRUE,,,,,,,FEW,5500,BKN,8000,,,,,VFR,0.5,17.2,14.4,28.3,14.4,,,0.005,,,,METAR,163.0
KSNT 200551Z AUTO 18004KT 06/02 A3032 RMK AO1 SLP198 T00610022 10233 20061 51013,KSNT,2023-05-20T05:51:00Z,44.17,-114.93,6.1,2.2,180,4,,,30.318897,1019.8,,TRUE,TRUE,,,,,,,,,,,,,,,,1.3,23.3,6.1,,,,,,,,,METAR,1980.0
KSMX 200551Z AUTO 00000KT 8SM OVC005 12/12 A3009 RMK AO2 SLP190 T01170117 10156 20117 50008,KSMX,2023-05-20T05:51:00Z,34.9,-120.45,11.7,11.7,0,0,,8.0,30.088583,1019.0,,TRUE,TRUE,,,,,,,OVC,500,,,,,,,IFR,0.8,15.6,11.7,,,,,,,,,METAR,73.0
KSMO 200551Z 25003KT 10SM OVC008 16/14 A3007 RMK AO2 SLP181 T01560139 10178 20156 50008,KSMO,2023-05-20T05:51:00Z,34.02,-118.45,15.6,13.9,250,3,,10.0,30.070866,1018.1,,,TRUE,,,,,,,OVC,800,,,,,,,IFR,0.8,17.8,15.6,,,,,,,,,METAR,56.0
KSLK 200551Z AUTO 21015G19KT 10SM -RA BKN050 OVC070 15/09 A3008 RMK AO2 RAB46 SLP180 P0000 60000 T01500089 10189 20150 51000,KSLK,2023-05-20T05:51:00Z,44.4,-74.2,15.0,8.9,210,15,19,10.0,30.079725,1018.0,,TRUE,TRUE,,,,,,-RA,BKN,5000,OVC,7000,,,,,VFR,0.0,18.9,15.0,,,0.005,,0.005,,,,METAR,502.0
KSJT 200551Z AUTO 02015KT 10SM OVC017 20/18 A3016 RMK AO2 SLP191 60096 T02000178 10256 20194 403500189 53006,KSJT,2023-05-20T05:51:00Z,31.37,-100.5,20.0,17.8,20,15,,10.0,30.159449,1019.1,,TRUE,TRUE,,,,,,,OVC,1700,,,,,,,MVFR,0.6,25.6,19.4,35.0,18.9,,,0.96,,,,METAR,582.0
KSDB 200551Z AUTO 32016G27KT 10SM CLR 20/05 A3017 RMK AO2 PK WND 31027/0546 SLP161 T02000050 10250 20194 51010,KSDB,2023-05-20T05:51:00Z,34.75,-118.72,20.0,5.0,320,16,27,10.0,30.171259,1016.1,,TRUE,TRUE,,,,,,,CLR,,,,,,,,VFR,1.0,25.0,19.4,,,,,,,,,METAR,1377.0
KSAT 200551Z VRB03KT 10SM TS BKN017 BKN045 OVC250 26/22 A3009 RMK AO2 LTG DSNT SW-NW TSB43 SLP171 FRQ LTGICCG TS DSNT SW-N MOVG E T02560222 10306 20256 403170217 51023 $,KSAT,2023-05-20T05:51:00Z,29.53,-98.48,25.6,22.2,0,3,,10.0,30.088583,1017.1,,,TRUE,TRUE,,,,,TS,BKN,1700,BKN,4500,OVC,25000,,,MVFR,2.3,30.6,25.6,31.7,21.7,,,,,,,METAR,246.0
KSAN 200551Z 00000KT 10SM OVC013 17/13 A3010 RMK AO2 SLP192 T01670133 10183 20167 53014,KSAN,2023-05-20T05:51:00Z,32.73,-117.18,16.7,13.3,0,0,,10.0,30.100393,1019.2,,,TRUE,,,,,,,OVC,1300,,,,,,,MVFR,1.4,18.3,16.7,,,,,,,,,METAR,3.0
KSAD 200551Z AUTO 31007KT 10SM FEW120 22/09 A3007 RMK AO2 SLP140 T02170094 10300 20217 51017,KSAD,2023-05-20T05:51:00Z,32.85,-109.63,21.7,9.4,310,7,,10.0,30.070866,1014.0,,TRUE,TRUE,,,,,,,FEW,12000,,,,,,,VFR,1.7,30.0,21.7,,,,,,,,,METAR,937.0
KROW 200551Z AUTO 06011KT 8SM OVC024 17/12 A3032 RMK AO2 LTG DSNT NE SLP212 T01720117 10217 20172 51030,KROW,2023-05-20T05:51:00Z,33.3,-104.5,17.2,11.7,60,11,,8.0,30.318897,1021.2,,TRUE,TRUE,,,,,,,OVC,2400,,,,,,,MVFR,3.0,21.7,17.2,,,,,,,,,METAR,1105.0
KRDU 200551Z 00000KT 10SM FEW040 17/15 A3008 RMK AO2 SLP183 60000 T01670150 10200 20167 58018,KRDU,2023-05-20T05:51:00Z,35.9,-78.78,16.7,15.0,0,0,,10.0,30.079725,1018.3,,,TRUE,,,,,,,FEW,4000,,,,,,,VFR,-1.8,20.0,16.7,,,,,0.005,,,,METAR,121.0
KPWM 200551Z AUTO 19006KT 10SM CLR 11/07 A3022 RMK AO2 SLP232 T01060067 10128 20106 56004,KPWM,2023-05-20T05:51:00Z,43.65,-70.3,10.6,6.7,190,6,,10.0,30.221457,1023.2,,TRUE,TRUE,,,,,,,CLR,,,,,,,,VFR,-0.4,12.8,10.6,,,,,,,,,METAR,15.0
KPVD 200551Z AUTO 00000KT 10SM BKN045 11/09 A3024 RMK AO2 SLP242 T01110094 10150 20106 58018,KPVD,2023-05-20T05:51:00Z,41.72,-71.43,11.1,9.4,0,0,,10.0,30.239174,1024.2,,TRUE,TRUE,,,,,,,BKN,4500,,,,,,,VFR,-1.8,15.0,10.6,,,,,,,,,METAR,15.0
KPIT 200551Z 17005KT 10SM BKN055 BKN095 18/12 A2999 RMK AO2 SLP157 T01780117 10211 20178 56012,KPIT,2023-05-20T05:51:00Z,40.47,-80.2,17.8,11.7,170,5,,10.0,29.991142,1015.7,,,TRUE,,,,,,,BKN,5500,BKN,9500,,,,,VFR,-1.2,21.1,17.8,,,,,,,,,METAR,339.0
KPHX 200551Z 34010G21KT 10SM FEW090 SCT120 SCT150 BKN200 26/11 A3000 RMK AO2 SLP144 T02560106 10328 20256 50012,KPHX,2023-05-20T05:51:00Z,33.43,-112.02,25.6,10.6,340,10,21,10.0,30.0,1014.4,,,TRUE,,,,,,,FEW,9000,SCT,12000,SCT,15000,BKN,20000,VFR,1.2,32.8,25.6,,,,,,,,,METAR,338.0
KP59 200551Z AUTO VRB03KT 07/04 A3012 RMK AO1 SLP206 T00670044 10078 20050 51006,KP59,2023-05-20T05:51:00Z,47.47,-87.88,6.7,4.4,0,3,,,30.121063,1020.6,,TRUE,TRUE,,,,,,,,,,,,,,,,0.6,7.8,5.0,,,,,,,,,METAR,185.0
KOXC 200551Z AUTO 16004KT 10SM CLR 10/08 A3022 RMK AO2 SLP244 T01000083 10139 20094 58020,KOXC,2023-05-20T05:51:00Z,41.47,-73.13,10.0,8.3,160,4,,10.0,30.221457,1024.4,,TRUE,TRUE,,,,,,,CLR,,,,,,,,VFR,-2.0,13.9,9.4,,,,,,,,,METAR,211.0
KORD 200551Z 33008KT 10SM FEW250 12/04 A3007 RMK AO2 SLP182 T01220044 10189 20122 402440122 50005,KORD,2023-05-20T05:51:00Z,41.95,-87.93,12.2,4.4,330,8,,10.0,30.070866,1018.2,,,TRUE,,,,,,,FEW,25000,,,,,,,VFR,0.5,18.9,12.2,24.4,12.2,,,,,,,METAR,202.0
KNYC 200551Z 00000KT 10SM BKN050 14/11 A3022 RMK AO2 SLP223 T01440106 10156 20139 58021 $,KNYC,2023-05-20T05:51:00Z,40.78,-73.97,14.4,10.6,0,0,,10.0,30.221457,1022.3,,,TRUE,TRUE,,,,,,BKN,5000,,,,,,,VFR,-2.1,15.6,13.9,,,,,,,,,METAR,33.0
KNBT 200551Z AUTO 01008KT 7SM OVC003 22/19 A3001 RMK AO2 SLP167 T02220194 10233 20222 56016 $,KNBT,2023-05-20T05:51:00Z,35.02,-76.47,22.2,19.4,10,8,,7.0,30.008858,1016.7,,TRUE,TRUE,TRUE,,,,,,OVC,300,,,,,,,LIFR,-1.6,23.3,22.2,,,,,,,,,METAR,5.0
KMYL 200551Z AUTO 02007KT 10SM CLR 13/06 A3021 RMK AO2 SLP196 T01280056 10233 20128 51013,KMYL,2023-05-20T05:51:00Z,44.9,-116.1,12.8,5.6,20,7,,10.0,30.209646,1019.6,,TRUE,TRUE,,,,,,,CLR,,,,,,,,VFR,1.3,23.3,12.8,,,,,,,,,METAR,1532.0
KMPV 200551Z AUTO 19005KT 10SM -RA OVC080 13/09 A3018 RMK AO2 RAB09 SLP219 P0001 60001 T01280089 10178 20128 55000,KMPV,2023-05-20T05:51:00Z,44.2,-72.57,12.8,8.9,190,5,,10.0,30.180119,1021.9,,TRUE,TRUE,,,,,,-RA,OVC,8000,,,,,,,VFR,0.0,17.8,12.8,,,0.01,,0.01,,,,METAR,336.0
KLGU 200551Z AUTO 00000KT 7SM CLR 11/05 A3019 RMK AO2 SLP192 T01060050 10244 20106 51015,KLGU,2023-05-20T05:51:00Z,41.78,-111.85,10.6,5.0,0,0,,7.0,30.188976,1019.2,,TRUE,TRUE,,,,,,,CLR,,,,,,,,VFR,1.5,24.4,10.6,,,,,,,,,METAR,1359.0
KLGA 200551Z 17005KT 10SM BKN055 BKN250 15/11 A3019 RMK AO2 SLP222 T01500111 10167 20150 58021,KLGA,2023-05-20T05:51:00Z,40.78,-73.88,15.0,11.1,170,5,,10.0,30.188976,1022.2,,,TRUE,,,,,,,BKN,5500,BKN,25000,,,,,VFR,-2.1,16.7,15.0,,,,,,,,,METAR,9.0
KJFK 200551Z 12004KT 10SM FEW020 BKN044 OVC250 14/12 A3020 RMK AO2 SLP228 T01440122 10144 20133 56022,KJFK,2023-05-20T05:51:00Z,40.63,-73.77,14.4,12.2,120,4,,10.0,30.200787,1022.8,,,TRUE,,,,,,,FEW,2000,BKN,4400,OVC,25000,,,VFR,-2.2,14.4,13.3,,,,,,,,,METAR,3.0
KJCT 200551Z AUTO 11006KT 10SM FEW018 SCT050 20/19 A3015 RMK AO2 LTG DSNT SE PRESRR SLP173 60000 T02000189 10289 20200 403440200 53018 $,KJCT,2023-05-20T05:51:00Z,30.5,-99.77,20.0,18.9,110,6,,10.0,30.15059,1017.3,,TRUE,TRUE,TRUE,,,,,,FEW,1800,SCT,5000,,,,,VFR,1.8,28.9,20.0,34.4,20.0,,,0.005,,,,METAR,522.0
KIGM 200551Z AUTO 00000KT 10SM CLR 19/11 A3013 RMK AO2 WSHFT 0500 RAB0458E07 SLP138 P0000 60000 T01940106 10300 20172 50014,KIGM,2023-05-20T05:51:00Z,35.25,-113.93,19.4,10.6,0,0,,10.0,30.129921,1013.8,,TRUE,TRUE,,,,,,,CLR,,,,,,,,VFR,1.4,30.0,17.2,,,0.005,,0.005,,,,METAR,1045.0
KHTS 200551Z 00000KT 10SM SCT110 17/16 A2998 RMK AO2 SLP148 T01720156 10233 20172 58008,KHTS,2023-05-20T05:51:00Z,38.37,-82.55,17.2,15.6,0,0,,10.0,29.97933,1014.8,,,TRUE,,,,,,,SCT,11000,,,,,,,VFR,-0.8,23.3,17.2,,,,,,,,,METAR,252.0
KHDO 200551Z AUTO 07008KT 10SM BKN017 OVC060 26/23 A3006 RMK AO2 LTG DSNT NE AND E SLP163 T02610233 10306 20261 403330228 53020,KHDO,2023-05-20T05:51:00Z,29.37,-99.17,26.1,23.3,70,8,,10.0,30.059055,1016.3,,TRUE,TRUE,,,,,,,BKN,1700,OVC,6000,,,,,MVFR,2.0,30.6,26.1,33.3,22.8,,,,,,,METAR,280.0
KGDP 200551Z AUTO 05023KT 8SM SCT090 OVC120 15/12 RMK AO2 PK WND 06036/0458 SLPNO 60007 T01500117 10283 20150 $,KGDP,2023-05-20T05:51:00Z,31.83,-104.82,15.0,11.7,50,23,,8.0,,,,TRUE,TRUE,TRUE,,,,,,SCT,9000,OVC,12000,,,,,VFR,,28.3,15.0,,,,,0.07,,,,METAR,1664.0
KEWR 200551Z 05003KT 10SM BKN050 OVC250 15/12 A3019 RMK AO2 SLP222 T01500117 10167 20144 58021 $,KEWR,2023-05-20T05:51:00Z,40.68,-74.17,15.0,11.7,50,3,,10.0,30.188976,1022.2,,,TRUE,TRUE,,,,,,BKN,5000,OVC,25000,,,,,VFR,-2.1,16.7,14.4,,,,,,,,,METAR,2.0
KELP 200551Z 09014KT 10SM BKN120 BKN150 BKN250 22/11 A3016 RMK AO2 SLP142 VIRGA E-SW T02220106 10317 20222 51017,KELP,2023-05-20T05:51:00Z,31.82,-106.35,22.2,10.6,90,14,,10.0,30.159449,1014.2,,,TRUE,,,,,,,BKN,12000,BKN,15000,BKN,25000,,,VFR,1.7,31.7,22.2,,,,,,,,,METAR,1205.0
KEKN 200551Z AUTO 14005KT 10SM CLR 14/11 A3009 RMK AO2 SLP182 T01440106 10211 20133 58010,KEKN,2023-05-20T05:51:00Z,38.88,-79.85,14.4,10.6,140,5,,10.0,30.088583,1018.2,,TRUE,TRUE,,,,,,,CLR,,,,,,,,VFR,-1.0,21.1,13.3,,,,,,,,,METAR,596.0
KDAW 200551Z AUTO 00000KT 10SM CLR 12/06 A3022 RMK AO2 SLP230 T01170061 10189 20111 58002,KDAW,2023-05-20T05:51:00Z,43.28,-70.92,11.7,6.1,0,0,,10.0,30.221457,1023.0,,TRUE,TRUE,,,,,,,CLR,,,,,,,,VFR,-0.2,18.9,11.1,,,,,,,,,METAR,100.0
KCSG 200551Z AUTO 10006KT 10SM FEW019 19/18 A3006 RMK AO2 SLP176 T01890178 10222 20189 58012,KCSG,2023-05-20T05:51:00Z,32.52,-84.95,18.9,17.8,100,6,,10.0,30.059055,1017.6,,TRUE,TRUE,,,,,,,FEW,1900,,,,,,,VFR,-1.2,22.2,18.9,,,,,,,,,METAR,120.0
KCRP 200551Z 15003KT 10SM SCT018 BKN250 25/24 A3003 RMK AO2 SLP167 T02500244 10283 20250 403280222 51009,KCRP,2023-05-20T05:51:00Z,27.77,-97.5,25.0,24.4,150,3,,10.0,30.029528,1016.7,,,TRUE,,,,,,,SCT,1800,BKN,25000,,,,,VFR,0.9,28.3,25.0,32.8,22.2,,,,,,,METAR,11.0
KCON 200551Z AUTO 16006KT 10SM CLR 11/07 A3022 RMK AO2 SLP233 T01060072 10178 20106 56006,KCON,2023-05-20T05:51:00Z,43.2,-71.5,10.6,7.2,160,6,,10.0,30.221457,1023.3,,TRUE,TRUE,,,,,,,CLR,,,,,,,,VFR,-0.6,17.8,10.6,,,,,,,,,METAR,102.0
KCMH 200551Z 32005KT 10SM BKN028 OVC095 19/17 A2997 RMK AO2 SLP142 T01940167 10244 20194 58004,KCMH,2023-05-20T05:51:00Z,40.0,-82.88,19.4,16.7,320,5,,10.0,29.970472,1014.2,,,TRUE,,,,,,,BKN,2800,OVC,9500,,,,,MVFR,-0.4,24.4,19.4,,,,,,,,,METAR,257.0
KCDJ 200551Z AUTO 02004KT 11/05 A3022 RMK AO1 SLP231 T01110050 10189 20106 402060106 51019,KCDJ,2023-05-20T05:51:00Z,39.82,-93.57,11.1,5.0,20,4,,,30.221457,1023.1,,TRUE,TRUE,,,,,,,,,,,,,,,,1.9,18.9,10.6,20.6,10.6,,,,,,,METAR,234.0
KCAK 200551Z 29010KT 10SM BKN025 BKN033 OVC046 19/15 A2996 RMK AO2 SLP138 T01890150 10211 20189 56008,KCAK,2023-05-20T05:51:00Z,40.92,-81.45,18.9,15.0,290,10,,10.0,29.958662,1013.8,,,TRUE,,,,,,,BKN,2500,BKN,3300,OVC,4600,,,MVFR,-0.8,21.1,18.9,,,,,,,,,METAR,369.0
KBKW 200551Z AUTO 15009G19KT 10SM CLR 14/12 A3010 RMK AO2 SLP171 T01440122 10183 20144 58010,KBKW,2023-05-20T05:51:00Z,37.8,-81.12,14.4,12.2,150,9,19,10.0,30.100393,1017.1,,TRUE,TRUE,,,,,,,CLR,,,,,,,,VFR,-1.0,18.3,14.4,,,,,,,,,METAR,762.0
KBGD 200551Z AUTO 00000KT 4SM BR OVC047 13/11 A3033 RMK AO2 SLP248 T01280106 10167 20128 401890128 50008,KBGD,2023-05-20T05:51:00Z,35.7,-101.4,12.8,10.6,0,0,,4.0,30.33071,1024.8,,TRUE,TRUE,,,,,,BR,OVC,4700,,,,,,,MVFR,0.8,16.7,12.8,18.9,12.8,,,,,,,METAR,928.0
KBED 200551Z AUTO 17003KT 10SM CLR 11/07 A3022 RMK AO2 SLP247 T01060072 10167 20100 58014,KBED,2023-05-20T05:51:00Z,42.47,-71.3,10.6,7.2,170,3,,10.0,30.221457,1024.7,,TRUE,TRUE,,,,,,,CLR,,,,,,,,VFR,-1.4,16.7,10.0,,,,,,,,,METAR,39.0
KBDL 200551Z 26003KT 10SM BKN250 11/07 A3022 RMK AO2 SLP233 T01060072 10167 20100 58015,KBDL,2023-05-20T05:51:00Z,41.93,-72.68,10.6,7.2,260,3,,10.0,30.221457,1023.3,,,TRUE,,,,,,,BKN,25000,,,,,,,VFR,-1.5,16.7,10.0,,,,,,,,,METAR,52.0
KBAZ 200551Z AUTO 22003KT 10SM CLR 24/23 A3006 RMK AO2 LTG DSNT W SLP169 T02390228 10311 20239 51016,KBAZ,2023-05-20T05:51:00Z,29.72,-98.05,23.9,22.8,220,3,,10.0,30.059055,1016.9,,TRUE,TRUE,,,,,,,CLR,,,,,,,,VFR,1.6,31.1,23.9,,,,,,,,,METAR,199.0
KAVX 200551Z AUTO 35003KT M1/4SM FG VV001 13/12 A3008 RMK AO2 SLP181 T01280122 10139 20128 50007,KAVX,2023-05-20T05:51:00Z,33.4,-118.42,12.8,12.2,350,3,,0.25,30.079725,1018.1,,TRUE,TRUE,,,,,,FG,OVX,0,,,,,,,LIFR,0.7,13.9,12.8,,,,,,,,100,METAR,482.0
KATT 200551Z AUTO 02007G20KT 7SM RA SCT025 BKN035 OVC045 21/19 A3013 RMK AO2 PK WND 36026/0536 RAB20 TSB07E23 SLP191 P0006 60006 T02110194 10306 20211 403330200 50040,KATT,2023-05-20T05:51:00Z,30.32,-97.77,21.1,19.4,20,7,20,7.0,30.129921,1019.1,,TRUE,TRUE,,,,,,RA,SCT,2500,BKN,3500,OVC,4500,,,VFR,4.0,30.6,21.1,33.3,20.0,0.06,,0.06,,,,METAR,203.0
KALB 200551Z 15012KT 10SM FEW090 FEW150 BKN250 14/08 A3017 RMK AO2 SLP215 T01390078 10200 20139 58008,KALB,2023-05-20T05:51:00Z,42.75,-73.8,13.9,7.8,150,12,,10.0,30.171259,1021.5,,,TRUE,,,,,,,FEW,9000,FEW,15000,BKN,25000,,,VFR,-0.8,20.0,13.9,,,,,,,,,METAR,82.0
KAHN 200551Z AUTO 11003KT 10SM OVC029 18/17 A3010 RMK AO2 SLP188 T01830167 10206 20183 58009,KAHN,2023-05-20T05:51:00Z,33.95,-83.33,18.3,16.7,110,3,,10.0,30.100393,1018.8,,TRUE,TRUE,,,,,,,OVC,2900,,,,,,,MVFR,-0.9,20.6,18.3,,,,,,,,,METAR,241.0
KACT 200551Z AUTO 22012KT 9SM -RA BKN110 19/18 A3010 RMK AO2 TSE04B06E21 SLP187 P0003 60066 T01890183 10283 20189 403220189 51040,KACT,2023-05-20T05:51:00Z,31.62,-97.23,18.9,18.3,220,12,,9.0,30.100393,1018.7,,TRUE,TRUE,,,,,,-RA,BKN,11000,,,,,,,VFR,4.0,28.3,18.9,32.2,18.9,0.03,,0.66,,,,METAR,150.0
KABE 200551Z 09007KT 10SM CLR 13/09 A3018 RMK AO2 SLP217 T01280089 10200 20122 58011,KABE,2023-05-20T05:51:00Z,40.65,-75.45,12.8,8.9,90,7,,10.0,30.180119,1021.7,,,TRUE,,,,,,,CLR,,,,,,,,VFR,-1.1,20.0,12.2,,,,,,,,,METAR,117.0
K6R6 200551Z AUTO 01008KT 20/16 A3011 RMK AO1 SLP160 T02000156 10267 20200 403500156 53009 $,K6R6,2023-05-20T05:51:00Z,30.05,-102.22,20.0,15.6,10,8,,,30.109253,1016.0,,TRUE,TRUE,TRUE,,,,,,,,,,,,,,,0.9,26.7,20.0,35.0,15.6,,,,,,,METAR,702.0
VNKT 200550Z VRB02KT 8000 FEW015 26/15 Q1014 NOSIG,VNKT,2023-05-20T05:50:00Z,27.68,85.37,26.0,15.0,0,2,,4.97,29.940945,,,,,,TRUE,,,,,FEW,1500,,,,,,,MVFR,,,,,,,,,,,,METAR,1334.0
PTRO 200550Z 27009G16KT 14SM SCT016TCU BKN120 BKN300 29/24 A2982 RMK TCU N-E,PTRO,2023-05-20T05:50:00Z,7.37,134.55,29.0,24.0,270,9,16,14.0,29.819881,,,,,,,,,,,SCT,1600,BKN,12000,BKN,30000,,,VFR,,,,,,,,,,,,SPECI,30.0
PTPN 200550Z 14008KT 15SM SCT018 BKN130 OVC300 32/26 A2972 ,PTPN,2023-05-20T05:50:00Z,6.98,158.22,32.0,26.0,140,8,,15.0,29.719488,,,,,,,,,,,SCT,1800,BKN,13000,OVC,30000,,,VFR,,,,,,,,,,,,METAR,3.0
PGRO 200550Z 09012KT 7SM SCT015 29/24 A2978,PGRO,2023-05-20T05:50:00Z,14.18,145.25,29.0,24.0,90,12,,7.0,29.778543,,,,,,,,,,,SCT,1500,,,,,,,VFR,,,,,,,,,,,,METAR,181.0
OOSH 200550Z AUTO 03011KT //// ////// 38/19 Q1006 RMK 1003,OOSH,2023-05-20T05:50:00Z,24.38,56.62,38.0,19.0,30,11,,,29.704725,,,TRUE,,,,,,,,,,,,,,,,,,,,,,,,,,,,METAR,35.0
OOSA 200550Z 20013KT 9999 SCT020 33/26 Q1011 NOSIG,OOSA,2023-05-20T05:50:00Z,17.03,54.1,33.0,26.0,200,13,,6.21,29.852362,,,,,,TRUE,,,,,SCT,2000,,,,,,,VFR,,,,,,,,,,,,METAR,20.0
OOMS 200550Z 05012KT CAVOK 35/25 Q1007 NOSIG,OOMS,2023-05-20T05:50:00Z,23.58,58.28,35.0,25.0,50,12,,6.21,29.734253,,,,,,TRUE,,,,,CAVOK,,,,,,,,VFR,,,,,,,,,,,,METAR,8.0
OOKB 200550Z 02010KT 350V050 CAVOK 35/19 Q1007 NOSIG,OOKB,2023-05-20T05:50:00Z,26.17,56.23,35.0,19.0,20,10,,6.21,29.734253,,,,,,TRUE,,,,,CAVOK,,,,,,,,VFR,,,,,,,,,,,,METAR,30.0
OODQ 200550Z AUTO 22017KT CAVOK ////// 33/23 Q1011 NOSIG RMK RH56? 0,OODQ,2023-05-20T05:50:00Z,19.52,57.65,33.0,23.0,220,17,,6.21,29.852362,,,TRUE,,,TRUE,,,,,CAVOK,,,,,,,,VFR,,,,,,,,,,,,METAR,116.0
OOAD 200550Z AUTO 20010KT 9999 // NCD 34/20 Q1012 NOSIG,OOAD,2023-05-20T05:50:00Z,22.5,57.37,34.0,20.0,200,10,,6.21,29.88189,,,TRUE,,,TRUE,,,,,CLR,,,,,,,,VFR,,,,,,,,,,,,METAR,327.0
NZSP 200550Z 32008KT 6000 BR OVC050 M47/ A2836 RMK CLN AIR 32009KT ALL WNDS GRID,NZSP,2023-05-20T05:50:00Z,-89.98,179.98,-47.0,,320,8,,3.73,28.361221,,,,,,,,,,BR,OVC,5000,,,,,,,MVFR,,,,,,,,,,,,SPECI,2830.0
NSTU 200550Z VRB03KT 10SM FEW020 SCT220 28/27 A2986 RMK SLP113 60001 8/101 T02840265 10314 20284 53014,NSTU,2023-05-20T05:50:00Z,-14.33,-170.72,28.4,26.5,0,3,,10.0,29.861221,1011.3,,,,,,,,,,FEW,2000,SCT,22000,,,,,VFR,1.4,31.4,28.4,,,,,,,,,SPECI,8.0
MUVR 200550Z VRB02KT 9000 FEW020 23/22 Q1015,MUVR,2023-05-20T05:50:00Z,23.03,-81.43,23.0,22.0,0,2,,5.59,29.970472,,,,,,,,,,,FEW,2000,,,,,,,VFR,,,,,,,,,,,,METAR,65.0
MUSC 200550Z VRB01KT 9000 FEW030 22/21 Q1015,MUSC,2023-05-20T05:50:00Z,22.5,-79.92,22.0,21.0,0,1,,5.59,29.970472,,,,,,,,,,,FEW,3000,,,,,,,VFR,,,,,,,,,,,,METAR,97.0
MUHG 200550Z 10003KT 9000 FEW020 21/21 Q1014,MUHG,2023-05-20T05:50:00Z,20.78,-76.32,21.0,21.0,100,3,,5.59,29.940945,,,,,,,,,,,FEW,2000,,,,,,,VFR,,,,,,,,,,,,METAR,100.0
MUHA 200550Z 07003KT 9000 FEW030 24/23 Q1015,MUHA,2023-05-20T05:50:00Z,22.98,-82.42,24.0,23.0,70,3,,5.59,29.970472,,,,,,,,,,,FEW,3000,,,,,,,VFR,,,,,,,,,,,,METAR,61.0
MUCU 200550Z 04003KT 9000 FEW020 25/21 Q1013,MUCU,2023-05-20T05:50:00Z,19.97,-75.83,25.0,21.0,40,3,,5.59,29.911417,,,,,,,,,,,FEW,2000,,,,,,,VFR,,,,,,,,,,,,METAR,70.0
MUCM 200550Z 01004KT 9000 SKC 23/22 Q1014,MUCM,2023-05-20T05:50:00Z,21.42,-77.85,23.0,22.0,10,4,,5.59,29.940945,,,,,,,,,,,SKC,,,,,,,,VFR,,,,,,,,,,,,METAR,125.0
MUCL 200550Z AUTO VRB01KT 24/23 Q1014,MUCL,2023-05-20T05:50:00Z,21.63,-81.55,24.0,23.0,0,1,,,29.940945,,,TRUE,,,,,,,,,,,,,,,,,,,,,,,,,,,,METAR,5.0
MUCC 200550Z 29003KT 9000 23/22 Q1014,MUCC,2023-05-20T05:50:00Z,22.47,-78.33,23.0,22.0,290,3,,5.59,29.940945,,,,,,,,,,,,,,,,,,,,,,,,,,,,,,,METAR,7.0
MSLP 200550Z 06003KT 9999 SCT077 27/24 Q1011 A2986 NOSIG,MSLP,2023-05-20T05:50:00Z,13.43,-89.05,27.0,24.0,60,3,,6.21,29.852362,,,,,,TRUE,,,,,SCT,7700,,,,,,,VFR,,,,,,,,,,,,METAR,25.0
MMMM 200550Z 13008KT 7SM FEW030 BKN080 18/13 A3033 RMK SLP113 52013 926 8/570 HZY,MMMM,2023-05-20T05:50:00Z,19.85,-101.03,18.0,13.0,130,8,,7.0,30.33071,1011.3,,,,,,,,,,FEW,3000,BKN,8000,,,,,VFR,1.3,,,,,,,,,,,METAR,1840.0
LXGB 200550Z 24005KT 9999 FEW020 16/12 Q1013 RMK BLU,LXGB,2023-05-20T05:50:00Z,36.15,-5.33,16.0,12.0,240,5,,6.21,29.911417,,,,,,,,,,,FEW,2000,,,,,,,VFR,,,,,,,,,,,,METAR,5.0
LTFO 200550Z 27004KT 9999 SCT035 BKN100 16/13 Q1013,LTFO,2023-05-20T05:50:00Z,41.18,40.85,16.0,13.0,270,4,,6.21,29.911417,,,,,,,,,,,SCT,3500,BKN,10000,,,,,VFR,,,,,,,,,,,,METAR,5.0
LTFM 200550Z 34013KT 9999 BKN032 BKN080 16/13 Q1015 NOSIG RMK RWY17L 33012KT RWY34L 33011KT RWY16R 34010KT RWY36 34012KT RWY18 33012KT,LTFM,2023-05-20T05:50:00Z,41.27,28.75,16.0,13.0,340,13,,6.21,29.970472,,,,,,TRUE,,,,,BKN,3200,BKN,8000,,,,,VFR,,,,,,,,,,,,METAR,99.0
LTFJ 200550Z 25004KT 9999 SCT010 BKN023 15/14 Q1014 NOSIG RMK RWY24 VRB02KT,LTFJ,2023-05-20T05:50:00Z,40.9,29.3,15.0,14.0,250,4,,6.21,29.940945,,,,,,TRUE,,,,,SCT,1000,BKN,2300,,,,,MVFR,,,,,,,,,,,,SPECI,83.0
LTFH 200550Z 16005KT 120V180 9999 SCT013 BKN030 BKN100 17/14 Q1012 NOSIG,LTFH,2023-05-20T05:50:00Z,41.27,36.57,17.0,14.0,160,5,,6.21,29.88189,,,,,,TRUE,,,,,SCT,1300,BKN,3000,BKN,10000,,,MVFR,,,,,,,,,,,,METAR,7.0
LTFG 200550Z 16003KT 110V260 9999 SCT030 21/16 Q1009,LTFG,2023-05-20T05:50:00Z,36.3,32.3,21.0,16.0,160,3,,6.21,29.793306,,,,,,,,,,,SCT,3000,,,,,,,VFR,,,,,,,,,,,,METAR,26.0
LTFE 200550Z 31004KT 230V350 CAVOK 21/10 Q1011 NOSIG RMK RWY10 VRB02KT,LTFE,2023-05-20T05:50:00Z,37.25,27.67,21.0,10.0,310,4,,6.21,29.852362,,,,,,TRUE,,,,,CAVOK,,,,,,,,VFR,,,,,,,,,,,,METAR,6.0
LTFD 200550Z 06008KT 9999 FEW035 20/10 Q1014,LTFD,2023-05-20T05:50:00Z,39.55,27.02,20.0,10.0,60,8,,6.21,29.940945,,,,,,,,,,,FEW,3500,,,,,,,VFR,,,,,,,,,,,,METAR,15.0
LTFC 200550Z 33011KT 9999 SCT035 14/09 Q1013 RMK RWY23 31011KT,LTFC,2023-05-20T05:50:00Z,37.87,30.38,14.0,9.0,330,11,,6.21,29.911417,,,,,,,,,,,SCT,3500,,,,,,,VFR,,,,,,,,,,,,SPECI,862.0
LTFB 200550Z 04006KT 360V080 CAVOK 19/11 Q1013,LTFB,2023-05-20T05:50:00Z,37.95,27.33,19.0,11.0,40,6,,6.21,29.911417,,,,,,,,,,,CAVOK,,,,,,,,VFR,,,,,,,,,,,,METAR,3.0
LTDA 200550Z 21005KT 170V240 9999 FEW030 BKN200 22/14 Q1008,LTDA,2023-05-20T05:50:00Z,36.37,36.28,22.0,14.0,210,5,,6.21,29.763779,,,,,,,,,,,FEW,3000,BKN,20000,,,,,VFR,,,,,,,,,,,,METAR,80.0
LTCW 200550Z 31007KT 5000 -TSRA BR FEW015CB BKN030 08/07 Q1018,LTCW,2023-05-20T05:50:00Z,37.55,44.23,8.0,7.0,310,7,,3.11,30.059055,,,,,,,,,,-TSRA BR,FEW,1500,BKN,3000,,,,,MVFR,,,,,,,,,,,,METAR,1852.0
LTCV 200550Z 06017KT 6000 -SHRA SCT030 BKN090 15/13 Q1013,LTCV,2023-05-20T05:50:00Z,37.37,42.07,15.0,13.0,60,17,,3.73,29.911417,,,,,,,,,,-SHRA,SCT,3000,BKN,9000,,,,,MVFR,,,,,,,,,,,,METAR,620.0
LTCU 200550Z VRB02KT 9999 SCT035 BKN100 16/12 Q1013,LTCU,2023-05-20T05:50:00Z,38.87,40.58,16.0,12.0,0,2,,6.21,29.911417,,,,,,,,,,,SCT,3500,BKN,10000,,,,,VFR,,,,,,,,,,,,METAR,1061.0
LTCT 200550Z VRB02KT 9999 SCT040 BKN100 16/12 Q1014,LTCT,2023-05-20T05:50:00Z,39.98,43.87,16.0,12.0,0,2,,6.21,29.940945,,,,,,,,,,,SCT,4000,BKN,10000,,,,,VFR,,,,,,,,,,,,METAR,936.0
LTCS 200550Z 19004KT 150V260 CAVOK 20/09 Q1010 RMK RWY22 13005KT 100V170 3CI180,LTCS,2023-05-20T05:50:00Z,37.45,38.9,20.0,9.0,190,4,,6.21,29.822834,,,,,,,,,,,CAVOK,,,,,,,,VFR,,,,,,,,,,,,METAR,825.0
LTCR 200550Z 12015KT 9999 FEW040 BKN100 21/13 Q1010,LTCR,2023-05-20T05:50:00Z,37.22,40.63,21.0,13.0,120,15,,6.21,29.822834,,,,,,,,,,,FEW,4000,BKN,10000,,,,,VFR,,,,,,,,,,,,METAR,529.0
LTCP 200550Z 11005KT 050V190 9999 SCT035 BKN100 20/12 Q1010,LTCP,2023-05-20T05:50:00Z,37.73,38.47,20.0,12.0,110,5,,6.21,29.822834,,,,,,,,,,,SCT,3500,BKN,10000,,,,,VFR,,,,,,,,,,,,METAR,672.0
LTCO 200550Z 32003KT 280V020 9999 BKN080 13/09 Q1016,LTCO,2023-05-20T05:50:00Z,39.65,43.03,13.0,9.0,320,3,,6.21,30.0,,,,,,,,,,,BKN,8000,,,,,,,VFR,,,,,,,,,,,,METAR,1657.0
LTCN 200550Z VRB05KT 9999 SCT040 19/11 Q1009,LTCN,2023-05-20T05:50:00Z,37.53,36.95,19.0,11.0,0,5,,6.21,29.793306,,,,,,,,,,,SCT,4000,,,,,,,VFR,,,,,,,,,,,,METAR,505.0
LTCM 200550Z 27011KT 9999 FEW013 SCT080 17/14 Q1012,LTCM,2023-05-20T05:50:00Z,42.02,35.07,17.0,14.0,270,11,,6.21,29.88189,,,,,,,,,,,FEW,1300,SCT,8000,,,,,VFR,,,,,,,,,,,,METAR,7.0
LTCL 200550Z 10013G24KT 9999 SCT040 BKN100 18/10 Q1013,LTCL,2023-05-20T05:50:00Z,37.98,41.83,18.0,10.0,100,13,24,6.21,29.911417,,,,,,,,,,,SCT,4000,BKN,10000,,,,,VFR,,,,,,,,,,,,METAR,602.0
LTCK 200550Z 13015KT 9999 SCT040 BKN100 14/09 Q1015,LTCK,2023-05-20T05:50:00Z,38.75,41.67,14.0,9.0,130,15,,6.21,29.970472,,,,,,,,,,,SCT,4000,BKN,10000,,,,,VFR,,,,,,,,,,,,METAR,1267.0
LTCJ 200550Z 10015KT 9999 FEW040 SCT100 BKN180 21/10 Q1011 NOSIG RMK RWY20 07013KT 1CU040 4AC100 7CI180,LTCJ,2023-05-20T05:50:00Z,37.93,41.12,21.0,10.0,100,15,,6.21,29.852362,,,,,,TRUE,,,,,FEW,4000,SCT,10000,BKN,18000,,,VFR,,,,,,,,,,,,METAR,559.0
LTCI 200550Z 09004KT 8000 -TSRA FEW015CB SCT030 BKN070 09/08 Q1022 BECMG TL0650 NSW TEMPO 15015G25KT,LTCI,2023-05-20T05:50:00Z,38.47,43.33,9.0,8.0,90,4,,4.97,30.177166,,,,,,,,,,-TSRA,FEW,1500,SCT,3000,BKN,7000,,,MVFR,,,,,,,,,,,,METAR,1654.0
LTCG 200550Z 09005KT 9999 SCT011 SCT035 BKN100 16/13 Q1013 NOSIG RMK RWY29 08005KT,LTCG,2023-05-20T05:50:00Z,41.0,39.77,16.0,13.0,90,5,,6.21,29.911417,,,,,,TRUE,,,,,SCT,1100,SCT,3500,BKN,10000,,,VFR,,,,,,,,,,,,METAR,28.0
LTCF 200550Z 12010KT 9999 SCT035 BKN070 12/08 Q1017 NOSIG,LTCF,2023-05-20T05:50:00Z,40.57,43.12,12.0,8.0,120,10,,6.21,30.029528,,,,,,TRUE,,,,,SCT,3500,BKN,7000,,,,,VFR,,,,,,,,,,,,METAR,1794.0
LTCE 200550Z 08012KT 9999 SCT035 BKN070 12/07 Q1015 NOSIG RMK RWY08R 06013KT RWY26R 08014KT RWY08L 07013KT 4CU035 7AC070,LTCE,2023-05-20T05:50:00Z,39.95,41.17,12.0,7.0,80,12,,6.21,29.970472,,,,,,TRUE,,,,,SCT,3500,BKN,7000,,,,,VFR,,,,,,,,,,,,METAR,1758.0
LTCD 200550Z 10015KT 9999 SCT045 BKN080 19/09 Q1011 NOSIG,LTCD,2023-05-20T05:50:00Z,39.72,39.52,19.0,9.0,100,15,,6.21,29.852362,,,,,,TRUE,,,,,SCT,4500,BKN,8000,,,,,VFR,,,,,,,,,,,,METAR,1146.0
LTCC 200550Z 11005KT 080V150 CAVOK 19/13 Q1010 NOSIG RMK RWY16 10005KT 070V170 3AC100 7CI200,LTCC,2023-05-20T05:50:00Z,37.88,40.2,19.0,13.0,110,5,,6.21,29.822834,,,,,,TRUE,,,,,CAVOK,,,,,,,,VFR,,0.5,,,,,,,,,,METAR,676.0
LTCB 200550Z 05003KT 020V080 9999 SCT035 BKN100 17/13 Q1013 NOSIG,LTCB,2023-05-20T05:50:00Z,40.97,38.07,17.0,13.0,50,3,,6.21,29.911417,,,,,,TRUE,,,,,SCT,3500,BKN,10000,,,,,VFR,,,,,,,,,,,,METAR,5.0
LTCA 200550Z 09008KT 030V150 9999 SCT035 BKN100 19/10 Q1011 NOSIG,LTCA,2023-05-20T05:50:00Z,38.6,39.28,19.0,10.0,90,8,,6.21,29.852362,,,,,,TRUE,,,,,SCT,3500,BKN,10000,,,,,VFR,,,,,,,,,,,,METAR,887.0
LTBY 200550Z 31008KT 9999 BKN025 12/09 Q1014,LTBY,2023-05-20T05:50:00Z,39.82,30.52,12.0,9.0,310,8,,6.21,29.940945,,,,,,,,,,,BKN,2500,,,,,,,MVFR,,,,,,,,,,,,METAR,788.0
LTBU 200550Z 35012KT CAVOK 17/12 Q1015 RMK RWY22 35010KT,LTBU,2023-05-20T05:50:00Z,41.13,27.92,17.0,12.0,350,12,,6.21,29.970472,,,,,,,,,,,CAVOK,,,,,,,,VFR,,,,,,,,,,,,SPECI,165.0
LTBS 200550Z 35011KT CAVOK 22/11 Q1009 NOSIG RMK RWY19 34011KT SKC,LTBS,2023-05-20T05:50:00Z,36.7,28.78,22.0,11.0,350,11,,6.21,29.793306,,,,,,TRUE,,,,,CAVOK,,,,,,,,VFR,,,,,,,,,,,,SPECI,2.0
LTBR 200550Z VRB01KT 4000 BR FEW010 BKN030 14/14 Q1014 NOSIG RMK RWY07 VRB02KT,LTBR,2023-05-20T05:50:00Z,40.25,29.57,14.0,14.0,0,1,,2.49,29.940945,,,,,,TRUE,,,,BR,FEW,1000,BKN,3000,,,,,IFR,,,,,,,,,,,,SPECI,233.0
LTBQ 200550Z 27006KT 230V290 3200 BR SCT010 BKN025 15/14 Q1014 BECMG TL0650 7000,LTBQ,2023-05-20T05:50:00Z,40.73,30.07,15.0,14.0,270,6,,1.99,29.940945,,,,,,,,,,BR,SCT,1000,BKN,2500,,,,,IFR,,,,,,,,,,,,METAR,51.0
LTBO 200550Z VRB02KT 9999 SCT035 14/08 Q1014,LTBO,2023-05-20T05:50:00Z,38.67,29.47,14.0,8.0,0,2,,6.21,29.940945,,,,,,,,,,,SCT,3500,,,,,,,VFR,,,,,,,,,,,,METAR,868.0
LTBJ 200550Z 34016KT CAVOK 19/10 Q1013 NOSIG RMK RWY16 36012KT,LTBJ,2023-05-20T05:50:00Z,38.28,27.15,19.0,10.0,340,16,,6.21,29.911417,,,,,,TRUE,,,,,CAVOK,,,,,,,,VFR,,,,,,,,,,,,SPECI,123.0
LTBH 200550Z 08007KT CAVOK 18/13 Q1016,LTBH,2023-05-20T05:50:00Z,40.13,26.42,18.0,13.0,80,7,,6.21,30.0,,,,,,,,,,,CAVOK,,,,,,,,VFR,,,,,,,,,,,,METAR,8.0
LTBF 200550Z 00000KT 9999 FEW035 16/12 Q1015 NOSIG,LTBF,2023-05-20T05:50:00Z,39.62,27.92,16.0,12.0,0,0,,6.21,29.970472,,,,,,TRUE,,,,,FEW,3500,,,,,,,VFR,,,,,,,,,,,,METAR,95.0
LTBD 200550Z 00000KT CAVOK 19/11 Q1012,LTBD,2023-05-20T05:50:00Z,37.82,27.88,19.0,11.0,0,0,,6.21,29.88189,,,,,,,,,,,CAVOK,,,,,,,,VFR,,,,,,,,,,,,METAR,29.0
LTBA 200550Z 24003KT 9999 SCT015 BKN040 16/13 Q1015 RMK RWY23 02007KT,LTBA,2023-05-20T05:50:00Z,40.97,28.82,16.0,13.0,240,3,,6.21,29.970472,,,,,,,,,,,SCT,1500,BKN,4000,,,,,VFR,,,,,,,,,,,,SPECI,33.0
LTAZ 200550Z VRB03KT 9999 SCT023 BKN100 15/10 Q1012 RMK RWY29 28004KT,LTAZ,2023-05-20T05:50:00Z,38.77,34.52,15.0,10.0,0,3,,6.21,29.88189,,,,,,,,,,,SCT,2300,BKN,10000,,,,,VFR,,,,,,,,,,,,SPECI,944.0
LTAY 200550Z VRB03KT 8000 FEW012 SCT035 BKN100 12/11 Q1013 NOSIG,LTAY,2023-05-20T05:50:00Z,37.78,29.7,12.0,11.0,0,3,,4.97,29.911417,,,,,,TRUE,,,,,FEW,1200,SCT,3500,BKN,10000,,,MVFR,,,,,,,,,,,,METAR,851.0
LTAW 200550Z 25005KT 220V280 9999 BKN030 BKN080 15/13 Q1012,LTAW,2023-05-20T05:50:00Z,40.3,36.37,15.0,13.0,250,5,,6.21,29.88189,,,,,,,,,,,BKN,3000,BKN,8000,,,,,MVFR,,,,,,,,,,,,METAR,561.0
LTAU 200550Z 02004KT 330V070 9999 SCT035 SCT090 15/09 Q1012 NOSIG RMK RWY07 VRB02KT,LTAU,2023-05-20T05:50:00Z,38.77,35.48,15.0,9.0,20,4,,6.21,29.88189,,,,,,TRUE,,,,,SCT,3500,SCT,9000,,,,,VFR,,,,,,,,,,,,METAR,1053.0
LTAT 200550Z VRB02KT 9999 FEW040 SCT200 19/07 Q1010 NOSIG RMK RWY03 VRB02KT,LTAT,2023-05-20T05:50:00Z,38.43,38.08,19.0,7.0,0,2,,6.21,29.822834,,,,,,TRUE,,,,,FEW,4000,SCT,20000,,,,,VFR,,,,,,,,,,,,METAR,850.0
LTAS 200550Z VRB02KT 9999 SCT040 17/13 Q1013,LTAS,2023-05-20T05:50:00Z,41.52,32.08,17.0,13.0,0,2,,6.21,29.911417,,,,,,,,,,,SCT,4000,,,,,,,VFR,,,,,,,,,,,,METAR,13.0
LTAR 200550Z VRB02KT 9999 FEW040 SCT100 12/07 Q1013,LTAR,2023-05-20T05:50:00Z,39.8,36.9,12.0,7.0,0,2,,6.21,29.911417,,,,,,,,,,,FEW,4000,SCT,10000,,,,,VFR,,,,,,,,,,,,METAR,1601.0
LTAP 200550Z 05011KT 020V080 9999 FEW019 SCT035 BKN080 14/10 Q1012 NOSIG RMK RWY23 /////KT,LTAP,2023-05-20T05:50:00Z,40.83,35.52,14.0,10.0,50,11,,6.21,29.88189,,,,,,TRUE,,,,,FEW,1900,SCT,3500,BKN,8000,,,VFR,,,,,,,,,,,,METAR,536.0
LTAN 200550Z 34011KT 9999 SCT040 BKN100 13/09 Q1013 NOSIG,LTAN,2023-05-20T05:50:00Z,37.97,32.55,13.0,9.0,340,11,,6.21,29.911417,,,,,,TRUE,,,,,SCT,4000,BKN,10000,,,,,VFR,,,,,,,,,,,,METAR,1029.0
LTAL 200550Z 23004KT 8000 FEW010 SCT032 OVC060 11/10 Q1014,LTAL,2023-05-20T05:50:00Z,41.32,33.8,11.0,10.0,230,4,,4.97,29.940945,,,,,,,,,,,FEW,1000,SCT,3200,OVC,6000,,,MVFR,,,,,,,,,,,,METAR,1074.0
LTAJ 200550Z 25006KT 220V290 CAVOK 19/10 Q1009 NOSIG RMK RWY10 24007KT 190V290 1CI180,LTAJ,2023-05-20T05:50:00Z,36.95,37.48,19.0,10.0,250,6,,6.21,29.793306,,,,,,TRUE,,,,,CAVOK,,,,,,,,VFR,,,,,,,,,,,,METAR,684.0
LTAI 200550Z 36008KT 9999 FEW030 21/12 Q1009 NOSIG RMK RWY18C 35008KT 330V030 RWY36R 36008KT RWY18L 36006KT,LTAI,2023-05-20T05:50:00Z,36.9,30.8,21.0,12.0,360,8,,6.21,29.793306,,,,,,TRUE,,,,,FEW,3000,,,,,,,VFR,,,,,,,,,,,,SPECI,50.0
LTAG 200550Z 09004KT 9999 SCT035 21/16 Q1008 NOSIG RMK 4CU035,LTAG,2023-05-20T05:50:00Z,37.0,35.42,21.0,16.0,90,4,,6.21,29.763779,,,,,,TRUE,,,,,SCT,3500,,,,,,,VFR,,,,,,,,,,,,SPECI,62.0
LTAF 200550Z 19004KT 080V250 9999 BKN030 22/16 Q1009 NOSIG RMK RWY23 21004KT 150V260 5CU030,LTAF,2023-05-20T05:50:00Z,36.98,35.28,22.0,16.0,190,4,,6.21,29.793306,,,,,,TRUE,,,,,BKN,3000,,,,,,,MVFR,,,-0.4,,,,,,,,,SPECI,19.0
LTAE 200550Z VRB02KT 9999 SCT035 BKN090 13/09 Q1013 NOSIG RMK RWY21 VRB02KT,LTAE,2023-05-20T05:50:00Z,40.07,32.57,13.0,9.0,0,2,,6.21,29.911417,,,,,,TRUE,,,,,SCT,3500,BKN,9000,,,,,VFR,,,,,,,,,,,,METAR,836.0
LTAC 200550Z 32004KT 260V020 9999 SCT025 BKN100 14/09 Q1013 NOSIG RMK RWY21L 01003KT 260V060 RWY03L VRB02KT RWY21R VRB03KT,LTAC,2023-05-20T05:50:00Z,40.12,32.98,14.0,9.0,320,4,,6.21,29.911417,,,,,,TRUE,,,,,SCT,2500,BKN,10000,,,,,VFR,,,,,,,,,,,,SPECI,952.0
LSZS 200550Z VRB02KT 9999 FEW003 BKN048 06/05 Q1017 RMK A TL170,LSZS,2023-05-20T05:50:00Z,46.53,9.88,6.0,5.0,0,2,,6.21,30.029528,,,,,,,,,,,FEW,300,BKN,4800,,,,,VFR,,,,,,,,,,,,METAR,1708.0
LSZR 200550Z VRB01KT CAVOK 11/11 Q1016 RMK A,LSZR,2023-05-20T05:50:00Z,47.48,9.57,11.0,11.0,0,1,,6.21,30.0,,,,,,,,,,,CAVOK,,,,,,,,VFR,,,,,,,,,,,,METAR,396.0
LSZL 200550Z AUTO VRB01KT 9999NDV OVC075 12/12 Q1017 RMK,LSZL,2023-05-20T05:50:00Z,46.17,8.88,12.0,12.0,0,1,,,30.029528,,,TRUE,,,,,,,,OVC,7500,,,,,,,,,,,,,,,,,,,METAR,198.0
LSZH 200550Z VRB01KT 9999 FEW020 OVC024 11/09 Q1016 NOSIG,LSZH,2023-05-20T05:50:00Z,47.48,8.53,11.0,9.0,0,1,,6.21,30.0,,,,,,TRUE,,,,,FEW,2000,OVC,2400,,,,,MVFR,,,,,,,,,,,,METAR,424.0
LSZG 200550Z 03004KT 9999 OVC030 12/10 Q1015,LSZG,2023-05-20T05:50:00Z,47.17,7.42,12.0,10.0,30,4,,6.21,29.970472,,,,,,,,,,,OVC,3000,,,,,,,MVFR,,,,,,,,,,,,METAR,428.0
LSZC 200550Z AUTO 06003KT 9999 BKN030 11/10 Q1016,LSZC,2023-05-20T05:50:00Z,46.97,8.38,11.0,10.0,60,3,,6.21,30.0,,,TRUE,,,,,,,,BKN,3000,,,,,,,MVFR,,,,,,,,,,,,METAR,445.0
LSZB 200550Z 16002KT 9999 BKN028 11/09 Q1015,LSZB,2023-05-20T05:50:00Z,46.92,7.5,11.0,9.0,160,2,,6.21,29.970472,,,,,,,,,,,BKN,2800,,,,,,,MVFR,,,,,,,,,,,,METAR,510.0
LSZA 200550Z VRB01KT 9999 FEW010 OVC060 12/12 Q1017,LSZA,2023-05-20T05:50:00Z,46.0,8.92,12.0,12.0,0,1,,6.21,30.029528,,,,,,,,,,,FEW,1000,OVC,6000,,,,,VFR,,,,,,,,,,,,METAR,276.0
LSMP 200550Z AUTO 05003KT 020V080 9999NDV BKN038 11/08 Q1015 RMK,LSMP,2023-05-20T05:50:00Z,46.83,6.92,11.0,8.0,50,3,,,29.970472,,,TRUE,,,,,,,,BKN,3800,,,,,,,,,,,,,,,,,,,METAR,490.0
LSMM 200550Z AUTO 00000KT 9999NDV FEW020 OVC024 10/10 Q1016 RMK,LSMM,2023-05-20T05:50:00Z,46.75,8.12,10.0,10.0,0,0,,,30.0,,,TRUE,,,,,,,,FEW,2000,OVC,2400,,,,,,,,,,,,,,,,,METAR,570.0
LSMD 200550Z AUTO 00000KT 9999NDV SCT020 OVC023 11/09 Q1016 RMK,LSMD,2023-05-20T05:50:00Z,47.4,8.65,11.0,9.0,0,0,,,30.0,,,TRUE,,,,,,,,SCT,2000,OVC,2300,,,,,,,,,,,,,,,,,METAR,436.0
LSMA 200550Z AUTO VRB01KT 8000NDV FEW023 OVC029 11/10 Q1016 RMK,LSMA,2023-05-20T05:50:00Z,46.95,8.28,11.0,10.0,0,1,,,30.0,,,TRUE,,,,,,,,FEW,2300,OVC,2900,,,,,,,,,,,,,,,,,METAR,441.0
LSGS 200550Z VRB01KT 9999 FEW080 SCT120 11/09 Q1015,LSGS,2023-05-20T05:50:00Z,46.22,7.32,11.0,9.0,0,1,,6.21,29.970472,,,,,,,,,,,FEW,8000,SCT,12000,,,,,VFR,,,,,,,,,,,,METAR,482.0
LSGG 200550Z 04006KT 010V070 9999 FEW025 BKN035 12/08 Q1015 NOSIG,LSGG,2023-05-20T05:50:00Z,46.25,6.12,12.0,8.0,40,6,,6.21,29.970472,,,,,,TRUE,,,,,FEW,2500,BKN,3500,,,,,VFR,,,,,,,,,,,,METAR,411.0
LSGC 200550Z 05007KT 9999 OVC014 08/08 Q1015,LSGC,2023-05-20T05:50:00Z,47.08,6.8,8.0,8.0,50,7,,6.21,29.970472,,,,,,,,,,,OVC,1400,,,,,,,MVFR,,,,,,,,,,,,METAR,1018.0
LOXZ 200550Z 00000KT 8000 FEW003 SCT006 BKN040 11/10 Q1021 NOSIG,LOXZ,2023-05-20T05:50:00Z,47.2,14.75,11.0,10.0,0,0,,4.97,30.147638,,,,,,TRUE,,,,,FEW,300,SCT,600,BKN,4000,,,MVFR,,,,,,,,,,,,METAR,678.0
LOWW 200550Z 32003KT 240V360 9999 FEW006 SCT007 12/10 Q1022 NOSIG,LOWW,2023-05-20T05:50:00Z,48.12,16.57,12.0,10.0,320,3,,6.21,30.177166,,,,,,TRUE,,,,,FEW,600,SCT,700,,,,,VFR,,,,,,,,,,,,METAR,179.0
LOWS 200550Z AUTO VRB02KT 9999 FEW130 12/10 Q1017 NOSIG,LOWS,2023-05-20T05:50:00Z,47.78,13.02,12.0,10.0,0,2,,6.21,30.029528,,,TRUE,,,TRUE,,,,,FEW,13000,,,,,,,VFR,,,,,,,,,,,,METAR,427.0
LOWL 200550Z AUTO 09013KT 9999 FEW070 14/11 Q1019 NOSIG,LOWL,2023-05-20T05:50:00Z,48.22,14.18,14.0,11.0,90,13,,6.21,30.088583,,,TRUE,,,TRUE,,,,,FEW,7000,,,,,,,VFR,,,,,,,,,,,,METAR,290.0
LOWK 200550Z AUTO VRB01KT 9999 FEW004 BKN015 13/12 Q1021 NOSIG,LOWK,2023-05-20T05:50:00Z,46.65,14.32,13.0,12.0,0,1,,6.21,30.147638,,,TRUE,,,TRUE,,,,,FEW,400,BKN,1500,,,,,MVFR,,,,,,,,,,,,METAR,450.0
LOWI 200550Z VRB02KT 9999 FEW010 SCT080 12/10 Q1017 NOSIG,LOWI,2023-05-20T05:50:00Z,47.27,11.33,12.0,10.0,0,2,,6.21,30.029528,,,,,,TRUE,,,,,FEW,1000,SCT,8000,,,,,VFR,,,,,,,,,,,,METAR,570.0
LOWG 200550Z VRB01KT 9999 FEW005 BKN028 14/12 Q1021 NOSIG,LOWG,2023-05-20T05:50:00Z,47.0,15.43,14.0,12.0,0,1,,6.21,30.147638,,,,,,TRUE,,,,,FEW,500,BKN,2800,,,,,MVFR,,,,,,,,,,,,METAR,337.0
LLIB 200550Z AUTO 15006KT 100V200 9999 BKN018 19/14 Q1012,LLIB,2023-05-20T05:50:00Z,32.98,35.57,19.0,14.0,150,6,,6.21,29.88189,,,TRUE,,,,,,,,BKN,1800,,,,,,,MVFR,,,,,,,,,,,,METAR,268.0
LLHA 200550Z 24004KT 210V270 9999 FEW025 SCT038 BKN050 22/15 Q1011,LLHA,2023-05-20T05:50:00Z,32.8,35.03,22.0,15.0,240,4,,6.21,29.852362,,,,,,,,,,,FEW,2500,SCT,3800,BKN,5000,,,VFR,,,,,,,,,,,,METAR,3.0
LLER 200550Z 36007KT CAVOK 21/11 Q1013 RMK SCT060,LLER,2023-05-20T05:50:00Z,29.72,35.02,21.0,11.0,360,7,,6.21,29.911417,,,,,,,,,,,CAVOK,,,,,,,,VFR,,,,,,,,,,,,METAR,88.0
LLBG 200550Z 18007KT 9999 FEW025 BKN050 21/15 Q1012 NOSIG,LLBG,2023-05-20T05:50:00Z,32.0,34.88,21.0,15.0,180,7,,6.21,29.88189,,,,,,TRUE,,,,,FEW,2500,BKN,5000,,,,,VFR,,,,,,,,,,,,METAR,35.0
LIRZ 200550Z AUTO 03010KT 9999 BKN074/// BKN100/// 14/12 Q1011,LIRZ,2023-05-20T05:50:00Z,43.1,12.5,14.0,12.0,30,10,,6.21,29.852362,,,TRUE,,,,,,,,BKN,7400,BKN,10000,,,,,VFR,,,,,,,,,,,,METAR,206.0
LIRQ 200550Z 14003KT 070V210 9999 -RA FEW025 OVC080 16/13 Q1011,LIRQ,2023-05-20T05:50:00Z,43.8,11.2,16.0,13.0,140,3,,6.21,29.852362,,,,,,,,,,-RA,FEW,2500,OVC,8000,,,,,VFR,,,,,,,,,,,,METAR,33.0
LIRN 200550Z 02008KT 280V040 9999 -RA BKN070 17/14 Q1007 NOSIG,LIRN,2023-05-20T05:50:00Z,40.88,14.3,17.0,14.0,20,8,,6.21,29.734253,,,,,,TRUE,,,,-RA,BKN,7000,,,,,,,VFR,,,,,,,,,,,,METAR,76.0
LIRF 200550Z 05007KT CAVOK 17/14 Q1008 NOSIG,LIRF,2023-05-20T05:50:00Z,41.78,12.23,17.0,14.0,50,7,,6.21,29.763779,,,,,,TRUE,,,,,CAVOK,,,,,,,,VFR,,,,,,,,,,,,METAR,2.0
LIRA 200550Z 08013KT 050V110 9999 SCT070 17/12 Q1008,LIRA,2023-05-20T05:50:00Z,41.8,12.58,17.0,12.0,80,13,,6.21,29.763779,,,,,,,,,,,SCT,7000,,,,,,,VFR,,,,,,,,,,,,METAR,101.0
LIPZ 200550Z 05009KT 9999 FEW070 17/12 Q1014 NOSIG,LIPZ,2023-05-20T05:50:00Z,45.5,12.35,17.0,12.0,50,9,,6.21,29.940945,,,,,,TRUE,,,,,FEW,7000,,,,,,,VFR,,,,,,,,,,,,METAR,3.0
LIPY 200550Z AUTO 22004KT 9999 -RA BKN008/// OVC080/// 15/14 Q1014,LIPY,2023-05-20T05:50:00Z,43.62,13.37,15.0,14.0,220,4,,6.21,29.940945,,,TRUE,,,,,,,-RA,BKN,800,OVC,8000,,,,,IFR,,,,,,,,,,,,METAR,11.0
LIPX 200550Z 32003KT 9999 BKN080 15/13 Q1014,LIPX,2023-05-20T05:50:00Z,45.38,10.87,15.0,13.0,320,3,,6.21,29.940945,,,,,,,,,,,BKN,8000,,,,,,,VFR,,,,,,,,,,,,METAR,67.0
LIPR 200550Z AUTO 29006KT 9999 BKN092/// 14/14 Q1014,LIPR,2023-05-20T05:50:00Z,44.02,12.62,14.0,14.0,290,6,,6.21,29.940945,,,TRUE,,,,,,,,BKN,9200,,,,,,,VFR,,,,,,,,,,,,METAR,10.0
LIPQ 200550Z AUTO 09012KT 9999 SCT100/// BKN120/// 20/12 Q1015,LIPQ,2023-05-20T05:50:00Z,45.82,13.47,20.0,12.0,90,12,,6.21,29.970472,,,TRUE,,,,,,,,SCT,10000,BKN,12000,,,,,VFR,,,,,,,,,,,,METAR,6.0
LIPO 200550Z AUTO 04006KT 9999 BKN062/// 16/14 Q1014,LIPO,2023-05-20T05:50:00Z,45.42,10.33,16.0,14.0,40,6,,6.21,29.940945,,,TRUE,,,,,,,,BKN,6200,,,,,,,VFR,,,,,,,,,,,,METAR,104.0
LIPK 200550Z VRB02KT 4000 SCT006 BKN015 14/12 Q1014,LIPK,2023-05-20T05:50:00Z,44.2,12.07,14.0,12.0,0,2,,2.49,29.940945,,,,,,,,,,,SCT,600,BKN,1500,,,,,IFR,,,,,,,,,,,,METAR,24.0
LIPH 200550Z 05007KT CAVOK 18/11 Q1015,LIPH,2023-05-20T05:50:00Z,45.63,12.18,18.0,11.0,50,7,,6.21,29.970472,,,,,,,,,,,CAVOK,,,,,,,,VFR,,,,,,,,,,,,METAR,10.0
LIPE 200550Z 24004KT 3000 -RA BR SCT035 BKN060 14/14 Q1014,LIPE,2023-05-20T05:50:00Z,44.52,11.3,14.0,14.0,240,4,,1.86,29.940945,,,,,,,,,,-RA BR,SCT,3500,BKN,6000,,,,,IFR,,,,,,,,,,,,METAR,37.0
LIPB 200550Z VRB02KT 8000 FEW003 SCT090 14/13 Q1018,LIPB,2023-05-20T05:50:00Z,46.47,11.32,14.0,13.0,0,2,,4.97,30.059055,,,,,,,,,,,FEW,300,SCT,9000,,,,,MVFR,,,,,,,,,,,,METAR,239.0
LIMZ 200550Z AUTO 35007KT 320V040 9999 RA OVC003/// 11/11 Q1015,LIMZ,2023-05-20T05:50:00Z,44.53,7.62,11.0,11.0,350,7,,6.21,29.970472,,,TRUE,,,,,,,RA,OVC,300,,,,,,,LIFR,,,,,,,,,,,,METAR,377.0
LIMW 200550Z AUTO 09003KT 9999 -RA SCT032/// OVC058/// 10/10 Q1018,LIMW,2023-05-20T05:50:00Z,45.73,7.37,10.0,10.0,90,3,,6.21,30.059055,,,TRUE,,,,,,,-RA,SCT,3200,OVC,5800,,,,,VFR,,,,,,,,,,,,METAR,554.0
LIMP 200550Z VRB01KT 2500 BR FEW008 BKN030 13/13 Q1015,LIMP,2023-05-20T05:50:00Z,44.82,10.3,13.0,13.0,0,1,,1.55,29.970472,,,,,,,,,,BR,FEW,800,BKN,3000,,,,,IFR,,,,,,,,,,,,METAR,41.0
LIML 200550Z 35005KT 9999 BKN060 14/14 Q1015 NOSIG,LIML,2023-05-20T05:50:00Z,45.47,9.27,14.0,14.0,350,5,,6.21,29.970472,,,,,,TRUE,,,,,BKN,6000,,,,,,,VFR,,,,,,,,,,,,METAR,109.0
LIMJ 200550Z 05009KT 9999 SCT055 BKN065 16/12 Q1012,LIMJ,2023-05-20T05:50:00Z,44.42,8.83,16.0,12.0,50,9,,6.21,29.88189,,,,,,,,,,,SCT,5500,BKN,6500,,,,,VFR,,,,,,,,,,,,METAR,3.0
LIMG 200550Z 36011G22KT 320V050 9999 BKN035 BKN060 17/09 Q1012,LIMG,2023-05-20T05:50:00Z,44.03,8.12,17.0,9.0,360,11,22,6.21,29.88189,,,,,,,,,,,BKN,3500,BKN,6000,,,,,VFR,,,,,,,,,,,,METAR,41.0
LIMF 200550Z 33008KT 6000 RA SCT023 BKN030 12/11 Q1016,LIMF,2023-05-20T05:50:00Z,45.22,7.65,12.0,11.0,330,8,,3.73,30.0,,,,,,,,,,RA,SCT,2300,BKN,3000,,,,,MVFR,,,,,,,,,,,,METAR,295.0
LIME 200550Z 01004KT 9999 SCT055 BKN090 14/12 Q1015 NOSIG,LIME,2023-05-20T05:50:00Z,45.67,9.7,14.0,12.0,10,4,,6.21,29.970472,,,,,,TRUE,,,,,SCT,5500,BKN,9000,,,,,VFR,,,,,,,,,,,,METAR,239.0
LIMC 200550Z 35006KT 9999 -RA BKN040 13/11 Q1015 NOSIG,LIMC,2023-05-20T05:50:00Z,45.62,8.72,13.0,11.0,350,6,,6.21,29.970472,,,,,,TRUE,,,,-RA,BKN,4000,,,,,,,VFR,,,,,,,,,,,,METAR,221.0
LIEO 200550Z 05010KT 7000 -RA FEW010 BKN020 17/17 Q1005,LIEO,2023-05-20T05:50:00Z,40.88,9.52,17.0,17.0,50,10,,4.35,29.675198,,,,,,,,,,-RA,FEW,1000,BKN,2000,,,,,MVFR,,,,,,,,,,,,METAR,8.0
LIEE 200550Z 36006KT 9999 FEW030 SCT045 16/14 Q1003,LIEE,2023-05-20T05:50:00Z,39.25,9.07,16.0,14.0,360,6,,6.21,29.616142,,,,,,,,,,,FEW,3000,SCT,4500,,,,,VFR,,,,,,,,,,,,METAR,1.0
LIEA 200550Z 04012KT 9999 -RA FEW010 BKN014 16/15 Q1005,LIEA,2023-05-20T05:50:00Z,40.62,8.28,16.0,15.0,40,12,,6.21,29.675198,,,,,,,,,,-RA,FEW,1000,BKN,1400,,,,,MVFR,,,,,,,,,,,,METAR,22.0
LICR 200550Z AUTO 11025G37KT 9999 -RA BKN080/// 22/09 Q1004,LICR,2023-05-20T05:50:00Z,38.07,15.65,22.0,9.0,110,25,37,6.21,29.64567,,,TRUE,,,,,,,-RA,BKN,8000,,,,,,,VFR,,,,,,,,,,,,METAR,16.0
LICJ 200550Z 02016KT 9999 FEW050 20/14 Q0999,LICJ,2023-05-20T05:50:00Z,38.17,13.08,20.0,14.0,20,16,,6.21,29.498032,,,,,,,,,,,FEW,5000,,,,,,,VFR,,,,,,,,,,,,METAR,20.0
LICG 200550Z 13015G28KT 8000 SCT010 18/15 Q0998,LICG,2023-05-20T05:50:00Z,36.82,11.97,18.0,15.0,130,15,28,4.97,29.468504,,,,,,,,,,,SCT,1000,,,,,,,MVFR,,,,,,,,,,,,METAR,192.0
LICD 200550Z AUTO 22009KT 3100 BR OVC020/// 19/17 Q0997,LICD,2023-05-20T05:50:00Z,35.5,12.62,19.0,17.0,220,9,,1.93,29.438976,,,TRUE,,,,,,,BR,OVC,2000,,,,,,,IFR,,,,,,,,,,,,METAR,20.0
LICC 200550Z 04025G37KT 6000 -DZ SCT020 BKN100 19/15 Q1004,LICC,2023-05-20T05:50:00Z,37.47,15.05,19.0,15.0,40,25,37,3.73,29.64567,,,,,,,,,,-DZ,SCT,2000,BKN,10000,,,,,MVFR,,,,,,,,,,,,METAR,6.0
LICB 200550Z AUTO 11028G47KT 9999 NCD 20/12 Q0997,LICB,2023-05-20T05:50:00Z,37.0,14.62,20.0,12.0,110,28,47,6.21,29.438976,,,TRUE,,,,,,,,CLR,,,,,,,,VFR,,,,,,,,,,,,METAR,212.0
LICA 200550Z AUTO 10013G23KT 060V130 9999 NCD 21/11 Q1009,LICA,2023-05-20T05:50:00Z,38.9,16.25,21.0,11.0,100,13,23,6.21,29.793306,,,TRUE,,,,,,,,CLR,,,,,,,,VFR,,,,,,,,,,,,METAR,7.0
LIBR 200550Z 02006KT CAVOK 18/17 Q1012,LIBR,2023-05-20T05:50:00Z,40.65,17.95,18.0,17.0,20,6,,6.21,29.88189,,,,,,,,,,,CAVOK,,,,,,,,VFR,,,,,,,,,,,,METAR,5.0
LIBP 200550Z AUTO 24004KT 9999 FEW011/// OVC045/// 15/14 Q1014,LIBP,2023-05-20T05:50:00Z,42.42,14.18,15.0,14.0,240,4,,6.21,29.940945,,,TRUE,,,,,,,,FEW,1100,OVC,4500,,,,,VFR,,,,,,,,,,,,METAR,10.0
LIBF 200550Z 32005KT 7000 FEW015 15/15 Q1012,LIBF,2023-05-20T05:50:00Z,41.42,15.53,15.0,15.0,320,5,,4.35,29.88189,,,,,,,,,,,FEW,1500,,,,,,,MVFR,,,,,,,,,,,,METAR,81.0
LIBD 200550Z 01004KT 320V040 6000 FEW010 SCT030 17/17 Q1012,LIBD,2023-05-20T05:50:00Z,41.13,16.77,17.0,17.0,10,4,,3.73,29.88189,,,,,,,,,,,FEW,1000,SCT,3000,,,,,MVFR,,,,,,,,,,,,METAR,42.0
LGZA 200550Z VRB02KT 9999 FEW020 SCT070 20/17 Q1011,LGZA,2023-05-20T05:50:00Z,37.75,20.88,20.0,17.0,0,2,,6.21,29.852362,,,,,,,,,,,FEW,2000,SCT,7000,,,,,VFR,,,,,,,,,,,,METAR,3.0
LGTS 200550Z VRB03KT 9999 FEW030 18/15 Q1017 NOSIG,LGTS,2023-05-20T05:50:00Z,40.52,22.97,18.0,15.0,0,3,,6.21,30.029528,,,,,,TRUE,,,,,FEW,3000,,,,,,,VFR,,,,,,,,,,,,METAR,4.0
LGSR 200550Z 32014KT CAVOK 21/10 Q1014 RMK OVC180 BLU,LGSR,2023-05-20T05:50:00Z,36.4,25.48,21.0,10.0,320,14,,6.21,29.940945,,,,,,,,,,,CAVOK,,,,,,,,VFR,,,,,,,,,,,,METAR,31.0
LGSO 200550Z 35012KT CAVOK 21/13 Q1014,LGSO,2023-05-20T05:50:00Z,37.42,24.95,21.0,13.0,350,12,,6.21,29.940945,,,,,,,,,,,CAVOK,,,,,,,,VFR,,,,,,,,,,,,METAR,71.0
LGSM 200550Z 01010KT CAVOK 21/12 Q1012,LGSM,2023-05-20T05:50:00Z,37.68,26.92,21.0,12.0,10,10,,6.21,29.88189,,,,,,,,,,,CAVOK,,,,,,,,VFR,,,,,,,,,,,,METAR,5.0
LGSK 200550Z 36004KT CAVOK 20/14 Q1016,LGSK,2023-05-20T05:50:00Z,39.18,23.5,20.0,14.0,360,4,,6.21,30.0,,,,,,,,,,,CAVOK,,,,,,,,VFR,,,,,,,,,,,,METAR,13.0
LGSA 200550Z 07005KT 9999 FEW020 19/11 Q1014,LGSA,2023-05-20T05:50:00Z,35.53,24.13,19.0,11.0,70,5,,6.21,29.940945,,,,,,,,,,,FEW,2000,,,,,,,VFR,,,,,,,,,,,,METAR,122.0
LGRX 200550Z 04011KT 9999 FEW080 22/11 Q1011 RMK BKN180 BLU,LGRX,2023-05-20T05:50:00Z,38.17,21.42,22.0,11.0,40,11,,6.21,29.852362,,,,,,,,,,,FEW,8000,,,,,,,VFR,,,,,,,,,,,,METAR,16.0
LGRP 200550Z 28009KT CAVOK 20/13 Q1009 NOSIG,LGRP,2023-05-20T05:50:00Z,36.4,28.08,20.0,13.0,280,9,,6.21,29.793306,,,,,,TRUE,,,,,CAVOK,,,,,,,,VFR,,,,,,,,,,,,METAR,3.0
LGPZ 200550Z 08015KT 9999 FEW025 BKN080 23/10 Q1011,LGPZ,2023-05-20T05:50:00Z,38.92,20.77,23.0,10.0,80,15,,6.21,29.852362,,,,,,,,,,,FEW,2500,BKN,8000,,,,,VFR,,,,,,,,,,,,METAR,3.0
LGPA 200550Z 36010KT CAVOK 20/14 Q1014,LGPA,2023-05-20T05:50:00Z,37.02,25.1,20.0,14.0,360,10,,6.21,29.940945,,,,,,,,,,,CAVOK,,,,,,,,VFR,,,,,,,,,,,,METAR,42.0
LGNX 200550Z /////KT 9999 FEW025 20/13 Q1014,LGNX,2023-05-20T05:50:00Z,37.08,25.37,20.0,13.0,,,,6.21,29.940945,,,,,,,,,,,FEW,2500,,,,,,,VFR,,,,,,,,,,,,SPECI,3.0
LGMT 200550Z 36004KT CAVOK 20/14 Q1015,LGMT,2023-05-20T05:50:00Z,39.05,26.6,20.0,14.0,360,4,,6.21,29.970472,,,,,,,,,,,CAVOK,,,,,,,,VFR,,,,,,,,,,,,METAR,4.0
LGMK 200550Z 36013KT CAVOK 19/12 Q1014,LGMK,2023-05-20T05:50:00Z,37.43,25.35,19.0,12.0,360,13,,6.21,29.940945,,,,,,,,,,,CAVOK,,,,,,,,VFR,,,,,,,,,,,,METAR,126.0
LGLM 200550Z 36009KT CAVOK 20/13 Q1015,LGLM,2023-05-20T05:50:00Z,39.92,25.23,20.0,13.0,360,9,,6.21,29.970472,,,,,,,,,,,CAVOK,,,,,,,,VFR,,,,,,,,,,,,METAR,4.0
LGKZ 200550Z 00000KT 9999 FEW025 16/10 Q1019,LGKZ,2023-05-20T05:50:00Z,40.28,21.83,16.0,10.0,0,0,,6.21,30.088583,,,,,,,,,,,FEW,2500,,,,,,,VFR,,,,,,,,,,,,METAR,615.0
LGKV 200550Z 00000KT 9999 FEW035 21/16 Q1016,LGKV,2023-05-20T05:50:00Z,40.92,24.62,21.0,16.0,0,0,,6.21,30.0,,,,,,,,,,,FEW,3500,,,,,,,VFR,,,,,,,,,,,,METAR,5.0
LGKR 200550Z 00000KT 9999 FEW025 19/17 Q1011 NOSIG,LGKR,2023-05-20T05:50:00Z,39.62,19.92,19.0,17.0,0,0,,6.21,29.852362,,,,,,TRUE,,,,,FEW,2500,,,,,,,VFR,,,,,,,,,,,,METAR,2.0
LGKP 200550Z 31017KT 9999 FEW018 21/16 Q1011,LGKP,2023-05-20T05:50:00Z,35.42,27.15,21.0,16.0,310,17,,6.21,29.852362,,,,,,,,,,,FEW,1800,,,,,,,VFR,,,,,,,,,,,,METAR,20.0
LGKO 200550Z 35011KT CAVOK 19/12 Q1012,LGKO,2023-05-20T05:50:00Z,36.8,27.08,19.0,12.0,350,11,,6.21,29.88189,,,,,,,,,,,CAVOK,,,,,,,,VFR,,,,,,,,,,,,METAR,130.0
LGKF 200550Z VRB04KT 9999 FEW018 SCT070 22/12 Q1010,LGKF,2023-05-20T05:50:00Z,38.12,20.5,22.0,12.0,0,4,,6.21,29.822834,,,,,,,,,,,FEW,1800,SCT,7000,,,,,VFR,,,,,,,,,,,,METAR,14.0
LGIR 200550Z 31006KT 9999 FEW020 20/12 Q1014 NOSIG,LGIR,2023-05-20T05:50:00Z,35.33,25.17,20.0,12.0,310,6,,6.21,29.940945,,,,,,TRUE,,,,,FEW,2000,,,,,,,VFR,,,,,,,,,,,,METAR,37.0
LGIO 200550Z 11003KT 9999 FEW080 19/10 Q1014,LGIO,2023-05-20T05:50:00Z,39.7,20.82,19.0,10.0,110,3,,6.21,29.940945,,,,,,,,,,,FEW,8000,,,,,,,VFR,,,,,,,,,,,,METAR,476.0
LGHI 200550Z 03010KT CAVOK 20/12 Q1013,LGHI,2023-05-20T05:50:00Z,38.33,26.13,20.0,12.0,30,10,,6.21,29.911417,,,,,,,,,,,CAVOK,,,,,,,,VFR,,,,,,,,,,,,METAR,6.0
LGEL 200550Z 34008KT CAVOK 22/09 Q1015,LGEL,2023-05-20T05:50:00Z,38.07,23.55,22.0,9.0,340,8,,6.21,29.970472,,,,,,,,,,,CAVOK,,,,,,,,VFR,,,,,,,,,,,,METAR,21.0
LGBL 200550Z 00000KT CAVOK 19/12 Q1017,LGBL,2023-05-20T05:50:00Z,39.22,22.8,19.0,12.0,0,0,,6.21,30.029528,,,,,,,,,,,CAVOK,,,,,,,,VFR,,,,,,,,,,,,METAR,13.0
LGAV 200550Z 01007KT 320V030 CAVOK 21/09 Q1016 NOSIG,LGAV,2023-05-20T05:50:00Z,37.93,23.95,21.0,9.0,10,7,,6.21,30.0,,,,,,TRUE,,,,,CAVOK,,,,,,,,VFR,,,,,,,,,,,,METAR,83.0
LGAL 200550Z 03014KT CAVOK 21/10 Q1016,LGAL,2023-05-20T05:50:00Z,40.85,25.95,21.0,10.0,30,14,,6.21,30.0,,,,,,,,,,,CAVOK,,,,,,,,VFR,,,,,,,,,,,,METAR,5.0
LGAD 200550Z VRB03KT 9999 FEW090 20/16 Q1011,LGAD,2023-05-20T05:50:00Z,37.92,21.28,20.0,16.0,0,3,,6.21,29.852362,,,,,,,,,,,FEW,9000,,,,,,,VFR,,,,,,,,,,,,METAR,8.0
LCRA 200550Z 24005KT 9999 FEW024 SCT030 21/14 Q1009 TEMPO SCT 024,LCRA,2023-05-20T05:50:00Z,34.58,32.98,21.0,14.0,240,5,,6.21,29.793306,,,,,,,,,,,FEW,2400,SCT,3000,,,,,VFR,,,,,,,,,,,,METAR,23.0
LCEN 200550Z 22003KT 150V280 9999 FEW020TCU SCT025 21/14 Q1009 NOSIG RMK RWY11 00000KT,LCEN,2023-05-20T05:50:00Z,35.15,33.5,21.0,14.0,220,3,,6.21,29.793306,,,,,,TRUE,,,,,FEW,2000,SCT,2500,,,,,VFR,,,,,,,,,,,,METAR,91.0
KXBP 200550Z AUTO 36008G15KT 10SM BKN019 19/15 A3017 RMK AO2 T01910152 10292 20191 403130191,KXBP,2023-05-20T05:50:00Z,33.18,-97.83,19.1,15.2,360,8,15,10.0,30.171259,,,TRUE,TRUE,,,,,,,BKN,1900,,,,,,,MVFR,,29.2,19.1,31.3,19.1,,,,,,,SPECI,256.0
KX26 200550Z AUTO 00000KT 10SM CLR 23/21 A3000 RMK AO2 TSNO T02310212 10268 20229,KX26,2023-05-20T05:50:00Z,27.82,-80.5,23.1,21.2,0,0,,10.0,30.0,,,TRUE,TRUE,,,TRUE,,,,CLR,,,,,,,,VFR,,26.8,22.9,,,,,,,,,SPECI,5.0
KVVS 200550Z AUTO 17005KT 10SM CLR 17/10 A3003 RMK AO2 T01730104 10216 20169,KVVS,2023-05-20T05:50:00Z,39.95,-79.65,17.3,10.4,170,5,,10.0,30.029528,,,TRUE,TRUE,,,,,,,CLR,,,,,,,,VFR,,21.6,16.9,,,,,,,,,SPECI,386.0
KVES 200550Z AUTO 00000KT 7SM -RA SCT042 BKN049 OVC055 15/15 A3000 RMK AO2 P0004,KVES,2023-05-20T05:50:00Z,40.2,-84.53,15.0,15.0,0,0,,7.0,30.0,,,TRUE,TRUE,,,,,,-RA,SCT,4200,BKN,4900,OVC,5500,,,VFR,,,,,,0.04,,,,,,SPECI,308.0
KU68 200550Z AUTO 00000KT 10SM CLR 12/00 A3019 RMK AO2,KU68,2023-05-20T05:50:00Z,44.92,-108.45,12.0,0.0,0,0,,10.0,30.188976,,,TRUE,TRUE,,,,,,,CLR,,,,,,,,VFR,,,,,,,,,,,,SPECI,1244.0
KOWP 200550Z AUTO 35003KT 7SM CLR 13/12 A3022 RMK AO2 60001 T01300120 10158 20130 402150130,KOWP,2023-05-20T05:50:00Z,36.18,-96.15,13.0,12.0,350,3,,7.0,30.221457,,,TRUE,TRUE,,,,,,,CLR,,,,,,,,VFR,,15.8,13.0,21.5,13.0,,,,,,,SPECI,267.0
KOLY 200550Z AUTO 34004KT 10SM OVC100 16/13 A3007 RMK AO2 P0001 60010 T01630131 10191 20163 PWINO,KOLY,2023-05-20T05:50:00Z,38.72,-88.18,16.3,13.1,340,4,,10.0,30.070866,,,TRUE,TRUE,,,,,TRUE,,OVC,10000,,,,,,,VFR,,19.1,16.3,,,0.01,,,,,,SPECI,144.0
KNQA 200550Z 33005KT 10SM FEW015 BKN085 OVC110 23/22 A2996,KNQA,2023-05-20T05:50:00Z,35.35,-89.87,23.0,22.0,330,5,,10.0,29.958662,,,,,,,,,,,FEW,1500,BKN,8500,OVC,11000,,,VFR,,,,,,,,,,,,METAR,90.0
KGOP 200550Z AUTO 19005KT 10SM UP FEW032 SCT050 BKN070 19/18 A3016 RMK AO2,KGOP,2023-05-20T05:50:00Z,31.42,-97.8,19.0,18.0,190,5,,10.0,30.159449,,,TRUE,TRUE,,,,,,UP,FEW,3200,SCT,5000,BKN,7000,,,VFR,,,,,,,,,,,,SPECI,272.0
KGNC 200550Z AUTO 05009KT 7SM -RA BKN015 BKN020 BKN095 17/14 A3036 RMK AO2 60011 T01650142 10267 20165 402890161,KGNC,2023-05-20T05:50:00Z,32.68,-102.65,16.5,14.2,50,9,,7.0,30.360237,,,TRUE,TRUE,,,,,,-RA,BKN,1500,BKN,2000,BKN,9500,,,MVFR,,26.7,16.5,28.9,16.1,,,,,,,SPECI,1002.0
KFSK 200550Z AUTO 27003KT 10SM CLR 10/09 A3020 RMK AO2 T00970093 10131 20093,KFSK,2023-05-20T05:50:00Z,37.8,-94.77,9.7,9.3,270,3,,10.0,30.200787,,,TRUE,TRUE,,,,,,,CLR,,,,,,,,VFR,,13.1,9.3,,,,,,,,,SPECI,276.0
KETN 200550Z AUTO 36010G18KT 10SM -DZ BKN016 OVC035 17/14 A3020 RMK AO2 T01720144 10283 20172,KETN,2023-05-20T05:50:00Z,32.42,-98.82,17.2,14.4,360,10,18,10.0,30.200787,,,TRUE,TRUE,,,,,,-DZ,BKN,1600,OVC,3500,,,,,MVFR,,28.3,17.2,,,,,,,,,SPECI,445.0
KEAN 200550Z AUTO 00000KT 10SM CLR 09/06 A3031 RMK AO2 T00900059 10179 20090,KEAN,2023-05-20T05:50:00Z,42.05,-104.93,9.0,5.9,0,0,,10.0,30.31004,,,TRUE,TRUE,,,,,,,CLR,,,,,,,,VFR,,17.9,9.0,,,,,,,,,SPECI,1452.0
KDVK 200550Z AUTO 00000KT 10SM BKN026 OVC036 18/16 A3004 RMK AO2,KDVK,2023-05-20T05:50:00Z,37.58,-84.77,18.0,16.0,0,0,,10.0,30.041338,,,TRUE,TRUE,,,,,,,BKN,2600,OVC,3600,,,,,MVFR,,,,,,,,,,,,METAR,309.0
KDED 200550Z AUTO 35004KT 10SM CLR 23/21 A3003 RMK AO2 T02250214 10255 20225,KDED,2023-05-20T05:50:00Z,29.07,-81.28,22.5,21.4,350,4,,10.0,30.029528,,,TRUE,TRUE,,,,,,,CLR,,,,,,,,VFR,,25.5,22.5,,,,,,,,,SPECI,21.0
KDAG 200550Z AUTO 27011KT 10SM CLR 28/07 A2998 RMK AO2 SLP123 T02830067 10367 20283 51029,KDAG,2023-05-20T05:50:00Z,34.85,-116.78,28.3,6.7,270,11,,10.0,29.97933,1012.3,,TRUE,TRUE,,,,,,,CLR,,,,,,,,VFR,2.9,36.7,28.3,,,,,,,,,METAR,584.0
KBMC 200550Z AUTO 00000KT 10SM CLR 19/02 A3018 RMK AO1 T01890020,KBMC,2023-05-20T05:50:00Z,41.55,-112.07,18.9,2.0,0,0,,10.0,30.180119,,,TRUE,TRUE,,,,,,,CLR,,,,,,,,VFR,,,,,,,,,,,,SPECI,1289.0
KANK 200550Z AUTO 00000KT 10SM SCT035 SCT042 OVC049 09/07 A3050 RMK AO1 T00850065,KANK,2023-05-20T05:50:00Z,38.53,-106.05,8.5,6.5,0,0,,10.0,30.499016,,,TRUE,TRUE,,,,,,,SCT,3500,SCT,4200,OVC,4900,,,VFR,,,,,,,,,,,,SPECI,2293.0
K19S 200550Z AUTO 27006KT 3SM BR CLR 11/ A3033 RMK AO2 T0106//// 10173 20103 60002,K19S,2023-05-20T05:50:00Z,37.48,-100.83,10.6,,270,6,,3.0,30.33071,,,TRUE,TRUE,,,,,,BR,CLR,,,,,,,,MVFR,,17.3,10.3,,,,,,,,,SPECI,886.0
EYVI 200550Z 11006KT 080V150 CAVOK 14/06 Q1031 NOSIG,EYVI,2023-05-20T05:50:00Z,54.63,25.28,14.0,6.0,110,6,,6.21,30.442913,,,,,,TRUE,,,,,CAVOK,,,,,,,,VFR,,,,,,,,,,,,METAR,180.0
EYSA 200550Z 08005KT 050V110 CAVOK 14/06 Q1032 NOSIG,EYSA,2023-05-20T05:50:00Z,55.9,23.4,14.0,6.0,80,5,,6.21,30.47244,,,,,,TRUE,,,,,CAVOK,,,,,,,,VFR,,,,,,,,,,,,METAR,135.0
EYPA 200550Z 08006KT 060V120 CAVOK 14/05 Q1031,EYPA,2023-05-20T05:50:00Z,55.97,21.08,14.0,5.0,80,6,,6.21,30.442913,,,,,,,,,,,CAVOK,,,,,,,,VFR,,,,,,,,,,,,METAR,15.0
EVVA 200550Z AUTO 11004KT 080V140 CAVOK 14/07 Q1032,EVVA,2023-05-20T05:50:00Z,57.35,21.55,14.0,7.0,110,4,,6.21,30.47244,,,TRUE,,,,,,,,CAVOK,,,,,,,,VFR,,,,,,,,,,,,METAR,1.0
EVLA 200550Z AUTO 09005KT CAVOK 13/06 Q1031,EVLA,2023-05-20T05:50:00Z,56.52,21.1,13.0,6.0,90,5,,6.21,30.442913,,,TRUE,,,,,,,,CAVOK,,,,,,,,VFR,,,,,,,,,,,,METAR,5.0
ESUT 200550Z AUTO VRB03KT 9999 SCT025/// OVC043/// 08/03 Q1027,ESUT,2023-05-20T05:50:00Z,65.8,15.08,8.0,3.0,0,3,,6.21,30.324802,,,TRUE,,,,,,,,SCT,2500,OVC,4300,,,,,VFR,,,,,,,,,,,,METAR,457.0
ESUP 200550Z AUTO 22007KT 190V260 9999 SCT079/// 15/// Q1024,ESUP,2023-05-20T05:50:00Z,67.25,23.07,,,220,7,,6.21,30.236221,,,TRUE,,,,,,,,SCT,7900,,,,,,,VFR,,,,,,,,,,,,METAR,164.0
ESTL 200550Z AUTO 09004KT 9999 NCD 10/05 Q1031,ESTL,2023-05-20T05:50:00Z,56.07,13.2,10.0,5.0,90,4,,6.21,30.442913,,,TRUE,,,,,,,,CLR,,,,,,,,VFR,,,,,,,,,,,,METAR,39.0
ESTA 200550Z AUTO 12005KT 9999 R14///// R32/P1500N NCD 11/02 Q1031,ESTA,2023-05-20T05:50:00Z,56.28,12.83,11.0,2.0,120,5,,6.21,30.442913,,,TRUE,,,,,,,,CLR,,,,,,,,VFR,,,,,,,,,,,,SPECI,19.0
ESSV 200550Z AUTO 11006KT 090V150 9999 FEW220/// 12/05 Q1032,ESSV,2023-05-20T05:50:00Z,57.67,18.35,12.0,5.0,110,6,,6.21,30.47244,,,TRUE,,,,,,,,FEW,22000,,,,,,,VFR,,,,,,,,,,,,METAR,38.0
ESST 200550Z AUTO VRB02KT 9999 NCD 10/07 Q1032,ESST,2023-05-20T05:50:00Z,60.15,12.98,10.0,7.0,0,2,,6.21,30.47244,,,TRUE,,,,,,,,CLR,,,,,,,,VFR,,,,,,,,,,,,METAR,110.0
ESSP 200550Z AUTO VRB02KT 9999 FEW200/// 11/05 Q1032,ESSP,2023-05-20T05:50:00Z,58.58,16.25,11.0,5.0,0,2,,6.21,30.47244,,,TRUE,,,,,,,,FEW,20000,,,,,,,VFR,,,,,,,,,,,,METAR,3.0
ESSL 200550Z AUTO VRB03KT 9999 FEW190/// 10/04 Q1032,ESSL,2023-05-20T05:50:00Z,58.4,15.67,10.0,4.0,0,3,,6.21,30.47244,,,TRUE,,,,,,,,FEW,19000,,,,,,,VFR,,,,,,,,,,,,METAR,51.0
ESSD 200550Z AUTO VRB02KT 9999 NCD 13/06 Q1031,ESSD,2023-05-20T05:50:00Z,60.42,15.5,13.0,6.0,0,2,,6.21,30.442913,,,TRUE,,,,,,,,CLR,,,,,,,,VFR,,,,,,,,,,,,METAR,151.0
ESSA 200550Z 18008KT CAVOK 11/02 Q1032 NOSIG,ESSA,2023-05-20T05:50:00Z,59.65,17.93,11.0,2.0,180,8,,6.21,30.47244,,,,,,TRUE,,,,,CAVOK,,,,,,,,VFR,,,,,,,,,,,,METAR,36.0
ESPE 200550Z AUTO 29004KT 230V320 9999 NCD 14/08 Q1025,ESPE,2023-05-20T05:50:00Z,65.88,20.15,14.0,8.0,290,4,,6.21,30.265747,,,TRUE,,,,,,,,CLR,,,,,,,,VFR,,,,,,,,,,,,METAR,182.0
ESPA 200550Z 19007KT 160V220 CAVOK 09/05 Q1026,ESPA,2023-05-20T05:50:00Z,65.53,22.12,9.0,5.0,190,7,,6.21,30.295275,,,,,,,,,,,CAVOK,,,,,,,,VFR,,,,,,,,,,,,METAR,12.0
ESOW 200550Z AUTO 17005KT 9999 NCD 12/04 Q1032,ESOW,2023-05-20T05:50:00Z,59.58,16.63,12.0,4.0,170,5,,6.21,30.47244,,,TRUE,,,,,,,,CLR,,,,,,,,VFR,,,,,,,,,,,,METAR,7.0
ESOK 200550Z AUTO VRB03KT 9999 NCD 12/08 Q1031,ESOK,2023-05-20T05:50:00Z,59.45,13.33,12.0,8.0,0,3,,6.21,30.442913,,,TRUE,,,,,,,,CLR,,,,,,,,VFR,,,,,,,,,,,,METAR,101.0
ESOH 200550Z AUTO VRB02KT 9999 NCD 11/07 Q1031,ESOH,2023-05-20T05:50:00Z,60.02,13.58,11.0,7.0,0,2,,6.21,30.442913,,,TRUE,,,,,,,,CLR,,,,,,,,VFR,,,,,,,,,,,,METAR,145.0
ESOE 200550Z AUTO VRB02KT 9999 NCD 12/06 Q1032,ESOE,2023-05-20T05:50:00Z,59.22,15.05,12.0,6.0,0,2,,6.21,30.47244,,,TRUE,,,,,,,,CLR,,,,,,,,VFR,,,,,,,,,,,,METAR,57.0
ESNZ 200550Z AUTO 25005KT 9999 NCD 09/M05 Q1029,ESNZ,2023-05-20T05:50:00Z,63.18,14.5,9.0,-5.0,250,5,,6.21,30.383858,,,TRUE,,,,,,,,CLR,,,,,,,,VFR,,,,,,,,,,,,METAR,360.0
ESNX 200550Z AUTO 31004KT 280V350 9999 NCD 13/05 Q1026,ESNX,2023-05-20T05:50:00Z,65.58,19.28,13.0,5.0,310,4,,6.21,30.295275,,,TRUE,,,,,,,,CLR,,,,,,,,VFR,,,,,,,,,,,,METAR,380.0
ESNV 200550Z AUTO 28006KT 250V310 9999 NCD 11/05 Q1028,ESNV,2023-05-20T05:50:00Z,64.58,16.83,11.0,5.0,280,6,,6.21,30.35433,,,TRUE,,,,,,,,CLR,,,,,,,,VFR,,,,,,,,,,,,METAR,348.0
ESNU 200550Z VRB02KT CAVOK 10/06 Q1028,ESNU,2023-05-20T05:50:00Z,63.78,20.28,10.0,6.0,0,2,,6.21,30.35433,,,,,,,,,,,CAVOK,,,,,,,,VFR,,,,,,,,,,,,METAR,8.0
ESNS 200550Z 19006KT 160V230 CAVOK 13/04 Q1027,ESNS,2023-05-20T05:50:00Z,64.62,21.07,13.0,4.0,190,6,,6.21,30.324802,,,,,,,,,,,CAVOK,,,,,,,,VFR,,,,,,,,,,,,METAR,41.0
ESNQ 200550Z AUTO 25017KT 9999 FEW033/// 11/01 Q1022,ESNQ,2023-05-20T05:50:00Z,67.82,20.33,11.0,1.0,250,17,,6.21,30.177166,,,TRUE,,,,,,,,FEW,3300,,,,,,,VFR,,,,,,,,,,,,METAR,447.0
ESNO 200550Z AUTO VRB03KT 9999 FEW076/// 12/06 Q1027,ESNO,2023-05-20T05:50:00Z,63.4,18.97,12.0,6.0,0,3,,6.21,30.324802,,,TRUE,,,,,,,,FEW,7600,,,,,,,VFR,,,,,,,,,,,,METAR,100.0
ESNN 200550Z AUTO VRB03KT 9999 NCD 12/05 Q1029,ESNN,2023-05-20T05:50:00Z,62.52,17.43,12.0,5.0,0,3,,6.21,30.383858,,,TRUE,,,,,,,,CLR,,,,,,,,VFR,,,,,,,,,,,,METAR,4.0
ESNL 200550Z AUTO 34004KT 300V030 9999 NCD 14/05 Q1027,ESNL,2023-05-20T05:50:00Z,64.55,18.72,14.0,5.0,340,4,,6.21,30.324802,,,TRUE,,,,,,,,CLR,,,,,,,,VFR,,,,,,,,,,,,METAR,220.0
ESNK 200550Z AUTO 01005KT 9999 NCD 09/05 Q1029,ESNK,2023-05-20T05:50:00Z,63.03,17.77,9.0,5.0,10,5,,6.21,30.383858,,,TRUE,,,,,,,,CLR,,,,,,,,VFR,,,,,,,,,,,,METAR,4.0
ESNG 200550Z AUTO 21008KT 190V250 9999 NCD ///// Q1023,ESNG,2023-05-20T05:50:00Z,67.13,20.82,,,210,8,,6.21,30.206694,,,TRUE,,,,,,,,CLR,,,,,,,,VFR,,,,,,,,,,,,SPECI,300.0
ESND 200550Z AUTO VRB01KT 9999 NCD 12/05 Q1030,ESND,2023-05-20T05:50:00Z,62.05,14.42,12.0,5.0,0,1,,6.21,30.413385,,,TRUE,,,,,,,,CLR,,,,,,,,VFR,,,,,,,,,,,,METAR,352.0
ESMX 200550Z AUTO 17002KT 9999 FEW160/// 11/02 Q1031,ESMX,2023-05-20T05:50:00Z,56.92,14.72,11.0,2.0,170,2,,6.21,30.442913,,,TRUE,,,,,,,,FEW,16000,,,,,,,VFR,,,,,,,,,,,,METAR,176.0
ESMT 200550Z AUTO 12004KT 090V160 9999 NCD 10/04 Q1031,ESMT,2023-05-20T05:50:00Z,56.68,12.82,10.0,4.0,120,4,,6.21,30.442913,,,TRUE,,,,,,,,CLR,,,,,,,,VFR,,,,,,,,,,,,METAR,24.0
ESMQ 200550Z AUTO VRB03KT 9999 NCD 10/06 Q1032,ESMQ,2023-05-20T05:50:00Z,56.68,16.3,10.0,6.0,0,3,,6.21,30.47244,,,TRUE,,,,,,,,CLR,,,,,,,,VFR,,,,,,,,,,,,METAR,3.0
ESMK 200550Z AUTO /////KT 9999 NCD 10/06 Q1031,ESMK,2023-05-20T05:50:00Z,55.92,14.08,10.0,6.0,,,,6.21,30.442913,,,TRUE,,,,,,,,CLR,,,,,,,,VFR,,,,,,,,,,,,METAR,20.0
ESKS 200550Z AUTO 21003KT 170V250 9999 NCD 09/06 Q1030,ESKS,2023-05-20T05:50:00Z,61.17,12.83,9.0,6.0,210,3,,6.21,30.413385,,,TRUE,,,,,,,,CLR,,,,,,,,VFR,,,,,,,,,,,,METAR,503.0
ESKN 200550Z 14005KT CAVOK 12/05 Q1032,ESKN,2023-05-20T05:50:00Z,58.78,16.92,12.0,5.0,140,5,,6.21,30.47244,,,,,,,,,,,CAVOK,,,,,,,,VFR,,,,,,,,,,,,METAR,41.0
ESKM 200550Z AUTO 00000KT 9999 NCD 12/06 Q1030,ESKM,2023-05-20T05:50:00Z,60.97,14.52,12.0,6.0,0,0,,6.21,30.413385,,,TRUE,,,,,,,,CLR,,,,,,,,VFR,,,,,,,,,,,,METAR,184.0
ESIB 200550Z AUTO 36002KT 9999 NCD 13/10 Q1031,ESIB,2023-05-20T05:50:00Z,58.42,12.7,13.0,10.0,360,2,,6.21,30.442913,,,TRUE,,,,,,,,CLR,,,,,,,,VFR,,,,,,,,,,,,METAR,51.0
ESIA 200550Z AUTO 08004KT 040V110 9999 NCD 11/07 Q1032,ESIA,2023-05-20T05:50:00Z,58.52,14.5,11.0,7.0,80,4,,6.21,30.47244,,,TRUE,,,,,,,,CLR,,,,,,,,VFR,,,,,,,,,,,,METAR,94.0
ESGT 200550Z AUTO 00000KT 9999 R15///// R33///// NCD 11/08 Q1032,ESGT,2023-05-20T05:50:00Z,58.32,12.33,11.0,8.0,0,0,,6.21,30.47244,,,TRUE,,,,,,,,CLR,,,,,,,,VFR,,,,,,,,,,,,SPECI,40.0
ESGP 200550Z 36003KT CAVOK 11/08 Q1031,ESGP,2023-05-20T05:50:00Z,57.77,11.87,11.0,8.0,360,3,,6.21,30.442913,,,,,,,,,,,CAVOK,,,,,,,,VFR,,,,,,,,,,,,METAR,15.0
ESGJ 200550Z AUTO 17004KT 9999 NCD 10/05 Q1031,ESGJ,2023-05-20T05:50:00Z,57.77,14.07,10.0,5.0,170,4,,6.21,30.442913,,,TRUE,,,,,,,,CLR,,,,,,,,VFR,,,,,,,,,,,,METAR,224.0
ESGG 200550Z 04006KT CAVOK 11/07 Q1031,ESGG,2023-05-20T05:50:00Z,57.67,12.3,11.0,7.0,40,6,,6.21,30.442913,,,,,,,,,,,CAVOK,,,,,,,,VFR,,,,,,,,,,,,METAR,152.0
ESDF 200550Z AUTO 04003KT 010V090 9999 OVC110/// 08/06 Q1032,ESDF,2023-05-20T05:50:00Z,56.27,15.27,8.0,6.0,40,3,,6.21,30.47244,,,TRUE,,,,,,,,OVC,11000,,,,,,,VFR,,,,,,,,,,,,METAR,52.0
ESCM 200550Z AUTO 21006KT 9999 NCD 11/05 Q1032,ESCM,2023-05-20T05:50:00Z,59.88,17.6,11.0,5.0,210,6,,6.21,30.47244,,,TRUE,,,,,,,,CLR,,,,,,,,VFR,,,,,,,,,,,,METAR,21.0
ESCF 200550Z AUTO VRB02KT 9999 NCD 09/06 Q1032,ESCF,2023-05-20T05:50:00Z,58.38,15.52,9.0,6.0,0,2,,6.21,30.47244,,,TRUE,,,,,,,,CLR,,,,,,,,VFR,,,,,,,,,,,,METAR,86.0
ENZV 200550Z 13006KT 9999 BKN008 09/07 Q1031,ENZV,2023-05-20T05:50:00Z,58.88,5.63,9.0,7.0,130,6,,6.21,30.442913,,,,,,,,,,,BKN,800,,,,,,,IFR,,,,,,,,,,,,METAR,7.0
ENWV 200550Z AUTO 09007KT 9999NDV NCD 10/08 Q1031 W///S2,ENWV,2023-05-20T05:50:00Z,56.28,3.4,10.0,8.0,90,7,,,30.442913,,,TRUE,,,,,,,,CLR,,,,,,,,,,,,,,,,,,,,METAR,30.0
ENVR 200550Z 19023KT 9999 VCSH BKN008 OVC028 08/06 Q1022,ENVR,2023-05-20T05:50:00Z,67.65,12.72,8.0,6.0,190,23,,6.21,30.177166,,,,,,,,,,VCSH,BKN,800,OVC,2800,,,,,IFR,,,,,,,,,,,,METAR,4.0
ENVD 200550Z AUTO VRB02KT 9999 SCT078/// 10/05 Q1019,ENVD,2023-05-20T05:50:00Z,70.07,29.85,10.0,5.0,0,2,,6.21,30.088583,,,TRUE,,,,,,,,SCT,7800,,,,,,,VFR,,,,,,,,,,,,METAR,39.0
ENVA 200550Z VRB02KT CAVOK 13/08 Q1029 NOSIG RMK WIND 670FT VRB03KT,ENVA,2023-05-20T05:50:00Z,63.47,10.92,13.0,8.0,0,2,,6.21,30.383858,,,,,,TRUE,,,,,CAVOK,,,,,,,,VFR,,,,,,,,,,,,METAR,12.0
ENUN 200550Z AUTO 20036KT 8000NDV OVC004/// 09/08 Q1016 W08/S5,ENUN,2023-05-20T05:50:00Z,,,9.0,8.0,200,36,,,30.0,,,TRUE,,,,,,,,OVC,400,,,,,,,,,,,,,,,,,,,METAR,
ENUG 200550Z AUTO 22033KT 8000NDV RA OVC028/// 07/05 Q1014 W///S5,ENUG,2023-05-20T05:50:00Z,71.3,22.25,7.0,5.0,220,33,,,29.940945,,,TRUE,,,,,,,RA,OVC,2800,,,,,,,,,,,,,,,,,,,METAR,30.0
ENTO 200550Z VRB02KT 5000 BR OVC003 09/09 Q1032 TEMPO OVC005,ENTO,2023-05-20T05:50:00Z,59.2,10.27,9.0,9.0,0,2,,3.11,30.47244,,,,,,,,,,BR,OVC,300,,,,,,,LIFR,,,,,,,,,,,,METAR,84.0
ENTC 200550Z 23028KT 9999 BKN043 09/03 Q1019 NOSIG RMK WIND 2600FT 20046G59KT,ENTC,2023-05-20T05:50:00Z,69.68,18.92,9.0,3.0,230,28,,6.21,30.088583,,,,,,TRUE,,,,,BKN,4300,,,,,,,VFR,,,4.6,,,,,,,,,METAR,9.0
ENSS 200550Z AUTO 23008KT 9999 BKN072/// 10/08 Q1019 RMK WIND 0500FT 23012KT,ENSS,2023-05-20T05:50:00Z,70.35,31.05,10.0,8.0,230,8,,6.21,30.088583,,,TRUE,,,,,,,,BKN,7200,,,,,,,VFR,,,,,,,,,,,,SPECI,13.0
ENSR 200550Z AUTO VRB03KT 9999 SCT096/// OVC110/// 12/02 Q1018 RMK WIND RWY32 21006KT WIND 1118FT 23015KT,ENSR,2023-05-20T05:50:00Z,69.78,20.97,12.0,2.0,0,3,,6.21,30.059055,,,TRUE,,,,,,,,SCT,9600,OVC,11000,,,,,VFR,,,-0.6,,,,,,,,,METAR,5.0
ENSL 200550Z AUTO 13011KT 0150NDV -RA BCFG NCD 07/07 Q1030 W06/S3,ENSL,2023-05-20T05:50:00Z,58.37,1.9,7.0,7.0,130,11,,,30.413385,,,TRUE,,,,,,,BCFG -RA,CLR,,,,,,,,,,,,,,,,,,,,METAR,50.0
ENSK 200550Z AUTO 20016KT 9999 OVC030/// 08/05 Q1020,ENSK,2023-05-20T05:50:00Z,68.57,15.02,8.0,5.0,200,16,,6.21,30.11811,,,TRUE,,,,,,,,OVC,3000,,,,,,,MVFR,,,,,,,,,,,,METAR,3.0
ENSH 200550Z AUTO 20025KT 9999 SCT011/// BKN016/// 07/06 Q1022 REDZ RMK WIND 0150FT 19019KT,ENSH,2023-05-20T05:50:00Z,68.25,14.67,7.0,6.0,200,25,,6.21,30.177166,,,TRUE,,,,,,,,SCT,1100,BKN,1600,,,,,MVFR,,,,,,,,,,,,METAR,9.0
ENSG 200550Z VRB02KT 9999 FEW030 BKN044 08/06 Q1030 RMK WIND 3806FT 19010KT,ENSG,2023-05-20T05:50:00Z,61.15,7.13,8.0,6.0,0,2,,6.21,30.413385,,,,,,,,,,,FEW,3000,BKN,4400,,,,,VFR,,,,,,,,,,,,METAR,493.0
ENSF 200550Z AUTO 19026KT 9999NDV BKN120/// ///// Q//// W///S4,ENSF,2023-05-20T05:50:00Z,61.25,1.85,,,190,26,,,,,,TRUE,,,,,,,,BKN,12000,,,,,,,,,,,,,,,,,,,METAR,15.0
ENSE 200550Z AUTO 20025KT //// BKN039/// OVC130/// 10/08 Q1027 W///S4,ENSE,2023-05-20T05:50:00Z,61.45,2.15,10.0,8.0,200,25,,,30.324802,,,TRUE,,,,,,,,BKN,3900,OVC,13000,,,,,,,,,,,,,,,,,METAR,10.0
ENSD 200550Z AUTO VRB02KT 9999 BKN036/// OVC047/// 11/09 Q1030 RMK WIND RWY26 08004KT WIND 1140FT VRB04KT,ENSD,2023-05-20T05:50:00Z,61.82,6.12,11.0,9.0,0,2,,6.21,30.413385,,,TRUE,,,,,,,,BKN,3600,OVC,4700,,,,,VFR,,,,,,,,,,,,METAR,61.0
ENSB 200550Z 16008KT 9999 BKN031 01/M06 Q1002 RMK WIND 1400FT 13011KT,ENSB,2023-05-20T05:50:00Z,78.25,15.47,1.0,-6.0,160,8,,6.21,29.586615,,,,,,,,,,,BKN,3100,,,,,,,VFR,,,,,,,,,,,,METAR,30.0
ENRY 200550Z AUTO VRB03KT 9999 OVC006/// 10/08 Q1032,ENRY,2023-05-20T05:50:00Z,59.37,10.77,10.0,8.0,0,3,,6.21,30.47244,,,TRUE,,,,,,,,OVC,600,,,,,,,IFR,,,,,,,,,,,,METAR,45.0
ENRS 200550Z AUTO 21019KT 7000 OVC007/// 08/07 Q1021,ENRS,2023-05-20T05:50:00Z,67.52,12.1,8.0,7.0,210,19,,4.35,30.147638,,,TRUE,,,,,,,,OVC,700,,,,,,,IFR,,,,,,,,,,,,METAR,4.0
ENRO 200550Z AUTO 00000KT 9999 OVC002/// 04/04 Q1029,ENRO,2023-05-20T05:50:00Z,62.57,11.33,4.0,4.0,0,0,,6.21,30.383858,,,TRUE,,,,,,,,OVC,200,,,,,,,LIFR,,,,,,,,,,,,METAR,624.0
ENRM 200550Z AUTO 21010KT 9999 FEW021/// 10/08 Q1028,ENRM,2023-05-20T05:50:00Z,64.83,11.13,10.0,8.0,210,10,,6.21,30.35433,,,TRUE,,,,,,,,FEW,2100,,,,,,,VFR,,,,,,,,,,,,METAR,4.0
ENRA 200550Z AUTO VRB02KT 9999 -RA SCT036/// OVC046/// 07/07 Q1027,ENRA,2023-05-20T05:50:00Z,66.37,14.3,7.0,7.0,0,2,,6.21,30.324802,,,TRUE,,,,,,,-RA,SCT,3600,OVC,4600,,,,,VFR,,,,,,,,,,,,METAR,66.0
ENQR 200550Z AUTO 17023KT 9000NDV OVC039/// 09/08 Q1027 W08/S4,ENQR,2023-05-20T05:50:00Z,61.52,2.22,9.0,8.0,170,23,,,30.324802,,,TRUE,,,,,,,,OVC,3900,,,,,,,,,,,,,,,,,,,METAR,10.0
ENQC 200550Z AUTO 15017KT 0300NDV FG NCD 07/07 Q1029 W///S3,ENQC,2023-05-20T05:50:00Z,60.88,3.62,7.0,7.0,150,17,,,30.383858,,,TRUE,,,,,,,FG,CLR,,,,,,,,,,,,,,,,,,,,METAR,20.0
ENQA 200550Z AUTO 17016KT 0050NDV -SHRA NCD 07/07 Q1030 W10/S3,ENQA,2023-05-20T05:50:00Z,60.65,3.72,7.0,7.0,170,16,,,30.413385,,,TRUE,,,,,,,-SHRA,CLR,,,,,,,,,,,,,,,,,,,,METAR,90.0
ENOV 200550Z AUTO VRB05KT 9999 FEW032/// BKN043/// 13/06 Q1029 RMK WIND RWY24 06008KT WIND 2090FT 15016KT,ENOV,2023-05-20T05:50:00Z,62.17,6.07,13.0,6.0,0,5,,6.21,30.383858,,,TRUE,,,,,,,,FEW,3200,BKN,4300,,,,,VFR,,,,,,,,,,,,METAR,72.0
ENOL 200550Z 18003KT 140V250 9999 SCT030 12/08 Q1029 NOSIG,ENOL,2023-05-20T05:50:00Z,63.7,9.6,12.0,8.0,180,3,,6.21,30.383858,,,,,,TRUE,,,,,SCT,3000,,,,,,,VFR,,,,,,,,,,,,METAR,9.0
ENOA 200550Z 18019KT 9999 NSC 09/08 Q1029 W///S4,ENOA,2023-05-20T05:50:00Z,60.5,2.83,9.0,8.0,180,19,,6.21,30.383858,,,,,,,,,,,CLR,,,,,,,,VFR,,,,,,,,,,,,METAR,5.0
ENNM 200550Z AUTO 08003KT 040V190 9999 FEW024/// OVC055/// 10/08 Q1029,ENNM,2023-05-20T05:50:00Z,64.47,11.57,10.0,8.0,80,3,,6.21,30.383858,,,TRUE,,,,,,,,FEW,2400,OVC,5500,,,,,VFR,,,,,,,,,,,,METAR,2.0
ENNE 200550Z 21035KT 7000 VCFG BKN010 08/07 Q1021 W///S5,ENNE,2023-05-20T05:50:00Z,66.03,8.08,8.0,7.0,210,35,,4.35,30.147638,,,,,,,,,,VCFG,BKN,1000,,,,,,,MVFR,,,,,,,,,,,,METAR,10.0
ENNA 200550Z AUTO 20012KT 9999 OVC082/// 11/03 Q1019 RMK WIND 1800FT 26027KT,ENNA,2023-05-20T05:50:00Z,70.07,24.97,11.0,3.0,200,12,,6.21,30.088583,,,TRUE,,,,,,,,OVC,8200,,,,,,,VFR,,,,,,,,,,,,METAR,12.0
ENMS 200550Z AUTO 19006KT 160V210 9999 BKN037/// OVC051/// 10/05 Q1027 RMK WIND 412FT 15006KT,ENMS,2023-05-20T05:50:00Z,65.78,13.22,10.0,5.0,190,6,,6.21,30.324802,,,TRUE,,,,,,,,BKN,3700,OVC,5100,,,,,VFR,,,,,,,,,,,,METAR,44.0
ENML 200550Z 08007KT CAVOK 10/07 Q1029,ENML,2023-05-20T05:50:00Z,62.75,7.27,10.0,7.0,80,7,,6.21,30.383858,,,,,,,,,,,CAVOK,,,,,,,,VFR,,,,,,,,,,,,METAR,3.0
ENMH 200550Z AUTO 18011KT 9999 FEW051/// SCT096/// 07/05 Q1018,ENMH,2023-05-20T05:50:00Z,71.02,27.82,7.0,5.0,180,11,,6.21,30.059055,,,TRUE,,,,,,,,FEW,5100,SCT,9600,,,,,VFR,,,,,,,,,,,,METAR,10.0
ENLE 200550Z 10005KT 0800 FG NSC 09/08 Q1031 W09/S3,ENLE,2023-05-20T05:50:00Z,56.53,3.22,9.0,8.0,100,5,,0.5,30.442913,,,,,,,,,,FG,CLR,,,,,,,,LIFR,,,,,,,,,,,,METAR,10.0
ENLA 200550Z AUTO 14005KT 0050NDV FG NCD 07/07 Q1031 W///S3,ENLA,2023-05-20T05:50:00Z,57.1,2.83,7.0,7.0,140,5,,,30.442913,,,TRUE,,,,,,,FG,CLR,,,,,,,,,,,,,,,,,,,,METAR,10.0
ENKR 200550Z AUTO 23013KT 9999 BKN120/// 14/05 Q1020 RMK WIND 731FT 23021KT,ENKR,2023-05-20T05:50:00Z,69.72,29.88,14.0,5.0,230,13,,6.21,30.11811,,,TRUE,,,,,,,,BKN,12000,,,,,,,VFR,,,,,,,,,,,,METAR,86.0
ENKB 200550Z AUTO 10004KT 050V150 9999 R07///// R25/P2000N NCD 11/07 Q1028 RMK WIND 745FT 12006KT,ENKB,2023-05-20T05:50:00Z,63.12,7.82,11.0,7.0,100,4,,6.21,30.35433,,,TRUE,,,,,,,,CLR,,,,,,,,VFR,,,,,,,,,,,,METAR,62.0
ENJS 200550Z 19011KT 0100 FG BKN002 07/07 Q1031 W08/S/,ENJS,2023-05-20T05:50:00Z,,,7.0,7.0,190,11,,0.06,30.442913,,,,,,,,,,FG,BKN,200,,,,,,,LIFR,,,,,,,,,,,,METAR,
ENHV 200550Z AUTO 20008KT 9999 OVC074/// 08/04 Q1017,ENHV,2023-05-20T05:50:00Z,71.02,25.97,8.0,4.0,200,8,,6.21,30.029528,,,TRUE,,,,,,,,OVC,7400,,,,,,,VFR,,,,,,,,,,,,METAR,13.0
ENHM 200550Z AUTO 18016KT //// FEW230/// 09/09 Q1029 W09/S/,ENHM,2023-05-20T05:50:00Z,59.57,2.23,9.0,9.0,180,16,,,30.383858,,,TRUE,,,,,,,,FEW,23000,,,,,,,,,,,,,,,,,,,METAR,10.0
ENHK 200550Z AUTO 20003KT 130V230 9999 -RA SCT048/// 09/04 Q1017,ENHK,2023-05-20T05:50:00Z,70.48,22.13,9.0,4.0,200,3,,6.21,30.029528,,,TRUE,,,,,,,-RA,SCT,4800,,,,,,,VFR,,,,,,,,,,,,METAR,6.0
ENHF 200550Z AUTO 23006KT 190V270 9999 -RA FEW080/// 09/04 Q1016 RERA RMK WIND 1254FT 20014KT,ENHF,2023-05-20T05:50:00Z,70.67,23.67,9.0,4.0,230,6,,6.21,30.0,,,TRUE,,,,,,,-RA,FEW,8000,,,,,,,VFR,,,1.4,,,,,,,,,METAR,79.0
ENHE 200550Z 21034KT 6000 BKN008 OVC035 08/07 Q1022 W///S5,ENHE,2023-05-20T05:50:00Z,65.33,2.33,8.0,7.0,210,34,,3.73,30.177166,,,,,,,,,,,BKN,800,OVC,3500,,,,,IFR,,,,,,,,,,,,SPECI,10.0
ENHD 200550Z AUTO 14006KT 8000 OVC003/// 09/08 Q1031,ENHD,2023-05-20T05:50:00Z,59.35,5.22,9.0,8.0,140,6,,4.97,30.442913,,,TRUE,,,,,,,,OVC,300,,,,,,,LIFR,,,,,,,,,,,,METAR,22.0
ENGM 200550Z 20005KT 0300 R19R/0400U R01R/0375N R19L/0500N R01L/0375N FG VV002 07/07 Q1031 TEMPO 0800 FG,ENGM,2023-05-20T05:50:00Z,60.2,11.07,7.0,7.0,200,5,,0.19,30.442913,,,,,,,,,,FG,OVX,0,,,,,,,LIFR,,,,,,,,,,,200,METAR,204.0
ENGC 200550Z 20022KT 9999 FEW035 SCT150 09/08 Q1028 W08/S4,ENGC,2023-05-20T05:50:00Z,61.02,2.02,9.0,8.0,200,22,,6.21,30.35433,,,,,,,,,,,FEW,3500,SCT,15000,,,,,VFR,,,,,,,,,,,,METAR,10.0
ENFL 200550Z 16009KT 9999 VCSH FEW005 BKN017 10/08 Q1030,ENFL,2023-05-20T05:50:00Z,61.57,5.02,10.0,8.0,160,9,,6.21,30.413385,,,,,,,,,,VCSH,FEW,500,BKN,1700,,,,,MVFR,,,,,,,,,,,,METAR,1.0
ENFB 200550Z AUTO 19027KT 9999NDV FEW130/// 09/08 Q1027 W///S4,ENFB,2023-05-20T05:50:00Z,61.2,1.83,9.0,8.0,190,27,,,30.324802,,,TRUE,,,,,,,,FEW,13000,,,,,,,,,,,,,,,,,,,METAR,10.0
ENEV 200550Z 25010G22KT 180V300 9999 BKN039 09/05 Q1022 RMK WIND 1400FT 23027G44KT,ENEV,2023-05-20T05:50:00Z,68.48,16.67,9.0,5.0,250,10,22,6.21,30.177166,,,,,,,,,,,BKN,3900,,,,,,,VFR,,,,,,,,,,,,METAR,26.0
ENDU 200550Z 23007KT 160V290 9999 SCT045 BKN070 10/02 Q1020 NOSIG RMK WIND 1100FT 21022KT WIND 2200FT 21021KT,ENDU,2023-05-20T05:50:00Z,69.05,18.55,10.0,2.0,230,7,,6.21,30.11811,,,,,,TRUE,,,,,SCT,4500,BKN,7000,,,,,VFR,,,-2.2,,,,,,,,,METAR,65.0
ENDR 200550Z AUTO 21028KT 9999NDV FEW065/// BKN084/// 08/07 Q1026 W///S5,ENDR,2023-05-20T05:50:00Z,64.35,7.77,8.0,7.0,210,28,,,30.295275,,,TRUE,,,,,,,,FEW,6500,BKN,8400,,,,,,,,,,,,,,,,,SPECI,10.0
ENCN 200550Z 10003KT CAVOK 10/07 Q1031,ENCN,2023-05-20T05:50:00Z,58.2,8.07,10.0,7.0,100,3,,6.21,30.442913,,,,,,,,,,,CAVOK,,,,,,,,VFR,,,,,,,,,,,,METAR,17.0
ENBV 200550Z AUTO 24015KT 9999 -RA 09/06 Q1019,ENBV,2023-05-20T05:50:00Z,70.87,29.02,9.0,6.0,240,15,,6.21,30.088583,,,TRUE,,,,,,,-RA,,,,,,,,,,,,,,,,,,,,,METAR,13.0
ENBS 200550Z AUTO 19012KT 9999 FEW053/// OVC074/// 08/05 Q1019,ENBS,2023-05-20T05:50:00Z,70.62,29.68,8.0,5.0,190,12,,6.21,30.088583,,,TRUE,,,,,,,,FEW,5300,OVC,7400,,,,,VFR,,,,,,,,,,,,METAR,144.0
ENBR 200550Z 17008KT 9999 FEW005 BKN009 09/09 Q1031 BECMG BKN012 RMK WIND 1200FT 16010KT,ENBR,2023-05-20T05:50:00Z,60.28,5.22,9.0,9.0,170,8,,6.21,30.442913,,,,,,,,,,,FEW,500,BKN,900,,,,,IFR,,,,,,,,,,,,METAR,49.0
ENBO 200550Z 21014KT 9999 OVC047 10/04 Q1024 NOSIG,ENBO,2023-05-20T05:50:00Z,67.27,14.37,10.0,4.0,210,14,,6.21,30.236221,,,,,,TRUE,,,,,OVC,4700,,,,,,,VFR,,,,,,,,,,,,METAR,13.0
ENBN 200550Z AUTO 20013KT 9999NDV OVC023/// 10/08 Q1028,ENBN,2023-05-20T05:50:00Z,65.47,12.22,10.0,8.0,200,13,,,30.35433,,,TRUE,,,,,,,,OVC,2300,,,,,,,,,,,,,,,,,,,METAR,3.0
ENBL 200550Z AUTO VRB02KT 9999 BKN011/// OVC016/// 08/08 Q1030,ENBL,2023-05-20T05:50:00Z,61.4,5.77,8.0,8.0,0,2,,6.21,30.413385,,,TRUE,,,,,,,,BKN,1100,OVC,1600,,,,,MVFR,,,,,,,,,,,,METAR,313.0
ENAT 200550Z AUTO 19004KT 150V230 9999 SCT070/// BKN098/// 11/03 Q1018 RMK WIND 700FT 19010KT,ENAT,2023-05-20T05:50:00Z,69.97,23.37,11.0,3.0,190,4,,6.21,30.059055,,,TRUE,,,,,,,,SCT,7000,BKN,9800,,,,,VFR,,,,,,,,,,,,METAR,3.0
ENAN 200550Z AUTO 20015KT 9999 SCT030/// OVC041/// 09/05 Q1018,ENAN,2023-05-20T05:50:00Z,69.3,16.13,9.0,5.0,200,15,,6.21,30.059055,,,TRUE,,,,,,,,SCT,3000,OVC,4100,,,,,VFR,,,,,,,,,,,,METAR,13.0
ENAL 200550Z 23010KT 9999 NSC 12/07 Q1028,ENAL,2023-05-20T05:50:00Z,62.57,6.12,12.0,7.0,230,10,,6.21,30.35433,,,,,,,,,,,CLR,,,,,,,,VFR,,,,,,,,,,,,METAR,21.0
ELLX 200550Z 04013KT CAVOK 12/06 Q1019 NOSIG,ELLX,2023-05-20T05:50:00Z,49.63,6.2,12.0,6.0,40,13,,6.21,30.088583,,,,,,TRUE,,,,,CAVOK,,,,,,,,VFR,,,,,,,,,,,,METAR,374.0
EKYT 200550Z AUTO 01001KT 9999 NCD 12/07 Q1031,EKYT,2023-05-20T05:50:00Z,57.1,9.87,12.0,7.0,10,1,,6.21,30.442913,,,TRUE,,,,,,,,CLR,,,,,,,,VFR,,,,,,,,,,,,METAR,2.0
EKVD 200550Z AUTO 03004KT 340V080 //// ///////// 11/09 Q1030,EKVD,2023-05-20T05:50:00Z,55.43,9.32,11.0,9.0,30,4,,,30.413385,,,TRUE,,,,,,,,,,,,,,,,,,,,,,,,,,,,METAR,41.0
EKSP 200550Z 02002KT CAVOK 10/08 Q1030 RMK FEW120 SCT230,EKSP,2023-05-20T05:50:00Z,55.22,9.27,10.0,8.0,20,2,,6.21,30.413385,,,,,,,,,,,CAVOK,,,,,,,,VFR,,,,,,,,,,,,METAR,40.0
EKSB 200550Z AUTO 04007KT 9999 NCD 12/06 Q1029,EKSB,2023-05-20T05:50:00Z,54.97,9.8,12.0,6.0,40,7,,6.21,30.383858,,,TRUE,,,,,,,,CLR,,,,,,,,VFR,,,,,,,,,,,,METAR,23.0
EKRS 200550Z AUTO 10005KT 010V190 9999 NCD 11/11 Q1030,EKRS,2023-05-20T05:50:00Z,55.42,11.8,11.0,11.0,100,5,,6.21,30.413385,,,TRUE,,,,,,,,CLR,,,,,,,,VFR,,,,,,,,,,,,METAR,34.0
EKRN 200550Z AUTO 07008KT 9999 OVC068/// 12/03 Q1030,EKRN,2023-05-20T05:50:00Z,55.07,14.75,12.0,3.0,70,8,,6.21,30.413385,,,TRUE,,,,,,,,OVC,6800,,,,,,,VFR,,,,,,,,,,,,METAR,14.0
EKRK 200550Z AUTO 10003KT 9999 NCD 11/06 Q1030,EKRK,2023-05-20T05:50:00Z,55.58,12.13,11.0,6.0,100,3,,6.21,30.413385,,,TRUE,,,,,,,,CLR,,,,,,,,VFR,,,,,,,,,,,,METAR,40.0
EKOD 200550Z 04006KT 010V080 CAVOK 12/08 Q1030,EKOD,2023-05-20T05:50:00Z,55.47,10.32,12.0,8.0,40,6,,6.21,30.413385,,,,,,,,,,,CAVOK,,,,,,,,VFR,,,,,,,,,,,,METAR,13.0
EKKA 200550Z AUTO 06003KT 9999 NCD 10/05 Q1031,EKKA,2023-05-20T05:50:00Z,56.3,9.12,10.0,5.0,60,3,,6.21,30.442913,,,TRUE,,,,,,,,CLR,,,,,,,,VFR,,,,,,,,,,,,METAR,50.0
EKEB 200550Z AUTO 04005KT 9999 NCD 09/07 Q1030,EKEB,2023-05-20T05:50:00Z,55.52,8.55,9.0,7.0,40,5,,6.21,30.413385,,,TRUE,,,,,,,,CLR,,,,,,,,VFR,,,,,,,,,,,,METAR,29.0
EKCH 200550Z AUTO 06001KT 9999 NCD 12/06 Q1030 NOSIG,EKCH,2023-05-20T05:50:00Z,55.62,12.67,12.0,6.0,60,1,,6.21,30.413385,,,TRUE,,,TRUE,,,,,CLR,,,,,,,,VFR,,,,,,,,,,,,METAR,4.0
EKBI 200550Z AUTO 05001KT 9999 NCD 12/07 Q1031,EKBI,2023-05-20T05:50:00Z,55.73,9.15,12.0,7.0,50,1,,6.21,30.442913,,,TRUE,,,,,,,,CLR,,,,,,,,VFR,,,,,,,,,,,,METAR,67.0
EKAH 200550Z AUTO 33002KT 9999 NCD 10/08 Q1031,EKAH,2023-05-20T05:50:00Z,56.28,10.62,10.0,8.0,330,2,,6.21,30.442913,,,TRUE,,,,,,,,CLR,,,,,,,,VFR,,,,,,,,,,,,METAR,25.0
EGYP 200550Z 28016KT 9999 SCT030 03/01 Q1006,EGYP,2023-05-20T05:50:00Z,-51.82,-58.45,3.0,1.0,280,16,,6.21,29.704725,,,,,,,,,,,SCT,3000,,,,,,,VFR,,,,,,,,,,,,METAR,70.0
EGYM 200550Z AUTO 01007KT 9999 NCD 10/10 Q1028,EGYM,2023-05-20T05:50:00Z,52.63,0.57,10.0,10.0,10,7,,6.21,30.35433,,,TRUE,,,,,,,,CLR,,,,,,,,VFR,,,,,,,,,,,,METAR,25.0
EGYH 200550Z AUTO 03010KT 9999 NCD 11/10 Q1028,EGYH,2023-05-20T05:50:00Z,52.87,0.15,11.0,10.0,30,10,,6.21,30.35433,,,TRUE,,,,,,,,CLR,,,,,,,,VFR,,,,,,,,,,,,METAR,5.0
EGYE 200550Z AUTO 01007KT //// ///////// ///// Q////,EGYE,2023-05-20T05:50:00Z,52.97,-0.57,,,10,7,,,,,,TRUE,,,,,,,,,,,,,,,,,,,,,,,,,,,,METAR,105.0
EGYD 200550Z AUTO 01008KT 0800 RA OVC001/// 07/07 Q1029,EGYD,2023-05-20T05:50:00Z,53.03,-0.5,7.0,7.0,10,8,,0.5,30.383858,,,TRUE,,,,,,,RA,OVC,100,,,,,,,LIFR,,,,,,,,,,,,METAR,65.0
EGXZ 200550Z AUTO 12001KT 5000 BR OVC003/// 09/08 Q1030,EGXZ,2023-05-20T05:50:00Z,54.2,-1.38,9.0,8.0,120,1,,3.11,30.413385,,,TRUE,,,,,,,BR,OVC,300,,,,,,,LIFR,,,,,,,,,,,,METAR,24.0
EGXW 200550Z AUTO 02007KT 0600 -DZ OVC001/// 08/08 Q1029,EGXW,2023-05-20T05:50:00Z,53.18,-0.52,8.0,8.0,20,7,,0.37,30.383858,,,TRUE,,,,,,,-DZ,OVC,100,,,,,,,LIFR,,,,,,,,,,,,METAR,70.0
EGXV 200550Z AUTO 34004KT 9999 BR NCD 08/08 Q1029,EGXV,2023-05-20T05:50:00Z,53.87,-0.45,8.0,8.0,340,4,,6.21,30.383858,,,TRUE,,,,,,,BR,CLR,,,,,,,,VFR,,,,,,,,,,,,METAR,6.0
EGXT 200550Z AUTO 36008KT 6000 BR SCT002/// 08/07 Q1028,EGXT,2023-05-20T05:50:00Z,52.62,-0.47,8.0,7.0,360,8,,3.73,30.35433,,,TRUE,,,,,,,BR,SCT,200,,,,,,,MVFR,,,,,,,,,,,,METAR,74.0
EGXS 200550Z AUTO 01010KT 9999 NCD 11/09 Q1029,EGXS,2023-05-20T05:50:00Z,53.48,0.15,11.0,9.0,10,10,,6.21,30.383858,,,TRUE,,,,,,,,CLR,,,,,,,,VFR,,,,,,,,,,,,METAR,6.0
EGXE 200550Z AUTO 20001KT 5000 // OVC006/// 08/08 Q1030,EGXE,2023-05-20T05:50:00Z,54.28,-1.52,8.0,8.0,200,1,,3.11,30.413385,,,TRUE,,,,,,,,OVC,600,,,,,,,IFR,,,,,,,,,,,,SPECI,30.0
EGXC 200550Z 01007KT 9999 FEW002 09/09 Q1029 RMK BLU,EGXC,2023-05-20T05:50:00Z,53.1,-0.17,9.0,9.0,10,7,,6.21,30.383858,,,,,,,,,,,FEW,200,,,,,,,VFR,,,,,,,,,,,,SPECI,9.0
EGWU 200550Z 02008KT 9999 BKN009 09/07 Q1027 BECMG FEW015,EGWU,2023-05-20T05:50:00Z,51.55,-0.42,9.0,7.0,20,8,,6.21,30.324802,,,,,,,,,,,BKN,900,,,,,,,IFR,,,,,,,,,,,,SPECI,33.0
EGWC 200550Z AUTO 05004KT //// ///////// ///// Q////,EGWC,2023-05-20T05:50:00Z,52.63,-2.3,,,50,4,,,,,,TRUE,,,,,,,,,,,,,,,,,,,,,,,,,,,,SPECI,79.0
EGVP 200550Z AUTO 02008KT 9999 NCD 08/06 Q1026,EGVP,2023-05-20T05:50:00Z,51.13,-1.57,8.0,6.0,20,8,,6.21,30.295275,,,TRUE,,,,,,,,CLR,,,,,,,,VFR,,,,,,,,,,,,METAR,80.0
EGVO 200550Z AUTO 02009KT 9999 OVC005/// 07/06 Q1026,EGVO,2023-05-20T05:50:00Z,51.23,-0.95,7.0,6.0,20,9,,6.21,30.295275,,,TRUE,,,,,,,,OVC,500,,,,,,,IFR,,,,,,,,,,,,METAR,118.0
EGVN 200550Z 05009KT 7000 HZ BKN006 08/07 Q1027 BECMG 9999 NSW FEW005 RMK YLO1 BECMG BLU,EGVN,2023-05-20T05:50:00Z,51.77,-1.58,8.0,7.0,50,9,,4.35,30.324802,,,,,,,,,,HZ,BKN,600,,,,,,,IFR,,,,,,,,,,,,SPECI,83.0
EGUW 200550Z AUTO 01009KT 9000 BR FEW004/// 08/08 Q1026,EGUW,2023-05-20T05:50:00Z,52.12,0.97,8.0,8.0,10,9,,5.59,30.295275,,,TRUE,,,,,,,BR,FEW,400,,,,,,,VFR,,,,,,,,,,,,METAR,86.0
EGUB 200550Z 02010KT 9999 SCT009 09/08 Q1027 BECMG CAVOK RMK GRN BECMG BLU,EGUB,2023-05-20T05:50:00Z,51.62,-1.08,9.0,8.0,20,10,,6.21,30.324802,,,,,,,,,,,SCT,900,,,,,,,VFR,,,,,,,,,,,,SPECI,56.0
EGTK 200550Z 04006KT 9000 BKN004 08/08 Q1028,EGTK,2023-05-20T05:50:00Z,51.83,-1.32,8.0,8.0,40,6,,5.59,30.35433,,,,,,,,,,,BKN,400,,,,,,,LIFR,,,,,,,,,,,,METAR,78.0
EGTE 200550Z VRB03KT 9999 MIFG FEW010 11/09 Q1027,EGTE,2023-05-20T05:50:00Z,50.73,-3.42,11.0,9.0,0,3,,6.21,30.324802,,,,,,,,,,MIFG,FEW,1000,,,,,,,VFR,,,,,,,,,,,,METAR,30.0
EGSY 200550Z AUTO 08005KT 9999 NCD 11/08 Q1028,EGSY,2023-05-20T05:50:00Z,51.4,-3.43,11.0,8.0,80,5,,6.21,30.35433,,,TRUE,,,,,,,,CLR,,,,,,,,VFR,,,,,,,,,,,,METAR,46.0
EGSS 200550Z AUTO 02009KT 7000 OVC004 09/08 Q1027,EGSS,2023-05-20T05:50:00Z,51.88,0.22,9.0,8.0,20,9,,4.35,30.324802,,,TRUE,,,,,,,,OVC,400,,,,,,,LIFR,,,,,,,,,,,,METAR,101.0
EGSH 200550Z 02004KT CAVOK 11/09 Q1028 NOSIG,EGSH,2023-05-20T05:50:00Z,52.68,1.28,11.0,9.0,20,4,,6.21,30.35433,,,,,,TRUE,,,,,CAVOK,,,,,,,,VFR,,,,,,,,,,,,METAR,21.0
EGQS 200550Z 03002KT CAVOK 13/09 Q1027 NOSIG RMK BLU BLU,EGQS,2023-05-20T05:50:00Z,57.72,-3.32,13.0,9.0,30,2,,6.21,30.324802,,,,,,TRUE,,,,,CAVOK,,,,,,,,VFR,,,,,,,,,,,,METAR,6.0
EGQM 200550Z AUTO 20006KT 3800 FG OVC002/// 09/09 Q1030,EGQM,2023-05-20T05:50:00Z,55.42,-1.6,9.0,9.0,200,6,,2.36,30.413385,,,TRUE,,,,,,,FG,OVC,200,,,,,,,LIFR,,,,,,,,,,,,METAR,24.0
EGQL 200550Z 32001KT CAVOK 10/09 Q1029 RMK BLU,EGQL,2023-05-20T05:50:00Z,56.38,-2.87,10.0,9.0,320,1,,6.21,30.383858,,,,,,,,,,,CAVOK,,,,,,,,VFR,,,,,,,,,,,,METAR,11.0
EGQK 200550Z AUTO 23002KT 9999 FEW056/// OVC071/// 12/09 Q1027,EGQK,2023-05-20T05:50:00Z,57.65,-3.57,12.0,9.0,230,2,,6.21,30.324802,,,TRUE,,,,,,,,FEW,5600,OVC,7100,,,,,VFR,,,,,,,,,,,,METAR,5.0
EGQA 200550Z AUTO 21008KT 9999 BKN055/// SCT094/// 12/10 Q1026,EGQA,2023-05-20T05:50:00Z,57.83,-3.95,12.0,10.0,210,8,,6.21,30.295275,,,TRUE,,,,,,,,BKN,5500,SCT,9400,,,,,VFR,,,,,,,,,,,,METAR,4.0
EGPU 200550Z AUTO 18010KT 0500 -RADZ OVC002/// 11/11 Q1028 REDZ,EGPU,2023-05-20T05:50:00Z,56.5,-6.88,11.0,11.0,180,10,,0.31,30.35433,,,TRUE,,,,,,,-RA -DZ,OVC,200,,,,,,,LIFR,,,,,,,,,,,,METAR,12.0
EGPO 200550Z 21015KT 9999 SCT005 BKN011 11/10 Q1025,EGPO,2023-05-20T05:50:00Z,58.22,-6.32,11.0,10.0,210,15,,6.21,30.265747,,,,,,,,,,,SCT,500,BKN,1100,,,,,MVFR,,,,,,,,,,,,METAR,10.0
EGPL 200550Z AUTO 21013KT 0900 FG OVC000/// 12/11 Q1026,EGPL,2023-05-20T05:50:00Z,57.47,-7.37,12.0,11.0,210,13,,0.56,30.295275,,,TRUE,,,,,,,FG,OVC,0,,,,,,,LIFR,,,,,,,,,,,,METAR,3.0
EGPK 200550Z VRB02KT 9999 FEW028 11/09 Q1029,EGPK,2023-05-20T05:50:00Z,55.5,-4.58,11.0,9.0,0,2,,6.21,30.383858,,,,,,,,,,,FEW,2800,,,,,,,VFR,,,,,,,,,,,,METAR,14.0
EGPI 200550Z AUTO 17002KT 7000 SCT040/// 11/11 Q1029,EGPI,2023-05-20T05:50:00Z,55.68,-6.25,11.0,11.0,170,2,,4.35,30.383858,,,TRUE,,,,,,,,SCT,4000,,,,,,,MVFR,,,,,,,,,,,,METAR,17.0
EGPH 200550Z 25002KT CAVOK 11/09 Q1029,EGPH,2023-05-20T05:50:00Z,55.95,-3.35,11.0,9.0,250,2,,6.21,30.383858,,,,,,,,,,,CAVOK,,,,,,,,VFR,,,,,,,,,,,,METAR,29.0
EGPF 200550Z AUTO VRB01KT 9999 NCD 11/10 Q1029,EGPF,2023-05-20T05:50:00Z,55.87,-4.42,11.0,10.0,0,1,,6.21,30.383858,,,TRUE,,,,,,,,CLR,,,,,,,,VFR,,,,,,,,,,,,METAR,8.0
EGPE 200550Z 24009KT CAVOK 12/09 Q1027,EGPE,2023-05-20T05:50:00Z,57.53,-4.05,12.0,9.0,240,9,,6.21,30.324802,,,,,,,,,,,CAVOK,,,,,,,,VFR,,,,,,,,,,,,METAR,7.0
EGPD 200550Z AUTO 16007KT 9999 NCD 11/09 Q1028,EGPD,2023-05-20T05:50:00Z,57.2,-2.22,11.0,9.0,160,7,,6.21,30.35433,,,TRUE,,,,,,,,CLR,,,,,,,,VFR,,,,,,,,,,,,METAR,65.0
EGPC 200550Z AUTO 18007KT 150V210 9999 OVC048/// 12/09 Q1026,EGPC,2023-05-20T05:50:00Z,58.45,-3.08,12.0,9.0,180,7,,6.21,30.295275,,,TRUE,,,,,,,,OVC,4800,,,,,,,VFR,,,,,,,,,,,,METAR,38.0
EGPB 200550Z 20009KT 7000 -SHRA FEW004 BKN034 09/09 Q1027,EGPB,2023-05-20T05:50:00Z,59.87,-1.3,9.0,9.0,200,9,,4.35,30.324802,,,,,,,,,,-SHRA,FEW,400,BKN,3400,,,,,MVFR,,,,,,,,,,,,METAR,2.0
EGPA 200550Z 18008KT 9999 SCT045 11/09 Q1026,EGPA,2023-05-20T05:50:00Z,58.95,-2.9,11.0,9.0,180,8,,6.21,30.295275,,,,,,,,,,,SCT,4500,,,,,,,VFR,,,,,,,,,,,,METAR,15.0
EGOV 200550Z AUTO 35002KT 9999 OVC170/// 11/10 Q1028,EGOV,2023-05-20T05:50:00Z,53.25,-4.53,11.0,10.0,350,2,,6.21,30.35433,,,TRUE,,,,,,,,OVC,17000,,,,,,,VFR,,,,,,,,,,,,METAR,11.0
EGOS 200550Z AUTO 02002KT 5000 // NCD 09/08 Q1029,EGOS,2023-05-20T05:50:00Z,52.8,-2.67,9.0,8.0,20,2,,3.11,30.383858,,,TRUE,,,,,,,,CLR,,,,,,,,MVFR,,,,,,,,,,,,METAR,76.0
EGOP 200550Z AUTO 36003KT 9999 NCD 11/09 Q1027,EGOP,2023-05-20T05:50:00Z,51.72,-4.37,11.0,9.0,360,3,,6.21,30.324802,,,TRUE,,,,,,,,CLR,,,,,,,,VFR,,,,,,,,,,,,METAR,8.0
EGOM 200550Z AUTO 07003KT 9999 FEW200/// 09/07 Q1029,EGOM,2023-05-20T05:50:00Z,55.05,-2.55,9.0,7.0,70,3,,6.21,30.383858,,,TRUE,,,,,,,,FEW,20000,,,,,,,VFR,,,,,,,,,,,,METAR,286.0
EGNX 200550Z 01004KT 330V060 7000 FEW003 07/07 Q1029,EGNX,2023-05-20T05:50:00Z,52.82,-1.32,7.0,7.0,10,4,,4.35,30.383858,,,,,,,,,,,FEW,300,,,,,,,MVFR,,,,,,,,,,,,METAR,91.0
EGNV 200550Z 32002KT 9999 BKN005 08/07 Q1030,EGNV,2023-05-20T05:50:00Z,54.52,-1.42,8.0,7.0,320,2,,6.21,30.413385,,,,,,,,,,,BKN,500,,,,,,,IFR,,,,,,,,,,,,METAR,36.0
EGNT 200550Z VRB01KT 0500 R25/0175N FG OVC002 07/07 Q1030,EGNT,2023-05-20T05:50:00Z,55.03,-1.7,7.0,7.0,0,1,,0.31,30.413385,,,,,,,,,,FG,OVC,200,,,,,,,LIFR,,,,,,,,,,,,METAR,77.0
EGNS 200550Z 02003KT CAVOK 12/09 Q1029 NOSIG,EGNS,2023-05-20T05:50:00Z,54.08,-4.63,12.0,9.0,20,3,,6.21,30.383858,,,,,,TRUE,,,,,CAVOK,,,,,,,,VFR,,,,,,,,,,,,METAR,18.0
EGNM 200550Z 06003KT 340V090 4000 0700S R32/0550D PRFG FEW012 09/08 Q1029,EGNM,2023-05-20T05:50:00Z,53.87,-1.65,9.0,8.0,60,3,,2.49,30.383858,,,,,,,,,,PRFG,FEW,1200,,,,,,,IFR,,,,,,,,,,,,METAR,221.0
EGNJ 200550Z AUTO 01006KT 0200 FG SCT002/// 09/09 Q1030,EGNJ,2023-05-20T05:50:00Z,53.57,-0.35,9.0,9.0,10,6,,0.12,30.413385,,,TRUE,,,,,,,FG,SCT,200,,,,,,,LIFR,,,,,,,,,,,,METAR,23.0
EGNH 200550Z 12008KT 6000 NSC 10/09 Q1029,EGNH,2023-05-20T05:50:00Z,53.77,-3.03,10.0,9.0,120,8,,3.73,30.383858,,,,,,,,,,,CLR,,,,,,,,MVFR,,,,,,,,,,,,METAR,10.0
EGMD 200550Z AUTO 01012KT 9999 NCD 12/11 Q1025,EGMD,2023-05-20T05:50:00Z,50.95,0.93,12.0,11.0,10,12,,6.21,30.265747,,,TRUE,,,,,,,,CLR,,,,,,,,VFR,,,,,,,,,,,,METAR,4.0
EGMC 200550Z 36008KT 330V050 CAVOK 09/09 Q1026,EGMC,2023-05-20T05:50:00Z,51.57,0.7,9.0,9.0,360,8,,6.21,30.295275,,,,,,,,,,,CAVOK,,,,,,,,VFR,,,,,,,,,,,,METAR,15.0
EGLL 200550Z AUTO 03004KT 350V080 9999 OVC009 09/07 Q1027,EGLL,2023-05-20T05:50:00Z,51.48,-0.45,9.0,7.0,30,4,,6.21,30.324802,,,TRUE,,,,,,,,OVC,900,,,,,,,IFR,,,,,,,,,,,,METAR,26.0
EGLF 200550Z AUTO 02006KT 330V070 9999 OVC006/// 08/06 Q1026,EGLF,2023-05-20T05:50:00Z,51.28,-0.77,8.0,6.0,20,6,,6.21,30.295275,,,TRUE,,,,,,,,OVC,600,,,,,,,IFR,,,,,,,,,,,,METAR,65.0
EGLC 200550Z AUTO 01004KT 290V070 9999 OVC008 10/07 Q1027,EGLC,2023-05-20T05:50:00Z,51.5,0.05,10.0,7.0,10,4,,6.21,30.324802,,,TRUE,,,,,,,,OVC,800,,,,,,,IFR,,,,,,,,,,,,METAR,10.0
EGKK 200550Z 02012KT 9999 BKN007 09/07 Q1026,EGKK,2023-05-20T05:50:00Z,51.13,-0.18,9.0,7.0,20,12,,6.21,30.295275,,,,,,,,,,,BKN,700,,,,,,,IFR,,,,,,,,,,,,METAR,58.0
EGJJ 200550Z 03010KT 360V060 CAVOK 11/09 Q1024,EGJJ,2023-05-20T05:50:00Z,49.22,-2.2,11.0,9.0,30,10,,6.21,30.236221,,,,,,,,,,,CAVOK,,,,,,,,VFR,,,,,,,,,,,,METAR,84.0
EGJB 200550Z 03009KT CAVOK 11/08 Q1024,EGJB,2023-05-20T05:50:00Z,49.42,-2.6,11.0,8.0,30,9,,6.21,30.236221,,,,,,,,,,,CAVOK,,,,,,,,VFR,,,,,,,,,,,,METAR,102.0
EGJA 200550Z 04011KT CAVOK 11/08 Q1024,EGJA,2023-05-20T05:50:00Z,49.72,-2.2,11.0,8.0,40,11,,6.21,30.236221,,,,,,,,,,,CAVOK,,,,,,,,VFR,,,,,,,,,,,,METAR,83.0
EGHQ 200550Z 10005KT CAVOK 11/09 Q1027,EGHQ,2023-05-20T05:50:00Z,50.43,-5.0,11.0,9.0,100,5,,6.21,30.324802,,,,,,,,,,,CAVOK,,,,,,,,VFR,,,,,,,,,,,,METAR,101.0
EGHI 200550Z 02005KT 340V060 9999 FEW045 09/08 Q1026,EGHI,2023-05-20T05:50:00Z,50.95,-1.35,9.0,8.0,20,5,,6.21,30.295275,,,,,,,,,,,FEW,4500,,,,,,,VFR,,,,,,,,,,,,METAR,13.0
EGHH 200550Z 02007KT CAVOK 08/06 Q1026,EGHH,2023-05-20T05:50:00Z,50.78,-1.83,8.0,6.0,20,7,,6.21,30.295275,,,,,,,,,,,CAVOK,,,,,,,,VFR,,,,,,,,,,,,METAR,9.0
EGGW 200550Z 02010G20KT 2500 BR OVC002 08/08 Q1027,EGGW,2023-05-20T05:50:00Z,51.87,-0.37,8.0,8.0,20,10,20,1.55,30.324802,,,,,,,,,,BR,OVC,200,,,,,,,LIFR,,,,,,,,,,,,METAR,159.0
EGGP 200550Z 07004KT 6000 NSC 10/09 Q1029,EGGP,2023-05-20T05:50:00Z,53.33,-2.85,10.0,9.0,70,4,,3.73,30.383858,,,,,,,,,,,CLR,,,,,,,,MVFR,,,,,,,,,,,,METAR,23.0
EGGD 200550Z AUTO 05008KT 360V090 9999 NCD 08/07 Q1027,EGGD,2023-05-20T05:50:00Z,51.37,-2.72,8.0,7.0,50,8,,6.21,30.324802,,,TRUE,,,,,,,,CLR,,,,,,,,VFR,,,,,,,,,,,,METAR,182.0
EGFF 200550Z AUTO 05007KT 9999 NCD 11/09 Q1028,EGFF,2023-05-20T05:50:00Z,51.38,-3.35,11.0,9.0,50,7,,6.21,30.35433,,,TRUE,,,,,,,,CLR,,,,,,,,VFR,,,,,,,,,,,,METAR,65.0
EGDY 200550Z AUTO 32003KT 9999 NCD 08/06 Q1027,EGDY,2023-05-20T05:50:00Z,51.0,-2.63,8.0,6.0,320,3,,6.21,30.324802,,,TRUE,,,,,,,,CLR,,,,,,,,VFR,,,,,,,,,,,,METAR,21.0
EGDR 200550Z 04005KT CAVOK 11/10 Q1026 NOSIG RMK BLU BLU,EGDR,2023-05-20T05:50:00Z,50.08,-5.25,11.0,10.0,40,5,,6.21,30.295275,,,,,,TRUE,,,,,CAVOK,,,,,,,,VFR,,,,,,,,,,,,METAR,74.0
EGDM 200550Z AUTO 01009KT 9999 BR NCD 08/07 Q1026,EGDM,2023-05-20T05:50:00Z,51.17,-1.75,8.0,7.0,10,9,,6.21,30.295275,,,TRUE,,,,,,,BR,CLR,,,,,,,,VFR,,,,,,,,,,,,METAR,122.0
EGCK 200550Z AUTO VRB01KT 9999 NCD 11/10 Q1028,EGCK,2023-05-20T05:50:00Z,53.1,-4.33,11.0,10.0,0,1,,6.21,30.35433,,,TRUE,,,,,,,,CLR,,,,,,,,VFR,,,,,,,,,,,,METAR,6.0
EGCC 200550Z 08003KT CAVOK 09/08 Q1029,EGCC,2023-05-20T05:50:00Z,53.35,-2.27,9.0,8.0,80,3,,6.21,30.383858,,,,,,,,,,,CAVOK,,,,,,,,VFR,,,,,,,,,,,,METAR,78.0
EGBB 200550Z 35007KT 4500 BR BKN004 07/07 Q1029,EGBB,2023-05-20T05:50:00Z,52.47,-1.75,7.0,7.0,350,7,,2.8,30.383858,,,,,,,,,,BR,BKN,400,,,,,,,LIFR,,,,,,,,,,,,METAR,91.0
EGAE 200550Z 24003KT 9999 FEW007 SCT038 12/11 Q1029,EGAE,2023-05-20T05:50:00Z,55.03,-7.15,12.0,11.0,240,3,,6.21,30.383858,,,,,,,,,,,FEW,700,SCT,3800,,,,,VFR,,,,,,,,,,,,METAR,9.0
EGAC 200550Z AUTO 16003KT 9999 NCD 12/10 Q1029,EGAC,2023-05-20T05:50:00Z,54.62,-5.87,12.0,10.0,160,3,,6.21,30.383858,,,TRUE,,,,,,,,CLR,,,,,,,,VFR,,,,,,,,,,,,METAR,2.0
EGAA 200550Z AUTO VRB01KT 9999 NCD 11/10 Q1029,EGAA,2023-05-20T05:50:00Z,54.65,-6.22,11.0,10.0,0,1,,6.21,30.383858,,,TRUE,,,,,,,,CLR,,,,,,,,VFR,,,,,,,,,,,,METAR,65.0
EFVA 200550Z AUTO 20008KT CAVOK 13/05 Q1029,EFVA,2023-05-20T05:50:00Z,63.05,21.77,13.0,5.0,200,8,,6.21,30.383858,,,TRUE,,,,,,,,CAVOK,,,,,,,,VFR,,,,,,,,,,,,METAR,4.0
EFUT 200550Z AUTO VRB02KT CAVOK 14/06 Q1032,EFUT,2023-05-20T05:50:00Z,60.88,26.93,14.0,6.0,0,2,,6.21,30.47244,,,TRUE,,,,,,,,CAVOK,,,,,,,,VFR,,,,,,,,,,,,METAR,104.0
EFTU 200550Z AUTO 22006KT CAVOK 12/02 Q1033,EFTU,2023-05-20T05:50:00Z,60.52,22.27,12.0,2.0,220,6,,6.21,30.501968,,,TRUE,,,,,,,,CAVOK,,,,,,,,VFR,,,,,,,,,,,,METAR,47.0
EFTP 200550Z AUTO 20005KT 160V230 CAVOK 12/02 Q1032,EFTP,2023-05-20T05:50:00Z,61.42,23.62,12.0,2.0,200,5,,6.21,30.47244,,,TRUE,,,,,,,,CAVOK,,,,,,,,VFR,,,,,,,,,,,,METAR,111.0
EFSI 200550Z AUTO 17007KT 140V210 CAVOK 13/04 Q1030,EFSI,2023-05-20T05:50:00Z,62.7,22.83,13.0,4.0,170,7,,6.21,30.413385,,,TRUE,,,,,,,,CAVOK,,,,,,,,VFR,,,,,,,,,,,,METAR,90.0
EFSA 200550Z AUTO 23003KT CAVOK 13/05 Q1032,EFSA,2023-05-20T05:50:00Z,61.95,28.93,13.0,5.0,230,3,,6.21,30.47244,,,TRUE,,,,,,,,CAVOK,,,,,,,,VFR,,,,,,,,,,,,METAR,90.0
EFRO 200550Z AUTO 20007KT CAVOK 11/05 Q1026,EFRO,2023-05-20T05:50:00Z,66.57,25.82,11.0,5.0,200,7,,6.21,30.295275,,,TRUE,,,,,,,,CAVOK,,,,,,,,VFR,,,,,,,,,,,,METAR,201.0
EFPO 200550Z AUTO 20004KT 150V270 CAVOK 13/03 Q1032,EFPO,2023-05-20T05:50:00Z,61.47,21.8,13.0,3.0,200,4,,6.21,30.47244,,,TRUE,,,,,,,,CAVOK,,,,,,,,VFR,,,,,,,,,,,,METAR,10.0
EFOU 200550Z AUTO 18006KT 160V220 CAVOK 14/02 Q1029,EFOU,2023-05-20T05:50:00Z,64.92,25.37,14.0,2.0,180,6,,6.21,30.383858,,,TRUE,,,,,,,,CAVOK,,,,,,,,VFR,,,,,,,,,,,,METAR,15.0
EFMI 200550Z AUTO VRB01KT CAVOK 17/06 Q1032,EFMI,2023-05-20T05:50:00Z,61.68,27.2,17.0,6.0,0,1,,6.21,30.47244,,,TRUE,,,,,,,,CAVOK,,,,,,,,VFR,,,,,,,,,,,,METAR,99.0
EFMA 200550Z AUTO 19009KT CAVOK 10/06 Q1033,EFMA,2023-05-20T05:50:00Z,60.12,19.9,10.0,6.0,190,9,,6.21,30.501968,,,TRUE,,,,,,,,CAVOK,,,,,,,,VFR,,,,,,,,,,,,METAR,6.0
EFLP 200550Z AUTO 34003KT 290V020 9999 VCSH //////CB 15/04 Q1032,EFLP,2023-05-20T05:50:00Z,61.03,28.15,15.0,4.0,340,3,,6.21,30.47244,,,TRUE,,,,,,,VCSH,,,,,,,,,,,,,,,,,,,,,SPECI,102.0
EFKU 200550Z AUTO 24003KT 210V280 CAVOK 14/06 Q1031,EFKU,2023-05-20T05:50:00Z,63.02,27.8,14.0,6.0,240,3,,6.21,30.442913,,,TRUE,,,,,,,,CAVOK,,,,,,,,VFR,,,,,,,,,,,,METAR,92.0
EFKT 200550Z 22010KT CAVOK 14/06 Q1023,EFKT,2023-05-20T05:50:00Z,67.7,24.85,14.0,6.0,220,10,,6.21,30.206694,,,,,,,,,,,CAVOK,,,,,,,,VFR,,,,,,,,,,,,METAR,190.0
EFKS 200550Z AUTO 23005KT CAVOK 13/04 Q1027,EFKS,2023-05-20T05:50:00Z,66.0,29.23,13.0,4.0,230,5,,6.21,30.324802,,,TRUE,,,,,,,,CAVOK,,,,,,,,VFR,,,,,,,,,,,,METAR,270.0
EFKK 200550Z AUTO 15008KT CAVOK 13/04 Q1029,EFKK,2023-05-20T05:50:00Z,63.72,23.13,13.0,4.0,150,8,,6.21,30.383858,,,TRUE,,,,,,,,CAVOK,,,,,,,,VFR,,,,,,,,,,,,METAR,25.0
EFKI 200550Z AUTO 27004KT 190V300 CAVOK 14/01 Q1030,EFKI,2023-05-20T05:50:00Z,64.27,27.67,14.0,1.0,270,4,,6.21,30.413385,,,TRUE,,,,,,,,CAVOK,,,,,,,,VFR,,,,,,,,,,,,METAR,132.0
EFKE 200550Z AUTO 19009KT CAVOK 09/03 Q1028,EFKE,2023-05-20T05:50:00Z,65.78,24.57,9.0,3.0,190,9,,6.21,30.35433,,,TRUE,,,,,,,,CAVOK,,,,,,,,VFR,,,,,,,,,,,,METAR,15.0
EFJY 200550Z AUTO VRB03KT CAVOK 14/06 Q1032,EFJY,2023-05-20T05:50:00Z,62.4,25.68,14.0,6.0,0,3,,6.21,30.47244,,,TRUE,,,,,,,,CAVOK,,,,,,,,VFR,,,,,,,,,,,,METAR,139.0
EFJO 200550Z AUTO VRB02KT CAVOK 14/07 Q1031,EFJO,2023-05-20T05:50:00Z,62.67,29.62,14.0,7.0,0,2,,6.21,30.442913,,,TRUE,,,,,,,,CAVOK,,,,,,,,VFR,,,,,,,,,,,,METAR,118.0
EFIV 200550Z AUTO 21012KT CAVOK 13/06 Q1021,EFIV,2023-05-20T05:50:00Z,68.62,27.42,13.0,6.0,210,12,,6.21,30.147638,,,TRUE,,,,,,,,CAVOK,,,,,,,,VFR,,,,,,,,,,,,METAR,145.0
EFHK 200550Z 33004KT 290V010 CAVOK 14/01 Q1033 NOSIG,EFHK,2023-05-20T05:50:00Z,60.32,24.97,14.0,1.0,330,4,,6.21,30.501968,,,,,,TRUE,,,,,CAVOK,,,,,,,,VFR,,,,,,,,,,,,METAR,56.0
EFHA 200550Z AUTO 15006KT CAVOK 13/04 Q1032,EFHA,2023-05-20T05:50:00Z,61.85,24.8,13.0,4.0,150,6,,6.21,30.47244,,,TRUE,,,,,,,,CAVOK,,,,,,,,VFR,,,,,,,,,,,,METAR,144.0
EFET 200550Z AUTO 21013KT CAVOK 11/05 Q1021,EFET,2023-05-20T05:50:00Z,68.37,23.43,11.0,5.0,210,13,,6.21,30.147638,,,TRUE,,,,,,,,CAVOK,,,,,,,,VFR,,,,,,,,,,,,METAR,300.0
EEEI 200550Z 08004KT 040V110 CAVOK 13/02 Q1034 NOSIG,EEEI,2023-05-20T05:50:00Z,59.27,24.2,13.0,2.0,80,4,,6.21,30.531496,,,,,,TRUE,,,,,CAVOK,,,,,,,,VFR,,,,,,,,,,,,METAR,19.0
EDXW 200550Z 05009KT CAVOK 12/07 Q1029,EDXW,2023-05-20T05:50:00Z,54.92,8.33,12.0,7.0,50,9,,6.21,30.383858,,,,,,,,,,,CAVOK,,,,,,,,VFR,,,,,,,,,,,,METAR,8.0
EDVK 200550Z 06006KT 330V110 9999 FEW022 12/08 Q1023,EDVK,2023-05-20T05:50:00Z,51.4,9.37,12.0,8.0,60,6,,6.21,30.206694,,,,,,,,,,,FEW,2200,,,,,,,VFR,,,,,,,,,,,,METAR,277.0
EDVE 200550Z AUTO 09007KT 050V110 9999 BKN051/// 11/07 Q1025,EDVE,2023-05-20T05:50:00Z,52.32,10.55,11.0,7.0,90,7,,6.21,30.265747,,,TRUE,,,,,,,,BKN,5100,,,,,,,VFR,,,,,,,,,,,,METAR,83.0
EDTY 200550Z 06009KT CAVOK 13/10 Q1017,EDTY,2023-05-20T05:50:00Z,49.12,9.78,13.0,10.0,60,9,,6.21,30.029528,,,,,,,,,,,CAVOK,,,,,,,,VFR,,,,,,,,,,,,METAR,398.0
EDTL 200550Z AUTO 35003KT 9999 // OVC069/// 13/10 Q1016,EDTL,2023-05-20T05:50:00Z,48.37,7.83,13.0,10.0,350,3,,6.21,30.0,,,TRUE,,,,,,,,OVC,6900,,,,,,,VFR,,,,,,,,,,,,SPECI,152.0
EDSB 200550Z 02009KT 9999 FEW043 SCT072 13/08 Q1016,EDSB,2023-05-20T05:50:00Z,48.78,8.08,13.0,8.0,20,9,,6.21,30.0,,,,,,,,,,,FEW,4300,SCT,7200,,,,,VFR,,,,,,,,,,,,METAR,122.0
EDQM 200550Z AUTO 05005KT 010V090 9999 // OVC012/// 10/08 Q1021,EDQM,2023-05-20T05:50:00Z,50.3,11.85,10.0,8.0,50,5,,6.21,30.147638,,,TRUE,,,,,,,,OVC,1200,,,,,,,MVFR,,,,,,,,,,,,METAR,578.0
EDNY 200550Z AUTO 04006KT 360V090 9999 FEW120/// BKN240/// 13/10 Q1016,EDNY,2023-05-20T05:50:00Z,47.67,9.52,13.0,10.0,40,6,,6.21,30.0,,,TRUE,,,,,,,,FEW,12000,BKN,24000,,,,,VFR,,,,,,,,,,,,METAR,411.0
EDMO 200550Z 03005KT 9999 BKN005 OVC008 11/10 Q1016,EDMO,2023-05-20T05:50:00Z,48.07,11.27,11.0,10.0,30,5,,6.21,30.0,,,,,,,,,,,BKN,500,OVC,800,,,,,IFR,,,,,,,,,,,,METAR,587.0
EDMA 200550Z 06007KT 040V100 9999 OVC011 12/10 Q1017,EDMA,2023-05-20T05:50:00Z,48.42,10.92,12.0,10.0,60,7,,6.21,30.029528,,,,,,,,,,,OVC,1100,,,,,,,MVFR,,,,,,,,,,,,METAR,462.0
EDLW 200550Z 06004KT 030V100 9999 FEW049 12/07 Q1023,EDLW,2023-05-20T05:50:00Z,51.52,7.62,12.0,7.0,60,4,,6.21,30.206694,,,,,,,,,,,FEW,4900,,,,,,,VFR,,,,,,,,,,,,METAR,122.0
EDLV 200550Z 05005KT 350V080 CAVOK 13/08 Q1023,EDLV,2023-05-20T05:50:00Z,51.6,6.15,13.0,8.0,50,5,,6.21,30.206694,,,,,,,,,,,CAVOK,,,,,,,,VFR,,,,,,,,,,,,METAR,27.0
EDLP 200550Z 07002KT CAVOK 09/07 Q1023,EDLP,2023-05-20T05:50:00Z,51.62,8.62,9.0,7.0,70,2,,6.21,30.206694,,,,,,,,,,,CAVOK,,,,,,,,VFR,,,,,,,,,,,,METAR,211.0
EDLN 200550Z 03007KT 330V060 CAVOK 13/07 Q1022,EDLN,2023-05-20T05:50:00Z,51.23,6.5,13.0,7.0,30,7,,6.21,30.177166,,,,,,,,,,,CAVOK,,,,,,,,VFR,,,,,,,,,,,,METAR,38.0
EDJA 200550Z 04005KT 010V070 9999 OVC007 11/10 Q1016,EDJA,2023-05-20T05:50:00Z,47.98,10.23,11.0,10.0,40,5,,6.21,30.0,,,,,,,,,,,OVC,700,,,,,,,IFR,,,,,,,,,,,,METAR,625.0
EDHL 200550Z 07006KT CAVOK 12/08 Q1028,EDHL,2023-05-20T05:50:00Z,53.8,10.72,12.0,8.0,70,6,,6.21,30.35433,,,,,,,,,,,CAVOK,,,,,,,,VFR,,,,,,,,,,,,METAR,13.0
EDHK 200550Z AUTO 07009KT 9999 // BKN120/// 11/07 Q1029,EDHK,2023-05-20T05:50:00Z,54.38,10.15,11.0,7.0,70,9,,6.21,30.383858,,,TRUE,,,,,,,,BKN,12000,,,,,,,VFR,,,,,,,,,,,,METAR,24.0
EDHI 200550Z AUTO 06007KT 9999 // NCD 12/08 Q1027,EDHI,2023-05-20T05:50:00Z,53.53,9.83,12.0,8.0,60,7,,6.21,30.324802,,,TRUE,,,,,,,,CLR,,,,,,,,VFR,,,,,,,,,,,,METAR,5.0
EDGS 200550Z 06008KT 9999 FEW032 BKN042 09/07 Q1021,EDGS,2023-05-20T05:50:00Z,50.7,8.08,9.0,7.0,60,8,,6.21,30.147638,,,,,,,,,,,FEW,3200,BKN,4200,,,,,VFR,,,,,,,,,,,,METAR,595.0
EDFM 200550Z 34006KT CAVOK 13/08 Q1018,EDFM,2023-05-20T05:50:00Z,49.47,8.52,13.0,8.0,340,6,,6.21,30.059055,,,,,,,,,,,CAVOK,,,,,,,,VFR,,,,,,,,,,,,METAR,94.0
EDFH 200550Z 06005KT 360V120 CAVOK 10/07 Q1019,EDFH,2023-05-20T05:50:00Z,49.95,7.27,10.0,7.0,60,5,,6.21,30.088583,,,,,,,,,,,CAVOK,,,,,,,,VFR,,,,,,,,,,,,METAR,494.0
EDDW 200550Z AUTO 06009KT CAVOK 12/05 Q1026 NOSIG,EDDW,2023-05-20T05:50:00Z,53.03,8.8,12.0,5.0,60,9,,6.21,30.295275,,,TRUE,,,TRUE,,,,,CAVOK,,,,,,,,VFR,,,,,,,,,,,,METAR,5.0
EDDV 200550Z AUTO 07009KT CAVOK 11/06 Q1025 NOSIG,EDDV,2023-05-20T05:50:00Z,52.47,9.68,11.0,6.0,70,9,,6.21,30.265747,,,TRUE,,,TRUE,,,,,CAVOK,,,,,,,,VFR,,,,,,,,,,,,METAR,53.0
EDDS 200550Z AUTO 03006KT 9999 BKN026 12/09 Q1016 NOSIG,EDDS,2023-05-20T05:50:00Z,48.68,9.22,12.0,9.0,30,6,,6.21,30.0,,,TRUE,,,TRUE,,,,,BKN,2600,,,,,,,MVFR,,,,,,,,,,,,METAR,374.0
EDDR 200550Z AUTO 05011KT 020V080 CAVOK 12/08 Q1018 NOSIG,EDDR,2023-05-20T05:50:00Z,49.22,7.1,12.0,8.0,50,11,,6.21,30.059055,,,TRUE,,,TRUE,,,,,CAVOK,,,,,,,,VFR,,,,,,,,,,,,METAR,317.0
EDDP 200550Z AUTO 07013KT 9999 OVC012 12/09 Q1023 NOSIG,EDDP,2023-05-20T05:50:00Z,51.43,12.23,12.0,9.0,70,13,,6.21,30.206694,,,TRUE,,,TRUE,,,,,OVC,1200,,,,,,,MVFR,,,,,,,,,,,,METAR,129.0
EDDN 200550Z AUTO 07009KT 030V120 CAVOK 15/10 Q1018 NOSIG,EDDN,2023-05-20T05:50:00Z,49.5,11.05,15.0,10.0,70,9,,6.21,30.059055,,,TRUE,,,TRUE,,,,,CAVOK,,,,,,,,VFR,,,,,,,,,,,,METAR,312.0
EDDM 200550Z AUTO 07005KT 030V110 9999 FEW010 12/10 Q1017 BECMG 08010KT,EDDM,2023-05-20T05:50:00Z,48.35,11.82,12.0,10.0,70,5,,6.21,30.029528,,,TRUE,,,,,,,,FEW,1000,,,,,,,VFR,,,,,,,,,,,,METAR,445.0
EDDL 200550Z AUTO 05010KT 360V070 CAVOK 13/07 Q1022 NOSIG,EDDL,2023-05-20T05:50:00Z,51.3,6.77,13.0,7.0,50,10,,6.21,30.177166,,,TRUE,,,TRUE,,,,,CAVOK,,,,,,,,VFR,,,,,,,,,,,,METAR,37.0
EDDK 200550Z AUTO VRB02KT CAVOK 11/08 Q1021 NOSIG,EDDK,2023-05-20T05:50:00Z,50.87,7.15,11.0,8.0,0,2,,6.21,30.147638,,,TRUE,,,TRUE,,,,,CAVOK,,,,,,,,VFR,,,,,,,,,,,,METAR,92.0
EDDH 200550Z AUTO 07010KT CAVOK 12/08 Q1027 NOSIG,EDDH,2023-05-20T05:50:00Z,53.63,10.0,12.0,8.0,70,10,,6.21,30.324802,,,TRUE,,,TRUE,,,,,CAVOK,,,,,,,,VFR,,,,,,,,,,,,METAR,8.0
EDDG 200550Z AUTO 04008KT 360V080 CAVOK 13/06 Q1024 NOSIG,EDDG,2023-05-20T05:50:00Z,52.13,7.7,13.0,6.0,40,8,,6.21,30.236221,,,TRUE,,,TRUE,,,,,CAVOK,,,,,,,,VFR,,,,,,,,,,,,METAR,46.0
EDDF 200550Z AUTO 03013KT CAVOK 14/09 Q1019 NOSIG,EDDF,2023-05-20T05:50:00Z,50.05,8.6,14.0,9.0,30,13,,6.21,30.088583,,,TRUE,,,TRUE,,,,,CAVOK,,,,,,,,VFR,,,,,,,,,,,,METAR,113.0
EDDE 200550Z AUTO 04010KT 9999 OVC008 10/09 Q1022 NOSIG,EDDE,2023-05-20T05:50:00Z,50.98,10.97,10.0,9.0,40,10,,6.21,30.177166,,,TRUE,,,TRUE,,,,,OVC,800,,,,,,,IFR,,,,,,,,,,,,METAR,314.0
EDDC 200550Z AUTO 08011KT 050V110 9999 OVC010 12/09 Q1024 TEMPO BKN010,EDDC,2023-05-20T05:50:00Z,51.13,13.75,12.0,9.0,80,11,,6.21,30.236221,,,TRUE,,,,,,,,OVC,1000,,,,,,,MVFR,,,,,,,,,,,,METAR,227.0
EDDB 200550Z AUTO 07009KT 9999 OVC027 11/09 Q1026,EDDB,2023-05-20T05:50:00Z,52.38,13.53,11.0,9.0,70,9,,6.21,30.295275,,,TRUE,,,,,,,,OVC,2700,,,,,,,MVFR,,,,,,,,,,,,METAR,48.0
EDBC 200550Z AUTO 04008KT 9999 // SCT052/// 11/08 Q1024,EDBC,2023-05-20T05:50:00Z,51.85,11.42,11.0,8.0,40,8,,6.21,30.236221,,,TRUE,,,,,,,,SCT,5200,,,,,,,VFR,,,,,,,,,,,,METAR,178.0
EDAH 200550Z AUTO 06007KT 9999 // OVC038/// 12/08 Q1028,EDAH,2023-05-20T05:50:00Z,53.87,14.15,12.0,8.0,60,7,,6.21,30.35433,,,TRUE,,,,,,,,OVC,3800,,,,,,,VFR,,,,,,,,,,,,SPECI,22.0
EDAC 200550Z AUTO 05008KT 010V090 9999 // BKN011/// OVC060/// 12/09 Q1023,EDAC,2023-05-20T05:50:00Z,50.98,12.5,12.0,9.0,50,8,,6.21,30.206694,,,TRUE,,,,,,,,BKN,1100,OVC,6000,,,,,MVFR,,,,,,,,,,,,SPECI,193.0
EBOS 200550Z 05012KT CAVOK 13/08 Q1024 NOSIG,EBOS,2023-05-20T05:50:00Z,51.2,2.87,13.0,8.0,50,12,,6.21,30.236221,,,,,,TRUE,,,,,CAVOK,,,,,,,,VFR,,,,,,,,,,,,METAR,5.0
EBLG 200550Z 03008KT CAVOK 11/06 Q1021 NOSIG,EBLG,2023-05-20T05:50:00Z,50.63,5.45,11.0,6.0,30,8,,6.21,30.147638,,,,,,TRUE,,,,,CAVOK,,,,,,,,VFR,,,,,,,,,,,,METAR,187.0
EBCI 200550Z 04008KT CAVOK 10/05 Q1022 NOSIG,EBCI,2023-05-20T05:50:00Z,50.47,4.45,10.0,5.0,40,8,,6.21,30.177166,,,,,,TRUE,,,,,CAVOK,,,,,,,,VFR,,,,,,,,,,,,METAR,176.0
EBBR 200550Z 04005KT CAVOK 11/08 Q1022 NOSIG,EBBR,2023-05-20T05:50:00Z,50.9,4.52,11.0,8.0,40,5,,6.21,30.177166,,,,,,TRUE,,,,,CAVOK,,,,,,,,VFR,,,,,,,,,,,,METAR,49.0
EBAW 200550Z 03008KT CAVOK 12/07 Q1023 NOSIG,EBAW,2023-05-20T05:50:00Z,51.2,4.47,12.0,7.0,30,8,,6.21,30.206694,,,,,,TRUE,,,,,CAVOK,,,,,,,,VFR,,,,,,,,,,,,METAR,7.0
BGSF 200550Z AUTO 02004KT 340V040 9999NDV FEW038/// BKN055/// BKN100/// M00/M02 Q0994,BGSF,2023-05-20T05:50:00Z,67.0,-50.72,0.0,-2.0,20,4,,,29.350393,,,TRUE,,,,,,,,FEW,3800,BKN,5500,BKN,10000,,,,,,,,,,,,,,,SPECI,75.0
BGKK 200550Z AUTO 22003KT 9999NDV FEW011/// M00/M02 Q0983,BGKK,2023-05-20T05:50:00Z,65.57,-37.13,0.0,-2.0,220,3,,,29.02559,,,TRUE,,,,,,,,FEW,1100,,,,,,,,,,,,,,,,,,,SPECI,37.0
BGJN 200550Z AUTO 20016KT 1700NDV -SN OVC005/// M02/M03 Q0989,BGJN,2023-05-20T05:50:00Z,69.25,-51.07,-2.0,-3.0,200,16,,,29.202755,,,TRUE,,,,,,,-SN,OVC,500,,,,,,,,,,,,,,,,,,,SPECI,22.0
BGGH 200550Z AUTO 17018KT 2600 -SN BKN015/// OVC029/// M01/M03 Q0997 REFZRASN,BGGH,2023-05-20T05:50:00Z,64.2,-51.68,-1.0,-3.0,170,18,,1.62,29.438976,,,TRUE,,,,,,,-SN,BKN,1500,OVC,2900,,,,,IFR,,,,,,,,,,,,METAR,76.0
BGBW 200550Z AUTO 23012KT 9999NDV BKN070/// 01/M05 Q1003,BGBW,2023-05-20T05:50:00Z,61.17,-45.42,1.0,-5.0,230,12,,,29.616142,,,TRUE,,,,,,,,BKN,7000,,,,,,,,,,,,,,,,,,,SPECI,49.0
MMCB 200549Z 00000KT 7SM BKN100 BKN200 24/11 A3017 RMK 8/038 HZY,MMCB,2023-05-20T05:49:00Z,18.83,-99.27,24.0,11.0,0,0,,7.0,30.171259,,,,,,,,,,,BKN,10000,BKN,20000,,,,,VFR,,,,,,,,,,,,METAR,1281.0
MMTO 200548Z 28006KT 8SM FEW080 BKN200 13/10 A3050 RMK SLP133 57003 912 8/038,MMTO,2023-05-20T05:48:00Z,19.35,-99.57,13.0,10.0,280,6,,8.0,30.499016,1013.3,,,,,,,,,,FEW,8000,BKN,20000,,,,,VFR,-0.3,,,,,,,,,,,METAR,2582.0
KJDN 200548Z AUTO 00000KT 13/05 A3009 RMK AO1 SLP191 T01280050 10222 20111 58004,KJDN,2023-05-20T05:48:00Z,47.33,-106.95,12.8,5.0,0,0,,,30.088583,1019.1,,TRUE,TRUE,,,,,,,,,,,,,,,,-0.4,22.2,11.1,,,,,,,,,METAR,802.0
MMMX 200547Z 26005KT 10SM FEW030 BKN100 OVC250 16/11 A3044 NOSIG RMK SLP133 54000 917 8/477,MMMX,2023-05-20T05:47:00Z,19.43,-99.08,16.0,11.0,260,5,,10.0,30.43996,1013.3,,,,,TRUE,,,,,FEW,3000,BKN,10000,OVC,25000,,,VFR,,,,,,,,,,,,METAR,2224.0
KCQT 200547Z AUTO 00000KT 9SM OVC011 17/14 A3007 RMK AO2 SLP181 T01720144 10200 20172 50008,KCQT,2023-05-20T05:47:00Z,34.02,-118.28,17.2,14.4,0,0,,9.0,30.070866,1018.1,,TRUE,TRUE,,,,,,,OVC,1100,,,,,,,MVFR,0.8,20.0,17.2,,,,,,,,,METAR,51.0
LIRP 200545Z 11006KT 9999 SCT040 BKN070 15/12 Q1010 NOSIG,LIRP,2023-05-20T05:45:00Z,43.68,10.38,15.0,12.0,110,6,,6.21,29.822834,,,,,,TRUE,,,,,SCT,4000,BKN,7000,,,,,VFR,,,,,,,,,,,,METAR,1.0
LHSN 200545Z 05012KT CAVOK 16/12 Q1021 NOSIG RMK BLU,LHSN,2023-05-20T05:45:00Z,47.12,20.23,16.0,12.0,50,12,,6.21,30.147638,,,,,,TRUE,,,,,CAVOK,,,,,,,,VFR,,,,,,,,,,,,METAR,89.0
LHSM 200545Z AUTO 32005KT CAVOK 15/14 Q1020 NOSIG,LHSM,2023-05-20T05:45:00Z,46.68,17.17,15.0,14.0,320,5,,6.21,30.11811,,,TRUE,,,TRUE,,,,,CAVOK,,,,,,,,VFR,,,,,,,,,,,,METAR,119.0
LHPR 200545Z AUTO 06004KT 020V100 7000 NCD 15/14 Q1021 BECMG CAVOK,LHPR,2023-05-20T05:45:00Z,47.63,17.82,15.0,14.0,60,4,,4.35,30.147638,,,TRUE,,,,,,,,CLR,,,,,,,,MVFR,,,,,,,,,,,,METAR,127.0
LHPP 200545Z AUTO 06008KT CAVOK 16/14 Q1019,LHPP,2023-05-20T05:45:00Z,45.98,18.23,16.0,14.0,60,8,,6.21,30.088583,,,TRUE,,,,,,,,CAVOK,,,,,,,,VFR,,,,,,,,,,,,METAR,193.0
LHPA 200545Z 04004KT 8000 NSC 15/14 Q1020 NOSIG RMK BLU,LHPA,2023-05-20T05:45:00Z,47.35,17.5,15.0,14.0,40,4,,4.97,30.11811,,,,,,TRUE,,,,,CLR,,,,,,,,MVFR,,,,,,,,,,,,METAR,143.0
LHKE 200545Z 06008KT CAVOK 16/13 Q1021 NOSIG RMK BLU,LHKE,2023-05-20T05:45:00Z,46.92,19.75,16.0,13.0,60,8,,6.21,30.147638,,,,,,TRUE,,,,,CAVOK,,,,,,,,VFR,,,,,,,,,,,,METAR,113.0
LHDC 200545Z AUTO 07009KT CAVOK 17/13 Q1021 NOSIG,LHDC,2023-05-20T05:45:00Z,47.48,21.62,17.0,13.0,70,9,,6.21,30.147638,,,TRUE,,,TRUE,,,,,CAVOK,,,,,,,,VFR,,,,,,,,,,,,METAR,105.0
KSWF 200545Z 00000KT 10SM BKN050 10/08 A3020,KSWF,2023-05-20T05:45:00Z,41.5,-74.08,10.0,8.0,0,0,,10.0,30.200787,,,,,,,,,,,BKN,5000,,,,,,,VFR,,,,,,,,,,,,METAR,139.0
FADY 200545Z 12003KT CAVOK 05/01 Q1022,FADY,2023-05-20T05:45:00Z,-30.68,24.02,5.0,1.0,120,3,,6.21,30.177166,,,,,,,,,,,CAVOK,,,,,,,,VFR,,,,,,,,,,,,SPECI,1265.0
MMMD 200544Z 12004KT 6SM FEW015 25/22 A2999 RMK SLP154 52008 914 8/500 HZY AC CI,MMMD,2023-05-20T05:44:00Z,20.95,-89.65,25.0,22.0,120,4,,6.0,29.991142,1015.4,,,,,,,,,,FEW,1500,,,,,,,VFR,0.8,,,,,,,,,,,METAR,10.0
MMAS 200544Z 06010KT 7SM SCT040 SCT100 BKN270 17/08 A3036 RMK SLP135 60025 8/463 HZY OCNL DROPS OVR STN,MMAS,2023-05-20T05:44:00Z,21.7,-102.32,17.0,8.0,60,10,,7.0,30.360237,1013.5,,,,,,,,,,SCT,4000,SCT,10000,BKN,27000,,,VFR,,,,,,,,,,,,SPECI,1866.0
RKTP 200543Z 24011KT 9999 FEW040 FEW200 19/16 A2989,RKTP,2023-05-20T05:43:00Z,36.7,126.48,19.0,16.0,240,11,,6.21,29.890747,,,,,,,,,,,FEW,4000,FEW,20000,,,,,VFR,,,,,,,,,,,,SPECI,13.0
MMCM 200543Z 00000KT 7SM BKN020 BKN120 28/25 A2996 RMK SLP147 5//// 9// 8/530,MMCM,2023-05-20T05:43:00Z,18.5,-88.33,28.0,25.0,0,0,,7.0,29.958662,1014.7,,,,,,,,,,BKN,2000,BKN,12000,,,,,MVFR,,,,,,,,,,,,METAR,10.0
RJOF 200542Z 33006KT 270V020 9999 FEW020 SCT040 26/15 Q1008 RMK 1CU020 4SC040 A2978,RJOF,2023-05-20T05:42:00Z,34.03,131.55,26.0,15.0,330,6,,6.21,29.763779,,,,,,,,,,,FEW,2000,SCT,4000,,,,,VFR,,,,,,,,,,,,METAR,2.0
MMTJ 200542Z 29004KT 5SM OVC013 16/14 A3011 RMK SLP197 52003 937 8/6// HZY,MMTJ,2023-05-20T05:42:00Z,32.53,-116.97,16.0,14.0,290,4,,5.0,30.109253,1019.7,,,,,,,,,,OVC,1300,,,,,,,MVFR,0.3,,,,,,,,,,,METAR,150.0
MMMZ 200542Z 00000KT 10SM BKN080 OVC220 24/21 A2998 RMK SLP146 52017 951 8/037,MMMZ,2023-05-20T05:42:00Z,23.17,-106.27,24.0,21.0,0,0,,10.0,29.97933,1014.6,,,,,,,,,,BKN,8000,OVC,22000,,,,,VFR,1.7,,,,,,,,,,,METAR,7.0
MMAN 200542Z 10004KT 10SM FEW018 BKN070 25/22 A3006 RMK SLP/// 5//// 9// 8/570,MMAN,2023-05-20T05:42:00Z,25.87,-100.23,25.0,22.0,100,4,,10.0,30.059055,,,,,,,,,,,FEW,1800,BKN,7000,,,,,VFR,,,,,,,,,,,,SPECI,447.0
KAMG 200542Z AUTO 00000KT 2 1/2SM BR BKN010 18/17 A3005 RMK AO2 T01780172,KAMG,2023-05-20T05:42:00Z,31.53,-82.5,17.8,17.2,0,0,,2.5,30.050198,,,TRUE,TRUE,,,,,,BR,BKN,1000,,,,,,,IFR,,,,,,,,,,,,SPECI,61.0
MMSP 200541Z 00000KT 7SM SCT025CB BKN080 BKN210 16/13 A3036 RMK SLP133 52031 922 8/963 CBS 1 QDT,MMSP,2023-05-20T05:41:00Z,22.25,-100.93,16.0,13.0,0,0,,7.0,30.360237,1013.3,,,,,,,,,,SCT,2500,BKN,8000,BKN,21000,,,VFR,3.1,,,,,,,,,,,SPECI,1841.0
MMZC 200540Z E03005KT 10SM SCT100 16/11 A3037 RMK 8/070,MMZC,2023-05-20T05:40:00Z,22.9,-102.68,16.0,11.0,30,5,,10.0,30.369095,,,,,,,,,,,SCT,10000,,,,,,,VFR,,,,,,,,,,,,SPECI,2175.0
MMUN 200540Z 00000KT 7SM FEW015 27/24 A2998 RMK SLP155 52002 913 8/100 CI,MMUN,2023-05-20T05:40:00Z,21.03,-86.85,27.0,24.0,0,0,,7.0,29.97933,1015.5,,,,,,,,,,FEW,1500,,,,,,,VFR,0.2,,,,,,,,,,,METAR,13.0
MMTP 200540Z 00000KT 6SM SCT030CB BKN100 26/26 A2990 RMK SLP153 52007 9// 8/360 OCNL LTGCC N,MMTP,2023-05-20T05:40:00Z,14.78,-92.37,26.0,26.0,0,0,,6.0,29.899607,1015.3,,,,,,,,,,SCT,3000,BKN,10000,,,,,VFR,0.7,,,,,,,,,,,METAR,27.0
MMQT 200540Z 25006KT 8SM -RA BKN025 BKN100 OVC200 14/14 A3042 RMK 60905 8/963 RAB38 -RAB40 LTGIC,MMQT,2023-05-20T05:40:00Z,20.62,-100.18,14.0,14.0,250,6,,8.0,30.41929,,,,,,,,,,-RA,BKN,2500,BKN,10000,OVC,20000,,,MVFR,,,,,,,,,,,,METAR,1909.0
MMMY 200540Z 10005KT 6SM FEW030 BKN070 OVC200 25/22 A3002 RMK SLP/// 5//// 9// 8/577 HZY,MMMY,2023-05-20T05:40:00Z,25.77,-100.1,25.0,22.0,100,5,,6.0,30.02067,,,,,,,,,,,FEW,3000,BKN,7000,OVC,20000,,,VFR,,,,,,,,,,,,SPECI,382.0
MMHO 200540Z 22002KT 10SM SKC 24/09 A3003 RMK SLP163 52018 927 HZY,MMHO,2023-05-20T05:40:00Z,29.08,-111.05,24.0,9.0,220,2,,10.0,30.029528,1016.3,,,,,,,,,,SKC,,,,,,,,VFR,1.8,,,,,,,,,,,METAR,186.0
MMCP 200540Z 00000KT 7SM SCT250 27/23 A2997 RMK 8/001 HZY,MMCP,2023-05-20T05:40:00Z,19.82,-90.5,27.0,23.0,0,0,,7.0,29.970472,,,,,,,,,,,SCT,25000,,,,,,,VFR,,,,,,,,,,,,METAR,9.0
MMAA 200540Z 28007KT 5SM FEW035 SCT100 BKN300 29/25 A2991 RMK SLP124 52006 953 8/132 HZY,MMAA,2023-05-20T05:40:00Z,16.75,-99.75,29.0,25.0,280,7,,5.0,29.911417,1012.4,,,,,,,,,,FEW,3500,SCT,10000,BKN,30000,,,MVFR,0.6,,,,,,,,,,,METAR,5.0
KFTN 200540Z AUTO 23021G30KT 3SM BR FEW003 FEW032 OVC044 23/21 A3008 RMK A01,KFTN,2023-05-20T05:40:00Z,28.22,-100.02,23.0,21.0,230,21,30,3.0,30.079725,,,TRUE,TRUE,,,,,,BR,FEW,300,FEW,3200,OVC,4400,,,MVFR,,,,,,,,,,,,SPECI,236.0
ETSH 200537Z 06005KT 9999 BKN024 12/09 Q1024 WHT,ETSH,2023-05-20T05:37:00Z,51.77,13.17,12.0,9.0,60,5,,6.21,30.236221,,,,,,,,,,,BKN,2400,,,,,,,MVFR,,,,,,,,,,,,SPECI,79.0
KOLE 200535Z AUTO 18010G15KT 10SM CLR 14/09 A3003 RMK AO2,KOLE,2023-05-20T05:35:00Z,42.23,-78.37,14.0,9.0,180,10,15,10.0,30.029528,,,TRUE,TRUE,,,,,,,CLR,,,,,,,,VFR,,,,,,,,,,,,METAR,651.0
KJVW 200535Z AUTO 11003KT 10SM CLR 23/23 A3000 RMK AO2,KJVW,2023-05-20T05:35:00Z,32.3,-90.42,23.0,23.0,110,3,,10.0,30.0,,,TRUE,TRUE,,,,,,,CLR,,,,,,,,VFR,,,,,,,,,,,,METAR,73.0
WAQQ 200530Z 11002KT 9999 FEW015 33/25 Q1009 NOSIG,WAQQ,2023-05-20T05:30:00Z,3.33,117.57,33.0,25.0,110,2,,6.21,29.793306,,,,,,TRUE,,,,,FEW,1500,,,,,,,VFR,,,,,,,,,,,,METAR,6.0
WAKK 200530Z 11008KT 8000 FEW013CB BKN016 29/22 Q1009 NOSIG,WAKK,2023-05-20T05:30:00Z,-8.52,140.42,29.0,22.0,110,8,,4.97,29.793306,,,,,,TRUE,,,,,FEW,1300,BKN,1600,,,,,MVFR,,,,,,,,,,,,METAR,5.0
VYMD 200530Z 14005KT 7000 SCT020 37/21 Q1006 NOSIG,VYMD,2023-05-20T05:30:00Z,21.7,95.98,37.0,21.0,140,5,,4.35,29.704725,,,,,,TRUE,,,,,SCT,2000,,,,,,,MVFR,,,,,,,,,,,,METAR,87.0
VOPC 200530Z 23004KT 6000 FEW020 33/24 Q1009 NOSIG,VOPC,2023-05-20T05:30:00Z,11.97,79.82,33.0,24.0,230,4,,3.73,29.793306,,,,,,TRUE,,,,,FEW,2000,,,,,,,MVFR,,,,,,,,,,,,METAR,43.0
VLVT 200530Z 34004KT 8000 SCT020 38/26 Q1005 NOSIG,VLVT,2023-05-20T05:30:00Z,17.98,102.57,38.0,26.0,340,4,,4.97,29.675198,,,,,,TRUE,,,,,SCT,2000,,,,,,,MVFR,,,,,,,,,,,,METAR,171.0
HKMO 200530Z 21006KT 9999 BKN022 27/24 Q1014 NOSIG,HKMO,2023-05-20T05:30:00Z,-4.02,39.62,27.0,24.0,210,6,,6.21,29.940945,,,,,,TRUE,,,,,BKN,2200,,,,,,,MVFR,,,,,,,,,,,,METAR,55.0
CYDA 200526Z VRB02KT 20SM FEW090 SCT120 BKN200 19/04 A2977 RMK AS2AC2CI2 STN CLSD AFTER MEDEVAC SLP090 DENSITY ALT 2200FT,CYDA,2023-05-20T05:26:00Z,64.03,-139.12,19.0,4.0,0,2,,20.0,29.769686,1009.0,,,,,,,,,,FEW,9000,SCT,12000,BKN,20000,,,VFR,,,,,,,,,,,,SPECI,338.0
RJSH 200523Z 08010KT 9999 FEW006 SCT010 BKN020 14/11 Q1014 RMK 1ST006 4ST010 7SC020 A2994,RJSH,2023-05-20T05:23:00Z,40.55,141.47,14.0,11.0,80,10,,6.21,29.940945,,,,,,,,,,,FEW,600,SCT,1000,BKN,2000,,,MVFR,,,,,,,,,,,,METAR,46.0
SADP 200522Z 19005KT 9999 BKN008 12/12 Q1021,SADP,2023-05-20T05:22:00Z,-34.6,-58.6,12.0,12.0,190,5,,6.21,30.147638,,,,,,,,,,,BKN,800,,,,,,,IFR,,,,,,,,,,,,SPECI,12.0
LGKL 200520Z VRB03KT 9999 FEW080 18/14 Q1011,LGKL,2023-05-20T05:20:00Z,37.07,22.02,18.0,14.0,0,3,,6.21,29.852362,,,,,,,,,,,FEW,8000,,,,,,,VFR,,,,,,,,,,,,METAR,4.0
ETWM 200520Z AUTO 04004KT //// // ////// 11/05 Q1025 ///,ETWM,2023-05-20T05:20:00Z,52.72,7.33,11.0,5.0,40,4,,,30.265747,,,TRUE,,,,,,,,,,,,,,,,,,,,,,,,,,,,METAR,18.0
ETSN 200520Z 06005KT 9999 FEW015 SCT260 13/09 Q1017 BLU+,ETSN,2023-05-20T05:20:00Z,48.72,11.22,13.0,9.0,60,5,,6.21,30.029528,,,,,,,,,,,FEW,1500,SCT,26000,,,,,VFR,,,,,,,,,,,,METAR,378.0
ETSL 200520Z AUTO 03006KT 4600 // ////// 11/10 Q1016 ///,ETSL,2023-05-20T05:20:00Z,48.18,10.87,11.0,10.0,30,6,,2.86,30.0,,,TRUE,,,,,,,,,,,,,,,,,,,,,,,,,,,,METAR,548.0
ETSI 200520Z AUTO 06007KT 9999 // ////// 13/09 Q1017 ///,ETSI,2023-05-20T05:20:00Z,48.72,11.53,13.0,9.0,60,7,,6.21,30.029528,,,TRUE,,,,,,,,,,,,,,,,,,,,,,,,,,,,METAR,366.0
ETSB 200520Z AUTO 05009KT //// // ////// 10/05 Q1020 ///,ETSB,2023-05-20T05:20:00Z,50.17,7.07,10.0,5.0,50,9,,,30.11811,,,TRUE,,,,,,,,,,,,,,,,,,,,,,,,,,,,METAR,477.0
ETNW 200520Z 06009KT 9999 BKN080 BKN210 11/05 Q1025 BLU,ETNW,2023-05-20T05:20:00Z,52.45,9.42,11.0,5.0,60,9,,6.21,30.265747,,,,,,,,,,,BKN,8000,BKN,21000,,,,,VFR,,,,,,,,,,,,METAR,57.0
ETNT 200520Z AUTO /////KT //// // ////// ///// Q//// ///,ETNT,2023-05-20T05:20:00Z,53.53,7.67,,,,,,,,,,TRUE,,,,,,,,,,,,,,,,,,,,,,,,,,,,METAR,5.0
ETNS 200520Z AUTO 05010KT 8000 // ////// 10/07 Q1028 ///,ETNS,2023-05-20T05:20:00Z,54.47,9.52,10.0,7.0,50,10,,4.97,30.35433,,,TRUE,,,,,,,,,,,,,,,,,,,,,,,,,,,,METAR,22.0
ETNN 200520Z 33003KT 9999 FEW120 SCT250 11/07 Q1021 BLU+,ETNN,2023-05-20T05:20:00Z,50.82,6.67,11.0,7.0,330,3,,6.21,30.147638,,,,,,,,,,,FEW,12000,SCT,25000,,,,,VFR,,,,,,,,,,,,METAR,108.0
ETNL 200520Z 07008KT 9999 FEW080 SCT300 10/08 Q1028 BLU+,ETNL,2023-05-20T05:20:00Z,53.92,12.27,10.0,8.0,70,8,,6.21,30.35433,,,,,,,,,,,FEW,8000,SCT,30000,,,,,VFR,,,,,,,,,,,,METAR,40.0
ETNH 200520Z AUTO 03006KT 5000 // ////// 10/07 Q1028 ///,ETNH,2023-05-20T05:20:00Z,54.32,9.55,10.0,7.0,30,6,,3.11,30.35433,,,TRUE,,,,,,,,,,,,,,,,,,,,,,,,,,,,METAR,6.0
ETMN 200520Z 08008KT 9999 FEW100 BKN200 10/05 Q1027 BLU+,ETMN,2023-05-20T05:20:00Z,53.77,8.67,10.0,5.0,80,8,,6.21,30.324802,,,,,,,,,,,FEW,10000,BKN,20000,,,,,VFR,,,,,,,,,,,,METAR,23.0
ETHS 200520Z AUTO 05007KT 8000 // ////// 09/04 Q1026 ///,ETHS,2023-05-20T05:20:00Z,52.92,10.18,9.0,4.0,50,7,,4.97,30.295275,,,TRUE,,,,,,,,,,,,,,,,,,,,,,,,,,,,METAR,71.0
ETHN 200520Z AUTO 06011KT 9999 // ////// 12/09 Q1018 ///,ETHN,2023-05-20T05:20:00Z,49.38,9.97,12.0,9.0,60,11,,6.21,30.059055,,,TRUE,,,,,,,,,,,,,,,,,,,,,,,,,,,,METAR,466.0
ETHL 200520Z 05008KT 9999 BKN014 11/09 Q1016 GRN,ETHL,2023-05-20T05:20:00Z,48.22,9.92,11.0,9.0,50,8,,6.21,30.0,,,,,,,,,,,BKN,1400,,,,,,,MVFR,,,,,,,,,,,,METAR,536.0
ETHF 200520Z 03005KT 9999 FEW023 BKN055 12/07 Q1022 BLU,ETHF,2023-05-20T05:20:00Z,51.12,9.28,12.0,7.0,30,5,,6.21,30.177166,,,,,,,,,,,FEW,2300,BKN,5500,,,,,VFR,,,,,,,,,,,,METAR,171.0
ETHC 200520Z AUTO 03008KT 9999 // ////// 10/04 Q1025 ///,ETHC,2023-05-20T05:20:00Z,52.6,10.02,10.0,4.0,30,8,,6.21,30.265747,,,TRUE,,,,,,,,,,,,,,,,,,,,,,,,,,,,METAR,35.0
ETHB 200520Z AUTO 04007KT 9999 // ////// 09/05 Q1024 ///,ETHB,2023-05-20T05:20:00Z,52.27,9.07,9.0,5.0,40,7,,6.21,30.236221,,,TRUE,,,,,,,,,,,,,,,,,,,,,,,,,,,,METAR,69.0
ETHA 200520Z AUTO 07005KT 9999 // ////// 10/08 Q1016 ///,ETHA,2023-05-20T05:20:00Z,47.83,10.87,10.0,8.0,70,5,,6.21,30.0,,,TRUE,,,,,,,,,,,,,,,,,,,,,,,,,,,,METAR,738.0
ETGG 200520Z AUTO 05006KT 9999 // ////// 09/09 Q1029 ///,ETGG,2023-05-20T05:20:00Z,54.83,9.5,9.0,9.0,50,6,,6.21,30.383858,,,TRUE,,,,,,,,,,,,,,,,,,,,,,,,,,,,METAR,33.0
ESSB 200520Z AUTO 17004KT 9999 NCD 12/02 Q1032,ESSB,2023-05-20T05:20:00Z,59.35,17.93,12.0,2.0,170,4,,6.21,30.47244,,,TRUE,,,,,,,,CLR,,,,,,,,VFR,,,,,,,,,,,,METAR,14.0
ESMS 200520Z 09005KT CAVOK 10/05 Q1030,ESMS,2023-05-20T05:20:00Z,55.53,13.37,10.0,5.0,90,5,,6.21,30.413385,,,,,,,,,,,CAVOK,,,,,,,,VFR,,,,,,,,,,,,METAR,68.0
EDWE 200520Z AUTO 06008KT 9999 // NCD 11/06 Q1027,EDWE,2023-05-20T05:20:00Z,53.38,7.23,11.0,6.0,60,8,,6.21,30.324802,,,TRUE,,,,,,,,CLR,,,,,,,,VFR,,,,,,,,,,,,SPECI,0.0
KNZY 200518Z AUTO 26004KT 10SM OVC015 17/14 A3007 RMK AO2 T01670139 $,KNZY,2023-05-20T05:18:00Z,32.7,-117.22,16.7,13.9,260,4,,10.0,30.070866,,,TRUE,TRUE,TRUE,,,,,,OVC,1500,,,,,,,MVFR,,,,,,,,,,,,SPECI,4.0
KTFP 200515Z AUTO 18004KT 10SM SCT017 26/24 A3003 RMK AO2 T02580235,KTFP,2023-05-20T05:15:00Z,27.92,-97.22,25.8,23.5,180,4,,10.0,30.029528,,,TRUE,TRUE,,,,,,,SCT,1700,,,,,,,VFR,,,,,,,,,,,,METAR,5.0
