raw_text,station_id,observation_time,latitude,longitude,temp_c,dewpoint_c,wind_dir_degrees,wind_speed_kt,wind_gust_kt,visibility_statute_mi,altim_in_hg,sea_level_pressure_mb,corrected,auto,auto_station,maintenance_indicator_on,no_signal,lightning_sensor_off,freezing_rain_sensor_off,present_weather_sensor_off,wx_string,sky_cover,cloud_base_ft_agl,sky_cover,cloud_base_ft_agl,sky_cover,cloud_base_ft_agl,sky_cover,cloud_base_ft_agl,flight_category,three_hr_pressure_tendency_mb,maxT_c,minT_c,maxT24hr_c,minT24hr_c,precip_in,pcp3hr_in,pcp6hr_in,pcp24hr_in,snow_in,vert_vis_ft,metar_type,elevation_m
YPCC 010641Z AUTO 12015KT 9999 // BKN013 BKN043 27/25 Q1011,YPCC,2023-06-01T06:41:00Z,-12.18,96.83,27.0,25.0,120,15,,6.21,29.852362,,,TRUE,,,,,,,,BKN,1300,BKN,4300,,,,,MVFR,,,,,,,,,,,,SPECI,3.0
PAPM 010641Z AUTO 29012KT 7SM BKN004 04/03 A3012 RMK AO2 CIG 002V006,PAPM,2023-06-01T06:41:00Z,59.02,-161.82,4.0,3.0,290,12,,7.0,30.121063,,,TRUE,TRUE,,,,,,,BKN,400,,,,,,,LIFR,,,,,,,,,,,,SPECI,4.0
KBID 010641Z AUTO 00000KT 1/2SM -RA FG OVC003 13/13 A3013 RMK AO2 RAB02 P0000,KBID,2023-06-01T06:41:00Z,41.17,-71.58,13.0,13.0,0,0,,0.5,30.129921,,,TRUE,TRUE,,,,,,-RA FG,OVC,300,,,,,,,LIFR,,,,,,0.005,,,,,,SPECI,32.0
CYVM 010641Z AUTO 36007KT 9SM FEW026 BKN096 OVC120 M04/M06 A3006 RMK SLP180,CYVM,2023-06-01T06:41:00Z,67.55,-64.02,-4.0,-6.0,360,7,,9.0,30.059055,1018.0,,TRUE,,,,,,,,FEW,2600,BKN,9600,OVC,12000,,,VFR,,,,,,,,,,,,SPECI,3.0
CYET 010641Z AUTO 32008G15KT 9SM -RA FEW039 OVC060 10/09 A2992 RMK SLP145 DENSITY ALT 3300FT,CYET,2023-06-01T06:41:00Z,53.57,-116.47,10.0,9.0,320,8,15,9.0,29.920275,1014.5,,TRUE,,,,,,,-RA,FEW,3900,OVC,6000,,,,,VFR,,,,,,,,,,,,SPECI,925.0
PKWA 010640Z AUTO 05010KT 10SM SCT110 27/24 A2982 RMK AO2 T02730243 TSNO,PKWA,2023-06-01T06:40:00Z,8.72,167.72,27.3,24.3,50,10,,10.0,29.819881,,,TRUE,TRUE,,,TRUE,,,,SCT,11000,,,,,,,VFR,,,,,,,,,,,,METAR,6.0
KSBD 010640Z AUTO 25006KT 10SM OVC020 15/10 A2992 RMK AO2 T01500095,KSBD,2023-06-01T06:40:00Z,34.08,-117.25,15.0,9.5,250,6,,10.0,29.920275,,,TRUE,TRUE,,,,,,,OVC,2000,,,,,,,MVFR,,,,,,,,,,,,METAR,353.0
KQFX 010640Z AUTO 03001KT 9999 BKN065 27/15 A2965 RMK A02 TSNO,KQFX,2023-06-01T06:40:00Z,,,27.0,15.0,30,1,,6.21,29.648623,,,TRUE,TRUE,,,TRUE,,,,BKN,6500,,,,,,,VFR,,,,,,,,,,,,METAR,
KQFV 010640Z AUTO 28003KT 9999 BKN170 25/13 A2972 RMK A02 TSNO,KQFV,2023-06-01T06:40:00Z,,,25.0,13.0,280,3,,6.21,29.719488,,,TRUE,TRUE,,,TRUE,,,,BKN,17000,,,,,,,VFR,,,,,,,,,,,,METAR,
KQFU 010640Z AUTO 19002KT 9999 SCT048 26/15 A2972 RMK A02 TSNO,KQFU,2023-06-01T06:40:00Z,,,26.0,15.0,190,2,,6.21,29.719488,,,TRUE,TRUE,,,TRUE,,,,SCT,4800,,,,,,,VFR,,,,,,,,,,,,METAR,
KQFT 010640Z AUTO 21003KT 9999 BKN190 27/15 A2965 RMK A02 TSNO,KQFT,2023-06-01T06:40:00Z,,,27.0,15.0,210,3,,6.21,29.648623,,,TRUE,TRUE,,,TRUE,,,,BKN,19000,,,,,,,VFR,,,,,,,,,,,,METAR,
KQFB 010640Z AUTO 00000KT 9999 FEW005 FEW007 BKN024 OVC080 18/17 A2977 RMK A02 TSNO,KQFB,2023-06-01T06:40:00Z,,,18.0,17.0,0,0,,6.21,29.769686,,,TRUE,TRUE,,,TRUE,,,,FEW,500,FEW,700,BKN,2400,OVC,8000,MVFR,,,,,,,,,,,,METAR,
KQEX 010640Z AUTO 15004G11KT 9999 CLR 22/14 A2961 RMK A02 TSNO,KQEX,2023-06-01T06:40:00Z,,,22.0,14.0,150,4,11,6.21,29.610237,,,TRUE,TRUE,,,TRUE,,,,CLR,,,,,,,,VFR,,,,,,,,,,,,METAR,
KQEW 010640Z AUTO 15002KT 9999 // BKN130 24/15 A2967 RMK A02 TSNO,KQEW,2023-06-01T06:40:00Z,,,24.0,15.0,150,2,,6.21,29.66929,,,TRUE,TRUE,,,TRUE,,,,BKN,13000,,,,,,,VFR,,,,,,,,,,,,METAR,
KQEV 010640Z AUTO 22001KT 9999 BKN055 27/17 A2963 RMK A02 TSNO,KQEV,2023-06-01T06:40:00Z,,,27.0,17.0,220,1,,6.21,29.630905,,,TRUE,TRUE,,,TRUE,,,,BKN,5500,,,,,,,VFR,,,,,,,,,,,,METAR,
KQEQ 010640Z AUTO 22004KT 9999 FEW170 25/15 A2971 RMK A02 TSNO,KQEQ,2023-06-01T06:40:00Z,,,25.0,15.0,220,4,,6.21,29.71063,,,TRUE,TRUE,,,TRUE,,,,FEW,17000,,,,,,,VFR,,,,,,,,,,,,METAR,
KQEP 010640Z AUTO 27002KT 3200 HZ FEW041 BKN190 25/16 A2968 RMK A02 TSNO,KQEP,2023-06-01T06:40:00Z,,,25.0,16.0,270,2,,1.99,29.681103,,,TRUE,TRUE,,,TRUE,,,HZ,FEW,4100,BKN,19000,,,,,IFR,,,,,,,,,,,,METAR,
KQEN 010640Z AUTO 26003KT 9999 FEW037 BKN150 20/11 A2976 RMK A02 TSNO,KQEN,2023-06-01T06:40:00Z,,,20.0,11.0,260,3,,6.21,29.760826,,,TRUE,TRUE,,,TRUE,,,,FEW,3700,BKN,15000,,,,,VFR,,,,,,,,,,,,METAR,
KQEJ 010640Z AUTO 20004KT 9999 SCT150 BKN180 24/15 A2966 RMK A02 TSNO,KQEJ,2023-06-01T06:40:00Z,,,24.0,15.0,200,4,,6.21,29.660433,,,TRUE,TRUE,,,TRUE,,,,SCT,15000,BKN,18000,,,,,VFR,,,,,,,,,,,,METAR,
KQEI 010640Z AUTO 18003KT 9999 BKN150 BKN190 26/11 A2968 RMK A02 TSNO,KQEI,2023-06-01T06:40:00Z,,,26.0,11.0,180,3,,6.21,29.681103,,,TRUE,TRUE,,,TRUE,,,,BKN,15000,BKN,19000,,,,,VFR,,,,,,,,,,,,METAR,
KMTK 010640Z AUTO 08007KT 10SM CLR 25/19 A2986 RMK A01,KMTK,2023-06-01T06:40:00Z,,,25.0,19.0,80,7,,10.0,29.861221,,,TRUE,TRUE,,,,,,,CLR,,,,,,,,VFR,,,,,,,,,,,,METAR,
KJYL 010640Z AUTO 00000KT 5SM BR CLR 19/18 A3002 RMK AO2 T01860182,KJYL,2023-06-01T06:40:00Z,32.65,-81.6,18.6,18.2,0,0,,5.0,30.02067,,,TRUE,TRUE,,,,,,BR,CLR,,,,,,,,MVFR,,,,,,,,,,,,SPECI,54.0
KJQF 010640Z AUTO 00000KT 7SM CLR 16/15 A3010 RMK AO2,KJQF,2023-06-01T06:40:00Z,35.38,-80.72,16.0,15.0,0,0,,7.0,30.100393,,,TRUE,TRUE,,,,,,,CLR,,,,,,,,VFR,,,,,,,,,,,,SPECI,204.0
KIKT 010640Z AUTO 04013G22KT 10SM FEW023 SCT027 BKN043 25/21 A2984 RMK A01,KIKT,2023-06-01T06:40:00Z,28.52,-88.28,25.0,21.0,40,13,22,10.0,29.840551,,,TRUE,TRUE,,,,,,,FEW,2300,SCT,2700,BKN,4300,,,VFR,,,,,,,,,,,,METAR,36.0
KIJD 010640Z AUTO 05004KT 8SM SCT003 10/09 A3015 RMK AO2 T01000089,KIJD,2023-06-01T06:40:00Z,41.75,-72.18,10.0,8.9,50,4,,8.0,30.15059,,,TRUE,TRUE,,,,,,,SCT,300,,,,,,,VFR,,,,,,,,,,,,SPECI,73.0
KHRF 010640Z AUTO 20010KT 10SM BKN075 OVC085 14/11 A2986 RMK AO2,KHRF,2023-06-01T06:40:00Z,46.25,-114.13,14.0,11.0,200,10,,10.0,29.861221,,,TRUE,TRUE,,,,,,,BKN,7500,OVC,8500,,,,,VFR,,,,,,,,,,,,METAR,1112.0
KGUL 010640Z AUTO 12005KT 10SM SCT026 26/21 A2988 RMK A01,KGUL,2023-06-01T06:40:00Z,27.3,-93.53,26.0,21.0,120,5,,10.0,29.878937,,,TRUE,TRUE,,,,,,,SCT,2600,,,,,,,VFR,,,,,,,,,,,,SPECI,20.0
KDSF 010640Z AUTO 03019KT 10SM SCT022 SCT026 BKN044 26/21 A2984 RMK A01,KDSF,2023-06-01T06:40:00Z,28.35,-88.27,26.0,21.0,30,19,,10.0,29.840551,,,TRUE,TRUE,,,,,,,SCT,2200,SCT,2600,BKN,4400,,,VFR,,,,,,,,,,,,METAR,40.0
KBDN 010640Z AUTO 00000KT 10SM CLR 06/00 A3001 RMK AO2,KBDN,2023-06-01T06:40:00Z,44.1,-121.2,6.0,0.0,0,0,,10.0,30.008858,,,TRUE,TRUE,,,,,,,CLR,,,,,,,,VFR,,,,,,,,,,,,SPECI,1044.0
KATP 010640Z AUTO 05008KT 9SM SCT030 26/20 A2986 RMK A01,KATP,2023-06-01T06:40:00Z,27.2,-90.03,26.0,20.0,50,8,,9.0,29.861221,,,TRUE,TRUE,,,,,,,SCT,3000,,,,,,,VFR,,,,,,,,,,,,SPECI,50.0
CZSJ 010640Z AUTO 07007KT 030V090 1 1/4SM BR OVC002 10/10 A3006 RMK SLP190,CZSJ,2023-06-01T06:40:00Z,53.07,-93.35,10.0,10.0,70,7,,1.25,30.059055,1019.0,,TRUE,,,,,,,BR,OVC,200,,,,,,,LIFR,,,,,,,,,,,,SPECI,286.0
CYVL 010640Z AUTO 18008KT 9SM -RA OVC066 09/05 A2960 RMK SLP038,CYVL,2023-06-01T06:40:00Z,67.02,-126.13,9.0,5.0,180,8,,9.0,29.601377,1003.8,,TRUE,,,,,,,-RA,OVC,6600,,,,,,,VFR,,,,,,,,,,,,SPECI,261.0
SCJO 010639Z AUTO 11002KT 0900 FG VV002 06/06 Q1014,SCJO,2023-06-01T06:39:00Z,-40.6,-73.05,6.0,6.0,110,2,,0.56,29.940945,,,TRUE,,,,,,,FG,OVX,0,,,,,,,LIFR,,,,,,,,,,,200,SPECI,61.0
KSDB 010639Z AUTO M1/4SM FG VV001 08/07 A2993 RMK AO2 T00830072,KSDB,2023-06-01T06:39:00Z,34.75,-118.72,8.3,7.2,,,,0.25,29.929134,,,TRUE,TRUE,,,,,,FG,OVX,0,,,,,,,LIFR,,,,,,,,,,,100,METAR,1377.0
KOXB 010639Z AUTO 03009G15KT 9SM OVC005 18/16 A3007 RMK AO2 T01780161,KOXB,2023-06-01T06:39:00Z,38.32,-75.12,17.8,16.1,30,9,15,9.0,30.070866,,,TRUE,TRUE,,,,,,,OVC,500,,,,,,,IFR,,,,,,,,,,,,METAR,2.0
KOKB 010639Z AUTO 26006KT 10SM FEW015 BKN035 OVC048 16/13 A2992 RMK AO2 T01610133,KOKB,2023-06-01T06:39:00Z,33.22,-117.35,16.1,13.3,260,6,,10.0,29.920275,,,TRUE,TRUE,,,,,,,FEW,1500,BKN,3500,OVC,4800,,,VFR,,,,,,,,,,,,METAR,7.0
KAQV 010639Z AUTO 00000KT 1 3/4SM BR CLR 19/17 A2989 RMK AO2 T01890172 ,KAQV,2023-06-01T06:39:00Z,31.4,-93.3,18.9,17.2,0,0,,1.75,29.890747,,,TRUE,TRUE,,,,,,BR,CLR,,,,,,,,IFR,,,,,,,,,,,,SPECI,123.0
K2V6 010639Z AUTO 35005KT 10SM 15/11 A2990 RMK AO2,K2V6,2023-06-01T06:39:00Z,40.1,-102.72,15.0,11.0,350,5,,10.0,29.899607,,,TRUE,TRUE,,,,,,,,,,,,,,,,,,,,,,,,,,,METAR,1257.0
KWWD 010638Z AUTO 04006KT 10SM SCT013 OVC023 18/16 A3009 RMK AO2 $,KWWD,2023-06-01T06:38:00Z,39.02,-74.92,18.0,16.0,40,6,,10.0,30.088583,,,TRUE,TRUE,TRUE,,,,,,SCT,1300,OVC,2300,,,,,MVFR,,,,,,,,,,,,SPECI,4.0
KSAW 010638Z AUTO 19005KT 10SM CLR 16/13 A3005 RMK AO2 T01620133,KSAW,2023-06-01T06:38:00Z,46.35,-87.4,16.2,13.3,190,5,,10.0,30.050198,,,TRUE,TRUE,,,,,,,CLR,,,,,,,,VFR,,,,,,,,,,,,METAR,359.0
KDWU 010638Z AUTO 00000KT 3/4SM BR CLR 15/ A3007 RMK AO2 RAB15E25 P0000 RVRNO,KDWU,2023-06-01T06:38:00Z,38.55,-82.73,15.0,,0,0,,0.75,30.070866,,,TRUE,TRUE,,,,,,BR,CLR,,,,,,,,LIFR,,,,,,0.005,,,,,,SPECI,165.0
GMML 010638Z VRB02KT 0200 FG FEW008 17/17 Q1014 NOSIG,GMML,2023-06-01T06:38:00Z,27.13,-13.23,17.0,17.0,0,2,,0.12,29.940945,,,,,,TRUE,,,,FG,FEW,800,,,,,,,LIFR,,,,,,,,,,,,METAR,63.0
DIAP 010638Z 23006KT 9000 -TSRA BKN011 FEW020CB OVC025 26/25 Q1012 TEMPO 4000 TSRA,DIAP,2023-06-01T06:38:00Z,5.25,-3.92,26.0,25.0,230,6,,5.59,29.88189,,,,,,,,,,-TSRA,BKN,1100,FEW,2000,OVC,2500,,,MVFR,,,,,,,,,,,,SPECI,4.0
YPXM 010637Z AUTO 13009KT 9999 -SHRA SCT005 BKN014 OVC021 24/22 Q1012,YPXM,2023-06-01T06:37:00Z,-10.45,105.68,24.0,22.0,130,9,,6.21,29.88189,,,TRUE,,,,,,,-SHRA,SCT,500,BKN,1400,OVC,2100,,,MVFR,,,,,,,,,,,,SPECI,262.0
TJNR 010637Z AUTO 24003KT 10SM BKN020 24/24 A2998 RMK AO2 T02440239,TJNR,2023-06-01T06:37:00Z,18.25,-65.63,24.4,23.9,240,3,,10.0,29.97933,,,TRUE,TRUE,,,,,,,BKN,2000,,,,,,,MVFR,,,,,,,,,,,,SPECI,7.0
PASC 010637Z 29015KT 4SM -SN BR OVC015 M01/M03 A2985 RMK AO2 SNB16 P0000 T10111033,PASC,2023-06-01T06:37:00Z,70.2,-148.47,-1.1,-3.3,290,15,,4.0,29.84941,,,,TRUE,,,,,,-SN BR,OVC,1500,,,,,,,MVFR,,,,,,0.005,,,,,,SPECI,17.0
PAPG 010637Z AUTO 00000KT 10SM FEW023 BKN060 OVC100 06/06 A3005 RMK AO2,PAPG,2023-06-01T06:37:00Z,56.82,-132.93,6.0,6.0,0,0,,10.0,30.050198,,,TRUE,TRUE,,,,,,,FEW,2300,BKN,6000,OVC,10000,,,VFR,,,,,,,,,,,,SPECI,24.0
KSFY 010637Z AUTO 00000KT 10SM CLR 21/16 A2998 RMK AO2,KSFY,2023-06-01T06:37:00Z,42.05,-90.12,21.0,16.0,0,0,,10.0,29.97933,,,TRUE,TRUE,,,,,,,CLR,,,,,,,,VFR,,,,,,,,,,,,METAR,188.0
KHYA 010637Z AUTO 22004KT 1/4SM FG VV002 14/14 A3012 RMK AO2 T01440144,KHYA,2023-06-01T06:37:00Z,41.67,-70.27,14.4,14.4,220,4,,0.25,30.121063,,,TRUE,TRUE,,,,,,FG,OVX,0,,,,,,,LIFR,,,,,,,,,,,200,SPECI,11.0
KCKC 010637Z AUTO 00000KT 10SM CLR 17/08 A3000 RMK AO2,KCKC,2023-06-01T06:37:00Z,47.83,-90.38,17.0,8.0,0,0,,10.0,30.0,,,TRUE,TRUE,,,,,,,CLR,,,,,,,,VFR,,,,,,,,,,,,METAR,544.0
KADC 010637Z AUTO 09004KT 10SM BKN100 18/17 A2990 RMK AO2 PWI,KADC,2023-06-01T06:37:00Z,46.45,-95.22,18.0,17.0,90,4,,10.0,29.899607,,,TRUE,TRUE,,,,,,,BKN,10000,,,,,,,VFR,,,,,,,,,,,,METAR,416.0
SBSP 010636Z AUTO VRB01KT 6000 BKN002 OVC004 15/14 Q1022,SBSP,2023-06-01T06:36:00Z,-23.62,-46.65,15.0,14.0,0,1,,3.73,30.177166,,,TRUE,,,,,,,,BKN,200,OVC,400,,,,,LIFR,,,,,,,,,,,,SPECI,802.0
PAFR 010636Z AUTO 00000KT 10SM BKN025 OVC031 08/04 A2988 RMK AO2 RAB24E36 SLP125 $,PAFR,2023-06-01T06:36:00Z,61.27,-149.65,8.0,4.0,0,0,,10.0,29.878937,1012.5,,TRUE,TRUE,TRUE,,,,,,BKN,2500,OVC,3100,,,,,MVFR,,,,,,,,,,,,METAR,106.0
KTDR 010636Z AUTO 07007KT 10SM -RA FEW080 OVC130 22/21 A2986 RMK AO2 LTG DSNT SW RAB36 SLP115 $,KTDR,2023-06-01T06:36:00Z,30.05,-85.52,22.0,21.0,70,7,,10.0,29.861221,1011.5,,TRUE,TRUE,TRUE,,,,,-RA,FEW,8000,OVC,13000,,,,,VFR,,,,,,,,,,,,METAR,4.0
KISM 010636Z AUTO 05004KT 10SM BKN019 23/21 A2989 RMK AO2 PNO $,KISM,2023-06-01T06:36:00Z,28.28,-81.43,23.0,21.0,50,4,,10.0,29.890747,,,TRUE,TRUE,TRUE,,,,,,BKN,1900,,,,,,,MVFR,,,,,,,,,,,,SPECI,25.0
KI69 010636Z AUTO 00000KT 10SM CLR 17/15 A3007 RMK AO1 T01720154,KI69,2023-06-01T06:36:00Z,39.08,-84.22,17.2,15.4,0,0,,10.0,30.070866,,,TRUE,TRUE,,,,,,,CLR,,,,,,,,VFR,,,,,,,,,,,,METAR,238.0
KCQM 010636Z AUTO 00000KT 7SM CLR 17/16 A2995 RMK AO2,KCQM,2023-06-01T06:36:00Z,47.82,-92.68,17.0,16.0,0,0,,7.0,29.949802,,,TRUE,TRUE,,,,,,,CLR,,,,,,,,VFR,,,,,,,,,,,,SPECI,406.0
KAUM 010636Z AUTO 15004KT 10SM CLR 21/17 A2995 RMK AO2,KAUM,2023-06-01T06:36:00Z,43.67,-92.92,21.0,17.0,150,4,,10.0,29.949802,,,TRUE,TRUE,,,,,,,CLR,,,,,,,,VFR,,,,,,,,,,,,METAR,376.0
KAPS 010636Z AUTO 00000KT 10SM CLR 21/20 A2990 RMK AO2,KAPS,2023-06-01T06:36:00Z,30.08,-90.58,21.0,20.0,0,0,,10.0,29.899607,,,TRUE,TRUE,,,,,,,CLR,,,,,,,,VFR,,,,,,,,,,,,METAR,1.0
EBBE 010636Z 02008KT 6000 BKN006 11/10 Q1023 YLO GRN TEMPO YLO,EBBE,2023-06-01T06:36:00Z,50.75,4.77,11.0,10.0,20,8,,3.73,30.206694,,,,,,,,,,,BKN,600,,,,,,,IFR,,,,,,,,,,,,METAR,127.0
CYZV 010636Z 00000KT 2 1/2SM FU OVC170 17/13 A2985 RMK FG7AC1 SLP109 DENSITY ALT 500FT,CYZV,2023-06-01T06:36:00Z,50.22,-66.27,17.0,13.0,0,0,,2.5,29.84941,1010.9,,,,,,,,,FU,OVC,17000,,,,,,,IFR,,,,,,,,,,,,SPECI,43.0
TJPS 010635Z AUTO 06004KT 10SM BKN020 BKN028 BKN035 26/23 A2995 RMK AO2 TSNO,TJPS,2023-06-01T06:35:00Z,18.02,-66.57,26.0,23.0,60,4,,10.0,29.949802,,,TRUE,TRUE,,,TRUE,,,,BKN,2000,BKN,2800,BKN,3500,,,MVFR,,,,,,,,,,,,METAR,12.0
PAKX 010635Z AUTO 00000KT 10SM BKN080 10/01 A2990 RMK AO2,PAKX,2023-06-01T06:35:00Z,60.2,-154.32,10.0,1.0,0,0,,10.0,29.899607,,,TRUE,TRUE,,,,,,,BKN,8000,,,,,,,VFR,,,,,,,,,,,,METAR,88.0
PAAD 010635Z 28020KT 3SM SCT007 OVC070 M02/M02 A2982 RMK AO2 T10161018 PWINO,PAAD,2023-06-01T06:35:00Z,70.13,-146.28,-1.6,-1.8,280,20,,3.0,29.819881,,,,TRUE,,,,,TRUE,,SCT,700,OVC,7000,,,,,MVFR,,,,,,,,,,,,SPECI,8.0
KZPH 010635Z AUTO 04005KT 10SM OVC029 21/21 A2988 RMK A02 T02140207,KZPH,2023-06-01T06:35:00Z,28.23,-82.15,21.4,20.7,40,5,,10.0,29.878937,,,TRUE,TRUE,,,,,,,OVC,2900,,,,,,,MVFR,,,,,,,,,,,,METAR,26.0
KZER 010635Z AUTO 11005KT 10SM CLR 13/02 A3017 RMK AO2,KZER,2023-06-01T06:35:00Z,40.7,-76.37,13.0,2.0,110,5,,10.0,30.171259,,,TRUE,TRUE,,,,,,,CLR,,,,,,,,VFR,,,,,,,,,,,,METAR,518.0
KY70 010635Z AUTO 12006KT 10SM CLR 19/10 A3006 RMK AO2 T01900096,KY70,2023-06-01T06:35:00Z,42.93,-85.07,19.0,9.6,120,6,,10.0,30.059055,,,TRUE,TRUE,,,,,,,CLR,,,,,,,,VFR,,,,,,,,,,,,METAR,247.0
KY63 010635Z AUTO 12007KT 10SM CLR 18/14 A2988 RMK AO2 T01820138,KY63,2023-06-01T06:35:00Z,45.98,-96.0,18.2,13.8,120,7,,10.0,29.878937,,,TRUE,TRUE,,,,,,,CLR,,,,,,,,VFR,,,,,,,,,,,,SPECI,367.0
KY51 010635Z AUTO 14006KT 10SM SCT085 21/16 A2999 RMK AO1 T02060161,KY51,2023-06-01T06:35:00Z,43.58,-90.9,20.6,16.1,140,6,,10.0,29.991142,,,TRUE,TRUE,,,,,,,SCT,8500,,,,,,,VFR,,,,,,,,,,,,SPECI,390.0
KY49 010635Z AUTO 07003KT 10SM CLR 18/17 A2993 RMK AO2 T01820170,KY49,2023-06-01T06:35:00Z,47.15,-94.65,18.2,17.0,70,3,,10.0,29.929134,,,TRUE,TRUE,,,,,,,CLR,,,,,,,,VFR,,,,,,,,,,,,SPECI,413.0
KY31 010635Z AUTO 00000KT 10SM CLR 12/10 A3010 RMK AO2 T01190104,KY31,2023-06-01T06:35:00Z,44.25,-84.18,11.9,10.4,0,0,,10.0,30.100393,,,TRUE,TRUE,,,,,,,CLR,,,,,,,,VFR,,,,,,,,,,,,METAR,264.0
KY23 010635Z AUTO 10003KT 10SM CLR 21/16 A2996 RMK AO2 T02140156,KY23,2023-06-01T06:35:00Z,45.3,-91.63,21.4,15.6,100,3,,10.0,29.958662,,,TRUE,TRUE,,,,,,,CLR,,,,,,,,VFR,,,,,,,,,,,,METAR,322.0
KY19 010635Z AUTO 07005KT 10SM CLR 15/15 A2986 RMK AO2,KY19,2023-06-01T06:35:00Z,46.77,-100.9,15.0,15.0,70,5,,10.0,29.861221,,,TRUE,TRUE,,,,,,,CLR,,,,,,,,VFR,,,,,,,,,,,,SPECI,591.0
KXSA 010635Z AUTO 00000KT 4SM BR SCT023 14/14 A3009 RMK AO2 T01400140,KXSA,2023-06-01T06:35:00Z,37.87,-76.9,14.0,14.0,0,0,,4.0,30.088583,,,TRUE,TRUE,,,,,,BR,SCT,2300,,,,,,,MVFR,,,,,,,,,,,,SPECI,41.0
KXNX 010635Z AUTO 00000KT 10SM CLR 18/18 A3005 RMK A01,KXNX,2023-06-01T06:35:00Z,36.38,-86.42,18.0,18.0,0,0,,10.0,30.050198,,,TRUE,TRUE,,,,,,,CLR,,,,,,,,VFR,,,,,,,,,,,,SPECI,178.0
KXLL 010635Z AUTO 00000KT 10SM CLR 12/08 A3016 RMK AO2,KXLL,2023-06-01T06:35:00Z,40.57,-75.48,12.0,8.0,0,0,,10.0,30.159449,,,TRUE,TRUE,,,,,,,CLR,,,,,,,,VFR,,,,,,,,,,,,METAR,118.0
KX60 010635Z AUTO 05005KT 10SM CLR 23/20 A2990 RMK AO2 T02280200,KX60,2023-06-01T06:35:00Z,29.35,-82.47,22.8,20.0,50,5,,10.0,29.899607,,,TRUE,TRUE,,,,,,,CLR,,,,,,,,VFR,,,,,,,,,,,,SPECI,21.0
KX07 010635Z AUTO 00000KT 10SM CLR 22/22 A2987 RMK A01,KX07,2023-06-01T06:35:00Z,27.9,-81.62,22.0,22.0,0,0,,10.0,29.870079,,,TRUE,TRUE,,,,,,,CLR,,,,,,,,VFR,,,,,,,,,,,,SPECI,36.0
KWYS 010635Z AUTO 00000KT 10SM CLR 08/07 A2996 RMK AO2,KWYS,2023-06-01T06:35:00Z,44.68,-111.12,8.0,7.0,0,0,,10.0,29.958662,,,TRUE,TRUE,,,,,,,CLR,,,,,,,,VFR,,,,,,,,,,,,SPECI,2025.0
KWWR 010635Z AUTO 29008G14KT 10SM -RA OVC027 18/15 A2996 RMK AO2 LTG DSNT W AND NW,KWWR,2023-06-01T06:35:00Z,36.45,-99.52,18.0,15.0,290,8,14,10.0,29.958662,,,TRUE,TRUE,,,,,,-RA,OVC,2700,,,,,,,MVFR,,,,,,,,,,,,SPECI,664.0
KWDR 010635Z AUTO 00000KT 10SM CLR 16/15 A3007 RMK AO2,KWDR,2023-06-01T06:35:00Z,33.98,-83.67,16.0,15.0,0,0,,10.0,30.070866,,,TRUE,TRUE,,,,,,,CLR,,,,,,,,VFR,,,,,,,,,,,,METAR,280.0
KWDG 010635Z AUTO 16005KT 10SM CLR 19/18 A2986 RMK AO2,KWDG,2023-06-01T06:35:00Z,36.37,-97.78,19.0,18.0,160,5,,10.0,29.861221,,,TRUE,TRUE,,,,,,,CLR,,,,,,,,VFR,,,,,,,,,,,,SPECI,352.0
KW96 010635Z AUTO 00000KT 10SM CLR 14/14 A3007 RMK AO1 T01420139,KW96,2023-06-01T06:35:00Z,37.5,-77.12,14.2,13.9,0,0,,10.0,30.070866,,,TRUE,TRUE,,,,,,,CLR,,,,,,,,VFR,,,,,,,,,,,,METAR,35.0
KW81 010635Z AUTO 00000KT 4SM CLR 12/10 A3007 RMK AO1 T01180104,KW81,2023-06-01T06:35:00Z,37.18,-78.1,11.8,10.4,0,0,,4.0,30.070866,,,TRUE,TRUE,,,,,,,CLR,,,,,,,,MVFR,,,,,,,,,,,,SPECI,121.0
KW78 010635Z AUTO 00000KT 10SM CLR 13/13 A3008 RMK AO1 T01330125,KW78,2023-06-01T06:35:00Z,36.7,-78.85,13.3,12.5,0,0,,10.0,30.079725,,,TRUE,TRUE,,,,,,,CLR,,,,,,,,VFR,,,,,,,,,,,,SPECI,120.0
KW75 010635Z AUTO 34004KT 10SM OVC012 18/16 A3006 RMK AO1 T01790160,KW75,2023-06-01T06:35:00Z,37.6,-76.45,17.9,16.0,340,4,,10.0,30.059055,,,TRUE,TRUE,,,,,,,OVC,1200,,,,,,,MVFR,,,,,,,,,,,,SPECI,8.0
KW63 010635Z AUTO 00000KT 10SM CLR 17/17 A3007 RMK AO1,KW63,2023-06-01T06:35:00Z,36.6,-78.55,17.0,17.0,0,0,,10.0,30.070866,,,TRUE,TRUE,,,,,,,CLR,,,,,,,,VFR,,,,,,,,,,,,SPECI,126.0
KW43 010635Z AUTO 21007KT 10SM CLR 16/09 A2988 RMK AO2,KW43,2023-06-01T06:35:00Z,44.67,-104.57,16.0,9.0,210,7,,10.0,29.878937,,,TRUE,TRUE,,,,,,,CLR,,,,,,,,VFR,,,,,,,,,,,,METAR,1292.0
KW31 010635Z AUTO 35004KT 10SM CLR M31/M31 A3007 RMK AO1 T13111314,KW31,2023-06-01T06:35:00Z,36.95,-78.18,-31.1,-31.4,350,4,,10.0,30.070866,,,TRUE,TRUE,,,,,,,CLR,,,,,,,,VFR,,,,,,,,,,,,SPECI,159.0
KW22 010635Z AUTO 00000KT 10SM CLR 15/12 A3010 RMK AO2,KW22,2023-06-01T06:35:00Z,39.0,-80.27,15.0,12.0,0,0,,10.0,30.100393,,,TRUE,TRUE,,,,,,,CLR,,,,,,,,VFR,,,,,,,,,,,,METAR,497.0
KW13 010635Z AUTO 00000KT 10SM CLR 11/11 A3013 RMK AO1 T01120109,KW13,2023-06-01T06:35:00Z,38.08,-78.95,11.2,10.9,0,0,,10.0,30.129921,,,TRUE,TRUE,,,,,,,CLR,,,,,,,,VFR,,,,,,,,,,,,SPECI,440.0
KVYS 010635Z AUTO 00000KT 10SM CLR 21/16 A2999 RMK AO2 T02110159,KVYS,2023-06-01T06:35:00Z,41.35,-89.15,21.1,15.9,0,0,,10.0,29.991142,,,TRUE,TRUE,,,,,,,CLR,,,,,,,,VFR,,,,,,,,,,,,METAR,198.0
KVWU 010635Z AUTO 00000KT 7SM CLR 18/17 A2992 RMK AO2,KVWU,2023-06-01T06:35:00Z,48.15,-94.52,18.0,17.0,0,0,,7.0,29.920275,,,TRUE,TRUE,,,,,,,CLR,,,,,,,,VFR,,,,,,,,,,,,SPECI,359.0
KVVV 010635Z AUTO 12007KT 10SM CLR 18/16 A2985 RMK AO2,KVVV,2023-06-01T06:35:00Z,45.3,-96.42,18.0,16.0,120,7,,10.0,29.84941,,,TRUE,TRUE,,,,,,,CLR,,,,,,,,VFR,,,,,,,,,,,,METAR,334.0
KVTP 010635Z AUTO 26008KT 10SM CLR 02/01 A3014 RMK AO2,KVTP,2023-06-01T06:35:00Z,37.5,-105.17,2.0,1.0,260,8,,10.0,30.138779,,,TRUE,TRUE,,,,,,,CLR,,,,,,,,VFR,,,,,,,,,,,,METAR,3086.0
KVTI 010635Z AUTO 15003KT 10SM CLR 22/17 A2996 RMK AO2 T02160166,KVTI,2023-06-01T06:35:00Z,42.22,-92.02,21.6,16.6,150,3,,10.0,29.958662,,,TRUE,TRUE,,,,,,,CLR,,,,,,,,VFR,,,,,,,,,,,,METAR,256.0
KVQQ 010635Z AUTO 00000KT 10SM FEW017 22/22 A2993 RMK AO2,KVQQ,2023-06-01T06:35:00Z,30.22,-81.88,22.0,22.0,0,0,,10.0,29.929134,,,TRUE,TRUE,,,,,,,FEW,1700,,,,,,,VFR,,,,,,,,,,,,SPECI,21.0
KVPC 010635Z AUTO 00000KT 10SM CLR 19/17 A3005 RMK AO2,KVPC,2023-06-01T06:35:00Z,34.1,-84.85,19.0,17.0,0,0,,10.0,30.050198,,,TRUE,TRUE,,,,,,,CLR,,,,,,,,VFR,,,,,,,,,,,,SPECI,234.0
KVOA 010635Z AUTO 09020KT 10SM FEW016 FEW070 SCT090 25/20 A2987 RMK A01,KVOA,2023-06-01T06:35:00Z,29.23,-87.78,25.0,20.0,90,20,,10.0,29.870079,,,TRUE,TRUE,,,,,,,FEW,1600,FEW,7000,SCT,9000,,,VFR,,,,,,,,,,,,SPECI,53.0
KVNW 010635Z AUTO 17003KT 10SM CLR 21/12 A3007 RMK AO2,KVNW,2023-06-01T06:35:00Z,40.87,-84.62,21.0,12.0,170,3,,10.0,30.070866,,,TRUE,TRUE,,,,,,,CLR,,,,,,,,VFR,,,,,,,,,,,,METAR,238.0
KVNC 010635Z AUTO 10007G13KT 10SM CLR 22/22 A2985 RMK AO2,KVNC,2023-06-01T06:35:00Z,27.07,-82.43,22.0,22.0,100,7,13,10.0,29.84941,,,TRUE,TRUE,,,,,,,CLR,,,,,,,,VFR,,,,,,,,,,,,SPECI,4.0
KVLL 010635Z AUTO 00000KT 10SM CLR 19/11 A3012 RMK AO2 T01910113,KVLL,2023-06-01T06:35:00Z,42.55,-83.18,19.1,11.3,0,0,,10.0,30.121063,,,TRUE,TRUE,,,,,,,CLR,,,,,,,,VFR,,,,,,,,,,,,METAR,214.0
KVKY 010635Z AUTO 08020KT 10SM FEW030 A2988 RMK A01,KVKY,2023-06-01T06:35:00Z,29.25,-88.43,,,80,20,,10.0,29.878937,,,TRUE,TRUE,,,,,,,FEW,3000,,,,,,,VFR,,,,,,,,,,,,SPECI,32.0
KVKS 010635Z AUTO 00000KT 10SM CLR 21/M38 A2990 RMK A01,KVKS,2023-06-01T06:35:00Z,32.23,-90.93,21.0,-38.0,0,0,,10.0,29.899607,,,TRUE,TRUE,,,,,,,CLR,,,,,,,,VFR,,,,,,,,,,,,SPECI,31.0
KVJI 010635Z AUTO 10003KT 10SM CLR 15/12 A3011 RMK AO2 T01500121,KVJI,2023-06-01T06:35:00Z,36.68,-82.03,15.0,12.1,100,3,,10.0,30.109253,,,TRUE,TRUE,,,,,,,CLR,,,,,,,,VFR,,,,,,,,,,,,SPECI,636.0
KVHN 010635Z AUTO 19012G20KT 10SM CLR 25/15 A2985 RMK AO2 T02480151,KVHN,2023-06-01T06:35:00Z,31.07,-104.78,24.8,15.1,190,12,20,10.0,29.84941,,,TRUE,TRUE,,,,,,,CLR,,,,,,,,VFR,,,,,,,,,,,,METAR,1200.0
KVGC 010635Z AUTO 00000KT 10SM CLR 12/12 A3015 RMK AO2,KVGC,2023-06-01T06:35:00Z,42.85,-75.57,12.0,12.0,0,0,,10.0,30.15059,,,TRUE,TRUE,,,,,,,CLR,,,,,,,,VFR,,,,,,,,,,,,SPECI,346.0
KVER 010635Z AUTO 00000KT 10SM CLR 20/18 A2996 RMK AO2 T02030184,KVER,2023-06-01T06:35:00Z,38.95,-92.68,20.3,18.4,0,0,,10.0,29.958662,,,TRUE,TRUE,,,,,,,CLR,,,,,,,,VFR,,,,,,,,,,,,SPECI,209.0
KVDI 010635Z AUTO 08003KT 10SM CLR 21/18 A3000 RMK AO2,KVDI,2023-06-01T06:35:00Z,32.2,-82.37,21.0,18.0,80,3,,10.0,30.0,,,TRUE,TRUE,,,,,,,CLR,,,,,,,,VFR,,,,,,,,,,,,SPECI,81.0
KVDF 010635Z AUTO 00000KT 10SM SCT016 BKN120 22/21 A2987 RMK AO2,KVDF,2023-06-01T06:35:00Z,28.02,-82.33,22.0,21.0,0,0,,10.0,29.870079,,,TRUE,TRUE,,,,,,,SCT,1600,BKN,12000,,,,,VFR,,,,,,,,,,,,SPECI,5.0
KVCV 010635Z AUTO 17014KT 10SM FEW037 13/07 A2987 RMK AO2,KVCV,2023-06-01T06:35:00Z,34.58,-117.38,13.0,7.0,170,14,,10.0,29.870079,,,TRUE,TRUE,,,,,,,FEW,3700,,,,,,,VFR,,,,,,,,,,,,METAR,871.0
KVBW 010635Z AUTO 00000KT 10SM CLR 11/11 A3012 RMK AO1 T01080108,KVBW,2023-06-01T06:35:00Z,38.37,-78.97,10.8,10.8,0,0,,10.0,30.121063,,,TRUE,TRUE,,,,,,,CLR,,,,,,,,VFR,,,,,,,,,,,,SPECI,362.0
KVAF 010635Z AUTO 10010KT 10SM 27/20 A2988 RMK A01,KVAF,2023-06-01T06:35:00Z,27.35,-94.63,27.0,20.0,100,10,,10.0,29.878937,,,TRUE,TRUE,,,,,,,,,,,,,,,,,,,,,,,,,,,METAR,38.0
KUYF 010635Z AUTO 00000KT 10SM CLR 15/11 A3008 RMK AO2,KUYF,2023-06-01T06:35:00Z,39.93,-83.47,15.0,11.0,0,0,,10.0,30.079725,,,TRUE,TRUE,,,,,,,CLR,,,,,,,,VFR,,,,,,,,,,,,METAR,326.0
KUXL 010635Z AUTO 00000KT 10SM CLR 21/19 A2989 RMK AO2 T02070192,KUXL,2023-06-01T06:35:00Z,30.13,-93.38,20.7,19.2,0,0,,10.0,29.890747,,,TRUE,TRUE,,,,,,,CLR,,,,,,,,VFR,,,,,,,,,,,,SPECI,2.0
KUVA 010635Z AUTO 12007KT 22/22 A2987 RMK AO2 T02230223 PWINO,KUVA,2023-06-01T06:35:00Z,29.22,-99.75,22.3,22.3,120,7,,,29.870079,,,TRUE,TRUE,,,,,TRUE,,,,,,,,,,,,,,,,,,,,,,METAR,285.0
KUUV 010635Z AUTO 00000KT 10SM CLR 18/16 A3001 RMK AO2,KUUV,2023-06-01T06:35:00Z,38.23,-91.17,18.0,16.0,0,0,,10.0,30.008858,,,TRUE,TRUE,,,,,,,CLR,,,,,,,,VFR,,,,,,,,,,,,SPECI,284.0
KUTA 010635Z AUTO 00000KT 10SM CLR 21/20 A2996 RMK AO2 T02120198 $,KUTA,2023-06-01T06:35:00Z,34.68,-90.35,21.2,19.8,0,0,,10.0,29.958662,,,TRUE,TRUE,TRUE,,,,,,CLR,,,,,,,,VFR,,,,,,,,,,,,SPECI,58.0
KUSE 010635Z AUTO 06005KT 10SM FEW080 18/11 A3007 RMK AO2,KUSE,2023-06-01T06:35:00Z,41.62,-84.13,18.0,11.0,60,5,,10.0,30.070866,,,TRUE,TRUE,,,,,,,FEW,8000,,,,,,,VFR,,,,,,,,,,,,METAR,237.0
KUOX 010635Z AUTO 00000KT 10SM CLR 19/18 A2998 RMK AO2,KUOX,2023-06-01T06:35:00Z,34.38,-89.53,19.0,18.0,0,0,,10.0,29.97933,,,TRUE,TRUE,,,,,,,CLR,,,,,,,,VFR,,,,,,,,,,,,SPECI,123.0
KUNV 010635Z AUTO 24003KT 10SM CLR 13/06 A3014 RMK AO2 T01320057,KUNV,2023-06-01T06:35:00Z,40.85,-77.83,13.2,5.7,240,3,,10.0,30.138779,,,TRUE,TRUE,,,,,,,CLR,,,,,,,,VFR,,,,,,,,,,,,METAR,365.0
KUNU 010635Z AUTO 00000KT 10SM CLR 18/18 A3003 RMK AO2 T01790175,KUNU,2023-06-01T06:35:00Z,43.42,-88.7,17.9,17.5,0,0,,10.0,30.029528,,,TRUE,TRUE,,,,,,,CLR,,,,,,,,VFR,,,,,,,,,,,,SPECI,281.0
KUNI 010635Z AUTO 00000KT 10SM CLR 15/14 A3007 RMK AO2 T01450135,KUNI,2023-06-01T06:35:00Z,39.22,-82.23,14.5,13.5,0,0,,10.0,30.070866,,,TRUE,TRUE,,,,,,,CLR,,,,,,,,VFR,,,,,,,,,,,,METAR,232.0
KUMP 010635Z AUTO 14004KT 10SM CLR 20/18 A3004 RMK AO2 T01990175,KUMP,2023-06-01T06:35:00Z,39.93,-86.05,19.9,17.5,140,4,,10.0,30.041338,,,TRUE,TRUE,,,,,,,CLR,,,,,,,,VFR,,,,,,,,,,,,METAR,247.0
KULM 010635Z AUTO 15008KT 10SM CLR 20/16 A2989 RMK AO2,KULM,2023-06-01T06:35:00Z,44.32,-94.5,20.0,16.0,150,8,,10.0,29.890747,,,TRUE,TRUE,,,,,,,CLR,,,,,,,,VFR,,,,,,,,,,,,METAR,305.0
KUKT 010635Z AUTO 00000KT 10SM CLR 08/07 A3015 RMK A01,KUKT,2023-06-01T06:35:00Z,40.43,-75.38,8.0,7.0,0,0,,10.0,30.15059,,,TRUE,TRUE,,,,,,,CLR,,,,,,,,VFR,,,,,,,,,,,,SPECI,156.0
KUKL 010635Z AUTO 16006KT 10SM SCT050 21/18 A2993 RMK AO2 T02100176,KUKL,2023-06-01T06:35:00Z,38.3,-95.73,21.0,17.6,160,6,,10.0,29.929134,,,TRUE,TRUE,,,,,,,SCT,5000,,,,,,,VFR,,,,,,,,,,,,METAR,357.0
KUES 010635Z AUTO 00000KT 10SM CLR 15/15 A3004 RMK AO2,KUES,2023-06-01T06:35:00Z,43.05,-88.25,15.0,15.0,0,0,,10.0,30.041338,,,TRUE,TRUE,,,,,,,CLR,,,,,,,,VFR,,,,,,,,,,,,SPECI,273.0
KUCY 010635Z AUTO 00000KT 10SM CLR 19/19 A2997 RMK A01,KUCY,2023-06-01T06:35:00Z,36.38,-88.98,19.0,19.0,0,0,,10.0,29.970472,,,TRUE,TRUE,,,,,,,CLR,,,,,,,,VFR,,,,,,,,,,,,SPECI,97.0
KUBE 010635Z AUTO 11003KT 10SM CLR 19/16 A2996 RMK AO2,KUBE,2023-06-01T06:35:00Z,45.5,-91.98,19.0,16.0,110,3,,10.0,29.958662,,,TRUE,TRUE,,,,,,,CLR,,,,,,,,VFR,,,,,,,,,,,,SPECI,376.0
KU69 010635Z AUTO 02009KT 10SM FEW120 15/M01 A2986 RMK A01,KU69,2023-06-01T06:35:00Z,40.2,-110.38,15.0,-1.0,20,9,,10.0,29.861221,,,TRUE,TRUE,,,,,,,FEW,12000,,,,,,,VFR,,,,,,,,,,,,METAR,1776.0
KU64 010635Z AUTO 24007KT 10SM FEW120 OVC150 10/04 A2996 RMK AO2 T01030041 $,KU64,2023-06-01T06:35:00Z,,,10.3,4.1,240,7,,10.0,29.958662,,,TRUE,TRUE,TRUE,,,,,,FEW,12000,OVC,15000,,,,,VFR,,,,,,,,,,,,SPECI,
KU55 010635Z AUTO 00000KT 10SM FEW041 BKN050 07/M03 A2995 RMK A01,KU55,2023-06-01T06:35:00Z,37.85,-112.38,7.0,-3.0,0,0,,10.0,29.949802,,,TRUE,TRUE,,,,,,,FEW,4100,BKN,5000,,,,,VFR,,,,,,,,,,,,METAR,2060.0
KU42 010635Z AUTO 30006KT 10SM CLR 19/00 A2981 RMK AO1 T01850002,KU42,2023-06-01T06:35:00Z,40.62,-111.98,18.5,0.2,300,6,,10.0,29.811024,,,TRUE,TRUE,,,,,,,CLR,,,,,,,,VFR,,,,,,,,,,,,SPECI,1399.0
KTZR 010635Z AUTO 00000KT 10SM CLR 19/15 A3008 RMK AO2 T01890148,KTZR,2023-06-01T06:35:00Z,39.9,-83.13,18.9,14.8,0,0,,10.0,30.079725,,,TRUE,TRUE,,,,,,,CLR,,,,,,,,VFR,,,,,,,,,,,,METAR,275.0
KTYQ 010635Z AUTO 00000KT 10SM CLR 18/16 A3005 RMK AO2 T01780160,KTYQ,2023-06-01T06:35:00Z,40.03,-86.25,17.8,16.0,0,0,,10.0,30.050198,,,TRUE,TRUE,,,,,,,CLR,,,,,,,,VFR,,,,,,,,,,,,METAR,279.0
KTYL 010635Z AUTO 23010KT 10SM CLR 13/M04 A2995 RMK AO2,KTYL,2023-06-01T06:35:00Z,34.45,-110.12,13.0,-4.0,230,10,,10.0,29.949802,,,TRUE,TRUE,,,,,,,CLR,,,,,,,,VFR,,,,,,,,,,,,SPECI,1748.0
KTXW 010635Z AUTO 13006KT 10SM CLR 24/21 A2983 RMK AO2 T02370210,KTXW,2023-06-01T06:35:00Z,26.18,-97.97,23.7,21.0,130,6,,10.0,29.828741,,,TRUE,TRUE,,,,,,,CLR,,,,,,,,VFR,,,,,,,,,,,,METAR,21.0
KTWT 010635Z AUTO 00000KT 10SM CLR 20/17 A2999 RMK AO2,KTWT,2023-06-01T06:35:00Z,37.55,-87.95,20.0,17.0,0,0,,10.0,29.991142,,,TRUE,TRUE,,,,,,,CLR,,,,,,,,VFR,,,,,,,,,,,,SPECI,113.0
KTWM 010635Z AUTO 00000KT 10SM CLR 12/12 A2996 RMK AO2,KTWM,2023-06-01T06:35:00Z,47.05,-91.75,12.0,12.0,0,0,,10.0,29.958662,,,TRUE,TRUE,,,,,,,CLR,,,,,,,,VFR,,,,,,,,,,,,SPECI,331.0
KTVY 010635Z AUTO 06003KT 10SM CLR 20/M02 A2981 RMK AO2,KTVY,2023-06-01T06:35:00Z,40.62,-112.35,20.0,-2.0,60,3,,10.0,29.811024,,,TRUE,TRUE,,,,,,,CLR,,,,,,,,VFR,,,,,,,,,,,,SPECI,1310.0
KTVK 010635Z AUTO 00000KT 10SM SCT040 BKN055 BKN075 20/20 A2996 RMK AO2,KTVK,2023-06-01T06:35:00Z,40.68,-92.9,20.0,20.0,0,0,,10.0,29.958662,,,TRUE,TRUE,,,,,,,SCT,4000,BKN,5500,BKN,7500,,,VFR,,,,,,,,,,,,METAR,311.0
KTVI 010635Z AUTO 09006KT 10SM BKN110 20/20 A2996 RMK AO2,KTVI,2023-06-01T06:35:00Z,30.9,-83.88,20.0,20.0,90,6,,10.0,29.958662,,,TRUE,TRUE,,,,,,,BKN,11000,,,,,,,VFR,,,,,,,,,,,,METAR,74.0
KTTF 010635Z AUTO 00000KT 10SM CLR 16/14 A3008 RMK AO2 T01570138,KTTF,2023-06-01T06:35:00Z,41.93,-83.42,15.7,13.8,0,0,,10.0,30.079725,,,TRUE,TRUE,,,,,,,CLR,,,,,,,,VFR,,,,,,,,,,,,SPECI,186.0
KTSP 010635Z AUTO 30010KT 9SM CLR 13/07 A2993 RMK AO2,KTSP,2023-06-01T06:35:00Z,35.13,-118.43,13.0,7.0,300,10,,9.0,29.929134,,,TRUE,TRUE,,,,,,,CLR,,,,,,,,VFR,,,,,,,,,,,,SPECI,1209.0
KTQV 010635Z AUTO 03007KT 10SM CLR 18/16 A3006 RMK A01,KTQV,2023-06-01T06:35:00Z,36.0,-78.93,18.0,16.0,30,7,,10.0,30.059055,,,TRUE,TRUE,,,,,,,CLR,,,,,,,,VFR,,,,,,,,,,,,SPECI,230.0
KTQK 010635Z AUTO 19008KT 10SM CLR 17/14 A2989 RMK AO2 T01650139,KTQK,2023-06-01T06:35:00Z,38.47,-100.88,16.5,13.9,190,8,,10.0,29.890747,,,TRUE,TRUE,,,,,,,CLR,,,,,,,,VFR,,,,,,,,,,,,METAR,906.0
KTQH 010635Z AUTO 00000KT 10SM CLR 20/15 A2995 RMK AO2,KTQH,2023-06-01T06:35:00Z,35.93,-95.0,20.0,15.0,0,0,,10.0,29.949802,,,TRUE,TRUE,,,,,,,CLR,,,,,,,,VFR,,,,,,,,,,,,SPECI,265.0
KTPF 010635Z AUTO 05007KT 10SM CLR 22/22 A2987 RMK AO2,KTPF,2023-06-01T06:35:00Z,27.92,-82.45,22.0,22.0,50,7,,10.0,29.870079,,,TRUE,TRUE,,,,,,,CLR,,,,,,,,VFR,,,,,,,,,,,,SPECI,1.0
KTOC 010635Z AUTO 00000KT 10SM CLR 17/16 A3007 RMK AO2 T01710161,KTOC,2023-06-01T06:35:00Z,34.6,-83.3,17.1,16.1,0,0,,10.0,30.070866,,,TRUE,TRUE,,,,,,,CLR,,,,,,,,VFR,,,,,,,,,,,,METAR,292.0
KTOB 010635Z AUTO 14004KT 10SM CLR 20/14 A2995 RMK AO2,KTOB,2023-06-01T06:35:00Z,44.02,-92.82,20.0,14.0,140,4,,10.0,29.949802,,,TRUE,TRUE,,,,,,,CLR,,,,,,,,VFR,,,,,,,,,,,,SPECI,394.0
KTNU 010635Z AUTO 18004KT 10SM FEW050 21/18 A2994 RMK A01,KTNU,2023-06-01T06:35:00Z,41.67,-93.02,21.0,18.0,180,4,,10.0,29.940945,,,TRUE,TRUE,,,,,,,FEW,5000,,,,,,,VFR,,,,,,,,,,,,METAR,287.0
KTNB 010635Z AUTO 00000KT 10SM BKN010 OVC026 11/11 A3017 RMK AO2 T01070107,KTNB,2023-06-01T06:35:00Z,36.2,-81.65,10.7,10.7,0,0,,10.0,30.171259,,,TRUE,TRUE,,,,,,,BKN,1000,OVC,2600,,,,,MVFR,,,,,,,,,,,,SPECI,958.0
KTMT 010635Z AUTO 00000KT 10SM BKN075 OVC110 12/06 A2996 RMK AO2 T01150057,KTMT,2023-06-01T06:35:00Z,39.47,-117.2,11.5,5.7,0,0,,10.0,29.958662,,,TRUE,TRUE,,,,,,,BKN,7500,OVC,11000,,,,,VFR,,,,,,,,,,,,METAR,1748.0
KTMK 010635Z AUTO 00000KT 10SM CLR 07/06 A3014 RMK AO2,KTMK,2023-06-01T06:35:00Z,45.42,-123.82,7.0,6.0,0,0,,10.0,30.138779,,,TRUE,TRUE,,,,,,,CLR,,,,,,,,VFR,,,,,,,,,,,,METAR,8.0
KTME 010635Z AUTO 13003KT 10SM CLR 22/21 A2989 RMK AO2,KTME,2023-06-01T06:35:00Z,29.8,-95.9,22.0,21.0,130,3,,10.0,29.890747,,,TRUE,TRUE,,,,,,,CLR,,,,,,,,VFR,,,,,,,,,,,,SPECI,49.0
KTMA 010635Z AUTO 00000KT 10SM BKN110 OVC150 20/19 A2999 RMK AO2 T02040187 $,KTMA,2023-06-01T06:35:00Z,31.43,-83.48,20.4,18.7,0,0,,10.0,29.991142,,,TRUE,TRUE,TRUE,,,,,,BKN,11000,OVC,15000,,,,,VFR,,,,,,,,,,,,SPECI,105.0
KTKX 010635Z AUTO 00000KT 9SM CLR 21/19 A2996 RMK AO2,KTKX,2023-06-01T06:35:00Z,36.22,-90.03,21.0,19.0,0,0,,9.0,29.958662,,,TRUE,TRUE,,,,,,,CLR,,,,,,,,VFR,,,,,,,,,,,,SPECI,73.0
KTKV 010635Z AUTO 00000KT 10SM CLR 17/14 A3003 RMK AO2 T01740138 PWINO,KTKV,2023-06-01T06:35:00Z,45.47,-89.82,17.4,13.8,0,0,,10.0,30.029528,,,TRUE,TRUE,,,,,TRUE,,CLR,,,,,,,,VFR,,,,,,,,,,,,SPECI,449.0
KTKC 010635Z AUTO 17007KT 10SM CLR 19/18 A2988 RMK AO2,KTKC,2023-06-01T06:35:00Z,44.25,-95.62,19.0,18.0,170,7,,10.0,29.878937,,,TRUE,TRUE,,,,,,,CLR,,,,,,,,VFR,,,,,,,,,,,,SPECI,408.0
KTIP 010635Z AUTO 12003KT 10SM CLR 20/19 A3001 RMK AO2 T02040185,KTIP,2023-06-01T06:35:00Z,40.28,-88.15,20.4,18.5,120,3,,10.0,30.008858,,,TRUE,TRUE,,,,,,,CLR,,,,,,,,VFR,,,,,,,,,,,,METAR,224.0
KTIF 010635Z AUTO 00000KT 10SM CLR 14/13 A2989 RMK AO2 T01410126,KTIF,2023-06-01T06:35:00Z,41.97,-100.57,14.1,12.6,0,0,,10.0,29.890747,,,TRUE,TRUE,,,,,,,CLR,,,,,,,,VFR,,,,,,,,,,,,METAR,888.0
KTHA 010635Z AUTO 16004KT 10SM OVC120 19/17 A3003 RMK A01,KTHA,2023-06-01T06:35:00Z,35.38,-86.25,19.0,17.0,160,4,,10.0,30.029528,,,TRUE,TRUE,,,,,,,OVC,12000,,,,,,,VFR,,,,,,,,,,,,SPECI,333.0
KTGI 010635Z AUTO 02007KT 10SM OVC006 19/18 A3005 RMK AO1 T01870178,KTGI,2023-06-01T06:35:00Z,37.82,-75.98,18.7,17.8,20,7,,10.0,30.050198,,,TRUE,TRUE,,,,,,,OVC,600,,,,,,,IFR,,,,,,,,,,,,METAR,1.0
KTEX 010635Z AUTO 16005KT 10SM SCT090 06/01 A3011 RMK AO2,KTEX,2023-06-01T06:35:00Z,37.95,-107.9,6.0,1.0,160,5,,10.0,30.109253,,,TRUE,TRUE,,,,,,,SCT,9000,,,,,,,VFR,,,,,,,,,,,,METAR,2760.0
KTEW 010635Z AUTO 00000KT 10SM BKN080 21/09 A3008 RMK AO2 T02100094,KTEW,2023-06-01T06:35:00Z,42.57,-84.42,21.0,9.4,0,0,,10.0,30.079725,,,TRUE,TRUE,,,,,,,BKN,8000,,,,,,,VFR,,,,,,,,,,,,SPECI,281.0
KTCY 010635Z AUTO 00000KT 10SM CLR 16/07 A2981 RMK A01,KTCY,2023-06-01T06:35:00Z,37.68,-121.43,16.0,7.0,0,0,,10.0,29.811024,,,TRUE,TRUE,,,,,,,CLR,,,,,,,,VFR,,,,,,,,,,,,METAR,51.0
KTBX 010635Z AUTO 10SM SCT110 13/M02 A3006 RMK AO2,KTBX,2023-06-01T06:35:00Z,43.47,-108.23,13.0,-2.0,,,,10.0,30.059055,,,TRUE,TRUE,,,,,,,SCT,11000,,,,,,,VFR,,,,,,,,,,,,METAR,2230.0
KTBR 010635Z AUTO 00000KT 2SM CLR 18/17 A3000 RMK AO2 VIS 3/4V5 T01750165 PWINO,KTBR,2023-06-01T06:35:00Z,32.48,-81.73,17.5,16.5,0,0,,2.0,30.0,,,TRUE,TRUE,,,,,TRUE,,CLR,,,,,,,,IFR,,,,,,,,,,,,METAR,54.0
KTAZ 010635Z AUTO 00000KT 10SM CLR 20/16 A3000 RMK AO2 T02020162,KTAZ,2023-06-01T06:35:00Z,39.53,-89.33,20.2,16.2,0,0,,10.0,30.0,,,TRUE,TRUE,,,,,,,CLR,,,,,,,,VFR,,,,,,,,,,,,METAR,188.0
KT89 010635Z AUTO 12013KT 10SM CLR 27/13 A2974 RMK A01,KT89,2023-06-01T06:35:00Z,29.27,-103.68,27.0,13.0,120,13,,10.0,29.740158,,,TRUE,TRUE,,,,,,,CLR,,,,,,,,VFR,,,,,,,,,,,,SPECI,801.0
KT82 010635Z AUTO 15004KT 10SM CLR 21/19 A2989 RMK AO2 T02130190,KT82,2023-06-01T06:35:00Z,30.25,-98.92,21.3,19.0,150,4,,10.0,29.890747,,,TRUE,TRUE,,,,,,,CLR,,,,,,,,VFR,,,,,,,,,,,,SPECI,509.0
KT78 010635Z AUTO 00000KT 8SM FEW050 FEW065 20/20 A2988 RMK AO2,KT78,2023-06-01T06:35:00Z,30.08,-94.7,20.0,20.0,0,0,,8.0,29.878937,,,TRUE,TRUE,,,,,,,FEW,5000,FEW,6500,,,,,VFR,,,,,,,,,,,,METAR,21.0
KT74 010635Z AUTO 10SM CLR 22/20 A2988 RMK AO2 T02160199,KT74,2023-06-01T06:35:00Z,30.57,-97.45,21.6,19.9,,,,10.0,29.878937,,,TRUE,TRUE,,,,,,,CLR,,,,,,,,VFR,,,,,,,,,,,,METAR,169.0
KT69 010635Z AUTO 15004KT 4SM BR FEW022 23/23 A2984 RMK A01,KT69,2023-06-01T06:35:00Z,28.03,-97.55,23.0,23.0,150,4,,4.0,29.840551,,,TRUE,TRUE,,,,,,BR,FEW,2200,,,,,,,MVFR,,,,,,,,,,,,SPECI,15.0
KT41 010635Z AUTO 00000KT 10SM CLR 24/20 A2988 RMK AO2 T02390201,KT41,2023-06-01T06:35:00Z,29.67,-95.07,23.9,20.1,0,0,,10.0,29.878937,,,TRUE,TRUE,,,,,,,CLR,,,,,,,,VFR,,,,,,,,,,,,METAR,8.0
KT35 010635Z AUTO 17005KT 10SM CLR 23/20 A2987 RMK AO2 T02330201,KT35,2023-06-01T06:35:00Z,30.88,-96.97,23.3,20.1,170,5,,10.0,29.870079,,,TRUE,TRUE,,,,,,,CLR,,,,,,,,VFR,,,,,,,,,,,,METAR,122.0
KT20 010635Z AUTO 12003KT 10SM CLR 23/22 A2986 RMK AO2 T02250215,KT20,2023-06-01T06:35:00Z,29.52,-97.47,22.5,21.5,120,3,,10.0,29.861221,,,TRUE,TRUE,,,,,,,CLR,,,,,,,,VFR,,,,,,,,,,,,METAR,107.0
KSZY 010635Z AUTO 00000KT 10SM CLR 18/17 A2999 RMK A01,KSZY,2023-06-01T06:35:00Z,35.2,-88.5,18.0,17.0,0,0,,10.0,29.991142,,,TRUE,TRUE,,,,,,,CLR,,,,,,,,VFR,,,,,,,,,,,,SPECI,184.0
KSZT 010635Z AUTO 27003KT 10SM CLR 12/05 A2985 RMK AO2,KSZT,2023-06-01T06:35:00Z,48.3,-116.57,12.0,5.0,270,3,,10.0,29.84941,,,TRUE,TRUE,,,,,,,CLR,,,,,,,,VFR,,,,,,,,,,,,METAR,649.0
KSYN 010635Z AUTO 19004KT 10SM CLR 22/15 A2992 RMK AO2 T02230150,KSYN,2023-06-01T06:35:00Z,44.47,-93.02,22.3,15.0,190,4,,10.0,29.920275,,,TRUE,TRUE,,,,,,,CLR,,,,,,,,VFR,,,,,,,,,,,,SPECI,280.0
KSYM 010635Z AUTO 00000KT 10SM CLR 20/14 A3007 RMK AO2,KSYM,2023-06-01T06:35:00Z,38.22,-83.58,20.0,14.0,0,0,,10.0,30.070866,,,TRUE,TRUE,,,,,,,CLR,,,,,,,,VFR,,,,,,,,,,,,SPECI,307.0
KSYI 010635Z AUTO 00000KT 10SM FEW120 18/17 A3002 RMK A01,KSYI,2023-06-01T06:35:00Z,35.57,-86.45,18.0,17.0,0,0,,10.0,30.02067,,,TRUE,TRUE,,,,,,,FEW,12000,,,,,,,VFR,,,,,,,,,,,,SPECI,244.0
KSYF 010635Z AUTO 00000KT 10SM BKN120 16/12 A2988 RMK AO2 T01580119 PWINO,KSYF,2023-06-01T06:35:00Z,39.77,-101.8,15.8,11.9,0,0,,10.0,29.878937,,,TRUE,TRUE,,,,,TRUE,,BKN,12000,,,,,,,VFR,,,,,,,,,,,,METAR,1041.0
KSXU 010635Z AUTO 03009KT 10SM CLR 13/13 A2993 RMK AO2 T01320125,KSXU,2023-06-01T06:35:00Z,34.93,-104.65,13.2,12.5,30,9,,10.0,29.929134,,,TRUE,TRUE,,,,,,,CLR,,,,,,,,VFR,,,,,,,,,,,,METAR,1465.0
KSXK 010635Z AUTO 15011KT 10SM FEW038 SCT046 20/16 A2987 RMK AO2,KSXK,2023-06-01T06:35:00Z,42.98,-96.17,20.0,16.0,150,11,,10.0,29.870079,,,TRUE,TRUE,,,,,,,FEW,3800,SCT,4600,,,,,VFR,,,,,,,,,,,,METAR,430.0
KSWW 010635Z AUTO 16007G17KT 10SM CLR 24/15 A2990 RMK AO2 T02350151,KSWW,2023-06-01T06:35:00Z,32.47,-100.47,23.5,15.1,160,7,17,10.0,29.899607,,,TRUE,TRUE,,,,,,,CLR,,,,,,,,VFR,,,,,,,,,,,,METAR,718.0
KSVE 010635Z AUTO 29007KT 10SM CLR 16/06 A2990 RMK AO2,KSVE,2023-06-01T06:35:00Z,40.37,-120.57,16.0,6.0,290,7,,10.0,29.899607,,,TRUE,TRUE,,,,,,,CLR,,,,,,,,VFR,,,,,,,,,,,,SPECI,1263.0
KSVC 010635Z AUTO 30008KT 10SM CLR 16/M06 A2993 RMK AO2 T01581065,KSVC,2023-06-01T06:35:00Z,32.63,-108.15,15.8,-6.5,300,8,,10.0,29.929134,,,TRUE,TRUE,,,,,,,CLR,,,,,,,,VFR,,,,,,,,,,,,SPECI,1638.0
KSUZ 010635Z AUTO 00000KT 10SM CLR 19/19 A2994 RMK A01,KSUZ,2023-06-01T06:35:00Z,34.58,-92.48,19.0,19.0,0,0,,10.0,29.940945,,,TRUE,TRUE,,,,,,,CLR,,,,,,,,VFR,,,,,,,,,,,,SPECI,114.0
KSUW 010635Z AUTO 00000KT 10SM BKN065 09/07 A2997 RMK AO2 T00860068,KSUW,2023-06-01T06:35:00Z,46.68,-92.1,8.6,6.8,0,0,,10.0,29.970472,,,TRUE,TRUE,,,,,,,BKN,6500,,,,,,,VFR,,,,,,,,,,,,SPECI,205.0
KSUN 010635Z AUTO 29007KT 10SM CLR 11/07 A2992 RMK AO2,KSUN,2023-06-01T06:35:00Z,43.5,-114.28,11.0,7.0,290,7,,10.0,29.920275,,,TRUE,TRUE,,,,,,,CLR,,,,,,,,VFR,,,,,,,,,,,,METAR,1619.0
KSUA 010635Z AUTO 06006KT 10SM SCT022 SCT028 26/21 A2985 RMK AO2 T02580212,KSUA,2023-06-01T06:35:00Z,27.18,-80.22,25.8,21.2,60,6,,10.0,29.84941,,,TRUE,TRUE,,,,,,,SCT,2200,SCT,2800,,,,,VFR,,,,,,,,,,,,SPECI,4.0
KSTK 010635Z AUTO 03009KT 10SM BKN120 15/12 A2991 RMK AO2,KSTK,2023-06-01T06:35:00Z,40.62,-103.27,15.0,12.0,30,9,,10.0,29.911417,,,TRUE,TRUE,,,,,,,BKN,12000,,,,,,,VFR,,,,,,,,,,,,METAR,1228.0
KSTF 010635Z AUTO 00000KT 10SM FEW045 FEW050 31/31 A2995 RMK AO2,KSTF,2023-06-01T06:35:00Z,33.43,-88.85,31.0,31.0,0,0,,10.0,29.949802,,,TRUE,TRUE,,,,,,,FEW,4500,FEW,5000,,,,,VFR,,,,,,,,,,,,SPECI,99.0
KSTE 010635Z AUTO 00000KT 10SM CLR 19/14 A3002 RMK AO2 T01900135,KSTE,2023-06-01T06:35:00Z,44.55,-89.53,19.0,13.5,0,0,,10.0,30.02067,,,TRUE,TRUE,,,,,,,CLR,,,,,,,,VFR,,,,,,,,,,,,SPECI,335.0
KSRR 010635Z AUTO 12003KT 10SM OVC014 14/10 A3003 RMK AO2,KSRR,2023-06-01T06:35:00Z,33.47,-105.52,14.0,10.0,120,3,,10.0,30.029528,,,TRUE,TRUE,,,,,,,OVC,1400,,,,,,,MVFR,,,,,,,,,,,,SPECI,2063.0
KSRE 010635Z AUTO 15004KT 10SM CLR 22/16 A2991 RMK AO2,KSRE,2023-06-01T06:35:00Z,35.27,-96.68,22.0,16.0,150,4,,10.0,29.911417,,,TRUE,TRUE,,,,,,,CLR,,,,,,,,VFR,,,,,,,,,,,,SPECI,306.0
KSRB 010635Z AUTO 00000KT 10SM CLR 16/16 A3004 RMK AO2,KSRB,2023-06-01T06:35:00Z,36.05,-85.53,16.0,16.0,0,0,,10.0,30.041338,,,TRUE,TRUE,,,,,,,CLR,,,,,,,,VFR,,,,,,,,,,,,SPECI,303.0
KSQL 010635Z AUTO 00000KT 10SM CLR 13/08 A2990 RMK AO2,KSQL,2023-06-01T06:35:00Z,37.52,-122.25,13.0,8.0,0,0,,10.0,29.899607,,,TRUE,TRUE,,,,,,,CLR,,,,,,,,VFR,,,,,,,,,,,,SPECI,1.0
KSPK 010635Z AUTO 12006KT 10SM CLR 13/04 A2981 RMK AO2,KSPK,2023-06-01T06:35:00Z,40.15,-111.67,13.0,4.0,120,6,,10.0,29.811024,,,TRUE,TRUE,,,,,,,CLR,,,,,,,,VFR,,,,,,,,,,,,METAR,1381.0
KSPF 010635Z AUTO 36005KT 10SM CLR 15/09 A2984 RMK AO2,KSPF,2023-06-01T06:35:00Z,44.47,-103.78,15.0,9.0,360,5,,10.0,29.840551,,,TRUE,TRUE,,,,,,,CLR,,,,,,,,VFR,,,,,,,,,,,,SPECI,1191.0
KSPA 010635Z AUTO 36003KT 10SM SCT034 16/15 A3007 RMK AO2,KSPA,2023-06-01T06:35:00Z,34.92,-81.95,16.0,15.0,360,3,,10.0,30.070866,,,TRUE,TRUE,,,,,,,SCT,3400,,,,,,,VFR,,,,,,,,,,,,METAR,242.0
KSOW 010635Z AUTO 21012G17KT 10SM CLR 12/M04 A2997 RMK AO2,KSOW,2023-06-01T06:35:00Z,34.27,-110.0,12.0,-4.0,210,12,17,10.0,29.970472,,,TRUE,TRUE,,,,,,,CLR,,,,,,,,VFR,,,,,,,,,,,,SPECI,1954.0
KSOA 010635Z AUTO 15009KT 10SM 22/18 A2989 RMK AO2,KSOA,2023-06-01T06:35:00Z,30.58,-100.65,22.0,18.0,150,9,,10.0,29.890747,,,TRUE,TRUE,,,,,,,,,,,,,,,,,,,,,,,,,,,METAR,654.0
KSNL 010635Z AUTO 16010KT 10SM CLR 23/16 A2990 RMK AO2 T02330161,KSNL,2023-06-01T06:35:00Z,35.35,-96.95,23.3,16.1,160,10,,10.0,29.899607,,,TRUE,TRUE,,,,,,,CLR,,,,,,,,VFR,,,,,,,,,,,,METAR,327.0
KSNK 010635Z AUTO 15007KT 10SM CLR 23/15 A2988 RMK AO2 T02330145,KSNK,2023-06-01T06:35:00Z,32.7,-100.95,23.3,14.5,150,7,,10.0,29.878937,,,TRUE,TRUE,,,,,,,CLR,,,,,,,,VFR,,,,,,,,,,,,SPECI,738.0
KSNH 010635Z AUTO 00000KT 8SM CLR 18/18 A2998 RMK A01,KSNH,2023-06-01T06:35:00Z,35.17,-88.22,18.0,18.0,0,0,,8.0,29.97933,,,TRUE,TRUE,,,,,,,CLR,,,,,,,,VFR,,,,,,,,,,,,SPECI,142.0
KSNC 010635Z AUTO 00000KT 10SM CLR 12/12 A3014 RMK AO2,KSNC,2023-06-01T06:35:00Z,41.38,-72.5,12.0,12.0,0,0,,10.0,30.138779,,,TRUE,TRUE,,,,,,,CLR,,,,,,,,VFR,,,,,,,,,,,,SPECI,114.0
KSMS 010635Z AUTO 00000KT 7SM CLR 17/17 A3004 RMK AO2,KSMS,2023-06-01T06:35:00Z,34.0,-80.37,17.0,17.0,0,0,,7.0,30.041338,,,TRUE,TRUE,,,,,,,CLR,,,,,,,,VFR,,,,,,,,,,,,SPECI,53.0
KSME 010635Z AUTO 00000KT 10SM FEW085 18/18 A3002 RMK AO2,KSME,2023-06-01T06:35:00Z,37.05,-84.62,18.0,18.0,0,0,,10.0,30.02067,,,TRUE,TRUE,,,,,,,FEW,8500,,,,,,,VFR,,,,,,,,,,,,METAR,279.0
KSLR 010635Z AUTO 11003KT 10SM CLR 22/18 A2992 RMK AO2 T02200177,KSLR,2023-06-01T06:35:00Z,33.17,-95.62,22.0,17.7,110,3,,10.0,29.920275,,,TRUE,TRUE,,,,,,,CLR,,,,,,,,VFR,,,,,,,,,,,,METAR,144.0
KSLH 010635Z AUTO 00000KT 1 1/4SM BR VV007 13/13 A3008 RMK AO2 VIS 1/2V5,KSLH,2023-06-01T06:35:00Z,45.65,-84.52,13.0,13.0,0,0,,1.25,30.079725,,,TRUE,TRUE,,,,,,BR,OVX,0,,,,,,,LIFR,,,,,,,,,,,700,METAR,193.0
KSLB 010635Z AUTO 16007KT 10SM CLR 20/16 A2993 RMK AO2,KSLB,2023-06-01T06:35:00Z,42.6,-95.23,20.0,16.0,160,7,,10.0,29.929134,,,TRUE,TRUE,,,,,,,CLR,,,,,,,,VFR,,,,,,,,,,,,METAR,450.0
KSJX 010635Z AUTO 11003KT 10SM CLR 17/17 A3007 RMK AO2 T01710171,KSJX,2023-06-01T06:35:00Z,45.7,-85.57,17.1,17.1,110,3,,10.0,30.070866,,,TRUE,TRUE,,,,,,,CLR,,,,,,,,VFR,,,,,,,,,,,,SPECI,202.0
KSJS 010635Z AUTO 00000KT 10SM CLR 16/14 A3007 RMK AO2 T01620144,KSJS,2023-06-01T06:35:00Z,37.75,-82.63,16.2,14.4,0,0,,10.0,30.070866,,,TRUE,TRUE,,,,,,,CLR,,,,,,,,VFR,,,,,,,,,,,,METAR,359.0
KSIK 010635Z AUTO 00000KT 10SM CLR 20/17 A2998 RMK AO2,KSIK,2023-06-01T06:35:00Z,36.9,-89.57,20.0,17.0,0,0,,10.0,29.97933,,,TRUE,TRUE,,,,,,,CLR,,,,,,,,VFR,,,,,,,,,,,,SPECI,95.0
KSHL 010635Z AUTO 15008KT 10SM CLR 19/17 A2989 RMK AO2,KSHL,2023-06-01T06:35:00Z,43.22,-95.83,19.0,17.0,150,8,,10.0,29.890747,,,TRUE,TRUE,,,,,,,CLR,,,,,,,,VFR,,,,,,,,,,,,METAR,430.0
KSHD 010635Z AUTO 00000KT 10SM CLR 09/09 A3014 RMK AO2 T00900085,KSHD,2023-06-01T06:35:00Z,38.27,-78.9,9.0,8.5,0,0,,10.0,30.138779,,,TRUE,TRUE,,,,,,,CLR,,,,,,,,VFR,,,,,,,,,,,,SPECI,360.0
KSGS 010635Z AUTO 15003KT 10SM CLR 23/15 A2991 RMK AO2 T02300145,KSGS,2023-06-01T06:35:00Z,44.87,-93.03,23.0,14.5,150,3,,10.0,29.911417,,,TRUE,TRUE,,,,,,,CLR,,,,,,,,VFR,,,,,,,,,,,,SPECI,250.0
KSFQ 010635Z AUTO 02004KT 10SM OVC012 19/17 A3004 RMK AO2 T01850165,KSFQ,2023-06-01T06:35:00Z,36.68,-76.6,18.5,16.5,20,4,,10.0,30.041338,,,TRUE,TRUE,,,,,,,OVC,1200,,,,,,,MVFR,,,,,,,,,,,,SPECI,19.0
KSEZ 010635Z AUTO 00000KT 10SM SCT080 15/01 A2990 RMK AO2,KSEZ,2023-06-01T06:35:00Z,34.85,-111.78,15.0,1.0,0,0,,10.0,29.899607,,,TRUE,TRUE,,,,,,,SCT,8000,,,,,,,VFR,,,,,,,,,,,,METAR,1455.0
KSEP 010635Z AUTO 14004KT 10SM CLR 22/17 A2991 RMK AO2 T02150168,KSEP,2023-06-01T06:35:00Z,32.22,-98.17,21.5,16.8,140,4,,10.0,29.911417,,,TRUE,TRUE,,,,,,,CLR,,,,,,,,VFR,,,,,,,,,,,,SPECI,399.0
KSEM 010635Z AUTO 10006KT 10SM CLR 20/20 A2995 RMK AO2,KSEM,2023-06-01T06:35:00Z,32.35,-86.98,20.0,20.0,100,6,,10.0,29.949802,,,TRUE,TRUE,,,,,,,CLR,,,,,,,,VFR,,,,,,,,,,,,SPECI,48.0
KSEF 010635Z AUTO 03003KT 10SM SCT016 21/ A2987 RMK AO2 T0215////,KSEF,2023-06-01T06:35:00Z,27.45,-81.35,21.5,,30,3,,10.0,29.870079,,,TRUE,TRUE,,,,,,,SCT,1600,,,,,,,VFR,,,,,,,,,,,,METAR,17.0
KSEE 010635Z AUTO 28004KT 10SM SCT020 OVC038 16/12 A2993 RMK AO2,KSEE,2023-06-01T06:35:00Z,32.82,-116.97,16.0,12.0,280,4,,10.0,29.929134,,,TRUE,TRUE,,,,,,,SCT,2000,OVC,3800,,,,,VFR,,,,,,,,,,,,SPECI,113.0
KSDC 010635Z AUTO 00000KT 10SM CLR 13/11 A3012 RMK AO2,KSDC,2023-06-01T06:35:00Z,43.23,-77.12,13.0,11.0,0,0,,10.0,30.121063,,,TRUE,TRUE,,,,,,,CLR,,,,,,,,VFR,,,,,,,,,,,,SPECI,127.0
KSDA 010635Z AUTO 13008KT 10SM BKN055 BKN065 21/20 A2989 RMK AO2,KSDA,2023-06-01T06:35:00Z,40.75,-95.42,21.0,20.0,130,8,,10.0,29.890747,,,TRUE,TRUE,,,,,,,BKN,5500,BKN,6500,,,,,VFR,,,,,,,,,,,,METAR,293.0
KSCX 010635Z AUTO 00000KT 10SM OVC085 17/17 A3006 RMK A01,KSCX,2023-06-01T06:35:00Z,36.45,-84.58,17.0,17.0,0,0,,10.0,30.059055,,,TRUE,TRUE,,,,,,,OVC,8500,,,,,,,VFR,,,,,,,,,,,,SPECI,462.0
KSCD 010635Z AUTO 00000KT 10SM BKN090 BKN110 20/18 A3001 RMK AO2 T01980181,KSCD,2023-06-01T06:35:00Z,33.17,-86.3,19.8,18.1,0,0,,10.0,30.008858,,,TRUE,TRUE,,,,,,,BKN,9000,BKN,11000,,,,,VFR,,,,,,,,,,,,SPECI,164.0
KSBY 010635Z AUTO 02006KT 3SM BR OVC005 18/17 A3007 RMK AO2 T01780167,KSBY,2023-06-01T06:35:00Z,38.33,-75.5,17.8,16.7,20,6,,3.0,30.070866,,,TRUE,TRUE,,,,,,BR,OVC,500,,,,,,,IFR,,,,,,,,,,,,SPECI,14.0
KSBS 010635Z AUTO 06003KT 10SM CLR 06/06 A2994 RMK AO1 T00570057,KSBS,2023-06-01T06:35:00Z,40.52,-106.87,5.7,5.7,60,3,,10.0,29.940945,,,TRUE,TRUE,,,,,,,CLR,,,,,,,,VFR,,,,,,,,,,,,METAR,2097.0
KSBO 010635Z AUTO 00000KT 10SM CLR A3002 RMK AO2,KSBO,2023-06-01T06:35:00Z,32.62,-82.37,,,0,0,,10.0,30.02067,,,TRUE,TRUE,,,,,,,CLR,,,,,,,,VFR,,,,,,,,,,,,METAR,98.0
KSAZ 010635Z AUTO 00000KT 10SM SCT100 18/17 A2991 RMK AO2,KSAZ,2023-06-01T06:35:00Z,46.37,-94.8,18.0,17.0,0,0,,10.0,29.911417,,,TRUE,TRUE,,,,,,,SCT,10000,,,,,,,VFR,,,,,,,,,,,,SPECI,391.0
KSAR 010635Z AUTO 12004KT 10SM CLR 20/18 A3000 RMK AO2 T01990176,KSAR,2023-06-01T06:35:00Z,38.15,-89.7,19.9,17.6,120,4,,10.0,30.0,,,TRUE,TRUE,,,,,,,CLR,,,,,,,,VFR,,,,,,,,,,,,METAR,162.0
KSAF 010635Z AUTO 36014G22KT 10SM OVC030 12/06 A3002 RMK AO2 PK WND 01026/0625 LTG DSNT N AND NE T01220056,KSAF,2023-06-01T06:35:00Z,35.62,-106.1,12.2,5.6,360,14,22,10.0,30.02067,,,TRUE,TRUE,,,,,,,OVC,3000,,,,,,,MVFR,,,,,,,,,,,,SPECI,1918.0
KSAA 010635Z AUTO 00000KT 10SM OVC110 10/02 A2997 RMK AO2,KSAA,2023-06-01T06:35:00Z,41.45,-106.8,10.0,2.0,0,0,,10.0,29.970472,,,TRUE,TRUE,,,,,,,OVC,11000,,,,,,,VFR,,,,,,,,,,,,METAR,2093.0
KS52 010635Z AUTO 32008G16KT 10SM SCT075 OVC110 14/01 A2991 RMK AO2 T01440011,KS52,2023-06-01T06:35:00Z,48.42,-120.15,14.4,1.1,320,8,16,10.0,29.911417,,,TRUE,TRUE,,,,,,,SCT,7500,OVC,11000,,,,,VFR,,,,,,,,,,,,METAR,517.0
KS39 010635Z AUTO 00000KT 10SM CLR 04/M01 A3001 RMK AO2,KS39,2023-06-01T06:35:00Z,44.28,-120.9,4.0,-1.0,0,0,,10.0,30.008858,,,TRUE,TRUE,,,,,,,CLR,,,,,,,,VFR,,,,,,,,,,,,METAR,987.0
KS33 010635Z AUTO 30009KT 10SM CLR A3003 RMK AO2,KS33,2023-06-01T06:35:00Z,44.67,-121.15,,,300,9,,10.0,30.029528,,,TRUE,TRUE,,,,,,,CLR,,,,,,,,VFR,,,,,,,,,,,,METAR,739.0
KS32 010635Z AUTO 04004KT 10SM OVC110 19/19 A2985 RMK AO2 TSNO,KS32,2023-06-01T06:35:00Z,47.42,-98.1,19.0,19.0,40,4,,10.0,29.84941,,,TRUE,TRUE,,,TRUE,,,,OVC,11000,,,,,,,VFR,,,,,,,,,,,,SPECI,435.0
KS25 010635Z AUTO 11007KT 10SM CLR 16/16 A2984 RMK AO2,KS25,2023-06-01T06:35:00Z,47.8,-103.25,16.0,16.0,110,7,,10.0,29.840551,,,TRUE,TRUE,,,,,,,CLR,,,,,,,,VFR,,,,,,,,,,,,SPECI,632.0
KS24 010635Z AUTO 00000KT 10SM CLR 19/06 A3008 RMK AO2,KS24,2023-06-01T06:35:00Z,41.3,-83.03,19.0,6.0,0,0,,10.0,30.079725,,,TRUE,TRUE,,,,,,,CLR,,,,,,,,VFR,,,,,,,,,,,,SPECI,203.0
KS21 010635Z AUTO 22003KT 10SM SCT035 OVC042 03/M00 A3006 RMK AO2,KS21,2023-06-01T06:35:00Z,43.88,-121.45,3.0,0.0,220,3,,10.0,30.059055,,,TRUE,TRUE,,,,,,,SCT,3500,OVC,4200,,,,,VFR,,,,,,,,,,,,METAR,1269.0
KS12 010635Z AUTO 36006KT 10SM CLR 11/06 A3009 RMK AO2,KS12,2023-06-01T06:35:00Z,,,11.0,6.0,360,6,,10.0,30.088583,,,TRUE,TRUE,,,,,,,CLR,,,,,,,,VFR,,,,,,,,,,,,METAR,
KRZT 010635Z AUTO 00000KT 10SM CLR 15/15 A3008 RMK AO2 PWINO,KRZT,2023-06-01T06:35:00Z,39.43,-83.02,15.0,15.0,0,0,,10.0,30.079725,,,TRUE,TRUE,,,,,TRUE,,CLR,,,,,,,,VFR,,,,,,,,,,,,METAR,217.0
KRZR 010635Z AUTO 00000KT 9SM CLR 17/17 A3004 RMK A01,KRZR,2023-06-01T06:35:00Z,35.22,-84.8,17.0,17.0,0,0,,9.0,30.041338,,,TRUE,TRUE,,,,,,,CLR,,,,,,,,VFR,,,,,,,,,,,,SPECI,259.0
KRZN 010635Z AUTO 00000KT 10SM CLR 17/14 A2994 RMK AO2 T01690138,KRZN,2023-06-01T06:35:00Z,45.82,-92.37,16.9,13.8,0,0,,10.0,29.940945,,,TRUE,TRUE,,,,,,,CLR,,,,,,,,VFR,,,,,,,,,,,,SPECI,301.0
KRZL 010635Z AUTO 09003KT 10SM SCT002 18/16 A3004 RMK AO2,KRZL,2023-06-01T06:35:00Z,40.95,-87.18,18.0,16.0,90,3,,10.0,30.041338,,,TRUE,TRUE,,,,,,,SCT,200,,,,,,,VFR,,,,,,,,,,,,METAR,210.0
KRYW 010635Z AUTO 17006KT 10SM CLR 23/20 A2989 RMK AO2 T02250197,KRYW,2023-06-01T06:35:00Z,30.5,-97.97,22.5,19.7,170,6,,10.0,29.890747,,,TRUE,TRUE,,,,,,,CLR,,,,,,,,VFR,,,,,,,,,,,,SPECI,370.0
KRYN 010635Z AUTO 14005KT 10SM CLR 19/M02 A2983 RMK AO2,KRYN,2023-06-01T06:35:00Z,32.15,-111.17,19.0,-2.0,140,5,,10.0,29.828741,,,TRUE,TRUE,,,,,,,CLR,,,,,,,,VFR,,,,,,,,,,,,SPECI,731.0
KRWV 010635Z AUTO 16005KT 10SM CLR 22/20 A2988 RMK AO2 T02230200,KRWV,2023-06-01T06:35:00Z,30.52,-96.7,22.3,20.0,160,5,,10.0,29.878937,,,TRUE,TRUE,,,,,,,CLR,,,,,,,,VFR,,,,,,,,,,,,METAR,116.0
KRVL 010635Z AUTO 00000KT 9SM CLR 11/07 A3013 RMK AO2,KRVL,2023-06-01T06:35:00Z,40.68,-77.63,11.0,7.0,0,0,,9.0,30.129921,,,TRUE,TRUE,,,,,,,CLR,,,,,,,,VFR,,,,,,,,,,,,SPECI,250.0
KRVJ 010635Z AUTO 00000KT 10SM CLR 20/19 A2999 RMK AO2 T01980193,KRVJ,2023-06-01T06:35:00Z,32.07,-82.15,19.8,19.3,0,0,,10.0,29.991142,,,TRUE,TRUE,,,,,,,CLR,,,,,,,,VFR,,,,,,,,,,,,METAR,60.0
KRVF 010635Z AUTO 17007KT 10SM SCT055 BKN075 BKN095 10/09 A2993 RMK AO2,KRVF,2023-06-01T06:35:00Z,45.53,-112.3,10.0,9.0,170,7,,10.0,29.929134,,,TRUE,TRUE,,,,,,,SCT,5500,BKN,7500,BKN,9500,,,VFR,,,,,,,,,,,,METAR,1445.0
KRUG 010635Z AUTO 16004KT 9SM FEW034 SCT045 BKN090 17/17 A2987 RMK AO2,KRUG,2023-06-01T06:35:00Z,48.38,-100.02,17.0,17.0,160,4,,9.0,29.870079,,,TRUE,TRUE,,,,,,,FEW,3400,SCT,4500,BKN,9000,,,VFR,,,,,,,,,,,,SPECI,469.0
KRTS 010635Z AUTO 00000KT 10SM FEW050 SCT070 BKN100 13/08 A2995 RMK AO2,KRTS,2023-06-01T06:35:00Z,39.67,-119.88,13.0,8.0,0,0,,10.0,29.949802,,,TRUE,TRUE,,,,,,,FEW,5000,SCT,7000,BKN,10000,,,VFR,,,,,,,,,,,,SPECI,1537.0
KRSN 010635Z AUTO 00000KT 9SM CLR 18/18 A2992 RMK AO2 T01810181 $,KRSN,2023-06-01T06:35:00Z,32.52,-92.58,18.1,18.1,0,0,,9.0,29.920275,,,TRUE,TRUE,TRUE,,,,,,CLR,,,,,,,,VFR,,,,,,,,,,,,SPECI,86.0
KRRT 010635Z AUTO 00000KT 10SM SCT110 20/18 A2989 RMK AO2,KRRT,2023-06-01T06:35:00Z,48.93,-95.33,20.0,18.0,0,0,,10.0,29.890747,,,TRUE,TRUE,,,,,,,SCT,11000,,,,,,,VFR,,,,,,,,,,,,SPECI,327.0
KRQB 010635Z AUTO 35003KT 10SM CLR 15/14 A3008 RMK AO2 T01520141,KRQB,2023-06-01T06:35:00Z,43.72,-85.5,15.2,14.1,350,3,,10.0,30.079725,,,TRUE,TRUE,,,,,,,CLR,,,,,,,,VFR,,,,,,,,,,,,METAR,282.0
KRPJ 010635Z AUTO 00000KT 10SM CLR 18/14 A3000 RMK AO2 T01820141 TSNO,KRPJ,2023-06-01T06:35:00Z,41.88,-89.08,18.2,14.1,0,0,,10.0,30.0,,,TRUE,TRUE,,,TRUE,,,,CLR,,,,,,,,VFR,,,,,,,,,,,,METAR,234.0
KRPH 010635Z AUTO 12004KT 10SM CLR 22/18 A2985 RMK AO2 T02230183 $,KRPH,2023-06-01T06:35:00Z,33.12,-98.55,22.3,18.3,120,4,,10.0,29.84941,,,TRUE,TRUE,TRUE,,,,,,CLR,,,,,,,,VFR,,,,,,,,,,,,SPECI,341.0
KRPD 010635Z AUTO 00000KT 10SM CLR 20/17 A2996 RMK AO2 T01960166,KRPD,2023-06-01T06:35:00Z,45.42,-91.77,19.6,16.6,0,0,,10.0,29.958662,,,TRUE,TRUE,,,,,,,CLR,,,,,,,,VFR,,,,,,,,,,,,SPECI,334.0
KROX 010635Z AUTO 00000KT 10SM CLR 21/16 A2988 RMK AO2,KROX,2023-06-01T06:35:00Z,48.85,-95.7,21.0,16.0,0,0,,10.0,29.878937,,,TRUE,TRUE,,,,,,,CLR,,,,,,,,VFR,,,,,,,,,,,,SPECI,320.0
KROS 010635Z AUTO 11004KT 10SM SCT110 23/17 A2991 RMK AO2 T02250166,KROS,2023-06-01T06:35:00Z,45.7,-92.95,22.5,16.6,110,4,,10.0,29.911417,,,TRUE,TRUE,,,,,,,SCT,11000,,,,,,,VFR,,,,,,,,,,,,SPECI,282.0
KRNP 010635Z AUTO 12004KT 10SM CLR 18/08 A3008 RMK AO2 T01770080,KRNP,2023-06-01T06:35:00Z,43.0,-84.13,17.7,8.0,120,4,,10.0,30.079725,,,TRUE,TRUE,,,,,,,CLR,,,,,,,,VFR,,,,,,,,,,,,SPECI,224.0
KRNH 010635Z AUTO 13003KT 10SM CLR 21/17 A2994 RMK AO2 T02140171,KRNH,2023-06-01T06:35:00Z,45.15,-92.53,21.4,17.1,130,3,,10.0,29.940945,,,TRUE,TRUE,,,,,,,CLR,,,,,,,,VFR,,,,,,,,,,,,METAR,302.0
KRNC 010635Z AUTO 00000KT 10SM CLR 17/16 A3003 RMK A01,KRNC,2023-06-01T06:35:00Z,35.7,-85.85,17.0,16.0,0,0,,10.0,30.029528,,,TRUE,TRUE,,,,,,,CLR,,,,,,,,VFR,,,,,,,,,,,,SPECI,310.0
KRMY 010635Z AUTO 10003KT 10SM CLR 20/11 A3006 RMK AO2 T01970105,KRMY,2023-06-01T06:35:00Z,42.25,-84.95,19.7,10.5,100,3,,10.0,30.059055,,,TRUE,TRUE,,,,,,,CLR,,,,,,,,VFR,,,,,,,,,,,,METAR,285.0
KRMN 010635Z AUTO 33003KT 7SM CLR 12/11 A3010 RMK AO2 T01240108,KRMN,2023-06-01T06:35:00Z,38.4,-77.45,12.4,10.8,330,3,,7.0,30.100393,,,TRUE,TRUE,,,,,,,CLR,,,,,,,,VFR,,,,,,,,,,,,SPECI,50.0
KRLD 010635Z AUTO 26004KT 10SM CLR 13/04 A2991 RMK AO2 T01250043,KRLD,2023-06-01T06:35:00Z,46.3,-119.3,12.5,4.3,260,4,,10.0,29.911417,,,TRUE,TRUE,,,,,,,CLR,,,,,,,,VFR,,,,,,,,,,,,SPECI,118.0
KRKW 010635Z AUTO 23003KT 10SM BKN070 OVC090 17/16 A3007 RMK A01,KRKW,2023-06-01T06:35:00Z,35.92,-84.68,17.0,16.0,230,3,,10.0,30.070866,,,TRUE,TRUE,,,,,,,BKN,7000,OVC,9000,,,,,VFR,,,,,,,,,,,,SPECI,505.0
KRKR 010635Z AUTO 00000KT 10SM CLR 18/16 A2993 RMK AO2,KRKR,2023-06-01T06:35:00Z,35.02,-94.62,18.0,16.0,0,0,,10.0,29.929134,,,TRUE,TRUE,,,,,,,CLR,,,,,,,,VFR,,,,,,,,,,,,SPECI,136.0
KRID 010635Z AUTO 12005KT 10SM CLR 17/13 A3008 RMK AO2,KRID,2023-06-01T06:35:00Z,39.75,-84.85,17.0,13.0,120,5,,10.0,30.079725,,,TRUE,TRUE,,,,,,,CLR,,,,,,,,VFR,,,,,,,,,,,,METAR,346.0
KRGK 010635Z AUTO 00000KT 10SM CLR 23/14 A2991 RMK AO2,KRGK,2023-06-01T06:35:00Z,44.58,-92.48,23.0,14.0,0,0,,10.0,29.911417,,,TRUE,TRUE,,,,,,,CLR,,,,,,,,VFR,,,,,,,,,,,,SPECI,238.0
KRGA 010635Z AUTO 00000KT 10SM CLR 16/15 A3005 RMK AO2,KRGA,2023-06-01T06:35:00Z,37.63,-84.33,16.0,15.0,0,0,,10.0,30.050198,,,TRUE,TRUE,,,,,,,CLR,,,,,,,,VFR,,,,,,,,,,,,METAR,301.0
KREG 010635Z AUTO 00000KT 10SM CLR 21/20 A2989 RMK AO2 T02090197,KREG,2023-06-01T06:35:00Z,30.17,-90.93,20.9,19.7,0,0,,10.0,29.890747,,,TRUE,TRUE,,,,,,,CLR,,,,,,,,VFR,,,,,,,,,,,,SPECI,3.0
KRDK 010635Z AUTO 17004KT 10SM SCT048 OVC130 21/18 A2991 RMK AO2,KRDK,2023-06-01T06:35:00Z,41.02,-95.27,21.0,18.0,170,4,,10.0,29.911417,,,TRUE,TRUE,,,,,,,SCT,4800,OVC,13000,,,,,VFR,,,,,,,,,,,,METAR,317.0
KRCX 010635Z AUTO 10004KT 10SM CLR 19/15 A3000 RMK AO2 T01930154,KRCX,2023-06-01T06:35:00Z,45.5,-91.0,19.3,15.4,100,4,,10.0,30.0,,,TRUE,TRUE,,,,,,,CLR,,,,,,,,VFR,,,,,,,,,,,,SPECI,373.0
KRCV 010635Z AUTO 26005KT 10SM SCT120 07/06 A3012 RMK AO2 T00700056,KRCV,2023-06-01T06:35:00Z,37.72,-106.35,7.0,5.6,260,5,,10.0,30.121063,,,TRUE,TRUE,,,,,,,SCT,12000,,,,,,,VFR,,,,,,,,,,,,METAR,2418.0
KRCR 010635Z AUTO 00000KT 10SM CLR 19/18 A3004 RMK AO2,KRCR,2023-06-01T06:35:00Z,41.07,-86.18,19.0,18.0,0,0,,10.0,30.041338,,,TRUE,TRUE,,,,,,,CLR,,,,,,,,VFR,,,,,,,,,,,,METAR,240.0
KRCM 010635Z AUTO 14003KT 10SM CLR 19/17 A2995 RMK AO2,KRCM,2023-06-01T06:35:00Z,38.78,-93.8,19.0,17.0,140,3,,10.0,29.949802,,,TRUE,TRUE,,,,,,,CLR,,,,,,,,VFR,,,,,,,,,,,,SPECI,242.0
KRCE 010635Z AUTO 15010KT 10SM CLR 22/18 A2988 RMK AO2,KRCE,2023-06-01T06:35:00Z,35.48,-97.82,22.0,18.0,150,10,,10.0,29.878937,,,TRUE,TRUE,,,,,,,CLR,,,,,,,,VFR,,,,,,,,,,,,SPECI,412.0
KRBW 010635Z AUTO 00000KT 10SM CLR 16/16 A3002 RMK AO2,KRBW,2023-06-01T06:35:00Z,32.92,-80.63,16.0,16.0,0,0,,10.0,30.02067,,,TRUE,TRUE,,,,,,,CLR,,,,,,,,VFR,,,,,,,,,,,,SPECI,30.0
KRBO 010635Z AUTO 13003KT 10SM SCT024 A2984 RMK AO2,KRBO,2023-06-01T06:35:00Z,27.78,-97.68,,,130,3,,10.0,29.840551,,,TRUE,TRUE,,,,,,,SCT,2400,,,,,,,VFR,,,,,,,,,,,,METAR,24.0
KRAW 010635Z AUTO 15003KT 10SM CLR 19/17 A2997 RMK AO2,KRAW,2023-06-01T06:35:00Z,38.35,-93.35,19.0,17.0,150,3,,10.0,29.970472,,,TRUE,TRUE,,,,,,,CLR,,,,,,,,VFR,,,,,,,,,,,,SPECI,285.0
KRAS 010635Z AUTO 13012G17KT 10SM SCT020 SCT025 27/23 A2985 RMK AO2 T02670227,KRAS,2023-06-01T06:35:00Z,27.82,-97.08,26.7,22.7,130,12,17,10.0,29.84941,,,TRUE,TRUE,,,,,,,SCT,2000,SCT,2500,,,,,VFR,,,,,,,,,,,,METAR,3.0
KPZZ 010635Z AUTO 03004KT 10SM CLR 26/20 A2988 RMK A01,KPZZ,2023-06-01T06:35:00Z,28.43,-91.03,26.0,20.0,30,4,,10.0,29.878937,,,TRUE,TRUE,,,,,,,CLR,,,,,,,,VFR,,,,,,,,,,,,SPECI,25.0
KPZQ 010635Z AUTO 00000KT 7SM CLR 10/10 A3011 RMK AO2 T01010101,KPZQ,2023-06-01T06:35:00Z,45.4,-83.82,10.1,10.1,0,0,,7.0,30.109253,,,TRUE,TRUE,,,,,,,CLR,,,,,,,,VFR,,,,,,,,,,,,SPECI,199.0
KPYX 010635Z AUTO 25007G10KT 10SM SCT080 BKN100 BKN120 15/12 A2993 RMK AO2 T01510121,KPYX,2023-06-01T06:35:00Z,36.42,-100.75,15.1,12.1,250,7,10,10.0,29.929134,,,TRUE,TRUE,,,,,,,SCT,8000,BKN,10000,BKN,12000,,,VFR,,,,,,,,,,,,SPECI,890.0
KPXE 010635Z AUTO 04004KT 10SM CLR 19/17 A3001 RMK AO2 T01890173,KPXE,2023-06-01T06:35:00Z,32.52,-83.77,18.9,17.3,40,4,,10.0,30.008858,,,TRUE,TRUE,,,,,,,CLR,,,,,,,,VFR,,,,,,,,,,,,SPECI,126.0
KPWD 010635Z AUTO 13010KT 10SM CLR 16/14 A2983 RMK AO2,KPWD,2023-06-01T06:35:00Z,48.78,-104.52,16.0,14.0,130,10,,10.0,29.828741,,,TRUE,TRUE,,,,,,,CLR,,,,,,,,VFR,,,,,,,,,,,,METAR,690.0
KPWC 010635Z AUTO 00000KT 10SM CLR 17/16 A2995 RMK AO2,KPWC,2023-06-01T06:35:00Z,46.72,-94.38,17.0,16.0,0,0,,10.0,29.949802,,,TRUE,TRUE,,,,,,,CLR,,,,,,,,VFR,,,,,,,,,,,,SPECI,394.0
KPVW 010635Z AUTO 13009KT 10SM SCT050 BKN075 BKN120 20/14 A2991 RMK AO2 T01980143 TSNO,KPVW,2023-06-01T06:35:00Z,34.17,-101.72,19.8,14.3,130,9,,10.0,29.911417,,,TRUE,TRUE,,,TRUE,,,,SCT,5000,BKN,7500,BKN,12000,,,VFR,,,,,,,,,,,,METAR,1029.0
KPVJ 010635Z AUTO 14005KT 10SM CLR 23/17 A2989 RMK AO2 T02250170,KPVJ,2023-06-01T06:35:00Z,34.72,-97.22,22.5,17.0,140,5,,10.0,29.890747,,,TRUE,TRUE,,,,,,,CLR,,,,,,,,VFR,,,,,,,,,,,,SPECI,287.0
KPVF 010635Z AUTO 13004KT 10SM CLR 15/10 A2988 RMK AO1,KPVF,2023-06-01T06:35:00Z,38.72,-120.75,15.0,10.0,130,4,,10.0,29.878937,,,TRUE,TRUE,,,,,,,CLR,,,,,,,,VFR,,,,,,,,,,,,SPECI,788.0
KPVE 010635Z AUTO 00000KT 5SM BR CLR 18/18 A2999 RMK A01,KPVE,2023-06-01T06:35:00Z,35.65,-88.2,18.0,18.0,0,0,,5.0,29.991142,,,TRUE,TRUE,,,,,,BR,CLR,,,,,,,,MVFR,,,,,,,,,,,,SPECI,146.0
KPVB 010635Z AUTO 09006KT 10SM CLR 20/14 A3000 RMK AO1 T02010137,KPVB,2023-06-01T06:35:00Z,42.68,-90.43,20.1,13.7,90,6,,10.0,30.0,,,TRUE,TRUE,,,,,,,CLR,,,,,,,,VFR,,,,,,,,,,,,METAR,311.0
KPUJ 010635Z AUTO 00000KT 10SM CLR 17/17 A3005 RMK AO2,KPUJ,2023-06-01T06:35:00Z,33.92,-84.93,17.0,17.0,0,0,,10.0,30.050198,,,TRUE,TRUE,,,,,,,CLR,,,,,,,,VFR,,,,,,,,,,,,SPECI,385.0
KPTT 010635Z AUTO 18007KT 10SM CLR 22/17 A2989 RMK AO2 T02150170,KPTT,2023-06-01T06:35:00Z,37.7,-98.75,21.5,17.0,180,7,,10.0,29.890747,,,TRUE,TRUE,,,,,,,CLR,,,,,,,,VFR,,,,,,,,,,,,METAR,594.0
KPTS 010635Z AUTO 14003KT 10SM CLR 21/19 A2993 RMK AO2 T02050189 PWINO,KPTS,2023-06-01T06:35:00Z,37.45,-94.73,20.5,18.9,140,3,,10.0,29.929134,,,TRUE,TRUE,,,,,TRUE,,CLR,,,,,,,,VFR,,,,,,,,,,,,SPECI,286.0
KPTD 010635Z AUTO 19003KT 10SM OVC050 16/12 A3010 RMK AO2,KPTD,2023-06-01T06:35:00Z,44.68,-74.95,16.0,12.0,190,3,,10.0,30.100393,,,TRUE,TRUE,,,,,,,OVC,5000,,,,,,,VFR,,,,,,,,,,,,SPECI,144.0
KPTB 010635Z AUTO 00000KT 7SM CLR 13/12 A3007 RMK AO2 T01260120,KPTB,2023-06-01T06:35:00Z,37.17,-77.52,12.6,12.0,0,0,,7.0,30.070866,,,TRUE,TRUE,,,,,,,CLR,,,,,,,,VFR,,,,,,,,,,,,SPECI,56.0
KPSO 010635Z AUTO 01014G21KT 10SM -RA SCT042 BKN065 OVC085 08/06 A3003 RMK AO2 T00770064,KPSO,2023-06-01T06:35:00Z,37.28,-107.05,7.7,6.4,10,14,21,10.0,30.029528,,,TRUE,TRUE,,,,,,-RA,SCT,4200,BKN,6500,OVC,8500,,,VFR,,,,,,,,,,,,METAR,2332.0
KPSN 010635Z AUTO 14004KT 10SM BKN055 BKN065 23/21 A2988 RMK AO2,KPSN,2023-06-01T06:35:00Z,31.78,-95.7,23.0,21.0,140,4,,10.0,29.878937,,,TRUE,TRUE,,,,,,,BKN,5500,BKN,6500,,,,,VFR,,,,,,,,,,,,METAR,124.0
KPSK 010635Z AUTO 00000KT 10SM CLR 12/12 A3013 RMK AO2 T01200116,KPSK,2023-06-01T06:35:00Z,37.13,-80.67,12.0,11.6,0,0,,10.0,30.129921,,,TRUE,TRUE,,,,,,,CLR,,,,,,,,VFR,,,,,,,,,,,,SPECI,629.0
KPRS 010635Z AUTO 04006G17KT 10SM CLR 27/16 A2975 RMK AO2 T02730163,KPRS,2023-06-01T06:35:00Z,29.63,-104.35,27.3,16.3,40,6,17,10.0,29.749016,,,TRUE,TRUE,,,,,,,CLR,,,,,,,,VFR,,,,,,,,,,,,SPECI,890.0
KPRO 010635Z AUTO 15006KT 10SM CLR 20/17 A2993 RMK AO2 T01960172,KPRO,2023-06-01T06:35:00Z,41.83,-94.17,19.6,17.2,150,6,,10.0,29.929134,,,TRUE,TRUE,,,,,,,CLR,,,,,,,,VFR,,,,,,,,,,,,SPECI,308.0
KPRG 010635Z AUTO 11004KT 10SM CLR 20/18 A3002 RMK AO2 T02000182,KPRG,2023-06-01T06:35:00Z,39.7,-87.67,20.0,18.2,110,4,,10.0,30.02067,,,TRUE,TRUE,,,,,,,CLR,,,,,,,,VFR,,,,,,,,,,,,METAR,197.0
KPPQ 010635Z AUTO 00000KT 10SM CLR 21/17 A2999 RMK AO2 T02110166,KPPQ,2023-06-01T06:35:00Z,39.63,-90.78,21.1,16.6,0,0,,10.0,29.991142,,,TRUE,TRUE,,,,,,,CLR,,,,,,,,VFR,,,,,,,,,,,,METAR,215.0
KPPO 010635Z AUTO 00000KT 10SM BKN120 19/17 A3004 RMK AO2 T01920170,KPPO,2023-06-01T06:35:00Z,41.57,-86.73,19.2,17.0,0,0,,10.0,30.041338,,,TRUE,TRUE,,,,,,,BKN,12000,,,,,,,VFR,,,,,,,,,,,,METAR,242.0
KPPA 010635Z AUTO 24010KT 10SM RA 17/14 A2995 RMK AO2 LTG DSNT SW AND W P0004 T01670143,KPPA,2023-06-01T06:35:00Z,35.62,-101.0,16.7,14.3,240,10,,10.0,29.949802,,,TRUE,TRUE,,,,,,RA,,,,,,,,,,,,,,,0.04,,,,,,METAR,989.0
KPOY 010635Z AUTO 32008KT 10SM CLR 12/03 A2986 RMK AO2,KPOY,2023-06-01T06:35:00Z,44.87,-108.8,12.0,3.0,320,8,,10.0,29.861221,,,TRUE,TRUE,,,,,,,CLR,,,,,,,,VFR,,,,,,,,,,,,METAR,1547.0
KPOV 010635Z AUTO 00000KT 10SM CLR 13/09 A3011 RMK AO2 T01250085 PWINO,KPOV,2023-06-01T06:35:00Z,41.22,-81.25,12.5,8.5,0,0,,10.0,30.109253,,,TRUE,TRUE,,,,,TRUE,,CLR,,,,,,,,VFR,,,,,,,,,,,,SPECI,363.0
KPO1 010635Z AUTO 11014KT 10SM CLR 19/15 A2978 RMK AO2 LTG DSNT W,KPO1,2023-06-01T06:35:00Z,48.13,-105.17,19.0,15.0,110,14,,10.0,29.778543,,,TRUE,TRUE,,,,,,,CLR,,,,,,,,VFR,,,,,,,,,,,,SPECI,621.0
KPNT 010635Z AUTO 11005KT 10SM SCT120 20/15 A3000 RMK AO2 T01960153,KPNT,2023-06-01T06:35:00Z,40.92,-88.62,19.6,15.3,110,5,,10.0,30.0,,,TRUE,TRUE,,,,,,,SCT,12000,,,,,,,VFR,,,,,,,,,,,,METAR,199.0
KPNM 010635Z AUTO 00000KT 10SM CLR 21/15 A2991 RMK AO2,KPNM,2023-06-01T06:35:00Z,45.53,-93.6,21.0,15.0,0,0,,10.0,29.911417,,,TRUE,TRUE,,,,,,,CLR,,,,,,,,VFR,,,,,,,,,,,,SPECI,298.0
KPNA 010635Z AUTO 29005KT 10SM BKN100 06/01 A2997 RMK AO2,KPNA,2023-06-01T06:35:00Z,42.8,-109.8,6.0,1.0,290,5,,10.0,29.970472,,,TRUE,TRUE,,,,,,,BKN,10000,,,,,,,VFR,,,,,,,,,,,,METAR,2158.0
KPMV 010635Z AUTO 14007KT 10SM CLR 21/18 A2989 RMK AO2 T02050178,KPMV,2023-06-01T06:35:00Z,40.95,-95.92,20.5,17.8,140,7,,10.0,29.890747,,,TRUE,TRUE,,,,,,,CLR,,,,,,,,VFR,,,,,,,,,,,,METAR,365.0
KPMU 010635Z AUTO 00000KT 9SM CLR 19/18 A2995 RMK AO2,KPMU,2023-06-01T06:35:00Z,34.37,-89.9,19.0,18.0,0,0,,9.0,29.949802,,,TRUE,TRUE,,,,,,,CLR,,,,,,,,VFR,,,,,,,,,,,,METAR,67.0
KPLU 010635Z AUTO 00000KT 10SM FEW044 SCT050 OVC070 13/08 A3008 RMK AO2,KPLU,2023-06-01T06:35:00Z,47.1,-122.28,13.0,8.0,0,0,,10.0,30.079725,,,TRUE,TRUE,,,,,,,FEW,4400,SCT,5000,OVC,7000,,,VFR,,,,,,,,,,,,SPECI,164.0
KPLR 010635Z AUTO 00000KT 5SM BR SCT027 BKN037 OVC045 18/18 A3002 RMK A01,KPLR,2023-06-01T06:35:00Z,33.57,-86.25,18.0,18.0,0,0,,5.0,30.02067,,,TRUE,TRUE,,,,,,BR,SCT,2700,BKN,3700,OVC,4500,,,MVFR,,,,,,,,,,,,SPECI,145.0
KPLD 010635Z AUTO 15003KT 10SM CLR 21/13 A3006 RMK AO2,KPLD,2023-06-01T06:35:00Z,40.45,-84.98,21.0,13.0,150,3,,10.0,30.059055,,,TRUE,TRUE,,,,,,,CLR,,,,,,,,VFR,,,,,,,,,,,,SPECI,282.0
KPKV 010635Z AUTO 14005KT 10SM CLR 25/23 A2985 RMK AO2 T02480225,KPKV,2023-06-01T06:35:00Z,28.65,-96.68,24.8,22.5,140,5,,10.0,29.84941,,,TRUE,TRUE,,,,,,,CLR,,,,,,,,VFR,,,,,,,,,,,,METAR,8.0
KPJC 010635Z AUTO 00000KT 10SM CLR 08/08 A3012 RMK AO2,KPJC,2023-06-01T06:35:00Z,40.8,-80.17,8.0,8.0,0,0,,10.0,30.121063,,,TRUE,TRUE,,,,,,,CLR,,,,,,,,VFR,,,,,,,,,,,,SPECI,273.0
KPIM 010635Z AUTO 07005KT 10SM CLR 20/16 A3002 RMK AO2 T01950161,KPIM,2023-06-01T06:35:00Z,32.83,-84.88,19.5,16.1,70,5,,10.0,30.02067,,,TRUE,TRUE,,,,,,,CLR,,,,,,,,VFR,,,,,,,,,,,,METAR,274.0
KPHT 010635Z AUTO 00000KT 10SM SCT120 20/18 A2999 RMK A01,KPHT,2023-06-01T06:35:00Z,36.33,-88.38,20.0,18.0,0,0,,10.0,29.991142,,,TRUE,TRUE,,,,,,,SCT,12000,,,,,,,VFR,,,,,,,,,,,,SPECI,172.0
KPHN 010635Z AUTO 00000KT 10SM CLR 12/10 A3010 RMK AO2,KPHN,2023-06-01T06:35:00Z,42.92,-82.52,12.0,10.0,0,0,,10.0,30.100393,,,TRUE,TRUE,,,,,,,CLR,,,,,,,,VFR,,,,,,,,,,,,METAR,195.0
KPEZ 010635Z AUTO 11003KT 10SM SCT013 23/21 A2985 RMK AO2 T02250211,KPEZ,2023-06-01T06:35:00Z,28.95,-98.52,22.5,21.1,110,3,,10.0,29.84941,,,TRUE,TRUE,,,,,,,SCT,1300,,,,,,,VFR,,,,,,,,,,,,SPECI,126.0
KPEX 010635Z AUTO 14005KT 10SM CLR 19/15 A2991 RMK AO2,KPEX,2023-06-01T06:35:00Z,45.37,-94.73,19.0,15.0,140,5,,10.0,29.911417,,,TRUE,TRUE,,,,,,,CLR,,,,,,,,VFR,,,,,,,,,,,,METAR,359.0
KPEQ 010635Z AUTO 01009KT 10SM CLR 22/17 A2978 RMK AO2 LTG DSNT N T02210166,KPEQ,2023-06-01T06:35:00Z,31.38,-103.52,22.1,16.6,10,9,,10.0,29.778543,,,TRUE,TRUE,,,,,,,CLR,,,,,,,,VFR,,,,,,,,,,,,METAR,794.0
KPEA 010635Z AUTO 13004KT 10SM CLR 21/16 A2995 RMK AO2 T02060164,KPEA,2023-06-01T06:35:00Z,41.4,-92.95,20.6,16.4,130,4,,10.0,29.949802,,,TRUE,TRUE,,,,,,,CLR,,,,,,,,VFR,,,,,,,,,,,,METAR,264.0
KPDC 010635Z AUTO 00000KT 10SM CLR 22/14 A2996 RMK AO2 T02210141,KPDC,2023-06-01T06:35:00Z,43.02,-91.12,22.1,14.1,0,0,,10.0,29.958662,,,TRUE,TRUE,,,,,,,CLR,,,,,,,,VFR,,,,,,,,,,,,SPECI,201.0
KPCZ 010635Z AUTO 00000KT 10SM CLR 20/17 A3002 RMK AO2 T01980167,KPCZ,2023-06-01T06:35:00Z,44.33,-89.02,19.8,16.7,0,0,,10.0,30.02067,,,TRUE,TRUE,,,,,,,CLR,,,,,,,,VFR,,,,,,,,,,,,METAR,248.0
KPCW 010635Z AUTO 13003KT 10SM CLR 17/15 A3007 RMK AO2,KPCW,2023-06-01T06:35:00Z,41.52,-82.87,17.0,15.0,130,3,,10.0,30.070866,,,TRUE,TRUE,,,,,,,CLR,,,,,,,,VFR,,,,,,,,,,,,SPECI,179.0
KPCM 010635Z AUTO 06004KT 10SM BKN011 OVC016 23/23 A2988 RMK AO2,KPCM,2023-06-01T06:35:00Z,28.0,-82.17,23.0,23.0,60,4,,10.0,29.878937,,,TRUE,TRUE,,,,,,,BKN,1100,OVC,1600,,,,,MVFR,,,,,,,,,,,,SPECI,43.0
KPBX 010635Z AUTO 12003KT 10SM CLR 19/13 A3008 RMK AO2 T01900128,KPBX,2023-06-01T06:35:00Z,37.57,-82.57,19.0,12.8,120,3,,10.0,30.079725,,,TRUE,TRUE,,,,,,,CLR,,,,,,,,VFR,,,,,,,,,,,,METAR,447.0
KPBH 010635Z AUTO 00000KT 10SM CLR 19/15 A3000 RMK AO2 T01900149,KPBH,2023-06-01T06:35:00Z,45.7,-90.4,19.0,14.9,0,0,,10.0,30.0,,,TRUE,TRUE,,,,,,,CLR,,,,,,,,VFR,,,,,,,,,,,,METAR,445.0
KPAN 010635Z AUTO 21003KT 10SM FEW070 14/02 A2994 RMK AO2 PWINO TSNO,KPAN,2023-06-01T06:35:00Z,34.25,-111.33,14.0,2.0,210,3,,10.0,29.940945,,,TRUE,TRUE,,,TRUE,,TRUE,,FEW,7000,,,,,,,VFR,,,,,,,,,,,,SPECI,1575.0
KP52 010635Z AUTO 24004KT 10SM BKN085 15/00 A2984 RMK AO2,KP52,2023-06-01T06:35:00Z,34.73,-112.03,15.0,0.0,240,4,,10.0,29.840551,,,TRUE,TRUE,,,,,,,BKN,8500,,,,,,,VFR,,,,,,,,,,,,METAR,1085.0
KP08 010635Z AUTO 20007KT 10SM CLR 20/01 A2979 RMK AO2,KP08,2023-06-01T06:35:00Z,32.93,-111.43,20.0,1.0,200,7,,10.0,29.790354,,,TRUE,TRUE,,,,,,,CLR,,,,,,,,VFR,,,,,,,,,,,,SPECI,477.0
KOZW 010635Z AUTO 11004KT 10SM CLR 17/11 A3009 RMK AO2 T01720109,KOZW,2023-06-01T06:35:00Z,42.62,-83.98,17.2,10.9,110,4,,10.0,30.088583,,,TRUE,TRUE,,,,,,,CLR,,,,,,,,VFR,,,,,,,,,,,,SPECI,288.0
KOZS 010635Z AUTO 16004KT 10SM CLR 18/17 A2999 RMK AO2,KOZS,2023-06-01T06:35:00Z,37.97,-92.68,18.0,17.0,160,4,,10.0,29.991142,,,TRUE,TRUE,,,,,,,CLR,,,,,,,,VFR,,,,,,,,,,,,SPECI,321.0
KOZA 010635Z AUTO 16015G20KT 10SM CLR 22/15 A2986 RMK AO2,KOZA,2023-06-01T06:35:00Z,30.73,-101.2,22.0,15.0,160,15,20,10.0,29.861221,,,TRUE,TRUE,,,,,,,CLR,,,,,,,,VFR,,,,,,,,,,,,METAR,721.0
KOYM 010635Z AUTO 00000KT 10SM OVC100 13/07 A3020 RMK AO2 PWINO,KOYM,2023-06-01T06:35:00Z,41.42,-78.5,13.0,7.0,0,0,,10.0,30.200787,,,TRUE,TRUE,,,,,TRUE,,OVC,10000,,,,,,,VFR,,,,,,,,,,,,METAR,582.0
KOXV 010635Z AUTO 17005KT 10SM SCT110 20/17 A2993 RMK AO2,KOXV,2023-06-01T06:35:00Z,41.28,-93.12,20.0,17.0,170,5,,10.0,29.929134,,,TRUE,TRUE,,,,,,,SCT,11000,,,,,,,VFR,,,,,,,,,,,,SPECI,280.0
KOXI 010635Z AUTO 16003KT 10SM CLR 18/18 A3002 RMK AO1,KOXI,2023-06-01T06:35:00Z,41.33,-86.67,18.0,18.0,160,3,,10.0,30.02067,,,TRUE,TRUE,,,,,,,CLR,,,,,,,,VFR,,,,,,,,,,,,METAR,208.0
KOWX 010635Z AUTO 13003KT 10SM CLR 18/11 A3008 RMK AO1,KOWX,2023-06-01T06:35:00Z,41.03,-83.98,18.0,11.0,130,3,,10.0,30.079725,,,TRUE,TRUE,,,,,,,CLR,,,,,,,,VFR,,,,,,,,,,,,METAR,232.0
KOWI 010635Z AUTO 14008KT 10SM CLR 22/20 A2990 RMK AO2 PWINO,KOWI,2023-06-01T06:35:00Z,38.53,-95.25,22.0,20.0,140,8,,10.0,29.899607,,,TRUE,TRUE,,,,,TRUE,,CLR,,,,,,,,VFR,,,,,,,,,,,,SPECI,292.0
KOVL 010635Z AUTO 13007KT 7SM CLR 20/15 A2988 RMK AO2,KOVL,2023-06-01T06:35:00Z,44.78,-95.03,20.0,15.0,130,7,,7.0,29.878937,,,TRUE,TRUE,,,,,,,CLR,,,,,,,,VFR,,,,,,,,,,,,SPECI,329.0
KOUN 010635Z AUTO 13011KT 10SM CLR 24/17 A2987 RMK AO2 T02380172,KOUN,2023-06-01T06:35:00Z,35.25,-97.47,23.8,17.2,130,11,,10.0,29.870079,,,TRUE,TRUE,,,,,,,CLR,,,,,,,,VFR,,,,,,,,,,,,METAR,359.0
KOSC 010635Z AUTO 00000KT 10SM CLR 14/10 A3010 RMK AO2 T01350099,KOSC,2023-06-01T06:35:00Z,44.45,-83.4,13.5,9.9,0,0,,10.0,30.100393,,,TRUE,TRUE,,,,,,,CLR,,,,,,,,VFR,,,,,,,,,,,,METAR,191.0
KOSA 010635Z AUTO 05003KT 10SM CLR 19/18 A2990 RMK AO2 T01950182,KOSA,2023-06-01T06:35:00Z,33.1,-94.97,19.5,18.2,50,3,,10.0,29.899607,,,TRUE,TRUE,,,,,,,CLR,,,,,,,,VFR,,,,,,,,,,,,METAR,108.0
KORS 010635Z AUTO 15005KT 10SM SCT055 12/08 A3005 RMK AO2,KORS,2023-06-01T06:35:00Z,48.7,-122.92,12.0,8.0,150,5,,10.0,30.050198,,,TRUE,TRUE,,,,,,,SCT,5500,,,,,,,VFR,,,,,,,,,,,,SPECI,7.0
KORK 010635Z AUTO 00000KT 10SM FEW045 FEW055 24/18 A2994 RMK AO2,KORK,2023-06-01T06:35:00Z,34.83,-92.25,24.0,18.0,0,0,,10.0,29.940945,,,TRUE,TRUE,,,,,,,FEW,4500,FEW,5500,,,,,VFR,,,,,,,,,,,,SPECI,166.0
KORG 010635Z AUTO 00000KT 4SM BR CLR 22/21 A2990 RMK AO2 T02180208,KORG,2023-06-01T06:35:00Z,30.07,-93.8,21.8,20.8,0,0,,4.0,29.899607,,,TRUE,TRUE,,,,,,BR,CLR,,,,,,,,MVFR,,,,,,,,,,,,METAR,2.0
KOQN 010635Z AUTO 00000KT 10SM CLR 12/11 A3014 RMK AO2,KOQN,2023-06-01T06:35:00Z,39.98,-75.58,12.0,11.0,0,0,,10.0,30.138779,,,TRUE,TRUE,,,,,,,CLR,,,,,,,,VFR,,,,,,,,,,,,METAR,141.0
KOPN 010635Z AUTO 07003KT 10SM SCT038 18/14 A3004 RMK AO2,KOPN,2023-06-01T06:35:00Z,32.95,-84.27,18.0,14.0,70,3,,10.0,30.041338,,,TRUE,TRUE,,,,,,,SCT,3800,,,,,,,VFR,,,,,,,,,,,,METAR,241.0
KOPL 010635Z AUTO 00000KT 10SM CLR 22/20 A2989 RMK AO2 T02150195,KOPL,2023-06-01T06:35:00Z,30.55,-92.1,21.5,19.5,0,0,,10.0,29.890747,,,TRUE,TRUE,,,,,,,CLR,,,,,,,,VFR,,,,,,,,,,,,METAR,22.0
KOOA 010635Z AUTO 17003KT 10SM CLR 22/17 A2996 RMK AO2 T02150170,KOOA,2023-06-01T06:35:00Z,41.23,-92.5,21.5,17.0,170,3,,10.0,29.958662,,,TRUE,TRUE,,,,,,,CLR,,,,,,,,VFR,,,,,,,,,,,,METAR,256.0
KONZ 010635Z AUTO 00000KT 10SM CLR 17/11 A3008 RMK AO2 T01730109,KONZ,2023-06-01T06:35:00Z,42.1,-83.15,17.3,10.9,0,0,,10.0,30.079725,,,TRUE,TRUE,,,,,,,CLR,,,,,,,,VFR,,,,,,,,,,,,METAR,179.0
KONP 010635Z AUTO 02004KT 10SM CLR 09/06 A3015 RMK AO2,KONP,2023-06-01T06:35:00Z,44.57,-124.05,9.0,6.0,20,4,,10.0,30.15059,,,TRUE,TRUE,,,,,,,CLR,,,,,,,,VFR,,,,,,,,,,,,METAR,43.0
KONM 010635Z AUTO 19003KT 10SM CLR 19/M10 A2983 RMK AO2 T01921099,KONM,2023-06-01T06:35:00Z,34.02,-106.9,19.2,-9.9,190,3,,10.0,29.828741,,,TRUE,TRUE,,,,,,,CLR,,,,,,,,VFR,,,,,,,,,,,,SPECI,1467.0
KONL 010635Z AUTO 00000KT 10SM CLR 19/13 A2987 RMK AO2 T01880125,KONL,2023-06-01T06:35:00Z,42.47,-98.68,18.8,12.5,0,0,,10.0,29.870079,,,TRUE,TRUE,,,,,,,CLR,,,,,,,,VFR,,,,,,,,,,,,METAR,619.0
KONA 010635Z AUTO 00000KT 10SM CLR 22/15 A2995 RMK AO2,KONA,2023-06-01T06:35:00Z,44.07,-91.7,22.0,15.0,0,0,,10.0,29.949802,,,TRUE,TRUE,,,,,,,CLR,,,,,,,,VFR,,,,,,,,,,,,SPECI,200.0
KOMH 010635Z AUTO 00000KT 10SM CLR 10/10 A3012 RMK AO2,KOMH,2023-06-01T06:35:00Z,38.25,-78.05,10.0,10.0,0,0,,10.0,30.121063,,,TRUE,TRUE,,,,,,,CLR,,,,,,,,VFR,,,,,,,,,,,,SPECI,136.0
KOLZ 010635Z AUTO 16005KT 10SM FEW210 20/15 A2997 RMK A01,KOLZ,2023-06-01T06:35:00Z,42.67,-91.97,20.0,15.0,160,5,,10.0,29.970472,,,TRUE,TRUE,,,,,,,FEW,21000,,,,,,,VFR,,,,,,,,,,,,METAR,328.0
KOLV 010635Z AUTO 11005KT 10SM CLR 22/18 A2996 RMK A01,KOLV,2023-06-01T06:35:00Z,34.98,-89.78,22.0,18.0,110,5,,10.0,29.958662,,,TRUE,TRUE,,,,,,,CLR,,,,,,,,VFR,,,,,,,,,,,,SPECI,124.0
KOLG 010635Z AUTO 00000KT 10SM SCT075 16/15 A2995 RMK AO1,KOLG,2023-06-01T06:35:00Z,46.3,-91.82,16.0,15.0,0,0,,10.0,29.949802,,,TRUE,TRUE,,,,,,,SCT,7500,,,,,,,VFR,,,,,,,,,,,,SPECI,334.0
KOKZ 010635Z AUTO 07005KT 10SM CLR 19/17 A3002 RMK AO2 T01890169,KOKZ,2023-06-01T06:35:00Z,32.97,-82.83,18.9,16.9,70,5,,10.0,30.02067,,,TRUE,TRUE,,,,,,,CLR,,,,,,,,VFR,,,,,,,,,,,,METAR,128.0
KOKV 010635Z AUTO 00000KT 10SM CLR 10/07 A3010 RMK AO2,KOKV,2023-06-01T06:35:00Z,39.13,-78.15,10.0,7.0,0,0,,10.0,30.100393,,,TRUE,TRUE,,,,,,,CLR,,,,,,,,VFR,,,,,,,,,,,,SPECI,213.0
KOKM 010635Z AUTO 12003KT 10SM CLR 19/19 A2991 RMK AO2 LTG DSNT E T01920192,KOKM,2023-06-01T06:35:00Z,35.67,-95.95,19.2,19.2,120,3,,10.0,29.911417,,,TRUE,TRUE,,,,,,,CLR,,,,,,,,VFR,,,,,,,,,,,,METAR,215.0
KOJA 010635Z AUTO 16010KT 10SM CLR 22/18 A2987 RMK AO2 T02210177,KOJA,2023-06-01T06:35:00Z,35.55,-98.67,22.1,17.7,160,10,,10.0,29.870079,,,TRUE,TRUE,,,,,,,CLR,,,,,,,,VFR,,,,,,,,,,,,SPECI,490.0
KOIN 010635Z AUTO 00000KT 10SM CLR 18/14 A2990 RMK AO1 T01750140,KOIN,2023-06-01T06:35:00Z,39.83,-100.53,17.5,14.0,0,0,,10.0,29.899607,,,TRUE,TRUE,,,,,,,CLR,,,,,,,,VFR,,,,,,,,,,,,SPECI,810.0
KOIC 010635Z AUTO 00000KT 10SM CLR 12/11 A3018 RMK AO2 T01200106 PWINO,KOIC,2023-06-01T06:35:00Z,42.57,-75.52,12.0,10.6,0,0,,10.0,30.180119,,,TRUE,TRUE,,,,,TRUE,,CLR,,,,,,,,VFR,,,,,,,,,,,,METAR,311.0
KOGS 010635Z AUTO 00000KT 10SM CLR 13/13 A3007 RMK AO2,KOGS,2023-06-01T06:35:00Z,44.67,-75.47,13.0,13.0,0,0,,10.0,30.070866,,,TRUE,TRUE,,,,,,,CLR,,,,,,,,VFR,,,,,,,,,,,,METAR,88.0
KOGA 010635Z AUTO 33005KT 10SM OVC100 18/15 A2990 RMK AO2 T01790153,KOGA,2023-06-01T06:35:00Z,41.12,-101.77,17.9,15.3,330,5,,10.0,29.899607,,,TRUE,TRUE,,,,,,,OVC,10000,,,,,,,VFR,,,,,,,,,,,,METAR,991.0
KOEO 010635Z AUTO 09003KT 10SM CLR 18/17 A2995 RMK AO2 T01820173,KOEO,2023-06-01T06:35:00Z,45.32,-92.7,18.2,17.3,90,3,,10.0,29.949802,,,TRUE,TRUE,,,,,,,CLR,,,,,,,,VFR,,,,,,,,,,,,SPECI,269.0
KOEL 010635Z AUTO 20006KT 10SM CLR 15/13 A2989 RMK AO1 T01520130,KOEL,2023-06-01T06:35:00Z,39.12,-100.82,15.2,13.0,200,6,,10.0,29.890747,,,TRUE,TRUE,,,,,,,CLR,,,,,,,,VFR,,,,,,,,,,,,SPECI,924.0
KOEB 010635Z AUTO 13005KT 10SM CLR 21/11 A3007 RMK AO2 T02050112,KOEB,2023-06-01T06:35:00Z,41.92,-85.05,20.5,11.2,130,5,,10.0,30.070866,,,TRUE,TRUE,,,,,,,CLR,,,,,,,,VFR,,,,,,,,,,,,SPECI,291.0
KOBE 010635Z AUTO 00000KT 4SM BR SCT002 22/22 A2984 RMK AO2,KOBE,2023-06-01T06:35:00Z,27.27,-80.85,22.0,22.0,0,0,,4.0,29.840551,,,TRUE,TRUE,,,,,,BR,SCT,200,,,,,,,MVFR,,,,,,,,,,,,METAR,11.0
KOAR 010635Z AUTO 29008G14KT 7SM OVC012 11/08 A2993 RMK AO2 PWINO,KOAR,2023-06-01T06:35:00Z,36.67,-121.77,11.0,8.0,290,8,14,7.0,29.929134,,,TRUE,TRUE,,,,,TRUE,,OVC,1200,,,,,,,MVFR,,,,,,,,,,,,METAR,41.0
KO69 010635Z AUTO 00000KT 9SM OVC016 08/08 A2985 RMK A01,KO69,2023-06-01T06:35:00Z,38.25,-122.6,8.0,8.0,0,0,,9.0,29.84941,,,TRUE,TRUE,,,,,,,OVC,1600,,,,,,,MVFR,,,,,,,,,,,,METAR,26.0
KO32 010635Z AUTO 28003KT 9SM CLR 19/16 A2979 RMK AO2 T01860161 $,KO32,2023-06-01T06:35:00Z,36.67,-119.45,18.6,16.1,280,3,,9.0,29.790354,,,TRUE,TRUE,TRUE,,,,,,CLR,,,,,,,,VFR,,,,,,,,,,,,SPECI,117.0
KO22 010635Z AUTO 00000KT 10SM CLR 14/11 A2985 RMK A01,KO22,2023-06-01T06:35:00Z,38.03,-120.42,14.0,11.0,0,0,,10.0,29.84941,,,TRUE,TRUE,,,,,,,CLR,,,,,,,,VFR,,,,,,,,,,,,SPECI,637.0
KNUQ 010635Z AUTO 14003KT 10SM CLR 13/09 A2989 RMK AO2,KNUQ,2023-06-01T06:35:00Z,37.4,-122.05,13.0,9.0,140,3,,10.0,29.890747,,,TRUE,TRUE,,,,,,,CLR,,,,,,,,VFR,,,,,,,,,,,,METAR,9.0
KNRN 010635Z AUTO 00000KT 10SM CLR 17/14 A2988 RMK AO2,KNRN,2023-06-01T06:35:00Z,39.85,-99.9,17.0,14.0,0,0,,10.0,29.878937,,,TRUE,TRUE,,,,,,,CLR,,,,,,,,VFR,,,,,,,,,,,,METAR,726.0
KNOW 010635Z AUTO 28009KT 10SM BKN070 10/08 A3010 RMK AO2 T01020077,KNOW,2023-06-01T06:35:00Z,48.13,-123.4,10.2,7.7,280,9,,10.0,30.100393,,,TRUE,TRUE,,,,,,,BKN,7000,,,,,,,VFR,,,,,,,,,,,,METAR,3.0
KN79 010635Z AUTO 09004KT 10SM CLR 12/07 A3013 RMK AO2 T01200073,KN79,2023-06-01T06:35:00Z,,,12.0,7.3,90,4,,10.0,30.129921,,,TRUE,TRUE,,,,,,,CLR,,,,,,,,VFR,,,,,,,,,,,,SPECI,
KN38 010635Z AUTO 00000KT 10SM CLR 13/10 A3016 RMK AO2,KN38,2023-06-01T06:35:00Z,41.73,-77.4,13.0,10.0,0,0,,10.0,30.159449,,,TRUE,TRUE,,,,,,,CLR,,,,,,,,VFR,,,,,,,,,,,,SPECI,576.0
KN03 010635Z AUTO 00000KT 10SM CLR 13/11 A3014 RMK AO2,KN03,2023-06-01T06:35:00Z,42.6,-76.22,13.0,11.0,0,0,,10.0,30.138779,,,TRUE,TRUE,,,,,,,CLR,,,,,,,,VFR,,,,,,,,,,,,METAR,361.0
KMZZ 010635Z AUTO 00000KT 10SM CLR 18/17 A3005 RMK AO2 T01820165,KMZZ,2023-06-01T06:35:00Z,40.48,-85.68,18.2,16.5,0,0,,10.0,30.050198,,,TRUE,TRUE,,,,,,,CLR,,,,,,,,VFR,,,,,,,,,,,,METAR,260.0
KMZH 010635Z AUTO 05003KT 10SM CLR 15/10 A2994 RMK AO2,KMZH,2023-06-01T06:35:00Z,46.42,-92.8,15.0,10.0,50,3,,10.0,29.940945,,,TRUE,TRUE,,,,,,,CLR,,,,,,,,VFR,,,,,,,,,,,,SPECI,331.0
KMYZ 010635Z AUTO 00000KT 10SM -RA SCT095 SCT120 19/17 A2988 RMK AO2 LTG DSNT N AND SE,KMYZ,2023-06-01T06:35:00Z,39.85,-96.63,19.0,17.0,0,0,,10.0,29.878937,,,TRUE,TRUE,,,,,,-RA,SCT,9500,SCT,12000,,,,,VFR,,,,,,,,,,,,METAR,388.0
KMYJ 010635Z AUTO 17003KT 10SM CLR 18/17 A2998 RMK AO2,KMYJ,2023-06-01T06:35:00Z,39.15,-91.82,18.0,17.0,170,3,,10.0,29.97933,,,TRUE,TRUE,,,,,,,CLR,,,,,,,,VFR,,,,,,,,,,,,METAR,249.0
KMWO 010635Z AUTO 36003KT 10SM CLR 16/16 A3006 RMK AO2 T0160////,KMWO,2023-06-01T06:35:00Z,39.53,-84.4,16.0,16.0,360,3,,10.0,30.059055,,,TRUE,TRUE,,,,,,,CLR,,,,,,,,VFR,,,,,,,,,,,,METAR,197.0
KMWM 010635Z AUTO 14007KT 10SM CLR 20/16 A2990 RMK AO2,KMWM,2023-06-01T06:35:00Z,43.9,-95.1,20.0,16.0,140,7,,10.0,29.899607,,,TRUE,TRUE,,,,,,,CLR,,,,,,,,VFR,,,,,,,,,,,,SPECI,427.0
KMWC 010635Z AUTO 00000KT 10SM CLR 17/12 A3004 RMK AO2,KMWC,2023-06-01T06:35:00Z,43.12,-88.03,17.0,12.0,0,0,,10.0,30.041338,,,TRUE,TRUE,,,,,,,CLR,,,,,,,,VFR,,,,,,,,,,,,SPECI,225.0
KMWA 010635Z AUTO 00000KT 10SM CLR 21/19 A3000 RMK AO2 T02070186,KMWA,2023-06-01T06:35:00Z,37.77,-89.02,20.7,18.6,0,0,,10.0,30.0,,,TRUE,TRUE,,,,,,,CLR,,,,,,,,VFR,,,,,,,,,,,,SPECI,142.0
KMVE 010635Z AUTO 15007KT 10SM CLR 19/16 A2987 RMK AO2,KMVE,2023-06-01T06:35:00Z,44.97,-95.72,19.0,16.0,150,7,,10.0,29.870079,,,TRUE,TRUE,,,,,,,CLR,,,,,,,,VFR,,,,,,,,,,,,METAR,319.0
KMUT 010635Z AUTO 00000KT 10SM CLR 20/17 A2996 RMK AO2,KMUT,2023-06-01T06:35:00Z,41.37,-91.15,20.0,17.0,0,0,,10.0,29.958662,,,TRUE,TRUE,,,,,,,CLR,,,,,,,,VFR,,,,,,,,,,,,METAR,166.0
KMTV 010635Z AUTO 00000KT 2SM BR CLR 12/11 A3012 RMK AO2 VIS 3/4V5 T01200106,KMTV,2023-06-01T06:35:00Z,36.63,-80.02,12.0,10.6,0,0,,2.0,30.121063,,,TRUE,TRUE,,,,,,BR,CLR,,,,,,,,IFR,,,,,,,,,,,,SPECI,276.0
KMRJ 010635Z AUTO 14006KT 10SM CLR 21/15 A3003 RMK AO2 PWINO,KMRJ,2023-06-01T06:35:00Z,42.88,-90.23,21.0,15.0,140,6,,10.0,30.029528,,,TRUE,TRUE,,,,,TRUE,,CLR,,,,,,,,VFR,,,,,,,,,,,,METAR,350.0
KMRC 010635Z AUTO 00000KT 8SM CLR 18/18 A2999 RMK A01,KMRC,2023-06-01T06:35:00Z,35.55,-87.18,18.0,18.0,0,0,,8.0,29.991142,,,TRUE,TRUE,,,,,,,CLR,,,,,,,,VFR,,,,,,,,,,,,SPECI,205.0
KMQW 010635Z AUTO 09003KT 10SM BKN120 20/18 A3000 RMK AO2 T02040181,KMQW,2023-06-01T06:35:00Z,32.1,-82.88,20.4,18.1,90,3,,10.0,30.0,,,TRUE,TRUE,,,,,,,BKN,12000,,,,,,,VFR,,,,,,,,,,,,METAR,62.0
KMQS 010635Z AUTO 00000KT 8SM CLR 12/12 A3014 RMK AO2,KMQS,2023-06-01T06:35:00Z,39.98,-75.87,12.0,12.0,0,0,,8.0,30.138779,,,TRUE,TRUE,,,,,,,CLR,,,,,,,,VFR,,,,,,,,,,,,SPECI,200.0
KMQJ 010635Z AUTO 13003KT 10SM CLR 19/16 A3005 RMK AO1,KMQJ,2023-06-01T06:35:00Z,39.85,-85.9,19.0,16.0,130,3,,10.0,30.050198,,,TRUE,TRUE,,,,,,,CLR,,,,,,,,VFR,,,,,,,,,,,,SPECI,262.0
KMQB 010635Z AUTO 00000KT 10SM CLR 20/15 A3000 RMK AO2 T02030150,KMQB,2023-06-01T06:35:00Z,40.52,-90.65,20.3,15.0,0,0,,10.0,30.0,,,TRUE,TRUE,,,,,,,CLR,,,,,,,,VFR,,,,,,,,,,,,METAR,205.0
KMPZ 010635Z AUTO 00000KT 10SM CLR 20/15 A2996 RMK AO2,KMPZ,2023-06-01T06:35:00Z,40.95,-91.52,20.0,15.0,0,0,,10.0,29.958662,,,TRUE,TRUE,,,,,,,CLR,,,,,,,,VFR,,,,,,,,,,,,METAR,222.0
KMPR 010635Z AUTO 19006KT 10SM CLR 19/16 A2990 RMK AO2 T01920157,KMPR,2023-06-01T06:35:00Z,38.35,-97.68,19.2,15.7,190,6,,10.0,29.899607,,,TRUE,TRUE,,,,,,,CLR,,,,,,,,VFR,,,,,,,,,,,,METAR,455.0
KMOX 010635Z AUTO 13009KT 10SM CLR 18/12 A2987 RMK AO2,KMOX,2023-06-01T06:35:00Z,45.57,-95.97,18.0,12.0,130,9,,10.0,29.870079,,,TRUE,TRUE,,,,,,,CLR,,,,,,,,VFR,,,,,,,,,,,,SPECI,346.0
KMOP 010635Z AUTO 00000KT 10SM CLR 15/11 A3009 RMK AO2 T01520112,KMOP,2023-06-01T06:35:00Z,43.62,-84.73,15.2,11.2,0,0,,10.0,30.088583,,,TRUE,TRUE,,,,,,,CLR,,,,,,,,VFR,,,,,,,,,,,,SPECI,229.0
KMNZ 010635Z AUTO 15006KT 10SM CLR 21/19 A2990 RMK AO2 T02100185,KMNZ,2023-06-01T06:35:00Z,31.67,-98.15,21.0,18.5,150,6,,10.0,29.899607,,,TRUE,TRUE,,,,,,,CLR,,,,,,,,VFR,,,,,,,,,,,,SPECI,397.0
KMNV 010635Z AUTO 00000KT 10SM 17/17 A3005 RMK A01,KMNV,2023-06-01T06:35:00Z,35.55,-84.38,17.0,17.0,0,0,,10.0,30.050198,,,TRUE,TRUE,,,,,,,,,,,,,,,,,,,,,,,,,,,SPECI,306.0
KMNE 010635Z AUTO 00000KT 10SM CLR 19/17 A2992 RMK AO2,KMNE,2023-06-01T06:35:00Z,32.65,-93.3,19.0,17.0,0,0,,10.0,29.920275,,,TRUE,TRUE,,,,,,,CLR,,,,,,,,VFR,,,,,,,,,,,,METAR,84.0
KMMU 010635Z AUTO 00000KT 10SM CLR 10/09 A3014 RMK AO2,KMMU,2023-06-01T06:35:00Z,40.78,-74.42,10.0,9.0,0,0,,10.0,30.138779,,,TRUE,TRUE,,,,,,,CLR,,,,,,,,VFR,,,,,,,,,,,,METAR,55.0
KMMI 010635Z AUTO 00000KT 10SM CLR 17/17 A3007 RMK A01,KMMI,2023-06-01T06:35:00Z,35.4,-84.57,17.0,17.0,0,0,,10.0,30.070866,,,TRUE,TRUE,,,,,,,CLR,,,,,,,,VFR,,,,,,,,,,,,SPECI,252.0
KMMH 010635Z AUTO 00000KT 10SM CLR 04/M02 A3001 RMK AO2 T00351019,KMMH,2023-06-01T06:35:00Z,37.62,-118.83,3.5,-1.9,0,0,,10.0,30.008858,,,TRUE,TRUE,,,,,,,CLR,,,,,,,,VFR,,,,,,,,,,,,METAR,2167.0
KMLJ 010635Z AUTO 00000KT 10SM CLR 18/18 A3002 RMK AO2,KMLJ,2023-06-01T06:35:00Z,33.15,-83.25,18.0,18.0,0,0,,10.0,30.02067,,,TRUE,TRUE,,,,,,,CLR,,,,,,,,VFR,,,,,,,,,,,,METAR,115.0
KMLE 010635Z AUTO 12003KT 10SM SCT046 21/18 A2990 RMK AO2 T02070177,KMLE,2023-06-01T06:35:00Z,41.2,-96.12,20.7,17.7,120,3,,10.0,29.899607,,,TRUE,TRUE,,,,,,,SCT,4600,,,,,,,VFR,,,,,,,,,,,,METAR,318.0
KMKS 010635Z AUTO 00000KT 10SM CLR 18/17 A3001 RMK AO2,KMKS,2023-06-01T06:35:00Z,33.18,-80.03,18.0,17.0,0,0,,10.0,30.008858,,,TRUE,TRUE,,,,,,,CLR,,,,,,,,VFR,,,,,,,,,,,,SPECI,22.0
KMKN 010635Z AUTO 14005KT 10SM 20/16 A2989 RMK AO2 T01990163,KMKN,2023-06-01T06:35:00Z,31.92,-98.6,19.9,16.3,140,5,,10.0,29.890747,,,TRUE,TRUE,,,,,,,,,,,,,,,,,,,,,,,,,,,METAR,428.0
KMKJ 010635Z AUTO 00000KT 7SM CLR 12/12 A3017 RMK AO2 T01200118,KMKJ,2023-06-01T06:35:00Z,36.88,-81.33,12.0,11.8,0,0,,7.0,30.171259,,,TRUE,TRUE,,,,,,,CLR,,,,,,,,VFR,,,,,,,,,,,,SPECI,777.0
KMJQ 010635Z AUTO 17008KT 10SM CLR 21/16 A2993 RMK AO2 PWINO,KMJQ,2023-06-01T06:35:00Z,43.63,-94.98,21.0,16.0,170,8,,10.0,29.929134,,,TRUE,TRUE,,,,,TRUE,,CLR,,,,,,,,VFR,,,,,,,,,,,,SPECI,439.0
KMJD 010635Z AUTO 00000KT 10SM CLR 19/19 A2989 RMK AO2,KMJD,2023-06-01T06:35:00Z,30.48,-89.65,19.0,19.0,0,0,,10.0,29.890747,,,TRUE,TRUE,,,,,,,CLR,,,,,,,,VFR,,,,,,,,,,,,METAR,17.0
KMHR 010635Z AUTO 17004KT 10SM CLR 13/09 A2981 RMK AO2,KMHR,2023-06-01T06:35:00Z,38.55,-121.28,13.0,9.0,170,4,,10.0,29.811024,,,TRUE,TRUE,,,,,,,CLR,,,,,,,,VFR,,,,,,,,,,,,METAR,30.0
KMHP 010635Z AUTO 00000KT 7SM CLR 19/ A3000 RMK AO2 T0190////,KMHP,2023-06-01T06:35:00Z,32.37,-82.08,19.0,,0,0,,7.0,30.0,,,TRUE,TRUE,,,,,,,CLR,,,,,,,,VFR,,,,,,,,,,,,METAR,60.0
KMHL 010635Z AUTO 16003KT 10SM SCT100 21/18 A2996 RMK AO2,KMHL,2023-06-01T06:35:00Z,39.1,-93.2,21.0,18.0,160,3,,10.0,29.958662,,,TRUE,TRUE,,,,,,,SCT,10000,,,,,,,VFR,,,,,,,,,,,,SPECI,236.0
KMGR 010635Z AUTO VRB03KT 10SM OVC110 21/20 A2997 RMK AO2 RAE0555 P0000 T02060197,KMGR,2023-06-01T06:35:00Z,31.08,-83.8,20.6,19.7,0,3,,10.0,29.970472,,,TRUE,TRUE,,,,,,,OVC,11000,,,,,,,VFR,,,,,,0.005,,,,,,SPECI,86.0
KMGN 010635Z AUTO 07005KT 10SM CLR 16/16 A3008 RMK AO2 T01690165,KMGN,2023-06-01T06:35:00Z,45.43,-84.92,16.9,16.5,70,5,,10.0,30.079725,,,TRUE,TRUE,,,,,,,CLR,,,,,,,,VFR,,,,,,,,,,,,SPECI,205.0
KMGG 010635Z AUTO 00000KT 10SM CLR 18/14 A2991 RMK AO2 T01810141,KMGG,2023-06-01T06:35:00Z,45.23,-93.98,18.1,14.1,0,0,,10.0,29.911417,,,TRUE,TRUE,,,,,,,CLR,,,,,,,,VFR,,,,,,,,,,,,SPECI,310.0
KMGC 010635Z AUTO 00000KT 10SM OVC110 17/16 A3003 RMK AO2,KMGC,2023-06-01T06:35:00Z,41.7,-86.82,17.0,16.0,0,0,,10.0,30.029528,,,TRUE,TRUE,,,,,,,OVC,11000,,,,,,,VFR,,,,,,,,,,,,METAR,199.0
KMFV 010635Z AUTO 00000KT 5SM BR OVC005 16/15 A3005 RMK AO2 T01610150,KMFV,2023-06-01T06:35:00Z,37.63,-75.77,16.1,15.0,0,0,,5.0,30.050198,,,TRUE,TRUE,,,,,,BR,OVC,500,,,,,,,IFR,,,,,,,,,,,,SPECI,13.0
KMEZ 010635Z AUTO 00000KT 9SM CLR 16/16 A2996 RMK AO2 T01630163,KMEZ,2023-06-01T06:35:00Z,34.55,-94.2,16.3,16.3,0,0,,9.0,29.958662,,,TRUE,TRUE,,,,,,,CLR,,,,,,,,VFR,,,,,,,,,,,,SPECI,320.0
KMEV 010635Z AUTO 23004KT 10SM FEW036 SCT050 BKN065 10/06 A2993 RMK AO2,KMEV,2023-06-01T06:35:00Z,38.98,-119.75,10.0,6.0,230,4,,10.0,29.929134,,,TRUE,TRUE,,,,,,,FEW,3600,SCT,5000,BKN,6500,,,VFR,,,,,,,,,,,,METAR,1437.0
KMER 010635Z AUTO 27005KT 10SM CLR 17/10 A2982 RMK AO1,KMER,2023-06-01T06:35:00Z,37.38,-120.57,17.0,10.0,270,5,,10.0,29.819881,,,TRUE,TRUE,,,,,,,CLR,,,,,,,,VFR,,,,,,,,,,,,METAR,58.0
KMDZ 010635Z AUTO 13003KT 10SM CLR 19/15 A3001 RMK AO2 T01910151 PWINO,KMDZ,2023-06-01T06:35:00Z,45.1,-90.3,19.1,15.1,130,3,,10.0,30.008858,,,TRUE,TRUE,,,,,TRUE,,CLR,,,,,,,,VFR,,,,,,,,,,,,SPECI,446.0
KMDS 010635Z AUTO 15011G17KT 10SM CLR 21/16 A2986 RMK AO2,KMDS,2023-06-01T06:35:00Z,44.02,-97.08,21.0,16.0,150,11,17,10.0,29.861221,,,TRUE,TRUE,,,,,,,CLR,,,,,,,,VFR,,,,,,,,,,,,SPECI,524.0
KMDQ 010635Z AUTO 00000KT 7SM CLR 18/17 A3004 RMK A02 T01780171,KMDQ,2023-06-01T06:35:00Z,34.87,-86.55,17.8,17.1,0,0,,7.0,30.041338,,,TRUE,TRUE,,,,,,,CLR,,,,,,,,VFR,,,,,,,,,,,,METAR,221.0
KMDD 010635Z AUTO 10012KT 10SM OVC040 24/14 A2987 RMK AO2 T02400142,KMDD,2023-06-01T06:35:00Z,32.03,-102.1,24.0,14.2,100,12,,10.0,29.870079,,,TRUE,TRUE,,,,,,,OVC,4000,,,,,,,VFR,,,,,,,,,,,,METAR,853.0
KMCJ 010635Z AUTO 17008KT 10SM SCT049 BKN060 24/21 A2986 RMK A01,KMCJ,2023-06-01T06:35:00Z,29.72,-95.4,24.0,21.0,170,8,,10.0,29.861221,,,TRUE,TRUE,,,,,,,SCT,4900,BKN,6000,,,,,VFR,,,,,,,,,,,,SPECI,70.0
KMCD 010635Z AUTO 14007KT 10SM CLR 18/15 A3008 RMK AO2 T01840146,KMCD,2023-06-01T06:35:00Z,45.85,-84.63,18.4,14.6,140,7,,10.0,30.079725,,,TRUE,TRUE,,,,,,,CLR,,,,,,,,VFR,,,,,,,,,,,,METAR,228.0
KMCC 010635Z AUTO 18009KT 9SM CLR 15/10 A2981 RMK AO2,KMCC,2023-06-01T06:35:00Z,38.67,-121.4,15.0,10.0,180,9,,9.0,29.811024,,,TRUE,TRUE,,,,,,,CLR,,,,,,,,VFR,,,,,,,,,,,,METAR,21.0
KMBY 010635Z AUTO 16007KT 10SM CLR 21/15 A2996 RMK AO2,KMBY,2023-06-01T06:35:00Z,39.47,-92.43,21.0,15.0,160,7,,10.0,29.958662,,,TRUE,TRUE,,,,,,,CLR,,,,,,,,VFR,,,,,,,,,,,,SPECI,263.0
KMBT 010635Z AUTO 00000KT 10SM FEW038 SCT043 SCT049 19/18 A3000 RMK A01,KMBT,2023-06-01T06:35:00Z,35.88,-86.38,19.0,18.0,0,0,,10.0,30.0,,,TRUE,TRUE,,,,,,,FEW,3800,SCT,4300,SCT,4900,,,VFR,,,,,,,,,,,,SPECI,187.0
KMBO 010635Z AUTO 00000KT 10SM CLR 20/21 A2993 RMK AO2,KMBO,2023-06-01T06:35:00Z,32.43,-90.1,20.0,21.0,0,0,,10.0,29.929134,,,TRUE,TRUE,,,,,,,CLR,,,,,,,,VFR,,,,,,,,,,,,SPECI,98.0
KMAW 010635Z AUTO 00000KT 10SM SCT065 22/17 A2999 RMK AO1,KMAW,2023-06-01T06:35:00Z,36.6,-90.0,22.0,17.0,0,0,,10.0,29.991142,,,TRUE,TRUE,,,,,,,SCT,6500,,,,,,,VFR,,,,,,,,,,,,SPECI,88.0
KMAO 010635Z AUTO 00000KT 10SM SCT065 17/17 A3003 RMK AO2,KMAO,2023-06-01T06:35:00Z,34.18,-79.33,17.0,17.0,0,0,,10.0,30.029528,,,TRUE,TRUE,,,,,,,SCT,6500,,,,,,,VFR,,,,,,,,,,,,SPECI,27.0
KMAN 010635Z AUTO 29004KT 10SM FEW028 15/15 A2985 RMK A01,KMAN,2023-06-01T06:35:00Z,43.58,-116.52,15.0,15.0,290,4,,10.0,29.84941,,,TRUE,TRUE,,,,,,,FEW,2800,,,,,,,VFR,,,,,,,,,,,,SPECI,773.0
KM91 010635Z AUTO 00000KT 4SM BR FEW035 SCT044 18/18 A2999 RMK A01,KM91,2023-06-01T06:35:00Z,36.53,-86.92,18.0,18.0,0,0,,4.0,29.991142,,,TRUE,TRUE,,,,,,BR,FEW,3500,SCT,4400,,,,,MVFR,,,,,,,,,,,,SPECI,214.0
KM75 010635Z AUTO 00000KT 10SM SCT031 BKN075 OVC110 16/16 A2978 RMK A01,KM75,2023-06-01T06:35:00Z,48.37,-107.92,16.0,16.0,0,0,,10.0,29.778543,,,TRUE,TRUE,,,,,,,SCT,3100,BKN,7500,OVC,11000,,,VFR,,,,,,,,,,,,SPECI,687.0
KM54 010635Z AUTO 00000KT 10SM CLR 18/18 A2999 RMK A01,KM54,2023-06-01T06:35:00Z,36.18,-86.32,18.0,18.0,0,0,,10.0,29.991142,,,TRUE,TRUE,,,,,,,CLR,,,,,,,,VFR,,,,,,,,,,,,SPECI,168.0
KM40 010635Z AUTO 00000KT 8SM CLR 19/19 A2998 RMK AO2,KM40,2023-06-01T06:35:00Z,33.87,-88.48,19.0,19.0,0,0,,8.0,29.97933,,,TRUE,TRUE,,,,,,,CLR,,,,,,,,VFR,,,,,,,,,,,,SPECI,68.0
KM30 010635Z AUTO 00000KT 10SM CLR 19/18 A3000 RMK AO2 T01910175,KM30,2023-06-01T06:35:00Z,37.18,-88.75,19.1,17.5,0,0,,10.0,30.0,,,TRUE,TRUE,,,,,,,CLR,,,,,,,,VFR,,,,,,,,,,,,METAR,116.0
KM25 010635Z AUTO 00000KT 10SM CLR 20/17 A3001 RMK AO2 PWINO,KM25,2023-06-01T06:35:00Z,36.77,-88.58,20.0,17.0,0,0,,10.0,30.008858,,,TRUE,TRUE,,,,,TRUE,,CLR,,,,,,,,VFR,,,,,,,,,,,,METAR,157.0
KM21 010635Z AUTO 00000KT 10SM CLR 18/18 A3000 RMK AO2 T01800177,KM21,2023-06-01T06:35:00Z,37.22,-87.15,18.0,17.7,0,0,,10.0,30.0,,,TRUE,TRUE,,,,,,,CLR,,,,,,,,VFR,,,,,,,,,,,,SPECI,127.0
KM08 010635Z AUTO 00000KT 8SM CLR 18/18 A2998 RMK A01,KM08,2023-06-01T06:35:00Z,35.22,-89.05,18.0,18.0,0,0,,8.0,29.97933,,,TRUE,TRUE,,,,,,,CLR,,,,,,,,VFR,,,,,,,,,,,,SPECI,149.0
KM04 010635Z AUTO 13004KT 10SM CLR 22/18 A2996 RMK A01,KM04,2023-06-01T06:35:00Z,35.58,-89.58,22.0,18.0,130,4,,10.0,29.958662,,,TRUE,TRUE,,,,,,,CLR,,,,,,,,VFR,,,,,,,,,,,,SPECI,83.0
KM02 010635Z AUTO 00000KT 10SM CLR 18/17 A3000 RMK A01,KM02,2023-06-01T06:35:00Z,36.13,-87.43,18.0,17.0,0,0,,10.0,30.0,,,TRUE,TRUE,,,,,,,CLR,,,,,,,,VFR,,,,,,,,,,,,SPECI,268.0
KM01 010635Z AUTO 11005KT 10SM CLR 22/19 A2994 RMK AO2 T02230192 $,KM01,2023-06-01T06:35:00Z,35.2,-90.05,22.3,19.2,110,5,,10.0,29.940945,,,TRUE,TRUE,TRUE,,,,,,CLR,,,,,,,,VFR,,,,,,,,,,,,SPECI,68.0
KLYV 010635Z AUTO 15003KT 10SM CLR 17/14 A2990 RMK AO2,KLYV,2023-06-01T06:35:00Z,43.62,-96.22,17.0,14.0,150,3,,10.0,29.899607,,,TRUE,TRUE,,,,,,,CLR,,,,,,,,VFR,,,,,,,,,,,,SPECI,435.0
KLYO 010635Z AUTO 16007KT 10SM CLR 20/16 A2989 RMK AO2 T01960158,KLYO,2023-06-01T06:35:00Z,38.35,-98.23,19.6,15.8,160,7,,10.0,29.890747,,,TRUE,TRUE,,,,,,,CLR,,,,,,,,VFR,,,,,,,,,,,,METAR,515.0
KLXY 010635Z AUTO 14003KT 10SM CLR 23/19 A2987 RMK AO2 T02250191,KLXY,2023-06-01T06:35:00Z,31.63,-96.52,22.5,19.1,140,3,,10.0,29.870079,,,TRUE,TRUE,,,,,,,CLR,,,,,,,,VFR,,,,,,,,,,,,METAR,164.0
KLXN 010635Z AUTO 09005KT 10SM CLR 18/15 A2987 RMK AO2 T01760145,KLXN,2023-06-01T06:35:00Z,40.78,-99.77,17.6,14.5,90,5,,10.0,29.870079,,,TRUE,TRUE,,,,,,,CLR,,,,,,,,VFR,,,,,,,,,,,,METAR,734.0
KLXL 010635Z AUTO 00000KT 10SM CLR 16/15 A2990 RMK AO2,KLXL,2023-06-01T06:35:00Z,45.95,-94.33,16.0,15.0,0,0,,10.0,29.899607,,,TRUE,TRUE,,,,,,,CLR,,,,,,,,VFR,,,,,,,,,,,,SPECI,335.0
KLWB 010635Z AUTO 00000KT 1 1/4SM BR BKN001 BKN065 11/11 A3015 RMK AO2 VIS 1V2 1/2 T01140110,KLWB,2023-06-01T06:35:00Z,37.87,-80.4,11.4,11.0,0,0,,1.25,30.15059,,,TRUE,TRUE,,,,,,BR,BKN,100,BKN,6500,,,,,LIFR,,,,,,,,,,,,SPECI,702.0
KLWA 010635Z AUTO 00000KT 10SM CLR 18/16 A3003 RMK AO2 T01750162,KLWA,2023-06-01T06:35:00Z,42.35,-86.25,17.5,16.2,0,0,,10.0,30.029528,,,TRUE,TRUE,,,,,,,CLR,,,,,,,,VFR,,,,,,,,,,,,SPECI,199.0
KLVN 010635Z AUTO 00000KT 10SM CLR 22/16 A2993 RMK AO2,KLVN,2023-06-01T06:35:00Z,44.63,-93.23,22.0,16.0,0,0,,10.0,29.929134,,,TRUE,TRUE,,,,,,,CLR,,,,,,,,VFR,,,,,,,,,,,,METAR,292.0
KLVL 010635Z AUTO 00000KT 10SM CLR 16/16 A3007 RMK AO1 T01610156,KLVL,2023-06-01T06:35:00Z,36.78,-77.8,16.1,15.6,0,0,,10.0,30.070866,,,TRUE,TRUE,,,,,,,CLR,,,,,,,,VFR,,,,,,,,,,,,SPECI,98.0
KLUX 010635Z AUTO 01003KT 10SM CLR 15/15 A3005 RMK AO2,KLUX,2023-06-01T06:35:00Z,34.5,-81.95,15.0,15.0,10,3,,10.0,30.050198,,,TRUE,TRUE,,,,,,,CLR,,,,,,,,VFR,,,,,,,,,,,,SPECI,213.0
KLUV 010635Z AUTO 14004KT 10SM -RA SCT023 SCT029 21/19 A2992 RMK AO2 P0002,KLUV,2023-06-01T06:35:00Z,32.75,-101.92,21.0,19.0,140,4,,10.0,29.920275,,,TRUE,TRUE,,,,,,-RA,SCT,2300,SCT,2900,,,,,VFR,,,,,,0.02,,,,,,METAR,910.0
KLUM 010635Z 00000KT 10SM CLR 22/12 A2994 RMK AO2 T02150118 PWINO,KLUM,2023-06-01T06:35:00Z,44.9,-91.87,21.5,11.8,0,0,,10.0,29.940945,,,,TRUE,,,,,TRUE,,CLR,,,,,,,,VFR,,,,,,,,,,,,SPECI,271.0
KLUL 010635Z AUTO 36003KT 10SM SCT110 19/ A2992 RMK A02 T0191////,KLUL,2023-06-01T06:35:00Z,31.67,-89.17,19.1,,360,3,,10.0,29.920275,,,TRUE,TRUE,,,,,,,SCT,11000,,,,,,,VFR,,,,,,,,,,,,METAR,74.0
KLUG 010635Z AUTO 00000KT 10SM CLR 17/17 A3002 RMK A01,KLUG,2023-06-01T06:35:00Z,35.52,-86.8,17.0,17.0,0,0,,10.0,30.02067,,,TRUE,TRUE,,,,,,,CLR,,,,,,,,VFR,,,,,,,,,,,,SPECI,218.0
KLUD 010635Z AUTO 13004KT 7SM CLR 23/18 A2988 RMK AO2 T02330179,KLUD,2023-06-01T06:35:00Z,33.25,-97.58,23.3,17.9,130,4,,7.0,29.878937,,,TRUE,TRUE,,,,,,,CLR,,,,,,,,VFR,,,,,,,,,,,,METAR,319.0
KLUA 010635Z AUTO 00000KT 10SM CLR 08/07 A3012 RMK AO2,KLUA,2023-06-01T06:35:00Z,38.67,-78.5,8.0,7.0,0,0,,10.0,30.121063,,,TRUE,TRUE,,,,,,,CLR,,,,,,,,VFR,,,,,,,,,,,,SPECI,273.0
KLRY 010635Z AUTO 15003KT 10SM CLR 21/18 A2997 RMK AO2 PWINO,KLRY,2023-06-01T06:35:00Z,38.62,-94.35,21.0,18.0,150,3,,10.0,29.970472,,,TRUE,TRUE,,,,,TRUE,,CLR,,,,,,,,VFR,,,,,,,,,,,,SPECI,272.0
KLRU 010635Z AUTO 26013KT 10SM CLR 23/M06 A2986 RMK AO2 T02341062,KLRU,2023-06-01T06:35:00Z,32.28,-106.92,23.4,-6.2,260,13,,10.0,29.861221,,,TRUE,TRUE,,,,,,,CLR,,,,,,,,VFR,,,,,,,,,,,,METAR,1355.0
KLRO 010635Z AUTO 00000KT 6SM BR CLR 19/19 A3000 RMK AO2,KLRO,2023-06-01T06:35:00Z,32.9,-79.78,19.0,19.0,0,0,,6.0,30.0,,,TRUE,TRUE,,,,,,BR,CLR,,,,,,,,VFR,,,,,,,,,,,,SPECI,3.0
KLRJ 010635Z AUTO 15007KT 10SM CLR 21/17 A2988 RMK AO2,KLRJ,2023-06-01T06:35:00Z,42.77,-96.2,21.0,17.0,150,7,,10.0,29.878937,,,TRUE,TRUE,,,,,,,CLR,,,,,,,,VFR,,,,,,,,,,,,METAR,363.0
KLQK 010635Z AUTO 05003KT 10SM CLR 15/15 A3007 RMK AO2 T01470147,KLQK,2023-06-01T06:35:00Z,34.82,-82.7,14.7,14.7,50,3,,10.0,30.070866,,,TRUE,TRUE,,,,,,,CLR,,,,,,,,VFR,,,,,,,,,,,,SPECI,291.0
KLOT 010635Z AUTO 12004KT 10SM CLR 19/18 A3002 RMK AO2,KLOT,2023-06-01T06:35:00Z,41.6,-88.1,19.0,18.0,120,4,,10.0,30.02067,,,TRUE,TRUE,,,,,,,CLR,,,,,,,,VFR,,,,,,,,,,,,METAR,205.0
KLOM 010635Z AUTO 00000KT 7SM BR CLR 10/10 A3014 RMK AO2 T01010100,KLOM,2023-06-01T06:35:00Z,40.13,-75.27,10.1,10.0,0,0,,7.0,30.138779,,,TRUE,TRUE,,,,,,BR,CLR,,,,,,,,VFR,,,,,,,,,,,,METAR,87.0
KLNQ 010635Z AUTO 08003KT 10SM CLR 24/21 A2989 RMK AO2 T02430211,KLNQ,2023-06-01T06:35:00Z,29.35,-89.43,24.3,21.1,80,3,,10.0,29.890747,,,TRUE,TRUE,,,,,,,CLR,,,,,,,,VFR,,,,,,,,,,,,METAR,1.0
KLNP 010635Z AUTO 18005KT 10SM CLR 13/11 A3014 RMK AO2,KLNP,2023-06-01T06:35:00Z,36.98,-82.52,13.0,11.0,180,5,,10.0,30.138779,,,TRUE,TRUE,,,,,,,CLR,,,,,,,,VFR,,,,,,,,,,,,SPECI,817.0
KLNN 010635Z AUTO 00000KT 10SM CLR 13/12 A3009 RMK AO1 T01320115,KLNN,2023-06-01T06:35:00Z,41.68,-81.38,13.2,11.5,0,0,,10.0,30.088583,,,TRUE,TRUE,,,,,,,CLR,,,,,,,,VFR,,,,,,,,,,,,METAR,190.0
KLNL 010635Z AUTO 00000KT 10SM CLR 16/15 A3005 RMK AO2 T01590145,KLNL,2023-06-01T06:35:00Z,46.15,-89.22,15.9,14.5,0,0,,10.0,30.050198,,,TRUE,TRUE,,,,,,,CLR,,,,,,,,VFR,,,,,,,,,,,,SPECI,517.0
KLNC 010635Z AUTO 12003KT 10SM CLR 21/18 A2988 RMK AO2 T02070184,KLNC,2023-06-01T06:35:00Z,32.58,-96.72,20.7,18.4,120,3,,10.0,29.878937,,,TRUE,TRUE,,,,,,,CLR,,,,,,,,VFR,,,,,,,,,,,,SPECI,152.0
KLNA 010635Z AUTO 00000KT 10SM SCT022 25/25 A2985 RMK AO2 T02460245,KLNA,2023-06-01T06:35:00Z,26.6,-80.08,24.6,24.5,0,0,,10.0,29.84941,,,TRUE,TRUE,,,,,,,SCT,2200,,,,,,,VFR,,,,,,,,,,,,SPECI,3.0
KLMS 010635Z AUTO 00000KT 1/4SM FG VV002 19/19 A2999 RMK AO2,KLMS,2023-06-01T06:35:00Z,,,19.0,19.0,0,0,,0.25,29.991142,,,TRUE,TRUE,,,,,,FG,OVX,0,,,,,,,LIFR,,,,,,,,,,,200,SPECI,
KLMO 010635Z AUTO 11003KT 10SM CLR 15/08 A2991 RMK AO2 T01470077,KLMO,2023-06-01T06:35:00Z,40.17,-105.17,14.7,7.7,110,3,,10.0,29.911417,,,TRUE,TRUE,,,,,,,CLR,,,,,,,,VFR,,,,,,,,,,,,METAR,1535.0
KLLN 010635Z AUTO 13013KT 10SM 20/15 A2988 RMK AO2,KLLN,2023-06-01T06:35:00Z,33.55,-102.37,20.0,15.0,130,13,,10.0,29.878937,,,TRUE,TRUE,,,,,,,,,,,,,,,,,,,,,,,,,,,METAR,1071.0
KLKU 010635Z AUTO 00000KT 10SM CLR 10/10 A3010 RMK AO2 T01050101,KLKU,2023-06-01T06:35:00Z,38.02,-77.97,10.5,10.1,0,0,,10.0,30.100393,,,TRUE,TRUE,,,,,,,CLR,,,,,,,,VFR,,,,,,,,,,,,SPECI,146.0
KLKR 010635Z AUTO 00000KT 10SM OVC049 17/17 A3005 RMK AO2,KLKR,2023-06-01T06:35:00Z,34.72,-80.85,17.0,17.0,0,0,,10.0,30.050198,,,TRUE,TRUE,,,,,,,OVC,4900,,,,,,,VFR,,,,,,,,,,,,SPECI,166.0
KLJF 010635Z AUTO 15003KT 10SM CLR 19/15 A2990 RMK AO2,KLJF,2023-06-01T06:35:00Z,45.1,-94.52,19.0,15.0,150,3,,10.0,29.899607,,,TRUE,TRUE,,,,,,,CLR,,,,,,,,VFR,,,,,,,,,,,,SPECI,347.0
KLHM 010635Z AUTO 16008KT 10SM CLR 15/10 A2980 RMK AO1,KLHM,2023-06-01T06:35:00Z,38.92,-121.35,15.0,10.0,160,8,,10.0,29.799213,,,TRUE,TRUE,,,,,,,CLR,,,,,,,,VFR,,,,,,,,,,,,METAR,36.0
KLHB 010635Z AUTO 14004KT 10SM CLR 24/20 A2988 RMK AO2 T02360200,KLHB,2023-06-01T06:35:00Z,30.87,-96.62,23.6,20.0,140,4,,10.0,29.878937,,,TRUE,TRUE,,,,,,,CLR,,,,,,,,VFR,,,,,,,,,,,,SPECI,83.0
KLGC 010635Z AUTO 00000KT 10SM CLR 19/16 A3002 RMK AO2 T01870164,KLGC,2023-06-01T06:35:00Z,33.0,-85.07,18.7,16.4,0,0,,10.0,30.02067,,,TRUE,TRUE,,,,,,,CLR,,,,,,,,VFR,,,,,,,,,,,,METAR,209.0
KLDM 010635Z AUTO 09005KT 10SM CLR 18/16 A3003 RMK AO2 T01830157,KLDM,2023-06-01T06:35:00Z,43.97,-86.4,18.3,15.7,90,5,,10.0,30.029528,,,TRUE,TRUE,,,,,,,CLR,,,,,,,,VFR,,,,,,,,,,,,SPECI,194.0
KLCQ 010635Z AUTO 00000KT 10SM SCT008 BKN120 20/20 A2993 RMK AO2,KLCQ,2023-06-01T06:35:00Z,30.18,-82.58,20.0,20.0,0,0,,10.0,29.929134,,,TRUE,TRUE,,,,,,,SCT,800,BKN,12000,,,,,VFR,,,,,,,,,,,,METAR,59.0
KLCG 010635Z AUTO 15008KT 10SM CLR 21/16 A2988 RMK AO2 T02100163,KLCG,2023-06-01T06:35:00Z,42.25,-96.98,21.0,16.3,150,8,,10.0,29.878937,,,TRUE,TRUE,,,,,,,CLR,,,,,,,,VFR,,,,,,,,,,,,METAR,434.0
KLBO 010635Z AUTO 14003KT 10SM CLR 19/17 A3000 RMK AO2,KLBO,2023-06-01T06:35:00Z,37.65,-92.65,19.0,17.0,140,3,,10.0,30.0,,,TRUE,TRUE,,,,,,,CLR,,,,,,,,VFR,,,,,,,,,,,,SPECI,399.0
KLBE 010635Z AUTO 00000KT 10SM CLR 11/08 A3013 RMK AO2,KLBE,2023-06-01T06:35:00Z,40.27,-79.4,11.0,8.0,0,0,,10.0,30.129921,,,TRUE,TRUE,,,,,,,CLR,,,,,,,,VFR,,,,,,,,,,,,SPECI,345.0
KLAM 010635Z AUTO 07005KT 10SM BKN110 OVC180 09/06 A3006 RMK AO2 LTG DSNT NE AND E RAE0613 P0002 T00900061 $,KLAM,2023-06-01T06:35:00Z,35.87,-106.27,9.0,6.1,70,5,,10.0,30.059055,,,TRUE,TRUE,TRUE,,,,,,BKN,11000,OVC,18000,,,,,VFR,,,,,,0.02,,,,,,METAR,2166.0
KLAL 010635Z AUTO 05004KT 10SM SCT016 BKN120 23/22 A2987 RMK AO2 T02250220,KLAL,2023-06-01T06:35:00Z,27.98,-82.02,22.5,22.0,50,4,,10.0,29.870079,,,TRUE,TRUE,,,,,,,SCT,1600,BKN,12000,,,,,VFR,,,,,,,,,,,,SPECI,39.0
KL35 010635Z AUTO 00000KT 10SM CLR 06/00 A3000 RMK AO2,KL35,2023-06-01T06:35:00Z,34.27,-116.85,6.0,0.0,0,0,,10.0,30.0,,,TRUE,TRUE,,,,,,,CLR,,,,,,,,VFR,,,,,,,,,,,,SPECI,2062.0
KL18 010635Z AUTO 00000KT 10SM SCT007 OVC041 14/13 A2993 RMK AO2,KL18,2023-06-01T06:35:00Z,33.35,-117.25,14.0,13.0,0,0,,10.0,29.929134,,,TRUE,TRUE,,,,,,,SCT,700,OVC,4100,,,,,VFR,,,,,,,,,,,,SPECI,215.0
KL08 010635Z AUTO 33012KT 10SM FEW045 FEW060 19/08 A2975 RMK AO2,KL08,2023-06-01T06:35:00Z,33.27,-116.32,19.0,8.0,330,12,,10.0,29.749016,,,TRUE,TRUE,,,,,,,FEW,4500,FEW,6000,,,,,VFR,,,,,,,,,,,,SPECI,156.0
KKY8 010635Z AUTO 00000KT 10SM CLR 18/18 A3001 RMK A01,KKY8,2023-06-01T06:35:00Z,37.95,-86.87,18.0,18.0,0,0,,10.0,30.008858,,,TRUE,TRUE,,,,,,,CLR,,,,,,,,VFR,,,,,,,,,,,,SPECI,124.0
KKNB 010635Z AUTO 00000KT 10SM FEW110 15/M00 A2988 RMK A01,KKNB,2023-06-01T06:35:00Z,37.02,-112.53,15.0,0.0,0,0,,10.0,29.878937,,,TRUE,TRUE,,,,,,,FEW,11000,,,,,,,VFR,,,,,,,,,,,,METAR,1476.0
KK88 010635Z AUTO 13006KT 10SM CLR 21/18 A2993 RMK AO1 T02100177,KK88,2023-06-01T06:35:00Z,37.87,-95.38,21.0,17.7,130,6,,10.0,29.929134,,,TRUE,TRUE,,,,,,,CLR,,,,,,,,VFR,,,,,,,,,,,,SPECI,308.0
KK82 010635Z AUTO 12010KT 10SM SCT080 20/17 A2986 RMK AO2 T02030166,KK82,2023-06-01T06:35:00Z,39.77,-98.8,20.3,16.6,120,10,,10.0,29.861221,,,TRUE,TRUE,,,,,,,SCT,8000,,,,,,,VFR,,,,,,,,,,,,METAR,548.0
KK70 010635Z AUTO 12006KT 10SM SCT060 26/M35 A2982 RMK AO2,KK70,2023-06-01T06:35:00Z,25.32,-80.28,26.0,-35.0,120,6,,10.0,29.819881,,,TRUE,TRUE,,,,,,,SCT,6000,,,,,,,VFR,,,,,,,,,,,,SPECI,20.0
KJZP 010635Z AUTO 12006KT 10SM SCT120 19/16 A3008 RMK AO2 T01900158,KJZP,2023-06-01T06:35:00Z,34.45,-84.47,19.0,15.8,120,6,,10.0,30.079725,,,TRUE,TRUE,,,,,,,SCT,12000,,,,,,,VFR,,,,,,,,,,,,METAR,462.0
KJZI 010635Z AUTO 35003KT 10SM CLR 19/19 A3000 RMK AO2,KJZI,2023-06-01T06:35:00Z,32.7,-80.0,19.0,19.0,350,3,,10.0,30.0,,,TRUE,TRUE,,,,,,,CLR,,,,,,,,VFR,,,,,,,,,,,,SPECI,5.0
KJYR 010635Z AUTO 14005KT 10SM CLR 20/15 A2988 RMK AO2,KJYR,2023-06-01T06:35:00Z,40.9,-97.62,20.0,15.0,140,5,,10.0,29.878937,,,TRUE,TRUE,,,,,,,CLR,,,,,,,,VFR,,,,,,,,,,,,METAR,508.0
KJYO 010635Z AUTO 00000KT 10SM CLR 13/10 A3013 RMK AO2,KJYO,2023-06-01T06:35:00Z,39.07,-77.57,13.0,10.0,0,0,,10.0,30.129921,,,TRUE,TRUE,,,,,,,CLR,,,,,,,,VFR,,,,,,,,,,,,SPECI,112.0
KJYM 010635Z AUTO 12004KT 10SM CLR 20/11 A3008 RMK AO2 T01970106,KJYM,2023-06-01T06:35:00Z,41.92,-84.58,19.7,10.6,120,4,,10.0,30.079725,,,TRUE,TRUE,,,,,,,CLR,,,,,,,,VFR,,,,,,,,,,,,METAR,357.0
KJYG 010635Z AUTO 13008KT 10SM CLR 20/16 A2990 RMK AO2 TSNO,KJYG,2023-06-01T06:35:00Z,43.98,-94.55,20.0,16.0,130,8,,10.0,29.899607,,,TRUE,TRUE,,,TRUE,,,,CLR,,,,,,,,VFR,,,,,,,,,,,,METAR,323.0
KJWY 010635Z AUTO 00000KT 10SM OVC100 23/19 A2990 RMK AO2 T02300188,KJWY,2023-06-01T06:35:00Z,32.45,-96.92,23.0,18.8,0,0,,10.0,29.899607,,,TRUE,TRUE,,,,,,,OVC,10000,,,,,,,VFR,,,,,,,,,,,,SPECI,211.0
KJWN 010635Z AUTO 00000KT 10SM CLR 19/18 A2999 RMK AO2,KJWN,2023-06-01T06:35:00Z,36.18,-86.88,19.0,18.0,0,0,,10.0,29.991142,,,TRUE,TRUE,,,,,,,CLR,,,,,,,,VFR,,,,,,,,,,,,SPECI,149.0
KJWG 010635Z AUTO 14008KT 10SM CLR 21/18 A2990 RMK AO2 T02140181,KJWG,2023-06-01T06:35:00Z,35.87,-98.42,21.4,18.1,140,8,,10.0,29.899607,,,TRUE,TRUE,,,,,,,CLR,,,,,,,,VFR,,,,,,,,,,,,SPECI,469.0
KJVY 010635Z AUTO 02003KT 10SM CLR 18/18 A3000 RMK AO2 PWINO,KJVY,2023-06-01T06:35:00Z,38.37,-85.73,18.0,18.0,20,3,,10.0,30.0,,,TRUE,TRUE,,,,,TRUE,,CLR,,,,,,,,VFR,,,,,,,,,,,,METAR,141.0
KJVW 010635Z AUTO 00000KT 5SM BR CLR 18/18 A2992 RMK AO2,KJVW,2023-06-01T06:35:00Z,32.3,-90.42,18.0,18.0,0,0,,5.0,29.920275,,,TRUE,TRUE,,,,,,BR,CLR,,,,,,,,MVFR,,,,,,,,,,,,SPECI,73.0
KJVL 010635Z AUTO 10003KT 10SM CLR 19/15 A3000 RMK AO2,KJVL,2023-06-01T06:35:00Z,42.62,-89.05,19.0,15.0,100,3,,10.0,30.0,,,TRUE,TRUE,,,,,,,CLR,,,,,,,,VFR,,,,,,,,,,,,METAR,244.0
KJTC 010635Z AUTO 04003KT 10SM CLR 08/M06 A3000 RMK AO2,KJTC,2023-06-01T06:35:00Z,34.13,-109.32,8.0,-6.0,40,3,,10.0,30.0,,,TRUE,TRUE,,,,,,,CLR,,,,,,,,VFR,,,,,,,,,,,,METAR,2148.0
KJSV 010635Z AUTO 07005KT 10SM CLR 21/19 A2992 RMK AO2,KJSV,2023-06-01T06:35:00Z,35.43,-94.8,21.0,19.0,70,5,,10.0,29.920275,,,TRUE,TRUE,,,,,,,CLR,,,,,,,,VFR,,,,,,,,,,,,METAR,158.0
KJSO 010635Z AUTO 19003KT 10SM CLR 22/20 A2992 RMK AO2 T02200195 TSNO,KJSO,2023-06-01T06:35:00Z,31.87,-95.22,22.0,19.5,190,3,,10.0,29.920275,,,TRUE,TRUE,,,TRUE,,,,CLR,,,,,,,,VFR,,,,,,,,,,,,SPECI,204.0
KJRO 010635Z AUTO 00000KT 7SM CLR 15/14 A3008 RMK AO2,KJRO,2023-06-01T06:35:00Z,38.98,-82.58,15.0,14.0,0,0,,7.0,30.079725,,,TRUE,TRUE,,,,,,,CLR,,,,,,,,VFR,,,,,,,,,,,,METAR,224.0
KJPX 010635Z AUTO 00000KT 1SM BR OVC003 11/11 A3013 RMK AO2 T01070107,KJPX,2023-06-01T06:35:00Z,40.95,-72.25,10.7,10.7,0,0,,1.0,30.129921,,,TRUE,TRUE,,,,,,BR,OVC,300,,,,,,,LIFR,,,,,,,,,,,,METAR,10.0
KJMR 010635Z AUTO 10003KT 10SM CLR 20/15 A2995 RMK AO2,KJMR,2023-06-01T06:35:00Z,45.88,-93.27,20.0,15.0,100,3,,10.0,29.949802,,,TRUE,TRUE,,,,,,,CLR,,,,,,,,VFR,,,,,,,,,,,,SPECI,301.0
KJKJ 010635Z AUTO 10005KT 10SM CLR 20/15 A2985 RMK AO2 TSNO,KJKJ,2023-06-01T06:35:00Z,46.83,-96.67,20.0,15.0,100,5,,10.0,29.84941,,,TRUE,TRUE,,,TRUE,,,,CLR,,,,,,,,VFR,,,,,,,,,,,,SPECI,280.0
KJKA 010635Z AUTO 06006G12KT 10SM SCT022 22/19 A2989 RMK AO2,KJKA,2023-06-01T06:35:00Z,30.28,-87.67,22.0,19.0,60,6,12,10.0,29.890747,,,TRUE,TRUE,,,,,,,SCT,2200,,,,,,,VFR,,,,,,,,,,,,METAR,5.0
KJHN 010635Z AUTO 20015G20KT 10SM SCT031 SCT055 OVC100 18/11 A2986 RMK AO2 T01810105,KJHN,2023-06-01T06:35:00Z,37.58,-101.73,18.1,10.5,200,15,20,10.0,29.861221,,,TRUE,TRUE,,,,,,,SCT,3100,SCT,5500,OVC,10000,,,VFR,,,,,,,,,,,,SPECI,1013.0
KJFZ 010635Z AUTO 12004KT 10SM CLR 16/14 A3014 RMK AO2 T01550138,KJFZ,2023-06-01T06:35:00Z,37.07,-81.8,15.5,13.8,120,4,,10.0,30.138779,,,TRUE,TRUE,,,,,,,CLR,,,,,,,,VFR,,,,,,,,,,,,SPECI,809.0
KJFX 010635Z AUTO 00000KT 5SM BR CLR 18/18 A3000 RMK AO2,KJFX,2023-06-01T06:35:00Z,33.9,-87.32,18.0,18.0,0,0,,5.0,30.0,,,TRUE,TRUE,,,,,,BR,CLR,,,,,,,,MVFR,,,,,,,,,,,,METAR,144.0
KJES 010635Z AUTO 05003KT 10SM CLR 21/18 A3000 RMK AO2,KJES,2023-06-01T06:35:00Z,31.55,-81.88,21.0,18.0,50,3,,10.0,30.0,,,TRUE,TRUE,,,,,,,CLR,,,,,,,,VFR,,,,,,,,,,,,METAR,26.0
KJDD 010635Z AUTO 00000KT 10SM CLR 20/19 A2990 RMK AO2,KJDD,2023-06-01T06:35:00Z,32.75,-95.5,20.0,19.0,0,0,,10.0,29.899607,,,TRUE,TRUE,,,,,,,CLR,,,,,,,,VFR,,,,,,,,,,,,METAR,127.0
KJCA 010635Z AUTO 04003KT 10SM CLR 17/17 A3007 RMK AO2 T0173////,KJCA,2023-06-01T06:35:00Z,34.18,-83.57,17.3,17.0,40,3,,10.0,30.070866,,,TRUE,TRUE,,,,,,,CLR,,,,,,,,VFR,,,,,,,,,,,,METAR,287.0
KJAU 010635Z AUTO 00000KT 10SM CLR 16/16 A3009 RMK A01,KJAU,2023-06-01T06:35:00Z,36.33,-84.17,16.0,16.0,0,0,,10.0,30.088583,,,TRUE,TRUE,,,,,,,CLR,,,,,,,,VFR,,,,,,,,,,,,SPECI,350.0
KJAS 010635Z AUTO 00000KT 4SM BR FEW050 SCT070 19/19 A2989 RMK AO2,KJAS,2023-06-01T06:35:00Z,30.88,-94.03,19.0,19.0,0,0,,4.0,29.890747,,,TRUE,TRUE,,,,,,BR,FEW,5000,SCT,7000,,,,,MVFR,,,,,,,,,,,,METAR,60.0
KJAQ 010635Z AUTO 00000KT 10SM CLR 16/12 A2984 RMK AO1 T01590116,KJAQ,2023-06-01T06:35:00Z,38.37,-120.8,15.9,11.6,0,0,,10.0,29.840551,,,TRUE,TRUE,,,,,,,CLR,,,,,,,,VFR,,,,,,,,,,,,SPECI,518.0
KIZA 010635Z AUTO 00000KT 8SM OVC012 12/10 A2994 RMK AO2,KIZA,2023-06-01T06:35:00Z,34.6,-120.07,12.0,10.0,0,0,,8.0,29.940945,,,TRUE,TRUE,,,,,,,OVC,1200,,,,,,,MVFR,,,,,,,,,,,,METAR,200.0
KIYA 010635Z AUTO 00000KT OVC070 21/19 A2989 RMK AO2 T02100188 PWINO,KIYA,2023-06-01T06:35:00Z,29.98,-92.08,21.0,18.8,0,0,,,29.890747,,,TRUE,TRUE,,,,,TRUE,,OVC,7000,,,,,,,,,,,,,,,,,,,SPECI,4.0
KIWA 010635Z AUTO 00000KT 10SM CLR 22/01 A2977 RMK AO2 T02180011,KIWA,2023-06-01T06:35:00Z,33.3,-111.65,21.8,1.1,0,0,,10.0,29.769686,,,TRUE,TRUE,,,,,,,CLR,,,,,,,,VFR,,,,,,,,,,,,METAR,420.0
KIUA 010635Z AUTO 00000KT 10SM CLR 14/13 A3012 RMK AO2 T01390126,KIUA,2023-06-01T06:35:00Z,42.92,-77.33,13.9,12.6,0,0,,10.0,30.121063,,,TRUE,TRUE,,,,,,,CLR,,,,,,,,VFR,,,,,,,,,,,,SPECI,248.0
KISQ 010635Z AUTO 00000KT 10SM CLR 14/13 A3005 RMK AO2 T01370126,KISQ,2023-06-01T06:35:00Z,45.97,-86.17,13.7,12.6,0,0,,10.0,30.050198,,,TRUE,TRUE,,,,,,,CLR,,,,,,,,VFR,,,,,,,,,,,,METAR,206.0
KIRS 010635Z AUTO 14003KT 10SM CLR 20/08 A3005 RMK AO2 T02020076,KIRS,2023-06-01T06:35:00Z,41.8,-85.43,20.2,7.6,140,3,,10.0,30.050198,,,TRUE,TRUE,,,,,,,CLR,,,,,,,,VFR,,,,,,,,,,,,SPECI,282.0
KIOB 010635Z AUTO 00000KT 10SM CLR 16/15 A3006 RMK AO2 PWINO,KIOB,2023-06-01T06:35:00Z,38.05,-83.98,16.0,15.0,0,0,,10.0,30.059055,,,TRUE,TRUE,,,,,TRUE,,CLR,,,,,,,,VFR,,,,,,,,,,,,SPECI,301.0
KINJ 010635Z AUTO 11007KT 10SM CLR 23/19 A2986 RMK AO2 T02300189,KINJ,2023-06-01T06:35:00Z,32.08,-97.1,23.0,18.9,110,7,,10.0,29.861221,,,TRUE,TRUE,,,,,,,CLR,,,,,,,,VFR,,,,,,,,,,,,SPECI,208.0
KINF 010635Z AUTO 04003KT 7SM CLR 22/20 A2989 RMK AO2,KINF,2023-06-01T06:35:00Z,28.8,-82.32,22.0,20.0,40,3,,7.0,29.890747,,,TRUE,TRUE,,,,,,,CLR,,,,,,,,VFR,,,,,,,,,,,,SPECI,14.0
KIMS 010635Z AUTO 00000KT 10SM CLR 18/17 A3006 RMK AO2,KIMS,2023-06-01T06:35:00Z,38.75,-85.47,18.0,17.0,0,0,,10.0,30.059055,,,TRUE,TRUE,,,,,,,CLR,,,,,,,,VFR,,,,,,,,,,,,METAR,244.0
KIKW 010635Z AUTO 00000KT 10SM CLR 14/11 A3009 RMK AO2 T01440107,KIKW,2023-06-01T06:35:00Z,43.67,-84.27,14.4,10.7,0,0,,10.0,30.088583,,,TRUE,TRUE,,,,,,,CLR,,,,,,,,VFR,,,,,,,,,,,,METAR,190.0
KIKV 010635Z AUTO 00000KT 9SM BKN100 19/16 A2994 RMK AO2,KIKV,2023-06-01T06:35:00Z,41.68,-93.57,19.0,16.0,0,0,,9.0,29.940945,,,TRUE,TRUE,,,,,,,BKN,10000,,,,,,,VFR,,,,,,,,,,,,METAR,270.0
KIKK 010635Z AUTO 16003KT 10SM CLR 20/16 A3002 RMK AO2 T01970155 PWINO,KIKK,2023-06-01T06:35:00Z,41.07,-87.85,19.7,15.5,160,3,,10.0,30.02067,,,TRUE,TRUE,,,,,TRUE,,CLR,,,,,,,,VFR,,,,,,,,,,,,METAR,188.0
KIKG 010635Z AUTO 00000KT 10SM CLR 22/20 A2983 RMK AO2 T02150202,KIKG,2023-06-01T06:35:00Z,27.55,-98.03,21.5,20.2,0,0,,10.0,29.828741,,,TRUE,TRUE,,,,,,,CLR,,,,,,,,VFR,,,,,,,,,,,,METAR,37.0
KIJX 010635Z AUTO 16005KT 10SM CLR 23/16 A2998 RMK AO2 T02260156,KIJX,2023-06-01T06:35:00Z,39.77,-90.25,22.6,15.6,160,5,,10.0,29.97933,,,TRUE,TRUE,,,,,,,CLR,,,,,,,,VFR,,,,,,,,,,,,METAR,187.0
KIIY 010635Z AUTO 00000KT 7SM CLR 16/16 A3004 RMK AO2 T01630160,KIIY,2023-06-01T06:35:00Z,33.78,-82.82,16.3,16.0,0,0,,7.0,30.041338,,,TRUE,TRUE,,,,,,,CLR,,,,,,,,VFR,,,,,,,,,,,,METAR,192.0
KIIB 010635Z AUTO 16007KT 10SM CLR 19/15 A2998 RMK AO2 T01890150,KIIB,2023-06-01T06:35:00Z,42.45,-91.95,18.9,15.0,160,7,,10.0,29.97933,,,TRUE,TRUE,,,,,,,CLR,,,,,,,,VFR,,,,,,,,,,,,METAR,294.0
KIFP 010635Z AUTO 00000KT 10SM CLR 26/00 A2967 RMK AO2,KIFP,2023-06-01T06:35:00Z,35.15,-114.57,26.0,0.0,0,0,,10.0,29.66929,,,TRUE,TRUE,,,,,,,CLR,,,,,,,,VFR,,,,,,,,,,,,METAR,210.0
KIFA 010635Z AUTO 16004KT 10SM CLR 20/17 A2996 RMK AO2 T01970172,KIFA,2023-06-01T06:35:00Z,42.47,-93.27,19.7,17.2,160,4,,10.0,29.958662,,,TRUE,TRUE,,,,,,,CLR,,,,,,,,VFR,,,,,,,,,,,,METAR,344.0
KIER 010635Z AUTO 32003KT 10SM SCT070 19/18 A2991 RMK AO2 T01920180,KIER,2023-06-01T06:35:00Z,31.73,-93.1,19.2,18.0,320,3,,10.0,29.911417,,,TRUE,TRUE,,,,,,,SCT,7000,,,,,,,VFR,,,,,,,,,,,,SPECI,35.0
KIDP 010635Z AUTO 15007KT 10SM CLR 21/18 A2991 RMK AO2 T02110175,KIDP,2023-06-01T06:35:00Z,37.17,-95.78,21.1,17.5,150,7,,10.0,29.911417,,,TRUE,TRUE,,,,,,,CLR,,,,,,,,VFR,,,,,,,,,,,,METAR,252.0
KIDI 010635Z AUTO 00000KT 10SM CLR 11/08 A3017 RMK A01,KIDI,2023-06-01T06:35:00Z,40.63,-79.1,11.0,8.0,0,0,,10.0,30.171259,,,TRUE,TRUE,,,,,,,CLR,,,,,,,,VFR,,,,,,,,,,,,SPECI,425.0
KICL 010635Z AUTO 19004KT 10SM OVC048 21/20 A2993 RMK AO2,KICL,2023-06-01T06:35:00Z,40.72,-95.02,21.0,20.0,190,4,,10.0,29.929134,,,TRUE,TRUE,,,,,,,OVC,4800,,,,,,,VFR,,,,,,,,,,,,METAR,299.0
KIBM 010635Z AUTO 03004KT 10SM CLR 11/10 A2994 RMK AO2 T01100102,KIBM,2023-06-01T06:35:00Z,41.18,-103.68,11.0,10.2,30,4,,10.0,29.940945,,,TRUE,TRUE,,,,,,,CLR,,,,,,,,VFR,,,,,,,,,,,,METAR,1494.0
KI95 010635Z AUTO 00000KT 10SM FEW044 SCT050 17/15 A3007 RMK A01,KI95,2023-06-01T06:35:00Z,,,17.0,15.0,0,0,,10.0,30.070866,,,TRUE,TRUE,,,,,,,FEW,4400,SCT,5000,,,,,VFR,,,,,,,,,,,,METAR,
KI75 010635Z AUTO 17005KT 10SM OVC110 21/18 A2994 RMK AO2 T02050180,KI75,2023-06-01T06:35:00Z,41.05,-93.68,20.5,18.0,170,5,,10.0,29.940945,,,TRUE,TRUE,,,,,,,OVC,11000,,,,,,,VFR,,,,,,,,,,,,METAR,336.0
KI74 010635Z AUTO 00000KT 10SM CLR 16/14 A3009 RMK AO2,KI74,2023-06-01T06:35:00Z,40.12,-83.75,16.0,14.0,0,0,,10.0,30.088583,,,TRUE,TRUE,,,,,,,CLR,,,,,,,,VFR,,,,,,,,,,,,METAR,322.0
KI68 010635Z AUTO 09004KT 10SM CLR 20/15 A3006 RMK AO2,KI68,2023-06-01T06:35:00Z,39.47,-84.25,20.0,15.0,90,4,,10.0,30.059055,,,TRUE,TRUE,,,,,,,CLR,,,,,,,,VFR,,,,,,,,,,,,SPECI,274.0
KI67 010635Z AUTO 00000KT 10SM CLR 16/15 A3004 RMK AO1,KI67,2023-06-01T06:35:00Z,39.25,-84.78,16.0,15.0,0,0,,10.0,30.041338,,,TRUE,TRUE,,,,,,,CLR,,,,,,,,VFR,,,,,,,,,,,,SPECI,177.0
KI63 010635Z AUTO 00000KT 10SM CLR 19/16 A2997 RMK AO2 T01920156,KI63,2023-06-01T06:35:00Z,39.98,-90.8,19.2,15.6,0,0,,10.0,29.970472,,,TRUE,TRUE,,,,,,,CLR,,,,,,,,VFR,,,,,,,,,,,,METAR,221.0
KI23 010635Z AUTO 00000KT 10SM CLR 16/13 A3007 RMK AO1,KI23,2023-06-01T06:35:00Z,39.57,-83.42,16.0,13.0,0,0,,10.0,30.070866,,,TRUE,TRUE,,,,,,,CLR,,,,,,,,VFR,,,,,,,,,,,,SPECI,298.0
KI19 010635Z AUTO 05003KT 10SM CLR 18/16 A3007 RMK AO2,KI19,2023-06-01T06:35:00Z,39.7,-83.98,18.0,16.0,50,3,,10.0,30.070866,,,TRUE,TRUE,,,,,,,CLR,,,,,,,,VFR,,,,,,,,,,,,METAR,285.0
KHZX 010635Z AUTO 13003KT 10SM CLR 18/15 A2992 RMK AO2,KHZX,2023-06-01T06:35:00Z,46.62,-93.32,18.0,15.0,130,3,,10.0,29.920275,,,TRUE,TRUE,,,,,,,CLR,,,,,,,,VFR,,,,,,,,,,,,SPECI,374.0
KHZL 010635Z AUTO 00000KT 10SM CLR 08/05 A3019 RMK AO2,KHZL,2023-06-01T06:35:00Z,40.98,-76.0,8.0,5.0,0,0,,10.0,30.188976,,,TRUE,TRUE,,,,,,,CLR,,,,,,,,VFR,,,,,,,,,,,,SPECI,481.0
KHZE 010635Z AUTO 05003KT 10SM FEW048 SCT085 14/14 A2987 RMK AO2,KHZE,2023-06-01T06:35:00Z,47.28,-101.58,14.0,14.0,50,3,,10.0,29.870079,,,TRUE,TRUE,,,,,,,FEW,4800,SCT,8500,,,,,VFR,,,,,,,,,,,,METAR,542.0
KHZD 010635Z AUTO 00000KT 10SM CLR 20/19 A2997 RMK A01,KHZD,2023-06-01T06:35:00Z,36.08,-88.47,20.0,19.0,0,0,,10.0,29.970472,,,TRUE,TRUE,,,,,,,CLR,,,,,,,,VFR,,,,,,,,,,,,SPECI,147.0
KHYX 010635Z AUTO 00000KT 10SM CLR 18/12 A3009 RMK AO2 T01810115,KHYX,2023-06-01T06:35:00Z,43.43,-83.87,18.1,11.5,0,0,,10.0,30.088583,,,TRUE,TRUE,,,,,,,CLR,,,,,,,,VFR,,,,,,,,,,,,SPECI,181.0
KHYW 010635Z AUTO 00000KT 10SM CLR 17/16 A3002 RMK AO2,KHYW,2023-06-01T06:35:00Z,33.83,-79.12,17.0,16.0,0,0,,10.0,30.02067,,,TRUE,TRUE,,,,,,,CLR,,,,,,,,VFR,,,,,,,,,,,,SPECI,10.0
KHXD 010635Z AUTO 04003KT 10SM CLR 21/19 A2999 RMK AO2,KHXD,2023-06-01T06:35:00Z,32.22,-80.7,21.0,19.0,40,3,,10.0,29.991142,,,TRUE,TRUE,,,,,,,CLR,,,,,,,,VFR,,,,,,,,,,,,SPECI,5.0
KHWY 010635Z AUTO 00000KT 2 1/2SM BR CLR 09/08 A3010 RMK AO2 T00900076,KHWY,2023-06-01T06:35:00Z,38.58,-77.72,9.0,7.6,0,0,,2.5,30.100393,,,TRUE,TRUE,,,,,,BR,CLR,,,,,,,,IFR,,,,,,,,,,,,SPECI,93.0
KHVS 010635Z AUTO 00000KT 10SM FEW027 SCT033 BKN060 18/17 A3004 RMK AO2,KHVS,2023-06-01T06:35:00Z,34.4,-80.12,18.0,17.0,0,0,,10.0,30.041338,,,TRUE,TRUE,,,,,,,FEW,2700,SCT,3300,BKN,6000,,,VFR,,,,,,,,,,,,SPECI,110.0
KHVE 010635Z AUTO 00000KT 10SM CLR 15/M05 A2977 RMK AO2,KHVE,2023-06-01T06:35:00Z,38.42,-110.7,15.0,-5.0,0,0,,10.0,29.769686,,,TRUE,TRUE,,,,,,,CLR,,,,,,,,VFR,,,,,,,,,,,,METAR,1351.0
KHVC 010635Z AUTO 00000KT 10SM CLR 19/19 A2999 RMK AO2,KHVC,2023-06-01T06:35:00Z,,,19.0,19.0,0,0,,10.0,29.991142,,,TRUE,TRUE,,,,,,,CLR,,,,,,,,VFR,,,,,,,,,,,,SPECI,
KHUM 010635Z AUTO 00000KT 7SM CLR 22/20 A2989 RMK AO2 T02210200,KHUM,2023-06-01T06:35:00Z,29.57,-90.67,22.1,20.0,0,0,,7.0,29.890747,,,TRUE,TRUE,,,,,,,CLR,,,,,,,,VFR,,,,,,,,,,,,METAR,1.0
KHTH 010635Z AUTO 33012KT 10SM SCT110 16/08 A2990 RMK A01,KHTH,2023-06-01T06:35:00Z,38.55,-118.63,16.0,8.0,330,12,,10.0,29.899607,,,TRUE,TRUE,,,,,,,SCT,11000,,,,,,,VFR,,,,,,,,,,,,SPECI,1281.0
KHSP 010635Z AUTO 00000KT 10SM CLR 13/10 A3019 RMK AO2 T01260102,KHSP,2023-06-01T06:35:00Z,37.95,-79.82,12.6,10.2,0,0,,10.0,30.188976,,,TRUE,TRUE,,,,,,,CLR,,,,,,,,VFR,,,,,,,,,,,,METAR,1148.0
KHSG 010635Z AUTO 26009KT 10SM CLR 13/05 A2986 RMK AO2 T01260052,KHSG,2023-06-01T06:35:00Z,43.72,-108.38,12.6,5.2,260,9,,10.0,29.861221,,,TRUE,TRUE,,,,,,,CLR,,,,,,,,VFR,,,,,,,,,,,,METAR,1497.0
KHSD 010635Z AUTO 15010KT 10SM CLR 24/18 A2987 RMK A01,KHSD,2023-06-01T06:35:00Z,35.6,-97.72,24.0,18.0,150,10,,10.0,29.870079,,,TRUE,TRUE,,,,,,,CLR,,,,,,,,VFR,,,,,,,,,,,,SPECI,358.0
KHSB 010635Z AUTO 00000KT 10SM CLR 21/16 A3000 RMK AO2 T02120161,KHSB,2023-06-01T06:35:00Z,37.82,-88.55,21.2,16.1,0,0,,10.0,30.0,,,TRUE,TRUE,,,,,,,CLR,,,,,,,,VFR,,,,,,,,,,,,SPECI,118.0
KHRX 010635Z AUTO 2 1/2SM +RA SCT008 BKN013 OVC035 16/16 A2999 RMK AO2 P0019 T01550155 TSNO,KHRX,2023-06-01T06:35:00Z,34.87,-102.33,15.5,15.5,,,,2.5,29.991142,,,TRUE,TRUE,,,TRUE,,,+RA,SCT,800,BKN,1300,OVC,3500,,,IFR,,,,,,0.19,,,,,,METAR,1153.0
KHQZ 010635Z AUTO 13004KT 10SM CLR 23/20 A2988 RMK AO1 T02260195,KHQZ,2023-06-01T06:35:00Z,32.75,-96.53,22.6,19.5,130,4,,10.0,29.878937,,,TRUE,TRUE,,,,,,,CLR,,,,,,,,VFR,,,,,,,,,,,,METAR,136.0
KHQU 010635Z AUTO 00000KT 10SM CLR 17/16 A3003 RMK AO2 T01680161,KHQU,2023-06-01T06:35:00Z,33.53,-82.52,16.8,16.1,0,0,,10.0,30.029528,,,TRUE,TRUE,,,,,,,CLR,,,,,,,,VFR,,,,,,,,,,,,SPECI,141.0
KHQG 010635Z AUTO 15010KT 10SM CLR 16/12 A2991 RMK AO2 LTG DSNT E T01640123 PWINO,KHQG,2023-06-01T06:35:00Z,37.17,-101.37,16.4,12.3,150,10,,10.0,29.911417,,,TRUE,TRUE,,,,,TRUE,,CLR,,,,,,,,VFR,,,,,,,,,,,,SPECI,956.0
KHQG 010635Z AUTO 15010KT 10SM CLR 16/12 A2991 RMK AO2 LTG DSNT E T01640123 PWINO,KHQG,2023-06-01T06:35:00Z,37.17,-101.37,16.4,12.3,150,10,,10.0,29.911417,,,TRUE,TRUE,,,,,TRUE,,CLR,,,,,,,,VFR,,,,,,,,,,,,SPECI,956.0
KHPT 010635Z AUTO 20003KT 7SM CLR 18/18 A2994 RMK AO2,KHPT,2023-06-01T06:35:00Z,42.72,-93.23,18.0,18.0,200,3,,7.0,29.940945,,,TRUE,TRUE,,,,,,,CLR,,,,,,,,VFR,,,,,,,,,,,,METAR,354.0
KHOE 010635Z AUTO 00000KT 10SM CLR 20/18 A2997 RMK AO2 T02050185,KHOE,2023-06-01T06:35:00Z,31.05,-82.78,20.5,18.5,0,0,,10.0,29.970472,,,TRUE,TRUE,,,,,,,CLR,,,,,,,,VFR,,,,,,,,,,,,SPECI,56.0
KHOB 010635Z AUTO 13026G32KT 10SM FEW120 20/14 A2982 RMK AO2 LTG DSNT SE AND S,KHOB,2023-06-01T06:35:00Z,32.67,-103.22,20.0,14.0,130,26,32,10.0,29.819881,,,TRUE,TRUE,,,,,,,FEW,12000,,,,,,,VFR,,,,,,,,,,,,SPECI,1112.0
KHNR 010635Z AUTO 15003KT 10SM CLR 20/18 A2991 RMK A01,KHNR,2023-06-01T06:35:00Z,41.58,-95.33,20.0,18.0,150,3,,10.0,29.911417,,,TRUE,TRUE,,,,,,,CLR,,,,,,,,VFR,,,,,,,,,,,,METAR,364.0
KHMZ 010635Z AUTO 00000KT 10SM CLR 07/05 A3015 RMK AO2 T00650051,KHMZ,2023-06-01T06:35:00Z,40.08,-78.52,6.5,5.1,0,0,,10.0,30.15059,,,TRUE,TRUE,,,,,,,CLR,,,,,,,,VFR,,,,,,,,,,,,METAR,351.0
KHMT 010635Z AUTO 22008KT 10SM SCT018 OVC028 13/12 A2992 RMK AO2 T01340121,KHMT,2023-06-01T06:35:00Z,33.73,-117.02,13.4,12.1,220,8,,10.0,29.920275,,,TRUE,TRUE,,,,,,,SCT,1800,OVC,2800,,,,,MVFR,,,,,,,,,,,,METAR,462.0
KHMP 010635Z AUTO 00000KT 10SM CLR 17/16 A3007 RMK AO2 T01700161,KHMP,2023-06-01T06:35:00Z,33.38,-84.33,17.0,16.1,0,0,,10.0,30.070866,,,TRUE,TRUE,,,,,,,CLR,,,,,,,,VFR,,,,,,,,,,,,METAR,263.0
KHLX 010635Z AUTO 00000KT 10SM CLR 13/12 A3014 RMK AO2 T01310123,KHLX,2023-06-01T06:35:00Z,36.77,-80.82,13.1,12.3,0,0,,10.0,30.138779,,,TRUE,TRUE,,,,,,,CLR,,,,,,,,VFR,,,,,,,,,,,,SPECI,819.0
KHLB 010635Z AUTO 00000KT 10SM CLR 17/16 A3005 RMK A01,KHLB,2023-06-01T06:35:00Z,39.35,-85.27,17.0,16.0,0,0,,10.0,30.050198,,,TRUE,TRUE,,,,,,,CLR,,,,,,,,VFR,,,,,,,,,,,,SPECI,297.0
KHJH 010635Z AUTO 16008KT 10SM OVC090 23/18 A2988 RMK AO2 T02270183,KHJH,2023-06-01T06:35:00Z,40.15,-97.58,22.7,18.3,160,8,,10.0,29.878937,,,TRUE,TRUE,,,,,,,OVC,9000,,,,,,,VFR,,,,,,,,,,,,METAR,449.0
KHHW 010635Z AUTO 00000KT 10SM CLR 20/16 A2991 RMK AO2,KHHW,2023-06-01T06:35:00Z,34.03,-95.55,20.0,16.0,0,0,,10.0,29.911417,,,TRUE,TRUE,,,,,,,CLR,,,,,,,,VFR,,,,,,,,,,,,METAR,178.0
KHHG 010635Z AUTO 00000KT 10SM CLR 18/18 A3005 RMK AO2 T01770175,KHHG,2023-06-01T06:35:00Z,40.85,-85.45,17.7,17.5,0,0,,10.0,30.050198,,,TRUE,TRUE,,,,,,,CLR,,,,,,,,VFR,,,,,,,,,,,,METAR,247.0
KHHF 010635Z AUTO 02005KT 7SM +RA BKN045 OVC060 17/15 A2994 RMK AO2 LTG DSNT N T01650152,KHHF,2023-06-01T06:35:00Z,35.9,-100.4,16.5,15.2,20,5,,7.0,29.940945,,,TRUE,TRUE,,,,,,+RA,BKN,4500,OVC,6000,,,,,VFR,,,,,,,,,,,,SPECI,729.0
KHFY 010635Z AUTO 13004KT 10SM CLR 21/17 A3005 RMK AO2 T02100173,KHFY,2023-06-01T06:35:00Z,39.63,-86.08,21.0,17.3,130,4,,10.0,30.050198,,,TRUE,TRUE,,,,,,,CLR,,,,,,,,VFR,,,,,,,,,,,,METAR,250.0
KHFJ 010635Z AUTO 12006KT 10SM CLR 19/17 A2997 RMK AO2,KHFJ,2023-06-01T06:35:00Z,36.9,-94.02,19.0,17.0,120,6,,10.0,29.970472,,,TRUE,TRUE,,,,,,,CLR,,,,,,,,VFR,,,,,,,,,,,,SPECI,398.0
KHEQ 010635Z AUTO 36007KT 10SM SCT060 16/13 A2991 RMK AO2,KHEQ,2023-06-01T06:35:00Z,40.57,-102.28,16.0,13.0,360,7,,10.0,29.911417,,,TRUE,TRUE,,,,,,,SCT,6000,,,,,,,VFR,,,,,,,,,,,,METAR,1136.0
KHEG 010635Z AUTO 04005KT 10SM SCT015 23/20 A2995 RMK AO2,KHEG,2023-06-01T06:35:00Z,30.28,-81.8,23.0,20.0,40,5,,10.0,29.949802,,,TRUE,TRUE,,,,,,,SCT,1500,,,,,,,VFR,,,,,,,,,,,,METAR,25.0
KHDL 010635Z AUTO 00000KT 8SM FEW004 BKN060 OVC120 20/20 A2995 RMK AO2,KHDL,2023-06-01T06:35:00Z,31.37,-85.32,20.0,20.0,0,0,,8.0,29.949802,,,TRUE,TRUE,,,,,,,FEW,400,BKN,6000,OVC,12000,,,VFR,,,,,,,,,,,,METAR,109.0
KHDE 010635Z AUTO 11007KT 10SM CLR 19/15 A2986 RMK AO2 T01850148,KHDE,2023-06-01T06:35:00Z,40.45,-99.33,18.5,14.8,110,7,,10.0,29.861221,,,TRUE,TRUE,,,,,,,CLR,,,,,,,,VFR,,,,,,,,,,,,METAR,703.0
KHDC 010635Z AUTO 00000KT 10SM BKN050 22/19 A2990 RMK AO2 T02170192,KHDC,2023-06-01T06:35:00Z,30.52,-90.42,21.7,19.2,0,0,,10.0,29.899607,,,TRUE,TRUE,,,,,,,BKN,5000,,,,,,,VFR,,,,,,,,,,,,SPECI,12.0
KHCR 010635Z AUTO 00000KT 10SM SCT065 SCT085 OVC100 12/04 A2986 RMK AO2,KHCR,2023-06-01T06:35:00Z,40.48,-111.43,12.0,4.0,0,0,,10.0,29.861221,,,TRUE,TRUE,,,,,,,SCT,6500,SCT,8500,OVC,10000,,,VFR,,,,,,,,,,,,METAR,1708.0
KHCO 010635Z AUTO 32003KT 10SM SCT060 BKN085 BKN100 20/18 A2984 RMK AO2 P0005,KHCO,2023-06-01T06:35:00Z,48.75,-96.93,20.0,18.0,320,3,,10.0,29.840551,,,TRUE,TRUE,,,,,,,SCT,6000,BKN,8500,BKN,10000,,,VFR,,,,,,0.05,,,,,,SPECI,250.0
KHCD 010635Z AUTO 00000KT 10SM CLR 19/16 A2992 RMK AO2 T01850156,KHCD,2023-06-01T06:35:00Z,44.87,-94.38,18.5,15.6,0,0,,10.0,29.920275,,,TRUE,TRUE,,,,,,,CLR,,,,,,,,VFR,,,,,,,,,,,,SPECI,320.0
KHBV 010635Z AUTO 15005KT 10SM SCT016 SCT021 22/21 A2985 RMK AO2 T02230206,KHBV,2023-06-01T06:35:00Z,27.35,-98.73,22.3,20.6,150,5,,10.0,29.84941,,,TRUE,TRUE,,,,,,,SCT,1600,SCT,2100,,,,,VFR,,,,,,,,,,,,METAR,200.0
KHAI 010635Z AUTO 00000KT 10SM SCT080 19/13 A3006 RMK AO2 T01900127,KHAI,2023-06-01T06:35:00Z,41.97,-85.6,19.0,12.7,0,0,,10.0,30.059055,,,TRUE,TRUE,,,,,,,SCT,8000,,,,,,,VFR,,,,,,,,,,,,SPECI,250.0
KHAF 010635Z AUTO 28007KT 4SM HZ OVC015 12/09 A2991 RMK AO2,KHAF,2023-06-01T06:35:00Z,37.52,-122.5,12.0,9.0,280,7,,4.0,29.911417,,,TRUE,TRUE,,,,,,HZ,OVC,1500,,,,,,,MVFR,,,,,,,,,,,,SPECI,11.0
KHAE 010635Z AUTO 16003KT 10SM CLR 21/16 A2997 RMK AO2,KHAE,2023-06-01T06:35:00Z,39.73,-91.45,21.0,16.0,160,3,,10.0,29.970472,,,TRUE,TRUE,,,,,,,CLR,,,,,,,,VFR,,,,,,,,,,,,SPECI,230.0
KGZS 010635Z AUTO 00000KT 2SM BR BKN042 OVC048 17/17 A3002 RMK A01 VIS 3/4V5,KGZS,2023-06-01T06:35:00Z,35.15,-87.05,17.0,17.0,0,0,,2.0,30.02067,,,TRUE,TRUE,,,,,,BR,BKN,4200,OVC,4800,,,,,IFR,,,,,,,,,,,,SPECI,198.0
KGZL 010635Z AUTO 05003KT 10SM 20/18 A2992 RMK AO2,KGZL,2023-06-01T06:35:00Z,35.28,-95.1,20.0,18.0,50,3,,10.0,29.920275,,,TRUE,TRUE,,,,,,,,,,,,,,,,,,,,,,,,,,,SPECI,176.0
KGYY 010635Z AUTO 17003KT 10SM CLR 19/17 A3000 RMK AO2,KGYY,2023-06-01T06:35:00Z,41.62,-87.42,19.0,17.0,170,3,,10.0,30.0,,,TRUE,TRUE,,,,,,,CLR,,,,,,,,VFR,,,,,,,,,,,,METAR,179.0
KGYL 010635Z AUTO 14005KT 10SM CLR 20/16 A2990 RMK AO2 T02000156,KGYL,2023-06-01T06:35:00Z,44.77,-94.08,20.0,15.6,140,5,,10.0,29.899607,,,TRUE,TRUE,,,,,,,CLR,,,,,,,,VFR,,,,,,,,,,,,SPECI,304.0
KGYI 010635Z AUTO 12006KT 10SM CLR 23/18 A2991 RMK AO2 T02250180 TSNO,KGYI,2023-06-01T06:35:00Z,33.72,-96.67,22.5,18.0,120,6,,10.0,29.911417,,,TRUE,TRUE,,,TRUE,,,,CLR,,,,,,,,VFR,,,,,,,,,,,,SPECI,227.0
KGYH 010635Z AUTO 36005KT 10SM CLR 18/16 A3007 RMK A02 T01760160,KGYH,2023-06-01T06:35:00Z,34.75,-82.38,17.6,16.0,360,5,,10.0,30.070866,,,TRUE,TRUE,,,,,,,CLR,,,,,,,,VFR,,,,,,,,,,,,SPECI,283.0
KGYF 010635Z AUTO 12009G15KT 10SM SCT019 SCT029 26/21 A2984 RMK AO2 T02610214,KGYF,2023-06-01T06:35:00Z,26.13,-94.9,26.1,21.4,120,9,15,10.0,29.840551,,,TRUE,TRUE,,,,,,,SCT,1900,SCT,2900,,,,,VFR,,,,,,,,,,,,METAR,65.0
KGYB 010635Z AUTO 00000KT 10SM CLR 22/20 A2989 RMK AO2 T02230202,KGYB,2023-06-01T06:35:00Z,30.17,-96.98,22.3,20.2,0,0,,10.0,29.890747,,,TRUE,TRUE,,,,,,,CLR,,,,,,,,VFR,,,,,,,,,,,,SPECI,140.0
KGWR 010635Z AUTO 35003KT 10SM BKN070 BKN085 17/17 A2983 RMK A01,KGWR,2023-06-01T06:35:00Z,46.22,-97.65,17.0,17.0,350,3,,10.0,29.828741,,,TRUE,TRUE,,,,,,,BKN,7000,BKN,8500,,,,,VFR,,,,,,,,,,,,SPECI,381.0
KGWB 010635Z AUTO 09003KT 10SM CLR 18/13 A3006 RMK AO2,KGWB,2023-06-01T06:35:00Z,41.3,-85.07,18.0,13.0,90,3,,10.0,30.059055,,,TRUE,TRUE,,,,,,,CLR,,,,,,,,VFR,,,,,,,,,,,,METAR,268.0
KGVT 010635Z AUTO 15004KT 10SM CLR 22/19 A2989 RMK AO2 TSNO T02150192,KGVT,2023-06-01T06:35:00Z,33.07,-96.07,21.5,19.2,150,4,,10.0,29.890747,,,TRUE,TRUE,,,TRUE,,,,CLR,,,,,,,,VFR,,,,,,,,,,,,METAR,165.0
KGVE 010635Z AUTO 00000KT 10SM CLR 11/10 A3010 RMK AO1 T01050097,KGVE,2023-06-01T06:35:00Z,38.15,-78.17,10.5,9.7,0,0,,10.0,30.100393,,,TRUE,TRUE,,,,,,,CLR,,,,,,,,VFR,,,,,,,,,,,,SPECI,138.0
KGRY 010635Z AUTO 04010KT SCT030 BKN040 BKN047 25/19 A2987 RMK A01,KGRY,2023-06-01T06:35:00Z,27.63,-90.45,25.0,19.0,40,10,,,29.870079,,,TRUE,TRUE,,,,,,,SCT,3000,BKN,4000,BKN,4700,,,,,,,,,,,,,,,SPECI,58.0
KGRN 010635Z AUTO 00000KT 10SM CLR 16/11 A2988 RMK AO2 T01550108,KGRN,2023-06-01T06:35:00Z,42.8,-102.17,15.5,10.8,0,0,,10.0,29.878937,,,TRUE,TRUE,,,,,,,CLR,,,,,,,,VFR,,,,,,,,,,,,METAR,1080.0
KGPM 010635Z AUTO 13003KT 10SM CLR 25/18 A2988 RMK AO2 T02460175,KGPM,2023-06-01T06:35:00Z,32.7,-97.05,24.6,17.5,130,3,,10.0,29.878937,,,TRUE,TRUE,,,,,,,CLR,,,,,,,,VFR,,,,,,,,,,,,METAR,178.0
KGPH 010635Z AUTO 15003KT 10SM SCT120 20/18 A2993 RMK AO2,KGPH,2023-06-01T06:35:00Z,39.33,-94.32,20.0,18.0,150,3,,10.0,29.929134,,,TRUE,TRUE,,,,,,,SCT,12000,,,,,,,VFR,,,,,,,,,,,,SPECI,233.0
KGPC 010635Z AUTO 10004KT 10SM CLR 18/17 A3003 RMK AO2 T01800167,KGPC,2023-06-01T06:35:00Z,39.63,-86.82,18.0,16.7,100,4,,10.0,30.029528,,,TRUE,TRUE,,,,,,,CLR,,,,,,,,VFR,,,,,,,,,,,,METAR,254.0
KGOO 010635Z AUTO 00000KT 10SM CLR 15/11 A2988 RMK A01,KGOO,2023-06-01T06:35:00Z,39.22,-121.0,15.0,11.0,0,0,,10.0,29.878937,,,TRUE,TRUE,,,,,,,CLR,,,,,,,,VFR,,,,,,,,,,,,SPECI,950.0
KGNT 010635Z AUTO 00000KT 10SM CLR 11/M07 A3000 RMK AO2 T01091075,KGNT,2023-06-01T06:35:00Z,35.17,-107.9,10.9,-7.5,0,0,,10.0,30.0,,,TRUE,TRUE,,,,,,,CLR,,,,,,,,VFR,,,,,,,,,,,,SPECI,1988.0
KGNG 010635Z AUTO 22007KT 10SM FEW013 FEW018 SCT048 13/13 A2990 RMK AO2,KGNG,2023-06-01T06:35:00Z,42.92,-114.77,13.0,13.0,220,7,,10.0,29.899607,,,TRUE,TRUE,,,,,,,FEW,1300,FEW,1800,SCT,4800,,,VFR,,,,,,,,,,,,SPECI,1128.0
KGNB 010635Z AUTO 00000KT 10SM CLR 04/03 A3006 RMK AO2 T00410030,KGNB,2023-06-01T06:35:00Z,40.08,-105.92,4.1,3.0,0,0,,10.0,30.059055,,,TRUE,TRUE,,,,,,,CLR,,,,,,,,VFR,,,,,,,,,,,,METAR,2500.0
KGMJ 010635Z AUTO 00000KT 9SM BKN090 19/18 A2993 RMK AO2,KGMJ,2023-06-01T06:35:00Z,36.6,-94.73,19.0,18.0,0,0,,9.0,29.929134,,,TRUE,TRUE,,,,,,,BKN,9000,,,,,,,VFR,,,,,,,,,,,,METAR,251.0
KGLY 010635Z AUTO 13004KT 10SM FEW055 OVC070 21/18 A2995 RMK AO2,KGLY,2023-06-01T06:35:00Z,38.35,-93.68,21.0,18.0,130,4,,10.0,29.949802,,,TRUE,TRUE,,,,,,,FEW,5500,OVC,7000,,,,,VFR,,,,,,,,,,,,SPECI,247.0
KGLW 010635Z AUTO 00000KT 10SM CLR 17/17 A3002 RMK AO2 T01680168,KGLW,2023-06-01T06:35:00Z,37.03,-85.95,16.8,16.8,0,0,,10.0,30.02067,,,TRUE,TRUE,,,,,,,CLR,,,,,,,,VFR,,,,,,,,,,,,METAR,216.0
KGKT 010635Z AUTO 00000KT 10SM CLR 16/16 A3006 RMK A01,KGKT,2023-06-01T06:35:00Z,35.85,-83.53,16.0,16.0,0,0,,10.0,30.059055,,,TRUE,TRUE,,,,,,,CLR,,,,,,,,VFR,,,,,,,,,,,,SPECI,305.0
KGIC 010635Z AUTO 00000KT 10SM SCT049 OVC065 11/10 A2992 RMK AO1,KGIC,2023-06-01T06:35:00Z,45.95,-116.12,11.0,10.0,0,0,,10.0,29.920275,,,TRUE,TRUE,,,,,,,SCT,4900,OVC,6500,,,,,VFR,,,,,,,,,,,,METAR,1002.0
KGHW 010635Z AUTO 10006KT 10SM CLR 18/14 A2990 RMK AO2,KGHW,2023-06-01T06:35:00Z,45.63,-95.32,18.0,14.0,100,6,,10.0,29.899607,,,TRUE,TRUE,,,,,,,CLR,,,,,,,,VFR,,,,,,,,,,,,SPECI,423.0
KGHG 010635Z AUTO 23006KT 10SM CLR 14/12 A3011 RMK AO2,KGHG,2023-06-01T06:35:00Z,42.1,-70.67,14.0,12.0,230,6,,10.0,30.109253,,,TRUE,TRUE,,,,,,,CLR,,,,,,,,VFR,,,,,,,,,,,,SPECI,3.0
KGGP 010635Z AUTO 11004KT 10SM CLR 18/15 A3004 RMK AO2,KGGP,2023-06-01T06:35:00Z,40.72,-86.37,18.0,15.0,110,4,,10.0,30.041338,,,TRUE,TRUE,,,,,,,CLR,,,,,,,,VFR,,,,,,,,,,,,METAR,224.0
KGGI 010635Z AUTO 00000KT 10SM CLR 22/16 A2996 RMK AO2 T02150164,KGGI,2023-06-01T06:35:00Z,41.72,-92.73,21.5,16.4,0,0,,10.0,29.958662,,,TRUE,TRUE,,,,,,,CLR,,,,,,,,VFR,,,,,,,,,,,,METAR,305.0
KGGF 010635Z AUTO 00000KT 10SM BKN110 16/15 A2988 RMK AO2,KGGF,2023-06-01T06:35:00Z,40.87,-101.73,16.0,15.0,0,0,,10.0,29.878937,,,TRUE,TRUE,,,,,,,BKN,11000,,,,,,,VFR,,,,,,,,,,,,METAR,1044.0
KGGE 010635Z AUTO 00000KT 10SM CLR 17/17 A3001 RMK AO2,KGGE,2023-06-01T06:35:00Z,33.32,-79.32,17.0,17.0,0,0,,10.0,30.008858,,,TRUE,TRUE,,,,,,,CLR,,,,,,,,VFR,,,,,,,,,,,,SPECI,9.0
KGDJ 010635Z AUTO 00000KT 10SM CLR 22/18 A2988 RMK AO2 T02220181,KGDJ,2023-06-01T06:35:00Z,32.45,-97.82,22.2,18.1,0,0,,10.0,29.878937,,,TRUE,TRUE,,,,,,,CLR,,,,,,,,VFR,,,,,,,,,,,,SPECI,235.0
KGDB 010635Z AUTO 00000KT 10SM CLR 19/17 A2989 RMK AO2 T01860170,KGDB,2023-06-01T06:35:00Z,44.75,-95.55,18.6,17.0,0,0,,10.0,29.890747,,,TRUE,TRUE,,,,,,,CLR,,,,,,,,VFR,,,,,,,,,,,,SPECI,316.0
KGDA 010635Z AUTO 00000KT 10SM CLR 20/17 A3000 RMK AO2 T01980169 PWINO,KGDA,2023-06-01T06:35:00Z,37.33,-88.1,19.8,16.9,0,0,,10.0,30.0,,,TRUE,TRUE,,,,,TRUE,,CLR,,,,,,,,VFR,,,,,,,,,,,,METAR,199.0
KGCY 010635Z AUTO 00000KT 10SM CLR 15/14 A3008 RMK A01,KGCY,2023-06-01T06:35:00Z,36.2,-82.82,15.0,14.0,0,0,,10.0,30.079725,,,TRUE,TRUE,,,,,,,CLR,,,,,,,,VFR,,,,,,,,,,,,SPECI,488.0
KGCM 010635Z AUTO 13007KT 10SM CLR 22/20 A2991 RMK AO2,KGCM,2023-06-01T06:35:00Z,36.3,-95.48,22.0,20.0,130,7,,10.0,29.911417,,,TRUE,TRUE,,,,,,,CLR,,,,,,,,VFR,,,,,,,,,,,,METAR,215.0
KGCD 010635Z AUTO 26004KT 10SM CLR 09/00 A2996 RMK AO2 T00891001,KGCD,2023-06-01T06:35:00Z,44.4,-118.97,8.9,-0.1,260,4,,10.0,29.958662,,,TRUE,TRUE,,,,,,,CLR,,,,,,,,VFR,,,,,,,,,,,,METAR,1122.0
KGBG 010635Z AUTO 12003KT 10SM CLR 20/15 A2999 RMK AO2 T02030145 TSNO,KGBG,2023-06-01T06:35:00Z,40.93,-90.43,20.3,14.5,120,3,,10.0,29.991142,,,TRUE,TRUE,,,TRUE,,,,CLR,,,,,,,,VFR,,,,,,,,,,,,METAR,230.0
KGAO 010635Z AUTO 00000KT 10SM CLR 21/19 A2989 RMK AO2 T02050187,KGAO,2023-06-01T06:35:00Z,29.45,-90.27,20.5,18.7,0,0,,10.0,29.890747,,,TRUE,TRUE,,,,,,,CLR,,,,,,,,VFR,,,,,,,,,,,,METAR,0.0
KGAF 010635Z AUTO 02007KT 7SM CLR 19/19 A2985 RMK AO2,KGAF,2023-06-01T06:35:00Z,48.4,-97.37,19.0,19.0,20,7,,7.0,29.84941,,,TRUE,TRUE,,,,,,,CLR,,,,,,,,VFR,,,,,,,,,,,,METAR,250.0
KFZG 010635Z AUTO 00000KT 10SM OVC110 21/17 A2999 RMK AO2 T02110171,KFZG,2023-06-01T06:35:00Z,31.68,-83.27,21.1,17.1,0,0,,10.0,29.991142,,,TRUE,TRUE,,,,,,,OVC,11000,,,,,,,VFR,,,,,,,,,,,,METAR,105.0
KFYM 010635Z AUTO 00000KT 10SM FEW120 19/18 A3005 RMK A01,KFYM,2023-06-01T06:35:00Z,35.07,-86.57,19.0,18.0,0,0,,10.0,30.050198,,,TRUE,TRUE,,,,,,,FEW,12000,,,,,,,VFR,,,,,,,,,,,,SPECI,297.0
KFYJ 010635Z AUTO 00000KT 7SM BKN009 OVC041 16/15 A3007 RMK AO1 T01600150,KFYJ,2023-06-01T06:35:00Z,37.52,-76.77,16.0,15.0,0,0,,7.0,30.070866,,,TRUE,TRUE,,,,,,,BKN,900,OVC,4100,,,,,IFR,,,,,,,,,,,,SPECI,3.0
KFYG 010635Z AUTO 00000KT 10SM CLR 20/19 A2997 RMK AO2,KFYG,2023-06-01T06:35:00Z,38.58,-91.0,20.0,19.0,0,0,,10.0,29.970472,,,TRUE,TRUE,,,,,,,CLR,,,,,,,,VFR,,,,,,,,,,,,SPECI,147.0
KFYE 010635Z AUTO 00000KT 10SM BKN120 19/18 A2997 RMK A01,KFYE,2023-06-01T06:35:00Z,35.2,-89.38,19.0,18.0,0,0,,10.0,29.970472,,,TRUE,TRUE,,,,,,,BKN,12000,,,,,,,VFR,,,,,,,,,,,,SPECI,133.0
KFXY 010635Z AUTO 09003KT 10SM CLR 18/14 A2994 RMK AO2,KFXY,2023-06-01T06:35:00Z,43.23,-93.62,18.0,14.0,90,3,,10.0,29.940945,,,TRUE,TRUE,,,,,,,CLR,,,,,,,,VFR,,,,,,,,,,,,METAR,366.0
KFWS 010635Z AUTO 13004KT 10SM CLR 22/18 A2988 RMK AO2 T02160182,KFWS,2023-06-01T06:35:00Z,32.57,-97.3,21.6,18.2,130,4,,10.0,29.878937,,,TRUE,TRUE,,,,,,,CLR,,,,,,,,VFR,,,,,,,,,,,,METAR,211.0
KFWC 010635Z AUTO 00000KT 10SM CLR 21/17 A2999 RMK AO1 T02100165,KFWC,2023-06-01T06:35:00Z,38.38,-88.42,21.0,16.5,0,0,,10.0,29.991142,,,TRUE,TRUE,,,,,,,CLR,,,,,,,,VFR,,,,,,,,,,,,METAR,131.0
KFWB 010635Z AUTO VRB03KT 10SM OVC095 21/19 A2998 RMK AO2,KFWB,2023-06-01T06:35:00Z,36.7,-93.4,21.0,19.0,0,3,,10.0,29.97933,,,TRUE,TRUE,,,,,,,OVC,9500,,,,,,,VFR,,,,,,,,,,,,SPECI,392.0
KFVX 010635Z AUTO 00000KT 10SM CLR 11/11 A3008 RMK AO2 T01100108,KFVX,2023-06-01T06:35:00Z,37.35,-78.43,11.0,10.8,0,0,,10.0,30.079725,,,TRUE,TRUE,,,,,,,CLR,,,,,,,,VFR,,,,,,,,,,,,METAR,129.0
KFTN 010635Z AUTO 13012KT 10SM CLR 25/20 A2983 RMK A01,KFTN,2023-06-01T06:35:00Z,28.22,-100.02,25.0,20.0,130,12,,10.0,29.828741,,,TRUE,TRUE,,,,,,,CLR,,,,,,,,VFR,,,,,,,,,,,,METAR,236.0
KFSW 010635Z AUTO 00000KT 10SM 21/17 A2996 RMK AO2,KFSW,2023-06-01T06:35:00Z,40.67,-91.32,21.0,17.0,0,0,,10.0,29.958662,,,TRUE,TRUE,,,,,,,,,,,,,,,,,,,,,,,,,,,METAR,219.0
KFSE 010635Z AUTO 11005KT 10SM CLR 18/16 A2990 RMK AO2,KFSE,2023-06-01T06:35:00Z,47.58,-95.77,18.0,16.0,110,5,,10.0,29.899607,,,TRUE,TRUE,,,,,,,CLR,,,,,,,,VFR,,,,,,,,,,,,SPECI,389.0
KFRR 010635Z AUTO 00000KT 10SM CLR 10/08 A3011 RMK AO1,KFRR,2023-06-01T06:35:00Z,38.92,-78.25,10.0,8.0,0,0,,10.0,30.109253,,,TRUE,TRUE,,,,,,,CLR,,,,,,,,VFR,,,,,,,,,,,,SPECI,213.0
KFRH 010635Z AUTO 05003KT 10SM CLR 18/16 A3002 RMK AO1,KFRH,2023-06-01T06:35:00Z,38.5,-86.63,18.0,16.0,50,3,,10.0,30.02067,,,TRUE,TRUE,,,,,,,CLR,,,,,,,,VFR,,,,,,,,,,,,SPECI,241.0
KFPY 010635Z AUTO 05006KT 10SM -DZ SCT110 22/21 A2992 RMK AO2 T02170205,KFPY,2023-06-01T06:35:00Z,30.07,-83.57,21.7,20.5,50,6,,10.0,29.920275,,,TRUE,TRUE,,,,,,-DZ,SCT,11000,,,,,,,VFR,,,,,,,,,,,,METAR,12.0
KFOT 010635Z AUTO 29005KT 9SM OVC015 09/08 A3001 RMK AO1,KFOT,2023-06-01T06:35:00Z,40.55,-124.13,9.0,8.0,290,5,,9.0,30.008858,,,TRUE,TRUE,,,,,,,OVC,1500,,,,,,,MVFR,,,,,,,,,,,,SPECI,118.0
KFOA 010635Z AUTO 12004KT 10SM CLR 20/17 A3001 RMK AO2,KFOA,2023-06-01T06:35:00Z,38.67,-88.45,20.0,17.0,120,4,,10.0,30.008858,,,TRUE,TRUE,,,,,,,CLR,,,,,,,,VFR,,,,,,,,,,,,METAR,141.0
KFMM 010635Z AUTO 10SM BKN100 13/12 A2992 RMK AO2 LTG DSNT S,KFMM,2023-06-01T06:35:00Z,40.33,-103.8,13.0,12.0,,,,10.0,29.920275,,,TRUE,TRUE,,,,,,,BKN,10000,,,,,,,VFR,,,,,,,,,,,,METAR,1376.0
KFLY 010635Z AUTO 00000KT 10SM 11/06 A2999 RMK AO2 T01130061,KFLY,2023-06-01T06:35:00Z,38.95,-104.57,11.3,6.1,0,0,,10.0,29.991142,,,TRUE,TRUE,,,,,,,,,,,,,,,,,,,,,,,,,,,SPECI,2096.0
KFKS 010635Z AUTO 00000KT 10SM CLR 19/15 A3004 RMK AO2 T01860151,KFKS,2023-06-01T06:35:00Z,44.63,-86.2,18.6,15.1,0,0,,10.0,30.041338,,,TRUE,TRUE,,,,,,,CLR,,,,,,,,VFR,,,,,,,,,,,,METAR,189.0
KFKR 010635Z AUTO 13005KT 10SM FEW039 SCT046 SCT055 19/15 A3003 RMK AO2,KFKR,2023-06-01T06:35:00Z,40.27,-86.57,19.0,15.0,130,5,,10.0,30.029528,,,TRUE,TRUE,,,,,,,FEW,3900,SCT,4600,SCT,5500,,,VFR,,,,,,,,,,,,METAR,260.0
KFKN 010635Z AUTO 00000KT 10SM OVC042 16/15 A3004 RMK AO2 T01580150,KFKN,2023-06-01T06:35:00Z,36.7,-76.9,15.8,15.0,0,0,,10.0,30.041338,,,TRUE,TRUE,,,,,,,OVC,4200,,,,,,,VFR,,,,,,,,,,,,SPECI,9.0
KFKA 010635Z AUTO 14005KT 10SM CLR 19/15 A2996 RMK AO2,KFKA,2023-06-01T06:35:00Z,43.68,-92.17,19.0,15.0,140,5,,10.0,29.958662,,,TRUE,TRUE,,,,,,,CLR,,,,,,,,VFR,,,,,,,,,,,,SPECI,388.0
KFIN 010635Z AUTO 05005KT 10SM CLR 24/21 A2990 RMK AO2 T02350206,KFIN,2023-06-01T06:35:00Z,29.47,-81.2,23.5,20.6,50,5,,10.0,29.899607,,,TRUE,TRUE,,,,,,,CLR,,,,,,,,VFR,,,,,,,,,,,,METAR,10.0
KFHB 010635Z AUTO 07011KT 10SM SCT035 BKN060 OVC070 23/ A2994 RMK AO2,KFHB,2023-06-01T06:35:00Z,30.62,-81.47,23.0,,70,11,,10.0,29.940945,,,TRUE,TRUE,,,,,,,SCT,3500,BKN,6000,OVC,7000,,,VFR,,,,,,,,,,,,METAR,4.0
KFGN 010635Z AUTO 17011KT 10SM CLR 20/16 A2991 RMK AO2,KFGN,2023-06-01T06:35:00Z,49.32,-94.9,20.0,16.0,170,11,,10.0,29.911417,,,TRUE,TRUE,,,,,,,CLR,,,,,,,,VFR,,,,,,,,,,,,SPECI,327.0
KFFX 010635Z AUTO 10003KT 10SM CLR 20/15 A3005 RMK AO2 T01990153,KFFX,2023-06-01T06:35:00Z,43.43,-86.0,19.9,15.3,100,3,,10.0,30.050198,,,TRUE,TRUE,,,,,,,CLR,,,,,,,,VFR,,,,,,,,,,,,SPECI,234.0
KFFM 010635Z AUTO 12007KT 10SM CLR 19/14 A2986 RMK AO2,KFFM,2023-06-01T06:35:00Z,46.28,-96.15,19.0,14.0,120,7,,10.0,29.861221,,,TRUE,TRUE,,,,,,,CLR,,,,,,,,VFR,,,,,,,,,,,,SPECI,362.0
KFFL 010635Z AUTO 21003KT 10SM CLR 20/17 A2996 RMK A01,KFFL,2023-06-01T06:35:00Z,41.05,-91.97,20.0,17.0,210,3,,10.0,29.958662,,,TRUE,TRUE,,,,,,,CLR,,,,,,,,VFR,,,,,,,,,,,,METAR,240.0
KFET 010635Z AUTO 13007KT 10SM CLR 22/19 A2989 RMK AO2 T02150186,KFET,2023-06-01T06:35:00Z,41.45,-96.52,21.5,18.6,130,7,,10.0,29.890747,,,TRUE,TRUE,,,,,,,CLR,,,,,,,,VFR,,,,,,,,,,,,METAR,366.0
KFEP 010635Z AUTO 09003KT 10SM CLR 17/17 A3001 RMK AO2 T01740173,KFEP,2023-06-01T06:35:00Z,42.25,-89.58,17.4,17.3,90,3,,10.0,30.008858,,,TRUE,TRUE,,,,,,,CLR,,,,,,,,VFR,,,,,,,,,,,,METAR,255.0
KFDW 010635Z AUTO 05005KT 10SM CLR 17/16 A3004 RMK AO1,KFDW,2023-06-01T06:35:00Z,34.32,-81.12,17.0,16.0,50,5,,10.0,30.041338,,,TRUE,TRUE,,,,,,,CLR,,,,,,,,VFR,,,,,,,,,,,,SPECI,174.0
KFBR 010635Z AUTO 26009KT 10SM CLR 11/02 A2997 RMK AO2 T01060015,KFBR,2023-06-01T06:35:00Z,41.4,-110.4,10.6,1.5,260,9,,10.0,29.970472,,,TRUE,TRUE,,,,,,,CLR,,,,,,,,VFR,,,,,,,,,,,,METAR,2140.0
KFBL 010635Z AUTO 00000KT 10SM CLR 22/16 A2993 RMK AO2,KFBL,2023-06-01T06:35:00Z,44.33,-93.32,22.0,16.0,0,0,,10.0,29.929134,,,TRUE,TRUE,,,,,,,CLR,,,,,,,,VFR,,,,,,,,,,,,SPECI,318.0
KF70 010635Z AUTO 19006KT 10SM SCT013 OVC027 13/12 A2993 RMK AO2,KF70,2023-06-01T06:35:00Z,33.57,-117.13,13.0,12.0,190,6,,10.0,29.929134,,,TRUE,TRUE,,,,,,,SCT,1300,OVC,2700,,,,,MVFR,,,,,,,,,,,,SPECI,406.0
KF46 010635Z AUTO 11006KT 10SM CLR 23/19 A2989 RMK AO2 T02270193,KF46,2023-06-01T06:35:00Z,32.93,-96.43,22.7,19.3,110,6,,10.0,29.890747,,,TRUE,TRUE,,,,,,,CLR,,,,,,,,VFR,,,,,,,,,,,,SPECI,175.0
KF44 010635Z AUTO 00000KT 10SM CLR 22/19 A2988 RMK AO2,KF44,2023-06-01T06:35:00Z,32.17,-95.83,22.0,19.0,0,0,,10.0,29.878937,,,TRUE,TRUE,,,,,,,CLR,,,,,,,,VFR,,,,,,,,,,,,SPECI,137.0
KF17 010635Z AUTO 00000KT 10SM CLR 20/18 A2992 RMK AO2,KF17,2023-06-01T06:35:00Z,31.83,-94.15,20.0,18.0,0,0,,10.0,29.920275,,,TRUE,TRUE,,,,,,,CLR,,,,,,,,VFR,,,,,,,,,,,,METAR,93.0
KF05 010635Z AUTO 14006KT 10SM CLR 24/18 A2986 RMK AO2 T02400175,KF05,2023-06-01T06:35:00Z,34.23,-99.28,24.0,17.5,140,6,,10.0,29.861221,,,TRUE,TRUE,,,,,,,CLR,,,,,,,,VFR,,,,,,,,,,,,SPECI,384.0
KF00 010635Z AUTO 12005KT 10SM CLR 22/19 A2990 RMK AO2 T02230188,KF00,2023-06-01T06:35:00Z,33.62,-96.18,22.3,18.8,120,5,,10.0,29.899607,,,TRUE,TRUE,,,,,,,CLR,,,,,,,,VFR,,,,,,,,,,,,METAR,189.0
KEZZ 010635Z AUTO 11006KT 10SM CLR 20/18 A2995 RMK AO2 T01980185,KEZZ,2023-06-01T06:35:00Z,39.72,-94.28,19.8,18.5,110,6,,10.0,29.949802,,,TRUE,TRUE,,,,,,,CLR,,,,,,,,VFR,,,,,,,,,,,,SPECI,317.0
KEZP 010635Z AUTO 12006KT 10SM CLR 26/20 A2989 RMK A01,KEZP,2023-06-01T06:35:00Z,28.22,-92.8,26.0,20.0,120,6,,10.0,29.890747,,,TRUE,TRUE,,,,,,,CLR,,,,,,,,VFR,,,,,,,,,,,,METAR,30.0
KEZM 010635Z AUTO 00000KT 10SM SCT120 20/18 A3001 RMK AO2,KEZM,2023-06-01T06:35:00Z,32.22,-83.13,20.0,18.0,0,0,,10.0,30.008858,,,TRUE,TRUE,,,,,,,SCT,12000,,,,,,,VFR,,,,,,,,,,,,SPECI,86.0
KEZF 010635Z AUTO 00000KT 10SM CLR 13/13 A3008 RMK AO2 T01310131,KEZF,2023-06-01T06:35:00Z,38.27,-77.45,13.1,13.1,0,0,,10.0,30.079725,,,TRUE,TRUE,,,,,,,CLR,,,,,,,,VFR,,,,,,,,,,,,METAR,26.0
KEVU 010635Z AUTO 14008KT 7SM CLR 21/20 A2992 RMK AO2 T02120200,KEVU,2023-06-01T06:35:00Z,40.35,-94.92,21.2,20.0,140,8,,7.0,29.920275,,,TRUE,TRUE,,,,,,,CLR,,,,,,,,VFR,,,,,,,,,,,,SPECI,351.0
KETN 010635Z AUTO 13006KT 10SM CLR 21/16 A2988 RMK AO2 T02090163,KETN,2023-06-01T06:35:00Z,32.42,-98.82,20.9,16.3,130,6,,10.0,29.878937,,,TRUE,TRUE,,,,,,,CLR,,,,,,,,VFR,,,,,,,,,,,,METAR,445.0
KETB 010635Z AUTO 08003KT 10SM CLR 15/14 A3003 RMK AO2,KETB,2023-06-01T06:35:00Z,43.42,-88.13,15.0,14.0,80,3,,10.0,30.029528,,,TRUE,TRUE,,,,,,,CLR,,,,,,,,VFR,,,,,,,,,,,,SPECI,269.0
KERY 010635Z AUTO 16003KT 10SM SCT120 18/14 A3007 RMK AO2 T01790142,KERY,2023-06-01T06:35:00Z,46.3,-85.45,17.9,14.2,160,3,,10.0,30.070866,,,TRUE,TRUE,,,,,,,SCT,12000,,,,,,,VFR,,,,,,,,,,,,SPECI,261.0
KERV 010635Z AUTO 16005KT 10SM CLR 21/20 A2989 RMK AO2 T02120195,KERV,2023-06-01T06:35:00Z,29.98,-99.08,21.2,19.5,160,5,,10.0,29.890747,,,TRUE,TRUE,,,,,,,CLR,,,,,,,,VFR,,,,,,,,,,,,METAR,483.0
KEQA 010635Z AUTO 15008KT 10SM CLR 22/18 A2990 RMK AO2,KEQA,2023-06-01T06:35:00Z,37.78,-96.82,22.0,18.0,150,8,,10.0,29.899607,,,TRUE,TRUE,,,,,,,CLR,,,,,,,,VFR,,,,,,,,,,,,METAR,422.0
KEOK 010635Z AUTO 00000KT 10SM FEW035 SCT046 BKN055 19/18 A2996 RMK A01,KEOK,2023-06-01T06:35:00Z,40.47,-91.42,19.0,18.0,0,0,,10.0,29.958662,,,TRUE,TRUE,,,,,,,FEW,3500,SCT,4600,BKN,5500,,,VFR,,,,,,,,,,,,METAR,206.0
KEOE 010635Z AUTO 03003KT 10SM CLR 16/16 A3007 RMK AO2,KEOE,2023-06-01T06:35:00Z,34.32,-81.63,16.0,16.0,30,3,,10.0,30.070866,,,TRUE,TRUE,,,,,,,CLR,,,,,,,,VFR,,,,,,,,,,,,METAR,166.0
KEMV 010635Z AUTO 32004KT 5SM BR CLR 13/13 A3007 RMK AO2 T01330133,KEMV,2023-06-01T06:35:00Z,36.68,-77.48,13.3,13.3,320,4,,5.0,30.070866,,,TRUE,TRUE,,,,,,BR,CLR,,,,,,,,MVFR,,,,,,,,,,,,METAR,35.0
KEMM 010635Z AUTO 32007KT 10SM SCT090 09/01 A2996 RMK AO2 TSNO,KEMM,2023-06-01T06:35:00Z,41.82,-110.55,9.0,1.0,320,7,,10.0,29.958662,,,TRUE,TRUE,,,TRUE,,,,SCT,9000,,,,,,,VFR,,,,,,,,,,,,SPECI,2219.0
KELO 010635Z AUTO 00000KT 10SM SCT095 18/17 A2998 RMK AO2 LTG DSNT NW,KELO,2023-06-01T06:35:00Z,47.82,-91.83,18.0,17.0,0,0,,10.0,29.97933,,,TRUE,TRUE,,,,,,,SCT,9500,,,,,,,VFR,,,,,,,,,,,,SPECI,438.0
KELK 010635Z AUTO 18007KT 9SM CLR 22/19 A2989 RMK AO2 SLP408 T02180192 $,KELK,2023-06-01T06:35:00Z,35.43,-99.4,21.8,19.2,180,7,,9.0,29.890747,1040.8,,TRUE,TRUE,TRUE,,,,,,CLR,,,,,,,,VFR,,,,,,,,,,,,METAR,603.0
KELA 010635Z AUTO 11003KT 10SM CLR 22/21 A2987 RMK AO2 T02180205,KELA,2023-06-01T06:35:00Z,29.6,-96.32,21.8,20.5,110,3,,10.0,29.870079,,,TRUE,TRUE,,,,,,,CLR,,,,,,,,VFR,,,,,,,,,,,,METAR,56.0
KEKX 010635Z AUTO 00000KT 10SM CLR 17/17 A3003 RMK AO2 T01710171,KEKX,2023-06-01T06:35:00Z,37.68,-85.92,17.1,17.1,0,0,,10.0,30.029528,,,TRUE,TRUE,,,,,,,CLR,,,,,,,,VFR,,,,,,,,,,,,SPECI,234.0
KEKS 010635Z AUTO 18009KT 10SM FEW046 BKN060 OVC070 12/08 A2998 RMK AO2,KEKS,2023-06-01T06:35:00Z,45.27,-111.65,12.0,8.0,180,9,,10.0,29.97933,,,TRUE,TRUE,,,,,,,FEW,4600,BKN,6000,OVC,7000,,,VFR,,,,,,,,,,,,METAR,1636.0
KEKM 010635Z 09003KT 10SM CLR 20/17 A3005 RMK AO2 T02050168 $,KEKM,2023-06-01T06:35:00Z,41.72,-86.0,20.5,16.8,90,3,,10.0,30.050198,,,,TRUE,TRUE,,,,,,CLR,,,,,,,,VFR,,,,,,,,,,,,SPECI,236.0
KEKE 010635Z AUTO 31003KT 10SM CLR 25/20 A2981 RMK A01,KEKE,2023-06-01T06:35:00Z,28.5,-91.58,25.0,20.0,310,3,,10.0,29.811024,,,TRUE,TRUE,,,,,,,CLR,,,,,,,,VFR,,,,,,,,,,,,SPECI,31.0
KEIK 010635Z AUTO 00000KT 10SM CLR 14/08 A2990 RMK AO2 T01370080,KEIK,2023-06-01T06:35:00Z,40.02,-105.05,13.7,8.0,0,0,,10.0,29.899607,,,TRUE,TRUE,,,,,,,CLR,,,,,,,,VFR,,,,,,,,,,,,METAR,1551.0
KEGV 010635Z AUTO 00000KT 10SM CLR 17/13 A3003 RMK AO2 T01720127,KEGV,2023-06-01T06:35:00Z,45.93,-89.27,17.2,12.7,0,0,,10.0,30.029528,,,TRUE,TRUE,,,,,,,CLR,,,,,,,,VFR,,,,,,,,,,,,SPECI,499.0
KEGT 010635Z AUTO 14006KT 10SM CLR 20/16 A2989 RMK AO2 T02020157,KEGT,2023-06-01T06:35:00Z,37.32,-97.38,20.2,15.7,140,6,,10.0,29.890747,,,TRUE,TRUE,,,,,,,CLR,,,,,,,,VFR,,,,,,,,,,,,SPECI,387.0
KEFT 010635Z AUTO 16006KT 10SM CLR 20/15 A3000 RMK AO2 T02000150,KEFT,2023-06-01T06:35:00Z,42.62,-89.6,20.0,15.0,160,6,,10.0,30.0,,,TRUE,TRUE,,,,,,,CLR,,,,,,,,VFR,,,,,,,,,,,,SPECI,332.0
KEFK 010635Z AUTO 21004KT 10SM CLR 13/09 A3012 RMK AO2 T01310086,KEFK,2023-06-01T06:35:00Z,44.88,-72.23,13.1,8.6,210,4,,10.0,30.121063,,,TRUE,TRUE,,,,,,,CLR,,,,,,,,VFR,,,,,,,,,,,,SPECI,282.0
KEDU 010635Z AUTO 20007KT 10SM CLR 14/10 A2979 RMK AO1,KEDU,2023-06-01T06:35:00Z,38.53,-121.78,14.0,10.0,200,7,,10.0,29.790354,,,TRUE,TRUE,,,,,,,CLR,,,,,,,,VFR,,,,,,,,,,,,SPECI,20.0
KEDN 010635Z AUTO 03003KT 10SM SCT090 SCT110 20/20 A2994 RMK AO2 T01950195 PWINO,KEDN,2023-06-01T06:35:00Z,31.3,-85.9,19.5,19.5,30,3,,10.0,29.940945,,,TRUE,TRUE,,,,,TRUE,,SCT,9000,SCT,11000,,,,,VFR,,,,,,,,,,,,SPECI,103.0
KEDJ 010635Z AUTO 15004KT 10SM FEW037 FEW048 20/15 A3009 RMK A01,KEDJ,2023-06-01T06:35:00Z,40.37,-83.82,20.0,15.0,150,4,,10.0,30.088583,,,TRUE,TRUE,,,,,,,FEW,3700,FEW,4800,,,,,VFR,,,,,,,,,,,,SPECI,341.0
KEDC 010635Z AUTO 00000KT 9SM CLR 22/21 A2987 RMK AO2,KEDC,2023-06-01T06:35:00Z,30.4,-97.57,22.0,21.0,0,0,,9.0,29.870079,,,TRUE,TRUE,,,,,,,CLR,,,,,,,,VFR,,,,,,,,,,,,SPECI,184.0
KECU 010635Z AUTO 13014G22KT 10SM BKN016 21/19 A2992 RMK AO2,KECU,2023-06-01T06:35:00Z,29.95,-100.17,21.0,19.0,130,14,22,10.0,29.920275,,,TRUE,TRUE,,,,,,,BKN,1600,,,,,,,MVFR,,,,,,,,,,,,METAR,725.0
KECS 010635Z AUTO 14010KT 10SM CLR 14/07 A2992 RMK AO2,KECS,2023-06-01T06:35:00Z,43.88,-104.32,14.0,7.0,140,10,,10.0,29.920275,,,TRUE,TRUE,,,,,,,CLR,,,,,,,,VFR,,,,,,,,,,,,SPECI,1273.0
KEBS 010635Z AUTO 17008KT 10SM CLR 19/18 A2991 RMK AO2,KEBS,2023-06-01T06:35:00Z,42.43,-93.87,19.0,18.0,170,8,,10.0,29.911417,,,TRUE,TRUE,,,,,,,CLR,,,,,,,,VFR,,,,,,,,,,,,METAR,340.0
KEBG 010635Z AUTO 16004KT 10SM CLR 22/21 A2983 RMK AO2 T02150209,KEBG,2023-06-01T06:35:00Z,26.45,-98.13,21.5,20.9,160,4,,10.0,29.828741,,,TRUE,TRUE,,,,,,,CLR,,,,,,,,VFR,,,,,,,,,,,,METAR,21.0
KEBA 010635Z AUTO 00000KT 10SM CLR 17/16 A3005 RMK AO2 T01680164,KEBA,2023-06-01T06:35:00Z,34.1,-82.82,16.8,16.4,0,0,,10.0,30.050198,,,TRUE,TRUE,,,,,,,CLR,,,,,,,,VFR,,,,,,,,,,,,SPECI,180.0
KE42 010635Z AUTO 16011KT 10SM OVC100 16/14 A2994 RMK AO2 T01580137,KE42,2023-06-01T06:35:00Z,36.22,-101.2,15.8,13.7,160,11,,10.0,29.940945,,,TRUE,TRUE,,,,,,,OVC,10000,,,,,,,VFR,,,,,,,,,,,,METAR,942.0
KE41 010635Z AUTO 15016G21KT 10SM CLR 22/15 A2983 RMK AO2 T02230149,KE41,2023-06-01T06:35:00Z,31.2,-101.47,22.3,14.9,150,16,21,10.0,29.828741,,,TRUE,TRUE,,,,,,,CLR,,,,,,,,VFR,,,,,,,,,,,,METAR,825.0
KE38 010635Z AUTO 20006KT 10SM CLR 21/14 A2989 RMK AO2 T02060135,KE38,2023-06-01T06:35:00Z,30.38,-103.68,20.6,13.5,200,6,,10.0,29.890747,,,TRUE,TRUE,,,,,,,CLR,,,,,,,,VFR,,,,,,,,,,,,METAR,1372.0
KE16 010635Z AUTO 11004KT 9SM BKN018 10/09 A2993 RMK AO2,KE16,2023-06-01T06:35:00Z,37.08,-121.6,10.0,9.0,110,4,,9.0,29.929134,,,TRUE,TRUE,,,,,,,BKN,1800,,,,,,,MVFR,,,,,,,,,,,,METAR,84.0
KE11 010635Z AUTO 00000KT 10SM -RA SCT045 SCT050 BKN095 21/17 A2992 RMK AO2 LTG DSNT E W AND NW P0001 T02100170,KE11,2023-06-01T06:35:00Z,32.33,-102.53,21.0,17.0,0,0,,10.0,29.920275,,,TRUE,TRUE,,,,,,-RA,SCT,4500,SCT,5000,BKN,9500,,,VFR,,,,,,0.01,,,,,,METAR,966.0
KDZJ 010635Z AUTO 11003KT 10SM OVC100 18/15 A3010 RMK AO2 T01790151,KDZJ,2023-06-01T06:35:00Z,34.85,-84.0,17.9,15.1,110,3,,10.0,30.100393,,,TRUE,TRUE,,,,,,,OVC,10000,,,,,,,VFR,,,,,,,,,,,,SPECI,578.0
KDZB 010635Z AUTO 17006KT 10SM CLR 23/19 A2988 RMK AO2 T02280193,KDZB,2023-06-01T06:35:00Z,30.53,-98.37,22.8,19.3,170,6,,10.0,29.878937,,,TRUE,TRUE,,,,,,,CLR,,,,,,,,VFR,,,,,,,,,,,,SPECI,329.0
KDYT 010635Z AUTO 02004KT 10SM FEW048 SCT060 OVC070 10/08 A2996 RMK AO2,KDYT,2023-06-01T06:35:00Z,46.72,-92.03,10.0,8.0,20,4,,10.0,29.958662,,,TRUE,TRUE,,,,,,,FEW,4800,SCT,6000,OVC,7000,,,VFR,,,,,,,,,,,,SPECI,185.0
KDYB 010635Z AUTO 00000KT 7SM OVC037 18/18 A3000 RMK AO2,KDYB,2023-06-01T06:35:00Z,33.07,-80.28,18.0,18.0,0,0,,7.0,30.0,,,TRUE,TRUE,,,,,,,OVC,3700,,,,,,,VFR,,,,,,,,,,,,METAR,15.0
KDYA 010635Z AUTO 00000KT 10SM CLR 21/19 A2995 RMK AO2 T02050185,KDYA,2023-06-01T06:35:00Z,32.47,-87.95,20.5,18.5,0,0,,10.0,29.949802,,,TRUE,TRUE,,,,,,,CLR,,,,,,,,VFR,,,,,,,,,,,,SPECI,33.0
KDXX 010635Z AUTO 14005KT 10SM CLR 19/16 A2987 RMK AO2,KDXX,2023-06-01T06:35:00Z,44.98,-96.18,19.0,16.0,140,5,,10.0,29.870079,,,TRUE,TRUE,,,,,,,CLR,,,,,,,,VFR,,,,,,,,,,,,SPECI,327.0
KDWX 010635Z AUTO 01007KT 10SM CLR 09/03 A2995 RMK AO2 T00880032,KDWX,2023-06-01T06:35:00Z,41.03,-107.5,8.8,3.2,10,7,,10.0,29.949802,,,TRUE,TRUE,,,,,,,CLR,,,,,,,,VFR,,,,,,,,,,,,SPECI,1974.0
KDWA 010635Z AUTO 15004KT 9SM SCT027 14/11 A2979 RMK AO2,KDWA,2023-06-01T06:35:00Z,38.58,-121.85,14.0,11.0,150,4,,9.0,29.790354,,,TRUE,TRUE,,,,,,,SCT,2700,,,,,,,VFR,,,,,,,,,,,,METAR,28.0
KDVO 010635Z AUTO 00000KT 8SM CLR 11/10 A2984 RMK AO2,KDVO,2023-06-01T06:35:00Z,38.15,-122.55,11.0,10.0,0,0,,8.0,29.840551,,,TRUE,TRUE,,,,,,,CLR,,,,,,,,VFR,,,,,,,,,,,,METAR,1.0
KDUX 010635Z AUTO 25011KT 10SM RA SCT008 BKN012 OVC095 15/13 A2995 RMK AO2 T01450131,KDUX,2023-06-01T06:35:00Z,35.85,-102.02,14.5,13.1,250,11,,10.0,29.949802,,,TRUE,TRUE,,,,,,RA,SCT,800,BKN,1200,OVC,9500,,,MVFR,,,,,,,,,,,,METAR,1129.0
KDUH 010635Z AUTO 00000KT 10SM CLR 16/14 A3007 RMK AO2 T01560137,KDUH,2023-06-01T06:35:00Z,41.73,-83.65,15.6,13.7,0,0,,10.0,30.070866,,,TRUE,TRUE,,,,,,,CLR,,,,,,,,VFR,,,,,,,,,,,,SPECI,203.0
KDUC 010635Z AUTO 10005KT 10SM CLR 21/18 A2990 RMK AO2 T02150176,KDUC,2023-06-01T06:35:00Z,34.47,-97.97,21.5,17.6,100,5,,10.0,29.899607,,,TRUE,TRUE,,,,,,,CLR,,,,,,,,VFR,,,,,,,,,,,,METAR,339.0
KDUA 010635Z AUTO 13005KT 10SM CLR 22/16 A2991 RMK AO2,KDUA,2023-06-01T06:35:00Z,33.95,-96.4,22.0,16.0,130,5,,10.0,29.911417,,,TRUE,TRUE,,,,,,,CLR,,,,,,,,VFR,,,,,,,,,,,,SPECI,209.0
KDTL 010635Z AUTO 10008KT 10SM BKN045 BKN050 18/14 A2989 RMK AO2,KDTL,2023-06-01T06:35:00Z,46.82,-95.88,18.0,14.0,100,8,,10.0,29.890747,,,TRUE,TRUE,,,,,,,BKN,4500,BKN,5000,,,,,VFR,,,,,,,,,,,,SPECI,425.0
KDTA 010635Z AUTO 17011KT 10SM CLR 10/02 A2983 RMK AO1,KDTA,2023-06-01T06:35:00Z,39.38,-112.5,10.0,2.0,170,11,,10.0,29.828741,,,TRUE,TRUE,,,,,,,CLR,,,,,,,,VFR,,,,,,,,,,,,METAR,1452.0
KDRM 010635Z AUTO 00000KT 10SM CLR 15/14 A3010 RMK AO2 T01460143,KDRM,2023-06-01T06:35:00Z,46.0,-83.75,14.6,14.3,0,0,,10.0,30.100393,,,TRUE,TRUE,,,,,,,CLR,,,,,,,,VFR,,,,,,,,,,,,SPECI,201.0
KDRI 010635Z AUTO 00000KT 9SM CLR 20/20 A2991 RMK AO2 T02000200 $,KDRI,2023-06-01T06:35:00Z,30.83,-93.33,20.0,20.0,0,0,,9.0,29.911417,,,TRUE,TRUE,TRUE,,,,,,CLR,,,,,,,,VFR,,,,,,,,,,,,METAR,59.0
KDQH 010635Z AUTO 06003KT 10SM CLR 20/17 A2999 RMK AO2 T02020172,KDQH,2023-06-01T06:35:00Z,31.48,-82.87,20.2,17.2,60,3,,10.0,29.991142,,,TRUE,TRUE,,,,,,,CLR,,,,,,,,VFR,,,,,,,,,,,,METAR,76.0
KDNV 010635Z AUTO 00000KT 10SM SCT085 20/16 A3002 RMK AO2 T02040159,KDNV,2023-06-01T06:35:00Z,40.2,-87.6,20.4,15.9,0,0,,10.0,30.02067,,,TRUE,TRUE,,,,,,,SCT,8500,,,,,,,VFR,,,,,,,,,,,,SPECI,208.0
KDNS 010635Z AUTO 14009KT 10SM CLR 21/20 A2993 RMK AO2,KDNS,2023-06-01T06:35:00Z,41.98,-95.37,21.0,20.0,140,9,,10.0,29.929134,,,TRUE,TRUE,,,,,,,CLR,,,,,,,,VFR,,,,,,,,,,,,METAR,382.0
KDNN 010635Z AUTO 00000KT 10SM OVC110 18/18 A3005 RMK AO2 T01850180,KDNN,2023-06-01T06:35:00Z,34.72,-84.87,18.5,18.0,0,0,,10.0,30.050198,,,TRUE,TRUE,,,,,,,OVC,11000,,,,,,,VFR,,,,,,,,,,,,METAR,216.0
KDNA 010635Z AUTO 26012KT 10SM CLR 24/M07 A2983 RMK AO2,KDNA,2023-06-01T06:35:00Z,31.88,-106.7,24.0,-7.0,260,12,,10.0,29.828741,,,TRUE,TRUE,,,,,,,CLR,,,,,,,,VFR,,,,,,,,,,,,SPECI,1254.0
KDLZ 010635Z AUTO 00000KT 10SM CLR 17/13 A3009 RMK AO2,KDLZ,2023-06-01T06:35:00Z,40.28,-83.12,17.0,13.0,0,0,,10.0,30.088583,,,TRUE,TRUE,,,,,,,CLR,,,,,,,,VFR,,,,,,,,,,,,SPECI,287.0
KDLP 010635Z AUTO 10012KT 10SM SCT020 27/21 A2978 RMK A01,KDLP,2023-06-01T06:35:00Z,29.12,-89.55,27.0,21.0,100,12,,10.0,29.778543,,,TRUE,TRUE,,,,,,,SCT,2000,,,,,,,VFR,,,,,,,,,,,,SPECI,31.0
KDLO 010635Z AUTO 30003KT 10SM CLR 18/06 A2981 RMK AO2 T01760063,KDLO,2023-06-01T06:35:00Z,35.75,-119.23,17.6,6.3,300,3,,10.0,29.811024,,,TRUE,TRUE,,,,,,,CLR,,,,,,,,VFR,,,,,,,,,,,,METAR,97.0
KDLL 010635Z AUTO 14004KT 10SM BKN100 22/15 A3000 RMK AO2 T02240145,KDLL,2023-06-01T06:35:00Z,43.52,-89.77,22.4,14.5,140,4,,10.0,30.0,,,TRUE,TRUE,,,,,,,BKN,10000,,,,,,,VFR,,,,,,,,,,,,SPECI,297.0
KDKX 010635Z AUTO 07003KT 10SM CLR 18/17 A3005 RMK A01,KDKX,2023-06-01T06:35:00Z,35.97,-83.87,18.0,17.0,70,3,,10.0,30.050198,,,TRUE,TRUE,,,,,,,CLR,,,,,,,,VFR,,,,,,,,,,,,SPECI,253.0
KDKR 010635Z AUTO 00000KT 7SM FEW055 21/21 A2989 RMK AO2,KDKR,2023-06-01T06:35:00Z,31.3,-95.4,21.0,21.0,0,0,,7.0,29.890747,,,TRUE,TRUE,,,,,,,FEW,5500,,,,,,,VFR,,,,,,,,,,,,METAR,105.0
KDKB 010635Z AUTO 12003KT 10SM CLR 18/16 A3002 RMK AO2 T01800162,KDKB,2023-06-01T06:35:00Z,41.93,-88.7,18.0,16.2,120,3,,10.0,30.02067,,,TRUE,TRUE,,,,,,,CLR,,,,,,,,VFR,,,,,,,,,,,,METAR,277.0
KDEH 010635Z AUTO 15005KT 10SM BKN070 21/15 A2996 RMK AO2,KDEH,2023-06-01T06:35:00Z,43.27,-91.73,21.0,15.0,150,5,,10.0,29.958662,,,TRUE,TRUE,,,,,,,BKN,7000,,,,,,,VFR,,,,,,,,,,,,METAR,348.0
KDCY 010635Z AUTO 00000KT 10SM CLR 18/17 A3001 RMK AO2 T01800167,KDCY,2023-06-01T06:35:00Z,38.7,-87.13,18.0,16.7,0,0,,10.0,30.008858,,,TRUE,TRUE,,,,,,,CLR,,,,,,,,VFR,,,,,,,,,,,,METAR,143.0
KDCM 010635Z AUTO 03004KT 10SM CLR 16/16 A3006 RMK AO2,KDCM,2023-06-01T06:35:00Z,34.78,-81.2,16.0,16.0,30,4,,10.0,30.059055,,,TRUE,TRUE,,,,,,,CLR,,,,,,,,VFR,,,,,,,,,,,,SPECI,191.0
KD95 010635Z AUTO 00000KT 10SM CLR 14/11 A3011 RMK AO2 T01350112,KD95,2023-06-01T06:35:00Z,43.07,-83.27,13.5,11.2,0,0,,10.0,30.109253,,,TRUE,TRUE,,,,,,,CLR,,,,,,,,VFR,,,,,,,,,,,,SPECI,253.0
KD73 010635Z AUTO 04003KT 7SM CLR 16/ A3006 RMK AO2 T0161////,KD73,2023-06-01T06:35:00Z,33.78,-83.7,16.1,,40,3,,7.0,30.059055,,,TRUE,TRUE,,,,,,,CLR,,,,,,,,VFR,,,,,,,,,,,,METAR,254.0
KD60 010635Z AUTO 10005KT 10SM CLR 14/14 A2987 RMK AO2,KD60,2023-06-01T06:35:00Z,48.38,-102.9,14.0,14.0,100,5,,10.0,29.870079,,,TRUE,TRUE,,,,,,,CLR,,,,,,,,VFR,,,,,,,,,,,,SPECI,682.0
KD57 010635Z AUTO 07006KT 10SM CLR 13/13 A2983 RMK AO2,KD57,2023-06-01T06:35:00Z,46.82,-101.87,13.0,13.0,70,6,,10.0,29.828741,,,TRUE,TRUE,,,,,,,CLR,,,,,,,,VFR,,,,,,,,,,,,SPECI,636.0
KD55 010635Z AUTO 08009KT 10SM FEW026 SCT046 BKN080 20/17 A2987 RMK AO2,KD55,2023-06-01T06:35:00Z,48.75,-98.4,20.0,17.0,80,9,,10.0,29.870079,,,TRUE,TRUE,,,,,,,FEW,2600,SCT,4600,BKN,8000,,,VFR,,,,,,,,,,,,SPECI,488.0
KD50 010635Z AUTO 12004KT 8SM FEW110 14/14 A2984 RMK AO2,KD50,2023-06-01T06:35:00Z,48.93,-103.3,14.0,14.0,120,4,,8.0,29.840551,,,TRUE,TRUE,,,,,,,FEW,11000,,,,,,,VFR,,,,,,,,,,,,SPECI,591.0
KD39 010635Z AUTO 10003KT 10SM SCT110 17/14 A2991 RMK AO2 T01660142,KD39,2023-06-01T06:35:00Z,45.7,-94.93,16.6,14.2,100,3,,10.0,29.911417,,,TRUE,TRUE,,,,,,,SCT,11000,,,,,,,VFR,,,,,,,,,,,,METAR,378.0
KD25 010635Z AUTO 16005KT 10SM CLR 19/15 A3002 RMK AO2 T01890145,KD25,2023-06-01T06:35:00Z,46.12,-89.88,18.9,14.5,160,5,,10.0,30.02067,,,TRUE,TRUE,,,,,,,CLR,,,,,,,,VFR,,,,,,,,,,,,METAR,490.0
KCZT 010635Z AUTO 10SM CLR 24/20 A2982 RMK AO2,KCZT,2023-06-01T06:35:00Z,28.52,-99.82,24.0,20.0,,,,10.0,29.819881,,,TRUE,TRUE,,,,,,,CLR,,,,,,,,VFR,,,,,,,,,,,,METAR,176.0
KCZL 010635Z AUTO 00000KT 10SM CLR 17/17 A3006 RMK AO2,KCZL,2023-06-01T06:35:00Z,34.47,-84.93,17.0,17.0,0,0,,10.0,30.059055,,,TRUE,TRUE,,,,,,,CLR,,,,,,,,VFR,,,,,,,,,,,,SPECI,197.0
KCYD 010635Z AUTO 06009KT 10SM CLR 25/20 A2987 RMK A02 T02480200,KCYD,2023-06-01T06:35:00Z,28.17,-89.22,24.8,20.0,60,9,,10.0,29.870079,,,TRUE,TRUE,,,,,,,CLR,,,,,,,,VFR,,,,,,,,,,,,METAR,30.0
KCXW 010635Z AUTO 00000KT 10SM BKN060 BKN120 21/M37 A2993 RMK A01,KCXW,2023-06-01T06:35:00Z,35.02,-92.55,21.0,-37.0,0,0,,10.0,29.929134,,,TRUE,TRUE,,,,,,,BKN,6000,BKN,12000,,,,,VFR,,,,,,,,,,,,SPECI,84.0
KCXU 010635Z AUTO 00000KT 10SM CLR 21/19 A2996 RMK AO1 T02130191,KCXU,2023-06-01T06:35:00Z,31.22,-84.23,21.3,19.1,0,0,,10.0,29.958662,,,TRUE,TRUE,,,,,,,CLR,,,,,,,,VFR,,,,,,,,,,,,SPECI,48.0
KCXP 010635Z AUTO 04006G11KT 10SM CLR 16/07 A2994 RMK AO2,KCXP,2023-06-01T06:35:00Z,39.18,-119.73,16.0,7.0,40,6,11,10.0,29.940945,,,TRUE,TRUE,,,,,,,CLR,,,,,,,,VFR,,,,,,,,,,,,SPECI,1431.0
KCXE 010635Z AUTO 10SM CLR 16/16 A3008 RMK AO1 T01610159,KCXE,2023-06-01T06:35:00Z,36.78,-78.5,16.1,15.9,,,,10.0,30.079725,,,TRUE,TRUE,,,,,,,CLR,,,,,,,,VFR,,,,,,,,,,,,SPECI,154.0
KCWV 010635Z AUTO 00000KT 7SM CLR 20/19 A3000 RMK AO2 T01960188,KCWV,2023-06-01T06:35:00Z,32.2,-81.87,19.6,18.8,0,0,,7.0,30.0,,,TRUE,TRUE,,,,,,,CLR,,,,,,,,VFR,,,,,,,,,,,,METAR,32.0
KCWF 010635Z AUTO 00000KT 10SM CLR 22/20 A2988 RMK AO2 T02190195,KCWF,2023-06-01T06:35:00Z,30.22,-93.15,21.9,19.5,0,0,,10.0,29.878937,,,TRUE,TRUE,,,,,,,CLR,,,,,,,,VFR,,,,,,,,,,,,METAR,4.0
KCWC 010635Z AUTO 11012KT 10SM CLR 23/18 A2988 RMK AO2 T02270180,KCWC,2023-06-01T06:35:00Z,33.85,-98.48,22.7,18.0,110,12,,10.0,29.878937,,,TRUE,TRUE,,,,,,,CLR,,,,,,,,VFR,,,,,,,,,,,,SPECI,304.0
KCWA 010635Z AUTO 00000KT 10SM CLR 17/14 A3003 RMK AO2,KCWA,2023-06-01T06:35:00Z,44.78,-89.67,17.0,14.0,0,0,,10.0,30.029528,,,TRUE,TRUE,,,,,,,CLR,,,,,,,,VFR,,,,,,,,,,,,SPECI,387.0
KCVX 010635Z AUTO 12004KT 10SM CLR 19/17 A3007 RMK AO2 T01860168,KCVX,2023-06-01T06:35:00Z,45.3,-85.27,18.6,16.8,120,4,,10.0,30.070866,,,TRUE,TRUE,,,,,,,CLR,,,,,,,,VFR,,,,,,,,,,,,SPECI,196.0
KCVH 010635Z AUTO 00000KT 8SM BKN015 11/09 A2993 RMK A01,KCVH,2023-06-01T06:35:00Z,36.9,-121.42,11.0,9.0,0,0,,8.0,29.929134,,,TRUE,TRUE,,,,,,,BKN,1500,,,,,,,MVFR,,,,,,,,,,,,SPECI,68.0
KCVC 010635Z AUTO 00000KT 10SM CLR 17/16 A3004 RMK AO2,KCVC,2023-06-01T06:35:00Z,33.63,-83.85,17.0,16.0,0,0,,10.0,30.041338,,,TRUE,TRUE,,,,,,,CLR,,,,,,,,VFR,,,,,,,,,,,,METAR,240.0
KCUH 010635Z AUTO 21003KT 10SM CLR 21/17 A2989 RMK AO2 T02100174,KCUH,2023-06-01T06:35:00Z,35.95,-96.77,21.0,17.4,210,3,,10.0,29.890747,,,TRUE,TRUE,,,,,,,CLR,,,,,,,,VFR,,,,,,,,,,,,SPECI,274.0
KCTY 010635Z AUTO 04004KT 10SM SCT012 SCT120 22/21 A2991 RMK AO2,KCTY,2023-06-01T06:35:00Z,29.63,-83.1,22.0,21.0,40,4,,10.0,29.911417,,,TRUE,TRUE,,,,,,,SCT,1200,SCT,12000,,,,,VFR,,,,,,,,,,,,SPECI,12.0
KCTJ 010635Z AUTO 00000KT 10SM CLR 16/16 A3008 RMK AO2 T01630159,KCTJ,2023-06-01T06:35:00Z,33.63,-85.15,16.3,15.9,0,0,,10.0,30.079725,,,TRUE,TRUE,,,,,,,CLR,,,,,,,,VFR,,,,,,,,,,,,METAR,351.0
KCSQ 010635Z AUTO 14005KT 10SM BKN041 BKN047 OVC120 20/20 A2993 RMK AO2,KCSQ,2023-06-01T06:35:00Z,41.02,-94.37,20.0,20.0,140,5,,10.0,29.929134,,,TRUE,TRUE,,,,,,,BKN,4100,BKN,4700,OVC,12000,,,VFR,,,,,,,,,,,,METAR,394.0
KCRX 010635Z AUTO 00000KT 7SM CLR 19/19 A2998 RMK AO2,KCRX,2023-06-01T06:35:00Z,34.92,-88.6,19.0,19.0,0,0,,7.0,29.97933,,,TRUE,TRUE,,,,,,,CLR,,,,,,,,VFR,,,,,,,,,,,,SPECI,128.0
KCQW 010635Z AUTO 00000KT 1/2SM FG OVC028 17/17 A3004 RMK AO2,KCQW,2023-06-01T06:35:00Z,34.72,-79.95,17.0,17.0,0,0,,0.5,30.041338,,,TRUE,TRUE,,,,,,FG,OVC,2800,,,,,,,LIFR,,,,,,,,,,,,METAR,67.0
KCQF 010635Z AUTO 06005KT 10SM CLR 21/17 A2990 RMK AO2,KCQF,2023-06-01T06:35:00Z,30.47,-87.88,21.0,17.0,60,5,,10.0,29.899607,,,TRUE,TRUE,,,,,,,CLR,,,,,,,,VFR,,,,,,,,,,,,SPECI,21.0
KCQB 010635Z AUTO 15006KT 10SM CLR 21/18 A2991 RMK AO2 T02120176,KCQB,2023-06-01T06:35:00Z,35.72,-96.82,21.2,17.6,150,6,,10.0,29.911417,,,TRUE,TRUE,,,,,,,CLR,,,,,,,,VFR,,,,,,,,,,,,METAR,298.0
KCPW 010635Z AUTO 24008KT 1/4SM SN OVC002 M01/M01 A3032 RMK AO2 P0003,KCPW,2023-06-01T06:35:00Z,37.45,-106.8,-1.0,-1.0,240,8,,0.25,30.318897,,,TRUE,TRUE,,,,,,SN,OVC,200,,,,,,,LIFR,,,,,,0.03,,,,,,METAR,3570.0
KCPU 010635Z AUTO 00000KT 10SM CLR 16/09 A2985 RMK AO2 T01590087,KCPU,2023-06-01T06:35:00Z,38.15,-120.65,15.9,8.7,0,0,,10.0,29.84941,,,TRUE,TRUE,,,,,,,CLR,,,,,,,,VFR,,,,,,,,,,,,METAR,400.0
KCPT 010635Z AUTO 13007KT 10SM CLR 23/19 A2988 RMK A01,KCPT,2023-06-01T06:35:00Z,32.35,-97.43,23.0,19.0,130,7,,10.0,29.878937,,,TRUE,TRUE,,,,,,,CLR,,,,,,,,VFR,,,,,,,,,,,,SPECI,260.0
KCPP 010635Z AUTO 00000KT 10SM CLR 17/16 A3004 RMK AO2,KCPP,2023-06-01T06:35:00Z,,,17.0,16.0,0,0,,10.0,30.041338,,,TRUE,TRUE,,,,,,,CLR,,,,,,,,VFR,,,,,,,,,,,,SPECI,
KCPK 010635Z AUTO 03007KT 10SM OVC010 19/16 A3002 RMK AO2 T01850161,KCPK,2023-06-01T06:35:00Z,36.67,-76.32,18.5,16.1,30,7,,10.0,30.02067,,,TRUE,TRUE,,,,,,,OVC,1000,,,,,,,MVFR,,,,,,,,,,,,METAR,4.0
KCPF 010635Z AUTO 00000KT 10SM CLR 16/15 A3007 RMK AO2,KCPF,2023-06-01T06:35:00Z,37.38,-83.27,16.0,15.0,0,0,,10.0,30.070866,,,TRUE,TRUE,,,,,,,CLR,,,,,,,,VFR,,,,,,,,,,,,SPECI,382.0
KCOQ 010635Z AUTO 11003KT 10SM CLR 12/08 A2995 RMK AO2 TSNO,KCOQ,2023-06-01T06:35:00Z,46.7,-92.5,12.0,8.0,110,3,,10.0,29.949802,,,TRUE,TRUE,,,TRUE,,,,CLR,,,,,,,,VFR,,,,,,,,,,,,SPECI,390.0
KCOM 010635Z AUTO 15008KT 10SM CLR 22/17 A2987 RMK AO2 T02160165,KCOM,2023-06-01T06:35:00Z,31.83,-99.4,21.6,16.5,150,8,,10.0,29.870079,,,TRUE,TRUE,,,,,,,CLR,,,,,,,,VFR,,,,,,,,,,,,METAR,516.0
KCNI 010635Z AUTO 11003KT 10SM CLR 17/16 A3008 RMK AO2 T01700161,KCNI,2023-06-01T06:35:00Z,34.32,-84.42,17.0,16.1,110,3,,10.0,30.079725,,,TRUE,TRUE,,,,,,,CLR,,,,,,,,VFR,,,,,,,,,,,,SPECI,371.0
KCNC 010635Z AUTO 16006KT 10SM BKN110 20/20 A2993 RMK AO2,KCNC,2023-06-01T06:35:00Z,41.02,-93.37,20.0,20.0,160,6,,10.0,29.929134,,,TRUE,TRUE,,,,,,,BKN,11000,,,,,,,VFR,,,,,,,,,,,,SPECI,319.0
KCNB 010635Z AUTO 09005KT 10SM CLR 18/15 A2987 RMK AO2 T01780146,KCNB,2023-06-01T06:35:00Z,44.73,-96.27,17.8,14.6,90,5,,10.0,29.870079,,,TRUE,TRUE,,,,,,,CLR,,,,,,,,VFR,,,,,,,,,,,,SPECI,363.0
KCMR 010635Z AUTO 14004KT 9SM OVC003 07/M02 A2997 RMK AO2,KCMR,2023-06-01T06:35:00Z,35.3,-112.2,7.0,-2.0,140,4,,9.0,29.970472,,,TRUE,TRUE,,,,,,,OVC,300,,,,,,,LIFR,,,,,,,,,,,,SPECI,2039.0
KCMD 010635Z AUTO VRB04KT 10SM CLR 20/18 A3003 RMK AO2,KCMD,2023-06-01T06:35:00Z,34.27,-86.85,20.0,18.0,0,4,,10.0,30.029528,,,TRUE,TRUE,,,,,,,CLR,,,,,,,,VFR,,,,,,,,,,,,SPECI,294.0
KCLW 010635Z AUTO 00000KT 10SM SCT015 SCT110 21/20 A2986 RMK AO2,KCLW,2023-06-01T06:35:00Z,27.98,-82.75,21.0,20.0,0,0,,10.0,29.861221,,,TRUE,TRUE,,,,,,,SCT,1500,SCT,11000,,,,,VFR,,,,,,,,,,,,METAR,21.0
KCLS 010635Z AUTO 00000KT 10SM OVC075 10/07 A3010 RMK AO2,KCLS,2023-06-01T06:35:00Z,46.68,-122.98,10.0,7.0,0,0,,10.0,30.100393,,,TRUE,TRUE,,,,,,,OVC,7500,,,,,,,VFR,,,,,,,,,,,,SPECI,52.0
KCLK 010635Z AUTO 16009KT 10SM CLR 22/17 A2988 RMK AO2,KCLK,2023-06-01T06:35:00Z,35.53,-98.93,22.0,17.0,160,9,,10.0,29.878937,,,TRUE,TRUE,,,,,,,CLR,,,,,,,,VFR,,,,,,,,,,,,SPECI,489.0
KCLI 010635Z AUTO 00000KT 10SM BKN120 18/15 A3004 RMK AO2 T01780151,KCLI,2023-06-01T06:35:00Z,44.62,-88.73,17.8,15.1,0,0,,10.0,30.041338,,,TRUE,TRUE,,,,,,,BKN,12000,,,,,,,VFR,,,,,,,,,,,,SPECI,248.0
KCKZ 010635Z AUTO 00000KT 10SM SCT019 BKN024 OVC031 08/08 A3015 RMK AO2,KCKZ,2023-06-01T06:35:00Z,40.38,-75.28,8.0,8.0,0,0,,10.0,30.15059,,,TRUE,TRUE,,,,,,,SCT,1900,BKN,2400,OVC,3100,,,MVFR,,,,,,,,,,,,SPECI,160.0
KCKP 010635Z AUTO 17004KT 10SM CLR 19/17 A2991 RMK AO2 T01890174,KCKP,2023-06-01T06:35:00Z,42.73,-95.55,18.9,17.4,170,4,,10.0,29.911417,,,TRUE,TRUE,,,,,,,CLR,,,,,,,,VFR,,,,,,,,,,,,METAR,369.0
KCKN 010635Z AUTO 13005KT 10SM SCT110 19/16 A2986 RMK AO2 LTG DSNT SW,KCKN,2023-06-01T06:35:00Z,47.85,-96.62,19.0,16.0,130,5,,10.0,29.861221,,,TRUE,TRUE,,,,,,,SCT,11000,,,,,,,VFR,,,,,,,,,,,,SPECI,272.0
KCKM 010635Z AUTO 09004KT 10SM 22/20 A2996 RMK A01,KCKM,2023-06-01T06:35:00Z,34.3,-90.52,22.0,20.0,90,4,,10.0,29.958662,,,TRUE,TRUE,,,,,,,,,,,,,,,,,,,,,,,,,,,METAR,52.0
KCKI 010635Z AUTO 00000KT 10SM CLR 16/15 A3002 RMK AO2,KCKI,2023-06-01T06:35:00Z,33.72,-79.85,16.0,15.0,0,0,,10.0,30.02067,,,TRUE,TRUE,,,,,,,CLR,,,,,,,,VFR,,,,,,,,,,,,METAR,19.0
KCKF 010635Z AUTO 00000KT 10SM OVC002 21/19 A3000 RMK AO2 T02050187,KCKF,2023-06-01T06:35:00Z,31.98,-83.77,20.5,18.7,0,0,,10.0,30.0,,,TRUE,TRUE,,,,,,,OVC,200,,,,,,,LIFR,,,,,,,,,,,,METAR,92.0
KCJR 010635Z AUTO 00000KT 10SM CLR 12/10 A3011 RMK AO2 T01230100,KCJR,2023-06-01T06:35:00Z,38.53,-77.87,12.3,10.0,0,0,,10.0,30.109253,,,TRUE,TRUE,,,,,,,CLR,,,,,,,,VFR,,,,,,,,,,,,SPECI,90.0
KCIN 010635Z AUTO 16004KT 10SM CLR 19/19 A2992 RMK AO2,KCIN,2023-06-01T06:35:00Z,42.03,-94.78,19.0,19.0,160,4,,10.0,29.920275,,,TRUE,TRUE,,,,,,,CLR,,,,,,,,VFR,,,,,,,,,,,,METAR,365.0
KCIC 010635Z AUTO 12007KT 10SM CLR 22/13 A2979 RMK AO1,KCIC,2023-06-01T06:35:00Z,39.78,-121.85,22.0,13.0,120,7,,10.0,29.790354,,,TRUE,TRUE,,,,,,,CLR,,,,,,,,VFR,,,,,,,,,,,,METAR,72.0
KCHK 010635Z AUTO 13007KT 10SM CLR 22/19 A2985 RMK AO2 T02160186,KCHK,2023-06-01T06:35:00Z,35.1,-97.97,21.6,18.6,130,7,,10.0,29.84941,,,TRUE,TRUE,,,,,,,CLR,,,,,,,,VFR,,,,,,,,,,,,METAR,346.0
KCGF 010635Z AUTO 00000KT 10SM CLR 13/11 A3012 RMK AO2 T01260106,KCGF,2023-06-01T06:35:00Z,41.57,-81.47,12.6,10.6,0,0,,10.0,30.121063,,,TRUE,TRUE,,,,,,,CLR,,,,,,,,VFR,,,,,,,,,,,,METAR,265.0
KCGC 010635Z AUTO 00000KT 10SM CLR 22/19 A2988 RMK AO2,KCGC,2023-06-01T06:35:00Z,28.87,-82.57,22.0,19.0,0,0,,10.0,29.878937,,,TRUE,TRUE,,,,,,,CLR,,,,,,,,VFR,,,,,,,,,,,,METAR,3.0
KCFS 010635Z AUTO 00000KT 10SM CLR 13/11 A3010 RMK AO2 T01300105,KCFS,2023-06-01T06:35:00Z,43.47,-83.45,13.0,10.5,0,0,,10.0,30.100393,,,TRUE,TRUE,,,,,,,CLR,,,,,,,,VFR,,,,,,,,,,,,SPECI,214.0
KCFO 010635Z AUTO 00000KT 10SM BKN110 14/08 A2993 RMK AO2 T01400081,KCFO,2023-06-01T06:35:00Z,39.78,-104.55,14.0,8.1,0,0,,10.0,29.929134,,,TRUE,TRUE,,,,,,,BKN,11000,,,,,,,VFR,,,,,,,,,,,,METAR,1672.0
KCFJ 010635Z AUTO 00000KT 10SM CLR 18/12 A3003 RMK AO2 T01750117,KCFJ,2023-06-01T06:35:00Z,39.98,-86.92,17.5,11.7,0,0,,10.0,30.029528,,,TRUE,TRUE,,,,,,,CLR,,,,,,,,VFR,,,,,,,,,,,,METAR,243.0
KCFE 010635Z AUTO 00000KT 10SM FEW025 SCT030 BKN065 19/15 A2990 RMK AO2,KCFE,2023-06-01T06:35:00Z,45.17,-93.85,19.0,15.0,0,0,,10.0,29.899607,,,TRUE,TRUE,,,,,,,FEW,2500,SCT,3000,BKN,6500,,,VFR,,,,,,,,,,,,SPECI,292.0
KCFD 010635Z AUTO 14005KT 10SM CLR 23/20 A2989 RMK AO2 T02270198,KCFD,2023-06-01T06:35:00Z,30.72,-96.33,22.7,19.8,140,5,,10.0,29.890747,,,TRUE,TRUE,,,,,,,CLR,,,,,,,,VFR,,,,,,,,,,,,METAR,106.0
KCEY 010635Z AUTO 00000KT 10SM CLR 20/20 A3000 RMK A01,KCEY,2023-06-01T06:35:00Z,36.67,-88.37,20.0,20.0,0,0,,10.0,30.0,,,TRUE,TRUE,,,,,,,CLR,,,,,,,,VFR,,,,,,,,,,,,METAR,172.0
KCDN 010635Z AUTO 00000KT 10SM CLR 19/17 A3004 RMK AO2,KCDN,2023-06-01T06:35:00Z,34.28,-80.57,19.0,17.0,0,0,,10.0,30.041338,,,TRUE,TRUE,,,,,,,CLR,,,,,,,,VFR,,,,,,,,,,,,METAR,90.0
KCDI 010635Z AUTO 00000KT 10SM CLR 11/10 A3010 RMK AO2 T01060102,KCDI,2023-06-01T06:35:00Z,39.97,-81.58,10.6,10.2,0,0,,10.0,30.100393,,,TRUE,TRUE,,,,,,,CLR,,,,,,,,VFR,,,,,,,,,,,,SPECI,241.0
KCDH 010635Z AUTO 00000KT 7SM CLR 19/19 A2992 RMK AO2,KCDH,2023-06-01T06:35:00Z,33.62,-92.77,19.0,19.0,0,0,,7.0,29.920275,,,TRUE,TRUE,,,,,,,CLR,,,,,,,,VFR,,,,,,,,,,,,METAR,38.0
KCDD 010635Z AUTO 00000KT 10SM SCT060 17/14 A2998 RMK AO2 LTG DSNT NE PWIN,KCDD,2023-06-01T06:35:00Z,48.27,-92.48,17.0,14.0,0,0,,10.0,29.97933,,,TRUE,TRUE,,,,,,,SCT,6000,,,,,,,VFR,,,,,,,,,,,,SPECI,344.0
KCDA 010635Z AUTO 00000KT 10SM CLR 12/08 A3015 RMK AO2 T01210075,KCDA,2023-06-01T06:35:00Z,44.57,-72.02,12.1,7.5,0,0,,10.0,30.15059,,,TRUE,TRUE,,,,,,,CLR,,,,,,,,VFR,,,,,,,,,,,,SPECI,357.0
KCCY 010635Z AUTO 12005KT 10SM CLR 19/19 A2995 RMK AO2,KCCY,2023-06-01T06:35:00Z,43.07,-92.62,19.0,19.0,120,5,,10.0,29.949802,,,TRUE,TRUE,,,,,,,CLR,,,,,,,,VFR,,,,,,,,,,,,METAR,340.0
KCCU 010635Z AUTO 17008KT 10SM CLR 03/00 A3024 RMK AO2,KCCU,2023-06-01T06:35:00Z,39.48,-106.15,3.0,0.0,170,8,,10.0,30.239174,,,TRUE,TRUE,,,,,,,CLR,,,,,,,,VFR,,,,,,,,,,,,METAR,3672.0
KCCO 010635Z AUTO 00000KT 10SM CLR 18/17 A3004 RMK AO2 T01790170,KCCO,2023-06-01T06:35:00Z,33.32,-84.77,17.9,17.0,0,0,,10.0,30.041338,,,TRUE,TRUE,,,,,,,CLR,,,,,,,,VFR,,,,,,,,,,,,METAR,290.0
KCCA 010635Z AUTO 00000KT 1 3/4SM BR CLR 17/17 A2997 RMK AO2 VIS 1V2 1/2,KCCA,2023-06-01T06:35:00Z,35.6,-92.45,17.0,17.0,0,0,,1.75,29.970472,,,TRUE,TRUE,,,,,,BR,CLR,,,,,,,,IFR,,,,,,,,,,,,METAR,152.0
KCBK 010635Z AUTO 12006KT 10SM CLR 17/13 A2989 RMK AO2 T01710128,KCBK,2023-06-01T06:35:00Z,39.43,-101.05,17.1,12.8,120,6,,10.0,29.890747,,,TRUE,TRUE,,,,,,,CLR,,,,,,,,VFR,,,,,,,,,,,,METAR,970.0
KCBG 010635Z AUTO 13005KT 10SM CLR 24/13 A2991 RMK AO2,KCBG,2023-06-01T06:35:00Z,45.57,-93.27,24.0,13.0,130,5,,10.0,29.911417,,,TRUE,TRUE,,,,,,,CLR,,,,,,,,VFR,,,,,,,,,,,,SPECI,285.0
KCBF 010635Z AUTO 15008KT 10SM CLR 20/17 A2989 RMK AO2,KCBF,2023-06-01T06:35:00Z,41.27,-95.77,20.0,17.0,150,8,,10.0,29.890747,,,TRUE,TRUE,,,,,,,CLR,,,,,,,,VFR,,,,,,,,,,,,METAR,379.0
KCAV 010635Z AUTO 15007KT 10SM FEW037 20/17 A2994 RMK A01,KCAV,2023-06-01T06:35:00Z,42.75,-93.77,20.0,17.0,150,7,,10.0,29.940945,,,TRUE,TRUE,,,,,,,FEW,3700,,,,,,,VFR,,,,,,,,,,,,METAR,352.0
KCAD 010635Z AUTO 00000KT 10SM CLR 14/14 A3009 RMK AO2 T01390135,KCAD,2023-06-01T06:35:00Z,44.27,-85.42,13.9,13.5,0,0,,10.0,30.088583,,,TRUE,TRUE,,,,,,,CLR,,,,,,,,VFR,,,,,,,,,,,,METAR,397.0
KC83 010635Z AUTO 24026G33KT 10SM CLR 14/08 A2980 RMK AO2,KC83,2023-06-01T06:35:00Z,37.83,-121.62,14.0,8.0,240,26,33,10.0,29.799213,,,TRUE,TRUE,,,,,,,CLR,,,,,,,,VFR,,,,,,,,,,,,SPECI,16.0
KC65 010635Z AUTO 00000KT 10SM CLR 18/17 A3003 RMK A01,KC65,2023-06-01T06:35:00Z,41.37,-86.3,18.0,17.0,0,0,,10.0,30.029528,,,TRUE,TRUE,,,,,,,CLR,,,,,,,,VFR,,,,,,,,,,,,METAR,241.0
KC62 010635Z AUTO 00000KT 10SM SCT090 18/13 A3007 RMK AO2 T01870140,KC62,2023-06-01T06:35:00Z,41.47,-85.25,18.7,14.0,0,0,,10.0,30.070866,,,TRUE,TRUE,,,,,,,SCT,9000,,,,,,,VFR,,,,,,,,,,,,SPECI,304.0
KC35 010635Z AUTO 00000KT 10SM OVC100 22/14 A2999 RMK AO2 T02150136 PWINO,KC35,2023-06-01T06:35:00Z,43.53,-89.98,21.5,13.6,0,0,,10.0,29.991142,,,TRUE,TRUE,,,,,TRUE,,OVC,10000,,,,,,,VFR,,,,,,,,,,,,SPECI,272.0
KC29 010635Z AUTO 00000KT 10SM OVC120 18/16 A3001 RMK AO1 T01830159,KC29,2023-06-01T06:35:00Z,43.12,-89.53,18.3,15.9,0,0,,10.0,30.008858,,,TRUE,TRUE,,,,,,,OVC,12000,,,,,,,VFR,,,,,,,,,,,,SPECI,282.0
KC09 010635Z AUTO 13004KT 10SM CLR 21/17 A2999 RMK AO2 T02060167,KC09,2023-06-01T06:35:00Z,41.43,-88.42,20.6,16.7,130,4,,10.0,29.991142,,,TRUE,TRUE,,,,,,,CLR,,,,,,,,VFR,,,,,,,,,,,,SPECI,179.0
KC07 010635Z AUTO 12003KT 10SM SCT120 03/02 A3014 RMK AO2,KC07,2023-06-01T06:35:00Z,40.35,-106.7,3.0,2.0,120,3,,10.0,30.138779,,,TRUE,TRUE,,,,,,,SCT,12000,,,,,,,VFR,,,,,,,,,,,,METAR,3224.0
KBYY 010635Z AUTO 10004KT 10SM CLR 21/20 A2987 RMK AO2 T02130205,KBYY,2023-06-01T06:35:00Z,28.97,-95.87,21.3,20.5,100,4,,10.0,29.870079,,,TRUE,TRUE,,,,,,,CLR,,,,,,,,VFR,,,,,,,,,,,,METAR,12.0
KBYL 010635Z AUTO 00000KT 10SM CLR 16/16 A3006 RMK AO1,KBYL,2023-06-01T06:35:00Z,36.8,-84.2,16.0,16.0,0,0,,10.0,30.059055,,,TRUE,TRUE,,,,,,,CLR,,,,,,,,VFR,,,,,,,,,,,,METAR,355.0
KBXK 010635Z AUTO 00000KT 9SM FEW029 21/01 A2975 RMK A01,KBXK,2023-06-01T06:35:00Z,33.42,-112.68,21.0,1.0,0,0,,9.0,29.749016,,,TRUE,TRUE,,,,,,,FEW,2900,,,,,,,VFR,,,,,,,,,,,,SPECI,303.0
KBXA 010635Z AUTO 00000KT 10SM CLR 20/18 A2991 RMK AO2 T01960180,KBXA,2023-06-01T06:35:00Z,30.82,-89.87,19.6,18.0,0,0,,10.0,29.911417,,,TRUE,TRUE,,,,,,,CLR,,,,,,,,VFR,,,,,,,,,,,,SPECI,35.0
KBWW 010635Z AUTO 13009KT 10SM CLR 16/16 A2984 RMK AO2,KBWW,2023-06-01T06:35:00Z,46.17,-103.3,16.0,16.0,130,9,,10.0,29.840551,,,TRUE,TRUE,,,,,,,CLR,,,,,,,,VFR,,,,,,,,,,,,SPECI,911.0
KBWP 010635Z AUTO 12007KT 10SM CLR 19/14 A2983 RMK AO2,KBWP,2023-06-01T06:35:00Z,46.25,-96.62,19.0,14.0,120,7,,10.0,29.828741,,,TRUE,TRUE,,,,,,,CLR,,,,,,,,VFR,,,,,,,,,,,,SPECI,294.0
KBVU 010635Z AUTO 20008KT 10SM CLR 23/M00 A2972 RMK AO2,KBVU,2023-06-01T06:35:00Z,35.95,-114.87,23.0,0.0,200,8,,10.0,29.719488,,,TRUE,TRUE,,,,,,,CLR,,,,,,,,VFR,,,,,,,,,,,,SPECI,654.0
KBVS 010635Z AUTO 00000KT 10SM OVC075 08/08 A3008 RMK A01,KBVS,2023-06-01T06:35:00Z,48.47,-122.42,8.0,8.0,0,0,,10.0,30.079725,,,TRUE,TRUE,,,,,,,OVC,7500,,,,,,,VFR,,,,,,,,,,,,METAR,31.0
KBVN 010635Z AUTO 15005KT 10SM CLR 21/17 A2988 RMK AO2 T02070172,KBVN,2023-06-01T06:35:00Z,41.73,-98.05,20.7,17.2,150,5,,10.0,29.878937,,,TRUE,TRUE,,,,,,,CLR,,,,,,,,VFR,,,,,,,,,,,,METAR,547.0
KBVI 010635Z AUTO 00000KT 10SM CLR 19/04 A3012 RMK AO2 T01850042,KBVI,2023-06-01T06:35:00Z,40.77,-80.37,18.5,4.2,0,0,,10.0,30.121063,,,TRUE,TRUE,,,,,,,CLR,,,,,,,,VFR,,,,,,,,,,,,SPECI,387.0
KBUU 010635Z AUTO 00000KT 10SM CLR 16/15 A3002 RMK AO2 T01570146 PWINO,KBUU,2023-06-01T06:35:00Z,42.68,-88.3,15.7,14.6,0,0,,10.0,30.02067,,,TRUE,TRUE,,,,,TRUE,,CLR,,,,,,,,VFR,,,,,,,,,,,,METAR,238.0
KBTN 010635Z AUTO 00000KT 10SM CLR 20/19 A2982 RMK AO2,KBTN,2023-06-01T06:35:00Z,45.82,-97.75,20.0,19.0,0,0,,10.0,29.819881,,,TRUE,TRUE,,,,,,,CLR,,,,,,,,VFR,,,,,,,,,,,,METAR,400.0
KBTA 010635Z AUTO 15005KT 10SM CLR 22/18 A2990 RMK AO2 T02150180,KBTA,2023-06-01T06:35:00Z,41.42,-96.12,21.5,18.0,150,5,,10.0,29.899607,,,TRUE,TRUE,,,,,,,CLR,,,,,,,,VFR,,,,,,,,,,,,METAR,400.0
KBRY 010635Z AUTO 00000KT 10SM CLR 18/18 A2999 RMK AO2 T01840184,KBRY,2023-06-01T06:35:00Z,37.82,-85.5,18.4,18.4,0,0,,10.0,29.991142,,,TRUE,TRUE,,,,,,,CLR,,,,,,,,VFR,,,,,,,,,,,,SPECI,192.0
KBRG 010635Z AUTO 25005KT 10SM SCT100 SCT120 20/M03 A2987 RMK AO2 T01961029,KBRG,2023-06-01T06:35:00Z,34.65,-106.83,19.6,-2.9,250,5,,10.0,29.870079,,,TRUE,TRUE,,,,,,,SCT,10000,SCT,12000,,,,,VFR,,,,,,,,,,,,SPECI,1585.0
KBQX 010635Z AUTO 13013KT 10SM FEW024 SCT032 BKN038 27/22 A2987 RMK A01,KBQX,2023-06-01T06:35:00Z,28.5,-95.72,27.0,22.0,130,13,,10.0,29.870079,,,TRUE,TRUE,,,,,,,FEW,2400,SCT,3200,BKN,3800,,,VFR,,,,,,,,,,,,METAR,34.0
KBQP 010635Z AUTO 00000KT 19/18 A2993 RMK AO2 T01940176 PWINO,KBQP,2023-06-01T06:35:00Z,32.75,-91.88,19.4,17.6,0,0,,,29.929134,,,TRUE,TRUE,,,,,TRUE,,,,,,,,,,,,,,,,,,,,,,METAR,50.0
KBQK 010635Z AUTO 02004KT 10SM SCT120 20/19 A2996 RMK AO2 T02050193,KBQK,2023-06-01T06:35:00Z,31.25,-81.47,20.5,19.3,20,4,,10.0,29.958662,,,TRUE,TRUE,,,,,,,SCT,12000,,,,,,,VFR,,,,,,,,,,,,SPECI,7.0
KBPG 010635Z AUTO 15009KT 10SM -RA CLR 24/15 A2989 RMK AO2 T02390152,KBPG,2023-06-01T06:35:00Z,32.22,-101.52,23.9,15.2,150,9,,10.0,29.890747,,,TRUE,TRUE,,,,,,-RA,CLR,,,,,,,,VFR,,,,,,,,,,,,METAR,782.0
KBPC 010635Z AUTO 21006KT 10SM -RA SCT044 SCT060 OVC100 15/15 A2995 RMK AO2 P0004,KBPC,2023-06-01T06:35:00Z,35.88,-101.03,15.0,15.0,210,6,,10.0,29.949802,,,TRUE,TRUE,,,,,,-RA,SCT,4400,SCT,6000,OVC,10000,,,VFR,,,,,,0.04,,,,,,METAR,844.0
KBOW 010635Z AUTO 06005KT 10SM CLR 22/22 A2987 RMK AO2,KBOW,2023-06-01T06:35:00Z,27.93,-81.77,22.0,22.0,60,5,,10.0,29.870079,,,TRUE,TRUE,,,,,,,CLR,,,,,,,,VFR,,,,,,,,,,,,SPECI,38.0
KBNW 010635Z AUTO 15005KT 10SM CLR 19/18 A2992 RMK AO2,KBNW,2023-06-01T06:35:00Z,42.03,-93.83,19.0,18.0,150,5,,10.0,29.920275,,,TRUE,TRUE,,,,,,,CLR,,,,,,,,VFR,,,,,,,,,,,,METAR,350.0
KBNL 010635Z AUTO 00000KT 10SM CLR 18/17 A3002 RMK AO2,KBNL,2023-06-01T06:35:00Z,33.25,-81.38,18.0,17.0,0,0,,10.0,30.02067,,,TRUE,TRUE,,,,,,,CLR,,,,,,,,VFR,,,,,,,,,,,,SPECI,76.0
KBMT 010635Z AUTO 00000KT 10SM CLR 22/21 A2988 RMK AO2 T02150207,KBMT,2023-06-01T06:35:00Z,30.07,-94.22,21.5,20.7,0,0,,10.0,29.878937,,,TRUE,TRUE,,,,,,,CLR,,,,,,,,VFR,,,,,,,,,,,,METAR,8.0
KBKT 010635Z AUTO 35004KT 10SM CLR 15/15 A3007 RMK AO1 T01510151,KBKT,2023-06-01T06:35:00Z,37.07,-77.95,15.1,15.1,350,4,,10.0,30.070866,,,TRUE,TRUE,,,,,,,CLR,,,,,,,,VFR,,,,,,,,,,,,SPECI,134.0
KBKS 010635Z AUTO 00000KT 7SM CLR 22/22 A2983 RMK AO2 SLP061 T02230223 $,KBKS,2023-06-01T06:35:00Z,27.2,-98.12,22.3,22.3,0,0,,7.0,29.828741,1006.1,,TRUE,TRUE,TRUE,,,,,,CLR,,,,,,,,VFR,,,,,,,,,,,,SPECI,34.0
KBKN 010635Z AUTO 11006KT 20/19 A2988 RMK AO2,KBKN,2023-06-01T06:35:00Z,36.75,-97.35,20.0,19.0,110,6,,,29.878937,,,TRUE,TRUE,,,,,,,,,,,,,,,,,,,,,,,,,,,SPECI,208.0
KBKD 010635Z AUTO 14005KT 5SM HZ CLR 23/17 A2987 RMK AO2 T02300165,KBKD,2023-06-01T06:35:00Z,32.72,-98.88,23.0,16.5,140,5,,5.0,29.870079,,,TRUE,TRUE,,,,,,HZ,CLR,,,,,,,,MVFR,,,,,,,,,,,,SPECI,383.0
KBJI 010635Z AUTO 14004KT 10SM BKN100 OVC120 17/17 A2993 RMK AO2 T01650165,KBJI,2023-06-01T06:35:00Z,47.5,-94.92,16.5,16.5,140,4,,10.0,29.929134,,,TRUE,TRUE,,,,,,,BKN,10000,OVC,12000,,,,,VFR,,,,,,,,,,,,METAR,422.0
KBJC 010635Z AUTO 22004KT 10SM CLR 14/06 A2992 RMK AO2,KBJC,2023-06-01T06:35:00Z,39.9,-105.1,14.0,6.0,220,4,,10.0,29.920275,,,TRUE,TRUE,,,,,,,CLR,,,,,,,,VFR,,,,,,,,,,,,METAR,1694.0
KBIJ 010635Z AUTO 00000KT 5SM BR CLR 19/18 A2996 RMK AO2,KBIJ,2023-06-01T06:35:00Z,31.4,-84.9,19.0,18.0,0,0,,5.0,29.958662,,,TRUE,TRUE,,,,,,BR,CLR,,,,,,,,MVFR,,,,,,,,,,,,SPECI,63.0
KBIE 010635Z AUTO 16008KT 10SM SCT075 BKN100 22/19 A2988 RMK AO2 LTG DSNT S T02190185,KBIE,2023-06-01T06:35:00Z,40.28,-96.75,21.9,18.5,160,8,,10.0,29.878937,,,TRUE,TRUE,,,,,,,SCT,7500,BKN,10000,,,,,VFR,,,,,,,,,,,,METAR,398.0
KBHC 010635Z AUTO 07005KT 10SM CLR 20/17 A2998 RMK AO2,KBHC,2023-06-01T06:35:00Z,31.72,-82.4,20.0,17.0,70,5,,10.0,29.97933,,,TRUE,TRUE,,,,,,,CLR,,,,,,,,VFR,,,,,,,,,,,,METAR,61.0
KBGF 010635Z AUTO 12007KT 10SM CLR 19/17 A3003 RMK A01,KBGF,2023-06-01T06:35:00Z,35.18,-86.07,19.0,17.0,120,7,,10.0,30.029528,,,TRUE,TRUE,,,,,,,CLR,,,,,,,,VFR,,,,,,,,,,,,SPECI,295.0
KBGE 010635Z AUTO 09009KT 10SM CLR 21/20 A2994 RMK AO2 T02090199,KBGE,2023-06-01T06:35:00Z,30.97,-84.63,20.9,19.9,90,9,,10.0,29.940945,,,TRUE,TRUE,,,,,,,CLR,,,,,,,,VFR,,,,,,,,,,,,SPECI,40.0
KBEC 010635Z AUTO 17003KT 10SM CLR 21/16 A2990 RMK AO2 T02050158,KBEC,2023-06-01T06:35:00Z,37.7,-97.22,20.5,15.8,170,3,,10.0,29.899607,,,TRUE,TRUE,,,,,,,CLR,,,,,,,,VFR,,,,,,,,,,,,METAR,421.0
KBEA 010635Z AUTO 11004KT 10SM SCT021 21/20 A2984 RMK AO2 T02090200,KBEA,2023-06-01T06:35:00Z,28.37,-97.78,20.9,20.0,110,4,,10.0,29.840551,,,TRUE,TRUE,,,,,,,SCT,2100,,,,,,,VFR,,,,,,,,,,,,SPECI,83.0
KBDU 010635Z AUTO 22007KT 10SM CLR 15/06 A2989 RMK AO2,KBDU,2023-06-01T06:35:00Z,40.03,-105.23,15.0,6.0,220,7,,10.0,29.890747,,,TRUE,TRUE,,,,,,,CLR,,,,,,,,VFR,,,,,,,,,,,,METAR,1614.0
KBDH 010635Z AUTO 11005KT 10SM SCT110 19/16 A2993 RMK AO2,KBDH,2023-06-01T06:35:00Z,45.12,-95.13,19.0,16.0,110,5,,10.0,29.929134,,,TRUE,TRUE,,,,,,,SCT,11000,,,,,,,VFR,,,,,,,,,,,,SPECI,341.0
KBDG 010635Z AUTO 05007G17KT 020V100 10SM 14/01 A2996 RMK AO1 T01360005,KBDG,2023-06-01T06:35:00Z,37.58,-109.47,13.6,0.5,50,7,17,10.0,29.958662,,,TRUE,TRUE,,,,,,,,,,,,,,,,,,,,,,,,,,,METAR,1778.0
KBCK 010635Z AUTO 00000KT 10SM SCT095 15/13 A2997 RMK AO2 T01470134,KBCK,2023-06-01T06:35:00Z,44.25,-90.85,14.7,13.4,0,0,,10.0,29.970472,,,TRUE,TRUE,,,,,,,SCT,9500,,,,,,,VFR,,,,,,,,,,,,SPECI,256.0
KBCB 010635Z AUTO 00000KT 10SM CLR 13/13 A3017 RMK AO2 T01260126,KBCB,2023-06-01T06:35:00Z,37.22,-80.42,12.6,12.6,0,0,,10.0,30.171259,,,TRUE,TRUE,,,,,,,CLR,,,,,,,,VFR,,,,,,,,,,,,METAR,642.0
KBBP 010635Z AUTO 00000KT 5SM BR CLR 16/16 A3004 RMK AO2,KBBP,2023-06-01T06:35:00Z,34.62,-79.73,16.0,16.0,0,0,,5.0,30.041338,,,TRUE,TRUE,,,,,,BR,CLR,,,,,,,,MVFR,,,,,,,,,,,,SPECI,44.0
KBBG 010635Z AUTO 00000KT 10SM OVC110 20/18 A2999 RMK AO2,KBBG,2023-06-01T06:35:00Z,36.53,-93.2,20.0,18.0,0,0,,10.0,29.991142,,,TRUE,TRUE,,,,,,,OVC,11000,,,,,,,VFR,,,,,,,,,,,,METAR,403.0
KBBD 010635Z AUTO 16006KT 10SM CLR 21/17 A2988 RMK AO2,KBBD,2023-06-01T06:35:00Z,31.18,-99.32,21.0,17.0,160,6,,10.0,29.878937,,,TRUE,TRUE,,,,,,,CLR,,,,,,,,VFR,,,,,,,,,,,,METAR,554.0
KBBB 010635Z AUTO 14004KT 10SM CLR 19/14 A2989 RMK AO2,KBBB,2023-06-01T06:35:00Z,45.32,-95.65,19.0,14.0,140,4,,10.0,29.890747,,,TRUE,TRUE,,,,,,,CLR,,,,,,,,VFR,,,,,,,,,,,,SPECI,315.0
KBAX 010635Z AUTO 00000KT 10SM 12/12 A3011 RMK AO2 T01230117,KBAX,2023-06-01T06:35:00Z,43.78,-82.98,12.3,11.7,0,0,,10.0,30.109253,,,TRUE,TRUE,,,,,,,,,,,,,,,,,,,,,,,,,,,SPECI,229.0
KBAM 010635Z AUTO 02003KT 10SM BKN110 15/08 A2992 RMK AO1,KBAM,2023-06-01T06:35:00Z,40.6,-116.87,15.0,8.0,20,3,,10.0,29.920275,,,TRUE,TRUE,,,,,,,BKN,11000,,,,,,,VFR,,,,,,,,,,,,SPECI,1381.0
KBAC 010635Z AUTO 00000KT 6SM BR SCT120 18/18 A2985 RMK AO2,KBAC,2023-06-01T06:35:00Z,46.93,-98.02,18.0,18.0,0,0,,6.0,29.84941,,,TRUE,TRUE,,,,,,BR,SCT,12000,,,,,,,VFR,,,,,,,,,,,,SPECI,423.0
KAZE 010635Z AUTO 08003KT 10SM SCT120 21/18 A2998 RMK AO2 T02070177,KAZE,2023-06-01T06:35:00Z,31.88,-82.65,20.7,17.7,80,3,,10.0,29.97933,,,TRUE,TRUE,,,,,,,SCT,12000,,,,,,,VFR,,,,,,,,,,,,METAR,78.0
KAZC 010635Z AUTO 09006KT 10SM CLR 15/M01 A2988 RMK AO2,KAZC,2023-06-01T06:35:00Z,36.97,-113.02,15.0,-1.0,90,6,,10.0,29.878937,,,TRUE,TRUE,,,,,,,CLR,,,,,,,,VFR,,,,,,,,,,,,METAR,1476.0
KAYS 010635Z AUTO 07005KT 10SM CLR 21/20 A2997 RMK AO2 T02100202,KAYS,2023-06-01T06:35:00Z,31.25,-82.4,21.0,20.2,70,5,,10.0,29.970472,,,TRUE,TRUE,,,,,,,CLR,,,,,,,,VFR,,,,,,,,,,,,METAR,42.0
KAXX 010635Z AUTO 00000KT 10SM SCT060 BKN070 OVC090 07/05 A3011 RMK AO2 T00660050,KAXX,2023-06-01T06:35:00Z,36.42,-105.28,6.6,5.0,0,0,,10.0,30.109253,,,TRUE,TRUE,,,,,,,SCT,6000,BKN,7000,OVC,9000,,,VFR,,,,,,,,,,,,METAR,2543.0
KAXV 010635Z AUTO 14004KT 10SM CLR 18/13 A3007 RMK AO2,KAXV,2023-06-01T06:35:00Z,40.5,-84.3,18.0,13.0,140,4,,10.0,30.070866,,,TRUE,TRUE,,,,,,,CLR,,,,,,,,VFR,,,,,,,,,,,,SPECI,278.0
KAXS 010635Z AUTO 13007KT 10SM CLR 23/18 A2988 RMK AO2 T02250179,KAXS,2023-06-01T06:35:00Z,34.7,-99.33,22.5,17.9,130,7,,10.0,29.878937,,,TRUE,TRUE,,,,,,,CLR,,,,,,,,VFR,,,,,,,,,,,,SPECI,433.0
KAXH 010635Z AUTO 00000KT 10SM CLR 21/20 A2989 RMK AO2 T02120204,KAXH,2023-06-01T06:35:00Z,29.52,-95.48,21.2,20.4,0,0,,10.0,29.890747,,,TRUE,TRUE,,,,,,,CLR,,,,,,,,VFR,,,,,,,,,,,,METAR,18.0
KAXA 010635Z AUTO 00000KT 10SM CLR 20/18 A2992 RMK A01,KAXA,2023-06-01T06:35:00Z,43.07,-94.27,20.0,18.0,0,0,,10.0,29.920275,,,TRUE,TRUE,,,,,,,CLR,,,,,,,,VFR,,,,,,,,,,,,METAR,371.0
KAWG 010635Z AUTO 14004KT 10SM CLR 19/19 A2995 RMK AO2,KAWG,2023-06-01T06:35:00Z,41.27,-91.67,19.0,19.0,140,4,,10.0,29.949802,,,TRUE,TRUE,,,,,,,CLR,,,,,,,,VFR,,,,,,,,,,,,METAR,229.0
KAVQ 010635Z AUTO 00000KT 10SM 21/01 A2982 RMK AO2 T02110005,KAVQ,2023-06-01T06:35:00Z,32.4,-111.22,21.1,0.5,0,0,,10.0,29.819881,,,TRUE,TRUE,,,,,,,,,,,,,,,,,,,,,,,,,,,METAR,618.0
KAVC 010635Z AUTO 00000KT 7SM CLR 14/14 A3012 RMK AO2 T01440141,KAVC,2023-06-01T06:35:00Z,36.68,-78.05,14.4,14.1,0,0,,7.0,30.121063,,,TRUE,TRUE,,,,,,,CLR,,,,,,,,VFR,,,,,,,,,,,,SPECI,119.0
KAUN 010635Z AUTO 00000KT 10SM CLR 16/10 A2984 RMK A01,KAUN,2023-06-01T06:35:00Z,38.95,-121.08,16.0,10.0,0,0,,10.0,29.840551,,,TRUE,TRUE,,,,,,,CLR,,,,,,,,VFR,,,,,,,,,,,,METAR,453.0
KAUH 010635Z AUTO 15007KT 10SM CLR 20/15 A2988 RMK AO2 T02020153,KAUH,2023-06-01T06:35:00Z,40.88,-98.0,20.2,15.3,150,7,,10.0,29.878937,,,TRUE,TRUE,,,,,,,CLR,,,,,,,,VFR,,,,,,,,,,,,METAR,549.0
KATW 010635Z AUTO 12004KT 10SM CLR 19/16 A3001 RMK AO2,KATW,2023-06-01T06:35:00Z,44.27,-88.52,19.0,16.0,120,4,,10.0,30.008858,,,TRUE,TRUE,,,,,,,CLR,,,,,,,,VFR,,,,,,,,,,,,METAR,266.0
KATS 010635Z AUTO 15020KT 10SM CLR 21/16 A2981 RMK AO2,KATS,2023-06-01T06:35:00Z,32.85,-104.47,21.0,16.0,150,20,,10.0,29.811024,,,TRUE,TRUE,,,,,,,CLR,,,,,,,,VFR,,,,,,,,,,,,SPECI,1073.0
KATA 010635Z AUTO 00000KT 9SM CLR 18/18 A2989 RMK AO2 SLP022 T01790176 $,KATA,2023-06-01T06:35:00Z,33.1,-94.2,17.9,17.6,0,0,,9.0,29.890747,1002.2,,TRUE,TRUE,TRUE,,,,,,CLR,,,,,,,,VFR,,,,,,,,,,,,SPECI,85.0
KASW 010635Z AUTO 00000KT 10SM CLR 18/15 A3005 RMK AO2 T01910150,KASW,2023-06-01T06:35:00Z,41.27,-85.83,18.0,15.0,0,0,,10.0,30.050198,,,TRUE,TRUE,,,,,,,CLR,,,,,,,,VFR,,,,,,,,,,,,METAR,253.0
KASN 010635Z AUTO 00000KT 10SM CLR 20/17 A3002 RMK AO2 LTG DSNT S T01960172,KASN,2023-06-01T06:35:00Z,33.57,-86.05,19.6,17.2,0,0,,10.0,30.02067,,,TRUE,TRUE,,,,,,,CLR,,,,,,,,VFR,,,,,,,,,,,,SPECI,159.0
KASL 010635Z AUTO 00000KT 7SM CLR 19/19 A2988 RMK AO2 T01860186 $,KASL,2023-06-01T06:35:00Z,32.52,-94.3,18.6,18.6,0,0,,7.0,29.878937,,,TRUE,TRUE,TRUE,,,,,,CLR,,,,,,,,VFR,,,,,,,,,,,,SPECI,104.0
KARW 010635Z AUTO 03003KT 10SM CLR 20/18 A2999 RMK AO2,KARW,2023-06-01T06:35:00Z,32.42,-80.63,20.0,18.0,30,3,,10.0,29.991142,,,TRUE,TRUE,,,,,,,CLR,,,,,,,,VFR,,,,,,,,,,,,SPECI,2.0
KARV 010635Z AUTO 00000KT 10SM CLR 19/15 A3003 RMK AO2 T01880147,KARV,2023-06-01T06:35:00Z,45.92,-89.72,18.8,14.7,0,0,,10.0,30.029528,,,TRUE,TRUE,,,,,,,CLR,,,,,,,,VFR,,,,,,,,,,,,METAR,494.0
KARM 010635Z AUTO 10003KT 10SM CLR 21/21 A2988 RMK AO2 T02100210 TSNO,KARM,2023-06-01T06:35:00Z,29.25,-96.15,21.0,21.0,100,3,,10.0,29.878937,,,TRUE,TRUE,,,TRUE,,,,CLR,,,,,,,,VFR,,,,,,,,,,,,METAR,29.0
KAQX 010635Z AUTO 00000KT 9SM CLR 17/17 A3000 RMK AO2,KAQX,2023-06-01T06:35:00Z,32.98,-81.27,17.0,17.0,0,0,,9.0,30.0,,,TRUE,TRUE,,,,,,,CLR,,,,,,,,VFR,,,,,,,,,,,,SPECI,48.0
KAQO 010635Z AUTO 00000KT 10SM CLR 21/19 A2986 RMK AO2,KAQO,2023-06-01T06:35:00Z,30.78,-98.67,21.0,19.0,0,0,,10.0,29.861221,,,TRUE,TRUE,,,,,,,CLR,,,,,,,,VFR,,,,,,,,,,,,METAR,334.0
KAPY 010635Z AUTO 14006KT 10SM 25/20 A2983 RMK AO2 T02470198 TSNO,KAPY,2023-06-01T06:35:00Z,26.97,-99.25,24.7,19.8,140,6,,10.0,29.828741,,,TRUE,TRUE,,,TRUE,,,,,,,,,,,,,,,,,,,,,,,,METAR,129.0
KANW 010635Z AUTO 18005KT 10SM CLR 16/13 A2987 RMK AO2 T01610130,KANW,2023-06-01T06:35:00Z,42.57,-100.0,16.1,13.0,180,5,,10.0,29.870079,,,TRUE,TRUE,,,,,,,CLR,,,,,,,,VFR,,,,,,,,,,,,METAR,788.0
KANQ 010635Z AUTO 10006KT 10SM FEW070 20/12 A3006 RMK AO2,KANQ,2023-06-01T06:35:00Z,41.63,-85.08,20.0,12.0,100,6,,10.0,30.059055,,,TRUE,TRUE,,,,,,,FEW,7000,,,,,,,VFR,,,,,,,,,,,,SPECI,299.0
KANE 010635Z AUTO 15005KT 10SM CLR 23/15 A2991 RMK AO2,KANE,2023-06-01T06:35:00Z,45.15,-93.22,23.0,15.0,150,5,,10.0,29.911417,,,TRUE,TRUE,,,,,,,CLR,,,,,,,,VFR,,,,,,,,,,,,SPECI,276.0
KAMN 010635Z AUTO 00000KT 10SM CLR 16/10 A3009 RMK AO2 T01580095,KAMN,2023-06-01T06:35:00Z,43.32,-84.68,15.8,9.5,0,0,,10.0,30.088583,,,TRUE,TRUE,,,,,,,CLR,,,,,,,,VFR,,,,,,,,,,,,SPECI,228.0
KALX 010635Z AUTO 00000KT 10SM CLR 20/20 A3000 RMK AO2 T01980196,KALX,2023-06-01T06:35:00Z,32.92,-85.97,19.8,19.6,0,0,,10.0,30.0,,,TRUE,TRUE,,,,,,,CLR,,,,,,,,VFR,,,,,,,,,,,,SPECI,198.0
KALN 010635Z AUTO 00000KT 10SM CLR 21/16 A2998 RMK AO2 T02140160,KALN,2023-06-01T06:35:00Z,38.88,-90.03,21.4,16.0,0,0,,10.0,29.97933,,,TRUE,TRUE,,,,,,,CLR,,,,,,,,VFR,,,,,,,,,,,,METAR,159.0
KALM 010635Z AUTO 17006KT 10SM FEW042 FEW048 BKN120 22/M06 A2982 RMK AO2,KALM,2023-06-01T06:35:00Z,32.83,-105.98,22.0,-6.0,170,6,,10.0,29.819881,,,TRUE,TRUE,,,,,,,FEW,4200,FEW,4800,BKN,12000,,,VFR,,,,,,,,,,,,SPECI,1267.0
KAJZ 010635Z AUTO 03005KT 10SM CLR 18/03 A2987 RMK AO2 T01800029 PWINO,KAJZ,2023-06-01T06:35:00Z,38.78,-108.07,18.0,2.9,30,5,,10.0,29.870079,,,TRUE,TRUE,,,,,TRUE,,CLR,,,,,,,,VFR,,,,,,,,,,,,METAR,1583.0
KAJR 010635Z AUTO 05003KT 7SM CLR 19/18 A3007 RMK AO2 T01850181,KAJR,2023-06-01T06:35:00Z,34.5,-83.55,18.5,18.1,50,3,,7.0,30.070866,,,TRUE,TRUE,,,,,,,CLR,,,,,,,,VFR,,,,,,,,,,,,METAR,441.0
KAJG 010635Z AUTO 10SM CLR 21/18 A3001 RMK AO2 T02050183,KAJG,2023-06-01T06:35:00Z,38.62,-87.73,20.5,18.3,,,,10.0,30.008858,,,TRUE,TRUE,,,,,,,CLR,,,,,,,,VFR,,,,,,,,,,,,METAR,130.0
KAIT 010635Z AUTO 00000KT 10SM SCT120 18/16 A2991 RMK AO2,KAIT,2023-06-01T06:35:00Z,46.53,-93.67,18.0,16.0,0,0,,10.0,29.911417,,,TRUE,TRUE,,,,,,,SCT,12000,,,,,,,VFR,,,,,,,,,,,,SPECI,367.0
KAIO 010635Z AUTO 16004KT 10SM FEW026 21/21 A2991 RMK AO2,KAIO,2023-06-01T06:35:00Z,41.4,-95.03,21.0,21.0,160,4,,10.0,29.911417,,,TRUE,TRUE,,,,,,,FEW,2600,,,,,,,VFR,,,,,,,,,,,,METAR,349.0
KAIK 010635Z AUTO 00000KT 10SM CLR 17/16 A3003 RMK AO2 T01690160,KAIK,2023-06-01T06:35:00Z,33.65,-81.68,16.9,16.0,0,0,,10.0,30.029528,,,TRUE,TRUE,,,,,,,CLR,,,,,,,,VFR,,,,,,,,,,,,SPECI,155.0
KAIG 010635Z AUTO 00000KT 10SM CLR 17/14 A3005 RMK AO2 T01700135,KAIG,2023-06-01T06:35:00Z,45.15,-89.12,17.0,13.5,0,0,,10.0,30.050198,,,TRUE,TRUE,,,,,,,CLR,,,,,,,,VFR,,,,,,,,,,,,METAR,462.0
KAID 010635Z AUTO 00000KT 10SM CLR 18/15 A3006 RMK AO2 T01790150,KAID,2023-06-01T06:35:00Z,40.12,-85.62,17.9,15.0,0,0,,10.0,30.059055,,,TRUE,TRUE,,,,,,,CLR,,,,,,,,VFR,,,,,,,,,,,,SPECI,277.0
KAHQ 010635Z AUTO 11004KT 10SM 19/18 A2989 RMK AO2 T01930178,KAHQ,2023-06-01T06:35:00Z,41.23,-96.6,19.3,17.8,110,4,,10.0,29.890747,,,TRUE,TRUE,,,,,,,,,,,,,,,,,,,,,,,,,,,METAR,372.0
KAGO 010635Z AUTO 00000KT 6SM BR CLR 18/17 A2991 RMK A01,KAGO,2023-06-01T06:35:00Z,33.23,-93.22,18.0,17.0,0,0,,6.0,29.911417,,,TRUE,TRUE,,,,,,BR,CLR,,,,,,,,VFR,,,,,,,,,,,,SPECI,91.0
KAGI 010635Z AUTO 09007KT 10SM CLR 25/19 A2987 RMK AO2 T02500194,KAGI,2023-06-01T06:35:00Z,27.55,-92.45,25.0,19.4,90,7,,10.0,29.870079,,,TRUE,TRUE,,,,,,,CLR,,,,,,,,VFR,,,,,,,,,,,,SPECI,41.0
KAFO 010635Z AUTO 13004KT 10SM CLR 06/03 A2995 RMK AO2,KAFO,2023-06-01T06:35:00Z,42.72,-110.95,6.0,3.0,130,4,,10.0,29.949802,,,TRUE,TRUE,,,,,,,CLR,,,,,,,,VFR,,,,,,,,,,,,METAR,1881.0
KAFK 010635Z AUTO 15006KT 10SM SCT046 SCT050 SCT080 21/17 A2990 RMK AO2 T02060171,KAFK,2023-06-01T06:35:00Z,40.6,-95.85,20.6,17.1,150,6,,10.0,29.899607,,,TRUE,TRUE,,,,,,,SCT,4600,SCT,5000,SCT,8000,,,VFR,,,,,,,,,,,,METAR,353.0
KAEL 010635Z AUTO 14004KT 10SM CLR 21/17 A2994 RMK AO2,KAEL,2023-06-01T06:35:00Z,43.68,-93.37,21.0,17.0,140,4,,10.0,29.940945,,,TRUE,TRUE,,,,,,,CLR,,,,,,,,VFR,,,,,,,,,,,,METAR,382.0
KAEJ 010635Z AUTO 36004KT 10SM SCT100 06/03 A3007 RMK AO2 T00620029,KAEJ,2023-06-01T06:35:00Z,38.82,-106.12,6.2,2.9,360,4,,10.0,30.070866,,,TRUE,TRUE,,,,,,,SCT,10000,,,,,,,VFR,,,,,,,,,,,,SPECI,2420.0
KAEG 010635Z AUTO 02013G18KT 10SM SCT100 SCT120 16/07 A2994 RMK AO2 T01560066,KAEG,2023-06-01T06:35:00Z,35.13,-106.8,15.6,6.6,20,13,18,10.0,29.940945,,,TRUE,TRUE,,,,,,,SCT,10000,SCT,12000,,,,,VFR,,,,,,,,,,,,SPECI,1771.0
KADU 010635Z AUTO 14003KT 10SM SCT048 SCT060 BKN070 18/16 A2992 RMK AO2 PWINO,KADU,2023-06-01T06:35:00Z,41.7,-94.92,18.0,16.0,140,3,,10.0,29.920275,,,TRUE,TRUE,,,,,TRUE,,SCT,4800,SCT,6000,BKN,7000,,,VFR,,,,,,,,,,,,METAR,391.0
KADT 010635Z AUTO 12003KT 10SM CLR 17/13 A2992 RMK AO2 T01660129,KADT,2023-06-01T06:35:00Z,39.83,-101.05,16.6,12.9,120,3,,10.0,29.920275,,,TRUE,TRUE,,,,,,,CLR,,,,,,,,VFR,,,,,,,,,,,,METAR,899.0
KADS 010635Z AUTO 12006KT 10SM CLR 25/18 A2989 RMK AO2 T02500175,KADS,2023-06-01T06:35:00Z,32.97,-96.83,25.0,17.5,120,6,,10.0,29.890747,,,TRUE,TRUE,,,,,,,CLR,,,,,,,,VFR,,,,,,,,,,,,SPECI,198.0
KADM 010635Z AUTO 12004KT 10SM CLR 21/18 A2988 RMK AO2,KADM,2023-06-01T06:35:00Z,34.3,-97.02,21.0,18.0,120,4,,10.0,29.878937,,,TRUE,TRUE,,,,,,,CLR,,,,,,,,VFR,,,,,,,,,,,,METAR,223.0
KADH 010635Z AUTO 15007KT 10SM CLR 22/18 A2992 RMK AO2,KADH,2023-06-01T06:35:00Z,34.8,-96.67,22.0,18.0,150,7,,10.0,29.920275,,,TRUE,TRUE,,,,,,,CLR,,,,,,,,VFR,,,,,,,,,,,,METAR,301.0
KACQ 010635Z AUTO 13006KT 10SM CLR 19/16 A2994 RMK AO2,KACQ,2023-06-01T06:35:00Z,44.07,-93.55,19.0,16.0,130,6,,10.0,29.940945,,,TRUE,TRUE,,,,,,,CLR,,,,,,,,VFR,,,,,,,,,,,,SPECI,339.0
KACP 010635Z AUTO 00000KT 4SM BR CLR 19/17 A2990 RMK AO2,KACP,2023-06-01T06:35:00Z,30.75,-92.68,19.0,17.0,0,0,,4.0,29.899607,,,TRUE,TRUE,,,,,,BR,CLR,,,,,,,,MVFR,,,,,,,,,,,,SPECI,31.0
KACJ 010635Z AUTO 05005KT 10SM OVC100 21/19 A2999 RMK AO2 T02080189,KACJ,2023-06-01T06:35:00Z,32.12,-84.18,20.8,18.9,50,5,,10.0,29.991142,,,TRUE,TRUE,,,,,,,OVC,10000,,,,,,,VFR,,,,,,,,,,,,SPECI,140.0
KACB 010635Z AUTO 00000KT 1SM BR VV007 15/14 A3007 RMK AO2 T01450141,KACB,2023-06-01T06:35:00Z,44.98,-85.2,14.5,14.1,0,0,,1.0,30.070866,,,TRUE,TRUE,,,,,,BR,OVX,0,,,,,,,LIFR,,,,,,,,,,,700,SPECI,189.0
KAAA 010635Z AUTO 16003KT 10SM 22/15 A2999 RMK AO2 T02230151,KAAA,2023-06-01T06:35:00Z,40.17,-89.33,22.3,15.1,160,3,,10.0,29.991142,,,TRUE,TRUE,,,,,,,,,,,,,,,,,,,,,,,,,,,METAR,179.0
KA39 010635Z AUTO 14006KT 10SM SCT055 SCT080 SCT110 19/01 A2980 RMK AO2,KA39,2023-06-01T06:35:00Z,32.98,-111.92,19.0,1.0,140,6,,10.0,29.799213,,,TRUE,TRUE,,,,,,,SCT,5500,SCT,8000,SCT,11000,,,VFR,,,,,,,,,,,,METAR,391.0
K9V9 010635Z AUTO 00000KT 10SM CLR 19/14 A2984 RMK AO2 T01890135,K9V9,2023-06-01T06:35:00Z,43.77,-99.32,18.9,13.5,0,0,,10.0,29.840551,,,TRUE,TRUE,,,,,,,CLR,,,,,,,,VFR,,,,,,,,,,,,METAR,511.0
K9S9 010635Z AUTO 17008KT 10SM CLR 11/02 A3001 RMK AO2 PWINO,K9S9,2023-06-01T06:35:00Z,45.45,-119.68,11.0,2.0,170,8,,10.0,30.008858,,,TRUE,TRUE,,,,,TRUE,,CLR,,,,,,,,VFR,,,,,,,,,,,,METAR,498.0
K9MN 010635Z AUTO 12005KT 10SM CLR 21/14 A2995 RMK AO1 T02110135,K9MN,2023-06-01T06:35:00Z,44.02,-92.48,21.1,13.5,120,5,,10.0,29.949802,,,TRUE,TRUE,,,,,,,CLR,,,,,,,,VFR,,,,,,,,,,,,SPECI,308.0
K9D7 010635Z AUTO 27004KT 10SM OVC110 18/18 A2989 RMK AO2 TSNO,K9D7,2023-06-01T06:35:00Z,48.48,-99.23,18.0,18.0,270,4,,10.0,29.890747,,,TRUE,TRUE,,,TRUE,,,,OVC,11000,,,,,,,VFR,,,,,,,,,,,,SPECI,451.0
K9A5 010635Z AUTO 21003KT 5SM BKN120 18/18 A3006 RMK AO2 T01770177,K9A5,2023-06-01T06:35:00Z,34.68,-85.28,17.7,17.7,210,3,,5.0,30.059055,,,TRUE,TRUE,,,,,,,BKN,12000,,,,,,,MVFR,,,,,,,,,,,,SPECI,234.0
K96D 010635Z AUTO 00000KT 10SM FEW075 FEW100 21/16 A2986 RMK AO2,K96D,2023-06-01T06:35:00Z,48.93,-97.9,21.0,16.0,0,0,,10.0,29.861221,,,TRUE,TRUE,,,,,,,FEW,7500,FEW,10000,,,,,VFR,,,,,,,,,,,,SPECI,290.0
K8W2 010635Z AUTO 00000KT 10SM CLR 09/08 A3013 RMK AO1 T00880083,K8W2,2023-06-01T06:35:00Z,38.65,-78.7,8.8,8.3,0,0,,10.0,30.129921,,,TRUE,TRUE,,,,,,,CLR,,,,,,,,VFR,,,,,,,,,,,,SPECI,295.0
K8T6 010635Z AUTO 12003KT 10SM FEW022 22/22 A2983 RMK AO2,K8T6,2023-06-01T06:35:00Z,28.37,-98.12,22.0,22.0,120,3,,10.0,29.828741,,,TRUE,TRUE,,,,,,,FEW,2200,,,,,,,VFR,,,,,,,,,,,,METAR,39.0
K8B0 010635Z AUTO 00000KT 10SM FEW043 FEW049 13/11 A3015 RMK AO2,K8B0,2023-06-01T06:35:00Z,44.98,-70.65,13.0,11.0,0,0,,10.0,30.15059,,,TRUE,TRUE,,,,,,,FEW,4300,FEW,4900,,,,,VFR,,,,,,,,,,,,SPECI,552.0
K8A0 010635Z AUTO 00000KT 10SM CLR 18/16 A3003 RMK AO2,K8A0,2023-06-01T06:35:00Z,34.23,-86.25,18.0,16.0,0,0,,10.0,30.029528,,,TRUE,TRUE,,,,,,,CLR,,,,,,,,VFR,,,,,,,,,,,,METAR,313.0
K82V 010635Z AUTO 00000KT 10SM 11/11 A2997 RMK AO2,K82V,2023-06-01T06:35:00Z,41.15,-104.13,11.0,11.0,0,0,,10.0,29.970472,,,TRUE,TRUE,,,,,,,,,,,,,,,,,,,,,,,,,,,METAR,1563.0
K82C 010635Z AUTO 14004KT 10SM BKN110 18/15 A2998 RMK AO2 T01800146,K82C,2023-06-01T06:35:00Z,43.83,-90.13,18.0,14.6,140,4,,10.0,29.97933,,,TRUE,TRUE,,,,,,,BKN,11000,,,,,,,VFR,,,,,,,,,,,,SPECI,273.0
K81R 010635Z AUTO 13004KT 10SM CLR 22/19 A2989 RMK AO2 T02170186,K81R,2023-06-01T06:35:00Z,31.23,-98.72,21.7,18.6,130,4,,10.0,29.890747,,,TRUE,TRUE,,,,,,,CLR,,,,,,,,VFR,,,,,,,,,,,,SPECI,381.0
K7W4 010635Z AUTO 7SM CLR 13/13 A3010 RMK AO1 T01260126,K7W4,2023-06-01T06:35:00Z,37.97,-77.75,12.6,12.6,,,,7.0,30.100393,,,TRUE,TRUE,,,,,,,CLR,,,,,,,,VFR,,,,,,,,,,,,SPECI,115.0
K7L2 010635Z AUTO 09007KT 10SM TS CLR 16/16 A2986 RMK AO2 LTG DSNT S,K7L2,2023-06-01T06:35:00Z,46.22,-100.25,16.0,16.0,90,7,,10.0,29.861221,,,TRUE,TRUE,,,,,,TS,CLR,,,,,,,,VFR,,,,,,,,,,,,SPECI,541.0
K7BM 010635Z AUTO 33003KT 10SM CLR 05/02 A3014 RMK AO2,K7BM,2023-06-01T06:35:00Z,38.78,-106.22,5.0,2.0,330,3,,10.0,30.138779,,,TRUE,TRUE,,,,,,,CLR,,,,,,,,VFR,,,,,,,,,,,,METAR,2996.0
K77S 010635Z AUTO 00000KT 10SM SCT050 09/06 A3007 RMK A01,K77S,2023-06-01T06:35:00Z,43.93,-123.0,9.0,6.0,0,0,,10.0,30.070866,,,TRUE,TRUE,,,,,,,SCT,5000,,,,,,,VFR,,,,,,,,,,,,SPECI,161.0
K6S2 010635Z AUTO 00000KT 10SM CLR 10/07 A3011 RMK AO2,K6S2,2023-06-01T06:35:00Z,43.98,-124.12,10.0,7.0,0,0,,10.0,30.109253,,,TRUE,TRUE,,,,,,,CLR,,,,,,,,VFR,,,,,,,,,,,,SPECI,16.0
K6S0 010635Z AUTO 27005KT 10SM OVC110 11/08 A2988 RMK A01,K6S0,2023-06-01T06:35:00Z,45.8,-109.97,11.0,8.0,270,5,,10.0,29.878937,,,TRUE,TRUE,,,,,,,OVC,11000,,,,,,,VFR,,,,,,,,,,,,METAR,1364.0
K6R3 010635Z AUTO 00000KT 5SM BR CLR 21/20 A2990 RMK AO2 T02100202,K6R3,2023-06-01T06:35:00Z,30.35,-95.0,21.0,20.2,0,0,,5.0,29.899607,,,TRUE,TRUE,,,,,,BR,CLR,,,,,,,,MVFR,,,,,,,,,,,,METAR,44.0
K6P9 010635Z AUTO 15006KT 10SM CLR 22/17 A2988 RMK AO2 T02180168,K6P9,2023-06-01T06:35:00Z,32.43,-98.6,21.8,16.8,150,6,,10.0,29.878937,,,TRUE,TRUE,,,,,,,CLR,,,,,,,,VFR,,,,,,,,,,,,METAR,451.0
K6L4 010635Z AUTO 00000KT 10SM CLR 18/16 A3009 RMK AO2,K6L4,2023-06-01T06:35:00Z,37.85,-81.92,18.0,16.0,0,0,,10.0,30.088583,,,TRUE,TRUE,,,,,,,CLR,,,,,,,,VFR,,,,,,,,,,,,SPECI,504.0
K6B9 010635Z AUTO 00000KT 10SM CLR 18/13 A3012 RMK AO2,K6B9,2023-06-01T06:35:00Z,42.92,-76.43,18.0,13.0,0,0,,10.0,30.121063,,,TRUE,TRUE,,,,,,,CLR,,,,,,,,VFR,,,,,,,,,,,,SPECI,306.0
K6B0 010635Z AUTO 00000KT 10SM CLR 16/12 A3011 RMK AO2 T01570117,K6B0,2023-06-01T06:35:00Z,43.98,-73.1,15.7,11.7,0,0,,10.0,30.109253,,,TRUE,TRUE,,,,,,,CLR,,,,,,,,VFR,,,,,,,,,,,,SPECI,149.0
K6A2 010635Z AUTO 00000KT 10SM CLR 17/16 A3004 RMK AO2,K6A2,2023-06-01T06:35:00Z,33.23,-84.27,17.0,16.0,0,0,,10.0,30.041338,,,TRUE,TRUE,,,,,,,CLR,,,,,,,,VFR,,,,,,,,,,,,METAR,290.0
K6A1 010635Z AUTO 08003KT 10SM CLR 19/17 A3002 RMK AO2 T01860166,K6A1,2023-06-01T06:35:00Z,32.57,-84.25,18.6,16.6,80,3,,10.0,30.02067,,,TRUE,TRUE,,,,,,,CLR,,,,,,,,VFR,,,,,,,,,,,,METAR,198.0
K66R 010635Z AUTO 00000KT 10SM CLR 21/21 A2988 RMK AO2 T02120205,K66R,2023-06-01T06:35:00Z,29.65,-96.52,21.2,20.5,0,0,,10.0,29.878937,,,TRUE,TRUE,,,,,,,CLR,,,,,,,,VFR,,,,,,,,,,,,METAR,70.0
K65S 010635Z AUTO 20005KT 10SM CLR 16/03 A2982 RMK AO2,K65S,2023-06-01T06:35:00Z,48.73,-116.3,16.0,3.0,200,5,,10.0,29.819881,,,TRUE,TRUE,,,,,,,CLR,,,,,,,,VFR,,,,,,,,,,,,METAR,708.0
K63S 010635Z AUTO 06004KT 10SM FEW080 SCT090 BKN110 09/04 A2984 RMK A01,K63S,2023-06-01T06:35:00Z,48.53,-117.88,9.0,4.0,60,4,,10.0,29.840551,,,TRUE,TRUE,,,,,,,FEW,8000,SCT,9000,BKN,11000,,,VFR,,,,,,,,,,,,METAR,571.0
K5T9 010635Z AUTO 12012G18KT 10SM CLR 25/21 A2979 RMK A01,K5T9,2023-06-01T06:35:00Z,28.85,-100.52,25.0,21.0,120,12,18,10.0,29.790354,,,TRUE,TRUE,,,,,,,CLR,,,,,,,,VFR,,,,,,,,,,,,METAR,269.0
K5SM 010635Z AUTO 18004KT 10SM BKN110 03/M02 A3018 RMK AO2,K5SM,2023-06-01T06:35:00Z,39.43,-107.38,3.0,-2.0,180,4,,10.0,30.180119,,,TRUE,TRUE,,,,,,,BKN,11000,,,,,,,VFR,,,,,,,,,,,,METAR,3229.0
K5R8 010635Z AUTO 00000KT 4SM BR CLR 20/19 A2990 RMK AO2 T01960191,K5R8,2023-06-01T06:35:00Z,30.43,-93.47,19.6,19.1,0,0,,4.0,29.899607,,,TRUE,TRUE,,,,,,BR,CLR,,,,,,,,MVFR,,,,,,,,,,,,METAR,26.0
K5H4 010635Z AUTO 10005KT 10SM SCT120 17/04 A2988 RMK AO2,K5H4,2023-06-01T06:35:00Z,47.78,-99.93,17.0,4.0,100,5,,10.0,29.878937,,,TRUE,TRUE,,,,,,,SCT,12000,,,,,,,VFR,,,,,,,,,,,,SPECI,490.0
K5C1 010635Z AUTO 16004KT 10SM CLR 21/21 A2989 RMK AO1,K5C1,2023-06-01T06:35:00Z,29.72,-98.7,21.0,21.0,160,4,,10.0,29.890747,,,TRUE,TRUE,,,,,,,CLR,,,,,,,,VFR,,,,,,,,,,,,METAR,422.0
K5A6 010635Z AUTO 00000KT 10SM 20/18 A2995 RMK AO2 T02010183,K5A6,2023-06-01T06:35:00Z,33.47,-89.73,20.1,18.3,0,0,,10.0,29.949802,,,TRUE,TRUE,,,,,,,,,,,,,,,,,,,,,,,,,,,SPECI,109.0
K57C 010635Z AUTO 00000KT 16/16 A3002 RMK AO2 T01560156 PWINO,K57C,2023-06-01T06:35:00Z,42.8,-88.37,15.6,15.6,0,0,,,30.02067,,,TRUE,TRUE,,,,,TRUE,,,,,,,,,,,,,,,,,,,,,,SPECI,454.0
K54J 010635Z AUTO 05006KT 10SM SCT038 BKN044 OVC085 21/18 A2994 RMK AO2 T02070178,K54J,2023-06-01T06:35:00Z,30.73,-86.15,20.7,17.8,50,6,,10.0,29.940945,,,TRUE,TRUE,,,,,,,SCT,3800,BKN,4400,OVC,8500,,,VFR,,,,,,,,,,,,SPECI,87.0
K54A 010635Z AUTO 09004KT 10SM CLR 23/22 A2983 RMK AO2,K54A,2023-06-01T06:35:00Z,26.85,-82.25,23.0,22.0,90,4,,10.0,29.828741,,,TRUE,TRUE,,,,,,,CLR,,,,,,,,VFR,,,,,,,,,,,,SPECI,2.0
K4V1 010635Z AUTO 22011KT 10SM CLR 14/07 A2996 RMK AO2 T01350069,K4V1,2023-06-01T06:35:00Z,37.7,-104.78,13.5,6.9,220,11,,10.0,29.958662,,,TRUE,TRUE,,,,,,,CLR,,,,,,,,VFR,,,,,,,,,,,,METAR,1847.0
K4V0 010635Z AUTO 12004KT 10SM CLR 14/04 A2984 RMK AO2 T01410040,K4V0,2023-06-01T06:35:00Z,40.1,-108.77,14.1,4.0,120,4,,10.0,29.840551,,,TRUE,TRUE,,,,,,,CLR,,,,,,,,VFR,,,,,,,,,,,,SPECI,1602.0
K4S2 010635Z AUTO 21003KT 10SM CLR 12/03 A3001 RMK AO2,K4S2,2023-06-01T06:35:00Z,45.68,-121.55,12.0,3.0,210,3,,10.0,30.008858,,,TRUE,TRUE,,,,,,,CLR,,,,,,,,VFR,,,,,,,,,,,,SPECI,183.0
K4S1 010635Z AUTO 36011G18KT CLR 11/05 A3004 RMK AO2 PWINO,K4S1,2023-06-01T06:35:00Z,42.42,-124.42,11.0,5.0,360,11,18,,30.041338,,,TRUE,TRUE,,,,,TRUE,,CLR,,,,,,,,,,,,,,,,,,,,METAR,7.0
K4R5 010635Z AUTO 00000KT 10SM CLR 10/10 A2996 RMK AO2 T01020098,K4R5,2023-06-01T06:35:00Z,46.78,-90.77,10.2,9.8,0,0,,10.0,29.958662,,,TRUE,TRUE,,,,,,,CLR,,,,,,,,VFR,,,,,,,,,,,,SPECI,195.0
K4O4 010635Z AUTO 08005KT 7SM SCT044 BKN050 BKN070 20/18 A2991 RMK AO2,K4O4,2023-06-01T06:35:00Z,33.92,-94.87,20.0,18.0,80,5,,7.0,29.911417,,,TRUE,TRUE,,,,,,,SCT,4400,BKN,5000,BKN,7000,,,VFR,,,,,,,,,,,,SPECI,148.0
K4M9 010635Z AUTO 11004KT 10SM SCT065 BKN080 23/21 A2997 RMK AO2 PWINO,K4M9,2023-06-01T06:35:00Z,36.4,-90.65,23.0,21.0,110,4,,10.0,29.970472,,,TRUE,TRUE,,,,,TRUE,,SCT,6500,BKN,8000,,,,,VFR,,,,,,,,,,,,SPECI,86.0
K4I3 010635Z AUTO 00000KT 10SM CLR 16/10 A3010 RMK AO2,K4I3,2023-06-01T06:35:00Z,40.33,-82.53,16.0,10.0,0,0,,10.0,30.100393,,,TRUE,TRUE,,,,,,,CLR,,,,,,,,VFR,,,,,,,,,,,,SPECI,361.0
K4F2 010635Z AUTO 00000KT 10SM CLR 19/18 A2990 RMK AO2 T01870181,K4F2,2023-06-01T06:35:00Z,32.18,-94.3,18.7,18.1,0,0,,10.0,29.899607,,,TRUE,TRUE,,,,,,,CLR,,,,,,,,VFR,,,,,,,,,,,,METAR,76.0
K4BM 010635Z AUTO 00000KT 10SM BKN060 OVC090 05/01 A3024 RMK AO2 PWINO,K4BM,2023-06-01T06:35:00Z,39.05,-105.52,5.0,1.0,0,0,,10.0,30.239174,,,TRUE,TRUE,,,,,TRUE,,BKN,6000,OVC,9000,,,,,VFR,,,,,,,,,,,,METAR,3432.0
K4A9 010635Z AUTO 00000KT 10SM CLR 20/17 A3004 RMK AO2 T02020166,K4A9,2023-06-01T06:35:00Z,34.47,-85.72,20.2,16.6,0,0,,10.0,30.041338,,,TRUE,TRUE,,,,,,,CLR,,,,,,,,VFR,,,,,,,,,,,,SPECI,273.0
K4A6 010635Z AUTO 00000KT 10SM FEW028 BKN046 BKN050 20/20 A3004 RMK AO2,K4A6,2023-06-01T06:35:00Z,34.68,-86.0,20.0,20.0,0,0,,10.0,30.041338,,,TRUE,TRUE,,,,,,,FEW,2800,BKN,4600,BKN,5000,,,VFR,,,,,,,,,,,,SPECI,191.0
K49A 010635Z AUTO 10005G10KT 10SM OVC110 19/17 A3007 RMK AO2,K49A,2023-06-01T06:35:00Z,34.63,-84.53,19.0,17.0,100,5,10,10.0,30.070866,,,TRUE,TRUE,,,,,,,OVC,11000,,,,,,,VFR,,,,,,,,,,,,METAR,449.0
K48A 010635Z AUTO 03004KT 10SM CLR 20/18 A3001 RMK AO2 T02000178,K48A,2023-06-01T06:35:00Z,32.4,-83.27,20.0,17.8,30,4,,10.0,30.008858,,,TRUE,TRUE,,,,,,,CLR,,,,,,,,VFR,,,,,,,,,,,,METAR,115.0
K46U 010635Z AUTO 10004KT 10SM CLR 10/06 A2993 RMK A01,K46U,2023-06-01T06:35:00Z,43.18,-111.05,10.0,6.0,100,4,,10.0,29.929134,,,TRUE,TRUE,,,,,,,CLR,,,,,,,,VFR,,,,,,,,,,,,SPECI,1718.0
K46D 010635Z AUTO 32004KT 9SM SCT090 17/17 A2989 RMK AO2,K46D,2023-06-01T06:35:00Z,47.45,-99.15,17.0,17.0,320,4,,9.0,29.890747,,,TRUE,TRUE,,,,,,,SCT,9000,,,,,,,VFR,,,,,,,,,,,,SPECI,488.0
K42J 010635Z AUTO 05006KT 10SM FEW033 FEW070 BKN090 22/22 A2991 RMK A01,K42J,2023-06-01T06:35:00Z,29.85,-82.05,22.0,22.0,50,6,,10.0,29.911417,,,TRUE,TRUE,,,,,,,FEW,3300,FEW,7000,BKN,9000,,,VFR,,,,,,,,,,,,SPECI,57.0
K41U 010635Z AUTO 04003KT 10SM CLR 12/02 A2987 RMK AO1 T01230016,K41U,2023-06-01T06:35:00Z,39.33,-111.6,12.3,1.6,40,3,,10.0,29.870079,,,TRUE,TRUE,,,,,,,CLR,,,,,,,,VFR,,,,,,,,,,,,METAR,1676.0
K40U 010635Z AUTO 00000KT 10SM CLR 08/03 A2990 RMK AO2 T00830032,K40U,2023-06-01T06:35:00Z,40.98,-109.68,8.3,3.2,0,0,,10.0,29.899607,,,TRUE,TRUE,,,,,,,CLR,,,,,,,,VFR,,,,,,,,,,,,SPECI,1882.0
K3T5 010635Z AUTO 14004KT 10SM CLR 22/22 A2986 RMK AO2 T02250224 $,K3T5,2023-06-01T06:35:00Z,29.9,-96.95,22.5,22.4,140,4,,10.0,29.861221,,,TRUE,TRUE,TRUE,,,,,,CLR,,,,,,,,VFR,,,,,,,,,,,,SPECI,96.0
K3S8 010635Z AUTO 33007G12KT 10SM CLR 13/05 A3004 RMK AO2,K3S8,2023-06-01T06:35:00Z,42.5,-123.4,13.0,5.0,330,7,12,10.0,30.041338,,,TRUE,TRUE,,,,,,,CLR,,,,,,,,VFR,,,,,,,,,,,,METAR,339.0
K3R7 010635Z AUTO 00000KT 10SM BKN070 23/23 A2989 RMK AO2 T02300230,K3R7,2023-06-01T06:35:00Z,30.25,-92.67,23.0,23.0,0,0,,10.0,29.890747,,,TRUE,TRUE,,,,,,,BKN,7000,,,,,,,VFR,,,,,,,,,,,,METAR,5.0
K3N8 010635Z AUTO 11007KT 10SM BKN090 OVC120 20/15 A2988 RMK AO2 T02000151,K3N8,2023-06-01T06:35:00Z,47.25,-95.92,20.0,15.1,110,7,,10.0,29.878937,,,TRUE,TRUE,,,,,,,BKN,9000,OVC,12000,,,,,VFR,,,,,,,,,,,,SPECI,379.0
K3LF 010635Z AUTO 14004KT 10SM CLR 21/16 A3001 RMK AO2 T02050155,K3LF,2023-06-01T06:35:00Z,39.17,-89.67,20.5,15.5,140,4,,10.0,30.008858,,,TRUE,TRUE,,,,,,,CLR,,,,,,,,VFR,,,,,,,,,,,,METAR,207.0
K3K3 010635Z AUTO 22005KT 10SM 16/12 A2988 RMK AO2,K3K3,2023-06-01T06:35:00Z,38.0,-101.75,16.0,12.0,220,5,,10.0,29.878937,,,TRUE,TRUE,,,,,,,,,,,,,,,,,,,,,,,,,,,METAR,1010.0
K3F3 010635Z AUTO 07005KT 10SM CLR 21/18 A2995 RMK AO2 T02050180,K3F3,2023-06-01T06:35:00Z,32.07,-93.77,20.5,18.0,70,5,,10.0,29.949802,,,TRUE,TRUE,,,,,,,CLR,,,,,,,,VFR,,,,,,,,,,,,METAR,96.0
K3AU 010635Z AUTO 12004KT 10SM SCT080 20/15 A2990 RMK AO2,K3AU,2023-06-01T06:35:00Z,37.67,-97.08,20.0,15.0,120,4,,10.0,29.899607,,,TRUE,TRUE,,,,,,,SCT,8000,,,,,,,VFR,,,,,,,,,,,,SPECI,403.0
K35A 010635Z AUTO 04003KT 10SM CLR 16/16 A3009 RMK A02 T01640160,K35A,2023-06-01T06:35:00Z,34.68,-81.63,16.4,16.0,40,3,,10.0,30.088583,,,TRUE,TRUE,,,,,,,CLR,,,,,,,,VFR,,,,,,,,,,,,SPECI,186.0
K33V 010635Z AUTO 00000KT 10SM CLR 05/02 A3005 RMK AO1,K33V,2023-06-01T06:35:00Z,40.75,-106.28,5.0,2.0,0,0,,10.0,30.050198,,,TRUE,TRUE,,,,,,,CLR,,,,,,,,VFR,,,,,,,,,,,,METAR,2486.0
K33N 010635Z AUTO 01004KT 10SM FEW029 15/15 A3010 RMK A01,K33N,2023-06-01T06:35:00Z,39.22,-75.6,15.0,15.0,10,4,,10.0,30.100393,,,TRUE,TRUE,,,,,,,FEW,2900,,,,,,,VFR,,,,,,,,,,,,SPECI,17.0
K2V5 010635Z AUTO 04003KT 10SM CLR 15/12 A2989 RMK AO2,K2V5,2023-06-01T06:35:00Z,40.1,-102.25,15.0,12.0,40,3,,10.0,29.890747,,,TRUE,TRUE,,,,,,,CLR,,,,,,,,VFR,,,,,,,,,,,,SPECI,1117.0
K2R9 010635Z AUTO 11005KT 10SM BKN016 22/21 A2986 RMK AO2 T02230210,K2R9,2023-06-01T06:35:00Z,28.82,-97.87,22.3,21.0,110,5,,10.0,29.861221,,,TRUE,TRUE,,,,,,,BKN,1600,,,,,,,MVFR,,,,,,,,,,,,METAR,88.0
K2P2 010635Z AUTO 00000KT 10SM BKN110 17/17 A3004 RMK AO2 T01650165,K2P2,2023-06-01T06:35:00Z,45.38,-86.92,16.5,16.5,0,0,,10.0,30.041338,,,TRUE,TRUE,,,,,,,BKN,11000,,,,,,,VFR,,,,,,,,,,,,SPECI,182.0
K2M2 010635Z AUTO 00000KT 10SM FEW045 SCT055 18/18 A3002 RMK A01,K2M2,2023-06-01T06:35:00Z,35.23,-87.25,18.0,18.0,0,0,,10.0,30.02067,,,TRUE,TRUE,,,,,,,FEW,4500,SCT,5500,,,,,VFR,,,,,,,,,,,,SPECI,286.0
K2J9 010635Z AUTO 07006KT 10SM SCT010 BKN095 BKN120 21/21 A2994 RMK AO2,K2J9,2023-06-01T06:35:00Z,30.6,-84.55,21.0,21.0,70,6,,10.0,29.940945,,,TRUE,TRUE,,,,,,,SCT,1000,BKN,9500,BKN,12000,,,VFR,,,,,,,,,,,,SPECI,62.0
K2J5 010635Z AUTO 33003KT 10SM OVC007 18/17 A3002 RMK AO2 T01780172,K2J5,2023-06-01T06:35:00Z,32.9,-81.97,17.8,17.2,330,3,,10.0,30.02067,,,TRUE,TRUE,,,,,,,OVC,700,,,,,,,IFR,,,,,,,,,,,,METAR,72.0
K2I0 010635Z AUTO 00000KT 10SM CLR 21/19 A3000 RMK AO2 T02050188,K2I0,2023-06-01T06:35:00Z,37.35,-87.4,20.5,18.8,0,0,,10.0,30.0,,,TRUE,TRUE,,,,,,,CLR,,,,,,,,VFR,,,,,,,,,,,,METAR,127.0
K2G9 010635Z AUTO 00000KT 10SM CLR 08/05 A3016 RMK AO2,K2G9,2023-06-01T06:35:00Z,40.03,-79.02,8.0,5.0,0,0,,10.0,30.159449,,,TRUE,TRUE,,,,,,,CLR,,,,,,,,VFR,,,,,,,,,,,,METAR,677.0
K2G2 010635Z AUTO 05004KT 10SM 14/08 A3010 RMK A01,K2G2,2023-06-01T06:35:00Z,40.37,-80.7,14.0,8.0,50,4,,10.0,30.100393,,,TRUE,TRUE,,,,,,,,,,,,,,,,,,,,,,,,,,,SPECI,365.0
K2D5 010635Z AUTO 02004KT 8SM BKN070 BKN090 17/17 A2984 RMK AO2,K2D5,2023-06-01T06:35:00Z,46.17,-98.08,17.0,17.0,20,4,,8.0,29.840551,,,TRUE,TRUE,,,,,,,BKN,7000,BKN,9000,,,,,VFR,,,,,,,,,,,,SPECI,407.0
K2C8 010635Z AUTO 14004KT 10SM FEW044 SCT060 OVC075 22/18 A2985 RMK AO2,K2C8,2023-06-01T06:35:00Z,48.78,-97.63,22.0,18.0,140,4,,10.0,29.84941,,,TRUE,TRUE,,,,,,,FEW,4400,SCT,6000,OVC,7500,,,VFR,,,,,,,,,,,,SPECI,271.0
K2A0 010635Z AUTO 00000KT 6SM BR SCT095 18/18 A3004 RMK A01,K2A0,2023-06-01T06:35:00Z,35.48,-84.93,18.0,18.0,0,0,,6.0,30.041338,,,TRUE,TRUE,,,,,,BR,SCT,9500,,,,,,,VFR,,,,,,,,,,,,SPECI,219.0
K28J 010635Z AUTO 05006G11KT 10SM FEW015 FEW023 21/19 A2991 RMK AO2,K28J,2023-06-01T06:35:00Z,29.65,-81.68,21.0,19.0,50,6,11,10.0,29.911417,,,TRUE,TRUE,,,,,,,FEW,1500,FEW,2300,,,,,VFR,,,,,,,,,,,,SPECI,9.0
K22N 010635Z AUTO 00000KT 10SM CLR 06/05 A3017 RMK AO2,K22N,2023-06-01T06:35:00Z,40.8,-75.77,6.0,5.0,0,0,,10.0,30.171259,,,TRUE,TRUE,,,,,,,CLR,,,,,,,,VFR,,,,,,,,,,,,SPECI,159.0
K21D 010635Z AUTO 00000KT 10SM SCT120 21/15 A2992 RMK AO2,K21D,2023-06-01T06:35:00Z,45.0,-92.85,21.0,15.0,0,0,,10.0,29.920275,,,TRUE,TRUE,,,,,,,SCT,12000,,,,,,,VFR,,,,,,,,,,,,SPECI,281.0
K20V 010635Z AUTO 00000KT 10SM CLR 04/04 A3004 RMK AO2,K20V,2023-06-01T06:35:00Z,40.05,-106.37,4.0,4.0,0,0,,10.0,30.041338,,,TRUE,TRUE,,,,,,,CLR,,,,,,,,VFR,,,,,,,,,,,,METAR,2259.0
K20U 010635Z AUTO 13006KT 10SM CLR 15/15 A2984 RMK AO2,K20U,2023-06-01T06:35:00Z,46.93,-103.98,15.0,15.0,130,6,,10.0,29.840551,,,TRUE,TRUE,,,,,,,CLR,,,,,,,,VFR,,,,,,,,,,,,SPECI,839.0
K1V6 010635Z AUTO 33005KT 10SM CLR 14/09 A2991 RMK AO2,K1V6,2023-06-01T06:35:00Z,38.43,-105.1,14.0,9.0,330,5,,10.0,29.911417,,,TRUE,TRUE,,,,,,,CLR,,,,,,,,VFR,,,,,,,,,,,,METAR,1658.0
K1U7 010635Z AUTO 00000KT 10SM SCT120 09/06 A2991 RMK A01,K1U7,2023-06-01T06:35:00Z,42.25,-111.33,9.0,6.0,0,0,,10.0,29.911417,,,TRUE,TRUE,,,,,,,SCT,12000,,,,,,,VFR,,,,,,,,,,,,METAR,1808.0
K1S5 010635Z AUTO 26010KT 10SM CLR 14/02 A2991 RMK AO2 T01370021,K1S5,2023-06-01T06:35:00Z,46.33,-119.97,13.7,2.1,260,10,,10.0,29.911417,,,TRUE,TRUE,,,,,,,CLR,,,,,,,,VFR,,,,,,,,,,,,SPECI,228.0
K1R8 010635Z AUTO 09004KT 10SM FEW075 21/18 A2991 RMK AO2,K1R8,2023-06-01T06:35:00Z,30.87,-87.82,21.0,18.0,90,4,,10.0,29.911417,,,TRUE,TRUE,,,,,,,FEW,7500,,,,,,,VFR,,,,,,,,,,,,METAR,76.0
K1R7 010635Z AUTO 00000KT 10SM CLR 19/19 A2994 RMK AO2 PWINO,K1R7,2023-06-01T06:35:00Z,31.6,-90.42,19.0,19.0,0,0,,10.0,29.940945,,,TRUE,TRUE,,,,,TRUE,,CLR,,,,,,,,VFR,,,,,,,,,,,,SPECI,142.0
K1P1 010635Z AUTO 00000KT 1/4SM FG VV002 11/11 A3012 RMK AO2 T01120106,K1P1,2023-06-01T06:35:00Z,43.78,-71.75,11.2,10.6,0,0,,0.25,30.121063,,,TRUE,TRUE,,,,,,FG,OVX,0,,,,,,,LIFR,,,,,,,,,,,200,METAR,155.0
K1M5 010635Z AUTO 00000KT 10SM CLR 18/18 A3001 RMK A01,K1M5,2023-06-01T06:35:00Z,36.6,-86.48,18.0,18.0,0,0,,10.0,30.008858,,,TRUE,TRUE,,,,,,,CLR,,,,,,,,VFR,,,,,,,,,,,,SPECI,239.0
K1H2 010635Z AUTO 11003KT 10SM SCT120 21/18 A3002 RMK AO2 T02050175,K1H2,2023-06-01T06:35:00Z,39.07,-88.53,20.5,17.5,110,3,,10.0,30.02067,,,TRUE,TRUE,,,,,,,SCT,12000,,,,,,,VFR,,,,,,,,,,,,METAR,174.0
K1F0 010635Z AUTO 13004KT 10SM CLR 22/19 A2989 RMK AO2 T02190186,K1F0,2023-06-01T06:35:00Z,34.15,-97.12,21.9,18.6,130,4,,10.0,29.890747,,,TRUE,TRUE,,,,,,,CLR,,,,,,,,VFR,,,,,,,,,,,,SPECI,256.0
K1D8 010635Z AUTO 17005KT 10SM CLR 19/15 A2981 RMK AO2,K1D8,2023-06-01T06:35:00Z,,,19.0,15.0,170,5,,10.0,29.811024,,,TRUE,TRUE,,,,,,,CLR,,,,,,,,VFR,,,,,,,,,,,,METAR,
K1A9 010635Z AUTO 00000KT 10SM SCT085 20/19 A2997 RMK AO2 T02020187,K1A9,2023-06-01T06:35:00Z,32.43,-86.52,20.2,18.7,0,0,,10.0,29.970472,,,TRUE,TRUE,,,,,,,SCT,8500,,,,,,,VFR,,,,,,,,,,,,SPECI,65.0
K1A6 010635Z AUTO 00000KT 10SM SCT110 16/16 A3008 RMK AO2 T01580156,K1A6,2023-06-01T06:35:00Z,36.62,-83.73,15.8,15.6,0,0,,10.0,30.079725,,,TRUE,TRUE,,,,,,,SCT,11000,,,,,,,VFR,,,,,,,,,,,,METAR,348.0
K18H 010635Z AUTO 07009KT 10SM FEW027 26/20 A2985 RMK A01,K18H,2023-06-01T06:35:00Z,26.13,-92.03,26.0,20.0,70,9,,10.0,29.84941,,,TRUE,TRUE,,,,,,,FEW,2700,,,,,,,VFR,,,,,,,,,,,,METAR,30.0
K18A 010635Z AUTO 05003KT 10SM CLR 18/17 A3013 RMK AO2 T01770167,K18A,2023-06-01T06:35:00Z,34.35,-83.13,17.7,16.7,50,3,,10.0,30.129921,,,TRUE,TRUE,,,,,,,CLR,,,,,,,,VFR,,,,,,,,,,,,METAR,260.0
K17J 010635Z AUTO 09005KT 10SM BKN110 21/19 A2994 RMK AO2 T02130192,K17J,2023-06-01T06:35:00Z,31.0,-84.87,21.3,19.2,90,5,,10.0,29.940945,,,TRUE,TRUE,,,,,,,BKN,11000,,,,,,,VFR,,,,,,,,,,,,METAR,42.0
K15M 010635Z AUTO 00000KT 10SM CLR 19/18 A3000 RMK AO2 T01910185 $,K15M,2023-06-01T06:35:00Z,34.77,-88.17,19.1,18.5,0,0,,10.0,30.0,,,TRUE,TRUE,TRUE,,,,,,CLR,,,,,,,,VFR,,,,,,,,,,,,SPECI,192.0
K14Y 010635Z AUTO 00000KT 10SM SCT120 17/16 A2992 RMK AO2,K14Y,2023-06-01T06:35:00Z,45.9,-94.87,17.0,16.0,0,0,,10.0,29.920275,,,TRUE,TRUE,,,,,,,SCT,12000,,,,,,,VFR,,,,,,,,,,,,SPECI,404.0
K13K 010635Z AUTO 16006KT 10SM CLR 20/18 A2992 RMK AO2 T02020177,K13K,2023-06-01T06:35:00Z,37.85,-96.3,20.2,17.7,160,6,,10.0,29.920275,,,TRUE,TRUE,,,,,,,CLR,,,,,,,,VFR,,,,,,,,,,,,SPECI,367.0
K11R 010635Z AUTO 12003KT 10SM CLR 23/21 A2988 RMK AO2 T02270209,K11R,2023-06-01T06:35:00Z,30.22,-96.37,22.7,20.9,120,3,,10.0,29.878937,,,TRUE,TRUE,,,,,,,CLR,,,,,,,,VFR,,,,,,,,,,,,METAR,87.0
K10G 010635Z AUTO 09004KT 10SM CLR 15/06 A3011 RMK AO2,K10G,2023-06-01T06:35:00Z,40.53,-81.95,15.0,6.0,90,4,,10.0,30.109253,,,TRUE,TRUE,,,,,,,CLR,,,,,,,,VFR,,,,,,,,,,,,SPECI,371.0
K0VG 010635Z AUTO 00000KT 10SM CLR 16/16 A3009 RMK AO2 LTG DSNT N AND NW,K0VG,2023-06-01T06:35:00Z,36.65,-83.22,16.0,16.0,0,0,,10.0,30.088583,,,TRUE,TRUE,,,,,,,CLR,,,,,,,,VFR,,,,,,,,,,,,SPECI,426.0
K0V4 010635Z AUTO 11004KT 10SM CLR 12/12 A3009 RMK AO1,K0V4,2023-06-01T06:35:00Z,37.15,-79.02,12.0,12.0,110,4,,10.0,30.088583,,,TRUE,TRUE,,,,,,,CLR,,,,,,,,VFR,,,,,,,,,,,,SPECI,186.0
K0S9 010635Z AUTO 29009G16KT 10SM CLR 11/06 A3006 RMK AO2,K0S9,2023-06-01T06:35:00Z,48.05,-122.82,11.0,6.0,290,9,16,10.0,30.059055,,,TRUE,TRUE,,,,,,,CLR,,,,,,,,VFR,,,,,,,,,,,,SPECI,33.0
K0R0 010635Z AUTO 00000KT A2995 RMK AO2 PWINO TSNO,K0R0,2023-06-01T06:35:00Z,31.3,-89.82,,,0,0,,,29.949802,,,TRUE,TRUE,,,TRUE,,TRUE,,,,,,,,,,,,,,,,,,,,,,SPECI,76.0
K0F2 010635Z AUTO 10SM CLR 22/18 A2988 RMK AO2 T02150179,K0F2,2023-06-01T06:35:00Z,33.6,-97.78,21.5,17.9,,,,10.0,29.878937,,,TRUE,TRUE,,,,,,,CLR,,,,,,,,VFR,,,,,,,,,,,,METAR,330.0
K0A9 010635Z AUTO 09006KT 10SM CLR 15/13 A3010 RMK AO2,K0A9,2023-06-01T06:35:00Z,36.37,-82.17,15.0,13.0,90,6,,10.0,30.100393,,,TRUE,TRUE,,,,,,,CLR,,,,,,,,VFR,,,,,,,,,,,,SPECI,479.0
K0A0 010635Z AUTO 00000KT 10SM CLR 18/M07 A2984 RMK AO2,K0A0,2023-06-01T06:35:00Z,32.98,-106.97,18.0,-7.0,0,0,,10.0,29.840551,,,TRUE,TRUE,,,,,,,CLR,,,,,,,,VFR,,,,,,,,,,,,SPECI,1401.0
K08D 010635Z AUTO 08005KT 10SM CLR 16/16 A2987 RMK AO2,K08D,2023-06-01T06:35:00Z,48.3,-102.4,16.0,16.0,80,5,,10.0,29.870079,,,TRUE,TRUE,,,,,,,CLR,,,,,,,,VFR,,,,,,,,,,,,SPECI,683.0
K06D 010635Z AUTO 32005KT 10SM OVC110 17/15 A2989 RMK AO2,K06D,2023-06-01T06:35:00Z,48.88,-99.62,17.0,15.0,320,5,,10.0,29.890747,,,TRUE,TRUE,,,,,,,OVC,11000,,,,,,,VFR,,,,,,,,,,,,SPECI,554.0
K06C 010635Z AUTO 00000KT 10SM CLR 19/18 A3002 RMK AO2 T01920183,K06C,2023-06-01T06:35:00Z,41.98,-88.1,19.2,18.3,0,0,,10.0,30.02067,,,TRUE,TRUE,,,,,,,CLR,,,,,,,,VFR,,,,,,,,,,,,METAR,243.0
K04V 010635Z AUTO 36003KT 10SM 08/05 A3013 RMK AO2,K04V,2023-06-01T06:35:00Z,38.1,-106.17,8.0,5.0,360,3,,10.0,30.129921,,,TRUE,TRUE,,,,,,,,,,,,,,,,,,,,,,,,,,,METAR,2389.0
EGUL 010635Z 02008KT 9999 OVC017 11/11 A3030 RMK AO2A SLP264 $,EGUL,2023-06-01T06:35:00Z,52.42,0.57,11.0,11.0,20,8,,6.21,30.301182,1026.4,,,TRUE,TRUE,,,,,,OVC,1700,,,,,,,MVFR,,,,,,,,,,,,METAR,8.0
PAGS 010634Z AUTO 00000KT 1/2SM FG SCT001 SCT040 BKN050 06/05 A3002 RMK AO2 RVRNO,PAGS,2023-06-01T06:34:00Z,58.42,-135.7,6.0,5.0,0,0,,0.5,30.02067,,,TRUE,TRUE,,,,,,FG,SCT,100,SCT,4000,BKN,5000,,,LIFR,,,,,,,,,,,,SPECI,9.0
KWAL 010634Z AUTO 03010KT 1 3/4SM BR OVC003 18/17 A3006 RMK AO2 T01780167,KWAL,2023-06-01T06:34:00Z,37.93,-75.47,17.8,16.7,30,10,,1.75,30.059055,,,TRUE,TRUE,,,,,,BR,OVC,300,,,,,,,LIFR,,,,,,,,,,,,SPECI,10.0
KGED 010634Z AUTO 04009KT 10SM OVC009 18/16 A3008 RMK AO2 T01830161 PNO $,KGED,2023-06-01T06:34:00Z,38.68,-75.37,18.3,16.1,40,9,,10.0,30.079725,,,TRUE,TRUE,TRUE,,,,,,OVC,900,,,,,,,IFR,,,,,,,,,,,,SPECI,15.0
KCVS 010634Z 01008KT 10SM TS FEW002 SCT024 BKN060 BKN140 OVC170 14/13 A2995 RMK AO2A RAE34 SLP098 $,KCVS,2023-06-01T06:34:00Z,34.37,-103.32,14.0,13.0,10,8,,10.0,29.949802,1009.8,,,TRUE,TRUE,,,,,TS,FEW,200,SCT,2400,BKN,6000,BKN,14000,VFR,,,,,,,,,,,,METAR,1305.0
KCVN 010634Z AUTO 36020G36KT 3SM +TSRA BR FEW012 BKN022 OVC050 13/12 A3001 RMK AO2 PK WND 33037/0622 WSHFT 0618 LTG DSNT SW-N TSB03RAB18 P0050,KCVN,2023-06-01T06:34:00Z,34.42,-103.07,13.0,12.0,360,20,36,3.0,30.008858,,,TRUE,TRUE,,,,,,+TSRA BR,FEW,1200,BKN,2200,OVC,5000,,,MVFR,,,,,,0.5,,,,,,SPECI,1278.0
CZVL 010634Z AUTO 34009KT 9SM -RA FEW076 BKN100 BKN130 13/11 A2983 RMK SLP109 DENSITY ALT 2700FT,CZVL,2023-06-01T06:34:00Z,53.67,-113.85,13.0,11.0,340,9,,9.0,29.828741,1010.9,,TRUE,,,,,,,-RA,FEW,7600,BKN,10000,BKN,13000,,,VFR,,,,,,,,,,,,SPECI,685.0
CYTE 010634Z AUTO 29015KT 9SM CLR M04/M06 A3032 RMK SLP273,CYTE,2023-06-01T06:34:00Z,64.22,-76.52,-4.0,-6.0,290,15,,9.0,30.318897,1027.3,,TRUE,,,,,,,,CLR,,,,,,,,VFR,,,,,,,,,,,,SPECI,49.0
CYRB 010634Z 13010KT 30SM BKN004 OVC015 M05/M06 A3009 RMK ST6SC2 SLP198,CYRB,2023-06-01T06:34:00Z,74.72,-94.97,-5.0,-6.0,130,10,,30.0,30.088583,1019.8,,,,,,,,,,BKN,400,OVC,1500,,,,,LIFR,,,,,,,,,,,,SPECI,59.0
KXVG 010633Z AUTO 00000KT 10SM CLR 17/16 A2992 RMK AO2,KXVG,2023-06-01T06:33:00Z,46.98,-94.2,17.0,16.0,0,0,,10.0,29.920275,,,TRUE,TRUE,,,,,,,CLR,,,,,,,,VFR,,,,,,,,,,,,METAR,407.0
KSPG 010633Z AUTO 08011KT 10SM BKN012 24/23 A2984 RMK AO2 T02390228,KSPG,2023-06-01T06:33:00Z,27.77,-82.63,23.9,22.8,80,11,,10.0,29.840551,,,TRUE,TRUE,,,,,,,BKN,1200,,,,,,,MVFR,,,,,,,,,,,,SPECI,1.0
KOWA 010633Z AUTO 13006KT 10SM CLR 21/17 A2993 RMK AO2,KOWA,2023-06-01T06:33:00Z,44.12,-93.25,21.0,17.0,130,6,,10.0,29.929134,,,TRUE,TRUE,,,,,,,CLR,,,,,,,,VFR,,,,,,,,,,,,SPECI,345.0
KORB 010633Z AUTO 00000KT 10SM CLR 18/16 A2993 RMK AO2,KORB,2023-06-01T06:33:00Z,48.02,-92.87,18.0,16.0,0,0,,10.0,29.929134,,,TRUE,TRUE,,,,,,,CLR,,,,,,,,VFR,,,,,,,,,,,,METAR,407.0
KFOZ 010633Z AUTO 00000KT 10SM SCT110 18/16 A2999 RMK AO2,KFOZ,2023-06-01T06:33:00Z,47.77,-93.65,18.0,16.0,0,0,,10.0,29.991142,,,TRUE,TRUE,,,,,,,SCT,11000,,,,,,,VFR,,,,,,,,,,,,METAR,412.0
KDVP 010633Z AUTO 14003KT 7SM +RA CLR 17/12 A2991 RMK AO2 T01650124,KDVP,2023-06-01T06:33:00Z,43.98,-95.78,16.5,12.4,140,3,,7.0,29.911417,,,TRUE,TRUE,,,,,,+RA,CLR,,,,,,,,VFR,,,,,,,,,,,,METAR,493.0
KCQX 010633Z AUTO VRB03KT 1/2SM FG VV002 16/16 A3013 RMK AO2 T01610156,KCQX,2023-06-01T06:33:00Z,41.68,-70.0,16.1,15.6,0,3,,0.5,30.129921,,,TRUE,TRUE,,,,,,FG,OVX,0,,,,,,,LIFR,,,,,,,,,,,200,SPECI,17.0
KAQP 010633Z AUTO 16006KT 10SM 18/14 A2986 RMK AO2,KAQP,2023-06-01T06:33:00Z,45.22,-96.0,18.0,14.0,160,6,,10.0,29.861221,,,TRUE,TRUE,,,,,,,,,,,,,,,,,,,,,,,,,,,SPECI,312.0
EBBL 010633Z 01006KT 9999 FEW009 BKN012 11/08 Q1023 GRN GRN BECMG BLU,EBBL,2023-06-01T06:33:00Z,51.17,5.47,11.0,8.0,10,6,,6.21,30.206694,,,,,,,,,,,FEW,900,BKN,1200,,,,,MVFR,,,,,,,,,,,,METAR,50.0
PATE 010632Z AUTO 04005KT 1/4SM SN FZFG FEW007 BKN013 OVC018 M01/M02 A2993 RMK AO2 P0000 FZRANO,PATE,2023-06-01T06:32:00Z,65.23,-166.33,-1.0,-2.0,40,5,,0.25,29.929134,,,TRUE,TRUE,,,,TRUE,,SN FZFG,FEW,700,BKN,1300,OVC,1800,,,LIFR,,,,,,0.005,,,,,,METAR,93.0
LIBV 010632Z 01006KT 6000 FEW005 BKN009 17/17 Q1015 RMK BKN VIS MIN 4000SE WIND THR32 01006KT WIND THR14 /////KT GRN,LIBV,2023-06-01T06:32:00Z,40.77,16.93,17.0,17.0,10,6,,3.73,29.970472,,,,,,,,,,,FEW,500,BKN,900,,,,,IFR,,,,,,,,,,,,METAR,344.0
KSAN 010632Z 30003KT 10SM BKN025 BKN048 16/12 A2995 RMK AO2 T01560122,KSAN,2023-06-01T06:32:00Z,32.73,-117.18,15.6,12.2,300,3,,10.0,29.949802,,,,TRUE,,,,,,,BKN,2500,BKN,4800,,,,,MVFR,,,,,,,,,,,,SPECI,3.0
KMVY 010632Z AUTO 31004KT 1/2SM R24/1800V2600FT FG VV007 11/11 A3013 RMK AO2 T01110106,KMVY,2023-06-01T06:32:00Z,41.4,-70.62,11.1,10.6,310,4,,0.5,30.129921,,,TRUE,TRUE,,,,,,FG,OVX,0,,,,,,,LIFR,,,,,,,,,,,700,SPECI,18.0
PALU 010631Z AUTO 31003KT 10SM BKN015 M02/M05 A2996 RMK AO2 SLP146,PALU,2023-06-01T06:31:00Z,68.88,-166.1,-2.0,-5.0,310,3,,10.0,29.958662,1014.6,,TRUE,TRUE,,,,,,,BKN,1500,,,,,,,MVFR,,,,,,,,,,,,SPECI,8.0
KNUI 010631Z AUTO VRB04KT 8SM BKN011 17/15 A3007 RMK AO2 T01720150 $,KNUI,2023-06-01T06:31:00Z,38.15,-76.43,17.2,15.0,0,4,,8.0,30.070866,,,TRUE,TRUE,TRUE,,,,,,BKN,1100,,,,,,,MVFR,,,,,,,,,,,,SPECI,4.0
KNPA 010631Z AUTO 08012KT 10SM BKN021 BKN100 23/19 A2990 RMK AO2 T02330189,KNPA,2023-06-01T06:31:00Z,30.35,-87.32,23.3,18.9,80,12,,10.0,29.899607,,,TRUE,TRUE,,,,,,,BKN,2100,BKN,10000,,,,,MVFR,,,,,,,,,,,,METAR,6.0
FACT 010631Z VRB03KT 6000 SCT004 OVC008 15/15 Q1019 BECMG SCT015 BKN025,FACT,2023-06-01T06:31:00Z,-33.97,18.6,15.0,15.0,0,3,,3.73,30.088583,,,,,,,,,,,SCT,400,OVC,800,,,,,IFR,,,,,,,,,,,,METAR,48.0
EHGR 010631Z AUTO 03009KT 330V060 9999 FEW011 11/08 Q1023 BLU,EHGR,2023-06-01T06:31:00Z,51.55,4.93,11.0,8.0,30,9,,6.21,30.206694,,,TRUE,,,,,,,,FEW,1100,,,,,,,VFR,,,,,,,,,,,,SPECI,12.0
CYKP 010631Z AUTO 05009KT 9SM -RA OVC005 13/12 A3009 RMK SLP193,CYKP,2023-06-01T06:31:00Z,51.67,-85.9,13.0,12.0,50,9,,9.0,30.088583,1019.3,,TRUE,,,,,,,-RA,OVC,500,,,,,,,IFR,,,,,,,,,,,,SPECI,181.0
ZYTX 010630Z 19007MPS 9999 TS FEW050CB 28/16 Q0997 NOSIG,ZYTX,2023-06-01T06:30:00Z,41.63,123.48,28.0,16.0,190,14,,6.21,29.438976,,,,,,TRUE,,,,TS,FEW,5000,,,,,,,VFR,,,,,,,,,,,,METAR,56.0
ZYTL 010630Z 19005MPS 160V240 8000 NSC 27/16 Q1001 NOSIG,ZYTL,2023-06-01T06:30:00Z,38.97,121.55,27.0,16.0,190,10,,4.97,29.557087,,,,,,TRUE,,,,,CLR,,,,,,,,MVFR,,,,,,,,,,,,METAR,33.0
ZWWW 010630Z 25006MPS 220V310 CAVOK 24/05 Q1014 NOSIG,ZWWW,2023-06-01T06:30:00Z,43.9,87.47,24.0,5.0,250,12,,6.21,29.940945,,,,,,TRUE,,,,,CAVOK,,,,,,,,VFR,,,,,,,,,,,,METAR,654.0
ZSSS 010630Z 36003MPS 340V050 9999 BKN030 29/22 Q1003 NOSIG,ZSSS,2023-06-01T06:30:00Z,31.2,121.33,29.0,22.0,360,6,,6.21,29.616142,,,,,,TRUE,,,,,BKN,3000,,,,,,,MVFR,,,,,,,,,,,,METAR,2.0
ZSPD 010630Z 04004MPS 360V090 9999 BKN040 27/22 Q1003 NOSIG,ZSPD,2023-06-01T06:30:00Z,31.15,121.8,27.0,22.0,40,8,,6.21,29.616142,,,,,,TRUE,,,,,BKN,4000,,,,,,,VFR,,,,,,,,,,,,METAR,4.0
ZSHC 010630Z 02002MPS 310V090 8000 BKN030 30/23 Q1003 NOSIG,ZSHC,2023-06-01T06:30:00Z,30.22,120.43,30.0,23.0,20,4,,4.97,29.616142,,,,,,TRUE,,,,,BKN,3000,,,,,,,MVFR,,,,,,,,,,,,METAR,8.0
ZMCK 010630Z 31004MPS 9999 FEW030CB BKN033 15/05 Q1014 NOSIG RMK QFE645.6 54 MOP,ZMCK,2023-06-01T06:30:00Z,47.65,106.82,15.0,5.0,310,8,,6.21,29.940945,,,,,,TRUE,,,,,FEW,3000,BKN,3300,,,,,VFR,,,,,,,,,,,,METAR,1366.0
ZGGG 010630Z VRB03MPS 9999 SCT036 34/27 Q1001 NOSIG,ZGGG,2023-06-01T06:30:00Z,23.4,113.3,34.0,27.0,0,6,,6.21,29.557087,,,,,,TRUE,,,,,SCT,3600,,,,,,,VFR,,,,,,,,,,,,METAR,11.0
ZBYN 010630Z 22005MPS 190V250 CAVOK 25/13 Q1008 NOSIG,ZBYN,2023-06-01T06:30:00Z,37.73,112.63,25.0,13.0,220,10,,6.21,29.763779,,,,,,TRUE,,,,,CAVOK,,,,,,,,VFR,,,,,,,,,,,,METAR,778.0
ZBTJ 010630Z 28006G11MPS 230V320 9999 FEW033 33/07 Q0998 NOSIG,ZBTJ,2023-06-01T06:30:00Z,39.12,117.35,33.0,7.0,280,12,21,6.21,29.468504,,,,,,TRUE,,,,,FEW,3300,,,,,,,VFR,,,,,,,,,,,,METAR,4.0
ZBAD 010630Z 01006MPS 340V040 CAVOK 33/09 Q0999 NOSIG,ZBAD,2023-06-01T06:30:00Z,39.5,116.42,33.0,9.0,10,12,,6.21,29.498032,,,,,,TRUE,,,,,CAVOK,,,,,,,,VFR,,,,,,,,,,,,METAR,25.0
ZBAA 010630Z 25008G15MPS CAVOK 29/04 Q1000 WS R36R NOSIG,ZBAA,2023-06-01T06:30:00Z,40.07,116.6,29.0,4.0,250,16,29,6.21,29.52756,,,,,,TRUE,,,,,CAVOK,,,,,,,,VFR,,,,,,,,,,,,METAR,31.0
YWLM 010630Z 28001KT CAVOK 21/12 Q1017,YWLM,2023-06-01T06:30:00Z,-32.8,151.83,21.0,12.0,280,1,,6.21,30.029528,,,,,,,,,,,CAVOK,,,,,,,,VFR,,,,,,,,,,,,METAR,7.0
YSTW 010630Z AUTO 36003KT 9999 // NCD 20/07 Q1020 RF00.0/000.0,YSTW,2023-06-01T06:30:00Z,-31.08,150.85,20.0,7.0,360,3,,6.21,30.11811,,,TRUE,,,,,,,,CLR,,,,,,,,VFR,,,,,,,,,,,,METAR,404.0
YSSY 010630Z 29007KT CAVOK 21/11 Q1017,YSSY,2023-06-01T06:30:00Z,-33.95,151.17,21.0,11.0,290,7,,6.21,30.029528,,,,,,,,,,,CAVOK,,,,,,,,VFR,,,,,,,,,,,,METAR,3.0
YSRI 010630Z AUTO 11006KT 9999 // NCD 19/15 Q1017 RF00.0/000.0,YSRI,2023-06-01T06:30:00Z,-33.6,150.77,19.0,15.0,110,6,,6.21,30.029528,,,TRUE,,,,,,,,CLR,,,,,,,,VFR,,,,,,,,,,,,METAR,19.0
YSNF 010630Z AUTO 00000KT 9999 // NCD 16/13 Q1022 RF00.0/000.0,YSNF,2023-06-01T06:30:00Z,-29.03,167.93,16.0,13.0,0,0,,6.21,30.177166,,,TRUE,,,,,,,,CLR,,,,,,,,VFR,,,,,,,,,,,,METAR,113.0
YSDU 010630Z AUTO 27006KT 9999 // NCD 22/08 Q1019 RF00.0/000.0,YSDU,2023-06-01T06:30:00Z,-32.22,148.57,22.0,8.0,270,6,,6.21,30.088583,,,TRUE,,,,,,,,CLR,,,,,,,,VFR,,,,,,,,,,,,METAR,285.0
YSCB 010630Z AUTO 31010KT 9999 // OVC062 16/08 Q1018 RF00.0/000.0,YSCB,2023-06-01T06:30:00Z,-35.3,149.18,16.0,8.0,310,10,,6.21,30.059055,,,TRUE,,,,,,,,OVC,6200,,,,,,,VFR,,,,,,,,,,,,METAR,577.0
YPWR 010630Z AUTO 04010KT 9999 // NCD 23/02 Q1017 RF00.0/000.0,YPWR,2023-06-01T06:30:00Z,-31.15,136.82,23.0,2.0,40,10,,6.21,30.029528,,,TRUE,,,,,,,,CLR,,,,,,,,VFR,,,,,,,,,,,,METAR,169.0
YPTN 010630Z AUTO 09007KT 050V140 9999 // NCD 31/11 Q1012 RF00.0/000.0,YPTN,2023-06-01T06:30:00Z,-14.52,132.38,31.0,11.0,90,7,,6.21,29.88189,,,TRUE,,,,,,,,CLR,,,,,,,,VFR,,,,,,,,,,,,METAR,135.0
YPPH 010630Z 21010KT 9999 FEW035 19/09 Q1018,YPPH,2023-06-01T06:30:00Z,-31.93,115.98,19.0,9.0,210,10,,6.21,30.059055,,,,,,,,,,,FEW,3500,,,,,,,VFR,,,,,,,,,,,,METAR,16.0
YPPD 010630Z AUTO 33010KT 9999 // NCD 28/07 Q1013 RF00.0/000.0,YPPD,2023-06-01T06:30:00Z,-20.37,118.62,28.0,7.0,330,10,,6.21,29.911417,,,TRUE,,,,,,,,CLR,,,,,,,,VFR,,,,,,,,,,,,METAR,6.0
YPLM 010630Z AUTO 16011KT 9999 // NCD 28/14 Q1014 RF00.0/000.0,YPLM,2023-06-01T06:30:00Z,-22.23,114.08,28.0,14.0,160,11,,6.21,29.940945,,,TRUE,,,,,,,,CLR,,,,,,,,VFR,,,,,,,,,,,,METAR,5.0
YPKU 010630Z AUTO 17006KT 9999 // NCD 30/03 Q1011 RF00.0/000.0,YPKU,2023-06-01T06:30:00Z,-15.77,128.7,30.0,3.0,170,6,,6.21,29.852362,,,TRUE,,,,,,,,CLR,,,,,,,,VFR,,,,,,,,,,,,METAR,42.0
YPKG 010630Z AUTO 28014KT 9999 // BKN043 19/08 Q1013 RF00.0/000.0,YPKG,2023-06-01T06:30:00Z,-30.78,121.45,19.0,8.0,280,14,,6.21,29.911417,,,TRUE,,,,,,,,BKN,4300,,,,,,,VFR,,,,,,,,,,,,METAR,372.0
YPJT 010630Z AUTO 21009KT 9999 // SCT040 19/09 Q1018 RF00.0/000.0,YPJT,2023-06-01T06:30:00Z,-32.1,115.88,19.0,9.0,210,9,,6.21,30.059055,,,TRUE,,,,,,,,SCT,4000,,,,,,,VFR,,,,,,,,,,,,METAR,29.0
YPGV 010630Z AUTO 11011KT 9999 // NCD 29/19 Q1012 RF00.0/000.0,YPGV,2023-06-01T06:30:00Z,-12.27,136.82,29.0,19.0,110,11,,6.21,29.88189,,,TRUE,,,,,,,,CLR,,,,,,,,VFR,,,,,,,,,,,,METAR,53.0
YPDN 010630Z 34009KT 9999 FEW043 30/20 Q1011,YPDN,2023-06-01T06:30:00Z,-12.42,130.9,30.0,20.0,340,9,,6.21,29.852362,,,,,,,,,,,FEW,4300,,,,,,,VFR,,,,,,,,,,,,METAR,32.0
YPAD 010630Z 24005KT 9999 FEW018 SCT030 BKN170 17/13 Q1019 RF00.0/000.0 VIRGA,YPAD,2023-06-01T06:30:00Z,-34.95,138.52,17.0,13.0,240,5,,6.21,30.088583,,,,,,,,,,,FEW,1800,SCT,3000,BKN,17000,,,VFR,,,,,,,,,,,,METAR,2.0
YMML 010630Z 19006KT 9999 BKN043 12/05 Q1020,YMML,2023-06-01T06:30:00Z,-37.67,144.82,12.0,5.0,190,6,,6.21,30.11811,,,,,,,,,,,BKN,4300,,,,,,,VFR,,,,,,,,,,,,METAR,115.0
YMLT 010630Z AUTO 29009KT 9999 // NCD 11/01 Q1012 RF00.0/000.0,YMLT,2023-06-01T06:30:00Z,-41.53,147.2,11.0,1.0,290,9,,6.21,29.88189,,,TRUE,,,,,,,,CLR,,,,,,,,VFR,,,,,,,,,,,,METAR,167.0
YMHB 010630Z AUTO 22012KT 9999 // NCD 10/03 Q1010 RF00.0/000.0,YMHB,2023-06-01T06:30:00Z,-42.83,147.52,10.0,3.0,220,12,,6.21,29.822834,,,TRUE,,,,,,,,CLR,,,,,,,,VFR,,,,,,,,,,,,METAR,2.0
YMAV 010630Z AUTO 23009KT 9999 // OVC048 13/04 Q1020 RF00.0/000.0,YMAV,2023-06-01T06:30:00Z,-38.03,144.48,13.0,4.0,230,9,,6.21,30.11811,,,TRUE,,,,,,,,OVC,4800,,,,,,,VFR,,,,,,,,,,,,METAR,11.0
YLHI 010630Z AUTO 30007KT 9999 // NCD 20/15 Q1018 RF00.0/000.0,YLHI,2023-06-01T06:30:00Z,-31.53,159.07,20.0,15.0,300,7,,6.21,30.059055,,,TRUE,,,,,,,,CLR,,,,,,,,VFR,,,,,,,,,,,,METAR,2.0
YHID 010630Z AUTO 12017KT 9999 // NCD 28/22 Q1010 RF00.0/000.0,YHID,2023-06-01T06:30:00Z,-10.58,142.3,28.0,22.0,120,17,,6.21,29.822834,,,TRUE,,,,,,,,CLR,,,,,,,,VFR,,,,,,,,,,,,METAR,5.0
YGLA 010630Z AUTO 04007KT 9999 // NCD 23/14 Q1018 RF00.0/000.0,YGLA,2023-06-01T06:30:00Z,-23.87,151.22,23.0,14.0,40,7,,6.21,30.059055,,,TRUE,,,,,,,,CLR,,,,,,,,VFR,,,,,,,,,,,,METAR,17.0
YGEL 010630Z AUTO 18014KT 9999 // SCT029 21/15 Q1018 RF00.0/000.2,YGEL,2023-06-01T06:30:00Z,-28.8,114.7,21.0,15.0,180,14,,6.21,30.059055,,,TRUE,,,,,,,,SCT,2900,,,,,,,VFR,,,,,,,,,,,,METAR,32.0
YFRT 010630Z AUTO 01013KT 9999 // NCD 28/01 Q1010 RF00.0/000.0,YFRT,2023-06-01T06:30:00Z,-30.83,128.12,28.0,1.0,10,13,,6.21,29.822834,,,TRUE,,,,,,,,CLR,,,,,,,,VFR,,,,,,,,,,,,METAR,159.0
YCIN 010630Z AUTO 32007KT 290V360 9999 // NCD 30/07 Q1011 RF00.0/000.0,YCIN,2023-06-01T06:30:00Z,-17.58,123.83,30.0,7.0,320,7,,6.21,29.852362,,,TRUE,,,,,,,,CLR,,,,,,,,VFR,,,,,,,,,,,,METAR,83.0
YCFS 010630Z AUTO 05005KT 9999 // NCD 20/12 Q1018 RF00.0/000.0,YCFS,2023-06-01T06:30:00Z,-30.32,153.12,20.0,12.0,50,5,,6.21,30.059055,,,TRUE,,,,,,,,CLR,,,,,,,,VFR,,,,,,,,,,,,METAR,2.0
YBWW 010630Z AUTO 23004KT 200V260 9999 // NCD 20/07 Q1019 RF00.0/000.0,YBWW,2023-06-01T06:30:00Z,-27.55,151.8,20.0,7.0,230,4,,6.21,30.088583,,,TRUE,,,,,,,,CLR,,,,,,,,VFR,,,,,,,,,,,,METAR,460.0
YBSU 010630Z AUTO 05007KT 9999 // NCD 22/14 Q1018 RF00.0/000.0,YBSU,2023-06-01T06:30:00Z,-26.6,153.08,22.0,14.0,50,7,,6.21,30.059055,,,TRUE,,,,,,,,CLR,,,,,,,,VFR,,,,,,,,,,,,METAR,4.0
YBRM 010630Z AUTO 24007KT 9999 // NCD 28/11 Q1012 RF00.0/000.0,YBRM,2023-06-01T06:30:00Z,-17.93,122.23,28.0,11.0,240,7,,6.21,29.88189,,,TRUE,,,,,,,,CLR,,,,,,,,VFR,,,,,,,,,,,,METAR,11.0
YBRK 010630Z AUTO 08005KT 9999 // NCD 25/12 Q1017 RF00.0/000.0,YBRK,2023-06-01T06:30:00Z,-23.37,150.47,25.0,12.0,80,5,,6.21,30.029528,,,TRUE,,,,,,,,CLR,,,,,,,,VFR,,,,,,,,,,,,METAR,10.0
YBMA 010630Z AUTO 05005KT 9999 // NCD 29/06 Q1015 RF00.0/000.0,YBMA,2023-06-01T06:30:00Z,-20.67,139.48,29.0,6.0,50,5,,6.21,29.970472,,,TRUE,,,,,,,,CLR,,,,,,,,VFR,,,,,,,,,,,,METAR,346.0
YBLN 010630Z AUTO 15009KT 9999 // BKN031 BKN059 17/11 Q1018,YBLN,2023-06-01T06:30:00Z,-33.68,115.4,17.0,11.0,150,9,,6.21,30.059055,,,TRUE,,,,,,,,BKN,3100,BKN,5900,,,,,VFR,,,,,,,,,,,,METAR,17.0
YBHM 010630Z AUTO 14012KT 9999 // NCD 22/19 Q1017 RF00.0/000.0,YBHM,2023-06-01T06:30:00Z,-20.35,148.95,22.0,19.0,140,12,,6.21,30.029528,,,TRUE,,,,,,,,CLR,,,,,,,,VFR,,,,,,,,,,,,METAR,4.0
YBCS 010630Z AUTO 13016KT 9999 // NCD 26/16 Q1015 RF00.0/000.0,YBCS,2023-06-01T06:30:00Z,-16.87,145.75,26.0,16.0,130,16,,6.21,29.970472,,,TRUE,,,,,,,,CLR,,,,,,,,VFR,,,,,,,,,,,,METAR,2.0
YBCG 010630Z AUTO 03005KT 9999 // NCD 22/14 Q1018 RF00.0/000.0,YBCG,2023-06-01T06:30:00Z,-28.17,153.5,22.0,14.0,30,5,,6.21,30.059055,,,TRUE,,,,,,,,CLR,,,,,,,,VFR,,,,,,,,,,,,METAR,5.0
YBBN 010630Z 03006KT CAVOK 21/12 Q1018,YBBN,2023-06-01T06:30:00Z,-27.38,153.13,21.0,12.0,30,6,,6.21,30.059055,,,,,,,,,,,CAVOK,,,,,,,,VFR,,,,,,,,,,,,METAR,3.0
YBAS 010630Z AUTO 35001KT 9999 // NCD 27/M06 Q1015 RF00.0/000.0,YBAS,2023-06-01T06:30:00Z,-23.8,133.9,27.0,-6.0,350,1,,6.21,29.970472,,,TRUE,,,,,,,,CLR,,,,,,,,VFR,,,,,,,,,,,,METAR,549.0
WSSS 010630Z 17008KT 8000 RA FEW015 OVC160 26/24 Q1010 BECMG FM0650 TL0710 NSW,WSSS,2023-06-01T06:30:00Z,1.37,103.97,26.0,24.0,170,8,,4.97,29.822834,,,,,,,,,,RA,FEW,1500,OVC,16000,,,,,MVFR,,,,,,,,,,,,METAR,17.0
WSSL 010630Z 22004KT 180V270 9000 -RA FEW014 OVC160 25/25 Q1009 RERA,WSSL,2023-06-01T06:30:00Z,1.42,103.87,25.0,25.0,220,4,,5.59,29.793306,,,,,,,,,,-RA,FEW,1400,OVC,16000,,,,,VFR,,,,,,,,,,,,METAR,11.0
WMKP 010630Z VRB03KT 9999 SCT020 34/25 Q1008 NOSIG,WMKP,2023-06-01T06:30:00Z,5.28,100.27,34.0,25.0,0,3,,6.21,29.763779,,,,,,TRUE,,,,,SCT,2000,,,,,,,VFR,,,,,,,,,,,,METAR,4.0
WMKK 010630Z 16003KT 090V260 9999 SCT018 31/27 Q1009 NOSIG,WMKK,2023-06-01T06:30:00Z,2.75,101.72,31.0,27.0,160,3,,6.21,29.793306,,,,,,TRUE,,,,,SCT,1800,,,,,,,VFR,,,,,,,,,,,,METAR,21.0
WIII 010630Z 36010KT 9999 SCT020 33/23 Q1008 NOSIG,WIII,2023-06-01T06:30:00Z,-6.13,106.67,33.0,23.0,360,10,,6.21,29.763779,,,,,,TRUE,,,,,SCT,2000,,,,,,,VFR,,,,,,,,,,,,METAR,9.0
WBSB 010630Z 27012KT 9999 SCT015 FEW017CB SCT300 34/27 Q1007 NOSIG,WBSB,2023-06-01T06:30:00Z,4.93,114.92,34.0,27.0,270,12,,6.21,29.734253,,,,,,TRUE,,,,,SCT,1500,FEW,1700,SCT,30000,,,VFR,,,,,,,,,,,,METAR,15.0
WBKK 010630Z VRB04KT 9999 FEW015 34/27 Q1007 NOSIG,WBKK,2023-06-01T06:30:00Z,5.93,116.05,34.0,27.0,0,4,,6.21,29.734253,,,,,,TRUE,,,,,FEW,1500,,,,,,,VFR,,,,,,,,,,,,METAR,9.0
WBGG 010630Z 12004KT 080V170 9999 FEW015CB SCT018 31/26 Q1007 NOSIG,WBGG,2023-06-01T06:30:00Z,1.48,110.35,31.0,26.0,120,4,,6.21,29.734253,,,,,,TRUE,,,,,FEW,1500,SCT,1800,,,,,VFR,,,,,,,,,,,,METAR,26.0
WARR 010630Z 06011KT 9999 FEW020 31/23 Q1008 NOSIG ,WARR,2023-06-01T06:30:00Z,-7.37,112.78,31.0,23.0,60,11,,6.21,29.763779,,,,,,TRUE,,,,,FEW,2000,,,,,,,VFR,,,,,,,,,,,,METAR,3.0
WAMM 010630Z 01007KT 330V040 9999 SCT019 33/25 Q1007 NOSIG,WAMM,2023-06-01T06:30:00Z,1.55,124.92,33.0,25.0,10,7,,6.21,29.734253,,,,,,TRUE,,,,,SCT,1900,,,,,,,VFR,,,,,,,,,,,,METAR,86.0
WAJJ 010630Z 26006KT 9999 SCT013 29/22 Q1007 NOSIG,WAJJ,2023-06-01T06:30:00Z,-2.58,140.52,29.0,22.0,260,6,,6.21,29.734253,,,,,,TRUE,,,,,SCT,1300,,,,,,,VFR,,,,,,,,,,,,METAR,93.0
WADL 010630Z 13011KT 100V160 8000 BKN016 30/23 Q1010 NOSIG,WADL,2023-06-01T06:30:00Z,-8.75,116.28,30.0,23.0,130,11,,4.97,29.822834,,,,,,TRUE,,,,,BKN,1600,,,,,,,MVFR,,,,,,,,,,,,METAR,97.0
VYYY 010630Z 29007KT 7000 BKN016 FEW020CB BKN100 32/25 Q1005 NOSIG,VYYY,2023-06-01T06:30:00Z,16.9,96.13,32.0,25.0,290,7,,4.35,29.675198,,,,,,TRUE,,,,,BKN,1600,FEW,2000,BKN,10000,,,MVFR,,,,,,,,,,,,METAR,31.0
VVVD 010630Z 14008KT 090V170 9999 FEW026 BKN046 33/27 Q1002 NOSIG,VVVD,2023-06-01T06:30:00Z,21.12,107.42,33.0,27.0,140,8,,6.21,29.586615,,,,,,TRUE,,,,,FEW,2600,BKN,4600,,,,,VFR,,,,,,,,,,,,METAR,8.0
VVTS 010630Z 26012KT 9999 SCT015 FEW017TCU 33/27 Q1005 NOSIG,VVTS,2023-06-01T06:30:00Z,10.82,106.67,33.0,27.0,260,12,,6.21,29.675198,,,,,,TRUE,,,,,SCT,1500,FEW,1700,,,,,VFR,,,,,,,,,,,,METAR,10.0
VVPQ 010630Z 26016KT 9999 SCT015 SCT040 33/25 Q1006 NOSIG,VVPQ,2023-06-01T06:30:00Z,10.23,103.97,33.0,25.0,260,16,,6.21,29.704725,,,,,,TRUE,,,,,SCT,1500,SCT,4000,,,,,VFR,,,,,,,,,,,,METAR,8.0
VVPB 010630Z 07008KT 030V120 9999 FEW017 37/25 Q1002 NOSIG,VVPB,2023-06-01T06:30:00Z,16.38,107.7,37.0,25.0,70,8,,6.21,29.586615,,,,,,TRUE,,,,,FEW,1700,,,,,,,VFR,,,,,,,,,,,,METAR,15.0
VVNB 010630Z VRB04KT 9999 FEW034 36/27 Q1000 NOSIG,VVNB,2023-06-01T06:30:00Z,21.22,105.8,36.0,27.0,0,4,,6.21,29.52756,,,,,,TRUE,,,,,FEW,3400,,,,,,,VFR,,,,,,,,,,,,METAR,6.0
VVDN 010630Z 07008KT 9999 FEW015 36/25 Q1002 NOSIG,VVDN,2023-06-01T06:30:00Z,16.03,108.2,36.0,25.0,70,8,,6.21,29.586615,,,,,,TRUE,,,,,FEW,1500,,,,,,,VFR,,,,,,,,,,,,METAR,7.0
VVCT 010630Z 26010KT 230V300 9999 SCT015 FEW017CB 32/26 Q1006 NOSIG,VVCT,2023-06-01T06:30:00Z,10.08,105.72,32.0,26.0,260,10,,6.21,29.704725,,,,,,TRUE,,,,,SCT,1500,FEW,1700,,,,,VFR,,,,,,,,,,,,METAR,6.0
VVCR 010630Z 35005KT 9999 -RA FEW015 SCT050 30/25 Q1004 NOSIG,VVCR,2023-06-01T06:30:00Z,12.0,109.22,30.0,25.0,350,5,,6.21,29.64567,,,,,,TRUE,,,,-RA,FEW,1500,SCT,5000,,,,,VFR,,,,,,,,,,,,METAR,12.0
VVCI 010630Z 13011KT 9999 FEW020 33/27 Q1000 NOSIG,VVCI,2023-06-01T06:30:00Z,20.82,106.73,33.0,27.0,130,11,,6.21,29.52756,,,,,,TRUE,,,,,FEW,2000,,,,,,,VFR,,,,,,,,,,,,METAR,6.0
VTSS 010630Z 25011KT 230V290 9999 SCT020 BKN100 34/25 Q1007 NOSIG,VTSS,2023-06-01T06:30:00Z,6.92,100.38,34.0,25.0,250,11,,6.21,29.734253,,,,,,TRUE,,,,,SCT,2000,BKN,10000,,,,,VFR,,,,,,,,,,,,METAR,28.0
VTSP 010630Z 32016KT 0800 R27///// +RA SCT010 FEW015CB BKN020 25/24 Q1009 BECMG TL0700 8000 NSW,VTSP,2023-06-01T06:30:00Z,8.12,98.32,25.0,24.0,320,16,,0.5,29.793306,,,,,,,,,,+RA,SCT,1000,FEW,1500,BKN,2000,,,LIFR,,,,,,,,,,,,SPECI,12.0
VTCC 010630Z 18006KT 120V270 9999 SCT035 36/23 Q1004 NOSIG,VTCC,2023-06-01T06:30:00Z,18.77,98.97,36.0,23.0,180,6,,6.21,29.64567,,,,,,TRUE,,,,,SCT,3500,,,,,,,VFR,,,,,,,,,,,,METAR,308.0
VTBU 010630Z 23009KT 9000 FEW020 34/24 Q1006 NOSIG,VTBU,2023-06-01T06:30:00Z,12.68,101.0,34.0,24.0,230,9,,5.59,29.704725,,,,,,TRUE,,,,,FEW,2000,,,,,,,VFR,,,,,,,,,,,,METAR,12.0
VTBS 010630Z 22008KT 9999 FEW020 SCT050 34/22 Q1004 NOSIG,VTBS,2023-06-01T06:30:00Z,13.68,100.75,34.0,22.0,220,8,,6.21,29.64567,,,,,,TRUE,,,,,FEW,2000,SCT,5000,,,,,VFR,,,,,,,,,,,,METAR,1.0
VTBD 010630Z 28011KT 240V320 9999 FEW020 36/23 Q1005 NOSIG,VTBD,2023-06-01T06:30:00Z,13.92,100.6,36.0,23.0,280,11,,6.21,29.675198,,,,,,TRUE,,,,,FEW,2000,,,,,,,VFR,,,,,,,,,,,,METAR,6.0
VQPR 010630Z 16015G30KT 120V190 9999 SCT050 29/05 Q1016,VQPR,2023-06-01T06:30:00Z,27.4,89.43,29.0,5.0,160,15,30,6.21,30.0,,,,,,,,,,,SCT,5000,,,,,,,VFR,,,,,,,,,,,,METAR,2227.0
VOVZ 010630Z 25007KT 4500 HZ FEW018 SCT080 35/23 Q1005 NOSIG,VOVZ,2023-06-01T06:30:00Z,17.72,83.22,35.0,23.0,250,7,,2.8,29.675198,,,,,,TRUE,,,,HZ,FEW,1800,SCT,8000,,,,,IFR,,,,,,,,,,,,METAR,4.0
VOTV 010630Z 27005KT 6000 SCT015 FEW025CB SCT080 32/24 Q1010 NOSIG,VOTV,2023-06-01T06:30:00Z,8.48,76.92,32.0,24.0,270,5,,3.73,29.822834,,,,,,TRUE,,,,,SCT,1500,FEW,2500,SCT,8000,,,MVFR,,,,,,,,,,,,METAR,9.0
VOTR 010630Z 26013KT 6000 FEW016 35/25 Q1008 NOSIG,VOTR,2023-06-01T06:30:00Z,10.77,78.72,35.0,25.0,260,13,,3.73,29.763779,,,,,,TRUE,,,,,FEW,1600,,,,,,,MVFR,,,,,,,,,,,,METAR,90.0
VOTP 010630Z VRB03KT 6000 SCT020 37/24 Q1006 NOSIG,VOTP,2023-06-01T06:30:00Z,13.63,79.55,37.0,24.0,0,3,,3.73,29.704725,,,,,,TRUE,,,,,SCT,2000,,,,,,,MVFR,,,,,,,,,,,,METAR,103.0
VOTK 010630Z 26010KT 6000 SCT020 36/22 Q1008 NOSIG,VOTK,2023-06-01T06:30:00Z,8.72,78.02,36.0,22.0,260,10,,3.73,29.763779,,,,,,TRUE,,,,,SCT,2000,,,,,,,MVFR,,,,,,,,,,,,METAR,25.0
VOSR 010630Z 28010KT 5000 FU FEW020 SCT025 OVC080 32/23 Q1010 NOSIG,VOSR,2023-06-01T06:30:00Z,16.0,73.53,32.0,23.0,280,10,,3.11,29.822834,,,,,,TRUE,,,,FU,FEW,2000,SCT,2500,OVC,8000,,,MVFR,,,,,,,,,,,,METAR,62.0
VOSM 010630Z 21004KT 6000 FEW020 33/21 Q1009 NOSIG,VOSM,2023-06-01T06:30:00Z,11.78,78.07,33.0,21.0,210,4,,3.73,29.793306,,,,,,TRUE,,,,,FEW,2000,,,,,,,MVFR,,,,,,,,,,,,METAR,301.0
VORY 010630Z 22010KT 5000 HZ FEW020 37/28 Q1005 NOSIG,VORY,2023-06-01T06:30:00Z,17.1,81.82,37.0,28.0,220,10,,3.11,29.675198,,,,,,TRUE,,,,HZ,FEW,2000,,,,,,,MVFR,,,,,,,,,,,,METAR,47.0
VOPB 010630Z 33011KT 6000 SCT014 33/25 Q1007 TEMPO DZ,VOPB,2023-06-01T06:30:00Z,11.63,92.73,33.0,25.0,330,11,,3.73,29.734253,,,,,,,,,,,SCT,1400,,,,,,,MVFR,,,,,,,,,,,,METAR,1.0
VOND 010630Z 01002KT 9999 NSC 39/13 Q1009 NOSIG,VOND,2023-06-01T06:30:00Z,19.18,77.32,39.0,13.0,10,2,,6.21,29.793306,,,,,,TRUE,,,,,CLR,,,,,,,,VFR,,,,,,,,,,,,METAR,86.0
VOMY 010630Z 27006KT 9999 SCT012 SCT020 29/22 Q1014,VOMY,2023-06-01T06:30:00Z,12.23,76.65,29.0,22.0,270,6,,6.21,29.940945,,,,,,,,,,,SCT,1200,SCT,2000,,,,,VFR,,,,,,,,,,,,METAR,727.0
VOMM 010630Z 24011KT 5000 HZ FEW020 37/27 Q1006 NOSIG,VOMM,2023-06-01T06:30:00Z,13.0,80.17,37.0,27.0,240,11,,3.11,29.704725,,,,,,TRUE,,,,HZ,FEW,2000,,,,,,,MVFR,,,,,,,,,,,,METAR,7.0
VOML 010630Z 23008KT 8000 FEW008 SCT012 FEW025CB BKN080 32/24 Q1010 NOSIG,VOML,2023-06-01T06:30:00Z,12.97,74.88,32.0,24.0,230,8,,4.97,29.822834,,,,,,TRUE,,,,,FEW,800,SCT,1200,FEW,2500,BKN,8000,MVFR,,,,,,,,,,,,METAR,100.0
VOMD 010630Z 23004KT 6000 FEW020 36/23 Q1009 NOSIG,VOMD,2023-06-01T06:30:00Z,9.83,78.08,36.0,23.0,230,4,,3.73,29.793306,,,,,,TRUE,,,,,FEW,2000,,,,,,,MVFR,,,,,,,,,,,,METAR,135.0
VOKU 010630Z 28010KT 5000 HZ FEW020 37/19 Q1008 NOSIG,VOKU,2023-06-01T06:30:00Z,15.72,78.17,37.0,19.0,280,10,,3.11,29.763779,,,,,,TRUE,,,,HZ,FEW,2000,,,,,,,MVFR,,,,,,,,,,,,METAR,280.0
VOKN 010630Z 17003KT 5000 BR FEW012 SCT080 30/26 Q1011 NOSIG,VOKN,2023-06-01T06:30:00Z,11.92,75.55,30.0,26.0,170,3,,3.11,29.852362,,,,,,TRUE,,,,BR,FEW,1200,SCT,8000,,,,,MVFR,,,,,,,,,,,,METAR,105.0
VOHY 010630Z 33006KT 6000 FEW020 37/17 Q1011 NOSIG,VOHY,2023-06-01T06:30:00Z,17.45,78.47,37.0,17.0,330,6,,3.73,29.852362,,,,,,TRUE,,,,,FEW,2000,,,,,,,MVFR,,,,,,,,,,,,METAR,540.0
VOHB 010630Z 27003KT 6000 SCT012 BKN080 25/23 Q1013,VOHB,2023-06-01T06:30:00Z,15.37,75.08,25.0,23.0,270,3,,3.73,29.911417,,,,,,,,,,,SCT,1200,BKN,8000,,,,,MVFR,,,,,,,,,,,,METAR,661.0
VOGO 010630Z VRB02KT 6000 SCT020 BKN080 27/24 Q1010 NOSIG,VOGO,2023-06-01T06:30:00Z,15.38,73.83,27.0,24.0,0,2,,3.73,29.822834,,,,,,TRUE,,,,,SCT,2000,BKN,8000,,,,,MVFR,,,,,,,,,,,,METAR,56.0
VOGB 010630Z 01003KT 8000 BKN020 39/20 Q1010,VOGB,2023-06-01T06:30:00Z,17.35,76.85,39.0,20.0,10,3,,4.97,29.822834,,,,,,,,,,,BKN,2000,,,,,,,MVFR,,,,,,,,,,,,METAR,458.0
VOGA 010630Z 34004KT 4500 HZ SCT015 FEW025CB BKN090 30/23 Q1011 NOSIG,VOGA,2023-06-01T06:30:00Z,,,30.0,23.0,340,4,,2.8,29.852362,,,,,,TRUE,,,,HZ,SCT,1500,FEW,2500,BKN,9000,,,IFR,,,,,,,,,,,,METAR,
VOCP 010630Z 25014KT 6000 FEW020 37/20 Q1007 NOSIG,VOCP,2023-06-01T06:30:00Z,14.5,78.77,37.0,20.0,250,14,,3.73,29.734253,,,,,,TRUE,,,,,FEW,2000,,,,,,,MVFR,,,,,,,,,,,,METAR,134.0
VOCL 010630Z 30003KT 5000 BR FEW012 SCT018 BKN080 29/23 Q1010 NOSIG,VOCL,2023-06-01T06:30:00Z,11.13,75.95,29.0,23.0,300,3,,3.11,29.822834,,,,,,TRUE,,,,BR,FEW,1200,SCT,1800,BKN,8000,,,MVFR,,,,,,,,,,,,METAR,104.0
VOBZ 010630Z 00000KT 6000 FEW020 37/27 Q1005 NOSIG,VOBZ,2023-06-01T06:30:00Z,16.52,80.78,37.0,27.0,0,0,,3.73,29.675198,,,,,,TRUE,,,,,FEW,2000,,,,,,,MVFR,,,,,,,,,,,,METAR,26.0
VOBM 010630Z 29009KT 5000 BR SCT012 FEW025CB BKN080 26/21 Q1015,VOBM,2023-06-01T06:30:00Z,15.85,74.62,26.0,21.0,290,9,,3.11,29.970472,,,,,,,,,,BR,SCT,1200,FEW,2500,BKN,8000,,,MVFR,,,,,,,,,,,,METAR,758.0
VOBL 010630Z 29010KT 9999 SCT012 29/21 Q1015 NOSIG,VOBL,2023-06-01T06:30:00Z,13.2,77.7,29.0,21.0,290,10,,6.21,29.970472,,,,,,TRUE,,,,,SCT,1200,,,,,,,VFR,,,,,,,,,,,,METAR,908.0
VOBG 010630Z 25008KT 8000 SCT012 30/22 Q1015 NOSIG,VOBG,2023-06-01T06:30:00Z,12.95,77.65,30.0,22.0,250,8,,4.97,29.970472,,,,,,TRUE,,,,,SCT,1200,,,,,,,MVFR,,,,,,,,,,,,METAR,884.0
VNKT 010630Z 29007KT 9999 FEW020 30/12 Q1013 NOSIG,VNKT,2023-06-01T06:30:00Z,27.68,85.37,30.0,12.0,290,7,,6.21,29.911417,,,,,,TRUE,,,,,FEW,2000,,,,,,,VFR,,,,,,,,,,,,METAR,1334.0
VMMC 010630Z VRB02KT 9999 FEW025 28/25 Q1002 NOSIG,VMMC,2023-06-01T06:30:00Z,22.15,113.58,28.0,25.0,0,2,,6.21,29.586615,,,,,,TRUE,,,,,FEW,2500,,,,,,,VFR,,,,,,,,,,,,METAR,1.0
VLVT 010630Z 22006KT 8000 SCT020 37/27 Q1002 NOSIG,VLVT,2023-06-01T06:30:00Z,17.98,102.57,37.0,27.0,220,6,,4.97,29.586615,,,,,,TRUE,,,,,SCT,2000,,,,,,,MVFR,,,,,,,,,,,,METAR,171.0
VISM 010630Z 27006KT 5000 FEW030 SCT040 OVC060 20/15 Q1017,VISM,2023-06-01T06:30:00Z,31.08,77.07,20.0,15.0,270,6,,3.11,30.029528,,,,,,,,,,,FEW,3000,SCT,4000,OVC,6000,,,MVFR,,,,,,,,,,,,METAR,1537.0
VIPT 010630Z 26009KT 5000 HZ FEW030 31/20 Q1007,VIPT,2023-06-01T06:30:00Z,29.03,79.47,31.0,20.0,260,9,,3.11,29.734253,,,,,,,,,,HZ,FEW,3000,,,,,,,MVFR,,,,,,,,,,,,METAR,236.0
VILK 010630Z 30010KT 5000 HZ NSC 35/18 Q1006 NOSIG,VILK,2023-06-01T06:30:00Z,26.75,80.88,35.0,18.0,300,10,,3.11,29.704725,,,,,,TRUE,,,,HZ,CLR,,,,,,,,MVFR,,,,,,,,,,,,METAR,121.0
VIJP 010630Z 09006KT 5000 HZ FEW100 29/21 Q1010 NOSIG,VIJP,2023-06-01T06:30:00Z,26.82,75.8,29.0,21.0,90,6,,3.11,29.822834,,,,,,TRUE,,,,HZ,FEW,10000,,,,,,,MVFR,,,,,,,,,,,,METAR,383.0
VIGG 010630Z 03002KT 5000 -TSRA SCT035 FEW040CB OVC080 24/17 Q1013,VIGG,2023-06-01T06:30:00Z,32.17,76.25,24.0,17.0,30,2,,3.11,29.911417,,,,,,,,,,-TSRA,SCT,3500,FEW,4000,OVC,8000,,,MVFR,,,,,,,,,,,,METAR,760.0
VIDP 010630Z 33004KT 3200 HZ SCT030 SCT100 26/21 Q1009 NOSIG,VIDP,2023-06-01T06:30:00Z,28.57,77.12,26.0,21.0,330,4,,1.99,29.793306,,,,,,TRUE,,,,HZ,SCT,3000,SCT,10000,,,,,IFR,,,,,,,,,,,,METAR,236.0
VIDN 010630Z 21003KT 6000 FEW030 BKN080 30/13 Q1010,VIDN,2023-06-01T06:30:00Z,30.2,78.18,30.0,13.0,210,3,,3.73,29.822834,,,,,,,,,,,FEW,3000,BKN,8000,,,,,MVFR,,,,,,,,,,,,METAR,550.0
VIAR 010630Z VRB03KT 6000 FEW030 SCT090 27/24 Q1009 NOSIG,VIAR,2023-06-01T06:30:00Z,31.7,74.8,27.0,24.0,0,3,,3.73,29.793306,,,,,,TRUE,,,,,FEW,3000,SCT,9000,,,,,MVFR,,,,,,,,,,,,METAR,226.0
VHHH 010630Z 27004KT 240V310 9999 FEW025 31/23 Q1002 NOSIG,VHHH,2023-06-01T06:30:00Z,22.32,113.92,31.0,23.0,270,4,,6.21,29.586615,,,,,,TRUE,,,,,FEW,2500,,,,,,,VFR,,,,,,,,,,,,METAR,9.0
VGHS 010630Z 21008KT 4000 HZ FEW015 SCT100 35/23 Q1004 NOSIG,VGHS,2023-06-01T06:30:00Z,23.85,90.4,35.0,23.0,210,8,,2.49,29.64567,,,,,,TRUE,,,,HZ,FEW,1500,SCT,10000,,,,,IFR,,,,,,,,,,,,METAR,11.0
VERP 010630Z 18002KT 6000 NSC 40/10 Q1007 NOSIG,VERP,2023-06-01T06:30:00Z,21.18,81.73,40.0,10.0,180,2,,3.73,29.734253,,,,,,TRUE,,,,,CLR,,,,,,,,MVFR,,,,,,,,,,,,METAR,318.0
VERC 010630Z 33005KT 5000 HZ FEW020 36/15 Q1010 NOSIG,VERC,2023-06-01T06:30:00Z,23.32,85.32,36.0,15.0,330,5,,3.11,29.822834,,,,,,TRUE,,,,HZ,FEW,2000,,,,,,,MVFR,,,,,,,,,,,,METAR,646.0
VEPY 010630Z 17004KT 5000 HZ FEW015 27/22 Q1014 NOSIG,VEPY,2023-06-01T06:30:00Z,27.22,88.58,27.0,22.0,170,4,,3.11,29.940945,,,,,,TRUE,,,,HZ,FEW,1500,,,,,,,MVFR,,,,,,,,,,,,METAR,1399.0
VEPT 010630Z 28008G18KT 6000 NSC 39/18 Q1004 NOSIG,VEPT,2023-06-01T06:30:00Z,25.6,85.08,39.0,18.0,280,8,18,3.73,29.64567,,,,,,TRUE,,,,,CLR,,,,,,,,MVFR,,,,,,,,,,,,METAR,53.0
VEMR 010630Z 21004KT 5000 HZ FEW020 SCT100 37/21 Q1004 NOSIG,VEMR,2023-06-01T06:30:00Z,25.88,93.77,37.0,21.0,210,4,,3.11,29.64567,,,,,,TRUE,,,,HZ,FEW,2000,SCT,10000,,,,,MVFR,,,,,,,,,,,,METAR,147.0
VEMN 010630Z 01005KT 5000 HZ SCT025 SCT100 35/25 Q1003 NOSIG,VEMN,2023-06-01T06:30:00Z,27.47,95.02,35.0,25.0,10,5,,3.11,29.616142,,,,,,TRUE,,,,HZ,SCT,2500,SCT,10000,,,,,MVFR,,,,,,,,,,,,METAR,111.0
VELP 010630Z 34004KT 4000 HZ SCT020 BKN100 33/25 Q1007 NOSIG,VELP,2023-06-01T06:30:00Z,23.83,92.62,33.0,25.0,340,4,,2.49,29.734253,,,,,,TRUE,,,,HZ,SCT,2000,BKN,10000,,,,,IFR,,,,,,,,,,,,METAR,429.0
VEJH 010630Z 05003KT 5000 HZ SCT020 SCT100 39/19 Q1006,VEJH,2023-06-01T06:30:00Z,21.92,84.03,39.0,19.0,50,3,,3.11,29.704725,,,,,,,,,,HZ,SCT,2000,SCT,10000,,,,,MVFR,,,,,,,,,,,,METAR,231.0
VEIM 010630Z 28010KT 6000 SCT018 34/20 Q1008 NOSIG,VEIM,2023-06-01T06:30:00Z,24.77,93.9,34.0,20.0,280,10,,3.73,29.763779,,,,,,TRUE,,,,,SCT,1800,,,,,,,MVFR,,,,,,,,,,,,METAR,777.0
VEGT 010630Z 27007KT 5000 HZ FEW018 FEW025CB SCT100 35/28 Q1003 TEMPO 3000 -TSRA,VEGT,2023-06-01T06:30:00Z,26.1,91.58,35.0,28.0,270,7,,3.11,29.616142,,,,,,,,,,HZ,FEW,1800,FEW,2500,SCT,10000,,,MVFR,,,,,,,,,,,,METAR,50.0
VEDO 010630Z 31012KT 6000 NSC 38/14 Q1006 NOSIG,VEDO,2023-06-01T06:30:00Z,24.45,86.7,38.0,14.0,310,12,,3.73,29.704725,,,,,,TRUE,,,,,CLR,,,,,,,,MVFR,,,,,,,,,,,,METAR,244.0
VEDG 010630Z 34008KT 5000 HZ SCT100 38/15 Q1005 NOSIG,VEDG,2023-06-01T06:30:00Z,23.62,87.25,38.0,15.0,340,8,,3.11,29.675198,,,,,,TRUE,,,,HZ,SCT,10000,,,,,,,MVFR,,,,,,,,,,,,METAR,88.0
VECC 010630Z 00000KT 3800 HZ FEW100 37/23 Q1004 NOSIG,VECC,2023-06-01T06:30:00Z,22.65,88.43,37.0,23.0,0,0,,2.36,29.64567,,,,,,TRUE,,,,HZ,FEW,10000,,,,,,,IFR,,,,,,,,,,,,METAR,11.0
VEBS 010630Z 34004KT 5000 HZ SCT018 BKN100 35/25 Q1006 NOSIG,VEBS,2023-06-01T06:30:00Z,20.25,85.82,35.0,25.0,340,4,,3.11,29.704725,,,,,,TRUE,,,,HZ,SCT,1800,BKN,10000,,,,,MVFR,,,,,,,,,,,,METAR,42.0
VEBN 010630Z 30010KT 5000 HZ NSC 37/19 Q1006 NOSIG,VEBN,2023-06-01T06:30:00Z,25.45,82.85,37.0,19.0,300,10,,3.11,29.704725,,,,,,TRUE,,,,HZ,CLR,,,,,,,,MVFR,,,,,,,,,,,,METAR,81.0
VEAT 010630Z 24006KT 5000 HZ FEW018 SCT025 36/26 Q1005 NOSIG,VEAT,2023-06-01T06:30:00Z,23.88,91.25,36.0,26.0,240,6,,3.11,29.675198,,,,,,TRUE,,,,HZ,FEW,1800,SCT,2500,,,,,MVFR,,,,,,,,,,,,METAR,20.0
VDSV 010630Z 27013KT 240V300 9999 TS SCT015 FEW017CB 31/26 Q1006 RMK CB:NW,VDSV,2023-06-01T06:30:00Z,10.58,103.63,31.0,26.0,270,13,,6.21,29.704725,,,,,,,,,,TS,SCT,1500,FEW,1700,,,,,VFR,,,,,,,,,,,,METAR,1.0
VDSR 010630Z 24011KT 9999 SCT015 FEW017CB SCT040 34/24 Q1003 RMK CB:S/SE,VDSR,2023-06-01T06:30:00Z,13.42,103.8,34.0,24.0,240,11,,6.21,29.616142,,,,,,,,,,,SCT,1500,FEW,1700,SCT,4000,,,VFR,,,,,,,,,,,,SPECI,16.0
VDPP 010630Z 25010KT 210V310 9999 SCT017 37/23 Q1003,VDPP,2023-06-01T06:30:00Z,11.55,104.83,37.0,23.0,250,10,,6.21,29.616142,,,,,,,,,,,SCT,1700,,,,,,,VFR,,,,,,,,,,,,METAR,10.0
VAUD 010630Z 24009KT 6000 NSC 35/12 Q1009 NOSIG,VAUD,2023-06-01T06:30:00Z,24.62,73.9,35.0,12.0,240,9,,3.73,29.793306,,,,,,TRUE,,,,,CLR,,,,,,,,MVFR,,,,,,,,,,,,METAR,506.0
VASU 010630Z 27003KT 6000 NSC 36/20 Q1008 NOSIG,VASU,2023-06-01T06:30:00Z,21.12,72.73,36.0,20.0,270,3,,3.73,29.763779,,,,,,TRUE,,,,,CLR,,,,,,,,MVFR,,,,,,,,,,,,METAR,6.0
VASD 010630Z 36006KT 6000 NSC 36/09 Q1012 NOSIG,VASD,2023-06-01T06:30:00Z,19.68,74.38,36.0,9.0,360,6,,3.73,29.88189,,,,,,TRUE,,,,,CLR,,,,,,,,MVFR,,,,,,,,,,,,METAR,587.0
VANP 010630Z 30002KT 5000 HZ FEW020 40/15 Q1008 NOSIG,VANP,2023-06-01T06:30:00Z,21.08,79.05,40.0,15.0,300,2,,3.11,29.763779,,,,,,TRUE,,,,HZ,FEW,2000,,,,,,,MVFR,,,,,,,,,,,,METAR,309.0
VAKP 010630Z 35003KT 7000 FEW020 SCT100 32/19 Q1013,VAKP,2023-06-01T06:30:00Z,16.65,74.28,32.0,19.0,350,3,,4.35,29.911417,,,,,,,,,,,FEW,2000,SCT,10000,,,,,MVFR,,,,,,,,,,,,METAR,612.0
VAJJ 010630Z 26007KT 5000 HZ FEW020 33/26 Q1009 NOSIG,VAJJ,2023-06-01T06:30:00Z,19.08,72.83,33.0,26.0,260,7,,3.11,29.793306,,,,,,TRUE,,,,HZ,FEW,2000,,,,,,,MVFR,,,,,,,,,,,,METAR,1.0
VAID 010630Z 28010KT 6000 SCT025 36/17 Q1011 NOSIG,VAID,2023-06-01T06:30:00Z,22.72,75.8,36.0,17.0,280,10,,3.73,29.852362,,,,,,TRUE,,,,,SCT,2500,,,,,,,MVFR,,,,,,,,,,,,METAR,564.0
VABV 010630Z 26007KT 6000 NSC 37/20 Q1008 NOSIG,VABV,2023-06-01T06:30:00Z,21.75,72.2,37.0,20.0,260,7,,3.73,29.763779,,,,,,TRUE,,,,,CLR,,,,,,,,MVFR,,,,,,,,,,,,METAR,8.0
VABO 010630Z 24005KT 6000 NSC 37/19 Q1008 NOSIG,VABO,2023-06-01T06:30:00Z,22.33,73.22,37.0,19.0,240,5,,3.73,29.763779,,,,,,TRUE,,,,,CLR,,,,,,,,MVFR,,,,,,,,,,,,METAR,36.0
VAAH 010630Z 23007KT 5000 FU NSC 36/17 Q1007 NOSIG,VAAH,2023-06-01T06:30:00Z,23.07,72.63,36.0,17.0,230,7,,3.11,29.734253,,,,,,TRUE,,,,FU,CLR,,,,,,,,MVFR,,,,,,,,,,,,METAR,52.0
UWWW 010630Z 32003MPS 280V010 9999 SCT033 22/11 Q1011 R33/CLRD60 NOSIG RMK QFE748/0997,UWWW,2023-06-01T06:30:00Z,53.5,50.17,22.0,11.0,320,6,,6.21,29.852362,,,,,,TRUE,,,,,SCT,3300,,,,,,,VFR,,,,,,,,,,,,METAR,124.0
UWUU 010630Z 20003MPS 160V260 9999 BKN040CB 25/13 Q1009 R14R/0///60 NOSIG,UWUU,2023-06-01T06:30:00Z,54.57,55.87,25.0,13.0,200,6,,6.21,29.793306,,,,,,TRUE,,,,,BKN,4000,,,,,,,VFR,,,,,,,,,,,,METAR,137.0
UWSG 010630Z 32005MPS 300V360 CAVOK 20/09 Q1013 R26/CLRD70 NOSIG RMK QFE757/1009,UWSG,2023-06-01T06:30:00Z,51.72,46.17,20.0,9.0,320,10,,6.21,29.911417,,,,,,TRUE,,,,,CAVOK,,,,,,,,VFR,,,,,,,,,,,,METAR,31.0
UWPS 010630Z 25004MPS 9999 BKN033 14/08 Q1013 R20/CLRD60 NOSIG RMK QFE742,UWPS,2023-06-01T06:30:00Z,54.12,45.2,14.0,8.0,250,8,,6.21,29.911417,,,,,,TRUE,,,,,BKN,3300,,,,,,,VFR,,,,,,,,,,,,METAR,206.0
UWOO 010630Z 15003MPS 130V190 CAVOK 31/11 Q1011 R08/CLRD60 NOSIG RMK QFE747/0997,UWOO,2023-06-01T06:30:00Z,51.8,55.47,31.0,11.0,150,6,,6.21,29.852362,,,,,,TRUE,,,,,CAVOK,,,,,,,,VFR,,,,,,,,,,,,METAR,90.0
UWLL 010630Z 30005MPS 270V340 9999 SCT034 18/09 Q1012 R20/090065 NOSIG RMK QFE749/0998,UWLL,2023-06-01T06:30:00Z,54.27,48.23,18.0,9.0,300,10,,6.21,29.88189,,,,,,TRUE,,,,,SCT,3400,,,,,,,VFR,,,,,,,,,,,,METAR,119.0
UWKS 010630Z 25007MPS 9999 BKN019CB 15/10 Q1011 R24/010060 NOSIG RMK QFE744,UWKS,2023-06-01T06:30:00Z,56.08,47.35,15.0,10.0,250,14,,6.21,29.852362,,,,,,TRUE,,,,,BKN,1900,,,,,,,MVFR,,,,,,,,,,,,METAR,165.0
UWKE 010630Z 25007MPS 9999 BKN030 21/12 Q1010 R21/090070 NOSIG RMK QFE741/0988,UWKE,2023-06-01T06:30:00Z,55.57,52.08,21.0,12.0,250,14,,6.21,29.822834,,,,,,TRUE,,,,,BKN,3000,,,,,,,MVFR,,,,,,,,,,,,METAR,193.0
UWKD 010630Z 28007MPS 9999 BKN030 17/10 Q1010 R29/CLRD70 NOSIG RMK QFE747/0996,UWKD,2023-06-01T06:30:00Z,55.62,49.28,17.0,10.0,280,14,,6.21,29.822834,,,,,,TRUE,,,,,BKN,3000,,,,,,,MVFR,,,,,,,,,,,,METAR,114.0
UWGG 010630Z 26004MPS CAVOK 16/10 Q1011 R18L/090070 NOSIG,UWGG,2023-06-01T06:30:00Z,56.23,43.78,16.0,10.0,260,8,,6.21,29.852362,,,,,,TRUE,,,,,CAVOK,,,,,,,,VFR,,,,,,,,,,,,METAR,73.0
UUYY 010630Z 20003MPS 9999 SCT040CB 18/13 Q1001 R18/61D TEMPO 6000 -TSRA RMK QFE742/0990,UUYY,2023-06-01T06:30:00Z,61.65,50.83,18.0,13.0,200,6,,6.21,29.557087,,,,,,,,,,,SCT,4000,,,,,,,VFR,,,,,,,,,,,,SPECI,107.0
UUWW 010630Z 20004MPS CAVOK 16/08 Q1011 R24/000070 NOSIG,UUWW,2023-06-01T06:30:00Z,55.6,37.27,16.0,8.0,200,8,,6.21,29.852362,,,,,,TRUE,,,,,CAVOK,,,,,,,,VFR,,,,,,,,,,,,METAR,195.0
UUOO 010630Z 32003MPS 260V030 CAVOK 18/06 Q1016 R30/010070 NOSIG RMK QFE748,UUOO,2023-06-01T06:30:00Z,51.82,39.23,18.0,6.0,320,6,,6.21,30.0,,,,,,TRUE,,,,,CAVOK,,,,,,,,VFR,,,,,,,,,,,,METAR,154.0
UUOL 010630Z 28004MPS CAVOK 18/04 Q1015 R33/090060 NOSIG,UUOL,2023-06-01T06:30:00Z,52.7,39.53,18.0,4.0,280,8,,6.21,29.970472,,,,,,TRUE,,,,,CAVOK,,,,,,,,VFR,,,,,,,,,,,,METAR,176.0
UUOK 010630Z 25004MPS 220V290 CAVOK 18/06 Q1016 R30/090060 NOSIG RMK QFE743/0991,UUOK,2023-06-01T06:30:00Z,51.75,36.28,18.0,6.0,250,8,,6.21,30.0,,,,,,TRUE,,,,,CAVOK,,,,,,,,VFR,,,,,,,,,,,,METAR,203.0
UUOB 010630Z 18002MPS 140V270 CAVOK 18/02 Q1017 R29/010070 NOSIG,UUOB,2023-06-01T06:30:00Z,50.65,36.58,18.0,2.0,180,4,,6.21,30.029528,,,,,,TRUE,,,,,CAVOK,,,,,,,,VFR,,,,,,,,,,,,METAR,218.0
UUMO 010630Z 23003MPS CAVOK 16/08 Q1012 R25/CLRD60 NOSIG RMK QFE743/0991,UUMO,2023-06-01T06:30:00Z,55.52,37.5,16.0,8.0,230,6,,6.21,29.88189,,,,,,TRUE,,,,,CAVOK,,,,,,,,VFR,,,,,,,,,,,,METAR,167.0
UUEE 010630Z 21004MPS CAVOK 16/07 Q1010 R24L/CLRD62 R24C/CLRD62 NOSIG,UUEE,2023-06-01T06:30:00Z,55.97,37.42,16.0,7.0,210,8,,6.21,29.822834,,,,,,TRUE,,,,,CAVOK,,,,,,,,VFR,,,,,,,,,,,,METAR,186.0
UUDL 010630Z 22005MPS CAVOK 17/06 Q1009 R23/010060 NOSIG RMK QFE748,UUDL,2023-06-01T06:30:00Z,57.57,40.17,17.0,6.0,220,10,,6.21,29.793306,,,,,,TRUE,,,,,CAVOK,,,,,,,,VFR,,,,,,,,,,,,METAR,88.0
UUDD 010630Z 24005MPS 200V270 CAVOK 17/07 Q1012 R88/CLRD60 NOSIG,UUDD,2023-06-01T06:30:00Z,55.4,37.9,17.0,7.0,240,10,,6.21,29.88189,,,,,,TRUE,,,,,CAVOK,,,,,,,,VFR,,,,,,,,,,,,METAR,165.0
UUBW 010630Z 21004MPS CAVOK 17/07 Q1012 R30/010060 NOSIG RMK QFE748,UUBW,2023-06-01T06:30:00Z,55.55,38.15,17.0,7.0,210,8,,6.21,29.88189,,,,,,TRUE,,,,,CAVOK,,,,,,,,VFR,,,,,,,,,,,,METAR,111.0
UUBP 010630Z 22005MPS CAVOK 19/05 Q1014 R34/////// NOSIG RMK QFE743/0990,UUBP,2023-06-01T06:30:00Z,53.22,34.18,19.0,5.0,220,10,,6.21,29.940945,,,,,,TRUE,,,,,CAVOK,,,,,,,,VFR,,,,,,,,,,,,METAR,197.0
UUBC 010630Z 20005MPS 170V230 CAVOK 17/06 Q1012 R31/CLRD60 NOSIG RMK QFE742/0990,UUBC,2023-06-01T06:30:00Z,54.55,36.37,17.0,6.0,200,10,,6.21,29.88189,,,,,,TRUE,,,,,CAVOK,,,,,,,,VFR,,,,,,,,,,,,METAR,198.0
UTTT 010630Z 20006KT 170V230 CAVOK 29/07 Q1008 R08R/CLRD70 NOSIG,UTTT,2023-06-01T06:30:00Z,41.27,69.27,29.0,7.0,200,6,,6.21,29.763779,,,,,,TRUE,,,,,CAVOK,,,,,,,,VFR,,,,,,,,,,,,METAR,429.0
UTST 010630Z 25010KT 230V290 5000 HZ NSC 34/M02 Q1006 R25/CLRD70 NOSIG,UTST,2023-06-01T06:30:00Z,37.28,67.32,34.0,-2.0,250,10,,3.11,29.704725,,,,,,TRUE,,,,HZ,CLR,,,,,,,,MVFR,,,,,,,,,,,,METAR,311.0
UTSS 010630Z 03006KT 330V120 9999 NSC 31/04 Q1008 R09/70D NOSIG,UTSS,2023-06-01T06:30:00Z,39.7,66.98,31.0,4.0,30,6,,6.21,29.763779,,,,,,TRUE,,,,,CLR,,,,,,,,VFR,,,,,,,,,,,,METAR,665.0
UTSK 010630Z 28008KT 250V330 CAVOK 33/04 Q1007 R16/CLRD70,UTSK,2023-06-01T06:30:00Z,38.8,65.77,33.0,4.0,280,8,,6.21,29.734253,,,,,,,,,,,CAVOK,,,,,,,,VFR,,,,,,,,,,,,METAR,399.0
UTSB 010630Z 01014KT CAVOK 33/05 Q1007 R01/CLRD70 NOSIG,UTSB,2023-06-01T06:30:00Z,39.77,64.48,33.0,5.0,10,14,,6.21,29.734253,,,,,,TRUE,,,,,CAVOK,,,,,,,,VFR,,,,,,,,,,,,METAR,225.0
UTSA 010630Z 01016KT 9999 NSC 33/01 Q1007 R07/CLRD70 NOSIG,UTSA,2023-06-01T06:30:00Z,40.12,65.17,33.0,1.0,10,16,,6.21,29.734253,,,,,,TRUE,,,,,CLR,,,,,,,,VFR,,,,,,,,,,,,METAR,346.0
UTNU 010630Z 11012KT CAVOK 33/08 Q1010 R13/CLRD70 NOSIG,UTNU,2023-06-01T06:30:00Z,41.58,60.63,33.0,8.0,110,12,,6.21,29.822834,,,,,,TRUE,,,,,CAVOK,,,,,,,,VFR,,,,,,,,,,,,METAR,97.0
UTNN 010630Z 15018KT CAVOK 35/04 Q1009 R15/CLRD60 NOSIG,UTNN,2023-06-01T06:30:00Z,42.48,59.63,35.0,4.0,150,18,,6.21,29.793306,,,,,,TRUE,,,,,CAVOK,,,,,,,,VFR,,,,,,,,,,,,METAR,76.0
UTFN 010630Z 13006KT 090V170 9999 SCT050CB 31/07 Q1006 R28/CLRD70 NOSIG,UTFN,2023-06-01T06:30:00Z,40.98,71.57,31.0,7.0,130,6,,6.21,29.704725,,,,,,TRUE,,,,,SCT,5000,,,,,,,VFR,,,,,,,,,,,,METAR,477.0
UTDT 010630Z 23002MPS 160V280 9999 FEW130 34/05 Q1006 R35/CLRD70 RMK QFE715/0954,UTDT,2023-06-01T06:30:00Z,37.87,68.87,34.0,5.0,230,4,,6.21,29.704725,,,,,,,,,,,FEW,13000,,,,,,,VFR,,,,,,,,,,,,METAR,443.0
UTDL 010630Z 23003MPS 190V280 9999 NSC 31/06 Q1007 R26/CLRD70 NOSIG RMK QFE718/0957,UTDL,2023-06-01T06:30:00Z,40.22,69.7,31.0,6.0,230,6,,6.21,29.734253,,,,,,TRUE,,,,,CLR,,,,,,,,VFR,,,,,,,,,,,,METAR,436.0
UTDK 010630Z 24004MPS 200V280 9999 NSC 32/06 Q1009 R01/09//70 RMK QFE700/0933,UTDK,2023-06-01T06:30:00Z,37.98,69.8,32.0,6.0,240,8,,6.21,29.793306,,,,,,,,,,,CLR,,,,,,,,VFR,,,,,,,,,,,,METAR,675.0
UTDD 010630Z VRB01MPS 9999 FEW066 32/08 Q1009 R09/D NOSIG RMK QFE689/0919,UTDD,2023-06-01T06:30:00Z,38.53,68.82,32.0,8.0,0,2,,6.21,29.793306,,,,,,TRUE,,,,,FEW,6600,,,,,,,VFR,,,,,,,,,,,,METAR,785.0
USTR 010630Z 20004MPS 9999 FEW///CB 27/11 Q1013 R21/090065 R12/090065 NOSIG,USTR,2023-06-01T06:30:00Z,57.18,65.32,27.0,11.0,200,8,,6.21,29.911417,,,,,,TRUE,,,,,,,,,,,,,,,,,,,,,,,,,METAR,93.0
USSS 010630Z 20008MPS 170V230 CAVOK 28/11 Q1011 R26L/010060 NOSIG RMK QFE737/0983,USSS,2023-06-01T06:30:00Z,56.75,60.78,28.0,11.0,200,16,,6.21,29.852362,,,,,,TRUE,,,,,CAVOK,,,,,,,,VFR,,,,,,,,,,,,METAR,222.0
USRR 010630Z 18006G11MPS 150V210 CAVOK 27/10 Q1013 R25/CLRD60 NOSIG RMK QFE754,USRR,2023-06-01T06:30:00Z,61.33,73.42,27.0,10.0,180,12,21,6.21,29.911417,,,,,,TRUE,,,,,CAVOK,,,,,,,,VFR,,,,,,,,,,,,METAR,52.0
USPP 010630Z 23006MPS 9999 BKN035CB 24/16 Q1005 R21/090060 TEMPO VRB23MPS 0500 +TSRAGR SQ BKN011CB RMK QFE743,USPP,2023-06-01T06:30:00Z,57.92,56.02,24.0,16.0,230,12,,6.21,29.675198,,,,,,,,,,,BKN,3500,,,,,,,VFR,,,,,,,,,,,,METAR,120.0
USNN 010630Z 19006MPS CAVOK 26/07 Q1016 R21/0///65 NOSIG RMK QFE757,USNN,2023-06-01T06:30:00Z,60.95,76.48,26.0,7.0,190,12,,6.21,30.0,,,,,,TRUE,,,,,CAVOK,,,,,,,,VFR,,,,,,,,,,,,METAR,52.0
USHH 010630Z 17005MPS CAVOK 24/11 Q1008 R24/010060 TEMPO 3000 -TSRA BKN010CB,USHH,2023-06-01T06:30:00Z,61.03,69.08,24.0,11.0,170,10,,6.21,29.763779,,,,,,,,,,,CAVOK,,,,,,,,VFR,,,,,,,,,,,,METAR,46.0
USDA 010630Z 13004MPS 9999 FEW008 06/05 Q1009 R04/CLRD60 NOSIG RMK QFE755/1007,USDA,2023-06-01T06:30:00Z,71.2,72.05,6.0,5.0,130,8,,6.21,29.793306,,,,,,TRUE,,,,,FEW,800,,,,,,,VFR,,,,,,,,,,,,METAR,5.0
USCM 010630Z 15001MPS 9999 OVC040CB 24/10 Q1014 R36/090060 NOSIG RMK QFE722,USCM,2023-06-01T06:30:00Z,53.4,58.75,24.0,10.0,150,2,,6.21,29.940945,,,,,,TRUE,,,,,OVC,4000,,,,,,,VFR,,,,,,,,,,,,METAR,425.0
USCC 010630Z 17007MPS 9999 FEW040CB 30/09 Q1012 R09/000060 NOSIG RMK QFE738,USCC,2023-06-01T06:30:00Z,55.3,61.5,30.0,9.0,170,14,,6.21,29.88189,,,,,,TRUE,,,,,FEW,4000,,,,,,,VFR,,,,,,,,,,,,METAR,227.0
URWW 010630Z 05005MPS 020V080 CAVOK 23/10 Q1013 R05/010070 TEMPO -TSRA BKN030CB,URWW,2023-06-01T06:30:00Z,48.78,44.33,23.0,10.0,50,10,,6.21,29.911417,,,,,,,,,,,CAVOK,,,,,,,,VFR,,,,,,,,,,,,METAR,131.0
URWI 010630Z 29005MPS 6000 -SHRA SCT///CB 16/15 Q1014 TEMPO VRB18MPS 0800 +TSRAGR SQ SCT002 BKN020CB,URWI,2023-06-01T06:30:00Z,46.37,44.33,16.0,15.0,290,10,,3.73,29.940945,,,,,,,,,,-SHRA,,,,,,,,,,,,,,,,,,,,,METAR,145.0
URWA 010630Z 30007MPS 9999 SCT///CB 23/17 Q1006 R27/190060 NOSIG RMK QFE756/1008,URWA,2023-06-01T06:30:00Z,46.28,47.98,23.0,17.0,300,14,,6.21,29.704725,,,,,,TRUE,,,,,,,,,,,,,,,,,,,,,,,,,METAR,-19.0
URSS 010630Z 15002MPS 9999 SCT020CB OVC050 19/17 Q1015 R02/210256 R06/210250 NOSIG RMK R06/16003MPS MT OBSC QFE760,URSS,2023-06-01T06:30:00Z,43.45,39.92,19.0,17.0,150,4,,6.21,29.970472,,,,,,TRUE,,,,,SCT,2000,OVC,5000,,,,,VFR,,,,,,,,,,,,METAR,4.0
URRP 010630Z 07004MPS 030V090 9999 FEW011 SCT031CB 20/18 Q1013 R05/CLRD70 TEMPO 0300 +TSRA BKN001 BKN020CB RMK QFE755/1007,URRP,2023-06-01T06:30:00Z,47.5,39.92,20.0,18.0,70,8,,6.21,29.911417,,,,,,,,,,,FEW,1100,SCT,3100,,,,,VFR,,,,,,,,,,,,METAR,73.0
URMT 010630Z 04002MPS 010V090 9999 SCT036CB 19/15 Q1014 R25/290250 NOSIG RMK QFE722,URMT,2023-06-01T06:30:00Z,45.12,42.12,19.0,15.0,40,4,,6.21,29.940945,,,,,,TRUE,,,,,SCT,3600,,,,,,,VFR,,,,,,,,,,,,METAR,448.0
URMO 010630Z VRB01MPS 9999 SCT/// 21/13 Q1015 R09/010070 NOSIG RMK QFE717/0956,URMO,2023-06-01T06:30:00Z,43.2,44.6,21.0,13.0,0,2,,6.21,29.970472,,,,,,TRUE,,,,,,,,,,,,,,,,,,,,,,,,,METAR,505.0
URMN 010630Z 09001MPS 9999 FEW/// 23/12 Q1013 R24/010070 NOSIG RMK QFE723,URMN,2023-06-01T06:30:00Z,43.52,43.63,23.0,12.0,90,2,,6.21,29.911417,,,,,,TRUE,,,,,,,,,,,,,,,,,,,,,,,,,METAR,424.0
URMM 010630Z 33002MPS 9999 SCT062 20/17 Q1014 R30/090070 NOSIG RMK QFE732/0977,URMM,2023-06-01T06:30:00Z,44.22,43.07,20.0,17.0,330,4,,6.21,29.940945,,,,,,TRUE,,,,,SCT,6200,,,,,,,VFR,,,,,,,,,,,,METAR,318.0
URML 010630Z 32010MPS 9999 NSC 25/15 Q1011 R32/01//70 TEMPO 33014G20MPS RMK QFE758/1010,URML,2023-06-01T06:30:00Z,42.82,47.65,25.0,15.0,320,19,,6.21,29.852362,,,,,,,,,,,CLR,,,,,,,,VFR,,,,,,,,,,,,METAR,4.0
URMG 010630Z 30004MPS 260V340 9999 SCT/// 22/16 Q1013 R26/090070 NOSIG RMK QFE745/0994,URMG,2023-06-01T06:30:00Z,43.38,45.7,22.0,16.0,300,8,,6.21,29.911417,,,,,,TRUE,,,,,,,,,,,,,,,,,,,,,,,,,METAR,160.0
URKK 010630Z 19003MPS 160V220 9999 BKN037CB 20/17 Q1013 R23L/CLRD70 TEMPO 2000 TSRA SCT007 BKN020CB RMK QFE756,URKK,2023-06-01T06:30:00Z,45.03,39.15,20.0,17.0,190,6,,6.21,29.911417,,,,,,,,,,,BKN,3700,,,,,,,VFR,,,,,,,,,,,,METAR,29.0
URKA 010630Z 20006MPS 9999 SCT013 BKN035CB 20/17 Q1012 R22/190165 TEMPO 0500 +TSRA BKN003 BKN016CB RMK QFE754/1005,URKA,2023-06-01T06:30:00Z,45.0,37.35,20.0,17.0,200,12,,6.21,29.88189,,,,,,,,,,,SCT,1300,BKN,3500,,,,,VFR,,,,,,,,,,,,METAR,41.0
UOOO 010630Z 19004MPS CAVOK 07/07 Q1014 R19/15//60 NOSIG RMK QFE744/0992,UOOO,2023-06-01T06:30:00Z,69.32,87.33,7.0,7.0,190,8,,6.21,29.940945,,,,,,TRUE,,,,,CAVOK,,,,,,,,VFR,,,,,,,,,,,,METAR,177.0
UNWW 010630Z 22002MPS 150V300 CAVOK 24/06 Q1022 R19/220250 NOSIG RMK QFE739,UNWW,2023-06-01T06:30:00Z,53.82,86.88,24.0,6.0,220,4,,6.21,30.177166,,,,,,TRUE,,,,,CAVOK,,,,,,,,VFR,,,,,,,,,,,,METAR,307.0
UNTT 010630Z 28002MPS 230V360 CAVOK 25/03 Q1021 R03/090060 NOSIG RMK QFE749,UNTT,2023-06-01T06:30:00Z,56.38,85.22,25.0,3.0,280,4,,6.21,30.147638,,,,,,TRUE,,,,,CAVOK,,,,,,,,VFR,,,,,,,,,,,,METAR,179.0
UNOO 010630Z 15003MPS 100V170 CAVOK 29/00 Q1020 R25/CLRD60 NOSIG RMK QFE757,UNOO,2023-06-01T06:30:00Z,54.97,73.32,29.0,0.0,150,6,,6.21,30.11811,,,,,,TRUE,,,,,CAVOK,,,,,,,,VFR,,,,,,,,,,,,METAR,85.0
UNNT 010630Z 18003MPS 100V230 CAVOK 27/01 Q1021 R25/090070 R34/090070 NOSIG RMK QFE756/1008,UNNT,2023-06-01T06:30:00Z,55.02,82.65,27.0,1.0,180,6,,6.21,30.147638,,,,,,TRUE,,,,,CAVOK,,,,,,,,VFR,,,,,,,,,,,,METAR,106.0
UNKL 010630Z 07001MPS CAVOK 23/06 Q1020 R11/CLRD65 NOSIG RMK QFE740,UNKL,2023-06-01T06:30:00Z,56.17,92.48,23.0,6.0,70,2,,6.21,30.11811,,,,,,TRUE,,,,,CAVOK,,,,,,,,VFR,,,,,,,,,,,,METAR,278.0
UNEE 010630Z 33004MPS 290V010 CAVOK 25/M01 Q1022 R23/CLRD60 NOSIG RMK QFE743,UNEE,2023-06-01T06:30:00Z,55.27,86.1,25.0,-1.0,330,8,,6.21,30.177166,,,,,,TRUE,,,,,CAVOK,,,,,,,,VFR,,,,,,,,,,,,METAR,261.0
UNBB 010630Z VRB02MPS CAVOK 25/03 Q1023 R24/CLRD66 NOSIG RMK QFE744,UNBB,2023-06-01T06:30:00Z,53.37,83.53,25.0,3.0,0,4,,6.21,30.206694,,,,,,TRUE,,,,,CAVOK,,,,,,,,VFR,,,,,,,,,,,,METAR,249.0
UNAA 010630Z 17002MPS 140V230 CAVOK 23/06 Q1021 R02/CLRD64 NOSIG RMK QFE743,UNAA,2023-06-01T06:30:00Z,53.75,91.4,23.0,6.0,170,4,,6.21,30.147638,,,,,,TRUE,,,,,CAVOK,,,,,,,,VFR,,,,,,,,,,,,METAR,249.0
UMMS 010630Z 25004G08MPS 220V300 CAVOK 18/06 Q1013 NOSIG,UMMS,2023-06-01T06:30:00Z,53.88,28.03,18.0,6.0,250,8,16,6.21,29.911417,,,,,,TRUE,,,,,CAVOK,,,,,,,,VFR,,,,,,,,,,,,METAR,196.0
UMKK 010630Z 25002MPS 220V300 9999 FEW020 16/11 Q1013 R24/95D NOSIG RMK QFE758/1011,UMKK,2023-06-01T06:30:00Z,54.88,20.57,16.0,11.0,250,4,,6.21,29.911417,,,,,,TRUE,,,,,FEW,2000,,,,,,,VFR,,,,,,,,,,,,METAR,6.0
UMIO 010630Z 28005G08MPS 250V320 CAVOK 16/08 Q1012 NOSIG RMK QFE742/0989,UMIO,2023-06-01T06:30:00Z,54.43,30.3,16.0,8.0,280,10,16,6.21,29.88189,,,,,,TRUE,,,,,CAVOK,,,,,,,,VFR,,,,,,,,,,,,METAR,189.0
UMGG 010630Z 23003MPS CAVOK 18/07 Q1015 NOSIG,UMGG,2023-06-01T06:30:00Z,52.53,31.02,18.0,7.0,230,6,,6.21,29.970472,,,,,,TRUE,,,,,CAVOK,,,,,,,,VFR,,,,,,,,,,,,METAR,135.0
ULWC 010630Z 22002MPS 9999 SCT033CB 14/07 Q1005 R21/010060 NOSIG RMK QFE744/0992,ULWC,2023-06-01T06:30:00Z,59.28,38.02,14.0,7.0,220,4,,6.21,29.675198,,,,,,TRUE,,,,,SCT,3300,,,,,,,VFR,,,,,,,,,,,,METAR,113.0
ULPB 010630Z 24004MPS 220V280 CAVOK 12/06 Q1002 NOSIG RMK QFE747/0997,ULPB,2023-06-01T06:30:00Z,61.88,34.15,12.0,6.0,240,8,,6.21,29.586615,,,,,,TRUE,,,,,CAVOK,,,,,,,,VFR,,,,,,,,,,,,METAR,41.0
ULOO 010630Z 30007MPS CAVOK 13/03 Q1010 R19/090060 NOSIG RMK QFE753,ULOO,2023-06-01T06:30:00Z,57.78,28.4,13.0,3.0,300,14,,6.21,29.822834,,,,,,TRUE,,,,,CAVOK,,,,,,,,VFR,,,,,,,,,,,,METAR,46.0
ULMM 010630Z 02006MPS 9999 -SHRA SCT009 BKN014CB 07/07 Q0998 R31/290154 NOSIG RMK OBST OBSC QFE742,ULMM,2023-06-01T06:30:00Z,68.78,32.75,7.0,7.0,20,12,,6.21,29.468504,,,,,,TRUE,,,,-SHRA,SCT,900,BKN,1400,,,,,MVFR,,,,,,,,,,,,METAR,79.0
ULLI 010630Z 27005MPS CAVOK 14/09 Q1005 R28R/090060 NOSIG,ULLI,2023-06-01T06:30:00Z,59.8,30.27,14.0,9.0,270,10,,6.21,29.675198,,,,,,TRUE,,,,,CAVOK,,,,,,,,VFR,,,,,,,,,,,,METAR,25.0
UIUU 010630Z 03006MPS 290V080 9999 FEW046 21/M01 Q1013 R26/60D NOSIG RMK QFE716/0955,UIUU,2023-06-01T06:30:00Z,51.8,107.45,21.0,-1.0,30,12,,6.21,29.911417,,,,,,TRUE,,,,,FEW,4600,,,,,,,VFR,,,,,,,,,,,,METAR,508.0
UIII 010630Z 31005MPS 270V010 CAVOK 21/04 Q1016 R12/CLRD60 NOSIG RMK QFE719/0959,UIII,2023-06-01T06:30:00Z,52.27,104.37,21.0,4.0,310,10,,6.21,30.0,,,,,,TRUE,,,,,CAVOK,,,,,,,,VFR,,,,,,,,,,,,METAR,480.0
UIBB 010630Z 34006MPS 9999 -SHRA SCT050CB 18/04 Q1017 R30/60D NOSIG RMK QFE720/0960,UIBB,2023-06-01T06:30:00Z,56.37,101.7,18.0,4.0,340,12,,6.21,30.029528,,,,,,TRUE,,,,-SHRA,SCT,5000,,,,,,,VFR,,,,,,,,,,,,METAR,485.0
UIAA 010630Z 05006MPS 9999 -SHRA SCT040CB 18/01 Q1011 R29/CLRD70 NOSIG RMK QFE700/0933,UIAA,2023-06-01T06:30:00Z,52.02,113.32,18.0,1.0,50,12,,6.21,29.852362,,,,,,TRUE,,,,-SHRA,SCT,4000,,,,,,,VFR,,,,,,,,,,,,METAR,650.0
UHWW 010630Z VRB02MPS 5000 -SHRA BKN033CB 20/14 Q0999 R25L/0///70 TEMPO 6000 -TSRA BKN018CB RMK QFE748,UHWW,2023-06-01T06:30:00Z,43.4,132.15,20.0,14.0,0,4,,3.11,29.498032,,,,,,,,,,-SHRA,BKN,3300,,,,,,,MVFR,,,,,,,,,,,,METAR,11.0
UHSS 010630Z 23003MPS 9999 -SHRA BKN023CB 13/10 Q1000 R01/250255 NOSIG RMK MT OBSC QFE749/0999,UHSS,2023-06-01T06:30:00Z,46.88,142.72,13.0,10.0,230,6,,6.21,29.52756,,,,,,TRUE,,,,-SHRA,BKN,2300,,,,,,,MVFR,,,,,,,,,,,,METAR,14.0
UHPP 010630Z 19005MPS 9999 -SHRA SCT005 OVC021CB 06/06 Q1002 R16R/190054 NOSIG RMK MT OBSC QFE748/0998,UHPP,2023-06-01T06:30:00Z,53.17,158.45,6.0,6.0,190,10,,6.21,29.586615,,,,,,TRUE,,,,-SHRA,SCT,500,OVC,2100,,,,,MVFR,,,,,,,,,,,,METAR,33.0
UHMM 010630Z 07004MPS 9999 SCT060 13/03 Q1005 R10/70D NOSIG RMK QFE739 R28/12004MPS,UHMM,2023-06-01T06:30:00Z,59.92,150.72,13.0,3.0,70,8,,6.21,29.675198,,,,,,TRUE,,,,,SCT,6000,,,,,,,VFR,,,,,,,,,,,,METAR,175.0
UHMA 010630Z 19004MPS 9999 FEW036 05/01 Q1014 R01/////// NOSIG RMK MID 20003MPS END R01/21004MPS QFE757/1009,UHMA,2023-06-01T06:30:00Z,64.73,177.73,5.0,1.0,190,8,,6.21,29.940945,,,,,,TRUE,,,,,FEW,3600,,,,,,,VFR,,,0.3,,,,,,,,,METAR,53.0
UHHH 010630Z 01006MPS 9999 BKN038 15/07 Q0999 R88/090060 NOSIG RMK QFE743/0991,UHHH,2023-06-01T06:30:00Z,48.52,135.18,15.0,7.0,10,12,,6.21,29.498032,,,,,,TRUE,,,,,BKN,3800,,,,,,,VFR,,,,,,,,,,,,METAR,74.0
UHBB 010630Z 01004MPS 330V050 9999 SCT033CB 21/05 Q1002 R36/090060 NOSIG RMK QFE734/0979,UHBB,2023-06-01T06:30:00Z,50.43,127.42,21.0,5.0,10,8,,6.21,29.586615,,,,,,TRUE,,,,,SCT,3300,,,,,,,VFR,,,,,,,,,,,,METAR,185.0
UGTB 010630Z 31019KT 280V340 CAVOK 23/12 Q1014 NOSIG,UGTB,2023-06-01T06:30:00Z,41.67,44.95,23.0,12.0,310,19,,6.21,29.940945,,,,,,TRUE,,,,,CAVOK,,,,,,,,VFR,,,,,,,,,,,,METAR,468.0
UGSB 010630Z 27004KT 240V300 9999 FEW016 SCT055 20/19 Q1016 NOSIG,UGSB,2023-06-01T06:30:00Z,41.62,41.6,20.0,19.0,270,4,,6.21,30.0,,,,,,TRUE,,,,,FEW,1600,SCT,5500,,,,,VFR,,,,,,,,,,,,METAR,32.0
UGMS 010630Z 23004KT 190V260 9999 BKN090 13/09 Q1020,UGMS,2023-06-01T06:30:00Z,43.05,42.75,13.0,9.0,230,4,,6.21,30.11811,,,,,,,,,,,BKN,9000,,,,,,,VFR,,,,,,,,,,,,METAR,1442.0
UGKO 010630Z VRB02KT 9999 SCT015 BKN047 21/17 Q1014 NOSIG,UGKO,2023-06-01T06:30:00Z,42.18,42.48,21.0,17.0,0,2,,6.21,29.940945,,,,,,TRUE,,,,,SCT,1500,BKN,4700,,,,,VFR,,,,,,,,,,,,METAR,44.0
UGAM 010630Z VRB10G20KT 9999 SCT070 20/13 Q1016,UGAM,2023-06-01T06:30:00Z,42.53,43.13,20.0,13.0,0,10,20,6.21,30.0,,,,,,,,,,,SCT,7000,,,,,,,VFR,,,,,,,,,,,,METAR,544.0
UERR 010630Z 06003MPS 9999 SCT040 16/M03 Q1015 R07/CLRD60 NOSIG RMK QFE731/0975,UERR,2023-06-01T06:30:00Z,62.53,114.05,16.0,-3.0,60,6,,6.21,29.970472,,,,,,TRUE,,,,,SCT,4000,,,,,,,VFR,,,,,,,,,,,,METAR,352.0
UERP 010630Z VRB01MPS CAVOK 15/M10 Q1017 R35/090060 NOSIG RMK QFE718,UERP,2023-06-01T06:30:00Z,66.4,112.03,15.0,-10.0,0,2,,6.21,30.029528,,,,,,TRUE,,,,,CAVOK,,,,,,,,VFR,,,,,,,,,,,,METAR,514.0
UEEE 010630Z 07006MPS CAVOK 21/05 Q1008 R05/09//60 NOSIG RMK QFE747,UEEE,2023-06-01T06:30:00Z,62.08,129.77,21.0,5.0,70,12,,6.21,29.763779,,,,,,TRUE,,,,,CAVOK,,,,,,,,VFR,,,,,,,,,,,,METAR,106.0
UDYZ 010630Z 15004KT 120V200 9999 FEW040 23/08 Q1015 NOSIG,UDYZ,2023-06-01T06:30:00Z,40.15,44.4,23.0,8.0,150,4,,6.21,29.970472,,,,,,TRUE,,,,,FEW,4000,,,,,,,VFR,,,,,,,,,,,,METAR,851.0
UDSG 010630Z VRB02KT 9999 NSC 17/07 Q1019 NOSIG,UDSG,2023-06-01T06:30:00Z,40.75,43.87,17.0,7.0,0,2,,6.21,30.088583,,,,,,TRUE,,,,,CLR,,,,,,,,VFR,,,,,,,,,,,,METAR,1515.0
UCFO 010630Z VRB01MPS 9999 SCT050CB 30/07 Q1009 NOSIG,UCFO,2023-06-01T06:30:00Z,40.6,72.8,30.0,7.0,0,2,,6.21,29.793306,,,,,,TRUE,,,,,SCT,5000,,,,,,,VFR,,,,,,,,,,,,METAR,881.0
UCFM 010630Z 04004MPS 330V110 CAVOK 28/01 Q1011 TEMPO 04007G12MPS,UCFM,2023-06-01T06:30:00Z,43.07,74.48,28.0,1.0,40,8,,6.21,29.852362,,,,,,,,,,,CAVOK,,,,,,,,VFR,,,,,,,,,,,,METAR,632.0
UBBZ 010630Z VRB02KT 9999 BKN033 24/13 Q1014 NOSIG RMK MT OP,UBBZ,2023-06-01T06:30:00Z,39.1,46.73,24.0,13.0,0,2,,6.21,29.940945,,,,,,TRUE,,,,,BKN,3300,,,,,,,VFR,,,,,,,,,,,,METAR,489.0
UBBN 010630Z 21004KT 9999 FEW046 22/11 Q1014 NOSIG RMK MT OP QFE686,UBBN,2023-06-01T06:30:00Z,39.18,45.45,22.0,11.0,210,4,,6.21,29.940945,,,,,,TRUE,,,,,FEW,4600,,,,,,,VFR,,,,,,,,,,,,METAR,857.0
UBBG 010630Z 31010KT 280V340 9999 FEW100 25/14 Q1012 NOSIG,UBBG,2023-06-01T06:30:00Z,40.73,46.32,25.0,14.0,310,10,,6.21,29.88189,,,,,,TRUE,,,,,FEW,10000,,,,,,,VFR,,,,,,,,,,,,METAR,333.0
UBBF 010630Z 13004KT 9999 SCT100 25/14 Q1012 NOSIG RMK MT OP,UBBF,2023-06-01T06:30:00Z,39.6,47.2,25.0,14.0,130,4,,6.21,29.88189,,,,,,TRUE,,,,,SCT,10000,,,,,,,VFR,,,,,,,,,,,,METAR,370.0
UBBB 010630Z 34016KT 9999 SCT048 25/16 Q1012 NOSIG,UBBB,2023-06-01T06:30:00Z,40.47,50.07,25.0,16.0,340,16,,6.21,29.88189,,,,,,TRUE,,,,,SCT,4800,,,,,,,VFR,,,,,,,,,,,,METAR,94.0
UAUU 010630Z 20007MPS 160V230 CAVOK 33/08 Q1015 NOSIG RMK QFE745/0994,UAUU,2023-06-01T06:30:00Z,53.2,63.55,33.0,8.0,200,14,,6.21,29.970472,,,,,,TRUE,,,,,CAVOK,,,,,,,,VFR,,,,,,,,,,,,METAR,177.0
UATT 010630Z 16007MPS CAVOK 34/08 Q1012 NOSIG RMK QFE740/0986,UATT,2023-06-01T06:30:00Z,50.25,57.2,34.0,8.0,160,14,,6.21,29.88189,,,,,,TRUE,,,,,CAVOK,,,,,,,,VFR,,,,,,,,,,,,METAR,217.0
UATG 010630Z 16007MPS 9999 SCT033CB 32/06 Q1005 NOSIG RMK QFE756/1008,UATG,2023-06-01T06:30:00Z,47.12,51.83,32.0,6.0,160,14,,6.21,29.675198,,,,,,TRUE,,,,,SCT,3300,,,,,,,VFR,,,,,,,,,,,,METAR,-23.0
UATE 010630Z 30007MPS 260V340 CAVOK 23/18 Q1009 NOSIG RMK QFE755/1007,UATE,2023-06-01T06:30:00Z,43.87,51.1,23.0,18.0,300,14,,6.21,29.793306,,,,,,TRUE,,,,,CAVOK,,,,,,,,VFR,,,,,,,,,,,,METAR,21.0
UASS 010630Z 06009MPS 020V080 CAVOK 26/M01 Q1019 NOSIG RMK QFE743/0991,UASS,2023-06-01T06:30:00Z,50.35,80.23,26.0,-1.0,60,17,,6.21,30.088583,,,,,,TRUE,,,,,CAVOK,,,,,,,,VFR,,,,,,,,,,,,METAR,215.0
UASP 010630Z 08003MPS CAVOK 29/M01 Q1021 NOSIG RMK QFE755/1007,UASP,2023-06-01T06:30:00Z,52.2,77.07,29.0,-1.0,80,6,,6.21,30.147638,,,,,,TRUE,,,,,CAVOK,,,,,,,,VFR,,,,,,,,,,,,METAR,122.0
UASK 010630Z 23003MPS 9999 NSC 23/06 Q1017 NOSIG RMK QFE738/0984,UASK,2023-06-01T06:30:00Z,50.03,82.5,23.0,6.0,230,6,,6.21,30.029528,,,,,,TRUE,,,,,CLR,,,,,,,,VFR,,,,,,,,,,,,METAR,285.0
UARR 010630Z 35005MPS CAVOK 27/15 Q1010 NOSIG RMK QFE754/1005,UARR,2023-06-01T06:30:00Z,51.15,51.53,27.0,15.0,350,10,,6.21,29.822834,,,,,,TRUE,,,,,CAVOK,,,,,,,,VFR,,,,,,,,,,,,METAR,33.0
UAOO 010630Z 10010MPS CAVOK 33/02 Q1013 NOSIG RMK QFE748/0998,UAOO,2023-06-01T06:30:00Z,44.7,65.6,33.0,2.0,100,19,,6.21,29.911417,,,,,,TRUE,,,,,CAVOK,,,,,,,,VFR,,,,,,,,,,,,METAR,130.0
UAKK 010630Z 11003MPS CAVOK 26/00 Q1020 NOSIG RMK QFE718/0958,UAKK,2023-06-01T06:30:00Z,49.68,73.35,26.0,0.0,110,6,,6.21,30.11811,,,,,,TRUE,,,,,CAVOK,,,,,,,,VFR,,,,,,,,,,,,METAR,532.0
UAKD 010630Z 15004MPS 110V190 CAVOK 30/02 Q1017 NOSIG RMK QFE729/0972,UAKD,2023-06-01T06:30:00Z,47.7,67.73,30.0,2.0,150,8,,6.21,30.029528,,,,,,TRUE,,,,,CAVOK,,,,,,,,VFR,,,,,,,,,,,,METAR,379.0
UAIT 010630Z 07017MPS CAVOK 31/M03 Q1010 NOSIG RMK QFE732/0977,UAIT,2023-06-01T06:30:00Z,43.32,68.55,31.0,-3.0,70,33,,6.21,29.822834,,,,,,TRUE,,,,,CAVOK,,,,,,,,VFR,,,,,,,,,,,,METAR,301.0
UAII 010630Z 06007G12MPS 020V090 CAVOK 32/03 Q1007 NOSIG RMK QFE720/0961,UAII,2023-06-01T06:30:00Z,42.37,69.48,32.0,3.0,60,14,23,6.21,29.734253,,,,,,TRUE,,,,,CAVOK,,,,,,,,VFR,,,,,,,,,,,,METAR,410.0
UADD 010630Z 08008MPS 9999 NSC 28/01 Q1012 NOSIG RMK QFE701/0935,UADD,2023-06-01T06:30:00Z,42.85,71.3,28.0,1.0,80,16,,6.21,29.88189,,,,,,TRUE,,,,,CLR,,,,,,,,VFR,,,,,,,,,,,,METAR,663.0
UACP 010630Z 16005MPS 130V210 CAVOK 31/08 Q1018 NOSIG RMK QFE751/1001,UACP,2023-06-01T06:30:00Z,54.78,69.18,31.0,8.0,160,10,,6.21,30.059055,,,,,,TRUE,,,,,CAVOK,,,,,,,,VFR,,,,,,,,,,,,METAR,134.0
UACK 010630Z 12004MPS 080V140 CAVOK 30/08 Q1018 NOSIG RMK QFE739/0986,UACK,2023-06-01T06:30:00Z,53.32,69.58,30.0,8.0,120,8,,6.21,30.059055,,,,,,TRUE,,,,,CAVOK,,,,,,,,VFR,,,,,,,,,,,,METAR,261.0
UACC 010630Z 13003MPS 050V200 9999 FEW033 30/04 Q1019 NOSIG RMK QFE733/0977,UACC,2023-06-01T06:30:00Z,51.02,71.47,30.0,4.0,130,6,,6.21,30.088583,,,,,,TRUE,,,,,FEW,3300,,,,,,,VFR,,,,,,,,,,,,METAR,354.0
UAAT 010630Z 03011G16MPS 9999 FEW200 25/02 Q1013 NOSIG RMK QFE708/0945,UAAT,2023-06-01T06:30:00Z,45.12,78.45,25.0,2.0,30,21,31,6.21,29.911417,,,,,,TRUE,,,,,FEW,20000,,,,,,,VFR,,,,,,,,,,,,METAR,588.0
UAAH 010630Z 06009G15MPS 020V110 CAVOK 27/M03 Q1017 NOSIG RMK QFE726/0968,UAAH,2023-06-01T06:30:00Z,46.9,75.0,27.0,-3.0,60,17,29,6.21,30.029528,,,,,,TRUE,,,,,CAVOK,,,,,,,,VFR,,,,,,,,,,,,METAR,427.0
UAAA 010630Z 23005MPS 200V260 9999 SCT100 BKN200 24/02 Q1014 NOSIG,UAAA,2023-06-01T06:30:00Z,43.35,77.03,24.0,2.0,230,10,,6.21,29.940945,,,,,,TRUE,,,,,SCT,10000,BKN,20000,,,,,VFR,,,,,,,,,,,,METAR,673.0
TFFR 010630Z AUTO 13004KT 9999 FEW018 SCT024 BKN037 25/24 Q1015 TEMPO 3500 SHRA FEW012CB SCT018TCU,TFFR,2023-06-01T06:30:00Z,16.27,-61.53,25.0,24.0,130,4,,6.21,29.970472,,,TRUE,,,,,,,,FEW,1800,SCT,2400,BKN,3700,,,VFR,,,,,,,,,,,,SPECI,6.0
TFFF 010630Z AUTO 09004KT 9999 FEW019 SCT042 26/24 Q1014 TEMPO 3000 SHRA FEW013CB BKN016TCU,TFFF,2023-06-01T06:30:00Z,14.6,-61.0,26.0,24.0,90,4,,6.21,29.940945,,,TRUE,,,,,,,,FEW,1900,SCT,4200,,,,,VFR,,,,,,,,,,,,SPECI,3.0
SOCA 010630Z AUTO 00000KT 9999 FEW001/// SCT019/// BKN024/// ///TCU 23/23 Q1013 TEMPO 2500 -SHRA SCT008 BKN012TCU,SOCA,2023-06-01T06:30:00Z,4.82,-52.37,23.0,23.0,0,0,,6.21,29.911417,,,TRUE,,,,,,,,FEW,100,SCT,1900,BKN,2400,,,MVFR,,,,,,,,,,,,METAR,7.0
RODN 010630Z 12007G36KT 2 3/4SM -RA OVC007 26/24 A2912 RMK AO2A VIS 2 1/4 RWY23 SLPNO ALSTG ESTMD FZRANO $,RODN,2023-06-01T06:30:00Z,26.35,127.77,26.0,24.0,120,7,36,2.75,29.120079,,,,TRUE,TRUE,,,TRUE,,-RA,OVC,700,,,,,,,IFR,,,,,,,,,,,,METAR,38.0
ROAH 010630Z 13031G44KT 3000 R18L/2000U R18R/2000N -SHRA BR SCT007 BKN010 26/25 Q0985,ROAH,2023-06-01T06:30:00Z,26.18,127.65,26.0,25.0,130,31,44,1.86,29.084646,,,,,,,,,,-SHRA BR,SCT,700,BKN,1000,,,,,IFR,,,,,,,,,,,,METAR,6.0
RKSI 010630Z 31007KT CAVOK 23/15 Q1005 NOSIG,RKSI,2023-06-01T06:30:00Z,37.47,126.45,23.0,15.0,310,7,,6.21,29.675198,,,,,,TRUE,,,,,CAVOK,,,,,,,,VFR,,,,,,,,,,,,METAR,7.0
RKPC 010630Z 07009KT 3500 RA BR BKN002 BKN025 OVC070 19/19 Q1005 NOSIG,RKPC,2023-06-01T06:30:00Z,33.5,126.48,19.0,19.0,70,9,,2.17,29.675198,,,,,,TRUE,,,,RA BR,BKN,200,BKN,2500,OVC,7000,,,LIFR,,,,,,,,,,,,SPECI,23.0
RJTT 010630Z 19019KT 9999 FEW030 BKN/// 23/15 Q1012 NOSIG,RJTT,2023-06-01T06:30:00Z,35.55,139.77,23.0,15.0,190,19,,6.21,29.88189,,,,,,TRUE,,,,,FEW,3000,,,,,,,VFR,,,,,,,,,,,,METAR,5.0
RJGG 010630Z 12016KT 9999 -SHRA FEW010 BKN040 BKN080 23/19 Q1011 NOSIG,RJGG,2023-06-01T06:30:00Z,34.87,136.8,23.0,19.0,120,16,,6.21,29.852362,,,,,,TRUE,,,,-SHRA,FEW,1000,BKN,4000,BKN,8000,,,VFR,,,,,,,,,,,,METAR,5.0
RJFF 010630Z 05004KT 010V110 7000 -SHRA FEW005 SCT045 BKN060 24/23 Q1005 BECMG 15008KT TEMPO 3000 TSRA BR,RJFF,2023-06-01T06:30:00Z,33.58,130.45,24.0,23.0,50,4,,4.35,29.675198,,,,,,,,,,-SHRA,FEW,500,SCT,4500,BKN,6000,,,MVFR,,,,,,,,,,,,METAR,7.0
RJCC 010630Z 17014KT 9999 FEW025 SCT150 BKN/// 18/10 Q1007,RJCC,2023-06-01T06:30:00Z,42.77,141.68,18.0,10.0,170,14,,6.21,29.734253,,,,,,,,,,,FEW,2500,SCT,15000,,,,,VFR,,,,,,,,,,,,METAR,19.0
RJBB 010630Z 25007KT 9999 FEW020 BKN060 21/20 Q1009 NOSIG,RJBB,2023-06-01T06:30:00Z,34.43,135.25,21.0,20.0,250,7,,6.21,29.793306,,,,,,TRUE,,,,,FEW,2000,BKN,6000,,,,,VFR,,,,,,,,,,,,METAR,8.0
RJAA 010630Z 16014KT 130V200 9999 FEW030 BKN/// 23/15 Q1012 NOSIG,RJAA,2023-06-01T06:30:00Z,35.77,140.38,23.0,15.0,160,14,,6.21,29.88189,,,,,,TRUE,,,,,FEW,3000,,,,,,,VFR,,,,,,,,,,,,METAR,36.0
RCTP 010630Z 33009KT 9999 VCSH FEW006 BKN010 BKN020 28/26 Q1000 NOSIG RMK A2955,RCTP,2023-06-01T06:30:00Z,25.07,121.22,28.0,26.0,330,9,,6.21,29.52756,,,,,,TRUE,,,,VCSH,FEW,600,BKN,1000,BKN,2000,,,MVFR,,,,,,,,,,,,METAR,33.0
RCSS 010630Z 29012KT 7000 -SHRA FEW010 BKN018 BKN032 28/25 Q0999 WS R28 NOSIG RMK 29011KT/R10 A2952,RCSS,2023-06-01T06:30:00Z,25.07,121.55,28.0,25.0,290,12,,4.35,29.498032,,,,,,TRUE,,,,-SHRA,FEW,1000,BKN,1800,BKN,3200,,,MVFR,,,,,,,,,,,,SPECI,8.0
RCNN 010630Z 36017G27KT 9999 FEW010 SCT025 33/22 Q0999 NOSIG RMK A2951,RCNN,2023-06-01T06:30:00Z,22.93,120.2,33.0,22.0,360,17,27,6.21,29.498032,,,,,,TRUE,,,,,FEW,1000,SCT,2500,,,,,VFR,,,,,,,,,,,,SPECI,15.0
RCMQ 010630Z 35013KT 9999 FEW010 SCT025 29/25 Q1001 NOSIG RMK A2957,RCMQ,2023-06-01T06:30:00Z,24.27,120.62,29.0,25.0,350,13,,6.21,29.557087,,,,,,TRUE,,,,,FEW,1000,SCT,2500,,,,,VFR,,,,,,,,,,,,SPECI,202.0
RCKH 010630Z 35016G31KT 310V030 9999 FEW020 SCT200 33/23 Q0997 NOSIG RMK 33017G28KT/R09 A2946,RCKH,2023-06-01T06:30:00Z,22.57,120.33,33.0,23.0,350,16,31,6.21,29.438976,,,,,,TRUE,,,,,FEW,2000,SCT,20000,,,,,VFR,,,,,,,,,,,,METAR,6.0
RCFN 010630Z 18005KT 130V230 9999 FEW012 SCT018 BKN030 30/27 Q0997 NOSIG RMK A2945,RCFN,2023-06-01T06:30:00Z,22.77,121.1,30.0,27.0,180,5,,6.21,29.438976,,,,,,TRUE,,,,,FEW,1200,SCT,1800,BKN,3000,,,MVFR,,,,,,,,,,,,SPECI,42.0
PAHN 010630Z AUTO 09009G15KT SCT020 BKN080 08/03 A2997 RMK AO2 T00830028 TSNO $,PAHN,2023-06-01T06:30:00Z,59.25,-135.52,8.3,2.8,90,9,15,,29.970472,,,TRUE,TRUE,TRUE,,TRUE,,,,SCT,2000,BKN,8000,,,,,,,,,,,,,,,,,METAR,15.0
OTBD 010630Z 33010KT CAVOK 39/16 Q1008 NOSIG,OTBD,2023-06-01T06:30:00Z,25.25,51.57,39.0,16.0,330,10,,6.21,29.763779,,,,,,TRUE,,,,,CAVOK,,,,,,,,VFR,,,,,,,,,,,,METAR,13.0
OPPS 010630Z 31006KT 3000 RA FEW025TCU BKN008 BKN030 OVC070 20/ 18 Q1011,OPPS,2023-06-01T06:30:00Z,33.98,71.52,20.0,,310,6,,1.86,29.852362,,,,,,,,,,RA,FEW,2500,BKN,800,BKN,3000,OVC,7000,IFR,,,,,,,,,,,,METAR,356.0
OPMT 010630Z 36006KT 6000 FU SCT040 SCT100 25/20 Q1007 TEMPO 36020KT 2000 TSRA FEW030CB,OPMT,2023-06-01T06:30:00Z,30.2,71.42,25.0,20.0,360,6,,3.73,29.734253,,,,,,,,,,FU,SCT,4000,SCT,10000,,,,,MVFR,,,,,,,,,,,,METAR,122.0
OPKC 010630Z 24014KT 5000 FU BKN020 34/23 Q1007 TEMPO 24015G25K T,OPKC,2023-06-01T06:30:00Z,24.9,67.13,34.0,23.0,240,14,,3.11,29.734253,,,,,,,,,,FU,BKN,2000,,,,,,,MVFR,,,,,,,,,,,,METAR,20.0
OPIS 010630Z 13010KT 1000 R28L/P2000 RMID/P2000 R10R/P2000 +RA SCT040 OVC100 18/18 Q1010 TEMPO 09015G30KT 0500 TSRA FEW030CB,OPIS,2023-06-01T06:30:00Z,33.55,72.83,18.0,18.0,130,10,,0.62,29.822834,,,,,,,,,,+RA,SCT,4000,OVC,10000,,,,,LIFR,,,,,,,,,,,,METAR,542.0
OIZI 010630Z 26004KT CAVOK 37/09 Q1008,OIZI,2023-06-01T06:30:00Z,27.23,60.72,37.0,9.0,260,4,,6.21,29.763779,,,,,,,,,,,CAVOK,,,,,,,,VFR,,,,,,,,,,,,METAR,622.0
OIZH 010630Z 03008KT CAVOK 31/M11 Q1015 A2999,OIZH,2023-06-01T06:30:00Z,29.47,60.92,31.0,-11.0,30,8,,6.21,29.970472,,,,,,,,,,,CAVOK,,,,,,,,VFR,,,,,,,,,,,,METAR,1378.0
OITT 010630Z 17004KT 9999 FEW030TCU 23/10 Q1017 A3004,OITT,2023-06-01T06:30:00Z,38.13,46.23,23.0,10.0,170,4,,6.21,30.029528,,,,,,,,,,,FEW,3000,,,,,,,VFR,,,,,,,,,,,,METAR,1353.0
OITR 010630Z 18006KT 9999 FEW035CB FEW040 22/09 Q1015 A3000,OITR,2023-06-01T06:30:00Z,37.67,45.07,22.0,9.0,180,6,,6.21,29.970472,,,,,,,,,,,FEW,3500,FEW,4000,,,,,VFR,,,,,,,,,,,,METAR,1312.0
OISY 010630Z 28006KT 9999 FEW045 25/05 Q1023,OISY,2023-06-01T06:30:00Z,30.7,51.55,25.0,5.0,280,6,,6.21,30.206694,,,,,,,,,,,FEW,4500,,,,,,,VFR,,,,,,,,,,,,METAR,1800.0
OISS 010630Z 04004KT CAVOK 30/09 Q1016 A3003,OISS,2023-06-01T06:30:00Z,29.53,52.58,30.0,9.0,40,4,,6.21,30.0,,,,,,,,,,,CAVOK,,,,,,,,VFR,,,,,,,,,,,,METAR,1484.0
OISL 010630Z 27004KT CAVOK 35/15 Q1009 A2980,OISL,2023-06-01T06:30:00Z,27.67,54.37,35.0,15.0,270,4,,6.21,29.793306,,,,,,,,,,,CAVOK,,,,,,,,VFR,,,,,,,,,,,,METAR,804.0
OINZ 010630Z 30008KT CAVOK 29/22 Q1009,OINZ,2023-06-01T06:30:00Z,36.63,53.2,29.0,22.0,300,8,,6.21,29.793306,,,,,,,,,,,CAVOK,,,,,,,,VFR,,,,,,,,,,,,METAR,8.0
OIMM 010630Z 01008KT CAVOK 33/09 Q1014 A2997,OIMM,2023-06-01T06:30:00Z,36.23,59.63,33.0,9.0,10,8,,6.21,29.940945,,,,,,,,,,,CAVOK,,,,,,,,VFR,,,,,,,,,,,,METAR,995.0
OIKB 010630Z 23010KT 4000 HZ NSC 34/25 Q1004 A2968,OIKB,2023-06-01T06:30:00Z,27.22,56.37,34.0,25.0,230,10,,2.49,29.64567,,,,,,,,,,HZ,CLR,,,,,,,,IFR,,,,,,,,,,,,METAR,6.0
OIIP 010630Z 31004KT 8000 FEW040 SCT100 28/10 Q1014 A2995,OIIP,2023-06-01T06:30:00Z,35.78,50.83,28.0,10.0,310,4,,4.97,29.940945,,,,,,,,,,,FEW,4000,SCT,10000,,,,,MVFR,,,,,,,,,,,,METAR,1270.0
OIII 010630Z 21006KT 9999 FEW100 30/04 Q1014 A2996,OIII,2023-06-01T06:30:00Z,35.68,51.3,30.0,4.0,210,6,,6.21,29.940945,,,,,,,,,,,FEW,10000,,,,,,,VFR,,,,,,,,,,,,METAR,1182.0
OIGG 010630Z 31006KT 9999 SCT016 27/22 Q1011,OIGG,2023-06-01T06:30:00Z,37.33,49.6,27.0,22.0,310,6,,6.21,29.852362,,,,,,,,,,,SCT,1600,,,,,,,VFR,,,,,,,,,,,,METAR,-16.0
OIFM 010630Z 29008KT 9999 FEW040 28/06 Q1018 A3008,OIFM,2023-06-01T06:30:00Z,32.75,51.87,28.0,6.0,290,8,,6.21,30.059055,,,,,,,,,,,FEW,4000,,,,,,,VFR,,,,,,,,,,,,METAR,1539.0
OICC 010630Z 26006KT CAVOK 25/04 Q1018 A3007,OICC,2023-06-01T06:30:00Z,34.35,47.17,25.0,4.0,260,6,,6.21,30.059055,,,,,,,,,,,CAVOK,,,,,,,,VFR,,,,,,,,,,,,METAR,1310.0
OIBP 010630Z 30014KT CAVOK 35/23 Q1003 A2964,OIBP,2023-06-01T06:30:00Z,27.38,52.73,35.0,23.0,300,14,,6.21,29.616142,,,,,,,,,,,CAVOK,,,,,,,,VFR,,,,,,,,,,,,METAR,13.0
OIBK 010630Z 28014KT 8000 NSC 33/25 Q1004,OIBK,2023-06-01T06:30:00Z,26.53,53.98,33.0,25.0,280,14,,4.97,29.64567,,,,,,,,,,,CLR,,,,,,,,MVFR,,,,,,,,,,,,METAR,27.0
OIBB 010630Z 32014KT CAVOK 32/20 Q1006 A2972,OIBB,2023-06-01T06:30:00Z,28.93,50.83,32.0,20.0,320,14,,6.21,29.704725,,,,,,,,,,,CAVOK,,,,,,,,VFR,,,,,,,,,,,,METAR,15.0
OIAW 010630Z 31014KT CAVOK 39/07 Q1008,OIAW,2023-06-01T06:30:00Z,31.33,48.77,39.0,7.0,310,14,,6.21,29.763779,,,,,,,,,,,CAVOK,,,,,,,,VFR,,,,,,,,,,,,METAR,25.0
OBBI 010630Z 31016KT CAVOK 35/21 Q1008 NOSIG,OBBI,2023-06-01T06:30:00Z,26.27,50.63,35.0,21.0,310,16,,6.21,29.763779,,,,,,TRUE,,,,,CAVOK,,,,,,,,VFR,,,,,,,,,,,,METAR,6.0
NZWN 010630Z AUTO 35010G20KT 290V050 9999 NCD 17/10 Q1008,NZWN,2023-06-01T06:30:00Z,-41.32,174.8,17.0,10.0,350,10,20,6.21,29.763779,,,TRUE,,,,,,,,CLR,,,,,,,,VFR,,,,,,,,,,,,METAR,12.0
NZCH 010630Z AUTO 29006KT 260V330 9999 NCD 17/06 Q1000,NZCH,2023-06-01T06:30:00Z,-43.48,172.52,17.0,6.0,290,6,,6.21,29.52756,,,TRUE,,,,,,,,CLR,,,,,,,,VFR,,,,,,,,,,,,METAR,36.0
NZAA 010630Z AUTO 26011KT 9999 FEW019/// SCT028/// BKN035/// 16/15 Q1016,NZAA,2023-06-01T06:30:00Z,-37.02,174.8,16.0,15.0,260,11,,6.21,30.0,,,TRUE,,,,,,,,FEW,1900,SCT,2800,BKN,3500,,,VFR,,,,,,,,,,,,METAR,7.0
NWWW 010630Z AUTO 14012KT 9999 FEW060 22/18 Q1016 BECMG VRB02KT,NWWW,2023-06-01T06:30:00Z,-22.02,166.22,22.0,18.0,140,12,,6.21,30.0,,,TRUE,,,,,,,,FEW,6000,,,,,,,VFR,,,,,,,,,,,,SPECI,16.0
NTAA 010630Z 17008KT 9999 FEW033 23/15 Q1012 WS ALL RWY NOSIG,NTAA,2023-06-01T06:30:00Z,-17.55,-149.62,23.0,15.0,170,8,,6.21,29.88189,,,,,,TRUE,,,,,FEW,3300,,,,,,,VFR,,,,,,,,,,,,METAR,2.0
NLWW 010630Z AUTO 10007KT 9999 BKN021/// 28/24 Q1010 TEMPO 4000 SHRA BKN014 SCT020CB,NLWW,2023-06-01T06:30:00Z,-13.23,-176.18,28.0,24.0,100,7,,6.21,29.822834,,,TRUE,,,,,,,,BKN,2100,,,,,,,MVFR,,,,,,,,,,,,METAR,24.0
NCRG 010630Z AUTO 14004KT 080V200 9999 SCT039/// BKN047/// 21/15 Q1015,NCRG,2023-06-01T06:30:00Z,-21.2,-159.82,21.0,15.0,140,4,,6.21,29.970472,,,TRUE,,,,,,,,SCT,3900,BKN,4700,,,,,VFR,,,,,,,,,,,,METAR,7.0
LZZI 010630Z 06005KT CAVOK 15/10 Q1018,LZZI,2023-06-01T06:30:00Z,49.23,18.62,15.0,10.0,60,5,,6.21,30.059055,,,,,,,,,,,CAVOK,,,,,,,,VFR,,,,,,,,,,,,METAR,311.0
LZTT 010630Z 06003KT 040V100 CAVOK 15/10 Q1019 NOSIG,LZTT,2023-06-01T06:30:00Z,49.07,20.25,15.0,10.0,60,3,,6.21,30.088583,,,,,,TRUE,,,,,CAVOK,,,,,,,,VFR,,,,,,,,,,,,METAR,693.0
LZPP 010630Z 36004KT 310V030 CAVOK 17/10 Q1018,LZPP,2023-06-01T06:30:00Z,48.62,17.83,17.0,10.0,360,4,,6.21,30.059055,,,,,,,,,,,CAVOK,,,,,,,,VFR,,,,,,,,,,,,METAR,160.0
LZKZ 010630Z VRB02KT CAVOK 18/11 Q1018 NOSIG,LZKZ,2023-06-01T06:30:00Z,48.67,21.23,18.0,11.0,0,2,,6.21,30.059055,,,,,,TRUE,,,,,CAVOK,,,,,,,,VFR,,,,,,,,,,,,METAR,227.0
LZIB 010630Z VRB02KT CAVOK 19/09 Q1018 NOSIG,LZIB,2023-06-01T06:30:00Z,48.17,17.22,19.0,9.0,0,2,,6.21,30.059055,,,,,,TRUE,,,,,CAVOK,,,,,,,,VFR,,,,,,,,,,,,METAR,129.0
LYVR 010630Z 24003KT 190V290 CAVOK 20/16 Q1018 NOSIG,LYVR,2023-06-01T06:30:00Z,45.13,21.32,20.0,16.0,240,3,,6.21,30.059055,,,,,,TRUE,,,,,CAVOK,,,,,,,,VFR,,,,,,,,,,,,METAR,82.0
LYTV 010630Z 00000KT CAVOK 20/17 Q1015 NOSIG,LYTV,2023-06-01T06:30:00Z,42.4,18.72,20.0,17.0,0,0,,6.21,29.970472,,,,,,TRUE,,,,,CAVOK,,,,,,,,VFR,,,,,,,,,,,,METAR,3.0
LYPG 010630Z 00000KT 9999 FEW050 21/15 Q1015 NOSIG,LYPG,2023-06-01T06:30:00Z,42.37,19.25,21.0,15.0,0,0,,6.21,29.970472,,,,,,TRUE,,,,,FEW,5000,,,,,,,VFR,,,,,,,,,,,,METAR,32.0
LYNI 010630Z VRB01KT 9999 FEW003 SCT007 17/15 Q1018 NOSIG,LYNI,2023-06-01T06:30:00Z,43.33,21.85,17.0,15.0,0,1,,6.21,30.059055,,,,,,TRUE,,,,,FEW,300,SCT,700,,,,,VFR,,,,,,,,,,,,METAR,197.0
LYKV 010630Z 00000KT 2000 BR OVC005 17/17 Q1017 BECMG 5000,LYKV,2023-06-01T06:30:00Z,43.82,20.58,17.0,17.0,0,0,,1.24,30.029528,,,,,,,,,,BR,OVC,500,,,,,,,IFR,,,,,,,,,,,,METAR,209.0
LYBT 010630Z VRB02KT 8000 BKN013 19/18 Q1017 BECMG BKN016,LYBT,2023-06-01T06:30:00Z,44.93,20.25,19.0,18.0,0,2,,4.97,30.029528,,,,,,,,,,,BKN,1300,,,,,,,MVFR,,,,,,,,,,,,METAR,78.0
LYBE 010630Z VRB02KT 9999 SCT010 20/17 Q1017 BECMG BKN010,LYBE,2023-06-01T06:30:00Z,44.82,20.28,20.0,17.0,0,2,,6.21,30.029528,,,,,,,,,,,SCT,1000,,,,,,,VFR,,,,,,,,,,,,SPECI,93.0
LWSK 010630Z 00000KT 9999 FEW023 BKN100 18/15 Q1018 NOSIG,LWSK,2023-06-01T06:30:00Z,41.97,21.63,18.0,15.0,0,0,,6.21,30.059055,,,,,,TRUE,,,,,FEW,2300,BKN,10000,,,,,VFR,,,,,,,,,,,,METAR,232.0
LWOH 010630Z 15006KT 9999 FEW033 BKN080 16/13 Q1018,LWOH,2023-06-01T06:30:00Z,41.18,20.75,16.0,13.0,150,6,,6.21,30.059055,,,,,,,,,,,FEW,3300,BKN,8000,,,,,VFR,,,,,,,,,,,,METAR,700.0
LUKK 010630Z VRB03KT CAVOK 21/10 Q1017 NOSIG,LUKK,2023-06-01T06:30:00Z,46.93,28.93,21.0,10.0,0,3,,6.21,30.029528,,,,,,TRUE,,,,,CAVOK,,,,,,,,VFR,,,,,,,,,,,,METAR,102.0
LRTR 010630Z 11007KT CAVOK 19/16 Q1017 NOSIG,LRTR,2023-06-01T06:30:00Z,45.82,21.33,19.0,16.0,110,7,,6.21,30.029528,,,,,,TRUE,,,,,CAVOK,,,,,,,,VFR,,,,,,,,,,,,METAR,104.0
LRTM 010630Z VRB02KT CAVOK 18/15 Q1018,LRTM,2023-06-01T06:30:00Z,46.47,24.42,18.0,15.0,0,2,,6.21,30.059055,,,,,,,,,,,CAVOK,,,,,,,,VFR,,,,,,,,,,,,METAR,289.0
LRTC 010630Z 34004KT 300V030 CAVOK 23/11 Q1016,LRTC,2023-06-01T06:30:00Z,45.07,28.72,23.0,11.0,340,4,,6.21,30.0,,,,,,,,,,,CAVOK,,,,,,,,VFR,,,,,,,,,,,,METAR,52.0
LRSV 010630Z VRB01KT CAVOK 22/10 Q1018,LRSV,2023-06-01T06:30:00Z,47.68,26.35,22.0,10.0,0,1,,6.21,30.059055,,,,,,,,,,,CAVOK,,,,,,,,VFR,,,,,,,,,,,,METAR,406.0
LRSM 010630Z 22006KT CAVOK 20/13 Q1017,LRSM,2023-06-01T06:30:00Z,47.7,22.88,20.0,13.0,220,6,,6.21,30.029528,,,,,,,,,,,CAVOK,,,,,,,,VFR,,,,,,,,,,,,METAR,123.0
LRSB 010630Z 16001KT CAVOK 18/13 Q1019,LRSB,2023-06-01T06:30:00Z,45.78,24.08,18.0,13.0,160,1,,6.21,30.088583,,,,,,,,,,,CAVOK,,,,,,,,VFR,,,,,,,,,,,,METAR,442.0
LROP 010630Z VRB01KT CAVOK 20/14 Q1017 NOSIG,LROP,2023-06-01T06:30:00Z,44.57,26.1,20.0,14.0,0,1,,6.21,30.029528,,,,,,TRUE,,,,,CAVOK,,,,,,,,VFR,,,,,,,,,,,,METAR,92.0
LROD 010630Z 23003KT 130V280 CAVOK 19/13 Q1018,LROD,2023-06-01T06:30:00Z,47.03,21.88,19.0,13.0,230,3,,6.21,30.059055,,,,,,,,,,,CAVOK,,,,,,,,VFR,,,,,,,,,,,,METAR,132.0
LRIA 010630Z 24003KT 140V290 CAVOK 20/10 Q1018,LRIA,2023-06-01T06:30:00Z,47.17,27.62,20.0,10.0,240,3,,6.21,30.059055,,,,,,,,,,,CAVOK,,,,,,,,VFR,,,,,,,,,,,,METAR,71.0
LRCV 010630Z 03004KT CAVOK 19/14 Q1017,LRCV,2023-06-01T06:30:00Z,44.32,23.88,19.0,14.0,30,4,,6.21,30.029528,,,,,,,,,,,CAVOK,,,,,,,,VFR,,,,,,,,,,,,METAR,192.0
LRCL 010630Z 06001KT CAVOK 20/11 Q1018,LRCL,2023-06-01T06:30:00Z,46.78,23.68,20.0,11.0,60,1,,6.21,30.059055,,,,,,,,,,,CAVOK,,,,,,,,VFR,,,,,,,,,,,,METAR,313.0
LRCK 010630Z 32005KT 290V360 CAVOK 23/14 Q1016 NOSIG,LRCK,2023-06-01T06:30:00Z,44.37,28.48,23.0,14.0,320,5,,6.21,30.0,,,,,,TRUE,,,,,CAVOK,,,,,,,,VFR,,,,,,,,,,,,METAR,108.0
LRBS 010630Z VRB01KT CAVOK 21/12 Q1018 NOSIG,LRBS,2023-06-01T06:30:00Z,44.5,26.08,21.0,12.0,0,1,,6.21,30.059055,,,,,,TRUE,,,,,CAVOK,,,,,,,,VFR,,,,,,,,,,,,METAR,91.0
LRBM 010630Z 15003KT 090V190 CAVOK 20/13 Q1018,LRBM,2023-06-01T06:30:00Z,47.67,23.47,20.0,13.0,150,3,,6.21,30.059055,,,,,,,,,,,CAVOK,,,,,,,,VFR,,,,,,,,,,,,METAR,180.0
LRBC 010630Z 03003KT 360V070 CAVOK 19/11 Q1018,LRBC,2023-06-01T06:30:00Z,46.52,26.92,19.0,11.0,30,3,,6.21,30.059055,,,,,,,,,,,CAVOK,,,,,,,,VFR,,,,,,,,,,,,METAR,183.0
LRAR 010630Z 11004KT 080V140 CAVOK 19/15 Q1017,LRAR,2023-06-01T06:30:00Z,46.18,21.27,19.0,15.0,110,4,,6.21,30.029528,,,,,,,,,,,CAVOK,,,,,,,,VFR,,,,,,,,,,,,METAR,102.0
LQTZ 010630Z 36003KT 290V070 3000 BR BKN004 16/16 Q1018,LQTZ,2023-06-01T06:30:00Z,44.47,18.73,16.0,16.0,360,3,,1.86,30.059055,,,,,,,,,,BR,BKN,400,,,,,,,LIFR,,,,,,,,,,,,METAR,242.0
LQSA 010630Z VRB02KT 9999 FEW010 SCT040 BKN055 16/16 Q1018 NOSIG,LQSA,2023-06-01T06:30:00Z,43.82,18.32,16.0,16.0,0,2,,6.21,30.059055,,,,,,TRUE,,,,,FEW,1000,SCT,4000,BKN,5500,,,VFR,,,,,,,,,,,,METAR,505.0
LQMO 010630Z 15004KT 110V190 9999 FEW045 20/13 Q1014,LQMO,2023-06-01T06:30:00Z,43.28,17.83,20.0,13.0,150,4,,6.21,29.940945,,,,,,,,,,,FEW,4500,,,,,,,VFR,,,,,,,,,,,,METAR,49.0
LQBK 010630Z VRB02KT 9999 FEW015 SCT024 19/18 Q1018 NOSIG,LQBK,2023-06-01T06:30:00Z,44.93,17.3,19.0,18.0,0,2,,6.21,30.059055,,,,,,TRUE,,,,,FEW,1500,SCT,2400,,,,,VFR,,,,,,,,,,,,METAR,114.0
LPPT 010630Z 30004KT 9999 FEW010 15/14 Q1013,LPPT,2023-06-01T06:30:00Z,38.77,-9.13,15.0,14.0,300,4,,6.21,29.911417,,,,,,,,,,,FEW,1000,,,,,,,VFR,,,,,,,,,,,,METAR,98.0
LPPS 010630Z 26003KT 140V290 9999 SCT015 19/16 Q1010,LPPS,2023-06-01T06:30:00Z,33.07,-16.35,19.0,16.0,260,3,,6.21,29.822834,,,,,,,,,,,SCT,1500,,,,,,,VFR,,,,,,,,,,,,METAR,89.0
LPPR 010630Z 00000KT 4500 BR FEW005 15/15 Q1013,LPPR,2023-06-01T06:30:00Z,41.23,-8.68,15.0,15.0,0,0,,2.8,29.911417,,,,,,,,,,BR,FEW,500,,,,,,,IFR,,,,,,,,,,,,METAR,64.0
LPPD 010630Z 35005KT 320V020 9999 FEW015 16/13 Q1014,LPPD,2023-06-01T06:30:00Z,37.73,-25.68,16.0,13.0,350,5,,6.21,29.940945,,,,,,,,,,,FEW,1500,,,,,,,VFR,,,,,,,,,,,,METAR,62.0
LPMA 010630Z 00000KT 9999 SCT014 FEW016TCU 19/15 Q1010,LPMA,2023-06-01T06:30:00Z,32.7,-16.77,19.0,15.0,0,0,,6.21,29.822834,,,,,,,,,,,SCT,1400,FEW,1600,,,,,VFR,,,,,,,,,,,,METAR,54.0
LPHR 010630Z 05003KT 350V110 9999 FEW015 BKN070 17/15 Q1015,LPHR,2023-06-01T06:30:00Z,38.52,-28.72,17.0,15.0,50,3,,6.21,29.970472,,,,,,,,,,,FEW,1500,BKN,7000,,,,,VFR,,,,,,,,,,,,METAR,39.0
LPFR 010630Z VRB01KT CAVOK 20/16 Q1011,LPFR,2023-06-01T06:30:00Z,37.02,-7.97,20.0,16.0,0,1,,6.21,29.852362,,,,,,,,,,,CAVOK,,,,,,,,VFR,,,,,,,,,,,,METAR,3.0
LPFL 010630Z 15010KT 9999 SCT008 18/16 Q1014,LPFL,2023-06-01T06:30:00Z,39.45,-31.12,18.0,16.0,150,10,,6.21,29.940945,,,,,,,,,,,SCT,800,,,,,,,VFR,,,,,,,,,,,,METAR,35.0
LPCS 010630Z 02006KT CAVOK 16/14 Q1013,LPCS,2023-06-01T06:30:00Z,38.73,-9.35,16.0,14.0,20,6,,6.21,29.911417,,,,,,,,,,,CAVOK,,,,,,,,VFR,,,,,,,,,,,,METAR,99.0
LPAZ 010630Z 01005KT 9999 FEW012 17/15 Q1014,LPAZ,2023-06-01T06:30:00Z,36.97,-25.17,17.0,15.0,10,5,,6.21,29.940945,,,,,,,,,,,FEW,1200,,,,,,,VFR,,,,,,,,,,,,METAR,96.0
LKVO 010630Z 29003KT 240V350 CAVOK 15/08 Q1019,LKVO,2023-06-01T06:30:00Z,50.22,14.4,15.0,8.0,290,3,,6.21,30.088583,,,,,,,,,,,CAVOK,,,,,,,,VFR,,,,,,,,,,,,METAR,275.0
LKTB 010630Z VRB02KT CAVOK 17/08 Q1018 NOSIG,LKTB,2023-06-01T06:30:00Z,49.15,16.68,17.0,8.0,0,2,,6.21,30.059055,,,,,,TRUE,,,,,CAVOK,,,,,,,,VFR,,,,,,,,,,,,METAR,233.0
LKPR 010630Z 27003KT 230V310 CAVOK 17/08 Q1019 NOSIG,LKPR,2023-06-01T06:30:00Z,50.1,14.27,17.0,8.0,270,3,,6.21,30.088583,,,,,,TRUE,,,,,CAVOK,,,,,,,,VFR,,,,,,,,,,,,METAR,364.0
LKPD 010630Z VRB01KT CAVOK 15/09 Q1018 NOSIG RMK BLU BLU,LKPD,2023-06-01T06:30:00Z,50.02,15.73,15.0,9.0,0,1,,6.21,30.059055,,,,,,TRUE,,,,,CAVOK,,,,,,,,VFR,,,,,,,,,,,,METAR,226.0
LKNA 010630Z 33003KT 300V010 CAVOK 17/09 Q1019 NOSIG RMK BLU BLU,LKNA,2023-06-01T06:30:00Z,49.17,16.12,17.0,9.0,330,3,,6.21,30.088583,,,,,,TRUE,,,,,CAVOK,,,,,,,,VFR,,,,,,,,,,,,METAR,460.0
LKMT 010630Z 25003KT 200V280 CAVOK 16/10 Q1018 NOSIG,LKMT,2023-06-01T06:30:00Z,49.68,18.12,16.0,10.0,250,3,,6.21,30.059055,,,,,,TRUE,,,,,CAVOK,,,,,,,,VFR,,,,,,,,,,,,METAR,251.0
LKKV 010630Z VRB02KT CAVOK 17/06 Q1019,LKKV,2023-06-01T06:30:00Z,50.2,12.92,17.0,6.0,0,2,,6.21,30.088583,,,,,,,,,,,CAVOK,,,,,,,,VFR,,,,,,,,,,,,METAR,600.0
LKCV 010630Z VRB02KT CAVOK 16/10 Q1018 NOSIG RMK BLU BLU,LKCV,2023-06-01T06:30:00Z,49.93,15.38,16.0,10.0,0,2,,6.21,30.059055,,,,,,TRUE,,,,,CAVOK,,,,,,,,VFR,,,,,,,,,,,,METAR,234.0
LJPZ 010630Z VRB01KT CAVOK 21/14 Q1016,LJPZ,2023-06-01T06:30:00Z,45.47,13.62,21.0,14.0,0,1,,6.21,30.0,,,,,,,,,,,CAVOK,,,,,,,,VFR,,,,,,,,,,,,METAR,2.0
LJMB 010630Z 36004KT 9999 FEW025 20/14 Q1018,LJMB,2023-06-01T06:30:00Z,46.47,15.67,20.0,14.0,360,4,,6.21,30.059055,,,,,,,,,,,FEW,2500,,,,,,,VFR,,,,,,,,,,,,METAR,263.0
LJLJ 010630Z VRB01KT 9999 FEW050 18/13 Q1018 NOSIG,LJLJ,2023-06-01T06:30:00Z,46.22,14.47,18.0,13.0,0,1,,6.21,30.059055,,,,,,TRUE,,,,,FEW,5000,,,,,,,VFR,,,,,,,,,,,,METAR,363.0
LJCE 010630Z 27004KT 230V290 CAVOK 18/15 Q1018 RMK BLU,LJCE,2023-06-01T06:30:00Z,45.9,15.52,18.0,15.0,270,4,,6.21,30.059055,,,,,,,,,,,CAVOK,,,,,,,,VFR,,,,,,,,,,,,METAR,153.0
LHBP 010630Z 10006KT CAVOK 21/08 Q1018 NOSIG,LHBP,2023-06-01T06:30:00Z,47.43,19.27,21.0,8.0,100,6,,6.21,30.059055,,,,,,TRUE,,,,,CAVOK,,,,,,,,VFR,,,,,,,,,,,,METAR,141.0
LFYR 010630Z AUTO 06004KT 360V100 CAVOK 18/11 Q1017 NOSIG,LFYR,2023-06-01T06:30:00Z,47.32,1.68,18.0,11.0,60,4,,6.21,30.029528,,,TRUE,,,TRUE,,,,,CAVOK,,,,,,,,VFR,,,,,,,,,,,,METAR,83.0
LFVP 010630Z AUTO 03007KT CAVOK 05/05 Q1015,LFVP,2023-06-01T06:30:00Z,46.77,-56.18,5.0,5.0,30,7,,6.21,29.970472,,,TRUE,,,,,,,,CAVOK,,,,,,,,VFR,,,,,,,,,,,,METAR,5.0
LFTW 010630Z AUTO 03005KT 350V060 CAVOK 19/15 Q1016 NOSIG,LFTW,2023-06-01T06:30:00Z,43.75,4.42,19.0,15.0,30,5,,6.21,30.0,,,TRUE,,,TRUE,,,,,CAVOK,,,,,,,,VFR,,,,,,,,,,,,METAR,91.0
LFTH 010630Z AUTO VRB03KT CAVOK 22/15 Q1015 NOSIG,LFTH,2023-06-01T06:30:00Z,43.1,6.15,22.0,15.0,0,3,,6.21,29.970472,,,TRUE,,,TRUE,,,,,CAVOK,,,,,,,,VFR,,,,,,,,,,,,METAR,3.0
LFSX 010630Z AUTO 00000KT CAVOK 17/M40 Q1018,LFSX,2023-06-01T06:30:00Z,47.77,6.35,17.0,-40.0,0,0,,6.21,30.059055,,,TRUE,,,,,,,,CAVOK,,,,,,,,VFR,,,,,,,,,,,,METAR,266.0
LFST 010630Z AUTO 01005KT 330V030 CAVOK 19/10 Q1018 NOSIG,LFST,2023-06-01T06:30:00Z,48.53,7.63,19.0,10.0,10,5,,6.21,30.059055,,,TRUE,,,TRUE,,,,,CAVOK,,,,,,,,VFR,,,,,,,,,,,,METAR,149.0
LFSO 010630Z AUTO 01003KT 320V050 CAVOK 16/09 Q1019 NOSIG,LFSO,2023-06-01T06:30:00Z,48.57,5.97,16.0,9.0,10,3,,6.21,30.088583,,,TRUE,,,TRUE,,,,,CAVOK,,,,,,,,VFR,,,,,,,,,,,,METAR,328.0
LFSN 010630Z AUTO 04007KT 360V060 CAVOK 18/09 Q1019,LFSN,2023-06-01T06:30:00Z,48.68,6.22,18.0,9.0,40,7,,6.21,30.088583,,,TRUE,,,,,,,,CAVOK,,,,,,,,VFR,,,,,,,,,,,,METAR,214.0
LFSM 010630Z AUTO VRB01KT CAVOK 18/09 Q1018,LFSM,2023-06-01T06:30:00Z,47.48,6.78,18.0,9.0,0,1,,6.21,30.059055,,,TRUE,,,,,,,,CAVOK,,,,,,,,VFR,,,,,,,,,,,,METAR,317.0
LFSL 010630Z AUTO 12004KT 100V160 CAVOK 17/14 Q1016 NOSIG,LFSL,2023-06-01T06:30:00Z,45.03,1.48,17.0,14.0,120,4,,6.21,30.0,,,TRUE,,,TRUE,,,,,CAVOK,,,,,,,,VFR,,,,,,,,,,,,METAR,300.0
LFSG 010630Z AUTO 02006KT CAVOK 16/10 Q1019,LFSG,2023-06-01T06:30:00Z,48.33,6.07,16.0,10.0,20,6,,6.21,30.088583,,,TRUE,,,,,,,,CAVOK,,,,,,,,VFR,,,,,,,,,,,,METAR,320.0
LFSD 010630Z AUTO 02004KT CAVOK 17/09 Q1018,LFSD,2023-06-01T06:30:00Z,47.27,5.08,17.0,9.0,20,4,,6.21,30.059055,,,TRUE,,,,,,,,CAVOK,,,,,,,,VFR,,,,,,,,,,,,METAR,218.0
LFSB 010630Z AUTO VRB01KT CAVOK 17/09 Q1018 NOSIG,LFSB,2023-06-01T06:30:00Z,47.6,7.52,17.0,9.0,0,1,,6.21,30.059055,,,TRUE,,,TRUE,,,,,CAVOK,,,,,,,,VFR,,,,,,,,,,,,METAR,262.0
LFRZ 010630Z AUTO 03008KT 010V070 CAVOK 17/13 Q1017 NOSIG,LFRZ,2023-06-01T06:30:00Z,47.32,-2.17,17.0,13.0,30,8,,6.21,30.029528,,,TRUE,,,TRUE,,,,,CAVOK,,,,,,,,VFR,,,,,,,,,,,,METAR,2.0
LFRV 010630Z AUTO 03014KT 9000 NSC 14/12 Q1018,LFRV,2023-06-01T06:30:00Z,47.72,-2.72,14.0,12.0,30,14,,5.59,30.059055,,,TRUE,,,,,,,,CLR,,,,,,,,VFR,,,,,,,,,,,,METAR,132.0
LFRU 010630Z AUTO 06010KT 5000 BR OVC005 13/12 Q1020,LFRU,2023-06-01T06:30:00Z,48.6,-3.82,13.0,12.0,60,10,,3.11,30.11811,,,TRUE,,,,,,,BR,OVC,500,,,,,,,IFR,,,,,,,,,,,,METAR,85.0
LFRT 010630Z AUTO 04009KT 5000 BR OVC005 13/12 Q1020,LFRT,2023-06-01T06:30:00Z,48.53,-2.85,13.0,12.0,40,9,,3.11,30.11811,,,TRUE,,,,,,,BR,OVC,500,,,,,,,IFR,,,,,,,,,,,,METAR,134.0
LFRS 010630Z AUTO 05010KT 010V090 CAVOK 17/12 Q1016 NOSIG,LFRS,2023-06-01T06:30:00Z,47.17,-1.6,17.0,12.0,50,10,,6.21,30.0,,,TRUE,,,TRUE,,,,,CAVOK,,,,,,,,VFR,,,,,,,,,,,,METAR,26.0
LFRQ 010630Z AUTO 03011KT CAVOK 15/12 Q1018 NOSIG,LFRQ,2023-06-01T06:30:00Z,47.97,-4.17,15.0,12.0,30,11,,6.21,30.059055,,,TRUE,,,TRUE,,,,,CAVOK,,,,,,,,VFR,,,,,,,,,,,,METAR,94.0
LFRO 010630Z AUTO 07010KT 360V110 6000 OVC006 13/12 Q1021,LFRO,2023-06-01T06:30:00Z,48.75,-3.47,13.0,12.0,70,10,,3.73,30.147638,,,TRUE,,,,,,,,OVC,600,,,,,,,IFR,,,,,,,,,,,,METAR,86.0
LFRN 010630Z AUTO 02008KT CAVOK 15/12 Q1018 NOSIG,LFRN,2023-06-01T06:30:00Z,48.07,-1.73,15.0,12.0,20,8,,6.21,30.059055,,,TRUE,,,TRUE,,,,,CAVOK,,,,,,,,VFR,,,,,,,,,,,,METAR,35.0
LFRM 010630Z AUTO 02010KT CAVOK 17/12 Q1018 NOSIG,LFRM,2023-06-01T06:30:00Z,47.95,0.2,17.0,12.0,20,10,,6.21,30.059055,,,TRUE,,,TRUE,,,,,CAVOK,,,,,,,,VFR,,,,,,,,,,,,METAR,51.0
LFRL 010630Z AUTO 06015KT 6000 OVC006 13/12 Q1019 TEMPO 4000 BR BECMG 05015G25KT SCT020,LFRL,2023-06-01T06:30:00Z,48.27,-4.43,13.0,12.0,60,15,,3.73,30.088583,,,TRUE,,,,,,,,OVC,600,,,,,,,IFR,,,,,,,,,,,,METAR,80.0
LFRK 010630Z AUTO 02006KT 350V060 4700 BR OVC007 14/12 Q1021 BECMG CAVOK,LFRK,2023-06-01T06:30:00Z,49.17,-0.45,14.0,12.0,20,6,,2.92,30.147638,,,TRUE,,,,,,,BR,OVC,700,,,,,,,IFR,,,,,,,,,,,,METAR,66.0
LFRJ 010630Z AUTO 07013KT 6000 OVC005 13/12 Q1020 BECMG NSC,LFRJ,2023-06-01T06:30:00Z,48.52,-4.15,13.0,12.0,70,13,,3.73,30.11811,,,TRUE,,,,,,,,OVC,500,,,,,,,IFR,,,,,,,,,,,,METAR,109.0
LFRI 010630Z AUTO 07009KT CAVOK 18/11 Q1016 NOSIG,LFRI,2023-06-01T06:30:00Z,46.7,-1.37,18.0,11.0,70,9,,6.21,30.0,,,TRUE,,,TRUE,,,,,CAVOK,,,,,,,,VFR,,,,,,,,,,,,METAR,89.0
LFRH 010630Z AUTO 04013KT CAVOK 16/12 Q1018 NOSIG,LFRH,2023-06-01T06:30:00Z,47.77,-3.45,16.0,12.0,40,13,,6.21,30.059055,,,TRUE,,,TRUE,,,,,CAVOK,,,,,,,,VFR,,,,,,,,,,,,METAR,46.0
LFRG 010630Z AUTO 05008KT 010V100 5000 BR OVC007 13/12 Q1021 BECMG NSC,LFRG,2023-06-01T06:30:00Z,49.37,0.15,13.0,12.0,50,8,,3.11,30.147638,,,TRUE,,,,,,,BR,OVC,700,,,,,,,IFR,,,,,,,,,,,,METAR,146.0
LFRD 010630Z AUTO 04011KT 7000 OVC009 14/12 Q1020 BECMG SCT012,LFRD,2023-06-01T06:30:00Z,48.58,-2.07,14.0,12.0,40,11,,4.35,30.11811,,,TRUE,,,,,,,,OVC,900,,,,,,,IFR,,,,,,,,,,,,METAR,56.0
LFRC 010630Z AUTO 06015KT 3800 BR OVC003 11/10 Q1023 BECMG 06015G25KT 9999 NSW,LFRC,2023-06-01T06:30:00Z,49.63,-1.47,11.0,10.0,60,15,,2.36,30.206694,,,TRUE,,,,,,,BR,OVC,300,,,,,,,LIFR,,,,,,,,,,,,METAR,137.0
LFRB 010630Z AUTO 05015KT 5000 BR OVC004 13/12 Q1020 TEMPO 05015G25KT BECMG SCT020,LFRB,2023-06-01T06:30:00Z,48.45,-4.42,13.0,12.0,50,15,,3.11,30.11811,,,TRUE,,,,,,,BR,OVC,400,,,,,,,LIFR,,,,,,,,,,,,METAR,91.0
LFQQ 010630Z AUTO 01009KT 6000 BKN009 13/11 Q1023 BECMG SCT015,LFQQ,2023-06-01T06:30:00Z,50.57,3.1,13.0,11.0,10,9,,3.73,30.206694,,,TRUE,,,,,,,,BKN,900,,,,,,,IFR,,,,,,,,,,,,METAR,43.0
LFQG 010630Z AUTO 14004KT CAVOK 18/13 Q1017,LFQG,2023-06-01T06:30:00Z,47.0,3.1,18.0,13.0,140,4,,6.21,30.029528,,,TRUE,,,,,,,,CAVOK,,,,,,,,VFR,,,,,,,,,,,,METAR,172.0
LFQB 010630Z AUTO 32004KT 290V360 CAVOK 16/11 Q1018,LFQB,2023-06-01T06:30:00Z,48.32,4.02,16.0,11.0,320,4,,6.21,30.059055,,,TRUE,,,,,,,,CAVOK,,,,,,,,VFR,,,,,,,,,,,,METAR,107.0
LFQA 010630Z AUTO 29004KT 260V320 CAVOK 17/12 Q1019,LFQA,2023-06-01T06:30:00Z,49.2,4.15,17.0,12.0,290,4,,6.21,30.088583,,,TRUE,,,,,,,,CAVOK,,,,,,,,VFR,,,,,,,,,,,,METAR,92.0
LFPV 010630Z AUTO 02010KT CAVOK 16/12 Q1019 NOSIG,LFPV,2023-06-01T06:30:00Z,48.77,2.2,16.0,12.0,20,10,,6.21,30.088583,,,TRUE,,,TRUE,,,,,CAVOK,,,,,,,,VFR,,,,,,,,,,,,METAR,171.0
LFPT 010630Z AUTO 04008KT 7000 BKN012 16/12 Q1020,LFPT,2023-06-01T06:30:00Z,49.1,2.03,16.0,12.0,40,8,,4.35,30.11811,,,TRUE,,,,,,,,BKN,1200,,,,,,,MVFR,,,,,,,,,,,,METAR,91.0
LFPO 010630Z 01010KT CAVOK 17/12 Q1019 NOSIG,LFPO,2023-06-01T06:30:00Z,48.72,2.38,17.0,12.0,10,10,,6.21,30.088583,,,,,,TRUE,,,,,CAVOK,,,,,,,,VFR,,,,,,,,,,,,METAR,88.0
LFPN 010630Z AUTO 03010KT 350V050 CAVOK 16/12 Q1019 NOSIG,LFPN,2023-06-01T06:30:00Z,48.75,2.12,16.0,12.0,30,10,,6.21,30.088583,,,TRUE,,,TRUE,,,,,CAVOK,,,,,,,,VFR,,,,,,,,,,,,METAR,152.0
LFPM 010630Z AUTO 02006KT 350V060 CAVOK 18/11 Q1019,LFPM,2023-06-01T06:30:00Z,48.62,2.67,18.0,11.0,20,6,,6.21,30.088583,,,TRUE,,,,,,,,CAVOK,,,,,,,,VFR,,,,,,,,,,,,METAR,91.0
LFPG 010630Z 01010KT 340V060 7000 NSC 16/13 Q1020 NOSIG,LFPG,2023-06-01T06:30:00Z,49.02,2.53,16.0,13.0,10,10,,4.35,30.11811,,,,,,TRUE,,,,,CLR,,,,,,,,MVFR,,,,,,,,,,,,METAR,107.0
LFPB 010630Z AUTO 02007KT 340V050 7000 NSC 15/12 Q1020 NOSIG,LFPB,2023-06-01T06:30:00Z,48.97,2.42,15.0,12.0,20,7,,4.35,30.11811,,,TRUE,,,TRUE,,,,,CLR,,,,,,,,MVFR,,,,,,,,,,,,METAR,50.0
LFOZ 010630Z AUTO 07007KT CAVOK 17/10 Q1018,LFOZ,2023-06-01T06:30:00Z,47.9,2.17,17.0,10.0,70,7,,6.21,30.059055,,,TRUE,,,,,,,,CAVOK,,,,,,,,VFR,,,,,,,,,,,,METAR,121.0
LFOV 010630Z AUTO 02012KT CAVOK 16/12 Q1018,LFOV,2023-06-01T06:30:00Z,48.03,-0.75,16.0,12.0,20,12,,6.21,30.059055,,,TRUE,,,,,,,,CAVOK,,,,,,,,VFR,,,,,,,,,,,,METAR,99.0
LFOP 010630Z AUTO 03013KT 6000 BKN009 14/12 Q1021 BECMG SCT015,LFOP,2023-06-01T06:30:00Z,49.37,1.17,14.0,12.0,30,13,,3.73,30.147638,,,TRUE,,,,,,,,BKN,900,,,,,,,IFR,,,,,,,,,,,,METAR,149.0
LFOK 010630Z AUTO 03011KT CAVOK 16/11 Q1019 NOSIG,LFOK,2023-06-01T06:30:00Z,48.78,4.15,16.0,11.0,30,11,,6.21,30.088583,,,TRUE,,,TRUE,,,,,CAVOK,,,,,,,,VFR,,,,,,,,,,,,METAR,166.0
LFOJ 010630Z AUTO 06010KT CAVOK 16/12 Q1018 NOSIG,LFOJ,2023-06-01T06:30:00Z,47.98,1.75,16.0,12.0,60,10,,6.21,30.059055,,,TRUE,,,TRUE,,,,,CAVOK,,,,,,,,VFR,,,,,,,,,,,,METAR,122.0
LFOH 010630Z AUTO 06012KT 030V090 5000 BR OVC006 13/11 Q1021 BECMG BKN015,LFOH,2023-06-01T06:30:00Z,49.52,0.08,13.0,11.0,60,12,,3.11,30.147638,,,TRUE,,,,,,,BR,OVC,600,,,,,,,IFR,,,,,,,,,,,,METAR,87.0
LFOE 010630Z AUTO 05010KT 6000 SCT009 14/12 Q1020 NOSIG,LFOE,2023-06-01T06:30:00Z,49.02,1.22,14.0,12.0,50,10,,3.73,30.11811,,,TRUE,,,TRUE,,,,,SCT,900,,,,,,,MVFR,,,,,,,,,,,,METAR,132.0
LFOB 010630Z AUTO 02010KT 6000 OVC008 14/12 Q1021 BECMG SCT015,LFOB,2023-06-01T06:30:00Z,49.47,2.12,14.0,12.0,20,10,,3.73,30.147638,,,TRUE,,,,,,,,OVC,800,,,,,,,IFR,,,,,,,,,,,,METAR,99.0
LFOA 010630Z AUTO VRB02KT CAVOK 18/13 Q1017 NOSIG,LFOA,2023-06-01T06:30:00Z,47.05,2.63,18.0,13.0,0,2,,6.21,30.029528,,,TRUE,,,TRUE,,,,,CAVOK,,,,,,,,VFR,,,,,,,,,,,,METAR,174.0
LFMY 010630Z AUTO 06005KT CAVOK 19/14 Q1016 NOSIG,LFMY,2023-06-01T06:30:00Z,43.6,5.1,19.0,14.0,60,5,,6.21,30.0,,,TRUE,,,TRUE,,,,,CAVOK,,,,,,,,VFR,,,,,,,,,,,,METAR,57.0
LFMV 010630Z AUTO VRB02KT CAVOK 17/13 Q1016 NOSIG,LFMV,2023-06-01T06:30:00Z,43.9,4.9,17.0,13.0,0,2,,6.21,30.0,,,TRUE,,,TRUE,,,,,CAVOK,,,,,,,,VFR,,,,,,,,,,,,METAR,33.0
LFMU 010630Z AUTO 04005KT CAVOK 19/14 Q1016 BECMG 12010KT,LFMU,2023-06-01T06:30:00Z,43.32,3.35,19.0,14.0,40,5,,6.21,30.0,,,TRUE,,,,,,,,CAVOK,,,,,,,,VFR,,,,,,,,,,,,METAR,14.0
LFMT 010630Z AUTO 03008KT CAVOK 20/15 Q1016 NOSIG,LFMT,2023-06-01T06:30:00Z,43.57,3.97,20.0,15.0,30,8,,6.21,30.0,,,TRUE,,,TRUE,,,,,CAVOK,,,,,,,,VFR,,,,,,,,,,,,METAR,1.0
LFMP 010630Z AUTO VRB03KT 9999 BKN045 BKN068 18/16 Q1016 NOSIG,LFMP,2023-06-01T06:30:00Z,42.73,2.87,18.0,16.0,0,3,,6.21,30.0,,,TRUE,,,TRUE,,,,,BKN,4500,BKN,6800,,,,,VFR,,,,,,,,,,,,METAR,41.0
LFMO 010630Z AUTO 00000KT CAVOK 18/15 Q1016 NOSIG,LFMO,2023-06-01T06:30:00Z,44.13,4.87,18.0,15.0,0,0,,6.21,30.0,,,TRUE,,,TRUE,,,,,CAVOK,,,,,,,,VFR,,,,,,,,,,,,METAR,56.0
LFMN 010630Z 33012KT CAVOK 19/11 Q1015 NOSIG,LFMN,2023-06-01T06:30:00Z,43.65,7.2,19.0,11.0,330,12,,6.21,29.970472,,,,,,TRUE,,,,,CAVOK,,,,,,,,VFR,,,,,,,,,,,,METAR,4.0
LFML 010630Z AUTO VRB02KT CAVOK 21/12 Q1016 NOSIG,LFML,2023-06-01T06:30:00Z,43.45,5.22,21.0,12.0,0,2,,6.21,30.0,,,TRUE,,,TRUE,,,,,CAVOK,,,,,,,,VFR,,,,,,,,,,,,METAR,20.0
LFMK 010630Z AUTO 07006KT 9999 BKN064 18/17 Q1015 NOSIG,LFMK,2023-06-01T06:30:00Z,43.22,2.32,18.0,17.0,70,6,,6.21,29.970472,,,TRUE,,,TRUE,,,,,BKN,6400,,,,,,,VFR,,,,,,,,,,,,METAR,124.0
LFMI 010630Z AUTO 06005KT CAVOK 19/13 Q1016 NOSIG,LFMI,2023-06-01T06:30:00Z,43.52,4.93,19.0,13.0,60,5,,6.21,30.0,,,TRUE,,,TRUE,,,,,CAVOK,,,,,,,,VFR,,,,,,,,,,,,METAR,20.0
LFMH 010630Z AUTO 00000KT 9999 FEW054 16/12 Q1018,LFMH,2023-06-01T06:30:00Z,45.52,4.28,16.0,12.0,0,0,,6.21,30.059055,,,TRUE,,,,,,,,FEW,5400,,,,,,,VFR,,,,,,,,,,,,METAR,400.0
LFMD 010630Z AUTO 36004KT 310V040 CAVOK 20/12 Q1015 NOSIG,LFMD,2023-06-01T06:30:00Z,43.53,6.95,20.0,12.0,360,4,,6.21,29.970472,,,TRUE,,,TRUE,,,,,CAVOK,,,,,,,,VFR,,,,,,,,,,,,METAR,2.0
LFMC 010630Z AUTO VRB01KT 9999 ////// 17/14 Q1016,LFMC,2023-06-01T06:30:00Z,43.37,6.38,17.0,14.0,0,1,,6.21,30.0,,,TRUE,,,,,,,,,,,,,,,,,,,,,,,,,,,,METAR,79.0
LFLY 010630Z AUTO VRB02KT CAVOK 18/13 Q1018 NOSIG,LFLY,2023-06-01T06:30:00Z,45.72,4.95,18.0,13.0,0,2,,6.21,30.059055,,,TRUE,,,TRUE,,,,,CAVOK,,,,,,,,VFR,,,,,,,,,,,,METAR,197.0
LFLX 010630Z AUTO VRB01KT CAVOK 18/13 Q1017 NOSIG,LFLX,2023-06-01T06:30:00Z,46.87,1.73,18.0,13.0,0,1,,6.21,30.029528,,,TRUE,,,TRUE,,,,,CAVOK,,,,,,,,VFR,,,,,,,,,,,,METAR,157.0
LFLW 010630Z AUTO 09004KT CAVOK 15/13 Q1018 NOSIG,LFLW,2023-06-01T06:30:00Z,44.88,2.42,15.0,13.0,90,4,,6.21,30.059055,,,TRUE,,,TRUE,,,,,CAVOK,,,,,,,,VFR,,,,,,,,,,,,METAR,638.0
LFLV 010630Z AUTO VRB02KT CAVOK 16/13 Q1018,LFLV,2023-06-01T06:30:00Z,46.17,3.38,16.0,13.0,0,2,,6.21,30.059055,,,TRUE,,,,,,,,CAVOK,,,,,,,,VFR,,,,,,,,,,,,METAR,248.0
LFLU 010630Z AUTO VRB03KT CAVOK 15/13 Q1017,LFLU,2023-06-01T06:30:00Z,44.92,4.98,15.0,13.0,0,3,,6.21,30.029528,,,TRUE,,,,,,,,CAVOK,,,,,,,,VFR,,,,,,,,,,,,METAR,162.0
LFLS 010630Z AUTO 08008KT CAVOK 16/13 Q1018 NOSIG,LFLS,2023-06-01T06:30:00Z,45.37,5.32,16.0,13.0,80,8,,6.21,30.059055,,,TRUE,,,TRUE,,,,,CAVOK,,,,,,,,VFR,,,,,,,,,,,,METAR,386.0
LFLP 010630Z AUTO VRB02KT CAVOK 17/12 Q1019 NOSIG,LFLP,2023-06-01T06:30:00Z,45.92,6.1,17.0,12.0,0,2,,6.21,30.088583,,,TRUE,,,TRUE,,,,,CAVOK,,,,,,,,VFR,,,,,,,,,,,,METAR,460.0
LFLN 010630Z AUTO VRB02KT CAVOK 14/13 Q1018 NOSIG,LFLN,2023-06-01T06:30:00Z,46.42,4.02,14.0,13.0,0,2,,6.21,30.059055,,,TRUE,,,TRUE,,,,,CAVOK,,,,,,,,VFR,,,,,,,,,,,,METAR,238.0
LFLL 010630Z 22003KT 190V250 CAVOK 17/13 Q1018 NOSIG,LFLL,2023-06-01T06:30:00Z,45.72,5.07,17.0,13.0,220,3,,6.21,30.059055,,,,,,TRUE,,,,,CAVOK,,,,,,,,VFR,,,,,,,,,,,,METAR,234.0
LFLH 010630Z AUTO VRB01KT CAVOK 18/13 Q1018,LFLH,2023-06-01T06:30:00Z,46.83,4.82,18.0,13.0,0,1,,6.21,30.059055,,,TRUE,,,,,,,,CAVOK,,,,,,,,VFR,,,,,,,,,,,,METAR,190.0
LFLC 010630Z AUTO VRB02KT CAVOK 16/12 Q1018 NOSIG,LFLC,2023-06-01T06:30:00Z,45.78,3.17,16.0,12.0,0,2,,6.21,30.059055,,,TRUE,,,TRUE,,,,,CAVOK,,,,,,,,VFR,,,,,,,,,,,,METAR,325.0
LFLB 010630Z AUTO 00000KT CAVOK 16/14 Q1018 NOSIG,LFLB,2023-06-01T06:30:00Z,45.63,5.87,16.0,14.0,0,0,,6.21,30.059055,,,TRUE,,,TRUE,,,,,CAVOK,,,,,,,,VFR,,,,,,,,,,,,METAR,234.0
LFKS 010630Z AUTO 34004KT 270V030 9999 FEW014 22/16 Q1015,LFKS,2023-06-01T06:30:00Z,41.92,9.4,22.0,16.0,340,4,,6.21,29.970472,,,TRUE,,,,,,,,FEW,1400,,,,,,,VFR,,,,,,,,,,,,METAR,22.0
LFKJ 010630Z AUTO 01004KT 350V060 CAVOK 19/15 Q1015 BECMG 22010KT,LFKJ,2023-06-01T06:30:00Z,41.92,8.8,19.0,15.0,10,4,,6.21,29.970472,,,TRUE,,,,,,,,CAVOK,,,,,,,,VFR,,,,,,,,,,,,METAR,9.0
LFKF 010630Z AUTO 08006KT CAVOK 19/17 Q1015 NOSIG,LFKF,2023-06-01T06:30:00Z,41.5,9.08,19.0,17.0,80,6,,6.21,29.970472,,,TRUE,,,TRUE,,,,,CAVOK,,,,,,,,VFR,,,,,,,,,,,,METAR,15.0
LFKC 010630Z AUTO VRB01KT CAVOK 20/14 Q1015 NOSIG,LFKC,2023-06-01T06:30:00Z,42.52,8.8,20.0,14.0,0,1,,6.21,29.970472,,,TRUE,,,TRUE,,,,,CAVOK,,,,,,,,VFR,,,,,,,,,,,,METAR,38.0
LFKB 010630Z AUTO 00000KT 9999 BKN018 BKN026 21/17 Q1015 TEMPO VRB15KT 3000 TSRA SCT015 BKN040 FEW040CB,LFKB,2023-06-01T06:30:00Z,42.55,9.48,21.0,17.0,0,0,,6.21,29.970472,,,TRUE,,,,,,,,BKN,1800,BKN,2600,,,,,MVFR,,,,,,,,,,,,METAR,7.0
LFJR 010630Z AUTO 06008KT 010V090 CAVOK 17/12 Q1017,LFJR,2023-06-01T06:30:00Z,47.57,-0.32,17.0,12.0,60,8,,6.21,30.029528,,,TRUE,,,,,,,,CAVOK,,,,,,,,VFR,,,,,,,,,,,,METAR,50.0
LFJL 010630Z AUTO 01005KT CAVOK 17/09 Q1019 NOSIG,LFJL,2023-06-01T06:30:00Z,48.97,6.25,17.0,9.0,10,5,,6.21,30.088583,,,TRUE,,,TRUE,,,,,CAVOK,,,,,,,,VFR,,,,,,,,,,,,METAR,259.0
LFGJ 010630Z AUTO VRB02KT CAVOK 17/15 Q1018 NOSIG,LFGJ,2023-06-01T06:30:00Z,47.05,5.43,17.0,15.0,0,2,,6.21,30.059055,,,TRUE,,,TRUE,,,,,CAVOK,,,,,,,,VFR,,,,,,,,,,,,METAR,191.0
LFGA 010630Z AUTO 03007KT 360V070 9999 FEW001 19/08 Q1018,LFGA,2023-06-01T06:30:00Z,48.1,7.35,19.0,8.0,30,7,,6.21,30.059055,,,TRUE,,,,,,,,FEW,100,,,,,,,VFR,,,,,,,,,,,,METAR,191.0
LFCR 010630Z AUTO 10007KT 060V120 CAVOK 17/12 Q1017 NOSIG,LFCR,2023-06-01T06:30:00Z,44.4,2.47,17.0,12.0,100,7,,6.21,30.029528,,,TRUE,,,TRUE,,,,,CAVOK,,,,,,,,VFR,,,,,,,,,,,,METAR,576.0
LFCK 010630Z AUTO 12006KT CAVOK 18/15 Q1016 NOSIG,LFCK,2023-06-01T06:30:00Z,43.55,2.28,18.0,15.0,120,6,,6.21,30.0,,,TRUE,,,TRUE,,,,,CAVOK,,,,,,,,VFR,,,,,,,,,,,,METAR,223.0
LFBZ 010630Z AUTO 09003KT 9000 VCTS SCT019/// BKN060/// OVC070/// ///CB 17/15 Q1015 TEMPO 4000 -TSRA BKN010 SCT050CB,LFBZ,2023-06-01T06:30:00Z,43.47,-1.53,17.0,15.0,90,3,,5.59,29.970472,,,TRUE,,,,,,,VCTS,SCT,1900,BKN,6000,OVC,7000,,,VFR,,,,,,,,,,,,METAR,70.0
LFBY 010630Z AUTO 11004KT 080V150 7000 // ////// 18/17 Q1015,LFBY,2023-06-01T06:30:00Z,43.68,-1.07,18.0,17.0,110,4,,4.35,29.970472,,,TRUE,,,,,,,,,,,,,,,,,,,,,,,,,,,,METAR,32.0
LFBX 010630Z AUTO VRB01KT CAVOK 17/14 Q1016,LFBX,2023-06-01T06:30:00Z,45.2,0.82,17.0,14.0,0,1,,6.21,30.0,,,TRUE,,,,,,,,CAVOK,,,,,,,,VFR,,,,,,,,,,,,METAR,97.0
LFBU 010630Z AUTO 12007KT 070V160 CAVOK 17/13 Q1016 NOSIG,LFBU,2023-06-01T06:30:00Z,45.72,0.22,17.0,13.0,120,7,,6.21,30.0,,,TRUE,,,TRUE,,,,,CAVOK,,,,,,,,VFR,,,,,,,,,,,,METAR,124.0
LFBT 010630Z AUTO 21004KT 190V250 9999 OVC078/// //////CB 14/13 Q1015 TEMPO 4000 SHRA BKN013,LFBT,2023-06-01T06:30:00Z,43.18,0.0,14.0,13.0,210,4,,6.21,29.970472,,,TRUE,,,,,,,,OVC,7800,,,,,,,VFR,,,,,,,,,,,,METAR,359.0
LFBP 010630Z AUTO VRB01KT 9999 -RA FEW008/// BKN023/// BKN060/// ///CB 16/15 Q1015 TEMPO 4000 SHRA BKN008 SCT050TCU,LFBP,2023-06-01T06:30:00Z,43.38,-0.42,16.0,15.0,0,1,,6.21,29.970472,,,TRUE,,,,,,,-RA,FEW,800,BKN,2300,BKN,6000,,,MVFR,,,,,,,,,,,,METAR,182.0
LFBO 010630Z AUTO 13006KT 100V160 9999 -DZ BKN012 BKN025 OVC032 17/15 Q1016 BECMG SCT017 BKN025,LFBO,2023-06-01T06:30:00Z,43.62,1.37,17.0,15.0,130,6,,6.21,30.0,,,TRUE,,,,,,,-DZ,BKN,1200,BKN,2500,OVC,3200,,,MVFR,,,,,,,,,,,,METAR,150.0
LFBM 010630Z AUTO 16001KT 9999 FEW004 BKN018 OVC140 17/16 Q1015 BECMG 4000 SHRA SCT040TCU,LFBM,2023-06-01T06:30:00Z,43.92,-0.5,17.0,16.0,160,1,,6.21,29.970472,,,TRUE,,,,,,,,FEW,400,BKN,1800,OVC,14000,,,MVFR,,,,,,,,,,,,METAR,56.0
LFBL 010630Z AUTO 10006KT 070V130 CAVOK 16/11 Q1017 NOSIG,LFBL,2023-06-01T06:30:00Z,45.87,1.17,16.0,11.0,100,6,,6.21,30.029528,,,TRUE,,,TRUE,,,,,CAVOK,,,,,,,,VFR,,,,,,,,,,,,METAR,402.0
LFBI 010630Z AUTO 12003KT 080V160 CAVOK 18/13 Q1016 NOSIG,LFBI,2023-06-01T06:30:00Z,46.58,0.32,18.0,13.0,120,3,,6.21,30.0,,,TRUE,,,TRUE,,,,,CAVOK,,,,,,,,VFR,,,,,,,,,,,,METAR,117.0
LFBH 010630Z AUTO 09006KT CAVOK 18/14 Q1015 NOSIG,LFBH,2023-06-01T06:30:00Z,46.18,-1.2,18.0,14.0,90,6,,6.21,29.970472,,,TRUE,,,TRUE,,,,,CAVOK,,,,,,,,VFR,,,,,,,,,,,,METAR,18.0
LFBG 010630Z AUTO 14007KT CAVOK 19/14 Q1015 NOSIG,LFBG,2023-06-01T06:30:00Z,45.67,-0.32,19.0,14.0,140,7,,6.21,29.970472,,,TRUE,,,TRUE,,,,,CAVOK,,,,,,,,VFR,,,,,,,,,,,,METAR,28.0
LFBF 010630Z AUTO VRB02KT 9999 BKN008 BKN013 OVC021 17/16 Q1016,LFBF,2023-06-01T06:30:00Z,43.53,1.37,17.0,16.0,0,2,,6.21,30.0,,,TRUE,,,,,,,,BKN,800,BKN,1300,OVC,2100,,,IFR,,,,,,,,,,,,METAR,159.0
LFBE 010630Z AUTO VRB03KT 9999 FEW003 16/16 Q1016 NOSIG,LFBE,2023-06-01T06:30:00Z,44.82,0.52,16.0,16.0,0,3,,6.21,30.0,,,TRUE,,,TRUE,,,,,FEW,300,,,,,,,VFR,,,,,,,,,,,,METAR,49.0
LFBD 010630Z AUTO 14008KT 9999 OVC019 18/14 Q1015 NOSIG,LFBD,2023-06-01T06:30:00Z,44.82,-0.7,18.0,14.0,140,8,,6.21,29.970472,,,TRUE,,,TRUE,,,,,OVC,1900,,,,,,,MVFR,,,,,,,,,,,,METAR,48.0
LFBC 010630Z AUTO 14009KT 9999 BKN009 BKN022 OVC027 17/16 Q1014 BECMG SCT008 BKN020,LFBC,2023-06-01T06:30:00Z,44.52,-1.12,17.0,16.0,140,9,,6.21,29.940945,,,TRUE,,,,,,,,BKN,900,BKN,2200,OVC,2700,,,IFR,,,,,,,,,,,,METAR,22.0
LFBA 010630Z AUTO 09006KT 9999 FEW009 SCT110 17/16 Q1015 NOSIG,LFBA,2023-06-01T06:30:00Z,44.17,0.6,17.0,16.0,90,6,,6.21,29.970472,,,TRUE,,,TRUE,,,,,FEW,900,SCT,11000,,,,,VFR,,,,,,,,,,,,METAR,68.0
LFAT 010630Z AUTO 05010KT 020V080 9999 OVC010 13/10 Q1023 BECMG SCT015,LFAT,2023-06-01T06:30:00Z,50.52,1.62,13.0,10.0,50,10,,6.21,30.206694,,,TRUE,,,,,,,,OVC,1000,,,,,,,MVFR,,,,,,,,,,,,METAR,2.0
LFAQ 010630Z AUTO 04010KT 010V070 7000 BKN008 14/12 Q1021 BECMG 3500 BR SCT015,LFAQ,2023-06-01T06:30:00Z,49.97,2.7,14.0,12.0,40,10,,4.35,30.147638,,,TRUE,,,,,,,,BKN,800,,,,,,,IFR,,,,,,,,,,,,METAR,107.0
LFAC 010630Z AUTO 04010KT 9999 OVC011 12/10 Q1024,LFAC,2023-06-01T06:30:00Z,50.97,1.95,12.0,10.0,40,10,,6.21,30.236221,,,TRUE,,,,,,,,OVC,1100,,,,,,,MVFR,,,,,,,,,,,,METAR,3.0
LEZL 010630Z 05004KT 010V080 CAVOK 19/16 Q1012 NOSIG,LEZL,2023-06-01T06:30:00Z,37.42,-5.9,19.0,16.0,50,4,,6.21,29.88189,,,,,,TRUE,,,,,CAVOK,,,,,,,,VFR,,,,,,,,,,,,METAR,26.0
LEZG 010630Z 08004KT 8000 -RA FEW025TCU SCT060 BKN075 16/16 Q1015,LEZG,2023-06-01T06:30:00Z,41.67,-1.02,16.0,16.0,80,4,,4.97,29.970472,,,,,,,,,,-RA,FEW,2500,SCT,6000,BKN,7500,,,MVFR,,,,,,,,,,,,METAR,245.0
LEXJ 010630Z 21004KT 180V250 9000 SCT018 SCT024 17/15 Q1015,LEXJ,2023-06-01T06:30:00Z,43.42,-3.82,17.0,15.0,210,4,,5.59,29.970472,,,,,,,,,,,SCT,1800,SCT,2400,,,,,VFR,,,,,,,,,,,,METAR,1.0
LEVX 010630Z VRB01KT 7000 NSC 15/15 Q1013 TEMPO 4000 BR,LEVX,2023-06-01T06:30:00Z,42.23,-8.62,15.0,15.0,0,1,,4.35,29.911417,,,,,,,,,,,CLR,,,,,,,,MVFR,,,,,,,,,,,,METAR,253.0
LEVT 010630Z 02003KT 340V080 6000 SCT005 OVC020 13/13 Q1016,LEVT,2023-06-01T06:30:00Z,42.87,-2.72,13.0,13.0,20,3,,3.73,30.0,,,,,,,,,,,SCT,500,OVC,2000,,,,,MVFR,,,,,,,,,,,,METAR,501.0
LEVS 010630Z VRB02KT CAVOK 16/12 Q1015,LEVS,2023-06-01T06:30:00Z,40.37,-3.78,16.0,12.0,0,2,,6.21,29.970472,,,,,,,,,,,CAVOK,,,,,,,,VFR,,,,,,,,,,,,METAR,683.0
LEVD 010630Z 09005KT CAVOK 13/12 Q1015,LEVD,2023-06-01T06:30:00Z,41.72,-4.85,13.0,12.0,90,5,,6.21,29.970472,,,,,,,,,,,CAVOK,,,,,,,,VFR,,,,,,,,,,,,METAR,844.0
LEVC 010630Z 33006KT 9999 FEW030 18/13 Q1015 NOSIG,LEVC,2023-06-01T06:30:00Z,39.5,-0.47,18.0,13.0,330,6,,6.21,29.970472,,,,,,TRUE,,,,,FEW,3000,,,,,,,VFR,,,,,,,,,,,,METAR,58.0
LETU 010630Z AUTO VRB01KT 9999 FEW011/// BKN080/// 15/15 Q1015,LETU,2023-06-01T06:30:00Z,,,15.0,15.0,0,1,,6.21,29.970472,,,TRUE,,,,,,,,FEW,1100,BKN,8000,,,,,VFR,,,,,,,,,,,,METAR,
LETO 010630Z VRB02KT CAVOK 14/12 Q1015 NOSIG,LETO,2023-06-01T06:30:00Z,40.48,-3.47,14.0,12.0,0,2,,6.21,29.970472,,,,,,TRUE,,,,,CAVOK,,,,,,,,VFR,,,,,,,,,,,,METAR,598.0
LETL 010630Z AUTO 12003KT 080V150 9999 FEW001 11/11 Q1017,LETL,2023-06-01T06:30:00Z,40.42,-1.22,11.0,11.0,120,3,,6.21,30.029528,,,TRUE,,,,,,,,FEW,100,,,,,,,VFR,,,,,,,,,,,,METAR,1024.0
LEST 010630Z 07003KT 020V120 5000 BR SCT007 OVC008 15/13 Q1014 NOSIG,LEST,2023-06-01T06:30:00Z,42.88,-8.42,15.0,13.0,70,3,,3.11,29.940945,,,,,,TRUE,,,,BR,SCT,700,OVC,800,,,,,IFR,,,,,,,,,,,,METAR,363.0
LESO 010630Z 11004KT 9999 BKN012 17/15 Q1015,LESO,2023-06-01T06:30:00Z,43.35,-1.8,17.0,15.0,110,4,,6.21,29.970472,,,,,,,,,,,BKN,1200,,,,,,,MVFR,,,,,,,,,,,,METAR,3.0
LESB 010630Z AUTO 36003KT 330V030 CAVOK 19/15 Q1014,LESB,2023-06-01T06:30:00Z,39.6,2.7,19.0,15.0,360,3,,6.21,29.940945,,,TRUE,,,,,,,,CAVOK,,,,,,,,VFR,,,,,,,,,,,,METAR,48.0
LESA 010630Z 00000KT CAVOK 15/13 Q1015,LESA,2023-06-01T06:30:00Z,40.95,-5.5,15.0,13.0,0,0,,6.21,29.970472,,,,,,,,,,,CAVOK,,,,,,,,VFR,,,,,,,,,,,,METAR,788.0
LERT 010630Z 07003KT CAVOK 18/14 Q1011 NOSIG,LERT,2023-06-01T06:30:00Z,36.63,-6.33,18.0,14.0,70,3,,6.21,29.852362,,,,,,TRUE,,,,,CAVOK,,,,,,,,VFR,,,,,,,,,,,,METAR,27.0
LERS 010630Z 00000KT 9999 FEW015 20/15 Q1015,LERS,2023-06-01T06:30:00Z,41.13,1.17,20.0,15.0,0,0,,6.21,29.970472,,,,,,,,,,,FEW,1500,,,,,,,VFR,,,,,,,,,,,,METAR,68.0
LERI 010630Z VRB01KT 9999 FEW015 15/15 Q1015 NOSIG,LERI,2023-06-01T06:30:00Z,37.95,-1.22,15.0,15.0,0,1,,6.21,29.970472,,,,,,TRUE,,,,,FEW,1500,,,,,,,VFR,,,,,,,,,,,,METAR,74.0
LEPP 010630Z VRB01KT 9999 SCT005 12/11 Q1016,LEPP,2023-06-01T06:30:00Z,42.77,-1.65,12.0,11.0,0,1,,6.21,30.0,,,,,,,,,,,SCT,500,,,,,,,VFR,,,,,,,,,,,,METAR,448.0
LEPA 010630Z 01003KT 280V050 9999 FEW013 19/18 Q1014 NOSIG,LEPA,2023-06-01T06:30:00Z,39.55,2.73,19.0,18.0,10,3,,6.21,29.940945,,,,,,TRUE,,,,,FEW,1300,,,,,,,VFR,,,,,,,,,,,,METAR,8.0
LEMO 010630Z VRB02KT CAVOK 16/11 Q1012 NOSIG,LEMO,2023-06-01T06:30:00Z,37.17,-5.62,16.0,11.0,0,2,,6.21,29.88189,,,,,,TRUE,,,,,CAVOK,,,,,,,,VFR,,,,,,,,,,,,METAR,82.0
LEMI 010630Z 35003KT 320V020 9999 SCT012 BKN018 17/15 Q1015,LEMI,2023-06-01T06:30:00Z,37.8,-1.12,17.0,15.0,350,3,,6.21,29.970472,,,,,,,,,,,SCT,1200,BKN,1800,,,,,MVFR,,,,,,,,,,,,METAR,193.0
LEMH 010630Z VRB01KT 9999 FEW008 20/18 Q1014,LEMH,2023-06-01T06:30:00Z,39.87,4.22,20.0,18.0,0,1,,6.21,29.940945,,,,,,,,,,,FEW,800,,,,,,,VFR,,,,,,,,,,,,METAR,82.0
LEMG 010630Z 30006KT CAVOK 17/14 Q1012 NOSIG,LEMG,2023-06-01T06:30:00Z,36.67,-4.47,17.0,14.0,300,6,,6.21,29.88189,,,,,,TRUE,,,,,CAVOK,,,,,,,,VFR,,,,,,,,,,,,METAR,5.0
LEMD 010630Z VRB02KT 9999 FEW080 15/13 Q1015 NOSIG,LEMD,2023-06-01T06:30:00Z,40.45,-3.57,15.0,13.0,0,2,,6.21,29.970472,,,,,,TRUE,,,,,FEW,8000,,,,,,,VFR,,,,,,,,,,,,METAR,589.0
LELO 010630Z VRB01KT 9999 FEW007 OVC030 16/13 Q1015,LELO,2023-06-01T06:30:00Z,42.45,-2.32,16.0,13.0,0,1,,6.21,29.970472,,,,,,,,,,,FEW,700,OVC,3000,,,,,MVFR,,,,,,,,,,,,METAR,352.0
LELN 010630Z 35003KT 290V040 CAVOK 14/08 Q1015,LELN,2023-06-01T06:30:00Z,42.58,-5.65,14.0,8.0,350,3,,6.21,29.970472,,,,,,,,,,,CAVOK,,,,,,,,VFR,,,,,,,,,,,,METAR,911.0
LELL 010630Z 16003KT 140V200 9999 FEW070 18/15 Q1015,LELL,2023-06-01T06:30:00Z,41.52,2.1,18.0,15.0,160,3,,6.21,29.970472,,,,,,,,,,,FEW,7000,,,,,,,VFR,,,,,,,,,,,,METAR,136.0
LELC 010630Z VRB02KT 5000 BR SCT012 BKN025 20/19 Q1014 NOSIG,LELC,2023-06-01T06:30:00Z,37.77,-0.8,20.0,19.0,0,2,,3.11,29.940945,,,,,,TRUE,,,,BR,SCT,1200,BKN,2500,,,,,MVFR,,,,,,,,,,,,METAR,3.0
LEJR 010630Z VRB01KT CAVOK 18/13 Q1011,LEJR,2023-06-01T06:30:00Z,36.75,-6.07,18.0,13.0,0,1,,6.21,29.852362,,,,,,,,,,,CAVOK,,,,,,,,VFR,,,,,,,,,,,,METAR,25.0
LEIB 010630Z VRB01KT CAVOK 19/14 Q1014 NOSIG,LEIB,2023-06-01T06:30:00Z,38.87,1.38,19.0,14.0,0,1,,6.21,29.940945,,,,,,TRUE,,,,,CAVOK,,,,,,,,VFR,,,,,,,,,,,,METAR,4.0
LEHC 010630Z AUTO 10005KT 080V140 9999 OVC038 15/12 Q1016,LEHC,2023-06-01T06:30:00Z,42.08,-0.32,15.0,12.0,100,5,,6.21,30.0,,,TRUE,,,,,,,,OVC,3800,,,,,,,VFR,,,,,,,,,,,,METAR,540.0
LEGT 010630Z 04005KT CAVOK 17/13 Q1015,LEGT,2023-06-01T06:30:00Z,40.28,-3.72,17.0,13.0,40,5,,6.21,29.970472,,,,,,,,,,,CAVOK,,,,,,,,VFR,,,,,,,,,,,,METAR,619.0
LEGR 010630Z 00000KT CAVOK 15/11 Q1014,LEGR,2023-06-01T06:30:00Z,37.18,-3.78,15.0,11.0,0,0,,6.21,29.940945,,,,,,,,,,,CAVOK,,,,,,,,VFR,,,,,,,,,,,,METAR,560.0
LEGE 010630Z 04004KT 350V080 CAVOK 18/15 Q1015,LEGE,2023-06-01T06:30:00Z,41.9,2.77,18.0,15.0,40,4,,6.21,29.970472,,,,,,,,,,,CAVOK,,,,,,,,VFR,,,,,,,,,,,,METAR,140.0
LEGA 010630Z 00000KT 9999 FEW090 16/10 Q1015,LEGA,2023-06-01T06:30:00Z,37.13,-3.62,16.0,10.0,0,0,,6.21,29.970472,,,,,,,,,,,FEW,9000,,,,,,,VFR,,,,,,,,,,,,METAR,684.0
LEEC 010630Z VRB02KT CAVOK 18/15 Q1012,LEEC,2023-06-01T06:30:00Z,37.32,-6.0,18.0,15.0,0,2,,6.21,29.88189,,,,,,,,,,,CAVOK,,,,,,,,VFR,,,,,,,,,,,,METAR,7.0
LEDA 010630Z 07008KT 030V100 9999 TS OVC040CB 16/14 Q1016,LEDA,2023-06-01T06:30:00Z,41.73,0.53,16.0,14.0,70,8,,6.21,30.0,,,,,,,,,,TS,OVC,4000,,,,,,,VFR,,,,,,,,,,,,METAR,352.0
LECV 010630Z VRB02KT 9999 BKN035 15/11 Q1016,LECV,2023-06-01T06:30:00Z,40.68,-3.75,15.0,11.0,0,2,,6.21,30.0,,,,,,,,,,,BKN,3500,,,,,,,VFR,,,,,,,,,,,,METAR,995.0
LECO 010630Z 00000KT 7000 2700SE BCFG SCT005 15/15 Q1014 TEMPO 1500,LECO,2023-06-01T06:30:00Z,43.3,-8.37,15.0,15.0,0,0,,4.35,29.940945,,,,,,,,,,BCFG,SCT,500,,,,,,,MVFR,,,,,,,,,,,,METAR,80.0
LECH 010630Z AUTO 01004KT 7000 NSC 16/15 Q1016,LECH,2023-06-01T06:30:00Z,40.2,0.07,16.0,15.0,10,4,,4.35,30.0,,,TRUE,,,,,,,,CLR,,,,,,,,MVFR,,,,,,,,,,,,METAR,360.0
LEBZ 010630Z 27004KT 230V300 CAVOK 16/15 Q1013,LEBZ,2023-06-01T06:30:00Z,38.87,-6.82,16.0,15.0,270,4,,6.21,29.911417,,,,,,,,,,,CAVOK,,,,,,,,VFR,,,,,,,,,,,,METAR,183.0
LEBT 010630Z AUTO VRB01KT 9999 BKN021 17/12 Q1015,LEBT,2023-06-01T06:30:00Z,39.58,-0.45,17.0,12.0,0,1,,6.21,29.970472,,,TRUE,,,,,,,,BKN,2100,,,,,,,MVFR,,,,,,,,,,,,METAR,50.0
LEBR 010630Z AUTO 02003KT 350V050 9999 BKN040/// BKN077/// 15/14 Q1015,LEBR,2023-06-01T06:30:00Z,42.2,-1.43,15.0,14.0,20,3,,6.21,29.970472,,,TRUE,,,,,,,,BKN,4000,BKN,7700,,,,,VFR,,,,,,,,,,,,METAR,347.0
LEBL 010630Z VRB02KT 9999 FEW018 19/17 Q1015 NOSIG,LEBL,2023-06-01T06:30:00Z,41.28,2.07,19.0,17.0,0,2,,6.21,29.970472,,,,,,TRUE,,,,,FEW,1800,,,,,,,VFR,,,,,,,,,,,,METAR,2.0
LEBG 010630Z 07005KT 030V090 8000 BKN004 12/11 Q1016,LEBG,2023-06-01T06:30:00Z,42.37,-3.62,12.0,11.0,70,5,,4.97,30.0,,,,,,,,,,,BKN,400,,,,,,,LIFR,,,,,,,,,,,,METAR,892.0
LEBB 010630Z 18003KT 120V230 8000 OVC018 18/15 Q1015 NOSIG,LEBB,2023-06-01T06:30:00Z,43.28,-2.92,18.0,15.0,180,3,,4.97,29.970472,,,,,,TRUE,,,,,OVC,1800,,,,,,,MVFR,,,,,,,,,,,,METAR,38.0
LEBA 010630Z 08003KT 050V130 CAVOK 17/13 Q1012,LEBA,2023-06-01T06:30:00Z,37.85,-4.83,17.0,13.0,80,3,,6.21,29.88189,,,,,,,,,,,CAVOK,,,,,,,,VFR,,,,,,,,,,,,METAR,88.0
LEAS 010630Z VRB01KT 7000 FEW010 17/14 Q1015 NOSIG,LEAS,2023-06-01T06:30:00Z,43.57,-6.03,17.0,14.0,0,1,,4.35,29.970472,,,,,,TRUE,,,,,FEW,1000,,,,,,,MVFR,,,,,,,,,,,,METAR,120.0
LEAO 010630Z 10005KT CAVOK 15/13 Q1014,LEAO,2023-06-01T06:30:00Z,38.95,-3.73,15.0,13.0,100,5,,6.21,29.940945,,,,,,,,,,,CAVOK,,,,,,,,VFR,,,,,,,,,,,,METAR,621.0
LEAM 010630Z 32006KT CAVOK 20/13 Q1013,LEAM,2023-06-01T06:30:00Z,36.85,-2.37,20.0,13.0,320,6,,6.21,29.911417,,,,,,,,,,,CAVOK,,,,,,,,VFR,,,,,,,,,,,,METAR,16.0
LEAL 010630Z 03004KT 9999 FEW015 20/16 Q1014 NOSIG,LEAL,2023-06-01T06:30:00Z,38.27,-0.55,20.0,16.0,30,4,,6.21,29.940945,,,,,,TRUE,,,,,FEW,1500,,,,,,,VFR,,,,,,,,,,,,METAR,26.0
LEAG 010630Z AUTO VRB02KT 9999 SCT011/// BKN013/// 19/15 Q1012,LEAG,2023-06-01T06:30:00Z,36.12,-5.45,19.0,15.0,0,2,,6.21,29.88189,,,TRUE,,,,,,,,SCT,1100,BKN,1300,,,,,MVFR,,,,,,,,,,,,METAR,4.0
LEAB 010630Z 14004KT 090V170 CAVOK 14/11 Q1016 NOSIG,LEAB,2023-06-01T06:30:00Z,38.95,-1.85,14.0,11.0,140,4,,6.21,30.0,,,,,,TRUE,,,,,CAVOK,,,,,,,,VFR,,,,,,,,,,,,METAR,704.0
LDZD 010630Z 02005KT 340V060 CAVOK 22/13 Q1015 NOSIG,LDZD,2023-06-01T06:30:00Z,44.1,15.33,22.0,13.0,20,5,,6.21,29.970472,,,,,,TRUE,,,,,CAVOK,,,,,,,,VFR,,,,,,,,,,,,METAR,82.0
LDZA 010630Z VRB02KT CAVOK 17/15 Q1017 NOSIG,LDZA,2023-06-01T06:30:00Z,45.72,16.07,17.0,15.0,0,2,,6.21,30.029528,,,,,,TRUE,,,,,CAVOK,,,,,,,,VFR,,,,,,,,,,,,METAR,103.0
LDSP 010630Z 09004KT 040V130 CAVOK 22/14 Q1015 NOSIG,LDSP,2023-06-01T06:30:00Z,43.53,16.3,22.0,14.0,90,4,,6.21,29.970472,,,,,,TRUE,,,,,CAVOK,,,,,,,,VFR,,,,,,,,,,,,METAR,16.0
LDSB 010630Z 05008KT CAVOK 19/11 Q1017,LDSB,2023-06-01T06:30:00Z,43.28,16.68,19.0,11.0,50,8,,6.21,30.029528,,,,,,,,,,,CAVOK,,,,,,,,VFR,,,,,,,,,,,,METAR,525.0
LDRI 010630Z 23003KT 180V270 CAVOK 21/14 Q1016,LDRI,2023-06-01T06:30:00Z,45.22,14.57,21.0,14.0,230,3,,6.21,30.0,,,,,,,,,,,CAVOK,,,,,,,,VFR,,,,,,,,,,,,METAR,80.0
LDPL 010630Z 05005KT 020V080 CAVOK 22/13 Q1016 NOSIG,LDPL,2023-06-01T06:30:00Z,44.88,13.92,22.0,13.0,50,5,,6.21,30.0,,,,,,TRUE,,,,,CAVOK,,,,,,,,VFR,,,,,,,,,,,,METAR,63.0
LDOS 010630Z VRB02KT CAVOK 19/16 Q1017,LDOS,2023-06-01T06:30:00Z,45.47,18.82,19.0,16.0,0,2,,6.21,30.029528,,,,,,,,,,,CAVOK,,,,,,,,VFR,,,,,,,,,,,,METAR,82.0
LDDU 010630Z VRB03KT CAVOK 21/13 Q1015 NOSIG,LDDU,2023-06-01T06:30:00Z,42.57,18.27,21.0,13.0,0,3,,6.21,29.970472,,,,,,TRUE,,,,,CAVOK,,,,,,,,VFR,,,,,,,,,,,,METAR,156.0
LCPH 010630Z 15012KT 9999 FEW020 23/18 Q1013 NOSIG,LCPH,2023-06-01T06:30:00Z,34.72,32.47,23.0,18.0,150,12,,6.21,29.911417,,,,,,TRUE,,,,,FEW,2000,,,,,,,VFR,,,,,,,,,,,,METAR,8.0
LCLK 010630Z 14007KT 120V180 9999 FEW009 24/19 Q1014 NOSIG,LCLK,2023-06-01T06:30:00Z,34.87,33.62,24.0,19.0,140,7,,6.21,29.940945,,,,,,TRUE,,,,,FEW,900,,,,,,,VFR,,,,,,,,,,,,METAR,2.0
LBWN 010630Z 27003KT 230V330 CAVOK 21/15 Q1016 NOSIG,LBWN,2023-06-01T06:30:00Z,43.22,27.82,21.0,15.0,270,3,,6.21,30.0,,,,,,TRUE,,,,,CAVOK,,,,,,,,VFR,,,,,,,,,,,,METAR,74.0
LBSF 010630Z VRB01KT 9999 FEW009 16/13 Q1019 NOSIG,LBSF,2023-06-01T06:30:00Z,42.65,23.37,16.0,13.0,0,1,,6.21,30.088583,,,,,,TRUE,,,,,FEW,900,,,,,,,VFR,,,,,,,,,,,,METAR,592.0
LBPD 010630Z AUTO VRB02KT 9999 NCD 20/15 Q1018 NOSIG,LBPD,2023-06-01T06:30:00Z,42.05,24.85,20.0,15.0,0,2,,6.21,30.059055,,,TRUE,,,TRUE,,,,,CLR,,,,,,,,VFR,,,,,,,,,,,,METAR,182.0
LBGO 010630Z AUTO 08003KT 030V140 9999 BKN170/// 19/16 Q1018 NOSIG,LBGO,2023-06-01T06:30:00Z,43.15,25.72,19.0,16.0,80,3,,6.21,30.059055,,,TRUE,,,TRUE,,,,,BKN,17000,,,,,,,VFR,,,,,,,,,,,,METAR,84.0
LBBG 010630Z 18004KT 150V210 CAVOK 20/15 Q1017 NOSIG,LBBG,2023-06-01T06:30:00Z,42.57,27.52,20.0,15.0,180,4,,6.21,30.029528,,,,,,TRUE,,,,,CAVOK,,,,,,,,VFR,,,,,,,,,,,,METAR,41.0
KVBG 010630Z AUTO 34006KT 10SM OVC013 12/10 A2996 RMK AO2 SLP148 TSNO $,KVBG,2023-06-01T06:30:00Z,34.73,-120.58,12.0,10.0,340,6,,10.0,29.958662,1014.8,,TRUE,TRUE,TRUE,,TRUE,,,,OVC,1300,,,,,,,MVFR,,,,,,,,,,,,SPECI,96.0
KSUT 010630Z AUTO 02005KT 10SM OVC060 19/16 A3001 RMK AO2 T01850160,KSUT,2023-06-01T06:30:00Z,33.93,-78.08,18.5,16.0,20,5,,10.0,30.008858,,,TRUE,TRUE,,,,,,,OVC,6000,,,,,,,VFR,,,,,,,,,,,,SPECI,6.0
KRHP 010630Z AUTO 00000KT 10SM OVC003 15/15 A3010 RMK AO2 T01520145,KRHP,2023-06-01T06:30:00Z,35.18,-83.85,15.2,14.5,0,0,,10.0,30.100393,,,TRUE,TRUE,,,,,,,OVC,300,,,,,,,LIFR,,,,,,,,,,,,SPECI,515.0
KRCZ 010630Z AUTO 00000KT 4SM BR CLR 17/17 A3005 RMK AO2 T01700167,KRCZ,2023-06-01T06:30:00Z,34.88,-79.77,17.0,16.7,0,0,,4.0,30.050198,,,TRUE,TRUE,,,,,,BR,CLR,,,,,,,,MVFR,,,,,,,,,,,,SPECI,110.0
KQFW 010630Z AUTO 19003KT 9999 FEW038 BKN180 24/16 A2952 RMK A02 TSNO,KQFW,2023-06-01T06:30:00Z,,,24.0,16.0,190,3,,6.21,29.518702,,,TRUE,TRUE,,,TRUE,,,,FEW,3800,BKN,18000,,,,,VFR,,,,,,,,,,,,METAR,
KQEY 010630Z AUTO 21004KT 9999 SCT060 BKN110 25/15 A2941 RMK A02 TSNO,KQEY,2023-06-01T06:30:00Z,,,25.0,15.0,210,4,,6.21,29.409449,,,TRUE,TRUE,,,TRUE,,,,SCT,6000,BKN,11000,,,,,VFR,,,,,,,,,,,,METAR,
KQES 010630Z AUTO 32004KT 9999 CLR 19/15 A2972 RMK A02 TSNO,KQES,2023-06-01T06:30:00Z,,,19.0,15.0,320,4,,6.21,29.719488,,,TRUE,TRUE,,,TRUE,,,,CLR,,,,,,,,VFR,,,,,,,,,,,,METAR,
KQER 010630Z AUTO 16007G12KT 9999 FEW040 SCT170 24/14 A2964 RMK A02 TSNO,KQER,2023-06-01T06:30:00Z,,,24.0,14.0,160,7,12,6.21,29.639763,,,TRUE,TRUE,,,TRUE,,,,FEW,4000,SCT,17000,,,,,VFR,,,,,,,,,,,,METAR,
KO86 010630Z AUTO 27005KT 10SM 16/06 A2988 RMK A01,KO86,2023-06-01T06:30:00Z,40.98,-122.7,16.0,6.0,270,5,,10.0,29.878937,,,TRUE,TRUE,,,,,,,,,,,,,,,,,,,,,,,,,,,SPECI,729.0
KMQI 010630Z AUTO 03011KT 3SM BR OVC003 16/16 A3000 RMK AO2 T01620158,KMQI,2023-06-01T06:30:00Z,35.92,-75.7,16.2,15.8,30,11,,3.0,30.0,,,TRUE,TRUE,,,,,,BR,OVC,300,,,,,,,LIFR,,,,,,,,,,,,SPECI,3.0
KMIO 010630Z AUTO 00000KT 10SM BKN055 20/18 A2993 RMK AO2,KMIO,2023-06-01T06:30:00Z,36.92,-94.88,20.0,18.0,0,0,,10.0,29.929134,,,TRUE,TRUE,,,,,,,BKN,5500,,,,,,,VFR,,,,,,,,,,,,SPECI,245.0
KLVS 010630Z AUTO 16007KT 10SM BKN005 BKN095 BKN120 10/09 A3005 RMK AO2 LTG DSNT W T01000094,KLVS,2023-06-01T06:30:00Z,35.65,-105.13,10.0,9.4,160,7,,10.0,30.050198,,,TRUE,TRUE,,,,,,,BKN,500,BKN,9500,BKN,12000,,,IFR,,,,,,,,,,,,METAR,2095.0
KLHZ 010630Z AUTO 34003KT 4SM BR CLR 14/14 A3007 RMK AO2,KLHZ,2023-06-01T06:30:00Z,36.02,-78.33,14.0,14.0,340,3,,4.0,30.070866,,,TRUE,TRUE,,,,,,BR,CLR,,,,,,,,MVFR,,,,,,,,,,,,SPECI,104.0
KIXA 010630Z AUTO 01004KT 5SM BR CLR 13/13 A3005 RMK AO2,KIXA,2023-06-01T06:30:00Z,36.33,-77.63,13.0,13.0,10,4,,5.0,30.050198,,,TRUE,TRUE,,,,,,BR,CLR,,,,,,,,MVFR,,,,,,,,,,,,SPECI,43.0
KHNZ 010630Z AUTO 00000KT 4SM BR CLR 14/14 A3007 RMK AO2 T01430141,KHNZ,2023-06-01T06:30:00Z,36.37,-78.53,14.3,14.1,0,0,,4.0,30.070866,,,TRUE,TRUE,,,,,,BR,CLR,,,,,,,,MVFR,,,,,,,,,,,,SPECI,158.0
KHIB 010630Z AUTO 00000KT 5SM BR CLR 14/14 A2995 RMK AO2 T01440144,KHIB,2023-06-01T06:30:00Z,47.38,-92.83,14.4,14.4,0,0,,5.0,29.949802,,,TRUE,TRUE,,,,,,BR,CLR,,,,,,,,MVFR,,,,,,,,,,,,METAR,409.0
KGWW 010630Z AUTO 00000KT 7SM CLR 16/16 A3004 RMK AO2 T01600160,KGWW,2023-06-01T06:30:00Z,35.47,-77.97,16.0,16.0,0,0,,7.0,30.041338,,,TRUE,TRUE,,,,,,,CLR,,,,,,,,VFR,,,,,,,,,,,,SPECI,40.0
KFFA 010630Z AUTO 36005KT 1SM BR OVC002 16/16 A2999 RMK AO2 T01590159,KFFA,2023-06-01T06:30:00Z,36.02,-75.67,15.9,15.9,360,5,,1.0,29.991142,,,TRUE,TRUE,,,,,,BR,OVC,200,,,,,,,LIFR,,,,,,,,,,,,SPECI,2.0
KFDK 010630Z AUTO 00000KT 7SM CLR 11/11 A3012 RMK AO2,KFDK,2023-06-01T06:30:00Z,39.42,-77.37,11.0,11.0,0,0,,7.0,30.121063,,,TRUE,TRUE,,,,,,,CLR,,,,,,,,VFR,,,,,,,,,,,,METAR,82.0
KEYF 010630Z AUTO 34003KT 7SM OVC065 18/17 A3003 RMK AO2 T01800171,KEYF,2023-06-01T06:30:00Z,34.6,-78.58,18.0,17.1,340,3,,7.0,30.029528,,,TRUE,TRUE,,,,,,,OVC,6500,,,,,,,VFR,,,,,,,,,,,,SPECI,39.0
KEXX 010630Z AUTO 00000KT 5SM BR CLR 15/15 A3007 RMK AO2 T01480148,KEXX,2023-06-01T06:30:00Z,35.78,-80.3,14.8,14.8,0,0,,5.0,30.070866,,,TRUE,TRUE,,,,,,BR,CLR,,,,,,,,MVFR,,,,,,,,,,,,SPECI,221.0
KCGS 010630Z AUTO 00000KT 10SM CLR 13/12 A3012 RMK AO2 T01290116,KCGS,2023-06-01T06:30:00Z,38.98,-76.92,12.9,11.6,0,0,,10.0,30.121063,,,TRUE,TRUE,,,,,,,CLR,,,,,,,,VFR,,,,,,,,,,,,METAR,15.0
KCCB 010630Z AUTO 30005KT 3SM BR OVC014 13/13 A2992 RMK AO2,KCCB,2023-06-01T06:30:00Z,34.12,-117.68,13.0,13.0,300,5,,3.0,29.920275,,,TRUE,TRUE,,,,,,BR,OVC,1400,,,,,,,MVFR,,,,,,,,,,,,METAR,440.0
KAFP 010630Z AUTO 00000KT 3SM BR CLR 16/15 A3006 RMK AO2 T01590153,KAFP,2023-06-01T06:30:00Z,35.02,-80.08,15.9,15.3,0,0,,3.0,30.059055,,,TRUE,TRUE,,,,,,BR,CLR,,,,,,,,MVFR,,,,,,,,,,,,SPECI,91.0
K3U3 010630Z AUTO 18005KT 10SM 12/08 A2992 ,K3U3,2023-06-01T06:30:00Z,46.15,-112.87,12.0,8.0,180,5,,10.0,29.920275,,,TRUE,,,,,,,,,,,,,,,,,,,,,,,,,,,,METAR,1534.0
K38S 010630Z AUTO 00000KT 10SM 12/12 A2992 ,K38S,2023-06-01T06:30:00Z,46.38,-112.77,12.0,12.0,0,0,,10.0,29.920275,,,TRUE,,,,,,,,,,,,,,,,,,,,,,,,,,,,METAR,1430.0
K1A5 010630Z AUTO 00000KT 1/2SM FG OVC002 16/16 A3015 RMK AO2 T01620160,K1A5,2023-06-01T06:30:00Z,35.22,-83.42,16.2,16.0,0,0,,0.5,30.15059,,,TRUE,TRUE,,,,,,FG,OVC,200,,,,,,,LIFR,,,,,,,,,,,,SPECI,611.0
HRYR 010630Z 15004KT 8000 FEW025 21/16 Q1023 NOSIG,HRYR,2023-06-01T06:30:00Z,-1.97,30.13,21.0,16.0,150,4,,4.97,30.206694,,,,,,TRUE,,,,,FEW,2500,,,,,,,MVFR,,,,,,,,,,,,METAR,1493.0
HKKI 010630Z 10004KT 9999 FEW022 24/18 Q1020,HKKI,2023-06-01T06:30:00Z,-0.1,34.75,24.0,18.0,100,4,,6.21,30.11811,,,,,,,,,,,FEW,2200,,,,,,,VFR,,,,,,,,,,,,METAR,1152.0
HECA 010630Z 25017KT 2000 SA SCT025 32/10 Q1010 NOSIG,HECA,2023-06-01T06:30:00Z,30.12,31.4,32.0,10.0,250,17,,1.24,29.822834,,,,,,TRUE,,,,SA,SCT,2500,,,,,,,IFR,,,,,,,,,,,,METAR,68.0
GQNO 010630Z 36017KT 8000 NSC 23/13 Q1010 NOSIG,GQNO,2023-06-01T06:30:00Z,18.3,-15.97,23.0,13.0,360,17,,4.97,29.822834,,,,,,TRUE,,,,,CLR,,,,,,,,MVFR,,,,,,,,,,,,METAR,1.0
GOBD 010630Z 31004KT CAVOK 24/22 Q1012 NOSIG,GOBD,2023-06-01T06:30:00Z,14.67,-17.07,24.0,22.0,310,4,,6.21,29.88189,,,,,,TRUE,,,,,CAVOK,,,,,,,,VFR,,,,,,,,,,,,METAR,90.0
GMTT 010630Z 11004KT 070V130 CAVOK 19/17 Q1010 NOSIG,GMTT,2023-06-01T06:30:00Z,35.72,-5.9,19.0,17.0,110,4,,6.21,29.822834,,,,,,TRUE,,,,,CAVOK,,,,,,,,VFR,,,,,,,,,,,,METAR,19.0
GMMX 010630Z 26008KT 9999 FEW100 17/13 Q1013 NOSIG,GMMX,2023-06-01T06:30:00Z,31.62,-8.03,17.0,13.0,260,8,,6.21,29.911417,,,,,,TRUE,,,,,FEW,10000,,,,,,,VFR,,,,,,,,,,,,METAR,465.0
GMMN 010630Z 36005KT 6000 FEW015 SCT100 17/16 Q1012 NOSIG,GMMN,2023-06-01T06:30:00Z,33.37,-7.58,17.0,16.0,360,5,,3.73,29.88189,,,,,,TRUE,,,,,FEW,1500,SCT,10000,,,,,MVFR,,,,,,,,,,,,METAR,196.0
GMME 010630Z 00000KT 6000 NSC 17/17 Q1011 NOSIG,GMME,2023-06-01T06:30:00Z,34.05,-6.77,17.0,17.0,0,0,,3.73,29.852362,,,,,,TRUE,,,,,CLR,,,,,,,,MVFR,,,,,,,,,,,,METAR,84.0
GMFO 010630Z VRB02KT 9999 FEW090 BKN230 18/10 Q1014 NOSIG,GMFO,2023-06-01T06:30:00Z,34.78,-1.92,18.0,10.0,0,2,,6.21,29.940945,,,,,,TRUE,,,,,FEW,9000,BKN,23000,,,,,VFR,,,,,,,,,,,,METAR,452.0
GMFF 010630Z 02002KT CAVOK 17/12 Q1012 NOSIG,GMFF,2023-06-01T06:30:00Z,33.92,-4.97,17.0,12.0,20,2,,6.21,29.88189,,,,,,TRUE,,,,,CAVOK,,,,,,,,VFR,,,,,,,,,,,,METAR,575.0
GMAD 010630Z 13003KT 8000 FEW013 SCT023 18/15 Q1012 NOSIG,GMAD,2023-06-01T06:30:00Z,30.32,-9.42,18.0,15.0,130,3,,4.97,29.88189,,,,,,TRUE,,,,,FEW,1300,SCT,2300,,,,,MVFR,,,,,,,,,,,,METAR,66.0
GLRB 010630Z 000000KT 9999 BKN012 FEW023CB 24/23 Q1012 NOSIG RMK CB/SE-SW,GLRB,2023-06-01T06:30:00Z,6.25,-10.35,24.0,23.0,0,0,,6.21,29.88189,,,,,,TRUE,,,,,BKN,1200,FEW,2300,,,,,MVFR,,,,,,,,,,,,METAR,12.0
GEML 010630Z 11003KT 060V170 9999 FEW007 20/15 Q1012,GEML,2023-06-01T06:30:00Z,35.27,-2.95,20.0,15.0,110,3,,6.21,29.88189,,,,,,,,,,,FEW,700,,,,,,,VFR,,,,,,,,,,,,METAR,48.0
GECE 010630Z AUTO 07003KT CAVOK 20/17 Q1011,GECE,2023-06-01T06:30:00Z,35.88,-5.3,20.0,17.0,70,3,,6.21,29.852362,,,TRUE,,,,,,,,CAVOK,,,,,,,,VFR,,,,,,,,,,,,METAR,2.0
GCXO 010630Z 30010KT 9999 FEW003 SCT028 17/16 Q1015 NOSIG,GCXO,2023-06-01T06:30:00Z,28.48,-16.35,17.0,16.0,300,10,,6.21,29.970472,,,,,,TRUE,,,,,FEW,300,SCT,2800,,,,,VFR,,,,,,,,,,,,METAR,623.0
GCTS 010630Z 36004KT 330V030 9999 FEW030 20/11 Q1013 NOSIG,GCTS,2023-06-01T06:30:00Z,28.05,-16.57,20.0,11.0,360,4,,6.21,29.911417,,,,,,TRUE,,,,,FEW,3000,,,,,,,VFR,,,,,,,,,,,,METAR,59.0
GCRR 010630Z 31003KT 300V360 9999 FEW020 18/15 Q1013,GCRR,2023-06-01T06:30:00Z,28.95,-13.58,18.0,15.0,310,3,,6.21,29.911417,,,,,,,,,,,FEW,2000,,,,,,,VFR,,,,,,,,,,,,METAR,9.0
GCLP 010630Z 27004KT 9999 FEW050 20/14 Q1013 NOSIG,GCLP,2023-06-01T06:30:00Z,27.92,-15.38,20.0,14.0,270,4,,6.21,29.911417,,,,,,TRUE,,,,,FEW,5000,,,,,,,VFR,,,,,,,,,,,,METAR,16.0
GCLA 010630Z 01008KT 9999 SCT025 21/18 Q1013,GCLA,2023-06-01T06:30:00Z,28.62,-17.75,21.0,18.0,10,8,,6.21,29.911417,,,,,,,,,,,SCT,2500,,,,,,,VFR,,,,,,,,,,,,METAR,20.0
GCHI 010630Z 33010KT 260V020 9999 FEW022 SCT040 21/17 Q1013,GCHI,2023-06-01T06:30:00Z,27.82,-17.88,21.0,17.0,330,10,,6.21,29.911417,,,,,,,,,,,FEW,2200,SCT,4000,,,,,VFR,,,,,,,,,,,,METAR,21.0
GCGM 010630Z 07003KT 010V130 9999 FEW030 SCT046 19/16 Q1014 RMK R09/00000KT ARP/VRB02KT,GCGM,2023-06-01T06:30:00Z,28.03,-17.22,19.0,16.0,70,3,,6.21,29.940945,,,,,,,,,,,FEW,3000,SCT,4600,,,,,VFR,,,,,,,,,,,,METAR,217.0
GCFV 010630Z 30004KT 280V350 9999 FEW025 19/12 Q1013,GCFV,2023-06-01T06:30:00Z,28.43,-13.87,19.0,12.0,300,4,,6.21,29.911417,,,,,,,,,,,FEW,2500,,,,,,,VFR,,,,,,,,,,,,METAR,11.0
GABS 010630Z 22002KT CAVOK 24/22 Q1012 NOSIG,GABS,2023-06-01T06:30:00Z,12.53,-7.95,24.0,22.0,220,2,,6.21,29.88189,,,,,,TRUE,,,,,CAVOK,,,,,,,,VFR,,,,,,,,,,,,METAR,375.0
FMMI 010630Z 14008KT 110V190 9999 FEW017 BKN020 17/12 Q1026 NOSIG,FMMI,2023-06-01T06:30:00Z,-18.8,47.47,17.0,12.0,140,8,,6.21,30.295275,,,,,,TRUE,,,,,FEW,1700,BKN,2000,,,,,MVFR,,,,,,,,,,,,METAR,1269.0
FMEP 010630Z AUTO 14012KT CAVOK 26/19 Q1021 NOSIG,FMEP,2023-06-01T06:30:00Z,-21.32,55.42,26.0,19.0,140,12,,6.21,30.147638,,,TRUE,,,TRUE,,,,,CAVOK,,,,,,,,VFR,,,,,,,,,,,,METAR,21.0
FMEE 010630Z AUTO 11010KT CAVOK 26/17 Q1020 NOSIG,FMEE,2023-06-01T06:30:00Z,-20.88,55.52,26.0,17.0,110,10,,6.21,30.11811,,,TRUE,,,TRUE,,,,,CAVOK,,,,,,,,VFR,,,,,,,,,,,,METAR,20.0
FMCZ 010630Z AUTO 16012KT CAVOK 31/24 Q1017 TEMPO 4000 SHRA FEW015TCU,FMCZ,2023-06-01T06:30:00Z,-12.8,45.27,31.0,24.0,160,12,,6.21,30.029528,,,TRUE,,,,,,,,CAVOK,,,,,,,,VFR,,,,,,,,,,,,SPECI,7.0
EPZG 010630Z 32004KT 270V350 CAVOK 18/11 Q1017,EPZG,2023-06-01T06:30:00Z,52.13,15.77,18.0,11.0,320,4,,6.21,30.029528,,,,,,,,,,,CAVOK,,,,,,,,VFR,,,,,,,,,,,,METAR,59.0
EPWR 010630Z 29007KT 260V320 CAVOK 18/09 Q1017,EPWR,2023-06-01T06:30:00Z,51.1,16.88,18.0,9.0,290,7,,6.21,30.029528,,,,,,,,,,,CAVOK,,,,,,,,VFR,,,,,,,,,,,,METAR,118.0
EPWA 010630Z 27006KT 240V300 CAVOK 18/06 Q1015 NOSIG,EPWA,2023-06-01T06:30:00Z,52.17,20.97,18.0,6.0,270,6,,6.21,29.970472,,,,,,TRUE,,,,,CAVOK,,,,,,,,VFR,,,,,,,,,,,,METAR,107.0
EPSY 010630Z 24008KT 210V270 CAVOK 17/08 Q1013,EPSY,2023-06-01T06:30:00Z,53.47,20.93,17.0,8.0,240,8,,6.21,29.911417,,,,,,,,,,,CAVOK,,,,,,,,VFR,,,,,,,,,,,,METAR,136.0
EPSC 010630Z 29012KT 9999 OVC013 13/09 Q1017,EPSC,2023-06-01T06:30:00Z,53.58,14.9,13.0,9.0,290,12,,6.21,30.029528,,,,,,,,,,,OVC,1300,,,,,,,MVFR,,,,,,,,,,,,METAR,47.0
EPRZ 010630Z 24006KT 200V270 CAVOK 18/09 Q1017,EPRZ,2023-06-01T06:30:00Z,50.1,22.02,18.0,9.0,240,6,,6.21,30.029528,,,,,,,,,,,CAVOK,,,,,,,,VFR,,,,,,,,,,,,METAR,206.0
EPRA 010630Z 28008KT CAVOK 20/07 Q1016,EPRA,2023-06-01T06:30:00Z,51.38,21.22,20.0,7.0,280,8,,6.21,30.0,,,,,,,,,,,CAVOK,,,,,,,,VFR,,,,,,,,,,,,METAR,182.0
EPPO 010630Z 31008KT CAVOK 17/10 Q1016,EPPO,2023-06-01T06:30:00Z,52.42,16.83,17.0,10.0,310,8,,6.21,30.0,,,,,,,,,,,CAVOK,,,,,,,,VFR,,,,,,,,,,,,METAR,87.0
EPMO 010630Z 19005KT 140V240 CAVOK 17/08 Q1015,EPMO,2023-06-01T06:30:00Z,52.45,20.65,17.0,8.0,190,5,,6.21,29.970472,,,,,,,,,,,CAVOK,,,,,,,,VFR,,,,,,,,,,,,METAR,102.0
EPLL 010630Z 22004KT 190V260 CAVOK 17/08 Q1016,EPLL,2023-06-01T06:30:00Z,51.72,19.4,17.0,8.0,220,4,,6.21,30.0,,,,,,,,,,,CAVOK,,,,,,,,VFR,,,,,,,,,,,,METAR,176.0
EPLB 010630Z 26009KT CAVOK 19/09 Q1016,EPLB,2023-06-01T06:30:00Z,51.23,22.72,19.0,9.0,260,9,,6.21,30.0,,,,,,,,,,,CAVOK,,,,,,,,VFR,,,,,,,,,,,,METAR,206.0
EPKT 010630Z 26003KT 220V310 CAVOK 18/08 Q1018,EPKT,2023-06-01T06:30:00Z,50.47,19.08,18.0,8.0,260,3,,6.21,30.059055,,,,,,,,,,,CAVOK,,,,,,,,VFR,,,,,,,,,,,,METAR,296.0
EPKK 010630Z 22005KT 180V240 CAVOK 17/11 Q1018,EPKK,2023-06-01T06:30:00Z,50.07,19.8,17.0,11.0,220,5,,6.21,30.059055,,,,,,,,,,,CAVOK,,,,,,,,VFR,,,,,,,,,,,,METAR,237.0
EPGD 010630Z 28013KT CAVOK 15/09 Q1013,EPGD,2023-06-01T06:30:00Z,54.37,18.47,15.0,9.0,280,13,,6.21,29.911417,,,,,,,,,,,CAVOK,,,,,,,,VFR,,,,,,,,,,,,METAR,136.0
EPBY 010630Z 26007KT 220V300 CAVOK 17/10 Q1015,EPBY,2023-06-01T06:30:00Z,53.1,18.0,17.0,10.0,260,7,,6.21,29.970472,,,,,,,,,,,CAVOK,,,,,,,,VFR,,,,,,,,,,,,METAR,66.0
EINN 010630Z 02004KT CAVOK 12/09 Q1026 NOSIG,EINN,2023-06-01T06:30:00Z,52.7,-8.92,12.0,9.0,20,4,,6.21,30.295275,,,,,,TRUE,,,,,CAVOK,,,,,,,,VFR,,,,,,,,,,,,METAR,20.0
EIKN 010630Z 04006KT CAVOK 12/08 Q1028 NOSIG,EIKN,2023-06-01T06:30:00Z,53.92,-8.82,12.0,8.0,40,6,,6.21,30.35433,,,,,,TRUE,,,,,CAVOK,,,,,,,,VFR,,,,,,,,,,,,METAR,201.0
EIDW 010630Z 08008KT 9999 SCT009 BKN011 12/10 Q1027 NOSIG,EIDW,2023-06-01T06:30:00Z,53.42,-6.28,12.0,10.0,80,8,,6.21,30.324802,,,,,,TRUE,,,,,SCT,900,BKN,1100,,,,,MVFR,,,,,,,,,,,,METAR,75.0
EIDL 010630Z 05011KT 9999 OVC009 12/10 Q1029,EIDL,2023-06-01T06:30:00Z,55.05,-8.33,12.0,10.0,50,11,,6.21,30.383858,,,,,,,,,,,OVC,900,,,,,,,IFR,,,,,,,,,,,,METAR,2.0
EICK 010630Z 02007KT 9999 FEW022 11/08 Q1025 NOSIG,EICK,2023-06-01T06:30:00Z,51.85,-8.47,11.0,8.0,20,7,,6.21,30.265747,,,,,,TRUE,,,,,FEW,2200,,,,,,,VFR,,,,,,,,,,,,METAR,158.0
DTTJ 010630Z VRB02KT 9999 SCT016 21/17 Q1013 NOSIG,DTTJ,2023-06-01T06:30:00Z,33.87,10.77,21.0,17.0,0,2,,6.21,29.911417,,,,,,TRUE,,,,,SCT,1600,,,,,,,VFR,,,,,,,,,,,,METAR,3.0
DTTA 010630Z 00000KT 8000 -RA SCT026 19/18 Q1014,DTTA,2023-06-01T06:30:00Z,36.85,10.22,19.0,18.0,0,0,,4.97,29.940945,,,,,,,,,,-RA,SCT,2600,,,,,,,MVFR,,,,,,,,,,,,METAR,4.0
DTNH 010630Z 01005KT 9999 BKN033 20/16 Q1014,DTNH,2023-06-01T06:30:00Z,36.07,10.43,20.0,16.0,10,5,,6.21,29.940945,,,,,,,,,,,BKN,3300,,,,,,,VFR,,,,,,,,,,,,METAR,1.0
DTMB 010630Z 32004KT 270V020 9999 SCT023 SCT033 20/19 Q1014,DTMB,2023-06-01T06:30:00Z,35.77,10.75,20.0,19.0,320,4,,6.21,29.940945,,,,,,,,,,,SCT,2300,SCT,3300,,,,,VFR,,,,,,,,,,,,METAR,1.0
DAOO 010630Z 03006KT 9999 FEW016 SCT233 18/15 Q1013,DAOO,2023-06-01T06:30:00Z,35.62,-0.62,18.0,15.0,30,6,,6.21,29.911417,,,,,,,,,,,FEW,1600,SCT,23300,,,,,VFR,,,,,,,,,,,,METAR,87.0
DAON 010630Z 00000KT 9999 FEW030 SCT233 17/10 Q1013,DAON,2023-06-01T06:30:00Z,35.02,-1.47,17.0,10.0,0,0,,6.21,29.911417,,,,,,,,,,,FEW,3000,SCT,23300,,,,,VFR,,,,,,,,,,,,METAR,245.0
DABC 010630Z VRB02KT 8000 FEW013 BKN023 15/12 Q1016,DABC,2023-06-01T06:30:00Z,36.27,6.62,15.0,12.0,0,2,,4.97,30.0,,,,,,,,,,,FEW,1300,BKN,2300,,,,,MVFR,,,,,,,,,,,,METAR,686.0
DABB 010630Z 24005KT 9999 FEW023 SCT033 18/15 Q1014,DABB,2023-06-01T06:30:00Z,36.82,7.82,18.0,15.0,240,5,,6.21,29.940945,,,,,,,,,,,FEW,2300,SCT,3300,,,,,VFR,,,,,,,,,,,,METAR,3.0
DAAT 010630Z VRB02KT CAVOK 22/M06 Q1017,DAAT,2023-06-01T06:30:00Z,22.82,5.47,22.0,-6.0,0,2,,6.21,30.029528,,,,,,,,,,,CAVOK,,,,,,,,VFR,,,,,,,,,,,,METAR,1376.0
DAAG 010630Z 00000KT CAVOK 17/15 Q1015,DAAG,2023-06-01T06:30:00Z,36.68,3.22,17.0,15.0,0,0,,6.21,29.970472,,,,,,,,,,,CAVOK,,,,,,,,VFR,,,,,,,,,,,,METAR,18.0
CWPF 010630Z AUTO 24006KT 11/07 RMK AO1 SLP183 T01080070 51011,CWPF,2023-06-01T06:30:00Z,48.43,-123.43,10.8,7.0,240,6,,,,1018.3,,TRUE,TRUE,,,,,,,,,,,,,,,,1.1,,,,,,,,,,,METAR,5.0
BKPR 010630Z VRB02KT 9999 SCT020 BKN080 16/14 Q1018 NOSIG,BKPR,2023-06-01T06:30:00Z,42.58,21.03,16.0,14.0,0,2,,6.21,30.059055,,,,,,TRUE,,,,,SCT,2000,BKN,8000,,,,,VFR,,,,,,,,,,,,METAR,545.0
BIKF 010630Z 22005KT 1500 R19/P1500D BR OVC002 07/07 Q1031,BIKF,2023-06-01T06:30:00Z,63.98,-22.6,7.0,7.0,220,5,,0.93,30.442913,,,,,,,,,,BR,OVC,200,,,,,,,LIFR,,,,,,,,,,,,METAR,49.0
PHTO 010629Z 24008KT 10SM BKN021 OVC036 22/22 A3015 RMK AO2 RAE21 P0003 T02220217 $,PHTO,2023-06-01T06:29:00Z,19.72,-155.05,22.2,21.7,240,8,,10.0,30.15059,,,,TRUE,TRUE,,,,,,BKN,2100,OVC,3600,,,,,MVFR,,,,,,0.03,,,,,,SPECI,9.0
KNXF 010629Z AUTO 25006KT 10SM BKN015 OVC048 16/13 A2992 RMK AO2 T01610133 $,KNXF,2023-06-01T06:29:00Z,33.28,-117.45,16.1,13.3,250,6,,10.0,29.920275,,,TRUE,TRUE,TRUE,,,,,,BKN,1500,OVC,4800,,,,,MVFR,,,,,,,,,,,,METAR,28.0
KMTN 010629Z AUTO 00000KT 10SM CLR 15/14 A3012 RMK AO2,KMTN,2023-06-01T06:29:00Z,39.32,-76.42,15.0,14.0,0,0,,10.0,30.121063,,,TRUE,TRUE,,,,,,,CLR,,,,,,,,VFR,,,,,,,,,,,,METAR,2.0
KFME 010629Z AUTO 00000KT 10/10 A3014 RMK AO1,KFME,2023-06-01T06:29:00Z,39.08,-76.77,10.0,10.0,0,0,,,30.138779,,,TRUE,TRUE,,,,,,,,,,,,,,,,,,,,,,,,,,,METAR,43.0
KCQC 010629Z AUTO 08010G19KT 1/4SM FG VV001 10/10 A3004 RMK AO2 T01000100 $,KCQC,2023-06-01T06:29:00Z,35.0,-105.67,10.0,10.0,80,10,19,0.25,30.041338,,,TRUE,TRUE,TRUE,,,,,FG,OVX,0,,,,,,,LIFR,,,,,,,,,,,100,SPECI,2163.0
KAST 010629Z AUTO 33008KT 10SM OVC029 12/08 A3012 RMK AO2 T01220078,KAST,2023-06-01T06:29:00Z,46.15,-123.88,12.2,7.8,330,8,,10.0,30.121063,,,TRUE,TRUE,,,,,,,OVC,2900,,,,,,,MVFR,,,,,,,,,,,,SPECI,3.0
K2W6 010629Z AUTO 00000KT 10SM CLR 14/13 A3010 RMK AO1,K2W6,2023-06-01T06:29:00Z,38.32,-76.55,14.0,13.0,0,0,,10.0,30.100393,,,TRUE,TRUE,,,,,,,CLR,,,,,,,,VFR,,,,,,,,,,,,METAR,40.0
CZUM 010629Z AUTO 28003KT 9SM OVC091 14/12 A2987 RMK SLP127 DENSITY ALT 1800FT,CZUM,2023-06-01T06:29:00Z,53.55,-64.1,14.0,12.0,280,3,,9.0,29.870079,1012.7,,TRUE,,,,,,,,OVC,9100,,,,,,,VFR,,,,,,,,,,,,SPECI,431.0
VAKE 010628Z 24013KT 5000 FU SCT020 SCT025 34/24 Q1007 NOSIG,VAKE,2023-06-01T06:28:00Z,23.13,70.12,34.0,24.0,240,13,,3.11,29.734253,,,,,,TRUE,,,,FU,SCT,2000,SCT,2500,,,,,MVFR,,,,,,,,,,,,METAR,29.0
KTVC 010628Z AUTO 00000KT 6SM BR FEW002 17/16 A3005 RMK AO2 T01670156,KTVC,2023-06-01T06:28:00Z,44.73,-85.58,16.7,15.6,0,0,,6.0,30.050198,,,TRUE,TRUE,,,,,,BR,FEW,200,,,,,,,VFR,,,,,,,,,,,,SPECI,188.0
KNGU 010628Z 04007KT 9SM OVC013 19/16 A3005 RMK AO2 T01940161 $,KNGU,2023-06-01T06:28:00Z,36.93,-76.27,19.4,16.1,40,7,,9.0,30.050198,,,,TRUE,TRUE,,,,,,OVC,1300,,,,,,,MVFR,,,,,,,,,,,,SPECI,3.0
PACZ 010627Z AUTO 18003KT 1/4SM -SHRA FG VV002 01/01 A3000 RMK AO2 SLP166,PACZ,2023-06-01T06:27:00Z,61.78,-166.03,1.0,1.0,180,3,,0.25,30.0,1016.6,,TRUE,TRUE,,,,,,-SHRA FG,OVX,0,,,,,,,LIFR,,,,,,,,,,,200,METAR,129.0
KBOI 010627Z 00000KT 10SM SCT021 15/13 A2984 RMK AO2 T01500128,KBOI,2023-06-01T06:27:00Z,43.57,-116.23,15.0,12.8,0,0,,10.0,29.840551,,,,TRUE,,,,,,,SCT,2100,,,,,,,VFR,,,,,,,,,,,,SPECI,860.0
CYSF 010627Z AUTO 10002KT 6SM BR CLR 09/09 A2992 RMK SLP145,CYSF,2023-06-01T06:27:00Z,59.25,-105.83,9.0,9.0,100,2,,6.0,29.920275,1014.5,,TRUE,,,,,,,BR,CLR,,,,,,,,VFR,,,,,,,,,,,,SPECI,238.0
PAMY 010626Z AUTO 26006KT 10SM OVC006 02/01 A3009 RMK AO2 CIG 002V008 FZRANO PNO $,PAMY,2023-06-01T06:26:00Z,60.37,-166.27,2.0,1.0,260,6,,10.0,30.088583,,,TRUE,TRUE,TRUE,,,TRUE,,,OVC,600,,,,,,,IFR,,,,,,,,,,,,METAR,14.0
KRTN 010626Z AUTO 19014KT 10SM BKN009 12/10 A3002 RMK AO2 PK WND 18027/0600 LTG DSNT SW AND W CIG 006V012 T01170100 $,KRTN,2023-06-01T06:26:00Z,36.73,-104.5,11.7,10.0,190,14,,10.0,30.02067,,,TRUE,TRUE,TRUE,,,,,,BKN,900,,,,,,,IFR,,,,,,,,,,,,SPECI,1939.0
KOZR 010626Z AUTO 04006KT 10SM FEW005 SCT090 20/19 A2993 RMK AO2 SLP135,KOZR,2023-06-01T06:26:00Z,31.28,-85.72,20.0,19.0,40,6,,10.0,29.929134,1013.5,,TRUE,TRUE,,,,,,,FEW,500,SCT,9000,,,,,VFR,,,,,,,,,,,,METAR,90.0
K4MR 010626Z AUTO 07013KT 10SM VCTS FEW039 FEW055 OVC090 M A2989 RMK AO2 RAE0557RAB0558E11RAB15E26 TSE02 SLPNO ALSTG ESTMD $,K4MR,2023-06-01T06:26:00Z,34.3,-103.8,,,70,13,,10.0,29.890747,,,TRUE,TRUE,TRUE,,,,,VCTS,FEW,3900,FEW,5500,OVC,9000,,,VFR,,,,,,,,,,,,SPECI,1339.0
CYER 010626Z AUTO 08007KT 9SM BKN008 M00/M01 A3032 RMK SLP272,CYER,2023-06-01T06:26:00Z,56.02,-87.68,0.0,-1.0,80,7,,9.0,30.318897,1027.2,,TRUE,,,,,,,,BKN,800,,,,,,,IFR,,,,,,,,,,,,SPECI,11.0
PPIZ 010625Z AUTO 31009KT 10SM SCT016 SCT060 M03/M07 A2991 RMK AO2 FZRANO,PPIZ,2023-06-01T06:25:00Z,69.73,-163.0,-3.0,-7.0,310,9,,10.0,29.911417,,,TRUE,TRUE,,,,TRUE,,,SCT,1600,SCT,6000,,,,,VFR,,,,,,,,,,,,SPECI,5.0
PAEI 010625Z AUTO 26009KT 10SM SCT065 09/M04 A2975 RMK AO2 SLP080 $,PAEI,2023-06-01T06:25:00Z,64.67,-147.1,9.0,-4.0,260,9,,10.0,29.749016,1008.0,,TRUE,TRUE,TRUE,,,,,,SCT,6500,,,,,,,VFR,,,,,,,,,,,,METAR,166.0
PAEH 010625Z AUTO 32003KT M1/4SM FG VV002 01/ A3014 RMK AO2 SLP214,PAEH,2023-06-01T06:25:00Z,58.65,-162.07,1.0,,320,3,,0.25,30.138779,1021.4,,TRUE,TRUE,,,,,,FG,OVX,0,,,,,,,LIFR,,,,,,,,,,,200,METAR,101.0
OPLA 010625Z 14006KT 7000 SCT040 SCT100 27/17 Q1008 NOSIG RMK QFE983 A29.78,OPLA,2023-06-01T06:25:00Z,31.52,74.4,27.0,17.0,140,6,,4.35,29.763779,,,,,,TRUE,,,,,SCT,4000,SCT,10000,,,,,MVFR,,,,,,,,,,,,METAR,217.0
KW29 010625Z AUTO 04003KT 10SM CLR 16/17 A3010 RMK AO2 T0165////,KW29,2023-06-01T06:25:00Z,38.98,-76.33,16.5,17.0,40,3,,10.0,30.100393,,,TRUE,TRUE,,,,,,,CLR,,,,,,,,VFR,,,,,,,,,,,,METAR,1.0
KVUJ 010625Z AUTO 00000KT 10SM CLR 15/15 A3011 RMK AO2 T01520150,KVUJ,2023-06-01T06:25:00Z,35.42,-80.15,15.2,15.0,0,0,,10.0,30.109253,,,TRUE,TRUE,,,,,,,CLR,,,,,,,,VFR,,,,,,,,,,,,SPECI,174.0
KUKF 010625Z AUTO 00000KT 2SM BR CLR 13/13 A3015 RMK AO2 VIS 1/2V5,KUKF,2023-06-01T06:25:00Z,36.22,-81.1,13.0,13.0,0,0,,2.0,30.15059,,,TRUE,TRUE,,,,,,BR,CLR,,,,,,,,IFR,,,,,,,,,,,,SPECI,383.0
KTTA 010625Z AUTO 00000KT 1 1/4SM BR VV007 16/16 A3006 RMK AO2 T01610161,KTTA,2023-06-01T06:25:00Z,35.58,-79.1,16.1,16.1,0,0,,1.25,30.059055,,,TRUE,TRUE,,,,,,BR,OVX,0,,,,,,,LIFR,,,,,,,,,,,700,SPECI,71.0
KTDF 010625Z AUTO 00000KT 10SM CLR 13/12 A3009 RMK AO2,KTDF,2023-06-01T06:25:00Z,36.28,-78.98,13.0,12.0,0,0,,10.0,30.088583,,,TRUE,TRUE,,,,,,,CLR,,,,,,,,VFR,,,,,,,,,,,,SPECI,180.0
KSVH 010625Z AUTO 36003KT 10SM CLR 17/15 A3007 RMK AO2 T01660151,KSVH,2023-06-01T06:25:00Z,35.75,-80.95,16.6,15.1,360,3,,10.0,30.070866,,,TRUE,TRUE,,,,,,,CLR,,,,,,,,VFR,,,,,,,,,,,,SPECI,286.0
KSIF 010625Z AUTO 00000KT 7SM CLR 14/13 A3009 RMK AO2 T01350132,KSIF,2023-06-01T06:25:00Z,36.43,-79.85,13.5,13.2,0,0,,7.0,30.088583,,,TRUE,TRUE,,,,,,,CLR,,,,,,,,VFR,,,,,,,,,,,,SPECI,206.0
KSCR 010625Z AUTO 00000KT 7SM CLR 14/14 A3007 RMK AO2 T01380138,KSCR,2023-06-01T06:25:00Z,35.7,-79.5,13.8,13.8,0,0,,7.0,30.070866,,,TRUE,TRUE,,,,,,,CLR,,,,,,,,VFR,,,,,,,,,,,,SPECI,182.0
KS85 010625Z AUTO 09007KT 10SM 16/16 A2978 RMK A01 Culbertson ,KS85,2023-06-01T06:25:00Z,48.15,-104.5,16.0,16.0,90,7,,10.0,29.778543,,,TRUE,TRUE,,,,,,,,,,,,,,,,,,,,,,,,,,,METAR,596.0
KRUQ 010625Z AUTO 00000KT 2SM BR CLR 14/14 A3007 RMK AO2 T01430140,KRUQ,2023-06-01T06:25:00Z,35.65,-80.52,14.3,14.0,0,0,,2.0,30.070866,,,TRUE,TRUE,,,,,,BR,CLR,,,,,,,,IFR,,,,,,,,,,,,SPECI,231.0
KPGV 010625Z AUTO 36003KT 10SM CLR 17/17 A3002 RMK AO2,KPGV,2023-06-01T06:25:00Z,35.63,-77.4,17.0,17.0,360,3,,10.0,30.02067,,,TRUE,TRUE,,,,,,,CLR,,,,,,,,VFR,,,,,,,,,,,,METAR,6.0
KONX 010625Z AUTO 01008G15KT 2SM BR OVC003 A3003 RMK AO2,KONX,2023-06-01T06:25:00Z,36.4,-76.02,,,10,8,15,2.0,30.029528,,,TRUE,TRUE,,,,,,BR,OVC,300,,,,,,,LIFR,,,,,,,,,,,,SPECI,4.0
KOCW 010625Z AUTO 34004KT 10SM BKN016 OVC050 17/16 A3002 RMK AO2 T01710158,KOCW,2023-06-01T06:25:00Z,35.57,-77.05,17.1,15.8,340,4,,10.0,30.02067,,,TRUE,TRUE,,,,,,,BKN,1600,OVC,5000,,,,,MVFR,,,,,,,,,,,,SPECI,10.0
KNTU 010625Z 03009KT 3SM BR OVC003 18/17 A3002 RMK AO2 VIS 2 RWY 5R T01780167,KNTU,2023-06-01T06:25:00Z,36.82,-76.02,17.8,16.7,30,9,,3.0,30.02067,,,,TRUE,,,,,,BR,OVC,300,,,,,,,LIFR,,,,,,,,,,,,SPECI,6.0
KMWK 010625Z AUTO 00000KT 10SM CLR 14/13 A3012 RMK AO2 T01370133,KMWK,2023-06-01T06:25:00Z,36.47,-80.55,13.7,13.3,0,0,,10.0,30.121063,,,TRUE,TRUE,,,,,,,CLR,,,,,,,,VFR,,,,,,,,,,,,SPECI,374.0
KMRN 010625Z AUTO 33003KT 10SM CLR 16/15 A3011 RMK AO2 T01580149,KMRN,2023-06-01T06:25:00Z,35.82,-81.62,15.8,14.9,330,3,,10.0,30.109253,,,TRUE,TRUE,,,,,,,CLR,,,,,,,,VFR,,,,,,,,,,,,SPECI,375.0
KMCZ 010625Z AUTO 02004KT 10SM CLR 17/16 A3002 RMK AO2 T01670157,KMCZ,2023-06-01T06:25:00Z,,,16.7,15.7,20,4,,10.0,30.02067,,,TRUE,TRUE,,,,,,,CLR,,,,,,,,VFR,,,,,,,,,,,,SPECI,
KJNX 010625Z AUTO 00000KT 7SM CLR 16/15 A3003 RMK AO2,KJNX,2023-06-01T06:25:00Z,35.53,-78.38,16.0,15.0,0,0,,7.0,30.029528,,,TRUE,TRUE,,,,,,,CLR,,,,,,,,VFR,,,,,,,,,,,,SPECI,41.0
KISO 010625Z AUTO 34003KT 7SM CLR 17/16 A3003 RMK AO2 T01700161,KISO,2023-06-01T06:25:00Z,35.32,-77.62,17.0,16.1,340,3,,7.0,30.029528,,,TRUE,TRUE,,,,,,,CLR,,,,,,,,VFR,,,,,,,,,,,,METAR,27.0
KIPJ 010625Z AUTO 00000KT 10SM BKN039 15/15 A3008 RMK AO2 T01530147,KIPJ,2023-06-01T06:25:00Z,35.48,-81.17,15.3,14.7,0,0,,10.0,30.079725,,,TRUE,TRUE,,,,,,,BKN,3900,,,,,,,VFR,,,,,,,,,,,,SPECI,266.0
KHRJ 010625Z AUTO 00000KT 10SM CLR 17/16 A3006 RMK AO2 T01700165,KHRJ,2023-06-01T06:25:00Z,35.38,-78.73,17.0,16.5,0,0,,10.0,30.059055,,,TRUE,TRUE,,,,,,,CLR,,,,,,,,VFR,,,,,,,,,,,,SPECI,55.0
KHBI 010625Z AUTO 00000KT 10SM CLR 16/15 A3009 RMK AO2 T01560154,KHBI,2023-06-01T06:25:00Z,35.65,-79.9,15.6,15.4,0,0,,10.0,30.088583,,,TRUE,TRUE,,,,,,,CLR,,,,,,,,VFR,,,,,,,,,,,,SPECI,199.0
KGEV 010625Z AUTO 00000KT 10SM BKN016 14/12 A3017 RMK AO2 T01360123,KGEV,2023-06-01T06:25:00Z,36.43,-81.42,13.6,12.3,0,0,,10.0,30.171259,,,TRUE,TRUE,,,,,,,BKN,1600,,,,,,,MVFR,,,,,,,,,,,,SPECI,961.0
KGAG 010625Z AUTO 27012KT 10SM FEW033 FEW070 18/16 A2990 RMK AO2 LTG DSNT SW-N TSB04E19 T01780156 $,KGAG,2023-06-01T06:25:00Z,36.3,-99.77,17.8,15.6,270,12,,10.0,29.899607,,,TRUE,TRUE,TRUE,,,,,,FEW,3300,FEW,7000,,,,,VFR,,,,,,,,,,,,METAR,670.0
KESN 010625Z AUTO 04005KT 10SM CLR 15/14 A3009 RMK AO2 T01520136,KESN,2023-06-01T06:25:00Z,38.8,-76.07,15.2,13.6,40,5,,10.0,30.088583,,,TRUE,TRUE,,,,,,,CLR,,,,,,,,VFR,,,,,,,,,,,,SPECI,14.0
KEHO 010625Z AUTO 03003KT 10SM CLR 16/15 A3008 RMK AO2 T01560150,KEHO,2023-06-01T06:25:00Z,35.25,-81.6,15.6,15.0,30,3,,10.0,30.079725,,,TRUE,TRUE,,,,,,,CLR,,,,,,,,VFR,,,,,,,,,,,,SPECI,261.0
KEDE 010625Z AUTO 01004KT 10SM SCT013 OVC049 19/18 A3003 RMK AO2 T01900179,KEDE,2023-06-01T06:25:00Z,36.03,-76.57,19.0,17.9,10,4,,10.0,30.029528,,,TRUE,TRUE,,,,,,,SCT,1300,OVC,4900,,,,,VFR,,,,,,,,,,,,SPECI,4.0
KDPL 010625Z AUTO 00000KT 7SM BR CLR 17/16 A3003 RMK AO2,KDPL,2023-06-01T06:25:00Z,35.0,-77.97,17.0,16.0,0,0,,7.0,30.029528,,,TRUE,TRUE,,,,,,BR,CLR,,,,,,,,VFR,,,,,,,,,,,,SPECI,39.0
KDMW 010625Z AUTO 00000KT 10SM CLR 15/09 A3013 RMK AO2,KDMW,2023-06-01T06:25:00Z,39.6,-77.0,15.0,9.0,0,0,,10.0,30.129921,,,TRUE,TRUE,,,,,,,CLR,,,,,,,,VFR,,,,,,,,,,,,METAR,239.0
KCTZ 010625Z AUTO 00000KT 10SM CLR 17/17 A3004 RMK AO2 T01670167,KCTZ,2023-06-01T06:25:00Z,34.98,-78.37,16.7,16.7,0,0,,10.0,30.041338,,,TRUE,TRUE,,,,,,,CLR,,,,,,,,VFR,,,,,,,,,,,,SPECI,43.0
KCPC 010625Z AUTO 00000KT 7SM OVC070 17/16 A3004 RMK AO2 T01710162,KCPC,2023-06-01T06:25:00Z,34.28,-78.72,17.1,16.2,0,0,,7.0,30.041338,,,TRUE,TRUE,,,,,,,OVC,7000,,,,,,,VFR,,,,,,,,,,,,SPECI,27.0
KCII 010625Z AUTO 24006KT 10SM 12/11 A2980 RMK A01 ,KCII,2023-06-01T06:25:00Z,47.83,-112.17,12.0,11.0,240,6,,10.0,29.799213,,,TRUE,TRUE,,,,,,,,,,,,,,,,,,,,,,,,,,,METAR,1202.0
KCGE 010625Z AUTO 02005KT 10SM FEW028 FEW033 17/17 A3009 RMK A01,KCGE,2023-06-01T06:25:00Z,38.53,-76.03,17.0,17.0,20,5,,10.0,30.088583,,,TRUE,TRUE,,,,,,,FEW,2800,FEW,3300,,,,,VFR,,,,,,,,,,,,METAR,5.0
KCBE 010625Z AUTO 00000KT 10SM CLR 10/09 A3017 RMK AO2 T01020092,KCBE,2023-06-01T06:25:00Z,39.62,-78.77,10.2,9.2,0,0,,10.0,30.171259,,,TRUE,TRUE,,,,,,,CLR,,,,,,,,VFR,,,,,,,,,,,,SPECI,226.0
KASJ 010625Z AUTO 34004KT 10SM SCT021 15/15 A3004 RMK AO2 T01520152,KASJ,2023-06-01T06:25:00Z,36.28,-77.17,15.2,15.2,340,4,,10.0,30.041338,,,TRUE,TRUE,,,,,,,SCT,2100,,,,,,,VFR,,,,,,,,,,,,SPECI,20.0
KACZ 010625Z AUTO 01004KT 10SM CLR 18/17 A3002 RMK AO2 T01830168,KACZ,2023-06-01T06:25:00Z,,,18.3,16.8,10,4,,10.0,30.02067,,,TRUE,TRUE,,,,,,,CLR,,,,,,,,VFR,,,,,,,,,,,,SPECI,
K6S8 010625Z AUTO 00000KT 10SM 14/11 A2983 RMK A01 LAUREL,K6S8,2023-06-01T06:25:00Z,45.7,-108.77,14.0,11.0,0,0,,10.0,29.828741,,,TRUE,TRUE,,,,,,,,,,,,,,,,,,,,,,,,,,,SPECI,1072.0
K4U6 010625Z AUTO 12016KT 10SM 19/15 A2974 RMK A01 Circle ,K4U6,2023-06-01T06:25:00Z,47.42,-105.57,19.0,15.0,120,16,,10.0,29.740158,,,TRUE,TRUE,,,,,,,,,,,,,,,,,,,,,,,,,,,METAR,739.0
K2G4 010625Z AUTO 13007KT 10SM CLR 14/04 A3017 RMK AO2,K2G4,2023-06-01T06:25:00Z,39.58,-79.33,14.0,4.0,130,7,,10.0,30.171259,,,TRUE,TRUE,,,,,,,CLR,,,,,,,,VFR,,,,,,,,,,,,SPECI,908.0
K24A 010625Z AUTO 00000KT 10SM OVC031 15/14 A3015 RMK AO2 T01470141,K24A,2023-06-01T06:25:00Z,35.32,-83.2,14.7,14.1,0,0,,10.0,30.15059,,,TRUE,TRUE,,,,,,,OVC,3100,,,,,,,VFR,,,,,,,,,,,,SPECI,864.0
FAMM 010625Z AUTO 07005KT //// // ////// 09/04 Q1023,FAMM,2023-06-01T06:25:00Z,-25.8,25.53,9.0,4.0,70,5,,,30.206694,,,TRUE,,,,,,,,,,,,,,,,,,,,,,,,,,,,SPECI,1280.0
EHWO 010625Z AUTO 02008KT 310V070 9999 BKN011 11/08 Q1023 GRN,EHWO,2023-06-01T06:25:00Z,51.45,4.33,11.0,8.0,20,8,,6.21,30.206694,,,TRUE,,,,,,,,BKN,1100,,,,,,,MVFR,,,,,,,,,,,,METAR,15.0
EHVL 010625Z AUTO 36014KT 9999 OVC015 11/08 Q1024 WHT,EHVL,2023-06-01T06:25:00Z,53.28,5.08,11.0,8.0,360,14,,6.21,30.236221,,,TRUE,,,,,,,,OVC,1500,,,,,,,MVFR,,,,,,,,,,,,METAR,2.0
EHVK 010625Z AUTO 03006KT 360V080 9999 OVC012 11/08 Q1023 GRN BECMG SCT020,EHVK,2023-06-01T06:25:00Z,51.65,5.7,11.0,8.0,30,6,,6.21,30.206694,,,TRUE,,,,,,,,OVC,1200,,,,,,,MVFR,,,,,,,,,,,,SPECI,20.0
EHSC 010625Z AUTO 04020KT 9999 ///////// 11/09 Q1025 W14/H14,EHSC,2023-06-01T06:25:00Z,51.93,3.67,11.0,9.0,40,20,,6.21,30.265747,,,TRUE,,,,,,,,,,,,,,,,,,,,,,,,,,,,METAR,19.0
EHSA 010625Z AUTO 03020KT 9999 ///////// 11/08 Q1024 W11/H15,EHSA,2023-06-01T06:25:00Z,52.0,3.28,11.0,8.0,30,20,,6.21,30.236221,,,TRUE,,,,,,,,,,,,,,,,,,,,,,,,,,,,METAR,18.0
EHRD 010625Z AUTO 02008KT 350V060 9999 OVC013 12/09 Q1024 NOSIG,EHRD,2023-06-01T06:25:00Z,51.95,4.45,12.0,9.0,20,8,,6.21,30.236221,,,TRUE,,,TRUE,,,,,OVC,1300,,,,,,,MVFR,,,,,,,,,,,,METAR,-4.0
EHPG 010625Z AUTO 03017KT 330V070 9999 SCT009 OVC010 11/09 Q1025,EHPG,2023-06-01T06:25:00Z,52.37,3.35,11.0,9.0,30,17,,6.21,30.265747,,,TRUE,,,,,,,,SCT,900,OVC,1000,,,,,MVFR,,,,,,,,,,,,METAR,24.0
EHMG 010625Z AUTO 34019KT 9999 -DZ SCT007 BKN008 BKN011 11/08 Q1025 REDZ,EHMG,2023-06-01T06:25:00Z,53.62,4.97,11.0,8.0,340,19,,6.21,30.265747,,,TRUE,,,,,,,-DZ,SCT,700,BKN,800,BKN,1100,,,IFR,,,,,,,,,,,,METAR,30.0
EHMA 010625Z AUTO 35018KT 6000 FEW007 SCT009 OVC011 11/09 Q1023,EHMA,2023-06-01T06:25:00Z,53.5,5.95,11.0,9.0,350,18,,3.73,30.206694,,,TRUE,,,,,,,,FEW,700,SCT,900,OVC,1100,,,MVFR,,,,,,,,,,,,METAR,27.0
EHLW 010625Z AUTO 35010KT 330V030 9999 OVC016 11/08 Q1024 WHT,EHLW,2023-06-01T06:25:00Z,53.22,5.75,11.0,8.0,350,10,,6.21,30.236221,,,TRUE,,,,,,,,OVC,1600,,,,,,,MVFR,,,,,,,,,,,,METAR,1.0
EHLE 010625Z AUTO 03010KT 360V060 9999 OVC015 12/08 Q1024 NOSIG,EHLE,2023-06-01T06:25:00Z,52.45,5.52,12.0,8.0,30,10,,6.21,30.236221,,,TRUE,,,TRUE,,,,,OVC,1500,,,,,,,MVFR,,,,,,,,,,,,METAR,-3.0
EHKV 010625Z AUTO 02017KT 9999 BKN012 OVC014 11/07 Q1025,EHKV,2023-06-01T06:25:00Z,53.27,3.63,11.0,7.0,20,17,,6.21,30.265747,,,TRUE,,,,,,,,BKN,1200,OVC,1400,,,,,MVFR,,,,,,,,,,,,METAR,28.0
EHKD 010625Z AUTO 36007KT 320V060 9999 OVC015 11/08 Q1025 WHT NOSIG,EHKD,2023-06-01T06:25:00Z,52.92,4.77,11.0,8.0,360,7,,6.21,30.265747,,,TRUE,,,TRUE,,,,,OVC,1500,,,,,,,MVFR,,,,,,,,,,,,METAR,1.0
EHJR 010625Z AUTO 02013KT //// // ///////// 11/07 Q1026 RE// W13/H12,EHJR,2023-06-01T06:25:00Z,53.22,3.22,11.0,7.0,20,13,,,30.295275,,,TRUE,,,,,,,,,,,,,,,,,,,,,,,,,,,,METAR,31.0
EHJA 010625Z AUTO 36014KT 320V030 9999 OVC016/// 11/08 Q1026,EHJA,2023-06-01T06:25:00Z,53.82,2.95,11.0,8.0,360,14,,6.21,30.295275,,,TRUE,,,,,,,,OVC,1600,,,,,,,MVFR,,,,,,,,,,,,METAR,34.0
EHHW 010625Z AUTO 34016KT 9999 BKN012/// OVC014/// 11/07 Q1023,EHHW,2023-06-01T06:25:00Z,54.03,6.03,11.0,7.0,340,16,,6.21,30.206694,,,TRUE,,,,,,,,BKN,1200,OVC,1400,,,,,MVFR,,,,,,,,,,,,METAR,10.0
EHGG 010625Z AUTO 32007KT 270V360 9999 SCT008 BKN009 OVC010 11/09 Q1023 BECMG BKN012,EHGG,2023-06-01T06:25:00Z,53.12,6.57,11.0,9.0,320,7,,6.21,30.206694,,,TRUE,,,,,,,,SCT,800,BKN,900,OVC,1000,,,IFR,,,,,,,,,,,,METAR,2.0
EHFS 010625Z AUTO 03012KT 340V070 9999 BKN011/// 12/09 Q1023,EHFS,2023-06-01T06:25:00Z,51.45,3.6,12.0,9.0,30,12,,6.21,30.206694,,,TRUE,,,,,,,,BKN,1100,,,,,,,MVFR,,,,,,,,,,,,METAR,1.0
EHFD 010625Z AUTO 34022KT 280V060 9999 SCT010/// OVC013/// 10/07 Q1024,EHFD,2023-06-01T06:25:00Z,54.85,4.7,10.0,7.0,340,22,,6.21,30.236221,,,TRUE,,,,,,,,SCT,1000,OVC,1300,,,,,MVFR,,,,,,,,,,,,METAR,24.0
EHEH 010625Z AUTO 35008KT 330V060 9999 OVC012 12/08 Q1023 GRN BECMG SCT020,EHEH,2023-06-01T06:25:00Z,51.45,5.38,12.0,8.0,350,8,,6.21,30.206694,,,TRUE,,,,,,,,OVC,1200,,,,,,,MVFR,,,,,,,,,,,,METAR,20.0
EHDV 010625Z AUTO 34016KT 9999 FEW006/// BKN011/// OVC013/// 11/09 Q1026,EHDV,2023-06-01T06:25:00Z,54.32,2.93,11.0,9.0,340,16,,6.21,30.295275,,,TRUE,,,,,,,,FEW,600,BKN,1100,OVC,1300,,,MVFR,,,,,,,,,,,,METAR,36.0
EHDL 010625Z AUTO 03008KT 320V100 9999 BKN011 OVC013 11/07 Q1024 GRN,EHDL,2023-06-01T06:25:00Z,52.07,5.88,11.0,7.0,30,8,,6.21,30.236221,,,TRUE,,,,,,,,BKN,1100,OVC,1300,,,,,MVFR,,,,,,,,,,,,METAR,49.0
EHBK 010625Z AUTO 04009KT 010V070 5000 BKN002 BKN004 OVC005 10/09 Q1022,EHBK,2023-06-01T06:25:00Z,50.92,5.77,10.0,9.0,40,9,,3.11,30.177166,,,TRUE,,,,,,,,BKN,200,BKN,400,OVC,500,,,LIFR,,,,,,,,,,,,METAR,112.0
EHAM 010625Z 01009KT 320V040 9999 BKN014 12/09 Q1024 BECMG BKN015,EHAM,2023-06-01T06:25:00Z,52.32,4.78,12.0,9.0,10,9,,6.21,30.236221,,,,,,,,,,,BKN,1400,,,,,,,MVFR,,,,,,,,,,,,METAR,-2.0
EHAK 010625Z AUTO 36025KT 9999 BKN013/// OVC016/// 10/07 Q1024,EHAK,2023-06-01T06:25:00Z,55.38,3.82,10.0,7.0,360,25,,6.21,30.236221,,,TRUE,,,,,,,,BKN,1300,OVC,1600,,,,,MVFR,,,,,,,,,,,,METAR,33.0
EBLB 010625Z AUTO 04005KT 9999 NCD 14/09 Q1021 BLU,EBLB,2023-06-01T06:25:00Z,50.47,6.17,14.0,9.0,40,5,,6.21,30.147638,,,TRUE,,,,,,,,CLR,,,,,,,,VFR,,,,,,,,,,,,METAR,563.0
EBFS 010625Z 04007KT 9999 SKC 14/11 Q1021 BLU BLU,EBFS,2023-06-01T06:25:00Z,50.23,4.65,14.0,11.0,40,7,,6.21,30.147638,,,,,,,,,,,SKC,,,,,,,,VFR,,,,,,,,,,,,METAR,276.0
EBFN 010625Z AUTO 03013KT 9999 BKN011/// 12/10 Q1024 GRN,EBFN,2023-06-01T06:25:00Z,51.08,2.65,12.0,10.0,30,13,,6.21,30.236221,,,TRUE,,,,,,,,BKN,1100,,,,,,,MVFR,,,,,,,,,,,,METAR,9.0
EBDT 010625Z AUTO 04007KT 5000 BR OVC008/// 11/09 Q1023 GRN,EBDT,2023-06-01T06:25:00Z,51.02,5.07,11.0,9.0,40,7,,3.11,30.206694,,,TRUE,,,,,,,BR,OVC,800,,,,,,,IFR,,,,,,,,,,,,METAR,25.0
EBCV 010625Z AUTO 03010KT 9000 BR BKN007/// 12/10 Q1022 GRN,EBCV,2023-06-01T06:25:00Z,50.57,3.82,12.0,10.0,30,10,,5.59,30.177166,,,TRUE,,,,,,,BR,BKN,700,,,,,,,IFR,,,,,,,,,,,,METAR,56.0
PFKT 010624Z AUTO 06003KT 1/2SM SN FG 00/00 A2996 RMK AO2 P0000 FZRANO $,PFKT,2023-06-01T06:24:00Z,65.33,-166.47,0.0,0.0,60,3,,0.5,29.958662,,,TRUE,TRUE,TRUE,,,TRUE,,SN FG,,,,,,,,,,,,,,,0.005,,,,,,SPECI,8.0
PAZK 010624Z AUTO 00000KT 10SM FEW002 OVC060 01/01 A2977 RMK AO2 FZRANO,PAZK,2023-06-01T06:24:00Z,61.93,-147.17,1.0,1.0,0,0,,10.0,29.769686,,,TRUE,TRUE,,,,TRUE,,,FEW,200,OVC,6000,,,,,VFR,,,,,,,,,,,,SPECI,1002.0
PABA 010624Z AUTO 27023KT 3SM -SN BR OVC005 00/M01 A2979 RMK AO2 PK WND 26026/0613 P0000 FZRANO,PABA,2023-06-01T06:24:00Z,70.13,-143.58,0.0,-1.0,270,23,,3.0,29.790354,,,TRUE,TRUE,,,,TRUE,,-SN BR,OVC,500,,,,,,,IFR,,,,,,0.005,,,,,,SPECI,1.0
KGIF 010624Z AUTO 06004KT 10SM FEW011 BKN017 BKN023 22/22 A2989 RMK AO2 T02220217,KGIF,2023-06-01T06:24:00Z,28.07,-81.75,22.2,21.7,60,4,,10.0,29.890747,,,TRUE,TRUE,,,,,,,FEW,1100,BKN,1700,BKN,2300,,,MVFR,,,,,,,,,,,,METAR,44.0
FAKM 010624Z 00000KT 9000 NSC 05/04 Q1023,FAKM,2023-06-01T06:24:00Z,-28.8,24.77,5.0,4.0,0,0,,5.59,30.206694,,,,,,,,,,,CLR,,,,,,,,VFR,,,,,,,,,,,,SPECI,1203.0
CYEV 010624Z 29012G17KT 15SM OVC004 03/02 A2965 RMK ST8 SLP047,CYEV,2023-06-01T06:24:00Z,68.32,-133.5,3.0,2.0,290,12,17,15.0,29.648623,1004.7,,,,,,,,,,OVC,400,,,,,,,LIFR,,,,,,,,,,,,SPECI,74.0
KAMA 010623Z AUTO 08004KT 3SM TSRA BR SCT042 BKN070 OVC085 15/14 A2996 RMK AO2 LTG DSNT E AND SE AND W TSE0557B17 P0010 T01500144,KAMA,2023-06-01T06:23:00Z,35.22,-101.72,15.0,14.4,80,4,,3.0,29.958662,,,TRUE,TRUE,,,,,,TSRA BR,SCT,4200,BKN,7000,OVC,8500,,,MVFR,,,,,,0.1,,,,,,SPECI,1102.0
PAWN 010622Z AUTO 31008KT 10SM BKN016 BKN031 OVC075 M01/M04 RMK AO2 FZRANO $,PAWN,2023-06-01T06:22:00Z,67.57,-162.98,-1.0,-4.0,310,8,,10.0,,,,TRUE,TRUE,TRUE,,,TRUE,,,BKN,1600,BKN,3100,OVC,7500,,,MVFR,,,,,,,,,,,,METAR,26.0
PAKP 010622Z AUTO 05014G20KT 7SM -SN SCT028 OVC046 M03/M05 A2977 RMK AO2 P0000 FZRANO,PAKP,2023-06-01T06:22:00Z,68.13,-151.73,-3.0,-5.0,50,14,20,7.0,29.769686,,,TRUE,TRUE,,,,TRUE,,-SN,SCT,2800,OVC,4600,,,,,VFR,,,,,,0.005,,,,,,METAR,649.0
KHEY 010622Z AUTO 06007KT 10SM FEW004 OVC100 20/20 A2992 RMK AO2 SLP131 $,KHEY,2023-06-01T06:22:00Z,31.35,-85.65,20.0,20.0,60,7,,10.0,29.920275,1013.1,,TRUE,TRUE,TRUE,,,,,,FEW,400,OVC,10000,,,,,VFR,,,,,,,,,,,,METAR,95.0
KEVM 010622Z AUTO 00000KT 4SM BR CLR 15/15 A2997 RMK AO2,KEVM,2023-06-01T06:22:00Z,47.42,-92.5,15.0,15.0,0,0,,4.0,29.970472,,,TRUE,TRUE,,,,,,BR,CLR,,,,,,,,MVFR,,,,,,,,,,,,SPECI,419.0
KDOV 010622Z AUTO 36004KT 10SM BKN014 15/15 A3009 RMK AO2 BKN V FEW SLP193,KDOV,2023-06-01T06:22:00Z,39.12,-75.47,15.0,15.0,360,4,,10.0,30.088583,1019.3,,TRUE,TRUE,,,,,,,BKN,1400,,,,,,,MVFR,,,,,,,,,,,,METAR,6.0
PAWI 010621Z AUTO 26007KT 3SM -SN BKN035 OVC042 M03/M06 A2985 RMK AO2 P0000 T10331061 TSNO,PAWI,2023-06-01T06:21:00Z,70.63,-160.02,-3.3,-6.1,260,7,,3.0,29.84941,,,TRUE,TRUE,,,TRUE,,,-SN,BKN,3500,OVC,4200,,,,,MVFR,,,,,,0.005,,,,,,METAR,12.0
LTBQ 010621Z 03005KT 360V060 6000 SCT008 BKN020 17/15 Q1017 NOSIG RMK RWY09 06006KT,LTBQ,2023-06-01T06:21:00Z,40.73,30.07,17.0,15.0,30,5,,3.73,30.029528,,,,,,TRUE,,,,,SCT,800,BKN,2000,,,,,MVFR,,,,,,,,,,,,SPECI,51.0
K1ON 010621Z AUTO 03004KT 10SM OVC100 18/16 A2985 RMK AO2 RAB03E12DZB12E21 SLP107 $,K1ON,2023-06-01T06:21:00Z,,,18.0,16.0,30,4,,10.0,29.84941,1010.7,,TRUE,TRUE,TRUE,,,,,,OVC,10000,,,,,,,VFR,,,,,,,,,,,,SPECI,
CYVP 010621Z 01010G16KT 12SM -SN SCT009 OVC020 M01/M03 A3025 RMK SF4SC4 SLP248,CYVP,2023-06-01T06:21:00Z,58.12,-68.42,-1.0,-3.0,10,10,16,12.0,30.250984,1024.8,,,,,,,,,-SN,SCT,900,OVC,2000,,,,,MVFR,,,,,,,,,,,,SPECI,28.0
RJOZ 010620Z 10012KT 9999 -TSRA FEW020 BKN030 FEW030CB 22/18 Q1007 RMK 2CU020 7CU030 1CB030 A2976 FBL TS 30KM W MOV NE,RJOZ,2023-06-01T06:20:00Z,34.03,131.05,22.0,18.0,100,12,,6.21,29.734253,,,,,,,,,,-TSRA,FEW,2000,BKN,3000,FEW,3000,,,MVFR,,,,,,,,,,,,METAR,4.0
LTFM 010620Z 04008KT 9999 SCT009 BKN180 19/15 Q1017 NOSIG RMK RWY17L 04005KT 360V070 RWY34L 02008KT RWY16R 05005KT 350V070 RWY36 04007KT 360V060 RWY18 06005KT 020V080,LTFM,2023-06-01T06:20:00Z,41.27,28.75,19.0,15.0,40,8,,6.21,30.029528,,,,,,TRUE,,,,,SCT,900,BKN,18000,,,,,VFR,,,,,,,,,,,,METAR,99.0
LTFJ 010620Z 05012KT CAVOK 20/15 Q1016 NOSIG RMK RWY24 02010KT 350V050,LTFJ,2023-06-01T06:20:00Z,40.9,29.3,20.0,15.0,50,12,,6.21,30.0,,,,,,TRUE,,,,,CAVOK,,,,,,,,VFR,,,,,,,,,,,,METAR,83.0
LTFE 010620Z VRB02KT 9999 FEW035 BKN200 21/17 Q1013 NOSIG RMK RWY10 VRB01KT,LTFE,2023-06-01T06:20:00Z,37.25,27.67,21.0,17.0,0,2,,6.21,29.911417,,,,,,TRUE,,,,,FEW,3500,BKN,20000,,,,,VFR,,,,,,,,,,,,METAR,6.0
LTFC 010620Z 23004KT 160V300 9999 FEW008 SCT035 15/12 Q1017 RMK RWY23 21004KT 140V290,LTFC,2023-06-01T06:20:00Z,37.87,30.38,15.0,12.0,230,4,,6.21,30.029528,,,,,,,,,,,FEW,800,SCT,3500,,,,,VFR,,,-0.4,,,,,,,,,METAR,862.0
LTCS 010620Z 24006KT 200V300 CAVOK 23/10 Q1015 RMK RWY22 VRB02KT SKC,LTCS,2023-06-01T06:20:00Z,37.45,38.9,23.0,10.0,240,6,,6.21,29.970472,,,,,,,,,,,CAVOK,,,,,,,,VFR,,,,,,,,,,,,METAR,825.0
LTCJ 010620Z 26003KT 200V360 CAVOK 24/11 Q1013 NOSIG RMK RWY20 VRB03KT 2AC100,LTCJ,2023-06-01T06:20:00Z,37.93,41.12,24.0,11.0,260,3,,6.21,29.911417,,,,,,TRUE,,,,,CAVOK,,,,,,,,VFR,,,,,,,,,,,,METAR,559.0
LTCG 010620Z 06003KT 320V130 9999 SCT035 BKN100 21/17 Q1016 NOSIG RMK RWY29 07003KT 030V090,LTCG,2023-06-01T06:20:00Z,41.0,39.77,21.0,17.0,60,3,,6.21,30.0,,,,,,TRUE,,,,,SCT,3500,BKN,10000,,,,,VFR,,,,,,,,,,,,METAR,28.0
LTCE 010620Z 07004KT 020V130 9999 SCT035 16/07 Q1019 NOSIG RMK RWY08R 04004KT 340V090 RWY26R 06005KT 010V110 RWY08L VRB04KT 3CU035,LTCE,2023-06-01T06:20:00Z,39.95,41.17,16.0,7.0,70,4,,6.21,30.088583,,,,,,TRUE,,,,,SCT,3500,,,,,,,VFR,,,,,,,,,,,,METAR,1758.0
LTCC 010620Z VRB02KT CAVOK 26/11 Q1013 NOSIG RMK RWY16 VRB02KT SKC,LTCC,2023-06-01T06:20:00Z,37.88,40.2,26.0,11.0,0,2,,6.21,29.911417,,,,,,TRUE,,,,,CAVOK,,,,,,,,VFR,,,,,,,,,,,,METAR,676.0
LTBU 010620Z 04008KT 020V080 CAVOK 22/14 Q1017 RMK RWY22 05009KT,LTBU,2023-06-01T06:20:00Z,41.13,27.92,22.0,14.0,40,8,,6.21,30.029528,,,,,,,,,,,CAVOK,,,,,,,,VFR,,,,,,,,,,,,METAR,165.0
LTBS 010620Z VRB04KT 9999 FEW030 SCT180 23/17 Q1013 NOSIG RMK RWY19 34004KT 310V040 1CU030 4CI180,LTBS,2023-06-01T06:20:00Z,36.7,28.78,23.0,17.0,0,4,,6.21,29.911417,,,,,,TRUE,,,,,FEW,3000,SCT,18000,,,,,VFR,,,,,,,,,,,,SPECI,2.0
LTBR 010620Z VRB02KT CAVOK 20/13 Q1016 NOSIG RMK RWY07 VRB02KT,LTBR,2023-06-01T06:20:00Z,40.25,29.57,20.0,13.0,0,2,,6.21,30.0,,,,,,TRUE,,,,,CAVOK,,,,,,,,VFR,,,,,,,,,,,,METAR,233.0
LTBJ 010620Z 26003KT 200V010 CAVOK 21/16 Q1013 NOSIG RMK RWY16 /////KT,LTBJ,2023-06-01T06:20:00Z,38.28,27.15,21.0,16.0,260,3,,6.21,29.911417,,,,,,TRUE,,,,,CAVOK,,,,,,,,VFR,,,,,,,,,,,,SPECI,123.0
LTBA 010620Z 04011KT 010V070 CAVOK 22/12 Q1016 RMK RWY23 04010KT 010V070,LTBA,2023-06-01T06:20:00Z,40.97,28.82,22.0,12.0,40,11,,6.21,30.0,,,,,,,,,,,CAVOK,,,,,,,,VFR,,,,,,,,,,,,SPECI,33.0
LTAZ 010620Z 31003KT 220V030 9999 FEW040 SCT100 18/13 Q1017 RMK RWY29 VRB02KT,LTAZ,2023-06-01T06:20:00Z,38.77,34.52,18.0,13.0,310,3,,6.21,30.029528,,,,,,,,,,,FEW,4000,SCT,10000,,,,,VFR,,,,,,,,,,,,METAR,944.0
LTAU 010620Z VRB01KT 9999 SCT040 SCT100 19/12 Q1017 NOSIG RMK RWY07 05002KT,LTAU,2023-06-01T06:20:00Z,38.77,35.48,19.0,12.0,0,1,,6.21,30.029528,,,,,,TRUE,,,,,SCT,4000,SCT,10000,,,,,VFR,,,,,,,,,,,,METAR,1053.0
LTAT 010620Z VRB02KT 9999 FEW040 22/10 Q1016 NOSIG RMK RWY03 VRB02KT,LTAT,2023-06-01T06:20:00Z,38.43,38.08,22.0,10.0,0,2,,6.21,30.0,,,,,,TRUE,,,,,FEW,4000,,,,,,,VFR,,,,,,,,,,,,METAR,850.0
LTAP 010620Z VRB01KT 9999 SCT030 18/12 Q1016 NOSIG RMK RWY23 VRB02KT,LTAP,2023-06-01T06:20:00Z,40.83,35.52,18.0,12.0,0,1,,6.21,30.0,,,,,,TRUE,,,,,SCT,3000,,,,,,,VFR,,,,,,,,,,,,METAR,536.0
LTAJ 010620Z 15003KT 100V200 CAVOK 23/11 Q1013 NOSIG RMK RWY10 05003KT 020V080 SKC,LTAJ,2023-06-01T06:20:00Z,36.95,37.48,23.0,11.0,150,3,,6.21,29.911417,,,,,,TRUE,,,,,CAVOK,,,,,,,,VFR,,,,,,,,,,,,METAR,684.0
LTAI 010620Z VRB02KT 9999 FEW020 SCT180 22/18 Q1014 NOSIG RMK RWY18C VRB02KT RWY36R VRB02KT RWY18L 04003KT 340V110,LTAI,2023-06-01T06:20:00Z,36.9,30.8,22.0,18.0,0,2,,6.21,29.940945,,,,,,TRUE,,,,,FEW,2000,SCT,18000,,,,,VFR,,,,,,,,,,,,SPECI,50.0
LTAG 010620Z 27003KT 9999 SCT035 23/16 Q1013 NOSIG RMK 4CU035,LTAG,2023-06-01T06:20:00Z,37.0,35.42,23.0,16.0,270,3,,6.21,29.911417,,,,,,TRUE,,,,,SCT,3500,,,,,,,VFR,,,,,,,,,,,,METAR,62.0
LTAF 010620Z 22004KT 160V330 9999 SCT030 23/17 Q1013 NOSIG RMK RWY23 14002KT 4CU030,LTAF,2023-06-01T06:20:00Z,36.98,35.28,23.0,17.0,220,4,,6.21,29.911417,,,,,,TRUE,,,,,SCT,3000,,,,,,,VFR,,,,,,,,,,,,SPECI,19.0
LTAC 010620Z VRB02KT 9999 SCT040 BKN100 15/10 Q1017 NOSIG RMK RWY21L 32005KT RWY03L VRB02KT RWY21R 34004KT 300V010,LTAC,2023-06-01T06:20:00Z,40.12,32.98,15.0,10.0,0,2,,6.21,30.029528,,,,,,TRUE,,,,,SCT,4000,BKN,10000,,,,,VFR,,,,,,,,,,,,METAR,952.0
LSZS 010620Z 10001KT CAVOK 07/06 Q1022 RMK C TL170,LSZS,2023-06-01T06:20:00Z,46.53,9.88,7.0,6.0,100,1,,6.21,30.177166,,,,,,,,,,,CAVOK,,,,,,,,VFR,,,,,,,,,,,,SPECI,1708.0
LSZR 010620Z 28007KT CAVOK 15/12 Q1018 RMK C,LSZR,2023-06-01T06:20:00Z,47.48,9.57,15.0,12.0,280,7,,6.21,30.059055,,,,,,,,,,,CAVOK,,,,,,,,VFR,,,,,,,,,,,,METAR,396.0
LSZL 010620Z 11003KT 080V140 9999 SCT120 17/13 Q1018 RMK BLU+,LSZL,2023-06-01T06:20:00Z,46.17,8.88,17.0,13.0,110,3,,6.21,30.059055,,,,,,,,,,,SCT,12000,,,,,,,VFR,,,,,,,,,,,,SPECI,198.0
LSZH 010620Z VRB01KT CAVOK 17/10 Q1019 NOSIG,LSZH,2023-06-01T06:20:00Z,47.48,8.53,17.0,10.0,0,1,,6.21,30.088583,,,,,,TRUE,,,,,CAVOK,,,,,,,,VFR,,,,,,,,,,,,METAR,424.0
LSZG 010620Z 00000KT CAVOK 15/13 Q1018,LSZG,2023-06-01T06:20:00Z,47.17,7.42,15.0,13.0,0,0,,6.21,30.059055,,,,,,,,,,,CAVOK,,,,,,,,VFR,,,,,,,,,,,,METAR,428.0
LSZC 010620Z AUTO VRB02KT CAVOK 16/11 Q1018,LSZC,2023-06-01T06:20:00Z,46.97,8.38,16.0,11.0,0,2,,6.21,30.059055,,,TRUE,,,,,,,,CAVOK,,,,,,,,VFR,,,,,,,,,,,,METAR,445.0
LSZB 010620Z 00000KT CAVOK 15/12 Q1018,LSZB,2023-06-01T06:20:00Z,46.92,7.5,15.0,12.0,0,0,,6.21,30.059055,,,,,,,,,,,CAVOK,,,,,,,,VFR,,,,,,,,,,,,METAR,510.0
LSZA 010620Z VRB01KT CAVOK 17/14 Q1018,LSZA,2023-06-01T06:20:00Z,46.0,8.92,17.0,14.0,0,1,,6.21,30.059055,,,,,,,,,,,CAVOK,,,,,,,,VFR,,,,,,,,,,,,METAR,276.0
LSMP 010620Z AUTO 00000KT 9999NDV SCT100 14/11 Q1019 RMK,LSMP,2023-06-01T06:20:00Z,46.83,6.92,14.0,11.0,0,0,,,30.088583,,,TRUE,,,,,,,,SCT,10000,,,,,,,,,,,,,,,,,,,METAR,490.0
LSMM 010620Z 09003KT 9999 FEW030 16/11 Q1019 RMK BLU+,LSMM,2023-06-01T06:20:00Z,46.75,8.12,16.0,11.0,90,3,,6.21,30.088583,,,,,,,,,,,FEW,3000,,,,,,,VFR,,,,,,,,,,,,METAR,570.0
LSME 010620Z 00000KT CAVOK 16/11 Q1018 RMK BLU,LSME,2023-06-01T06:20:00Z,47.1,8.3,16.0,11.0,0,0,,6.21,30.059055,,,,,,,,,,,CAVOK,,,,,,,,VFR,,,,,,,,,,,,METAR,427.0
LSMD 010620Z VRB01KT CAVOK 16/09 Q1019 RMK BLU,LSMD,2023-06-01T06:20:00Z,47.4,8.65,16.0,9.0,0,1,,6.21,30.088583,,,,,,,,,,,CAVOK,,,,,,,,VFR,,,,,,,,,,,,METAR,436.0
LSMA 010620Z VRB01KT CAVOK 16/12 Q1018 RMK BLU,LSMA,2023-06-01T06:20:00Z,46.95,8.28,16.0,12.0,0,1,,6.21,30.059055,,,,,,,,,,,CAVOK,,,,,,,,VFR,,,,,,,,,,,,METAR,441.0
LSGS 010620Z VRB01KT 9999 SCT150 16/08 Q1019,LSGS,2023-06-01T06:20:00Z,46.22,7.32,16.0,8.0,0,1,,6.21,30.088583,,,,,,,,,,,SCT,15000,,,,,,,VFR,,,,,,,,,,,,METAR,482.0
LSGG 010620Z VRB01KT 9999 FEW080 17/12 Q1018 NOSIG,LSGG,2023-06-01T06:20:00Z,46.25,6.12,17.0,12.0,0,1,,6.21,30.059055,,,,,,TRUE,,,,,FEW,8000,,,,,,,VFR,,,,,,,,,,,,METAR,411.0
LSGC 010620Z 23002KT CAVOK 13/08 Q1019,LSGC,2023-06-01T06:20:00Z,47.08,6.8,13.0,8.0,230,2,,6.21,30.088583,,,,,,,,,,,CAVOK,,,,,,,,VFR,,,,,,,,,,,,METAR,1018.0
LOXZ 010620Z VRB02KT 9999 FEW060 15/11 Q1020 NOSIG,LOXZ,2023-06-01T06:20:00Z,47.2,14.75,15.0,11.0,0,2,,6.21,30.11811,,,,,,TRUE,,,,,FEW,6000,,,,,,,VFR,,,,,,,,,,,,METAR,678.0
LOWW 010620Z VRB02KT CAVOK 18/10 Q1018 NOSIG,LOWW,2023-06-01T06:20:00Z,48.12,16.57,18.0,10.0,0,2,,6.21,30.059055,,,,,,TRUE,,,,,CAVOK,,,,,,,,VFR,,,,,,,,,,,,METAR,179.0
LOWS 010620Z AUTO 18003KT 130V240 CAVOK 16/10 Q1018 NOSIG,LOWS,2023-06-01T06:20:00Z,47.78,13.02,16.0,10.0,180,3,,6.21,30.059055,,,TRUE,,,TRUE,,,,,CAVOK,,,,,,,,VFR,,,,,,,,,,,,METAR,427.0
LOWL 010620Z AUTO VRB02KT CAVOK 18/09 Q1018 BECMG 09007KT,LOWL,2023-06-01T06:20:00Z,48.22,14.18,18.0,9.0,0,2,,6.21,30.059055,,,TRUE,,,,,,,,CAVOK,,,,,,,,VFR,,,,,,,,,,,,SPECI,290.0
LOWK 010620Z AUTO VRB01KT 9999 BKN051 17/13 Q1019 NOSIG,LOWK,2023-06-01T06:20:00Z,46.65,14.32,17.0,13.0,0,1,,6.21,30.088583,,,TRUE,,,TRUE,,,,,BKN,5100,,,,,,,VFR,,,,,,,,,,,,METAR,450.0
LOWI 010620Z VRB02KT 9999 FEW070 15/10 Q1018 NOSIG,LOWI,2023-06-01T06:20:00Z,47.27,11.33,15.0,10.0,0,2,,6.21,30.059055,,,,,,TRUE,,,,,FEW,7000,,,,,,,VFR,,,,,,,,,,,,METAR,570.0
LOWG 010620Z VRB01KT 9999 FEW060 17/12 Q1018 NOSIG,LOWG,2023-06-01T06:20:00Z,47.0,15.43,17.0,12.0,0,1,,6.21,30.059055,,,,,,TRUE,,,,,FEW,6000,,,,,,,VFR,,,,,,,,,,,,METAR,337.0
LLBG 010620Z 35004KT 310V020 CAVOK 30/04 Q1012 NOSIG,LLBG,2023-06-01T06:20:00Z,32.0,34.88,30.0,4.0,350,4,,6.21,29.88189,,,,,,TRUE,,,,,CAVOK,,,,,,,,VFR,,,,,,,,,,,,METAR,35.0
LIRZ 010620Z AUTO 34003KT 310V020 9999 FEW130/// 17/13 Q1016,LIRZ,2023-06-01T06:20:00Z,43.1,12.5,17.0,13.0,340,3,,6.21,30.0,,,TRUE,,,,,,,,FEW,13000,,,,,,,VFR,,,,,,,,,,,,METAR,206.0
LIRQ 010620Z VRB02KT CAVOK 22/13 Q1016,LIRQ,2023-06-01T06:20:00Z,43.8,11.2,22.0,13.0,0,2,,6.21,30.0,,,,,,,,,,,CAVOK,,,,,,,,VFR,,,,,,,,,,,,METAR,33.0
LIRN 010620Z 05004KT CAVOK 21/15 Q1015 NOSIG,LIRN,2023-06-01T06:20:00Z,40.88,14.3,21.0,15.0,50,4,,6.21,29.970472,,,,,,TRUE,,,,,CAVOK,,,,,,,,VFR,,,,,,,,,,,,METAR,76.0
LIRF 010620Z 05005KT CAVOK 18/15 Q1015 NOSIG,LIRF,2023-06-01T06:20:00Z,41.78,12.23,18.0,15.0,50,5,,6.21,29.970472,,,,,,TRUE,,,,,CAVOK,,,,,,,,VFR,,,,,,,,,,,,METAR,2.0
LIRA 010620Z 04005KT 9999 SCT070 17/13 Q1015,LIRA,2023-06-01T06:20:00Z,41.8,12.58,17.0,13.0,40,5,,6.21,29.970472,,,,,,,,,,,SCT,7000,,,,,,,VFR,,,,,,,,,,,,METAR,101.0
LIPZ 010620Z 35006KT CAVOK 22/13 Q1016 NOSIG,LIPZ,2023-06-01T06:20:00Z,45.5,12.35,22.0,13.0,350,6,,6.21,30.0,,,,,,TRUE,,,,,CAVOK,,,,,,,,VFR,,,,,,,,,,,,METAR,3.0
LIPY 010620Z AUTO 24005KT 220V280 9999 FEW056/// 20/16 Q1016,LIPY,2023-06-01T06:20:00Z,43.62,13.37,20.0,16.0,240,5,,6.21,30.0,,,TRUE,,,,,,,,FEW,5600,,,,,,,VFR,,,,,,,,,,,,METAR,11.0
LIPX 010620Z 29003KT 9999 FEW090 21/13 Q1017,LIPX,2023-06-01T06:20:00Z,45.38,10.87,21.0,13.0,290,3,,6.21,30.029528,,,,,,,,,,,FEW,9000,,,,,,,VFR,,,,,,,,,,,,METAR,67.0
LIPR 010620Z 30008KT CAVOK 20/14 Q1016,LIPR,2023-06-01T06:20:00Z,44.02,12.62,20.0,14.0,300,8,,6.21,30.0,,,,,,,,,,,CAVOK,,,,,,,,VFR,,,,,,,,,,,,METAR,10.0
LIPQ 010620Z AUTO VRB02KT 9999 NCD 22/14 Q1016,LIPQ,2023-06-01T06:20:00Z,45.82,13.47,22.0,14.0,0,2,,6.21,30.0,,,TRUE,,,,,,,,CLR,,,,,,,,VFR,,,,,,,,,,,,METAR,6.0
LIPO 010620Z AUTO VRB01KT 9999 NCD 22/13 Q1017,LIPO,2023-06-01T06:20:00Z,45.42,10.33,22.0,13.0,0,1,,6.21,30.029528,,,TRUE,,,,,,,,CLR,,,,,,,,VFR,,,,,,,,,,,,METAR,104.0
LIPH 010620Z VRB02KT CAVOK 21/13 Q1016,LIPH,2023-06-01T06:20:00Z,45.63,12.18,21.0,13.0,0,2,,6.21,30.0,,,,,,,,,,,CAVOK,,,,,,,,VFR,,,,,,,,,,,,METAR,10.0
LIPE 010620Z 24004KT 200V270 CAVOK 19/14 Q1017,LIPE,2023-06-01T06:20:00Z,44.52,11.3,19.0,14.0,240,4,,6.21,30.029528,,,,,,,,,,,CAVOK,,,,,,,,VFR,,,,,,,,,,,,METAR,37.0
LIMZ 010620Z AUTO 29003KT 260V340 9999 FEW060/// BKN100/// 16/13 Q1019,LIMZ,2023-06-01T06:20:00Z,44.53,7.62,16.0,13.0,290,3,,6.21,30.088583,,,TRUE,,,,,,,,FEW,6000,BKN,10000,,,,,VFR,,,,,,,,,,,,METAR,377.0
LIMW 010620Z AUTO VRB02KT 9999 NCD 15/11 Q1020,LIMW,2023-06-01T06:20:00Z,45.73,7.37,15.0,11.0,0,2,,6.21,30.11811,,,TRUE,,,,,,,,CLR,,,,,,,,VFR,,,,,,,,,,,,METAR,554.0
LIML 010620Z 06003KT 030V110 9999 FEW080 21/14 Q1017 NOSIG,LIML,2023-06-01T06:20:00Z,45.47,9.27,21.0,14.0,60,3,,6.21,30.029528,,,,,,TRUE,,,,,FEW,8000,,,,,,,VFR,,,,,,,,,,,,METAR,109.0
LIMJ 010620Z 06011KT 9999 BKN080 21/13 Q1016,LIMJ,2023-06-01T06:20:00Z,44.42,8.83,21.0,13.0,60,11,,6.21,30.0,,,,,,,,,,,BKN,8000,,,,,,,VFR,,,,,,,,,,,,METAR,3.0
LIMF 010620Z 30004KT 9999 SCT090 19/12 Q1018,LIMF,2023-06-01T06:20:00Z,45.22,7.65,19.0,12.0,300,4,,6.21,30.059055,,,,,,,,,,,SCT,9000,,,,,,,VFR,,,,,,,,,,,,METAR,295.0
LIME 010620Z VRB02KT CAVOK 20/14 Q1017 NOSIG,LIME,2023-06-01T06:20:00Z,45.67,9.7,20.0,14.0,0,2,,6.21,30.029528,,,,,,TRUE,,,,,CAVOK,,,,,,,,VFR,,,,,,,,,,,,METAR,239.0
LIMC 010620Z 01006KT CAVOK 19/14 Q1018 NOSIG,LIMC,2023-06-01T06:20:00Z,45.62,8.72,19.0,14.0,10,6,,6.21,30.059055,,,,,,TRUE,,,,,CAVOK,,,,,,,,VFR,,,,,,,,,,,,METAR,221.0
LIEO 010620Z VRB01KT 9999 FEW040 18/17 Q1015,LIEO,2023-06-01T06:20:00Z,40.88,9.52,18.0,17.0,0,1,,6.21,29.970472,,,,,,,,,,,FEW,4000,,,,,,,VFR,,,,,,,,,,,,METAR,8.0
LIEE 010620Z 31003KT 280V340 CAVOK 17/15 Q1014,LIEE,2023-06-01T06:20:00Z,39.25,9.07,17.0,15.0,310,3,,6.21,29.940945,,,,,,,,,,,CAVOK,,,,,,,,VFR,,,,,,,,,,,,METAR,1.0
LIEA 010620Z VRB02KT CAVOK 18/16 Q1014,LIEA,2023-06-01T06:20:00Z,40.62,8.28,18.0,16.0,0,2,,6.21,29.940945,,,,,,,,,,,CAVOK,,,,,,,,VFR,,,,,,,,,,,,METAR,22.0
LICR 010620Z AUTO 19003KT 160V220 9999 FEW100/// BKN110/// 21/17 Q1015,LICR,2023-06-01T06:20:00Z,38.07,15.65,21.0,17.0,190,3,,6.21,29.970472,,,TRUE,,,,,,,,FEW,10000,BKN,11000,,,,,VFR,,,,,,,,,,,,METAR,16.0
LICJ 010620Z VRB02KT CAVOK 20/16 Q1014,LICJ,2023-06-01T06:20:00Z,38.17,13.08,20.0,16.0,0,2,,6.21,29.940945,,,,,,,,,,,CAVOK,,,,,,,,VFR,,,,,,,,,,,,METAR,20.0
LICD 010620Z AUTO 07005KT 9999 FEW120/// 21/18 Q1014,LICD,2023-06-01T06:20:00Z,35.5,12.62,21.0,18.0,70,5,,6.21,29.940945,,,TRUE,,,,,,,,FEW,12000,,,,,,,VFR,,,,,,,,,,,,METAR,20.0
LICC 010620Z 25003KT 9999 FEW015 SCT090 20/18 Q1015,LICC,2023-06-01T06:20:00Z,37.47,15.05,20.0,18.0,250,3,,6.21,29.970472,,,,,,,,,,,FEW,1500,SCT,9000,,,,,VFR,,,,,,,,,,,,METAR,6.0
LICB 010620Z AUTO VRB01KT 9999 NCD 20/15 Q1015,LICB,2023-06-01T06:20:00Z,37.0,14.62,20.0,15.0,0,1,,6.21,29.970472,,,TRUE,,,,,,,,CLR,,,,,,,,VFR,,,,,,,,,,,,METAR,212.0
LICA 010620Z AUTO 07005KT 040V100 9999 NCD 23/15 Q1014,LICA,2023-06-01T06:20:00Z,38.9,16.25,23.0,15.0,70,5,,6.21,29.940945,,,TRUE,,,,,,,,CLR,,,,,,,,VFR,,,,,,,,,,,,METAR,7.0
LIBR 010620Z 33012KT 8000 SCT008 21/18 Q1015,LIBR,2023-06-01T06:20:00Z,40.65,17.95,21.0,18.0,330,12,,4.97,29.970472,,,,,,,,,,,SCT,800,,,,,,,MVFR,,,,,,,,,,,,METAR,5.0
LIBP 010620Z AUTO 22005KT 9999 NCD 21/15 Q1016,LIBP,2023-06-01T06:20:00Z,42.42,14.18,21.0,15.0,220,5,,6.21,30.0,,,TRUE,,,,,,,,CLR,,,,,,,,VFR,,,,,,,,,,,,METAR,10.0
LIBD 010620Z 29005KT 250V340 CAVOK 21/17 Q1015,LIBD,2023-06-01T06:20:00Z,41.13,16.77,21.0,17.0,290,5,,6.21,29.970472,,,,,,,,,,,CAVOK,,,,,,,,VFR,,,,,,,,,,,,METAR,42.0
LGTS 010620Z VRB03KT 9999 FEW030 19/18 Q1017 NOSIG,LGTS,2023-06-01T06:20:00Z,40.52,22.97,19.0,18.0,0,3,,6.21,30.029528,,,,,,TRUE,,,,,FEW,3000,,,,,,,VFR,,,,,,,,,,,,METAR,4.0
LGSR 010620Z 36006KT 9999 FEW018 21/18 Q1013,LGSR,2023-06-01T06:20:00Z,36.4,25.48,21.0,18.0,360,6,,6.21,29.911417,,,,,,,,,,,FEW,1800,,,,,,,VFR,,,,,,,,,,,,METAR,31.0
LGSA 010620Z 03008KT 9999 SCT010 SCT018 BKN080 20/18 Q1012,LGSA,2023-06-01T06:20:00Z,35.53,24.13,20.0,18.0,30,8,,6.21,29.88189,,,,,,,,,,,SCT,1000,SCT,1800,BKN,8000,,,VFR,,,,,,,,,,,,METAR,122.0
LGRX 010620Z 05006KT 9999 FEW035 24/14 Q1014,LGRX,2023-06-01T06:20:00Z,38.17,21.42,24.0,14.0,50,6,,6.21,29.940945,,,,,,,,,,,FEW,3500,,,,,,,VFR,,,,,,,,,,,,METAR,16.0
LGRP 010620Z 04005KT 9999 FEW020 21/17 Q1012 NOSIG,LGRP,2023-06-01T06:20:00Z,36.4,28.08,21.0,17.0,40,5,,6.21,29.88189,,,,,,TRUE,,,,,FEW,2000,,,,,,,VFR,,,,,,,,,,,,METAR,3.0
LGPZ 010620Z 04008KT 9999 FEW080 24/16 Q1014,LGPZ,2023-06-01T06:20:00Z,38.92,20.77,24.0,16.0,40,8,,6.21,29.940945,,,,,,,,,,,FEW,8000,,,,,,,VFR,,,,,,,,,,,,METAR,3.0
LGMT 010620Z VRB03KT CAVOK 22/18 Q1015,LGMT,2023-06-01T06:20:00Z,39.05,26.6,22.0,18.0,0,3,,6.21,29.970472,,,,,,,,,,,CAVOK,,,,,,,,VFR,,,,,,,,,,,,METAR,4.0
LGMK 010620Z 01013KT 9999 FEW007 21/17 Q1013,LGMK,2023-06-01T06:20:00Z,37.43,25.35,21.0,17.0,10,13,,6.21,29.911417,,,,,,,,,,,FEW,700,,,,,,,VFR,,,,,,,,,,,,METAR,126.0
LGLM 010620Z 04011KT CAVOK 22/13 Q1015,LGLM,2023-06-01T06:20:00Z,39.92,25.23,22.0,13.0,40,11,,6.21,29.970472,,,,,,,,,,,CAVOK,,,,,,,,VFR,,,,,,,,,,,,METAR,4.0
LGKV 010620Z 12005KT CAVOK 22/16 Q1016,LGKV,2023-06-01T06:20:00Z,40.92,24.62,22.0,16.0,120,5,,6.21,30.0,,,,,,,,,,,CAVOK,,,,,,,,VFR,,,,,,,,,,,,METAR,5.0
LGKR 010620Z 00000KT CAVOK 22/18 Q1013 NOSIG,LGKR,2023-06-01T06:20:00Z,39.62,19.92,22.0,18.0,0,0,,6.21,29.911417,,,,,,TRUE,,,,,CAVOK,,,,,,,,VFR,,,,,,,,,,,,METAR,2.0
LGKP 010620Z 03006KT 9999 FEW012 22/17 Q1013,LGKP,2023-06-01T06:20:00Z,35.42,27.15,22.0,17.0,30,6,,6.21,29.911417,,,,,,,,,,,FEW,1200,,,,,,,VFR,,,,,,,,,,,,METAR,20.0
LGKO 010620Z 03006KT 9999 FEW016 23/17 Q1013,LGKO,2023-06-01T06:20:00Z,36.8,27.08,23.0,17.0,30,6,,6.21,29.911417,,,,,,,,,,,FEW,1600,,,,,,,VFR,,,,,,,,,,,,METAR,130.0
LGKL 010620Z 36004KT 9999 FEW030 22/18 Q1012,LGKL,2023-06-01T06:20:00Z,37.07,22.02,22.0,18.0,360,4,,6.21,29.88189,,,,,,,,,,,FEW,3000,,,,,,,VFR,,,,,,,,,,,,METAR,4.0
LGIR 010620Z 07004KT 9999 FEW008 BKN020 BKN080 21/19 Q1013 NOSIG,LGIR,2023-06-01T06:20:00Z,35.33,25.17,21.0,19.0,70,4,,6.21,29.911417,,,,,,TRUE,,,,,FEW,800,BKN,2000,BKN,8000,,,MVFR,,,,,,,,,,,,METAR,37.0
LGIO 010620Z 00000KT 9999 SCT006 SCT025 16/15 Q1017,LGIO,2023-06-01T06:20:00Z,39.7,20.82,16.0,15.0,0,0,,6.21,30.029528,,,,,,,,,,,SCT,600,SCT,2500,,,,,VFR,,,,,,,,,,,,METAR,476.0
LGEL 010620Z 36007KT 9999 FEW020 23/15 Q1015,LGEL,2023-06-01T06:20:00Z,38.07,23.55,23.0,15.0,360,7,,6.21,29.970472,,,,,,,,,,,FEW,2000,,,,,,,VFR,,,,,,,,,,,,METAR,21.0
LGBL 010620Z 00000KT 9999 FEW035 23/17 Q1016,LGBL,2023-06-01T06:20:00Z,39.22,22.8,23.0,17.0,0,0,,6.21,30.0,,,,,,,,,,,FEW,3500,,,,,,,VFR,,,,,,,,,,,,METAR,13.0
LGAV 010620Z 02013KT 9999 FEW025 23/13 Q1015 NOSIG,LGAV,2023-06-01T06:20:00Z,37.93,23.95,23.0,13.0,20,13,,6.21,29.970472,,,,,,TRUE,,,,,FEW,2500,,,,,,,VFR,,,,,,,,,,,,METAR,83.0
LGAL 010620Z 05008KT CAVOK 23/16 Q1016,LGAL,2023-06-01T06:20:00Z,40.85,25.95,23.0,16.0,50,8,,6.21,30.0,,,,,,,,,,,CAVOK,,,,,,,,VFR,,,,,,,,,,,,METAR,5.0
LGAD 010620Z 00000KT 9999 FEW080 23/16 Q1014,LGAD,2023-06-01T06:20:00Z,37.92,21.28,23.0,16.0,0,0,,6.21,29.940945,,,,,,,,,,,FEW,8000,,,,,,,VFR,,,,,,,,,,,,METAR,8.0
LCRA 010620Z 06006KT CAVOK 23/18 Q1013 NOSIG,LCRA,2023-06-01T06:20:00Z,34.58,32.98,23.0,18.0,60,6,,6.21,29.911417,,,,,,TRUE,,,,,CAVOK,,,,,,,,VFR,,,,,,,,,,,,METAR,23.0
LCEN 010620Z 12006KT 070V150 9999 SCT015 23/17 Q1014 NOSIG RMK RWY11 12007KT,LCEN,2023-06-01T06:20:00Z,35.15,33.5,23.0,17.0,120,6,,6.21,29.940945,,,,,,TRUE,,,,,SCT,1500,,,,,,,VFR,,,,,,,,,,,,SPECI,91.0
LATI 010620Z VRB02KT CAVOK 22/17 Q1015 NOSIG,LATI,2023-06-01T06:20:00Z,41.42,19.72,22.0,17.0,0,2,,6.21,29.970472,,,,,,TRUE,,,,,CAVOK,,,,,,,,VFR,,,,,,,,,,,,METAR,32.0
KW40 010620Z AUTO 02003KT 7SM CLR 16/16 A3004 RMK AO2 T01640155,KW40,2023-06-01T06:20:00Z,35.22,-78.03,16.4,15.5,20,3,,7.0,30.041338,,,TRUE,TRUE,,,,,,,CLR,,,,,,,,VFR,,,,,,,,,,,,SPECI,50.0
KTRK 010620Z AUTO 00000KT 10SM CLR 07/04 A3000 RMK AO2,KTRK,2023-06-01T06:20:00Z,39.32,-120.13,7.0,4.0,0,0,,10.0,30.0,,,TRUE,TRUE,,,,,,,CLR,,,,,,,,VFR,,,,,,,,,,,,METAR,1800.0
KMHV 010620Z AUTO 30032G47KT 10SM CLR 19/07 A2976 RMK AO2,KMHV,2023-06-01T06:20:00Z,35.07,-118.15,19.0,7.0,300,32,47,10.0,29.760826,,,TRUE,TRUE,,,,,,,CLR,,,,,,,,VFR,,,,,,,,,,,,SPECI,841.0
KI35 010620Z AUTO 00000KT 10SM SCT075 BKN100 18/18 A3009 RMK AO2,KI35,2023-06-01T06:20:00Z,36.87,-83.37,18.0,18.0,0,0,,10.0,30.088583,,,TRUE,TRUE,,,,,,,SCT,7500,BKN,10000,,,,,VFR,,,,,,,,,,,,METAR,467.0
KGZN 010620Z AUTO 13007KT 10SM CLR 20/17 A2987 RMK AO2,KGZN,2023-06-01T06:20:00Z,32.37,-99.02,20.0,17.0,130,7,,10.0,29.870079,,,TRUE,TRUE,,,,,,,CLR,,,,,,,,VFR,,,,,,,,,,,,METAR,522.0
KETC 010620Z AUTO 00000KT 5SM BR CLR 16/15 A3003 RMK AO2 T01580153,KETC,2023-06-01T06:20:00Z,35.93,-77.55,15.8,15.3,0,0,,5.0,30.029528,,,TRUE,TRUE,,,,,,BR,CLR,,,,,,,,MVFR,,,,,,,,,,,,SPECI,15.0
EYVI 010620Z VRB02KT CAVOK 14/08 Q1013 NOSIG,EYVI,2023-06-01T06:20:00Z,54.63,25.28,14.0,8.0,0,2,,6.21,29.911417,,,,,,TRUE,,,,,CAVOK,,,,,,,,VFR,,,,,,,,,,,,METAR,180.0
EYSA 010620Z 08007KT CAVOK 14/04 Q1014 NOSIG,EYSA,2023-06-01T06:20:00Z,55.9,23.4,14.0,4.0,80,7,,6.21,29.940945,,,,,,TRUE,,,,,CAVOK,,,,,,,,VFR,,,,,,,,,,,,METAR,135.0
EYPA 010620Z 15007KT 110V170 CAVOK 15/11 Q1013,EYPA,2023-06-01T06:20:00Z,55.97,21.08,15.0,11.0,150,7,,6.21,29.911417,,,,,,,,,,,CAVOK,,,,,,,,VFR,,,,,,,,,,,,METAR,15.0
EYKA 010620Z 06004KT 030V110 CAVOK 14/09 Q1013,EYKA,2023-06-01T06:20:00Z,54.97,24.08,14.0,9.0,60,4,,6.21,29.911417,,,,,,,,,,,CAVOK,,,,,,,,VFR,,,,,,,,,,,,METAR,68.0
EVVA 010620Z AUTO VRB02KT CAVOK 13/09 Q1013,EVVA,2023-06-01T06:20:00Z,57.35,21.55,13.0,9.0,0,2,,6.21,29.911417,,,TRUE,,,,,,,,CAVOK,,,,,,,,VFR,,,,,,,,,,,,METAR,1.0
EVRA 010620Z 31004KT 240V040 CAVOK 15/05 Q1013 NOSIG,EVRA,2023-06-01T06:20:00Z,56.92,23.97,15.0,5.0,310,4,,6.21,29.911417,,,,,,TRUE,,,,,CAVOK,,,,,,,,VFR,,,,,,,,,,,,METAR,7.0
EVLA 010620Z AUTO 14003KT 090V180 CAVOK 15/08 Q1013,EVLA,2023-06-01T06:20:00Z,56.52,21.1,15.0,8.0,140,3,,6.21,29.911417,,,TRUE,,,,,,,,CAVOK,,,,,,,,VFR,,,,,,,,,,,,METAR,5.0
EVGA 010620Z VRB03KT CAVOK 13/04 Q1013 NOSIG,EVGA,2023-06-01T06:20:00Z,56.78,24.85,13.0,4.0,0,3,,6.21,29.911417,,,,,,TRUE,,,,,CAVOK,,,,,,,,VFR,,,,,,,,,,,,METAR,61.0
ETWM 010620Z 36007KT 9999 -DZ BKN007 11/09 Q1023 GRN,ETWM,2023-06-01T06:20:00Z,52.72,7.33,11.0,9.0,360,7,,6.21,30.206694,,,,,,,,,,-DZ,BKN,700,,,,,,,IFR,,,,,,,,,,,,METAR,18.0
ETSN 010620Z 03003KT 9999 SCT330 18/07 Q1018 BLU+,ETSN,2023-06-01T06:20:00Z,48.72,11.22,18.0,7.0,30,3,,6.21,30.059055,,,,,,,,,,,SCT,33000,,,,,,,VFR,,,,,,,,,,,,METAR,378.0
ETSL 010620Z 03003KT 9999 FEW300 15/08 Q1018 BLU+BLU+,ETSL,2023-06-01T06:20:00Z,48.18,10.87,15.0,8.0,30,3,,6.21,30.059055,,,,,,,,,,,FEW,30000,,,,,,,VFR,,,,,,,,,,,,METAR,548.0
ETSI 010620Z 08005KT 9999 FEW260 SCT330 17/07 Q1018 BLU+BLU+,ETSI,2023-06-01T06:20:00Z,48.72,11.53,17.0,7.0,80,5,,6.21,30.059055,,,,,,,,,,,FEW,26000,SCT,33000,,,,,VFR,,,,,,,,,,,,METAR,366.0
ETSH 010620Z 29006KT 9999 FEW200 BKN320 15/09 Q1018 BLU+BLU+,ETSH,2023-06-01T06:20:00Z,51.77,13.17,15.0,9.0,290,6,,6.21,30.059055,,,,,,,,,,,FEW,20000,BKN,32000,,,,,VFR,,,,,,,,,,,,METAR,79.0
ETSB 010620Z AUTO 02005KT //// // ////// 16/08 Q1020 ///,ETSB,2023-06-01T06:20:00Z,50.17,7.07,16.0,8.0,20,5,,,30.11811,,,TRUE,,,,,,,,,,,,,,,,,,,,,,,,,,,,SPECI,477.0
ETNW 010620Z 31009KT 9999 OVC010 11/08 Q1021 GRN GRN,ETNW,2023-06-01T06:20:00Z,52.45,9.42,11.0,8.0,310,9,,6.21,30.147638,,,,,,,,,,,OVC,1000,,,,,,,MVFR,,,,,,,,,,,,METAR,57.0
ETNT 010620Z 33009KT 9000 BKN013 11/09 Q1022 BLACKGRN,ETNT,2023-06-01T06:20:00Z,53.53,7.67,11.0,9.0,330,9,,5.59,30.177166,,,,,,,,,,,BKN,1300,,,,,,,MVFR,,,,,,,,,,,,METAR,5.0
ETNS 010620Z 29014KT 9999 BKN016 11/07 Q1019 WHT WHT TEMPO GRN,ETNS,2023-06-01T06:20:00Z,54.47,9.52,11.0,7.0,290,14,,6.21,30.088583,,,,,,,,,,,BKN,1600,,,,,,,MVFR,,,,,,,,,,,,METAR,22.0
ETNN 010620Z 30008KT 9000 BKN007 12/10 Q1022 GRN,ETNN,2023-06-01T06:20:00Z,50.82,6.67,12.0,10.0,300,8,,5.59,30.177166,,,,,,,,,,,BKN,700,,,,,,,IFR,,,,,,,,,,,,METAR,108.0
ETNL 010620Z 28013KT 9999 BKN016 11/08 Q1018 WHT WHT TEMPO GRN,ETNL,2023-06-01T06:20:00Z,53.92,12.27,11.0,8.0,280,13,,6.21,30.059055,,,,,,,,,,,BKN,1600,,,,,,,MVFR,,,,,,,,,,,,METAR,40.0
ETNH 010620Z 29013G23KT 9999 BKN016 11/07 Q1019 WHT WHT TEMPO GRN,ETNH,2023-06-01T06:20:00Z,54.32,9.55,11.0,7.0,290,13,23,6.21,30.088583,,,,,,,,,,,BKN,1600,,,,,,,MVFR,,,,,,,,,,,,SPECI,6.0
ETND 010620Z 32004KT 9999 -DZ OVC007 11/09 Q1022 GRN GRN,ETND,2023-06-01T06:20:00Z,52.58,8.35,11.0,9.0,320,4,,6.21,30.177166,,,,,,,,,,-DZ,OVC,700,,,,,,,IFR,,,,,,,,,,,,METAR,37.0
ETMN 010620Z 32012KT 9999 BKN012 11/08 Q1021 GRN GRN,ETMN,2023-06-01T06:20:00Z,53.77,8.67,11.0,8.0,320,12,,6.21,30.147638,,,,,,,,,,,BKN,1200,,,,,,,MVFR,,,,,,,,,,,,METAR,23.0
ETHS 010620Z 30011KT 9999 OVC013 11/07 Q1020 BLACKGRN GRN,ETHS,2023-06-01T06:20:00Z,52.92,10.18,11.0,7.0,300,11,,6.21,30.11811,,,,,,,,,,,OVC,1300,,,,,,,MVFR,,,,,,,,,,,,METAR,71.0
ETHN 010620Z 08004KT 9999 SCT310 17/09 Q1019 BLU+BLU+,ETHN,2023-06-01T06:20:00Z,49.38,9.97,17.0,9.0,80,4,,6.21,30.088583,,,,,,,,,,,SCT,31000,,,,,,,VFR,,,,,,,,,,,,METAR,466.0
ETHL 010620Z 04004KT 9999 FEW330 16/08 Q1018 BLU+BLU+,ETHL,2023-06-01T06:20:00Z,48.22,9.92,16.0,8.0,40,4,,6.21,30.059055,,,,,,,,,,,FEW,33000,,,,,,,VFR,,,,,,,,,,,,METAR,536.0
ETHF 010620Z 36006KT 9999 FEW007 SCT340 14/10 Q1021 BLU+BLU+,ETHF,2023-06-01T06:20:00Z,51.12,9.28,14.0,10.0,360,6,,6.21,30.147638,,,,,,,,,,,FEW,700,SCT,34000,,,,,VFR,,,,,,,,,,,,METAR,171.0
ETHC 010620Z 28008KT 9999 OVC012 11/08 Q1021 GRN GRN,ETHC,2023-06-01T06:20:00Z,52.6,10.02,11.0,8.0,280,8,,6.21,30.147638,,,,,,,,,,,OVC,1200,,,,,,,MVFR,,,,,,,,,,,,METAR,35.0
ETHB 010620Z 34007KT 9999 -DZ OVC008 11/09 Q1022 GRN GRN,ETHB,2023-06-01T06:20:00Z,52.27,9.07,11.0,9.0,340,7,,6.21,30.177166,,,,,,,,,,-DZ,OVC,800,,,,,,,IFR,,,,,,,,,,,,METAR,69.0
ETHA 010620Z 19001KT 9999 FEW260 14/09 Q1018 BLU+,ETHA,2023-06-01T06:20:00Z,47.83,10.87,14.0,9.0,190,1,,6.21,30.059055,,,,,,,,,,,FEW,26000,,,,,,,VFR,,,,,,,,,,,,METAR,738.0
ETGG 010620Z AUTO 31021KT 9999 // ////// 12/08 Q1019 ///,ETGG,2023-06-01T06:20:00Z,54.83,9.5,12.0,8.0,310,21,,6.21,30.088583,,,TRUE,,,,,,,,,,,,,,,,,,,,,,,,,,,,METAR,33.0
ESUT 010620Z AUTO 31014KT 9999 OVC027/// 01/M03 Q1013,ESUT,2023-06-01T06:20:00Z,65.8,15.08,1.0,-3.0,310,14,,6.21,29.911417,,,TRUE,,,,,,,,OVC,2700,,,,,,,MVFR,,,,,,,,,,,,METAR,457.0
ESUP 010620Z AUTO 31013KT 280V340 9999 BKN025/// BKN033/// ///// Q1005,ESUP,2023-06-01T06:20:00Z,67.25,23.07,,,310,13,,6.21,29.675198,,,TRUE,,,,,,,,BKN,2500,BKN,3300,,,,,MVFR,,,,,,,,,,,,METAR,164.0
ESTL 010620Z 30008KT 9999 BKN011 13/11 Q1015,ESTL,2023-06-01T06:20:00Z,56.07,13.2,13.0,11.0,300,8,,6.21,29.970472,,,,,,,,,,,BKN,1100,,,,,,,MVFR,,,,,,,,,,,,METAR,39.0
ESTA 010620Z 27006KT 9999 BKN011 14/11 Q1015,ESTA,2023-06-01T06:20:00Z,56.28,12.83,14.0,11.0,270,6,,6.21,29.970472,,,,,,,,,,,BKN,1100,,,,,,,MVFR,,,,,,,,,,,,METAR,19.0
ESSV 010620Z 36007KT CAVOK 13/09 Q1013,ESSV,2023-06-01T06:20:00Z,57.67,18.35,13.0,9.0,360,7,,6.21,29.911417,,,,,,,,,,,CAVOK,,,,,,,,VFR,,,,,,,,,,,,METAR,38.0
ESST 010620Z AUTO 02008KT 340V070 9999 NCD 10/01 Q1019,ESST,2023-06-01T06:20:00Z,60.15,12.98,10.0,1.0,20,8,,6.21,30.088583,,,TRUE,,,,,,,,CLR,,,,,,,,VFR,,,,,,,,,,,,METAR,110.0
ESSP 010620Z 02010KT CAVOK 11/00 Q1016,ESSP,2023-06-01T06:20:00Z,58.58,16.25,11.0,0.0,20,10,,6.21,30.0,,,,,,,,,,,CAVOK,,,,,,,,VFR,,,,,,,,,,,,METAR,3.0
ESSL 010620Z 01010KT CAVOK 11/00 Q1016,ESSL,2023-06-01T06:20:00Z,58.4,15.67,11.0,0.0,10,10,,6.21,30.0,,,,,,,,,,,CAVOK,,,,,,,,VFR,,,,,,,,,,,,METAR,51.0
ESSD 010620Z 35012KT CAVOK 08/M03 Q1017,ESSD,2023-06-01T06:20:00Z,60.42,15.5,8.0,-3.0,350,12,,6.21,30.029528,,,,,,,,,,,CAVOK,,,,,,,,VFR,,,,,,,,,,,,METAR,151.0
ESSB 010620Z 36011KT 320V020 CAVOK 10/M01 Q1016,ESSB,2023-06-01T06:20:00Z,59.35,17.93,10.0,-1.0,360,11,,6.21,30.0,,,,,,,,,,,CAVOK,,,,,,,,VFR,,,,,,,,,,,,METAR,14.0
ESSA 010620Z 35013KT CAVOK 08/M04 Q1016 NOSIG,ESSA,2023-06-01T06:20:00Z,59.65,17.93,8.0,-4.0,350,13,,6.21,30.0,,,,,,TRUE,,,,,CAVOK,,,,,,,,VFR,,,,,,,,,,,,METAR,36.0
ESPE 010620Z 33013KT CAVOK 04/M08 Q1008,ESPE,2023-06-01T06:20:00Z,65.88,20.15,4.0,-8.0,330,13,,6.21,29.763779,,,,,,,,,,,CAVOK,,,,,,,,VFR,,,,,,,,,,,,METAR,182.0
ESPA 010620Z 33015KT 9999 FEW043TCU 06/M05 Q1006,ESPA,2023-06-01T06:20:00Z,65.53,22.12,6.0,-5.0,330,15,,6.21,29.704725,,,,,,,,,,,FEW,4300,,,,,,,VFR,,,,,,,,,,,,METAR,12.0
ESOW 010620Z 36011KT 9999 FEW045 10/M01 Q1017,ESOW,2023-06-01T06:20:00Z,59.58,16.63,10.0,-1.0,360,11,,6.21,30.029528,,,,,,,,,,,FEW,4500,,,,,,,VFR,,,,,,,,,,,,METAR,7.0
ESOK 010620Z 03010KT CAVOK 10/M01 Q1018,ESOK,2023-06-01T06:20:00Z,59.45,13.33,10.0,-1.0,30,10,,6.21,30.059055,,,,,,,,,,,CAVOK,,,,,,,,VFR,,,,,,,,,,,,METAR,101.0
ESOH 010620Z AUTO 35010KT 320V020 9999 FEW040/// 09/01 Q1019,ESOH,2023-06-01T06:20:00Z,60.02,13.58,9.0,1.0,350,10,,6.21,30.088583,,,TRUE,,,,,,,,FEW,4000,,,,,,,VFR,,,,,,,,,,,,METAR,145.0
ESOE 010620Z 03009KT 350V050 CAVOK 10/M02 Q1017,ESOE,2023-06-01T06:20:00Z,59.22,15.05,10.0,-2.0,30,9,,6.21,30.029528,,,,,,,,,,,CAVOK,,,,,,,,VFR,,,,,,,,,,,,METAR,57.0
ESNZ 010620Z 31014KT 9999 SCT034 03/M10 Q1016,ESNZ,2023-06-01T06:20:00Z,63.18,14.5,3.0,-10.0,310,14,,6.21,30.0,,,,,,,,,,,SCT,3400,,,,,,,VFR,,,,,,,,,,,,METAR,360.0
ESNX 010620Z 31015KT 9999 BKN048 03/M06 Q1008,ESNX,2023-06-01T06:20:00Z,65.58,19.28,3.0,-6.0,310,15,,6.21,29.763779,,,,,,,,,,,BKN,4800,,,,,,,VFR,,,,,,,,,,,,METAR,380.0
ESNU 010620Z 31017KT 9999 BKN045 07/M04 Q1009,ESNU,2023-06-01T06:20:00Z,63.78,20.28,7.0,-4.0,310,17,,6.21,29.793306,,,,,,,,,,,BKN,4500,,,,,,,VFR,,,,,,,,,,,,METAR,8.0
ESNS 010620Z 32015KT 290V350 9999 VCSH SCT040TCU BKN060 07/M06 Q1008,ESNS,2023-06-01T06:20:00Z,64.62,21.07,7.0,-6.0,320,15,,6.21,29.763779,,,,,,,,,,VCSH,SCT,4000,BKN,6000,,,,,VFR,,,,,,,,,,,,METAR,41.0
ESNQ 010620Z AUTO 33014KT 2600 -SN VV021 M00/M02 Q1006,ESNQ,2023-06-01T06:20:00Z,67.82,20.33,0.0,-2.0,330,14,,1.62,29.704725,,,TRUE,,,,,,,-SN,OVX,0,,,,,,,LIFR,,,,,,,,,,,2100,METAR,447.0
ESNO 010620Z 30020G34KT 9999 FEW040 SCT051 06/M04 Q1011,ESNO,2023-06-01T06:20:00Z,63.4,18.97,6.0,-4.0,300,20,34,6.21,29.852362,,,,,,,,,,,FEW,4000,SCT,5100,,,,,VFR,,,,,,,,,,,,METAR,100.0
ESNN 010620Z 30020KT 9999 FEW047 SCT059 07/M03 Q1014,ESNN,2023-06-01T06:20:00Z,62.52,17.43,7.0,-3.0,300,20,,6.21,29.940945,,,,,,,,,,,FEW,4700,SCT,5900,,,,,VFR,,,,,,,,,,,,METAR,4.0
ESNL 010620Z AUTO 31019KT 9999 NCD 06/M08 Q1010,ESNL,2023-06-01T06:20:00Z,64.55,18.72,6.0,-8.0,310,19,,6.21,29.822834,,,TRUE,,,,,,,,CLR,,,,,,,,VFR,,,,,,,,,,,,METAR,220.0
ESNK 010620Z 31019G30KT 9999 SCT046 06/M02 Q1013,ESNK,2023-06-01T06:20:00Z,63.03,17.77,6.0,-2.0,310,19,30,6.21,29.911417,,,,,,,,,,,SCT,4600,,,,,,,VFR,,,,,,,,,,,,METAR,4.0
ESNG 010620Z 30010KT 9999 -SN SCT018 BKN043 OVC053 00/M02 Q1006,ESNG,2023-06-01T06:20:00Z,67.13,20.82,0.0,-2.0,300,10,,6.21,29.704725,,,,,,,,,,-SN,SCT,1800,BKN,4300,OVC,5300,,,VFR,,,,,,,,,,,,METAR,300.0
ESMX 010620Z 34005KT 300V030 CAVOK 15/08 Q1014,ESMX,2023-06-01T06:20:00Z,56.92,14.72,15.0,8.0,340,5,,6.21,29.940945,,,,,,,,,,,CAVOK,,,,,,,,VFR,,,,,,,,,,,,METAR,176.0
ESMT 010620Z VRB02KT 9999 FEW008 15/11 Q1014,ESMT,2023-06-01T06:20:00Z,56.68,12.82,15.0,11.0,0,2,,6.21,29.940945,,,,,,,,,,,FEW,800,,,,,,,VFR,,,,,,,,,,,,METAR,24.0
ESMS 010620Z 30010KT 270V330 9999 BKN012 12/09 Q1015,ESMS,2023-06-01T06:20:00Z,55.53,13.37,12.0,9.0,300,10,,6.21,29.970472,,,,,,,,,,,BKN,1200,,,,,,,MVFR,,,,,,,,,,,,METAR,68.0
ESMQ 010620Z 02003KT 340V050 CAVOK 16/11 Q1013,ESMQ,2023-06-01T06:20:00Z,56.68,16.3,16.0,11.0,20,3,,6.21,29.911417,,,,,,,,,,,CAVOK,,,,,,,,VFR,,,,,,,,,,,,METAR,3.0
ESMK 010620Z 28009KT CAVOK 14/10 Q1014,ESMK,2023-06-01T06:20:00Z,55.92,14.08,14.0,10.0,280,9,,6.21,29.940945,,,,,,,,,,,CAVOK,,,,,,,,VFR,,,,,,,,,,,,METAR,20.0
ESKS 010620Z AUTO 34017KT 9999 BKN040/// 04/M05 Q1019,ESKS,2023-06-01T06:20:00Z,61.17,12.83,4.0,-5.0,340,17,,6.21,30.088583,,,TRUE,,,,,,,,BKN,4000,,,,,,,VFR,,,,,,,,,,,,METAR,503.0
ESKN 010620Z 35007KT 330V030 CAVOK 10/00 Q1016,ESKN,2023-06-01T06:20:00Z,58.78,16.92,10.0,0.0,350,7,,6.21,30.0,,,,,,,,,,,CAVOK,,,,,,,,VFR,,,,,,,,,,,,METAR,41.0
ESKM 010620Z AUTO 35016KT 9999 SCT053/// 08/M06 Q1018,ESKM,2023-06-01T06:20:00Z,60.97,14.52,8.0,-6.0,350,16,,6.21,30.059055,,,TRUE,,,,,,,,SCT,5300,,,,,,,VFR,,,,,,,,,,,,METAR,184.0
ESIB 010620Z 05014KT CAVOK 11/01 Q1017,ESIB,2023-06-01T06:20:00Z,58.42,12.7,11.0,1.0,50,14,,6.21,30.029528,,,,,,,,,,,CAVOK,,,,,,,,VFR,,,,,,,,,,,,METAR,51.0
ESIA 010620Z 03011KT CAVOK 10/M00 Q1017,ESIA,2023-06-01T06:20:00Z,58.52,14.5,10.0,0.0,30,11,,6.21,30.029528,,,,,,,,,,,CAVOK,,,,,,,,VFR,,,,,,,,,,,,METAR,94.0
ESGT 010620Z 05019KT CAVOK 12/M00 Q1018,ESGT,2023-06-01T06:20:00Z,58.32,12.33,12.0,0.0,50,19,,6.21,30.059055,,,,,,,,,,,CAVOK,,,,,,,,VFR,,,,,,,,,,,,METAR,40.0
ESGP 010620Z 05013KT CAVOK 14/03 Q1015,ESGP,2023-06-01T06:20:00Z,57.77,11.87,14.0,3.0,50,13,,6.21,29.970472,,,,,,,,,,,CAVOK,,,,,,,,VFR,,,,,,,,,,,,METAR,15.0
ESGJ 010620Z 02014KT CAVOK 11/02 Q1016,ESGJ,2023-06-01T06:20:00Z,57.77,14.07,11.0,2.0,20,14,,6.21,30.0,,,,,,,,,,,CAVOK,,,,,,,,VFR,,,,,,,,,,,,METAR,224.0
ESGG 010620Z 04013KT CAVOK 12/05 Q1015,ESGG,2023-06-01T06:20:00Z,57.67,12.3,12.0,5.0,40,13,,6.21,29.970472,,,,,,,,,,,CAVOK,,,,,,,,VFR,,,,,,,,,,,,METAR,152.0
ESDF 010620Z 33005KT 290V020 CAVOK 16/10 Q1013,ESDF,2023-06-01T06:20:00Z,56.27,15.27,16.0,10.0,330,5,,6.21,29.911417,,,,,,,,,,,CAVOK,,,,,,,,VFR,,,,,,,,,,,,METAR,52.0
ESCM 010620Z 35013KT 9999 FEW040 09/M02 Q1016,ESCM,2023-06-01T06:20:00Z,59.88,17.6,9.0,-2.0,350,13,,6.21,30.0,,,,,,,,,,,FEW,4000,,,,,,,VFR,,,,,,,,,,,,METAR,21.0
ESCF 010620Z 04013KT CAVOK 11/M01 Q1016,ESCF,2023-06-01T06:20:00Z,58.38,15.52,11.0,-1.0,40,13,,6.21,30.0,,,,,,,,,,,CAVOK,,,,,,,,VFR,,,,,,,,,,,,METAR,86.0
ENZV 010620Z 34016KT 9999 FEW015 10/07 Q1022,ENZV,2023-06-01T06:20:00Z,58.88,5.63,10.0,7.0,340,16,,6.21,30.177166,,,,,,,,,,,FEW,1500,,,,,,,VFR,,,,,,,,,,,,METAR,7.0
ENWV 010620Z AUTO 35022KT 9999NDV OVC014/// 09/06 Q1025 W///S4,ENWV,2023-06-01T06:20:00Z,56.28,3.4,9.0,6.0,350,22,,,30.265747,,,TRUE,,,,,,,,OVC,1400,,,,,,,,,,,,,,,,,,,METAR,30.0
ENVD 010620Z 03022KT 9999 VCSH FEW018 SCT047 BKN066 06/M01 Q1002,ENVD,2023-06-01T06:20:00Z,70.07,29.85,6.0,-1.0,30,22,,6.21,29.586615,,,,,,,,,,VCSH,FEW,1800,SCT,4700,BKN,6600,,,VFR,,,,,,,,,,,,METAR,39.0
ENVA 010620Z 30010KT 9999 VCSH FEW017 SCT027CB BKN053 06/01 Q1022 NOSIG RMK WIND 670FT 31017KT,ENVA,2023-06-01T06:20:00Z,63.47,10.92,6.0,1.0,300,10,,6.21,30.177166,,,,,,TRUE,,,,VCSH,FEW,1700,SCT,2700,BKN,5300,,,VFR,,,,,,,,,,,,SPECI,12.0
ENUN 010620Z 32027KT 9999 BKN025 04/01 Q1020 W07/S5,ENUN,2023-06-01T06:20:00Z,,,4.0,1.0,320,27,,6.21,30.11811,,,,,,,,,,,BKN,2500,,,,,,,MVFR,,,,,,,,,,,,METAR,
ENUG 010620Z AUTO 31012KT 260V360 9999NDV SCT029/// 04/M04 Q1007 W///S5,ENUG,2023-06-01T06:20:00Z,71.3,22.25,4.0,-4.0,310,12,,,29.734253,,,TRUE,,,,,,,,SCT,2900,,,,,,,,,,,,,,,,,,,METAR,30.0
ENTO 010620Z 02007KT 350V060 CAVOK 12/02 Q1019 NOSIG,ENTO,2023-06-01T06:20:00Z,59.2,10.27,12.0,2.0,20,7,,6.21,30.088583,,,,,,TRUE,,,,,CAVOK,,,,,,,,VFR,,,,,,,,,,,,METAR,84.0
ENTC 010620Z 27007KT 9999 VCSH FEW010 SCT018 BKN025 03/01 Q1011 TEMPO 3000 SHSNRA VV010 RMK WIND 2600FT 35017KT,ENTC,2023-06-01T06:20:00Z,69.68,18.92,3.0,1.0,270,7,,6.21,29.852362,,,,,,,,,,VCSH,FEW,1000,SCT,1800,BKN,2500,,,MVFR,,,,,,,,,,,,SPECI,9.0
ENST 010620Z 01006KT 340V050 9999 VCSH FEW025 BKN050 05/M02 Q1018 RMK WIND 300FT 35006KT,ENST,2023-06-01T06:20:00Z,65.97,12.47,5.0,-2.0,10,6,,6.21,30.059055,,,,,,,,,,VCSH,FEW,2500,BKN,5000,,,,,VFR,,,,,,,,,,,,SPECI,17.0
ENSS 010620Z 36019KT 9999 BKN028 05/00 Q1003 RMK WIND 0500FT 01028KT,ENSS,2023-06-01T06:20:00Z,70.35,31.05,5.0,0.0,360,19,,6.21,29.616142,,,,,,,,,,,BKN,2800,,,,,,,MVFR,,,,,,,,,,,,METAR,13.0
ENSR 010620Z 29010KT 260V320 9999 VCSH FEW005 SCT021 BKN030 04/01 Q1009 RMK WIND RWY32 29010KT WIND 1118FT 29016KT,ENSR,2023-06-01T06:20:00Z,69.78,20.97,4.0,1.0,290,10,,6.21,29.793306,,,,,,,,,,VCSH,FEW,500,SCT,2100,BKN,3000,,,MVFR,,,,,,,,,,,,SPECI,5.0
ENSO 010620Z 35017KT 9999 FEW021 SCT050 08/05 Q1024,ENSO,2023-06-01T06:20:00Z,59.78,5.33,8.0,5.0,350,17,,6.21,30.236221,,,,,,,,,,,FEW,2100,SCT,5000,,,,,VFR,,,,,,,,,,,,METAR,48.0
ENSL 010620Z AUTO 34026KT 9999NDV BKN023/// 10/05 Q1027 W08/S3,ENSL,2023-06-01T06:20:00Z,58.37,1.9,10.0,5.0,340,26,,,30.324802,,,TRUE,,,,,,,,BKN,2300,,,,,,,,,,,,,,,,,,,METAR,50.0
ENSK 010620Z 30008KT 9999 VCSH FEW015 SCT027 BKN035 03/00 Q1014,ENSK,2023-06-01T06:20:00Z,68.57,15.02,3.0,0.0,300,8,,6.21,29.940945,,,,,,,,,,VCSH,FEW,1500,SCT,2700,BKN,3500,,,VFR,,,,,,,,,,,,METAR,3.0
ENSH 010620Z 31009KT 260V350 9999 -RA FEW016 BKN028 04/M01 Q1015 RMK WIND 0150FT 31011KT,ENSH,2023-06-01T06:20:00Z,68.25,14.67,4.0,-1.0,310,9,,6.21,29.970472,,,,,,,,,,-RA,FEW,1600,BKN,2800,,,,,MVFR,,,,,,,,,,,,SPECI,9.0
ENSG 010620Z VRB03KT 9999 FEW030 07/M00 Q1021 RMK WIND 3806FT 28008KT,ENSG,2023-06-01T06:20:00Z,61.15,7.13,7.0,0.0,0,3,,6.21,30.147638,,,,,,,,,,,FEW,3000,,,,,,,VFR,,,,,,,,,,,,SPECI,493.0
ENSF 010620Z AUTO 35025KT 9999NDV OVC025/// ///// Q//// W///S4,ENSF,2023-06-01T06:20:00Z,61.25,1.85,,,350,25,,,,,,TRUE,,,,,,,,OVC,2500,,,,,,,,,,,,,,,,,,,METAR,15.0
ENSE 010620Z AUTO 36018KT //// OVC023/// 07/03 Q1027 W///S4,ENSE,2023-06-01T06:20:00Z,61.45,2.15,7.0,3.0,360,18,,,30.324802,,,TRUE,,,,,,,,OVC,2300,,,,,,,,,,,,,,,,,,,METAR,10.0
ENSD 010620Z 32008KT 270V020 9999 SCT030 BKN050 07/M01 Q1025 RMK WIND RWY26 28006KT WIND 1140FT VRB03KT,ENSD,2023-06-01T06:20:00Z,61.82,6.12,7.0,-1.0,320,8,,6.21,30.265747,,,,,,,,,,,SCT,3000,BKN,5000,,,,,VFR,,,,,,,,,,,,SPECI,61.0
ENSB 010620Z 01007KT CAVOK 01/M06 Q1011 RMK WIND 1400FT 02006KT,ENSB,2023-06-01T06:20:00Z,78.25,15.47,1.0,-6.0,10,7,,6.21,29.852362,,,,,,,,,,,CAVOK,,,,,,,,VFR,,,,,,,,,,,,SPECI,30.0
ENRY 010620Z 05006KT CAVOK 12/01 Q1019 NOSIG,ENRY,2023-06-01T06:20:00Z,59.37,10.77,12.0,1.0,50,6,,6.21,30.088583,,,,,,TRUE,,,,,CAVOK,,,,,,,,VFR,,,,,,,,,,,,METAR,45.0
ENRS 010620Z 30013KT 9999 VCSH FEW020 BKN035 05/M01 Q1017,ENRS,2023-06-01T06:20:00Z,67.52,12.1,5.0,-1.0,300,13,,6.21,30.029528,,,,,,,,,,VCSH,FEW,2000,BKN,3500,,,,,VFR,,,,,,,,,,,,METAR,4.0
ENRO 010620Z 30012KT 9999 -DZ SCT020 BKN025 01/M02 Q1019 REFZDZ,ENRO,2023-06-01T06:20:00Z,62.57,11.33,1.0,-2.0,300,12,,6.21,30.088583,,,,,,,,,,-DZ,SCT,2000,BKN,2500,,,,,MVFR,,,,,,,,,,,,METAR,624.0
ENRM 010620Z 29007KT 260V320 9999 VCSH FEW020TCU SCT055 06/01 Q1021,ENRM,2023-06-01T06:20:00Z,64.83,11.13,6.0,1.0,290,7,,6.21,30.147638,,,,,,,,,,VCSH,FEW,2000,SCT,5500,,,,,VFR,,,,,,,,,,,,METAR,4.0
ENRA 010620Z 28011KT 210V310 9999 FEW031 BKN055 05/M01 Q1016,ENRA,2023-06-01T06:20:00Z,66.37,14.3,5.0,-1.0,280,11,,6.21,30.0,,,,,,,,,,,FEW,3100,BKN,5500,,,,,VFR,,,,,,,,,,,,METAR,66.0
ENQR 010620Z AUTO 36024KT 9999NDV OVC023/// 07/01 Q1027 W09/S4,ENQR,2023-06-01T06:20:00Z,61.52,2.22,7.0,1.0,360,24,,,30.324802,,,TRUE,,,,,,,,OVC,2300,,,,,,,,,,,,,,,,,,,METAR,10.0
ENQC 010620Z AUTO 34020KT 9999NDV SCT019/// BKN027/// 07/03 Q1025 W///S4,ENQC,2023-06-01T06:20:00Z,60.88,3.62,7.0,3.0,340,20,,,30.265747,,,TRUE,,,,,,,,SCT,1900,BKN,2700,,,,,,,,,,,,,,,,,METAR,20.0
ENQA 010620Z AUTO 36027KT 9999NDV BKN027/// 07/02 Q1026 W12/S4,ENQA,2023-06-01T06:20:00Z,60.65,3.72,7.0,2.0,360,27,,,30.295275,,,TRUE,,,,,,,,BKN,2700,,,,,,,,,,,,,,,,,,,METAR,90.0
ENOV 010620Z 16004KT 120V210 9999 FEW035 BKN050 07/01 Q1025 RMK WIND RWY24 VRB03KT WIND 2090FT 31007KT,ENOV,2023-06-01T06:20:00Z,62.17,6.07,7.0,1.0,160,4,,6.21,30.265747,,,,,,,,,,,FEW,3500,BKN,5000,,,,,VFR,,,,,,,,,,,,SPECI,72.0
ENOL 010620Z 32013KT 9999 VCSH FEW015 BKN049 06/02 Q1023 TEMPO 33017G27KT SHRA BKN020TCU,ENOL,2023-06-01T06:20:00Z,63.7,9.6,6.0,2.0,320,13,,6.21,30.206694,,,,,,,,,,VCSH,FEW,1500,BKN,4900,,,,,VFR,,,,,,,,,,,,SPECI,9.0
ENOA 010620Z 01025KT 9999 VCSH BKN018 07/04 Q1026 W///S4,ENOA,2023-06-01T06:20:00Z,60.5,2.83,7.0,4.0,10,25,,6.21,30.295275,,,,,,,,,,VCSH,BKN,1800,,,,,,,MVFR,,,,,,,,,,,,SPECI,5.0
ENNO 010620Z 00000KT CAVOK 11/04 Q1020,ENNO,2023-06-01T06:20:00Z,59.57,9.22,11.0,4.0,0,0,,6.21,30.11811,,,,,,,,,,,CAVOK,,,,,,,,VFR,,,,,,,,,,,,METAR,19.0
ENNM 010620Z AUTO 30005KT 260V320 9999 FEW026/// SCT057/// 07/M00 Q1021,ENNM,2023-06-01T06:20:00Z,64.47,11.57,7.0,0.0,300,5,,6.21,30.147638,,,TRUE,,,,,,,,FEW,2600,SCT,5700,,,,,VFR,,,,,,,,,,,,METAR,2.0
ENNE 010620Z 35018KT 9999 -SHRA SCT020 BKN040 04/M01 Q1021 W///S5,ENNE,2023-06-01T06:20:00Z,66.03,8.08,4.0,-1.0,350,18,,6.21,30.147638,,,,,,,,,,-SHRA,SCT,2000,BKN,4000,,,,,VFR,,,,,,,,,,,,METAR,10.0
ENNA 010620Z 35015KT 9999 FEW025 SCT032 BKN043 05/00 Q1007 RMK WIND 1800FT 34019KT,ENNA,2023-06-01T06:20:00Z,70.07,24.97,5.0,0.0,350,15,,6.21,29.734253,,,,,,,,,,,FEW,2500,SCT,3200,BKN,4300,,,VFR,,,,,,,,,,,,SPECI,12.0
ENMS 010620Z VRB02KT 9999 SCT035 BKN050 04/01 Q1018 RMK WIND 412FT VRB03KT,ENMS,2023-06-01T06:20:00Z,65.78,13.22,4.0,1.0,0,2,,6.21,30.059055,,,,,,,,,,,SCT,3500,BKN,5000,,,,,VFR,,,,,,,,,,,,SPECI,44.0
ENML 010620Z 27009KT 9999 SHRA FEW020 BKN030 06/03 Q1025,ENML,2023-06-01T06:20:00Z,62.75,7.27,6.0,3.0,270,9,,6.21,30.265747,,,,,,,,,,SHRA,FEW,2000,BKN,3000,,,,,MVFR,,,,,,,,,,,,METAR,3.0
ENMH 010620Z 34010KT 9999 BKN039 05/M02 Q1005,ENMH,2023-06-01T06:20:00Z,71.02,27.82,5.0,-2.0,340,10,,6.21,29.675198,,,,,,,,,,,BKN,3900,,,,,,,VFR,,,,,,,,,,,,METAR,10.0
ENLK 010620Z 33011KT 9999 FEW030 BKN040 04/M01 Q1015,ENLK,2023-06-01T06:20:00Z,68.15,13.62,4.0,-1.0,330,11,,6.21,29.970472,,,,,,,,,,,FEW,3000,BKN,4000,,,,,VFR,,,,,,,,,,,,METAR,26.0
ENLE 010620Z 34025KT 9999 FEW010 BKN018 08/06 Q1025 W11/S4,ENLE,2023-06-01T06:20:00Z,56.53,3.22,8.0,6.0,340,25,,6.21,30.265747,,,,,,,,,,,FEW,1000,BKN,1800,,,,,MVFR,,,,,,,,,,,,METAR,10.0
ENLA 010620Z AUTO 32023KT 9999NDV BKN017/// BKN030/// 09/06 Q1024 W///S4,ENLA,2023-06-01T06:20:00Z,57.1,2.83,9.0,6.0,320,23,,,30.236221,,,TRUE,,,,,,,,BKN,1700,BKN,3000,,,,,,,,,,,,,,,,,METAR,10.0
ENKR 010620Z 02014KT 9999 -RA BKN015 03/01 Q1002 RMK WIND 731FT 02029KT,ENKR,2023-06-01T06:20:00Z,69.72,29.88,3.0,1.0,20,14,,6.21,29.586615,,,,,,,,,,-RA,BKN,1500,,,,,,,MVFR,,,,,,,,,,,,SPECI,86.0
ENKB 010620Z 32005KT 270V360 9999 VCSH FEW009 SCT017 BKN026 05/03 Q1024 RMK WIND 745FT 35012KT,ENKB,2023-06-01T06:20:00Z,63.12,7.82,5.0,3.0,320,5,,6.21,30.236221,,,,,,,,,,VCSH,FEW,900,SCT,1700,BKN,2600,,,MVFR,,,,,,,,,,,,SPECI,62.0
ENJS 010620Z 36027KT 9999 SCT014 BKN030 08/05 Q1026 W09/S/,ENJS,2023-06-01T06:20:00Z,,,8.0,5.0,360,27,,6.21,30.295275,,,,,,,,,,,SCT,1400,BKN,3000,,,,,MVFR,,,,,,,,,,,,METAR,
ENHV 010620Z AUTO 34014KT 9999 OVC030/// 04/M02 Q1006,ENHV,2023-06-01T06:20:00Z,71.02,25.97,4.0,-2.0,340,14,,6.21,29.704725,,,TRUE,,,,,,,,OVC,3000,,,,,,,MVFR,,,,,,,,,,,,METAR,13.0
ENHM 010620Z AUTO 36019KT //// FEW027/// BKN031/// 07/07 Q1027 W10/S/,ENHM,2023-06-01T06:20:00Z,59.57,2.23,7.0,7.0,360,19,,,30.324802,,,TRUE,,,,,,,,FEW,2700,BKN,3100,,,,,,,,,,,,,,,,,METAR,10.0
ENHK 010620Z 30010KT 9999 -DZRA FEW010 SCT040 03/01 Q1009,ENHK,2023-06-01T06:20:00Z,70.48,22.13,3.0,1.0,300,10,,6.21,29.793306,,,,,,,,,,-DZ -RA,FEW,1000,SCT,4000,,,,,VFR,,,,,,,,,,,,METAR,6.0
ENHF 010620Z 35010KT 290V040 9999 FEW012 SCT024 BKN040 03/M02 Q1007 RMK WIND 1254FT 34023KT,ENHF,2023-06-01T06:20:00Z,70.67,23.67,3.0,-2.0,350,10,,6.21,29.734253,,,,,,,,,,,FEW,1200,SCT,2400,BKN,4000,,,VFR,,,,,,,,,,,,SPECI,79.0
ENHE 010620Z 35021KT 9999 FEW020 BKN040 05/00 Q1022 W///S5,ENHE,2023-06-01T06:20:00Z,65.33,2.33,5.0,0.0,350,21,,6.21,30.177166,,,,,,,,,,,FEW,2000,BKN,4000,,,,,VFR,,,,,,,,,,,,SPECI,10.0
ENHD 010620Z 35023KT 9999 FEW015 09/05 Q1023,ENHD,2023-06-01T06:20:00Z,59.35,5.22,9.0,5.0,350,23,,6.21,30.206694,,,,,,,,,,,FEW,1500,,,,,,,VFR,,,,,,,,,,,,METAR,22.0
ENGM 010620Z 03008KT CAVOK 10/00 Q1019 NOSIG,ENGM,2023-06-01T06:20:00Z,60.2,11.07,10.0,0.0,30,8,,6.21,30.088583,,,,,,TRUE,,,,,CAVOK,,,,,,,,VFR,,,,,,,,,,,,METAR,204.0
ENGC 010620Z 01020KT 9999 FEW015 BKN025 07/03 Q1027 W08/S4,ENGC,2023-06-01T06:20:00Z,61.02,2.02,7.0,3.0,10,20,,6.21,30.324802,,,,,,,,,,,FEW,1500,BKN,2500,,,,,MVFR,,,,,,,,,,,,SPECI,10.0
ENFL 010620Z 36013KT 330V030 9999 FEW025 08/M01 Q1025,ENFL,2023-06-01T06:20:00Z,61.57,5.02,8.0,-1.0,360,13,,6.21,30.265747,,,,,,,,,,,FEW,2500,,,,,,,VFR,,,,,,,,,,,,METAR,1.0
ENFB 010620Z AUTO 35022KT 9999NDV OVC027/// ///// Q//// W///S4,ENFB,2023-06-01T06:20:00Z,61.2,1.83,,,350,22,,,,,,TRUE,,,,,,,,OVC,2700,,,,,,,,,,,,,,,,,,,SPECI,10.0
ENEV 010620Z 35007KT 310V010 9999 FEW008 SCT013 BKN022 04/02 Q1013 RMK WIND 1400FT 32015KT,ENEV,2023-06-01T06:20:00Z,68.48,16.67,4.0,2.0,350,7,,6.21,29.911417,,,,,,,,,,,FEW,800,SCT,1300,BKN,2200,,,MVFR,,,,,,,,,,,,SPECI,26.0
ENDU 010620Z 28009KT 9999 -SHRA FEW005 SCT014 BKN020 02/01 Q1011 TEMPO 2500 -SHSNRA VV010 RMK WIND 1100FT 30012KT WIND 2200FT 33013KT,ENDU,2023-06-01T06:20:00Z,69.05,18.55,2.0,1.0,280,9,,6.21,29.852362,,,,,,,,,,-SHRA,FEW,500,SCT,1400,BKN,2000,,,MVFR,,,,,,,,,,,,SPECI,65.0
ENDR 010620Z AUTO 33016KT 9999NDV OVC048/// 05/00 Q1024 W///S5,ENDR,2023-06-01T06:20:00Z,64.35,7.77,5.0,0.0,330,16,,,30.236221,,,TRUE,,,,,,,,OVC,4800,,,,,,,,,,,,,,,,,,,SPECI,10.0
ENCN 010620Z VRB03KT CAVOK 14/04 Q1018,ENCN,2023-06-01T06:20:00Z,58.2,8.07,14.0,4.0,0,3,,6.21,30.059055,,,,,,,,,,,CAVOK,,,,,,,,VFR,,,,,,,,,,,,METAR,17.0
ENBV 010620Z 35012KT 9999 BKN035 05/M03 Q1005,ENBV,2023-06-01T06:20:00Z,70.87,29.02,5.0,-3.0,350,12,,6.21,29.675198,,,,,,,,,,,BKN,3500,,,,,,,VFR,,,,,,,,,,,,METAR,13.0
ENBS 010620Z 34015KT 320V020 9999 BKN028 03/M02 Q1004,ENBS,2023-06-01T06:20:00Z,70.62,29.68,3.0,-2.0,340,15,,6.21,29.64567,,,,,,,,,,,BKN,2800,,,,,,,MVFR,,,,,,,,,,,,METAR,144.0
ENBR 010620Z 33014KT 9999 FEW019 BKN029 08/04 Q1024 NOSIG RMK WIND 1200FT 33020KT,ENBR,2023-06-01T06:20:00Z,60.28,5.22,8.0,4.0,330,14,,6.21,30.236221,,,,,,TRUE,,,,,FEW,1900,BKN,2900,,,,,MVFR,,,,,,,,,,,,SPECI,49.0
ENBO 010620Z 32018KT 9999 FEW022 SCT026 BKN051 05/M00 Q1016 NOSIG,ENBO,2023-06-01T06:20:00Z,67.27,14.37,5.0,0.0,320,18,,6.21,30.0,,,,,,TRUE,,,,,FEW,2200,SCT,2600,BKN,5100,,,VFR,,,,,,,,,,,,METAR,13.0
ENBN 010620Z 30006KT 270V340 9999 VCSH FEW010 BKN045 05/M00 Q1020,ENBN,2023-06-01T06:20:00Z,65.47,12.22,5.0,0.0,300,6,,6.21,30.11811,,,,,,,,,,VCSH,FEW,1000,BKN,4500,,,,,VFR,,,,,,,,,,,,METAR,3.0
ENBL 010620Z 33007KT 9999 VCSH SCT015 SCT030 05/02 Q1023,ENBL,2023-06-01T06:20:00Z,61.4,5.77,5.0,2.0,330,7,,6.21,30.206694,,,,,,,,,,VCSH,SCT,1500,SCT,3000,,,,,VFR,,,,,,,,,,,,METAR,313.0
ENAT 010620Z 02010KT 9999 -SHRA FEW016 SCT039 SCT051 04/01 Q1008 RMK WIND 700FT 35012KT,ENAT,2023-06-01T06:20:00Z,69.97,23.37,4.0,1.0,20,10,,6.21,29.763779,,,,,,,,,,-SHRA,FEW,1600,SCT,3900,SCT,5100,,,VFR,,,,,,,,,,,,SPECI,3.0
ENAN 010620Z 32016KT 9999 BKN037 04/M02 Q1012,ENAN,2023-06-01T06:20:00Z,69.3,16.13,4.0,-2.0,320,16,,6.21,29.88189,,,,,,,,,,,BKN,3700,,,,,,,VFR,,,,,,,,,,,,METAR,13.0
ENAL 010620Z 32005KT 280V010 9999 VCSH FEW005 SCT020 BKN034 07/02 Q1025,ENAL,2023-06-01T06:20:00Z,62.57,6.12,7.0,2.0,320,5,,6.21,30.265747,,,,,,,,,,VCSH,FEW,500,SCT,2000,BKN,3400,,,VFR,,,,,,,,,,,,METAR,21.0
ELLX 010620Z 05014KT CAVOK 16/09 Q1020 NOSIG,ELLX,2023-06-01T06:20:00Z,49.63,6.2,16.0,9.0,50,14,,6.21,30.11811,,,,,,TRUE,,,,,CAVOK,,,,,,,,VFR,,,,,,,,,,,,METAR,374.0
EKYT 010620Z AUTO 34006KT 270V030 9999 NCD 15/10 Q1016,EKYT,2023-06-01T06:20:00Z,57.1,9.87,15.0,10.0,340,6,,6.21,30.0,,,TRUE,,,,,,,,CLR,,,,,,,,VFR,,,,,,,,,,,,METAR,2.0
EKVG 010620Z AUTO 13003KT 9999 NCD 08/06 Q1032 RMK FEW014/// WIND SKEID 11004KT 070V140,EKVG,2023-06-01T06:20:00Z,62.07,-7.27,8.0,6.0,130,3,,6.21,30.47244,,,TRUE,,,,,,,,CLR,,,,,,,,VFR,,-0.4,,,,,,,,,,SPECI,89.0
EKSP 010620Z 30012KT 9999 BKN017 11/07 Q1019 NOSIG,EKSP,2023-06-01T06:20:00Z,55.22,9.27,11.0,7.0,300,12,,6.21,30.088583,,,,,,TRUE,,,,,BKN,1700,,,,,,,MVFR,,,,,,,,,,,,METAR,40.0
EKSB 010620Z 29014KT 9999 SCT016 12/07 Q1018,EKSB,2023-06-01T06:20:00Z,54.97,9.8,12.0,7.0,290,14,,6.21,30.059055,,,,,,,,,,,SCT,1600,,,,,,,VFR,,,,,,,,,,,,METAR,23.0
EKRS 010620Z AUTO VRB09KT 9999 BKN013/// 12/12 Q1016,EKRS,2023-06-01T06:20:00Z,55.42,11.8,12.0,12.0,0,9,,6.21,30.0,,,TRUE,,,,,,,,BKN,1300,,,,,,,MVFR,,,,,,,,,,,,METAR,34.0
EKRN 010620Z AUTO 29011KT 9999 OVC008/// 12/09 Q1015,EKRN,2023-06-01T06:20:00Z,55.07,14.75,12.0,9.0,290,11,,6.21,29.970472,,,TRUE,,,,,,,,OVC,800,,,,,,,IFR,,,,,,,,,,,,METAR,14.0
EKRK 010620Z AUTO 29011KT 9999 BKN011/// 12/09 Q1016,EKRK,2023-06-01T06:20:00Z,55.58,12.13,12.0,9.0,290,11,,6.21,30.0,,,TRUE,,,,,,,,BKN,1100,,,,,,,MVFR,,,,,,,,,,,,METAR,40.0
EKKA 010620Z AUTO 31013KT 9999 FEW015/// 12/08 Q1018 NOSIG,EKKA,2023-06-01T06:20:00Z,56.3,9.12,12.0,8.0,310,13,,6.21,30.059055,,,TRUE,,,TRUE,,,,,FEW,1500,,,,,,,VFR,,,,,,,,,,,,METAR,50.0
EKEB 010620Z AUTO 32012KT 9999 OVC013/// 10/07 Q1019,EKEB,2023-06-01T06:20:00Z,55.52,8.55,10.0,7.0,320,12,,6.21,30.088583,,,TRUE,,,,,,,,OVC,1300,,,,,,,MVFR,,,,,,,,,,,,METAR,29.0
EKCH 010620Z 28009KT 9999 BKN014 13/09 Q1016 BECMG FEW013,EKCH,2023-06-01T06:20:00Z,55.62,12.67,13.0,9.0,280,9,,6.21,30.0,,,,,,,,,,,BKN,1400,,,,,,,MVFR,,,,,,,,,,,,SPECI,4.0
EKBI 010620Z AUTO 31012KT 9999 BKN015/// 10/06 Q1019,EKBI,2023-06-01T06:20:00Z,55.73,9.15,10.0,6.0,310,12,,6.21,30.088583,,,TRUE,,,,,,,,BKN,1500,,,,,,,MVFR,,,,,,,,,,,,METAR,67.0
EKAH 010620Z AUTO 30010KT 9999 NCD 13/08 Q1017,EKAH,2023-06-01T06:20:00Z,56.28,10.62,13.0,8.0,300,10,,6.21,30.029528,,,TRUE,,,,,,,,CLR,,,,,,,,VFR,,,,,,,,,,,,METAR,25.0
EGYM 010620Z 05009KT 9999 OVC016 11/07 Q1027 NOSIG RMK WHT WHT,EGYM,2023-06-01T06:20:00Z,52.63,0.57,11.0,7.0,50,9,,6.21,30.324802,,,,,,TRUE,,,,,OVC,1600,,,,,,,MVFR,,,,,,,,,,,,SPECI,25.0
EGYH 010620Z AUTO 04013KT 9999 OVC014/// 11/08 Q1027,EGYH,2023-06-01T06:20:00Z,52.87,0.15,11.0,8.0,40,13,,6.21,30.324802,,,TRUE,,,,,,,,OVC,1400,,,,,,,MVFR,,,,,,,,,,,,METAR,5.0
EGYE 010620Z AUTO 04009KT //// ///////// ///// Q////,EGYE,2023-06-01T06:20:00Z,52.97,-0.57,,,40,9,,,,,,TRUE,,,,,,,,,,,,,,,,,,,,,,,,,,,,METAR,105.0
EGYD 010620Z 03008KT 9999 OVC013 10/07 Q1027 BECMG BKN015 RMK GRN BECMG WHT,EGYD,2023-06-01T06:20:00Z,53.03,-0.5,10.0,7.0,30,8,,6.21,30.324802,,,,,,,,,,,OVC,1300,,,,,,,MVFR,,,,,,,,,,,,METAR,65.0
EGXZ 010620Z AUTO 04008KT 9999 OVC015/// 11/08 Q1028,EGXZ,2023-06-01T06:20:00Z,54.2,-1.38,11.0,8.0,40,8,,6.21,30.35433,,,TRUE,,,,,,,,OVC,1500,,,,,,,MVFR,,,,,,,,,,,,METAR,24.0
EGXW 010620Z 04008KT 9999 OVC015 10/07 Q1027 TEMPO OVC014 RMK WHT TEMPO GRN,EGXW,2023-06-01T06:20:00Z,53.18,-0.52,10.0,7.0,40,8,,6.21,30.324802,,,,,,,,,,,OVC,1500,,,,,,,MVFR,,,,,,,,,,,,METAR,70.0
EGXV 010620Z AUTO 03007KT 9999 OVC017/// 11/07 Q1028,EGXV,2023-06-01T06:20:00Z,53.87,-0.45,11.0,7.0,30,7,,6.21,30.35433,,,TRUE,,,,,,,,OVC,1700,,,,,,,MVFR,,,,,,,,,,,,METAR,6.0
EGXT 010620Z AUTO 03011KT 9999 OVC011/// 10/07 Q1027,EGXT,2023-06-01T06:20:00Z,52.62,-0.47,10.0,7.0,30,11,,6.21,30.324802,,,TRUE,,,,,,,,OVC,1100,,,,,,,MVFR,,,,,,,,,,,,METAR,74.0
EGXS 010620Z AUTO 36013KT 9999 OVC015/// 11/07 Q1027,EGXS,2023-06-01T06:20:00Z,53.48,0.15,11.0,7.0,360,13,,6.21,30.324802,,,TRUE,,,,,,,,OVC,1500,,,,,,,MVFR,,,,,,,,,,,,METAR,6.0
EGXE 010620Z AUTO 03006KT 9999 OVC015/// 11/08 Q1028,EGXE,2023-06-01T06:20:00Z,54.28,-1.52,11.0,8.0,30,6,,6.21,30.35433,,,TRUE,,,,,,,,OVC,1500,,,,,,,MVFR,,,,,,,,,,,,METAR,30.0
EGWU 010620Z 06012KT 9999 OVC012 10/07 Q1026 BECMG BKN015 RMK GRN BECMG WHT,EGWU,2023-06-01T06:20:00Z,51.55,-0.42,10.0,7.0,60,12,,6.21,30.295275,,,,,,,,,,,OVC,1200,,,,,,,MVFR,,,,,,,,,,,,METAR,33.0
EGWC 010620Z AUTO 05008KT //// ///////// ///// Q////,EGWC,2023-06-01T06:20:00Z,52.63,-2.3,,,50,8,,,,,,TRUE,,,,,,,,,,,,,,,,,,,,,,,,,,,,METAR,79.0
EGVP 010620Z AUTO 04011KT 9999 OVC009/// 10/07 Q1025,EGVP,2023-06-01T06:20:00Z,51.13,-1.57,10.0,7.0,40,11,,6.21,30.265747,,,TRUE,,,,,,,,OVC,900,,,,,,,IFR,,,,,,,,,,,,METAR,80.0
EGVO 010620Z 03009KT 9999 BKN009 09/07 Q1025 NOSIG RMK GRN GRN,EGVO,2023-06-01T06:20:00Z,51.23,-0.95,9.0,7.0,30,9,,6.21,30.265747,,,,,,TRUE,,,,,BKN,900,,,,,,,IFR,,,,,,,,,,,,SPECI,118.0
EGVN 010620Z AUTO 06013KT 9999 OVC012/// 10/07 Q1026,EGVN,2023-06-01T06:20:00Z,51.77,-1.58,10.0,7.0,60,13,,6.21,30.295275,,,TRUE,,,,,,,,OVC,1200,,,,,,,MVFR,,,,,,,,,,,,METAR,83.0
EGUW 010620Z AUTO 03009KT 9999 OVC013/// 10/08 Q1026,EGUW,2023-06-01T06:20:00Z,52.12,0.97,10.0,8.0,30,9,,6.21,30.295275,,,TRUE,,,,,,,,OVC,1300,,,,,,,MVFR,,,,,,,,,,,,METAR,86.0
EGUB 010620Z AUTO 04012KT 9999 OVC012/// 10/07 Q1026,EGUB,2023-06-01T06:20:00Z,51.62,-1.08,10.0,7.0,40,12,,6.21,30.295275,,,TRUE,,,,,,,,OVC,1200,,,,,,,MVFR,,,,,,,,,,,,METAR,56.0
EGTE 010620Z 01008KT 340V050 9999 BKN012 11/08 Q1024,EGTE,2023-06-01T06:20:00Z,50.73,-3.42,11.0,8.0,10,8,,6.21,30.236221,,,,,,,,,,,BKN,1200,,,,,,,MVFR,,,,,,,,,,,,METAR,30.0
EGTC 010620Z 05010KT 020V080 9999 BKN012 10/07 Q1026,EGTC,2023-06-01T06:20:00Z,52.07,-0.62,10.0,7.0,50,10,,6.21,30.295275,,,,,,,,,,,BKN,1200,,,,,,,MVFR,,,,,,,,,,,,METAR,110.0
EGSY 010620Z AUTO 07012KT 9999 OVC012/// 10/07 Q1025,EGSY,2023-06-01T06:20:00Z,51.4,-3.43,10.0,7.0,70,12,,6.21,30.265747,,,TRUE,,,,,,,,OVC,1200,,,,,,,MVFR,,,,,,,,,,,,METAR,46.0
EGSS 010620Z 05008KT 9999 OVC010 10/07 Q1026,EGSS,2023-06-01T06:20:00Z,51.88,0.22,10.0,7.0,50,8,,6.21,30.295275,,,,,,,,,,,OVC,1000,,,,,,,MVFR,,,,,,,,,,,,METAR,101.0
EGSH 010620Z 02005KT 350V060 9999 BKN013 11/08 Q1027,EGSH,2023-06-01T06:20:00Z,52.68,1.28,11.0,8.0,20,5,,6.21,30.324802,,,,,,,,,,,BKN,1300,,,,,,,MVFR,,,,,,,,,,,,METAR,21.0
EGQS 010620Z AUTO 01012KT 9999 BKN012/// BKN021/// 10/07 Q1030,EGQS,2023-06-01T06:20:00Z,57.72,-3.32,10.0,7.0,10,12,,6.21,30.413385,,,TRUE,,,,,,,,BKN,1200,BKN,2100,,,,,MVFR,,,,,,,,,,,,METAR,6.0
EGQM 010620Z AUTO 02010KT 9999 // FEW004/// SCT008/// BKN016/// 11/10 Q1029,EGQM,2023-06-01T06:20:00Z,55.42,-1.6,11.0,10.0,20,10,,6.21,30.383858,,,TRUE,,,,,,,,FEW,400,SCT,800,BKN,1600,,,MVFR,,,,,,,,,,,,METAR,24.0
EGQL 010620Z AUTO 10009KT 9999 // OVC005/// 11/10 Q1029,EGQL,2023-06-01T06:20:00Z,56.38,-2.87,11.0,10.0,100,9,,6.21,30.383858,,,TRUE,,,,,,,,OVC,500,,,,,,,IFR,,,,,,,,,,,,METAR,11.0
EGQK 010620Z AUTO 05006KT 3600 DZ BKN007/// 09/09 Q1030,EGQK,2023-06-01T06:20:00Z,57.65,-3.57,9.0,9.0,50,6,,2.24,30.413385,,,TRUE,,,,,,,DZ,BKN,700,,,,,,,IFR,,,,,,,,,,,,METAR,5.0
EGQA 010620Z AUTO 02006KT 9999 -DZ OVC009/// 10/08 Q1030,EGQA,2023-06-01T06:20:00Z,57.83,-3.95,10.0,8.0,20,6,,6.21,30.413385,,,TRUE,,,,,,,-DZ,OVC,900,,,,,,,IFR,,,,,,,,,,,,METAR,4.0
EGPU 010620Z AUTO 01013KT 9999 NCD 12/10 Q1029,EGPU,2023-06-01T06:20:00Z,56.5,-6.88,12.0,10.0,10,13,,6.21,30.383858,,,TRUE,,,,,,,,CLR,,,,,,,,VFR,,,,,,,,,,,,METAR,12.0
EGPO 010620Z 02007KT 9999 -DZ FEW005 SCT009 BKN015 09/08 Q1031,EGPO,2023-06-01T06:20:00Z,58.22,-6.32,9.0,8.0,20,7,,6.21,30.442913,,,,,,,,,,-DZ,FEW,500,SCT,900,BKN,1500,,,MVFR,,,,,,,,,,,,METAR,10.0
EGPN 010620Z 09006KT 9999 OVC015 12/10 Q1029,EGPN,2023-06-01T06:20:00Z,56.45,-3.02,12.0,10.0,90,6,,6.21,30.383858,,,,,,,,,,,OVC,1500,,,,,,,MVFR,,,,,,,,,,,,METAR,4.0
EGPL 010620Z AUTO 01010KT 9999 OVC004/// 12/09 Q1031,EGPL,2023-06-01T06:20:00Z,57.47,-7.37,12.0,9.0,10,10,,6.21,30.442913,,,TRUE,,,,,,,,OVC,400,,,,,,,LIFR,,,,,,,,,,,,METAR,3.0
EGPK 010620Z 08005KT CAVOK 12/09 Q1029,EGPK,2023-06-01T06:20:00Z,55.5,-4.58,12.0,9.0,80,5,,6.21,30.383858,,,,,,,,,,,CAVOK,,,,,,,,VFR,,,,,,,,,,,,METAR,14.0
EGPI 010620Z AUTO 18003KT 9999 NCD 13/12 Q1029,EGPI,2023-06-01T06:20:00Z,55.68,-6.25,13.0,12.0,180,3,,6.21,30.383858,,,TRUE,,,,,,,,CLR,,,,,,,,VFR,,,,,,,,,,,,METAR,17.0
EGPH 010620Z 35002KT 8000 BKN025 10/10 Q1029,EGPH,2023-06-01T06:20:00Z,55.95,-3.35,10.0,10.0,350,2,,4.97,30.383858,,,,,,,,,,,BKN,2500,,,,,,,MVFR,,,,,,,,,,,,METAR,29.0
EGPF 010620Z AUTO VRB01KT 9999 BKN023 11/09 Q1030,EGPF,2023-06-01T06:20:00Z,55.87,-4.42,11.0,9.0,0,1,,6.21,30.413385,,,TRUE,,,,,,,,BKN,2300,,,,,,,MVFR,,,,,,,,,,,,METAR,8.0
EGPE 010620Z 07003KT 9999 -RADZ FEW007 SCT012 BKN025 11/09 Q1030,EGPE,2023-06-01T06:20:00Z,57.53,-4.05,11.0,9.0,70,3,,6.21,30.413385,,,,,,,,,,-RA -DZ,FEW,700,SCT,1200,BKN,2500,,,MVFR,,,,,,,,,,,,METAR,7.0
EGPD 010620Z 36007KT 330V040 9000 BKN007 09/08 Q1030 BECMG BKN010,EGPD,2023-06-01T06:20:00Z,57.2,-2.22,9.0,8.0,360,7,,5.59,30.413385,,,,,,,,,,,BKN,700,,,,,,,IFR,,,,,,,,,,,,SPECI,65.0
EGPC 010620Z AUTO 34008KT 9999 OVC017/// 09/06 Q1031,EGPC,2023-06-01T06:20:00Z,58.45,-3.08,9.0,6.0,340,8,,6.21,30.442913,,,TRUE,,,,,,,,OVC,1700,,,,,,,MVFR,,,,,,,,,,,,METAR,38.0
EGPB 010620Z 02011KT 9999 FEW020 08/03 Q1030,EGPB,2023-06-01T06:20:00Z,59.87,-1.3,8.0,3.0,20,11,,6.21,30.413385,,,,,,,,,,,FEW,2000,,,,,,,VFR,,,,,,,,,,,,METAR,2.0
EGPA 010620Z 02011KT 9999 FEW006 BKN010 09/06 Q1031,EGPA,2023-06-01T06:20:00Z,58.95,-2.9,9.0,6.0,20,11,,6.21,30.442913,,,,,,,,,,,FEW,600,BKN,1000,,,,,MVFR,,,,,,,,,,,,METAR,15.0
EGOV 010620Z 06012KT 9999 FEW006 11/08 Q1026 NOSIG RMK BLU BLU,EGOV,2023-06-01T06:20:00Z,53.25,-4.53,11.0,8.0,60,12,,6.21,30.295275,,,,,,TRUE,,,,,FEW,600,,,,,,,VFR,,,,,,,,,,,,METAR,11.0
EGOS 010620Z AUTO 06009KT 9999 OVC015/// 10/06 Q1028,EGOS,2023-06-01T06:20:00Z,52.8,-2.67,10.0,6.0,60,9,,6.21,30.35433,,,TRUE,,,,,,,,OVC,1500,,,,,,,MVFR,,,,,,,,,,,,METAR,76.0
EGOP 010620Z AUTO 06005KT 9999 NCD 12/09 Q1025,EGOP,2023-06-01T06:20:00Z,51.72,-4.37,12.0,9.0,60,5,,6.21,30.265747,,,TRUE,,,,,,,,CLR,,,,,,,,VFR,,,,,,,,,,,,METAR,8.0
EGOM 010620Z AUTO 08009KT 9999 OVC014/// 10/08 Q1028,EGOM,2023-06-01T06:20:00Z,55.05,-2.55,10.0,8.0,80,9,,6.21,30.35433,,,TRUE,,,,,,,,OVC,1400,,,,,,,MVFR,,,,,,,,,,,,METAR,286.0
EGNX 010620Z 04010KT 010V080 9999 BKN015 10/06 Q1027,EGNX,2023-06-01T06:20:00Z,52.82,-1.32,10.0,6.0,40,10,,6.21,30.324802,,,,,,,,,,,BKN,1500,,,,,,,MVFR,,,,,,,,,,,,METAR,91.0
EGNV 010620Z 35005KT 320V060 9999 BKN017 11/08 Q1029,EGNV,2023-06-01T06:20:00Z,54.52,-1.42,11.0,8.0,350,5,,6.21,30.383858,,,,,,,,,,,BKN,1700,,,,,,,MVFR,,,,,,,,,,,,METAR,36.0
EGNT 010620Z 35002KT 9999 BKN019 11/08 Q1029,EGNT,2023-06-01T06:20:00Z,55.03,-1.7,11.0,8.0,350,2,,6.21,30.383858,,,,,,,,,,,BKN,1900,,,,,,,MVFR,,,,,,,,,,,,METAR,77.0
EGNS 010620Z 11011KT 9999 FEW013 BKN015 12/09 Q1028 NOSIG,EGNS,2023-06-01T06:20:00Z,54.08,-4.63,12.0,9.0,110,11,,6.21,30.35433,,,,,,TRUE,,,,,FEW,1300,BKN,1500,,,,,MVFR,,,,,,,,,,,,METAR,18.0
EGNO 010620Z 09009KT 9999 BKN020 10/06 Q1028,EGNO,2023-06-01T06:20:00Z,53.75,-2.88,10.0,6.0,90,9,,6.21,30.35433,,,,,,,,,,,BKN,2000,,,,,,,MVFR,,,,,,,,,,,,METAR,12.0
EGNM 010620Z 05006KT 010V090 9999 BKN014 10/06 Q1028,EGNM,2023-06-01T06:20:00Z,53.87,-1.65,10.0,6.0,50,6,,6.21,30.35433,,,,,,,,,,,BKN,1400,,,,,,,MVFR,,,,,,,,,,,,METAR,221.0
EGNH 010620Z 11008KT 9999 BKN019 11/07 Q1028,EGNH,2023-06-01T06:20:00Z,53.77,-3.03,11.0,7.0,110,8,,6.21,30.35433,,,,,,,,,,,BKN,1900,,,,,,,MVFR,,,,,,,,,,,,METAR,10.0
EGMD 010620Z AUTO 03015KT 9999 OVC011/// 12/10 Q1025,EGMD,2023-06-01T06:20:00Z,50.95,0.93,12.0,10.0,30,15,,6.21,30.265747,,,TRUE,,,,,,,,OVC,1100,,,,,,,MVFR,,,,,,,,,,,,METAR,4.0
EGMC 010620Z 02007KT 350V070 9999 BKN013 11/08 Q1026,EGMC,2023-06-01T06:20:00Z,51.57,0.7,11.0,8.0,20,7,,6.21,30.295275,,,,,,,,,,,BKN,1300,,,,,,,MVFR,,,,,,,,,,,,METAR,15.0
EGLL 010620Z AUTO 04009KT 9999 OVC013 10/07 Q1026 BECMG BKN015,EGLL,2023-06-01T06:20:00Z,51.48,-0.45,10.0,7.0,40,9,,6.21,30.295275,,,TRUE,,,,,,,,OVC,1300,,,,,,,MVFR,,,,,,,,,,,,SPECI,26.0
EGLF 010620Z 04010KT 360V070 9999 OVC010 10/07 Q1025,EGLF,2023-06-01T06:20:00Z,51.28,-0.77,10.0,7.0,40,10,,6.21,30.265747,,,,,,,,,,,OVC,1000,,,,,,,MVFR,,,,,,,,,,,,METAR,65.0
EGLC 010620Z AUTO 06010KT 9999 OVC013 11/07 Q1026,EGLC,2023-06-01T06:20:00Z,51.5,0.05,11.0,7.0,60,10,,6.21,30.295275,,,TRUE,,,,,,,,OVC,1300,,,,,,,MVFR,,,,,,,,,,,,METAR,10.0
EGKK 010620Z 05012KT 9999 BKN010 10/08 Q1025,EGKK,2023-06-01T06:20:00Z,51.13,-0.18,10.0,8.0,50,12,,6.21,30.265747,,,,,,,,,,,BKN,1000,,,,,,,MVFR,,,,,,,,,,,,METAR,58.0
EGKB 010620Z 04010KT 9999 BKN007 09/07 Q1026,EGKB,2023-06-01T06:20:00Z,51.32,0.02,9.0,7.0,40,10,,6.21,30.295275,,,,,,,,,,,BKN,700,,,,,,,IFR,,,,,,,,,,,,METAR,183.0
EGJJ 010620Z 06013G23KT 020V110 8000 OVC004 12/12 Q1021,EGJJ,2023-06-01T06:20:00Z,49.22,-2.2,12.0,12.0,60,13,23,4.97,30.147638,,,,,,,,,,,OVC,400,,,,,,,LIFR,,,,,,,,,,,,METAR,84.0
EGJB 010620Z 06018G28KT 9000 BKN006 12/11 Q1021,EGJB,2023-06-01T06:20:00Z,49.42,-2.6,12.0,11.0,60,18,28,5.59,30.147638,,,,,,,,,,,BKN,600,,,,,,,IFR,,,,,,,,,,,,METAR,102.0
EGJA 010620Z 07022KT 7000 BKN006 12/10 Q1022,EGJA,2023-06-01T06:20:00Z,49.72,-2.2,12.0,10.0,70,22,,4.35,30.177166,,,,,,,,,,,BKN,600,,,,,,,IFR,,,,,,,,,,,,METAR,83.0
EGHQ 010620Z 06003KT 020V110 CAVOK 12/09 Q1023,EGHQ,2023-06-01T06:20:00Z,50.43,-5.0,12.0,9.0,60,3,,6.21,30.206694,,,,,,,,,,,CAVOK,,,,,,,,VFR,,,,,,,,,,,,METAR,101.0
EGHI 010620Z 03009KT 350V070 9999 BKN013 11/09 Q1025,EGHI,2023-06-01T06:20:00Z,50.95,-1.35,11.0,9.0,30,9,,6.21,30.265747,,,,,,,,,,,BKN,1300,,,,,,,MVFR,,,,,,,,,,,,METAR,13.0
EGHH 010620Z 04010KT 9999 BKN013 11/07 Q1025,EGHH,2023-06-01T06:20:00Z,50.78,-1.83,11.0,7.0,40,10,,6.21,30.265747,,,,,,,,,,,BKN,1300,,,,,,,MVFR,,,,,,,,,,,,METAR,9.0
EGHE 010620Z 09017KT 9999 SCT012 13/11 Q1022,EGHE,2023-06-01T06:20:00Z,49.92,-6.28,13.0,11.0,90,17,,6.21,30.177166,,,,,,,,,,,SCT,1200,,,,,,,VFR,,,,,,,,,,,,METAR,31.0
EGHC 010620Z 10013KT CAVOK 13/10 Q1022,EGHC,2023-06-01T06:20:00Z,50.1,-5.67,13.0,10.0,100,13,,6.21,30.177166,,,,,,,,,,,CAVOK,,,,,,,,VFR,,,,,,,,,,,,METAR,117.0
EGGW 010620Z AUTO 05011KT 9999 OVC009 09/07 Q1026,EGGW,2023-06-01T06:20:00Z,51.87,-0.37,9.0,7.0,50,11,,6.21,30.295275,,,TRUE,,,,,,,,OVC,900,,,,,,,IFR,,,,,,,,,,,,METAR,159.0
EGGP 010620Z 09007KT 060V120 9999 OVC018 10/06 Q1028,EGGP,2023-06-01T06:20:00Z,53.33,-2.85,10.0,6.0,90,7,,6.21,30.35433,,,,,,,,,,,OVC,1800,,,,,,,MVFR,,,,,,,,,,,,METAR,23.0
EGGD 010620Z AUTO 06017KT 9999 OVC006 09/07 Q1025,EGGD,2023-06-01T06:20:00Z,51.37,-2.72,9.0,7.0,60,17,,6.21,30.265747,,,TRUE,,,,,,,,OVC,600,,,,,,,IFR,,,,,,,,,,,,METAR,182.0
EGFF 010620Z AUTO 06015KT 9999 OVC010 10/07 Q1025,EGFF,2023-06-01T06:20:00Z,51.38,-3.35,10.0,7.0,60,15,,6.21,30.265747,,,TRUE,,,,,,,,OVC,1000,,,,,,,MVFR,,,,,,,,,,,,METAR,65.0
EGDY 010620Z 04011KT 9999 FEW008 BKN012 11/08 Q1025 NOSIG RMK GRN GRN,EGDY,2023-06-01T06:20:00Z,51.0,-2.63,11.0,8.0,40,11,,6.21,30.265747,,,,,,TRUE,,,,,FEW,800,BKN,1200,,,,,MVFR,,,,,,,,,,,,METAR,21.0
EGDR 010620Z AUTO 08015KT 9999 NCD 13/10 Q1022,EGDR,2023-06-01T06:20:00Z,50.08,-5.25,13.0,10.0,80,15,,6.21,30.177166,,,TRUE,,,,,,,,CLR,,,,,,,,VFR,,,,,,,,,,,,METAR,74.0
EGDM 010620Z AUTO 06012KT 9999 OVC008/// 09/07 Q1025,EGDM,2023-06-01T06:20:00Z,51.17,-1.75,9.0,7.0,60,12,,6.21,30.265747,,,TRUE,,,,,,,,OVC,800,,,,,,,IFR,,,,,,,,,,,,METAR,122.0
EGCC 010620Z AUTO 07005KT 020V130 9999 OVC017 11/07 Q1028 NOSIG,EGCC,2023-06-01T06:20:00Z,53.35,-2.27,11.0,7.0,70,5,,6.21,30.35433,,,TRUE,,,TRUE,,,,,OVC,1700,,,,,,,MVFR,,,,,,,,,,,,METAR,78.0
EGBJ 010620Z 04006KT 9999 BKN030 10/07 Q1027,EGBJ,2023-06-01T06:20:00Z,51.9,-2.17,10.0,7.0,40,6,,6.21,30.324802,,,,,,,,,,,BKN,3000,,,,,,,MVFR,,,,,,,,,,,,METAR,27.0
EGBB 010620Z 04009KT 9999 BKN012 09/06 Q1027,EGBB,2023-06-01T06:20:00Z,52.47,-1.75,9.0,6.0,40,9,,6.21,30.324802,,,,,,,,,,,BKN,1200,,,,,,,MVFR,,,,,,,,,,,,METAR,91.0
EGAE 010620Z 26003KT 9000 VCFG FEW004 OVC007 11/10 Q1029,EGAE,2023-06-01T06:20:00Z,55.03,-7.15,11.0,10.0,260,3,,5.59,30.383858,,,,,,,,,,VCFG,FEW,400,OVC,700,,,,,IFR,,,,,,,,,,,,METAR,9.0
EGAC 010620Z AUTO VRB02KT 9999 SCT012 13/10 Q1029,EGAC,2023-06-01T06:20:00Z,54.62,-5.87,13.0,10.0,0,2,,6.21,30.383858,,,TRUE,,,,,,,,SCT,1200,,,,,,,VFR,,,,,,,,,,,,METAR,2.0
EGAA 010620Z AUTO 11004KT 080V160 9999 NCD 12/10 Q1028,EGAA,2023-06-01T06:20:00Z,54.65,-6.22,12.0,10.0,110,4,,6.21,30.35433,,,TRUE,,,,,,,,CLR,,,,,,,,VFR,,,,,,,,,,,,METAR,65.0
EFVA 010620Z AUTO 31013KT 280V340 9999 FEW038 06/M02 Q1009,EFVA,2023-06-01T06:20:00Z,63.05,21.77,6.0,-2.0,310,13,,6.21,29.793306,,,TRUE,,,,,,,,FEW,3800,,,,,,,VFR,,,,,,,,,,,,METAR,4.0
EFUT 010620Z 34011KT CAVOK 10/M01 Q1006,EFUT,2023-06-01T06:20:00Z,60.88,26.93,10.0,-1.0,340,11,,6.21,29.704725,,,,,,,,,,,CAVOK,,,,,,,,VFR,,,,,,,,,,,,METAR,104.0
EFTU 010620Z AUTO 33008KT 290V360 9999 FEW034 BKN044 08/M02 Q1011,EFTU,2023-06-01T06:20:00Z,60.52,22.27,8.0,-2.0,330,8,,6.21,29.852362,,,TRUE,,,,,,,,FEW,3400,BKN,4400,,,,,VFR,,,,,,,,,,,,METAR,47.0
EFTP 010620Z 32008KT 280V350 9999 FEW045 07/M04 Q1009,EFTP,2023-06-01T06:20:00Z,61.42,23.62,7.0,-4.0,320,8,,6.21,29.793306,,,,,,,,,,,FEW,4500,,,,,,,VFR,,,,,,,,,,,,METAR,111.0
EFSI 010620Z AUTO 32010KT 280V350 9999 BKN044 06/M04 Q1009,EFSI,2023-06-01T06:20:00Z,62.7,22.83,6.0,-4.0,320,10,,6.21,29.793306,,,TRUE,,,,,,,,BKN,4400,,,,,,,VFR,,,,,,,,,,,,METAR,90.0
EFSA 010620Z AUTO 30009KT 270V350 9999 -SHRA BKN036 //////CB 08/M00 Q1004,EFSA,2023-06-01T06:20:00Z,61.95,28.93,8.0,0.0,300,9,,6.21,29.64567,,,TRUE,,,,,,,-SHRA,BKN,3600,,,,,,,VFR,,,,,,,,,,,,METAR,90.0
EFRO 010620Z 29010KT 250V330 9999 FEW047 04/M08 Q1003,EFRO,2023-06-01T06:20:00Z,66.57,25.82,4.0,-8.0,290,10,,6.21,29.616142,,,,,,,,,,,FEW,4700,,,,,,,VFR,,,,,,,,,,,,METAR,201.0
EFPO 010620Z AUTO 32015KT 290V350 9999 FEW034 07/M01 Q1011,EFPO,2023-06-01T06:20:00Z,61.47,21.8,7.0,-1.0,320,15,,6.21,29.852362,,,TRUE,,,,,,,,FEW,3400,,,,,,,VFR,,,,,,,,,,,,METAR,10.0
EFOU 010620Z AUTO 34011KT 9999 FEW047 07/M04 Q1005,EFOU,2023-06-01T06:20:00Z,64.92,25.37,7.0,-4.0,340,11,,6.21,29.675198,,,TRUE,,,,,,,,FEW,4700,,,,,,,VFR,,,,,,,,,,,,METAR,15.0
EFMI 010620Z AUTO 30008KT 270V350 CAVOK 08/M03 Q1006,EFMI,2023-06-01T06:20:00Z,61.68,27.2,8.0,-3.0,300,8,,6.21,29.704725,,,TRUE,,,,,,,,CAVOK,,,,,,,,VFR,,,,,,,,,,,,METAR,99.0
EFMA 010620Z AUTO 32014KT 290V350 9999 SCT036 08/M01 Q1014,EFMA,2023-06-01T06:20:00Z,60.12,19.9,8.0,-1.0,320,14,,6.21,29.940945,,,TRUE,,,,,,,,SCT,3600,,,,,,,VFR,,,,,,,,,,,,METAR,6.0
EFLP 010620Z AUTO 32008KT 280V360 9999 BKN027 09/01 Q1005,EFLP,2023-06-01T06:20:00Z,61.03,28.15,9.0,1.0,320,8,,6.21,29.675198,,,TRUE,,,,,,,,BKN,2700,,,,,,,MVFR,,,,,,,,,,,,METAR,102.0
EFKU 010620Z AUTO 30012KT 9999 FEW035 06/M02 Q1004,EFKU,2023-06-01T06:20:00Z,63.02,27.8,6.0,-2.0,300,12,,6.21,29.64567,,,TRUE,,,,,,,,FEW,3500,,,,,,,VFR,,,,,,,,,,,,METAR,92.0
EFKT 010620Z AUTO 32010KT 290V350 9999 BKN025 02/M04 Q1003,EFKT,2023-06-01T06:20:00Z,67.7,24.85,2.0,-4.0,320,10,,6.21,29.616142,,,TRUE,,,,,,,,BKN,2500,,,,,,,MVFR,,,,,,,,,,,,METAR,190.0
EFKS 010620Z AUTO 30015KT CAVOK 02/M04 Q1000,EFKS,2023-06-01T06:20:00Z,66.0,29.23,2.0,-4.0,300,15,,6.21,29.52756,,,TRUE,,,,,,,,CAVOK,,,,,,,,VFR,,,,,,,,,,,,METAR,270.0
EFKK 010620Z AUTO 33010KT 290V010 9999 BKN037 05/M03 Q1008,EFKK,2023-06-01T06:20:00Z,63.72,23.13,5.0,-3.0,330,10,,6.21,29.763779,,,TRUE,,,,,,,,BKN,3700,,,,,,,VFR,,,,,,,,,,,,METAR,25.0
EFKI 010620Z AUTO 32011KT 280V350 CAVOK 06/M07 Q1003,EFKI,2023-06-01T06:20:00Z,64.27,27.67,6.0,-7.0,320,11,,6.21,29.616142,,,TRUE,,,,,,,,CAVOK,,,,,,,,VFR,,,,,,,,,,,,METAR,132.0
EFKE 010620Z AUTO 33008KT 290V020 CAVOK 06/M07 Q1005,EFKE,2023-06-01T06:20:00Z,65.78,24.57,6.0,-7.0,330,8,,6.21,29.675198,,,TRUE,,,,,,,,CAVOK,,,,,,,,VFR,,,,,,,,,,,,METAR,15.0
EFJY 010620Z AUTO 31017KT 280V340 CAVOK 07/M05 Q1006,EFJY,2023-06-01T06:20:00Z,62.4,25.68,7.0,-5.0,310,17,,6.21,29.704725,,,TRUE,,,,,,,,CAVOK,,,,,,,,VFR,,,,,,,,,,,,METAR,139.0
EFJO 010620Z AUTO 31011KT 270V330 9999 FEW030 08/01 Q1003,EFJO,2023-06-01T06:20:00Z,62.67,29.62,8.0,1.0,310,11,,6.21,29.616142,,,TRUE,,,,,,,,FEW,3000,,,,,,,VFR,,,,,,,,,,,,METAR,118.0
EFIV 010620Z AUTO 36006KT 310V020 7000 -SN OVC007 01/00 Q1001,EFIV,2023-06-01T06:20:00Z,68.62,27.42,1.0,0.0,360,6,,4.35,29.557087,,,TRUE,,,,,,,-SN,OVC,700,,,,,,,IFR,,,,,,,,,,,,METAR,145.0
EFHK 010620Z 28013KT 250V310 9999 FEW037 10/00 Q1008 NOSIG,EFHK,2023-06-01T06:20:00Z,60.32,24.97,10.0,0.0,280,13,,6.21,29.763779,,,,,,TRUE,,,,,FEW,3700,,,,,,,VFR,,,,,,,,,,,,METAR,56.0
EFHA 010620Z 31010KT 270V340 9999 BKN045 07/M04 Q1007,EFHA,2023-06-01T06:20:00Z,61.85,24.8,7.0,-4.0,310,10,,6.21,29.734253,,,,,,,,,,,BKN,4500,,,,,,,VFR,,,,,,,,,,,,METAR,144.0
EFET 010620Z AUTO 36011KT 1100 R21/1700D -SN OVC007 M00/M01 Q1004,EFET,2023-06-01T06:20:00Z,68.37,23.43,0.0,-1.0,360,11,,0.68,29.64567,,,TRUE,,,,,,,-SN,OVC,700,,,,,,,LIFR,,,,,,,,,,,,METAR,300.0
EETU 010620Z 28013KT CAVOK 13/02 Q1010,EETU,2023-06-01T06:20:00Z,58.32,26.68,13.0,2.0,280,13,,6.21,29.822834,,,,,,,,,,,CAVOK,,,,,,,,VFR,,,,,,,,,,,,METAR,67.0
EETN 010620Z 29014KT CAVOK 10/00 Q1010 NOSIG,EETN,2023-06-01T06:20:00Z,59.4,24.82,10.0,0.0,290,14,,6.21,29.822834,,,,,,TRUE,,,,,CAVOK,,,,,,,,VFR,,,,,,,,,,,,METAR,41.0
EEPU 010620Z AUTO 29006KT 260V340 9999 SCT058/// SCT071/// BKN081/// 12/05 Q1012,EEPU,2023-06-01T06:20:00Z,58.42,24.47,12.0,5.0,290,6,,6.21,29.88189,,,TRUE,,,,,,,,SCT,5800,SCT,7100,BKN,8100,,,VFR,,,,,,,,,,,,METAR,13.0
EEKE 010620Z 32007KT 290V340 9999 BKN049 13/04 Q1013,EEKE,2023-06-01T06:20:00Z,58.23,22.52,13.0,4.0,320,7,,6.21,29.911417,,,,,,,,,,,BKN,4900,,,,,,,VFR,,,,,,,,,,,,METAR,4.0
EEKA 010620Z 32013KT CAVOK 10/03 Q1012,EEKA,2023-06-01T06:20:00Z,58.98,22.83,10.0,3.0,320,13,,6.21,29.88189,,,,,,,,,,,CAVOK,,,,,,,,VFR,,,,,,,,,,,,METAR,6.0
EDXW 010620Z 33017KT 9999 OVC016 10/07 Q1020,EDXW,2023-06-01T06:20:00Z,54.92,8.33,10.0,7.0,330,17,,6.21,30.11811,,,,,,,,,,,OVC,1600,,,,,,,MVFR,,,,,,,,,,,,METAR,8.0
EDVK 010620Z 31006KT 270V360 2000 R27/P2000N BR OVC002 09/08 Q1021,EDVK,2023-06-01T06:20:00Z,51.4,9.37,9.0,8.0,310,6,,1.24,30.147638,,,,,,,,,,BR,OVC,200,,,,,,,LIFR,,,,,,,,,,,,METAR,277.0
EDVE 010620Z 30008KT 250V340 9999 OVC008 11/08 Q1021,EDVE,2023-06-01T06:20:00Z,52.32,10.55,11.0,8.0,300,8,,6.21,30.147638,,,,,,,,,,,OVC,800,,,,,,,IFR,,,,,,,,,,,,METAR,83.0
EDTY 010620Z VRB02KT CAVOK 16/08 Q1019,EDTY,2023-06-01T06:20:00Z,49.12,9.78,16.0,8.0,0,2,,6.21,30.088583,,,,,,,,,,,CAVOK,,,,,,,,VFR,,,,,,,,,,,,METAR,398.0
EDTL 010620Z 35004KT 310V020 CAVOK 16/09 Q1018,EDTL,2023-06-01T06:20:00Z,48.37,7.83,16.0,9.0,350,4,,6.21,30.059055,,,,,,,,,,,CAVOK,,,,,,,,VFR,,,,,,,,,,,,METAR,152.0
EDSB 010620Z 03009KT CAVOK 17/09 Q1017,EDSB,2023-06-01T06:20:00Z,48.78,8.08,17.0,9.0,30,9,,6.21,30.029528,,,,,,,,,,,CAVOK,,,,,,,,VFR,,,,,,,,,,,,METAR,122.0
EDQM 010620Z 33004KT 260V020 CAVOK 14/06 Q1020,EDQM,2023-06-01T06:20:00Z,50.3,11.85,14.0,6.0,330,4,,6.21,30.11811,,,,,,,,,,,CAVOK,,,,,,,,VFR,,,,,,,,,,,,METAR,578.0
EDNY 010620Z 04005KT CAVOK 16/09 Q1018,EDNY,2023-06-01T06:20:00Z,47.67,9.52,16.0,9.0,40,5,,6.21,30.059055,,,,,,,,,,,CAVOK,,,,,,,,VFR,,,,,,,,,,,,METAR,411.0
EDMO 010620Z 03003KT 350V060 CAVOK 16/09 Q1018,EDMO,2023-06-01T06:20:00Z,48.07,11.27,16.0,9.0,30,3,,6.21,30.059055,,,,,,,,,,,CAVOK,,,,,,,,VFR,,,,,,,,,,,,METAR,587.0
EDMA 010620Z 02007KT CAVOK 16/08 Q1018,EDMA,2023-06-01T06:20:00Z,48.42,10.92,16.0,8.0,20,7,,6.21,30.059055,,,,,,,,,,,CAVOK,,,,,,,,VFR,,,,,,,,,,,,METAR,462.0
EDLW 010620Z 36006KT 9000 OVC007 09/08 Q1022,EDLW,2023-06-01T06:20:00Z,51.52,7.62,9.0,8.0,360,6,,5.59,30.177166,,,,,,,,,,,OVC,700,,,,,,,IFR,,,,,,,,,,,,METAR,122.0
EDLV 010620Z 02005KT 330V080 9999 OVC012 11/08 Q1023,EDLV,2023-06-01T06:20:00Z,51.6,6.15,11.0,8.0,20,5,,6.21,30.206694,,,,,,,,,,,OVC,1200,,,,,,,MVFR,,,,,,,,,,,,METAR,27.0
EDLP 010620Z 30004KT 250V360 3500 BR OVC004 08/07 Q1022,EDLP,2023-06-01T06:20:00Z,51.62,8.62,8.0,7.0,300,4,,2.17,30.177166,,,,,,,,,,BR,OVC,400,,,,,,,LIFR,,,,,,,,,,,,METAR,211.0
EDLN 010620Z 34008KT 8000 OVC009 10/08 Q1022,EDLN,2023-06-01T06:20:00Z,51.23,6.5,10.0,8.0,340,8,,4.97,30.177166,,,,,,,,,,,OVC,900,,,,,,,IFR,,,,,,,,,,,,METAR,38.0
EDJA 010620Z 04003KT 340V100 CAVOK 15/09 Q1019,EDJA,2023-06-01T06:20:00Z,47.98,10.23,15.0,9.0,40,3,,6.21,30.088583,,,,,,,,,,,CAVOK,,,,,,,,VFR,,,,,,,,,,,,METAR,625.0
EDHL 010620Z 29009KT 250V320 9999 BKN018 12/07 Q1019,EDHL,2023-06-01T06:20:00Z,53.8,10.72,12.0,7.0,290,9,,6.21,30.088583,,,,,,,,,,,BKN,1800,,,,,,,MVFR,,,,,,,,,,,,METAR,13.0
EDHK 010620Z 31012KT 9999 BKN017 11/07 Q1019,EDHK,2023-06-01T06:20:00Z,54.38,10.15,11.0,7.0,310,12,,6.21,30.088583,,,,,,,,,,,BKN,1700,,,,,,,MVFR,,,,,,,,,,,,METAR,24.0
EDHI 010620Z 30012KT 270V340 9999 BKN017 12/08 Q1020,EDHI,2023-06-01T06:20:00Z,53.53,9.83,12.0,8.0,300,12,,6.21,30.11811,,,,,,,,,,,BKN,1700,,,,,,,MVFR,,,,,,,,,,,,METAR,5.0
EDGS 010620Z 06006KT CAVOK 16/09 Q1021,EDGS,2023-06-01T06:20:00Z,50.7,8.08,16.0,9.0,60,6,,6.21,30.147638,,,,,,,,,,,CAVOK,,,,,,,,VFR,,,,,,,,,,,,METAR,595.0
EDFM 010620Z 01004KT 340V040 CAVOK 18/09 Q1019,EDFM,2023-06-01T06:20:00Z,49.47,8.52,18.0,9.0,10,4,,6.21,30.088583,,,,,,,,,,,CAVOK,,,,,,,,VFR,,,,,,,,,,,,METAR,94.0
EDFH 010620Z 04004KT 350V090 CAVOK 16/10 Q1021,EDFH,2023-06-01T06:20:00Z,49.95,7.27,16.0,10.0,40,4,,6.21,30.147638,,,,,,,,,,,CAVOK,,,,,,,,VFR,,,,,,,,,,,,METAR,494.0
EDDW 010620Z AUTO 30007KT 290V350 7000 -DZ BKN007 11/10 Q1022 BECMG BKN012,EDDW,2023-06-01T06:20:00Z,53.03,8.8,11.0,10.0,300,7,,4.35,30.177166,,,TRUE,,,,,,,-DZ,BKN,700,,,,,,,IFR,,,,,,,,,,,,METAR,5.0
EDDV 010620Z AUTO 31008KT 270V350 9999 OVC011 11/08 Q1021 NOSIG,EDDV,2023-06-01T06:20:00Z,52.47,9.68,11.0,8.0,310,8,,6.21,30.147638,,,TRUE,,,TRUE,,,,,OVC,1100,,,,,,,MVFR,,,,,,,,,,,,METAR,53.0
EDDS 010620Z AUTO VRB02KT CAVOK 17/07 Q1019 NOSIG,EDDS,2023-06-01T06:20:00Z,48.68,9.22,17.0,7.0,0,2,,6.21,30.088583,,,TRUE,,,TRUE,,,,,CAVOK,,,,,,,,VFR,,,,,,,,,,,,METAR,374.0
EDDR 010620Z AUTO 05011KT CAVOK 17/08 Q1019 NOSIG,EDDR,2023-06-01T06:20:00Z,49.22,7.1,17.0,8.0,50,11,,6.21,30.088583,,,TRUE,,,TRUE,,,,,CAVOK,,,,,,,,VFR,,,,,,,,,,,,METAR,317.0
EDDP 010620Z AUTO 30011KT 9999 SCT009 12/09 Q1020 TEMPO BKN009,EDDP,2023-06-01T06:20:00Z,51.43,12.23,12.0,9.0,300,11,,6.21,30.11811,,,TRUE,,,,,,,,SCT,900,,,,,,,VFR,,,,,,,,,,,,METAR,129.0
EDDN 010620Z AUTO VRB01KT CAVOK 17/08 Q1019 NOSIG,EDDN,2023-06-01T06:20:00Z,49.5,11.05,17.0,8.0,0,1,,6.21,30.088583,,,TRUE,,,TRUE,,,,,CAVOK,,,,,,,,VFR,,,,,,,,,,,,METAR,312.0
EDDM 010620Z AUTO 06005KT 030V100 CAVOK 17/09 Q1018 NOSIG,EDDM,2023-06-01T06:20:00Z,48.35,11.82,17.0,9.0,60,5,,6.21,30.059055,,,TRUE,,,TRUE,,,,,CAVOK,,,,,,,,VFR,,,,,,,,,,,,METAR,445.0
EDDL 010620Z AUTO 03008KT 350V060 9000 OVC010 11/08 Q1022 BECMG SCT020,EDDL,2023-06-01T06:20:00Z,51.3,6.77,11.0,8.0,30,8,,5.59,30.177166,,,TRUE,,,,,,,,OVC,1000,,,,,,,MVFR,,,,,,,,,,,,METAR,37.0
EDDK 010620Z AUTO 32008KT CAVOK 15/10 Q1021 NOSIG,EDDK,2023-06-01T06:20:00Z,50.87,7.15,15.0,10.0,320,8,,6.21,30.147638,,,TRUE,,,TRUE,,,,,CAVOK,,,,,,,,VFR,,,,,,,,,,,,METAR,92.0
EDDH 010620Z AUTO 30012KT 9999 OVC016 11/08 Q1020 NOSIG,EDDH,2023-06-01T06:20:00Z,53.63,10.0,11.0,8.0,300,12,,6.21,30.11811,,,TRUE,,,TRUE,,,,,OVC,1600,,,,,,,MVFR,,,,,,,,,,,,METAR,8.0
EDDG 010620Z AUTO 01006KT 310V030 9999 OVC012 11/07 Q1023 NOSIG,EDDG,2023-06-01T06:20:00Z,52.13,7.7,11.0,7.0,10,6,,6.21,30.206694,,,TRUE,,,TRUE,,,,,OVC,1200,,,,,,,MVFR,,,,,,,,,,,,METAR,46.0
EDDF 010620Z AUTO 03006KT 010V070 CAVOK 19/08 Q1019 NOSIG,EDDF,2023-06-01T06:20:00Z,50.05,8.6,19.0,8.0,30,6,,6.21,30.088583,,,TRUE,,,TRUE,,,,,CAVOK,,,,,,,,VFR,,,,,,,,,,,,METAR,113.0
EDDE 010620Z AUTO 23007KT CAVOK 14/10 Q1020 NOSIG,EDDE,2023-06-01T06:20:00Z,50.98,10.97,14.0,10.0,230,7,,6.21,30.11811,,,TRUE,,,TRUE,,,,,CAVOK,,,,,,,,VFR,,,,,,,,,,,,METAR,314.0
EDDC 010620Z AUTO 27005KT 230V330 CAVOK 16/09 Q1019 NOSIG,EDDC,2023-06-01T06:20:00Z,51.13,13.75,16.0,9.0,270,5,,6.21,30.088583,,,TRUE,,,TRUE,,,,,CAVOK,,,,,,,,VFR,,,,,,,,,,,,METAR,227.0
EDDB 010620Z AUTO 31009KT 9999 OVC007 11/09 Q1018 BECMG FM0650 SCT010,EDDB,2023-06-01T06:20:00Z,52.38,13.53,11.0,9.0,310,9,,6.21,30.059055,,,TRUE,,,,,,,,OVC,700,,,,,,,IFR,,,,,,,,,,,,METAR,48.0
EDBC 010620Z AUTO 30009KT 270V330 9999 // OVC006/// 10/08 Q1020,EDBC,2023-06-01T06:20:00Z,51.85,11.42,10.0,8.0,300,9,,6.21,30.11811,,,TRUE,,,,,,,,OVC,600,,,,,,,IFR,,,,,,,,,,,,METAR,178.0
EDAH 010620Z AUTO 29009KT 260V320 9999 // OVC017/// 12/08 Q1017,EDAH,2023-06-01T06:20:00Z,53.87,14.15,12.0,8.0,290,9,,6.21,30.029528,,,TRUE,,,,,,,,OVC,1700,,,,,,,MVFR,,,,,,,,,,,,METAR,22.0
EDAC 010620Z 33003KT 290V030 CAVOK 15/09 Q1020,EDAC,2023-06-01T06:20:00Z,50.98,12.5,15.0,9.0,330,3,,6.21,30.11811,,,,,,,,,,,CAVOK,,,,,,,,VFR,,,,,,,,,,,,METAR,193.0
EBOS 010620Z 04012KT 9999 FEW008 BKN010 12/09 Q1024 NOSIG,EBOS,2023-06-01T06:20:00Z,51.2,2.87,12.0,9.0,40,12,,6.21,30.236221,,,,,,TRUE,,,,,FEW,800,BKN,1000,,,,,MVFR,,,,,,,,,,,,METAR,5.0
EBLG 010620Z 05009KT 4000 BR FEW004 BKN005 10/09 Q1022 BECMG 8000 NSW SCT012,EBLG,2023-06-01T06:20:00Z,50.63,5.45,10.0,9.0,50,9,,2.49,30.177166,,,,,,,,,,BR,FEW,400,BKN,500,,,,,IFR,,,,,,,,,,,,METAR,187.0
EBCI 010620Z 04011KT 9999 SCT007 13/10 Q1022 TEMPO BKN007,EBCI,2023-06-01T06:20:00Z,50.47,4.45,13.0,10.0,40,11,,6.21,30.177166,,,,,,,,,,,SCT,700,,,,,,,VFR,,,,,,,,,,,,METAR,176.0
EBBR 010620Z 02006KT 9999 OVC007 10/09 Q1023 BECMG SCT007,EBBR,2023-06-01T06:20:00Z,50.9,4.52,10.0,9.0,20,6,,6.21,30.206694,,,,,,,,,,,OVC,700,,,,,,,IFR,,,,,,,,,,,,METAR,49.0
EBAW 010620Z 02007KT 340V050 9999 SCT008 BKN009 11/08 Q1023 BECMG SCT013,EBAW,2023-06-01T06:20:00Z,51.2,4.47,11.0,8.0,20,7,,6.21,30.206694,,,,,,,,,,,SCT,800,BKN,900,,,,,IFR,,,,,,,,,,,,METAR,7.0
CYDB 010620Z AUTO 30003KT 9SM -RA OVC024 03/02 A2977 RMK SLP119,CYDB,2023-06-01T06:20:00Z,61.37,-139.02,3.0,2.0,300,3,,9.0,29.769686,1011.9,,TRUE,,,,,,,-RA,OVC,2400,,,,,,,MVFR,,,,,,,,,,,,SPECI,807.0
CWKM 010619Z AUTO 26018G26KT ////SM BKN010 BKN013 01/00 A2976,CWKM,2023-06-01T06:19:00Z,69.6,-140.17,1.0,0.0,260,18,26,,29.760826,,,TRUE,,,,,,,,BKN,1000,BKN,1300,,,,,,,,,,,,,,,,,SPECI,8.0
UTO8 M M M 124/10/05/1514+19/M/ PK WND 1622 0502Z 8001 43MM,UTO8,2023-06-01T06:18:07Z,,,,,,,,4.97,,,,,,,,,,,,,,,,,,,,,,,,,,,,,,,,SPECI,
NZCM 010618Z AUTO 00000KT 5000 HZ OVC037 M26/M31 A2927 RMK AO2 SNE0618 SLP920 T12611313,NZCM,2023-06-01T06:18:00Z,-77.85,166.67,-26.1,-31.3,0,0,,3.11,29.27067,992.0,,TRUE,TRUE,,,,,,HZ,OVC,3700,,,,,,,MVFR,,,,,,,,,,,,SPECI,24.0
KC75 010618Z AUTO 00000KT 10SM SCT100 OVC120 23/17 A2998 RMK AO2 PWINO,KC75,2023-06-01T06:18:00Z,41.02,-89.38,23.0,17.0,0,0,,10.0,29.97933,,,TRUE,TRUE,,,,,TRUE,,SCT,10000,OVC,12000,,,,,VFR,,,,,,,,,,,,METAR,166.0
CYMO 010618Z AUTO 34012G19KT 300V010 9SM BKN006 BKN160 07/06 A3007 RMK LTNG DIST NE E NW SLP186,CYMO,2023-06-01T06:18:00Z,51.28,-80.62,7.0,6.0,340,12,19,9.0,30.070866,1018.6,,TRUE,,,,,,,,BKN,600,BKN,16000,,,,,IFR,,,,,,,,,,,,SPECI,8.0
MROC 010617Z 26003KT 9999 RA SCT010 BKN020 21/20 A3007 NOSIG,MROC,2023-06-01T06:17:00Z,10.0,-84.22,21.0,20.0,260,3,,6.21,30.070866,,,,,,TRUE,,,,RA,SCT,1000,BKN,2000,,,,,MVFR,,,,,,,,,,,,SPECI,900.0
KNFE 010617Z AUTO 03007KT 8SM OVC004 19/16 A3003 RMK AO2 RAE02 P0000 T01890161,KNFE,2023-06-01T06:17:00Z,36.7,-76.13,18.9,16.1,30,7,,8.0,30.029528,,,TRUE,TRUE,,,,,,,OVC,400,,,,,,,LIFR,,,,,,0.005,,,,,,SPECI,4.0
CYVT 010617Z AUTO 15016G26KT 6SM HZ FEW120 SCT180 20/12 A2975 RMK SLP081 DENSITY ALT 2600FT,CYVT,2023-06-01T06:17:00Z,55.83,-108.42,20.0,12.0,150,16,26,6.0,29.749016,1008.1,,TRUE,,,,,,,HZ,FEW,12000,SCT,18000,,,,,VFR,,,,,,,,,,,,SPECI,438.0
CYKL 010617Z AUTO 35012G17KT 6SM BR OVC004 06/06 A2999 RMK SLP180,CYKL,2023-06-01T06:17:00Z,54.8,-66.8,6.0,6.0,350,12,17,6.0,29.991142,1018.0,,TRUE,,,,,,,BR,OVC,400,,,,,,,LIFR,,,,,,,,,,,,SPECI,507.0
KMLB 010616Z AUTO 07010KT 10SM SCT022 BKN031 26/22 A2985 RMK AO2 T02560217,KMLB,2023-06-01T06:16:00Z,28.1,-80.65,25.6,21.7,70,10,,10.0,29.84941,,,TRUE,TRUE,,,,,,,SCT,2200,BKN,3100,,,,,VFR,,,,,,,,,,,,METAR,7.0
K40B 010616Z AUTO 00000KT 14/11 A3005 RMK AO1 SLP163 T01360105 10219 20135 57003 60000,K40B,2023-06-01T06:16:00Z,46.62,-69.52,13.6,10.5,0,0,,,30.050198,1016.3,,TRUE,TRUE,,,,,,,,,,,,,,,,-0.3,21.9,13.5,,,,,0.005,,,,METAR,344.0
PAKI 010615Z AUTO 10SM OVC003 03/02 A3010 RMK AO2 $,PAKI,2023-06-01T06:15:00Z,59.93,-164.03,3.0,2.0,,,,10.0,30.100393,,,TRUE,TRUE,TRUE,,,,,,OVC,300,,,,,,,LIFR,,,,,,,,,,,,SPECI,4.0
LMML 010615Z 05009KT 360V080 9999 FEW008 BKN014 21/18 Q1014 NOSIG,LMML,2023-06-01T06:15:00Z,35.85,14.47,21.0,18.0,50,9,,6.21,29.940945,,,,,,TRUE,,,,,FEW,800,BKN,1400,,,,,MVFR,,,,,,,,,,,,METAR,78.0
LIRP 010615Z 12005KT 9999 SCT080 18/14 Q1015 NOSIG,LIRP,2023-06-01T06:15:00Z,43.68,10.38,18.0,14.0,120,5,,6.21,29.970472,,,,,,TRUE,,,,,SCT,8000,,,,,,,VFR,,,,,,,,,,,,METAR,1.0
LHSN 010615Z 08006KT 030V120 CAVOK 20/11 Q1017 NOSIG RMK BLU,LHSN,2023-06-01T06:15:00Z,47.12,20.23,20.0,11.0,80,6,,6.21,30.029528,,,,,,TRUE,,,,,CAVOK,,,,,,,,VFR,,,,,,,,,,,,METAR,89.0
LHSM 010615Z AUTO VRB02KT CAVOK 19/13 Q1018 NOSIG,LHSM,2023-06-01T06:15:00Z,46.68,17.17,19.0,13.0,0,2,,6.21,30.059055,,,TRUE,,,TRUE,,,,,CAVOK,,,,,,,,VFR,,,,,,,,,,,,METAR,119.0
LHPR 010615Z AUTO 00000KT CAVOK 18/12 Q1018 NOSIG,LHPR,2023-06-01T06:15:00Z,47.63,17.82,18.0,12.0,0,0,,6.21,30.059055,,,TRUE,,,TRUE,,,,,CAVOK,,,,,,,,VFR,,,,,,,,,,,,METAR,127.0
LHPP 010615Z AUTO 14005KT 100V160 CAVOK 19/15 Q1018,LHPP,2023-06-01T06:15:00Z,45.98,18.23,19.0,15.0,140,5,,6.21,30.059055,,,TRUE,,,,,,,,CAVOK,,,,,,,,VFR,,,,,,,,,,,,METAR,193.0
LHPA 010615Z 34002KT CAVOK 18/11 Q1018 NOSIG RMK BLU,LHPA,2023-06-01T06:15:00Z,47.35,17.5,18.0,11.0,340,2,,6.21,30.059055,,,,,,TRUE,,,,,CAVOK,,,,,,,,VFR,,,,,,,,,,,,METAR,143.0
LHKE 010615Z 08006KT 030V120 CAVOK 19/11 Q1018 NOSIG RMK BLU,LHKE,2023-06-01T06:15:00Z,46.92,19.75,19.0,11.0,80,6,,6.21,30.059055,,,,,,TRUE,,,,,CAVOK,,,,,,,,VFR,,,,,,,,,,,,METAR,113.0
LHDC 010615Z AUTO VRB02KT CAVOK 19/11 Q1017 NOSIG,LHDC,2023-06-01T06:15:00Z,47.48,21.62,19.0,11.0,0,2,,6.21,30.029528,,,TRUE,,,TRUE,,,,,CAVOK,,,,,,,,VFR,,,,,,,,,,,,METAR,105.0
KOLE 010615Z AUTO 20003KT 10SM CLR 17/08 A3018 RMK AO2,KOLE,2023-06-01T06:15:00Z,42.23,-78.37,17.0,8.0,200,3,,10.0,30.180119,,,TRUE,TRUE,,,,,,,CLR,,,,,,,,VFR,,,,,,,,,,,,METAR,651.0
KOCQ 010615Z AUTO 00000KT 10SM CLR 16/16 A3003 RMK AO1 T01580158,KOCQ,2023-06-01T06:15:00Z,44.87,-87.92,15.8,15.8,0,0,,10.0,30.029528,,,TRUE,TRUE,,,,,,,CLR,,,,,,,,VFR,,,,,,,,,,,,METAR,181.0
KLZZ 010615Z AUTO 00000KT 10SM CLR 21/18 A2986 RMK AO2 T02130183,KLZZ,2023-06-01T06:15:00Z,31.1,-98.2,21.3,18.3,0,0,,10.0,29.861221,,,TRUE,TRUE,,,,,,,CLR,,,,,,,,VFR,,,,,,,,,,,,SPECI,356.0
KK62 010615Z AUTO 00000KT 10SM CLR 16/13 A3005 RMK AO2,KK62,2023-06-01T06:15:00Z,38.7,-84.4,16.0,13.0,0,0,,10.0,30.050198,,,TRUE,TRUE,,,,,,,CLR,,,,,,,,VFR,,,,,,,,,,,,SPECI,274.0
KGLE 010615Z AUTO 11005KT 10SM CLR 22/19 A2990 RMK AO2 T02150185 PWINO,KGLE,2023-06-01T06:15:00Z,33.65,-97.2,21.5,18.5,110,5,,10.0,29.899607,,,TRUE,TRUE,,,,,TRUE,,CLR,,,,,,,,VFR,,,,,,,,,,,,METAR,250.0
KFHU 010615Z AUTO 20011KT 10SM CLR 19/M04 A2994 RMK AO2 WSHFT 05 SLP076,KFHU,2023-06-01T06:15:00Z,31.58,-110.35,19.0,-4.0,200,11,,10.0,29.940945,1007.6,,TRUE,TRUE,,,,,,,CLR,,,,,,,,VFR,,,,,,,,,,,,SPECI,1424.0
KFGX 010615Z AUTO 09003KT 10SM CLR 18/15 A3007 RMK AO2 T01760146,KFGX,2023-06-01T06:15:00Z,38.55,-83.75,17.6,14.6,90,3,,10.0,30.070866,,,TRUE,TRUE,,,,,,,CLR,,,,,,,,VFR,,,,,,,,,,,,SPECI,279.0
KETH 010615Z AUTO 11009KT 10SM CLR 17/13 A2986 RMK AO2,KETH,2023-06-01T06:15:00Z,45.78,-96.55,17.0,13.0,110,9,,10.0,29.861221,,,TRUE,TRUE,,,,,,,CLR,,,,,,,,VFR,,,,,,,,,,,,METAR,309.0
KBWD 010615Z AUTO 14005KT 7SM SCT038 20/17 A2988 RMK AO1,KBWD,2023-06-01T06:15:00Z,31.8,-98.95,20.0,17.0,140,5,,7.0,29.878937,,,TRUE,TRUE,,,,,,,SCT,3800,,,,,,,VFR,,,,,,,,,,,,SPECI,420.0
K6I2 010615Z AUTO 09004KT 10SM CLR 19/17 A3003 RMK AO2,K6I2,2023-06-01T06:15:00Z,37.63,-85.25,19.0,17.0,90,4,,10.0,30.029528,,,TRUE,TRUE,,,,,,,CLR,,,,,,,,VFR,,,,,,,,,,,,SPECI,258.0
K3D2 010615Z AUTO 18005KT 10SM CLR 18/16 A3003 RMK AO2 T01830157,K3D2,2023-06-01T06:15:00Z,45.13,-87.18,18.3,15.7,180,5,,10.0,30.029528,,,TRUE,TRUE,,,,,,,CLR,,,,,,,,VFR,,,,,,,,,,,,METAR,233.0
PAIN 010614Z AUTO VRB03KT 10SM -RA FEW023 BKN036 OVC046 04/01 A2984 RMK AO2 PNO $,PAIN,2023-06-01T06:14:00Z,63.73,-148.92,4.0,1.0,0,3,,10.0,29.840551,,,TRUE,TRUE,TRUE,,,,,-RA,FEW,2300,BKN,3600,OVC,4600,,,VFR,,,,,,,,,,,,SPECI,525.0
KMCF 010614Z AUTO 07006KT 10SM FEW010 22/21 A2981 RMK AO2 SLP097 FZRANO $,KMCF,2023-06-01T06:14:00Z,27.85,-82.52,22.0,21.0,70,6,,10.0,29.811024,1009.7,,TRUE,TRUE,TRUE,,,TRUE,,,FEW,1000,,,,,,,VFR,,,,,,,,,,,,METAR,3.0
TXKF 010613Z 14007KT 9999 SCT005 BKN063 OVC210 24/23 Q1018 ,TXKF,2023-06-01T06:13:00Z,32.37,-64.68,24.0,23.0,140,7,,6.21,30.059055,,,,,,,,,,,SCT,500,BKN,6300,OVC,21000,,,VFR,,,,,,,,,,,,SPECI,4.0
KTTS 010613Z AUTO 07009KT 10SM SCT021 SCT030 OVC130 24/21 A2985 RMK AO2 DZE08 SLP112 $,KTTS,2023-06-01T06:13:00Z,28.58,-80.67,24.0,21.0,70,9,,10.0,29.84941,1011.2,,TRUE,TRUE,TRUE,,,,,,SCT,2100,SCT,3000,OVC,13000,,,VFR,,,,,,,,,,,,METAR,1.0
KSKX 010613Z AUTO 34013KT 9SM RA OVC043 08/07 A3009 RMK AO2 LTG DSNT E-SW TSE07 P0005,KSKX,2023-06-01T06:13:00Z,36.45,-105.67,8.0,7.0,340,13,,9.0,30.088583,,,TRUE,TRUE,,,,,,RA,OVC,4300,,,,,,,VFR,,,,,,0.05,,,,,,SPECI,2163.0
KDUB 010613Z AUTO 29010KT 10SM CLR 06/00 A2997 RMK AO2,KDUB,2023-06-01T06:13:00Z,43.55,-109.68,6.0,0.0,290,10,,10.0,29.970472,,,TRUE,TRUE,,,,,,,CLR,,,,,,,,VFR,,,,,,,,,,,,METAR,2205.0
PAVL 010612Z AUTO 26006KT 10SM BKN015 OVC100 M01/M04 A2995 RMK AO2 T10111039 TSNO,PAVL,2023-06-01T06:12:00Z,67.73,-164.55,-1.1,-3.9,260,6,,10.0,29.949802,,,TRUE,TRUE,,,TRUE,,,,BKN,1500,OVC,10000,,,,,MVFR,,,,,,,,,,,,SPECI,6.0
LIBN 010612Z 34007KT 5000 BR SCT006 SCT015 21/20 Q1014 RMK BKN VIS MIN 5000 WIND THR14 33006KT WIND THR32 34007KT WHT,LIBN,2023-06-01T06:12:00Z,40.23,18.13,21.0,20.0,340,7,,3.11,29.940945,,,,,,,,,,BR,SCT,600,SCT,1500,,,,,MVFR,,,,,,,,,,,,METAR,46.0
KDDC 010612Z AUTO 23015G28KT 9SM FEW031 BKN048 19/14 A2992 RMK AO2 PK WND 25028/0602 WSHFT 0552 LTG DSNT S T01940144,KDDC,2023-06-01T06:12:00Z,37.77,-99.97,19.4,14.4,230,15,28,9.0,29.920275,,,TRUE,TRUE,,,,,,,FEW,3100,BKN,4800,,,,,VFR,,,,,,,,,,,,SPECI,786.0
KCNO 010612Z AUTO 28005KT 10SM SCT018 OVC035 16/11 A2993 RMK AO2 T01560111,KCNO,2023-06-01T06:12:00Z,33.98,-117.62,15.6,11.1,280,5,,10.0,29.929134,,,TRUE,TRUE,,,,,,,SCT,1800,OVC,3500,,,,,VFR,,,,,,,,,,,,SPECI,191.0
CYLH 010612Z AUTO 07008KT 9SM OVC005 13/13 A3008 RMK SLP196,CYLH,2023-06-01T06:12:00Z,52.2,-87.93,13.0,13.0,70,8,,9.0,30.079725,1019.6,,TRUE,,,,,,,,OVC,500,,,,,,,IFR,,,,,,,,,,,,SPECI,245.0
KNKX 010611Z 29003KT 10SM BKN016 OVC041 15/12 A2993 RMK AO2 T01500122,KNKX,2023-06-01T06:11:00Z,32.87,-117.13,15.0,12.2,290,3,,10.0,29.929134,,,,TRUE,,,,,,,BKN,1600,OVC,4100,,,,,MVFR,,,,,,,,,,,,SPECI,138.0
KC99 010611Z AUTO 00000KT 10SM SCT065 OVC075 02/00 A3019 RMK AO2,KC99,2023-06-01T06:11:00Z,39.87,-105.55,2.0,0.0,0,0,,10.0,30.188976,,,TRUE,TRUE,,,,,,,SCT,6500,OVC,7500,,,,,VFR,,,,,,,,,,,,METAR,3334.0
CYXS 010611Z AUTO 11003KT 080V170 9SM CLR 02/M01 A2998 RMK SLP184,CYXS,2023-06-01T06:11:00Z,53.88,-122.68,2.0,-1.0,110,3,,9.0,29.97933,1018.4,,TRUE,,,,,,,,CLR,,,,,,,,VFR,,,,,,,,,,,,SPECI,685.0
VCRI 010610Z 26011KT 9999 SCT018 BKN080 32/25 Q1009 NOSIG,VCRI,2023-06-01T06:10:00Z,6.28,81.13,32.0,25.0,260,11,,6.21,29.793306,,,,,,TRUE,,,,,SCT,1800,BKN,8000,,,,,VFR,,,,,,,,,,,,METAR,50.0
VCBI 010610Z 20009KT 170V250 9999 BKN017 31/26 Q1011 NOSIG,VCBI,2023-06-01T06:10:00Z,7.17,79.88,31.0,26.0,200,9,,6.21,29.852362,,,,,,TRUE,,,,,BKN,1700,,,,,,,MVFR,,,,,,,,,,,,METAR,10.0
KXBP 010610Z AUTO 14004KT 10SM CLR 22/18 A2989 RMK AO2 T02210175,KXBP,2023-06-01T06:10:00Z,33.18,-97.83,22.1,17.5,140,4,,10.0,29.890747,,,TRUE,TRUE,,,,,,,CLR,,,,,,,,VFR,,,,,,,,,,,,METAR,256.0
KX26 010610Z AUTO 08005KT 10SM SCT018 SCT027 25/22 A2986 RMK AO2 TSNO T02500224,KX26,2023-06-01T06:10:00Z,27.82,-80.5,25.0,22.4,80,5,,10.0,29.861221,,,TRUE,TRUE,,,TRUE,,,,SCT,1800,SCT,2700,,,,,VFR,,,,,,,,,,,,SPECI,5.0
KVVS 010610Z AUTO 06005KT 10SM CLR 13/06 A3013 RMK AO2 T01330063,KVVS,2023-06-01T06:10:00Z,39.95,-79.65,13.3,6.3,60,5,,10.0,30.129921,,,TRUE,TRUE,,,,,,,CLR,,,,,,,,VFR,,,,,,,,,,,,METAR,386.0
KVES 010610Z AUTO 00000KT 10SM CLR 19/12 A3007 RMK AO2,KVES,2023-06-01T06:10:00Z,40.2,-84.53,19.0,12.0,0,0,,10.0,30.070866,,,TRUE,TRUE,,,,,,,CLR,,,,,,,,VFR,,,,,,,,,,,,METAR,308.0
KU68 010610Z AUTO 30008KT 10SM CLR 15/06 A2981 RMK AO2,KU68,2023-06-01T06:10:00Z,44.92,-108.45,15.0,6.0,300,8,,10.0,29.811024,,,TRUE,TRUE,,,,,,,CLR,,,,,,,,VFR,,,,,,,,,,,,METAR,1244.0
KOLY 010610Z AUTO 00000KT 10SM SCT085 21/16 A3001 RMK AO2 T02120163 PWINO,KOLY,2023-06-01T06:10:00Z,38.72,-88.18,21.2,16.3,0,0,,10.0,30.008858,,,TRUE,TRUE,,,,,TRUE,,SCT,8500,,,,,,,VFR,,,,,,,,,,,,METAR,144.0
KGOP 010610Z AUTO 00000KT 10SM CLR 21/19 A2988 RMK AO2,KGOP,2023-06-01T06:10:00Z,31.42,-97.8,21.0,19.0,0,0,,10.0,29.878937,,,TRUE,TRUE,,,,,,,CLR,,,,,,,,VFR,,,,,,,,,,,,SPECI,272.0
KGNC 010610Z AUTO 05006KT 10SM -DZ SCT001 SCT012 20/17 A2994 RMK AO2 T02020172,KGNC,2023-06-01T06:10:00Z,32.68,-102.65,20.2,17.2,50,6,,10.0,29.940945,,,TRUE,TRUE,,,,,,-DZ,SCT,100,SCT,1200,,,,,VFR,,,,,,,,,,,,SPECI,1002.0
KFSK 010610Z AUTO 13005KT 10SM CLR 21/18 A2994 RMK AO2 T02060185,KFSK,2023-06-01T06:10:00Z,37.8,-94.77,20.6,18.5,130,5,,10.0,29.940945,,,TRUE,TRUE,,,,,,,CLR,,,,,,,,VFR,,,,,,,,,,,,SPECI,276.0
KEAN 010610Z AUTO 00000KT 10SM CLR 13/09 A2993 RMK AO2 T01250091,KEAN,2023-06-01T06:10:00Z,42.05,-104.93,12.5,9.1,0,0,,10.0,29.929134,,,TRUE,TRUE,,,,,,,CLR,,,,,,,,VFR,,,,,,,,,,,,SPECI,1452.0
KDVK 010610Z AUTO 00000KT 10SM SCT065 BKN070 16/15 A3005 RMK AO2,KDVK,2023-06-01T06:10:00Z,37.58,-84.77,16.0,15.0,0,0,,10.0,30.050198,,,TRUE,TRUE,,,,,,,SCT,6500,BKN,7000,,,,,VFR,,,,,,,,,,,,SPECI,309.0
KDED 010610Z AUTO 04006KT 10SM CLR 23/19 A2989 RMK AO2 T02320194,KDED,2023-06-01T06:10:00Z,29.07,-81.28,23.2,19.4,40,6,,10.0,29.890747,,,TRUE,TRUE,,,,,,,CLR,,,,,,,,VFR,,,,,,,,,,,,METAR,21.0
KBMC 010610Z AUTO 34003KT 10SM CLR 18/04 A2981 RMK AO1 T01770037,KBMC,2023-06-01T06:10:00Z,41.55,-112.07,17.7,3.7,340,3,,10.0,29.811024,,,TRUE,TRUE,,,,,,,CLR,,,,,,,,VFR,,,,,,,,,,,,SPECI,1289.0
KANK 010610Z AUTO 18006KT 10SM SCT100 SCT120 12/04 A3011 RMK AO1 T01150039,KANK,2023-06-01T06:10:00Z,38.53,-106.05,11.5,3.9,180,6,,10.0,30.109253,,,TRUE,TRUE,,,,,,,SCT,10000,SCT,12000,,,,,VFR,,,,,,,,,,,,METAR,2293.0
KAAF 010610Z AUTO 05007KT 8SM FEW006 FEW110 22/21 A2988 RMK AO2 T02170211 $,KAAF,2023-06-01T06:10:00Z,29.73,-85.03,21.7,21.1,50,7,,8.0,29.878937,,,TRUE,TRUE,TRUE,,,,,,FEW,600,FEW,11000,,,,,VFR,,,,,,,,,,,,METAR,5.0
K19S 010610Z AUTO 20013G20KT 10SM BKN095 BKN120 17/15 A2994 RMK AO2 T01700152,K19S,2023-06-01T06:10:00Z,37.48,-100.83,17.0,15.2,200,13,20,10.0,29.940945,,,TRUE,TRUE,,,,,,,BKN,9500,BKN,12000,,,,,VFR,,,,,,,,,,,,SPECI,886.0
FJDG 010610Z 13006KT 9999 FEW016 BKN040 OVC080 26/24 A2991 RMK SLP125,FJDG,2023-06-01T06:10:00Z,-7.32,72.42,26.0,24.0,130,6,,6.21,29.911417,1012.5,,,,,,,,,,FEW,1600,BKN,4000,OVC,8000,,,VFR,,,,,,,,,,,,METAR,3.0
KNJM 010609Z AUTO 02005KT 8SM BKN017 19/16 A3001 RMK AO2 T01940156,KNJM,2023-06-01T06:09:00Z,34.68,-77.02,19.4,15.6,20,5,,8.0,30.008858,,,TRUE,TRUE,,,,,,,BKN,1700,,,,,,,MVFR,,,,,,,,,,,,SPECI,5.0
KPIE 010608Z AUTO 10006KT 10SM BKN013 23/22 A2986 RMK AO2 T02280222 $,KPIE,2023-06-01T06:08:00Z,27.92,-82.68,22.8,22.2,100,6,,10.0,29.861221,,,TRUE,TRUE,TRUE,,,,,,BKN,1300,,,,,,,MVFR,,,,,,,,,,,,SPECI,1.0
KMYL 010608Z AUTO 36003KT 10SM BKN004 09/09 A2990 RMK AO2 T00890089,KMYL,2023-06-01T06:08:00Z,44.9,-116.1,8.9,8.9,360,3,,10.0,29.899607,,,TRUE,TRUE,,,,,,,BKN,400,,,,,,,LIFR,,,,,,,,,,,,SPECI,1532.0
CYPY 010608Z AUTO 07007KT 2 1/2SM HZ BKN050 BKN066 BKN078 OVC130 18/07 A2981 RMK SLP101 DENSITY ALT 1400FT,CYPY,2023-06-01T06:08:00Z,58.77,-111.12,18.0,7.0,70,7,,2.5,29.811024,1010.1,,TRUE,,,,,,,HZ,BKN,5000,BKN,6600,BKN,7800,OVC,13000,IFR,,,,,,,,,,,,SPECI,225.0
CYPR 010608Z AUTO 12004KT 9SM FEW035 OVC050 08/07 A3006 RMK SLP181,CYPR,2023-06-01T06:08:00Z,54.28,-130.45,8.0,7.0,120,4,,9.0,30.059055,1018.1,,TRUE,,,,,,,,FEW,3500,OVC,5000,,,,,VFR,,,,,,,,,,,,SPECI,30.0
PARC 010607Z AUTO 4SM UP BKN023 OVC032 01/M02 A2959 RMK AO2 P0000 FZRANO $,PARC,2023-06-01T06:07:00Z,68.12,-145.58,1.0,-2.0,,,,4.0,29.589567,,,TRUE,TRUE,TRUE,,,TRUE,,UP,BKN,2300,OVC,3200,,,,,MVFR,,,,,,0.005,,,,,,METAR,626.0
MPTO 010607Z 19010KT 4000 TSRA FEW006 BKN014CB BKN090 26/25 Q1012 TEMPO 2000 +TSRA,MPTO,2023-06-01T06:07:00Z,9.05,-79.38,26.0,25.0,190,10,,2.49,29.88189,,,,,,,,,,TSRA,FEW,600,BKN,1400,BKN,9000,,,IFR,,,,,,,,,,,,SPECI,7.0
KVLD 010607Z AUTO 07005KT 10SM BKN011 BKN120 21/19 A2996 RMK AO1 T02110194,KVLD,2023-06-01T06:07:00Z,30.78,-83.27,21.1,19.4,70,5,,10.0,29.958662,,,TRUE,TRUE,,,,,,,BKN,1100,BKN,12000,,,,,MVFR,,,,,,,,,,,,METAR,59.0
KCRQ 010607Z AUTO 26003KT 10SM FEW013 BKN024 OVC045 16/13 A2992 RMK AO2 T01610128,KCRQ,2023-06-01T06:07:00Z,33.13,-117.28,16.1,12.8,260,3,,10.0,29.920275,,,TRUE,TRUE,,,,,,,FEW,1300,BKN,2400,OVC,4500,,,MVFR,,,,,,,,,,,,SPECI,96.0
CYIV 010607Z AUTO 09007KT 9SM OVC007 11/10 A3007 RMK SLP192,CYIV,2023-06-01T06:07:00Z,53.85,-94.65,11.0,10.0,90,7,,9.0,30.070866,1019.2,,TRUE,,,,,,,,OVC,700,,,,,,,IFR,,,,,,,,,,,,SPECI,234.0
KODO 010606Z AUTO 12015G22KT 10SM OVC036 24/16 A2986 RMK AO2 LTG DSNT N AND NW T02390156,KODO,2023-06-01T06:06:00Z,31.92,-102.4,23.9,15.6,120,15,22,10.0,29.861221,,,TRUE,TRUE,,,,,,,OVC,3600,,,,,,,VFR,,,,,,,,,,,,METAR,912.0
KNBT 010606Z AUTO 01010KT 10SM OVC014 22/17 A2999 RMK AO2 T02220167,KNBT,2023-06-01T06:06:00Z,35.02,-76.47,22.2,16.7,10,10,,10.0,29.991142,,,TRUE,TRUE,,,,,,,OVC,1400,,,,,,,MVFR,,,,,,,,,,,,SPECI,5.0
KMAF 010606Z AUTO 12011KT 10SM OVC036 23/16 A2987 RMK AO2 LTG DSNT N AND NW T02330156,KMAF,2023-06-01T06:06:00Z,31.95,-102.2,23.3,15.6,120,11,,10.0,29.870079,,,TRUE,TRUE,,,,,,,OVC,3600,,,,,,,VFR,,,,,,,,,,,,METAR,874.0
FAPE 010606Z VRB02KT CAVOK 10/09 Q1017 NOSIG,FAPE,2023-06-01T06:06:00Z,-33.98,25.6,10.0,9.0,0,2,,6.21,30.029528,,,,,,TRUE,,,,,CAVOK,,,,,,,,VFR,,,,,,,,,,,,SPECI,58.0
RJFY 010605Z 07010KT 040V100 5000 -SHRA BR FEW002 BKN015 FEW015TCU 21/20 Q1006 RMK 1ST002 7CU015 1TCU015 A2973 TCU 15KM NE MOV N,RJFY,2023-06-01T06:05:00Z,31.37,130.83,21.0,20.0,70,10,,3.11,29.704725,,,,,,,,,,-SHRA BR,FEW,200,BKN,1500,FEW,1500,,,MVFR,,,,,,,,,,,,METAR,59.0
PACD 010605Z AUTO 29015KT 10SM SCT010 06/03 A3024 RMK AO2 T00560028 TSNO,PACD,2023-06-01T06:05:00Z,55.22,-162.72,5.6,2.8,290,15,,10.0,30.239174,,,TRUE,TRUE,,,TRUE,,,,SCT,1000,,,,,,,VFR,,,,,,,,,,,,SPECI,23.0
KORF 010604Z 04009KT 9SM BKN008 OVC012 18/17 A3004 RMK AO2 T01780172,KORF,2023-06-01T06:04:00Z,36.9,-76.2,17.8,17.2,40,9,,9.0,30.041338,,,,TRUE,,,,,,,BKN,800,OVC,1200,,,,,IFR,,,,,,,,,,,,SPECI,5.0
CYDN 010604Z AUTO VRB02KT 9SM BKN023 BKN071 14/14 A2992 RMK SLP139 DENSITY ALT 1200FT,CYDN,2023-06-01T06:04:00Z,51.1,-100.05,14.0,14.0,0,2,,9.0,29.920275,1013.9,,TRUE,,,,,,,,BKN,2300,BKN,7100,,,,,MVFR,,,,,,,,,,,,SPECI,302.0
PADE 010603Z AUTO 06004KT 10SM SCT006 OVC080 M02/M03 A2995 RMK AO2 T10171028 TSNO,PADE,2023-06-01T06:03:00Z,66.07,-162.77,-1.7,-2.8,60,4,,10.0,29.949802,,,TRUE,TRUE,,,TRUE,,,,SCT,600,OVC,8000,,,,,VFR,,,,,,,,,,,,METAR,5.0
KAVX 010603Z AUTO 17003KT 9SM FEW003 OVC014 11/10 A2993 RMK AO2 T01110100,KAVX,2023-06-01T06:03:00Z,33.4,-118.42,11.1,10.0,170,3,,9.0,29.929134,,,TRUE,TRUE,,,,,,,FEW,300,OVC,1400,,,,,MVFR,,,,,,,,,,,,METAR,482.0
PAHX 010602Z AUTO 33004KT 10SM SCT090 BKN110 08/M07 A2999 RMK AO2 SLP158 T00831072 10100 20083 51007,PAHX,2023-06-01T06:02:00Z,62.7,-159.57,8.3,-7.2,330,4,,10.0,29.991142,1015.8,,TRUE,TRUE,,,,,,,SCT,9000,BKN,11000,,,,,VFR,0.7,10.0,8.3,,,,,,,,,METAR,20.0
KNSI 010602Z AUTO 32009KT 10SM OVC013 13/11 A2993 RMK AO2 T01330106 $,KNSI,2023-06-01T06:02:00Z,33.23,-119.45,13.3,10.6,320,9,,10.0,29.929134,,,TRUE,TRUE,TRUE,,,,,,OVC,1300,,,,,,,MVFR,,,,,,,,,,,,SPECI,161.0
KHSE 010602Z AUTO 02007G15KT 350V070 1 1/4SM BR OVC002 18/18 A2998 RMK AO2 T01780178 $,KHSE,2023-06-01T06:02:00Z,35.23,-75.62,17.8,17.8,20,7,15,1.25,29.97933,,,TRUE,TRUE,TRUE,,,,,BR,OVC,200,,,,,,,LIFR,,,,,,,,,,,,METAR,4.0
SBPS 010601Z 22004KT 9999 BKN005 22/21 Q1017,SBPS,2023-06-01T06:01:00Z,-16.43,-39.07,22.0,21.0,220,4,,6.21,30.029528,,,,,,,,,,,BKN,500,,,,,,,IFR,,,,,,,,,,,,SPECI,44.0
RJOI 0601 DH0600/PPH 0.00,RJOI,2023-06-01T06:01:00Z,34.13,132.23,,,,,,,,,,,,,,,,,,,,,,,,,,,,,,,,,,,,,,SPECI,2.0
PAFS 010601Z AUTO 27004KT 10SM BKN060 09/M03 A2991 RMK AO2 SLP134 T00891033 10111 20089 53009,PAFS,2023-06-01T06:01:00Z,63.02,-154.35,8.9,-3.3,270,4,,10.0,29.911417,1013.4,,TRUE,TRUE,,,,,,,BKN,6000,,,,,,,VFR,0.9,11.1,8.9,,,,,,,,,METAR,131.0
ZYHB 010600Z 01005MPS 9999 SCT023 19/13 Q1000 NOSIG,ZYHB,2023-06-01T06:00:00Z,45.62,126.25,19.0,13.0,10,10,,6.21,29.52756,,,,,,TRUE,,,,,SCT,2300,,,,,,,VFR,,,,,,,,,,,,METAR,134.0
ZYCC 010600Z 36005G10MPS 310V090 9999 FEW030TCU BKN030 24/12 Q0998 NOSIG,ZYCC,2023-06-01T06:00:00Z,43.98,125.68,24.0,12.0,360,10,19,6.21,29.468504,,,,,,TRUE,,,,,FEW,3000,BKN,3000,,,,,MVFR,,,,,,,,,,,,METAR,211.0
ZWSH 010600Z 17003MPS 120V220 9999 BKN040 25/01 Q1012 NOSIG,ZWSH,2023-06-01T06:00:00Z,39.55,76.02,25.0,1.0,170,6,,6.21,29.88189,,,,,,TRUE,,,,,BKN,4000,,,,,,,VFR,,,,,,,,,,,,METAR,1374.0
ZUUU 010600Z 09005MPS 9999 FEW026 29/14 Q1006 NOSIG,ZUUU,2023-06-01T06:00:00Z,30.58,103.95,29.0,14.0,90,10,,6.21,29.704725,,,,,,TRUE,,,,,FEW,2600,,,,,,,VFR,,,,,,,,,,,,METAR,494.0
ZUTF 010600Z 07002MPS 030V110 9999 BKN050 26/17 Q1006 NOSIG,ZUTF,2023-06-01T06:00:00Z,30.3,104.43,26.0,17.0,70,4,,6.21,29.704725,,,,,,TRUE,,,,,BKN,5000,,,,,,,VFR,,,,,,,,,,,,METAR,443.0
ZUGY 010600Z 05003MPS 9999 FEW005 SCT016 OVC040 21/20 Q1009 NOSIG,ZUGY,2023-06-01T06:00:00Z,26.53,106.8,21.0,20.0,50,6,,6.21,29.793306,,,,,,TRUE,,,,,FEW,500,SCT,1600,OVC,4000,,,VFR,,,,,,,,,,,,METAR,1130.0
ZUCK 010600Z 23002MPS 170V310 9999 FEW003 SCT011 OVC040 23/21 Q1006 NOSIG,ZUCK,2023-06-01T06:00:00Z,29.72,106.63,23.0,21.0,230,4,,6.21,29.704725,,,,,,TRUE,,,,,FEW,300,SCT,1100,OVC,4000,,,VFR,,,,,,,,,,,,METAR,416.0
ZSQD 010600Z 17004MPS 140V200 CAVOK 27/19 Q1003 NOSIG,ZSQD,2023-06-01T06:00:00Z,36.27,120.38,27.0,19.0,170,8,,6.21,29.616142,,,,,,TRUE,,,,,CAVOK,,,,,,,,VFR,,,,,,,,,,,,METAR,8.0
ZSOF 010600Z 01003MPS 310V090 CAVOK 31/15 Q1005 NOSIG,ZSOF,2023-06-01T06:00:00Z,31.98,116.97,31.0,15.0,10,6,,6.21,29.675198,,,,,,TRUE,,,,,CAVOK,,,,,,,,VFR,,,,,,,,,,,,METAR,23.0
ZSNJ 010600Z VRB02MPS 9999 BKN040 30/20 Q1004 NOSIG,ZSNJ,2023-06-01T06:00:00Z,31.75,118.87,30.0,20.0,0,4,,6.21,29.64567,,,,,,TRUE,,,,,BKN,4000,,,,,,,VFR,,,,,,,,,,,,METAR,27.0
ZSNB 010600Z 36002MPS 320V040 6000 SCT006 BKN016 25/24 Q1003 NOSIG,ZSNB,2023-06-01T06:00:00Z,29.83,121.47,25.0,24.0,360,4,,3.73,29.616142,,,,,,TRUE,,,,,SCT,600,BKN,1600,,,,,MVFR,,,,,,,,,,,,METAR,5.0
ZSFZ 010600Z 10005MPS 060V130 9999 FEW023 FEW023TCU 32/23 Q1000 NOSIG,ZSFZ,2023-06-01T06:00:00Z,25.93,119.67,32.0,23.0,100,10,,6.21,29.52756,,,,,,TRUE,,,,,FEW,2300,FEW,2300,,,,,VFR,,,,,,,,,,,,METAR,14.0
ZSAM 010600Z 16005MPS 9999 FEW026CB SCT026 34/25 Q1000 NOSIG,ZSAM,2023-06-01T06:00:00Z,24.53,118.13,34.0,25.0,160,10,,6.21,29.52756,,,,,,TRUE,,,,,FEW,2600,SCT,2600,,,,,VFR,,,,,,,,,,,,METAR,13.0
ZPPP 010600Z VRB07MPS 9999 SCT026 30/10 Q1014 NOSIG,ZPPP,2023-06-01T06:00:00Z,25.0,102.65,30.0,10.0,0,14,,6.21,29.940945,,,,,,TRUE,,,,,SCT,2600,,,,,,,VFR,,,,,,,,,,,,METAR,1885.0
ZMUB 010600Z 34007MPS 9999 FEW030CB SCT033 15/04 Q1014 NOSIG RMK QFE653.5 47 MOP,ZMUB,2023-06-01T06:00:00Z,47.83,106.75,15.0,4.0,340,14,,6.21,29.940945,,,,,,TRUE,,,,,FEW,3000,SCT,3300,,,,,VFR,,,,,,,,,,,,METAR,1300.0
ZLXY 010600Z VRB01MPS 9999 FEW050 26/16 Q1010 NOSIG,ZLXY,2023-06-01T06:00:00Z,34.43,108.75,26.0,16.0,0,2,,6.21,29.822834,,,,,,TRUE,,,,,FEW,5000,,,,,,,VFR,,,,,,,,,,,,METAR,478.0
ZLLL 010600Z 06004MPS 010V090 CAVOK 19/00 Q1017 NOSIG,ZLLL,2023-06-01T06:00:00Z,36.52,103.62,19.0,0.0,60,8,,6.21,30.029528,,,,,,TRUE,,,,,CAVOK,,,,,,,,VFR,,,,,,,,,,,,METAR,1939.0
ZJSY 010600Z 21003MPS 160V260 9999 SCT020 33/27 Q1003 NOSIG,ZJSY,2023-06-01T06:00:00Z,18.3,109.42,33.0,27.0,210,6,,6.21,29.616142,,,,,,TRUE,,,,,SCT,2000,,,,,,,VFR,,,,,,,,,,,,METAR,27.0
ZJHK 010600Z VRB02MPS 9999 FEW020 36/21 Q1002 NOSIG,ZJHK,2023-06-01T06:00:00Z,19.93,110.43,36.0,21.0,0,4,,6.21,29.586615,,,,,,TRUE,,,,,FEW,2000,,,,,,,VFR,,,,,,,,,,,,METAR,21.0
ZHHH 010600Z 03003MPS 340V080 9999 SCT033 32/19 Q1004 NOSIG,ZHHH,2023-06-01T06:00:00Z,30.78,114.22,32.0,19.0,30,6,,6.21,29.64567,,,,,,TRUE,,,,,SCT,3300,,,,,,,VFR,,,,,,,,,,,,METAR,33.0
ZHCC 010600Z 31004MPS 270V340 CAVOK 32/15 Q1005 NOSIG,ZHCC,2023-06-01T06:00:00Z,34.52,113.83,32.0,15.0,310,8,,6.21,29.675198,,,,,,TRUE,,,,,CAVOK,,,,,,,,VFR,,,,,,,,,,,,METAR,149.0
ZGSZ 010600Z 23002MPS 200V270 9999 FEW015 30/25 Q1002 NOSIG,ZGSZ,2023-06-01T06:00:00Z,22.63,113.8,30.0,25.0,230,4,,6.21,29.586615,,,,,,TRUE,,,,,FEW,1500,,,,,,,VFR,,,,,,,,,,,,METAR,18.0
ZGOW 010600Z 23003MPS 180V260 9999 FEW030TCU SCT030 35/26 Q1001 NOSIG,ZGOW,2023-06-01T06:00:00Z,23.55,116.5,35.0,26.0,230,6,,6.21,29.557087,,,,,,TRUE,,,,,FEW,3000,SCT,3000,,,,,VFR,,,,,,,,,,,,METAR,4.0
ZGNN 010600Z 09004MPS 060V130 CAVOK 36/21 Q1001 NOSIG,ZGNN,2023-06-01T06:00:00Z,22.62,108.17,36.0,21.0,90,8,,6.21,29.557087,,,,,,TRUE,,,,,CAVOK,,,,,,,,VFR,,,,,,,,,,,,METAR,128.0
ZGKL 010600Z VRB02MPS 9999 FEW030 35/26 Q1003 NOSIG,ZGKL,2023-06-01T06:00:00Z,25.22,110.03,35.0,26.0,0,4,,6.21,29.616142,,,,,,TRUE,,,,,FEW,3000,,,,,,,VFR,,,,,,,,,,,,METAR,151.0
ZGHA 010600Z 32003MPS 260V040 9999 SCT023 30/23 Q1005 NOSIG,ZGHA,2023-06-01T06:00:00Z,28.18,113.22,30.0,23.0,320,6,,6.21,29.675198,,,,,,TRUE,,,,,SCT,2300,,,,,,,VFR,,,,,,,,,,,,METAR,61.0
ZBSJ 010600Z 22006MPS 190V250 9999 FEW040 34/13 Q1000 NOSIG,ZBSJ,2023-06-01T06:00:00Z,38.28,114.7,34.0,13.0,220,12,,6.21,29.52756,,,,,,TRUE,,,,,FEW,4000,,,,,,,VFR,,,,,,,,,,,,METAR,70.0
ZBHH 010600Z 31011G16MPS 270V350 9999 FEW040 24/M04 Q1008 NOSIG,ZBHH,2023-06-01T06:00:00Z,40.85,111.82,24.0,-4.0,310,21,31,6.21,29.763779,,,,,,TRUE,,,,,FEW,4000,,,,,,,VFR,,,,,,,,,,,,METAR,1081.0
YPEA 010600Z 19012KT 9999 SCT030 19/09 Q1018,YPEA,2023-06-01T06:00:00Z,-31.67,116.02,19.0,9.0,190,12,,6.21,30.059055,,,,,,,,,,,SCT,3000,,,,,,,VFR,,,,,,,,,,,,METAR,38.0
YBTL 010600Z 06011KT 9999 FEW035 26/18 Q1016,YBTL,2023-06-01T06:00:00Z,-19.25,146.75,26.0,18.0,60,11,,6.21,30.0,,,,,,,,,,,FEW,3500,,,,,,,VFR,,,,,,,,,,,,METAR,4.0
WSAP 010600Z 18006KT 9000 -RA FEW014 BKN150 26/23 Q1010,WSAP,2023-06-01T06:00:00Z,1.37,103.92,26.0,23.0,180,6,,5.59,29.822834,,,,,,,,,,-RA,FEW,1400,BKN,15000,,,,,VFR,,,,,,,,,,,,METAR,20.0
WMSA 010600Z 18007KT 140V210 9999 FEW017CB 33/25 Q1009,WMSA,2023-06-01T06:00:00Z,3.13,101.55,33.0,25.0,180,7,,6.21,29.793306,,,,,,,,,,,FEW,1700,,,,,,,VFR,,,,,,,,,,,,METAR,19.0
WMKN 010600Z VRB04KT 9999 FEW020 31/27 Q1008,WMKN,2023-06-01T06:00:00Z,5.37,103.1,31.0,27.0,0,4,,6.21,29.763779,,,,,,,,,,,FEW,2000,,,,,,,VFR,,,,,,,,,,,,METAR,12.0
WMKM 010600Z 18005KT 110V250 9999 SCT021 30/26 Q1010,WMKM,2023-06-01T06:00:00Z,2.27,102.25,30.0,26.0,180,5,,6.21,29.822834,,,,,,,,,,,SCT,2100,,,,,,,VFR,,,,,,,,,,,,METAR,9.0
WMKL 010600Z VRB06KT 9999 FEW017CB 32/26 Q1009,WMKL,2023-06-01T06:00:00Z,6.32,99.72,32.0,26.0,0,6,,6.21,29.793306,,,,,,,,,,,FEW,1700,,,,,,,VFR,,,,,,,,,,,,METAR,4.0
WMKJ 010600Z VRB02KT 8000 -RA FEW012 26/24 Q1010,WMKJ,2023-06-01T06:00:00Z,1.63,103.67,26.0,24.0,0,2,,4.97,29.822834,,,,,,,,,,-RA,FEW,1200,,,,,,,MVFR,,,,,,,,,,,,METAR,38.0
WMKI 010600Z 33003KT 270V050 9999 FEW020 33/24 Q1008,WMKI,2023-06-01T06:00:00Z,4.57,101.08,33.0,24.0,330,3,,6.21,29.763779,,,,,,,,,,,FEW,2000,,,,,,,VFR,,,,,,,,,,,,METAR,37.0
WMKE 010600Z VRB07KT 9999 SCT017 32/27 Q1008,WMKE,2023-06-01T06:00:00Z,4.53,103.43,32.0,27.0,0,7,,6.21,29.763779,,,,,,,,,,,SCT,1700,,,,,,,VFR,,,,,,,,,,,,METAR,5.0
WMKD 010600Z 19006KT 110V270 9999 FEW020 34/24 Q1008 NOSIG,WMKD,2023-06-01T06:00:00Z,3.77,103.22,34.0,24.0,190,6,,6.21,29.763779,,,,,,TRUE,,,,,FEW,2000,,,,,,,VFR,,,,,,,,,,,,METAR,18.0
WMKC 010600Z 01006KT 320V070 9999 SCT018 32/27 Q1008,WMKC,2023-06-01T06:00:00Z,6.17,102.28,32.0,27.0,10,6,,6.21,29.763779,,,,,,,,,,,SCT,1800,,,,,,,VFR,,,,,,,,,,,,METAR,7.0
WMKB 010600Z 31007KT 260V360 9999 FEW017CB SCT020 34/25 Q1009 NOSIG,WMKB,2023-06-01T06:00:00Z,5.47,100.38,34.0,25.0,310,7,,6.21,29.793306,,,,,,TRUE,,,,,FEW,1700,SCT,2000,,,,,VFR,,,,,,,,,,,,METAR,4.0
WMKA 010600Z 26007KT 190V300 9999 FEW020 32/26 Q1008,WMKA,2023-06-01T06:00:00Z,6.2,100.4,32.0,26.0,260,7,,6.21,29.763779,,,,,,,,,,,FEW,2000,,,,,,,VFR,,,,,,,,,,,,METAR,5.0
WMBA 010600Z 28006KT 220V330 9999 FEW017CB SCT020 32/25 Q1008,WMBA,2023-06-01T06:00:00Z,4.22,100.7,32.0,25.0,280,6,,6.21,29.763779,,,,,,,,,,,FEW,1700,SCT,2000,,,,,VFR,,,,,,,,,,,,METAR,9.0
WMAU 010600Z VRB09KT 9999 SCT020 34/24 Q1009,WMAU,2023-06-01T06:00:00Z,2.38,103.88,34.0,24.0,0,9,,6.21,29.793306,,,,,,,,,,,SCT,2000,,,,,,,VFR,,,,,,,,,,,,METAR,5.0
WIPP 010600Z 16007KT 9999 BKN010 33/24 Q1009 NOSIG,WIPP,2023-06-01T06:00:00Z,-2.88,104.7,33.0,24.0,160,7,,6.21,29.793306,,,,,,TRUE,,,,,BKN,1000,,,,,,,MVFR,,,,,,,,,,,,METAR,7.0
WIOO 010600Z 18008KT 9999 BKN012 33/25 Q1007 NOSIG,WIOO,2023-06-01T06:00:00Z,-0.15,109.4,33.0,25.0,180,8,,6.21,29.734253,,,,,,TRUE,,,,,BKN,1200,,,,,,,MVFR,,,,,,,,,,,,METAR,4.0
WIMM 010600Z 02010KT 9999 SCT017 32/25 Q1009 NOSIG,WIMM,2023-06-01T06:00:00Z,3.57,98.67,32.0,25.0,20,10,,6.21,29.793306,,,,,,TRUE,,,,,SCT,1700,,,,,,,VFR,,,,,,,,,,,,METAR,27.0
WILL 010600Z 05004KT 9999 SCT015 32/24 Q1009 NOSIG,WILL,2023-06-01T06:00:00Z,-5.25,105.18,32.0,24.0,50,4,,6.21,29.793306,,,,,,TRUE,,,,,SCT,1500,,,,,,,VFR,,,,,,,,,,,,METAR,83.0
WIHH 010600Z 36005KT 5000 HZ SCT020 33/23 Q1008 NOSIG METAR ,WIHH,2023-06-01T06:00:00Z,-6.27,106.88,33.0,23.0,360,5,,3.11,29.763779,,,,,,TRUE,,,,HZ,SCT,2000,,,,,,,MVFR,,,,,,,,,,,,SPECI,26.0
WIEE 010600Z VRB02KT 9999 FEW020 SCT120 28/24 Q1010 NOSIG,WIEE,2023-06-01T06:00:00Z,-0.78,100.28,28.0,24.0,0,2,,6.21,29.822834,,,,,,TRUE,,,,,FEW,2000,SCT,12000,,,,,VFR,,,,,,,,,,,,METAR,5.0
WIDN 010600Z 22004KT 6000 -TSRA FEW015CB BKN015 25/24 Q1011 RMK CB TO SE,WIDN,2023-06-01T06:00:00Z,0.92,104.53,25.0,24.0,220,4,,3.73,29.852362,,,,,,,,,,-TSRA,FEW,1500,BKN,1500,,,,,MVFR,,,,,,,,,,,,METAR,18.0
WIDD 010600Z 24007KT 9000 -RA FEW014 24/23 Q1012 NOSIG,WIDD,2023-06-01T06:00:00Z,1.12,104.12,24.0,23.0,240,7,,5.59,29.88189,,,,,,TRUE,,,,-RA,FEW,1400,,,,,,,VFR,,,,,,,,,,,,METAR,26.0
WBKW 010600Z 17006KT 100V250 9999 FEW017 32/27 Q1007,WBKW,2023-06-01T06:00:00Z,4.32,118.12,32.0,27.0,170,6,,6.21,29.734253,,,,,,,,,,,FEW,1700,,,,,,,VFR,,,,,,,,,,,,METAR,17.0
WBKT 010600Z 26010KT 210V320 9999 FEW015 34/26 Q1007,WBKT,2023-06-01T06:00:00Z,6.92,116.83,34.0,26.0,260,10,,6.21,29.734253,,,,,,,,,,,FEW,1500,,,,,,,VFR,,,,,,,,,,,,METAR,11.0
WBKS 010600Z 17005KT 090V260 9999 SCT016 35/25 Q1006,WBKS,2023-06-01T06:00:00Z,5.9,118.07,35.0,25.0,170,5,,6.21,29.704725,,,,,,,,,,,SCT,1600,,,,,,,VFR,,,,,,,,,,,,METAR,13.0
WBKL 010600Z VRB03KT 9999 FEW016 33/24 Q1007,WBKL,2023-06-01T06:00:00Z,5.3,115.25,33.0,24.0,0,3,,6.21,29.734253,,,,,,,,,,,FEW,1600,,,,,,,VFR,,,,,,,,,,,,METAR,29.0
WBGY 010600Z VRB02KT 9999 SCT022 32/27 Q1007,WBGY,2023-06-01T06:00:00Z,1.22,111.45,32.0,27.0,0,2,,6.21,29.734253,,,,,,,,,,,SCT,2200,,,,,,,VFR,,,,,,,,,,,,METAR,13.0
WBGS 010600Z VRB02KT 9999 FEW015CB SCT016 34/25 Q1008,WBGS,2023-06-01T06:00:00Z,2.27,111.98,34.0,25.0,0,2,,6.21,29.763779,,,,,,,,,,,FEW,1500,SCT,1600,,,,,VFR,,,,,,,,,,,,METAR,26.0
WBGR 010600Z 29007KT 190V350 9999 SCT016 33/28 Q1007,WBGR,2023-06-01T06:00:00Z,4.32,113.98,33.0,28.0,290,7,,6.21,29.734253,,,,,,,,,,,SCT,1600,,,,,,,VFR,,,,,,,,,,,,METAR,18.0
WBGB 010600Z 00000KT 9999 FEW015CB SCT016 31/27 Q1008,WBGB,2023-06-01T06:00:00Z,3.12,113.02,31.0,27.0,0,0,,6.21,29.763779,,,,,,,,,,,FEW,1500,SCT,1600,,,,,VFR,,,,,,,,,,,,METAR,34.0
WAYY 010600Z 23005KT 4000 VCSH BKN008 SCT010CB 27/27 Q1010 NOSIG RMK CB TO S,WAYY,2023-06-01T06:00:00Z,-4.53,136.88,27.0,27.0,230,5,,2.49,29.822834,,,,,,TRUE,,,,VCSH,BKN,800,SCT,1000,,,,,IFR,,,,,,,,,,,,METAR,32.0
WATT 010600Z 10013KT 9999 SCT017 30/22 Q1011 NOSIG,WATT,2023-06-01T06:00:00Z,-10.17,123.67,30.0,22.0,100,13,,6.21,29.852362,,,,,,TRUE,,,,,SCT,1700,,,,,,,VFR,,,,,,,,,,,,METAR,104.0
WAQQ 010600Z 19004KT 9999 SCT015 33/26 Q1007 NOSIG,WAQQ,2023-06-01T06:00:00Z,3.33,117.57,33.0,26.0,190,4,,6.21,29.734253,,,,,,TRUE,,,,,SCT,1500,,,,,,,VFR,,,,,,,,,,,,METAR,6.0
WAPP 010600Z VRB02KT 7000 TS FEW015CB SCT016 30/26 Q1008 RERA NOSIG RMK CB TO SW,WAPP,2023-06-01T06:00:00Z,-3.7,128.08,30.0,26.0,0,2,,4.35,29.763779,,,,,,TRUE,,,,TS,FEW,1500,SCT,1600,,,,,MVFR,,,,,,,,,,,,METAR,20.0
WAOO 010600Z 12006KT 9999 SCT018 34/23 Q1007 NOSIG,WAOO,2023-06-01T06:00:00Z,-3.45,114.77,34.0,23.0,120,6,,6.21,29.734253,,,,,,TRUE,,,,,SCT,1800,,,,,,,VFR,,,,,,,,,,,,METAR,23.0
WALL 010600Z 21006KT 9999 SCT018 31/28 Q1008 NOSIG,WALL,2023-06-01T06:00:00Z,-1.27,116.9,31.0,28.0,210,6,,6.21,29.763779,,,,,,TRUE,,,,,SCT,1800,,,,,,,VFR,,,,,,,,,,,,METAR,3.0
WAHS 010600Z 07008KT 7000 FEW014 33/22 Q1008 NOSIG,WAHS,2023-06-01T06:00:00Z,-6.98,110.38,33.0,22.0,70,8,,4.35,29.763779,,,,,,TRUE,,,,,FEW,1400,,,,,,,MVFR,,,,,,,,,,,,METAR,3.0
WADD 010600Z 13011KT 9999 FEW017 30/25 Q1009 NOSIG,WADD,2023-06-01T06:00:00Z,-8.73,115.17,30.0,25.0,130,11,,6.21,29.793306,,,,,,TRUE,,,,,FEW,1700,,,,,,,VFR,,,,,,,,,,,,METAR,3.0
WABB 010600Z 28005KT 100V280 9000 -TSRA FEW017CB SCT018 BKN100 26/25 Q1008 NOSIG RMK CB AT NW,WABB,2023-06-01T06:00:00Z,-1.18,136.12,26.0,25.0,280,5,,5.59,29.763779,,,,,,TRUE,,,,-TSRA,FEW,1700,SCT,1800,BKN,10000,,,VFR,,,,,,,,,,,,SPECI,12.0
WAAA 010600Z 26005KT 210V300 9999 FEW019 33/22 Q1007 NOSIG,WAAA,2023-06-01T06:00:00Z,-5.07,119.55,33.0,22.0,260,5,,6.21,29.734253,,,,,,TRUE,,,,,FEW,1900,,,,,,,VFR,,,,,,,,,,,,METAR,13.0
VYNT 010600Z 22010KT 7000 SCT020 FEW024TCU SCT120 34/24 Q1006 NOSIG,VYNT,2023-06-01T06:00:00Z,19.62,96.2,34.0,24.0,220,10,,4.35,29.704725,,,,,,TRUE,,,,,SCT,2000,FEW,2400,SCT,12000,,,MVFR,,,,,,,,,,,,METAR,610.0
VTUW 010600Z VRB03KT 9999 BKN040 36/25 Q1003 NOSIG,VTUW,2023-06-01T06:00:00Z,17.38,104.63,36.0,25.0,0,3,,6.21,29.616142,,,,,,TRUE,,,,,BKN,4000,,,,,,,VFR,,,,,,,,,,,,METAR,167.0
VTUV 010600Z 21006KT 160V250 9999 SCT030 34/25 Q1004 NOSIG,VTUV,2023-06-01T06:00:00Z,16.12,103.78,34.0,25.0,210,6,,6.21,29.64567,,,,,,TRUE,,,,,SCT,3000,,,,,,,VFR,,,,,,,,,,,,METAR,136.0
VTUU 010600Z VRB03KT 9999 SCT035 35/27 Q1004 NOSIG,VTUU,2023-06-01T06:00:00Z,15.25,104.87,35.0,27.0,0,3,,6.21,29.64567,,,,,,TRUE,,,,,SCT,3500,,,,,,,VFR,,,,,,,,,,,,METAR,119.0
VTUQ 010600Z VRB05KT 9999 BKN030 35/24 Q1005 NOSIG,VTUQ,2023-06-01T06:00:00Z,14.95,102.32,35.0,24.0,0,5,,6.21,29.675198,,,,,,TRUE,,,,,BKN,3000,,,,,,,MVFR,,,,,,,,,,,,METAR,225.0
VTUO 010600Z 25006KT 200V290 9999 SCT030 34/24 Q1005 NOSIG,VTUO,2023-06-01T06:00:00Z,15.23,103.25,34.0,24.0,250,6,,6.21,29.675198,,,,,,TRUE,,,,,SCT,3000,,,,,,,VFR,,,,,,,,,,,,METAR,182.0
VTUL 010600Z 26006KT 200V310 9999 BKN030 38/24 Q1004 NOSIG,VTUL,2023-06-01T06:00:00Z,17.43,101.72,38.0,24.0,260,6,,6.21,29.64567,,,,,,TRUE,,,,,BKN,3000,,,,,,,MVFR,,,,,,,,,,,,METAR,257.0
VTUK 010600Z VRB03KT 9999 SCT030 36/24 Q1004 NOSIG,VTUK,2023-06-01T06:00:00Z,16.47,102.78,36.0,24.0,0,3,,6.21,29.64567,,,,,,TRUE,,,,,SCT,3000,,,,,,,VFR,,,,,,,,,,,,METAR,190.0
VTUI 010600Z 10005KT 050V130 9999 VCSH FEW020CB SCT040 36/24 Q1003 NOSIG,VTUI,2023-06-01T06:00:00Z,17.2,104.12,36.0,24.0,100,5,,6.21,29.616142,,,,,,TRUE,,,,VCSH,FEW,2000,SCT,4000,,,,,VFR,,,,,,,,,,,,METAR,162.0
VTUD 010600Z 09003KT 020V140 9999 SCT035 38/23 Q1003 NOSIG,VTUD,2023-06-01T06:00:00Z,17.37,102.78,38.0,23.0,90,3,,6.21,29.616142,,,,,,TRUE,,,,,SCT,3500,,,,,,,VFR,,,,,,,,,,,,METAR,177.0
VTSY 010600Z 27007KT 220V330 9999 SCT030 SCT050 31/22 Q1010 NOSIG,VTSY,2023-06-01T06:00:00Z,5.78,101.15,31.0,22.0,270,7,,6.21,29.822834,,,,,,TRUE,,,,,SCT,3000,SCT,5000,,,,,VFR,,,,,,,,,,,,METAR,225.0
VTST 010600Z 23006KT 190V270 9999 SCT030 32/25 Q1008 NOSIG,VTST,2023-06-01T06:00:00Z,7.52,99.62,32.0,25.0,230,6,,6.21,29.763779,,,,,,TRUE,,,,,SCT,3000,,,,,,,VFR,,,,,,,,,,,,METAR,17.0
VTSR 010600Z 21012KT 4000 RA FEW018 BKN020 30/26 Q1008 BECMG TL0610 6000 NSW,VTSR,2023-06-01T06:00:00Z,9.78,98.58,30.0,26.0,210,12,,2.49,29.763779,,,,,,,,,,RA,FEW,1800,BKN,2000,,,,,IFR,,,,,,,,,,,,METAR,23.0
VTSM 010600Z 26007KT 240V300 9999 FEW020 34/24 Q1008 NOSIG,VTSM,2023-06-01T06:00:00Z,9.55,100.07,34.0,24.0,260,7,,6.21,29.763779,,,,,,TRUE,,,,,FEW,2000,,,,,,,VFR,,,,,,,,,,,,METAR,12.0
VTSG 010600Z 25005KT 210V310 9999 -TSRA SCT018CB BKN020 28/26 Q1009 TEMPO FM0615 TL0645 3000 TSRA,VTSG,2023-06-01T06:00:00Z,8.1,98.98,28.0,26.0,250,5,,6.21,29.793306,,,,,,,,,,-TSRA,SCT,1800,BKN,2000,,,,,MVFR,,,,,,,,,,,,METAR,32.0
VTSF 010600Z 15003KT 060V240 8000 -RA SCT018 28/27 Q1008 RERA NOSIG,VTSF,2023-06-01T06:00:00Z,8.53,99.95,28.0,27.0,150,3,,4.97,29.763779,,,,,,TRUE,,,,-RA,SCT,1800,,,,,,,MVFR,,,,,,,,,,,,METAR,6.0
VTSE 010600Z 27007KT 230V310 9000 VCSH FEW016CB SCT080 30/26 Q1007 RETS NOSIG,VTSE,2023-06-01T06:00:00Z,10.72,99.37,30.0,26.0,270,7,,5.59,29.734253,,,,,,TRUE,,,,VCSH,FEW,1600,SCT,8000,,,,,VFR,,,,,,,,,,,,METAR,8.0
VTSC 010600Z 07007KT 020V100 9999 FEW022 32/26 Q1008 NOSIG,VTSC,2023-06-01T06:00:00Z,6.52,101.75,32.0,26.0,70,7,,6.21,29.763779,,,,,,TRUE,,,,,FEW,2200,,,,,,,VFR,,,,,,,,,,,,METAR,5.0
VTSB 010600Z 16005KT 9999 -RA FEW018CB SCT020 25/25 Q1008 RETSRA NOSIG,VTSB,2023-06-01T06:00:00Z,9.12,99.15,25.0,25.0,160,5,,6.21,29.763779,,,,,,TRUE,,,,-RA,FEW,1800,SCT,2000,,,,,VFR,,,,,,,,,,,,METAR,10.0
VTPT 010600Z /////KT 9999 FEW026 35/24 Q1005 NOSIG,VTPT,2023-06-01T06:00:00Z,16.88,99.25,35.0,24.0,,,,6.21,29.675198,,,,,,TRUE,,,,,FEW,2600,,,,,,,VFR,,,,,,,,,,,,METAR,148.0
VTPP 010600Z 22006KT 170V280 9999 SCT040 36/23 Q1004 NOSIG,VTPP,2023-06-01T06:00:00Z,16.78,100.28,36.0,23.0,220,6,,6.21,29.64567,,,,,,TRUE,,,,,SCT,4000,,,,,,,VFR,,,,,,,,,,,,METAR,45.0
VTPO 010600Z 28004KT 9999 FEW022 37/23 Q1003 NOSIG,VTPO,2023-06-01T06:00:00Z,17.23,99.82,37.0,23.0,280,4,,6.21,29.616142,,,,,,TRUE,,,,,FEW,2200,,,,,,,VFR,,,,,,,,,,,,METAR,58.0
VTPM 010600Z 24013KT 9999 SCT035 32/23 Q1007 NOSIG,VTPM,2023-06-01T06:00:00Z,16.7,98.53,32.0,23.0,240,13,,6.21,29.734253,,,,,,TRUE,,,,,SCT,3500,,,,,,,VFR,,,,,,,,,,,,METAR,211.0
VTPH 010600Z 13011KT 9999 FEW030 34/25 Q1005 NOSIG,VTPH,2023-06-01T06:00:00Z,12.63,99.95,34.0,25.0,130,11,,6.21,29.675198,,,,,,TRUE,,,,,FEW,3000,,,,,,,VFR,,,,,,,,,,,,METAR,12.0
VTPB 010600Z 00000KT 9999 SCT030 35/26 Q1004 NOSIG,VTPB,2023-06-01T06:00:00Z,16.67,101.2,35.0,26.0,0,0,,6.21,29.64567,,,,,,TRUE,,,,,SCT,3000,,,,,,,VFR,,,,,,,,,,,,METAR,134.0
VTCT 010600Z VRB03KT 9999 BKN025 36/24 Q1004 NOSIG,VTCT,2023-06-01T06:00:00Z,19.95,99.88,36.0,24.0,0,3,,6.21,29.64567,,,,,,TRUE,,,,,BKN,2500,,,,,,,MVFR,,,,,,,,,,,,METAR,389.0
VTCP 010600Z 22006KT 140V270 9999 FEW025 37/23 Q1004 NOSIG,VTCP,2023-06-01T06:00:00Z,18.13,100.17,37.0,23.0,220,6,,6.21,29.64567,,,,,,TRUE,,,,,FEW,2500,,,,,,,VFR,,,,,,,,,,,,METAR,166.0
VTCN 010600Z VRB03KT 9999 VCSH FEW018CB FEW025 37/24 Q1003 NOSIG,VTCN,2023-06-01T06:00:00Z,18.82,100.78,37.0,24.0,0,3,,6.21,29.616142,,,,,,TRUE,,,,VCSH,FEW,1800,FEW,2500,,,,,VFR,,,,,,,,,,,,METAR,211.0
VTCL 010600Z 26004KT 190V330 9999 FEW025 36/25 Q1004 NOSIG,VTCL,2023-06-01T06:00:00Z,18.27,99.52,36.0,25.0,260,4,,6.21,29.64567,,,,,,TRUE,,,,,FEW,2500,,,,,,,VFR,,,,,,,,,,,,METAR,240.0
VTCH 010600Z 27005KT 210V350 9999 SCT025 34/23 Q1006 NOSIG,VTCH,2023-06-01T06:00:00Z,19.3,97.98,34.0,23.0,270,5,,6.21,29.704725,,,,,,TRUE,,,,,SCT,2500,,,,,,,VFR,,,,,,,,,,,,METAR,266.0
VTBO 010600Z 22014KT 8000 FEW018 SCT020 32/27 Q1006,VTBO,2023-06-01T06:00:00Z,12.28,102.32,32.0,27.0,220,14,,4.97,29.704725,,,,,,,,,,,FEW,1800,SCT,2000,,,,,MVFR,,,,,,,,,,,,METAR,25.0
VRMM 010600Z 24013KT 9999 FEW018 SCT023 BKN270 30/26 Q1012 NOSIG,VRMM,2023-06-01T06:00:00Z,4.2,73.52,30.0,26.0,240,13,,6.21,29.88189,,,,,,TRUE,,,,,FEW,1800,SCT,2300,BKN,27000,,,VFR,,,,,,,,,,,,METAR,2.0
"VRMH 010600Z 24011KT 9999 FEW018 FEW019CB BKN260 31/26 Q1011 CB N,NE",VRMH,2023-06-01T06:00:00Z,6.75,73.17,31.0,26.0,240,11,,6.21,29.852362,,,,,,,,,,,FEW,1800,FEW,1900,BKN,26000,,,VFR,,,,,,,,,,,,METAR,1.0
"VRMG 010600Z 23008KT 9999 SCT017 FEW018CB SCT110 BKN250 30/26 Q1012 CB SE,SW TEMPO 5000 SHRA",VRMG,2023-06-01T06:00:00Z,-0.7,73.15,30.0,26.0,230,8,,6.21,29.88189,,,,,,,,,,,SCT,1700,FEW,1800,SCT,11000,BKN,25000,VFR,,,,,,,,,,,,METAR,2.0
VOJV 010600Z 31008KT 6000 NSC 33/20 Q1012,VOJV,2023-06-01T06:00:00Z,15.17,76.63,33.0,20.0,310,8,,3.73,29.88189,,,,,,,,,,,CLR,,,,,,,,MVFR,,,,,,,,,,,,METAR,508.0
VOHS 010600Z 27006KT 6000 FEW015 SCT100 37/19 Q1012 NOSIG,VOHS,2023-06-01T06:00:00Z,17.23,78.43,37.0,19.0,270,6,,3.73,29.88189,,,,,,TRUE,,,,,FEW,1500,SCT,10000,,,,,MVFR,,,,,,,,,,,,METAR,607.0
VOCI 010600Z 11002KT 4000 HZ SCT012 BKN080 31/26 Q1010 NOSIG,VOCI,2023-06-01T06:00:00Z,10.15,76.4,31.0,26.0,110,2,,2.49,29.822834,,,,,,TRUE,,,,HZ,SCT,1200,BKN,8000,,,,,IFR,,,,,,,,,,,,METAR,8.0
VOCB 010600Z 23010KT 6000 FEW012 33/23 Q1011 NOSIG,VOCB,2023-06-01T06:00:00Z,11.02,77.03,33.0,23.0,230,10,,3.73,29.852362,,,,,,TRUE,,,,,FEW,1200,,,,,,,MVFR,,,,,,,,,,,,METAR,394.0
VLSK 010600Z 22008KT 8000 SCT020 SCT100 35/22 Q1007 NOSIG,VLSK,2023-06-01T06:00:00Z,16.55,104.75,35.0,22.0,220,8,,4.97,29.734253,,,,,,TRUE,,,,,SCT,2000,SCT,10000,,,,,MVFR,,,,,,,,,,,,METAR,148.0
VLLN 010600Z 04002KT 9999 SCT020 35/23 Q1005 NOSIG,VLLN,2023-06-01T06:00:00Z,20.97,101.4,35.0,23.0,40,2,,6.21,29.675198,,,,,,TRUE,,,,,SCT,2000,,,,,,,VFR,,,,,,,,,,,,METAR,548.0
VLLB 010600Z 27002KT 9999 SCT020 37/23 Q1003 NOSIG,VLLB,2023-06-01T06:00:00Z,19.9,102.17,37.0,23.0,270,2,,6.21,29.616142,,,,,,TRUE,,,,,SCT,2000,,,,,,,VFR,,,,,,,,,,,,METAR,297.0
VGEG 010600Z 21012KT 5000 HZ FEW018 SCT100 32/26 Q1006 NOSIG,VGEG,2023-06-01T06:00:00Z,22.23,91.82,32.0,26.0,210,12,,3.11,29.704725,,,,,,TRUE,,,,HZ,FEW,1800,SCT,10000,,,,,MVFR,,,,,,,,,,,,METAR,7.0
VETJ 010600Z 00000KT 5000 HZ FEW020 SCT100 35/26 Q1003 NOSIG,VETJ,2023-06-01T06:00:00Z,27.93,96.13,35.0,26.0,0,0,,3.11,29.616142,,,,,,TRUE,,,,HZ,FEW,2000,SCT,10000,,,,,MVFR,,,,,,,,,,,,METAR,244.0
VELR 010600Z 18004KT 4500 HZ FEW025 35/25 Q1003,VELR,2023-06-01T06:00:00Z,27.3,94.1,35.0,25.0,180,4,,2.8,29.616142,,,,,,,,,,HZ,FEW,2500,,,,,,,IFR,,,,,,,,,,,,METAR,101.0
VEKO 010600Z 05003KT 5000 HZ NSC 37/17 Q1007,VEKO,2023-06-01T06:00:00Z,24.82,79.92,37.0,17.0,50,3,,3.11,29.734253,,,,,,,,,,HZ,CLR,,,,,,,,MVFR,,,,,,,,,,,,METAR,222.0
VEKI 010600Z 27014KT 5000 HZ NSC 36/14 Q1004 NOSIG,VEKI,2023-06-01T06:00:00Z,26.78,83.88,36.0,14.0,270,14,,3.11,29.64567,,,,,,TRUE,,,,HZ,CLR,,,,,,,,MVFR,,,,,,,,,,,,METAR,81.0
VEJS 010600Z 32002KT 5000 HZ FEW020 39/20 Q1006,VEJS,2023-06-01T06:00:00Z,22.82,86.17,39.0,20.0,320,2,,3.11,29.704725,,,,,,,,,,HZ,FEW,2000,,,,,,,MVFR,,,,,,,,,,,,METAR,151.0
VEJR 010600Z 00000KT 5000 HZ FEW025 37/19 Q1009,VEJR,2023-06-01T06:00:00Z,19.07,82.03,37.0,19.0,0,0,,3.11,29.793306,,,,,,,,,,HZ,FEW,2500,,,,,,,MVFR,,,,,,,,,,,,METAR,555.0
VEHO 010600Z 17002KT 6000 NSW FEW100 35/25 Q1004 NOSIG,VEHO,2023-06-01T06:00:00Z,,,35.0,25.0,170,2,,3.73,29.64567,,,,,,TRUE,,,,,FEW,10000,,,,,,,MVFR,,,,,,,,,,,,METAR,
VEGY 010600Z 29010KT 5000 HZ NSC 38/15 Q1006,VEGY,2023-06-01T06:00:00Z,24.75,84.95,38.0,15.0,290,10,,3.11,29.704725,,,,,,,,,,HZ,CLR,,,,,,,,MVFR,,,,,,,,,,,,METAR,115.0
VECO 010600Z 09005KT 3000 HZ FEW025 34/27 Q1004 NOSIG,VECO,2023-06-01T06:00:00Z,26.33,89.47,34.0,27.0,90,5,,1.86,29.64567,,,,,,TRUE,,,,HZ,FEW,2500,,,,,,,IFR,,,,,,,,,,,,METAR,48.0
VEBU 010600Z 36010KT 6000 NSC 40/12 Q1007 NOSIG,VEBU,2023-06-01T06:00:00Z,21.98,82.12,40.0,12.0,360,10,,3.73,29.734253,,,,,,TRUE,,,,,CLR,,,,,,,,MVFR,,,,,,,,,,,,METAR,274.0
VEBI 010600Z 03008KT 4000 HZ BKN020 FEW025CB 31/21 Q1010 NOSIG,VEBI,2023-06-01T06:00:00Z,25.7,91.98,31.0,21.0,30,8,,2.49,29.822834,,,,,,TRUE,,,,HZ,BKN,2000,FEW,2500,,,,,IFR,,,,,,,,,,,,METAR,892.0
VAJL 010600Z 28004KT 7000 NSC 38/15 Q1008 NOSIG,VAJL,2023-06-01T06:00:00Z,20.97,75.63,38.0,15.0,280,4,,4.35,29.763779,,,,,,TRUE,,,,,CLR,,,,,,,,MVFR,,,,,,,,,,,,METAR,257.0
VAJB 010600Z 29006KT 5000 HZ NSC 36/15 Q1010 NOSIG,VAJB,2023-06-01T06:00:00Z,23.18,80.05,36.0,15.0,290,6,,3.11,29.822834,,,,,,TRUE,,,,HZ,CLR,,,,,,,,MVFR,,,,,,,,,,,,METAR,489.0
VABP 010600Z 29006KT 6000 NSC 36/08 Q1010 NOSIG,VABP,2023-06-01T06:00:00Z,23.28,77.33,36.0,8.0,290,6,,3.73,29.822834,,,,,,TRUE,,,,,CLR,,,,,,,,MVFR,,,,,,,,,,,,METAR,520.0
UWOR 010600Z 25002MPS 180V300 CAVOK 28/10 Q1014 R25/CLRD65 NOSIG RMK QFE737/0983,UWOR,2023-06-01T06:00:00Z,51.07,58.6,28.0,10.0,250,4,,6.21,29.940945,,,,,,TRUE,,,,,CAVOK,,,,,,,,VFR,,,,,,,,,,,,METAR,270.0
UWLW 010600Z 29004MPS 240V350 9999 SCT030 17/10 Q1012 R20/CLRD60 NOSIG RMK QFE753/1004,UWLW,2023-06-01T06:00:00Z,54.4,48.8,17.0,10.0,290,8,,6.21,29.88189,,,,,,TRUE,,,,,SCT,3000,,,,,,,VFR,,,,,,,,,,,,METAR,67.0
UTFF 010600Z 35006KT 9999 NSC 30/11 Q1007 R18/CLRD70,UTFF,2023-06-01T06:00:00Z,40.37,71.73,30.0,11.0,350,6,,6.21,29.734253,,,,,,,,,,,CLR,,,,,,,,VFR,,,,,,,,,,,,METAR,612.0
UTAV 010600Z 36016KT CAVOK 33/04 Q1007 R31/CLRD70 NOSIG,UTAV,2023-06-01T06:00:00Z,39.08,63.62,33.0,4.0,360,16,,6.21,29.734253,,,,,,TRUE,,,,,CAVOK,,,,,,,,VFR,,,,,,,,,,,,METAR,187.0
UTAT 010600Z 13018KT CAVOK 35/08 Q1010 R08/CLRD70 NOSIG,UTAT,2023-06-01T06:00:00Z,41.77,59.83,35.0,8.0,130,18,,6.21,29.822834,,,,,,TRUE,,,,,CAVOK,,,,,,,,VFR,,,,,,,,,,,,METAR,84.0
UTAM 010600Z 32004KT CAVOK 33/07 Q1008 R88/CLRD70 NOSIG,UTAM,2023-06-01T06:00:00Z,37.62,61.9,33.0,7.0,320,4,,6.21,29.763779,,,,,,TRUE,,,,,CAVOK,,,,,,,,VFR,,,,,,,,,,,,METAR,218.0
UTAK 010600Z 30010KT CAVOK 29/16 Q1009 R16R/CLRD70 NOSIG,UTAK,2023-06-01T06:00:00Z,40.05,53.0,29.0,16.0,300,10,,6.21,29.793306,,,,,,TRUE,,,,,CAVOK,,,,,,,,VFR,,,,,,,,,,,,METAR,83.0
UTAA 010600Z 33008KT 310V010 7000 BKN100 31/10 Q1009 R88/70D NOSIG,UTAA,2023-06-01T06:00:00Z,37.98,58.37,31.0,10.0,330,8,,4.35,29.793306,,,,,,TRUE,,,,,BKN,10000,,,,,,,MVFR,,,,,,,,,,,,METAR,207.0
UMOO 010600Z 26004MPS CAVOK 15/05 Q1015 NOSIG,UMOO,2023-06-01T06:00:00Z,53.95,30.1,15.0,5.0,260,8,,6.21,29.970472,,,,,,TRUE,,,,,CAVOK,,,,,,,,VFR,,,,,,,,,,,,METAR,188.0
UMMG 010600Z 19002MPS CAVOK 15/06 Q1013 NOSIG,UMMG,2023-06-01T06:00:00Z,53.6,24.05,15.0,6.0,190,4,,6.21,29.911417,,,,,,TRUE,,,,,CAVOK,,,,,,,,VFR,,,,,,,,,,,,METAR,125.0
UMII 010600Z 27003G06MPS 9999 BKN048 12/07 Q1011 NOSIG,UMII,2023-06-01T06:00:00Z,55.13,30.35,12.0,7.0,270,6,12,6.21,29.852362,,,,,,TRUE,,,,,BKN,4800,,,,,,,VFR,,,,,,,,,,,,METAR,208.0
UMBB 010600Z 23003MPS 7000 NSC 16/06 Q1015 NOSIG,UMBB,2023-06-01T06:00:00Z,52.12,23.9,16.0,6.0,230,6,,4.35,29.970472,,,,,,TRUE,,,,,CLR,,,,,,,,MVFR,,,,,,,,,,,,METAR,138.0
UCFL 010600Z 19003MPS 160V220 9999 SCT030CB BKN133 19/03 Q1017,UCFL,2023-06-01T06:00:00Z,42.58,76.7,19.0,3.0,190,6,,6.21,30.029528,,,,,,,,,,,SCT,3000,BKN,13300,,,,,VFR,,,,,,,,,,,,METAR,1654.0
UBEE 010600Z 30010KT CAVOK 26/16 Q1011 NOSIG RMK FEW100 AC,UBEE,2023-06-01T06:00:00Z,40.63,47.13,26.0,16.0,300,10,,6.21,29.852362,,,,,,TRUE,,,,,CAVOK,,,,,,,,VFR,,,,,,,,,,,,METAR,14.0
UBBY 010600Z 29004KT 9999 NSC 24/15 Q1015 NOSIG RMK MT OP,UBBY,2023-06-01T06:00:00Z,41.57,46.67,24.0,15.0,290,4,,6.21,29.970472,,,,,,TRUE,,,,,CLR,,,,,,,,VFR,,,,,,,,,,,,METAR,383.0
UBBQ 010600Z 05002KT 9999 NSC 23/15 Q1012 NOSIG RMK MT OP,UBBQ,2023-06-01T06:00:00Z,40.82,47.72,23.0,15.0,50,2,,6.21,29.88189,,,,,,TRUE,,,,,CLR,,,,,,,,VFR,,,,,,,,,,,,METAR,339.0
UBBL 010600Z VRB02KT 9999 FEW025 25/17 Q1012 NOSIG RMK MT OP,UBBL,2023-06-01T06:00:00Z,38.75,48.82,25.0,17.0,0,2,,6.21,29.88189,,,,,,TRUE,,,,,FEW,2500,,,,,,,VFR,,,,,,,,,,,,METAR,-11.0
TTPP 010600Z 00000KT 9999 -RA VCSH BKN014 25/24 Q1013 NOSIG RMK VCSH ALQDS,TTPP,2023-06-01T06:00:00Z,10.58,-61.35,25.0,24.0,0,0,,6.21,29.911417,,,,,,TRUE,,,,-RA VCSH,BKN,1400,,,,,,,MVFR,,,,,,,,,,,,METAR,11.0
TTCP 010600Z 11008KT 9999 FEW014 27/25 Q1013 NOSIG,TTCP,2023-06-01T06:00:00Z,11.15,-60.85,27.0,25.0,110,8,,6.21,29.911417,,,,,,TRUE,,,,,FEW,1400,,,,,,,VFR,,,,,,,,,,,,METAR,13.0
TNCM 010600Z 09006KT 060V120 9999 VCSH SCT018 28/25 Q1016 RMK VCSH NE,TNCM,2023-06-01T06:00:00Z,18.05,-63.12,28.0,25.0,90,6,,6.21,30.0,,,,,,,,,,VCSH,SCT,1800,,,,,,,VFR,,,,,,,,,,,,METAR,9.0
TNCC 010600Z 12009KT 9999 FEW012 27/26 Q1011 NOSIG,TNCC,2023-06-01T06:00:00Z,12.2,-68.97,27.0,26.0,120,9,,6.21,29.852362,,,,,,TRUE,,,,,FEW,1200,,,,,,,VFR,,,,,,,,,,,,METAR,10.0
TNCA 010600Z 10016KT 9999 FEW013 28/25 Q1010 NOSIG,TNCA,2023-06-01T06:00:00Z,12.5,-70.0,28.0,25.0,100,16,,6.21,29.822834,,,,,,TRUE,,,,,FEW,1300,,,,,,,VFR,,,,,,,,,,,,METAR,7.0
TLPL 010600Z 13015KT 9999 SCT022 27/25 Q1014 NOSIG,TLPL,2023-06-01T06:00:00Z,13.75,-60.95,27.0,25.0,130,15,,6.21,29.940945,,,,,,TRUE,,,,,SCT,2200,,,,,,,VFR,,,,,,,,,,,,METAR,13.0
TBPB 010600Z 10008KT 9999 SCT016 27/25 Q1013 NOSIG,TBPB,2023-06-01T06:00:00Z,13.07,-59.48,27.0,25.0,100,8,,6.21,29.911417,,,,,,TRUE,,,,,SCT,1600,,,,,,,VFR,,,,,,,,,,,,METAR,55.0
TAPA 010600Z 13006KT 070V200 9999 FEW018 26/23 Q1015 NOSIG,TAPA,2023-06-01T06:00:00Z,17.13,-61.78,26.0,23.0,130,6,,6.21,29.970472,,,,,,TRUE,,,,,FEW,1800,,,,,,,VFR,,,,,,,,,,,,METAR,15.0
SYCJ 010600Z VRB02KT 9999 FEW017 25/24 Q1012 NOSIG,SYCJ,2023-06-01T06:00:00Z,6.5,-58.25,25.0,24.0,0,2,,6.21,29.88189,,,,,,TRUE,,,,,FEW,1700,,,,,,,VFR,,,,,,,,,,,,METAR,30.0
SVMI 010600Z 34004KT 9999 SCT016 BKN080 26/20 Q1011,SVMI,2023-06-01T06:00:00Z,10.6,-67.0,26.0,20.0,340,4,,6.21,29.852362,,,,,,,,,,,SCT,1600,BKN,8000,,,,,VFR,,,,,,,,,,,,METAR,48.0
SUMU 010600Z 36003KT CAVOK 13/13 Q1018 NOSIG,SUMU,2023-06-01T06:00:00Z,-34.83,-56.02,13.0,13.0,360,3,,6.21,30.059055,,,,,,TRUE,,,,,CAVOK,,,,,,,,VFR,,,,,,,,,,,,METAR,32.0
SULS 010600Z 05004KT CAVOK 14/13 Q1018,SULS,2023-06-01T06:00:00Z,-34.87,-55.1,14.0,13.0,50,4,,6.21,30.059055,,,,,,,,,,,CAVOK,,,,,,,,VFR,,,,,,,,,,,,METAR,22.0
SPUR 010600Z 18005KT 9999 SCT040 SCT060 24/22 Q1014 RMK PP000,SPUR,2023-06-01T06:00:00Z,-5.17,-80.58,24.0,22.0,180,5,,6.21,29.940945,,,,,,,,,,,SCT,4000,SCT,6000,,,,,VFR,,,,,,,,,,,,SPECI,55.0
SPSO 010600Z 21006KT 8000 OVC030 20/16 Q1014 RMK PP000,SPSO,2023-06-01T06:00:00Z,-13.73,-76.22,20.0,16.0,210,6,,4.97,29.940945,,,,,,,,,,,OVC,3000,,,,,,,MVFR,,,,,,,,,,,,METAR,8.0
SPRU 010600Z 13006KT 5000 BR FEW033 23/22 Q1014 RMK PP000,SPRU,2023-06-01T06:00:00Z,-8.08,-79.12,23.0,22.0,130,6,,3.11,29.940945,,,,,,,,,,BR,FEW,3300,,,,,,,MVFR,,,,,,,,,,,,SPECI,23.0
SPQT 010600Z VRB01KT 5000 BR FEW003 BKN100 25/24 Q1013 NOSIG RMK PP000,SPQT,2023-06-01T06:00:00Z,-3.78,-73.32,25.0,24.0,0,1,,3.11,29.911417,,,,,,TRUE,,,,BR,FEW,300,BKN,10000,,,,,MVFR,,,,,,,,,,,,METAR,92.0
SPJC 010600Z 16007KT 9999 OVC025 21/16 Q1014 NOSIG RMK PP000,SPJC,2023-06-01T06:00:00Z,-12.02,-77.12,21.0,16.0,160,7,,6.21,29.940945,,,,,,TRUE,,,,,OVC,2500,,,,,,,MVFR,,,,,,,,,,,,METAR,26.0
SPHI 010600Z 17008KT 9999 BKN030 24/19 Q1014 RMK BIRD HAZARD RWY 19/01 PP000,SPHI,2023-06-01T06:00:00Z,-6.78,-79.82,24.0,19.0,170,8,,6.21,29.940945,,,,,,,,,,,BKN,3000,,,,,,,MVFR,,,,,,,,,,,,SPECI,33.0
SMJP 010600Z 20002KT 5000 BR SCT003 24/24 Q1013 NOSIG,SMJP,2023-06-01T06:00:00Z,5.45,-55.18,24.0,24.0,200,2,,3.11,29.911417,,,,,,TRUE,,,,BR,SCT,300,,,,,,,MVFR,,,,,,,,,,,,METAR,14.0
SLVR 010600Z VRB02KT 9999 BKN008 BKN017 20/19 Q1017,SLVR,2023-06-01T06:00:00Z,-17.63,-63.13,20.0,19.0,0,2,,6.21,30.029528,,,,,,,,,,,BKN,800,BKN,1700,,,,,IFR,,,,,,,,,,,,METAR,377.0
SLLP 010600Z 01005KT 9999 NSC 03/M15 Q1041,SLLP,2023-06-01T06:00:00Z,-16.52,-68.17,3.0,-15.0,10,5,,6.21,30.73819,,,,,,,,,,,CLR,,,,,,,,VFR,,,,,,,,,,,,METAR,4061.0
SLCB 010600Z 00000KT 9999 NSC 08/01 Q1028,SLCB,2023-06-01T06:00:00Z,-17.42,-66.18,8.0,1.0,0,0,,6.21,30.35433,,,,,,,,,,,CLR,,,,,,,,VFR,,,,,,,,,,,,METAR,2560.0
SKSP 010600Z VRB02KT 9999 FEW016 28/26 Q1011 RMK A2986,SKSP,2023-06-01T06:00:00Z,12.58,-81.72,28.0,26.0,0,2,,6.21,29.852362,,,,,,,,,,,FEW,1600,,,,,,,VFR,,,,,,,,,,,,METAR,6.0
SKRG 010600Z VRB02KT 4000 TSRA BKN010CB SCT070 16/16 Q1027 REDZ BECMG FM0700 5000 RA BKN008 RMK CB E/S A3033,SKRG,2023-06-01T06:00:00Z,6.17,-75.42,16.0,16.0,0,2,,2.49,30.324802,,,,,,,,,,TSRA,BKN,1000,SCT,7000,,,,,IFR,,,,,,,,,,,,METAR,2132.0
SKLT 010600Z 00000KT 9999 FEW010 23/23 Q1013 RMK A2992,SKLT,2023-06-01T06:00:00Z,-4.2,-69.93,23.0,23.0,0,0,,6.21,29.911417,,,,,,,,,,,FEW,1000,,,,,,,VFR,,,,,,,,,,,,METAR,78.0
SKCL 010600Z 36003KT 9999 SCT030 BKN080 21/20 Q1016 NOSIG RMK A3001,SKCL,2023-06-01T06:00:00Z,3.53,-76.37,21.0,20.0,360,3,,6.21,30.0,,,,,,TRUE,,,,,SCT,3000,BKN,8000,,,,,VFR,,,,,,,,,,,,METAR,967.0
SKCG 010600Z 36003KT 9999 SCT017 28/26 Q1010 RMK A2984,SKCG,2023-06-01T06:00:00Z,10.43,-75.52,28.0,26.0,360,3,,6.21,29.822834,,,,,,,,,,,SCT,1700,,,,,,,VFR,,,,,,,,,,,,METAR,6.0
SKBQ 010600Z 36003KT 300V040 9999 FEW012 27/26 Q1011 NOSIG RMK A2986,SKBQ,2023-06-01T06:00:00Z,10.87,-74.77,27.0,26.0,360,3,,6.21,29.852362,,,,,,TRUE,,,,,FEW,1200,,,,,,,VFR,,,,,,,,,,,,METAR,23.0
SKBO 010600Z 06004KT 9999 VCSH SCT015 BKN070 13/12 Q1028 REDZ NOSIG,SKBO,2023-06-01T06:00:00Z,4.7,-74.15,13.0,12.0,60,4,,6.21,30.35433,,,,,,TRUE,,,,VCSH,SCT,1500,BKN,7000,,,,,VFR,,,,,,,,,,,,METAR,2547.0
SGES 010600Z 00000KT 8000 NSC 15/15 Q1020,SGES,2023-06-01T06:00:00Z,-25.45,-54.85,15.0,15.0,0,0,,4.97,30.11811,,,,,,,,,,,CLR,,,,,,,,MVFR,,,,,,,,,,,,METAR,256.0
SGAS 010600Z 00000KT CAVOK 17/15 Q1020,SGAS,2023-06-01T06:00:00Z,-25.25,-57.52,17.0,15.0,0,0,,6.21,30.11811,,,,,,,,,,,CAVOK,,,,,,,,VFR,,,,,,,,,,,,METAR,83.0
SEQM 010600Z 04003KT 9999 BKN005 BKN026 14/13 Q1028 NOSIG RMK A3037,SEQM,2023-06-01T06:00:00Z,-0.12,-78.35,14.0,13.0,40,3,,6.21,30.35433,,,,,,TRUE,,,,,BKN,500,BKN,2600,,,,,IFR,,,,,,,,,,,,METAR,2386.0
SEGU 010600Z 22008KT 9999 FEW010 SCT026 BKN100 25/23 Q1012 NOSIG RMK A2989,SEGU,2023-06-01T06:00:00Z,-2.15,-79.88,25.0,23.0,220,8,,6.21,29.88189,,,,,,TRUE,,,,,FEW,1000,SCT,2600,BKN,10000,,,VFR,,,,,,,,,,,,METAR,6.0
SCVM 010600Z 14003KT CAVOK 09/06 Q1013,SCVM,2023-06-01T06:00:00Z,-32.95,-71.48,9.0,6.0,140,3,,6.21,29.911417,,,,,,,,,,,CAVOK,,,,,,,,VFR,,,,,,,,,,,,METAR,136.0
SCVD 010600Z AUTO 00000KT 0800 R35/0900N FG VV002 08/08 Q1016,SCVD,2023-06-01T06:00:00Z,-39.65,-73.08,8.0,8.0,0,0,,0.5,30.0,,,TRUE,,,,,,,FG,OVX,0,,,,,,,LIFR,,,,,,,,,,,200,METAR,19.0
SCTN 010600Z AUTO 10004KT 9999 SCT044 05/05 Q1014,SCTN,2023-06-01T06:00:00Z,-42.92,-72.7,5.0,5.0,100,4,,6.21,29.940945,,,TRUE,,,,,,,,SCT,4400,,,,,,,VFR,,,,,,,,,,,,METAR,8.0
SCTE 010600Z 02003KT 1500 0600S R35/1200D BCFG FEW025 07/07 Q1015 NOSIG,SCTE,2023-06-01T06:00:00Z,-41.43,-73.08,7.0,7.0,20,3,,0.93,29.970472,,,,,,TRUE,,,,BCFG,FEW,2500,,,,,,,LIFR,,,,,,,,,,,,METAR,85.0
SCSN 010600Z AUTO 10002KT 9999 NCD 06/06 Q1013,SCSN,2023-06-01T06:00:00Z,-33.65,-71.62,6.0,6.0,100,2,,6.21,29.911417,,,TRUE,,,,,,,,CLR,,,,,,,,VFR,,,,,,,,,,,,METAR,73.0
SCSE 010600Z AUTO 23004KT 210V270 8000 NCD 12/12 Q1014,SCSE,2023-06-01T06:00:00Z,-29.92,-71.2,12.0,12.0,230,4,,4.97,29.940945,,,TRUE,,,,,,,,CLR,,,,,,,,MVFR,,,,,,,,,,,,METAR,141.0
SCRM 010600Z 31012KT 1200 SHRASN OVC003 00/M00 Q0990 NOSIG,SCRM,2023-06-01T06:00:00Z,-62.18,-58.98,0.0,0.0,310,12,,0.75,29.232283,,,,,,TRUE,,,,SHRA SHSN,OVC,300,,,,,,,LIFR,,,,,,,,,,,,METAR,45.0
SCQP 010600Z VRB02KT 0400 R01/0500N FG VV002 08/08 Q1015,SCQP,2023-06-01T06:00:00Z,-38.92,-72.65,8.0,8.0,0,2,,0.25,29.970472,,,,,,,,,,FG,OVX,0,,,,,,,LIFR,,,,,,,,,,,200,METAR,97.0
SCPQ 010600Z AUTO 36004KT //// R35/0700 -RA FG VV002 06/06 Q1014,SCPQ,2023-06-01T06:00:00Z,-42.33,-73.72,6.0,6.0,360,4,,0.43,29.940945,,,TRUE,,,,,,,-RA FG,OVX,0,,,,,,,LIFR,,,,,,,,,,,200,METAR,166.0
SCON 010600Z AUTO 00000KT 2900 BR FEW009/// 06/06 Q1015,SCON,2023-06-01T06:00:00Z,-43.13,-73.62,6.0,6.0,0,0,,1.8,29.970472,,,TRUE,,,,,,,BR,FEW,900,,,,,,,IFR,,,,,,,,,,,,METAR,11.0
SCIP 010600Z 17010KT 9999 BKN025 19/14 Q1023 NOSIG,SCIP,2023-06-01T06:00:00Z,-27.17,-109.43,19.0,14.0,170,10,,6.21,30.206694,,,,,,TRUE,,,,,BKN,2500,,,,,,,MVFR,,,,,,,,,,,,METAR,48.0
SCIE 010600Z 20005KT 6000 NSC 09/09 Q1014,SCIE,2023-06-01T06:00:00Z,-36.77,-73.07,9.0,9.0,200,5,,3.73,29.940945,,,,,,,,,,,CLR,,,,,,,,MVFR,,,,,,,,,,,,METAR,8.0
SCIC 010600Z AUTO 11002KT //// R/////// // VV002 11/11 Q1014,SCIC,2023-06-01T06:00:00Z,-34.97,-71.22,11.0,11.0,110,2,,,29.940945,,,TRUE,,,,,,,,OVX,0,,,,,,,LIFR,,,,,,,,,,,200,METAR,230.0
SCHR 010600Z AUTO VRB01KT CAVOK 02/M01 Q1009,SCHR,2023-06-01T06:00:00Z,-47.23,-72.58,2.0,-1.0,0,1,,6.21,29.793306,,,TRUE,,,,,,,,CAVOK,,,,,,,,VFR,,,,,,,,,,,,METAR,203.0
SCFT 010600Z AUTO VRB01KT CAVOK 02/02 Q1017,SCFT,2023-06-01T06:00:00Z,-43.18,-71.85,2.0,2.0,0,1,,6.21,30.029528,,,TRUE,,,,,,,,CAVOK,,,,,,,,VFR,,,,,,,,,,,,METAR,345.0
SCFA 010600Z 36004KT 320V020 9999 OVC019 15/11 Q1014 NOSIG,SCFA,2023-06-01T06:00:00Z,-23.43,-70.43,15.0,11.0,360,4,,6.21,29.940945,,,,,,TRUE,,,,,OVC,1900,,,,,,,MVFR,,,,,,,,,,,,METAR,113.0
SCEL 010600Z 36002KT 5000 HZ NSC 09/03 Q1014 NOSIG,SCEL,2023-06-01T06:00:00Z,-33.38,-70.78,9.0,3.0,360,2,,3.11,29.940945,,,,,,TRUE,,,,HZ,CLR,,,,,,,,MVFR,,,,,,,,,,,,METAR,478.0
SCDA 010600Z 34004KT 9999 OVC026 19/13 Q1015,SCDA,2023-06-01T06:00:00Z,-20.53,-70.17,19.0,13.0,340,4,,6.21,29.970472,,,,,,,,,,,OVC,2600,,,,,,,MVFR,,,,,,,,,,,,METAR,41.0
SCCY 010600Z 03004KT 310V070 9999 -SHRA FEW025 OVC030 08/06 Q1013,SCCY,2023-06-01T06:00:00Z,-45.58,-72.1,8.0,6.0,30,4,,6.21,29.911417,,,,,,,,,,-SHRA,FEW,2500,OVC,3000,,,,,MVFR,,,,,,,,,,,,METAR,301.0
SCCI 010600Z 36009KT 9999 FEW040 BKN200 04/01 Q1002 NOSIG,SCCI,2023-06-01T06:00:00Z,-53.0,-70.85,4.0,1.0,360,9,,6.21,29.586615,,,,,,TRUE,,,,,FEW,4000,BKN,20000,,,,,VFR,,,,,,,,,,,,METAR,37.0
SCCH 010600Z AUTO 23002KT 0450 R22/0500N FG ///////// 09/09 Q1013,SCCH,2023-06-01T06:00:00Z,-36.57,-72.02,9.0,9.0,230,2,,0.28,29.911417,,,TRUE,,,,,,,FG,,,,,,,,,,,,,,,,,,,,,METAR,148.0
SCCF 010600Z AUTO 11022KT 9999 NCD 06/M19 Q1027,SCCF,2023-06-01T06:00:00Z,-22.5,-68.9,6.0,-19.0,110,22,,6.21,30.324802,,,TRUE,,,,,,,,CLR,,,,,,,,VFR,,,,,,,,,,,,METAR,2290.0
SCBA 010600Z AUTO 26010KT 9999 BKN042/// 06/04 Q1012,SCBA,2023-06-01T06:00:00Z,-45.92,-71.68,6.0,4.0,260,10,,6.21,29.88189,,,TRUE,,,,,,,,BKN,4200,,,,,,,VFR,,,,,,,,,,,,METAR,516.0
SCAT 010600Z AUTO 07007KT 9000 OVC006/// 11/10 Q1014,SCAT,2023-06-01T06:00:00Z,-27.27,-70.77,11.0,10.0,70,7,,5.59,29.940945,,,TRUE,,,,,,,,OVC,600,,,,,,,IFR,,,,,,,,,,,,METAR,209.0
SCAR 010600Z VRB02KT 9999 OVC026 19/14 Q1015,SCAR,2023-06-01T06:00:00Z,-18.35,-70.33,19.0,14.0,0,2,,6.21,29.970472,,,,,,,,,,,OVC,2600,,,,,,,MVFR,,,,,,,,,,,,METAR,57.0
SCAP 010600Z AUTO VRB01KT 0500 FG ////// 02/01 Q1019,SCAP,2023-06-01T06:00:00Z,-43.62,-71.8,2.0,1.0,0,1,,0.31,30.088583,,,TRUE,,,,,,,FG,,,,,,,,,,,,,,,,,,,,,METAR,252.0
SBVT 010600Z 02002KT CAVOK 19/19 Q1016,SBVT,2023-06-01T06:00:00Z,-20.25,-40.28,19.0,19.0,20,2,,6.21,30.0,,,,,,,,,,,CAVOK,,,,,,,,VFR,,,,,,,,,,,,METAR,4.0
SBUR 010600Z 11002KT CAVOK 17/17 Q1021,SBUR,2023-06-01T06:00:00Z,-19.77,-47.97,17.0,17.0,110,2,,6.21,30.147638,,,,,,,,,,,CAVOK,,,,,,,,VFR,,,,,,,,,,,,METAR,807.0
SBUL 010600Z 13006KT CAVOK 16/14 Q1022,SBUL,2023-06-01T06:00:00Z,-18.87,-48.22,16.0,14.0,130,6,,6.21,30.177166,,,,,,,,,,,CAVOK,,,,,,,,VFR,,,,,,,,,,,,METAR,945.0
SBTU 010600Z AUTO /////KT ///V/// //// // ///////// ///// Q////,SBTU,2023-06-01T06:00:00Z,-3.78,-49.72,,,,,,,,,,TRUE,,,,,,,,,,,,,,,,,,,,,,,,,,,,METAR,250.0
SBTE 010600Z 00000KT CAVOK 26/23 Q1012,SBTE,2023-06-01T06:00:00Z,-5.05,-42.82,26.0,23.0,0,0,,6.21,29.88189,,,,,,,,,,,CAVOK,,,,,,,,VFR,,,,,,,,,,,,METAR,60.0
SBSV 010600Z 15009KT 9999 FEW023 27/22 Q1015,SBSV,2023-06-01T06:00:00Z,-12.9,-38.32,27.0,22.0,150,9,,6.21,29.970472,,,,,,,,,,,FEW,2300,,,,,,,VFR,,,,,,,,,,,,METAR,9.0
SBSR 010600Z 00000KT CAVOK 16/16 Q1020,SBSR,2023-06-01T06:00:00Z,-20.8,-49.4,16.0,16.0,0,0,,6.21,30.11811,,,,,,,,,,,CAVOK,,,,,,,,VFR,,,,,,,,,,,,METAR,537.0
SBSN 010600Z 13001KT CAVOK 24/24 Q1013,SBSN,2023-06-01T06:00:00Z,-2.42,-54.78,24.0,24.0,130,1,,6.21,29.911417,,,,,,,,,,,CAVOK,,,,,,,,VFR,,,,,,,,,,,,METAR,57.0
SBSL 010600Z 00000KT 9999 FEW017 26/25 Q1013,SBSL,2023-06-01T06:00:00Z,-2.58,-44.23,26.0,25.0,0,0,,6.21,29.911417,,,,,,,,,,,FEW,1700,,,,,,,VFR,,,,,,,,,,,,METAR,53.0
SBSJ 010600Z 23003KT 4000 BR SCT004 BKN015 BKN025 16/16 Q1021,SBSJ,2023-06-01T06:00:00Z,-23.22,-45.87,16.0,16.0,230,3,,2.49,30.147638,,,,,,,,,,BR,SCT,400,BKN,1500,BKN,2500,,,IFR,,,,,,,,,,,,METAR,640.0
SBSG 010600Z 20003KT 9999 SCT020 24/23 Q1014,SBSG,2023-06-01T06:00:00Z,-5.77,-35.37,24.0,23.0,200,3,,6.21,29.940945,,,,,,,,,,,SCT,2000,,,,,,,VFR,,,,,,,,,,,,METAR,83.0
SBSC 010600Z 27003KT 8000 BKN015 17/17 Q1017,SBSC,2023-06-01T06:00:00Z,-22.92,-43.72,17.0,17.0,270,3,,4.97,30.029528,,,,,,,,,,,BKN,1500,,,,,,,MVFR,,,,,,,,,,,,METAR,6.0
SBRP 010600Z 11003KT 0300 FG VV002 16/16 Q1020,SBRP,2023-06-01T06:00:00Z,-21.13,-47.77,16.0,16.0,110,3,,0.19,30.11811,,,,,,,,,,FG,OVX,0,,,,,,,LIFR,,,,,,,,,,,200,METAR,550.0
SBRJ 010600Z VRB04KT 9999 SCT030 SCT100 22/18 Q1016,SBRJ,2023-06-01T06:00:00Z,-22.9,-43.17,22.0,18.0,0,4,,6.21,30.0,,,,,,,,,,,SCT,3000,SCT,10000,,,,,VFR,,,,,,,,,,,,METAR,6.0
SBRF 010600Z 26003KT 9999 FEW025 BKN050 24/22 Q1014,SBRF,2023-06-01T06:00:00Z,-8.13,-34.92,24.0,22.0,260,3,,6.21,29.940945,,,,,,,,,,,FEW,2500,BKN,5000,,,,,VFR,,,,,,,,,,,,METAR,10.0
SBRB 010600Z 19002KT 9999 FEW010 21/21 Q1015,SBRB,2023-06-01T06:00:00Z,-9.87,-67.88,21.0,21.0,190,2,,6.21,29.970472,,,,,,,,,,,FEW,1000,,,,,,,VFR,,,,,,,,,,,,METAR,190.0
SBPV 010600Z 19003KT 9999 SCT025 24/23 Q1013,SBPV,2023-06-01T06:00:00Z,-8.72,-63.9,24.0,23.0,190,3,,6.21,29.911417,,,,,,,,,,,SCT,2500,,,,,,,VFR,,,,,,,,,,,,METAR,89.0
SBPL 010600Z 15007KT CAVOK 23/21 Q1016,SBPL,2023-06-01T06:00:00Z,-9.37,-40.57,23.0,21.0,150,7,,6.21,30.0,,,,,,,,,,,CAVOK,,,,,,,,VFR,,,,,,,,,,,,METAR,386.0
SBPJ 010600Z 10005KT CAVOK 23/20 Q1015,SBPJ,2023-06-01T06:00:00Z,-10.28,-48.37,23.0,20.0,100,5,,6.21,29.970472,,,,,,,,,,,CAVOK,,,,,,,,VFR,,,,,,,,,,,,METAR,226.0
SBPA 010600Z 29002KT 0300 R11/0275 R29/P2000 FG VV002 13/13 Q1019,SBPA,2023-06-01T06:00:00Z,-30.0,-51.17,13.0,13.0,290,2,,0.19,30.088583,,,,,,,,,,FG,OVX,0,,,,,,,LIFR,,,,,,,,,,,200,METAR,3.0
SBNT 010600Z 20005KT 9999 SCT017 24/24 Q1013,SBNT,2023-06-01T06:00:00Z,-5.92,-35.25,24.0,24.0,200,5,,6.21,29.911417,,,,,,,,,,,SCT,1700,,,,,,,VFR,,,,,,,,,,,,METAR,51.0
SBMQ 010600Z 03004KT 9999 FEW015 26/25 Q1013,SBMQ,2023-06-01T06:00:00Z,0.05,-51.07,26.0,25.0,30,4,,6.21,29.911417,,,,,,,,,,,FEW,1500,,,,,,,VFR,,,,,,,,,,,,METAR,15.0
SBMO 010600Z 24002KT 2000 -RA BR BKN007 BKN010 OVC028 24/24 Q1014,SBMO,2023-06-01T06:00:00Z,-9.52,-35.78,24.0,24.0,240,2,,1.24,29.940945,,,,,,,,,,-RA BR,BKN,700,BKN,1000,OVC,2800,,,IFR,,,,,,,,,,,,METAR,116.0
SBMN 010600Z 09002KT CAVOK 26/24 Q1013,SBMN,2023-06-01T06:00:00Z,-3.13,-59.98,26.0,24.0,90,2,,6.21,29.911417,,,,,,,,,,,CAVOK,,,,,,,,VFR,,,,,,,,,,,,METAR,71.0
SBMG 010600Z 00000KT 9999 SCT040 15/14 Q1020,SBMG,2023-06-01T06:00:00Z,-23.48,-52.02,15.0,14.0,0,0,,6.21,30.11811,,,,,,,,,,,SCT,4000,,,,,,,VFR,,,,,,,,,,,,METAR,543.0
SBME 010600Z 23003KT CAVOK 20/20 Q1016,SBME,2023-06-01T06:00:00Z,-22.35,-41.77,20.0,20.0,230,3,,6.21,30.0,,,,,,,,,,,CAVOK,,,,,,,,VFR,,,,,,,,,,,,METAR,2.0
SBMA 010600Z 00000KT CAVOK 24/24 Q1013,SBMA,2023-06-01T06:00:00Z,-5.37,-49.13,24.0,24.0,0,0,,6.21,29.911417,,,,,,,,,,,CAVOK,,,,,,,,VFR,,,,,,,,,,,,METAR,110.0
SBLO 010600Z 22001KT 9999 FEW045 17/17 Q1021,SBLO,2023-06-01T06:00:00Z,-23.33,-51.12,17.0,17.0,220,1,,6.21,30.147638,,,,,,,,,,,FEW,4500,,,,,,,VFR,,,,,,,,,,,,METAR,563.0
SBLE 010600Z AUTO 02003KT 9999 OVC018 19/18 Q1018,SBLE,2023-06-01T06:00:00Z,-12.48,-41.28,19.0,18.0,20,3,,6.21,30.059055,,,TRUE,,,,,,,,OVC,1800,,,,,,,MVFR,,,,,,,,,,,,METAR,495.0
SBLB 010600Z AUTO 02020KT 9999 FEW022 25/20 Q1016 W///S4,SBLB,2023-06-01T06:00:00Z,-22.1,-39.92,25.0,20.0,20,20,,6.21,30.0,,,TRUE,,,,,,,,FEW,2200,,,,,,,VFR,,,,,,,,,,,,METAR,10.0
SBKP 010600Z 18004KT 9999 FEW002 15/14 Q1021,SBKP,2023-06-01T06:00:00Z,-23.0,-47.13,15.0,14.0,180,4,,6.21,30.147638,,,,,,,,,,,FEW,200,,,,,,,VFR,,,,,,,,,,,,METAR,659.0
SBKG 010600Z 18006KT 9999 FEW005 BKN070 22/21 Q1016,SBKG,2023-06-01T06:00:00Z,-7.27,-35.88,22.0,21.0,180,6,,6.21,30.0,,,,,,,,,,,FEW,500,BKN,7000,,,,,VFR,,,,,,,,,,,,METAR,499.0
SBJU 010600Z 13002KT 9999 BKN020 23/22 Q1018,SBJU,2023-06-01T06:00:00Z,-7.22,-39.27,23.0,22.0,130,2,,6.21,30.059055,,,,,,,,,,,BKN,2000,,,,,,,MVFR,,,,,,,,,,,,METAR,407.0
SBJP 010600Z 18006KT 9999 SCT017 24/24 Q1014,SBJP,2023-06-01T06:00:00Z,-7.15,-34.95,24.0,24.0,180,6,,6.21,29.940945,,,,,,,,,,,SCT,1700,,,,,,,VFR,,,,,,,,,,,,METAR,66.0
SBIZ 010600Z 00000KT CAVOK 24/21 Q1013,SBIZ,2023-06-01T06:00:00Z,-5.52,-47.45,24.0,21.0,0,0,,6.21,29.911417,,,,,,,,,,,CAVOK,,,,,,,,VFR,,,,,,,,,,,,METAR,131.0
SBIP 010600Z AUTO /////KT ///V/// //// // ///////// ///// Q////,SBIP,2023-06-01T06:00:00Z,-19.47,-42.48,,,,,,,,,,TRUE,,,,,,,,,,,,,,,,,,,,,,,,,,,,METAR,240.0
SBGR 010600Z 24002KT 8000 BKN011 OVC017 16/15 Q1022,SBGR,2023-06-01T06:00:00Z,-23.42,-46.47,16.0,15.0,240,2,,4.97,30.177166,,,,,,,,,,,BKN,1100,OVC,1700,,,,,MVFR,,,,,,,,,,,,METAR,745.0
SBGO 010600Z 11005KT CAVOK 18/17 Q1020,SBGO,2023-06-01T06:00:00Z,-16.62,-49.22,18.0,17.0,110,5,,6.21,30.11811,,,,,,,,,,,CAVOK,,,,,,,,VFR,,,,,,,,,,,,METAR,740.0
SBGL 010600Z 30008KT 8000 FEW015 BKN040 20/18 Q1017,SBGL,2023-06-01T06:00:00Z,-22.82,-43.25,20.0,18.0,300,8,,4.97,30.029528,,,,,,,,,,,FEW,1500,BKN,4000,,,,,MVFR,,,,,,,,,,,,METAR,3.0
SBFZ 010600Z 19003KT 9999 BKN017 27/24 Q1013,SBFZ,2023-06-01T06:00:00Z,-3.77,-38.52,27.0,24.0,190,3,,6.21,29.911417,,,,,,,,,,,BKN,1700,,,,,,,MVFR,,,,,,,,,,,,METAR,32.0
SBFN 010600Z AUTO 10004KT 060V120 9999 FEW017 26/24 Q1013,SBFN,2023-06-01T06:00:00Z,-3.85,-32.42,26.0,24.0,100,4,,6.21,29.911417,,,TRUE,,,,,,,,FEW,1700,,,,,,,VFR,,,,,,,,,,,,METAR,52.0
SBFL 010600Z 28005KT CAVOK 17/17 Q1020,SBFL,2023-06-01T06:00:00Z,-27.67,-48.53,17.0,17.0,280,5,,6.21,30.11811,,,,,,,,,,,CAVOK,,,,,,,,VFR,,,,,,,,,,,,METAR,5.0
SBFI 010600Z 14003KT 9999 BCFG NSC 16/16 Q1020,SBFI,2023-06-01T06:00:00Z,-25.6,-54.48,16.0,16.0,140,3,,6.21,30.11811,,,,,,,,,,BCFG,CLR,,,,,,,,VFR,,,,,,,,,,,,METAR,233.0
SBEG 010600Z 09003KT CAVOK 25/24 Q1013,SBEG,2023-06-01T06:00:00Z,-3.03,-60.03,25.0,24.0,90,3,,6.21,29.911417,,,,,,,,,,,CAVOK,,,,,,,,VFR,,,,,,,,,,,,METAR,69.0
SBDN 010600Z 10002KT CAVOK 15/15 Q1020,SBDN,2023-06-01T06:00:00Z,-22.18,-51.43,15.0,15.0,100,2,,6.21,30.11811,,,,,,,,,,,CAVOK,,,,,,,,VFR,,,,,,,,,,,,METAR,438.0
SBCZ 010600Z 00000KT CAVOK 22/22 Q1015,SBCZ,2023-06-01T06:00:00Z,-7.58,-72.77,22.0,22.0,0,0,,6.21,29.970472,,,,,,,,,,,CAVOK,,,,,,,,VFR,,,,,,,,,,,,METAR,193.0
SBCY 010600Z 20003KT CAVOK 21/20 Q1017,SBCY,2023-06-01T06:00:00Z,-15.65,-56.12,21.0,20.0,200,3,,6.21,30.029528,,,,,,,,,,,CAVOK,,,,,,,,VFR,,,,,,,,,,,,METAR,182.0
SBCT 010600Z VRB02KT 9000 OVC004 13/13 Q1023,SBCT,2023-06-01T06:00:00Z,-25.52,-49.17,13.0,13.0,0,2,,5.59,30.206694,,,,,,,,,,,OVC,400,,,,,,,LIFR,,,,,,,,,,,,METAR,914.0
SBCG 010600Z 10006KT 9999 SCT038 18/16 Q1019,SBCG,2023-06-01T06:00:00Z,-20.47,-54.67,18.0,16.0,100,6,,6.21,30.088583,,,,,,,,,,,SCT,3800,,,,,,,VFR,,,,,,,,,,,,METAR,556.0
SBCF 010600Z 13002KT 9999 BKN040 BKN100 18/15 Q1021,SBCF,2023-06-01T06:00:00Z,-19.63,-43.97,18.0,15.0,130,2,,6.21,30.147638,,,,,,,,,,,BKN,4000,BKN,10000,,,,,VFR,,,,,,,,,,,,METAR,825.0
SBBV 010600Z 13004KT 9999 FEW030 26/22 Q1013,SBBV,2023-06-01T06:00:00Z,2.85,-60.7,26.0,22.0,130,4,,6.21,29.911417,,,,,,,,,,,FEW,3000,,,,,,,VFR,,,,,,,,,,,,METAR,80.0
SBBR 010600Z 22002KT CAVOK 18/16 Q1022,SBBR,2023-06-01T06:00:00Z,-15.87,-47.92,18.0,16.0,220,2,,6.21,30.177166,,,,,,,,,,,CAVOK,,,,,,,,VFR,,,,,,,,,,,,METAR,1051.0
SBBH 010600Z 00000KT 9999 BKN035 BKN090 17/13 Q1021,SBBH,2023-06-01T06:00:00Z,-19.85,-43.95,17.0,13.0,0,0,,6.21,30.147638,,,,,,,,,,,BKN,3500,BKN,9000,,,,,VFR,,,,,,,,,,,,METAR,799.0
SBBG 010600Z AUTO VRB02KT CAVOK 11/11 Q1020,SBBG,2023-06-01T06:00:00Z,-31.38,-54.12,11.0,11.0,0,2,,6.21,30.11811,,,TRUE,,,,,,,,CAVOK,,,,,,,,VFR,,,,,,,,,,,,METAR,182.0
SBBE 010600Z 08003KT CAVOK 25/24 Q1013,SBBE,2023-06-01T06:00:00Z,-1.37,-48.47,25.0,24.0,80,3,,6.21,29.911417,,,,,,,,,,,CAVOK,,,,,,,,VFR,,,,,,,,,,,,METAR,16.0
SBAR 010600Z 23006KT 190V280 9999 SCT019 BKN033 23/22 Q1014,SBAR,2023-06-01T06:00:00Z,-10.98,-37.07,23.0,22.0,230,6,,6.21,29.940945,,,,,,,,,,,SCT,1900,BKN,3300,,,,,VFR,,,,,,,,,,,,METAR,4.0
SBAN 010600Z 10006KT CAVOK 17/16 Q1022,SBAN,2023-06-01T06:00:00Z,-16.22,-48.97,17.0,16.0,100,6,,6.21,30.177166,,,,,,,,,,,CAVOK,,,,,,,,VFR,,,,,,,,,,,,METAR,1131.0
SAZS 010600Z 17003KT 9999 FEW030 SCT200 01/M01 Q1017 RMK PP///,SAZS,2023-06-01T06:00:00Z,-41.15,-71.17,1.0,-1.0,170,3,,6.21,30.029528,,,,,,,,,,,FEW,3000,SCT,20000,,,,,VFR,,,,,,,,,,,,METAR,843.0
SAZN 010600Z 00000KT CAVOK 05/02 Q1019,SAZN,2023-06-01T06:00:00Z,-38.95,-68.15,5.0,2.0,0,0,,6.21,30.088583,,,,,,,,,,,CAVOK,,,,,,,,VFR,,,,,,,,,,,,METAR,273.0
SAZM 010600Z 30007KT CAVOK 09/08 Q1016 RMK PP///,SAZM,2023-06-01T06:00:00Z,-37.92,-57.57,9.0,8.0,300,7,,6.21,30.0,,,,,,,,,,,CAVOK,,,,,,,,VFR,,,,,,,,,,,,SPECI,17.0
SAWH 010600Z 06003KT 030V090 CAVOK 04/02 Q0999 RMK PP000,SAWH,2023-06-01T06:00:00Z,-54.85,-68.3,4.0,2.0,60,3,,6.21,29.498032,,,,,,,,,,,CAVOK,,,,,,,,VFR,,,,,,,,,,,,METAR,22.0
SAWG 010600Z 01006KT CAVOK 01/M01 Q1004,SAWG,2023-06-01T06:00:00Z,-51.62,-69.27,1.0,-1.0,10,6,,6.21,29.64567,,,,,,,,,,,CAVOK,,,,,,,,VFR,,,,,,,,,,,,METAR,15.0
SAWE 010600Z 30009KT CAVOK M00/M01 Q1003 RMK PP000,SAWE,2023-06-01T06:00:00Z,-53.78,-67.75,0.0,-1.0,300,9,,6.21,29.616142,,,,,,,,,,,CAVOK,,,,,,,,VFR,,,,,,,,,,,,SPECI,22.0
SAVC 010600Z 26013KT CAVOK 11/02 Q1013 RMK PP000,SAVC,2023-06-01T06:00:00Z,-45.78,-67.47,11.0,2.0,260,13,,6.21,29.911417,,,,,,,,,,,CAVOK,,,,,,,,VFR,,,,,,,,,,,,SPECI,58.0
SASJ 010600Z 33006KT 9999 FEW040 10/10 Q1019 RMK PP000,SASJ,2023-06-01T06:00:00Z,-24.38,-65.1,10.0,10.0,330,6,,6.21,30.088583,,,,,,,,,,,FEW,4000,,,,,,,VFR,,,,,,,,,,,,SPECI,913.0
SASA 010600Z 23004KT 9999 SCT008 OVC020 09/08 Q1020 RMK PP000,SASA,2023-06-01T06:00:00Z,-24.85,-65.48,9.0,8.0,230,4,,6.21,30.11811,,,,,,,,,,,SCT,800,OVC,2000,,,,,MVFR,,,,,,,,,,,,SPECI,1235.0
SARL 010600Z 36002KT 8000 FEW015 BKN100 18/17 Q1019,SARL,2023-06-01T06:00:00Z,-29.68,-57.15,18.0,17.0,360,2,,4.97,30.088583,,,,,,,,,,,FEW,1500,BKN,10000,,,,,MVFR,,,,,,,,,,,,METAR,70.0
SARI 010600Z 16003KT 140V200 CAVOK 16/16 Q1020 RMK PP000,SARI,2023-06-01T06:00:00Z,-25.73,-54.47,16.0,16.0,160,3,,6.21,30.11811,,,,,,,,,,,CAVOK,,,,,,,,VFR,,,,,,,,,,,,SPECI,268.0
SARF 010600Z 00000KT 0800 FG NSC 15/15 Q1018,SARF,2023-06-01T06:00:00Z,-26.22,-58.22,15.0,15.0,0,0,,0.5,30.059055,,,,,,,,,,FG,CLR,,,,,,,,LIFR,,,,,,,,,,,,METAR,65.0
SARE 010600Z 06002KT 0050 R21/0275N FG NSC 14/14 Q1019 RMK PP///,SARE,2023-06-01T06:00:00Z,-27.43,-59.05,14.0,14.0,60,2,,0.03,30.088583,,,,,,,,,,FG,CLR,,,,,,,,LIFR,,,,,,,,,,,,SPECI,52.0
SARC 010600Z 14001KT CAVOK 16/15 Q1019,SARC,2023-06-01T06:00:00Z,-27.43,-58.77,16.0,15.0,140,1,,6.21,30.088583,,,,,,,,,,,CAVOK,,,,,,,,VFR,,,,,,,,,,,,METAR,60.0
SAOC 010600Z 27005KT CAVOK 08/07 Q1018,SAOC,2023-06-01T06:00:00Z,-33.08,-64.27,8.0,7.0,270,5,,6.21,30.059055,,,,,,,,,,,CAVOK,,,,,,,,VFR,,,,,,,,,,,,METAR,422.0
SANT 010600Z 36004KT 8000 SCT029 11/11 Q1017 RMK PP000,SANT,2023-06-01T06:00:00Z,-26.85,-65.1,11.0,11.0,360,4,,4.97,30.029528,,,,,,,,,,,SCT,2900,,,,,,,MVFR,,,,,,,,,,,,SPECI,446.0
SAME 010600Z 00000KT 6000 NSC 09/06 Q1018,SAME,2023-06-01T06:00:00Z,-32.82,-68.78,9.0,6.0,0,0,,3.73,30.059055,,,,,,,,,,,CLR,,,,,,,,MVFR,,,,,,,,,,,,METAR,709.0
SAEZ 010600Z 30004KT CAVOK 15/13 Q1018 NOSIG RMK PP000,SAEZ,2023-06-01T06:00:00Z,-34.82,-58.53,15.0,13.0,300,4,,6.21,30.059055,,,,,,TRUE,,,,,CAVOK,,,,,,,,VFR,,,,,,,,,,,,SPECI,16.0
SADF 010600Z VRB02KT CAVOK 14/13 Q1018 RMK PP000,SADF,2023-06-01T06:00:00Z,-34.45,-58.58,14.0,13.0,0,2,,6.21,30.059055,,,,,,,,,,,CAVOK,,,,,,,,VFR,,,,,,,,,,,,METAR,4.0
SACO 010600Z 31005KT CAVOK 09/07 Q1018 NOSIG RMK PP000,SACO,2023-06-01T06:00:00Z,-31.32,-64.22,9.0,7.0,310,5,,6.21,30.059055,,,,,,TRUE,,,,,CAVOK,,,,,,,,VFR,,,,,,,,,,,,SPECI,474.0
SABE 010600Z 30003KT 220V320 CAVOK 16/13 Q1018 NOSIG RMK PP000,SABE,2023-06-01T06:00:00Z,-34.57,-58.42,16.0,13.0,300,3,,6.21,30.059055,,,,,,TRUE,,,,,CAVOK,,,,,,,,VFR,,,,,,,,,,,,SPECI,3.0
SAAR 010600Z 00000KT 7000 NSC 14/13 Q1018 RMK PP000,SAAR,2023-06-01T06:00:00Z,-32.92,-60.77,14.0,13.0,0,0,,4.35,30.059055,,,,,,,,,,,CLR,,,,,,,,MVFR,,,,,,,,,,,,SPECI,24.0
"RPVP 010600Z 21012KT 9999 FEW017CB SCT019 BKN080 31/27 Q1007 RMK A2974 CB E,SW S",RPVP,2023-06-01T06:00:00Z,9.75,118.75,31.0,27.0,210,12,,6.21,29.734253,,,,,,,,,,,FEW,1700,SCT,1900,BKN,8000,,,VFR,,,,,,,,,,,,METAR,15.0
RPVM 010600Z 22008KT 8000 -SHRA SCT018CB OVC090 26/24 Q1010 NOSIG RMK A2983 CB ALQDS,RPVM,2023-06-01T06:00:00Z,10.32,123.98,26.0,24.0,220,8,,4.97,29.822834,,,,,,TRUE,,,,-SHRA,SCT,1800,OVC,9000,,,,,MVFR,,,,,,,,,,,,METAR,9.0
RPVD 010600Z 36009KT 9999 VCSH FEW014CB BKN070 19/15 Q1007 RMK A2974 CB NW VCSH NW-N,RPVD,2023-06-01T06:00:00Z,9.33,123.3,19.0,15.0,360,9,,6.21,29.734253,,,,,,,,,,VCSH,FEW,1400,BKN,7000,,,,,VFR,,,,,,,,,,,,METAR,11.0
RPMZ 010600Z 23006KT 170V280 9999 FEW017 SCT300 32/26 Q1008 RMK A2977,RPMZ,2023-06-01T06:00:00Z,6.92,122.07,32.0,26.0,230,6,,6.21,29.763779,,,,,,,,,,,FEW,1700,SCT,30000,,,,,VFR,,,,,,,,,,,,SPECI,8.0
RPMR 010600Z 06015KT 9999 FEW017CB BKN080 29/26 Q1008 RMK A2977 CB NW-N,RPMR,2023-06-01T06:00:00Z,6.05,125.1,29.0,26.0,60,15,,6.21,29.763779,,,,,,,,,,,FEW,1700,BKN,8000,,,,,VFR,,,,,,,,,,,,METAR,47.0
RPMD 010600Z 17006KT 140V210 9999 FEW020 SCT070 BKN260 32/25 Q1008 RMK A2977,RPMD,2023-06-01T06:00:00Z,7.12,125.65,32.0,25.0,170,6,,6.21,29.763779,,,,,,,,,,,FEW,2000,SCT,7000,BKN,26000,,,VFR,,,,,,,,,,,,METAR,19.0
RPLL 010600Z 26014KT 9999 FEW025 SCT100 32/26 Q1005 NOSIG RMK A2968,RPLL,2023-06-01T06:00:00Z,14.52,121.0,32.0,26.0,260,14,,6.21,29.675198,,,,,,TRUE,,,,,FEW,2500,SCT,10000,,,,,VFR,,,,,,,,,,,,METAR,15.0
RPLI 010600Z 26008KT 220V290 9999 FEW017CB BKN080 32/26 Q1004 NOSIG RMK A2965 CB E-S,RPLI,2023-06-01T06:00:00Z,18.17,120.52,32.0,26.0,260,8,,6.21,29.64567,,,,,,TRUE,,,,,FEW,1700,BKN,8000,,,,,VFR,,,,,,,,,,,,SPECI,5.0
RPLC 010600Z 27004KT 9999 SCT020 BKN300 36/22 Q1005 NOSIG RMK A2968,RPLC,2023-06-01T06:00:00Z,15.18,120.55,36.0,22.0,270,4,,6.21,29.675198,,,,,,TRUE,,,,,SCT,2000,BKN,30000,,,,,VFR,,,,,,,,,,,,METAR,138.0
RPLB 010600Z 21008KT 9999 BKN020 31/26 Q1005 NOSIG RMK A2968,RPLB,2023-06-01T06:00:00Z,14.8,120.27,31.0,26.0,210,8,,6.21,29.675198,,,,,,TRUE,,,,,BKN,2000,,,,,,,MVFR,,,,,,,,,,,,METAR,19.0
ROYN 010600Z AUTO 33040KT 4900 -RA BR FEW009 SCT022 BKN029 25/24 Q0993,ROYN,2023-06-01T06:00:00Z,24.47,122.97,25.0,24.0,330,40,,3.04,29.320866,,,TRUE,,,,,,,-RA BR,FEW,900,SCT,2200,BKN,2900,,,MVFR,,,,,,,,,,,,METAR,21.0
RORY 010600Z AUTO 12027G39KT 7000 -RA BKN016 OVC024 26/25 Q0993,RORY,2023-06-01T06:00:00Z,27.05,128.4,26.0,25.0,120,27,39,4.35,29.320866,,,TRUE,,,,,,,-RA,BKN,1600,OVC,2400,,,,,MVFR,,,,,,,,,,,,METAR,13.0
RORT 010600Z AUTO 33028G43KT 3400 -RA BR FEW004 OVC007 26/26 Q0984,RORT,2023-06-01T06:00:00Z,24.63,124.7,26.0,26.0,330,28,43,2.11,29.055119,,,TRUE,,,,,,,-RA BR,FEW,400,OVC,700,,,,,IFR,,,,,,,,,,,,METAR,9.0
RORS 010600Z 32030KT 9000 SCT009 BKN011 27/25 Q0980,RORS,2023-06-01T06:00:00Z,24.82,125.15,27.0,25.0,320,30,,5.59,28.937008,,,,,,,,,,,SCT,900,BKN,1100,,,,,MVFR,,,,,,,,,,,,METAR,13.0
RORK 010600Z AUTO 13030KT 5000 -RA BR BKN014 OVC022 26/25 Q1000,RORK,2023-06-01T06:00:00Z,25.93,131.32,26.0,25.0,130,30,,3.11,29.52756,,,TRUE,,,,,,,-RA BR,BKN,1400,OVC,2200,,,,,MVFR,,,,,,,,,,,,METAR,11.0
ROMY 010600Z 32021G33KT 7000 -SHRA FEW006 SCT009 BKN011 26/26 Q0979,ROMY,2023-06-01T06:00:00Z,24.78,125.27,26.0,26.0,320,21,33,4.35,28.90748,,,,,,,,,,-SHRA,FEW,600,SCT,900,BKN,1100,,,MVFR,,,,,,,,,,,,METAR,38.0
ROMD 010600Z AUTO 15019G29KT 5000 -RA BR OVC010 26/25 Q1000,ROMD,2023-06-01T06:00:00Z,25.83,131.25,26.0,25.0,150,19,29,3.11,29.52756,,,TRUE,,,,,,,-RA BR,OVC,1000,,,,,,,MVFR,,,,,,,,,,,,METAR,45.0
ROIG 010600Z 31022G42KT 3500 -SHRA BR SCT007 BKN010 26/25 Q0987,ROIG,2023-06-01T06:00:00Z,24.38,124.23,26.0,25.0,310,22,42,2.17,29.143702,,,,,,,,,,-SHRA BR,SCT,700,BKN,1000,,,,,IFR,,,,,,,,,,,,METAR,37.0
RKTU 010600Z 26003KT 9999 FEW030 BKN080 BKN150 27/17 Q1005,RKTU,2023-06-01T06:00:00Z,36.7,127.5,27.0,17.0,260,3,,6.21,29.675198,,,,,,,,,,,FEW,3000,BKN,8000,BKN,15000,,,VFR,,,,,,,,,,,,METAR,46.0
RKTN 010600Z 13005KT 9999 FEW030 BKN080 BKN150 21/17 Q1006,RKTN,2023-06-01T06:00:00Z,35.88,128.65,21.0,17.0,130,5,,6.21,29.704725,,,,,,,,,,,FEW,3000,BKN,8000,BKN,15000,,,VFR,,,,,,,,,,,,METAR,25.0
RKSS 010600Z 33003KT 9999 SCT040 BKN180 27/18 Q1005 NOSIG,RKSS,2023-06-01T06:00:00Z,37.55,126.78,27.0,18.0,330,3,,6.21,29.675198,,,,,,TRUE,,,,,SCT,4000,BKN,18000,,,,,VFR,,,,,,,,,,,,METAR,18.0
RKSM 010600Z 31003KT 9999 FEW060 BKN180 26/16 A2968,RKSM,2023-06-01T06:00:00Z,37.43,127.12,26.0,16.0,310,3,,6.21,29.681103,,,,,,,,,,,FEW,6000,BKN,18000,,,,,VFR,,,,,,,,,,,,METAR,18.0
RKPK 010600Z 31004KT 8000 FEW010 OVC030 18/16 Q1007,RKPK,2023-06-01T06:00:00Z,35.17,128.93,18.0,16.0,310,4,,4.97,29.734253,,,,,,,,,,,FEW,1000,OVC,3000,,,,,MVFR,,,,,,,,,,,,METAR,3.0
RKNY 010600Z 11003KT CAVOK 23/15 Q1004 NOSIG,RKNY,2023-06-01T06:00:00Z,38.07,128.67,23.0,15.0,110,3,,6.21,29.64567,,,,,,TRUE,,,,,CAVOK,,,,,,,,VFR,,,,,,,,,,,,METAR,76.0
RKJB 010600Z 11003KT 5000 -RA BR FEW010 BKN025 OVC080 20/18 Q1005 NOSIG,RKJB,2023-06-01T06:00:00Z,34.98,126.38,20.0,18.0,110,3,,3.11,29.675198,,,,,,TRUE,,,,-RA BR,FEW,1000,BKN,2500,OVC,8000,,,MVFR,,,,,,,,,,,,METAR,16.0
RJTO 010600Z 21009KT 170V250 9999 FEW025 BKN/// 24/17 Q1013,RJTO,2023-06-01T06:00:00Z,34.77,139.37,24.0,17.0,210,9,,6.21,29.911417,,,,,,,,,,,FEW,2500,,,,,,,VFR,,,,,,,,,,,,METAR,37.0
RJTI 010600Z 20013KT 160V230 9999 FEW030 SCT060 BKN/// 23/15 Q1013,RJTI,2023-06-01T06:00:00Z,35.63,139.83,23.0,15.0,200,13,,6.21,29.911417,,,,,,,,,,,FEW,3000,SCT,6000,,,,,VFR,,,,,,,,,,,,METAR,4.0
RJTF 010600Z 18012G22KT 150V220 9999 FEW030 BKN/// 24/16 Q1012,RJTF,2023-06-01T06:00:00Z,35.67,139.52,24.0,16.0,180,12,22,6.21,29.88189,,,,,,,,,,,FEW,3000,,,,,,,VFR,,,,,,,,,,,,METAR,37.0
RJSY 010600Z 27006KT 9999 FEW040 SCT150 OVC/// 21/12 Q1009,RJSY,2023-06-01T06:00:00Z,38.82,139.78,21.0,12.0,270,6,,6.21,29.793306,,,,,,,,,,,FEW,4000,SCT,15000,,,,,VFR,,,,,,,,,,,,METAR,17.0
RJSS 010600Z 16018KT 9999 FEW040 BKN/// 22/16 Q1009,RJSS,2023-06-01T06:00:00Z,38.13,140.92,22.0,16.0,160,18,,6.21,29.793306,,,,,,,,,,,FEW,4000,,,,,,,VFR,,,,,,,,,,,,METAR,5.0
RJSR 010600Z 23014KT 190V250 9999 FEW040 BKN/// 23/08 Q1009,RJSR,2023-06-01T06:00:00Z,40.18,140.37,23.0,8.0,230,14,,6.21,29.793306,,,,,,,,,,,FEW,4000,,,,,,,VFR,,,,,,,,,,,,METAR,83.0
RJSN 010600Z 31005KT 9999 FEW050 BKN/// 22/13 Q1009,RJSN,2023-06-01T06:00:00Z,37.95,139.12,22.0,13.0,310,5,,6.21,29.793306,,,,,,,,,,,FEW,5000,,,,,,,VFR,,,,,,,,,,,,METAR,4.0
RJSM 010600Z 12013KT 9999 FEW040 BKN200 19/10 Q1008,RJSM,2023-06-01T06:00:00Z,40.7,141.37,19.0,10.0,120,13,,6.21,29.763779,,,,,,,,,,,FEW,4000,BKN,20000,,,,,VFR,,,,,,,,,,,,METAR,31.0
RJSK 010600Z 23008KT 180V280 9999 FEW040 SCT150 BKN/// 23/09 Q1009,RJSK,2023-06-01T06:00:00Z,39.62,140.22,23.0,9.0,230,8,,6.21,29.793306,,,,,,,,,,,FEW,4000,SCT,15000,,,,,VFR,,,,,,,,,,,,METAR,95.0
RJSI 010600Z 18015KT 9999 FEW050 BKN/// 23/12 Q1010,RJSI,2023-06-01T06:00:00Z,39.42,141.13,23.0,12.0,180,15,,6.21,29.822834,,,,,,,,,,,FEW,5000,,,,,,,VFR,,,,,,,,,,,,METAR,89.0
RJSF 010600Z 18010KT 140V220 9999 FEW045 BKN/// 21/12 Q1012,RJSF,2023-06-01T06:00:00Z,37.22,140.42,21.0,12.0,180,10,,6.21,29.88189,,,,,,,,,,,FEW,4500,,,,,,,VFR,,,,,,,,,,,,METAR,373.0
RJSC 010600Z 31004KT 280V360 9999 FEW050 BKN/// 26/13 Q1009,RJSC,2023-06-01T06:00:00Z,38.42,140.37,26.0,13.0,310,4,,6.21,29.793306,,,,,,,,,,,FEW,5000,,,,,,,VFR,,,,,,,,,,,,METAR,104.0
RJSA 010600Z 26011KT 220V290 9999 FEW040 BKN/// 23/06 Q1008,RJSA,2023-06-01T06:00:00Z,40.72,140.68,23.0,6.0,260,11,,6.21,29.763779,,,,,,,,,,,FEW,4000,,,,,,,VFR,,,,,,,,,,,,METAR,196.0
RJOY 010600Z 32004KT 270V020 9999 FEW025 SCT050 BKN060 25/18 Q1009,RJOY,2023-06-01T06:00:00Z,34.6,135.6,25.0,18.0,320,4,,6.21,29.793306,,,,,,,,,,,FEW,2500,SCT,5000,BKN,6000,,,VFR,,,,,,,,,,,,METAR,10.0
RJOW 010600Z 16013KT 120V190 9999 FEW025 SCT035 BKN045 24/18 Q1006,RJOW,2023-06-01T06:00:00Z,34.67,131.8,24.0,18.0,160,13,,6.21,29.704725,,,,,,,,,,,FEW,2500,SCT,3500,BKN,4500,,,VFR,,,,,,,,,,,,METAR,54.0
RJOT 010600Z 01004KT 330V080 9999 FEW020 BKN060 BKN/// 23/17 Q1009,RJOT,2023-06-01T06:00:00Z,34.22,134.02,23.0,17.0,10,4,,6.21,29.793306,,,,,,,,,,,FEW,2000,BKN,6000,,,,,VFR,,,,,,,,,,,,METAR,181.0
RJOS 010600Z 17014KT 9999 FEW020 BKN100 BKN150 23/19 Q1009,RJOS,2023-06-01T06:00:00Z,34.12,134.62,23.0,19.0,170,14,,6.21,29.793306,,,,,,,,,,,FEW,2000,BKN,10000,BKN,15000,,,VFR,,,,,,,,,,,,METAR,3.0
RJOR 010600Z 17012KT 140V200 9999 FEW040 SCT100 BKN150 25/17 Q1007,RJOR,2023-06-01T06:00:00Z,35.52,134.17,25.0,17.0,170,12,,6.21,29.734253,,,,,,,,,,,FEW,4000,SCT,10000,BKN,15000,,,VFR,,,,,,,,,,,,METAR,11.0
RJOO 010600Z VRB03KT 9999 FEW020 BKN050 24/18 Q1009,RJOO,2023-06-01T06:00:00Z,34.78,135.43,24.0,18.0,0,3,,6.21,29.793306,,,,,,,,,,,FEW,2000,BKN,5000,,,,,VFR,,,,,,,,,,,,METAR,11.0
RJOM 010600Z 32006KT 9999 FEW010 BKN040 21/16 Q1008,RJOM,2023-06-01T06:00:00Z,33.82,132.68,21.0,16.0,320,6,,6.21,29.763779,,,,,,,,,,,FEW,1000,BKN,4000,,,,,VFR,,,,,,,,,,,,METAR,3.0
RJOK 010600Z 34005KT 5000 -SHRA BR FEW008 BKN015 BKN030 20/18 Q1010,RJOK,2023-06-01T06:00:00Z,33.53,133.67,20.0,18.0,340,5,,3.11,29.822834,,,,,,,,,,-SHRA BR,FEW,800,BKN,1500,BKN,3000,,,MVFR,,,,,,,,,,,,METAR,7.0
RJOH 010600Z 17010KT 140V210 9999 -SHRA FEW020 SCT030 BKN050 25/17 Q1006,RJOH,2023-06-01T06:00:00Z,35.48,133.25,25.0,17.0,170,10,,6.21,29.704725,,,,,,,,,,-SHRA,FEW,2000,SCT,3000,BKN,5000,,,VFR,,,,,,,,,,,,METAR,6.0
RJOC 010600Z 18005KT 150V210 6000 -SHRA BR FEW006 SCT030 BKN045 23/19 Q1006,RJOC,2023-06-01T06:00:00Z,35.42,132.88,23.0,19.0,180,5,,3.73,29.704725,,,,,,,,,,-SHRA BR,FEW,600,SCT,3000,BKN,4500,,,MVFR,,,,,,,,,,,,METAR,2.0
RJOB 010600Z 09005KT 9999 FEW020 BKN040 BKN060 22/18 Q1009,RJOB,2023-06-01T06:00:00Z,34.75,133.85,22.0,18.0,90,5,,6.21,29.793306,,,,,,,,,,,FEW,2000,BKN,4000,BKN,6000,,,VFR,,,,,,,,,,,,METAR,242.0
RJOA 010600Z 10004KT 070V140 9999 FEW020 BKN030 20/16 Q1009,RJOA,2023-06-01T06:00:00Z,34.43,132.92,20.0,16.0,100,4,,6.21,29.793306,,,,,,,,,,,FEW,2000,BKN,3000,,,,,MVFR,,,,,,,,,,,,METAR,318.0
RJNW 010600Z 23007KT CAVOK 23/16 Q1009,RJNW,2023-06-01T06:00:00Z,37.3,136.97,23.0,16.0,230,7,,6.21,29.793306,,,,,,,,,,,CAVOK,,,,,,,,VFR,,,,,,,,,,,,METAR,222.0
RJNT 010600Z 36012KT 9999 FEW050 BKN/// 26/13 Q1008,RJNT,2023-06-01T06:00:00Z,36.63,137.18,26.0,13.0,360,12,,6.21,29.763779,,,,,,,,,,,FEW,5000,,,,,,,VFR,,,,,,,,,,,,METAR,30.0
RJNS 010600Z 12004KT 080V170 9999 FEW010 BKN020 BKN050 22/17 Q1014,RJNS,2023-06-01T06:00:00Z,34.8,138.18,22.0,17.0,120,4,,6.21,29.940945,,,,,,,,,,,FEW,1000,BKN,2000,BKN,5000,,,MVFR,,,,,,,,,,,,METAR,133.0
RJNK 010600Z 20012KT 160V230 9999 FEW060 BKN260 29/14 Q1007,RJNK,2023-06-01T06:00:00Z,36.38,136.42,29.0,14.0,200,12,,6.21,29.734253,,,,,,,,,,,FEW,6000,BKN,26000,,,,,VFR,,,,,,,,,,,,METAR,7.0
RJKI 010600Z AUTO 11017G28KT 080V150 3500 RA BR BKN005 BKN009 OVC037 //////TCU 25/24 Q1000,RJKI,2023-06-01T06:00:00Z,28.32,129.92,25.0,24.0,110,17,28,2.17,29.52756,,,TRUE,,,,,,,RA BR,BKN,500,BKN,900,OVC,3700,,,IFR,,,,,,,,,,,,METAR,6.0
RJKA 010600Z 11018KT 2000 R03/2000N -SHRA FEW005 SCT010 BKN015 25/24 Q1000,RJKA,2023-06-01T06:00:00Z,28.42,129.72,25.0,24.0,110,18,,1.24,29.52756,,,,,,,,,,-SHRA,FEW,500,SCT,1000,BKN,1500,,,IFR,,,,,,,,,,,,METAR,7.0
RJFU 010600Z 01003KT 320V080 9999 FEW005 BKN140 BKN150 24/23 Q1006,RJFU,2023-06-01T06:00:00Z,32.92,129.92,24.0,23.0,10,3,,6.21,29.704725,,,,,,,,,,,FEW,500,BKN,14000,BKN,15000,,,VFR,,,,,,,,,,,,METAR,2.0
RJFT 010600Z 15003KT 090V210 9999 -SHRA FEW005 SCT010 BKN140 24/22 Q1007,RJFT,2023-06-01T06:00:00Z,32.83,130.85,24.0,22.0,150,3,,6.21,29.734253,,,,,,,,,,-SHRA,FEW,500,SCT,1000,BKN,14000,,,VFR,,,,,,,,,,,,METAR,188.0
RJFS 010600Z VRB01KT 9999 FEW010 SCT080 BKN150 24/23 Q1006,RJFS,2023-06-01T06:00:00Z,33.15,130.3,24.0,23.0,0,1,,6.21,29.704725,,,,,,,,,,,FEW,1000,SCT,8000,BKN,15000,,,VFR,,,,,,,,,,,,METAR,2.0
RJFR 010600Z 08014KT 9999 SHRA FEW010 SCT025 BKN035 20/19 Q1007,RJFR,2023-06-01T06:00:00Z,33.83,131.03,20.0,19.0,80,14,,6.21,29.734253,,,,,,,,,,SHRA,FEW,1000,SCT,2500,BKN,3500,,,VFR,,,,,,,,,,,,METAR,9.0
RJFO 010600Z 16013KT 9999 FEW010 BKN020 BKN025 21/19 Q1008,RJFO,2023-06-01T06:00:00Z,33.47,131.73,21.0,19.0,160,13,,6.21,29.763779,,,,,,,,,,,FEW,1000,BKN,2000,BKN,2500,,,MVFR,,,,,,,,,,,,METAR,3.0
RJFM 010600Z 01011KT 3000 R27/2000N SHRA BR FEW002 BKN005 BKN012 20/20 Q1008,RJFM,2023-06-01T06:00:00Z,31.87,131.43,20.0,20.0,10,11,,1.86,29.763779,,,,,,,,,,SHRA BR,FEW,200,BKN,500,BKN,1200,,,IFR,,,,,,,,,,,,METAR,10.0
RJFK 010600Z 10010KT 9999 -SHRA BCFG FEW005 SCT020 BKN035 20/19 Q1008,RJFK,2023-06-01T06:00:00Z,31.8,130.72,20.0,19.0,100,10,,6.21,29.763779,,,,,,,,,,-SHRA BCFG,FEW,500,SCT,2000,BKN,3500,,,VFR,,,,,,,,,,,,METAR,271.0
RJFG 010600Z 13008KT 0200 R31/0200N -SHRA FG VV001 24/24 Q1007,RJFG,2023-06-01T06:00:00Z,30.62,130.98,24.0,24.0,130,8,,0.12,29.734253,,,,,,,,,,-SHRA FG,OVX,0,,,,,,,LIFR,,,,,,,,,,,100,METAR,234.0
RJFE 010600Z VRB03KT 7000 FEW002 BKN007 BKN015 22/21 Q1005,RJFE,2023-06-01T06:00:00Z,32.67,128.82,22.0,21.0,0,3,,4.35,29.675198,,,,,,,,,,,FEW,200,BKN,700,BKN,1500,,,IFR,,,,,,,,,,,,METAR,80.0
RJEC 010600Z 21010KT 180V250 9999 FEW030 SCT140 BKN/// 22/06 Q1004,RJEC,2023-06-01T06:00:00Z,43.67,142.43,22.0,6.0,210,10,,6.21,29.64567,,,,,,,,,,,FEW,3000,SCT,14000,,,,,VFR,,,,,,,,,,,,METAR,209.0
RJEB 010600Z 22008KT 180V260 9999 FEW050 SCT080 BKN/// 24/06 Q1002,RJEB,2023-06-01T06:00:00Z,44.3,143.4,24.0,6.0,220,8,,6.21,29.586615,,,,,,,,,,,FEW,5000,SCT,8000,,,,,VFR,,,,,,,,,,,,METAR,24.0
RJDT 010600Z 14004KT 110V200 2200 SHRA BR FEW001 SCT002 BKN003 20/20 Q1006,RJDT,2023-06-01T06:00:00Z,34.28,129.32,20.0,20.0,140,4,,1.37,29.704725,,,,,,,,,,SHRA BR,FEW,100,SCT,200,BKN,300,,,LIFR,,,,,,,,,,,,METAR,61.0
RJDC 010600Z 09018KT 9999 VCSH FEW020 SCT040 BKN080 21/18 Q1007,RJDC,2023-06-01T06:00:00Z,33.92,131.27,21.0,18.0,90,18,,6.21,29.734253,,,,,,,,,,VCSH,FEW,2000,SCT,4000,BKN,8000,,,VFR,,,,,,,,,,,,METAR,5.0
RJDB 010600Z AUTO VRB02KT 6000 RA FEW012 SCT070 BKN080 //////CB 22/21 Q1005,RJDB,2023-06-01T06:00:00Z,33.75,129.78,22.0,21.0,0,2,,3.73,29.675198,,,TRUE,,,,,,,RA,FEW,1200,SCT,7000,BKN,8000,,,MVFR,,,,,,,,,,,,METAR,13.0
RJCW 010600Z 22021KT 9999 -SHRA FEW020 SCT040 BKN100 16/11 Q1001,RJCW,2023-06-01T06:00:00Z,45.4,141.8,16.0,11.0,220,21,,6.21,29.557087,,,,,,,,,,-SHRA,FEW,2000,SCT,4000,BKN,10000,,,VFR,,,,,,,,,,,,METAR,11.0
RJCO 010600Z 21010KT 9999 FEW040 SCT150 BKN230 25/07 Q1006,RJCO,2023-06-01T06:00:00Z,43.12,141.37,25.0,7.0,210,10,,6.21,29.704725,,,,,,,,,,,FEW,4000,SCT,15000,BKN,23000,,,VFR,,,,,,,,,,,,METAR,7.0
RJCN 010600Z 20009KT 9999 FEW030 BKN/// 22/05 Q1004,RJCN,2023-06-01T06:00:00Z,43.57,144.97,22.0,5.0,200,9,,6.21,29.64567,,,,,,,,,,,FEW,3000,,,,,,,VFR,,,,,,,,,,,,METAR,62.0
RJCM 010600Z VRB04KT 9999 FEW060 SCT090 25/04 Q1003,RJCM,2023-06-01T06:00:00Z,43.88,144.17,25.0,4.0,0,4,,6.21,29.616142,,,,,,,,,,,FEW,6000,SCT,9000,,,,,VFR,,,,,,,,,,,,METAR,30.0
RJCK 010600Z 21015KT 9999 FEW040 BKN/// 19/09 Q1005,RJCK,2023-06-01T06:00:00Z,43.03,144.18,19.0,9.0,210,15,,6.21,29.675198,,,,,,,,,,,FEW,4000,,,,,,,VFR,,,,,,,,,,,,METAR,94.0
RJCH 010600Z 21010KT 9999 FEW040 SCT/// 19/10 Q1008,RJCH,2023-06-01T06:00:00Z,41.77,140.82,19.0,10.0,210,10,,6.21,29.763779,,,,,,,,,,,FEW,4000,,,,,,,VFR,,,,,,,,,,,,METAR,36.0
RJCB 010600Z 22008G18KT 160V260 9999 FEW040 SCT/// 24/07 Q1005,RJCB,2023-06-01T06:00:00Z,42.72,143.22,24.0,7.0,220,8,18,6.21,29.675198,,,,,,,,,,,FEW,4000,,,,,,,VFR,,,,,,,,,,,,METAR,149.0
RJBT 010600Z 17011KT 120V210 9999 FEW025 SCT035 BKN170 24/18 Q1008,RJBT,2023-06-01T06:00:00Z,35.5,134.8,24.0,18.0,170,11,,6.21,29.763779,,,,,,,,,,,FEW,2500,SCT,3500,BKN,17000,,,VFR,,,,,,,,,,,,METAR,172.0
RJBE 010600Z 25008KT 9999 FEW020 SCT040 BKN060 23/20 Q1009,RJBE,2023-06-01T06:00:00Z,34.63,135.23,23.0,20.0,250,8,,6.21,29.793306,,,,,,,,,,,FEW,2000,SCT,4000,BKN,6000,,,VFR,,,,,,,,,,,,METAR,5.0
RJBD 010600Z 12008KT 9999 FEW010 SCT015 BKN030 23/19 Q1011,RJBD,2023-06-01T06:00:00Z,33.67,135.37,23.0,19.0,120,8,,6.21,29.852362,,,,,,,,,,,FEW,1000,SCT,1500,BKN,3000,,,MVFR,,,,,,,,,,,,METAR,91.0
RJAW 010600Z 13010KT 100V160 9999 FEW010 BKN/// 29/24 Q1013 RMK 2CU010 A2992 WIND BY EQPT/25,RJAW,2023-06-01T06:00:00Z,24.78,141.32,29.0,24.0,130,10,,6.21,29.911417,,,,,,,,,,,FEW,1000,,,,,,,VFR,,,,,,,,,,,,SPECI,116.0
RJAH 010600Z 17015KT 9999 FEW030 SCT050 BKN230 24/11 Q1012,RJAH,2023-06-01T06:00:00Z,36.17,140.42,24.0,11.0,170,15,,6.21,29.88189,,,,,,,,,,,FEW,3000,SCT,5000,BKN,23000,,,VFR,,,,,,,,,,,,METAR,31.0
RJAF 010600Z 18021KT 9999 FEW060 BKN/// 25/11 Q1011,RJAF,2023-06-01T06:00:00Z,36.17,137.92,25.0,11.0,180,21,,6.21,29.852362,,,,,,,,,,,FEW,6000,,,,,,,VFR,,,,,,,,,,,,METAR,652.0
PLCH 010600Z 08003KT 9999 FEW020 SCT300 28/24 Q1011,PLCH,2023-06-01T06:00:00Z,1.98,-157.35,28.0,24.0,80,3,,6.21,29.852362,,,,,,,,,,,FEW,2000,SCT,30000,,,,,VFR,,,,,,,,,,,,METAR,5.0
OTHH 010600Z 31014KT CAVOK 37/16 Q1008 NOSIG,OTHH,2023-06-01T06:00:00Z,25.27,51.6,37.0,16.0,310,14,,6.21,29.763779,,,,,,TRUE,,,,,CAVOK,,,,,,,,VFR,,,,,,,,,,,,METAR,3.0
OSLK 010600Z 34004KT CAVOK 24/15 Q1014,OSLK,2023-06-01T06:00:00Z,35.4,35.95,24.0,15.0,340,4,,6.21,29.940945,,,,,,,,,,,CAVOK,,,,,,,,VFR,,,,,,,,,,,,METAR,47.0
OSKL 010600Z 28006KT CAVOK 29/03 Q1011,OSKL,2023-06-01T06:00:00Z,37.03,41.2,29.0,3.0,280,6,,6.21,29.852362,,,,,,,,,,,CAVOK,,,,,,,,VFR,,,,,,,,,,,,METAR,443.0
OSDI 010600Z 29004KT CAVOK 23/04 Q1017,OSDI,2023-06-01T06:00:00Z,33.42,36.52,23.0,4.0,290,4,,6.21,30.029528,,,,,,,,,,,CAVOK,,,,,,,,VFR,,,,,,,,,,,,METAR,614.0
OSAP 010600Z 31004KT CAVOK 21/14 Q1015,OSAP,2023-06-01T06:00:00Z,36.17,37.22,21.0,14.0,310,4,,6.21,29.970472,,,,,,,,,,,CAVOK,,,,,,,,VFR,,,,,,,,,,,,METAR,390.0
ORSU 010600Z 09006KT CAVOK 29/08 Q1016,ORSU,2023-06-01T06:00:00Z,35.57,45.32,29.0,8.0,90,6,,6.21,30.0,,,,,,,,,,,CAVOK,,,,,,,,VFR,,,,,,,,,,,,METAR,760.0
ORNI 010600Z 24006KT 8000 NSC 33/06 Q1012,ORNI,2023-06-01T06:00:00Z,31.98,44.4,33.0,6.0,240,6,,4.97,29.88189,,,,,,,,,,,CLR,,,,,,,,MVFR,,,,,,,,,,,,METAR,33.0
ORMM 010600Z 31014KT CAVOK 37/05 Q1010 NOSIG,ORMM,2023-06-01T06:00:00Z,30.53,47.67,37.0,5.0,310,14,,6.21,29.822834,,,,,,TRUE,,,,,CAVOK,,,,,,,,VFR,,,,,,,,,,,,METAR,2.0
ORER 010600Z 17005KT 8000 FEW045 29/06 Q1014,ORER,2023-06-01T06:00:00Z,36.23,43.97,29.0,6.0,170,5,,4.97,29.940945,,,,,,,,,,,FEW,4500,,,,,,,MVFR,,,,,,,,,,,,METAR,399.0
ORBI 010600Z 30004KT 220V340 CAVOK 33/08 Q1011,ORBI,2023-06-01T06:00:00Z,33.27,44.23,33.0,8.0,300,4,,6.21,29.852362,,,,,,,,,,,CAVOK,,,,,,,,VFR,,,,,,,,,,,,METAR,37.0
OPST 010600Z 09004KT 4000 FU SCT040 SCT100 23/19 Q1009 TEMPO 09015G25KT 2000 TSRA FEW030CB 79%,OPST,2023-06-01T06:00:00Z,32.53,74.37,23.0,19.0,90,4,,2.49,29.793306,,,,,,,,,,FU,SCT,4000,SCT,10000,,,,,IFR,,,,,,,,,,,,METAR,234.0
OPSK 010600Z 05012KT 4000 HZ SCT200 30/20 Q1005 NOSIG,OPSK,2023-06-01T06:00:00Z,27.72,68.8,30.0,20.0,50,12,,2.49,29.675198,,,,,,TRUE,,,,HZ,SCT,20000,,,,,,,IFR,,,,,,,,,,,,METAR,62.0
OPNH 010600Z 27010KT 8000 NSC 37/24 Q1004,OPNH,2023-06-01T06:00:00Z,26.22,68.38,37.0,24.0,270,10,,4.97,29.64567,,,,,,,,,,,CLR,,,,,,,,MVFR,,,,,,,,,,,,METAR,30.0
OMSJ 010600Z 21010KT 200V260 CAVOK 36/21 Q1007 BECMG 28015KT,OMSJ,2023-06-01T06:00:00Z,25.32,55.52,36.0,21.0,210,10,,6.21,29.734253,,,,,,,,,,,CAVOK,,,,,,,,VFR,,,,,,,,,,,,METAR,33.0
OMRK 010600Z 20006KT CAVOK 36/20 Q1006 A2973,OMRK,2023-06-01T06:00:00Z,25.62,55.93,36.0,20.0,200,6,,6.21,29.704725,,,,,,,,,,,CAVOK,,,,,,,,VFR,,,,,,,,,,,,METAR,18.0
OMFJ 010600Z 29023KT 8000 NSC 36/17 Q1005 A2968,OMFJ,2023-06-01T06:00:00Z,25.1,56.32,36.0,17.0,290,23,,4.97,29.675198,,,,,,,,,,,CLR,,,,,,,,MVFR,,,,,,,,,,,,METAR,27.0
OMDW 010600Z 23011KT 7000 NSC 35/21 Q1008 BECMG 27015KT,OMDW,2023-06-01T06:00:00Z,24.9,55.17,35.0,21.0,230,11,,4.35,29.763779,,,,,,,,,,,CLR,,,,,,,,MVFR,,,,,,,,,,,,METAR,34.0
OMDB 010600Z 27010KT 230V310 9000 NSC 37/19 Q1006 NOSIG,OMDB,2023-06-01T06:00:00Z,25.25,55.37,37.0,19.0,270,10,,5.59,29.704725,,,,,,TRUE,,,,,CLR,,,,,,,,VFR,,,,,,,,,,,,METAR,5.0
OMAL 010600Z VRB03KT CAVOK 35/16 Q1010 BECMG 28012KT,OMAL,2023-06-01T06:00:00Z,24.25,55.6,35.0,16.0,0,3,,6.21,29.822834,,,,,,,,,,,CAVOK,,,,,,,,VFR,,,,,,,,,,,,METAR,247.0
OMAD 010600Z 26005KT 190V310 CAVOK 37/18 Q1007 NOSIG,OMAD,2023-06-01T06:00:00Z,24.42,54.47,37.0,18.0,260,5,,6.21,29.734253,,,,,,TRUE,,,,,CAVOK,,,,,,,,VFR,,,,,,,,,,,,METAR,9.0
OMAA 010600Z 28011KT 250V310 CAVOK 37/18 Q1007 NOSIG,OMAA,2023-06-01T06:00:00Z,24.42,54.65,37.0,18.0,280,11,,6.21,29.734253,,,,,,TRUE,,,,,CAVOK,,,,,,,,VFR,,,,,,,,,,,,METAR,13.0
OLBA 010600Z VRB02KT CAVOK 25/12 Q1015 NOSIG,OLBA,2023-06-01T06:00:00Z,33.82,35.48,25.0,12.0,0,2,,6.21,29.970472,,,,,,TRUE,,,,,CAVOK,,,,,,,,VFR,,,,,,,,,,,,METAR,29.0
OKKK 010600Z 01017KT 7000 BLDU NSC 37/09 Q1010 NOSIG,OKKK,2023-06-01T06:00:00Z,,,37.0,9.0,10,17,,4.35,29.822834,,,,,,TRUE,,,,BLDU,CLR,,,,,,,,MVFR,,,,,,,,,,,,METAR,
OJAQ 010600Z 35010KT CAVOK 29/09 Q1012 NOSIG,OJAQ,2023-06-01T06:00:00Z,29.62,35.02,29.0,9.0,350,10,,6.21,29.88189,,,,,,TRUE,,,,,CAVOK,,,,,,,,VFR,,,,,,,,,,,,METAR,45.0
OJAM 010600Z 25003KT 5000 HZ NSC 25/M00 Q1018 NOSIG,OJAM,2023-06-01T06:00:00Z,31.98,35.98,25.0,0.0,250,3,,3.11,30.059055,,,,,,TRUE,,,,HZ,CLR,,,,,,,,MVFR,,,,,,,,,,,,METAR,765.0
OJAI 010600Z 14005KT 5000 HZ NSC 24/05 Q1017 NOSIG,OJAI,2023-06-01T06:00:00Z,31.72,36.0,24.0,5.0,140,5,,3.11,30.029528,,,,,,TRUE,,,,HZ,CLR,,,,,,,,MVFR,,,,,,,,,,,,METAR,723.0
OIZJ 010600Z 29008KT 6000 NSC 33/28 Q1003,OIZJ,2023-06-01T06:00:00Z,25.65,57.8,33.0,28.0,290,8,,3.73,29.616142,,,,,,,,,,,CLR,,,,,,,,MVFR,,,,,,,,,,,,METAR,6.0
OIZC 010600Z 14008KT 7000 FEW035 SCT170 35/28 Q1003 A2963,OIZC,2023-06-01T06:00:00Z,25.45,60.38,35.0,28.0,140,8,,4.35,29.616142,,,,,,,,,,,FEW,3500,SCT,17000,,,,,MVFR,,,,,,,,,,,,METAR,13.0
OIZB 010600Z 35019KT CAVOK 36/M03 Q1007,OIZB,2023-06-01T06:00:00Z,31.1,61.55,36.0,-3.0,350,19,,6.21,29.734253,,,,,,,,,,,CAVOK,,,,,,,,VFR,,,,,,,,,,,,METAR,483.0
OIYY 010600Z 31006KT 8000 NSC 30/08 Q1016 NOSIG,OIYY,2023-06-01T06:00:00Z,31.9,54.28,30.0,8.0,310,6,,4.97,30.0,,,,,,TRUE,,,,,CLR,,,,,,,,MVFR,,,,,,,,,,,,METAR,1226.0
OITZ 010600Z 00000KT 9999 FEW033CB FEW035TCU 21/10 Q1018 A3007,OITZ,2023-06-01T06:00:00Z,36.77,48.37,21.0,10.0,0,0,,6.21,30.059055,,,,,,,,,,,FEW,3300,FEW,3500,,,,,VFR,,,,,,,,,,,,METAR,1630.0
OITP 010600Z 02004KT 9999 SCT030CB SCT035 BKN170 24/15 Q1010,OITP,2023-06-01T06:00:00Z,39.6,47.88,24.0,15.0,20,4,,6.21,29.822834,,,,,,,,,,,SCT,3000,SCT,3500,BKN,17000,,,VFR,,,,,,,,,,,,METAR,72.0
OITM 010600Z 24004KT 9999 FEW035 24/08 Q1016,OITM,2023-06-01T06:00:00Z,37.35,46.15,24.0,8.0,240,4,,6.21,30.0,,,,,,,,,,,FEW,3500,,,,,,,VFR,,,,,,,,,,,,METAR,1340.0
OITL 010600Z 32008KT 9999 FEW035TCU FEW040CB 19/12 Q1017 NOSIG,OITL,2023-06-01T06:00:00Z,38.33,48.42,19.0,12.0,320,8,,6.21,30.029528,,,,,,TRUE,,,,,FEW,3500,FEW,4000,,,,,VFR,,,,,,,,,,,,METAR,1314.0
OITK 010600Z 02004KT 9999 SCT035TCU 21/11 Q1016 A3002,OITK,2023-06-01T06:00:00Z,38.42,44.98,21.0,11.0,20,4,,6.21,30.0,,,,,,,,,,,SCT,3500,,,,,,,VFR,,,,,,,,,,,,METAR,1192.0
OISR 010600Z 28012KT CAVOK 37/16 Q1008 A2977 NOSIG,OISR,2023-06-01T06:00:00Z,27.37,53.2,37.0,16.0,280,12,,6.21,29.763779,,,,,,TRUE,,,,,CAVOK,,,,,,,,VFR,,,,,,,,,,,,METAR,402.0
OISF 010600Z 00000KT CAVOK 31/07 Q1015 A2998,OISF,2023-06-01T06:00:00Z,28.9,53.72,31.0,7.0,0,0,,6.21,29.970472,,,,,,,,,,,CAVOK,,,,,,,,VFR,,,,,,,,,,,,METAR,1305.0
OINR 010600Z 36008KT 9999 FEW026TCU 26/22 Q1009,OINR,2023-06-01T06:00:00Z,36.9,50.67,26.0,22.0,360,8,,6.21,29.793306,,,,,,,,,,,FEW,2600,,,,,,,VFR,,,,,,,,,,,,METAR,-19.0
OINN 010600Z 31008KT 9999 FEW020 26/22 Q1009,OINN,2023-06-01T06:00:00Z,36.67,51.47,26.0,22.0,310,8,,6.21,29.793306,,,,,,,,,,,FEW,2000,,,,,,,VFR,,,,,,,,,,,,METAR,-25.0
OING 010600Z 00000KT 8000 FEW040 SCT100 31/20 Q1010 NOSIG,OING,2023-06-01T06:00:00Z,36.9,54.4,31.0,20.0,0,0,,4.97,29.822834,,,,,,TRUE,,,,,FEW,4000,SCT,10000,,,,,MVFR,,,,,,,,,,,,METAR,0.0
OINE 010600Z 27006KT 9999 FEW100 30/21 Q1009,OINE,2023-06-01T06:00:00Z,37.38,55.45,30.0,21.0,270,6,,6.21,29.793306,,,,,,,,,,,FEW,10000,,,,,,,VFR,,,,,,,,,,,,METAR,125.0
OIMS 010600Z 09010KT CAVOK 31/M04 Q1014,OIMS,2023-06-01T06:00:00Z,36.17,57.6,31.0,-4.0,90,10,,6.21,29.940945,,,,,,,,,,,CAVOK,,,,,,,,VFR,,,,,,,,,,,,METAR,920.0
OIMN 010600Z 00000KT 8000 FEW040 BKN100 26/13 Q1015,OIMN,2023-06-01T06:00:00Z,37.48,57.3,26.0,13.0,0,0,,4.97,29.970472,,,,,,,,,,,FEW,4000,BKN,10000,,,,,MVFR,,,,,,,,,,,,METAR,1065.0
OIMJ 010600Z 07012KT 9999 FEW040 28/07 Q1015,OIMJ,2023-06-01T06:00:00Z,36.43,55.1,28.0,7.0,70,12,,6.21,29.970472,,,,,,,,,,,FEW,4000,,,,,,,VFR,,,,,,,,,,,,METAR,1285.0
OIMB 010600Z 07008KT 9999 FEW045 BKN200 32/M23 Q1015 A2999,OIMB,2023-06-01T06:00:00Z,32.9,59.28,32.0,-23.0,70,8,,6.21,29.970472,,,,,,,,,,,FEW,4500,BKN,20000,,,,,VFR,,,,,,,,,,,,METAR,1512.0
OIKQ 010600Z 23014KT 5000 BR FEW025 SCT200 32/30 Q1005 NOSIG,OIKQ,2023-06-01T06:00:00Z,26.75,55.9,32.0,30.0,230,14,,3.11,29.675198,,,,,,TRUE,,,,BR,FEW,2500,SCT,20000,,,,,MVFR,,,,,,,,,,,,METAR,9.0
OIKK 010600Z 22010KT 5000 DU BKN100 28/06 Q1018 A3007,OIKK,2023-06-01T06:00:00Z,30.25,56.97,28.0,6.0,220,10,,3.11,30.059055,,,,,,,,,,DU,BKN,10000,,,,,,,MVFR,,,,,,,,,,,,METAR,1749.0
OIIK 010600Z 23004KT 9999 FEW040 SCT080 26/11 Q1015,OIIK,2023-06-01T06:00:00Z,36.25,50.05,26.0,11.0,230,4,,6.21,29.970472,,,,,,,,,,,FEW,4000,SCT,8000,,,,,VFR,,,,,,,,,,,,METAR,1278.0
OIIE 010600Z 32008KT CAVOK 30/09 Q1013,OIIE,2023-06-01T06:00:00Z,35.42,51.15,30.0,9.0,320,8,,6.21,29.911417,,,,,,,,,,,CAVOK,,,,,,,,VFR,,,,,,,,,,,,METAR,993.0
OIHR 010600Z 06006KT 6000 FEW035TCU 22/12 Q1019,OIHR,2023-06-01T06:00:00Z,34.13,49.85,22.0,12.0,60,6,,3.73,30.088583,,,,,,,,,,,FEW,3500,,,,,,,MVFR,,,,,,,,,,,,METAR,1658.0
OIHH 010600Z 33004KT CAVOK 21/09 Q1019 A3011,OIHH,2023-06-01T06:00:00Z,34.87,48.55,21.0,9.0,330,4,,6.21,30.088583,,,,,,,,,,,CAVOK,,,,,,,,VFR,,,,,,,,,,,,METAR,1742.0
OIFS 010600Z 14004KT 9999 FEW035 24/06 Q1022,OIFS,2023-06-01T06:00:00Z,32.28,50.85,24.0,6.0,140,4,,6.21,30.177166,,,,,,,,,,,FEW,3500,,,,,,,VFR,,,,,,,,,,,,METAR,2042.0
OICS 010600Z VRB02KT 9999 FEW040 22/07 Q1018 A3007,OICS,2023-06-01T06:00:00Z,35.25,47.02,22.0,7.0,0,2,,6.21,30.059055,,,,,,,,,,,FEW,4000,,,,,,,VFR,,,,,,,,,,,,METAR,1369.0
OICK 010600Z 26008KT CAVOK 27/07 Q1017 A3004,OICK,2023-06-01T06:00:00Z,33.43,48.28,27.0,7.0,260,8,,6.21,30.029528,,,,,,,,,,,CAVOK,,,,,,,,VFR,,,,,,,,,,,,METAR,1156.0
OICI 010600Z 34006KT CAVOK 25/03 Q1019 A3011,OICI,2023-06-01T06:00:00Z,33.58,46.4,25.0,3.0,340,6,,6.21,30.088583,,,,,,,,,,,CAVOK,,,,,,,,VFR,,,,,,,,,,,,METAR,1323.0
OIBV 010600Z 30018KT 6000 NSC 32/26 Q1004,OIBV,2023-06-01T06:00:00Z,26.82,53.35,32.0,26.0,300,18,,3.73,29.64567,,,,,,,,,,,CLR,,,,,,,,MVFR,,,,,,,,,,,,METAR,23.0
OIBS 010600Z 23010KT 5000 HZ NSC 33/25 Q1005,OIBS,2023-06-01T06:00:00Z,25.9,54.55,33.0,25.0,230,10,,3.11,29.675198,,,,,,,,,,HZ,CLR,,,,,,,,MVFR,,,,,,,,,,,,METAR,4.0
OIBQ 010600Z 31016KT CAVOK 31/21 Q1007 A2974,OIBQ,2023-06-01T06:00:00Z,29.27,50.32,31.0,21.0,310,16,,6.21,29.734253,,,,,,,,,,,CAVOK,,,,,,,,VFR,,,,,,,,,,,,METAR,3.0
OIBL 010600Z 22008KT 5000 HZ NSC 34/26 Q1004,OIBL,2023-06-01T06:00:00Z,26.53,54.82,34.0,26.0,220,8,,3.11,29.64567,,,,,,,,,,HZ,CLR,,,,,,,,MVFR,,,,,,,,,,,,METAR,25.0
OIBJ 010600Z AUTO 31009KT //// // ////// 36/13 Q1010,OIBJ,2023-06-01T06:00:00Z,27.82,52.35,36.0,13.0,310,9,,,29.822834,,,TRUE,,,,,,,,,,,,,,,,,,,,,,,,,,,,METAR,647.0
OIBH 010600Z 32019KT CAVOK 39/07 Q1006,OIBH,2023-06-01T06:00:00Z,27.2,54.32,39.0,7.0,320,19,,6.21,29.704725,,,,,,,,,,,CAVOK,,,,,,,,VFR,,,,,,,,,,,,METAR,412.0
OIBA 010600Z 27010KT 5000 HZ NSC 33/26 Q1004,OIBA,2023-06-01T06:00:00Z,25.88,55.03,33.0,26.0,270,10,,3.11,29.64567,,,,,,,,,,HZ,CLR,,,,,,,,MVFR,,,,,,,,,,,,METAR,7.0
OIAM 010600Z 33016KT CAVOK 36/11 Q1008,OIAM,2023-06-01T06:00:00Z,30.55,49.15,36.0,11.0,330,16,,6.21,29.763779,,,,,,,,,,,CAVOK,,,,,,,,VFR,,,,,,,,,,,,METAR,7.0
OIAH 010600Z 28012KT CAVOK 34/11 Q1012,OIAH,2023-06-01T06:00:00Z,30.33,50.83,34.0,11.0,280,12,,6.21,29.88189,,,,,,,,,,,CAVOK,,,,,,,,VFR,,,,,,,,,,,,METAR,730.0
OIAG 010600Z 35027KT CAVOK 38/09 Q1009,OIAG,2023-06-01T06:00:00Z,30.73,49.68,38.0,9.0,350,27,,6.21,29.793306,,,,,,,,,,,CAVOK,,,,,,,,VFR,,,,,,,,,,,,METAR,17.0
OIAA 010600Z 35019KT CAVOK 37/07 Q1009,OIAA,2023-06-01T06:00:00Z,30.35,48.22,37.0,7.0,350,19,,6.21,29.793306,,,,,,,,,,,CAVOK,,,,,,,,VFR,,,,,,,,,,,,METAR,4.0
OEYN 010600Z 14008KT CAVOK 31/23 Q1008 NOSIG,OEYN,2023-06-01T06:00:00Z,24.13,38.07,31.0,23.0,140,8,,6.21,29.763779,,,,,,TRUE,,,,,CAVOK,,,,,,,,VFR,,,,,,,,,,,,METAR,20.0
OEWJ 010600Z 07003KT CAVOK 34/09 Q1010 NOSIG,OEWJ,2023-06-01T06:00:00Z,26.18,36.47,34.0,9.0,70,3,,6.21,29.822834,,,,,,TRUE,,,,,CAVOK,,,,,,,,VFR,,,,,,,,,,,,METAR,8.0
OEWD 010600Z 33006KT CAVOK 35/12 Q1013,OEWD,2023-06-01T06:00:00Z,20.5,45.2,35.0,12.0,330,6,,6.21,29.911417,,,,,,,,,,,CAVOK,,,,,,,,VFR,,,,,,,,,,,,METAR,629.0
OETR 010600Z 22006KT CAVOK 24/04 Q1017 NOSIG,OETR,2023-06-01T06:00:00Z,31.7,38.73,24.0,4.0,220,6,,6.21,30.029528,,,,,,TRUE,,,,,CAVOK,,,,,,,,VFR,,,,,,,,,,,,METAR,854.0
OETF 010600Z 03006KT CAVOK 26/13 Q1023 NOSIG,OETF,2023-06-01T06:00:00Z,21.47,40.53,26.0,13.0,30,6,,6.21,30.206694,,,,,,TRUE,,,,,CAVOK,,,,,,,,VFR,,,,,,,,,,,,METAR,1460.0
OETB 010600Z 17005KT CAVOK 27/05 Q1017 NOSIG,OETB,2023-06-01T06:00:00Z,28.37,36.62,27.0,5.0,170,5,,6.21,30.029528,,,,,,TRUE,,,,,CAVOK,,,,,,,,VFR,,,,,,,,,,,,METAR,770.0
OESK 010600Z 00000KT CAVOK 29/04 Q1019 NOSIG,OESK,2023-06-01T06:00:00Z,29.78,40.1,29.0,4.0,0,0,,6.21,30.088583,,,,,,TRUE,,,,,CAVOK,,,,,,,,VFR,,,,,,,,,,,,METAR,671.0
OESH 010600Z 09010KT 7000 NSC 36/11 Q1014 NOSIG,OESH,2023-06-01T06:00:00Z,17.47,47.12,36.0,11.0,90,10,,4.35,29.940945,,,,,,TRUE,,,,,CLR,,,,,,,,MVFR,,,,,,,,,,,,METAR,720.0
OERR 010600Z 32008KT CAVOK 28/02 Q1015 NOSIG,OERR,2023-06-01T06:00:00Z,30.9,41.13,28.0,2.0,320,8,,6.21,29.970472,,,,,,TRUE,,,,,CAVOK,,,,,,,,VFR,,,,,,,,,,,,METAR,554.0
OERK 010600Z 11003KT CAVOK 36/09 Q1014 NOSIG,OERK,2023-06-01T06:00:00Z,24.95,46.72,36.0,9.0,110,3,,6.21,29.940945,,,,,,TRUE,,,,,CAVOK,,,,,,,,VFR,,,,,,,,,,,,METAR,618.0
OERF 010600Z 08004KT CAVOK 32/02 Q1015 NOSIG,OERF,2023-06-01T06:00:00Z,29.62,43.48,32.0,2.0,80,4,,6.21,29.970472,,,,,,TRUE,,,,,CAVOK,,,,,,,,VFR,,,,,,,,,,,,METAR,441.0
OEPA 010600Z 03010KT CAVOK 35/10 Q1013 NOSIG,OEPA,2023-06-01T06:00:00Z,28.33,46.12,35.0,10.0,30,10,,6.21,29.911417,,,,,,TRUE,,,,,CAVOK,,,,,,,,VFR,,,,,,,,,,,,METAR,361.0
OENG 010600Z 06008KT CAVOK 31/12 Q1019 NOSIG,OENG,2023-06-01T06:00:00Z,17.62,44.42,31.0,12.0,60,8,,6.21,30.088583,,,,,,TRUE,,,,,CAVOK,,,,,,,,VFR,,,,,,,,,,,,METAR,1210.0
OEMN 010600Z 36004KT CAVOK 35/14 Q1012,OEMN,2023-06-01T06:00:00Z,,,35.0,14.0,360,4,,6.21,29.88189,,,,,,,,,,,CAVOK,,,,,,,,VFR,,,,,,,,,,,,METAR,
OEMA 010600Z 30003KT CAVOK 32/07 Q1017 NOSIG,OEMA,2023-06-01T06:00:00Z,24.55,39.7,32.0,7.0,300,3,,6.21,30.029528,,,,,,TRUE,,,,,CAVOK,,,,,,,,VFR,,,,,,,,,,,,METAR,639.0
OEKM 010600Z 00000KT CAVOK 21/12 Q1026 NOSIG,OEKM,2023-06-01T06:00:00Z,18.3,42.78,21.0,12.0,0,0,,6.21,30.295275,,,,,,TRUE,,,,,CAVOK,,,,,,,,VFR,,,,,,,,,,,,METAR,2038.0
OEKJ 010600Z 13006KT 9000 NSC 37/11 Q1015,OEKJ,2023-06-01T06:00:00Z,24.07,47.58,37.0,11.0,130,6,,5.59,29.970472,,,,,,,,,,,CLR,,,,,,,,VFR,,,,,,,,,,,,METAR,487.0
OEJN 010600Z 34007KT CAVOK 34/16 Q1010 NOSIG,OEJN,2023-06-01T06:00:00Z,21.68,39.15,34.0,16.0,340,7,,6.21,29.822834,,,,,,TRUE,,,,,CAVOK,,,,,,,,VFR,,,,,,,,,,,,METAR,8.0
OEHL 010600Z 06008KT CAVOK 28/10 Q1019,OEHL,2023-06-01T06:00:00Z,27.43,41.68,28.0,10.0,60,8,,6.21,30.088583,,,,,,,,,,,CAVOK,,,,,,,,VFR,,,,,,,,,,,,METAR,1002.0
OEGT 010600Z 16008KT CAVOK 25/03 Q1016 NOSIG,OEGT,2023-06-01T06:00:00Z,31.42,37.27,25.0,3.0,160,8,,6.21,30.0,,,,,,TRUE,,,,,CAVOK,,,,,,,,VFR,,,,,,,,,,,,METAR,512.0
OEGS 010600Z 05012KT CAVOK 31/15 Q1014,OEGS,2023-06-01T06:00:00Z,26.3,43.77,31.0,15.0,50,12,,6.21,29.940945,,,,,,,,,,,CAVOK,,,,,,,,VFR,,,,,,,,,,,,METAR,647.0
OEGN 010600Z 35007KT 9999 FEW030 BKN200 34/22 Q1010 NOSIG,OEGN,2023-06-01T06:00:00Z,16.9,42.58,34.0,22.0,350,7,,6.21,29.822834,,,,,,TRUE,,,,,FEW,3000,BKN,20000,,,,,VFR,,,,,,,,,,,,METAR,5.0
OEDR 010600Z 35017KT CAVOK 37/14 Q1008,OEDR,2023-06-01T06:00:00Z,26.27,50.17,37.0,14.0,350,17,,6.21,29.763779,,,,,,,,,,,CAVOK,,,,,,,,VFR,,,,,,,,,,,,METAR,17.0
OEDM 010600Z 20006KT CAVOK 33/10 Q1015,OEDM,2023-06-01T06:00:00Z,24.45,44.12,33.0,10.0,200,6,,6.21,29.970472,,,,,,,,,,,CAVOK,,,,,,,,VFR,,,,,,,,,,,,METAR,922.0
OEDF 010600Z 36012KT CAVOK 37/14 Q1009 NOSIG,OEDF,2023-06-01T06:00:00Z,26.43,49.82,37.0,14.0,360,12,,6.21,29.793306,,,,,,TRUE,,,,,CAVOK,,,,,,,,VFR,,,,,,,,,,,,METAR,15.0
OEBH 010600Z 23004KT CAVOK 28/19 Q1018 NOSIG,OEBH,2023-06-01T06:00:00Z,19.98,42.62,28.0,19.0,230,4,,6.21,30.059055,,,,,,TRUE,,,,,CAVOK,,,,,,,,VFR,,,,,,,,,,,,METAR,1167.0
OEBA 010600Z 35006KT CAVOK 25/11 Q1022 NOSIG,OEBA,2023-06-01T06:00:00Z,20.3,41.63,25.0,11.0,350,6,,6.21,30.177166,,,,,,TRUE,,,,,CAVOK,,,,,,,,VFR,,,,,,,,,,,,METAR,1659.0
OEAO 010600Z 06008KT CAVOK 32/08 Q1016 NOSIG,OEAO,2023-06-01T06:00:00Z,26.48,38.12,32.0,8.0,60,8,,6.21,30.0,,,,,,TRUE,,,,,CAVOK,,,,,,,,VFR,,,,,,,,,,,,METAR,615.0
OEAH 010600Z 35008KT CAVOK 38/10 Q1010 NOSIG,OEAH,2023-06-01T06:00:00Z,25.28,49.48,38.0,10.0,350,8,,6.21,29.822834,,,,,,TRUE,,,,,CAVOK,,,,,,,,VFR,,,,,,,,,,,,METAR,180.0
OEAB 010600Z 00000KT CAVOK 21/11 Q1027 NOSIG,OEAB,2023-06-01T06:00:00Z,18.23,42.65,21.0,11.0,0,0,,6.21,30.324802,,,,,,TRUE,,,,,CAVOK,,,,,,,,VFR,,,,,,,,,,,,METAR,2092.0
NVVW 010600Z 18005KT 9999 SCT020 BKN040 28/22 Q1013,NVVW,2023-06-01T06:00:00Z,-19.45,169.22,28.0,22.0,180,5,,6.21,29.911417,,,,,,,,,,,SCT,2000,BKN,4000,,,,,VFR,,,,,,,,,,,,METAR,5.0
NVVV 010600Z 14007KT 9999 -SHRA FEW008 BKN018 FEW023CB OVC100 25/24 Q1013,NVVV,2023-06-01T06:00:00Z,-17.68,168.3,25.0,24.0,140,7,,6.21,29.911417,,,,,,,,,,-SHRA,FEW,800,BKN,1800,FEW,2300,OVC,10000,MVFR,,,,,,,,,,,,METAR,23.0
NVSS 010600Z 09010KT 9999 SHRA FEW015 BKN020 OVC100 24/23 Q1011,NVSS,2023-06-01T06:00:00Z,-15.52,167.22,24.0,23.0,90,10,,6.21,29.852362,,,,,,,,,,SHRA,FEW,1500,BKN,2000,OVC,10000,,,MVFR,,,,,,,,,,,,METAR,47.0
NVSG 010600Z 15006KT 9999 SHRA FEW015 SCT020 BKN040 26/25 Q1011,NVSG,2023-06-01T06:00:00Z,-15.3,167.97,26.0,25.0,150,6,,6.21,29.852362,,,,,,,,,,SHRA,FEW,1500,SCT,2000,BKN,4000,,,VFR,,,,,,,,,,,,METAR,31.0
NVSC 010600Z 13004KT 9999 FEW010 BKN018 28/26 Q1010,NVSC,2023-06-01T06:00:00Z,-13.85,167.55,28.0,26.0,130,4,,6.21,29.822834,,,,,,,,,,,FEW,1000,BKN,1800,,,,,MVFR,,,,,,,,,,,,METAR,11.0
NSFA 010600Z 12003KT 9999 SCT022 BKN160 26/25 Q1012,NSFA,2023-06-01T06:00:00Z,-13.83,-172.0,26.0,25.0,120,3,,6.21,29.88189,,,,,,,,,,,SCT,2200,BKN,16000,,,,,VFR,,,,,,,,,,,,METAR,6.0
NIUE 010600Z AUTO 20001KT NCD 22/22 Q1014,NIUE,2023-06-01T06:00:00Z,-19.07,-169.92,22.0,22.0,200,1,,,29.940945,,,TRUE,,,,,,,,CLR,,,,,,,,,,,,,,,,,,,,METAR,22.0
NGTA 010600Z 16003KT 9999 SCT019 SCT300 30/25 Q1007,NGTA,2023-06-01T06:00:00Z,1.37,173.13,30.0,25.0,160,3,,6.21,29.734253,,,,,,,,,,,SCT,1900,SCT,30000,,,,,VFR,,,,,,,,,,,,METAR,8.0
NGFU 010600Z 09007KT 9999 FEW018TCU 30/26 Q1009,NGFU,2023-06-01T06:00:00Z,-8.52,179.18,30.0,26.0,90,7,,6.21,29.793306,,,,,,,,,,,FEW,1800,,,,,,,VFR,,,,,,,,,,,,METAR,2.0
NFTV 010600Z 00000KT 9999 FEW018 BKN290 24/22 Q1013,NFTV,2023-06-01T06:00:00Z,-18.58,-173.97,24.0,22.0,0,0,,6.21,29.911417,,,,,,,,,,,FEW,1800,BKN,29000,,,,,VFR,,,,,,,,,,,,METAR,71.0
NFTL 010600Z 00000KT 9999 FEW016 SCT280 26/22 Q1014,NFTL,2023-06-01T06:00:00Z,-19.78,-174.33,26.0,22.0,0,0,,6.21,29.940945,,,,,,,,,,,FEW,1600,SCT,28000,,,,,VFR,,,,,,,,,,,,METAR,10.0
NFTF 010600Z 14007KT 9999 FEW009 SCT016 BKN100 24/22 Q1015,NFTF,2023-06-01T06:00:00Z,-21.23,-175.15,24.0,22.0,140,7,,6.21,29.970472,,,,,,,,,,,FEW,900,SCT,1600,BKN,10000,,,VFR,,,,,,,,,,,,METAR,38.0
NFNA 010600Z 13006KT 9999 FEW013 SCT018TCU BKN045 27/24 Q1013,NFNA,2023-06-01T06:00:00Z,-18.05,178.57,27.0,24.0,130,6,,6.21,29.911417,,,,,,,,,,,FEW,1300,SCT,1800,BKN,4500,,,VFR,,,,,,,,,,,,METAR,6.0
NFFN 010600Z 36003KT 9999 SCT026TCU BKN048 27/24 Q1012 NOSIG,NFFN,2023-06-01T06:00:00Z,-17.75,177.45,27.0,24.0,360,3,,6.21,29.88189,,,,,,TRUE,,,,,SCT,2600,BKN,4800,,,,,VFR,,,,,,,,,,,,METAR,14.0
NCSW 010600Z AUTO NIL,NCSW,2023-06-01T06:00:00Z,,,,,,,,,,,,TRUE,,,,,,,,,,,,,,,,,,,,,,,,,,,,METAR,
NCRK 010600Z AUTO NIL,NCRK,2023-06-01T06:00:00Z,-10.02,-161.1,,,,,,,,,,TRUE,,,,,,,,,,,,,,,,,,,,,,,,,,,,METAR,7.0
NCPY 010600Z AUTO 02003KT //// ////// 29/24 Q1011,NCPY,2023-06-01T06:00:00Z,-9.02,-158.03,29.0,24.0,20,3,,,29.852362,,,TRUE,,,,,,,,,,,,,,,,,,,,,,,,,,,,METAR,2.0
NCPL 010600Z AUTO NIL,NCPL,2023-06-01T06:00:00Z,1.98,-157.48,,,,,,,,,,TRUE,,,,,,,,,,,,,,,,,,,,,,,,,,,,METAR,3.0
NCPK 010600Z AUTO NIL,NCPK,2023-06-01T06:00:00Z,-10.9,-165.83,,,,,,,,,,TRUE,,,,,,,,,,,,,,,,,,,,,,,,,,,,METAR,5.0
NCNS 010600Z AUTO NIL,NCNS,2023-06-01T06:00:00Z,,,,,,,,,,,,TRUE,,,,,,,,,,,,,,,,,,,,,,,,,,,,METAR,
NCMR 010600Z AUTO 16003KT //// ////// ///// Q1013,NCMR,2023-06-01T06:00:00Z,-19.85,-157.7,,,160,3,,,29.911417,,,TRUE,,,,,,,,,,,,,,,,,,,,,,,,,,,,METAR,8.0
NCMK 010600Z AUTO 18003KT //// ////// 21/13 Q1012,NCMK,2023-06-01T06:00:00Z,-20.15,-157.33,21.0,13.0,180,3,,,29.88189,,,TRUE,,,,,,,,,,,,,,,,,,,,,,,,,,,,METAR,13.0
NCMH 010600Z AUTO NIL,NCMH,2023-06-01T06:00:00Z,-10.38,-161.0,,,,,,,,,,TRUE,,,,,,,,,,,,,,,,,,,,,,,,,,,,METAR,1.0
NCMG 010600Z AUTO 16005KT //// ////// ///// Q////,NCMG,2023-06-01T06:00:00Z,-21.88,-157.9,,,160,5,,,,,,TRUE,,,,,,,,,,,,,,,,,,,,,,,,,,,,METAR,14.0
NCAT 010600Z AUTO NIL,NCAT,2023-06-01T06:00:00Z,-19.97,-158.12,,,,,,,,,,TRUE,,,,,,,,,,,,,,,,,,,,,,,,,,,,METAR,11.0
NCAI 010600Z AUTO 18003KT //// ////// 24/16 Q1013,NCAI,2023-06-01T06:00:00Z,-18.82,-159.77,24.0,16.0,180,3,,,29.911417,,,TRUE,,,,,,,,,,,,,,,,,,,,,,,,,,,,METAR,7.0
MYNN 010600Z 16008KT 9999 -RA SCT014 BKN035 OVC120 24/22 A2988 RESHRA,MYNN,2023-06-01T06:00:00Z,25.03,-77.47,24.0,22.0,160,8,,6.21,29.878937,,,,,,,,,,-RA,SCT,1400,BKN,3500,OVC,12000,,,VFR,,,,,,,,,,,,METAR,5.0
MYGF 010600Z AUTO 10002KT 9999 // SCT014/// BKN017/// BKN027/// 23/22 A2985,MYGF,2023-06-01T06:00:00Z,26.55,-78.7,23.0,22.0,100,2,,6.21,29.84941,,,TRUE,,,,,,,,SCT,1400,BKN,1700,BKN,2700,,,MVFR,,,,,,,,,,,,METAR,2.0
MYAF 010600Z AUTO 15007KT 110V190 //// // FEW014 BKN021 //////CB 26/24 A2987,MYAF,2023-06-01T06:00:00Z,24.68,-77.78,26.0,24.0,150,7,,,29.870079,,,TRUE,,,,,,,,FEW,1400,BKN,2100,,,,,,,,,,,,,,,,,METAR,2.0
MRLB 010600Z 00000KT 9999 FEW020 BKN100 24/24 A2988,MRLB,2023-06-01T06:00:00Z,10.6,-85.55,24.0,24.0,0,0,,6.21,29.878937,,,,,,,,,,,FEW,2000,BKN,10000,,,,,VFR,,,,,,,,,,,,METAR,79.0
MPMG 010600Z AUTO VRB02KT //// R01///// // FEW006/// BKN022/// OVC087/// 25/25 Q1011,MPMG,2023-06-01T06:00:00Z,8.98,-79.57,25.0,25.0,0,2,,,29.852362,,,TRUE,,,,,,,,FEW,600,BKN,2200,OVC,8700,,,,,,,,,,,,,,,METAR,6.0
MMIO 010600Z RTD 35008KT 10SM SKC 20/07 A3007,MMIO,2023-06-01T06:00:00Z,25.55,-100.93,20.0,7.0,350,8,,10.0,30.070866,,,,,,,,,,,SKC,,,,,,,,VFR,,,,,,,,,,,,METAR,1430.0
MKJS 010600Z 10003KT 9999 FEW022 25/25 Q1011,MKJS,2023-06-01T06:00:00Z,18.5,-77.92,25.0,25.0,100,3,,6.21,29.852362,,,,,,,,,,,FEW,2200,,,,,,,VFR,,,,,,,,,,,,METAR,3.0
MKJP 010600Z 12009KT 9999 FEW020 FEW022CB 28/24 Q1012,MKJP,2023-06-01T06:00:00Z,17.93,-76.78,28.0,24.0,120,9,,6.21,29.88189,,,,,,,,,,,FEW,2000,FEW,2200,,,,,VFR,,,,,,,,,,,,METAR,3.0
MHTG 010600Z 03010KT 8000 -RA FEW005 SCT030 OVC070 20/19 Q1018 A3006 NOSIG,MHTG,2023-06-01T06:00:00Z,14.07,-87.22,20.0,19.0,30,10,,4.97,30.059055,,,,,,TRUE,,,,-RA,FEW,500,SCT,3000,OVC,7000,,,MVFR,,,,,,,,,,,,METAR,1001.0
MHRO 010600Z 04003KT 9999 FEW020 28/24 Q1010 A2983 NOSIG,MHRO,2023-06-01T06:00:00Z,16.32,-86.53,28.0,24.0,40,3,,6.21,29.822834,,,,,,TRUE,,,,,FEW,2000,,,,,,,VFR,,,,,,,,,,,,METAR,6.0
MHPR 010600Z 12006KT 9999 SCT044 BKN090 24/22 Q1015 A2999 NOSIG,MHPR,2023-06-01T06:00:00Z,14.38,-87.62,24.0,22.0,120,6,,6.21,29.970472,,,,,,TRUE,,,,,SCT,4400,BKN,9000,,,,,VFR,,,,,,,,,,,,METAR,628.0
MHLM 010600Z 00000KT 8000 FEW026 SCT080 27/23 Q1009 A2980 NOSIG,MHLM,2023-06-01T06:00:00Z,15.45,-87.93,27.0,23.0,0,0,,4.97,29.793306,,,,,,TRUE,,,,,FEW,2600,SCT,8000,,,,,MVFR,,,,,,,,,,,,METAR,32.0
MHCA 010600Z 10003KT 9999 SCT024 BKN080 24/20 Q1011,MHCA,2023-06-01T06:00:00Z,14.87,-85.78,24.0,20.0,100,3,,6.21,29.852362,,,,,,,,,,,SCT,2400,BKN,8000,,,,,VFR,,,,,,,,,,,,METAR,386.0
MGPB 010600Z 00000KT CAVOK 27/25 Q1008 A2977 BKN080,MGPB,2023-06-01T06:00:00Z,15.73,-88.58,27.0,25.0,0,0,,6.21,29.763779,,,,,,,,,,,BKN,8000,,,,,,,VFR,,,,,,,,,,,,METAR,6.0
MGMM 010600Z 00000KT CAVOK 27/22 Q1011 A2985,MGMM,2023-06-01T06:00:00Z,16.9,-89.87,27.0,22.0,0,0,,6.21,29.852362,,,,,,,,,,,CAVOK,,,,,,,,VFR,,,,,,,,,,,,METAR,105.0
MGHT 010600Z 00000KT 9999 BKN020 15/15,MGHT,2023-06-01T06:00:00Z,15.32,-91.5,15.0,15.0,0,0,,6.21,,,,,,,,,,,,BKN,2000,,,,,,,MVFR,,,,,,,,,,,,METAR,1875.0
MGGT 010600Z 18006KT 7000 FEW004 BKN016 20/18 Q1021 A3018 BR FEW080,MGGT,2023-06-01T06:00:00Z,14.58,-90.53,20.0,18.0,180,6,,4.35,30.147638,,,,,,,,,,BR,FEW,400,BKN,1600,FEW,8000,,,MVFR,,,,,,,,,,,,METAR,1497.0
MDST 010600Z 00000KT 9999 FEW016 SCT300 23/23 Q1014,MDST,2023-06-01T06:00:00Z,19.4,-70.6,23.0,23.0,0,0,,6.21,29.940945,,,,,,,,,,,FEW,1600,SCT,30000,,,,,VFR,,,,,,,,,,,,METAR,175.0
MDSD 010600Z 14004KT 9999 SCT016 SCT300 26/24 Q1014,MDSD,2023-06-01T06:00:00Z,18.42,-69.67,26.0,24.0,140,4,,6.21,29.940945,,,,,,,,,,,SCT,1600,SCT,30000,,,,,VFR,,,,,,,,,,,,METAR,18.0
MDPP 010600Z 00000KT 9999 FEW018 25/24 Q1013,MDPP,2023-06-01T06:00:00Z,19.75,-70.57,25.0,24.0,0,0,,6.21,29.911417,,,,,,,,,,,FEW,1800,,,,,,,VFR,,,,,,,,,,,,METAR,9.0
MDPC 010600Z 13008KT 9999 SCT018 28/24 Q1015,MDPC,2023-06-01T06:00:00Z,18.57,-68.37,28.0,24.0,130,8,,6.21,29.970472,,,,,,,,,,,SCT,1800,,,,,,,VFR,,,,,,,,,,,,METAR,10.0
LPOV 010600Z VRB01KT 6000 BKN004 BKN008 15/15 Q1013,LPOV,2023-06-01T06:00:00Z,40.92,-8.65,15.0,15.0,0,1,,3.73,29.911417,,,,,,,,,,,BKN,400,BKN,800,,,,,LIFR,,,,,,,,,,,,METAR,16.0
LPMT 010600Z 10003KT 9999 FEW015 15/14 Q1013,LPMT,2023-06-01T06:00:00Z,38.7,-9.05,15.0,14.0,100,3,,6.21,29.911417,,,,,,,,,,,FEW,1500,,,,,,,VFR,,,,,,,,,,,,METAR,4.0
LPMR 010600Z 02003KT 5000 BR SCT002 OVC008 14/14 Q1013,LPMR,2023-06-01T06:00:00Z,39.82,-8.88,14.0,14.0,20,3,,3.11,29.911417,,,,,,,,,,BR,SCT,200,OVC,800,,,,,IFR,,,,,,,,,,,,METAR,50.0
LPLA 010600Z /////KT 9999 FEW015 SCT020 16/15 Q1015,LPLA,2023-06-01T06:00:00Z,38.77,-27.1,16.0,15.0,,,,6.21,29.970472,,,,,,,,,,,FEW,1500,SCT,2000,,,,,VFR,,,,,,,,,,,,METAR,60.0
LPBJ 010600Z 29003KT CAVOK 15/13 Q1013,LPBJ,2023-06-01T06:00:00Z,38.08,-7.93,15.0,13.0,290,3,,6.21,29.911417,,,,,,,,,,,CAVOK,,,,,,,,VFR,,,,,,,,,,,,METAR,196.0
LKLN 010600Z AUTO VRB01KT 9999 // NCD 13/07 Q1019,LKLN,2023-06-01T06:00:00Z,49.68,13.27,13.0,7.0,0,1,,6.21,30.088583,,,TRUE,,,,,,,,CLR,,,,,,,,VFR,,,,,,,,,,,,METAR,353.0
LKKU 010600Z 03004KT 350V070 CAVOK 16/09 Q1018,LKKU,2023-06-01T06:00:00Z,49.05,17.45,16.0,9.0,30,4,,6.21,30.059055,,,,,,,,,,,CAVOK,,,,,,,,VFR,,,,,,,,,,,,METAR,176.0
LKKB 010600Z 20003KT 170V230 CAVOK 14/09 Q1018 NOSIG,LKKB,2023-06-01T06:00:00Z,50.12,14.53,14.0,9.0,200,3,,6.21,30.059055,,,,,,TRUE,,,,,CAVOK,,,,,,,,VFR,,,,,,,,,,,,METAR,281.0
KOWP 010600Z AUTO 14003KT 10SM CLR 24/19 A2993 RMK AO2 T02390186,KOWP,2023-06-01T06:00:00Z,36.18,-96.15,23.9,18.6,140,3,,10.0,29.929134,,,TRUE,TRUE,,,,,,,CLR,,,,,,,,VFR,,,,,,,,,,,,METAR,267.0
KHST 010600Z AUTO 00000KT 10SM SCT018 SCT023 24/23 A2984 RMK AO2 SLP108,KHST,2023-06-01T06:00:00Z,25.48,-80.37,24.0,23.0,0,0,,10.0,29.840551,1010.8,,TRUE,TRUE,,,,,,,SCT,1800,SCT,2300,,,,,VFR,,,,,,,,,,,,METAR,1.0
HUEN 010600Z 31003KT 9999 SCT025 FEW027CB 24/21 Q1019,HUEN,2023-06-01T06:00:00Z,0.03,32.45,24.0,21.0,310,3,,6.21,30.088583,,,,,,,,,,,SCT,2500,FEW,2700,,,,,VFR,,,,,,,,,,,,METAR,1147.0
HTZA 010600Z 20009KT 9999 FEW018 BKN080 28/2 Q1017 NOSIG,HTZA,2023-06-01T06:00:00Z,-6.22,39.22,28.0,,200,9,,6.21,30.029528,,,,,,TRUE,,,,,FEW,1800,BKN,8000,,,,,VFR,,,,,,,,,,,,METAR,19.0
HTTB 010600Z 10012KT CAVOK 21/15 Q1022 NOSIG,HTTB,2023-06-01T06:00:00Z,-5.07,32.82,21.0,15.0,100,12,,6.21,30.177166,,,,,,TRUE,,,,,CAVOK,,,,,,,,VFR,,,,,,,,,,,,METAR,1185.0
HTSU 010600Z 14012KT 9999 FEW017 17/11 Q1026,HTSU,2023-06-01T06:00:00Z,-7.95,31.6,17.0,11.0,140,12,,6.21,30.295275,,,,,,,,,,,FEW,1700,,,,,,,VFR,,,,,,,,,,,,METAR,1820.0
HTSO 010600Z 05006KT 9999 BKN017 20/16 Q1024,HTSO,2023-06-01T06:00:00Z,-10.67,35.58,20.0,16.0,50,6,,6.21,30.236221,,,,,,,,,,,BKN,1700,,,,,,,MVFR,,,,,,,,,,,,METAR,1058.0
HTMW 010600Z 11011KT 9999 FEW022 FEW023CB 23/19 Q1020 NOSIG,HTMW,2023-06-01T06:00:00Z,-2.43,32.92,23.0,19.0,110,11,,6.21,30.11811,,,,,,TRUE,,,,,FEW,2200,FEW,2300,,,,,VFR,,,,,,,,,,,,METAR,1144.0
HTMU 010600Z 12008KT 9999 FEW020 FEW022CB 22/18 Q1021,HTMU,2023-06-01T06:00:00Z,-1.5,33.8,22.0,18.0,120,8,,6.21,30.147638,,,,,,,,,,,FEW,2000,FEW,2200,,,,,VFR,,,,,,,,,,,,METAR,1154.0
HTMT 010600Z 18010KT 9999 SCT019 FEW020CB BKN080 24/23 Q1018 NO SIG,HTMT,2023-06-01T06:00:00Z,-10.33,40.18,24.0,23.0,180,10,,6.21,30.059055,,,,,,,,,,,SCT,1900,FEW,2000,BKN,8000,,,VFR,,,,,,,,,,,,METAR,114.0
HTMP 010600Z 00000KT 9999 SKC 18/14 Q1022,HTMP,2023-06-01T06:00:00Z,-6.35,31.08,18.0,14.0,0,0,,6.21,30.177166,,,,,,,,,,,SKC,,,,,,,,VFR,,,,,,,,,,,,METAR,1073.0
HTMG 010600Z 00000KT 9999 -RA SCT020 BKN080 21/20 Q1020,HTMG,2023-06-01T06:00:00Z,-6.78,37.65,21.0,20.0,0,0,,6.21,30.11811,,,,,,,,,,-RA,SCT,2000,BKN,8000,,,,,VFR,,,,,,,,,,,,METAR,512.0
HTKJ 010600Z 00000KT 9999 -RA BKN024 21/19 Q1023 NOSIG,HTKJ,2023-06-01T06:00:00Z,-3.42,37.07,21.0,19.0,0,0,,6.21,30.206694,,,,,,TRUE,,,,-RA,BKN,2400,,,,,,,MVFR,,,,,,,,,,,,METAR,893.0
HTKA 010600Z 00000KT 9999 FEW018 20/17 Q1018 NOSIG,HTKA,2023-06-01T06:00:00Z,-4.88,29.67,20.0,17.0,0,0,,6.21,30.059055,,,,,,TRUE,,,,,FEW,1800,,,,,,,VFR,,,,,,,,,,,,METAR,819.0
HTIR 010600Z 00000KT 9999 FEW020 20/14 Q1024,HTIR,2023-06-01T06:00:00Z,-7.67,35.75,20.0,14.0,0,0,,6.21,30.236221,,,,,,,,,,,FEW,2000,,,,,,,VFR,,,,,,,,,,,,METAR,1432.0
HTIB 010600Z 16011KT CAVOK 23/15 Q1019,HTIB,2023-06-01T06:00:00Z,,,23.0,15.0,160,11,,6.21,30.088583,,,,,,,,,,,CAVOK,,,,,,,,VFR,,,,,,,,,,,,METAR,
HTDO 010600Z 11012KT 9999 SCT022 22/16 Q1022 NOSIG,HTDO,2023-06-01T06:00:00Z,-6.17,35.77,22.0,16.0,110,12,,6.21,30.177166,,,,,,TRUE,,,,,SCT,2200,,,,,,,VFR,,,,,,,,,,,,METAR,1119.0
HTDA 010600Z 17005KT 9999 FEW014 SCT016 28/25 Q1017 NOSIG,HTDA,2023-06-01T06:00:00Z,-6.88,39.2,28.0,25.0,170,5,,6.21,30.029528,,,,,,TRUE,,,,,FEW,1400,SCT,1600,,,,,VFR,,,,,,,,,,,,METAR,53.0
HTBU 010600Z 13008KT 9999 TS BKN012 FEW014CB 22/19 Q1020,HTBU,2023-06-01T06:00:00Z,-1.32,31.82,22.0,19.0,130,8,,6.21,30.11811,,,,,,,,,,TS,BKN,1200,FEW,1400,,,,,MVFR,,,,,,,,,,,,METAR,1144.0
HTAR 010600Z 12006KT 9999 BKN020 19/15 Q1026 NOSIG,HTAR,2023-06-01T06:00:00Z,-3.37,36.63,19.0,15.0,120,6,,6.21,30.295275,,,,,,TRUE,,,,,BKN,2000,,,,,,,MVFR,,,,,,,,,,,,METAR,1386.0
HRZA 010600Z VRB02KT 9999 SCT025 19/17 Q1023 NOSIG,HRZA,2023-06-01T06:00:00Z,-2.47,28.92,19.0,17.0,0,2,,6.21,30.206694,,,,,,TRUE,,,,,SCT,2500,,,,,,,VFR,,,,,,,,,,,,METAR,1591.0
HKWJ 010600Z 19009KT 9999 FEW027 28/20 Q1015,HKWJ,2023-06-01T06:00:00Z,1.75,40.08,28.0,20.0,190,9,,6.21,29.970472,,,,,,,,,,,FEW,2700,,,,,,,VFR,,,,,,,,,,,,METAR,254.0
HKNW 010600Z 00000KT 9999 BKN017 BKN080 18/14 Q1027,HKNW,2023-06-01T06:00:00Z,-1.32,36.82,18.0,14.0,0,0,,6.21,30.324802,,,,,,,,,,,BKN,1700,BKN,8000,,,,,MVFR,,,,,,,,,,,,METAR,1666.0
HKNK 010600Z 00000KT 9999 FEW019 17/13,HKNK,2023-06-01T06:00:00Z,-0.3,36.17,17.0,13.0,0,0,,6.21,,,,,,,,,,,,FEW,1900,,,,,,,VFR,,,,,,,,,,,,METAR,1900.0
HKNI 010600Z 23004KT 9999 BKN019 18/16 REDZ,HKNI,2023-06-01T06:00:00Z,-0.33,36.92,18.0,16.0,230,4,,6.21,,,,,,,,,,,,BKN,1900,,,,,,,MVFR,,,,,,,,,,,,SPECI,1769.0
HKMO 010600Z 20008KT 9999 FEW023 27/23 Q1016 NOSIG,HKMO,2023-06-01T06:00:00Z,-4.02,39.62,27.0,23.0,200,8,,6.21,30.0,,,,,,TRUE,,,,,FEW,2300,,,,,,,VFR,,,,,,,,,,,,METAR,55.0
HKML 010600Z 15006KT 9999 SCT020 BKN080 25/22 Q1016,HKML,2023-06-01T06:00:00Z,-3.22,40.1,25.0,22.0,150,6,,6.21,30.0,,,,,,,,,,,SCT,2000,BKN,8000,,,,,VFR,,,,,,,,,,,,METAR,20.0
HKME 010600Z 18008KT 9999 FEW017 20/14,HKME,2023-06-01T06:00:00Z,0.07,37.65,20.0,14.0,180,8,,6.21,,,,,,,,,,,,FEW,1700,,,,,,,VFR,,,,,,,,,,,,METAR,1609.0
HKLU 010600Z 17005KT 9999 BKN022TCU 28/23 Q1015,HKLU,2023-06-01T06:00:00Z,-2.25,40.92,28.0,23.0,170,5,,6.21,29.970472,,,,,,,,,,,BKN,2200,,,,,,,MVFR,,,,,,,,,,,,METAR,6.0
HKLO 010600Z 15007KT CAVOK 29/18 Q1013,HKLO,2023-06-01T06:00:00Z,3.12,35.62,29.0,18.0,150,7,,6.21,29.911417,,,,,,,,,,,CAVOK,,,,,,,,VFR,,,,,,,,,,,,METAR,503.0
HKKT 010600Z 00000KT CAVOK 18/17,HKKT,2023-06-01T06:00:00Z,0.97,34.97,18.0,17.0,0,0,,6.21,,,,,,,,,,,,CAVOK,,,,,,,,VFR,,,,,,,,,,,,METAR,1829.0
HKGA 010600Z 18012KT 9999 FEW024 28/21 Q1015,HKGA,2023-06-01T06:00:00Z,-0.47,39.65,28.0,21.0,180,12,,6.21,29.970472,,,,,,,,,,,FEW,2400,,,,,,,VFR,,,,,,,,,,,,METAR,147.0
HKEM 010600Z 00000KT 9999 SCT017 SCT080 19/14,HKEM,2023-06-01T06:00:00Z,-0.57,37.48,19.0,14.0,0,0,,6.21,,,,,,,,,,,,SCT,1700,SCT,8000,,,,,VFR,,,,,,,,,,,,METAR,1265.0
HKEL 010600Z VRB02KT 9999 FEW018 17/14 Q1027,HKEL,2023-06-01T06:00:00Z,0.4,35.23,17.0,14.0,0,2,,6.21,30.324802,,,,,,,,,,,FEW,1800,,,,,,,VFR,,,,,,,,,,,,METAR,2116.0
HETR 010600Z 33008KT CAVOK 28/08 Q1011,HETR,2023-06-01T06:00:00Z,28.22,33.65,28.0,8.0,330,8,,6.21,29.852362,,,,,,,,,,,CAVOK,,,,,,,,VFR,,,,,,,,,,,,METAR,35.0
HESX 010600Z 27014KTG24 5000 SA SCT025 OVC100 31/06 Q1011 NOSIG,HESX,2023-06-01T06:00:00Z,,,31.0,6.0,,,,3.11,29.852362,,,,,,TRUE,,,,SA,SCT,2500,OVC,10000,,,,,MVFR,,,,,,,,,,,,METAR,
HESW 010600Z 19015KT 6000 SCT025 OVC100 33/10 Q1006,HESW,2023-06-01T06:00:00Z,29.35,25.5,33.0,10.0,190,15,,3.73,29.704725,,,,,,,,,,,SCT,2500,OVC,10000,,,,,MVFR,,,,,,,,,,,,METAR,101.0
HESN 010600Z 30004KT CAVOK 34/06 Q1012 NOSIG,HESN,2023-06-01T06:00:00Z,23.97,32.82,34.0,6.0,300,4,,6.21,29.88189,,,,,,TRUE,,,,,CAVOK,,,,,,,,VFR,,,,,,,,,,,,METAR,197.0
HESH 010600Z 01013KT CAVOK 32/13 Q1011 NOSIG,HESH,2023-06-01T06:00:00Z,27.97,34.38,32.0,13.0,10,13,,6.21,29.852362,,,,,,TRUE,,,,,CAVOK,,,,,,,,VFR,,,,,,,,,,,,METAR,50.0
HESG 010600Z 09002KT CAVOK 32/07 Q1010 NOSIG,HESG,2023-06-01T06:00:00Z,26.33,31.75,32.0,7.0,90,2,,6.21,29.822834,,,,,,TRUE,,,,,CAVOK,,,,,,,,VFR,,,,,,,,,,,,METAR,70.0
HEPS 010600Z 10008KT CAVOK 25/20 Q1010 NOSIG,HEPS,2023-06-01T06:00:00Z,31.28,32.25,25.0,20.0,100,8,,6.21,29.822834,,,,,,TRUE,,,,,CAVOK,,,,,,,,VFR,,,,,,,,,,,,METAR,2.0
HEMM 010600Z 05020KT 6000 SCT020 OVC100 23/19 Q1008 NOSIG,HEMM,2023-06-01T06:00:00Z,31.32,27.22,23.0,19.0,50,20,,3.73,29.763779,,,,,,TRUE,,,,,SCT,2000,OVC,10000,,,,,MVFR,,,,,,,,,,,,METAR,26.0
HEMA 010600Z 34008KT CAVOK 33/05 Q1011 NOSIG,HEMA,2023-06-01T06:00:00Z,25.55,34.58,33.0,5.0,340,8,,6.21,29.852362,,,,,,TRUE,,,,,CAVOK,,,,,,,,VFR,,,,,,,,,,,,METAR,77.0
HELX 010600Z 06003KT CAVOK 32/11 Q1011 NOSIG,HELX,2023-06-01T06:00:00Z,25.67,32.7,32.0,11.0,60,3,,6.21,29.852362,,,,,,TRUE,,,,,CAVOK,,,,,,,,VFR,,,,,,,,,,,,METAR,86.0
HEIS 010600Z 15011KT CAVOK 29/13 Q1009,HEIS,2023-06-01T06:00:00Z,30.58,32.25,29.0,13.0,150,11,,6.21,29.793306,,,,,,,,,,,CAVOK,,,,,,,,VFR,,,,,,,,,,,,METAR,14.0
HEGN 010600Z 00000KT CAVOK 33/12 Q1012 NOSIG,HEGN,2023-06-01T06:00:00Z,27.18,33.8,33.0,12.0,0,0,,6.21,29.88189,,,,,,TRUE,,,,,CAVOK,,,,,,,,VFR,,,,,,,,,,,,METAR,14.0
HECP 010600Z 14010KT CAVOK 33/08 Q1009 NOSIG,HECP,2023-06-01T06:00:00Z,30.07,31.83,33.0,8.0,140,10,,6.21,29.793306,,,,,,TRUE,,,,,CAVOK,,,,,,,,VFR,,,,,,,,,,,,METAR,240.0
HEBL 010600Z 00000KT CAVOK 34/12 Q1011 NOSIG,HEBL,2023-06-01T06:00:00Z,22.38,31.62,34.0,12.0,0,0,,6.21,29.852362,,,,,,TRUE,,,,,CAVOK,,,,,,,,VFR,,,,,,,,,,,,METAR,184.0
HEBA 010600Z 08012KT 6000 FEW020 SCT020 24/14 Q1008 NOSIG,HEBA,2023-06-01T06:00:00Z,30.92,29.7,24.0,14.0,80,12,,3.73,29.763779,,,,,,TRUE,,,,,FEW,2000,SCT,2000,,,,,MVFR,,,,,,,,,,,,METAR,41.0
HEAX 010600Z 08009KT 9999 SCT020 SCT022 25/16 Q1009 NOSIG,HEAX,2023-06-01T06:00:00Z,31.18,29.93,25.0,16.0,80,9,,6.21,29.793306,,,,,,TRUE,,,,,SCT,2000,SCT,2200,,,,,VFR,,,,,,,,,,,,METAR,-2.0
HEAT 010600Z 19015KT CAVOK 32/06 Q1012 NOSIG,HEAT,2023-06-01T06:00:00Z,27.05,31.02,32.0,6.0,190,15,,6.21,29.88189,,,,,,TRUE,,,,,CAVOK,,,,,,,,VFR,,,,,,,,,,,,METAR,229.0
HDAM 010600Z 27005KT 9999 FEW023 37/23 Q1009,HDAM,2023-06-01T06:00:00Z,11.55,43.17,37.0,23.0,270,5,,6.21,29.793306,,,,,,,,,,,FEW,2300,,,,,,,VFR,,,,,,,,,,,,METAR,6.0
HCMM 010600Z 20011KT 9999 BKN020 28/26 Q1014,HCMM,2023-06-01T06:00:00Z,2.02,45.3,28.0,26.0,200,11,,6.21,29.940945,,,,,,,,,,,BKN,2000,,,,,,,MVFR,,,,,,,,,,,,METAR,6.0
HCMF 010600Z 36010KT CAVOK 32/27 Q1008,HCMF,2023-06-01T06:00:00Z,11.27,49.13,32.0,27.0,360,10,,6.21,29.763779,,,,,,,,,,,CAVOK,,,,,,,,VFR,,,,,,,,,,,,METAR,8.0
HBBA 010600Z 34005KT 5000 HZ FEW030 24/18 Q1017 NOSIG,HBBA,2023-06-01T06:00:00Z,-3.32,29.32,24.0,18.0,340,5,,3.11,30.029528,,,,,,TRUE,,,,HZ,FEW,3000,,,,,,,MVFR,,,,,,,,,,,,METAR,777.0
HADR 010600Z 21003KT 9999 FEW026 FEW070 27/17 Q1021 NOSIG,HADR,2023-06-01T06:00:00Z,9.6,41.87,27.0,17.0,210,3,,6.21,30.147638,,,,,,TRUE,,,,,FEW,2600,FEW,7000,,,,,VFR,,,,,,,,,,,,METAR,1164.0
HABD 010600Z 11004KT 9999 FEW024 SCT025 BKN070 20/16 Q1025,HABD,2023-06-01T06:00:00Z,11.6,37.32,20.0,16.0,110,4,,6.21,30.265747,,,,,,,,,,,FEW,2400,SCT,2500,BKN,7000,,,VFR,,,,,,,,,,,,METAR,1828.0
HAAB 010600Z 10004KT 9999 SCT025 19/11 Q1028 NOSIG,HAAB,2023-06-01T06:00:00Z,8.97,38.78,19.0,11.0,100,4,,6.21,30.35433,,,,,,TRUE,,,,,SCT,2500,,,,,,,VFR,,,,,,,,,,,,METAR,2319.0
GVSV 010600Z 05011KT 9999 FEW017 SCT200 23/18 Q1014 NOSIG,GVSV,2023-06-01T06:00:00Z,16.83,-25.07,23.0,18.0,50,11,,6.21,29.940945,,,,,,TRUE,,,,,FEW,1700,SCT,20000,,,,,VFR,,,,,,,,,,,,METAR,16.0
GVNP 010600Z 01010KT CAVOK 24/14 Q1013 NOSIG,GVNP,2023-06-01T06:00:00Z,14.95,-23.48,24.0,14.0,10,10,,6.21,29.911417,,,,,,TRUE,,,,,CAVOK,,,,,,,,VFR,,,,,,,,,,,,METAR,70.0
GVAC 010600Z 03007KT 9999 SCT014 SCT200 22/18 Q1015 NOSIG,GVAC,2023-06-01T06:00:00Z,16.73,-22.93,22.0,18.0,30,7,,6.21,29.970472,,,,,,TRUE,,,,,SCT,1400,SCT,20000,,,,,VFR,,,,,,,,,,,,METAR,54.0
GUNZ 010600Z VRB02KT 9999 SCT017 23/22 Q1007 NOSIG,GUNZ,2023-06-01T06:00:00Z,7.8,-8.7,23.0,22.0,0,2,,6.21,29.734253,,,,,,TRUE,,,,,SCT,1700,,,,,,,VFR,,,,,,,,,,,,METAR,500.0
GUCY 010600Z 09006KT 9999 SCT015 BKN110 24/23 Q1012 NOSIG,GUCY,2023-06-01T06:00:00Z,9.57,-13.62,24.0,23.0,90,6,,6.21,29.88189,,,,,,TRUE,,,,,SCT,1500,BKN,11000,,,,,VFR,,,,,,,,,,,,METAR,10.0
GOTT 010600Z 28010KT CAVOK 30/24 Q1010,GOTT,2023-06-01T06:00:00Z,13.73,-13.65,30.0,24.0,280,10,,6.21,29.822834,,,,,,,,,,,CAVOK,,,,,,,,VFR,,,,,,,,,,,,METAR,53.0
GOTK 010600Z 26004KT CAVOK 26/21 Q1010,GOTK,2023-06-01T06:00:00Z,12.57,-12.22,26.0,21.0,260,4,,6.21,29.822834,,,,,,,,,,,CAVOK,,,,,,,,VFR,,,,,,,,,,,,METAR,165.0
GOSS 010600Z VRB02KT CAVOK 23/19 Q1012,GOSS,2023-06-01T06:00:00Z,16.05,-16.45,23.0,19.0,0,2,,6.21,29.88189,,,,,,,,,,,CAVOK,,,,,,,,VFR,,,,,,,,,,,,METAR,3.0
GOSP 010600Z 36002KT CAVOK 28/15 Q1010,GOSP,2023-06-01T06:00:00Z,16.68,-14.97,28.0,15.0,360,2,,6.21,29.822834,,,,,,,,,,,CAVOK,,,,,,,,VFR,,,,,,,,,,,,METAR,10.0
GOSM 010600Z 24014KT CAVOK 31/22 Q1009,GOSM,2023-06-01T06:00:00Z,15.6,-13.33,31.0,22.0,240,14,,6.21,29.793306,,,,,,,,,,,CAVOK,,,,,,,,VFR,,,,,,,,,,,,METAR,28.0
GOOG 010600Z 28006KT CAVOK 28/23 Q1008,GOOG,2023-06-01T06:00:00Z,15.4,-15.08,28.0,23.0,280,6,,6.21,29.763779,,,,,,,,,,,CAVOK,,,,,,,,VFR,,,,,,,,,,,,METAR,38.0
GOOD 010600Z 26004KT CAVOK 26/23 Q1010,GOOD,2023-06-01T06:00:00Z,14.65,-16.22,26.0,23.0,260,4,,6.21,29.822834,,,,,,,,,,,CAVOK,,,,,,,,VFR,,,,,,,,,,,,METAR,9.0
GOGS 010600Z 30006KT CAVOK 27/24 Q1011,GOGS,2023-06-01T06:00:00Z,12.4,-16.75,27.0,24.0,300,6,,6.21,29.852362,,,,,,,,,,,CAVOK,,,,,,,,VFR,,,,,,,,,,,,METAR,13.0
GOGK 010600Z 28002KT CAVOK 27/26 Q1009,GOGK,2023-06-01T06:00:00Z,12.9,-14.97,27.0,26.0,280,2,,6.21,29.793306,,,,,,,,,,,CAVOK,,,,,,,,VFR,,,,,,,,,,,,METAR,37.0
GOGG 010600Z 28004KT CAVOK 27/25 Q1011,GOGG,2023-06-01T06:00:00Z,12.55,-16.27,27.0,25.0,280,4,,6.21,29.852362,,,,,,,,,,,CAVOK,,,,,,,,VFR,,,,,,,,,,,,METAR,24.0
GMTN 010600Z VRB01KT CAVOK 15/13 Q1011 NOSIG,GMTN,2023-06-01T06:00:00Z,35.58,-5.32,15.0,13.0,0,1,,6.21,29.852362,,,,,,TRUE,,,,,CAVOK,,,,,,,,VFR,,,,,,,,,,,,METAR,10.0
GMTA 010600Z VRB01KT CAVOK 17/11 Q1011 NOSIG,GMTA,2023-06-01T06:00:00Z,35.17,-3.85,17.0,11.0,0,1,,6.21,29.852362,,,,,,TRUE,,,,,CAVOK,,,,,,,,VFR,,,,,,,,,,,,METAR,14.0
GMMZ 010600Z 07008KT 9999 FEW040 19/07 Q1013 NOSIG,GMMZ,2023-06-01T06:00:00Z,30.93,-6.9,19.0,7.0,70,8,,6.21,29.911417,,,,,,TRUE,,,,,FEW,4000,,,,,,,VFR,,,,,,,,,,,,METAR,1139.0
GMMW 010600Z 04002KT CAVOK 15/13 Q1012 NOSIG,GMMW,2023-06-01T06:00:00Z,34.98,-3.02,15.0,13.0,40,2,,6.21,29.88189,,,,,,TRUE,,,,,CAVOK,,,,,,,,VFR,,,,,,,,,,,,METAR,174.0
GMMI 010600Z 23005KT 6000 2000NE BR FEW006 16/16 Q1013 NOSIG,GMMI,2023-06-01T06:00:00Z,31.4,-9.68,16.0,16.0,230,5,,3.73,29.911417,,,,,,TRUE,,,,BR,FEW,600,,,,,,,MVFR,,,,,,,,,,,,METAR,102.0
GMMH 010600Z 01005KT 6000 NSC 18/17 Q1014 NOSIG,GMMH,2023-06-01T06:00:00Z,23.72,-15.93,18.0,17.0,10,5,,3.73,29.940945,,,,,,TRUE,,,,,CLR,,,,,,,,MVFR,,,,,,,,,,,,METAR,11.0
GMMD 010600Z 16010KT 9999 FEW100 18/11 Q1011 NOSIG,GMMD,2023-06-01T06:00:00Z,32.4,-6.32,18.0,11.0,160,10,,6.21,29.852362,,,,,,TRUE,,,,,FEW,10000,,,,,,,VFR,,,,,,,,,,,,METAR,515.0
GMMC 010600Z VRB02KT 6000 FEW016TCU SCT200 19/16 Q1012,GMMC,2023-06-01T06:00:00Z,33.57,-7.67,19.0,16.0,0,2,,3.73,29.88189,,,,,,,,,,,FEW,1600,SCT,20000,,,,,MVFR,,,,,,,,,,,,METAR,62.0
GMMB 010600Z AUTO 15003KT 9999 SCT010/// 16/16 Q1012 NOSIG,GMMB,2023-06-01T06:00:00Z,33.65,-7.22,16.0,16.0,150,3,,6.21,29.88189,,,TRUE,,,TRUE,,,,,SCT,1000,,,,,,,VFR,,,,,,,,,,,,METAR,191.0
GMFM 010600Z 10004KT 9999 SCT020 SCT100 16/12 Q1012 NOSIG,GMFM,2023-06-01T06:00:00Z,33.87,-5.52,16.0,12.0,100,4,,6.21,29.88189,,,,,,TRUE,,,,,SCT,2000,SCT,10000,,,,,VFR,,,,,,,,,,,,METAR,569.0
GMFK 010600Z 07003KT 9999 SCT040 18/10 Q1016 NOSIG,GMFK,2023-06-01T06:00:00Z,31.95,-4.4,18.0,10.0,70,3,,6.21,30.0,,,,,,TRUE,,,,,SCT,4000,,,,,,,VFR,,,,,,,,,,,,METAR,1033.0
GMFB 010600Z 08004KT 9999 FEW033CB BKN060 18/10 Q1016 NOSIG,GMFB,2023-06-01T06:00:00Z,32.52,-1.98,18.0,10.0,80,4,,6.21,30.0,,,,,,TRUE,,,,,FEW,3300,BKN,6000,,,,,VFR,,,,,,,,,,,,METAR,1106.0
GMAT 010600Z 35006KT 8000 SCT010 16/15 Q1013 NOSIG,GMAT,2023-06-01T06:00:00Z,28.43,-11.15,16.0,15.0,350,6,,4.97,29.911417,,,,,,TRUE,,,,,SCT,1000,,,,,,,MVFR,,,,,,,,,,,,METAR,192.0
GMAG 010600Z 01004KT 6000 FEW016 16/12 Q1012 NOSIG,GMAG,2023-06-01T06:00:00Z,29.03,-10.05,16.0,12.0,10,4,,3.73,29.88189,,,,,,TRUE,,,,,FEW,1600,,,,,,,MVFR,,,,,,,,,,,,METAR,333.0
GGOV 010600Z VRB03KT 8000 SCT010 26/25 Q1011 NOSIG,GGOV,2023-06-01T06:00:00Z,11.88,-15.65,26.0,25.0,0,3,,4.97,29.852362,,,,,,TRUE,,,,,SCT,1000,,,,,,,MVFR,,,,,,,,,,,,METAR,31.0
GFLL 010600Z 08006KT 9999 BKN010 FEW027CB 24/23 Q1010 RMK CB NE,GFLL,2023-06-01T06:00:00Z,8.62,-13.18,24.0,23.0,80,6,,6.21,29.822834,,,,,,,,,,,BKN,1000,FEW,2700,,,,,MVFR,,,,,,,,,,,,METAR,28.0
GBYD 010600Z 29007KT CAVOK 25/24 Q1010,GBYD,2023-06-01T06:00:00Z,13.33,-16.65,25.0,24.0,290,7,,6.21,29.822834,,,,,,,,,,,CAVOK,,,,,,,,VFR,,,,,,,,,,,,METAR,29.0
GANR 010600Z 22004KT CAVOK 32/21 Q1010,GANR,2023-06-01T06:00:00Z,15.23,-9.58,32.0,21.0,220,4,,6.21,29.822834,,,,,,,,,,,CAVOK,,,,,,,,VFR,,,,,,,,,,,,METAR,237.0
GAMB 010600Z 22004KT 8000 NSC 30/19 Q1010,GAMB,2023-06-01T06:00:00Z,14.52,-4.08,30.0,19.0,220,4,,4.97,29.822834,,,,,,,,,,,CLR,,,,,,,,MVFR,,,,,,,,,,,,METAR,271.0
GAKD 010600Z 32008KT 8000 NSC 32/23 Q1010,GAKD,2023-06-01T06:00:00Z,14.48,-11.4,32.0,23.0,320,8,,4.97,29.822834,,,,,,,,,,,CLR,,,,,,,,MVFR,,,,,,,,,,,,METAR,53.0
FZAA 010600Z 00000KT 7000 SCT016 24/21 Q1014 NOSIG,FZAA,2023-06-01T06:00:00Z,-4.38,15.45,24.0,21.0,0,0,,4.35,29.940945,,,,,,TRUE,,,,,SCT,1600,,,,,,,MVFR,,,,,,,,,,,,METAR,309.0
FYWW 010600Z 11005KT CAVOK 11/M06 Q1023,FYWW,2023-06-01T06:00:00Z,-22.57,17.1,11.0,-6.0,110,5,,6.21,30.206694,,,,,,,,,,,CAVOK,,,,,,,,VFR,,,,,,,,,,,,METAR,1672.0
FYWH 010600Z 27005KT CAVOK 04/M04 Q1024 NOSIG,FYWH,2023-06-01T06:00:00Z,-22.47,17.47,4.0,-4.0,270,5,,6.21,30.236221,,,,,,TRUE,,,,,CAVOK,,,,,,,,VFR,,,,,,,,,,,,METAR,1699.0
FYWE 010600Z 16005KT CAVOK 05/M07 Q1024,FYWE,2023-06-01T06:00:00Z,-22.62,17.08,5.0,-7.0,160,5,,6.21,30.236221,,,,,,,,,,,CAVOK,,,,,,,,VFR,,,,,,,,,,,,METAR,1700.0
FYOA 010600Z 17003KT CAVOK 14/01 Q1017,FYOA,2023-06-01T06:00:00Z,-17.88,15.97,14.0,1.0,170,3,,6.21,30.029528,,,,,,,,,,,CAVOK,,,,,,,,VFR,,,,,,,,,,,,METAR,1099.0
FYLZ 010600Z AUTO 18002KT //// // ////// 10/09 Q1013,FYLZ,2023-06-01T06:00:00Z,-26.68,15.25,10.0,9.0,180,2,,,29.911417,,,TRUE,,,,,,,,,,,,,,,,,,,,,,,,,,,,METAR,129.0
FYKT 010600Z 04011KT CAVOK 09/03 Q1021,FYKT,2023-06-01T06:00:00Z,-26.53,18.12,9.0,3.0,40,11,,6.21,30.147638,,,,,,,,,,,CAVOK,,,,,,,,VFR,,,,,,,,,,,,METAR,1064.0
FYKM 010600Z AUTO 32001KT //// // ////// 20/12 Q1019,FYKM,2023-06-01T06:00:00Z,-17.63,24.18,20.0,12.0,320,1,,,30.088583,,,TRUE,,,,,,,,,,,,,,,,,,,,,,,,,,,,METAR,959.0
FYGF 010600Z 26006KT CAVOK 12/M01 Q1023,FYGF,2023-06-01T06:00:00Z,-19.6,18.12,12.0,-1.0,260,6,,6.21,30.206694,,,,,,,,,,,CAVOK,,,,,,,,VFR,,,,,,,,,,,,METAR,1407.0
FWKI 010600Z 09003KT CAVOK 19/15 Q1023 NOSIG,FWKI,2023-06-01T06:00:00Z,-13.78,33.78,19.0,15.0,90,3,,6.21,30.206694,,,,,,TRUE,,,,,CAVOK,,,,,,,,VFR,,,,,,,,,,,,METAR,1225.0
FWCL 010600Z 07006KT CAVOK 27/09 Q1022 NOSIG,FWCL,2023-06-01T06:00:00Z,-15.67,34.97,27.0,9.0,70,6,,6.21,30.177166,,,,,,TRUE,,,,,CAVOK,,,,,,,,VFR,,,,,,,,,,,,METAR,774.0
FTTY 010600Z 16008KT 0300 HZ 34/21 Q1010,FTTY,2023-06-01T06:00:00Z,17.92,19.1,34.0,21.0,160,8,,0.19,29.822834,,,,,,,,,,HZ,,,,,,,,,,,,,,,,,,,,,METAR,234.0
FTTJ 010600Z 18006KT 6000 NSC 28/20 Q1010 NOSIG,FTTJ,2023-06-01T06:00:00Z,12.13,15.03,28.0,20.0,180,6,,3.73,29.822834,,,,,,TRUE,,,,,CLR,,,,,,,,MVFR,,,,,,,,,,,,METAR,295.0
FSIA 010600Z 13016KT 9999 SCT021 30/23 Q1013 NOSIG,FSIA,2023-06-01T06:00:00Z,-4.67,55.52,30.0,23.0,130,16,,6.21,29.911417,,,,,,TRUE,,,,,SCT,2100,,,,,,,VFR,,,,,,,,,,,,METAR,3.0
FQXA 010600Z 02008KT 350V050 9999 SCT020 21/19 Q1018,FQXA,2023-06-01T06:00:00Z,-25.05,33.62,21.0,19.0,20,8,,6.21,30.059055,,,,,,,,,,,SCT,2000,,,,,,,VFR,,,,,,,,,,,,METAR,3.0
FQVL 010600Z 05008KT 9999 SCT020 25/21 Q1018,FQVL,2023-06-01T06:00:00Z,-22.0,35.32,25.0,21.0,50,8,,6.21,30.059055,,,,,,,,,,,SCT,2000,,,,,,,VFR,,,,,,,,,,,,METAR,15.0
FQTT 010600Z 00000KT 8000 NSC 23/17 Q1019 RMK BR,FQTT,2023-06-01T06:00:00Z,-16.1,33.63,23.0,17.0,0,0,,4.97,30.088583,,,,,,,,,,,CLR,,,,,,,,MVFR,,,,,,,,,,,,METAR,146.0
FQQL 010600Z 04003KT 9999 BKN018 22/20 Q1019,FQQL,2023-06-01T06:00:00Z,-17.87,36.87,22.0,20.0,40,3,,6.21,30.088583,,,,,,,,,,,BKN,1800,,,,,,,MVFR,,,,,,,,,,,,METAR,5.0
FQNP 010600Z VRB02KT 8000 FEW020 23/18 Q1020 RMK BR,FQNP,2023-06-01T06:00:00Z,-15.1,39.27,23.0,18.0,0,2,,4.97,30.11811,,,,,,,,,,,FEW,2000,,,,,,,MVFR,,,,,,,,,,,,METAR,434.0
FQMA 0600Z 35003KT 5000 RADZ SCT007 BKN018 FEW025CB 20/18 Q1017 TEMPO 4000 TSRA,FQMA,2023-06-01T06:00:00Z,-25.92,32.57,20.0,18.0,350,3,,3.11,30.029528,,,,,,,,,,RA DZ,SCT,700,BKN,1800,FEW,2500,,,MVFR,,,,,,,,,,,,METAR,34.0
FQIN 010600Z 00000KT 9999 FEW020 23/20 Q1018,FQIN,2023-06-01T06:00:00Z,-23.87,35.38,23.0,20.0,0,0,,6.21,30.059055,,,,,,,,,,,FEW,2000,,,,,,,VFR,,,,,,,,,,,,METAR,10.0
FQCH 010600Z /////KT 9999 FEW020 18/16 Q1022,FQCH,2023-06-01T06:00:00Z,-19.15,33.43,18.0,16.0,,,,6.21,30.177166,,,,,,,,,,,FEW,2000,,,,,,,VFR,,,,,,,,,,,,METAR,695.0
FQBR 010600Z 04006KT 9999 FEW020 SCT/// 24/24 Q1017,FQBR,2023-06-01T06:00:00Z,-19.8,34.9,24.0,24.0,40,6,,6.21,30.029528,,,,,,,,,,,FEW,2000,,,,,,,VFR,,,,,,,,,,,,METAR,14.0
FOON 010600Z /////KT 2000 BR BKN002 23/23 Q1013,FOON,2023-06-01T06:00:00Z,-1.65,13.43,23.0,23.0,,,,1.24,29.911417,,,,,,,,,,BR,BKN,200,,,,,,,LIFR,,,,,,,,,,,,METAR,440.0
FOOL 010600Z 17008KT 8000 SCT010 BKN030 26/23 Q1012 NOSIG,FOOL,2023-06-01T06:00:00Z,0.45,9.42,26.0,23.0,170,8,,4.97,29.88189,,,,,,TRUE,,,,,SCT,1000,BKN,3000,,,,,MVFR,,,,,,,,,,,,METAR,9.0
FOOG 010600Z 17006KT 140V200 9999 SCT008 25/24 Q1011,FOOG,2023-06-01T06:00:00Z,-0.7,8.75,25.0,24.0,170,6,,6.21,29.852362,,,,,,,,,,,SCT,800,,,,,,,VFR,,,,,,,,,,,,METAR,4.0
FNLU 010600Z 18004KT 8000 BKN020 24/20 Q1012 NOSIG,FNLU,2023-06-01T06:00:00Z,-8.85,13.22,24.0,20.0,180,4,,4.97,29.88189,,,,,,TRUE,,,,,BKN,2000,,,,,,,MVFR,,,,,,,,,,,,METAR,75.0
FMSD 010600Z 08008KT 9999 FEW016 25/17 Q1021,FMSD,2023-06-01T06:00:00Z,-25.03,46.95,25.0,17.0,80,8,,6.21,30.147638,,,,,,,,,,,FEW,1600,,,,,,,VFR,,,,,,,,,,,,METAR,7.0
FMNN 010600Z 00000KT 9999 BKN020 28/// Q1017,FMNN,2023-06-01T06:00:00Z,-13.32,48.32,,,0,0,,6.21,30.029528,,,,,,,,,,,BKN,2000,,,,,,,MVFR,,,,,,,,,,,,METAR,10.0
FMNM 010600Z 13011KT 100V160 9999 FEW040 28/16 Q1019 NOSIG,FMNM,2023-06-01T06:00:00Z,-15.67,46.35,28.0,16.0,130,11,,6.21,30.088583,,,,,,TRUE,,,,,FEW,4000,,,,,,,VFR,,,,,,,,,,,,METAR,18.0
FMNA 010600Z 14014KT 9999 FEW020 28/16 Q1016,FMNA,2023-06-01T06:00:00Z,-12.33,49.28,28.0,16.0,140,14,,6.21,30.0,,,,,,,,,,,FEW,2000,,,,,,,VFR,,,,,,,,,,,,METAR,108.0
FMMT 010600Z 25007KT 210V270 9000 VCSH FEW007 SCT017TCU BKN033 22/21 Q1021 TEMPO 4000 RA,FMMT,2023-06-01T06:00:00Z,-18.12,49.38,22.0,21.0,250,7,,5.59,30.147638,,,,,,,,,,VCSH,FEW,700,SCT,1700,BKN,3300,,,VFR,,,,,,,,,,,,METAR,13.0
FMCH 010600Z 13006KT 080V170 9999 FEW020 30/21 Q1017 NOSIG,FMCH,2023-06-01T06:00:00Z,-11.53,43.27,30.0,21.0,130,6,,6.21,30.029528,,,,,,TRUE,,,,,FEW,2000,,,,,,,VFR,,,,,,,,,,,,METAR,30.0
FKYS 010600Z 00000KT 6000 BKN006 23/23 Q1017 NOSIG,FKYS,2023-06-01T06:00:00Z,3.82,11.52,23.0,23.0,0,0,,3.73,30.029528,,,,,,TRUE,,,,,BKN,600,,,,,,,IFR,,,,,,,,,,,,METAR,694.0
FKKD 010600Z VRB01KT 4000 TS BR SCT013 FEW016CB 24/24 Q1012 NOSIG,FKKD,2023-06-01T06:00:00Z,4.0,9.72,24.0,24.0,0,1,,2.49,29.88189,,,,,,TRUE,,,,TS BR,SCT,1300,FEW,1600,,,,,IFR,,,,,,,,,,,,METAR,10.0
FIMP 010600Z 14007KT 9999 BKN017 26/19 Q1021,FIMP,2023-06-01T06:00:00Z,-20.43,57.68,26.0,19.0,140,7,,6.21,30.147638,,,,,,,,,,,BKN,1700,,,,,,,MVFR,,,,,,,,,,,,METAR,57.0
FGSL 010600Z 22002KT 9999 FEW010 FEW016CB 26/24 Q1012 RETS NOSI G,FGSL,2023-06-01T06:00:00Z,3.75,8.72,26.0,24.0,220,2,,6.21,29.88189,,,,,,,,,,,FEW,1000,FEW,1600,,,,,VFR,,,,,,,,,,,,SPECI,23.0
FEFF 010600Z 29003KT 8000 FEW007 24/21 Q1011 NOSIG,FEFF,2023-06-01T06:00:00Z,4.4,18.52,24.0,21.0,290,3,,4.97,29.852362,,,,,,TRUE,,,,,FEW,700,,,,,,,MVFR,,,,,,,,,,,,METAR,364.0
FDSK 010600Z 00000KT 9999 FEW035 18/08 Q1019 NOSIG,FDSK,2023-06-01T06:00:00Z,-26.35,31.72,18.0,8.0,0,0,,6.21,30.088583,,,,,,TRUE,,,,,FEW,3500,,,,,,,VFR,,,,,,,,,,,,METAR,323.0
FCPP 010600Z VRB02KT 6000 SCT010 24/22 Q1012 BECMG 4000 BR,FCPP,2023-06-01T06:00:00Z,-4.82,11.9,24.0,22.0,0,2,,3.73,29.88189,,,,,,,,,,,SCT,1000,,,,,,,MVFR,,,,,,,,,,,,METAR,18.0
FCOD 010600Z 00000KT 5000 BR NSC 23/23 Q1013,FCOD,2023-06-01T06:00:00Z,,,23.0,23.0,0,0,,3.11,29.911417,,,,,,,,,,BR,CLR,,,,,,,,MVFR,,,,,,,,,,,,METAR,
FCBB 010600Z 25004KT 220V290 7000 BKN012 24/23 Q1014 NOSIG,FCBB,2023-06-01T06:00:00Z,-4.25,15.25,24.0,23.0,250,4,,4.35,29.940945,,,,,,TRUE,,,,,BKN,1200,,,,,,,MVFR,,,,,,,,,,,,METAR,316.0
FBSK 010600Z VRB02KT CAVOK 06/04 Q1022 NOSIG,FBSK,2023-06-01T06:00:00Z,-24.55,25.92,6.0,4.0,0,2,,6.21,30.177166,,,,,,TRUE,,,,,CAVOK,,,,,,,,VFR,,,,,,,,,,,,METAR,1007.0
FBPM 010600Z VRB02KT CAVOK 14/11 Q1022,FBPM,2023-06-01T06:00:00Z,-21.17,27.48,14.0,11.0,0,2,,6.21,30.177166,,,,,,,,,,,CAVOK,,,,,,,,VFR,,,,,,,,,,,,METAR,1009.0
FBMN 010600Z VRB02KT CAVOK 13/01 Q1021,FBMN,2023-06-01T06:00:00Z,-19.97,23.42,13.0,1.0,0,2,,6.21,30.147638,,,,,,,,,,,CAVOK,,,,,,,,VFR,,,,,,,,,,,,METAR,946.0
FBKE 010600Z 13004KT CAVOK 18/14 Q1021,FBKE,2023-06-01T06:00:00Z,-17.82,25.17,18.0,14.0,130,4,,6.21,30.147638,,,,,,,,,,,CAVOK,,,,,,,,VFR,,,,,,,,,,,,METAR,999.0
FAWB 010600Z AUTO 17003KT //// // ////// 09/04 Q1022,FAWB,2023-06-01T06:00:00Z,-25.65,28.22,9.0,4.0,170,3,,,30.177166,,,TRUE,,,,,,,,,,,,,,,,,,,,,,,,,,,,METAR,1245.0
FAUT 010600Z 27001KT 9999 BKN025 10/09 Q1018,FAUT,2023-06-01T06:00:00Z,-31.53,28.67,10.0,9.0,270,1,,6.21,30.059055,,,,,,,,,,,BKN,2500,,,,,,,MVFR,,,,,,,,,,,,METAR,735.0
FAUP 010600Z 04002KT CAVOK 06/04 Q1022 NOSIG,FAUP,2023-06-01T06:00:00Z,-28.38,21.27,6.0,4.0,40,2,,6.21,30.177166,,,,,,TRUE,,,,,CAVOK,,,,,,,,VFR,,,,,,,,,,,,METAR,845.0
FAPP 010600Z 20007KT 9999 BKN012 14/10 Q1024 BECMG BKN020,FAPP,2023-06-01T06:00:00Z,-23.83,29.45,14.0,10.0,200,7,,6.21,30.236221,,,,,,,,,,,BKN,1200,,,,,,,MVFR,,,,,,,,,,,,METAR,1238.0
FAPN 010600Z AUTO 22003KT //// // ////// 06/04 Q1023,FAPN,2023-06-01T06:00:00Z,-25.33,27.17,6.0,4.0,220,3,,,30.206694,,,TRUE,,,,,,,,,,,,,,,,,,,,,,,,,,,,METAR,1045.0
FAOR 010600Z VRB02KT CAVOK 07/04 Q1023 NOSIG,FAOR,2023-06-01T06:00:00Z,-26.13,28.23,7.0,4.0,0,2,,6.21,30.206694,,,,,,TRUE,,,,,CAVOK,,,,,,,,VFR,,,,,,,,,,,,METAR,1684.0
FALW 010600Z AUTO 11004KT //// // ////// 13/13 Q1018,FALW,2023-06-01T06:00:00Z,-32.97,18.17,13.0,13.0,110,4,,,30.059055,,,TRUE,,,,,,,,,,,,,,,,,,,,,,,,,,,,METAR,31.0
FALE 010600Z 20004KT 170V250 CAVOK 15/11 Q1018 NOSIG,FALE,2023-06-01T06:00:00Z,-29.62,31.12,15.0,11.0,200,4,,6.21,30.059055,,,,,,TRUE,,,,,CAVOK,,,,,,,,VFR,,,,,,,,,,,,METAR,109.0
FALA 010600Z VRB02KT CAVOK 04/02 Q1024 NOSIG,FALA,2023-06-01T06:00:00Z,-25.93,27.92,4.0,2.0,0,2,,6.21,30.236221,,,,,,TRUE,,,,,CAVOK,,,,,,,,VFR,,,,,,,,,,,,METAR,1365.0
FAKN 010600Z AUTO 27002KT //// // ////// 16/13 Q1021,FAKN,2023-06-01T06:00:00Z,-25.38,31.1,16.0,13.0,270,2,,,30.147638,,,TRUE,,,,,,,,,,,,,,,,,,,,,,,,,,,,METAR,864.0
FAHS 010600Z AUTO 00000KT //// // ////// 20/20 Q1018,FAHS,2023-06-01T06:00:00Z,-24.37,31.03,20.0,20.0,0,0,,,30.059055,,,TRUE,,,,,,,,,,,,,,,,,,,,,,,,,,,,METAR,532.0
FAGG 010600Z 31007KT 9999 -RA SCT007 BKN011 OVC015 16/15 Q1016,FAGG,2023-06-01T06:00:00Z,-34.0,22.37,16.0,15.0,310,7,,6.21,30.0,,,,,,,,,,-RA,SCT,700,BKN,1100,OVC,1500,,,MVFR,,,,,,,,,,,,METAR,196.0
FAEL 010600Z 29008KT CAVOK 15/08 Q1017,FAEL,2023-06-01T06:00:00Z,-33.03,27.82,15.0,8.0,290,8,,6.21,30.029528,,,,,,,,,,,CAVOK,,,,,,,,VFR,,,,,,,,,,,,METAR,127.0
FABL 010600Z 03001KT 0000 FG OVC001 M00/M01 Q1025 TEMPO OVC002,FABL,2023-06-01T06:00:00Z,-29.1,26.3,0.0,-1.0,30,1,,0.0,30.265747,,,,,,,,,,FG,OVC,100,,,,,,,LIFR,,,,,,,,,,,,SPECI,1348.0
EIME 010600Z 08008KT 9999 FEW012 12/11 Q1027,EIME,2023-06-01T06:00:00Z,53.3,-6.45,12.0,11.0,80,8,,6.21,30.324802,,,,,,,,,,,FEW,1200,,,,,,,VFR,,,,,,,,,,,,METAR,90.0
DXXX 010600Z VRB02KT 8000 TS FEW009 FEW020CB SCT030 24/23 Q1012 NOSIG,DXXX,2023-06-01T06:00:00Z,6.17,1.25,24.0,23.0,0,2,,4.97,29.88189,,,,,,TRUE,,,,TS,FEW,900,FEW,2000,SCT,3000,,,MVFR,,,,,,,,,,,,METAR,22.0
DXSK 010600Z 00000KT 9999 RA FEW010 BKN120 22/22 Q////,DXSK,2023-06-01T06:00:00Z,9.0,1.15,22.0,22.0,0,0,,6.21,,,,,,,,,,,RA,FEW,1000,BKN,12000,,,,,VFR,,,,,,,,,,,,METAR,381.0
DXNG 010600Z 15009KT 9999 -TSRA SCT006 FEW016CB 21/19 Q1015,DXNG,2023-06-01T06:00:00Z,9.77,1.1,21.0,19.0,150,9,,6.21,29.970472,,,,,,,,,,-TSRA,SCT,600,FEW,1600,,,,,VFR,,,,,,,,,,,,METAR,343.0
DTTZ 010600Z 09004KT 9999 SCT030 19/15 Q1013,DTTZ,2023-06-01T06:00:00Z,33.93,8.1,19.0,15.0,90,4,,6.21,29.911417,,,,,,,,,,,SCT,3000,,,,,,,VFR,,,,,,,,,,,,METAR,87.0
DTTX 010600Z 33006KT 9999 FEW033 19/16 Q1013,DTTX,2023-06-01T06:00:00Z,34.72,10.68,19.0,16.0,330,6,,6.21,29.911417,,,,,,,,,,,FEW,3300,,,,,,,VFR,,,,,,,,,,,,METAR,17.0
DTTR 010600Z 12003KT 070V150 CAVOK 18/13 Q1014,DTTR,2023-06-01T06:00:00Z,31.7,9.27,18.0,13.0,120,3,,6.21,29.940945,,,,,,,,,,,CAVOK,,,,,,,,VFR,,,,,,,,,,,,METAR,253.0
DTTN 010600Z /////KT 9999 SCT020 SCT030 16/16 Q1014,DTTN,2023-06-01T06:00:00Z,36.47,8.8,16.0,16.0,,,,6.21,29.940945,,,,,,,,,,,SCT,2000,SCT,3000,,,,,VFR,,,,,,,,,,,,SPECI,145.0
DTTL 010600Z VRB02KT 9999 SCT020 SCT026 20/19 Q1014,DTTL,2023-06-01T06:00:00Z,36.85,11.07,20.0,19.0,0,2,,6.21,29.940945,,,,,,,,,,,SCT,2000,SCT,2600,,,,,VFR,,,,,,,,,,,,METAR,18.0
DTTK 010600Z VRB02KT 6000 SCT023 SCT030 18/17 Q////,DTTK,2023-06-01T06:00:00Z,35.67,10.08,18.0,17.0,0,2,,3.73,,,,,,,,,,,,SCT,2300,SCT,3000,,,,,MVFR,,,,,,,,,,,,SPECI,65.0
DTTG 010600Z 01004KT 6000 FEW020 17/17 Q1014 NOSIG,DTTG,2023-06-01T06:00:00Z,33.73,9.92,17.0,17.0,10,4,,3.73,29.940945,,,,,,TRUE,,,,,FEW,2000,,,,,,,MVFR,,,,,,,,,,,,METAR,120.0
DTTF 010600Z 03007KT 010V080 8000 BKN030 16/15 Q1015,DTTF,2023-06-01T06:00:00Z,34.42,8.82,16.0,15.0,30,7,,4.97,29.970472,,,,,,,,,,,BKN,3000,,,,,,,MVFR,,,,,,,,,,,,METAR,314.0
DTTD 010600Z 00000KT 4000 BR SCT026 17/16 Q1014,DTTD,2023-06-01T06:00:00Z,32.32,10.4,17.0,16.0,0,0,,2.49,29.940945,,,,,,,,,,BR,SCT,2600,,,,,,,IFR,,,,,,,,,,,,METAR,306.0
DTTB 010600Z 28005KT 250V310 6000 BKN016 SCT030 18/17 Q1014,DTTB,2023-06-01T06:00:00Z,37.25,9.8,18.0,17.0,280,5,,3.73,29.940945,,,,,,,,,,,BKN,1600,SCT,3000,,,,,MVFR,,,,,,,,,,,,METAR,4.0
DTKA 010600Z 07004KT 9999 SCT020 SCT030 16/16 Q1014 NOSIG,DTKA,2023-06-01T06:00:00Z,36.98,8.88,16.0,16.0,70,4,,6.21,29.940945,,,,,,TRUE,,,,,SCT,2000,SCT,3000,,,,,VFR,,,,,,,,,,,,METAR,70.0
DRZR 010600Z 22008KT CAVOK 29/19 Q1012,DRZR,2023-06-01T06:00:00Z,13.77,8.98,29.0,19.0,220,8,,6.21,29.88189,,,,,,,,,,,CAVOK,,,,,,,,VFR,,,,,,,,,,,,METAR,457.0
DRZA 010600Z 16004KT 6000 NSC 30/11 Q1009,DRZA,2023-06-01T06:00:00Z,16.97,8.0,30.0,11.0,160,4,,3.73,29.793306,,,,,,,,,,,CLR,,,,,,,,MVFR,,,,,,,,,,,,METAR,506.0
DRRT 010600Z 24004KT CAVOK 32/22 Q1010,DRRT,2023-06-01T06:00:00Z,14.87,5.27,32.0,22.0,240,4,,6.21,29.822834,,,,,,,,,,,CAVOK,,,,,,,,VFR,,,,,,,,,,,,METAR,387.0
DRRN 010600Z 23012KT CAVOK 32/21 Q1010 NOSIG,DRRN,2023-06-01T06:00:00Z,13.47,2.17,32.0,21.0,230,12,,6.21,29.822834,,,,,,TRUE,,,,,CAVOK,,,,,,,,VFR,,,,,,,,,,,,METAR,223.0
DRRM 010600Z 21004KT 170V260 CAVOK 28/19 Q1011,DRRM,2023-06-01T06:00:00Z,13.5,7.12,28.0,19.0,210,4,,6.21,29.852362,,,,,,,,,,,CAVOK,,,,,,,,VFR,,,,,,,,,,,,METAR,374.0
DNYO 010600Z 00000KT CAVOK 26/24 Q1012,DNYO,2023-06-01T06:00:00Z,9.27,12.42,26.0,24.0,0,0,,6.21,29.88189,,,,,,,,,,,CAVOK,,,,,,,,VFR,,,,,,,,,,,,METAR,178.0
DNMN 010600Z 06002KT 9999 FEW008 24/22 Q1012,DNMN,2023-06-01T06:00:00Z,9.65,6.47,24.0,22.0,60,2,,6.21,29.88189,,,,,,,,,,,FEW,800,,,,,,,VFR,,,,,,,,,,,,METAR,268.0
DNMM 010600Z VRB02KT 8000 TS SCT010 FEW020CB 26/25 Q1013 NOSIG,DNMM,2023-06-01T06:00:00Z,6.57,3.32,26.0,25.0,0,2,,4.97,29.911417,,,,,,TRUE,,,,TS,SCT,1000,FEW,2000,,,,,MVFR,,,,,,,,,,,,METAR,27.0
DNKT 010600Z 20015KT CAVOK 28/19 Q1012 NOSIG,DNKT,2023-06-01T06:00:00Z,13.0,7.67,28.0,19.0,200,15,,6.21,29.88189,,,,,,TRUE,,,,,CAVOK,,,,,,,,VFR,,,,,,,,,,,,METAR,504.0
DNKN 010600Z 21005KT 9999 FEW010 25/21 1014 NOSIG,DNKN,2023-06-01T06:00:00Z,12.05,8.52,25.0,21.0,210,5,,6.21,,,,,,,TRUE,,,,,FEW,1000,,,,,,,VFR,,,,,,,,,,,,SPECI,471.0
DNJO 010600Z 27005KT 100 FG OVC008 20/20 Q1018,DNJO,2023-06-01T06:00:00Z,9.87,8.9,20.0,20.0,270,5,,,30.059055,,,,,,,,,,FG,OVC,800,,,,,,,,,,,,,,,,,,,METAR,1284.0
DNIM 010600Z 00000KT 3000 BR BKN009 24/23 Q1012,DNIM,2023-06-01T06:00:00Z,5.43,7.2,24.0,23.0,0,0,,1.86,29.88189,,,,,,,,,,BR,BKN,900,,,,,,,IFR,,,,,,,,,,,,METAR,113.0
DNIL 010600Z 20005KT 9999 FEW009 23/22 Q1011,DNIL,2023-06-01T06:00:00Z,8.43,4.48,23.0,22.0,200,5,,6.21,29.852362,,,,,,,,,,,FEW,900,,,,,,,VFR,,,,,,,,,,,,METAR,341.0
DNIB 010600Z 26003KT 8000 SCT009 24/23 Q1012,DNIB,2023-06-01T06:00:00Z,7.37,3.98,24.0,23.0,260,3,,4.97,29.88189,,,,,,,,,,,SCT,900,,,,,,,MVFR,,,,,,,,,,,,METAR,220.0
DNAA 010600Z 10004KT 9999 FEW009 24/23 Q1013 NOSIG,DNAA,2023-06-01T06:00:00Z,9.0,7.27,24.0,23.0,100,4,,6.21,29.911417,,,,,,TRUE,,,,,FEW,900,,,,,,,VFR,,,,,,,,,,,,METAR,338.0
DIYO 010600Z 18006KT 6000 BKN010 25/24 Q1012 NOSIG,DIYO,2023-06-01T06:00:00Z,6.9,-5.35,25.0,24.0,180,6,,3.73,29.88189,,,,,,TRUE,,,,,BKN,1000,,,,,,,MVFR,,,,,,,,,,,,METAR,202.0
DIBK 010600Z 22008KT 8000 FEW005 SCT011 24/24 Q1013 NOSIG,DIBK,2023-06-01T06:00:00Z,7.73,-5.07,24.0,24.0,220,8,,4.97,29.911417,,,,,,TRUE,,,,,FEW,500,SCT,1100,,,,,MVFR,,,,,,,,,,,,METAR,363.0
DGAA 010600Z 25006KT 8000 TSRA FEW040CB 27/25 Q1012 TEMPO 5000 +TSRA,DGAA,2023-06-01T06:00:00Z,5.58,-0.17,27.0,25.0,250,6,,4.97,29.88189,,,,,,,,,,TSRA,FEW,4000,,,,,,,MVFR,,,,,,,,,,,,SPECI,68.0
DFOO 010600Z 21004KT CAVOK 26/22 Q1012,DFOO,2023-06-01T06:00:00Z,11.17,-4.32,26.0,22.0,210,4,,6.21,29.88189,,,,,,,,,,,CAVOK,,,,,,,,VFR,,,,,,,,,,,,METAR,461.0
DFFD 010600Z 22006KT CAVOK 28/23 Q1011 NOSIG,DFFD,2023-06-01T06:00:00Z,12.35,-1.52,28.0,23.0,220,6,,6.21,29.852362,,,,,,TRUE,,,,,CAVOK,,,,,,,,VFR,,,,,,,,,,,,METAR,309.0
DBBB 010600Z VRB02KT 8000 -TSRA BKN011 FEW023CB 25/24 Q1012 NOSIG,DBBB,2023-06-01T06:00:00Z,6.35,2.38,25.0,24.0,0,2,,4.97,29.88189,,,,,,TRUE,,,,-TSRA,BKN,1100,FEW,2300,,,,,MVFR,,,,,,,,,,,,METAR,4.0
DAUZ 010600Z 05009KT 7000 NSC 22/07 Q1013,DAUZ,2023-06-01T06:00:00Z,28.05,9.63,22.0,7.0,50,9,,4.35,29.911417,,,,,,,,,,,CLR,,,,,,,,MVFR,,,,,,,,,,,,METAR,567.0
DAUU 010600Z 36010KT CAVOK 20/12 Q1012,DAUU,2023-06-01T06:00:00Z,31.92,5.4,20.0,12.0,360,10,,6.21,29.88189,,,,,,,,,,,CAVOK,,,,,,,,VFR,,,,,,,,,,,,METAR,147.0
DAUT 010600Z 10006KT CAVOK 20/01 Q1011,DAUT,2023-06-01T06:00:00Z,29.25,0.27,20.0,1.0,100,6,,6.21,29.852362,,,,,,,,,,,CAVOK,,,,,,,,VFR,,,,,,,,,,,,METAR,307.0
DAUO 010600Z 10006KT CAVOK 18/16 Q1013,DAUO,2023-06-01T06:00:00Z,33.5,6.78,18.0,16.0,100,6,,6.21,29.911417,,,,,,,,,,,CAVOK,,,,,,,,VFR,,,,,,,,,,,,METAR,55.0
DAUL 010600Z 00000KT CAVOK 15/09 Q1015,DAUL,2023-06-01T06:00:00Z,33.77,2.92,15.0,9.0,0,0,,6.21,29.970472,,,,,,,,,,,CAVOK,,,,,,,,VFR,,,,,,,,,,,,METAR,755.0
DAUK 010600Z 10004KT CAVOK 20/13 Q1013,DAUK,2023-06-01T06:00:00Z,33.08,6.08,20.0,13.0,100,4,,6.21,29.911417,,,,,,,,,,,CAVOK,,,,,,,,VFR,,,,,,,,,,,,METAR,83.0
DAUI 010600Z 05006KT CAVOK 25/05 Q1011,DAUI,2023-06-01T06:00:00Z,27.25,2.52,25.0,5.0,50,6,,6.21,29.852362,,,,,,,,,,,CAVOK,,,,,,,,VFR,,,,,,,,,,,,METAR,271.0
DAUH 010600Z 31002KT CAVOK 20/11 Q1012,DAUH,2023-06-01T06:00:00Z,31.67,6.15,20.0,11.0,310,2,,6.21,29.88189,,,,,,,,,,,CAVOK,,,,,,,,VFR,,,,,,,,,,,,METAR,141.0
DAUG 010600Z 35007KT CAVOK 19/09 Q1015,DAUG,2023-06-01T06:00:00Z,32.38,3.78,19.0,9.0,350,7,,6.21,29.970472,,,,,,,,,,,CAVOK,,,,,,,,VFR,,,,,,,,,,,,METAR,444.0
DAUE 010600Z 08003KT CAVOK 22/07 Q1014,DAUE,2023-06-01T06:00:00Z,30.57,2.87,22.0,7.0,80,3,,6.21,29.940945,,,,,,,,,,,CAVOK,,,,,,,,VFR,,,,,,,,,,,,METAR,396.0
DAUB 010600Z 08005KT 9999 FEW033 20/14 Q1014,DAUB,2023-06-01T06:00:00Z,34.78,5.73,20.0,14.0,80,5,,6.21,29.940945,,,,,,,,,,,FEW,3300,,,,,,,VFR,,,,,,,,,,,,METAR,75.0
DAUA 010600Z 06015KT 7000 NSC 22/00 Q1010,DAUA,2023-06-01T06:00:00Z,27.83,-0.18,22.0,0.0,60,15,,4.35,29.822834,,,,,,,,,,,CLR,,,,,,,,MVFR,,,,,,,,,,,,METAR,278.0
DATM 010600Z VRB02KT CAVOK 22/// Q1009,DATM,2023-06-01T06:00:00Z,21.38,0.92,,,0,2,,6.21,29.793306,,,,,,,,,,,CAVOK,,,,,,,,VFR,,,,,,,,,,,,METAR,398.0
DAOY 010600Z 14007KT 9999 FEW030 15/05 Q1016,DAOY,2023-06-01T06:00:00Z,33.72,1.08,15.0,5.0,140,7,,6.21,30.0,,,,,,,,,,,FEW,3000,,,,,,,VFR,,,,,,,,,,,,METAR,1340.0
DAOV 010600Z VRB02KT CAVOK 15/06 Q1014,DAOV,2023-06-01T06:00:00Z,35.2,0.15,15.0,6.0,0,2,,6.21,29.940945,,,,,,,,,,,CAVOK,,,,,,,,VFR,,,,,,,,,,,,METAR,506.0
DAOR 010600Z 07004KT 9999 FEW033 SCT100 21/06 Q1014,DAOR,2023-06-01T06:00:00Z,31.65,-2.27,21.0,6.0,70,4,,6.21,29.940945,,,,,,,,,,,FEW,3300,SCT,10000,,,,,VFR,,,,,,,,,,,,METAR,809.0
DAOL 010600Z 05004KT 9999 FEW023 SCT200 17/13 Q1013,DAOL,2023-06-01T06:00:00Z,35.53,-0.52,17.0,13.0,50,4,,6.21,29.911417,,,,,,,,,,,FEW,2300,SCT,20000,,,,,VFR,,,,,,,,,,,,METAR,103.0
DAOI 010600Z 06005KT 9999 FEW026 17/14 Q1014,DAOI,2023-06-01T06:00:00Z,36.22,1.32,17.0,14.0,60,5,,6.21,29.940945,,,,,,,,,,,FEW,2600,,,,,,,VFR,,,,,,,,,,,,METAR,141.0
DAOB 010600Z 24005KT CAVOK 12/10 Q1017,DAOB,2023-06-01T06:00:00Z,35.33,1.47,12.0,10.0,240,5,,6.21,30.029528,,,,,,,,,,,CAVOK,,,,,,,,VFR,,,,,,,,,,,,METAR,976.0
DAFH 010600Z 03006KT CAVOK 17/12 Q1016,DAFH,2023-06-01T06:00:00Z,32.93,3.32,17.0,12.0,30,6,,6.21,30.0,,,,,,,,,,,CAVOK,,,,,,,,VFR,,,,,,,,,,,,METAR,774.0
DABT 010600Z 22003KT 9999 SCT023 SCT090 13/13 Q1016,DABT,2023-06-01T06:00:00Z,35.75,6.32,13.0,13.0,220,3,,6.21,30.0,,,,,,,,,,,SCT,2300,SCT,9000,,,,,VFR,,,,,,,,,,,,METAR,813.0
DABS 010600Z 08001KT 8000 SCT020 BKN026 13/12 Q1016,DABS,2023-06-01T06:00:00Z,35.43,8.12,13.0,12.0,80,1,,4.97,30.0,,,,,,,,,,,SCT,2000,BKN,2600,,,,,MVFR,,,,,,,,,,,,METAR,806.0
DAAY 010600Z 00000KT 9999 FEW030 SCT233 14/08 Q1018,DAAY,2023-06-01T06:00:00Z,33.53,-0.25,14.0,8.0,0,0,,6.21,30.059055,,,,,,,,,,,FEW,3000,SCT,23300,,,,,VFR,,,,,,,,,,,,METAR,1116.0
DAAV 010600Z VRB02KT 9999 FEW020TCU SCT033 18/17 Q1014,DAAV,2023-06-01T06:00:00Z,36.8,5.88,18.0,17.0,0,2,,6.21,29.940945,,,,,,,,,,,FEW,2000,SCT,3300,,,,,VFR,,,,,,,,,,,,METAR,11.0
DAAS 010600Z 32004KT 8000 FEW023TCU SCT026 13/09 Q1016,DAAS,2023-06-01T06:00:00Z,36.18,5.33,13.0,9.0,320,4,,4.97,30.0,,,,,,,,,,,FEW,2300,SCT,2600,,,,,MVFR,,,,,,,,,,,,METAR,1012.0
DAAP 010600Z 27004KT 8000 NSC 23/03 Q1013,DAAP,2023-06-01T06:00:00Z,26.72,8.62,23.0,3.0,270,4,,4.97,29.911417,,,,,,,,,,,CLR,,,,,,,,MVFR,,,,,,,,,,,,METAR,542.0
DAAJ 010600Z 03014KT 8000 NSC 25/02 Q1013,DAAJ,2023-06-01T06:00:00Z,24.28,9.47,25.0,2.0,30,14,,4.97,29.911417,,,,,,,,,,,CLR,,,,,,,,MVFR,,,,,,,,,,,,METAR,962.0
DAAE 010600Z 25005KT 9999 FEW020 SCT090 17/16 Q1014,DAAE,2023-06-01T06:00:00Z,36.72,5.07,17.0,16.0,250,5,,6.21,29.940945,,,,,,,,,,,FEW,2000,SCT,9000,,,,,VFR,,,,,,,,,,,,METAR,1.0
DAAD 010600Z VRB02KT 8000 NSC 18/11 Q1016,DAAD,2023-06-01T06:00:00Z,35.32,4.2,18.0,11.0,0,2,,4.97,30.0,,,,,,,,,,,CLR,,,,,,,,MVFR,,,,,,,,,,,,METAR,461.0
CZZJ 010600Z AUTO 30007KT 11/10 RMK AO1 6PAST HR 3014 SLP138 P0002 T01090097 50013,CZZJ,2023-06-01T06:00:00Z,53.58,-116.47,10.9,9.7,300,7,,,,1013.8,,TRUE,TRUE,,,,,,,,,,,,,,,,1.3,,,,,0.02,,,,,,METAR,927.0
CZTB 010600Z AUTO 31006KT 14/10 RMK AO1 SLP161 T01380102 53014,CZTB,2023-06-01T06:00:00Z,48.37,-89.32,13.8,10.2,310,6,,,,1016.1,,TRUE,TRUE,,,,,,,,,,,,,,,,1.4,,,,,,,,,,,METAR,197.0
CZSP 010600Z AUTO 22010KT 15/10 RMK AO1 SLP138 T01500101 58007,CZSP,2023-06-01T06:00:00Z,46.45,-62.58,15.0,10.1,220,10,,,,1013.8,,TRUE,TRUE,,,,,,,,,,,,,,,,-0.7,,,,,,,,,,,METAR,31.0
CZSM 010600Z AUTO 20001KT 14/09 RMK AO1 SLP108 T01440086 51003,CZSM,2023-06-01T06:00:00Z,60.03,-111.93,14.4,8.6,200,1,,,,1010.8,,TRUE,TRUE,,,,,,,,,,,,,,,,0.3,,,,,,,,,,,SPECI,203.0
CZPS 010600Z AUTO 35010KT 13/10 RMK AO1 T01320100,CZPS,2023-06-01T06:00:00Z,52.43,-113.6,13.2,10.0,350,10,,,,,,TRUE,TRUE,,,,,,,,,,,,,,,,,,,,,,,,,,,METAR,953.0
CZPC 010600Z AUTO 27011KT 9SM CLR 10/04 A2979 RMK SLP086 DENSITY ALT 4400FT,CZPC,2023-06-01T06:00:00Z,49.52,-114.0,10.0,4.0,270,11,,9.0,29.790354,1008.6,,TRUE,,,,,,,,CLR,,,,,,,,VFR,,,,,,,,,,,,SPECI,1187.0
CZOL 010600Z AUTO 31002KT 11/10 RMK AO1 T01050103,CZOL,2023-06-01T06:00:00Z,53.65,-113.35,10.5,10.3,310,2,,,,,,TRUE,TRUE,,,,,,,,,,,,,,,,,,,,,,,,,,,METAR,645.0
CZMJ 010600Z AUTO 10009KT 17/10 RMK AO1 SLP098 T01680098 51007,CZMJ,2023-06-01T06:00:00Z,50.33,-105.53,16.8,9.8,100,9,,,,1009.8,,TRUE,TRUE,,,,,,,,,,,,,,,,0.7,,,,,,,,,,,METAR,571.0
CZMD 010600Z AUTO 06012KT 9SM OVC005 10/10 A3009 RMK SLP201,CZMD,2023-06-01T06:00:00Z,53.43,-91.77,10.0,10.0,60,12,,9.0,30.088583,1020.1,,TRUE,,,,,,,,OVC,500,,,,,,,IFR,,,,,,,,,,,,METAR,276.0
CZKD 010600Z AUTO 08004KT 08/06 RMK AO1 SLP216 T00820061 53009,CZKD,2023-06-01T06:00:00Z,56.03,-96.52,8.2,6.1,80,4,,,,1021.6,,TRUE,TRUE,,,,,,,,,,,,,,,,0.9,,,,,,,,,,,METAR,190.0
CZHY 010600Z AUTO 12004KT 15/03 RMK AO1 SLP089 T01470026 51008,CZHY,2023-06-01T06:00:00Z,60.83,-115.78,14.7,2.6,120,4,,,,1008.9,,TRUE,TRUE,,,,,,,,,,,,,,,,0.8,,,,,,,,,,,SPECI,159.0
CZFS 010600Z AUTO 16005KT 13/M02 RMK AO1 SLP071 T01301015 53013,CZFS,2023-06-01T06:00:00Z,61.77,-121.23,13.0,-1.5,160,5,,,,1007.1,,TRUE,TRUE,,,,,,,,,,,,,,,,1.3,,,,,,,,,,,SPECI,174.0
CZEV 010600Z AUTO 32013G20KT 03/02 RMK AO1 PK WND 34020/0556 SLP046 T00280019 51022,CZEV,2023-06-01T06:00:00Z,68.32,-133.48,2.8,1.9,320,13,20,,,1004.6,,TRUE,TRUE,,,,,,,,,,,,,,,,2.2,,,,,,,,,,,SPECI,92.0
CZEL 010600Z AUTO 04004KT 17/12 RMK AO1 SLP204 T01720117 51002,CZEL,2023-06-01T06:00:00Z,43.65,-80.42,17.2,11.7,40,4,,,,1020.4,,TRUE,TRUE,,,,,,,,,,,,,,,,0.2,,,,,,,,,,,METAR,370.0
CZDB 010600Z AUTO 01002KT 08/04 RMK AO1 SLP169 T00790036 58008,CZDB,2023-06-01T06:00:00Z,45.42,-63.47,7.9,3.6,10,2,,,,1016.9,,TRUE,TRUE,,,,,,,,,,,,,,,,-0.8,,,,,,,,,,,METAR,38.0
CZCR 010600Z AUTO 23004KT 20/10 RMK AO1 4000 SLP131 T01990101 50002,CZCR,2023-06-01T06:00:00Z,47.98,-66.33,19.9,10.1,230,4,,,,1013.1,,TRUE,TRUE,,,,,,,,,,,,,,,,0.2,,,,,,,,,,,METAR,39.0
CZCP 010600Z AUTO 09012KT ////SM ////// 01/01 A2952,CZCP,2023-06-01T06:00:00Z,70.17,-124.68,1.0,1.0,90,12,,,29.518702,,,TRUE,,,,,,,,,,,,,,,,,,,,,,,,,,,,SPECI,23.0
CZBF 010600Z AUTO 22003KT 9SM CLR 17/11 A2992 RMK SLP135 DENSITY ALT 600FT,CZBF,2023-06-01T06:00:00Z,47.62,-65.75,17.0,11.0,220,3,,9.0,29.920275,1013.5,,TRUE,,,,,,,,CLR,,,,,,,,VFR,,,,,,,,,,,,METAR,60.0
CYZY 010600Z AUTO 00000KT 9SM CLR 05/M01 A2997 RMK SLP171,CYZY,2023-06-01T06:00:00Z,55.3,-123.13,5.0,-1.0,0,0,,9.0,29.970472,1017.1,,TRUE,,,,,,,,CLR,,,,,,,,VFR,,,,,,,,,,,,METAR,694.0
CYZX 010600Z 25005KT 15SM SKC 11/04 A3006 RMK DENSITY ALT -407FT SLP181,CYZX,2023-06-01T06:00:00Z,44.98,-64.92,11.0,4.0,250,5,,15.0,30.059055,1018.1,,,,,,,,,,SKC,,,,,,,,VFR,,,,,,,,,,,,METAR,28.0
CYZT 010600Z 26006KT 15SM FEW055 BKN085 08/07 A3013 RMK SC2AC3 SLP205,CYZT,2023-06-01T06:00:00Z,50.68,-127.37,8.0,7.0,260,6,,15.0,30.129921,1020.5,,,,,,,,,,FEW,5500,BKN,8500,,,,,VFR,,,,,,,,,,,,SPECI,13.0
CYZS 010600Z 34012KT 15SM SKC M06/M07 A3038 RMK SLP295,CYZS,2023-06-01T06:00:00Z,64.2,-83.35,-6.0,-7.0,340,12,,15.0,30.380905,1029.5,,,,,,,,,,SKC,,,,,,,,VFR,,,,,,,,,,,,SPECI,60.0
CYZR 010600Z AUTO 13003KT 9SM CLR 16/10 A3009 RMK SLP190,CYZR,2023-06-01T06:00:00Z,43.0,-82.3,16.0,10.0,130,3,,9.0,30.088583,1019.0,,TRUE,,,,,,,,CLR,,,,,,,,VFR,,,,,,,,,,,,SPECI,181.0
CYZP 010600Z AUTO 19007KT 9SM FEW076 BKN088 BKN110 BKN140 09/04 A3003 RMK SLP171,CYZP,2023-06-01T06:00:00Z,53.25,-131.82,9.0,4.0,190,7,,9.0,30.029528,1017.1,,TRUE,,,,,,,,FEW,7600,BKN,8800,BKN,11000,BKN,14000,VFR,,,,,,,,,,,,SPECI,7.0
CYZH 010600Z AUTO VRB02KT 9SM BKN086 OVC120 12/11 A2988 RMK SLP129,CYZH,2023-06-01T06:00:00Z,55.28,-114.77,12.0,11.0,0,2,,9.0,29.878937,1012.9,,TRUE,,,,,,,,BKN,8600,OVC,12000,,,,,VFR,,,,,,,,,,,,SPECI,583.0
CYZF 010600Z 14005KT 6SM FU FEW100 FEW240 08/03 A2979 RMK AC1CI1 AC TR SLP097,CYZF,2023-06-01T06:00:00Z,62.47,-114.45,8.0,3.0,140,5,,6.0,29.790354,1009.7,,,,,,,,,FU,FEW,10000,FEW,24000,,,,,VFR,,,,,,,,,,,,METAR,202.0
CYZE 010600Z AUTO 29003KT 9SM BKN130 15/10 A3010 RMK SLP197,CYZE,2023-06-01T06:00:00Z,45.88,-82.57,15.0,10.0,290,3,,9.0,30.100393,1019.7,,TRUE,,,,,,,,BKN,13000,,,,,,,VFR,,,,,,,,,,,,SPECI,189.0
CYYZ 010600Z 03002KT 15SM FEW090 21/12 A3010 RMK AC1 AC TR SLP193 DENSITY ALT 1300FT,CYYZ,2023-06-01T06:00:00Z,43.67,-79.62,21.0,12.0,30,2,,15.0,30.100393,1019.3,,,,,,,,,,FEW,9000,,,,,,,VFR,,,,,,,,,,,,METAR,171.0
CYYY 010600Z 22009KT 30SM SKC 23/11 A2992 RMK SLP135 DENSITY ALT 1200FT,CYYY,2023-06-01T06:00:00Z,48.6,-68.22,23.0,11.0,220,9,,30.0,29.920275,1013.5,,,,,,,,,,SKC,,,,,,,,VFR,,,,,,,,,,,,SPECI,43.0
CYYW 010600Z AUTO 19003KT 9SM BKN140 OVC190 14/14 A2998 RMK SLP143,CYYW,2023-06-01T06:00:00Z,50.3,-88.9,14.0,14.0,190,3,,9.0,29.97933,1014.3,,TRUE,,,,,,,,BKN,14000,OVC,19000,,,,,VFR,,,,,,,,,,,,METAR,320.0
CYYU 010600Z 22004KT 15SM SCT220 20/09 A3002 RMK CI4 SLP167 DENSITY ALT 1400FT,CYYU,2023-06-01T06:00:00Z,49.42,-82.47,20.0,9.0,220,4,,15.0,30.02067,1016.7,,,,,,,,,,SCT,22000,,,,,,,VFR,,,,,,,,,,,,SPECI,228.0
CYYT 010600Z 34005KT 15SM SCT030 03/M00 A2996 RMK SC3 SLP152,CYYT,2023-06-01T06:00:00Z,47.62,-52.73,3.0,0.0,340,5,,15.0,29.958662,1015.2,,,,,,,,,,SCT,3000,,,,,,,VFR,,,,,,,,,,,,METAR,128.0
CYYR 010600Z 14004KT 15SM FEW110 SCT190 BKN230 BKN260 13/10 A2981 RMK AC1AC2CI2CI2 DENSITY ALT 280FT SLP096,CYYR,2023-06-01T06:00:00Z,53.32,-60.42,13.0,10.0,140,4,,15.0,29.811024,1009.6,,,,,,,,,,FEW,11000,SCT,19000,BKN,23000,BKN,26000,VFR,,,,,,,,,,,,METAR,42.0
CYYQ 010600Z 12008KT 15SM BKN120 00/M01 A3029 RMK AC6 SLP262,CYYQ,2023-06-01T06:00:00Z,58.75,-94.07,0.0,-1.0,120,8,,15.0,30.28937,1026.2,,,,,,,,,,BKN,12000,,,,,,,VFR,,,,,,,,,,,,METAR,20.0
CYYN 010600Z AUTO 11005KT 9SM FEW096 17/13 A2979 RMK SLP077 DENSITY ALT 3700FT,CYYN,2023-06-01T06:00:00Z,50.28,-107.68,17.0,13.0,110,5,,9.0,29.790354,1007.7,,TRUE,,,,,,,,FEW,9600,,,,,,,VFR,,,,,,,,,,,,SPECI,814.0
CYYL 010600Z AUTO 13009G15KT 9SM SCT110 13/09 A3003 RMK SLP180,CYYL,2023-06-01T06:00:00Z,56.87,-101.07,13.0,9.0,130,9,15,9.0,30.029528,1018.0,,TRUE,,,,,,,,SCT,11000,,,,,,,VFR,,,,,,,,,,,,SPECI,351.0
CYYJ 010600Z 30009KT 20SM FEW070 12/05 A3005 RMK AC1 AC TR SLP179,CYYJ,2023-06-01T06:00:00Z,48.63,-123.42,12.0,5.0,300,9,,20.0,30.050198,1017.9,,,,,,,,,,FEW,7000,,,,,,,VFR,,,,,,,,,,,,METAR,16.0
CYYH 010600Z 15005KT 15SM FEW020 SCT210 M03/M04 A3024 RMK SC1CI3 SC TR SLP247,CYYH,2023-06-01T06:00:00Z,69.53,-93.57,-3.0,-4.0,150,5,,15.0,30.239174,1024.7,,,,,,,,,,FEW,2000,SCT,21000,,,,,VFR,,,,,,,,,,,,SPECI,19.0
CYYG 010600Z 24011KT 15SM FEW240 14/09 A2995 RMK CI4 SLP144,CYYG,2023-06-01T06:00:00Z,46.28,-63.12,14.0,9.0,240,11,,15.0,29.949802,1014.4,,,,,,,,,,FEW,24000,,,,,,,VFR,,,,,,,,,,,,SPECI,48.0
CYYF 010600Z 34006KT 15SM SCT100 17/02 A2987 RMK AC3 SLP116 DENSITY ALT 1700FT,CYYF,2023-06-01T06:00:00Z,49.47,-119.6,17.0,2.0,340,6,,15.0,29.870079,1011.6,,,,,,,,,,SCT,10000,,,,,,,VFR,,,,,,,,,,,,SPECI,342.0
CYYE 010600Z 31005KT 15SM SCT082 10/03 A2986 RMK AC3 SLP124,CYYE,2023-06-01T06:00:00Z,58.83,-122.58,10.0,3.0,310,5,,15.0,29.861221,1012.4,,,,,,,,,,SCT,8200,,,,,,,VFR,,,,,,,,,,,,SPECI,379.0
CYYD 010600Z AUTO 00000KT 9SM OVC086 08/00 A3002 RMK SLP178,CYYD,2023-06-01T06:00:00Z,54.82,-127.18,8.0,0.0,0,0,,9.0,30.02067,1017.8,,TRUE,,,,,,,,OVC,8600,,,,,,,VFR,,,,,,,,,,,,SPECI,527.0
CYYC 010600Z 35013KT 15SM FEW120 13/08 A2981 RMK AC1 AC TR SLP097 DENSITY ALT 4400FT,CYYC,2023-06-01T06:00:00Z,51.12,-114.02,13.0,8.0,350,13,,15.0,29.811024,1009.7,,,,,,,,,,FEW,12000,,,,,,,VFR,,,,,,,,,,,,METAR,1085.0
CYYB 010600Z AUTO 33003KT 9SM CLR 16/13 A3013 RMK SLP202 DENSITY ALT 1500FT,CYYB,2023-06-01T06:00:00Z,46.35,-79.42,16.0,13.0,330,3,,9.0,30.129921,1020.2,,TRUE,,,,,,,,CLR,,,,,,,,VFR,,,,,,,,,,,,SPECI,360.0
CYXY 010600Z 18013KT 40SM FEW085 FEW220 07/M06 A2979 RMK AC1CI1 SLP113,CYXY,2023-06-01T06:00:00Z,60.72,-135.07,7.0,-6.0,180,13,,40.0,29.790354,1011.3,,,,,,,,,,FEW,8500,FEW,22000,,,,,VFR,,,,,,,,,,,,METAR,677.0
CYXX 010600Z 25005KT 15SM FEW079 12/05 A3005 RMK AC1 SLP179,CYXX,2023-06-01T06:00:00Z,49.03,-122.38,12.0,5.0,250,5,,15.0,30.050198,1017.9,,,,,,,,,,FEW,7900,,,,,,,VFR,,,,,,,,,,,,METAR,54.0
CYXU 010600Z 35006KT 15SM SKC 15/11 A3012 RMK SLP198,CYXU,2023-06-01T06:00:00Z,43.03,-81.15,15.0,11.0,350,6,,15.0,30.121063,1019.8,,,,,,,,,,SKC,,,,,,,,VFR,,,,,,,,,,,,METAR,278.0
CYXT 010600Z 18011KT 20SM SCT050 BKN080 09/04 A3007 RMK CU3AC3 SLP189,CYXT,2023-06-01T06:00:00Z,54.47,-128.57,9.0,4.0,180,11,,20.0,30.070866,1018.9,,,,,,,,,,SCT,5000,BKN,8000,,,,,VFR,,,,,,,,,,,,SPECI,213.0
CYXR 010600Z AUTO 21003KT 9SM SCT100 BKN130 20/13 A3007 RMK SLP183 DENSITY ALT 1500FT,CYXR,2023-06-01T06:00:00Z,47.7,-79.85,20.0,13.0,210,3,,9.0,30.070866,1018.3,,TRUE,,,,,,,,SCT,10000,BKN,13000,,,,,VFR,,,,,,,,,,,,SPECI,244.0
CYXL 010600Z 11003KT 050V170 15SM FEW060 18/16 A2994 RMK SC2 SLP142 DENSITY ALT 2000FT,CYXL,2023-06-01T06:00:00Z,50.12,-91.9,18.0,16.0,110,3,,15.0,29.940945,1014.2,,,,,,,,,,FEW,6000,,,,,,,VFR,,,,,,,,,,,,SPECI,381.0
CYXJ 010600Z 22007KT 15SM FEW090 FEW240 08/M03 A2993 RMK AC1CI1 AC TR CI TR SLP153,CYXJ,2023-06-01T06:00:00Z,56.25,-120.73,8.0,-3.0,220,7,,15.0,29.929134,1015.3,,,,,,,,,,FEW,9000,FEW,24000,,,,,VFR,,,,,,,,,,,,SPECI,700.0
CYXH 010600Z AUTO 14005KT 9SM FEW100 18/08 A2974 RMK SLP063 DENSITY ALT 3500FT,CYXH,2023-06-01T06:00:00Z,50.02,-110.72,18.0,8.0,140,5,,9.0,29.740158,1006.3,,TRUE,,,,,,,,FEW,10000,,,,,,,VFR,,,,,,,,,,,,SPECI,717.0
CYXE 010600Z 12013KT 15SM SCT150 20/13 A2978 RMK AC4 SLP085 DENSITY ALT 2800FT,CYXE,2023-06-01T06:00:00Z,52.17,-106.7,20.0,13.0,120,13,,15.0,29.778543,1008.5,,,,,,,,,,SCT,15000,,,,,,,VFR,,,,,,,,,,,,SPECI,504.0
CYXC 010600Z 19009KT 25SM BKN210 18/02 A2978 RMK CI6 SLP073 DENSITY ALT 4300FT,CYXC,2023-06-01T06:00:00Z,49.6,-115.78,18.0,2.0,190,9,,25.0,29.778543,1007.3,,,,,,,,,,BKN,21000,,,,,,,VFR,,,,,,,,,,,,SPECI,928.0
CYWL 010600Z 33005KT 15SM FEW100 09/M02 A2997 RMK AC1 AC TR SLP164,CYWL,2023-06-01T06:00:00Z,52.18,-122.07,9.0,-2.0,330,5,,15.0,29.970472,1016.4,,,,,,,,,,FEW,10000,,,,,,,VFR,,,,,,,,,,,,SPECI,942.0
CYWK 010600Z AUTO VRB02KT 9SM BKN110 OVC190 15/11 A2994 RMK SLP140 DENSITY ALT 2200FT,CYWK,2023-06-01T06:00:00Z,52.92,-66.87,15.0,11.0,0,2,,9.0,29.940945,1014.0,,TRUE,,,,,,,,BKN,11000,OVC,19000,,,,,VFR,,,,,,,,,,,,METAR,547.0
CYWG 010600Z 06004KT 15SM FEW250 18/16 A2987 RMK CI2 SLP118 DENSITY ALT 1400FT,CYWG,2023-06-01T06:00:00Z,49.9,-97.23,18.0,16.0,60,4,,15.0,29.870079,1011.8,,,,,,,,,,FEW,25000,,,,,,,VFR,,,,,,,,,,,,METAR,238.0
CYWE 010600Z AUTO 05004KT 040V100 9SM CLR 09/07 A2975 RMK SLP092,CYWE,2023-06-01T06:00:00Z,64.18,-114.08,9.0,7.0,50,4,,9.0,29.749016,1009.2,,TRUE,,,,,,,,CLR,,,,,,,,VFR,,,,,,,,,,,,METAR,374.0
CYVV 010600Z 12002KT 15SM FEW250 15/12 A3012 RMK CI1 CI TR SLP199,CYVV,2023-06-01T06:00:00Z,44.75,-81.1,15.0,12.0,120,2,,15.0,30.121063,1019.9,,,,,,,,,,FEW,25000,,,,,,,VFR,,,,,,,,,,,,SPECI,221.0
CYVR 010600Z 25007KT 25SM SKC 12/09 A3004 RMK SLP176,CYVR,2023-06-01T06:00:00Z,49.17,-123.17,12.0,9.0,250,7,,25.0,30.041338,1017.6,,,,,,,,,,SKC,,,,,,,,VFR,,,,,,,,,,,,METAR,2.0
CYVQ 010600Z 08005KT 30SM FEW040 SCT160 BKN250 12/02 A2962 RMK CU2AC1CI3 SLP036,CYVQ,2023-06-01T06:00:00Z,65.27,-126.78,12.0,2.0,80,5,,30.0,29.619095,1003.6,,,,,,,,,,FEW,4000,SCT,16000,BKN,25000,,,VFR,,,,,,,,,,,,SPECI,63.0
CYVO 010600Z AUTO 25006KT 9SM CLR 22/13 A3008 RMK SLP188 DENSITY ALT 2100FT,CYVO,2023-06-01T06:00:00Z,48.07,-77.77,22.0,13.0,250,6,,9.0,30.079725,1018.8,,TRUE,,,,,,,,CLR,,,,,,,,VFR,,,,,,,,,,,,SPECI,329.0
CYVC 010600Z 23006KT 5SM TSRA SCT060CB OVC094 15/14 A2997 RMK CB4AC4 /R44/ SLP157 DENSITY ALT 1500FT,CYVC,2023-06-01T06:00:00Z,55.15,-105.27,15.0,14.0,230,6,,5.0,29.970472,1015.7,,,,,,,,,TSRA,SCT,6000,OVC,9400,,,,,MVFR,,,,,,,,,,,,SPECI,378.0
CYUY 010600Z 22006KT 15SM FEW040CB SCT085 BKN140 21/14 A3007 RMK CB1AC3AC2 SLP183 DENSITY ALT 1800FT,CYUY,2023-06-01T06:00:00Z,48.2,-78.82,21.0,14.0,220,6,,15.0,30.070866,1018.3,,,,,,,,,,FEW,4000,SCT,8500,BKN,14000,,,VFR,,,,,,,,,,,,METAR,304.0
CYUX 010600Z AUTO 31010KT 9SM OVC015 M04/M05 A3024 RMK SLP244,CYUX,2023-06-01T06:00:00Z,68.77,-81.22,-4.0,-5.0,310,10,,9.0,30.239174,1024.4,,TRUE,,,,,,,,OVC,1500,,,,,,,MVFR,,,,,,,,,,,,SPECI,8.0
CYUL 010600Z 21007KT 15SM SKC 20/12 A3005 RMK SLP177 DENSITY ALT 600FT,CYUL,2023-06-01T06:00:00Z,45.47,-73.73,20.0,12.0,210,7,,15.0,30.050198,1017.7,,,,,,,,,,SKC,,,,,,,,VFR,,,,,,,,,,,,METAR,31.0
CYUA 010600Z AUTO 31020G28KT ////SM OVC008 ///// A////,CYUA,2023-06-01T06:00:00Z,68.92,-137.23,,,310,20,28,,,,,TRUE,,,,,,,,OVC,800,,,,,,,,,,,,,,,,,,,SPECI,25.0
CYTZ 010600Z AUTO 00000KT 9SM FEW096 19/14 A3009 RMK SLP192 DENSITY ALT 600FT,CYTZ,2023-06-01T06:00:00Z,43.63,-79.4,19.0,14.0,0,0,,9.0,30.088583,1019.2,,TRUE,,,,,,,,FEW,9600,,,,,,,VFR,,,,,,,,,,,,METAR,76.0
CYTS 010600Z 20005KT 15SM FEW100 SCT140 BKN250 18/14 A3006 RMK AC1AC3CI1 SLP181 DENSITY ALT 1400FT,CYTS,2023-06-01T06:00:00Z,48.57,-81.37,18.0,14.0,200,5,,15.0,30.059055,1018.1,,,,,,,,,,FEW,10000,SCT,14000,BKN,25000,,,VFR,,,,,,,,,,,,SPECI,290.0
CYTR 010600Z 00000KT 15SM FEW085 16/13 A3009 RMK AC2 DENSITY ALT 425FT SLP191,CYTR,2023-06-01T06:00:00Z,44.12,-77.52,16.0,13.0,0,0,,15.0,30.088583,1019.1,,,,,,,,,,FEW,8500,,,,,,,VFR,,,,,,,,,,,,METAR,80.0
CYTL 010600Z AUTO 09006KT 060V150 9SM OVC010 08/07 A3015 RMK SLP221,CYTL,2023-06-01T06:00:00Z,53.82,-89.88,8.0,7.0,90,6,,9.0,30.15059,1022.1,,TRUE,,,,,,,,OVC,1000,,,,,,,MVFR,,,,,,,,,,,,METAR,218.0
CYTH 010600Z 08005KT 050V140 15SM OVC016 13/10 A3010 RMK SC8 SLP205,CYTH,2023-06-01T06:00:00Z,55.8,-97.83,13.0,10.0,80,5,,15.0,30.100393,1020.5,,,,,,,,,,OVC,1600,,,,,,,MVFR,,,,,,,,,,,,SPECI,212.0
CYSM 010600Z 16003KT 1 1/2SM FU OVC095 15/09 A2982 RMK FU4AC4 SLP105 DENSITY ALT 1000FT,CYSM,2023-06-01T06:00:00Z,60.03,-111.92,15.0,9.0,160,3,,1.5,29.819881,1010.5,,,,,,,,,FU,OVC,9500,,,,,,,IFR,,,,,,,,,,,,SPECI,203.0
CYSJ 010600Z 21003KT 180V250 15SM SKC 07/07 A3004 RMK SLP177,CYSJ,2023-06-01T06:00:00Z,45.32,-65.88,7.0,7.0,210,3,,15.0,30.041338,1017.7,,,,,,,,,,SKC,,,,,,,,VFR,,,,,,,,,,,,METAR,89.0
CYSC 010600Z AUTO 13002KT 9SM CLR 13/11 A3009 RMK SLP191,CYSC,2023-06-01T06:00:00Z,45.43,-71.68,13.0,11.0,130,2,,9.0,30.088583,1019.1,,TRUE,,,,,,,,CLR,,,,,,,,VFR,,,,,,,,,,,,SPECI,236.0
CYSB 010600Z 23006KT 15SM SKC 16/13 A3013 RMK SLP202 DENSITY ALT 1400FT,CYSB,2023-06-01T06:00:00Z,46.63,-80.8,16.0,13.0,230,6,,15.0,30.129921,1020.2,,,,,,,,,,SKC,,,,,,,,VFR,,,,,,,,,,,,SPECI,349.0
CYRV 010600Z AUTO 01011KT 9SM CLR 20/04 A2978 RMK SLP082 DENSITY ALT 2500FT,CYRV,2023-06-01T06:00:00Z,50.97,-118.17,20.0,4.0,10,11,,9.0,29.778543,1008.2,,TRUE,,,,,,,,CLR,,,,,,,,VFR,,,,,,,,,,,,SPECI,456.0
CYRT 010600Z 15007KT 15SM FEW030 FEW080 SCT270 M01/M02 A3039 RMK SC1AC1CI3 SC TR AC TR SLP296,CYRT,2023-06-01T06:00:00Z,62.82,-92.12,-1.0,-2.0,150,7,,15.0,30.389763,1029.6,,,,,,,,,,FEW,3000,FEW,8000,SCT,27000,,,VFR,,,,,,,,,,,,SPECI,29.0
CYRQ 010600Z AUTO 00000KT 9SM CLR 16/13 A3002 RMK SLP169,CYRQ,2023-06-01T06:00:00Z,46.35,-72.68,16.0,13.0,0,0,,9.0,30.02067,1016.9,,TRUE,,,,,,,,CLR,,,,,,,,VFR,,,,,,,,,,,,METAR,58.0
CYRJ 010600Z 24009KT 20SM SKC 22/10 A2999 RMK SLP157 DENSITY ALT 1500FT,CYRJ,2023-06-01T06:00:00Z,48.52,-72.27,22.0,10.0,240,9,,20.0,29.991142,1015.7,,,,,,,,,,SKC,,,,,,,,VFR,,,,,,,,,,,,SPECI,173.0
CYQZ 010600Z AUTO VRB02KT 9SM CLR 06/02 A2997 RMK SLP166,CYQZ,2023-06-01T06:00:00Z,53.02,-122.52,6.0,2.0,0,2,,9.0,29.970472,1016.6,,TRUE,,,,,,,,CLR,,,,,,,,VFR,,,,,,,,,,,,SPECI,548.0
CYQY 010600Z VRB02KT 15SM SCT230 13/09 A2993 RMK CI3 SLP138,CYQY,2023-06-01T06:00:00Z,46.17,-60.03,13.0,9.0,0,2,,15.0,29.929134,1013.8,,,,,,,,,,SCT,23000,,,,,,,VFR,,,,,,,,,,,,METAR,58.0
CYQX 010600Z 12003KT 20SM SCT240 04/02 A3001 RMK CI3 SLP168,CYQX,2023-06-01T06:00:00Z,48.95,-54.58,4.0,2.0,120,3,,20.0,30.008858,1016.8,,,,,,,,,,SCT,24000,,,,,,,VFR,,,,,,,,,,,,METAR,144.0
CYQW 010600Z AUTO 12013KT 9SM CLR 20/11 A2976 RMK SLP075 DENSITY ALT 3000FT,CYQW,2023-06-01T06:00:00Z,52.77,-108.25,20.0,11.0,120,13,,9.0,29.760826,1007.5,,TRUE,,,,,,,,CLR,,,,,,,,VFR,,,,,,,,,,,,SPECI,545.0
CYQV 010600Z AUTO 11013G18KT 9SM CLR 18/15 A2987 RMK SLP117 DENSITY ALT 2400FT,CYQV,2023-06-01T06:00:00Z,51.27,-102.47,18.0,15.0,110,13,18,9.0,29.870079,1011.7,,TRUE,,,,,,,,CLR,,,,,,,,VFR,,,,,,,,,,,,SPECI,493.0
CYQU 010600Z 26006KT 25SM FEW060 SCT080 BKN140 10/01 A2994 RMK SC2AC2AC2 SLP156,CYQU,2023-06-01T06:00:00Z,55.18,-118.88,10.0,1.0,260,6,,25.0,29.940945,1015.6,,,,,,,,,,FEW,6000,SCT,8000,BKN,14000,,,VFR,,,,,,,,,,,,SPECI,668.0
CYQT 010600Z 32005KT 15SM BKN095 OVC210 14/10 A2999 RMK AC5CI3 PRESRR SLP161,CYQT,2023-06-01T06:00:00Z,48.37,-89.32,14.0,10.0,320,5,,15.0,29.991142,1016.1,,,,,,,,,,BKN,9500,OVC,21000,,,,,VFR,,,,,,,,,,,,SPECI,197.0
CYQR 010600Z 12006KT 15SM FEW140 BKN230 16/11 A2984 RMK AC2CI4 SLP107 DENSITY ALT 2600FT,CYQR,2023-06-01T06:00:00Z,50.43,-104.67,16.0,11.0,120,6,,15.0,29.840551,1010.7,,,,,,,,,,FEW,14000,BKN,23000,,,,,VFR,,,,,,,,,,,,SPECI,576.0
CYQQ 010600Z 28006KT 20SM SKC 13/06 A3006 RMK DENSITY ALT -213FT SLP179,CYQQ,2023-06-01T06:00:00Z,49.72,-124.9,13.0,6.0,280,6,,20.0,30.059055,1017.9,,,,,,,,,,SKC,,,,,,,,VFR,,,,,,,,,,,,METAR,24.0
CYQM 010600Z 21008KT 15SM FEW220 11/10 A2997 RMK CI2 CONTRAILS SLP151,CYQM,2023-06-01T06:00:00Z,46.12,-64.67,11.0,10.0,210,8,,15.0,29.970472,1015.1,,,,,,,,,,FEW,22000,,,,,,,VFR,,,,,,,,,,,,METAR,67.0
CYQL 010600Z AUTO 23007KT 9SM BKN160 14/07 A2974 RMK SLP065 DENSITY ALT 3800FT,CYQL,2023-06-01T06:00:00Z,49.63,-112.8,14.0,7.0,230,7,,9.0,29.740158,1006.5,,TRUE,,,,,,,,BKN,16000,,,,,,,VFR,,,,,,,,,,,,SPECI,923.0
CYQK 010600Z 06007KT 20SM SCT250 19/16 A2992 RMK CI3 SLP134 DENSITY ALT 2200FT,CYQK,2023-06-01T06:00:00Z,49.78,-94.37,19.0,16.0,60,7,,20.0,29.920275,1013.4,,,,,,,,,,SCT,25000,,,,,,,VFR,,,,,,,,,,,,SPECI,413.0
CYQI 010600Z 25007KT 15SM FEW250 10/09 A3011 RMK CS2 SLP198,CYQI,2023-06-01T06:00:00Z,43.83,-66.08,10.0,9.0,250,7,,15.0,30.109253,1019.8,,,,,,,,,,FEW,25000,,,,,,,VFR,,,,,,,,,,,,SPECI,37.0
CYQH 010600Z 00000KT 30SM BKN070 OVC120 07/M02 A2985 RMK AC5AC3 CLIMAT 13.1/7.0/0.0 SLP129,CYQH,2023-06-01T06:00:00Z,60.12,-128.82,7.0,-2.0,0,0,,30.0,29.84941,1012.9,,,,,,,,,,BKN,7000,OVC,12000,,,,,VFR,,,,,,,,,,,,SPECI,692.0
CYQG 010600Z AUTO 12004KT 9SM CLR 17/10 A3009 RMK SLP189 DENSITY ALT 900FT,CYQG,2023-06-01T06:00:00Z,42.27,-82.97,17.0,10.0,120,4,,9.0,30.088583,1018.9,,TRUE,,,,,,,,CLR,,,,,,,,VFR,,,,,,,,,,,,METAR,189.0
CYQF 010600Z AUTO 31009KT 9SM CLR 14/09 A2983 RMK SLP105 DENSITY ALT 3600FT,CYQF,2023-06-01T06:00:00Z,52.17,-113.9,14.0,9.0,310,9,,9.0,29.828741,1010.5,,TRUE,,,,,,,,CLR,,,,,,,,VFR,,,,,,,,,,,,SPECI,912.0
CYQD 010600Z AUTO 08006KT 9SM CLR 15/13 A2997 RMK SLP155 DENSITY ALT 1100FT,CYQD,2023-06-01T06:00:00Z,53.97,-101.08,15.0,13.0,80,6,,9.0,29.970472,1015.5,,TRUE,,,,,,,,CLR,,,,,,,,VFR,,,,,,,,,,,,SPECI,268.0
CYQB 010600Z 00000KT 15SM SCT110 15/13 A3003 RMK AC4 SLP170,CYQB,2023-06-01T06:00:00Z,46.78,-71.38,15.0,13.0,0,0,,15.0,30.029528,1017.0,,,,,,,,,,SCT,11000,,,,,,,VFR,,,,,,,,,,,,METAR,73.0
CYQA 010600Z AUTO VRB02KT 9SM CLR 14/13 A3012 RMK SLP200,CYQA,2023-06-01T06:00:00Z,44.97,-79.3,14.0,13.0,0,2,,9.0,30.121063,1020.0,,TRUE,,,,,,,,CLR,,,,,,,,VFR,,,,,,,,,,,,SPECI,277.0
CYPX 010600Z AUTO 01007KT 9SM CLR M01/M03 A3036 RMK SLP284,CYPX,2023-06-01T06:00:00Z,60.03,-77.27,-1.0,-3.0,10,7,,9.0,30.360237,1028.4,,TRUE,,,,,,,,CLR,,,,,,,,VFR,,,,,,,,,,,,SPECI,10.0
CYPQ 010600Z AUTO 19002KT 9SM BKN096 15/14 A3011 RMK SLP197,CYPQ,2023-06-01T06:00:00Z,44.22,-78.37,15.0,14.0,190,2,,9.0,30.109253,1019.7,,TRUE,,,,,,,,BKN,9600,,,,,,,VFR,,,,,,,,,,,,SPECI,190.0
CYPO 010600Z AUTO 05006KT 020V090 9SM OVC005 00/M01 A3027 RMK SLP255,CYPO,2023-06-01T06:00:00Z,54.98,-85.43,0.0,-1.0,50,6,,9.0,30.268702,1025.5,,TRUE,,,,,,,,OVC,500,,,,,,,IFR,,,,,,,,,,,,METAR,49.0
CYPL 010600Z AUTO 09008KT 9SM OVC014 17/16 A3000 RMK SLP165 DENSITY ALT 1700FT,CYPL,2023-06-01T06:00:00Z,51.43,-90.22,17.0,16.0,90,8,,9.0,30.0,1016.5,,TRUE,,,,,,,,OVC,1400,,,,,,,MVFR,,,,,,,,,,,,METAR,390.0
CYPH 010600Z AUTO 03012KT 9SM CLR M02/M03 A3031 RMK SLP266,CYPH,2023-06-01T06:00:00Z,58.47,-78.08,-2.0,-3.0,30,12,,9.0,30.31004,1026.6,,TRUE,,,,,,,,CLR,,,,,,,,VFR,,,,,,,,,,,,SPECI,24.0
CYPE 010600Z 25005KT 15SM FEW160 10/07 A2988 RMK AC2 SLP137,CYPE,2023-06-01T06:00:00Z,56.22,-117.45,10.0,7.0,250,5,,15.0,29.878937,1013.7,,,,,,,,,,FEW,16000,,,,,,,VFR,,,,,,,,,,,,SPECI,572.0
CYPD 010600Z AUTO 29006KT 9SM CLR 17/09 A2996 RMK SLP147 DENSITY ALT 700FT,CYPD,2023-06-01T06:00:00Z,45.67,-61.37,17.0,9.0,290,6,,9.0,29.958662,1014.7,,TRUE,,,,,,,,CLR,,,,,,,,VFR,,,,,,,,,,,,METAR,106.0
CYPA 010600Z 11012KT 15SM FEW120 SCT220 18/15 A2985 RMK AC1CI4 AC TR SLP110 DENSITY ALT 2200FT,CYPA,2023-06-01T06:00:00Z,53.22,-105.67,18.0,15.0,110,12,,15.0,29.84941,1011.0,,,,,,,,,,FEW,12000,SCT,22000,,,,,VFR,,,,,,,,,,,,SPECI,428.0
CYOW 010600Z 19004KT 15SM SKC 19/14 A3008 RMK SLP187 DENSITY ALT 700FT,CYOW,2023-06-01T06:00:00Z,45.32,-75.67,19.0,14.0,190,4,,15.0,30.079725,1018.7,,,,,,,,,,SKC,,,,,,,,VFR,,,,,,,,,,,,METAR,111.0
CYOO 010600Z AUTO 36004KT 9SM BKN096 17/13 A3010 RMK SLP194 DENSITY ALT 700FT,CYOO,2023-06-01T06:00:00Z,43.92,-78.9,17.0,13.0,360,4,,9.0,30.100393,1019.4,,TRUE,,,,,,,,BKN,9600,,,,,,,VFR,,,,,,,,,,,,METAR,136.0
CYOJ 010600Z AUTO VRB02KT 9SM CLR 13/04 A2980 RMK SLP100 DENSITY ALT 1400FT,CYOJ,2023-06-01T06:00:00Z,58.62,-117.17,13.0,4.0,0,2,,9.0,29.799213,1010.0,,TRUE,,,,,,,,CLR,,,,,,,,VFR,,,,,,,,,,,,SPECI,339.0
CYOD 010600Z 29012KT 8SM BKN120 17/13 A2974 RMK AC6 DENSITY ALT 2808FT OCNL DIST LTNG NE FU SLP071,CYOD,2023-06-01T06:00:00Z,54.4,-110.28,17.0,13.0,290,12,,8.0,29.740158,1007.1,,,,,,,,,,BKN,12000,,,,,,,VFR,,,,,,,,,,,,SPECI,540.0
CYNM 010600Z AUTO 00000KT 9SM OVC100 19/12 A3002 RMK SLP168 DENSITY ALT 1500FT,CYNM,2023-06-01T06:00:00Z,49.77,-77.78,19.0,12.0,0,0,,9.0,30.02067,1016.8,,TRUE,,,,,,,,OVC,10000,,,,,,,VFR,,,,,,,,,,,,SPECI,276.0
CYNE 010600Z AUTO 07007KT 350V090 7SM OVC013 13/12 A3004 RMK SLP182,CYNE,2023-06-01T06:00:00Z,53.97,-97.83,13.0,12.0,70,7,,7.0,30.041338,1018.2,,TRUE,,,,,,,,OVC,1300,,,,,,,MVFR,,,,,,,,,,,,SPECI,220.0
CYNA 010600Z AUTO 08008KT 9SM CLR 09/06 A2989 RMK SLP123,CYNA,2023-06-01T06:00:00Z,50.18,-61.78,9.0,6.0,80,8,,9.0,29.890747,1012.3,,TRUE,,,,,,,,CLR,,,,,,,,VFR,,,,,,,,,,,,SPECI,9.0
CYMX 010600Z 27005KT 230V300 25SM SKC 21/12 A3005 RMK SLP178 DENSITY ALT 900FT,CYMX,2023-06-01T06:00:00Z,45.67,-74.03,21.0,12.0,270,5,,25.0,30.050198,1017.8,,,,,,,,,,SKC,,,,,,,,VFR,,,,,,,,,,,,METAR,78.0
CYMT 010600Z AUTO 15002KT 9SM BKN170 17/12 A3002 RMK SLP166 DENSITY ALT 1700FT,CYMT,2023-06-01T06:00:00Z,49.77,-74.52,17.0,12.0,150,2,,9.0,30.02067,1016.6,,TRUE,,,,,,,,BKN,17000,,,,,,,VFR,,,,,,,,,,,,SPECI,388.0
CYMM 010600Z AUTO 24008KT 9SM -RA BKN081 OVC110 17/10 A2984 RMK SLP110 DENSITY ALT 1800FT,CYMM,2023-06-01T06:00:00Z,56.65,-111.22,17.0,10.0,240,8,,9.0,29.840551,1011.0,,TRUE,,,,,,,-RA,BKN,8100,OVC,11000,,,,,VFR,,,,,,,,,,,,SPECI,371.0
CYMH 010600Z AUTO 17003KT 160V230 9SM BKN066 05/03 A3001 RMK SLP166,CYMH,2023-06-01T06:00:00Z,52.3,-55.82,5.0,3.0,170,3,,9.0,30.008858,1016.6,,TRUE,,,,,,,,BKN,6600,,,,,,,VFR,,,,,,,,,,,,METAR,18.0
CYMA 010600Z 12003KT 20SM BKN062TCU BKN140 08/01 A2967 RMK TCU6AC1 CLIMAT 13.0/8.2/0.0 SLP068,CYMA,2023-06-01T06:00:00Z,63.62,-135.87,8.0,1.0,120,3,,20.0,29.66929,1006.8,,,,,,,,,,BKN,6200,BKN,14000,,,,,VFR,,,,,,,,,,,,SPECI,519.0
CYLW 010600Z AUTO 16012KT 9SM CLR 17/02 A2986 RMK SLP110 DENSITY ALT 2100FT,CYLW,2023-06-01T06:00:00Z,49.95,-119.37,17.0,2.0,160,12,,9.0,29.861221,1011.0,,TRUE,,,,,,,,CLR,,,,,,,,VFR,,,,,,,,,,,,SPECI,420.0
CYLL 010600Z AUTO 17012KT 9SM CLR 20/07 A2971 RMK SLP058 DENSITY ALT 3600FT,CYLL,2023-06-01T06:00:00Z,53.32,-110.07,20.0,7.0,170,12,,9.0,29.71063,1005.8,,TRUE,,,,,,,,CLR,,,,,,,,VFR,,,,,,,,,,,,SPECI,664.0
CYKY 010600Z 21012KT 15SM FEW120 SCT240 20/07 A2974 RMK AC1CI4 AC TR SLP059 DENSITY ALT 3700FT,CYKY,2023-06-01T06:00:00Z,51.52,-109.17,20.0,7.0,210,12,,15.0,29.740158,1005.9,,,,,,,,,,FEW,12000,SCT,24000,,,,,VFR,,,,,,,,,,,,SPECI,692.0
CYKJ 010600Z AUTO 13008KT 9SM BKN140 19/13 A2990 RMK SLP132 DENSITY ALT 2600FT,CYKJ,2023-06-01T06:00:00Z,57.25,-105.62,19.0,13.0,130,8,,9.0,29.899607,1013.2,,TRUE,,,,,,,,BKN,14000,,,,,,,VFR,,,,,,,,,,,,SPECI,519.0
CYKF 010600Z AUTO 00000KT 9SM CLR 13/12 A3013 RMK SLP200,CYKF,2023-06-01T06:00:00Z,43.47,-80.38,13.0,12.0,0,0,,9.0,30.129921,1020.0,,TRUE,,,,,,,,CLR,,,,,,,,VFR,,,,,,,,,,,,METAR,312.0
CYKA 010600Z 28006KT 40SM FEW100 15/03 A2987 RMK AC2 SLP118 DENSITY ALT 1500FT,CYKA,2023-06-01T06:00:00Z,50.7,-120.45,15.0,3.0,280,6,,40.0,29.870079,1011.8,,,,,,,,,,FEW,10000,,,,,,,VFR,,,,,,,,,,,,SPECI,344.0
CYJT 010600Z 04005KT 15SM FEW220 11/06 A2992 RMK CI1 CI TR SLP136,CYJT,2023-06-01T06:00:00Z,48.55,-58.57,11.0,6.0,40,5,,15.0,29.920275,1013.6,,,,,,,,,,FEW,22000,,,,,,,VFR,,,,,,,,,,,,METAR,7.0
CYIO 010600Z AUTO 14006KT 9SM CLR M09/M12 A3010 RMK SLP203,CYIO,2023-06-01T06:00:00Z,72.68,-77.97,-9.0,-12.0,140,6,,9.0,30.100393,1020.3,,TRUE,,,,,,,,CLR,,,,,,,,VFR,,,,,,,,,,,,SPECI,61.0
CYIN 010600Z AUTO 26004KT 9SM BKN081 06/M01 A2997 RMK SLP157,CYIN,2023-06-01T06:00:00Z,51.27,-121.68,6.0,-1.0,260,4,,9.0,29.970472,1015.7,,TRUE,,,,,,,,BKN,8100,,,,,,,VFR,,,,,,,,,,,,METAR,1127.0
CYHZ 010600Z 27006KT 15SM SKC 14/04 A3003 RMK SLP169,CYHZ,2023-06-01T06:00:00Z,44.87,-63.5,14.0,4.0,270,6,,15.0,30.029528,1016.9,,,,,,,,,,SKC,,,,,,,,VFR,,,,,,,,,,,,METAR,136.0
CYHY 010600Z 11005KT 3SM FU SCT060 BKN100 11/02 A2979 RMK SC3AC4 SLP094,CYHY,2023-06-01T06:00:00Z,60.83,-115.77,11.0,2.0,110,5,,3.0,29.790354,1009.4,,,,,,,,,FU,SCT,6000,BKN,10000,,,,,MVFR,,,,,,,,,,,,SPECI,159.0
CYHU 010600Z AUTO 20003KT 9SM CLR 19/12 A3004 RMK SLP175 DENSITY ALT 500FT,CYHU,2023-06-01T06:00:00Z,45.52,-73.42,19.0,12.0,200,3,,9.0,30.041338,1017.5,,TRUE,,,,,,,,CLR,,,,,,,,VFR,,,,,,,,,,,,SPECI,26.0
CYHM 010600Z 33004KT 15SM FEW090 FEW250 18/11 A3010 RMK AC1CI1 AC TR CI TR SLP191 DENSITY ALT 1100FT,CYHM,2023-06-01T06:00:00Z,43.17,-79.93,18.0,11.0,330,4,,15.0,30.100393,1019.1,,,,,,,,,,FEW,9000,FEW,25000,,,,,VFR,,,,,,,,,,,,METAR,237.0
CYHK 010600Z AUTO 16012KT 9SM CLR M01/M02 A3020 RMK SLP234,CYHK,2023-06-01T06:00:00Z,68.62,-95.85,-1.0,-2.0,160,12,,9.0,30.200787,1023.4,,TRUE,,,,,,,,CLR,,,,,,,,VFR,,,,,,,,,,,,SPECI,36.0
CYHE 010600Z AUTO 29006KT 250V320 9SM FEW060 OVC077 16/06 A3003 RMK SLP170,CYHE,2023-06-01T06:00:00Z,49.37,-121.5,16.0,6.0,290,6,,9.0,30.029528,1017.0,,TRUE,,,,,,,,FEW,6000,OVC,7700,,,,,VFR,,,,,,,,,,,,SPECI,43.0
CYHD 010600Z AUTO 06006KT 9SM FEW081 17/16 A2992 RMK SLP137 DENSITY ALT 2000FT,CYHD,2023-06-01T06:00:00Z,49.82,-92.75,17.0,16.0,60,6,,9.0,29.920275,1013.7,,TRUE,,,,,,,,FEW,8100,,,,,,,VFR,,,,,,,,,,,,SPECI,414.0
CYGX 010600Z 07005KT 040V110 15SM SKC 05/03 A3017 RMK SLP227,CYGX,2023-06-01T06:00:00Z,56.35,-94.7,5.0,3.0,70,5,,15.0,30.171259,1022.7,,,,,,,,,,SKC,,,,,,,,VFR,,,,,,,,,,,,SPECI,145.0
CYGW 010600Z AUTO VRB02KT 9SM CLR 00/M00 A3018 RMK SLP222,CYGW,2023-06-01T06:00:00Z,55.27,-77.77,0.0,0.0,0,2,,9.0,30.180119,1022.2,,TRUE,,,,,,,,CLR,,,,,,,,VFR,,,,,,,,,,,,SPECI,13.0
CYGV 010600Z AUTO 09005KT 9SM SCT140 OVC180 11/07 A2987 RMK SLP118,CYGV,2023-06-01T06:00:00Z,50.28,-63.62,11.0,7.0,90,5,,9.0,29.870079,1011.8,,TRUE,,,,,,,,SCT,14000,OVC,18000,,,,,VFR,,,,,,,,,,,,SPECI,32.0
CYGP 010600Z 25004KT 10SM BKN190 14/12 A2987 RMK AC7 SLP118,CYGP,2023-06-01T06:00:00Z,48.77,-64.47,14.0,12.0,250,4,,10.0,29.870079,1011.8,,,,,,,,,,BKN,19000,,,,,,,VFR,,,,,,,,,,,,SPECI,31.0
CYGL 010600Z 03007KT 360V060 7SM OVC003 12/11 A3007 RMK SF8 SLP187,CYGL,2023-06-01T06:00:00Z,53.62,-77.7,12.0,11.0,30,7,,7.0,30.070866,1018.7,,,,,,,,,,OVC,300,,,,,,,LIFR,,,,,,,,,,,,METAR,192.0
CYFS 010600Z 17005KT 15SM BKN160 BKN190 BKN250 14/M03 A2972 RMK AC5CC1CI1 CI TR SLP072 DENSITY ALT 900FT,CYFS,2023-06-01T06:00:00Z,61.75,-121.22,14.0,-3.0,170,5,,15.0,29.719488,1007.2,,,,,,,,,,BKN,16000,BKN,19000,BKN,25000,,,VFR,,,,,,,,,,,,SPECI,174.0
CYFC 010600Z AUTO 19008KT 9SM CLR 15/12 A2999 RMK SLP158,CYFC,2023-06-01T06:00:00Z,45.87,-66.53,15.0,12.0,190,8,,9.0,29.991142,1015.8,,TRUE,,,,,,,,CLR,,,,,,,,VFR,,,,,,,,,,,,METAR,16.0
CYFB 010600Z 32019G24KT 30SM BKN015 M02/M05 A3015 RMK SC7 SLP214,CYFB,2023-06-01T06:00:00Z,63.75,-68.55,-2.0,-5.0,320,19,24,30.0,30.15059,1021.4,,,,,,,,,,BKN,1500,,,,,,,MVFR,,,,,,,,,,,,METAR,23.0
CYEN 010600Z AUTO 11008KT 9SM CLR 16/14 A2984 RMK SLP105 DENSITY ALT 2600FT,CYEN,2023-06-01T06:00:00Z,49.22,-102.97,16.0,14.0,110,8,,9.0,29.840551,1010.5,,TRUE,,,,,,,,CLR,,,,,,,,VFR,,,,,,,,,,,,SPECI,580.0
CYEK 010600Z AUTO 15011KT 9SM OVC120 00/00 A3035 RMK SLP280,CYEK,2023-06-01T06:00:00Z,61.1,-94.07,0.0,0.0,150,11,,9.0,30.351377,1028.0,,TRUE,,,,,,,,OVC,12000,,,,,,,VFR,,,,,,,,,,,,SPECI,7.0
CYEG 010600Z 03003KT 340V040 20SM BKN140 BKN200 11/10 A2982 RMK AC6CI1 SLP104 DENSITY ALT 2600FT,CYEG,2023-06-01T06:00:00Z,53.3,-113.58,11.0,10.0,30,3,,20.0,29.819881,1010.4,,,,,,,,,,BKN,14000,BKN,20000,,,,,VFR,,,,,,,,,,,,METAR,710.0
CYDQ 010600Z AUTO 27003KT 240V350 9SM CLR 09/M03 A2994 RMK SLP154,CYDQ,2023-06-01T06:00:00Z,55.75,-120.18,9.0,-3.0,270,3,,9.0,29.940945,1015.4,,TRUE,,,,,,,,CLR,,,,,,,,VFR,,,,,,,,,,,,METAR,658.0
CYDL 010600Z AUTO VRB02KT 9SM BKN096 02/00 A2993 RMK SLP154,CYDL,2023-06-01T06:00:00Z,58.42,-130.02,2.0,0.0,0,2,,9.0,29.929134,1015.4,,TRUE,,,,,,,,BKN,9600,,,,,,,VFR,,,,,,,,,,,,METAR,804.0
CYDF 010600Z 03003KT 15SM SCT200 06/06 A2999 RMK CI4 SLP157,CYDF,2023-06-01T06:00:00Z,49.22,-57.4,6.0,6.0,30,3,,15.0,29.991142,1015.7,,,,,,,,,,SCT,20000,,,,,,,VFR,,,,,,,,,,,,SPECI,15.0
CYCY 010600Z AUTO 29007KT 9SM CLR M10/M12 A3008 RMK SLP192,CYCY,2023-06-01T06:00:00Z,70.48,-68.52,-10.0,-12.0,290,7,,9.0,30.079725,1019.2,,TRUE,,,,,,,,CLR,,,,,,,,VFR,,,,,,,,,,,,SPECI,73.0
CYCO 010600Z 32004KT 10SM SCT040CB BKN210 03/01 A2968 RMK FU3CB1CI2 CB TR VIS E-S 4 FU SLP055,CYCO,2023-06-01T06:00:00Z,67.82,-115.15,3.0,1.0,320,4,,10.0,29.681103,1005.5,,,,,,,,,,SCT,4000,BKN,21000,,,,,VFR,,,,,,,,,,,,SPECI,20.0
CYCK 010600Z AUTO 13006KT 9SM CLR 14/10 A3009 RMK SLP193,CYCK,2023-06-01T06:00:00Z,42.3,-82.08,14.0,10.0,130,6,,9.0,30.088583,1019.3,,TRUE,,,,,,,,CLR,,,,,,,,VFR,,,,,,,,,,,,METAR,196.0
CYCA 010600Z AUTO 20009G15KT 9SM SCT150 SCT220 12/07 A2988 RMK SLP122,CYCA,2023-06-01T06:00:00Z,53.68,-57.03,12.0,7.0,200,9,15,9.0,29.878937,1012.2,,TRUE,,,,,,,,SCT,15000,SCT,22000,,,,,VFR,,,,,,,,,,,,METAR,12.0
CYBX 010600Z 06009KT 15SM SCT250 09/04 A2996 RMK CI3 SLP150,CYBX,2023-06-01T06:00:00Z,51.45,-57.18,9.0,4.0,60,9,,15.0,29.958662,1015.0,,,,,,,,,,SCT,25000,,,,,,,VFR,,,,,,,,,,,,SPECI,32.0
CYBW 010600Z AUTO 35011G26KT 9SM SCT110 13/08 A2983 RMK SLP098 DENSITY ALT 4700FT,CYBW,2023-06-01T06:00:00Z,51.1,-114.37,13.0,8.0,350,11,26,9.0,29.828741,1009.8,,TRUE,,,,,,,,SCT,11000,,,,,,,VFR,,,,,,,,,,,,SPECI,1197.0
CYBU 010600Z AUTO 06008KT 9SM SCT071 BKN090 18/15 A2988 RMK SLP123 DENSITY ALT 1900FT,CYBU,2023-06-01T06:00:00Z,53.32,-104.0,18.0,15.0,60,8,,9.0,29.878937,1012.3,,TRUE,,,,,,,,SCT,7100,BKN,9000,,,,,VFR,,,,,,,,,,,,SPECI,369.0
CYBR 010600Z 08011KT 15SM FEW140 BKN210 18/16 A2989 RMK AC1CI5 SLP123 DENSITY ALT 2100FT,CYBR,2023-06-01T06:00:00Z,49.92,-99.95,18.0,16.0,80,11,,15.0,29.890747,1012.3,,,,,,,,,,FEW,14000,BKN,21000,,,,,VFR,,,,,,,,,,,,METAR,405.0
CYBQ 010600Z AUTO 12007KT 9SM BKN120 09/04 A3014 RMK SLP222,CYBQ,2023-06-01T06:00:00Z,58.7,-98.5,9.0,4.0,120,7,,9.0,30.138779,1022.2,,TRUE,,,,,,,,BKN,12000,,,,,,,VFR,,,,,,,,,,,,METAR,272.0
CYBK 010600Z 00000KT 20SM BKN160 BKN220 00/M01 A3027 RMK AC6CI1 SLP253,CYBK,2023-06-01T06:00:00Z,64.3,-96.07,0.0,-1.0,0,0,,20.0,30.268702,1025.3,,,,,,,,,,BKN,16000,BKN,22000,,,,,VFR,,,,,,,,,,,,SPECI,14.0
CYBG 010600Z 00000KT 25SM FEW110 17/11 A2999 RMK AC1 DENSITY ALT 1001FT SLP156,CYBG,2023-06-01T06:00:00Z,48.33,-70.98,17.0,11.0,0,0,,25.0,29.991142,1015.6,,,,,,,,,,FEW,11000,,,,,,,VFR,,,,,,,,,,,,METAR,151.0
CYBC 010600Z AUTO 27007KT 9SM CLR 15/09 A2989 RMK SLP125,CYBC,2023-06-01T06:00:00Z,49.13,-68.2,15.0,9.0,270,7,,9.0,29.890747,1012.5,,TRUE,,,,,,,,CLR,,,,,,,,VFR,,,,,,,,,,,,SPECI,20.0
CYAY 010600Z AUTO 12007KT 9SM OVC060 05/02 A3001 RMK SLP167,CYAY,2023-06-01T06:00:00Z,51.38,-56.07,5.0,2.0,120,7,,9.0,30.008858,1016.7,,TRUE,,,,,,,,OVC,6000,,,,,,,VFR,,,,,,,,,,,,SPECI,23.0
CYAT 010600Z AUTO 32003KT 9SM -RA 04/03 A3020 RMK PCPN 0.5MM PAST HR CLD MISG SLP227,CYAT,2023-06-01T06:00:00Z,52.93,-82.43,4.0,3.0,320,3,,9.0,30.200787,1022.7,,TRUE,,,,,,,-RA,,,,,,,,,,,,,,,,,,,,,METAR,4.0
CYAM 010600Z 09005KT 20SM SCT140 SCT220 BKN260 18/15 A3008 RMK AC3CC1CI2 CC TR SLP186 DENSITY ALT 1000FT,CYAM,2023-06-01T06:00:00Z,46.48,-84.52,18.0,15.0,90,5,,20.0,30.079725,1018.6,,,,,,,,,,SCT,14000,SCT,22000,BKN,26000,,,VFR,,,,,,,,,,,,SPECI,186.0
CYAH 010600Z AUTO 05004KT 9SM BKN015 OVC071 15/13 A3001 RMK SLP169,CYAH,2023-06-01T06:00:00Z,53.75,-73.67,15.0,13.0,50,4,,9.0,30.008858,1016.9,,TRUE,,,,,,,,BKN,1500,OVC,7100,,,,,MVFR,,,,,,,,,,,,SPECI,298.0
CXZV 010600Z AUTO 36002KT 16/11 RMK AO1 SLP106 T01620108 58002,CXZV,2023-06-01T06:00:00Z,50.22,-66.25,16.2,10.8,360,2,,,,1010.6,,TRUE,TRUE,,,,,,,,,,,,,,,,-0.2,,,,,,,,,,,METAR,43.0
CXZC 010600Z AUTO 01005KT 07/06 RMK AO1 3019 SLP194 T00670058 50007,CXZC,2023-06-01T06:00:00Z,51.3,-80.62,6.7,5.8,10,5,,,,1019.4,,TRUE,TRUE,,,,,,,,,,,,,,,,0.7,,,,,,,,,,,METAR,8.0
CXYH 010600Z AUTO 00000KT 08/M03 RMK AO1 SLP059 T00771028 52011,CXYH,2023-06-01T06:00:00Z,61.25,-123.75,7.7,-2.8,0,0,,,,1005.9,,TRUE,TRUE,,,,,,,,,,,,,,,,1.1,,,,,,,,,,,METAR,197.0
CXWN 010600Z AUTO 03002KT 19/14 RMK AO1 SLP118 T01940135 51005,CXWN,2023-06-01T06:00:00Z,49.88,-97.13,19.4,13.5,30,2,,,,1011.8,,TRUE,TRUE,,,,,,,,,,,,,,,,0.5,,,,,,,,,,,METAR,232.0
CXWM 010600Z AUTO 18007KT 13/09 RMK AO1 T01290087,CXWM,2023-06-01T06:00:00Z,49.5,-112.12,12.9,8.7,180,7,,,,,,TRUE,TRUE,,,,,,,,,,,,,,,,,,,,,,,,,,,METAR,947.0
CXVW 010600Z AUTO 26006KT 11/07 RMK AO1 SLP132 T01070067 51008,CXVW,2023-06-01T06:00:00Z,55.1,-117.2,10.7,6.7,260,6,,,,1013.2,,TRUE,TRUE,,,,,,,,,,,,,,,,0.8,,,,,,,,,,,METAR,696.0
CXVN 010600Z AUTO 26002KT 17/14 RMK AO1 SLP189 T01660136 58001,CXVN,2023-06-01T06:00:00Z,43.18,-79.4,16.6,13.6,260,2,,,,1018.9,,TRUE,TRUE,,,,,,,,,,,,,,,,-0.1,,,,,,,,,,,METAR,86.0
CXVM 010600Z AUTO 33009KT 17/11 RMK AO1 PK WND 34017/0530 T01660112,CXVM,2023-06-01T06:00:00Z,53.35,-110.88,16.6,11.2,330,9,,,,,,TRUE,TRUE,,,,,,,,,,,,,,,,,,,,,,,,,,,METAR,622.0
CXTV 010600Z AUTO 30014KT 03/02 RMK AO1 PK WND 30018/0555 SLP042 T00270017 51025,CXTV,2023-06-01T06:00:00Z,68.75,-133.5,2.7,1.7,300,14,,,,1004.2,,TRUE,TRUE,,,,,,,,,,,,,,,,2.5,,,,,,,,,,,METAR,91.0
CXTP 010600Z AUTO 31002KT 03/01 RMK AO1 SLP159 T00260013 53001,CXTP,2023-06-01T06:00:00Z,48.55,-53.97,2.6,1.3,310,2,,,,1015.9,,TRUE,TRUE,,,,,,,,,,,,,,,,0.1,,,,,,,,,,,METAR,104.0
CXTO 010600Z AUTO 21/12 RMK AO1 SLP193 T02060115 50002,CXTO,2023-06-01T06:00:00Z,43.67,-79.4,20.6,11.5,,,,,,1019.3,,TRUE,TRUE,,,,,,,,,,,,,,,,0.2,,,,,,,,,,,METAR,115.0
CXTN 010600Z AUTO 22016G21KT 07/05 RMK AO1 PK WND 18022/0500 SLP044 T00650046 53012,CXTN,2023-06-01T06:00:00Z,69.2,-122.35,6.5,4.6,220,16,21,,,1004.4,,TRUE,TRUE,,,,,,,,,,,,,,,,1.2,,,,,,,,,,,METAR,564.0
CXTH 010600Z AUTO 36017KT 15/12 RMK AO1 PK WND 35022/0533 T01490115,CXTH,2023-06-01T06:00:00Z,53.63,-111.68,14.9,11.5,360,17,,,,,,TRUE,TRUE,,,,,,,,,,,,,,,,,,,,,,,,,,,METAR,679.0
CXTD 010600Z AUTO 22006KT 17/09 RMK AO1 SLP160 T01650088 58007,CXTD,2023-06-01T06:00:00Z,45.62,-61.68,16.5,8.8,220,6,,,,1016.0,,TRUE,TRUE,,,,,,,,,,,,,,,,-0.7,,,,,,,,,,,METAR,58.0
CXSP 010600Z AUTO 33017KT 15/11 RMK AO1 PK WND 32024/0505 T01470113,CXSP,2023-06-01T06:00:00Z,54.02,-111.27,14.7,11.3,330,17,,,,,,TRUE,TRUE,,,,,,,,,,,,,,,,,,,,,,,,,,,METAR,652.0
CXSL 010600Z AUTO 03011KT 13/10 RMK AO1 PK WND 01019/0541 T01270095 50150,CXSL,2023-06-01T06:00:00Z,54.28,-112.5,12.7,9.5,30,11,,,,,,TRUE,TRUE,,,,,,,,,,,,,,,,0.0,,,,,,,,,,,METAR,680.0
CXSH 010600Z AUTO 32003KT 20/11 RMK AO1 SLP169 T01950114 50001,CXSH,2023-06-01T06:00:00Z,46.55,-72.73,19.5,11.4,320,3,,,,1016.9,,TRUE,TRUE,,,,,,,,,,,,,,,,0.1,,,,,,,,,,,METAR,106.0
CXSE 010600Z AUTO 18014KT M00/M02 RMK AO1 SOG 17 8006 PK WND 18017/0553 SLP151 T10031024,CXSE,2023-06-01T06:00:00Z,73.77,-105.28,-0.3,-2.4,180,14,,,,1015.1,,TRUE,TRUE,,,,,,,,,,,,,,,,,,,,,,,,,,,METAR,11.0
CXSC 010600Z AUTO 20003KT 17/08 RMK AO1 T01670080,CXSC,2023-06-01T06:00:00Z,50.3,-110.08,16.7,8.0,200,3,,,,,,TRUE,TRUE,,,,,,,,,,,,,,,,,,,,,,,,,,,METAR,809.0
CXRL 010600Z AUTO 36013KT 13/11 RMK AO1 PK WND 32020/0501 T01250113 50018,CXRL,2023-06-01T06:00:00Z,54.5,-111.7,12.5,11.3,360,13,,,,,,TRUE,TRUE,,,,,,,,,,,,,,,,1.8,,,,,,,,,,,METAR,585.0
CXRH 010600Z AUTO 12003KT 13/08 RMK AO1 SLP137 T01340075 55000,CXRH,2023-06-01T06:00:00Z,49.57,-57.88,13.4,7.5,120,3,,,,1013.7,,TRUE,TRUE,,,,,,,,,,,,,,,,0.0,,,,,,,,,,,METAR,68.0
CXRB 010600Z AUTO 13009KT M05/M06 RMK AO1 SOG 10 3002 SLP191 T10471056,CXRB,2023-06-01T06:00:00Z,74.72,-94.98,-4.7,-5.6,130,9,,,,1019.1,,TRUE,TRUE,,,,,,,,,,,,,,,,,,,,,,,,,,,METAR,30.0
CXPL 010600Z AUTO 20007KT 13/04 RMK AO1 T01320041,CXPL,2023-06-01T06:00:00Z,51.13,-111.7,13.2,4.1,200,7,,,,,,TRUE,TRUE,,,,,,,,,,,,,,,,,,,,,,,,,,,METAR,735.0
CXPC 010600Z AUTO 17/15 RMK AO1 SLP198 T01700147 51002,CXPC,2023-06-01T06:00:00Z,45.35,-80.05,17.0,14.7,,,,,,1019.8,,TRUE,TRUE,,,,,,,,,,,,,,,,0.2,,,,,,,,,,,METAR,176.0
CXPA 010600Z AUTO 29006KT 12/05 RMK AO1 T01190047,CXPA,2023-06-01T06:00:00Z,55.62,-118.3,11.9,4.7,290,6,,,,,,TRUE,TRUE,,,,,,,,,,,,,,,,,,,,,,,,,,,METAR,628.0
CXOY 010600Z AUTO 23006KT 16/04 RMK AO1 T01590038,CXOY,2023-06-01T06:00:00Z,51.35,-110.35,15.9,3.8,230,6,,,,,,TRUE,TRUE,,,,,,,,,,,,,,,,,,,,,,,,,,,METAR,784.0
CXOX 010600Z AUTO 22005KT 15/13 RMK AO1 3PAST HR 3022 SLP151 P0025 T01470132 50480,CXOX,2023-06-01T06:00:00Z,55.15,-105.27,14.7,13.2,220,5,,,,1015.1,,TRUE,TRUE,,,,,,,,,,,,,,,,0.0,,,,,0.25,,,,,,METAR,381.0
CXOL 010600Z AUTO 31013KT 12/09 RMK AO1 PK WND 31019/0559 T01230092,CXOL,2023-06-01T06:00:00Z,51.77,-114.08,12.3,9.2,310,13,,,,,,TRUE,TRUE,,,,,,,,,,,,,,,,,,,,,,,,,,,METAR,1026.0
CXNP 010600Z AUTO 19006KT 10/06 RMK AO1 SLP161 T01030060 58006,CXNP,2023-06-01T06:00:00Z,45.75,-64.23,10.3,6.0,190,6,,,,1016.1,,TRUE,TRUE,,,,,,,,,,,,,,,,-0.6,,,,,,,,,,,METAR,19.0
CXNM 010600Z AUTO 26007KT 18/09 RMK AO1 T01790094,CXNM,2023-06-01T06:00:00Z,46.82,-60.67,17.9,9.4,260,7,,,,,,TRUE,TRUE,,,,,,,,,,,,,,,,,,,,,,,,,,,METAR,452.0
CXMY 010600Z AUTO 09/06 RMK AO1 T00870056,CXMY,2023-06-01T06:00:00Z,44.98,-62.48,8.7,5.6,,,,,,,,TRUE,TRUE,,,,,,,,,,,,,,,,,,,,,,,,,,,METAR,37.0
CXMO 010600Z AUTO 03009KT 17/12 RMK AO1 PK WND 04017/0538 T01660124,CXMO,2023-06-01T06:00:00Z,51.67,-112.68,16.6,12.4,30,9,,,,,,TRUE,TRUE,,,,,,,,,,,,,,,,,,,,,,,,,,,METAR,837.0
CXMM 010600Z AUTO 23007KT 17/10 RMK AO1 SLP108 T01660097 53015,CXMM,2023-06-01T06:00:00Z,56.65,-111.22,16.6,9.7,230,7,,,,1010.8,,TRUE,TRUE,,,,,,,,,,,,,,,,1.5,,,,,,,,,,,METAR,372.0
CXMI 010600Z AUTO 31004KT 13/03 RMK AO1 SLP165 T01270033 58010,CXMI,2023-06-01T06:00:00Z,44.6,-63.53,12.7,3.3,310,4,,,,1016.5,,TRUE,TRUE,,,,,,,,,,,,,,,,-1.0,,,,,,,,,,,METAR,15.0
CXMG 010600Z AUTO 21006KT 09/04 RMK AO1 T00920035,CXMG,2023-06-01T06:00:00Z,56.97,-117.45,9.2,3.5,210,6,,,,,,TRUE,TRUE,,,,,,,,,,,,,,,,,,,,,,,,,,,METAR,467.0
CXMD 010600Z AUTO 31002KT 19/15 RMK AO1 SLP118 T01910152 52011,CXMD,2023-06-01T06:00:00Z,49.18,-98.08,19.1,15.2,310,2,,,,1011.8,,TRUE,TRUE,,,,,,,,,,,,,,,,1.1,,,,,,,,,,,METAR,297.0
CXLL 010600Z AUTO 13/M03 RMK AO1 SLP076 T01261029 52014,CXLL,2023-06-01T06:00:00Z,61.12,-122.85,12.6,-2.9,,,,,,1007.6,,TRUE,TRUE,,,,,,,,,,,,,,,,1.4,,,,,,,,,,,METAR,180.0
CXLB 010600Z AUTO 29007KT 14/02 RMK AO1 SLP173 T01430023 58008,CXLB,2023-06-01T06:00:00Z,44.37,-64.3,14.3,2.3,290,7,,,,1017.3,,TRUE,TRUE,,,,,,,,,,,,,,,,-0.8,,,,,,,,,,,METAR,4.0
CXKT 010600Z AUTO 21005KT 14/02 RMK AO1 SLP171 T01370024 58007,CXKT,2023-06-01T06:00:00Z,45.07,-64.48,13.7,2.4,210,5,,,,1017.1,,TRUE,TRUE,,,,,,,,,,,,,,,,-0.7,,,,,,,,,,,METAR,48.0
CXKM 010600Z AUTO 02021KT 15/10 RMK AO1 PK WND 03031/0550 T01520103,CXKM,2023-06-01T06:00:00Z,52.83,-111.87,15.2,10.3,20,21,,,,,,TRUE,TRUE,,,,,,,,,,,,,,,,,,,,,,,,,,,METAR,679.0
CXKI 010600Z AUTO 00000KT 17/15 RMK AO1 SLP172 T01740146 51010,CXKI,2023-06-01T06:00:00Z,48.13,-80.0,17.4,14.6,0,0,,,,1017.2,,TRUE,TRUE,,,,,,,,,,,,,,,,1.0,,,,,,,,,,,METAR,328.0
CXKE 010600Z AUTO 23002KT 17/13 RMK AO1 SLP185 T01700132 58001,CXKE,2023-06-01T06:00:00Z,45.0,-75.63,17.0,13.2,230,2,,,,1018.5,,TRUE,TRUE,,,,,,,,,,,,,,,,-0.1,,,,,,,,,,,METAR,99.0
CXKA 010600Z AUTO 20004KT 19/10 RMK AO1 SLP171 T01920095 51009,CXKA,2023-06-01T06:00:00Z,49.4,-82.45,19.2,9.5,200,4,,,,1017.1,,TRUE,TRUE,,,,,,,,,,,,,,,,0.9,,,,,,,,,,,METAR,221.0
CXIB 010600Z AUTO 01005KT 15/08 RMK AO1 SLP124 T01490079 56010,CXIB,2023-06-01T06:00:00Z,46.67,-60.4,14.9,7.9,10,5,,,,1012.4,,TRUE,TRUE,,,,,,,,,,,,,,,,-1.0,,,,,,,,,,,METAR,6.0
CXHR 010600Z AUTO 19003KT 18/02 RMK AO1 T01750019,CXHR,2023-06-01T06:00:00Z,51.18,-112.5,17.5,1.9,190,3,,,,,,TRUE,TRUE,,,,,,,,,,,,,,,,,,,,,,,,,,,METAR,975.0
CXHP 010600Z AUTO 24004KT 08/06 RMK AO1 T00780059,CXHP,2023-06-01T06:00:00Z,55.4,-116.48,7.8,5.9,240,4,,,,,,TRUE,TRUE,,,,,,,,,,,,,,,,,,,,,,,,,,,METAR,601.0
CXHM 010600Z AUTO 02001KT 15/12 RMK AO1 SLP193 T01500119 50002,CXHM,2023-06-01T06:00:00Z,43.28,-79.9,15.0,11.9,20,1,,,,1019.3,,TRUE,TRUE,,,,,,,,,,,,,,,,0.2,,,,,,,,,,,METAR,105.0
CXHD 010600Z AUTO 35015KT 14/10 RMK AO1 PK WND 00024/0504 T01400098,CXHD,2023-06-01T06:00:00Z,53.18,-112.25,14.0,9.8,350,15,,,,,,TRUE,TRUE,,,,,,,,,,,,,,,,,,,,,,,,,,,METAR,688.0
CXHA 010600Z AUTO 14002KT 18/10 RMK AO1 SLP186 T01820095 54000,CXHA,2023-06-01T06:00:00Z,42.03,-82.9,18.2,9.5,140,2,,,,1018.6,,TRUE,TRUE,,,,,,,,,,,,,,,,,,,,,,,,,,,METAR,193.0
CXGH 010600Z AUTO 01006KT 19/17 RMK AO1 SLP126 T01880174 51007,CXGH,2023-06-01T06:00:00Z,50.63,-97.0,18.8,17.4,10,6,,,,1012.6,,TRUE,TRUE,,,,,,,,,,,,,,,,0.7,,,,,,,,,,,METAR,217.0
CXFR 010600Z AUTO 27006KT 11/M02 RMK AO1 T01061019,CXFR,2023-06-01T06:00:00Z,56.08,-118.43,10.6,-1.9,270,6,,,,,,TRUE,TRUE,,,,,,,,,,,,,,,,,,,,,,,,,,,METAR,657.0
CXFM 010600Z AUTO 10003KT 12/09 RMK AO1 T01170087,CXFM,2023-06-01T06:00:00Z,49.48,-111.48,11.7,8.7,100,3,,,,,,TRUE,TRUE,,,,,,,,,,,,,,,,,,,,,,,,,,,METAR,884.0
CXET 010600Z AUTO 12002KT 17/12 RMK AO1 SLP203 T01650122 52003,CXET,2023-06-01T06:00:00Z,44.23,-79.78,16.5,12.2,120,2,,,,1020.3,,TRUE,TRUE,,,,,,,,,,,,,,,,0.3,,,,,,,,,,,METAR,250.0
CXEG 010600Z AUTO 01004KT 11/09 RMK AO1 1022 SLP101 T01090091 50037,CXEG,2023-06-01T06:00:00Z,53.3,-113.6,10.9,9.1,10,4,,,,1010.1,,TRUE,TRUE,,,,,,,,,,,,,,,,3.7,,,,,,,,,,,METAR,706.0
CXEC 010600Z AUTO 31003KT 14/11 RMK AO1 1027 SLP101 T01350113 50075,CXEC,2023-06-01T06:00:00Z,53.57,-113.52,13.5,11.3,310,3,,,,1010.1,,TRUE,TRUE,,,,,,,,,,,,,,,,7.5,,,,,,,,,,,METAR,666.0
CXEA 010600Z AUTO 08004KT 16/15 RMK AO1 SLP131 T01630146 53006,CXEA,2023-06-01T06:00:00Z,50.63,-93.22,16.3,14.6,80,4,,,,1013.1,,TRUE,TRUE,,,,,,,,,,,,,,,,0.6,,,,,,,,,,,METAR,351.0
CXDW 010600Z AUTO 33006KT 17/15 RMK AO1 SLP121 T01720149 51009,CXDW,2023-06-01T06:00:00Z,49.4,-98.32,17.2,14.9,330,6,,,,1012.1,,TRUE,TRUE,,,,,,,,,,,,,,,,0.9,,,,,,,,,,,METAR,341.0
CXDK 010600Z AUTO 05/M07 RMK AO1 SLP075 T00511067 51008,CXDK,2023-06-01T06:00:00Z,61.27,-124.47,5.1,-6.7,,,,,,1007.5,,TRUE,TRUE,,,,,,,,,,,,,,,,0.8,,,,,,,,,,,METAR,269.0
CXDI 010600Z AUTO 00000KT 14/11 RMK AO1 SLP192 T01440110 50000,CXDI,2023-06-01T06:00:00Z,42.87,-80.55,14.4,11.0,0,0,,,,1019.2,,TRUE,TRUE,,,,,,,,,,,,,,,,0.0,,,,,,,,,,,METAR,234.0
CXDE 010600Z AUTO 05003KT 10/04 RMK AO1 SLP046 T01010035 50005,CXDE,2023-06-01T06:00:00Z,65.22,-123.43,10.1,3.5,50,3,,,,1004.6,,TRUE,TRUE,,,,,,,,,,,,,,,,0.5,,,,,,,,,,,METAR,208.0
CXDB 010600Z AUTO 24006KT 10/05 RMK AO1 T01000048,CXDB,2023-06-01T06:00:00Z,49.05,-112.82,10.0,4.8,240,6,,,,,,TRUE,TRUE,,,,,,,,,,,,,,,,,,,,,,,,,,,METAR,1311.0
CXCS 010600Z AUTO 30007KT 16/05 RMK AO1 T01630046,CXCS,2023-06-01T06:00:00Z,51.93,-110.72,16.3,4.6,300,7,,,,,,TRUE,TRUE,,,,,,,,,,,,,,,,,,,,,,,,,,,METAR,771.0
CXCP 010600Z AUTO 14006KT 11/02 RMK AO1 T01090021,CXCP,2023-06-01T06:00:00Z,50.28,-113.35,10.9,2.1,140,6,,,,,,TRUE,TRUE,,,,,,,,,,,,,,,,,,,,,,,,,,,METAR,999.0
CXCK 010600Z AUTO 19003KT 07/02 RMK AO1 SLP088 T00680020 51032,CXCK,2023-06-01T06:00:00Z,62.12,-136.2,6.8,2.0,190,3,,,,1008.8,,TRUE,TRUE,,,,,,,,,,,,,,,,3.2,,,,,,,,,,,METAR,526.0
CXCD 010600Z AUTO 25005KT 10/M05 RMK AO1 T00971048,CXCD,2023-06-01T06:00:00Z,56.32,-119.75,9.7,-4.8,250,5,,,,,,TRUE,TRUE,,,,,,,,,,,,,,,,,,,,,,,,,,,METAR,628.0
CXCA 010600Z AUTO 00000KT 11/09 RMK AO1 SLP155 T01070089 50000,CXCA,2023-06-01T06:00:00Z,49.15,-88.35,10.7,8.9,0,0,,,,1015.5,,TRUE,TRUE,,,,,,,,,,,,,,,,0.0,,,,,,,,,,,METAR,228.0
CXBW 010600Z AUTO 17006KT 14/09 RMK AO1 T01430091,CXBW,2023-06-01T06:00:00Z,49.8,-112.3,14.3,9.1,170,6,,,,,,TRUE,TRUE,,,,,,,,,,,,,,,,,,,,,,,,,,,METAR,823.0
CXBR 010600Z AUTO 27006KT RMK AO1,CXBR,2023-06-01T06:00:00Z,49.62,-113.82,,,270,6,,,,,,TRUE,TRUE,,,,,,,,,,,,,,,,,,,,,,,,,,,METAR,1137.0
CXBO 010600Z AUTO 22006KT 21/13 RMK AO1 T02140127,CXBO,2023-06-01T06:00:00Z,46.83,-71.2,21.4,12.7,220,6,,,,,,TRUE,TRUE,,,,,,,,,,,,,,,,,,,,,,,,,,,METAR,8.0
CXBK 010600Z AUTO 12009KT 15/12 RMK AO1 SLP100 T01540119 53007,CXBK,2023-06-01T06:00:00Z,50.2,-104.7,15.4,11.9,120,9,,,,1010.0,,TRUE,TRUE,,,,,,,,,,,,,,,,0.7,,,,,,,,,,,METAR,585.0
CXBI 010600Z AUTO 00000KT 16/12 RMK AO1 SLP205 T01630123 51001,CXBI,2023-06-01T06:00:00Z,44.48,-79.55,16.3,12.3,0,0,,,,1020.5,,TRUE,TRUE,,,,,,,,,,,,,,,,0.1,,,,,,,,,,,METAR,287.0
CXBA 010600Z AUTO 25004KT 17/06 RMK AO1 T01690056,CXBA,2023-06-01T06:00:00Z,52.12,-110.1,16.9,5.6,250,4,,,,,,TRUE,TRUE,,,,,,,,,,,,,,,,,,,,,,,,,,,METAR,696.0
CXAK 010600Z AUTO 35007KT 14/10 RMK AO1 T01380103,CXAK,2023-06-01T06:00:00Z,52.35,-112.6,13.8,10.3,350,7,,,,,,TRUE,TRUE,,,,,,,,,,,,,,,,,,,,,,,,,,,METAR,799.0
CXAJ 010600Z AUTO 03009KT 12/12 RMK AO1 2PAST HR M PK WND 04017/0532 P0005 T01150115 50147,CXAJ,2023-06-01T06:00:00Z,54.78,-112.82,11.5,11.5,30,9,,,,,,TRUE,TRUE,,,,,,,,,,,,,,,,0.0,,,,,0.05,,,,,,METAR,586.0
CXAG 010600Z AUTO 01016KT 14/10 RMK AO1 PK WND 00023/0501 T01360095 50023,CXAG,2023-06-01T06:00:00Z,53.92,-112.28,13.6,9.5,10,16,,,,,,TRUE,TRUE,,,,,,,,,,,,,,,,2.3,,,,,,,,,,,METAR,632.0
CXAF 010600Z AUTO 02005KT 12/11 RMK AO1 T01220110 50055,CXAF,2023-06-01T06:00:00Z,54.28,-112.97,12.2,11.0,20,5,,,,,,TRUE,TRUE,,,,,,,,,,,,,,,,5.5,,,,,,,,,,,METAR,667.0
CWZW 010600Z AUTO 24006KT 05/M04 RMK AO1 SLP140 T00521036 53018,CWZW,2023-06-01T06:00:00Z,60.17,-132.73,5.2,-3.6,240,6,,,,1014.0,,TRUE,TRUE,,,,,,,,,,,,,,,,1.8,,,,,,,,,,,METAR,683.0
CWZQ 010600Z AUTO 18006KT 16/10 RMK AO1 SLP148 T01560102 58006,CWZQ,2023-06-01T06:00:00Z,46.53,-61.05,15.6,10.2,180,6,,,,1014.8,,TRUE,TRUE,,,,,,,,,,,,,,,,-0.6,,,,,,,,,,,METAR,13.0
CWZO 010600Z AUTO 24008KT RMK AO1,CWZO,2023-06-01T06:00:00Z,48.57,-123.25,,,240,8,,,,,,TRUE,TRUE,,,,,,,,,,,,,,,,,,,,,,,,,,,METAR,5.0
CWZN 010600Z AUTO 00000KT 07/07 RMK AO1 SLP152 T00740067 51002,CWZN,2023-06-01T06:00:00Z,47.37,-55.8,7.4,6.7,0,0,,,,1015.2,,TRUE,TRUE,,,,,,,,,,,,,,,,0.2,,,,,,,,,,,METAR,63.0
CWZL 010600Z AUTO 17009KT 10/06 RMK AO1 SLP180 T01020062 51003,CWZL,2023-06-01T06:00:00Z,53.03,-131.6,10.2,6.2,170,9,,,,1018.0,,TRUE,TRUE,,,,,,,,,,,,,,,,0.3,,,,,,,,,,,METAR,17.0
CWZG 010600Z AUTO 08003KT 15/04 RMK AO1 SLP072 T01470037 52020,CWZG,2023-06-01T06:00:00Z,51.2,-115.55,14.7,3.7,80,3,,,,1007.2,,TRUE,TRUE,,,,,,,,,,,,,,,,2.0,,,,,,,,,,,METAR,1402.0
CWZA 010600Z AUTO 28002KT 15/06 RMK AO1 SLP176 T01500059 52008,CWZA,2023-06-01T06:00:00Z,49.25,-121.77,15.0,5.9,280,2,,,,1017.6,,TRUE,TRUE,,,,,,,,,,,,,,,,0.8,,,,,,,,,,,METAR,18.0
CWYY 010600Z AUTO 32009G18KT 20/02 RMK AO1 PK WND 35018/0518 SLP096 T01960023 51025,CWYY,2023-06-01T06:00:00Z,49.03,-119.43,19.6,2.3,320,9,18,,,1009.6,,TRUE,TRUE,,,,,,,,,,,,,,,,2.5,,,,,,,,,,,METAR,284.0
CWYL 010600Z AUTO 07001KT 09/M00 RMK AO1 SLP096 T00851002 51014,CWYL,2023-06-01T06:00:00Z,51.45,-116.33,8.5,-0.2,70,1,,,,1009.6,,TRUE,TRUE,,,,,,,,,,,,,,,,1.4,,,,,,,,,,,METAR,1602.0
CWYJ 010600Z AUTO 24004KT 10/07 RMK AO1 SLP182 T01030068 51008,CWYJ,2023-06-01T06:00:00Z,48.45,-123.3,10.3,6.8,240,4,,,,1018.2,,TRUE,TRUE,,,,,,,,,,,,,,,,0.8,,,,,,,,,,,METAR,59.0
CWXL 010600Z AUTO 19003KT 15/10 RMK AO1 SLP068 T01470096 51001,CWXL,2023-06-01T06:00:00Z,49.73,-111.45,14.7,9.6,190,3,,,,1006.8,,TRUE,TRUE,,,,,,,,,,,,,,,,0.1,,,,,,,,,,,METAR,815.0
CWXI 010600Z AUTO 04010KT 05/04 RMK AO1 SLP136 T00510042 58004,CWXI,2023-06-01T06:00:00Z,51.02,-57.1,5.1,4.2,40,10,,,,1013.6,,TRUE,TRUE,,,,,,,,,,,,,,,,-0.4,,,,,,,,,,,METAR,15.0
CWXC 010600Z AUTO 00000KT 13/10 RMK AO1 SLP161 T01280102 51005,CWXC,2023-06-01T06:00:00Z,48.88,-71.03,12.8,10.2,0,0,,,,1016.1,,TRUE,TRUE,,,,,,,,,,,,,,,,0.5,,,,,,,,,,,METAR,306.0
CWXA 010600Z AUTO 00010KT 10/04 RMK AO1 SLP121 T00960043 51031,CWXA,2023-06-01T06:00:00Z,51.07,-115.07,9.6,4.3,0,10,,,,1012.1,,TRUE,TRUE,,,,,,,,,,,,,,,,3.1,,,,,,,,,,,METAR,1303.0
CWWZ 010600Z AUTO 06001KT 18/15 RMK AO1 SLP189 T01780152 58001,CWWZ,2023-06-01T06:00:00Z,43.25,-79.22,17.8,15.2,60,1,,,,1018.9,,TRUE,TRUE,,,,,,,,,,,,,,,,-0.1,,,,,,,,,,,METAR,75.0
CWWS 010600Z AUTO 07014KT 12/10 RMK AO1 PK WND 07017/0545 SLP157 T01150104 51009,CWWS,2023-06-01T06:00:00Z,52.82,-97.62,11.5,10.4,70,14,,,,1015.7,,TRUE,TRUE,,,,,,,,,,,,,,,,0.9,,,,,,,,,,,METAR,220.0
CWWL 010600Z AUTO 16017KT 11/07 RMK AO1 PK WND 16019/0558 SLP176 T01070068 51004,CWWL,2023-06-01T06:00:00Z,53.5,-130.63,10.7,6.8,160,17,,,,1017.6,,TRUE,TRUE,,,,,,,,,,,,,,,,0.4,,,,,,,,,,,METAR,8.0
CWWK 010600Z AUTO 00000KT 12/07 RMK AO1 SLP184 T01240066 52009,CWWK,2023-06-01T06:00:00Z,49.02,-122.78,12.4,6.6,0,0,,,,1018.4,,TRUE,TRUE,,,,,,,,,,,,,,,,0.9,,,,,,,,,,,METAR,10.0
CWWF 010600Z AUTO 15006KT 17/13 RMK AO1 SLP101 T01680128 50004,CWWF,2023-06-01T06:00:00Z,49.7,-103.8,16.8,12.8,150,6,,,,1010.1,,TRUE,TRUE,,,,,,,,,,,,,,,,0.4,,,,,,,,,,,METAR,583.0
CWWE 010600Z AUTO 24006KT RMK AO1 58007,CWWE,2023-06-01T06:00:00Z,43.98,-64.67,,,240,6,,,,,,TRUE,TRUE,,,,,,,,,,,,,,,,-0.7,,,,,,,,,,,METAR,4.0
CWWB 010600Z AUTO 36003KT 20/14 RMK AO1 SLP194 T02020139 50004,CWWB,2023-06-01T06:00:00Z,43.3,-79.78,20.2,13.9,360,3,,,,1019.4,,TRUE,TRUE,,,,,,,,,,,,,,,,0.4,,,,,,,,,,,METAR,77.0
CWWA 010600Z AUTO 36002KT 12/06 RMK AO1 SLP177 T01180058 53004,CWWA,2023-06-01T06:00:00Z,49.35,-123.18,11.8,5.8,360,2,,,,1017.7,,TRUE,TRUE,,,,,,,,,,,,,,,,0.4,,,,,,,,,,,METAR,172.0
CWVU 010600Z AUTO 16006KT 09/08 RMK AO1 SLP187 T00920083 58008,CWVU,2023-06-01T06:00:00Z,44.28,-66.33,9.2,8.3,160,6,,,,1018.7,,TRUE,TRUE,,,,,,,,,,,,,,,,-0.8,,,,,,,,,,,METAR,4.0
CWVT 010600Z AUTO 12009KT 20/11 RMK AO1 SLP093 T02040112 58004,CWVT,2023-06-01T06:00:00Z,55.83,-108.42,20.4,11.2,120,9,,,,1009.3,,TRUE,TRUE,,,,,,,,,,,,,,,,-0.4,,,,,,,,,,,METAR,431.0
CWVQ 010600Z AUTO 26005KT 22/12 RMK AO1 SLP178 T02150115 51002,CWVQ,2023-06-01T06:00:00Z,45.42,-73.92,21.5,11.5,260,5,,,,1017.8,,TRUE,TRUE,,,,,,,,,,,,,,,,0.2,,,,,,,,,,,METAR,38.0
CWVP 010600Z AUTO 16005KT 13/07 RMK AO1 1006 SLP077 T01280067 50019,CWVP,2023-06-01T06:00:00Z,49.63,-109.52,12.8,6.7,160,5,,,,1007.7,,TRUE,TRUE,,,,,,,,,,,,,,,,1.9,,,,,,,,,,,METAR,1269.0
CWVN 010600Z AUTO 09007KT 17/09 RMK AO1 SLP083 T01720094 51014,CWVN,2023-06-01T06:00:00Z,49.07,-107.58,17.2,9.4,90,7,,,,1008.3,,TRUE,TRUE,,,,,,,,,,,,,,,,1.4,,,,,,,,,,,METAR,792.0
CWVI 010600Z AUTO 36016G22KT 14/10 RMK AO1 PK WND 35027/0500 T01350103 50006,CWVI,2023-06-01T06:00:00Z,53.52,-112.1,13.5,10.3,360,16,22,,,,,TRUE,TRUE,,,,,,,,,,,,,,,,0.6,,,,,,,,,,,METAR,640.0
CWVF 010600Z AUTO 26009KT 15/09 RMK AO1 T01520093,CWVF,2023-06-01T06:00:00Z,49.1,-123.3,15.2,9.3,260,9,,,,,,TRUE,TRUE,,,,,,,,,,,,,,,,,,,,,,,,,,,METAR,13.0
CWUX 010600Z AUTO 16002KT 17/12 RMK AO1 SLP157 T01690115 50010,CWUX,2023-06-01T06:00:00Z,48.3,-70.93,16.9,11.5,160,2,,,,1015.7,,TRUE,TRUE,,,,,,,,,,,,,,,,1.0,,,,,,,,,,,METAR,150.0
CWUW 010600Z AUTO 33007KT ////SM ////// M08/M11 A2999,CWUW,2023-06-01T06:00:00Z,68.62,-71.12,-8.0,-11.0,330,7,,,29.991142,,,TRUE,,,,,,,,,,,,,,,,,,,,,,,,,,,,SPECI,173.0
CWUS 010600Z AUTO 30008KT 16/01 RMK AO1 SLP115 T01600007 51027,CWUS,2023-06-01T06:00:00Z,49.57,-119.65,16.0,0.7,300,8,,,,1011.5,,TRUE,TRUE,,,,,,,,,,,,,,,,2.7,,,,,,,,,,,METAR,455.0
CWTY 010600Z AUTO 22004KT 19/14 RMK AO1 SLP169 T01930137 51006,CWTY,2023-06-01T06:00:00Z,46.35,-72.52,19.3,13.7,220,4,,,,1016.9,,TRUE,TRUE,,,,,,,,,,,,,,,,0.6,,,,,,,,,,,METAR,8.0
CWTT 010600Z AUTO 23004KT 16/14 RMK AO1 T01630139,CWTT,2023-06-01T06:00:00Z,45.27,-72.17,16.3,13.9,230,4,,,,,,TRUE,TRUE,,,,,,,,,,,,,,,,,,,,,,,,,,,METAR,210.0
CWTN 010600Z AUTO 30001KT 17/14 RMK AO1 SLP159 T01660144 50001,CWTN,2023-06-01T06:00:00Z,47.07,-70.78,16.6,14.4,300,1,,,,1015.9,,TRUE,TRUE,,,,,,,,,,,,,,,,0.1,,,,,,,,,,,METAR,5.0
CWTG 010600Z AUTO 27013KT 07/05 RMK AO1 SLP119 T00700051 55002,CWTG,2023-06-01T06:00:00Z,49.32,-67.37,7.0,5.1,270,13,,,,1011.9,,TRUE,TRUE,,,,,,,,,,,,,,,,-0.2,,,,,,,,,,,METAR,6.0
CWTA 010600Z AUTO 00000KT 25/12 RMK AO1 SLP175 T02470115 50000,CWTA,2023-06-01T06:00:00Z,45.5,-73.58,24.7,11.5,0,0,,,,1017.5,,TRUE,TRUE,,,,,,,,,,,,,,,,0.0,,,,,,,,,,,METAR,71.0
CWST 010600Z AUTO 05004KT 18/11 RMK AO1 SLP154 T01830114 51004,CWST,2023-06-01T06:00:00Z,47.35,-70.02,18.3,11.4,50,4,,,,1015.4,,TRUE,TRUE,,,,,,,,,,,,,,,,0.4,,,,,,,,,,,METAR,31.0
CWSS 010600Z AUTO 10001KT 10/10 RMK AO1 SLP174 T01020099 58005,CWSS,2023-06-01T06:00:00Z,45.2,-67.25,10.2,9.9,100,1,,,,1017.4,,TRUE,TRUE,,,,,,,,,,,,,,,,-0.5,,,,,,,,,,,METAR,27.0
CWSR 010600Z AUTO 09006KT 17/11 RMK AO1 SLP089 T01680107 53012,CWSR,2023-06-01T06:00:00Z,53.37,-107.55,16.8,10.7,90,6,,,,1008.9,,TRUE,TRUE,,,,,,,,,,,,,,,,1.2,,,,,,,,,,,METAR,589.0
CWSP 010600Z AUTO 28017KT 10/09 RMK AO1 PK WND 28021/0544 SLP194 T01040086 51006,CWSP,2023-06-01T06:00:00Z,48.38,-123.92,10.4,8.6,280,17,,,,1019.4,,TRUE,TRUE,,,,,,,,,,,,,,,,0.6,,,,,,,,,,,METAR,2.0
CWSL 010600Z AUTO 19001KT 16/04 RMK AO1 SLP101 T01550036 52018,CWSL,2023-06-01T06:00:00Z,50.7,-119.28,15.5,3.6,190,1,,,,1010.1,,TRUE,TRUE,,,,,,,,,,,,,,,,1.8,,,,,,,,,,,METAR,353.0
CWSK 010600Z AUTO 06001KT 10/08 RMK AO1 SLP174 T00950075 53012,CWSK,2023-06-01T06:00:00Z,49.78,-123.17,9.5,7.5,60,1,,,,1017.4,,TRUE,TRUE,,,,,,,,,,,,,,,,1.2,,,,,,,,,,,METAR,59.0
CWSG 010600Z AUTO 24007KT 16/11 RMK AO1 SLP120 T01580111 58005,CWSG,2023-06-01T06:00:00Z,49.12,-66.65,15.8,11.1,240,7,,,,1012.0,,TRUE,TRUE,,,,,,,,,,,,,,,,-0.5,,,,,,,,,,,METAR,5.0
CWSF 010600Z AUTO 14002KT 15/08 RMK AO1 SLP110 T01530076 56003,CWSF,2023-06-01T06:00:00Z,49.25,-65.32,15.3,7.6,140,2,,,,1011.0,,TRUE,TRUE,,,,,,,,,,,,,,,,-0.3,,,,,,,,,,,METAR,15.0
CWSD 010600Z AUTO 21010KT 12/10 RMK AO1 8005 SLP145 T01160101 50002,CWSD,2023-06-01T06:00:00Z,46.43,-63.85,11.6,10.1,210,10,,,,1014.5,,TRUE,TRUE,,,,,,,,,,,,,,,,0.2,,,,,,,,,,,METAR,12.0
CWSA 010600Z AUTO 26012G17KT 6SM BR 09/07 A3000 RMK CLD MISG SLP161,CWSA,2023-06-01T06:00:00Z,43.93,-60.0,9.0,7.0,260,12,17,6.0,30.0,1016.1,,TRUE,,,,,,,BR,,,,,,,,,,,,,,,,,,,,,SPECI,4.0
CWRZ 010600Z AUTO 15001KT 13/09 RMK AO1 SLP117 T01250093 58004,CWRZ,2023-06-01T06:00:00Z,48.42,-64.32,12.5,9.3,150,1,,,,1011.7,,TRUE,TRUE,,,,,,,,,,,,,,,,-0.4,,,,,,,,,,,METAR,16.0
CWRY 010600Z AUTO 32002KT 10/08 RMK AO1 SLP074 T01030083 55003,CWRY,2023-06-01T06:00:00Z,49.12,-112.05,10.3,8.3,320,2,,,,1007.4,,TRUE,TRUE,,,,,,,,,,,,,,,,-0.3,,,,,,,,,,,METAR,1048.0
CWRX 010600Z AUTO ///// ////SM ////// M04/M05 A3018,CWRX,2023-06-01T06:00:00Z,69.07,-79.07,-4.0,-5.0,,,,,30.180119,,,TRUE,,,,,,,,,,,,,,,,,,,,,,,,,,,,SPECI,39.0
CWRU 010600Z AUTO 34007KT 10/ RMK AO1 SLP204 T0098 51006,CWRU,2023-06-01T06:00:00Z,50.12,-127.93,9.8,,340,7,,,,1020.4,,TRUE,TRUE,,,,,,,,,,,,,,,,0.6,,,,,,,,,,,METAR,76.0
CWRT 010600Z AUTO 00000KT 06/03 RMK AO1 SLP096 T00570031 51013,CWRT,2023-06-01T06:00:00Z,49.62,-114.47,5.7,3.1,0,0,,,,1009.6,,TRUE,TRUE,,,,,,,,,,,,,,,,1.3,,,,,,,,,,,METAR,1311.0
CWRO 010600Z AUTO 00000KT 07/ RMK AO1 SLP169 T0073 52004,CWRO,2023-06-01T06:00:00Z,54.17,-131.67,7.3,,0,0,,,,1016.9,,TRUE,TRUE,,,,,,,,,,,,,,,,0.4,,,,,,,,,,,METAR,7.0
CWRN 010600Z AUTO 24005KT 11/08 RMK AO1 SLP149 T01120079 58003,CWRN,2023-06-01T06:00:00Z,45.35,-60.98,11.2,7.9,240,5,,,,1014.9,,TRUE,TRUE,,,,,,,,,,,,,,,,-0.3,,,,,,,,,,,METAR,8.0
CWRM 010600Z AUTO 35007KT 11/10 RMK AO1 2PAST HR 1021 SLP091 P0009 T01130101 50022,CWRM,2023-06-01T06:00:00Z,52.42,-114.92,11.3,10.1,350,7,,,,1009.1,,TRUE,TRUE,,,,,,,,,,,,,,,,2.2,,,,,0.09,,,,,,METAR,986.0
CWRK 010600Z AUTO 00000KT 15/14 RMK AO1 SLP198 T01460136 50002,CWRK,2023-06-01T06:00:00Z,45.07,-77.87,14.6,13.6,0,0,,,,1019.8,,TRUE,TRUE,,,,,,,,,,,,,,,,0.2,,,,,,,,,,,METAR,328.0
CWRJ 010600Z AUTO 12009KT 16/10 RMK AO1 SLP074 T01580097 50006,CWRJ,2023-06-01T06:00:00Z,51.57,-107.92,15.8,9.7,120,9,,,,1007.4,,TRUE,TRUE,,,,,,,,,,,,,,,,0.6,,,,,,,,,,,METAR,586.0
CWRA 010600Z AUTO 03009KT 04/02 RMK AO1 SLP146 T00380022 55000,CWRA,2023-06-01T06:00:00Z,46.65,-53.07,3.8,2.2,30,9,,,,1014.6,,TRUE,TRUE,,,,,,,,,,,,,,,,0.0,,,,,,,,,,,METAR,4.0
CWQV 010600Z AUTO 06002KT 16/ RMK AO1 T0163,CWQV,2023-06-01T06:00:00Z,48.27,-70.12,16.3,,60,2,,,,,,TRUE,TRUE,,,,,,,,,,,,,,,,,,,,,,,,,,,METAR,4.0
CWQS 010600Z AUTO 15017KT 09/06 RMK AO1 PK WND 14021/0551 SLP160 T00930056 56004,CWQS,2023-06-01T06:00:00Z,53.32,-132.77,9.3,5.6,150,17,,,,1016.0,,TRUE,TRUE,,,,,,,,,,,,,,,,-0.4,,,,,,,,,,,METAR,10.0
CWQR 010600Z AUTO 27003KT 09/06 RMK AO1 T00890059,CWQR,2023-06-01T06:00:00Z,50.22,-64.22,8.9,5.9,270,3,,,,,,TRUE,TRUE,,,,,,,,,,,,,,,,,,,,,,,,,,,METAR,9.0
CWQP 010600Z AUTO 19004KT 13/11 RMK AO1 SLP194 T01300112 55001,CWQP,2023-06-01T06:00:00Z,43.83,-77.15,13.0,11.2,190,4,,,,1019.4,,TRUE,TRUE,,,,,,,,,,,,,,,,-0.1,,,,,,,,,,,METAR,77.0
CWQO 010600Z AUTO 24015KT 11/09 RMK AO1 PK WND 24018/0531 T01120086,CWQO,2023-06-01T06:00:00Z,48.42,-68.9,11.2,8.6,240,15,,,,,,TRUE,TRUE,,,,,,,,,,,,,,,,,,,,,,,,,,,METAR,7.0
CWQK 010600Z AUTO 27030KT 11/08 RMK AO1 PK WND 27033/0555 SLP183 T01050075 51006,CWQK,2023-06-01T06:00:00Z,48.3,-123.53,10.5,7.5,270,30,,,,1018.3,,TRUE,TRUE,,,,,,,,,,,,,,,,0.6,,,,,,,,,,,METAR,5.0
CWQH 010600Z AUTO 06003KT 13/11 RMK AO1 SLP189 T01300111 50002,CWQH,2023-06-01T06:00:00Z,45.37,-71.82,13.0,11.1,60,3,,,,1018.9,,TRUE,TRUE,,,,,,,,,,,,,,,,0.2,,,,,,,,,,,METAR,181.0
CWPZ 010600Z AUTO 00000KT 02/M02 RMK AO1 SLP186 T00221024 53018,CWPZ,2023-06-01T06:00:00Z,54.38,-125.97,2.2,-2.4,0,0,,,,1018.6,,TRUE,TRUE,,,,,,,,,,,,,,,,1.8,,,,,,,,,,,METAR,715.0
CWPR 010600Z AUTO 18001KT 11/02 RMK AO1 SLP151 T01050015 51018,CWPR,2023-06-01T06:00:00Z,49.47,-120.52,10.5,1.5,180,1,,,,1015.1,,TRUE,TRUE,,,,,,,,,,,,,,,,1.8,,,,,,,,,,,METAR,703.0
CWPO 010600Z AUTO 05007KT 18/14 RMK AO1 SLP125 T01840143 51003,CWPO,2023-06-01T06:00:00Z,49.2,-98.9,18.4,14.3,50,7,,,,1012.5,,TRUE,TRUE,,,,,,,,,,,,,,,,0.3,,,,,,,,,,,METAR,471.0
CWPK 010600Z AUTO 00000KT 14/12 RMK AO1 7PAST HR 0003 P0003 T01430115 50138,CWPK,2023-06-01T06:00:00Z,47.92,-74.62,14.3,11.5,0,0,,,,,,TRUE,TRUE,,,,,,,,,,,,,,,,0.0,,,,,0.03,,,,,,METAR,443.0
CWPE 010600Z AUTO 29003KT 09/08 RMK AO1 SLP175 T00880075 58010,CWPE,2023-06-01T06:00:00Z,45.07,-66.47,8.8,7.5,290,3,,,,1017.5,,TRUE,TRUE,,,,,,,,,,,,,,,,-1.0,,,,,,,,,,,METAR,9.0
CWPD 010600Z AUTO 03003KT 13/10 RMK AO1 SLP153 T01270096 51001,CWPD,2023-06-01T06:00:00Z,47.57,-71.22,12.7,9.6,30,3,,,,1015.3,,TRUE,TRUE,,,,,,,,,,,,,,,,0.1,,,,,,,,,,,METAR,795.0
CWOY 010600Z AUTO 11010G15KT 18/12 RMK AO1 SLP107 T01830117 51006,CWOY,2023-06-01T06:00:00Z,51.77,-104.2,18.3,11.7,110,10,15,,,1010.7,,TRUE,TRUE,,,,,,,,,,,,,,,,0.6,,,,,,,,,,,METAR,557.0
CWOD 010600Z AUTO 28007KT 20/11 RMK AO1 SLP154 T01950106 50003,CWOD,2023-06-01T06:00:00Z,48.85,-72.55,19.5,10.6,280,7,,,,1015.4,,TRUE,TRUE,,,,,,,,,,,,,,,,0.3,,,,,,,,,,,METAR,150.0
CWOC 010600Z AUTO 30006KT 21/10 RMK AO1 SLP126 T02050101 58001,CWOC,2023-06-01T06:00:00Z,48.02,-65.32,20.5,10.1,300,6,,,,1012.6,,TRUE,TRUE,,,,,,,,,,,,,,,,-0.1,,,,,,,,,,,METAR,42.0
CWOB 010600Z AUTO 30006KT 230V320 ////SM ////// ///// A2996,CWOB,2023-06-01T06:00:00Z,63.33,-64.15,,,300,6,,,29.958662,,,TRUE,,,,,,,,,,,,,,,,,,,,,,,,,,,,SPECI,369.0
CWNZ 010600Z AUTO 01002KT 18/13 RMK AO1 SLP174 T01820127 51012,CWNZ,2023-06-01T06:00:00Z,49.75,-84.17,18.2,12.7,10,2,,,,1017.4,,TRUE,TRUE,,,,,,,,,,,,,,,,1.2,,,,,,,,,,,METAR,261.0
CWNQ 010600Z AUTO 08001KT 17/15 RMK AO1 SLP168 T01700149 50003,CWNQ,2023-06-01T06:00:00Z,46.22,-72.65,17.0,14.9,80,1,,,,1016.8,,TRUE,TRUE,,,,,,,,,,,,,,,,0.3,,,,,,,,,,,METAR,9.0
CWNP 010600Z AUTO 15001KT 17/04 RMK AO1 SLP077 T01740040 53019,CWNP,2023-06-01T06:00:00Z,50.27,-117.82,17.4,4.0,150,1,,,,1007.7,,TRUE,TRUE,,,,,,,,,,,,,,,,1.9,,,,,,,,,,,METAR,517.0
CWNM 010600Z AUTO 24008KT 14/06 RMK AO1 SLP090 T01410059 51025,CWNM,2023-06-01T06:00:00Z,49.5,-117.3,14.1,5.9,240,8,,,,1009.0,,TRUE,TRUE,,,,,,,,,,,,,,,,2.5,,,,,,,,,,,METAR,533.0
CWNK 010600Z AUTO 02004KT 17/14 RMK AO1 SLP118 T01730144 51010,CWNK,2023-06-01T06:00:00Z,49.5,-98.03,17.3,14.4,20,4,,,,1011.8,,TRUE,TRUE,,,,,,,,,,,,,,,,1.0,,,,,,,,,,,METAR,271.0
CWNH 010600Z AUTO 19005KT 22/12 RMK AO1 SLP154 T02150115 52002,CWNH,2023-06-01T06:00:00Z,47.8,-69.53,21.5,11.5,190,5,,,,1015.4,,TRUE,TRUE,,,,,,,,,,,,,,,,0.2,,,,,,,,,,,METAR,147.0
CWNE 010600Z AUTO 22015KT 15/12 RMK AO1 PK WND 21019/0529 SLP127 T01540119 58003,CWNE,2023-06-01T06:00:00Z,47.07,-64.0,15.4,11.9,220,15,,,,1012.7,,TRUE,TRUE,,,,,,,,,,,,,,,,-0.3,,,,,,,,,,,METAR,5.0
CWND 010600Z AUTO 30021KT 01/00 RMK AO1 PK WND 30026/0544 SLP008 T00050000 51014,CWND,2023-06-01T06:00:00Z,69.63,-135.43,0.5,0.0,300,21,,,,1000.8,,TRUE,TRUE,,,,,,,,,,,,,,,,1.4,,,,,,,,,,,METAR,14.0
CWNC 010600Z AUTO 36005KT 18/13 RMK AO1 SLP190 T01770126 58003,CWNC,2023-06-01T06:00:00Z,43.95,-78.17,17.7,12.6,360,5,,,,1019.0,,TRUE,TRUE,,,,,,,,,,,,,,,,-0.3,,,,,,,,,,,METAR,71.0
CWMT 010600Z AUTO 16006KT 13/02 RMK AO1 SLP076 T01290015 53009,CWMT,2023-06-01T06:00:00Z,63.13,-117.25,12.9,1.5,160,6,,,,1007.6,,TRUE,TRUE,,,,,,,,,,,,,,,,0.9,,,,,,,,,,,SPECI,274.0
CWMQ 010600Z AUTO 19003KT 17/10 RMK AO1 SLP070 T01730098 51014,CWMQ,2023-06-01T06:00:00Z,49.9,-109.47,17.3,9.8,190,3,,,,1007.0,,TRUE,TRUE,,,,,,,,,,,,,,,,1.4,,,,,,,,,,,METAR,767.0
CWMM 010600Z AUTO 19002KT 13/07 RMK AO1 SLP180 T01340070 51009,CWMM,2023-06-01T06:00:00Z,49.22,-122.68,13.4,7.0,190,2,,,,1018.0,,TRUE,TRUE,,,,,,,,,,,,,,,,0.9,,,,,,,,,,,METAR,2.0
CWMJ 010600Z AUTO 08001KT 15/13 RMK AO1 SLP188 T01530132 50005,CWMJ,2023-06-01T06:00:00Z,46.27,-76.0,15.3,13.2,80,1,,,,1018.8,,TRUE,TRUE,,,,,,,,,,,,,,,,0.5,,,,,,,,,,,METAR,198.0
CWME 010600Z AUTO 19005KT 10/08 RMK AO1 1009 SLP200 T01040083 50002,CWME,2023-06-01T06:00:00Z,52.18,-127.47,10.4,8.3,190,5,,,,1020.0,,TRUE,TRUE,,,,,,,,,,,,,,,,0.2,,,,,,,,,,,METAR,23.0
CWLY 010600Z AUTO 20014G23KT 9SM CLR 15/05 A2995 RMK SLP144,CWLY,2023-06-01T06:00:00Z,50.22,-121.58,15.0,5.0,200,14,23,9.0,29.949802,1014.4,,TRUE,,,,,,,,CLR,,,,,,,,VFR,,,,,,,,,,,,SPECI,228.0
CWLX 010600Z AUTO ///// ////SM ////// M09/M09 A3011,CWLX,2023-06-01T06:00:00Z,68.9,-75.15,-9.0,-9.0,,,,,30.109253,,,TRUE,,,,,,,,,,,,,,,,,,,,,,,,,,,,SPECI,129.0
CWLS 010600Z AUTO 10002KT 18/12 RMK AO1 SLP203 T01820118 51001,CWLS,2023-06-01T06:00:00Z,43.97,-80.75,18.2,11.8,100,2,,,,1020.3,,TRUE,TRUE,,,,,,,,,,,,,,,,0.1,,,,,,,,,,,METAR,413.0
CWLP 010600Z AUTO 30007KT 10/08 RMK AO1 SLP206 T00980080 51007,CWLP,2023-06-01T06:00:00Z,50.93,-127.63,9.8,8.0,300,7,,,,1020.6,,TRUE,TRUE,,,,,,,,,,,,,,,,0.7,,,,,,,,,,,METAR,15.0
CWLM 010600Z AUTO 25012KT 10/08 RMK AO1 PK WND 27019/0503 SLP185 T01020075 51008,CWLM,2023-06-01T06:00:00Z,48.42,-123.32,10.2,7.5,250,12,,,,1018.5,,TRUE,TRUE,,,,,,,,,,,,,,,,0.8,,,,,,,,,,,METAR,62.0
CWLE 010600Z AUTO 16010KT 19/11 RMK AO1 SLP078 T01880113 50007,CWLE,2023-06-01T06:00:00Z,50.95,-107.15,18.8,11.3,160,10,,,,1007.8,,TRUE,TRUE,,,,,,,,,,,,,,,,0.7,,,,,,,,,,,METAR,666.0
CWLC 010600Z AUTO 14016KT 10/06 RMK AO1 PK WND 13018/0557 T00980055,CWLC,2023-06-01T06:00:00Z,54.3,-130.62,9.8,5.5,140,16,,,,,,TRUE,TRUE,,,,,,,,,,,,,,,,,,,,,,,,,,,METAR,27.0
CWLB 010600Z AUTO 02012G17KT 13/11 RMK AO1 PRESFR PK WND 33023/0508 SLP103 T01310113 50004,CWLB,2023-06-01T06:00:00Z,54.77,-112.02,13.1,11.3,20,12,17,,,1010.3,,TRUE,TRUE,,,,,,,,,,,,,,,,0.4,,,,,,,,,,,METAR,561.0
CWKX 010600Z AUTO 04002KT 03/M00 RMK AO1 3017 SLP168 T00271001 50007,CWKX,2023-06-01T06:00:00Z,58.43,-130.02,2.7,-0.1,40,2,,,,1016.8,,TRUE,TRUE,,,,,,,,,,,,,,,,0.7,,,,,,,,,,,METAR,807.0
CWKO 010600Z AUTO 14009KT 16/11 RMK AO1 SLP094 T01640106 50004,CWKO,2023-06-01T06:00:00Z,49.17,-105.97,16.4,10.6,140,9,,,,1009.4,,TRUE,TRUE,,,,,,,,,,,,,,,,0.4,,,,,,,,,,,METAR,914.0
CWKH 010600Z AUTO 10/04 RMK AO1 SLP170 T00960037 51005,CWKH,2023-06-01T06:00:00Z,48.57,-123.55,9.6,3.7,,,,,,1017.0,,TRUE,TRUE,,,,,,,,,,,,,,,,0.5,,,,,,,,,,,METAR,327.0
CWKG 010600Z AUTO 27003KT 10/05 RMK AO1 SLP188 T01010052 58004,CWKG,2023-06-01T06:00:00Z,44.43,-65.2,10.1,5.2,270,3,,,,1018.8,,TRUE,TRUE,,,,,,,,,,,,,,,,-0.4,,,,,,,,,,,METAR,154.0
CWKD 010600Z AUTO 15/08 RMK AO1 SLP164 T01520077 52005,CWKD,2023-06-01T06:00:00Z,50.73,-71.02,15.2,7.7,,,,,,1016.4,,TRUE,TRUE,,,,,,,,,,,,,,,,0.5,,,,,,,,,,,METAR,496.0
CWJX 010600Z AUTO 14011G16KT 20/06 RMK AO1 SLP066 T02020058 53019,CWJX,2023-06-01T06:00:00Z,50.88,-109.5,20.2,5.8,140,11,16,,,1006.6,,TRUE,TRUE,,,,,,,,,,,,,,,,1.9,,,,,,,,,,,METAR,671.0
CWJW 010600Z AUTO 33004KT 12/05 RMK AO1 SLP126 T01160049 51027,CWJW,2023-06-01T06:00:00Z,52.93,-118.03,11.6,4.9,330,4,,,,1012.6,,TRUE,TRUE,,,,,,,,,,,,,,,,2.7,,,,,,,,,,,METAR,1022.0
CWJV 010600Z AUTO 27003KT 17/03 RMK AO1 SLP104 T01680033 51023,CWJV,2023-06-01T06:00:00Z,50.22,-119.18,16.8,3.3,270,3,,,,1010.4,,TRUE,TRUE,,,,,,,,,,,,,,,,2.3,,,,,,,,,,,METAR,487.0
CWJU 010600Z AUTO 11008KT 07/06 RMK AO1 SLP165 T00710059 56004,CWJU,2023-06-01T06:00:00Z,54.25,-133.07,7.1,5.9,110,8,,,,1016.5,,TRUE,TRUE,,,,,,,,,,,,,,,,-0.4,,,,,,,,,,,METAR,47.0
CWJT 010600Z AUTO 00000KT 14/12 RMK AO1 SLP189 T01380117 51004,CWJT,2023-06-01T06:00:00Z,46.07,-74.57,13.8,11.7,0,0,,,,1018.9,,TRUE,TRUE,,,,,,,,,,,,,,,,0.4,,,,,,,,,,,METAR,236.0
CWJR 010600Z AUTO 08004KT 17/04 RMK AO1 SLP085 T01680038 51020,CWJR,2023-06-01T06:00:00Z,49.03,-116.5,16.8,3.8,80,4,,,,1008.5,,TRUE,TRUE,,,,,,,,,,,,,,,,2.0,,,,,,,,,,,METAR,642.0
CWJO 010600Z AUTO 00025KT 22/12 RMK AO1 SLP155 T02190123 51011,CWJO,2023-06-01T06:00:00Z,48.43,-71.15,21.9,12.3,0,25,,,,1015.5,,TRUE,TRUE,,,,,,,,,,,,,,,,1.1,,,,,,,,,,,METAR,113.0
CWJI 010600Z AUTO 13005KT 18/11 RMK AO1 SLP085 T01760110 58001,CWJI,2023-06-01T06:00:00Z,49.72,-105.93,17.6,11.0,130,5,,,,1008.5,,TRUE,TRUE,,,,,,,,,,,,,,,,-0.1,,,,,,,,,,,METAR,724.0
CWJH 010600Z AUTO 12002KT 17/12 RMK AO1 SLP151 T01650124 51012,CWJH,2023-06-01T06:00:00Z,56.32,-103.27,16.5,12.4,120,2,,,,1015.1,,TRUE,TRUE,,,,,,,,,,,,,,,,1.2,,,,,,,,,,,METAR,345.0
CWJD 010600Z AUTO 05003KT 11/10 RMK AO1 SLP160 T01130100 52010,CWJD,2023-06-01T06:00:00Z,53.18,-99.27,11.3,10.0,50,3,,,,1016.0,,TRUE,TRUE,,,,,,,,,,,,,,,,1.0,,,,,,,,,,,METAR,222.0
CWJC 010600Z AUTO 15021G26KT 07/03 RMK AO1 PK WND 14027/0506 SLP206 T00670033 53005,CWJC,2023-06-01T06:00:00Z,61.13,-100.9,6.7,3.3,150,21,26,,,1020.6,,TRUE,TRUE,,,,,,,,,,,,,,,,0.5,,,,,,,,,,,METAR,340.0
CWJB 010600Z AUTO 22/11 RMK AO1 T02160111,CWJB,2023-06-01T06:00:00Z,46.78,-71.28,21.6,11.1,,,,,,,,TRUE,TRUE,,,,,,,,,,,,,,,,,,,,,,,,,,,METAR,90.0
CWIZ 010600Z AUTO 18003KT 16/11 RMK AO1 T01610109,CWIZ,2023-06-01T06:00:00Z,45.28,-73.33,16.1,10.9,180,3,,,,,,TRUE,TRUE,,,,,,,,,,,,,,,,,,,,,,,,,,,METAR,45.0
CWIW 010600Z AUTO 11004KT 16/13 RMK AO1 SLP099 T01570126 51009,CWIW,2023-06-01T06:00:00Z,51.67,-105.4,15.7,12.6,110,4,,,,1009.9,,TRUE,TRUE,,,,,,,,,,,,,,,,0.9,,,,,,,,,,,METAR,524.0
CWIT 010600Z AUTO 28003KT 17/13 RMK AO1 SLP178 T01730126 51003,CWIT,2023-06-01T06:00:00Z,45.17,-73.67,17.3,12.6,280,3,,,,1017.8,,TRUE,TRUE,,,,,,,,,,,,,,,,0.3,,,,,,,,,,,METAR,53.0
CWIS 010600Z AUTO 31004KT 20/09 RMK AO1 SLP182 T02000087 58002,CWIS,2023-06-01T06:00:00Z,47.28,-70.63,20.0,8.7,310,4,,,,1018.2,,TRUE,TRUE,,,,,,,,,,,,,,,,-0.2,,,,,,,,,,,METAR,720.0
CWIP 010600Z AUTO 27004KT 17/10 RMK AO1 T01710097,CWIP,2023-06-01T06:00:00Z,50.17,-66.43,17.1,9.7,270,4,,,,,,TRUE,TRUE,,,,,,,,,,,,,,,,,,,,,,,,,,,METAR,27.0
CWIL 010600Z AUTO ///// ////SM NCD 02/00 A3009,CWIL,2023-06-01T06:00:00Z,68.32,-100.07,2.0,0.0,,,,,30.088583,,,TRUE,,,,,,,,CLR,,,,,,,,,,,,,,,,,,,,SPECI,28.0
CWIK 010600Z AUTO 10005KT 17/13 RMK AO1 SLP112 T01690134 51006,CWIK,2023-06-01T06:00:00Z,50.37,-102.58,16.9,13.4,100,5,,,,1011.2,,TRUE,TRUE,,,,,,,,,,,,,,,,0.6,,,,,,,,,,,SPECI,597.0
CWIJ 010600Z AUTO 14013KT 06/05 RMK AO1 PK WND 14017/0528 SLP124 T00570046,CWIJ,2023-06-01T06:00:00Z,65.77,-111.23,5.7,4.6,140,13,,,,1012.4,,TRUE,TRUE,,,,,,,,,,,,,,,,,,,,,,,,,,,METAR,490.0
CWII 010600Z AUTO 09007KT 20/17 RMK AO1 SLP126 T01950166 51006,CWII,2023-06-01T06:00:00Z,50.7,-96.57,19.5,16.6,90,7,,,,1012.6,,TRUE,TRUE,,,,,,,,,,,,,,,,0.6,,,,,,,,,,,METAR,216.0
CWIG 010600Z AUTO 24006KT RMK AO1,CWIG,2023-06-01T06:00:00Z,47.07,-70.53,,,240,6,,,,,,TRUE,TRUE,,,,,,,,,,,,,,,,,,,,,,,,,,,METAR,12.0
CWID 010600Z AUTO 31001KT 10/02 RMK AO1 SLP087 T01000024 51011,CWID,2023-06-01T06:00:00Z,61.32,-117.6,10.0,2.4,310,1,,,,1008.7,,TRUE,TRUE,,,,,,,,,,,,,,,,1.1,,,,,,,,,,,METAR,160.0
CWHV 010600Z AUTO 18003KT 15/11 RMK AO1 SLP179 T01540107 50001,CWHV,2023-06-01T06:00:00Z,46.2,-70.78,15.4,10.7,180,3,,,,1017.9,,TRUE,TRUE,,,,,,,,,,,,,,,,0.1,,,,,,,,,,,METAR,227.0
CWHT 010600Z AUTO 26006KT 06/M04 RMK AO1 PK WND 24023/0515 SLP106 T00601038 53022,CWHT,2023-06-01T06:00:00Z,60.77,-137.58,6.0,-3.8,260,6,,,,1010.6,,TRUE,TRUE,,,,,,,,,,,,,,,,2.2,,,,,,,,,,,METAR,601.0
CWHQ 010600Z AUTO 00000KT 13/12 RMK AO1 T01270116,CWHQ,2023-06-01T06:00:00Z,46.68,-71.97,12.7,11.6,0,0,,,,,,TRUE,TRUE,,,,,,,,,,,,,,,,,,,,,,,,,,,METAR,56.0
CWHP 010600Z AUTO 25011KT 10/06 RMK AO1 SLP108 T00970055 56004,CWHP,2023-06-01T06:00:00Z,49.08,-61.7,9.7,5.5,250,11,,,,1010.8,,TRUE,TRUE,,,,,,,,,,,,,,,,-0.4,,,,,,,,,,,METAR,7.0
CWHO 010600Z AUTO 00035KT 02/02 RMK AO1 7PAST HR 3019 SLP135 P0011 T00150019 50071,CWHO,2023-06-01T06:00:00Z,55.45,-60.22,1.5,1.9,0,35,,,,1013.5,,TRUE,TRUE,,,,,,,,,,,,,,,,7.1,,,,,0.11,,,,,,METAR,16.0
CWHL 010600Z AUTO 15009KT 09/07 RMK AO1 3004 SLP175 T00930069 50012,CWHL,2023-06-01T06:00:00Z,54.17,-130.35,9.3,6.9,150,9,,,,1017.5,,TRUE,TRUE,,,,,,,,,,,,,,,,1.2,,,,,,,,,,,METAR,5.0
CWHI 010600Z AUTO 34012KT 15/10 RMK AO1 PK WND 34017/0559 T01470095,CWHI,2023-06-01T06:00:00Z,51.7,-113.22,14.7,9.5,340,12,,,,,,TRUE,TRUE,,,,,,,,,,,,,,,,,,,,,,,,,,,METAR,906.0
CWGY 010600Z AUTO 13003KT 17/05 RMK AO1 SLP059 T01690048 53011,CWGY,2023-06-01T06:00:00Z,51.67,-110.2,16.9,4.8,130,3,,,,1005.9,,TRUE,TRUE,,,,,,,,,,,,,,,,1.1,,,,,,,,,,,METAR,709.0
CWGW 010600Z AUTO 15001KT 11/05 RMK AO1 SLP086 T01090046 51014,CWGW,2023-06-01T06:00:00Z,49.75,-114.9,10.9,4.6,150,1,,,,1008.6,,TRUE,TRUE,,,,,,,,,,,,,,,,1.4,,,,,,,,,,,METAR,1137.0
CWGR 010600Z AUTO 25013G18KT 17/10 RMK AO1 PK WND 25020/0533 SLP124 T01670104 57008,CWGR,2023-06-01T06:00:00Z,47.42,-61.77,16.7,10.4,250,13,18,,,1012.4,,TRUE,TRUE,,,,,,,,,,,,,,,,-0.8,,,,,,,,,,,METAR,4.0
CWGM 010600Z AUTO 19008KT 11/03 RMK AO1 SLP082 T01140030 51006,CWGM,2023-06-01T06:00:00Z,49.13,-113.8,11.4,3.0,190,8,,,,1008.2,,TRUE,TRUE,,,,,,,,,,,,,,,,0.6,,,,,,,,,,,METAR,1292.0
CWGL 010600Z AUTO 05001KT 18/16 RMK AO1 SLP183 T01820156 50000,CWGL,2023-06-01T06:00:00Z,44.53,-79.22,18.2,15.6,50,1,,,,1018.3,,TRUE,TRUE,,,,,,,,,,,,,,,,0.0,,,,,,,,,,,METAR,220.0
CWGH 010600Z AUTO 21002KT 15/13 RMK AO1 SLP188 T01450128 58002,CWGH,2023-06-01T06:00:00Z,44.42,-75.85,14.5,12.8,210,2,,,,1018.8,,TRUE,TRUE,,,,,,,,,,,,,,,,-0.2,,,,,,,,,,,METAR,76.0
CWGD 010600Z AUTO 09001KT 15/12 RMK AO1 SLP194 T01510117 50000,CWGD,2023-06-01T06:00:00Z,43.77,-81.72,15.1,11.7,90,1,,,,1019.4,,TRUE,TRUE,,,,,,,,,,,,,,,,0.0,,,,,,,,,,,METAR,214.0
CWGB 010600Z AUTO 24009KT 14/ RMK AO1 SLP173 T0140 53004,CWGB,2023-06-01T06:00:00Z,49.35,-124.13,14.0,,240,9,,,,1017.3,,TRUE,TRUE,,,,,,,,,,,,,,,,0.4,,,,,,,,,,,METAR,6.0
CWFQ 010600Z AUTO 17005KT 19/08 RMK AO1 SLP187 T01870077 51001,CWFQ,2023-06-01T06:00:00Z,45.03,-72.85,18.7,7.7,170,5,,,,1018.7,,TRUE,TRUE,,,,,,,,,,,,,,,,0.1,,,,,,,,,,,METAR,190.0
CWFJ 010600Z AUTO 22007KT 14/03 RMK AO1 T01420034,CWFJ,2023-06-01T06:00:00Z,49.2,-113.27,14.2,3.4,220,7,,,,,,TRUE,TRUE,,,,,,,,,,,,,,,,,,,,,,,,,,,METAR,1142.0
CWFF 010600Z AUTO 13008KT 18/12 RMK AO1 SLP107 T01840118 51009,CWFF,2023-06-01T06:00:00Z,52.82,-104.6,18.4,11.8,130,8,,,,1010.7,,TRUE,TRUE,,,,,,,,,,,,,,,,0.9,,,,,,,,,,,METAR,482.0
CWEZ 010600Z AUTO 25006KT 13/08 RMK AO1 SLP175 T01270079 53007,CWEZ,2023-06-01T06:00:00Z,48.78,-123.05,12.7,7.9,250,6,,,,1017.5,,TRUE,TRUE,,,,,,,,,,,,,,,,0.7,,,,,,,,,,,METAR,23.0
CWEW 010600Z AUTO 20003KT 19/12 RMK AO1 SLP176 T01850118 58001,CWEW,2023-06-01T06:00:00Z,45.82,-73.43,18.5,11.8,200,3,,,,1017.6,,TRUE,TRUE,,,,,,,,,,,,,,,,-0.1,,,,,,,,,,,METAR,17.0
CWEU 010600Z VRB02KT 15SM FEW140 M04/M07 A3003 RMK AC1 AC TR SLP182,CWEU,2023-06-01T06:00:00Z,80.0,-85.93,-4.0,-7.0,0,2,,15.0,30.029528,1018.2,,,,,,,,,,FEW,14000,,,,,,,VFR,,,,,,,,,,,,SPECI,2.0
CWER 010600Z AUTO 23008KT RMK AO1,CWER,2023-06-01T06:00:00Z,47.0,-70.82,,,230,8,,,,,,TRUE,TRUE,,,,,,,,,,,,,,,,,,,,,,,,,,,METAR,4.0
CWEQ 010600Z AUTO 06008KT 16/14 RMK AO1 SLP132 T01600135 51007,CWEQ,2023-06-01T06:00:00Z,52.12,-101.22,16.0,13.5,60,8,,,,1013.2,,TRUE,TRUE,,,,,,,,,,,,,,,,0.7,,,,,,,,,,,METAR,331.0
CWEP 010600Z AUTO 21007KT 16/11 RMK AO1 SLP137 T01580106 57009,CWEP,2023-06-01T06:00:00Z,46.45,-61.98,15.8,10.6,210,7,,,,1013.7,,TRUE,TRUE,,,,,,,,,,,,,,,,-0.9,,,,,,,,,,,METAR,9.0
CWEL 010600Z AUTO 24004KT 14/08 RMK AO1 SLP174 T01440075 51003,CWEL,2023-06-01T06:00:00Z,49.22,-123.8,14.4,7.5,240,4,,,,1017.4,,TRUE,TRUE,,,,,,,,,,,,,,,,0.3,,,,,,,,,,,METAR,0.0
CWEH 010600Z AUTO 11001KT 15/08 RMK AO1 2005 SLP077 T01470075 50009,CWEH,2023-06-01T06:00:00Z,49.43,-108.98,14.7,7.5,110,1,,,,1007.7,,TRUE,TRUE,,,,,,,,,,,,,,,,0.9,,,,,,,,,,,METAR,1077.0
CWEF 010600Z AUTO 15011KT 09/06 RMK AO1 PK WND 23019/0511 SLP132 T00920056 53004,CWEF,2023-06-01T06:00:00Z,47.22,-60.13,9.2,5.6,150,11,,,,1013.2,,TRUE,TRUE,,,,,,,,,,,,,,,,0.4,,,,,,,,,,,METAR,27.0
CWEE 010600Z AUTO 13/11 RMK AO1 SLP157 T01340111 50002,CWEE,2023-06-01T06:00:00Z,49.27,-73.35,13.4,11.1,,,,,,1015.7,,TRUE,TRUE,,,,,,,,,,,,,,,,0.2,,,,,,,,,,,METAR,302.0
CWEB 010600Z AUTO 00031KT 10/09 RMK AO1 SLP206 T01030086 53003,CWEB,2023-06-01T06:00:00Z,49.38,-126.55,10.3,8.6,0,31,,,,1020.6,,TRUE,TRUE,,,,,,,,,,,,,,,,0.3,,,,,,,,,,,METAR,1.0
CWDZ 010600Z AUTO 31003KT 20/04 RMK AO1 SLP058 T02020039 53014,CWDZ,2023-06-01T06:00:00Z,51.43,-112.67,20.2,3.9,310,3,,,,1005.8,,TRUE,TRUE,,,,,,,,,,,,,,,,1.4,,,,,,,,,,,METAR,689.0
CWDV 010600Z AUTO 11004KT 17/15 RMK AO1 SLP142 T01730147 50003,CWDV,2023-06-01T06:00:00Z,49.02,-90.47,17.3,14.7,110,4,,,,1014.2,,TRUE,TRUE,,,,,,,,,,,,,,,,0.3,,,,,,,,,,,METAR,487.0
CWDQ 010600Z AUTO 00000KT 15/13 RMK AO1 SLP174 T01510126,CWDQ,2023-06-01T06:00:00Z,47.42,-72.78,15.1,12.6,0,0,,,,1017.4,,TRUE,TRUE,,,,,,,,,,,,,,,,,,,,,,,,,,,METAR,174.0
CWDO 010600Z AUTO 14010KT 07/M00 RMK AO1 SLP156 T00661002 53001,CWDO,2023-06-01T06:00:00Z,49.68,-54.78,6.6,-0.2,140,10,,,,1015.6,,TRUE,TRUE,,,,,,,,,,,,,,,,0.1,,,,,,,,,,,METAR,89.0
CWDM 010600Z AUTO 05004KT 06/05 RMK AO1 SLP139 T00590052 58001,CWDM,2023-06-01T06:00:00Z,50.47,-59.63,5.9,5.2,50,4,,,,1013.9,,TRUE,TRUE,,,,,,,,,,,,,,,,-0.1,,,,,,,,,,,METAR,2.0
CWDK 010600Z AUTO 21003KT 09/04 RMK AO1 SLP070 T00930037 51009,CWDK,2023-06-01T06:00:00Z,50.02,-113.62,9.3,3.7,210,3,,,,1007.0,,TRUE,TRUE,,,,,,,,,,,,,,,,0.9,,,,,,,,,,,METAR,1014.0
CWDJ 010600Z AUTO 12006KT 16/10 RMK AO1 SLP097 T01610095 53006,CWDJ,2023-06-01T06:00:00Z,50.4,-104.58,16.1,9.5,120,6,,,,1009.7,,TRUE,TRUE,,,,,,,,,,,,,,,,0.6,,,,,,,,,,,METAR,576.0
CWDC 010600Z AUTO 09004KT 16/12 RMK AO1 SLP130 T01570121,CWDC,2023-06-01T06:00:00Z,59.57,-108.48,15.7,12.1,90,4,,,,1013.0,,TRUE,TRUE,,,,,,,,,,,,,,,,,,,,,,,,,,,METAR,311.0
CWDA 010600Z AUTO 00007KT 03/ RMK AO1 T0027,CWDA,2023-06-01T06:00:00Z,50.72,-56.12,2.7,,0,7,,,,,,TRUE,TRUE,,,,,,,,,,,,,,,,,,,,,,,,,,,METAR,30.0
CWCT 010600Z AUTO 32010KT 16/12 RMK AO1 SLP069 T01590117 51007,CWCT,2023-06-01T06:00:00Z,52.07,-111.43,15.9,11.7,320,10,,,,1006.9,,TRUE,TRUE,,,,,,,,,,,,,,,,0.7,,,,,,,,,,,METAR,793.0
CWCO 010600Z AUTO 19003KT 17/12 RMK AO1 SLP198 T01700119 50000,CWCO,2023-06-01T06:00:00Z,44.5,-80.22,17.0,11.9,190,3,,,,1019.8,,TRUE,TRUE,,,,,,,,,,,,,,,,0.0,,,,,,,,,,,METAR,182.0
CWCJ 010600Z AUTO 05002KT 15/10 RMK AO1 SLP170 T01490103 51010,CWCJ,2023-06-01T06:00:00Z,48.6,-86.28,14.9,10.3,50,2,,,,1017.0,,TRUE,TRUE,,,,,,,,,,,,,,,,1.0,,,,,,,,,,,METAR,207.0
CWCF 010600Z AUTO 09012KT 16/13 RMK AO1 PK WND 09017/0555 SLP152 T01550131 51007,CWCF,2023-06-01T06:00:00Z,52.35,-97.03,15.5,13.1,90,12,,,,1015.2,,TRUE,TRUE,,,,,,,,,,,,,,,,0.7,,,,,,,,,,,METAR,219.0
CWBZ 010600Z AUTO 22004KT 18/13 RMK AO1 SLP180 T01830127 51003,CWBZ,2023-06-01T06:00:00Z,45.12,-74.28,18.3,12.7,220,4,,,,1018.0,,TRUE,TRUE,,,,,,,,,,,,,,,,0.3,,,,,,,,,,,METAR,49.0
CWBY 010600Z AUTO 22005KT 14/08 RMK AO1 SLP113 T01420081 58005,CWBY,2023-06-01T06:00:00Z,49.83,-64.28,14.2,8.1,220,5,,,,1011.3,,TRUE,TRUE,,,,,,,,,,,,,,,,-0.5,,,,,,,,,,,METAR,56.0
CWBV 010600Z AUTO 25012KT 08/07 RMK AO1 SLP150 T00750068 58007,CWBV,2023-06-01T06:00:00Z,44.82,-62.33,7.5,6.8,250,12,,,,1015.0,,TRUE,TRUE,,,,,,,,,,,,,,,,-0.7,,,,,,,,,,,METAR,16.0
CWBU 010600Z AUTO 08007KT 18/13 RMK AO1 SLP117 T01770134 51018,CWBU,2023-06-01T06:00:00Z,53.33,-104.02,17.7,13.4,80,7,,,,1011.7,,TRUE,TRUE,,,,,,,,,,,,,,,,1.8,,,,,,,,,,,SPECI,369.0
CWBT 010600Z AUTO 00000KT 11/07 RMK AO1 SLP109 T01080067 56001,CWBT,2023-06-01T06:00:00Z,50.27,-64.23,10.8,6.7,0,0,,,,1010.9,,TRUE,TRUE,,,,,,,,,,,,,,,,-0.1,,,,,,,,,,,METAR,12.0
CWBS 010600Z AUTO 19009KT 21/13 RMK AO1 T02130128,CWBS,2023-06-01T06:00:00Z,46.18,-72.92,21.3,12.8,190,9,,,,,,TRUE,TRUE,,,,,,,,,,,,,,,,,,,,,,,,,,,METAR,3.0
CWBO 010600Z AUTO 12004KT 12/08 RMK AO1 SLP069 T01220080 50009,CWBO,2023-06-01T06:00:00Z,50.53,-111.83,12.2,8.0,120,4,,,,1006.9,,TRUE,TRUE,,,,,,,,,,,,,,,,0.9,,,,,,,,,,,METAR,752.0
CWBK 010600Z AUTO 22006KT 13/07 RMK AO1 SLP152 T01340066 57008,CWBK,2023-06-01T06:00:00Z,45.77,-62.67,13.4,6.6,220,6,,,,1015.2,,TRUE,TRUE,,,,,,,,,,,,,,,,-0.8,,,,,,,,,,,METAR,2.0
CWBA 010600Z AUTO 15003KT 13/11 RMK AO1 T01260113,CWBA,2023-06-01T06:00:00Z,46.72,-79.1,12.6,11.3,150,3,,,,,,TRUE,TRUE,,,,,,,,,,,,,,,,,,,,,,,,,,,METAR,181.0
CWAV 010600Z AUTO 28008KT 12/08 RMK AO1 SLP108 T01210081 51022,CWAV,2023-06-01T06:00:00Z,51.77,-114.67,12.1,8.1,280,8,,,,1010.8,,TRUE,TRUE,,,,,,,,,,,,,,,,2.2,,,,,,,,,,,METAR,1115.0
CWAR 010600Z AUTO 34006KT 05/04 RMK AO1 SLP155 T00460035 53002,CWAR,2023-06-01T06:00:00Z,47.28,-54.0,4.6,3.5,340,6,,,,1015.5,,TRUE,TRUE,,,,,,,,,,,,,,,,0.2,,,,,,,,,,,METAR,6.0
CWAQ 010600Z AUTO 10005KT 17/12 RMK AO1 0000 SLP090 T01670124 50018,CWAQ,2023-06-01T06:00:00Z,49.05,-105.48,16.7,12.4,100,5,,,,1009.0,,TRUE,TRUE,,,,,,,,,,,,,,,,1.8,,,,,,,,,,,METAR,761.0
CWAJ 010600Z AUTO 02002KT RMK AO1 50000,CWAJ,2023-06-01T06:00:00Z,42.25,-81.9,,,20,2,,,,,,TRUE,TRUE,,,,,,,,,,,,,,,,0.0,,,,,,,,,,,METAR,177.0
CWAF 010600Z AUTO 22008KT 11/08 RMK AO1 T01090082,CWAF,2023-06-01T06:00:00Z,48.07,-69.55,10.9,8.2,220,8,,,,,,TRUE,TRUE,,,,,,,,,,,,,,,,,,,,,,,,,,,METAR,6.0
CTRA 010600Z AUTO 04003KT 18/15 RMK AO1 SLP133 T01820146 53005,CTRA,2023-06-01T06:00:00Z,49.67,-93.73,18.2,14.6,40,3,,,,1013.3,,TRUE,TRUE,,,,,,,,,,,,,,,,0.5,,,,,,,,,,,METAR,432.0
CTNK 010600Z AUTO 00000KT 13/12 RMK AO1 SLP206 T01340116 51004,CTNK,2023-06-01T06:00:00Z,45.53,-78.27,13.4,11.6,0,0,,,,1020.6,,TRUE,TRUE,,,,,,,,,,,,,,,,0.4,,,,,,,,,,,METAR,405.0
CTCK 010600Z AUTO 28004KT 20/13 RMK AO1 SLP174 T02030130 58002,CTCK,2023-06-01T06:00:00Z,45.25,-74.97,20.3,13.0,280,4,,,,1017.4,,TRUE,TRUE,,,,,,,,,,,,,,,,-0.2,,,,,,,,,,,METAR,84.0
CPSV 010600Z AUTO 20005KT 14/10 RMK AO1 T01360101,CPSV,2023-06-01T06:00:00Z,49.92,-110.92,13.6,10.1,200,5,,,,,,TRUE,TRUE,,,,,,,,,,,,,,,,,,,,,,,,,,,METAR,766.0
CPST 010600Z AUTO 33010KT 13/09 RMK AO1 T01280089,CPST,2023-06-01T06:00:00Z,51.03,-113.28,12.8,8.9,330,10,,,,,,TRUE,TRUE,,,,,,,,,,,,,,,,,,,,,,,,,,,METAR,1005.0
CPRY 010600Z AUTO 22007KT 15/10 RMK AO1 T01470095,CPRY,2023-06-01T06:00:00Z,49.48,-112.68,14.7,9.5,220,7,,,,,,TRUE,TRUE,,,,,,,,,,,,,,,,,,,,,,,,,,,METAR,947.0
CPRO 010600Z AUTO 18007KT 13/07 RMK AO1 T01310074,CPRO,2023-06-01T06:00:00Z,50.83,-112.05,13.1,7.4,180,7,,,,,,TRUE,TRUE,,,,,,,,,,,,,,,,,,,,,,,,,,,METAR,733.0
CPIN 010600Z AUTO 13006KT ////SM ////// ///// A////,CPIN,2023-06-01T06:00:00Z,,,,,130,6,,,,,,TRUE,,,,,,,,,,,,,,,,,,,,,,,,,,,,METAR,
CPFI 010600Z AUTO 17005KT 13/10 RMK AO1 T01310102,CPFI,2023-06-01T06:00:00Z,49.8,-112.03,13.1,10.2,170,5,,,,,,TRUE,TRUE,,,,,,,,,,,,,,,,,,,,,,,,,,,METAR,804.0
CPEH 010600Z AUTO 15/09 RMK AO1 T01470092,CPEH,2023-06-01T06:00:00Z,50.18,-112.43,14.7,9.2,,,,,,,,TRUE,TRUE,,,,,,,,,,,,,,,,,,,,,,,,,,,METAR,814.0
CPBT 010600Z AUTO 23006KT 10/05 RMK AO1 T00950054,CPBT,2023-06-01T06:00:00Z,49.53,-113.05,9.5,5.4,230,6,,,,,,TRUE,TRUE,,,,,,,,,,,,,,,,,,,,,,,,,,,METAR,998.0
CMGB 010600Z AUTO 00000KT 15/12 RMK AO1 SLP181 T01520123 50001,CMGB,2023-06-01T06:00:00Z,45.37,-72.77,15.2,12.3,0,0,,,,1018.1,,TRUE,TRUE,,,,,,,,,,,,,,,,0.1,,,,,,,,,,,SPECI,87.0
CMFM 010600Z AUTO 30001KT 11/09 RMK AO1 SLP193 T01060088 50000,CMFM,2023-06-01T06:00:00Z,47.32,-71.15,10.6,8.8,300,1,,,,1019.3,,TRUE,TRUE,,,,,,,,,,,,,,,,0.0,,,,,,,,,,,SPECI,663.0
CERM 010600Z AUTO 28001KT 12/11 RMK AO1 SLP159 T01180109 52001,CERM,2023-06-01T06:00:00Z,47.42,-68.32,11.8,10.9,280,1,,,,1015.9,,TRUE,TRUE,,,,,,,,,,,,,,,,0.1,,,,,,,,,,,METAR,151.0
CBBC 010600Z AUTO VRB02KT 9SM CLR 07/06 A3012 RMK SLP203,CBBC,2023-06-01T06:00:00Z,52.18,-128.15,7.0,6.0,0,2,,9.0,30.121063,1020.3,,TRUE,,,,,,,,CLR,,,,,,,,VFR,,,,,,,,,,,,METAR,36.0
CBAR 010600Z AUTO 28016G21KT ////SM ////// ///// A////,CBAR,2023-06-01T06:00:00Z,,,,,280,16,21,,,,,TRUE,,,,,,,,,,,,,,,,,,,,,,,,,,,,METAR,
CAHR 010600Z AUTO 22006KT 15/10 RMK AO1 SLP142 T01540099 58005,CAHR,2023-06-01T06:00:00Z,46.35,-63.17,15.4,9.9,220,6,,,,1014.2,,TRUE,TRUE,,,,,,,,,,,,,,,,-0.5,,,,,,,,,,,METAR,52.0
BIRK 010600Z 27004KT 230V310 9999 -DZ OVC005 07/07 Q1032,BIRK,2023-06-01T06:00:00Z,64.13,-21.93,7.0,7.0,270,4,,6.21,30.47244,,,,,,,,,,-DZ,OVC,500,,,,,,,IFR,,,,,,,,,,,,METAR,12.0
BIEG 010600Z 19004KT CAVOK 08/04 Q1027,BIEG,2023-06-01T06:00:00Z,65.27,-14.4,8.0,4.0,190,4,,6.21,30.324802,,,,,,,,,,,CAVOK,,,,,,,,VFR,,,,,,,,,,,,METAR,20.0
BIAR 010600Z 17015KT CAVOK 14/07 Q1026,BIAR,2023-06-01T06:00:00Z,65.67,-18.07,14.0,7.0,170,15,,6.21,30.295275,,,,,,,,,,,CAVOK,,,,,,,,VFR,,,,,,,,,,,,METAR,1.0
AYPY 010600Z 16015G25KT 9999 HZ SCT025 BKN045 28/25 Q1008,AYPY,2023-06-01T06:00:00Z,-9.43,147.22,28.0,25.0,160,15,25,6.21,29.763779,,,,,,,,,,HZ,SCT,2500,BKN,4500,,,,,VFR,,,,,,,,,,,,METAR,44.0
AYNZ 010600Z 11010G20KT 9999 HZ FEW010 31/21 Q1007,AYNZ,2023-06-01T06:00:00Z,-6.57,146.72,31.0,21.0,110,10,20,6.21,29.734253,,,,,,,,,,HZ,FEW,1000,,,,,,,VFR,,,,,,,,,,,,METAR,74.0
AYMH 010600Z 28015KT 9999 HZ SCT040 24/18 Q1018,AYMH,2023-06-01T06:00:00Z,-5.83,144.3,24.0,18.0,280,15,,6.21,30.059055,,,,,,,,,,HZ,SCT,4000,,,,,,,VFR,,,,,,,,,,,,METAR,1634.0
RODE 010559Z AUTO A2923 RMK AO2 SLPNO 57041 PWINO TSNO $,RODE,2023-06-01T05:59:00Z,26.72,127.77,,,,,,,29.22933,,,TRUE,TRUE,TRUE,,TRUE,,TRUE,,,,,,,,,,,-4.1,,,,,,,,,,,METAR,69.0
PASY 010559Z 12026G31KT 2SM -RA BR OVC003 06/05 A2980 RMK AO2A PK WND 12031/06 SLP094 60004 T00560052 10059 20054 57025 RVRNO PNO FZRANO $,PASY,2023-06-01T05:59:00Z,52.72,174.12,5.6,5.2,120,26,31,2.0,29.799213,1009.4,,,TRUE,TRUE,,,TRUE,,-RA BR,OVC,300,,,,,,,LIFR,-2.5,5.9,5.4,,,,,0.04,,,,METAR,6.0
MUCF 010559Z AUTO 09003KT 23/22 Q1012,MUCF,2023-06-01T05:59:00Z,22.15,-80.4,23.0,22.0,90,3,,,29.88189,,,TRUE,,,,,,,,,,,,,,,,,,,,,,,,,,,,METAR,35.0
MTPP 010559Z AUTO 11008KT 9000 ////// 27/23 Q1012 A2991 NOSIG,MTPP,2023-06-01T05:59:00Z,18.57,-72.3,27.0,23.0,110,8,,5.59,29.88189,,,TRUE,,,TRUE,,,,,,,,,,,,,,,,,,,,,,,,,METAR,36.0
LIBG 010559Z 33003KT 250V020 CAVOK 21/16 Q1015,LIBG,2023-06-01T05:59:00Z,40.52,17.4,21.0,16.0,330,3,,6.21,29.970472,,,,,,,,,,,CAVOK,,,,,,,,VFR,,,,,,,,,,,,SPECI,64.0
KPMH 010559Z AUTO 35003KT 10SM CLR 17/15 A3008 RMK AO2,KPMH,2023-06-01T05:59:00Z,38.83,-82.85,17.0,15.0,350,3,,10.0,30.079725,,,TRUE,TRUE,,,,,,,CLR,,,,,,,,VFR,,,,,,,,,,,,METAR,200.0
KPHF 010559Z AUTO 03005KT 10SM BKN014 BKN019 OVC041 18/16 A3005 RMK AO2 T01780161,KPHF,2023-06-01T05:59:00Z,37.13,-76.5,17.8,16.1,30,5,,10.0,30.050198,,,TRUE,TRUE,,,,,,,BKN,1400,BKN,1900,OVC,4100,,,MVFR,,,,,,,,,,,,SPECI,12.0
KP92 010559Z AUTO 00000KT 24/21 A2987 RMK AO1 SLP115 T02390211 10272 20233 402940211 58005,KP92,2023-06-01T05:59:00Z,29.57,-91.53,23.9,21.1,0,0,,,29.870079,1011.5,,TRUE,TRUE,,,,,,,,,,,,,,,,-0.5,27.2,23.3,29.4,21.1,,,,,,,SPECI,1.0
KNOZ 010559Z AUTO 28003KT 10SM CLR 23/08 A2975 RMK AO2 SLP025 T02330078 10306 20233 51020,KNOZ,2023-06-01T05:59:00Z,32.53,-114.5,23.3,7.8,280,3,,10.0,29.749016,1002.5,,TRUE,TRUE,,,,,,,CLR,,,,,,,,VFR,2.0,30.6,23.3,,,,,,,,,METAR,78.0
KFCS 010559Z 32001KT 10SM BKN160 14/07 RMK A02A LTG DSNT S SLP006 ALTSG/SLP DATA ESTMD,KFCS,2023-06-01T05:59:00Z,38.67,-104.77,14.0,7.0,320,1,,10.0,,1000.6,,,TRUE,,,,,,,BKN,16000,,,,,,,VFR,,,,,,,,,,,,METAR,1789.0
K04W 010559Z AUTO 10004KT 10SM CLR 19/16 A2992 RMK AO2,K04W,2023-06-01T05:59:00Z,46.02,-92.9,19.0,16.0,100,4,,10.0,29.920275,,,TRUE,TRUE,,,,,,,CLR,,,,,,,,VFR,,,,,,,,,,,,SPECI,310.0
LIMG 010558Z 35009KT 300V020 9999 SCT050 SCT100 23/11 Q1016,LIMG,2023-06-01T05:58:00Z,44.03,8.12,23.0,11.0,350,9,,6.21,30.0,,,,,,,,,,,SCT,5000,SCT,10000,,,,,VFR,,,,,,,,,,,,SPECI,41.0
LIBC 010558Z 01008KT 330V030 CAVOK 20/17 Q1015,LIBC,2023-06-01T05:58:00Z,39.0,17.07,20.0,17.0,10,8,,6.21,29.970472,,,,,,,,,,,CAVOK,,,,,,,,VFR,,,,,,,,,,,,SPECI,158.0
KROG 010558Z AUTO 12006KT 10SM BKN095 21/18 A2998 RMK AO2 SLPNO T02060183 10261 20206 402940206 50003 TSNO,KROG,2023-06-01T05:58:00Z,36.37,-94.1,20.6,18.3,120,6,,10.0,29.97933,,,TRUE,TRUE,,,TRUE,,,,BKN,9500,,,,,,,VFR,0.3,26.1,20.6,29.4,20.6,,,,,,,METAR,407.0
KPRN 010558Z AUTO 08006KT 10SM FEW090 SCT110 19/17 A2996 RMK AO2 SLP093 T01890172 10222 20189 58007,KPRN,2023-06-01T05:58:00Z,31.85,-86.62,18.9,17.2,80,6,,10.0,29.958662,1009.3,,TRUE,TRUE,,,,,,,FEW,9000,SCT,11000,,,,,VFR,-0.7,22.2,18.9,,,,,,,,,METAR,137.0
KMRH 010558Z AUTO 02008KT 10SM BKN018 OVC023 19/15 A3000 RMK AO2 SLP159 T01940150 10217 20194 56014,KMRH,2023-06-01T05:58:00Z,34.73,-76.65,19.4,15.0,20,8,,10.0,30.0,1015.9,,TRUE,TRUE,,,,,,,BKN,1800,OVC,2300,,,,,MVFR,-1.4,21.7,19.4,,,,,,,,,METAR,2.0
KMEI 010558Z AUTO 00000KT 10SM CLR 19/18 A2994 RMK AO2 SLP134 T01940178 10283 20194 403000161 58002,KMEI,2023-06-01T05:58:00Z,32.33,-88.75,19.4,17.8,0,0,,10.0,29.940945,1013.4,,TRUE,TRUE,,,,,,,CLR,,,,,,,,VFR,-0.2,28.3,19.4,30.0,16.1,,,,,,,METAR,90.0
KEUF 010558Z AUTO 00000KT 5SM BR FEW030 OVC100 21/20 A2999 RMK AO2 SLP151 60009 T02060200 10206 20206 403060161 58012,KEUF,2023-06-01T05:58:00Z,31.95,-85.13,20.6,20.0,0,0,,5.0,29.991142,1015.1,,TRUE,TRUE,,,,,,BR,FEW,3000,OVC,10000,,,,,MVFR,-1.2,20.6,20.6,30.6,16.1,,,,,,,SPECI,87.0
KBKF 010558Z 21007KT 10SM FEW090 FEW140 BKN220 12/07 A2993 RMK AO2A SLP070 60003 T01200071 10215 20120 50002,KBKF,2023-06-01T05:58:00Z,39.72,-104.75,12.0,7.1,210,7,,10.0,29.929134,1007.0,,,TRUE,,,,,,,FEW,9000,FEW,14000,BKN,22000,,,VFR,0.2,21.5,12.0,,,,,0.03,,,,METAR,1703.0
KBCR 010558Z AUTO 04004KT 10SM CLR 22/19 A2994 RMK AO2 SLP096 T02170189 10233 20217 58012 $,KBCR,2023-06-01T05:58:00Z,30.85,-85.6,21.7,18.9,40,4,,10.0,29.940945,1009.6,,TRUE,TRUE,TRUE,,,,,,CLR,,,,,,,,VFR,-1.2,23.3,21.7,,,,,,,,,SPECI,26.0
K0J4 010558Z AUTO 05005KT 10SM OVC080 22/18 A2996 RMK AO2 SLP140 T02170183 10244 20217 58009,K0J4,2023-06-01T05:58:00Z,31.05,-86.32,21.7,18.3,50,5,,10.0,29.958662,1014.0,,TRUE,TRUE,,,,,,,OVC,8000,,,,,,,VFR,-0.9,24.4,21.7,,,,,,,,,METAR,96.0
PHNG 010557Z 06009KT 10SM BKN060 26/22 A3011 RMK AO2 SLP190 T02610222 10289 20261 53015 $,PHNG,2023-06-01T05:57:00Z,21.43,-157.77,26.1,22.2,60,9,,10.0,30.109253,1019.0,,,TRUE,TRUE,,,,,,BKN,6000,,,,,,,VFR,1.5,28.9,26.1,,,,,,,,,SPECI,1.0
KNYL 010557Z COR 27007KT 7SM CLR 22/08 A2974 RMK AO2 SLP067 LAST T02220078 10300 20222 51021,KNYL,2023-06-01T05:57:00Z,32.65,-114.62,22.2,7.8,270,7,,7.0,29.740158,1006.7,TRUE,,TRUE,,,,,,,CLR,,,,,,,,VFR,2.1,30.0,22.2,,,,,,,,,SPECI,58.0
KNJW 010557Z AUTO 00000KT 10SM CLR 21/17 A2998 RMK AO2 SLP066 T02060172 10272 20206 403000150 50001 $,KNJW,2023-06-01T05:57:00Z,32.78,-88.82,20.6,17.2,0,0,,10.0,29.97933,1006.6,,TRUE,TRUE,TRUE,,,,,,CLR,,,,,,,,VFR,0.1,27.2,20.6,30.0,15.0,,,,,,,METAR,165.0
KMWN 010557Z 33014KT 30SM SCT150 SCT200 11/01 RMK HZ SCT150 HZ DSNT ALQDS 10127 20110,KMWN,2023-06-01T05:57:00Z,44.27,-71.3,11.0,1.0,330,14,,30.0,,,,,,,,,,,,SCT,15000,SCT,20000,,,,,VFR,,12.7,11.0,,,,,,,,,SPECI,1911.0
KMNM 010557Z AUTO 19004KT 10SM CLR 19/16 A3004 RMK AO2 SLP182 6//// T01940156 10272 20183 50003 PNO $,KMNM,2023-06-01T05:57:00Z,45.12,-87.63,19.4,15.6,190,4,,10.0,30.041338,1018.2,,TRUE,TRUE,TRUE,,,,,,CLR,,,,,,,,VFR,0.3,27.2,18.3,,,,,,,,,METAR,188.0
KFLG 010557Z AUTO 00000KT 10SM CLR 06/M03 A2998 RMK AO2 SLP080 T00561033 10178 20056 51006,KFLG,2023-06-01T05:57:00Z,35.13,-111.67,5.6,-3.3,0,0,,10.0,29.97933,1008.0,,TRUE,TRUE,,,,,,,CLR,,,,,,,,VFR,0.6,17.8,5.6,,,,,,,,,SPECI,2134.0
K1AN 010557Z AUTO 15003KT 10SM OVC100 18/17 A2980 RMK AO2 RAE57 SLP105 $,K1AN,2023-06-01T05:57:00Z,,,18.0,17.0,150,3,,10.0,29.799213,1010.5,,TRUE,TRUE,TRUE,,,,,,OVC,10000,,,,,,,VFR,,,,,,,,,,,,SPECI,
TJSJ 010556Z 00000KT 10SM FEW033 27/23 A2997 RMK AO2 SLP148 T02670228 10283 20256 58015,TJSJ,2023-06-01T05:56:00Z,18.43,-66.02,26.7,22.8,0,0,,10.0,29.970472,1014.8,,,TRUE,,,,,,,FEW,3300,,,,,,,VFR,-1.5,28.3,25.6,,,,,,,,,METAR,3.0
ROTM 010556Z 11026G51KT 3200 -SHRA BR BKN006 OVC010 26/26 A2917 RMK PK WND 14048/57 SLP861 WND WRNG XWND ADV P0010 60081 T02560256 10261 20256 58010,ROTM,2023-06-01T05:56:00Z,26.27,127.75,25.6,25.6,110,26,51,1.99,29.170275,986.1,,,,,,,,,-SHRA BR,BKN,600,OVC,1000,,,,,IFR,-1.0,26.1,25.6,,,0.1,,0.81,,,,METAR,80.0
PMDY 010556Z AUTO 10SM FEW014 24/21 A3019 RMK AO2 SLP224 T02440211 10267 20244 53005 TSNO $,PMDY,2023-06-01T05:56:00Z,28.22,-177.37,24.4,21.1,,,,10.0,30.188976,1022.4,,TRUE,TRUE,TRUE,,TRUE,,,,FEW,1400,,,,,,,VFR,0.5,26.7,24.4,,,,,,,,,METAR,6.0
PHNY 010556Z AUTO 04004KT 10SM SCT026 OVC065 21/21 A3018 RMK AO2 SLP199 60009 T02110206 10244 20211 53015,PHNY,2023-06-01T05:56:00Z,20.77,-156.95,21.1,20.6,40,4,,10.0,30.180119,1019.9,,TRUE,TRUE,,,,,,,SCT,2600,OVC,6500,,,,,VFR,1.5,24.4,21.1,,,,,,,,,SPECI,395.0
PFWS 010556Z AUTO 33010KT 10SM CLR 12/02 A2999 RMK AO2 SLP197 60000 T01170017 10133 20106 53011,PFWS,2023-06-01T05:56:00Z,58.7,-157.0,11.7,1.7,330,10,,10.0,29.991142,1019.7,,TRUE,TRUE,,,,,,,CLR,,,,,,,,VFR,1.1,13.3,10.6,,,,,0.005,,,,METAR,40.0
PFSH 010556Z AUTO 25012KT 10SM OVC070 03/00 A3001 RMK AO2 SLP163 T00330000 10044 20033 56007,PFSH,2023-06-01T05:56:00Z,64.37,-161.22,3.3,0.0,250,12,,10.0,30.008858,1016.3,,TRUE,TRUE,,,,,,,OVC,7000,,,,,,,VFR,-0.7,4.4,3.3,,,,,,,,,METAR,6.0
PFNO 010556Z AUTO 29011KT 10SM CLR 02/M03 A2995 RMK AO2 SLP225 T00221028 10039 20017 58009 FZRANO $,PFNO,2023-06-01T05:56:00Z,66.82,-161.02,2.2,-2.8,290,11,,10.0,29.949802,1022.5,,TRUE,TRUE,TRUE,,,TRUE,,,CLR,,,,,,,,VFR,-0.9,3.9,1.7,,,,,,,,,METAR,14.0
PFKW 010556Z AUTO 27007KT 10SM SCT100 11/03 A3004 RMK AO2 SLP173 T01110028 10122 20106 53002,PFKW,2023-06-01T05:56:00Z,60.8,-161.43,11.1,2.8,270,7,,10.0,30.041338,1017.3,,TRUE,TRUE,,,,,,,SCT,10000,,,,,,,VFR,0.2,12.2,10.6,,,,,,,,,METAR,4.0
PFEL 010556Z AUTO 29005KT 10SM OVC060 04/M03 A2997 RMK AO2 SLP151 T00391028 10061 20033 58008,PFEL,2023-06-01T05:56:00Z,64.62,-162.27,3.9,-2.8,290,5,,10.0,29.970472,1015.1,,TRUE,TRUE,,,,,,,OVC,6000,,,,,,,VFR,-0.8,6.1,3.3,,,,,,,,,METAR,50.0
PFCL 010556Z AUTO 31006KT 10SM CLR 12/02 A3000 RMK AO2 SLP153 T01170017 10150 20111 53011 TSNO,PFCL,2023-06-01T05:56:00Z,58.83,-158.53,11.7,1.7,310,6,,10.0,30.0,1015.3,,TRUE,TRUE,,,TRUE,,,,CLR,,,,,,,,VFR,1.1,15.0,11.1,,,,,,,,,METAR,23.0
PAWS 010556Z AUTO 00000KT 10SM -RA OVC036 09/05 A2988 RMK AO2 RAB04 SLP122 P0000 60000 T00890050 10106 20089 53010,PAWS,2023-06-01T05:56:00Z,61.57,-149.53,8.9,5.0,0,0,,10.0,29.878937,1012.2,,TRUE,TRUE,,,,,,-RA,OVC,3600,,,,,,,VFR,1.0,10.6,8.9,,,0.005,,0.005,,,,METAR,102.0
PAWM 010556Z AUTO 18004KT 8SM OVC050 03/M02 A2998 RMK AO2 SLP158 T00281022 10078 20028 57009,PAWM,2023-06-01T05:56:00Z,64.68,-163.42,2.8,-2.2,180,4,,8.0,29.97933,1015.8,,TRUE,TRUE,,,,,,,OVC,5000,,,,,,,VFR,-0.9,7.8,2.8,,,,,,,,,METAR,80.0
PAVD 010556Z 00000KT 10SM -RA FEW028 FEW034 OVC044 07/05 RMK AO2 SLPNO A3000 P0000 6//// T00720050 10083 20072 $,PAVD,2023-06-01T05:56:00Z,61.13,-146.25,7.2,5.0,0,0,,10.0,,,,,TRUE,TRUE,,,,,-RA,FEW,2800,FEW,3400,OVC,4400,,,VFR,,8.3,7.2,,,0.005,,,,,,METAR,21.0
PAVC 010556Z AUTO 30014G22KT 10SM CLR 07/01 A3023 RMK AO2 PK WND 33029/0501 SLP237 6//// T00670011 10083 20044 51009 PNO $,PAVC,2023-06-01T05:56:00Z,55.12,-162.27,6.7,1.1,300,14,22,10.0,30.230314,1023.7,,TRUE,TRUE,TRUE,,,,,,CLR,,,,,,,,VFR,0.9,8.3,4.4,,,,,,,,,METAR,48.0
PAUN 010556Z AUTO 26007KT 10SM OVC070 03/M02 A3003 RMK AO2 SLP171 T00281017 10039 20028 58007,PAUN,2023-06-01T05:56:00Z,63.88,-160.8,2.8,-1.7,260,7,,10.0,30.029528,1017.1,,TRUE,TRUE,,,,,,,OVC,7000,,,,,,,VFR,-0.7,3.9,2.8,,,,,,,,,METAR,4.0
PATQ 010556Z AUTO 27014KT 9SM -SN BKN015 OVC033 M01/M04 A2986 RMK AO2 SNB45 SLP115 P0000 60000 T10111039 11011 21028 58001 FZRANO TSNO,PATQ,2023-06-01T05:56:00Z,70.47,-157.43,-1.1,-3.9,270,14,,9.0,29.861221,1011.5,,TRUE,TRUE,,,TRUE,TRUE,,-SN,BKN,1500,OVC,3300,,,,,MVFR,-0.1,-1.1,-2.8,,,0.005,,0.005,,,,METAR,28.0
PATG 010556Z AUTO 32017G23KT 10SM CLR 12/03 A3006 RMK AO2 PK WND 30028/0516 SLP179 T01170028 10150 20117 53011,PATG,2023-06-01T05:56:00Z,59.05,-160.38,11.7,2.8,320,17,23,10.0,30.059055,1017.9,,TRUE,TRUE,,,,,,,CLR,,,,,,,,VFR,1.1,15.0,11.7,,,,,,,,,METAR,1.0
PASX 010556Z AUTO 22005KT 10SM SCT090 09/03 A2989 RMK AO2 SLP126 T00940028 10128 20094 53012,PASX,2023-06-01T05:56:00Z,60.48,-151.05,9.4,2.8,220,5,,10.0,29.890747,1012.6,,TRUE,TRUE,,,,,,,SCT,9000,,,,,,,VFR,1.2,12.8,9.4,,,,,,,,,METAR,28.0
PASM 010556Z AUTO 26005KT 10SM BKN090 09/M03 A3003 RMK AO2 SLP178 T00941028 10106 20094 58008,PASM,2023-06-01T05:56:00Z,62.07,-163.3,9.4,-2.8,260,5,,10.0,30.029528,1017.8,,TRUE,TRUE,,,,,,,BKN,9000,,,,,,,VFR,-0.8,10.6,9.4,,,,,,,,,METAR,108.0
PASL 010556Z AUTO VRB04KT 10SM CLR 10/M06 A2999 RMK AO2 SLP147 T01001056 10128 20100 52012,PASL,2023-06-01T05:56:00Z,61.68,-157.15,10.0,-5.6,0,4,,10.0,29.991142,1014.7,,TRUE,TRUE,,,,,,,CLR,,,,,,,,VFR,1.2,12.8,10.0,,,,,,,,,METAR,64.0
PASK 010556Z AUTO 24013KT 10SM CLR 00/M02 A2995 RMK AO2 SLP139 T00001017 10033 20000 58001 FZRANO,PASK,2023-06-01T05:56:00Z,66.6,-160.0,0.0,-1.7,240,13,,10.0,29.949802,1013.9,,TRUE,TRUE,,,,TRUE,,,CLR,,,,,,,,VFR,-0.1,3.3,0.0,,,,,,,,,METAR,3.0
PASD 010556Z AUTO 02012KT 10SM CLR 08/00 A3017 RMK AO2 SLP220 6//// T00830000 10083 20056 52009 PNO $,PASD,2023-06-01T05:56:00Z,55.33,-160.52,8.3,0.0,20,12,,10.0,30.171259,1022.0,,TRUE,TRUE,TRUE,,,,,,CLR,,,,,,,,VFR,0.9,8.3,5.6,,,,,,,,,METAR,6.0
PARY 010556Z AUTO 28008KT 250V320 10SM OVC044 04/M05 A2990 RMK AO2 SLPNO 6//// T00441050,PARY,2023-06-01T05:56:00Z,64.73,-155.47,4.4,-5.0,280,8,,10.0,29.899607,,,TRUE,TRUE,,,,,,,OVC,4400,,,,,,,VFR,,,,,,,,,,,,METAR,185.0
PARS 010556Z AUTO 30004KT 10SM SCT065 OVC085 11/M03 A3001 RMK AO2 SLP166 T01061033 10128 20106 51000 $,PARS,2023-06-01T05:56:00Z,61.77,-161.32,10.6,-3.3,300,4,,10.0,30.008858,1016.6,,TRUE,TRUE,TRUE,,,,,,SCT,6500,OVC,8500,,,,,VFR,0.0,12.8,10.6,,,,,,,,,METAR,15.0
PAPO 010556Z AUTO 36011KT 10SM OVC016 M02/M04 A2997 RMK AO2 UPE0457B13E15SNB15E38 SLP147 6//// T10221044 10000 21022 55002 FZRANO PNO $,PAPO,2023-06-01T05:56:00Z,68.35,-166.8,-2.2,-4.4,360,11,,10.0,29.970472,1014.7,,TRUE,TRUE,TRUE,,,TRUE,,,OVC,1600,,,,,,,MVFR,-0.2,0.0,-2.2,,,,,,,,,METAR,4.0
PAPN 010556Z AUTO 25014KT 6SM BR CLR 06/03 A3004 RMK AO2 SLP174 T00560033 10083 20050 53012,PAPN,2023-06-01T05:56:00Z,57.58,-157.57,5.6,3.3,250,14,,6.0,30.041338,1017.4,,TRUE,TRUE,,,,,,BR,CLR,,,,,,,,VFR,1.2,8.3,5.0,,,,,,,,,METAR,19.0
PAPH 010556Z AUTO 24014KT 10SM FEW012 04/01 A3014 RMK AO2 SLP206 T00390011 10067 20039 51012,PAPH,2023-06-01T05:56:00Z,56.95,-158.62,3.9,1.1,240,14,,10.0,30.138779,1020.6,,TRUE,TRUE,,,,,,,FEW,1200,,,,,,,VFR,1.2,6.7,3.9,,,,,,,,,METAR,29.0
PAOU 010556Z AUTO 28016KT 8SM OVC009 04/02 A3020 RMK AO2 SLP225 6//// T00390022 10050 20022 53003 PNO $,PAOU,2023-06-01T05:56:00Z,56.0,-161.17,3.9,2.2,280,16,,8.0,30.200787,1022.5,,TRUE,TRUE,TRUE,,,,,,OVC,900,,,,,,,IFR,0.3,5.0,2.2,,,,,,,,,METAR,3.0
PAOH 010556Z AUTO 12003KT 10SM -RA 07/05 A3000 RMK AO2 RAB0457 SLP160 6//// T00670050 10117 20067 53008 PNO $,PAOH,2023-06-01T05:56:00Z,58.1,-135.45,6.7,5.0,120,3,,10.0,30.0,1016.0,,TRUE,TRUE,TRUE,,,,,-RA,,,,,,,,,,0.8,11.7,6.7,,,,,,,,,METAR,0.0
PANW 010556Z AUTO 33009KT 10SM CLR 12/M01 A2998 RMK AO2 SLP157 T01171006 10144 20117 53012,PANW,2023-06-01T05:56:00Z,59.45,-157.32,11.7,-0.6,330,9,,10.0,29.97933,1015.7,,TRUE,TRUE,,,,,,,CLR,,,,,,,,VFR,1.2,14.4,11.7,,,,,,,,,METAR,100.0
PANV 010556Z AUTO 32004KT 10SM 08/M09 A2997 RMK AO2 SLP231 T00831089 10100 20083 50001 TSNO $,PANV,2023-06-01T05:56:00Z,62.65,-160.18,8.3,-8.9,320,4,,10.0,29.970472,1023.1,,TRUE,TRUE,TRUE,,TRUE,,,,,,,,,,,,,0.1,10.0,8.3,,,,,,,,,METAR,91.0
PANI 010556Z AUTO 00000KT 10SM CLR 10/M03 A3004 RMK AO2 SLP165 T01001033 10117 20100 51006 $,PANI,2023-06-01T05:56:00Z,61.58,-159.53,10.0,-3.3,0,0,,10.0,30.041338,1016.5,,TRUE,TRUE,TRUE,,,,,,CLR,,,,,,,,VFR,0.6,11.7,10.0,,,,,,,,,METAR,21.0
PAMO 010556Z AUTO 00000KT 10SM OVC095 09/M03 A3002 RMK AO2 SLP172 T00941028 10106 20083 58010,PAMO,2023-06-01T05:56:00Z,62.1,-163.68,9.4,-2.8,0,0,,10.0,30.02067,1017.2,,TRUE,TRUE,,,,,,,OVC,9500,,,,,,,VFR,-1.0,10.6,8.3,,,,,,,,,METAR,93.0
PAMM 010556Z AUTO VRB06KT 10SM -RA BKN048 BKN060 10/06 A3005 RMK AO2 RAB10E28B54 SLP270 P0000 60000 T01000061 10128 20100 53002 $,PAMM,2023-06-01T05:56:00Z,55.13,-131.58,10.0,6.1,0,6,,10.0,30.050198,1027.0,,TRUE,TRUE,TRUE,,,,,-RA,BKN,4800,BKN,6000,,,,,VFR,0.2,12.8,10.0,,,0.005,,0.005,,,,METAR,0.0
PAMK 010556Z AUTO 00000KT 10SM OVC050 03/M03 A3003 RMK AO2 SLP170 T00281028 10050 20022 58008,PAMK,2023-06-01T05:56:00Z,63.48,-162.12,2.8,-2.8,0,0,,10.0,30.029528,1017.0,,TRUE,TRUE,,,,,,,OVC,5000,,,,,,,VFR,-0.8,5.0,2.2,,,,,,,,,METAR,31.0
PAMH 010556Z AUTO VRB03KT 10SM BKN065 07/M04 A2986 RMK AO2 SLP113 T00671039 10111 20067 53016,PAMH,2023-06-01T05:56:00Z,63.9,-152.28,6.7,-3.9,0,3,,10.0,29.861221,1011.3,,TRUE,TRUE,,,,,,,BKN,6500,,,,,,,VFR,1.6,11.1,6.7,,,,,,,,,METAR,200.0
PAMB 010556Z AUTO 31010G17KT 9SM CLR 13/M01 A3001 RMK AO2 SLP164 T01281006 10161 20128 51010 $,PAMB,2023-06-01T05:56:00Z,58.98,-159.05,12.8,-0.6,310,10,17,9.0,30.008858,1016.4,,TRUE,TRUE,TRUE,,,,,,CLR,,,,,,,,VFR,1.0,16.1,12.8,,,,,,,,,METAR,28.0
PALG 010556Z AUTO VRB06KT 10SM CLR 10/M02 A3000 RMK AO2 SLP164 T01001022 10128 20100 53004,PALG,2023-06-01T05:56:00Z,61.53,-160.33,10.0,-2.2,0,6,,10.0,30.0,1016.4,,TRUE,TRUE,,,,,,,CLR,,,,,,,,VFR,0.4,12.8,10.0,,,,,,,,,METAR,13.0
PAKH 010556Z AUTO 10SM OVC070 08/04 A2996 RMK AO2 SLP146 T00830044 10106 20078 51014 TSNO $,PAKH,2023-06-01T05:56:00Z,56.93,-154.18,8.3,4.4,,,,10.0,29.958662,1014.6,,TRUE,TRUE,TRUE,,TRUE,,,,OVC,7000,,,,,,,VFR,1.4,10.6,7.8,,,,,,,,,METAR,15.0
PAKF 010556Z AUTO 28010G20KT 230V310 10SM CLR 10/M03 A3022 RMK AO2 PK WND 31029/0530 SLP233 6//// T01001033 10111 20100 53002 PNO $,PAKF,2023-06-01T05:56:00Z,54.85,-163.42,10.0,-3.3,280,10,20,10.0,30.221457,1023.3,,TRUE,TRUE,TRUE,,,,,,CLR,,,,,,,,VFR,0.2,11.1,10.0,,,,,,,,,METAR,2.0
PAJZ 010556Z AUTO 36007KT 8SM BKN060 12/M01 A3001 RMK AO2 SLP170 T01171006 10144 20117 53013 $,PAJZ,2023-06-01T05:56:00Z,59.73,-157.27,11.7,-0.6,360,7,,8.0,30.008858,1017.0,,TRUE,TRUE,TRUE,,,,,,BKN,6000,,,,,,,VFR,1.3,14.4,11.7,,,,,,,,,METAR,80.0
PAIK 010556Z AUTO 24007KT 10SM CLR 04/M03 A2994 RMK AO2 SLP141 T00391028 10072 20039 56002,PAIK,2023-06-01T05:56:00Z,66.98,-160.43,3.9,-2.8,240,7,,10.0,29.940945,1014.1,,TRUE,TRUE,,,,,,,CLR,,,,,,,,VFR,-0.2,7.2,3.9,,,,,,,,,METAR,49.0
PAIG 010556Z AUTO 31011KT 10SM CLR 12/M01 A2993 RMK AO2 SLP145 T01221011 10144 20111 53010 $,PAIG,2023-06-01T05:56:00Z,59.32,-155.9,12.2,-1.1,310,11,,10.0,29.929134,1014.5,,TRUE,TRUE,TRUE,,,,,,CLR,,,,,,,,VFR,1.0,14.4,11.1,,,,,,,,,METAR,24.0
PAHY 010556Z AUTO 05003KT 10SM SCT055 OVC070 08/05 A3002 RMK AO2 SLP161 T00830050 10106 20083 51001 $,PAHY,2023-06-01T05:56:00Z,55.2,-132.83,8.3,5.0,50,3,,10.0,30.02067,1016.1,,TRUE,TRUE,TRUE,,,,,,SCT,5500,OVC,7000,,,,,VFR,0.1,10.6,8.3,,,,,,,,,METAR,0.0
PAHL 010556Z AUTO 30009G14KT 10SM BKN050 06/M05 A2988 RMK AO2 SLP122 T00611050 10072 20050 58002,PAHL,2023-06-01T05:56:00Z,65.7,-156.35,6.1,-5.0,300,9,14,10.0,29.878937,1012.2,,TRUE,TRUE,,,,,,,BKN,5000,,,,,,,VFR,-0.2,7.2,5.0,,,,,,,,,METAR,49.0
PAHC 010556Z AUTO 35005KT 9SM FEW120 10/M07 A2998 RMK AO2 SLP159 T01001067 10117 20094 52002,PAHC,2023-06-01T05:56:00Z,62.18,-159.78,10.0,-6.7,350,5,,9.0,29.97933,1015.9,,TRUE,TRUE,,,,,,,FEW,12000,,,,,,,VFR,0.2,11.7,9.4,,,,,,,,,METAR,21.0
PAGN 010556Z AUTO 13005KT 10SM FEW028 OVC036 08/06 A3002 RMK AO2 SLP156 T00780056 10117 20078 53009,PAGN,2023-06-01T05:56:00Z,57.5,-134.58,7.8,5.6,130,5,,10.0,30.02067,1015.6,,TRUE,TRUE,,,,,,,FEW,2800,OVC,3600,,,,,VFR,0.9,11.7,7.8,,,,,,,,,METAR,2.0
PAFM 010556Z AUTO 36003KT 10SM BKN075 06/M07 A2989 RMK AO2 SLP126 T00611072 10072 20056 55003,PAFM,2023-06-01T05:56:00Z,67.1,-157.85,6.1,-7.2,360,3,,10.0,29.890747,1012.6,,TRUE,TRUE,,,,,,,BKN,7500,,,,,,,VFR,-0.3,7.2,5.6,,,,,,,,,METAR,79.0
PADU 010556Z AUTO 36012KT 10SM CLR 09/M04 A3034 RMK AO2 SLP279 T00891039 10111 20078 53005 $,PADU,2023-06-01T05:56:00Z,53.9,-166.53,8.9,-3.9,360,12,,10.0,30.339567,1027.9,,TRUE,TRUE,TRUE,,,,,,CLR,,,,,,,,VFR,0.5,11.1,7.8,,,,,,,,,METAR,4.0
PADM 010556Z AUTO 28003KT 10SM OVC070 10/M03 A3006 RMK AO2 SLP185 T01001033 10117 20094 58002,PADM,2023-06-01T05:56:00Z,61.87,-162.03,10.0,-3.3,280,3,,10.0,30.059055,1018.5,,TRUE,TRUE,,,,,,,OVC,7000,,,,,,,VFR,-0.2,11.7,9.4,,,,,,,,,METAR,17.0
PADL 010556Z AUTO 31003KT 10SM CLR 12/00 A3000 RMK AO2 SLP160 T01220000 10156 20122 51012,PADL,2023-06-01T05:56:00Z,59.05,-158.5,12.2,0.0,310,3,,10.0,30.0,1016.0,,TRUE,TRUE,,,,,,,CLR,,,,,,,,VFR,1.2,15.6,12.2,,,,,,,,,METAR,20.0
PADK 010556Z AUTO 14013G17KT OVC016 06/02 A3024 RMK AO2 SLP240 T00610022 10089 20061 58009 PWINO $,PADK,2023-06-01T05:56:00Z,51.88,-176.65,6.1,2.2,140,13,17,,30.239174,1024.0,,TRUE,TRUE,TRUE,,,,TRUE,,OVC,1600,,,,,,,,-0.9,8.9,6.1,,,,,,,,,METAR,3.0
PACM 010556Z AUTO 27013KT FEW007 04/03 A3006 RMK AO2 SLP174 T00390033 10078 20039 58010 PWINO $,PACM,2023-06-01T05:56:00Z,61.85,-165.57,3.9,3.3,270,13,,,30.059055,1017.4,,TRUE,TRUE,TRUE,,,,TRUE,,FEW,700,,,,,,,,-1.0,7.8,3.9,,,,,,,,,METAR,3.0
PABV 010556Z AUTO 23003KT 10SM OVC033 10/03 A2988 RMK AO2 SLP125 60000 T01000033 10111 20100 53009,PABV,2023-06-01T05:56:00Z,61.42,-149.52,10.0,3.3,230,3,,10.0,29.878937,1012.5,,TRUE,TRUE,,,,,,,OVC,3300,,,,,,,VFR,0.9,11.1,10.0,,,,,0.005,,,,METAR,21.0
PABL 010556Z AUTO 34005KT 10SM CLR 02/M03 A2997 RMK AO2 SLP150 T00221033 10028 20006 56017 FZRANO,PABL,2023-06-01T05:56:00Z,65.98,-161.15,2.2,-3.3,340,5,,10.0,29.970472,1015.0,,TRUE,TRUE,,,,TRUE,,,CLR,,,,,,,,VFR,-1.7,2.8,0.6,,,,,,,,,METAR,7.0
PAAK 010556Z AUTO 11013KT 10SM OVC019 06/01 A3035 RMK AO2 SLP277 T00560011 10078 20056 56006,PAAK,2023-06-01T05:56:00Z,52.22,-174.2,5.6,1.1,110,13,,10.0,30.351377,1027.7,,TRUE,TRUE,,,,,,,OVC,1900,,,,,,,MVFR,-0.6,7.8,5.6,,,,,,,,,METAR,11.0
LIRU 010556Z 35003KT CAVOK 16/16 Q1015,LIRU,2023-06-01T05:56:00Z,41.95,12.5,16.0,16.0,350,3,,6.21,29.970472,,,,,,,,,,,CAVOK,,,,,,,,VFR,,,,,,,,,,,,SPECI,16.0
KYKN 010556Z AUTO 08006KT 10SM CLR 21/15 A2985 RMK AO2 SLP109 T02060150 10306 20206 403280183 51008,KYKN,2023-06-01T05:56:00Z,42.92,-97.37,20.6,15.0,80,6,,10.0,29.84941,1010.9,,TRUE,TRUE,,,,,,,CLR,,,,,,,,VFR,0.8,30.6,20.6,32.8,18.3,,,,,,,METAR,388.0
KY50 010556Z AUTO 00000KT 10SM SCT120 19/16 A3001 RMK AO2 SLP154 6//// T01940161 10278 20183 403280128 51004 $,KY50,2023-06-01T05:56:00Z,44.03,-89.3,19.4,16.1,0,0,,10.0,30.008858,1015.4,,TRUE,TRUE,TRUE,,,,,,SCT,12000,,,,,,,VFR,0.4,27.8,18.3,32.8,12.8,,,,,,,METAR,261.0
KWVL 010556Z AUTO 23003KT 10SM CLR 12/09 A3005 RMK AO2 SLP202 T01170094 10206 20117 56008,KWVL,2023-06-01T05:56:00Z,44.52,-69.67,11.7,9.4,230,3,,10.0,30.050198,1020.2,,TRUE,TRUE,,,,,,,CLR,,,,,,,,VFR,-0.8,20.6,11.7,,,,,,,,,METAR,87.0
KWMC 010556Z AUTO 05009KT 10SM FEW060 14/09 A2989 RMK AO2 WSHFT 0510 SLP086 T01440089 10250 20144 53016,KWMC,2023-06-01T05:56:00Z,40.9,-117.8,14.4,8.9,50,9,,10.0,29.890747,1008.6,,TRUE,TRUE,,,,,,,FEW,6000,,,,,,,VFR,1.6,25.0,14.4,,,,,,,,,SPECI,1311.0
KWJF 010556Z AUTO 24017G24KT 10SM CLR 14/09 A2982 RMK AO2 PK WND 25030/0529 SLP087 T01390089 10206 20139 51008,KWJF,2023-06-01T05:56:00Z,34.73,-118.22,13.9,8.9,240,17,24,10.0,29.819881,1008.7,,TRUE,TRUE,,,,,,,CLR,,,,,,,,VFR,0.8,20.6,13.9,,,,,,,,,METAR,712.0
KVPZ 010556Z AUTO 14004KT 10SM CLR 19/15 A3002 RMK AO2 SLP162 60000 T01940150 10244 20183 403280167 50001 $,KVPZ,2023-06-01T05:56:00Z,41.45,-87.0,19.4,15.0,140,4,,10.0,30.02067,1016.2,,TRUE,TRUE,TRUE,,,,,,CLR,,,,,,,,VFR,0.1,24.4,18.3,32.8,16.7,,,0.005,,,,METAR,235.0
KVIS 010556Z AUTO 00000KT 10SM CLR 22/11 A2980 RMK AO2 SLP097 T02170111 10283 20217 52010,KVIS,2023-06-01T05:56:00Z,36.32,-119.4,21.7,11.1,0,0,,10.0,29.799213,1009.7,,TRUE,TRUE,,,,,,,CLR,,,,,,,,VFR,1.0,28.3,21.7,,,,,,,,,METAR,92.0
KVBT 010556Z AUTO 12005KT 10SM CLR 22/17 A2998 RMK AO2 SLP142 T02170172 10272 20211 403000172 50002,KVBT,2023-06-01T05:56:00Z,36.35,-94.22,21.7,17.2,120,5,,10.0,29.97933,1014.2,,TRUE,TRUE,,,,,,,CLR,,,,,,,,VFR,0.2,27.2,21.1,30.0,17.2,,,,,,,METAR,390.0
KUKI 010556Z AUTO 01005KT 10SM CLR 16/07 A2985 RMK AO2 SLP103 T01560067 10272 20156 51014,KUKI,2023-06-01T05:56:00Z,39.12,-123.2,15.6,6.7,10,5,,10.0,29.84941,1010.3,,TRUE,TRUE,,,,,,,CLR,,,,,,,,VFR,1.4,27.2,15.6,,,,,,,,,METAR,183.0
KUDG 010556Z AUTO 33004KT 8SM CLR 18/18 A3005 RMK AO2 SLP176 T01780178 10244 20178 58010,KUDG,2023-06-01T05:56:00Z,34.45,-79.88,17.8,17.8,330,4,,8.0,30.050198,1017.6,,TRUE,TRUE,,,,,,,CLR,,,,,,,,VFR,-1.0,24.4,17.8,,,,,,,,,METAR,57.0
KUCP 010556Z AUTO 05003KT 10SM CLR 11/11 A3012 RMK AO2 SLP211 T01110106 10244 20111 58000,KUCP,2023-06-01T05:56:00Z,41.03,-80.42,11.1,10.6,50,3,,10.0,30.121063,1021.1,,TRUE,TRUE,,,,,,,CLR,,,,,,,,VFR,0.0,24.4,11.1,,,,,,,,,METAR,313.0
KTVF 010556Z AUTO 08004KT 10SM CLR 17/17 A2987 RMK AO2 SLP113 60003 T01720172 10289 20172 58009,KTVF,2023-06-01T05:56:00Z,48.07,-96.17,17.2,17.2,80,4,,10.0,29.870079,1011.3,,TRUE,TRUE,,,,,,,CLR,,,,,,,,VFR,-0.9,28.9,17.2,,,,,0.03,,,,METAR,339.0
KTPH 010556Z AUTO 32018G25KT 10SM FEW120 16/05 A2988 RMK AO2 PK WND 31034/0501 SLP050 T01610050 10239 20161 51008,KTPH,2023-06-01T05:56:00Z,38.05,-117.08,16.1,5.0,320,18,25,10.0,29.878937,1005.0,,TRUE,TRUE,,,,,,,FEW,12000,,,,,,,VFR,0.8,23.9,16.1,,,,,,,,,METAR,1647.0
KSXT 010556Z AUTO 36011G20KT 10SM CLR 06/03 A3001 RMK AO2 RAB07E16 SLP158 P0000 60000 T00560028 10144 20056 53009,KSXT,2023-06-01T05:56:00Z,42.6,-123.37,5.6,2.8,360,11,20,10.0,30.008858,1015.8,,TRUE,TRUE,,,,,,,CLR,,,,,,,,VFR,0.9,14.4,5.6,,,0.005,,,,,,SPECI,1151.0
KSUE 010556Z AUTO 17005KT 10SM CLR 18/16 A3004 RMK AO2 SLP168 6//// T01830156 10261 20167 402890167 50002,KSUE,2023-06-01T05:56:00Z,44.85,-87.42,18.3,15.6,170,5,,10.0,30.041338,1016.8,,TRUE,TRUE,,,,,,,CLR,,,,,,,,VFR,0.2,26.1,16.7,28.9,16.7,,,,,,,METAR,215.0
KSRC 010556Z AUTO 00000KT 10SM CLR 19/18 A2996 RMK AO2 SLP143 T01940183 10306 20194 403220161 51012,KSRC,2023-06-01T05:56:00Z,35.22,-91.73,19.4,18.3,0,0,,10.0,29.958662,1014.3,,TRUE,TRUE,,,,,,,CLR,,,,,,,,VFR,1.2,30.6,19.4,32.2,16.1,,,,,,,METAR,80.0
KSQI 010556Z AUTO 11003KT 10SM CLR 21/18 A3000 RMK AO2 SLP022 T02060178 10294 20194 403280161 51007,KSQI,2023-06-01T05:56:00Z,41.75,-89.67,20.6,17.8,110,3,,10.0,30.0,1002.2,,TRUE,TRUE,,,,,,,CLR,,,,,,,,VFR,0.7,29.4,19.4,32.8,16.1,,,,,,,METAR,196.0
KSPD 010556Z AUTO 21014G27KT 15/10 A2992 RMK AO1 PK WND 20034/0512 SLP074 60001 T01500100 10194 20139 51005,KSPD,2023-06-01T05:56:00Z,37.28,-102.62,15.0,10.0,210,14,27,,29.920275,1007.4,,TRUE,TRUE,,,,,,,,,,,,,,,,0.5,19.4,13.9,,,,,,,,,SPECI,1340.0
KSOP 010556Z AUTO 00000KT 5SM BR CLR 17/17 A3007 RMK AO2 SLP183 T01670167 10228 20167 58012,KSOP,2023-06-01T05:56:00Z,35.23,-79.4,16.7,16.7,0,0,,5.0,30.070866,1018.3,,TRUE,TRUE,,,,,,BR,CLR,,,,,,,,MVFR,-1.2,22.8,16.7,,,,,,,,,METAR,135.0
KSMP 010556Z AUTO VRB05KT 10SM CLR 04/02 A3002 RMK AO2 SLP173 T00390017 10061 20039 50001,KSMP,2023-06-01T05:56:00Z,47.28,-121.33,3.9,1.7,0,5,,10.0,30.02067,1017.3,,TRUE,TRUE,,,,,,,CLR,,,,,,,,VFR,0.1,6.1,3.9,,,,,,,,,SPECI,1206.0
KSMN 010556Z AUTO 00000KT 10SM FEW080 SCT110 12/11 A2992 RMK AO2 RAE42 SLP827 P0001 60027 T01170111 10150 20117 50009,KSMN,2023-06-01T05:56:00Z,45.12,-113.87,11.7,11.1,0,0,,10.0,29.920275,982.7,,TRUE,TRUE,,,,,,,FEW,8000,SCT,11000,,,,,VFR,0.9,15.0,11.7,,,0.01,,0.27,,,,METAR,1228.0
KSLG 010556Z AUTO 11005KT 10SM CLR 20/16 A2997 RMK AO2 SLP135 T02000161 10278 20200 403000161 50003,KSLG,2023-06-01T05:56:00Z,36.2,-94.48,20.0,16.1,110,5,,10.0,29.970472,1013.5,,TRUE,TRUE,,,,,,,CLR,,,,,,,,VFR,0.3,27.8,20.0,30.0,16.1,,,,,,,METAR,361.0
KSLE 010556Z AUTO 30005KT 10SM CLR 11/05 A3008 RMK AO2 SLP186 T01110050 10178 20111 51014,KSLE,2023-06-01T05:56:00Z,44.9,-123.0,11.1,5.0,300,5,,10.0,30.079725,1018.6,,TRUE,TRUE,,,,,,,CLR,,,,,,,,VFR,1.4,17.8,11.1,,,,,,,,,METAR,63.0
KSHV 010556Z 00000KT 10SM CLR 22/17 A2990 RMK SLPNO,KSHV,2023-06-01T05:56:00Z,32.45,-93.83,22.0,17.0,0,0,,10.0,29.899607,,,,,,,,,,,CLR,,,,,,,,VFR,,,,,,,,,,,,METAR,70.0
KSGU 010556Z AUTO 01004KT 10SM CLR 22/01 A2973 RMK AO2 SLP035 T02220006 10294 20206 51012,KSGU,2023-06-01T05:56:00Z,37.03,-113.52,22.2,0.6,10,4,,10.0,29.731298,1003.5,,TRUE,TRUE,,,,,,,CLR,,,,,,,,VFR,1.2,29.4,20.6,,,,,,,,,METAR,877.0
KSGT 010556Z AUTO 15005KT 7SM CLR 24/19 A2996 RMK AO2 SLP142 T02390194 10294 20239 403220194 51009,KSGT,2023-06-01T05:56:00Z,34.6,-91.57,23.9,19.4,150,5,,7.0,29.958662,1014.2,,TRUE,TRUE,,,,,,,CLR,,,,,,,,VFR,0.9,29.4,23.9,32.2,19.4,,,,,,,METAR,67.0
KSGJ 010556Z AUTO 05009KT 10SM 24/22 A2993 RMK AO2 SLP135 T02390217 10256 20233 58015 $,KSGJ,2023-06-01T05:56:00Z,29.97,-81.33,23.9,21.7,50,9,,10.0,29.929134,1013.5,,TRUE,TRUE,TRUE,,,,,,,,,,,,,,,-1.5,25.6,23.3,,,,,,,,,METAR,2.0
KSGH 010556Z AUTO 00000KT 10SM CLR 18/14 A3009 RMK AO2 SLP184 T01780144 10272 20172 51003,KSGH,2023-06-01T05:56:00Z,39.83,-83.83,17.8,14.4,0,0,,10.0,30.088583,1018.4,,TRUE,TRUE,,,,,,,CLR,,,,,,,,VFR,0.3,27.2,17.2,,,,,,,,,METAR,318.0
KSFZ 010556Z AUTO 22004KT 10SM CLR 13/12 A3014 RMK AO2 SLP205 T01280117 10178 20122 57005,KSFZ,2023-06-01T05:56:00Z,41.92,-71.5,12.8,11.7,220,4,,10.0,30.138779,1020.5,,TRUE,TRUE,,,,,,,CLR,,,,,,,,VFR,-0.5,17.8,12.2,,,,,,,,,METAR,129.0
KSFO 010556Z 21007KT 10SM FEW011 SCT016 BKN018 13/09 A2989 RMK AO2 SLP120 T01330089 10161 20133 53005,KSFO,2023-06-01T05:56:00Z,37.62,-122.37,13.3,8.9,210,7,,10.0,29.890747,1012.0,,,TRUE,,,,,,,FEW,1100,SCT,1600,BKN,1800,,,MVFR,0.5,16.1,13.3,,,,,,,,,METAR,2.0
KSFM 010556Z AUTO 19003KT 10SM CLR 14/11 A3008 RMK AO2 SLP188 60000 T01440111 10206 20117 58012,KSFM,2023-06-01T05:56:00Z,43.38,-70.72,14.4,11.1,190,3,,10.0,30.079725,1018.8,,TRUE,TRUE,,,,,,,CLR,,,,,,,,VFR,-1.2,20.6,11.7,,,,,0.005,,,,METAR,70.0
KSDY 010556Z AUTO 09008KT 10SM CLR 19/14 A2980 RMK AO2 SLP082 T01940139 10261 20189 50002,KSDY,2023-06-01T05:56:00Z,47.7,-104.2,19.4,13.9,90,8,,10.0,29.799213,1008.2,,TRUE,TRUE,,,,,,,CLR,,,,,,,,VFR,0.2,26.1,18.9,,,,,,,,,METAR,600.0
KSDF 010556Z 00000KT 10SM FEW250 23/15 A3002 RMK AO2 SLP159 T02330150 10278 20233 58001,KSDF,2023-06-01T05:56:00Z,38.18,-85.73,23.3,15.0,0,0,,10.0,30.02067,1015.9,,,TRUE,,,,,,,FEW,25000,,,,,,,VFR,-0.1,27.8,23.3,,,,,,,,,METAR,146.0
KSBP 010556Z AUTO 33007KT 10SM OVC018 13/09 A2994 RMK AO2 SLP136 T01280094 10161 20122 51008,KSBP,2023-06-01T05:56:00Z,35.23,-120.63,12.8,9.4,330,7,,10.0,29.940945,1013.6,,TRUE,TRUE,,,,,,,OVC,1800,,,,,,,MVFR,0.8,16.1,12.2,,,,,,,,,METAR,52.0
KRUT 010556Z AUTO 13008KT 10SM CLR 14/12 A3013 RMK AO2 SLP197 T01440117 10239 20144 50002 $,KRUT,2023-06-01T05:56:00Z,43.53,-72.95,14.4,11.7,130,8,,10.0,30.129921,1019.7,,TRUE,TRUE,TRUE,,,,,,CLR,,,,,,,,VFR,0.2,23.9,14.4,,,,,,,,,METAR,238.0
KRKD 010556Z AUTO 24004KT 10SM CLR 12/12 A3008 RMK AO2 SLP186 T01170117 10150 20117 58010,KRKD,2023-06-01T05:56:00Z,44.07,-69.1,11.7,11.7,240,4,,10.0,30.079725,1018.6,,TRUE,TRUE,,,,,,,CLR,,,,,,,,VFR,-1.0,15.0,11.7,,,,,,,,,METAR,15.0
KRDM 010556Z AUTO 04009KT 10SM CLR 08/01 A3001 RMK AO2 SLP153 T00830006 10217 20083 51021,KRDM,2023-06-01T05:56:00Z,44.25,-121.15,8.3,0.6,40,9,,10.0,30.008858,1015.3,,TRUE,TRUE,,,,,,,CLR,,,,,,,,VFR,2.1,21.7,8.3,,,,,,,,,METAR,930.0
KPWT 010556Z AUTO 05004KT 10SM FEW060 12/07 A3008 RMK AO2 SLP189 60000 T01170072 10167 20117 51006,KPWT,2023-06-01T05:56:00Z,47.5,-122.77,11.7,7.2,50,4,,10.0,30.079725,1018.9,,TRUE,TRUE,,,,,,,FEW,6000,,,,,,,VFR,0.6,16.7,11.7,,,,,0.005,,,,METAR,143.0
KPWG 010556Z AUTO 15005KT 10SM CLR 23/19 A2987 RMK AO2 SLP109 T02280189 10306 20222 403220194 50001,KPWG,2023-06-01T05:56:00Z,31.48,-97.32,22.8,18.9,150,5,,10.0,29.870079,1010.9,,TRUE,TRUE,,,,,,,CLR,,,,,,,,VFR,0.1,30.6,22.2,32.2,19.4,,,,,,,METAR,178.0
KPVU 010556Z AUTO 11007KT 10SM CLR 16/07 A2981 RMK AO2 SLP044 T01610067 10250 20161 51012,KPVU,2023-06-01T05:56:00Z,40.22,-111.72,16.1,6.7,110,7,,10.0,29.811024,1004.4,,TRUE,TRUE,,,,,,,CLR,,,,,,,,VFR,1.2,25.0,16.1,,,,,,,,,METAR,1370.0
KPVG 010556Z AUTO 10SM OVC014 18/17 A3005 RMK AO2 SLP177 T01830167 10189 20167 58012 $,KPVG,2023-06-01T05:56:00Z,36.78,-76.45,18.3,16.7,,,,10.0,30.050198,1017.7,,TRUE,TRUE,TRUE,,,,,,OVC,1400,,,,,,,MVFR,-1.2,18.9,16.7,,,,,,,,,METAR,7.0
KPVC 010556Z AUTO 21007KT 10SM CLR 13/13 A3014 RMK AO2 SLP205 T01330133 10172 20133 58004,KPVC,2023-06-01T05:56:00Z,42.07,-70.22,13.3,13.3,210,7,,10.0,30.138779,1020.5,,TRUE,TRUE,,,,,,,CLR,,,,,,,,VFR,-0.4,17.2,13.3,,,,,,,,,METAR,1.0
KPTV 010556Z AUTO 13004KT 10SM CLR 19/12 A2981 RMK AO2 SLP092 T01940122 10283 20194 51010,KPTV,2023-06-01T05:56:00Z,36.02,-119.07,19.4,12.2,130,4,,10.0,29.811024,1009.2,,TRUE,TRUE,,,,,,,CLR,,,,,,,,VFR,1.0,28.3,19.4,,,,,,,,,METAR,132.0
KPTN 010556Z AUTO 00000KT 9SM FEW100 22/21 A2990 RMK AO2 SLP124 60000 T02170211 10278 20217 58004 $,KPTN,2023-06-01T05:56:00Z,29.72,-91.33,21.7,21.1,0,0,,9.0,29.899607,1012.4,,TRUE,TRUE,TRUE,,,,,,FEW,10000,,,,,,,VFR,-0.4,27.8,21.7,,,,,0.005,,,,METAR,2.0
KPRX 010556Z AUTO 12004KT 10SM CLR 21/18 A2992 RMK AO2 SLP126 T02110183 10294 20211 403110183 50002,KPRX,2023-06-01T05:56:00Z,33.63,-95.45,21.1,18.3,120,4,,10.0,29.920275,1012.6,,TRUE,TRUE,,,,,,,CLR,,,,,,,,VFR,0.2,29.4,21.1,31.1,18.3,,,,,,,METAR,165.0
KPQI 010556Z AUTO 00000KT 10SM CLR 14/12 A3001 RMK AO2 SLP185 T01390122 10244 20133 50001,KPQI,2023-06-01T05:56:00Z,46.68,-68.05,13.9,12.2,0,0,,10.0,30.008858,1018.5,,TRUE,TRUE,,,,,,,CLR,,,,,,,,VFR,0.1,24.4,13.3,,,,,,,,,METAR,154.0
KPIB 010556Z AUTO 00000KT 10SM 21/19 A2994 RMK AO2 SLP135 T02060189 10289 20194 403110167 58002 $,KPIB,2023-06-01T05:56:00Z,31.47,-89.33,20.6,18.9,0,0,,10.0,29.940945,1013.5,,TRUE,TRUE,TRUE,,,,,,,,,,,,,,,-0.2,28.9,19.4,31.1,16.7,,,,,,,METAR,91.0
KP60 010556Z AUTO 29003KT 03/01 A3003 RMK AO1 SLP126 T00280006 10178 20028 50005,KP60,2023-06-01T05:56:00Z,44.55,-110.42,2.8,0.6,290,3,,,30.029528,1012.6,,TRUE,TRUE,,,,,,,,,,,,,,,,0.5,17.8,2.8,,,,,,,,,METAR,2377.0
KP53 010556Z AUTO 20005KT 20/15 A3003 RMK AO1 SLP166 T02000150 10283 20189 51002,KP53,2023-06-01T05:56:00Z,46.42,-86.65,20.0,15.0,200,5,,,30.029528,1016.6,,TRUE,TRUE,,,,,,,,,,,,,,,,0.2,28.3,18.9,,,,,,,,,METAR,185.0
KP28 010556Z AUTO 11004KT 21/17 A2988 RMK AO1 SLP104 T02060167 10300 20206 403110150 51007 $,KP28,2023-06-01T05:56:00Z,37.28,-98.55,20.6,16.7,110,4,,,29.878937,1010.4,,TRUE,TRUE,TRUE,,,,,,,,,,,,,,,0.7,30.0,20.6,31.1,15.0,,,,,,,SPECI,469.0
KOWB 010556Z AUTO 08003KT 10SM CLR 21/18 A3001 RMK AO2 SLP158 T02110183 10267 20211 403110183 58001,KOWB,2023-06-01T05:56:00Z,37.72,-87.17,21.1,18.3,80,3,,10.0,30.008858,1015.8,,TRUE,TRUE,,,,,,,CLR,,,,,,,,VFR,-0.1,26.7,21.1,31.1,18.3,,,,,,,METAR,121.0
KOTH 010556Z AUTO 35011KT 10SM CLR 10/09 A3012 RMK AO2 SLP200 T01000089 10144 20100 51005,KOTH,2023-06-01T05:56:00Z,43.42,-124.25,10.0,8.9,350,11,,10.0,30.121063,1020.0,,TRUE,TRUE,,,,,,,CLR,,,,,,,,VFR,0.5,14.4,10.0,,,,,,,,,METAR,3.0
KOTG 010556Z AUTO 14006KT 10SM CLR 20/14 A2991 RMK AO2 SLP120 6//// T02000144 10267 20183 51008 PNO $,KOTG,2023-06-01T05:56:00Z,43.65,-95.57,20.0,14.4,140,6,,10.0,29.911417,1012.0,,TRUE,TRUE,TRUE,,,,,,CLR,,,,,,,,VFR,0.8,26.7,18.3,,,,,,,,,METAR,478.0
KOLU 010556Z AUTO 13008KT 10SM CLR 23/19 A2988 RMK AO2 SLP106 T02280194 10311 20228 403170178 51009,KOLU,2023-06-01T05:56:00Z,41.45,-97.33,22.8,19.4,130,8,,10.0,29.878937,1010.6,,TRUE,TRUE,,,,,,,CLR,,,,,,,,VFR,0.9,31.1,22.8,31.7,17.8,,,,,,,METAR,438.0
KOKK 010556Z AUTO 09005KT 10SM FEW070 19/18 A3006 RMK AO2 SLP172 6//// T01890183 10239 20189 50002 PNO $,KOKK,2023-06-01T05:56:00Z,40.53,-86.07,18.9,18.3,90,5,,10.0,30.059055,1017.2,,TRUE,TRUE,TRUE,,,,,,FEW,7000,,,,,,,VFR,0.2,23.9,18.9,,,,,,,,,METAR,251.0
KOFK 010556Z AUTO 15008KT 10SM 23/16 A2986 RMK AO2 SLP097 T02280156 10311 20228 403330194 51010,KOFK,2023-06-01T05:56:00Z,41.98,-97.43,22.8,15.6,150,8,,10.0,29.861221,1009.7,,TRUE,TRUE,,,,,,,,,,,,,,,,1.0,31.1,22.8,33.3,19.4,,,,,,,SPECI,476.0
KOCH 010556Z AUTO 00000KT 8SM CLR 20/20 A2991 RMK AO2 SLP128 T02000200 10294 20200 403110183 50001,KOCH,2023-06-01T05:56:00Z,31.57,-94.72,20.0,20.0,0,0,,8.0,29.911417,1012.8,,TRUE,TRUE,,,,,,,CLR,,,,,,,,VFR,0.1,29.4,20.0,31.1,18.3,,,,,,,METAR,105.0
KOAJ 010556Z AUTO 36003KT 10SM FEW050 18/17 A3003 RMK AO2 SLP171 T01780167 10211 20178 58013,KOAJ,2023-06-01T05:56:00Z,34.82,-77.62,17.8,16.7,360,3,,10.0,30.029528,1017.1,,TRUE,TRUE,,,,,,,FEW,5000,,,,,,,VFR,-1.3,21.1,17.8,,,,,,,,,METAR,26.0
KNYG 010556Z AUTO 30004KT 7SM BR CLR 15/13 A3011 RMK AO2 SLP195 T01500128 10228 20144 58009 $,KNYG,2023-06-01T05:56:00Z,38.5,-77.3,15.0,12.8,300,4,,7.0,30.109253,1019.5,,TRUE,TRUE,TRUE,,,,,BR,CLR,,,,,,,,VFR,-0.9,22.8,14.4,,,,,,,,,SPECI,2.0
KNXP 010556Z AUTO 02006KT 10SM CLR 22/07 A2982 RMK AO2 SLP065 T02220067 10300 20222 53019,KNXP,2023-06-01T05:56:00Z,34.28,-116.13,22.2,6.7,20,6,,10.0,29.819881,1006.5,,TRUE,TRUE,,,,,,,CLR,,,,,,,,VFR,1.9,30.0,22.2,,,,,,,,,METAR,610.0
KNUC 010556Z AUTO 27007KT OVC023 14/ A2994 RMK AO2 RAE08 SLP137 P0000 60000 T0139 10156 20133 50004 $,KNUC,2023-06-01T05:56:00Z,33.02,-118.57,13.9,,270,7,,,29.940945,1013.7,,TRUE,TRUE,TRUE,,,,,,OVC,2300,,,,,,,,0.4,15.6,13.3,,,0.005,,,,,,SPECI,52.0
KNSE 010556Z AUTO 00000KT 10SM CLR 20/18 A2993 RMK AO2 SLP119 T02000178 10250 20200 403110172 58008 $,KNSE,2023-06-01T05:56:00Z,30.73,-87.02,20.0,17.8,0,0,,10.0,29.929134,1011.9,,TRUE,TRUE,TRUE,,,,,,CLR,,,,,,,,VFR,-0.8,25.0,20.0,31.1,17.2,,,,,,,SPECI,56.0
KNQI 010556Z AUTO 19004KT 10SM FEW022 23/22 A2983 RMK AO2 SLP099 T02280217 10306 20228 403440200 58001 $,KNQI,2023-06-01T05:56:00Z,27.5,-97.82,22.8,21.7,190,4,,10.0,29.828741,1009.9,,TRUE,TRUE,TRUE,,,,,,FEW,2200,,,,,,,VFR,-0.1,30.6,22.8,34.4,20.0,,,,,,,METAR,15.0
KNOG 010556Z AUTO 13005KT 10SM CLR 22/21 A2985 RMK AO2 SLP088 6//// T02170206 10300 20217 403280189 50000 TSNO PNO $,KNOG,2023-06-01T05:56:00Z,27.9,-98.05,21.7,20.6,130,5,,10.0,29.84941,1008.8,,TRUE,TRUE,TRUE,,TRUE,,,,CLR,,,,,,,,VFR,0.0,30.0,21.7,32.8,18.9,,,,,,,METAR,72.0
KNMM 010556Z AUTO 04003KT 10SM CLR A2995 RMK AO2 SLPNO 60000 50000 $,KNMM,2023-06-01T05:56:00Z,32.53,-88.53,,,40,3,,10.0,29.949802,,,TRUE,TRUE,TRUE,,,,,,CLR,,,,,,,,VFR,0.0,,,,,,,,,,,SPECI,94.0
KNLC 010556Z 32007KT 10SM CLR 19/09 A2981 RMK AO2 SLP092 RH/52 T01940094 10294 20194 53013,KNLC,2023-06-01T05:56:00Z,36.32,-119.95,19.4,9.4,320,7,,10.0,29.811024,1009.2,,,TRUE,,,,,,,CLR,,,,,,,,VFR,1.3,29.4,19.4,,,,,,,,,METAR,69.0
KNKT 010556Z 36009KT 10SM OVC017 20/17 A3001 RMK AO2 SLP159 T02000167 10228 20200 58016,KNKT,2023-06-01T05:56:00Z,34.9,-76.88,20.0,16.7,360,9,,10.0,30.008858,1015.9,,,TRUE,,,,,,,OVC,1700,,,,,,,MVFR,-1.6,22.8,20.0,,,,,,,,,SPECI,8.0
KNJK 010556Z 27012KT 10SM CLR 21/08 A2974 RMK AO2 SLP085 T02060083 10300 20206 51012 $,KNJK,2023-06-01T05:56:00Z,32.82,-115.67,20.6,8.3,270,12,,10.0,29.740158,1008.5,,,TRUE,TRUE,,,,,,CLR,,,,,,,,VFR,1.2,30.0,20.6,,,,,,,,,METAR,-15.0
KNID 010556Z AUTO 18009G18KT 10SM CLR 23/07 A2970 RMK AO2 SLP039 T02280067 10317 20228 51011 $,KNID,2023-06-01T05:56:00Z,35.68,-117.68,22.8,6.7,180,9,18,10.0,29.698818,1003.9,,TRUE,TRUE,TRUE,,,,,,CLR,,,,,,,,VFR,1.1,31.7,22.8,,,,,,,,,SPECI,682.0
KNGP 010556Z AUTO 13014KT 10SM FEW021 28/22 A2984 RMK AO2 SLP103 T02830222 10300 20283 403220250 50001,KNGP,2023-06-01T05:56:00Z,27.68,-97.28,28.3,22.2,130,14,,10.0,29.840551,1010.3,,TRUE,TRUE,,,,,,,FEW,2100,,,,,,,VFR,0.1,30.0,28.3,32.2,25.0,,,,,,,METAR,5.0
KNFL 010556Z 04007KT 10SM OVC070 14/12 A2992 RMK AO2 RAE54 SLP106 6//// T01390117 10244 20139 51024 $,KNFL,2023-06-01T05:56:00Z,39.42,-118.7,13.9,11.7,40,7,,10.0,29.920275,1010.6,,,TRUE,TRUE,,,,,,OVC,7000,,,,,,,VFR,2.4,24.4,13.9,,,,,,,,,SPECI,1199.0
KNDZ 010556Z 03006KT 10SM FEW070 SCT120 BKN250 22/18 A2993 RMK AO2 SLP119 T02170183 10256 20217 403110172 58008 $,KNDZ,2023-06-01T05:56:00Z,30.7,-87.02,21.7,18.3,30,6,,10.0,29.929134,1011.9,,,TRUE,TRUE,,,,,,FEW,7000,SCT,12000,BKN,25000,,,VFR,-0.8,25.6,21.7,31.1,17.2,,,,,,,METAR,51.0
KNCA 010556Z AUTO 35006KT 10SM BKN075 18/16 A3001 RMK AO2 SLP164 T01780161 10211 20178 58014,KNCA,2023-06-01T05:56:00Z,34.72,-77.45,17.8,16.1,350,6,,10.0,30.008858,1016.4,,TRUE,TRUE,,,,,,,BKN,7500,,,,,,,VFR,-1.4,21.1,17.8,,,,,,,,,METAR,9.0
KNBC 010556Z AUTO 02004KT 10SM CLR 19/18 A3000 RMK AO2 SLP159 T01940183 10233 20194 58015,KNBC,2023-06-01T05:56:00Z,32.47,-80.72,19.4,18.3,20,4,,10.0,30.0,1015.9,,TRUE,TRUE,,,,,,,CLR,,,,,,,,VFR,-1.5,23.3,19.4,,,,,,,,,METAR,9.0
KMYR 010556Z AUTO 04004KT 10SM BKN045 21/18 A3003 RMK AO2 SLP168 T02060178 10228 20200 58011,KMYR,2023-06-01T05:56:00Z,33.68,-78.92,20.6,17.8,40,4,,10.0,30.029528,1016.8,,TRUE,TRUE,,,,,,,BKN,4500,,,,,,,VFR,-1.1,22.8,20.0,,,,,,,,,METAR,7.0
KMVN 010556Z AUTO 00000KT 10SM CLR 17/17 A3000 RMK AO2 SLP159 T01720167 10300 20172 51003,KMVN,2023-06-01T05:56:00Z,38.32,-88.87,17.2,16.7,0,0,,10.0,30.0,1015.9,,TRUE,TRUE,,,,,,,CLR,,,,,,,,VFR,0.3,30.0,17.2,,,,,,,,,METAR,145.0
KMTW 010556Z AUTO 00000KT 10SM CLR 16/14 A3004 RMK AO2 SLP170 T01560139 10239 20150 50004,KMTW,2023-06-01T05:56:00Z,44.12,-87.67,15.6,13.9,0,0,,10.0,30.041338,1017.0,,TRUE,TRUE,,,,,,,CLR,,,,,,,,VFR,0.4,23.9,15.0,,,,,,,,,METAR,197.0
KMSV 010556Z AUTO 00000KT 10SM CLR 12/08 A3017 RMK AO2 SLP211 T01170078 10222 20111 58001,KMSV,2023-06-01T05:56:00Z,41.7,-74.78,11.7,7.8,0,0,,10.0,30.171259,1021.1,,TRUE,TRUE,,,,,,,CLR,,,,,,,,VFR,-0.1,22.2,11.1,,,,,,,,,METAR,427.0
KMRF 010556Z AUTO 20004KT 10SM CLR 19/15 A2990 RMK AO2 SLP053 T01940150 10306 20194 51010,KMRF,2023-06-01T05:56:00Z,30.37,-104.02,19.4,15.0,200,4,,10.0,29.899607,1005.3,,TRUE,TRUE,,,,,,,CLR,,,,,,,,VFR,1.0,30.6,19.4,,,,,,,,,METAR,1476.0
KMQY 010556Z AUTO 14003KT 10SM CLR 19/18 A3003 RMK AO2 SLP172 T01940178 10278 20194 403110178 50001,KMQY,2023-06-01T05:56:00Z,36.02,-86.52,19.4,17.8,140,3,,10.0,30.029528,1017.2,,TRUE,TRUE,,,,,,,CLR,,,,,,,,VFR,0.1,27.8,19.4,31.1,17.8,,,,,,,METAR,156.0
KMOB 010556Z AUTO 08006KT 10SM CLR 23/18 A2992 RMK AO2 SLP129 T02280183 10261 20222 403170189 58006,KMOB,2023-06-01T05:56:00Z,30.68,-88.25,22.8,18.3,80,6,,10.0,29.920275,1012.9,,TRUE,TRUE,,,,,,,CLR,,,,,,,,VFR,-0.6,26.1,22.2,31.7,18.9,,,,,,,METAR,67.0
KMML 010556Z AUTO 15006KT 10SM CLR 19/16 A2988 RMK AO2 SLP113 60000 T01940156 10233 20194 403220189 51016 $,KMML,2023-06-01T05:56:00Z,44.45,-95.82,19.4,15.6,150,6,,10.0,29.878937,1011.3,,TRUE,TRUE,TRUE,,,,,,CLR,,,,,,,,VFR,1.6,23.3,19.4,32.2,18.9,,,0.005,,,,METAR,358.0
KMKY 010556Z AUTO 10SM CLR 22/21 A2986 RMK AO2 SLP112 6//// T02170206 10244 20217 58009 TSNO PNO $,KMKY,2023-06-01T05:56:00Z,26.0,-81.67,21.7,20.6,,,,10.0,29.861221,1011.2,,TRUE,TRUE,TRUE,,TRUE,,,,CLR,,,,,,,,VFR,-0.9,24.4,21.7,,,,,,,,,METAR,2.0
KMKT 010556Z AUTO 16008KT 10SM CLR 22/16 A2992 RMK AO2 SLP127 6//// T02220161 10300 20217 403170167 51010 PNO $,KMKT,2023-06-01T05:56:00Z,44.22,-93.92,22.2,16.1,160,8,,10.0,29.920275,1012.7,,TRUE,TRUE,TRUE,,,,,,CLR,,,,,,,,VFR,1.0,30.0,21.7,31.7,16.7,,,,,,,METAR,309.0
KMJX 010556Z AUTO 00000KT 10SM CLR 09/08 A3014 RMK AO2 SLP208 T00940078 10178 20089 58007 TSNO,KMJX,2023-06-01T05:56:00Z,39.93,-74.3,9.4,7.8,0,0,,10.0,30.138779,1020.8,,TRUE,TRUE,,,TRUE,,,,CLR,,,,,,,,VFR,-0.7,17.8,8.9,,,,,,,,,METAR,22.0
KMHS 010556Z AUTO 33003KT 10SM OVC075 13/01 A2994 RMK AO2 SLP134 T01330011 10222 20133 51017,KMHS,2023-06-01T05:56:00Z,41.32,-122.32,13.3,1.1,330,3,,10.0,29.940945,1013.4,,TRUE,TRUE,,,,,,,OVC,7500,,,,,,,VFR,1.7,22.2,13.3,,,,,,,,,METAR,1080.0
KMEH 010556Z AUTO 00000KT 10SM CLR 06/01 A2998 RMK AO2 SLP150 T00610006 10172 20056 51012,KMEH,2023-06-01T05:56:00Z,45.52,-118.42,6.1,0.6,0,0,,10.0,29.97933,1015.0,,TRUE,TRUE,,,,,,,CLR,,,,,,,,VFR,1.2,17.2,5.6,,,,,,,,,METAR,1138.0
KMDT 010556Z 00000KT 10SM CLR 14/07 A3012 RMK AO2 SLP200 T01440072 10250 20139 50003,KMDT,2023-06-01T05:56:00Z,40.2,-76.77,14.4,7.2,0,0,,10.0,30.121063,1020.0,,,TRUE,,,,,,,CLR,,,,,,,,VFR,0.3,25.0,13.9,,,,,,,,,METAR,91.0
KMBL 010556Z AUTO 08006KT 10SM CLR 18/17 A3004 RMK AO2 SLP170 60000 T01780172 10289 20178 58000,KMBL,2023-06-01T05:56:00Z,44.27,-86.25,17.8,17.2,80,6,,10.0,30.041338,1017.0,,TRUE,TRUE,,,,,,,CLR,,,,,,,,VFR,0.0,28.9,17.8,,,,,0.005,,,,METAR,187.0
KM19 010556Z AUTO 14005KT 10SM CLR 23/17 A2996 RMK AO2 SLP142 6//// T02280172 10306 20228 403220183 50008 PNO $,KM19,2023-06-01T05:56:00Z,35.65,-91.17,22.8,17.2,140,5,,10.0,29.958662,1014.2,,TRUE,TRUE,TRUE,,,,,,CLR,,,,,,,,VFR,0.8,30.6,22.8,32.2,18.3,,,,,,,METAR,72.0
KLZU 010556Z AUTO 00000KT 10SM CLR 17/17 A3007 RMK AO2 SLP186 T01720167 10217 20172 56007,KLZU,2023-06-01T05:56:00Z,33.98,-83.97,17.2,16.7,0,0,,10.0,30.070866,1018.6,,TRUE,TRUE,,,,,,,CLR,,,,,,,,VFR,-0.7,21.7,17.2,,,,,,,,,METAR,316.0
KLWS 010556Z 27004KT 10SM FEW095 SCT110 17/01 A2986 RMK AO2 SLP106 T01720011 10250 20172 51010,KLWS,2023-06-01T05:56:00Z,46.37,-117.02,17.2,1.1,270,4,,10.0,29.861221,1010.6,,,TRUE,,,,,,,FEW,9500,SCT,11000,,,,,VFR,1.0,25.0,17.2,,,,,,,,,METAR,435.0
KLRD 010556Z AUTO 12013G19KT 10SM CLR 26/21 A2982 RMK AO2 SLP093 T02560206 10339 20256 50002,KLRD,2023-06-01T05:56:00Z,27.55,-99.47,25.6,20.6,120,13,19,10.0,29.819881,1009.3,,TRUE,TRUE,,,,,,,CLR,,,,,,,,VFR,0.2,33.9,25.6,,,,,,,,,METAR,150.0
KLNR 010556Z AUTO 11004KT 10SM BKN110 21/14 A2999 RMK AO2 SLP144 T02060144 10311 20194 403440117 53006,KLNR,2023-06-01T05:56:00Z,43.22,-90.18,20.6,14.4,110,4,,10.0,29.991142,1014.4,,TRUE,TRUE,,,,,,,BKN,11000,,,,,,,VFR,0.6,31.1,19.4,34.4,11.7,,,,,,,METAR,218.0
KLGD 010556Z AUTO 30013KT 10SM CLR 13/00 A2994 RMK AO2 SLP131 6//// T01280000 10222 20122,KLGD,2023-06-01T05:56:00Z,45.28,-118.0,12.8,0.0,300,13,,10.0,29.940945,1013.1,,TRUE,TRUE,,,,,,,CLR,,,,,,,,VFR,,22.2,12.2,,,,,,,,,METAR,827.0
KLEW 010556Z AUTO 00000KT 10SM CLR 11/10 A3008 RMK AO2 SLP192 6//// T01110100 10194 20111 58006 PNO $,KLEW,2023-06-01T05:56:00Z,44.03,-70.28,11.1,10.0,0,0,,10.0,30.079725,1019.2,,TRUE,TRUE,TRUE,,,,,,CLR,,,,,,,,VFR,-0.6,19.4,11.1,,,,,,,,,METAR,81.0
KLCI 010556Z AUTO 24004KT 10SM CLR 15/11 A3011 RMK AO2 SLP194 T01500111 10256 20150 58001,KLCI,2023-06-01T05:56:00Z,43.57,-71.42,15.0,11.1,240,4,,10.0,30.109253,1019.4,,TRUE,TRUE,,,,,,,CLR,,,,,,,,VFR,-0.1,25.6,15.0,,,,,,,,,METAR,166.0
KLBT 010556Z AUTO 00000KT 10SM CLR 18/17 A3004 RMK AO2 SLP170 T01780167 10222 20172 56014,KLBT,2023-06-01T05:56:00Z,34.6,-79.07,17.8,16.7,0,0,,10.0,30.041338,1017.0,,TRUE,TRUE,,,,,,,CLR,,,,,,,,VFR,-1.4,22.2,17.2,,,,,,,,,METAR,37.0
KLBL 010556Z AUTO 20009KT 10SM -RA FEW055 BKN070 OVC100 16/16 A2995 RMK AO2 LTG DSNT E TSB04E35 SLP117 P0005 60010 T01610156 10189 20161 51015,KLBL,2023-06-01T05:56:00Z,37.03,-100.97,16.1,15.6,200,9,,10.0,29.949802,1011.7,,TRUE,TRUE,,,,,,-RA,FEW,5500,BKN,7000,OVC,10000,,,VFR,1.5,18.9,16.1,,,0.05,,0.1,,,,METAR,877.0
KLAS 010556Z 19007KT 10SM FEW250 25/01 A2970 RMK AO2 SLP032 T02500011 10294 20250 50009,KLAS,2023-06-01T05:56:00Z,36.07,-115.17,25.0,1.1,190,7,,10.0,29.698818,1003.2,,,TRUE,,,,,,,FEW,25000,,,,,,,VFR,0.9,29.4,25.0,,,,,,,,,METAR,662.0
KKLS 010556Z AUTO 30004KT CLR 11/06 A3012 RMK AO2 SLP202 T01110056 10178 20111 52013 PWINO $,KKLS,2023-06-01T05:56:00Z,46.12,-122.9,11.1,5.6,300,4,,,30.121063,1020.2,,TRUE,TRUE,TRUE,,,,TRUE,,CLR,,,,,,,,,1.3,17.8,11.1,,,,,,,,,METAR,4.0
KJXN 010556Z AUTO 10006KT 10SM BKN080 17/11 A3008 RMK AO2 SLP181 T01670111 10244 20167 50000,KJXN,2023-06-01T05:56:00Z,42.27,-84.47,16.7,11.1,100,6,,10.0,30.079725,1018.1,,TRUE,TRUE,,,,,,,BKN,8000,,,,,,,VFR,0.0,24.4,16.7,,,,,,,,,METAR,303.0
KJRB 010556Z AUTO 27003KT 10SM CLR 16/13 A3015 RMK AO2 SLP209 T01610133 10189 20161 58002,KJRB,2023-06-01T05:56:00Z,40.7,-74.02,16.1,13.3,270,3,,10.0,30.15059,1020.9,,TRUE,TRUE,,,,,,,CLR,,,,,,,,VFR,-0.2,18.9,16.1,,,,,,,,,METAR,2.0
KJMS 010556Z AUTO 31004KT 10SM BKN090 17/16 A2985 RMK AO2 SLP100 T01720156 10217 20172 403000133 51008,KJMS,2023-06-01T05:56:00Z,46.93,-98.67,17.2,15.6,310,4,,10.0,29.84941,1010.0,,TRUE,TRUE,,,,,,,BKN,9000,,,,,,,VFR,0.8,21.7,17.2,30.0,13.3,,,,,,,METAR,455.0
KJHW 010556Z AUTO 20003KT 10SM CLR 15/12 A3016 RMK AO2 SLP209 6//// T01500122 10239 20150 50002 PNO $,KJHW,2023-06-01T05:56:00Z,42.15,-79.27,15.0,12.2,200,3,,10.0,30.159449,1020.9,,TRUE,TRUE,TRUE,,,,,,CLR,,,,,,,,VFR,0.2,23.9,15.0,,,,,,,,,METAR,520.0
KJAX 010556Z 03007KT 10SM FEW060 BKN160 BKN230 22/21 A2993 RMK AO2 SLP134 60058 T02220206 10233 20211 58016 $,KJAX,2023-06-01T05:56:00Z,30.5,-81.68,22.2,20.6,30,7,,10.0,29.929134,1013.4,,,TRUE,TRUE,,,,,,FEW,6000,BKN,16000,BKN,23000,,,VFR,-1.6,23.3,21.1,,,,,0.58,,,,METAR,8.0
KJAC 010556Z AUTO 00000KT 10SM SCT100 08/04 RMK AO2 SLPNO 6//// T00830044 10189 20072 PNO $,KJAC,2023-06-01T05:56:00Z,43.62,-110.73,8.3,4.4,0,0,,10.0,,,,TRUE,TRUE,TRUE,,,,,,SCT,10000,,,,,,,VFR,,18.9,7.2,,,,,,,,,METAR,1967.0
KIWD 010556Z AUTO 16008KT 10SM CLR 22/13 A2999 RMK AO2 SLP147 T02220133 10294 20172 53005,KIWD,2023-06-01T05:56:00Z,46.52,-90.12,22.2,13.3,160,8,,10.0,29.991142,1014.7,,TRUE,TRUE,,,,,,,CLR,,,,,,,,VFR,0.5,29.4,17.2,,,,,,,,,METAR,373.0
KITH 010556Z AUTO 06004KT 10SM CLR 16/13 A3014 RMK AO2 SLP200 T01610128 10250 20150 50002,KITH,2023-06-01T05:56:00Z,42.48,-76.45,16.1,12.8,60,4,,10.0,30.138779,1020.0,,TRUE,TRUE,,,,,,,CLR,,,,,,,,VFR,0.2,25.0,15.0,,,,,,,,,METAR,338.0
KISP 010556Z AUTO 00000KT 10SM CLR 13/12 A3014 RMK AO2 SLP205 T01330117 10178 20128 58001,KISP,2023-06-01T05:56:00Z,40.8,-73.1,13.3,11.7,0,0,,10.0,30.138779,1020.5,,TRUE,TRUE,,,,,,,CLR,,,,,,,,VFR,-0.1,17.8,12.8,,,,,,,,,METAR,25.0
KINW 010556Z AUTO 29007KT 10SM CLR 13/M03 A2990 RMK AO2 SLP065 T01281033 10261 20128 51014,KINW,2023-06-01T05:56:00Z,35.03,-110.72,12.8,-3.3,290,7,,10.0,29.899607,1006.5,,TRUE,TRUE,,,,,,,CLR,,,,,,,,VFR,1.4,26.1,12.8,,,,,,,,,METAR,1492.0
KILE 010556Z AUTO 15005KT 10SM CLR 23/19 A2987 RMK AO2 SLP106 T02280189 10300 20228 403170189 50000,KILE,2023-06-01T05:56:00Z,31.08,-97.68,22.8,18.9,150,5,,10.0,29.870079,1010.6,,TRUE,TRUE,,,,,,,CLR,,,,,,,,VFR,0.0,30.0,22.8,31.7,18.9,,,,,,,METAR,256.0
KHYS 010556Z AUTO 25004KT 10SM CLR 19/14 A2986 RMK AO2 SLP097 T01890139 10294 20189 403060139 51010 $,KHYS,2023-06-01T05:56:00Z,38.85,-99.27,18.9,13.9,250,4,,10.0,29.861221,1009.7,,TRUE,TRUE,TRUE,,,,,,CLR,,,,,,,,VFR,1.0,29.4,18.9,30.6,13.9,,,,,,,METAR,607.0
KHYI 010556Z AUTO 16005KT 10SM CLR 22/21 A2988 RMK AO2 SLP108 T02220211 10300 20222 403170178 50001,KHYI,2023-06-01T05:56:00Z,29.88,-97.87,22.2,21.1,160,5,,10.0,29.878937,1010.8,,TRUE,TRUE,,,,,,,CLR,,,,,,,,VFR,0.1,30.0,22.2,31.7,17.8,,,,,,,METAR,180.0
KHWV 010556Z AUTO 00000KT 8SM CLR 11/09 A3015 RMK AO2 SLP208 T01110094 10172 20111 58002,KHWV,2023-06-01T05:56:00Z,40.82,-72.87,11.1,9.4,0,0,,8.0,30.15059,1020.8,,TRUE,TRUE,,,,,,,CLR,,,,,,,,VFR,-0.2,17.2,11.1,,,,,,,,,METAR,20.0
KHPN 010556Z 31003KT 8SM CLR 13/11 A3015 RMK AO2 SLP206 T01280111 10178 20122 50000,KHPN,2023-06-01T05:56:00Z,41.07,-73.7,12.8,11.1,310,3,,8.0,30.15059,1020.6,,,TRUE,,,,,,,CLR,,,,,,,,VFR,0.0,17.8,12.2,,,,,,,,,METAR,113.0
KHND 010556Z AUTO 18009KT 10SM CLR 24/01 A2973 RMK AO2 SLP058 T02390006 10294 20239 50009,KHND,2023-06-01T05:56:00Z,35.98,-115.13,23.9,0.6,180,9,,10.0,29.731298,1005.8,,TRUE,TRUE,,,,,,,CLR,,,,,,,,VFR,0.9,29.4,23.9,,,,,,,,,METAR,740.0
KHNB 010556Z AUTO 00000KT 10SM CLR 19/19 A3002 RMK AO2 SLP160 T01940189 10267 20189 58001,KHNB,2023-06-01T05:56:00Z,38.25,-86.95,19.4,18.9,0,0,,10.0,30.02067,1016.0,,TRUE,TRUE,,,,,,,CLR,,,,,,,,VFR,-0.1,26.7,18.9,,,,,,,,,METAR,159.0
KHEZ 010556Z AUTO 00000KT 10SM CLR 20/18 A2991 RMK AO2 SLP128 T02000183 10289 20194 50000,KHEZ,2023-06-01T05:56:00Z,31.62,-91.3,20.0,18.3,0,0,,10.0,29.911417,1012.8,,TRUE,TRUE,,,,,,,CLR,,,,,,,,VFR,0.0,28.9,19.4,,,,,,,,,METAR,82.0
KHEF 010556Z AUTO 00000KT 8SM CLR 11/11 A3011 RMK AO2 SLP203 T01060106 10228 20106 58007,KHEF,2023-06-01T05:56:00Z,38.72,-77.52,10.6,10.6,0,0,,8.0,30.109253,1020.3,,TRUE,TRUE,,,,,,,CLR,,,,,,,,VFR,-0.7,22.8,10.6,,,,,,,,,METAR,53.0
KHDN 010556Z AUTO 12008KT 10SM CLR 09/05 A2995 RMK AO2 SLP068 T00940050 10172 20094 402390044 56003,KHDN,2023-06-01T05:56:00Z,40.48,-107.22,9.4,5.0,120,8,,10.0,29.949802,1006.8,,TRUE,TRUE,,,,,,,CLR,,,,,,,,VFR,-0.3,17.2,9.4,23.9,4.4,,,,,,,METAR,2012.0
KGXY 010556Z AUTO 05004KT 10SM BKN100 14/11 A2991 RMK AO2 SLP093 60018 T01440111 10194 20144 51007,KGXY,2023-06-01T05:56:00Z,40.43,-104.62,14.4,11.1,50,4,,10.0,29.911417,1009.3,,TRUE,TRUE,,,,,,,BKN,10000,,,,,,,VFR,0.7,19.4,14.4,,,,,0.18,,,,METAR,1420.0
KGVQ 010556Z AUTO 00000KT 10SM CLR 14/12 A3012 RMK AO2 SLP197 T01440117 10256 20144 58001,KGVQ,2023-06-01T05:56:00Z,43.03,-78.17,14.4,11.7,0,0,,10.0,30.121063,1019.7,,TRUE,TRUE,,,,,,,CLR,,,,,,,,VFR,-0.1,25.6,14.4,,,,,,,,,METAR,279.0
KGUC 010556Z AUTO 33005KT 10SM FEW120 09/03 A3006 RMK AO2 SLP106 T00890033 10161 20089 402170017 51008,KGUC,2023-06-01T05:56:00Z,38.52,-106.93,8.9,3.3,330,5,,10.0,30.059055,1010.6,,TRUE,TRUE,,,,,,,FEW,12000,,,,,,,VFR,0.8,16.1,8.9,21.7,1.7,,,,,,,METAR,2337.0
KGTU 010556Z AUTO 16007KT 10SM CLR 24/19 A2989 RMK AO2 SLP116 T02440194 10306 20244 403170189 50000,KGTU,2023-06-01T05:56:00Z,30.68,-97.68,24.4,19.4,160,7,,10.0,29.890747,1011.6,,TRUE,TRUE,,,,,,,CLR,,,,,,,,VFR,0.0,30.6,24.4,31.7,18.9,,,,,,,METAR,232.0
KGTR 010556Z AUTO 07005KT 10SM CLR 21/19 A2997 RMK AO2 SLP154 T02110194 10261 20211 403000167 50003,KGTR,2023-06-01T05:56:00Z,33.45,-88.58,21.1,19.4,70,5,,10.0,29.970472,1015.4,,TRUE,TRUE,,,,,,,CLR,,,,,,,,VFR,0.3,26.1,21.1,30.0,16.7,,,,,,,METAR,80.0
KGRD 010556Z AUTO 00000KT 7SM CLR 16/16 A3007 RMK AO2 SLP177 T01560156 10217 20156 58011,KGRD,2023-06-01T05:56:00Z,34.25,-82.15,15.6,15.6,0,0,,7.0,30.070866,1017.7,,TRUE,TRUE,,,,,,,CLR,,,,,,,,VFR,-1.1,21.7,15.6,,,,,,,,,METAR,188.0
KGPZ 010556Z AUTO 04004KT 10SM BKN120 19/17 A2995 RMK AO2 SLP135 T01890167 10278 20172 53007,KGPZ,2023-06-01T05:56:00Z,47.22,-93.52,18.9,16.7,40,4,,10.0,29.949802,1013.5,,TRUE,TRUE,,,,,,,BKN,12000,,,,,,,VFR,0.7,27.8,17.2,,,,,,,,,METAR,410.0
KGON 010556Z AUTO 00000KT 10SM HZ CLR 12/10 A3014 RMK AO2 SLP206 T01220100 10167 20111 58004 $,KGON,2023-06-01T05:56:00Z,41.33,-72.05,12.2,10.0,0,0,,10.0,30.138779,1020.6,,TRUE,TRUE,TRUE,,,,,HZ,CLR,,,,,,,,VFR,-0.4,16.7,11.1,,,,,,,,,METAR,2.0
KGNR 010556Z AUTO VRB03KT 17/11 A3007 RMK AO1 SLP178 T01720111 10244 20172 58002,KGNR,2023-06-01T05:56:00Z,45.47,-69.55,17.2,11.1,0,3,,,30.070866,1017.8,,TRUE,TRUE,,,,,,,,,,,,,,,,-0.2,24.4,17.2,,,,,,,,,METAR,426.0
KGNA 010556Z AUTO 23003KT 07/03 A2995 RMK AO1 SLP145 T00670033 10167 20056 401670056 51004,KGNA,2023-06-01T05:56:00Z,47.75,-90.35,6.7,3.3,230,3,,,29.949802,1014.5,,TRUE,TRUE,,,,,,,,,,,,,,,,0.4,16.7,5.6,16.7,5.6,,,,,,,METAR,186.0
KGDV 010556Z AUTO 12009KT 10SM CLR 19/14 A2979 RMK AO2 SLP072 T01940144 10250 20194 51004 TSNO,KGDV,2023-06-01T05:56:00Z,47.13,-104.8,19.4,14.4,120,9,,10.0,29.790354,1007.2,,TRUE,TRUE,,,TRUE,,,,CLR,,,,,,,,VFR,0.4,25.0,19.4,,,,,,,,,METAR,749.0
KGBD 010556Z AUTO 21013KT 10SM CLR 22/15 A2987 RMK AO2 SLP098 T02170150 10300 20211 403110144 51011,KGBD,2023-06-01T05:56:00Z,38.35,-98.87,21.7,15.0,210,13,,10.0,29.870079,1009.8,,TRUE,TRUE,,,,,,,CLR,,,,,,,,VFR,1.1,30.0,21.1,31.1,14.4,,,,,,,METAR,573.0
KGAI 010556Z AUTO 00000KT 10SM CLR 11/10 A3013 RMK AO2 SLP214 T01110100 10217 20106 58004,KGAI,2023-06-01T05:56:00Z,39.17,-77.17,11.1,10.0,0,0,,10.0,30.129921,1021.4,,TRUE,TRUE,,,,,,,CLR,,,,,,,,VFR,-0.4,21.7,10.6,,,,,,,,,METAR,151.0
KGAD 010556Z AUTO 36003KT 10SM CLR 18/18 A3004 RMK AO2 SLP172 6//// T01830183 10233 20178 402720161 50004 PNO $,KGAD,2023-06-01T05:56:00Z,33.97,-86.08,18.3,18.3,360,3,,10.0,30.041338,1017.2,,TRUE,TRUE,TRUE,,,,,,CLR,,,,,,,,VFR,0.4,23.3,17.8,27.2,16.1,,,,,,,METAR,169.0
KFSD 010556Z AUTO 07006KT 10SM CLR 20/14 A2987 RMK AO2 SLP106 T02000139 10294 20200 403280200 51012,KFSD,2023-06-01T05:56:00Z,43.58,-96.75,20.0,13.9,70,6,,10.0,29.870079,1010.6,,TRUE,TRUE,,,,,,,CLR,,,,,,,,VFR,1.2,29.4,20.0,32.8,20.0,,,,,,,SPECI,433.0
KFRM 010556Z AUTO 16006KT 10SM CLR 19/17 A2992 RMK AO2 SLP129 T01940167 10267 20194 403060167 51012,KFRM,2023-06-01T05:56:00Z,43.63,-94.42,19.4,16.7,160,6,,10.0,29.920275,1012.9,,TRUE,TRUE,,,,,,,CLR,,,,,,,,VFR,1.2,26.7,19.4,30.6,16.7,,,,,,,METAR,353.0
KFOD 010556Z AUTO 13004KT 10SM CLR 20/17 A2993 RMK AO2 SLP142 T02000167 10272 20200 53009,KFOD,2023-06-01T05:56:00Z,42.53,-94.17,20.0,16.7,130,4,,10.0,29.929134,1014.2,,TRUE,TRUE,,,,,,,CLR,,,,,,,,VFR,0.9,27.2,20.0,,,,,,,,,METAR,347.0
KFNL 010556Z 02007KT 10SM CLR 14/11 A2991 RMK AO2 SLP074 60000 T01440111 10194 20144 50004,KFNL,2023-06-01T05:56:00Z,40.45,-105.02,14.4,11.1,20,7,,10.0,29.911417,1007.4,,,TRUE,,,,,,,CLR,,,,,,,,VFR,0.4,19.4,14.4,,,,,0.005,,,,METAR,1529.0
KFLP 010556Z AUTO 00000KT 10SM CLR 19/17 A2999 RMK AO2 SLP146 T01890167 10283 20189 403060167 50011,KFLP,2023-06-01T05:56:00Z,36.28,-92.58,18.9,16.7,0,0,,10.0,29.991142,1014.6,,TRUE,TRUE,,,,,,,CLR,,,,,,,,VFR,1.1,28.3,18.9,30.6,16.7,,,,,,,METAR,215.0
KFKL 010556Z AUTO 00000KT 10SM CLR 14/11 A3016 RMK AO2 SLP205 T01390111 10256 20139 51005,KFKL,2023-06-01T05:56:00Z,41.37,-79.87,13.9,11.1,0,0,,10.0,30.159449,1020.5,,TRUE,TRUE,,,,,,,CLR,,,,,,,,VFR,0.5,25.6,13.9,,,,,,,,,METAR,468.0
KFCI 010556Z AUTO 29004KT 10SM CLR 13/13 A3009 RMK AO2 SLP198 T01330133 10222 20128,KFCI,2023-06-01T05:56:00Z,37.4,-77.52,13.3,13.3,290,4,,10.0,30.088583,1019.8,,TRUE,TRUE,,,,,,,CLR,,,,,,,,VFR,,22.2,12.8,,,,,,,,,METAR,63.0
KFAM 010556Z AUTO 00000KT 10SM CLR 19/17 A3001 RMK AO2 SLP163 T01890167 10283 20178 403060150 51005,KFAM,2023-06-01T05:56:00Z,37.77,-90.42,18.9,16.7,0,0,,10.0,30.008858,1016.3,,TRUE,TRUE,,,,,,,CLR,,,,,,,,VFR,0.5,28.3,17.8,30.6,15.0,,,,,,,METAR,276.0
KEWK 010556Z AUTO 15004KT 10SM CLR 21/18 A2991 RMK AO2 SLP113 T02060178 10300 20206 51009,KEWK,2023-06-01T05:56:00Z,38.05,-97.27,20.6,17.8,150,4,,10.0,29.911417,1011.3,,TRUE,TRUE,,,,,,,CLR,,,,,,,,VFR,0.9,30.0,20.6,,,,,,,,,METAR,468.0
KEUL 010556Z AUTO 26006KT 10SM CLR 14/12 A2984 RMK AO2 SLP091 T01440122 10183 20144 51007,KEUL,2023-06-01T05:56:00Z,43.63,-116.62,14.4,12.2,260,6,,10.0,29.840551,1009.1,,TRUE,TRUE,,,,,,,CLR,,,,,,,,VFR,0.7,18.3,14.4,,,,,,,,,METAR,741.0
KESC 010556Z AUTO 00000KT 3SM BR CLR 12/12 A3004 RMK AO2 SLP177 T01170117 10206 20117 53000,KESC,2023-06-01T05:56:00Z,45.72,-87.08,11.7,11.7,0,0,,3.0,30.041338,1017.7,,TRUE,TRUE,,,,,,BR,CLR,,,,,,,,MVFR,0.0,20.6,11.7,,,,,,,,,METAR,180.0
KENV 010556Z AUTO 33023G32KT 10SM FEW120 19/04 A2981 RMK AO2 PK WND 33032/0549 SLP058 6//// T01890044 10278 20183 51008 PNO $,KENV,2023-06-01T05:56:00Z,40.72,-114.02,18.9,4.4,330,23,32,10.0,29.811024,1005.8,,TRUE,TRUE,TRUE,,,,,,FEW,12000,,,,,,,VFR,0.8,27.8,18.3,,,,,,,,,METAR,1291.0
KELZ 010556Z AUTO 00000KT 10SM CLR 16/09 A3018 RMK AO2 SLP211 T01560094 10244 20156 50000,KELZ,2023-06-01T05:56:00Z,42.1,-77.98,15.6,9.4,0,0,,10.0,30.180119,1021.1,,TRUE,TRUE,,,,,,,CLR,,,,,,,,VFR,0.0,24.4,15.6,,,,,,,,,METAR,639.0
KEKY 010556Z AUTO 10005KT 10SM CLR 21/18 A3001 RMK AO2 SLP008 T02060178 10261 20206 58002,KEKY,2023-06-01T05:56:00Z,33.32,-86.93,20.6,17.8,100,5,,10.0,30.008858,1000.8,,TRUE,TRUE,,,,,,,CLR,,,,,,,,VFR,-0.2,26.1,20.6,,,,,,,,,METAR,213.0
KEKQ 010556Z AUTO 00000KT 10SM CLR 16/16 A3007 RMK AO2 SLP174 T01610161 10250 20161 50002,KEKQ,2023-06-01T05:56:00Z,36.85,-84.85,16.1,16.1,0,0,,10.0,30.070866,1017.4,,TRUE,TRUE,,,,,,,CLR,,,,,,,,VFR,0.2,25.0,16.1,,,,,,,,,METAR,291.0
KEKO 010556Z AUTO 04010KT 10SM CLR 14/07 A2992 RMK AO2 SLP086 T01440072 10217 20144 51010,KEKO,2023-06-01T05:56:00Z,40.82,-115.78,14.4,7.2,40,10,,10.0,29.920275,1008.6,,TRUE,TRUE,,,,,,,CLR,,,,,,,,VFR,1.0,21.7,14.4,,,,,,,,,METAR,1541.0
KEHR 010556Z AUTO 00000KT 10SM CLR 19/19 A3001 RMK AO2 SLP157 T01940189 10261 20194 55002,KEHR,2023-06-01T05:56:00Z,37.82,-87.67,19.4,18.9,0,0,,10.0,30.008858,1015.7,,TRUE,TRUE,,,,,,,CLR,,,,,,,,VFR,-0.2,26.1,19.4,,,,,,,,,METAR,117.0
KEGE 010556Z AUTO 08006KT 10SM CLR 11/06 A2998 RMK AO2 SLP065 T01110061 10183 20111 402440072 56005,KEGE,2023-06-01T05:56:00Z,39.63,-106.92,11.1,6.1,80,6,,10.0,29.97933,1006.5,,TRUE,TRUE,,,,,,,CLR,,,,,,,,VFR,-0.5,18.3,11.1,24.4,7.2,,,,,,,METAR,1993.0
KEEN 010556Z AUTO 10SM CLR 11/10 A3013 RMK AO2 SLP205 T01110100 10244 20111 58002 $,KEEN,2023-06-01T05:56:00Z,42.88,-72.27,11.1,10.0,,,,10.0,30.129921,1020.5,,TRUE,TRUE,TRUE,,,,,,CLR,,,,,,,,VFR,-0.2,24.4,11.1,,,,,,,,,METAR,143.0
KEED 010556Z AUTO 09004KT 10SM CLR 27/03 A2968 RMK AO2 SLP022 T02670033 10322 20267 50011,KEED,2023-06-01T05:56:00Z,34.77,-114.62,26.7,3.3,90,4,,10.0,29.681103,1002.2,,TRUE,TRUE,,,,,,,CLR,,,,,,,,VFR,1.1,32.2,26.7,,,,,,,,,METAR,271.0
KEAU 010556Z AUTO 16004KT 10SM FEW085 SCT100 24/13 A2993 RMK AO2 SLP129 T02390133 10300 20200 403220133 51006,KEAU,2023-06-01T05:56:00Z,44.87,-91.48,23.9,13.3,160,4,,10.0,29.929134,1012.9,,TRUE,TRUE,,,,,,,FEW,8500,SCT,10000,,,,,VFR,0.6,30.0,20.0,32.2,13.3,,,,,,,METAR,271.0
KEAR 010556Z AUTO 14012KT 10SM FEW090 21/16 A2988 RMK AO2 SLP099 T02110156 10289 20200 402890144 53010,KEAR,2023-06-01T05:56:00Z,40.72,-99.0,21.1,15.6,140,12,,10.0,29.878937,1009.9,,TRUE,TRUE,,,,,,,FEW,9000,,,,,,,VFR,1.0,28.9,20.0,28.9,14.4,,,,,,,METAR,649.0
KDYR 010556Z AUTO 00000KT 10SM CLR 21/21 A2999 RMK AO2 SLP159 T02060206 10294 20206 403170178 51004,KDYR,2023-06-01T05:56:00Z,36.0,-89.4,20.6,20.6,0,0,,10.0,29.991142,1015.9,,TRUE,TRUE,,,,,,,CLR,,,,,,,,VFR,0.4,29.4,20.6,31.7,17.8,,,,,,,METAR,98.0
KDVL 010556Z AUTO 27007KT 10SM -RA FEW065 OVC090 18/16 A2986 RMK AO2 RAB56 SLP120 P0000 60001 T01830161 10200 20183 55004,KDVL,2023-06-01T05:56:00Z,48.12,-98.92,18.3,16.1,270,7,,10.0,29.861221,1012.0,,TRUE,TRUE,,,,,,-RA,FEW,6500,OVC,9000,,,,,VFR,-0.4,20.0,18.3,,,0.005,,0.01,,,,METAR,439.0
KDIK 010556Z AUTO 10010KT 10SM CLR 16/14 A2983 RMK AO2 SLP085 T01560139 10228 20150 50003,KDIK,2023-06-01T05:56:00Z,46.8,-102.8,15.6,13.9,100,10,,10.0,29.828741,1008.5,,TRUE,TRUE,,,,,,,CLR,,,,,,,,VFR,0.3,22.8,15.0,,,,,,,,,METAR,788.0
KDIJ 010556Z AUTO 08004KT 10SM CLR 09/06 A2999 RMK AO2 SLP109 T00940061 10194 20078 51022,KDIJ,2023-06-01T05:56:00Z,43.75,-111.1,9.4,6.1,80,4,,10.0,29.991142,1010.9,,TRUE,TRUE,,,,,,,CLR,,,,,,,,VFR,2.2,19.4,7.8,,,,,,,,,METAR,1896.0
KDAY 010556Z 15004KT 10SM CLR 22/14 A3009 RMK AO2 SLP179 T02170139 10278 20200 50004,KDAY,2023-06-01T05:56:00Z,39.9,-84.22,21.7,13.9,150,4,,10.0,30.088583,1017.9,,,TRUE,,,,,,,CLR,,,,,,,,VFR,0.4,27.8,20.0,,,,,,,,,METAR,303.0
KD07 010556Z AUTO 11007KT 18/14 A2981 RMK AO1 SLP080 T01830144 10256 20183 50001,KD07,2023-06-01T05:56:00Z,45.03,-102.02,18.3,14.4,110,7,,,29.811024,1008.0,,TRUE,TRUE,,,,,,,,,,,,,,,,0.1,25.6,18.3,,,,,,,,,SPECI,786.0
KCXY 010556Z AUTO 20003KT 10SM CLR 12/07 A3013 RMK AO2 SLP202 T01220067 10250 20122 50001,KCXY,2023-06-01T05:56:00Z,40.22,-76.85,12.2,6.7,200,3,,10.0,30.129921,1020.2,,TRUE,TRUE,,,,,,,CLR,,,,,,,,VFR,0.1,25.0,12.2,,,,,,,,,METAR,102.0
KCWI 010556Z AUTO 14007KT 10SM SCT095 22/16 A2999 RMK AO2 SLP153 T02220161 10300 20217 403280150 53007,KCWI,2023-06-01T05:56:00Z,41.82,-90.32,22.2,16.1,140,7,,10.0,29.991142,1015.3,,TRUE,TRUE,,,,,,,SCT,9500,,,,,,,VFR,0.7,30.0,21.7,32.8,15.0,,,,,,,METAR,212.0
KCVO 010556Z AUTO 32006KT 10SM CLR 11/06 A3009 RMK AO2 SLP192 T01060056 10183 20106 53009,KCVO,2023-06-01T05:56:00Z,44.5,-123.28,10.6,5.6,320,6,,10.0,30.088583,1019.2,,TRUE,TRUE,,,,,,,CLR,,,,,,,,VFR,0.9,18.3,10.6,,,,,,,,,METAR,75.0
KCTB 010556Z AUTO 00000KT 10SM CLR 14/09 A2979 RMK AO2 SLP063 T01390089 10211 20133 58002,KCTB,2023-06-01T05:56:00Z,48.6,-112.37,13.9,8.9,0,0,,10.0,29.790354,1006.3,,TRUE,TRUE,,,,,,,CLR,,,,,,,,VFR,-0.2,21.1,13.3,,,,,,,,,METAR,1172.0
KCOE 010556Z AUTO 00000KT 10SM CLR 15/04 A2987 RMK AO2 SLP123 6//// T01500039 10228 20144 51016 PNO $,KCOE,2023-06-01T05:56:00Z,47.77,-116.82,15.0,3.9,0,0,,10.0,29.870079,1012.3,,TRUE,TRUE,TRUE,,,,,,CLR,,,,,,,,VFR,1.6,22.8,14.4,,,,,,,,,METAR,693.0
KCOD 010556Z AUTO 34004KT 10SM CLR 14/07 A2989 RMK AO2 SLP075 T01440072 10222 20144 51014,KCOD,2023-06-01T05:56:00Z,44.52,-109.02,14.4,7.2,340,4,,10.0,29.890747,1007.5,,TRUE,TRUE,,,,,,,CLR,,,,,,,,VFR,1.4,22.2,14.4,,,,,,,,,METAR,1550.0
KCIU 010556Z AUTO 13005KT 10SM CLR 18/14 A3009 RMK AO2 SLP184 T01830144 10261 20178 50008,KCIU,2023-06-01T05:56:00Z,46.25,-84.47,18.3,14.4,130,5,,10.0,30.088583,1018.4,,TRUE,TRUE,,,,,,,CLR,,,,,,,,VFR,0.8,26.1,17.8,,,,,,,,,METAR,242.0
KCHS 010556Z 03004KT 10SM SCT030 SCT040 19/17 A3001 RMK AO2 SLP161 T01940172 10228 20189 58011,KCHS,2023-06-01T05:56:00Z,32.9,-80.03,19.4,17.2,30,4,,10.0,30.008858,1016.1,,,TRUE,,,,,,,SCT,3000,SCT,4000,,,,,VFR,-1.1,22.8,18.9,,,,,,,,,SPECI,12.0
KCEC 010556Z AUTO 35011G24KT 10SM CLR 09/07 A2997 RMK AO2 PK WND 36029/0530 SLP151 T00940072 10122 20094 53009,KCEC,2023-06-01T05:56:00Z,41.78,-124.23,9.4,7.2,350,11,24,10.0,29.970472,1015.1,,TRUE,TRUE,,,,,,,CLR,,,,,,,,VFR,0.9,12.2,9.4,,,,,,,,,METAR,17.0
KCAE 010556Z 00000KT 10SM FEW120 OVC180 18/17 A3003 RMK AO2 SLP165 T01780167 10239 20178 58011,KCAE,2023-06-01T05:56:00Z,33.93,-81.12,17.8,16.7,0,0,,10.0,30.029528,1016.5,,,TRUE,,,,,,,FEW,12000,OVC,18000,,,,,VFR,-1.1,23.9,17.8,,,,,,,,,METAR,69.0
KBZN 010556Z AUTO 14005KT 10SM CLR 11/09 A2989 RMK AO2 SLP092 60066 T01060094 10133 20106 52006,KBZN,2023-06-01T05:56:00Z,45.78,-111.17,10.6,9.4,140,5,,10.0,29.890747,1009.2,,TRUE,TRUE,,,,,,,CLR,,,,,,,,VFR,0.6,13.3,10.6,,,,,0.66,,,,METAR,1349.0
KBVX 010556Z AUTO 33003KT 10SM CLR 19/18 A2998 RMK AO2 SLP147 T01940178 10300 20194 403170156 51010,KBVX,2023-06-01T05:56:00Z,35.73,-91.65,19.4,17.8,330,3,,10.0,29.97933,1014.7,,TRUE,TRUE,,,,,,,CLR,,,,,,,,VFR,1.0,30.0,19.4,31.7,15.6,,,,,,,METAR,137.0
KBTP 010556Z AUTO 03003KT 10SM CLR 13/08 A3013 RMK AO2 SLP205 T01280083 10256 20117 58001 TSNO $,KBTP,2023-06-01T05:56:00Z,40.77,-79.95,12.8,8.3,30,3,,10.0,30.129921,1020.5,,TRUE,TRUE,TRUE,,TRUE,,,,CLR,,,,,,,,VFR,-0.1,25.6,11.7,,,,,,,,,METAR,375.0
KBOK 010556Z AUTO VRB05KT 10SM CLR 13/06 A2997 RMK AO2 SLP149 T01330061 10172 20117 53015,KBOK,2023-06-01T05:56:00Z,42.07,-124.28,13.3,6.1,0,5,,10.0,29.970472,1014.9,,TRUE,TRUE,,,,,,,CLR,,,,,,,,VFR,1.5,17.2,11.7,,,,,,,,,METAR,140.0
KBMI 010556Z AUTO 18005KT 10SM CLR 21/16 A3002 RMK AO2 SLP158 T02060156 10256 20206 403000189 53000,KBMI,2023-06-01T05:56:00Z,40.47,-88.92,20.6,15.6,180,5,,10.0,30.02067,1015.8,,TRUE,TRUE,,,,,,,CLR,,,,,,,,VFR,0.0,25.6,20.6,30.0,18.9,,,,,,,METAR,262.0
KBLM 010556Z AUTO 02003KT 10SM CLR 14/ A3015 RMK AO2 SLP208 T0139 10172 20133 58005,KBLM,2023-06-01T05:56:00Z,40.17,-74.12,13.9,,20,3,,10.0,30.15059,1020.8,,TRUE,TRUE,,,,,,,CLR,,,,,,,,VFR,-0.5,17.2,13.3,,,,,,,,,METAR,45.0
KBKX 010556Z AUTO 13009KT 10SM CLR 20/14 A2987 RMK AO2 SLP118 T02000139 10256 20200 403170156 50007,KBKX,2023-06-01T05:56:00Z,44.3,-96.82,20.0,13.9,130,9,,10.0,29.870079,1011.8,,TRUE,TRUE,,,,,,,CLR,,,,,,,,VFR,0.7,25.6,20.0,31.7,15.6,,,,,,,METAR,494.0
KBIH 010556Z AUTO 28005KT 10SM CLR 17/04 A2982 RMK AO2 SLP055 60000 T01670039 10278 20167 51011,KBIH,2023-06-01T05:56:00Z,37.37,-118.35,16.7,3.9,280,5,,10.0,29.819881,1005.5,,TRUE,TRUE,,,,,,,CLR,,,,,,,,VFR,1.1,27.8,16.7,,,,,0.005,,,,METAR,1252.0
KBHB 010556Z AUTO 19003KT 10SM CLR 12/11 A3008 RMK AO2 SLP187 T01220111 10139 20111 58008,KBHB,2023-06-01T05:56:00Z,44.45,-68.37,12.2,11.1,190,3,,10.0,30.079725,1018.7,,TRUE,TRUE,,,,,,,CLR,,,,,,,,VFR,-0.8,13.9,11.1,,,,,,,,,METAR,21.0
KAWO 010556Z AUTO 15003KT 10SM CLR 09/06 A3010 RMK AO2 SLP197 T00940061 10172 20089 50007,KAWO,2023-06-01T05:56:00Z,48.17,-122.17,9.4,6.1,150,3,,10.0,30.100393,1019.7,,TRUE,TRUE,,,,,,,CLR,,,,,,,,VFR,0.7,17.2,8.9,,,,,,,,,METAR,38.0
KASH 010556Z AUTO 00000KT 10SM CLR 14/12 A3010 RMK AO2 SLP196 T01440117 10228 20144 58008,KASH,2023-06-01T05:56:00Z,42.78,-71.52,14.4,11.7,0,0,,10.0,30.100393,1019.6,,TRUE,TRUE,,,,,,,CLR,,,,,,,,VFR,-0.8,22.8,14.4,,,,,,,,,METAR,56.0
KART 010556Z AUTO 10003KT 10SM CLR 12/11 A3009 RMK AO2 SLP187 T01170111 10217 20111 56002,KART,2023-06-01T05:56:00Z,43.98,-76.03,11.7,11.1,100,3,,10.0,30.088583,1018.7,,TRUE,TRUE,,,,,,,CLR,,,,,,,,VFR,-0.2,21.7,11.1,,,,,,,,,METAR,100.0
KARG 010556Z AUTO 13005KT 10SM SCT065 23/18 A2997 RMK AO2 SLP146 T02280183 10294 20228 403170189 51008,KARG,2023-06-01T05:56:00Z,36.12,-90.92,22.8,18.3,130,5,,10.0,29.970472,1014.6,,TRUE,TRUE,,,,,,,SCT,6500,,,,,,,VFR,0.8,29.4,22.8,31.7,18.9,,,,,,,METAR,82.0
KAND 010556Z AUTO 00000KT 10SM CLR 17/17 A3006 RMK AO2 SLP173 T01720172 10222 20167 57009 $,KAND,2023-06-01T05:56:00Z,34.5,-82.72,17.2,17.2,0,0,,10.0,30.059055,1017.3,,TRUE,TRUE,TRUE,,,,,,CLR,,,,,,,,VFR,-0.9,22.2,16.7,,,,,,,,,METAR,233.0
KALK 010556Z AUTO 31004KT 10SM CLR 16/00 A2996 RMK AO2 SLP057 T01610000 10261 20156 51013,KALK,2023-06-01T05:56:00Z,31.6,-110.43,16.1,0.0,310,4,,10.0,29.958662,1005.7,,TRUE,TRUE,,,,,,,CLR,,,,,,,,VFR,1.3,26.1,15.6,,,,,,,,,SPECI,1451.0
KAJO 010556Z AUTO 29005KT 10SM OVC040 16/12 A2993 RMK AO2 SLP129 T01560117 10172 20156 51008,KAJO,2023-06-01T05:56:00Z,33.9,-117.6,15.6,11.7,290,5,,10.0,29.929134,1012.9,,TRUE,TRUE,,,,,,,OVC,4000,,,,,,,VFR,0.8,17.2,15.6,,,,,,,,,METAR,161.0
KAIZ 010556Z AUTO 16003KT 10SM CLR 19/18 RMK AO2 SLPNO T01890178 10256 20189 402610167 $,KAIZ,2023-06-01T05:56:00Z,38.1,-92.53,18.9,17.8,160,3,,10.0,,,,TRUE,TRUE,TRUE,,,,,,CLR,,,,,,,,VFR,,25.6,18.9,26.1,16.7,,,,,,,METAR,263.0
KAFJ 010556Z AUTO 00000KT 10SM CLR 11/08 A3014 RMK AO2 SLP201 T01060078 10228 20094 58003,KAFJ,2023-06-01T05:56:00Z,40.13,-80.28,10.6,7.8,0,0,,10.0,30.138779,1020.1,,TRUE,TRUE,,,,,,,CLR,,,,,,,,VFR,-0.3,22.8,9.4,,,,,,,,,METAR,360.0
KADF 010556Z AUTO 00000KT 10SM 19/18 A2995 RMK AO2 SLP138 T01890183 10294 20189 403170161 50010 $,KADF,2023-06-01T05:56:00Z,34.1,-93.07,18.9,18.3,0,0,,10.0,29.949802,1013.8,,TRUE,TRUE,TRUE,,,,,,,,,,,,,,,1.0,29.4,18.9,31.7,16.1,,,,,,,METAR,54.0
K8D3 010556Z AUTO 12006KT 18/14 A2982 RMK AO1 SLP077 T01830144 10289 20178 403330133 53008,K8D3,2023-06-01T05:56:00Z,45.67,-96.98,18.3,14.4,120,6,,,29.819881,1007.7,,TRUE,TRUE,,,,,,,,,,,,,,,,0.8,28.9,17.8,33.3,13.3,,,,,,,SPECI,535.0
K79J 010556Z AUTO 07004KT 10SM FEW080 OVC095 21/18 A2995 RMK AO2 SLP136 6//// T02110183 10256 20211 58008 PNO $,K79J,2023-06-01T05:56:00Z,31.32,-86.4,21.1,18.3,70,4,,10.0,29.949802,1013.6,,TRUE,TRUE,TRUE,,,,,,FEW,8000,OVC,9500,,,,,VFR,-0.8,25.6,21.1,,,,,,,,,SPECI,93.0
K2WX 010556Z AUTO 08006KT 19/14 A2980 RMK AO1 SLP067 T01890144 10261 20189 53002,K2WX,2023-06-01T05:56:00Z,45.6,-103.55,18.9,14.4,80,6,,,29.799213,1006.7,,TRUE,TRUE,,,,,,,,,,,,,,,,0.2,26.1,18.9,,,,,,,,,METAR,925.0
K1M4 010556Z AUTO 12004KT 10SM CLR 20/18 A3004 RMK AO2 SLP155 T02000183 10233 20178 50002,K1M4,2023-06-01T05:56:00Z,34.28,-87.6,20.0,18.3,120,4,,10.0,30.041338,1015.5,,TRUE,TRUE,,,,,,,CLR,,,,,,,,VFR,0.2,23.3,17.8,,,,,,,,,METAR,283.0
TNCE 010555Z AUTO 08007KT 050V110 //// // ///////// 27/24 Q1015 RE//,TNCE,2023-06-01T05:55:00Z,17.48,-62.97,27.0,24.0,80,7,,,29.970472,,,TRUE,,,,,,,,,,,,,,,,,,,,,,,,,,,,METAR,38.0
TNCB 010555Z AUTO 10010KT 060V140 9999 FEW010/// 28/25 Q1011,TNCB,2023-06-01T05:55:00Z,12.13,-68.28,28.0,25.0,100,10,,6.21,29.852362,,,TRUE,,,,,,,,FEW,1000,,,,,,,VFR,,,,,,,,,,,,METAR,6.0
RKSO 010555Z 30007KT 5SM HZ BKN060 OVC090 26/20 A2969 RMK AO2A SLP051 WND DATA ESTMD ALSTG/SLP ESTMD T02630197 10267 20222 58060 $,RKSO,2023-06-01T05:55:00Z,37.08,127.02,26.3,19.7,300,7,,5.0,29.68996,1005.1,,,TRUE,TRUE,,,,,HZ,BKN,6000,OVC,9000,,,,,MVFR,-6.0,26.7,22.2,,,,,,,,,METAR,10.0
RKSG 010555Z 30003KT 10SM FEW070 26/21 A2966 RMK AO2A SLPNO T02590213 10268 20220 57020 $,RKSG,2023-06-01T05:55:00Z,36.97,127.02,25.9,21.3,300,3,,10.0,29.660433,,,,TRUE,TRUE,,,,,,FEW,7000,,,,,,,VFR,-2.0,26.8,22.0,,,,,,,,,METAR,12.0
RKJK 010555Z 29008KT 6SM HZ FEW060 SCT120 SCT150 SCT170 23/16 A2967 RMK AO2A SLPNO 60000 T02280159 10254 20213 57021 $,RKJK,2023-06-01T05:55:00Z,35.9,126.62,22.8,15.9,290,8,,6.0,29.66929,,,,TRUE,TRUE,,,,,HZ,FEW,6000,SCT,12000,SCT,15000,SCT,17000,VFR,-2.1,25.4,21.3,,,,,0.005,,,,METAR,8.0
RJTY 010555Z AUTO 19018G27KT 10SM CLR 24/16 A2991 RMK AO2 PK WND 17027/43 SLPNO T02350158 10243 20203 57015 $,RJTY,2023-06-01T05:55:00Z,35.75,139.33,23.5,15.8,190,18,27,10.0,29.911417,,,TRUE,TRUE,TRUE,,,,,,CLR,,,,,,,,VFR,-1.5,24.3,20.3,,,,,,,,,METAR,136.0
PWAK 010555Z AUTO 06014KT 10SM SCT027 BKN035 28/22 A2996 RMK AO2 SLPNO T02810216 10303 20281 55002,PWAK,2023-06-01T05:55:00Z,19.28,166.62,28.1,21.6,60,14,,10.0,29.958662,,,TRUE,TRUE,,,,,,,SCT,2700,BKN,3500,,,,,VFR,-0.2,30.3,28.1,,,,,,,,,METAR,7.0
PTTP 010555Z 06004KT 15SM SCT018 BKN300 29/24 A2980 RMK SLP090 8/101 T02910241 10322 20290 55002,PTTP,2023-06-01T05:55:00Z,6.97,158.22,29.1,24.1,60,4,,15.0,29.799213,1009.0,,,,,,,,,,SCT,1800,BKN,30000,,,,,VFR,-0.2,32.2,29.0,,,,,,,,,METAR,36.0
PKMR 010555Z 08004KT 15SM FEW014 SCT050 BKN110 OVC300 27/25 A2978 RMK SLP088 60058 8/878 T02740250 10274 20250 53005,PKMR,2023-06-01T05:55:00Z,7.08,171.38,27.4,25.0,80,4,,15.0,29.778543,1008.8,,,,,,,,,,FEW,1400,SCT,5000,BKN,11000,OVC,30000,VFR,0.5,27.4,25.0,,,,,0.58,,,,METAR,7.0
PHSF 010555Z AUTO 32003KT 10SM SCT014 14/13 A3045 RMK AO2 SLPNO 60001 T01370129 10184 20137 52016 $,PHSF,2023-06-01T05:55:00Z,19.77,-155.55,13.7,12.9,320,3,,10.0,30.448818,,,TRUE,TRUE,TRUE,,,,,,SCT,1400,,,,,,,VFR,1.6,18.4,13.7,,,,,0.01,,,,METAR,1863.0
PHHI 010555Z COR AUTO 17002KT 10SM SCT028 BKN040 23/18 A3015 RMK AO2 SLPNO 10277 20232 PWINO $ COR 0606,PHHI,2023-06-01T05:55:00Z,21.48,-158.05,23.0,18.0,170,2,,10.0,30.15059,,TRUE,TRUE,TRUE,TRUE,,,,TRUE,,SCT,2800,BKN,4000,,,,,VFR,,27.7,23.2,,,,,,,,,METAR,246.0
PGUA 010555Z 36009KT 7SM SCT010 28/25 A2992 RMK SLPNO WND DATA/ALSTG ESTMD,PGUA,2023-06-01T05:55:00Z,13.57,144.92,28.0,25.0,360,9,,7.0,29.920275,,,,,,,,,,,SCT,1000,,,,,,,VFR,,,,,,,,,,,,METAR,159.0
PAWG 010555Z 12003KT 10SM -RA FEW025 SCT045 OVC060 11/07 A3006,PAWG,2023-06-01T05:55:00Z,56.48,-132.37,11.0,7.0,120,3,,10.0,30.059055,,,,,,,,,,-RA,FEW,2500,SCT,4500,OVC,6000,,,VFR,,,,,,,,,,,,METAR,6.0
PATL 010555Z AUTO 00000KT 10SM BKN055 07/M06 A2995 RMK AO2 SLP147 T00691063 10087 20070 52006,PATL,2023-06-01T05:55:00Z,62.9,-155.97,6.9,-6.3,0,0,,10.0,29.949802,1014.7,,TRUE,TRUE,,,,,,,BKN,5500,,,,,,,VFR,0.6,8.7,7.0,,,,,,,,,METAR,261.0
PATC 010555Z AUTO 20006KT M1/4SM +SN VV002 M01/M01 A2993 RMK AO2 SNB0455 SLP141 P0000 60000 T10141014 11011 21025 57015,PATC,2023-06-01T05:55:00Z,65.57,-167.92,-1.4,-1.4,200,6,,0.25,29.929134,1014.1,,TRUE,TRUE,,,,,,+SN,OVX,0,,,,,,,LIFR,-1.5,-1.1,-2.5,,,0.005,,0.005,,,200,METAR,77.0
PASV 010555Z AUTO 35007KT 10SM BKN060 07/M05 A2991 RMK AO2 SLP138 T00731046 10083 20035 52008,PASV,2023-06-01T05:55:00Z,61.1,-155.57,7.3,-4.6,350,7,,10.0,29.911417,1013.8,,TRUE,TRUE,,,,,,,BKN,6000,,,,,,,VFR,0.8,8.3,3.5,,,,,,,,,METAR,462.0
PAIM 010555Z AUTO VRB06KT 10SM BKN045 04/M05 A2979 RMK AO2 SLP099 T00391051 10048 20022 52006,PAIM,2023-06-01T05:55:00Z,66.0,-153.7,3.9,-5.1,0,6,,10.0,29.790354,1009.9,,TRUE,TRUE,,,,,,,BKN,4500,,,,,,,VFR,0.6,4.8,2.2,,,,,,,,,METAR,309.0
PAFB 010555Z 28013KT 9SM SCT070 10/M04 A2976 RMK AO2A SLP085 T00961044 10130 20096 52019 FZRANO $,PAFB,2023-06-01T05:55:00Z,64.83,-147.62,9.6,-4.4,280,13,,9.0,29.760826,1008.5,,,TRUE,TRUE,,,TRUE,,,SCT,7000,,,,,,,VFR,1.9,13.0,9.6,,,,,,,,,SPECI,137.0
PAED 010555Z 29006KT 10SM FEW030 OVC044 08/05 A2986 RMK AO2A SLP108 T00810045 10098 20081 52012,PAED,2023-06-01T05:55:00Z,61.25,-149.83,8.1,4.5,290,6,,10.0,29.861221,1010.8,,,TRUE,,,,,,,FEW,3000,OVC,4400,,,,,VFR,1.2,9.8,8.1,,,,,,,,,SPECI,54.0
OTBH 010555Z 32012KT 9999 CLR 37/17 A2977 Q1008 RMK AO2A SLPNO T03700165 10370 20285 FZRANO TSNO $,OTBH,2023-06-01T05:55:00Z,25.12,51.32,37.0,16.5,320,12,,6.21,29.763779,,,,TRUE,TRUE,,TRUE,TRUE,,,CLR,,,,,,,,VFR,,37.0,28.5,,,,,,,,,METAR,40.0
OPFA 010555Z 31002KT 4000 FU FEW040 SCT100 25/19 Q1009 NOSIG,OPFA,2023-06-01T05:55:00Z,31.37,73.0,25.0,19.0,310,2,,2.49,29.793306,,,,,,TRUE,,,,FU,FEW,4000,SCT,10000,,,,,IFR,,,,,,,,,,,,METAR,180.0
OKAS 010555Z 34017KT 9999 CLR 36/04 A2985 RMK AO2A SLP102 T03630035 10364 20290 52010 FZRANO $,OKAS,2023-06-01T05:55:00Z,29.35,47.52,36.3,3.5,340,17,,6.21,29.84941,1010.2,,,TRUE,TRUE,,,TRUE,,,CLR,,,,,,,,VFR,1.0,36.4,29.0,,,,,,,,,METAR,144.0
OEPS 010555Z 13006KT 9000 HZ CLR 36/12 A2998 RMK AO2A SLP129 WND DATA ESTMD T03570119 10359 20288 52016,OEPS,2023-06-01T05:55:00Z,24.07,47.58,35.7,11.9,130,6,,5.59,29.97933,1012.9,,,TRUE,,,,,,HZ,CLR,,,,,,,,VFR,1.6,35.9,28.8,,,,,,,,,METAR,503.0
LIVT 010555Z 09007KT 010V160 CAVOK 22/13 Q1015 RMK SKC QUK 2 QUL 1 NE VIS MAR 20 KM VIS MIN 9999,LIVT,2023-06-01T05:55:00Z,45.68,13.75,22.0,13.0,90,7,,6.21,29.970472,,,,,,,,,,,CAVOK,,,,,,,,VFR,,,,,,,,,,,,SPECI,20.0
LIVR 010555Z 00000KT 9999 BKN030 08/03 Q1022 RMK BKN MON CLD SCT VIS MIN 9999,LIVR,2023-06-01T05:55:00Z,46.28,11.78,8.0,3.0,0,0,,6.21,30.177166,,,,,,,,,,,BKN,3000,,,,,,,MVFR,,,,,,,,,,,,SPECI,1997.0
LIVP 010555Z 00000KT CAVOK 07/04 Q1022,LIVP,2023-06-01T05:55:00Z,46.15,11.03,7.0,4.0,0,0,,6.21,30.177166,,,,,,,,,,,CAVOK,,,,,,,,VFR,,,,,,,,,,,,METAR,2099.0
LIVO 010555Z 00000KT 9999 FEW030 11/09 Q1019 RMK FEW VIS MIN 9999,LIVO,2023-06-01T05:55:00Z,46.5,13.58,11.0,9.0,0,0,,6.21,30.088583,,,,,,,,,,,FEW,3000,,,,,,,VFR,,,,,,,,,,,,SPECI,782.0
LIVM 010555Z VRB03KT CAVOK 16/13 Q1016 RMK SKC QUK 1 QUL 0 VIS MAR 12 KM VIS MIN 9999,LIVM,2023-06-01T05:55:00Z,44.45,12.3,16.0,13.0,0,3,,6.21,30.0,,,,,,,,,,,CAVOK,,,,,,,,VFR,,,,,,,,,,,,SPECI,6.0
LIVF 010555Z 25002KT 9999 SCT017 15/14 Q1016 RMK SCT MON S W CLD SCT CUF VAL NW NEBBIA SCT DIM ELEV VIS MIN 9999,LIVF,2023-06-01T05:55:00Z,43.52,12.72,15.0,14.0,250,2,,6.21,30.0,,,,,,,,,,,SCT,1700,,,,,,,VFR,,,,,,,,,,,,SPECI,549.0
LIVE 010555Z 01004KT 9999 FEW020 08/07 Q1020 RMK FEW VIS MIN 9999,LIVE,2023-06-01T05:55:00Z,46.82,10.5,8.0,7.0,10,4,,6.21,30.11811,,,,,,,,,,,FEW,2000,,,,,,,VFR,,,,,,,,,,,,SPECI,1684.0
LIVD 010555Z 33002KT 9999 FEW030 14/08 Q1022 RMK FEW VIS MIN 9999,LIVD,2023-06-01T05:55:00Z,46.72,12.22,14.0,8.0,330,2,,6.21,30.177166,,,,,,,,,,,FEW,3000,,,,,,,VFR,,,,,,,,,,,,SPECI,1221.0
LIVC 010555Z AUTO 08010KT //// 04/04 Q1022,LIVC,2023-06-01T05:55:00Z,44.2,10.68,4.0,4.0,80,10,,,30.177166,,,TRUE,,,,,,,,,,,,,,,,,,,,,,,,,,,,SPECI,2139.0
LIRX 010555Z AUTO 36000KT //// ///// Q////,LIRX,2023-06-01T05:55:00Z,42.73,10.38,,,360,0,,,,,,TRUE,,,,,,,,,,,,,,,,,,,,,,,,,,,,SPECI,397.0
LIRV 010555Z 05006KT CAVOK 15/13 Q1015 RMK SCT SCT080 MON E SE LIB NC VIS MIN 9999 WIND THR04 04007KT BLU,LIRV,2023-06-01T05:55:00Z,42.42,12.07,15.0,13.0,50,6,,6.21,29.970472,,,,,,,,,,,CAVOK,,,,,,,,VFR,,,,,,,,,,,,SPECI,294.0
LIRT 010555Z 00000KT 0000 FG VV/// 13/10 Q1017 RMK MON INVIS VAL INVIS VIS MIN 0000,LIRT,2023-06-01T05:55:00Z,41.03,15.22,13.0,10.0,0,0,,0.0,30.029528,,,,,,,,,,FG,OVX,0,,,,,,,LIFR,,,,,,,,,,,,SPECI,1058.0
LIRS 010555Z 04004KT CAVOK 17/15 Q1015 RMK SCT FEW100 SCT200 VIS MIN 9999 WIND THR03 05004KT WIND THR21 02003KT BLU,LIRS,2023-06-01T05:55:00Z,42.75,11.07,17.0,15.0,40,4,,6.21,29.970472,,,,,,,,,,,CAVOK,,,,,,,,VFR,,,,,,,,,,,,METAR,3.0
LIRM 010555Z 36007KT CAVOK 19/14 Q1014 RMK FEW FEW200 VIS MIN 9999 WIND THR06 03006KT BLU,LIRM,2023-06-01T05:55:00Z,41.05,14.07,19.0,14.0,360,7,,6.21,29.940945,,,,,,,,,,,CAVOK,,,,,,,,VFR,,,,,,,,,,,,SPECI,6.0
LIRL 010555Z 34002KT 9999 SCT060 18/15 Q1014 RMK SCT MON LIB NC VIS MIN 9999 WIND THR12 /////KT WIND THR30 35002KT BLU,LIRL,2023-06-01T05:55:00Z,41.53,12.9,18.0,15.0,340,2,,6.21,29.940945,,,,,,,,,,,SCT,6000,,,,,,,VFR,,,,,,,,,,,,SPECI,23.0
LIRK 010555Z AUTO /////KT //// 09/06 Q1022,LIRK,2023-06-01T05:55:00Z,42.47,12.97,9.0,6.0,,,,,30.177166,,,TRUE,,,,,,,,,,,,,,,,,,,,,,,,,,,,SPECI,1721.0
LIRH 010555Z 00000KT CAVOK 13/12 Q1015 RMK SCT SCT060 MON LIB VAR RAPID VIS MIN 9999 WIND THR16 00000KT BLU,LIRH,2023-06-01T05:55:00Z,41.65,13.3,13.0,12.0,0,0,,6.21,29.970472,,,,,,,,,,,CAVOK,,,,,,,,VFR,,,,,,,,,,,,SPECI,183.0
LIRG 010555Z 06002KT CAVOK 15/13 Q1015 RMK OVC SCT080 BKN200 MON NE LIB NC VIS MIN 9999 BLU,LIRG,2023-06-01T05:55:00Z,42.0,12.73,15.0,13.0,60,2,,6.21,29.970472,,,,,,,,,,,CAVOK,,,,,,,,VFR,,,,,,,,,,,,SPECI,82.0
LIRE 010555Z 03006KT 9999 SCT030 18/15 Q1015 RMK BKN BKN080 VIS MIN 9999 WIND THR13 04004KT WIND THR31 /////KT BLU,LIRE,2023-06-01T05:55:00Z,41.65,12.43,18.0,15.0,30,6,,6.21,29.970472,,,,,,,,,,,SCT,3000,,,,,,,VFR,,,,,,,,,,,,METAR,16.0
LIQW 010555Z 33004KT 9999 FEW050 17/15 Q1015 RMK BKN SCT200 VIS MIN 9999 WIND THR14 /////KT BLU,LIQW,2023-06-01T05:55:00Z,44.08,9.98,17.0,15.0,330,4,,6.21,29.970472,,,,,,,,,,,FEW,5000,,,,,,,VFR,,,,,,,,,,,,METAR,6.0
LIQC 010555Z 00000KT CAVOK 19/17 Q1015 RMK SKC QUK 1 QUL 0 VIS MAR 20 KM VIS MIN 9999,LIQC,2023-06-01T05:55:00Z,40.55,14.2,19.0,17.0,0,0,,6.21,29.970472,,,,,,,,,,,CAVOK,,,,,,,,VFR,,,,,,,,,,,,METAR,154.0
LIPS 010555Z 34004KT CAVOK 20/15 Q1016 RMK SKC VIS MIN 9999 WIND THR26 29002KT WIND THR08 33005KT BLU,LIPS,2023-06-01T05:55:00Z,45.68,12.1,20.0,15.0,340,4,,6.21,30.0,,,,,,,,,,,CAVOK,,,,,,,,VFR,,,,,,,,,,,,SPECI,42.0
LIPL 010555Z 32003KT CAVOK 21/18 Q1016 RMK SKC VIS MIN 9999 WIND THR31 /////KT WIND THR13 30002KT BLU,LIPL,2023-06-01T05:55:00Z,45.42,10.27,21.0,18.0,320,3,,6.21,30.0,,,,,,,,,,,CAVOK,,,,,,,,VFR,,,,,,,,,,,,SPECI,96.0
LIPI 010555Z 03004KT 9999 FEW090 19/14 Q1016 RMK FEW VIS MIN 9999 WIND THR06 06005KT WIND THR24 04005KT BLU,LIPI,2023-06-01T05:55:00Z,45.97,13.05,19.0,14.0,30,4,,6.21,30.0,,,,,,,,,,,FEW,9000,,,,,,,VFR,,,,,,,,,,,,METAR,49.0
LIPF 010555Z 00000KT CAVOK 18/16 Q1016 RMK SKC VIS MIN 9999,LIPF,2023-06-01T05:55:00Z,44.82,11.62,18.0,16.0,0,0,,6.21,30.0,,,,,,,,,,,CAVOK,,,,,,,,VFR,,,,,,,,,,,,SPECI,5.0
LIPC 010555Z 25006KT CAVOK 18/15 Q1017 RMK SKC VIS MIN 9999 WIND THR11 30004KT WIND THR29 26005KT BLU,LIPC,2023-06-01T05:55:00Z,44.22,12.3,18.0,15.0,250,6,,6.21,30.029528,,,,,,,,,,,CAVOK,,,,,,,,VFR,,,,,,,,,,,,SPECI,10.0
LIPA 010555Z 18001KT 9999 FEW090 21/16 Q1016 RMK FEW VIS MIN 9999 WIND THR05 00000KT WIND THR23 00000KT A3001 BLU,LIPA,2023-06-01T05:55:00Z,46.02,12.58,21.0,16.0,180,1,,6.21,30.0,,,,,,,,,,,FEW,9000,,,,,,,VFR,,,,,,,,,,,,SPECI,113.0
LIMV 010555Z /////KT 9999 FEW020 15/12 Q1018 RMK BKN BKN060 MON LIB VAL NIL VIS MIN 9999,LIMV,2023-06-01T05:55:00Z,44.55,8.93,15.0,12.0,,,,6.21,30.059055,,,,,,,,,,,FEW,2000,,,,,,,VFR,,,,,,,,,,,,METAR,474.0
LIMU 010555Z 01013KT 9999 FEW035 22/10 Q1016 RMK BKN SCT070 BKN200 QUK 2 QUL 1 E VIS MAR 25 KM VIS MIN 9999,LIMU,2023-06-01T05:55:00Z,43.95,8.17,22.0,10.0,10,13,,6.21,30.0,,,,,,,,,,,FEW,3500,,,,,,,VFR,,,,,,,,,,,,SPECI,215.0
LIMS 010555Z 26004KT CAVOK 17/17 Q1016 RMK SKC VIS MIN 9999 WIND THR30 27003KT BLU,LIMS,2023-06-01T05:55:00Z,44.92,9.72,17.0,17.0,260,4,,6.21,30.0,,,,,,,,,,,CAVOK,,,,,,,,VFR,,,,,,,,,,,,SPECI,132.0
LIMN 010555Z 36006KT CAVOK 18/15 Q1017 RMK SCT SCT080 VIS MIN 9999 BLU,LIMN,2023-06-01T05:55:00Z,45.52,8.67,18.0,15.0,360,6,,6.21,30.029528,,,,,,,,,,,CAVOK,,,,,,,,VFR,,,,,,,,,,,,SPECI,168.0
LIMK 010555Z 01003KT 9999 SCT030 14/14 Q1019,LIMK,2023-06-01T05:55:00Z,45.02,7.72,14.0,14.0,10,3,,6.21,30.088583,,,,,,,,,,,SCT,3000,,,,,,,VFR,,,,,,,,,,,,METAR,693.0
LIED 010555Z 25001KT 9999 FEW025 16/13 Q1014 RMK SCT VIS MIN 9999 WIND THR35 /////KT WIND THR17 24001KT BLU,LIED,2023-06-01T05:55:00Z,39.35,8.97,16.0,13.0,250,1,,6.21,29.940945,,,,,,,,,,,FEW,2500,,,,,,,VFR,,,,,,,,,,,,METAR,26.0
LIEB 010555Z 32007KT 9999 FEW030 16/13 Q1013 RMK BKN SCT070 QUK 2 QUL 0 VIS MAR 30 KM MON W CIME INC NC VIS MIN 9999,LIEB,2023-06-01T05:55:00Z,39.93,9.72,16.0,13.0,320,7,,6.21,29.911417,,,,,,,,,,,FEW,3000,,,,,,,VFR,,,,,,,,,,,,METAR,126.0
LICZ 010555Z 28005KT 8000 FEW020 BKN100 18/16 Q1014 RMK BKN VIS MIN 8000 WIND THR28 29005KT WIND THR10 30005KT A2995 BLU,LICZ,2023-06-01T05:55:00Z,37.4,14.92,18.0,16.0,280,5,,4.97,29.940945,,,,,,,,,,,FEW,2000,BKN,10000,,,,,MVFR,,,,,,,,,,,,METAR,22.0
LICT 010555Z 13003KT CAVOK 19/16 Q1014 RMK SCT SCT200 VIS MIN 9999 WIND THR13 14003KT BLU,LICT,2023-06-01T05:55:00Z,37.92,12.5,19.0,16.0,130,3,,6.21,29.940945,,,,,,,,,,,CAVOK,,,,,,,,VFR,,,,,,,,,,,,METAR,4.0
LICF 010555Z 17002KT CAVOK 20/17 Q1014 RMK SCT SCT080 QUK 1 QUL 0 VIS MAR 20 KM MON LIB VAR RAPID VIS MIN 9999,LICF,2023-06-01T05:55:00Z,38.2,15.55,20.0,17.0,170,2,,6.21,29.940945,,,,,,,,,,,CAVOK,,,,,,,,VFR,,,,,,,,,,,,SPECI,66.0
LIBY 010555Z 02010KT CAVOK 20/18 Q1013 RMK FEW FEW080 QUK 1 QUL 0 VIS MAR 12 KM VIS MIN 9999,LIBY,2023-06-01T05:55:00Z,39.82,18.35,20.0,18.0,20,10,,6.21,29.911417,,,,,,,,,,,CAVOK,,,,,,,,VFR,,,,,,,,,,,,METAR,105.0
LIBQ 010555Z AUTO 09007KT 040V120 //// 11/09 Q1019,LIBQ,2023-06-01T05:55:00Z,39.32,16.38,11.0,9.0,90,7,,,30.088583,,,TRUE,,,,,,,,,,,,,,,,,,,,,,,,,,,,SPECI,1660.0
LIBA 010555Z 30005KT 9999 FEW030 19/17 Q1015 RMK FEW VIS MIN 9999 WIND THR11 30005KT WIND THR29 /////KT BLU,LIBA,2023-06-01T05:55:00Z,41.53,15.72,19.0,17.0,300,5,,6.21,29.970472,,,,,,,,,,,FEW,3000,,,,,,,VFR,,,,,,,,,,,,SPECI,55.0
KXNO 010555Z AUTO 36005KT 10SM FEW038 17/17 A3001 RMK AO2 SLP163 T01720172 10234 20172 57013 $,KXNO,2023-06-01T05:55:00Z,33.62,-81.07,17.2,17.2,360,5,,10.0,30.008858,1016.3,,TRUE,TRUE,TRUE,,,,,,FEW,3800,,,,,,,VFR,-1.3,23.4,17.2,,,,,,,,,METAR,94.0
KXMR 010555Z AUTO 09008KT 10SM BKN140 25/21 A2984 RMK AO2 SLP108 60000 T02490212 10255 20244 57022 $,KXMR,2023-06-01T05:55:00Z,28.47,-80.57,24.9,21.2,90,8,,10.0,29.840551,1010.8,,TRUE,TRUE,TRUE,,,,,,BKN,14000,,,,,,,VFR,-2.2,25.5,24.4,,,,,0.005,,,,METAR,5.0
KXIF 010555Z AUTO 00000KT 10SM CLR 10/06 A3012 RMK AO2 SLP201 T00970060 10203 20097 58004 $,KXIF,2023-06-01T05:55:00Z,,,9.7,6.0,0,0,,10.0,30.121063,1020.1,,TRUE,TRUE,TRUE,,,,,,CLR,,,,,,,,VFR,-0.4,20.3,9.7,,,,,,,,,METAR,
KWRI 010555Z AUTO 01004KT 10SM FEW037 12/12 A3013 RMK AO2 SLP202 T01190117 10186 20119 57003,KWRI,2023-06-01T05:55:00Z,40.02,-74.58,11.9,11.7,10,4,,10.0,30.129921,1020.2,,TRUE,TRUE,,,,,,,FEW,3700,,,,,,,VFR,-0.3,18.6,11.9,,,,,,,,,METAR,35.0
KWRB 010555Z AUTO 00000KT 10SM CLR 19/18 A3000 RMK AO2 SLP159 T01880178 10253 20183 58008,KWRB,2023-06-01T05:55:00Z,32.63,-83.58,18.8,17.8,0,0,,10.0,30.0,1015.9,,TRUE,TRUE,,,,,,,CLR,,,,,,,,VFR,-0.8,25.3,18.3,,,,,,,,,METAR,82.0
KW99 010555Z AUTO 00000KT 10SM CLR 10/09 A3015 RMK AO2,KW99,2023-06-01T05:55:00Z,39.0,-79.15,10.0,9.0,0,0,,10.0,30.15059,,,TRUE,TRUE,,,,,,,CLR,,,,,,,,VFR,,,,,,,,,,,,SPECI,288.0
KVPS 010555Z AUTO 07005KT 10SM OVC100 22/19 A2992 RMK AO2 SLP138 60000 T02240186 10245 20223 403020179 58008 $,KVPS,2023-06-01T05:55:00Z,30.47,-86.52,22.4,18.6,70,5,,10.0,29.920275,1013.8,,TRUE,TRUE,TRUE,,,,,,OVC,10000,,,,,,,VFR,-0.8,24.5,22.3,30.2,17.9,,,0.005,,,,METAR,21.0
KVOK 010555Z AUTO 13004KT 10SM FEW080 16/14 A2997 RMK AO2 SLP147 T01620142 10296 20150 403180090 52007,KVOK,2023-06-01T05:55:00Z,43.93,-90.27,16.2,14.2,130,4,,10.0,29.970472,1014.7,,TRUE,TRUE,,,,,,,FEW,8000,,,,,,,VFR,0.7,29.6,15.0,31.8,9.0,,,,,,,METAR,278.0
KVAD 010555Z AUTO 07003KT 10SM BKN110 OVC140 20/19 A2996 RMK AO2 SLP146 60001 T02040185 10227 20203 57008 $,KVAD,2023-06-01T05:55:00Z,30.97,-83.2,20.4,18.5,70,3,,10.0,29.958662,1014.6,,TRUE,TRUE,TRUE,,,,,,BKN,11000,OVC,14000,,,,,VFR,-0.8,22.7,20.3,,,,,0.01,,,,METAR,70.0
KTIK 010555Z AUTO 16005KT 10SM CLR 21/18 A2987 RMK AO2 SLP109 60000 T02140178 10266 20211 403000184 50004 $,KTIK,2023-06-01T05:55:00Z,35.4,-97.38,21.4,17.8,160,5,,10.0,29.870079,1010.9,,TRUE,TRUE,TRUE,,,,,,CLR,,,,,,,,VFR,0.4,26.6,21.1,30.0,18.4,,,0.005,,,,METAR,387.0
KTCM 010555Z AUTO 30007KT 10SM BKN060 OVC075 14/06 A3006 RMK AO2 SLP183 T01370056 10184 20137 51007 $,KTCM,2023-06-01T05:55:00Z,47.13,-122.47,13.7,5.6,300,7,,10.0,30.059055,1018.3,,TRUE,TRUE,TRUE,,,,,,BKN,6000,OVC,7500,,,,,VFR,0.7,18.4,13.7,,,,,,,,,METAR,87.0
KTBN 010555Z AUTO 13003KT 9SM CLR 19/18 A2997 RMK AO2 SLP141 T01870175 10247 20182 402920162 50005 $,KTBN,2023-06-01T05:55:00Z,37.73,-92.13,18.7,17.5,130,3,,9.0,29.970472,1014.1,,TRUE,TRUE,TRUE,,,,,,CLR,,,,,,,,VFR,0.5,24.7,18.2,29.2,16.2,,,,,,,METAR,349.0
KT70 010555Z AUTO 12014KT 1/8SM HZ CLR 25/20 A2980 RMK AO2 SLP078 T02470199 10308 20247 403190201 58001 RVRNO $,KT70,2023-06-01T05:55:00Z,29.12,-100.48,24.7,19.9,120,14,,0.13,29.799213,1007.8,,TRUE,TRUE,TRUE,,,,,HZ,CLR,,,,,,,,LIFR,-0.1,30.8,24.7,31.9,20.1,,,,,,,METAR,296.0
KSZL 010555Z 17005KT 10SM SCT100 20/20 A2994 RMK AO2A SLP136 60002 T01970195 10258 20197 402930155 50008 $,KSZL,2023-06-01T05:55:00Z,38.73,-93.53,19.7,19.5,170,5,,10.0,29.940945,1013.6,,,TRUE,TRUE,,,,,,SCT,10000,,,,,,,VFR,0.8,25.8,19.7,29.3,15.5,,,0.02,,,,METAR,259.0
KSXS 010555Z AUTO 06004KT 10SM SCT095 20/19 A2994 RMK AO2 SLP137 T01960191 10218 20195 403000170 58008,KSXS,2023-06-01T05:55:00Z,31.37,-85.85,19.6,19.1,60,4,,10.0,29.940945,1013.7,,TRUE,TRUE,,,,,,,SCT,9500,,,,,,,VFR,-0.8,21.8,19.5,30.0,17.0,,,,,,,METAR,120.0
KSVN 010555Z AUTO 07006KT 10SM BKN150 20/16 A2996 RMK AO2 SLP148 T02040164 10221 20204 57015 $,KSVN,2023-06-01T05:55:00Z,32.02,-81.12,20.4,16.4,70,6,,10.0,29.958662,1014.8,,TRUE,TRUE,TRUE,,,,,,BKN,15000,,,,,,,VFR,-1.5,22.1,20.4,,,,,,,,,METAR,13.0
KSUU 010555Z AUTO 23018KT 10SM CLR 13/09 A2979 RMK AO2 SLP094 T01310086 10233 20131 52008,KSUU,2023-06-01T05:55:00Z,38.27,-121.93,13.1,8.6,230,18,,10.0,29.790354,1009.4,,TRUE,TRUE,,,,,,,CLR,,,,,,,,VFR,0.8,23.3,13.1,,,,,,,,,METAR,9.0
KSSC 010555Z AUTO 06005KT 10SM FEW036 BKN047 19/17 A3002 RMK AO2 SLP166 T01860167 10242 20181 57009 $,KSSC,2023-06-01T05:55:00Z,33.97,-80.47,18.6,16.7,60,5,,10.0,30.02067,1016.6,,TRUE,TRUE,TRUE,,,,,,FEW,3600,BKN,4700,,,,,VFR,-0.9,24.2,18.1,,,,,,,,,METAR,71.0
KSLI 010555Z AUTO 18003KT 10SM OVC043 15/13 A2989 RMK AO2 SLP125 T01480125 10166 20148 52004 $,KSLI,2023-06-01T05:55:00Z,33.78,-118.03,14.8,12.5,180,3,,10.0,29.890747,1012.5,,TRUE,TRUE,TRUE,,,,,,OVC,4300,,,,,,,VFR,0.4,16.6,14.8,,,,,,,,,METAR,8.0
KSKF 010555Z AUTO 13009KT 10SM CLR 23/22 A2983 RMK AO2 SLP094 T02310217 10297 20231 403060192 58002,KSKF,2023-06-01T05:55:00Z,29.38,-98.57,23.1,21.7,130,9,,10.0,29.828741,1009.4,,TRUE,TRUE,,,,,,,CLR,,,,,,,,VFR,-0.2,29.7,23.1,30.6,19.2,,,,,,,METAR,214.0
KSKA 010555Z AUTO 18007KT 10SM CLR 12/02 A2985 RMK AO2 SLP102 T01240017 10214 20124 52013 $,KSKA,2023-06-01T05:55:00Z,47.62,-117.67,12.4,1.7,180,7,,10.0,29.84941,1010.2,,TRUE,TRUE,TRUE,,,,,,CLR,,,,,,,,VFR,1.3,21.4,12.4,,,,,,,,,METAR,754.0
KSHM 010555Z AUTO 35006KT 10SM BKN210 BKN240 13/06 A2993 RMK AO2 SLP067 T01300059 10209 20129 56004 $,KSHM,2023-06-01T05:55:00Z,38.8,-104.52,13.0,5.9,350,6,,10.0,29.929134,1006.7,,TRUE,TRUE,TRUE,,,,,,BKN,21000,BKN,24000,,,,,VFR,-0.4,20.9,12.9,,,,,,,,,METAR,1900.0
KSEQ 010555Z AUTO 09004KT 10SM CLR 21/21 A2984 RMK AO2 SLP101 T02130209 10289 20213 403120187 58001,KSEQ,2023-06-01T05:55:00Z,29.57,-97.9,21.3,20.9,90,4,,10.0,29.840551,1010.1,,TRUE,TRUE,,,,,,,CLR,,,,,,,,VFR,-0.1,28.9,21.3,31.2,18.7,,,,,,,METAR,160.0
KSCK 010555Z AUTO 28010KT 10SM CLR 15/08 A2981 RMK AO2 SLP095 T01500078 10272 20150 51009,KSCK,2023-06-01T05:55:00Z,37.88,-121.22,15.0,7.8,280,10,,10.0,29.811024,1009.5,,TRUE,TRUE,,,,,,,CLR,,,,,,,,VFR,0.9,27.2,15.0,,,,,,,,,METAR,8.0
KRYM 010555Z AUTO 00000KT 10SM SCT210 18/16 A2988 RMK AO2 SLP116 60002 T01800160 10285 20178 403210159 52013 $,KRYM,2023-06-01T05:55:00Z,46.08,-94.37,18.0,16.0,0,0,,10.0,29.878937,1011.6,,TRUE,TRUE,TRUE,,,,,,SCT,21000,,,,,,,VFR,1.3,28.5,17.8,32.1,15.9,,,0.02,,,,METAR,344.0
KRNO 010555Z 36005KT 10SM SCT080 17/08 A2992 RMK AO2 SLP088 60000 T01670078 10233 20161 51023 $,KRNO,2023-06-01T05:55:00Z,39.5,-119.77,16.7,7.8,360,5,,10.0,29.920275,1008.8,,,TRUE,TRUE,,,,,,SCT,8000,,,,,,,VFR,2.3,23.3,16.1,,,,,0.005,,,,METAR,1344.0
KRND 010555Z AUTO 14006KT 10SM CLR 22/22 A2984 RMK AO2 SLP097 T02170215 10289 20217 403110188 58003 TSNO $,KRND,2023-06-01T05:55:00Z,29.53,-98.27,21.7,21.5,140,6,,10.0,29.840551,1009.7,,TRUE,TRUE,TRUE,,TRUE,,,,CLR,,,,,,,,VFR,-0.3,28.9,21.7,31.1,18.8,,,,,,,METAR,224.0
KRIV 010555Z 33004KT 10SM SCT012 BKN022 BKN029 14/11 A2992 RMK AO2A SLP126 T01360108 10156 20136 52006,KRIV,2023-06-01T05:55:00Z,33.87,-117.23,13.6,10.8,330,4,,10.0,29.920275,1012.6,,,TRUE,,,,,,,SCT,1200,BKN,2200,BKN,2900,,,MVFR,0.6,15.6,13.6,,,,,,,,,SPECI,454.0
KRDR 010555Z AUTO 00000KT 10SM CLR 18/17 A2982 RMK AO2 SLP099 60000 T01760171 10298 20176 403070111 50006 $,KRDR,2023-06-01T05:55:00Z,47.93,-97.4,17.6,17.1,0,0,,10.0,29.819881,1009.9,,TRUE,TRUE,TRUE,,,,,,CLR,,,,,,,,VFR,0.6,29.8,17.6,30.7,11.1,,,0.005,,,,METAR,276.0
KRCA 010555Z AUTO 23004KT 10SM CLR 17/11 A2980 RMK AO2 SLP071 T01730107 10256 20163 58001 $,KRCA,2023-06-01T05:55:00Z,44.15,-103.12,17.3,10.7,230,4,,10.0,29.799213,1007.1,,TRUE,TRUE,TRUE,,,,,,CLR,,,,,,,,VFR,-0.1,25.6,16.3,,,,,,,,,METAR,993.0
KQVF 010555Z AUTO 17009G16KT 130V220 9999 FEW017 SCT025 BKN044 28/24 A3001 RMK AO2 SLP165 WND DATA ESTMD 60008 T02830241 10285 20238 52016,KQVF,2023-06-01T05:55:00Z,,,28.3,24.1,170,9,16,6.21,30.008858,1016.5,,TRUE,TRUE,,,,,,,FEW,1700,SCT,2500,BKN,4400,,,VFR,1.6,28.5,23.8,,,,,0.08,,,,METAR,
KQTZ 010555Z 25003KT 9999 SKC 31/08 A2987 RMK SLP115 53008,KQTZ,2023-06-01T05:55:00Z,,,31.0,8.0,250,3,,6.21,29.870079,1011.5,,,,,,,,,,SKC,,,,,,,,VFR,0.8,,,,,,,,,,,SPECI,
KQRH 010555Z AUTO VRB03KT 9999 CLR 38/19 A2975 RMK AO2 SLP077 WND DATA ESTMD T03800189 10384 20311 52013,KQRH,2023-06-01T05:55:00Z,,,38.0,18.9,0,3,,6.21,29.749016,1007.7,,TRUE,TRUE,,,,,,,CLR,,,,,,,,VFR,1.3,38.4,31.1,,,,,,,,,METAR,
KQOA 010555Z AUTO 14004KT 9999 FEW029 BKN036 BKN055 OVC140 25/24 A2992 RMK AO2 SLP087 T02470236 10274 20246 403010215 50002 PNO FZRANO TSNO $,KQOA,2023-06-01T05:55:00Z,,,24.7,23.6,140,4,,6.21,29.920275,1008.7,,TRUE,TRUE,TRUE,,TRUE,TRUE,,,FEW,2900,BKN,3600,BKN,5500,OVC,14000,VFR,0.2,27.4,24.6,30.1,21.5,,,,,,,METAR,
KQN3 010555Z 21010KT 9999 SCT100 OVC200 32/23 A2987 RMK AO2A SLP094 T03200226 53018,KQN3,2023-06-01T05:55:00Z,,,32.0,22.6,210,10,,6.21,29.870079,1009.4,,,TRUE,,,,,,,SCT,10000,OVC,20000,,,,,VFR,1.8,,,,,,,,,,,METAR,
KQHY 010555Z AUTO 00000KT 10SM BKN085 23/19 A2992 RMK AO2 SLP138 60000 T02270190 10249 20227 403100195 58009,KQHY,2023-06-01T05:55:00Z,,,22.7,19.0,0,0,,10.0,29.920275,1013.8,,TRUE,TRUE,,,,,,,BKN,8500,,,,,,,VFR,-0.9,24.9,22.7,31.0,19.5,,,0.005,,,,METAR,
KQDG 010555Z AUTO 15010G16KT 9999 FEW210 19/11 A2976 RMK AO2 SLPNO T01870108 10263 20187 57019 $,KQDG,2023-06-01T05:55:00Z,,,18.7,10.8,150,10,16,6.21,29.760826,,,TRUE,TRUE,TRUE,,,,,,FEW,21000,,,,,,,VFR,-1.9,26.3,18.7,,,,,,,,,METAR,
KQD3 010555Z AUTO VRB06KT 9999 CLR 37/19 A2980 RMK AO2 SLP075 WND DATA ESTMD T03720191 10377 20308 52013,KQD3,2023-06-01T05:55:00Z,,,37.2,19.1,0,6,,6.21,29.799213,1007.5,,TRUE,TRUE,,,,,,,CLR,,,,,,,,VFR,1.3,37.7,30.8,,,,,,,,,METAR,
KQBL 010555Z AUTO VRB01KT 10SM FEW080 23/19 A2994 RMK AO2 SLP136 WND DATA ESTMD T02260192 10248 20228 58008,KQBL,2023-06-01T05:55:00Z,,,22.6,19.2,0,1,,10.0,29.940945,1013.6,,TRUE,TRUE,,,,,,,FEW,8000,,,,,,,VFR,-0.8,24.8,22.8,,,,,,,,,METAR,
KQAZ 010555Z AUTO 00000KT 9999 CLR 29/02 A2982 RMK AO2 SLP089 WND DATA ESTMD T02930015 10358 20290,KQAZ,2023-06-01T05:55:00Z,,,29.3,1.5,0,0,,6.21,29.819881,1008.9,,TRUE,TRUE,,,,,,,CLR,,,,,,,,VFR,,35.8,29.0,,,,,,,,,METAR,
KPSM 010555Z 24005KT 10SM CLR 14/11 A3008 RMK AO2A SLP188 T01370107 10181 20137 57007,KPSM,2023-06-01T05:55:00Z,43.08,-70.82,13.7,10.7,240,5,,10.0,30.079725,1018.8,,,TRUE,,,,,,,CLR,,,,,,,,VFR,-0.7,18.1,13.7,,,,,,,,,SPECI,34.0
KPOE 010555Z AUTO 34003KT 9SM CLR 21/20 A2989 RMK AO2 SLP121 T02050203 10281 20204 403090189 50006,KPOE,2023-06-01T05:55:00Z,31.05,-93.2,20.5,20.3,340,3,,9.0,29.890747,1012.1,,TRUE,TRUE,,,,,,,CLR,,,,,,,,VFR,0.6,28.1,20.4,30.9,18.9,,,,,,,METAR,98.0
KPOB 010555Z AUTO 00000KT 10SM CLR 18/18 A3004 RMK AO2 SLP174 T01810179 10235 20178 57012 $,KPOB,2023-06-01T05:55:00Z,35.17,-79.02,18.1,17.9,0,0,,10.0,30.041338,1017.4,,TRUE,TRUE,TRUE,,,,,,CLR,,,,,,,,VFR,-1.2,23.5,17.8,,,,,,,,,METAR,57.0
KPHP 010555Z AUTO 14005KT 10SM CLR 21/15 A2980 RMK AO2 SLP073 T02060150 10289 20194 51010,KPHP,2023-06-01T05:55:00Z,44.05,-101.6,20.6,15.0,140,5,,10.0,29.799213,1007.3,,TRUE,TRUE,,,,,,,CLR,,,,,,,,VFR,1.0,28.9,19.4,,,,,,,,,METAR,673.0
KPAM 010555Z AUTO 07003KT 10SM CLR 21/20 A2991 RMK AO2 RAB16E22 SLP132 P0001 60003 T02120198 10229 20211 402670205 57009 $,KPAM,2023-06-01T05:55:00Z,30.07,-85.57,21.2,19.8,70,3,,10.0,29.911417,1013.2,,TRUE,TRUE,TRUE,,,,,,CLR,,,,,,,,VFR,-0.9,22.9,21.1,26.7,20.5,0.01,,0.03,,,,METAR,4.0
KP58 010555Z AUTO 00000KT 16/13 A3010 RMK AO1 SLP187 T01610133 10261 20161 53007,KP58,2023-06-01T05:55:00Z,44.02,-82.8,16.1,13.3,0,0,,,30.100393,1018.7,,TRUE,TRUE,,,,,,,,,,,,,,,,0.7,26.1,16.1,,,,,,,,,SPECI,180.0
KOFF 010555Z 11005KT 10SM CLR 21/17 A2991 RMK AO2A SLP125 T02110167 $,KOFF,2023-06-01T05:55:00Z,41.12,-95.92,21.1,16.7,110,5,,10.0,29.911417,1012.5,,,TRUE,TRUE,,,,,,CLR,,,,,,,,VFR,,,,,,,,,,,,METAR,308.0
KNTD 010555Z 28005KT 7SM FEW022 OVC040 16/13 A2992 RMK AO2 SLP131 T01560133 10172 20156 50005 VISNO S $,KNTD,2023-06-01T05:55:00Z,34.12,-119.12,15.6,13.3,280,5,,7.0,29.920275,1013.1,,,TRUE,TRUE,,,,,,FEW,2200,OVC,4000,,,,,VFR,0.5,17.2,15.6,,,,,,,,,METAR,1.0
KNBG 010555Z AUTO 00000KT 10SM CLR 20/19 A2989 RMK AO2 SLP120 60000 T02000194 10283 20194 403110178 58005 $,KNBG,2023-06-01T05:55:00Z,29.83,-90.02,20.0,19.4,0,0,,10.0,29.890747,1012.0,,TRUE,TRUE,TRUE,,,,,,CLR,,,,,,,,VFR,-0.5,28.3,19.4,31.1,17.8,,,0.005,,,,METAR,0.0
KMXF 010555Z AUTO 06005KT 10SM OVC090 22/16 A2995 RMK AO2 SLP143 60000 T02160163 10276 20211 402940177 58003,KMXF,2023-06-01T05:55:00Z,32.38,-86.37,21.6,16.3,60,5,,10.0,29.949802,1014.3,,TRUE,TRUE,,,,,,,OVC,9000,,,,,,,VFR,-0.3,27.6,21.1,29.4,17.7,,,0.005,,,,METAR,47.0
KMUO 010555Z AUTO 29006KT 10SM BKN130 13/13 A2982 RMK AO2 SLP080 60000 T01330128 10177 20133 50009 $,KMUO,2023-06-01T05:55:00Z,43.03,-115.87,13.3,12.8,290,6,,10.0,29.819881,1008.0,,TRUE,TRUE,TRUE,,,,,,BKN,13000,,,,,,,VFR,0.9,17.7,13.3,,,,,0.005,,,,METAR,915.0
KMUI 010555Z AUTO 05003KT 10SM CLR 10/05 A3013 RMK AO2 SLP204 T01040054 10246 20102 52002 TSNO $,KMUI,2023-06-01T05:55:00Z,40.43,-76.57,10.4,5.4,50,3,,10.0,30.129921,1020.4,,TRUE,TRUE,TRUE,,TRUE,,,,CLR,,,,,,,,VFR,0.2,24.6,10.2,,,,,,,,,METAR,146.0
KMTC 010555Z AUTO 00000KT 10SM CLR 15/12 A3006 RMK AO2 SLP182 T01530122 10252 20153 55000 $,KMTC,2023-06-01T05:55:00Z,42.62,-82.83,15.3,12.2,0,0,,10.0,30.059055,1018.2,,TRUE,TRUE,TRUE,,,,,,CLR,,,,,,,,VFR,0.0,25.2,15.3,,,,,,,,,METAR,177.0
KMMT 010555Z AUTO 00000KT 10SM CLR 18/17 A3001 RMK AO2 SLP164 T01790167 10230 20160 57011 $,KMMT,2023-06-01T05:55:00Z,33.92,-80.8,17.9,16.7,0,0,,10.0,30.008858,1016.4,,TRUE,TRUE,TRUE,,,,,,CLR,,,,,,,,VFR,-1.1,23.0,16.0,,,,,,,,,METAR,76.0
KMKG 010555Z AUTO 10006KT 10SM CLR 22/15 A3004 RMK AO2 SLP167 T02170150 10311 20217 51004,KMKG,2023-06-01T05:55:00Z,43.17,-86.23,21.7,15.0,100,6,,10.0,30.041338,1016.7,,TRUE,TRUE,,,,,,,CLR,,,,,,,,VFR,0.4,31.1,21.7,,,,,,,,,METAR,190.0
KMIB 010555Z 16007KT 10SM BKN100 17/15 A2984 RMK AO2A SLP104 T01660153 10236 20166 402750122 52006 $,KMIB,2023-06-01T05:55:00Z,48.42,-101.35,16.6,15.3,160,7,,10.0,29.840551,1010.4,,,TRUE,TRUE,,,,,,BKN,10000,,,,,,,VFR,0.6,23.6,16.6,27.5,12.2,,,,,,,METAR,505.0
KMGE 010555Z AUTO 08003KT 10SM CLR 18/16 A3004 RMK AO2 SLP167 T01840160 10230 20182 57006 $,KMGE,2023-06-01T05:55:00Z,33.92,-84.52,18.4,16.0,80,3,,10.0,30.041338,1016.7,,TRUE,TRUE,TRUE,,,,,,CLR,,,,,,,,VFR,-0.6,23.0,18.2,,,,,,,,,METAR,309.0
KLUF 010555Z AUTO 24007KT 10SM CLR 25/01 A2972 RMK AO2 SLP051 T02470009 10305 20241 51010 $,KLUF,2023-06-01T05:55:00Z,33.53,-112.37,24.7,0.9,240,7,,10.0,29.719488,1005.1,,TRUE,TRUE,TRUE,,,,,,CLR,,,,,,,,VFR,1.0,30.5,24.1,,,,,,,,,METAR,333.0
KLTS 010555Z 11009KT 10SM CLR 22/18 A2983 RMK AO2A SLP086 T02240177 10303 20223 403230183 50001 $,KLTS,2023-06-01T05:55:00Z,34.67,-99.27,22.4,17.7,110,9,,10.0,29.828741,1008.6,,,TRUE,TRUE,,,,,,CLR,,,,,,,,VFR,0.1,30.3,22.3,32.3,18.3,,,,,,,SPECI,416.0
KLSV 010555Z AUTO 10012KT 10SM CLR 26/00 A2965 RMK AO2 SLP017 T02580004 10320 20258 52013 $,KLSV,2023-06-01T05:55:00Z,36.23,-115.05,25.8,0.4,100,12,,10.0,29.648623,1001.7,,TRUE,TRUE,TRUE,,,,,,CLR,,,,,,,,VFR,1.3,32.0,25.8,,,,,,,,,METAR,563.0
KLSF 010555Z AUTO 01003KT 10SM CLR 20/19 A2997 RMK AO2 SLP152 60001 T02040190 10241 20201 57012 $,KLSF,2023-06-01T05:55:00Z,32.32,-84.97,20.4,19.0,10,3,,10.0,29.970472,1015.2,,TRUE,TRUE,TRUE,,,,,,CLR,,,,,,,,VFR,-1.2,24.1,20.1,,,,,0.01,,,,METAR,68.0
KLRF 010555Z AUTO 00000KT 10SM CLR 20/18 A2993 RMK AO2 SLP135 T01980176 10307 20198 403210155 51012,KLRF,2023-06-01T05:55:00Z,34.92,-92.12,19.8,17.6,0,0,,10.0,29.929134,1013.5,,TRUE,TRUE,,,,,,,CLR,,,,,,,,VFR,1.2,30.7,19.8,32.1,15.5,,,,,,,SPECI,85.0
KLOR 010555Z AUTO 00000KT 9SM OVC095 20/19 A2995 RMK AO2 SLP124 T01970187 10220 20196 402980151 58008 $,KLOR,2023-06-01T05:55:00Z,31.35,-85.75,19.7,18.7,0,0,,9.0,29.949802,1012.4,,TRUE,TRUE,TRUE,,,,,,OVC,9500,,,,,,,VFR,-0.8,22.0,19.6,29.8,15.1,,,,,,,METAR,92.0
KLLJ 010555Z AUTO 32003KT 10SM OVC100 11/09 A2993 RMK AO2 RAE19 SLP093 P0000 60016 T01110089 10183 20106 50007,KLLJ,2023-06-01T05:55:00Z,44.52,-114.22,11.1,8.9,320,3,,10.0,29.929134,1009.3,,TRUE,TRUE,,,,,,,OVC,10000,,,,,,,VFR,0.7,18.3,10.6,,,0.005,,0.16,,,,METAR,1535.0
KLIC 010555Z AUTO 32004KT 10SM CLR 12/10 A2993 RMK AO2 SLP067 T01220100 10206 20122 51004,KLIC,2023-06-01T05:55:00Z,39.27,-103.67,12.2,10.0,320,4,,10.0,29.929134,1006.7,,TRUE,TRUE,,,,,,,CLR,,,,,,,,VFR,0.4,20.6,12.2,,,,,,,,,METAR,1635.0
KLHW 010555Z AUTO 00000KT 6SM BR BKN140 20/18 A2996 RMK AO2 SLP148 T01950181 10227 20193 57014 $,KLHW,2023-06-01T05:55:00Z,31.88,-81.57,19.5,18.1,0,0,,6.0,29.958662,1014.8,,TRUE,TRUE,TRUE,,,,,BR,BKN,14000,,,,,,,VFR,-1.4,22.7,19.3,,,,,,,,,METAR,14.0
KLGF 010555Z AUTO 23010KT M M CLR 23/07 A2973 RMK AO2 SLPNO T02330074 10306 20233 52019 RVRNO PWINO TSNO $,KLGF,2023-06-01T05:55:00Z,32.87,-114.4,23.3,7.4,230,10,,,29.731298,,,TRUE,TRUE,TRUE,,TRUE,,TRUE,,CLR,,,,,,,,,1.9,30.6,23.3,,,,,,,,,METAR,118.0
KLFI 010555Z AUTO 04006KT 10SM OVC014 19/19 A3004 RMK AO2 SLP179 T01890187 10205 20189 57012 $,KLFI,2023-06-01T05:55:00Z,37.08,-76.33,18.9,18.7,40,6,,10.0,30.041338,1017.9,,TRUE,TRUE,TRUE,,,,,,OVC,1400,,,,,,,MVFR,-1.2,20.5,18.9,,,,,,,,,METAR,2.0
KLCK 010555Z AUTO 04004KT 10SM CLR 19/15 A3007 RMK AO2 T01860148 10272 20177 403000157,KLCK,2023-06-01T05:55:00Z,39.82,-82.92,18.6,14.8,40,4,,10.0,30.070866,,,TRUE,TRUE,,,,,,,CLR,,,,,,,,VFR,,27.2,17.7,30.0,15.7,,,,,,,METAR,225.0
KIRK 010555Z AUTO 19004KT 10SM OVC110 21/17 A2997 RMK AO2 SLP143 T02110172 10267 20206 402940144 51007,KIRK,2023-06-01T05:55:00Z,40.1,-92.55,21.1,17.2,190,4,,10.0,29.970472,1014.3,,TRUE,TRUE,,,,,,,OVC,11000,,,,,,,VFR,0.7,26.7,20.6,29.4,14.4,,,,,,,METAR,292.0
KINS 010555Z AUTO 06004KT 10SM SCT160 21/M04 A2974 RMK AO2 SLP026 T02081044 10282 20207 52010 $,KINS,2023-06-01T05:55:00Z,36.58,-115.68,20.8,-4.4,60,4,,10.0,29.740158,1002.6,,TRUE,TRUE,TRUE,,,,,,SCT,16000,,,,,,,VFR,1.0,28.2,20.7,,,,,,,,,METAR,954.0
KIAB 010555Z AUTO 18008KT 10SM BKN080 22/16 A2986 RMK AO2 SLP101 T02200158 10298 20218 403060192 50006 $,KIAB,2023-06-01T05:55:00Z,37.62,-97.27,22.0,15.8,180,8,,10.0,29.861221,1010.1,,TRUE,TRUE,TRUE,,,,,,BKN,8000,,,,,,,VFR,0.6,29.8,21.8,30.6,19.2,,,,,,,METAR,413.0
KHUA 010555Z AUTO 16005KT 10SM CLR 21/18 A3001 RMK AO2 SLP157 T02110179 10249 20198 50002,KHUA,2023-06-01T05:55:00Z,34.68,-86.68,21.1,17.9,160,5,,10.0,30.008858,1015.7,,TRUE,TRUE,,,,,,,CLR,,,,,,,,VFR,0.2,24.9,19.8,,,,,,,,,METAR,200.0
KHRT 010555Z 08007KT 10SM SCT085 22/18 A2990 RMK AO2A SLP127 60000 T02220184 10240 20222 403020171 58009,KHRT,2023-06-01T05:55:00Z,30.42,-86.68,22.2,18.4,80,7,,10.0,29.899607,1012.7,,,TRUE,,,,,,,SCT,8500,,,,,,,VFR,-0.9,24.0,22.2,30.2,17.1,,,,,,,SPECI,10.0
KHOP 010555Z AUTO 00000KT 10SM BKN130 22/21 A2999 RMK AO2 SLP153 T02150211 10273 20214 402910172 58002,KHOP,2023-06-01T05:55:00Z,36.67,-87.5,21.5,21.1,0,0,,10.0,29.991142,1015.3,,TRUE,TRUE,,,,,,,BKN,13000,,,,,,,VFR,-0.2,27.3,21.4,29.1,17.2,,,,,,,METAR,170.0
KHON 010555Z AUTO 15004KT 10SM CLR 22/14 A2981 RMK AO2 SLP084 T02170144 10306 20206 403220161 51006,KHON,2023-06-01T05:55:00Z,44.38,-98.23,21.7,14.4,150,4,,10.0,29.811024,1008.4,,TRUE,TRUE,,,,,,,CLR,,,,,,,,VFR,0.6,30.6,20.6,32.2,16.1,,,,,,,METAR,391.0
KHMN 010555Z AUTO 00000KT 10SM SCT160 23/M06 A2982 RMK AO2 SLP023 T02311059 10325 20214 52011 $,KHMN,2023-06-01T05:55:00Z,32.85,-106.1,23.1,-5.9,0,0,,10.0,29.819881,1002.3,,TRUE,TRUE,TRUE,,,,,,SCT,16000,,,,,,,VFR,1.1,32.5,21.4,,,,,,,,,METAR,1240.0
KHLR 010555Z AUTO 14006KT 10SM CLR 23/19 A2987 RMK AO2 SLP104 T02280185 10299 20228 403130191 58000,KHLR,2023-06-01T05:55:00Z,31.13,-97.72,22.8,18.5,140,6,,10.0,29.870079,1010.4,,TRUE,TRUE,,,,,,,CLR,,,,,,,,VFR,0.0,29.9,22.8,31.3,19.1,,,,,,,METAR,271.0
KHIF 010555Z 14003KT 10SM BKN100 OVC120 18/06 A2980 RMK AO2A SLP034 T01760058 10222 20175 52010,KHIF,2023-06-01T05:55:00Z,41.12,-111.97,17.6,5.8,140,3,,10.0,29.799213,1003.4,,,TRUE,,,,,,,BKN,10000,OVC,12000,,,,,VFR,1.0,22.2,17.5,,,,,,,,,METAR,1461.0
KHFF 010555Z AUTO 00000KT 10SM FEW036 17/17 A3003 RMK AO2 SLP170 T01720170 10238 20171 57011 $,KHFF,2023-06-01T05:55:00Z,35.03,-79.5,17.2,17.0,0,0,,10.0,30.029528,1017.0,,TRUE,TRUE,TRUE,,,,,,FEW,3600,,,,,,,VFR,-1.1,23.8,17.1,,,,,,,,,METAR,100.0
KGXF 010555Z AUTO 21006KT 10SM CLR 23/03 A2975 RMK AO2 SLP063 T02300025 10312 20230 52014 FZRANO $,KGXF,2023-06-01T05:55:00Z,32.88,-112.72,23.0,2.5,210,6,,10.0,29.749016,1006.3,,TRUE,TRUE,TRUE,,,TRUE,,,CLR,,,,,,,,VFR,1.4,31.2,23.0,,,,,,,,,METAR,261.0
KGXA 010555Z AUTO 26011KT 10SM CLR 17/07 A2982 RMK AO2 SLP073 WND DATA ESTMD T01700071 10233 20170 51008,KGXA,2023-06-01T05:55:00Z,34.57,-117.67,17.0,7.1,260,11,,10.0,29.819881,1007.3,,TRUE,TRUE,,,,,,,CLR,,,,,,,,VFR,0.8,23.3,17.0,,,,,,,,,METAR,927.0
KGUS 010555Z AUTO 11005KT 10SM CLR 20/16 A3002 RMK AO2 SLP163 T02040160 10258 20188 53001 $,KGUS,2023-06-01T05:55:00Z,40.63,-86.15,20.4,16.0,110,5,,10.0,30.02067,1016.3,,TRUE,TRUE,TRUE,,,,,,CLR,,,,,,,,VFR,0.1,25.8,18.8,,,,,,,,,METAR,245.0
KGUR 010555Z AUTO 08005KT 10SM BKN140 BKN160 OVC180 14/11 A2991 RMK AO2 SLP109 60000 T01410105 10215 20140 53010,KGUR,2023-06-01T05:55:00Z,42.25,-104.72,14.1,10.5,80,5,,10.0,29.911417,1010.9,,TRUE,TRUE,,,,,,,BKN,14000,BKN,16000,OVC,18000,,,VFR,1.0,21.5,14.0,,,,,0.005,,,,METAR,1341.0
KGTB 010555Z AUTO 16004KT 10SM CLR 17/12 A3008 RMK AO2 SLP183 T01740123 10259 20155 52001 $,KGTB,2023-06-01T05:55:00Z,44.07,-75.72,17.4,12.3,160,4,,10.0,30.079725,1018.3,,TRUE,TRUE,TRUE,,,,,,CLR,,,,,,,,VFR,0.1,25.9,15.5,,,,,,,,,METAR,206.0
KGSB 010555Z 00000KT 10SM CLR 17/17 A3001 RMK AO2A SLP165 WND DATA ESTMD T01730166 10215 20173 57016 $,KGSB,2023-06-01T05:55:00Z,35.33,-77.93,17.3,16.6,0,0,,10.0,30.008858,1016.5,,,TRUE,TRUE,,,,,,CLR,,,,,,,,VFR,-1.6,21.5,17.3,,,,,,,,,METAR,33.0
KGRK 010555Z AUTO 16005KT 10SM CLR 22/18 A2987 RMK AO2 SLP105 T02190179 10289 20217 403040186 58000,KGRK,2023-06-01T05:55:00Z,31.07,-97.83,21.9,17.9,160,5,,10.0,29.870079,1010.5,,TRUE,TRUE,,,,,,,CLR,,,,,,,,VFR,0.0,28.9,21.7,30.4,18.6,,,,,,,METAR,311.0
KGRF 010555Z AUTO 23008KT 10SM BKN055 OVC075 13/05 A3005 RMK AO2 SLP180 T01310045 10179 20131 51008 $,KGRF,2023-06-01T05:55:00Z,47.07,-122.57,13.1,4.5,230,8,,10.0,30.050198,1018.0,,TRUE,TRUE,TRUE,,,,,,BKN,5500,OVC,7500,,,,,VFR,0.8,17.9,13.1,,,,,,,,,SPECI,91.0
KGPI 010555Z AUTO 00000KT 10SM CLR 10/08 A2981 RMK AO2 SLP090 T01000078 10222 20094 51010,KGPI,2023-06-01T05:55:00Z,48.32,-114.25,10.0,7.8,0,0,,10.0,29.811024,1009.0,,TRUE,TRUE,,,,,,,CLR,,,,,,,,VFR,1.0,22.2,9.4,,,,,,,,,METAR,903.0
KGOV 010555Z AUTO 00000KT 10SM CLR 12/12 A3011 RMK AO2 SLP198 T01230120 10232 20123 51008 $,KGOV,2023-06-01T05:55:00Z,44.68,-84.73,12.3,12.0,0,0,,10.0,30.109253,1019.8,,TRUE,TRUE,TRUE,,,,,,CLR,,,,,,,,VFR,0.8,23.2,12.3,,,,,,,,,METAR,350.0
KGFA 010555Z AUTO 19006KT 10SM FEW095 12/10 A2979 RMK AO2 SLP078 T01200101 10210 20119 58002 $,KGFA,2023-06-01T05:55:00Z,47.5,-111.18,12.0,10.1,190,6,,10.0,29.790354,1007.8,,TRUE,TRUE,TRUE,,,,,,FEW,9500,,,,,,,VFR,-0.2,21.0,11.9,,,,,,,,,METAR,1058.0
KFTK 010555Z AUTO 00000KT 10SM CLR 17/17 A3001 RMK AO2 SLP159 T01690167 10245 20165 58002 TSNO $,KFTK,2023-06-01T05:55:00Z,37.9,-85.97,16.9,16.7,0,0,,10.0,30.008858,1015.9,,TRUE,TRUE,TRUE,,TRUE,,,,CLR,,,,,,,,VFR,-0.2,24.5,16.5,,,,,,,,,METAR,225.0
KFSI 010555Z AUTO 13006KT 10SM CLR 22/18 A2985 RMK AO2 SLP099 T02220184 10287 20222 403010188 50004 FZRANO $,KFSI,2023-06-01T05:55:00Z,34.65,-98.4,22.2,18.4,130,6,,10.0,29.84941,1009.9,,TRUE,TRUE,TRUE,,,TRUE,,,CLR,,,,,,,,VFR,0.4,28.7,22.2,30.1,18.8,,,,,,,METAR,360.0
KFRI 010555Z 06004KT 10SM BKN160 19/18 A2989 RMK AO2A RAE09DZB09E11 SLP112 P0001 60060 T01880176 10240 20188 53007 $,KFRI,2023-06-01T05:55:00Z,39.05,-96.77,18.8,17.6,60,4,,10.0,29.890747,1011.2,,,TRUE,TRUE,,,,,,BKN,16000,,,,,,,VFR,0.7,24.0,18.8,,,0.01,,0.6,,,,METAR,232.0
KFMH 010555Z 22003KT 1/4SM FG OVC002 13/13 A3014,KFMH,2023-06-01T05:55:00Z,41.65,-70.52,13.0,13.0,220,3,,0.25,30.138779,,,,,,,,,,FG,OVC,200,,,,,,,LIFR,,,,,,,,,,,,METAR,35.0
KFFO 010555Z AUTO 00000KT 10SM CLR 19/15 A3004 RMK AO2 SLP170 T01880145 10284 20183 50004,KFFO,2023-06-01T05:55:00Z,39.83,-84.03,18.8,14.5,0,0,,10.0,30.041338,1017.0,,TRUE,TRUE,,,,,,,CLR,,,,,,,,VFR,0.4,28.4,18.3,,,,,,,,,METAR,250.0
KFEW 010555Z 09010KT 10SM FEW060 BKN085 OVC120 12/08 A2999 RMK AO2A RAE02 SLP081 P0001 60002 T01200083 10163 20116 58001 $,KFEW,2023-06-01T05:55:00Z,41.13,-104.87,12.0,8.3,90,10,,10.0,29.991142,1008.1,,,TRUE,TRUE,,,,,,FEW,6000,BKN,8500,OVC,12000,,,VFR,-0.1,16.3,11.6,,,0.01,,0.02,,,,METAR,1877.0
KFBG 010555Z AUTO 00000KT 8SM CLR 18/18 A3003 RMK AO2 SLP170 T01810179 10229 20181 57013 $,KFBG,2023-06-01T05:55:00Z,35.12,-78.92,18.1,17.9,0,0,,8.0,30.029528,1017.0,,TRUE,TRUE,TRUE,,,,,,CLR,,,,,,,,VFR,-1.3,22.9,18.1,,,,,,,,,METAR,69.0
KFAF 010555Z AUTO 03003KT 10SM OVC042 18/16 A3003 RMK AO2 SLP173 T01840156 10210 20181 58012 $,KFAF,2023-06-01T05:55:00Z,37.13,-76.62,18.4,15.6,30,3,,10.0,30.029528,1017.3,,TRUE,TRUE,TRUE,,,,,,OVC,4200,,,,,,,VFR,-1.2,21.0,18.1,,,,,,,,,SPECI,3.0
KEND 010555Z AUTO 12009KT 10SM CLR 20/17 A2985 RMK AO2 SLP097 60016 T02020168 10218 20189 403190174 50008,KEND,2023-06-01T05:55:00Z,36.33,-97.92,20.2,16.8,120,9,,10.0,29.84941,1009.7,,TRUE,TRUE,,,,,,,CLR,,,,,,,,VFR,0.8,21.8,18.9,31.9,17.4,,,0.16,,,,METAR,392.0
KEGI 010555Z AUTO 05003KT 10SM FEW110 BKN170 OVC190 21/18 A2992 RMK AO2 SLP131 T02100176 10238 20209 403100148 58008 $,KEGI,2023-06-01T05:55:00Z,30.65,-86.52,21.0,17.6,50,3,,10.0,29.920275,1013.1,,TRUE,TRUE,TRUE,,,,,,FEW,11000,BKN,17000,OVC,19000,,,VFR,-0.8,23.8,20.9,31.0,14.8,,,,,,,METAR,59.0
KEDW 010555Z 22014KT 40SM CLR 15/09 A2978 RMK AO2A SLP068 T01500091 10234 20149 52006,KEDW,2023-06-01T05:55:00Z,34.9,-117.87,15.0,9.1,220,14,,40.0,29.778543,1006.8,,,TRUE,,,,,,,CLR,,,,,,,,VFR,0.6,23.4,14.9,,,,,,,,,METAR,698.0
KEAT 010555Z AUTO 28016G22KT 10SM CLR 13/01 A2990 RMK AO2 SLP121 T01330011 10228 20133 51018,KEAT,2023-06-01T05:55:00Z,47.4,-120.2,13.3,1.1,280,16,22,10.0,29.899607,1012.1,,TRUE,TRUE,,,,,,,CLR,,,,,,,,VFR,1.8,22.8,13.3,,,,,,,,,METAR,375.0
KDYS 010555Z AUTO 14015KT 10SM CLR 24/15 A2983 RMK AO2 SLP057 T02370147 10281 20231 402980178 50000,KDYS,2023-06-01T05:55:00Z,32.42,-99.83,23.7,14.7,140,15,,10.0,29.828741,1005.7,,TRUE,TRUE,,,,,,,CLR,,,,,,,,VFR,0.0,28.1,23.1,29.8,17.8,,,,,,,METAR,544.0
KDMA 010555Z 26005KT 10SM CLR 21/02 A2984 RMK AO2A SLP063 T02110024 10295 20211 52021 $,KDMA,2023-06-01T05:55:00Z,32.17,-110.88,21.1,2.4,260,5,,10.0,29.840551,1006.3,,,TRUE,TRUE,,,,,,CLR,,,,,,,,VFR,2.1,29.5,21.1,,,,,,,,,METAR,804.0
KDLH 010555Z 10003KT 10SM FEW045 FEW100 14/09 A2996 RMK AO2 SLP140 OCNL LTG DSNT N-NE T01440094 10206 20139 403000111 53007,KDLH,2023-06-01T05:55:00Z,46.85,-92.2,14.4,9.4,100,3,,10.0,29.958662,1014.0,,,TRUE,,,,,,,FEW,4500,FEW,10000,,,,,VFR,0.7,20.6,13.9,30.0,11.1,,,,,,,METAR,434.0
KDLF 010555Z AUTO 11016KT 10SM CLR 25/19 A2978 RMK AO2 SLP072 T02460192 10306 20244 403140201 58001 $,KDLF,2023-06-01T05:55:00Z,29.37,-100.78,24.6,19.2,110,16,,10.0,29.778543,1007.2,,TRUE,TRUE,TRUE,,,,,,CLR,,,,,,,,VFR,-0.1,30.6,24.4,31.4,20.1,,,,,,,METAR,328.0
KDAA 010555Z AUTO 00000KT 10SM CLR 12/12 A3009 RMK AO2 SLP192 T01240124 10214 20122 57007 $,KDAA,2023-06-01T05:55:00Z,38.72,-77.17,12.4,12.4,0,0,,10.0,30.088583,1019.2,,TRUE,TRUE,TRUE,,,,,,CLR,,,,,,,,VFR,-0.7,21.4,12.2,,,,,,,,,METAR,17.0
KCWN 010555Z AUTO 00000KT 10SM OVC160 14/05 A2994 RMK AO2 SLP965 60000 T01370053 10193 20137 53003 $,KCWN,2023-06-01T05:55:00Z,38.75,-104.85,13.7,5.3,0,0,,10.0,29.940945,996.5,,TRUE,TRUE,TRUE,,,,,,OVC,16000,,,,,,,VFR,0.3,19.3,13.7,,,,,0.005,,,,METAR,2040.0
KCOF 010555Z AUTO 08011KT 10SM FEW020 SCT140 26/22 A2984 RMK AO2 SLP109 T02570222 10259 20244 57022 $,KCOF,2023-06-01T05:55:00Z,28.23,-80.6,25.7,22.2,80,11,,10.0,29.840551,1010.9,,TRUE,TRUE,TRUE,,,,,,FEW,2000,SCT,14000,,,,,VFR,-2.2,25.9,24.4,,,,,,,,,METAR,1.0
KCNK 010555Z AUTO 15008KT 10SM CLR 22/17 A2987 RMK AO2 SLP098 T02170172 10294 20217 403220172 53012,KCNK,2023-06-01T05:55:00Z,39.55,-97.65,21.7,17.2,150,8,,10.0,29.870079,1009.8,,TRUE,TRUE,,,,,,,CLR,,,,,,,,VFR,1.2,29.4,21.7,32.2,17.2,,,,,,,METAR,445.0
KCMY 010555Z AUTO 00000KT 10SM CLR 17/15 A2995 RMK AO2 SLP140 T01710153 10301 20163 51008 FZRANO $,KCMY,2023-06-01T05:55:00Z,43.97,-90.73,17.1,15.3,0,0,,10.0,29.949802,1014.0,,TRUE,TRUE,TRUE,,,TRUE,,,CLR,,,,,,,,VFR,0.8,30.1,16.3,,,,,,,,,METAR,253.0
KCMA 010555Z AUTO 22003KT 10SM OVC038 17/12 A2991 RMK AO2 SLP136 T01670122 10183 20167 51005,KCMA,2023-06-01T05:55:00Z,34.22,-119.1,16.7,12.2,220,3,,10.0,29.911417,1013.6,,TRUE,TRUE,,,,,,,OVC,3800,,,,,,,VFR,0.5,18.3,16.7,,,,,,,,,METAR,20.0
KCEF 010555Z AUTO 17003KT 10SM CLR 14/12 A3011 RMK AO2 SLP201 T01370121 10231 20120 56002,KCEF,2023-06-01T05:55:00Z,42.2,-72.52,13.7,12.1,170,3,,10.0,30.109253,1020.1,,TRUE,TRUE,,,,,,,CLR,,,,,,,,VFR,-0.2,23.1,12.0,,,,,,,,,METAR,72.0
KCBM 010555Z 00000KT 8SM CLR 22/18 A2993 RMK AO2A SLPNO ALSTG ESTMD 50003 $,KCBM,2023-06-01T05:55:00Z,33.65,-88.45,22.0,18.0,0,0,,8.0,29.929134,,,,TRUE,TRUE,,,,,,CLR,,,,,,,,VFR,0.3,,,,,,,,,,,METAR,59.0
KCAO 010555Z AUTO 16026G36KT 10SM FEW075 SCT090 BKN120 12/11 A2996 RMK AO2 PK WND 15036/0554 RAE02B24E48 PRESFR SLP096 P0000 60008 T01220111 10172 20122 50026,KCAO,2023-06-01T05:55:00Z,36.45,-103.15,12.2,11.1,160,26,36,10.0,29.958662,1009.6,,TRUE,TRUE,,,,,,,FEW,7500,SCT,9000,BKN,12000,,,VFR,2.6,17.2,12.2,,,0.005,,0.08,,,,METAR,1517.0
KBYS 010555Z AUTO 25016G24KT 10SM CLR 20/08 A2973 RMK AO2 PK WND 27035/41 SLP046 T01960077 10287 20196 50016 $,KBYS,2023-06-01T05:55:00Z,35.28,-116.63,19.6,7.7,250,16,24,10.0,29.731298,1004.6,,TRUE,TRUE,TRUE,,,,,,CLR,,,,,,,,VFR,1.6,28.7,19.6,,,,,,,,,METAR,717.0
KBLV 010555Z 00000KT 10SM CLR 20/18 A2997 RMK AO2A SLP148 T02010177 10278 20197 403110167 51006 $,KBLV,2023-06-01T05:55:00Z,38.53,-89.83,20.1,17.7,0,0,,10.0,29.970472,1014.8,,,TRUE,TRUE,,,,,,CLR,,,,,,,,VFR,0.6,27.8,19.7,31.1,16.7,,,,,,,METAR,134.0
KBIX 010555Z AUTO 06004KT 10SM CLR 22/20 A2987 RMK AO2 SLP118 T02190196 10270 20219 403000205 58007,KBIX,2023-06-01T05:55:00Z,30.42,-88.92,21.9,19.6,60,4,,10.0,29.870079,1011.8,,TRUE,TRUE,,,,,,,CLR,,,,,,,,VFR,-0.7,27.0,21.9,30.0,20.5,,,,,,,METAR,4.0
KBIF 010555Z 26008G20KT 7SM FEW160 27/M07 A2983 RMK SLPNO ALTSG WND DATA ESTMD,KBIF,2023-06-01T05:55:00Z,31.85,-106.38,27.0,-7.0,260,8,20,7.0,29.828741,,,,,,,,,,,FEW,16000,,,,,,,VFR,,,,,,,,,,,,METAR,1201.0
KBAD 010555Z 00000KT 10SM CLR 21/17 A2990 RMK AO2A SLP128 T02100168 10298 20208 403240181 50006,KBAD,2023-06-01T05:55:00Z,32.5,-93.67,21.0,16.8,0,0,,10.0,29.899607,1012.8,,,TRUE,,,,,,,CLR,,,,,,,,VFR,0.6,29.8,20.8,32.4,18.1,,,,,,,SPECI,49.0
KBAB 010555Z AUTO 12007KT 10SM CLR 18/13 A2978 RMK AO2 SLP087 T01770126 10269 20177 52013 $,KBAB,2023-06-01T05:55:00Z,39.13,-121.43,17.7,12.6,120,7,,10.0,29.778543,1008.7,,TRUE,TRUE,TRUE,,,,,,CLR,,,,,,,,VFR,1.3,26.9,17.7,,,,,,,,,METAR,31.0
KANJ 010555Z AUTO 00000KT 10SM CLR 18/14 A3008 RMK AO2 SLP182 T01830144 10272 20183 50011,KANJ,2023-06-01T05:55:00Z,46.47,-84.37,18.3,14.4,0,0,,10.0,30.079725,1018.2,,TRUE,TRUE,,,,,,,CLR,,,,,,,,VFR,1.1,27.2,18.3,,,,,,,,,METAR,220.0
KAFF 010555Z AUTO 36006KT 10SM SCT160 10/05 A2997 RMK AO2 SLP072 T01030053 10218 20103 58000,KAFF,2023-06-01T05:55:00Z,38.97,-104.82,10.3,5.3,360,6,,10.0,29.970472,1007.2,,TRUE,TRUE,,,,,,,SCT,16000,,,,,,,VFR,0.0,21.8,10.3,,,,,,,,,METAR,2003.0
KADW 010555Z AUTO 03003KT 10SM CLR 13/13 A3008 RMK AO2 SLP192 T01310129 10205 20129 58006 $,KADW,2023-06-01T05:55:00Z,38.82,-76.87,13.1,12.9,30,3,,10.0,30.079725,1019.2,,TRUE,TRUE,TRUE,,,,,,CLR,,,,,,,,VFR,-0.6,20.5,12.9,,,,,,,,,SPECI,87.0
KABH 010555Z AUTO 33007KT 10SM BKN210 OVC240 12/08 A2995 RMK AO2 SLP079 T01180079 10212 20116 58001,KABH,2023-06-01T05:55:00Z,38.75,-104.3,11.8,7.9,330,7,,10.0,29.949802,1007.9,,TRUE,TRUE,,,,,,,BKN,21000,OVC,24000,,,,,VFR,-0.1,21.2,11.6,,,,,,,,,METAR,1838.0
K9L2 010555Z AUTO 19016KT 10SM CLR 15/08 A2978 RMK AO2 SLP068 T01500082 10251 20149 52006,K9L2,2023-06-01T05:55:00Z,34.98,-117.87,15.0,8.2,190,16,,10.0,29.778543,1006.8,,TRUE,TRUE,,,,,,,CLR,,,,,,,,VFR,0.6,25.1,14.9,,,,,,,,,METAR,697.0
K2DP 010555Z AUTO 01007KT 9SM OVC004 M A2998 RMK AO2 SLPNO ALSTG ESTMD 6//// 10178 20167 57015 $,K2DP,2023-06-01T05:55:00Z,35.68,-75.9,,,10,7,,9.0,29.97933,,,TRUE,TRUE,TRUE,,,,,,OVC,400,,,,,,,LIFR,-1.5,17.8,16.7,,,,,,,,,METAR,1.0
K1YT 010555Z AUTO 34008KT 10SM CLR 13/M00 A2989 RMK AO2 SLP122 T01261003 10221 20126 50012 $,K1YT,2023-06-01T05:55:00Z,46.67,-120.45,12.6,-0.3,340,8,,10.0,29.890747,1012.2,,TRUE,TRUE,TRUE,,,,,,CLR,,,,,,,,VFR,1.2,22.1,12.6,,,,,,,,,METAR,423.0
K1OW 010555Z AUTO 04012KT 10SM CLR 12/10 A3007 RMK AO2 SLP131 60005 T01160098 10216 20116 50012 $,K1OW,2023-06-01T05:55:00Z,40.88,-104.0,11.6,9.8,40,12,,10.0,30.070866,1013.1,,TRUE,TRUE,TRUE,,,,,,CLR,,,,,,,,VFR,1.2,21.6,11.6,,,,,0.05,,,,METAR,1650.0
K1OM 010555Z AUTO 05005KT 10SM BKN095 OVC140 14/13 A2976 RMK AO2 LTG DSNT NE RAE30RAB42E52 SLP062 P0002 60020 T01400127 10192 20139 $,K1OM,2023-06-01T05:55:00Z,47.33,-108.93,14.0,12.7,50,5,,10.0,29.760826,1006.2,,TRUE,TRUE,TRUE,,,,,,BKN,9500,OVC,14000,,,,,VFR,,19.2,13.9,,,0.02,,0.2,,,,METAR,1088.0
K1NW 010555Z AUTO 05010KT 10SM M 13/11 A2991 RMK AO2 SLP079 60002 T01280112 10234 20127 50007 $,K1NW,2023-06-01T05:55:00Z,40.63,-103.83,12.8,11.2,50,10,,10.0,29.911417,1007.9,,TRUE,TRUE,TRUE,,,,,,,,,,,,,,,0.7,23.4,12.7,,,,,0.02,,,,METAR,1461.0
K1NN 010555Z AUTO 00000KT 9SM OVC100 18/16 A2985 RMK AO2 SLPNO T01820158 10261 20180 402850180 51005 $,K1NN,2023-06-01T05:55:00Z,,,18.2,15.8,0,0,,9.0,29.84941,,,TRUE,TRUE,TRUE,,,,,,OVC,10000,,,,,,,VFR,0.5,26.1,18.0,28.5,18.0,,,,,,,METAR,
K1MW 010555Z AUTO 03014KT 10SM CLR 14/10 A2990 RMK AO2 SLP084 T01370103 10243 20136 50007 $,K1MW,2023-06-01T05:55:00Z,40.7,-103.48,13.7,10.3,30,14,,10.0,29.899607,1008.4,,TRUE,TRUE,TRUE,,,,,,CLR,,,,,,,,VFR,0.7,24.3,13.6,,,,,,,,,METAR,1338.0
K1MN 010555Z AUTO 15008KT 10SM OVC110 18/16 A2984 RMK AO2 SLP102 T01810164 10263 20170 402820123 50002 $,K1MN,2023-06-01T05:55:00Z,,,18.1,16.4,150,8,,10.0,29.840551,1010.2,,TRUE,TRUE,TRUE,,,,,,OVC,11000,,,,,,,VFR,0.2,26.3,17.0,28.2,12.3,,,,,,,METAR,
K1MM 010555Z AUTO 16007KT 10SM -RA SCT090 OVC120 12/10 A2979 RMK AO2 LTG DSNT NE SLP064 P0002 60003 T01200102 10185 20120 $,K1MM,2023-06-01T05:55:00Z,47.02,-109.63,12.0,10.2,160,7,,10.0,29.790354,1006.4,,TRUE,TRUE,TRUE,,,,,-RA,SCT,9000,OVC,12000,,,,,VFR,,18.5,12.0,,,0.02,,0.03,,,,METAR,1256.0
K1LN 010555Z AUTO 16007KT 10SM OVC110 18/17 A2985 RMK AO2 SLP102 T01750170 10256 20163 402800124 50002 $,K1LN,2023-06-01T05:55:00Z,,,17.5,17.0,160,7,,10.0,29.84941,1010.2,,TRUE,TRUE,TRUE,,,,,,OVC,11000,,,,,,,VFR,0.2,25.6,16.3,28.0,12.4,,,,,,,METAR,
K1KN 010555Z AUTO 14008KT 10SM BKN100 17/15 A2986 RMK AO2 SLP106 60000 T01660153 10250 20163 402660124 50003 $,K1KN,2023-06-01T05:55:00Z,,,16.6,15.3,140,8,,10.0,29.861221,1010.6,,TRUE,TRUE,TRUE,,,,,,BKN,10000,,,,,,,VFR,0.3,25.0,16.3,26.6,12.4,,,0.005,,,,METAR,
K1JW 010555Z AUTO 02011KT 10SM SCT160 13/10 M RMK AO2 SLPNO T01290101 10244 20129 $,K1JW,2023-06-01T05:55:00Z,40.97,-103.2,12.9,10.1,20,11,,10.0,,,,TRUE,TRUE,TRUE,,,,,,SCT,16000,,,,,,,VFR,,24.4,12.9,,,,,,,,,METAR,1382.0
K1JN 010555Z AUTO 14006KT 6SM BR CLR 15/15 A2985 RMK AO2 SLP106 T01530153 10245 20146 402590137 50005 $,K1JN,2023-06-01T05:55:00Z,,,15.3,15.3,140,6,,6.0,29.84941,1010.6,,TRUE,TRUE,TRUE,,,,,BR,CLR,,,,,,,,VFR,0.5,24.5,14.6,25.9,13.7,,,,,,,METAR,
K1JM 010555Z AUTO 25007KT 10SM CLR 11/10 A2977 RMK AO2 SLP067 60000 T01110095 10181 20110 58005 $,K1JM,2023-06-01T05:55:00Z,47.75,-111.55,11.1,9.5,250,7,,10.0,29.769686,1006.7,,TRUE,TRUE,TRUE,,,,,,CLR,,,,,,,,VFR,-0.5,18.1,11.0,,,,,0.005,,,,METAR,1154.0
K1IW 010555Z AUTO 04010KT 10SM FEW130 FEW170 13/11 A2991 RMK AO2 SLP091 T01320109 10242 20132 50010 $,K1IW,2023-06-01T05:55:00Z,41.05,-102.87,13.2,10.9,40,10,,10.0,29.911417,1009.1,,TRUE,TRUE,TRUE,,,,,,FEW,13000,FEW,17000,,,,,VFR,1.0,24.2,13.2,,,,,,,,,METAR,1294.0
K1IN 010555Z AUTO 09006KT 10SM CLR 16/15 A2985 RMK AO2 SLP106 T01590148 10251 20159 402650131 50006 $,K1IN,2023-06-01T05:55:00Z,,,15.9,14.8,90,6,,10.0,29.84941,1010.6,,TRUE,TRUE,TRUE,,,,,,CLR,,,,,,,,VFR,0.6,25.1,15.9,26.5,13.1,,,,,,,METAR,
K1IM 010555Z AUTO 17003KT 10SM M 12/10 A2977 RMK AO2 SLP069 T01200104 10176 20117 50002 $,K1IM,2023-06-01T05:55:00Z,47.32,-111.47,12.0,10.4,170,3,,10.0,29.769686,1006.9,,TRUE,TRUE,TRUE,,,,,,,,,,,,,,,0.2,17.6,11.7,,,,,,,,,METAR,1110.0
K1HW 010555Z AUTO 02010KT 10SM FEW100 13/12 A2990 RMK AO2 RAB0454E25DZB25E27 SLP090 P0000 60005 T01270118 10240 20127 50007 $,K1HW,2023-06-01T05:55:00Z,41.32,-102.83,12.7,11.8,20,10,,10.0,29.899607,1009.0,,TRUE,TRUE,TRUE,,,,,,FEW,10000,,,,,,,VFR,0.7,24.0,12.7,,,0.005,,0.05,,,,METAR,1265.0
K1HN 010555Z AUTO 00000KT 8SM CLR 15/14 A2984 RMK AO2 SLPNO T01480135 10251 20148 402620148 51009 $,K1HN,2023-06-01T05:55:00Z,,,14.8,13.5,0,0,,8.0,29.840551,,,TRUE,TRUE,TRUE,,,,,,CLR,,,,,,,,VFR,0.9,25.1,14.8,26.2,14.8,,,,,,,METAR,
K1HM 010555Z AUTO 28003KT 10SM CLR 13/10 A2977 RMK AO2 SLP062 60000 T01270102 10171 20124 50000 $,K1HM,2023-06-01T05:55:00Z,47.7,-111.95,12.7,10.2,280,3,,10.0,29.769686,1006.2,,TRUE,TRUE,TRUE,,,,,,CLR,,,,,,,,VFR,0.0,17.1,12.4,,,,,0.005,,,,METAR,1181.0
K1GN 010555Z AUTO 10006KT 6SM BR CLR 15/15 A2983 RMK AO2 SLP106 T01540152 10249 20153 402590132 50005 $,K1GN,2023-06-01T05:55:00Z,,,15.4,15.2,100,6,,6.0,29.828741,1010.6,,TRUE,TRUE,TRUE,,,,,BR,CLR,,,,,,,,VFR,0.5,24.9,15.3,25.9,13.2,,,,,,,METAR,
K1GM 010555Z AUTO 00000KT 10SM SCT075 12/10 M RMK AO2 SLPNO T01210103 10155 20118 $,K1GM,2023-06-01T05:55:00Z,47.33,-112.1,12.1,10.3,0,0,,10.0,,,,TRUE,TRUE,TRUE,,,,,,SCT,7500,,,,,,,VFR,,15.5,11.8,,,,,,,,,METAR,1317.0
K1FW 010555Z AUTO 00000KT 10SM SCT200 12/12 A2993 RMK AO2 SLP086 60013 T01210119 10237 20120 58007 $,K1FW,2023-06-01T05:55:00Z,41.37,-103.48,12.1,11.9,0,0,,10.0,29.929134,1008.6,,TRUE,TRUE,TRUE,,,,,,SCT,20000,,,,,,,VFR,-0.7,23.7,12.0,,,,,0.13,,,,METAR,1451.0
K1EW 010555Z AUTO 06006KT 10SM FEW150 SCT210 11/10 A2995 RMK AO2 RAE0454 SLP092 60019 T01140101 10228 20114 55001 $,K1EW,2023-06-01T05:55:00Z,41.12,-103.98,11.4,10.1,60,6,,10.0,29.949802,1009.2,,TRUE,TRUE,TRUE,,,,,,FEW,15000,SCT,21000,,,,,VFR,-0.1,22.8,11.4,,,,,0.19,,,,METAR,1609.0
K1EN 010555Z AUTO 12004KT 10SM CLR 15/14 A2964 RMK AO2 SLP041 T01530137 10224 20147 402470122 52009 $,K1EN,2023-06-01T05:55:00Z,,,15.3,13.7,120,4,,10.0,29.639763,1004.1,,TRUE,TRUE,TRUE,,,,,,CLR,,,,,,,,VFR,0.9,22.4,14.7,24.7,12.2,,,,,,,METAR,
K1EM 010555Z AUTO 07007KT 10SM OVC110 13/12 A2978 RMK AO2 LTG DSNT NE RAE08RAB11E52 SLP066 P0001 60011 T01320119 10203 20131 $,K1EM,2023-06-01T05:55:00Z,47.45,-109.42,13.2,11.9,70,7,,10.0,29.778543,1006.6,,TRUE,TRUE,TRUE,,,,,,OVC,11000,,,,,,,VFR,,20.3,13.1,,,0.01,,0.11,,,,METAR,1118.0
K1DW 010555Z AUTO 05006KT 10SM SCT170 BKN190 11/10 A2996 RMK AO2 SLP101 60063 T01130102 10231 20113 58004 $,K1DW,2023-06-01T05:55:00Z,41.37,-103.8,11.3,10.2,50,6,,10.0,29.958662,1010.1,,TRUE,TRUE,TRUE,,,,,,SCT,17000,BKN,19000,,,,,VFR,-0.4,23.1,11.3,,,,,0.63,,,,METAR,1539.0
K1DN 010555Z AUTO 12009KT 10SM FEW060 SCT080 BKN110 BKN140 18/14 A2837 RMK AO2 SLPNO T01830142 10221 20181 402320181 51006 $,K1DN,2023-06-01T05:55:00Z,,,18.3,14.2,120,9,,10.0,28.370079,,,TRUE,TRUE,TRUE,,,,,,FEW,6000,SCT,8000,BKN,11000,BKN,14000,VFR,0.6,22.1,18.1,23.2,18.1,,,,,,,METAR,
K1DM 010555Z AUTO 25005KT 10SM OVC100 14/12 A2978 RMK AO2 LTG DSNT NE SLP066 60006 T01390118 10220 20139 58002 $,K1DM,2023-06-01T05:55:00Z,47.37,-109.8,13.9,11.8,250,5,,10.0,29.778543,1006.6,,TRUE,TRUE,TRUE,,,,,,OVC,10000,,,,,,,VFR,-0.2,22.0,13.9,,,,,0.06,,,,METAR,1093.0
K1CW 010555Z AUTO 08005KT 10SM BKN180 13/11 A2994 RMK AO2 SLP093 60031 T01250111 10235 20125 58004 $,K1CW,2023-06-01T05:55:00Z,41.58,-103.57,12.5,11.1,80,5,,10.0,29.940945,1009.3,,TRUE,TRUE,TRUE,,,,,,BKN,18000,,,,,,,VFR,-0.4,23.5,12.5,,,,,0.31,,,,METAR,1370.0
K1CN 010555Z AUTO 09006KT 10SM FEW090 BKN150 17/16 A2986 RMK AO2 SLP107 T01720157 10205 20172 402610115 51011 $,K1CN,2023-06-01T05:55:00Z,,,17.2,15.7,90,6,,10.0,29.861221,1010.7,,TRUE,TRUE,TRUE,,,,,,FEW,9000,BKN,15000,,,,,VFR,1.1,20.5,17.2,26.1,11.5,,,,,,,METAR,
K1CM 010555Z AUTO 24009KT 10SM FEW100 BKN170 13/10 A2981 RMK AO2 LTG DSNT NE RAE22 SLP071 P0001 60004 T01300104 10207 20129 58003 $,K1CM,2023-06-01T05:55:00Z,47.1,-110.17,13.0,10.4,240,9,,10.0,29.811024,1007.1,,TRUE,TRUE,TRUE,,,,,,FEW,10000,BKN,17000,,,,,VFR,-0.3,20.7,12.9,,,0.01,,0.04,,,,METAR,1338.0
K1BW 010555Z AUTO 08005KT 10SM OVC130 11/10 A2999 RMK AO2 SLP106 60054 T01140098 10166 20114 50004 $,K1BW,2023-06-01T05:55:00Z,41.52,-104.0,11.4,9.8,80,5,,10.0,29.991142,1010.6,,TRUE,TRUE,TRUE,,,,,,OVC,13000,,,,,,,VFR,0.4,16.6,11.4,,,,,0.54,,,,METAR,1606.0
K1BN 010555Z AUTO 14004KT 10SM SCT110 SCT130 OVC170 17/16 A2985 RMK AO2 SLP105 60000 T01700162 10201 20170 402570139 50009 $,K1BN,2023-06-01T05:55:00Z,,,17.0,16.2,140,4,,10.0,29.84941,1010.5,,TRUE,TRUE,TRUE,,,,,,SCT,11000,SCT,13000,OVC,17000,,,VFR,0.9,20.1,17.0,25.7,13.9,,,0.005,,,,METAR,
K1AM 010555Z AUTO 12003KT 10SM SCT230 13/10 A2981 RMK AO2 LTG DSNT NE SLP077 T01330099 10199 20133 50002 $,K1AM,2023-06-01T05:55:00Z,47.28,-110.8,13.3,9.9,120,3,,10.0,29.811024,1007.7,,TRUE,TRUE,TRUE,,,,,,SCT,23000,,,,,,,VFR,0.2,19.9,13.3,,,,,,,,,METAR,1228.0
ETOU 010555Z 03003KT 9999 CLR 18/09 A3011 RMK AO2A SLP197 T01810179 10181 20134 52004,ETOU,2023-06-01T05:55:00Z,50.03,8.32,18.1,9.0,30,3,,6.21,30.109253,1019.7,,,TRUE,,,,,,,CLR,,,,,,,,VFR,0.4,18.1,13.4,,,,,,,,,METAR,141.0
ETIK 010555Z AUTO 00000KT 9999 CLR 14/07 A3009 RMK AO2 SLP189 T01360074 10136 20056 55001,ETIK,2023-06-01T05:55:00Z,49.47,10.38,13.6,7.4,0,0,,6.21,30.088583,1018.9,,TRUE,TRUE,,,,,,,CLR,,,,,,,,VFR,-0.1,13.6,5.6,,,,,,,,,METAR,326.0
ETIH 010555Z AUTO 00000KT 9999 CLR 15/07 A3009 RMK AO2 SLP187 T01480071 10148 20067 50001,ETIH,2023-06-01T05:55:00Z,49.22,11.83,14.8,7.1,0,0,,6.21,30.088583,1018.7,,TRUE,TRUE,,,,,,,CLR,,,,,,,,VFR,0.1,14.8,6.7,,,,,,,,,METAR,436.0
ETIC 010555Z AUTO 00000KT 9999 CLR 13/07 A3008 RMK AO2 SLP186 T01290069 10129 20049 58001 $,ETIC,2023-06-01T05:55:00Z,49.7,11.93,12.9,6.9,0,0,,6.21,30.079725,1018.6,,TRUE,TRUE,TRUE,,,,,,CLR,,,,,,,,VFR,-0.1,12.9,4.9,,,,,,,,,METAR,414.0
ETEB 010555Z AUTO 03005KT 9999 CLR 15/06 A3008 RMK AO2 SLP196 T01520059 10152 20125 53002 $,ETEB,2023-06-01T05:55:00Z,49.32,10.63,15.2,5.9,30,5,,6.21,30.079725,1019.6,,TRUE,TRUE,TRUE,,,,,,CLR,,,,,,,,VFR,0.2,15.2,12.5,,,,,,,,,METAR,466.0
ETAR 010555Z AUTO 00000KT 9999 CLR 15/10 A3010 RMK AO2 SLP194 T01470095 10147 20062 51003,ETAR,2023-06-01T05:55:00Z,49.43,7.58,14.7,9.5,0,0,,6.21,30.100393,1019.4,,TRUE,TRUE,,,,,,,CLR,,,,,,,,VFR,0.3,14.7,6.2,,,,,,,,,SPECI,231.0
ETAD 010555Z AUTO 09005KT 9999 CLR 16/10 A3011 RMK AO2 SLP184 T01550098 10155 20120 50002,ETAD,2023-06-01T05:55:00Z,49.98,6.7,15.5,9.8,90,5,,6.21,30.109253,1018.4,,TRUE,TRUE,,,,,,,CLR,,,,,,,,VFR,0.2,15.5,12.0,,,,,,,,,SPECI,365.0
EGVA 010555Z AUTO 03009KT 9999 OVC012 10/09 A3028 RMK AO2 SLP258 T00960094 10104 20094 55003 FZRANO $,EGVA,2023-06-01T05:55:00Z,51.67,-1.78,9.6,9.4,30,9,,6.21,30.280512,1025.8,,TRUE,TRUE,TRUE,,,TRUE,,,OVC,1200,,,,,,,MVFR,-0.3,10.4,9.4,,,,,,,,,METAR,84.0
EGUN 010555Z 03007KT 9999 OVC020 11/11 A3030 RMK AO2A SLP264 T01060106 10106 20100 56002 $,EGUN,2023-06-01T05:55:00Z,52.37,0.48,10.6,10.6,30,7,,6.21,30.301182,1026.4,,,TRUE,TRUE,,,,,,OVC,2000,,,,,,,MVFR,-0.2,10.6,10.0,,,,,,,,,METAR,10.0
BK12 010555Z 05003KT 9999 BKN013 BKN018 15/13 A3012 RMK AO2 SLP186 WND DATA ESTMD T01480133 10142 20122 52005,BK12,2023-06-01T05:55:00Z,,,14.8,13.3,50,3,,6.21,30.121063,1018.6,,,TRUE,,,,,,,BKN,1300,BKN,1800,,,,,MVFR,0.5,14.2,12.2,,,,,,,,,METAR,
PHOG 010554Z 07012KT 10SM BKN050 OVC070 26/19 A3010 RMK AO2 SLP198 T02560189 10317 20250 53020,PHOG,2023-06-01T05:54:00Z,20.9,-156.43,25.6,18.9,70,12,,10.0,30.100393,1019.8,,,TRUE,,,,,,,BKN,5000,OVC,7000,,,,,VFR,2.0,31.7,25.0,,,,,,,,,SPECI,14.0
PHMK 010554Z AUTO 03007KT 10SM FEW024 SCT040 24/20 A3013 RMK AO2 SLP205 60000 T02390200 10300 20239 53015 TSNO,PHMK,2023-06-01T05:54:00Z,21.15,-157.1,23.9,20.0,30,7,,10.0,30.129921,1020.5,,TRUE,TRUE,,,TRUE,,,,FEW,2400,SCT,4000,,,,,VFR,1.5,30.0,23.9,,,,,0.005,,,,METAR,135.0
PGUM 010554Z 08014KT 10SM FEW075 29/23 A2982 RMK AO2 SLP089 60006 T02890233 10306 20267 58014,PGUM,2023-06-01T05:54:00Z,13.48,144.8,28.9,23.3,80,14,,10.0,29.819881,1008.9,,,TRUE,,,,,,,FEW,7500,,,,,,,VFR,-1.4,30.6,26.7,,,,,0.06,,,,METAR,74.0
PGSN 010554Z 11008KT 10SM SCT016 SCT024 BKN055 28/28 A2983,PGSN,2023-06-01T05:54:00Z,15.12,145.72,28.0,28.0,110,8,,10.0,29.828741,,,,,,,,,,,SCT,1600,SCT,2400,BKN,5500,,,VFR,,,,,,,,,,,,METAR,65.0
PAKN 010554Z 35008KT 10SM SCT070 13/M01 A2993 RMK AO2 SLP135 60001 T01281006 10161 20117 53008,PAKN,2023-06-01T05:54:00Z,58.68,-156.65,12.8,-0.6,350,8,,10.0,29.929134,1013.5,,,TRUE,,,,,,,SCT,7000,,,,,,,VFR,0.8,16.1,11.7,,,,,0.01,,,,METAR,20.0
KWLD 010554Z AUTO 10004KT 10SM CLR 22/18 A2991 RMK AO2 SLP116 T02170178 10289 20206 403110194 53004,KWLD,2023-06-01T05:54:00Z,37.17,-97.03,21.7,17.8,100,4,,10.0,29.911417,1011.6,,TRUE,TRUE,,,,,,,CLR,,,,,,,,VFR,0.4,28.9,20.6,31.1,19.4,,,,,,,METAR,351.0
KVTA 010554Z AUTO 00000KT 9SM CLR 14/13 A3008 RMK AO2 SLP181 T01440133 10256 20139 51002,KVTA,2023-06-01T05:54:00Z,40.02,-82.47,14.4,13.3,0,0,,9.0,30.079725,1018.1,,TRUE,TRUE,,,,,,,CLR,,,,,,,,VFR,0.2,25.6,13.9,,,,,,,,,METAR,268.0
KVSF 010554Z AUTO 00000KT 10SM CLR 13/11 A3013 RMK AO2 SLP201 T01280111 10244 20128 50001,KVSF,2023-06-01T05:54:00Z,43.35,-72.52,12.8,11.1,0,0,,10.0,30.129921,1020.1,,TRUE,TRUE,,,,,,,CLR,,,,,,,,VFR,0.1,24.4,12.8,,,,,,,,,METAR,176.0
KVAY 010554Z AUTO 00000KT 8SM CLR 13/11 A3013 RMK AO2 SLP203 T01280111 10211 20117 58004,KVAY,2023-06-01T05:54:00Z,39.93,-74.83,12.8,11.1,0,0,,8.0,30.129921,1020.3,,TRUE,TRUE,,,,,,,CLR,,,,,,,,VFR,-0.4,21.1,11.7,,,,,,,,,METAR,15.0
KUZA 010554Z AUTO 00000KT 7SM CLR 16/16 A3007 RMK AO2 SLP173 T01560156 10228 20156 57011,KUZA,2023-06-01T05:54:00Z,34.98,-81.05,15.6,15.6,0,0,,7.0,30.070866,1017.3,,TRUE,TRUE,,,,,,,CLR,,,,,,,,VFR,-1.1,22.8,15.6,,,,,,,,,METAR,198.0
KUIN 010554Z AUTO 17003KT 10SM CLR 23/16 A2997 RMK AO2 SLP141 T02280156 10294 20222 403110172 51005,KUIN,2023-06-01T05:54:00Z,39.95,-91.2,22.8,15.6,170,3,,10.0,29.970472,1014.1,,TRUE,TRUE,,,,,,,CLR,,,,,,,,VFR,0.5,29.4,22.2,31.1,17.2,,,,,,,METAR,233.0
KTQE 010554Z AUTO 15006KT 10SM CLR 21/14 A2988 RMK AO2 SLP104 T02060144 10306 20206 403330178 53007,KTQE,2023-06-01T05:54:00Z,41.77,-96.18,20.6,14.4,150,6,,10.0,29.878937,1010.4,,TRUE,TRUE,,,,,,,CLR,,,,,,,,VFR,0.7,30.6,20.6,33.3,17.8,,,,,,,METAR,312.0
KTAD 010554Z AUTO 28003KT 10SM CLR 15/04 A2995 RMK AO2 SLP076 T01500039 10222 20133 52002,KTAD,2023-06-01T05:54:00Z,37.27,-104.33,15.0,3.9,280,3,,10.0,29.949802,1007.6,,TRUE,TRUE,,,,,,,CLR,,,,,,,,VFR,0.2,22.2,13.3,,,,,,,,,METAR,1751.0
KSYR 010554Z 12003KT 10SM CLR 18/12 A3011 RMK AO2 SLP190 T01780117 10267 20178 51001,KSYR,2023-06-01T05:54:00Z,43.12,-76.1,17.8,11.7,120,3,,10.0,30.109253,1019.0,,,TRUE,,,,,,,CLR,,,,,,,,VFR,0.1,26.7,17.8,,,,,,,,,METAR,125.0
KSUS 010554Z 00000KT 10SM CLR 19/17 A2997 RMK AO2 SLP141 T01890172 10289 20183 403170144 51007,KSUS,2023-06-01T05:54:00Z,38.65,-90.65,18.9,17.2,0,0,,10.0,29.970472,1014.1,,,TRUE,,,,,,,CLR,,,,,,,,VFR,0.7,28.9,18.3,31.7,14.4,,,,,,,METAR,140.0
KSLC 010554Z 35006KT 10SM SCT160 BKN180 BKN220 19/09 A2979 RMK AO2 SLP035 T01940094 10272 20194 51013,KSLC,2023-06-01T05:54:00Z,40.77,-111.97,19.4,9.4,350,6,,10.0,29.790354,1003.5,,,TRUE,,,,,,,SCT,16000,BKN,18000,BKN,22000,,,VFR,1.3,27.2,19.4,,,,,,,,,METAR,1286.0
KSET 010554Z AUTO 08003KT 10SM CLR 21/17 A2997 RMK AO2 SLP144 T02110172 10300 20211 403280172 52008,KSET,2023-06-01T05:54:00Z,38.93,-90.43,21.1,17.2,80,3,,10.0,29.970472,1014.4,,TRUE,TRUE,,,,,,,CLR,,,,,,,,VFR,0.8,30.0,21.1,32.8,17.2,,,,,,,METAR,133.0
KSBN 010554Z AUTO 00000KT 10SM CLR 20/16 A3004 RMK AO2 SLP165 T02000156 10306 20194 50002,KSBN,2023-06-01T05:54:00Z,41.7,-86.32,20.0,15.6,0,0,,10.0,30.041338,1016.5,,TRUE,TRUE,,,,,,,CLR,,,,,,,,VFR,0.2,30.6,19.4,,,,,,,,,METAR,236.0
KRST 010554Z AUTO 15004KT 10SM CLR 19/16 A2995 RMK AO2 SLP134 T01890156 10289 20189 403000161 50009,KRST,2023-06-01T05:54:00Z,43.9,-92.5,18.9,15.6,150,4,,10.0,29.949802,1013.4,,TRUE,TRUE,,,,,,,CLR,,,,,,,,VFR,0.9,28.9,18.9,30.0,16.1,,,,,,,METAR,398.0
KRSP 010554Z AUTO 13003KT 10SM CLR 14/06 A3015 RMK AO2 SLP202 T01440061 10217 20144 58005 $,KRSP,2023-06-01T05:54:00Z,39.65,-77.47,14.4,6.1,130,3,,10.0,30.15059,1020.2,,TRUE,TRUE,TRUE,,,,,,CLR,,,,,,,,VFR,-0.5,21.7,14.4,,,,,,,,,METAR,555.0
KROC 010554Z 00000KT 10SM CLR 15/12 A3011 RMK AO2 SLP197 T01500122 10256 20144 50001 $,KROC,2023-06-01T05:54:00Z,43.12,-77.68,15.0,12.2,0,0,,10.0,30.109253,1019.7,,,TRUE,TRUE,,,,,,CLR,,,,,,,,VFR,0.1,25.6,14.4,,,,,,,,,METAR,166.0
KROA 010554Z 00000KT 10SM CLR 15/13 A3014 RMK AO2 SLP197 T01500133 10228 20144 58006,KROA,2023-06-01T05:54:00Z,37.32,-79.97,15.0,13.3,0,0,,10.0,30.138779,1019.7,,,TRUE,,,,,,,CLR,,,,,,,,VFR,-0.6,22.8,14.4,,,,,,,,,METAR,349.0
KRKS 010554Z AUTO 19007KT 10SM CLR 14/02 A2991 RMK AO2 SLP049 T01390017 10222 20139 58002,KRKS,2023-06-01T05:54:00Z,41.6,-109.07,13.9,1.7,190,7,,10.0,29.911417,1004.9,,TRUE,TRUE,,,,,,,CLR,,,,,,,,VFR,-0.2,22.2,13.9,,,,,,,,,METAR,2062.0
KRIC 010554Z 02005KT 10SM CLR 16/13 A3008 RMK AO2 SLP189 T01560133 10211 20156 58008,KRIC,2023-06-01T05:54:00Z,37.52,-77.32,15.6,13.3,20,5,,10.0,30.079725,1018.9,,,TRUE,,,,,,,CLR,,,,,,,,VFR,-0.8,21.1,15.6,,,,,,,,,METAR,51.0
KRFD 010554Z 00000KT 10SM SCT150 19/16 A3001 RMK AO2 SLP159 10233 20178 403170156 T01890161 404830156 51003 $,KRFD,2023-06-01T05:54:00Z,42.2,-89.1,18.9,16.1,0,0,,10.0,30.008858,1015.9,,,TRUE,TRUE,,,,,,SCT,15000,,,,,,,VFR,0.3,23.3,17.8,31.7,15.6,,,,,,,METAR,222.0
KRDG 010554Z AUTO 35003KT 10SM CLR 13/07 A3014 RMK AO2 SLP208 T01330067 10250 20133 50004,KRDG,2023-06-01T05:54:00Z,40.37,-75.97,13.3,6.7,350,3,,10.0,30.138779,1020.8,,TRUE,TRUE,,,,,,,CLR,,,,,,,,VFR,0.4,25.0,13.3,,,,,,,,,METAR,101.0
KRBL 010554Z AUTO 17004KT 10SM CLR 22/14 A2978 RMK AO2 SLP081 T02170144 10283 20217 51016,KRBL,2023-06-01T05:54:00Z,40.15,-122.25,21.7,14.4,170,4,,10.0,29.778543,1008.1,,TRUE,TRUE,,,,,,,CLR,,,,,,,,VFR,1.6,28.3,21.7,,,,,,,,,METAR,107.0
KPTW 010554Z AUTO 07003KT 8SM CLR 12/10 A3016 RMK AO2 SLP209 T01220100 10228 20117 58001,KPTW,2023-06-01T05:54:00Z,40.23,-75.55,12.2,10.0,70,3,,8.0,30.159449,1020.9,,TRUE,TRUE,,,,,,,CLR,,,,,,,,VFR,-0.1,22.8,11.7,,,,,,,,,METAR,88.0
KPSF 010554Z AUTO 00000KT 10SM CLR 12/08 A3014 RMK AO2 SLP185 T01170083 10239 20117 56001 $,KPSF,2023-06-01T05:54:00Z,42.43,-73.28,11.7,8.3,0,0,,10.0,30.138779,1018.5,,TRUE,TRUE,TRUE,,,,,,CLR,,,,,,,,VFR,-0.1,23.9,11.7,,,,,,,,,METAR,352.0
KPNE 010554Z AUTO 00000KT 10SM CLR 14/12 A3015 RMK AO2 SLP208 T01440117 10222 20133 58001,KPNE,2023-06-01T05:54:00Z,40.08,-75.02,14.4,11.7,0,0,,10.0,30.15059,1020.8,,TRUE,TRUE,,,,,,,CLR,,,,,,,,VFR,-0.1,22.2,13.3,,,,,,,,,METAR,32.0
KPLN 010554Z AUTO 00000KT 8SM CLR 14/14 A3009 RMK AO2 SLP187 T01440139 10233 20144 51008,KPLN,2023-06-01T05:54:00Z,45.57,-84.8,14.4,13.9,0,0,,8.0,30.088583,1018.7,,TRUE,TRUE,,,,,,,CLR,,,,,,,,VFR,0.8,23.3,14.4,,,,,,,,,METAR,215.0
KPIA 010554Z 10003KT 10SM CLR 23/17 A2999 RMK AO2 SLP149 T02330167 10294 20217 403280172 51005,KPIA,2023-06-01T05:54:00Z,40.67,-89.68,23.3,16.7,100,3,,10.0,29.991142,1014.9,,,TRUE,,,,,,,CLR,,,,,,,,VFR,0.5,29.4,21.7,32.8,17.2,,,,,,,METAR,200.0
KPHL 010554Z 03004KT 10SM CLR 15/12 A3013 RMK AO2 SLP203 T01500122 10222 20150 58003 $,KPHL,2023-06-01T05:54:00Z,39.87,-75.23,15.0,12.2,30,4,,10.0,30.129921,1020.3,,,TRUE,TRUE,,,,,,CLR,,,,,,,,VFR,-0.3,22.2,15.0,,,,,,,,,METAR,2.0
KORH 010554Z AUTO 24012KT 10SM CLR 14/10 A3014 RMK AO2 SLP202 LAST AUGMENTED OBS T01440100 10222 20144 56004,KORH,2023-06-01T05:54:00Z,42.27,-71.87,14.4,10.0,240,12,,10.0,30.138779,1020.2,,TRUE,TRUE,,,,,,,CLR,,,,,,,,VFR,-0.4,22.2,14.4,,,,,,,,,METAR,306.0
KOLS 010554Z AUTO 21008KT 10SM CLR 18/M02 A2991 RMK AO2 SLP065 T01781017 10283 20172 51014,KOLS,2023-06-01T05:54:00Z,31.42,-110.85,17.8,-1.7,210,8,,10.0,29.911417,1006.5,,TRUE,TRUE,,,,,,,CLR,,,,,,,,VFR,1.4,28.3,17.2,,,,,,,,,METAR,1194.0
KOLM 010554Z AUTO 17003KT 10SM OVC075 12/06 A3008 RMK AO2 SLP184 T01170056 10172 20117 51007,KOLM,2023-06-01T05:54:00Z,46.97,-122.9,11.7,5.6,170,3,,10.0,30.079725,1018.4,,TRUE,TRUE,,,,,,,OVC,7500,,,,,,,VFR,0.7,17.2,11.7,,,,,,,,,METAR,58.0
KOFP 010554Z AUTO 00000KT 7SM CLR 14/13 A3010 RMK AO2 SLP190 T01390133 10217 20139 58008,KOFP,2023-06-01T05:54:00Z,37.7,-77.43,13.9,13.3,0,0,,7.0,30.100393,1019.0,,TRUE,TRUE,,,,,,,CLR,,,,,,,,VFR,-0.8,21.7,13.9,,,,,,,,,METAR,63.0
KNAK 010554Z AUTO 00000KT 10SM CLR 17/16 A3011 RMK AO2 SLP196 T01720161 10222 20172 58004,KNAK,2023-06-01T05:54:00Z,38.98,-76.48,17.2,16.1,0,0,,10.0,30.109253,1019.6,,TRUE,TRUE,,,,,,,CLR,,,,,,,,VFR,-0.4,22.2,17.2,,,,,,,,,METAR,2.0
KMVL 010554Z AUTO 00000KT 10SM CLR 11/08 A3013 RMK AO2 SLP200 T01060083 10222 20100 50004,KMVL,2023-06-01T05:54:00Z,44.53,-72.62,10.6,8.3,0,0,,10.0,30.129921,1020.0,,TRUE,TRUE,,,,,,,CLR,,,,,,,,VFR,0.4,22.2,10.0,,,,,,,,,METAR,226.0
KMTP 010554Z AUTO 00000KT 15/13 A3015 RMK AO1 SLP210 T01500133 10167 20128 58002,KMTP,2023-06-01T05:54:00Z,41.07,-71.92,15.0,13.3,0,0,,,30.15059,1021.0,,TRUE,TRUE,,,,,,,,,,,,,,,,-0.2,16.7,12.8,,,,,,,,,METAR,2.0
KMRY 010554Z AUTO 25007KT 9SM OVC013 12/09 A2994 RMK AO2 SLP152 T01170089 10139 20117 51005,KMRY,2023-06-01T05:54:00Z,36.58,-121.85,11.7,8.9,250,7,,9.0,29.940945,1015.2,,TRUE,TRUE,,,,,,,OVC,1300,,,,,,,MVFR,0.5,13.9,11.7,,,,,,,,,METAR,51.0
KMOT 010554Z AUTO 07004KT 10SM SCT085 BKN110 17/16 A2986 RMK AO2 SLP104 T01720156 10217 20167 402780133 51006,KMOT,2023-06-01T05:54:00Z,48.25,-101.27,17.2,15.6,70,4,,10.0,29.861221,1010.4,,TRUE,TRUE,,,,,,,SCT,8500,BKN,11000,,,,,VFR,0.6,21.7,16.7,27.8,13.3,,,,,,,METAR,507.0
KMKC 010554Z VRB04KT 10SM CLR 22/19 A2992 RMK AO2 SLP125 60076 T02220189 10278 20206 402940178 51005,KMKC,2023-06-01T05:54:00Z,39.12,-94.6,22.2,18.9,0,4,,10.0,29.920275,1012.5,,,TRUE,,,,,,,CLR,,,,,,,,VFR,0.5,27.8,20.6,29.4,17.8,,,0.76,,,,METAR,228.0
KMIV 010554Z AUTO 06003KT 4SM BR CLR 15/13 A3011 RMK AO2 SLP196 T01500128 10200 20144 58005,KMIV,2023-06-01T05:54:00Z,39.37,-75.08,15.0,12.8,60,3,,4.0,30.109253,1019.6,,TRUE,TRUE,,,,,,BR,CLR,,,,,,,,MVFR,-0.5,20.0,14.4,,,,,,,,,METAR,18.0
KMGJ 010554Z AUTO 00000KT 10SM CLR 08/07 A3014 RMK AO2 SLP205 T00830067 10211 20078 51003,KMGJ,2023-06-01T05:54:00Z,41.52,-74.27,8.3,6.7,0,0,,10.0,30.138779,1020.5,,TRUE,TRUE,,,,,,,CLR,,,,,,,,VFR,0.3,21.1,7.8,,,,,,,,,METAR,106.0
KMFI 010554Z AUTO 15003KT 10SM CLR 20/15 A3000 RMK AO2 SLP150 T02000150 10283 20200 403110144 52006,KMFI,2023-06-01T05:54:00Z,44.63,-90.18,20.0,15.0,150,3,,10.0,30.0,1015.0,,TRUE,TRUE,,,,,,,CLR,,,,,,,,VFR,0.6,28.3,20.0,31.1,14.4,,,,,,,METAR,383.0
KMEM 010554Z VRB03KT 10SM CLR 24/18 A2997 RMK AO2 SLP143 T02390178 10294 20239 403170217 50004 $,KMEM,2023-06-01T05:54:00Z,35.07,-89.98,23.9,17.8,0,3,,10.0,29.970472,1014.3,,,TRUE,TRUE,,,,,,CLR,,,,,,,,VFR,0.4,29.4,23.9,31.7,21.7,,,,,,,METAR,78.0
KLYH 010554Z AUTO VRB03KT 10SM CLR 15/11 A3011 RMK AO2 SLP188 T01500111 10217 20133 58008 $,KLYH,2023-06-01T05:54:00Z,37.32,-79.2,15.0,11.1,0,3,,10.0,30.109253,1018.8,,TRUE,TRUE,TRUE,,,,,,CLR,,,,,,,,VFR,-0.8,21.7,13.3,,,,,,,,,METAR,282.0
KLWT 010554Z AUTO 17003KT 10SM -RA OVC085 12/11 A2982 RMK AO2 SLP071 P0002 60091 T01220106 10183 20117 58008 $,KLWT,2023-06-01T05:54:00Z,47.05,-109.47,12.2,10.6,170,3,,10.0,29.819881,1007.1,,TRUE,TRUE,TRUE,,,,,-RA,OVC,8500,,,,,,,VFR,-0.8,18.3,11.7,,,0.02,,0.91,,,,METAR,1254.0
KLWM 010554Z AUTO 20006KT 10SM CLR 17/11 A3011 RMK AO2 SLP195 T01670106 10228 20161 58008,KLWM,2023-06-01T05:54:00Z,42.72,-71.13,16.7,10.6,200,6,,10.0,30.109253,1019.5,,TRUE,TRUE,,,,,,,CLR,,,,,,,,VFR,-0.8,22.8,16.1,,,,,,,,,METAR,42.0
KLNK 010554Z AUTO 16006KT 10SM CLR 22/18 A2988 RMK AO2 SLP106 T02220183 10306 20222 403220156 53002,KLNK,2023-06-01T05:54:00Z,40.85,-96.77,22.2,18.3,160,6,,10.0,29.878937,1010.6,,TRUE,TRUE,,,,,,,CLR,,,,,,,,VFR,0.2,30.6,22.2,32.2,15.6,,,,,,,METAR,357.0
KLEX 010554Z 00000KT 10SM CLR 21/15 A3005 RMK AO2 SLP165 T02060150 10272 20200 58001,KLEX,2023-06-01T05:54:00Z,38.03,-84.6,20.6,15.0,0,0,,10.0,30.050198,1016.5,,,TRUE,,,,,,,CLR,,,,,,,,VFR,-0.1,27.2,20.0,,,,,,,,,METAR,294.0
KLAF 010554Z AUTO 00000KT 10SM CLR 19/16 A3002 RMK AO2 SLP161 T01940161 10283 20189 53003,KLAF,2023-06-01T05:54:00Z,40.42,-86.93,19.4,16.1,0,0,,10.0,30.02067,1016.1,,TRUE,TRUE,,,,,,,CLR,,,,,,,,VFR,0.3,28.3,18.9,,,,,,,,,METAR,182.0
KJST 010554Z AUTO 00000KT 10SM CLR 16/02 A3016 RMK AO2 SLP201 T01560017 10211 20150 58002,KJST,2023-06-01T05:54:00Z,40.32,-78.83,15.6,1.7,0,0,,10.0,30.159449,1020.1,,TRUE,TRUE,,,,,,,CLR,,,,,,,,VFR,-0.2,21.1,15.0,,,,,,,,,METAR,695.0
KJAN 010554Z AUTO 00000KT 10SM CLR 21/18 A2993 RMK AO2 SLP128 T02060178 10283 20200 403170178 58000,KJAN,2023-06-01T05:54:00Z,32.32,-90.08,20.6,17.8,0,0,,10.0,29.929134,1012.8,,TRUE,TRUE,,,,,,,CLR,,,,,,,,VFR,0.0,28.3,20.0,31.7,17.8,,,,,,,METAR,92.0
KIZG 010554Z AUTO 27003KT 10SM CLR 11/11 A3010 RMK AO2 SLP191 T01110106 10256 20111 56002,KIZG,2023-06-01T05:54:00Z,43.98,-70.95,11.1,10.6,270,3,,10.0,30.100393,1019.1,,TRUE,TRUE,,,,,,,CLR,,,,,,,,VFR,-0.2,25.6,11.1,,,,,,,,,METAR,138.0
KISW 010554Z AUTO 00000KT 10SM CLR 19/15 A3000 RMK AO2 SLP154 T01940150 10283 20178 403330133 51006,KISW,2023-06-01T05:54:00Z,44.37,-89.83,19.4,15.0,0,0,,10.0,30.0,1015.4,,TRUE,TRUE,,,,,,,CLR,,,,,,,,VFR,0.6,28.3,17.8,33.3,13.3,,,,,,,METAR,311.0
KIPT 010554Z AUTO 00000KT 10SM CLR 13/08 A3013 RMK AO2 SLP202 T01330083 10261 20133 51008,KIPT,2023-06-01T05:54:00Z,41.25,-76.92,13.3,8.3,0,0,,10.0,30.129921,1020.2,,TRUE,TRUE,,,,,,,CLR,,,,,,,,VFR,0.8,26.1,13.3,,,,,,,,,METAR,160.0
KINT 010554Z AUTO 02004KT 10SM CLR 17/16 A3010 RMK AO2 SLP183 T01720156 10228 20167 58011,KINT,2023-06-01T05:54:00Z,36.13,-80.22,17.2,15.6,20,4,,10.0,30.100393,1018.3,,TRUE,TRUE,,,,,,,CLR,,,,,,,,VFR,-1.1,22.8,16.7,,,,,,,,,METAR,292.0
KINL 010554Z AUTO 09003KT 9SM -RA OVC100 18/17 A2992 RMK AO2 RAB08 SLP129 P0002 60010 T01830172 10272 20183 402830100 51015,KINL,2023-06-01T05:54:00Z,48.57,-93.4,18.3,17.2,90,3,,9.0,29.920275,1012.9,,TRUE,TRUE,,,,,,-RA,OVC,10000,,,,,,,VFR,1.5,27.2,18.3,28.3,10.0,0.02,,0.1,,,,METAR,353.0
KIND 010554Z 00000KT 10SM FEW140 21/18 A3003 RMK AO2 SLP163 T02060178 10244 20200 50002,KIND,2023-06-01T05:54:00Z,39.72,-86.27,20.6,17.8,0,0,,10.0,30.029528,1016.3,,,TRUE,,,,,,,FEW,14000,,,,,,,VFR,0.2,24.4,20.0,,,,,,,,,METAR,242.0
KIMT 010554Z AUTO 13006KT 10SM CLR 19/15 A3003 RMK AO2 SLP165 T01890150 10283 20189 403220094 53011,KIMT,2023-06-01T05:54:00Z,45.82,-88.12,18.9,15.0,130,6,,10.0,30.029528,1016.5,,TRUE,TRUE,,,,,,,CLR,,,,,,,,VFR,1.1,28.3,18.9,32.2,9.4,,,,,,,METAR,343.0
KILN 010554Z AUTO 10003KT 9SM CLR 19/14 A3008 RMK AO2 SLP175 T01940144 10267 20178 50002,KILN,2023-06-01T05:54:00Z,39.43,-83.8,19.4,14.4,100,3,,9.0,30.079725,1017.5,,TRUE,TRUE,,,,,,,CLR,,,,,,,,VFR,0.2,26.7,17.8,,,,,,,,,METAR,325.0
KHWD 010554Z AUTO 24007KT 10SM SCT017 13/09 A2989 RMK AO2 SLP131 T01280089 10167 20128 51005,KHWD,2023-06-01T05:54:00Z,37.67,-122.12,12.8,8.9,240,7,,10.0,29.890747,1013.1,,TRUE,TRUE,,,,,,,SCT,1700,,,,,,,VFR,0.5,16.7,12.8,,,,,,,,,METAR,9.0
KGSO 010554Z 00000KT 10SM FEW065 16/14 A3008 RMK AO2 SLP177 T01610144 10222 20161 58012,KGSO,2023-06-01T05:54:00Z,36.1,-79.95,16.1,14.4,0,0,,10.0,30.079725,1017.7,,,TRUE,,,,,,,FEW,6500,,,,,,,VFR,-1.2,22.2,16.1,,,,,,,,,METAR,275.0
KGCN 010554Z AUTO 00000KT 10SM FU CLR 04/M06 A2997 RMK AO2 SLP080 T00441061 10206 20044 51011,KGCN,2023-06-01T05:54:00Z,35.95,-112.15,4.4,-6.1,0,0,,10.0,29.970472,1008.0,,TRUE,TRUE,,,,,,FU,CLR,,,,,,,,VFR,1.1,20.6,4.4,,,,,,,,,METAR,1993.0
KGCK 010554Z AUTO 22012KT 10SM SCT044 17/14 A2990 RMK AO2 PK WND 20031/0513 WSHFT 0511 LTG DSNT SE SLP098 60001 T01720144 10239 20167 402720128 51013,KGCK,2023-06-01T05:54:00Z,37.92,-100.72,17.2,14.4,220,12,,10.0,29.899607,1009.8,,TRUE,TRUE,,,,,,,SCT,4400,,,,,,,VFR,1.3,23.9,16.7,27.2,12.8,,,0.01,,,,METAR,877.0
KFZY 010554Z AUTO 00000KT 9SM CLR 13/12 A3010 RMK AO2 SLP191 T01330122 10233 20133 58002,KFZY,2023-06-01T05:54:00Z,43.35,-76.38,13.3,12.2,0,0,,9.0,30.100393,1019.1,,TRUE,TRUE,,,,,,,CLR,,,,,,,,VFR,-0.2,23.3,13.3,,,,,,,,,METAR,143.0
KFWA 010554Z 14005KT 10SM FEW075 FEW090 22/14 A3006 RMK AO2 SLP172 T02170144 10289 20200 50003,KFWA,2023-06-01T05:54:00Z,40.98,-85.2,21.7,14.4,140,5,,10.0,30.059055,1017.2,,,TRUE,,,,,,,FEW,7500,FEW,9000,,,,,VFR,0.3,28.9,20.0,,,,,,,,,METAR,243.0
KFIG 010554Z AUTO 02003KT 10SM CLR 11/07 A3016 RMK AO2 SLP206 T01110067 10256 20106 50002,KFIG,2023-06-01T05:54:00Z,41.05,-78.42,11.1,6.7,20,3,,10.0,30.159449,1020.6,,TRUE,TRUE,,,,,,,CLR,,,,,,,,VFR,0.2,25.6,10.6,,,,,,,,,METAR,461.0
KFFZ 010554Z 28003KT 10SM CLR 25/03 A2975 RMK AO2 SLP050 T02500028 10306 20250 51015,KFFZ,2023-06-01T05:54:00Z,33.47,-111.72,25.0,2.8,280,3,,10.0,29.749016,1005.0,,,TRUE,,,,,,,CLR,,,,,,,,VFR,1.5,30.6,25.0,,,,,,,,,METAR,420.0
KEWN 010554Z AUTO 35004KT 10SM BKN028 18/16 A3002 RMK AO2 SLP166 T01830161 10222 20183 58015,KEWN,2023-06-01T05:54:00Z,35.07,-77.05,18.3,16.1,350,4,,10.0,30.02067,1016.6,,TRUE,TRUE,,,,,,,BKN,2800,,,,,,,MVFR,-1.5,22.2,18.3,,,,,,,,,METAR,3.0
KEVV 010554Z AUTO 00000KT 10SM CLR 20/18 A3001 RMK AO2 SLP158 T02000178 10267 20200 403170178 51001,KEVV,2023-06-01T05:54:00Z,38.05,-87.52,20.0,17.8,0,0,,10.0,30.008858,1015.8,,TRUE,TRUE,,,,,,,CLR,,,,,,,,VFR,0.1,26.7,20.0,31.7,17.8,,,,,,,METAR,123.0
KEUG 010554Z 08004KT 10SM CLR 09/06 A3008 RMK AO2 SLP187 T00940056 10206 20089 51013,KEUG,2023-06-01T05:54:00Z,44.13,-123.22,9.4,5.6,80,4,,10.0,30.079725,1018.7,,,TRUE,,,,,,,CLR,,,,,,,,VFR,1.3,20.6,8.9,,,,,,,,,METAR,109.0
KEFD 010554Z 18004KT 10SM BKN050 BKN060 23/20 A2987,KEFD,2023-06-01T05:54:00Z,29.6,-95.17,23.0,20.0,180,4,,10.0,29.870079,,,,,,,,,,,BKN,5000,BKN,6000,,,,,VFR,,,,,,,,,,,,METAR,9.0
KECG 010554Z AUTO 02009KT 10SM OVC005 18/17 A3002 RMK AO2 RAB14E36 SLP166 P0000 60000 T01780167 10200 20178 58012,KECG,2023-06-01T05:54:00Z,36.27,-76.18,17.8,16.7,20,9,,10.0,30.02067,1016.6,,TRUE,TRUE,,,,,,,OVC,500,,,,,,,IFR,-1.2,20.0,17.8,,,0.005,,0.005,,,,METAR,2.0
KDYL 010554Z AUTO 00000KT 10SM CLR 12/09 A3014 RMK AO2 SLP204 T01170089 10228 20117 58001,KDYL,2023-06-01T05:54:00Z,40.33,-75.12,11.7,8.9,0,0,,10.0,30.138779,1020.4,,TRUE,TRUE,,,,,,,CLR,,,,,,,,VFR,-0.1,22.8,11.7,,,,,,,,,METAR,121.0
KDSV 010554Z AUTO 15009KT 10SM CLR 17/13 A3013 RMK AO2 SLP208 T01670128 10278 20167 50002,KDSV,2023-06-01T05:54:00Z,42.57,-77.72,16.7,12.8,150,9,,10.0,30.129921,1020.8,,TRUE,TRUE,,,,,,,CLR,,,,,,,,VFR,0.2,27.8,16.7,,,,,,,,,METAR,195.0
KDSM 010554Z 15006KT 10SM FEW095 SCT140 BKN250 21/16 A2993 RMK AO2 SLP127 OCNL LTGIC DSNT SE-S CB DSNT SE-S MOV NE T02110161 10283 20211 403110178 53005,KDSM,2023-06-01T05:54:00Z,41.53,-93.67,21.1,16.1,150,6,,10.0,29.929134,1012.7,,,TRUE,,,,,,,FEW,9500,SCT,14000,BKN,25000,,,VFR,0.5,28.3,21.1,31.1,17.8,,,,,,,METAR,286.0
KDMH 010554Z AUTO 18/14 A3012 RMK AO1 SLP200 T01830139 10244 20183 58002,KDMH,2023-06-01T05:54:00Z,39.28,-76.62,18.3,13.9,,,,,30.121063,1020.0,,TRUE,TRUE,,,,,,,,,,,,,,,,-0.2,24.4,18.3,,,,,,,,,METAR,4.0
KDEC 010554Z AUTO 09003KT 10SM CLR 21/15 A3001 RMK AO2 SLP155 T02060150 10300 20206 403280167 50004,KDEC,2023-06-01T05:54:00Z,39.83,-88.87,20.6,15.0,90,3,,10.0,30.008858,1015.5,,TRUE,TRUE,,,,,,,CLR,,,,,,,,VFR,0.4,30.0,20.6,32.8,16.7,,,,,,,METAR,205.0
KDDH 010554Z AUTO 00000KT 10SM CLR 12/10 A3013 RMK AO2 SLP200 T01170100 10228 20117 51001,KDDH,2023-06-01T05:54:00Z,42.9,-73.25,11.7,10.0,0,0,,10.0,30.129921,1020.0,,TRUE,TRUE,,,,,,,CLR,,,,,,,,VFR,0.1,22.8,11.7,,,,,,,,,METAR,241.0
KCRW 010554Z 00000KT 10SM CLR 17/16 A3007 RMK AO2 SLP176 T01670161 10261 20161 58002,KCRW,2023-06-01T05:54:00Z,38.38,-81.58,16.7,16.1,0,0,,10.0,30.070866,1017.6,,,TRUE,,,,,,,CLR,,,,,,,,VFR,-0.2,26.1,16.1,,,,,,,,,METAR,278.0
KCOU 010554Z AUTO 13005KT 10SM CLR 21/16 A2998 RMK AO2 SLP144 T02060161 10278 20206 402890172 51007,KCOU,2023-06-01T05:54:00Z,38.82,-92.22,20.6,16.1,130,5,,10.0,29.97933,1014.4,,TRUE,TRUE,,,,,,,CLR,,,,,,,,VFR,0.7,27.8,20.6,28.9,17.2,,,,,,,METAR,272.0
KCOS 010554Z 01005KT 10SM OVC200 13/07 A2997 RMK AO2 SLP079 T01280067 10222 20128 58003,KCOS,2023-06-01T05:54:00Z,38.82,-104.68,12.8,6.7,10,5,,10.0,29.970472,1007.9,,,TRUE,,,,,,,OVC,20000,,,,,,,VFR,-0.3,22.2,12.8,,,,,,,,,METAR,1886.0
KCEU 010554Z AUTO 35003KT 10SM CLR 17/17 A3007 RMK AO2 SLP177 T01720167 10217 20167 56009,KCEU,2023-06-01T05:54:00Z,34.67,-82.88,17.2,16.7,350,3,,10.0,30.070866,1017.7,,TRUE,TRUE,,,,,,,CLR,,,,,,,,VFR,-0.9,21.7,16.7,,,,,,,,,METAR,270.0
KCAR 010554Z AUTO 00000KT 10SM CLR 17/11 A2999 RMK AO2 SLP157 T01720111 10283 20161 50002,KCAR,2023-06-01T05:54:00Z,46.87,-68.02,17.2,11.1,0,0,,10.0,29.991142,1015.7,,TRUE,TRUE,,,,,,,CLR,,,,,,,,VFR,0.2,28.3,16.1,,,,,,,,,METAR,189.0
KBWI 010554Z 00000KT 8SM CLR 14/11 A3011 RMK AO2 SLP196 T01390111 10233 20139 58001,KBWI,2023-06-01T05:54:00Z,39.17,-76.68,13.9,11.1,0,0,,8.0,30.109253,1019.6,,,TRUE,,,,,,,CLR,,,,,,,,VFR,-0.1,23.3,13.9,,,,,,,,,METAR,42.0
KBUY 010554Z AUTO 00000KT 10SM CLR 15/14 A3007 RMK AO2 SLP177 T01500139 10233 20150 58013,KBUY,2023-06-01T05:54:00Z,36.05,-79.47,15.0,13.9,0,0,,10.0,30.070866,1017.7,,TRUE,TRUE,,,,,,,CLR,,,,,,,,VFR,-1.3,23.3,15.0,,,,,,,,,METAR,185.0
KBUF 010554Z 07003KT 10SM CLR 19/12 A3010 RMK AO2 SLP190 T01890117 10283 20189 58001,KBUF,2023-06-01T05:54:00Z,42.93,-78.73,18.9,11.7,70,3,,10.0,30.100393,1019.0,,,TRUE,,,,,,,CLR,,,,,,,,VFR,-0.1,28.3,18.9,,,,,,,,,METAR,217.0
KBTV 010554Z AUTO 00000KT 10SM CLR 17/12 A3009 RMK AO2 SLP187 T01720122 10289 20172 50003,KBTV,2023-06-01T05:54:00Z,44.47,-73.15,17.2,12.2,0,0,,10.0,30.088583,1018.7,,TRUE,TRUE,,,,,,,CLR,,,,,,,,VFR,0.3,28.9,17.2,,,,,,,,,METAR,101.0
KBOS 010554Z 23010KT 10SM CLR 16/12 A3011 RMK AO2 SLP196 T01610117 10228 20161 57007,KBOS,2023-06-01T05:54:00Z,42.37,-71.02,16.1,11.7,230,10,,10.0,30.109253,1019.6,,,TRUE,,,,,,,CLR,,,,,,,,VFR,-0.7,22.8,16.1,,,,,,,,,METAR,4.0
KBFL 010554Z 34007KT 7SM CLR 20/09 A2980 RMK AO2 SLP087 T02000094 10278 20200 53012,KBFL,2023-06-01T05:54:00Z,35.43,-119.05,20.0,9.4,340,7,,7.0,29.799213,1008.7,,,TRUE,,,,,,,CLR,,,,,,,,VFR,1.2,27.8,20.0,,,,,,,,,METAR,146.0
KAVP 010554Z 11007KT 10SM CLR 14/06 A3015 RMK AO2 SLP203 T01440061 10250 20144 53004 $,KAVP,2023-06-01T05:54:00Z,41.33,-75.72,14.4,6.1,110,7,,10.0,30.15059,1020.3,,,TRUE,TRUE,,,,,,CLR,,,,,,,,VFR,0.4,25.0,14.4,,,,,,,,,METAR,290.0
KAVL 010554Z AUTO 00000KT 10SM FEW031 16/14 A3013 RMK AO2 SLP185 T01610144 10200 20161 56005,KAVL,2023-06-01T05:54:00Z,35.43,-82.53,16.1,14.4,0,0,,10.0,30.129921,1018.5,,TRUE,TRUE,,,,,,,FEW,3100,,,,,,,VFR,-0.5,20.0,16.1,,,,,,,,,METAR,646.0
KAUW 010554Z AUTO 08003KT 10SM CLR 20/14 A2999 RMK AO2 SLP152 T02000139 10283 20200 403330133 51004,KAUW,2023-06-01T05:54:00Z,44.93,-89.62,20.0,13.9,80,3,,10.0,29.991142,1015.2,,TRUE,TRUE,,,,,,,CLR,,,,,,,,VFR,0.4,28.3,20.0,33.3,13.3,,,,,,,METAR,367.0
KAPN 010554Z AUTO 00000KT 10SM CLR 16/14 A3010 RMK AO2 SLP189 T01560139 10244 20139 51008,KAPN,2023-06-01T05:54:00Z,45.07,-83.57,15.6,13.9,0,0,,10.0,30.100393,1018.9,,TRUE,TRUE,,,,,,,CLR,,,,,,,,VFR,0.8,24.4,13.9,,,,,,,,,METAR,208.0
KAPC 010554Z AUTO 19014KT 9SM OVC015 A2985 RMK AO2 SLP101 51012 $,KAPC,2023-06-01T05:54:00Z,38.2,-122.28,,,190,14,,9.0,29.84941,1010.1,,TRUE,TRUE,TRUE,,,,,,OVC,1500,,,,,,,MVFR,1.2,,,,,,,,,,,METAR,5.0
KALO 010554Z AUTO 15005KT 10SM CLR 19/18 A2994 RMK AO2 SLP131 60018 T01940178 10311 20194 403390156 51007,KALO,2023-06-01T05:54:00Z,42.55,-92.4,19.4,17.8,150,5,,10.0,29.940945,1013.1,,TRUE,TRUE,,,,,,,CLR,,,,,,,,VFR,0.7,31.1,19.4,33.9,15.6,,,0.18,,,,METAR,264.0
KAKR 010554Z AUTO 00000KT 10SM CLR 15/08 A3011 RMK AO2 SLP188 T01500083 10283 20128 53001,KAKR,2023-06-01T05:54:00Z,41.03,-81.47,15.0,8.3,0,0,,10.0,30.109253,1018.8,,TRUE,TRUE,,,,,,,CLR,,,,,,,,VFR,0.1,28.3,12.8,,,,,,,,,METAR,319.0
KAKQ 010554Z AUTO 00000KT 8SM CLR 15/14 A3006 RMK AO2 SLP177 T01500139 10206 20144 58014,KAKQ,2023-06-01T05:54:00Z,36.98,-77.0,15.0,13.9,0,0,,8.0,30.059055,1017.7,,TRUE,TRUE,,,,,,,CLR,,,,,,,,VFR,-1.4,20.6,14.4,,,,,,,,,METAR,34.0
KAKH 010554Z AUTO 35004KT 10SM FEW036 17/16 A3007 RMK AO2 SLP178 T01670156 10222 20167 56013,KAKH,2023-06-01T05:54:00Z,35.2,-81.15,16.7,15.6,350,4,,10.0,30.070866,1017.8,,TRUE,TRUE,,,,,,,FEW,3600,,,,,,,VFR,-1.3,22.2,16.7,,,,,,,,,METAR,242.0
KACY 010554Z 01003KT 10SM BKN021 14/13 A3011 RMK AO2 SLP197 T01390128 10172 20139 $,KACY,2023-06-01T05:54:00Z,39.45,-74.57,13.9,12.8,10,3,,10.0,30.109253,1019.7,,,TRUE,TRUE,,,,,,BKN,2100,,,,,,,MVFR,,17.2,13.9,,,,,,,,,METAR,18.0
KAAO 010554Z AUTO 15006KT 10SM CLR 22/16 A2989 RMK AO2 SLP108 T02170156 10294 20217 403110183 51007,KAAO,2023-06-01T05:54:00Z,37.75,-97.22,21.7,15.6,150,6,,10.0,29.890747,1010.8,,TRUE,TRUE,,,,,,,CLR,,,,,,,,VFR,0.7,29.4,21.7,31.1,18.3,,,,,,,METAR,429.0
K1V4 010554Z AUTO 12/09 A3011 RMK AO1 SLP188 T01170089 10256 20117 51008,K1V4,2023-06-01T05:54:00Z,44.42,-72.02,11.7,8.9,,,,,30.109253,1018.8,,TRUE,TRUE,,,,,,,,,,,,,,,,0.8,25.6,11.7,,,,,,,,,METAR,213.0
K12N 010554Z AUTO 00000KT 11/08 A3016 RMK AO1 SLP208 T01110083 10206 20111 51004,K12N,2023-06-01T05:54:00Z,41.02,-74.73,11.1,8.3,0,0,,,30.159449,1020.8,,TRUE,TRUE,,,,,,,,,,,,,,,,0.4,20.6,11.1,,,,,,,,,METAR,178.0
TISX 010553Z AUTO 11007KT 10SM FEW017 27/24 A2997 RMK AO2 SLP148 60001 T02720244 10283 20272 58017,TISX,2023-06-01T05:53:00Z,17.7,-64.8,27.2,24.4,110,7,,10.0,29.970472,1014.8,,TRUE,TRUE,,,,,,,FEW,1700,,,,,,,VFR,-1.7,28.3,27.2,,,,,0.01,,,,METAR,16.0
PTYA 010553Z VRB05KT 12SM FEW016CB SCT130 BKN300 30/27 A2976 RMK CB NW-NE SLP079 60003 8/371 T02970265 10300 20282 56022,PTYA,2023-06-01T05:53:00Z,9.48,138.08,29.7,26.5,0,5,,12.0,29.760826,1007.9,,,,,,,,,,FEW,1600,SCT,13000,BKN,30000,,,VFR,-2.2,30.0,28.2,,,,,0.03,,,,METAR,4.0
PHNL 010553Z 07009KT 10SM FEW033 SCT043 SCT060 26/21 A3011 RMK AO2 SLP197 60000 T02560206 10300 20256 51014,PHNL,2023-06-01T05:53:00Z,21.33,-157.93,25.6,20.6,70,9,,10.0,30.109253,1019.7,,,TRUE,,,,,,,FEW,3300,SCT,4300,SCT,6000,,,VFR,1.4,30.0,25.6,,,,,0.005,,,,METAR,2.0
PHLI 010553Z 07012KT 10SM -RA BKN017 BKN035 24/22 A3014 RMK AO2 RAB49 SLP204 P0000 60000 T02440222 10278 20239 52012,PHLI,2023-06-01T05:53:00Z,21.97,-159.33,24.4,22.2,70,12,,10.0,30.138779,1020.4,,,TRUE,,,,,,-RA,BKN,1700,BKN,3500,,,,,MVFR,1.2,27.8,23.9,,,0.005,,0.005,,,,METAR,32.0
PHKO 010553Z 16006KT 10SM OVC065 27/20 A3010 RMK AO2 SLP191 T02670200 10294 20267 53017,PHKO,2023-06-01T05:53:00Z,19.73,-156.05,26.7,20.0,160,6,,10.0,30.100393,1019.1,,,TRUE,,,,,,,OVC,6500,,,,,,,VFR,1.7,29.4,26.7,,,,,,,,,METAR,11.0
PHJR 010553Z 08004KT 10SM FEW029 BKN047 25/19 A3013 RMK AO2 SLP208 60002 T02500194 10306 20250 51015,PHJR,2023-06-01T05:53:00Z,21.32,-158.07,25.0,19.4,80,4,,10.0,30.129921,1020.8,,,TRUE,,,,,,,FEW,2900,BKN,4700,,,,,VFR,1.5,30.6,25.0,,,,,0.02,,,,METAR,9.0
PAYA 010553Z AUTO 06004KT 10SM BKN049 06/04 A2997 RMK AO2 SLP150 60000 T00610044 10100 20061 53009 TSNO,PAYA,2023-06-01T05:53:00Z,59.52,-139.67,6.1,4.4,60,4,,10.0,29.970472,1015.0,,TRUE,TRUE,,,TRUE,,,,BKN,4900,,,,,,,VFR,0.9,10.0,6.1,,,,,0.005,,,,METAR,9.0
PAWD 010553Z AUTO 18010KT 10SM FEW041 BKN060 OVC090 08/04 A2990 RMK AO2 SLP127 T00830039 10106 20083 53010 TSNO,PAWD,2023-06-01T05:53:00Z,60.12,-149.42,8.3,3.9,180,10,,10.0,29.899607,1012.7,,TRUE,TRUE,,,TRUE,,,,FEW,4100,BKN,6000,OVC,9000,,,VFR,1.0,10.6,8.3,,,,,,,,,METAR,3.0
PATO 010553Z AUTO 13005KT 10SM FEW025 BKN036 OVC050 06/04 A2992 RMK AO2 RAE0456 SLP132 P0000 60000 T00610039 10083 20061 53010 TSNO,PATO,2023-06-01T05:53:00Z,60.78,-148.85,6.1,3.9,130,5,,10.0,29.920275,1013.2,,TRUE,TRUE,,,TRUE,,,,FEW,2500,BKN,3600,OVC,5000,,,VFR,1.0,8.3,6.1,,,0.005,,0.005,,,,METAR,47.0
PASO 010553Z AUTO 17011KT 10SM OVC070 10/03 A2989 RMK AO2 SLP122 T01000033 10139 20100 53008 TSNO,PASO,2023-06-01T05:53:00Z,59.45,-151.7,10.0,3.3,170,11,,10.0,29.890747,1012.2,,TRUE,TRUE,,,TRUE,,,,OVC,7000,,,,,,,VFR,0.8,13.9,10.0,,,,,,,,,METAR,20.0
PASN 010553Z AUTO 27012KT 10SM CLR 07/00 A3030 RMK AO2 SLP261 T00670000 10111 20067 56001 TSNO $,PASN,2023-06-01T05:53:00Z,57.15,-170.22,6.7,0.0,270,12,,10.0,30.301182,1026.1,,TRUE,TRUE,TRUE,,TRUE,,,,CLR,,,,,,,,VFR,-0.1,11.1,6.7,,,,,,,,,METAR,8.0
PASI 010553Z 10005KT 9SM OVC070 08/05 A2998 RMK AO2 RAE0455 SLP152 P0000 60010 T00830050 10117 20072 53003 $,PASI,2023-06-01T05:53:00Z,57.03,-135.35,8.3,5.0,100,5,,9.0,29.97933,1015.2,,,TRUE,TRUE,,,,,,OVC,7000,,,,,,,VFR,0.3,11.7,7.2,,,0.005,,0.1,,,,METAR,2.0
PAQT 010553Z AUTO 29017KT 10SM OVC017 M02/M07 A2989 RMK AO2 UPB27E38 SLP123 P0000 60000 T10171067 10033 21017 51021,PAQT,2023-06-01T05:53:00Z,70.22,-151.0,-1.7,-6.7,290,17,,10.0,29.890747,1012.3,,TRUE,TRUE,,,,,,,OVC,1700,,,,,,,MVFR,2.1,3.3,-1.7,,,0.005,,0.005,,,,METAR,11.0
PAPB 010553Z AUTO 28011KT 10SM CLR 07/01 A3032 RMK AO2 SLP256 T00720011 10111 20072 55000 TSNO $,PAPB,2023-06-01T05:53:00Z,56.58,-169.67,7.2,1.1,280,11,,10.0,30.318897,1025.6,,TRUE,TRUE,TRUE,,TRUE,,,,CLR,,,,,,,,VFR,0.0,11.1,7.2,,,,,,,,,SPECI,33.0
PAOT 010553Z 31011KT 10SM SCT090 M03/M04 A2995 RMK AO2 SLP142 T10281039 11017 21028 56013,PAOT,2023-06-01T05:53:00Z,66.88,-162.6,-2.8,-3.9,310,11,,10.0,29.949802,1014.2,,,TRUE,,,,,,,SCT,9000,,,,,,,VFR,-1.3,-1.7,-2.8,,,,,,,,,METAR,3.0
PAOR 010553Z 31005KT 10SM BKN065 OVC075 07/02 A2976 RMK AO2 SLP097 60003 T00670022 10072 20061 53013,PAOR,2023-06-01T05:53:00Z,62.97,-141.93,6.7,2.2,310,5,,10.0,29.760826,1009.7,,,TRUE,,,,,,,BKN,6500,OVC,7500,,,,,VFR,1.3,7.2,6.1,,,,,0.03,,,,METAR,524.0
PAOM 010553Z 08009KT 10SM OVC085 02/M01 A2996 RMK AO2 SNE08 SLP146 P0000 60000 T00171011 10017 20006 58021,PAOM,2023-06-01T05:53:00Z,64.5,-165.43,1.7,-1.1,80,9,,10.0,29.958662,1014.6,,,TRUE,,,,,,,OVC,8500,,,,,,,VFR,-2.1,1.7,0.6,,,0.005,,0.005,,,,METAR,6.0
PANN 010553Z AUTO 30007G16KT 10SM CLR 08/M04 A2980 RMK AO2 SLP098 T00781039 10122 20078 53026 TSNO,PANN,2023-06-01T05:53:00Z,64.55,-149.08,7.8,-3.9,300,7,16,10.0,29.799213,1009.8,,TRUE,TRUE,,,TRUE,,,,CLR,,,,,,,,VFR,2.6,12.2,7.8,,,,,,,,,METAR,110.0
PANC 010553Z 30006KT 10SM BKN044 OVC085 08/04 A2987 RMK AO2 SLP117 PRESENT WX VCSH W-N T00780044 10111 20078 53013,PANC,2023-06-01T05:53:00Z,61.17,-150.02,7.8,4.4,300,6,,10.0,29.870079,1011.7,,,TRUE,,,,,,,BKN,4400,OVC,8500,,,,,VFR,1.3,11.1,7.8,,,,,,,,,METAR,39.0
PAMR 010553Z 31006KT 10SM OVC046 09/04 A2988 RMK AO2 SLP118 T00890039 10106 20089 53012,PAMR,2023-06-01T05:53:00Z,61.22,-149.85,8.9,3.9,310,6,,10.0,29.878937,1011.8,,,TRUE,,,,,,,OVC,4600,,,,,,,VFR,1.2,10.6,8.9,,,,,,,,,METAR,43.0
PAMC 010553Z AUTO 00000KT 10SM OVC060 09/M03 A2992 RMK AO2 SLP136 T00891028 10111 20089 53007 TSNO,PAMC,2023-06-01T05:53:00Z,62.97,-155.62,8.9,-2.8,0,0,,10.0,29.920275,1013.6,,TRUE,TRUE,,,TRUE,,,,OVC,6000,,,,,,,VFR,0.7,11.1,8.9,,,,,,,,,METAR,101.0
PALH 010553Z 32004KT 10SM FEW035 OVC046 08/04 A2988 RMK AO2 SLP119 T00830044 10117 20083 53012,PALH,2023-06-01T05:53:00Z,61.18,-149.97,8.3,4.4,320,4,,10.0,29.878937,1011.9,,,TRUE,,,,,,,FEW,3500,OVC,4600,,,,,VFR,1.2,11.7,8.3,,,,,,,,,METAR,26.0
PAKW 010553Z AUTO 00000KT 10SM SCT032 OVC060 08/06 A3000 RMK AO2 SLP159 T00830056 10133 20083 51002 TSNO $,PAKW,2023-06-01T05:53:00Z,55.58,-133.07,8.3,5.6,0,0,,10.0,30.0,1015.9,,TRUE,TRUE,TRUE,,TRUE,,,,SCT,3200,OVC,6000,,,,,VFR,0.2,13.3,8.3,,,,,,,,,METAR,7.0
PAKV 010553Z AUTO 34003KT 10SM CLR 08/M07 A2997 RMK AO2 SLP150 T00781072 10094 20072 50000 TSNO $,PAKV,2023-06-01T05:53:00Z,64.33,-158.72,7.8,-7.2,340,3,,10.0,29.970472,1015.0,,TRUE,TRUE,TRUE,,TRUE,,,,CLR,,,,,,,,VFR,0.0,9.4,7.2,,,,,,,,,METAR,53.0
PAKT 010553Z AUTO 15004KT 10SM BKN026 BKN034 09/06 A3004 RMK AO2 SLP172 T00940056 10117 20094 51002 TSNO,PAKT,2023-06-01T05:53:00Z,55.35,-131.72,9.4,5.6,150,4,,10.0,30.041338,1017.2,,TRUE,TRUE,,,TRUE,,,,BKN,2600,BKN,3400,,,,,MVFR,0.2,11.7,9.4,,,,,,,,,METAR,27.0
PAJN 010553Z 12008KT 10SM -RA FEW030 BKN050 BKN065 07/05 A3000 RMK AO2 RAB17 SLP160 P0000 60001 T00670050 10089 20067 53006,PAJN,2023-06-01T05:53:00Z,58.35,-134.55,6.7,5.0,120,8,,10.0,30.0,1016.0,,,TRUE,,,,,,-RA,FEW,3000,BKN,5000,BKN,6500,,,VFR,0.6,8.9,6.7,,,0.005,,0.01,,,,METAR,6.0
PAIL 010553Z AUTO 32010KT 10SM FEW075 12/M03 A2991 RMK AO2 SLP129 60000 T01221028 10150 20122 53009 TSNO,PAIL,2023-06-01T05:53:00Z,59.75,-154.92,12.2,-2.8,320,10,,10.0,29.911417,1012.9,,TRUE,TRUE,,,TRUE,,,,FEW,7500,,,,,,,VFR,0.9,15.0,12.2,,,,,0.005,,,,METAR,44.0
PAHO 010553Z AUTO 19008KT 10SM OVC039 11/03 A2989 RMK AO2 SLP121 T01060033 10122 20100 53006 TSNO,PAHO,2023-06-01T05:53:00Z,59.63,-151.48,10.6,3.3,190,8,,10.0,29.890747,1012.1,,TRUE,TRUE,,,TRUE,,,,OVC,3900,,,,,,,VFR,0.6,12.2,10.0,,,,,,,,,METAR,6.0
PAGY 010553Z AUTO 21016KT 10SM FEW110 09/03 A2993 RMK AO2 PK WND 21026/0457 SLP136 T00890033 10106 20089 50012 TSNO,PAGY,2023-06-01T05:53:00Z,59.47,-135.32,8.9,3.3,210,16,,10.0,29.929134,1013.6,,TRUE,TRUE,,,TRUE,,,,FEW,11000,,,,,,,VFR,1.2,10.6,8.9,,,,,,,,,METAR,7.0
PAFA 010553Z 29011KT 10SM FEW070 SCT090 SCT200 09/M04 A2976 RMK AO2 SLP085 ACSL N T00941039 10139 20094 53021 $,PAFA,2023-06-01T05:53:00Z,64.8,-147.87,9.4,-3.9,290,11,,10.0,29.760826,1008.5,,,TRUE,TRUE,,,,,,FEW,7000,SCT,9000,SCT,20000,,,VFR,2.1,13.9,9.4,,,,,,,,,METAR,130.0
PAEN 010553Z AUTO 22016KT 10SM OVC100 08/03 A2986 RMK AO2 SLP113 T00780028 10100 20078 53008 TSNO,PAEN,2023-06-01T05:53:00Z,60.57,-151.25,7.8,2.8,220,16,,10.0,29.861221,1011.3,,TRUE,TRUE,,,TRUE,,,,OVC,10000,,,,,,,VFR,0.8,10.0,7.8,,,,,,,,,METAR,30.0
PAEG 010553Z AUTO 00000KT 9SM -RA SCT027 OVC032 06/03 A2970 RMK AO2 RAB42 SLP064 P0000 60006 T00610028 10100 20061 53018 TSNO,PAEG,2023-06-01T05:53:00Z,64.78,-141.15,6.1,2.8,0,0,,9.0,29.698818,1006.4,,TRUE,TRUE,,,TRUE,,,-RA,SCT,2700,OVC,3200,,,,,VFR,1.8,10.0,6.1,,,0.005,,0.06,,,,METAR,273.0
PADQ 010553Z AUTO 09004KT 10SM SCT050 OVC065 08/04 A2993 RMK AO2 SLP136 60000 T00780039 10100 20078 53008 TSNO,PADQ,2023-06-01T05:53:00Z,57.75,-152.5,7.8,3.9,90,4,,10.0,29.929134,1013.6,,TRUE,TRUE,,,TRUE,,,,SCT,5000,OVC,6500,,,,,VFR,0.8,10.0,7.8,,,,,0.005,,,,METAR,5.0
PACV 010553Z 00000KT 10SM BKN043 BKN080 07/04 A2994 RMK AO2 SLP140 60001 T00720044 10083 20072 53008,PACV,2023-06-01T05:53:00Z,60.5,-145.47,7.2,4.4,0,0,,10.0,29.940945,1014.0,,,TRUE,,,,,,,BKN,4300,BKN,8000,,,,,VFR,0.8,8.3,7.2,,,,,0.01,,,,METAR,15.0
PABT 010553Z 23005KT 10SM BKN060 BKN080 08/01 A2970 RMK AO2 RAE16 SLP067 P0000 60000 T00780006 10083 20072 51006,PABT,2023-06-01T05:53:00Z,66.92,-151.52,7.8,0.6,230,5,,10.0,29.698818,1006.7,,,TRUE,,,,,,,BKN,6000,BKN,8000,,,,,VFR,0.6,8.3,7.2,,,0.005,,0.005,,,,METAR,195.0
PABR 010553Z 26011KT 10SM CLR M03/M07 A2982 RMK AO2 SLP099 60000 T10331067 11017 21033 53001,PABR,2023-06-01T05:53:00Z,71.28,-156.78,-3.3,-6.7,260,11,,10.0,29.819881,1009.9,,,TRUE,,,,,,,CLR,,,,,,,,VFR,0.1,-1.7,-3.3,,,,,0.005,,,,METAR,6.0
PABI 010553Z AUTO 22011KT 10SM OVC060 06/02 A2979 RMK AO2 SLP099 60000 T00610017 10089 20061 53012 TSNO,PABI,2023-06-01T05:53:00Z,64.0,-145.72,6.1,1.7,220,11,,10.0,29.790354,1009.9,,TRUE,TRUE,,,TRUE,,,,OVC,6000,,,,,,,VFR,1.2,8.9,6.1,,,,,0.005,,,,METAR,388.0
PABE 010553Z 27009KT 10SM FEW060 OVC080 11/03 A3006 RMK AO2 SLP180 T01060033 10128 20106 50000,PABE,2023-06-01T05:53:00Z,60.78,-161.83,10.6,3.3,270,9,,10.0,30.059055,1018.0,,,TRUE,,,,,,,FEW,6000,OVC,8000,,,,,VFR,0.0,12.8,10.6,,,,,,,,,METAR,28.0
PAAQ 010553Z AUTO 13009KT 10SM -RA BKN042 OVC050 10/04 A2986 RMK AO2 RAB51 SLP113 P0000 60000 T01000044 10117 20100 53008 TSNO,PAAQ,2023-06-01T05:53:00Z,61.6,-149.08,10.0,4.4,130,9,,10.0,29.861221,1011.3,,TRUE,TRUE,,,TRUE,,,-RA,BKN,4200,OVC,5000,,,,,VFR,0.8,11.7,10.0,,,0.005,,0.005,,,,METAR,68.0
MMLO 010553Z 00000KT 8SM SKC 21/06 A3018 RMK SLP060 52016 904,MMLO,2023-06-01T05:53:00Z,21.0,-101.47,21.0,6.0,0,0,,8.0,30.180119,1006.0,,,,,,,,,,SKC,,,,,,,,VFR,1.6,,,,,,,,,,,METAR,1805.0
KZZV 010553Z AUTO 00000KT 10SM CLR 16/13 A3009 RMK AO2 SLP183 T01560128 10267 20150 56000,KZZV,2023-06-01T05:53:00Z,39.95,-81.9,15.6,12.8,0,0,,10.0,30.088583,1018.3,,TRUE,TRUE,,,,,,,CLR,,,,,,,,VFR,0.0,26.7,15.0,,,,,,,,,METAR,268.0
KYKM 010553Z AUTO 30007KT 10SM CLR 13/00 A2993 RMK AO2 SLP132 T01330000 10217 20128 51017,KYKM,2023-06-01T05:53:00Z,46.57,-120.53,13.3,0.0,300,7,,10.0,29.929134,1013.2,,TRUE,TRUE,,,,,,,CLR,,,,,,,,VFR,1.7,21.7,12.8,,,,,,,,,METAR,319.0
KYIP 010553Z 00000KT 10SM CLR 15/11 A3010 RMK AO2 SLP186 T01500106 10272 20150 51002,KYIP,2023-06-01T05:53:00Z,42.23,-83.53,15.0,10.6,0,0,,10.0,30.100393,1018.6,,,TRUE,,,,,,,CLR,,,,,,,,VFR,0.2,27.2,15.0,,,,,,,,,METAR,215.0
KXNA 010553Z AUTO 00000KT 10SM CLR 19/16 A2997 RMK AO2 SLP132 T01940161 10289 20189 403000161 50003,KXNA,2023-06-01T05:53:00Z,36.28,-94.3,19.4,16.1,0,0,,10.0,29.970472,1013.2,,TRUE,TRUE,,,,,,,CLR,,,,,,,,VFR,0.3,28.9,18.9,30.0,16.1,,,,,,,METAR,390.0
KWVI 010553Z AUTO 10005KT 8SM OVC010 12/09 A2992 RMK AO2 SLP131 T01170094 10156 20111 51003,KWVI,2023-06-01T05:53:00Z,36.93,-121.78,11.7,9.4,100,5,,8.0,29.920275,1013.1,,TRUE,TRUE,,,,,,,OVC,1000,,,,,,,MVFR,0.3,15.6,11.1,,,,,,,,,METAR,47.0
KWST 010553Z AUTO 00000KT 10SM CLR 11/09 A3014 RMK AO2 SLP206 T01060094 10161 20106 58003,KWST,2023-06-01T05:53:00Z,41.35,-71.8,10.6,9.4,0,0,,10.0,30.138779,1020.6,,TRUE,TRUE,,,,,,,CLR,,,,,,,,VFR,-0.3,16.1,10.6,,,,,,,,,METAR,20.0
KWRL 010553Z AUTO 17008KT 10SM CLR 12/06 A2980 RMK AO2 SLP057 T01170056 10256 20111 53008,KWRL,2023-06-01T05:53:00Z,43.97,-107.95,11.7,5.6,170,8,,10.0,29.799213,1005.7,,TRUE,TRUE,,,,,,,CLR,,,,,,,,VFR,0.8,25.6,11.1,,,,,,,,,METAR,1281.0
KVUO 010553Z AUTO 32006KT 10SM CLR 13/04 A3010 RMK AO2 SLP194 T01280044 10183 20128 51014 $,KVUO,2023-06-01T05:53:00Z,45.62,-122.65,12.8,4.4,320,6,,10.0,30.100393,1019.4,,TRUE,TRUE,TRUE,,,,,,CLR,,,,,,,,VFR,1.4,18.3,12.8,,,,,,,,,METAR,7.0
KVRB 010553Z AUTO 08005KT 10SM FEW020 FEW028 BKN120 24/22 A2986 RMK AO2 SLP111 60036 T02440222 10256 20233 56022 $,KVRB,2023-06-01T05:53:00Z,27.65,-80.42,24.4,22.2,80,5,,10.0,29.861221,1011.1,,TRUE,TRUE,TRUE,,,,,,FEW,2000,FEW,2800,BKN,12000,,,VFR,-2.2,25.6,23.3,,,,,0.36,,,,METAR,7.0
KVIH 010553Z AUTO 12005KT 10SM CLR 20/18 A3000 RMK AO2 SLP147 T02000178 10272 20183 403110161 50007,KVIH,2023-06-01T05:53:00Z,38.13,-91.77,20.0,17.8,120,5,,10.0,30.0,1014.7,,TRUE,TRUE,,,,,,,CLR,,,,,,,,VFR,0.7,27.2,18.3,31.1,16.1,,,,,,,METAR,342.0
KVGT 010553Z AUTO 16011KT 10SM CLR 26/02 A2968 RMK AO2 SLP045 T02610017 10306 20261 51011,KVGT,2023-06-01T05:53:00Z,36.22,-115.2,26.1,1.7,160,11,,10.0,29.681103,1004.5,,TRUE,TRUE,,,,,,,CLR,,,,,,,,VFR,1.1,30.6,26.1,,,,,,,,,METAR,664.0
KVEL 010553Z AUTO 32005KT 10SM OVC110 18/03 A2984 RMK AO2 SLP040 T01830028 10250 20172 51009,KVEL,2023-06-01T05:53:00Z,40.45,-109.52,18.3,2.8,320,5,,10.0,29.840551,1004.0,,TRUE,TRUE,,,,,,,OVC,11000,,,,,,,VFR,0.9,25.0,17.2,,,,,,,,,METAR,1604.0
KVCB 010553Z AUTO 21011KT 10SM CLR 14/10 A2979 RMK AO2 SLP088 T01440100 10261 20144 53007,KVCB,2023-06-01T05:53:00Z,38.38,-121.95,14.4,10.0,210,11,,10.0,29.790354,1008.8,,TRUE,TRUE,,,,,,,CLR,,,,,,,,VFR,0.7,26.1,14.4,,,,,,,,,METAR,30.0
KUUU 010553Z AUTO 00000KT 10SM CLR 11/10 A3014 RMK AO2 SLP205 T01060100 10150 20106 58002,KUUU,2023-06-01T05:53:00Z,41.53,-71.28,10.6,10.0,0,0,,10.0,30.138779,1020.5,,TRUE,TRUE,,,,,,,CLR,,,,,,,,VFR,-0.2,15.0,10.6,,,,,,,,,METAR,45.0
KUTS 010553Z AUTO 18005KT 10SM CLR 25/19 A2989 RMK AO2 SLP116 T02500194 10306 20244 403280194 50003,KUTS,2023-06-01T05:53:00Z,30.75,-95.58,25.0,19.4,180,5,,10.0,29.890747,1011.6,,TRUE,TRUE,,,,,,,CLR,,,,,,,,VFR,0.3,30.6,24.4,32.8,19.4,,,,,,,METAR,103.0
KUNO 010553Z AUTO 00000KT 10SM CLR 17/16 A3001 RMK AO2 SLP149 T01720156 10272 20172 402940144 51007,KUNO,2023-06-01T05:53:00Z,36.88,-91.9,17.2,15.6,0,0,,10.0,30.008858,1014.9,,TRUE,TRUE,,,,,,,CLR,,,,,,,,VFR,0.7,27.2,17.2,29.4,14.4,,,,,,,METAR,376.0
KUIL 010553Z AUTO 28003KT 10SM CLR 09/06 A3013 RMK AO2 SLP201 T00890056 10150 20083 50003,KUIL,2023-06-01T05:53:00Z,47.93,-124.55,8.9,5.6,280,3,,10.0,30.129921,1020.1,,TRUE,TRUE,,,,,,,CLR,,,,,,,,VFR,0.3,15.0,8.3,,,,,,,,,METAR,58.0
KUAO 010553Z 35012G17KT 10SM CLR 12/04 A3009 RMK AO2 SLP189 T01170039 10178 20117 51012,KUAO,2023-06-01T05:53:00Z,45.25,-122.77,11.7,3.9,350,12,17,10.0,30.088583,1018.9,,,TRUE,,,,,,,CLR,,,,,,,,VFR,1.2,17.8,11.7,,,,,,,,,METAR,60.0
KTYS 010553Z 27003KT 10SM SCT100 21/16 A3004 RMK AO2 SLP162 T02060156 10261 20206 58003,KTYS,2023-06-01T05:53:00Z,35.82,-83.98,20.6,15.6,270,3,,10.0,30.041338,1016.2,,,TRUE,,,,,,,SCT,10000,,,,,,,VFR,-0.3,26.1,20.6,,,,,,,,,METAR,300.0
KTYR 010553Z AUTO 12005KT 10SM CLR 23/18 A2990 RMK AO2 SLP116 T02330178 10300 20233 403220189 50001,KTYR,2023-06-01T05:53:00Z,32.37,-95.4,23.3,17.8,120,5,,10.0,29.899607,1011.6,,TRUE,TRUE,,,,,,,CLR,,,,,,,,VFR,0.1,30.0,23.3,32.2,18.9,,,,,,,METAR,161.0
KTXK 010553Z AUTO 10004KT 10SM CLR 23/16 A2992 RMK AO2 SLP127 T02330161 10311 20233 403390189 50006,KTXK,2023-06-01T05:53:00Z,33.45,-93.98,23.3,16.1,100,4,,10.0,29.920275,1012.7,,TRUE,TRUE,,,,,,,CLR,,,,,,,,VFR,0.6,31.1,23.3,33.9,18.9,,,,,,,METAR,118.0
KTWF 010553Z AUTO 24009KT 10SM BKN100 13/08 A2989 RMK AO2 SLP077 T01330083 10200 20128 51009,KTWF,2023-06-01T05:53:00Z,42.48,-114.48,13.3,8.3,240,9,,10.0,29.890747,1007.7,,TRUE,TRUE,,,,,,,BKN,10000,,,,,,,VFR,0.9,20.0,12.8,,,,,,,,,METAR,1269.0
KTVR 010553Z AUTO 00000KT CLR 21/18 A2991 RMK AO2 SLP134 T02110183 10300 20200 403220167 58001 $,KTVR,2023-06-01T05:53:00Z,32.35,-91.03,21.1,18.3,0,0,,,29.911417,1013.4,,TRUE,TRUE,TRUE,,,,,,CLR,,,,,,,,,-0.1,30.0,20.0,32.2,16.7,,,,,,,METAR,25.0
KTVL 010553Z AUTO 00000KT 10SM CLR 07/05 A3000 RMK AO2 SLP118 T00720050 10167 20072 51012,KTVL,2023-06-01T05:53:00Z,38.9,-120.0,7.2,5.0,0,0,,10.0,30.0,1011.8,,TRUE,TRUE,,,,,,,CLR,,,,,,,,VFR,1.2,16.7,7.2,,,,,,,,,METAR,1907.0
KTUS 010553Z 30004KT 10SM CLR 22/03 A2986 RMK AO2 SLP067 T02220033 10306 20222 51022,KTUS,2023-06-01T05:53:00Z,32.13,-110.95,22.2,3.3,300,4,,10.0,29.861221,1006.7,,,TRUE,,,,,,,CLR,,,,,,,,VFR,2.2,30.6,22.2,,,,,,,,,METAR,776.0
KTUP 010553Z AUTO 10003KT 10SM CLR 22/18 A2997 RMK AO2 SLP144 T02220178 10283 20211 403220189 50001,KTUP,2023-06-01T05:53:00Z,34.27,-88.77,22.2,17.8,100,3,,10.0,29.970472,1014.4,,TRUE,TRUE,,,,,,,CLR,,,,,,,,VFR,0.1,28.3,21.1,32.2,18.9,,,,,,,METAR,107.0
KTUL 010553Z 14003KT 10SM FEW160 SCT200 22/18 A2990 RMK AO2 SLP117 T02170183 10300 20217 403170211 51005,KTUL,2023-06-01T05:53:00Z,36.2,-95.88,21.7,18.3,140,3,,10.0,29.899607,1011.7,,,TRUE,,,,,,,FEW,16000,SCT,20000,,,,,VFR,0.5,30.0,21.7,31.7,21.1,,,,,,,METAR,196.0
KTTN 010553Z AUTO 34004KT 8SM CLR 13/11 A3014 RMK AO2 SLP198 T01280111 10206 20128 58001,KTTN,2023-06-01T05:53:00Z,40.28,-74.82,12.8,11.1,340,4,,8.0,30.138779,1019.8,,TRUE,TRUE,,,,,,,CLR,,,,,,,,VFR,-0.1,20.6,12.8,,,,,,,,,METAR,58.0
KTTD 010553Z AUTO 00000KT 10SM CLR 13/04 A3009 RMK AO2 SLP190 T01330044 10194 20133 53018,KTTD,2023-06-01T05:53:00Z,45.55,-122.42,13.3,4.4,0,0,,10.0,30.088583,1019.0,,TRUE,TRUE,,,,,,,CLR,,,,,,,,VFR,1.8,19.4,13.3,,,,,,,,,METAR,8.0
KTRL 010553Z AUTO 10005KT 10SM CLR 24/18 A2989 RMK AO2 SLP115 T02390183 10300 20233 403110194 50004 $,KTRL,2023-06-01T05:53:00Z,32.72,-96.27,23.9,18.3,100,5,,10.0,29.890747,1011.5,,TRUE,TRUE,TRUE,,,,,,CLR,,,,,,,,VFR,0.4,30.0,23.3,31.1,19.4,,,,,,,METAR,144.0
KTRI 010553Z 00000KT 10SM CLR 16/14 A3010 RMK AO2 SLP171 T01560139 10244 20156 56003 $,KTRI,2023-06-01T05:53:00Z,36.48,-82.4,15.6,13.9,0,0,,10.0,30.100393,1017.1,,,TRUE,TRUE,,,,,,CLR,,,,,,,,VFR,-0.3,24.4,15.6,,,,,,,,,METAR,456.0
KTPA 010553Z VRB04KT 10SM SCT014 SCT100 BKN250 23/21 A2987 RMK AO2 SLP114 T02280206 10233 20228 58011,KTPA,2023-06-01T05:53:00Z,27.97,-82.53,22.8,20.6,0,4,,10.0,29.870079,1011.4,,,TRUE,,,,,,,SCT,1400,SCT,10000,BKN,25000,,,VFR,-1.1,23.3,22.8,,,,,,,,,METAR,2.0
KTOR 010553Z AUTO 06010G22KT 10SM SCT060 SCT070 OVC090 14/10 A2989 RMK AO2 PK WND 06027/0518 RAE05B40E50 SLP080 P0000 60022 T01440100 10183 20133 58021,KTOR,2023-06-01T05:53:00Z,42.07,-104.15,14.4,10.0,60,10,22,10.0,29.890747,1008.0,,TRUE,TRUE,,,,,,,SCT,6000,SCT,7000,OVC,9000,,,VFR,-2.1,18.3,13.3,,,0.005,,0.22,,,,METAR,1285.0
KTOP 010553Z AUTO 17006KT 10SM CLR 23/20 A2990 RMK AO2 LTG DSNT NW SLP115 T02330200 10278 20217 403000178 52006,KTOP,2023-06-01T05:53:00Z,39.07,-95.63,23.3,20.0,170,6,,10.0,29.899607,1011.5,,TRUE,TRUE,,,,,,,CLR,,,,,,,,VFR,0.6,27.8,21.7,30.0,17.8,,,,,,,METAR,268.0
KTOI 010553Z AUTO 07004KT 9SM OVC090 21/18 A2998 RMK AO2 SLP147 60014 T02060183 10217 20206 403110161 58006,KTOI,2023-06-01T05:53:00Z,31.85,-86.02,20.6,18.3,70,4,,9.0,29.97933,1014.7,,TRUE,TRUE,,,,,,,OVC,9000,,,,,,,VFR,-0.6,21.7,20.6,31.1,16.1,,,0.14,,,,METAR,120.0
KTMB 010553Z AUTO 00000KT 10SM CLR 24/22 A2985 RMK AO2 SLP106 60000 T02440222 10256 20239 58014,KTMB,2023-06-01T05:53:00Z,25.65,-80.43,24.4,22.2,0,0,,10.0,29.84941,1010.6,,TRUE,TRUE,,,,,,,CLR,,,,,,,,VFR,-1.4,25.6,23.9,,,,,0.005,,,,METAR,2.0
KTLH 010553Z AUTO 08008KT 10SM FEW010 BKN110 22/21 A2993 RMK AO2 RAB11E41 SLP134 P0000 60000 T02220206 10228 20222 58008,KTLH,2023-06-01T05:53:00Z,30.4,-84.35,22.2,20.6,80,8,,10.0,29.929134,1013.4,,TRUE,TRUE,,,,,,,FEW,1000,BKN,11000,,,,,VFR,-0.8,22.8,22.2,,,0.005,,0.005,,,,METAR,17.0
KTKI 010553Z AUTO 13006KT 10SM CLR 23/20 A2989 RMK AO2 SLP115 T02330200 10300 20233 403060183 50000,KTKI,2023-06-01T05:53:00Z,33.18,-96.58,23.3,20.0,130,6,,10.0,29.890747,1011.5,,TRUE,TRUE,,,,,,,CLR,,,,,,,,VFR,0.0,30.0,23.3,30.6,18.3,,,,,,,METAR,173.0
KTIW 010553Z AUTO 34003KT 10SM BKN042 OVC070 13/07 A3007 RMK AO2 SLP184 T01280067 10167 20128 53006,KTIW,2023-06-01T05:53:00Z,47.27,-122.58,12.8,6.7,340,3,,10.0,30.070866,1018.4,,TRUE,TRUE,,,,,,,BKN,4200,OVC,7000,,,,,VFR,0.6,16.7,12.8,,,,,,,,,METAR,89.0
KTHV 010553Z AUTO 09003KT 10SM CLR 11/07 A3013 RMK AO2 SLP204 T01060072 10228 20089 50001,KTHV,2023-06-01T05:53:00Z,39.92,-76.88,10.6,7.2,90,3,,10.0,30.129921,1020.4,,TRUE,TRUE,,,,,,,CLR,,,,,,,,VFR,0.1,22.8,8.9,,,,,,,,,METAR,141.0
KTDZ 010553Z AUTO 12003KT 10SM CLR 19/11 A3008 RMK AO2 SLP182 T01940111 10267 20189 50001,KTDZ,2023-06-01T05:53:00Z,41.57,-83.48,19.4,11.1,120,3,,10.0,30.079725,1018.2,,TRUE,TRUE,,,,,,,CLR,,,,,,,,VFR,0.1,26.7,18.9,,,,,,,,,METAR,189.0
KTCS 010553Z AUTO 00000KT 10SM CLR 19/M09 A2982 RMK AO2 SLP013 T01891094 10300 20189 50009,KTCS,2023-06-01T05:53:00Z,33.23,-107.27,18.9,-9.4,0,0,,10.0,29.819881,1001.3,,TRUE,TRUE,,,,,,,CLR,,,,,,,,VFR,0.9,30.0,18.9,,,,,,,,,METAR,1471.0
KTCL 010553Z AUTO VRB05KT 10SM CLR 23/18 A2998 RMK AO2 SLP148 T02280183 10272 20222 403060172 53002 $,KTCL,2023-06-01T05:53:00Z,33.22,-87.62,22.8,18.3,0,5,,10.0,29.97933,1014.8,,TRUE,TRUE,TRUE,,,,,,CLR,,,,,,,,VFR,0.2,27.2,22.2,30.6,17.2,,,,,,,METAR,48.0
KSWO 010553Z 16006KT 10SM CLR 23/18 A2989 RMK AO2 SLP107 T02280183 10289 20211 403220189 50000,KSWO,2023-06-01T05:53:00Z,36.17,-97.08,22.8,18.3,160,6,,10.0,29.890747,1010.7,,,TRUE,,,,,,,CLR,,,,,,,,VFR,0.0,28.9,21.1,32.2,18.9,,,,,,,METAR,293.0
KSTS 010553Z AUTO 00000KT 7SM CLR 12/09 A2984 RMK AO2 SLP099 T01170089 10222 20117 53010,KSTS,2023-06-01T05:53:00Z,38.5,-122.82,11.7,8.9,0,0,,7.0,29.840551,1009.9,,TRUE,TRUE,,,,,,,CLR,,,,,,,,VFR,1.0,22.2,11.7,,,,,,,,,METAR,35.0
KSTP 010553Z AUTO 14008KT 10SM BKN110 23/16 A2990 RMK AO2 SLP119 60000 T02330161 10289 20222 403060172 53007,KSTP,2023-06-01T05:53:00Z,44.93,-93.05,23.3,16.1,140,8,,10.0,29.899607,1011.9,,TRUE,TRUE,,,,,,,BKN,11000,,,,,,,VFR,0.7,28.9,22.2,30.6,17.2,,,0.005,,,,METAR,213.0
KSTJ 010553Z AUTO 13006KT 10SM CLR 21/17 A2992 RMK AO2 SLP125 T02110167 10261 20211 402890183 53007,KSTJ,2023-06-01T05:53:00Z,39.77,-94.92,21.1,16.7,130,6,,10.0,29.920275,1012.5,,TRUE,TRUE,,,,,,,CLR,,,,,,,,VFR,0.7,26.1,21.1,28.9,18.3,,,,,,,METAR,247.0
KSTC 010553Z AUTO 12003KT 10SM CLR 18/15 A2990 RMK AO2 SLP125 60000 T01830150 10294 20183 403280161 53011,KSTC,2023-06-01T05:53:00Z,45.55,-94.05,18.3,15.0,120,3,,10.0,29.899607,1012.5,,TRUE,TRUE,,,,,,,CLR,,,,,,,,VFR,1.1,29.4,18.3,32.8,16.1,,,0.005,,,,METAR,302.0
KSSI 010553Z AUTO 05009KT 10SM SCT110 24/20 A2996 RMK AO2 SLP146 T02390200 10244 20239 58015,KSSI,2023-06-01T05:53:00Z,31.15,-81.38,23.9,20.0,50,9,,10.0,29.958662,1014.6,,TRUE,TRUE,,,,,,,SCT,11000,,,,,,,VFR,-1.5,24.4,23.9,,,,,,,,,METAR,6.0
KSSF 010553Z AUTO 12006KT 10SM CLR 23/16 A2984 RMK AO2 SLP092 T02280156 10294 20228 58002 $,KSSF,2023-06-01T05:53:00Z,29.33,-98.47,22.8,15.6,120,6,,10.0,29.840551,1009.2,,TRUE,TRUE,TRUE,,,,,,CLR,,,,,,,,VFR,-0.2,29.4,22.8,,,,,,,,,METAR,175.0
KSRQ 010553Z AUTO 09006KT 10SM CLR 22/20 A2983 RMK AO2 SLP100 T02170200 10228 20217 58014,KSRQ,2023-06-01T05:53:00Z,27.4,-82.57,21.7,20.0,90,6,,10.0,29.828741,1010.0,,TRUE,TRUE,,,,,,,CLR,,,,,,,,VFR,-1.4,22.8,21.7,,,,,,,,,METAR,5.0
KSPW 010553Z AUTO 17006KT 10SM CLR 21/16 A2991 RMK AO2 SLP117 T02110156 10261 20200 403330172 51011,KSPW,2023-06-01T05:53:00Z,43.17,-95.22,21.1,15.6,170,6,,10.0,29.911417,1011.7,,TRUE,TRUE,,,,,,,CLR,,,,,,,,VFR,1.1,26.1,20.0,33.3,17.2,,,,,,,METAR,407.0
KSPB 010553Z AUTO VRB04KT 10SM CLR 12/05 A3008 RMK AO2 SLP187 T01170050 10189 20111 53010,KSPB,2023-06-01T05:53:00Z,45.77,-122.87,11.7,5.0,0,4,,10.0,30.079725,1018.7,,TRUE,TRUE,,,,,,,CLR,,,,,,,,VFR,1.0,18.9,11.1,,,,,,,,,METAR,15.0
KSNY 010553Z AUTO 02010KT 10SM CLR 13/11 A2992 RMK AO2 SLP091 T01330106 10239 20133 50007,KSNY,2023-06-01T05:53:00Z,41.1,-102.98,13.3,10.6,20,10,,10.0,29.920275,1009.1,,TRUE,TRUE,,,,,,,CLR,,,,,,,,VFR,0.7,23.9,13.3,,,,,,,,,METAR,1307.0
KSNS 010553Z AUTO 29009KT 9SM OVC014 13/08 A2993 RMK AO2 SLPNO T01330083 10167 20133 51004,KSNS,2023-06-01T05:53:00Z,36.67,-121.6,13.3,8.3,290,9,,9.0,29.929134,,,TRUE,TRUE,,,,,,,OVC,1400,,,,,,,MVFR,0.4,16.7,13.3,,,,,,,,,METAR,20.0
KSNA 010553Z 00000KT 10SM FEW020 FEW031 BKN045 17/12 A2992 RMK AO2 SLP131 LAST T01670122 10189 20167 53006,KSNA,2023-06-01T05:53:00Z,33.67,-117.87,16.7,12.2,0,0,,10.0,29.920275,1013.1,,,TRUE,,,,,,,FEW,2000,FEW,3100,BKN,4500,,,VFR,0.6,18.9,16.7,,,,,,,,,METAR,14.0
KSMQ 010553Z AUTO 00000KT 5SM BR CLR 10/09 A3014 RMK AO2 SLP204 T01000089 10200 20094 58000,KSMQ,2023-06-01T05:53:00Z,40.62,-74.67,10.0,8.9,0,0,,5.0,30.138779,1020.4,,TRUE,TRUE,,,,,,BR,CLR,,,,,,,,MVFR,0.0,20.0,9.4,,,,,,,,,METAR,30.0
KSMF 010553Z 17011KT 10SM CLR 15/10 A2979 RMK AO2 SLP086 T01500100 10261 20150 52010,KSMF,2023-06-01T05:53:00Z,38.7,-121.6,15.0,10.0,170,11,,10.0,29.790354,1008.6,,,TRUE,,,,,,,CLR,,,,,,,,VFR,1.0,26.1,15.0,,,,,,,,,METAR,7.0
KSLN 010553Z AUTO 16011KT 10SM FEW075 23/16 A2986 RMK AO2 SLP098 T02330161 10317 20233 403330156 51010 $,KSLN,2023-06-01T05:53:00Z,38.8,-97.65,23.3,16.1,160,11,,10.0,29.861221,1009.8,,TRUE,TRUE,TRUE,,,,,,FEW,7500,,,,,,,VFR,1.0,31.7,23.3,33.3,15.6,,,,,,,METAR,377.0
KSJC 010553Z 05004KT 9SM FEW015 14/09 A2989 RMK AO2 SLP121 FU FEW015 T01390089 10200 20133 51007,KSJC,2023-06-01T05:53:00Z,37.37,-121.92,13.9,8.9,50,4,,9.0,29.890747,1012.1,,,TRUE,,,,,,,FEW,1500,,,,,,,VFR,0.7,20.0,13.3,,,,,,,,,METAR,13.0
KSIY 010553Z AUTO 01011KT 10SM CLR 12/02 A2995 RMK AO2 SLP140 T01220017 10239 20122 51019,KSIY,2023-06-01T05:53:00Z,41.77,-122.47,12.2,1.7,10,11,,10.0,29.949802,1014.0,,TRUE,TRUE,,,,,,,CLR,,,,,,,,VFR,1.9,23.9,12.2,,,,,,,,,METAR,807.0
KSHR 010553Z AUTO 00000KT 10SM CLR 12/07 A2982 RMK AO2 SLP071 T01220072 10256 20111 51007,KSHR,2023-06-01T05:53:00Z,44.77,-106.97,12.2,7.2,0,0,,10.0,29.819881,1007.1,,TRUE,TRUE,,,,,,,CLR,,,,,,,,VFR,0.7,25.6,11.1,,,,,,,,,METAR,1212.0
KSHN 010553Z AUTO 26006KT 10SM OVC075 11/06 A3006 RMK AO2 SLP180 T01110056 10178 20111 51009,KSHN,2023-06-01T05:53:00Z,47.23,-123.13,11.1,5.6,260,6,,10.0,30.059055,1018.0,,TRUE,TRUE,,,,,,,OVC,7500,,,,,,,VFR,0.9,17.8,11.1,,,,,,,,,METAR,84.0
KSGR 010553Z AUTO 15003KT 10SM CLR 23/21 A2988 RMK AO2 SLP119 T02280206 10294 20222 403220200 50002,KSGR,2023-06-01T05:53:00Z,29.62,-95.65,22.8,20.6,150,3,,10.0,29.878937,1011.9,,TRUE,TRUE,,,,,,,CLR,,,,,,,,VFR,0.2,29.4,22.2,32.2,20.0,,,,,,,METAR,22.0
KSFF 010553Z AUTO 24003KT 10SM CLR 17/02 A2986 RMK AO2 SLP103 T01670022 10233 20144 52016,KSFF,2023-06-01T05:53:00Z,47.68,-117.32,16.7,2.2,240,3,,10.0,29.861221,1010.3,,TRUE,TRUE,,,,,,,CLR,,,,,,,,VFR,1.6,23.3,14.4,,,,,,,,,METAR,593.0
KSFB 010553Z AUTO 05006KT 10SM -RA FEW110 23/21 A2988 RMK AO2 RAB44 SLP117 P0000 60000 T02330206 10250 20233 56020,KSFB,2023-06-01T05:53:00Z,28.77,-81.23,23.3,20.6,50,6,,10.0,29.878937,1011.7,,TRUE,TRUE,,,,,,-RA,FEW,11000,,,,,,,VFR,-2.0,25.0,23.3,,,0.005,,0.005,,,,METAR,16.0
KSEG 010553Z AUTO 00000KT 10SM CLR 11/08 A3014 RMK AO2 SLP204 T01110083 10256 20111 50004,KSEG,2023-06-01T05:53:00Z,40.82,-76.87,11.1,8.3,0,0,,10.0,30.138779,1020.4,,TRUE,TRUE,,,,,,,CLR,,,,,,,,VFR,0.4,25.6,11.1,,,,,,,,,METAR,136.0
KSEA 010553Z 05011KT 10SM SCT048 BKN070 13/04 A3007 RMK AO2 SLP190 60000 T01280039 10167 20128 51006,KSEA,2023-06-01T05:53:00Z,47.45,-122.32,12.8,3.9,50,11,,10.0,30.070866,1019.0,,,TRUE,,,,,,,SCT,4800,BKN,7000,,,,,VFR,0.6,16.7,12.8,,,,,0.005,,,,METAR,115.0
KSDM 010553Z AUTO 27004KT 10SM BKN015 14/12 A2993 RMK AO2 SLP134 T01440122 10167 20139 51004,KSDM,2023-06-01T05:53:00Z,32.58,-117.0,14.4,12.2,270,4,,10.0,29.929134,1013.4,,TRUE,TRUE,,,,,,,BKN,1500,,,,,,,MVFR,0.4,16.7,13.9,,,,,,,,,METAR,161.0
KSDL 010553Z AUTO 00000KT 10SM CLR 25/02 A2976 RMK AO2 SLP054 T02500017 10306 20250 51013,KSDL,2023-06-01T05:53:00Z,33.62,-111.92,25.0,1.7,0,0,,10.0,29.760826,1005.4,,TRUE,TRUE,,,,,,,CLR,,,,,,,,VFR,1.3,30.6,25.0,,,,,,,,,METAR,438.0
KSBM 010553Z AUTO 00000KT 6SM HZ CLR 16/13 A3003 RMK AO2 SLP165 T01610133 10267 20161 403000156 51007,KSBM,2023-06-01T05:53:00Z,43.78,-87.85,16.1,13.3,0,0,,6.0,30.029528,1016.5,,TRUE,TRUE,,,,,,HZ,CLR,,,,,,,,VFR,0.7,26.7,16.1,30.0,15.6,,,,,,,METAR,225.0
KSBA 010553Z AUTO 34003KT 10SM CLR 16/11 A2990 RMK AO2 SLP126 T01560106 10189 20156 50006 $,KSBA,2023-06-01T05:53:00Z,34.43,-119.85,15.6,10.6,340,3,,10.0,29.899607,1012.6,,TRUE,TRUE,TRUE,,,,,,CLR,,,,,,,,VFR,0.6,18.9,15.6,,,,,,,,,METAR,2.0
KSAV 010553Z AUTO 06004KT 10SM CLR 21/17 A3000 RMK AO2 SLP157 T02060172 10228 20194 58015,KSAV,2023-06-01T05:53:00Z,32.12,-81.2,20.6,17.2,60,4,,10.0,30.0,1015.7,,TRUE,TRUE,,,,,,,CLR,,,,,,,,VFR,-1.5,22.8,19.4,,,,,,,,,METAR,10.0
KSAC 010553Z AUTO 20008KT 10SM CLR 14/09 A2980 RMK AO2 SLP091 T01390094 10256 20139 51009,KSAC,2023-06-01T05:53:00Z,38.5,-121.5,13.9,9.4,200,8,,10.0,29.799213,1009.1,,TRUE,TRUE,,,,,,,CLR,,,,,,,,VFR,0.9,25.6,13.9,,,,,,,,,METAR,5.0
KRXE 010553Z AUTO 07005KT 10SM CLR 14/07 A2990 RMK AO2 SLP089 T01440072 10250 20144 51020,KRXE,2023-06-01T05:53:00Z,43.83,-111.8,14.4,7.2,70,5,,10.0,29.899607,1008.9,,TRUE,TRUE,,,,,,,CLR,,,,,,,,VFR,2.0,25.0,14.4,,,,,,,,,METAR,1483.0
KRWL 010553Z AUTO 36009KT 10SM FEW120 12/01 A2994 RMK AO2 SLP047 60000 T01170011 10206 20111 51007,KRWL,2023-06-01T05:53:00Z,41.8,-107.2,11.7,1.1,360,9,,10.0,29.940945,1004.7,,TRUE,TRUE,,,,,,,FEW,12000,,,,,,,VFR,0.7,20.6,11.1,,,,,0.005,,,,METAR,2066.0
KRWI 010553Z AUTO 03005KT 9SM CLR 17/15 A3004 RMK AO2 SLP173 T01670150 10217 20156 58017,KRWI,2023-06-01T05:53:00Z,35.85,-77.9,16.7,15.0,30,5,,9.0,30.041338,1017.3,,TRUE,TRUE,,,,,,,CLR,,,,,,,,VFR,-1.7,21.7,15.6,,,,,,,,,METAR,46.0
KRWF 010553Z AUTO 11008KT 10SM CLR 21/16 A2988 RMK AO2 SLP111 T02060156 10217 20194 403170161 51015,KRWF,2023-06-01T05:53:00Z,44.55,-95.08,20.6,15.6,110,8,,10.0,29.878937,1011.1,,TRUE,TRUE,,,,,,,CLR,,,,,,,,VFR,1.5,21.7,19.4,31.7,16.1,,,,,,,METAR,312.0
KRVS 010553Z AUTO 00000KT 10SM CLR 21/18 A2990 RMK AO2 SLP129 T02060178 10300 20206 403220183 51007,KRVS,2023-06-01T05:53:00Z,36.05,-95.98,20.6,17.8,0,0,,10.0,29.899607,1012.9,,TRUE,TRUE,,,,,,,CLR,,,,,,,,VFR,0.7,30.0,20.6,32.2,18.3,,,,,,,METAR,191.0
KRUE 010553Z AUTO 00000KT 9SM CLR 19/17 A2995 RMK AO2 SLP133 T01940167 10294 20194 403170167 51013,KRUE,2023-06-01T05:53:00Z,35.25,-93.1,19.4,16.7,0,0,,9.0,29.949802,1013.3,,TRUE,TRUE,,,,,,,CLR,,,,,,,,VFR,1.3,29.4,19.4,31.7,16.7,,,,,,,METAR,119.0
KRSW 010553Z AUTO 00000KT 10SM CLR 22/22 A2985 RMK AO2 SLP106 60132 T02170217 10222 20211 58013,KRSW,2023-06-01T05:53:00Z,26.53,-81.75,21.7,21.7,0,0,,10.0,29.84941,1010.6,,TRUE,TRUE,,,,,,,CLR,,,,,,,,VFR,-1.3,22.2,21.1,,,,,1.32,,,,METAR,8.0
KRSL 010553Z AUTO 20008KT 10SM CLR 21/14 A2984 RMK AO2 SLP088 T02110139 10306 20211 403110139 53012,KRSL,2023-06-01T05:53:00Z,38.87,-98.82,21.1,13.9,200,8,,10.0,29.840551,1008.8,,TRUE,TRUE,,,,,,,CLR,,,,,,,,VFR,1.2,30.6,21.1,31.1,13.9,,,,,,,METAR,569.0
KRQE 010553Z AUTO 02003KT 10SM CLR 10/M07 A2999 RMK AO2 SLP056 T01001067 10228 20094 51017,KRQE,2023-06-01T05:53:00Z,35.65,-109.07,10.0,-6.7,20,3,,10.0,29.991142,1005.6,,TRUE,TRUE,,,,,,,CLR,,,,,,,,VFR,1.7,22.8,9.4,,,,,,,,,METAR,2056.0
KRNT 010553Z AUTO VRB04KT 10SM FEW065 13/04 A3007 RMK AO2 SLP188 T01330044 10183 20133 53009,KRNT,2023-06-01T05:53:00Z,47.5,-122.22,13.3,4.4,0,4,,10.0,30.070866,1018.8,,TRUE,TRUE,,,,,,,FEW,6500,,,,,,,VFR,0.9,18.3,13.3,,,,,,,,,METAR,7.0
KRNM 010553Z AUTO 00000KT 10SM OVC013 13/12 A2993 RMK AO2 SLP128 60000 T01330117 10144 20128 52007,KRNM,2023-06-01T05:53:00Z,33.03,-116.92,13.3,11.7,0,0,,10.0,29.929134,1012.8,,TRUE,TRUE,,,,,,,OVC,1300,,,,,,,MVFR,0.7,14.4,12.8,,,,,0.005,,,,METAR,423.0
KRMG 010553Z AUTO 00000KT 10SM CLR 19/16 A3004 RMK AO2 SLP165 T01890161 10244 20189 50004,KRMG,2023-06-01T05:53:00Z,34.35,-85.17,18.9,16.1,0,0,,10.0,30.041338,1016.5,,TRUE,TRUE,,,,,,,CLR,,,,,,,,VFR,0.4,24.4,18.9,,,,,,,,,METAR,196.0
KRME 010553Z AUTO 00000KT 10SM CLR 14/12 A3012 RMK AO2 SLP194 T01440122 10261 20139 50002,KRME,2023-06-01T05:53:00Z,43.22,-75.4,14.4,12.2,0,0,,10.0,30.121063,1019.4,,TRUE,TRUE,,,,,,,CLR,,,,,,,,VFR,0.2,26.1,13.9,,,,,,,,,METAR,146.0
KRKP 010553Z AUTO 14012G17KT 6SM HZ FEW022 27/23 A2984 RMK AO2 SLP105 T02670228 10283 20261 403060228 58002,KRKP,2023-06-01T05:53:00Z,28.08,-97.05,26.7,22.8,140,12,17,6.0,29.840551,1010.5,,TRUE,TRUE,,,,,,HZ,FEW,2200,,,,,,,VFR,-0.2,28.3,26.1,30.6,22.8,,,,,,,METAR,8.0
KRIW 010553Z AUTO 35006KT 10SM CLR 12/04 A2987 RMK AO2 SLP060 T01170039 10222 20111 53010,KRIW,2023-06-01T05:53:00Z,43.07,-108.43,11.7,3.9,350,6,,10.0,29.870079,1006.0,,TRUE,TRUE,,,,,,,CLR,,,,,,,,VFR,1.0,22.2,11.1,,,,,,,,,METAR,1662.0
KRIL 010553Z AUTO 00000KT 10SM CLR 16/04 A2988 RMK AO2 SLP051 T01560044 10228 20156 55000,KRIL,2023-06-01T05:53:00Z,39.53,-107.73,15.6,4.4,0,0,,10.0,29.878937,1005.1,,TRUE,TRUE,,,,,,,CLR,,,,,,,,VFR,0.0,22.8,15.6,,,,,,,,,METAR,1683.0
KRHI 010553Z AUTO 00000KT 10SM CLR 19/13 A3003 RMK AO2 SLP160 T01890133 10283 20183 403110117 51005,KRHI,2023-06-01T05:53:00Z,45.63,-89.48,18.9,13.3,0,0,,10.0,30.029528,1016.0,,TRUE,TRUE,,,,,,,CLR,,,,,,,,VFR,0.5,28.3,18.3,31.1,11.7,,,,,,,METAR,493.0
KRDD 010553Z 00000KT 10SM BKN070 23/14 A2978 RMK AO2 SLP078 T02280144 10300 20228 51022,KRDD,2023-06-01T05:53:00Z,40.52,-122.3,22.8,14.4,0,0,,10.0,29.778543,1007.8,,,TRUE,,,,,,,BKN,7000,,,,,,,VFR,2.2,30.0,22.8,,,,,,,,,METAR,152.0
KRBG 010553Z AUTO 33005KT 10SM CLR 13/04 A3006 RMK AO2 SLP177 T01280044 10217 20128 51018,KRBG,2023-06-01T05:53:00Z,43.23,-123.35,12.8,4.4,330,5,,10.0,30.059055,1017.7,,TRUE,TRUE,,,,,,,CLR,,,,,,,,VFR,1.8,21.7,12.8,,,,,,,,,METAR,152.0
KRBD 010553Z AUTO 15006KT 10SM CLR 24/18 A2987 RMK AO2 SLP106 T02440183 10300 20239 403110189 50000,KRBD,2023-06-01T05:53:00Z,32.68,-96.87,24.4,18.3,150,6,,10.0,29.870079,1010.6,,TRUE,TRUE,,,,,,,CLR,,,,,,,,VFR,0.0,30.0,23.9,31.1,18.9,,,,,,,METAR,200.0
KRAL 010553Z AUTO 29004KT 10SM OVC028 15/11 A2992 RMK AO2 SLP120 T01500111 10172 20150 53008,KRAL,2023-06-01T05:53:00Z,33.95,-117.45,15.0,11.1,290,4,,10.0,29.920275,1012.0,,TRUE,TRUE,,,,,,,OVC,2800,,,,,,,MVFR,0.8,17.2,15.0,,,,,,,,,METAR,254.0
KRAC 010553Z AUTO 00000KT 10SM CLR 17/14 A3003 RMK AO2 SLP165 T01720144 10244 20172 402890161 53001,KRAC,2023-06-01T05:53:00Z,42.77,-87.82,17.2,14.4,0,0,,10.0,30.029528,1016.5,,TRUE,TRUE,,,,,,,CLR,,,,,,,,VFR,0.1,24.4,17.2,28.9,16.1,,,,,,,METAR,203.0
KPWA 010553Z AUTO 16011KT 10SM CLR 24/17 A2989 RMK AO2 SLP103 T02440167 10272 20233 403000183 50003,KPWA,2023-06-01T05:53:00Z,35.53,-97.65,24.4,16.7,160,11,,10.0,29.890747,1010.3,,TRUE,TRUE,,,,,,,CLR,,,,,,,,VFR,0.3,27.2,23.3,30.0,18.3,,,,,,,METAR,390.0
KPUW 010553Z AUTO 27009KT 10SM CLR 13/01 A2991 RMK AO2 SLP125 T01280006 10200 20128 51013,KPUW,2023-06-01T05:53:00Z,46.75,-117.12,12.8,0.6,270,9,,10.0,29.911417,1012.5,,TRUE,TRUE,,,,,,,CLR,,,,,,,,VFR,1.3,20.0,12.8,,,,,,,,,METAR,774.0
KPUC 010553Z AUTO 35005KT 10SM CLR 16/M01 A2982 RMK AO2 SLP024 T01611011 10256 20161 51013,KPUC,2023-06-01T05:53:00Z,39.62,-110.75,16.1,-1.1,350,5,,10.0,29.819881,1002.4,,TRUE,TRUE,,,,,,,CLR,,,,,,,,VFR,1.3,25.6,16.1,,,,,,,,,METAR,1777.0
KPUB 010553Z AUTO 36006KT 10SM CLR 16/08 A2987 RMK AO2 SLP059 T01610083 10250 20156 50003,KPUB,2023-06-01T05:53:00Z,38.28,-104.5,16.1,8.3,360,6,,10.0,29.870079,1005.9,,TRUE,TRUE,,,,,,,CLR,,,,,,,,VFR,0.3,25.0,15.6,,,,,,,,,METAR,1441.0
KPTK 010553Z AUTO 00000KT 10SM CLR 17/11 A3010 RMK AO2 SLP187 T01720111 10278 20172 50002 TSNO,KPTK,2023-06-01T05:53:00Z,42.67,-83.42,17.2,11.1,0,0,,10.0,30.100393,1018.7,,TRUE,TRUE,,,TRUE,,,,CLR,,,,,,,,VFR,0.2,27.8,17.2,,,,,,,,,METAR,295.0
KPSX 010553Z AUTO 12006KT 10SM FEW024 26/22 A2986 RMK AO2 SLP111 T02560217 10283 20250 403060211 50002,KPSX,2023-06-01T05:53:00Z,28.72,-96.25,25.6,21.7,120,6,,10.0,29.861221,1011.1,,TRUE,TRUE,,,,,,,FEW,2400,,,,,,,VFR,0.2,28.3,25.0,30.6,21.1,,,,,,,METAR,4.0
KPSP 010553Z AUTO 31014KT 10SM CLR 21/09 A2974 RMK AO2 SLP068 T02060089 10267 20206 51012,KPSP,2023-06-01T05:53:00Z,33.82,-116.5,20.6,8.9,310,14,,10.0,29.740158,1006.8,,TRUE,TRUE,,,,,,,CLR,,,,,,,,VFR,1.2,26.7,20.6,,,,,,,,,METAR,123.0
KPSC 010553Z AUTO 00000KT 10SM CLR 14/03 A2991 RMK AO2 SLP126 T01440028 10261 20144 51028,KPSC,2023-06-01T05:53:00Z,46.27,-119.12,14.4,2.8,0,0,,10.0,29.911417,1012.6,,TRUE,TRUE,,,,,,,CLR,,,,,,,,VFR,2.8,26.1,14.4,,,,,,,,,METAR,121.0
KPRC 010553Z 21007KT 10SM CLR 13/01 A2990 RMK AO2 SLP061 T01280006 10206 20128 50006,KPRC,2023-06-01T05:53:00Z,34.65,-112.42,12.8,0.6,210,7,,10.0,29.899607,1006.1,,,TRUE,,,,,,,CLR,,,,,,,,VFR,0.6,20.6,12.8,,,,,,,,,METAR,1528.0
KPRB 010553Z AUTO 21008KT 10SM CLR 11/08 A2991 RMK AO2 SLP124 T01060078 10222 20106 51020,KPRB,2023-06-01T05:53:00Z,35.67,-120.63,10.6,7.8,210,8,,10.0,29.911417,1012.4,,TRUE,TRUE,,,,,,,CLR,,,,,,,,VFR,2.0,22.2,10.6,,,,,,,,,METAR,249.0
KPQL 010553Z AUTO 07004KT 10SM CLR 22/19 A2991 RMK AO2 SLP129 T02220189 10267 20194 403170178 58005,KPQL,2023-06-01T05:53:00Z,30.47,-88.53,22.2,18.9,70,4,,10.0,29.911417,1012.9,,TRUE,TRUE,,,,,,,CLR,,,,,,,,VFR,-0.5,26.7,19.4,31.7,17.8,,,,,,,METAR,4.0
KPOU 010553Z AUTO 00000KT 10SM CLR 11/09 A3014 RMK AO2 SLP201 T01110094 10239 20106 53003,KPOU,2023-06-01T05:53:00Z,41.63,-73.88,11.1,9.4,0,0,,10.0,30.138779,1020.1,,TRUE,TRUE,,,,,,,CLR,,,,,,,,VFR,0.3,23.9,10.6,,,,,,,,,METAR,45.0
KPOF 010553Z AUTO 01003KT 10SM CLR 21/18 A2997 RMK AO2 SLP145 T02060178 10272 20200 403110172 51007,KPOF,2023-06-01T05:53:00Z,36.77,-90.32,20.6,17.8,10,3,,10.0,29.970472,1014.5,,TRUE,TRUE,,,,,,,CLR,,,,,,,,VFR,0.7,27.2,20.0,31.1,17.2,,,,,,,METAR,99.0
KPNS 010553Z AUTO 06005KT 10SM CLR 23/18 A2991 RMK AO2 SLP130 T02330183 10256 20233 403060206 58006,KPNS,2023-06-01T05:53:00Z,30.48,-87.18,23.3,18.3,60,5,,10.0,29.911417,1013.0,,TRUE,TRUE,,,,,,,CLR,,,,,,,,VFR,-0.6,25.6,23.3,30.6,20.6,,,,,,,METAR,34.0
KPNC 010553Z AUTO 00000KT 10SM CLR 22/17 A2989 RMK AO2 SLP108 T02170172 10289 20217 403060200 51004,KPNC,2023-06-01T05:53:00Z,36.73,-97.1,21.7,17.2,0,0,,10.0,29.890747,1010.8,,TRUE,TRUE,,,,,,,CLR,,,,,,,,VFR,0.4,28.9,21.7,30.6,20.0,,,,,,,METAR,304.0
KPMP 010553Z AUTO 00000KT 10SM CLR 25/23 A2984 RMK AO2 SLP106 T02500228 10261 20239 58015,KPMP,2023-06-01T05:53:00Z,26.25,-80.12,25.0,22.8,0,0,,10.0,29.840551,1010.6,,TRUE,TRUE,,,,,,,CLR,,,,,,,,VFR,-1.5,26.1,23.9,,,,,,,,,METAR,4.0
KPMD 010553Z AUTO 21014KT 10SM CLR 14/08 A2984 RMK AO2 SLP087 T01390078 10200 20139 51004,KPMD,2023-06-01T05:53:00Z,34.63,-118.08,13.9,7.8,210,14,,10.0,29.840551,1008.7,,TRUE,TRUE,,,,,,,CLR,,,,,,,,VFR,0.4,20.0,13.9,,,,,,,,,METAR,764.0
KPKD 010553Z AUTO 10004KT 10SM CLR 18/16 A2991 RMK AO2 SLP121 60006 T01780161 10261 20178 403110139 51019,KPKD,2023-06-01T05:53:00Z,46.9,-95.07,17.8,16.1,100,4,,10.0,29.911417,1012.1,,TRUE,TRUE,,,,,,,CLR,,,,,,,,VFR,1.9,26.1,17.8,31.1,13.9,,,0.06,,,,METAR,439.0
KPKB 010553Z AUTO 00000KT 10SM CLR 15/14 A3008 RMK AO2 SLP180 T01500139 10272 20150 58001,KPKB,2023-06-01T05:53:00Z,39.35,-81.43,15.0,13.9,0,0,,10.0,30.079725,1018.0,,TRUE,TRUE,,,,,,,CLR,,,,,,,,VFR,-0.1,27.2,15.0,,,,,,,,,METAR,245.0
KPIR 010553Z AUTO 18009KT 10SM CLR 21/14 A2980 RMK AO2 SLP077 60000 T02110139 10294 20194 402940144 51010,KPIR,2023-06-01T05:53:00Z,44.38,-100.28,21.1,13.9,180,9,,10.0,29.799213,1007.7,,TRUE,TRUE,,,,,,,CLR,,,,,,,,VFR,1.0,29.4,19.4,29.4,14.4,,,0.005,,,,METAR,524.0
KPIL 010553Z AUTO 14008KT 10SM CLR 26/22 A2985 RMK AO2 SLP107 T02610222 10294 20261 403060217 50007,KPIL,2023-06-01T05:53:00Z,26.17,-97.33,26.1,22.2,140,8,,10.0,29.84941,1010.7,,TRUE,TRUE,,,,,,,CLR,,,,,,,,VFR,0.7,29.4,26.1,30.6,21.7,,,,,,,METAR,5.0
KPIH 010553Z AUTO 18007KT 10SM CLR 11/09 A2989 RMK AO2 SLP087 T01110089 10228 20111 50012,KPIH,2023-06-01T05:53:00Z,42.92,-112.57,11.1,8.9,180,7,,10.0,29.890747,1008.7,,TRUE,TRUE,,,,,,,CLR,,,,,,,,VFR,1.2,22.8,11.1,,,,,,,,,METAR,1357.0
KPHD 010553Z AUTO 00000KT 10SM CLR 12/08 A3011 RMK AO2 SLP193 T01220078 10267 20122 52002,KPHD,2023-06-01T05:53:00Z,40.47,-81.42,12.2,7.8,0,0,,10.0,30.109253,1019.3,,TRUE,TRUE,,,,,,,CLR,,,,,,,,VFR,0.2,26.7,12.2,,,,,,,,,METAR,272.0
KPGD 010553Z AUTO 09005KT 10SM CLR 22/21 A2987 RMK AO2 SLP113 60025 T02170211 10228 20217 58015,KPGD,2023-06-01T05:53:00Z,26.92,-82.0,21.7,21.1,90,5,,10.0,29.870079,1011.3,,TRUE,TRUE,,,,,,,CLR,,,,,,,,VFR,-1.5,22.8,21.7,,,,,0.25,,,,METAR,7.0
KPGA 010553Z AUTO 21008KT 10SM CLR 22/M07 A2978 RMK AO2 SLP016 T02171072 10283 20217 51020,KPGA,2023-06-01T05:53:00Z,36.92,-111.45,21.7,-7.2,210,8,,10.0,29.778543,1001.6,,TRUE,TRUE,,,,,,,CLR,,,,,,,,VFR,2.0,28.3,21.7,,,,,,,,,METAR,1310.0
KPEO 010553Z AUTO 23004KT 10SM CLR 16/16 A3013 RMK AO2 SLP196 T01610161 10261 20161 58000,KPEO,2023-06-01T05:53:00Z,42.65,-77.05,16.1,16.1,230,4,,10.0,30.129921,1019.6,,TRUE,TRUE,,,,,,,CLR,,,,,,,,VFR,0.0,26.1,16.1,,,,,,,,,METAR,268.0
KPDX 010553Z VRB03KT 10SM FEW070 13/04 A3010 RMK AO2 SLP190 T01330044 10194 20133 51015,KPDX,2023-06-01T05:53:00Z,45.6,-122.62,13.3,4.4,0,3,,10.0,30.100393,1019.0,,,TRUE,,,,,,,FEW,7000,,,,,,,VFR,1.5,19.4,13.3,,,,,,,,,METAR,7.0
KPDT 010553Z AUTO 21014G20KT 10SM CLR 13/02 A2996 RMK AO2 SLP137 T01330022 10228 20128 51026,KPDT,2023-06-01T05:53:00Z,45.7,-118.83,13.3,2.2,210,14,20,10.0,29.958662,1013.7,,TRUE,TRUE,,,,,,,CLR,,,,,,,,VFR,2.6,22.8,12.8,,,,,,,,,METAR,453.0
KPDK 010553Z AUTO 00000KT 10SM CLR 18/17 A3006 RMK AO2 SLP168 T01780167 10222 20172 58006,KPDK,2023-06-01T05:53:00Z,33.88,-84.3,17.8,16.7,0,0,,10.0,30.059055,1016.8,,TRUE,TRUE,,,,,,,CLR,,,,,,,,VFR,-0.6,22.2,17.2,,,,,,,,,METAR,299.0
KPBI 010553Z 00000KT 10SM SCT027 26/22 A2985 RMK AO2 SLP109 T02560222 10261 20256 56016 $,KPBI,2023-06-01T05:53:00Z,26.68,-80.1,25.6,22.2,0,0,,10.0,29.84941,1010.9,,,TRUE,TRUE,,,,,,SCT,2700,,,,,,,VFR,-1.6,26.1,25.6,,,,,,,,,METAR,4.0
KPBG 010553Z AUTO 00000KT 10SM CLR 13/12 A3007 RMK AO2 SLP183 T01280117 10244 20128 50003,KPBG,2023-06-01T05:53:00Z,44.65,-73.47,12.8,11.7,0,0,,10.0,30.070866,1018.3,,TRUE,TRUE,,,,,,,CLR,,,,,,,,VFR,0.3,24.4,12.8,,,,,,,,,METAR,61.0
KPBF 010553Z AUTO 00000KT 10SM CLR 22/18 A2995 RMK AO2 SLP139 T02220183 10311 20217 403280183 51012,KPBF,2023-06-01T05:53:00Z,34.18,-91.93,22.2,18.3,0,0,,10.0,29.949802,1013.9,,TRUE,TRUE,,,,,,,CLR,,,,,,,,VFR,1.2,31.1,21.7,32.8,18.3,,,,,,,METAR,63.0
KPAH 010553Z AUTO 00000KT 10SM CLR 21/18 A2998 RMK AO2 SLPNO T02060178 10294 20200 403170178 50003,KPAH,2023-06-01T05:53:00Z,37.07,-88.77,20.6,17.8,0,0,,10.0,29.97933,,,TRUE,TRUE,,,,,,,CLR,,,,,,,,VFR,0.3,29.4,20.0,31.7,17.8,,,,,,,METAR,125.0
KPAE 010553Z AUTO 01007KT 10SM CLR 11/06 A3008 RMK AO2 SLP188 T01060061 10150 20106 51005,KPAE,2023-06-01T05:53:00Z,47.92,-122.28,10.6,6.1,10,7,,10.0,30.079725,1018.8,,TRUE,TRUE,,,,,,,CLR,,,,,,,,VFR,0.5,15.0,10.6,,,,,,,,,METAR,166.0
KP68 010553Z AUTO 08006KT 11/06 A2992 RMK AO1 SLP065 T01110056 10194 20106 51008,KP68,2023-06-01T05:53:00Z,39.6,-116.0,11.1,5.6,80,6,,,29.920275,1006.5,,TRUE,TRUE,,,,,,,,,,,,,,,,0.8,19.4,10.6,,,,,,,,,METAR,1813.0
KOWD 010553Z AUTO 22003KT 10SM CLR 13/11 A3012 RMK AO2 SLP200 T01330106 10217 20117 58006,KOWD,2023-06-01T05:53:00Z,42.18,-71.17,13.3,10.6,220,3,,10.0,30.121063,1020.0,,TRUE,TRUE,,,,,,,CLR,,,,,,,,VFR,-0.6,21.7,11.7,,,,,,,,,METAR,14.0
KOVS 010553Z AUTO 00000KT 10SM CLR 19/16 A2997 RMK AO2 SLP147 T01890161 10311 20189 403330106 52009,KOVS,2023-06-01T05:53:00Z,43.15,-90.68,18.9,16.1,0,0,,10.0,29.970472,1014.7,,TRUE,TRUE,,,,,,,CLR,,,,,,,,VFR,0.9,31.1,18.9,33.3,10.6,,,,,,,METAR,205.0
KOTM 010553Z AUTO 12006KT 10SM CLR 20/17 A2995 RMK AO2 SLP133 T02000167 10267 20194 403220156 50004,KOTM,2023-06-01T05:53:00Z,41.1,-92.45,20.0,16.7,120,6,,10.0,29.949802,1013.3,,TRUE,TRUE,,,,,,,CLR,,,,,,,,VFR,0.4,26.7,19.4,32.2,15.6,,,,,,,METAR,254.0
KOSU 010553Z AUTO 00000KT 10SM CLR 21/14 A3008 RMK AO2 SLP178 T02060144 10278 20194 50001,KOSU,2023-06-01T05:53:00Z,40.08,-83.08,20.6,14.4,0,0,,10.0,30.079725,1017.8,,TRUE,TRUE,,,,,,,CLR,,,,,,,,VFR,0.1,27.8,19.4,,,,,,,,,METAR,276.0
KOSH 010553Z AUTO 00000KT 6SM BR CLR 18/17 A3001 RMK AO2 SLP150 60000 T01780172 10244 20178 403220161 51007,KOSH,2023-06-01T05:53:00Z,43.98,-88.55,17.8,17.2,0,0,,6.0,30.008858,1015.0,,TRUE,TRUE,,,,,,BR,CLR,,,,,,,,VFR,0.7,24.4,17.8,32.2,16.1,,,0.005,,,,METAR,239.0
KORL 010553Z AUTO 05005KT 10SM SCT110 23/19 A2988 RMK AO2 RAE06 SLP119 P0000 60000 T02330194 10256 20233 56020,KORL,2023-06-01T05:53:00Z,28.55,-81.33,23.3,19.4,50,5,,10.0,29.878937,1011.9,,TRUE,TRUE,,,,,,,SCT,11000,,,,,,,VFR,-2.0,25.6,23.3,,,0.005,,0.005,,,,METAR,32.0
KOQT 010553Z AUTO 00000KT 10SM CLR 20/18 A3006 RMK AO2 SLP165 60000 T02000183 10267 20200 58003,KOQT,2023-06-01T05:53:00Z,36.02,-84.23,20.0,18.3,0,0,,10.0,30.059055,1016.5,,TRUE,TRUE,,,,,,,CLR,,,,,,,,VFR,-0.3,26.7,20.0,,,,,0.005,,,,METAR,276.0
KOPF 010553Z AUTO 00000KT 10SM CLR 24/23 A2985 RMK AO2 SLP110 T02390228 10244 20233 58014,KOPF,2023-06-01T05:53:00Z,25.92,-80.28,23.9,22.8,0,0,,10.0,29.84941,1011.0,,TRUE,TRUE,,,,,,,CLR,,,,,,,,VFR,-1.4,24.4,23.3,,,,,,,,,METAR,1.0
KONT 010553Z 29005KT 7SM SCT014 OVC016 14/12 A2992 RMK AO2 SLP126 T01440122 10161 20144 53007,KONT,2023-06-01T05:53:00Z,34.05,-117.58,14.4,12.2,290,5,,7.0,29.920275,1012.6,,,TRUE,,,,,,,SCT,1400,OVC,1600,,,,,MVFR,0.7,16.1,14.4,,,,,,,,,METAR,279.0
KONO 010553Z AUTO 26006KT 10SM CLR 16/13 A2985 RMK AO2 SLP103 T01560133 10211 20156 50009,KONO,2023-06-01T05:53:00Z,44.02,-117.02,15.6,13.3,260,6,,10.0,29.84941,1010.3,,TRUE,TRUE,,,,,,,CLR,,,,,,,,VFR,0.9,21.1,15.6,,,,,,,,,METAR,668.0
KOMK 010553Z AUTO 35009KT 10SM FEW100 16/03 A2981 RMK AO2 SLP091 T01610033 10261 20144 53020,KOMK,2023-06-01T05:53:00Z,48.47,-119.52,16.1,3.3,350,9,,10.0,29.811024,1009.1,,TRUE,TRUE,,,,,,,FEW,10000,,,,,,,VFR,2.0,26.1,14.4,,,,,,,,,METAR,395.0
KOLF 010553Z AUTO 06007KT 10SM CLR 18/15 A2977 RMK AO2 SLP071 T01780150 10272 20178 50003,KOLF,2023-06-01T05:53:00Z,48.1,-105.58,17.8,15.0,60,7,,10.0,29.769686,1007.1,,TRUE,TRUE,,,,,,,CLR,,,,,,,,VFR,0.3,27.2,17.8,,,,,,,,,METAR,605.0
KOJC 010553Z AUTO 14007KT 10SM CLR 22/18 A2993 RMK AO2 SLP125 T02170183 10267 20217 402890172 53004,KOJC,2023-06-01T05:53:00Z,38.85,-94.73,21.7,18.3,140,7,,10.0,29.929134,1012.5,,TRUE,TRUE,,,,,,,CLR,,,,,,,,VFR,0.4,26.7,21.7,28.9,17.2,,,,,,,METAR,328.0
KOGD 010553Z AUTO 30003KT 10SM BKN120 20/06 A2981 RMK AO2 SLP034 T02000056 10256 20183 53011,KOGD,2023-06-01T05:53:00Z,41.2,-112.02,20.0,5.6,300,3,,10.0,29.811024,1003.4,,TRUE,TRUE,,,,,,,BKN,12000,,,,,,,VFR,1.1,25.6,18.3,,,,,,,,,METAR,1356.0
KOGB 010553Z AUTO 04003KT 10SM CLR 18/17 A3002 RMK AO2 SLP164 T01780167 10244 20178 58014,KOGB,2023-06-01T05:53:00Z,33.47,-80.85,17.8,16.7,40,3,,10.0,30.02067,1016.4,,TRUE,TRUE,,,,,,,CLR,,,,,,,,VFR,-1.4,24.4,17.8,,,,,,,,,METAR,59.0
KODX 010553Z AUTO 00000KT 10SM CLR 17/16 A2985 RMK AO2 SLP099 T01720156 10283 20172 402940139 51008,KODX,2023-06-01T05:53:00Z,41.62,-98.95,17.2,15.6,0,0,,10.0,29.84941,1009.9,,TRUE,TRUE,,,,,,,CLR,,,,,,,,VFR,0.8,28.3,17.2,29.4,13.9,,,,,,,METAR,628.0
KOAK 010553Z 23012KT 10SM FEW012 OVC017 13/09 A2989 RMK AO2 SLP122 T01280089 10161 20128 52005,KOAK,2023-06-01T05:53:00Z,37.72,-122.23,12.8,8.9,230,12,,10.0,29.890747,1012.2,,,TRUE,,,,,,,FEW,1200,OVC,1700,,,,,MVFR,0.5,16.1,12.8,,,,,,,,,METAR,3.0
KNUW 010553Z 27014KT 10SM FEW150 FEW220 11/07 A3008 RMK AO2 SLP189 T01060072 10144 20106 53005 $,KNUW,2023-06-01T05:53:00Z,48.35,-122.65,10.6,7.2,270,14,,10.0,30.079725,1018.9,,,TRUE,TRUE,,,,,,FEW,15000,FEW,22000,,,,,VFR,0.5,14.4,10.6,,,,,,,,,METAR,14.0
KNRS 010553Z 30006KT 10SM FEW015 BKN024 16/13 A2994 RMK AO2 SLP139 T01610128 10183 20156 51008 $,KNRS,2023-06-01T05:53:00Z,32.57,-117.12,16.1,12.8,300,6,,10.0,29.940945,1013.9,,,TRUE,TRUE,,,,,,FEW,1500,BKN,2400,,,,,MVFR,0.8,18.3,15.6,,,,,,,,,METAR,15.0
KNQX 010553Z AUTO 13004KT 10SM SCT022 BKN034 OVC044 A2984 RMK AO2 SLP105 58014 $,KNQX,2023-06-01T05:53:00Z,24.57,-81.67,,,130,4,,10.0,29.840551,1010.5,,TRUE,TRUE,TRUE,,,,,,SCT,2200,BKN,3400,OVC,4400,,,VFR,-1.4,,,,,,,,,,,METAR,2.0
KNIP 010553Z AUTO 06007KT 10SM CLR 24/21 A2994 RMK AO2 SLP133 T02390206 10250 20239 58014,KNIP,2023-06-01T05:53:00Z,30.23,-81.67,23.9,20.6,60,7,,10.0,29.940945,1013.3,,TRUE,TRUE,,,,,,,CLR,,,,,,,,VFR,-1.4,25.0,23.9,,,,,,,,,METAR,3.0
KNFG 010553Z 00000KT 10SM OVC048 17/13 A2993 RMK AO2 SLP133 T01670133 10189 20167 53006 $,KNFG,2023-06-01T05:53:00Z,33.3,-117.35,16.7,13.3,0,0,,10.0,29.929134,1013.3,,,TRUE,TRUE,,,,,,OVC,4800,,,,,,,VFR,0.6,18.9,16.7,,,,,,,,,METAR,21.0
KNEW 010553Z AUTO 11004KT 10SM CLR 26/20 A2990 RMK AO2 SLP118 T02560200 10289 20250 403170233 58004,KNEW,2023-06-01T05:53:00Z,30.05,-90.03,25.6,20.0,110,4,,10.0,29.899607,1011.8,,TRUE,TRUE,,,,,,,CLR,,,,,,,,VFR,-0.4,28.9,25.0,31.7,23.3,,,,,,,METAR,1.0
KMYV 010553Z AUTO 16009KT 10SM CLR 18/13 A2979 RMK AO2 SLP089 T01830128 10278 20183 53011,KMYV,2023-06-01T05:53:00Z,39.1,-121.57,18.3,12.8,160,9,,10.0,29.790354,1008.9,,TRUE,TRUE,,,,,,,CLR,,,,,,,,VFR,1.1,27.8,18.3,,,,,,,,,METAR,18.0
KMYF 010553Z AUTO 27006KT 10SM BKN018 OVC042 16/12 A2994 RMK AO2 SLP134 T01560122 10172 20156 51008,KMYF,2023-06-01T05:53:00Z,32.82,-117.13,15.6,12.2,270,6,,10.0,29.940945,1013.4,,TRUE,TRUE,,,,,,,BKN,1800,OVC,4200,,,,,MVFR,0.8,17.2,15.6,,,,,,,,,METAR,128.0
KMWT 010553Z AUTO 00000KT 8SM CLR 18/17 A2994 RMK AO2 SLP127 T01830167 10289 20183 403170150 50012,KMWT,2023-06-01T05:53:00Z,34.55,-93.58,18.3,16.7,0,0,,8.0,29.940945,1012.7,,TRUE,TRUE,,,,,,,CLR,,,,,,,,VFR,1.2,28.9,18.3,31.7,15.0,,,,,,,METAR,220.0
KMWL 010553Z AUTO 13007KT 10SM CLR 22/17 A2985 RMK AO2 SLP095 T02220172 10306 20217 403220183 50000 $,KMWL,2023-06-01T05:53:00Z,32.78,-98.07,22.2,17.2,130,7,,10.0,29.84941,1009.5,,TRUE,TRUE,TRUE,,,,,,CLR,,,,,,,,VFR,0.0,30.6,21.7,32.2,18.3,,,,,,,METAR,288.0
KMTO 010553Z AUTO 15004KT 10SM CLR 21/16 A3000 RMK AO2 SLP154 T02110161 10278 20211 403170189 51005,KMTO,2023-06-01T05:53:00Z,39.47,-88.27,21.1,16.1,150,4,,10.0,30.0,1015.4,,TRUE,TRUE,,,,,,,CLR,,,,,,,,VFR,0.5,27.8,21.1,31.7,18.9,,,,,,,METAR,216.0
KMTJ 010553Z AUTO 15011KT 10SM CLR 16/02 A2991 RMK AO2 SLP053 T01610022 10200 20161 58001,KMTJ,2023-06-01T05:53:00Z,38.5,-107.9,16.1,2.2,150,11,,10.0,29.911417,1005.3,,TRUE,TRUE,,,,,,,CLR,,,,,,,,VFR,-0.1,20.0,16.1,,,,,,,,,METAR,1755.0
KMTH 010553Z AUTO 06004KT 10SM FEW080 FEW110 24/23 A2984 RMK AO2 RAB01E16 SLP103 P0003 60030 T02440233 10283 20239 58016,KMTH,2023-06-01T05:53:00Z,24.73,-81.05,24.4,23.3,60,4,,10.0,29.840551,1010.3,,TRUE,TRUE,,,,,,,FEW,8000,FEW,11000,,,,,VFR,-1.6,28.3,23.9,,,0.03,,0.3,,,,METAR,1.0
KMSY 010553Z 00000KT 10SM FEW100 23/21 A2990 RMK AO2 SLP127 T02280206 10300 20222 403220211 58001,KMSY,2023-06-01T05:53:00Z,30.0,-90.25,22.8,20.6,0,0,,10.0,29.899607,1012.7,,,TRUE,,,,,,,FEW,10000,,,,,,,VFR,-0.1,30.0,22.2,32.2,21.1,,,,,,,METAR,0.0
KMSS 010553Z AUTO 00000KT 10SM CLR 14/13 A3009 RMK AO2 SLP190 T01440128 10250 20144 50003,KMSS,2023-06-01T05:53:00Z,44.93,-74.85,14.4,12.8,0,0,,10.0,30.088583,1019.0,,TRUE,TRUE,,,,,,,CLR,,,,,,,,VFR,0.3,25.0,14.4,,,,,,,,,METAR,60.0
KMSP 010553Z 16007KT 10SM SCT095 24/15 A2991 RMK AO2 SLP121 T02440150 10311 20244 403220189 53006,KMSP,2023-06-01T05:53:00Z,44.88,-93.23,24.4,15.0,160,7,,10.0,29.911417,1012.1,,,TRUE,,,,,,,SCT,9500,,,,,,,VFR,0.6,31.1,24.4,32.2,18.9,,,,,,,METAR,255.0
KMSO 010553Z AUTO 15004KT 10SM CLR 14/11 A2985 RMK AO2 SLP100 T01390106 10217 20139 51010,KMSO,2023-06-01T05:53:00Z,46.92,-114.1,13.9,10.6,150,4,,10.0,29.84941,1010.0,,TRUE,TRUE,,,,,,,CLR,,,,,,,,VFR,1.0,21.7,13.9,,,,,,,,,METAR,974.0
KMSN 010553Z AUTO 00000KT 10SM CLR 18/14 A3000 RMK AO2 SLP155 T01780144 10261 20178 403280144 53006,KMSN,2023-06-01T05:53:00Z,43.13,-89.35,17.8,14.4,0,0,,10.0,30.0,1015.5,,TRUE,TRUE,,,,,,,CLR,,,,,,,,VFR,0.6,26.1,17.8,32.8,14.4,,,,,,,METAR,262.0
KMSL 010553Z AUTO 12003KT 10SM CLR 19/18 A3000 RMK AO2 SLP151 T01940178 10278 20194 403000172 50002,KMSL,2023-06-01T05:53:00Z,34.75,-87.6,19.4,17.8,120,3,,10.0,30.0,1015.1,,TRUE,TRUE,,,,,,,CLR,,,,,,,,VFR,0.2,27.8,19.4,30.0,17.2,,,,,,,METAR,170.0
KMRB 010553Z AUTO 00000KT 10SM CLR 08/06 A3012 RMK AO2 SLP197 T00780061 10217 20078 58002,KMRB,2023-06-01T05:53:00Z,39.4,-77.98,7.8,6.1,0,0,,10.0,30.121063,1019.7,,TRUE,TRUE,,,,,,,CLR,,,,,,,,VFR,-0.2,21.7,7.8,,,,,,,,,METAR,165.0
KMPO 010553Z AUTO 31004KT 10SM CLR 09/05 A3018 RMK AO2 SLP213 T00940050 10200 20072 50000,KMPO,2023-06-01T05:53:00Z,41.13,-75.38,9.4,5.0,310,4,,10.0,30.180119,1021.3,,TRUE,TRUE,,,,,,,CLR,,,,,,,,VFR,0.0,20.0,7.2,,,,,,,,,METAR,576.0
KMOD 010553Z AUTO 34008KT 10SM CLR 17/07 A2980 RMK AO2 SLP090 T01670072 10267 20167 53010,KMOD,2023-06-01T05:53:00Z,37.62,-120.95,16.7,7.2,340,8,,10.0,29.799213,1009.0,,TRUE,TRUE,,,,,,,CLR,,,,,,,,VFR,1.0,26.7,16.7,,,,,,,,,METAR,25.0
KMNN 010553Z AUTO 16004KT 10SM CLR 18/11 A3009 RMK AO2 SLP184 T01830111 10278 20183 50005,KMNN,2023-06-01T05:53:00Z,40.62,-83.07,18.3,11.1,160,4,,10.0,30.088583,1018.4,,TRUE,TRUE,,,,,,,CLR,,,,,,,,VFR,0.5,27.8,18.3,,,,,,,,,METAR,301.0
KMMV 010553Z AUTO 28003KT 10SM CLR 09/05 A3009 RMK AO2 SLP188 T00940050 10172 20089 53012,KMMV,2023-06-01T05:53:00Z,45.2,-123.13,9.4,5.0,280,3,,10.0,30.088583,1018.8,,TRUE,TRUE,,,,,,,CLR,,,,,,,,VFR,1.2,17.2,8.9,,,,,,,,,METAR,48.0
KMMK 010553Z AUTO 00000KT 10SM CLR 11/09 A3015 RMK AO2 SLP208 T01060089 10200 20106 58001 $,KMMK,2023-06-01T05:53:00Z,41.52,-72.83,10.6,8.9,0,0,,10.0,30.15059,1020.8,,TRUE,TRUE,TRUE,,,,,,CLR,,,,,,,,VFR,-0.1,20.0,10.6,,,,,,,,,METAR,30.0
KMLU 010553Z AUTO 00000KT 10SM CLR 22/18 A2993 RMK AO2 SLP132 T02170178 10306 20217 403280172 51007,KMLU,2023-06-01T05:53:00Z,32.52,-92.03,21.7,17.8,0,0,,10.0,29.929134,1013.2,,TRUE,TRUE,,,,,,,CLR,,,,,,,,VFR,0.7,30.6,21.7,32.8,17.2,,,,,,,METAR,22.0
KMLT 010553Z AUTO 00000KT 10SM CLR 15/14 A3005 RMK AO2 SLP178 T01500139 10267 20150 50001 $,KMLT,2023-06-01T05:53:00Z,45.65,-68.7,15.0,13.9,0,0,,10.0,30.050198,1017.8,,TRUE,TRUE,TRUE,,,,,,CLR,,,,,,,,VFR,0.1,26.7,15.0,,,,,,,,,METAR,121.0
KMLS 010553Z AUTO 18006KT 10SM CLR 19/11 A2976 RMK AO2 SLP056 T01940106 10278 20189 53014,KMLS,2023-06-01T05:53:00Z,46.43,-105.88,19.4,10.6,180,6,,10.0,29.760826,1005.6,,TRUE,TRUE,,,,,,,CLR,,,,,,,,VFR,1.4,27.8,18.9,,,,,,,,,METAR,800.0
KMLP 010553Z AUTO 32003KT 10SM BKN060 08/M01 A2996 RMK AO2 SLP071 T00781011 10161 20078 51010,KMLP,2023-06-01T05:53:00Z,47.45,-115.67,7.8,-1.1,320,3,,10.0,29.958662,1007.1,,TRUE,TRUE,,,,,,,BKN,6000,,,,,,,VFR,1.0,16.1,7.8,,,,,,,,,METAR,1837.0
KMLC 010553Z AUTO 11003KT 10SM SCT070 BKN100 21/17 A2992 RMK AO2 SLP123 T02060167 10294 20200 403170167 51005,KMLC,2023-06-01T05:53:00Z,34.88,-95.78,20.6,16.7,110,3,,10.0,29.920275,1012.3,,TRUE,TRUE,,,,,,,SCT,7000,BKN,10000,,,,,VFR,0.5,29.4,20.0,31.7,16.7,,,,,,,METAR,231.0
KMKO 010553Z AUTO 17004KT 10SM CLR 22/18 A2994 RMK AO2 SLP131 T02170183 10289 20217 403110183 51007,KMKO,2023-06-01T05:53:00Z,35.65,-95.37,21.7,18.3,170,4,,10.0,29.940945,1013.1,,TRUE,TRUE,,,,,,,CLR,,,,,,,,VFR,0.7,28.9,21.7,31.1,18.3,,,,,,,METAR,184.0
KMKL 010553Z AUTO 00000KT 10SM CLR 19/18 A2999 RMK AO2 SLP152 T01940183 10278 20194 403000161 50003,KMKL,2023-06-01T05:53:00Z,35.6,-88.92,19.4,18.3,0,0,,10.0,29.991142,1015.2,,TRUE,TRUE,,,,,,,CLR,,,,,,,,VFR,0.3,27.8,19.4,30.0,16.1,,,,,,,METAR,130.0
KMIW 010553Z AUTO 15005KT 10SM CLR 20/15 A2995 RMK AO2 SLP133 60001 T02000150 10244 20200 403220167 51010,KMIW,2023-06-01T05:53:00Z,42.12,-92.92,20.0,15.0,150,5,,10.0,29.949802,1013.3,,TRUE,TRUE,,,,,,,CLR,,,,,,,,VFR,1.0,24.4,20.0,32.2,16.7,,,0.01,,,,METAR,296.0
KMIE 010553Z AUTO 00000KT 10SM CLR 21/14 A3006 RMK AO2 SLP166 T02110144 10300 20211 52002,KMIE,2023-06-01T05:53:00Z,40.23,-85.4,21.1,14.4,0,0,,10.0,30.059055,1016.6,,TRUE,TRUE,,,,,,,CLR,,,,,,,,VFR,0.2,30.0,21.1,,,,,,,,,METAR,286.0
KMIC 010553Z AUTO 00000KT 10SM CLR 22/14 A2988 RMK AO2 SLP113 T02170139 10311 20211 403280189 53001,KMIC,2023-06-01T05:53:00Z,45.07,-93.35,21.7,13.9,0,0,,10.0,29.878937,1011.3,,TRUE,TRUE,,,,,,,CLR,,,,,,,,VFR,0.1,31.1,21.1,32.8,18.9,,,,,,,METAR,263.0
KMIA 010553Z 00000KT 10SM FEW025 FEW090 OVC250 26/23 A2985 RMK AO2 SLP108 T02560228 10267 20250 58014 $,KMIA,2023-06-01T05:53:00Z,25.8,-80.32,25.6,22.8,0,0,,10.0,29.84941,1010.8,,,TRUE,TRUE,,,,,,FEW,2500,FEW,9000,OVC,25000,,,VFR,-1.4,26.7,25.0,,,,,,,,,METAR,1.0
KMHT 010553Z 00000KT 10SM CLR 16/10 A3008 RMK AO2 SLP197 T01560100 10239 20156 58006,KMHT,2023-06-01T05:53:00Z,42.93,-71.43,15.6,10.0,0,0,,10.0,30.079725,1019.7,,,TRUE,,,,,,,CLR,,,,,,,,VFR,-0.6,23.9,15.6,,,,,,,,,METAR,68.0
KMHE 010553Z AUTO 17007KT 10SM CLR 22/14 A2982 RMK AO2 SLP086 T02220139 10317 20211 403280161 51004,KMHE,2023-06-01T05:53:00Z,43.77,-98.03,22.2,13.9,170,7,,10.0,29.819881,1008.6,,TRUE,TRUE,,,,,,,CLR,,,,,,,,VFR,0.4,31.7,21.1,32.8,16.1,,,,,,,METAR,397.0
KMGY 010553Z AUTO 08003KT 10SM CLR 19/14 A3007 RMK AO2 SLP174 T01890144 10278 20189 50004,KMGY,2023-06-01T05:53:00Z,39.6,-84.23,18.9,14.4,80,3,,10.0,30.070866,1017.4,,TRUE,TRUE,,,,,,,CLR,,,,,,,,VFR,0.4,27.8,18.9,,,,,,,,,METAR,290.0
KMGW 010553Z AUTO 01003KT 10SM CLR 16/07 A3012 RMK AO2 SLP190 T01610067 10250 20156 58005,KMGW,2023-06-01T05:53:00Z,39.65,-79.92,16.1,6.7,10,3,,10.0,30.121063,1019.0,,TRUE,TRUE,,,,,,,CLR,,,,,,,,VFR,-0.5,25.0,15.6,,,,,,,,,METAR,375.0
KMGM 010553Z AUTO 10005KT 10SM OVC095 21/19 A2998 RMK AO2 SLP148 60000 T02110189 10278 20206 403000172 58003,KMGM,2023-06-01T05:53:00Z,32.3,-86.4,21.1,18.9,100,5,,10.0,29.97933,1014.8,,TRUE,TRUE,,,,,,,OVC,9500,,,,,,,VFR,-0.3,27.8,20.6,30.0,17.2,,,0.005,,,,METAR,64.0
KMFR 010553Z AUTO 32004KT 10SM CLR 14/03 A2999 RMK AO2 SLP151 T01440033 10233 20139 51018,KMFR,2023-06-01T05:53:00Z,42.38,-122.87,14.4,3.3,320,4,,10.0,29.991142,1015.1,,TRUE,TRUE,,,,,,,CLR,,,,,,,,VFR,1.8,23.3,13.9,,,,,,,,,METAR,397.0
KMFE 010553Z AUTO 11007KT 10SM CLR 24/21 A2985 RMK AO2 SLP105 T02440211 10311 20239 403330222 50007 $,KMFE,2023-06-01T05:53:00Z,26.18,-98.25,24.4,21.1,110,7,,10.0,29.84941,1010.5,,TRUE,TRUE,TRUE,,,,,,CLR,,,,,,,,VFR,0.7,31.1,23.9,33.3,22.2,,,,,,,METAR,29.0
KMDW 010553Z 16004KT 10SM CLR 23/16 A3000 RMK AO2 SLP147 T02330156 10283 20233 403280211 56001,KMDW,2023-06-01T05:53:00Z,41.78,-87.75,23.3,15.6,160,4,,10.0,30.0,1014.7,,,TRUE,,,,,,,CLR,,,,,,,,VFR,-0.1,28.3,23.3,32.8,21.1,,,,,,,METAR,186.0
KMCW 010553Z AUTO 12004KT 10SM CLR 19/15 A2995 RMK AO2 SLP128 T01940150 10289 20183 403170178 51007,KMCW,2023-06-01T05:53:00Z,43.15,-93.33,19.4,15.0,120,4,,10.0,29.949802,1012.8,,TRUE,TRUE,,,,,,,CLR,,,,,,,,VFR,0.7,28.9,18.3,31.7,17.8,,,,,,,METAR,363.0
KMCO 010553Z 06005KT 10SM FEW020 SCT110 OVC150 23/21 A2988 RMK AO2 SLP117 60001 T02330206 10256 20228 55020,KMCO,2023-06-01T05:53:00Z,28.42,-81.33,23.3,20.6,60,5,,10.0,29.878937,1011.7,,,TRUE,,,,,,,FEW,2000,SCT,11000,OVC,15000,,,VFR,-2.0,25.6,22.8,,,,,0.01,,,,METAR,27.0
KMCN 010553Z AUTO 00000KT 10SM FEW045 18/17 A3001 RMK AO2 SLP160 T01830167 10256 20183 58008,KMCN,2023-06-01T05:53:00Z,32.68,-83.65,18.3,16.7,0,0,,10.0,30.008858,1016.0,,TRUE,TRUE,,,,,,,FEW,4500,,,,,,,VFR,-0.8,25.6,18.3,,,,,,,,,METAR,104.0
KMCK 010553Z AUTO 00000KT 10SM CLR 18/16 A2987 RMK AO2 SLP093 T01830156 10256 20183 402720144 51016,KMCK,2023-06-01T05:53:00Z,40.2,-100.58,18.3,15.6,0,0,,10.0,29.870079,1009.3,,TRUE,TRUE,,,,,,,CLR,,,,,,,,VFR,1.6,25.6,18.3,27.2,14.4,,,,,,,METAR,780.0
KMCI 010553Z 14008KT 10SM FEW110 BKN250 21/19 A2992 RMK AO2 SLP125 60106 T02060189 10256 20194 402610167 51005 $,KMCI,2023-06-01T05:53:00Z,39.3,-94.73,20.6,18.9,140,8,,10.0,29.920275,1012.5,,,TRUE,TRUE,,,,,,FEW,11000,BKN,25000,,,,,VFR,0.5,25.6,19.4,26.1,16.7,,,1.06,,,,METAR,308.0
KMCE 010553Z AUTO 27007KT 10SM CLR 17/09 A2981 RMK AO2 SLP093 T01670094 10283 20167 51017,KMCE,2023-06-01T05:53:00Z,37.28,-120.5,16.7,9.4,270,7,,10.0,29.811024,1009.3,,TRUE,TRUE,,,,,,,CLR,,,,,,,,VFR,1.7,28.3,16.7,,,,,,,,,METAR,49.0
KMCB 010553Z AUTO 00000KT 10SM CLR 19/17 A2991 RMK AO2 SLP124 T01940167 10289 20189 403060167 58001,KMCB,2023-06-01T05:53:00Z,31.18,-90.47,19.4,16.7,0,0,,10.0,29.911417,1012.4,,TRUE,TRUE,,,,,,,CLR,,,,,,,,VFR,-0.1,28.9,18.9,30.6,16.7,,,,,,,METAR,124.0
KMBS 010553Z AUTO 17004KT 10SM CLR 20/09 A3009 RMK AO2 SLP186 T02000094 10289 20200 51007 $,KMBS,2023-06-01T05:53:00Z,43.53,-84.08,20.0,9.4,170,4,,10.0,30.088583,1018.6,,TRUE,TRUE,TRUE,,,,,,CLR,,,,,,,,VFR,0.7,28.9,20.0,,,,,,,,,METAR,201.0
KMAI 010553Z AUTO 07006KT 10SM CLR 21/21 A2993 RMK AO2 SLP133 T02110206 10222 20206 402720183 58010 $,KMAI,2023-06-01T05:53:00Z,30.83,-85.18,21.1,20.6,70,6,,10.0,29.929134,1013.3,,TRUE,TRUE,TRUE,,,,,,CLR,,,,,,,,VFR,-1.0,22.2,20.6,27.2,18.3,,,,,,,METAR,33.0
KMAE 010553Z AUTO 30007KT 10SM CLR 17/10 A2982 RMK AO2 SLP094 T01720100 10283 20172 51016,KMAE,2023-06-01T05:53:00Z,36.98,-120.12,17.2,10.0,300,7,,10.0,29.819881,1009.4,,TRUE,TRUE,,,,,,,CLR,,,,,,,,VFR,1.6,28.3,17.2,,,,,,,,,METAR,77.0
KLXV 010553Z AUTO 07003KT 10SM CLR 02/00 A3014 RMK AO2 SLP066 60001 T00170000 10094 20011 52003,KLXV,2023-06-01T05:53:00Z,39.23,-106.32,1.7,0.0,70,3,,10.0,30.138779,1006.6,,TRUE,TRUE,,,,,,,CLR,,,,,,,,VFR,0.3,9.4,1.1,,,,,0.01,,,,METAR,3027.0
KLXT 010553Z AUTO 15009KT 10SM CLR 22/18 A2994 RMK AO2 SLP132 T02170183 10261 20217 402780156 51004,KLXT,2023-06-01T05:53:00Z,38.97,-94.37,21.7,18.3,150,9,,10.0,29.940945,1013.2,,TRUE,TRUE,,,,,,,CLR,,,,,,,,VFR,0.4,26.1,21.7,27.8,15.6,,,,,,,METAR,306.0
KLWV 010553Z AUTO 00000KT 10SM CLR 21/18 A3001 RMK AO2 SLP159 60008 T02060178 10306 20200 403280178 51005,KLWV,2023-06-01T05:53:00Z,38.77,-87.6,20.6,17.8,0,0,,10.0,30.008858,1015.9,,TRUE,TRUE,,,,,,,CLR,,,,,,,,VFR,0.5,30.6,20.0,32.8,17.8,,,0.08,,,,METAR,128.0
KLWD 010553Z AUTO 16007KT 10SM SCT090 SCT110 19/17 A2993 RMK AO2 SLP128 T01940167 10244 20194 402780167 50003,KLWD,2023-06-01T05:53:00Z,40.63,-93.9,19.4,16.7,160,7,,10.0,29.929134,1012.8,,TRUE,TRUE,,,,,,,SCT,9000,SCT,11000,,,,,VFR,0.3,24.4,19.4,27.8,16.7,,,,,,,METAR,345.0
KLVM 010553Z AUTO 21005KT 10SM OVC100 11/08 A2987 RMK AO2 SLP080 60000 T01060078 10194 20106 53001,KLVM,2023-06-01T05:53:00Z,45.7,-110.43,10.6,7.8,210,5,,10.0,29.870079,1008.0,,TRUE,TRUE,,,,,,,OVC,10000,,,,,,,VFR,0.1,19.4,10.6,,,,,0.005,,,,METAR,1418.0
KLVK 010553Z AUTO 27006KT 9SM CLR 11/08 A2988 RMK AO2 SLP115 T01110083 10211 20111 51009,KLVK,2023-06-01T05:53:00Z,37.7,-121.82,11.1,8.3,270,6,,9.0,29.878937,1011.5,,TRUE,TRUE,,,,,,,CLR,,,,,,,,VFR,0.9,21.1,11.1,,,,,,,,,METAR,120.0
KLVJ 010553Z AUTO 00000KT 10SM CLR 24/21 A2989 RMK AO2 SLP121 T02440206 10294 20244 403280217 50001,KLVJ,2023-06-01T05:53:00Z,29.52,-95.25,24.4,20.6,0,0,,10.0,29.890747,1012.1,,TRUE,TRUE,,,,,,,CLR,,,,,,,,VFR,0.1,29.4,24.4,32.8,21.7,,,,,,,METAR,11.0
KLUK 010553Z AUTO 00000KT 10SM CLR 17/17 A3006 RMK AO2 SLP175 T01720167 10278 20172 50003,KLUK,2023-06-01T05:53:00Z,39.1,-84.42,17.2,16.7,0,0,,10.0,30.059055,1017.5,,TRUE,TRUE,,,,,,,CLR,,,,,,,,VFR,0.3,27.8,17.2,,,,,,,,,METAR,144.0
KLSE 010553Z AUTO 00000KT 10SM FEW100 22/15 A2995 RMK AO2 SLP129 T02170150 10311 20217 403280161 53010 $,KLSE,2023-06-01T05:53:00Z,43.88,-91.25,21.7,15.0,0,0,,10.0,29.949802,1012.9,,TRUE,TRUE,TRUE,,,,,,FEW,10000,,,,,,,VFR,1.0,31.1,21.7,32.8,16.1,,,,,,,METAR,198.0
KLPR 010553Z AUTO 00000KT 10SM CLR 14/11 A3010 RMK AO2 SLP189 T01440106 10244 20139 51002,KLPR,2023-06-01T05:53:00Z,41.35,-82.18,14.4,10.6,0,0,,10.0,30.100393,1018.9,,TRUE,TRUE,,,,,,,CLR,,,,,,,,VFR,0.2,24.4,13.9,,,,,,,,,METAR,241.0
KLOZ 010553Z AUTO 00000KT 9SM CLR 17/16 A3005 RMK AO2 SLP166 T01670161 10256 20167 58001,KLOZ,2023-06-01T05:53:00Z,37.08,-84.07,16.7,16.1,0,0,,9.0,30.050198,1016.6,,TRUE,TRUE,,,,,,,CLR,,,,,,,,VFR,-0.1,25.6,16.7,,,,,,,,,METAR,361.0
KLOU 010553Z AUTO 00000KT 10SM CLR 19/16 A3002 RMK AO2 SLP160 T01890156 10278 20189 58001,KLOU,2023-06-01T05:53:00Z,38.22,-85.67,18.9,15.6,0,0,,10.0,30.02067,1016.0,,TRUE,TRUE,,,,,,,CLR,,,,,,,,VFR,-0.1,27.8,18.9,,,,,,,,,METAR,165.0
KLOL 010553Z AUTO 01005KT 4SM +RA BR BKN050 OVC070 13/11 A2994 RMK AO2 SLP112 P0017 60044 T01280106 10278 20128 53018,KLOL,2023-06-01T05:53:00Z,40.07,-118.57,12.8,10.6,10,5,,4.0,29.940945,1011.2,,TRUE,TRUE,,,,,,+RA BR,BKN,5000,OVC,7000,,,,,MVFR,1.8,27.8,12.8,,,0.17,,0.44,,,,METAR,1191.0
KLNS 010553Z AUTO 00000KT 10SM CLR 14/07 A3013 RMK AO2 SLP202 T01440072 10239 20139 50003,KLNS,2023-06-01T05:53:00Z,40.12,-76.3,14.4,7.2,0,0,,10.0,30.129921,1020.2,,TRUE,TRUE,,,,,,,CLR,,,,,,,,VFR,0.3,23.9,13.9,,,,,,,,,METAR,122.0
KLND 010553Z AUTO VRB04KT 10SM FEW120 14/03 A2986 RMK AO2 SLP050 T01440028 10250 20117 53008,KLND,2023-06-01T05:53:00Z,42.82,-108.73,14.4,2.8,0,4,,10.0,29.861221,1005.0,,TRUE,TRUE,,,,,,,FEW,12000,,,,,,,VFR,0.8,25.0,11.7,,,,,,,,,METAR,1700.0
KLMT 010553Z AUTO 28006KT 10SM CLR 09/03 A2996 RMK AO2 SLP121 LAST T00890033 10211 20089 51016,KLMT,2023-06-01T05:53:00Z,42.15,-121.72,8.9,3.3,280,6,,10.0,29.958662,1012.1,,TRUE,TRUE,,,,,,,CLR,,,,,,,,VFR,1.6,21.1,8.9,,,,,,,,,METAR,1246.0
KLLQ 010553Z AUTO 00000KT 10SM CLR 21/18 A2994 RMK AO2 SLP134 T02060183 10306 20206 403220178 51007,KLLQ,2023-06-01T05:53:00Z,33.63,-91.75,20.6,18.3,0,0,,10.0,29.940945,1013.4,,TRUE,TRUE,,,,,,,CLR,,,,,,,,VFR,0.7,30.6,20.6,32.2,17.8,,,,,,,METAR,86.0
KLKV 010553Z AUTO 36015KT 10SM CLR 12/M01 A2995 RMK AO2 SLP121 T01171006 10217 20106 51022,KLKV,2023-06-01T05:53:00Z,42.17,-120.4,11.7,-0.6,360,15,,10.0,29.949802,1012.1,,TRUE,TRUE,,,,,,,CLR,,,,,,,,VFR,2.2,21.7,10.6,,,,,,,,,METAR,1440.0
KLIT 010553Z 00000KT 10SM BKN130 23/18 A2995 RMK AO2 SLP140 T02330178 10306 20233 403280183 51012,KLIT,2023-06-01T05:53:00Z,34.73,-92.23,23.3,17.8,0,0,,10.0,29.949802,1014.0,,,TRUE,,,,,,,BKN,13000,,,,,,,VFR,1.2,30.6,23.3,32.8,18.3,,,,,,,METAR,77.0
KLHX 010553Z AUTO 17016KT 10SM CLR 19/09 A2985 RMK AO2 SLP051 T01890094 10250 20172 50002 $,KLHX,2023-06-01T05:53:00Z,38.05,-103.52,18.9,9.4,170,16,,10.0,29.84941,1005.1,,TRUE,TRUE,TRUE,,,,,,CLR,,,,,,,,VFR,0.2,25.0,17.2,,,,,,,,,METAR,1289.0
KLHQ 010553Z AUTO 00000KT 7SM CLR 16/14 A3009 RMK AO2 SLP183 T01560144 10267 20156 53002,KLHQ,2023-06-01T05:53:00Z,39.75,-82.67,15.6,14.4,0,0,,7.0,30.088583,1018.3,,TRUE,TRUE,,,,,,,CLR,,,,,,,,VFR,0.2,26.7,15.6,,,,,,,,,METAR,259.0
KLGB 010553Z 00000KT 10SM SCT043 16/12 A2992 RMK AO2 SLP129 T01610117 10172 20161 51005,KLGB,2023-06-01T05:53:00Z,33.82,-118.15,16.1,11.7,0,0,,10.0,29.920275,1012.9,,,TRUE,,,,,,,SCT,4300,,,,,,,VFR,0.5,17.2,16.1,,,,,,,,,METAR,10.0
KLFT 010553Z 22003KT 10SM CLR 23/21 A2989 RMK AO2 SLP120 T02280206 10272 20222 403170206 50000,KLFT,2023-06-01T05:53:00Z,30.2,-91.97,22.8,20.6,220,3,,10.0,29.890747,1012.0,,,TRUE,,,,,,,CLR,,,,,,,,VFR,0.0,27.2,22.2,31.7,20.6,,,,,,,METAR,9.0
KLFK 010553Z AUTO 00000KT 10SM CLR 22/21 A2990 RMK AO2 SLP119 T02220211 10278 20222 403220194 58001,KLFK,2023-06-01T05:53:00Z,31.23,-94.75,22.2,21.1,0,0,,10.0,29.899607,1011.9,,TRUE,TRUE,,,,,,,CLR,,,,,,,,VFR,-0.1,27.8,22.2,32.2,19.4,,,,,,,METAR,87.0
KLEE 010553Z AUTO 03007KT 10SM CLR 23/20 A2990 RMK AO2 SLP123 T02330200 10261 20233 56014,KLEE,2023-06-01T05:53:00Z,28.82,-81.82,23.3,20.0,30,7,,10.0,29.899607,1012.3,,TRUE,TRUE,,,,,,,CLR,,,,,,,,VFR,-1.4,26.1,23.3,,,,,,,,,METAR,21.0
KLEB 010553Z AUTO 00000KT 10SM CLR 13/11 A3012 RMK AO2 SLP190 T01330111 10244 20128 50003,KLEB,2023-06-01T05:53:00Z,43.63,-72.3,13.3,11.1,0,0,,10.0,30.121063,1019.0,,TRUE,TRUE,,,,,,,CLR,,,,,,,,VFR,0.3,24.4,12.8,,,,,,,,,METAR,169.0
KLCH 010553Z AUTO 00000KT 9SM CLR 21/20 A2989 RMK AO2 SLP128 T02060200 10244 20206 402890194 50001,KLCH,2023-06-01T05:53:00Z,30.13,-93.22,20.6,20.0,0,0,,9.0,29.890747,1012.8,,TRUE,TRUE,,,,,,,CLR,,,,,,,,VFR,0.1,24.4,20.6,28.9,19.4,,,,,,,METAR,2.0
KLBX 010553Z AUTO 00000KT 7SM CLR 21/19 A2988 RMK AO2 SLP116 T02060194 10272 20206 403000183 50001,KLBX,2023-06-01T05:53:00Z,29.12,-95.47,20.6,19.4,0,0,,7.0,29.878937,1011.6,,TRUE,TRUE,,,,,,,CLR,,,,,,,,VFR,0.1,27.2,20.6,30.0,18.3,,,,,,,METAR,4.0
KLBF 010553Z AUTO 10004KT 10SM FEW065 17/14 A2987 RMK AO2 SLP091 T01670144 10261 20167 402780139 51006,KLBF,2023-06-01T05:53:00Z,41.12,-100.67,16.7,14.4,100,4,,10.0,29.870079,1009.1,,TRUE,TRUE,,,,,,,FEW,6500,,,,,,,VFR,0.6,26.1,16.7,27.8,13.9,,,,,,,METAR,843.0
KLBB 010553Z 13014G23KT 10SM FEW120 BKN140 OVC160 22/16 A2989 RMK AO2 SLP072 BINOVC 60003 T02170156 10267 20211 402890178 52011,KLBB,2023-06-01T05:53:00Z,33.67,-101.82,21.7,15.6,130,14,23,10.0,29.890747,1007.2,,,TRUE,,,,,,,FEW,12000,BKN,14000,OVC,16000,,,VFR,1.1,26.7,21.1,28.9,17.8,,,0.03,,,,METAR,996.0
KLAX 010553Z 00000KT 10SM FEW011 FEW018 OVC032 17/12 A2991 RMK AO2 SLP127 T01670122 10167 20161 51003,KLAX,2023-06-01T05:53:00Z,33.93,-118.38,16.7,12.2,0,0,,10.0,29.911417,1012.7,,,TRUE,,,,,,,FEW,1100,FEW,1800,OVC,3200,,,VFR,0.3,16.7,16.1,,,,,,,,,METAR,30.0
KLAW 010553Z AUTO 12007KT 10SM CLR 22/18 A2987 RMK AO2 SLP103 T02220183 10294 20222 403110183 50003,KLAW,2023-06-01T05:53:00Z,34.55,-98.42,22.2,18.3,120,7,,10.0,29.870079,1010.3,,TRUE,TRUE,,,,,,,CLR,,,,,,,,VFR,0.3,29.4,22.2,31.1,18.3,,,,,,,METAR,328.0
KLAR 010553Z AUTO 13007KT 10SM FEW100 10/05 A3000 RMK AO2 SLP055 60000 T01000050 10200 20094 51007 $,KLAR,2023-06-01T05:53:00Z,41.32,-105.67,10.0,5.0,130,7,,10.0,30.0,1005.5,,TRUE,TRUE,TRUE,,,,,,FEW,10000,,,,,,,VFR,0.7,20.0,9.4,,,,,0.005,,,,METAR,2217.0
KLAN 010553Z 14005KT 10SM CLR 21/09 A3008 RMK AO2 SLP180 T02110094 10289 20211 50004,KLAN,2023-06-01T05:53:00Z,42.78,-84.58,21.1,9.4,140,5,,10.0,30.079725,1018.0,,,TRUE,,,,,,,CLR,,,,,,,,VFR,0.4,28.9,21.1,,,,,,,,,METAR,261.0
KLAA 010553Z AUTO 19014KT 10SM CLR 18/12 A2985 RMK AO2 PK WND 19027/0455 SLP059 60000 T01780117 10222 20178 56001,KLAA,2023-06-01T05:53:00Z,38.07,-102.68,17.8,11.7,190,14,,10.0,29.84941,1005.9,,TRUE,TRUE,,,,,,,CLR,,,,,,,,VFR,-0.1,22.2,17.8,,,,,0.005,,,,METAR,1129.0
KJLN 010553Z AUTO 14005KT 10SM CLR 22/17 A2994 RMK AO2 SLP128 T02220167 10278 20217 403000183 50003,KJLN,2023-06-01T05:53:00Z,37.15,-94.5,22.2,16.7,140,5,,10.0,29.940945,1012.8,,TRUE,TRUE,,,,,,,CLR,,,,,,,,VFR,0.3,27.8,21.7,30.0,18.3,,,,,,,METAR,297.0
KJKL 010553Z AUTO VRB03KT 10SM CLR 20/14 A3006 RMK AO2 SLP167 T02000139 10250 20200 57002,KJKL,2023-06-01T05:53:00Z,37.6,-83.32,20.0,13.9,0,3,,10.0,30.059055,1016.7,,TRUE,TRUE,,,,,,,CLR,,,,,,,,VFR,-0.2,25.0,20.0,,,,,,,,,METAR,414.0
KJER 010553Z AUTO 23006KT 10SM CLR 13/09 A2989 RMK AO2 SLP094 T01330089 10189 20128 51017,KJER,2023-06-01T05:53:00Z,42.72,-114.45,13.3,8.9,230,6,,10.0,29.890747,1009.4,,TRUE,TRUE,,,,,,,CLR,,,,,,,,VFR,1.7,18.9,12.8,,,,,,,,,METAR,1226.0
KJEF 010553Z AUTO 13005KT 10SM CLR 21/17 A2997 RMK AO2 SLP134 T02060172 10294 20200 403000172 51007,KJEF,2023-06-01T05:53:00Z,38.6,-92.15,20.6,17.2,130,5,,10.0,29.970472,1013.4,,TRUE,TRUE,,,,,,,CLR,,,,,,,,VFR,0.7,29.4,20.0,30.0,17.2,,,,,,,METAR,167.0
KJBR 010553Z AUTO 36003KT 10SM CLR 22/18 A2997 RMK AO2 SLP144 T02170178 10289 20217 403170194 51008 $,KJBR,2023-06-01T05:53:00Z,35.83,-90.65,21.7,17.8,360,3,,10.0,29.970472,1014.4,,TRUE,TRUE,TRUE,,,,,,CLR,,,,,,,,VFR,0.8,28.9,21.7,31.7,19.4,,,,,,,METAR,79.0
KIXD 010553Z AUTO 14008KT 10SM CLR 22/18 A2994 RMK AO2 SLP127 T02170183 10272 20217 402890172 53004,KIXD,2023-06-01T05:53:00Z,38.82,-94.88,21.7,18.3,140,8,,10.0,29.940945,1012.7,,TRUE,TRUE,,,,,,,CLR,,,,,,,,VFR,0.4,27.2,21.7,28.9,17.2,,,,,,,METAR,322.0
KIWI 010553Z AUTO 00000KT 9SM CLR 11/10 A3009 RMK AO2 SLP190 T01110100 10178 20111 58007,KIWI,2023-06-01T05:53:00Z,43.97,-69.72,11.1,10.0,0,0,,9.0,30.088583,1019.0,,TRUE,TRUE,,,,,,,CLR,,,,,,,,VFR,-0.7,17.8,11.1,,,,,,,,,METAR,16.0
KITR 010553Z AUTO 15008KT 10SM CLR 16/10 A2989 RMK AO2 SLP071 T01610100 10200 20161 52008,KITR,2023-06-01T05:53:00Z,39.23,-102.28,16.1,10.0,150,8,,10.0,29.890747,1007.1,,TRUE,TRUE,,,,,,,CLR,,,,,,,,VFR,0.8,20.0,16.1,,,,,,,,,METAR,1285.0
KIPL 010553Z AUTO 28009KT 10SM CLR 19/08 A2972 RMK AO2 SLP064 T01940083 10294 20194 51014,KIPL,2023-06-01T05:53:00Z,32.83,-115.58,19.4,8.3,280,9,,10.0,29.719488,1006.4,,TRUE,TRUE,,,,,,,CLR,,,,,,,,VFR,1.4,29.4,19.4,,,,,,,,,METAR,-16.0
KIML 010553Z AUTO 12004KT 10SM CLR 17/16 A2988 RMK AO2 SLP095 T01670156 10244 20167 51015,KIML,2023-06-01T05:53:00Z,40.52,-101.62,16.7,15.6,120,4,,10.0,29.878937,1009.5,,TRUE,TRUE,,,,,,,CLR,,,,,,,,VFR,1.5,24.4,16.7,,,,,,,,,METAR,997.0
KILM 010553Z AUTO 03006KT 10SM OVC060 21/17 A3002 RMK AO2 SLP164 T02110172 10217 20206 56011,KILM,2023-06-01T05:53:00Z,34.27,-77.9,21.1,17.2,30,6,,10.0,30.02067,1016.4,,TRUE,TRUE,,,,,,,OVC,6000,,,,,,,VFR,-1.1,21.7,20.6,,,,,,,,,METAR,9.0
KIDA 010553Z AUTO 09007KT 10SM CLR 16/08 A2988 RMK AO2 SLP083 T01560078 10250 20139 50014,KIDA,2023-06-01T05:53:00Z,43.52,-112.07,15.6,7.8,90,7,,10.0,29.878937,1008.3,,TRUE,TRUE,,,,,,,CLR,,,,,,,,VFR,1.4,25.0,13.9,,,,,,,,,METAR,1444.0
KICT 010553Z 19004KT 10SM SCT080 BKN150 BKN220 19/16 A2989 RMK AO2 SLP108 T01940156 10306 20194 403110183 50010,KICT,2023-06-01T05:53:00Z,37.65,-97.43,19.4,15.6,190,4,,10.0,29.890747,1010.8,,,TRUE,,,,,,,SCT,8000,BKN,15000,BKN,22000,,,VFR,1.0,30.6,19.4,31.1,18.3,,,,,,,METAR,428.0
KICR 010553Z AUTO 17006KT 10SM CLR 19/13 A2984 RMK AO2 SLP089 T01940133 10283 20183 402940156 51007,KICR,2023-06-01T05:53:00Z,43.38,-99.85,19.4,13.3,170,6,,10.0,29.840551,1008.9,,TRUE,TRUE,,,,,,,CLR,,,,,,,,VFR,0.7,28.3,18.3,29.4,15.6,,,,,,,METAR,618.0
KIAH 010553Z 00000KT 10SM SCT250 22/20 A2989 RMK AO2 SLP120 T02220200 10283 20217 403170206 50007,KIAH,2023-06-01T05:53:00Z,30.0,-95.37,22.2,20.0,0,0,,10.0,29.890747,1012.0,,,TRUE,,,,,,,SCT,25000,,,,,,,VFR,0.7,28.3,21.7,31.7,20.6,,,,,,,METAR,27.0
KIAG 010553Z AUTO 05003KT 10SM SCT085 19/12 A3010 RMK AO2 SLP185 T01940122 10289 20183 58002,KIAG,2023-06-01T05:53:00Z,43.12,-78.93,19.4,12.2,50,3,,10.0,30.100393,1018.5,,TRUE,TRUE,,,,,,,SCT,8500,,,,,,,VFR,-0.2,28.9,18.3,,,,,,,,,METAR,179.0
KHZY 010553Z AUTO 00000KT 10SM CLR 14/10 A3012 RMK AO2 SLP193 T01390100 10256 20133 56001 $,KHZY,2023-06-01T05:53:00Z,41.78,-80.7,13.9,10.0,0,0,,10.0,30.121063,1019.3,,TRUE,TRUE,TRUE,,,,,,CLR,,,,,,,,VFR,-0.1,25.6,13.3,,,,,,,,,METAR,279.0
KHYR 010553Z AUTO 03003KT 10SM FEW070 20/14 A2996 RMK AO2 SLP139 60000 T02000144 10289 20189 403220139 53000,KHYR,2023-06-01T05:53:00Z,46.02,-91.45,20.0,14.4,30,3,,10.0,29.958662,1013.9,,TRUE,TRUE,,,,,,,FEW,7000,,,,,,,VFR,0.0,28.9,18.9,32.2,13.9,,,0.005,,,,METAR,369.0
KHWO 010553Z 00000KT 10SM CLR 24/23 A2986 RMK AO2 SLP110 T02390228 10239 20233 58015 $,KHWO,2023-06-01T05:53:00Z,26.0,-80.23,23.9,22.8,0,0,,10.0,29.861221,1011.0,,,TRUE,TRUE,,,,,,CLR,,,,,,,,VFR,-1.5,23.9,23.3,,,,,,,,,METAR,2.0
KHVR 010553Z AUTO 20006KT 10SM -RA CLR 14/11 A2976 RMK AO2 SLP062 P0000 60000 T01440111 10194 20139 51004,KHVR,2023-06-01T05:53:00Z,48.55,-109.77,14.4,11.1,200,6,,10.0,29.760826,1006.2,,TRUE,TRUE,,,,,,-RA,CLR,,,,,,,,VFR,0.4,19.4,13.9,,,0.005,,0.005,,,,METAR,789.0
KHVN 010553Z AUTO 00000KT 6SM BR CLR 13/12 A3015 RMK AO2 SLP208 T01330122 10189 20133 58002,KHVN,2023-06-01T05:53:00Z,41.27,-72.88,13.3,12.2,0,0,,6.0,30.15059,1020.8,,TRUE,TRUE,,,,,,BR,CLR,,,,,,,,VFR,-0.2,18.9,13.3,,,,,,,,,METAR,4.0
KHUL 010553Z AUTO 19003KT 10SM CLR 17/13 A3001 RMK AO2 SLP160 T01670128 10228 20156 58001,KHUL,2023-06-01T05:53:00Z,46.12,-67.8,16.7,12.8,190,3,,10.0,30.008858,1016.0,,TRUE,TRUE,,,,,,,CLR,,,,,,,,VFR,-0.1,22.8,15.6,,,,,,,,,METAR,148.0
KHUF 010553Z 00000KT 10SM CLR 20/18 A3002 RMK AO2 SLP161 60005 T02000178 10250 20194 51004,KHUF,2023-06-01T05:53:00Z,39.45,-87.32,20.0,17.8,0,0,,10.0,30.02067,1016.1,,,TRUE,,,,,,,CLR,,,,,,,,VFR,0.4,25.0,19.4,,,,,0.05,,,,METAR,174.0
KHTL 010553Z AUTO 11004KT 10SM CLR 14/12 A3012 RMK AO2 SLP193 T01440117 10250 20139 51009,KHTL,2023-06-01T05:53:00Z,44.35,-84.67,14.4,11.7,110,4,,10.0,30.121063,1019.3,,TRUE,TRUE,,,,,,,CLR,,,,,,,,VFR,0.9,25.0,13.9,,,,,,,,,METAR,350.0
KHSV 010553Z AUTO 12006KT 10SM CLR 21/18 A3002 RMK AO2 SLP156 T02060178 10261 20206 403000189 50003,KHSV,2023-06-01T05:53:00Z,34.65,-86.78,20.6,17.8,120,6,,10.0,30.02067,1015.6,,TRUE,TRUE,,,,,,,CLR,,,,,,,,VFR,0.3,26.1,20.6,30.0,18.9,,,,,,,METAR,190.0
KHSI 010553Z AUTO 14007KT 10SM CLR 21/15 A2988 RMK AO2 SLP100 T02110150 10294 20211 403060150 53009,KHSI,2023-06-01T05:53:00Z,40.6,-98.43,21.1,15.0,140,7,,10.0,29.878937,1010.0,,TRUE,TRUE,,,,,,,CLR,,,,,,,,VFR,0.9,29.4,21.1,30.6,15.0,,,,,,,METAR,592.0
KHRI 010553Z AUTO 23014G23KT 10SM CLR 14/03 A2994 RMK AO2 PK WND 24030/0500 SLP134 T01390033 10244 20139 53028 $,KHRI,2023-06-01T05:53:00Z,45.83,-119.27,13.9,3.3,230,14,23,10.0,29.940945,1013.4,,TRUE,TRUE,TRUE,,,,,,CLR,,,,,,,,VFR,2.8,24.4,13.9,,,,,,,,,METAR,194.0
KHQM 010553Z AUTO 29007KT 10SM CLR 12/08 A3011 RMK AO2 SLP201 T01170078 10156 20117 50003,KHQM,2023-06-01T05:53:00Z,46.97,-123.93,11.7,7.8,290,7,,10.0,30.109253,1020.1,,TRUE,TRUE,,,,,,,CLR,,,,,,,,VFR,0.3,15.6,11.7,,,,,,,,,METAR,4.0
KHOU 010553Z 15006KT 10SM FEW250 24/21 A2988 RMK AO2 RAB32E42 SLP122 P0000 60000 T02440206 10289 20239 403110233 50003,KHOU,2023-06-01T05:53:00Z,29.63,-95.28,24.4,20.6,150,6,,10.0,29.878937,1012.2,,,TRUE,,,,,,,FEW,25000,,,,,,,VFR,0.3,28.9,23.9,31.1,23.3,0.005,,0.005,,,,METAR,13.0
KHOT 010553Z AUTO 00000KT 10SM CLR 20/17 A2996 RMK AO2 SLP138 T02000167 10294 20200 403170167 51012,KHOT,2023-06-01T05:53:00Z,34.48,-93.1,20.0,16.7,0,0,,10.0,29.958662,1013.8,,TRUE,TRUE,,,,,,,CLR,,,,,,,,VFR,1.2,29.4,20.0,31.7,16.7,,,,,,,METAR,153.0
KHLN 010553Z AUTO 00000KT 10SM BKN080 16/09 A2984 RMK AO2 SLP088 T01610094 10206 20156 53004,KHLN,2023-06-01T05:53:00Z,46.6,-111.98,16.1,9.4,0,0,,10.0,29.840551,1008.8,,TRUE,TRUE,,,,,,,BKN,8000,,,,,,,VFR,0.4,20.6,15.6,,,,,,,,,METAR,1178.0
KHLG 010553Z AUTO 10006KT 10SM CLR 17/04 A3010 RMK AO2 SLP188 T01670039 10261 20161 58005,KHLG,2023-06-01T05:53:00Z,40.17,-80.65,16.7,3.9,100,6,,10.0,30.100393,1018.8,,TRUE,TRUE,,,,,,,CLR,,,,,,,,VFR,-0.5,26.1,16.1,,,,,,,,,METAR,365.0
KHLC 010553Z AUTO 00000KT 10SM CLR 19/16 A2986 RMK AO2 SLP090 T01890161 10294 20189 403110150 51011,KHLC,2023-06-01T05:53:00Z,39.37,-99.83,18.9,16.1,0,0,,10.0,29.861221,1009.0,,TRUE,TRUE,,,,,,,CLR,,,,,,,,VFR,1.1,29.4,18.9,31.1,15.0,,,,,,,METAR,667.0
KHKY 010553Z AUTO 00000KT 10SM CLR 16/14 A3010 RMK AO2 SLP173 T01560144 10222 20156 56010,KHKY,2023-06-01T05:53:00Z,35.75,-81.38,15.6,14.4,0,0,,10.0,30.100393,1017.3,,TRUE,TRUE,,,,,,,CLR,,,,,,,,VFR,-1.0,22.2,15.6,,,,,,,,,METAR,357.0
KHKS 010553Z AUTO 00000KT 10SM CLR 21/18 A2993 RMK AO2 SLP127 T02110178 10272 20200 403110178 58001,KHKS,2023-06-01T05:53:00Z,32.33,-90.22,21.1,17.8,0,0,,10.0,29.929134,1012.7,,TRUE,TRUE,,,,,,,CLR,,,,,,,,VFR,-0.1,27.2,20.0,31.1,17.8,,,,,,,METAR,103.0
KHKA 010553Z AUTO 14005KT 10SM CLR 24/17 A2997 RMK AO2 SLP145 T02390172 10306 20233 403170200 51005 $,KHKA,2023-06-01T05:53:00Z,35.93,-89.83,23.9,17.2,140,5,,10.0,29.970472,1014.5,,TRUE,TRUE,TRUE,,,,,,CLR,,,,,,,,VFR,0.5,30.6,23.3,31.7,20.0,,,,,,,METAR,78.0
KHJO 010553Z AUTO 34003KT 10SM CLR 19/12 A2980 RMK AO2 SLP092 T01940122 10289 20194 52011,KHJO,2023-06-01T05:53:00Z,36.32,-119.62,19.4,12.2,340,3,,10.0,29.799213,1009.2,,TRUE,TRUE,,,,,,,CLR,,,,,,,,VFR,1.1,28.9,19.4,,,,,,,,,METAR,73.0
KHIO 010553Z AUTO 32006KT 10SM CLR 09/04 A3009 RMK AO2 SLP188 T00940044 10178 20094 53010,KHIO,2023-06-01T05:53:00Z,45.55,-122.95,9.4,4.4,320,6,,10.0,30.088583,1018.8,,TRUE,TRUE,,,,,,,CLR,,,,,,,,VFR,1.0,17.8,9.4,,,,,,,,,METAR,62.0
KHHR 010553Z AUTO 00000KT 10SM OVC035 18/12 A2991 RMK AO2 SLP128 T01830117 10189 20178 51003,KHHR,2023-06-01T05:53:00Z,33.92,-118.33,18.3,11.7,0,0,,10.0,29.911417,1012.8,,TRUE,TRUE,,,,,,,OVC,3500,,,,,,,VFR,0.3,18.9,17.8,,,,,,,,,METAR,21.0
KHGR 010553Z AUTO 00000KT 10SM CLR 17/05 A3012 RMK AO2 SLP206 T01670050 10250 20167 58002,KHGR,2023-06-01T05:53:00Z,39.7,-77.73,16.7,5.0,0,0,,10.0,30.121063,1020.6,,TRUE,TRUE,,,,,,,CLR,,,,,,,,VFR,-0.2,25.0,16.7,,,,,,,,,METAR,206.0
KHFD 010553Z AUTO 19004KT 9SM CLR 14/13 A3014 RMK AO2 SLP207 T01440128 10222 20144 58001,KHFD,2023-06-01T05:53:00Z,41.73,-72.65,14.4,12.8,190,4,,9.0,30.138779,1020.7,,TRUE,TRUE,,,,,,,CLR,,,,,,,,VFR,-0.1,22.2,14.4,,,,,,,,,METAR,3.0
KHEI 010553Z AUTO 09008KT 10SM FEW070 FEW085 17/15 A2985 RMK AO2 SLP089 T01670150 10256 20161 53004,KHEI,2023-06-01T05:53:00Z,46.02,-102.65,16.7,15.0,90,8,,10.0,29.84941,1008.9,,TRUE,TRUE,,,,,,,FEW,7000,FEW,8500,,,,,VFR,0.4,25.6,16.1,,,,,,,,,METAR,824.0
KHBR 010553Z AUTO 16012KT 10SM CLR 24/18 A2988 RMK AO2 SLP096 T02390178 10289 20228 403280178 50003,KHBR,2023-06-01T05:53:00Z,34.98,-99.05,23.9,17.8,160,12,,10.0,29.878937,1009.6,,TRUE,TRUE,,,,,,,CLR,,,,,,,,VFR,0.3,28.9,22.8,32.8,17.8,,,,,,,METAR,475.0
KHBG 010553Z AUTO 00000KT 10SM CLR 21/18 A2993 RMK AO2 SLP131 T02060183 10300 20200 403110172 58002,KHBG,2023-06-01T05:53:00Z,31.27,-89.25,20.6,18.3,0,0,,10.0,29.929134,1013.1,,TRUE,TRUE,,,,,,,CLR,,,,,,,,VFR,-0.2,30.0,20.0,31.1,17.2,,,,,,,METAR,45.0
KHAO 010553Z AUTO 00000KT 10SM CLR 18/16 A3007 RMK AO2 SLP177 T01780156 10283 20172 50004,KHAO,2023-06-01T05:53:00Z,39.37,-84.52,17.8,15.6,0,0,,10.0,30.070866,1017.7,,TRUE,TRUE,,,,,,,CLR,,,,,,,,VFR,0.4,28.3,17.2,,,,,,,,,METAR,185.0
KGZH 010553Z AUTO 00000KT 10SM CLR 20/18 A2996 RMK AO2 SLP140 60000 T02000183 10250 20200 403170150 58007,KGZH,2023-06-01T05:53:00Z,31.42,-87.05,20.0,18.3,0,0,,10.0,29.958662,1014.0,,TRUE,TRUE,,,,,,,CLR,,,,,,,,VFR,-0.7,25.0,20.0,31.7,15.0,,,0.005,,,,METAR,77.0
KGWO 010553Z AUTO 10007KT 10SM CLR 23/18 A2993 RMK AO2 SLP134 T02330183 10294 20211 403170183 58000,KGWO,2023-06-01T05:53:00Z,33.5,-90.08,23.3,18.3,100,7,,10.0,29.929134,1013.4,,TRUE,TRUE,,,,,,,CLR,,,,,,,,VFR,0.0,29.4,21.1,31.7,18.3,,,,,,,METAR,42.0
KGVL 010553Z AUTO 09005KT 10SM BKN110 19/16 A3009 RMK AO2 SLP177 T01890161 10222 20189 58007,KGVL,2023-06-01T05:53:00Z,34.27,-83.83,18.9,16.1,90,5,,10.0,30.088583,1017.7,,TRUE,TRUE,,,,,,,BKN,11000,,,,,,,VFR,-0.7,22.2,18.9,,,,,,,,,METAR,387.0
KGUY 010553Z AUTO 25017G29KT 10SM BKN100 BKN120 16/14 A2991 RMK AO2 PK WND 25037/0454 RAE42 SLP090 P0002 60052 T01560139 10194 20156 402610150 50004 $,KGUY,2023-06-01T05:53:00Z,36.68,-101.5,15.6,13.9,250,17,29,10.0,29.911417,1009.0,,TRUE,TRUE,TRUE,,,,,,BKN,10000,BKN,12000,,,,,VFR,0.4,19.4,15.6,26.1,15.0,0.02,,0.52,,,,METAR,950.0
KGUP 010553Z AUTO 00000KT 10SM CLR 10/M07 A2998 RMK AO2 SLP021 T01001072 10250 20094 51018,KGUP,2023-06-01T05:53:00Z,35.52,-108.8,10.0,-7.2,0,0,,10.0,29.97933,1002.1,,TRUE,TRUE,,,,,,,CLR,,,,,,,,VFR,1.8,25.0,9.4,,,,,,,,,METAR,1972.0
KGTF 010553Z 19007KT 10SM CLR 12/09 A2980 RMK AO2 SLP071 T01170094 10206 20117 58000,KGTF,2023-06-01T05:53:00Z,47.47,-111.38,11.7,9.4,190,7,,10.0,29.799213,1007.1,,,TRUE,,,,,,,CLR,,,,,,,,VFR,0.0,20.6,11.7,,,,,,,,,METAR,1117.0
KGSP 010553Z AUTO 01003KT 10SM FEW034 16/15 A3008 RMK AO2 SLP179 T01610150 10222 20161 58007,KGSP,2023-06-01T05:53:00Z,34.9,-82.22,16.1,15.0,10,3,,10.0,30.079725,1017.9,,TRUE,TRUE,,,,,,,FEW,3400,,,,,,,VFR,-0.7,22.2,16.1,,,,,,,,,METAR,285.0
KGSH 010553Z AUTO 00000KT 10SM CLR 21/15 A3004 RMK AO2 SLP167 T02110150 10306 20194 51003,KGSH,2023-06-01T05:53:00Z,41.53,-85.78,21.1,15.0,0,0,,10.0,30.041338,1016.7,,TRUE,TRUE,,,,,,,CLR,,,,,,,,VFR,0.3,30.6,19.4,,,,,,,,,METAR,252.0
KGRR 010553Z AUTO 12006KT 10SM CLR 21/12 A3005 RMK AO2 SLP171 T02110122 10300 20211 50004,KGRR,2023-06-01T05:53:00Z,42.88,-85.52,21.1,12.2,120,6,,10.0,30.050198,1017.1,,TRUE,TRUE,,,,,,,CLR,,,,,,,,VFR,0.4,30.0,21.1,,,,,,,,,METAR,239.0
KGRI 010553Z AUTO 15008KT 10SM CLR 22/15 A2987 RMK AO2 SLP103 T02170150 10294 20217 403110144 53009,KGRI,2023-06-01T05:53:00Z,40.97,-98.32,21.7,15.0,150,8,,10.0,29.870079,1010.3,,TRUE,TRUE,,,,,,,CLR,,,,,,,,VFR,0.9,29.4,21.7,31.1,14.4,,,,,,,METAR,562.0
KGRB 010553Z AUTO 14004KT 10SM CLR 18/15 A3002 RMK AO2 SLP164 T01780150 10261 20172 403170144 50008,KGRB,2023-06-01T05:53:00Z,44.48,-88.13,17.8,15.0,140,4,,10.0,30.02067,1016.4,,TRUE,TRUE,,,,,,,CLR,,,,,,,,VFR,0.8,26.1,17.2,31.7,14.4,,,,,,,METAR,209.0
KGPT 010553Z AUTO 00000KT 10SM CLR 23/21 A2989 RMK AO2 SLP121 T02330206 10289 20233 403110200 58005,KGPT,2023-06-01T05:53:00Z,30.42,-89.08,23.3,20.6,0,0,,10.0,29.890747,1012.1,,TRUE,TRUE,,,,,,,CLR,,,,,,,,VFR,-0.5,28.9,23.3,31.1,20.0,,,,,,,METAR,5.0
KGOK 010553Z AUTO 15006KT 9SM CLR 22/18 A2988 RMK AO2 SLP107 60000 T02170178 10267 20211 403060183 50003 $,KGOK,2023-06-01T05:53:00Z,35.85,-97.4,21.7,17.8,150,6,,9.0,29.878937,1010.7,,TRUE,TRUE,TRUE,,,,,,CLR,,,,,,,,VFR,0.3,26.7,21.1,30.6,18.3,,,0.005,,,,METAR,326.0
KGNV 010553Z AUTO 05008KT 10SM CLR 23/21 A2994 RMK AO2 SLP135 T02280211 10261 20228 58015 $,KGNV,2023-06-01T05:53:00Z,29.7,-82.28,22.8,21.1,50,8,,10.0,29.940945,1013.5,,TRUE,TRUE,TRUE,,,,,,CLR,,,,,,,,VFR,-1.5,26.1,22.8,,,,,,,,,METAR,41.0
KGMU 010553Z AUTO 02008KT 10SM CLR 18/16 A3008 RMK AO2 SLP180 T01780161 10222 20178 58009,KGMU,2023-06-01T05:53:00Z,34.85,-82.35,17.8,16.1,20,8,,10.0,30.079725,1018.0,,TRUE,TRUE,,,,,,,CLR,,,,,,,,VFR,-0.9,22.2,17.8,,,,,,,,,METAR,309.0
KGLR 010553Z AUTO 15005KT 10SM CLR 19/11 A3011 RMK AO2 SLP189 T01940111 10228 20194 52006,KGLR,2023-06-01T05:53:00Z,45.02,-84.68,19.4,11.1,150,5,,10.0,30.109253,1018.9,,TRUE,TRUE,,,,,,,CLR,,,,,,,,VFR,0.6,22.8,19.4,,,,,,,,,METAR,403.0
KGLH 010553Z 09004KT 10SM CLR 22/17 A2992 RMK AO2 SLP138 T02220172 10294 20217 403170161 51002,KGLH,2023-06-01T05:53:00Z,33.47,-90.98,22.2,17.2,90,4,,10.0,29.920275,1013.8,,,TRUE,,,,,,,CLR,,,,,,,,VFR,0.2,29.4,21.7,31.7,16.1,,,,,,,METAR,40.0
KGLD 010553Z AUTO 12005KT 10SM SCT120 16/13 A2988 RMK AO2 SLP085 60000 T01560128 10228 20156 51014,KGLD,2023-06-01T05:53:00Z,39.37,-101.7,15.6,12.8,120,5,,10.0,29.878937,1008.5,,TRUE,TRUE,,,,,,,SCT,12000,,,,,,,VFR,1.4,22.8,15.6,,,,,0.005,,,,METAR,1111.0
KGKY 010553Z AUTO 14003KT 10SM CLR 23/19 A2987 RMK AO2 SLP105 T02280189 10306 20217 403220172 50001,KGKY,2023-06-01T05:53:00Z,32.67,-97.1,22.8,18.9,140,3,,10.0,29.870079,1010.5,,TRUE,TRUE,,,,,,,CLR,,,,,,,,VFR,0.1,30.6,21.7,32.2,17.2,,,,,,,METAR,189.0
KGKJ 010553Z AUTO 00000KT 10SM CLR 18/07 A3014 RMK AO2 SLP195 T01830072 10256 20183 53002,KGKJ,2023-06-01T05:53:00Z,41.63,-80.22,18.3,7.2,0,0,,10.0,30.138779,1019.5,,TRUE,TRUE,,,,,,,CLR,,,,,,,,VFR,0.2,25.6,18.3,,,,,,,,,METAR,428.0
KGJT 010553Z AUTO 13015KT 10SM CLR 19/03 A2981 RMK AO2 SLP027 T01940033 10256 20194 51009,KGJT,2023-06-01T05:53:00Z,39.13,-108.53,19.4,3.3,130,15,,10.0,29.811024,1002.7,,TRUE,TRUE,,,,,,,CLR,,,,,,,,VFR,0.9,25.6,19.4,,,,,,,,,METAR,1475.0
KGGW 010553Z AUTO 10014KT 10SM CLR 21/14 A2975 RMK AO2 LTG DSNT W SLP060 T02060144 10283 20206 52005 $,KGGW,2023-06-01T05:53:00Z,48.22,-106.62,20.6,14.4,100,14,,10.0,29.749016,1006.0,,TRUE,TRUE,TRUE,,,,,,CLR,,,,,,,,VFR,0.5,28.3,20.6,,,,,,,,,METAR,698.0
KGGG 010553Z AUTO 08005KT 10SM CLR 21/18 A2989 RMK AO2 SLP116 T02110183 10294 20206 403170200 50001,KGGG,2023-06-01T05:53:00Z,32.38,-94.72,21.1,18.3,80,5,,10.0,29.890747,1011.6,,TRUE,TRUE,,,,,,,CLR,,,,,,,,VFR,0.1,29.4,20.6,31.7,20.0,,,,,,,METAR,107.0
KGFL 010553Z AUTO 00000KT 10SM CLR 13/11 A3011 RMK AO2 SLP196 T01330111 10228 20128 51007,KGFL,2023-06-01T05:53:00Z,43.33,-73.62,13.3,11.1,0,0,,10.0,30.109253,1019.6,,TRUE,TRUE,,,,,,,CLR,,,,,,,,VFR,0.7,22.8,12.8,,,,,,,,,METAR,99.0
KGFK 010553Z 07005KT 10SM FEW090 SCT120 20/16 A2983 RMK AO2 SLP098 60000 T02000156 10306 20200 403170122 50012,KGFK,2023-06-01T05:53:00Z,47.95,-97.18,20.0,15.6,70,5,,10.0,29.828741,1009.8,,,TRUE,,,,,,,FEW,9000,SCT,12000,,,,,VFR,1.2,30.6,20.0,31.7,12.2,,,0.005,,,,METAR,256.0
KGEZ 010553Z AUTO 09003KT 10SM CLR 19/16 A3004 RMK AO2 SLP167 T01890156 10233 20189 50004,KGEZ,2023-06-01T05:53:00Z,39.58,-85.8,18.9,15.6,90,3,,10.0,30.041338,1016.7,,TRUE,TRUE,,,,,,,CLR,,,,,,,,VFR,0.4,23.3,18.9,,,,,,,,,METAR,245.0
KGEY 010553Z AUTO 25004KT 10SM CLR 15/05 A2978 RMK AO2 SLP052 T01500050 10256 20150 53008,KGEY,2023-06-01T05:53:00Z,44.52,-108.08,15.0,5.0,250,4,,10.0,29.778543,1005.2,,TRUE,TRUE,,,,,,,CLR,,,,,,,,VFR,0.8,25.6,15.0,,,,,,,,,METAR,1191.0
KGEG 010553Z 22008KT 10SM FEW200 16/01 A2987 RMK AO2 SLP105 T01560011 10222 20144 52013,KGEG,2023-06-01T05:53:00Z,47.62,-117.53,15.6,1.1,220,8,,10.0,29.870079,1010.5,,,TRUE,,,,,,,FEW,20000,,,,,,,VFR,1.3,22.2,14.4,,,,,,,,,METAR,718.0
KGCC 010553Z AUTO 16018G26KT 10SM CLR 17/09 A2985 RMK AO2 PK WND 15029/0514 SLP062 T01670089 10228 20161 51011,KGCC,2023-06-01T05:53:00Z,44.33,-105.55,16.7,8.9,160,18,26,10.0,29.84941,1006.2,,TRUE,TRUE,,,,,,,CLR,,,,,,,,VFR,1.1,22.8,16.1,,,,,,,,,METAR,1328.0
KFYV 010553Z AUTO 00000KT 9SM OVC110 20/16 A2997 RMK AO2 SLP135 T02000161 10283 20194 403000161 50004,KFYV,2023-06-01T05:53:00Z,36.02,-94.17,20.0,16.1,0,0,,9.0,29.970472,1013.5,,TRUE,TRUE,,,,,,,OVC,11000,,,,,,,VFR,0.4,28.3,19.4,30.0,16.1,,,,,,,METAR,377.0
KFXE 010553Z AUTO 00000KT 10SM CLR 24/24 A2984 RMK AO2 SLP106 6//// T02390239 10239 20233,KFXE,2023-06-01T05:53:00Z,26.2,-80.18,23.9,23.9,0,0,,10.0,29.840551,1010.6,,TRUE,TRUE,,,,,,,CLR,,,,,,,,VFR,,23.9,23.3,,,,,,,,,METAR,3.0
KFWN 010553Z AUTO 00000KT 10SM CLR 08/07 A3017 RMK AO2 SLP214 T00830067 10206 20083 52004,KFWN,2023-06-01T05:53:00Z,41.2,-74.63,8.3,6.7,0,0,,10.0,30.171259,1021.4,,TRUE,TRUE,,,,,,,CLR,,,,,,,,VFR,0.4,20.6,8.3,,,,,,,,,METAR,129.0
KFVE 010553Z AUTO 28006KT 10SM CLR 21/11 A3000 RMK AO2 SLP151 T02060106 10283 20206 58001,KFVE,2023-06-01T05:53:00Z,47.28,-68.3,20.6,10.6,280,6,,10.0,30.0,1015.1,,TRUE,TRUE,,,,,,,CLR,,,,,,,,VFR,-0.1,28.3,20.6,,,,,,,,,METAR,299.0
KFUL 010553Z AUTO 00000KT 10SM OVC041 17/12 A2991 RMK AO2 SLP127 T01670122 10172 20167 52006,KFUL,2023-06-01T05:53:00Z,33.87,-117.98,16.7,12.2,0,0,,10.0,29.911417,1012.7,,TRUE,TRUE,,,,,,,OVC,4100,,,,,,,VFR,0.6,17.2,16.7,,,,,,,,,METAR,23.0
KFTY 010553Z 03003KT 10SM CLR 18/17 A3005 RMK AO2 SLP167 T01780167 10239 20178 58007,KFTY,2023-06-01T05:53:00Z,33.78,-84.52,17.8,16.7,30,3,,10.0,30.050198,1016.7,,,TRUE,,,,,,,CLR,,,,,,,,VFR,-0.7,23.9,17.8,,,,,,,,,METAR,245.0
KFTW 010553Z 13006KT 10SM CLR 24/18 A2986 RMK AO2 SLP102 T02440183 10300 20244 403220194 58001,KFTW,2023-06-01T05:53:00Z,32.83,-97.37,24.4,18.3,130,6,,10.0,29.861221,1010.2,,,TRUE,,,,,,,CLR,,,,,,,,VFR,-0.1,30.0,24.4,32.2,19.4,,,,,,,METAR,213.0
KFST 010553Z AUTO 14024G43KT 10SM CLR 23/16 A2973 RMK AO2 PK WND 16045/0543 SLP015 T02280156 10289 20228 403170200 58008,KFST,2023-06-01T05:53:00Z,30.92,-102.92,22.8,15.6,140,24,43,10.0,29.731298,1001.5,,TRUE,TRUE,,,,,,,CLR,,,,,,,,VFR,-0.8,28.9,22.8,31.7,20.0,,,,,,,METAR,917.0
KFSM 010553Z AUTO 07003KT 10SM CLR 23/17 A2993 RMK AO2 SLP130 T02280167 10300 20228 403170189 50006,KFSM,2023-06-01T05:53:00Z,35.33,-94.37,22.8,16.7,70,3,,10.0,29.929134,1013.0,,TRUE,TRUE,,,,,,,CLR,,,,,,,,VFR,0.6,30.0,22.8,31.7,18.9,,,,,,,METAR,136.0
KFRG 010553Z AUTO 02003KT 10SM CLR 14/12 A3015 RMK AO2 SLP208 T01390117 10183 20139 58000 $,KFRG,2023-06-01T05:53:00Z,40.73,-73.42,13.9,11.7,20,3,,10.0,30.15059,1020.8,,TRUE,TRUE,TRUE,,,,,,CLR,,,,,,,,VFR,0.0,18.3,13.9,,,,,,,,,METAR,23.0
KFPR 010553Z AUTO 06003KT 10SM FEW019 SCT030 24/23 A2985 RMK AO2 SLP108 60007 T02440228 10250 20233 56022,KFPR,2023-06-01T05:53:00Z,27.5,-80.38,24.4,22.8,60,3,,10.0,29.84941,1010.8,,TRUE,TRUE,,,,,,,FEW,1900,SCT,3000,,,,,VFR,-2.2,25.0,23.3,,,,,0.07,,,,METAR,7.0
KFOK 010553Z AUTO 00000KT 10SM CLR 07/07 A3016 RMK AO2 SLP211 T00720067 10167 20072 58002,KFOK,2023-06-01T05:53:00Z,40.85,-72.62,7.2,6.7,0,0,,10.0,30.159449,1021.1,,TRUE,TRUE,,,,,,,CLR,,,,,,,,VFR,-0.2,16.7,7.2,,,,,,,,,METAR,13.0
KFOE 010553Z AUTO 14006KT 10SM CLR 22/20 A2990 RMK AO2 LTG DSNT NW RAB07E22 SLP116 P0001 60001 T02170200 10272 20211 402940172 53005 $,KFOE,2023-06-01T05:53:00Z,38.93,-95.65,21.7,20.0,140,6,,10.0,29.899607,1011.6,,TRUE,TRUE,TRUE,,,,,,CLR,,,,,,,,VFR,0.5,27.2,21.1,29.4,17.2,0.01,,0.01,,,,METAR,315.0
KFNT 010553Z AUTO 17003KT 10SM CLR 16/12 A3009 RMK AO2 SLP185 T01610117 10267 20161 50001,KFNT,2023-06-01T05:53:00Z,42.97,-83.75,16.1,11.7,170,3,,10.0,30.088583,1018.5,,TRUE,TRUE,,,,,,,CLR,,,,,,,,VFR,0.1,26.7,16.1,,,,,,,,,METAR,235.0
KFNB 010553Z AUTO 13004KT 10SM SCT060 20/17 A2989 RMK AO2 SLP114 T02000172 10261 20194 402720167 53004,KFNB,2023-06-01T05:53:00Z,40.07,-95.58,20.0,17.2,130,4,,10.0,29.890747,1011.4,,TRUE,TRUE,,,,,,,SCT,6000,,,,,,,VFR,0.4,26.1,19.4,27.2,16.7,,,,,,,METAR,301.0
KFMY 010553Z AUTO 08003KT 10SM CLR 22/21 A2984 RMK AO2 SLP107 60070 T02220211 10228 20217 58011,KFMY,2023-06-01T05:53:00Z,26.58,-81.87,22.2,21.1,80,3,,10.0,29.840551,1010.7,,TRUE,TRUE,,,,,,,CLR,,,,,,,,VFR,-1.1,22.8,21.7,,,,,0.7,,,,METAR,4.0
KFMN 010553Z AUTO 08017G24KT 10SM CLR 16/04 A2989 RMK AO2 SLP066 60000 T01560044 10272 20156 50005,KFMN,2023-06-01T05:53:00Z,36.75,-108.23,15.6,4.4,80,17,24,10.0,29.890747,1006.6,,TRUE,TRUE,,,,,,,CLR,,,,,,,,VFR,0.5,27.2,15.6,,,,,0.005,,,,METAR,1677.0
KFLO 010553Z AUTO 05004KT 10SM CLR 18/17 A3004 RMK AO2 SLP168 T01830167 10250 20183 58012,KFLO,2023-06-01T05:53:00Z,34.18,-79.73,18.3,16.7,50,4,,10.0,30.041338,1016.8,,TRUE,TRUE,,,,,,,CLR,,,,,,,,VFR,-1.2,25.0,18.3,,,,,,,,,METAR,43.0
KFLL 010553Z 11003KT 10SM FEW025 BKN065 BKN250 25/24 A2983 RMK AO2 SLP101 T02500239 10256 20233 58015 $,KFLL,2023-06-01T05:53:00Z,26.07,-80.15,25.0,23.9,110,3,,10.0,29.828741,1010.1,,,TRUE,TRUE,,,,,,FEW,2500,BKN,6500,BKN,25000,,,VFR,-1.5,25.6,23.3,,,,,,,,,METAR,1.0
KFLD 010553Z AUTO 00000KT 6SM BR CLR 18/17 A3001 RMK AO2 SLP159 T01830167 10250 20172 403220172 53006,KFLD,2023-06-01T05:53:00Z,43.77,-88.48,18.3,16.7,0,0,,6.0,30.008858,1015.9,,TRUE,TRUE,,,,,,BR,CLR,,,,,,,,VFR,0.6,25.0,17.2,32.2,17.2,,,,,,,METAR,242.0
KFHR 010553Z AUTO 25005KT 10SM CLR 11/07 A3007 RMK AO2 SLP182 T01110067 10189 20111 51008,KFHR,2023-06-01T05:53:00Z,48.52,-123.03,11.1,6.7,250,5,,10.0,30.070866,1018.2,,TRUE,TRUE,,,,,,,CLR,,,,,,,,VFR,0.8,18.9,11.1,,,,,,,,,METAR,34.0
KFFT 010553Z AUTO 00000KT 10SM CLR 19/16 A3003 RMK AO2 SLP162 T01890156 58002 $,KFFT,2023-06-01T05:53:00Z,38.18,-84.9,18.9,15.6,0,0,,10.0,30.029528,1016.2,,TRUE,TRUE,TRUE,,,,,,CLR,,,,,,,,VFR,-0.2,,,,,,,,,,,METAR,235.0
KFFC 010553Z AUTO 00000KT 9SM CLR 17/16 A3005 RMK AO2 SLP171 T01720161 10239 20172 58005,KFFC,2023-06-01T05:53:00Z,33.35,-84.57,17.2,16.1,0,0,,9.0,30.050198,1017.1,,TRUE,TRUE,,,,,,,CLR,,,,,,,,VFR,-0.5,23.9,17.2,,,,,,,,,METAR,242.0
KFDY 010553Z AUTO 13004KT 10SM CLR 20/13 A3007 RMK AO2 SLP171 T02000128 10289 20200 50003,KFDY,2023-06-01T05:53:00Z,41.02,-83.67,20.0,12.8,130,4,,10.0,30.070866,1017.1,,TRUE,TRUE,,,,,,,CLR,,,,,,,,VFR,0.3,28.9,20.0,,,,,,,,,METAR,247.0
KFDR 010553Z AUTO 10008KT 10SM CLR 22/18 A2983 RMK AO2 SLP084 T02170183 10311 20217 403330194 50002,KFDR,2023-06-01T05:53:00Z,34.35,-98.98,21.7,18.3,100,8,,10.0,29.828741,1008.4,,TRUE,TRUE,,,,,,,CLR,,,,,,,,VFR,0.2,31.1,21.7,33.3,19.4,,,,,,,METAR,378.0
KFCM 010553Z AUTO 16006KT 10SM CLR 22/15 A2990 RMK AO2 SLP119 T02170150 10300 20206 403170183 53009,KFCM,2023-06-01T05:53:00Z,44.83,-93.47,21.7,15.0,160,6,,10.0,29.899607,1011.9,,TRUE,TRUE,,,,,,,CLR,,,,,,,,VFR,0.9,30.0,20.6,31.7,18.3,,,,,,,METAR,276.0
KFAY 010553Z 00000KT 10SM CLR 19/17 A3004 RMK AO2 SLP164 T01890172 10233 20189 58015,KFAY,2023-06-01T05:53:00Z,34.98,-78.88,18.9,17.2,0,0,,10.0,30.041338,1016.4,,,TRUE,,,,,,,CLR,,,,,,,,VFR,-1.5,23.3,18.9,,,,,,,,,METAR,57.0
KFAT 010553Z 30010KT 10SM SCT200 22/11 A2980 RMK AO2 SLP089 T02220111 10283 20222 51014,KFAT,2023-06-01T05:53:00Z,36.78,-119.72,22.2,11.1,300,10,,10.0,29.799213,1008.9,,,TRUE,,,,,,,SCT,20000,,,,,,,VFR,1.4,28.3,22.2,,,,,,,,,METAR,102.0
KFAR 010553Z 10005KT 10SM BKN110 21/17 A2983 RMK AO2 SLP097 60001 T02060167 10244 20200 403390150 51005,KFAR,2023-06-01T05:53:00Z,46.9,-96.82,20.6,16.7,100,5,,10.0,29.828741,1009.7,,,TRUE,,,,,,,BKN,11000,,,,,,,VFR,0.5,24.4,20.0,33.9,15.0,,,0.01,,,,METAR,276.0
KEYE 010553Z AUTO 00000KT 10SM CLR 19/17 A3003 RMK AO2 SLP163 T01890172 10250 20189 50002,KEYE,2023-06-01T05:53:00Z,39.83,-86.3,18.9,17.2,0,0,,10.0,30.029528,1016.3,,TRUE,TRUE,,,,,,,CLR,,,,,,,,VFR,0.2,25.0,18.9,,,,,,,,,METAR,248.0
KEWB 010553Z AUTO 00000KT 10SM CLR 09/09 A3013 RMK AO2 SLP204 T00890089 10161 20089 58004,KEWB,2023-06-01T05:53:00Z,41.68,-70.95,8.9,8.9,0,0,,10.0,30.129921,1020.4,,TRUE,TRUE,,,,,,,CLR,,,,,,,,VFR,-0.4,16.1,8.9,,,,,,,,,METAR,22.0
KEVW 010553Z AUTO 02004KT 10SM FEW055 SCT070 BKN100 13/01 A2995 RMK AO2 SLP052 T01280011 10183 20111 51006,KEVW,2023-06-01T05:53:00Z,41.27,-111.03,12.8,1.1,20,4,,10.0,29.949802,1005.2,,TRUE,TRUE,,,,,,,FEW,5500,SCT,7000,BKN,10000,,,VFR,0.6,18.3,11.1,,,,,,,,,METAR,2178.0
KESF 010553Z AUTO 00000KT 9SM CLR 19/18 A2990 RMK AO2 SLP121 T01890178 10306 20189 403390150 51007,KESF,2023-06-01T05:53:00Z,31.4,-92.28,18.9,17.8,0,0,,9.0,29.899607,1012.1,,TRUE,TRUE,,,,,,,CLR,,,,,,,,VFR,0.7,30.6,18.9,33.9,15.0,,,,,,,METAR,27.0
KEQY 010553Z AUTO 00000KT 10SM CLR 18/17 A3006 RMK AO2 SLP181 T01780167 10211 20178 58009,KEQY,2023-06-01T05:53:00Z,35.02,-80.62,17.8,16.7,0,0,,10.0,30.059055,1018.1,,TRUE,TRUE,,,,,,,CLR,,,,,,,,VFR,-0.9,21.1,17.8,,,,,,,,,METAR,205.0
KEPH 010553Z AUTO 30017G26KT 10SM CLR 14/01 A2984 RMK AO2 PK WND 30030/0505 SLP099 T01440006 10250 20144 51018,KEPH,2023-06-01T05:53:00Z,47.3,-119.52,14.4,0.6,300,17,26,10.0,29.840551,1009.9,,TRUE,TRUE,,,,,,,CLR,,,,,,,,VFR,1.8,25.0,14.4,,,,,,,,,METAR,382.0
KENW 010553Z AUTO 00000KT 10SM CLR 19/14 A3001 RMK AO2 SLP158 T01890144 10261 20183 403170150 52001,KENW,2023-06-01T05:53:00Z,42.6,-87.93,18.9,14.4,0,0,,10.0,30.008858,1015.8,,TRUE,TRUE,,,,,,,CLR,,,,,,,,VFR,0.1,26.1,18.3,31.7,15.0,,,,,,,METAR,222.0
KEMP 010553Z AUTO 17004KT 10SM CLR 21/18 A2990 RMK AO2 SLP117 T02060178 10283 20200 402830183 53008,KEMP,2023-06-01T05:53:00Z,38.33,-96.2,20.6,17.8,170,4,,10.0,29.899607,1011.7,,TRUE,TRUE,,,,,,,CLR,,,,,,,,VFR,0.8,28.3,20.0,28.3,18.3,,,,,,,METAR,366.0
KELY 010553Z AUTO VRB03KT 10SM CLR 09/01 A2991 RMK AO2 SLP053 T00940011 10200 20094 50007,KELY,2023-06-01T05:53:00Z,39.3,-114.85,9.4,1.1,0,3,,10.0,29.911417,1005.3,,TRUE,TRUE,,,,,,,CLR,,,,,,,,VFR,0.7,20.0,9.4,,,,,,,,,METAR,1906.0
KELN 010553Z AUTO 30015G30KT 10SM CLR 12/02 A2993 RMK AO2 PK WND 30033/0458 SLP132 T01170022 10172 20117 51009,KELN,2023-06-01T05:53:00Z,47.03,-120.53,11.7,2.2,300,15,30,10.0,29.929134,1013.2,,TRUE,TRUE,,,,,,,CLR,,,,,,,,VFR,0.9,17.2,11.7,,,,,,,,,METAR,532.0
KELM 010553Z AUTO 00000KT 10SM CLR 14/11 A3014 RMK AO2 SLP199 T01390106 10278 20122 50007,KELM,2023-06-01T05:53:00Z,42.15,-76.9,13.9,10.6,0,0,,10.0,30.138779,1019.9,,TRUE,TRUE,,,,,,,CLR,,,,,,,,VFR,0.7,27.8,12.2,,,,,,,,,METAR,287.0
KELD 010553Z AUTO 00000KT 10SM CLR 19/18 A2993 RMK AO2 SLP132 T01890178 10289 20183 403110156 51010,KELD,2023-06-01T05:53:00Z,33.22,-92.82,18.9,17.8,0,0,,10.0,29.929134,1013.2,,TRUE,TRUE,,,,,,,CLR,,,,,,,,VFR,1.0,28.9,18.3,31.1,15.6,,,,,,,METAR,76.0
KEET 010553Z AUTO 08004KT 10SM CLR 21/18 A3000 RMK AO2 SLP152 T02060183 10267 20206 402940183 50001 $,KEET,2023-06-01T05:53:00Z,33.18,-86.78,20.6,18.3,80,4,,10.0,30.0,1015.2,,TRUE,TRUE,TRUE,,,,,,CLR,,,,,,,,VFR,0.1,26.7,20.6,29.4,18.3,,,,,,,METAR,172.0
KEEO 010553Z AUTO 00000KT 10SM CLR 11/03 A2991 RMK AO2 SLP048 T01110033 10200 20111 50003,KEEO,2023-06-01T05:53:00Z,40.05,-107.88,11.1,3.3,0,0,,10.0,29.911417,1004.8,,TRUE,TRUE,,,,,,,CLR,,,,,,,,VFR,0.3,20.0,11.1,,,,,,,,,METAR,1957.0
KECP 010553Z AUTO 04008KT 10SM -RA CLR 22/19 A2991 RMK AO1 RAB23 SLP140 P0000 60000 T02220194 10233 20222 58009,KECP,2023-06-01T05:53:00Z,30.35,-85.8,22.2,19.4,40,8,,10.0,29.911417,1014.0,,TRUE,TRUE,,,,,,-RA,CLR,,,,,,,,VFR,-0.9,23.3,22.2,,,0.005,,0.005,,,,METAR,17.0
KDXR 010553Z AUTO 00000KT 10SM CLR 11/09 A3016 RMK AO2 SLP213 T01060089 10217 20106 50001 $,KDXR,2023-06-01T05:53:00Z,41.37,-73.48,10.6,8.9,0,0,,10.0,30.159449,1021.3,,TRUE,TRUE,TRUE,,,,,,CLR,,,,,,,,VFR,0.1,21.7,10.6,,,,,,,,,METAR,138.0
KDWH 010553Z AUTO 00000KT 10SM CLR 22/20 A2989 RMK AO2 SLP118 T02170200 10283 20217 403280194 50005,KDWH,2023-06-01T05:53:00Z,30.07,-95.55,21.7,20.0,0,0,,10.0,29.890747,1011.8,,TRUE,TRUE,,,,,,,CLR,,,,,,,,VFR,0.5,28.3,21.7,32.8,19.4,,,,,,,METAR,46.0
KDVT 010553Z 23004KT 10SM CLR 24/01 A2975 RMK AO2 SLP052 T02390011 10300 20233 51013,KDVT,2023-06-01T05:53:00Z,33.68,-112.07,23.9,1.1,230,4,,10.0,29.749016,1005.2,,,TRUE,,,,,,,CLR,,,,,,,,VFR,1.3,30.0,23.3,,,,,,,,,METAR,454.0
KDUJ 010553Z AUTO 09003KT 10SM CLR 16/07 A3015 RMK AO2 SLP198 T01560067 10256 20156 50001,KDUJ,2023-06-01T05:53:00Z,41.17,-78.9,15.6,6.7,90,3,,10.0,30.15059,1019.8,,TRUE,TRUE,,,,,,,CLR,,,,,,,,VFR,0.1,25.6,15.6,,,,,,,,,METAR,552.0
KDTW 010553Z 00000KT 9SM CLR 20/09 A3009 RMK AO2 SLP186 T02000089 10272 20194 53001,KDTW,2023-06-01T05:53:00Z,42.23,-83.33,20.0,8.9,0,0,,9.0,30.088583,1018.6,,,TRUE,,,,,,,CLR,,,,,,,,VFR,0.1,27.2,19.4,,,,,,,,,METAR,192.0
KDTS 010553Z AUTO 08009KT 10SM BKN090 OVC110 23/19 A2991 RMK AO2 SLP129 60000 T02330194 10256 20228 403110211 58008,KDTS,2023-06-01T05:53:00Z,30.4,-86.47,23.3,19.4,80,9,,10.0,29.911417,1012.9,,TRUE,TRUE,,,,,,,BKN,9000,OVC,11000,,,,,VFR,-0.8,25.6,22.8,31.1,21.1,,,0.005,,,,METAR,5.0
KDTO 010553Z AUTO 13005KT 10SM CLR 25/18 A2987 RMK AO2 SLP105 T02500183 10311 20228 403280167 58002,KDTO,2023-06-01T05:53:00Z,33.2,-97.2,25.0,18.3,130,5,,10.0,29.870079,1010.5,,TRUE,TRUE,,,,,,,CLR,,,,,,,,VFR,-0.2,31.1,22.8,32.8,16.7,,,,,,,METAR,199.0
KDTN 010553Z 00000KT 10SM CLR 21/18 A2991 RMK AO2 SLP126 T02110178 10300 20211 403170194 50007,KDTN,2023-06-01T05:53:00Z,32.55,-93.75,21.1,17.8,0,0,,10.0,29.911417,1012.6,,,TRUE,,,,,,,CLR,,,,,,,,VFR,0.7,30.0,21.1,31.7,19.4,,,,,,,METAR,53.0
KDRT 010553Z AUTO 12014G22KT 10SM CLR 26/19 A2979 RMK AO2 SLP077 T02610194 10322 20261 403280222 58001,KDRT,2023-06-01T05:53:00Z,29.37,-100.92,26.1,19.4,120,14,22,10.0,29.790354,1007.7,,TRUE,TRUE,,,,,,,CLR,,,,,,,,VFR,-0.1,32.2,26.1,32.8,22.2,,,,,,,METAR,303.0
KDRO 010553Z AUTO 01006KT 10SM CLR 10/07 A2999 RMK AO2 SLP081 60006 T01000072 10167 20094 50006,KDRO,2023-06-01T05:53:00Z,37.15,-107.77,10.0,7.2,10,6,,10.0,29.991142,1008.1,,TRUE,TRUE,,,,,,,CLR,,,,,,,,VFR,0.6,16.7,9.4,,,,,0.06,,,,METAR,2021.0
KDRA 010553Z AUTO 34006KT 10SM CLR 21/M02 A2974 RMK AO2 SLP028 T02061017 10289 20200 53009,KDRA,2023-06-01T05:53:00Z,36.62,-116.03,20.6,-1.7,340,6,,10.0,29.740158,1002.8,,TRUE,TRUE,,,,,,,CLR,,,,,,,,VFR,0.9,28.9,20.0,,,,,,,,,METAR,988.0
KDNL 010553Z AUTO 04005KT 10SM CLR 21/17 A3003 RMK AO2 SLP165 T02060172 10239 20200 57014,KDNL,2023-06-01T05:53:00Z,33.47,-82.03,20.6,17.2,40,5,,10.0,30.029528,1016.5,,TRUE,TRUE,,,,,,,CLR,,,,,,,,VFR,-1.4,23.9,20.0,,,,,,,,,METAR,126.0
KDMO 010553Z AUTO 15005KT 10SM CLR 19/17 A2997 RMK AO2 SLP143 T01940167 10267 20194 402830183 52008,KDMO,2023-06-01T05:53:00Z,38.72,-93.17,19.4,16.7,150,5,,10.0,29.970472,1014.3,,TRUE,TRUE,,,,,,,CLR,,,,,,,,VFR,0.8,26.7,19.4,28.3,18.3,,,,,,,METAR,271.0
KDMN 010553Z AUTO 27009KT 10SM CLR 22/M05 A2986 RMK AO2 SLP031 T02171050 10306 20217 51016,KDMN,2023-06-01T05:53:00Z,32.27,-107.72,21.7,-5.0,270,9,,10.0,29.861221,1003.1,,TRUE,TRUE,,,,,,,CLR,,,,,,,,VFR,1.6,30.6,21.7,,,,,,,,,METAR,1310.0
KDLS 010553Z AUTO 26013G21KT 10SM CLR 15/03 A2997 RMK AO2 SLP148 T01500028 10200 20150 51014,KDLS,2023-06-01T05:53:00Z,45.62,-121.17,15.0,2.8,260,13,21,10.0,29.970472,1014.8,,TRUE,TRUE,,,,,,,CLR,,,,,,,,VFR,1.4,20.0,15.0,,,,,,,,,METAR,71.0
KDLN 010553Z AUTO 19005KT 10SM BKN070 OVC100 11/09 A2992 RMK AO2 RAB24E35 SLP096 P0000 60006 T01060089 10183 20094 50011,KDLN,2023-06-01T05:53:00Z,45.25,-112.55,10.6,8.9,190,5,,10.0,29.920275,1009.6,,TRUE,TRUE,,,,,,,BKN,7000,OVC,10000,,,,,VFR,1.1,18.3,9.4,,,0.005,,0.06,,,,METAR,1586.0
KDKK 010553Z AUTO 31003KT 10SM CLR 18/12 A3010 RMK AO2 SLP188 T01780117 10261 20150 58002,KDKK,2023-06-01T05:53:00Z,42.5,-79.28,17.8,11.7,310,3,,10.0,30.100393,1018.8,,TRUE,TRUE,,,,,,,CLR,,,,,,,,VFR,-0.2,26.1,15.0,,,,,,,,,METAR,205.0
KDHT 010553Z AUTO 25010KT 10SM -RA OVC100 14/13 A3003 RMK AO2 RAB06 SLP120 P0000 60040 T01440133 10189 20139 402500133 53000 $,KDHT,2023-06-01T05:53:00Z,36.02,-102.55,14.4,13.3,250,10,,10.0,30.029528,1012.0,,TRUE,TRUE,TRUE,,,,,-RA,OVC,10000,,,,,,,VFR,0.0,18.9,13.9,25.0,13.3,0.005,,0.4,,,,METAR,1217.0
KDHN 010553Z 04006KT 9SM OVC110 21/19 A2999 RMK AO2 SLP149 T02060194 10244 20206 58009,KDHN,2023-06-01T05:53:00Z,31.32,-85.45,20.6,19.4,40,6,,9.0,29.991142,1014.9,,,TRUE,,,,,,,OVC,11000,,,,,,,VFR,-0.9,24.4,20.6,,,,,,,,,METAR,113.0
KDGW 010553Z AUTO 15019G27KT CLR 14/08 A2993 RMK AO2 PK WND 17027/0552 SLP081 T01440083 10233 20139 51020 $,KDGW,2023-06-01T05:53:00Z,42.8,-105.38,14.4,8.3,150,19,27,,29.929134,1008.1,,TRUE,TRUE,TRUE,,,,,,CLR,,,,,,,,,2.0,23.3,13.9,,,,,,,,,METAR,1503.0
KDFW 010553Z 15007KT 10SM FEW250 25/18 A2986 RMK AO2 SLP100 T02500183 10306 20250 403220189 58001,KDFW,2023-06-01T05:53:00Z,32.9,-97.02,25.0,18.3,150,7,,10.0,29.861221,1010.0,,,TRUE,,,,,,,FEW,25000,,,,,,,VFR,-0.1,30.6,25.0,32.2,18.9,,,,,,,METAR,168.0
KDFI 010553Z AUTO 08003KT 10SM FEW090 19/12 A3006 RMK AO2 SLP175 T01940122 10289 20194 50002,KDFI,2023-06-01T05:53:00Z,41.33,-84.43,19.4,12.2,80,3,,10.0,30.059055,1017.5,,TRUE,TRUE,,,,,,,FEW,9000,,,,,,,VFR,0.2,28.9,19.4,,,,,,,,,METAR,215.0
KDEW 010553Z AUTO 33003KT 10SM CLR 09/03 A2985 RMK AO2 SLP107 T00890028 10228 20089 51012,KDEW,2023-06-01T05:53:00Z,47.97,-117.43,8.9,2.8,330,3,,10.0,29.84941,1010.7,,TRUE,TRUE,,,,,,,CLR,,,,,,,,VFR,1.2,22.8,8.9,,,,,,,,,METAR,672.0
KDET 010553Z 00000KT 10SM CLR 21/09 A3009 RMK AO2 SLP185 T02060089 10278 20200 55000,KDET,2023-06-01T05:53:00Z,42.4,-83.02,20.6,8.9,0,0,,10.0,30.088583,1018.5,,,TRUE,,,,,,,CLR,,,,,,,,VFR,0.0,27.8,20.0,,,,,,,,,METAR,190.0
KDEN 010553Z 24006KT 10SM FEW090 SCT150 BKN220 13/08 A2992 RMK AO2 SLP062 60001 T01330083 10211 20133 50003,KDEN,2023-06-01T05:53:00Z,39.85,-104.65,13.3,8.3,240,6,,10.0,29.920275,1006.2,,,TRUE,,,,,,,FEW,9000,SCT,15000,BKN,22000,,,VFR,0.3,21.1,13.3,,,,,0.01,,,,METAR,1656.0
KDCU 010553Z AUTO 12003KT 10SM CLR 20/17 A3002 RMK AO2 SLP158 T02000172 10267 20189 402940183 50003,KDCU,2023-06-01T05:53:00Z,34.65,-86.95,20.0,17.2,120,3,,10.0,30.02067,1015.8,,TRUE,TRUE,,,,,,,CLR,,,,,,,,VFR,0.3,26.7,18.9,29.4,18.3,,,,,,,METAR,180.0
KDBQ 010553Z AUTO 15009KT 10SM CLR 22/14 A2999 RMK AO2 SLP147 T02220144 10300 20217 403110167 53008,KDBQ,2023-06-01T05:53:00Z,42.4,-90.7,22.2,14.4,150,9,,10.0,29.991142,1014.7,,TRUE,TRUE,,,,,,,CLR,,,,,,,,VFR,0.8,30.0,21.7,31.1,16.7,,,,,,,METAR,317.0
KDAN 010553Z AUTO 00000KT 10SM CLR 14/13 A3008 RMK AO2 SLP177 T01390128 10222 20139 58010,KDAN,2023-06-01T05:53:00Z,36.57,-79.33,13.9,12.8,0,0,,10.0,30.079725,1017.7,,TRUE,TRUE,,,,,,,CLR,,,,,,,,VFR,-1.0,22.2,13.9,,,,,,,,,METAR,170.0
KDAL 010553Z 13006KT 10SM SCT250 26/18 A2987 RMK AO2 SLP107 T02560183 10306 20256 403220206 58001,KDAL,2023-06-01T05:53:00Z,32.85,-96.85,25.6,18.3,130,6,,10.0,29.870079,1010.7,,,TRUE,,,,,,,SCT,25000,,,,,,,VFR,-0.1,30.6,25.6,32.2,20.6,,,,,,,METAR,148.0
KDAB 010553Z 06011KT 10SM FEW027 FEW033 BKN200 25/19 A2989 RMK AO2 SLP121 T02500194 10256 20250 58020,KDAB,2023-06-01T05:53:00Z,29.18,-81.07,25.0,19.4,60,11,,10.0,29.890747,1012.1,,,TRUE,,,,,,,FEW,2700,FEW,3300,BKN,20000,,,VFR,-2.0,25.6,25.0,,,,,,,,,METAR,8.0
KCYS 010553Z AUTO 08010KT 10SM OVC055 12/09 A2999 RMK AO2 SLP076 60002 T01170089 10194 20117 51002,KCYS,2023-06-01T05:53:00Z,41.15,-104.8,11.7,8.9,80,10,,10.0,29.991142,1007.6,,TRUE,TRUE,,,,,,,OVC,5500,,,,,,,VFR,0.2,19.4,11.7,,,,,0.02,,,,METAR,1868.0
KCXO 010553Z AUTO 00000KT 10SM CLR 21/19 A2990 RMK AO2 SLP121 T02060194 10294 20206 403170178 50005,KCXO,2023-06-01T05:53:00Z,30.35,-95.42,20.6,19.4,0,0,,10.0,29.899607,1012.1,,TRUE,TRUE,,,,,,,CLR,,,,,,,,VFR,0.5,29.4,20.6,31.7,17.8,,,,,,,METAR,69.0
KCUT 010553Z AUTO 24003KT 10SM CLR 13/05 A2997 RMK AO2 SLP087 T01330050 10189 20122 50008 $,KCUT,2023-06-01T05:53:00Z,43.73,-103.62,13.3,5.0,240,3,,10.0,29.970472,1008.7,,TRUE,TRUE,TRUE,,,,,,CLR,,,,,,,,VFR,0.8,18.9,12.2,,,,,,,,,METAR,1700.0
KCUB 010553Z AUTO 00000KT 10SM CLR 18/17 A3004 RMK AO2 SLP170 T01830172 10239 20183 56011,KCUB,2023-06-01T05:53:00Z,33.97,-81.0,18.3,17.2,0,0,,10.0,30.041338,1017.0,,TRUE,TRUE,,,,,,,CLR,,,,,,,,VFR,-1.1,23.9,18.3,,,,,,,,,METAR,55.0
KCSV 010553Z AUTO 00000KT 9SM CLR 16/16 A3009 RMK AO2 SLP170 T01560156 10189 20156 402560144 58004,KCSV,2023-06-01T05:53:00Z,35.95,-85.08,15.6,15.6,0,0,,9.0,30.088583,1017.0,,TRUE,TRUE,,,,,,,CLR,,,,,,,,VFR,-0.4,18.9,15.6,25.6,14.4,,,,,,,METAR,569.0
KCSM 010553Z 15008KT 10SM CLR 22/18 A2989 RMK AO2 SLP097 T02220178 10294 20222 403060161 50002,KCSM,2023-06-01T05:53:00Z,35.35,-99.2,22.2,17.8,150,8,,10.0,29.890747,1009.7,,,TRUE,,,,,,,CLR,,,,,,,,VFR,0.2,29.4,22.2,30.6,16.1,,,,,,,METAR,586.0
KCRS 010553Z AUTO 12008KT 10SM CLR 24/19 A2989 RMK AO2 SLPNO T02440194 10306 20244 403170194 50003,KCRS,2023-06-01T05:53:00Z,32.03,-96.4,24.4,19.4,120,8,,10.0,29.890747,,,TRUE,TRUE,,,,,,,CLR,,,,,,,,VFR,0.3,30.6,24.4,31.7,19.4,,,,,,,METAR,136.0
KCRG 010553Z AUTO 07007KT 10SM FEW012 24/21 A2993 RMK AO2 SLP136 T02390211 10250 20239 58015,KCRG,2023-06-01T05:53:00Z,30.33,-81.52,23.9,21.1,70,7,,10.0,29.929134,1013.6,,TRUE,TRUE,,,,,,,FEW,1200,,,,,,,VFR,-1.5,25.0,23.9,,,,,,,,,METAR,12.0
KCRE 010553Z AUTO 01004KT 10SM OVC042 20/17 A3002 RMK AO1 SLP166 T02000172 10222 20200 58012,KCRE,2023-06-01T05:53:00Z,33.82,-78.72,20.0,17.2,10,4,,10.0,30.02067,1016.6,,TRUE,TRUE,,,,,,,OVC,4200,,,,,,,VFR,-1.2,22.2,20.0,,,,,,,,,METAR,9.0
KCPS 010553Z AUTO 18003KT 10SM CLR 22/17 A2998 RMK AO2 SLP148 T02170167 10300 20217 403220161 51008 $,KCPS,2023-06-01T05:53:00Z,38.53,-90.15,21.7,16.7,180,3,,10.0,29.97933,1014.8,,TRUE,TRUE,TRUE,,,,,,CLR,,,,,,,,VFR,0.8,30.0,21.7,32.2,16.1,,,,,,,METAR,125.0
KCPR 010553Z AUTO 34005KT 10SM CLR 12/06 A2987 RMK AO2 SLP056 T01170061 10261 20117 53019,KCPR,2023-06-01T05:53:00Z,42.9,-106.47,11.7,6.1,340,5,,10.0,29.870079,1005.6,,TRUE,TRUE,,,,,,,CLR,,,,,,,,VFR,1.9,26.1,11.7,,,,,,,,,METAR,1623.0
KCOT 010553Z AUTO 13010KT 10SM CLR 25/21 A2983 RMK AO2 SLP094 T02500206 10333 20250 403440217 50001,KCOT,2023-06-01T05:53:00Z,28.45,-99.22,25.0,20.6,130,10,,10.0,29.828741,1009.4,,TRUE,TRUE,,,,,,,CLR,,,,,,,,VFR,0.1,33.3,25.0,34.4,21.7,,,,,,,METAR,144.0
KCNY 010553Z AUTO 18007KT 10SM CLR 18/M03 A2974 RMK AO2 SLP015 T01781033 10294 20178 51013,KCNY,2023-06-01T05:53:00Z,38.77,-109.75,17.8,-3.3,180,7,,10.0,29.740158,1001.5,,TRUE,TRUE,,,,,,,CLR,,,,,,,,VFR,1.3,29.4,17.8,,,,,,,,,METAR,1392.0
KCNM 010553Z AUTO 16011KT 10SM CLR 22/17 A2980 RMK AO2 LTG DSNT SE SLP031 T02220167 10317 20211 51028,KCNM,2023-06-01T05:53:00Z,32.33,-104.25,22.2,16.7,160,11,,10.0,29.799213,1003.1,,TRUE,TRUE,,,,,,,CLR,,,,,,,,VFR,2.8,31.7,21.1,,,,,,,,,METAR,993.0
KCMX 010553Z AUTO 21004KT 10SM CLR 22/14 A2999 RMK AO2 SLP147 T02170139 10278 20194 51008 $,KCMX,2023-06-01T05:53:00Z,47.17,-88.48,21.7,13.9,210,4,,10.0,29.991142,1014.7,,TRUE,TRUE,TRUE,,,,,,CLR,,,,,,,,VFR,0.8,27.8,19.4,,,,,,,,,METAR,326.0
KCMI 010553Z AUTO 14007KT 10SM CLR 22/15 A3002 RMK AO2 SLP159 T02170150 10289 20200 403390183 50001,KCMI,2023-06-01T05:53:00Z,40.03,-88.27,21.7,15.0,140,7,,10.0,30.02067,1015.9,,TRUE,TRUE,,,,,,,CLR,,,,,,,,VFR,0.1,28.9,20.0,33.9,18.3,,,,,,,METAR,227.0
KCLM 010553Z AUTO 28007KT 10SM CLR 09/05 A3011 RMK AO2 SLP196 T00890050 10139 20089 51005,KCLM,2023-06-01T05:53:00Z,48.12,-123.5,8.9,5.0,280,7,,10.0,30.109253,1019.6,,TRUE,TRUE,,,,,,,CLR,,,,,,,,VFR,0.5,13.9,8.9,,,,,,,,,METAR,81.0
KCLL 010553Z AUTO 15006KT 10SM CLR 24/20 A2988 RMK AO2 SLP111 T02440200 10317 20244 403330211 50004,KCLL,2023-06-01T05:53:00Z,30.58,-96.37,24.4,20.0,150,6,,10.0,29.878937,1011.1,,TRUE,TRUE,,,,,,,CLR,,,,,,,,VFR,0.4,31.7,24.4,33.3,21.1,,,,,,,METAR,96.0
KCKB 010553Z 00000KT 10SM CLR 14/07 A3009 RMK AO2 SLP179 T01440072 10244 20144 58004,KCKB,2023-06-01T05:53:00Z,39.3,-80.22,14.4,7.2,0,0,,10.0,30.088583,1017.9,,,TRUE,,,,,,,CLR,,,,,,,,VFR,-0.4,24.4,14.4,,,,,,,,,METAR,368.0
KCHO 010553Z AUTO 00000KT 10SM CLR 14/08 A3011 RMK AO2 SLP192 T01390083 10244 20139 58006,KCHO,2023-06-01T05:53:00Z,38.13,-78.45,13.9,8.3,0,0,,10.0,30.109253,1019.2,,TRUE,TRUE,,,,,,,CLR,,,,,,,,VFR,-0.6,24.4,13.9,,,,,,,,,METAR,193.0
KCHA 010553Z AUTO 00000KT 10SM CLR 20/17 A3005 RMK AO2 SLP169 T02000172 10244 20194 56001,KCHA,2023-06-01T05:53:00Z,35.03,-85.2,20.0,17.2,0,0,,10.0,30.050198,1016.9,,TRUE,TRUE,,,,,,,CLR,,,,,,,,VFR,-0.1,24.4,19.4,,,,,,,,,METAR,203.0
KCGI 010553Z AUTO 00000KT 10SM CLR 21/17 A2998 RMK AO2 SLP148 T02060172 10283 20206 403170172 51006,KCGI,2023-06-01T05:53:00Z,37.23,-89.58,20.6,17.2,0,0,,10.0,29.97933,1014.8,,TRUE,TRUE,,,,,,,CLR,,,,,,,,VFR,0.6,28.3,20.6,31.7,17.2,,,,,,,METAR,103.0
KCEZ 010553Z AUTO 32004KT 10SM SCT110 15/02 A2991 RMK AO2 SLP055 T01500022 10256 20144 51011,KCEZ,2023-06-01T05:53:00Z,37.3,-108.63,15.0,2.2,320,4,,10.0,29.911417,1005.5,,TRUE,TRUE,,,,,,,SCT,11000,,,,,,,VFR,1.1,25.6,14.4,,,,,,,,,METAR,1801.0
KCEW 010553Z AUTO VRB03KT 10SM CLR 21/18 A2994 RMK AO2 SLP137 T02060183 10222 20206 403170144 58008,KCEW,2023-06-01T05:53:00Z,30.78,-86.52,20.6,18.3,0,3,,10.0,29.940945,1013.7,,TRUE,TRUE,,,,,,,CLR,,,,,,,,VFR,-0.8,22.2,20.6,31.7,14.4,,,,,,,METAR,47.0
KCDW 010553Z AUTO 00000KT 10SM CLR 13/11 A3015 RMK AO2 SLP214 T01280106 10217 20128 58002,KCDW,2023-06-01T05:53:00Z,40.88,-74.28,12.8,10.6,0,0,,10.0,30.15059,1021.4,,TRUE,TRUE,,,,,,,CLR,,,,,,,,VFR,-0.2,21.7,12.8,,,,,,,,,METAR,52.0
KCDS 010553Z AUTO 15005KT 10SM CLR 22/16 A2987 RMK AO2 SLP086 T02170161 10283 20217 403060178 55001,KCDS,2023-06-01T05:53:00Z,34.43,-100.28,21.7,16.1,150,5,,10.0,29.870079,1008.6,,TRUE,TRUE,,,,,,,CLR,,,,,,,,VFR,-0.1,28.3,21.7,30.6,17.8,,,,,,,METAR,595.0
KCDR 010553Z AUTO 24012KT 8SM -RA OVC085 14/12 A2991 RMK AO2 PK WND 24030/0501 SLP109 P0013 60084 T01440117 10228 20144 50000 $,KCDR,2023-06-01T05:53:00Z,42.83,-103.1,14.4,11.7,240,12,,8.0,29.911417,1010.9,,TRUE,TRUE,TRUE,,,,,-RA,OVC,8500,,,,,,,VFR,0.0,22.8,14.4,,,0.13,,0.84,,,,METAR,1002.0
KCDC 010553Z AUTO 12009KT 10SM CLR 13/00 A2987 RMK AO2 SLP050 T01330000 10206 20106 50003,KCDC,2023-06-01T05:53:00Z,37.7,-113.1,13.3,0.0,120,9,,10.0,29.870079,1005.0,,TRUE,TRUE,,,,,,,CLR,,,,,,,,VFR,0.3,20.6,10.6,,,,,,,,,METAR,1703.0
KCCR 010553Z 19015G23KT 10SM CLR 13/09 A2984 RMK AO2 PK WND 19028/0455 SLP092 T01330089 10222 20128 53007,KCCR,2023-06-01T05:53:00Z,38.0,-122.05,13.3,8.9,190,15,23,10.0,29.840551,1009.2,,,TRUE,,,,,,,CLR,,,,,,,,VFR,0.7,22.2,12.8,,,,,,,,,METAR,6.0
KCAG 010553Z AUTO 08005KT 10SM CLR 12/03 A2991 RMK AO2 SLP063 T01170033 10194 20111 50000 $,KCAG,2023-06-01T05:53:00Z,40.5,-107.52,11.7,3.3,80,5,,10.0,29.911417,1006.3,,TRUE,TRUE,TRUE,,,,,,CLR,,,,,,,,VFR,0.0,19.4,11.1,,,,,,,,,METAR,1888.0
KBYI 010553Z AUTO 28005KT 10SM CLR 13/09 A2987 RMK AO2 SLP083 T01280089 10211 20128 51006,KBYI,2023-06-01T05:53:00Z,42.55,-113.77,12.8,8.9,280,5,,10.0,29.870079,1008.3,,TRUE,TRUE,,,,,,,CLR,,,,,,,,VFR,0.6,21.1,12.8,,,,,,,,,METAR,1263.0
KBYG 010553Z AUTO 24005KT 10SM CLR 16/06 A2986 RMK AO2 SLP058 T01560061 10239 20128 50002,KBYG,2023-06-01T05:53:00Z,44.38,-106.72,15.6,6.1,240,5,,10.0,29.861221,1005.8,,TRUE,TRUE,,,,,,,CLR,,,,,,,,VFR,0.2,23.9,12.8,,,,,,,,,METAR,1503.0
KBWG 010553Z AUTO 00000KT 10SM CLR 20/18 A3001 RMK AO2 SLP157 T02000178 10261 20200 403110183 58001,KBWG,2023-06-01T05:53:00Z,36.97,-86.42,20.0,17.8,0,0,,10.0,30.008858,1015.7,,TRUE,TRUE,,,,,,,CLR,,,,,,,,VFR,-0.1,26.1,20.0,31.1,18.3,,,,,,,METAR,159.0
KBVY 010553Z AUTO 21003KT 8SM CLR 14/11 A3009 RMK AO2 SLP186 T01440111 10178 20139 58007,KBVY,2023-06-01T05:53:00Z,42.58,-70.92,14.4,11.1,210,3,,8.0,30.088583,1018.6,,TRUE,TRUE,,,,,,,CLR,,,,,,,,VFR,-0.7,17.8,13.9,,,,,,,,,METAR,28.0
KBVO 010553Z AUTO 17003KT 10SM CLR 21/18 A2991 RMK AO2 SLP118 T02110178 10294 20194 403110183 51005,KBVO,2023-06-01T05:53:00Z,36.77,-96.02,21.1,17.8,170,3,,10.0,29.911417,1011.8,,TRUE,TRUE,,,,,,,CLR,,,,,,,,VFR,0.5,29.4,19.4,31.1,18.3,,,,,,,METAR,210.0
KBUR 010553Z 21003KT 10SM OVC021 15/10 A2992 RMK AO2 SLP121 T01500100 10161 20150 51005,KBUR,2023-06-01T05:53:00Z,34.2,-118.37,15.0,10.0,210,3,,10.0,29.920275,1012.1,,,TRUE,,,,,,,OVC,2100,,,,,,,MVFR,0.5,16.1,15.0,,,,,,,,,METAR,221.0
KBTR 010553Z AUTO 18003KT 10SM CLR 24/19 A2989 RMK AO2 SLP120 T02440194 10294 20239 403390200 50001,KBTR,2023-06-01T05:53:00Z,30.53,-91.15,24.4,19.4,180,3,,10.0,29.890747,1012.0,,TRUE,TRUE,,,,,,,CLR,,,,,,,,VFR,0.1,29.4,23.9,33.9,20.0,,,,,,,METAR,20.0
KBTM 010553Z AUTO 00000KT 10SM OVC060 11/09 A2994 RMK AO2 RAE04 SLP101 P0000 60003 T01110094 10161 20111 51005,KBTM,2023-06-01T05:53:00Z,45.97,-112.5,11.1,9.4,0,0,,10.0,29.940945,1010.1,,TRUE,TRUE,,,,,,,OVC,6000,,,,,,,VFR,0.5,16.1,11.1,,,0.005,,0.03,,,,METAR,1680.0
KBTL 010553Z AUTO 12005KT 10SM CLR 22/11 A3007 RMK AO2 SLP173 T02220106 10306 20222 53001,KBTL,2023-06-01T05:53:00Z,42.32,-85.25,22.2,10.6,120,5,,10.0,30.070866,1017.3,,TRUE,TRUE,,,,,,,CLR,,,,,,,,VFR,0.1,30.6,22.2,,,,,,,,,METAR,282.0
KBRO 010553Z AUTO 13003KT 10SM CLR 24/22 A2985 RMK AO2 SLP105 T02390222 10300 20239 403280217 50008,KBRO,2023-06-01T05:53:00Z,25.92,-97.42,23.9,22.2,130,3,,10.0,29.84941,1010.5,,TRUE,TRUE,,,,,,,CLR,,,,,,,,VFR,0.8,30.0,23.9,32.8,21.7,,,,,,,METAR,6.0
KBRL 010553Z AUTO 11003KT 10SM CLR 21/M05 A2997 RMK AO2 SLP142 T02061050 10278 20206 403170161 51008 $,KBRL,2023-06-01T05:53:00Z,40.77,-91.13,20.6,-5.0,110,3,,10.0,29.970472,1014.2,,TRUE,TRUE,TRUE,,,,,,CLR,,,,,,,,VFR,0.8,27.8,20.6,31.7,16.1,,,,,,,METAR,208.0
KBRD 010553Z AUTO 00000KT 10SM CLR 18/17 A2991 RMK AO2 SLP121 T01830167 10283 20178 403110167 51008 $,KBRD,2023-06-01T05:53:00Z,46.4,-94.13,18.3,16.7,0,0,,10.0,29.911417,1012.1,,TRUE,TRUE,TRUE,,,,,,CLR,,,,,,,,VFR,0.8,28.3,17.8,31.1,16.7,,,,,,,METAR,372.0
KBPT 010553Z AUTO 00000KT 10SM CLR 22/21 A2988 RMK AO2 SLP116 T02170206 10272 20211 403170206 58002,KBPT,2023-06-01T05:53:00Z,29.95,-94.03,21.7,20.6,0,0,,10.0,29.878937,1011.6,,TRUE,TRUE,,,,,,,CLR,,,,,,,,VFR,-0.2,27.2,21.1,31.7,20.6,,,,,,,METAR,6.0
KBPK 010553Z AUTO 00000KT 10SM CLR 19/16 A2998 RMK AO2 SLP142 T01940156 10278 20194 403060167 51011,KBPK,2023-06-01T05:53:00Z,36.37,-92.47,19.4,15.6,0,0,,10.0,29.97933,1014.2,,TRUE,TRUE,,,,,,,CLR,,,,,,,,VFR,1.1,27.8,19.4,30.6,16.7,,,,,,,METAR,279.0
KBPI 010553Z AUTO 35012KT 10SM CLR 08/02 A2995 RMK AO2 SLP064 T00780017 10194 20067 50003,KBPI,2023-06-01T05:53:00Z,42.58,-110.1,7.8,1.7,350,12,,10.0,29.949802,1006.4,,TRUE,TRUE,,,,,,,CLR,,,,,,,,VFR,0.3,19.4,6.7,,,,,,,,,METAR,2120.0
KBNO 010553Z AUTO 28006KT 10SM CLR 11/M01 A2992 RMK AO2 SLP111 T01061011 10244 20100 51017,KBNO,2023-06-01T05:53:00Z,43.6,-118.95,10.6,-1.1,280,6,,10.0,29.920275,1011.1,,TRUE,TRUE,,,,,,,CLR,,,,,,,,VFR,1.7,24.4,10.0,,,,,,,,,METAR,1263.0
KBNA 010553Z 00000KT 10SM FEW130 22/18 A3003 RMK AO2 SLP161 T02170178 10261 20211 403110200 50000,KBNA,2023-06-01T05:53:00Z,36.12,-86.68,21.7,17.8,0,0,,10.0,30.029528,1016.1,,,TRUE,,,,,,,FEW,13000,,,,,,,VFR,0.0,26.1,21.1,31.1,20.0,,,,,,,METAR,168.0
KBMQ 010553Z AUTO 16004KT 10SM CLR 23/19 A2989 RMK AO2 SLP105 T02330194 10289 20233 403110194 58001,KBMQ,2023-06-01T05:53:00Z,30.73,-98.23,23.3,19.4,160,4,,10.0,29.890747,1010.5,,TRUE,TRUE,,,,,,,CLR,,,,,,,,VFR,-0.1,28.9,23.3,31.1,19.4,,,,,,,METAR,387.0
KBMG 010553Z AUTO 00000KT 9SM CLR 18/17 A3004 RMK AO2 SLP163 T01830172 10278 20183 50000,KBMG,2023-06-01T05:53:00Z,39.15,-86.62,18.3,17.2,0,0,,9.0,30.041338,1016.3,,TRUE,TRUE,,,,,,,CLR,,,,,,,,VFR,0.0,27.8,18.3,,,,,,,,,METAR,254.0
KBLI 010553Z AUTO 20004KT 10SM CLR 13/08 A3005 RMK AO2 SLP184 T01280083 10172 20128 52007,KBLI,2023-06-01T05:53:00Z,48.8,-122.53,12.8,8.3,200,4,,10.0,30.050198,1018.4,,TRUE,TRUE,,,,,,,CLR,,,,,,,,VFR,0.7,17.2,12.8,,,,,,,,,METAR,46.0
KBKV 010553Z AUTO 03006KT 10SM CLR 22/21 A2989 RMK AO2 SLP118 T02220206 10233 20222 58010,KBKV,2023-06-01T05:53:00Z,28.47,-82.45,22.2,20.6,30,6,,10.0,29.890747,1011.8,,TRUE,TRUE,,,,,,,CLR,,,,,,,,VFR,-1.0,23.3,22.2,,,,,,,,,METAR,21.0
KBKL 010553Z 17004KT 10SM CLR 19/12 A3009 RMK AO2 SLP185 T01940117 10211 20183 53002,KBKL,2023-06-01T05:53:00Z,41.53,-81.67,19.4,11.7,170,4,,10.0,30.088583,1018.5,,,TRUE,,,,,,,CLR,,,,,,,,VFR,0.2,21.1,18.3,,,,,,,,,METAR,177.0
KBKE 010553Z AUTO 34005KT 10SM CLR 10/01 A2993 RMK AO2 SLP127 T01000006 10206 20094 51019,KBKE,2023-06-01T05:53:00Z,44.85,-117.82,10.0,0.6,340,5,,10.0,29.929134,1012.7,,TRUE,TRUE,,,,,,,CLR,,,,,,,,VFR,1.9,20.6,9.4,,,,,,,,,METAR,1025.0
KBIV 010553Z AUTO 16004KT 10SM CLR 21/14 A3004 RMK AO2 SLP168 T02060144 10300 20200 50007,KBIV,2023-06-01T05:53:00Z,42.75,-86.1,20.6,14.4,160,4,,10.0,30.041338,1016.8,,TRUE,TRUE,,,,,,,CLR,,,,,,,,VFR,0.7,30.0,20.0,,,,,,,,,METAR,207.0
KBIL 010553Z 30006KT 10SM FEW090 BKN190 15/11 A2982 RMK AO2 SLP071 T01500106 10244 20150 51013,KBIL,2023-06-01T05:53:00Z,45.8,-108.55,15.0,10.6,300,6,,10.0,29.819881,1007.1,,,TRUE,,,,,,,FEW,9000,BKN,19000,,,,,VFR,1.3,24.4,15.0,,,,,,,,,METAR,1089.0
KBHM 010553Z 12003KT 10SM CLR 22/18 A3002 RMK AO2 SLP158 T02220178 10267 20222 402890200 58001,KBHM,2023-06-01T05:53:00Z,33.57,-86.75,22.2,17.8,120,3,,10.0,30.02067,1015.8,,,TRUE,,,,,,,CLR,,,,,,,,VFR,-0.1,26.7,22.2,28.9,20.0,,,,,,,METAR,191.0
KBGR 010553Z 20005KT 10SM CLR 14/08 A3006 RMK AO2 SLP177 T01390078 10206 20139 58008,KBGR,2023-06-01T05:53:00Z,44.8,-68.82,13.9,7.8,200,5,,10.0,30.059055,1017.7,,,TRUE,,,,,,,CLR,,,,,,,,VFR,-0.8,20.6,13.9,,,,,,,,,METAR,45.0
KBGM 010553Z AUTO 00000KT 10SM CLR 18/08 A3016 RMK AO2 SLP202 T01780078 10267 20172 53003,KBGM,2023-06-01T05:53:00Z,42.22,-75.98,17.8,7.8,0,0,,10.0,30.159449,1020.2,,TRUE,TRUE,,,,,,,CLR,,,,,,,,VFR,0.3,26.7,17.2,,,,,,,,,METAR,485.0
KBFM 010553Z AUTO 08011KT 10SM CLR 24/19 A2993 RMK AO2 SLP134 T02440194 10267 20228 403060189 58004,KBFM,2023-06-01T05:53:00Z,30.62,-88.07,24.4,19.4,80,11,,10.0,29.929134,1013.4,,TRUE,TRUE,,,,,,,CLR,,,,,,,,VFR,-0.4,26.7,22.8,30.6,18.9,,,,,,,METAR,7.0
KBFI 010553Z VRB04KT 10SM CLR 12/06 A3008 RMK AO2 SLP184 T01220056 10167 20122 53009,KBFI,2023-06-01T05:53:00Z,47.55,-122.32,12.2,5.6,0,4,,10.0,30.079725,1018.4,,,TRUE,,,,,,,CLR,,,,,,,,VFR,0.9,16.7,12.2,,,,,,,,,METAR,7.0
KBFF 010553Z AUTO 03011KT 10SM CLR 14/11 A2991 RMK AO2 SLP091 60103 T01440111 10244 20139 58015,KBFF,2023-06-01T05:53:00Z,41.87,-103.6,14.4,11.1,30,11,,10.0,29.911417,1009.1,,TRUE,TRUE,,,,,,,CLR,,,,,,,,VFR,-1.5,24.4,13.9,,,,,1.03,,,,METAR,1204.0
KBFD 010553Z AUTO 00000KT 10SM CLR 12/09 A3018 RMK AO2 SLP205 T01170094 10250 20111 50002,KBFD,2023-06-01T05:53:00Z,41.8,-78.63,11.7,9.4,0,0,,10.0,30.180119,1020.5,,TRUE,TRUE,,,,,,,CLR,,,,,,,,VFR,0.2,25.0,11.1,,,,,,,,,METAR,642.0
KBEH 010553Z AUTO 08003KT 10SM CLR 17/15 A3002 RMK AO2 SLP162 T01720150 10289 20172 51002,KBEH,2023-06-01T05:53:00Z,42.13,-86.42,17.2,15.0,80,3,,10.0,30.02067,1016.2,,TRUE,TRUE,,,,,,,CLR,,,,,,,,VFR,0.2,28.9,17.2,,,,,,,,,METAR,196.0
KBDE 010553Z AUTO 06006KT 6SM RA FEW070 OVC090 19/16 A2991 RMK AO2 LTG DSNT E PRESFR SLP125 P0049 60073 T01890161 10261 20183 402890117 50013,KBDE,2023-06-01T05:53:00Z,48.73,-94.62,18.9,16.1,60,6,,6.0,29.911417,1012.5,,TRUE,TRUE,,,,,,RA,FEW,7000,OVC,9000,,,,,VFR,1.3,26.1,18.3,28.9,11.7,0.49,,0.73,,,,METAR,330.0
KBCE 010553Z AUTO 28005KT 10SM CLR 06/M02 A2996 RMK AO2 SLP051 T00561017 10183 20056 50006,KBCE,2023-06-01T05:53:00Z,37.7,-112.15,5.6,-1.7,280,5,,10.0,29.958662,1005.1,,TRUE,TRUE,,,,,,,CLR,,,,,,,,VFR,0.6,18.3,5.6,,,,,,,,,METAR,2311.0
KBBW 010553Z AUTO 00000KT 10SM CLR 17/15 A2987 RMK AO2 SLP097 T01670150 10272 20167 402780144 51008,KBBW,2023-06-01T05:53:00Z,41.43,-99.63,16.7,15.0,0,0,,10.0,29.870079,1009.7,,TRUE,TRUE,,,,,,,CLR,,,,,,,,VFR,0.8,27.2,16.7,27.8,14.4,,,,,,,METAR,771.0
KBAF 010553Z AUTO 00000KT 10SM CLR 12/09 A3014 RMK AO2 SLP204 T01170094 10222 20117 53000,KBAF,2023-06-01T05:53:00Z,42.17,-72.72,11.7,9.4,0,0,,10.0,30.138779,1020.4,,TRUE,TRUE,,,,,,,CLR,,,,,,,,VFR,0.0,22.2,11.7,,,,,,,,,METAR,80.0
KAZO 010553Z AUTO 00000KT 10SM CLR 20/11 A3006 RMK AO2 SLP174 T02000111 10306 20200 51005,KAZO,2023-06-01T05:53:00Z,42.23,-85.55,20.0,11.1,0,0,,10.0,30.059055,1017.4,,TRUE,TRUE,,,,,,,CLR,,,,,,,,VFR,0.5,30.6,20.0,,,,,,,,,METAR,264.0
KAXN 010553Z AUTO 11007KT 10SM CLR 19/14 A2990 RMK AO2 SLP118 60000 T01890139 10233 20183 403220167 51016,KAXN,2023-06-01T05:53:00Z,45.87,-95.4,18.9,13.9,110,7,,10.0,29.899607,1011.8,,TRUE,TRUE,,,,,,,CLR,,,,,,,,VFR,1.6,23.3,18.3,32.2,16.7,,,0.005,,,,METAR,433.0
KAWM 010553Z AUTO 00000KT 10SM CLR 21/18 A2995 RMK AO2 SLP138 T02060178 10289 20206 403110183 50003,KAWM,2023-06-01T05:53:00Z,35.13,-90.23,20.6,17.8,0,0,,10.0,29.949802,1013.8,,TRUE,TRUE,,,,,,,CLR,,,,,,,,VFR,0.3,28.9,20.6,31.1,18.3,,,,,,,METAR,64.0
KAUS 010553Z 16005KT 10SM CLR 22/21 A2987 RMK AO2 SLP103 T02220206 10306 20222 403170183 50002,KAUS,2023-06-01T05:53:00Z,30.18,-97.68,22.2,20.6,160,5,,10.0,29.870079,1010.3,,,TRUE,,,,,,,CLR,,,,,,,,VFR,0.2,30.6,22.2,31.7,18.3,,,,,,,METAR,148.0
KAUG 010553Z AUTO 00000KT 10SM CLR 13/10 A3008 RMK AO2 SLP185 T01280100 10200 20128 58006,KAUG,2023-06-01T05:53:00Z,44.32,-69.8,12.8,10.0,0,0,,10.0,30.079725,1018.5,,TRUE,TRUE,,,,,,,CLR,,,,,,,,VFR,-0.6,20.0,12.8,,,,,,,,,METAR,107.0
KATY 010553Z AUTO 16007KT 10SM CLR 19/13 A2986 RMK AO2 SLP100 60000 T01940128 10256 20194 403000161 50013,KATY,2023-06-01T05:53:00Z,44.9,-97.15,19.4,12.8,160,7,,10.0,29.861221,1010.0,,TRUE,TRUE,,,,,,,CLR,,,,,,,,VFR,1.3,25.6,19.4,30.0,16.1,,,0.005,,,,METAR,531.0
KASX 010553Z AUTO 00000KT 10SM CLR 14/12 A2995 RMK AO2 SLP141 T01390117 10300 20128 403220111 53006,KASX,2023-06-01T05:53:00Z,46.55,-90.92,13.9,11.7,0,0,,10.0,29.949802,1014.1,,TRUE,TRUE,,,,,,,CLR,,,,,,,,VFR,0.6,30.0,12.8,32.2,11.1,,,,,,,METAR,249.0
KASE 010553Z AUTO 20004KT 10SM FEW110 07/01 A3000 RMK AO2 SLP056 60000 T00720011 10128 20072 56008,KASE,2023-06-01T05:53:00Z,39.23,-106.87,7.2,1.1,200,4,,10.0,30.0,1005.6,,TRUE,TRUE,,,,,,,FEW,11000,,,,,,,VFR,-0.8,12.8,7.2,,,,,0.005,,,,METAR,2384.0
KASD 010553Z AUTO 00000KT 10SM CLR 21/19 A2990 RMK AO2 SLP123 T02060189 10278 20200 403170189 58004,KASD,2023-06-01T05:53:00Z,30.35,-89.82,20.6,18.9,0,0,,10.0,29.899607,1012.3,,TRUE,TRUE,,,,,,,CLR,,,,,,,,VFR,-0.4,27.8,20.0,31.7,18.9,,,,,,,METAR,8.0
KARB 010553Z AUTO 00000KT 10SM CLR 14/10 A3009 RMK AO2 SLP185 T01390100 10261 20128 54000,KARB,2023-06-01T05:53:00Z,42.22,-83.73,13.9,10.0,0,0,,10.0,30.088583,1018.5,,TRUE,TRUE,,,,,,,CLR,,,,,,,,VFR,,26.1,12.8,,,,,,,,,METAR,251.0
KARA 010553Z AUTO 21003KT 10SM CLR 22/19 A2988 RMK AO2 SLP118 T02220189 10267 20222 403280200 58004,KARA,2023-06-01T05:53:00Z,30.03,-91.88,22.2,18.9,210,3,,10.0,29.878937,1011.8,,TRUE,TRUE,,,,,,,CLR,,,,,,,,VFR,-0.4,26.7,22.2,32.8,20.0,,,,,,,METAR,5.0
KAPF 010553Z AUTO 07003KT 10SM CLR 23/22 A2985 RMK AO2 SLP106 T02280217 10239 20228 58008 PWINO,KAPF,2023-06-01T05:53:00Z,26.15,-81.77,22.8,21.7,70,3,,10.0,29.84941,1010.6,,TRUE,TRUE,,,,,TRUE,,CLR,,,,,,,,VFR,-0.8,23.9,22.8,,,,,,,,,METAR,2.0
KAPA 010553Z 17005KT 10SM FEW140 BKN220 11/08 A2995 RMK AO2 SLP085 60004 T01110078 10211 20106 50004,KAPA,2023-06-01T05:53:00Z,39.57,-104.85,11.1,7.8,170,5,,10.0,29.949802,1008.5,,,TRUE,,,,,,,FEW,14000,BKN,22000,,,,,VFR,0.4,21.1,10.6,,,,,0.04,,,,METAR,1791.0
KAOO 010553Z AUTO 00000KT 10SM CLR 13/04 A3015 RMK AO2 SLP203 T01280039 10239 20122 58002,KAOO,2023-06-01T05:53:00Z,40.3,-78.32,12.8,3.9,0,0,,10.0,30.15059,1020.3,,TRUE,TRUE,,,,,,,CLR,,,,,,,,VFR,-0.2,23.9,12.2,,,,,,,,,METAR,450.0
KAOH 010553Z AUTO 15005KT 10SM CLR 20/13 A3008 RMK AO2 SLP176 T02000133 10283 20200 50003,KAOH,2023-06-01T05:53:00Z,40.7,-84.02,20.0,13.3,150,5,,10.0,30.079725,1017.6,,TRUE,TRUE,,,,,,,CLR,,,,,,,,VFR,0.3,28.3,20.0,,,,,,,,,METAR,294.0
KANB 010553Z AUTO 05005KT 10SM CLR 20/17 A3003 RMK AO2 SLP161 T02000172 10256 20200 402780172 58001,KANB,2023-06-01T05:53:00Z,33.58,-85.85,20.0,17.2,50,5,,10.0,30.029528,1016.1,,TRUE,TRUE,,,,,,,CLR,,,,,,,,VFR,-0.1,25.6,20.0,27.8,17.2,,,,,,,METAR,187.0
KAMW 010553Z AUTO 15004KT 10SM CLR 19/16 A2993 RMK AO2 SLP125 T01940161 10289 20194 403060167 51008,KAMW,2023-06-01T05:53:00Z,41.98,-93.62,19.4,16.1,150,4,,10.0,29.929134,1012.5,,TRUE,TRUE,,,,,,,CLR,,,,,,,,VFR,0.8,28.9,19.4,30.6,16.7,,,,,,,METAR,282.0
KALW 010553Z AUTO 20010KT 10SM CLR 13/02 A2994 RMK AO2 SLP138 T01330017 10222 20133 51031,KALW,2023-06-01T05:53:00Z,46.1,-118.28,13.3,1.7,200,10,,10.0,29.940945,1013.8,,TRUE,TRUE,,,,,,,CLR,,,,,,,,VFR,3.1,22.2,13.3,,,,,,,,,METAR,355.0
KALI 010553Z AUTO 13003KT 10SM FEW020 21/21 A2983 RMK AO2 SLP099 T02110211 10294 20200 403220183 58001,KALI,2023-06-01T05:53:00Z,27.73,-98.02,21.1,21.1,130,3,,10.0,29.828741,1009.9,,TRUE,TRUE,,,,,,,FEW,2000,,,,,,,VFR,-0.1,29.4,20.0,32.2,18.3,,,,,,,METAR,52.0
KAKO 010553Z AUTO 11006KT 10SM CLR 14/09 A2994 RMK AO2 SLP087 T01440089 10228 20144 53016,KAKO,2023-06-01T05:53:00Z,40.17,-103.22,14.4,8.9,110,6,,10.0,29.940945,1008.7,,TRUE,TRUE,,,,,,,CLR,,,,,,,,VFR,1.6,22.8,14.4,,,,,,,,,METAR,1431.0
KAIA 010553Z AUTO 10SM CLR 14/11 A2991 RMK AO2 RAE0454 SLP091 P0000 60016 T01390111 10222 20133 58000 $,KAIA,2023-06-01T05:53:00Z,42.05,-102.8,13.9,11.1,,,,10.0,29.911417,1009.1,,TRUE,TRUE,TRUE,,,,,,CLR,,,,,,,,VFR,0.0,22.2,13.3,,,0.005,,0.16,,,,METAR,1198.0
KAGS 010553Z 00000KT 5SM BR CLR 16/16 A3001 RMK AO2 SLP161 T01610161 10233 20161 58013,KAGS,2023-06-01T05:53:00Z,33.37,-81.97,16.1,16.1,0,0,,5.0,30.008858,1016.1,,,TRUE,,,,,,BR,CLR,,,,,,,,MVFR,-1.3,23.3,16.1,,,,,,,,,METAR,40.0
KAGC 010553Z 16003KT 8SM CLR 18/08 A3011 RMK AO2 SLP193 T01780078 10256 20178 58003,KAGC,2023-06-01T05:53:00Z,40.35,-79.92,17.8,7.8,160,3,,8.0,30.109253,1019.3,,,TRUE,,,,,,,CLR,,,,,,,,VFR,-0.3,25.6,17.8,,,,,,,,,METAR,380.0
KAFW 010553Z 13006KT 10SM FEW250 26/18 A2986 RMK AO2 SLP096 T02560183 10300 20244 403220183 58001,KAFW,2023-06-01T05:53:00Z,32.97,-97.32,25.6,18.3,130,6,,10.0,29.861221,1009.6,,,TRUE,,,,,,,FEW,25000,,,,,,,VFR,-0.1,30.0,24.4,32.2,18.3,,,,,,,METAR,208.0
KAEX 010553Z 00000KT 9SM CLR 22/18 A2989 RMK AO2 SLP125 T02170178 10306 20217 403330183 50007,KAEX,2023-06-01T05:53:00Z,31.33,-92.57,21.7,17.8,0,0,,9.0,29.890747,1012.5,,,TRUE,,,,,,,CLR,,,,,,,,VFR,0.7,30.6,21.7,33.3,18.3,,,,,,,METAR,25.0
KADG 010553Z AUTO 04003KT 10SM CLR 19/13 A3009 RMK AO2 SLP186 T01890133 10272 20183 56000,KADG,2023-06-01T05:53:00Z,41.87,-84.08,18.9,13.3,40,3,,10.0,30.088583,1018.6,,TRUE,TRUE,,,,,,,CLR,,,,,,,,VFR,0.0,27.2,18.3,,,,,,,,,METAR,244.0
KACV 010553Z AUTO 30004KT 6SM HZ OVC018 11/08 A3000 RMK AO2 SLP163 T01060078 10150 20106 58000,KACV,2023-06-01T05:53:00Z,40.98,-124.1,10.6,7.8,300,4,,6.0,30.0,1016.3,,TRUE,TRUE,,,,,,HZ,OVC,1800,,,,,,,MVFR,0.0,15.0,10.6,,,,,,,,,METAR,63.0
KACK 010553Z AUTO 16003KT 9SM CLR 12/12 A3013 RMK AO2 SLP204 T01220117 10139 20106 58007,KACK,2023-06-01T05:53:00Z,41.25,-70.07,12.2,11.7,160,3,,9.0,30.129921,1020.4,,TRUE,TRUE,,,,,,,CLR,,,,,,,,VFR,-0.7,13.9,10.6,,,,,,,,,METAR,12.0
KABY 010553Z AUTO 07006KT 10SM OVC110 22/19 A2999 RMK AO2 SLP152 T02170194 10228 20217 58008,KABY,2023-06-01T05:53:00Z,31.53,-84.2,21.7,19.4,70,6,,10.0,29.991142,1015.2,,TRUE,TRUE,,,,,,,OVC,11000,,,,,,,VFR,-0.8,22.8,21.7,,,,,,,,,METAR,60.0
KABR 010553Z AUTO 01004KT 10SM CLR 18/16 A2982 RMK AO2 SLP094 T01780156 10294 20178 403000150 51014,KABR,2023-06-01T05:53:00Z,45.45,-98.42,17.8,15.6,10,4,,10.0,29.819881,1009.4,,TRUE,TRUE,,,,,,,CLR,,,,,,,,VFR,1.4,29.4,17.8,30.0,15.0,,,,,,,METAR,397.0
PATA 010552Z AUTO 27008G15KT 10SM BKN055 07/M04 A2984 RMK AO2 SLP109 T00671039 10089 20061 51006 TSNO,PATA,2023-06-01T05:52:00Z,65.17,-152.1,6.7,-3.9,270,8,15,10.0,29.840551,1010.9,,TRUE,TRUE,,,TRUE,,,,BKN,5500,,,,,,,VFR,0.6,8.9,6.1,,,,,,,,,METAR,62.0
KVTN 010552Z AUTO 22004KT 10SM CLR 18/13 A2987 RMK AO2 SLP096 T01780133 10272 20172 402830139 51005,KVTN,2023-06-01T05:52:00Z,42.87,-100.55,17.8,13.3,220,4,,10.0,29.870079,1009.6,,TRUE,TRUE,,,,,,,CLR,,,,,,,,VFR,0.5,27.2,17.2,28.3,13.9,,,,,,,METAR,790.0
KTRM 010552Z AUTO 33014G25KT 7SM CLR 21/09 A2971 RMK AO2 PK WND 34027/0513 SLP062 T02060094 10278 20206 51012 $,KTRM,2023-06-01T05:52:00Z,33.63,-116.17,20.6,9.4,330,14,25,7.0,29.71063,1006.2,,TRUE,TRUE,TRUE,,,,,,CLR,,,,,,,,VFR,1.2,27.8,20.6,,,,,,,,,METAR,-39.0
KTOL 010552Z 09003KT 10SM CLR 18/12 A3007 RMK AO2 SLP178 T01780117 10272 20178 50001,KTOL,2023-06-01T05:52:00Z,41.58,-83.8,17.8,11.7,90,3,,10.0,30.070866,1017.8,,,TRUE,,,,,,,CLR,,,,,,,,VFR,0.1,27.2,17.8,,,,,,,,,METAR,206.0
KTAN 010552Z AUTO 00000KT 7SM CLR 09/08 A3013 RMK AO2 SLP204 T00940078 10194 20089 58005,KTAN,2023-06-01T05:52:00Z,41.88,-71.02,9.4,7.8,0,0,,7.0,30.129921,1020.4,,TRUE,TRUE,,,,,,,CLR,,,,,,,,VFR,-0.5,19.4,8.9,,,,,,,,,METAR,8.0
KSUX 010552Z AUTO 12006KT 10SM CLR 20/17 A2988 RMK AO2 SLP108 T02000167 10267 20200 403220172 53010,KSUX,2023-06-01T05:52:00Z,42.38,-96.38,20.0,16.7,120,6,,10.0,29.878937,1010.8,,TRUE,TRUE,,,,,,,CLR,,,,,,,,VFR,1.0,26.7,20.0,32.2,17.2,,,,,,,METAR,332.0
KSPS 010552Z 12006KT 10SM CLR 22/18 A2986 RMK AO2 SLP097 T02170183 10300 20217 403170183 50004,KSPS,2023-06-01T05:52:00Z,33.98,-98.5,21.7,18.3,120,6,,10.0,29.861221,1009.7,,,TRUE,,,,,,,CLR,,,,,,,,VFR,0.4,30.0,21.7,31.7,18.3,,,,,,,METAR,310.0
KSPI 010552Z AUTO 00000KT 10SM CLR 22/16 A2999 RMK AO2 SLP148 T02220156 403220167 53004 $,KSPI,2023-06-01T05:52:00Z,39.85,-89.68,22.2,15.6,0,0,,10.0,29.991142,1014.8,,TRUE,TRUE,TRUE,,,,,,CLR,,,,,,,,VFR,0.4,,,32.2,16.7,,,,,,,METAR,179.0
KSGF 010552Z 14006KT 10SM CLR 19/17 A2997 RMK AO2 SLP139 T01940172 10244 20189 402670183 50003,KSGF,2023-06-01T05:52:00Z,37.23,-93.38,19.4,17.2,140,6,,10.0,29.970472,1013.9,,,TRUE,,,,,,,CLR,,,,,,,,VFR,0.3,24.4,18.9,26.7,18.3,,,,,,,METAR,387.0
KREO 010552Z AUTO 33004KT 13/10 A2988 RMK AO1 SLP093 T01280100 10217 20111 51011,KREO,2023-06-01T05:52:00Z,42.58,-117.87,12.8,10.0,330,4,,,29.878937,1009.3,,TRUE,TRUE,,,,,,,,,,,,,,,,1.1,21.7,11.1,,,,,,,,,METAR,1237.0
KRAP 010552Z AUTO 27003KT 10SM CLR 16/12 A2983 RMK AO2 SLP079 T01560117 10250 20150 50002,KRAP,2023-06-01T05:52:00Z,44.05,-103.05,15.6,11.7,270,3,,10.0,29.828741,1007.9,,TRUE,TRUE,,,,,,,CLR,,,,,,,,VFR,0.2,25.0,15.0,,,,,,,,,METAR,965.0
KPYM 010552Z AUTO 21005KT 10SM CLR 13/11 A3013 RMK AO2 SLP206 T01330111 10189 20122 58004,KPYM,2023-06-01T05:52:00Z,41.92,-70.73,13.3,11.1,210,5,,10.0,30.129921,1020.6,,TRUE,TRUE,,,,,,,CLR,,,,,,,,VFR,-0.4,18.9,12.2,,,,,,,,,METAR,42.0
KPWK 010552Z AUTO 00000KT 10SM CLR 19/16 A3001 RMK AO2 SLP158 T01940161 10283 20194 403170167 55000,KPWK,2023-06-01T05:52:00Z,42.12,-87.9,19.4,16.1,0,0,,10.0,30.008858,1015.8,,TRUE,TRUE,,,,,,,CLR,,,,,,,,VFR,0.0,28.3,19.4,31.7,16.7,,,,,,,METAR,194.0
KPPF 010552Z AUTO 15004KT 10SM CLR 23/16 A2993 RMK AO2 SLP123 T02280161 10289 20228 403000183 53003,KPPF,2023-06-01T05:52:00Z,37.33,-95.5,22.8,16.1,150,4,,10.0,29.929134,1012.3,,TRUE,TRUE,,,,,,,CLR,,,,,,,,VFR,0.3,28.9,22.8,30.0,18.3,,,,,,,METAR,265.0
KP69 010552Z AUTO 00000KT 14/13 A2988 RMK AO1 SLP106 P0001 60003 T01390133 10172 20139 51010,KP69,2023-06-01T05:52:00Z,46.15,-115.6,13.9,13.3,0,0,,,29.878937,1010.6,,TRUE,TRUE,,,,,,,,,,,,,,,,1.0,17.2,13.9,,,0.01,,0.03,,,,METAR,447.0
KORE 010552Z AUTO 00000KT 10SM CLR 12/09 A3014 RMK AO2 SLP207 60000 T01170089 10239 20117 58002,KORE,2023-06-01T05:52:00Z,42.57,-72.28,11.7,8.9,0,0,,10.0,30.138779,1020.7,,TRUE,TRUE,,,,,,,CLR,,,,,,,,VFR,-0.2,23.9,11.7,,,,,0.005,,,,METAR,165.0
KOMA 010552Z 12006KT 10SM SCT250 22/16 A2989 RMK AO2 SLP111 T02170161 10289 20211 403110183 53005,KOMA,2023-06-01T05:52:00Z,41.32,-95.9,21.7,16.1,120,6,,10.0,29.890747,1011.1,,,TRUE,,,,,,,SCT,25000,,,,,,,VFR,0.5,28.9,21.1,31.1,18.3,,,,,,,METAR,299.0
KOKC 010552Z 15007KT 10SM SCT250 22/18 A2989 RMK AO2 SLP108 T02170178 10272 20211 403060178 50004,KOKC,2023-06-01T05:52:00Z,35.38,-97.6,21.7,17.8,150,7,,10.0,29.890747,1010.8,,,TRUE,,,,,,,SCT,25000,,,,,,,VFR,0.4,27.2,21.1,30.6,17.8,,,,,,,METAR,391.0
KNZY 010552Z 29005KT 10SM FEW017 FEW035 SCT049 16/13 A2993 RMK AO2 SLP134 T01610133 10178 20156 51008,KNZY,2023-06-01T05:52:00Z,32.7,-117.22,16.1,13.3,290,5,,10.0,29.929134,1013.4,,,TRUE,,,,,,,FEW,1700,FEW,3500,SCT,4900,,,VFR,0.8,17.8,15.6,,,,,,,,,METAR,4.0
KNRB 010552Z AUTO 07015KT 10SM SCT060 24/22 A2993 RMK AO2 SLP135 T02440222 10256 20244 58016,KNRB,2023-06-01T05:52:00Z,30.38,-81.42,24.4,22.2,70,15,,10.0,29.929134,1013.5,,TRUE,TRUE,,,,,,,SCT,6000,,,,,,,VFR,-1.6,25.6,24.4,,,,,,,,,METAR,4.0
KNHK 010552Z AUTO 05005KT 10SM CLR 18/15 A3008 RMK AO2 SLP188 T01830150 10228 20183 58010 $,KNHK,2023-06-01T05:52:00Z,38.28,-76.4,18.3,15.0,50,5,,10.0,30.079725,1018.8,,TRUE,TRUE,TRUE,,,,,,CLR,,,,,,,,VFR,-1.0,22.8,18.3,,,,,,,,,METAR,5.0
KNFW 010552Z AUTO 10005KT 10SM CLR 24/18 A2987 RMK AO2 SLP098 T02440183 10300 20244 403170194 58000 TSNO CHINO S VISNO S $,KNFW,2023-06-01T05:52:00Z,32.78,-97.43,24.4,18.3,100,5,,10.0,29.870079,1009.8,,TRUE,TRUE,TRUE,,TRUE,,,,CLR,,,,,,,,VFR,0.0,30.0,24.4,31.7,19.4,,,,,,,METAR,188.0
KN60 010552Z AUTO 09005KT 16/14 A2986 RMK AO1 SLP106 T01610144 10217 20161 402440111 51010,KN60,2023-06-01T05:52:00Z,47.65,-101.43,16.1,14.4,90,5,,,29.861221,1010.6,,TRUE,TRUE,,,,,,,,,,,,,,,,1.0,21.7,16.1,24.4,11.1,,,,,,,METAR,582.0
KMWH 010552Z AUTO 25007KT 10SM CLR 15/03 A2987 RMK AO2 SLP112 T01500028 10244 20150 51025,KMWH,2023-06-01T05:52:00Z,47.2,-119.32,15.0,2.8,250,7,,10.0,29.870079,1011.2,,TRUE,TRUE,,,,,,,CLR,,,,,,,,VFR,2.5,24.4,15.0,,,,,,,,,METAR,355.0
KMLI 010552Z AUTO 14006KT 10SM CLR 23/16 A2996 RMK AO2 SLP140 T02330156 10317 20228 403390144 51007,KMLI,2023-06-01T05:52:00Z,41.45,-90.52,23.3,15.6,140,6,,10.0,29.958662,1014.0,,TRUE,TRUE,,,,,,,CLR,,,,,,,,VFR,0.7,31.7,22.8,33.9,14.4,,,,,,,METAR,174.0
KMLF 010552Z AUTO 11004KT 10SM CLR 12/M01 A2984 RMK AO2 SLP049 T01171006 10233 20106 50010,KMLF,2023-06-01T05:52:00Z,38.42,-113.02,11.7,-0.6,110,4,,10.0,29.840551,1004.9,,TRUE,TRUE,,,,,,,CLR,,,,,,,,VFR,1.0,23.3,10.6,,,,,,,,,METAR,1537.0
KMKE 010552Z 00000KT 10SM CLR 19/14 A3002 RMK AO2 SLP160 T01890144 10261 20189 403000178 53006 $,KMKE,2023-06-01T05:52:00Z,42.95,-87.9,18.9,14.4,0,0,,10.0,30.02067,1016.0,,,TRUE,TRUE,,,,,,CLR,,,,,,,,VFR,0.6,26.1,18.9,30.0,17.8,,,,,,,METAR,203.0
KMHK 010552Z AUTO 00000KT 10SM FEW046 BKN065 20/17 A2989 RMK AO2 LTG DSNT E AND SE RAB0459E42 TSE07 SLP113 P0000 60057 T02000167 10239 20194 403110194 50005,KMHK,2023-06-01T05:52:00Z,39.13,-96.68,20.0,16.7,0,0,,10.0,29.890747,1011.3,,TRUE,TRUE,,,,,,,FEW,4600,BKN,6500,,,,,VFR,0.5,23.9,19.4,31.1,19.4,0.005,,0.57,,,,METAR,320.0
KMFD 010552Z AUTO 13004KT 10SM CLR 17/08 A3011 RMK AO2 SLP187 T01670083 10261 20161 58001,KMFD,2023-06-01T05:52:00Z,40.82,-82.52,16.7,8.3,130,4,,10.0,30.109253,1018.7,,TRUE,TRUE,,,,,,,CLR,,,,,,,,VFR,-0.1,26.1,16.1,,,,,,,,,METAR,394.0
KMEB 010552Z AUTO 10SM CLR 18/17 A3005 RMK AO2 SLP174 T01830167 10239 20183 56012 $,KMEB,2023-06-01T05:52:00Z,34.78,-79.37,18.3,16.7,,,,10.0,30.050198,1017.4,,TRUE,TRUE,TRUE,,,,,,CLR,,,,,,,,VFR,-1.2,23.9,18.3,,,,,,,,,METAR,65.0
KMDH 010552Z AUTO 00000KT 9SM CLR 21/18 A2999 RMK AO2 SLP151 T02110178 10300 20206 403110183 53003,KMDH,2023-06-01T05:52:00Z,37.78,-89.25,21.1,17.8,0,0,,9.0,29.991142,1015.1,,TRUE,TRUE,,,,,,,CLR,,,,,,,,VFR,0.3,30.0,20.6,31.1,18.3,,,,,,,METAR,122.0
KMBG 010552Z AUTO 07013KT 10SM BKN075 19/14 A2980 RMK AO2 SLP086 T01890144 10261 20189 402670183 51007,KMBG,2023-06-01T05:52:00Z,45.55,-100.42,18.9,14.4,70,13,,10.0,29.799213,1008.6,,TRUE,TRUE,,,,,,,BKN,7500,,,,,,,VFR,0.7,26.1,18.9,26.7,18.3,,,,,,,METAR,515.0
KLWC 010552Z AUTO 12006KT 7SM CLR 22/19 A2990 RMK AO1 SLP119 T02170194 10261 20200 402940183 50003,KLWC,2023-06-01T05:52:00Z,39.02,-95.22,21.7,19.4,120,6,,7.0,29.899607,1011.9,,TRUE,TRUE,,,,,,,CLR,,,,,,,,VFR,0.3,26.1,20.0,29.4,18.3,,,,,,,METAR,252.0
KIOW 010552Z AUTO 00000KT 10SM CLR 21/16 A2997 RMK AO2 SLP142 T02110161 10300 20206 403280144 51007,KIOW,2023-06-01T05:52:00Z,41.63,-91.55,21.1,16.1,0,0,,10.0,29.970472,1014.2,,TRUE,TRUE,,,,,,,CLR,,,,,,,,VFR,0.7,30.0,20.6,32.8,14.4,,,,,,,METAR,199.0
KIEN 010552Z AUTO 25010G20KT 10SM CLR 16/11 A2987 RMK AO2 PK WND 25027/0522 SLP086 T01610106 10244 20161 50009,KIEN,2023-06-01T05:52:00Z,43.03,-102.52,16.1,10.6,250,10,20,10.0,29.870079,1008.6,,TRUE,TRUE,,,,,,,CLR,,,,,,,,VFR,0.9,24.4,16.1,,,,,,,,,METAR,1002.0
KIAD 010552Z 00000KT 10SM CLR 12/09 A3011 RMK AO2 SLP195 T01170089 10228 20117 58006,KIAD,2023-06-01T05:52:00Z,38.93,-77.45,11.7,8.9,0,0,,10.0,30.109253,1019.5,,,TRUE,,,,,,,CLR,,,,,,,,VFR,-0.6,22.8,11.7,,,,,,,,,METAR,90.0
KHUT 010552Z AUTO 18004KT 10SM CLR 20/16 A2989 RMK AO2 SLP103 T02000156 10306 20200 403170139 53015,KHUT,2023-06-01T05:52:00Z,38.07,-97.87,20.0,15.6,180,4,,10.0,29.890747,1010.3,,TRUE,TRUE,,,,,,,CLR,,,,,,,,VFR,1.5,30.6,20.0,31.7,13.9,,,,,,,METAR,464.0
KHRL 010552Z AUTO 16005KT 10SM CLR 22/22 A2984 RMK AO2 SLP105 T02220217 10300 20217 403330194 50007,KHRL,2023-06-01T05:52:00Z,26.23,-97.65,22.2,21.7,160,5,,10.0,29.840551,1010.5,,TRUE,TRUE,,,,,,,CLR,,,,,,,,VFR,0.7,30.0,21.7,33.3,19.4,,,,,,,METAR,9.0
KHIE 010552Z AUTO 00000KT 10SM CLR 09/08 A3013 RMK AO2 SLP202 T00890078 10233 20089 51006,KHIE,2023-06-01T05:52:00Z,44.37,-71.55,8.9,7.8,0,0,,10.0,30.129921,1020.2,,TRUE,TRUE,,,,,,,CLR,,,,,,,,VFR,0.6,23.3,8.9,,,,,,,,,METAR,321.0
KGLS 010552Z AUTO 16007KT 10SM CLR 25/21 A2988 RMK AO2 SLP119 T02500211 10272 20244 402890239 50001,KGLS,2023-06-01T05:52:00Z,29.27,-94.87,25.0,21.1,160,7,,10.0,29.878937,1011.9,,TRUE,TRUE,,,,,,,CLR,,,,,,,,VFR,0.1,27.2,24.4,28.9,23.9,,,,,,,METAR,2.0
KFIT 010552Z AUTO 00000KT 10SM CLR 18/07 A3011 RMK AO2 SLP194 T01780067 10244 20161 58006,KFIT,2023-06-01T05:52:00Z,42.55,-71.75,17.8,6.7,0,0,,10.0,30.109253,1019.4,,TRUE,TRUE,,,,,,,CLR,,,,,,,,VFR,-0.6,24.4,16.1,,,,,,,,,METAR,102.0
KEST 010552Z AUTO 18007KT 10SM CLR 19/16 A2991 RMK AO2 SLP119 T01940161 10256 20194 403000161 51012,KEST,2023-06-01T05:52:00Z,43.4,-94.75,19.4,16.1,180,7,,10.0,29.911417,1011.9,,TRUE,TRUE,,,,,,,CLR,,,,,,,,VFR,1.2,25.6,19.4,30.0,16.1,,,,,,,METAR,401.0
KDVN 010552Z AUTO 15007KT 10SM CLR 24/15 A2999 RMK AO2 SLP146 T02390150 10311 20222 403330167 51007,KDVN,2023-06-01T05:52:00Z,41.62,-90.58,23.9,15.0,150,7,,10.0,29.991142,1014.6,,TRUE,TRUE,,,,,,,CLR,,,,,,,,VFR,0.7,31.1,22.2,33.3,16.7,,,,,,,METAR,227.0
KDPA 010552Z 00000KT 10SM CLR 19/15 A3000 RMK AO2 SLP154 T01890150 10244 20189 403220183 53003,KDPA,2023-06-01T05:52:00Z,41.88,-88.25,18.9,15.0,0,0,,10.0,30.0,1015.4,,,TRUE,,,,,,,CLR,,,,,,,,VFR,0.3,24.4,18.9,32.2,18.3,,,,,,,METAR,228.0
KDCA 010552Z 01004KT 10SM CLR 17/13 A3011 RMK AO2 SLP196 T01720133 10228 20172 58005,KDCA,2023-06-01T05:52:00Z,38.85,-77.03,17.2,13.3,10,4,,10.0,30.109253,1019.6,,,TRUE,,,,,,,CLR,,,,,,,,VFR,-0.5,22.8,17.2,,,,,,,,,METAR,4.0
KCVG 010552Z 13003KT 10SM FEW300 21/16 A3005 RMK AO2 SLP167 T02110161 10272 20206 50000,KCVG,2023-06-01T05:52:00Z,39.05,-84.67,21.1,16.1,130,3,,10.0,30.050198,1016.7,,,TRUE,,,,,,,FEW,30000,,,,,,,VFR,0.0,27.2,20.6,,,,,,,,,METAR,264.0
KCNU 010552Z AUTO 12006KT 10SM CLR 22/18 A2992 RMK AO2 SLP120 T02220178 10294 20222 403060194 53003,KCNU,2023-06-01T05:52:00Z,37.67,-95.48,22.2,17.8,120,6,,10.0,29.920275,1012.0,,TRUE,TRUE,,,,,,,CLR,,,,,,,,VFR,0.3,29.4,22.2,30.6,19.4,,,,,,,METAR,301.0
KCLT 010552Z 33004KT 10SM SCT250 18/16 A3007 RMK AO2 SLP190 T01780156 10239 20178 58012,KCLT,2023-06-01T05:52:00Z,35.22,-80.95,17.8,15.6,330,4,,10.0,30.070866,1019.0,,,TRUE,,,,,,,SCT,25000,,,,,,,VFR,-1.2,23.9,17.8,,,,,,,,,METAR,223.0
KCKV 010552Z AUTO 13003KT 10SM FEW120 21/17 A3000 RMK AO2 SLP155 T02110172 10272 20211 403060167 56001,KCKV,2023-06-01T05:52:00Z,36.62,-87.42,21.1,17.2,130,3,,10.0,30.0,1015.5,,TRUE,TRUE,,,,,,,FEW,12000,,,,,,,VFR,-0.1,27.2,21.1,30.6,16.7,,,,,,,METAR,166.0
KCID 010552Z AUTO 00000KT 9SM CLR 19/15 A2995 RMK AO2 SLP137 T01940150 10300 20194 403220144 53007,KCID,2023-06-01T05:52:00Z,41.88,-91.72,19.4,15.0,0,0,,9.0,29.949802,1013.7,,TRUE,TRUE,,,,,,,CLR,,,,,,,,VFR,0.7,30.0,19.4,32.2,14.4,,,,,,,METAR,257.0
KCFV 010552Z AUTO 15005KT 10SM CLR 21/18 A2990 RMK AO2 SLP118 T02110178 10289 20211 403000189 51003,KCFV,2023-06-01T05:52:00Z,37.08,-95.57,21.1,17.8,150,5,,10.0,29.899607,1011.8,,TRUE,TRUE,,,,,,,CLR,,,,,,,,VFR,0.3,28.9,21.1,30.0,18.9,,,,,,,METAR,228.0
KBML 010552Z AUTO 00000KT 10SM CLR 09/08 A3013 RMK AO2 SLP201 T00940078 10228 20083 51005 $,KBML,2023-06-01T05:52:00Z,44.58,-71.18,9.4,7.8,0,0,,10.0,30.129921,1020.1,,TRUE,TRUE,TRUE,,,,,,CLR,,,,,,,,VFR,0.5,22.8,8.3,,,,,,,,,METAR,344.0
KBLU 010552Z AUTO 06003KT 10SM CLR 11/09 A2997 RMK AO2 SLP089 T01110089 10172 20106 50003,KBLU,2023-06-01T05:52:00Z,39.28,-120.7,11.1,8.9,60,3,,10.0,29.970472,1008.9,,TRUE,TRUE,,,,,,,CLR,,,,,,,,VFR,0.3,17.2,10.6,,,,,,,,,METAR,1605.0
KBLH 010552Z AUTO 22010KT 10SM CLR 26/09 A2969 RMK AO2 SLP049 T02560089 10317 20256 51014,KBLH,2023-06-01T05:52:00Z,33.62,-114.72,25.6,8.9,220,10,,10.0,29.68996,1004.9,,TRUE,TRUE,,,,,,,CLR,,,,,,,,VFR,1.4,31.7,25.6,,,,,,,,,METAR,119.0
KBLF 010552Z AUTO VRB03KT 10SM CLR 14/12 A3014 RMK AO2 SLP185 T01390122 10183 20139 58012,KBLF,2023-06-01T05:52:00Z,37.3,-81.2,13.9,12.2,0,3,,10.0,30.138779,1018.5,,TRUE,TRUE,,,,,,,CLR,,,,,,,,VFR,-1.2,18.3,13.9,,,,,,,,,METAR,871.0
KBKB 010552Z AUTO 00000KT 8SM CLR 21/19 A2988 RMK AO2 SLP144 T02060189 10278 20200 403170178 50008,KBKB,2023-06-01T05:52:00Z,31.02,-92.92,20.6,18.9,0,0,,8.0,29.878937,1014.4,,TRUE,TRUE,,,,,,,CLR,,,,,,,,VFR,0.8,27.8,20.0,31.7,17.8,,,,,,,METAR,74.0
KBIS 010552Z 00000KT 10SM CLR 14/14 A2986 RMK AO2 SLP109 T01440139 10222 20139 402330139 51009,KBIS,2023-06-01T05:52:00Z,46.77,-100.75,14.4,13.9,0,0,,10.0,29.861221,1010.9,,,TRUE,,,,,,,CLR,,,,,,,,VFR,0.9,22.2,13.9,23.3,13.9,,,,,,,METAR,506.0
KBDR 010552Z AUTO 36004KT 10SM CLR 14/12 A3014 RMK AO2 SLP207 T01390122 10172 20139 58002,KBDR,2023-06-01T05:52:00Z,41.17,-73.13,13.9,12.2,360,4,,10.0,30.138779,1020.7,,TRUE,TRUE,,,,,,,CLR,,,,,,,,VFR,-0.2,17.2,13.9,,,,,,,,,METAR,5.0
KBAN 010552Z AUTO 00000KT 10SM CLR 06/02 A2999 RMK AO2 SLP081 T00560022 10111 20056 53004 PWINO $,KBAN,2023-06-01T05:52:00Z,38.35,-119.52,5.6,2.2,0,0,,10.0,29.991142,1008.1,,TRUE,TRUE,TRUE,,,,TRUE,,CLR,,,,,,,,VFR,0.4,11.1,5.6,,,,,,,,,METAR,2067.0
KATL 010552Z 10006KT 10SM BKN250 19/16 A3005 RMK AO2 SLP168 T01940161 10239 20194 58008 $,KATL,2023-06-01T05:52:00Z,33.63,-84.45,19.4,16.1,100,6,,10.0,30.050198,1016.8,,,TRUE,TRUE,,,,,,BKN,25000,,,,,,,VFR,-0.8,23.9,19.4,,,,,,,,,METAR,309.0
KARR 010552Z 07003KT 9SM CLR 17/16 A3000 RMK AO2 SLP153 T01670156 10256 20167 403220167 53001,KARR,2023-06-01T05:52:00Z,41.77,-88.48,16.7,15.6,70,3,,9.0,30.0,1015.3,,,TRUE,,,,,,,CLR,,,,,,,,VFR,0.1,25.6,16.7,32.2,16.7,,,,,,,METAR,213.0
KAQW 010552Z AUTO 00000KT 10SM CLR 12/09 A3014 RMK AO2 SLP205 T01220094 10256 20117 50000 $,KAQW,2023-06-01T05:52:00Z,42.7,-73.17,12.2,9.4,0,0,,10.0,30.138779,1020.5,,TRUE,TRUE,TRUE,,,,,,CLR,,,,,,,,VFR,0.0,25.6,11.7,,,,,,,,,METAR,196.0
KALS 010552Z AUTO 14006KT 10SM BKN065 OVC080 08/ A3008 RMK AO2 SLP111 60016 T0083 10106 20078 51002 $,KALS,2023-06-01T05:52:00Z,37.43,-105.87,8.3,,140,6,,10.0,30.079725,1011.1,,TRUE,TRUE,TRUE,,,,,,BKN,6500,OVC,8000,,,,,VFR,0.2,10.6,7.8,,,,,0.16,,,,METAR,2299.0
KAFN 010552Z AUTO 17005KT 10SM CLR 15/09 A3014 RMK AO2 SLP205 T01500089 10250 20133 58006,KAFN,2023-06-01T05:52:00Z,42.8,-72.0,15.0,8.9,170,5,,10.0,30.138779,1020.5,,TRUE,TRUE,,,,,,,CLR,,,,,,,,VFR,-0.6,25.0,13.3,,,,,,,,,METAR,308.0
KABQ 010552Z 09007G25KT 10SM SCT100 BKN140 19/10 A2990 RMK AO2 PK WND 08026/0525 SLP042 T01890100 10233 20183 51023,KABQ,2023-06-01T05:52:00Z,35.05,-106.62,18.9,10.0,90,7,25,10.0,29.899607,1004.2,,,TRUE,,,,,,,SCT,10000,BKN,14000,,,,,VFR,2.3,23.3,18.3,,,,,,,,,METAR,1620.0
PHBK 010551Z AUTO 13004KT 10SM CLR 25/19 A3010 RMK AO2 SLP195 T02500189 10294 20250 53011,PHBK,2023-06-01T05:51:00Z,22.03,-159.78,25.0,18.9,130,4,,10.0,30.100393,1019.5,,TRUE,TRUE,,,,,,,CLR,,,,,,,,VFR,1.1,29.4,25.0,,,,,,,,,METAR,5.0
PAMD 010551Z AUTO 00000KT 10SM CLR 07/03 A2994 RMK AO2 SLP126 6//// T00720033 10094 20067 53008 PNO $,PAMD,2023-06-01T05:51:00Z,59.43,-146.3,7.2,3.3,0,0,,10.0,29.940945,1012.6,,TRUE,TRUE,TRUE,,,,,,CLR,,,,,,,,VFR,0.8,9.4,6.7,,,,,,,,,METAR,20.0
MUGM 010551Z 35007KT 10SM SCT050 SCT060 BKN250 24/24 A2992 R KM5j(JS133 60033 T02440244 10283 20244 58015 $,MUGM,2023-06-01T05:51:00Z,19.9,-75.2,24.4,24.4,350,7,,10.0,29.920275,,,,,TRUE,,,,,,SCT,5000,SCT,6000,BKN,25000,,,VFR,-1.5,28.3,24.4,,,,,0.33,,,,METAR,21.0
KYNG 010551Z 16004KT 10SM CLR 15/08 A3012 RMK AO2 SLP193 T01500078 10261 20122 50000,KYNG,2023-06-01T05:51:00Z,41.25,-80.67,15.0,7.8,160,4,,10.0,30.121063,1019.3,,,TRUE,,,,,,,CLR,,,,,,,,VFR,0.0,26.1,12.2,,,,,,,,,METAR,356.0
KXWA 010551Z AUTO 11008KT 10SM CLR 17/13 A2984 RMK AO2 SLP099 T01670133 10261 20167 402830133 51003,KXWA,2023-06-01T05:51:00Z,48.27,-103.75,16.7,13.3,110,8,,10.0,29.840551,1009.9,,TRUE,TRUE,,,,,,,CLR,,,,,,,,VFR,0.3,26.1,16.7,28.3,13.3,,,,,,,METAR,717.0
KVNY 010551Z AUTO 00000KT 10SM OVC024 17/09 A2991 RMK AO2 SLP121 T01670094 10178 20161 51005,KVNY,2023-06-01T05:51:00Z,34.22,-118.48,16.7,9.4,0,0,,10.0,29.911417,1012.1,,TRUE,TRUE,,,,,,,OVC,2400,,,,,,,MVFR,0.5,17.8,16.1,,,,,,,,,METAR,241.0
KVCT 010551Z AUTO 12005KT 8SM CLR 22/22 A2986 RMK AO2 SLP108 T02220217 10289 20222 403220200 58003,KVCT,2023-06-01T05:51:00Z,28.87,-96.93,22.2,21.7,120,5,,8.0,29.861221,1010.8,,TRUE,TRUE,,,,,,,CLR,,,,,,,,VFR,-0.3,28.9,22.2,32.2,20.0,,,,,,,METAR,33.0
KUGN 010551Z AUTO 00000KT 10SM CLR 17/15 A3000 RMK AO2 SLP151 T01670150 10261 20167 402830139 50001,KUGN,2023-06-01T05:51:00Z,42.42,-87.87,16.7,15.0,0,0,,10.0,30.0,1015.1,,TRUE,TRUE,,,,,,,CLR,,,,,,,,VFR,0.1,26.1,16.7,28.3,13.9,,,,,,,METAR,217.0
KTPL 010551Z AUTO 15007KT CLR 23/19 A2988 RMK AO2 SLP104 T02280189 10289 20228 403110183 50002 PWINO RVRNO $,KTPL,2023-06-01T05:51:00Z,31.15,-97.4,22.8,18.9,150,7,,,29.878937,1010.4,,TRUE,TRUE,TRUE,,,,TRUE,,CLR,,,,,,,,,0.2,28.9,22.8,31.1,18.3,,,,,,,METAR,206.0
KTEB 010551Z 00000KT 10SM CLR 14/12 A3013 RMK AO2 SLP204 T01440122 10200 20128 58001,KTEB,2023-06-01T05:51:00Z,40.87,-74.05,14.4,12.2,0,0,,10.0,30.129921,1020.4,,,TRUE,,,,,,,CLR,,,,,,,,VFR,-0.1,20.0,12.8,,,,,,,,,METAR,3.0
KSTL 010551Z 16003KT 10SM FEW120 FEW250 26/16 A2999 RMK AO2 SLP141 T02560156 10306 20256 403280206 53007,KSTL,2023-06-01T05:51:00Z,38.75,-90.37,25.6,15.6,160,3,,10.0,29.991142,1014.1,,,TRUE,,,,,,,FEW,12000,FEW,25000,,,,,VFR,0.7,30.6,25.6,32.8,20.6,,,,,,,METAR,163.0
KSNT 010551Z AUTO 11003KT 08/07 A2995 RMK AO1 SLP081 T00830067 10172 20078 50001,KSNT,2023-06-01T05:51:00Z,44.17,-114.93,8.3,6.7,110,3,,,29.949802,1008.1,,TRUE,TRUE,,,,,,,,,,,,,,,,0.1,17.2,7.8,,,,,,,,,METAR,1980.0
KSMX 010551Z AUTO 27005KT 8SM OVC014 12/10 A2995 RMK AO2 SLP143 T01220100 10161 20122 51005,KSMX,2023-06-01T05:51:00Z,34.9,-120.45,12.2,10.0,270,5,,8.0,29.949802,1014.3,,TRUE,TRUE,,,,,,,OVC,1400,,,,,,,MVFR,0.5,16.1,12.2,,,,,,,,,METAR,73.0
KSMO 010551Z AUTO 00000KT 10SM OVC037 16/11 A2991 RMK AO2 SLP129 T01610111 10172 20156 51004,KSMO,2023-06-01T05:51:00Z,34.02,-118.45,16.1,11.1,0,0,,10.0,29.911417,1012.9,,TRUE,TRUE,,,,,,,OVC,3700,,,,,,,VFR,0.4,17.2,15.6,,,,,,,,,METAR,56.0
KSLK 010551Z AUTO 00000KT 10SM CLR 11/09 A3015 RMK AO2 SLP204 T01060094 10244 20094 50003,KSLK,2023-06-01T05:51:00Z,44.4,-74.2,10.6,9.4,0,0,,10.0,30.15059,1020.4,,TRUE,TRUE,,,,,,,CLR,,,,,,,,VFR,0.3,24.4,9.4,,,,,,,,,METAR,502.0
KSAT 010551Z 14009KT 10SM FEW012 23/21 A2986 RMK AO2 SLP095 T02330206 10294 20233 403110194 58002,KSAT,2023-06-01T05:51:00Z,29.53,-98.48,23.3,20.6,140,9,,10.0,29.861221,1009.5,,,TRUE,,,,,,,FEW,1200,,,,,,,VFR,-0.2,29.4,23.3,31.1,19.4,,,,,,,METAR,246.0
KSAD 010551Z AUTO 30011KT 10SM CLR 22/01 A2981 RMK AO2 SLP042 T02220006 10322 20222 51022,KSAD,2023-06-01T05:51:00Z,32.85,-109.63,22.2,0.6,300,11,,10.0,29.811024,1004.2,,TRUE,TRUE,,,,,,,CLR,,,,,,,,VFR,2.2,32.2,22.2,,,,,,,,,METAR,937.0
KROW 010551Z AUTO 19007KT 10SM SCT043 23/15 A2984 RMK AO2 SLP038 T02280150 10289 20222 53030 $,KROW,2023-06-01T05:51:00Z,33.3,-104.5,22.8,15.0,190,7,,10.0,29.840551,1003.8,,TRUE,TRUE,TRUE,,,,,,SCT,4300,,,,,,,VFR,3.0,28.9,22.2,,,,,,,,,METAR,1105.0
KRDU 010551Z 02003KT 10SM FEW250 18/16 A3006 RMK AO2 SLP175 T01780161 10244 20167 58015,KRDU,2023-06-01T05:51:00Z,35.9,-78.78,17.8,16.1,20,3,,10.0,30.059055,1017.5,,,TRUE,,,,,,,FEW,25000,,,,,,,VFR,-1.5,24.4,16.7,,,,,,,,,METAR,121.0
KPWM 010551Z 28004KT 9SM CLR 13/11 A3007 RMK AO2 SLP183 T01280106 10172 20122 57012,KPWM,2023-06-01T05:51:00Z,43.65,-70.3,12.8,10.6,280,4,,9.0,30.070866,1018.3,,,TRUE,,,,,,,CLR,,,,,,,,VFR,-1.2,17.2,12.2,,,,,,,,,METAR,15.0
KPVD 010551Z 21003KT 9SM CLR 12/12 A3014 RMK AO2 SLP206 T01220117 10178 20117 58005,KPVD,2023-06-01T05:51:00Z,41.72,-71.43,12.2,11.7,210,3,,9.0,30.138779,1020.6,,,TRUE,,,,,,,CLR,,,,,,,,VFR,-0.5,17.8,11.7,,,,,,,,,METAR,15.0
KPIT 010551Z 00000KT 10SM CLR 16/07 A3011 RMK AO2 SLP197 T01560067 10261 20156 58003,KPIT,2023-06-01T05:51:00Z,40.47,-80.2,15.6,6.7,0,0,,10.0,30.109253,1019.7,,,TRUE,,,,,,,CLR,,,,,,,,VFR,-0.3,26.1,15.6,,,,,,,,,METAR,339.0
KPHX 010551Z 00000KT 10SM CLR 26/02 A2972 RMK AO2 SLP047 T02560022 10322 20256 51014,KPHX,2023-06-01T05:51:00Z,33.43,-112.02,25.6,2.2,0,0,,10.0,29.719488,1004.7,,,TRUE,,,,,,,CLR,,,,,,,,VFR,1.4,32.2,25.6,,,,,,,,,METAR,338.0
KP59 010551Z AUTO 24007KT 22/ A2996 RMK AO1 SLP136 T0217 10233 20200 53006 $,KP59,2023-06-01T05:51:00Z,47.47,-87.88,21.7,,240,7,,,29.958662,1013.6,,TRUE,TRUE,TRUE,,,,,,,,,,,,,,,0.6,23.3,20.0,,,,,,,,,METAR,185.0
KOXR 010551Z AUTO 28008KT 10SM OVC037 16/13 A2991 RMK AO2 SLP127 T01560128 10172 20156 51005,KOXR,2023-06-01T05:51:00Z,34.2,-119.2,15.6,12.8,280,8,,10.0,29.911417,1012.7,,TRUE,TRUE,,,,,,,OVC,3700,,,,,,,VFR,0.5,17.2,15.6,,,,,,,,,METAR,12.0
KOXC 010551Z AUTO 00000KT 8SM CLR 12/11 A3017 RMK AO2 SLP225 T01170111 10189 20117 58001,KOXC,2023-06-01T05:51:00Z,41.47,-73.13,11.7,11.1,0,0,,8.0,30.171259,1022.5,,TRUE,TRUE,,,,,,,CLR,,,,,,,,VFR,-0.1,18.9,11.7,,,,,,,,,METAR,211.0
KORD 010551Z 00000KT 10SM FEW250 22/17 A3000 RMK AO2 SLP154 T02220172 10289 20222 403280206 53003 $,KORD,2023-06-01T05:51:00Z,41.95,-87.93,22.2,17.2,0,0,,10.0,30.0,1015.4,,,TRUE,TRUE,,,,,,FEW,25000,,,,,,,VFR,0.3,28.9,22.2,32.8,20.6,,,,,,,METAR,202.0
KOCF 010551Z AUTO 04004KT 10SM CLR 23/20 A2991 RMK AO2 SLP128 60000 T02330200 10261 20233 58014 $,KOCF,2023-06-01T05:51:00Z,29.17,-82.22,23.3,20.0,40,4,,10.0,29.911417,1012.8,,TRUE,TRUE,TRUE,,,,,,CLR,,,,,,,,VFR,-1.4,26.1,23.3,,,,,0.005,,,,METAR,24.0
KNYC 010551Z AUTO 00000KT 8SM CLR 16/13 A3017 RMK AO2 SLP207 T01610128 10194 20161 58002 $,KNYC,2023-06-01T05:51:00Z,40.78,-73.97,16.1,12.8,0,0,,8.0,30.171259,1020.7,,TRUE,TRUE,TRUE,,,,,,CLR,,,,,,,,VFR,-0.2,19.4,16.1,,,,,,,,,METAR,33.0
KMPV 010551Z AUTO 00000KT 10SM CLR 12/09 A3016 RMK AO2 SLP212 T01170089 10228 20117 51002,KMPV,2023-06-01T05:51:00Z,44.2,-72.57,11.7,8.9,0,0,,10.0,30.159449,1021.2,,TRUE,TRUE,,,,,,,CLR,,,,,,,,VFR,0.2,22.8,11.7,,,,,,,,,METAR,336.0
KLGU 010551Z AUTO 36011KT 10SM FEW100 17/06 A2982 RMK AO2 SLP052 T01670056 10228 20156 51011,KLGU,2023-06-01T05:51:00Z,41.78,-111.85,16.7,5.6,360,11,,10.0,29.819881,1005.2,,TRUE,TRUE,,,,,,,FEW,10000,,,,,,,VFR,1.1,22.8,15.6,,,,,,,,,METAR,1359.0
KLGA 010551Z 04003KT 10SM FEW250 17/13 A3014 RMK AO2 SLP205 T01670133 10200 20167 58002 $,KLGA,2023-06-01T05:51:00Z,40.78,-73.88,16.7,13.3,40,3,,10.0,30.138779,1020.5,,,TRUE,TRUE,,,,,,FEW,25000,,,,,,,VFR,-0.2,20.0,16.7,,,,,,,,,METAR,9.0
KJFK 010551Z 00000KT 10SM FEW300 15/12 A3015 RMK AO2 SLP209 FU FEW300 T01500122 10167 20144 58002,KJFK,2023-06-01T05:51:00Z,40.63,-73.77,15.0,12.2,0,0,,10.0,30.15059,1020.9,,,TRUE,,,,,,,FEW,30000,,,,,,,VFR,-0.2,16.7,14.4,,,,,,,,,METAR,3.0
KILG 010551Z 02004KT 10SM CLR 16/12 A3013 RMK AO2 SLP202 T01560122 10250 20150 58003 $,KILG,2023-06-01T05:51:00Z,39.67,-75.6,15.6,12.2,20,4,,10.0,30.129921,1020.2,,,TRUE,TRUE,,,,,,CLR,,,,,,,,VFR,-0.3,25.0,15.0,,,,,,,,,METAR,22.0
KIGM 010551Z AUTO 00000KT 10SM CLR 16/04 A2982 RMK AO2 SLP038 60000 T01610039 10256 20161 51003,KIGM,2023-06-01T05:51:00Z,35.25,-113.93,16.1,3.9,0,0,,10.0,29.819881,1003.8,,TRUE,TRUE,,,,,,,CLR,,,,,,,,VFR,0.3,25.6,16.1,,,,,0.005,,,,METAR,1045.0
KHTS 010551Z 11003KT 10SM CLR 18/15 A3006 RMK AO2 SLP172 T01780150 10256 20172 53000,KHTS,2023-06-01T05:51:00Z,38.37,-82.55,17.8,15.0,110,3,,10.0,30.059055,1017.2,,,TRUE,,,,,,,CLR,,,,,,,,VFR,0.0,25.6,17.2,,,,,,,,,METAR,252.0
KHDO 010551Z AUTO 14009KT 10SM CLR 23/21 A2986 RMK AO2 SLP094 T02330206 10306 20233 403170189 58000 $,KHDO,2023-06-01T05:51:00Z,29.37,-99.17,23.3,20.6,140,9,,10.0,29.861221,1009.4,,TRUE,TRUE,TRUE,,,,,,CLR,,,,,,,,VFR,0.0,30.6,23.3,31.7,18.9,,,,,,,METAR,280.0
KGDP 010551Z AUTO 05027KT 7SM FEW120 19/16 A2991 RMK AO2 PK WND 04037/0456 SLPNO T01890156 10317 20189 51014 $,KGDP,2023-06-01T05:51:00Z,31.83,-104.82,18.9,15.6,50,27,,7.0,29.911417,,,TRUE,TRUE,TRUE,,,,,,FEW,12000,,,,,,,VFR,1.4,31.7,18.9,,,,,,,,,METAR,1664.0
KEWR 010551Z 00000KT 10SM FEW250 17/12 A3014 RMK AO2 SLP206 T01720122 10200 20167 58002,KEWR,2023-06-01T05:51:00Z,40.68,-74.17,17.2,12.2,0,0,,10.0,30.138779,1020.6,,,TRUE,,,,,,,FEW,25000,,,,,,,VFR,-0.2,20.0,16.7,,,,,,,,,METAR,2.0
KERI 010551Z AUTO 20003KT 10SM CLR 16/12 A3010 RMK AO2 SLP190 T01610117 10244 20161 53000,KERI,2023-06-01T05:51:00Z,42.08,-80.18,16.1,11.7,200,3,,10.0,30.100393,1019.0,,TRUE,TRUE,,,,,,,CLR,,,,,,,,VFR,0.0,24.4,16.1,,,,,,,,,METAR,222.0
KELP 010551Z 27016G25KT 10SM SCT150 BKN180 28/M08 A2980 RMK AO2 PK WND 27030/0502 SLP007 T02831078 10339 20283 53020 $,KELP,2023-06-01T05:51:00Z,31.82,-106.35,28.3,-7.8,270,16,25,10.0,29.799213,1000.7,,,TRUE,TRUE,,,,,,SCT,15000,BKN,18000,,,,,VFR,2.0,33.9,28.3,,,,,,,,,METAR,1205.0
KEKN 010551Z AUTO 00000KT 10SM CLR 11/09 A3014 RMK AO2 SLP200 T01110094 10239 20111 58005 $,KEKN,2023-06-01T05:51:00Z,38.88,-79.85,11.1,9.4,0,0,,10.0,30.138779,1020.0,,TRUE,TRUE,TRUE,,,,,,CLR,,,,,,,,VFR,-0.5,23.9,11.1,,,,,,,,,METAR,596.0
KDAW 010551Z AUTO 30005KT 10SM CLR 14/12 A3008 RMK AO2 SLP183 T01390117 10211 20133 57009,KDAW,2023-06-01T05:51:00Z,43.28,-70.92,13.9,11.7,300,5,,10.0,30.079725,1018.3,,TRUE,TRUE,,,,,,,CLR,,,,,,,,VFR,-0.9,21.1,13.3,,,,,,,,,METAR,100.0
KCSG 010551Z AUTO 06005KT 10SM BKN037 OVC120 21/19 A3000 RMK AO2 SLP154 60040 T02060194 10278 20200 58010,KCSG,2023-06-01T05:51:00Z,32.52,-84.95,20.6,19.4,60,5,,10.0,30.0,1015.4,,TRUE,TRUE,,,,,,,BKN,3700,OVC,12000,,,,,VFR,-1.0,27.8,20.0,,,,,0.4,,,,METAR,120.0
KCRP 010551Z 15004KT 10SM FEW024 24/23 A2984 RMK AO2 SLP102 T02440233 10294 20244 403280211 50000,KCRP,2023-06-01T05:51:00Z,27.77,-97.5,24.4,23.3,150,4,,10.0,29.840551,1010.2,,,TRUE,,,,,,,FEW,2400,,,,,,,VFR,0.0,29.4,24.4,32.8,21.1,,,,,,,METAR,11.0
KCON 010551Z AUTO 00000KT 10SM CLR 13/11 A3010 RMK AO2 SLP192 T01280106 10244 20128 56003,KCON,2023-06-01T05:51:00Z,43.2,-71.5,12.8,10.6,0,0,,10.0,30.100393,1019.2,,TRUE,TRUE,,,,,,,CLR,,,,,,,,VFR,-0.3,24.4,12.8,,,,,,,,,METAR,102.0
KCMH 010551Z 00000KT 10SM CLR 20/16 A3007 RMK AO2 SLP178 T02000156 10278 20194 51002,KCMH,2023-06-01T05:51:00Z,40.0,-82.88,20.0,15.6,0,0,,10.0,30.070866,1017.8,,,TRUE,,,,,,,CLR,,,,,,,,VFR,0.2,27.8,19.4,,,,,,,,,METAR,257.0
KCLE 010551Z 16003KT 10SM CLR 16/10 A3009 RMK AO2 SLPNO T01610100 10250 20144 53002,KCLE,2023-06-01T05:51:00Z,41.42,-81.85,16.1,10.0,160,3,,10.0,30.088583,,,,TRUE,,,,,,,CLR,,,,,,,,VFR,0.2,25.0,14.4,,,,,,,,,METAR,237.0
KCDJ 010551Z AUTO 00000KT 21/20 A2996 RMK AO1 SLP135 60035 T02060200 10217 20200 402610167 51010,KCDJ,2023-06-01T05:51:00Z,39.82,-93.57,20.6,20.0,0,0,,,29.958662,1013.5,,TRUE,TRUE,,,,,,,,,,,,,,,,1.0,21.7,20.0,26.1,16.7,,,0.35,,,,METAR,234.0
KCAK 010551Z 05006KT 10SM FEW250 14/06 A3011 RMK AO2 SLP191 T01390061 10256 20128 55000,KCAK,2023-06-01T05:51:00Z,40.92,-81.45,13.9,6.1,50,6,,10.0,30.109253,1019.1,,,TRUE,,,,,,,FEW,25000,,,,,,,VFR,0.0,25.6,12.8,,,,,,,,,METAR,369.0
KBKW 010551Z AUTO 00000KT 10SM CLR 13/12 A3014 RMK AO2 SLP185 T01330117 10206 20133 56008,KBKW,2023-06-01T05:51:00Z,37.8,-81.12,13.3,11.7,0,0,,10.0,30.138779,1018.5,,TRUE,TRUE,,,,,,,CLR,,,,,,,,VFR,-0.8,20.6,13.3,,,,,,,,,METAR,762.0
KBHK 010551Z AUTO 13014KT 10SM CLR 18/14 A2983 RMK AO2 SLP077 T01780139 10261 20172 51007,KBHK,2023-06-01T05:51:00Z,46.35,-104.25,17.8,13.9,130,14,,10.0,29.828741,1007.7,,TRUE,TRUE,,,,,,,CLR,,,,,,,,VFR,0.7,26.1,17.2,,,,,,,,,METAR,904.0
KBGD 010551Z AUTO 22006KT 6SM -RA BR OVC095 17/14 A2994 RMK AO2 LTG DSNT E-S SLP104 P0010 60032 T01670144 10211 20161 402890156 58014,KBGD,2023-06-01T05:51:00Z,35.7,-101.4,16.7,14.4,220,6,,6.0,29.940945,1010.4,,TRUE,TRUE,,,,,,-RA BR,OVC,9500,,,,,,,VFR,-1.4,21.1,16.1,28.9,15.6,0.1,,0.32,,,,METAR,928.0
KBED 010551Z AUTO 23003KT 10SM CLR 15/11 A3010 RMK AO2 SLP204 T01500111 10228 20144 58007,KBED,2023-06-01T05:51:00Z,42.47,-71.3,15.0,11.1,230,3,,10.0,30.100393,1020.4,,TRUE,TRUE,,,,,,,CLR,,,,,,,,VFR,-0.7,22.8,14.4,,,,,,,,,METAR,39.0
KBDL 010551Z 19003KT 10SM CLR 15/13 A3014 RMK AO2 SLP205 T01500128 10233 20150 56001,KBDL,2023-06-01T05:51:00Z,41.93,-72.68,15.0,12.8,190,3,,10.0,30.138779,1020.5,,,TRUE,,,,,,,CLR,,,,,,,,VFR,-0.1,23.3,15.0,,,,,,,,,METAR,52.0
KBAZ 010551Z AUTO 16005KT 10SM CLR 23/21 A2986 RMK AO2 SLP101 T02280211 10300 20228 58000,KBAZ,2023-06-01T05:51:00Z,29.72,-98.05,22.8,21.1,160,5,,10.0,29.861221,1010.1,,TRUE,TRUE,,,,,,,CLR,,,,,,,,VFR,0.0,30.0,22.8,,,,,,,,,METAR,199.0
KATT 010551Z AUTO 16005KT 10SM CLR 24/20 A2988 RMK AO2 SLP105 T02390200 10306 20239 403280206 50002,KATT,2023-06-01T05:51:00Z,30.32,-97.77,23.9,20.0,160,5,,10.0,29.878937,1010.5,,TRUE,TRUE,,,,,,,CLR,,,,,,,,VFR,0.2,30.6,23.9,32.8,20.6,,,,,,,METAR,203.0
KALB 010551Z 16006KT 10SM CLR 19/07 A3012 RMK AO2 SLP199 T01890067 10267 20189 51005,KALB,2023-06-01T05:51:00Z,42.75,-73.8,18.9,6.7,160,6,,10.0,30.121063,1019.9,,,TRUE,,,,,,,CLR,,,,,,,,VFR,0.5,26.7,18.9,,,,,,,,,METAR,82.0
KAHN 010551Z AUTO 00000KT 10SM CLR 17/16 A3006 RMK AO2 SLP173 T01720161 10217 20172 56009,KAHN,2023-06-01T05:51:00Z,33.95,-83.33,17.2,16.1,0,0,,10.0,30.059055,1017.3,,TRUE,TRUE,,,,,,,CLR,,,,,,,,VFR,-0.9,21.7,17.2,,,,,,,,,METAR,241.0
KACT 010551Z AUTO 13007KT 10SM CLR 22/19 A2986 RMK AO2 SLP104 T02170194 10294 20217 403060183 50001,KACT,2023-06-01T05:51:00Z,31.62,-97.23,21.7,19.4,130,7,,10.0,29.861221,1010.4,,TRUE,TRUE,,,,,,,CLR,,,,,,,,VFR,0.1,29.4,21.7,30.6,18.3,,,,,,,METAR,150.0
KABE 010551Z 34003KT 10SM CLR 10/04 A3015 RMK AO2 SLP208 T01000044 10239 20100 51003,KABE,2023-06-01T05:51:00Z,40.65,-75.45,10.0,4.4,340,3,,10.0,30.15059,1020.8,,,TRUE,,,,,,,CLR,,,,,,,,VFR,0.3,23.9,10.0,,,,,,,,,METAR,117.0
K6R6 010551Z AUTO 11015G22KT 23/19 A2981 RMK AO1 SLP058 T02330194 10289 20233 403110183 58002 $,K6R6,2023-06-01T05:51:00Z,30.05,-102.22,23.3,19.4,110,15,22,,29.811024,1005.8,,TRUE,TRUE,TRUE,,,,,,,,,,,,,,,-0.2,28.9,23.3,31.1,18.3,,,,,,,METAR,702.0
PTPN 010550Z 06010KT 15SM SCT018 BKN130 OVC300 31/26 A2976 ,PTPN,2023-06-01T05:50:00Z,6.98,158.22,31.0,26.0,60,10,,15.0,29.760826,,,,,,,,,,,SCT,1800,BKN,13000,OVC,30000,,,VFR,,,,,,,,,,,,METAR,3.0
PTKK 010550Z VRB05KT 15SM FEW014 SCT120 OVC280 30/26 A2977 RMK SLP083 8/171 T03020257 10316 20301 56010,PTKK,2023-06-01T05:50:00Z,7.47,151.85,30.2,25.7,0,5,,15.0,29.769686,1008.3,,,,,,,,,,FEW,1400,SCT,12000,OVC,28000,,,VFR,-1.0,31.6,30.1,,,,,,,,,METAR,3.0
PGWT 010550Z 08015KT 7SM VCSH FEW016 SCT060 BKN090 30/24 RMK VCSH NE,PGWT,2023-06-01T05:50:00Z,14.98,145.62,30.0,24.0,80,15,,7.0,,,,,,,,,,,VCSH,FEW,1600,SCT,6000,BKN,9000,,,VFR,,,,,,,,,,,,METAR,84.0
PGRO 010550Z 09011KT 7SM FEW015 SCT050 BKN100 27/23 A2979,PGRO,2023-06-01T05:50:00Z,14.18,145.25,27.0,23.0,90,11,,7.0,29.790354,,,,,,,,,,,FEW,1500,SCT,5000,BKN,10000,,,VFR,,,,,,,,,,,,METAR,181.0
OOSA 010550Z 19006KT 150V230 9999 FEW020 32/26 Q1010 NOSIG,OOSA,2023-06-01T05:50:00Z,17.03,54.1,32.0,26.0,190,6,,6.21,29.822834,,,,,,TRUE,,,,,FEW,2000,,,,,,,VFR,,,,,,,,,,,,METAR,20.0
OOMS 010550Z 21017KT CAVOK 42/20 Q1005 NOSIG,OOMS,2023-06-01T05:50:00Z,23.58,58.28,42.0,20.0,210,17,,6.21,29.675198,,,,,,TRUE,,,,,CAVOK,,,,,,,,VFR,,,,,,,,,,,,METAR,8.0
OOKB 010550Z 22010G21KT 180V270 CAVOK 40/10 Q1004 NOSIG,OOKB,2023-06-01T05:50:00Z,26.17,56.23,40.0,10.0,220,10,21,6.21,29.64567,,,,,,TRUE,,,,,CAVOK,,,,,,,,VFR,,,,,,,,,,,,METAR,30.0
OODQ 010550Z AUTO 21023KT CAVOK ////// 33/23 Q1009 NOSIG RMK RH56? 0,OODQ,2023-06-01T05:50:00Z,19.52,57.65,33.0,23.0,210,23,,6.21,29.793306,,,TRUE,,,TRUE,,,,,CAVOK,,,,,,,,VFR,,,,,,,,,,,,METAR,116.0
OOAD 010550Z AUTO 26007KT 210V320 9999 // NCD 34/19 Q1011 NOSIG,OOAD,2023-06-01T05:50:00Z,22.5,57.37,34.0,19.0,260,7,,6.21,29.852362,,,TRUE,,,TRUE,,,,,CLR,,,,,,,,VFR,,,,,,,,,,,,METAR,327.0
NZSP 010550Z 03012KT 2800 IC BR SCT030 BKN070 M60/ A2843 RMK CLN AIR 02012KT ALL WNDS GRID,NZSP,2023-06-01T05:50:00Z,-89.98,179.98,-60.0,,30,12,,1.74,28.429134,,,,,,,,,,IC BR,SCT,3000,BKN,7000,,,,,IFR,,,,,,,,,,,,METAR,2830.0
NSTU 010550Z 15007KT 10SM SCT018 28/26 A2988 RMK SLP119 8/100 T02780259 10291 20278 52017,NSTU,2023-06-01T05:50:00Z,-14.33,-170.72,27.8,25.9,150,7,,10.0,29.878937,1011.9,,,,,,,,,,SCT,1800,,,,,,,VFR,1.7,29.1,27.8,,,,,,,,,METAR,8.0
MUVR 010550Z 15005KT 9000 SCT030 22/21 Q1012,MUVR,2023-06-01T05:50:00Z,23.03,-81.43,22.0,21.0,150,5,,5.59,29.88189,,,,,,,,,,,SCT,3000,,,,,,,VFR,,,,,,,,,,,,METAR,65.0
MUSC 010550Z VRB02KT 9000 FEW025 23/22 Q1012,MUSC,2023-06-01T05:50:00Z,22.5,-79.92,23.0,22.0,0,2,,5.59,29.88189,,,,,,,,,,,FEW,2500,,,,,,,VFR,,,,,,,,,,,,METAR,97.0
MUHG 010550Z 14005KT 100V170 9000 FEW020 BKN150 23/22 Q1012,MUHG,2023-06-01T05:50:00Z,20.78,-76.32,23.0,22.0,140,5,,5.59,29.88189,,,,,,,,,,,FEW,2000,BKN,15000,,,,,VFR,,,,,,,,,,,,METAR,100.0
MUHA 010550Z VRB01KT 9000 SCT030 22/22 Q1011,MUHA,2023-06-01T05:50:00Z,22.98,-82.42,22.0,22.0,0,1,,5.59,29.852362,,,,,,,,,,,SCT,3000,,,,,,,VFR,,,,,,,,,,,,METAR,61.0
MUCU 010550Z VRB02KT 9000 SCT020 BKN060 24/23 Q1013,MUCU,2023-06-01T05:50:00Z,19.97,-75.83,24.0,23.0,0,2,,5.59,29.911417,,,,,,,,,,,SCT,2000,BKN,6000,,,,,VFR,,,,,,,,,,,,METAR,70.0
MUCM 010550Z 09003KT 9000 BKN080 23/23 Q1013,MUCM,2023-06-01T05:50:00Z,21.42,-77.85,23.0,23.0,90,3,,5.59,29.911417,,,,,,,,,,,BKN,8000,,,,,,,VFR,,,,,,,,,,,,METAR,125.0
MUCL 010550Z AUTO 13004KT 24/21 Q1011,MUCL,2023-06-01T05:50:00Z,21.63,-81.55,24.0,21.0,130,4,,,29.852362,,,TRUE,,,,,,,,,,,,,,,,,,,,,,,,,,,,SPECI,5.0
MUCC 010550Z 20003KT 9000 FEW020 BKN100 24/23 Q1012,MUCC,2023-06-01T05:50:00Z,22.47,-78.33,24.0,23.0,200,3,,5.59,29.88189,,,,,,,,,,,FEW,2000,BKN,10000,,,,,VFR,,,,,,,,,,,,METAR,7.0
MSLP 010550Z 01003KT 330V090 9999 FEW023 25/22 Q1011 A2987 NOSIG,MSLP,2023-06-01T05:50:00Z,13.43,-89.05,25.0,22.0,10,3,,6.21,29.852362,,,,,,TRUE,,,,,FEW,2300,,,,,,,VFR,,,,,,,,,,,,METAR,25.0
LXGB 010550Z 09006KT 9999 FEW010 BKN012 19/18 Q1012 RMK GRN,LXGB,2023-06-01T05:50:00Z,36.15,-5.33,19.0,18.0,90,6,,6.21,29.88189,,,,,,,,,,,FEW,1000,BKN,1200,,,,,MVFR,,,,,,,,,,,,METAR,5.0
LTFO 010550Z 30003KT 9999 SCT012 BKN035 20/17 Q1015,LTFO,2023-06-01T05:50:00Z,41.18,40.85,20.0,17.0,300,3,,6.21,29.970472,,,,,,,,,,,SCT,1200,BKN,3500,,,,,VFR,,,,,,,,,,,,METAR,5.0
LTFK 010550Z 35007KT CAVOK 22/15 Q1016,LTFK,2023-06-01T05:50:00Z,40.2,25.88,22.0,15.0,350,7,,6.21,30.0,,,,,,,,,,,CAVOK,,,,,,,,VFR,,,,,,,,,,,,METAR,21.0
LTFH 010550Z 17005KT 120V210 9999 FEW036 BKN100 21/17 Q1015 NOSIG,LTFH,2023-06-01T05:50:00Z,41.27,36.57,21.0,17.0,170,5,,6.21,29.970472,,,,,,TRUE,,,,,FEW,3600,BKN,10000,,,,,VFR,,,,,,,,,,,,METAR,7.0
LTFG 010550Z VRB02KT 9999 FEW020 BKN130 22/17 Q1014,LTFG,2023-06-01T05:50:00Z,36.3,32.3,22.0,17.0,0,2,,6.21,29.940945,,,,,,,,,,,FEW,2000,BKN,13000,,,,,VFR,,,,,,,,,,,,METAR,26.0
LTFD 010550Z 08009KT 050V110 CAVOK 23/13 Q1014,LTFD,2023-06-01T05:50:00Z,39.55,27.02,23.0,13.0,80,9,,6.21,29.940945,,,,,,,,,,,CAVOK,,,,,,,,VFR,,,,,,,,,,,,METAR,15.0
LTFB 010550Z 07004KT 6000 NSC 21/19 Q1013,LTFB,2023-06-01T05:50:00Z,37.95,27.33,21.0,19.0,70,4,,3.73,29.911417,,,,,,,,,,,CLR,,,,,,,,MVFR,,,,,,,,,,,,METAR,3.0
LTDA 010550Z VRB04KT 9999 FEW035 24/16 Q1012 NOSIG,LTDA,2023-06-01T05:50:00Z,36.37,36.28,24.0,16.0,0,4,,6.21,29.88189,,,,,,TRUE,,,,,FEW,3500,,,,,,,VFR,,,,,,,,,,,,METAR,80.0
LTCW 010550Z VRB02KT 9999 FEW030 SCT080 16/08 Q1020,LTCW,2023-06-01T05:50:00Z,37.55,44.23,16.0,8.0,0,2,,6.21,30.11811,,,,,,,,,,,FEW,3000,SCT,8000,,,,,VFR,,,,,,,,,,,,METAR,1852.0
LTCV 010550Z VRB03KT CAVOK 26/10 Q1013,LTCV,2023-06-01T05:50:00Z,37.37,42.07,26.0,10.0,0,3,,6.21,29.911417,,,,,,,,,,,CAVOK,,,,,,,,VFR,,,,,,,,,,,,METAR,620.0
LTCU 010550Z VRB01KT CAVOK 18/11 Q1017,LTCU,2023-06-01T05:50:00Z,38.87,40.58,18.0,11.0,0,1,,6.21,30.029528,,,,,,,,,,,CAVOK,,,,,,,,VFR,,,,,,,,,,,,METAR,1061.0
LTCT 010550Z VRB03KT 9999 FEW080 22/08 Q1016,LTCT,2023-06-01T05:50:00Z,39.98,43.87,22.0,8.0,0,3,,6.21,30.0,,,,,,,,,,,FEW,8000,,,,,,,VFR,,,,,,,,,,,,METAR,936.0
LTCR 010550Z 23005KT 200V280 CAVOK 26/09 Q1013,LTCR,2023-06-01T05:50:00Z,37.22,40.63,26.0,9.0,230,5,,6.21,29.911417,,,,,,,,,,,CAVOK,,,,,,,,VFR,,,,,,,,,,,,METAR,529.0
LTCP 010550Z 10006KT 070V130 9999 FEW040 23/10 Q1014,LTCP,2023-06-01T05:50:00Z,37.73,38.47,23.0,10.0,100,6,,6.21,29.940945,,,,,,,,,,,FEW,4000,,,,,,,VFR,,,,,,,,,,,,METAR,672.0
LTCO 010550Z 35002KT 9999 FEW040 15/10 Q1019,LTCO,2023-06-01T05:50:00Z,39.65,43.03,15.0,10.0,350,2,,6.21,30.088583,,,,,,,,,,,FEW,4000,,,,,,,VFR,,,,,,,,,,,,METAR,1657.0
LTCN 010550Z 32003KT 260V020 CAVOK 22/14 Q1014,LTCN,2023-06-01T05:50:00Z,37.53,36.95,22.0,14.0,320,3,,6.21,29.940945,,,,,,,,,,,CAVOK,,,,,,,,VFR,,,,,,,,,,,,METAR,505.0
LTCM 010550Z 28012KT 9999 SCT030 BKN090 21/13 Q1016,LTCM,2023-06-01T05:50:00Z,42.02,35.07,21.0,13.0,280,12,,6.21,30.0,,,,,,,,,,,SCT,3000,BKN,9000,,,,,VFR,,,,,,,,,,,,METAR,7.0
LTCL 010550Z VRB01KT CAVOK 24/13 Q1014,LTCL,2023-06-01T05:50:00Z,37.98,41.83,24.0,13.0,0,1,,6.21,29.940945,,,,,,,,,,,CAVOK,,,,,,,,VFR,,,,,,,,,,,,METAR,602.0
LTCK 010550Z 00000KT 9999 SCT035 17/11 Q1017,LTCK,2023-06-01T05:50:00Z,38.75,41.67,17.0,11.0,0,0,,6.21,30.029528,,,,,,,,,,,SCT,3500,,,,,,,VFR,,,,,,,,,,,,METAR,1267.0
LTCI 010550Z 25004KT 210V290 9999 FEW030 16/11 Q1021 NOSIG,LTCI,2023-06-01T05:50:00Z,38.47,43.33,16.0,11.0,250,4,,6.21,30.147638,,,,,,TRUE,,,,,FEW,3000,,,,,,,VFR,,,,,,,,,,,,METAR,1654.0
LTCF 010550Z VRB02KT 9999 FEW035 14/08 Q1019 NOSIG,LTCF,2023-06-01T05:50:00Z,40.57,43.12,14.0,8.0,0,2,,6.21,30.088583,,,,,,TRUE,,,,,FEW,3500,,,,,,,VFR,,,,,,,,,,,,METAR,1794.0
LTCD 010550Z 00000KT 9999 FEW045 17/10 Q1017 NOSIG,LTCD,2023-06-01T05:50:00Z,39.72,39.52,17.0,10.0,0,0,,6.21,30.029528,,,,,,TRUE,,,,,FEW,4500,,,,,,,VFR,,,,,,,,,,,,METAR,1146.0
LTCB 010550Z 27005KT 9999 SCT035 BKN090 19/17 Q1016 NOSIG,LTCB,2023-06-01T05:50:00Z,40.97,38.07,19.0,17.0,270,5,,6.21,30.0,,,,,,TRUE,,,,,SCT,3500,BKN,9000,,,,,VFR,,,,,,,,,,,,METAR,5.0
LTCA 010550Z 06003KT 330V130 CAVOK 20/12 Q1015 NOSIG,LTCA,2023-06-01T05:50:00Z,38.6,39.28,20.0,12.0,60,3,,6.21,29.970472,,,,,,TRUE,,,,,CAVOK,,,,,,,,VFR,,,,,,,,,,,,METAR,887.0
LTBY 010550Z 00000KT 9999 BKN035 16/12 Q1017,LTBY,2023-06-01T05:50:00Z,39.82,30.52,16.0,12.0,0,0,,6.21,30.029528,,,,,,,,,,,BKN,3500,,,,,,,VFR,,,,,,,,,,,,METAR,788.0
LTBO 010550Z 09007KT 060V120 9999 FEW040 SCT100 18/12 Q1016,LTBO,2023-06-01T05:50:00Z,38.67,29.47,18.0,12.0,90,7,,6.21,30.0,,,,,,,,,,,FEW,4000,SCT,10000,,,,,VFR,,,,,,,,,,,,METAR,868.0
LTBH 010550Z 08009KT 040V100 CAVOK 21/15 Q1015,LTBH,2023-06-01T05:50:00Z,40.13,26.42,21.0,15.0,80,9,,6.21,29.970472,,,,,,,,,,,CAVOK,,,,,,,,VFR,,,,,,,,,,,,METAR,8.0
LTBF 010550Z 00000KT CAVOK 19/15 Q1016 NOSIG,LTBF,2023-06-01T05:50:00Z,39.62,27.92,19.0,15.0,0,0,,6.21,30.0,,,,,,TRUE,,,,,CAVOK,,,,,,,,VFR,,,,,,,,,,,,METAR,95.0
LTBD 010550Z 06008KT 030V090 CAVOK 20/15 Q1014,LTBD,2023-06-01T05:50:00Z,37.82,27.88,20.0,15.0,60,8,,6.21,29.940945,,,,,,,,,,,CAVOK,,,,,,,,VFR,,,,,,,,,,,,METAR,29.0
LTAY 010550Z 06004KT 030V090 CAVOK 15/14 Q1016 NOSIG,LTAY,2023-06-01T05:50:00Z,37.78,29.7,15.0,14.0,60,4,,6.21,30.0,,,,,,TRUE,,,,,CAVOK,,,,,,,,VFR,,,,,,,,,,,,METAR,851.0
LTAW 010550Z 33002KT 9999 SCT035 18/13 Q1017,LTAW,2023-06-01T05:50:00Z,40.3,36.37,18.0,13.0,330,2,,6.21,30.029528,,,,,,,,,,,SCT,3500,,,,,,,VFR,,,,,,,,,,,,METAR,561.0
LTAS 010550Z 21006KT 160V230 9999 FEW040 BKN200 18/13 Q1017,LTAS,2023-06-01T05:50:00Z,41.52,32.08,18.0,13.0,210,6,,6.21,30.029528,,,,,,,,,,,FEW,4000,BKN,20000,,,,,VFR,,,,,,,,,,,,METAR,13.0
LTAR 010550Z 33005KT 290V360 9999 SCT035 SCT100 12/09 Q1019,LTAR,2023-06-01T05:50:00Z,39.8,36.9,12.0,9.0,330,5,,6.21,30.088583,,,,,,,,,,,SCT,3500,SCT,10000,,,,,VFR,,,,,,,,,,,,METAR,1601.0
LTAN 010550Z VRB02KT 9999 FEW040 BKN200 18/11 Q1017 NOSIG,LTAN,2023-06-01T05:50:00Z,37.97,32.55,18.0,11.0,0,2,,6.21,30.029528,,,,,,TRUE,,,,,FEW,4000,BKN,20000,,,,,VFR,,,,,,,,,,,,METAR,1029.0
LTAL 010550Z 32004KT 250V360 9999 FEW030 SCT200 13/07 Q1018,LTAL,2023-06-01T05:50:00Z,41.32,33.8,13.0,7.0,320,4,,6.21,30.059055,,,,,,,,,,,FEW,3000,SCT,20000,,,,,VFR,,,,,,,,,,,,METAR,1074.0
LTAE 010550Z 35006KT 9999 -SHRA BKN035 SCT100 12/10 Q1017 NOSIG RMK RWY21 35005KT,LTAE,2023-06-01T05:50:00Z,40.07,32.57,12.0,10.0,350,6,,6.21,30.029528,,,,,,TRUE,,,,-SHRA,BKN,3500,SCT,10000,,,,,VFR,,,,,,,,,,,,METAR,836.0
LLIB 010550Z AUTO 34004KT CAVOK 24/08 Q1014,LLIB,2023-06-01T05:50:00Z,32.98,35.57,24.0,8.0,340,4,,6.21,29.940945,,,TRUE,,,,,,,,CAVOK,,,,,,,,VFR,,,,,,,,,,,,METAR,268.0
LLHA 010550Z VRB02KT CAVOK 26/12 Q1013,LLHA,2023-06-01T05:50:00Z,32.8,35.03,26.0,12.0,0,2,,6.21,29.911417,,,,,,,,,,,CAVOK,,,,,,,,VFR,,,,,,,,,,,,METAR,3.0
LLER 010550Z 36011KT CAVOK 28/10 Q1013,LLER,2023-06-01T05:50:00Z,29.72,35.02,28.0,10.0,360,11,,6.21,29.911417,,,,,,,,,,,CAVOK,,,,,,,,VFR,,,,,,,,,,,,METAR,88.0
LIPK 010550Z VRB02KT CAVOK 16/14 Q1016,LIPK,2023-06-01T05:50:00Z,44.2,12.07,16.0,14.0,0,2,,6.21,30.0,,,,,,,,,,,CAVOK,,,,,,,,VFR,,,,,,,,,,,,METAR,24.0
LIPB 010550Z 09001KT CAVOK 15/12 Q1018,LIPB,2023-06-01T05:50:00Z,46.47,11.32,15.0,12.0,90,1,,6.21,30.059055,,,,,,,,,,,CAVOK,,,,,,,,VFR,,,,,,,,,,,,METAR,239.0
LIMP 010550Z 23003KT CAVOK 18/14 Q1017,LIMP,2023-06-01T05:50:00Z,44.82,10.3,18.0,14.0,230,3,,6.21,30.029528,,,,,,,,,,,CAVOK,,,,,,,,VFR,,,,,,,,,,,,METAR,41.0
LICG 010550Z 06003KT 9999 SCT008TCU 18/17 Q1015,LICG,2023-06-01T05:50:00Z,36.82,11.97,18.0,17.0,60,3,,6.21,29.970472,,,,,,,,,,,SCT,800,,,,,,,VFR,,,,,,,,,,,,METAR,192.0
LIBF 010550Z 31007KT 9999 FEW030 BKN050 20/17 Q1016,LIBF,2023-06-01T05:50:00Z,41.42,15.53,20.0,17.0,310,7,,6.21,30.0,,,,,,,,,,,FEW,3000,BKN,5000,,,,,VFR,,,,,,,,,,,,METAR,81.0
LGZA 010550Z VRB03KT 9999 FEW018 23/17 Q1013,LGZA,2023-06-01T05:50:00Z,37.75,20.88,23.0,17.0,0,3,,6.21,29.911417,,,,,,,,,,,FEW,1800,,,,,,,VFR,,,,,,,,,,,,METAR,3.0
LGSO 010550Z 03004KT CAVOK 22/16 Q1014,LGSO,2023-06-01T05:50:00Z,37.42,24.95,22.0,16.0,30,4,,6.21,29.940945,,,,,,,,,,,CAVOK,,,,,,,,VFR,,,,,,,,,,,,METAR,71.0
LGSM 010550Z 07004KT 9999 FEW018 21/16 Q1012,LGSM,2023-06-01T05:50:00Z,37.68,26.92,21.0,16.0,70,4,,6.21,29.88189,,,,,,,,,,,FEW,1800,,,,,,,VFR,,,,,,,,,,,,METAR,5.0
LGSK 010550Z 34007KT 9999 FEW016 22/16 Q1015,LGSK,2023-06-01T05:50:00Z,39.18,23.5,22.0,16.0,340,7,,6.21,29.970472,,,,,,,,,,,FEW,1600,,,,,,,VFR,,,,,,,,,,,,METAR,13.0
LGPA 010550Z VRB03KT 9999 FEW025 22/16 Q1013,LGPA,2023-06-01T05:50:00Z,37.02,25.1,22.0,16.0,0,3,,6.21,29.911417,,,,,,,,,,,FEW,2500,,,,,,,VFR,,,,,,,,,,,,METAR,42.0
LGNX 010550Z 01007KT 9999 FEW014 20/16 Q1013,LGNX,2023-06-01T05:50:00Z,37.08,25.37,20.0,16.0,10,7,,6.21,29.911417,,,,,,,,,,,FEW,1400,,,,,,,VFR,,,,,,,,,,,,METAR,3.0
LGKZ 010550Z 00000KT 6000 FEW002 SCT070 15/14 Q1019,LGKZ,2023-06-01T05:50:00Z,40.28,21.83,15.0,14.0,0,0,,3.73,30.088583,,,,,,,,,,,FEW,200,SCT,7000,,,,,MVFR,,,,,,,,,,,,METAR,615.0
LGKF 010550Z 00000KT 9999 FEW018 22/16 Q1013,LGKF,2023-06-01T05:50:00Z,38.12,20.5,22.0,16.0,0,0,,6.21,29.911417,,,,,,,,,,,FEW,1800,,,,,,,VFR,,,,,,,,,,,,METAR,14.0
LGHI 010550Z 05007KT CAVOK 22/15 Q1013,LGHI,2023-06-01T05:50:00Z,38.33,26.13,22.0,15.0,50,7,,6.21,29.911417,,,,,,,,,,,CAVOK,,,,,,,,VFR,,,,,,,,,,,,METAR,6.0
KRYY 010550Z AUTO 00000KT 10SM CLR 19/17 A3007 RMK AO2 SLP173 T01890167 10239 20189 58003 $,KRYY,2023-06-01T05:50:00Z,34.02,-84.6,18.9,16.7,0,0,,10.0,30.070866,1017.3,,TRUE,TRUE,TRUE,,,,,,CLR,,,,,,,,VFR,-0.3,23.9,18.9,,,,,,,,,SPECI,306.0
KNQA 010550Z 00000KT 10SM CLR 22/19 A2996,KNQA,2023-06-01T05:50:00Z,35.35,-89.87,22.0,19.0,0,0,,10.0,29.958662,,,,,,,,,,,CLR,,,,,,,,VFR,,,,,,,,,,,,METAR,90.0
KDAG 010550Z AUTO 30016KT 10SM CLR 21/07 A2976 RMK AO2 SLP058 T02060072 10306 20200 51016,KDAG,2023-06-01T05:50:00Z,34.85,-116.78,20.6,7.2,300,16,,10.0,29.760826,1005.8,,TRUE,TRUE,,,,,,,CLR,,,,,,,,VFR,1.6,30.6,20.0,,,,,,,,,METAR,584.0
ETNG 010550Z 01005KT 3000 BR OVC004 10/10 Q1022 BECMG 9999 BKN007,ETNG,2023-06-01T05:50:00Z,50.97,6.03,10.0,10.0,10,5,,1.86,30.177166,,,,,,,,,,BR,OVC,400,,,,,,,LIFR,,,,,,,,,,,,METAR,76.0
ENVR 010550Z 30014G29KT 230V350 9999 BKN032 05/M03 Q1016,ENVR,2023-06-01T05:50:00Z,67.65,12.72,5.0,-3.0,300,14,29,6.21,30.0,,,,,,,,,,,BKN,3200,,,,,,,VFR,,,,,,,,,,,,METAR,4.0
EKVJ 010550Z 33017KT 300V360 9999 BKN012 10/// Q1019,EKVJ,2023-06-01T05:50:00Z,55.98,8.35,,,330,17,,6.21,30.088583,,,,,,,,,,,BKN,1200,,,,,,,MVFR,,,,,,,,,,,,METAR,5.0
EKVD 010550Z 31013KT 9999 BKN014 11/07 Q1019,EKVD,2023-06-01T05:50:00Z,55.43,9.32,11.0,7.0,310,13,,6.21,30.088583,,,,,,,,,,,BKN,1400,,,,,,,MVFR,,,,,,,,,,,,METAR,41.0
EKOD 010550Z 29013KT 9999 FEW018 11/09 Q1018,EKOD,2023-06-01T05:50:00Z,55.47,10.32,11.0,9.0,290,13,,6.21,30.059055,,,,,,,,,,,FEW,1800,,,,,,,VFR,,,,,,,,,,,,METAR,13.0
EGYP 010550Z 31005KT 0700 FG FEW000 BKN200 03/03 Q1003,EGYP,2023-06-01T05:50:00Z,-51.82,-58.45,3.0,3.0,310,5,,0.43,29.616142,,,,,,,,,,FG,FEW,0,BKN,20000,,,,,LIFR,,,,,,,,,,,,METAR,70.0
EGXC 010550Z 03010KT 9999 OVC015 10/07 Q1027 RMK WHT,EGXC,2023-06-01T05:50:00Z,53.1,-0.17,10.0,7.0,30,10,,6.21,30.324802,,,,,,,,,,,OVC,1500,,,,,,,MVFR,,,,,,,,,,,,METAR,9.0
EGNJ 010550Z AUTO 03011KT 9999 OVC016/// 11/08 Q1028,EGNJ,2023-06-01T05:50:00Z,53.57,-0.35,11.0,8.0,30,11,,6.21,30.35433,,,TRUE,,,,,,,,OVC,1600,,,,,,,MVFR,,,,,,,,,,,,METAR,23.0
EEEI 010550Z 29011KT 260V330 9999 FEW038 11/01 Q1011 NOSIG,EEEI,2023-06-01T05:50:00Z,59.27,24.2,11.0,1.0,290,11,,6.21,29.852362,,,,,,TRUE,,,,,FEW,3800,,,,,,,VFR,,,,,,,,,,,,METAR,19.0
BGSF 010550Z AUTO 10009KT 9999NDV FEW080/// BKN110/// BKN230/// 08/M03 Q1015,BGSF,2023-06-01T05:50:00Z,67.0,-50.72,8.0,-3.0,100,9,,,29.970472,,,TRUE,,,,,,,,FEW,8000,BKN,11000,BKN,23000,,,,,,,,,,,,,,,METAR,75.0
BGKK 010550Z AUTO VRB02KT 0400NDV -SHRA FG VV002/// 02/01 Q1023,BGKK,2023-06-01T05:50:00Z,65.57,-37.13,2.0,1.0,0,2,,,30.206694,,,TRUE,,,,,,,-SHRA FG,,,,,,,,,,,,,,,,,,,,,METAR,37.0
BGJN 010550Z AUTO 35005KT 9999NDV OVC100/// 02/01 Q1015,BGJN,2023-06-01T05:50:00Z,69.25,-51.07,2.0,1.0,350,5,,,29.970472,,,TRUE,,,,,,,,OVC,10000,,,,,,,,,,,,,,,,,,,METAR,22.0
BGBW 010550Z AUTO 00000KT 9999NDV BKN007/// 04/03 Q1026,BGBW,2023-06-01T05:50:00Z,61.17,-45.42,4.0,3.0,0,0,,,30.295275,,,TRUE,,,,,,,,BKN,700,,,,,,,,,,,,,,,,,,,METAR,49.0
MMTO 010548Z 06003KT 6SM BKN020 15/11 A3036 RMK SLP060 52003 957 8/500 HZY,MMTO,2023-06-01T05:48:00Z,19.35,-99.57,15.0,11.0,60,3,,6.0,30.360237,1006.0,,,,,,,,,,BKN,2000,,,,,,,MVFR,0.3,,,,,,,,,,,METAR,2582.0
KJDN 010548Z AUTO 30015G22KT 19/11 A2977 RMK AO1 PK WND 27026/0522 SLP064 T01940111 10289 20194 53015,KJDN,2023-06-01T05:48:00Z,47.33,-106.95,19.4,11.1,300,15,22,,29.769686,1006.4,,TRUE,TRUE,,,,,,,,,,,,,,,,1.5,28.9,19.4,,,,,,,,,METAR,802.0
KCQT 010547Z AUTO 00000KT 10SM OVC037 17/12 A2992 RMK AO2 SLP129 T01670117 10178 20167 51004,KCQT,2023-06-01T05:47:00Z,34.02,-118.28,16.7,11.7,0,0,,10.0,29.920275,1012.9,,TRUE,TRUE,,,,,,,OVC,3700,,,,,,,VFR,0.4,17.8,16.7,,,,,,,,,METAR,51.0
MMML 010546Z 04006KT 10SM SKC 20/07 A2973 RMK SLP068 52013 960,MMML,2023-06-01T05:46:00Z,32.62,-115.23,20.0,7.0,40,6,,10.0,29.731298,1006.8,,,,,,,,,,SKC,,,,,,,,VFR,1.3,,,,,,,,,,,METAR,21.0
MMMX 010544Z 12005KT 8SM FEW030 SCT080 21/12 A3027 NOSIG RMK SLP048 52015 953 8/570 HZY,MMMX,2023-06-01T05:44:00Z,19.43,-99.08,21.0,12.0,120,5,,8.0,30.268702,1004.8,,,,,TRUE,,,,,FEW,3000,SCT,8000,,,,,VFR,1.5,,,,,,,,,,,METAR,2224.0
MMLP 010544Z 17011KT 10SM SKC 17/11 A2988,MMLP,2023-06-01T05:44:00Z,24.07,-110.37,17.0,11.0,170,11,,10.0,29.878937,,,,,,,,,,,SKC,,,,,,,,VFR,,,,,,,,,,,,METAR,16.0
MMAN 010544Z 12010KT 8SM SCT015 OVC020 25/21 A2986 RMK SLP/// 5//// 9// 8/8// HZY,MMAN,2023-06-01T05:44:00Z,25.87,-100.23,25.0,21.0,120,10,,8.0,29.861221,,,,,,,,,,,SCT,1500,OVC,2000,,,,,MVFR,,,,,,,,,,,,METAR,447.0
FABM 010544Z 26001KT 0200 FG BKN002 M00/M00 Q1023,FABM,2023-06-01T05:44:00Z,-28.25,28.33,0.0,0.0,260,1,,0.12,30.206694,,,,,,,,,,FG,BKN,200,,,,,,,LIFR,,,,,,,,,,,,SPECI,1690.0
MMMY 010543Z 11008KT 10SM BKN018 25/21 A2984 RMK SLP/// 5//// 9// 8/500,MMMY,2023-06-01T05:43:00Z,25.77,-100.1,25.0,21.0,110,8,,10.0,29.840551,,,,,,,,,,,BKN,1800,,,,,,,MVFR,,,,,,,,,,,,METAR,382.0
MMMD 010543Z 11004KT 6SM SKC 26/23 A2984 RMK SLP108 52013 954 HZY,MMMD,2023-06-01T05:43:00Z,20.95,-89.65,26.0,23.0,110,4,,6.0,29.840551,1010.8,,,,,,,,,,SKC,,,,,,,,VFR,1.3,,,,,,,,,,,METAR,10.0
MMTJ 010542Z 26004KT 6SM FEW016 OVC036 14/13 A2996 RMK SLP148 52014 954 8/5// HZY,MMTJ,2023-06-01T05:42:00Z,32.53,-116.97,14.0,13.0,260,4,,6.0,29.958662,1014.8,,,,,,,,,,FEW,1600,OVC,3600,,,,,VFR,1.4,,,,,,,,,,,METAR,150.0
MMHO 010542Z 28006KT 10SM SKC 22/06 A2983 RMK SLP096 52012 954 HZY,MMHO,2023-06-01T05:42:00Z,29.08,-111.05,22.0,6.0,280,6,,10.0,29.828741,1009.6,,,,,,,,,,SKC,,,,,,,,VFR,1.2,,,,,,,,,,,METAR,186.0
MMMZ 010541Z 00000KT 10SM SKC 21/20 A2985 RMK SLP106 52007 908,MMMZ,2023-06-01T05:41:00Z,23.17,-106.27,21.0,20.0,0,0,,10.0,29.84941,1010.6,,,,,,,,,,SKC,,,,,,,,VFR,0.7,,,,,,,,,,,METAR,7.0
MMZC 010540Z E00000KT 10SM SKC 19/M06 A3015,MMZC,2023-06-01T05:40:00Z,22.9,-102.68,19.0,-6.0,0,0,,10.0,30.15059,,,,,,,,,,,SKC,,,,,,,,VFR,,,,,,,,,,,,METAR,2175.0
MMUN 010540Z 00000KT 6SM FEW015 SCT080 SCT250 21/21 A2984 RMK SLP106 54000 900 8/138 HZY,MMUN,2023-06-01T05:40:00Z,21.03,-86.85,21.0,21.0,0,0,,6.0,29.840551,1010.6,,,,,,,,,,FEW,1500,SCT,8000,SCT,25000,,,VFR,,,,,,,,,,,,METAR,13.0
MMSP 010540Z 11006KT 8SM SKC 17/10 A3014 RMK SLP053 52036 965 CI,MMSP,2023-06-01T05:40:00Z,22.25,-100.93,17.0,10.0,110,6,,8.0,30.138779,1005.3,,,,,,,,,,SKC,,,,,,,,VFR,3.6,,,,,,,,,,,METAR,1841.0
MMQT 010540Z 08010KT 7SM SCT020 20/15 A3020 RMK 8/500,MMQT,2023-06-01T05:40:00Z,20.62,-100.18,20.0,15.0,80,10,,7.0,30.200787,,,,,,,,,,,SCT,2000,,,,,,,VFR,,,,,,,,,,,,METAR,1909.0
MMMM 010540Z 19004KT 7SM SKC 21/11 A3015 RMK SLP040 52024 903 HZY,MMMM,2023-06-01T05:40:00Z,19.85,-101.03,21.0,11.0,190,4,,7.0,30.15059,1004.0,,,,,,,,,,SKC,,,,,,,,VFR,2.4,,,,,,,,,,,METAR,1840.0
MMGL 010540Z 00000KT 10SM SKC 24/06 A3008 RMK SLP052 52012 951,MMGL,2023-06-01T05:40:00Z,20.52,-103.32,24.0,6.0,0,0,,10.0,30.079725,1005.2,,,,,,,,,,SKC,,,,,,,,VFR,1.2,,,,,,,,,,,METAR,1531.0
MMAS 010540Z 21004KT 10SM SKC 20/M08 A3012 RMK SLP035,MMAS,2023-06-01T05:40:00Z,21.7,-102.32,20.0,-8.0,210,4,,10.0,30.121063,1003.5,,,,,,,,,,SKC,,,,,,,,VFR,,,,,,,,,,,,METAR,1866.0
MMAA 010540Z 29003KT 5SM SCT015 SCT100 BKN300 28/24 A2985 RMK SLP102 52011 904 8/132 HZY,MMAA,2023-06-01T05:40:00Z,16.75,-99.75,28.0,24.0,290,3,,5.0,29.84941,1010.2,,,,,,,,,,SCT,1500,SCT,10000,BKN,30000,,,MVFR,1.1,,,,,,,,,,,METAR,5.0
RJDM 010539Z 21004KT 9999 -SHRA FEW010 SCT030 BKN035 23/22 Q1006 RMK 1CU010 3CU030 5CU035 A2973,RJDM,2023-06-01T05:39:00Z,33.32,130.42,23.0,22.0,210,4,,6.21,29.704725,,,,,,,,,,-SHRA,FEW,1000,SCT,3000,BKN,3500,,,VFR,,,,,,,,,,,,METAR,19.0
RKSP 010537Z 21006G016KT 3200 BR BKN002 18/17 A2971 RMK CIG002,RKSP,2023-06-01T05:37:00Z,37.97,124.67,18.0,17.0,210,6,16,1.99,29.71063,,,,,,,,,,BR,BKN,200,,,,,,,LIFR,,,,,,,,,,,,METAR,171.0
KRPX 010536Z AUTO 10SM 15/09 A2975 RMK Roundup ,KRPX,2023-06-01T05:36:00Z,46.47,-108.55,15.0,9.0,,,,10.0,29.749016,,,TRUE,,,,,,,,,,,,,,,,,,,,,,,,,,,,METAR,1062.0
KTFP 010535Z AUTO 16009KT 10SM CLR 26/22 A2983 RMK AO2 T02640222,KTFP,2023-06-01T05:35:00Z,27.92,-97.22,26.4,22.2,160,9,,10.0,29.828741,,,TRUE,TRUE,,,,,,,CLR,,,,,,,,VFR,,,,,,,,,,,,SPECI,5.0
YAMB 010530Z 31010KT CAVOK 25/08 Q1017,YAMB,2023-06-01T05:30:00Z,-27.63,152.72,25.0,8.0,310,10,,6.21,30.029528,,,,,,,,,,,CAVOK,,,,,,,,VFR,,,,,,,,,,,,METAR,26.0
VABB 010530Z 26005KT 4000 HZ FEW020 34/27 Q1009 NOSIG,VABB,2023-06-01T05:30:00Z,19.1,72.87,34.0,27.0,260,5,,2.49,29.793306,,,,,,TRUE,,,,HZ,FEW,2000,,,,,,,IFR,,,,,,,,,,,,METAR,14.0
