raw_text,station_id,observation_time,latitude,longitude,temp_c,dewpoint_c,wind_dir_degrees,wind_speed_kt,wind_gust_kt,visibility_statute_mi,altim_in_hg,sea_level_pressure_mb,corrected,auto,auto_station,maintenance_indicator_on,no_signal,lightning_sensor_off,freezing_rain_sensor_off,present_weather_sensor_off,wx_string,sky_cover,cloud_base_ft_agl,sky_cover,cloud_base_ft_agl,sky_cover,cloud_base_ft_agl,sky_cover,cloud_base_ft_agl,flight_category,three_hr_pressure_tendency_mb,maxT_c,minT_c,maxT24hr_c,minT24hr_c,precip_in,pcp3hr_in,pcp6hr_in,pcp24hr_in,snow_in,vert_vis_ft,metar_type,elevation_m
ROTM 021956Z 33008KT 9999 SCT020 24/22 A2976 RMK SLP057 T02400220,ROTM,2023-06-02T19:56:00Z,26.27,127.75,24.0,22.0,330,8,,6.21,29.760826,1005.7,,,,,,,,,,SCT,2000,,,,,,,VFR,,,,,,,,,,,,METAR,80.0
PPIZ 021956Z AUTO 18012KT 10SM SCT026 BKN036 OVC044 00/M03 A2966 RMK AO2 UPB07E40 SLP046 P0000 T00001028 FZRANO,PPIZ,2023-06-02T19:56:00Z,69.73,-163.0,0.0,-2.8,180,12,,10.0,29.660433,1004.6,,TRUE,TRUE,,,,TRUE,,,SCT,2600,BKN,3600,OVC,4400,,,VFR,,,,,,0.005,,,,,,METAR,5.0
PMDY 021956Z AUTO 10SM FEW016 SCT110 25/21 A3028 RMK AO2 SLP256 T02500206 TSNO $,PMDY,2023-06-02T19:56:00Z,28.22,-177.37,25.0,20.6,,,,10.0,30.280512,1025.6,,TRUE,TRUE,TRUE,,TRUE,,,,FEW,1600,SCT,11000,,,,,VFR,,,,,,,,,,,,METAR,6.0
PHNY 021956Z AUTO 06011G19KT 10SM CLR 23/19 A3017 RMK AO2 SLP195 T02330189,PHNY,2023-06-02T19:56:00Z,20.77,-156.95,23.3,18.9,60,11,19,10.0,30.171259,1019.5,,TRUE,TRUE,,,,,,,CLR,,,,,,,,VFR,,,,,,,,,,,,METAR,395.0
PFWS 021956Z AUTO 26011KT 10SM CLR 09/02 A2995 RMK AO2 SLP187 T00940022,PFWS,2023-06-02T19:56:00Z,58.7,-157.0,9.4,2.2,260,11,,10.0,29.949802,1018.7,,TRUE,TRUE,,,,,,,CLR,,,,,,,,VFR,,,,,,,,,,,,METAR,40.0
PFSH 021956Z AUTO 22005KT 10SM CLR 02/M05 A2989 RMK AO2 SLP122 T00221050 FZRANO,PFSH,2023-06-02T19:56:00Z,64.37,-161.22,2.2,-5.0,220,5,,10.0,29.890747,1012.2,,TRUE,TRUE,,,,TRUE,,,CLR,,,,,,,,VFR,,,,,,,,,,,,METAR,6.0
PFNO 021956Z AUTO 23010KT 10SM SCT015 M01/M04 A2986 RMK AO2 UPB01E35SNE01 SLP197 P0000 T10061039 FZRANO $,PFNO,2023-06-02T19:56:00Z,66.82,-161.02,-0.6,-3.9,230,10,,10.0,29.861221,1019.7,,TRUE,TRUE,TRUE,,,TRUE,,,SCT,1500,,,,,,,VFR,,,,,,0.005,,,,,,METAR,14.0
PFKW 021956Z AUTO 22010KT 10SM OVC017 04/01 A2989 RMK AO2 SLPNO T00390011,PFKW,2023-06-02T19:56:00Z,60.8,-161.43,3.9,1.1,220,10,,10.0,29.890747,,,TRUE,TRUE,,,,,,,OVC,1700,,,,,,,MVFR,,,,,,,,,,,,METAR,4.0
PFKT 021956Z AUTO 00000KT 10SM 01/M03 A2982 RMK AO2 UPB06E08RAB41E53SNE06 SLP100 P0000 T00061033 FZRANO $,PFKT,2023-06-02T19:56:00Z,65.33,-166.47,0.6,-3.3,0,0,,10.0,29.819881,1010.0,,TRUE,TRUE,TRUE,,,TRUE,,,,,,,,,,,,,,,,,0.005,,,,,,METAR,8.0
PFEL 021956Z AUTO VRB05KT 10SM BKN020 OVC060 01/M04 A2988 RMK AO2 SLP120 T00061039 FZRANO,PFEL,2023-06-02T19:56:00Z,64.62,-162.27,0.6,-3.9,0,5,,10.0,29.878937,1012.0,,TRUE,TRUE,,,,TRUE,,,BKN,2000,OVC,6000,,,,,MVFR,,,,,,,,,,,,METAR,50.0
PFCL 021956Z AUTO 22011KT 10SM CLR 09/01 A2993 RMK AO2 SLP129 T00940011 TSNO,PFCL,2023-06-02T19:56:00Z,58.83,-158.53,9.4,1.1,220,11,,10.0,29.929134,1012.9,,TRUE,TRUE,,,TRUE,,,,CLR,,,,,,,,VFR,,,,,,,,,,,,METAR,23.0
PAZK 021956Z AUTO 23006KT 10SM OVC060 05/M02 A2983 RMK AO2 SLP138 T00501017,PAZK,2023-06-02T19:56:00Z,61.93,-147.17,5.0,-1.7,230,6,,10.0,29.828741,1013.8,,TRUE,TRUE,,,,,,,OVC,6000,,,,,,,VFR,,,,,,,,,,,,METAR,1002.0
PAWS 021956Z AUTO 05005KT 10SM -RA OVC034 07/05 A2996 RMK AO2 SLP152 P0001 T00670050,PAWS,2023-06-02T19:56:00Z,61.57,-149.53,6.7,5.0,50,5,,10.0,29.958662,1015.2,,TRUE,TRUE,,,,,,-RA,OVC,3400,,,,,,,VFR,,,,,,0.01,,,,,,METAR,102.0
PAWN 021956Z AUTO 20011G15KT 8SM -SN OVC012 00/M03 RMK AO2 SLPNO P0000 T00001028 FZRANO $,PAWN,2023-06-02T19:56:00Z,67.57,-162.98,0.0,-2.8,200,11,15,8.0,,,,TRUE,TRUE,TRUE,,,TRUE,,-SN,OVC,1200,,,,,,,MVFR,,,,,,0.005,,,,,,METAR,26.0
PAWM 021956Z AUTO 15005KT 8SM OVC060 02/M04 A2985 RMK AO2 SLP115 T00171044 FZRANO,PAWM,2023-06-02T19:56:00Z,64.68,-163.42,1.7,-4.4,150,5,,8.0,29.84941,1011.5,,TRUE,TRUE,,,,TRUE,,,OVC,6000,,,,,,,VFR,,,,,,,,,,,,METAR,80.0
PAWG 021956Z VRB05KT 10SM -RA BKN035 OVC060 12/09 A3003,PAWG,2023-06-02T19:56:00Z,56.48,-132.37,12.0,9.0,0,5,,10.0,30.029528,,,,,,,,,,-RA,BKN,3500,OVC,6000,,,,,VFR,,,,,,,,,,,,METAR,6.0
PAVD 021956Z 25007KT 10SM FEW032 BKN055 BKN070 08/04 RMK AO2 SLPNO A3009 T00830039 $,PAVD,2023-06-02T19:56:00Z,61.13,-146.25,8.3,3.9,250,7,,10.0,,,,,TRUE,TRUE,,,,,,FEW,3200,BKN,5500,BKN,7000,,,VFR,,,,,,,,,,,,METAR,21.0
PAVC 021956Z AUTO 14011KT 10SM FEW120 07/02 A2992 RMK AO2 SLP132 T00670022 PNO $,PAVC,2023-06-02T19:56:00Z,55.12,-162.27,6.7,2.2,140,11,,10.0,29.920275,1013.2,,TRUE,TRUE,TRUE,,,,,,FEW,12000,,,,,,,VFR,,,,,,,,,,,,METAR,48.0
PAUN 021956Z AUTO 25004KT 10SM CLR 03/M02 A2988 RMK AO2 SLP123 T00281022,PAUN,2023-06-02T19:56:00Z,63.88,-160.8,2.8,-2.2,250,4,,10.0,29.878937,1012.3,,TRUE,TRUE,,,,,,,CLR,,,,,,,,VFR,,,,,,,,,,,,METAR,4.0
PATQ 021956Z AUTO 27006KT 10SM BKN032 OVC046 M01/M03 A2970 RMK AO2 SNE47 SLP063 P0000 T10111033 FZRANO TSNO,PATQ,2023-06-02T19:56:00Z,70.47,-157.43,-1.1,-3.3,270,6,,10.0,29.698818,1006.3,,TRUE,TRUE,,,TRUE,TRUE,,,BKN,3200,OVC,4600,,,,,VFR,,,,,,0.005,,,,,,METAR,28.0
PATG 021956Z AUTO 10SM CLR 06/02 A2994 RMK AO2 SLP140 T00560017 $,PATG,2023-06-02T19:56:00Z,59.05,-160.38,5.6,1.7,,,,10.0,29.940945,1014.0,,TRUE,TRUE,TRUE,,,,,,CLR,,,,,,,,VFR,,,,,,,,,,,,METAR,1.0
PATE 021956Z AUTO 19016KT 10SM BKN028 BKN033 OVC050 01/M05 A2979 RMK AO2 UPB11E24SNE11 SLP095 P0000 T00061050 FZRANO,PATE,2023-06-02T19:56:00Z,65.23,-166.33,0.6,-5.0,190,16,,10.0,29.790354,1009.5,,TRUE,TRUE,,,,TRUE,,,BKN,2800,BKN,3300,OVC,5000,,,MVFR,,,,,,0.005,,,,,,METAR,93.0
PASX 021956Z AUTO 22008KT 10SM OVC036 11/03 A2996 RMK AO2 SLP150 T01060028,PASX,2023-06-02T19:56:00Z,60.48,-151.05,10.6,2.8,220,8,,10.0,29.958662,1015.0,,TRUE,TRUE,,,,,,,OVC,3600,,,,,,,VFR,,,,,,,,,,,,METAR,28.0
PASM 021956Z AUTO 14010KT 10SM BKN011 OVC016 04/01 A2986 RMK AO2 SLP119 T00390011,PASM,2023-06-02T19:56:00Z,62.07,-163.3,3.9,1.1,140,10,,10.0,29.861221,1011.9,,TRUE,TRUE,,,,,,,BKN,1100,OVC,1600,,,,,MVFR,,,,,,,,,,,,METAR,108.0
PASL 021956Z AUTO 00000KT 10SM -RA OVC030 06/01 A2995 RMK AO2 RAB44 SLP133 P0000 T00610011,PASL,2023-06-02T19:56:00Z,61.68,-157.15,6.1,1.1,0,0,,10.0,29.949802,1013.3,,TRUE,TRUE,,,,,,-RA,OVC,3000,,,,,,,MVFR,,,,,,0.005,,,,,,METAR,64.0
PASK 021956Z AUTO 26009KT 10SM CLR M01/M04 A2988 RMK AO2 SLP116 T10061044 FZRANO,PASK,2023-06-02T19:56:00Z,66.6,-160.0,-0.6,-4.4,260,9,,10.0,29.878937,1011.6,,TRUE,TRUE,,,,TRUE,,,CLR,,,,,,,,VFR,,,,,,,,,,,,METAR,3.0
PASD 021956Z 15010KT 10SM FEW006 FEW024 SCT100 06/04 A2995 RMK AO2 SLP144 T00610039 PNO $,PASD,2023-06-02T19:56:00Z,55.33,-160.52,6.1,3.9,150,10,,10.0,29.949802,1014.4,,,TRUE,TRUE,,,,,,FEW,600,FEW,2400,SCT,10000,,,VFR,,,,,,,,,,,,METAR,6.0
PARY 021956Z AUTO VRB06KT 10SM OVC028 01/M06 A2988 RMK AO2 SLP130 T00111061 FZRANO,PARY,2023-06-02T19:56:00Z,64.73,-155.47,1.1,-6.1,0,6,,10.0,29.878937,1013.0,,TRUE,TRUE,,,,TRUE,,,OVC,2800,,,,,,,MVFR,,,,,,,,,,,,METAR,185.0
PARS 021956Z AUTO 18007KT 10SM OVC012 04/02 A2988 RMK AO2 SLP121 T00390017 $,PARS,2023-06-02T19:56:00Z,61.77,-161.32,3.9,1.7,180,7,,10.0,29.878937,1012.1,,TRUE,TRUE,TRUE,,,,,,OVC,1200,,,,,,,MVFR,,,,,,,,,,,,METAR,15.0
PARC 021956Z AUTO 10SM SCT029 03/M03 A2960 RMK AO2 SLP062 T00331033 $,PARC,2023-06-02T19:56:00Z,68.12,-145.58,3.3,-3.3,,,,10.0,29.601377,1006.2,,TRUE,TRUE,TRUE,,,,,,SCT,2900,,,,,,,VFR,,,,,,,,,,,,METAR,626.0
PAPO 021956Z AUTO 21013KT 10SM UP FEW025 BKN048 BKN060 M01/M02 A2969 RMK AO2 UPB02SNE02 SLP053 T10061017 FZRANO PNO $,PAPO,2023-06-02T19:56:00Z,68.35,-166.8,-0.6,-1.7,210,13,,10.0,29.68996,1005.3,,TRUE,TRUE,TRUE,,,TRUE,,UP,FEW,2500,BKN,4800,BKN,6000,,,VFR,,,,,,,,,,,,METAR,4.0
PAPM 021956Z AUTO 05008KT 10SM CLR 06/02 A2990 RMK AO2 SLP129 T00610017,PAPM,2023-06-02T19:56:00Z,59.02,-161.82,6.1,1.7,50,8,,10.0,29.899607,1012.9,,TRUE,TRUE,,,,,,,CLR,,,,,,,,VFR,,,,,,,,,,,,METAR,4.0
PAPH 021956Z AUTO 08007KT 10SM CLR 13/01 A2993 RMK AO2 SLP134 T01330006,PAPH,2023-06-02T19:56:00Z,56.95,-158.62,13.3,0.6,80,7,,10.0,29.929134,1013.4,,TRUE,TRUE,,,,,,,CLR,,,,,,,,VFR,,,,,,,,,,,,METAR,29.0
PAPG 021956Z 06006KT 10SM -RA FEW005 SCT027 OVC047 10/09 A3003 RMK AO2 SLP173 P0001 T01000089,PAPG,2023-06-02T19:56:00Z,56.82,-132.93,10.0,8.9,60,6,,10.0,30.029528,1017.3,,,TRUE,,,,,,-RA,FEW,500,SCT,2700,OVC,4700,,,VFR,,,,,,0.01,,,,,,METAR,24.0
PAOU 021956Z AUTO 13018G24KT 10SM CLR 09/03 A2987 RMK AO2 SLP113 T00940033 PNO $,PAOU,2023-06-02T19:56:00Z,56.0,-161.17,9.4,3.3,130,18,24,10.0,29.870079,1011.3,,TRUE,TRUE,TRUE,,,,,,CLR,,,,,,,,VFR,,,,,,,,,,,,METAR,3.0
PAOH 021956Z AUTO 08006KT 10SM OVC035 11/07 A3001 RMK AO2 SLP163 T01110067 PNO $,PAOH,2023-06-02T19:56:00Z,58.1,-135.45,11.1,6.7,80,6,,10.0,30.008858,1016.3,,TRUE,TRUE,TRUE,,,,,,OVC,3500,,,,,,,VFR,,,,,,,,,,,,METAR,0.0
PANW 021956Z AUTO 14006KT 10SM CLR 09/00 A2993 RMK AO2 SLP140 T00940000,PANW,2023-06-02T19:56:00Z,59.45,-157.32,9.4,0.0,140,6,,10.0,29.929134,1014.0,,TRUE,TRUE,,,,,,,CLR,,,,,,,,VFR,,,,,,,,,,,,METAR,100.0
PANV 021956Z AUTO 21005KT 10SM 06/M02 A2985 RMK AO2 SLP191 T00611022 TSNO $,PANV,2023-06-02T19:56:00Z,62.65,-160.18,6.1,-2.2,210,5,,10.0,29.84941,1019.1,,TRUE,TRUE,TRUE,,TRUE,,,,,,,,,,,,,,,,,,,,,,,,METAR,91.0
PANI 021956Z AUTO 22004KT 10SM BKN006 OVC012 03/02 A2995 RMK AO2 RAB12E49 CIG 005V010 SLP134 P0000 T00330022 $,PANI,2023-06-02T19:56:00Z,61.58,-159.53,3.3,2.2,220,4,,10.0,29.949802,1013.4,,TRUE,TRUE,TRUE,,,,,,BKN,600,OVC,1200,,,,,IFR,,,,,,0.005,,,,,,METAR,21.0
PAMY 021956Z AUTO 14007KT 10SM FEW016 05/01 A2982 RMK AO2 SLP096 T00500006,PAMY,2023-06-02T19:56:00Z,60.37,-166.27,5.0,0.6,140,7,,10.0,29.819881,1009.6,,TRUE,TRUE,,,,,,,FEW,1600,,,,,,,VFR,,,,,,,,,,,,METAR,14.0
PAMO 021956Z AUTO 15010KT 10SM OVC014 03/01 A2984 RMK AO2 SLP111 T00330006,PAMO,2023-06-02T19:56:00Z,62.1,-163.68,3.3,0.6,150,10,,10.0,29.840551,1011.1,,TRUE,TRUE,,,,,,,OVC,1400,,,,,,,MVFR,,,,,,,,,,,,METAR,93.0
PAMM 021956Z AUTO 00000KT 9SM -RA BKN030 OVC038 12/08 A3003 RMK AO2 SLP261 P0001 T01170083 $,PAMM,2023-06-02T19:56:00Z,55.13,-131.58,11.7,8.3,0,0,,9.0,30.029528,1026.1,,TRUE,TRUE,TRUE,,,,,-RA,BKN,3000,OVC,3800,,,,,MVFR,,,,,,0.01,,,,,,METAR,0.0
PAMK 021956Z AUTO 07010KT 10SM OVC100 03/M03 A2986 RMK AO2 SLP112 T00331033,PAMK,2023-06-02T19:56:00Z,63.48,-162.12,3.3,-3.3,70,10,,10.0,29.861221,1011.2,,TRUE,TRUE,,,,,,,OVC,10000,,,,,,,VFR,,,,,,,,,,,,METAR,31.0
PAMH 021956Z AUTO VRB06KT 10SM SCT033 BKN044 06/M03 A2988 RMK AO2 SLP119 T00561033,PAMH,2023-06-02T19:56:00Z,63.9,-152.28,5.6,-3.3,0,6,,10.0,29.878937,1011.9,,TRUE,TRUE,,,,,,,SCT,3300,BKN,4400,,,,,VFR,,,,,,,,,,,,METAR,200.0
PAMB 021956Z AUTO 22006KT 9SM CLR 11/00 A2993 RMK AO2 SLP137 T01060000 $,PAMB,2023-06-02T19:56:00Z,58.98,-159.05,10.6,0.0,220,6,,9.0,29.929134,1013.7,,TRUE,TRUE,TRUE,,,,,,CLR,,,,,,,,VFR,,,,,,,,,,,,METAR,28.0
PALG 021956Z AUTO 17006KT 10SM OVC008 03/02 A2990 RMK AO2 SLP128 T00330022,PALG,2023-06-02T19:56:00Z,61.53,-160.33,3.3,2.2,170,6,,10.0,29.899607,1012.8,,TRUE,TRUE,,,,,,,OVC,800,,,,,,,IFR,,,,,,,,,,,,METAR,13.0
PAKP 021956Z AUTO 07013KT 1SM -SN BR FEW013 BKN022 OVC030 M03/M05 A2962 RMK AO2 SLP075 P0000 T10281050 FZRANO,PAKP,2023-06-02T19:56:00Z,68.13,-151.73,-2.8,-5.0,70,13,,1.0,29.619095,1007.5,,TRUE,TRUE,,,,TRUE,,-SN BR,FEW,1300,BKN,2200,OVC,3000,,,IFR,,,,,,0.005,,,,,,METAR,649.0
PAKI 021956Z AUTO 10SM BKN009 04/02 A2987 RMK AO2 SLP117 T00440022 $,PAKI,2023-06-02T19:56:00Z,59.93,-164.03,4.4,2.2,,,,10.0,29.870079,1011.7,,TRUE,TRUE,TRUE,,,,,,BKN,900,,,,,,,IFR,,,,,,,,,,,,METAR,4.0
PAKH 021956Z AUTO 10SM CLR 12/01 A2998 RMK AO2 SLP152 T01220006 TSNO $,PAKH,2023-06-02T19:56:00Z,56.93,-154.18,12.2,0.6,,,,10.0,29.97933,1015.2,,TRUE,TRUE,TRUE,,TRUE,,,,CLR,,,,,,,,VFR,,,,,,,,,,,,METAR,15.0
PAKF 021956Z AUTO 16012G22KT 10SM OVC019 07/02 A2984 RMK AO2 SLP103 T00720022 PNO $,PAKF,2023-06-02T19:56:00Z,54.85,-163.42,7.2,2.2,160,12,22,10.0,29.840551,1010.3,,TRUE,TRUE,TRUE,,,,,,OVC,1900,,,,,,,MVFR,,,,,,,,,,,,METAR,2.0
PAJZ 021956Z AUTO VRB06KT 8SM CLR 09/02 A2996 RMK AO2 SLP155 T00890022 $,PAJZ,2023-06-02T19:56:00Z,59.73,-157.27,8.9,2.2,0,6,,8.0,29.958662,1015.5,,TRUE,TRUE,TRUE,,,,,,CLR,,,,,,,,VFR,,,,,,,,,,,,METAR,80.0
PAIN 021956Z AUTO 16004KT 10SM -RA OVC013 04/01 A2985 RMK AO2 SLP127 T00390011 PNO $,PAIN,2023-06-02T19:56:00Z,63.73,-148.92,3.9,1.1,160,4,,10.0,29.84941,1012.7,,TRUE,TRUE,TRUE,,,,,-RA,OVC,1300,,,,,,,MVFR,,,,,,,,,,,,METAR,525.0
PAIK 021956Z AUTO 23012KT 5SM -SN BR SCT007 OVC014 M01/M03 A2986 RMK AO2 SLP114 P0000 T10061028 FZRANO,PAIK,2023-06-02T19:56:00Z,66.98,-160.43,-0.6,-2.8,230,12,,5.0,29.861221,1011.4,,TRUE,TRUE,,,,TRUE,,-SN BR,SCT,700,OVC,1400,,,,,MVFR,,,,,,0.005,,,,,,METAR,49.0
PAIG 021956Z AUTO 24010KT 10SM CLR 09/03 A2995 RMK AO2 SLP150 T00890028 $,PAIG,2023-06-02T19:56:00Z,59.32,-155.9,8.9,2.8,240,10,,10.0,29.949802,1015.0,,TRUE,TRUE,TRUE,,,,,,CLR,,,,,,,,VFR,,,,,,,,,,,,METAR,24.0
PAHY 021956Z AUTO VRB05KT 7SM -RA BKN013 BKN020 OVC028 11/09 A2997 RMK AO2 SLP145 P0009 T01060089 $,PAHY,2023-06-02T19:56:00Z,55.2,-132.83,10.6,8.9,0,5,,7.0,29.970472,1014.5,,TRUE,TRUE,TRUE,,,,,-RA,BKN,1300,BKN,2000,OVC,2800,,,MVFR,,,,,,0.09,,,,,,METAR,0.0
PAHL 021956Z AUTO 31005KT 10SM OVC030 01/M07 A2989 RMK AO2 SLP125 T00061072 FZRANO,PAHL,2023-06-02T19:56:00Z,65.7,-156.35,0.6,-7.2,310,5,,10.0,29.890747,1012.5,,TRUE,TRUE,,,,TRUE,,,OVC,3000,,,,,,,MVFR,,,,,,,,,,,,METAR,49.0
PAHC 021956Z AUTO VRB06KT 10SM SCT020 BKN027 OVC040 06/01 A2989 RMK AO2 SLP126 T00560011,PAHC,2023-06-02T19:56:00Z,62.18,-159.78,5.6,1.1,0,6,,10.0,29.890747,1012.6,,TRUE,TRUE,,,,,,,SCT,2000,BKN,2700,OVC,4000,,,MVFR,,,,,,,,,,,,METAR,21.0
PAGS 021956Z AUTO 00000KT 10SM BKN050 OVC060 12/07 A3003 RMK AO2 SLP168 T01220067,PAGS,2023-06-02T19:56:00Z,58.42,-135.7,12.2,6.7,0,0,,10.0,30.029528,1016.8,,TRUE,TRUE,,,,,,,BKN,5000,OVC,6000,,,,,VFR,,,,,,,,,,,,METAR,9.0
PAGN 021956Z AUTO 12006KT 10SM -RA FEW038 BKN047 OVC055 14/08 A3002 RMK AO2 RAB01E13B43 SLP153 P0000 T01390083,PAGN,2023-06-02T19:56:00Z,57.5,-134.58,13.9,8.3,120,6,,10.0,30.02067,1015.3,,TRUE,TRUE,,,,,,-RA,FEW,3800,BKN,4700,OVC,5500,,,VFR,,,,,,0.005,,,,,,METAR,2.0
PAFM 021956Z AUTO 26007KT 10SM OVC040 01/M08 A2984 RMK AO2 SLP112 T00111083 FZRANO,PAFM,2023-06-02T19:56:00Z,67.1,-157.85,1.1,-8.3,260,7,,10.0,29.840551,1011.2,,TRUE,TRUE,,,,TRUE,,,OVC,4000,,,,,,,VFR,,,,,,,,,,,,METAR,79.0
PAFE 021956Z AUTO 10007KT 10SM -RA FEW018 BKN039 OVC060 12/09 A3002 RMK AO2 RAE1857B51 SLP179 P0000 T01170089 $,PAFE,2023-06-02T19:56:00Z,56.97,-133.92,11.7,8.9,100,7,,10.0,30.02067,1017.9,,TRUE,TRUE,TRUE,,,,,-RA,FEW,1800,BKN,3900,OVC,6000,,,VFR,,,,,,0.005,,,,,,METAR,1.0
PADU 021956Z 15011KT 10SM SCT016 BKN022 OVC029 08/05 A2966 RMK AO2 RAE37 SLP046 P0000 T00780050 $,PADU,2023-06-02T19:56:00Z,53.9,-166.53,7.8,5.0,150,11,,10.0,29.660433,1004.6,,,TRUE,TRUE,,,,,,SCT,1600,BKN,2200,OVC,2900,,,MVFR,,,,,,0.005,,,,,,METAR,4.0
PADM 021956Z AUTO 11010KT 10SM BKN010 OVC016 04/02 A2991 RMK AO2 SLP134 T00390022,PADM,2023-06-02T19:56:00Z,61.87,-162.03,3.9,2.2,110,10,,10.0,29.911417,1013.4,,TRUE,TRUE,,,,,,,BKN,1000,OVC,1600,,,,,MVFR,,,,,,,,,,,,METAR,17.0
PADL 021956Z 17011G15KT 10SM CLR 11/02 A2991 RMK AO2 SLP132 T01060022,PADL,2023-06-02T19:56:00Z,59.05,-158.5,10.6,2.2,170,11,15,10.0,29.911417,1013.2,,,TRUE,,,,,,,CLR,,,,,,,,VFR,,,,,,,,,,,,METAR,20.0
PADK 021956Z AUTO 23015KT OVC012 06/05 A2960 RMK AO2 SLP023 T00610050 PWINO $,PADK,2023-06-02T19:56:00Z,51.88,-176.65,6.1,5.0,230,15,,,29.601377,1002.3,,TRUE,TRUE,TRUE,,,,TRUE,,OVC,1200,,,,,,,,,,,,,,,,,,,METAR,3.0
PACM 021956Z AUTO 18005KT OVC004 02/02 A2985 RMK AO2 SLP103 T00170017 PWINO FZRANO $,PACM,2023-06-02T19:56:00Z,61.85,-165.57,1.7,1.7,180,5,,,29.84941,1010.3,,TRUE,TRUE,TRUE,,,TRUE,TRUE,,OVC,400,,,,,,,,,,,,,,,,,,,METAR,3.0
PABV 021956Z AUTO VRB03KT 10SM -RA OVC044 08/05 A2996 RMK AO2 SLP152 P0000 T00780050,PABV,2023-06-02T19:56:00Z,61.42,-149.52,7.8,5.0,0,3,,10.0,29.958662,1015.2,,TRUE,TRUE,,,,,,-RA,OVC,4400,,,,,,,VFR,,,,,,0.005,,,,,,METAR,21.0
PABL 021956Z AUTO 18008KT 10SM OVC036 03/M06 A2986 RMK AO2 SLP114 T00281061,PABL,2023-06-02T19:56:00Z,65.98,-161.15,2.8,-6.1,180,8,,10.0,29.861221,1011.4,,TRUE,TRUE,,,,,,,OVC,3600,,,,,,,VFR,,,,,,,,,,,,METAR,7.0
KYKN 021956Z AUTO 05013KT 10SM BKN065 27/18 A2995 RMK AO2 LTG DSNT N-SE TSB10E43 SLP144 T02720178,KYKN,2023-06-02T19:56:00Z,42.92,-97.37,27.2,17.8,50,13,,10.0,29.949802,1014.4,,TRUE,TRUE,,,,,,,BKN,6500,,,,,,,VFR,,,,,,,,,,,,METAR,388.0
KY50 021956Z AUTO 19006KT 10SM FEW070 32/14 A3005 RMK AO2 SLP165 T03220144 $,KY50,2023-06-02T19:56:00Z,44.03,-89.3,32.2,14.4,190,6,,10.0,30.050198,1016.5,,TRUE,TRUE,TRUE,,,,,,FEW,7000,,,,,,,VFR,,,,,,,,,,,,METAR,261.0
KWWD 021956Z AUTO 14006KT 10SM CLR 27/13 A2988 RMK AO2 SLP119 T02720128 $,KWWD,2023-06-02T19:56:00Z,39.02,-74.92,27.2,12.8,140,6,,10.0,29.878937,1011.9,,TRUE,TRUE,TRUE,,,,,,CLR,,,,,,,,VFR,,,,,,,,,,,,METAR,4.0
KWVL 021956Z AUTO 04010G18KT 10SM -TSRA FEW010 BKN055 OVC075 19/17 A2985 RMK AO2 PK WND 01031/1928 LTG DSNT ALQDS RAB35 SLP134 P0000 T01890172,KWVL,2023-06-02T19:56:00Z,44.52,-69.67,18.9,17.2,40,10,18,10.0,29.84941,1013.4,,TRUE,TRUE,,,,,,-TSRA,FEW,1000,BKN,5500,OVC,7500,,,VFR,,,,,,0.005,,,,,,METAR,87.0
KWMC 021956Z AUTO 28009G17KT 10SM FEW065 FEW080 21/03 A3006 RMK AO2 SLP145 T02060028,KWMC,2023-06-02T19:56:00Z,40.9,-117.8,20.6,2.8,280,9,17,10.0,30.059055,1014.5,,TRUE,TRUE,,,,,,,FEW,6500,FEW,8000,,,,,VFR,,,,,,,,,,,,METAR,1311.0
KVIS 021956Z AUTO 29005KT 9SM CLR 26/12 A2994 RMK AO2 SLP144 T02610117,KVIS,2023-06-02T19:56:00Z,36.32,-119.4,26.1,11.7,290,5,,9.0,29.940945,1014.4,,TRUE,TRUE,,,,,,,CLR,,,,,,,,VFR,,,,,,,,,,,,METAR,92.0
KVBT 021956Z AUTO 12006KT 10SM BKN055 BKN070 31/17 A2997 RMK AO2 SLP138 T03060172,KVBT,2023-06-02T19:56:00Z,36.35,-94.22,30.6,17.2,120,6,,10.0,29.970472,1013.8,,TRUE,TRUE,,,,,,,BKN,5500,BKN,7000,,,,,VFR,,,,,,,,,,,,METAR,390.0
KUDG 021956Z AUTO 05009KT 10SM SCT048 29/17 A2986 RMK AO2 SLP109 T02940167,KUDG,2023-06-02T19:56:00Z,34.45,-79.88,29.4,16.7,50,9,,10.0,29.861221,1010.9,,TRUE,TRUE,,,,,,,SCT,4800,,,,,,,VFR,,,,,,,,,,,,METAR,57.0
KUCP 021956Z AUTO 04006KT 10SM SCT085 31/11 A2999 RMK AO2 SLP164 T03060106,KUCP,2023-06-02T19:56:00Z,41.03,-80.42,30.6,10.6,40,6,,10.0,29.991142,1016.4,,TRUE,TRUE,,,,,,,SCT,8500,,,,,,,VFR,,,,,,,,,,,,METAR,313.0
KTVF 021956Z AUTO 12008KT 10SM FEW060 28/21 A3000 RMK AO2 SLP157 T02830206,KTVF,2023-06-02T19:56:00Z,48.07,-96.17,28.3,20.6,120,8,,10.0,30.0,1015.7,,TRUE,TRUE,,,,,,,FEW,6000,,,,,,,VFR,,,,,,,,,,,,METAR,339.0
KSUE 021956Z AUTO VRB05KT 7SM CLR 29/14 A3009 RMK AO2 SLP186 T02890139,KSUE,2023-06-02T19:56:00Z,44.85,-87.42,28.9,13.9,0,5,,7.0,30.088583,1018.6,,TRUE,TRUE,,,,,,,CLR,,,,,,,,VFR,,,,,,,,,,,,METAR,215.0
KSRC 021956Z AUTO 00000KT 9SM BKN060 32/17 A2991 RMK AO2 SLP125 T03220172,KSRC,2023-06-02T19:56:00Z,35.22,-91.73,32.2,17.2,0,0,,9.0,29.911417,1012.5,,TRUE,TRUE,,,,,,,BKN,6000,,,,,,,VFR,,,,,,,,,,,,METAR,80.0
KSQI 021956Z AUTO 01008KT 10SM -RA CLR 31/19 A3001 RMK AO2 LTG DSNT NW RAB12 SLP024 P0000 T03060189,KSQI,2023-06-02T19:56:00Z,41.75,-89.67,30.6,18.9,10,8,,10.0,30.008858,1002.4,,TRUE,TRUE,,,,,,-RA,CLR,,,,,,,,VFR,,,,,,0.005,,,,,,METAR,196.0
KSOP 021956Z AUTO 02006KT 10SM SCT043 OVC055 26/17 A2989 RMK AO2 SLP122 T02610172,KSOP,2023-06-02T19:56:00Z,35.23,-79.4,26.1,17.2,20,6,,10.0,29.890747,1012.2,,TRUE,TRUE,,,,,,,SCT,4300,OVC,5500,,,,,VFR,,,,,,,,,,,,METAR,135.0
KSMN 021956Z AUTO 34004KT 10SM CLR 19/09 A2997 RMK AO2 SLP843 T01940094,KSMN,2023-06-02T19:56:00Z,45.12,-113.87,19.4,9.4,340,4,,10.0,29.970472,984.3,,TRUE,TRUE,,,,,,,CLR,,,,,,,,VFR,,,,,,,,,,,,METAR,1228.0
KSLG 021956Z AUTO 14007KT 10SM BKN055 BKN120 29/18 A2996 RMK AO2 SLP133 T02890178,KSLG,2023-06-02T19:56:00Z,36.2,-94.48,28.9,17.8,140,7,,10.0,29.958662,1013.3,,TRUE,TRUE,,,,,,,BKN,5500,BKN,12000,,,,,VFR,,,,,,,,,,,,METAR,361.0
KSKX 021956Z AUTO 23007KT 190V250 10SM FEW049 SCT085 18/02 A3006 RMK AO2 RAB33E50 SLP127 P0001 T01780022,KSKX,2023-06-02T19:56:00Z,36.45,-105.67,17.8,2.2,230,7,,10.0,30.059055,1012.7,,TRUE,TRUE,,,,,,,FEW,4900,SCT,8500,,,,,VFR,,,,,,0.01,,,,,,METAR,2163.0
KSHV 021956Z VRB05KT 10SM SCT060 SCT100 34/18 A2989 RMK SLPNO,KSHV,2023-06-02T19:56:00Z,32.45,-93.83,34.0,18.0,0,5,,10.0,29.890747,,,,,,,,,,,SCT,6000,SCT,10000,,,,,VFR,,,,,,,,,,,,METAR,70.0
KSGU 021956Z AUTO 27012G17KT 220V300 10SM CLR 29/04 A2988 RMK AO2 SLP083 T02940039,KSGU,2023-06-02T19:56:00Z,37.03,-113.52,29.4,3.9,270,12,17,10.0,29.878937,1008.3,,TRUE,TRUE,,,,,,,CLR,,,,,,,,VFR,,,,,,,,,,,,METAR,877.0
KSGT 021956Z AUTO 00000KT 10SM FEW060 32/18 A2990 RMK AO2 SLP125 T03170178,KSGT,2023-06-02T19:56:00Z,34.6,-91.57,31.7,17.8,0,0,,10.0,29.899607,1012.5,,TRUE,TRUE,,,,,,,FEW,6000,,,,,,,VFR,,,,,,,,,,,,METAR,67.0
KSGJ 021956Z 04013KT 10SM BKN011 26/21 A2981 RMK AO2 SLP092 T02560211 $,KSGJ,2023-06-02T19:56:00Z,29.97,-81.33,25.6,21.1,40,13,,10.0,29.811024,1009.2,,,TRUE,TRUE,,,,,,BKN,1100,,,,,,,MVFR,,,,,,,,,,,,METAR,2.0
KSGH 021956Z AUTO 05009KT 10SM CLR 32/09 A2998 RMK AO2 SLP147 T03170089,KSGH,2023-06-02T19:56:00Z,39.83,-83.83,31.7,8.9,50,9,,10.0,29.97933,1014.7,,TRUE,TRUE,,,,,,,CLR,,,,,,,,VFR,,,,,,,,,,,,METAR,318.0
KSFZ 021956Z AUTO 14006KT CLR 28/17 A2985 RMK AO2 LTG DSNT SW-NW SLP107 T02780172 PWINO $,KSFZ,2023-06-02T19:56:00Z,41.92,-71.5,27.8,17.2,140,6,,,29.84941,1010.7,,TRUE,TRUE,TRUE,,,,TRUE,,CLR,,,,,,,,,,,,,,,,,,,,METAR,129.0
KSFM 021956Z AUTO 12010KT 10SM CLR 28/15 A2985 RMK AO2 LTG DSNT N AND NW SLP110 T02780150,KSFM,2023-06-02T19:56:00Z,43.38,-70.72,27.8,15.0,120,10,,10.0,29.84941,1011.0,,TRUE,TRUE,,,,,,,CLR,,,,,,,,VFR,,,,,,,,,,,,METAR,70.0
KSDY 021956Z AUTO 13009KT 10SM FEW050 27/17 A2987 RMK AO2 SLP108 T02670167,KSDY,2023-06-02T19:56:00Z,47.7,-104.2,26.7,16.7,130,9,,10.0,29.870079,1010.8,,TRUE,TRUE,,,,,,,FEW,5000,,,,,,,VFR,,,,,,,,,,,,METAR,600.0
KRUT 021956Z AUTO 04003KT 10SM FEW110 28/17 A2989 RMK AO2 TSB31E46 SLP112 T02780167 $,KRUT,2023-06-02T19:56:00Z,43.53,-72.95,27.8,16.7,40,3,,10.0,29.890747,1011.2,,TRUE,TRUE,TRUE,,,,,,FEW,11000,,,,,,,VFR,,,,,,,,,,,,METAR,238.0
KRKD 021956Z AUTO 09008KT 10SM CLR 16/13 A2990 RMK AO2 LTG DSNT NW SLP124 T01610128,KRKD,2023-06-02T19:56:00Z,44.07,-69.1,16.1,12.8,90,8,,10.0,29.899607,1012.4,,TRUE,TRUE,,,,,,,CLR,,,,,,,,VFR,,,,,,,,,,,,METAR,15.0
KPWT 021956Z AUTO 23007KT 10SM CLR 19/09 A3011 RMK AO2 SLP201 T01940089,KPWT,2023-06-02T19:56:00Z,47.5,-122.77,19.4,8.9,230,7,,10.0,30.109253,1020.1,,TRUE,TRUE,,,,,,,CLR,,,,,,,,VFR,,,,,,,,,,,,METAR,143.0
KPWG 021956Z AUTO 14008KT 10SM CLR 33/18 A2989 RMK AO2 SLPNO T03330178 $,KPWG,2023-06-02T19:56:00Z,31.48,-97.32,33.3,17.8,140,8,,10.0,29.890747,,,TRUE,TRUE,TRUE,,,,,,CLR,,,,,,,,VFR,,,,,,,,,,,,METAR,178.0
KPVU 021956Z VRB04KT 10SM SCT060 SCT100 BKN200 21/08 A3001 RMK AO2 LTG DSNT SW SLP125 T02060078,KPVU,2023-06-02T19:56:00Z,40.22,-111.72,20.6,7.8,0,4,,10.0,30.008858,1012.5,,,TRUE,,,,,,,SCT,6000,SCT,10000,BKN,20000,,,VFR,,,,,,,,,,,,METAR,1370.0
KPVG 021956Z AUTO 10SM CLR 26/18 A2989 RMK AO2 SLP123 T02610183 $,KPVG,2023-06-02T19:56:00Z,36.78,-76.45,26.1,18.3,,,,10.0,29.890747,1012.3,,TRUE,TRUE,TRUE,,,,,,CLR,,,,,,,,VFR,,,,,,,,,,,,METAR,7.0
KPVC 021956Z AUTO 18010KT 10SM CLR 27/17 A2985 RMK AO2 SLP106 T02720167,KPVC,2023-06-02T19:56:00Z,42.07,-70.22,27.2,16.7,180,10,,10.0,29.84941,1010.6,,TRUE,TRUE,,,,,,,CLR,,,,,,,,VFR,,,,,,,,,,,,METAR,1.0
KPTV 021956Z AUTO 30007KT 6SM HZ CLR 27/11 A2995 RMK AO2 SLP139 T02670106,KPTV,2023-06-02T19:56:00Z,36.02,-119.07,26.7,10.6,300,7,,6.0,29.949802,1013.9,,TRUE,TRUE,,,,,,HZ,CLR,,,,,,,,VFR,,,,,,,,,,,,METAR,132.0
KPTN 021956Z AUTO 04007KT 010V070 10SM BKN055 31/19 A2987 RMK AO2 SLP115 T03110189 $,KPTN,2023-06-02T19:56:00Z,29.72,-91.33,31.1,18.9,40,7,,10.0,29.870079,1011.5,,TRUE,TRUE,TRUE,,,,,,BKN,5500,,,,,,,VFR,,,,,,,,,,,,METAR,2.0
KPRX 021956Z AUTO 13009KT 10SM FEW055 30/19 A2990 RMK AO2 SLP119 T03000189,KPRX,2023-06-02T19:56:00Z,33.63,-95.45,30.0,18.9,130,9,,10.0,29.899607,1011.9,,TRUE,TRUE,,,,,,,FEW,5500,,,,,,,VFR,,,,,,,,,,,,METAR,165.0
KPQI 021956Z AUTO 06014KT 10SM -RA FEW020 SCT030 OVC041 13/11 A3006 RMK AO2 SLP204 P0004 T01280111,KPQI,2023-06-02T19:56:00Z,46.68,-68.05,12.8,11.1,60,14,,10.0,30.059055,1020.4,,TRUE,TRUE,,,,,,-RA,FEW,2000,SCT,3000,OVC,4100,,,VFR,,,,,,0.04,,,,,,METAR,154.0
KPIB 021956Z AUTO 01006KT 10SM FEW055 32/18 A2988 RMK AO2 SLP116 T03220183,KPIB,2023-06-02T19:56:00Z,31.47,-89.33,32.2,18.3,10,6,,10.0,29.878937,1011.6,,TRUE,TRUE,,,,,,,FEW,5500,,,,,,,VFR,,,,,,,,,,,,METAR,91.0
KP60 021956Z AUTO 32007KT 11/06 A3010 RMK AO1 SLP141 T01110056 ,KP60,2023-06-02T19:56:00Z,44.55,-110.42,11.1,5.6,320,7,,,30.100393,1014.1,,TRUE,TRUE,,,,,,,,,,,,,,,,,,,,,,,,,,,METAR,2377.0
KOWB 021956Z 07007KT 10SM CLR 32/14 A2993 RMK AO2 SLP131 T03220139,KOWB,2023-06-02T19:56:00Z,37.72,-87.17,32.2,13.9,70,7,,10.0,29.929134,1013.1,,,TRUE,,,,,,,CLR,,,,,,,,VFR,,,,,,,,,,,,METAR,121.0
KOTH 021956Z 35015KT 10SM CLR 16/08 A3016 RMK AO2 SLP213 T01560083,KOTH,2023-06-02T19:56:00Z,43.42,-124.25,15.6,8.3,350,15,,10.0,30.159449,1021.3,,,TRUE,,,,,,,CLR,,,,,,,,VFR,,,,,,,,,,,,METAR,3.0
KOTG 021956Z AUTO 11016G24KT 10SM BKN060 30/16 A2999 RMK AO2 SLP146 T03000156 PNO $,KOTG,2023-06-02T19:56:00Z,43.65,-95.57,30.0,15.6,110,16,24,10.0,29.991142,1014.6,,TRUE,TRUE,TRUE,,,,,,BKN,6000,,,,,,,VFR,,,,,,,,,,,,METAR,478.0
KOLU 021956Z AUTO 27004KT 10SM FEW060 28/16 A2996 RMK AO2 SLP137 T02830161,KOLU,2023-06-02T19:56:00Z,41.45,-97.33,28.3,16.1,270,4,,10.0,29.958662,1013.7,,TRUE,TRUE,,,,,,,FEW,6000,,,,,,,VFR,,,,,,,,,,,,METAR,438.0
KOKK 021956Z AUTO 03009G21KT 10SM CLR 32/09 A3001 RMK AO2 SLP157 T03170094 PNO $,KOKK,2023-06-02T19:56:00Z,40.53,-86.07,31.7,9.4,30,9,21,10.0,30.008858,1015.7,,TRUE,TRUE,TRUE,,,,,,CLR,,,,,,,,VFR,,,,,,,,,,,,METAR,251.0
KOCH 021956Z AUTO 18004KT 4SM HZ FEW110 32/17 A2990 RMK AO2 SLP124 T03220172,KOCH,2023-06-02T19:56:00Z,31.57,-94.72,32.2,17.2,180,4,,4.0,29.899607,1012.4,,TRUE,TRUE,,,,,,HZ,FEW,11000,,,,,,,MVFR,,,,,,,,,,,,METAR,105.0
KOAJ 021956Z 03011G14KT 10SM FEW026 BKN046 OVC060 26/19 A2985 RMK AO2 RAB23E34 SLP111 P0000 T02610194,KOAJ,2023-06-02T19:56:00Z,34.82,-77.62,26.1,19.4,30,11,14,10.0,29.84941,1011.1,,,TRUE,,,,,,,FEW,2600,BKN,4600,OVC,6000,,,VFR,,,,,,0.005,,,,,,METAR,26.0
KNYG 021956Z 18004KT 5SM CLR 28/19 A2987 RMK AO2 SLP115 T02830194 $ ,KNYG,2023-06-02T19:56:00Z,38.5,-77.3,28.3,19.4,180,4,,5.0,29.870079,1011.5,,,TRUE,TRUE,,,,,,CLR,,,,,,,,MVFR,,,,,,,,,,,,METAR,2.0
KNXP 021956Z AUTO 11009G16KT 10SM CLR 31/04 A2996 RMK AO2 SLP111 T03060039 ,KNXP,2023-06-02T19:56:00Z,34.28,-116.13,30.6,3.9,110,9,16,10.0,29.958662,1011.1,,TRUE,TRUE,,,,,,,CLR,,,,,,,,VFR,,,,,,,,,,,,METAR,610.0
KNPA 021956Z 18007KT 10SM BKN065 29/18 A2982 RMK AO2 SLP098 T02940183 ,KNPA,2023-06-02T19:56:00Z,30.35,-87.32,29.4,18.3,180,7,,10.0,29.819881,1009.8,,,TRUE,,,,,,,BKN,6500,,,,,,,VFR,,,,,,,,,,,,METAR,6.0
KNMM 021956Z 08003KT 10SM SCT050 BKN085 OVC110 31/18 A2988 RMK AO2 SLPNO T03110178 $ ,KNMM,2023-06-02T19:56:00Z,32.53,-88.53,31.1,17.8,80,3,,10.0,29.878937,,,,TRUE,TRUE,,,,,,SCT,5000,BKN,8500,OVC,11000,,,VFR,,,,,,,,,,,,METAR,94.0
KNLC 021956Z VRB04KT 10SM CLR 28/08 A2994 RMK AO2 SLP137 RH/27 T02830078 ,KNLC,2023-06-02T19:56:00Z,36.32,-119.95,28.3,7.8,0,4,,10.0,29.940945,1013.7,,,TRUE,,,,,,,CLR,,,,,,,,VFR,,,,,,,,,,,,METAR,69.0
KNKT 021956Z AUTO 05008KT 10SM SCT040 OVC050 26/22 A2985 RMK AO2 SLP104 T02560217 ,KNKT,2023-06-02T19:56:00Z,34.9,-76.88,25.6,21.7,50,8,,10.0,29.84941,1010.4,,TRUE,TRUE,,,,,,,SCT,4000,OVC,5000,,,,,VFR,,,,,,,,,,,,METAR,8.0
KNJK 021956Z 10005KT 10SM CLR 31/12 A2986 RMK AO2 SLP125 T03060117 $ ,KNJK,2023-06-02T19:56:00Z,32.82,-115.67,30.6,11.7,100,5,,10.0,29.861221,1012.5,,,TRUE,TRUE,,,,,,CLR,,,,,,,,VFR,,,,,,,,,,,,METAR,-15.0
KNGP 021956Z 14014G23KT 10SM SCT030 SCT250 32/22 A2987 RMK AO2 SLP114 T03220217 ,KNGP,2023-06-02T19:56:00Z,27.68,-97.28,32.2,21.7,140,14,23,10.0,29.870079,1011.4,,,TRUE,,,,,,,SCT,3000,SCT,25000,,,,,VFR,,,,,,,,,,,,METAR,5.0
KNFL 021956Z 36007KT 10SM SCT060 23/04 A3004 RMK AO2 SLP140 T02330039 ,KNFL,2023-06-02T19:56:00Z,39.42,-118.7,23.3,3.9,360,7,,10.0,30.041338,1014.0,,,TRUE,,,,,,,SCT,6000,,,,,,,VFR,,,,,,,,,,,,METAR,1199.0
KNFE 021956Z AUTO 04006KT 10SM CLR 26/19 A2987 RMK AO2 SLP118 T02610189 ,KNFE,2023-06-02T19:56:00Z,36.7,-76.13,26.1,18.9,40,6,,10.0,29.870079,1011.8,,TRUE,TRUE,,,,,,,CLR,,,,,,,,VFR,,,,,,,,,,,,METAR,4.0
KNCA 021956Z 06005KT 10SM BKN026 BKN034 OVC060 24/20 A2983 RMK AO2 RAE1859B38E53 SLP105 P0001 T02390200 ,KNCA,2023-06-02T19:56:00Z,34.72,-77.45,23.9,20.0,60,5,,10.0,29.828741,1010.5,,,TRUE,,,,,,,BKN,2600,BKN,3400,OVC,6000,,,MVFR,,,,,,0.01,,,,,,METAR,9.0
KNBC 021956Z 02007KT 350V060 10SM BKN055 BKN120 28/17 A2983 RMK AO2 SLP103 T02830172 ,KNBC,2023-06-02T19:56:00Z,32.47,-80.72,28.3,17.2,20,7,,10.0,29.828741,1010.3,,,TRUE,,,,,,,BKN,5500,BKN,12000,,,,,VFR,,,,,,,,,,,,METAR,9.0
KMYR 021956Z 02004KT 10SM -RA FEW018 BKN023 OVC050 23/22 A2984 RMK AO2 RAB45 SLP105 P0000 T02330217,KMYR,2023-06-02T19:56:00Z,33.68,-78.92,23.3,21.7,20,4,,10.0,29.840551,1010.5,,,TRUE,,,,,,-RA,FEW,1800,BKN,2300,OVC,5000,,,MVFR,,,,,,0.005,,,,,,METAR,7.0
KMVN 021956Z AUTO 04007KT 360V080 10SM FEW085 33/13 A2995 RMK AO2 SLP140 T03330128,KMVN,2023-06-02T19:56:00Z,38.32,-88.87,33.3,12.8,40,7,,10.0,29.949802,1014.0,,TRUE,TRUE,,,,,,,FEW,8500,,,,,,,VFR,,,,,,,,,,,,METAR,145.0
KMTW 021956Z AUTO 11007KT 10SM CLR 23/16 A3008 RMK AO2 SLP184 T02280156,KMTW,2023-06-02T19:56:00Z,44.12,-87.67,22.8,15.6,110,7,,10.0,30.079725,1018.4,,TRUE,TRUE,,,,,,,CLR,,,,,,,,VFR,,,,,,,,,,,,METAR,197.0
KMSV 021956Z AUTO 36003KT 10SM -RA BKN110 20/18 A2994 RMK AO2 LTG DSNT ALQDS TSE25 SLP133 P0002 T02000183,KMSV,2023-06-02T19:56:00Z,41.7,-74.78,20.0,18.3,360,3,,10.0,29.940945,1013.3,,TRUE,TRUE,,,,,,-RA,BKN,11000,,,,,,,VFR,,,,,,0.02,,,,,,METAR,427.0
KMRF 021956Z AUTO 24019G33KT 200V270 10SM CLR 31/M06 A2996 RMK AO2 PK WND 23033/1955 SLP078 T03061061,KMRF,2023-06-02T19:56:00Z,30.37,-104.02,30.6,-6.1,240,19,33,10.0,29.958662,1007.8,,TRUE,TRUE,,,,,,,CLR,,,,,,,,VFR,,,,,,,,,,,,METAR,1476.0
KMQY 021956Z 03008KT 10SM FEW065 32/17 A2991 RMK AO2 SLP129 T03220172,KMQY,2023-06-02T19:56:00Z,36.02,-86.52,32.2,17.2,30,8,,10.0,29.911417,1012.9,,,TRUE,,,,,,,FEW,6500,,,,,,,VFR,,,,,,,,,,,,METAR,156.0
KMML 021956Z AUTO 15008G16KT 10SM CLR 31/17 A2997 RMK AO2 LTG DSNT N AND NE SLP143 T03060167 $,KMML,2023-06-02T19:56:00Z,44.45,-95.82,30.6,16.7,150,8,16,10.0,29.970472,1014.3,,TRUE,TRUE,TRUE,,,,,,CLR,,,,,,,,VFR,,,,,,,,,,,,METAR,358.0
KMKY 021956Z AUTO 20008KT 10SM SCT033 31/22 A2971 RMK AO2 SLP060 T03060217 TSNO PNO $,KMKY,2023-06-02T19:56:00Z,26.0,-81.67,30.6,21.7,200,8,,10.0,29.71063,1006.0,,TRUE,TRUE,TRUE,,TRUE,,,,SCT,3300,,,,,,,VFR,,,,,,,,,,,,METAR,2.0
KMKT 021956Z AUTO 08008KT 10SM CLR 29/17 A3001 RMK AO2 LTG DSNT W SLP158 T02890172,KMKT,2023-06-02T19:56:00Z,44.22,-93.92,28.9,17.2,80,8,,10.0,30.008858,1015.8,,TRUE,TRUE,,,,,,,CLR,,,,,,,,VFR,,,,,,,,,,,,METAR,309.0
KMDT 021956Z VRB04G16KT 10SM BKN080 35/10 A2985 RMK A02 SLP106 T03560094,KMDT,2023-06-02T19:56:00Z,40.2,-76.77,35.6,9.4,0,4,16,10.0,29.84941,1010.6,,,TRUE,,,,,,,BKN,8000,,,,,,,VFR,,,,,,,,,,,,METAR,91.0
KMBL 021956Z AUTO 31008KT 10SM CLR 27/15 A3006 RMK AO2 SLP179 T02670150,KMBL,2023-06-02T19:56:00Z,44.27,-86.25,26.7,15.0,310,8,,10.0,30.059055,1017.9,,TRUE,TRUE,,,,,,,CLR,,,,,,,,VFR,,,,,,,,,,,,METAR,187.0
KM19 021956Z AUTO VRB04KT 10SM FEW065 SCT085 BKN110 32/17 A2990 RMK AO2 SLP122 T03170167 PNO $,KM19,2023-06-02T19:56:00Z,35.65,-91.17,31.7,16.7,0,4,,10.0,29.899607,1012.2,,TRUE,TRUE,TRUE,,,,,,FEW,6500,SCT,8500,BKN,11000,,,VFR,,,,,,,,,,,,METAR,72.0
KLZU 021956Z 07007KT 10SM SCT050 29/15 A2989 RMK AO2 SLP123 T02940150,KLZU,2023-06-02T19:56:00Z,33.98,-83.97,29.4,15.0,70,7,,10.0,29.890747,1012.3,,,TRUE,,,,,,,SCT,5000,,,,,,,VFR,,,,,,,,,,,,METAR,316.0
KLRD 021956Z 16013G18KT 10SM SCT049 33/21 A2980 RMK AO2 SLP086 T03280211,KLRD,2023-06-02T19:56:00Z,27.55,-99.47,32.8,21.1,160,13,18,10.0,29.799213,1008.6,,,TRUE,,,,,,,SCT,4900,,,,,,,VFR,,,,,,,,,,,,METAR,150.0
KLGD 021956Z AUTO 35008KT 10SM CLR 24/06 A3001 RMK AO2 SLP146 T02440056,KLGD,2023-06-02T19:56:00Z,45.28,-118.0,24.4,5.6,350,8,,10.0,30.008858,1014.6,,TRUE,TRUE,,,,,,,CLR,,,,,,,,VFR,,,,,,,,,,,,METAR,827.0
KLEW 021956Z AUTO 00000KT 10SM TS OVC065 26/14 A2989 RMK AO2 LTG DSNT ALQDS TSB24 SLP126 T02560139 PNO $,KLEW,2023-06-02T19:56:00Z,44.03,-70.28,25.6,13.9,0,0,,10.0,29.890747,1012.6,,TRUE,TRUE,TRUE,,,,,TS,OVC,6500,,,,,,,VFR,,,,,,,,,,,,METAR,81.0
KLCI 021956Z AUTO 36005KT 10SM VCTS FEW120 26/15 A2986 RMK AO2 LTG DSNT NW-E TSB47 SLP111 T02610150,KLCI,2023-06-02T19:56:00Z,43.57,-71.42,26.1,15.0,360,5,,10.0,29.861221,1011.1,,TRUE,TRUE,,,,,,VCTS,FEW,12000,,,,,,,VFR,,,,,,,,,,,,METAR,166.0
KLBL 021956Z AUTO 17013KT 10SM SCT025 BKN033 24/19 A2991 RMK AO2 LTG DSNT SW SLP104 T02440189,KLBL,2023-06-02T19:56:00Z,37.03,-100.97,24.4,18.9,170,13,,10.0,29.911417,1010.4,,TRUE,TRUE,,,,,,,SCT,2500,BKN,3300,,,,,VFR,,,,,,,,,,,,METAR,877.0
KKLS 021956Z AUTO 00000KT CLR 20/07 A3012 RMK AO2 SLP205 T02000072 PWINO $,KKLS,2023-06-02T19:56:00Z,46.12,-122.9,20.0,7.2,0,0,,,30.121063,1020.5,,TRUE,TRUE,TRUE,,,,TRUE,,CLR,,,,,,,,,,,,,,,,,,,,METAR,4.0
KJRB 021956Z AUTO 17009KT 10SM CLR 29/14 A2985 RMK AO2 SLP107 T02890139,KJRB,2023-06-02T19:56:00Z,40.7,-74.02,28.9,13.9,170,9,,10.0,29.84941,1010.7,,TRUE,TRUE,,,,,,,CLR,,,,,,,,VFR,,,,,,,,,,,,METAR,2.0
KJHW 021956Z AUTO 02008KT 10SM CLR 29/09 A3004 RMK AO2 SLP164 T02890089 PNO $,KJHW,2023-06-02T19:56:00Z,42.15,-79.27,28.9,8.9,20,8,,10.0,30.041338,1016.4,,TRUE,TRUE,TRUE,,,,,,CLR,,,,,,,,VFR,,,,,,,,,,,,METAR,520.0
KJAC 021956Z 23006KT 10SM OVC060 14/09 A3003 RMK AO2 SLP138 T01390089 PNO $,KJAC,2023-06-02T19:56:00Z,43.62,-110.73,13.9,8.9,230,6,,10.0,30.029528,1013.8,,,TRUE,TRUE,,,,,,OVC,6000,,,,,,,VFR,,,,,,,,,,,,METAR,1967.0
KIWD 021956Z AUTO 11007KT 10SM CLR 29/14 A3011 RMK AO2 SLP189 T02890139,KIWD,2023-06-02T19:56:00Z,46.52,-90.12,28.9,13.9,110,7,,10.0,30.109253,1018.9,,TRUE,TRUE,,,,,,,CLR,,,,,,,,VFR,,,,,,,,,,,,METAR,373.0
KITH 021956Z 35014G19KT 10SM FEW070 31/12 A2995 RMK AO2 SLP136 T03060122,KITH,2023-06-02T19:56:00Z,42.48,-76.45,30.6,12.2,350,14,19,10.0,29.949802,1013.6,,,TRUE,,,,,,,FEW,7000,,,,,,,VFR,,,,,,,,,,,,METAR,338.0
KISO 021956Z 06006KT 10SM SCT036 OVC055 27/18 A2986,KISO,2023-06-02T19:56:00Z,35.32,-77.62,27.0,18.0,60,6,,10.0,29.861221,,,,,,,,,,,SCT,3600,OVC,5500,,,,,VFR,,,,,,,,,,,,METAR,27.0
KISM 021956Z 11009KT 10SM VCTS BKN041 OVC065 28/22 A2972 RMK AO2 LTG DSNT SW TSB35RAB17E27 SLP064 T02830217 PNO $,KISM,2023-06-02T19:56:00Z,28.28,-81.43,28.3,21.7,110,9,,10.0,29.719488,1006.4,,,TRUE,TRUE,,,,,VCTS,BKN,4100,OVC,6500,,,,,VFR,,,,,,,,,,,,METAR,25.0
KILE 021956Z AUTO 16009G16KT 130V190 10SM 31/19 A2989 RMK AO2 SLP112 T03110189,KILE,2023-06-02T19:56:00Z,31.08,-97.68,31.1,18.9,160,9,16,10.0,29.890747,1011.2,,TRUE,TRUE,,,,,,,,,,,,,,,,,,,,,,,,,,,METAR,256.0
KI69 021956Z AUTO 09006KT 10SM CLR 32/09 A2997 RMK AO1 T03240090,KI69,2023-06-02T19:56:00Z,39.08,-84.22,32.4,9.0,90,6,,10.0,29.970472,,,TRUE,TRUE,,,,,,,CLR,,,,,,,,VFR,,,,,,,,,,,,METAR,238.0
KHYS 021956Z AUTO 00000KT 10SM BKN085 OVC100 16/14 A2992 RMK AO2 WSHFT 1908 RAE47 SLP124 P0001 T01610144 $,KHYS,2023-06-02T19:56:00Z,38.85,-99.27,16.1,14.4,0,0,,10.0,29.920275,1012.4,,TRUE,TRUE,TRUE,,,,,,BKN,8500,OVC,10000,,,,,VFR,,,,,,0.01,,,,,,METAR,607.0
KHYI 021956Z 14011G18KT 10SM SCT050 31/19 A2988 RMK AO2 SLP109 T03110189,KHYI,2023-06-02T19:56:00Z,29.88,-97.87,31.1,18.9,140,11,18,10.0,29.878937,1010.9,,,TRUE,,,,,,,SCT,5000,,,,,,,VFR,,,,,,,,,,,,METAR,180.0
KHND 021956Z 18006KT 10SM CLR 32/02 A2990 RMK AO2 SLP112 T03170022,KHND,2023-06-02T19:56:00Z,35.98,-115.13,31.7,2.2,180,6,,10.0,29.899607,1011.2,,,TRUE,,,,,,,CLR,,,,,,,,VFR,,,,,,,,,,,,METAR,740.0
KHNB 021956Z AUTO 09008KT 10SM CLR 31/14 A2995 RMK AO2 SLP139 T03060139,KHNB,2023-06-02T19:56:00Z,38.25,-86.95,30.6,13.9,90,8,,10.0,29.949802,1013.9,,TRUE,TRUE,,,,,,,CLR,,,,,,,,VFR,,,,,,,,,,,,METAR,159.0
KHEZ 021956Z AUTO 03008KT 10SM SCT049 30/19 A2989 RMK AO2 SLP120 T03000189,KHEZ,2023-06-02T19:56:00Z,31.62,-91.3,30.0,18.9,30,8,,10.0,29.890747,1012.0,,TRUE,TRUE,,,,,,,SCT,4900,,,,,,,VFR,,,,,,,,,,,,METAR,82.0
KHEF 021956Z 05009G14KT 10SM CLR 33/14 A2987 RMK AO2 SLP120 T03280139,KHEF,2023-06-02T19:56:00Z,38.72,-77.52,32.8,13.9,50,9,14,10.0,29.870079,1012.0,,,TRUE,,,,,,,CLR,,,,,,,,VFR,,,,,,,,,,,,METAR,53.0
KHDN 021956Z AUTO 09007KT 10SM -RA SCT019 OVC024 09/08 A3010 RMK AO2 RAB34 SLP160 P0000 T00890083,KHDN,2023-06-02T19:56:00Z,40.48,-107.22,8.9,8.3,90,7,,10.0,30.100393,1016.0,,TRUE,TRUE,,,,,,-RA,SCT,1900,OVC,2400,,,,,MVFR,,,,,,0.005,,,,,,METAR,2012.0
KGXY 021956Z AUTO 29016KT 10SM SCT080 21/10 A2994 RMK AO2 LTG DSNT S SLP109 T02060100,KGXY,2023-06-02T19:56:00Z,40.43,-104.62,20.6,10.0,290,16,,10.0,29.940945,1010.9,,TRUE,TRUE,,,,,,,SCT,8000,,,,,,,VFR,,,,,,,,,,,,METAR,1420.0
KGVQ 021956Z AUTO 34008KT 10SM CLR 31/13 A2998 RMK AO2 SLP146 T03060128,KGVQ,2023-06-02T19:56:00Z,43.03,-78.17,30.6,12.8,340,8,,10.0,29.97933,1014.6,,TRUE,TRUE,,,,,,,CLR,,,,,,,,VFR,,,,,,,,,,,,METAR,279.0
KGUC 021956Z AUTO 15005KT 10SM BKN047 OVC055 08/04 A3017 RMK AO2 RAE56 SLP187 P0000 T00830039,KGUC,2023-06-02T19:56:00Z,38.52,-106.93,8.3,3.9,150,5,,10.0,30.171259,1018.7,,TRUE,TRUE,,,,,,,BKN,4700,OVC,5500,,,,,VFR,,,,,,0.005,,,,,,METAR,2337.0
KGTU 021956Z 16010G16KT 10SM SCT050 31/17 A2990 RMK AO2 SLP118 T03110172,KGTU,2023-06-02T19:56:00Z,30.68,-97.68,31.1,17.2,160,10,16,10.0,29.899607,1011.8,,,TRUE,,,,,,,SCT,5000,,,,,,,VFR,,,,,,,,,,,,METAR,232.0
KGTR 021956Z 36005KT 10SM CLR 31/19 A2989 RMK AO2 SLP125 T03110189,KGTR,2023-06-02T19:56:00Z,33.45,-88.58,31.1,18.9,360,5,,10.0,29.890747,1012.5,,,TRUE,,,,,,,CLR,,,,,,,,VFR,,,,,,,,,,,,METAR,80.0
KGPZ 021956Z AUTO 17012G15KT 10SM FEW044 28/18 A3008 RMK AO2 SLP181 T02830178,KGPZ,2023-06-02T19:56:00Z,47.22,-93.52,28.3,17.8,170,12,15,10.0,30.079725,1018.1,,TRUE,TRUE,,,,,,,FEW,4400,,,,,,,VFR,,,,,,,,,,,,METAR,410.0
KGNA 021956Z AUTO 09008KT 12/09 A3014 RMK AO1 SLP207 T01220094 ,KGNA,2023-06-02T19:56:00Z,47.75,-90.35,12.2,9.4,90,8,,,30.138779,1020.7,,TRUE,TRUE,,,,,,,,,,,,,,,,,,,,,,,,,,,METAR,186.0
KGDV 021956Z AUTO 09005KT 10SM -RA FEW080 OVC100 22/18 A2989 RMK AO2 RAB33 SLP109 P0001 T02170183 TSNO,KGDV,2023-06-02T19:56:00Z,47.13,-104.8,21.7,18.3,90,5,,10.0,29.890747,1010.9,,TRUE,TRUE,,,TRUE,,,-RA,FEW,8000,OVC,10000,,,,,VFR,,,,,,0.01,,,,,,METAR,749.0
KGBD 021956Z AUTO 06010KT 10SM -RA BKN070 OVC100 17/15 A2991 RMK AO2 TSE23B33E48 PRESFR SLP121 P0017 T01670150,KGBD,2023-06-02T19:56:00Z,38.35,-98.87,16.7,15.0,60,10,,10.0,29.911417,1012.1,,TRUE,TRUE,,,,,,-RA,BKN,7000,OVC,10000,,,,,VFR,,,,,,0.17,,,,,,METAR,573.0
KGAI 021956Z AUTO VRB03KT 10SM FEW085 33/14 A2989 RMK AO2 SLP131 T03330139,KGAI,2023-06-02T19:56:00Z,39.17,-77.17,33.3,13.9,0,3,,10.0,29.890747,1013.1,,TRUE,TRUE,,,,,,,FEW,8500,,,,,,,VFR,,,,,,,,,,,,METAR,151.0
KGAD 021956Z AUTO 00000KT 10SM BKN060 29/17 A2989 RMK AO2 SLP120 T02890167 PNO $,KGAD,2023-06-02T19:56:00Z,33.97,-86.08,28.9,16.7,0,0,,10.0,29.890747,1012.0,,TRUE,TRUE,TRUE,,,,,,BKN,6000,,,,,,,VFR,,,,,,,,,,,,METAR,169.0
KFRM 021956Z AUTO 14008KT 10SM CLR 29/16 A3001 RMK AO2 SLP157 T02940161,KFRM,2023-06-02T19:56:00Z,43.63,-94.42,29.4,16.1,140,8,,10.0,30.008858,1015.7,,TRUE,TRUE,,,,,,,CLR,,,,,,,,VFR,,,,,,,,,,,,METAR,353.0
KFOD 021956Z AUTO 13009KT 10SM CLR 30/18 A2999 RMK AO2 LTG DSNT NE SLP160 T03000183,KFOD,2023-06-02T19:56:00Z,42.53,-94.17,30.0,18.3,130,9,,10.0,29.991142,1016.0,,TRUE,TRUE,,,,,,,CLR,,,,,,,,VFR,,,,,,,,,,,,METAR,347.0
KFNL 021956Z 33009KT 10SM -RA SCT060 BKN080 BKN095 17/12 A2995 RMK AO2 LTG DSNT SE AND SW TSB13E28RAB03 SLP101 P0002 T01670117,KFNL,2023-06-02T19:56:00Z,40.45,-105.02,16.7,11.7,330,9,,10.0,29.949802,1010.1,,,TRUE,,,,,,-RA,SCT,6000,BKN,8000,BKN,9500,,,VFR,,,,,,0.02,,,,,,METAR,1529.0
KFLP 021956Z AUTO VRB05KT 10SM FEW055 32/17 A2994 RMK AO2 SLP130 T03170172,KFLP,2023-06-02T19:56:00Z,36.28,-92.58,31.7,17.2,0,5,,10.0,29.940945,1013.0,,TRUE,TRUE,,,,,,,FEW,5500,,,,,,,VFR,,,,,,,,,,,,METAR,215.0
KFKL 021956Z AUTO 01008KT 10SM FEW090 29/09 A3001 RMK AO2 SLP153 T02940089,KFKL,2023-06-02T19:56:00Z,41.37,-79.87,29.4,8.9,10,8,,10.0,30.008858,1015.3,,TRUE,TRUE,,,,,,,FEW,9000,,,,,,,VFR,,,,,,,,,,,,METAR,468.0
KFCI 021956Z AUTO 04006KT 10SM CLR 29/10 RMK AO2 SLPNO T02940100 $,KFCI,2023-06-02T19:56:00Z,37.4,-77.52,29.4,10.0,40,6,,10.0,,,,TRUE,TRUE,TRUE,,,,,,CLR,,,,,,,,VFR,,,,,,,,,,,,METAR,63.0
KFAM 021956Z AUTO 07010KT 10SM FEW060 31/17 A2996 RMK AO2 LTG DSNT SW AND W SLP146 T03110167,KFAM,2023-06-02T19:56:00Z,37.77,-90.42,31.1,16.7,70,10,,10.0,29.958662,1014.6,,TRUE,TRUE,,,,,,,FEW,6000,,,,,,,VFR,,,,,,,,,,,,METAR,276.0
KEWK 021956Z AUTO 28024G38KT 10SM SQ SCT060 26/16 A2997 RMK AO2 PK WND 26038/1953 WSHFT 1941 LTG DSNT W AND NW PRESRR SLP136 T02560156,KEWK,2023-06-02T19:56:00Z,38.05,-97.27,25.6,15.6,280,24,38,10.0,29.970472,1013.6,,TRUE,TRUE,,,,,,SQ,SCT,6000,,,,,,,VFR,,,,,,,,,,,,METAR,468.0
KEUL 021956Z AUTO 10SM SCT100 24/07 A2997 RMK AO2 SLP134 T02440067 $,KEUL,2023-06-02T19:56:00Z,43.63,-116.62,24.4,6.7,,,,10.0,29.970472,1013.4,,TRUE,TRUE,TRUE,,,,,,SCT,10000,,,,,,,VFR,,,,,,,,,,,,METAR,741.0
KESC 021956Z AUTO 15008KT 10SM CLR 27/12 A3010 RMK AO2 SLP192 T02670122,KESC,2023-06-02T19:56:00Z,45.72,-87.08,26.7,12.2,150,8,,10.0,30.100393,1019.2,,TRUE,TRUE,,,,,,,CLR,,,,,,,,VFR,,,,,,,,,,,,METAR,180.0
KENV 021956Z AUTO 11008KT 10SM FEW075 23/06 A2997 RMK AO2 SLP121 T02280061 PNO $,KENV,2023-06-02T19:56:00Z,40.72,-114.02,22.8,6.1,110,8,,10.0,29.970472,1012.1,,TRUE,TRUE,TRUE,,,,,,FEW,7500,,,,,,,VFR,,,,,,,,,,,,METAR,1291.0
KEKY 021956Z AUTO VRB05KT 10SM FEW060 30/17 A2989 RMK AO2 SLP969 T03000167,KEKY,2023-06-02T19:56:00Z,33.32,-86.93,30.0,16.7,0,5,,10.0,29.890747,996.9,,TRUE,TRUE,,,,,,,FEW,6000,,,,,,,VFR,,,,,,,,,,,,METAR,213.0
KEKQ 021956Z AUTO 03010KT 10SM CLR 31/13 A2996 RMK AO2 SLP134 T03060128,KEKQ,2023-06-02T19:56:00Z,36.85,-84.85,30.6,12.8,30,10,,10.0,29.958662,1013.4,,TRUE,TRUE,,,,,,,CLR,,,,,,,,VFR,,,,,,,,,,,,METAR,291.0
KEHR 021956Z AUTO 07008KT 10SM CLR 33/13 A2993 RMK AO2 SLP131 T03280133,KEHR,2023-06-02T19:56:00Z,37.82,-87.67,32.8,13.3,70,8,,10.0,29.929134,1013.1,,TRUE,TRUE,,,,,,,CLR,,,,,,,,VFR,,,,,,,,,,,,METAR,117.0
KEGE 021956Z AUTO 27012KT 10SM -RA OVC036 08/05 A3016 RMK AO2 SLP117 P0004 T00830050,KEGE,2023-06-02T19:56:00Z,39.63,-106.92,8.3,5.0,270,12,,10.0,30.159449,1011.7,,TRUE,TRUE,,,,,,-RA,OVC,3600,,,,,,,VFR,,,,,,0.04,,,,,,METAR,1993.0
KEEN 021956Z AUTO 18004KT OVC085 27/18 A2983 RMK AO2 LTG DSNT ALQDS SLP105 P0001 T02670183 PWINO $,KEEN,2023-06-02T19:56:00Z,42.88,-72.27,26.7,18.3,180,4,,,29.828741,1010.5,,TRUE,TRUE,TRUE,,,,TRUE,,OVC,8500,,,,,,,,,,,,,0.01,,,,,,METAR,143.0
KEAR 021956Z AUTO 13009KT 10SM -RA FEW039 SCT049 BKN090 18/17 A3001 RMK AO2 LTG DSNT S TSB04E19RAB17 SLP150 P0001 T01830172,KEAR,2023-06-02T19:56:00Z,40.72,-99.0,18.3,17.2,130,9,,10.0,30.008858,1015.0,,TRUE,TRUE,,,,,,-RA,FEW,3900,SCT,4900,BKN,9000,,,VFR,,,,,,0.01,,,,,,METAR,649.0
KDYR 021956Z AUTO 05007KT 10SM CLR 33/17 A2991 RMK AO2 SLP131 T03330172,KDYR,2023-06-02T19:56:00Z,36.0,-89.4,33.3,17.2,50,7,,10.0,29.911417,1013.1,,TRUE,TRUE,,,,,,,CLR,,,,,,,,VFR,,,,,,,,,,,,METAR,98.0
KDWU 021956Z AUTO VRB03KT 10SM CLR 32/13 A2995 RMK AO2 SLP138 T03170133,KDWU,2023-06-02T19:56:00Z,38.55,-82.73,31.7,13.3,0,3,,10.0,29.949802,1013.8,,TRUE,TRUE,,,,,,,CLR,,,,,,,,VFR,,,,,,,,,,,,METAR,165.0
KDVL 021956Z AUTO 14011KT 10SM CLR 29/19 A2995 RMK AO2 LTG DSNT S SLP146 T02940189,KDVL,2023-06-02T19:56:00Z,48.12,-98.92,29.4,18.9,140,11,,10.0,29.949802,1014.6,,TRUE,TRUE,,,,,,,CLR,,,,,,,,VFR,,,,,,,,,,,,METAR,439.0
KDIJ 021956Z AUTO 11007KT 10SM -RA BKN023 BKN032 OVC055 12/09 A3007 RMK AO2 RAB55 SLP157 P0000 T01220089,KDIJ,2023-06-02T19:56:00Z,43.75,-111.1,12.2,8.9,110,7,,10.0,30.070866,1015.7,,TRUE,TRUE,,,,,,-RA,BKN,2300,BKN,3200,OVC,5500,,,MVFR,,,,,,0.005,,,,,,METAR,1896.0
KCWI 021956Z AUTO VRB06G14KT 10SM CLR 33/15 A3000 RMK AO2 LTG DSNT NE AND S AND SW SLP156 T03280150,KCWI,2023-06-02T19:56:00Z,41.82,-90.32,32.8,15.0,0,6,14,10.0,30.0,1015.6,,TRUE,TRUE,,,,,,,CLR,,,,,,,,VFR,,,,,,,,,,,,METAR,212.0
KCVO 021956Z AUTO 24006KT 10SM CLR 21/08 A3011 RMK AO2 SLP198 T02060078,KCVO,2023-06-02T19:56:00Z,44.5,-123.28,20.6,7.8,240,6,,10.0,30.109253,1019.8,,TRUE,TRUE,,,,,,,CLR,,,,,,,,VFR,,,,,,,,,,,,METAR,75.0
KCVN 021956Z AUTO 08011KT 10SM CLR 19/15 A2994 RMK AO2 LTG DSNT E SLP109 T01890150,KCVN,2023-06-02T19:56:00Z,34.42,-103.07,18.9,15.0,80,11,,10.0,29.940945,1010.9,,TRUE,TRUE,,,,,,,CLR,,,,,,,,VFR,,,,,,,,,,,,METAR,1278.0
KCOE 021956Z AUTO 22006KT 10SM CLR 24/04 A3002 RMK AO2 SLP170 T02390044 PNO $,KCOE,2023-06-02T19:56:00Z,47.77,-116.82,23.9,4.4,220,6,,10.0,30.02067,1017.0,,TRUE,TRUE,TRUE,,,,,,CLR,,,,,,,,VFR,,,,,,,,,,,,METAR,693.0
KCOD 021956Z AUTO 03013KT 10SM FEW020 16/11 A2999 RMK AO2 SLP124 T01560111,KCOD,2023-06-02T19:56:00Z,44.52,-109.02,15.6,11.1,30,13,,10.0,29.991142,1012.4,,TRUE,TRUE,,,,,,,FEW,2000,,,,,,,VFR,,,,,,,,,,,,METAR,1550.0
KCIU 021956Z AUTO 36006KT 10SM CLR 31/14 A3010 RMK AO2 SLP188 T03060139,KCIU,2023-06-02T19:56:00Z,46.25,-84.47,30.6,13.9,360,6,,10.0,30.100393,1018.8,,TRUE,TRUE,,,,,,,CLR,,,,,,,,VFR,,,,,,,,,,,,METAR,242.0
KCGZ 021956Z AUTO 00000KT 10SM CLR 31/04 A2988 RMK AO2 SLP104 T03110039 PNO $,KCGZ,2023-06-02T19:56:00Z,32.95,-111.77,31.1,3.9,0,0,,10.0,29.878937,1010.4,,TRUE,TRUE,TRUE,,,,,,CLR,,,,,,,,VFR,,,,,,,,,,,,METAR,444.0
KBVX 021956Z AUTO 00000KT 10SM FEW060 32/17 A2992 RMK AO2 SLP128 T03220172,KBVX,2023-06-02T19:56:00Z,35.73,-91.65,32.2,17.2,0,0,,10.0,29.920275,1012.8,,TRUE,TRUE,,,,,,,FEW,6000,,,,,,,VFR,,,,,,,,,,,,METAR,137.0
KBTP 021956Z AUTO 13003KT 10SM FEW090 31/09 A2999 RMK AO2 SLP152 T03060094 TSNO $,KBTP,2023-06-02T19:56:00Z,40.77,-79.95,30.6,9.4,130,3,,10.0,29.991142,1015.2,,TRUE,TRUE,TRUE,,TRUE,,,,FEW,9000,,,,,,,VFR,,,,,,,,,,,,METAR,375.0
KBOK 021956Z AUTO 21004KT 10SM CLR 14/09 A3010 RMK AO2 SLP193 T01390094,KBOK,2023-06-02T19:56:00Z,42.07,-124.28,13.9,9.4,210,4,,10.0,30.100393,1019.3,,TRUE,TRUE,,,,,,,CLR,,,,,,,,VFR,,,,,,,,,,,,METAR,140.0
KBMI 021956Z 06011G17KT 10SM OVC095 32/12 A3001 RMK AO2 SLP151 T03170117,KBMI,2023-06-02T19:56:00Z,40.47,-88.92,31.7,11.7,60,11,17,10.0,30.008858,1015.1,,,TRUE,,,,,,,OVC,9500,,,,,,,VFR,,,,,,,,,,,,METAR,262.0
KBLM 021956Z AUTO 16008KT 10SM CLR 28/12 A2987 RMK AO2 SLP114 T02780122,KBLM,2023-06-02T19:56:00Z,40.17,-74.12,27.8,12.2,160,8,,10.0,29.870079,1011.4,,TRUE,TRUE,,,,,,,CLR,,,,,,,,VFR,,,,,,,,,,,,METAR,45.0
KBKX 021956Z AUTO 17012KT 10SM FEW060 29/15 A2998 RMK AO2 LTG DSNT SW SLP152 T02890150,KBKX,2023-06-02T19:56:00Z,44.3,-96.82,28.9,15.0,170,12,,10.0,29.97933,1015.2,,TRUE,TRUE,,,,,,,FEW,6000,,,,,,,VFR,,,,,,,,,,,,METAR,494.0
KBID 021956Z AUTO 22012KT 10SM CLR 21/15 A2988 RMK AO2 SLP120 T02110150,KBID,2023-06-02T19:56:00Z,41.17,-71.58,21.1,15.0,220,12,,10.0,29.878937,1012.0,,TRUE,TRUE,,,,,,,CLR,,,,,,,,VFR,,,,,,,,,,,,METAR,32.0
KBHB 021956Z AUTO 10009G14KT 10SM FEW100 19/12 A2990 RMK AO2 LTG DSNT NW SLP126 T01940122,KBHB,2023-06-02T19:56:00Z,44.45,-68.37,19.4,12.2,100,9,14,10.0,29.899607,1012.6,,TRUE,TRUE,,,,,,,FEW,10000,,,,,,,VFR,,,,,,,,,,,,METAR,21.0
KAWO 021956Z AUTO 33006KT 10SM CLR 19/09 A3011 RMK AO2 SLP199 T01890094,KAWO,2023-06-02T19:56:00Z,48.17,-122.17,18.9,9.4,330,6,,10.0,30.109253,1019.9,,TRUE,TRUE,,,,,,,CLR,,,,,,,,VFR,,,,,,,,,,,,METAR,38.0
KAUM 021956Z AUTO 09014KT 7SM -TSRA BKN060 BKN070 BKN095 24/18 A3005 RMK A,KAUM,2023-06-02T19:56:00Z,43.67,-92.92,24.0,18.0,90,14,,7.0,30.050198,,,TRUE,,,,,,,-TSRA,BKN,6000,BKN,7000,BKN,9500,,,VFR,,,,,,,,,,,,METAR,376.0
KASH 021956Z 01009G18KT 350V050 8SM +TSRA BKN021 OVC080 22/19 A2989 RMK AO2 LTG DSNT SE-W SLP124 P0014 T02170194,KASH,2023-06-02T19:56:00Z,42.78,-71.52,21.7,19.4,10,9,18,8.0,29.890747,1012.4,,,TRUE,,,,,,+TSRA,BKN,2100,OVC,8000,,,,,MVFR,,,,,,0.14,,,,,,METAR,56.0
KARG 021956Z AUTO VRB03KT 10SM FEW065 33/18 A2991 RMK AO2 LTG DSNT NE-SE SLP127 T03280178,KARG,2023-06-02T19:56:00Z,36.12,-90.92,32.8,17.8,0,3,,10.0,29.911417,1012.7,,TRUE,TRUE,,,,,,,FEW,6500,,,,,,,VFR,,,,,,,,,,,,METAR,82.0
KAQW 021956Z AUTO 13023G32KT 3/4SM +TSRA SCT030 BKN080 OVC110 22/15 A2992 RMK AO2 PK WND 14032/1955 LTG DSNT E AND S P0007 T02170150,KAQW,2023-06-02T19:56:00Z,42.7,-73.17,21.7,15.0,130,23,32,0.75,29.920275,,,TRUE,TRUE,,,,,,+TSRA,SCT,3000,BKN,8000,OVC,11000,,,LIFR,,,,,,0.07,,,,,,SPECI,196.0
KAJO 021956Z AUTO 24007KT 10SM BKN034 22/13 A2998 RMK AO2 SLP146 T02170128,KAJO,2023-06-02T19:56:00Z,33.9,-117.6,21.7,12.8,240,7,,10.0,29.97933,1014.6,,TRUE,TRUE,,,,,,,BKN,3400,,,,,,,VFR,,,,,,,,,,,,METAR,161.0
KAIZ 021956Z AUTO VRB04KT 10SM FEW055 31/17 RMK AO2 SLPNO T03060172 $,KAIZ,2023-06-02T19:56:00Z,38.1,-92.53,30.6,17.2,0,4,,10.0,,,,TRUE,TRUE,TRUE,,,,,,FEW,5500,,,,,,,VFR,,,,,,,,,,,,METAR,263.0
KAFJ 021956Z AUTO VRB04KT 10SM SCT080 31/11 A3000 RMK AO2 SLP151 T03060111,KAFJ,2023-06-02T19:56:00Z,40.13,-80.28,30.6,11.1,0,4,,10.0,30.0,1015.1,,TRUE,TRUE,,,,,,,SCT,8000,,,,,,,VFR,,,,,,,,,,,,METAR,360.0
KADF 021956Z AUTO VRB03KT 10SM 31/20 A2991 RMK AO2 SLP125 T03060200 $,KADF,2023-06-02T19:56:00Z,34.1,-93.07,30.6,20.0,0,3,,10.0,29.911417,1012.5,,TRUE,TRUE,TRUE,,,,,,,,,,,,,,,,,,,,,,,,,,METAR,54.0
K8D3 021956Z AUTO 17011G21KT 33/15 A2993 RMK AO1 SLP110 T03280150 ,K8D3,2023-06-02T19:56:00Z,45.67,-96.98,32.8,15.0,170,11,21,,29.929134,1011.0,,TRUE,TRUE,,,,,,,,,,,,,,,,,,,,,,,,,,,METAR,535.0
K1M4 021956Z AUTO VRB05KT 10SM CLR 29/18 A2993 RMK AO2 LTG DSNT NE AND SW SLP118 T02940183,K1M4,2023-06-02T19:56:00Z,34.28,-87.6,29.4,18.3,0,5,,10.0,29.929134,1011.8,,TRUE,TRUE,,,,,,,CLR,,,,,,,,VFR,,,,,,,,,,,,METAR,283.0
TXKF 021955Z 10023KT 9999 -RA BKN008 OVC035 23/22 Q1004 ,TXKF,2023-06-02T19:55:00Z,32.37,-64.68,23.0,22.0,100,23,,6.21,29.64567,,,,,,,,,,-RA,BKN,800,OVC,3500,,,,,IFR,,,,,,,,,,,,METAR,4.0
PWAK 021955Z AUTO 06014KT 7SM FEW020 FEW030 28/23 A3005 RMK AO2 SLP182 T02770226,PWAK,2023-06-02T19:55:00Z,19.28,166.62,27.7,22.6,60,14,,7.0,30.050198,1018.2,,TRUE,TRUE,,,,,,,FEW,2000,FEW,3000,,,,,VFR,,,,,,,,,,,,METAR,7.0
PATL 021955Z AUTO 00000KT 10SM -SHRA SCT024 BKN036 04/M01 A2991 RMK AO2 RAB1932E1945SHRAB1945 SLP139 P0000 T00391010,PATL,2023-06-02T19:55:00Z,62.9,-155.97,3.9,-1.0,0,0,,10.0,29.911417,1013.9,,TRUE,TRUE,,,,,,-SHRA,SCT,2400,BKN,3600,,,,,VFR,,,,,,0.005,,,,,,METAR,261.0
PATC 021955Z AUTO 19018KT 3/4SM -SN BR VV002 M01/M01 A2976 RMK AO2 SNB1855E1910B1950 SLP083 P0000 T10141015,PATC,2023-06-02T19:55:00Z,65.57,-167.92,-1.4,-1.5,190,18,,0.75,29.760826,1008.3,,TRUE,TRUE,,,,,,-SN BR,OVX,0,,,,,,,LIFR,,,,,,0.005,,,,,200,METAR,77.0
PASV 021955Z AUTO VRB06KT 10SM OVC008 04/02 A2989 RMK AO2 SHRAB1851E1902 SLP137 T00400020,PASV,2023-06-02T19:55:00Z,61.1,-155.57,4.0,2.0,0,6,,10.0,29.890747,1013.7,,TRUE,TRUE,,,,,,,OVC,800,,,,,,,IFR,,,,,,,,,,,,METAR,462.0
PALU 021955Z AUTO 21023G32KT 150V230 1/2SM SN OVC008 01/M01 A2966 RMK AO2 SNB1855 SLP042 P0000 T00061012,PALU,2023-06-02T19:55:00Z,68.88,-166.1,0.6,-1.2,210,23,32,0.5,29.660433,1004.2,,TRUE,TRUE,,,,,,SN,OVC,800,,,,,,,LIFR,,,,,,0.005,,,,,,METAR,8.0
PAKX 021955Z AUTO 00000KT 10SM SCT017 OVC032 05/04 A2995 RMK AO2,PAKX,2023-06-02T19:55:00Z,60.2,-154.32,5.0,4.0,0,0,,10.0,29.949802,,,TRUE,TRUE,,,,,,,SCT,1700,OVC,3200,,,,,VFR,,,,,,,,,,,,METAR,88.0
PAIM 021955Z AUTO 25006KT 10SM OVC018 M03/M06 A2981 RMK AO2 SLP116 T10301064,PAIM,2023-06-02T19:55:00Z,66.0,-153.7,-3.0,-6.4,250,6,,10.0,29.811024,1011.6,,TRUE,TRUE,,,,,,,OVC,1800,,,,,,,MVFR,,,,,,,,,,,,METAR,309.0
OPLA 021955Z 30004KT 5000 FU NSC 24/19 Q1006 NOSIG RMK QFE981 A29.71,OPLA,2023-06-02T19:55:00Z,31.52,74.4,24.0,19.0,300,4,,3.11,29.704725,,,,,,TRUE,,,,FU,CLR,,,,,,,,MVFR,,,,,,,,,,,,METAR,217.0
OKAS 021955Z 32014KT 9999 CLR 33/04 A2977 RMK AO2A SLP075 T03340041 FZRANO $,OKAS,2023-06-02T19:55:00Z,29.35,47.52,33.4,4.1,320,14,,6.21,29.769686,1007.5,,,TRUE,TRUE,,,TRUE,,,CLR,,,,,,,,VFR,,,,,,,,,,,,METAR,144.0
OEPS 021955Z 36005KT 9999 CLR 33/02 A2995 RMK AO2A SLP118 WND DATA ESTMD T03290018,OEPS,2023-06-02T19:55:00Z,24.07,47.58,32.9,1.8,360,5,,6.21,29.949802,1011.8,,,TRUE,,,,,,,CLR,,,,,,,,VFR,,,,,,,,,,,,METAR,503.0
NZCM 021955Z AUTO 03013G22KT 350V050 2100 HZ FEW022 OVC039 M29/M34 A2946 RMK AO2 SNE1858B1926E1955 SLP984 T12891341,NZCM,2023-06-02T19:55:00Z,-77.85,166.67,-28.9,-34.1,30,13,22,1.3,29.459646,998.4,,TRUE,TRUE,,,,,,HZ,FEW,2200,OVC,3900,,,,,IFR,,,,,,,,,,,,SPECI,24.0
KY70 021955Z AUTO 03007KT 10SM CLR 31/04 A3004 RMK AO2 T03100041,KY70,2023-06-02T19:55:00Z,42.93,-85.07,31.0,4.1,30,7,,10.0,30.041338,,,TRUE,TRUE,,,,,,,CLR,,,,,,,,VFR,,,,,,,,,,,,METAR,247.0
KY63 021955Z AUTO 15011G17KT 10SM SCT050 BKN070 BKN095 31/18 A2999 RMK AO2 T03140182,KY63,2023-06-02T19:55:00Z,45.98,-96.0,31.4,18.2,150,11,17,10.0,29.991142,,,TRUE,TRUE,,,,,,,SCT,5000,BKN,7000,BKN,9500,,,VFR,,,,,,,,,,,,METAR,367.0
KY51 021955Z AUTO 06007KT 10SM CLR 30/17 A3006 RMK AO1 T03040172,KY51,2023-06-02T19:55:00Z,43.58,-90.9,30.4,17.2,60,7,,10.0,30.059055,,,TRUE,TRUE,,,,,,,CLR,,,,,,,,VFR,,,,,,,,,,,,SPECI,390.0
KY49 021955Z AUTO 00000KT 10SM BKN046 BKN055 OVC090 26/20 A3003 RMK AO2 T02580195 P0001,KY49,2023-06-02T19:55:00Z,47.15,-94.65,25.8,19.5,0,0,,10.0,30.029528,,,TRUE,TRUE,,,,,,,BKN,4600,BKN,5500,OVC,9000,,,VFR,,,,,,0.01,,,,,,METAR,413.0
KY31 021955Z AUTO 00000KT 10SM CLR 32/08 A3007 RMK AO2 T03180081,KY31,2023-06-02T19:55:00Z,44.25,-84.18,31.8,8.1,0,0,,10.0,30.070866,,,TRUE,TRUE,,,,,,,CLR,,,,,,,,VFR,,,,,,,,,,,,METAR,264.0
KY23 021955Z AUTO 12012KT 10SM SCT047 SCT065 BKN080 30/21 A3006 RMK AO2 T03030207,KY23,2023-06-02T19:55:00Z,45.3,-91.63,30.3,20.7,120,12,,10.0,30.059055,,,TRUE,TRUE,,,,,,,SCT,4700,SCT,6500,BKN,8000,,,VFR,,,,,,,,,,,,METAR,322.0
KY19 021955Z AUTO 16011G17KT 10SM CLR 30/18 A2991 RMK AO2 LTG DSNT ALQDS,KY19,2023-06-02T19:55:00Z,46.77,-100.9,30.0,18.0,160,11,17,10.0,29.911417,,,TRUE,TRUE,,,,,,,CLR,,,,,,,,VFR,,,,,,,,,,,,METAR,591.0
KXSA 021955Z AUTO 01004KT 10SM CLR 29/14 A2989 RMK AO2 LTG DSNT S T02910144,KXSA,2023-06-02T19:55:00Z,37.87,-76.9,29.1,14.4,10,4,,10.0,29.890747,,,TRUE,TRUE,,,,,,,CLR,,,,,,,,VFR,,,,,,,,,,,,METAR,41.0
KX60 021955Z AUTO 05008KT 10SM SCT055 SCT065 30/19 A2975 RMK AO2 LTG DSNT E T02950186,KX60,2023-06-02T19:55:00Z,29.35,-82.47,29.5,18.6,50,8,,10.0,29.749016,,,TRUE,TRUE,,,,,,,SCT,5500,SCT,6500,,,,,VFR,,,,,,,,,,,,METAR,21.0
KX07 021955Z AUTO 07007G13KT 5SM HZ CLR 25/23 A2972 RMK A01,KX07,2023-06-02T19:55:00Z,27.9,-81.62,25.0,23.0,70,7,13,5.0,29.719488,,,TRUE,TRUE,,,,,,HZ,CLR,,,,,,,,MVFR,,,,,,,,,,,,METAR,36.0
KW96 021955Z AUTO 05007KT 020V090 10SM CLR 29/08 A2988 RMK AO1 T02900084,KW96,2023-06-02T19:55:00Z,37.5,-77.12,29.0,8.4,50,7,,10.0,29.878937,,,TRUE,TRUE,,,,,,,CLR,,,,,,,,VFR,,,,,,,,,,,,METAR,35.0
KW81 021955Z AUTO 04003KT 10SM CLR 28/05 A2989 RMK AO1 T02800048,KW81,2023-06-02T19:55:00Z,37.18,-78.1,28.0,4.8,40,3,,10.0,29.890747,,,TRUE,TRUE,,,,,,,CLR,,,,,,,,VFR,,,,,,,,,,,,METAR,121.0
KW78 021955Z AUTO 08005KT 050V110 10SM CLR 29/11 A2989 RMK AO1 T02890111,KW78,2023-06-02T19:55:00Z,36.7,-78.85,28.9,11.1,80,5,,10.0,29.890747,,,TRUE,TRUE,,,,,,,CLR,,,,,,,,VFR,,,,,,,,,,,,METAR,120.0
KW75 021955Z AUTO 16004KT 10SM CLR 26/12 A2988 RMK AO1 T02630117,KW75,2023-06-02T19:55:00Z,37.6,-76.45,26.3,11.7,160,4,,10.0,29.878937,,,TRUE,TRUE,,,,,,,CLR,,,,,,,,VFR,,,,,,,,,,,,METAR,8.0
KW63 021955Z AUTO 04005KT 10SM CLR 28/15 A2989 RMK AO1,KW63,2023-06-02T19:55:00Z,36.6,-78.55,28.0,15.0,40,5,,10.0,29.890747,,,TRUE,TRUE,,,,,,,CLR,,,,,,,,VFR,,,,,,,,,,,,METAR,126.0
KW31 021955Z AUTO 03005KT 10SM CLR A2989 RMK AO1,KW31,2023-06-02T19:55:00Z,36.95,-78.18,,,30,5,,10.0,29.890747,,,TRUE,TRUE,,,,,,,CLR,,,,,,,,VFR,,,,,,,,,,,,METAR,159.0
KW13 021955Z AUTO 06006KT 10SM SCT075 29/12 A2995 RMK AO1 T02920117,KW13,2023-06-02T19:55:00Z,38.08,-78.95,29.2,11.7,60,6,,10.0,29.949802,,,TRUE,TRUE,,,,,,,SCT,7500,,,,,,,VFR,,,,,,,,,,,,METAR,440.0
KVWU 021955Z AUTO 18004KT 10SM CLR 31/18 A3003 RMK AO2,KVWU,2023-06-02T19:55:00Z,48.15,-94.52,31.0,18.0,180,4,,10.0,30.029528,,,TRUE,TRUE,,,,,,,CLR,,,,,,,,VFR,,,,,,,,,,,,METAR,359.0
KVOA 021955Z AUTO 05014KT 10SM CLR 26/18 A2984 RMK A01,KVOA,2023-06-02T19:55:00Z,29.23,-87.78,26.0,18.0,50,14,,10.0,29.840551,,,TRUE,TRUE,,,,,,,CLR,,,,,,,,VFR,,,,,,,,,,,,METAR,53.0
KVNW 021955Z AUTO 07010KT 10SM CLR 32/06 A3000 RMK AO2,KVNW,2023-06-02T19:55:00Z,40.87,-84.62,32.0,6.0,70,10,,10.0,30.0,,,TRUE,TRUE,,,,,,,CLR,,,,,,,,VFR,,,,,,,,,,,,METAR,238.0
KVNC 021955Z AUTO VRB05KT 10SM CLR 30/21 A2971 RMK AO2 LTG DSNT N-SE,KVNC,2023-06-02T19:55:00Z,27.07,-82.43,30.0,21.0,0,5,,10.0,29.71063,,,TRUE,TRUE,,,,,,,CLR,,,,,,,,VFR,,,,,,,,,,,,METAR,4.0
KVLL 021955Z AUTO 05008KT 10SM SCT090 31/11 A3006 RMK AO2 T03100109,KVLL,2023-06-02T19:55:00Z,42.55,-83.18,31.0,10.9,50,8,,10.0,30.059055,,,TRUE,TRUE,,,,,,,SCT,9000,,,,,,,VFR,,,,,,,,,,,,METAR,214.0
KVKY 021955Z AUTO 07014KT 10SM CLR A2986 RMK A01,KVKY,2023-06-02T19:55:00Z,29.25,-88.43,,,70,14,,10.0,29.861221,,,TRUE,TRUE,,,,,,,CLR,,,,,,,,VFR,,,,,,,,,,,,METAR,32.0
KVGC 021955Z AUTO 33010G15KT 10SM CLR 30/11 A2993 RMK AO2,KVGC,2023-06-02T19:55:00Z,42.85,-75.57,30.0,11.0,330,10,15,10.0,29.929134,,,TRUE,TRUE,,,,,,,CLR,,,,,,,,VFR,,,,,,,,,,,,METAR,346.0
KVDF 021955Z AUTO 01004KT 10SM SCT041 SCT060 BKN095 30/23 A2972 RMK AO2,KVDF,2023-06-02T19:55:00Z,28.02,-82.33,30.0,23.0,10,4,,10.0,29.719488,,,TRUE,TRUE,,,,,,,SCT,4100,SCT,6000,BKN,9500,,,VFR,,,,,,,,,,,,METAR,5.0
KVBW 021955Z AUTO 01008KT 320V050 10SM CLR 30/08 A2992 RMK AO1 T03010081,KVBW,2023-06-02T19:55:00Z,38.37,-78.97,30.1,8.1,10,8,,10.0,29.920275,,,TRUE,TRUE,,,,,,,CLR,,,,,,,,VFR,,,,,,,,,,,,METAR,362.0
KVAF 021955Z AUTO 09007KT 10SM 29/19 A2990 RMK A01,KVAF,2023-06-02T19:55:00Z,27.35,-94.63,29.0,19.0,90,7,,10.0,29.899607,,,TRUE,TRUE,,,,,,,,,,,,,,,,,,,,,,,,,,,METAR,38.0
KUXL 021955Z AUTO 00000KT 10SM SCT047 SCT070 BKN110 31/20 A2988 RMK AO2 T03120201,KUXL,2023-06-02T19:55:00Z,30.13,-93.38,31.2,20.1,0,0,,10.0,29.878937,,,TRUE,TRUE,,,,,,,SCT,4700,SCT,7000,BKN,11000,,,VFR,,,,,,,,,,,,METAR,2.0
KUUV 021955Z AUTO 00000KT 10SM CLR 29/18 A3000 RMK AO2 P0001 LTG DSNT W THRU NE,KUUV,2023-06-02T19:55:00Z,38.23,-91.17,29.0,18.0,0,0,,10.0,30.0,,,TRUE,TRUE,,,,,,,CLR,,,,,,,,VFR,,,,,,0.01,,,,,,METAR,284.0
KUTA 021955Z AUTO 08006KT 10SM FEW065 33/19 A2989 RMK AO2 T03250192 $,KUTA,2023-06-02T19:55:00Z,34.68,-90.35,32.5,19.2,80,6,,10.0,29.890747,,,TRUE,TRUE,TRUE,,,,,,FEW,6500,,,,,,,VFR,,,,,,,,,,,,METAR,58.0
KUOX 021955Z AUTO VRB04KT 10SM FEW055 31/17 A2991 RMK AO2,KUOX,2023-06-02T19:55:00Z,34.38,-89.53,31.0,17.0,0,4,,10.0,29.911417,,,TRUE,TRUE,,,,,,,FEW,5500,,,,,,,VFR,,,,,,,,,,,,METAR,123.0
KUNU 021955Z AUTO 14006G14KT 10SM SCT065 SCT085 BKN100 30/15 A3005 RMK AO2 T03030149,KUNU,2023-06-02T19:55:00Z,43.42,-88.7,30.3,14.9,140,6,14,10.0,30.050198,,,TRUE,TRUE,,,,,,,SCT,6500,SCT,8500,BKN,10000,,,VFR,,,,,,,,,,,,METAR,281.0
KULM 021955Z AUTO 14009KT 10SM SCT110 29/16 A3000 RMK AO2 LTG DSNT S THRU N,KULM,2023-06-02T19:55:00Z,44.32,-94.5,29.0,16.0,140,9,,10.0,30.0,,,TRUE,TRUE,,,,,,,SCT,11000,,,,,,,VFR,,,,,,,,,,,,METAR,305.0
KUKT 021955Z AUTO 02006KT 10SM FEW095 34/10 A2985 RMK A01,KUKT,2023-06-02T19:55:00Z,40.43,-75.38,34.0,10.0,20,6,,10.0,29.84941,,,TRUE,TRUE,,,,,,,FEW,9500,,,,,,,VFR,,,,,,,,,,,,METAR,156.0
KUBE 021955Z AUTO 09006KT 10SM SCT070 BKN110 28/21 A3006 RMK AO2 LTG DSNT NE THRU S,KUBE,2023-06-02T19:55:00Z,45.5,-91.98,28.0,21.0,90,6,,10.0,30.059055,,,TRUE,TRUE,,,,,,,SCT,7000,BKN,11000,,,,,VFR,,,,,,,,,,,,METAR,376.0
KU64 021955Z AUTO 20016KT 10SM FEW060 SCT090 BKN130 BKN300 17/04 A3008 RMK AO2 T01660038 $,KU64,2023-06-02T19:55:00Z,,,16.6,3.8,200,16,,10.0,30.079725,,,TRUE,TRUE,TRUE,,,,,,FEW,6000,SCT,9000,BKN,13000,BKN,30000,VFR,,,,,,,,,,,,METAR,
KU42 021955Z AUTO 00000KT 10SM SCT070 SCT080 SCT110 20/08 A3001 RMK AO1 T01950083,KU42,2023-06-02T19:55:00Z,40.62,-111.98,19.5,8.3,0,0,,10.0,30.008858,,,TRUE,TRUE,,,,,,,SCT,7000,SCT,8000,SCT,11000,,,VFR,,,,,,,,,,,,METAR,1399.0
KTWT 021955Z AUTO 06003KT 10SM SCT080 32/12 A2993 RMK AO2,KTWT,2023-06-02T19:55:00Z,37.55,-87.95,32.0,12.0,60,3,,10.0,29.929134,,,TRUE,TRUE,,,,,,,SCT,8000,,,,,,,VFR,,,,,,,,,,,,METAR,113.0
KTWM 021955Z AUTO 09008KT 10SM CLR 24/17 A3010 RMK AO2,KTWM,2023-06-02T19:55:00Z,47.05,-91.75,24.0,17.0,90,8,,10.0,30.100393,,,TRUE,TRUE,,,,,,,CLR,,,,,,,,VFR,,,,,,,,,,,,METAR,331.0
KTVY 021955Z AUTO 01014KT 10SM SCT055 BKN065 BKN110 23/03 A2998 RMK AO2 LTG DSNT W AND NW,KTVY,2023-06-02T19:55:00Z,40.62,-112.35,23.0,3.0,10,14,,10.0,29.97933,,,TRUE,TRUE,,,,,,,SCT,5500,BKN,6500,BKN,11000,,,VFR,,,,,,,,,,,,METAR,1310.0
KTTF 021955Z AUTO 11005KT 10SM CLR 31/10 A3002 RMK AO2 T03080098,KTTF,2023-06-02T19:55:00Z,41.93,-83.42,30.8,9.8,110,5,,10.0,30.02067,,,TRUE,TRUE,,,,,,,CLR,,,,,,,,VFR,,,,,,,,,,,,METAR,186.0
KTSP 021955Z AUTO 32013KT 9SM CLR 22/04 A3004 RMK AO2,KTSP,2023-06-02T19:55:00Z,35.13,-118.43,22.0,4.0,320,13,,9.0,30.041338,,,TRUE,TRUE,,,,,,,CLR,,,,,,,,VFR,,,,,,,,,,,,METAR,1209.0
KTPF 021955Z AUTO 32008G15KT 10SM -RA SCT045 SCT055 OVC085 26/21 A2973 RMK AO2,KTPF,2023-06-02T19:55:00Z,27.92,-82.45,26.0,21.0,320,8,15,10.0,29.731298,,,TRUE,TRUE,,,,,,-RA,SCT,4500,SCT,5500,OVC,8500,,,VFR,,,,,,,,,,,,METAR,1.0
KTOB 021955Z AUTO 26007KT 10SM BKN060 BKN080 25/17 A3009 RMK AO2 LTG DSNT ALQDS,KTOB,2023-06-02T19:55:00Z,44.02,-92.82,25.0,17.0,260,7,,10.0,30.088583,,,TRUE,TRUE,,,,,,,BKN,6000,BKN,8000,,,,,VFR,,,,,,,,,,,,METAR,394.0
KTME 021955Z AUTO 13005G11KT 10SM FEW050 SCT060 BKN095 32/19 A2989 RMK AO2,KTME,2023-06-02T19:55:00Z,29.8,-95.9,32.0,19.0,130,5,11,10.0,29.890747,,,TRUE,TRUE,,,,,,,FEW,5000,SCT,6000,BKN,9500,,,VFR,,,,,,,,,,,,METAR,49.0
KTMA 021955Z AUTO 03007KT 10SM FEW050 SCT070 28/17 A2983 RMK AO2 T02830167,KTMA,2023-06-02T19:55:00Z,31.43,-83.48,28.3,16.7,30,7,,10.0,29.828741,,,TRUE,TRUE,,,,,,,FEW,5000,SCT,7000,,,,,VFR,,,,,,,,,,,,METAR,105.0
KTKX 021955Z AUTO VRB04KT 10SM CLR 31/18 A2990 RMK AO2,KTKX,2023-06-02T19:55:00Z,36.22,-90.03,31.0,18.0,0,4,,10.0,29.899607,,,TRUE,TRUE,,,,,,,CLR,,,,,,,,VFR,,,,,,,,,,,,METAR,73.0
KTKV 021955Z AUTO 00000KT 10SM SCT037 SCT049 SCT055 23/18 A3013 RMK AO2 T02270175 PWINO,KTKV,2023-06-02T19:55:00Z,45.47,-89.82,22.7,17.5,0,0,,10.0,30.129921,,,TRUE,TRUE,,,,,TRUE,,SCT,3700,SCT,4900,SCT,5500,,,VFR,,,,,,,,,,,,METAR,449.0
KTKC 021955Z AUTO 13015G23KT 10SM CLR 30/17 A2998 RMK AO2 LTG DSNT S AND W,KTKC,2023-06-02T19:55:00Z,44.25,-95.62,30.0,17.0,130,15,23,10.0,29.97933,,,TRUE,TRUE,,,,,,,CLR,,,,,,,,VFR,,,,,,,,,,,,METAR,408.0
KTEW 021955Z AUTO 09005G14KT 10SM SCT095 33/04 A3005 RMK AO2 T03320044,KTEW,2023-06-02T19:55:00Z,42.57,-84.42,33.2,4.4,90,5,14,10.0,30.050198,,,TRUE,TRUE,,,,,,,SCT,9500,,,,,,,VFR,,,,,,,,,,,,METAR,281.0
KTCM 021955Z AUTO 23003KT 10SM CLR 20/07 A3010 RMK AO2 SLP196 T01960070 $,KTCM,2023-06-02T19:55:00Z,47.13,-122.47,19.6,7.0,230,3,,10.0,30.100393,1019.6,,TRUE,TRUE,TRUE,,,,,,CLR,,,,,,,,VFR,,,,,,,,,,,,METAR,87.0
KT69 021955Z AUTO 17011KT 10SM CLR 31/21 A2986 RMK A01,KT69,2023-06-02T19:55:00Z,28.03,-97.55,31.0,21.0,170,11,,10.0,29.861221,,,TRUE,TRUE,,,,,,,CLR,,,,,,,,VFR,,,,,,,,,,,,METAR,15.0
KSVC 021955Z AUTO 27009KT 230V300 10SM CLR 26/M01 A3002 RMK AO2 T02641013,KSVC,2023-06-02T19:55:00Z,32.63,-108.15,26.4,-1.3,270,9,,10.0,30.02067,,,TRUE,TRUE,,,,,,,CLR,,,,,,,,VFR,,,,,,,,,,,,METAR,1638.0
KSUZ 021955Z AUTO VRB04KT 10SM CLR 32/18 A2991 RMK A01,KSUZ,2023-06-02T19:55:00Z,34.58,-92.48,32.0,18.0,0,4,,10.0,29.911417,,,TRUE,TRUE,,,,,,,CLR,,,,,,,,VFR,,,,,,,,,,,,METAR,114.0
KSUW 021955Z AUTO 03008KT 10SM OVC004 14/10 A3013 RMK AO2 T01360102,KSUW,2023-06-02T19:55:00Z,46.68,-92.1,13.6,10.2,30,8,,10.0,30.129921,,,TRUE,TRUE,,,,,,,OVC,400,,,,,,,LIFR,,,,,,,,,,,,METAR,205.0
KSUN 021955Z 14009KT 10SM BKN100 19/09 A3003,KSUN,2023-06-02T19:55:00Z,43.5,-114.28,19.0,9.0,140,9,,10.0,30.029528,,,,,,,,,,,BKN,10000,,,,,,,VFR,,,,,,,,,,,,METAR,1619.0
KSTF 021955Z AUTO 02005KT 5SM HZ CLR 31/18 A2987 RMK AO2,KSTF,2023-06-02T19:55:00Z,33.43,-88.85,31.0,18.0,20,5,,5.0,29.870079,,,TRUE,TRUE,,,,,,HZ,CLR,,,,,,,,MVFR,,,,,,,,,,,,METAR,99.0
KSRR 021955Z AUTO 19004G24KT 150V220 10SM FEW120 23/M09 A3006 RMK AO2,KSRR,2023-06-02T19:55:00Z,33.47,-105.52,23.0,-9.0,190,4,24,10.0,30.059055,,,TRUE,TRUE,,,,,,,FEW,12000,,,,,,,VFR,,,,,,,,,,,,METAR,2063.0
KSPF 021955Z AUTO 10019KT 10SM CLR 23/16 A2987 RMK AO2 LTG DSNT SW AND W,KSPF,2023-06-02T19:55:00Z,44.47,-103.78,23.0,16.0,100,19,,10.0,29.870079,,,TRUE,TRUE,,,,,,,CLR,,,,,,,,VFR,,,,,,,,,,,,METAR,1191.0
KSPA 021955Z AUTO 06011G16KT 7SM CLR 29/10 A2989 RMK AO2,KSPA,2023-06-02T19:55:00Z,34.92,-81.95,29.0,10.0,60,11,16,7.0,29.890747,,,TRUE,TRUE,,,,,,,CLR,,,,,,,,VFR,,,,,,,,,,,,SPECI,242.0
KSOW 021955Z AUTO 31005G10KT 10SM SCT100 SCT120 21/M01 A3009 RMK AO2,KSOW,2023-06-02T19:55:00Z,34.27,-110.0,21.0,-1.0,310,5,10,10.0,30.088583,,,TRUE,TRUE,,,,,,,SCT,10000,SCT,12000,,,,,VFR,,,,,,,,,,,,METAR,1954.0
KSNK 021955Z AUTO 15015G20KT 10SM SCT048 SCT055 SCT065 29/16 A2987 RMK AO2 T02910164,KSNK,2023-06-02T19:55:00Z,32.7,-100.95,29.1,16.4,150,15,20,10.0,29.870079,,,TRUE,TRUE,,,,,,,SCT,4800,SCT,5500,SCT,6500,,,VFR,,,,,,,,,,,,METAR,738.0
KSNC 021955Z AUTO 15006KT 10SM CLR 30/15 A2987 RMK AO2,KSNC,2023-06-02T19:55:00Z,41.38,-72.5,30.0,15.0,150,6,,10.0,29.870079,,,TRUE,TRUE,,,,,,,CLR,,,,,,,,VFR,,,,,,,,,,,,METAR,114.0
KSMS 021955Z AUTO VRB04G11KT 10SM SCT045 28/18 A2985 RMK AO2,KSMS,2023-06-02T19:55:00Z,34.0,-80.37,28.0,18.0,0,4,11,10.0,29.84941,,,TRUE,TRUE,,,,,,,SCT,4500,,,,,,,VFR,,,,,,,,,,,,METAR,53.0
KSLI 021955Z 21007KT 10SM OVC039 22/14 A2995 RMK AO2A SLP145 T02190140,KSLI,2023-06-02T19:55:00Z,33.78,-118.03,21.9,14.0,210,7,,10.0,29.949802,1014.5,,,TRUE,,,,,,,OVC,3900,,,,,,,VFR,,,,,,,,,,,,METAR,8.0
KSLH 021955Z AUTO 06005KT 10SM CLR 28/12 A3010 RMK AO2,KSLH,2023-06-02T19:55:00Z,45.65,-84.52,28.0,12.0,60,5,,10.0,30.100393,,,TRUE,TRUE,,,,,,,CLR,,,,,,,,VFR,,,,,,,,,,,,METAR,193.0
KSKA 021955Z AUTO 21005KT 10SM CLR 23/04 A3001 RMK AO2 SLP152 T02270037 $,KSKA,2023-06-02T19:55:00Z,47.62,-117.67,22.7,3.7,210,5,,10.0,30.008858,1015.2,,TRUE,TRUE,TRUE,,,,,,CLR,,,,,,,,VFR,,,,,,,,,,,,METAR,754.0
KSJX 021955Z AUTO 05005KT 10SM CLR 28/10 A3010 RMK AO2 T02750103,KSJX,2023-06-02T19:55:00Z,45.7,-85.57,27.5,10.3,50,5,,10.0,30.100393,,,TRUE,TRUE,,,,,,,CLR,,,,,,,,VFR,,,,,,,,,,,,METAR,202.0
KSIK 021955Z AUTO 04007KT 10SM CLR 33/15 A2991 RMK AO2,KSIK,2023-06-02T19:55:00Z,36.9,-89.57,33.0,15.0,40,7,,10.0,29.911417,,,TRUE,TRUE,,,,,,,CLR,,,,,,,,VFR,,,,,,,,,,,,METAR,95.0
KSHM 021955Z AUTO 20010KT 10SM CLR 20/M02 A2993 RMK AO2 LTG DSNT NW SLP073 T02021016 $,KSHM,2023-06-02T19:55:00Z,38.8,-104.52,20.2,-1.6,200,10,,10.0,29.929134,1007.3,,TRUE,TRUE,TRUE,,,,,,CLR,,,,,,,,VFR,,,,,,,,,,,,METAR,1900.0
KSHD 021955Z AUTO 04009G15KT 10SM CLR 31/08 A2995 RMK AO2 LTG DSNT S T03100083,KSHD,2023-06-02T19:55:00Z,38.27,-78.9,31.0,8.3,40,9,15,10.0,29.949802,,,TRUE,TRUE,,,,,,,CLR,,,,,,,,VFR,,,,,,,,,,,,METAR,360.0
KSGS 021955Z AUTO 00000KT 5SM -RA SCT032 BKN070 OVC110 24/18 A3004 RMK AO2 LTG DSNT SE T02400184 P0001,KSGS,2023-06-02T19:55:00Z,44.87,-93.03,24.0,18.4,0,0,,5.0,30.041338,,,TRUE,TRUE,,,,,,-RA,SCT,3200,BKN,7000,OVC,11000,,,MVFR,,,,,,0.01,,,,,,METAR,250.0
KSFQ 021955Z AUTO 03009KT 360V070 10SM SCT034 27/18 A2989 RMK AO2 LTG DSNT S T02660182,KSFQ,2023-06-02T19:55:00Z,36.68,-76.6,26.6,18.2,30,9,,10.0,29.890747,,,TRUE,TRUE,,,,,,,SCT,3400,,,,,,,VFR,,,,,,,,,,,,METAR,19.0
KSDC 021955Z AUTO 35003KT 10SM CLR 27/13 A2997 RMK AO2,KSDC,2023-06-02T19:55:00Z,43.23,-77.12,27.0,13.0,350,3,,10.0,29.970472,,,TRUE,TRUE,,,,,,,CLR,,,,,,,,VFR,,,,,,,,,,,,METAR,127.0
KSCK 021955Z 33007KT 10SM CLR 26/11 A2995 RMK AO2 SLP140 T02560111,KSCK,2023-06-02T19:55:00Z,37.88,-121.22,25.6,11.1,330,7,,10.0,29.949802,1014.0,,,TRUE,,,,,,,CLR,,,,,,,,VFR,,,,,,,,,,,,METAR,8.0
KSAZ 021955Z AUTO 15007KT 10SM SCT046 31/17 A3002 RMK AO2,KSAZ,2023-06-02T19:55:00Z,46.37,-94.8,31.0,17.0,150,7,,10.0,30.02067,,,TRUE,TRUE,,,,,,,SCT,4600,,,,,,,VFR,,,,,,,,,,,,METAR,391.0
KS32 021955Z AUTO 15011KT 10SM CLR 31/17 A2995 RMK AO2 TSNO,KS32,2023-06-02T19:55:00Z,47.42,-98.1,31.0,17.0,150,11,,10.0,29.949802,,,TRUE,TRUE,,,TRUE,,,,CLR,,,,,,,,VFR,,,,,,,,,,,,METAR,435.0
KS25 021955Z AUTO 14011G17KT 10SM CLR 26/18 A2990 RMK AO2,KS25,2023-06-02T19:55:00Z,47.8,-103.25,26.0,18.0,140,11,17,10.0,29.899607,,,TRUE,TRUE,,,,,,,CLR,,,,,,,,VFR,,,,,,,,,,,,METAR,632.0
KS24 021955Z AUTO 04014KT 10SM CLR 31/13 A3001 RMK AO2,KS24,2023-06-02T19:55:00Z,41.3,-83.03,31.0,13.0,40,14,,10.0,30.008858,,,TRUE,TRUE,,,,,,,CLR,,,,,,,,VFR,,,,,,,,,,,,METAR,203.0
KRZN 021955Z AUTO 12006KT 10SM SCT060 SCT075 31/14 A3004 RMK AO2 T03080140,KRZN,2023-06-02T19:55:00Z,45.82,-92.37,30.8,14.0,120,6,,10.0,30.041338,,,TRUE,TRUE,,,,,,,SCT,6000,SCT,7500,,,,,VFR,,,,,,,,,,,,METAR,301.0
KRUG 021955Z AUTO 11012G19KT 10SM SCT060 SCT070 30/17 A2991 RMK AO2 LTG DSNT SE-SW,KRUG,2023-06-02T19:55:00Z,48.38,-100.02,30.0,17.0,110,12,19,10.0,29.911417,,,TRUE,TRUE,,,,,,,SCT,6000,SCT,7000,,,,,VFR,,,,,,,,,,,,METAR,469.0
KRSN 021955Z AUTO VRB03KT 10SM FEW370 32/19 A2990 RMK AO2 T03210189 $,KRSN,2023-06-02T19:55:00Z,32.52,-92.58,32.1,18.9,0,3,,10.0,29.899607,,,TRUE,TRUE,TRUE,,,,,,FEW,37000,,,,,,,VFR,,,,,,,,,,,,METAR,86.0
KRRT 021955Z AUTO 05007KT 10SM SCT060 26/22 A3003 RMK AO2,KRRT,2023-06-02T19:55:00Z,48.93,-95.33,26.0,22.0,50,7,,10.0,30.029528,,,TRUE,TRUE,,,,,,,SCT,6000,,,,,,,VFR,,,,,,,,,,,,METAR,327.0
KRRL 021955Z AUTO 13005KT 10SM -RA SCT038 SCT047 BKN050 19/19 A3013 RMK AO2 T01900190 TSNO,KRRL,2023-06-02T19:55:00Z,45.2,-89.72,19.0,19.0,130,5,,10.0,30.129921,,,TRUE,TRUE,,,TRUE,,,-RA,SCT,3800,SCT,4700,BKN,5000,,,VFR,,,,,,,,,,,,METAR,397.0
KRQB 021955Z AUTO 27006KT 10SM CLR 31/08 A3006 RMK AO2 T03060075,KRQB,2023-06-02T19:55:00Z,43.72,-85.5,30.6,7.5,270,6,,10.0,30.059055,,,TRUE,TRUE,,,,,,,CLR,,,,,,,,VFR,,,,,,,,,,,,METAR,282.0
KRPH 021955Z AUTO 11011KT 10SM FEW055 SCT075 31/18 A2984 RMK AO2 T03120177 $,KRPH,2023-06-02T19:55:00Z,33.12,-98.55,31.2,17.7,110,11,,10.0,29.840551,,,TRUE,TRUE,TRUE,,,,,,FEW,5500,SCT,7500,,,,,VFR,,,,,,,,,,,,METAR,341.0
KRPD 021955Z AUTO 09007KT 10SM SCT060 SCT075 BKN085 31/20 A3006 RMK AO2 LTG DSNT E AND S T03060201,KRPD,2023-06-02T19:55:00Z,45.42,-91.77,30.6,20.1,90,7,,10.0,30.059055,,,TRUE,TRUE,,,,,,,SCT,6000,SCT,7500,BKN,8500,,,VFR,,,,,,,,,,,,SPECI,334.0
KROX 021955Z AUTO 14009KT 10SM SCT047 29/17 A3001 RMK AO2,KROX,2023-06-02T19:55:00Z,48.85,-95.7,29.0,17.0,140,9,,10.0,30.008858,,,TRUE,TRUE,,,,,,,SCT,4700,,,,,,,VFR,,,,,,,,,,,,METAR,320.0
KROS 021955Z AUTO 10007KT 4SM +RA SCT030 SCT055 SCT075 26/19 A3006 RMK AO2 LTG DSNT SE AND S T02570192 P0016,KROS,2023-06-02T19:55:00Z,45.7,-92.95,25.7,19.2,100,7,,4.0,30.059055,,,TRUE,TRUE,,,,,,+RA,SCT,3000,SCT,5500,SCT,7500,,,MVFR,,,,,,0.16,,,,,,METAR,282.0
KRNP 021955Z AUTO 01008KT 340V040 10SM CLR 32/04 A3005 RMK AO2 T03240041,KRNP,2023-06-02T19:55:00Z,43.0,-84.13,32.4,4.1,10,8,,10.0,30.050198,,,TRUE,TRUE,,,,,,,CLR,,,,,,,,VFR,,,,,,,,,,,,METAR,224.0
KRNO 021955Z 05006KT 10SM FEW080 23/01 A3005 RMK AO2 SLP134 T02280006,KRNO,2023-06-02T19:55:00Z,39.5,-119.77,22.8,0.6,50,6,,10.0,30.050198,1013.4,,,TRUE,,,,,,,FEW,8000,,,,,,,VFR,,,,,,,,,,,,METAR,1344.0
KRMY 021955Z AUTO 04004KT 10SM CLR 32/08 A3004 RMK AO2 T03170075,KRMY,2023-06-02T19:55:00Z,42.25,-84.95,31.7,7.5,40,4,,10.0,30.041338,,,TRUE,TRUE,,,,,,,CLR,,,,,,,,VFR,,,,,,,,,,,,METAR,285.0
KRMN 021955Z AUTO 12005KT 10SM CLR 32/09 A2988 RMK AO2 LTG DSNT S T03240093,KRMN,2023-06-02T19:55:00Z,38.4,-77.45,32.4,9.3,120,5,,10.0,29.878937,,,TRUE,TRUE,,,,,,,CLR,,,,,,,,VFR,,,,,,,,,,,,METAR,50.0
KRIV 021955Z 00000KT 10SM CLR 21/11 A2997 RMK AO2A SLP140 T02140108 $,KRIV,2023-06-02T19:55:00Z,33.87,-117.23,21.4,10.8,0,0,,10.0,29.970472,1014.0,,,TRUE,TRUE,,,,,,CLR,,,,,,,,VFR,,,,,,,,,,,,METAR,454.0
KRID 021955Z AUTO 03008KT 10SM CLR 31/08 A3001 RMK AO2,KRID,2023-06-02T19:55:00Z,39.75,-84.85,31.0,8.0,30,8,,10.0,30.008858,,,TRUE,TRUE,,,,,,,CLR,,,,,,,,VFR,,,,,,,,,,,,SPECI,346.0
KRGK 021955Z AUTO 13004KT 10SM TS SCT090 31/15 A3001 RMK AO2 LTG DSNT SE S AND NW,KRGK,2023-06-02T19:55:00Z,44.58,-92.48,31.0,15.0,130,4,,10.0,30.008858,,,TRUE,TRUE,,,,,,TS,SCT,9000,,,,,,,VFR,,,,,,,,,,,,METAR,238.0
KRCX 021955Z AUTO 04004KT 5SM -TSRA SCT050 SCT065 OVC085 20/20 A3014 RMK AO2 LTG DSNT ALQS P0055 T02030195,KRCX,2023-06-02T19:55:00Z,45.5,-91.0,20.3,19.5,40,4,,5.0,30.138779,,,TRUE,TRUE,,,,,,-TSRA,SCT,5000,SCT,6500,OVC,8500,,,MVFR,,,,,,0.55,,,,,,METAR,373.0
KRCM 021955Z AUTO 13004KT 10SM CLR 31/15 A2995 RMK AO2 LTG DSNT NE,KRCM,2023-06-02T19:55:00Z,38.78,-93.8,31.0,15.0,130,4,,10.0,29.949802,,,TRUE,TRUE,,,,,,,CLR,,,,,,,,VFR,,,,,,,,,,,,METAR,242.0
KRBW 021955Z AUTO 01007KT 10SM SCT048 OVC060 26/16 A2985 RMK AO2 LTG DSNT E,KRBW,2023-06-02T19:55:00Z,32.92,-80.63,26.0,16.0,10,7,,10.0,29.84941,,,TRUE,TRUE,,,,,,,SCT,4800,OVC,6000,,,,,VFR,,,,,,,,,,,,METAR,30.0
KRAW 021955Z AUTO 13006KT 10SM CLR 31/16 A2997 RMK AO2 LTG DSNT NE,KRAW,2023-06-02T19:55:00Z,38.35,-93.35,31.0,16.0,130,6,,10.0,29.970472,,,TRUE,TRUE,,,,,,,CLR,,,,,,,,VFR,,,,,,,,,,,,SPECI,285.0
KPZZ 021955Z AUTO 05014KT 8SM CLR 27/19 A2988 RMK A01,KPZZ,2023-06-02T19:55:00Z,28.43,-91.03,27.0,19.0,50,14,,8.0,29.878937,,,TRUE,TRUE,,,,,,,CLR,,,,,,,,VFR,,,,,,,,,,,,METAR,25.0
KPZQ 021955Z AUTO 04004KT 10SM CLR 26/13 A3011 RMK AO2 T02610129,KPZQ,2023-06-02T19:55:00Z,45.4,-83.82,26.1,12.9,40,4,,10.0,30.109253,,,TRUE,TRUE,,,,,,,CLR,,,,,,,,VFR,,,,,,,,,,,,METAR,199.0
KPWC 021955Z AUTO 19013G17KT 10SM CLR 30/17 A3006 RMK AO2,KPWC,2023-06-02T19:55:00Z,46.72,-94.38,30.0,17.0,190,13,17,10.0,30.059055,,,TRUE,TRUE,,,,,,,CLR,,,,,,,,VFR,,,,,,,,,,,,METAR,394.0
KPVB 021955Z AUTO 30005KT 10SM SCT070 32/11 A3003 RMK AO1 T03200106,KPVB,2023-06-02T19:55:00Z,42.68,-90.43,32.0,10.6,300,5,,10.0,30.029528,,,TRUE,TRUE,,,,,,,SCT,7000,,,,,,,VFR,,,,,,,,,,,,METAR,311.0
KPTS 021955Z AUTO 17005KT 10SM SCT060 31/18 A2993 RMK AO2 T03070175 PWINO,KPTS,2023-06-02T19:55:00Z,37.45,-94.73,30.7,17.5,170,5,,10.0,29.929134,,,TRUE,TRUE,,,,,TRUE,,SCT,6000,,,,,,,VFR,,,,,,,,,,,,METAR,286.0
KPTD 021955Z AUTO 35006KT 10SM CLR 29/15 A2994 RMK AO2,KPTD,2023-06-02T19:55:00Z,44.68,-74.95,29.0,15.0,350,6,,10.0,29.940945,,,TRUE,TRUE,,,,,,,CLR,,,,,,,,VFR,,,,,,,,,,,,METAR,144.0
KPTB 021955Z AUTO 04004KT 10SM CLR 29/07 A2989 RMK AO2 T02910074,KPTB,2023-06-02T19:55:00Z,37.17,-77.52,29.1,7.4,40,4,,10.0,29.890747,,,TRUE,TRUE,,,,,,,CLR,,,,,,,,VFR,,,,,,,,,,,,METAR,56.0
KPSK 021955Z AUTO 12006KT 10SM CLR 27/10 A2998 RMK AO2 LTG DSNT SE T02680102,KPSK,2023-06-02T19:55:00Z,37.13,-80.67,26.8,10.2,120,6,,10.0,29.97933,,,TRUE,TRUE,,,,,,,CLR,,,,,,,,VFR,,,,,,,,,,,,METAR,629.0
KPOV 021955Z AUTO 05004KT 10SM CLR 31/05 A2999 RMK AO2 T03060047 PWINO,KPOV,2023-06-02T19:55:00Z,41.22,-81.25,30.6,4.7,50,4,,10.0,29.991142,,,TRUE,TRUE,,,,,TRUE,,CLR,,,,,,,,VFR,,,,,,,,,,,,METAR,363.0
KPNM 021955Z AUTO 17008KT 10SM CLR 32/15 A3004 RMK AO2,KPNM,2023-06-02T19:55:00Z,45.53,-93.6,32.0,15.0,170,8,,10.0,30.041338,,,TRUE,TRUE,,,,,,,CLR,,,,,,,,VFR,,,,,,,,,,,,METAR,298.0
KPLU 021955Z AUTO VRB04KT 10SM SCT042 20/08 A3011 RMK AO2,KPLU,2023-06-02T19:55:00Z,47.1,-122.28,20.0,8.0,0,4,,10.0,30.109253,,,TRUE,TRUE,,,,,,,SCT,4200,,,,,,,VFR,,,,,,,,,,,,METAR,164.0
KPLR 021955Z AUTO 02008KT 10SM CLR 30/17 A2989 RMK A01,KPLR,2023-06-02T19:55:00Z,33.57,-86.25,30.0,17.0,20,8,,10.0,29.890747,,,TRUE,TRUE,,,,,,,CLR,,,,,,,,VFR,,,,,,,,,,,,METAR,145.0
KPLD 021955Z AUTO 10008KT 10SM CLR A3000 RMK AO2,KPLD,2023-06-02T19:55:00Z,40.45,-84.98,,,100,8,,10.0,30.0,,,TRUE,TRUE,,,,,,,CLR,,,,,,,,VFR,,,,,,,,,,,,METAR,282.0
KPJC 021955Z AUTO 34006KT 10SM CLR 32/06 A2996 RMK AO2,KPJC,2023-06-02T19:55:00Z,40.8,-80.17,32.0,6.0,340,6,,10.0,29.958662,,,TRUE,TRUE,,,,,,,CLR,,,,,,,,VFR,,,,,,,,,,,,SPECI,273.0
KPHP 021955Z AUTO 16014KT 10SM FEW046 SCT055 28/17 A2988 RMK AO2 SLP098 T02830167,KPHP,2023-06-02T19:55:00Z,44.05,-101.6,28.3,16.7,160,14,,10.0,29.878937,1009.8,,TRUE,TRUE,,,,,,,FEW,4600,SCT,5500,,,,,VFR,,,,,,,,,,,,METAR,673.0
KPHN 021955Z AUTO 01009KT 10SM CLR 29/09 A3005 RMK AO2,KPHN,2023-06-02T19:55:00Z,42.92,-82.52,29.0,9.0,10,9,,10.0,30.050198,,,TRUE,TRUE,,,,,,,CLR,,,,,,,,VFR,,,,,,,,,,,,METAR,195.0
KPEX 021955Z AUTO 18010G17KT 10SM SCT049 SCT085 28/17 A3003 RMK AO2,KPEX,2023-06-02T19:55:00Z,45.37,-94.73,28.0,17.0,180,10,17,10.0,30.029528,,,TRUE,TRUE,,,,,,,SCT,4900,SCT,8500,,,,,VFR,,,,,,,,,,,,METAR,359.0
KPDC 021955Z AUTO 09009KT 10SM SCT002 SCT011 SCT019 29/15 A3001 RMK AO2 T02900151,KPDC,2023-06-02T19:55:00Z,43.02,-91.12,29.0,15.1,90,9,,10.0,30.008858,,,TRUE,TRUE,,,,,,,SCT,200,SCT,1100,SCT,1900,,,VFR,,,,,,,,,,,,SPECI,201.0
KPCZ 021955Z AUTO 07005KT 10SM SCT065 BKN085 34/13 A3006 RMK AO2 T03350131,KPCZ,2023-06-02T19:55:00Z,44.33,-89.02,33.5,13.1,70,5,,10.0,30.059055,,,TRUE,TRUE,,,,,,,SCT,6500,BKN,8500,,,,,VFR,,,,,,,,,,,,SPECI,248.0
KPCM 021955Z AUTO 04005KT 10SM SCT110 31/23 A2973 RMK AO2,KPCM,2023-06-02T19:55:00Z,28.0,-82.17,31.0,23.0,40,5,,10.0,29.731298,,,TRUE,TRUE,,,,,,,SCT,11000,,,,,,,VFR,,,,,,,,,,,,METAR,43.0
KPBH 021955Z AUTO 08005KT 10SM CLR 23/16 A3013 RMK AO2 LTG DSNT S THRU NW T02310156,KPBH,2023-06-02T19:55:00Z,45.7,-90.4,23.1,15.6,80,5,,10.0,30.129921,,,TRUE,TRUE,,,,,,,CLR,,,,,,,,VFR,,,,,,,,,,,,METAR,445.0
KPAN 021955Z AUTO 25008KT 10SM BKN080 BKN120 23/02 A3006 RMK AO2 PWINO TSNO,KPAN,2023-06-02T19:55:00Z,34.25,-111.33,23.0,2.0,250,8,,10.0,30.059055,,,TRUE,TRUE,,,TRUE,,TRUE,,BKN,8000,BKN,12000,,,,,VFR,,,,,,,,,,,,METAR,1575.0
KOZW 021955Z AUTO 02006KT 10SM SCT085 31/08 A3005 RMK AO2 T03110079,KOZW,2023-06-02T19:55:00Z,42.62,-83.98,31.1,7.9,20,6,,10.0,30.050198,,,TRUE,TRUE,,,,,,,SCT,8500,,,,,,,VFR,,,,,,,,,,,,SPECI,288.0
KOZS 021955Z AUTO 00000KT 10SM SCT050 SCT060 30/13 A2997 RMK AO2 LTG DSNT N,KOZS,2023-06-02T19:55:00Z,37.97,-92.68,30.0,13.0,0,0,,10.0,29.970472,,,TRUE,TRUE,,,,,,,SCT,5000,SCT,6000,,,,,VFR,,,,,,,,,,,,METAR,321.0
KOYM 021955Z AUTO 01006KT 10SM SCT085 30/09 A3003 RMK AO2 PWINO,KOYM,2023-06-02T19:55:00Z,41.42,-78.5,30.0,9.0,10,6,,10.0,30.029528,,,TRUE,TRUE,,,,,TRUE,,SCT,8500,,,,,,,VFR,,,,,,,,,,,,METAR,582.0
KOVL 021955Z AUTO 14012G18KT 10SM VCTS CLR 26/13 A3001 RMK AO2 LTG DSNT E,KOVL,2023-06-02T19:55:00Z,44.78,-95.03,26.0,13.0,140,12,18,10.0,30.008858,,,TRUE,TRUE,,,,,,VCTS,CLR,,,,,,,,VFR,,,,,,,,,,,,METAR,329.0
KOSC 021955Z AUTO 07006KT 10SM CLR 29/08 A3009 RMK AO2 T02850077,KOSC,2023-06-02T19:55:00Z,44.45,-83.4,28.5,7.7,70,6,,10.0,30.088583,,,TRUE,TRUE,,,,,,,CLR,,,,,,,,VFR,,,,,,,,,,,,METAR,191.0
KORS 021955Z AUTO 17007KT 10SM CLR 18/09 A3010 RMK AO2,KORS,2023-06-02T19:55:00Z,48.7,-122.92,18.0,9.0,170,7,,10.0,30.100393,,,TRUE,TRUE,,,,,,,CLR,,,,,,,,VFR,,,,,,,,,,,,METAR,7.0
KORK 021955Z AUTO 00000KT 10SM FEW060 SCT090 31/17 A2991 RMK AO2,KORK,2023-06-02T19:55:00Z,34.83,-92.25,31.0,17.0,0,0,,10.0,29.911417,,,TRUE,TRUE,,,,,,,FEW,6000,SCT,9000,,,,,VFR,,,,,,,,,,,,METAR,166.0
KONZ 021955Z AUTO 05006KT 10SM CLR 31/09 A3002 RMK AO2 T03120091,KONZ,2023-06-02T19:55:00Z,42.1,-83.15,31.2,9.1,50,6,,10.0,30.02067,,,TRUE,TRUE,,,,,,,CLR,,,,,,,,VFR,,,,,,,,,,,,METAR,179.0
KONM 021955Z AUTO 15004G17KT 10SM SCT090 SCT120 25/M07 A2996 RMK AO2 T02481066,KONM,2023-06-02T19:55:00Z,34.02,-106.9,24.8,-6.6,150,4,17,10.0,29.958662,,,TRUE,TRUE,,,,,,,SCT,9000,SCT,12000,,,,,VFR,,,,,,,,,,,,METAR,1467.0
KONA 021955Z AUTO 11004KT 10SM CLR 31/17 A3002 RMK AO2,KONA,2023-06-02T19:55:00Z,44.07,-91.7,31.0,17.0,110,4,,10.0,30.02067,,,TRUE,TRUE,,,,,,,CLR,,,,,,,,VFR,,,,,,,,,,,,METAR,200.0
KOMH 021955Z AUTO 08008KT 10SM CLR 30/12 A2991 RMK AO2,KOMH,2023-06-02T19:55:00Z,38.25,-78.05,30.0,12.0,80,8,,10.0,29.911417,,,TRUE,TRUE,,,,,,,CLR,,,,,,,,VFR,,,,,,,,,,,,SPECI,136.0
KOKV 021955Z AUTO 08003KT 10SM CLR 31/10 A2991 RMK AO2,KOKV,2023-06-02T19:55:00Z,39.13,-78.15,31.0,10.0,80,3,,10.0,29.911417,,,TRUE,TRUE,,,,,,,CLR,,,,,,,,VFR,,,,,,,,,,,,SPECI,213.0
KOIN 021955Z AUTO 13007KT 10SM CLR 24/16 A2997 RMK AO1 T02410160,KOIN,2023-06-02T19:55:00Z,39.83,-100.53,24.1,16.0,130,7,,10.0,29.970472,,,TRUE,TRUE,,,,,,,CLR,,,,,,,,VFR,,,,,,,,,,,,SPECI,810.0
KOIC 021955Z AUTO 35007KT 10SM CLR 32/12 A2993 RMK AO2 T03170123 PWINO,KOIC,2023-06-02T19:55:00Z,42.57,-75.52,31.7,12.3,350,7,,10.0,29.929134,,,TRUE,TRUE,,,,,TRUE,,CLR,,,,,,,,VFR,,,,,,,,,,,,METAR,311.0
KOEO 021955Z AUTO 33007KT 7SM RA SCT055 BKN065 OVC080 24/20 A3007 RMK AO2 P0015 T02400200,KOEO,2023-06-02T19:55:00Z,45.32,-92.7,24.0,20.0,330,7,,7.0,30.070866,,,TRUE,TRUE,,,,,,RA,SCT,5500,BKN,6500,OVC,8000,,,VFR,,,,,,0.15,,,,,,METAR,269.0
KOCQ 021955Z AUTO 08007KT 10SM CLR 29/14 A3008 RMK AO1 T02930144,KOCQ,2023-06-02T19:55:00Z,44.87,-87.92,29.3,14.4,80,7,,10.0,30.079725,,,TRUE,TRUE,,,,,,,CLR,,,,,,,,VFR,,,,,,,,,,,,METAR,181.0
KO32 021955Z AUTO 00000KT 9SM CLR 26/12 A2993 RMK AO2 T02610120 $,KO32,2023-06-02T19:55:00Z,36.67,-119.45,26.1,12.0,0,0,,9.0,29.929134,,,TRUE,TRUE,TRUE,,,,,,CLR,,,,,,,,VFR,,,,,,,,,,,,METAR,117.0
KO22 021955Z AUTO 24009KT 10SM CLR 25/06 A2998 RMK A01,KO22,2023-06-02T19:55:00Z,38.03,-120.42,25.0,6.0,240,9,,10.0,29.97933,,,TRUE,TRUE,,,,,,,CLR,,,,,,,,VFR,,,,,,,,,,,,METAR,637.0
KNTD 021955Z 27010KT 6SM HZ SCT035 BKN045 21/13 A3000 RMK AO2 SLP158 T02060133 VISNO S $ ,KNTD,2023-06-02T19:55:00Z,34.12,-119.12,20.6,13.3,270,10,,6.0,30.0,1015.8,,,TRUE,TRUE,,,,,HZ,SCT,3500,BKN,4500,,,,,VFR,,,,,,,,,,,,METAR,1.0
KNBG 021955Z 06009KT 030V090 10SM SCT050 SCT250 31/18 A2985 RMK AO2 SLP107 T03060183 $ ,KNBG,2023-06-02T19:55:00Z,29.83,-90.02,30.6,18.3,60,9,,10.0,29.84941,1010.7,,,TRUE,TRUE,,,,,,SCT,5000,SCT,25000,,,,,VFR,,,,,,,,,,,,METAR,0.0
KN79 021955Z AUTO 02007KT 9SM FEW095 33/09 A2989 RMK AO2 T03330091,KN79,2023-06-02T19:55:00Z,,,33.3,9.1,20,7,,9.0,29.890747,,,TRUE,TRUE,,,,,,,FEW,9500,,,,,,,VFR,,,,,,,,,,,,METAR,
KN38 021955Z AUTO 02012G20KT 10SM SCT090 30/09 A2998 RMK AO2,KN38,2023-06-02T19:55:00Z,41.73,-77.4,30.0,9.0,20,12,20,10.0,29.97933,,,TRUE,TRUE,,,,,,,SCT,9000,,,,,,,VFR,,,,,,,,,,,,SPECI,576.0
KMYJ 021955Z AUTO 25007KT 10SM TS CLR 21/18 A3000 RMK AO2 P0010 LTG DSNT S THRU W,KMYJ,2023-06-02T19:55:00Z,39.15,-91.82,21.0,18.0,250,7,,10.0,30.0,,,TRUE,TRUE,,,,,,TS,CLR,,,,,,,,VFR,,,,,,0.1,,,,,,SPECI,249.0
KMWM 021955Z AUTO 08003KT 10SM CLR 26/18 A3000 RMK AO2 LTG DSNT SW,KMWM,2023-06-02T19:55:00Z,43.9,-95.1,26.0,18.0,80,3,,10.0,30.0,,,TRUE,TRUE,,,,,,,CLR,,,,,,,,VFR,,,,,,,,,,,,METAR,427.0
KMVE 021955Z AUTO 15011KT 10SM SCT065 30/17 A2998 RMK AO2 LTG DSNT S AND W,KMVE,2023-06-02T19:55:00Z,44.97,-95.72,30.0,17.0,150,11,,10.0,29.97933,,,TRUE,TRUE,,,,,,,SCT,6500,,,,,,,VFR,,,,,,,,,,,,METAR,319.0
KMTV 021955Z AUTO 05007KT 10SM CLR 28/09 A2995 RMK AO2 LTG DSNT S T02820093,KMTV,2023-06-02T19:55:00Z,36.63,-80.02,28.2,9.3,50,7,,10.0,29.949802,,,TRUE,TRUE,,,,,,,CLR,,,,,,,,VFR,,,,,,,,,,,,SPECI,276.0
KMRJ 021955Z AUTO 12005KT 10SM CLR 32/08 A3006 RMK AO2 PWINO,KMRJ,2023-06-02T19:55:00Z,42.88,-90.23,32.0,8.0,120,5,,10.0,30.059055,,,TRUE,TRUE,,,,,TRUE,,CLR,,,,,,,,VFR,,,,,,,,,,,,METAR,350.0
KMQS 021955Z AUTO 34013KT 10SM FEW090 FEW120 32/11 A2988 RMK AO2,KMQS,2023-06-02T19:55:00Z,39.98,-75.87,32.0,11.0,340,13,,10.0,29.878937,,,TRUE,TRUE,,,,,,,FEW,9000,FEW,12000,,,,,VFR,,,,,,,,,,,,METAR,200.0
KMQJ 021955Z AUTO 03008KT 330V060 10SM CLR 33/11 A3000 RMK AO1,KMQJ,2023-06-02T19:55:00Z,39.85,-85.9,33.0,11.0,30,8,,10.0,30.0,,,TRUE,TRUE,,,,,,,CLR,,,,,,,,VFR,,,,,,,,,,,,METAR,262.0
KMOX 021955Z AUTO 18013KT 10SM CLR 32/11 A2997 RMK AO2,KMOX,2023-06-02T19:55:00Z,45.57,-95.97,32.0,11.0,180,13,,10.0,29.970472,,,TRUE,TRUE,,,,,,,CLR,,,,,,,,VFR,,,,,,,,,,,,METAR,346.0
KMOP 021955Z AUTO 09007KT 10SM CLR 33/08 A3005 RMK AO2 T03250082,KMOP,2023-06-02T19:55:00Z,43.62,-84.73,32.5,8.2,90,7,,10.0,30.050198,,,TRUE,TRUE,,,,,,,CLR,,,,,,,,VFR,,,,,,,,,,,,METAR,229.0
KMNI 021955Z AUTO 06007KT 10SM SCT043 SCT049 BKN065 26/16 A2984 RMK AO2 LTG DSNT SE,KMNI,2023-06-02T19:55:00Z,33.58,-80.22,26.0,16.0,60,7,,10.0,29.840551,,,TRUE,TRUE,,,,,,,SCT,4300,SCT,4900,BKN,6500,,,VFR,,,,,,,,,,,,SPECI,29.0
KMKS 021955Z AUTO 01007KT 10SM OVC055 25/18 A2984 RMK AO2 LTG DSNT SE,KMKS,2023-06-02T19:55:00Z,33.18,-80.03,25.0,18.0,10,7,,10.0,29.840551,,,TRUE,TRUE,,,,,,,OVC,5500,,,,,,,VFR,,,,,,,,,,,,METAR,22.0
KMKJ 021955Z AUTO 08007KT 10SM CLR 25/10 A3002 RMK AO2 LTG DSNT S T02480101,KMKJ,2023-06-02T19:55:00Z,36.88,-81.33,24.8,10.1,80,7,,10.0,30.02067,,,TRUE,TRUE,,,,,,,CLR,,,,,,,,VFR,,,,,,,,,,,,METAR,777.0
KMKG 021955Z 30007KT 10SM BKN250 32/09 A3006 RMK AO2 SLP174 T03170089,KMKG,2023-06-02T19:55:00Z,43.17,-86.23,31.7,8.9,300,7,,10.0,30.059055,1017.4,,,TRUE,,,,,,,BKN,25000,,,,,,,VFR,,,,,,,,,,,,METAR,190.0
KMJQ 021955Z AUTO 17005KT 10SM SCT060 SCT120 30/12 A3001 RMK AO2 PWINO,KMJQ,2023-06-02T19:55:00Z,43.63,-94.98,30.0,12.0,170,5,,10.0,30.008858,,,TRUE,TRUE,,,,,TRUE,,SCT,6000,SCT,12000,,,,,VFR,,,,,,,,,,,,METAR,439.0
KMHL 021955Z AUTO 00000KT 10SM SCT055 31/17 A2997 RMK AO2 LTG DSNT NE AND E,KMHL,2023-06-02T19:55:00Z,39.1,-93.2,31.0,17.0,0,0,,10.0,29.970472,,,TRUE,TRUE,,,,,,,SCT,5500,,,,,,,VFR,,,,,,,,,,,,SPECI,236.0
KMGR 021955Z AUTO 08007KT 10SM FEW070 SCT360 29/17 A2981 RMK AO2 T02910170,KMGR,2023-06-02T19:55:00Z,31.08,-83.8,29.1,17.0,80,7,,10.0,29.811024,,,TRUE,TRUE,,,,,,,FEW,7000,SCT,36000,,,,,VFR,,,,,,,,,,,,METAR,86.0
KMGN 021955Z AUTO 09008KT 10SM CLR 32/10 A3008 RMK AO2 T03230098,KMGN,2023-06-02T19:55:00Z,45.43,-84.92,32.3,9.8,90,8,,10.0,30.079725,,,TRUE,TRUE,,,,,,,CLR,,,,,,,,VFR,,,,,,,,,,,,METAR,205.0
KMGG 021955Z AUTO 12003KT 10SM SCT031 SCT050 OVC100 27/16 A3004 RMK AO2 LTG DSNT SE T02710164,KMGG,2023-06-02T19:55:00Z,45.23,-93.98,27.1,16.4,120,3,,10.0,30.041338,,,TRUE,TRUE,,,,,,,SCT,3100,SCT,5000,OVC,10000,,,VFR,,,,,,,,,,,,METAR,310.0
KMFV 021955Z AUTO 13003KT 10SM CLR 24/16 A2987 RMK AO2 T02400163,KMFV,2023-06-02T19:55:00Z,37.63,-75.77,24.0,16.3,130,3,,10.0,29.870079,,,TRUE,TRUE,,,,,,,CLR,,,,,,,,VFR,,,,,,,,,,,,METAR,13.0
KMEZ 021955Z AUTO 11005KT 10SM FEW270 30/18 A2994 RMK AO2 T02980176,KMEZ,2023-06-02T19:55:00Z,34.55,-94.2,29.8,17.6,110,5,,10.0,29.940945,,,TRUE,TRUE,,,,,,,FEW,27000,,,,,,,VFR,,,,,,,,,,,,METAR,320.0
KMDZ 021955Z AUTO 12007KT 1/4SM TS BKN032 OVC046 20/19 A3013 RMK AO2 LTG DSNT ALQS P0020 T02030187,KMDZ,2023-06-02T19:55:00Z,45.1,-90.3,20.3,18.7,120,7,,0.25,30.129921,,,TRUE,TRUE,,,,,,TS,BKN,3200,OVC,4600,,,,,LIFR,,,,,,0.2,,,,,,METAR,446.0
KMDS 021955Z AUTO 21008KT 5SM -RA BR FEW003 SCT046 BKN060 22/19 A2999 RMK AO2 LTG DSNT ALQDS,KMDS,2023-06-02T19:55:00Z,44.02,-97.08,22.0,19.0,210,8,,5.0,29.991142,,,TRUE,TRUE,,,,,,-RA BR,FEW,300,SCT,4600,BKN,6000,,,MVFR,,,,,,,,,,,,METAR,524.0
KMCX 021955Z AUTO 08005KT 10SM CLR 32/07 A3000 RMK AO2 T03230068,KMCX,2023-06-02T19:55:00Z,40.72,-86.77,32.3,6.8,80,5,,10.0,30.0,,,TRUE,TRUE,,,,,,,CLR,,,,,,,,VFR,,,,,,,,,,,,SPECI,205.0
KMCJ 021955Z AUTO 14011KT 10SM SCT047 BKN055 BKN095 31/19 A2987 RMK A01,KMCJ,2023-06-02T19:55:00Z,29.72,-95.4,31.0,19.0,140,11,,10.0,29.870079,,,TRUE,TRUE,,,,,,,SCT,4700,BKN,5500,BKN,9500,,,VFR,,,,,,,,,,,,METAR,70.0
KMCD 021955Z AUTO 00000KT 10SM CLR 28/10 A3010 RMK AO2 T02820099,KMCD,2023-06-02T19:55:00Z,45.85,-84.63,28.2,9.9,0,0,,10.0,30.100393,,,TRUE,TRUE,,,,,,,CLR,,,,,,,,VFR,,,,,,,,,,,,METAR,228.0
KMBY 021955Z AUTO 11006KT 10SM CLR 33/12 A2997 RMK AO2 LTG DSNT SE THRU W,KMBY,2023-06-02T19:55:00Z,39.47,-92.43,33.0,12.0,110,6,,10.0,29.970472,,,TRUE,TRUE,,,,,,,CLR,,,,,,,,VFR,,,,,,,,,,,,METAR,263.0
KMBO 021955Z AUTO 00000KT 10SM CLR 31/19 A2988 RMK AO2,KMBO,2023-06-02T19:55:00Z,32.43,-90.1,31.0,19.0,0,0,,10.0,29.878937,,,TRUE,TRUE,,,,,,,CLR,,,,,,,,VFR,,,,,,,,,,,,METAR,98.0
KMAW 021955Z AUTO 11004KT 10SM BKN065 BKN110 32/15 A2992 RMK AO1,KMAW,2023-06-02T19:55:00Z,36.6,-90.0,32.0,15.0,110,4,,10.0,29.920275,,,TRUE,TRUE,,,,,,,BKN,6500,BKN,11000,,,,,VFR,,,,,,,,,,,,SPECI,88.0
KMAO 021955Z AUTO 07008KT 10SM SCT044 BKN050 OVC060 26/17 A2985 RMK AO2 LTG DSNT SE,KMAO,2023-06-02T19:55:00Z,34.18,-79.33,26.0,17.0,70,8,,10.0,29.84941,,,TRUE,TRUE,,,,,,,SCT,4400,BKN,5000,OVC,6000,,,VFR,,,,,,,,,,,,METAR,27.0
KMAN 021955Z AUTO 30011G20KT 270V330 9SM FEW120 25/07 A2997 RMK A01,KMAN,2023-06-02T19:55:00Z,43.58,-116.52,25.0,7.0,300,11,20,9.0,29.970472,,,TRUE,TRUE,,,,,,,FEW,12000,,,,,,,VFR,,,,,,,,,,,,METAR,773.0
KM40 021955Z AUTO 02005KT 10SM FEW055 SCT110 31/20 A2989 RMK AO2,KM40,2023-06-02T19:55:00Z,33.87,-88.48,31.0,20.0,20,5,,10.0,29.890747,,,TRUE,TRUE,,,,,,,FEW,5500,SCT,11000,,,,,VFR,,,,,,,,,,,,METAR,68.0
KM25 021955Z AUTO 09006KT 10SM SCT065 SCT075 31/16 A2994 RMK AO2 PWINO,KM25,2023-06-02T19:55:00Z,36.77,-88.58,31.0,16.0,90,6,,10.0,29.940945,,,TRUE,TRUE,,,,,TRUE,,SCT,6500,SCT,7500,,,,,VFR,,,,,,,,,,,,METAR,157.0
KM21 021955Z AUTO 01004KT 10SM SCT075 32/14 A2993 RMK AO2 T03170137,KM21,2023-06-02T19:55:00Z,37.22,-87.15,31.7,13.7,10,4,,10.0,29.929134,,,TRUE,TRUE,,,,,,,SCT,7500,,,,,,,VFR,,,,,,,,,,,,METAR,127.0
KLYV 021955Z AUTO 14013G17KT 120V180 10SM VCTS SCT065 SCT075 31/13 A2997 RMK AO2 LTG DSNT SW THRU NW,KLYV,2023-06-02T19:55:00Z,43.62,-96.22,31.0,13.0,140,13,17,10.0,29.970472,,,TRUE,TRUE,,,,,,VCTS,SCT,6500,SCT,7500,,,,,VFR,,,,,,,,,,,,METAR,435.0
KLXL 021955Z AUTO 14006G15KT 10SM SCT048 29/17 A3002 RMK AO2 LTG DSNT W,KLXL,2023-06-02T19:55:00Z,45.95,-94.33,29.0,17.0,140,6,15,10.0,30.02067,,,TRUE,TRUE,,,,,,,SCT,4800,,,,,,,VFR,,,,,,,,,,,,METAR,335.0
KLWA 021955Z AUTO 34009KT 10SM CLR 29/12 A3005 RMK AO2 T02880115,KLWA,2023-06-02T19:55:00Z,42.35,-86.25,28.8,11.5,340,9,,10.0,30.050198,,,TRUE,TRUE,,,,,,,CLR,,,,,,,,VFR,,,,,,,,,,,,METAR,199.0
KLVN 021955Z AUTO 00000KT 10SM CLR 27/17 A3004 RMK AO2 LTG DSNT NE P0001,KLVN,2023-06-02T19:55:00Z,44.63,-93.23,27.0,17.0,0,0,,10.0,30.041338,,,TRUE,TRUE,,,,,,,CLR,,,,,,,,VFR,,,,,,0.01,,,,,,METAR,292.0
KLVL 021955Z AUTO 35003KT 10SM CLR 29/14 A2989 RMK AO1 T02900140,KLVL,2023-06-02T19:55:00Z,36.78,-77.8,29.0,14.0,350,3,,10.0,29.890747,,,TRUE,TRUE,,,,,,,CLR,,,,,,,,VFR,,,,,,,,,,,,METAR,98.0
KLUX 021955Z AUTO 03007KT 010V080 10SM CLR 28/14 A2989 RMK AO2 LTG DSNT SE,KLUX,2023-06-02T19:55:00Z,34.5,-81.95,28.0,14.0,30,7,,10.0,29.890747,,,TRUE,TRUE,,,,,,,CLR,,,,,,,,VFR,,,,,,,,,,,,METAR,213.0
KLUM 021955Z 19009KT 10SM VCTS SCT055 BKN090 BKN120 28/13 A3005 RMK AO2 LTG DSNT S THRU NW T02790134,KLUM,2023-06-02T19:55:00Z,44.9,-91.87,27.9,13.4,190,9,,10.0,30.050198,,,,TRUE,,,,,,VCTS,SCT,5500,BKN,9000,BKN,12000,,,VFR,,,,,,,,,,,,METAR,271.0
KLUF 021955Z AUTO 00000KT 10SM FEW160 FEW200 31/04 A2984 RMK AO2 SLP091 T03120040 $,KLUF,2023-06-02T19:55:00Z,33.53,-112.37,31.2,4.0,0,0,,10.0,29.840551,1009.1,,TRUE,TRUE,TRUE,,,,,,FEW,16000,FEW,20000,,,,,VFR,,,,,,,,,,,,METAR,333.0
KLUA 021955Z AUTO 04006KT 10SM CLR 31/10 A2992 RMK AO2 LTG DSNT S,KLUA,2023-06-02T19:55:00Z,38.67,-78.5,31.0,10.0,40,6,,10.0,29.920275,,,TRUE,TRUE,,,,,,,CLR,,,,,,,,VFR,,,,,,,,,,,,METAR,273.0
KLSV 021955Z AUTO 17009KT 10SM CLR 34/02 A2982 RMK AO2 SLP073 T03350023 $,KLSV,2023-06-02T19:55:00Z,36.23,-115.05,33.5,2.3,170,9,,10.0,29.819881,1007.3,,TRUE,TRUE,TRUE,,,,,,CLR,,,,,,,,VFR,,,,,,,,,,,,METAR,563.0
KLRY 021955Z AUTO 15004KT 10SM SCT070 31/16 A2998 RMK AO2 LTG DSNT E AND W PWINO,KLRY,2023-06-02T19:55:00Z,38.62,-94.35,31.0,16.0,150,4,,10.0,29.97933,,,TRUE,TRUE,,,,,TRUE,,SCT,7000,,,,,,,VFR,,,,,,,,,,,,METAR,272.0
KLRO 021955Z AUTO 00000KT 8SM FEW025 SCT038 BKN047 26/21 A2982 RMK AO2,KLRO,2023-06-02T19:55:00Z,32.9,-79.78,26.0,21.0,0,0,,8.0,29.819881,,,TRUE,TRUE,,,,,,,FEW,2500,SCT,3800,BKN,4700,,,VFR,,,,,,,,,,,,METAR,3.0
KLQK 021955Z AUTO 09008G14KT 050V130 10SM CLR 29/11 A2989 RMK AO2 LTG DSNT E T02920107,KLQK,2023-06-02T19:55:00Z,34.82,-82.7,29.2,10.7,90,8,14,10.0,29.890747,,,TRUE,TRUE,,,,,,,CLR,,,,,,,,VFR,,,,,,,,,,,,SPECI,291.0
KLOT 021955Z 04009G17KT 10SM CLR 33/09 A3003,KLOT,2023-06-02T19:55:00Z,41.6,-88.1,33.0,9.0,40,9,17,10.0,30.029528,,,,,,,,,,,CLR,,,,,,,,VFR,,,,,,,,,,,,METAR,205.0
KLNP 021955Z AUTO 01011G16KT 10SM CLR 26/09 A3003 RMK AO2,KLNP,2023-06-02T19:55:00Z,36.98,-82.52,26.0,9.0,10,11,16,10.0,30.029528,,,TRUE,TRUE,,,,,,,CLR,,,,,,,,VFR,,,,,,,,,,,,METAR,817.0
KLNL 021955Z AUTO 00000KT 10SM SCT120 23/18 A3015 RMK AO2 T02300179,KLNL,2023-06-02T19:55:00Z,46.15,-89.22,23.0,17.9,0,0,,10.0,30.15059,,,TRUE,TRUE,,,,,,,SCT,12000,,,,,,,VFR,,,,,,,,,,,,METAR,517.0
KLLJ 021955Z AUTO VRB03KT 10SM CLR 19/08 A2999 RMK AO2 SLP111 T01940078,KLLJ,2023-06-02T19:55:00Z,44.52,-114.22,19.4,7.8,0,3,,10.0,29.991142,1011.1,,TRUE,TRUE,,,,,,,CLR,,,,,,,,VFR,,,,,,,,,,,,METAR,1535.0
KLKU 021955Z AUTO 08007KT 10SM CLR 30/12 A2990 RMK AO2 LTG DSNT S T03030121,KLKU,2023-06-02T19:55:00Z,38.02,-77.97,30.3,12.1,80,7,,10.0,29.899607,,,TRUE,TRUE,,,,,,,CLR,,,,,,,,VFR,,,,,,,,,,,,METAR,146.0
KLKR 021955Z AUTO 04004G11KT 10SM SCT060 28/15 A2987 RMK AO2,KLKR,2023-06-02T19:55:00Z,34.72,-80.85,28.0,15.0,40,4,11,10.0,29.870079,,,TRUE,TRUE,,,,,,,SCT,6000,,,,,,,VFR,,,,,,,,,,,,METAR,166.0
KLJF 021955Z AUTO 09010KT 10SM SCT100 29/17 A3001 RMK AO2 LTG DSNT SW AND W,KLJF,2023-06-02T19:55:00Z,45.1,-94.52,29.0,17.0,90,10,,10.0,30.008858,,,TRUE,TRUE,,,,,,,SCT,10000,,,,,,,VFR,,,,,,,,,,,,METAR,347.0
KLIC 021955Z AUTO 18011KT 10SM SCT080 BKN100 23/06 A2992 RMK AO2 SLP073 T02280056,KLIC,2023-06-02T19:55:00Z,39.27,-103.67,22.8,5.6,180,11,,10.0,29.920275,1007.3,,TRUE,TRUE,,,,,,,SCT,8000,BKN,10000,,,,,VFR,,,,,,,,,,,,METAR,1635.0
KLDM 021955Z AUTO 27005KT 10SM CLR 27/12 A3007 RMK AO2 T02730120,KLDM,2023-06-02T19:55:00Z,43.97,-86.4,27.3,12.0,270,5,,10.0,30.070866,,,TRUE,TRUE,,,,,,,CLR,,,,,,,,VFR,,,,,,,,,,,,METAR,194.0
KLBO 021955Z AUTO 08003KT 10SM SCT049 30/15 A2999 RMK AO2 LTG DSNT NE,KLBO,2023-06-02T19:55:00Z,37.65,-92.65,30.0,15.0,80,3,,10.0,29.991142,,,TRUE,TRUE,,,,,,,SCT,4900,,,,,,,VFR,,,,,,,,,,,,METAR,399.0
KL35 021955Z AUTO 04009G15KT 10SM CLR 18/M02 A3015 RMK AO2,KL35,2023-06-02T19:55:00Z,34.27,-116.85,18.0,-2.0,40,9,15,10.0,30.15059,,,TRUE,TRUE,,,,,,,CLR,,,,,,,,VFR,,,,,,,,,,,,METAR,2062.0
KL18 021955Z AUTO 23005G08KT 10SM OVC024 19/13 A2998 RMK AO2,KL18,2023-06-02T19:55:00Z,33.35,-117.25,19.0,13.0,230,5,8,10.0,29.97933,,,TRUE,TRUE,,,,,,,OVC,2400,,,,,,,MVFR,,,,,,,,,,,,SPECI,215.0
KL08 021955Z AUTO VRB03G10KT 10SM CLR 30/00 A2986 RMK AO2,KL08,2023-06-02T19:55:00Z,33.27,-116.32,30.0,0.0,0,3,10,10.0,29.861221,,,TRUE,TRUE,,,,,,,CLR,,,,,,,,VFR,,,,,,,,,,,,METAR,156.0
KKY8 021955Z AUTO 34004KT 10SM CLR 32/13 A2994 RMK A01,KKY8,2023-06-02T19:55:00Z,37.95,-86.87,32.0,13.0,340,4,,10.0,29.940945,,,TRUE,TRUE,,,,,,,CLR,,,,,,,,VFR,,,,,,,,,,,,METAR,124.0
KJZI 021955Z AUTO 11009KT 10SM CLR 26/20 A2983 RMK AO2,KJZI,2023-06-02T19:55:00Z,32.7,-80.0,26.0,20.0,110,9,,10.0,29.828741,,,TRUE,TRUE,,,,,,,CLR,,,,,,,,VFR,,,,,,,,,,,,METAR,5.0
KJYO 021955Z AUTO 03004G14KT 10SM SCT085 33/14 A2990 RMK AO2 LTG DSNT S,KJYO,2023-06-02T19:55:00Z,39.07,-77.57,33.0,14.0,30,4,14,10.0,29.899607,,,TRUE,TRUE,,,,,,,SCT,8500,,,,,,,VFR,,,,,,,,,,,,METAR,112.0
KJYM 021955Z AUTO 05005KT 10SM BKN090 31/05 A3004 RMK AO2 T03100051,KJYM,2023-06-02T19:55:00Z,41.92,-84.58,31.0,5.1,50,5,,10.0,30.041338,,,TRUE,TRUE,,,,,,,BKN,9000,,,,,,,VFR,,,,,,,,,,,,METAR,357.0
KJYG 021955Z AUTO 15010G14KT 10SM CLR 30/13 A3000 RMK AO2 TSNO,KJYG,2023-06-02T19:55:00Z,43.98,-94.55,30.0,13.0,150,10,14,10.0,30.0,,,TRUE,TRUE,,,TRUE,,,,CLR,,,,,,,,VFR,,,,,,,,,,,,METAR,323.0
KJXI 021955Z AUTO 00000KT 10SM CLR 31/15 A2990 RMK AO2 T03070152,KJXI,2023-06-02T19:55:00Z,32.7,-94.95,30.7,15.2,0,0,,10.0,29.899607,,,TRUE,TRUE,,,,,,,CLR,,,,,,,,VFR,,,,,,,,,,,,METAR,130.0
KJSO 021955Z AUTO 18004KT 10SM SCT048 BKN090 BKN120 31/18 A2992 RMK AO2 T03080175 TSNO,KJSO,2023-06-02T19:55:00Z,31.87,-95.22,30.8,17.5,180,4,,10.0,29.920275,,,TRUE,TRUE,,,TRUE,,,,SCT,4800,BKN,9000,BKN,12000,,,VFR,,,,,,,,,,,,METAR,204.0
KJRO 021955Z AUTO 01003KT 10SM CLR 31/10 A2997 RMK AO2,KJRO,2023-06-02T19:55:00Z,38.98,-82.58,31.0,10.0,10,3,,10.0,29.970472,,,TRUE,TRUE,,,,,,,CLR,,,,,,,,VFR,,,,,,,,,,,,METAR,224.0
KJMR 021955Z AUTO 21010KT 10SM SCT050 SCT065 BKN120 26/15 A3009 RMK AO2,KJMR,2023-06-02T19:55:00Z,45.88,-93.27,26.0,15.0,210,10,,10.0,30.088583,,,TRUE,TRUE,,,,,,,SCT,5000,SCT,6500,BKN,12000,,,VFR,,,,,,,,,,,,METAR,301.0
KJKJ 021955Z AUTO 14008KT 10SM SCT075 30/16 A2994 RMK AO2 TSNO,KJKJ,2023-06-02T19:55:00Z,46.83,-96.67,30.0,16.0,140,8,,10.0,29.940945,,,TRUE,TRUE,,,TRUE,,,,SCT,7500,,,,,,,VFR,,,,,,,,,,,,METAR,280.0
KJKA 021955Z 17006KT 10SM SCT060 29/18 A2982,KJKA,2023-06-02T19:55:00Z,30.28,-87.67,29.0,18.0,170,6,,10.0,29.819881,,,,,,,,,,,SCT,6000,,,,,,,VFR,,,,,,,,,,,,METAR,5.0
KJHN 021955Z AUTO 16015G21KT 10SM SCT042 SCT050 26/15 A2989 RMK AO2 LTG DSNT S AND NW T02590146,KJHN,2023-06-02T19:55:00Z,37.58,-101.73,25.9,14.6,160,15,21,10.0,29.890747,,,TRUE,TRUE,,,,,,,SCT,4200,SCT,5000,,,,,VFR,,,,,,,,,,,,METAR,1013.0
KJFZ 021955Z AUTO 04007G14KT 010V080 10SM CLR 27/11 A3002 RMK AO2 LTG DSNT SE T02650106,KJFZ,2023-06-02T19:55:00Z,37.07,-81.8,26.5,10.6,40,7,14,10.0,30.02067,,,TRUE,TRUE,,,,,,,CLR,,,,,,,,VFR,,,,,,,,,,,,METAR,809.0
KJFX 021955Z AUTO 04004KT 10SM SCT049 SCT060 30/19 A2989 RMK AO2 LTG DSNT N AND NW,KJFX,2023-06-02T19:55:00Z,33.9,-87.32,30.0,19.0,40,4,,10.0,29.890747,,,TRUE,TRUE,,,,,,,SCT,4900,SCT,6000,,,,,VFR,,,,,,,,,,,,METAR,144.0
KJAQ 021955Z AUTO 33006KT 10SM CLR 23/10 A2999 RMK AO1 T02340097,KJAQ,2023-06-02T19:55:00Z,38.37,-120.8,23.4,9.7,330,6,,10.0,29.991142,,,TRUE,TRUE,,,,,,,CLR,,,,,,,,VFR,,,,,,,,,,,,METAR,518.0
KIUA 021955Z AUTO 34011G14KT 10SM SCT110 31/14 A2998 RMK AO2 T03110138,KIUA,2023-06-02T19:55:00Z,42.92,-77.33,31.1,13.8,340,11,14,10.0,29.97933,,,TRUE,TRUE,,,,,,,SCT,11000,,,,,,,VFR,,,,,,,,,,,,SPECI,248.0
KISQ 021955Z AUTO 13006KT 10SM CLR 29/09 A3009 RMK AO2 T02920085,KISQ,2023-06-02T19:55:00Z,45.97,-86.17,29.2,8.5,130,6,,10.0,30.088583,,,TRUE,TRUE,,,,,,,CLR,,,,,,,,VFR,,,,,,,,,,,,METAR,206.0
KIRS 021955Z AUTO 09015G19KT 10SM CLR 33/M16 A3003 RMK AO2 T03251162,KIRS,2023-06-02T19:55:00Z,41.8,-85.43,32.5,-16.2,90,15,19,10.0,30.029528,,,TRUE,TRUE,,,,,,,CLR,,,,,,,,VFR,,,,,,,,,,,,METAR,282.0
KIRK 021955Z AUTO VRB05KT 10SM BKN060 OVC080 31/17 A2998 RMK AO2 LTG DSNT N AND E SLP148 T03060172,KIRK,2023-06-02T19:55:00Z,40.1,-92.55,30.6,17.2,0,5,,10.0,29.97933,1014.8,,TRUE,TRUE,,,,,,,BKN,6000,OVC,8000,,,,,VFR,,,,,,,,,,,,METAR,292.0
KINS 021955Z AUTO 04005KT 10SM CLR 29/02 A2991 RMK AO2 SLP080 T02900015 $,KINS,2023-06-02T19:55:00Z,36.58,-115.68,29.0,1.5,40,5,,10.0,29.911417,1008.0,,TRUE,TRUE,TRUE,,,,,,CLR,,,,,,,,VFR,,,,,,,,,,,,METAR,954.0
KINF 021955Z AUTO 08008G15KT 7SM SCT120 30/21 A2973 RMK AO2 LTG DSNT NE S AND SW P0003,KINF,2023-06-02T19:55:00Z,28.8,-82.32,30.0,21.0,80,8,15,7.0,29.731298,,,TRUE,TRUE,,,,,,,SCT,12000,,,,,,,VFR,,,,,,0.03,,,,,,METAR,14.0
KIDI 021955Z AUTO 00000KT 10SM FEW090 31/08 A3000 RMK A01,KIDI,2023-06-02T19:55:00Z,40.63,-79.1,31.0,8.0,0,0,,10.0,30.0,,,TRUE,TRUE,,,,,,,FEW,9000,,,,,,,VFR,,,,,,,,,,,,METAR,425.0
KI68 021955Z AUTO 05009G15KT 10SM CLR 32/09 A2996 RMK AO2,KI68,2023-06-02T19:55:00Z,39.47,-84.25,32.0,9.0,50,9,15,10.0,29.958662,,,TRUE,TRUE,,,,,,,CLR,,,,,,,,VFR,,,,,,,,,,,,METAR,274.0
KI23 021955Z AUTO 05010G15KT 10SM CLR 33/04 A2997 RMK AO1,KI23,2023-06-02T19:55:00Z,39.57,-83.42,33.0,4.0,50,10,15,10.0,29.970472,,,TRUE,TRUE,,,,,,,CLR,,,,,,,,VFR,,,,,,,,,,,,METAR,298.0
KI19 021955Z AUTO 00000G12KT 10SM CLR 32/11 A2996 RMK AO2,KI19,2023-06-02T19:55:00Z,39.7,-83.98,32.0,11.0,0,0,12,10.0,29.958662,,,TRUE,TRUE,,,,,,,CLR,,,,,,,,VFR,,,,,,,,,,,,METAR,285.0
KHZL 021955Z AUTO 31005KT SCT080 31/10 A2996 RMK AO2 LTG DSNT S PWINO,KHZL,2023-06-02T19:55:00Z,40.98,-76.0,31.0,10.0,310,5,,,29.958662,,,TRUE,TRUE,,,,,TRUE,,SCT,8000,,,,,,,,,,,,,,,,,,,METAR,481.0
KHZE 021955Z AUTO 14014G22KT 10SM CLR 29/16 A2990 RMK AO2 LTG DSNT NE AND SW,KHZE,2023-06-02T19:55:00Z,47.28,-101.58,29.0,16.0,140,14,22,10.0,29.899607,,,TRUE,TRUE,,,,,,,CLR,,,,,,,,VFR,,,,,,,,,,,,METAR,542.0
KHYX 021955Z AUTO 36010KT 10SM CLR 31/15 A3006 RMK AO2 T03090153,KHYX,2023-06-02T19:55:00Z,43.43,-83.87,30.9,15.3,360,10,,10.0,30.059055,,,TRUE,TRUE,,,,,,,CLR,,,,,,,,VFR,,,,,,,,,,,,METAR,181.0
KHWY 021955Z AUTO 04005G15KT 10SM CLR 32/09 A2989 RMK AO2 LTG DSNT S T03240087,KHWY,2023-06-02T19:55:00Z,38.58,-77.72,32.4,8.7,40,5,15,10.0,29.890747,,,TRUE,TRUE,,,,,,,CLR,,,,,,,,VFR,,,,,,,,,,,,SPECI,93.0
KHVS 021955Z AUTO 06010KT 10SM FEW047 SCT055 SCT070 29/16 A2986 RMK AO2,KHVS,2023-06-02T19:55:00Z,34.4,-80.12,29.0,16.0,60,10,,10.0,29.861221,,,TRUE,TRUE,,,,,,,FEW,4700,SCT,5500,SCT,7000,,,VFR,,,,,,,,,,,,METAR,110.0
KHON 021955Z AUTO 16013G21KT 10SM FEW085 31/15 A2993 RMK AO2 SLP123 T03060150,KHON,2023-06-02T19:55:00Z,44.38,-98.23,30.6,15.0,160,13,21,10.0,29.929134,1012.3,,TRUE,TRUE,,,,,,,FEW,8500,,,,,,,VFR,,,,,,,,,,,,METAR,391.0
KHMN 021955Z AUTO 28010G16KT 10SM FEW200 30/M07 A2993 RMK AO2 SLP067 T02961066 $,KHMN,2023-06-02T19:55:00Z,32.85,-106.1,29.6,-6.6,280,10,16,10.0,29.929134,1006.7,,TRUE,TRUE,TRUE,,,,,,FEW,20000,,,,,,,VFR,,,,,,,,,,,,METAR,1240.0
KHLX 021955Z AUTO 05006G10KT 10SM CLR 26/08 A2999 RMK AO2 LTG DSNT SE T02590082,KHLX,2023-06-02T19:55:00Z,36.77,-80.82,25.9,8.2,50,6,10,10.0,29.991142,,,TRUE,TRUE,,,,,,,CLR,,,,,,,,VFR,,,,,,,,,,,,METAR,819.0
KHFY 021955Z AUTO 04005KT 10SM CLR 32/12 A2999 RMK AO2 T03170118,KHFY,2023-06-02T19:55:00Z,39.63,-86.08,31.7,11.8,40,5,,10.0,29.991142,,,TRUE,TRUE,,,,,,,CLR,,,,,,,,VFR,,,,,,,,,,,,METAR,250.0
KHEG 021955Z AUTO 04010G18KT 10SM CLR 28/18 A2981 RMK AO2,KHEG,2023-06-02T19:55:00Z,30.28,-81.8,28.0,18.0,40,10,18,10.0,29.811024,,,TRUE,TRUE,,,,,,,CLR,,,,,,,,VFR,,,,,,,,,,,,METAR,25.0
KHCO 021955Z AUTO 10008KT 10SM CLR 31/20 A2997 RMK AO2,KHCO,2023-06-02T19:55:00Z,48.75,-96.93,31.0,20.0,100,8,,10.0,29.970472,,,TRUE,TRUE,,,,,,,CLR,,,,,,,,VFR,,,,,,,,,,,,METAR,250.0
KHAI 021955Z AUTO 06012G15KT 10SM SCT095 33/05 A3004 RMK AO2 T03300045,KHAI,2023-06-02T19:55:00Z,41.97,-85.6,33.0,4.5,60,12,15,10.0,30.041338,,,TRUE,TRUE,,,,,,,SCT,9500,,,,,,,VFR,,,,,,,,,,,,METAR,250.0
KHAF 021955Z AUTO 25006KT 4SM HZ BKN015 14/10 A3004 RMK AO2,KHAF,2023-06-02T19:55:00Z,37.52,-122.5,14.0,10.0,250,6,,4.0,30.041338,,,TRUE,TRUE,,,,,,HZ,BKN,1500,,,,,,,MVFR,,,,,,,,,,,,METAR,11.0
KHAE 021955Z AUTO 04003KT 10SM CLR 31/19 A2999 RMK AO2,KHAE,2023-06-02T19:55:00Z,39.73,-91.45,31.0,19.0,40,3,,10.0,29.991142,,,TRUE,TRUE,,,,,,,CLR,,,,,,,,VFR,,,,,,,,,,,,METAR,230.0
KGYL 021955Z AUTO 10012G17KT 10SM SCT050 30/18 A3001 RMK AO2 LTG DSNT E AND W T03030181,KGYL,2023-06-02T19:55:00Z,44.77,-94.08,30.3,18.1,100,12,17,10.0,30.008858,,,TRUE,TRUE,,,,,,,SCT,5000,,,,,,,VFR,,,,,,,,,,,,METAR,304.0
KGXF 021955Z AUTO 32009KT 10SM FEW300 FEW330 32/02 A2986 RMK AO2 SLP100 T03160018 FZRANO $,KGXF,2023-06-02T19:55:00Z,32.88,-112.72,31.6,1.8,320,9,,10.0,29.861221,1010.0,,TRUE,TRUE,TRUE,,,TRUE,,,FEW,30000,FEW,33000,,,,,VFR,,,,,,,,,,,,METAR,261.0
KGXA 021955Z AUTO 28007KT 10SM FEW220 27/03 A2993 RMK AO2 SLP107 WND DATA ESTMD T02730032,KGXA,2023-06-02T19:55:00Z,34.57,-117.67,27.3,3.2,280,7,,10.0,29.929134,1010.7,,TRUE,TRUE,,,,,,,FEW,22000,,,,,,,VFR,,,,,,,,,,,,METAR,927.0
KGWR 021955Z AUTO 16014G23KT 10SM CLR 32/14 A2994 RMK A01,KGWR,2023-06-02T19:55:00Z,46.22,-97.65,32.0,14.0,160,14,23,10.0,29.940945,,,TRUE,TRUE,,,,,,,CLR,,,,,,,,VFR,,,,,,,,,,,,METAR,381.0
KGVE 021955Z AUTO 05006KT 10SM CLR 31/11 A2990 RMK AO1 T03080108,KGVE,2023-06-02T19:55:00Z,38.15,-78.17,30.8,10.8,50,6,,10.0,29.899607,,,TRUE,TRUE,,,,,,,CLR,,,,,,,,VFR,,,,,,,,,,,,METAR,138.0
KGUR 021955Z AUTO 21008KT 10SM SCT042 SCT090 21/13 A2989 RMK AO2 LTG DSNT S AND W-NW SLP108 T02110125,KGUR,2023-06-02T19:55:00Z,42.25,-104.72,21.1,12.5,210,8,,10.0,29.890747,1010.8,,TRUE,TRUE,,,,,,,SCT,4200,SCT,9000,,,,,VFR,,,,,,,,,,,,METAR,1341.0
KGRY 021955Z AUTO 04015KT 10SM FEW027 FEW033 25/20 A2986 RMK A01,KGRY,2023-06-02T19:55:00Z,27.63,-90.45,25.0,20.0,40,15,,10.0,29.861221,,,TRUE,TRUE,,,,,,,FEW,2700,FEW,3300,,,,,VFR,,,,,,,,,,,,METAR,58.0
KGRF 021955Z 27007KT 10SM FEW035 FEW170 FEW200 20/07 A3008 RMK AO2A SLP189 T01950069 $,KGRF,2023-06-02T19:55:00Z,47.07,-122.57,19.5,6.9,270,7,,10.0,30.079725,1018.9,,,TRUE,TRUE,,,,,,FEW,3500,FEW,17000,FEW,20000,,,VFR,,,,,,,,,,,,METAR,91.0
KGPI 021955Z VRB05KT 10SM CLR 22/09 A3002 RMK AO2 SLP152 T02220094,KGPI,2023-06-02T19:55:00Z,48.32,-114.25,22.2,9.4,0,5,,10.0,30.02067,1015.2,,,TRUE,,,,,,,CLR,,,,,,,,VFR,,,,,,,,,,,,METAR,903.0
KGPH 021955Z AUTO 10006KT 10SM -RA CLR 27/17 A2996 RMK AO2 LTG DSNT E,KGPH,2023-06-02T19:55:00Z,39.33,-94.32,27.0,17.0,100,6,,10.0,29.958662,,,TRUE,TRUE,,,,,,-RA,CLR,,,,,,,,VFR,,,,,,,,,,,,METAR,233.0
KGNT 021955Z AUTO 14017KT 10SM SCT100 14/06 A3015 RMK AO2 LTG DSNT SW T01440058,KGNT,2023-06-02T19:55:00Z,35.17,-107.9,14.4,5.8,140,17,,10.0,30.15059,,,TRUE,TRUE,,,,,,,SCT,10000,,,,,,,VFR,,,,,,,,,,,,METAR,1988.0
KGLY 021955Z AUTO VRB05G10KT 10SM CLR 32/16 A2995 RMK AO2,KGLY,2023-06-02T19:55:00Z,38.35,-93.68,32.0,16.0,0,5,10,10.0,29.949802,,,TRUE,TRUE,,,,,,,CLR,,,,,,,,VFR,,,,,,,,,,,,METAR,247.0
KGHW 021955Z AUTO 19008G15KT 10SM CLR 30/17 A3002 RMK AO2,KGHW,2023-06-02T19:55:00Z,45.63,-95.32,30.0,17.0,190,8,15,10.0,30.02067,,,TRUE,TRUE,,,,,,,CLR,,,,,,,,VFR,,,,,,,,,,,,METAR,423.0
KGHG 021955Z AUTO 14008KT 10SM CLR 29/15 A2982 RMK AO2 LTG DSNT NW,KGHG,2023-06-02T19:55:00Z,42.1,-70.67,29.0,15.0,140,8,,10.0,29.819881,,,TRUE,TRUE,,,,,,,CLR,,,,,,,,VFR,,,,,,,,,,,,METAR,3.0
KGGE 021955Z AUTO 07008KT 10SM SCT019 BKN031 OVC060 24/19 A2984 RMK AO2,KGGE,2023-06-02T19:55:00Z,33.32,-79.32,24.0,19.0,70,8,,10.0,29.840551,,,TRUE,TRUE,,,,,,,SCT,1900,BKN,3100,OVC,6000,,,VFR,,,,,,,,,,,,METAR,9.0
KGFA 021955Z AUTO 35006KT 5SM RA BR BKN009 OVC015 13/12 A3008 RMK AO2 CIG 007V010 SLP191 P0017 T01270121 $,KGFA,2023-06-02T19:55:00Z,47.5,-111.18,12.7,12.1,350,6,,5.0,30.079725,1019.1,,TRUE,TRUE,TRUE,,,,,RA BR,BKN,900,OVC,1500,,,,,IFR,,,,,,0.17,,,,,,METAR,1058.0
KGDB 021955Z AUTO 20009G19KT 7SM VCTSRA SCT026 BKN042 OVC090 24/17 A3001 RMK AO2 LTG DSNT E THRU W T02420172 P0006,KGDB,2023-06-02T19:55:00Z,44.75,-95.55,24.2,17.2,200,9,19,7.0,30.008858,,,TRUE,TRUE,,,,,,VCTSRA,SCT,2600,BKN,4200,OVC,9000,,,VFR,,,,,,0.06,,,,,,METAR,316.0
KGDA 021955Z AUTO 06005KT 10SM SCT070 32/14 A2994 RMK AO2 T03210142 PWINO,KGDA,2023-06-02T19:55:00Z,37.33,-88.1,32.1,14.2,60,5,,10.0,29.940945,,,TRUE,TRUE,,,,,TRUE,,SCT,7000,,,,,,,VFR,,,,,,,,,,,,METAR,199.0
KGAF 021955Z AUTO 11008G17KT 9SM FEW047 FEW050 FEW065 30/18 A2996 RMK AO2,KGAF,2023-06-02T19:55:00Z,48.4,-97.37,30.0,18.0,110,8,17,9.0,29.958662,,,TRUE,TRUE,,,,,,,FEW,4700,FEW,5000,FEW,6500,,,VFR,,,,,,,,,,,,METAR,250.0
KFYJ 021955Z AUTO 00000KT 10SM CLR 29/04 A2989 RMK AO1 T02860041,KFYJ,2023-06-02T19:55:00Z,37.52,-76.77,28.6,4.1,0,0,,10.0,29.890747,,,TRUE,TRUE,,,,,,,CLR,,,,,,,,VFR,,,,,,,,,,,,METAR,3.0
KFYG 021955Z AUTO 04004KT 10SM CLR 32/16 A2994 RMK AO2 LTG DSNT S AND SW,KFYG,2023-06-02T19:55:00Z,38.58,-91.0,32.0,16.0,40,4,,10.0,29.940945,,,TRUE,TRUE,,,,,,,CLR,,,,,,,,VFR,,,,,,,,,,,,METAR,147.0
KFXE 021955Z 00000KT 1 3/4SM VCTS +RA BR SCT045 BKN050 OVC070 22/22 A2973 RMK AO2 LTG DSNT N AND S AND NW T02170217 PNO $,KFXE,2023-06-02T19:55:00Z,26.2,-80.18,21.7,21.7,0,0,,1.75,29.731298,,,,TRUE,TRUE,,,,,VCTS +RA BR,SCT,4500,BKN,5000,OVC,7000,,,IFR,,,,,,,,,,,,SPECI,3.0
KFWB 021955Z AUTO VRB04G10KT 10SM FEW055 SCT070 31/17 A2997 RMK AO2,KFWB,2023-06-02T19:55:00Z,36.7,-93.4,31.0,17.0,0,4,10,10.0,29.970472,,,TRUE,TRUE,,,,,,,FEW,5500,SCT,7000,,,,,VFR,,,,,,,,,,,,METAR,392.0
KFVX 021955Z AUTO 05010KT 10SM CLR 30/13 A2989 RMK AO2 T02990133,KFVX,2023-06-02T19:55:00Z,37.35,-78.43,29.9,13.3,50,10,,10.0,29.890747,,,TRUE,TRUE,,,,,,,CLR,,,,,,,,VFR,,,,,,,,,,,,METAR,129.0
KFSE 021955Z AUTO 13008KT 090V150 10SM SCT044 29/17 A3000 RMK AO2,KFSE,2023-06-02T19:55:00Z,47.58,-95.77,29.0,17.0,130,8,,10.0,30.0,,,TRUE,TRUE,,,,,,,SCT,4400,,,,,,,VFR,,,,,,,,,,,,METAR,389.0
KFRR 021955Z AUTO 08003KT CLR 31/11 A2992 RMK AO1,KFRR,2023-06-02T19:55:00Z,38.92,-78.25,31.0,11.0,80,3,,,29.920275,,,TRUE,TRUE,,,,,,,CLR,,,,,,,,,,,,,,,,,,,,METAR,213.0
KFRH 021955Z AUTO 07008KT 021V091 10SM CLR 30/05 A2997 RMK AO1,KFRH,2023-06-02T19:55:00Z,38.5,-86.63,30.0,5.0,70,8,,10.0,29.970472,,,TRUE,TRUE,,,,,,,CLR,,,,,,,,VFR,,,,,,,,,,,,METAR,241.0
KFPK 021955Z AUTO 09007KT 10SM SCT090 32/07 A3004 RMK AO2 T03150072,KFPK,2023-06-02T19:55:00Z,42.57,-84.82,31.5,7.2,90,7,,10.0,30.041338,,,TRUE,TRUE,,,,,,,SCT,9000,,,,,,,VFR,,,,,,,,,,,,METAR,269.0
KFKS 021955Z AUTO 35006KT 10SM CLR 27/14 A3007 RMK AO2 T02720137,KFKS,2023-06-02T19:55:00Z,44.63,-86.2,27.2,13.7,350,6,,10.0,30.070866,,,TRUE,TRUE,,,,,,,CLR,,,,,,,,VFR,,,,,,,,,,,,METAR,189.0
KFKN 021955Z AUTO 04005KT 10SM SCT038 SCT046 28/17 A2988 RMK AO2 LTG DSNT S T02750171,KFKN,2023-06-02T19:55:00Z,36.7,-76.9,27.5,17.1,40,5,,10.0,29.878937,,,TRUE,TRUE,,,,,,,SCT,3800,SCT,4600,,,,,VFR,,,,,,,,,,,,METAR,9.0
KFKA 021955Z AUTO 13005KT 10SM CLR 30/16 A3004 RMK AO2 LTG DSNT SE AND W AND NW,KFKA,2023-06-02T19:55:00Z,43.68,-92.17,30.0,16.0,130,5,,10.0,30.041338,,,TRUE,TRUE,,,,,,,CLR,,,,,,,,VFR,,,,,,,,,,,,METAR,388.0
KFHU 021955Z AUTO 00000KT 10SM FEW310 25/M04 A3003 RMK AO2 SLP112 T02511043,KFHU,2023-06-02T19:55:00Z,31.58,-110.35,25.1,-4.3,0,0,,10.0,30.029528,1011.2,,TRUE,TRUE,,,,,,,FEW,31000,,,,,,,VFR,,,,,,,,,,,,METAR,1424.0
KFGN 021955Z AUTO 00000KT 1/2SM HZ BKN042 27/18 A3004 RMK AO2,KFGN,2023-06-02T19:55:00Z,49.32,-94.9,27.0,18.0,0,0,,0.5,30.041338,,,TRUE,TRUE,,,,,,HZ,BKN,4200,,,,,,,LIFR,,,,,,,,,,,,METAR,327.0
KFFX 021955Z AUTO 26005KT 10SM CLR 32/12 A3005 RMK AO2 T03210120,KFFX,2023-06-02T19:55:00Z,43.43,-86.0,32.1,12.0,260,5,,10.0,30.050198,,,TRUE,TRUE,,,,,,,CLR,,,,,,,,VFR,,,,,,,,,,,,METAR,234.0
KFFM 021955Z AUTO 17013KT 10SM CLR 30/17 A2997 RMK AO2,KFFM,2023-06-02T19:55:00Z,46.28,-96.15,30.0,17.0,170,13,,10.0,29.970472,,,TRUE,TRUE,,,,,,,CLR,,,,,,,,VFR,,,,,,,,,,,,METAR,362.0
KFDW 021955Z AUTO 03004KT 10SM SCT050 BKN060 BKN075 27/15 A2987 RMK AO1 LTG DSNT SE,KFDW,2023-06-02T19:55:00Z,34.32,-81.12,27.0,15.0,30,4,,10.0,29.870079,,,TRUE,TRUE,,,,,,,SCT,5000,BKN,6000,BKN,7500,,,VFR,,,,,,,,,,,,METAR,174.0
KFBL 021955Z AUTO 02003KT 10SM -RA CLR 24/19 A3003 RMK AO2 LTG DSNT NE THRU SE P0012,KFBL,2023-06-02T19:55:00Z,44.33,-93.32,24.0,19.0,20,3,,10.0,30.029528,,,TRUE,TRUE,,,,,,-RA,CLR,,,,,,,,VFR,,,,,,0.12,,,,,,METAR,318.0
KEZP 021955Z AUTO 08006KT 10SM CLR 27/22 A2990 RMK A01,KEZP,2023-06-02T19:55:00Z,28.22,-92.8,27.0,22.0,80,6,,10.0,29.899607,,,TRUE,TRUE,,,,,,,CLR,,,,,,,,VFR,,,,,,,,,,,,METAR,30.0
KEZF 021955Z AUTO 04005KT 10SM CLR 31/12 A2986 RMK AO2 T03120121,KEZF,2023-06-02T19:55:00Z,38.27,-77.45,31.2,12.1,40,5,,10.0,29.861221,,,TRUE,TRUE,,,,,,,CLR,,,,,,,,VFR,,,,,,,,,,,,METAR,26.0
KEYW 021955Z 19005KT 10SM FEW065 29/22 A2972,KEYW,2023-06-02T19:55:00Z,24.55,-81.75,29.0,22.0,190,5,,10.0,29.719488,,,,,,,,,,,FEW,6500,,,,,,,VFR,,,,,,,,,,,,METAR,1.0
KEVU 021955Z AUTO 10010KT 7SM SCT050 SCT070 30/20 A2995 RMK AO2 T03070199,KEVU,2023-06-02T19:55:00Z,40.35,-94.92,30.7,19.9,100,10,,7.0,29.949802,,,TRUE,TRUE,,,,,,,SCT,5000,SCT,7000,,,,,VFR,,,,,,,,,,,,METAR,351.0
KEVM 021955Z AUTO 15009KT 10SM CLR 28/18 A3010 RMK AO2 T02820181,KEVM,2023-06-02T19:55:00Z,47.42,-92.5,28.2,18.1,150,9,,10.0,30.100393,,,TRUE,TRUE,,,,,,,CLR,,,,,,,,VFR,,,,,,,,,,,,METAR,419.0
KETH 021955Z AUTO 17008G15KT 10SM CLR 31/16 A2996 RMK AO2 LTG DSNT SW,KETH,2023-06-02T19:55:00Z,45.78,-96.55,31.0,16.0,170,8,15,10.0,29.958662,,,TRUE,TRUE,,,,,,,CLR,,,,,,,,VFR,,,,,,,,,,,,METAR,309.0
KETB 021955Z AUTO 10006KT 10SM CLR 29/13 A3007 RMK AO2,KETB,2023-06-02T19:55:00Z,43.42,-88.13,29.0,13.0,100,6,,10.0,30.070866,,,TRUE,TRUE,,,,,,,CLR,,,,,,,,VFR,,,,,,,,,,,,METAR,269.0
KERY 021955Z AUTO 36005KT 10SM CLR 32/10 A3010 RMK AO2 T03160095,KERY,2023-06-02T19:55:00Z,46.3,-85.45,31.6,9.5,360,5,,10.0,30.100393,,,TRUE,TRUE,,,,,,,CLR,,,,,,,,VFR,,,,,,,,,,,,METAR,261.0
KEQA 021955Z AUTO 17012G20KT 10SM SCT050 BKN110 31/16 A2993 RMK AO2,KEQA,2023-06-02T19:55:00Z,37.78,-96.82,31.0,16.0,170,12,20,10.0,29.929134,,,TRUE,TRUE,,,,,,,SCT,5000,BKN,11000,,,,,VFR,,,,,,,,,,,,METAR,422.0
KEOE 021955Z AUTO 07007KT 040V100 10SM VCTS SCT060 SCT070 28/13 A2990 RMK AO2,KEOE,2023-06-02T19:55:00Z,34.32,-81.63,28.0,13.0,70,7,,10.0,29.899607,,,TRUE,TRUE,,,,,,VCTS,SCT,6000,SCT,7000,,,,,VFR,,,,,,,,,,,,METAR,166.0
KEMV 021955Z AUTO 34009KT 10SM BKN043 BKN060 28/18 A2989 RMK AO2 LTG DSNT SE T02770178,KEMV,2023-06-02T19:55:00Z,36.68,-77.48,27.7,17.8,340,9,,10.0,29.890747,,,TRUE,TRUE,,,,,,,BKN,4300,BKN,6000,,,,,VFR,,,,,,,,,,,,METAR,35.0
KELO 021955Z AUTO 00000KT 10SM -RA CLR 23/17 A3013 RMK AO2 LTG DSNT N AND NW,KELO,2023-06-02T19:55:00Z,47.82,-91.83,23.0,17.0,0,0,,10.0,30.129921,,,TRUE,TRUE,,,,,,-RA,CLR,,,,,,,,VFR,,,,,,,,,,,,METAR,438.0
KELK 021955Z AUTO 15011G15KT 9SM FEW330 26/23 A2989 RMK AO2 SLP407 T02630228 $,KELK,2023-06-02T19:55:00Z,35.43,-99.4,26.3,22.8,150,11,15,9.0,29.890747,1040.7,,TRUE,TRUE,TRUE,,,,,,FEW,33000,,,,,,,VFR,,,,,,,,,,,,METAR,603.0
KEKX 021955Z AUTO 07008KT 10SM CLR 30/13 A2996 RMK AO2 T03000131,KEKX,2023-06-02T19:55:00Z,37.68,-85.92,30.0,13.1,70,8,,10.0,29.958662,,,TRUE,TRUE,,,,,,,CLR,,,,,,,,VFR,,,,,,,,,,,,METAR,234.0
KEKM 021955Z AUTO 06004G16KT 10SM CLR 32/08 A3003 RMK AO2 T03250079 $,KEKM,2023-06-02T19:55:00Z,41.72,-86.0,32.5,7.9,60,4,16,10.0,30.029528,,,TRUE,TRUE,TRUE,,,,,,CLR,,,,,,,,VFR,,,,,,,,,,,,METAR,236.0
KEKE 021955Z AUTO 03004KT 10SM CLR 29/20 A2982 RMK A01,KEKE,2023-06-02T19:55:00Z,28.5,-91.58,29.0,20.0,30,4,,10.0,29.819881,,,TRUE,TRUE,,,,,,,CLR,,,,,,,,VFR,,,,,,,,,,,,METAR,31.0
KEGV 021955Z AUTO 00000KT 10SM CLR 23/19 A3014 RMK AO2 T02280188,KEGV,2023-06-02T19:55:00Z,45.93,-89.27,22.8,18.8,0,0,,10.0,30.138779,,,TRUE,TRUE,,,,,,,CLR,,,,,,,,VFR,,,,,,,,,,,,METAR,499.0
KEFT 021955Z AUTO 21015G21KT 10SM VCTS BKN065 BKN085 BKN110 29/15 A3004 RMK AO2 LTG DSNT S THRU NW T02930149,KEFT,2023-06-02T19:55:00Z,42.62,-89.6,29.3,14.9,210,15,21,10.0,30.041338,,,TRUE,TRUE,,,,,,VCTS,BKN,6500,BKN,8500,BKN,11000,,,VFR,,,,,,,,,,,,METAR,332.0
KEFK 021955Z AUTO 32008KT 10SM CLR 30/15 A2992 RMK AO2 T02990150,KEFK,2023-06-02T19:55:00Z,44.88,-72.23,29.9,15.0,320,8,,10.0,29.920275,,,TRUE,TRUE,,,,,,,CLR,,,,,,,,VFR,,,,,,,,,,,,METAR,282.0
KEDW 021955Z 07003KT 50SM FEW050 28/05 A2990 RMK AO2A SLP107 T02760052,KEDW,2023-06-02T19:55:00Z,34.9,-117.87,27.6,5.2,70,3,,50.0,29.899607,1010.7,,,TRUE,,,,,,,FEW,5000,,,,,,,VFR,,,,,,,,,,,,METAR,698.0
KEDJ 021955Z AUTO 05010KT 10SM CLR 32/08 A3000 RMK A01,KEDJ,2023-06-02T19:55:00Z,40.37,-83.82,32.0,8.0,50,10,,10.0,30.0,,,TRUE,TRUE,,,,,,,CLR,,,,,,,,VFR,,,,,,,,,,,,METAR,341.0
KEAT 021955Z AUTO 09009KT 10SM CLR 24/03 A2998 RMK AO2 SLP147 T02440033,KEAT,2023-06-02T19:55:00Z,47.4,-120.2,24.4,3.3,90,9,,10.0,29.97933,1014.7,,TRUE,TRUE,,,,,,,CLR,,,,,,,,VFR,,,,,,,,,,,,METAR,375.0
KDYT 021955Z AUTO 05005G11KT 2 1/2SM BR OVC003 10/09 A3013 RMK AO2 VIS 1 3/4V4,KDYT,2023-06-02T19:55:00Z,46.72,-92.03,10.0,9.0,50,5,11,2.5,30.129921,,,TRUE,TRUE,,,,,,BR,OVC,300,,,,,,,LIFR,,,,,,,,,,,,METAR,185.0
KDYB 021955Z AUTO 05009G17KT 7SM FEW034 FEW043 FEW049 27/19 A2983 RMK AO2,KDYB,2023-06-02T19:55:00Z,33.07,-80.28,27.0,19.0,50,9,17,7.0,29.828741,,,TRUE,TRUE,,,,,,,FEW,3400,FEW,4300,FEW,4900,,,VFR,,,,,,,,,,,,METAR,15.0
KDYA 021955Z AUTO 36006KT 10SM BKN055 BKN080 BKN120 30/18 A2986 RMK AO2 T03040178,KDYA,2023-06-02T19:55:00Z,32.47,-87.95,30.4,17.8,360,6,,10.0,29.861221,,,TRUE,TRUE,,,,,,,BKN,5500,BKN,8000,BKN,12000,,,VFR,,,,,,,,,,,,METAR,33.0
KDXX 021955Z AUTO 15013G19KT 10SM CLR 33/16 A2997 RMK AO2,KDXX,2023-06-02T19:55:00Z,44.98,-96.18,33.0,16.0,150,13,19,10.0,29.970472,,,TRUE,TRUE,,,,,,,CLR,,,,,,,,VFR,,,,,,,,,,,,METAR,327.0
KDUH 021955Z AUTO 07007KT 10SM CLR 31/11 A3003 RMK AO2 T03120107,KDUH,2023-06-02T19:55:00Z,41.73,-83.65,31.2,10.7,70,7,,10.0,30.029528,,,TRUE,TRUE,,,,,,,CLR,,,,,,,,VFR,,,,,,,,,,,,METAR,203.0
KDTL 021955Z AUTO 14013KT 10SM BKN044 BKN060 29/18 A2999 RMK AO2 LTG DSNT W AND NW,KDTL,2023-06-02T19:55:00Z,46.82,-95.88,29.0,18.0,140,13,,10.0,29.991142,,,TRUE,TRUE,,,,,,,BKN,4400,BKN,6000,,,,,VFR,,,,,,,,,,,,METAR,425.0
KDRM 021955Z AUTO 22005KT 10SM CLR 30/13 A3009 RMK AO2 T02950132,KDRM,2023-06-02T19:55:00Z,46.0,-83.75,29.5,13.2,220,5,,10.0,30.088583,,,TRUE,TRUE,,,,,,,CLR,,,,,,,,VFR,,,,,,,,,,,,METAR,201.0
KDRI 021955Z AUTO 00000KT 10SM FEW050 BKN110 31/20 A2989 RMK AO2 T03110201 $,KDRI,2023-06-02T19:55:00Z,30.83,-93.33,31.1,20.1,0,0,,10.0,29.890747,,,TRUE,TRUE,TRUE,,,,,,FEW,5000,BKN,11000,,,,,VFR,,,,,,,,,,,,METAR,59.0
KDNN 021955Z AUTO 35007KT 320V020 10SM CLR 30/16 A2988 RMK AO2 T02990163,KDNN,2023-06-02T19:55:00Z,34.72,-84.87,29.9,16.3,350,7,,10.0,29.878937,,,TRUE,TRUE,,,,,,,CLR,,,,,,,,VFR,,,,,,,,,,,,METAR,216.0
KDNA 021955Z AUTO 27011G19KT 10SM CLR 29/M08 A2995 RMK AO2,KDNA,2023-06-02T19:55:00Z,31.88,-106.7,29.0,-8.0,270,11,19,10.0,29.949802,,,TRUE,TRUE,,,,,,,CLR,,,,,,,,VFR,,,,,,,,,,,,METAR,1254.0
KDLZ 021955Z AUTO 04007G16KT 10SM SCT090 32/08 A2998 RMK AO2,KDLZ,2023-06-02T19:55:00Z,40.28,-83.12,32.0,8.0,40,7,16,10.0,29.97933,,,TRUE,TRUE,,,,,,,SCT,9000,,,,,,,VFR,,,,,,,,,,,,METAR,287.0
KDLP 021955Z AUTO 08015KT 10SM CLR 28/17 A2976 RMK A01,KDLP,2023-06-02T19:55:00Z,29.12,-89.55,28.0,17.0,80,15,,10.0,29.760826,,,TRUE,TRUE,,,,,,,CLR,,,,,,,,VFR,,,,,,,,,,,,METAR,31.0
KDLO 021955Z AUTO 32005KT 10SM CLR 25/06 A2993 RMK AO2 T02490056,KDLO,2023-06-02T19:55:00Z,35.75,-119.23,24.9,5.6,320,5,,10.0,29.929134,,,TRUE,TRUE,,,,,,,CLR,,,,,,,,VFR,,,,,,,,,,,,METAR,97.0
KDLL 021955Z AUTO 18003KT 10SM SCT065 SCT075 33/14 A3004 RMK AO2 T03260141,KDLL,2023-06-02T19:55:00Z,43.52,-89.77,32.6,14.1,180,3,,10.0,30.041338,,,TRUE,TRUE,,,,,,,SCT,6500,SCT,7500,,,,,VFR,,,,,,,,,,,,METAR,297.0
KDLH 021955Z 11011KT 10SM CLR 23/16 A3011 RMK AO2 SLP196 T02330156,KDLH,2023-06-02T19:55:00Z,46.85,-92.2,23.3,15.6,110,11,,10.0,30.109253,1019.6,,,TRUE,,,,,,,CLR,,,,,,,,VFR,,,,,,,,,,,,METAR,434.0
KDCM 021955Z AUTO 03007KT 360V060 10SM VCTS BKN060 28/13 A2989 RMK AO2,KDCM,2023-06-02T19:55:00Z,34.78,-81.2,28.0,13.0,30,7,,10.0,29.890747,,,TRUE,TRUE,,,,,,VCTS,BKN,6000,,,,,,,VFR,,,,,,,,,,,,METAR,191.0
KD95 021955Z AUTO 09007KT 060V120 10SM CLR 31/06 A3006 RMK AO2 T03140062,KD95,2023-06-02T19:55:00Z,43.07,-83.27,31.4,6.2,90,7,,10.0,30.059055,,,TRUE,TRUE,,,,,,,CLR,,,,,,,,VFR,,,,,,,,,,,,METAR,253.0
KD60 021955Z AUTO 17012KT 10SM CLR 27/15 A2993 RMK AO2,KD60,2023-06-02T19:55:00Z,48.38,-102.9,27.0,15.0,170,12,,10.0,29.929134,,,TRUE,TRUE,,,,,,,CLR,,,,,,,,VFR,,,,,,,,,,,,METAR,682.0
KD57 021955Z AUTO 14014G24KT 10SM FEW055 FEW065 FEW120 28/15 A2988 RMK AO2 LTG DSNT N AND SE AND S,KD57,2023-06-02T19:55:00Z,46.82,-101.87,28.0,15.0,140,14,24,10.0,29.878937,,,TRUE,TRUE,,,,,,,FEW,5500,FEW,6500,FEW,12000,,,VFR,,,,,,,,,,,,METAR,636.0
KD55 021955Z AUTO 13012G19KT 10SM FEW060 SCT080 30/17 A2998 RMK AO2,KD55,2023-06-02T19:55:00Z,48.75,-98.4,30.0,17.0,130,12,19,10.0,29.97933,,,TRUE,TRUE,,,,,,,FEW,6000,SCT,8000,,,,,VFR,,,,,,,,,,,,METAR,488.0
KD50 021955Z AUTO 12009G15KT 10SM CLR 28/15 A2992 RMK AO2 LTG DSNT N AND SE,KD50,2023-06-02T19:55:00Z,48.93,-103.3,28.0,15.0,120,9,15,10.0,29.920275,,,TRUE,TRUE,,,,,,,CLR,,,,,,,,VFR,,,,,,,,,,,,METAR,591.0
KD39 021955Z AUTO 13011G14KT 10SM SCT050 BKN075 BKN090 30/18 A3001 RMK AO2 T03010181,KD39,2023-06-02T19:55:00Z,45.7,-94.93,30.1,18.1,130,11,14,10.0,30.008858,,,TRUE,TRUE,,,,,,,SCT,5000,BKN,7500,BKN,9000,,,VFR,,,,,,,,,,,,METAR,378.0
KD25 021955Z AUTO 18008KT 10SM CLR 27/15 A3013 RMK AO2 LTG DSNT W T02680154,KD25,2023-06-02T19:55:00Z,46.12,-89.88,26.8,15.4,180,8,,10.0,30.129921,,,TRUE,TRUE,,,,,,,CLR,,,,,,,,VFR,,,,,,,,,,,,METAR,490.0
KCXE 021955Z AUTO 36008KT 310V030 10SM CLR 28/13 A2990 RMK AO1 T02840125,KCXE,2023-06-02T19:55:00Z,36.78,-78.5,28.4,12.5,360,8,,10.0,29.899607,,,TRUE,TRUE,,,,,,,CLR,,,,,,,,VFR,,,,,,,,,,,,METAR,154.0
KCWN 021955Z AUTO 15015G20KT 10SM BKN090 20/M01 A3001 RMK AO2 LTG DSNT N AND SW SLP995 T02011006 $,KCWN,2023-06-02T19:55:00Z,38.75,-104.85,20.1,-0.6,150,15,20,10.0,30.008858,999.5,,TRUE,TRUE,TRUE,,,,,,BKN,9000,,,,,,,VFR,,,,,,,,,,,,METAR,2040.0
KCVX 021955Z AUTO 36009KT 10SM CLR 29/10 A3007 RMK AO2 T02880099,KCVX,2023-06-02T19:55:00Z,45.3,-85.27,28.8,9.9,360,9,,10.0,30.070866,,,TRUE,TRUE,,,,,,,CLR,,,,,,,,VFR,,,,,,,,,,,,METAR,196.0
KCVS 021955Z AUTO 08013KT 10SM FEW160 FEW190 20/14 A2992 RMK AO2 SLP084 T02030142 $,KCVS,2023-06-02T19:55:00Z,34.37,-103.32,20.3,14.2,80,13,,10.0,29.920275,1008.4,,TRUE,TRUE,TRUE,,,,,,FEW,16000,FEW,19000,,,,,VFR,,,,,,,,,,,,METAR,1305.0
KCVH 021955Z AUTO 00000G10KT 10SM CLR 20/09 A3001 RMK A01,KCVH,2023-06-02T19:55:00Z,36.9,-121.42,20.0,9.0,0,0,10,10.0,30.008858,,,TRUE,TRUE,,,,,,,CLR,,,,,,,,VFR,,,,,,,,,,,,METAR,68.0
KCQW 021955Z AUTO 07012G17KT 10SM FEW060 FEW070 29/15 A2985 RMK AO2,KCQW,2023-06-02T19:55:00Z,34.72,-79.95,29.0,15.0,70,12,17,10.0,29.84941,,,TRUE,TRUE,,,,,,,FEW,6000,FEW,7000,,,,,VFR,,,,,,,,,,,,METAR,67.0
KCQM 021955Z AUTO 18006KT 10SM CLR 28/17 A3008 RMK AO2,KCQM,2023-06-02T19:55:00Z,47.82,-92.68,28.0,17.0,180,6,,10.0,30.079725,,,TRUE,TRUE,,,,,,,CLR,,,,,,,,VFR,,,,,,,,,,,,METAR,406.0
KCPT 021955Z AUTO 17011G16KT 10SM FEW049 FEW065 32/18 A2989 RMK A01,KCPT,2023-06-02T19:55:00Z,32.35,-97.43,32.0,18.0,170,11,16,10.0,29.890747,,,TRUE,TRUE,,,,,,,FEW,4900,FEW,6500,,,,,VFR,,,,,,,,,,,,METAR,260.0
KCPK 021955Z AUTO 05006KT 10SM BKN027 26/18 A2987 RMK AO2 LTG DSNT S T02560177,KCPK,2023-06-02T19:55:00Z,36.67,-76.32,25.6,17.7,50,6,,10.0,29.870079,,,TRUE,TRUE,,,,,,,BKN,2700,,,,,,,MVFR,,,,,,,,,,,,METAR,4.0
KCPF 021955Z AUTO 04003KT 10SM CLR 30/09 A2996 RMK AO2,KCPF,2023-06-02T19:55:00Z,37.38,-83.27,30.0,9.0,40,3,,10.0,29.958662,,,TRUE,TRUE,,,,,,,CLR,,,,,,,,VFR,,,,,,,,,,,,METAR,382.0
KCOQ 021955Z AUTO 10010G14KT 10SM CLR 24/14 A3009 RMK AO2 TSNO,KCOQ,2023-06-02T19:55:00Z,46.7,-92.5,24.0,14.0,100,10,14,10.0,30.088583,,,TRUE,TRUE,,,TRUE,,,,CLR,,,,,,,,VFR,,,,,,,,,,,,METAR,390.0
KCNW 021955Z 16010KT 10SM SCT049 32/18 A2988,KCNW,2023-06-02T19:55:00Z,31.63,-97.07,32.0,18.0,160,10,,10.0,29.878937,,,,,,,,,,,SCT,4900,,,,,,,VFR,,,,,,,,,,,,METAR,139.0
KCNK 021955Z AUTO 14012G19KT 10SM FEW095 26/15 A2994 RMK AO2 PK WND 15027/1856 LTG DSNT ALQDS SLP126 T02610150,KCNK,2023-06-02T19:55:00Z,39.55,-97.65,26.1,15.0,140,12,19,10.0,29.940945,1012.6,,TRUE,TRUE,,,,,,,FEW,9500,,,,,,,VFR,,,,,,,,,,,,METAR,445.0
KCNB 021955Z AUTO 15010G15KT 10SM SCT070 SCT080 31/15 A2997 RMK AO2 LTG DSNT S AND W T03070146,KCNB,2023-06-02T19:55:00Z,44.73,-96.27,30.7,14.6,150,10,15,10.0,29.970472,,,TRUE,TRUE,,,,,,,SCT,7000,SCT,8000,,,,,VFR,,,,,,,,,,,,METAR,363.0
KCMR 021955Z AUTO 30013G20KT 260V330 10SM FEW070 BKN110 20/01 A3012 RMK AO2,KCMR,2023-06-02T19:55:00Z,35.3,-112.2,20.0,1.0,300,13,20,10.0,30.121063,,,TRUE,TRUE,,,,,,,FEW,7000,BKN,11000,,,,,VFR,,,,,,,,,,,,METAR,2039.0
KCMA 021955Z 21007KT 10SM FEW035 22/12 A2998 RMK AO2 SLP158 T02170117,KCMA,2023-06-02T19:55:00Z,34.22,-119.1,21.7,11.7,210,7,,10.0,29.97933,1015.8,,,TRUE,,,,,,,FEW,3500,,,,,,,VFR,,,,,,,,,,,,METAR,20.0
KCLW 021955Z AUTO 35003KT 7SM RA SCT028 BKN080 OVC090 25/21 A2973 RMK AO2 P0002,KCLW,2023-06-02T19:55:00Z,27.98,-82.75,25.0,21.0,350,3,,7.0,29.731298,,,TRUE,TRUE,,,,,,RA,SCT,2800,BKN,8000,OVC,9000,,,VFR,,,,,,0.02,,,,,,METAR,21.0
KCLS 021955Z AUTO VRB03G10KT 10SM CLR 19/09 A3012 RMK AO2,KCLS,2023-06-02T19:55:00Z,46.68,-122.98,19.0,9.0,0,3,10,10.0,30.121063,,,TRUE,TRUE,,,,,,,CLR,,,,,,,,VFR,,,,,,,,,,,,METAR,52.0
KCLK 021955Z AUTO 18008KT 10SM VCTS SCT060 26/20 A2990 RMK AO2 LTG DSNT N AND NW,KCLK,2023-06-02T19:55:00Z,35.53,-98.93,26.0,20.0,180,8,,10.0,29.899607,,,TRUE,TRUE,,,,,,VCTS,SCT,6000,,,,,,,VFR,,,,,,,,,,,,METAR,489.0
KCLI 021955Z AUTO 11007KT 10SM CLR 31/14 A3008 RMK AO2 T03090141,KCLI,2023-06-02T19:55:00Z,44.62,-88.73,30.9,14.1,110,7,,10.0,30.079725,,,TRUE,TRUE,,,,,,,CLR,,,,,,,,VFR,,,,,,,,,,,,METAR,248.0
KCKN 021955Z AUTO 11006KT 10SM CLR 31/17 A2996 RMK AO2 LTG DSNT S,KCKN,2023-06-02T19:55:00Z,47.85,-96.62,31.0,17.0,110,6,,10.0,29.958662,,,TRUE,TRUE,,,,,,,CLR,,,,,,,,VFR,,,,,,,,,,,,METAR,272.0
KCKM 021955Z AUTO 07006KT 10SM 32/18 A2989 RMK A01,KCKM,2023-06-02T19:55:00Z,34.3,-90.52,32.0,18.0,70,6,,10.0,29.890747,,,TRUE,TRUE,,,,,,,,,,,,,,,,,,,,,,,,,,,METAR,52.0
KCKI 021955Z AUTO 07005KT 10SM SCT039 BKN050 BKN065 26/16 A2985 RMK AO2,KCKI,2023-06-02T19:55:00Z,33.72,-79.85,26.0,16.0,70,5,,10.0,29.84941,,,TRUE,TRUE,,,,,,,SCT,3900,BKN,5000,BKN,6500,,,VFR,,,,,,,,,,,,METAR,19.0
KCJR 021955Z AUTO 01003KT 10SM CLR 32/11 A2990 RMK AO2 T03220114,KCJR,2023-06-02T19:55:00Z,38.53,-77.87,32.2,11.4,10,3,,10.0,29.899607,,,TRUE,TRUE,,,,,,,CLR,,,,,,,,VFR,,,,,,,,,,,,METAR,90.0
KCGC 021955Z AUTO 04009KT 10SM SCT048 SCT055 31/19 A2972 RMK AO2 LTG DSNT NE AND S,KCGC,2023-06-02T19:55:00Z,28.87,-82.57,31.0,19.0,40,9,,10.0,29.719488,,,TRUE,TRUE,,,,,,,SCT,4800,SCT,5500,,,,,VFR,,,,,,,,,,,,METAR,3.0
KCFS 021955Z AUTO 35004KT 10SM SCT085 33/07 A3005 RMK AO2 T03300069,KCFS,2023-06-02T19:55:00Z,43.47,-83.45,33.0,6.9,350,4,,10.0,30.050198,,,TRUE,TRUE,,,,,,,SCT,8500,,,,,,,VFR,,,,,,,,,,,,METAR,214.0
KCFJ 021955Z AUTO 07011KT 10SM CLR A2999 RMK AO2,KCFJ,2023-06-02T19:55:00Z,39.98,-86.92,,,70,11,,10.0,29.991142,,,TRUE,TRUE,,,,,,,CLR,,,,,,,,VFR,,,,,,,,,,,,METAR,243.0
KCFE 021955Z AUTO 14007KT 10SM CLR 27/18 A3002 RMK AO2,KCFE,2023-06-02T19:55:00Z,45.17,-93.85,27.0,18.0,140,7,,10.0,30.02067,,,TRUE,TRUE,,,,,,,CLR,,,,,,,,VFR,,,,,,,,,,,,METAR,292.0
KCEY 021955Z AUTO 05009KT 10SM FEW070 FEW085 31/15 A2994 RMK A01,KCEY,2023-06-02T19:55:00Z,36.67,-88.37,31.0,15.0,50,9,,10.0,29.940945,,,TRUE,TRUE,,,,,,,FEW,7000,FEW,8500,,,,,VFR,,,,,,,,,,,,METAR,172.0
KCDN 021955Z AUTO 05011KT 10SM FEW060 28/16 A2986 RMK AO2,KCDN,2023-06-02T19:55:00Z,34.28,-80.57,28.0,16.0,50,11,,10.0,29.861221,,,TRUE,TRUE,,,,,,,FEW,6000,,,,,,,VFR,,,,,,,,,,,,METAR,90.0
KCDI 021955Z AUTO 05004KT 10SM CLR 32/11 A2996 RMK AO2 T03200109,KCDI,2023-06-02T19:55:00Z,39.97,-81.58,32.0,10.9,50,4,,10.0,29.958662,,,TRUE,TRUE,,,,,,,CLR,,,,,,,,VFR,,,,,,,,,,,,METAR,241.0
KCDH 021955Z AUTO VRB06KT 10SM FEW055 33/18 A2989 RMK AO2,KCDH,2023-06-02T19:55:00Z,33.62,-92.77,33.0,18.0,0,6,,10.0,29.890747,,,TRUE,TRUE,,,,,,,FEW,5500,,,,,,,VFR,,,,,,,,,,,,METAR,38.0
KCDD 021955Z AUTO 19007KT 150V220 10SM SCT060 29/14 A3008 RMK AO2 PWINO,KCDD,2023-06-02T19:55:00Z,48.27,-92.48,29.0,14.0,190,7,,10.0,30.079725,,,TRUE,TRUE,,,,,TRUE,,SCT,6000,,,,,,,VFR,,,,,,,,,,,,METAR,344.0
KCDA 021955Z AUTO 27010G15KT 10SM CLR 28/14 A2992 RMK AO2 T02840138,KCDA,2023-06-02T19:55:00Z,44.57,-72.02,28.4,13.8,270,10,15,10.0,29.920275,,,TRUE,TRUE,,,,,,,CLR,,,,,,,,VFR,,,,,,,,,,,,METAR,357.0
KCCA 021955Z AUTO VRB04KT 9SM CLR 32/17 A2992 RMK AO2,KCCA,2023-06-02T19:55:00Z,35.6,-92.45,32.0,17.0,0,4,,9.0,29.920275,,,TRUE,TRUE,,,,,,,CLR,,,,,,,,VFR,,,,,,,,,,,,METAR,152.0
KCBG 021955Z AUTO 21004KT 10SM SCT055 31/17 A3003 RMK AO2,KCBG,2023-06-02T19:55:00Z,45.57,-93.27,31.0,17.0,210,4,,10.0,30.029528,,,TRUE,TRUE,,,,,,,SCT,5500,,,,,,,VFR,,,,,,,,,,,,METAR,285.0
KCAD 021955Z AUTO 05005KT 10SM CLR 32/10 A3007 RMK AO2 T03180101,KCAD,2023-06-02T19:55:00Z,44.27,-85.42,31.8,10.1,50,5,,10.0,30.070866,,,TRUE,TRUE,,,,,,,CLR,,,,,,,,VFR,,,,,,,,,,,,METAR,397.0
KC62 021955Z AUTO 12010KT 080V140 10SM SCT090 31/09 A3003 RMK AO2 T03180093,KC62,2023-06-02T19:55:00Z,41.47,-85.25,31.8,9.3,120,10,,10.0,30.029528,,,TRUE,TRUE,,,,,,,SCT,9000,,,,,,,VFR,,,,,,,,,,,,SPECI,304.0
KC35 021955Z AUTO 00000KT 10SM CLR 32/15 A3004 RMK AO2 T03200145 PWINO,KC35,2023-06-02T19:55:00Z,43.53,-89.98,32.0,14.5,0,0,,10.0,30.041338,,,TRUE,TRUE,,,,,TRUE,,CLR,,,,,,,,VFR,,,,,,,,,,,,METAR,272.0
KC29 021955Z AUTO 10008KT 050V110 10SM CLR 32/15 A3004 RMK AO1 T03180151,KC29,2023-06-02T19:55:00Z,43.12,-89.53,31.8,15.1,100,8,,10.0,30.041338,,,TRUE,TRUE,,,,,,,CLR,,,,,,,,VFR,,,,,,,,,,,,METAR,282.0
KBYS 021955Z AUTO 14007KT 10SM FEW320 28/04 A2989 RMK AO2 SLP099 T02820044 $,KBYS,2023-06-02T19:55:00Z,35.28,-116.63,28.2,4.4,140,7,,10.0,29.890747,1009.9,,TRUE,TRUE,TRUE,,,,,,FEW,32000,,,,,,,VFR,,,,,,,,,,,,METAR,717.0
KBXK 021955Z AUTO 18007KT 9SM CLR 31/03 A2987 RMK A01,KBXK,2023-06-02T19:55:00Z,33.42,-112.68,31.0,3.0,180,7,,9.0,29.870079,,,TRUE,TRUE,,,,,,,CLR,,,,,,,,VFR,,,,,,,,,,,,METAR,303.0
KBWW 021955Z AUTO 16023G30KT 10SM FEW048 27/15 A2989 RMK AO2,KBWW,2023-06-02T19:55:00Z,46.17,-103.3,27.0,15.0,160,23,30,10.0,29.890747,,,TRUE,TRUE,,,,,,,FEW,4800,,,,,,,VFR,,,,,,,,,,,,METAR,911.0
KBWP 021955Z AUTO 16013G18KT 10SM FEW070 31/16 A2993 RMK AO2 LTG DSNT SW AND NW,KBWP,2023-06-02T19:55:00Z,46.25,-96.62,31.0,16.0,160,13,18,10.0,29.929134,,,TRUE,TRUE,,,,,,,FEW,7000,,,,,,,VFR,,,,,,,,,,,,METAR,294.0
KBVU 021955Z AUTO 15013KT 10SM CLR 32/01 A2986 RMK AO2,KBVU,2023-06-02T19:55:00Z,35.95,-114.87,32.0,1.0,150,13,,10.0,29.861221,,,TRUE,TRUE,,,,,,,CLR,,,,,,,,VFR,,,,,,,,,,,,METAR,654.0
KBVI 021955Z AUTO 04008KT 10SM CLR 33/07 A2999 RMK AO2 T03250065,KBVI,2023-06-02T19:55:00Z,40.77,-80.37,32.5,6.5,40,8,,10.0,29.991142,,,TRUE,TRUE,,,,,,,CLR,,,,,,,,VFR,,,,,,,,,,,,METAR,387.0
KBRY 021955Z AUTO 07006KT 10SM CLR 31/12 A2992 RMK AO2 T03080118,KBRY,2023-06-02T19:55:00Z,37.82,-85.5,30.8,11.8,70,6,,10.0,29.920275,,,TRUE,TRUE,,,,,,,CLR,,,,,,,,VFR,,,,,,,,,,,,METAR,192.0
KBRG 021955Z AUTO 34018G25KT 10SM SCT120 21/M02 A3002 RMK AO2 T02051017,KBRG,2023-06-02T19:55:00Z,34.65,-106.83,20.5,-1.7,340,18,25,10.0,30.02067,,,TRUE,TRUE,,,,,,,SCT,12000,,,,,,,VFR,,,,,,,,,,,,METAR,1585.0
KBQX 021955Z AUTO 13005G10KT 10SM FEW025 SCT030 29/21 A2992 RMK A01,KBQX,2023-06-02T19:55:00Z,28.5,-95.72,29.0,21.0,130,5,10,10.0,29.920275,,,TRUE,TRUE,,,,,,,FEW,2500,SCT,3000,,,,,VFR,,,,,,,,,,,,METAR,34.0
KBNL 021955Z AUTO 07012KT 10SM FEW044 SCT055 BKN065 28/17 A2985 RMK AO2,KBNL,2023-06-02T19:55:00Z,33.25,-81.38,28.0,17.0,70,12,,10.0,29.84941,,,TRUE,TRUE,,,,,,,FEW,4400,SCT,5500,BKN,6500,,,VFR,,,,,,,,,,,,METAR,76.0
KBKT 021955Z AUTO 06010KT 10SM CLR 29/10 A2989 RMK AO1 T02900098,KBKT,2023-06-02T19:55:00Z,37.07,-77.95,29.0,9.8,60,10,,10.0,29.890747,,,TRUE,TRUE,,,,,,,CLR,,,,,,,,VFR,,,,,,,,,,,,METAR,134.0
KBKS 021955Z AUTO 12010KT 10SM FEW050 BKN065 34/22 A2981 RMK AO2 SLP056 T03360216 $,KBKS,2023-06-02T19:55:00Z,27.2,-98.12,33.6,21.6,120,10,,10.0,29.811024,1005.6,,TRUE,TRUE,TRUE,,,,,,FEW,5000,BKN,6500,,,,,VFR,,,,,,,,,,,,METAR,34.0
KBKN 021955Z AUTO 13012G18KT CLR 30/17 A2989 RMK AO2,KBKN,2023-06-02T19:55:00Z,36.75,-97.35,30.0,17.0,130,12,18,,29.890747,,,TRUE,TRUE,,,,,,,CLR,,,,,,,,,,,,,,,,,,,,METAR,208.0
KBJI 021955Z AUTO 14011G16KT SCT080 OVC095 27/18 A3003 RMK AO2 T02720184,KBJI,2023-06-02T19:55:00Z,47.5,-94.92,27.2,18.4,140,11,16,,30.029528,,,TRUE,TRUE,,,,,,,SCT,8000,OVC,9500,,,,,,,,,,,,,,,,,METAR,422.0
KBEA 021955Z AUTO 13009G18KT 10SM CLR 33/16 A2985 RMK AO2 T03290158 PWINO,KBEA,2023-06-02T19:55:00Z,28.37,-97.78,32.9,15.8,130,9,18,10.0,29.84941,,,TRUE,TRUE,,,,,TRUE,,CLR,,,,,,,,VFR,,,,,,,,,,,,METAR,83.0
KBDH 021955Z AUTO 17006KT 10SM SCT060 SCT070 31/15 A3002 RMK AO2 LTG DSNT E SE AND W,KBDH,2023-06-02T19:55:00Z,45.12,-95.13,31.0,15.0,170,6,,10.0,30.02067,,,TRUE,TRUE,,,,,,,SCT,6000,SCT,7000,,,,,VFR,,,,,,,,,,,,METAR,341.0
KBCK 021955Z AUTO 25008KT 4SM -RA SCT016 BKN075 OVC085 23/19 A3004 RMK AO2 LTG DSNT E SW AND NW P0026 T02300185,KBCK,2023-06-02T19:55:00Z,44.25,-90.85,23.0,18.5,250,8,,4.0,30.041338,,,TRUE,TRUE,,,,,,-RA,SCT,1600,BKN,7500,OVC,8500,,,MVFR,,,,,,0.26,,,,,,METAR,256.0
KBCB 021955Z AUTO 09009KT 010V110 10SM CLR 27/11 A3001 RMK AO2 LTG DSNT SE T02730111,KBCB,2023-06-02T19:55:00Z,37.22,-80.42,27.3,11.1,90,9,,10.0,30.008858,,,TRUE,TRUE,,,,,,,CLR,,,,,,,,VFR,,,,,,,,,,,,METAR,642.0
KBAX 021955Z AUTO 05007KT 10SM 29/16 A3008 RMK AO2 T02920158,KBAX,2023-06-02T19:55:00Z,43.78,-82.98,29.2,15.8,50,7,,10.0,30.079725,,,TRUE,TRUE,,,,,,,,,,,,,,,,,,,,,,,,,,,METAR,229.0
KBAC 021955Z AUTO 16013KT 10SM SCT050 SCT065 SCT075 29/19 A2995 RMK AO2 LTG DSNT SW AND NW,KBAC,2023-06-02T19:55:00Z,46.93,-98.02,29.0,19.0,160,13,,10.0,29.949802,,,TRUE,TRUE,,,,,,,SCT,5000,SCT,6500,SCT,7500,,,VFR,,,,,,,,,,,,METAR,423.0
KBAB 021955Z 29007KT 10SM CLR 26/11 A2993 RMK AO2A SLP138 T02560114 $,KBAB,2023-06-02T19:55:00Z,39.13,-121.43,25.6,11.4,290,7,,10.0,29.929134,1013.8,,,TRUE,TRUE,,,,,,CLR,,,,,,,,VFR,,,,,,,,,,,,METAR,31.0
KAXV 021955Z AUTO 03009KT 10SM CLR 31/09 A2999 RMK AO2,KAXV,2023-06-02T19:55:00Z,40.5,-84.3,31.0,9.0,30,9,,10.0,29.991142,,,TRUE,TRUE,,,,,,,CLR,,,,,,,,VFR,,,,,,,,,,,,METAR,278.0
KAVC 021955Z AUTO 04006KT 350V090 10SM SCT050 28/16 A2995 RMK AO2 LTG DSNT S T02820155,KAVC,2023-06-02T19:55:00Z,36.68,-78.05,28.2,15.5,40,6,,10.0,29.949802,,,TRUE,TRUE,,,,,,,SCT,5000,,,,,,,VFR,,,,,,,,,,,,METAR,119.0
KATS 021955Z AUTO 27008G13KT 10SM -DZ CLR 28/01 A2985 RMK AO2,KATS,2023-06-02T19:55:00Z,32.85,-104.47,28.0,1.0,270,8,13,10.0,29.84941,,,TRUE,TRUE,,,,,,-DZ,CLR,,,,,,,,VFR,,,,,,,,,,,,METAR,1073.0
KATA 021955Z AUTO 10004KT 10SM SCT060 31/19 A2988 RMK AO2 SLP017 T03150195 $,KATA,2023-06-02T19:55:00Z,33.1,-94.2,31.5,19.5,100,4,,10.0,29.878937,1001.7,,TRUE,TRUE,TRUE,,,,,,SCT,6000,,,,,,,VFR,,,,,,,,,,,,METAR,85.0
KAST 021955Z AUTO 29009KT 10SM CLR 16/08 A3015 RMK AO2 SLP208 T01610078,KAST,2023-06-02T19:55:00Z,46.15,-123.88,16.1,7.8,290,9,,10.0,30.15059,1020.8,,TRUE,TRUE,,,,,,,CLR,,,,,,,,VFR,,,,,,,,,,,,METAR,3.0
KASL 021955Z AUTO 16006KT 10SM CLR 32/19 A2988 RMK AO2 T03210188 $,KASL,2023-06-02T19:55:00Z,32.52,-94.3,32.1,18.8,160,6,,10.0,29.878937,,,TRUE,TRUE,TRUE,,,,,,CLR,,,,,,,,VFR,,,,,,,,,,,,METAR,104.0
KARW 021955Z AUTO 04007KT 10SM SCT039 SCT047 OVC055 26/16 A2983 RMK AO2 LTG DSNT E,KARW,2023-06-02T19:55:00Z,32.42,-80.63,26.0,16.0,40,7,,10.0,29.828741,,,TRUE,TRUE,,,,,,,SCT,3900,SCT,4700,OVC,5500,,,VFR,,,,,,,,,,,,METAR,2.0
KARV 021955Z AUTO 13007G14KT 10SM CLR 26/14 A3013 RMK AO2 T02630135,KARV,2023-06-02T19:55:00Z,45.92,-89.72,26.3,13.5,130,7,14,10.0,30.129921,,,TRUE,TRUE,,,,,,,CLR,,,,,,,,VFR,,,,,,,,,,,,METAR,494.0
KAQX 021955Z AUTO 08007G13KT 330V140 10SM FEW055 27/16 A2984 RMK AO2,KAQX,2023-06-02T19:55:00Z,32.98,-81.27,27.0,16.0,80,7,13,10.0,29.840551,,,TRUE,TRUE,,,,,,,FEW,5500,,,,,,,VFR,,,,,,,,,,,,METAR,48.0
KANQ 021955Z AUTO 06008KT 10SM FEW090 31/11 A3003 RMK AO2,KANQ,2023-06-02T19:55:00Z,41.63,-85.08,31.0,11.0,60,8,,10.0,30.029528,,,TRUE,TRUE,,,,,,,FEW,9000,,,,,,,VFR,,,,,,,,,,,,METAR,299.0
KANJ 021955Z AUTO VRB04KT 10SM FEW045 FEW070 SCT120 31/16 A3009 RMK AO2 SLP183 T03060156,KANJ,2023-06-02T19:55:00Z,46.47,-84.37,30.6,15.6,0,4,,10.0,30.088583,1018.3,,TRUE,TRUE,,,,,,,FEW,4500,FEW,7000,SCT,12000,,,VFR,,,,,,,,,,,,METAR,220.0
KAMN 021955Z AUTO 09007KT 10SM CLR 31/08 A3006 RMK AO2 T03130076,KAMN,2023-06-02T19:55:00Z,43.32,-84.68,31.3,7.6,90,7,,10.0,30.059055,,,TRUE,TRUE,,,,,,,CLR,,,,,,,,VFR,,,,,,,,,,,,METAR,228.0
KALM 021955Z AUTO 26014G22KT 220V280 10SM CLR 29/M07 A2990 RMK AO2,KALM,2023-06-02T19:55:00Z,32.83,-105.98,29.0,-7.0,260,14,22,10.0,29.899607,,,TRUE,TRUE,,,,,,,CLR,,,,,,,,VFR,,,,,,,,,,,,METAR,1267.0
KAIK 021955Z AUTO 02013G18KT 10SM BKN048 BKN060 BKN065 27/16 A2986 RMK AO2 LTG DSNT E T02720161,KAIK,2023-06-02T19:55:00Z,33.65,-81.68,27.2,16.1,20,13,18,10.0,29.861221,,,TRUE,TRUE,,,,,,,BKN,4800,BKN,6000,BKN,6500,,,VFR,,,,,,,,,,,,METAR,155.0
KAIG 021955Z AUTO 34005KT 10SM CLR 21/18 A3014 RMK AO2 T02130178,KAIG,2023-06-02T19:55:00Z,45.15,-89.12,21.3,17.8,340,5,,10.0,30.138779,,,TRUE,TRUE,,,,,,,CLR,,,,,,,,VFR,,,,,,,,,,,,METAR,462.0
KAGO 021955Z AUTO 00000KT 10SM FEW050 FEW075 31/19 A2989 RMK A01,KAGO,2023-06-02T19:55:00Z,33.23,-93.22,31.0,19.0,0,0,,10.0,29.890747,,,TRUE,TRUE,,,,,,,FEW,5000,FEW,7500,,,,,VFR,,,,,,,,,,,,METAR,91.0
KAFF 021955Z 18014KT 10SM FEW090 FEW150 20/M02 A2994 RMK AO2A SLP067 T01981025,KAFF,2023-06-02T19:55:00Z,38.97,-104.82,19.8,-2.5,180,14,,10.0,29.940945,1006.7,,,TRUE,,,,,,,FEW,9000,FEW,15000,,,,,VFR,,,,,,,,,,,,METAR,2003.0
KAEL 021955Z AUTO 12007KT 10SM SCT065 31/15 A3001 RMK AO2 LTG DSNT N THRU S,KAEL,2023-06-02T19:55:00Z,43.68,-93.37,31.0,15.0,120,7,,10.0,30.008858,,,TRUE,TRUE,,,,,,,SCT,6500,,,,,,,VFR,,,,,,,,,,,,METAR,382.0
KACQ 021955Z AUTO 09007KT 10SM SCT050 30/17 A3003 RMK AO2 LTG DSNT NE THRU SE,KACQ,2023-06-02T19:55:00Z,44.07,-93.55,30.0,17.0,90,7,,10.0,30.029528,,,TRUE,TRUE,,,,,,,SCT,5000,,,,,,,VFR,,,,,,,,,,,,METAR,339.0
KACJ 021955Z AUTO 05006KT 10SM FEW050 OVC090 28/17 A2985 RMK AO2 T02810167,KACJ,2023-06-02T19:55:00Z,32.12,-84.18,28.1,16.7,50,6,,10.0,29.84941,,,TRUE,TRUE,,,,,,,FEW,5000,OVC,9000,,,,,VFR,,,,,,,,,,,,METAR,140.0
KACB 021955Z AUTO 29004KT 10SM CLR 32/11 A3005 RMK AO2 T03200106,KACB,2023-06-02T19:55:00Z,44.98,-85.2,32.0,10.6,290,4,,10.0,30.050198,,,TRUE,TRUE,,,,,,,CLR,,,,,,,,VFR,,,,,,,,,,,,METAR,189.0
KABH 021955Z AUTO 21007KT 10SM CLR 22/01 A2996 RMK AO2 LTG DSNT N SLP093 T02160013,KABH,2023-06-02T19:55:00Z,38.75,-104.3,21.6,1.3,210,7,,10.0,29.958662,1009.3,,TRUE,TRUE,,,,,,,CLR,,,,,,,,VFR,,,,,,,,,,,,METAR,1838.0
KAAT 021955Z AUTO 10SM FEW049 19/05 A3010 RMK AO2 SLP169 T01890050,KAAT,2023-06-02T19:55:00Z,41.48,-120.57,18.9,5.0,,,,10.0,30.100393,1016.9,,TRUE,TRUE,,,,,,,FEW,4900,,,,,,,VFR,,,,,,,,,,,,METAR,1336.0
K9L2 021955Z AUTO 08004KT 9SM FEW250 FEW280 28/03 A2991 RMK AO2 SLP110 T02840033,K9L2,2023-06-02T19:55:00Z,34.98,-117.87,28.4,3.3,80,4,,9.0,29.911417,1011.0,,TRUE,TRUE,,,,,,,FEW,25000,FEW,28000,,,,,VFR,,,,,,,,,,,,METAR,697.0
K9D7 021955Z AUTO 15014KT 10SM CLR 31/16 A2996 RMK AO2 TSNO,K9D7,2023-06-02T19:55:00Z,48.48,-99.23,31.0,16.0,150,14,,10.0,29.958662,,,TRUE,TRUE,,,TRUE,,,,CLR,,,,,,,,VFR,,,,,,,,,,,,METAR,451.0
K96D 021955Z AUTO 17010KT 9SM CLR 30/18 A2996 RMK AO2,K96D,2023-06-02T19:55:00Z,48.93,-97.9,30.0,18.0,170,10,,9.0,29.958662,,,TRUE,TRUE,,,,,,,CLR,,,,,,,,VFR,,,,,,,,,,,,METAR,290.0
K8W2 021955Z AUTO 05010G16KT 10SM CLR 31/07 A2991 RMK AO1 T03090073,K8W2,2023-06-02T19:55:00Z,38.65,-78.7,30.9,7.3,50,10,16,10.0,29.911417,,,TRUE,TRUE,,,,,,,CLR,,,,,,,,VFR,,,,,,,,,,,,METAR,295.0
K7W4 021955Z AUTO 10SM CLR 30/13 A2989 RMK AO1 T03020129,K7W4,2023-06-02T19:55:00Z,37.97,-77.75,30.2,12.9,,,,10.0,29.890747,,,TRUE,TRUE,,,,,,,CLR,,,,,,,,VFR,,,,,,,,,,,,METAR,115.0
K7L2 021955Z AUTO 17017G25KT 10SM VCTS CLR 29/17 A2993 RMK AO2 LTG DSNT ALQDS,K7L2,2023-06-02T19:55:00Z,46.22,-100.25,29.0,17.0,170,17,25,10.0,29.929134,,,TRUE,TRUE,,,,,,VCTS,CLR,,,,,,,,VFR,,,,,,,,,,,,METAR,541.0
K77S 021955Z AUTO 01007KT 10SM CLR 21/08 A3008 RMK A01,K77S,2023-06-02T19:55:00Z,43.93,-123.0,21.0,8.0,10,7,,10.0,30.079725,,,TRUE,TRUE,,,,,,,CLR,,,,,,,,VFR,,,,,,,,,,,,METAR,161.0
K6S2 021955Z AUTO 33012G19KT 10SM CLR 15/08 A3015 RMK AO2,K6S2,2023-06-02T19:55:00Z,43.98,-124.12,15.0,8.0,330,12,19,10.0,30.15059,,,TRUE,TRUE,,,,,,,CLR,,,,,,,,VFR,,,,,,,,,,,,METAR,16.0
K6L4 021955Z AUTO 01006G14KT 10SM CLR 29/11 A2997 RMK AO2,K6L4,2023-06-02T19:55:00Z,37.85,-81.92,29.0,11.0,10,6,14,10.0,29.970472,,,TRUE,TRUE,,,,,,,CLR,,,,,,,,VFR,,,,,,,,,,,,METAR,504.0
K6B9 021955Z AUTO VRB06KT 10SM CLR 29/15 A2996 RMK AO2,K6B9,2023-06-02T19:55:00Z,42.92,-76.43,29.0,15.0,0,6,,10.0,29.958662,,,TRUE,TRUE,,,,,,,CLR,,,,,,,,VFR,,,,,,,,,,,,METAR,306.0
K6B0 021955Z AUTO 35010G16KT 10SM VCTS CLR 30/15 A2988 RMK AO2 T03030154,K6B0,2023-06-02T19:55:00Z,43.98,-73.1,30.3,15.4,350,10,16,10.0,29.878937,,,TRUE,TRUE,,,,,,VCTS,CLR,,,,,,,,VFR,,,,,,,,,,,,METAR,149.0
K5H4 021955Z AUTO 22009G17KT 10SM FEW065 27/18 A2995 RMK AO2 LTG DSNT ALQDS,K5H4,2023-06-02T19:55:00Z,47.78,-99.93,27.0,18.0,220,9,17,10.0,29.949802,,,TRUE,TRUE,,,,,,,FEW,6500,,,,,,,VFR,,,,,,,,,,,,METAR,490.0
K57C 021955Z AUTO 10007G14KT CLR 32/11 A3004 RMK AO2 T03190109 PWINO,K57C,2023-06-02T19:55:00Z,42.8,-88.37,31.9,10.9,100,7,14,,30.041338,,,TRUE,TRUE,,,,,TRUE,,CLR,,,,,,,,,,,,,,,,,,,,METAR,454.0
K54J 021955Z AUTO 04010G15KT 360V060 10SM SCT060 30/15 A2983 RMK AO2 T03020151,K54J,2023-06-02T19:55:00Z,30.73,-86.15,30.2,15.1,40,10,15,10.0,29.828741,,,TRUE,TRUE,,,,,,,SCT,6000,,,,,,,VFR,,,,,,,,,,,,METAR,87.0
K4R5 021955Z AUTO 03007KT 10SM OVC100 18/13 A3011 RMK AO2 T01810131,K4R5,2023-06-02T19:55:00Z,46.78,-90.77,18.1,13.1,30,7,,10.0,30.109253,,,TRUE,TRUE,,,,,,,OVC,10000,,,,,,,VFR,,,,,,,,,,,,METAR,195.0
K4O4 021955Z AUTO 00000G10KT 6SM HZ FEW050 FEW065 32/18 A2991 RMK AO2,K4O4,2023-06-02T19:55:00Z,33.92,-94.87,32.0,18.0,0,0,10,6.0,29.911417,,,TRUE,TRUE,,,,,,HZ,FEW,5000,FEW,6500,,,,,VFR,,,,,,,,,,,,METAR,148.0
K4MR 021955Z AUTO 05004KT 10SM CLR 49/26 A2985 RMK AO2 SLPNO T04910262 $,K4MR,2023-06-02T19:55:00Z,34.3,-103.8,49.1,26.2,50,4,,10.0,29.84941,,,TRUE,TRUE,TRUE,,,,,,CLR,,,,,,,,VFR,,,,,,,,,,,,METAR,1339.0
K4M9 021955Z AUTO 32004KT 9SM CLR 32/20 A2991 RMK AO2 LTG DSNT SE AND S PWINO,K4M9,2023-06-02T19:55:00Z,36.4,-90.65,32.0,20.0,320,4,,9.0,29.911417,,,TRUE,TRUE,,,,,TRUE,,CLR,,,,,,,,VFR,,,,,,,,,,,,METAR,86.0
K4I3 021955Z AUTO 35007KT 10SM CLR 31/11 A3000 RMK AO2,K4I3,2023-06-02T19:55:00Z,40.33,-82.53,31.0,11.0,350,7,,10.0,30.0,,,TRUE,TRUE,,,,,,,CLR,,,,,,,,VFR,,,,,,,,,,,,METAR,361.0
K4A6 021955Z AUTO VRB05KT 10SM SCT065 SCT075 SCT100 30/17 A2989 RMK AO2 LTG DSNT W AND NW,K4A6,2023-06-02T19:55:00Z,34.68,-86.0,30.0,17.0,0,5,,10.0,29.890747,,,TRUE,TRUE,,,,,,,SCT,6500,SCT,7500,SCT,10000,,,VFR,,,,,,,,,,,,METAR,191.0
K46D 021955Z AUTO 18014KT 10SM TS FEW060 31/17 A2995 RMK AO2 LTG DSNT ALQDS,K46D,2023-06-02T19:55:00Z,47.45,-99.15,31.0,17.0,180,14,,10.0,29.949802,,,TRUE,TRUE,,,,,,TS,FEW,6000,,,,,,,VFR,,,,,,,,,,,,METAR,488.0
K42J 021955Z AUTO 04007G13KT 010V080 10SM SCT043 SCT050 BKN055 28/16 A2977 RMK A01,K42J,2023-06-02T19:55:00Z,29.85,-82.05,28.0,16.0,40,7,13,10.0,29.769686,,,TRUE,TRUE,,,,,,,SCT,4300,SCT,5000,BKN,5500,,,VFR,,,,,,,,,,,,METAR,57.0
K41U 021955Z AUTO 08004KT 3SM HZ SCT033 BKN065 OVC075 16/10 A3004 RMK AO1 T01630098,K41U,2023-06-02T19:55:00Z,39.33,-111.6,16.3,9.8,80,4,,3.0,30.041338,,,TRUE,TRUE,,,,,,HZ,SCT,3300,BKN,6500,OVC,7500,,,MVFR,,,,,,,,,,,,METAR,1676.0
K3T5 021955Z AUTO 15009KT 7SM FEW280 31/19 A2987 RMK AO2 T03070195 $,K3T5,2023-06-02T19:55:00Z,29.9,-96.95,30.7,19.5,150,9,,7.0,29.870079,,,TRUE,TRUE,TRUE,,,,,,FEW,28000,,,,,,,VFR,,,,,,,,,,,,METAR,96.0
K3R7 021955Z AUTO 11005KT 10SM CLR 32/16 A2988 RMK AO2 T03170159,K3R7,2023-06-02T19:55:00Z,30.25,-92.67,31.7,15.9,110,5,,10.0,29.878937,,,TRUE,TRUE,,,,,,,CLR,,,,,,,,VFR,,,,,,,,,,,,METAR,5.0
K3N8 021955Z AUTO 14008KT 10SM SCT095 29/17 A2999 RMK AO2 LTG DSNT W T02890171,K3N8,2023-06-02T19:55:00Z,47.25,-95.92,28.9,17.1,140,8,,10.0,29.991142,,,TRUE,TRUE,,,,,,,SCT,9500,,,,,,,VFR,,,,,,,,,,,,METAR,379.0
K35A 021955Z AUTO 05009KT 10SM CLR 29/13 A2992 RMK A02 LTG DSNT SE T02890128,K35A,2023-06-02T19:55:00Z,34.68,-81.63,28.9,12.8,50,9,,10.0,29.920275,,,TRUE,TRUE,,,,,,,CLR,,,,,,,,VFR,,,,,,,,,,,,METAR,186.0
K2J9 021955Z AUTO 04007G15KT 010V090 10SM SCT050 BKN060 31/17 A2981 RMK AO2,K2J9,2023-06-02T19:55:00Z,30.6,-84.55,31.0,17.0,40,7,15,10.0,29.811024,,,TRUE,TRUE,,,,,,,SCT,5000,BKN,6000,,,,,VFR,,,,,,,,,,,,METAR,62.0
K2D5 021955Z AUTO 16014G20KT 9SM FEW065 SCT075 SCT100 31/15 A2994 RMK AO2,K2D5,2023-06-02T19:55:00Z,46.17,-98.08,31.0,15.0,160,14,20,9.0,29.940945,,,TRUE,TRUE,,,,,,,FEW,6500,SCT,7500,SCT,10000,,,VFR,,,,,,,,,,,,METAR,407.0
K2C8 021955Z AUTO 14009KT 110V180 10SM SCT050 SCT065 30/19 A2996 RMK AO2,K2C8,2023-06-02T19:55:00Z,48.78,-97.63,30.0,19.0,140,9,,10.0,29.958662,,,TRUE,TRUE,,,,,,,SCT,5000,SCT,6500,,,,,VFR,,,,,,,,,,,,SPECI,271.0
K28J 021955Z AUTO 07012KT 10SM SCT040 SCT048 SCT055 26/18 A2977 RMK AO2,K28J,2023-06-02T19:55:00Z,29.65,-81.68,26.0,18.0,70,12,,10.0,29.769686,,,TRUE,TRUE,,,,,,,SCT,4000,SCT,4800,SCT,5500,,,VFR,,,,,,,,,,,,METAR,9.0
K22N 021955Z AUTO 33003KT 10SM CLR 33/08 A2987 RMK AO2 LTG DSNT NE,K22N,2023-06-02T19:55:00Z,40.8,-75.77,33.0,8.0,330,3,,10.0,29.870079,,,TRUE,TRUE,,,,,,,CLR,,,,,,,,VFR,,,,,,,,,,,,METAR,159.0
K21D 021955Z AUTO 22005KT 10SM CLR 28/17 A3005 RMK AO2 LTG DSNT NE AND SE,K21D,2023-06-02T19:55:00Z,45.0,-92.85,28.0,17.0,220,5,,10.0,30.050198,,,TRUE,TRUE,,,,,,,CLR,,,,,,,,VFR,,,,,,,,,,,,METAR,281.0
K20U 021955Z AUTO 12013G20KT 10SM CLR 26/16 A2989 RMK AO2 LTG DSNT NE,K20U,2023-06-02T19:55:00Z,46.93,-103.98,26.0,16.0,120,13,20,10.0,29.890747,,,TRUE,TRUE,,,,,,,CLR,,,,,,,,VFR,,,,,,,,,,,,METAR,839.0
K1YT 021955Z AUTO 14003KT 10SM CLR 24/M04 A2996 RMK AO2 SLP143 T02401042 $,K1YT,2023-06-02T19:55:00Z,46.67,-120.45,24.0,-4.2,140,3,,10.0,29.958662,1014.3,,TRUE,TRUE,TRUE,,,,,,CLR,,,,,,,,VFR,,,,,,,,,,,,METAR,423.0
K1S5 021955Z AUTO 00000KT 10SM CLR 24/05 A3000 RMK AO2 T02410048,K1S5,2023-06-02T19:55:00Z,46.33,-119.97,24.1,4.8,0,0,,10.0,30.0,,,TRUE,TRUE,,,,,,,CLR,,,,,,,,VFR,,,,,,,,,,,,SPECI,228.0
K1R7 021955Z AUTO 35005KT 9SM FEW060 31/19 A2990 RMK AO2 PWINO,K1R7,2023-06-02T19:55:00Z,31.6,-90.42,31.0,19.0,350,5,,9.0,29.899607,,,TRUE,TRUE,,,,,TRUE,,FEW,6000,,,,,,,VFR,,,,,,,,,,,,METAR,142.0
K1P1 021955Z AUTO 15004KT 10SM SCT075 SCT090 24/15 A2988 RMK AO2 LTG DSNT E T02440145,K1P1,2023-06-02T19:55:00Z,43.78,-71.75,24.4,14.5,150,4,,10.0,29.878937,,,TRUE,TRUE,,,,,,,SCT,7500,SCT,9000,,,,,VFR,,,,,,,,,,,,METAR,155.0
K1OW 021955Z AUTO 19010KT 10SM SCT060 BKN075 20/09 A3005 RMK AO2 LTG DSNT S AND W-NW SLP132 T01990089 $,K1OW,2023-06-02T19:55:00Z,40.88,-104.0,19.9,8.9,190,10,,10.0,30.050198,1013.2,,TRUE,TRUE,TRUE,,,,,,SCT,6000,BKN,7500,,,,,VFR,,,,,,,,,,,,METAR,1650.0
K1NW 021955Z AUTO 17006KT 10SM M 21/10 A2990 RMK AO2 LTG DSNT SW AND NW SLP082 T02080103 $,K1NW,2023-06-02T19:55:00Z,40.63,-103.83,20.8,10.3,170,6,,10.0,29.899607,1008.2,,TRUE,TRUE,TRUE,,,,,,,,,,,,,,,,,,,,,,,,,,METAR,1461.0
K1MW 021955Z AUTO 18009KT 10SM CLR 23/09 A2989 RMK AO2 LTG DSNT W-NW SLP081 T02260094 $,K1MW,2023-06-02T19:55:00Z,40.7,-103.48,22.6,9.4,180,9,,10.0,29.890747,1008.1,,TRUE,TRUE,TRUE,,,,,,CLR,,,,,,,,VFR,,,,,,,,,,,,METAR,1338.0
K1JW 021955Z AUTO 18010KT 10SM CLR 22/12 M RMK AO2 LTG DSNT NE-E AND W-NW SLPNO T02220124 $,K1JW,2023-06-02T19:55:00Z,40.97,-103.2,22.2,12.4,180,10,,10.0,,,,TRUE,TRUE,TRUE,,,,,,CLR,,,,,,,,VFR,,,,,,,,,,,,METAR,1382.0
K18H 021955Z AUTO VRB06G12KT 10SM SCT095 27/21 A2985 RMK A01,K18H,2023-06-02T19:55:00Z,26.13,-92.03,27.0,21.0,0,6,12,10.0,29.84941,,,TRUE,TRUE,,,,,,,SCT,9500,,,,,,,VFR,,,,,,,,,,,,METAR,30.0
K15M 021955Z AUTO 01008KT 8SM BKN055 BKN065 BKN120 30/17 A2990 RMK AO2 T03030174 $,K15M,2023-06-02T19:55:00Z,34.77,-88.17,30.3,17.4,10,8,,8.0,29.899607,,,TRUE,TRUE,TRUE,,,,,,BKN,5500,BKN,6500,BKN,12000,,,VFR,,,,,,,,,,,,METAR,192.0
K14Y 021955Z AUTO 17006G14KT 3SM HZ BKN050 OVC110 28/17 A3003 RMK AO2,K14Y,2023-06-02T19:55:00Z,45.9,-94.87,28.0,17.0,170,6,14,3.0,30.029528,,,TRUE,TRUE,,,,,,HZ,BKN,5000,OVC,11000,,,,,MVFR,,,,,,,,,,,,METAR,404.0
K10G 021955Z AUTO 04009G19KT 10SM CLR 31/05 A2999 RMK AO2,K10G,2023-06-02T19:55:00Z,40.53,-81.95,31.0,5.0,40,9,19,10.0,29.991142,,,TRUE,TRUE,,,,,,,CLR,,,,,,,,VFR,,,,,,,,,,,,METAR,371.0
K0VG 021955Z AUTO VRB06G13KT 10SM CLR 31/09 A2994 RMK AO2,K0VG,2023-06-02T19:55:00Z,36.65,-83.22,31.0,9.0,0,6,13,10.0,29.940945,,,TRUE,TRUE,,,,,,,CLR,,,,,,,,VFR,,,,,,,,,,,,METAR,426.0
K0S9 021955Z AUTO 05005KT 10SM CLR 17/09 A3011 RMK AO2,K0S9,2023-06-02T19:55:00Z,48.05,-122.82,17.0,9.0,50,5,,10.0,30.109253,,,TRUE,TRUE,,,,,,,CLR,,,,,,,,VFR,,,,,,,,,,,,METAR,33.0
K08D 021955Z AUTO 10008KT 10SM FEW085 26/15 A2993 RMK AO2 LTG DSNT ALQDS,K08D,2023-06-02T19:55:00Z,48.3,-102.4,26.0,15.0,100,8,,10.0,29.929134,,,TRUE,TRUE,,,,,,,FEW,8500,,,,,,,VFR,,,,,,,,,,,,METAR,683.0
K06D 021955Z AUTO 15013G20KT 10SM FEW070 32/14 A2996 RMK AO2 LTG DSNT S AND SW,K06D,2023-06-02T19:55:00Z,48.88,-99.62,32.0,14.0,150,13,20,10.0,29.958662,,,TRUE,TRUE,,,,,,,FEW,7000,,,,,,,VFR,,,,,,,,,,,,METAR,554.0
FJDG 021955Z 17008KT 9999 FEW018 SCT250 27/25 A2991 RMK SLP125 T02670250,FJDG,2023-06-02T19:55:00Z,-7.32,72.42,26.7,25.0,170,8,,6.21,29.911417,1012.5,,,,,,,,,,FEW,1800,SCT,25000,,,,,VFR,,,,,,,,,,,,METAR,3.0
ETAR 021955Z AUTO 06004KT 9999 CLR 13/06 A3004 RMK AO2 SLP177 T01250056 $,ETAR,2023-06-02T19:55:00Z,49.43,7.58,12.5,5.6,60,4,,6.21,30.041338,1017.7,,TRUE,TRUE,TRUE,,,,,,CLR,,,,,,,,VFR,,,,,,,,,,,,METAR,231.0
ETAD 021955Z AUTO 03008KT 9999 CLR 15/06 A3005 RMK AO2 SLP167 T01450063 $,ETAD,2023-06-02T19:55:00Z,49.98,6.7,14.5,6.3,30,8,,6.21,30.050198,1016.7,,TRUE,TRUE,TRUE,,,,,,CLR,,,,,,,,VFR,,,,,,,,,,,,METAR,365.0
EHWO 021955Z AUTO 02005KT 350V070 9999 NCD 15/10 Q1021 BLU,EHWO,2023-06-02T19:55:00Z,51.45,4.33,15.0,10.0,20,5,,6.21,30.147638,,,TRUE,,,,,,,,CLR,,,,,,,,VFR,,,,,,,,,,,,METAR,15.0
EHVL 021955Z AUTO 03018KT 9999 NCD 13/10 Q1023 BLU,EHVL,2023-06-02T19:55:00Z,53.28,5.08,13.0,10.0,30,18,,6.21,30.206694,,,TRUE,,,,,,,,CLR,,,,,,,,VFR,,,,,,,,,,,,METAR,2.0
EHVK 021955Z AUTO 36003KT 9999 NCD 15/09 Q1020 BLU,EHVK,2023-06-02T19:55:00Z,51.65,5.7,15.0,9.0,360,3,,6.21,30.11811,,,TRUE,,,,,,,,CLR,,,,,,,,VFR,,,,,,,,,,,,METAR,20.0
EHRD 021955Z AUTO 01007KT 330V060 9999 NCD 15/10 Q1021 NOSIG,EHRD,2023-06-02T19:55:00Z,51.95,4.45,15.0,10.0,10,7,,6.21,30.147638,,,TRUE,,,TRUE,,,,,CLR,,,,,,,,VFR,,,,,,,,,,,,METAR,-4.0
EHLW 021955Z AUTO 04010KT 360V080 9999 NCD 12/10 Q1023 BLU,EHLW,2023-06-02T19:55:00Z,53.22,5.75,12.0,10.0,40,10,,6.21,30.206694,,,TRUE,,,,,,,,CLR,,,,,,,,VFR,,,,,,,,,,,,METAR,1.0
EHLE 021955Z AUTO 02010KT 340V040 9999 NCD 16/11 Q1021 NOSIG,EHLE,2023-06-02T19:55:00Z,52.45,5.52,16.0,11.0,20,10,,6.21,30.147638,,,TRUE,,,TRUE,,,,,CLR,,,,,,,,VFR,,,,,,,,,,,,METAR,-3.0
EHKD 021955Z AUTO 03011KT 360V060 9999 NCD 14/11 Q1023 BLU,EHKD,2023-06-02T19:55:00Z,52.92,4.77,14.0,11.0,30,11,,6.21,30.206694,,,TRUE,,,,,,,,CLR,,,,,,,,VFR,,,,,,,,,,,,METAR,1.0
EHGR 021955Z AUTO 01006KT 320V060 9999 NCD 15/09 Q1020 BLU,EHGR,2023-06-02T19:55:00Z,51.55,4.93,15.0,9.0,10,6,,6.21,30.11811,,,TRUE,,,,,,,,CLR,,,,,,,,VFR,,,,,,,,,,,,METAR,12.0
EHGG 021955Z AUTO 03009KT 350V060 9999 NCD 15/08 Q1022 NOSIG,EHGG,2023-06-02T19:55:00Z,53.12,6.57,15.0,8.0,30,9,,6.21,30.177166,,,TRUE,,,TRUE,,,,,CLR,,,,,,,,VFR,,,,,,,,,,,,METAR,2.0
EHEH 021955Z AUTO 02006KT 9999 NCD 15/09 Q1020 BLU NOSIG,EHEH,2023-06-02T19:55:00Z,51.45,5.38,15.0,9.0,20,6,,6.21,30.11811,,,TRUE,,,TRUE,,,,,CLR,,,,,,,,VFR,,,,,,,,,,,,METAR,20.0
EHDL 021955Z AUTO 00000KT 9999 FEW062 14/11 Q1021 BLU,EHDL,2023-06-02T19:55:00Z,52.07,5.88,14.0,11.0,0,0,,6.21,30.147638,,,TRUE,,,,,,,,FEW,6200,,,,,,,VFR,,,,,,,,,,,,METAR,49.0
EHBK 021955Z AUTO 05006KT 9999 NCD 14/08 Q1020,EHBK,2023-06-02T19:55:00Z,50.92,5.77,14.0,8.0,50,6,,6.21,30.11811,,,TRUE,,,,,,,,CLR,,,,,,,,VFR,,,,,,,,,,,,METAR,112.0
EHAM 021955Z VRB10KT CAVOK 15/11 Q1022 NOSIG,EHAM,2023-06-02T19:55:00Z,52.32,4.78,15.0,11.0,0,10,,6.21,30.177166,,,,,,TRUE,,,,,CAVOK,,,,,,,,VFR,,,,,,,,,,,,METAR,-2.0
EGVA 021955Z AUTO 06009KT 9999 CLR 13/07 A3021 RMK AO2 SLP234 T01320074 FZRANO $,EGVA,2023-06-02T19:55:00Z,51.67,-1.78,13.2,7.4,60,9,,6.21,30.209646,1023.4,,TRUE,TRUE,TRUE,,,TRUE,,,CLR,,,,,,,,VFR,,,,,,,,,,,,METAR,84.0
EGUN 021955Z 04009KT 9999 FEW027 11/09 A3025 RMK AO2A SLP247 T01140090 $,EGUN,2023-06-02T19:55:00Z,52.37,0.48,11.4,9.0,40,9,,6.21,30.250984,1024.7,,,TRUE,TRUE,,,,,,FEW,2700,,,,,,,VFR,,,,,,,,,,,,METAR,10.0
EGUL 021955Z AUTO 02009KT 9999 CLR 11/11 A3025 RMK AO2 SLP247 T01120106 $,EGUL,2023-06-02T19:55:00Z,52.42,0.57,11.2,10.6,20,9,,6.21,30.250984,1024.7,,TRUE,TRUE,TRUE,,,,,,CLR,,,,,,,,VFR,,,,,,,,,,,,METAR,8.0
CYPQ 021955Z AUTO 31005KT 300V360 9SM TS SCT071 31/17 A2996 RMK LTNG DIST ALQDS SLP144 DENSITY ALT 2600FT,CYPQ,2023-06-02T19:55:00Z,44.22,-78.37,31.0,17.0,310,5,,9.0,29.958662,1014.4,,TRUE,,,,,,,TS,SCT,7100,,,,,,,VFR,,,,,,,,,,,,SPECI,190.0
PTYA 021954Z 00000KT 12SM FEW016 BKN130 OVC300 25/25 A2976 RMK SLP078 T02500247,PTYA,2023-06-02T19:54:00Z,9.48,138.08,25.0,24.7,0,0,,12.0,29.760826,1007.8,,,,,,,,,,FEW,1600,BKN,13000,OVC,30000,,,VFR,,,,,,,,,,,,METAR,4.0
PHOG 021954Z 03017KT 10SM FEW030 SCT045 27/19 A3013 RMK AO2 SLP206 T02720194,PHOG,2023-06-02T19:54:00Z,20.9,-156.43,27.2,19.4,30,17,,10.0,30.129921,1020.6,,,TRUE,,,,,,,FEW,3000,SCT,4500,,,,,VFR,,,,,,,,,,,,METAR,14.0
PHMK 021954Z 03012G22KT 10SM FEW023 BKN080 27/19 A3014 RMK AO2 SLP206 T02670194,PHMK,2023-06-02T19:54:00Z,21.15,-157.1,26.7,19.4,30,12,22,10.0,30.138779,1020.6,,,TRUE,,,,,,,FEW,2300,BKN,8000,,,,,VFR,,,,,,,,,,,,METAR,135.0
PGSN 021954Z 10012KT 10SM SCT020 27/26 A2988 RMK AO2 SLP140 T02670256 $,PGSN,2023-06-02T19:54:00Z,15.12,145.72,26.7,25.6,100,12,,10.0,29.878937,1014.0,,,TRUE,TRUE,,,,,,SCT,2000,,,,,,,VFR,,,,,,,,,,,,METAR,65.0
PAKN 021954Z 18007KT 10SM CLR 11/01 A2992 RMK AO2 SLP131 T01060011,PAKN,2023-06-02T19:54:00Z,58.68,-156.65,10.6,1.1,180,7,,10.0,29.920275,1013.1,,,TRUE,,,,,,,CLR,,,,,,,,VFR,,,,,,,,,,,,METAR,20.0
MYSM 021954Z AUTO 30008KT 2900 +SHRA FEW012/// SCT016/// OVC018/// 23/23 A2977,MYSM,2023-06-02T19:54:00Z,24.05,-74.52,23.0,23.0,300,8,,1.8,29.769686,,,TRUE,,,,,,,+SHRA,FEW,1200,SCT,1600,OVC,1800,,,IFR,,,,,,,,,,,,SPECI,5.0
MMTG 021954Z 31004KT 8SM SCT040TCU 37/17 A2978 RMK 8/200,MMTG,2023-06-02T19:54:00Z,16.57,-93.03,37.0,17.0,310,4,,8.0,29.778543,,,,,,,,,,,SCT,4000,,,,,,,VFR,,,,,,,,,,,,METAR,463.0
KWLD 021954Z AUTO 13009KT 10SM SCT050 SCT060 29/18 A2992 RMK AO2 SLP120 T02940183,KWLD,2023-06-02T19:54:00Z,37.17,-97.03,29.4,18.3,130,9,,10.0,29.920275,1012.0,,TRUE,TRUE,,,,,,,SCT,5000,SCT,6000,,,,,VFR,,,,,,,,,,,,METAR,351.0
KWAL 021954Z 06005KT 10SM CLR 26/16 A2988 RMK AO2 SLP115 T02610161,KWAL,2023-06-02T19:54:00Z,37.93,-75.47,26.1,16.1,60,5,,10.0,29.878937,1011.5,,,TRUE,,,,,,,CLR,,,,,,,,VFR,,,,,,,,,,,,METAR,10.0
KVTA 021954Z AUTO VRB05KT 10SM CLR 32/11 A2996 RMK AO2 SLP139 T03220111,KVTA,2023-06-02T19:54:00Z,40.02,-82.47,32.2,11.1,0,5,,10.0,29.958662,1013.9,,TRUE,TRUE,,,,,,,CLR,,,,,,,,VFR,,,,,,,,,,,,METAR,268.0
KVSF 021954Z AUTO 02005KT 10SM CLR 29/12 A2987 RMK AO2 LTG DSNT E SLP114 T02890122,KVSF,2023-06-02T19:54:00Z,43.35,-72.52,28.9,12.2,20,5,,10.0,29.870079,1011.4,,TRUE,TRUE,,,,,,,CLR,,,,,,,,VFR,,,,,,,,,,,,METAR,176.0
KVAY 021954Z AUTO 08006KT 10SM CLR 34/13 A2983 RMK AO2 SLP099 T03390128,KVAY,2023-06-02T19:54:00Z,39.93,-74.83,33.9,12.8,80,6,,10.0,29.828741,1009.9,,TRUE,TRUE,,,,,,,CLR,,,,,,,,VFR,,,,,,,,,,,,METAR,15.0
KUZA 021954Z AUTO 05008G14KT 010V100 10SM CLR 29/13 A2989 RMK AO2 SLP108 T02940128,KUZA,2023-06-02T19:54:00Z,34.98,-81.05,29.4,12.8,50,8,14,10.0,29.890747,1010.8,,TRUE,TRUE,,,,,,,CLR,,,,,,,,VFR,,,,,,,,,,,,METAR,198.0
KUIN 021954Z AUTO 11012KT 10SM FEW075 33/14 A2997 RMK AO2 SLP142 T03280144,KUIN,2023-06-02T19:54:00Z,39.95,-91.2,32.8,14.4,110,12,,10.0,29.970472,1014.2,,TRUE,TRUE,,,,,,,FEW,7500,,,,,,,VFR,,,,,,,,,,,,METAR,233.0
KTQE 021954Z AUTO 21014KT 10SM CLR 33/16 A2993 RMK AO2 LTG DSNT ALQDS SLP120 T03280161,KTQE,2023-06-02T19:54:00Z,41.77,-96.18,32.8,16.1,210,14,,10.0,29.929134,1012.0,,TRUE,TRUE,,,,,,,CLR,,,,,,,,VFR,,,,,,,,,,,,METAR,312.0
KTAD 021954Z AUTO 25010KT 10SM FEW080 SCT100 17/08 A2997 RMK AO2 PK WND 27028/1901 LTG DSNT S RAE28 SLP089 P0003 T01720083,KTAD,2023-06-02T19:54:00Z,37.27,-104.33,17.2,8.3,250,10,,10.0,29.970472,1008.9,,TRUE,TRUE,,,,,,,FEW,8000,SCT,10000,,,,,VFR,,,,,,0.03,,,,,,METAR,1751.0
KSYR 021954Z 30010KT 10SM FEW080 FEW120 SCT150 SCT250 32/16 A2992 RMK AO2 SLP124 T03170156,KSYR,2023-06-02T19:54:00Z,43.12,-76.1,31.7,15.6,300,10,,10.0,29.920275,1012.4,,,TRUE,,,,,,,FEW,8000,FEW,12000,SCT,15000,SCT,25000,VFR,,,,,,,,,,,,METAR,125.0
KSUS 021954Z 05008G16KT 10SM FEW080 FEW095 33/13 A2993 RMK AO2 LTG DSNT SW SLP128 T03280133,KSUS,2023-06-02T19:54:00Z,38.65,-90.65,32.8,13.3,50,8,16,10.0,29.929134,1012.8,,,TRUE,,,,,,,FEW,8000,FEW,9500,,,,,VFR,,,,,,,,,,,,METAR,140.0
KSLC 021954Z 00000KT 10SM FEW044CB SCT065 BKN110 BKN230 23/09 A2998 RMK AO2 SLP106 VIRGA CB NW-N MOV SE AND DSNT ALQDS T02280094,KSLC,2023-06-02T19:54:00Z,40.77,-111.97,22.8,9.4,0,0,,10.0,29.97933,1010.6,,,TRUE,,,,,,,FEW,4400,SCT,6500,BKN,11000,BKN,23000,VFR,,,,,,,,,,,,METAR,1286.0
KSET 021954Z AUTO 09008G15KT 10SM FEW085 32/12 A2994 RMK AO2 SLP135 T03220117,KSET,2023-06-02T19:54:00Z,38.93,-90.43,32.2,11.7,90,8,15,10.0,29.940945,1013.5,,TRUE,TRUE,,,,,,,FEW,8500,,,,,,,VFR,,,,,,,,,,,,METAR,133.0
KSBY 021954Z 05007KT 10SM CLR 31/12 A2986 RMK AO2 SLP112 T03110122,KSBY,2023-06-02T19:54:00Z,38.33,-75.5,31.1,12.2,50,7,,10.0,29.861221,1011.2,,,TRUE,,,,,,,CLR,,,,,,,,VFR,,,,,,,,,,,,METAR,14.0
KSBN 021954Z 03006G17KT 10SM CLR 33/11 A3002 RMK AO2 SLP161 T03280106,KSBN,2023-06-02T19:54:00Z,41.7,-86.32,32.8,10.6,30,6,17,10.0,30.02067,1016.1,,,TRUE,,,,,,,CLR,,,,,,,,VFR,,,,,,,,,,,,METAR,236.0
KRST 021954Z 28009KT 10SM -TSRA FEW055 BKN095 OVC110 21/18 A3006 RMK AO2 PK WND 22034/1910 LTG DSNT SW-NW RAB11 TSB01 SLP176 P0003 T02060178,KRST,2023-06-02T19:54:00Z,43.9,-92.5,20.6,17.8,280,9,,10.0,30.059055,1017.6,,,TRUE,,,,,,-TSRA,FEW,5500,BKN,9500,OVC,11000,,,VFR,,,,,,0.03,,,,,,METAR,398.0
KRSP 021954Z AUTO 00000KT 10SM CLR 36/09 A2997 RMK AO2 SLP133 T03560094 $ ,KRSP,2023-06-02T19:54:00Z,39.65,-77.47,35.6,9.4,0,0,,10.0,29.970472,1013.3,,TRUE,TRUE,TRUE,,,,,,CLR,,,,,,,,VFR,,,,,,,,,,,,METAR,555.0
KROC 021954Z 05008KT 10SM FEW080 FEW110 SCT250 31/14 A2997 RMK AO2 SLP147 T03060144,KROC,2023-06-02T19:54:00Z,43.12,-77.68,30.6,14.4,50,8,,10.0,29.970472,1014.7,,,TRUE,,,,,,,FEW,8000,FEW,11000,SCT,25000,,,VFR,,,,,,,,,,,,METAR,166.0
KROA 021954Z 10011G17KT 10SM FEW070 30/12 A2994 RMK AO2 SLP128 T03000117,KROA,2023-06-02T19:54:00Z,37.32,-79.97,30.0,11.7,100,11,17,10.0,29.940945,1012.8,,,TRUE,,,,,,,FEW,7000,,,,,,,VFR,,,,,,,,,,,,METAR,349.0
KRKS 021954Z AUTO 26008KT 10SM SCT015 BKN028 OVC034 11/08 A3004 RMK AO2 SLP127 T01110078,KRKS,2023-06-02T19:54:00Z,41.6,-109.07,11.1,7.8,260,8,,10.0,30.041338,1012.7,,TRUE,TRUE,,,,,,,SCT,1500,BKN,2800,OVC,3400,,,MVFR,,,,,,,,,,,,METAR,2062.0
KRIC 021954Z 07009KT 10SM SCT250 30/11 A2988 RMK AO2 SLP121 T03000106,KRIC,2023-06-02T19:54:00Z,37.52,-77.32,30.0,10.6,70,9,,10.0,29.878937,1012.1,,,TRUE,,,,,,,SCT,25000,,,,,,,VFR,,,,,,,,,,,,METAR,51.0
KRFD 021954Z VRB06KT 10SM FEW060 FEW250 32/16 A3003 RMK AO2 LTG DSNT NW SLP162 CB DSNT NW MOV NW T03220156 $,KRFD,2023-06-02T19:54:00Z,42.2,-89.1,32.2,15.6,0,6,,10.0,30.029528,1016.2,,,TRUE,TRUE,,,,,,FEW,6000,FEW,25000,,,,,VFR,,,,,,,,,,,,METAR,222.0
KRDG 021954Z VRB03KT 10SM FEW120 34/10 A2984 RMK AO2 RAE1858 SLP108 P0000 T03440100,KRDG,2023-06-02T19:54:00Z,40.37,-75.97,34.4,10.0,0,3,,10.0,29.840551,1010.8,,,TRUE,,,,,,,FEW,12000,,,,,,,VFR,,,,,,0.005,,,,,,METAR,101.0
KRBL 021954Z AUTO 08006KT 10SM CLR 29/08 A2993 RMK AO2 SLP131 T02890078,KRBL,2023-06-02T19:54:00Z,40.15,-122.25,28.9,7.8,80,6,,10.0,29.929134,1013.1,,TRUE,TRUE,,,,,,,CLR,,,,,,,,VFR,,,,,,,,,,,,METAR,107.0
KPTW 021954Z AUTO 02003KT 10SM FEW100 32/11 A2986 RMK AO2 SLP105 T03220106,KPTW,2023-06-02T19:54:00Z,40.23,-75.55,32.2,10.6,20,3,,10.0,29.861221,1010.5,,TRUE,TRUE,,,,,,,FEW,10000,,,,,,,VFR,,,,,,,,,,,,METAR,88.0
KPSF 021954Z AUTO 06005KT 10SM VCTS -RA SCT110 26/14 A2989 RMK AO2 WSHFT 1907 LTG DSNT N AND NE RAB13 TSE1858 SLP098 P0000 T02610139,KPSF,2023-06-02T19:54:00Z,42.43,-73.28,26.1,13.9,60,5,,10.0,29.890747,1009.8,,TRUE,TRUE,,,,,,VCTS -RA,SCT,11000,,,,,,,VFR,,,,,,0.005,,,,,,METAR,352.0
KPNE 021954Z 14006KT 10SM CLR 34/14 A2984 RMK AO2 SLP102 T03440139,KPNE,2023-06-02T19:54:00Z,40.08,-75.02,34.4,13.9,140,6,,10.0,29.840551,1010.2,,,TRUE,,,,,,,CLR,,,,,,,,VFR,,,,,,,,,,,,METAR,32.0
KPLN 021954Z AUTO 11009KT 10SM CLR 32/09 A3010 RMK AO2 SLP190 T03170089,KPLN,2023-06-02T19:54:00Z,45.57,-84.8,31.7,8.9,110,9,,10.0,30.100393,1019.0,,TRUE,TRUE,,,,,,,CLR,,,,,,,,VFR,,,,,,,,,,,,METAR,215.0
KPIA 021954Z 09007G14KT 10SM CLR 33/09 A2999 RMK AO2 SLP148 T03330094,KPIA,2023-06-02T19:54:00Z,40.67,-89.68,33.3,9.4,90,7,14,10.0,29.991142,1014.8,,,TRUE,,,,,,,CLR,,,,,,,,VFR,,,,,,,,,,,,METAR,200.0
KPHL 021954Z 09007KT 10SM FEW090 34/12 A2983 RMK AO2 SLP099 T03440122,KPHL,2023-06-02T19:54:00Z,39.87,-75.23,34.4,12.2,90,7,,10.0,29.828741,1009.9,,,TRUE,,,,,,,FEW,9000,,,,,,,VFR,,,,,,,,,,,,METAR,2.0
KPHF 021954Z AUTO 09006G15KT 10SM CLR 26/17 A2988 RMK AO2 SLP118 T02610167,KPHF,2023-06-02T19:54:00Z,37.13,-76.5,26.1,16.7,90,6,15,10.0,29.878937,1011.8,,TRUE,TRUE,,,,,,,CLR,,,,,,,,VFR,,,,,,,,,,,,METAR,12.0
KORH 021954Z COR 28008KT 10SM -RA BKN100 21/16 A2989 RMK AO2 LTG DSNT S RAB03 TSE52 SLP117 P0003 T02110161,KORH,2023-06-02T19:54:00Z,42.27,-71.87,21.1,16.1,280,8,,10.0,29.890747,1011.7,TRUE,,TRUE,,,,,,-RA,BKN,10000,,,,,,,VFR,,,,,,0.03,,,,,,METAR,306.0
KOLS 021954Z AUTO 23006KT 10SM CLR 28/M03 A2998 RMK AO2 SLP089 T02831033 $,KOLS,2023-06-02T19:54:00Z,31.42,-110.85,28.3,-3.3,230,6,,10.0,29.97933,1008.9,,TRUE,TRUE,TRUE,,,,,,CLR,,,,,,,,VFR,,,,,,,,,,,,METAR,1194.0
KOLM 021954Z 31005KT 10SM CLR 19/07 A3011 RMK AO2 SLP197 T01940072,KOLM,2023-06-02T19:54:00Z,46.97,-122.9,19.4,7.2,310,5,,10.0,30.109253,1019.7,,,TRUE,,,,,,,CLR,,,,,,,,VFR,,,,,,,,,,,,METAR,58.0
KOFP 021954Z AUTO 10SM CLR 31/13 A2989 RMK AO2 SLP119 T03060133,KOFP,2023-06-02T19:54:00Z,37.7,-77.43,30.6,13.3,,,,10.0,29.890747,1011.9,,TRUE,TRUE,,,,,,,CLR,,,,,,,,VFR,,,,,,,,,,,,METAR,63.0
KNAK 021954Z AUTO 12009KT 10SM CLR 26/18 A2985 RMK AO2 SLP111 T02610183,KNAK,2023-06-02T19:54:00Z,38.98,-76.48,26.1,18.3,120,9,,10.0,29.84941,1011.1,,TRUE,TRUE,,,,,,,CLR,,,,,,,,VFR,,,,,,,,,,,,METAR,2.0
KMVL 021954Z AUTO 35010G17KT 10SM CLR 32/13 A2989 RMK AO2 SLP120 T03170133,KMVL,2023-06-02T19:54:00Z,44.53,-72.62,31.7,13.3,350,10,17,10.0,29.890747,1012.0,,TRUE,TRUE,,,,,,,CLR,,,,,,,,VFR,,,,,,,,,,,,METAR,226.0
KMTP 021954Z AUTO VRB03KT 23/15 A2988 RMK AO1 SLP119 T02330150 ,KMTP,2023-06-02T19:54:00Z,41.07,-71.92,23.3,15.0,0,3,,,29.878937,1011.9,,TRUE,TRUE,,,,,,,,,,,,,,,,,,,,,,,,,,,METAR,2.0
KMRY 021954Z 30011KT 10SM SCT023 14/09 A3004 RMK AO2 SLP183 T01440089,KMRY,2023-06-02T19:54:00Z,36.58,-121.85,14.4,8.9,300,11,,10.0,30.041338,1018.3,,,TRUE,,,,,,,SCT,2300,,,,,,,VFR,,,,,,,,,,,,METAR,51.0
KMOT 021954Z 09010KT 10SM -TSRA FEW070 SCT085 SCT120 29/18 A2990 RMK AO2 LTG DSNT E AND SW RAB48 TSB52 SLP116 SE TS SE MOV NW P0000 T02940183,KMOT,2023-06-02T19:54:00Z,48.25,-101.27,29.4,18.3,90,10,,10.0,29.899607,1011.6,,,TRUE,,,,,,-TSRA,FEW,7000,SCT,8500,SCT,12000,,,VFR,,,,,,0.005,,,,,,METAR,507.0
KMKC 021954Z 13009KT 10SM CLR 31/18 A2993 RMK AO2 SLP128 T03110178,KMKC,2023-06-02T19:54:00Z,39.12,-94.6,31.1,17.8,130,9,,10.0,29.929134,1012.8,,,TRUE,,,,,,,CLR,,,,,,,,VFR,,,,,,,,,,,,METAR,228.0
KMIV 021954Z AUTO VRB06KT 10SM CLR 30/15 A2984 RMK AO2 SLP105 T03000150,KMIV,2023-06-02T19:54:00Z,39.37,-75.08,30.0,15.0,0,6,,10.0,29.840551,1010.5,,TRUE,TRUE,,,,,,,CLR,,,,,,,,VFR,,,,,,,,,,,,METAR,18.0
KMGJ 021954Z AUTO 31009KT 10SM VCTS CLR 27/14 A2985 RMK AO2 LTG DSNT SW-N TSB36E53 SLP106 T02670144,KMGJ,2023-06-02T19:54:00Z,41.52,-74.27,26.7,14.4,310,9,,10.0,29.84941,1010.6,,TRUE,TRUE,,,,,,VCTS,CLR,,,,,,,,VFR,,,,,,,,,,,,METAR,106.0
KMFI 021954Z AUTO 09005KT 10SM FEW070 31/16 A3006 RMK AO2 LTG DSNT N SLP172 T03110161,KMFI,2023-06-02T19:54:00Z,44.63,-90.18,31.1,16.1,90,5,,10.0,30.059055,1017.2,,TRUE,TRUE,,,,,,,FEW,7000,,,,,,,VFR,,,,,,,,,,,,METAR,383.0
KMEM 021954Z 05005KT 10SM SCT060 SCT080 32/16 A2990 RMK AO2 LTG DSNT N SLP119 T03220156,KMEM,2023-06-02T19:54:00Z,35.07,-89.98,32.2,15.6,50,5,,10.0,29.899607,1011.9,,,TRUE,,,,,,,SCT,6000,SCT,8000,,,,,VFR,,,,,,,,,,,,METAR,78.0
KLYH 021954Z 07009G16KT 10SM CLR 29/12 A2992 RMK AO2 SLP121 T02940117,KLYH,2023-06-02T19:54:00Z,37.32,-79.2,29.4,11.7,70,9,16,10.0,29.920275,1012.1,,,TRUE,,,,,,,CLR,,,,,,,,VFR,,,,,,,,,,,,METAR,282.0
KLWT 021954Z AUTO 36011KT 3SM RA BR OVC003 13/12 A3001 RMK AO2 CIG 002V007 SLP146 P0015 T01280122,KLWT,2023-06-02T19:54:00Z,47.05,-109.47,12.8,12.2,360,11,,3.0,30.008858,1014.6,,TRUE,TRUE,,,,,,RA BR,OVC,300,,,,,,,LIFR,,,,,,0.15,,,,,,METAR,1254.0
KLWM 021954Z 09007KT 10SM CLR 31/16 A2983 RMK AO2 LTG DSNT SW-NW SLP101 T03110161 $,KLWM,2023-06-02T19:54:00Z,42.72,-71.13,31.1,16.1,90,7,,10.0,29.828741,1010.1,,,TRUE,TRUE,,,,,,CLR,,,,,,,,VFR,,,,,,,,,,,,METAR,42.0
KLNK 021954Z 19006G16KT 10SM CLR 31/16 A2993 RMK AO2 LTG DSNT NE AND E SLP122 T03110156,KLNK,2023-06-02T19:54:00Z,40.85,-96.77,31.1,15.6,190,6,16,10.0,29.929134,1012.2,,,TRUE,,,,,,,CLR,,,,,,,,VFR,,,,,,,,,,,,METAR,357.0
KLEX 021954Z 04010KT 10SM CLR 33/07 A2996 RMK AO2 SLP135 T03280072,KLEX,2023-06-02T19:54:00Z,38.03,-84.6,32.8,7.2,40,10,,10.0,29.958662,1013.5,,,TRUE,,,,,,,CLR,,,,,,,,VFR,,,,,,,,,,,,METAR,294.0
KLAF 021954Z 09010G18KT 10SM CLR 32/06 A2998 RMK AO2 SLP148 T03220056,KLAF,2023-06-02T19:54:00Z,40.42,-86.93,32.2,5.6,90,10,18,10.0,29.97933,1014.8,,,TRUE,,,,,,,CLR,,,,,,,,VFR,,,,,,,,,,,,METAR,182.0
KJST 021954Z AUTO 06007G14KT 10SM CLR 28/07 A3000 RMK AO2 SLP143 T02830067,KJST,2023-06-02T19:54:00Z,40.32,-78.83,28.3,6.7,60,7,14,10.0,30.0,1014.3,,TRUE,TRUE,,,,,,,CLR,,,,,,,,VFR,,,,,,,,,,,,METAR,695.0
KJAN 021954Z 01006KT 10SM FEW049 SCT100 BKN120 31/18 A2989 RMK AO2 SLP115 T03110183,KJAN,2023-06-02T19:54:00Z,32.32,-90.08,31.1,18.3,10,6,,10.0,29.890747,1011.5,,,TRUE,,,,,,,FEW,4900,SCT,10000,BKN,12000,,,VFR,,,,,,,,,,,,METAR,92.0
KISW 021954Z AUTO 13006KT 10SM FEW070 32/14 A3006 RMK AO2 SLP173 T03170139,KISW,2023-06-02T19:54:00Z,44.37,-89.83,31.7,13.9,130,6,,10.0,30.059055,1017.3,,TRUE,TRUE,,,,,,,FEW,7000,,,,,,,VFR,,,,,,,,,,,,METAR,311.0
KIPT 021954Z 04007KT 10SM FEW100 35/09 A2987 RMK AO2 SLP111 T03500094,KIPT,2023-06-02T19:54:00Z,41.25,-76.92,35.0,9.4,40,7,,10.0,29.870079,1011.1,,,TRUE,,,,,,,FEW,10000,,,,,,,VFR,,,,,,,,,,,,METAR,160.0
KINT 021954Z 06011G18KT 10SM CLR 29/10 A2991 RMK AO2 SLP119 T02890100,KINT,2023-06-02T19:54:00Z,36.13,-80.22,28.9,10.0,60,11,18,10.0,29.911417,1011.9,,,TRUE,,,,,,,CLR,,,,,,,,VFR,,,,,,,,,,,,METAR,292.0
KINL 021954Z AUTO 14007G14KT 10SM FEW120 28/17 A3005 RMK AO2 SLP172 T02830167,KINL,2023-06-02T19:54:00Z,48.57,-93.4,28.3,16.7,140,7,14,10.0,30.050198,1017.2,,TRUE,TRUE,,,,,,,FEW,12000,,,,,,,VFR,,,,,,,,,,,,METAR,353.0
KIND 021954Z 02011G18KT 10SM CLR 32/09 A2998 RMK AO2 SLP145 T03170089,KIND,2023-06-02T19:54:00Z,39.72,-86.27,31.7,8.9,20,11,18,10.0,29.97933,1014.5,,,TRUE,,,,,,,CLR,,,,,,,,VFR,,,,,,,,,,,,METAR,242.0
KIMT 021954Z AUTO 09007KT 060V130 10SM BKN090 32/11 A3008 RMK AO2 SLP182 T03170106,KIMT,2023-06-02T19:54:00Z,45.82,-88.12,31.7,10.6,90,7,,10.0,30.079725,1018.2,,TRUE,TRUE,,,,,,,BKN,9000,,,,,,,VFR,,,,,,,,,,,,METAR,343.0
KILN 021954Z AUTO 05012G16KT 9SM CLR 32/10 A2996 RMK AO2 SLP136 T03170100,KILN,2023-06-02T19:54:00Z,39.43,-83.8,31.7,10.0,50,12,16,9.0,29.958662,1013.6,,TRUE,TRUE,,,,,,,CLR,,,,,,,,VFR,,,,,,,,,,,,METAR,325.0
KHWD 021954Z 27008KT 10SM CLR 19/09 A3000 RMK AO2 SLP169 T01890094,KHWD,2023-06-02T19:54:00Z,37.67,-122.12,18.9,9.4,270,8,,10.0,30.0,1016.9,,,TRUE,,,,,,,CLR,,,,,,,,VFR,,,,,,,,,,,,METAR,9.0
KGSO 021954Z 04014KT 10SM BKN250 28/09 A2990 RMK AO2 SLP114 T02830089,KGSO,2023-06-02T19:54:00Z,36.1,-79.95,28.3,8.9,40,14,,10.0,29.899607,1011.4,,,TRUE,,,,,,,BKN,25000,,,,,,,VFR,,,,,,,,,,,,METAR,275.0
KGED 021954Z AUTO 10006KT 10SM CLR 31/10 A2986 RMK AO2 SLP111 T03110100,KGED,2023-06-02T19:54:00Z,38.68,-75.37,31.1,10.0,100,6,,10.0,29.861221,1011.1,,TRUE,TRUE,,,,,,,CLR,,,,,,,,VFR,,,,,,,,,,,,METAR,15.0
KGCN 021954Z VRB05KT 10SM BKN080 BKN110 22/M01 A3010 RMK AO2 SLP105 T02171006,KGCN,2023-06-02T19:54:00Z,35.95,-112.15,21.7,-0.6,0,5,,10.0,30.100393,1010.5,,,TRUE,,,,,,,BKN,8000,BKN,11000,,,,,VFR,,,,,,,,,,,,METAR,1993.0
KGCK 021954Z 16010G21KT 10SM CLR 23/17 A2990 RMK AO2 SLP100 T02330172,KGCK,2023-06-02T19:54:00Z,37.92,-100.72,23.3,17.2,160,10,21,10.0,29.899607,1010.0,,,TRUE,,,,,,,CLR,,,,,,,,VFR,,,,,,,,,,,,METAR,877.0
KFZY 021954Z AUTO 33009KT 10SM CLR 29/17 A2995 RMK AO2 SLP138 T02940167,KFZY,2023-06-02T19:54:00Z,43.35,-76.38,29.4,16.7,330,9,,10.0,29.949802,1013.8,,TRUE,TRUE,,,,,,,CLR,,,,,,,,VFR,,,,,,,,,,,,METAR,143.0
KFWA 021954Z 03008G17KT 10SM FEW090 FEW300 33/08 A3001 RMK AO2 SLP158 T03280083,KFWA,2023-06-02T19:54:00Z,40.98,-85.2,32.8,8.3,30,8,17,10.0,30.008858,1015.8,,,TRUE,,,,,,,FEW,9000,FEW,30000,,,,,VFR,,,,,,,,,,,,METAR,243.0
KFIG 021954Z AUTO VRB06KT 10SM CLR 33/09 A2997 RMK AO2 SLP138 T03280089,KFIG,2023-06-02T19:54:00Z,41.05,-78.42,32.8,8.9,0,6,,10.0,29.970472,1013.8,,TRUE,TRUE,,,,,,,CLR,,,,,,,,VFR,,,,,,,,,,,,METAR,461.0
KFFZ 021954Z 25005KT 10SM CLR 31/04 A2987 RMK AO2 SLP090 T03060044,KFFZ,2023-06-02T19:54:00Z,33.47,-111.72,30.6,4.4,250,5,,10.0,29.870079,1009.0,,,TRUE,,,,,,,CLR,,,,,,,,VFR,,,,,,,,,,,,METAR,420.0
KEWN 021954Z 04012KT 10SM FEW027 FEW035 OVC055 26/19 A2986 RMK AO2 SLP110 T02610194,KEWN,2023-06-02T19:54:00Z,35.07,-77.05,26.1,19.4,40,12,,10.0,29.861221,1011.0,,,TRUE,,,,,,,FEW,2700,FEW,3500,OVC,5500,,,VFR,,,,,,,,,,,,METAR,3.0
KEVV 021954Z 04008KT 10SM CLR 33/12 A2994 RMK AO2 SLP133 T03330122 $,KEVV,2023-06-02T19:54:00Z,38.05,-87.52,33.3,12.2,40,8,,10.0,29.940945,1013.3,,,TRUE,TRUE,,,,,,CLR,,,,,,,,VFR,,,,,,,,,,,,METAR,123.0
KEUG 021954Z 02006KT 10SM FEW250 21/08 A3010 RMK AO2 SLP194 T02110083,KEUG,2023-06-02T19:54:00Z,44.13,-123.22,21.1,8.3,20,6,,10.0,30.100393,1019.4,,,TRUE,,,,,,,FEW,25000,,,,,,,VFR,,,,,,,,,,,,METAR,109.0
KEFD 021954Z 13008KT 10SM CLR 32/19 A2987,KEFD,2023-06-02T19:54:00Z,29.6,-95.17,32.0,19.0,130,8,,10.0,29.870079,,,,,,,,,,,CLR,,,,,,,,VFR,,,,,,,,,,,,METAR,9.0
KECG 021954Z 03011KT 10SM BKN019 25/19 A2987 RMK AO2 SLP114 T02500194,KECG,2023-06-02T19:54:00Z,36.27,-76.18,25.0,19.4,30,11,,10.0,29.870079,1011.4,,,TRUE,,,,,,,BKN,1900,,,,,,,MVFR,,,,,,,,,,,,METAR,2.0
KDYL 021954Z AUTO 18005KT 10SM CLR 32/13 A2984 RMK AO2 RAB1858E11 TSB12E34 SLP100 P0000 T03170133,KDYL,2023-06-02T19:54:00Z,40.33,-75.12,31.7,13.3,180,5,,10.0,29.840551,1010.0,,TRUE,TRUE,,,,,,,CLR,,,,,,,,VFR,,,,,,0.005,,,,,,METAR,121.0
KDSV 021954Z AUTO 33013G20KT 10SM CLR 33/11 A2995 RMK AO2 SLP147 T03330111,KDSV,2023-06-02T19:54:00Z,42.57,-77.72,33.3,11.1,330,13,20,10.0,29.949802,1014.7,,TRUE,TRUE,,,,,,,CLR,,,,,,,,VFR,,,,,,,,,,,,METAR,195.0
KDSM 021954Z 16020G28KT 10SM -TSRA SCT047CB BKN150 BKN250 28/18 A2999 RMK AO2 PK WND 16028/1954 SLP148 OCNL LTGICCC SE-S RAB50 TSB24 TS SE-S MOV NW TCU ALQDS P0000 T02780183,KDSM,2023-06-02T19:54:00Z,41.53,-93.67,27.8,18.3,160,20,28,10.0,29.991142,1014.8,,,TRUE,,,,,,-TSRA,SCT,4700,BKN,15000,BKN,25000,,,VFR,,,,,,0.005,,,,,,METAR,286.0
KDMH 021954Z AUTO 34/13 A2984 RMK AO1 SLP106 P0001 T03390133 ,KDMH,2023-06-02T19:54:00Z,39.28,-76.62,33.9,13.3,,,,,29.840551,1010.6,,TRUE,TRUE,,,,,,,,,,,,,,,,,,,,,0.01,,,,,,METAR,4.0
KDEC 021954Z 08011G16KT 10SM CLR 34/10 A2998 RMK AO2 SLP145 T03390100,KDEC,2023-06-02T19:54:00Z,39.83,-88.87,33.9,10.0,80,11,16,10.0,29.97933,1014.5,,,TRUE,,,,,,,CLR,,,,,,,,VFR,,,,,,,,,,,,METAR,205.0
KDDH 021954Z AUTO 34010G16KT 10SM VCTS BKN100 32/15 A2988 RMK AO2 LTG DSNT SE AND S TSB27E42 SLP113 T03170150,KDDH,2023-06-02T19:54:00Z,42.9,-73.25,31.7,15.0,340,10,16,10.0,29.878937,1011.3,,TRUE,TRUE,,,,,,VCTS,BKN,10000,,,,,,,VFR,,,,,,,,,,,,METAR,241.0
KCRW 021954Z 01007G14KT 340V060 10SM FEW090 31/09 A2994 RMK AO2 SLP131 T03060094 $,KCRW,2023-06-02T19:54:00Z,38.38,-81.58,30.6,9.4,10,7,14,10.0,29.940945,1013.1,,,TRUE,TRUE,,,,,,FEW,9000,,,,,,,VFR,,,,,,,,,,,,METAR,278.0
KCOU 021954Z 05005KT 10SM BKN060 BKN120 32/17 A2996 RMK AO2 LTG DSNT ALQDS SLP136 T03170167,KCOU,2023-06-02T19:54:00Z,38.82,-92.22,31.7,16.7,50,5,,10.0,29.958662,1013.6,,,TRUE,,,,,,,BKN,6000,BKN,12000,,,,,VFR,,,,,,,,,,,,METAR,272.0
KCOS 021954Z 14011KT 10SM FEW090 BKN200 BKN250 21/01 A2995 RMK AO2 PK WND 18026/1912 SLP075 T02110006,KCOS,2023-06-02T19:54:00Z,38.82,-104.68,21.1,0.6,140,11,,10.0,29.949802,1007.5,,,TRUE,,,,,,,FEW,9000,BKN,20000,BKN,25000,,,VFR,,,,,,,,,,,,METAR,1886.0
KCEU 021954Z AUTO 08008KT 10SM CLR 29/13 A2989 RMK AO2 SLP110 T02940133,KCEU,2023-06-02T19:54:00Z,34.67,-82.88,29.4,13.3,80,8,,10.0,29.890747,1011.0,,TRUE,TRUE,,,,,,,CLR,,,,,,,,VFR,,,,,,,,,,,,METAR,270.0
KCAR 021954Z AUTO 09007KT 10SM BKN015 OVC027 12/09 A3006 RMK AO2 RAE05 SLP185 P0000 T01220094,KCAR,2023-06-02T19:54:00Z,46.87,-68.02,12.2,9.4,90,7,,10.0,30.059055,1018.5,,TRUE,TRUE,,,,,,,BKN,1500,OVC,2700,,,,,MVFR,,,,,,0.005,,,,,,METAR,189.0
KBWI 021954Z 01006KT 10SM FEW040 36/11 A2984 RMK AO2 SLP102 HZ DSNT ALQDS T03560106,KBWI,2023-06-02T19:54:00Z,39.17,-76.68,35.6,10.6,10,6,,10.0,29.840551,1010.2,,,TRUE,,,,,,,FEW,4000,,,,,,,VFR,,,,,,,,,,,,METAR,42.0
KBUY 021954Z AUTO 03007KT 10SM CLR 29/12 A2989 RMK AO2 SLP116 T02890117,KBUY,2023-06-02T19:54:00Z,36.05,-79.47,28.9,11.7,30,7,,10.0,29.890747,1011.6,,TRUE,TRUE,,,,,,,CLR,,,,,,,,VFR,,,,,,,,,,,,METAR,185.0
KBUF 021954Z 34010KT 10SM FEW001 FEW065 FEW170 SCT250 BKN300 32/13 A2997 RMK AO2 SLP145 FU FEW001 FU PLUME DSNT N CB DSNT N MOV S MDT CU DSNT S T03220133,KBUF,2023-06-02T19:54:00Z,42.93,-78.73,32.2,13.3,340,10,,10.0,29.970472,1014.5,,,TRUE,,,,,,,FEW,100,FEW,6500,FEW,17000,SCT,25000,VFR,,,,,,,,,,,,METAR,217.0
KBTV 021954Z 35011KT 10SM FEW070 FEW100 32/14 A2988 RMK AO2 SLP116 T03220144,KBTV,2023-06-02T19:54:00Z,44.47,-73.15,32.2,14.4,350,11,,10.0,29.878937,1011.6,,,TRUE,,,,,,,FEW,7000,FEW,10000,,,,,VFR,,,,,,,,,,,,METAR,101.0
KBOS 021954Z 10009KT 10SM FEW080 FEW220 FEW250 25/17 A2983 RMK AO2 LTG DSNT W AND NW SLP102 TCU DSNT SW-NW T02500167,KBOS,2023-06-02T19:54:00Z,42.37,-71.02,25.0,16.7,100,9,,10.0,29.828741,1010.2,,,TRUE,,,,,,,FEW,8000,FEW,22000,FEW,25000,,,VFR,,,,,,,,,,,,METAR,4.0
KBFL 021954Z 28009KT 7SM CLR 28/09 A2992 RMK AO2 SLP128 T02780089,KBFL,2023-06-02T19:54:00Z,35.43,-119.05,27.8,8.9,280,9,,7.0,29.920275,1012.8,,,TRUE,,,,,,,CLR,,,,,,,,VFR,,,,,,,,,,,,METAR,146.0
KAVP 021954Z VRB05KT 10SM FEW037 32/11 A2989 RMK AO2 LTG DSNT NW-E RAB44E53 SLP111 P0000 T03170106,KAVP,2023-06-02T19:54:00Z,41.33,-75.72,31.7,10.6,0,5,,10.0,29.890747,1011.1,,,TRUE,,,,,,,FEW,3700,,,,,,,VFR,,,,,,0.005,,,,,,METAR,290.0
KAVL 021954Z AUTO VRB03KT 10SM BKN060 28/13 A2995 RMK AO2 SLP116 T02780133,KAVL,2023-06-02T19:54:00Z,35.43,-82.53,27.8,13.3,0,3,,10.0,29.949802,1011.6,,TRUE,TRUE,,,,,,,BKN,6000,,,,,,,VFR,,,,,,,,,,,,METAR,646.0
KAUW 021954Z AUTO 04013KT 10SM -TSRA FEW042 SCT065 SCT120 23/17 A3010 RMK AO2 LTG DSNT W RAB39 TSB1857E12B19 SLP190 P0000 T02280167,KAUW,2023-06-02T19:54:00Z,44.93,-89.62,22.8,16.7,40,13,,10.0,30.100393,1019.0,,TRUE,TRUE,,,,,,-TSRA,FEW,4200,SCT,6500,SCT,12000,,,VFR,,,,,,0.005,,,,,,METAR,367.0
KAPN 021954Z AUTO 06005KT 10SM CLR 32/08 A3009 RMK AO2 SLP187 T03170083,KAPN,2023-06-02T19:54:00Z,45.07,-83.57,31.7,8.3,60,5,,10.0,30.088583,1018.7,,TRUE,TRUE,,,,,,,CLR,,,,,,,,VFR,,,,,,,,,,,,METAR,208.0
KAPC 021954Z 20009KT 10SM HZ CLR 20/11 A2999 RMK AO2 SLP146 T02000111,KAPC,2023-06-02T19:54:00Z,38.2,-122.28,20.0,11.1,200,9,,10.0,29.991142,1014.6,,,TRUE,,,,,,HZ,CLR,,,,,,,,VFR,,,,,,,,,,,,METAR,5.0
KALO 021954Z 13004KT 10SM CLR 32/18 A3000 RMK AO2 LTG DSNT SE AND S SLP151 T03170183,KALO,2023-06-02T19:54:00Z,42.55,-92.4,31.7,18.3,130,4,,10.0,30.0,1015.1,,,TRUE,,,,,,,CLR,,,,,,,,VFR,,,,,,,,,,,,METAR,264.0
KAKR 021954Z AUTO 05014G19KT 10SM CLR 32/09 A2998 RMK AO2 SLPNO T03170089,KAKR,2023-06-02T19:54:00Z,41.03,-81.47,31.7,8.9,50,14,19,10.0,29.97933,,,TRUE,TRUE,,,,,,,CLR,,,,,,,,VFR,,,,,,,,,,,,METAR,319.0
KAKQ 021954Z AUTO VRB04KT 10SM FEW050 29/16 A2987 RMK AO2 SLP114 T02890161,KAKQ,2023-06-02T19:54:00Z,36.98,-77.0,28.9,16.1,0,4,,10.0,29.870079,1011.4,,TRUE,TRUE,,,,,,,FEW,5000,,,,,,,VFR,,,,,,,,,,,,METAR,34.0
KAKH 021954Z AUTO 01011KT 10SM CLR 29/11 A2989 RMK AO2 SLP115 T02890106,KAKH,2023-06-02T19:54:00Z,35.2,-81.15,28.9,10.6,10,11,,10.0,29.890747,1011.5,,TRUE,TRUE,,,,,,,CLR,,,,,,,,VFR,,,,,,,,,,,,METAR,242.0
KACY 021954Z 14008KT 10SM CLR 28/07 A2986 RMK AO2 SLP111 T02780072,KACY,2023-06-02T19:54:00Z,39.45,-74.57,27.8,7.2,140,8,,10.0,29.861221,1011.1,,,TRUE,,,,,,,CLR,,,,,,,,VFR,,,,,,,,,,,,METAR,18.0
KAAO 021954Z AUTO 17012G20KT 10SM FEW055 30/17 A2993 RMK AO2 LTG DSNT NW SLP121 T03000167,KAAO,2023-06-02T19:54:00Z,37.75,-97.22,30.0,16.7,170,12,20,10.0,29.929134,1012.1,,TRUE,TRUE,,,,,,,FEW,5500,,,,,,,VFR,,,,,,,,,,,,METAR,429.0
K1V4 021954Z AUTO 31/13 A2985 RMK AO1 SLP097 T03110133 ,K1V4,2023-06-02T19:54:00Z,44.42,-72.02,31.1,13.3,,,,,29.84941,1009.7,,TRUE,TRUE,,,,,,,,,,,,,,,,,,,,,,,,,,,METAR,213.0
K12N 021954Z AUTO 00000KT 35/13 A2987 RMK AO1 SLP103 T03500133 ,K12N,2023-06-02T19:54:00Z,41.02,-74.73,35.0,13.3,0,0,,,29.870079,1010.3,,TRUE,TRUE,,,,,,,,,,,,,,,,,,,,,,,,,,,METAR,178.0
CYQM 021954Z 02016KT 4SM -RA BR OVC006 08/07 A3005 RMK ST8 SLP179,CYQM,2023-06-02T19:54:00Z,46.12,-64.67,8.0,7.0,20,16,,4.0,30.050198,1017.9,,,,,,,,,-RA BR,OVC,600,,,,,,,IFR,,,,,,,,,,,,METAR,67.0
TJNR 021953Z AUTO 17013KT 10SM OVC019 30/26 A2987 RMK AO2 SLP115 T03000256,TJNR,2023-06-02T19:53:00Z,18.25,-65.63,30.0,25.6,170,13,,10.0,29.870079,1011.5,,TRUE,TRUE,,,,,,,OVC,1900,,,,,,,MVFR,,,,,,,,,,,,METAR,7.0
TISX 021953Z 13010KT 10SM OVC019 31/24 A2988 RMK AO2 SLP115 T03060244,TISX,2023-06-02T19:53:00Z,17.7,-64.8,30.6,24.4,130,10,,10.0,29.878937,1011.5,,,TRUE,,,,,,,OVC,1900,,,,,,,MVFR,,,,,,,,,,,,METAR,16.0
TIST 021953Z 14013KT 10SM CLR 30/24 A2986,TIST,2023-06-02T19:53:00Z,18.33,-64.98,30.0,24.0,140,13,,10.0,29.861221,,,,,,,,,,,CLR,,,,,,,,VFR,,,,,,,,,,,,METAR,5.0
PHTO 021953Z 33006KT 10SM SCT026 BKN042 OVC065 26/21 A3013 RMK AO2 SLP203 T02610206 $,PHTO,2023-06-02T19:53:00Z,19.72,-155.05,26.1,20.6,330,6,,10.0,30.129921,1020.3,,,TRUE,TRUE,,,,,,SCT,2600,BKN,4200,OVC,6500,,,VFR,,,,,,,,,,,,METAR,9.0
PHNL 021953Z 03012G21KT 10SM FEW025 FEW040 SCT200 28/18 A3012 RMK AO2 SLP199 T02780183,PHNL,2023-06-02T19:53:00Z,21.33,-157.93,27.8,18.3,30,12,21,10.0,30.121063,1019.9,,,TRUE,,,,,,,FEW,2500,FEW,4000,SCT,20000,,,VFR,,,,,,,,,,,,METAR,2.0
PHLI 021953Z 06013KT 10SM FEW020 BKN032 BKN039 27/21 A3016 RMK AO2 SLP210 T02670211,PHLI,2023-06-02T19:53:00Z,21.97,-159.33,26.7,21.1,60,13,,10.0,30.159449,1021.0,,,TRUE,,,,,,,FEW,2000,BKN,3200,BKN,3900,,,VFR,,,,,,,,,,,,METAR,32.0
PHKO 021953Z 19009KT 10SM SCT033 BKN043 25/21 A3010 RMK AO2 SLP191 T02500211,PHKO,2023-06-02T19:53:00Z,19.73,-156.05,25.0,21.1,190,9,,10.0,30.100393,1019.1,,,TRUE,,,,,,,SCT,3300,BKN,4300,,,,,VFR,,,,,,,,,,,,METAR,11.0
PHJR 021953Z VRB06KT 10SM SCT034 28/18 A3013 RMK AO2 SLP210 T02780183,PHJR,2023-06-02T19:53:00Z,21.32,-158.07,27.8,18.3,0,6,,10.0,30.129921,1021.0,,,TRUE,,,,,,,SCT,3400,,,,,,,VFR,,,,,,,,,,,,METAR,9.0
PAYA 021953Z AUTO VRB04KT 10SM FEW050 OVC075 13/02 A3002 RMK AO2 RAB01E10 SLP166 P0000 T01280022 TSNO,PAYA,2023-06-02T19:53:00Z,59.52,-139.67,12.8,2.2,0,4,,10.0,30.02067,1016.6,,TRUE,TRUE,,,TRUE,,,,FEW,5000,OVC,7500,,,,,VFR,,,,,,0.005,,,,,,METAR,9.0
PAWI 021953Z AUTO 13010KT 10SM BKN029 OVC037 M01/M04 A2967 RMK AO2 SLP047 T10061039 TSNO $,PAWI,2023-06-02T19:53:00Z,70.63,-160.02,-0.6,-3.9,130,10,,10.0,29.66929,1004.7,,TRUE,TRUE,TRUE,,TRUE,,,,BKN,2900,OVC,3700,,,,,MVFR,,,,,,,,,,,,METAR,12.0
PAWD 021953Z AUTO 18009KT 10SM -RA BKN023 BKN041 OVC050 08/05 A3001 RMK AO2 RAB1856 SLP161 P0001 T00780050 TSNO,PAWD,2023-06-02T19:53:00Z,60.12,-149.42,7.8,5.0,180,9,,10.0,30.008858,1016.1,,TRUE,TRUE,,,TRUE,,,-RA,BKN,2300,BKN,4100,OVC,5000,,,MVFR,,,,,,0.01,,,,,,METAR,3.0
PAVL 021953Z AUTO 21014KT 2 1/2SM -SN BR FEW008 BKN036 OVC045 M01/M02 A2974 RMK AO2 SLP072 P0000 T10061017 TSNO,PAVL,2023-06-02T19:53:00Z,67.73,-164.55,-0.6,-1.7,210,14,,2.5,29.740158,1007.2,,TRUE,TRUE,,,TRUE,,,-SN BR,FEW,800,BKN,3600,OVC,4500,,,IFR,,,,,,0.005,,,,,,METAR,6.0
PATO 021953Z AUTO VRB06KT 10SM -RA OVC028 06/04 A3002 RMK AO2 SLP166 P0000 T00560044 TSNO,PATO,2023-06-02T19:53:00Z,60.78,-148.85,5.6,4.4,0,6,,10.0,30.02067,1016.6,,TRUE,TRUE,,,TRUE,,,-RA,OVC,2800,,,,,,,MVFR,,,,,,0.005,,,,,,METAR,47.0
PATK 021953Z 16009KT 9SM BKN016 OVC021 07/04 A2991 RMK AO2 RAE02 SLP134 P0000 T00670039,PATK,2023-06-02T19:53:00Z,62.32,-150.1,6.7,3.9,160,9,,9.0,29.911417,1013.4,,,TRUE,,,,,,,BKN,1600,OVC,2100,,,,,MVFR,,,,,,0.005,,,,,,METAR,107.0
PASO 021953Z AUTO 19012G18KT 10SM OVC055 09/06 A2997 RMK AO2 SLP148 T00890061 TSNO,PASO,2023-06-02T19:53:00Z,59.45,-151.7,8.9,6.1,190,12,18,10.0,29.970472,1014.8,,TRUE,TRUE,,,TRUE,,,,OVC,5500,,,,,,,VFR,,,,,,,,,,,,METAR,20.0
PASN 021953Z AUTO 13015KT 4SM -RA BR FEW005 BKN011 OVC019 04/03 A2963 RMK AO2 RAB1854 SLP034 P0000 T00440033 TSNO $,PASN,2023-06-02T19:53:00Z,57.15,-170.22,4.4,3.3,130,15,,4.0,29.630905,1003.4,,TRUE,TRUE,TRUE,,TRUE,,,-RA BR,FEW,500,BKN,1100,OVC,1900,,,MVFR,,,,,,0.005,,,,,,METAR,8.0
PASI 021953Z 12006KT 10SM FEW045 BKN065 14/06 A2995 RMK AO2 SLP142 T01390056 $,PASI,2023-06-02T19:53:00Z,57.03,-135.35,13.9,5.6,120,6,,10.0,29.949802,1014.2,,,TRUE,TRUE,,,,,,FEW,4500,BKN,6500,,,,,VFR,,,,,,,,,,,,METAR,2.0
PASC 021953Z 05011KT 1SM R06/4500V5000FT -SN BR BKN010 OVC013 M02/M03 A2969 RMK AO2 SLP054 VIS 3/4V1 1/4 P0000 T10171033,PASC,2023-06-02T19:53:00Z,70.2,-148.47,-1.7,-3.3,50,11,,1.0,29.68996,1005.4,,,TRUE,,,,,,-SN BR,BKN,1000,OVC,1300,,,,,IFR,,,,,,0.005,,,,,,METAR,17.0
PAQT 021953Z AUTO 10008KT 10SM OVC014 00/M04 A2972 RMK AO2 SLP065 T00001039 $,PAQT,2023-06-02T19:53:00Z,70.22,-151.0,0.0,-3.9,100,8,,10.0,29.719488,1006.5,,TRUE,TRUE,TRUE,,,,,,OVC,1400,,,,,,,MVFR,,,,,,,,,,,,METAR,11.0
PAOT 021953Z 18012KT 10SM BKN023 OVC039 M03/M03 A2982 RMK AO2 SNE01 SLP099 P0000 T10281033,PAOT,2023-06-02T19:53:00Z,66.88,-162.6,-2.8,-3.3,180,12,,10.0,29.819881,1009.9,,,TRUE,,,,,,,BKN,2300,OVC,3900,,,,,MVFR,,,,,,0.005,,,,,,METAR,3.0
PAOR 021953Z VRB03KT 10SM FEW110 BKN200 12/M01 A2981 RMK AO2 SLP105 T01221011 $,PAOR,2023-06-02T19:53:00Z,62.97,-141.93,12.2,-1.1,0,3,,10.0,29.811024,1010.5,,,TRUE,TRUE,,,,,,FEW,11000,BKN,20000,,,,,VFR,,,,,,,,,,,,METAR,524.0
PAOM 021953Z 15007KT 10SM BKN060 01/M03 A2983 RMK AO2 SLP101 T00061028,PAOM,2023-06-02T19:53:00Z,64.5,-165.43,0.6,-2.8,150,7,,10.0,29.828741,1010.1,,,TRUE,,,,,,,BKN,6000,,,,,,,VFR,,,,,,,,,,,,METAR,6.0
PANN 021953Z AUTO VRB05KT 10SM FEW014 BKN055 OVC110 05/02 A2985 RMK AO2 RAE12 SLP116 P0000 T00500017 TSNO,PANN,2023-06-02T19:53:00Z,64.55,-149.08,5.0,1.7,0,5,,10.0,29.84941,1011.6,,TRUE,TRUE,,,TRUE,,,,FEW,1400,BKN,5500,OVC,11000,,,VFR,,,,,,0.005,,,,,,METAR,110.0
PANC 021953Z 15014G25KT 10SM OVC041 08/02 A2993 RMK AO2 SLP135 SH DSNT E T00830022,PANC,2023-06-02T19:53:00Z,61.17,-150.02,8.3,2.2,150,14,25,10.0,29.929134,1013.5,,,TRUE,,,,,,,OVC,4100,,,,,,,VFR,,,,,,,,,,,,METAR,39.0
PAMR 021953Z 00000KT 10SM OVC042 10/01 A2993 RMK AO2 SLP137 T01000011,PAMR,2023-06-02T19:53:00Z,61.22,-149.85,10.0,1.1,0,0,,10.0,29.929134,1013.7,,,TRUE,,,,,,,OVC,4200,,,,,,,VFR,,,,,,,,,,,,METAR,43.0
PAMC 021953Z AUTO 35003KT 10SM FEW018 FEW034 BKN046 06/01 A2990 RMK AO2 RAB28E42 SLP131 P0000 T00610011 TSNO,PAMC,2023-06-02T19:53:00Z,62.97,-155.62,6.1,1.1,350,3,,10.0,29.899607,1013.1,,TRUE,TRUE,,,TRUE,,,,FEW,1800,FEW,3400,BKN,4600,,,VFR,,,,,,0.005,,,,,,METAR,101.0
PALH 021953Z 17011G18KT 10SM OVC042 08/02 A2994 RMK AO2 SLP139 T00830022,PALH,2023-06-02T19:53:00Z,61.18,-149.97,8.3,2.2,170,11,18,10.0,29.940945,1013.9,,,TRUE,,,,,,,OVC,4200,,,,,,,VFR,,,,,,,,,,,,METAR,26.0
PAKW 021953Z AUTO 00000KT 10SM -RA FEW015 BKN032 OVC050 13/11 A2995 RMK AO2 SLP141 P0005 T01280106 TSNO $,PAKW,2023-06-02T19:53:00Z,55.58,-133.07,12.8,10.6,0,0,,10.0,29.949802,1014.1,,TRUE,TRUE,TRUE,,TRUE,,,-RA,FEW,1500,BKN,3200,OVC,5000,,,VFR,,,,,,0.05,,,,,,METAR,7.0
PAKV 021953Z AUTO 00000KT 10SM CLR 04/M08 A2990 RMK AO2 SLP129 T00441083 TSNO,PAKV,2023-06-02T19:53:00Z,64.33,-158.72,4.4,-8.3,0,0,,10.0,29.899607,1012.9,,TRUE,TRUE,,,TRUE,,,,CLR,,,,,,,,VFR,,,,,,,,,,,,METAR,53.0
PAKT 021953Z 15009KT 5SM -RA BR SCT025 OVC033 11/09 A3002 RMK AO2 SLP165 HARBOR WIND 12010KT P0006 T01110089,PAKT,2023-06-02T19:53:00Z,55.35,-131.72,11.1,8.9,150,9,,5.0,30.02067,1016.5,,,TRUE,,,,,,-RA BR,SCT,2500,OVC,3300,,,,,MVFR,,,,,,0.06,,,,,,METAR,27.0
PAJN 021953Z 24005KT 10SM FEW018 SCT041 OVC065 12/07 A3002 RMK AO2 SLP164 T01170067,PAJN,2023-06-02T19:53:00Z,58.35,-134.55,11.7,6.7,240,5,,10.0,30.02067,1016.4,,,TRUE,,,,,,,FEW,1800,SCT,4100,OVC,6500,,,VFR,,,,,,,,,,,,METAR,6.0
PAIL 021953Z AUTO 08005KT 10SM BKN019 OVC060 06/03 A2998 RMK AO2 SLP153 T00560028 TSNO $,PAIL,2023-06-02T19:53:00Z,59.75,-154.92,5.6,2.8,80,5,,10.0,29.97933,1015.3,,TRUE,TRUE,TRUE,,TRUE,,,,BKN,1900,OVC,6000,,,,,MVFR,,,,,,,,,,,,METAR,44.0
PAHO 021953Z 22006KT 10SM OVC049 10/04 A2998 RMK AO2 SLP151 T01000039,PAHO,2023-06-02T19:53:00Z,59.63,-151.48,10.0,3.9,220,6,,10.0,29.97933,1015.1,,,TRUE,,,,,,,OVC,4900,,,,,,,VFR,,,,,,,,,,,,METAR,6.0
PAGY 021953Z AUTO 24003KT 10SM OVC070 10/06 A2999 RMK AO2 SLP156 T01000061 TSNO,PAGY,2023-06-02T19:53:00Z,59.47,-135.32,10.0,6.1,240,3,,10.0,29.991142,1015.6,,TRUE,TRUE,,,TRUE,,,,OVC,7000,,,,,,,VFR,,,,,,,,,,,,METAR,7.0
PAFA 021953Z 20006KT 10SM -RA SCT018 BKN036 BKN050 06/02 A2985 RMK AO2 SNB05E08PLB08E21 SLP116 P0001 T00610022,PAFA,2023-06-02T19:53:00Z,64.8,-147.87,6.1,2.2,200,6,,10.0,29.84941,1011.6,,,TRUE,,,,,,-RA,SCT,1800,BKN,3600,BKN,5000,,,VFR,,,,,,0.01,,,,,,METAR,130.0
PAEN 021953Z 21018G25KT 10SM SCT080 09/04 A2993 RMK AO2 PK WND 20030/1930 SLP138 T00890044,PAEN,2023-06-02T19:53:00Z,60.57,-151.25,8.9,4.4,210,18,25,10.0,29.929134,1013.8,,,TRUE,,,,,,,SCT,8000,,,,,,,VFR,,,,,,,,,,,,METAR,30.0
PAEH 021953Z 03010G21KT 320V130 10SM CLR 08/M04 A2989 RMK AO2A SLP127 BWC LOW,PAEH,2023-06-02T19:53:00Z,58.65,-162.07,8.0,-4.0,30,10,21,10.0,29.890747,1012.7,,,TRUE,,,,,,,CLR,,,,,,,,VFR,,,,,,,,,,,,METAR,101.0
PAEG 021953Z AUTO 10SM BKN095 12/M01 A2978 RMK AO2 SLP089 T01221006 TSNO,PAEG,2023-06-02T19:53:00Z,64.78,-141.15,12.2,-0.6,,,,10.0,29.778543,1008.9,,TRUE,TRUE,,,TRUE,,,,BKN,9500,,,,,,,VFR,,,,,,,,,,,,METAR,273.0
PADQ 021953Z 10008KT 10SM CLR 10/07 A2998 RMK AO2 SLP151 T01000067,PADQ,2023-06-02T19:53:00Z,57.75,-152.5,10.0,6.7,100,8,,10.0,29.97933,1015.1,,,TRUE,,,,,,,CLR,,,,,,,,VFR,,,,,,,,,,,,METAR,5.0
PADE 021953Z AUTO 19008KT 10SM OVC042 02/M06 A2981 RMK AO2 SLP095 T00171056 TSNO $,PADE,2023-06-02T19:53:00Z,66.07,-162.77,1.7,-5.6,190,8,,10.0,29.811024,1009.5,,TRUE,TRUE,TRUE,,TRUE,,,,OVC,4200,,,,,,,VFR,,,,,,,,,,,,METAR,5.0
PACV 021953Z 23007KT 10SM OVC070 12/03 A3002 RMK AO2 SLP167 T01170033,PACV,2023-06-02T19:53:00Z,60.5,-145.47,11.7,3.3,230,7,,10.0,30.02067,1016.7,,,TRUE,,,,,,,OVC,7000,,,,,,,VFR,,,,,,,,,,,,METAR,15.0
PABT 021953Z 22012G17KT 10SM BKN024 BKN032 01/M04 A2979 RMK AO2 SLP100 T00061039 $,PABT,2023-06-02T19:53:00Z,66.92,-151.52,0.6,-3.9,220,12,17,10.0,29.790354,1010.0,,,TRUE,TRUE,,,,,,BKN,2400,BKN,3200,,,,,MVFR,,,,,,,,,,,,METAR,195.0
PABR 021953Z 09008KT 1 1/4SM R08/5500VP6000FT -SN BR SCT013 BKN019 OVC029 M02/M04 A2971 RMK AO2 SLP061 P0002 T10221044,PABR,2023-06-02T19:53:00Z,71.28,-156.78,-2.2,-4.4,90,8,,1.25,29.71063,1006.1,,,TRUE,,,,,,-SN BR,SCT,1300,BKN,1900,OVC,2900,,,IFR,,,,,,0.02,,,,,,METAR,6.0
PABI 021953Z 32007KT 10SM -RA SCT022 OVC034 04/01 A2990 RMK AO2 SLP139 P0000 T00390006,PABI,2023-06-02T19:53:00Z,64.0,-145.72,3.9,0.6,320,7,,10.0,29.899607,1013.9,,,TRUE,,,,,,-RA,SCT,2200,OVC,3400,,,,,VFR,,,,,,0.005,,,,,,METAR,388.0
PABE 021953Z 20010KT 10SM OVC014 04/01 A2990 RMK AO2 SLP125 T00390011,PABE,2023-06-02T19:53:00Z,60.78,-161.83,3.9,1.1,200,10,,10.0,29.899607,1012.5,,,TRUE,,,,,,,OVC,1400,,,,,,,MVFR,,,,,,,,,,,,METAR,28.0
PAAQ 021953Z 34005KT 10SM OVC060 09/05 A2994 RMK AO2 SLP140 T00890050,PAAQ,2023-06-02T19:53:00Z,61.6,-149.08,8.9,5.0,340,5,,10.0,29.940945,1014.0,,,TRUE,,,,,,,OVC,6000,,,,,,,VFR,,,,,,,,,,,,METAR,68.0
MTCH 021953Z 22011KT 6000 SHRA SCT010CB OVC060 27/23 Q1008 RMK:CB/ALL QDS,MTCH,2023-06-02T19:53:00Z,19.75,-72.18,27.0,23.0,220,11,,3.73,29.763779,,,,,,,,,,SHRA,SCT,1000,OVC,6000,,,,,MVFR,,,,,,,,,,,,METAR,3.0
KZZV 021953Z AUTO 36007KT 10SM FEW090 32/11 A2995 RMK AO2 SLP137 T03220111,KZZV,2023-06-02T19:53:00Z,39.95,-81.9,32.2,11.1,360,7,,10.0,29.949802,1013.7,,TRUE,TRUE,,,,,,,FEW,9000,,,,,,,VFR,,,,,,,,,,,,METAR,268.0
KYKM 021953Z 10SM CLR 25/03 A3000 RMK AO2 SLP154 T02500028,KYKM,2023-06-02T19:53:00Z,46.57,-120.53,25.0,2.8,,,,10.0,30.0,1015.4,,,TRUE,,,,,,,CLR,,,,,,,,VFR,,,,,,,,,,,,METAR,319.0
KYIP 021953Z 10SM FEW100 33/10 A3003 RMK AO2 SLP163 T03280100,KYIP,2023-06-02T19:53:00Z,42.23,-83.53,32.8,10.0,,,,10.0,30.029528,1016.3,,,TRUE,,,,,,,FEW,10000,,,,,,,VFR,,,,,,,,,,,,METAR,215.0
KXNA 021953Z 15007KT 10SM FEW050 BKN110 29/16 A2996 RMK AO2 SLP132 T02890161,KXNA,2023-06-02T19:53:00Z,36.28,-94.3,28.9,16.1,150,7,,10.0,29.958662,1013.2,,,TRUE,,,,,,,FEW,5000,BKN,11000,,,,,VFR,,,,,,,,,,,,METAR,390.0
KWVI 021953Z AUTO 10SM CLR 17/09 A3003 RMK AO2 SLP168 T01720094,KWVI,2023-06-02T19:53:00Z,36.93,-121.78,17.2,9.4,,,,10.0,30.029528,1016.8,,TRUE,TRUE,,,,,,,CLR,,,,,,,,VFR,,,,,,,,,,,,METAR,47.0
KWST 021953Z AUTO 17007KT 10SM CLR 23/14 A2988 RMK AO2 LTG DSNT N SLP116 T02280144,KWST,2023-06-02T19:53:00Z,41.35,-71.8,22.8,14.4,170,7,,10.0,29.878937,1011.6,,TRUE,TRUE,,,,,,,CLR,,,,,,,,VFR,,,,,,,,,,,,METAR,20.0
KWHP 021953Z 11008KT 10SM FEW040 20/10 A3000,KWHP,2023-06-02T19:53:00Z,34.25,-118.42,20.0,10.0,110,8,,10.0,30.0,,,,,,,,,,,FEW,4000,,,,,,,VFR,,,,,,,,,,,,METAR,302.0
KVUO 021953Z AUTO 24005KT 10SM CLR 19/08 A3012 RMK AO2 SLP200 T01940078,KVUO,2023-06-02T19:53:00Z,45.62,-122.65,19.4,7.8,240,5,,10.0,30.121063,1020.0,,TRUE,TRUE,,,,,,,CLR,,,,,,,,VFR,,,,,,,,,,,,METAR,7.0
KVRB 021953Z 07012KT 10SM BKN018 29/23 A2973 RMK AO2 SLP066 T02890228,KVRB,2023-06-02T19:53:00Z,27.65,-80.42,28.9,22.8,70,12,,10.0,29.731298,1006.6,,,TRUE,,,,,,,BKN,1800,,,,,,,MVFR,,,,,,,,,,,,METAR,7.0
KVLD 021953Z 02007KT 10SM FEW049 30/17 A2979 RMK AO1 SLP095 T03000172,KVLD,2023-06-02T19:53:00Z,30.78,-83.27,30.0,17.2,20,7,,10.0,29.790354,1009.5,,,TRUE,,,,,,,FEW,4900,,,,,,,VFR,,,,,,,,,,,,METAR,59.0
KVIH 021953Z AUTO 30005KT 10SM VCTS FEW055 31/18 A2997 RMK AO2 LTG DSNT N AND NE RAE03 SLP135 P0000 T03110178,KVIH,2023-06-02T19:53:00Z,38.13,-91.77,31.1,17.8,300,5,,10.0,29.970472,1013.5,,TRUE,TRUE,,,,,,VCTS,FEW,5500,,,,,,,VFR,,,,,,0.005,,,,,,METAR,342.0
KVGT 021953Z 29005KT 10SM CLR 32/04 A2986 RMK AO2 SLP101 T03170039,KVGT,2023-06-02T19:53:00Z,36.22,-115.2,31.7,3.9,290,5,,10.0,29.861221,1010.1,,,TRUE,,,,,,,CLR,,,,,,,,VFR,,,,,,,,,,,,METAR,664.0
KVEL 021953Z AUTO 11004KT 10SM -RA FEW013 OVC065 13/11 A3004 RMK AO2 SLP133 P0003 T01280106,KVEL,2023-06-02T19:53:00Z,40.45,-109.52,12.8,10.6,110,4,,10.0,30.041338,1013.3,,TRUE,TRUE,,,,,,-RA,FEW,1300,OVC,6500,,,,,VFR,,,,,,0.03,,,,,,METAR,1604.0
KVCB 021953Z AUTO 17003KT 10SM CLR 27/13 A2996 RMK AO2 SLP143 T02670128,KVCB,2023-06-02T19:53:00Z,38.38,-121.95,26.7,12.8,170,3,,10.0,29.958662,1014.3,,TRUE,TRUE,,,,,,,CLR,,,,,,,,VFR,,,,,,,,,,,,METAR,30.0
KUUU 021953Z AUTO 18009KT 10SM CLR 22/13 A2987 RMK AO2 LTG DSNT NW SLP113 T02220133,KUUU,2023-06-02T19:53:00Z,41.53,-71.28,22.2,13.3,180,9,,10.0,29.870079,1011.3,,TRUE,TRUE,,,,,,,CLR,,,,,,,,VFR,,,,,,,,,,,,METAR,45.0
KUTS 021953Z AUTO 10SM BKN055 BKN075 OVC090 32/18 A2989 RMK AO2 SLP116 T03220178,KUTS,2023-06-02T19:53:00Z,30.75,-95.58,32.2,17.8,,,,10.0,29.890747,1011.6,,TRUE,TRUE,,,,,,,BKN,5500,BKN,7500,OVC,9000,,,VFR,,,,,,,,,,,,METAR,103.0
KUNV 021953Z 05003KT 10SM SCT095 32/09 A2995,KUNV,2023-06-02T19:53:00Z,40.85,-77.83,32.0,9.0,50,3,,10.0,29.949802,,,,,,,,,,,SCT,9500,,,,,,,VFR,,,,,,,,,,,,METAR,365.0
KUNO 021953Z AUTO 12003KT 10SM SCT060 29/16 A2997 RMK AO2 SLP138 T02890161,KUNO,2023-06-02T19:53:00Z,36.88,-91.9,28.9,16.1,120,3,,10.0,29.970472,1013.8,,TRUE,TRUE,,,,,,,SCT,6000,,,,,,,VFR,,,,,,,,,,,,METAR,376.0
KUIL 021953Z AUTO 26009KT 10SM CLR 16/07 A3014 RMK AO2 SLP208 T01610072,KUIL,2023-06-02T19:53:00Z,47.93,-124.55,16.1,7.2,260,9,,10.0,30.138779,1020.8,,TRUE,TRUE,,,,,,,CLR,,,,,,,,VFR,,,,,,,,,,,,METAR,58.0
KUAO 021953Z VRB03KT 10SM CLR 21/08 A3012 RMK AO2 SLP197 T02060078,KUAO,2023-06-02T19:53:00Z,45.25,-122.77,20.6,7.8,0,3,,10.0,30.121063,1019.7,,,TRUE,,,,,,,CLR,,,,,,,,VFR,,,,,,,,,,,,METAR,60.0
KTYS 021953Z 05013KT 10SM FEW060 FEW250 31/13 A2989 RMK AO2 SLP111 CB DSNT S T03110133,KTYS,2023-06-02T19:53:00Z,35.82,-83.98,31.1,13.3,50,13,,10.0,29.890747,1011.1,,,TRUE,,,,,,,FEW,6000,FEW,25000,,,,,VFR,,,,,,,,,,,,METAR,300.0
KTYR 021953Z 15007KT 10SM OVC060 32/17 A2989 RMK AO2 SLP112 T03170172,KTYR,2023-06-02T19:53:00Z,32.37,-95.4,31.7,17.2,150,7,,10.0,29.890747,1011.2,,,TRUE,,,,,,,OVC,6000,,,,,,,VFR,,,,,,,,,,,,METAR,161.0
KTXK 021953Z VRB04KT 10SM FEW110 34/18 A2991 RMK AO2 SLP121 T03390178,KTXK,2023-06-02T19:53:00Z,33.45,-93.98,33.9,17.8,0,4,,10.0,29.911417,1012.1,,,TRUE,,,,,,,FEW,11000,,,,,,,VFR,,,,,,,,,,,,METAR,118.0
KTWF 021953Z 29009G18KT 10SM CLR 22/05 A3000 RMK AO2 SLP112 T02220050,KTWF,2023-06-02T19:53:00Z,42.48,-114.48,22.2,5.0,290,9,18,10.0,30.0,1011.2,,,TRUE,,,,,,,CLR,,,,,,,,VFR,,,,,,,,,,,,METAR,1269.0
KTVR 021953Z AUTO 32005KT 10SM CLR 33/20 A2988 RMK AO2 SLPNO T03280200,KTVR,2023-06-02T19:53:00Z,32.35,-91.03,32.8,20.0,320,5,,10.0,29.878937,,,TRUE,TRUE,,,,,,,CLR,,,,,,,,VFR,,,,,,,,,,,,METAR,25.0
KTVL 021953Z AUTO 03010KT 10SM CLR 17/M02 A3013 RMK AO2 SLP166 T01671022,KTVL,2023-06-02T19:53:00Z,38.9,-120.0,16.7,-2.2,30,10,,10.0,30.129921,1016.6,,TRUE,TRUE,,,,,,,CLR,,,,,,,,VFR,,,,,,,,,,,,METAR,1907.0
KTVC 021953Z 04006KT 10SM FEW080 OVC250 27/14 A3004 RMK AO2 SLP172 T02670144,KTVC,2023-06-02T19:53:00Z,44.73,-85.58,26.7,14.4,40,6,,10.0,30.041338,1017.2,,,TRUE,,,,,,,FEW,8000,OVC,25000,,,,,VFR,,,,,,,,,,,,METAR,188.0
KTUS 021953Z 00000KT 10SM CLR 29/00 A2993 RMK AO2 SLP091 T02940000,KTUS,2023-06-02T19:53:00Z,32.13,-110.95,29.4,0.0,0,0,,10.0,29.929134,1009.1,,,TRUE,,,,,,,CLR,,,,,,,,VFR,,,,,,,,,,,,METAR,776.0
KTUP 021953Z 36005KT 10SM SCT060 31/16 A2989 RMK AO2 SLP116 T03060161,KTUP,2023-06-02T19:53:00Z,34.27,-88.77,30.6,16.1,360,5,,10.0,29.890747,1011.6,,,TRUE,,,,,,,SCT,6000,,,,,,,VFR,,,,,,,,,,,,METAR,107.0
KTUL 021953Z 12011G19KT 10SM SCT060 31/18 A2990 RMK AO2 SLP115 T03110178,KTUL,2023-06-02T19:53:00Z,36.2,-95.88,31.1,17.8,120,11,19,10.0,29.899607,1011.5,,,TRUE,,,,,,,SCT,6000,,,,,,,VFR,,,,,,,,,,,,METAR,196.0
KTTN 021953Z VRB05KT 10SM CLR 31/13 A2982 RMK AO2 SLP092 T03110128,KTTN,2023-06-02T19:53:00Z,40.28,-74.82,31.1,12.8,0,5,,10.0,29.819881,1009.2,,,TRUE,,,,,,,CLR,,,,,,,,VFR,,,,,,,,,,,,METAR,58.0
KTTD 021953Z VRB04KT 10SM CLR 21/07 A3010 RMK AO2 SLP193 T02060072,KTTD,2023-06-02T19:53:00Z,45.55,-122.42,20.6,7.2,0,4,,10.0,30.100393,1019.3,,,TRUE,,,,,,,CLR,,,,,,,,VFR,,,,,,,,,,,,METAR,8.0
KTRL 021953Z AUTO 15007KT 120V180 10SM SCT050 31/18 A2989 RMK AO2 SLP115 T03110183,KTRL,2023-06-02T19:53:00Z,32.72,-96.27,31.1,18.3,150,7,,10.0,29.890747,1011.5,,TRUE,TRUE,,,,,,,SCT,5000,,,,,,,VFR,,,,,,,,,,,,METAR,144.0
KTRI 021953Z 08005KT 10SM FEW200 30/11 A2993 RMK AO2 SLP111 T03000106,KTRI,2023-06-02T19:53:00Z,36.48,-82.4,30.0,10.6,80,5,,10.0,29.929134,1011.1,,,TRUE,,,,,,,FEW,20000,,,,,,,VFR,,,,,,,,,,,,METAR,456.0
KTOR 021953Z AUTO 10006KT 10SM FEW038 22/13 A2989 RMK AO2 SLP087 T02170133,KTOR,2023-06-02T19:53:00Z,42.07,-104.15,21.7,13.3,100,6,,10.0,29.890747,1008.7,,TRUE,TRUE,,,,,,,FEW,3800,,,,,,,VFR,,,,,,,,,,,,METAR,1285.0
KTOP 021953Z 28011G17KT 10SM VCTS FEW050 FEW070 26/21 A2994 RMK AO2 LTG DSNT SW AND W RAB1858E13 TSB11E26 SLP131 P0001 T02610211,KTOP,2023-06-02T19:53:00Z,39.07,-95.63,26.1,21.1,280,11,17,10.0,29.940945,1013.1,,,TRUE,,,,,,VCTS,FEW,5000,FEW,7000,,,,,VFR,,,,,,0.01,,,,,,METAR,268.0
KTOI 021953Z AUTO 04010G16KT 10SM FEW055 FEW070 32/17 A2985 RMK AO2 SLP103 T03220167,KTOI,2023-06-02T19:53:00Z,31.85,-86.02,32.2,16.7,40,10,16,10.0,29.84941,1010.3,,TRUE,TRUE,,,,,,,FEW,5500,FEW,7000,,,,,VFR,,,,,,,,,,,,METAR,120.0
KTMB 021953Z 23006KT 10SM FEW070 SCT120 28/22 A2971 RMK AO2 LTG DSNT NE SLP059 T02830217,KTMB,2023-06-02T19:53:00Z,25.65,-80.43,28.3,21.7,230,6,,10.0,29.71063,1005.9,,,TRUE,,,,,,,FEW,7000,SCT,12000,,,,,VFR,,,,,,,,,,,,METAR,2.0
KTLH 021953Z 04007KT 360V090 10SM FEW000 SCT049 SCT055 31/17 A2978 RMK AO2 SLP084 FU FEW000 SW T03060172,KTLH,2023-06-02T19:53:00Z,30.4,-84.35,30.6,17.2,40,7,,10.0,29.778543,1008.4,,,TRUE,,,,,,,FEW,0,SCT,4900,SCT,5500,,,VFR,,,,,,,,,,,,METAR,17.0
KTKI 021953Z 12009KT 10SM CLR 32/18 A2989 RMK AO2 SLP114 T03170183,KTKI,2023-06-02T19:53:00Z,33.18,-96.58,31.7,18.3,120,9,,10.0,29.890747,1011.4,,,TRUE,,,,,,,CLR,,,,,,,,VFR,,,,,,,,,,,,METAR,173.0
KTIW 021953Z COR VRB/07 10SM CLR 18/07 A3012 RMK AO2 SLP198 T01830072,KTIW,2023-06-02T19:53:00Z,47.27,-122.58,18.3,7.2,,,,10.0,30.121063,1019.8,TRUE,,TRUE,,,,,,,CLR,,,,,,,,VFR,,,,,,,,,,,,METAR,89.0
KTDZ 021953Z AUTO 07011G23KT 10SM CLR 32/09 A3003 RMK AO2 SLP164 T03220094,KTDZ,2023-06-02T19:53:00Z,41.57,-83.48,32.2,9.4,70,11,23,10.0,30.029528,1016.4,,TRUE,TRUE,,,,,,,CLR,,,,,,,,VFR,,,,,,,,,,,,METAR,189.0
KTCS 021953Z AUTO 24009G16KT 200V290 10SM FEW120 27/M06 A2994 RMK AO2 SLP055 T02721061,KTCS,2023-06-02T19:53:00Z,33.23,-107.27,27.2,-6.1,240,9,16,10.0,29.940945,1005.5,,TRUE,TRUE,,,,,,,FEW,12000,,,,,,,VFR,,,,,,,,,,,,METAR,1471.0
KTCL 021953Z 08006KT 10SM -RA BKN055 BKN080 29/19 A2987 RMK AO2 RAB53 SLP111 P0000 T02890189,KTCL,2023-06-02T19:53:00Z,33.22,-87.62,28.9,18.9,80,6,,10.0,29.870079,1011.1,,,TRUE,,,,,,-RA,BKN,5500,BKN,8000,,,,,VFR,,,,,,0.005,,,,,,METAR,48.0
KTCC 021953Z AUTO 11016KT 10SM CLR 22/16 A2988 RMK AO2 SLP068 T02220156,KTCC,2023-06-02T19:53:00Z,35.18,-103.6,22.2,15.6,110,16,,10.0,29.878937,1006.8,,TRUE,TRUE,,,,,,,CLR,,,,,,,,VFR,,,,,,,,,,,,METAR,1233.0
KSWO 021953Z 13013G18KT 10SM FEW060 32/17 A2989 RMK AO2 SLP109 T03170172,KSWO,2023-06-02T19:53:00Z,36.17,-97.08,31.7,17.2,130,13,18,10.0,29.890747,1010.9,,,TRUE,,,,,,,FEW,6000,,,,,,,VFR,,,,,,,,,,,,METAR,293.0
KSTS 021953Z 10SM CLR 23/12 A2998 RMK AO2 SLP145 T02330117,KSTS,2023-06-02T19:53:00Z,38.5,-122.82,23.3,11.7,,,,10.0,29.97933,1014.5,,,TRUE,,,,,,,CLR,,,,,,,,VFR,,,,,,,,,,,,METAR,35.0
KSTP 021953Z AUTO 18009KT 10SM FEW055 SCT095 27/18 A3003 RMK AO2 LTG DSNT SE SLP164 T02720178,KSTP,2023-06-02T19:53:00Z,44.93,-93.05,27.2,17.8,180,9,,10.0,30.029528,1016.4,,TRUE,TRUE,,,,,,,FEW,5500,SCT,9500,,,,,VFR,,,,,,,,,,,,METAR,213.0
KSTJ 021953Z 11009G17KT 10SM CLR 32/17 A2994 RMK AO2 SLP129 T03220167,KSTJ,2023-06-02T19:53:00Z,39.77,-94.92,32.2,16.7,110,9,17,10.0,29.940945,1012.9,,,TRUE,,,,,,,CLR,,,,,,,,VFR,,,,,,,,,,,,METAR,247.0
KSTC 021953Z 16010KT 10SM CLR 28/17 A3003 RMK AO2 SLP170 T02830167,KSTC,2023-06-02T19:53:00Z,45.55,-94.05,28.3,16.7,160,10,,10.0,30.029528,1017.0,,,TRUE,,,,,,,CLR,,,,,,,,VFR,,,,,,,,,,,,METAR,302.0
KSSI 021953Z AUTO 07013G19KT 10SM CLR 27/19 A2981 RMK AO2 SLP096 T02670194,KSSI,2023-06-02T19:53:00Z,31.15,-81.38,26.7,19.4,70,13,19,10.0,29.811024,1009.6,,TRUE,TRUE,,,,,,,CLR,,,,,,,,VFR,,,,,,,,,,,,METAR,6.0
KSSF 021953Z 13011KT 10SM FEW044 SCT060 31/20 A2984 RMK AO2 SLP093 T03060200 $,KSSF,2023-06-02T19:53:00Z,29.33,-98.47,30.6,20.0,130,11,,10.0,29.840551,1009.3,,,TRUE,TRUE,,,,,,FEW,4400,SCT,6000,,,,,VFR,,,,,,,,,,,,METAR,175.0
KSRQ 021953Z 08010KT 7SM -RA SCT090 BKN110 22/21 A2971 RMK AO2 LTG DSNT N-SE TSE08B11E26 SLP060 P0015 T02220206,KSRQ,2023-06-02T19:53:00Z,27.4,-82.57,22.2,20.6,80,10,,7.0,29.71063,1006.0,,,TRUE,,,,,,-RA,SCT,9000,BKN,11000,,,,,VFR,,,,,,0.15,,,,,,METAR,5.0
KSPW 021953Z AUTO VRB04KT 10SM FEW120 31/17 A2999 RMK AO2 SLP144 T03060167,KSPW,2023-06-02T19:53:00Z,43.17,-95.22,30.6,16.7,0,4,,10.0,29.991142,1014.4,,TRUE,TRUE,,,,,,,FEW,12000,,,,,,,VFR,,,,,,,,,,,,METAR,407.0
KSPG 021953Z 00000KT 3SM TSRA BR BKN019 BKN100 OVC120 25/23 A2972 RMK AO2 LTG DSNT ALQDS TSB23E38B44 SLP064 P0010 T02500233,KSPG,2023-06-02T19:53:00Z,27.77,-82.63,25.0,23.3,0,0,,3.0,29.719488,1006.4,,,TRUE,,,,,,TSRA BR,BKN,1900,BKN,10000,OVC,12000,,,MVFR,,,,,,0.1,,,,,,METAR,1.0
KSPB 021953Z AUTO 00000KT 10SM CLR 20/08 A3010 RMK AO2 SLP192 T02000083,KSPB,2023-06-02T19:53:00Z,45.77,-122.87,20.0,8.3,0,0,,10.0,30.100393,1019.2,,TRUE,TRUE,,,,,,,CLR,,,,,,,,VFR,,,,,,,,,,,,METAR,15.0
KSNY 021953Z AUTO 13007G16KT 10SM TS SCT047 SCT060 20/13 A2991 RMK AO2 TSB47 SLP091 T02000128,KSNY,2023-06-02T19:53:00Z,41.1,-102.98,20.0,12.8,130,7,16,10.0,29.911417,1009.1,,TRUE,TRUE,,,,,,TS,SCT,4700,SCT,6000,,,,,VFR,,,,,,,,,,,,METAR,1307.0
KSNS 021953Z 28011KT 10SM CLR 18/09 A3002 RMK AO2 SLP174 T01830089,KSNS,2023-06-02T19:53:00Z,36.67,-121.6,18.3,8.9,280,11,,10.0,30.02067,1017.4,,,TRUE,,,,,,,CLR,,,,,,,,VFR,,,,,,,,,,,,METAR,20.0
KSNA 021953Z 22007KT 10SM FEW023 SCT028 OVC037 21/13 A2998 RMK AO2 SLP150 T02110128,KSNA,2023-06-02T19:53:00Z,33.67,-117.87,21.1,12.8,220,7,,10.0,29.97933,1015.0,,,TRUE,,,,,,,FEW,2300,SCT,2800,OVC,3700,,,VFR,,,,,,,,,,,,METAR,14.0
KSMQ 021953Z AUTO 00000KT 10SM SCT110 36/11 A2980 RMK AO2 SLP090 T03560106,KSMQ,2023-06-02T19:53:00Z,40.62,-74.67,35.6,10.6,0,0,,10.0,29.799213,1009.0,,TRUE,TRUE,,,,,,,SCT,11000,,,,,,,VFR,,,,,,,,,,,,METAR,30.0
KSMF 021953Z VRB03KT 10SM CLR 26/11 A2994 RMK AO2 SLP137 T02610106,KSMF,2023-06-02T19:53:00Z,38.7,-121.6,26.1,10.6,0,3,,10.0,29.940945,1013.7,,,TRUE,,,,,,,CLR,,,,,,,,VFR,,,,,,,,,,,,METAR,7.0
KSLN 021953Z 25019G33KT 3SM RA BR BKN050 OVC060 19/17 A2999 RMK AO2 PK WND 20042/1921 WSHFT 1915 LTG DSNT S AND SW RAB47 PRESRR SLP147 P0002 T01890167,KSLN,2023-06-02T19:53:00Z,38.8,-97.65,18.9,16.7,250,19,33,3.0,29.991142,1014.7,,,TRUE,,,,,,RA BR,BKN,5000,OVC,6000,,,,,MVFR,,,,,,0.02,,,,,,METAR,377.0
KSJC 021953Z 00000KT 10SM CLR 22/09 A2998 RMK AO2 SLP151 T02170089,KSJC,2023-06-02T19:53:00Z,37.37,-121.92,21.7,8.9,0,0,,10.0,29.97933,1015.1,,,TRUE,,,,,,,CLR,,,,,,,,VFR,,,,,,,,,,,,METAR,13.0
KSIY 021953Z AUTO 00000KT 10SM CLR 23/01 A3005 RMK AO2 SLP173 T02330011,KSIY,2023-06-02T19:53:00Z,41.77,-122.47,23.3,1.1,0,0,,10.0,30.050198,1017.3,,TRUE,TRUE,,,,,,,CLR,,,,,,,,VFR,,,,,,,,,,,,METAR,807.0
KSHR 021953Z AUTO 33008KT 10SM BKN017 BKN100 19/14 A2990 RMK AO2 SLP101 T01890139 $,KSHR,2023-06-02T19:53:00Z,44.77,-106.97,18.9,13.9,330,8,,10.0,29.899607,1010.1,,TRUE,TRUE,TRUE,,,,,,BKN,1700,BKN,10000,,,,,MVFR,,,,,,,,,,,,METAR,1212.0
KSHN 021953Z AUTO 23011G15KT 10SM CLR 20/06 A3009 RMK AO2 SLP192 T02000061,KSHN,2023-06-02T19:53:00Z,47.23,-123.13,20.0,6.1,230,11,15,10.0,30.088583,1019.2,,TRUE,TRUE,,,,,,,CLR,,,,,,,,VFR,,,,,,,,,,,,METAR,84.0
KSGR 021953Z 17010KT 10SM FEW095 32/21 A2988 RMK AO2 SLP118 T03220211,KSGR,2023-06-02T19:53:00Z,29.62,-95.65,32.2,21.1,170,10,,10.0,29.878937,1011.8,,,TRUE,,,,,,,FEW,9500,,,,,,,VFR,,,,,,,,,,,,METAR,22.0
KSFF 021953Z VRB03KT 10SM CLR 23/04 A3001 RMK AO2 SLP153 T02330039,KSFF,2023-06-02T19:53:00Z,47.68,-117.32,23.3,3.9,0,3,,10.0,30.008858,1015.3,,,TRUE,,,,,,,CLR,,,,,,,,VFR,,,,,,,,,,,,METAR,593.0
KSFB 021953Z 04012KT 10SM FEW037 29/21 A2973 RMK AO2 SLP066 T02940206,KSFB,2023-06-02T19:53:00Z,28.77,-81.23,29.4,20.6,40,12,,10.0,29.731298,1006.6,,,TRUE,,,,,,,FEW,3700,,,,,,,VFR,,,,,,,,,,,,METAR,16.0
KSEG 021953Z AUTO VRB06KT 10SM FEW110 34/11 A2987 RMK AO2 SLP112 T03440106,KSEG,2023-06-02T19:53:00Z,40.82,-76.87,34.4,10.6,0,6,,10.0,29.870079,1011.2,,TRUE,TRUE,,,,,,,FEW,11000,,,,,,,VFR,,,,,,,,,,,,METAR,136.0
KSEA 021953Z VRB04KT 10SM FEW030 SCT250 18/06 A3012 RMK AO2 SLP204 T01780061,KSEA,2023-06-02T19:53:00Z,47.45,-122.32,17.8,6.1,0,4,,10.0,30.121063,1020.4,,,TRUE,,,,,,,FEW,3000,SCT,25000,,,,,VFR,,,,,,,,,,,,METAR,115.0
KSDM 021953Z VRB04KT 10SM SCT026 20/12 A2998 RMK AO2 SLP149 T02000117,KSDM,2023-06-02T19:53:00Z,32.58,-117.0,20.0,11.7,0,4,,10.0,29.97933,1014.9,,,TRUE,,,,,,,SCT,2600,,,,,,,VFR,,,,,,,,,,,,METAR,161.0
KSDL 021953Z AUTO VRB03KT 10SM CLR 31/04 A2988 RMK AO2 SLP095 T03060039,KSDL,2023-06-02T19:53:00Z,33.62,-111.92,30.6,3.9,0,3,,10.0,29.878937,1009.5,,TRUE,TRUE,,,,,,,CLR,,,,,,,,VFR,,,,,,,,,,,,METAR,438.0
KSBM 021953Z AUTO 14005KT 10SM CLR 28/15 A3007 RMK AO2 SLP180 T02780150,KSBM,2023-06-02T19:53:00Z,43.78,-87.85,27.8,15.0,140,5,,10.0,30.070866,1018.0,,TRUE,TRUE,,,,,,,CLR,,,,,,,,VFR,,,,,,,,,,,,METAR,225.0
KSBA 021953Z 22007KT 10SM OVC034 20/12 A3000 RMK AO2 SLP159 T02000117 $,KSBA,2023-06-02T19:53:00Z,34.43,-119.85,20.0,11.7,220,7,,10.0,30.0,1015.9,,,TRUE,TRUE,,,,,,OVC,3400,,,,,,,VFR,,,,,,,,,,,,METAR,2.0
KSAV 021953Z 05007KT 10SM SCT035 BKN050 BKN070 OVC250 28/16 A2982 RMK AO2 SLP097 BINOVC T02780161,KSAV,2023-06-02T19:53:00Z,32.12,-81.2,27.8,16.1,50,7,,10.0,29.819881,1009.7,,,TRUE,,,,,,,SCT,3500,BKN,5000,BKN,7000,OVC,25000,VFR,,,,,,,,,,,,METAR,10.0
KSAF 021953Z 14013G23KT 10SM BKN100 22/01 A3003 RMK AO2 SLP086 T02170011,KSAF,2023-06-02T19:53:00Z,35.62,-106.1,21.7,1.1,140,13,23,10.0,30.029528,1008.6,,,TRUE,,,,,,,BKN,10000,,,,,,,VFR,,,,,,,,,,,,METAR,1918.0
KSAC 021953Z VRB04KT 10SM CLR 26/12 A2994 RMK AO2 SLP139 T02610122,KSAC,2023-06-02T19:53:00Z,38.5,-121.5,26.1,12.2,0,4,,10.0,29.940945,1013.9,,,TRUE,,,,,,,CLR,,,,,,,,VFR,,,,,,,,,,,,METAR,5.0
KRXE 021953Z AUTO 23007KT 10SM FEW050 18/08 A3000 RMK AO2 SLP127 T01830083,KRXE,2023-06-02T19:53:00Z,43.83,-111.8,18.3,8.3,230,7,,10.0,30.0,1012.7,,TRUE,TRUE,,,,,,,FEW,5000,,,,,,,VFR,,,,,,,,,,,,METAR,1483.0
KRWL 021953Z AUTO 21014G21KT 10SM BKN021 BKN028 OVC034 14/08 A3002 RMK AO2 SLP101 T01390078,KRWL,2023-06-02T19:53:00Z,41.8,-107.2,13.9,7.8,210,14,21,10.0,30.02067,1010.1,,TRUE,TRUE,,,,,,,BKN,2100,BKN,2800,OVC,3400,,,MVFR,,,,,,,,,,,,METAR,2066.0
KRWI 021953Z AUTO 04012G16KT 10SM FEW045 29/17 A2987 RMK AO2 SLP112 T02890167,KRWI,2023-06-02T19:53:00Z,35.85,-77.9,28.9,16.7,40,12,16,10.0,29.870079,1011.2,,TRUE,TRUE,,,,,,,FEW,4500,,,,,,,VFR,,,,,,,,,,,,METAR,46.0
KRWF 021953Z AUTO 07009KT 10SM VCTS CLR 23/18 A3000 RMK AO2 LTG DSNT ALQDS RAB1854E31 TSE28 SLP153 P0009 T02280183,KRWF,2023-06-02T19:53:00Z,44.55,-95.08,22.8,18.3,70,9,,10.0,30.0,1015.3,,TRUE,TRUE,,,,,,VCTS,CLR,,,,,,,,VFR,,,,,,0.09,,,,,,METAR,312.0
KRVS 021953Z 14010G15KT 10SM SCT055 32/16 A2990 RMK AO2 SLP126 T03170161,KRVS,2023-06-02T19:53:00Z,36.05,-95.98,31.7,16.1,140,10,15,10.0,29.899607,1012.6,,,TRUE,,,,,,,SCT,5500,,,,,,,VFR,,,,,,,,,,,,METAR,191.0
KRUE 021953Z AUTO VRB03KT 10SM 32/17 A2990 RMK AO2 SLP118 T03170172 $,KRUE,2023-06-02T19:53:00Z,35.25,-93.1,31.7,17.2,0,3,,10.0,29.899607,1011.8,,TRUE,TRUE,TRUE,,,,,,,,,,,,,,,,,,,,,,,,,,METAR,119.0
KRTN 021953Z AUTO 25009G20KT 10SM SCT060 OVC085 12/05 A3003 RMK AO2 PK WND 26040/1915 LTG DSNT NE AND E RAB1856E46 SLP117 P0000 T01170050,KRTN,2023-06-02T19:53:00Z,36.73,-104.5,11.7,5.0,250,9,20,10.0,30.029528,1011.7,,TRUE,TRUE,,,,,,,SCT,6000,OVC,8500,,,,,VFR,,,,,,0.005,,,,,,METAR,1939.0
KRSW 021953Z 34006KT 1SM +RA BR SCT022 OVC046 23/21 A2972 RMK AO2 LTG DSNT ALQDS RAB40 SLP063 P0025 T02280211,KRSW,2023-06-02T19:53:00Z,26.53,-81.75,22.8,21.1,340,6,,1.0,29.719488,1006.3,,,TRUE,,,,,,+RA BR,SCT,2200,OVC,4600,,,,,IFR,,,,,,0.25,,,,,,METAR,8.0
KRSL 021953Z AUTO 18007KT 9SM -RA OVC100 17/14 A2993 RMK AO2 SLP129 P0006 T01720144,KRSL,2023-06-02T19:53:00Z,38.87,-98.82,17.2,14.4,180,7,,9.0,29.929134,1012.9,,TRUE,TRUE,,,,,,-RA,OVC,10000,,,,,,,VFR,,,,,,0.06,,,,,,METAR,569.0
KRQE 021953Z AUTO 31009KT 10SM BKN080 BKN110 19/M01 A3007 RMK AO2 SLP097 T01941006,KRQE,2023-06-02T19:53:00Z,35.65,-109.07,19.4,-0.6,310,9,,10.0,30.070866,1009.7,,TRUE,TRUE,,,,,,,BKN,8000,BKN,11000,,,,,VFR,,,,,,,,,,,,METAR,2056.0
KRNT 021953Z VRB04KT 10SM CLR 19/07 A3010 RMK AO2 SLP198 T01940072,KRNT,2023-06-02T19:53:00Z,47.5,-122.22,19.4,7.2,0,4,,10.0,30.100393,1019.8,,,TRUE,,,,,,,CLR,,,,,,,,VFR,,,,,,,,,,,,METAR,7.0
KRNM 021953Z 10SM SCT025 21/13 A2997 RMK AO2 SLP140 T02110128,KRNM,2023-06-02T19:53:00Z,33.03,-116.92,21.1,12.8,,,,10.0,29.970472,1014.0,,,TRUE,,,,,,,SCT,2500,,,,,,,VFR,,,,,,,,,,,,METAR,423.0
KRMG 021953Z AUTO 35009KT 10SM CLR 32/14 A2987 RMK AO2 SLP102 T03170144,KRMG,2023-06-02T19:53:00Z,34.35,-85.17,31.7,14.4,350,9,,10.0,29.870079,1010.2,,TRUE,TRUE,,,,,,,CLR,,,,,,,,VFR,,,,,,,,,,,,METAR,196.0
KRME 021953Z 36010KT 10SM CLR 33/12 A2988 RMK AO2 LTG DSNT E AND SE SLP114 T03330117,KRME,2023-06-02T19:53:00Z,43.22,-75.4,33.3,11.7,360,10,,10.0,29.878937,1011.4,,,TRUE,,,,,,,CLR,,,,,,,,VFR,,,,,,,,,,,,METAR,146.0
KRKP 021953Z AUTO 12012KT 6SM HZ CLR 30/22 A2987 RMK AO2 SLP116 T03000222,KRKP,2023-06-02T19:53:00Z,28.08,-97.05,30.0,22.2,120,12,,6.0,29.870079,1011.6,,TRUE,TRUE,,,,,,HZ,CLR,,,,,,,,VFR,,,,,,,,,,,,METAR,8.0
KRIW 021953Z AUTO VRB03KT 10SM FEW028 BKN034 OVC042 14/09 A2997 RMK AO2 SLP112 T01440094,KRIW,2023-06-02T19:53:00Z,43.07,-108.43,14.4,9.4,0,3,,10.0,29.970472,1011.2,,TRUE,TRUE,,,,,,,FEW,2800,BKN,3400,OVC,4200,,,VFR,,,,,,,,,,,,METAR,1662.0
KRIL 021953Z AUTO 08010KT 10SM -RA OVC060 11/08 A3010 RMK AO2 SLP158 P0005 T01060078,KRIL,2023-06-02T19:53:00Z,39.53,-107.73,10.6,7.8,80,10,,10.0,30.100393,1015.8,,TRUE,TRUE,,,,,,-RA,OVC,6000,,,,,,,VFR,,,,,,0.05,,,,,,METAR,1683.0
KRHI 021953Z AUTO 16006KT 10SM CLR 23/16 A3014 RMK AO2 RAE31 SLP199 P0000 T02280161,KRHI,2023-06-02T19:53:00Z,45.63,-89.48,22.8,16.1,160,6,,10.0,30.138779,1019.9,,TRUE,TRUE,,,,,,,CLR,,,,,,,,VFR,,,,,,0.005,,,,,,METAR,493.0
KRDD 021953Z 00000KT 10SM CLR 29/07 A2992 RMK AO2 SLP125 T02890067,KRDD,2023-06-02T19:53:00Z,40.52,-122.3,28.9,6.7,0,0,,10.0,29.920275,1012.5,,,TRUE,,,,,,,CLR,,,,,,,,VFR,,,,,,,,,,,,METAR,152.0
KRBG 021953Z AUTO VRB06KT 10SM CLR 21/06 A3008 RMK AO2 SLP185 T02110061,KRBG,2023-06-02T19:53:00Z,43.23,-123.35,21.1,6.1,0,6,,10.0,30.079725,1018.5,,TRUE,TRUE,,,,,,,CLR,,,,,,,,VFR,,,,,,,,,,,,METAR,152.0
KRBD 021953Z 15010KT 10SM FEW055 FEW065 BKN110 30/19 A2987 RMK AO2 SLP107 T03000189,KRBD,2023-06-02T19:53:00Z,32.68,-96.87,30.0,18.9,150,10,,10.0,29.870079,1010.7,,,TRUE,,,,,,,FEW,5500,FEW,6500,BKN,11000,,,VFR,,,,,,,,,,,,METAR,200.0
KRAL 021953Z VRB03KT 10SM CLR 23/11 A2996 RMK AO2 SLP133 T02280111,KRAL,2023-06-02T19:53:00Z,33.95,-117.45,22.8,11.1,0,3,,10.0,29.958662,1013.3,,,TRUE,,,,,,,CLR,,,,,,,,VFR,,,,,,,,,,,,METAR,254.0
KRAC 021953Z AUTO 03006KT 10SM CLR 27/14 A3009 RMK AO2 SLP184 T02670144,KRAC,2023-06-02T19:53:00Z,42.77,-87.82,26.7,14.4,30,6,,10.0,30.088583,1018.4,,TRUE,TRUE,,,,,,,CLR,,,,,,,,VFR,,,,,,,,,,,,SPECI,203.0
KPWA 021953Z 15011KT 10SM FEW080 FEW100 28/17 A2988 RMK AO2 SLP103 T02830172,KPWA,2023-06-02T19:53:00Z,35.53,-97.65,28.3,17.2,150,11,,10.0,29.878937,1010.3,,,TRUE,,,,,,,FEW,8000,FEW,10000,,,,,VFR,,,,,,,,,,,,METAR,390.0
KPUW 021953Z AUTO 29008KT 10SM CLR 22/05 A3005 RMK AO2 SLP169 T02170050,KPUW,2023-06-02T19:53:00Z,46.75,-117.12,21.7,5.0,290,8,,10.0,30.050198,1016.9,,TRUE,TRUE,,,,,,,CLR,,,,,,,,VFR,,,,,,,,,,,,METAR,774.0
KPUC 021953Z AUTO 01003KT 10SM FEW070 SCT090 17/06 A3003 RMK AO2 SLP122 T01720061,KPUC,2023-06-02T19:53:00Z,39.62,-110.75,17.2,6.1,10,3,,10.0,30.029528,1012.2,,TRUE,TRUE,,,,,,,FEW,7000,SCT,9000,,,,,VFR,,,,,,,,,,,,METAR,1777.0
KPUB 021953Z 17007KT 10SM CLR 26/03 A2986 RMK AO2 SLP062 T02560033,KPUB,2023-06-02T19:53:00Z,38.28,-104.5,25.6,3.3,170,7,,10.0,29.861221,1006.2,,,TRUE,,,,,,,CLR,,,,,,,,VFR,,,,,,,,,,,,METAR,1441.0
KPTK 021953Z 36007G14KT 10SM SCT075 BKN250 30/10 A3005 RMK SLPNO,KPTK,2023-06-02T19:53:00Z,42.67,-83.42,30.0,10.0,360,7,14,10.0,30.050198,,,,,,,,,,,SCT,7500,BKN,25000,,,,,VFR,,,,,,,,,,,,SPECI,295.0
KPSX 021953Z AUTO 16008KT 10SM CLR 30/21 A2989 RMK AO2 SLP123 T03000206,KPSX,2023-06-02T19:53:00Z,28.72,-96.25,30.0,20.6,160,8,,10.0,29.890747,1012.3,,TRUE,TRUE,,,,,,,CLR,,,,,,,,VFR,,,,,,,,,,,,METAR,4.0
KPSP 021953Z 00000KT 10SM CLR 31/09 A2987 RMK AO2 SLP113 T03110089,KPSP,2023-06-02T19:53:00Z,33.82,-116.5,31.1,8.9,0,0,,10.0,29.870079,1011.3,,,TRUE,,,,,,,CLR,,,,,,,,VFR,,,,,,,,,,,,METAR,123.0
KPSC 021953Z 16005KT 10SM CLR 26/06 A3000 RMK AO2 SLP157 T02560061,KPSC,2023-06-02T19:53:00Z,46.27,-119.12,25.6,6.1,160,5,,10.0,30.0,1015.7,,,TRUE,,,,,,,CLR,,,,,,,,VFR,,,,,,,,,,,,METAR,121.0
KPRC 021953Z 35005KT 10SM CLR 24/03 A3004 RMK AO2 SLP102 T02390028,KPRC,2023-06-02T19:53:00Z,34.65,-112.42,23.9,2.8,350,5,,10.0,30.041338,1010.2,,,TRUE,,,,,,,CLR,,,,,,,,VFR,,,,,,,,,,,,METAR,1528.0
KPRB 021953Z AUTO 31006KT 10SM CLR 22/08 A2998 RMK AO2 SLP147 T02170083,KPRB,2023-06-02T19:53:00Z,35.67,-120.63,21.7,8.3,310,6,,10.0,29.97933,1014.7,,TRUE,TRUE,,,,,,,CLR,,,,,,,,VFR,,,,,,,,,,,,METAR,249.0
KPQL 021953Z 04007KT 350V060 10SM SCT060 SCT085 33/18 A2983 RMK AO2 SLP102 T03280178,KPQL,2023-06-02T19:53:00Z,30.47,-88.53,32.8,17.8,40,7,,10.0,29.828741,1010.2,,,TRUE,,,,,,,SCT,6000,SCT,8500,,,,,VFR,,,,,,,,,,,,METAR,4.0
KPOU 021953Z 36011G18KT 10SM CLR 34/13 A2982 RMK AO2 LTG DSNT E AND W AND NW SLP092 T03440128,KPOU,2023-06-02T19:53:00Z,41.63,-73.88,34.4,12.8,360,11,18,10.0,29.819881,1009.2,,,TRUE,,,,,,,CLR,,,,,,,,VFR,,,,,,,,,,,,METAR,45.0
KPOF 021953Z AUTO 02009KT 10SM BKN060 32/16 A2991 RMK AO2 LTG DSNT N AND S SLP122 T03170161,KPOF,2023-06-02T19:53:00Z,36.77,-90.32,31.7,16.1,20,9,,10.0,29.911417,1012.2,,TRUE,TRUE,,,,,,,BKN,6000,,,,,,,VFR,,,,,,,,,,,,METAR,99.0
KPNS 021953Z 06007KT 050V110 10SM CLR 32/16 A2981 RMK AO2 SLP095 T03220161,KPNS,2023-06-02T19:53:00Z,30.48,-87.18,32.2,16.1,60,7,,10.0,29.811024,1009.5,,,TRUE,,,,,,,CLR,,,,,,,,VFR,,,,,,,,,,,,METAR,34.0
KPNC 021953Z AUTO 15012KT 10SM FEW060 31/18 A2989 RMK AO2 SLP109 T03060178,KPNC,2023-06-02T19:53:00Z,36.73,-97.1,30.6,17.8,150,12,,10.0,29.890747,1010.9,,TRUE,TRUE,,,,,,,FEW,6000,,,,,,,VFR,,,,,,,,,,,,METAR,304.0
KPMP 021953Z 24009KT 10SM -TSRA BKN014 BKN110 24/21 A2973 RMK AO2 LTG DSNT S AND NW RAB14 TSB1857E52B53 PRESRR SLP069 P0001 T02390211,KPMP,2023-06-02T19:53:00Z,26.25,-80.12,23.9,21.1,240,9,,10.0,29.731298,1006.9,,,TRUE,,,,,,-TSRA,BKN,1400,BKN,11000,,,,,MVFR,,,,,,0.01,,,,,,METAR,4.0
KPMD 021953Z VRB03KT 10SM CLR 28/03 A2994 RMK AO2 SLP116 T02780028,KPMD,2023-06-02T19:53:00Z,34.63,-118.08,27.8,2.8,0,3,,10.0,29.940945,1011.6,,,TRUE,,,,,,,CLR,,,,,,,,VFR,,,,,,,,,,,,METAR,764.0
KPKD 021953Z AUTO 16007KT 10SM FEW045 FEW060 BKN110 28/17 A3002 RMK AO2 SLP159 T02780167,KPKD,2023-06-02T19:53:00Z,46.9,-95.07,27.8,16.7,160,7,,10.0,30.02067,1015.9,,TRUE,TRUE,,,,,,,FEW,4500,FEW,6000,BKN,11000,,,VFR,,,,,,,,,,,,METAR,439.0
KPKB 021953Z 36006KT 10SM SCT085 32/10 A2995 RMK AO2 SLP136 T03170100,KPKB,2023-06-02T19:53:00Z,39.35,-81.43,31.7,10.0,360,6,,10.0,29.949802,1013.6,,,TRUE,,,,,,,SCT,8500,,,,,,,VFR,,,,,,,,,,,,METAR,245.0
KPIR 021953Z AUTO 15012G22KT 10SM BKN050 BKN060 OVC080 27/16 A2989 RMK AO2 PK WND 16027/1913 SLP107 T02720156,KPIR,2023-06-02T19:53:00Z,44.38,-100.28,27.2,15.6,150,12,22,10.0,29.890747,1010.7,,TRUE,TRUE,,,,,,,BKN,5000,BKN,6000,OVC,8000,,,VFR,,,,,,,,,,,,METAR,524.0
KPIL 021953Z AUTO 10013G20KT 10SM CLR 30/23 A2985 RMK AO2 SLP106 T03000228,KPIL,2023-06-02T19:53:00Z,26.17,-97.33,30.0,22.8,100,13,20,10.0,29.84941,1010.6,,TRUE,TRUE,,,,,,,CLR,,,,,,,,VFR,,,,,,,,,,,,METAR,5.0
KPIH 021953Z 21006KT 10SM FEW031 BKN085 BKN110 16/09 A3002 RMK AO2 RAE17 SLP142 P0000 T01560094,KPIH,2023-06-02T19:53:00Z,42.92,-112.57,15.6,9.4,210,6,,10.0,30.02067,1014.2,,,TRUE,,,,,,,FEW,3100,BKN,8500,BKN,11000,,,VFR,,,,,,0.005,,,,,,METAR,1357.0
KPHD 021953Z AUTO 04010KT 10SM CLR 33/06 A2997 RMK AO2 SLP144 T03280061,KPHD,2023-06-02T19:53:00Z,40.47,-81.42,32.8,6.1,40,10,,10.0,29.970472,1014.4,,TRUE,TRUE,,,,,,,CLR,,,,,,,,VFR,,,,,,,,,,,,SPECI,272.0
KPGD 021953Z 17010KT 10SM VCTS BKN070 BKN095 26/22 A2971 RMK AO2 LTG DSNT ALQDS RAE17 SLP060 P0002 T02560222,KPGD,2023-06-02T19:53:00Z,26.92,-82.0,25.6,22.2,170,10,,10.0,29.71063,1006.0,,,TRUE,,,,,,VCTS,BKN,7000,BKN,9500,,,,,VFR,,,,,,0.02,,,,,,SPECI,7.0
KPGA 021953Z AUTO 28009G17KT 240V300 10SM CLR 28/02 A2993 RMK AO2 SLP070 T02830017,KPGA,2023-06-02T19:53:00Z,36.92,-111.45,28.3,1.7,280,9,17,10.0,29.929134,1007.0,,TRUE,TRUE,,,,,,,CLR,,,,,,,,VFR,,,,,,,,,,,,METAR,1310.0
KPEO 021953Z AUTO 35010G18KT 10SM CLR 32/ A2997 RMK AO2 SLP139 T0317 $,KPEO,2023-06-02T19:53:00Z,42.65,-77.05,31.7,,350,10,18,10.0,29.970472,1013.9,,TRUE,TRUE,TRUE,,,,,,CLR,,,,,,,,VFR,,,,,,,,,,,,SPECI,268.0
KPDX 021953Z VRB05KT 10SM FEW020 21/06 A3011 RMK AO2 SLP196 T02060061,KPDX,2023-06-02T19:53:00Z,45.6,-122.62,20.6,6.1,0,5,,10.0,30.109253,1019.6,,,TRUE,,,,,,,FEW,2000,,,,,,,VFR,,,,,,,,,,,,METAR,7.0
KPDT 021953Z 28004G15KT 10SM CLR 24/04 A3003 RMK AO2 SLP158 T02390044,KPDT,2023-06-02T19:53:00Z,45.7,-118.83,23.9,4.4,280,4,15,10.0,30.029528,1015.8,,,TRUE,,,,,,,CLR,,,,,,,,VFR,,,,,,,,,,,,METAR,453.0
KPDK 021953Z 03007KT 350V070 10SM BKN060 BKN080 29/15 A2989 RMK AO2 SLP105 T02890150,KPDK,2023-06-02T19:53:00Z,33.88,-84.3,28.9,15.0,30,7,,10.0,29.890747,1010.5,,,TRUE,,,,,,,BKN,6000,BKN,8000,,,,,VFR,,,,,,,,,,,,SPECI,299.0
KPBI 021953Z VRB04KT 10SM SCT020 BKN030 BKN120 27/23 A2972 RMK AO2 LTG DSNT S AND SW RAE1856 TSE08 SLP064 CB DSNT S-SW P0000 T02720233,KPBI,2023-06-02T19:53:00Z,26.68,-80.1,27.2,23.3,0,4,,10.0,29.719488,1006.4,,,TRUE,,,,,,,SCT,2000,BKN,3000,BKN,12000,,,MVFR,,,,,,0.005,,,,,,METAR,4.0
KPBG 021953Z AUTO 06008KT 10SM CLR 30/14 A2988 RMK AO2 SLP117 T03000144,KPBG,2023-06-02T19:53:00Z,44.65,-73.47,30.0,14.4,60,8,,10.0,29.878937,1011.7,,TRUE,TRUE,,,,,,,CLR,,,,,,,,VFR,,,,,,,,,,,,SPECI,61.0
KPBF 021953Z AUTO VRB03KT 10SM CLR 33/18 A2990 RMK AO2 SLP122 T03330178,KPBF,2023-06-02T19:53:00Z,34.18,-91.93,33.3,17.8,0,3,,10.0,29.899607,1012.2,,TRUE,TRUE,,,,,,,CLR,,,,,,,,VFR,,,,,,,,,,,,SPECI,63.0
KPAH 021953Z VRB05KT 10SM SCT075 33/15 A2992 RMK AO2 SLP126 T03330150,KPAH,2023-06-02T19:53:00Z,37.07,-88.77,33.3,15.0,0,5,,10.0,29.920275,1012.6,,,TRUE,,,,,,,SCT,7500,,,,,,,VFR,,,,,,,,,,,,SPECI,125.0
KPAE 021953Z 28004KT 10SM CLR 18/08 A3012 RMK AO2 SLP199 T01780078,KPAE,2023-06-02T19:53:00Z,47.92,-122.28,17.8,7.8,280,4,,10.0,30.121063,1019.9,,,TRUE,,,,,,,CLR,,,,,,,,VFR,,,,,,,,,,,,METAR,166.0
KP68 021953Z AUTO 23007KT 190V260 21/01 A3006 RMK AO1 SLP119 T02060006,KP68,2023-06-02T19:53:00Z,39.6,-116.0,20.6,0.6,230,7,,,30.059055,1011.9,,TRUE,TRUE,,,,,,,,,,,,,,,,,,,,,,,,,,,METAR,1813.0
KOXB 021953Z AUTO 12005KT 10SM CLR 23/18 A2988 RMK AO2 SLP119 T02330178,KOXB,2023-06-02T19:53:00Z,38.32,-75.12,23.3,17.8,120,5,,10.0,29.878937,1011.9,,TRUE,TRUE,,,,,,,CLR,,,,,,,,VFR,,,,,,,,,,,,SPECI,2.0
KOWD 021953Z 07005KT 10SM CLR 33/14 A2981 RMK AO2 LTG DSNT W AND NW SLP094 T03330139,KOWD,2023-06-02T19:53:00Z,42.18,-71.17,33.3,13.9,70,5,,10.0,29.811024,1009.4,,,TRUE,,,,,,,CLR,,,,,,,,VFR,,,,,,,,,,,,SPECI,14.0
KOWA 021953Z AUTO 00000KT 10SM SCT100 28/16 A3002 RMK AO2 LTG DSNT NE AND SE,KOWA,2023-06-02T19:53:00Z,44.12,-93.25,28.0,16.0,0,0,,10.0,30.02067,,,TRUE,TRUE,,,,,,,SCT,10000,,,,,,,VFR,,,,,,,,,,,,METAR,345.0
KOVS 021953Z AUTO 00000KT 10SM BKN065 33/16 A3001 RMK AO2 SLP159 T03280161,KOVS,2023-06-02T19:53:00Z,43.15,-90.68,32.8,16.1,0,0,,10.0,30.008858,1015.9,,TRUE,TRUE,,,,,,,BKN,6500,,,,,,,VFR,,,,,,,,,,,,SPECI,205.0
KOTM 021953Z AUTO VRB05KT 10SM CLR 32/16 A2998 RMK AO2 LTG DSNT NE AND S SLP143 T03170156,KOTM,2023-06-02T19:53:00Z,41.1,-92.45,31.7,15.6,0,5,,10.0,29.97933,1014.3,,TRUE,TRUE,,,,,,,CLR,,,,,,,,VFR,,,,,,,,,,,,METAR,254.0
KOSU 021953Z 01011KT 10SM CLR 33/12 A2997 RMK AO2 SLP140 T03330117,KOSU,2023-06-02T19:53:00Z,40.08,-83.08,33.3,11.7,10,11,,10.0,29.970472,1014.0,,,TRUE,,,,,,,CLR,,,,,,,,VFR,,,,,,,,,,,,SPECI,276.0
KOSH 021953Z 09014G25KT 10SM CLR 31/16 A3006 RMK AO2 SLP166 T03060156,KOSH,2023-06-02T19:53:00Z,43.98,-88.55,30.6,15.6,90,14,25,10.0,30.059055,1016.6,,,TRUE,,,,,,,CLR,,,,,,,,VFR,,,,,,,,,,,,SPECI,239.0
KORL 021953Z 04013G21KT 10SM SCT040 BKN050 31/21 A2972 RMK AO2 LTG DSNT SW SLP066 T03060206,KORL,2023-06-02T19:53:00Z,28.55,-81.33,30.6,20.6,40,13,21,10.0,29.719488,1006.6,,,TRUE,,,,,,,SCT,4000,BKN,5000,,,,,VFR,,,,,,,,,,,,SPECI,32.0
KORB 021953Z AUTO 17007KT 10SM CLR 29/17 A3006 RMK AO2,KORB,2023-06-02T19:53:00Z,48.02,-92.87,29.0,17.0,170,7,,10.0,30.059055,,,TRUE,TRUE,,,,,,,CLR,,,,,,,,VFR,,,,,,,,,,,,METAR,407.0
KOQT 021953Z AUTO VRB06KT 10SM CLR 31/13 A2992 RMK AO2 SLP114 T03110133,KOQT,2023-06-02T19:53:00Z,36.02,-84.23,31.1,13.3,0,6,,10.0,29.920275,1011.4,,TRUE,TRUE,,,,,,,CLR,,,,,,,,VFR,,,,,,,,,,,,METAR,276.0
KOPF 021953Z VRB05KT 5SM TS BR BKN025 24/22 A2974 RMK AO2 PK WND 32029/1854 WSHFT 1843 LTG DSNT N AND NE RAE36 SLP070 P0111 T02390222 $,KOPF,2023-06-02T19:53:00Z,25.92,-80.28,23.9,22.2,0,5,,5.0,29.740158,1007.0,,,TRUE,TRUE,,,,,TS BR,BKN,2500,,,,,,,MVFR,,,,,,1.11,,,,,,SPECI,1.0
KONT 021953Z 24007KT 7SM FEW031 21/12 A2997 RMK AO2 SLP139 T02110117,KONT,2023-06-02T19:53:00Z,34.05,-117.58,21.1,11.7,240,7,,7.0,29.970472,1013.9,,,TRUE,,,,,,,FEW,3100,,,,,,,VFR,,,,,,,,,,,,METAR,279.0
KONO 021953Z AUTO 22010KT 10SM CLR 26/07 A2996 RMK AO2 SLP133 T02610072 $,KONO,2023-06-02T19:53:00Z,44.02,-117.02,26.1,7.2,220,10,,10.0,29.958662,1013.3,,TRUE,TRUE,TRUE,,,,,,CLR,,,,,,,,VFR,,,,,,,,,,,,METAR,668.0
KOMK 021953Z AUTO 20006KT 10SM CLR 26/02 A2999 RMK AO2 SLP149 T02610022,KOMK,2023-06-02T19:53:00Z,48.47,-119.52,26.1,2.2,200,6,,10.0,29.991142,1014.9,,TRUE,TRUE,,,,,,,CLR,,,,,,,,VFR,,,,,,,,,,,,METAR,395.0
KOLF 021953Z AUTO 06012KT 10SM CLR 26/18 A2988 RMK AO2 SLP111 T02560178,KOLF,2023-06-02T19:53:00Z,48.1,-105.58,25.6,17.8,60,12,,10.0,29.878937,1011.1,,TRUE,TRUE,,,,,,,CLR,,,,,,,,VFR,,,,,,,,,,,,METAR,605.0
KOJC 021953Z 16009G16KT 10SM FEW050 31/19 A2995 RMK AO2 SLP130 T03060189,KOJC,2023-06-02T19:53:00Z,38.85,-94.73,30.6,18.9,160,9,16,10.0,29.949802,1013.0,,,TRUE,,,,,,,FEW,5000,,,,,,,VFR,,,,,,,,,,,,SPECI,328.0
KOGD 021953Z 32007KT 10SM FEW049 22/07 A2999 RMK AO2 SLP109 T02220072,KOGD,2023-06-02T19:53:00Z,41.2,-112.02,22.2,7.2,320,7,,10.0,29.991142,1010.9,,,TRUE,,,,,,,FEW,4900,,,,,,,VFR,,,,,,,,,,,,METAR,1356.0
KOGB 021953Z AUTO 03007G16KT 360V060 10SM BKN060 28/17 A2985 RMK AO2 SLP104 T02780172,KOGB,2023-06-02T19:53:00Z,33.47,-80.85,27.8,17.2,30,7,16,10.0,29.84941,1010.4,,TRUE,TRUE,,,,,,,BKN,6000,,,,,,,VFR,,,,,,,,,,,,SPECI,59.0
KODX 021953Z AUTO 16012G20KT 10SM CLR 21/17 A2997 RMK AO2 SLP140 T02110172,KODX,2023-06-02T19:53:00Z,41.62,-98.95,21.1,17.2,160,12,20,10.0,29.970472,1014.0,,TRUE,TRUE,,,,,,,CLR,,,,,,,,VFR,,,,,,,,,,,,METAR,628.0
KODO 021953Z AUTO 8SM FEW033 29/18 A2982 RMK AO2 LTG DSNT NW PRESFR SLP048 T02890178,KODO,2023-06-02T19:53:00Z,31.92,-102.4,28.9,17.8,,,,8.0,29.819881,1004.8,,TRUE,TRUE,,,,,,,FEW,3300,,,,,,,VFR,,,,,,,,,,,,METAR,912.0
KOAK 021953Z 28008KT 10SM CLR 18/10 A3001 RMK AO2 SLP163 T01830100,KOAK,2023-06-02T19:53:00Z,37.72,-122.23,18.3,10.0,280,8,,10.0,30.008858,1016.3,,,TRUE,,,,,,,CLR,,,,,,,,VFR,,,,,,,,,,,,METAR,3.0
KNUW 021953Z 29007KT 10SM CLR 14/09 A3013 RMK AO2 SLP208 T01390089 $,KNUW,2023-06-02T19:53:00Z,48.35,-122.65,13.9,8.9,290,7,,10.0,30.129921,1020.8,,,TRUE,TRUE,,,,,,CLR,,,,,,,,VFR,,,,,,,,,,,,METAR,14.0
KNUI 021953Z AUTO 24005KT 9SM CLR 28/14 A2987 RMK AO2 SLP113 T02780144,KNUI,2023-06-02T19:53:00Z,38.15,-76.43,27.8,14.4,240,5,,9.0,29.870079,1011.3,,TRUE,TRUE,,,,,,,CLR,,,,,,,,VFR,,,,,,,,,,,,METAR,4.0
KNSI 021953Z VRB04G14KT 10SM BKN019 17/12 A3001 RMK AO2 SLP157 T01670122 $,KNSI,2023-06-02T19:53:00Z,33.23,-119.45,16.7,12.2,0,4,14,10.0,30.008858,1015.7,,,TRUE,TRUE,,,,,,BKN,1900,,,,,,,MVFR,,,,,,,,,,,,METAR,161.0
KNRS 021953Z 29011KT 10SM FEW018 SCT030 19/12 A3000 RMK AO2 SLP157 T01940117 $,KNRS,2023-06-02T19:53:00Z,32.57,-117.12,19.4,11.7,290,11,,10.0,30.0,1015.7,,,TRUE,TRUE,,,,,,FEW,1800,SCT,3000,,,,,VFR,,,,,,,,,,,,METAR,15.0
KNIP 021953Z 04011KT 10SM SCT040 BKN250 28/19 A2980 RMK AO2 SLP087 T02830189,KNIP,2023-06-02T19:53:00Z,30.23,-81.67,28.3,18.9,40,11,,10.0,29.799213,1008.7,,,TRUE,,,,,,,SCT,4000,BKN,25000,,,,,VFR,,,,,,,,,,,,METAR,3.0
KNFG 021953Z 35008KT 10SM OVC028 21/13 A2998 RMK AO2 SLP150 T02060133 $,KNFG,2023-06-02T19:53:00Z,33.3,-117.35,20.6,13.3,350,8,,10.0,29.97933,1015.0,,,TRUE,TRUE,,,,,,OVC,2800,,,,,,,MVFR,,,,,,,,,,,,METAR,21.0
KNEW 021953Z 30004KT 10SM CLR 31/20 A2986 RMK AO2 SLP103 T03060200 $,KNEW,2023-06-02T19:53:00Z,30.05,-90.03,30.6,20.0,300,4,,10.0,29.861221,1010.3,,,TRUE,TRUE,,,,,,CLR,,,,,,,,VFR,,,,,,,,,,,,SPECI,1.0
KMYV 021953Z AUTO VRB05KT 10SM CLR 27/12 A2994 RMK AO2 SLP141 T02670117,KMYV,2023-06-02T19:53:00Z,39.1,-121.57,26.7,11.7,0,5,,10.0,29.940945,1014.1,,TRUE,TRUE,,,,,,,CLR,,,,,,,,VFR,,,,,,,,,,,,METAR,18.0
KMYF 021953Z 31007KT 10SM OVC020 19/12 A2999 RMK AO2 SLP151 T01890122,KMYF,2023-06-02T19:53:00Z,32.82,-117.13,18.9,12.2,310,7,,10.0,29.991142,1015.1,,,TRUE,,,,,,,OVC,2000,,,,,,,MVFR,,,,,,,,,,,,METAR,128.0
KMWT 021953Z AUTO VRB03KT 10SM FEW095 31/17 A2991 RMK AO2 SLP117 T03060167,KMWT,2023-06-02T19:53:00Z,34.55,-93.58,30.6,16.7,0,3,,10.0,29.911417,1011.7,,TRUE,TRUE,,,,,,,FEW,9500,,,,,,,VFR,,,,,,,,,,,,METAR,220.0
KMWL 021953Z AUTO 14009G18KT 10SM FEW050 SCT100 31/18 A2986 RMK AO2 SLP096 T03110183,KMWL,2023-06-02T19:53:00Z,32.78,-98.07,31.1,18.3,140,9,18,10.0,29.861221,1009.6,,TRUE,TRUE,,,,,,,FEW,5000,SCT,10000,,,,,VFR,,,,,,,,,,,,METAR,288.0
KMVY 021953Z 19009KT 10SM CLR 23/17 A2987 RMK AO2 SLP115 T02280172,KMVY,2023-06-02T19:53:00Z,41.4,-70.62,22.8,17.2,190,9,,10.0,29.870079,1011.5,,,TRUE,,,,,,,CLR,,,,,,,,VFR,,,,,,,,,,,,SPECI,18.0
KMTO 021953Z AUTO VRB05G14KT 10SM CLR 33/06 A2996 RMK AO2 SLP140 T03330056,KMTO,2023-06-02T19:53:00Z,39.47,-88.27,33.3,5.6,0,5,14,10.0,29.958662,1014.0,,TRUE,TRUE,,,,,,,CLR,,,,,,,,VFR,,,,,,,,,,,,SPECI,216.0
KMTN 021953Z 13006KT 10SM SCT055 30/15 A2986,KMTN,2023-06-02T19:53:00Z,39.32,-76.42,30.0,15.0,130,6,,10.0,29.861221,,,,,,,,,,,SCT,5500,,,,,,,VFR,,,,,,,,,,,,METAR,2.0
KMTJ 021953Z AUTO 27003KT 10SM FEW090 17/06 A3006 RMK AO2 SLP128 T01670056,KMTJ,2023-06-02T19:53:00Z,38.5,-107.9,16.7,5.6,270,3,,10.0,30.059055,1012.8,,TRUE,TRUE,,,,,,,FEW,9000,,,,,,,VFR,,,,,,,,,,,,METAR,1755.0
KMTH 021953Z AUTO 00000KT 10SM TS SCT023 SCT031 BKN085 29/23 A2971 RMK AO2 TSB48 SLP059 T02940233,KMTH,2023-06-02T19:53:00Z,24.73,-81.05,29.4,23.3,0,0,,10.0,29.71063,1005.9,,TRUE,TRUE,,,,,,TS,SCT,2300,SCT,3100,BKN,8500,,,VFR,,,,,,,,,,,,SPECI,1.0
KMSY 021953Z 31007KT 10SM FEW055 31/18 A2985 RMK AO2 SLP111 T03110183,KMSY,2023-06-02T19:53:00Z,30.0,-90.25,31.1,18.3,310,7,,10.0,29.84941,1011.1,,,TRUE,,,,,,,FEW,5500,,,,,,,VFR,,,,,,,,,,,,SPECI,0.0
KMSS 021953Z AUTO 02005KT 10SM CLR 31/14 A2993 RMK AO2 LTG DSNT N AND NE SLP134 T03110144,KMSS,2023-06-02T19:53:00Z,44.93,-74.85,31.1,14.4,20,5,,10.0,29.929134,1013.4,,TRUE,TRUE,,,,,,,CLR,,,,,,,,VFR,,,,,,,,,,,,SPECI,60.0
KMSP 021953Z 18003KT 10SM -RA FEW055 SCT080 OVC100 26/18 A3004 RMK AO2 LTG DSNT E RAB17 TSE07 SLP167 P0000 T02560183,KMSP,2023-06-02T19:53:00Z,44.88,-93.23,25.6,18.3,180,3,,10.0,30.041338,1016.7,,,TRUE,,,,,,-RA,FEW,5500,SCT,8000,OVC,10000,,,VFR,,,,,,0.005,,,,,,SPECI,255.0
KMSO 021953Z 00000KT 10SM OVC065 21/11 A3004 RMK AO2 SLP154 T02060106,KMSO,2023-06-02T19:53:00Z,46.92,-114.1,20.6,10.6,0,0,,10.0,30.041338,1015.4,,,TRUE,,,,,,,OVC,6500,,,,,,,VFR,,,,,,,,,,,,METAR,974.0
KMSN 021953Z 13007KT 10SM SCT070TCU BKN250 31/16 A3002 RMK AO2 SLP161 TCU OHD T03060161,KMSN,2023-06-02T19:53:00Z,43.13,-89.35,30.6,16.1,130,7,,10.0,30.02067,1016.1,,,TRUE,,,,,,,SCT,7000,BKN,25000,,,,,VFR,,,,,,,,,,,,METAR,262.0
KMSL 021953Z AUTO 02006KT 10SM FEW060 FEW110 32/18 A2988 RMK AO2 LTG DSNT N AND SE SLP113 T03220178,KMSL,2023-06-02T19:53:00Z,34.75,-87.6,32.2,17.8,20,6,,10.0,29.878937,1011.3,,TRUE,TRUE,,,,,,,FEW,6000,FEW,11000,,,,,VFR,,,,,,,,,,,,SPECI,170.0
KMRB 021953Z VRB03KT 10SM CLR 31/10 A2989 RMK AO2 SLP118 T03110100,KMRB,2023-06-02T19:53:00Z,39.4,-77.98,31.1,10.0,0,3,,10.0,29.890747,1011.8,,,TRUE,,,,,,,CLR,,,,,,,,VFR,,,,,,,,,,,,SPECI,165.0
KMPO 021953Z AUTO 00000KT 10SM VCTS FEW100 31/11 A2993 RMK AO2 LTG DSNT N AND NE SLP122 T03060111,KMPO,2023-06-02T19:53:00Z,41.13,-75.38,30.6,11.1,0,0,,10.0,29.929134,1012.2,,TRUE,TRUE,,,,,,VCTS,FEW,10000,,,,,,,VFR,,,,,,,,,,,,SPECI,576.0
KMOD 021953Z 29005KT 10SM CLR 25/09 A2994 RMK AO2 SLP137 T02500089,KMOD,2023-06-02T19:53:00Z,37.62,-120.95,25.0,8.9,290,5,,10.0,29.940945,1013.7,,,TRUE,,,,,,,CLR,,,,,,,,VFR,,,,,,,,,,,,METAR,25.0
KMNN 021953Z AUTO 04016KT 9SM SCT085 33/11 A2999 RMK AO2 SLP149 T03280111,KMNN,2023-06-02T19:53:00Z,40.62,-83.07,32.8,11.1,40,16,,9.0,29.991142,1014.9,,TRUE,TRUE,,,,,,,SCT,8500,,,,,,,VFR,,,,,,,,,,,,METAR,301.0
KMMV 021953Z AUTO 21005KT 10SM CLR 20/08 A3010 RMK AO2 SLP193 T02000078,KMMV,2023-06-02T19:53:00Z,45.2,-123.13,20.0,7.8,210,5,,10.0,30.100393,1019.3,,TRUE,TRUE,,,,,,,CLR,,,,,,,,VFR,,,,,,,,,,,,METAR,48.0
KMMK 021953Z AUTO 24006KT 4SM VCTS HZ FEW033 BKN075 29/17 A2985 RMK AO2 LTG DSNT W-NE PRESRR SLP107 T02890167 $,KMMK,2023-06-02T19:53:00Z,41.52,-72.83,28.9,16.7,240,6,,4.0,29.84941,1010.7,,TRUE,TRUE,TRUE,,,,,VCTS HZ,FEW,3300,BKN,7500,,,,,MVFR,,,,,,,,,,,,SPECI,30.0
KMLU 021953Z 00000KT 10SM SCT060 32/18 A2990 RMK AO2 SLP122 T03170178,KMLU,2023-06-02T19:53:00Z,32.52,-92.03,31.7,17.8,0,0,,10.0,29.899607,1012.2,,,TRUE,,,,,,,SCT,6000,,,,,,,VFR,,,,,,,,,,,,METAR,22.0
KMLT 021953Z AUTO VRB06KT 4SM RA BR BKN075 OVC100 17/16 A3000 RMK AO2 LTG DSNT SW-N SLP163 P0009 T01720156,KMLT,2023-06-02T19:53:00Z,45.65,-68.7,17.2,15.6,0,6,,4.0,30.0,1016.3,,TRUE,TRUE,,,,,,RA BR,BKN,7500,OVC,10000,,,,,MVFR,,,,,,0.09,,,,,,SPECI,121.0
KMLS 021953Z AUTO 12011KT 10SM BKN041 BKN055 OVC090 25/14 A2982 RMK AO2 LTG DSNT NE SLP082 T02500144,KMLS,2023-06-02T19:53:00Z,46.43,-105.88,25.0,14.4,120,11,,10.0,29.819881,1008.2,,TRUE,TRUE,,,,,,,BKN,4100,BKN,5500,OVC,9000,,,VFR,,,,,,,,,,,,METAR,800.0
KMLP 021953Z AUTO 00000KT 10SM BKN023 BKN037 OVC060 14/07 A3013 RMK AO2 SLP124 T01390072,KMLP,2023-06-02T19:53:00Z,47.45,-115.67,13.9,7.2,0,0,,10.0,30.129921,1012.4,,TRUE,TRUE,,,,,,,BKN,2300,BKN,3700,OVC,6000,,,MVFR,,,,,,,,,,,,METAR,1837.0
KMLC 021953Z AUTO VRB06KT 10SM CLR 31/17 A2990 RMK AO2 SLP116 T03110172,KMLC,2023-06-02T19:53:00Z,34.88,-95.78,31.1,17.2,0,6,,10.0,29.899607,1011.6,,TRUE,TRUE,,,,,,,CLR,,,,,,,,VFR,,,,,,,,,,,,METAR,231.0
KMLB 021953Z 03012KT 10SM BKN023 28/22 A2973 RMK AO2 SLP067 T02780217,KMLB,2023-06-02T19:53:00Z,28.1,-80.65,27.8,21.7,30,12,,10.0,29.731298,1006.7,,,TRUE,,,,,,,BKN,2300,,,,,,,MVFR,,,,,,,,,,,,METAR,7.0
KMKO 021953Z AUTO 13009KT 10SM FEW050 31/19 A2993 RMK AO2 SLP127 T03060194,KMKO,2023-06-02T19:53:00Z,35.65,-95.37,30.6,19.4,130,9,,10.0,29.929134,1012.7,,TRUE,TRUE,,,,,,,FEW,5000,,,,,,,VFR,,,,,,,,,,,,METAR,184.0
KMKL 021953Z 10006KT 10SM FEW055 31/18 A2991 RMK AO2 SLP124 T03110183,KMKL,2023-06-02T19:53:00Z,35.6,-88.92,31.1,18.3,100,6,,10.0,29.911417,1012.4,,,TRUE,,,,,,,FEW,5500,,,,,,,VFR,,,,,,,,,,,,METAR,130.0
KMIW 021953Z AUTO 16010KT 10SM CLR 29/19 A3000 RMK AO2 LTG DSNT E-S SLP151 T02940189,KMIW,2023-06-02T19:53:00Z,42.12,-92.92,29.4,18.9,160,10,,10.0,30.0,1015.1,,TRUE,TRUE,,,,,,,CLR,,,,,,,,VFR,,,,,,,,,,,,SPECI,296.0
KMIE 021953Z 05011KT 10SM CLR 33/07 A2999 RMK AO2 SLP145 T03330067,KMIE,2023-06-02T19:53:00Z,40.23,-85.4,33.3,6.7,50,11,,10.0,29.991142,1014.5,,,TRUE,,,,,,,CLR,,,,,,,,VFR,,,,,,,,,,,,METAR,286.0
KMIC 021953Z 16004KT 10SM CLR 29/17 A3002 RMK AO2 SLP159 T02890172,KMIC,2023-06-02T19:53:00Z,45.07,-93.35,28.9,17.2,160,4,,10.0,30.02067,1015.9,,,TRUE,,,,,,,CLR,,,,,,,,VFR,,,,,,,,,,,,METAR,263.0
KMIA 021953Z 03005KT 10SM TS SCT035CB BKN055 BKN100 BKN250 27/22 A2973 RMK AO2 RAB1859E22 SLP068 OCNL LTGICCG N-NE TS N-NE MOV NE CB DSNT SW P0002 T02670217 $,KMIA,2023-06-02T19:53:00Z,25.8,-80.32,26.7,21.7,30,5,,10.0,29.731298,1006.8,,,TRUE,TRUE,,,,,TS,SCT,3500,BKN,5500,BKN,10000,BKN,25000,VFR,,,,,,0.02,,,,,,METAR,1.0
KMHT 021953Z 16008G16KT 10SM -TSRA FEW040CB SCT090 BKN150 BKN250 23/19 A2983 RMK AO2 PK WND 02029/1915 LTG DSNT S AND SW RAB21 SLP111 OCNL LTGCG S-SW TS S-SW MOV S P0013 T02280189,KMHT,2023-06-02T19:53:00Z,42.93,-71.43,22.8,18.9,160,8,16,10.0,29.828741,1011.1,,,TRUE,,,,,,-TSRA,FEW,4000,SCT,9000,BKN,15000,BKN,25000,VFR,,,,,,0.13,,,,,,SPECI,68.0
KMHE 021953Z AUTO 15013G23KT 10SM CLR 31/13 A2993 RMK AO2 PK WND 17026/1857 LTG DSNT SE SLP124 T03110128,KMHE,2023-06-02T19:53:00Z,43.77,-98.03,31.1,12.8,150,13,23,10.0,29.929134,1012.4,,TRUE,TRUE,,,,,,,CLR,,,,,,,,VFR,,,,,,,,,,,,METAR,397.0
KMGY 021953Z AUTO 08007KT 10SM CLR 32/09 A2997 RMK AO2 SLP140 T03220094,KMGY,2023-06-02T19:53:00Z,39.6,-84.23,32.2,9.4,80,7,,10.0,29.970472,1014.0,,TRUE,TRUE,,,,,,,CLR,,,,,,,,VFR,,,,,,,,,,,,METAR,290.0
KMGW 021953Z 02009KT 10SM SCT075 32/11 A2996 RMK AO2 SLP137 T03170111 $,KMGW,2023-06-02T19:53:00Z,39.65,-79.92,31.7,11.1,20,9,,10.0,29.958662,1013.7,,,TRUE,TRUE,,,,,,SCT,7500,,,,,,,VFR,,,,,,,,,,,,SPECI,375.0
KMGM 021953Z 03007KT 10SM FEW060 32/17 A2985 RMK AO2 SLP105 T03170172,KMGM,2023-06-02T19:53:00Z,32.3,-86.4,31.7,17.2,30,7,,10.0,29.84941,1010.5,,,TRUE,,,,,,,FEW,6000,,,,,,,VFR,,,,,,,,,,,,METAR,64.0
KMFR 021953Z 00000KT 10SM CLR 22/04 A3003 RMK AO2 SLP164 T02220044,KMFR,2023-06-02T19:53:00Z,42.38,-122.87,22.2,4.4,0,0,,10.0,30.029528,1016.4,,,TRUE,,,,,,,CLR,,,,,,,,VFR,,,,,,,,,,,,METAR,397.0
KMFE 021953Z 13011KT 10SM FEW041 BKN070 32/23 A2982 RMK AO2 SLP095 T03170228,KMFE,2023-06-02T19:53:00Z,26.18,-98.25,31.7,22.8,130,11,,10.0,29.819881,1009.5,,,TRUE,,,,,,,FEW,4100,BKN,7000,,,,,VFR,,,,,,,,,,,,METAR,29.0
KMER 021953Z 30005KT 10SM CLR 28/09 A2994,KMER,2023-06-02T19:53:00Z,37.38,-120.57,28.0,9.0,300,5,,10.0,29.940945,,,,,,,,,,,CLR,,,,,,,,VFR,,,,,,,,,,,,METAR,58.0
KMDW 021953Z 05011KT 10SM BKN250 32/07 A3003 RMK AO2 SLP156 T03170072,KMDW,2023-06-02T19:53:00Z,41.78,-87.75,31.7,7.2,50,11,,10.0,30.029528,1015.6,,,TRUE,,,,,,,BKN,25000,,,,,,,VFR,,,,,,,,,,,,SPECI,186.0
KMCW 021953Z AUTO 15011G16KT 10SM VCTS CLR 31/16 A3002 RMK AO2 LTG DSNT ALQDS SLP150 T03110161,KMCW,2023-06-02T19:53:00Z,43.15,-93.33,31.1,16.1,150,11,16,10.0,30.02067,1015.0,,TRUE,TRUE,,,,,,VCTS,CLR,,,,,,,,VFR,,,,,,,,,,,,METAR,363.0
KMCO 021953Z 08012G21KT 10SM FEW043 SCT060 SCT095 BKN250 31/21 A2971 RMK AO2 LTG DSNT SW SLP060 CB DSNT SE T03060206,KMCO,2023-06-02T19:53:00Z,28.42,-81.33,30.6,20.6,80,12,21,10.0,29.71063,1006.0,,,TRUE,,,,,,,FEW,4300,SCT,6000,SCT,9500,BKN,25000,VFR,,,,,,,,,,,,METAR,27.0
KMCN 021953Z 03009G18KT 10SM FEW050 BKN080 29/17 A2984 RMK AO2 SLP100 T02940172,KMCN,2023-06-02T19:53:00Z,32.68,-83.65,29.4,17.2,30,9,18,10.0,29.840551,1010.0,,,TRUE,,,,,,,FEW,5000,BKN,8000,,,,,VFR,,,,,,,,,,,,METAR,104.0
KMCK 021953Z AUTO 11005KT 10SM CLR 24/17 A2992 RMK AO2 SLP114 T02390167,KMCK,2023-06-02T19:53:00Z,40.2,-100.58,23.9,16.7,110,5,,10.0,29.920275,1011.4,,TRUE,TRUE,,,,,,,CLR,,,,,,,,VFR,,,,,,,,,,,,SPECI,780.0
KMCI 021953Z 14011G16KT 10SM SCT060 30/19 A2995 RMK AO2 SLP131 T03000194,KMCI,2023-06-02T19:53:00Z,39.3,-94.73,30.0,19.4,140,11,16,10.0,29.949802,1013.1,,,TRUE,,,,,,,SCT,6000,,,,,,,VFR,,,,,,,,,,,,METAR,308.0
KMCE 021953Z AUTO VRB06KT 10SM CLR 26/09 A2993 RMK AO2 SLP135 T02610094,KMCE,2023-06-02T19:53:00Z,37.28,-120.5,26.1,9.4,0,6,,10.0,29.929134,1013.5,,TRUE,TRUE,,,,,,,CLR,,,,,,,,VFR,,,,,,,,,,,,METAR,49.0
KMCB 021953Z AUTO VRB06KT 10SM FEW060 32/17 A2987 RMK AO2 SLP109 T03220167,KMCB,2023-06-02T19:53:00Z,31.18,-90.47,32.2,16.7,0,6,,10.0,29.870079,1010.9,,TRUE,TRUE,,,,,,,FEW,6000,,,,,,,VFR,,,,,,,,,,,,METAR,124.0
KMBS 021953Z 05008KT 10SM CLR 31/11 A3007 RMK AO2 SLP179 T03060106,KMBS,2023-06-02T19:53:00Z,43.53,-84.08,30.6,10.6,50,8,,10.0,30.070866,1017.9,,,TRUE,,,,,,,CLR,,,,,,,,VFR,,,,,,,,,,,,METAR,201.0
KMAI 021953Z AUTO 10SM BKN060 31/17 A2980 RMK AO2 SLP088 T03060167,KMAI,2023-06-02T19:53:00Z,30.83,-85.18,30.6,16.7,,,,10.0,29.799213,1008.8,,TRUE,TRUE,,,,,,,BKN,6000,,,,,,,VFR,,,,,,,,,,,,METAR,33.0
KMAF 021953Z 16027G37KT 10SM FEW028 SCT037 28/18 A2983 RMK AO2 PK WND 13041/1938 RAB24E34 SLP055 P0000 T02780183,KMAF,2023-06-02T19:53:00Z,31.95,-102.2,27.8,18.3,160,27,37,10.0,29.828741,1005.5,,,TRUE,,,,,,,FEW,2800,SCT,3700,,,,,VFR,,,,,,0.005,,,,,,METAR,874.0
KMAE 021953Z AUTO 31007KT 270V340 10SM CLR 27/11 A2994 RMK AO2 SLP137 T02670111,KMAE,2023-06-02T19:53:00Z,36.98,-120.12,26.7,11.1,310,7,,10.0,29.940945,1013.7,,TRUE,TRUE,,,,,,,CLR,,,,,,,,VFR,,,,,,,,,,,,METAR,77.0
KLXV 021953Z AUTO 19006KT 10SM FEW025 BKN060 OVC085 07/03 A3018 RMK AO2 RAE33 SLP107 P0003 T00720033,KLXV,2023-06-02T19:53:00Z,39.23,-106.32,7.2,3.3,190,6,,10.0,30.180119,1010.7,,TRUE,TRUE,,,,,,,FEW,2500,BKN,6000,OVC,8500,,,VFR,,,,,,0.03,,,,,,METAR,3027.0
KLXT 021953Z AUTO 15006KT 10SM SCT050 30/19 A2996 RMK AO2 SLP134 T03000189,KLXT,2023-06-02T19:53:00Z,38.97,-94.37,30.0,18.9,150,6,,10.0,29.958662,1013.4,,TRUE,TRUE,,,,,,,SCT,5000,,,,,,,VFR,,,,,,,,,,,,METAR,306.0
KLWV 021953Z AUTO 05009G18KT 10SM CLR 34/08 A2995 RMK AO2 SLP139 T03390083,KLWV,2023-06-02T19:53:00Z,38.77,-87.6,33.9,8.3,50,9,18,10.0,29.949802,1013.9,,TRUE,TRUE,,,,,,,CLR,,,,,,,,VFR,,,,,,,,,,,,METAR,128.0
KLWD 021953Z AUTO 14006G16KT 10SM CLR 31/16 A2997 RMK AO2 SLP140 T03060156,KLWD,2023-06-02T19:53:00Z,40.63,-93.9,30.6,15.6,140,6,16,10.0,29.970472,1014.0,,TRUE,TRUE,,,,,,,CLR,,,,,,,,VFR,,,,,,,,,,,,METAR,345.0
KLVS 021953Z AUTO VRB03KT 10SM SCT060 OVC070 13/02 A3009 RMK AO2 PK WND 18033/1855 WSHFT 1908 LTG DSNT S-NW RAB15E30 SLP111 P0000 T01280017,KLVS,2023-06-02T19:53:00Z,35.65,-105.13,12.8,1.7,0,3,,10.0,30.088583,1011.1,,TRUE,TRUE,,,,,,,SCT,6000,OVC,7000,,,,,VFR,,,,,,0.005,,,,,,METAR,2095.0
KLVM 021953Z AUTO 33010KT 9SM -RA OVC065 14/12 A3003 RMK AO2 SLP146 P0004 T01440117,KLVM,2023-06-02T19:53:00Z,45.7,-110.43,14.4,11.7,330,10,,9.0,30.029528,1014.6,,TRUE,TRUE,,,,,,-RA,OVC,6500,,,,,,,VFR,,,,,,0.04,,,,,,METAR,1418.0
KLVK 021953Z 27006KT 10SM CLR 23/10 A2997 RMK AO2 SLP144 T02330100,KLVK,2023-06-02T19:53:00Z,37.7,-121.82,23.3,10.0,270,6,,10.0,29.970472,1014.4,,,TRUE,,,,,,,CLR,,,,,,,,VFR,,,,,,,,,,,,METAR,120.0
KLVJ 021953Z AUTO 13007KT 9SM FEW031 BKN080 OVC100 32/19 A2990 RMK AO2 SLP123 T03170194,KLVJ,2023-06-02T19:53:00Z,29.52,-95.25,31.7,19.4,130,7,,9.0,29.899607,1012.3,,TRUE,TRUE,,,,,,,FEW,3100,BKN,8000,OVC,10000,,,VFR,,,,,,,,,,,,METAR,11.0
KLUK 021953Z 07009KT 10SM CLR 33/12 A2994 RMK AO2 SLP136 T03280117,KLUK,2023-06-02T19:53:00Z,39.1,-84.42,32.8,11.7,70,9,,10.0,29.940945,1013.6,,,TRUE,,,,,,,CLR,,,,,,,,VFR,,,,,,,,,,,,METAR,144.0
KLSE 021953Z 30003KT 10SM FEW055 SCT100 BKN120 31/17 A3001 RMK AO2 SLP152 T03060172,KLSE,2023-06-02T19:53:00Z,43.88,-91.25,30.6,17.2,300,3,,10.0,30.008858,1015.2,,,TRUE,,,,,,,FEW,5500,SCT,10000,BKN,12000,,,VFR,,,,,,,,,,,,METAR,198.0
KLPR 021953Z AUTO 04011KT 10SM CLR 30/12 A3002 RMK AO2 SLP160 T03000117,KLPR,2023-06-02T19:53:00Z,41.35,-82.18,30.0,11.7,40,11,,10.0,30.02067,1016.0,,TRUE,TRUE,,,,,,,CLR,,,,,,,,VFR,,,,,,,,,,,,METAR,241.0
KLOZ 021953Z AUTO 03010G18KT 10SM CLR 31/10 A2995 RMK AO2 SLP129 T03060100,KLOZ,2023-06-02T19:53:00Z,37.08,-84.07,30.6,10.0,30,10,18,10.0,29.949802,1012.9,,TRUE,TRUE,,,,,,,CLR,,,,,,,,VFR,,,,,,,,,,,,METAR,361.0
KLOU 021953Z 02010KT 10SM CLR 31/11 A2995 RMK AO2 SLP136 T03110106,KLOU,2023-06-02T19:53:00Z,38.22,-85.67,31.1,10.6,20,10,,10.0,29.949802,1013.6,,,TRUE,,,,,,,CLR,,,,,,,,VFR,,,,,,,,,,,,METAR,165.0
KLOL 021953Z AUTO 00000KT 10SM FEW080 22/02 A3003 RMK AO2 SLP146 T02170022,KLOL,2023-06-02T19:53:00Z,40.07,-118.57,21.7,2.2,0,0,,10.0,30.029528,1014.6,,TRUE,TRUE,,,,,,,FEW,8000,,,,,,,VFR,,,,,,,,,,,,METAR,1191.0
KLNS 021953Z 24007KT 10SM -RA FEW080 OVC100 28/14 A2989 RMK AO2 PK WND 04030/1907 RAB06 PRESFR SLP117 P0003 T02830139,KLNS,2023-06-02T19:53:00Z,40.12,-76.3,28.3,13.9,240,7,,10.0,29.890747,1011.7,,,TRUE,,,,,,-RA,FEW,8000,OVC,10000,,,,,VFR,,,,,,0.03,,,,,,METAR,122.0
KLND 021953Z AUTO 13006KT 10SM OVC050 16/11 A2997 RMK AO2 SLP105 T01560106,KLND,2023-06-02T19:53:00Z,42.82,-108.73,15.6,10.6,130,6,,10.0,29.970472,1010.5,,TRUE,TRUE,,,,,,,OVC,5000,,,,,,,VFR,,,,,,,,,,,,METAR,1700.0
KLMT 021953Z 21010KT 10SM SCT100 19/07 A3009 RMK AO2 SLP164 T01940072,KLMT,2023-06-02T19:53:00Z,42.15,-121.72,19.4,7.2,210,10,,10.0,30.088583,1016.4,,,TRUE,,,,,,,SCT,10000,,,,,,,VFR,,,,,,,,,,,,METAR,1246.0
KLLQ 021953Z AUTO VRB03KT 10SM CLR 32/18 A2990 RMK AO2 SLP120 T03170178,KLLQ,2023-06-02T19:53:00Z,33.63,-91.75,31.7,17.8,0,3,,10.0,29.899607,1012.0,,TRUE,TRUE,,,,,,,CLR,,,,,,,,VFR,,,,,,,,,,,,METAR,86.0
KLKV 021953Z AUTO VRB05KT 10SM SCT047 18/06 A3011 RMK AO2 SLP179 T01830056,KLKV,2023-06-02T19:53:00Z,42.17,-120.4,18.3,5.6,0,5,,10.0,30.109253,1017.9,,TRUE,TRUE,,,,,,,SCT,4700,,,,,,,VFR,,,,,,,,,,,,METAR,1440.0
KLIT 021953Z 05003KT 10SM FEW060 33/18 A2990 RMK AO2 SLP124 T03280178,KLIT,2023-06-02T19:53:00Z,34.73,-92.23,32.8,17.8,50,3,,10.0,29.899607,1012.4,,,TRUE,,,,,,,FEW,6000,,,,,,,VFR,,,,,,,,,,,,METAR,77.0
KLHX 021953Z AUTO 10SM FEW090 26/10 A2985 RMK AO2 SLP053 T02560100 $,KLHX,2023-06-02T19:53:00Z,38.05,-103.52,25.6,10.0,,,,10.0,29.84941,1005.3,,TRUE,TRUE,TRUE,,,,,,FEW,9000,,,,,,,VFR,,,,,,,,,,,,METAR,1289.0
KLHQ 021953Z AUTO 04007G19KT 7SM CLR 32/11 A2996 RMK AO2 SLP141 T03220106,KLHQ,2023-06-02T19:53:00Z,39.75,-82.67,32.2,10.6,40,7,19,7.0,29.958662,1014.1,,TRUE,TRUE,,,,,,,CLR,,,,,,,,VFR,,,,,,,,,,,,METAR,259.0
KLGB 021953Z 24007KT 10SM FEW030 OVC039 21/12 A2998 RMK AO2 SLP151 T02110117,KLGB,2023-06-02T19:53:00Z,33.82,-118.15,21.1,11.7,240,7,,10.0,29.97933,1015.1,,,TRUE,,,,,,,FEW,3000,OVC,3900,,,,,VFR,,,,,,,,,,,,METAR,10.0
KLFT 021953Z 06005KT 10SM BKN050 33/19 A2987 RMK AO2 SLP114 T03280189,KLFT,2023-06-02T19:53:00Z,30.2,-91.97,32.8,18.9,60,5,,10.0,29.870079,1011.4,,,TRUE,,,,,,,BKN,5000,,,,,,,VFR,,,,,,,,,,,,METAR,9.0
KLFK 021953Z AUTO 07004KT 10SM BKN100 32/21 A2988 RMK AO2 SLP114 T03220211,KLFK,2023-06-02T19:53:00Z,31.23,-94.75,32.2,21.1,70,4,,10.0,29.878937,1011.4,,TRUE,TRUE,,,,,,,BKN,10000,,,,,,,VFR,,,,,,,,,,,,METAR,87.0
KLEE 021953Z 05012G19KT 10SM SCT043 BKN050 BKN060 31/19 A2973 RMK AO2 SLP066 T03060194,KLEE,2023-06-02T19:53:00Z,28.82,-81.82,30.6,19.4,50,12,19,10.0,29.731298,1006.6,,,TRUE,,,,,,,SCT,4300,BKN,5000,BKN,6000,,,VFR,,,,,,,,,,,,METAR,21.0
KLEB 021953Z 36006KT 10SM CLR 30/13 A2987 RMK AO2 LTG DSNT SE SLP103 T03000133,KLEB,2023-06-02T19:53:00Z,43.63,-72.3,30.0,13.3,360,6,,10.0,29.870079,1010.3,,,TRUE,,,,,,,CLR,,,,,,,,VFR,,,,,,,,,,,,SPECI,169.0
KLCH 021953Z 10003KT 10SM FEW050 SCT065 31/19 A2987 RMK AO2 SLP123 T03060194,KLCH,2023-06-02T19:53:00Z,30.13,-93.22,30.6,19.4,100,3,,10.0,29.870079,1012.3,,,TRUE,,,,,,,FEW,5000,SCT,6500,,,,,VFR,,,,,,,,,,,,METAR,2.0
KLBX 021953Z AUTO VRB05KT 10SM FEW043 31/20 A2989 RMK AO2 SLP122 T03060200,KLBX,2023-06-02T19:53:00Z,29.12,-95.47,30.6,20.0,0,5,,10.0,29.890747,1012.2,,TRUE,TRUE,,,,,,,FEW,4300,,,,,,,VFR,,,,,,,,,,,,METAR,4.0
KLBF 021953Z AUTO 14007KT 10SM FEW065 23/17 A2993 RMK AO2 LTG DSNT SE SLP114 T02280172,KLBF,2023-06-02T19:53:00Z,41.12,-100.67,22.8,17.2,140,7,,10.0,29.929134,1011.4,,TRUE,TRUE,,,,,,,FEW,6500,,,,,,,VFR,,,,,,,,,,,,METAR,843.0
KLBB 021953Z 14018G28KT 10SM -TSRA FEW026 BKN034CB BKN055 OVC170 23/18 A2986 RMK AO2 PK WND 14028/1950 LTG DSNT W-N RAB38 TSB25 SLP070 OCNL LTGCG NW-NE-OHD TS NW-NE-OHD MOV NE P0004 T02280183,KLBB,2023-06-02T19:53:00Z,33.67,-101.82,22.8,18.3,140,18,28,10.0,29.861221,1007.0,,,TRUE,,,,,,-TSRA,FEW,2600,BKN,3400,BKN,5500,OVC,17000,VFR,,,,,,0.04,,,,,,METAR,996.0
KLAX 021953Z 25013KT 10SM FEW019 FEW037 SCT040 20/12 A2999 RMK AO2 SLP153 T02000122,KLAX,2023-06-02T19:53:00Z,33.93,-118.38,20.0,12.2,250,13,,10.0,29.991142,1015.3,,,TRUE,,,,,,,FEW,1900,FEW,3700,SCT,4000,,,VFR,,,,,,,,,,,,METAR,30.0
KLAW 021953Z 16012G21KT 10SM SCT055 SCT100 31/18 A2985 RMK AO2 SLP097 T03110183,KLAW,2023-06-02T19:53:00Z,34.55,-98.42,31.1,18.3,160,12,21,10.0,29.84941,1009.7,,,TRUE,,,,,,,SCT,5500,SCT,10000,,,,,VFR,,,,,,,,,,,,METAR,328.0
KLAR 021953Z AUTO 23013KT 10SM SCT029 BKN036 BKN060 12/06 A3004 RMK AO2 LTG DSNT E SLP100 T01220056 $,KLAR,2023-06-02T19:53:00Z,41.32,-105.67,12.2,5.6,230,13,,10.0,30.041338,1010.0,,TRUE,TRUE,TRUE,,,,,,SCT,2900,BKN,3600,BKN,6000,,,VFR,,,,,,,,,,,,METAR,2217.0
KLAN 021953Z 02007KT 10SM CLR 32/10 A3006 RMK AO2 SLP173 T03170100,KLAN,2023-06-02T19:53:00Z,42.78,-84.58,31.7,10.0,20,7,,10.0,30.059055,1017.3,,,TRUE,,,,,,,CLR,,,,,,,,VFR,,,,,,,,,,,,METAR,261.0
KLAA 021953Z AUTO 02012G23KT 10SM BKN070 BKN090 22/10 A2984 RMK AO2 PK WND 27033/1921 WSHFT 1920 LTG DSNT N SLP066 T02220100,KLAA,2023-06-02T19:53:00Z,38.07,-102.68,22.2,10.0,20,12,23,10.0,29.840551,1006.6,,TRUE,TRUE,,,,,,,BKN,7000,BKN,9000,,,,,VFR,,,,,,,,,,,,METAR,1129.0
KJLN 021953Z 15007KT 10SM FEW060 30/18 A2995 RMK AO2 SLP129 T03000178,KJLN,2023-06-02T19:53:00Z,37.15,-94.5,30.0,17.8,150,7,,10.0,29.949802,1012.9,,,TRUE,,,,,,,FEW,6000,,,,,,,VFR,,,,,,,,,,,,METAR,297.0
KJKL 021953Z AUTO 00000KT 10SM CLR 29/14 A2996 RMK AO2 SLP130 T02940139,KJKL,2023-06-02T19:53:00Z,37.6,-83.32,29.4,13.9,0,0,,10.0,29.958662,1013.0,,TRUE,TRUE,,,,,,,CLR,,,,,,,,VFR,,,,,,,,,,,,METAR,414.0
KJER 021953Z AUTO 27012G21KT 10SM CLR 23/06 A2999 RMK AO2 SLP122 T02280056,KJER,2023-06-02T19:53:00Z,42.72,-114.45,22.8,5.6,270,12,21,10.0,29.991142,1012.2,,TRUE,TRUE,,,,,,,CLR,,,,,,,,VFR,,,,,,,,,,,,METAR,1226.0
KJEF 021953Z 18011KT 10SM SCT060 31/18 A2994 RMK AO2 LTG DSNT ALQDS SLP125 T03110178,KJEF,2023-06-02T19:53:00Z,38.6,-92.15,31.1,17.8,180,11,,10.0,29.940945,1012.5,,,TRUE,,,,,,,SCT,6000,,,,,,,VFR,,,,,,,,,,,,METAR,167.0
KJBR 021953Z AUTO 03008KT 10SM FEW110 31/18 A2991 RMK AO2 LTG DSNT N AND NE SLP125 T03060178 $,KJBR,2023-06-02T19:53:00Z,35.83,-90.65,30.6,17.8,30,8,,10.0,29.911417,1012.5,,TRUE,TRUE,TRUE,,,,,,FEW,11000,,,,,,,VFR,,,,,,,,,,,,METAR,79.0
KIXD 021953Z 12009KT 10SM FEW055 31/18 A2996 RMK AO2 SLP132 T03110183,KIXD,2023-06-02T19:53:00Z,38.82,-94.88,31.1,18.3,120,9,,10.0,29.958662,1013.2,,,TRUE,,,,,,,FEW,5500,,,,,,,VFR,,,,,,,,,,,,METAR,322.0
KIWI 021953Z AUTO 12006KT 10SM CLR 23/12 A2990 RMK AO2 LTG DSNT W-N SLP123 T02280122,KIWI,2023-06-02T19:53:00Z,43.97,-69.72,22.8,12.2,120,6,,10.0,29.899607,1012.3,,TRUE,TRUE,,,,,,,CLR,,,,,,,,VFR,,,,,,,,,,,,SPECI,16.0
KITR 021953Z AUTO 17015G24KT 10SM CLR 24/12 A2991 RMK AO2 LTG DSNT SW AND W SLP080 T02390122,KITR,2023-06-02T19:53:00Z,39.23,-102.28,23.9,12.2,170,15,24,10.0,29.911417,1008.0,,TRUE,TRUE,,,,,,,CLR,,,,,,,,VFR,,,,,,,,,,,,METAR,1285.0
KIPL 021953Z AUTO 02004KT 10SM CLR 30/13 A2984 RMK AO2 SLP104 T03000128,KIPL,2023-06-02T19:53:00Z,32.83,-115.58,30.0,12.8,20,4,,10.0,29.840551,1010.4,,TRUE,TRUE,,,,,,,CLR,,,,,,,,VFR,,,,,,,,,,,,METAR,-16.0
KINK 021953Z AUTO 16021G32KT 10SM CLR 32/17 A2977 RMK AO2 PK WND 14032/1946 LTG DSNT N SLP031 T03170172,KINK,2023-06-02T19:53:00Z,31.78,-103.2,31.7,17.2,160,21,32,10.0,29.769686,1003.1,,TRUE,TRUE,,,,,,,CLR,,,,,,,,VFR,,,,,,,,,,,,METAR,857.0
KIML 021953Z AUTO 15011G16KT 10SM SCT039 SCT047 BKN060 23/17 A2990 RMK AO2 LTG DSNT SW AND W SLP101 T02330167,KIML,2023-06-02T19:53:00Z,40.52,-101.62,23.3,16.7,150,11,16,10.0,29.899607,1010.1,,TRUE,TRUE,,,,,,,SCT,3900,SCT,4700,BKN,6000,,,VFR,,,,,,,,,,,,SPECI,997.0
KILM 021953Z 04012KT 10SM SCT026 BKN038 OVC070 28/20 A2983 RMK AO2 RAB16E31 SLP101 P0000 T02780200,KILM,2023-06-02T19:53:00Z,34.27,-77.9,27.8,20.0,40,12,,10.0,29.828741,1010.1,,,TRUE,,,,,,,SCT,2600,BKN,3800,OVC,7000,,,VFR,,,,,,0.005,,,,,,SPECI,9.0
KIDA 021953Z 20012G18KT 10SM BKN065 20/10 A3001 RMK AO2 SLP131 T02000100,KIDA,2023-06-02T19:53:00Z,43.52,-112.07,20.0,10.0,200,12,18,10.0,30.008858,1013.1,,,TRUE,,,,,,,BKN,6500,,,,,,,VFR,,,,,,,,,,,,METAR,1444.0
KICT 021953Z 19010KT 10SM FEW055 SCT075 BKN110 29/17 A2995 RMK AO2 LTG DSNT SW-NW PRESRR SLP128 OCNL LTGICCG DSNT SW-NW CB DSNT SW-NW TCU ALQDS T02890172,KICT,2023-06-02T19:53:00Z,37.65,-97.43,28.9,17.2,190,10,,10.0,29.949802,1012.8,,,TRUE,,,,,,,FEW,5500,SCT,7500,BKN,11000,,,VFR,,,,,,,,,,,,METAR,428.0
KIAH 021953Z 14005KT 10SM SCT055 SCT250 33/19 A2987 RMK AO2 SLP115 T03280189,KIAH,2023-06-02T19:53:00Z,30.0,-95.37,32.8,18.9,140,5,,10.0,29.870079,1011.5,,,TRUE,,,,,,,SCT,5500,SCT,25000,,,,,VFR,,,,,,,,,,,,METAR,27.0
KIAG 021953Z 35010KT 10SM CLR 32/14 A2997 RMK AO2 SLP143 T03220144,KIAG,2023-06-02T19:53:00Z,43.12,-78.93,32.2,14.4,350,10,,10.0,29.970472,1014.3,,,TRUE,,,,,,,CLR,,,,,,,,VFR,,,,,,,,,,,,METAR,179.0
KHZY 021953Z AUTO 03008G15KT 350V060 10SM CLR 32/11 A3001 RMK AO2 SLP157 T03170111,KHZY,2023-06-02T19:53:00Z,41.78,-80.7,31.7,11.1,30,8,15,10.0,30.008858,1015.7,,TRUE,TRUE,,,,,,,CLR,,,,,,,,VFR,,,,,,,,,,,,METAR,279.0
KHYR 021953Z AUTO 08007KT 10SM TS SCT060 BKN085 22/18 A3012 RMK AO2 PK WND 07027/1911 LTG DSNT ALQDS RAB16E41 TSB40 SLP196 P0000 T02170178,KHYR,2023-06-02T19:53:00Z,46.02,-91.45,21.7,17.8,80,7,,10.0,30.121063,1019.6,,TRUE,TRUE,,,,,,TS,SCT,6000,BKN,8500,,,,,VFR,,,,,,0.005,,,,,,METAR,369.0
KHWO 021953Z 13006KT -TSRA FEW050 BKN090 OVC110 23/19 A2974 RMK AO2 LTG DSNT ALQDS SLP070 P0033 T02280189,KHWO,2023-06-02T19:53:00Z,26.0,-80.23,22.8,18.9,130,6,,,29.740158,1007.0,,,TRUE,,,,,,-TSRA,FEW,5000,BKN,9000,OVC,11000,,,,,,,,,0.33,,,,,,METAR,2.0
KHVR 021953Z AUTO 03012KT 6SM BR SCT016 OVC021 16/14 A3004 RMK AO2 SLP166 T01610144,KHVR,2023-06-02T19:53:00Z,48.55,-109.77,16.1,14.4,30,12,,6.0,30.041338,1016.6,,TRUE,TRUE,,,,,,BR,SCT,1600,OVC,2100,,,,,MVFR,,,,,,,,,,,,METAR,789.0
KHVN 021953Z 13008G15KT 100V170 9SM VCTS CLR 29/17 A2985 RMK AO2 LTG DSNT NW SLP107 T02890172,KHVN,2023-06-02T19:53:00Z,41.27,-72.88,28.9,17.2,130,8,15,9.0,29.84941,1010.7,,,TRUE,,,,,,VCTS,CLR,,,,,,,,VFR,,,,,,,,,,,,METAR,4.0
KHUL 021953Z AUTO 06011G22KT 10SM BKN070 OVC085 14/08 A3001 RMK AO2 LTG DSNT W SLP162 T01440078,KHUL,2023-06-02T19:53:00Z,46.12,-67.8,14.4,7.8,60,11,22,10.0,30.008858,1016.2,,TRUE,TRUE,,,,,,,BKN,7000,OVC,8500,,,,,VFR,,,,,,,,,,,,SPECI,148.0
KHUF 021953Z 07009G15KT 10SM CLR 32/11 A2997 RMK AO2 SLP144 T03220111,KHUF,2023-06-02T19:53:00Z,39.45,-87.32,32.2,11.1,70,9,15,10.0,29.970472,1014.4,,,TRUE,,,,,,,CLR,,,,,,,,VFR,,,,,,,,,,,,METAR,174.0
KHTL 021953Z AUTO 25006KT 10SM CLR 31/08 A3008 RMK AO2 SLP182 T03110083,KHTL,2023-06-02T19:53:00Z,44.35,-84.67,31.1,8.3,250,6,,10.0,30.079725,1018.2,,TRUE,TRUE,,,,,,,CLR,,,,,,,,VFR,,,,,,,,,,,,METAR,350.0
KHSV 021953Z 01009G18KT 10SM FEW060TCU SCT100 31/17 A2988 RMK AO2 LTG DSNT E AND SW AND W SLP111 TCU NE-SW T03110172,KHSV,2023-06-02T19:53:00Z,34.65,-86.78,31.1,17.2,10,9,18,10.0,29.878937,1011.1,,,TRUE,,,,,,,FEW,6000,SCT,10000,,,,,VFR,,,,,,,,,,,,METAR,190.0
KHSI 021953Z AUTO 31005KT 10SM SCT025 SCT033 OVC042 21/18 A3000 RMK AO2 LTG DSNT S AND SW SLP148 T02110178,KHSI,2023-06-02T19:53:00Z,40.6,-98.43,21.1,17.8,310,5,,10.0,30.0,1014.8,,TRUE,TRUE,,,,,,,SCT,2500,SCT,3300,OVC,4200,,,VFR,,,,,,,,,,,,METAR,592.0
KHRI 021953Z AUTO 26005KT 10SM CLR 26/03 A3001 RMK AO2 SLP159 T02560033,KHRI,2023-06-02T19:53:00Z,45.83,-119.27,25.6,3.3,260,5,,10.0,30.008858,1015.9,,TRUE,TRUE,,,,,,,CLR,,,,,,,,VFR,,,,,,,,,,,,METAR,194.0
KHQM 021953Z AUTO 26012KT 10SM CLR 16/08 A3016 RMK AO2 SLP215 T01560078,KHQM,2023-06-02T19:53:00Z,46.97,-123.93,15.6,7.8,260,12,,10.0,30.159449,1021.5,,TRUE,TRUE,,,,,,,CLR,,,,,,,,VFR,,,,,,,,,,,,METAR,4.0
KHOU 021953Z 14013KT 10SM SCT045 SCT085 32/21 A2987 RMK AO2 SLP120 VCSH SE T03220206,KHOU,2023-06-02T19:53:00Z,29.63,-95.28,32.2,20.6,140,13,,10.0,29.870079,1012.0,,,TRUE,,,,,,,SCT,4500,SCT,8500,,,,,VFR,,,,,,,,,,,,METAR,13.0
KHOT 021953Z AUTO 11006KT 10SM FEW065 FEW080 32/16 A2992 RMK AO2 SLP125 T03170161,KHOT,2023-06-02T19:53:00Z,34.48,-93.1,31.7,16.1,110,6,,10.0,29.920275,1012.5,,TRUE,TRUE,,,,,,,FEW,6500,FEW,8000,,,,,VFR,,,,,,,,,,,,METAR,153.0
KHLN 021953Z 30008KT 8SM -RA SCT016 OVC060 14/11 A3010 RMK AO2 SLP193 P0004 T01390106,KHLN,2023-06-02T19:53:00Z,46.6,-111.98,13.9,10.6,300,8,,8.0,30.100393,1019.3,,,TRUE,,,,,,-RA,SCT,1600,OVC,6000,,,,,VFR,,,,,,0.04,,,,,,METAR,1178.0
KHLG 021953Z 07008KT 10SM CLR 31/09 A2997 RMK AO2 SLP142 T03110089,KHLG,2023-06-02T19:53:00Z,40.17,-80.65,31.1,8.9,70,8,,10.0,29.970472,1014.2,,,TRUE,,,,,,,CLR,,,,,,,,VFR,,,,,,,,,,,,METAR,365.0
KHLC 021953Z AUTO 18006KT 10SM CLR 22/12 A2994 RMK AO2 SLP120 T02220122,KHLC,2023-06-02T19:53:00Z,39.37,-99.83,22.2,12.2,180,6,,10.0,29.940945,1012.0,,TRUE,TRUE,,,,,,,CLR,,,,,,,,VFR,,,,,,,,,,,,METAR,667.0
KHKY 021953Z 07009KT 10SM CLR 29/08 A2992 RMK AO2 SLP108 T02940083,KHKY,2023-06-02T19:53:00Z,35.75,-81.38,29.4,8.3,70,9,,10.0,29.920275,1010.8,,,TRUE,,,,,,,CLR,,,,,,,,VFR,,,,,,,,,,,,METAR,357.0
KHKS 021953Z 02005KT 10SM FEW055 SCT120 30/18 A2989 RMK AO2 SLP112 T03000178,KHKS,2023-06-02T19:53:00Z,32.33,-90.22,30.0,17.8,20,5,,10.0,29.890747,1011.2,,,TRUE,,,,,,,FEW,5500,SCT,12000,,,,,VFR,,,,,,,,,,,,METAR,103.0
KHKA 021953Z AUTO VRB04KT 10SM CLR 32/16 A2989 RMK AO2 LTG DSNT W SLP120 T03220161 $,KHKA,2023-06-02T19:53:00Z,35.93,-89.83,32.2,16.1,0,4,,10.0,29.890747,1012.0,,TRUE,TRUE,TRUE,,,,,,CLR,,,,,,,,VFR,,,,,,,,,,,,METAR,78.0
KHJO 021953Z AUTO VRB05KT 10SM CLR 28/10 A2994 RMK AO2 SLP138 T02780100,KHJO,2023-06-02T19:53:00Z,36.32,-119.62,27.8,10.0,0,5,,10.0,29.940945,1013.8,,TRUE,TRUE,,,,,,,CLR,,,,,,,,VFR,,,,,,,,,,,,METAR,73.0
KHIO 021953Z VRB03KT 10SM SCT043 20/07 A3010 RMK AO2 SLP192 T02000072,KHIO,2023-06-02T19:53:00Z,45.55,-122.95,20.0,7.2,0,3,,10.0,30.100393,1019.2,,,TRUE,,,,,,,SCT,4300,,,,,,,VFR,,,,,,,,,,,,METAR,62.0
KHIB 021953Z AUTO 14013G28KT 10SM CLR 27/16 A3007 RMK AO2 PK WND 13028/1951 SLP182 T02720156,KHIB,2023-06-02T19:53:00Z,47.38,-92.83,27.2,15.6,140,13,28,10.0,30.070866,1018.2,,TRUE,TRUE,,,,,,,CLR,,,,,,,,VFR,,,,,,,,,,,,METAR,409.0
KHHR 021953Z 24011KT 10SM SCT040 22/12 A2999 RMK AO2 SLP153 T02220117,KHHR,2023-06-02T19:53:00Z,33.92,-118.33,22.2,11.7,240,11,,10.0,29.991142,1015.3,,,TRUE,,,,,,,SCT,4000,,,,,,,VFR,,,,,,,,,,,,METAR,21.0
KHGR 021953Z 00000KT 10SM SCT095 34/10 A2990 RMK AO2 SLP127 T03390100,KHGR,2023-06-02T19:53:00Z,39.7,-77.73,33.9,10.0,0,0,,10.0,29.899607,1012.7,,,TRUE,,,,,,,SCT,9500,,,,,,,VFR,,,,,,,,,,,,METAR,206.0
KHFD 021953Z 33011G17KT 10SM SCT085 33/16 A2981 RMK AO2 LTG DSNT ALQDS SLP095 LTG DSNT MVG E - W T03280156,KHFD,2023-06-02T19:53:00Z,41.73,-72.65,32.8,15.6,330,11,17,10.0,29.811024,1009.5,,,TRUE,,,,,,,SCT,8500,,,,,,,VFR,,,,,,,,,,,,METAR,3.0
KHEI 021953Z AUTO 12017G28KT 10SM SCT050 27/15 A2989 RMK AO2 PK WND 12032/1923 SLP104 T02720150,KHEI,2023-06-02T19:53:00Z,46.02,-102.65,27.2,15.0,120,17,28,10.0,29.890747,1010.4,,TRUE,TRUE,,,,,,,SCT,5000,,,,,,,VFR,,,,,,,,,,,,METAR,824.0
KHBR 021953Z AUTO 17015G29KT 10SM SCT049 SCT100 29/18 A2986 RMK AO2 PK WND 15029/1948 LTG DSNT W AND NW SLP095 T02940183,KHBR,2023-06-02T19:53:00Z,34.98,-99.05,29.4,18.3,170,15,29,10.0,29.861221,1009.5,,TRUE,TRUE,,,,,,,SCT,4900,SCT,10000,,,,,VFR,,,,,,,,,,,,METAR,475.0
KHBG 021953Z AUTO 05008KT 10SM FEW070 32/17 A2987 RMK AO2 SLP111 T03220167,KHBG,2023-06-02T19:53:00Z,31.27,-89.25,32.2,16.7,50,8,,10.0,29.870079,1011.1,,TRUE,TRUE,,,,,,,FEW,7000,,,,,,,VFR,,,,,,,,,,,,METAR,45.0
KHAO 021953Z AUTO 34007KT 10SM CLR 33/11 A2997 RMK AO2 SLP143 T03280106 $,KHAO,2023-06-02T19:53:00Z,39.37,-84.52,32.8,10.6,340,7,,10.0,29.970472,1014.3,,TRUE,TRUE,TRUE,,,,,,CLR,,,,,,,,VFR,,,,,,,,,,,,METAR,185.0
KGZH 021953Z AUTO 35008KT 320V020 10SM CLR 31/17 A2985 RMK AO2 SLP104 T03110172,KGZH,2023-06-02T19:53:00Z,31.42,-87.05,31.1,17.2,350,8,,10.0,29.84941,1010.4,,TRUE,TRUE,,,,,,,CLR,,,,,,,,VFR,,,,,,,,,,,,METAR,77.0
KGWO 021953Z AUTO 36006KT 10SM FEW055 32/19 A2987 RMK AO2 SLP114 T03220189,KGWO,2023-06-02T19:53:00Z,33.5,-90.08,32.2,18.9,360,6,,10.0,29.870079,1011.4,,TRUE,TRUE,,,,,,,FEW,5500,,,,,,,VFR,,,,,,,,,,,,METAR,42.0
KGVL 021953Z AUTO 10006KT 10SM CLR 29/14 A2992 RMK AO2 SLP115 T02940144,KGVL,2023-06-02T19:53:00Z,34.27,-83.83,29.4,14.4,100,6,,10.0,29.920275,1011.5,,TRUE,TRUE,,,,,,,CLR,,,,,,,,VFR,,,,,,,,,,,,METAR,387.0
KGUY 021953Z AUTO 16008KT 10SM VCTS FEW025 SCT047 BKN110 23/19 A2988 RMK AO2 LTG DSNT SE AND S TSB30E45 SLP082 T02280189,KGUY,2023-06-02T19:53:00Z,36.68,-101.5,22.8,18.9,160,8,,10.0,29.878937,1008.2,,TRUE,TRUE,,,,,,VCTS,FEW,2500,SCT,4700,BKN,11000,,,VFR,,,,,,,,,,,,METAR,950.0
KGUP 021953Z AUTO 10SM SCT080 20/01 A3006 RMK AO2 SLP069 T02000011,KGUP,2023-06-02T19:53:00Z,35.52,-108.8,20.0,1.1,,,,10.0,30.059055,1006.9,,TRUE,TRUE,,,,,,,SCT,8000,,,,,,,VFR,,,,,,,,,,,,METAR,1972.0
KGTF 021953Z 33007KT 1 3/4SM RA BR BKN010 OVC015 12/12 A3009 RMK AO2 TWR VIS 2 CIG 006V012 SLP187 P0012 T01220117,KGTF,2023-06-02T19:53:00Z,47.47,-111.38,12.2,11.7,330,7,,1.75,30.088583,1018.7,,,TRUE,,,,,,RA BR,BKN,1000,OVC,1500,,,,,IFR,,,,,,0.12,,,,,,METAR,1117.0
KGSP 021953Z 03010G17KT 10SM CLR 29/12 A2990 RMK AO2 SLP115 T02890117,KGSP,2023-06-02T19:53:00Z,34.9,-82.22,28.9,11.7,30,10,17,10.0,29.899607,1011.5,,,TRUE,,,,,,,CLR,,,,,,,,VFR,,,,,,,,,,,,METAR,285.0
KGSH 021953Z AUTO 08005G22KT 10SM CLR 32/08 A3002 RMK AO2 SLP158 T03220083,KGSH,2023-06-02T19:53:00Z,41.53,-85.78,32.2,8.3,80,5,22,10.0,30.02067,1015.8,,TRUE,TRUE,,,,,,,CLR,,,,,,,,VFR,,,,,,,,,,,,METAR,252.0
KGRR 021953Z VRB04KT 10SM FEW085 BKN250 33/09 A3005 RMK AO2 SLP170 T03280094,KGRR,2023-06-02T19:53:00Z,42.88,-85.52,32.8,9.4,0,4,,10.0,30.050198,1017.0,,,TRUE,,,,,,,FEW,8500,BKN,25000,,,,,VFR,,,,,,,,,,,,METAR,239.0
KGRI 021953Z 28009KT 10SM SCT050 SCT070 23/18 A2999 RMK AO2 SLP147 T02280183,KGRI,2023-06-02T19:53:00Z,40.97,-98.32,22.8,18.3,280,9,,10.0,29.991142,1014.7,,,TRUE,,,,,,,SCT,5000,SCT,7000,,,,,VFR,,,,,,,,,,,,METAR,562.0
KGRB 021953Z 03007KT 10SM CLR 32/12 A3007 RMK AO2 SLP177 T03170122,KGRB,2023-06-02T19:53:00Z,44.48,-88.13,31.7,12.2,30,7,,10.0,30.070866,1017.7,,,TRUE,,,,,,,CLR,,,,,,,,VFR,,,,,,,,,,,,METAR,209.0
KGPT 021953Z 19006KT 10SM SCT090 30/21 A2983 RMK AO2 SLP102 T03000206,KGPT,2023-06-02T19:53:00Z,30.42,-89.08,30.0,20.6,190,6,,10.0,29.828741,1010.2,,,TRUE,,,,,,,SCT,9000,,,,,,,VFR,,,,,,,,,,,,METAR,5.0
KGOK 021953Z AUTO 13009G18KT 10SM CLR 30/16 A2987 RMK AO2 SLP106 T03000161,KGOK,2023-06-02T19:53:00Z,35.85,-97.4,30.0,16.1,130,9,18,10.0,29.870079,1010.6,,TRUE,TRUE,,,,,,,CLR,,,,,,,,VFR,,,,,,,,,,,,METAR,326.0
KGNV 021953Z 08009KT 10SM FEW048 BKN060 29/18 A2978 RMK AO2 SLP082 T02940183,KGNV,2023-06-02T19:53:00Z,29.7,-82.28,29.4,18.3,80,9,,10.0,29.778543,1008.2,,,TRUE,,,,,,,FEW,4800,BKN,6000,,,,,VFR,,,,,,,,,,,,METAR,41.0
KGMU 021953Z AUTO 08009KT 050V110 10SM CLR 29/11 A2990 RMK AO2 SLP116 T02890111,KGMU,2023-06-02T19:53:00Z,34.85,-82.35,28.9,11.1,80,9,,10.0,29.899607,1011.6,,TRUE,TRUE,,,,,,,CLR,,,,,,,,VFR,,,,,,,,,,,,METAR,309.0
KGLR 021953Z AUTO VRB05KT 10SM CLR 32/07 A3010 RMK AO2 SLP186 T03170072,KGLR,2023-06-02T19:53:00Z,45.02,-84.68,31.7,7.2,0,5,,10.0,30.100393,1018.6,,TRUE,TRUE,,,,,,,CLR,,,,,,,,VFR,,,,,,,,,,,,METAR,403.0
KGLH 021953Z 00000KT 10SM SCT060 33/17 A2987 RMK AO2 SLP121 T03280167,KGLH,2023-06-02T19:53:00Z,33.47,-90.98,32.8,16.7,0,0,,10.0,29.870079,1012.1,,,TRUE,,,,,,,SCT,6000,,,,,,,VFR,,,,,,,,,,,,METAR,40.0
KGLD 021953Z AUTO 17017G24KT 10SM CLR 25/12 A2990 RMK AO2 PK WND 17031/1914 SLP088 T02500117,KGLD,2023-06-02T19:53:00Z,39.37,-101.7,25.0,11.7,170,17,24,10.0,29.899607,1008.8,,TRUE,TRUE,,,,,,,CLR,,,,,,,,VFR,,,,,,,,,,,,METAR,1111.0
KGKY 021953Z 14008KT 10SM BKN050 32/18 A2987 RMK AO2 SLP105 T03220178,KGKY,2023-06-02T19:53:00Z,32.67,-97.1,32.2,17.8,140,8,,10.0,29.870079,1010.5,,,TRUE,,,,,,,BKN,5000,,,,,,,VFR,,,,,,,,,,,,METAR,189.0
KGKJ 021953Z AUTO 05007KT 10SM BKN095 32/08 A3000 RMK AO2 SLP148 T03170083,KGKJ,2023-06-02T19:53:00Z,41.63,-80.22,31.7,8.3,50,7,,10.0,30.0,1014.8,,TRUE,TRUE,,,,,,,BKN,9500,,,,,,,VFR,,,,,,,,,,,,METAR,428.0
KGJT 021953Z VRB06KT 10SM -RA SCT035 SCT048 BKN065 19/07 A3000 RMK AO2 RAB40 SLP109 P0000 T01940072,KGJT,2023-06-02T19:53:00Z,39.13,-108.53,19.4,7.2,0,6,,10.0,30.0,1010.9,,,TRUE,,,,,,-RA,SCT,3500,SCT,4800,BKN,6500,,,VFR,,,,,,0.005,,,,,,METAR,1475.0
KGIF 021953Z AUTO 10012KT 10SM BKN047 BKN080 BKN100 27/22 A2972 RMK AO2 WSHFT 1926 LTG DSNT NE SLP062 T02720217,KGIF,2023-06-02T19:53:00Z,28.07,-81.75,27.2,21.7,100,12,,10.0,29.719488,1006.2,,TRUE,TRUE,,,,,,,BKN,4700,BKN,8000,BKN,10000,,,VFR,,,,,,,,,,,,METAR,44.0
KGGW 021953Z AUTO 04013KT 10SM FEW032 SCT070 BKN100 24/18 A2991 RMK AO2 SLP119 T02390178,KGGW,2023-06-02T19:53:00Z,48.22,-106.62,23.9,17.8,40,13,,10.0,29.911417,1011.9,,TRUE,TRUE,,,,,,,FEW,3200,SCT,7000,BKN,10000,,,VFR,,,,,,,,,,,,METAR,698.0
KGGG 021953Z AUTO 10SM FEW055 FEW110 33/18 A2988 RMK AO2 SLP111 T03280178,KGGG,2023-06-02T19:53:00Z,32.38,-94.72,32.8,17.8,,,,10.0,29.878937,1011.1,,TRUE,TRUE,,,,,,,FEW,5500,FEW,11000,,,,,VFR,,,,,,,,,,,,METAR,107.0
KGFL 021953Z AUTO 33009KT 10SM CLR 28/14 A2987 RMK AO2 SLP114 T02780144,KGFL,2023-06-02T19:53:00Z,43.33,-73.62,27.8,14.4,330,9,,10.0,29.870079,1011.4,,TRUE,TRUE,,,,,,,CLR,,,,,,,,VFR,,,,,,,,,,,,METAR,99.0
KGFK 021953Z 13008G15KT 10SM SCT055 BKN250 32/18 A2993 RMK AO2 SLP133 T03220178,KGFK,2023-06-02T19:53:00Z,47.95,-97.18,32.2,17.8,130,8,15,10.0,29.929134,1013.3,,,TRUE,,,,,,,SCT,5500,BKN,25000,,,,,VFR,,,,,,,,,,,,METAR,256.0
KGEZ 021953Z AUTO 06010G15KT 10SM CLR 34/08 A2997 RMK AO2 SLP140 T03440083,KGEZ,2023-06-02T19:53:00Z,39.58,-85.8,34.4,8.3,60,10,15,10.0,29.970472,1014.0,,TRUE,TRUE,,,,,,,CLR,,,,,,,,VFR,,,,,,,,,,,,METAR,245.0
KGEY 021953Z AUTO 35016G23KT 10SM SCT021 BKN048 OVC085 18/12 A2991 RMK AO2 SLP105 T01780122,KGEY,2023-06-02T19:53:00Z,44.52,-108.08,17.8,12.2,350,16,23,10.0,29.911417,1010.5,,TRUE,TRUE,,,,,,,SCT,2100,BKN,4800,OVC,8500,,,VFR,,,,,,,,,,,,METAR,1191.0
KGEG 021953Z 25005KT 10SM FEW200 BKN250 23/03 A3002 RMK AO2 SLP155 T02280033,KGEG,2023-06-02T19:53:00Z,47.62,-117.53,22.8,3.3,250,5,,10.0,30.02067,1015.5,,,TRUE,,,,,,,FEW,20000,BKN,25000,,,,,VFR,,,,,,,,,,,,METAR,718.0
KGCC 021953Z AUTO 27006KT 10SM SCT039 BKN045 BKN070 21/14 A2989 RMK AO2 LTG DSNT N AND SW TSB00E20 SLP083 T02110144 $,KGCC,2023-06-02T19:53:00Z,44.33,-105.55,21.1,14.4,270,6,,10.0,29.890747,1008.3,,TRUE,TRUE,TRUE,,,,,,SCT,3900,BKN,4500,BKN,7000,,,VFR,,,,,,,,,,,,METAR,1328.0
KGAG 021953Z AUTO 07014G21KT 10SM TS SCT041 OVC060 24/17 A2989 RMK AO2 LTG DSNT ALQDS RAB32E50 TSB43 SLP101 P0000 T02440172 $,KGAG,2023-06-02T19:53:00Z,36.3,-99.77,24.4,17.2,70,14,21,10.0,29.890747,1010.1,,TRUE,TRUE,TRUE,,,,,TS,SCT,4100,OVC,6000,,,,,VFR,,,,,,0.005,,,,,,METAR,670.0
KFYV 021953Z 10SM CLR 30/16 A2996 RMK AO2 SLP131 T03000161,KFYV,2023-06-02T19:53:00Z,36.02,-94.17,30.0,16.1,,,,10.0,29.958662,1013.1,,,TRUE,,,,,,,CLR,,,,,,,,VFR,,,,,,,,,,,,METAR,377.0
KFWN 021953Z AUTO 34007KT 300V020 10SM VCTS FEW100 32/12 A2988 RMK AO2 LTG DSNT W-NE SLP115 T03220122,KFWN,2023-06-02T19:53:00Z,41.2,-74.63,32.2,12.2,340,7,,10.0,29.878937,1011.5,,TRUE,TRUE,,,,,,VCTS,FEW,10000,,,,,,,VFR,,,,,,,,,,,,METAR,129.0
KFVE 021953Z AUTO 04008G17KT 4SM RA BR BKN025 OVC044 11/09 A3008 RMK AO2 RAB08 SLP187 P0010 T01060094,KFVE,2023-06-02T19:53:00Z,47.28,-68.3,10.6,9.4,40,8,17,4.0,30.079725,1018.7,,TRUE,TRUE,,,,,,RA BR,BKN,2500,OVC,4400,,,,,MVFR,,,,,,0.1,,,,,,METAR,299.0
KFUL 021953Z 22005KT 10SM OVC039 22/11 A2996 RMK AO2 SLP145 T02170111,KFUL,2023-06-02T19:53:00Z,33.87,-117.98,21.7,11.1,220,5,,10.0,29.958662,1014.5,,,TRUE,,,,,,,OVC,3900,,,,,,,VFR,,,,,,,,,,,,METAR,23.0
KFTY 021953Z 10008KT 10SM CLR 30/14 A2987 RMK AO2 SLP107 T03000144,KFTY,2023-06-02T19:53:00Z,33.78,-84.52,30.0,14.4,100,8,,10.0,29.870079,1010.7,,,TRUE,,,,,,,CLR,,,,,,,,VFR,,,,,,,,,,,,METAR,245.0
KFTW 021953Z 17012KT 10SM FEW050 BKN100 31/19 A2986 RMK AO2 SLP102 T03110189,KFTW,2023-06-02T19:53:00Z,32.83,-97.37,31.1,18.9,170,12,,10.0,29.861221,1010.2,,,TRUE,,,,,,,FEW,5000,BKN,10000,,,,,VFR,,,,,,,,,,,,METAR,213.0
KFST 021953Z AUTO 08016KT 10SM FEW070 27/17 A2982 RMK AO2 LTG DSNT E AND SE TSE1854 SLP051 T02670167,KFST,2023-06-02T19:53:00Z,30.92,-102.92,26.7,16.7,80,16,,10.0,29.819881,1005.1,,TRUE,TRUE,,,,,,,FEW,7000,,,,,,,VFR,,,,,,,,,,,,METAR,917.0
KFSM 021953Z AUTO VRB05KT 10SM FEW110 32/18 A2991 RMK AO2 SLP121 T03220178,KFSM,2023-06-02T19:53:00Z,35.33,-94.37,32.2,17.8,0,5,,10.0,29.911417,1012.1,,TRUE,TRUE,,,,,,,FEW,11000,,,,,,,VFR,,,,,,,,,,,,METAR,136.0
KFRG 021953Z 17009KT 10SM CLR 26/12 A2986 RMK AO2 SLP112 T02560122 $,KFRG,2023-06-02T19:53:00Z,40.73,-73.42,25.6,12.2,170,9,,10.0,29.861221,1011.2,,,TRUE,TRUE,,,,,,CLR,,,,,,,,VFR,,,,,,,,,,,,METAR,23.0
KFPR 021953Z 07010G19KT 10SM FEW019 28/23 A2972 RMK AO2 SLP064 T02830233,KFPR,2023-06-02T19:53:00Z,27.5,-80.38,28.3,23.3,70,10,19,10.0,29.719488,1006.4,,,TRUE,,,,,,,FEW,1900,,,,,,,VFR,,,,,,,,,,,,METAR,7.0
KFOZ 021953Z AUTO 13008KT 10SM SCT048 29/18 A3010 RMK AO2,KFOZ,2023-06-02T19:53:00Z,47.77,-93.65,29.0,18.0,130,8,,10.0,30.100393,,,TRUE,TRUE,,,,,,,SCT,4800,,,,,,,VFR,,,,,,,,,,,,METAR,412.0
KFOK 021953Z 22007KT 10SM CLR 24/08 A2989 RMK AO2 SLP120 T02440078,KFOK,2023-06-02T19:53:00Z,40.85,-72.62,24.4,7.8,220,7,,10.0,29.890747,1012.0,,,TRUE,,,,,,,CLR,,,,,,,,VFR,,,,,,,,,,,,METAR,13.0
KFOE 021953Z 18009KT 10SM VCTS FEW055 28/19 A2995 RMK AO2 LTG DSNT S-NW TSE07 SLP133 T02780189,KFOE,2023-06-02T19:53:00Z,38.93,-95.65,27.8,18.9,180,9,,10.0,29.949802,1013.3,,,TRUE,,,,,,VCTS,FEW,5500,,,,,,,VFR,,,,,,,,,,,,METAR,315.0
KFNT 021953Z 08004KT 10SM SCT090 31/11 A3005 RMK AO2 SLP173 T03110111,KFNT,2023-06-02T19:53:00Z,42.97,-83.75,31.1,11.1,80,4,,10.0,30.050198,1017.3,,,TRUE,,,,,,,SCT,9000,,,,,,,VFR,,,,,,,,,,,,METAR,235.0
KFNB 021953Z AUTO 25012G20KT 10SM VCTS BKN060 BKN080 26/20 A2994 RMK AO2 LTG DSNT NW SLP131 T02610200,KFNB,2023-06-02T19:53:00Z,40.07,-95.58,26.1,20.0,250,12,20,10.0,29.940945,1013.1,,TRUE,TRUE,,,,,,VCTS,BKN,6000,BKN,8000,,,,,VFR,,,,,,,,,,,,METAR,301.0
KFMN 021953Z 28005KT 10SM SCT090 24/00 A2998 RMK AO2 LTG DSNT W SLP110 T02440000,KFMN,2023-06-02T19:53:00Z,36.75,-108.23,24.4,0.0,280,5,,10.0,29.97933,1011.0,,,TRUE,,,,,,,SCT,9000,,,,,,,VFR,,,,,,,,,,,,METAR,1677.0
KFLO 021953Z 04011G17KT 10SM SCT049 SCT060 29/15 A2984 RMK AO2 SLP103 T02890150,KFLO,2023-06-02T19:53:00Z,34.18,-79.73,28.9,15.0,40,11,17,10.0,29.840551,1010.3,,,TRUE,,,,,,,SCT,4900,SCT,6000,,,,,VFR,,,,,,,,,,,,METAR,43.0
KFLL 021953Z VRB04KT 7SM TSRA FEW018 SCT025CB OVC050 22/22 A2972 RMK AO2 WSHFT 1906 SLP063 OCNL LTGICCCCG E-S TS E-S MOV NE CB DSNT NW-N MOV NE P0034 T02220217 $,KFLL,2023-06-02T19:53:00Z,26.07,-80.15,22.2,21.7,0,4,,7.0,29.719488,1006.3,,,TRUE,TRUE,,,,,TSRA,FEW,1800,SCT,2500,OVC,5000,,,VFR,,,,,,0.34,,,,,,METAR,1.0
KFLD 021953Z AUTO 11009G17KT 10SM CLR 30/18 A3007 RMK AO2 RAB17E50 SLP179 P0000 T03000178,KFLD,2023-06-02T19:53:00Z,43.77,-88.48,30.0,17.8,110,9,17,10.0,30.070866,1017.9,,TRUE,TRUE,,,,,,,CLR,,,,,,,,VFR,,,,,,0.005,,,,,,METAR,242.0
KFHR 021953Z AUTO 12007KT 10SM CLR 17/08 A3013 RMK AO2 SLP202 T01670083,KFHR,2023-06-02T19:53:00Z,48.52,-123.03,16.7,8.3,120,7,,10.0,30.129921,1020.2,,TRUE,TRUE,,,,,,,CLR,,,,,,,,VFR,,,,,,,,,,,,METAR,34.0
KFFT 021953Z AUTO 07007KT 10SM CLR 32/11 A2995 RMK AO2 SLP134 T03220106,KFFT,2023-06-02T19:53:00Z,38.18,-84.9,32.2,10.6,70,7,,10.0,29.949802,1013.4,,TRUE,TRUE,,,,,,,CLR,,,,,,,,VFR,,,,,,,,,,,,METAR,235.0
KFFC 021953Z AUTO 04007KT 10SM FEW060 SCT080 SCT090 29/14 A2988 RMK AO2 SLP113 T02940144,KFFC,2023-06-02T19:53:00Z,33.35,-84.57,29.4,14.4,40,7,,10.0,29.878937,1011.3,,TRUE,TRUE,,,,,,,FEW,6000,SCT,8000,SCT,9000,,,VFR,,,,,,,,,,,,METAR,242.0
KFDY 021953Z AUTO 06015KT 10SM FEW085 32/11 A3000 RMK AO2 SLP147 T03220106,KFDY,2023-06-02T19:53:00Z,41.02,-83.67,32.2,10.6,60,15,,10.0,30.0,1014.7,,TRUE,TRUE,,,,,,,FEW,8500,,,,,,,VFR,,,,,,,,,,,,METAR,247.0
KFDR 021953Z AUTO 17016G26KT 10SM FEW075 FEW110 32/18 A2981 RMK AO2 PK WND 17028/1935 SLP076 T03220178,KFDR,2023-06-02T19:53:00Z,34.35,-98.98,32.2,17.8,170,16,26,10.0,29.811024,1007.6,,TRUE,TRUE,,,,,,,FEW,7500,FEW,11000,,,,,VFR,,,,,,,,,,,,METAR,378.0
KFCM 021953Z 10010KT 10SM FEW110 28/16 A3002 RMK AO2 TSE07 SLP160 T02780161,KFCM,2023-06-02T19:53:00Z,44.83,-93.47,27.8,16.1,100,10,,10.0,30.02067,1016.0,,,TRUE,,,,,,,FEW,11000,,,,,,,VFR,,,,,,,,,,,,METAR,276.0
KFAY 021953Z 05011G18KT 10SM BKN055 28/16 A2985 RMK AO2 SLP101 T02830161,KFAY,2023-06-02T19:53:00Z,34.98,-78.88,28.3,16.1,50,11,18,10.0,29.84941,1010.1,,,TRUE,,,,,,,BKN,5500,,,,,,,VFR,,,,,,,,,,,,METAR,57.0
KFAT 021953Z 29003KT 10SM CLR 27/09 A2994 RMK AO2 SLP136 MTNS OBSC HZ DSNT N-E-S T02670094,KFAT,2023-06-02T19:53:00Z,36.78,-119.72,26.7,9.4,290,3,,10.0,29.940945,1013.6,,,TRUE,,,,,,,CLR,,,,,,,,VFR,,,,,,,,,,,,METAR,102.0
KFAR 021953Z 07009KT 10SM TS SCT060 SCT085 31/17 A2993 RMK AO2 PK WND 06029/1931 WSHFT 1917 LTG DSNT NW-NE TSB16E39B45 SLP130 T03060172,KFAR,2023-06-02T19:53:00Z,46.9,-96.82,30.6,17.2,70,9,,10.0,29.929134,1013.0,,,TRUE,,,,,,TS,SCT,6000,SCT,8500,,,,,VFR,,,,,,,,,,,,METAR,276.0
KEYE 021953Z AUTO 01008KT 10SM CLR 32/10 A2998 RMK AO2 SLP144 T03220100,KEYE,2023-06-02T19:53:00Z,39.83,-86.3,32.2,10.0,10,8,,10.0,29.97933,1014.4,,TRUE,TRUE,,,,,,,CLR,,,,,,,,VFR,,,,,,,,,,,,METAR,248.0
KEWB 021953Z 19008KT 10SM CLR 26/12 A2985 RMK AO2 SLP108 T02560117,KEWB,2023-06-02T19:53:00Z,41.68,-70.95,25.6,11.7,190,8,,10.0,29.84941,1010.8,,,TRUE,,,,,,,CLR,,,,,,,,VFR,,,,,,,,,,,,METAR,22.0
KEVW 021953Z AUTO 02009KT 10SM FEW025 BKN060 OVC075 13/07 A3008 RMK AO2 SLP123 T01280072,KEVW,2023-06-02T19:53:00Z,41.27,-111.03,12.8,7.2,20,9,,10.0,30.079725,1012.3,,TRUE,TRUE,,,,,,,FEW,2500,BKN,6000,OVC,7500,,,VFR,,,,,,,,,,,,METAR,2178.0
KESF 021953Z AUTO 11004KT 10SM SCT060 31/18 A2987 RMK AO2 SLP113 T03110178,KESF,2023-06-02T19:53:00Z,31.4,-92.28,31.1,17.8,110,4,,10.0,29.870079,1011.3,,TRUE,TRUE,,,,,,,SCT,6000,,,,,,,VFR,,,,,,,,,,,,METAR,27.0
KEQY 021953Z AUTO 04010KT 10SM CLR 28/13 A2987 RMK AO2 SLP112 T02830128,KEQY,2023-06-02T19:53:00Z,35.02,-80.62,28.3,12.8,40,10,,10.0,29.870079,1011.2,,TRUE,TRUE,,,,,,,CLR,,,,,,,,VFR,,,,,,,,,,,,METAR,205.0
KEPH 021953Z AUTO 26011G15KT 10SM CLR 25/03 A2999 RMK AO2 SLP152 T02500028,KEPH,2023-06-02T19:53:00Z,47.3,-119.52,25.0,2.8,260,11,15,10.0,29.991142,1015.2,,TRUE,TRUE,,,,,,,CLR,,,,,,,,VFR,,,,,,,,,,,,METAR,382.0
KENW 021953Z 09009KT 10SM CLR 29/12 A3007 RMK AO2 SLP177 T02940122,KENW,2023-06-02T19:53:00Z,42.6,-87.93,29.4,12.2,90,9,,10.0,30.070866,1017.7,,,TRUE,,,,,,,CLR,,,,,,,,VFR,,,,,,,,,,,,METAR,222.0
KEMP 021953Z AUTO 15012KT 10SM VCTS FEW060 SCT085 SCT100 30/17 A2993 RMK AO2 LTG DSNT ALQDS SLP125 T03000172,KEMP,2023-06-02T19:53:00Z,38.33,-96.2,30.0,17.2,150,12,,10.0,29.929134,1012.5,,TRUE,TRUE,,,,,,VCTS,FEW,6000,SCT,8500,SCT,10000,,,VFR,,,,,,,,,,,,METAR,366.0
KELY 021953Z AUTO 23008G17KT 10SM FEW080 FEW110 21/01 A3006 RMK AO2 PK WND 32026/1920 LTG DSNT SW RAB35E44 SLP095 P0000 T02060011,KELY,2023-06-02T19:53:00Z,39.3,-114.85,20.6,1.1,230,8,17,10.0,30.059055,1009.5,,TRUE,TRUE,,,,,,,FEW,8000,FEW,11000,,,,,VFR,,,,,,0.005,,,,,,METAR,1906.0
KELN 021953Z AUTO 14007KT 10SM CLR 24/02 A3001 RMK AO2 SLP154 T02440017,KELN,2023-06-02T19:53:00Z,47.03,-120.53,24.4,1.7,140,7,,10.0,30.008858,1015.4,,TRUE,TRUE,,,,,,,CLR,,,,,,,,VFR,,,,,,,,,,,,METAR,532.0
KELM 021953Z AUTO 02007KT 10SM CLR 34/11 A2993 RMK AO2 SLP127 T03390111,KELM,2023-06-02T19:53:00Z,42.15,-76.9,33.9,11.1,20,7,,10.0,29.929134,1012.7,,TRUE,TRUE,,,,,,,CLR,,,,,,,,VFR,,,,,,,,,,,,METAR,287.0
KELD 021953Z AUTO 06005KT 10SM FEW065 32/18 A2990 RMK AO2 SLP122 T03220183,KELD,2023-06-02T19:53:00Z,33.22,-92.82,32.2,18.3,60,5,,10.0,29.899607,1012.2,,TRUE,TRUE,,,,,,,FEW,6500,,,,,,,VFR,,,,,,,,,,,,METAR,76.0
KEET 021953Z AUTO 00000KT 10SM FEW055 31/17 A2988 RMK AO2 SLP110 T03110167,KEET,2023-06-02T19:53:00Z,33.18,-86.78,31.1,16.7,0,0,,10.0,29.878937,1011.0,,TRUE,TRUE,,,,,,,FEW,5500,,,,,,,VFR,,,,,,,,,,,,METAR,172.0
KEEO 021953Z AUTO 11004KT 10SM -RA FEW014 BKN038 OVC045 10/07 A3009 RMK AO2 SLP148 P0001 T01000067,KEEO,2023-06-02T19:53:00Z,40.05,-107.88,10.0,6.7,110,4,,10.0,30.088583,1014.8,,TRUE,TRUE,,,,,,-RA,FEW,1400,BKN,3800,OVC,4500,,,VFR,,,,,,0.01,,,,,,METAR,1957.0
KECP 021953Z 36014G18KT 10SM FEW060 31/17 A2978 RMK AO1 SLP095 T03110167,KECP,2023-06-02T19:53:00Z,30.35,-85.8,31.1,16.7,360,14,18,10.0,29.778543,1009.5,,,TRUE,,,,,,,FEW,6000,,,,,,,VFR,,,,,,,,,,,,METAR,17.0
KDXR 021953Z 17006KT 10SM CLR 29/17 A2986 RMK AO2 LTG DSNT N-E TSE1858B02E17 SLP106 LTG 2NM SW DXR MOV SW LTG 20NM NE DXR MOV SW T02940172,KDXR,2023-06-02T19:53:00Z,41.37,-73.48,29.4,17.2,170,6,,10.0,29.861221,1010.6,,,TRUE,,,,,,,CLR,,,,,,,,VFR,,,,,,,,,,,,METAR,138.0
KDWH 021953Z 00000KT 10SM FEW060 SCT070 SCT085 32/20 A2988 RMK AO2 SLP116 T03220200,KDWH,2023-06-02T19:53:00Z,30.07,-95.55,32.2,20.0,0,0,,10.0,29.878937,1011.6,,,TRUE,,,,,,,FEW,6000,SCT,7000,SCT,8500,,,VFR,,,,,,,,,,,,METAR,46.0
KDVT 021953Z VRB05KT 10SM CLR 30/04 A2988 RMK AO2 SLP094 T03000039,KDVT,2023-06-02T19:53:00Z,33.68,-112.07,30.0,3.9,0,5,,10.0,29.878937,1009.4,,,TRUE,,,,,,,CLR,,,,,,,,VFR,,,,,,,,,,,,METAR,454.0
KDVP 021953Z AUTO 15010KT 10SM SCT065 SCT080 BKN100 29/14 A3000 RMK AO2 LTG DSNT NE S AND W T02900143,KDVP,2023-06-02T19:53:00Z,43.98,-95.78,29.0,14.3,150,10,,10.0,30.0,,,TRUE,TRUE,,,,,,,SCT,6500,SCT,8000,BKN,10000,,,VFR,,,,,,,,,,,,METAR,493.0
KDTW 021953Z 08005G15KT 10SM BKN095 BKN250 31/09 A3003 RMK AO2 SLP164 T03060094,KDTW,2023-06-02T19:53:00Z,42.23,-83.33,30.6,9.4,80,5,15,10.0,30.029528,1016.4,,,TRUE,,,,,,,BKN,9500,BKN,25000,,,,,VFR,,,,,,,,,,,,METAR,192.0
KDTS 021953Z 06006KT 10SM SCT060 SCT075 32/17 A2979 RMK AO2 SLP088 T03170167,KDTS,2023-06-02T19:53:00Z,30.4,-86.47,31.7,16.7,60,6,,10.0,29.790354,1008.8,,,TRUE,,,,,,,SCT,6000,SCT,7500,,,,,VFR,,,,,,,,,,,,METAR,5.0
KDTO 021953Z 15014G18KT 10SM SCT060 SCT070 BKN110 33/18 A2987 RMK AO2 SLP105 T03280183,KDTO,2023-06-02T19:53:00Z,33.2,-97.2,32.8,18.3,150,14,18,10.0,29.870079,1010.5,,,TRUE,,,,,,,SCT,6000,SCT,7000,BKN,11000,,,VFR,,,,,,,,,,,,METAR,199.0
KDTN 021953Z 00000KT 10SM SCT060 33/18 A2989 RMK AO2 SLP118 T03280178,KDTN,2023-06-02T19:53:00Z,32.55,-93.75,32.8,17.8,0,0,,10.0,29.890747,1011.8,,,TRUE,,,,,,,SCT,6000,,,,,,,VFR,,,,,,,,,,,,METAR,53.0
KDRT 021953Z AUTO 14010G19KT 10SM OVC065 31/22 A2982 RMK AO2 SLP088 T03060222,KDRT,2023-06-02T19:53:00Z,29.37,-100.92,30.6,22.2,140,10,19,10.0,29.819881,1008.8,,TRUE,TRUE,,,,,,,OVC,6500,,,,,,,VFR,,,,,,,,,,,,METAR,303.0
KDRO 021953Z AUTO 35010G20KT 10SM SCT075 BKN090 17/02 A3006 RMK AO2 SLP137 T01720022,KDRO,2023-06-02T19:53:00Z,37.15,-107.77,17.2,2.2,350,10,20,10.0,30.059055,1013.7,,TRUE,TRUE,,,,,,,SCT,7500,BKN,9000,,,,,VFR,,,,,,,,,,,,METAR,2021.0
KDRA 021953Z AUTO 22012G19KT 10SM CLR 30/02 A2992 RMK AO2 SLP085 T03000022,KDRA,2023-06-02T19:53:00Z,36.62,-116.03,30.0,2.2,220,12,19,10.0,29.920275,1008.5,,TRUE,TRUE,,,,,,,CLR,,,,,,,,VFR,,,,,,,,,,,,METAR,988.0
KDNL 021953Z AUTO 03010KT 10SM FEW050 SCT060 SCT080 29/15 A2986 RMK AO2 SLP105 T02890150,KDNL,2023-06-02T19:53:00Z,33.47,-82.03,28.9,15.0,30,10,,10.0,29.861221,1010.5,,TRUE,TRUE,,,,,,,FEW,5000,SCT,6000,SCT,8000,,,VFR,,,,,,,,,,,,METAR,126.0
KDMO 021953Z AUTO 11004KT 10SM 29/18 A2997 RMK AO2 RAB15E28 SLP141 P0000 T02890183 $,KDMO,2023-06-02T19:53:00Z,38.72,-93.17,28.9,18.3,110,4,,10.0,29.970472,1014.1,,TRUE,TRUE,TRUE,,,,,,,,,,,,,,,,,,,,0.005,,,,,,METAR,271.0
KDMN 021953Z AUTO 25014G22KT 10SM CLR 28/M03 A2997 RMK AO2 SLP075 T02831033,KDMN,2023-06-02T19:53:00Z,32.27,-107.72,28.3,-3.3,250,14,22,10.0,29.970472,1007.5,,TRUE,TRUE,,,,,,,CLR,,,,,,,,VFR,,,,,,,,,,,,METAR,1310.0
KDLS 021953Z AUTO 33016KT 10SM CLR 24/05 A3000 RMK AO2 SLP159 T02440050,KDLS,2023-06-02T19:53:00Z,45.62,-121.17,24.4,5.0,330,16,,10.0,30.0,1015.9,,TRUE,TRUE,,,,,,,CLR,,,,,,,,VFR,,,,,,,,,,,,METAR,71.0
KDLN 021953Z AUTO 04015KT 10SM SCT016 BKN060 14/11 A3005 RMK AO2 SLP144 T01440106,KDLN,2023-06-02T19:53:00Z,45.25,-112.55,14.4,10.6,40,15,,10.0,30.050198,1014.4,,TRUE,TRUE,,,,,,,SCT,1600,BKN,6000,,,,,VFR,,,,,,,,,,,,METAR,1586.0
KDKK 021953Z AUTO 29005KT 10SM CLR 31/13 A2999 RMK AO2 SLP152 T03110128,KDKK,2023-06-02T19:53:00Z,42.5,-79.28,31.1,12.8,290,5,,10.0,29.991142,1015.2,,TRUE,TRUE,,,,,,,CLR,,,,,,,,VFR,,,,,,,,,,,,METAR,205.0
KDHT 021953Z AUTO 13017G29KT 2 1/2SM VCTS RA BR BKN055 OVC070 14/12 A3002 RMK AO2 PK WND 18051/1857 WSHFT 1854 LTG DSNT ALQDS RAB00 TSB02E53 SLP132 P0040 T01390122,KDHT,2023-06-02T19:53:00Z,36.02,-102.55,13.9,12.2,130,17,29,2.5,30.02067,1013.2,,TRUE,TRUE,,,,,,VCTS RA BR,BKN,5500,OVC,7000,,,,,IFR,,,,,,0.4,,,,,,METAR,1217.0
KDHN 021953Z 03010KT 10SM FEW050 31/16 A2986 RMK AO2 SLP105 T03110156,KDHN,2023-06-02T19:53:00Z,31.32,-85.45,31.1,15.6,30,10,,10.0,29.861221,1010.5,,,TRUE,,,,,,,FEW,5000,,,,,,,VFR,,,,,,,,,,,,METAR,113.0
KDGW 021953Z AUTO 10SM VCTS 17/09 A2992 RMK AO2 LTG DSNT ALQDS SLP092 T01720094 PWINO $,KDGW,2023-06-02T19:53:00Z,42.8,-105.38,17.2,9.4,,,,10.0,29.920275,1009.2,,TRUE,TRUE,TRUE,,,,TRUE,VCTS,,,,,,,,,,,,,,,,,,,,,METAR,1503.0
KDFW 021953Z 16011KT 10SM SCT060TCU SCT100 31/18 A2986 RMK AO2 SLP102 TCU ALQDS T03110178,KDFW,2023-06-02T19:53:00Z,32.9,-97.02,31.1,17.8,160,11,,10.0,29.861221,1010.2,,,TRUE,,,,,,,SCT,6000,SCT,10000,,,,,VFR,,,,,,,,,,,,METAR,168.0
KDFI 021953Z AUTO 04011KT 10SM SCT095 33/10 A3001 RMK AO2 SLP158 T03280100,KDFI,2023-06-02T19:53:00Z,41.33,-84.43,32.8,10.0,40,11,,10.0,30.008858,1015.8,,TRUE,TRUE,,,,,,,SCT,9500,,,,,,,VFR,,,,,,,,,,,,METAR,215.0
KDEW 021953Z AUTO VRB03KT 10SM CLR 24/04 A3002 RMK AO2 SLP160 T02390044,KDEW,2023-06-02T19:53:00Z,47.97,-117.43,23.9,4.4,0,3,,10.0,30.02067,1016.0,,TRUE,TRUE,,,,,,,CLR,,,,,,,,VFR,,,,,,,,,,,,METAR,672.0
KDET 021953Z 08010KT 10SM CLR 32/11 A3003 RMK AO2 SLP165 T03170106,KDET,2023-06-02T19:53:00Z,42.4,-83.02,31.7,10.6,80,10,,10.0,30.029528,1016.5,,,TRUE,,,,,,,CLR,,,,,,,,VFR,,,,,,,,,,,,METAR,190.0
KDEQ 021953Z AUTO VRB06KT 10SM FEW060 33/17 A2989 RMK AO2 SLP115 T03280172,KDEQ,2023-06-02T19:53:00Z,34.05,-94.4,32.8,17.2,0,6,,10.0,29.890747,1011.5,,TRUE,TRUE,,,,,,,FEW,6000,,,,,,,VFR,,,,,,,,,,,,METAR,107.0
KDEN 021953Z 36010KT 10SM VCTS FEW055 SCT065CB BKN100 20/11 A2993 RMK AO2 LTG DSNT N RAE1854 SLP072 OCNL LTGICCG VC W TS VC W MOV N P0000 T02000106,KDEN,2023-06-02T19:53:00Z,39.85,-104.65,20.0,10.6,360,10,,10.0,29.929134,1007.2,,,TRUE,,,,,,VCTS,FEW,5500,SCT,6500,BKN,10000,,,VFR,,,,,,0.005,,,,,,METAR,1656.0
KDCU 021953Z AUTO 23008KT 10SM VCTS SCT070 BKN085 27/17 A2989 RMK AO2 LTG DSNT SW SLP116 T02720167,KDCU,2023-06-02T19:53:00Z,34.65,-86.95,27.2,16.7,230,8,,10.0,29.890747,1011.6,,TRUE,TRUE,,,,,,VCTS,SCT,7000,BKN,8500,,,,,VFR,,,,,,,,,,,,METAR,180.0
KDBQ 021953Z 13008KT 10SM CLR 31/14 A3003 RMK AO2 LTG DSNT W AND NW SLP161 T03110144,KDBQ,2023-06-02T19:53:00Z,42.4,-90.7,31.1,14.4,130,8,,10.0,30.029528,1016.1,,,TRUE,,,,,,,CLR,,,,,,,,VFR,,,,,,,,,,,,METAR,317.0
KDAN 021953Z AUTO 05008KT 10SM CLR 29/11 A2990 RMK AO2 SLP112 T02940106,KDAN,2023-06-02T19:53:00Z,36.57,-79.33,29.4,10.6,50,8,,10.0,29.899607,1011.2,,TRUE,TRUE,,,,,,,CLR,,,,,,,,VFR,,,,,,,,,,,,METAR,170.0
KDAL 021953Z 15005KT 10SM SCT055TCU SCT100 32/18 A2987 RMK AO2 SLP106 TCU ALQDS T03220183,KDAL,2023-06-02T19:53:00Z,32.85,-96.85,32.2,18.3,150,5,,10.0,29.870079,1010.6,,,TRUE,,,,,,,SCT,5500,SCT,10000,,,,,VFR,,,,,,,,,,,,METAR,148.0
KDAB 021953Z 01013KT 10SM SCT021 BKN028 28/21 A2977 RMK AO2 SLP080 T02780211,KDAB,2023-06-02T19:53:00Z,29.18,-81.07,27.8,21.1,10,13,,10.0,29.769686,1008.0,,,TRUE,,,,,,,SCT,2100,BKN,2800,,,,,MVFR,,,,,,,,,,,,METAR,8.0
KCYS 021953Z 14013G18KT 10SM TS SCT042 BKN050 BKN095 17/07 A2997 RMK AO2 LTG DSNT W TSB50 SLP087 T01720072,KCYS,2023-06-02T19:53:00Z,41.15,-104.8,17.2,7.2,140,13,18,10.0,29.970472,1008.7,,,TRUE,,,,,,TS,SCT,4200,BKN,5000,BKN,9500,,,VFR,,,,,,,,,,,,METAR,1868.0
KCXO 021953Z VRB06KT 10SM CLR 32/19 A2990 RMK AO2 SLP120 T03170194,KCXO,2023-06-02T19:53:00Z,30.35,-95.42,31.7,19.4,0,6,,10.0,29.899607,1012.0,,,TRUE,,,,,,,CLR,,,,,,,,VFR,,,,,,,,,,,,METAR,69.0
KCUT 021953Z AUTO 14009G17KT 110V170 10SM BKN015 BKN024 OVC028 17/12 A3000 RMK AO2 SLP110 T01670122,KCUT,2023-06-02T19:53:00Z,43.73,-103.62,16.7,12.2,140,9,17,10.0,30.0,1011.0,,TRUE,TRUE,,,,,,,BKN,1500,BKN,2400,OVC,2800,,,MVFR,,,,,,,,,,,,METAR,1700.0
KCUB 021953Z AUTO VRB04KT 10SM SCT065 29/14 A2986 RMK AO2 SLP108 T02890144,KCUB,2023-06-02T19:53:00Z,33.97,-81.0,28.9,14.4,0,4,,10.0,29.861221,1010.8,,TRUE,TRUE,,,,,,,SCT,6500,,,,,,,VFR,,,,,,,,,,,,METAR,55.0
KCSV 021953Z AUTO 04009G17KT 10SM SCT060 BKN095 27/15 A2997 RMK AO2 SLP128 T02670150,KCSV,2023-06-02T19:53:00Z,35.95,-85.08,26.7,15.0,40,9,17,10.0,29.970472,1012.8,,TRUE,TRUE,,,,,,,SCT,6000,BKN,9500,,,,,VFR,,,,,,,,,,,,METAR,569.0
KCSM 021953Z 16009KT 10SM CLR 26/19 A2989 RMK AO2 LTG DSNT N AND NE AND SW SLP101 T02610189,KCSM,2023-06-02T19:53:00Z,35.35,-99.2,26.1,18.9,160,9,,10.0,29.890747,1010.1,,,TRUE,,,,,,,CLR,,,,,,,,VFR,,,,,,,,,,,,METAR,586.0
KCRS 021953Z AUTO 16008KT 10SM FEW080 FEW100 32/19 A2989 RMK AO2 SLP117 T03220194,KCRS,2023-06-02T19:53:00Z,32.03,-96.4,32.2,19.4,160,8,,10.0,29.890747,1011.7,,TRUE,TRUE,,,,,,,FEW,8000,FEW,10000,,,,,VFR,,,,,,,,,,,,METAR,136.0
KCRQ 021953Z 25007KT 10SM SCT016 OVC029 18/13 A2998 RMK AO2 SLP150 T01830128,KCRQ,2023-06-02T19:53:00Z,33.13,-117.28,18.3,12.8,250,7,,10.0,29.97933,1015.0,,,TRUE,,,,,,,SCT,1600,OVC,2900,,,,,MVFR,,,,,,,,,,,,METAR,96.0
KCRG 021953Z 06011G18KT 020V090 10SM FEW026 27/20 A2980 RMK AO2 SLP092 T02720200,KCRG,2023-06-02T19:53:00Z,30.33,-81.52,27.2,20.0,60,11,18,10.0,29.799213,1009.2,,,TRUE,,,,,,,FEW,2600,,,,,,,VFR,,,,,,,,,,,,METAR,12.0
KCRE 021953Z 01011KT 10SM FEW028 OVC055 26/19 A2982 RMK AO1 SLP099 T02610189,KCRE,2023-06-02T19:53:00Z,33.82,-78.72,26.1,18.9,10,11,,10.0,29.819881,1009.9,,,TRUE,,,,,,,FEW,2800,OVC,5500,,,,,VFR,,,,,,,,,,,,METAR,9.0
KCQC 021953Z AUTO 33014G23KT 10SM CLR 17/01 A3009 RMK AO2 PK WND 28028/1854 WSHFT 1924 SLP119 T01720006,KCQC,2023-06-02T19:53:00Z,35.0,-105.67,17.2,0.6,330,14,23,10.0,30.088583,1011.9,,TRUE,TRUE,,,,,,,CLR,,,,,,,,VFR,,,,,,,,,,,,METAR,2163.0
KCPS 021953Z 09008KT 10SM BKN075 BKN100 31/15 A2994 RMK AO2 SLP136 T03110150,KCPS,2023-06-02T19:53:00Z,38.53,-90.15,31.1,15.0,90,8,,10.0,29.940945,1013.6,,,TRUE,,,,,,,BKN,7500,BKN,10000,,,,,VFR,,,,,,,,,,,,METAR,125.0
KCPR 021953Z 30016KT 10SM SCT042 BKN080 16/11 A2993 RMK AO2 LTG DSNT NE-SE RAB15E24 SLP095 P0000 T01610111,KCPR,2023-06-02T19:53:00Z,42.9,-106.47,16.1,11.1,300,16,,10.0,29.929134,1009.5,,,TRUE,,,,,,,SCT,4200,BKN,8000,,,,,VFR,,,,,,0.005,,,,,,METAR,1623.0
KCOT 021953Z AUTO 15009G19KT 10SM FEW055 BKN070 33/20 A2982 RMK AO2 SLP089 T03330200,KCOT,2023-06-02T19:53:00Z,28.45,-99.22,33.3,20.0,150,9,19,10.0,29.819881,1008.9,,TRUE,TRUE,,,,,,,FEW,5500,BKN,7000,,,,,VFR,,,,,,,,,,,,METAR,144.0
KCNY 021953Z AUTO 00000KT 10SM CLR 23/02 A2993 RMK AO2 SLP084 T02330017,KCNY,2023-06-02T19:53:00Z,38.77,-109.75,23.3,1.7,0,0,,10.0,29.929134,1008.4,,TRUE,TRUE,,,,,,,CLR,,,,,,,,VFR,,,,,,,,,,,,METAR,1392.0
KCNO 021953Z 18007KT 150V210 10SM SCT035 23/11 A2998 RMK AO2 SLP148 T02280111,KCNO,2023-06-02T19:53:00Z,33.98,-117.62,22.8,11.1,180,7,,10.0,29.97933,1014.8,,,TRUE,,,,,,,SCT,3500,,,,,,,VFR,,,,,,,,,,,,METAR,191.0
KCNM 021953Z AUTO 25006KT 10SM CLR 30/07 A2981 RMK AO2 SLP034 T03000067,KCNM,2023-06-02T19:53:00Z,32.33,-104.25,30.0,6.7,250,6,,10.0,29.811024,1003.4,,TRUE,TRUE,,,,,,,CLR,,,,,,,,VFR,,,,,,,,,,,,METAR,993.0
KCMX 021953Z AUTO 09008KT 10SM CLR 27/16 A3013 RMK AO2 SLP198 T02720161,KCMX,2023-06-02T19:53:00Z,47.17,-88.48,27.2,16.1,90,8,,10.0,30.129921,1019.8,,TRUE,TRUE,,,,,,,CLR,,,,,,,,VFR,,,,,,,,,,,,METAR,326.0
KCMI 021953Z 05010G20KT 10SM CLR 34/08 A2998 RMK AO2 SLP146 T03390078,KCMI,2023-06-02T19:53:00Z,40.03,-88.27,33.9,7.8,50,10,20,10.0,29.97933,1014.6,,,TRUE,,,,,,,CLR,,,,,,,,VFR,,,,,,,,,,,,METAR,227.0
KCLM 021953Z AUTO 31009KT 10SM CLR 16/07 A3014 RMK AO2 SLP205 T01560072,KCLM,2023-06-02T19:53:00Z,48.12,-123.5,15.6,7.2,310,9,,10.0,30.138779,1020.5,,TRUE,TRUE,,,,,,,CLR,,,,,,,,VFR,,,,,,,,,,,,METAR,81.0
KCLL 021953Z 13008KT 10SM FEW060 33/18 A2988 RMK AO2 SLP112 T03280178,KCLL,2023-06-02T19:53:00Z,30.58,-96.37,32.8,17.8,130,8,,10.0,29.878937,1011.2,,,TRUE,,,,,,,FEW,6000,,,,,,,VFR,,,,,,,,,,,,METAR,96.0
KCKB 021953Z 04008KT 10SM CLR 31/11 A2995 RMK AO2 SLP129 T03060106,KCKB,2023-06-02T19:53:00Z,39.3,-80.22,30.6,10.6,40,8,,10.0,29.949802,1012.9,,,TRUE,,,,,,,CLR,,,,,,,,VFR,,,,,,,,,,,,METAR,368.0
KCHO 021953Z 09007KT 040V120 10SM CLR 32/11 A2990 RMK AO2 SLP118 T03220106,KCHO,2023-06-02T19:53:00Z,38.13,-78.45,32.2,10.6,90,7,,10.0,29.899607,1011.8,,,TRUE,,,,,,,CLR,,,,,,,,VFR,,,,,,,,,,,,METAR,193.0
KCHA 021953Z 36008KT 10SM SCT060 SCT250 31/16 A2988 RMK AO2 SLP111 CB DSNT N MDT CU E T03110156,KCHA,2023-06-02T19:53:00Z,35.03,-85.2,31.1,15.6,360,8,,10.0,29.878937,1011.1,,,TRUE,,,,,,,SCT,6000,SCT,25000,,,,,VFR,,,,,,,,,,,,METAR,203.0
KCGI 021953Z 08008KT 040V100 10SM CLR 33/17 A2991 RMK AO2 SLP126 T03330172,KCGI,2023-06-02T19:53:00Z,37.23,-89.58,33.3,17.2,80,8,,10.0,29.911417,1012.6,,,TRUE,,,,,,,CLR,,,,,,,,VFR,,,,,,,,,,,,METAR,103.0
KCEZ 021953Z AUTO 19007KT 10SM FEW075 22/02 A3001 RMK AO2 SLP110 T02220022,KCEZ,2023-06-02T19:53:00Z,37.3,-108.63,22.2,2.2,190,7,,10.0,30.008858,1011.0,,TRUE,TRUE,,,,,,,FEW,7500,,,,,,,VFR,,,,,,,,,,,,METAR,1801.0
KCEW 021953Z AUTO VRB04KT 10SM SCT060 32/17 A2983 RMK AO2 SLP096 T03170167,KCEW,2023-06-02T19:53:00Z,30.78,-86.52,31.7,16.7,0,4,,10.0,29.828741,1009.6,,TRUE,TRUE,,,,,,,SCT,6000,,,,,,,VFR,,,,,,,,,,,,METAR,47.0
KCDW 021953Z 07006KT 10SM SCT095 34/09 A2982 RMK AO2 LTG DSNT N SLP101 T03440094,KCDW,2023-06-02T19:53:00Z,40.88,-74.28,34.4,9.4,70,6,,10.0,29.819881,1010.1,,,TRUE,,,,,,,SCT,9500,,,,,,,VFR,,,,,,,,,,,,METAR,52.0
KCDS 021953Z AUTO 19014G22KT 10SM FEW033 SCT049 SCT065 28/19 A2984 RMK AO2 LTG DSNT N AND NW RAE1856 SLP081 P0000 T02780194,KCDS,2023-06-02T19:53:00Z,34.43,-100.28,27.8,19.4,190,14,22,10.0,29.840551,1008.1,,TRUE,TRUE,,,,,,,FEW,3300,SCT,4900,SCT,6500,,,VFR,,,,,,0.005,,,,,,METAR,595.0
KCDR 021953Z AUTO 16012G22KT 10SM SCT036 23/16 A2988 RMK AO2 SLP105 T02330156,KCDR,2023-06-02T19:53:00Z,42.83,-103.1,23.3,15.6,160,12,22,10.0,29.878937,1010.5,,TRUE,TRUE,,,,,,,SCT,3600,,,,,,,VFR,,,,,,,,,,,,METAR,1002.0
KCDC 021953Z AUTO VRB04KT 10SM FEW110 22/04 A3003 RMK AO2 LTG DSNT NW SLP103 T02220039,KCDC,2023-06-02T19:53:00Z,37.7,-113.1,22.2,3.9,0,4,,10.0,30.029528,1010.3,,TRUE,TRUE,,,,,,,FEW,11000,,,,,,,VFR,,,,,,,,,,,,METAR,1703.0
KCCR 021953Z 31012G17KT 10SM CLR 26/11 A2996 RMK AO2 SLP132 T02560106,KCCR,2023-06-02T19:53:00Z,38.0,-122.05,25.6,10.6,310,12,17,10.0,29.958662,1013.2,,,TRUE,,,,,,,CLR,,,,,,,,VFR,,,,,,,,,,,,METAR,6.0
KCAG 021953Z AUTO 25005KT 10SM -RA SCT022 BKN038 OVC050 12/07 A3007 RMK AO2 SLP146 P0000 T01170072,KCAG,2023-06-02T19:53:00Z,40.5,-107.52,11.7,7.2,250,5,,10.0,30.070866,1014.6,,TRUE,TRUE,,,,,,-RA,SCT,2200,BKN,3800,OVC,5000,,,VFR,,,,,,0.005,,,,,,METAR,1888.0
KBYI 021953Z AUTO 27009G15KT 10SM CLR 21/07 A2999 RMK AO2 SLP120 T02110067,KBYI,2023-06-02T19:53:00Z,42.55,-113.77,21.1,6.7,270,9,15,10.0,29.991142,1012.0,,TRUE,TRUE,,,,,,,CLR,,,,,,,,VFR,,,,,,,,,,,,METAR,1263.0
KBYG 021953Z AUTO 34008KT 10SM FEW017 18/12 A2993 RMK AO2 SLP093 T01780122,KBYG,2023-06-02T19:53:00Z,44.38,-106.72,17.8,12.2,340,8,,10.0,29.929134,1009.3,,TRUE,TRUE,,,,,,,FEW,1700,,,,,,,VFR,,,,,,,,,,,,METAR,1503.0
KBWG 021953Z AUTO 08006KT 10SM SCT065 30/16 A2993 RMK AO2 SLP129 T03000156,KBWG,2023-06-02T19:53:00Z,36.97,-86.42,30.0,15.6,80,6,,10.0,29.929134,1012.9,,TRUE,TRUE,,,,,,,SCT,6500,,,,,,,VFR,,,,,,,,,,,,METAR,159.0
KBVY 021953Z 15007KT 10SM CLR 27/17 A2983 RMK AO2 LTG DSNT W AND NW SLP095 T02670167,KBVY,2023-06-02T19:53:00Z,42.58,-70.92,26.7,16.7,150,7,,10.0,29.828741,1009.5,,,TRUE,,,,,,,CLR,,,,,,,,VFR,,,,,,,,,,,,METAR,28.0
KBVO 021953Z AUTO 15005KT 10SM FEW060 SCT075 31/19 A2992 RMK AO2 SLP119 T03110189,KBVO,2023-06-02T19:53:00Z,36.77,-96.02,31.1,18.9,150,5,,10.0,29.920275,1011.9,,TRUE,TRUE,,,,,,,FEW,6000,SCT,7500,,,,,VFR,,,,,,,,,,,,METAR,210.0
KBUR 021953Z 18005KT 10SM FEW035 21/12 A2997 RMK AO2 SLP139 T02110117,KBUR,2023-06-02T19:53:00Z,34.2,-118.37,21.1,11.7,180,5,,10.0,29.970472,1013.9,,,TRUE,,,,,,,FEW,3500,,,,,,,VFR,,,,,,,,,,,,METAR,221.0
KBTR 021953Z 31004KT 10SM FEW060 33/18 A2986 RMK AO2 SLP108 T03280178,KBTR,2023-06-02T19:53:00Z,30.53,-91.15,32.8,17.8,310,4,,10.0,29.861221,1010.8,,,TRUE,,,,,,,FEW,6000,,,,,,,VFR,,,,,,,,,,,,METAR,20.0
KBTM 021953Z AUTO 35009G18KT 10SM -RA FEW041 BKN050 OVC070 13/08 A3010 RMK AO2 SLP163 P0000 T01330083,KBTM,2023-06-02T19:53:00Z,45.97,-112.5,13.3,8.3,350,9,18,10.0,30.100393,1016.3,,TRUE,TRUE,,,,,,-RA,FEW,4100,BKN,5000,OVC,7000,,,VFR,,,,,,0.005,,,,,,METAR,1680.0
KBTL 021953Z 08010G18KT 10SM SCT095 32/08 A3005 RMK AO2 SLP168 T03220083,KBTL,2023-06-02T19:53:00Z,42.32,-85.25,32.2,8.3,80,10,18,10.0,30.050198,1016.8,,,TRUE,,,,,,,SCT,9500,,,,,,,VFR,,,,,,,,,,,,METAR,282.0
KBRO 021953Z 14011G19KT 10SM SCT040 32/23 A2983 RMK AO2 SLP101 T03220228,KBRO,2023-06-02T19:53:00Z,25.92,-97.42,32.2,22.8,140,11,19,10.0,29.828741,1010.1,,,TRUE,,,,,,,SCT,4000,,,,,,,VFR,,,,,,,,,,,,METAR,6.0
KBRL 021953Z AUTO 01024G43KT 1/4SM +TSRA BKN021 BKN048 OVC065 22/16 A3006 RMK AO2 PK WND 35043/1948 RAB27 TSB35 PRESRR SLP175 P0108 T02170161,KBRL,2023-06-02T19:53:00Z,40.77,-91.13,21.7,16.1,10,24,43,0.25,30.059055,1017.5,,TRUE,TRUE,,,,,,+TSRA,BKN,2100,BKN,4800,OVC,6500,,,LIFR,,,,,,1.08,,,,,,METAR,208.0
KBRD 021953Z AUTO 16012G20KT 10SM CLR 31/16 A3003 RMK AO2 SLP164 T03060161,KBRD,2023-06-02T19:53:00Z,46.4,-94.13,30.6,16.1,160,12,20,10.0,30.029528,1016.4,,TRUE,TRUE,,,,,,,CLR,,,,,,,,VFR,,,,,,,,,,,,METAR,372.0
KBPT 021953Z AUTO VRB04KT 10SM BKN055 32/20 A2987 RMK AO2 SLP113 T03220200,KBPT,2023-06-02T19:53:00Z,29.95,-94.03,32.2,20.0,0,4,,10.0,29.870079,1011.3,,TRUE,TRUE,,,,,,,BKN,5500,,,,,,,VFR,,,,,,,,,,,,METAR,6.0
KBPK 021953Z AUTO 08006KT 10SM FEW055 29/18 A2995 RMK AO2 SLP130 T02890178,KBPK,2023-06-02T19:53:00Z,36.37,-92.47,28.9,17.8,80,6,,10.0,29.949802,1013.0,,TRUE,TRUE,,,,,,,FEW,5500,,,,,,,VFR,,,,,,,,,,,,METAR,279.0
KBPI 021953Z AUTO 36010KT 10SM SCT032 BKN040 OVC060 14/07 A3004 RMK AO2 RAE17B33E51 SLP104 P0000 T01390072,KBPI,2023-06-02T19:53:00Z,42.58,-110.1,13.9,7.2,360,10,,10.0,30.041338,1010.4,,TRUE,TRUE,,,,,,,SCT,3200,BKN,4000,OVC,6000,,,VFR,,,,,,0.005,,,,,,METAR,2120.0
KBOI 021953Z 32015G19KT 10SM CLR 24/06 A2997 RMK AO2 SLP127 T02440061,KBOI,2023-06-02T19:53:00Z,43.57,-116.23,24.4,6.1,320,15,19,10.0,29.970472,1012.7,,,TRUE,,,,,,,CLR,,,,,,,,VFR,,,,,,,,,,,,METAR,860.0
KBNO 021953Z AUTO VRB04KT 10SM OVC110 18/05 A3008 RMK AO2 SLP168 T01780050,KBNO,2023-06-02T19:53:00Z,43.6,-118.95,17.8,5.0,0,4,,10.0,30.079725,1016.8,,TRUE,TRUE,,,,,,,OVC,11000,,,,,,,VFR,,,,,,,,,,,,METAR,1263.0
KBNA 021953Z 06008G14KT 10SM SCT070 SCT150 32/14 A2992 RMK AO2 SLP123 T03170139,KBNA,2023-06-02T19:53:00Z,36.12,-86.68,31.7,13.9,60,8,14,10.0,29.920275,1012.3,,,TRUE,,,,,,,SCT,7000,SCT,15000,,,,,VFR,,,,,,,,,,,,METAR,168.0
KBMQ 021953Z AUTO 16007KT 10SM SCT050 31/18 A2991 RMK AO2 SLP107 T03110178,KBMQ,2023-06-02T19:53:00Z,30.73,-98.23,31.1,17.8,160,7,,10.0,29.911417,1010.7,,TRUE,TRUE,,,,,,,SCT,5000,,,,,,,VFR,,,,,,,,,,,,METAR,387.0
KBMG 021953Z VRB06KT 10SM CLR 33/09 A2998 RMK AO2 SLP142 T03280089,KBMG,2023-06-02T19:53:00Z,39.15,-86.62,32.8,8.9,0,6,,10.0,29.97933,1014.2,,,TRUE,,,,,,,CLR,,,,,,,,VFR,,,,,,,,,,,,METAR,254.0
KBLI 021953Z VRB06KT 10SM FEW060 17/09 A3011 RMK AO2 SLP202 T01720089,KBLI,2023-06-02T19:53:00Z,48.8,-122.53,17.2,8.9,0,6,,10.0,30.109253,1020.2,,,TRUE,,,,,,,FEW,6000,,,,,,,VFR,,,,,,,,,,,,METAR,46.0
KBKV 021953Z 05007KT 10SM CLR 32/19 A2971 RMK AO2 LTG DSNT S AND SW SLP059 T03170194,KBKV,2023-06-02T19:53:00Z,28.47,-82.45,31.7,19.4,50,7,,10.0,29.71063,1005.9,,,TRUE,,,,,,,CLR,,,,,,,,VFR,,,,,,,,,,,,METAR,21.0
KBKL 021953Z 33005KT 6SM HZ CLR 23/17 A3001 RMK AO2 SLP160 T02280172,KBKL,2023-06-02T19:53:00Z,41.53,-81.67,22.8,17.2,330,5,,6.0,30.008858,1016.0,,,TRUE,,,,,,HZ,CLR,,,,,,,,VFR,,,,,,,,,,,,METAR,177.0
KBKE 021953Z AUTO 32010KT 10SM CLR 23/07 A3001 RMK AO2 SLP148 T02280067,KBKE,2023-06-02T19:53:00Z,44.85,-117.82,22.8,6.7,320,10,,10.0,30.008858,1014.8,,TRUE,TRUE,,,,,,,CLR,,,,,,,,VFR,,,,,,,,,,,,METAR,1025.0
KBIV 021953Z AUTO 32012G18KT 10SM CLR 32/09 A3005 RMK AO2 SLP170 T03170089,KBIV,2023-06-02T19:53:00Z,42.75,-86.1,31.7,8.9,320,12,18,10.0,30.050198,1017.0,,TRUE,TRUE,,,,,,,CLR,,,,,,,,VFR,,,,,,,,,,,,METAR,207.0
KBIL 021953Z 35009KT 10SM FEW006 BKN026 OVC040 16/14 A2993 RMK AO2 RAE16 SLP120 VIS LWR NE VCSH ALQDS P0005 T01560144,KBIL,2023-06-02T19:53:00Z,45.8,-108.55,15.6,14.4,350,9,,10.0,29.929134,1012.0,,,TRUE,,,,,,,FEW,600,BKN,2600,OVC,4000,,,MVFR,,,,,,0.05,,,,,,METAR,1089.0
KBHM 021953Z 01005KT 10SM SCT055 31/17 A2991 RMK AO2 SLP118 T03110172,KBHM,2023-06-02T19:53:00Z,33.57,-86.75,31.1,17.2,10,5,,10.0,29.911417,1011.8,,,TRUE,,,,,,,SCT,5500,,,,,,,VFR,,,,,,,,,,,,METAR,191.0
KBGR 021953Z 25009KT 4SM TSRA SCT039CB BKN060 BKN085 24/18 A2989 RMK AO2 LTG DSNT SW-NW RAB15 PRESRR SLP119 FRQ LTGICCCCG OHD TS OHD MOV SE P0004 T02390178,KBGR,2023-06-02T19:53:00Z,44.8,-68.82,23.9,17.8,250,9,,4.0,29.890747,1011.9,,,TRUE,,,,,,TSRA,SCT,3900,BKN,6000,BKN,8500,,,MVFR,,,,,,0.04,,,,,,METAR,45.0
KBGM 021953Z AUTO 34013KT 10SM FEW085 32/11 A2994 RMK AO2 SLP124 T03220106,KBGM,2023-06-02T19:53:00Z,42.22,-75.98,32.2,10.6,340,13,,10.0,29.940945,1012.4,,TRUE,TRUE,,,,,,,FEW,8500,,,,,,,VFR,,,,,,,,,,,,METAR,485.0
KBFM 021953Z 04006KT 10SM SCT065 SCT095 32/16 A2984 RMK AO2 SLP104 T03220156,KBFM,2023-06-02T19:53:00Z,30.62,-88.07,32.2,15.6,40,6,,10.0,29.840551,1010.4,,,TRUE,,,,,,,SCT,6500,SCT,9500,,,,,VFR,,,,,,,,,,,,METAR,7.0
KBFI 021953Z VRB04KT 10SM CLR 19/08 A3011 RMK AO2 SLP195 T01890083 $,KBFI,2023-06-02T19:53:00Z,47.55,-122.32,18.9,8.3,0,4,,10.0,30.109253,1019.5,,,TRUE,TRUE,,,,,,CLR,,,,,,,,VFR,,,,,,,,,,,,METAR,7.0
KBFF 021953Z AUTO 13008G15KT 10SM FEW024 22/15 A2990 RMK AO2 LTG DSNT S SLP092 T02220150,KBFF,2023-06-02T19:53:00Z,41.87,-103.6,22.2,15.0,130,8,15,10.0,29.899607,1009.2,,TRUE,TRUE,,,,,,,FEW,2400,,,,,,,VFR,,,,,,,,,,,,METAR,1204.0
KBFD 021953Z AUTO 36005KT 10SM FEW110 31/09 A3003 RMK AO2 SLP152 T03110094,KBFD,2023-06-02T19:53:00Z,41.8,-78.63,31.1,9.4,360,5,,10.0,30.029528,1015.2,,TRUE,TRUE,,,,,,,FEW,11000,,,,,,,VFR,,,,,,,,,,,,METAR,642.0
KBEH 021953Z AUTO VRB04KT 10SM CLR 28/10 A3004 RMK AO2 SLP169 T02830100 $,KBEH,2023-06-02T19:53:00Z,42.13,-86.42,28.3,10.0,0,4,,10.0,30.041338,1016.9,,TRUE,TRUE,TRUE,,,,,,CLR,,,,,,,,VFR,,,,,,,,,,,,METAR,196.0
KBDE 021953Z AUTO 15005KT 10SM FEW060 SCT095 BKN110 28/18 A3003 RMK AO2 LTG DSNT NE SLP166 T02780183,KBDE,2023-06-02T19:53:00Z,48.73,-94.62,27.8,18.3,150,5,,10.0,30.029528,1016.6,,TRUE,TRUE,,,,,,,FEW,6000,SCT,9500,BKN,11000,,,VFR,,,,,,,,,,,,METAR,330.0
KBCT 021953Z 09012G17KT 10SM -TSRA SCT030 27/23 A2973 RMK TS AT AIRPORT-LTG DSNT ALQDS,KBCT,2023-06-02T19:53:00Z,26.38,-80.1,27.0,23.0,90,12,17,10.0,29.731298,,,,,,,,,,-TSRA,SCT,3000,,,,,,,VFR,,,,,,,,,,,,SPECI,3.0
KBCE 021953Z AUTO 32016G26KT 10SM SCT090 17/04 A3012 RMK AO2 PK WND 30028/1904 SLP108 T01670039,KBCE,2023-06-02T19:53:00Z,37.7,-112.15,16.7,3.9,320,16,26,10.0,30.121063,1010.8,,TRUE,TRUE,,,,,,,SCT,9000,,,,,,,VFR,,,,,,,,,,,,METAR,2311.0
KBBW 021953Z AUTO 13015G24KT 10SM SCT020 BKN026 BKN036 23/18 A2996 RMK AO2 SLP127 T02330178,KBBW,2023-06-02T19:53:00Z,41.43,-99.63,23.3,17.8,130,15,24,10.0,29.958662,1012.7,,TRUE,TRUE,,,,,,,SCT,2000,BKN,2600,BKN,3600,,,MVFR,,,,,,,,,,,,METAR,771.0
KBAF 021953Z 28008KT 10SM -RA FEW070 SCT110 27/17 A2984 RMK AO2 LTG DSNT ALQDS RAB45 SLP101 P0000 T02670167,KBAF,2023-06-02T19:53:00Z,42.17,-72.72,26.7,16.7,280,8,,10.0,29.840551,1010.1,,,TRUE,,,,,,-RA,FEW,7000,SCT,11000,,,,,VFR,,,,,,0.005,,,,,,METAR,80.0
KAZO 021953Z 04011G18KT 10SM CLR 33/08 A3004 RMK AO2 SLP166 T03330078,KAZO,2023-06-02T19:53:00Z,42.23,-85.55,33.3,7.8,40,11,18,10.0,30.041338,1016.6,,,TRUE,,,,,,,CLR,,,,,,,,VFR,,,,,,,,,,,,METAR,264.0
KAXN 021953Z AUTO 19010G20KT 10SM FEW110 30/16 A3002 RMK AO2 SLP158 T03000161,KAXN,2023-06-02T19:53:00Z,45.87,-95.4,30.0,16.1,190,10,20,10.0,30.02067,1015.8,,TRUE,TRUE,,,,,,,FEW,11000,,,,,,,VFR,,,,,,,,,,,,METAR,433.0
KAWM 021953Z AUTO 36005KT 10SM FEW085 SCT110 29/17 A2989 RMK AO2 LTG DSNT NE RAB26E42 SLP117 P0000 T02890167,KAWM,2023-06-02T19:53:00Z,35.13,-90.23,28.9,16.7,360,5,,10.0,29.890747,1011.7,,TRUE,TRUE,,,,,,,FEW,8500,SCT,11000,,,,,VFR,,,,,,0.005,,,,,,METAR,64.0
KAUS 021953Z 13011KT 10SM SCT050 SCT250 31/19 A2987 RMK AO2 SLP104 T03060189,KAUS,2023-06-02T19:53:00Z,30.18,-97.68,30.6,18.9,130,11,,10.0,29.870079,1010.4,,,TRUE,,,,,,,SCT,5000,SCT,25000,,,,,VFR,,,,,,,,,,,,METAR,148.0
KAUG 021953Z AUTO VRB03G15KT 10SM -TSRA BKN055 OVC070 26/17 A2988 RMK AO2 LTG DSNT ALQDS RAB50 TSB39 PRESRR SLP117 P0000 T02560172,KAUG,2023-06-02T19:53:00Z,44.32,-69.8,25.6,17.2,0,3,15,10.0,29.878937,1011.7,,TRUE,TRUE,,,,,,-TSRA,BKN,5500,OVC,7000,,,,,VFR,,,,,,0.005,,,,,,METAR,107.0
KATY 021953Z AUTO 18011G21KT 10SM CLR 30/16 A2997 RMK AO2 SLP136 T03000156,KATY,2023-06-02T19:53:00Z,44.9,-97.15,30.0,15.6,180,11,21,10.0,29.970472,1013.6,,TRUE,TRUE,,,,,,,CLR,,,,,,,,VFR,,,,,,,,,,,,METAR,531.0
KASX 021953Z AUTO 02007KT 10SM CLR 24/17 A3011 RMK AO2 LTG DSNT SW SLP195 T02440172,KASX,2023-06-02T19:53:00Z,46.55,-90.92,24.4,17.2,20,7,,10.0,30.109253,1019.5,,TRUE,TRUE,,,,,,,CLR,,,,,,,,VFR,,,,,,,,,,,,METAR,249.0
KASE 021953Z 32004KT 7SM -RA OVC027 04/03 A3017 RMK AO2 SLP156 P0017 T00440028,KASE,2023-06-02T19:53:00Z,39.23,-106.87,4.4,2.8,320,4,,7.0,30.171259,1015.6,,,TRUE,,,,,,-RA,OVC,2700,,,,,,,MVFR,,,,,,0.17,,,,,,METAR,2384.0
KASD 021953Z AUTO VRB05KT 10SM FEW065 33/18 A2984 RMK AO2 SLP105 T03280183,KASD,2023-06-02T19:53:00Z,30.35,-89.82,32.8,18.3,0,5,,10.0,29.840551,1010.5,,TRUE,TRUE,,,,,,,FEW,6500,,,,,,,VFR,,,,,,,,,,,,METAR,8.0
KARB 021953Z VRB04KT 10SM SCT090 29/11 A3003 RMK AO2 SLP165 T02940111,KARB,2023-06-02T19:53:00Z,42.22,-83.73,29.4,11.1,0,4,,10.0,30.029528,1016.5,,,TRUE,,,,,,,SCT,9000,,,,,,,VFR,,,,,,,,,,,,METAR,251.0
KARA 021953Z VRB04KT 10SM FEW055 33/17 A2986 RMK AO2 SLP112 T03280172,KARA,2023-06-02T19:53:00Z,30.03,-91.88,32.8,17.2,0,4,,10.0,29.861221,1011.2,,,TRUE,,,,,,,FEW,5500,,,,,,,VFR,,,,,,,,,,,,METAR,5.0
KAQP 021953Z AUTO 21010G16KT 10SM 32/14 A2996 RMK AO2 LTG DSNT W,KAQP,2023-06-02T19:53:00Z,45.22,-96.0,32.0,14.0,210,10,16,10.0,29.958662,,,TRUE,TRUE,,,,,,,,,,,,,,,,,,,,,,,,,,,METAR,312.0
KAPF 021953Z 22012KT 10SM VCTS CLR 31/22 A2969 RMK AO2 WSHFT 1856 LTG DSNT NE SLP054 T03060222,KAPF,2023-06-02T19:53:00Z,26.15,-81.77,30.6,22.2,220,12,,10.0,29.68996,1005.4,,,TRUE,,,,,,VCTS,CLR,,,,,,,,VFR,,,,,,,,,,,,METAR,2.0
KAPA 021953Z 01012G21KT 10SM FEW070 BKN085 BKN110 18/07 A2994 RMK AO2 LTG DSNT N SLP089 OCNL LTGICCG DSNT N CB DSNT N MOV N T01830072,KAPA,2023-06-02T19:53:00Z,39.57,-104.85,18.3,7.2,10,12,21,10.0,29.940945,1008.9,,,TRUE,,,,,,,FEW,7000,BKN,8500,BKN,11000,,,VFR,,,,,,,,,,,,METAR,1791.0
KAOO 021953Z AUTO 07006KT 10SM SCT080 31/09 A2996 RMK AO2 SLP136 T03060089,KAOO,2023-06-02T19:53:00Z,40.3,-78.32,30.6,8.9,70,6,,10.0,29.958662,1013.6,,TRUE,TRUE,,,,,,,SCT,8000,,,,,,,VFR,,,,,,,,,,,,METAR,450.0
KAOH 021953Z AUTO 07013G18KT 10SM FEW090 32/11 A3000 RMK AO2 SLP150 T03220106,KAOH,2023-06-02T19:53:00Z,40.7,-84.02,32.2,10.6,70,13,18,10.0,30.0,1015.0,,TRUE,TRUE,,,,,,,FEW,9000,,,,,,,VFR,,,,,,,,,,,,METAR,294.0
KANB 021953Z AUTO VRB03KT 10SM BKN090 31/16 A2988 RMK AO2 SLP109 T03060156,KANB,2023-06-02T19:53:00Z,33.58,-85.85,30.6,15.6,0,3,,10.0,29.878937,1010.9,,TRUE,TRUE,,,,,,,BKN,9000,,,,,,,VFR,,,,,,,,,,,,METAR,187.0
KAMW 021953Z AUTO 16004KT 10SM FEW050 30/19 A2999 RMK AO2 SLP143 T03000194,KAMW,2023-06-02T19:53:00Z,41.98,-93.62,30.0,19.4,160,4,,10.0,29.991142,1014.3,,TRUE,TRUE,,,,,,,FEW,5000,,,,,,,VFR,,,,,,,,,,,,METAR,282.0
KAMG 021953Z AUTO VRB05KT 10SM SCT080 30/18 A2980 RMK AO2 SLP089 T03000178,KAMG,2023-06-02T19:53:00Z,31.53,-82.5,30.0,17.8,0,5,,10.0,29.799213,1008.9,,TRUE,TRUE,,,,,,,SCT,8000,,,,,,,VFR,,,,,,,,,,,,METAR,61.0
KAMA 021953Z 27018G36KT 2 1/2SM +TSRA BR SCT009 BKN023 OVC050 15/13 A3001 RMK AO2 PK WND 27036/1946 LTG DSNT ALQDS TSE1855B01E25B26 SLP129 P0011 T01500133,KAMA,2023-06-02T19:53:00Z,35.22,-101.72,15.0,13.3,270,18,36,2.5,30.008858,1012.9,,,TRUE,,,,,,+TSRA BR,SCT,900,BKN,2300,OVC,5000,,,IFR,,,,,,0.11,,,,,,METAR,1102.0
KALW 021953Z VRB04KT 10SM CLR 22/06 A3002 RMK AO2 SLP162 T02220061,KALW,2023-06-02T19:53:00Z,46.1,-118.28,22.2,6.1,0,4,,10.0,30.02067,1016.2,,,TRUE,,,,,,,CLR,,,,,,,,VFR,,,,,,,,,,,,METAR,355.0
KALI 021953Z AUTO 15011G19KT 10SM FEW045 33/22 A2983 RMK AO2 SLP099 T03280217,KALI,2023-06-02T19:53:00Z,27.73,-98.02,32.8,21.7,150,11,19,10.0,29.828741,1009.9,,TRUE,TRUE,,,,,,,FEW,4500,,,,,,,VFR,,,,,,,,,,,,METAR,52.0
KAKO 021953Z AUTO 10009KT 10SM SCT055 SCT070 BKN085 22/11 A2991 RMK AO2 SLP084 T02220106,KAKO,2023-06-02T19:53:00Z,40.17,-103.22,22.2,10.6,100,9,,10.0,29.911417,1008.4,,TRUE,TRUE,,,,,,,SCT,5500,SCT,7000,BKN,8500,,,VFR,,,,,,,,,,,,METAR,1431.0
KAIA 021953Z AUTO 13012KT 10SM SCT036 BKN045 23/14 A2991 RMK AO2 SLP094 T02280139,KAIA,2023-06-02T19:53:00Z,42.05,-102.8,22.8,13.9,130,12,,10.0,29.911417,1009.4,,TRUE,TRUE,,,,,,,SCT,3600,BKN,4500,,,,,VFR,,,,,,,,,,,,METAR,1198.0
KAGS 021953Z 06009KT 10SM FEW050 SCT070 28/17 A2983 RMK AO2 SLP099 T02830167,KAGS,2023-06-02T19:53:00Z,33.37,-81.97,28.3,16.7,60,9,,10.0,29.828741,1009.9,,,TRUE,,,,,,,FEW,5000,SCT,7000,,,,,VFR,,,,,,,,,,,,METAR,40.0
KAGC 021953Z 07005KT 10SM BKN090 30/09 A2996 RMK AO2 SLP141 T03000089,KAGC,2023-06-02T19:53:00Z,40.35,-79.92,30.0,8.9,70,5,,10.0,29.958662,1014.1,,,TRUE,,,,,,,BKN,9000,,,,,,,VFR,,,,,,,,,,,,METAR,380.0
KAFW 021953Z 16012KT 10SM SCT050TCU BKN090 BKN250 32/18 A2986 RMK AO2 SLP094 TCU ALQDS T03170183,KAFW,2023-06-02T19:53:00Z,32.97,-97.32,31.7,18.3,160,12,,10.0,29.861221,1009.4,,,TRUE,,,,,,,SCT,5000,BKN,9000,BKN,25000,,,VFR,,,,,,,,,,,,METAR,208.0
KAEX 021953Z 04007KT 8SM CLR 34/16 A2987 RMK AO2 SLP118 T03390161,KAEX,2023-06-02T19:53:00Z,31.33,-92.57,33.9,16.1,40,7,,8.0,29.870079,1011.8,,,TRUE,,,,,,,CLR,,,,,,,,VFR,,,,,,,,,,,,METAR,25.0
KADG 021953Z AUTO 12008KT 10SM BKN090 32/10 A3003 RMK AO2 SLP166 T03170100,KADG,2023-06-02T19:53:00Z,41.87,-84.08,31.7,10.0,120,8,,10.0,30.029528,1016.6,,TRUE,TRUE,,,,,,,BKN,9000,,,,,,,VFR,,,,,,,,,,,,METAR,244.0
KACV 021953Z AUTO 30008KT 10SM FEW011 14/09 A3010 RMK AO2 SLP198 T01390089,KACV,2023-06-02T19:53:00Z,40.98,-124.1,13.9,8.9,300,8,,10.0,30.100393,1019.8,,TRUE,TRUE,,,,,,,FEW,1100,,,,,,,VFR,,,,,,,,,,,,METAR,63.0
KACK 021953Z 19008KT 10SM FEW003 18/17 A2988 RMK AO2 SLP119 T01830167,KACK,2023-06-02T19:53:00Z,41.25,-70.07,18.3,16.7,190,8,,10.0,29.878937,1011.9,,,TRUE,,,,,,,FEW,300,,,,,,,VFR,,,,,,,,,,,,METAR,12.0
KABY 021953Z 04010G18KT 10SM FEW080 30/16 A2983 RMK AO2 SLP099 T03000156,KABY,2023-06-02T19:53:00Z,31.53,-84.2,30.0,15.6,40,10,18,10.0,29.828741,1009.9,,,TRUE,,,,,,,FEW,8000,,,,,,,VFR,,,,,,,,,,,,METAR,60.0
KABR 021953Z AUTO 15013G20KT 10SM -RA BKN100 29/19 A2993 RMK AO2 PK WND 15026/1910 RAB47 SLP126 P0000 T02890189,KABR,2023-06-02T19:53:00Z,45.45,-98.42,28.9,18.9,150,13,20,10.0,29.929134,1012.6,,TRUE,TRUE,,,,,,-RA,BKN,10000,,,,,,,VFR,,,,,,0.005,,,,,,METAR,397.0
KAAF 021953Z AUTO 11012KT 10SM CLR 28/18 A2977 RMK AO2 SLP079 T02830183,KAAF,2023-06-02T19:53:00Z,29.73,-85.03,28.3,18.3,110,12,,10.0,29.769686,1007.9,,TRUE,TRUE,,,,,,,CLR,,,,,,,,VFR,,,,,,,,,,,,METAR,5.0
CYBX 021953Z 05011G19KT 15SM -RA BKN026 OVC052 05/01 A3033 RMK SC6SC2 SLP273,CYBX,2023-06-02T19:53:00Z,51.45,-57.18,5.0,1.0,50,11,19,15.0,30.33071,1027.3,,,,,,,,,-RA,BKN,2600,OVC,5200,,,,,MVFR,,,,,,,,,,,,SPECI,32.0
PATA 021952Z VRB04KT 10SM SCT045 05/M04 A2986 RMK AO2 SLP116 T00501044 $,PATA,2023-06-02T19:52:00Z,65.17,-152.1,5.0,-4.4,0,4,,10.0,29.861221,1011.6,,,TRUE,TRUE,,,,,,SCT,4500,,,,,,,VFR,,,,,,,,,,,,METAR,62.0
PABA 021952Z AUTO 30008KT 4SM BR BKN003 OVC010 01/00 A2963 RMK AO2 UPB1854E07 CIG 003V007 SLP041 P0000 T00110000 FZRANO,PABA,2023-06-02T19:52:00Z,70.13,-143.58,1.1,0.0,300,8,,4.0,29.630905,1004.1,,TRUE,TRUE,,,,TRUE,,BR,BKN,300,OVC,1000,,,,,LIFR,,,,,,0.005,,,,,,METAR,1.0
KVTN 021952Z AUTO 16014G28KT 10SM FEW036 BKN045 24/15 A2993 RMK AO2 PK WND 16028/1944 SLP118 T02390150,KVTN,2023-06-02T19:52:00Z,42.87,-100.55,23.9,15.0,160,14,28,10.0,29.929134,1011.8,,TRUE,TRUE,,,,,,,FEW,3600,BKN,4500,,,,,VFR,,,,,,,,,,,,METAR,790.0
KTRM 021952Z AUTO A2983 RMK AO2 SLPNO PWINO $,KTRM,2023-06-02T19:52:00Z,33.63,-116.17,,,,,,,29.828741,,,TRUE,TRUE,TRUE,,,,TRUE,,,,,,,,,,,,,,,,,,,,,,METAR,-39.0
KTOL 021952Z 08014KT 10SM CLR 33/09 A3002 RMK AO2 SLP161 T03330094,KTOL,2023-06-02T19:52:00Z,41.58,-83.8,33.3,9.4,80,14,,10.0,30.02067,1016.1,,,TRUE,,,,,,,CLR,,,,,,,,VFR,,,,,,,,,,,,METAR,206.0
KTAN 021952Z AUTO 21009KT 10SM FEW120 31/13 A2983 RMK AO2 SLP100 T03060133,KTAN,2023-06-02T19:52:00Z,41.88,-71.02,30.6,13.3,210,9,,10.0,29.828741,1010.0,,TRUE,TRUE,,,,,,,FEW,12000,,,,,,,VFR,,,,,,,,,,,,METAR,8.0
KSUX 021952Z 20012KT 10SM FEW043 FEW070 31/17 A2994 RMK AO2 LTG DSNT ALQDS RAB26E39 SLP130 P0000 T03060172,KSUX,2023-06-02T19:52:00Z,42.38,-96.38,30.6,17.2,200,12,,10.0,29.940945,1013.0,,,TRUE,,,,,,,FEW,4300,FEW,7000,,,,,VFR,,,,,,0.005,,,,,,METAR,332.0
KSPS 021952Z 15011KT 10SM FEW060 BKN120 31/18 A2985 RMK AO2 SLP094 T03060183,KSPS,2023-06-02T19:52:00Z,33.98,-98.5,30.6,18.3,150,11,,10.0,29.84941,1009.4,,,TRUE,,,,,,,FEW,6000,BKN,12000,,,,,VFR,,,,,,,,,,,,METAR,310.0
KSPI 021952Z 04006KT 10SM FEW080 34/15 A2997 RMK AO2 SLP143 T03390150,KSPI,2023-06-02T19:52:00Z,39.85,-89.68,33.9,15.0,40,6,,10.0,29.970472,1014.3,,,TRUE,,,,,,,FEW,8000,,,,,,,VFR,,,,,,,,,,,,METAR,179.0
KSGF 021952Z VRB06KT 10SM SCT060 BKN085 30/18 A2996 RMK AO2 SLP132 T03000178,KSGF,2023-06-02T19:52:00Z,37.23,-93.38,30.0,17.8,0,6,,10.0,29.958662,1013.2,,,TRUE,,,,,,,SCT,6000,BKN,8500,,,,,VFR,,,,,,,,,,,,METAR,387.0
KSBD 021952Z 27003KT 5SM HZ CLR 22/09 A2997,KSBD,2023-06-02T19:52:00Z,34.08,-117.25,22.0,9.0,270,3,,5.0,29.970472,,,,,,,,,,HZ,CLR,,,,,,,,MVFR,,,,,,,,,,,,METAR,353.0
KREO 021952Z AUTO 00000KT 16/07 A3007 RMK AO1 SLP165 T01610067 $,KREO,2023-06-02T19:52:00Z,42.58,-117.87,16.1,6.7,0,0,,,30.070866,1016.5,,TRUE,TRUE,TRUE,,,,,,,,,,,,,,,,,,,,,,,,,,METAR,1237.0
KRAP 021952Z 18013G19KT 10SM FEW032 SCT042 23/17 A2989 RMK AO2 SLP103 T02330172,KRAP,2023-06-02T19:52:00Z,44.05,-103.05,23.3,17.2,180,13,19,10.0,29.890747,1010.3,,,TRUE,,,,,,,FEW,3200,SCT,4200,,,,,VFR,,,,,,,,,,,,METAR,965.0
KPYM 021952Z AUTO 16008KT 10SM CLR 28/14 A2983 RMK AO2 SLP104 T02830144,KPYM,2023-06-02T19:52:00Z,41.92,-70.73,28.3,14.4,160,8,,10.0,29.828741,1010.4,,TRUE,TRUE,,,,,,,CLR,,,,,,,,VFR,,,,,,,,,,,,METAR,42.0
KPWK 021952Z 06007KT 10SM CLR 31/12 A3005 RMK AO2 SLP173 T03060117,KPWK,2023-06-02T19:52:00Z,42.12,-87.9,30.6,11.7,60,7,,10.0,30.050198,1017.3,,,TRUE,,,,,,,CLR,,,,,,,,VFR,,,,,,,,,,,,METAR,194.0
KPPF 021952Z AUTO 15008KT 10SM FEW065 31/18 A2994 RMK AO2 SLP127 T03110183,KPPF,2023-06-02T19:52:00Z,37.33,-95.5,31.1,18.3,150,8,,10.0,29.940945,1012.7,,TRUE,TRUE,,,,,,,FEW,6500,,,,,,,VFR,,,,,,,,,,,,METAR,265.0
KP69 021952Z AUTO 19009KT 24/09 A2996 RMK AO1 SLP131 T02390089,KP69,2023-06-02T19:52:00Z,46.15,-115.6,23.9,8.9,190,9,,,29.958662,1013.1,,TRUE,TRUE,,,,,,,,,,,,,,,,,,,,,,,,,,,METAR,447.0
KORE 021952Z AUTO 23005KT 10SM TS FEW085 SCT110 28/15 A2986 RMK AO2 LTG DSNT E-SW TSB45 SLP110 T02830150,KORE,2023-06-02T19:52:00Z,42.57,-72.28,28.3,15.0,230,5,,10.0,29.861221,1011.0,,TRUE,TRUE,,,,,,TS,FEW,8500,SCT,11000,,,,,VFR,,,,,,,,,,,,METAR,165.0
KOMA 021952Z 20009G18KT 10SM FEW055TCU SCT060 SCT075 BKN250 31/17 A2993 RMK AO2 LTG DSNT NE AND SW AND W SLP127 CB DSNT NE AND SW MOV N TCU NW T03060172,KOMA,2023-06-02T19:52:00Z,41.32,-95.9,30.6,17.2,200,9,18,10.0,29.929134,1012.7,,,TRUE,,,,,,,FEW,5500,SCT,6000,SCT,7500,BKN,25000,VFR,,,,,,,,,,,,METAR,299.0
KOKC 021952Z 13013G18KT 10SM FEW049 SCT060 30/18 A2988 RMK AO2 SLP104 T03000183,KOKC,2023-06-02T19:52:00Z,35.38,-97.6,30.0,18.3,130,13,18,10.0,29.878937,1010.4,,,TRUE,,,,,,,FEW,4900,SCT,6000,,,,,VFR,,,,,,,,,,,,METAR,391.0
KOKB 021952Z AUTO 26009KT 10SM FEW018 OVC033 21/14 A2998 RMK AO2 SLP151 T02060139,KOKB,2023-06-02T19:52:00Z,33.22,-117.35,20.6,13.9,260,9,,10.0,29.97933,1015.1,,TRUE,TRUE,,,,,,,FEW,1800,OVC,3300,,,,,VFR,,,,,,,,,,,,METAR,7.0
KNZY 021952Z 30011KT 10SM FEW020 BKN030 19/12 A2998 RMK AO2 SLP153 T01890122,KNZY,2023-06-02T19:52:00Z,32.7,-117.22,18.9,12.2,300,11,,10.0,29.97933,1015.3,,,TRUE,,,,,,,FEW,2000,BKN,3000,,,,,MVFR,,,,,,,,,,,,METAR,4.0
KNRB 021952Z 03014KT 10SM FEW015 SCT030 BKN250 27/21 A2981 RMK AO2 SLP092 T02670211,KNRB,2023-06-02T19:52:00Z,30.38,-81.42,26.7,21.1,30,14,,10.0,29.811024,1009.2,,,TRUE,,,,,,,FEW,1500,SCT,3000,BKN,25000,,,VFR,,,,,,,,,,,,METAR,4.0
KNHK 021952Z 01004KT 10SM CLR 32/10 A2987 RMK AO2 SLP114 T03170100 $,KNHK,2023-06-02T19:52:00Z,38.28,-76.4,31.7,10.0,10,4,,10.0,29.870079,1011.4,,,TRUE,TRUE,,,,,,CLR,,,,,,,,VFR,,,,,,,,,,,,METAR,5.0
KNFW 021952Z 10011G18KT 10SM SCT055 BKN100 32/19 A2987 RMK AO2 SLP099 T03170189 VISNO S $,KNFW,2023-06-02T19:52:00Z,32.78,-97.43,31.7,18.9,100,11,18,10.0,29.870079,1009.9,,,TRUE,TRUE,,,,,,SCT,5500,BKN,10000,,,,,VFR,,,,,,,,,,,,METAR,188.0
KN60 021952Z AUTO 15015KT 31/16 A2991 RMK AO1 SLP115 T03060161,KN60,2023-06-02T19:52:00Z,47.65,-101.43,30.6,16.1,150,15,,,29.911417,1011.5,,TRUE,TRUE,,,,,,,,,,,,,,,,,,,,,,,,,,,METAR,582.0
KMWH 021952Z 00000KT 10SM CLR 24/04 A3000 RMK AO2 SLP156 T02440044,KMWH,2023-06-02T19:52:00Z,47.2,-119.32,24.4,4.4,0,0,,10.0,30.0,1015.6,,,TRUE,,,,,,,CLR,,,,,,,,VFR,,,,,,,,,,,,METAR,355.0
KMLI 021952Z 11005KT 10SM TS FEW070 BKN100 33/14 A2998 RMK AO2 LTG DSNT S TSB50 SLP146 T03330139,KMLI,2023-06-02T19:52:00Z,41.45,-90.52,33.3,13.9,110,5,,10.0,29.97933,1014.6,,,TRUE,,,,,,TS,FEW,7000,BKN,10000,,,,,VFR,,,,,,,,,,,,METAR,174.0
KMLF 021952Z AUTO 19006KT 10SM FEW075 22/05 A3000 RMK AO2 SLP103 T02170050,KMLF,2023-06-02T19:52:00Z,38.42,-113.02,21.7,5.0,190,6,,10.0,30.0,1010.3,,TRUE,TRUE,,,,,,,FEW,7500,,,,,,,VFR,,,,,,,,,,,,METAR,1537.0
KMKE 021952Z 06006KT 10SM FEW060 BKN250 26/16 A3006 RMK AO2 SLP176 TCU DSNT NW T02610161,KMKE,2023-06-02T19:52:00Z,42.95,-87.9,26.1,16.1,60,6,,10.0,30.059055,1017.6,,,TRUE,,,,,,,FEW,6000,BKN,25000,,,,,VFR,,,,,,,,,,,,METAR,203.0
KMHK 021952Z 15012G17KT 10SM SCT120 30/18 A2992 RMK AO2 LTG DSNT W AND NW SLP123 T03000178,KMHK,2023-06-02T19:52:00Z,39.13,-96.68,30.0,17.8,150,12,17,10.0,29.920275,1012.3,,,TRUE,,,,,,,SCT,12000,,,,,,,VFR,,,,,,,,,,,,METAR,320.0
KMFD 021952Z 03013G19KT 10SM CLR 31/10 A3001 RMK AO2 SLP154 T03060100,KMFD,2023-06-02T19:52:00Z,40.82,-82.52,30.6,10.0,30,13,19,10.0,30.008858,1015.4,,,TRUE,,,,,,,CLR,,,,,,,,VFR,,,,,,,,,,,,METAR,394.0
KMEB 021952Z AUTO 10SM FEW045 BKN060 29/16 A2986 RMK AO2 SLP108 T02940161,KMEB,2023-06-02T19:52:00Z,34.78,-79.37,29.4,16.1,,,,10.0,29.861221,1010.8,,TRUE,TRUE,,,,,,,FEW,4500,BKN,6000,,,,,VFR,,,,,,,,,,,,METAR,65.0
KMDH 021952Z VRB04KT 10SM CLR 32/14 A2993 RMK AO2 SLP133 T03220144,KMDH,2023-06-02T19:52:00Z,37.78,-89.25,32.2,14.4,0,4,,10.0,29.929134,1013.3,,,TRUE,,,,,,,CLR,,,,,,,,VFR,,,,,,,,,,,,METAR,122.0
KMBG 021952Z AUTO 16013KT 10SM VCTS FEW055 BKN120 27/17 A2988 RMK AO2 LTG DSNT W AND NW RAE1856 TSB33E48 SLP108 P0000 T02720167,KMBG,2023-06-02T19:52:00Z,45.55,-100.42,27.2,16.7,160,13,,10.0,29.878937,1010.8,,TRUE,TRUE,,,,,,VCTS,FEW,5500,BKN,12000,,,,,VFR,,,,,,0.005,,,,,,METAR,515.0
KLWC 021952Z AUTO 16011KT 10SM CLR 32/18 A2993 RMK AO1 LTG DSNT W SLP128 T03170183,KLWC,2023-06-02T19:52:00Z,39.02,-95.22,31.7,18.3,160,11,,10.0,29.929134,1012.8,,TRUE,TRUE,,,,,,,CLR,,,,,,,,VFR,,,,,,,,,,,,METAR,252.0
KIOW 021952Z AUTO 00000KT 10SM CLR 33/15 A3000 RMK AO2 LTG DSNT SW AND W SLP152 T03280150,KIOW,2023-06-02T19:52:00Z,41.63,-91.55,32.8,15.0,0,0,,10.0,30.0,1015.2,,TRUE,TRUE,,,,,,,CLR,,,,,,,,VFR,,,,,,,,,,,,METAR,199.0
KIJD 021952Z AUTO 09004KT 4SM -TSRA BR SCT090 BKN110 22/19 A2987 RMK AO2 WSHFT 1916 LTG DSNT ALQDS RAB26 TSE03 SLP112 P0004 T02170194,KIJD,2023-06-02T19:52:00Z,41.75,-72.18,21.7,19.4,90,4,,4.0,29.870079,1011.2,,TRUE,TRUE,,,,,,-TSRA BR,SCT,9000,BKN,11000,,,,,MVFR,,,,,,0.04,,,,,,METAR,73.0
KIEN 021952Z AUTO 19011G23KT 10SM SCT044 25/14 A2988 RMK AO2 SLP093 T02500144,KIEN,2023-06-02T19:52:00Z,43.03,-102.52,25.0,14.4,190,11,23,10.0,29.878937,1009.3,,TRUE,TRUE,,,,,,,SCT,4400,,,,,,,VFR,,,,,,,,,,,,METAR,1002.0
KIAD 021952Z 35009G14KT 10SM FEW085 33/13 A2988 RMK AO2 SLP115 T03330133,KIAD,2023-06-02T19:52:00Z,38.93,-77.45,33.3,13.3,350,9,14,10.0,29.878937,1011.5,,,TRUE,,,,,,,FEW,8500,,,,,,,VFR,,,,,,,,,,,,METAR,90.0
KHUT 021952Z 31008KT 8SM -TSRA SCT055 BKN080 OVC110 17/16 A2998 RMK AO2 PK WND 28046/1858 WSHFT 1845 LTG DSNT ALQDS TSB11E13E21 SLP139 OCNL LTGIC E TS E MOV N P0004 T01720161,KHUT,2023-06-02T19:52:00Z,38.07,-97.87,17.2,16.1,310,8,,8.0,29.97933,1013.9,,,TRUE,,,,,,-TSRA,SCT,5500,BKN,8000,OVC,11000,,,VFR,,,,,,0.04,,,,,,METAR,464.0
KHRL 021952Z 13013G21KT 10SM SCT040 BKN060 32/23 A2982 RMK AO2 SLP098 T03170228,KHRL,2023-06-02T19:52:00Z,26.23,-97.65,31.7,22.8,130,13,21,10.0,29.819881,1009.8,,,TRUE,,,,,,,SCT,4000,BKN,6000,,,,,VFR,,,,,,,,,,,,METAR,9.0
KHIE 021952Z AUTO 30005KT 10SM TS CLR 27/16 A2989 RMK AO2 LTG DSNT E AND S TSB49 SLP121 T02670161,KHIE,2023-06-02T19:52:00Z,44.37,-71.55,26.7,16.1,300,5,,10.0,29.890747,1012.1,,TRUE,TRUE,,,,,,TS,CLR,,,,,,,,VFR,,,,,,,,,,,,METAR,321.0
KGNR 021952Z AUTO 08012G20KT 20/15 A2993 RMK AO1 WSHFT 1932,KGNR,2023-06-02T19:52:00Z,45.47,-69.55,20.0,15.0,80,12,20,,29.929134,,,TRUE,TRUE,,,,,,,,,,,,,,,,,,,,,,,,,,,SPECI,426.0
KGLS 021952Z VRB06KT 10SM CLR 29/22 A2990 RMK AO2 SLP126 T02940217,KGLS,2023-06-02T19:52:00Z,29.27,-94.87,29.4,21.7,0,6,,10.0,29.899607,1012.6,,,TRUE,,,,,,,CLR,,,,,,,,VFR,,,,,,,,,,,,METAR,2.0
KFIT 021952Z AUTO 30006KT 10SM VCTS -RA BKN110 22/17 A2986 RMK AO2 PK WND 34028/1859 WSHFT 1844 LTG DSNT ALQDS TSE07E27 SLP111 P0029 T02170172,KFIT,2023-06-02T19:52:00Z,42.55,-71.75,21.7,17.2,300,6,,10.0,29.861221,1011.1,,TRUE,TRUE,,,,,,VCTS -RA,BKN,11000,,,,,,,VFR,,,,,,0.29,,,,,,METAR,102.0
KEST 021952Z AUTO 13010G17KT 10SM SCT060 30/17 A2999 RMK AO2 SLP145 T03000172,KEST,2023-06-02T19:52:00Z,43.4,-94.75,30.0,17.2,130,10,17,10.0,29.991142,1014.5,,TRUE,TRUE,,,,,,,SCT,6000,,,,,,,VFR,,,,,,,,,,,,METAR,401.0
KDVN 021952Z AUTO 10SM CLR 33/16 A3001 RMK AO2 LTG DSNT SE AND S SLP152 T03330156,KDVN,2023-06-02T19:52:00Z,41.62,-90.58,33.3,15.6,,,,10.0,30.008858,1015.2,,TRUE,TRUE,,,,,,,CLR,,,,,,,,VFR,,,,,,,,,,,,METAR,227.0
KDPA 021952Z 08013G19KT 10SM CLR 33/09 A3002 RMK AO2 SLP159 T03280094,KDPA,2023-06-02T19:52:00Z,41.88,-88.25,32.8,9.4,80,13,19,10.0,30.02067,1015.9,,,TRUE,,,,,,,CLR,,,,,,,,VFR,,,,,,,,,,,,METAR,228.0
KDDC 021952Z AUTO 14015KT 9SM BKN049 22/14 A2994 RMK AO2 SLP116 T02220144,KDDC,2023-06-02T19:52:00Z,37.77,-99.97,22.2,14.4,140,15,,9.0,29.940945,1011.6,,TRUE,TRUE,,,,,,,BKN,4900,,,,,,,VFR,,,,,,,,,,,,METAR,786.0
KDCA 021952Z 06004KT 10SM SCT090 33/13 A2986 RMK AO2 SLP110 T03280128 $,KDCA,2023-06-02T19:52:00Z,38.85,-77.03,32.8,12.8,60,4,,10.0,29.861221,1011.0,,,TRUE,TRUE,,,,,,SCT,9000,,,,,,,VFR,,,,,,,,,,,,METAR,4.0
KCVG 021952Z 13008KT 9SM FEW085 32/12 A2996 RMK AO2 SLP134 T03220122,KCVG,2023-06-02T19:52:00Z,39.05,-84.67,32.2,12.2,130,8,,9.0,29.958662,1013.4,,,TRUE,,,,,,,FEW,8500,,,,,,,VFR,,,,,,,,,,,,METAR,264.0
KCQX 021952Z AUTO 21006KT 10SM CLR 22/17 A2988 RMK AO2 SLP119 T02220172,KCQX,2023-06-02T19:52:00Z,41.68,-70.0,22.2,17.2,210,6,,10.0,29.878937,1011.9,,TRUE,TRUE,,,,,,,CLR,,,,,,,,VFR,,,,,,,,,,,,METAR,17.0
KCNU 021952Z AUTO 15010KT 10SM CLR 31/19 A2993 RMK AO2 SLP123 T03110194,KCNU,2023-06-02T19:52:00Z,37.67,-95.48,31.1,19.4,150,10,,10.0,29.929134,1012.3,,TRUE,TRUE,,,,,,,CLR,,,,,,,,VFR,,,,,,,,,,,,METAR,301.0
KCLT 021952Z 06011KT 10SM FEW070 FEW250 29/09 A2989 RMK AO2 SLP125 T02940089,KCLT,2023-06-02T19:52:00Z,35.22,-80.95,29.4,8.9,60,11,,10.0,29.890747,1012.5,,,TRUE,,,,,,,FEW,7000,FEW,25000,,,,,VFR,,,,,,,,,,,,METAR,223.0
KCKV 021952Z AUTO 07009KT 10SM FEW070 32/15 A2992 RMK AO2 SLP127 T03170150,KCKV,2023-06-02T19:52:00Z,36.62,-87.42,31.7,15.0,70,9,,10.0,29.920275,1012.7,,TRUE,TRUE,,,,,,,FEW,7000,,,,,,,VFR,,,,,,,,,,,,METAR,166.0
KCID 021952Z 11010G18KT 10SM FEW060 32/16 A2999 RMK AO2 LTG DSNT S AND SW SLP148 T03220161,KCID,2023-06-02T19:52:00Z,41.88,-91.72,32.2,16.1,110,10,18,10.0,29.991142,1014.8,,,TRUE,,,,,,,FEW,6000,,,,,,,VFR,,,,,,,,,,,,METAR,257.0
KCFV 021952Z AUTO 16009KT 10SM CLR 29/18 A2991 RMK AO2 SLP121 T02940183,KCFV,2023-06-02T19:52:00Z,37.08,-95.57,29.4,18.3,160,9,,10.0,29.911417,1012.1,,TRUE,TRUE,,,,,,,CLR,,,,,,,,VFR,,,,,,,,,,,,METAR,228.0
KBML 021952Z AUTO 34005KT 10SM FEW060 BKN110 28/14 A2989 RMK AO2 LTG DSNT N AND SE AND SW SLP118 T02830139,KBML,2023-06-02T19:52:00Z,44.58,-71.18,28.3,13.9,340,5,,10.0,29.890747,1011.8,,TRUE,TRUE,,,,,,,FEW,6000,BKN,11000,,,,,VFR,,,,,,,,,,,,METAR,344.0
KBLU 021952Z AUTO 28007KT 10SM CLR 19/05 A3012 RMK AO2 SLP131 T01940050,KBLU,2023-06-02T19:52:00Z,39.28,-120.7,19.4,5.0,280,7,,10.0,30.121063,1013.1,,TRUE,TRUE,,,,,,,CLR,,,,,,,,VFR,,,,,,,,,,,,METAR,1605.0
KBLH 021952Z AUTO 18011G18KT 10SM CLR 32/11 A2984 RMK AO2 SLP099 T03220111,KBLH,2023-06-02T19:52:00Z,33.62,-114.72,32.2,11.1,180,11,18,10.0,29.840551,1009.9,,TRUE,TRUE,,,,,,,CLR,,,,,,,,VFR,,,,,,,,,,,,METAR,119.0
KBLF 021952Z AUTO 07007KT 040V100 10SM CLR 24/10 A3003 RMK AO2 SLP136 T02440100,KBLF,2023-06-02T19:52:00Z,37.3,-81.2,24.4,10.0,70,7,,10.0,30.029528,1013.6,,TRUE,TRUE,,,,,,,CLR,,,,,,,,VFR,,,,,,,,,,,,METAR,871.0
KBKB 021952Z AUTO BKN060 33/16 A2985 RMK AO2 SLP134 T03280161 $,KBKB,2023-06-02T19:52:00Z,31.02,-92.92,32.8,16.1,,,,,29.84941,1013.4,,TRUE,TRUE,TRUE,,,,,,BKN,6000,,,,,,,,,,,,,,,,,,,METAR,74.0
KBIS 021952Z AUTO 15014G24KT 10SM FEW090 31/16 A2990 RMK AO2 LTG DSNT N AND SW SLP115 T03110156,KBIS,2023-06-02T19:52:00Z,46.77,-100.75,31.1,15.6,150,14,24,10.0,29.899607,1011.5,,TRUE,TRUE,,,,,,,FEW,9000,,,,,,,VFR,,,,,,,,,,,,METAR,506.0
KBDR 021952Z 07003KT 10SM CLR 25/17 A2985 RMK AO2 LTG DSNT NW-NE SLP108 T02500172,KBDR,2023-06-02T19:52:00Z,41.17,-73.13,25.0,17.2,70,3,,10.0,29.84941,1010.8,,,TRUE,,,,,,,CLR,,,,,,,,VFR,,,,,,,,,,,,METAR,5.0
KBAN 021952Z AUTO 10SM CLR 20/M17 A3010 RMK AO2 SLP123 T02001172 PWINO $,KBAN,2023-06-02T19:52:00Z,38.35,-119.52,20.0,-17.2,,,,10.0,30.100393,1012.3,,TRUE,TRUE,TRUE,,,,TRUE,,CLR,,,,,,,,VFR,,,,,,,,,,,,METAR,2067.0
KATL 021952Z 04012G18KT 10SM SCT055 SCT080 SCT250 30/15 A2989 RMK AO2 SLP109 TCU DSNT N NW MDT CU ALQDS T03000150,KATL,2023-06-02T19:52:00Z,33.63,-84.45,30.0,15.0,40,12,18,10.0,29.890747,1010.9,,,TRUE,,,,,,,SCT,5500,SCT,8000,SCT,25000,,,VFR,,,,,,,,,,,,METAR,309.0
KARR 021952Z 08008G16KT 10SM CLR 33/12 A3001 RMK AO2 SLP158 T03280117,KARR,2023-06-02T19:52:00Z,41.77,-88.48,32.8,11.7,80,8,16,10.0,30.008858,1015.8,,,TRUE,,,,,,,CLR,,,,,,,,VFR,,,,,,,,,,,,METAR,213.0
KALS 021952Z AUTO 30005KT 10SM FEW095 SCT120 14/01 A3009 RMK AO2 SLP137 T01390006,KALS,2023-06-02T19:52:00Z,37.43,-105.87,13.9,0.6,300,5,,10.0,30.088583,1013.7,,TRUE,TRUE,,,,,,,FEW,9500,SCT,12000,,,,,VFR,,,,,,,,,,,,METAR,2299.0
KAFN 021952Z AUTO 14003KT 10SM SCT080 SCT110 29/13 A2989 RMK AO2 LTG DSNT ALQDS SLP120 T02890133,KAFN,2023-06-02T19:52:00Z,42.8,-72.0,28.9,13.3,140,3,,10.0,29.890747,1012.0,,TRUE,TRUE,,,,,,,SCT,8000,SCT,11000,,,,,VFR,,,,,,,,,,,,METAR,308.0
KABQ 021952Z 24017G25KT 10SM FEW080 BKN100 BKN200 22/M01 A3004 RMK AO2 SLP107 SHRA DSNT NE-E AND S T02171006,KABQ,2023-06-02T19:52:00Z,35.05,-106.62,21.7,-0.6,240,17,25,10.0,30.041338,1010.7,,,TRUE,,,,,,,FEW,8000,BKN,10000,BKN,20000,,,VFR,,,,,,,,,,,,METAR,1620.0
CYQY 021952Z 07007KT 10SM FEW004 OVC009 11/09 A3004 RMK SC1SC7 SLP177,CYQY,2023-06-02T19:52:00Z,46.17,-60.03,11.0,9.0,70,7,,10.0,30.041338,1017.7,,,,,,,,,,FEW,400,OVC,900,,,,,IFR,,,,,,,,,,,,METAR,58.0
CYHY 021952Z 08006KT 3SM FU SCT045 SCT055 BKN170 19/M01 A3013 RMK FU3SC1AS3 FU ALQDS SLP211 DENSITY ALT 1000FT,CYHY,2023-06-02T19:52:00Z,60.83,-115.77,19.0,-1.0,80,6,,3.0,30.129921,1021.1,,,,,,,,,FU,SCT,4500,SCT,5500,BKN,17000,,,MVFR,,,,,,,,,,,,SPECI,159.0
CYBR 021952Z 14005G19KT 15SM -TSRA BKN060CB BKN250 26/19 A2996 RMK CB5CI1 SLP148 DENSITY ALT 2900FT,CYBR,2023-06-02T19:52:00Z,49.92,-99.95,26.0,19.0,140,5,19,15.0,29.958662,1014.8,,,,,,,,,-TSRA,BKN,6000,BKN,25000,,,,,VFR,,,,,,,,,,,,SPECI,405.0
PHBK 021951Z AUTO 24005KT 10SM CLR 27/21 A3013 RMK AO2 SLP203 T02670206,PHBK,2023-06-02T19:51:00Z,22.03,-159.78,26.7,20.6,240,5,,10.0,30.129921,1020.3,,TRUE,TRUE,,,,,,,CLR,,,,,,,,VFR,,,,,,,,,,,,METAR,5.0
PFYU 021951Z 22007KT 10SM -SHRA BKN030 05/ A2980,PFYU,2023-06-02T19:51:00Z,66.57,-145.23,5.0,,220,7,,10.0,29.799213,,,,,,,,,,-SHRA,BKN,3000,,,,,,,MVFR,,,,,,,,,,,,METAR,130.0
PAMD 021951Z AUTO 08005KT 10SM OVC050 09/03 A3002 RMK AO2 SLP155 T00940028 PNO $,PAMD,2023-06-02T19:51:00Z,59.43,-146.3,9.4,2.8,80,5,,10.0,30.02067,1015.5,,TRUE,TRUE,TRUE,,,,,,OVC,5000,,,,,,,VFR,,,,,,,,,,,,METAR,20.0
MUGM 021951Z 15024G32KT 9SM SCT015 SCT030 BKN060 27/25 A2977 RMK AO2 PK WND 16037/1917 SLP079 T02720250 $,MUGM,2023-06-02T19:51:00Z,19.9,-75.2,27.2,25.0,150,24,32,9.0,29.769686,1007.9,,,TRUE,TRUE,,,,,,SCT,1500,SCT,3000,BKN,6000,,,VFR,,,,,,,,,,,,METAR,21.0
KYNG 021951Z 07009KT 10SM FEW070 SCT250 31/11 A3000 RMK AO2 SLP150 T03110106,KYNG,2023-06-02T19:51:00Z,41.25,-80.67,31.1,10.6,70,9,,10.0,30.0,1015.0,,,TRUE,,,,,,,FEW,7000,SCT,25000,,,,,VFR,,,,,,,,,,,,METAR,356.0
KXWA 021951Z AUTO 11013KT 10SM CLR 27/14 A2991 RMK AO2 SLP122 T02720139,KXWA,2023-06-02T19:51:00Z,48.27,-103.75,27.2,13.9,110,13,,10.0,29.911417,1012.2,,TRUE,TRUE,,,,,,,CLR,,,,,,,,VFR,,,,,,,,,,,,METAR,717.0
KVNY 021951Z 14006KT 10SM FEW035 24/12 A2996 RMK AO2 SLP138 T02390117,KVNY,2023-06-02T19:51:00Z,34.22,-118.48,23.9,11.7,140,6,,10.0,29.958662,1013.8,,,TRUE,,,,,,,FEW,3500,,,,,,,VFR,,,,,,,,,,,,METAR,241.0
KVCT 021951Z 13009KT 10SM SCT044 BKN055 BKN070 32/22 A2988 RMK AO2 SLP115 T03170217,KVCT,2023-06-02T19:51:00Z,28.87,-96.93,31.7,21.7,130,9,,10.0,29.878937,1011.5,,,TRUE,,,,,,,SCT,4400,BKN,5500,BKN,7000,,,VFR,,,,,,,,,,,,METAR,33.0
KUGN 021951Z 07006KT 10SM CLR 27/10 A3006 RMK AO2 SLP168 T02720100,KUGN,2023-06-02T19:51:00Z,42.42,-87.87,27.2,10.0,70,6,,10.0,30.059055,1016.8,,,TRUE,,,,,,,CLR,,,,,,,,VFR,,,,,,,,,,,,METAR,217.0
KTPL 021951Z AUTO 18013G17KT SCT055 31/19 A2989 RMK AO2 SLP112 T03110189 PWINO RVRNO $,KTPL,2023-06-02T19:51:00Z,31.15,-97.4,31.1,18.9,180,13,17,,29.890747,1011.2,,TRUE,TRUE,TRUE,,,,TRUE,,SCT,5500,,,,,,,,,,,,,,,,,,,METAR,206.0
KTOA 021951Z 27013KT 10SM SCT018 BKN030 21/13 A2999,KTOA,2023-06-02T19:51:00Z,33.8,-118.33,21.0,13.0,270,13,,10.0,29.991142,,,,,,,,,,,SCT,1800,BKN,3000,,,,,MVFR,,,,,,,,,,,,METAR,30.0
KTEB 021951Z 15009G17KT 10SM CLR 32/17 A2981 RMK AO2 SLP092 T03220167,KTEB,2023-06-02T19:51:00Z,40.87,-74.05,32.2,16.7,150,9,17,10.0,29.811024,1009.2,,,TRUE,,,,,,,CLR,,,,,,,,VFR,,,,,,,,,,,,METAR,3.0
KSTL 021951Z 05011KT 10SM FEW075 33/13 A2996 RMK AO2 SLP131 T03330128,KSTL,2023-06-02T19:51:00Z,38.75,-90.37,33.3,12.8,50,11,,10.0,29.958662,1013.1,,,TRUE,,,,,,,FEW,7500,,,,,,,VFR,,,,,,,,,,,,METAR,163.0
KSNT 021951Z AUTO 30004KT 17/05 A3005 RMK AO1 SLP107 T01670050,KSNT,2023-06-02T19:51:00Z,44.17,-114.93,16.7,5.0,300,4,,,30.050198,1010.7,,TRUE,TRUE,,,,,,,,,,,,,,,,,,,,,,,,,,,METAR,1980.0
KSMX 021951Z 28007KT 9SM FEW024 18/11 A3002 RMK AO2 SLP167 T01830111,KSMX,2023-06-02T19:51:00Z,34.9,-120.45,18.3,11.1,280,7,,9.0,30.02067,1016.7,,,TRUE,,,,,,,FEW,2400,,,,,,,VFR,,,,,,,,,,,,METAR,73.0
KSMO 021951Z 23009G15KT 10SM CLR 19/11 A2998 RMK AO2 SLP153 T01940111,KSMO,2023-06-02T19:51:00Z,34.02,-118.45,19.4,11.1,230,9,15,10.0,29.97933,1015.3,,,TRUE,,,,,,,CLR,,,,,,,,VFR,,,,,,,,,,,,METAR,56.0
KSLK 021951Z AUTO 01007G15KT 10SM FEW075 29/11 A2996 RMK AO2 LTG DSNT S SLP137 T02940106,KSLK,2023-06-02T19:51:00Z,44.4,-74.2,29.4,10.6,10,7,15,10.0,29.958662,1013.7,,TRUE,TRUE,,,,,,,FEW,7500,,,,,,,VFR,,,,,,,,,,,,METAR,502.0
KSJT 021951Z 15013G24KT 10SM FEW045 SCT055 29/18 A2988 RMK AO2 PK WND 16026/1937 SLP093 T02940178,KSJT,2023-06-02T19:51:00Z,31.37,-100.5,29.4,17.8,150,13,24,10.0,29.878937,1009.3,,,TRUE,,,,,,,FEW,4500,SCT,5500,,,,,VFR,,,,,,,,,,,,METAR,582.0
KSAT 021951Z 16011KT 10SM BKN045 BKN250 31/19 A2988 RMK AO2 SLP098 T03110194,KSAT,2023-06-02T19:51:00Z,29.53,-98.48,31.1,19.4,160,11,,10.0,29.878937,1009.8,,,TRUE,,,,,,,BKN,4500,BKN,25000,,,,,VFR,,,,,,,,,,,,METAR,246.0
KSAN 021951Z 29010G15KT 10SM BKN028 19/12 A3000 RMK AO2 SLP159 T01940117 $,KSAN,2023-06-02T19:51:00Z,32.73,-117.18,19.4,11.7,290,10,15,10.0,30.0,1015.9,,,TRUE,TRUE,,,,,,BKN,2800,,,,,,,MVFR,,,,,,,,,,,,METAR,3.0
KSAD 021951Z AUTO VRB04KT 10SM CLR 29/00 A2990 RMK AO2 SLP073 T02940000,KSAD,2023-06-02T19:51:00Z,32.85,-109.63,29.4,0.0,0,4,,10.0,29.899607,1007.3,,TRUE,TRUE,,,,,,,CLR,,,,,,,,VFR,,,,,,,,,,,,METAR,937.0
KROW 021951Z 19006KT 10SM TS CLR 29/02 A2986 RMK AO2 TSB51 SLP043 T02940022,KROW,2023-06-02T19:51:00Z,33.3,-104.5,29.4,2.2,190,6,,10.0,29.861221,1004.3,,,TRUE,,,,,,TS,CLR,,,,,,,,VFR,,,,,,,,,,,,METAR,1105.0
KRDU 021951Z 05008G17KT 10SM FEW040 BKN049 BKN060 27/17 A2988 RMK AO2 SLP115 T02720167,KRDU,2023-06-02T19:51:00Z,35.9,-78.78,27.2,16.7,50,8,17,10.0,29.878937,1011.5,,,TRUE,,,,,,,FEW,4000,BKN,4900,BKN,6000,,,VFR,,,,,,,,,,,,METAR,121.0
KPWM 021951Z 08013KT 9SM FEW060 SCT150 19/13 A2988 RMK AO2 LTG DSNT W-N SLP117 T01940133,KPWM,2023-06-02T19:51:00Z,43.65,-70.3,19.4,13.3,80,13,,9.0,29.878937,1011.7,,,TRUE,,,,,,,FEW,6000,SCT,15000,,,,,VFR,,,,,,,,,,,,METAR,15.0
KPVD 021951Z 15011KT 10SM FEW040 FEW120 SCT200 26/16 A2985 RMK AO2 LTG DSNT W AND NW SLP108 CB DSNT W MOV S T02610161,KPVD,2023-06-02T19:51:00Z,41.72,-71.43,26.1,16.1,150,11,,10.0,29.84941,1010.8,,,TRUE,,,,,,,FEW,4000,FEW,12000,SCT,20000,,,VFR,,,,,,,,,,,,METAR,15.0
KPIT 021951Z 03006KT 10SM BKN060 BKN250 31/08 A2997 RMK AO2 SLP147 T03110083,KPIT,2023-06-02T19:51:00Z,40.47,-80.2,31.1,8.3,30,6,,10.0,29.970472,1014.7,,,TRUE,,,,,,,BKN,6000,BKN,25000,,,,,VFR,,,,,,,,,,,,METAR,339.0
KPHX 021951Z 24006KT 10SM FEW120 33/03 A2985 RMK AO2 SLP087 FU VC E T03280033,KPHX,2023-06-02T19:51:00Z,33.43,-112.02,32.8,3.3,240,6,,10.0,29.84941,1008.7,,,TRUE,,,,,,,FEW,12000,,,,,,,VFR,,,,,,,,,,,,METAR,338.0
KP59 021951Z AUTO VRB03KT 22/13 A3011 RMK AO1 SLP191 T02220128,KP59,2023-06-02T19:51:00Z,47.47,-87.88,22.2,12.8,0,3,,,30.109253,1019.1,,TRUE,TRUE,,,,,,,,,,,,,,,,,,,,,,,,,,,METAR,185.0
KOXR 021951Z 28011KT 10SM CLR 20/13 A2999 RMK AO2 SLP154 T02000128,KOXR,2023-06-02T19:51:00Z,34.2,-119.2,20.0,12.8,280,11,,10.0,29.991142,1015.4,,,TRUE,,,,,,,CLR,,,,,,,,VFR,,,,,,,,,,,,METAR,12.0
KOXC 021951Z COR 11004KT 10SM VCTS SCT080 28/16 A2989 RMK AO2 LTG DSNT W AND NW TSB33 SLP128 T02830161,KOXC,2023-06-02T19:51:00Z,41.47,-73.13,28.3,16.1,110,4,,10.0,29.890747,1012.8,TRUE,,TRUE,,,,,,VCTS,SCT,8000,,,,,,,VFR,,,,,,,,,,,,SPECI,211.0
KORF 021951Z 04007KT 10SM CLR 23/18 A2988 RMK AO2 SLP118 T02280183,KORF,2023-06-02T19:51:00Z,36.9,-76.2,22.8,18.3,40,7,,10.0,29.878937,1011.8,,,TRUE,,,,,,,CLR,,,,,,,,VFR,,,,,,,,,,,,METAR,5.0
KORD 021951Z 10011KT 10SM FEW090 BKN250 32/10 A3003 RMK AO2 SLP163 T03170100,KORD,2023-06-02T19:51:00Z,41.95,-87.93,31.7,10.0,100,11,,10.0,30.029528,1016.3,,,TRUE,,,,,,,FEW,9000,BKN,25000,,,,,VFR,,,,,,,,,,,,METAR,202.0
KOCF 021951Z 04009G16KT 10SM FEW049 SCT060 30/19 A2974 RMK AO2 SLP071 T03000189 $,KOCF,2023-06-02T19:51:00Z,29.17,-82.22,30.0,18.9,40,9,16,10.0,29.740158,1007.1,,,TRUE,TRUE,,,,,,FEW,4900,SCT,6000,,,,,VFR,,,,,,,,,,,,METAR,24.0
KNYC 021951Z AUTO 00000KT 8SM CLR 29/14 A2986 RMK AO2 SLP102 T02940144 $,KNYC,2023-06-02T19:51:00Z,40.78,-73.97,29.4,14.4,0,0,,8.0,29.861221,1010.2,,TRUE,TRUE,TRUE,,,,,,CLR,,,,,,,,VFR,,,,,,,,,,,,METAR,33.0
KNBT 021951Z AUTO 04010KT 10SM SCT045 BKN085 26/21 A2984 RMK AO2 SLP109 T02610206,KNBT,2023-06-02T19:51:00Z,35.02,-76.47,26.1,20.6,40,10,,10.0,29.840551,1010.9,,TRUE,TRUE,,,,,,,SCT,4500,BKN,8500,,,,,VFR,,,,,,,,,,,,METAR,5.0
KMYL 021951Z AUTO 30009KT 10SM FEW100 17/06 A3000 RMK AO2 LTG DSNT SE AND S SLP129 T01720061,KMYL,2023-06-02T19:51:00Z,44.9,-116.1,17.2,6.1,300,9,,10.0,30.0,1012.9,,TRUE,TRUE,,,,,,,FEW,10000,,,,,,,VFR,,,,,,,,,,,,METAR,1532.0
KMPV 021951Z AUTO 01012KT 10SM CLR 29/13 A2994 RMK AO2 SLP133 T02940133,KMPV,2023-06-02T19:51:00Z,44.2,-72.57,29.4,13.3,10,12,,10.0,29.940945,1013.3,,TRUE,TRUE,,,,,,,CLR,,,,,,,,VFR,,,,,,,,,,,,METAR,336.0
KLWB 021951Z 10003KT 10SM SCT075 29/09 A2998,KLWB,2023-06-02T19:51:00Z,37.87,-80.4,29.0,9.0,100,3,,10.0,29.97933,,,,,,,,,,,SCT,7500,,,,,,,VFR,,,,,,,,,,,,METAR,702.0
KLGU 021951Z AUTO 34010KT 10SM CLR 18/09 A3001 RMK AO2 SLP130 T01780089,KLGU,2023-06-02T19:51:00Z,41.78,-111.85,17.8,8.9,340,10,,10.0,30.008858,1013.0,,TRUE,TRUE,,,,,,,CLR,,,,,,,,VFR,,,,,,,,,,,,METAR,1359.0
KLGA 021951Z 16011KT 10SM FEW050 FEW100 SCT250 30/14 A2984 RMK AO2 SLP103 CB DSNT NE T03000144,KLGA,2023-06-02T19:51:00Z,40.78,-73.88,30.0,14.4,160,11,,10.0,29.840551,1010.3,,,TRUE,,,,,,,FEW,5000,FEW,10000,SCT,25000,,,VFR,,,,,,,,,,,,METAR,9.0
KJFK 021951Z 19010KT 10SM FEW050 SCT250 24/13 A2987 RMK AO2 SLP114 CB DSNT NW-N T02390133,KJFK,2023-06-02T19:51:00Z,40.63,-73.77,23.9,13.3,190,10,,10.0,29.870079,1011.4,,,TRUE,,,,,,,FEW,5000,SCT,25000,,,,,VFR,,,,,,,,,,,,METAR,3.0
KJCT 021951Z AUTO 14011KT 10SM FEW050 BKN065 29/18 A2990 RMK AO2 SLP085 T02940183,KJCT,2023-06-02T19:51:00Z,30.5,-99.77,29.4,18.3,140,11,,10.0,29.899607,1008.5,,TRUE,TRUE,,,,,,,FEW,5000,BKN,6500,,,,,VFR,,,,,,,,,,,,METAR,522.0
KILG 021951Z 14007KT 100V180 10SM CLR 34/14 A2984 RMK AO2 SLP102 T03440144,KILG,2023-06-02T19:51:00Z,39.67,-75.6,34.4,14.4,140,7,,10.0,29.840551,1010.2,,,TRUE,,,,,,,CLR,,,,,,,,VFR,,,,,,,,,,,,METAR,22.0
KIGM 021951Z AUTO 23013KT 10SM CLR 28/03 A2998 RMK AO2 SLP084 T02830033,KIGM,2023-06-02T19:51:00Z,35.25,-113.93,28.3,3.3,230,13,,10.0,29.97933,1008.4,,TRUE,TRUE,,,,,,,CLR,,,,,,,,VFR,,,,,,,,,,,,METAR,1045.0
KHTS 021951Z 03007KT 10SM CLR 31/11 A2995 RMK AO2 SLP133 T03060111,KHTS,2023-06-02T19:51:00Z,38.37,-82.55,30.6,11.1,30,7,,10.0,29.949802,1013.3,,,TRUE,,,,,,,CLR,,,,,,,,VFR,,,,,,,,,,,,METAR,252.0
KHSE 021951Z AUTO 01009G15KT 330V040 10SM OVC006 21/20 A2985 RMK AO2 SLP107 T02110200,KHSE,2023-06-02T19:51:00Z,35.23,-75.62,21.1,20.0,10,9,15,10.0,29.84941,1010.7,,TRUE,TRUE,,,,,,,OVC,600,,,,,,,IFR,,,,,,,,,,,,METAR,4.0
KHDO 021951Z AUTO 13011KT 10SM SCT044 SCT065 32/21 A2987 RMK AO2 SLP099 T03170206,KHDO,2023-06-02T19:51:00Z,29.37,-99.17,31.7,20.6,130,11,,10.0,29.870079,1009.9,,TRUE,TRUE,,,,,,,SCT,4400,SCT,6500,,,,,VFR,,,,,,,,,,,,METAR,280.0
KGDP 021951Z AUTO 30/M06 RMK AO2 SLPNO T03001056 $,KGDP,2023-06-02T19:51:00Z,31.83,-104.82,30.0,-5.6,,,,,,,,TRUE,TRUE,TRUE,,,,,,,,,,,,,,,,,,,,,,,,,,METAR,1664.0
KFWS 021951Z 16010G14KT 10SM BKN047 33/18 A2989,KFWS,2023-06-02T19:51:00Z,32.57,-97.3,33.0,18.0,160,10,14,10.0,29.890747,,,,,,,,,,,BKN,4700,,,,,,,VFR,,,,,,,,,,,,METAR,211.0
KEWR 021951Z 16006KT 10SM FEW060 FEW100 SCT250 32/15 A2983 RMK AO2 SLP101 CB DSNT NE AND DSNT NW MOV S T03170150,KEWR,2023-06-02T19:51:00Z,40.68,-74.17,31.7,15.0,160,6,,10.0,29.828741,1010.1,,,TRUE,,,,,,,FEW,6000,FEW,10000,SCT,25000,,,VFR,,,,,,,,,,,,METAR,2.0
KERI 021951Z 02010KT 10SM CLR 31/12 A3000 RMK AO2 SLP152 T03060117,KERI,2023-06-02T19:51:00Z,42.08,-80.18,30.6,11.7,20,10,,10.0,30.0,1015.2,,,TRUE,,,,,,,CLR,,,,,,,,VFR,,,,,,,,,,,,METAR,222.0
KELP 021951Z 24005G21KT 10SM FEW130 30/M06 A2991 RMK AO2 SLP052 T03001061,KELP,2023-06-02T19:51:00Z,31.82,-106.35,30.0,-6.1,240,5,21,10.0,29.911417,1005.2,,,TRUE,,,,,,,FEW,13000,,,,,,,VFR,,,,,,,,,,,,METAR,1205.0
KEKN 021951Z AUTO 34008KT 10SM CLR 30/11 A2997 RMK AO2 SLP144 T03000106,KEKN,2023-06-02T19:51:00Z,38.88,-79.85,30.0,10.6,340,8,,10.0,29.970472,1014.4,,TRUE,TRUE,,,,,,,CLR,,,,,,,,VFR,,,,,,,,,,,,METAR,596.0
KDAW 021951Z AUTO 13009KT 10SM CLR 30/17 A2984 RMK AO2 LTG DSNT N AND NW SLP098 T03000167,KDAW,2023-06-02T19:51:00Z,43.28,-70.92,30.0,16.7,130,9,,10.0,29.840551,1009.8,,TRUE,TRUE,,,,,,,CLR,,,,,,,,VFR,,,,,,,,,,,,METAR,100.0
KCTB 021951Z AUTO 02008KT 350V060 10SM OVC030 16/08 A3011 RMK AO2,KCTB,2023-06-02T19:51:00Z,48.6,-112.37,16.0,8.0,20,8,,10.0,30.109253,,,TRUE,TRUE,,,,,,,OVC,3000,,,,,,,MVFR,,,,,,,,,,,,SPECI,1172.0
KCSG 021951Z 09010G17KT 10SM FEW060 SCT090 30/16 A2984 RMK AO2 SLP101 T03000156,KCSG,2023-06-02T19:51:00Z,32.52,-84.95,30.0,15.6,90,10,17,10.0,29.840551,1010.1,,,TRUE,,,,,,,FEW,6000,SCT,9000,,,,,VFR,,,,,,,,,,,,METAR,120.0
KCRP 021951Z 13009G17KT 10SM FEW037 SCT045 SCT065 SCT250 32/22 A2986 RMK AO2 SLP110 T03220217,KCRP,2023-06-02T19:51:00Z,27.77,-97.5,32.2,21.7,130,9,17,10.0,29.861221,1011.0,,,TRUE,,,,,,,FEW,3700,SCT,4500,SCT,6500,SCT,25000,VFR,,,,,,,,,,,,METAR,11.0
KCON 021951Z AUTO 34006KT 10SM CLR 33/15 A2983 RMK AO2 LTG DSNT NE AND S AND W SLP098 T03330150,KCON,2023-06-02T19:51:00Z,43.2,-71.5,33.3,15.0,340,6,,10.0,29.828741,1009.8,,TRUE,TRUE,,,,,,,CLR,,,,,,,,VFR,,,,,,,,,,,,METAR,102.0
KCMH 021951Z VRB06KT 10SM FEW060 33/09 A2996 RMK AO2 SLP138 T03280094,KCMH,2023-06-02T19:51:00Z,40.0,-82.88,32.8,9.4,0,6,,10.0,29.958662,1013.8,,,TRUE,,,,,,,FEW,6000,,,,,,,VFR,,,,,,,,,,,,METAR,257.0
KCLE 021951Z 36012KT 10SM BKN250 28/11 A3000 RMK AO2 SLP171 T02780106,KCLE,2023-06-02T19:51:00Z,41.42,-81.85,27.8,10.6,360,12,,10.0,30.0,1017.1,,,TRUE,,,,,,,BKN,25000,,,,,,,VFR,,,,,,,,,,,,METAR,237.0
KCDJ 021951Z AUTO 10006KT 29/19 A2997 RMK AO1 SLP137 T02940189,KCDJ,2023-06-02T19:51:00Z,39.82,-93.57,29.4,18.9,100,6,,,29.970472,1013.7,,TRUE,TRUE,,,,,,,,,,,,,,,,,,,,,,,,,,,METAR,234.0
KCAK 021951Z 02012G18KT 10SM FEW060 SCT250 31/09 A2999 RMK AO2 SLP147 T03110089,KCAK,2023-06-02T19:51:00Z,40.92,-81.45,31.1,8.9,20,12,18,10.0,29.991142,1014.7,,,TRUE,,,,,,,FEW,6000,SCT,25000,,,,,VFR,,,,,,,,,,,,METAR,369.0
KBKW 021951Z AUTO 32008KT 300V020 10SM FEW070 27/11 A3000 RMK AO2 SLP130 T02720111,KBKW,2023-06-02T19:51:00Z,37.8,-81.12,27.2,11.1,320,8,,10.0,30.0,1013.0,,TRUE,TRUE,,,,,,,FEW,7000,,,,,,,VFR,,,,,,,,,,,,METAR,762.0
KBHK 021951Z AUTO 12016G24KT 10SM FEW040 26/16 A2986 RMK AO2 SLP091 T02610161,KBHK,2023-06-02T19:51:00Z,46.35,-104.25,26.1,16.1,120,16,24,10.0,29.861221,1009.1,,TRUE,TRUE,,,,,,,FEW,4000,,,,,,,VFR,,,,,,,,,,,,METAR,904.0
KBGD 021951Z AUTO 17011G18KT 10SM FEW047 SCT060 22/18 A2996 RMK AO2 LTG DSNT ALQDS SLP111 T02220178,KBGD,2023-06-02T19:51:00Z,35.7,-101.4,22.2,17.8,170,11,18,10.0,29.958662,1011.1,,TRUE,TRUE,,,,,,,FEW,4700,SCT,6000,,,,,VFR,,,,,,,,,,,,METAR,928.0
KBED 021951Z 10007KT 10SM VCTS FEW075 SCT095 30/16 A2982 RMK AO2 LTG DSNT SW-N SLP106 T03000161,KBED,2023-06-02T19:51:00Z,42.47,-71.3,30.0,16.1,100,7,,10.0,29.819881,1010.6,,,TRUE,,,,,,VCTS,FEW,7500,SCT,9500,,,,,VFR,,,,,,,,,,,,METAR,39.0
KBDL 021951Z 31010KT 10SM FEW065 SCT120 BKN200 31/15 A2983 RMK AO2 LTG DSNT ALQDS SLP101 CB DSNT NE-SE AND SW T03110150,KBDL,2023-06-02T19:51:00Z,41.93,-72.68,31.1,15.0,310,10,,10.0,29.828741,1010.1,,,TRUE,,,,,,,FEW,6500,SCT,12000,BKN,20000,,,VFR,,,,,,,,,,,,METAR,52.0
KBAZ 021951Z 13011G17KT 10SM FEW050 32/21 A2986 RMK AO2 RAB11E39 SLP103 P0000 T03220206,KBAZ,2023-06-02T19:51:00Z,29.72,-98.05,32.2,20.6,130,11,17,10.0,29.861221,1010.3,,,TRUE,,,,,,,FEW,5000,,,,,,,VFR,,,,,,0.005,,,,,,METAR,199.0
KAVX 021951Z AUTO 25007KT 9SM OVC004 13/11 A3001 RMK AO2 SLP159 T01330111,KAVX,2023-06-02T19:51:00Z,33.4,-118.42,13.3,11.1,250,7,,9.0,30.008858,1015.9,,TRUE,TRUE,,,,,,,OVC,400,,,,,,,LIFR,,,,,,,,,,,,METAR,482.0
KATT 021951Z AUTO 14011G18KT 10SM FEW055 32/17 A2989 RMK AO2 SLP107 T03170172 ,KATT,2023-06-02T19:51:00Z,30.32,-97.77,31.7,17.2,140,11,18,10.0,29.890747,1010.7,,TRUE,TRUE,,,,,,,FEW,5500,,,,,,,VFR,,,,,,,,,,,,METAR,203.0
KALB 021951Z 31006KT 10SM FEW055 FEW100 BKN160 BKN280 32/15 A2988 RMK AO2 LTG DSNT E SLP116 T03170150,KALB,2023-06-02T19:51:00Z,42.75,-73.8,31.7,15.0,310,6,,10.0,29.878937,1011.6,,,TRUE,,,,,,,FEW,5500,FEW,10000,BKN,16000,BKN,28000,VFR,,,,,,,,,,,,METAR,82.0
KAHN 021951Z 04005KT 10SM SCT050 29/16 A2988 RMK AO2 SLP111 T02890156,KAHN,2023-06-02T19:51:00Z,33.95,-83.33,28.9,15.6,40,5,,10.0,29.878937,1011.1,,,TRUE,,,,,,,SCT,5000,,,,,,,VFR,,,,,,,,,,,,METAR,241.0
KACT 021951Z 18008KT 10SM SCT060 SCT075 31/18 A2988 RMK AO2 SLP109 T03110178,KACT,2023-06-02T19:51:00Z,31.62,-97.23,31.1,17.8,180,8,,10.0,29.878937,1010.9,,,TRUE,,,,,,,SCT,6000,SCT,7500,,,,,VFR,,,,,,,,,,,,METAR,150.0
KABE 021951Z AUTO 00000KT 10SM CLR 34/07 A2984 RMK AO2 SLP100 T03390067,KABE,2023-06-02T19:51:00Z,40.65,-75.45,33.9,6.7,0,0,,10.0,29.840551,1010.0,,TRUE,TRUE,,,,,,,CLR,,,,,,,,VFR,,,,,,,,,,,,METAR,117.0
K6R6 021951Z AUTO 12012G24KT 30/23 A2986 RMK AO1 PK WND 12026/1916 SLP075 T03000233 $,K6R6,2023-06-02T19:51:00Z,30.05,-102.22,30.0,23.3,120,12,24,,29.861221,1007.5,,TRUE,TRUE,TRUE,,,,,,,,,,,,,,,,,,,,,,,,,,METAR,702.0
TJBQ 021950Z 02006KT 10SM SCT041 BKN050 BKN060 29/24 A2985,TJBQ,2023-06-02T19:50:00Z,18.5,-67.13,29.0,24.0,20,6,,10.0,29.84941,,,,,,,,,,,SCT,4100,BKN,5000,BKN,6000,,,VFR,,,,,,,,,,,,METAR,69.0
PTTP 021950Z 00000KT 15SM SCT018 BKN300 26/25 A2986 RMK SLP110 T02590248,PTTP,2023-06-02T19:50:00Z,6.97,158.22,25.9,24.8,0,0,,15.0,29.861221,1011.0,,,,,,,,,,SCT,1800,BKN,30000,,,,,VFR,,,,,,,,,,,,METAR,36.0
PKMR 021950Z 07004KT 15SM FEW015 SCT050 BKN120 OVC300 29/25 A2988 RMK SLP120 T02860254,PKMR,2023-06-02T19:50:00Z,7.08,171.38,28.6,25.4,70,4,,15.0,29.878937,1012.0,,,,,,,,,,FEW,1500,SCT,5000,BKN,12000,OVC,30000,VFR,,,,,,,,,,,,SPECI,7.0
NSTU 021950Z 13012KT 12SM SCT019 SCT220 28/26 A2994 RMK SLP139 T02800257,NSTU,2023-06-02T19:50:00Z,-14.33,-170.72,28.0,25.7,130,12,,12.0,29.940945,1013.9,,,,,,,,,,SCT,1900,SCT,22000,,,,,VFR,,,,,,,,,,,,METAR,8.0
MSLP 021950Z 24010KT 200V260 9999 FEW018 SCT027 32/25 Q1007 A2975 NOSIG,MSLP,2023-06-02T19:50:00Z,13.43,-89.05,32.0,25.0,240,10,,6.21,29.734253,,,,,,TRUE,,,,,FEW,1800,SCT,2700,,,,,VFR,,,,,,,,,,,,METAR,25.0
MMCT 021950Z 30011KT 8SM BKN020TCU 35/19 A2969 RMK 8/200 CI,MMCT,2023-06-02T19:50:00Z,20.63,-88.45,35.0,19.0,300,11,,8.0,29.68996,,,,,,,,,,,BKN,2000,,,,,,,MVFR,,,,,,,,,,,,METAR,29.0
LSZS 021950Z AUTO 21005KT 7000 -RA SCT046 SCT070 BKN090 09/07 Q1020 REDZ,LSZS,2023-06-02T19:50:00Z,46.53,9.88,9.0,7.0,210,5,,4.35,30.11811,,,TRUE,,,,,,,-RA,SCT,4600,SCT,7000,BKN,9000,,,MVFR,,,,,,,,,,,,METAR,1708.0
LSZR 021950Z AUTO VRB03KT 9999 NCD 21/11 Q1015,LSZR,2023-06-02T19:50:00Z,47.48,9.57,21.0,11.0,0,3,,6.21,29.970472,,,TRUE,,,,,,,,CLR,,,,,,,,VFR,,,,,,,,,,,,METAR,396.0
LSZL 021950Z AUTO 23008KT 9999NDV SCT120 19/15 Q1015 RMK,LSZL,2023-06-02T19:50:00Z,46.17,8.88,19.0,15.0,230,8,,,29.970472,,,TRUE,,,,,,,,SCT,12000,,,,,,,,,,,,,,,,,,,METAR,198.0
LSZH 021950Z 03010KT CAVOK 21/10 Q1015 NOSIG,LSZH,2023-06-02T19:50:00Z,47.48,8.53,21.0,10.0,30,10,,6.21,29.970472,,,,,,TRUE,,,,,CAVOK,,,,,,,,VFR,,,,,,,,,,,,METAR,424.0
LSZG 021950Z AUTO VRB06KT CAVOK 21/08 Q1014,LSZG,2023-06-02T19:50:00Z,47.17,7.42,21.0,8.0,0,6,,6.21,29.940945,,,TRUE,,,,,,,,CAVOK,,,,,,,,VFR,,,,,,,,,,,,METAR,428.0
LSZC 021950Z AUTO 28003KT 220V320 9999 BKN075 21/10 Q1013,LSZC,2023-06-02T19:50:00Z,46.97,8.38,21.0,10.0,280,3,,6.21,29.911417,,,TRUE,,,,,,,,BKN,7500,,,,,,,VFR,,,,,,,,,,,,METAR,445.0
LSZB 021950Z AUTO VRB01KT 9999 FEW080 17/11 Q1014,LSZB,2023-06-02T19:50:00Z,46.92,7.5,17.0,11.0,0,1,,6.21,29.940945,,,TRUE,,,,,,,,FEW,8000,,,,,,,VFR,,,,,,,,,,,,METAR,510.0
LSZA 021950Z AUTO VRB03KT 9999 FEW110 SCT120 //////TCU 17/16 Q1014,LSZA,2023-06-02T19:50:00Z,46.0,8.92,17.0,16.0,0,3,,6.21,29.940945,,,TRUE,,,,,,,,FEW,11000,SCT,12000,,,,,VFR,,,,,,,,,,,,METAR,276.0
LSMP 021950Z AUTO 02002KT 9999NDV SCT083 20/10 Q1014 RMK,LSMP,2023-06-02T19:50:00Z,46.83,6.92,20.0,10.0,20,2,,,29.940945,,,TRUE,,,,,,,,SCT,8300,,,,,,,,,,,,,,,,,,,METAR,490.0
LSME 021950Z AUTO 34005KT 300V010 9999NDV BKN084 22/10 Q1013 RMK,LSME,2023-06-02T19:50:00Z,47.1,8.3,22.0,10.0,340,5,,,29.911417,,,TRUE,,,,,,,,BKN,8400,,,,,,,,,,,,,,,,,,,METAR,427.0
LSMD 021950Z AUTO 08004KT 050V120 9999NDV NCD 22/09 Q1014 RMK,LSMD,2023-06-02T19:50:00Z,47.4,8.65,22.0,9.0,80,4,,,29.940945,,,TRUE,,,,,,,,CLR,,,,,,,,,,,,,,,,,,,,METAR,436.0
LSMA 021950Z AUTO VRB04KT 2500NDV FEW087 22/08 Q1013 RMK,LSMA,2023-06-02T19:50:00Z,46.95,8.28,22.0,8.0,0,4,,,29.911417,,,TRUE,,,,,,,,FEW,8700,,,,,,,,,,,,,,,,,,,METAR,441.0
LSGS 021950Z AUTO 32006KT 270V050 9999 -RA BKN///CB 20/13 Q1014 RETS,LSGS,2023-06-02T19:50:00Z,46.22,7.32,20.0,13.0,320,6,,6.21,29.940945,,,TRUE,,,,,,,-RA,,,,,,,,,,,,,,,,,,,,,METAR,482.0
LSGG 021950Z 34001KT 9999 FEW050 BKN080 20/12 Q1014 NOSIG,LSGG,2023-06-02T19:50:00Z,46.25,6.12,20.0,12.0,340,1,,6.21,29.940945,,,,,,TRUE,,,,,FEW,5000,BKN,8000,,,,,VFR,,,,,,,,,,,,METAR,411.0
LSGC 021950Z AUTO 02006KT CAVOK 15/09 Q1017,LSGC,2023-06-02T19:50:00Z,47.08,6.8,15.0,9.0,20,6,,6.21,30.029528,,,TRUE,,,,,,,,CAVOK,,,,,,,,VFR,,,,,,,,,,,,METAR,1018.0
LOXZ 021950Z 09010KT 9999 -TSRA FEW030 SCT060 BKN090 15/13 Q1017,LOXZ,2023-06-02T19:50:00Z,47.2,14.75,15.0,13.0,90,10,,6.21,30.029528,,,,,,,,,,-TSRA,FEW,3000,SCT,6000,BKN,9000,,,VFR,,,,,,,,,,,,METAR,678.0
LOWW 021950Z 03012KT CAVOK 18/09 Q1016 NOSIG,LOWW,2023-06-02T19:50:00Z,48.12,16.57,18.0,9.0,30,12,,6.21,30.0,,,,,,TRUE,,,,,CAVOK,,,,,,,,VFR,,,,,,,,,,,,METAR,179.0
LOWS 021950Z VRB02KT 9999 SCT070 19/11 Q1015 NOSIG,LOWS,2023-06-02T19:50:00Z,47.78,13.02,19.0,11.0,0,2,,6.21,29.970472,,,,,,TRUE,,,,,SCT,7000,,,,,,,VFR,,,,,,,,,,,,METAR,427.0
LOWL 021950Z AUTO 05012KT 9999 FEW050 BKN060 19/08 Q1016 NOSIG,LOWL,2023-06-02T19:50:00Z,48.22,14.18,19.0,8.0,50,12,,6.21,30.0,,,TRUE,,,TRUE,,,,,FEW,5000,BKN,6000,,,,,VFR,,,,,,,,,,,,METAR,290.0
LOWK 021950Z 02013KT 9999 FEW060 FEW060CB SCT090 20/11 Q1015 TEMPO 33015G25KT TS,LOWK,2023-06-02T19:50:00Z,46.65,14.32,20.0,11.0,20,13,,6.21,29.970472,,,,,,,,,,,FEW,6000,FEW,6000,SCT,9000,,,VFR,,,,,,,,,,,,METAR,450.0
LOWI 021950Z 07005KT 040V140 9999 FEW060TCU SCT065 BKN080 20/10 Q1015 NOSIG,LOWI,2023-06-02T19:50:00Z,47.27,11.33,20.0,10.0,70,5,,6.21,29.970472,,,,,,TRUE,,,,,FEW,6000,SCT,6500,BKN,8000,,,VFR,,,,,,,,,,,,METAR,570.0
LOWG 021950Z AUTO 30007KT 270V330 9999 FEW060CB SCT080 19/12 Q1015 TEMPO SHRA,LOWG,2023-06-02T19:50:00Z,47.0,15.43,19.0,12.0,300,7,,6.21,29.970472,,,TRUE,,,,,,,,FEW,6000,SCT,8000,,,,,VFR,,,,,,,,,,,,METAR,337.0
LLBG 021950Z VRB03KT CAVOK 31/12 Q1010 NOSIG,LLBG,2023-06-02T19:50:00Z,32.0,34.88,31.0,12.0,0,3,,6.21,29.822834,,,,,,TRUE,,,,,CAVOK,,,,,,,,VFR,,,,,,,,,,,,METAR,35.0
LIRZ 021950Z AUTO 01005KT 9999 NCD 18/16 Q1013,LIRZ,2023-06-02T19:50:00Z,43.1,12.5,18.0,16.0,10,5,,6.21,29.911417,,,TRUE,,,,,,,,CLR,,,,,,,,VFR,,,,,,,,,,,,METAR,206.0
LIRQ 021950Z 07003KT CAVOK 17/16 Q1013,LIRQ,2023-06-02T19:50:00Z,43.8,11.2,17.0,16.0,70,3,,6.21,29.911417,,,,,,,,,,,CAVOK,,,,,,,,VFR,,,,,,,,,,,,METAR,33.0
LIRN 021950Z 29004KT 270V340 9999 FEW040 21/18 Q1014 NOSIG,LIRN,2023-06-02T19:50:00Z,40.88,14.3,21.0,18.0,290,4,,6.21,29.940945,,,,,,TRUE,,,,,FEW,4000,,,,,,,VFR,,,,,,,,,,,,METAR,76.0
LIRF 021950Z 26004KT CAVOK 20/18 Q1013 NOSIG,LIRF,2023-06-02T19:50:00Z,41.78,12.23,20.0,18.0,260,4,,6.21,29.911417,,,,,,TRUE,,,,,CAVOK,,,,,,,,VFR,,,,,,,,,,,,METAR,2.0
LIRA 021950Z 22003KT 9999 FEW050 21/16 Q1014,LIRA,2023-06-02T19:50:00Z,41.8,12.58,21.0,16.0,220,3,,6.21,29.940945,,,,,,,,,,,FEW,5000,,,,,,,VFR,,,,,,,,,,,,METAR,101.0
LIPZ 021950Z 05009KT CAVOK 22/15 Q1012 NOSIG,LIPZ,2023-06-02T19:50:00Z,45.5,12.35,22.0,15.0,50,9,,6.21,29.88189,,,,,,TRUE,,,,,CAVOK,,,,,,,,VFR,,,,,,,,,,,,METAR,3.0
LIPY 021950Z AUTO VRB02KT 9999 NCD 20/15 Q1012,LIPY,2023-06-02T19:50:00Z,43.62,13.37,20.0,15.0,0,2,,6.21,29.88189,,,TRUE,,,,,,,,CLR,,,,,,,,VFR,,,,,,,,,,,,METAR,11.0
LIPX 021950Z 10003KT 050V170 9999 FEW040 21/15 Q1012,LIPX,2023-06-02T19:50:00Z,45.38,10.87,21.0,15.0,100,3,,6.21,29.88189,,,,,,,,,,,FEW,4000,,,,,,,VFR,,,,,,,,,,,,METAR,67.0
LIPR 021950Z 14004KT CAVOK 21/15 Q1012,LIPR,2023-06-02T19:50:00Z,44.02,12.62,21.0,15.0,140,4,,6.21,29.88189,,,,,,,,,,,CAVOK,,,,,,,,VFR,,,,,,,,,,,,METAR,10.0
LIPQ 021950Z AUTO 17008KT 150V210 9999 -TSRA OVC079/// 20/18 Q1013 RERA,LIPQ,2023-06-02T19:50:00Z,45.82,13.47,20.0,18.0,170,8,,6.21,29.911417,,,TRUE,,,,,,,-TSRA,OVC,7900,,,,,,,VFR,,,,,,,,,,,,METAR,6.0
LIPO 021950Z AUTO 32004KT 9999 NCD 22/15 Q1012,LIPO,2023-06-02T19:50:00Z,45.42,10.33,22.0,15.0,320,4,,6.21,29.88189,,,TRUE,,,,,,,,CLR,,,,,,,,VFR,,,,,,,,,,,,METAR,104.0
LIPK 021950Z VRB02KT CAVOK 20/15 Q1012,LIPK,2023-06-02T19:50:00Z,44.2,12.07,20.0,15.0,0,2,,6.21,29.88189,,,,,,,,,,,CAVOK,,,,,,,,VFR,,,,,,,,,,,,METAR,24.0
LIPH 021950Z 04005KT 360V070 9999 BKN080 22/11 Q1012,LIPH,2023-06-02T19:50:00Z,45.63,12.18,22.0,11.0,40,5,,6.21,29.88189,,,,,,,,,,,BKN,8000,,,,,,,VFR,,,,,,,,,,,,METAR,10.0
LIPE 021950Z 19005KT CAVOK 21/13 Q1012,LIPE,2023-06-02T19:50:00Z,44.52,11.3,21.0,13.0,190,5,,6.21,29.88189,,,,,,,,,,,CAVOK,,,,,,,,VFR,,,,,,,,,,,,METAR,37.0
LIPB 021950Z VRB02KT 9999 FEW095 SCT130 24/11 Q1012,LIPB,2023-06-02T19:50:00Z,46.47,11.32,24.0,11.0,0,2,,6.21,29.88189,,,,,,,,,,,FEW,9500,SCT,13000,,,,,VFR,,,,,,,,,,,,METAR,239.0
LIMZ 021950Z AUTO 17004KT 150V300 9999 NCD 18/15 Q1013,LIMZ,2023-06-02T19:50:00Z,44.53,7.62,18.0,15.0,170,4,,6.21,29.911417,,,TRUE,,,,,,,,CLR,,,,,,,,VFR,,,,,,,,,,,,METAR,377.0
LIML 021950Z 28002KT CAVOK 23/15 Q1012 NOSIG,LIML,2023-06-02T19:50:00Z,45.47,9.27,23.0,15.0,280,2,,6.21,29.88189,,,,,,TRUE,,,,,CAVOK,,,,,,,,VFR,,,,,,,,,,,,METAR,109.0
LIMJ 021950Z 26004KT CAVOK 21/18 Q1013,LIMJ,2023-06-02T19:50:00Z,44.42,8.83,21.0,18.0,260,4,,6.21,29.911417,,,,,,,,,,,CAVOK,,,,,,,,VFR,,,,,,,,,,,,METAR,3.0
LIMF 021950Z 36004KT CAVOK 22/15 Q1013,LIMF,2023-06-02T19:50:00Z,45.22,7.65,22.0,15.0,360,4,,6.21,29.911417,,,,,,,,,,,CAVOK,,,,,,,,VFR,,,,,,,,,,,,METAR,295.0
LIME 021950Z 36006KT 320V030 9999 -RA FEW035CB SCT070 21/15 Q1013 RETSRA NOSIG,LIME,2023-06-02T19:50:00Z,45.67,9.7,21.0,15.0,360,6,,6.21,29.911417,,,,,,TRUE,,,,-RA,FEW,3500,SCT,7000,,,,,VFR,,,,,,,,,,,,METAR,239.0
LIMC 021950Z 04005KT 020V090 9999 FEW050TCU 22/12 Q1013 NOSIG,LIMC,2023-06-02T19:50:00Z,45.62,8.72,22.0,12.0,40,5,,6.21,29.911417,,,,,,TRUE,,,,,FEW,5000,,,,,,,VFR,,,,,,,,,,,,METAR,221.0
LIEO 021950Z 23008KT 9999 FEW025 20/16 Q1014,LIEO,2023-06-02T19:50:00Z,40.88,9.52,20.0,16.0,230,8,,6.21,29.940945,,,,,,,,,,,FEW,2500,,,,,,,VFR,,,,,,,,,,,,METAR,8.0
LIEE 021950Z 20005KT 9999 FEW040 20/17 Q1014,LIEE,2023-06-02T19:50:00Z,39.25,9.07,20.0,17.0,200,5,,6.21,29.940945,,,,,,,,,,,FEW,4000,,,,,,,VFR,,,,,,,,,,,,METAR,1.0
LIEA 021950Z 03004KT 9999 SCT035 20/17 Q1014,LIEA,2023-06-02T19:50:00Z,40.62,8.28,20.0,17.0,30,4,,6.21,29.940945,,,,,,,,,,,SCT,3500,,,,,,,VFR,,,,,,,,,,,,METAR,22.0
LICR 021950Z AUTO 34007KT 9999 NCD 20/15 Q1014,LICR,2023-06-02T19:50:00Z,38.07,15.65,20.0,15.0,340,7,,6.21,29.940945,,,TRUE,,,,,,,,CLR,,,,,,,,VFR,,,,,,,,,,,,METAR,16.0
LICJ 021950Z VRB02KT CAVOK 21/17 Q1014,LICJ,2023-06-02T19:50:00Z,38.17,13.08,21.0,17.0,0,2,,6.21,29.940945,,,,,,,,,,,CAVOK,,,,,,,,VFR,,,,,,,,,,,,METAR,20.0
LICD 021950Z AUTO 17002KT 9999 NCD 21/17 Q1014,LICD,2023-06-02T19:50:00Z,35.5,12.62,21.0,17.0,170,2,,6.21,29.940945,,,TRUE,,,,,,,,CLR,,,,,,,,VFR,,,,,,,,,,,,METAR,20.0
LICC 021950Z 21009KT 9999 FEW060 18/16 Q1014,LICC,2023-06-02T19:50:00Z,37.47,15.05,18.0,16.0,210,9,,6.21,29.940945,,,,,,,,,,,FEW,6000,,,,,,,VFR,,,,,,,,,,,,METAR,6.0
LICB 021950Z AUTO VRB02KT 9999 NCD 18/16 Q1015,LICB,2023-06-02T19:50:00Z,37.0,14.62,18.0,16.0,0,2,,6.21,29.970472,,,TRUE,,,,,,,,CLR,,,,,,,,VFR,,,,,,,,,,,,METAR,212.0
LICA 021950Z AUTO 20003KT 9999 NCD 19/18 Q1014,LICA,2023-06-02T19:50:00Z,38.9,16.25,19.0,18.0,200,3,,6.21,29.940945,,,TRUE,,,,,,,,CLR,,,,,,,,VFR,,,,,,,,,,,,METAR,7.0
LIBR 021950Z 32002KT CAVOK 20/18 Q1012,LIBR,2023-06-02T19:50:00Z,40.65,17.95,20.0,18.0,320,2,,6.21,29.88189,,,,,,,,,,,CAVOK,,,,,,,,VFR,,,,,,,,,,,,METAR,5.0
LIBP 021950Z AUTO 06003KT 010V120 9999 NCD 21/16 Q1013,LIBP,2023-06-02T19:50:00Z,42.42,14.18,21.0,16.0,60,3,,6.21,29.911417,,,TRUE,,,,,,,,CLR,,,,,,,,VFR,,,,,,,,,,,,METAR,10.0
LIBD 021950Z 29004KT 9999 FEW040 20/16 Q1013,LIBD,2023-06-02T19:50:00Z,41.13,16.77,20.0,16.0,290,4,,6.21,29.911417,,,,,,,,,,,FEW,4000,,,,,,,VFR,,,,,,,,,,,,METAR,42.0
LGZA 021950Z VRB02KT CAVOK 20/15 Q1012,LGZA,2023-06-02T19:50:00Z,37.75,20.88,20.0,15.0,0,2,,6.21,29.88189,,,,,,,,,,,CAVOK,,,,,,,,VFR,,,,,,,,,,,,METAR,3.0
LGTS 021950Z 10004KT 9999 FEW030 19/13 Q1012 NOSIG,LGTS,2023-06-02T19:50:00Z,40.52,22.97,19.0,13.0,100,4,,6.21,29.88189,,,,,,TRUE,,,,,FEW,3000,,,,,,,VFR,,,,,,,,,,,,METAR,4.0
LGSR 021950Z 31008KT 9999 FEW010 BKN015 17/14 Q1011,LGSR,2023-06-02T19:50:00Z,36.4,25.48,17.0,14.0,310,8,,6.21,29.852362,,,,,,,,,,,FEW,1000,BKN,1500,,,,,MVFR,,,,,,,,,,,,METAR,31.0
LGSO 021950Z 27005KT 9999 FEW012 SCT018 18/14 Q1011,LGSO,2023-06-02T19:50:00Z,37.42,24.95,18.0,14.0,270,5,,6.21,29.852362,,,,,,,,,,,FEW,1200,SCT,1800,,,,,VFR,,,,,,,,,,,,METAR,71.0
LGSM 021950Z 03003KT 9999 -RA FEW018 BKN025 18/17 Q1009,LGSM,2023-06-02T19:50:00Z,37.68,26.92,18.0,17.0,30,3,,6.21,29.793306,,,,,,,,,,-RA,FEW,1800,BKN,2500,,,,,MVFR,,,,,,,,,,,,METAR,5.0
LGSA 021950Z 28005KT 9999 FEW020 16/15 Q1011,LGSA,2023-06-02T19:50:00Z,35.53,24.13,16.0,15.0,280,5,,6.21,29.852362,,,,,,,,,,,FEW,2000,,,,,,,VFR,,,,,,,,,,,,METAR,122.0
LGRX 021950Z 00000KT 9999 FEW090 19/16 Q1012,LGRX,2023-06-02T19:50:00Z,38.17,21.42,19.0,16.0,0,0,,6.21,29.88189,,,,,,,,,,,FEW,9000,,,,,,,VFR,,,,,,,,,,,,METAR,16.0
LGRP 021950Z 24006KT 9999 FEW016 SCT025 21/19 Q1007 NOSIG,LGRP,2023-06-02T19:50:00Z,36.4,28.08,21.0,19.0,240,6,,6.21,29.734253,,,,,,TRUE,,,,,FEW,1600,SCT,2500,,,,,VFR,,,,,,,,,,,,METAR,3.0
LGPZ 021950Z 22005KT 9999 FEW025 21/19 Q1012,LGPZ,2023-06-02T19:50:00Z,38.92,20.77,21.0,19.0,220,5,,6.21,29.88189,,,,,,,,,,,FEW,2500,,,,,,,VFR,,,,,,,,,,,,METAR,3.0
LGPA 021950Z AUTO VRB03KT //// // ////// 18/17 Q1011 RERA,LGPA,2023-06-02T19:50:00Z,37.02,25.1,18.0,17.0,0,3,,,29.852362,,,TRUE,,,,,,,,,,,,,,,,,,,,,,,,,,,,METAR,42.0
LGMT 021950Z 30004KT 9999 -RA SCT015 BKN025 19/18 Q1011,LGMT,2023-06-02T19:50:00Z,39.05,26.6,19.0,18.0,300,4,,6.21,29.852362,,,,,,,,,,-RA,SCT,1500,BKN,2500,,,,,MVFR,,,,,,,,,,,,METAR,4.0
LGMK 021950Z 01006KT 9999 FEW015 SCT025 18/14 Q1011,LGMK,2023-06-02T19:50:00Z,37.43,25.35,18.0,14.0,10,6,,6.21,29.852362,,,,,,,,,,,FEW,1500,SCT,2500,,,,,VFR,,,,,,,,,,,,METAR,126.0
LGLM 021950Z 00000KT 9999 FEW018 20/15 Q1010,LGLM,2023-06-02T19:50:00Z,39.92,25.23,20.0,15.0,0,0,,6.21,29.822834,,,,,,,,,,,FEW,1800,,,,,,,VFR,,,,,,,,,,,,METAR,4.0
LGKZ 021950Z AUTO 36004KT //// // ////// 15/07 Q1014 RE//,LGKZ,2023-06-02T19:50:00Z,40.28,21.83,15.0,7.0,360,4,,,29.940945,,,TRUE,,,,,,,,,,,,,,,,,,,,,,,,,,,,METAR,615.0
LGKV 021950Z 00000KT CAVOK 20/18 Q1011,LGKV,2023-06-02T19:50:00Z,40.92,24.62,20.0,18.0,0,0,,6.21,29.852362,,,,,,,,,,,CAVOK,,,,,,,,VFR,,,,,,,,,,,,METAR,5.0
LGKR 021950Z 00000KT 9999 FEW020 22/15 Q1011 NOSIG,LGKR,2023-06-02T19:50:00Z,39.62,19.92,22.0,15.0,0,0,,6.21,29.852362,,,,,,TRUE,,,,,FEW,2000,,,,,,,VFR,,,,,,,,,,,,METAR,2.0
LGKP 021950Z 30021KT 9999 -DZ FEW015 SCT020 18/18 Q1008,LGKP,2023-06-02T19:50:00Z,35.42,27.15,18.0,18.0,300,21,,6.21,29.763779,,,,,,,,,,-DZ,FEW,1500,SCT,2000,,,,,VFR,,,,,,,,,,,,METAR,20.0
LGKO 021950Z 35008KT 9999 FEW012 SCT025 19/16 Q1009,LGKO,2023-06-02T19:50:00Z,36.8,27.08,19.0,16.0,350,8,,6.21,29.793306,,,,,,,,,,,FEW,1200,SCT,2500,,,,,VFR,,,,,,,,,,,,METAR,130.0
LGKL 021950Z 00000KT 9999 FEW025 16/15 Q1013,LGKL,2023-06-02T19:50:00Z,37.07,22.02,16.0,15.0,0,0,,6.21,29.911417,,,,,,,,,,,FEW,2500,,,,,,,VFR,,,,,,,,,,,,METAR,4.0
LGKF 021950Z 33006KT 9999 FEW030 21/16 Q1012,LGKF,2023-06-02T19:50:00Z,38.12,20.5,21.0,16.0,330,6,,6.21,29.88189,,,,,,,,,,,FEW,3000,,,,,,,VFR,,,,,,,,,,,,METAR,14.0
LGIR 021950Z 29008KT 9999 FEW010 SCT020 18/17 Q1012 NOSIG,LGIR,2023-06-02T19:50:00Z,35.33,25.17,18.0,17.0,290,8,,6.21,29.88189,,,,,,TRUE,,,,,FEW,1000,SCT,2000,,,,,VFR,,,,,,,,,,,,METAR,37.0
LGIO 021950Z AUTO VRB02KT //// // ////// 16/15 Q1014 RE//,LGIO,2023-06-02T19:50:00Z,39.7,20.82,16.0,15.0,0,2,,,29.940945,,,TRUE,,,,,,,,,,,,,,,,,,,,,,,,,,,,METAR,476.0
LGHI 021950Z 24003KT 9999 FEW020 SCT030 19/18 Q1009,LGHI,2023-06-02T19:50:00Z,38.33,26.13,19.0,18.0,240,3,,6.21,29.793306,,,,,,,,,,,FEW,2000,SCT,3000,,,,,VFR,,,,,,,,,,,,METAR,6.0
LGEL 021950Z 00000KT 9999 FEW025 BKN070 19/15 Q1011,LGEL,2023-06-02T19:50:00Z,38.07,23.55,19.0,15.0,0,0,,6.21,29.852362,,,,,,,,,,,FEW,2500,BKN,7000,,,,,VFR,,,,,,,,,,,,METAR,21.0
LGBL 021950Z 00000KT CAVOK 18/13 Q1011,LGBL,2023-06-02T19:50:00Z,39.22,22.8,18.0,13.0,0,0,,6.21,29.852362,,,,,,,,,,,CAVOK,,,,,,,,VFR,,,,,,,,,,,,METAR,13.0
LGAV 021950Z 00000KT 9999 FEW030 17/15 Q1012 NOSIG,LGAV,2023-06-02T19:50:00Z,37.93,23.95,17.0,15.0,0,0,,6.21,29.88189,,,,,,TRUE,,,,,FEW,3000,,,,,,,VFR,,,,,,,,,,,,METAR,83.0
LGAL 021950Z 02004KT CAVOK 20/12 Q1011,LGAL,2023-06-02T19:50:00Z,40.85,25.95,20.0,12.0,20,4,,6.21,29.852362,,,,,,,,,,,CAVOK,,,,,,,,VFR,,,,,,,,,,,,METAR,5.0
LGAD 021950Z VRB02KT 9999 FEW025 19/17 Q1012,LGAD,2023-06-02T19:50:00Z,37.92,21.28,19.0,17.0,0,2,,6.21,29.88189,,,,,,,,,,,FEW,2500,,,,,,,VFR,,,,,,,,,,,,METAR,8.0
LCRA 021950Z 11006KT CAVOK 23/17 Q1008 NOSIG,LCRA,2023-06-02T19:50:00Z,34.58,32.98,23.0,17.0,110,6,,6.21,29.763779,,,,,,TRUE,,,,,CAVOK,,,,,,,,VFR,,,,,,,,,,,,METAR,23.0
LATI 021950Z VRB01KT CAVOK 20/18 Q1013 NOSIG,LATI,2023-06-02T19:50:00Z,41.42,19.72,20.0,18.0,0,1,,6.21,29.911417,,,,,,TRUE,,,,,CAVOK,,,,,,,,VFR,,,,,,,,,,,,METAR,32.0
KVQQ 021950Z 05009G14KT 10SM SCT040 29/20 A2979,KVQQ,2023-06-02T19:50:00Z,30.22,-81.88,29.0,20.0,50,9,14,10.0,29.790354,,,,,,,,,,,SCT,4000,,,,,,,VFR,,,,,,,,,,,,METAR,21.0
KTPA 021950Z 34019G30KT 1SM R19R/1000V5000FT +TSRA SCT017CB BKN042 OVC050 23/19 A2974 RMK AO2 PK WND 35038/1939 WSHFT 1907 LTG DSNT SE AND S AND NW CONS LTGICCCCG OHD AND DSNT S-NW TS OHD MOV NE CB DSNT S-NW P0088 $,KTPA,2023-06-02T19:50:00Z,27.97,-82.53,23.0,19.0,340,19,30,1.0,29.740158,,,,TRUE,TRUE,,,,,+TSRA,SCT,1700,BKN,4200,OVC,5000,,,IFR,,,,,,0.88,,,,,,SPECI,2.0
KSUT 021950Z AUTO 03005KT 10SM SCT027 SCT037 BKN060 24/19 A2983 RMK AO2 T02440186,KSUT,2023-06-02T19:50:00Z,33.93,-78.08,24.4,18.6,30,5,,10.0,29.828741,,,TRUE,TRUE,,,,,,,SCT,2700,SCT,3700,BKN,6000,,,VFR,,,,,,,,,,,,SPECI,6.0
KSUA 021950Z 07009KT 7SM VCSH SCT020 BKN035 29/22 A2973,KSUA,2023-06-02T19:50:00Z,27.18,-80.22,29.0,22.0,70,9,,7.0,29.731298,,,,,,,,,,VCSH,SCT,2000,BKN,3500,,,,,VFR,,,,,,,,,,,,METAR,4.0
KRYY 021950Z 00000KT 10SM FEW055 31/16 A2990 RMK AO2 SLP112 T03060156 $,KRYY,2023-06-02T19:50:00Z,34.02,-84.6,30.6,15.6,0,0,,10.0,29.899607,1011.2,,,TRUE,TRUE,,,,,,FEW,5500,,,,,,,VFR,,,,,,,,,,,,SPECI,306.0
KRHV 021950Z 00000KT 10SM SKC 22/08 A2999,KRHV,2023-06-02T19:50:00Z,37.33,-121.82,22.0,8.0,0,0,,10.0,29.991142,,,,,,,,,,,SKC,,,,,,,,VFR,,,,,,,,,,,,METAR,37.0
KRHP 021950Z AUTO 06006KT 10SM SCT065 SCT075 SCT090 28/14 A2991 RMK AO2 T02840136,KRHP,2023-06-02T19:50:00Z,35.18,-83.85,28.4,13.6,60,6,,10.0,29.911417,,,TRUE,TRUE,,,,,,,SCT,6500,SCT,7500,SCT,9000,,,VFR,,,,,,,,,,,,SPECI,515.0
KRCZ 021950Z AUTO 03006KT 10SM SCT050 SCT060 27/15 A2987 RMK AO2 T02690154,KRCZ,2023-06-02T19:50:00Z,34.88,-79.77,26.9,15.4,30,6,,10.0,29.870079,,,TRUE,TRUE,,,,,,,SCT,5000,SCT,6000,,,,,VFR,,,,,,,,,,,,SPECI,110.0
KQFX 021950Z AUTO 11001KT 4000 BR FEW070 15/14 A2972 RMK A02 TSNO,KQFX,2023-06-02T19:50:00Z,,,15.0,14.0,110,1,,2.49,29.719488,,,TRUE,TRUE,,,TRUE,,,BR,FEW,7000,,,,,,,IFR,,,,,,,,,,,,METAR,
KQFW 021950Z AUTO 36002KT 4800 BR FEW080 13/13 A2959 RMK A02 TSNO,KQFW,2023-06-02T19:50:00Z,,,13.0,13.0,360,2,,2.98,29.589567,,,TRUE,TRUE,,,TRUE,,,BR,FEW,8000,,,,,,,IFR,,,,,,,,,,,,METAR,
KQFV 021950Z AUTO 29002KT 9999 CLR 12/12 A2980 RMK A02 TSNO,KQFV,2023-06-02T19:50:00Z,,,12.0,12.0,290,2,,6.21,29.799213,,,TRUE,TRUE,,,TRUE,,,,CLR,,,,,,,,VFR,,,,,,,,,,,,METAR,
KQFU 021950Z AUTO 00000KT 9999 CLR 15/14 A2979 RMK A02 TSNO,KQFU,2023-06-02T19:50:00Z,,,15.0,14.0,0,0,,6.21,29.790354,,,TRUE,TRUE,,,TRUE,,,,CLR,,,,,,,,VFR,,,,,,,,,,,,METAR,
KQFT 021950Z AUTO 01001KT 6000 FEW005 16/15 A2973 RMK A02 TSNO,KQFT,2023-06-02T19:50:00Z,,,16.0,15.0,10,1,,3.73,29.731298,,,TRUE,TRUE,,,TRUE,,,,FEW,500,,,,,,,MVFR,,,,,,,,,,,,METAR,
KQFB 021950Z AUTO 00000KT 9999 CLR 15/14 A2977 RMK A02 TSNO,KQFB,2023-06-02T19:50:00Z,,,15.0,14.0,0,0,,6.21,29.769686,,,TRUE,TRUE,,,TRUE,,,,CLR,,,,,,,,VFR,,,,,,,,,,,,METAR,
KQEY 021950Z AUTO 01001KT 4800 CLR 16/15 A2946 RMK A02 TSNO,KQEY,2023-06-02T19:50:00Z,,,16.0,15.0,10,1,,2.98,29.459646,,,TRUE,TRUE,,,TRUE,,,,CLR,,,,,,,,IFR,,,,,,,,,,,,METAR,
KQEX 021950Z AUTO 05004KT 9999 CLR 22/14 / RMK A02 TSNO,KQEX,2023-06-02T19:50:00Z,,,22.0,14.0,50,4,,6.21,,,,TRUE,TRUE,,,TRUE,,,,CLR,,,,,,,,VFR,,,,,,,,,,,,METAR,
KQEW 021950Z AUTO 21003KT 8000 HZ CLR 18/15 A2971 RMK A02 TSNO,KQEW,2023-06-02T19:50:00Z,,,18.0,15.0,210,3,,4.97,29.71063,,,TRUE,TRUE,,,TRUE,,,HZ,CLR,,,,,,,,MVFR,,,,,,,,,,,,METAR,
KQEV 021950Z AUTO 00000KT 4800 SCT003 15/14 A2970 RMK A02 TSNO,KQEV,2023-06-02T19:50:00Z,,,15.0,14.0,0,0,,2.98,29.698818,,,TRUE,TRUE,,,TRUE,,,,SCT,300,,,,,,,IFR,,,,,,,,,,,,METAR,
KQER 021950Z AUTO 03001KT 0400 FG CLR 13/13 A2973 RMK A02 TSNO,KQER,2023-06-02T19:50:00Z,,,13.0,13.0,30,1,,0.25,29.731298,,,TRUE,TRUE,,,TRUE,,,FG,CLR,,,,,,,,LIFR,,,,,,,,,,,,METAR,
KQEQ 021950Z AUTO 03001KT 6000 CLR 15/15 / RMK A02 TSNO,KQEQ,2023-06-02T19:50:00Z,,,15.0,15.0,30,1,,3.73,,,,TRUE,TRUE,,,TRUE,,,,CLR,,,,,,,,MVFR,,,,,,,,,,,,METAR,
KQEP 021950Z AUTO 36001KT 3200 BR FEW070 16/15 A2976 RMK A02 TSNO,KQEP,2023-06-02T19:50:00Z,,,16.0,15.0,360,1,,1.99,29.760826,,,TRUE,TRUE,,,TRUE,,,BR,FEW,7000,,,,,,,IFR,,,,,,,,,,,,METAR,
KQEN 021950Z AUTO 24002KT 9999 BKN065 11/08 A2979 RMK A02 TSNO,KQEN,2023-06-02T19:50:00Z,,,11.0,8.0,240,2,,6.21,29.790354,,,TRUE,TRUE,,,TRUE,,,,BKN,6500,,,,,,,VFR,,,,,,,,,,,,METAR,
KQEJ 021950Z AUTO 06001KT 9999 CLR 13/13 A2974 RMK A02 TSNO,KQEJ,2023-06-02T19:50:00Z,,,13.0,13.0,60,1,,6.21,29.740158,,,TRUE,TRUE,,,TRUE,,,,CLR,,,,,,,,VFR,,,,,,,,,,,,METAR,
KQEI 021950Z AUTO 12001KT 9999 CLR 13/13 A2975 RMK A02 TSNO,KQEI,2023-06-02T19:50:00Z,,,13.0,13.0,120,1,,6.21,29.749016,,,TRUE,TRUE,,,TRUE,,,,CLR,,,,,,,,VFR,,,,,,,,,,,,METAR,
KOQU 021950Z 19014G20KT 10SM FEW045CB 24/13 A2986,KOQU,2023-06-02T19:50:00Z,41.6,-71.42,24.0,13.0,190,14,20,10.0,29.861221,,,,,,,,,,,FEW,4500,,,,,,,VFR,,,,,,,,,,,,METAR,6.0
KOMN 021950Z 03012G17KT 7SM BKN015 25/23 A2977,KOMN,2023-06-02T19:50:00Z,29.3,-81.12,25.0,23.0,30,12,17,7.0,29.769686,,,,,,,,,,,BKN,1500,,,,,,,MVFR,,,,,,,,,,,,METAR,7.0
KOLV 021950Z 06009KT 10SM SCT050 31/18 A2990,KOLV,2023-06-02T19:50:00Z,34.98,-89.78,31.0,18.0,60,9,,10.0,29.899607,,,,,,,,,,,SCT,5000,,,,,,,VFR,,,,,,,,,,,,METAR,124.0
KNQA 021950Z 29006G11KT 10SM FEW100 28/18 A2990,KNQA,2023-06-02T19:50:00Z,35.35,-89.87,28.0,18.0,290,6,11,10.0,29.899607,,,,,,,,,,,FEW,10000,,,,,,,VFR,,,,,,,,,,,,METAR,90.0
KMQI 021950Z AUTO 03009KT 10SM OVC005 20/18 A2988 RMK AO2 T02020179,KMQI,2023-06-02T19:50:00Z,35.92,-75.7,20.2,17.9,30,9,,10.0,29.878937,,,TRUE,TRUE,,,,,,,OVC,500,,,,,,,IFR,,,,,,,,,,,,SPECI,3.0
KLHZ 021950Z AUTO 05007KT 10SM SCT036 SCT042 OVC060 26/18 A2991 RMK AO2,KLHZ,2023-06-02T19:50:00Z,36.02,-78.33,26.0,18.0,50,7,,10.0,29.911417,,,TRUE,TRUE,,,,,,,SCT,3600,SCT,4200,OVC,6000,,,VFR,,,,,,,,,,,,SPECI,104.0
KLAL 021950Z 02010KT 10SM BKN050 30/19 A2971,KLAL,2023-06-02T19:50:00Z,27.98,-82.02,30.0,19.0,20,10,,10.0,29.71063,,,,,,,,,,,BKN,5000,,,,,,,VFR,,,,,,,,,,,,METAR,39.0
KIXA 021950Z AUTO 04004KT 10SM SCT035 SCT046 BKN060 25/21 A2988 RMK AO2,KIXA,2023-06-02T19:50:00Z,36.33,-77.63,25.0,21.0,40,4,,10.0,29.878937,,,TRUE,TRUE,,,,,,,SCT,3500,SCT,4600,BKN,6000,,,VFR,,,,,,,,,,,,SPECI,43.0
KHXD 021950Z 07009KT 10SM BKN055 25/20 A2984,KHXD,2023-06-02T19:50:00Z,32.22,-80.7,25.0,20.0,70,9,,10.0,29.840551,,,,,,,,,,,BKN,5500,,,,,,,VFR,,,,,,,,,,,,METAR,5.0
KHUM 021950Z 09012KT 7SM CLR 31/19 A2986,KHUM,2023-06-02T19:50:00Z,29.57,-90.67,31.0,19.0,90,12,,7.0,29.861221,,,,,,,,,,,CLR,,,,,,,,VFR,,,,,,,,,,,,METAR,1.0
KHQZ 021950Z 16005KT 10SM BKN060 32/18 A2989,KHQZ,2023-06-02T19:50:00Z,32.75,-96.53,32.0,18.0,160,5,,10.0,29.890747,,,,,,,,,,,BKN,6000,,,,,,,VFR,,,,,,,,,,,,METAR,136.0
KHOB 021950Z 34007KT 10SM SCT042 BKN055 25/12 A2984 RMK LTG DSNT N-SE,KHOB,2023-06-02T19:50:00Z,32.67,-103.22,25.0,12.0,340,7,,10.0,29.840551,,,,,,,,,,,SCT,4200,BKN,5500,,,,,VFR,,,,,,,,,,,,METAR,1112.0
KHNZ 021950Z AUTO 04006KT 10SM CLR 26/14 A2990 RMK AO2 T02630137,KHNZ,2023-06-02T19:50:00Z,36.37,-78.53,26.3,13.7,40,6,,10.0,29.899607,,,TRUE,TRUE,,,,,,,CLR,,,,,,,,VFR,,,,,,,,,,,,SPECI,158.0
KGYI 021950Z 10006KT 10SM SCT100 33/17 A2990,KGYI,2023-06-02T19:50:00Z,33.72,-96.67,33.0,17.0,100,6,,10.0,29.899607,,,,,,,,,,,SCT,10000,,,,,,,VFR,,,,,,,,,,,,METAR,227.0
KGWW 021950Z AUTO 03010G16KT 10SM SCT060 26/17 A2987 RMK AO2 T02640171,KGWW,2023-06-02T19:50:00Z,35.47,-77.97,26.4,17.1,30,10,16,10.0,29.870079,,,TRUE,TRUE,,,,,,,SCT,6000,,,,,,,VFR,,,,,,,,,,,,SPECI,40.0
KGPM 021950Z 16009KT 10SM SKC 32/17 A2989,KGPM,2023-06-02T19:50:00Z,32.7,-97.05,32.0,17.0,160,9,,10.0,29.890747,,,,,,,,,,,SKC,,,,,,,,VFR,,,,,,,,,,,,METAR,178.0
KFIN 021950Z 03014KT 10SM BKN019 BKN029 BKN034 27/21 A2979,KFIN,2023-06-02T19:50:00Z,29.47,-81.2,27.0,21.0,30,14,,10.0,29.790354,,,,,,,,,,,BKN,1900,BKN,2900,BKN,3400,,,MVFR,,,,,,,,,,,,METAR,10.0
KFFA 021950Z AUTO 35007KT 320V020 2 1/2SM BR OVC002 19/18 A2987 RMK AO2 T01850182,KFFA,2023-06-02T19:50:00Z,36.02,-75.67,18.5,18.2,350,7,,2.5,29.870079,,,TRUE,TRUE,,,,,,BR,OVC,200,,,,,,,LIFR,,,,,,,,,,,,SPECI,2.0
KEYF 021950Z AUTO 04005KT 10SM SCT034 OVC050 25/18 A2986 RMK AO2 T02530181,KEYF,2023-06-02T19:50:00Z,34.6,-78.58,25.3,18.1,40,5,,10.0,29.861221,,,TRUE,TRUE,,,,,,,SCT,3400,OVC,5000,,,,,VFR,,,,,,,,,,,,SPECI,39.0
KEXX 021950Z AUTO 04006KT 10SM CLR 29/09 A2990 RMK AO2 T02860094,KEXX,2023-06-02T19:50:00Z,35.78,-80.3,28.6,9.4,40,6,,10.0,29.899607,,,TRUE,TRUE,,,,,,,CLR,,,,,,,,VFR,,,,,,,,,,,,SPECI,221.0
KDAG 021950Z AUTO VRB04KT 10SM CLR 29/05 A2990 RMK AO2 SLP102 T02890050,KDAG,2023-06-02T19:50:00Z,34.85,-116.78,28.9,5.0,0,4,,10.0,29.899607,1010.2,,TRUE,TRUE,,,,,,,CLR,,,,,,,,VFR,,,,,,,,,,,,METAR,584.0
KCGS 021950Z AUTO 08007KT 10SM CLR 33/13 A2985 RMK AO2 T03310131,KCGS,2023-06-02T19:50:00Z,38.98,-76.92,33.1,13.1,80,7,,10.0,29.84941,,,TRUE,TRUE,,,,,,,CLR,,,,,,,,VFR,,,,,,,,,,,,METAR,15.0
KBOW 021950Z 07016G24KT 6SM OVC010 27/22 A2972 RMK TS AT AIRPORT LTG DSNT ALQDS,KBOW,2023-06-02T19:50:00Z,27.93,-81.77,27.0,22.0,70,16,24,6.0,29.719488,,,,,,,,,,,OVC,1000,,,,,,,MVFR,,,,,,,,,,,,METAR,38.0
KBJC 021950Z 28010G15KT 10SM SCT050 SCT120 BKN180 20/04 A2996,KBJC,2023-06-02T19:50:00Z,39.9,-105.1,20.0,4.0,280,10,15,10.0,29.958662,,,,,,,,,,,SCT,5000,SCT,12000,BKN,18000,,,VFR,,,,,,,,,,,,METAR,1694.0
KANE 021950Z 16008KT 10SM FEW050 OVC150 29/16 A3004,KANE,2023-06-02T19:50:00Z,45.15,-93.22,29.0,16.0,160,8,,10.0,30.041338,,,,,,,,,,,FEW,5000,OVC,15000,,,,,VFR,,,,,,,,,,,,METAR,276.0
KALN 021950Z 09005KT 10SM SCT085 32/14 A2997,KALN,2023-06-02T19:50:00Z,38.88,-90.03,32.0,14.0,90,5,,10.0,29.970472,,,,,,,,,,,SCT,8500,,,,,,,VFR,,,,,,,,,,,,METAR,159.0
KAFP 021950Z AUTO 02007G14KT 360V060 10SM CLR 29/13 A2986 RMK AO2 T02900125,KAFP,2023-06-02T19:50:00Z,35.02,-80.08,29.0,12.5,20,7,14,10.0,29.861221,,,TRUE,TRUE,,,,,,,CLR,,,,,,,,VFR,,,,,,,,,,,,SPECI,91.0
KADM 021950Z 14013KT 10SM CLR 32/17 A2987,KADM,2023-06-02T19:50:00Z,34.3,-97.02,32.0,17.0,140,13,,10.0,29.870079,,,,,,,,,,,CLR,,,,,,,,VFR,,,,,,,,,,,,METAR,223.0
K1A5 021950Z AUTO 34003KT 10SM SCT090 28/12 A2996 RMK AO2 T02810121,K1A5,2023-06-02T19:50:00Z,35.22,-83.42,28.1,12.1,340,3,,10.0,29.958662,,,TRUE,TRUE,,,,,,,SCT,9000,,,,,,,VFR,,,,,,,,,,,,SPECI,611.0
EYVI 021950Z 33008KT CAVOK 08/01 Q1018 NOSIG,EYVI,2023-06-02T19:50:00Z,54.63,25.28,8.0,1.0,330,8,,6.21,30.059055,,,,,,TRUE,,,,,CAVOK,,,,,,,,VFR,,,,,,,,,,,,METAR,180.0
EYSA 021950Z 34007KT CAVOK 06/01 Q1020 NOSIG,EYSA,2023-06-02T19:50:00Z,55.9,23.4,6.0,1.0,340,7,,6.21,30.11811,,,,,,TRUE,,,,,CAVOK,,,,,,,,VFR,,,,,,,,,,,,METAR,135.0
EYPA 021950Z 35006KT 320V020 CAVOK 08/01 Q1022,EYPA,2023-06-02T19:50:00Z,55.97,21.08,8.0,1.0,350,6,,6.21,30.177166,,,,,,,,,,,CAVOK,,,,,,,,VFR,,,,,,,,,,,,METAR,15.0
EYKA 021950Z 32003KT 270V010 CAVOK 07/02 Q1019,EYKA,2023-06-02T19:50:00Z,54.97,24.08,7.0,2.0,320,3,,6.21,30.088583,,,,,,,,,,,CAVOK,,,,,,,,VFR,,,,,,,,,,,,METAR,68.0
EVVA 021950Z AUTO 36010KT 330V030 CAVOK 08/01 Q1021,EVVA,2023-06-02T19:50:00Z,57.35,21.55,8.0,1.0,360,10,,6.21,30.147638,,,TRUE,,,,,,,,CAVOK,,,,,,,,VFR,,,,,,,,,,,,METAR,1.0
EVRA 021950Z 33008KT 290V350 9999 FEW034CB BKN046 09/01 Q1018 NOSIG,EVRA,2023-06-02T19:50:00Z,56.92,23.97,9.0,1.0,330,8,,6.21,30.059055,,,,,,TRUE,,,,,FEW,3400,BKN,4600,,,,,VFR,,,,,,,,,,,,METAR,7.0
EVLA 021950Z AUTO 33003KT CAVOK 07/01 Q1022,EVLA,2023-06-02T19:50:00Z,56.52,21.1,7.0,1.0,330,3,,6.21,30.177166,,,TRUE,,,,,,,,CAVOK,,,,,,,,VFR,,,,,,,,,,,,METAR,5.0
EVGA 021950Z AUTO 29004KT 9999 FEW026/// 07/03 Q1018,EVGA,2023-06-02T19:50:00Z,56.78,24.85,7.0,3.0,290,4,,6.21,30.059055,,,TRUE,,,,,,,,FEW,2600,,,,,,,VFR,,,,,,,,,,,,METAR,61.0
ESUT 021950Z AUTO 30005KT 9999 BKN031/// OVC039/// 03/M01 Q1018,ESUT,2023-06-02T19:50:00Z,65.8,15.08,3.0,-1.0,300,5,,6.21,30.059055,,,TRUE,,,,,,,,BKN,3100,OVC,3900,,,,,VFR,,,,,,,,,,,,METAR,457.0
ESUP 021950Z AUTO 17003KT 9999 // OVC056/// ///// Q1016,ESUP,2023-06-02T19:50:00Z,67.25,23.07,,,170,3,,6.21,30.0,,,TRUE,,,,,,,,OVC,5600,,,,,,,VFR,,,,,,,,,,,,METAR,164.0
ESTL 021950Z AUTO 30006KT 9999 NCD 10/05 Q1023,ESTL,2023-06-02T19:50:00Z,56.07,13.2,10.0,5.0,300,6,,6.21,30.206694,,,TRUE,,,,,,,,CLR,,,,,,,,VFR,,,,,,,,,,,,METAR,39.0
ESTA 021950Z AUTO 34006KT 9999 NCD 11/05 Q1024,ESTA,2023-06-02T19:50:00Z,56.28,12.83,11.0,5.0,340,6,,6.21,30.236221,,,TRUE,,,,,,,,CLR,,,,,,,,VFR,,,,,,,,,,,,METAR,19.0
ESSV 021950Z AUTO 22002KT 9999 NCD 07/01 Q1023,ESSV,2023-06-02T19:50:00Z,57.67,18.35,7.0,1.0,220,2,,6.21,30.206694,,,TRUE,,,,,,,,CLR,,,,,,,,VFR,,,,,,,,,,,,METAR,38.0
ESST 021950Z AUTO 15003KT 9999 BKN120/// 12/02 Q1021,ESST,2023-06-02T19:50:00Z,60.15,12.98,12.0,2.0,150,3,,6.21,30.147638,,,TRUE,,,,,,,,BKN,12000,,,,,,,VFR,,,,,,,,,,,,METAR,110.0
ESSP 021950Z AUTO 30002KT 9999 BKN078/// 12/00 Q1022,ESSP,2023-06-02T19:50:00Z,58.58,16.25,12.0,0.0,300,2,,6.21,30.177166,,,TRUE,,,,,,,,BKN,7800,,,,,,,VFR,,,,,,,,,,,,METAR,3.0
ESSL 021950Z AUTO 27007KT 9999 NCD 11/00 Q1022,ESSL,2023-06-02T19:50:00Z,58.4,15.67,11.0,0.0,270,7,,6.21,30.177166,,,TRUE,,,,,,,,CLR,,,,,,,,VFR,,,,,,,,,,,,METAR,51.0
ESSD 021950Z AUTO 13002KT 9999 NCD 10/02 Q1021,ESSD,2023-06-02T19:50:00Z,60.42,15.5,10.0,2.0,130,2,,6.21,30.147638,,,TRUE,,,,,,,,CLR,,,,,,,,VFR,,,,,,,,,,,,METAR,151.0
ESSB 021950Z 15009KT CAVOK 09/01 Q1022,ESSB,2023-06-02T19:50:00Z,59.35,17.93,9.0,1.0,150,9,,6.21,30.177166,,,,,,,,,,,CAVOK,,,,,,,,VFR,,,,,,,,,,,,METAR,14.0
ESSA 021950Z 17010KT CAVOK 10/01 Q1021 NOSIG,ESSA,2023-06-02T19:50:00Z,59.65,17.93,10.0,1.0,170,10,,6.21,30.147638,,,,,,TRUE,,,,,CAVOK,,,,,,,,VFR,,,,,,,,,,,,METAR,36.0
ESPE 021950Z AUTO 11003KT 9999 OVC068/// 08/00 Q1016,ESPE,2023-06-02T19:50:00Z,65.88,20.15,8.0,0.0,110,3,,6.21,30.0,,,TRUE,,,,,,,,OVC,6800,,,,,,,VFR,,,,,,,,,,,,METAR,182.0
ESPA 021950Z 15002KT CAVOK 08/01 Q1017,ESPA,2023-06-02T19:50:00Z,65.53,22.12,8.0,1.0,150,2,,6.21,30.029528,,,,,,,,,,,CAVOK,,,,,,,,VFR,,,,,,,,,,,,METAR,12.0
ESOW 021950Z AUTO 34004KT 9999 OVC080/// 12/M01 Q1022,ESOW,2023-06-02T19:50:00Z,59.58,16.63,12.0,-1.0,340,4,,6.21,30.177166,,,TRUE,,,,,,,,OVC,8000,,,,,,,VFR,,,,,,,,,,,,METAR,7.0
ESOK 021950Z AUTO 21008KT 9999 NCD 09/02 Q1022,ESOK,2023-06-02T19:50:00Z,59.45,13.33,9.0,2.0,210,8,,6.21,30.177166,,,TRUE,,,,,,,,CLR,,,,,,,,VFR,,,,,,,,,,,,METAR,101.0
ESOH 021950Z AUTO 19002KT 9999 SCT120/// 09/04 Q1021,ESOH,2023-06-02T19:50:00Z,60.02,13.58,9.0,4.0,190,2,,6.21,30.147638,,,TRUE,,,,,,,,SCT,12000,,,,,,,VFR,,,,,,,,,,,,METAR,145.0
ESOE 021950Z VRB03KT CAVOK 09/01 Q1022,ESOE,2023-06-02T19:50:00Z,59.22,15.05,9.0,1.0,0,3,,6.21,30.177166,,,,,,,,,,,CAVOK,,,,,,,,VFR,,,,,,,,,,,,METAR,57.0
ESNZ 021950Z AUTO 31009KT 9999 SCT096/// 05/M07 Q1021,ESNZ,2023-06-02T19:50:00Z,63.18,14.5,5.0,-7.0,310,9,,6.21,30.147638,,,TRUE,,,,,,,,SCT,9600,,,,,,,VFR,,,,,,,,,,,,METAR,360.0
ESNX 021950Z AUTO 30005KT 9999 NCD 07/M01 Q1016,ESNX,2023-06-02T19:50:00Z,65.58,19.28,7.0,-1.0,300,5,,6.21,30.0,,,TRUE,,,,,,,,CLR,,,,,,,,VFR,,,,,,,,,,,,METAR,380.0
ESNV 021950Z AUTO 29008KT 9999 NCD 07/M00 Q1018,ESNV,2023-06-02T19:50:00Z,64.58,16.83,7.0,0.0,290,8,,6.21,30.059055,,,TRUE,,,,,,,,CLR,,,,,,,,VFR,,,,,,,,,,,,METAR,348.0
ESNU 021950Z 16006KT CAVOK 07/01 Q1018,ESNU,2023-06-02T19:50:00Z,63.78,20.28,7.0,1.0,160,6,,6.21,30.059055,,,,,,,,,,,CAVOK,,,,,,,,VFR,,,,,,,,,,,,METAR,8.0
ESNS 021950Z AUTO 18004KT 9999 SCT070/// OVC084/// 08/00 Q1018,ESNS,2023-06-02T19:50:00Z,64.62,21.07,8.0,0.0,180,4,,6.21,30.059055,,,TRUE,,,,,,,,SCT,7000,OVC,8400,,,,,VFR,,,,,,,,,,,,METAR,41.0
ESNQ 021950Z AUTO 09002KT 9999 FEW140/// 05/M02 Q1014,ESNQ,2023-06-02T19:50:00Z,67.82,20.33,5.0,-2.0,90,2,,6.21,29.940945,,,TRUE,,,,,,,,FEW,14000,,,,,,,VFR,,,,,,,,,,,,METAR,447.0
ESNO 021950Z AUTO 22003KT 9999 NCD 07/01 Q1017,ESNO,2023-06-02T19:50:00Z,63.4,18.97,7.0,1.0,220,3,,6.21,30.029528,,,TRUE,,,,,,,,CLR,,,,,,,,VFR,,,,,,,,,,,,METAR,100.0
ESNN 021950Z AUTO 31008KT 9999 SCT072/// 11/01 Q1020,ESNN,2023-06-02T19:50:00Z,62.52,17.43,11.0,1.0,310,8,,6.21,30.11811,,,TRUE,,,,,,,,SCT,7200,,,,,,,VFR,,,,,,,,,,,,METAR,4.0
ESNL 021950Z AUTO 29006KT 9999 NCD 09/M02 Q1017,ESNL,2023-06-02T19:50:00Z,64.55,18.72,9.0,-2.0,290,6,,6.21,30.029528,,,TRUE,,,,,,,,CLR,,,,,,,,VFR,,,,,,,,,,,,METAR,220.0
ESNK 021950Z AUTO 30009KT 9999 NCD 11/M01 Q1019,ESNK,2023-06-02T19:50:00Z,63.03,17.77,11.0,-1.0,300,9,,6.21,30.088583,,,TRUE,,,,,,,,CLR,,,,,,,,VFR,,,,,,,,,,,,METAR,4.0
ESNG 021950Z AUTO 15004KT 9999 BKN057/// 07/M02 Q1015,ESNG,2023-06-02T19:50:00Z,67.13,20.82,7.0,-2.0,150,4,,6.21,29.970472,,,TRUE,,,,,,,,BKN,5700,,,,,,,VFR,,,,,,,,,,,,METAR,300.0
ESND 021950Z AUTO 30007KT 280V340 9999 NCD 08/M02 Q1021,ESND,2023-06-02T19:50:00Z,62.05,14.42,8.0,-2.0,300,7,,6.21,30.147638,,,TRUE,,,,,,,,CLR,,,,,,,,VFR,,,,,,,,,,,,METAR,352.0
ESMX 021950Z AUTO 00000KT 9999 NCD 08/01 Q1023,ESMX,2023-06-02T19:50:00Z,56.92,14.72,8.0,1.0,0,0,,6.21,30.206694,,,TRUE,,,,,,,,CLR,,,,,,,,VFR,,,,,,,,,,,,METAR,176.0
ESMT 021950Z AUTO VRB02KT 9999 NCD 11/03 Q1024,ESMT,2023-06-02T19:50:00Z,56.68,12.82,11.0,3.0,0,2,,6.21,30.236221,,,TRUE,,,,,,,,CLR,,,,,,,,VFR,,,,,,,,,,,,METAR,24.0
ESMS 021950Z 18006KT CAVOK 09/06 Q1024,ESMS,2023-06-02T19:50:00Z,55.53,13.37,9.0,6.0,180,6,,6.21,30.236221,,,,,,,,,,,CAVOK,,,,,,,,VFR,,,,,,,,,,,,METAR,68.0
ESMQ 021950Z AUTO 22005KT 9999 NCD 09/02 Q1024,ESMQ,2023-06-02T19:50:00Z,56.68,16.3,9.0,2.0,220,5,,6.21,30.236221,,,TRUE,,,,,,,,CLR,,,,,,,,VFR,,,,,,,,,,,,METAR,3.0
ESMK 021950Z AUTO 13004KT 9999 NCD 09/06 Q1023,ESMK,2023-06-02T19:50:00Z,55.92,14.08,9.0,6.0,130,4,,6.21,30.206694,,,TRUE,,,,,,,,CLR,,,,,,,,VFR,,,,,,,,,,,,METAR,20.0
ESKS 021950Z AUTO 36006KT 9999 BKN091/// 09/M02 Q1021,ESKS,2023-06-02T19:50:00Z,61.17,12.83,9.0,-2.0,360,6,,6.21,30.147638,,,TRUE,,,,,,,,BKN,9100,,,,,,,VFR,,,,,,,,,,,,METAR,503.0
ESKN 021950Z 31004KT CAVOK 12/M01 Q1021,ESKN,2023-06-02T19:50:00Z,58.78,16.92,12.0,-1.0,310,4,,6.21,30.147638,,,,,,,,,,,CAVOK,,,,,,,,VFR,,,,,,,,,,,,METAR,41.0
ESKM 021950Z AUTO 30005KT 9999 NCD 10/M01 Q1021,ESKM,2023-06-02T19:50:00Z,60.97,14.52,10.0,-1.0,300,5,,6.21,30.147638,,,TRUE,,,,,,,,CLR,,,,,,,,VFR,,,,,,,,,,,,METAR,184.0
ESIB 021950Z AUTO 17005KT 9999 NCD 11/03 Q1023,ESIB,2023-06-02T19:50:00Z,58.42,12.7,11.0,3.0,170,5,,6.21,30.206694,,,TRUE,,,,,,,,CLR,,,,,,,,VFR,,,,,,,,,,,,METAR,51.0
ESIA 021950Z AUTO 22002KT 9999 NCD 09/03 Q1023,ESIA,2023-06-02T19:50:00Z,58.52,14.5,9.0,3.0,220,2,,6.21,30.206694,,,TRUE,,,,,,,,CLR,,,,,,,,VFR,,,,,,,,,,,,METAR,94.0
ESGT 021950Z AUTO 27006KT 9999 R15///// R33///// NCD 12/01 Q1023,ESGT,2023-06-02T19:50:00Z,58.32,12.33,12.0,1.0,270,6,,6.21,30.206694,,,TRUE,,,,,,,,CLR,,,,,,,,VFR,,,,,,,,,,,,METAR,40.0
ESGP 021950Z 00000KT CAVOK 10/01 Q1024,ESGP,2023-06-02T19:50:00Z,57.77,11.87,10.0,1.0,0,0,,6.21,30.236221,,,,,,,,,,,CAVOK,,,,,,,,VFR,,,,,,,,,,,,METAR,15.0
ESGJ 021950Z AUTO 23001KT 9999 NCD 07/02 Q1023,ESGJ,2023-06-02T19:50:00Z,57.77,14.07,7.0,2.0,230,1,,6.21,30.206694,,,TRUE,,,,,,,,CLR,,,,,,,,VFR,,,,,,,,,,,,METAR,224.0
ESGG 021950Z 28003KT CAVOK 10/01 Q1023,ESGG,2023-06-02T19:50:00Z,57.67,12.3,10.0,1.0,280,3,,6.21,30.206694,,,,,,,,,,,CAVOK,,,,,,,,VFR,,,,,,,,,,,,METAR,152.0
ESDF 021950Z AUTO 18003KT 9999 NCD 08/05 Q1024,ESDF,2023-06-02T19:50:00Z,56.27,15.27,8.0,5.0,180,3,,6.21,30.236221,,,TRUE,,,,,,,,CLR,,,,,,,,VFR,,,,,,,,,,,,METAR,52.0
ESCM 021950Z AUTO 18003KT 9999 OVC080/// 10/02 Q1021,ESCM,2023-06-02T19:50:00Z,59.88,17.6,10.0,2.0,180,3,,6.21,30.147638,,,TRUE,,,,,,,,OVC,8000,,,,,,,VFR,,,,,,,,,,,,METAR,21.0
ESCF 021950Z AUTO 27005KT 9999 NCD 10/01 Q1023,ESCF,2023-06-02T19:50:00Z,58.38,15.52,10.0,1.0,270,5,,6.21,30.206694,,,TRUE,,,,,,,,CLR,,,,,,,,VFR,,,,,,,,,,,,METAR,86.0
ENZV 021950Z 31005KT CAVOK 10/07 Q1025,ENZV,2023-06-02T19:50:00Z,58.88,5.63,10.0,7.0,310,5,,6.21,30.265747,,,,,,,,,,,CAVOK,,,,,,,,VFR,,,,,,,,,,,,METAR,7.0
ENWV 021950Z AUTO 35011KT 9999NDV SCT012/// 09/07 Q1026 W///S4,ENWV,2023-06-02T19:50:00Z,56.28,3.4,9.0,7.0,350,11,,,30.295275,,,TRUE,,,,,,,,SCT,1200,,,,,,,,,,,,,,,,,,,METAR,30.0
ENVD 021950Z 21005KT 9999 SCT040 BKN055 06/M00 Q1015,ENVD,2023-06-02T19:50:00Z,70.07,29.85,6.0,0.0,210,5,,6.21,29.970472,,,,,,,,,,,SCT,4000,BKN,5500,,,,,VFR,,,,,,,,,,,,METAR,39.0
ENVA 021950Z 22005KT 180V250 9999 -RA BKN017 08/06 Q1024 RMK WIND 670FT 22007KT,ENVA,2023-06-02T19:50:00Z,63.47,10.92,8.0,6.0,220,5,,6.21,30.236221,,,,,,,,,,-RA,BKN,1700,,,,,,,MVFR,,,,,,,,,,,,METAR,12.0
ENUN 021950Z AUTO 27026KT 4600NDV BR OVC004/// 07/07 Q1014 W08/S5,ENUN,2023-06-02T19:50:00Z,,,7.0,7.0,270,26,,,29.940945,,,TRUE,,,,,,,BR,OVC,400,,,,,,,,,,,,,,,,,,,METAR,
ENUG 021950Z AUTO 24010KT 9999NDV FEW016/// SCT029/// BKN039/// 07/02 Q1013 W///S3,ENUG,2023-06-02T19:50:00Z,71.3,22.25,7.0,2.0,240,10,,,29.911417,,,TRUE,,,,,,,,FEW,1600,SCT,2900,BKN,3900,,,,,,,,,,,,,,,METAR,30.0
ENTO 021950Z 21008KT CAVOK 11/03 Q1023 NOSIG,ENTO,2023-06-02T19:50:00Z,59.2,10.27,11.0,3.0,210,8,,6.21,30.206694,,,,,,TRUE,,,,,CAVOK,,,,,,,,VFR,,,,,,,,,,,,METAR,84.0
ENTC 021950Z 23006KT 9999 FEW033 SCT048 BKN100 07/03 Q1014 NOSIG RMK WIND 2600FT 19026KT,ENTC,2023-06-02T19:50:00Z,69.68,18.92,7.0,3.0,230,6,,6.21,29.940945,,,,,,TRUE,,,,,FEW,3300,SCT,4800,BKN,10000,,,VFR,,,,,,,,,,,,METAR,9.0
ENST 021950Z 19018KT 9999 RA FEW005 BKN006 07/06 Q1019 RMK WIND 300FT 19019KT,ENST,2023-06-02T19:50:00Z,65.97,12.47,7.0,6.0,190,18,,6.21,30.088583,,,,,,,,,,RA,FEW,500,BKN,600,,,,,IFR,,,,,,,,,,,,METAR,17.0
ENSS 021950Z 21008KT 9999 BKN045 05/00 Q1015 RMK WIND 0500FT 22012KT,ENSS,2023-06-02T19:50:00Z,70.35,31.05,5.0,0.0,210,8,,6.21,29.970472,,,,,,,,,,,BKN,4500,,,,,,,VFR,,,,,,,,,,,,METAR,13.0
ENSR 021950Z AUTO 23002KT 9999 OVC120/// 06/02 Q1014 RMK WIND RWY32 25002KT WIND 1118FT 10006KT,ENSR,2023-06-02T19:50:00Z,69.78,20.97,6.0,2.0,230,2,,6.21,29.940945,,,TRUE,,,,,,,,OVC,12000,,,,,,,VFR,,0.6,,,,,,,,,,METAR,5.0
ENSL 021950Z AUTO 35011KT 9999NDV BKN013/// 10/06 Q1027 W07/S4,ENSL,2023-06-02T19:50:00Z,58.37,1.9,10.0,6.0,350,11,,,30.324802,,,TRUE,,,,,,,,BKN,1300,,,,,,,,,,,,,,,,,,,METAR,50.0
ENSK 021950Z 16005KT 130V220 9999 -RADZ FEW012 SCT020 BKN028 06/03 Q1014,ENSK,2023-06-02T19:50:00Z,68.57,15.02,6.0,3.0,160,5,,6.21,29.940945,,,,,,,,,,-RA -DZ,FEW,1200,SCT,2000,BKN,2800,,,MVFR,,,,,,,,,,,,METAR,3.0
ENSH 021950Z 19023KT 5000 RADZ SCT005 BKN008 06/05 Q1015 RMK WIND 0150FT 18026KT,ENSH,2023-06-02T19:50:00Z,68.25,14.67,6.0,5.0,190,23,,3.11,29.970472,,,,,,,,,,RA DZ,SCT,500,BKN,800,,,,,IFR,,,,,,,,,,,,METAR,9.0
ENSG 021950Z VRB01KT CAVOK 11/02 Q1023 RMK WIND 3806FT 32004KT,ENSG,2023-06-02T19:50:00Z,61.15,7.13,11.0,2.0,0,1,,6.21,30.206694,,,,,,,,,,,CAVOK,,,,,,,,VFR,,,,,,,,,,,,METAR,493.0
ENSF 021950Z AUTO 25010KT 9999NDV FEW017/// SCT086/// ///// Q//// W///S3,ENSF,2023-06-02T19:50:00Z,61.25,1.85,,,250,10,,,,,,TRUE,,,,,,,,FEW,1700,SCT,8600,,,,,,,,,,,,,,,,,METAR,15.0
ENSE 021950Z AUTO 26011KT 230V320 //// NCD 11/06 Q1027 W///S3,ENSE,2023-06-02T19:50:00Z,61.45,2.15,11.0,6.0,260,11,,,30.324802,,,TRUE,,,,,,,,CLR,,,,,,,,,,,,,,,,,,,,METAR,10.0
ENSD 021950Z 31004KT 270V340 9999 FEW043 BKN092 11/06 Q1025 RMK WIND RWY26 VRB02KT WIND 1140FT VRB03KT,ENSD,2023-06-02T19:50:00Z,61.82,6.12,11.0,6.0,310,4,,6.21,30.265747,,,,,,,,,,,FEW,4300,BKN,9200,,,,,VFR,,,,,,,,,,,,METAR,61.0
ENSB 021950Z 31005KT CAVOK 02/M07 Q1011 RMK WIND 1400FT 01003KT,ENSB,2023-06-02T19:50:00Z,78.25,15.47,2.0,-7.0,310,5,,6.21,29.852362,,,,,,,,,,,CAVOK,,,,,,,,VFR,,,,,,,,,,,,METAR,30.0
ENRY 021950Z AUTO 21006KT 9999 NCD 11/01 Q1023,ENRY,2023-06-02T19:50:00Z,59.37,10.77,11.0,1.0,210,6,,6.21,30.206694,,,TRUE,,,,,,,,CLR,,,,,,,,VFR,,,,,,,,,,,,METAR,45.0
ENRS 021950Z 22019KT 9999 OVC006 08/07 Q1013,ENRS,2023-06-02T19:50:00Z,67.52,12.1,8.0,7.0,220,19,,6.21,29.911417,,,,,,,,,,,OVC,600,,,,,,,IFR,,,,,,,,,,,,METAR,4.0
ENRO 021950Z AUTO VRB02KT 9999 OVC014/// 05/02 Q1022,ENRO,2023-06-02T19:50:00Z,62.57,11.33,5.0,2.0,0,2,,6.21,30.177166,,,TRUE,,,,,,,,OVC,1400,,,,,,,MVFR,,,,,,,,,,,,METAR,624.0
ENRM 021950Z AUTO 23013KT 3900 DZRABR 08/08 Q1021,ENRM,2023-06-02T19:50:00Z,64.83,11.13,8.0,8.0,230,13,,2.42,30.147638,,,TRUE,,,,,,,RA DZ BR,,,,,,,,,,,,,,,,,,,,,METAR,4.0
ENRA 021950Z 32003KT 290V350 9999 -RA BKN030 05/03 Q1019,ENRA,2023-06-02T19:50:00Z,66.37,14.3,5.0,3.0,320,3,,6.21,30.088583,,,,,,,,,,-RA,BKN,3000,,,,,,,MVFR,,,,,,,,,,,,METAR,66.0
ENQR 021950Z AUTO 25009KT 9999NDV NCD 10/05 Q1026 W10/S3,ENQR,2023-06-02T19:50:00Z,61.52,2.22,10.0,5.0,250,9,,,30.295275,,,TRUE,,,,,,,,CLR,,,,,,,,,,,,,,,,,,,,METAR,10.0
ENQC 021950Z AUTO 32013KT 9999NDV NCD 12/07 Q1026 W///S3,ENQC,2023-06-02T19:50:00Z,60.88,3.62,12.0,7.0,320,13,,,30.295275,,,TRUE,,,,,,,,CLR,,,,,,,,,,,,,,,,,,,,METAR,20.0
ENQA 021950Z AUTO 35017KT 9999NDV BKN070/// 09/07 Q1026 W12/S3,ENQA,2023-06-02T19:50:00Z,60.65,3.72,9.0,7.0,350,17,,,30.295275,,,TRUE,,,,,,,,BKN,7000,,,,,,,,,,,,,,,,,,,METAR,90.0
ENOV 021950Z VRB01KT 9999 FEW018 OVC030 09/06 Q1026 RMK WIND RWY24 VRB02KT WIND 2090FT 10004KT,ENOV,2023-06-02T19:50:00Z,62.17,6.07,9.0,6.0,0,1,,6.21,30.295275,,,,,,,,,,,FEW,1800,OVC,3000,,,,,MVFR,,0.4,,,,,,,,,,METAR,72.0
ENOL 021950Z 26014KT 9999 -RADZ SCT004 BKN008 08/07 Q1023 TEMPO 2000 DZ BR OVC004,ENOL,2023-06-02T19:50:00Z,63.7,9.6,8.0,7.0,260,14,,6.21,30.206694,,,,,,,,,,-RA -DZ,SCT,400,BKN,800,,,,,IFR,,,,,,,,,,,,METAR,9.0
ENNM 021950Z AUTO 20007KT 170V280 9999 -RA BKN014/// OVC019/// 08/06 Q1022,ENNM,2023-06-02T19:50:00Z,64.47,11.57,8.0,6.0,200,7,,6.21,30.177166,,,TRUE,,,,,,,-RA,BKN,1400,OVC,1900,,,,,MVFR,,,,,,,,,,,,METAR,2.0
ENNE 021950Z AUTO 27020KT 9000NDV -SHRA OVC008/// 08/07 Q1017 W///S4,ENNE,2023-06-02T19:50:00Z,66.03,8.08,8.0,7.0,270,20,,,30.029528,,,TRUE,,,,,,,-SHRA,OVC,800,,,,,,,,,,,,,,,,,,,METAR,10.0
ENNA 021950Z AUTO 14004KT 9999 SCT034/// OVC055/// 07/01 Q1015 RMK WIND 1800FT 21003KT,ENNA,2023-06-02T19:50:00Z,70.07,24.97,7.0,1.0,140,4,,6.21,29.970472,,,TRUE,,,,,,,,SCT,3400,OVC,5500,,,,,VFR,,,-0.3,,,,,,,,,METAR,12.0
ENMS 021950Z 20003KT 160V250 9999 -SHRA FEW020 BKN025 06/04 Q1019 RMK WIND 412FT 00000KT,ENMS,2023-06-02T19:50:00Z,65.78,13.22,6.0,4.0,200,3,,6.21,30.088583,,,,,,,,,,-SHRA,FEW,2000,BKN,2500,,,,,MVFR,,,,,,,,,,,,METAR,44.0
ENML 021950Z 28005KT 250V310 9999 VCSH FEW008 SCT014 BKN020 08/07 Q1026,ENML,2023-06-02T19:50:00Z,62.75,7.27,8.0,7.0,280,5,,6.21,30.295275,,,,,,,,,,VCSH,FEW,800,SCT,1400,BKN,2000,,,MVFR,,,,,,,,,,,,METAR,3.0
ENMH 021950Z 27003KT 9999 -RA FEW021 BKN029 04/02 Q1015,ENMH,2023-06-02T19:50:00Z,71.02,27.82,4.0,2.0,270,3,,6.21,29.970472,,,,,,,,,,-RA,FEW,2100,BKN,2900,,,,,MVFR,,,,,,,,,,,,METAR,10.0
ENLK 021950Z 19017G28KT 6000 3000NE RA FEW003 SCT005 BKN007 07/07 Q1013,ENLK,2023-06-02T19:50:00Z,68.15,13.62,7.0,7.0,190,17,28,3.73,29.911417,,,,,,,,,,RA,FEW,300,SCT,500,BKN,700,,,IFR,,,,,,,,,,,,METAR,26.0
ENLE 021950Z 34013KT 9999 FEW015 09/06 Q1026 W11/S4,ENLE,2023-06-02T19:50:00Z,56.53,3.22,9.0,6.0,340,13,,6.21,30.295275,,,,,,,,,,,FEW,1500,,,,,,,VFR,,,,,,,,,,,,METAR,10.0
ENLA 021950Z AUTO 32012KT 9999NDV NCD 09/07 Q1025 W///S4,ENLA,2023-06-02T19:50:00Z,57.1,2.83,9.0,7.0,320,12,,,30.265747,,,TRUE,,,,,,,,CLR,,,,,,,,,,,,,,,,,,,,METAR,10.0
ENKR 021950Z 20008KT CAVOK 05/M01 Q1015 RMK WIND 731FT 20009KT,ENKR,2023-06-02T19:50:00Z,69.72,29.88,5.0,-1.0,200,8,,6.21,29.970472,,,,,,,,,,,CAVOK,,,,,,,,VFR,,,0.9,,,,,,,,,METAR,86.0
ENKB 021950Z AUTO 25012KT 9999 OVC006/// 08/06 Q1025 RMK WIND 745FT 26017KT,ENKB,2023-06-02T19:50:00Z,63.12,7.82,8.0,6.0,250,12,,6.21,30.265747,,,TRUE,,,,,,,,OVC,600,,,,,,,IFR,,,,,,,,,,,,METAR,62.0
ENJS 021950Z 01012KT 9999 FEW013 10/06 Q1027 W09/S/,ENJS,2023-06-02T19:50:00Z,,,10.0,6.0,10,12,,6.21,30.324802,,,,,,,,,,,FEW,1300,,,,,,,VFR,,,,,,,,,,,,METAR,
ENHV 021950Z AUTO 27006KT 230V320 9999 OVC039/// 05/02 Q1015,ENHV,2023-06-02T19:50:00Z,71.02,25.97,5.0,2.0,270,6,,6.21,29.970472,,,TRUE,,,,,,,,OVC,3900,,,,,,,VFR,,,,,,,,,,,,METAR,13.0
ENHM 021950Z AUTO 35012KT //// NCD 09/09 Q1027 W10/S/,ENHM,2023-06-02T19:50:00Z,59.57,2.23,9.0,9.0,350,12,,,30.324802,,,TRUE,,,,,,,,CLR,,,,,,,,,,,,,,,,,,,,METAR,10.0
ENHF 021950Z 24009KT 9999 FEW026 BKN046 05/02 Q1014 RMK WIND 1254FT 25011KT,ENHF,2023-06-02T19:50:00Z,70.67,23.67,5.0,2.0,240,9,,6.21,29.940945,,,,,,,,,,,FEW,2600,BKN,4600,,,,,VFR,,,,,,,,,,,,METAR,79.0
ENHD 021950Z 34014KT 9999 FEW007 10/07 Q1025,ENHD,2023-06-02T19:50:00Z,59.35,5.22,10.0,7.0,340,14,,6.21,30.265747,,,,,,,,,,,FEW,700,,,,,,,VFR,,,,,,,,,,,,METAR,22.0
ENGM 021950Z 23010KT CAVOK 14/01 Q1021 NOSIG,ENGM,2023-06-02T19:50:00Z,60.2,11.07,14.0,1.0,230,10,,6.21,30.147638,,,,,,TRUE,,,,,CAVOK,,,,,,,,VFR,,,,,,,,,,,,METAR,204.0
ENGC 021950Z 27006KT 9999 FEW013 09/06 Q1027 W08/S3,ENGC,2023-06-02T19:50:00Z,61.02,2.02,9.0,6.0,270,6,,6.21,30.324802,,,,,,,,,,,FEW,1300,,,,,,,VFR,,,,,,,,,,,,METAR,10.0
ENFL 021950Z AUTO 32013KT 9999NDV OVC120/// 10/06 Q1025,ENFL,2023-06-02T19:50:00Z,61.57,5.02,10.0,6.0,320,13,,,30.265747,,,TRUE,,,,,,,,OVC,12000,,,,,,,,,,,,,,,,,,,METAR,1.0
ENFB 021950Z AUTO 25009KT 9999NDV FEW016/// ///// Q//// W///S3,ENFB,2023-06-02T19:50:00Z,61.2,1.83,,,250,9,,,,,,TRUE,,,,,,,,FEW,1600,,,,,,,,,,,,,,,,,,,METAR,10.0
ENEV 021950Z 20007KT 9999 -RA FEW011 SCT020 BKN030 06/02 Q1016 RMK WIND 1400FT 19014KT,ENEV,2023-06-02T19:50:00Z,68.48,16.67,6.0,2.0,200,7,,6.21,30.0,,,,,,,,,,-RA,FEW,1100,SCT,2000,BKN,3000,,,MVFR,,,,,,,,,,,,METAR,26.0
ENDU 021950Z 19006KT 140V240 9999 FEW035 BKN080 07/00 Q1014 RMK WIND 1100FT 20016KT WIND 2200FT 21020KT,ENDU,2023-06-02T19:50:00Z,69.05,18.55,7.0,0.0,190,6,,6.21,29.940945,,,,,,,,,,,FEW,3500,BKN,8000,,,,,VFR,,,1.6,,,,,,,,,METAR,65.0
ENDR 021950Z AUTO 26025KT 9999NDV -RA FEW010/// 07/06 Q1022 W///S4,ENDR,2023-06-02T19:50:00Z,64.35,7.77,7.0,6.0,260,25,,,30.177166,,,TRUE,,,,,,,-RA,FEW,1000,,,,,,,,,,,,,,,,,,,METAR,10.0
ENCN 021950Z 18006KT CAVOK 12/06 Q1023,ENCN,2023-06-02T19:50:00Z,58.2,8.07,12.0,6.0,180,6,,6.21,30.206694,,,,,,,,,,,CAVOK,,,,,,,,VFR,,,,,,,,,,,,METAR,17.0
ENBV 021950Z 00000KT 9999 BKN017 05/02 Q1014,ENBV,2023-06-02T19:50:00Z,70.87,29.02,5.0,2.0,0,0,,6.21,29.940945,,,,,,,,,,,BKN,1700,,,,,,,MVFR,,,,,,,,,,,,METAR,13.0
ENBS 021950Z 27005KT 9999 -SHRA FEW009 SCT030 BKN043 03/01 Q1014,ENBS,2023-06-02T19:50:00Z,70.62,29.68,3.0,1.0,270,5,,6.21,29.940945,,,,,,,,,,-SHRA,FEW,900,SCT,3000,BKN,4300,,,VFR,,,,,,,,,,,,METAR,144.0
ENBR 021950Z 32010KT CAVOK 10/08 Q1024 RMK WIND 1200FT 33014KT,ENBR,2023-06-02T19:50:00Z,60.28,5.22,10.0,8.0,320,10,,6.21,30.236221,,,,,,,,,,,CAVOK,,,,,,,,VFR,,,,,,,,,,,,METAR,49.0
ENBO 021950Z 18008KT 9999 RA BKN026 06/03 Q1017 TEMPO NSW,ENBO,2023-06-02T19:50:00Z,67.27,14.37,6.0,3.0,180,8,,6.21,30.029528,,,,,,,,,,RA,BKN,2600,,,,,,,MVFR,,,,,,,,,,,,METAR,13.0
ENBN 021950Z 20013KT 9999 -RADZ BKN006 07/06 Q1020,ENBN,2023-06-02T19:50:00Z,65.47,12.22,7.0,6.0,200,13,,6.21,30.11811,,,,,,,,,,-RA -DZ,BKN,600,,,,,,,IFR,,,,,,,,,,,,METAR,3.0
ENBL 021950Z 31004KT 280V350 CAVOK 09/06 Q1024,ENBL,2023-06-02T19:50:00Z,61.4,5.77,9.0,6.0,310,4,,6.21,30.236221,,,,,,,,,,,CAVOK,,,,,,,,VFR,,,,,,,,,,,,METAR,313.0
ENAT 021950Z 02002KT 9999 FEW029 BKN057 07/01 Q1015 RMK WIND 700FT VRB01KT,ENAT,2023-06-02T19:50:00Z,69.97,23.37,7.0,1.0,20,2,,6.21,29.970472,,,,,,,,,,,FEW,2900,BKN,5700,,,,,VFR,,,,,,,,,,,,METAR,3.0
ENAN 021950Z 17018KT 9999 -RA BKN042 05/02 Q1012,ENAN,2023-06-02T19:50:00Z,69.3,16.13,5.0,2.0,170,18,,6.21,29.88189,,,,,,,,,,-RA,BKN,4200,,,,,,,VFR,,,,,,,,,,,,METAR,13.0
ENAL 021950Z 27005KT 9999 FEW007 BKN022 08/07 Q1026,ENAL,2023-06-02T19:50:00Z,62.57,6.12,8.0,7.0,270,5,,6.21,30.295275,,,,,,,,,,,FEW,700,BKN,2200,,,,,MVFR,,,,,,,,,,,,METAR,21.0
ELLX 021950Z 03012KT CAVOK 15/06 Q1018 NOSIG,ELLX,2023-06-02T19:50:00Z,49.63,6.2,15.0,6.0,30,12,,6.21,30.059055,,,,,,TRUE,,,,,CAVOK,,,,,,,,VFR,,,,,,,,,,,,METAR,374.0
EKYT 021950Z AUTO 31003KT 9999 NCD 12/02 Q1024,EKYT,2023-06-02T19:50:00Z,57.1,9.87,12.0,2.0,310,3,,6.21,30.236221,,,TRUE,,,,,,,,CLR,,,,,,,,VFR,,,,,,,,,,,,METAR,2.0
EKVG 021950Z AUTO 28010KT 9999 FEW005/// 09/08 Q1025 RMK BKN003/// WIND SKEID 29012KT,EKVG,2023-06-02T19:50:00Z,62.07,-7.27,9.0,8.0,280,10,,6.21,30.265747,,,TRUE,,,,,,,,FEW,500,,,,,,,VFR,,,,,,,,,,,,METAR,89.0
EKVD 021950Z AUTO 00000KT //// ///////// 12/05 Q1025,EKVD,2023-06-02T19:50:00Z,55.43,9.32,12.0,5.0,0,0,,,30.265747,,,TRUE,,,,,,,,,,,,,,,,,,,,,,,,,,,,METAR,41.0
EKSP 021950Z 18002KT CAVOK 12/02 Q1024 RMK FEW076,EKSP,2023-06-02T19:50:00Z,55.22,9.27,12.0,2.0,180,2,,6.21,30.236221,,,,,,,,,,,CAVOK,,,,,,,,VFR,,,,,,,,,,,,METAR,40.0
EKSB 021950Z 16003KT 9999 FEW045 12/05 Q1024,EKSB,2023-06-02T19:50:00Z,54.97,9.8,12.0,5.0,160,3,,6.21,30.236221,,,,,,,,,,,FEW,4500,,,,,,,VFR,,,,,,,,,,,,METAR,23.0
EKRS 021950Z AUTO VRB02KT 9999 NCD 12/04 Q1024,EKRS,2023-06-02T19:50:00Z,55.42,11.8,12.0,4.0,0,2,,6.21,30.236221,,,TRUE,,,,,,,,CLR,,,,,,,,VFR,,,,,,,,,,,,METAR,34.0
EKRN 021950Z AUTO 14007KT 9999 NCD 10/04 Q1024,EKRN,2023-06-02T19:50:00Z,55.07,14.75,10.0,4.0,140,7,,6.21,30.236221,,,TRUE,,,,,,,,CLR,,,,,,,,VFR,,,,,,,,,,,,METAR,14.0
EKRK 021950Z AUTO 35004KT 9999 NCD 10/04 Q1024,EKRK,2023-06-02T19:50:00Z,55.58,12.13,10.0,4.0,350,4,,6.21,30.236221,,,TRUE,,,,,,,,CLR,,,,,,,,VFR,,,,,,,,,,,,METAR,40.0
EKKA 021950Z AUTO 01005KT 9999 NCD 13/04 Q1024,EKKA,2023-06-02T19:50:00Z,56.3,9.12,13.0,4.0,10,5,,6.21,30.236221,,,TRUE,,,,,,,,CLR,,,,,,,,VFR,,,,,,,,,,,,METAR,50.0
EKEB 021950Z AUTO 29006KT 9999 BKN067/// 14/04 Q1024,EKEB,2023-06-02T19:50:00Z,55.52,8.55,14.0,4.0,290,6,,6.21,30.236221,,,TRUE,,,,,,,,BKN,6700,,,,,,,VFR,,,,,,,,,,,,METAR,29.0
EKCH 021950Z AUTO 34008KT 9999 NCD 13/04 Q1024 NOSIG,EKCH,2023-06-02T19:50:00Z,55.62,12.67,13.0,4.0,340,8,,6.21,30.236221,,,TRUE,,,TRUE,,,,,CLR,,,,,,,,VFR,,,,,,,,,,,,METAR,4.0
EKBI 021950Z AUTO 12005KT 9999 BKN066/// 13/03 Q1024,EKBI,2023-06-02T19:50:00Z,55.73,9.15,13.0,3.0,120,5,,6.21,30.236221,,,TRUE,,,,,,,,BKN,6600,,,,,,,VFR,,,,,,,,,,,,METAR,67.0
EKAH 021950Z AUTO 00000KT 9999 NCD 13/02 Q1025,EKAH,2023-06-02T19:50:00Z,56.28,10.62,13.0,2.0,0,0,,6.21,30.265747,,,TRUE,,,,,,,,CLR,,,,,,,,VFR,,,,,,,,,,,,METAR,25.0
EGVN 021950Z 06011KT CAVOK 13/06 Q1024 NOSIG,EGVN,2023-06-02T19:50:00Z,51.77,-1.58,13.0,6.0,60,11,,6.21,30.236221,,,,,,TRUE,,,,,CAVOK,,,,,,,,VFR,,,,,,,,,,,,METAR,83.0
EGTK 021950Z 05012KT CAVOK 12/06 Q1024,EGTK,2023-06-02T19:50:00Z,51.83,-1.32,12.0,6.0,50,12,,6.21,30.236221,,,,,,,,,,,CAVOK,,,,,,,,VFR,,,,,,,,,,,,METAR,78.0
EGTE 021950Z VRB03KT CAVOK 15/09 Q1022,EGTE,2023-06-02T19:50:00Z,50.73,-3.42,15.0,9.0,0,3,,6.21,30.177166,,,,,,,,,,,CAVOK,,,,,,,,VFR,,,,,,,,,,,,METAR,30.0
EGSY 021950Z AUTO 07008KT 9999 NCD 16/07 Q1023,EGSY,2023-06-02T19:50:00Z,51.4,-3.43,16.0,7.0,70,8,,6.21,30.206694,,,TRUE,,,,,,,,CLR,,,,,,,,VFR,,,,,,,,,,,,METAR,46.0
EGSS 021950Z 05011KT 9999 BKN022 11/07 Q1024,EGSS,2023-06-02T19:50:00Z,51.88,0.22,11.0,7.0,50,11,,6.21,30.236221,,,,,,,,,,,BKN,2200,,,,,,,MVFR,,,,,,,,,,,,METAR,101.0
EGSH 021950Z 03006KT 9999 SCT017 11/08 Q1025,EGSH,2023-06-02T19:50:00Z,52.68,1.28,11.0,8.0,30,6,,6.21,30.265747,,,,,,,,,,,SCT,1700,,,,,,,VFR,,,,,,,,,,,,METAR,21.0
EGQS 021950Z 03008KT CAVOK 13/10 Q1027 RMK BLU,EGQS,2023-06-02T19:50:00Z,57.72,-3.32,13.0,10.0,30,8,,6.21,30.324802,,,,,,,,,,,CAVOK,,,,,,,,VFR,,,,,,,,,,,,METAR,6.0
EGQL 021950Z 11008KT 9999 SKC 11/08 Q1027 RMK BLU,EGQL,2023-06-02T19:50:00Z,56.38,-2.87,11.0,8.0,110,8,,6.21,30.324802,,,,,,,,,,,SKC,,,,,,,,VFR,,,,,,,,,,,,METAR,11.0
EGPU 021950Z AUTO 34007KT 9999 FEW036/// 12/10 Q1027,EGPU,2023-06-02T19:50:00Z,56.5,-6.88,12.0,10.0,340,7,,6.21,30.324802,,,TRUE,,,,,,,,FEW,3600,,,,,,,VFR,,,,,,,,,,,,METAR,12.0
EGPO 021950Z AUTO 35007KT 9999 -RA NCD 11/07 Q1028,EGPO,2023-06-02T19:50:00Z,58.22,-6.32,11.0,7.0,350,7,,6.21,30.35433,,,TRUE,,,,,,,-RA,CLR,,,,,,,,VFR,,,,,,,,,,,,METAR,10.0
EGPN 021950Z 08008KT CAVOK 11/07 Q1027,EGPN,2023-06-02T19:50:00Z,56.45,-3.02,11.0,7.0,80,8,,6.21,30.324802,,,,,,,,,,,CAVOK,,,,,,,,VFR,,,,,,,,,,,,METAR,4.0
EGPL 021950Z AUTO 01013KT 9999 NCD 12/09 Q1028,EGPL,2023-06-02T19:50:00Z,57.47,-7.37,12.0,9.0,10,13,,6.21,30.35433,,,TRUE,,,,,,,,CLR,,,,,,,,VFR,,,,,,,,,,,,METAR,3.0
EGPK 021950Z 27006KT CAVOK 13/09 Q1026,EGPK,2023-06-02T19:50:00Z,55.5,-4.58,13.0,9.0,270,6,,6.21,30.295275,,,,,,,,,,,CAVOK,,,,,,,,VFR,,,,,,,,,,,,METAR,14.0
EGPI 021950Z AUTO 01006KT 9999 NCD 13/10 Q1026,EGPI,2023-06-02T19:50:00Z,55.68,-6.25,13.0,10.0,10,6,,6.21,30.295275,,,TRUE,,,,,,,,CLR,,,,,,,,VFR,,,,,,,,,,,,METAR,17.0
EGPH 021950Z 06008KT CAVOK 11/09 Q1026,EGPH,2023-06-02T19:50:00Z,55.95,-3.35,11.0,9.0,60,8,,6.21,30.295275,,,,,,,,,,,CAVOK,,,,,,,,VFR,,,,,,,,,,,,METAR,29.0
EGPF 021950Z AUTO 05008KT 9999 NCD 17/05 Q1026,EGPF,2023-06-02T19:50:00Z,55.87,-4.42,17.0,5.0,50,8,,6.21,30.295275,,,TRUE,,,,,,,,CLR,,,,,,,,VFR,,,,,,,,,,,,METAR,8.0
EGPE 021950Z 04003KT 9999 FEW040 12/09 Q1027,EGPE,2023-06-02T19:50:00Z,57.53,-4.05,12.0,9.0,40,3,,6.21,30.324802,,,,,,,,,,,FEW,4000,,,,,,,VFR,,,,,,,,,,,,METAR,7.0
EGPD 021950Z AUTO 12006KT 9999 NCD 11/06 Q1027,EGPD,2023-06-02T19:50:00Z,57.2,-2.22,11.0,6.0,120,6,,6.21,30.324802,,,TRUE,,,,,,,,CLR,,,,,,,,VFR,,,,,,,,,,,,METAR,65.0
EGPC 021950Z 15004KT 9999 FEW012 10/07 Q1027,EGPC,2023-06-02T19:50:00Z,58.45,-3.08,10.0,7.0,150,4,,6.21,30.324802,,,,,,,,,,,FEW,1200,,,,,,,VFR,,,,,,,,,,,,METAR,38.0
EGPB 021950Z AUTO 24006KT 9999 NCD 09/06 Q1027,EGPB,2023-06-02T19:50:00Z,59.87,-1.3,9.0,6.0,240,6,,6.21,30.324802,,,TRUE,,,,,,,,CLR,,,,,,,,VFR,,,,,,,,,,,,METAR,2.0
EGPA 021950Z AUTO 18004KT 9999 NCD 10/07 Q1027,EGPA,2023-06-02T19:50:00Z,58.95,-2.9,10.0,7.0,180,4,,6.21,30.324802,,,TRUE,,,,,,,,CLR,,,,,,,,VFR,,,,,,,,,,,,METAR,15.0
EGNX 021950Z 06009KT CAVOK 12/05 Q1025,EGNX,2023-06-02T19:50:00Z,52.82,-1.32,12.0,5.0,60,9,,6.21,30.265747,,,,,,,,,,,CAVOK,,,,,,,,VFR,,,,,,,,,,,,METAR,91.0
EGNV 021950Z 03006KT CAVOK 11/07 Q1027,EGNV,2023-06-02T19:50:00Z,54.52,-1.42,11.0,7.0,30,6,,6.21,30.324802,,,,,,,,,,,CAVOK,,,,,,,,VFR,,,,,,,,,,,,METAR,36.0
EGNS 021950Z 02004KT 340V110 CAVOK 17/08 Q1025,EGNS,2023-06-02T19:50:00Z,54.08,-4.63,17.0,8.0,20,4,,6.21,30.265747,,,,,,,,,,,CAVOK,,,,,,,,VFR,,,,,,,,,,,,METAR,18.0
EGNR 021950Z 32006KT CAVOK 16/12 Q1025,EGNR,2023-06-02T19:50:00Z,53.17,-2.98,16.0,12.0,320,6,,6.21,30.265747,,,,,,,,,,,CAVOK,,,,,,,,VFR,,,,,,,,,,,,METAR,11.0
EGNM 021950Z 06005KT CAVOK 12/05 Q1026,EGNM,2023-06-02T19:50:00Z,53.87,-1.65,12.0,5.0,60,5,,6.21,30.295275,,,,,,,,,,,CAVOK,,,,,,,,VFR,,,,,,,,,,,,METAR,221.0
EGNJ 021950Z AUTO 05005KT 9999 SCT019/// 11/08 Q1026,EGNJ,2023-06-02T19:50:00Z,53.57,-0.35,11.0,8.0,50,5,,6.21,30.295275,,,TRUE,,,,,,,,SCT,1900,,,,,,,VFR,,,,,,,,,,,,METAR,23.0
EGNH 021950Z 09009KT 9999 FEW034 17/06 Q1025,EGNH,2023-06-02T19:50:00Z,53.77,-3.03,17.0,6.0,90,9,,6.21,30.265747,,,,,,,,,,,FEW,3400,,,,,,,VFR,,,,,,,,,,,,METAR,10.0
EGMD 021950Z AUTO 02013KT 9999 OVC029/// 12/09 Q1023,EGMD,2023-06-02T19:50:00Z,50.95,0.93,12.0,9.0,20,13,,6.21,30.206694,,,TRUE,,,,,,,,OVC,2900,,,,,,,MVFR,,,,,,,,,,,,METAR,4.0
EGMC 021950Z 06007KT 9999 BKN024 12/08 Q1023,EGMC,2023-06-02T19:50:00Z,51.57,0.7,12.0,8.0,60,7,,6.21,30.206694,,,,,,,,,,,BKN,2400,,,,,,,MVFR,,,,,,,,,,,,METAR,15.0
EGLL 021950Z AUTO 06009KT 9999 NCD 15/06 Q1023,EGLL,2023-06-02T19:50:00Z,51.48,-0.45,15.0,6.0,60,9,,6.21,30.206694,,,TRUE,,,,,,,,CLR,,,,,,,,VFR,,,,,,,,,,,,METAR,26.0
EGLF 021950Z AUTO 05010KT 9999 NCD 15/06 Q1023,EGLF,2023-06-02T19:50:00Z,51.28,-0.77,15.0,6.0,50,10,,6.21,30.206694,,,TRUE,,,,,,,,CLR,,,,,,,,VFR,,,,,,,,,,,,METAR,65.0
EGLC 021950Z AUTO 06010KT 020V090 9999 BKN030 14/07 Q1024,EGLC,2023-06-02T19:50:00Z,51.5,0.05,14.0,7.0,60,10,,6.21,30.236221,,,TRUE,,,,,,,,BKN,3000,,,,,,,MVFR,,,,,,,,,,,,METAR,10.0
EGKK 021950Z 07009KT CAVOK 12/08 Q1023,EGKK,2023-06-02T19:50:00Z,51.13,-0.18,12.0,8.0,70,9,,6.21,30.206694,,,,,,,,,,,CAVOK,,,,,,,,VFR,,,,,,,,,,,,METAR,58.0
EGKB 021950Z 06009KT 030V100 9999 FEW025 10/07 Q1023,EGKB,2023-06-02T19:50:00Z,51.32,0.02,10.0,7.0,60,9,,6.21,30.206694,,,,,,,,,,,FEW,2500,,,,,,,VFR,,,,,,,,,,,,METAR,183.0
EGJJ 021950Z 08013KT 040V100 CAVOK 12/07 Q1020,EGJJ,2023-06-02T19:50:00Z,49.22,-2.2,12.0,7.0,80,13,,6.21,30.11811,,,,,,,,,,,CAVOK,,,,,,,,VFR,,,,,,,,,,,,METAR,84.0
EGJB 021950Z 06011KT CAVOK 12/08 Q1021,EGJB,2023-06-02T19:50:00Z,49.42,-2.6,12.0,8.0,60,11,,6.21,30.147638,,,,,,,,,,,CAVOK,,,,,,,,VFR,,,,,,,,,,,,METAR,102.0
EGHQ 021950Z 24003KT CAVOK 14/10 Q1022,EGHQ,2023-06-02T19:50:00Z,50.43,-5.0,14.0,10.0,240,3,,6.21,30.177166,,,,,,,,,,,CAVOK,,,,,,,,VFR,,,,,,,,,,,,METAR,101.0
EGHI 021950Z 02009KT 350V060 CAVOK 16/06 Q1022,EGHI,2023-06-02T19:50:00Z,50.95,-1.35,16.0,6.0,20,9,,6.21,30.177166,,,,,,,,,,,CAVOK,,,,,,,,VFR,,,,,,,,,,,,METAR,13.0
EGHH 021950Z 18002KT CAVOK 14/08 Q1022,EGHH,2023-06-02T19:50:00Z,50.78,-1.83,14.0,8.0,180,2,,6.21,30.177166,,,,,,,,,,,CAVOK,,,,,,,,VFR,,,,,,,,,,,,METAR,9.0
EGGW 021950Z AUTO 02009G19KT 350V050 9999 NCD 11/06 Q1024,EGGW,2023-06-02T19:50:00Z,51.87,-0.37,11.0,6.0,20,9,19,6.21,30.236221,,,TRUE,,,,,,,,CLR,,,,,,,,VFR,,,,,,,,,,,,METAR,159.0
EGGP 021950Z 08008KT CAVOK 16/06 Q1025,EGGP,2023-06-02T19:50:00Z,53.33,-2.85,16.0,6.0,80,8,,6.21,30.265747,,,,,,,,,,,CAVOK,,,,,,,,VFR,,,,,,,,,,,,METAR,23.0
EGGD 021950Z AUTO 06009KT 9999 NCD 15/06 Q1023,EGGD,2023-06-02T19:50:00Z,51.37,-2.72,15.0,6.0,60,9,,6.21,30.206694,,,TRUE,,,,,,,,CLR,,,,,,,,VFR,,,,,,,,,,,,METAR,182.0
EGFF 021950Z AUTO 07011KT 9999 NCD 17/07 Q1023,EGFF,2023-06-02T19:50:00Z,51.38,-3.35,17.0,7.0,70,11,,6.21,30.206694,,,TRUE,,,,,,,,CLR,,,,,,,,VFR,,,,,,,,,,,,METAR,65.0
EGCK 021950Z AUTO 04011KT 9999 NCD 15/11 Q1024,EGCK,2023-06-02T19:50:00Z,53.1,-4.33,15.0,11.0,40,11,,6.21,30.236221,,,TRUE,,,,,,,,CLR,,,,,,,,VFR,,,,,,,,,,,,METAR,6.0
EGCC 021950Z AUTO 08005KT 050V120 9999 NCD 15/06 Q1025,EGCC,2023-06-02T19:50:00Z,53.35,-2.27,15.0,6.0,80,5,,6.21,30.265747,,,TRUE,,,,,,,,CLR,,,,,,,,VFR,,,,,,,,,,,,METAR,78.0
EGBB 021950Z 06009KT CAVOK 13/05 Q1025,EGBB,2023-06-02T19:50:00Z,52.47,-1.75,13.0,5.0,60,9,,6.21,30.265747,,,,,,,,,,,CAVOK,,,,,,,,VFR,,,,,,,,,,,,METAR,91.0
EGAE 021950Z 04013KT CAVOK 15/12 Q1026,EGAE,2023-06-02T19:50:00Z,55.03,-7.15,15.0,12.0,40,13,,6.21,30.295275,,,,,,,,,,,CAVOK,,,,,,,,VFR,,,,,,,,,,,,METAR,9.0
EGAA 021950Z AUTO 10003KT 9999 NCD 16/06 Q1026,EGAA,2023-06-02T19:50:00Z,54.65,-6.22,16.0,6.0,100,3,,6.21,30.295275,,,TRUE,,,,,,,,CLR,,,,,,,,VFR,,,,,,,,,,,,METAR,65.0
EFVA 021950Z AUTO VRB02KT CAVOK 05/01 Q1018,EFVA,2023-06-02T19:50:00Z,63.05,21.77,5.0,1.0,0,2,,6.21,30.059055,,,TRUE,,,,,,,,CAVOK,,,,,,,,VFR,,,,,,,,,,,,METAR,4.0
EFUT 021950Z AUTO 32007KT CAVOK 05/02 Q1014,EFUT,2023-06-02T19:50:00Z,60.88,26.93,5.0,2.0,320,7,,6.21,29.940945,,,TRUE,,,,,,,,CAVOK,,,,,,,,VFR,,,,,,,,,,,,METAR,104.0
EFTU 021950Z AUTO 30006KT 280V340 CAVOK 07/01 Q1019,EFTU,2023-06-02T19:50:00Z,60.52,22.27,7.0,1.0,300,6,,6.21,30.088583,,,TRUE,,,,,,,,CAVOK,,,,,,,,VFR,,,,,,,,,,,,METAR,47.0
EFTP 021950Z AUTO 30003KT CAVOK 06/M00 Q1017,EFTP,2023-06-02T19:50:00Z,61.42,23.62,6.0,0.0,300,3,,6.21,30.029528,,,TRUE,,,,,,,,CAVOK,,,,,,,,VFR,,,,,,,,,,,,METAR,111.0
EFSI 021950Z AUTO 30005KT CAVOK 04/M01 Q1018,EFSI,2023-06-02T19:50:00Z,62.7,22.83,4.0,-1.0,300,5,,6.21,30.059055,,,TRUE,,,,,,,,CAVOK,,,,,,,,VFR,,,,,,,,,,,,METAR,90.0
EFSA 021950Z AUTO VRB02KT CAVOK 02/01 Q1013,EFSA,2023-06-02T19:50:00Z,61.95,28.93,2.0,1.0,0,2,,6.21,29.911417,,,TRUE,,,,,,,,CAVOK,,,,,,,,VFR,,,,,,,,,,,,METAR,90.0
EFRO 021950Z AUTO 35004KT CAVOK 05/00 Q1016,EFRO,2023-06-02T19:50:00Z,66.57,25.82,5.0,0.0,350,4,,6.21,30.0,,,TRUE,,,,,,,,CAVOK,,,,,,,,VFR,,,,,,,,,,,,METAR,201.0
EFPO 021950Z AUTO 31007KT CAVOK 06/00 Q1019,EFPO,2023-06-02T19:50:00Z,61.47,21.8,6.0,0.0,310,7,,6.21,30.088583,,,TRUE,,,,,,,,CAVOK,,,,,,,,VFR,,,,,,,,,,,,METAR,10.0
EFOU 021950Z AUTO 01008KT CAVOK 08/M01 Q1016,EFOU,2023-06-02T19:50:00Z,64.92,25.37,8.0,-1.0,10,8,,6.21,30.0,,,TRUE,,,,,,,,CAVOK,,,,,,,,VFR,,,,,,,,,,,,METAR,15.0
EFMI 021950Z AUTO 30005KT 270V330 9999 FEW017 05/03 Q1014,EFMI,2023-06-02T19:50:00Z,61.68,27.2,5.0,3.0,300,5,,6.21,29.940945,,,TRUE,,,,,,,,FEW,1700,,,,,,,VFR,,,,,,,,,,,,METAR,99.0
EFMA 021950Z AUTO 33003KT CAVOK 04/01 Q1021,EFMA,2023-06-02T19:50:00Z,60.12,19.9,4.0,1.0,330,3,,6.21,30.147638,,,TRUE,,,,,,,,CAVOK,,,,,,,,VFR,,,,,,,,,,,,METAR,6.0
EFLP 021950Z AUTO 30004KT CAVOK 06/02 Q1014,EFLP,2023-06-02T19:50:00Z,61.03,28.15,6.0,2.0,300,4,,6.21,29.940945,,,TRUE,,,,,,,,CAVOK,,,,,,,,VFR,,,,,,,,,,,,METAR,102.0
EFKU 021950Z AUTO 32008KT CAVOK 05/04 Q1014,EFKU,2023-06-02T19:50:00Z,63.02,27.8,5.0,4.0,320,8,,6.21,29.940945,,,TRUE,,,,,,,,CAVOK,,,,,,,,VFR,,,,,,,,,,,,METAR,92.0
EFKT 021950Z AUTO 36002KT CAVOK 06/M02 Q1015,EFKT,2023-06-02T19:50:00Z,67.7,24.85,6.0,-2.0,360,2,,6.21,29.970472,,,TRUE,,,,,,,,CAVOK,,,,,,,,VFR,,,,,,,,,,,,METAR,190.0
EFKS 021950Z AUTO VRB02KT 9999 FEW030 04/03 Q1014,EFKS,2023-06-02T19:50:00Z,66.0,29.23,4.0,3.0,0,2,,6.21,29.940945,,,TRUE,,,,,,,,FEW,3000,,,,,,,VFR,,,,,,,,,,,,METAR,270.0
EFKK 021950Z AUTO 27003KT CAVOK 05/01 Q1017,EFKK,2023-06-02T19:50:00Z,63.72,23.13,5.0,1.0,270,3,,6.21,30.029528,,,TRUE,,,,,,,,CAVOK,,,,,,,,VFR,,,,,,,,,,,,METAR,25.0
EFKI 021950Z AUTO 36007KT 9999 -RA BKN028 06/03 Q1014,EFKI,2023-06-02T19:50:00Z,64.27,27.67,6.0,3.0,360,7,,6.21,29.940945,,,TRUE,,,,,,,-RA,BKN,2800,,,,,,,MVFR,,,,,,,,,,,,METAR,132.0
EFKE 021950Z AUTO 34004KT CAVOK 07/M00 Q1017,EFKE,2023-06-02T19:50:00Z,65.78,24.57,7.0,0.0,340,4,,6.21,30.029528,,,TRUE,,,,,,,,CAVOK,,,,,,,,VFR,,,,,,,,,,,,METAR,15.0
EFJY 021950Z AUTO 33009KT 9999 FEW033 BKN050 05/03 Q1015,EFJY,2023-06-02T19:50:00Z,62.4,25.68,5.0,3.0,330,9,,6.21,29.970472,,,TRUE,,,,,,,,FEW,3300,BKN,5000,,,,,VFR,,,,,,,,,,,,METAR,139.0
EFJO 021950Z AUTO 06002KT CAVOK 03/00 Q1013,EFJO,2023-06-02T19:50:00Z,62.67,29.62,3.0,0.0,60,2,,6.21,29.911417,,,TRUE,,,,,,,,CAVOK,,,,,,,,VFR,,,,,,,,,,,,METAR,118.0
EFIV 021950Z AUTO 22002KT CAVOK 05/M02 Q1016,EFIV,2023-06-02T19:50:00Z,68.62,27.42,5.0,-2.0,220,2,,6.21,30.0,,,TRUE,,,,,,,,CAVOK,,,,,,,,VFR,,,,,,,,,,,,METAR,145.0
EFHK 021950Z 32004KT 9999 BKN038 05/03 Q1017 NOSIG,EFHK,2023-06-02T19:50:00Z,60.32,24.97,5.0,3.0,320,4,,6.21,30.029528,,,,,,TRUE,,,,,BKN,3800,,,,,,,VFR,,,,,,,,,,,,METAR,56.0
EFHA 021950Z AUTO 33007KT 290V350 9999 OVC045 07/01 Q1016,EFHA,2023-06-02T19:50:00Z,61.85,24.8,7.0,1.0,330,7,,6.21,30.0,,,TRUE,,,,,,,,OVC,4500,,,,,,,VFR,,,,,,,,,,,,METAR,144.0
EFET 021950Z AUTO 14003KT CAVOK 05/M01 Q1015,EFET,2023-06-02T19:50:00Z,68.37,23.43,5.0,-1.0,140,3,,6.21,29.970472,,,TRUE,,,,,,,,CAVOK,,,,,,,,VFR,,,,,,,,,,,,METAR,300.0
EETU 021950Z AUTO 30005KT 280V340 9999 OVC080/// 09/01 Q1016,EETU,2023-06-02T19:50:00Z,58.32,26.68,9.0,1.0,300,5,,6.21,30.0,,,TRUE,,,,,,,,OVC,8000,,,,,,,VFR,,,,,,,,,,,,METAR,67.0
EETN 021950Z 01007KT 340V040 9000 -SHRA SCT027CB OVC047 07/04 Q1017 NOSIG,EETN,2023-06-02T19:50:00Z,59.4,24.82,7.0,4.0,10,7,,5.59,30.029528,,,,,,TRUE,,,,-SHRA,SCT,2700,OVC,4700,,,,,VFR,,,,,,,,,,,,METAR,41.0
EEPU 021950Z AUTO 33004KT 300V360 9999 -RA FEW028/// SCT059/// BKN077/// 07/04 Q1018,EEPU,2023-06-02T19:50:00Z,58.42,24.47,7.0,4.0,330,4,,6.21,30.059055,,,TRUE,,,,,,,-RA,FEW,2800,SCT,5900,BKN,7700,,,VFR,,,,,,,,,,,,METAR,13.0
EEKE 021950Z AUTO 32005KT 290V350 9999NDV FEW043 06/01 Q1020,EEKE,2023-06-02T19:50:00Z,58.23,22.52,6.0,1.0,320,5,,,30.11811,,,TRUE,,,,,,,,FEW,4300,,,,,,,,,,,,,,,,,,,METAR,4.0
EEEI 021950Z AUTO 34006KT 310V020 9999 FEW045/// 09/03 Q1018,EEEI,2023-06-02T19:50:00Z,59.27,24.2,9.0,3.0,340,6,,6.21,30.059055,,,TRUE,,,,,,,,FEW,4500,,,,,,,VFR,,,,,,,,,,,,METAR,19.0
EDXW 021950Z AUTO 02008KT 9999 // NCD 13/06 Q1024,EDXW,2023-06-02T19:50:00Z,54.92,8.33,13.0,6.0,20,8,,6.21,30.236221,,,TRUE,,,,,,,,CLR,,,,,,,,VFR,,,,,,,,,,,,METAR,8.0
EDWE 021950Z AUTO 04009KT 9999 // NCD 13/08 Q1023,EDWE,2023-06-02T19:50:00Z,53.38,7.23,13.0,8.0,40,9,,6.21,30.206694,,,TRUE,,,,,,,,CLR,,,,,,,,VFR,,,,,,,,,,,,METAR,0.0
EDVK 021950Z 06005KT CAVOK 13/07 Q1021,EDVK,2023-06-02T19:50:00Z,51.4,9.37,13.0,7.0,60,5,,6.21,30.147638,,,,,,,,,,,CAVOK,,,,,,,,VFR,,,,,,,,,,,,METAR,277.0
EDVE 021950Z AUTO 06005KT 020V110 9999 NCD 15/M02 Q1022,EDVE,2023-06-02T19:50:00Z,52.32,10.55,15.0,-2.0,60,5,,6.21,30.177166,,,TRUE,,,,,,,,CLR,,,,,,,,VFR,,,,,,,,,,,,METAR,83.0
EDTY 021950Z AUTO 05008KT 9999 // NCD 15/06 Q1017,EDTY,2023-06-02T19:50:00Z,49.12,9.78,15.0,6.0,50,8,,6.21,30.029528,,,TRUE,,,,,,,,CLR,,,,,,,,VFR,,,,,,,,,,,,METAR,398.0
EDTL 021950Z AUTO 02008KT 9999 // NCD 18/08 Q1015,EDTL,2023-06-02T19:50:00Z,48.37,7.83,18.0,8.0,20,8,,6.21,29.970472,,,TRUE,,,,,,,,CLR,,,,,,,,VFR,,,,,,,,,,,,METAR,152.0
EDSB 021950Z 02005KT CAVOK 17/07 Q1015,EDSB,2023-06-02T19:50:00Z,48.78,8.08,17.0,7.0,20,5,,6.21,29.970472,,,,,,,,,,,CAVOK,,,,,,,,VFR,,,,,,,,,,,,METAR,122.0
EDQM 021950Z AUTO 03005KT 340V080 9999 // NCD 12/07 Q1020,EDQM,2023-06-02T19:50:00Z,50.3,11.85,12.0,7.0,30,5,,6.21,30.11811,,,TRUE,,,,,,,,CLR,,,,,,,,VFR,,,,,,,,,,,,METAR,578.0
EDNY 021950Z AUTO 03011KT 9999 BKN240/// 20/10 Q1015,EDNY,2023-06-02T19:50:00Z,47.67,9.52,20.0,10.0,30,11,,6.21,29.970472,,,TRUE,,,,,,,,BKN,24000,,,,,,,VFR,,,,,,,,,,,,METAR,411.0
EDMO 021950Z AUTO 02004KT 9999 // NCD 17/06 Q1016,EDMO,2023-06-02T19:50:00Z,48.07,11.27,17.0,6.0,20,4,,6.21,30.0,,,TRUE,,,,,,,,CLR,,,,,,,,VFR,,,,,,,,,,,,METAR,587.0
EDMA 021950Z AUTO 02006KT 9999 // NCD 16/08 Q1016,EDMA,2023-06-02T19:50:00Z,48.42,10.92,16.0,8.0,20,6,,6.21,30.0,,,TRUE,,,,,,,,CLR,,,,,,,,VFR,,,,,,,,,,,,METAR,462.0
EDLW 021950Z 06004KT 030V090 CAVOK 15/08 Q1020,EDLW,2023-06-02T19:50:00Z,51.52,7.62,15.0,8.0,60,4,,6.21,30.11811,,,,,,,,,,,CAVOK,,,,,,,,VFR,,,,,,,,,,,,METAR,122.0
EDLV 021950Z VRB02KT CAVOK 16/09 Q1020,EDLV,2023-06-02T19:50:00Z,51.6,6.15,16.0,9.0,0,2,,6.21,30.11811,,,,,,,,,,,CAVOK,,,,,,,,VFR,,,,,,,,,,,,METAR,27.0
EDLP 021950Z 07005KT CAVOK 14/07 Q1021,EDLP,2023-06-02T19:50:00Z,51.62,8.62,14.0,7.0,70,5,,6.21,30.147638,,,,,,,,,,,CAVOK,,,,,,,,VFR,,,,,,,,,,,,METAR,211.0
EDLN 021950Z AUTO 04004KT 020V080 9999 // NCD 16/07 Q1020,EDLN,2023-06-02T19:50:00Z,51.23,6.5,16.0,7.0,40,4,,6.21,30.11811,,,TRUE,,,,,,,,CLR,,,,,,,,VFR,,,,,,,,,,,,METAR,38.0
EDJA 021950Z 04008KT CAVOK 16/08 Q1016,EDJA,2023-06-02T19:50:00Z,47.98,10.23,16.0,8.0,40,8,,6.21,30.0,,,,,,,,,,,CAVOK,,,,,,,,VFR,,,,,,,,,,,,METAR,625.0
EDHL 021950Z AUTO 08002KT 9999 // NCD 13/03 Q1024,EDHL,2023-06-02T19:50:00Z,53.8,10.72,13.0,3.0,80,2,,6.21,30.236221,,,TRUE,,,,,,,,CLR,,,,,,,,VFR,,,,,,,,,,,,METAR,13.0
EDHK 021950Z AUTO 06007KT 9999 // NCD 14/03 Q1025,EDHK,2023-06-02T19:50:00Z,54.38,10.15,14.0,3.0,60,7,,6.21,30.265747,,,TRUE,,,,,,,,CLR,,,,,,,,VFR,,,,,,,,,,,,METAR,24.0
EDHI 021950Z AUTO 06007KT 9999 // NCD 14/02 Q1024,EDHI,2023-06-02T19:50:00Z,53.53,9.83,14.0,2.0,60,7,,6.21,30.236221,,,TRUE,,,,,,,,CLR,,,,,,,,VFR,,,,,,,,,,,,METAR,5.0
EDGS 021950Z AUTO 07006KT 9999 // NCD 11/06 Q1020,EDGS,2023-06-02T19:50:00Z,50.7,8.08,11.0,6.0,70,6,,6.21,30.11811,,,TRUE,,,,,,,,CLR,,,,,,,,VFR,,,,,,,,,,,,METAR,595.0
EDFM 021950Z AUTO 36007KT 9999 // NCD 19/05 Q1017,EDFM,2023-06-02T19:50:00Z,49.47,8.52,19.0,5.0,360,7,,6.21,30.029528,,,TRUE,,,,,,,,CLR,,,,,,,,VFR,,,,,,,,,,,,METAR,94.0
EDFH 021950Z 06004KT 020V120 CAVOK 13/06 Q1018,EDFH,2023-06-02T19:50:00Z,49.95,7.27,13.0,6.0,60,4,,6.21,30.059055,,,,,,,,,,,CAVOK,,,,,,,,VFR,,,,,,,,,,,,METAR,494.0
EDDW 021950Z AUTO 05008KT CAVOK 15/01 Q1023 NOSIG,EDDW,2023-06-02T19:50:00Z,53.03,8.8,15.0,1.0,50,8,,6.21,30.206694,,,TRUE,,,TRUE,,,,,CAVOK,,,,,,,,VFR,,,,,,,,,,,,METAR,5.0
EDDV 021950Z AUTO 05006KT CAVOK 13/05 Q1022 NOSIG,EDDV,2023-06-02T19:50:00Z,52.47,9.68,13.0,5.0,50,6,,6.21,30.177166,,,TRUE,,,TRUE,,,,,CAVOK,,,,,,,,VFR,,,,,,,,,,,,METAR,53.0
EDDS 021950Z AUTO 01006KT CAVOK 18/07 Q1016 NOSIG,EDDS,2023-06-02T19:50:00Z,48.68,9.22,18.0,7.0,10,6,,6.21,30.0,,,TRUE,,,TRUE,,,,,CAVOK,,,,,,,,VFR,,,,,,,,,,,,METAR,374.0
EDDR 021950Z AUTO 05006KT CAVOK 15/05 Q1017 NOSIG,EDDR,2023-06-02T19:50:00Z,49.22,7.1,15.0,5.0,50,6,,6.21,30.029528,,,TRUE,,,TRUE,,,,,CAVOK,,,,,,,,VFR,,,,,,,,,,,,METAR,317.0
EDDP 021950Z AUTO 04009KT CAVOK 14/03 Q1021 NOSIG,EDDP,2023-06-02T19:50:00Z,51.43,12.23,14.0,3.0,40,9,,6.21,30.147638,,,TRUE,,,TRUE,,,,,CAVOK,,,,,,,,VFR,,,,,,,,,,,,METAR,129.0
EDDN 021950Z AUTO 01007KT 330V040 CAVOK 16/06 Q1018 NOSIG,EDDN,2023-06-02T19:50:00Z,49.5,11.05,16.0,6.0,10,7,,6.21,30.059055,,,TRUE,,,TRUE,,,,,CAVOK,,,,,,,,VFR,,,,,,,,,,,,METAR,312.0
EDDM 021950Z AUTO 04008KT CAVOK 18/09 Q1016 NOSIG,EDDM,2023-06-02T19:50:00Z,48.35,11.82,18.0,9.0,40,8,,6.21,30.0,,,TRUE,,,TRUE,,,,,CAVOK,,,,,,,,VFR,,,,,,,,,,,,METAR,445.0
EDDL 021950Z AUTO 03005KT CAVOK 16/07 Q1020 NOSIG,EDDL,2023-06-02T19:50:00Z,51.3,6.77,16.0,7.0,30,5,,6.21,30.11811,,,TRUE,,,TRUE,,,,,CAVOK,,,,,,,,VFR,,,,,,,,,,,,METAR,37.0
EDDK 021950Z AUTO 04006KT CAVOK 16/07 Q1019 NOSIG,EDDK,2023-06-02T19:50:00Z,50.87,7.15,16.0,7.0,40,6,,6.21,30.088583,,,TRUE,,,TRUE,,,,,CAVOK,,,,,,,,VFR,,,,,,,,,,,,METAR,92.0
EDDH 021950Z AUTO 05006KT CAVOK 14/03 Q1024 NOSIG,EDDH,2023-06-02T19:50:00Z,53.63,10.0,14.0,3.0,50,6,,6.21,30.236221,,,TRUE,,,TRUE,,,,,CAVOK,,,,,,,,VFR,,,,,,,,,,,,METAR,8.0
EDDG 021950Z AUTO 05003KT 010V100 CAVOK 16/09 Q1021 NOSIG,EDDG,2023-06-02T19:50:00Z,52.13,7.7,16.0,9.0,50,3,,6.21,30.147638,,,TRUE,,,TRUE,,,,,CAVOK,,,,,,,,VFR,,,,,,,,,,,,METAR,46.0
EDDF 021950Z AUTO 03015KT CAVOK 18/06 Q1018 NOSIG,EDDF,2023-06-02T19:50:00Z,50.05,8.6,18.0,6.0,30,15,,6.21,30.059055,,,TRUE,,,TRUE,,,,,CAVOK,,,,,,,,VFR,,,,,,,,,,,,METAR,113.0
EDDE 021950Z AUTO 06004KT CAVOK 13/07 Q1020 NOSIG,EDDE,2023-06-02T19:50:00Z,50.98,10.97,13.0,7.0,60,4,,6.21,30.11811,,,TRUE,,,TRUE,,,,,CAVOK,,,,,,,,VFR,,,,,,,,,,,,METAR,314.0
EDDC 021950Z AUTO 02005KT CAVOK 13/01 Q1020 NOSIG,EDDC,2023-06-02T19:50:00Z,51.13,13.75,13.0,1.0,20,5,,6.21,30.11811,,,TRUE,,,TRUE,,,,,CAVOK,,,,,,,,VFR,,,,,,,,,,,,METAR,227.0
EDDB 021950Z AUTO 03012KT CAVOK 14/01 Q1022 NOSIG,EDDB,2023-06-02T19:50:00Z,52.38,13.53,14.0,1.0,30,12,,6.21,30.177166,,,TRUE,,,TRUE,,,,,CAVOK,,,,,,,,VFR,,,,,,,,,,,,METAR,48.0
EDBC 021950Z AUTO 04005KT 9999 // NCD 12/00 Q1022,EDBC,2023-06-02T19:50:00Z,51.85,11.42,12.0,0.0,40,5,,6.21,30.177166,,,TRUE,,,,,,,,CLR,,,,,,,,VFR,,,,,,,,,,,,METAR,178.0
EDAH 021950Z AUTO 06003KT 9999 // NCD 09/02 Q1024,EDAH,2023-06-02T19:50:00Z,53.87,14.15,9.0,2.0,60,3,,6.21,30.236221,,,TRUE,,,,,,,,CLR,,,,,,,,VFR,,,,,,,,,,,,METAR,22.0
EDAC 021950Z AUTO 04003KT 9999 // BKN070/// 14/07 Q1020,EDAC,2023-06-02T19:50:00Z,50.98,12.5,14.0,7.0,40,3,,6.21,30.11811,,,TRUE,,,,,,,,BKN,7000,,,,,,,VFR,,,,,,,,,,,,METAR,193.0
EBOS 021950Z 03013KT 9999 FEW012 12/09 Q1022 NOSIG,EBOS,2023-06-02T19:50:00Z,51.2,2.87,12.0,9.0,30,13,,6.21,30.177166,,,,,,TRUE,,,,,FEW,1200,,,,,,,VFR,,,,,,,,,,,,METAR,5.0
EBLG 021950Z 05010KT 020V080 CAVOK 14/07 Q1020 NOSIG,EBLG,2023-06-02T19:50:00Z,50.63,5.45,14.0,7.0,50,10,,6.21,30.11811,,,,,,TRUE,,,,,CAVOK,,,,,,,,VFR,,,,,,,,,,,,METAR,187.0
EBCI 021950Z 04009KT CAVOK 14/07 Q1020 NOSIG,EBCI,2023-06-02T19:50:00Z,50.47,4.45,14.0,7.0,40,9,,6.21,30.11811,,,,,,TRUE,,,,,CAVOK,,,,,,,,VFR,,,,,,,,,,,,METAR,176.0
EBBR 021950Z 06004KT 9999 FEW046 14/08 Q1020 NOSIG,EBBR,2023-06-02T19:50:00Z,50.9,4.52,14.0,8.0,60,4,,6.21,30.11811,,,,,,TRUE,,,,,FEW,4600,,,,,,,VFR,,,,,,,,,,,,METAR,49.0
EBAW 021950Z 02007KT 9999 FEW041 16/08 Q1020 NOSIG,EBAW,2023-06-02T19:50:00Z,51.2,4.47,16.0,8.0,20,7,,6.21,30.11811,,,,,,TRUE,,,,,FEW,4100,,,,,,,VFR,,,,,,,,,,,,METAR,7.0
CYKJ 021950Z AUTO 14006KT 100V170 9SM OVC011 16/15 A3003 RMK SLP180 DENSITY ALT 2200FT,CYKJ,2023-06-02T19:50:00Z,57.25,-105.62,16.0,15.0,140,6,,9.0,30.029528,1018.0,,TRUE,,,,,,,,OVC,1100,,,,,,,MVFR,,,,,,,,,,,,SPECI,519.0
BGSF 021950Z AUTO 05004KT 010V090 9999NDV OVC040/// 04/M05 Q1026,BGSF,2023-06-02T19:50:00Z,67.0,-50.72,4.0,-5.0,50,4,,,30.295275,,,TRUE,,,,,,,,OVC,4000,,,,,,,,,,,,,,,,,,,METAR,75.0
BGKK 021950Z AUTO VRB03KT 9999NDV BKN008/// 01/M00 Q1018,BGKK,2023-06-02T19:50:00Z,65.57,-37.13,1.0,0.0,0,3,,,30.059055,,,TRUE,,,,,,,,BKN,800,,,,,,,,,,,,,,,,,,,METAR,37.0
BGJN 021950Z 22010KT 9999 SCT016 BKN035 M01/M04 Q1026,BGJN,2023-06-02T19:50:00Z,69.25,-51.07,-1.0,-4.0,220,10,,6.21,30.295275,,,,,,,,,,,SCT,1600,BKN,3500,,,,,VFR,,,,,,,,,,,,METAR,22.0
BGGH 021950Z 36012KT 9999 SCT020 04/M00 Q1023,BGGH,2023-06-02T19:50:00Z,64.2,-51.68,4.0,0.0,360,12,,6.21,30.206694,,,,,,,,,,,SCT,2000,,,,,,,VFR,,,,,,,,,,,,METAR,76.0
BGBW 021950Z AUTO 22006KT 9999NDV FEW007/// BKN009/// BKN011/// OVC023/// 08/07 Q1018,BGBW,2023-06-02T19:50:00Z,61.17,-45.42,8.0,7.0,220,6,,,30.059055,,,TRUE,,,,,,,,FEW,700,BKN,900,BKN,1100,OVC,2300,,,,,,,,,,,,,METAR,49.0
YCFS 021949Z AUTO 00000KT 0800 FG SCT027 SCT069 14/13 Q1025,YCFS,2023-06-02T19:49:00Z,-30.32,153.12,14.0,13.0,0,0,,0.5,30.265747,,,TRUE,,,,,,,FG,SCT,2700,SCT,6900,,,,,LIFR,,,,,,,,,,,,SPECI,2.0
PTSA 021949Z VRB03KT 5SM -SHRA BKN015TCU BKN120 OVC290 26/25 A2986 RMK TCU ALQDS,PTSA,2023-06-02T19:49:00Z,5.35,162.95,26.0,25.0,0,3,,5.0,29.861221,,,,,,,,,,-SHRA,BKN,1500,BKN,12000,OVC,29000,,,MVFR,,,,,,,,,,,,METAR,3.0
PAFS 021949Z AUTO 29005KT 10SM FEW026 BKN044 05/01 A2991 RMK AO2,PAFS,2023-06-02T19:49:00Z,63.02,-154.35,5.0,1.0,290,5,,10.0,29.911417,,,TRUE,TRUE,,,,,,,FEW,2600,BKN,4400,,,,,VFR,,,,,,,,,,,,SPECI,131.0
MMTP 021949Z 27008KT 8SM FEW030 33/26 A2976 RMK 8/100 HZY TCU E,MMTP,2023-06-02T19:49:00Z,14.78,-92.37,33.0,26.0,270,8,,8.0,29.760826,,,,,,,,,,,FEW,3000,,,,,,,VFR,,,,,,,,,,,,METAR,27.0
KTRK 021949Z 31004KT 10SM FEW060 19/M06 A3013,KTRK,2023-06-02T19:49:00Z,39.32,-120.13,19.0,-6.0,310,4,,10.0,30.129921,,,,,,,,,,,FEW,6000,,,,,,,VFR,,,,,,,,,,,,METAR,1800.0
KMWN 021949Z 36009G19KT 40SM TS VCSH BKN010CB BKN030 BKN060 15/10 RMK VIS N 1 TSB43 TS N MOV S VCSH N HZ DSNT ALQDS,KMWN,2023-06-02T19:49:00Z,44.27,-71.3,15.0,10.0,360,9,19,40.0,,,,,,,,,,,TS VCSH,BKN,1000,BKN,3000,BKN,6000,,,MVFR,,,,,,,,,,,,METAR,1911.0
KFME 021949Z AUTO 07005KT 34/10 A2988 RMK AO1,KFME,2023-06-02T19:49:00Z,39.08,-76.77,34.0,10.0,70,5,,,29.878937,,,TRUE,TRUE,,,,,,,,,,,,,,,,,,,,,,,,,,,METAR,43.0
K2W6 021949Z AUTO 08003KT 10SM CLR 29/11 A2989 RMK AO1,K2W6,2023-06-02T19:49:00Z,38.32,-76.55,29.0,11.0,80,3,,10.0,29.890747,,,TRUE,TRUE,,,,,,,CLR,,,,,,,,VFR,,,,,,,,,,,,METAR,40.0
CYQR 021949Z 34009KT 15SM FEW010 BKN080 OVC240 20/17 A3000 RMK SF1AC5CI2 SLP165 DENSITY ALT 2800FT,CYQR,2023-06-02T19:49:00Z,50.43,-104.67,20.0,17.0,340,9,,15.0,30.0,1016.5,,,,,,,,,,FEW,1000,BKN,8000,OVC,24000,,,VFR,,,,,,,,,,,,SPECI,576.0
CYQA 021949Z AUTO 32018G24KT 290V010 9SM -TSRA SCT060 SCT080 BKN130 BKN160 29/17 A3002 RMK LTNG DIST N NW SLP162 DENSITY ALT 2700FT,CYQA,2023-06-02T19:49:00Z,44.97,-79.3,29.0,17.0,320,18,24,9.0,30.02067,1016.2,,TRUE,,,,,,,-TSRA,SCT,6000,SCT,8000,BKN,13000,BKN,16000,VFR,,,,,,,,,,,,SPECI,277.0
YAMB 021948Z AUTO 06005KT 9999 // SCT026 SCT034 SCT046 08/08 Q1024,YAMB,2023-06-02T19:48:00Z,-27.63,152.72,8.0,8.0,60,5,,6.21,30.236221,,,TRUE,,,,,,,,SCT,2600,SCT,3400,SCT,4600,,,VFR,,,,,,,,,,,,SPECI,26.0
PACZ 021948Z 22011KT 10SM BKN002 00/00 A2979 RMK AO2A SLP093,PACZ,2023-06-02T19:48:00Z,61.78,-166.03,0.0,0.0,220,11,,10.0,29.790354,1009.3,,,TRUE,,,,,,,BKN,200,,,,,,,LIFR,,,,,,,,,,,,METAR,129.0
KJDN 021948Z AUTO 02015G22KT 23/17 A2987 RMK AO1 SLP104 T02280172,KJDN,2023-06-02T19:48:00Z,47.33,-106.95,22.8,17.2,20,15,22,,29.870079,1010.4,,TRUE,TRUE,,,,,,,,,,,,,,,,,,,,,,,,,,,METAR,802.0
KIFP 021948Z 17008KT 10SM CLR 33/04 A2982,KIFP,2023-06-02T19:48:00Z,35.15,-114.57,33.0,4.0,170,8,,10.0,29.819881,,,,,,,,,,,CLR,,,,,,,,VFR,,,,,,,,,,,,METAR,210.0
KASG 021948Z 12007KT 10SM FEW055 29/20 A2997,KASG,2023-06-02T19:48:00Z,36.17,-94.12,29.0,20.0,120,7,,10.0,29.970472,,,,,,,,,,,FEW,5500,,,,,,,VFR,,,,,,,,,,,,METAR,410.0
K1IN 021948Z AUTO 13003KT 10SM FEW041 FEW055 BKN110 25/15 A2991 RMK AO2 LTG DSNT S AND W-NW RAB25E48 PRESFR SLP125 $,K1IN,2023-06-02T19:48:00Z,,,25.0,15.0,130,3,,10.0,29.911417,1012.5,,TRUE,TRUE,TRUE,,,,,,FEW,4100,FEW,5500,BKN,11000,,,VFR,,,,,,,,,,,,SPECI,
SBFN 021947Z AUTO 13009KT 9999 FEW021 27/24 Q1012,SBFN,2023-06-02T19:47:00Z,-3.85,-32.42,27.0,24.0,130,9,,6.21,29.88189,,,TRUE,,,,,,,,FEW,2100,,,,,,,VFR,,,,,,,,,,,,METAR,52.0
PGUM 021947Z 14012G19KT 2SM RA BR FEW008 BKN023 OVC030 24/24 A2989 RMK AO2 RAB1858 P0068 T02440239,PGUM,2023-06-02T19:47:00Z,13.48,144.8,24.4,23.9,140,12,19,2.0,29.890747,,,,TRUE,,,,,,RA BR,FEW,800,BKN,2300,OVC,3000,,,IFR,,,,,,0.68,,,,,,METAR,74.0
MMCM 021947Z 12010KT 7SM SCT020 SCT100 34/25 A2969 RMK 8/520,MMCM,2023-06-02T19:47:00Z,18.5,-88.33,34.0,25.0,120,10,,7.0,29.68996,,,,,,,,,,,SCT,2000,SCT,10000,,,,,VFR,,,,,,,,,,,,METAR,10.0
KTIX 021947Z 06011G16KT 7SM SCT030 31/21 A2975,KTIX,2023-06-02T19:47:00Z,28.5,-80.8,31.0,21.0,60,11,16,7.0,29.749016,,,,,,,,,,,SCT,3000,,,,,,,VFR,,,,,,,,,,,,METAR,10.0
KSEE 021947Z 27007KT 10SM BKN028 21/13 A2998,KSEE,2023-06-02T19:47:00Z,32.82,-116.97,21.0,13.0,270,7,,10.0,29.97933,,,,,,,,,,,BKN,2800,,,,,,,MVFR,,,,,,,,,,,,METAR,113.0
KPAO 021947Z 01007KT 10SM SKC 18/11 A3000,KPAO,2023-06-02T19:47:00Z,37.47,-122.12,18.0,11.0,10,7,,10.0,30.0,,,,,,,,,,,SKC,,,,,,,,VFR,,,,,,,,,,,,METAR,2.0
KLBE 021947Z 02009G16KT 10SM FEW095 SCT120 30/07 A2996,KLBE,2023-06-02T19:47:00Z,40.27,-79.4,30.0,7.0,20,9,16,10.0,29.958662,,,,,,,,,,,FEW,9500,SCT,12000,,,,,VFR,,,,,,,,,,,,METAR,345.0
KIWA 021947Z 24011KT 10SM CLR 31/05 A2989 FU,KIWA,2023-06-02T19:47:00Z,33.3,-111.65,31.0,5.0,240,11,,10.0,29.890747,,,,,,,,,,FU,CLR,,,,,,,,VFR,,,,,,,,,,,,METAR,420.0
KHSA 021947Z 04003G11KT 10SM SCT060 BKN095 32/17 A2984,KHSA,2023-06-02T19:47:00Z,30.37,-89.45,32.0,17.0,40,3,11,10.0,29.840551,,,,,,,,,,,SCT,6000,BKN,9500,,,,,VFR,,,,,,,,,,,,METAR,6.0
KGYR 021947Z 21009KT 10SM FEW100 FEW250 31/04 A2987,KGYR,2023-06-02T19:47:00Z,33.42,-112.37,31.0,4.0,210,9,,10.0,29.870079,,,,,,,,,,,FEW,10000,FEW,25000,,,,,VFR,,,,,,,,,,,,METAR,292.0
KGYH 021947Z 06010KT 10SM CLR 28/11 A2990,KGYH,2023-06-02T19:47:00Z,34.75,-82.38,28.0,11.0,60,10,,10.0,29.899607,,,,,,,,,,,CLR,,,,,,,,VFR,,,,,,,,,,,,METAR,283.0
KGEU 021947Z VRB06KT 10SM SKC 31/03 A2985,KGEU,2023-06-02T19:47:00Z,33.53,-112.3,31.0,3.0,0,6,,10.0,29.84941,,,,,,,,,,,SKC,,,,,,,,VFR,,,,,,,,,,,,METAR,319.0
KFDK 021947Z 01006KT 10SM CLR 35/10 A2988,KFDK,2023-06-02T19:47:00Z,39.42,-77.37,35.0,10.0,10,6,,10.0,29.878937,,,,,,,,,,,CLR,,,,,,,,VFR,,,,,,,,,,,,METAR,82.0
KEVB 021947Z 04016G22KT 10SM SCT016 BKN023 27/23 A2977,KEVB,2023-06-02T19:47:00Z,29.05,-80.95,27.0,23.0,40,16,22,10.0,29.769686,,,,,,,,,,,SCT,1600,BKN,2300,,,,,MVFR,,,,,,,,,,,,METAR,2.0
KCWA 021947Z 02016G22KT 10SM VCTS -RA BKN060 BKN075 BKN120 23/17 A3012 RMK LTG DSNT N TSB 1930 TS VC NW MOV SW,KCWA,2023-06-02T19:47:00Z,44.78,-89.67,23.0,17.0,20,16,22,10.0,30.121063,,,,,,,,,,VCTS -RA,BKN,6000,BKN,7500,BKN,12000,,,VFR,,,,,,,,,,,,SPECI,387.0
KCQT 021947Z AUTO 00000KT 10SM BKN037 22/12 A2998 RMK AO2 SLP151 T02170117,KCQT,2023-06-02T19:47:00Z,34.02,-118.28,21.7,11.7,0,0,,10.0,29.97933,1015.1,,TRUE,TRUE,,,,,,,BKN,3700,,,,,,,VFR,,,,,,,,,,,,METAR,51.0
KCIC 021947Z 22004KT 10SM CLR 27/10 A2994,KCIC,2023-06-02T19:47:00Z,39.78,-121.85,27.0,10.0,220,4,,10.0,29.940945,,,,,,,,,,,CLR,,,,,,,,VFR,,,,,,,,,,,,METAR,72.0
KCHD 021947Z VRB06KT 10SM CLR 31/03 A2987,KCHD,2023-06-02T19:47:00Z,33.27,-111.82,31.0,3.0,0,6,,10.0,29.870079,,,,,,,,,,,CLR,,,,,,,,VFR,,,,,,,,,,,,METAR,378.0
KCFO 021947Z 05006KT 10SM SCT055 BKN095 22/06 A2993,KCFO,2023-06-02T19:47:00Z,39.78,-104.55,22.0,6.0,50,6,,10.0,29.929134,,,,,,,,,,,SCT,5500,BKN,9500,,,,,VFR,,,,,,,,,,,,METAR,1672.0
KADS 021947Z 15008G16KT 10SM SCT055 SCT070 33/16 A2989,KADS,2023-06-02T19:47:00Z,32.97,-96.83,33.0,16.0,150,8,16,10.0,29.890747,,,,,,,,,,,SCT,5500,SCT,7000,,,,,VFR,,,,,,,,,,,,METAR,198.0
CYTR 021947Z CCA 20007KT 15SM TS BKN060CB OVC220 27/17 A2995 RMK CB5CI3 DENSITY ALT 1917FT CB OHD MOV S OCNL LTGCC SLP141,CYTR,2023-06-02T19:47:00Z,44.12,-77.52,27.0,17.0,200,7,,15.0,29.949802,1014.1,,,,,,,,,TS,BKN,6000,OVC,22000,,,,,VFR,,,,,,,,,,,,SPECI,80.0
CYRV 021947Z AUTO 19006KT 9SM CLR 22/12 A2993 RMK SLP133 DENSITY ALT 2600FT,CYRV,2023-06-02T19:47:00Z,50.97,-118.17,22.0,12.0,190,6,,9.0,29.929134,1013.3,,TRUE,,,,,,,,CLR,,,,,,,,VFR,,,,,,,,,,,,SPECI,456.0
CYPY 021947Z AUTO 12005KT 3SM HZ SCT030 OVC035 18/11 A3008 RMK SLP194 DENSITY ALT 1100FT,CYPY,2023-06-02T19:47:00Z,58.77,-111.12,18.0,11.0,120,5,,3.0,30.079725,1019.4,,TRUE,,,,,,,HZ,SCT,3000,OVC,3500,,,,,MVFR,,,,,,,,,,,,SPECI,225.0
RJTR 021946Z AUTO 35005KT 1 3/4SM +RA BR OVC017 19/19 A2947 RMK AO2 VIS 1 3/4V2 1/4 SLP980 $,RJTR,2023-06-02T19:46:00Z,35.52,139.4,19.0,19.0,350,5,,1.75,29.471457,998.0,,TRUE,TRUE,TRUE,,,,,+RA BR,OVC,1700,,,,,,,IFR,,,,,,,,,,,,METAR,106.0
MMMD 021946Z 36010KT 7SM SCT025 33/20 A2976 RMK 8/100 MDT CU,MMMD,2023-06-02T19:46:00Z,20.95,-89.65,33.0,20.0,360,10,,7.0,29.760826,,,,,,,,,,,SCT,2500,,,,,,,VFR,,,,,,,,,,,,METAR,10.0
KAIT 021946Z AUTO 18010KT 10SM CLR 29/18 A3005 RMK AO2,KAIT,2023-06-02T19:46:00Z,46.53,-93.67,29.0,18.0,180,10,,10.0,30.050198,,,TRUE,TRUE,,,,,,,CLR,,,,,,,,VFR,,,,,,,,,,,,SPECI,367.0
K1HN 021946Z AUTO 16012G20KT 10SM FEW047 SCT060 BKN075 BKN100 BKN120 27/17 A2988 RMK AO2 LTG DSNT SW AND NW RAB09E22RAB32E46 SLP117 $,K1HN,2023-06-02T19:46:00Z,,,27.0,17.0,160,12,20,10.0,29.878937,1011.7,,TRUE,TRUE,TRUE,,,,,,FEW,4700,SCT,6000,BKN,7500,BKN,10000,VFR,,,,,,,,,,,,SPECI,
CYER 021946Z AUTO 09011G17KT 7SM FEW240 10/05 A3030 RMK SLP263,CYER,2023-06-02T19:46:00Z,56.02,-87.68,10.0,5.0,90,11,17,7.0,30.301182,1026.3,,TRUE,,,,,,,,FEW,24000,,,,,,,VFR,,,,,,,,,,,,SPECI,11.0
TJIG 021945Z 17011G17KT 10SM SCT035 BKN065 33/24 A2983,TJIG,2023-06-02T19:45:00Z,18.45,-66.1,33.0,24.0,170,11,17,10.0,29.828741,,,,,,,,,,,SCT,3500,BKN,6500,,,,,VFR,,,,,,,,,,,,METAR,3.0
PALP 021945Z 08006KT 10SM OVC011 00/M04 A2972,PALP,2023-06-02T19:45:00Z,70.33,-150.93,0.0,-4.0,80,6,,10.0,29.719488,,,,,,,,,,,OVC,1100,,,,,,,MVFR,,,,,,,,,,,,METAR,4.0
MMCE 021945Z 01010KT 7SM SKC 31/23 A2977,MMCE,2023-06-02T19:45:00Z,18.65,-91.8,31.0,23.0,10,10,,7.0,29.769686,,,,,,,,,,,SKC,,,,,,,,VFR,,,,,,,,,,,,METAR,5.0
LMML 021945Z VRB02KT 9999 FEW016 20/17 Q1015 NOSIG,LMML,2023-06-02T19:45:00Z,35.85,14.47,20.0,17.0,0,2,,6.21,29.970472,,,,,,TRUE,,,,,FEW,1600,,,,,,,VFR,,,,,,,,,,,,METAR,78.0
LIRP 021945Z 26004KT CAVOK 19/17 Q1012 NOSIG,LIRP,2023-06-02T19:45:00Z,43.68,10.38,19.0,17.0,260,4,,6.21,29.88189,,,,,,TRUE,,,,,CAVOK,,,,,,,,VFR,,,,,,,,,,,,METAR,1.0
LHSN 021945Z 04010KT 360V080 CAVOK 21/13 Q1012 NOSIG RMK BLU,LHSN,2023-06-02T19:45:00Z,47.12,20.23,21.0,13.0,40,10,,6.21,29.88189,,,,,,TRUE,,,,,CAVOK,,,,,,,,VFR,,,,,,,,,,,,SPECI,89.0
LHKE 021945Z 32006KT CAVOK 20/14 Q1012 NOSIG RMK BLU,LHKE,2023-06-02T19:45:00Z,46.92,19.75,20.0,14.0,320,6,,6.21,29.88189,,,,,,TRUE,,,,,CAVOK,,,,,,,,VFR,,,,,,,,,,,,SPECI,113.0
KWDG 021945Z 13012KT 10SM SCT050 BKN080 30/19 A2989,KWDG,2023-06-02T19:45:00Z,36.37,-97.78,30.0,19.0,130,12,,10.0,29.890747,,,,,,,,,,,SCT,5000,BKN,8000,,,,,VFR,,,,,,,,,,,,METAR,352.0
KW29 021945Z AUTO 18003KT 10SM CLR 32/16 A2986 RMK AO2 T03210161,KW29,2023-06-02T19:45:00Z,38.98,-76.33,32.1,16.1,180,3,,10.0,29.861221,,,TRUE,TRUE,,,,,,,CLR,,,,,,,,VFR,,,,,,,,,,,,METAR,1.0
KVUJ 021945Z AUTO 03009G15KT 10SM CLR 29/10 A2993 RMK AO2 T02920102,KVUJ,2023-06-02T19:45:00Z,35.42,-80.15,29.2,10.2,30,9,15,10.0,29.929134,,,TRUE,TRUE,,,,,,,CLR,,,,,,,,VFR,,,,,,,,,,,,SPECI,174.0
KUKF 021945Z AUTO 05008KT 10SM CLR 27/10 A2998 RMK AO2,KUKF,2023-06-02T19:45:00Z,36.22,-81.1,27.0,10.0,50,8,,10.0,29.97933,,,TRUE,TRUE,,,,,,,CLR,,,,,,,,VFR,,,,,,,,,,,,SPECI,383.0
KUES 021945Z 10008KT 10SM CLR 29/09 A3008,KUES,2023-06-02T19:45:00Z,43.05,-88.25,29.0,9.0,100,8,,10.0,30.079725,,,,,,,,,,,CLR,,,,,,,,VFR,,,,,,,,,,,,METAR,273.0
KTZR 021945Z 04006KT 10SM CLR 32/10 A2998,KTZR,2023-06-02T19:45:00Z,39.9,-83.13,32.0,10.0,40,6,,10.0,29.97933,,,,,,,,,,,CLR,,,,,,,,VFR,,,,,,,,,,,,METAR,275.0
KTTA 021945Z AUTO 06008KT 10SM OVC050 27/15 A2988 RMK AO2 T02660153,KTTA,2023-06-02T19:45:00Z,35.58,-79.1,26.6,15.3,60,8,,10.0,29.878937,,,TRUE,TRUE,,,,,,,OVC,5000,,,,,,,VFR,,,,,,,,,,,,SPECI,71.0
KTDF 021945Z AUTO 07009G14KT 10SM CLR 26/11 A2992 RMK AO2,KTDF,2023-06-02T19:45:00Z,36.28,-78.98,26.0,11.0,70,9,14,10.0,29.920275,,,TRUE,TRUE,,,,,,,CLR,,,,,,,,VFR,,,,,,,,,,,,SPECI,180.0
KSVH 021945Z AUTO 06011G14KT 10SM CLR 29/09 A2991 RMK AO2 T02880090,KSVH,2023-06-02T19:45:00Z,35.75,-80.95,28.8,9.0,60,11,14,10.0,29.911417,,,TRUE,TRUE,,,,,,,CLR,,,,,,,,VFR,,,,,,,,,,,,SPECI,286.0
KSIF 021945Z AUTO 06007G15KT 020V100 10SM CLR 29/11 A2991 RMK AO2 T02880114,KSIF,2023-06-02T19:45:00Z,36.43,-79.85,28.8,11.4,60,7,15,10.0,29.911417,,,TRUE,TRUE,,,,,,,CLR,,,,,,,,VFR,,,,,,,,,,,,SPECI,206.0
KSCR 021945Z AUTO 03008KT 350V070 10SM CLR 28/14 A2990 RMK AO2 T02780142,KSCR,2023-06-02T19:45:00Z,35.7,-79.5,27.8,14.2,30,8,,10.0,29.899607,,,TRUE,TRUE,,,,,,,CLR,,,,,,,,VFR,,,,,,,,,,,,SPECI,182.0
KSCH 021945Z 32010G14KT 15SM BKN100 29/13 A2990,KSCH,2023-06-02T19:45:00Z,42.85,-73.92,29.0,13.0,320,10,14,15.0,29.899607,,,,,,,,,,,BKN,10000,,,,,,,VFR,,,,,,,,,,,,METAR,100.0
KSAW 021945Z 04013KT 10SM CLR 27/11 A3013,KSAW,2023-06-02T19:45:00Z,46.35,-87.4,27.0,11.0,40,13,,10.0,30.129921,,,,,,,,,,,CLR,,,,,,,,VFR,,,,,,,,,,,,METAR,359.0
KS71 021945Z AUTO 00000KT 2 1/2SM 15/15 A3005 ,KS71,2023-06-02T19:45:00Z,48.6,-109.25,15.0,15.0,0,0,,2.5,30.050198,,,TRUE,,,,,,,,,,,,,,,,,,,,,,,,,,,,METAR,736.0
KRYN 021945Z 03004KT 10SM CLR 29/M04 A2990,KRYN,2023-06-02T19:45:00Z,32.15,-111.17,29.0,-4.0,30,4,,10.0,29.899607,,,,,,,,,,,CLR,,,,,,,,VFR,,,,,,,,,,,,METAR,731.0
KRUQ 021945Z AUTO 04011KT 10SM CLR 29/09 A2990 RMK AO2 T02850094,KRUQ,2023-06-02T19:45:00Z,35.65,-80.52,28.5,9.4,40,11,,10.0,29.899607,,,TRUE,TRUE,,,,,,,CLR,,,,,,,,VFR,,,,,,,,,,,,SPECI,231.0
KPGV 021945Z AUTO 05007KT 10SM SCT040 SCT050 28/19 A2985 RMK AO2,KPGV,2023-06-02T19:45:00Z,35.63,-77.4,28.0,19.0,50,7,,10.0,29.84941,,,TRUE,TRUE,,,,,,,SCT,4000,SCT,5000,,,,,VFR,,,,,,,,,,,,SPECI,6.0
KOUN 021945Z 11013G20KT 10SM SCT050 31/17 A2988,KOUN,2023-06-02T19:45:00Z,35.25,-97.47,31.0,17.0,110,13,20,10.0,29.878937,,,,,,,,,,,SCT,5000,,,,,,,VFR,,,,,,,,,,,,METAR,359.0
KONX 021945Z AUTO 02006KT 10SM BKN010 22/19 A2988 RMK AO2 T02200190,KONX,2023-06-02T19:45:00Z,36.4,-76.02,22.0,19.0,20,6,,10.0,29.878937,,,TRUE,TRUE,,,,,,,BKN,1000,,,,,,,MVFR,,,,,,,,,,,,SPECI,4.0
KOCW 021945Z AUTO 08006KT 10SM SCT038 SCT047 27/17 A2986 RMK AO2 T02730173,KOCW,2023-06-02T19:45:00Z,35.57,-77.05,27.3,17.3,80,6,,10.0,29.861221,,,TRUE,TRUE,,,,,,,SCT,3800,SCT,4700,,,,,VFR,,,,,,,,,,,,SPECI,10.0
KMWK 021945Z AUTO 04009KT 10SM CLR 28/12 A2995 RMK AO2 T02840120,KMWK,2023-06-02T19:45:00Z,36.47,-80.55,28.4,12.0,40,9,,10.0,29.949802,,,TRUE,TRUE,,,,,,,CLR,,,,,,,,VFR,,,,,,,,,,,,SPECI,374.0
KMWC 021945Z 11007KT 10SM CLR 28/13 A3007,KMWC,2023-06-02T19:45:00Z,43.12,-88.03,28.0,13.0,110,7,,10.0,30.070866,,,,,,,,,,,CLR,,,,,,,,VFR,,,,,,,,,,,,METAR,225.0
KMWA 021945Z 11003KT 20SM SCT100 32/16 A2994,KMWA,2023-06-02T19:45:00Z,37.77,-89.02,32.0,16.0,110,3,,20.0,29.940945,,,,,,,,,,,SCT,10000,,,,,,,VFR,,,,,,,,,,,,METAR,142.0
KMRN 021945Z AUTO 07005KT 10SM CLR 30/09 A2993 RMK AO2 T02950091,KMRN,2023-06-02T19:45:00Z,35.82,-81.62,29.5,9.1,70,5,,10.0,29.929134,,,TRUE,TRUE,,,,,,,CLR,,,,,,,,VFR,,,,,,,,,,,,SPECI,375.0
KMMU 021945Z 34008KT 10SM SCT100 34/11 A2983,KMMU,2023-06-02T19:45:00Z,40.78,-74.42,34.0,11.0,340,8,,10.0,29.828741,,,,,,,,,,,SCT,10000,,,,,,,VFR,,,,,,,,,,,,METAR,55.0
KMHR 021945Z 32007KT 10SM CLR 25/10 A2993,KMHR,2023-06-02T19:45:00Z,38.55,-121.28,25.0,10.0,320,7,,10.0,29.929134,,,,,,,,,,,CLR,,,,,,,,VFR,,,,,,,,,,,,METAR,30.0
KMCZ 021945Z AUTO 04005KT 10SM BKN040 BKN046 BKN065 27/18 A2986 RMK AO2 T02680178,KMCZ,2023-06-02T19:45:00Z,,,26.8,17.8,40,5,,10.0,29.861221,,,TRUE,TRUE,,,,,,,BKN,4000,BKN,4600,BKN,6500,,,VFR,,,,,,,,,,,,SPECI,
KJVL 021945Z 11009KT 10SM BKN060 BKN250 33/11 A3003 RMK TCU,KJVL,2023-06-02T19:45:00Z,42.62,-89.05,33.0,11.0,110,9,,10.0,30.029528,,,,,,,,,,,BKN,6000,BKN,25000,,,,,VFR,,,,,,,,,,,,METAR,244.0
KJNX 021945Z AUTO 04007KT 10SM BKN041 BKN050 OVC060 27/18 A2986 RMK AO2,KJNX,2023-06-02T19:45:00Z,35.53,-78.38,27.0,18.0,40,7,,10.0,29.861221,,,TRUE,TRUE,,,,,,,BKN,4100,BKN,5000,OVC,6000,,,VFR,,,,,,,,,,,,METAR,41.0
KIPJ 021945Z AUTO 07008KT 050V110 10SM CLR 29/11 A2990 RMK AO2 T02910105,KIPJ,2023-06-02T19:45:00Z,35.48,-81.17,29.1,10.5,70,8,,10.0,29.899607,,,TRUE,TRUE,,,,,,,CLR,,,,,,,,VFR,,,,,,,,,,,,SPECI,266.0
KHRJ 021945Z AUTO 03011KT 360V060 10SM SCT039 SCT060 28/18 A2988 RMK AO2 T02760176,KHRJ,2023-06-02T19:45:00Z,35.38,-78.73,27.6,17.6,30,11,,10.0,29.878937,,,TRUE,TRUE,,,,,,,SCT,3900,SCT,6000,,,,,VFR,,,,,,,,,,,,SPECI,55.0
KHRF 021945Z AUTO 01007KT 10SM OVC075 17/12 A3004 RMK AO2 Hamilton ,KHRF,2023-06-02T19:45:00Z,46.25,-114.13,17.0,12.0,10,7,,10.0,30.041338,,,TRUE,TRUE,,,,,,,OVC,7500,,,,,,,VFR,,,,,,,,,,,,METAR,1112.0
KHBI 021945Z AUTO 02008G16KT 10SM CLR 28/10 A2991 RMK AO2 T02790104,KHBI,2023-06-02T19:45:00Z,35.65,-79.9,27.9,10.4,20,8,16,10.0,29.911417,,,TRUE,TRUE,,,,,,,CLR,,,,,,,,VFR,,,,,,,,,,,,SPECI,199.0
KGEV 021945Z AUTO 08008G15KT 10SM CLR 23/09 A3003 RMK AO2 T02280089,KGEV,2023-06-02T19:45:00Z,36.43,-81.42,22.8,8.9,80,8,15,10.0,30.029528,,,TRUE,TRUE,,,,,,,CLR,,,,,,,,VFR,,,,,,,,,,,,SPECI,961.0
KFQD 021945Z AUTO 08006KT 10SM CLR 28/09 A2992 RMK AO2,KFQD,2023-06-02T19:45:00Z,35.42,-81.93,28.0,9.0,80,6,,10.0,29.920275,,,TRUE,TRUE,,,,,,,CLR,,,,,,,,VFR,,,,,,,,,,,,SPECI,325.0
KFMH 021945Z 23005KT 10SM CLR 27/11 A2986,KFMH,2023-06-02T19:45:00Z,41.65,-70.52,27.0,11.0,230,5,,10.0,29.861221,,,,,,,,,,,CLR,,,,,,,,VFR,,,,,,,,,,,,METAR,35.0
KESN 021945Z 00000KT 10SM CLR 31/15 A2986,KESN,2023-06-02T19:45:00Z,38.8,-76.07,31.0,15.0,0,0,,10.0,29.861221,,,,,,,,,,,CLR,,,,,,,,VFR,,,,,,,,,,,,METAR,14.0
KEMT 021945Z 35004KT 10SM BKN036 21/12 A2998,KEMT,2023-06-02T19:45:00Z,34.08,-118.03,21.0,12.0,350,4,,10.0,29.97933,,,,,,,,,,,BKN,3600,,,,,,,VFR,,,,,,,,,,,,METAR,84.0
KEHO 021945Z AUTO 03009G15KT 10SM CLR 28/09 A2991 RMK AO2 T02830093,KEHO,2023-06-02T19:45:00Z,35.25,-81.6,28.3,9.3,30,9,15,10.0,29.911417,,,TRUE,TRUE,,,,,,,CLR,,,,,,,,VFR,,,,,,,,,,,,SPECI,261.0
KEDE 021945Z AUTO 07007G14KT 10SM SCT026 BKN035 BKN042 27/23 A2988 RMK AO2 T02700227,KEDE,2023-06-02T19:45:00Z,36.03,-76.57,27.0,22.7,70,7,14,10.0,29.878937,,,TRUE,TRUE,,,,,,,SCT,2600,BKN,3500,BKN,4200,,,VFR,,,,,,,,,,,,SPECI,4.0
KDPL 021945Z AUTO 03006KT 10SM SCT031 SCT042 OVC055 26/19 A2986 RMK AO2,KDPL,2023-06-02T19:45:00Z,35.0,-77.97,26.0,19.0,30,6,,10.0,29.861221,,,TRUE,TRUE,,,,,,,SCT,3100,SCT,4200,OVC,5500,,,VFR,,,,,,,,,,,,SPECI,39.0
KDMW 021945Z AUTO 34004KT 10SM SCT085 34/12 A2990 RMK AO2,KDMW,2023-06-02T19:45:00Z,39.6,-77.0,34.0,12.0,340,4,,10.0,29.899607,,,TRUE,TRUE,,,,,,,SCT,8500,,,,,,,VFR,,,,,,,,,,,,METAR,239.0
KCWF 021945Z 03005KT 10SM SCT050 32/18 A2987,KCWF,2023-06-02T19:45:00Z,30.22,-93.15,32.0,18.0,30,5,,10.0,29.870079,,,,,,,,,,,SCT,5000,,,,,,,VFR,,,,,,,,,,,,METAR,4.0
KCTZ 021945Z AUTO 04005KT 10SM OVC050 27/19 A2986 RMK AO2 T02720191,KCTZ,2023-06-02T19:45:00Z,34.98,-78.37,27.2,19.1,40,5,,10.0,29.861221,,,TRUE,TRUE,,,,,,,OVC,5000,,,,,,,VFR,,,,,,,,,,,,SPECI,43.0
KCPC 021945Z AUTO 05008KT 7SM BKN041 BKN046 OVC050 25/19 A2986 RMK AO2 T02510185,KCPC,2023-06-02T19:45:00Z,34.28,-78.72,25.1,18.5,50,8,,7.0,29.861221,,,TRUE,TRUE,,,,,,,BKN,4100,BKN,4600,OVC,5000,,,VFR,,,,,,,,,,,,SPECI,27.0
KCGF 021945Z 35007KT 10SM CLR 27/16 A3002,KCGF,2023-06-02T19:45:00Z,41.57,-81.47,27.0,16.0,350,7,,10.0,30.02067,,,,,,,,,,,CLR,,,,,,,,VFR,,,,,,,,,,,,METAR,265.0
KCGE 021945Z AUTO 34006KT 10SM CLR 30/16 A2987 RMK A01,KCGE,2023-06-02T19:45:00Z,38.53,-76.03,30.0,16.0,340,6,,10.0,29.870079,,,TRUE,TRUE,,,,,,,CLR,,,,,,,,VFR,,,,,,,,,,,,METAR,5.0
KCEF 021945Z VRB06KT 10SM -TSRA FEW075 BKN085 BKN200 29/14 A2982 RMK AO2A SLP103,KCEF,2023-06-02T19:45:00Z,42.2,-72.52,29.0,14.0,0,6,,10.0,29.819881,1010.3,,,TRUE,,,,,,-TSRA,FEW,7500,BKN,8500,BKN,20000,,,VFR,,,,,,,,,,,,METAR,72.0
KCBE 021945Z AUTO 07007KT 10SM CLR 33/09 A2997 RMK AO2 T03260095,KCBE,2023-06-02T19:45:00Z,39.62,-78.77,32.6,9.5,70,7,,10.0,29.970472,,,TRUE,TRUE,,,,,,,CLR,,,,,,,,VFR,,,,,,,,,,,,METAR,226.0
KBBG 021945Z 14003KT 10SM SCT050 29/17 A2998,KBBG,2023-06-02T19:45:00Z,36.53,-93.2,29.0,17.0,140,3,,10.0,29.97933,,,,,,,,,,,SCT,5000,,,,,,,VFR,,,,,,,,,,,,METAR,403.0
KBAK 021945Z 08010G15KT 10SM CLR 32/06 A2998,KBAK,2023-06-02T19:45:00Z,39.27,-85.9,32.0,6.0,80,10,15,10.0,29.97933,,,,,,,,,,,CLR,,,,,,,,VFR,,,,,,,,,,,,METAR,199.0
KATW 021945Z 05010KT 10SM SCT065 31/14 A3006,KATW,2023-06-02T19:45:00Z,44.27,-88.52,31.0,14.0,50,10,,10.0,30.059055,,,,,,,,,,,SCT,6500,,,,,,,VFR,,,,,,,,,,,,METAR,266.0
KASJ 021945Z AUTO 07006KT 10SM SCT035 SCT044 BKN060 27/18 A2987 RMK AO2 T02650181,KASJ,2023-06-02T19:45:00Z,36.28,-77.17,26.5,18.1,70,6,,10.0,29.870079,,,TRUE,TRUE,,,,,,,SCT,3500,SCT,4400,BKN,6000,,,VFR,,,,,,,,,,,,SPECI,20.0
KACZ 021945Z AUTO 02007KT 10SM SCT028 SCT035 OVC060 26/19 A2984 RMK AO2 T02560191,KACZ,2023-06-02T19:45:00Z,,,25.6,19.1,20,7,,10.0,29.840551,,,TRUE,TRUE,,,,,,,SCT,2800,SCT,3500,OVC,6000,,,VFR,,,,,,,,,,,,SPECI,
K7W6 021945Z AUTO 02009KT 10SM SCT019 SCT024 BKN110 24/20 A2986 RMK AO2 T02370200,K7W6,2023-06-02T19:45:00Z,35.55,-75.95,23.7,20.0,20,9,,10.0,29.861221,,,TRUE,TRUE,,,,,,,SCT,1900,SCT,2400,BKN,11000,,,VFR,,,,,,,,,,,,SPECI,1.0
K3U3 021945Z AUTO 34007KT 10SM 12/10 A3012 ,K3U3,2023-06-02T19:45:00Z,46.15,-112.87,12.0,10.0,340,7,,10.0,30.121063,,,TRUE,,,,,,,,,,,,,,,,,,,,,,,,,,,,METAR,1534.0
K38S 021945Z AUTO 32004KT 5SM 12/12 A3015 ,K38S,2023-06-02T19:45:00Z,46.38,-112.77,12.0,12.0,320,4,,5.0,30.15059,,,TRUE,,,,,,,,,,,,,,,,,,,,,,,,,,,,METAR,1430.0
K2G4 021945Z AUTO VRB04KT 10SM SCT075 26/08 A3005 RMK AO2,K2G4,2023-06-02T19:45:00Z,39.58,-79.33,26.0,8.0,0,4,,10.0,30.050198,,,TRUE,TRUE,,,,,,,SCT,7500,,,,,,,VFR,,,,,,,,,,,,METAR,908.0
K24A 021945Z AUTO 07003KT 10SM CLR 27/10 A2999 RMK AO2 T02660104,K24A,2023-06-02T19:45:00Z,35.32,-83.2,26.6,10.4,70,3,,10.0,29.991142,,,TRUE,TRUE,,,,,,,CLR,,,,,,,,VFR,,,,,,,,,,,,SPECI,864.0
K1S3 021945Z AUTO 09011G14KT 10SM 25/14 A2983 ,K1S3,2023-06-02T19:45:00Z,46.27,-106.62,25.0,14.0,90,11,14,10.0,29.828741,,,TRUE,,,,,,,,,,,,,,,,,,,,,,,,,,,,METAR,831.0
K1GN 021945Z AUTO 13011KT 10SM SCT160 28/16 A2989 RMK AO2 LTG DSNT SW RAB34E45 SLP122 $,K1GN,2023-06-02T19:45:00Z,,,28.0,16.0,130,11,,10.0,29.890747,1012.2,,TRUE,TRUE,TRUE,,,,,,SCT,16000,,,,,,,VFR,,,,,,,,,,,,SPECI,
ETNW 021945Z 06006KT 9999 FEW068 15/05 Q1021 BLU+FCST CNL,ETNW,2023-06-02T19:45:00Z,52.45,9.42,15.0,5.0,60,6,,6.21,30.147638,,,,,,,,,,,FEW,6800,,,,,,,VFR,,,,,,,,,,,,SPECI,57.0
CYPL 021945Z AUTO 19004KT 9SM FEW047 OVC110 21/18 A3019 RMK SLP227 DENSITY ALT 2000FT,CYPL,2023-06-02T19:45:00Z,51.43,-90.22,21.0,18.0,190,4,,9.0,30.188976,1022.7,,TRUE,,,,,,,,FEW,4700,OVC,11000,,,,,VFR,,,,,,,,,,,,SPECI,390.0
CWPF 021945Z AUTO 17009KT 14/07 RMK AO1 SLP194 T01430067 53002,CWPF,2023-06-02T19:45:00Z,48.43,-123.43,14.3,6.7,170,9,,,,1019.4,,TRUE,TRUE,,,,,,,,,,,,,,,,0.2,,,,,,,,,,,METAR,5.0
YSNF 021944Z AUTO 16006KT 9999 // SCT016 SCT030 17/15 Q1024,YSNF,2023-06-02T19:44:00Z,-29.03,167.93,17.0,15.0,160,6,,6.21,30.236221,,,TRUE,,,,,,,,SCT,1600,SCT,3000,,,,,VFR,,,,,,,,,,,,METAR,113.0
YFRT 021944Z AUTO 27009KT 9999 // SCT008 BKN013 OVC028 13/12 Q1015,YFRT,2023-06-02T19:44:00Z,-30.83,128.12,13.0,12.0,270,9,,6.21,29.970472,,,TRUE,,,,,,,,SCT,800,BKN,1300,OVC,2800,,,MVFR,,,,,,,,,,,,SPECI,159.0
SBSV 021944Z 18012KT 5000 -RA BR SCT012 BKN015 FEW025TCU BKN100 26/24 Q1015 RESHRA,SBSV,2023-06-02T19:44:00Z,-12.9,-38.32,26.0,24.0,180,12,,3.11,29.970472,,,,,,,,,,-RA BR,SCT,1200,BKN,1500,FEW,2500,BKN,10000,MVFR,,,,,,,,,,,,METAR,9.0
OESK 021944Z 20020KT 3000 BLDU TS FEW030CB BKN040 31/08 Q1017,OESK,2023-06-02T19:44:00Z,29.78,40.1,31.0,8.0,200,20,,1.86,30.029528,,,,,,,,,,BLDU TS,FEW,3000,BKN,4000,,,,,IFR,,,,,,,,,,,,SPECI,671.0
MMUN 021944Z 31011KT 7SM BKN015TCU 33/23 A2970 RMK 8/200,MMUN,2023-06-02T19:44:00Z,21.03,-86.85,33.0,23.0,310,11,,7.0,29.698818,,,,,,,,,,,BKN,1500,,,,,,,MVFR,,,,,,,,,,,,METAR,13.0
MMCV 021944Z 17004KT 7SM BKN020 31/21 A2984 RMK 8/500 HZY ISOL AC,MMCV,2023-06-02T19:44:00Z,23.72,-98.97,31.0,21.0,170,4,,7.0,29.840551,,,,,,,,,,,BKN,2000,,,,,,,MVFR,,,,,,,,,,,,METAR,230.0
KHPN 021944Z 13005KT 10SM CLR 31/16 A2985 RMK AO2 T03110161,KHPN,2023-06-02T19:44:00Z,41.07,-73.7,31.1,16.1,130,5,,10.0,29.84941,,,,TRUE,,,,,,,CLR,,,,,,,,VFR,,,,,,,,,,,,SPECI,113.0
KDIK 021944Z AUTO 14018G27KT 10SM VCTS SCT055 BKN070 BKN120 27/16 A2987 RMK AO2 PK WND 13029/1906 LTG DSNT E AND NW T02670156,KDIK,2023-06-02T19:44:00Z,46.8,-102.8,26.7,15.6,140,18,27,10.0,29.870079,,,TRUE,TRUE,,,,,,VCTS,SCT,5500,BKN,7000,BKN,12000,,,VFR,,,,,,,,,,,,SPECI,788.0
CYQX 021944Z 35016KT 3/4SM R13/2800VP6000FT/U R03/P6000FT/U -DZ BR OVC001 03/03 A3014 RMK FG6ST2 SLP213,CYQX,2023-06-02T19:44:00Z,48.95,-54.58,3.0,3.0,350,16,,0.75,30.138779,1021.3,,,,,,,,,-DZ BR,OVC,100,,,,,,,LIFR,,,,,,,,,,,,SPECI,144.0
MMVA 021943Z 32007KT 6SM SCT018 34/24 A2977 RMK 8/100 HZLYR OVR STN,MMVA,2023-06-02T19:43:00Z,18.0,-92.82,34.0,24.0,320,7,,6.0,29.769686,,,,,,,,,,,SCT,1800,,,,,,,VFR,,,,,,,,,,,,METAR,13.0
MMPE 021942Z 21010KT 10SM SKC 27/10 A2988 RMK HZY RTS,MMPE,2023-06-02T19:42:00Z,31.35,-113.52,27.0,10.0,210,10,,10.0,29.878937,,,,,,,,,,,SKC,,,,,,,,VFR,,,,,,,,,,,,METAR,9.0
RJAH 021941Z 25003KT 2000 SHRA BR SCT003 BKN004 BKN012 21/21 Q0997 RMK 3ST003 6ST004 7CU012 A2945,RJAH,2023-06-02T19:41:00Z,36.17,140.42,21.0,21.0,250,3,,1.24,29.438976,,,,,,,,,,SHRA BR,SCT,300,BKN,400,BKN,1200,,,LIFR,,,,,,,,,,,,METAR,31.0
NLWW 021941Z 13005KT 090V160 9999 FEW011 BKN180 BKN230 26/25 Q1013 TEMPO 1500 TSRA BKN010 SCT016CB,NLWW,2023-06-02T19:41:00Z,-13.23,-176.18,26.0,25.0,130,5,,6.21,29.911417,,,,,,,,,,,FEW,1100,BKN,18000,BKN,23000,,,VFR,,,,,,,,,,,,METAR,24.0
PKWA 021940Z AUTO 10011KT 10SM SCT016 SCT022 SCT027 28/25 A2988 RMK AO2 T02750250 TSNO,PKWA,2023-06-02T19:40:00Z,8.72,167.72,27.5,25.0,100,11,,10.0,29.878937,,,TRUE,TRUE,,,TRUE,,,,SCT,1600,SCT,2200,SCT,2700,,,VFR,,,,,,,,,,,,METAR,6.0
MMPQ 021940Z 07010KT 6SM SCT040 35/23 A2963 RMK 8/100 HZY,MMPQ,2023-06-02T19:40:00Z,17.53,-92.02,35.0,23.0,70,10,,6.0,29.630905,,,,,,,,,,,SCT,4000,,,,,,,VFR,,,,,,,,,,,,METAR,48.0
MMMT 021940Z 36015KT 4SM SCT070 29/27 A2975 RMK 8/020 HZY,MMMT,2023-06-02T19:40:00Z,18.1,-94.57,29.0,27.0,360,15,,4.0,29.749016,,,,,,,,,,,SCT,7000,,,,,,,MVFR,,,,,,,,,,,,METAR,15.0
MMCZ 021940Z 13002KT 8SM SCT015TCU 35/23 A2970 RMK 8/200 SC,MMCZ,2023-06-02T19:40:00Z,20.52,-86.92,35.0,23.0,130,2,,8.0,29.698818,,,,,,,,,,,SCT,1500,,,,,,,VFR,,,,,,,,,,,,METAR,7.0
MMCP 021940Z 32015KT 7SM SKC 32/22 A2978 RMK DSNT CB NE AND SE,MMCP,2023-06-02T19:40:00Z,19.82,-90.5,32.0,22.0,320,15,,7.0,29.778543,,,,,,,,,,,SKC,,,,,,,,VFR,,,,,,,,,,,,METAR,9.0
KW40 021940Z AUTO 05009KT 10SM SCT037 BKN050 28/18 A2986 RMK AO2 T02800177,KW40,2023-06-02T19:40:00Z,35.22,-78.03,28.0,17.7,50,9,,10.0,29.861221,,,TRUE,TRUE,,,,,,,SCT,3700,BKN,5000,,,,,VFR,,,,,,,,,,,,SPECI,50.0
KS85 021940Z AUTO 09010G18KT 10SM 27/18 A2987 RMK A01 Culbertson ,KS85,2023-06-02T19:40:00Z,48.15,-104.5,27.0,18.0,90,10,18,10.0,29.870079,,,TRUE,TRUE,,,,,,,,,,,,,,,,,,,,,,,,,,,METAR,596.0
KJYL 021940Z AUTO 07009KT 10SM BKN060 27/17 A2986 RMK AO2 T02710168,KJYL,2023-06-02T19:40:00Z,32.65,-81.6,27.1,16.8,70,9,,10.0,29.861221,,,TRUE,TRUE,,,,,,,BKN,6000,,,,,,,VFR,,,,,,,,,,,,METAR,54.0
KIER 021940Z AUTO 13006KT 10SM SCT060 34/17 A2990 RMK AO2 T03350174,KIER,2023-06-02T19:40:00Z,31.73,-93.1,33.5,17.4,130,6,,10.0,29.899607,,,TRUE,TRUE,,,,,,,SCT,6000,,,,,,,VFR,,,,,,,,,,,,METAR,35.0
KI35 021940Z AUTO 36004KT 10SM CLR 31/11 A2996 RMK AO2,KI35,2023-06-02T19:40:00Z,36.87,-83.37,31.0,11.0,360,4,,10.0,29.958662,,,TRUE,TRUE,,,,,,,CLR,,,,,,,,VFR,,,,,,,,,,,,SPECI,467.0
KETC 021940Z AUTO 05008KT 7SM SCT048 SCT060 28/18 A2986 RMK AO2 T02760183,KETC,2023-06-02T19:40:00Z,35.93,-77.55,27.6,18.3,50,8,,7.0,29.861221,,,TRUE,TRUE,,,,,,,SCT,4800,SCT,6000,,,,,VFR,,,,,,,,,,,,SPECI,15.0
KCII 021940Z AUTO 33008KT 10SM 14/10 A3010 RMK A01 ,KCII,2023-06-02T19:40:00Z,47.83,-112.17,14.0,10.0,330,8,,10.0,30.100393,,,TRUE,TRUE,,,,,,,,,,,,,,,,,,,,,,,,,,,METAR,1202.0
KBDN 021940Z AUTO 15006KT 10SM CLR 21/M01 A3007 RMK AO2,KBDN,2023-06-02T19:40:00Z,44.1,-121.2,21.0,-1.0,150,6,,10.0,30.070866,,,TRUE,TRUE,,,,,,,CLR,,,,,,,,VFR,,,,,,,,,,,,METAR,1044.0
K6S8 021940Z AUTO 32015KT 1 1/2SM BR 14/14 A2994 RMK A01 LAUREL,K6S8,2023-06-02T19:40:00Z,45.7,-108.77,14.0,14.0,320,15,,1.5,29.940945,,,TRUE,TRUE,,,,,,BR,,,,,,,,,,,,,,,,,,,,,SPECI,1072.0
K4U6 021940Z AUTO 10015KT 10SM 25/16 A2985 RMK A01 Circle ,K4U6,2023-06-02T19:40:00Z,47.42,-105.57,25.0,16.0,100,15,,10.0,29.84941,,,TRUE,TRUE,,,,,,,,,,,,,,,,,,,,,,,,,,,METAR,739.0
CYYN 021940Z AUTO 34007KT 9SM FEW024 19/13 A3003 RMK SLP167 DENSITY ALT 3600FT,CYYN,2023-06-02T19:40:00Z,50.28,-107.68,19.0,13.0,340,7,,9.0,30.029528,1016.7,,TRUE,,,,,,,,FEW,2400,,,,,,,VFR,,,,,,,,,,,,SPECI,814.0
CYGR 021940Z 05018G27KT 10SM BKN006 BKN024 OVC058 08/06 A3007 RMK SC5SC2SC1 SLP184,CYGR,2023-06-02T19:40:00Z,47.42,-61.77,8.0,6.0,50,18,27,10.0,30.070866,1018.4,,,,,,,,,,BKN,600,BKN,2400,OVC,5800,,,IFR,,,,,,,,,,,,SPECI,4.0
KMRT 021939Z AUTO 10007G14KT 10SM CLR 32/06 A2999 RMK AO1,KMRT,2023-06-02T19:39:00Z,40.22,-83.35,32.0,6.0,100,7,14,10.0,29.991142,,,TRUE,TRUE,,,,,,,CLR,,,,,,,,VFR,,,,,,,,,,,,METAR,302.0
KFEW 021939Z AUTO 24007KT 10SM SCT039 15/09 A2998 RMK AO2 LTG DSNT SE AND W-NW RAE01RAB17E17RAB20E39 SLP103 $,KFEW,2023-06-02T19:39:00Z,41.13,-104.87,15.0,9.0,240,7,,10.0,29.97933,1010.3,,TRUE,TRUE,TRUE,,,,,,SCT,3900,,,,,,,VFR,,,,,,,,,,,,SPECI,1877.0
K2V6 021939Z AUTO 12011G15KT 10SM 24/01 A2990 RMK AO2 LTG DSNT W,K2V6,2023-06-02T19:39:00Z,40.1,-102.72,24.0,1.0,120,11,15,10.0,29.899607,,,TRUE,TRUE,,,,,,,,,,,,,,,,,,,,,,,,,,,SPECI,1257.0
CYAY 021939Z AUTO 01024G31KT 9SM -RA BKN011 BKN023 OVC038 02/01 A3029 RMK SLP261,CYAY,2023-06-02T19:39:00Z,51.38,-56.07,2.0,1.0,10,24,31,9.0,30.28937,1026.1,,TRUE,,,,,,,-RA,BKN,1100,BKN,2300,OVC,3800,,,MVFR,,,,,,,,,,,,SPECI,23.0
CZSJ 021938Z AUTO 09007KT 9SM BKN091 BKN110 24/18 A3009 RMK SLP192 DENSITY ALT 2000FT,CZSJ,2023-06-02T19:38:00Z,53.07,-93.35,24.0,18.0,90,7,,9.0,30.088583,1019.2,,TRUE,,,,,,,,BKN,9100,BKN,11000,,,,,VFR,,,,,,,,,,,,SPECI,286.0
KSFY 021937Z AUTO 29005KT 10SM SCT070 SCT080 33/15 A3001 RMK AO2,KSFY,2023-06-02T19:37:00Z,42.05,-90.12,33.0,15.0,290,5,,10.0,30.008858,,,TRUE,TRUE,,,,,,,SCT,7000,SCT,8000,,,,,VFR,,,,,,,,,,,,METAR,188.0
KFTK 021937Z AUTO 04005KT 10SM CLR 30/11 A2994 RMK AO2 SLP135,KFTK,2023-06-02T19:37:00Z,37.9,-85.97,30.0,11.0,40,5,,10.0,29.940945,1013.5,,TRUE,TRUE,,,,,,,CLR,,,,,,,,VFR,,,,,,,,,,,,SPECI,225.0
KFSD 021937Z VRB04G16KT 10SM BKN060 BKN120 27/16 A2997 RMK AO2 LTG DSNT ALQDS T02720156,KFSD,2023-06-02T19:37:00Z,43.58,-96.75,27.2,15.6,0,4,16,10.0,29.970472,,,,TRUE,,,,,,,BKN,6000,BKN,12000,,,,,VFR,,,,,,,,,,,,SPECI,433.0
KMZH 021936Z AUTO 10005KT 10SM SCT110 28/17 A3008 RMK AO2 LTG DSNT E AND S,KMZH,2023-06-02T19:36:00Z,46.42,-92.8,28.0,17.0,100,5,,10.0,30.079725,,,TRUE,TRUE,,,,,,,SCT,11000,,,,,,,VFR,,,,,,,,,,,,METAR,331.0
KCKC 021936Z AUTO 09007KT 060V150 10SM CLR 24/11 A3016 RMK AO2,KCKC,2023-06-02T19:36:00Z,47.83,-90.38,24.0,11.0,90,7,,10.0,30.159449,,,TRUE,TRUE,,,,,,,CLR,,,,,,,,VFR,,,,,,,,,,,,METAR,544.0
KBBB 021936Z AUTO 21008G17KT 10SM SCT060 31/16 A2998 RMK AO2,KBBB,2023-06-02T19:36:00Z,45.32,-95.65,31.0,16.0,210,8,17,10.0,29.97933,,,TRUE,TRUE,,,,,,,SCT,6000,,,,,,,VFR,,,,,,,,,,,,METAR,315.0
KAPS 021936Z AUTO 00000KT 10SM CLR 31/18 A2987 RMK AO2,KAPS,2023-06-02T19:36:00Z,30.08,-90.58,31.0,18.0,0,0,,10.0,29.870079,,,TRUE,TRUE,,,,,,,CLR,,,,,,,,VFR,,,,,,,,,,,,SPECI,1.0
KADC 021936Z AUTO 14011G15KT 10SM SCT050 31/14 A3001 RMK AO2 TSNO,KADC,2023-06-02T19:36:00Z,46.45,-95.22,31.0,14.0,140,11,15,10.0,30.008858,,,TRUE,TRUE,,,TRUE,,,,SCT,5000,,,,,,,VFR,,,,,,,,,,,,METAR,416.0
CYYY 021936Z 04017G23KT 30SM FEW009 OVC039 08/06 A3021 RMK SF2SC6 SLP232,CYYY,2023-06-02T19:36:00Z,48.6,-68.22,8.0,6.0,40,17,23,30.0,30.209646,1023.2,,,,,,,,,,FEW,900,OVC,3900,,,,,VFR,,,,,,,,,,,,SPECI,43.0
CYYH 021936Z 15011KT 2SM BR BKN006 OVC008 01/01 A2990 RMK FG2ST3ST3 WSHFT 1914 VIS SE 1 AND SW 4 SLP131,CYYH,2023-06-02T19:36:00Z,69.53,-93.57,1.0,1.0,150,11,,2.0,29.899607,1013.1,,,,,,,,,BR,BKN,600,OVC,800,,,,,IFR,,,,,,,,,,,,SPECI,19.0
TJPS 021935Z AUTO 16010KT 10SM BKN018 BKN028 30/26 A2985 RMK AO2 TSNO,TJPS,2023-06-02T19:35:00Z,18.02,-66.57,30.0,26.0,160,10,,10.0,29.84941,,,TRUE,TRUE,,,TRUE,,,,BKN,1800,BKN,2800,,,,,MVFR,,,,,,,,,,,,SPECI,12.0
PHHI 021935Z AUTO 05008G17KT 10SM SCT025 25/18 A3015 RMK AO2 SLPNO $,PHHI,2023-06-02T19:35:00Z,21.48,-158.05,25.0,18.0,50,8,17,10.0,30.15059,,,TRUE,TRUE,TRUE,,,,,,SCT,2500,,,,,,,VFR,,,,,,,,,,,,METAR,246.0
PAAD 021935Z 02007KT 10SM BKN005 BKN019 OVC025 M02/M03 A2965 RMK AO2 T10231035 PWINO,PAAD,2023-06-02T19:35:00Z,70.13,-146.28,-2.3,-3.5,20,7,,10.0,29.648623,,,,TRUE,,,,,TRUE,,BKN,500,BKN,1900,OVC,2500,,,IFR,,,,,,,,,,,,METAR,8.0
KZPH 021935Z AUTO 07007KT 10SM SCT045 SCT070 BKN100 31/20 A2973 RMK A02 LTG DSNT S THRU W T03100200,KZPH,2023-06-02T19:35:00Z,28.23,-82.15,31.0,20.0,70,7,,10.0,29.731298,,,TRUE,TRUE,,,,,,,SCT,4500,SCT,7000,BKN,10000,,,VFR,,,,,,,,,,,,SPECI,26.0
KZER 021935Z AUTO 36005KT 10SM SCT090 30/08 A2996 RMK AO2 LTG DSNT NE,KZER,2023-06-02T19:35:00Z,40.7,-76.37,30.0,8.0,360,5,,10.0,29.958662,,,TRUE,TRUE,,,,,,,SCT,9000,,,,,,,VFR,,,,,,,,,,,,SPECI,518.0
KXVG 021935Z AUTO 15012G19KT 10SM CLR 28/18 A3005 RMK AO2,KXVG,2023-06-02T19:35:00Z,46.98,-94.2,28.0,18.0,150,12,19,10.0,30.050198,,,TRUE,TRUE,,,,,,,CLR,,,,,,,,VFR,,,,,,,,,,,,METAR,407.0
KXNX 021935Z AUTO 03007G12KT 350V060 10SM CLR 31/15 A2995 RMK A01,KXNX,2023-06-02T19:35:00Z,36.38,-86.42,31.0,15.0,30,7,12,10.0,29.949802,,,TRUE,TRUE,,,,,,,CLR,,,,,,,,VFR,,,,,,,,,,,,METAR,178.0
KXLL 021935Z AUTO 31005KT 10SM CLR 33/11 A2986 RMK AO2 LTG DSNT NE,KXLL,2023-06-02T19:35:00Z,40.57,-75.48,33.0,11.0,310,5,,10.0,29.861221,,,TRUE,TRUE,,,,,,,CLR,,,,,,,,VFR,,,,,,,,,,,,SPECI,118.0
KWYS 021935Z AUTO 32005KT 9SM -DZ FEW017 11/11 A3006 RMK AO2,KWYS,2023-06-02T19:35:00Z,44.68,-111.12,11.0,11.0,320,5,,9.0,30.059055,,,TRUE,TRUE,,,,,,-DZ,FEW,1700,,,,,,,VFR,,,,,,,,,,,,SPECI,2025.0
KWWR 021935Z AUTO 07006G18KT 3SM +TSRA SCT007 BKN039 OVC070 18/16 A3000 RMK AO2 LTG DSNT ALQDS,KWWR,2023-06-02T19:35:00Z,36.45,-99.52,18.0,16.0,70,6,18,3.0,30.0,,,TRUE,TRUE,,,,,,+TSRA,SCT,700,BKN,3900,OVC,7000,,,MVFR,,,,,,,,,,,,METAR,664.0
KWDR 021935Z AUTO 00000KT 10SM SCT055 28/13 A2991 RMK AO2,KWDR,2023-06-02T19:35:00Z,33.98,-83.67,28.0,13.0,0,0,,10.0,29.911417,,,TRUE,TRUE,,,,,,,SCT,5500,,,,,,,VFR,,,,,,,,,,,,SPECI,280.0
KW43 021935Z AUTO 09003KT 10SM SCT032 21/13 A2991 RMK AO2 LTG DSNT SW,KW43,2023-06-02T19:35:00Z,44.67,-104.57,21.0,13.0,90,3,,10.0,29.911417,,,TRUE,TRUE,,,,,,,SCT,3200,,,,,,,VFR,,,,,,,,,,,,METAR,1292.0
KW22 021935Z AUTO 02007KT 340V040 10SM CLR 32/11 A2998 RMK AO2,KW22,2023-06-02T19:35:00Z,39.0,-80.27,32.0,11.0,20,7,,10.0,29.97933,,,TRUE,TRUE,,,,,,,CLR,,,,,,,,VFR,,,,,,,,,,,,METAR,497.0
KVYS 021935Z AUTO 12008KT 10SM CLR 33/13 A3001 RMK AO2 T03330129,KVYS,2023-06-02T19:35:00Z,41.35,-89.15,33.3,12.9,120,8,,10.0,30.008858,,,TRUE,TRUE,,,,,,,CLR,,,,,,,,VFR,,,,,,,,,,,,SPECI,198.0
KVTP 021935Z AUTO 26007KT 240V300 10SM SCT046 SCT060 SCT070 09/M16 A3019 RMK AO2,KVTP,2023-06-02T19:35:00Z,37.5,-105.17,9.0,-16.0,260,7,,10.0,30.188976,,,TRUE,TRUE,,,,,,,SCT,4600,SCT,6000,SCT,7000,,,VFR,,,,,,,,,,,,SPECI,3086.0
KVTI 021935Z AUTO 20008KT 10SM SCT060 35/16 A3000 RMK AO2 T03540157,KVTI,2023-06-02T19:35:00Z,42.22,-92.02,35.4,15.7,200,8,,10.0,30.0,,,TRUE,TRUE,,,,,,,SCT,6000,,,,,,,VFR,,,,,,,,,,,,SPECI,256.0
KVPC 021935Z AUTO VRB04KT 10SM SCT060 BKN080 BKN100 29/16 A2989 RMK AO2,KVPC,2023-06-02T19:35:00Z,34.1,-84.85,29.0,16.0,0,4,,10.0,29.890747,,,TRUE,TRUE,,,,,,,SCT,6000,BKN,8000,BKN,10000,,,VFR,,,,,,,,,,,,SPECI,234.0
KVKS 021935Z AUTO 33008KT 10SM CLR 32/M30 A2987 RMK A01,KVKS,2023-06-02T19:35:00Z,32.23,-90.93,32.0,-30.0,330,8,,10.0,29.870079,,,TRUE,TRUE,,,,,,,CLR,,,,,,,,VFR,,,,,,,,,,,,METAR,31.0
KVHN 021935Z AUTO 28008G19KT 10SM CLR 31/M06 A2993 RMK AO2 T03051058,KVHN,2023-06-02T19:35:00Z,31.07,-104.78,30.5,-5.8,280,8,19,10.0,29.929134,,,TRUE,TRUE,,,,,,,CLR,,,,,,,,VFR,,,,,,,,,,,,SPECI,1200.0
KVER 021935Z AUTO 04012G16KT 10SM SCT060 SCT070 31/19 A2997 RMK AO2 LTG DSNT E T03140189,KVER,2023-06-02T19:35:00Z,38.95,-92.68,31.4,18.9,40,12,16,10.0,29.970472,,,TRUE,TRUE,,,,,,,SCT,6000,SCT,7000,,,,,VFR,,,,,,,,,,,,SPECI,209.0
KVDI 021935Z AUTO 04009KT 360V060 10SM SCT047 SCT055 BKN080 29/17 A2983 RMK AO2,KVDI,2023-06-02T19:35:00Z,32.2,-82.37,29.0,17.0,40,9,,10.0,29.828741,,,TRUE,TRUE,,,,,,,SCT,4700,SCT,5500,BKN,8000,,,VFR,,,,,,,,,,,,METAR,81.0
KVCV 021935Z AUTO VRB04KT 10SM CLR 26/01 A2998 RMK AO2,KVCV,2023-06-02T19:35:00Z,34.58,-117.38,26.0,1.0,0,4,,10.0,29.97933,,,TRUE,TRUE,,,,,,,CLR,,,,,,,,VFR,,,,,,,,,,,,METAR,871.0
KUYF 021935Z AUTO 07009G14KT 10SM CLR 32/01 A2999 RMK AO2,KUYF,2023-06-02T19:35:00Z,39.93,-83.47,32.0,1.0,70,9,14,10.0,29.991142,,,TRUE,TRUE,,,,,,,CLR,,,,,,,,VFR,,,,,,,,,,,,METAR,326.0
KUVA 021935Z AUTO 13007KT BKN050 OVC060 29/20 A2989 RMK AO2 T02890202 PWINO,KUVA,2023-06-02T19:35:00Z,29.22,-99.75,28.9,20.2,130,7,,,29.890747,,,TRUE,TRUE,,,,,TRUE,,BKN,5000,OVC,6000,,,,,,,,,,,,,,,,,SPECI,285.0
KUSE 021935Z AUTO 09015G21KT 10SM FEW090 33/08 A3003 RMK AO2,KUSE,2023-06-02T19:35:00Z,41.62,-84.13,33.0,8.0,90,15,21,10.0,30.029528,,,TRUE,TRUE,,,,,,,FEW,9000,,,,,,,VFR,,,,,,,,,,,,SPECI,237.0
KUNI 021935Z AUTO 07009KT 10SM CLR 32/09 A2996 RMK AO2 T03190086,KUNI,2023-06-02T19:35:00Z,39.22,-82.23,31.9,8.6,70,9,,10.0,29.958662,,,TRUE,TRUE,,,,,,,CLR,,,,,,,,VFR,,,,,,,,,,,,SPECI,232.0
KUMP 021935Z AUTO 08007KT 10SM CLR 33/10 A3000 RMK AO2 T03260099,KUMP,2023-06-02T19:35:00Z,39.93,-86.05,32.6,9.9,80,7,,10.0,30.0,,,TRUE,TRUE,,,,,,,CLR,,,,,,,,VFR,,,,,,,,,,,,SPECI,247.0
KUKL 021935Z AUTO 09007G14KT 10SM TS CLR 26/16 A2996 RMK AO2 LTG DSNT ALQDS T02610160,KUKL,2023-06-02T19:35:00Z,38.3,-95.73,26.1,16.0,90,7,14,10.0,29.958662,,,TRUE,TRUE,,,,,,TS,CLR,,,,,,,,VFR,,,,,,,,,,,,SPECI,357.0
KUCY 021935Z AUTO 11006KT 10SM FEW065 33/16 A2990 RMK A01,KUCY,2023-06-02T19:35:00Z,36.38,-88.98,33.0,16.0,110,6,,10.0,29.899607,,,TRUE,TRUE,,,,,,,FEW,6500,,,,,,,VFR,,,,,,,,,,,,METAR,97.0
KU69 021935Z AUTO 12005KT 10SM OVC055 15/07 A3005 RMK A01,KU69,2023-06-02T19:35:00Z,40.2,-110.38,15.0,7.0,120,5,,10.0,30.050198,,,TRUE,TRUE,,,,,,,OVC,5500,,,,,,,VFR,,,,,,,,,,,,METAR,1776.0
KU55 021935Z AUTO 33007G16KT 7SM FEW050 SCT065 BKN075 15/06 A3011 RMK A01,KU55,2023-06-02T19:35:00Z,37.85,-112.38,15.0,6.0,330,7,16,7.0,30.109253,,,TRUE,TRUE,,,,,,,FEW,5000,SCT,6500,BKN,7500,,,VFR,,,,,,,,,,,,METAR,2060.0
KTYQ 021935Z AUTO 04004G10KT 10SM CLR 31/08 A3001 RMK AO2 T03120081,KTYQ,2023-06-02T19:35:00Z,40.03,-86.25,31.2,8.1,40,4,10,10.0,30.008858,,,TRUE,TRUE,,,,,,,CLR,,,,,,,,VFR,,,,,,,,,,,,SPECI,279.0
KTYL 021935Z AUTO 05006KT 10SM CLR 23/00 A3006 RMK AO2,KTYL,2023-06-02T19:35:00Z,34.45,-110.12,23.0,0.0,50,6,,10.0,30.059055,,,TRUE,TRUE,,,,,,,CLR,,,,,,,,VFR,,,,,,,,,,,,SPECI,1748.0
KTXW 021935Z AUTO 12011KT 10SM BKN046 OVC060 A2983 RMK AO2,KTXW,2023-06-02T19:35:00Z,26.18,-97.97,,,120,11,,10.0,29.828741,,,TRUE,TRUE,,,,,,,BKN,4600,OVC,6000,,,,,VFR,,,,,,,,,,,,METAR,21.0
KTVK 021935Z AUTO 00000KT 9SM CLR 31/15 A3001 RMK AO2,KTVK,2023-06-02T19:35:00Z,40.68,-92.9,31.0,15.0,0,0,,9.0,30.008858,,,TRUE,TRUE,,,,,,,CLR,,,,,,,,VFR,,,,,,,,,,,,SPECI,311.0
KTVI 021935Z AUTO 06009KT 10SM SCT048 SCT065 28/17 A2982 RMK AO2,KTVI,2023-06-02T19:35:00Z,30.9,-83.88,28.0,17.0,60,9,,10.0,29.819881,,,TRUE,TRUE,,,,,,,SCT,4800,SCT,6500,,,,,VFR,,,,,,,,,,,,SPECI,74.0
KTQV 021935Z AUTO 07009G17KT 10SM FEW050 FEW055 27/14 A2990 RMK A01,KTQV,2023-06-02T19:35:00Z,36.0,-78.93,27.0,14.0,70,9,17,10.0,29.899607,,,TRUE,TRUE,,,,,,,FEW,5000,FEW,5500,,,,,VFR,,,,,,,,,,,,METAR,230.0
KTQK 021935Z AUTO 15015G19KT 10SM CLR 25/16 A2992 RMK AO2 T02470156,KTQK,2023-06-02T19:35:00Z,38.47,-100.88,24.7,15.6,150,15,19,10.0,29.920275,,,TRUE,TRUE,,,,,,,CLR,,,,,,,,VFR,,,,,,,,,,,,SPECI,906.0
KTQH 021935Z AUTO 16005KT 10SM SCT050 SCT065 SCT085 33/11 A2996 RMK AO2,KTQH,2023-06-02T19:35:00Z,35.93,-95.0,33.0,11.0,160,5,,10.0,29.958662,,,TRUE,TRUE,,,,,,,SCT,5000,SCT,6500,SCT,8500,,,VFR,,,,,,,,,,,,METAR,265.0
KTOC 021935Z AUTO 09007KT 070V140 10SM SCT050 29/17 A2990 RMK AO2 T02890169,KTOC,2023-06-02T19:35:00Z,34.6,-83.3,28.9,16.9,90,7,,10.0,29.899607,,,TRUE,TRUE,,,,,,,SCT,5000,,,,,,,VFR,,,,,,,,,,,,SPECI,292.0
KTNU 021935Z AUTO 19008KT 10SM CLR 30/18 A3000 RMK A01,KTNU,2023-06-02T19:35:00Z,41.67,-93.02,30.0,18.0,190,8,,10.0,30.0,,,TRUE,TRUE,,,,,,,CLR,,,,,,,,VFR,,,,,,,,,,,,SPECI,287.0
KTNB 021935Z AUTO 09004KT 10SM CLR 25/06 A3003 RMK AO2 T02530059,KTNB,2023-06-02T19:35:00Z,36.2,-81.65,25.3,5.9,90,4,,10.0,30.029528,,,TRUE,TRUE,,,,,,,CLR,,,,,,,,VFR,,,,,,,,,,,,METAR,958.0
KTMT 021935Z AUTO 03003KT 10SM CLR 19/04 A3009 RMK AO2 LTG DSNT NE AND SE T01850036,KTMT,2023-06-02T19:35:00Z,39.47,-117.2,18.5,3.6,30,3,,10.0,30.088583,,,TRUE,TRUE,,,,,,,CLR,,,,,,,,VFR,,,,,,,,,,,,METAR,1748.0
KTMK 021935Z AUTO 33009KT 300V360 10SM CLR 16/09 A3016 RMK AO2,KTMK,2023-06-02T19:35:00Z,45.42,-123.82,16.0,9.0,330,9,,10.0,30.159449,,,TRUE,TRUE,,,,,,,CLR,,,,,,,,VFR,,,,,,,,,,,,METAR,8.0
KTIP 021935Z AUTO 05009G16KT 10SM CLR 33/06 A2999 RMK AO2 T03300062,KTIP,2023-06-02T19:35:00Z,40.28,-88.15,33.0,6.2,50,9,16,10.0,29.991142,,,TRUE,TRUE,,,,,,,CLR,,,,,,,,VFR,,,,,,,,,,,,SPECI,224.0
KTIF 021935Z AUTO 17015G21KT 10SM SCT025 SCT031 23/16 A2997 RMK AO2 T02250157,KTIF,2023-06-02T19:35:00Z,41.97,-100.57,22.5,15.7,170,15,21,10.0,29.970472,,,TRUE,TRUE,,,,,,,SCT,2500,SCT,3100,,,,,VFR,,,,,,,,,,,,SPECI,888.0
KTHA 021935Z AUTO 13009KT 10SM SCT060 SCT070 BKN095 28/16 A2991 RMK A01,KTHA,2023-06-02T19:35:00Z,35.38,-86.25,28.0,16.0,130,9,,10.0,29.911417,,,TRUE,TRUE,,,,,,,SCT,6000,SCT,7000,BKN,9500,,,VFR,,,,,,,,,,,,METAR,333.0
KTEX 021935Z AUTO 10011G14KT 10SM SCT046 BKN050 08/03 A3021 RMK AO2 LTG DSNT NW,KTEX,2023-06-02T19:35:00Z,37.95,-107.9,8.0,3.0,100,11,14,10.0,30.209646,,,TRUE,TRUE,,,,,,,SCT,4600,BKN,5000,,,,,VFR,,,,,,,,,,,,METAR,2760.0
KTCY 021935Z AUTO 32009G15KT 10SM CLR 25/09 A2995 RMK A01,KTCY,2023-06-02T19:35:00Z,37.68,-121.43,25.0,9.0,320,9,15,10.0,29.949802,,,TRUE,TRUE,,,,,,,CLR,,,,,,,,VFR,,,,,,,,,,,,METAR,51.0
KTBX 021935Z AUTO M1/4SM FG OVC001 08/07 A3012 RMK AO2,KTBX,2023-06-02T19:35:00Z,43.47,-108.23,8.0,7.0,,,,0.25,30.121063,,,TRUE,TRUE,,,,,,FG,OVC,100,,,,,,,LIFR,,,,,,,,,,,,SPECI,2230.0
KTBR 021935Z AUTO 05007G14KT 020V090 10SM BKN044 BKN050 BKN060 27/16 A2985 RMK AO2 T02690161 PWINO,KTBR,2023-06-02T19:35:00Z,32.48,-81.73,26.9,16.1,50,7,14,10.0,29.84941,,,TRUE,TRUE,,,,,TRUE,,BKN,4400,BKN,5000,BKN,6000,,,VFR,,,,,,,,,,,,SPECI,54.0
KTAZ 021935Z AUTO 04008KT 020V080 10SM CLR 32/14 A2999 RMK AO2 T03230142,KTAZ,2023-06-02T19:35:00Z,39.53,-89.33,32.3,14.2,40,8,,10.0,29.991142,,,TRUE,TRUE,,,,,,,CLR,,,,,,,,VFR,,,,,,,,,,,,METAR,188.0
KT89 021935Z AUTO 24006G16KT 10SM CLR 35/06 A2980 RMK A01,KT89,2023-06-02T19:35:00Z,29.27,-103.68,35.0,6.0,240,6,16,10.0,29.799213,,,TRUE,TRUE,,,,,,,CLR,,,,,,,,VFR,,,,,,,,,,,,METAR,801.0
KT82 021935Z AUTO 18010G16KT 10SM SCT046 SCT050 29/17 A2991 RMK AO2 T02890172,KT82,2023-06-02T19:35:00Z,30.25,-98.92,28.9,17.2,180,10,16,10.0,29.911417,,,TRUE,TRUE,,,,,,,SCT,4600,SCT,5000,,,,,VFR,,,,,,,,,,,,SPECI,509.0
KT78 021935Z AUTO VRB04KT 3SM HZ FEW050 31/20 A2988 RMK AO2,KT78,2023-06-02T19:35:00Z,30.08,-94.7,31.0,20.0,0,4,,3.0,29.878937,,,TRUE,TRUE,,,,,,HZ,FEW,5000,,,,,,,MVFR,,,,,,,,,,,,METAR,21.0
KT74 021935Z AUTO 15013G22KT 10SM BKN049 30/18 A2989 RMK AO2 T03040184,KT74,2023-06-02T19:35:00Z,30.57,-97.45,30.4,18.4,150,13,22,10.0,29.890747,,,TRUE,TRUE,,,,,,,BKN,4900,,,,,,,VFR,,,,,,,,,,,,SPECI,169.0
KT41 021935Z AUTO 11009KT 10SM CLR 33/20 A2990 RMK AO2 T03310196,KT41,2023-06-02T19:35:00Z,29.67,-95.07,33.1,19.6,110,9,,10.0,29.899607,,,TRUE,TRUE,,,,,,,CLR,,,,,,,,VFR,,,,,,,,,,,,SPECI,8.0
KT35 021935Z AUTO 14006KT 10SM SCT049 31/19 A2989 RMK AO2 T03110191,KT35,2023-06-02T19:35:00Z,30.88,-96.97,31.1,19.1,140,6,,10.0,29.890747,,,TRUE,TRUE,,,,,,,SCT,4900,,,,,,,VFR,,,,,,,,,,,,SPECI,122.0
KT20 021935Z AUTO 15006KT 10SM SCT049 SCT060 31/20 A2988 RMK AO2 T03050198,KT20,2023-06-02T19:35:00Z,29.52,-97.47,30.5,19.8,150,6,,10.0,29.878937,,,TRUE,TRUE,,,,,,,SCT,4900,SCT,6000,,,,,VFR,,,,,,,,,,,,SPECI,107.0
KSZY 021935Z AUTO VRB05KT 10SM CLR 30/18 A2991 RMK A01,KSZY,2023-06-02T19:35:00Z,35.2,-88.5,30.0,18.0,0,5,,10.0,29.911417,,,TRUE,TRUE,,,,,,,CLR,,,,,,,,VFR,,,,,,,,,,,,METAR,184.0
KSZT 021935Z AUTO 11004KT 10SM CLR 22/07 A3000 RMK AO2,KSZT,2023-06-02T19:35:00Z,48.3,-116.57,22.0,7.0,110,4,,10.0,30.0,,,TRUE,TRUE,,,,,,,CLR,,,,,,,,VFR,,,,,,,,,,,,METAR,649.0
KSYI 021935Z AUTO 03009G16KT 10SM FEW065 30/17 A2990 RMK A01,KSYI,2023-06-02T19:35:00Z,35.57,-86.45,30.0,17.0,30,9,16,10.0,29.899607,,,TRUE,TRUE,,,,,,,FEW,6500,,,,,,,VFR,,,,,,,,,,,,METAR,244.0
KSYF 021935Z AUTO 17017G23KT 10SM BKN060 A2990 RMK AO2 PWINO,KSYF,2023-06-02T19:35:00Z,39.77,-101.8,,,170,17,23,10.0,29.899607,,,TRUE,TRUE,,,,,TRUE,,BKN,6000,,,,,,,VFR,,,,,,,,,,,,SPECI,1041.0
KSXU 021935Z AUTO 21005G14KT 10SM CLR 24/07 A2993 RMK AO2 T02420065,KSXU,2023-06-02T19:35:00Z,34.93,-104.65,24.2,6.5,210,5,14,10.0,29.929134,,,TRUE,TRUE,,,,,,,CLR,,,,,,,,VFR,,,,,,,,,,,,SPECI,1465.0
KSXK 021935Z AUTO 12019G28KT 9SM FEW060 FEW075 SCT100 26/18 A2994 RMK AO2,KSXK,2023-06-02T19:35:00Z,42.98,-96.17,26.0,18.0,120,19,28,9.0,29.940945,,,TRUE,TRUE,,,,,,,FEW,6000,FEW,7500,SCT,10000,,,VFR,,,,,,,,,,,,SPECI,430.0
KSWW 021935Z AUTO 16017G20KT 10SM SCT045 BKN065 30/17 A2991 RMK AO2 T03010168,KSWW,2023-06-02T19:35:00Z,32.47,-100.47,30.1,16.8,160,17,20,10.0,29.911417,,,TRUE,TRUE,,,,,,,SCT,4500,BKN,6500,,,,,VFR,,,,,,,,,,,,METAR,718.0
KSVE 021935Z AUTO 06007KT 10SM CLR 21/01 A3007 RMK AO2,KSVE,2023-06-02T19:35:00Z,40.37,-120.57,21.0,1.0,60,7,,10.0,30.070866,,,TRUE,TRUE,,,,,,,CLR,,,,,,,,VFR,,,,,,,,,,,,SPECI,1263.0
KSTK 021935Z AUTO 14007KT 10SM CLR 24/13 A2989 RMK AO2 LTG DSNT SE,KSTK,2023-06-02T19:35:00Z,40.62,-103.27,24.0,13.0,140,7,,10.0,29.890747,,,TRUE,TRUE,,,,,,,CLR,,,,,,,,VFR,,,,,,,,,,,,SPECI,1228.0
KSTE 021935Z AUTO 08009KT 050V110 10SM CLR 32/09 A3007 RMK AO2 LTG DSNT N T03190093,KSTE,2023-06-02T19:35:00Z,44.55,-89.53,31.9,9.3,80,9,,10.0,30.070866,,,TRUE,TRUE,,,,,,,CLR,,,,,,,,VFR,,,,,,,,,,,,SPECI,335.0
KSRE 021935Z AUTO VRB06G15KT 7SM FEW050 FEW060 31/17 A2991 RMK AO2,KSRE,2023-06-02T19:35:00Z,35.27,-96.68,31.0,17.0,0,6,15,7.0,29.911417,,,TRUE,TRUE,,,,,,,FEW,5000,FEW,6000,,,,,VFR,,,,,,,,,,,,METAR,306.0
KSRB 021935Z AUTO 04010KT 10SM FEW070 FEW090 30/18 A2992 RMK AO2,KSRB,2023-06-02T19:35:00Z,36.05,-85.53,30.0,18.0,40,10,,10.0,29.920275,,,TRUE,TRUE,,,,,,,FEW,7000,FEW,9000,,,,,VFR,,,,,,,,,,,,METAR,303.0
KSPK 021935Z AUTO 25003KT 10SM BKN100 19/08 A3002 RMK AO2,KSPK,2023-06-02T19:35:00Z,40.15,-111.67,19.0,8.0,250,3,,10.0,30.02067,,,TRUE,TRUE,,,,,,,BKN,10000,,,,,,,VFR,,,,,,,,,,,,METAR,1381.0
KSOA 021935Z AUTO 15010G18KT 10SM 28/18 A2994 RMK AO2,KSOA,2023-06-02T19:35:00Z,30.58,-100.65,28.0,18.0,150,10,18,10.0,29.940945,,,TRUE,TRUE,,,,,,,,,,,,,,,,,,,,,,,,,,,SPECI,654.0
KSNL 021935Z AUTO 15009G15KT 10SM CLR 31/16 A2991 RMK AO2 T03100156,KSNL,2023-06-02T19:35:00Z,35.35,-96.95,31.0,15.6,150,9,15,10.0,29.911417,,,TRUE,TRUE,,,,,,,CLR,,,,,,,,VFR,,,,,,,,,,,,SPECI,327.0
KSME 021935Z AUTO VRB06G13KT 10SM CLR 30/15 A2993 RMK AO2,KSME,2023-06-02T19:35:00Z,37.05,-84.62,30.0,15.0,0,6,13,10.0,29.929134,,,TRUE,TRUE,,,,,,,CLR,,,,,,,,VFR,,,,,,,,,,,,METAR,279.0
KSMD 021935Z AUTO VRB04G11KT 9SM CLR 32/09 A3002 RMK A01,KSMD,2023-06-02T19:35:00Z,41.15,-85.15,32.0,9.0,0,4,11,9.0,30.02067,,,TRUE,TRUE,,,,,,,CLR,,,,,,,,VFR,,,,,,,,,,,,METAR,252.0
KSLR 021935Z AUTO 09005KT 10SM CLR 33/15 A2992 RMK AO2 T03320154,KSLR,2023-06-02T19:35:00Z,33.17,-95.62,33.2,15.4,90,5,,10.0,29.920275,,,TRUE,TRUE,,,,,,,CLR,,,,,,,,VFR,,,,,,,,,,,,SPECI,144.0
KSLB 021935Z AUTO 14012G18KT 10SM CLR 31/15 A2999 RMK AO2,KSLB,2023-06-02T19:35:00Z,42.6,-95.23,31.0,15.0,140,12,18,10.0,29.991142,,,TRUE,TRUE,,,,,,,CLR,,,,,,,,VFR,,,,,,,,,,,,SPECI,450.0
KSJS 021935Z AUTO 02008KT 320V040 10SM CLR 30/12 A2997 RMK AO2 T02950119,KSJS,2023-06-02T19:35:00Z,37.75,-82.63,29.5,11.9,20,8,,10.0,29.970472,,,TRUE,TRUE,,,,,,,CLR,,,,,,,,VFR,,,,,,,,,,,,SPECI,359.0
KSHL 021935Z AUTO 13010G20KT 10SM BKN060 30/16 A2996 RMK AO2,KSHL,2023-06-02T19:35:00Z,43.22,-95.83,30.0,16.0,130,10,20,10.0,29.958662,,,TRUE,TRUE,,,,,,,BKN,6000,,,,,,,VFR,,,,,,,,,,,,SPECI,430.0
KSEZ 021935Z AUTO 15007KT 10SM 26/03 A3003 RMK AO2,KSEZ,2023-06-02T19:35:00Z,34.85,-111.78,26.0,3.0,150,7,,10.0,30.029528,,,TRUE,TRUE,,,,,,,,,,,,,,,,,,,,,,,,,,,SPECI,1455.0
KSEP 021935Z AUTO 15011KT 120V190 10SM SCT055 31/16 A2993 RMK AO2 T03060157,KSEP,2023-06-02T19:35:00Z,32.22,-98.17,30.6,15.7,150,11,,10.0,29.929134,,,TRUE,TRUE,,,,,,,SCT,5500,,,,,,,VFR,,,,,,,,,,,,SPECI,399.0
KSEM 021935Z AUTO VRB06KT 10SM FEW055 31/16 A2985 RMK AO2,KSEM,2023-06-02T19:35:00Z,32.35,-86.98,31.0,16.0,0,6,,10.0,29.84941,,,TRUE,TRUE,,,,,,,FEW,5500,,,,,,,VFR,,,,,,,,,,,,METAR,48.0
KSEF 021935Z AUTO 02012KT 10SM SCT028 BKN039 OVC090 27/23 A2972 RMK AO2 LTG DSNT W THRU N T02670235,KSEF,2023-06-02T19:35:00Z,27.45,-81.35,26.7,23.5,20,12,,10.0,29.719488,,,TRUE,TRUE,,,,,,,SCT,2800,BKN,3900,OVC,9000,,,VFR,,,,,,,,,,,,SPECI,17.0
KSDA 021935Z AUTO 15010G17KT 10SM FEW060 SCT070 SCT080 31/16 A2993 RMK AO2,KSDA,2023-06-02T19:35:00Z,40.75,-95.42,31.0,16.0,150,10,17,10.0,29.929134,,,TRUE,TRUE,,,,,,,FEW,6000,SCT,7000,SCT,8000,,,VFR,,,,,,,,,,,,SPECI,293.0
KSCX 021935Z AUTO 02008KT 10SM FEW060 29/15 A2995 RMK A01,KSCX,2023-06-02T19:35:00Z,36.45,-84.58,29.0,15.0,20,8,,10.0,29.949802,,,TRUE,TRUE,,,,,,,FEW,6000,,,,,,,VFR,,,,,,,,,,,,METAR,462.0
KSCD 021935Z AUTO 35003KT 10SM SCT055 30/16 A2990 RMK AO2 T02980163,KSCD,2023-06-02T19:35:00Z,33.17,-86.3,29.8,16.3,350,3,,10.0,29.899607,,,TRUE,TRUE,,,,,,,SCT,5500,,,,,,,VFR,,,,,,,,,,,,METAR,164.0
KSBS 021935Z AUTO 07006KT 10SM SCT013 BKN019 OVC046 08/08 A3009 RMK AO1 T00770077,KSBS,2023-06-02T19:35:00Z,40.52,-106.87,7.7,7.7,70,6,,10.0,30.088583,,,TRUE,TRUE,,,,,,,SCT,1300,BKN,1900,OVC,4600,,,MVFR,,,,,,,,,,,,METAR,2097.0
KSBO 021935Z AUTO 05008KT 10SM SCT048 SCT055 BKN070 28/16 A2985 RMK AO2,KSBO,2023-06-02T19:35:00Z,32.62,-82.37,28.0,16.0,50,8,,10.0,29.84941,,,TRUE,TRUE,,,,,,,SCT,4800,SCT,5500,BKN,7000,,,VFR,,,,,,,,,,,,SPECI,98.0
KSAR 021935Z AUTO 08006KT 10SM SCT065 SCT095 31/16 A2997 RMK AO2 T03110157,KSAR,2023-06-02T19:35:00Z,38.15,-89.7,31.1,15.7,80,6,,10.0,29.970472,,,TRUE,TRUE,,,,,,,SCT,6500,SCT,9500,,,,,VFR,,,,,,,,,,,,SPECI,162.0
KSAA 021935Z AUTO 14010KT 10SM -DZ OVC033 11/06 A3005 RMK AO2 LTG DSNT N,KSAA,2023-06-02T19:35:00Z,41.45,-106.8,11.0,6.0,140,10,,10.0,30.050198,,,TRUE,TRUE,,,,,,-DZ,OVC,3300,,,,,,,VFR,,,,,,,,,,,,SPECI,2093.0
KS52 021935Z AUTO 15010KT 10SM SCT075 BKN095 OVC120 25/M02 A2999 RMK AO2 T02461017,KS52,2023-06-02T19:35:00Z,48.42,-120.15,24.6,-1.7,150,10,,10.0,29.991142,,,TRUE,TRUE,,,,,,,SCT,7500,BKN,9500,OVC,12000,,,VFR,,,,,,,,,,,,METAR,517.0
KS39 021935Z AUTO 28008G16KT 10SM CLR 21/M03 A3007 RMK AO2,KS39,2023-06-02T19:35:00Z,44.28,-120.9,21.0,-3.0,280,8,16,10.0,30.070866,,,TRUE,TRUE,,,,,,,CLR,,,,,,,,VFR,,,,,,,,,,,,METAR,987.0
KS33 021935Z AUTO 32004KT 10SM CLR A3008 RMK AO2,KS33,2023-06-02T19:35:00Z,44.67,-121.15,,,320,4,,10.0,30.079725,,,TRUE,TRUE,,,,,,,CLR,,,,,,,,VFR,,,,,,,,,,,,METAR,739.0
KS21 021935Z AUTO 00000G10KT 10SM CLR 19/02 A3012 RMK AO2,KS21,2023-06-02T19:35:00Z,43.88,-121.45,19.0,2.0,0,0,10,10.0,30.121063,,,TRUE,TRUE,,,,,,,CLR,,,,,,,,VFR,,,,,,,,,,,,METAR,1269.0
KS12 021935Z AUTO VRB04KT 10SM CLR 19/10 A3011 RMK AO2,KS12,2023-06-02T19:35:00Z,,,19.0,10.0,0,4,,10.0,30.109253,,,TRUE,TRUE,,,,,,,CLR,,,,,,,,VFR,,,,,,,,,,,,METAR,
KRZT 021935Z AUTO 08006KT 10SM CLR 32/06 A2997 RMK AO2 PWINO,KRZT,2023-06-02T19:35:00Z,39.43,-83.02,32.0,6.0,80,6,,10.0,29.970472,,,TRUE,TRUE,,,,,TRUE,,CLR,,,,,,,,VFR,,,,,,,,,,,,METAR,217.0
KRZR 021935Z AUTO VRB05G11KT 10SM SCT060 30/17 A2988 RMK A01,KRZR,2023-06-02T19:35:00Z,35.22,-84.8,30.0,17.0,0,5,11,10.0,29.878937,,,TRUE,TRUE,,,,,,,SCT,6000,,,,,,,VFR,,,,,,,,,,,,METAR,259.0
KRZL 021935Z AUTO 07013G19KT 10SM CLR 32/06 A3002 RMK AO2,KRZL,2023-06-02T19:35:00Z,40.95,-87.18,32.0,6.0,70,13,19,10.0,30.02067,,,TRUE,TRUE,,,,,,,CLR,,,,,,,,VFR,,,,,,,,,,,,SPECI,210.0
KRYW 021935Z AUTO 11009G17KT 10SM SCT049 30/17 A2991 RMK AO2 T03000168,KRYW,2023-06-02T19:35:00Z,30.5,-97.97,30.0,16.8,110,9,17,10.0,29.911417,,,TRUE,TRUE,,,,,,,SCT,4900,,,,,,,VFR,,,,,,,,,,,,SPECI,370.0
KRWV 021935Z AUTO 13009KT 10SM CLR 31/18 A2989 RMK AO2 T03130178,KRWV,2023-06-02T19:35:00Z,30.52,-96.7,31.3,17.8,130,9,,10.0,29.890747,,,TRUE,TRUE,,,,,,,CLR,,,,,,,,VFR,,,,,,,,,,,,METAR,116.0
KRVL 021935Z AUTO 02003KT 9SM CLR 33/09 A2992 RMK AO2,KRVL,2023-06-02T19:35:00Z,40.68,-77.63,33.0,9.0,20,3,,9.0,29.920275,,,TRUE,TRUE,,,,,,,CLR,,,,,,,,VFR,,,,,,,,,,,,METAR,250.0
KRVJ 021935Z AUTO 02007KT 330V050 10SM SCT047 SCT055 BKN080 29/17 A2983 RMK AO2 T02880173,KRVJ,2023-06-02T19:35:00Z,32.07,-82.15,28.8,17.3,20,7,,10.0,29.828741,,,TRUE,TRUE,,,,,,,SCT,4700,SCT,5500,BKN,8000,,,VFR,,,,,,,,,,,,SPECI,60.0
KRVF 021935Z AUTO 01020KT 10SM CLR 15/11 A3006 RMK AO2,KRVF,2023-06-02T19:35:00Z,45.53,-112.3,15.0,11.0,10,20,,10.0,30.059055,,,TRUE,TRUE,,,,,,,CLR,,,,,,,,VFR,,,,,,,,,,,,METAR,1445.0
KRTS 021935Z AUTO VRB06KT 10SM CLR 19/01 A3010 RMK AO2,KRTS,2023-06-02T19:35:00Z,39.67,-119.88,19.0,1.0,0,6,,10.0,30.100393,,,TRUE,TRUE,,,,,,,CLR,,,,,,,,VFR,,,,,,,,,,,,METAR,1537.0
KRQO 021935Z AUTO 15016KT 5SM HZ SCT050 SCT090 SCT110 29/17 A2991 RMK AO2 LTG DSNT W T02930174,KRQO,2023-06-02T19:35:00Z,35.47,-98.0,29.3,17.4,150,16,,5.0,29.911417,,,TRUE,TRUE,,,,,,HZ,SCT,5000,SCT,9000,SCT,11000,,,MVFR,,,,,,,,,,,,SPECI,431.0
KRPJ 021935Z AUTO 09004KT 10SM SCT080 OVC120 30/13 A3003 RMK AO2 T03000126 TSNO,KRPJ,2023-06-02T19:35:00Z,41.88,-89.08,30.0,12.6,90,4,,10.0,30.029528,,,TRUE,TRUE,,,TRUE,,,,SCT,8000,OVC,12000,,,,,VFR,,,,,,,,,,,,METAR,234.0
KRNH 021935Z AUTO 15003KT 10SM SCT023 SCT030 SCT036 28/22 A3005 RMK AO2 P0001 T02810221,KRNH,2023-06-02T19:35:00Z,45.15,-92.53,28.1,22.1,150,3,,10.0,30.050198,,,TRUE,TRUE,,,,,,,SCT,2300,SCT,3000,SCT,3600,,,VFR,,,,,,0.01,,,,,,METAR,302.0
KRNC 021935Z AUTO VRB04G12KT 3SM HZ SCT055 SCT095 22/18 A2992 RMK A01,KRNC,2023-06-02T19:35:00Z,35.7,-85.85,22.0,18.0,0,4,12,3.0,29.920275,,,TRUE,TRUE,,,,,,HZ,SCT,5500,SCT,9500,,,,,MVFR,,,,,,,,,,,,METAR,310.0
KRLD 021935Z AUTO 16004KT 10SM CLR 26/06 A3000 RMK AO2 T02570063,KRLD,2023-06-02T19:35:00Z,46.3,-119.3,25.7,6.3,160,4,,10.0,30.0,,,TRUE,TRUE,,,,,,,CLR,,,,,,,,VFR,,,,,,,,,,,,SPECI,118.0
KRKW 021935Z AUTO VRB05KT 10SM CLR 28/16 A2995 RMK A01,KRKW,2023-06-02T19:35:00Z,35.92,-84.68,28.0,16.0,0,5,,10.0,29.949802,,,TRUE,TRUE,,,,,,,CLR,,,,,,,,VFR,,,,,,,,,,,,METAR,505.0
KRKR 021935Z AUTO 00000KT 10SM SCT060 SCT075 31/15 A2992 RMK AO2,KRKR,2023-06-02T19:35:00Z,35.02,-94.62,31.0,15.0,0,0,,10.0,29.920275,,,TRUE,TRUE,,,,,,,SCT,6000,SCT,7500,,,,,VFR,,,,,,,,,,,,METAR,136.0
KRGA 021935Z AUTO 07010KT 10SM CLR 31/10 A2997 RMK AO2,KRGA,2023-06-02T19:35:00Z,37.63,-84.33,31.0,10.0,70,10,,10.0,29.970472,,,TRUE,TRUE,,,,,,,CLR,,,,,,,,VFR,,,,,,,,,,,,SPECI,301.0
KRFI 021935Z AUTO 11005KT 10SM CLR 34/18 A2991 RMK AO2 T03360177,KRFI,2023-06-02T19:35:00Z,32.15,-94.85,33.6,17.7,110,5,,10.0,29.911417,,,TRUE,TRUE,,,,,,,CLR,,,,,,,,VFR,,,,,,,,,,,,SPECI,133.0
KREG 021935Z AUTO 34005KT 10SM CLR 33/17 A2986 RMK AO2 T03260174,KREG,2023-06-02T19:35:00Z,30.17,-90.93,32.6,17.4,340,5,,10.0,29.861221,,,TRUE,TRUE,,,,,,,CLR,,,,,,,,VFR,,,,,,,,,,,,METAR,3.0
KRDK 021935Z AUTO 14011G17KT 10SM FEW055 32/16 A2996 RMK AO2,KRDK,2023-06-02T19:35:00Z,41.02,-95.27,32.0,16.0,140,11,17,10.0,29.958662,,,TRUE,TRUE,,,,,,,FEW,5500,,,,,,,VFR,,,,,,,,,,,,SPECI,317.0
KRCV 021935Z AUTO 25015G20KT 10SM CLR 14/02 A3013 RMK AO2 LTG DSNT E T01350020,KRCV,2023-06-02T19:35:00Z,37.72,-106.35,13.5,2.0,250,15,20,10.0,30.129921,,,TRUE,TRUE,,,,,,,CLR,,,,,,,,VFR,,,,,,,,,,,,SPECI,2418.0
KRCR 021935Z AUTO 07010KT 030V090 10SM CLR 32/09 A3001 RMK AO2,KRCR,2023-06-02T19:35:00Z,41.07,-86.18,32.0,9.0,70,10,,10.0,30.008858,,,TRUE,TRUE,,,,,,,CLR,,,,,,,,VFR,,,,,,,,,,,,SPECI,240.0
KRCE 021935Z AUTO 14013KT 10SM CLR 30/18 A2989 RMK AO2,KRCE,2023-06-02T19:35:00Z,35.48,-97.82,30.0,18.0,140,13,,10.0,29.890747,,,TRUE,TRUE,,,,,,,CLR,,,,,,,,VFR,,,,,,,,,,,,SPECI,412.0
KRBO 021935Z AUTO 14011G18KT 10SM CLR A2986 RMK AO2,KRBO,2023-06-02T19:35:00Z,27.78,-97.68,,,140,11,18,10.0,29.861221,,,TRUE,TRUE,,,,,,,CLR,,,,,,,,VFR,,,,,,,,,,,,SPECI,24.0
KRAS 021935Z AUTO 13009KT 10SM SCT025 30/22 A2990 RMK AO2 T02990217,KRAS,2023-06-02T19:35:00Z,27.82,-97.08,29.9,21.7,130,9,,10.0,29.899607,,,TRUE,TRUE,,,,,,,SCT,2500,,,,,,,VFR,,,,,,,,,,,,METAR,3.0
KPYX 021935Z AUTO 17009G14KT 10SM SCT026 SCT040 BKN090 21/14 A2990 RMK AO2 T02060143,KPYX,2023-06-02T19:35:00Z,36.42,-100.75,20.6,14.3,170,9,14,10.0,29.899607,,,TRUE,TRUE,,,,,,,SCT,2600,SCT,4000,BKN,9000,,,VFR,,,,,,,,,,,,SPECI,890.0
KPXE 021935Z AUTO 05010KT 7SM BKN049 BKN065 BKN080 29/17 A2985 RMK AO2 T02930166,KPXE,2023-06-02T19:35:00Z,32.52,-83.77,29.3,16.6,50,10,,7.0,29.84941,,,TRUE,TRUE,,,,,,,BKN,4900,BKN,6500,BKN,8000,,,VFR,,,,,,,,,,,,METAR,126.0
KPWD 021935Z AUTO 12008G15KT 10SM FEW085 FEW110 25/18 A2993 RMK AO2,KPWD,2023-06-02T19:35:00Z,48.78,-104.52,25.0,18.0,120,8,15,10.0,29.929134,,,TRUE,TRUE,,,,,,,FEW,8500,FEW,11000,,,,,VFR,,,,,,,,,,,,METAR,690.0
KPVW 021935Z AUTO 00000KT 10SM SCT026 SCT033 SCT050 21/17 A2995 RMK AO2 LTG DSNT ALQS P0001 T02050168,KPVW,2023-06-02T19:35:00Z,34.17,-101.72,20.5,16.8,0,0,,10.0,29.949802,,,TRUE,TRUE,,,,,,,SCT,2600,SCT,3300,SCT,5000,,,VFR,,,,,,0.01,,,,,,METAR,1029.0
KPVJ 021935Z AUTO 14008KT 10SM SCT050 BKN090 OVC120 30/17 A2990 RMK AO2 T02950172,KPVJ,2023-06-02T19:35:00Z,34.72,-97.22,29.5,17.2,140,8,,10.0,29.899607,,,TRUE,TRUE,,,,,,,SCT,5000,BKN,9000,OVC,12000,,,VFR,,,,,,,,,,,,METAR,287.0
KPVF 021935Z AUTO 30005KT 10SM CLR 22/08 A3003 RMK AO1,KPVF,2023-06-02T19:35:00Z,38.72,-120.75,22.0,8.0,300,5,,10.0,30.029528,,,TRUE,TRUE,,,,,,,CLR,,,,,,,,VFR,,,,,,,,,,,,SPECI,788.0
KPVE 021935Z AUTO VRB06KT 10SM CLR 31/17 A2991 RMK A01,KPVE,2023-06-02T19:35:00Z,35.65,-88.2,31.0,17.0,0,6,,10.0,29.911417,,,TRUE,TRUE,,,,,,,CLR,,,,,,,,VFR,,,,,,,,,,,,METAR,146.0
KPUJ 021935Z AUTO 00000KT SCT075 29/15 A2992 RMK AO2 PWINO,KPUJ,2023-06-02T19:35:00Z,33.92,-84.93,29.0,15.0,0,0,,,29.920275,,,TRUE,TRUE,,,,,TRUE,,SCT,7500,,,,,,,,,,,,,,,,,,,METAR,385.0
KPTT 021935Z AUTO 09009KT 10SM -TSRA SCT047 SCT070 OVC095 17/16 A2996 RMK AO2 LTG DSNT ALQS P0003 T01660163,KPTT,2023-06-02T19:35:00Z,37.7,-98.75,16.6,16.3,90,9,,10.0,29.958662,,,TRUE,TRUE,,,,,,-TSRA,SCT,4700,SCT,7000,OVC,9500,,,VFR,,,,,,0.03,,,,,,SPECI,594.0
KPSO 021935Z AUTO 00000KT 10SM RA SCT045 OVC060 13/01 A3016 RMK AO2 T01320005,KPSO,2023-06-02T19:35:00Z,37.28,-107.05,13.2,0.5,0,0,,10.0,30.159449,,,TRUE,TRUE,,,,,,RA,SCT,4500,OVC,6000,,,,,VFR,,,,,,,,,,,,METAR,2332.0
KPSN 021935Z AUTO 00000KT 10SM FEW050 31/20 A2988 RMK AO2,KPSN,2023-06-02T19:35:00Z,31.78,-95.7,31.0,20.0,0,0,,10.0,29.878937,,,TRUE,TRUE,,,,,,,FEW,5000,,,,,,,VFR,,,,,,,,,,,,METAR,124.0
KPRS 021935Z AUTO 23009G15KT 10SM CLR 34/06 A2987 RMK AO2 T03360056,KPRS,2023-06-02T19:35:00Z,29.63,-104.35,33.6,5.6,230,9,15,10.0,29.870079,,,TRUE,TRUE,,,,,,,CLR,,,,,,,,VFR,,,,,,,,,,,,SPECI,890.0
KPRO 021935Z AUTO 13011G14KT 10SM SCT046 30/19 A2999 RMK AO2 T03040185,KPRO,2023-06-02T19:35:00Z,41.83,-94.17,30.4,18.5,130,11,14,10.0,29.991142,,,TRUE,TRUE,,,,,,,SCT,4600,,,,,,,VFR,,,,,,,,,,,,SPECI,308.0
KPRG 021935Z AUTO 09009KT 10SM CLR 33/10 A2999 RMK AO2 T03270102,KPRG,2023-06-02T19:35:00Z,39.7,-87.67,32.7,10.2,90,9,,10.0,29.991142,,,TRUE,TRUE,,,,,,,CLR,,,,,,,,VFR,,,,,,,,,,,,SPECI,197.0
KPPQ 021935Z AUTO 00000KT 10SM CLR 33/15 A3000 RMK AO2 T03270152,KPPQ,2023-06-02T19:35:00Z,39.63,-90.78,32.7,15.2,0,0,,10.0,30.0,,,TRUE,TRUE,,,,,,,CLR,,,,,,,,VFR,,,,,,,,,,,,SPECI,215.0
KPPO 021935Z AUTO 02008G14KT 10SM CLR 32/10 A3004 RMK AO2 T03150095,KPPO,2023-06-02T19:35:00Z,41.57,-86.73,31.5,9.5,20,8,14,10.0,30.041338,,,TRUE,TRUE,,,,,,,CLR,,,,,,,,VFR,,,,,,,,,,,,SPECI,242.0
KPPA 021935Z AUTO 20012G20KT 26/20 A2995 RMK AO2 LTG DSNT ALQS T02590196 PWINO,KPPA,2023-06-02T19:35:00Z,35.62,-101.0,25.9,19.6,200,12,20,,29.949802,,,TRUE,TRUE,,,,,TRUE,,,,,,,,,,,,,,,,,,,,,,SPECI,989.0
KPOY 021935Z AUTO 33017G23KT 10SM -RA SCT008 SCT021 12/10 A2997 RMK AO2 LTG DSNT SE,KPOY,2023-06-02T19:35:00Z,44.87,-108.8,12.0,10.0,330,17,23,10.0,29.970472,,,TRUE,TRUE,,,,,,-RA,SCT,800,SCT,2100,,,,,VFR,,,,,,,,,,,,SPECI,1547.0
KPO1 021935Z AUTO 07010G16KT 10SM CLR 26/17 A2989 RMK AO2,KPO1,2023-06-02T19:35:00Z,48.13,-105.17,26.0,17.0,70,10,16,10.0,29.890747,,,TRUE,TRUE,,,,,,,CLR,,,,,,,,VFR,,,,,,,,,,,,METAR,621.0
KPNT 021935Z AUTO 04010G16KT 10SM SCT095 33/08 A3000 RMK AO2 T03270076,KPNT,2023-06-02T19:35:00Z,40.92,-88.62,32.7,7.6,40,10,16,10.0,30.0,,,TRUE,TRUE,,,,,,,SCT,9500,,,,,,,VFR,,,,,,,,,,,,METAR,199.0
KPNA 021935Z AUTO 26006KT 10SM BKN026 OVC032 11/06 A3005 RMK AO2,KPNA,2023-06-02T19:35:00Z,42.8,-109.8,11.0,6.0,260,6,,10.0,30.050198,,,TRUE,TRUE,,,,,,,BKN,2600,OVC,3200,,,,,MVFR,,,,,,,,,,,,METAR,2158.0
KPMV 021935Z AUTO 20006KT 10SM SCT050 SCT070 SCT085 29/18 A2994 RMK AO2 LTG DSNT NE AND S T02850176,KPMV,2023-06-02T19:35:00Z,40.95,-95.92,28.5,17.6,200,6,,10.0,29.940945,,,TRUE,TRUE,,,,,,,SCT,5000,SCT,7000,SCT,8500,,,VFR,,,,,,,,,,,,SPECI,365.0
KPMU 021935Z AUTO 00000KT 10SM FEW050 31/19 A2990 RMK AO2,KPMU,2023-06-02T19:35:00Z,34.37,-89.9,31.0,19.0,0,0,,10.0,29.899607,,,TRUE,TRUE,,,,,,,FEW,5000,,,,,,,VFR,,,,,,,,,,,,SPECI,67.0
KPKV 021935Z AUTO 11011KT 10SM CLR 32/22 A2990 RMK AO2 T03170222,KPKV,2023-06-02T19:35:00Z,28.65,-96.68,31.7,22.2,110,11,,10.0,29.899607,,,TRUE,TRUE,,,,,,,CLR,,,,,,,,VFR,,,,,,,,,,,,SPECI,8.0
KPIM 021935Z AUTO 04006KT 10SM SCT050 BKN065 BKN090 29/14 A2989 RMK AO2 T02900143,KPIM,2023-06-02T19:35:00Z,32.83,-84.88,29.0,14.3,40,6,,10.0,29.890747,,,TRUE,TRUE,,,,,,,SCT,5000,BKN,6500,BKN,9000,,,VFR,,,,,,,,,,,,SPECI,274.0
KPHT 021935Z AUTO 04010KT 10SM FEW055 FEW070 FEW090 30/18 A2993 RMK A01,KPHT,2023-06-02T19:35:00Z,36.33,-88.38,30.0,18.0,40,10,,10.0,29.929134,,,TRUE,TRUE,,,,,,,FEW,5500,FEW,7000,FEW,9000,,,VFR,,,,,,,,,,,,METAR,172.0
KPEZ 021935Z AUTO 14009G17KT 110V180 10SM SCT046 SCT050 SCT070 32/21 A2986 RMK AO2 T03240205,KPEZ,2023-06-02T19:35:00Z,28.95,-98.52,32.4,20.5,140,9,17,10.0,29.861221,,,TRUE,TRUE,,,,,,,SCT,4600,SCT,5000,SCT,7000,,,VFR,,,,,,,,,,,,SPECI,126.0
KPEQ 021935Z AUTO 00000KT 10SM CLR 32/07 A2979 RMK AO2 T03190068,KPEQ,2023-06-02T19:35:00Z,31.38,-103.52,31.9,6.8,0,0,,10.0,29.790354,,,TRUE,TRUE,,,,,,,CLR,,,,,,,,VFR,,,,,,,,,,,,METAR,794.0
KPEA 021935Z AUTO 05004KT 10SM CLR 29/18 A3001 RMK AO2 T02860179,KPEA,2023-06-02T19:35:00Z,41.4,-92.95,28.6,17.9,50,4,,10.0,30.008858,,,TRUE,TRUE,,,,,,,CLR,,,,,,,,VFR,,,,,,,,,,,,METAR,264.0
KPCW 021935Z AUTO 07009KT 10SM CLR 30/10 A3002 RMK AO2,KPCW,2023-06-02T19:35:00Z,41.52,-82.87,30.0,10.0,70,9,,10.0,30.02067,,,TRUE,TRUE,,,,,,,CLR,,,,,,,,VFR,,,,,,,,,,,,METAR,179.0
KPBX 021935Z AUTO 04006KT 10SM CLR 29/12 A2998 RMK AO2 T02860117,KPBX,2023-06-02T19:35:00Z,37.57,-82.57,28.6,11.7,40,6,,10.0,29.97933,,,TRUE,TRUE,,,,,,,CLR,,,,,,,,VFR,,,,,,,,,,,,SPECI,447.0
KP52 021935Z AUTO 00000KT 10SM CLR 28/04 A2994 RMK AO2,KP52,2023-06-02T19:35:00Z,34.73,-112.03,28.0,4.0,0,0,,10.0,29.940945,,,TRUE,TRUE,,,,,,,CLR,,,,,,,,VFR,,,,,,,,,,,,METAR,1085.0
KP08 021935Z AUTO VRB05KT 10SM CLR 30/03 A2989 RMK AO2,KP08,2023-06-02T19:35:00Z,32.93,-111.43,30.0,3.0,0,5,,10.0,29.890747,,,TRUE,TRUE,,,,,,,CLR,,,,,,,,VFR,,,,,,,,,,,,SPECI,477.0
KOZA 021935Z AUTO 18013G18KT 10SM BKN028 BKN036 OVC049 26/18 A2993 RMK AO2,KOZA,2023-06-02T19:35:00Z,30.73,-101.2,26.0,18.0,180,13,18,10.0,29.929134,,,TRUE,TRUE,,,,,,,BKN,2800,BKN,3600,OVC,4900,,,MVFR,,,,,,,,,,,,SPECI,721.0
KOXV 021935Z AUTO 20005KT 10SM FEW050 FEW060 FEW070 30/18 A2999 RMK AO2,KOXV,2023-06-02T19:35:00Z,41.28,-93.12,30.0,18.0,200,5,,10.0,29.991142,,,TRUE,TRUE,,,,,,,FEW,5000,FEW,6000,FEW,7000,,,VFR,,,,,,,,,,,,SPECI,280.0
KOXI 021935Z AUTO 07008KT 10SM CLR 32/06 A3001 RMK AO1,KOXI,2023-06-02T19:35:00Z,41.33,-86.67,32.0,6.0,70,8,,10.0,30.008858,,,TRUE,TRUE,,,,,,,CLR,,,,,,,,VFR,,,,,,,,,,,,SPECI,208.0
KOWX 021935Z AUTO 06014G19KT 10SM SCT090 34/02 A3002 RMK AO1,KOWX,2023-06-02T19:35:00Z,41.03,-83.98,34.0,2.0,60,14,19,10.0,30.02067,,,TRUE,TRUE,,,,,,,SCT,9000,,,,,,,VFR,,,,,,,,,,,,SPECI,232.0
KOWP 021935Z AUTO 15009KT 10SM SCT055 SCT075 SCT085 32/17 A2994 RMK AO2 T03200174,KOWP,2023-06-02T19:35:00Z,36.18,-96.15,32.0,17.4,150,9,,10.0,29.940945,,,TRUE,TRUE,,,,,,,SCT,5500,SCT,7500,SCT,8500,,,VFR,,,,,,,,,,,,METAR,267.0
KOWI 021935Z AUTO 12006G12KT 10SM VCTS FEW050 SCT055 32/19 A2994 RMK AO2 LTG DSNT SW AND NW PWINO,KOWI,2023-06-02T19:35:00Z,38.53,-95.25,32.0,19.0,120,6,12,10.0,29.940945,,,TRUE,TRUE,,,,,TRUE,VCTS,FEW,5000,SCT,5500,,,,,VFR,,,,,,,,,,,,METAR,292.0
KOSA 021935Z AUTO 11005KT 7SM BKN110 31/20 A2991 RMK AO2 T03050197,KOSA,2023-06-02T19:35:00Z,33.1,-94.97,30.5,19.7,110,5,,7.0,29.911417,,,TRUE,TRUE,,,,,,,BKN,11000,,,,,,,VFR,,,,,,,,,,,,SPECI,108.0
KORG 021935Z AUTO 00000KT 10SM SCT048 SCT055 BKN080 32/18 A2990 RMK AO2 T03200182,KORG,2023-06-02T19:35:00Z,30.07,-93.8,32.0,18.2,0,0,,10.0,29.899607,,,TRUE,TRUE,,,,,,,SCT,4800,SCT,5500,BKN,8000,,,VFR,,,,,,,,,,,,SPECI,2.0
KOQN 021935Z AUTO 11005KT 10SM CLR 35/11 A2986 RMK AO2 LTG DSNT NE,KOQN,2023-06-02T19:35:00Z,39.98,-75.58,35.0,11.0,110,5,,10.0,29.861221,,,TRUE,TRUE,,,,,,,CLR,,,,,,,,VFR,,,,,,,,,,,,METAR,141.0
KOPN 021935Z AUTO 05005KT 10SM SCT055 BKN065 BKN080 27/12 A2990 RMK AO2,KOPN,2023-06-02T19:35:00Z,32.95,-84.27,27.0,12.0,50,5,,10.0,29.899607,,,TRUE,TRUE,,,,,,,SCT,5500,BKN,6500,BKN,8000,,,VFR,,,,,,,,,,,,SPECI,241.0
KOPL 021935Z AUTO 00000KT 10SM SCT060 32/17 A2989 RMK AO2 T03150168,KOPL,2023-06-02T19:35:00Z,30.55,-92.1,31.5,16.8,0,0,,10.0,29.890747,,,TRUE,TRUE,,,,,,,SCT,6000,,,,,,,VFR,,,,,,,,,,,,METAR,22.0
KOOA 021935Z AUTO 17004KT 10SM SCT065 SCT120 33/15 A2999 RMK AO2 T03280149,KOOA,2023-06-02T19:35:00Z,41.23,-92.5,32.8,14.9,170,4,,10.0,29.991142,,,TRUE,TRUE,,,,,,,SCT,6500,SCT,12000,,,,,VFR,,,,,,,,,,,,METAR,256.0
KONP 021935Z AUTO 34012G16KT 10SM CLR 13/07 A3019 RMK AO2,KONP,2023-06-02T19:35:00Z,44.57,-124.05,13.0,7.0,340,12,16,10.0,30.188976,,,TRUE,TRUE,,,,,,,CLR,,,,,,,,VFR,,,,,,,,,,,,SPECI,43.0
KONL 021935Z AUTO 17012G15KT 10SM SCT029 SCT037 SCT047 23/15 A2999 RMK AO2 T02300153,KONL,2023-06-02T19:35:00Z,42.47,-98.68,23.0,15.3,170,12,15,10.0,29.991142,,,TRUE,TRUE,,,,,,,SCT,2900,SCT,3700,SCT,4700,,,VFR,,,,,,,,,,,,SPECI,619.0
KOLZ 021935Z AUTO 00000KT 10SM CLR 29/17 A3004 RMK A01,KOLZ,2023-06-02T19:35:00Z,42.67,-91.97,29.0,17.0,0,0,,10.0,30.041338,,,TRUE,TRUE,,,,,,,CLR,,,,,,,,VFR,,,,,,,,,,,,SPECI,328.0
KOLG 021935Z AUTO 07006KT 10SM SCT027 SCT036 OVC070 21/17 A3009 RMK AO1 P0003,KOLG,2023-06-02T19:35:00Z,46.3,-91.82,21.0,17.0,70,6,,10.0,30.088583,,,TRUE,TRUE,,,,,,,SCT,2700,SCT,3600,OVC,7000,,,VFR,,,,,,0.03,,,,,,METAR,334.0
KOLE 021935Z AUTO 04007KT 10SM SCT085 SCT100 BKN120 28/09 A3005 RMK AO2 LTG DSNT N,KOLE,2023-06-02T19:35:00Z,42.23,-78.37,28.0,9.0,40,7,,10.0,30.050198,,,TRUE,TRUE,,,,,,,SCT,8500,SCT,10000,BKN,12000,,,VFR,,,,,,,,,,,,SPECI,651.0
KOKZ 021935Z AUTO 07009KT 10SM SCT049 BKN070 31/16 A2985 RMK AO2 T03080158,KOKZ,2023-06-02T19:35:00Z,32.97,-82.83,30.8,15.8,70,9,,10.0,29.84941,,,TRUE,TRUE,,,,,,,SCT,4900,BKN,7000,,,,,VFR,,,,,,,,,,,,SPECI,128.0
KOKM 021935Z AUTO 15009KT 10SM CLR 31/18 A2992 RMK AO2 T03130179,KOKM,2023-06-02T19:35:00Z,35.67,-95.95,31.3,17.9,150,9,,10.0,29.920275,,,TRUE,TRUE,,,,,,,CLR,,,,,,,,VFR,,,,,,,,,,,,SPECI,215.0
KOJA 021935Z AUTO 17013G22KT 10SM VCTS SCT044 SCT055 BKN090 28/18 A2988 RMK AO2 LTG DSNT W THRU N T02790182,KOJA,2023-06-02T19:35:00Z,35.55,-98.67,27.9,18.2,170,13,22,10.0,29.878937,,,TRUE,TRUE,,,,,,VCTS,SCT,4400,SCT,5500,BKN,9000,,,VFR,,,,,,,,,,,,METAR,490.0
KOGS 021935Z AUTO VRB04KT 10SM CLR 32/15 A2991 RMK AO2 LTG DSNT NE,KOGS,2023-06-02T19:35:00Z,44.67,-75.47,32.0,15.0,0,4,,10.0,29.911417,,,TRUE,TRUE,,,,,,,CLR,,,,,,,,VFR,,,,,,,,,,,,SPECI,88.0
KOGA 021935Z AUTO 15009G15KT 10SM SCT047 SCT055 SCT085 26/14 A2991 RMK AO2 LTG DSNT SW T02600139,KOGA,2023-06-02T19:35:00Z,41.12,-101.77,26.0,13.9,150,9,15,10.0,29.911417,,,TRUE,TRUE,,,,,,,SCT,4700,SCT,5500,SCT,8500,,,VFR,,,,,,,,,,,,SPECI,991.0
KOEL 021935Z AUTO 16012KT 10SM CLR 24/12 A2993 RMK AO1 T02400115,KOEL,2023-06-02T19:35:00Z,39.12,-100.82,24.0,11.5,160,12,,10.0,29.929134,,,TRUE,TRUE,,,,,,,CLR,,,,,,,,VFR,,,,,,,,,,,,METAR,924.0
KOEB 021935Z AUTO 07010KT 10SM CLR 31/08 A3004 RMK AO2 T03120077,KOEB,2023-06-02T19:35:00Z,41.92,-85.05,31.2,7.7,70,10,,10.0,30.041338,,,TRUE,TRUE,,,,,,,CLR,,,,,,,,VFR,,,,,,,,,,,,METAR,291.0
KOBE 021935Z AUTO 06008G13KT 10SM CLR 30/25 A2970 RMK AO2 LTG DSNT SW AND W,KOBE,2023-06-02T19:35:00Z,27.27,-80.85,30.0,25.0,60,8,13,10.0,29.698818,,,TRUE,TRUE,,,,,,,CLR,,,,,,,,VFR,,,,,,,,,,,,SPECI,11.0
KOAR 021935Z AUTO 29009KT 10SM SCT018 15/08 A3003 RMK AO2 PWINO,KOAR,2023-06-02T19:35:00Z,36.67,-121.77,15.0,8.0,290,9,,10.0,30.029528,,,TRUE,TRUE,,,,,TRUE,,SCT,1800,,,,,,,VFR,,,,,,,,,,,,SPECI,41.0
KO86 021935Z AUTO VRB05KT 10SM 24/05 A3002 RMK A01,KO86,2023-06-02T19:35:00Z,40.98,-122.7,24.0,5.0,0,5,,10.0,30.02067,,,TRUE,TRUE,,,,,,,,,,,,,,,,,,,,,,,,,,,METAR,729.0
KO69 021935Z AUTO VRB04KT 10SM CLR 21/10 A2999 RMK A01,KO69,2023-06-02T19:35:00Z,38.25,-122.6,21.0,10.0,0,4,,10.0,29.991142,,,TRUE,TRUE,,,,,,,CLR,,,,,,,,VFR,,,,,,,,,,,,SPECI,26.0
KNUQ 021935Z AUTO 34008KT 10SM CLR 20/10 A2999 RMK AO2,KNUQ,2023-06-02T19:35:00Z,37.4,-122.05,20.0,10.0,340,8,,10.0,29.991142,,,TRUE,TRUE,,,,,,,CLR,,,,,,,,VFR,,,,,,,,,,,,SPECI,9.0
KNRN 021935Z AUTO 12012KT 10SM CLR 21/16 A2998 RMK AO2,KNRN,2023-06-02T19:35:00Z,39.85,-99.9,21.0,16.0,120,12,,10.0,29.97933,,,TRUE,TRUE,,,,,,,CLR,,,,,,,,VFR,,,,,,,,,,,,SPECI,726.0
KNOW 021935Z AUTO 30010KT 10SM CLR 14/09 A3013 RMK AO2 T01370094,KNOW,2023-06-02T19:35:00Z,48.13,-123.4,13.7,9.4,300,10,,10.0,30.129921,,,TRUE,TRUE,,,,,,,CLR,,,,,,,,VFR,,,,,,,,,,,,METAR,3.0
KN03 021935Z AUTO 01006KT 10SM SCT110 31/10 A2996 RMK AO2,KN03,2023-06-02T19:35:00Z,42.6,-76.22,31.0,10.0,10,6,,10.0,29.958662,,,TRUE,TRUE,,,,,,,SCT,11000,,,,,,,VFR,,,,,,,,,,,,METAR,361.0
KMZZ 021935Z AUTO 04008KT 010V070 5SM HZ CLR 31/09 A3001 RMK AO2 T03120093,KMZZ,2023-06-02T19:35:00Z,40.48,-85.68,31.2,9.3,40,8,,5.0,30.008858,,,TRUE,TRUE,,,,,,HZ,CLR,,,,,,,,MVFR,,,,,,,,,,,,SPECI,260.0
KMYZ 021935Z AUTO 16003KT 10SM SCT050 SCT055 SCT100 28/18 A2994 RMK AO2 LTG DSNT NE AND W,KMYZ,2023-06-02T19:35:00Z,39.85,-96.63,28.0,18.0,160,3,,10.0,29.940945,,,TRUE,TRUE,,,,,,,SCT,5000,SCT,5500,SCT,10000,,,VFR,,,,,,,,,,,,SPECI,388.0
KMYP 021935Z AUTO 25022G27KT OVC001 M01/M01 A3038 RMK AO2 PWINO,KMYP,2023-06-02T19:35:00Z,38.48,-106.32,-1.0,-1.0,250,22,27,,30.380905,,,TRUE,TRUE,,,,,TRUE,,OVC,100,,,,,,,,,,,,,,,,,,,SPECI,3629.0
KMWO 021935Z AUTO 04006KT 10SM CLR 32/07 A2997 RMK AO2 T03230075,KMWO,2023-06-02T19:35:00Z,39.53,-84.4,32.3,7.5,40,6,,10.0,29.970472,,,TRUE,TRUE,,,,,,,CLR,,,,,,,,VFR,,,,,,,,,,,,METAR,197.0
KMUT 021935Z AUTO 13007KT 10SM 34/16 A2999 RMK AO2,KMUT,2023-06-02T19:35:00Z,41.37,-91.15,34.0,16.0,130,7,,10.0,29.991142,,,TRUE,TRUE,,,,,,,,,,,,,,,,,,,,,,,,,,,SPECI,166.0
KMQW 021935Z AUTO 07008KT 10SM SCT047 SCT060 OVC085 30/18 A2983 RMK AO2 T03040180,KMQW,2023-06-02T19:35:00Z,32.1,-82.88,30.4,18.0,70,8,,10.0,29.828741,,,TRUE,TRUE,,,,,,,SCT,4700,SCT,6000,OVC,8500,,,VFR,,,,,,,,,,,,SPECI,62.0
KMQB 021935Z AUTO 00000KT 10SM SCT080 32/14 A3001 RMK AO2 T03210135,KMQB,2023-06-02T19:35:00Z,40.52,-90.65,32.1,13.5,0,0,,10.0,30.008858,,,TRUE,TRUE,,,,,,,SCT,8000,,,,,,,VFR,,,,,,,,,,,,METAR,205.0
KMPZ 021935Z AUTO 13008KT 10SM CLR 31/15 A2999 RMK AO2,KMPZ,2023-06-02T19:35:00Z,40.95,-91.52,31.0,15.0,130,8,,10.0,29.991142,,,TRUE,TRUE,,,,,,,CLR,,,,,,,,VFR,,,,,,,,,,,,METAR,222.0
KMPR 021935Z AUTO 27022G34KT 10SM SCT020 BKN043 OVC070 18/16 A3000 RMK AO2 T01800156,KMPR,2023-06-02T19:35:00Z,38.35,-97.68,18.0,15.6,270,22,34,10.0,30.0,,,TRUE,TRUE,,,,,,,SCT,2000,BKN,4300,OVC,7000,,,VFR,,,,,,,,,,,,SPECI,455.0
KMNZ 021935Z AUTO 18010G15KT 10SM BKN050 BKN065 30/17 A2991 RMK AO2 T03030170,KMNZ,2023-06-02T19:35:00Z,31.67,-98.15,30.3,17.0,180,10,15,10.0,29.911417,,,TRUE,TRUE,,,,,,,BKN,5000,BKN,6500,,,,,VFR,,,,,,,,,,,,SPECI,397.0
KMNV 021935Z AUTO 03009KT 10SM 30/14 A2991 RMK A01,KMNV,2023-06-02T19:35:00Z,35.55,-84.38,30.0,14.0,30,9,,10.0,29.911417,,,TRUE,TRUE,,,,,,,,,,,,,,,,,,,,,,,,,,,METAR,306.0
KMNH 021935Z AUTO 24007KT 10SM SCT075 18/00 A3001 RMK AO2 LTG DSNT N,KMNH,2023-06-02T19:35:00Z,39.22,-104.65,18.0,0.0,240,7,,10.0,30.008858,,,TRUE,TRUE,,,,,,,SCT,7500,,,,,,,VFR,,,,,,,,,,,,METAR,2152.0
KMMI 021935Z AUTO 06010G16KT 10SM CLR 30/13 A2991 RMK A01,KMMI,2023-06-02T19:35:00Z,35.4,-84.57,30.0,13.0,60,10,16,10.0,29.911417,,,TRUE,TRUE,,,,,,,CLR,,,,,,,,VFR,,,,,,,,,,,,METAR,252.0
KMMH 021935Z AUTO 15004KT 10SM CLR 20/M08 A3013 RMK AO2 T02031076,KMMH,2023-06-02T19:35:00Z,37.62,-118.83,20.3,-7.6,150,4,,10.0,30.129921,,,TRUE,TRUE,,,,,,,CLR,,,,,,,,VFR,,,,,,,,,,,,SPECI,2167.0
KMLJ 021935Z AUTO 04005G11KT 10SM SCT050 SCT065 BKN075 30/16 A2985 RMK AO2,KMLJ,2023-06-02T19:35:00Z,33.15,-83.25,30.0,16.0,40,5,11,10.0,29.84941,,,TRUE,TRUE,,,,,,,SCT,5000,SCT,6500,BKN,7500,,,VFR,,,,,,,,,,,,SPECI,115.0
KMLE 021935Z AUTO 18006KT 10SM SCT110 28/15 A2996 RMK AO2 LTG DSNT N NE AND S T02750149,KMLE,2023-06-02T19:35:00Z,41.2,-96.12,27.5,14.9,180,6,,10.0,29.958662,,,TRUE,TRUE,,,,,,,SCT,11000,,,,,,,VFR,,,,,,,,,,,,SPECI,318.0
KMKN 021935Z AUTO 14010KT 10SM 33/17 A2990 RMK AO2 T03300169,KMKN,2023-06-02T19:35:00Z,31.92,-98.6,33.0,16.9,140,10,,10.0,29.899607,,,TRUE,TRUE,,,,,,,,,,,,,,,,,,,,,,,,,,,SPECI,428.0
KMJD 021935Z AUTO 03006G13KT 10SM FEW075 31/17 A2984 RMK AO2,KMJD,2023-06-02T19:35:00Z,30.48,-89.65,31.0,17.0,30,6,13,10.0,29.840551,,,TRUE,TRUE,,,,,,,FEW,7500,,,,,,,VFR,,,,,,,,,,,,SPECI,17.0
KMIO 021935Z AUTO 17007G12KT 10SM FEW060 31/18 A2993 RMK AO2,KMIO,2023-06-02T19:35:00Z,36.92,-94.88,31.0,18.0,170,7,12,10.0,29.929134,,,TRUE,TRUE,,,,,,,FEW,6000,,,,,,,VFR,,,,,,,,,,,,METAR,245.0
KMHP 021935Z AUTO 03010KT 10SM SCT048 SCT060 29/16 A2983 RMK AO2 T02900162,KMHP,2023-06-02T19:35:00Z,32.37,-82.08,29.0,16.2,30,10,,10.0,29.828741,,,TRUE,TRUE,,,,,,,SCT,4800,SCT,6000,,,,,VFR,,,,,,,,,,,,SPECI,60.0
KMEV 021935Z AUTO 00000KT 10SM CLR 20/M01 A3007 RMK AO2,KMEV,2023-06-02T19:35:00Z,38.98,-119.75,20.0,-1.0,0,0,,10.0,30.070866,,,TRUE,TRUE,,,,,,,CLR,,,,,,,,VFR,,,,,,,,,,,,SPECI,1437.0
KMDQ 021935Z AUTO 14003KT 10SM SCT100 SCT120 30/14 A2990 RMK A02 LTG DSNT NE T02970143,KMDQ,2023-06-02T19:35:00Z,34.87,-86.55,29.7,14.3,140,3,,10.0,29.899607,,,TRUE,TRUE,,,,,,,SCT,10000,SCT,12000,,,,,VFR,,,,,,,,,,,,SPECI,221.0
KMDD 021935Z AUTO 14023G29KT 10SM SCT035 SCT044 BKN060 28/17 A2985 RMK AO2 T02760175,KMDD,2023-06-02T19:35:00Z,32.03,-102.1,27.6,17.5,140,23,29,10.0,29.84941,,,TRUE,TRUE,,,,,,,SCT,3500,SCT,4400,BKN,6000,,,VFR,,,,,,,,,,,,SPECI,853.0
KMCC 021935Z AUTO 34006KT 10SM CLR 25/10 A2994 RMK AO2,KMCC,2023-06-02T19:35:00Z,38.67,-121.4,25.0,10.0,340,6,,10.0,29.940945,,,TRUE,TRUE,,,,,,,CLR,,,,,,,,VFR,,,,,,,,,,,,SPECI,21.0
KMBT 021935Z AUTO VRB06KT 10SM FEW065 FEW075 31/14 A2989 RMK A01,KMBT,2023-06-02T19:35:00Z,35.88,-86.38,31.0,14.0,0,6,,10.0,29.890747,,,TRUE,TRUE,,,,,,,FEW,6500,FEW,7500,,,,,VFR,,,,,,,,,,,,METAR,187.0
KM75 021935Z AUTO 01014KT 3SM BR FEW030 FEW037 18/17 A2995 RMK A01,KM75,2023-06-02T19:35:00Z,48.37,-107.92,18.0,17.0,10,14,,3.0,29.949802,,,TRUE,TRUE,,,,,,BR,FEW,3000,FEW,3700,,,,,MVFR,,,,,,,,,,,,METAR,687.0
KM30 021935Z AUTO 08004KT 10SM BKN065 32/14 A2994 RMK AO2 T03150135,KM30,2023-06-02T19:35:00Z,37.18,-88.75,31.5,13.5,80,4,,10.0,29.940945,,,TRUE,TRUE,,,,,,,BKN,6500,,,,,,,VFR,,,,,,,,,,,,METAR,116.0
KM08 021935Z AUTO VRB05KT 10SM SCT050 SCT065 30/18 A2991 RMK A01,KM08,2023-06-02T19:35:00Z,35.22,-89.05,30.0,18.0,0,5,,10.0,29.911417,,,TRUE,TRUE,,,,,,,SCT,5000,SCT,6500,,,,,VFR,,,,,,,,,,,,METAR,149.0
KM01 021935Z AUTO 30006KT 10SM FEW060 SCT080 31/19 A2988 RMK AO2 T03120189 $,KM01,2023-06-02T19:35:00Z,35.2,-90.05,31.2,18.9,300,6,,10.0,29.878937,,,TRUE,TRUE,TRUE,,,,,,FEW,6000,SCT,8000,,,,,VFR,,,,,,,,,,,,SPECI,68.0
KLZZ 021935Z AUTO 18009KT 150V210 10SM CLR 30/16 A2987 RMK AO2 T03010164,KLZZ,2023-06-02T19:35:00Z,31.1,-98.2,30.1,16.4,180,9,,10.0,29.870079,,,TRUE,TRUE,,,,,,,CLR,,,,,,,,VFR,,,,,,,,,,,,METAR,356.0
KLYO 021935Z AUTO 35005KT 10SM RA SCT060 BKN085 OVC100 17/15 A3000 RMK AO2 T01670151,KLYO,2023-06-02T19:35:00Z,38.35,-98.23,16.7,15.1,350,5,,10.0,30.0,,,TRUE,TRUE,,,,,,RA,SCT,6000,BKN,8500,OVC,10000,,,VFR,,,,,,,,,,,,SPECI,515.0
KLXY 021935Z AUTO 17010G14KT 130V200 10SM SCT048 SCT050 32/19 A2989 RMK AO2 T03160192,KLXY,2023-06-02T19:35:00Z,31.63,-96.52,31.6,19.2,170,10,14,10.0,29.890747,,,TRUE,TRUE,,,,,,,SCT,4800,SCT,5000,,,,,VFR,,,,,,,,,,,,SPECI,164.0
KLXN 021935Z AUTO 12019G25KT 10SM SCT021 BKN026 OVC060 22/17 A2997 RMK AO2 T02160167,KLXN,2023-06-02T19:35:00Z,40.78,-99.77,21.6,16.7,120,19,25,10.0,29.970472,,,TRUE,TRUE,,,,,,,SCT,2100,BKN,2600,OVC,6000,,,MVFR,,,,,,,,,,,,SPECI,734.0
KLUV 021935Z AUTO 15024KT 10SM CLR 26/16 A2985 RMK AO2,KLUV,2023-06-02T19:35:00Z,32.75,-101.92,26.0,16.0,150,24,,10.0,29.84941,,,TRUE,TRUE,,,,,,,CLR,,,,,,,,VFR,,,,,,,,,,,,METAR,910.0
KLUL 021935Z AUTO 03005KT 10SM SCT060 SCT100 31/16 A2988 RMK A02 T03120161,KLUL,2023-06-02T19:35:00Z,31.67,-89.17,31.2,16.1,30,5,,10.0,29.878937,,,TRUE,TRUE,,,,,,,SCT,6000,SCT,10000,,,,,VFR,,,,,,,,,,,,SPECI,74.0
KLUG 021935Z AUTO 02007G18KT 10SM FEW065 SCT075 SCT085 30/15 A2990 RMK A01,KLUG,2023-06-02T19:35:00Z,35.52,-86.8,30.0,15.0,20,7,18,10.0,29.899607,,,TRUE,TRUE,,,,,,,FEW,6500,SCT,7500,SCT,8500,,,VFR,,,,,,,,,,,,METAR,218.0
KLUD 021935Z AUTO 18012G15KT 10SM SCT050 31/17 A2990 RMK AO2 T03100174,KLUD,2023-06-02T19:35:00Z,33.25,-97.58,31.0,17.4,180,12,15,10.0,29.899607,,,TRUE,TRUE,,,,,,,SCT,5000,,,,,,,VFR,,,,,,,,,,,,SPECI,319.0
KLRU 021935Z AUTO 25010G18KT 10SM CLR 30/M07 A2997 RMK AO2 T02961075,KLRU,2023-06-02T19:35:00Z,32.28,-106.92,29.6,-7.5,250,10,18,10.0,29.970472,,,TRUE,TRUE,,,,,,,CLR,,,,,,,,VFR,,,,,,,,,,,,SPECI,1355.0
KLRJ 021935Z AUTO 17009G26KT 10SM FEW065 SCT075 SCT090 29/16 A2994 RMK AO2,KLRJ,2023-06-02T19:35:00Z,42.77,-96.2,29.0,16.0,170,9,26,10.0,29.940945,,,TRUE,TRUE,,,,,,,FEW,6500,SCT,7500,SCT,9000,,,VFR,,,,,,,,,,,,SPECI,363.0
KLOM 021935Z AUTO 04006KT 10SM BKN090 32/13 A2986 RMK AO2 T03180134,KLOM,2023-06-02T19:35:00Z,40.13,-75.27,31.8,13.4,40,6,,10.0,29.861221,,,TRUE,TRUE,,,,,,,BKN,9000,,,,,,,VFR,,,,,,,,,,,,SPECI,87.0
KLNQ 021935Z AUTO 04006KT 10SM CLR 30/18 A2987 RMK AO2 T03010175,KLNQ,2023-06-02T19:35:00Z,29.35,-89.43,30.1,17.5,40,6,,10.0,29.870079,,,TRUE,TRUE,,,,,,,CLR,,,,,,,,VFR,,,,,,,,,,,,SPECI,1.0
KLNN 021935Z AUTO 02005KT 10SM CLR 25/14 A3001 RMK AO1 T02450135,KLNN,2023-06-02T19:35:00Z,41.68,-81.38,24.5,13.5,20,5,,10.0,30.008858,,,TRUE,TRUE,,,,,,,CLR,,,,,,,,VFR,,,,,,,,,,,,SPECI,190.0
KLNC 021935Z AUTO 18003KT 10SM SCT050 SCT070 SCT100 30/19 A2990 RMK AO2 T03010191,KLNC,2023-06-02T19:35:00Z,32.58,-96.72,30.1,19.1,180,3,,10.0,29.899607,,,TRUE,TRUE,,,,,,,SCT,5000,SCT,7000,SCT,10000,,,VFR,,,,,,,,,,,,SPECI,152.0
KLNA 021935Z AUTO 02005KT 10SM SCT027 BKN095 28/24 A2972 RMK AO2 LTG DSNT S THRU W T02830238,KLNA,2023-06-02T19:35:00Z,26.6,-80.08,28.3,23.8,20,5,,10.0,29.719488,,,TRUE,TRUE,,,,,,,SCT,2700,BKN,9500,,,,,VFR,,,,,,,,,,,,METAR,3.0
KLMS 021935Z AUTO 00000KT 10SM FEW050 FEW055 30/18 A2993 RMK AO2,KLMS,2023-06-02T19:35:00Z,,,30.0,18.0,0,0,,10.0,29.929134,,,TRUE,TRUE,,,,,,,FEW,5000,FEW,5500,,,,,VFR,,,,,,,,,,,,METAR,
KLMO 021935Z AUTO 36007KT 10SM CLR 20/09 A2998 RMK AO2 T01980092,KLMO,2023-06-02T19:35:00Z,40.17,-105.17,19.8,9.2,360,7,,10.0,29.97933,,,TRUE,TRUE,,,,,,,CLR,,,,,,,,VFR,,,,,,,,,,,,SPECI,1535.0
KLLN 021935Z AUTO 35009G17KT 7SM VCTS RA FEW008 OVC034 14/13 A2993 RMK AO2 LTG DSNT ALQDS,KLLN,2023-06-02T19:35:00Z,33.55,-102.37,14.0,13.0,350,9,17,7.0,29.929134,,,TRUE,TRUE,,,,,,VCTS RA,FEW,800,OVC,3400,,,,,VFR,,,,,,,,,,,,METAR,1071.0
KLHM 021935Z AUTO 02004KT 10SM CLR 25/11 A2994 RMK AO1,KLHM,2023-06-02T19:35:00Z,38.92,-121.35,25.0,11.0,20,4,,10.0,29.940945,,,TRUE,TRUE,,,,,,,CLR,,,,,,,,VFR,,,,,,,,,,,,SPECI,36.0
KLHB 021935Z AUTO 10005KT 10SM SCT055 32/19 A2990 RMK AO2 T03230188,KLHB,2023-06-02T19:35:00Z,30.87,-96.62,32.3,18.8,100,5,,10.0,29.899607,,,TRUE,TRUE,,,,,,,SCT,5500,,,,,,,VFR,,,,,,,,,,,,SPECI,83.0
KLGC 021935Z AUTO 07006KT 10SM SCT075 BKN085 29/14 A2988 RMK AO2 T02890144,KLGC,2023-06-02T19:35:00Z,33.0,-85.07,28.9,14.4,70,6,,10.0,29.878937,,,TRUE,TRUE,,,,,,,SCT,7500,BKN,8500,,,,,VFR,,,,,,,,,,,,SPECI,209.0
KLCQ 021935Z AUTO 04007KT 10SM SCT047 SCT055 BKN070 27/18 A2978 RMK AO2,KLCQ,2023-06-02T19:35:00Z,30.18,-82.58,27.0,18.0,40,7,,10.0,29.778543,,,TRUE,TRUE,,,,,,,SCT,4700,SCT,5500,BKN,7000,,,VFR,,,,,,,,,,,,SPECI,59.0
KLCG 021935Z AUTO 22013G28KT 170V240 10SM CLR 30/16 A2996 RMK AO2 LTG DSNT NE THRU SE T03010156,KLCG,2023-06-02T19:35:00Z,42.25,-96.98,30.1,15.6,220,13,28,10.0,29.958662,,,TRUE,TRUE,,,,,,,CLR,,,,,,,,VFR,,,,,,,,,,,,METAR,434.0
KLAM 021935Z AUTO 33005KT 8SM SCT065 BKN090 OVC110 15/04 A3009 RMK AO2 T01500044 $,KLAM,2023-06-02T19:35:00Z,35.87,-106.27,15.0,4.4,330,5,,8.0,30.088583,,,TRUE,TRUE,TRUE,,,,,,SCT,6500,BKN,9000,OVC,11000,,,VFR,,,,,,,,,,,,METAR,2166.0
KKNB 021935Z AUTO 24011KT 10SM FEW045 FEW080 FEW110 25/03 A3003 RMK A01,KKNB,2023-06-02T19:35:00Z,37.02,-112.53,25.0,3.0,240,11,,10.0,30.029528,,,TRUE,TRUE,,,,,,,FEW,4500,FEW,8000,FEW,11000,,,VFR,,,,,,,,,,,,METAR,1476.0
KK88 021935Z AUTO 14008KT 10SM SCT050 SCT085 29/17 A2996 RMK AO1 T02900174,KK88,2023-06-02T19:35:00Z,37.87,-95.38,29.0,17.4,140,8,,10.0,29.958662,,,TRUE,TRUE,,,,,,,SCT,5000,SCT,8500,,,,,VFR,,,,,,,,,,,,METAR,308.0
KK82 021935Z AUTO 14005KT 7SM RA BR SCT025 BKN075 OVC100 18/17 A3000 RMK AO2 LTG DSNT NE AND E P0002 T01780171,KK82,2023-06-02T19:35:00Z,39.77,-98.8,17.8,17.1,140,5,,7.0,30.0,,,TRUE,TRUE,,,,,,RA BR,SCT,2500,BKN,7500,OVC,10000,,,VFR,,,,,,0.02,,,,,,SPECI,548.0
KK70 021935Z AUTO 14003KT 10SM CLR 30/M33 A2970 RMK AO2 LTG DSNT N,KK70,2023-06-02T19:35:00Z,25.32,-80.28,30.0,-33.0,140,3,,10.0,29.698818,,,TRUE,TRUE,,,,,,,CLR,,,,,,,,VFR,,,,,,,,,,,,METAR,20.0
KK62 021935Z AUTO 06009G14KT 10SM CLR 32/10 A2996 RMK AO2,KK62,2023-06-02T19:35:00Z,38.7,-84.4,32.0,10.0,60,9,14,10.0,29.958662,,,TRUE,TRUE,,,,,,,CLR,,,,,,,,VFR,,,,,,,,,,,,SPECI,274.0
KJZP 021935Z AUTO 09004KT 10SM SCT048 SCT060 BKN070 29/15 A2993 RMK AO2 T02880149,KJZP,2023-06-02T19:35:00Z,34.45,-84.47,28.8,14.9,90,4,,10.0,29.929134,,,TRUE,TRUE,,,,,,,SCT,4800,SCT,6000,BKN,7000,,,VFR,,,,,,,,,,,,SPECI,462.0
KJYR 021935Z AUTO 00000KT 10SM FEW060 BKN100 24/15 A2997 RMK AO2 LTG DSNT SE AND SW,KJYR,2023-06-02T19:35:00Z,40.9,-97.62,24.0,15.0,0,0,,10.0,29.970472,,,TRUE,TRUE,,,,,,,FEW,6000,BKN,10000,,,,,VFR,,,,,,,,,,,,SPECI,508.0
KJWY 021935Z AUTO 15006KT 10SM SCT050 SCT070 BKN100 31/19 A2993 RMK AO2 T03120194,KJWY,2023-06-02T19:35:00Z,32.45,-96.92,31.2,19.4,150,6,,10.0,29.929134,,,TRUE,TRUE,,,,,,,SCT,5000,SCT,7000,BKN,10000,,,VFR,,,,,,,,,,,,SPECI,211.0
KJWG 021935Z AUTO 15012G17KT 10SM SCT044 SCT070 SCT120 28/18 A2991 RMK AO2 LTG DSNT W THRU N T02800179,KJWG,2023-06-02T19:35:00Z,35.87,-98.42,28.0,17.9,150,12,17,10.0,29.911417,,,TRUE,TRUE,,,,,,,SCT,4400,SCT,7000,SCT,12000,,,VFR,,,,,,,,,,,,METAR,469.0
KJVY 021935Z AUTO 11005KT 10SM CLR 32/10 A2996 RMK AO2,KJVY,2023-06-02T19:35:00Z,38.37,-85.73,32.0,10.0,110,5,,10.0,29.958662,,,TRUE,TRUE,,,,,,,CLR,,,,,,,,VFR,,,,,,,,,,,,SPECI,141.0
KJVW 021935Z AUTO 00000KT 10SM SCT120 31/18 A2988 RMK AO2,KJVW,2023-06-02T19:35:00Z,32.3,-90.42,31.0,18.0,0,0,,10.0,29.878937,,,TRUE,TRUE,,,,,,,SCT,12000,,,,,,,VFR,,,,,,,,,,,,METAR,73.0
KJTC 021935Z AUTO 30009G17KT 10SM CLR 22/M07 A3011 RMK AO2,KJTC,2023-06-02T19:35:00Z,34.13,-109.32,22.0,-7.0,300,9,17,10.0,30.109253,,,TRUE,TRUE,,,,,,,CLR,,,,,,,,VFR,,,,,,,,,,,,SPECI,2148.0
KJSV 021935Z AUTO VRB05G10KT 10SM SCT055 32/19 A2991 RMK AO2,KJSV,2023-06-02T19:35:00Z,35.43,-94.8,32.0,19.0,0,5,10,10.0,29.911417,,,TRUE,TRUE,,,,,,,SCT,5500,,,,,,,VFR,,,,,,,,,,,,SPECI,158.0
KJPX 021935Z AUTO 17007KT 10SM CLR 23/10 A2987 RMK AO2 T02330103,KJPX,2023-06-02T19:35:00Z,40.95,-72.25,23.3,10.3,170,7,,10.0,29.870079,,,TRUE,TRUE,,,,,,,CLR,,,,,,,,VFR,,,,,,,,,,,,METAR,10.0
KJOT 021935Z AUTO 08005G14KT 10SM CLR 33/13 A3002 RMK AO2 T03250130,KJOT,2023-06-02T19:35:00Z,41.52,-88.18,32.5,13.0,80,5,14,10.0,30.02067,,,TRUE,TRUE,,,,,,,CLR,,,,,,,,VFR,,,,,,,,,,,,METAR,175.0
KJES 021935Z AUTO 09005KT 10SM SCT045 BKN085 30/17 A2984 RMK AO2,KJES,2023-06-02T19:35:00Z,31.55,-81.88,30.0,17.0,90,5,,10.0,29.840551,,,TRUE,TRUE,,,,,,,SCT,4500,BKN,8500,,,,,VFR,,,,,,,,,,,,SPECI,26.0
KJDD 021935Z AUTO 13004KT 10SM CLR 31/19 A2989 RMK AO2,KJDD,2023-06-02T19:35:00Z,32.75,-95.5,31.0,19.0,130,4,,10.0,29.890747,,,TRUE,TRUE,,,,,,,CLR,,,,,,,,VFR,,,,,,,,,,,,SPECI,127.0
KJCA 021935Z AUTO 10010KT 10SM SCT050 29/15 A2991 RMK AO2 T02890155,KJCA,2023-06-02T19:35:00Z,34.18,-83.57,28.9,15.5,100,10,,10.0,29.911417,,,TRUE,TRUE,,,,,,,SCT,5000,,,,,,,VFR,,,,,,,,,,,,SPECI,287.0
KJAS 021935Z AUTO 00000KT 9SM SCT100 30/22 A2988 RMK AO2,KJAS,2023-06-02T19:35:00Z,30.88,-94.03,30.0,22.0,0,0,,9.0,29.878937,,,TRUE,TRUE,,,,,,,SCT,10000,,,,,,,VFR,,,,,,,,,,,,SPECI,60.0
KIZA 021935Z AUTO VRB06KT 220V280 1 3/4SM HZ CLR 21/11 A2999 RMK AO2 VIS 1V2 1/2,KIZA,2023-06-02T19:35:00Z,34.6,-120.07,21.0,11.0,0,6,,1.75,29.991142,,,TRUE,TRUE,,,,,,HZ,CLR,,,,,,,,IFR,,,,,,,,,,,,SPECI,200.0
KIYA 021935Z AUTO 00000KT BKN055 BKN065 32/14 A2988 RMK AO2 T03150142 PWINO,KIYA,2023-06-02T19:35:00Z,29.98,-92.08,31.5,14.2,0,0,,,29.878937,,,TRUE,TRUE,,,,,TRUE,,BKN,5500,BKN,6500,,,,,,,,,,,,,,,,,METAR,4.0
KIOB 021935Z AUTO 06006KT 10SM CLR 31/10 A2998 RMK AO2 PWINO,KIOB,2023-06-02T19:35:00Z,38.05,-83.98,31.0,10.0,60,6,,10.0,29.97933,,,TRUE,TRUE,,,,,TRUE,,CLR,,,,,,,,VFR,,,,,,,,,,,,METAR,301.0
KINJ 021935Z AUTO 18008KT 10SM SCT050 SCT075 SCT095 33/19 A2989 RMK AO2 T03310192,KINJ,2023-06-02T19:35:00Z,32.08,-97.1,33.1,19.2,180,8,,10.0,29.890747,,,TRUE,TRUE,,,,,,,SCT,5000,SCT,7500,SCT,9500,,,VFR,,,,,,,,,,,,SPECI,208.0
KIMS 021935Z AUTO 00000KT 10SM CLR 31/08 A3000 RMK AO2,KIMS,2023-06-02T19:35:00Z,38.75,-85.47,31.0,8.0,0,0,,10.0,30.0,,,TRUE,TRUE,,,,,,,CLR,,,,,,,,VFR,,,,,,,,,,,,METAR,244.0
KIKW 021935Z AUTO 09007KT 10SM CLR 31/09 A3007 RMK AO2 T03100093,KIKW,2023-06-02T19:35:00Z,43.67,-84.27,31.0,9.3,90,7,,10.0,30.070866,,,TRUE,TRUE,,,,,,,CLR,,,,,,,,VFR,,,,,,,,,,,,SPECI,190.0
KIKV 021935Z AUTO 14007KT 8SM CLR 30/19 A3000 RMK AO2,KIKV,2023-06-02T19:35:00Z,41.68,-93.57,30.0,19.0,140,7,,8.0,30.0,,,TRUE,TRUE,,,,,,,CLR,,,,,,,,VFR,,,,,,,,,,,,METAR,270.0
KIKK 021935Z AUTO 06008G16KT 10SM CLR 33/07 A3002 RMK AO2 T03280073 PWINO,KIKK,2023-06-02T19:35:00Z,41.07,-87.85,32.8,7.3,60,8,16,10.0,30.02067,,,TRUE,TRUE,,,,,TRUE,,CLR,,,,,,,,VFR,,,,,,,,,,,,SPECI,188.0
KIKG 021935Z AUTO 12010G20KT 10SM BKN043 BKN050 BKN060 32/21 A2984 RMK AO2 T03230212,KIKG,2023-06-02T19:35:00Z,27.55,-98.03,32.3,21.2,120,10,20,10.0,29.840551,,,TRUE,TRUE,,,,,,,BKN,4300,BKN,5000,BKN,6000,,,VFR,,,,,,,,,,,,SPECI,37.0
KIJX 021935Z AUTO 05003KT 10SM SCT085 SCT110 30/16 A2998 RMK AO2 T03040156,KIJX,2023-06-02T19:35:00Z,39.77,-90.25,30.4,15.6,50,3,,10.0,29.97933,,,TRUE,TRUE,,,,,,,SCT,8500,SCT,11000,,,,,VFR,,,,,,,,,,,,SPECI,187.0
KIIY 021935Z AUTO 02006KT 10SM BKN049 BKN060 27/16 A2988 RMK AO2 T02740160,KIIY,2023-06-02T19:35:00Z,33.78,-82.82,27.4,16.0,20,6,,10.0,29.878937,,,TRUE,TRUE,,,,,,,BKN,4900,BKN,6000,,,,,VFR,,,,,,,,,,,,SPECI,192.0
KIIB 021935Z AUTO 17015G18KT 7SM BKN050 OVC070 27/18 A3005 RMK AO2 T02670177,KIIB,2023-06-02T19:35:00Z,42.45,-91.95,26.7,17.7,170,15,18,7.0,30.050198,,,TRUE,TRUE,,,,,,,BKN,5000,OVC,7000,,,,,VFR,,,,,,,,,,,,METAR,294.0
KIGQ 021935Z AUTO 02009KT 10SM CLR 32/13 A3003 RMK AO2 T03180127,KIGQ,2023-06-02T19:35:00Z,41.53,-87.53,31.8,12.7,20,9,,10.0,30.029528,,,TRUE,TRUE,,,,,,,CLR,,,,,,,,VFR,,,,,,,,,,,,SPECI,187.0
KIFA 021935Z AUTO 13010G15KT 130V190 10SM BKN050 BKN070 BKN080 30/18 A3002 RMK AO2 T02980183,KIFA,2023-06-02T19:35:00Z,42.47,-93.27,29.8,18.3,130,10,15,10.0,30.02067,,,TRUE,TRUE,,,,,,,BKN,5000,BKN,7000,BKN,8000,,,VFR,,,,,,,,,,,,SPECI,344.0
KIDP 021935Z AUTO 16010KT 10SM CLR 30/19 A2993 RMK AO2 T03020186,KIDP,2023-06-02T19:35:00Z,37.17,-95.78,30.2,18.6,160,10,,10.0,29.929134,,,TRUE,TRUE,,,,,,,CLR,,,,,,,,VFR,,,,,,,,,,,,SPECI,252.0
KICL 021935Z AUTO 15008KT 10SM FEW055 31/18 A2997 RMK AO2,KICL,2023-06-02T19:35:00Z,40.72,-95.02,31.0,18.0,150,8,,10.0,29.970472,,,TRUE,TRUE,,,,,,,FEW,5500,,,,,,,VFR,,,,,,,,,,,,SPECI,299.0
KIBM 021935Z AUTO 14008G16KT 10SM SCT047 SCT060 21/11 A2994 RMK AO2 T02110108,KIBM,2023-06-02T19:35:00Z,41.18,-103.68,21.1,10.8,140,8,16,10.0,29.940945,,,TRUE,TRUE,,,,,,,SCT,4700,SCT,6000,,,,,VFR,,,,,,,,,,,,METAR,1494.0
KI95 021935Z AUTO 04009KT 10SM FEW090 31/12 A2999 RMK A01,KI95,2023-06-02T19:35:00Z,,,31.0,12.0,40,9,,10.0,29.991142,,,TRUE,TRUE,,,,,,,FEW,9000,,,,,,,VFR,,,,,,,,,,,,METAR,
KI75 021935Z AUTO 05008KT 7SM CLR 28/20 A3001 RMK AO2 T02820196,KI75,2023-06-02T19:35:00Z,41.05,-93.68,28.2,19.6,50,8,,7.0,30.008858,,,TRUE,TRUE,,,,,,,CLR,,,,,,,,VFR,,,,,,,,,,,,SPECI,336.0
KI74 021935Z AUTO 00000KT 10SM CLR 31/08 A2999 RMK AO2,KI74,2023-06-02T19:35:00Z,40.12,-83.75,31.0,8.0,0,0,,10.0,29.991142,,,TRUE,TRUE,,,,,,,CLR,,,,,,,,VFR,,,,,,,,,,,,METAR,322.0
KI67 021935Z AUTO 00000KT 10SM CLR 31/08 A2996 RMK AO1,KI67,2023-06-02T19:35:00Z,39.25,-84.78,31.0,8.0,0,0,,10.0,29.958662,,,TRUE,TRUE,,,,,,,CLR,,,,,,,,VFR,,,,,,,,,,,,SPECI,177.0
KI63 021935Z AUTO 05006KT 10SM CLR 31/14 A2998 RMK AO2 T03130144,KI63,2023-06-02T19:35:00Z,39.98,-90.8,31.3,14.4,50,6,,10.0,29.97933,,,TRUE,TRUE,,,,,,,CLR,,,,,,,,VFR,,,,,,,,,,,,SPECI,221.0
KI16 021935Z AUTO 10SM CLR 31/10 A3002 RMK AO2 T03110100 PNO,KI16,2023-06-02T19:35:00Z,37.6,-81.57,31.1,10.0,,,,10.0,30.02067,,,TRUE,TRUE,,,,,,,CLR,,,,,,,,VFR,,,,,,,,,,,,SPECI,528.0
KHZX 021935Z AUTO 11010KT 10SM SCT044 SCT049 SCT090 27/18 A3006 RMK AO2,KHZX,2023-06-02T19:35:00Z,46.62,-93.32,27.0,18.0,110,10,,10.0,30.059055,,,TRUE,TRUE,,,,,,,SCT,4400,SCT,4900,SCT,9000,,,VFR,,,,,,,,,,,,METAR,374.0
KHZD 021935Z AUTO 09005G10KT 10SM FEW075 FEW085 31/17 A2991 RMK A01,KHZD,2023-06-02T19:35:00Z,36.08,-88.47,31.0,17.0,90,5,10,10.0,29.911417,,,TRUE,TRUE,,,,,,,FEW,7500,FEW,8500,,,,,VFR,,,,,,,,,,,,METAR,147.0
KHYW 021935Z AUTO 02008KT 10SM SCT043 BKN050 BKN065 25/18 A2984 RMK AO2,KHYW,2023-06-02T19:35:00Z,33.83,-79.12,25.0,18.0,20,8,,10.0,29.840551,,,TRUE,TRUE,,,,,,,SCT,4300,BKN,5000,BKN,6500,,,VFR,,,,,,,,,,,,METAR,10.0
KHVE 021935Z AUTO 17006KT 10SM OVC090 25/00 A2996 RMK AO2,KHVE,2023-06-02T19:35:00Z,38.42,-110.7,25.0,0.0,170,6,,10.0,29.958662,,,TRUE,TRUE,,,,,,,OVC,9000,,,,,,,VFR,,,,,,,,,,,,SPECI,1351.0
KHVC 021935Z AUTO 06004G10KT 10SM FEW070 FEW080 32/15 A2993 RMK AO2,KHVC,2023-06-02T19:35:00Z,,,32.0,15.0,60,4,10,10.0,29.929134,,,TRUE,TRUE,,,,,,,FEW,7000,FEW,8000,,,,,VFR,,,,,,,,,,,,SPECI,
KHTH 021935Z AUTO 32013KT 10SM CLR 22/02 A3004 RMK A01,KHTH,2023-06-02T19:35:00Z,38.55,-118.63,22.0,2.0,320,13,,10.0,30.041338,,,TRUE,TRUE,,,,,,,CLR,,,,,,,,VFR,,,,,,,,,,,,METAR,1281.0
KHSP 021935Z AUTO 07005KT 10SM CLR 25/07 A3009 RMK AO2 T02540068,KHSP,2023-06-02T19:35:00Z,37.95,-79.82,25.4,6.8,70,5,,10.0,30.088583,,,TRUE,TRUE,,,,,,,CLR,,,,,,,,VFR,,,,,,,,,,,,SPECI,1148.0
KHSG 021935Z AUTO 31005KT 2 1/2SM -DZ OVC029 12/11 A2998 RMK AO2 LTG DSNT E AND SE T01240114,KHSG,2023-06-02T19:35:00Z,43.72,-108.38,12.4,11.4,310,5,,2.5,29.97933,,,TRUE,TRUE,,,,,,-DZ,OVC,2900,,,,,,,IFR,,,,,,,,,,,,SPECI,1497.0
KHSD 021935Z AUTO 13011G17KT 10SM CLR 30/17 A2989 RMK A01,KHSD,2023-06-02T19:35:00Z,35.6,-97.72,30.0,17.0,130,11,17,10.0,29.890747,,,TRUE,TRUE,,,,,,,CLR,,,,,,,,VFR,,,,,,,,,,,,METAR,358.0
KHSB 021935Z AUTO 11003KT 10SM SCT085 35/01 A2994 RMK AO2 T03500012,KHSB,2023-06-02T19:35:00Z,37.82,-88.55,35.0,1.2,110,3,,10.0,29.940945,,,TRUE,TRUE,,,,,,,SCT,8500,,,,,,,VFR,,,,,,,,,,,,SPECI,118.0
KHRX 021935Z AUTO 4SM RA BKN023 BKN031 OVC036 14/14 A3004 RMK AO2 P0015 T01410141 TSNO,KHRX,2023-06-02T19:35:00Z,34.87,-102.33,14.1,14.1,,,,4.0,30.041338,,,TRUE,TRUE,,,TRUE,,,RA,BKN,2300,BKN,3100,OVC,3600,,,MVFR,,,,,,0.15,,,,,,SPECI,1153.0
KHQU 021935Z AUTO 04009KT 10SM SCT050 BKN065 28/16 A2987 RMK AO2 T02790159,KHQU,2023-06-02T19:35:00Z,33.53,-82.52,27.9,15.9,40,9,,10.0,29.870079,,,TRUE,TRUE,,,,,,,SCT,5000,BKN,6500,,,,,VFR,,,,,,,,,,,,METAR,141.0
KHQG 021935Z AUTO 17011KT 10SM SCT027 BKN035 OVC044 23/17 A2992 RMK AO2 LTG DSNT S T02320172 PWINO,KHQG,2023-06-02T19:35:00Z,37.17,-101.37,23.2,17.2,170,11,,10.0,29.920275,,,TRUE,TRUE,,,,,TRUE,,SCT,2700,BKN,3500,OVC,4400,,,VFR,,,,,,,,,,,,METAR,956.0
KHQG 021935Z AUTO 17011KT 10SM SCT027 BKN035 OVC044 23/17 A2992 RMK AO2 LTG DSNT S T02320172 PWINO,KHQG,2023-06-02T19:35:00Z,37.17,-101.37,23.2,17.2,170,11,,10.0,29.920275,,,TRUE,TRUE,,,,,TRUE,,SCT,2700,BKN,3500,OVC,4400,,,VFR,,,,,,,,,,,,METAR,956.0
KHPT 021935Z AUTO 13010KT 10SM SCT001 SCT050 31/16 A3001 RMK AO2,KHPT,2023-06-02T19:35:00Z,42.72,-93.23,31.0,16.0,130,10,,10.0,30.008858,,,TRUE,TRUE,,,,,,,SCT,100,SCT,5000,,,,,VFR,,,,,,,,,,,,SPECI,354.0
KHOE 021935Z AUTO 01005KT 10SM SCT050 BKN060 28/16 A2982 RMK AO2 T02900163,KHOE,2023-06-02T19:35:00Z,31.05,-82.78,29.0,16.3,10,5,,10.0,29.819881,,,TRUE,TRUE,,,,,,,SCT,5000,BKN,6000,,,,,VFR,,,,,,,,,,,,METAR,56.0
KHNR 021935Z AUTO 10016G25KT 10SM FEW065 25/14 A2998 RMK A01,KHNR,2023-06-02T19:35:00Z,41.58,-95.33,25.0,14.0,100,16,25,10.0,29.97933,,,TRUE,TRUE,,,,,,,FEW,6500,,,,,,,VFR,,,,,,,,,,,,METAR,364.0
KHMZ 021935Z AUTO 00000KT 10SM CLR 30/06 A2995 RMK AO2 T03030061,KHMZ,2023-06-02T19:35:00Z,40.08,-78.52,30.3,6.1,0,0,,10.0,29.949802,,,TRUE,TRUE,,,,,,,CLR,,,,,,,,VFR,,,,,,,,,,,,SPECI,351.0
KHMT 021935Z AUTO 21005KT 10SM CLR 22/11 A2997 RMK AO2 T02190108,KHMT,2023-06-02T19:35:00Z,33.73,-117.02,21.9,10.8,210,5,,10.0,29.970472,,,TRUE,TRUE,,,,,,,CLR,,,,,,,,VFR,,,,,,,,,,,,METAR,462.0
KHMP 021935Z AUTO 07008KT 040V100 10SM SCT055 SCT085 29/16 A2992 RMK AO2 T02910156,KHMP,2023-06-02T19:35:00Z,33.38,-84.33,29.1,15.6,70,8,,10.0,29.920275,,,TRUE,TRUE,,,,,,,SCT,5500,SCT,8500,,,,,VFR,,,,,,,,,,,,SPECI,263.0
KHLB 021935Z AUTO 04007KT 360V060 10SM CLR 31/06 A2999 RMK A01,KHLB,2023-06-02T19:35:00Z,39.35,-85.27,31.0,6.0,40,7,,10.0,29.991142,,,TRUE,TRUE,,,,,,,CLR,,,,,,,,VFR,,,,,,,,,,,,METAR,297.0
KHJH 021935Z AUTO 31007KT 10SM -RA SCT045 BKN060 OVC075 22/17 A2996 RMK AO2 LTG DSNT ALQS P0013 T02220167,KHJH,2023-06-02T19:35:00Z,40.15,-97.58,22.2,16.7,310,7,,10.0,29.958662,,,TRUE,TRUE,,,,,,-RA,SCT,4500,BKN,6000,OVC,7500,,,VFR,,,,,,0.13,,,,,,METAR,449.0
KHHW 021935Z AUTO 14006KT 10SM SCT055 SCT070 31/18 A2991 RMK AO2,KHHW,2023-06-02T19:35:00Z,34.03,-95.55,31.0,18.0,140,6,,10.0,29.911417,,,TRUE,TRUE,,,,,,,SCT,5500,SCT,7000,,,,,VFR,,,,,,,,,,,,SPECI,178.0
KHHG 021935Z AUTO 07008KT 030V090 10SM CLR 31/10 A3001 RMK AO2 T03110102,KHHG,2023-06-02T19:35:00Z,40.85,-85.45,31.1,10.2,70,8,,10.0,30.008858,,,TRUE,TRUE,,,,,,,CLR,,,,,,,,VFR,,,,,,,,,,,,SPECI,247.0
KHHF 021935Z AUTO 18010KT 10SM SCT041 SCT050 SCT075 29/19 A2987 RMK AO2 LTG DSNT ALQS T02850189,KHHF,2023-06-02T19:35:00Z,35.9,-100.4,28.5,18.9,180,10,,10.0,29.870079,,,TRUE,TRUE,,,,,,,SCT,4100,SCT,5000,SCT,7500,,,VFR,,,,,,,,,,,,SPECI,729.0
KHFJ 021935Z AUTO 11004KT 10SM CLR 30/16 A2997 RMK AO2,KHFJ,2023-06-02T19:35:00Z,36.9,-94.02,30.0,16.0,110,4,,10.0,29.970472,,,TRUE,TRUE,,,,,,,CLR,,,,,,,,VFR,,,,,,,,,,,,METAR,398.0
KHEQ 021935Z AUTO 15010KT 10SM SCT060 SCT075 25/12 A2992 RMK AO2 LTG DSNT S,KHEQ,2023-06-02T19:35:00Z,40.57,-102.28,25.0,12.0,150,10,,10.0,29.920275,,,TRUE,TRUE,,,,,,,SCT,6000,SCT,7500,,,,,VFR,,,,,,,,,,,,SPECI,1136.0
KHDL 021935Z AUTO 36007G12KT 340V040 10SM CLR 30/15 A2983 RMK AO2,KHDL,2023-06-02T19:35:00Z,31.37,-85.32,30.0,15.0,360,7,12,10.0,29.828741,,,TRUE,TRUE,,,,,,,CLR,,,,,,,,VFR,,,,,,,,,,,,SPECI,109.0
KHDE 021935Z AUTO 15014G17KT 7SM /VCTSRA SCT012 BKN050 OVC110 18/17 A3000 RMK AO2 LTG DSNT N THRU SE P0001 T01820165,KHDE,2023-06-02T19:35:00Z,40.45,-99.33,18.2,16.5,150,14,17,7.0,30.0,,,TRUE,TRUE,,,,,,VCTS RA,SCT,1200,BKN,5000,OVC,11000,,,VFR,,,,,,0.01,,,,,,METAR,703.0
KHDC 021935Z AUTO 01006KT 10SM SCT060 SCT070 SCT095 32/17 A2986 RMK AO2 T03180172,KHDC,2023-06-02T19:35:00Z,30.52,-90.42,31.8,17.2,10,6,,10.0,29.861221,,,TRUE,TRUE,,,,,,,SCT,6000,SCT,7000,SCT,9500,,,VFR,,,,,,,,,,,,METAR,12.0
KHCR 021935Z AUTO 10SM SCT019 SCT031 SCT050 12/08 A3006 RMK AO2,KHCR,2023-06-02T19:35:00Z,40.48,-111.43,12.0,8.0,,,,10.0,30.059055,,,TRUE,TRUE,,,,,,,SCT,1900,SCT,3100,SCT,5000,,,VFR,,,,,,,,,,,,SPECI,1708.0
KHCD 021935Z AUTO 09009KT 10SM SCT055 SCT085 BKN110 31/16 A3002 RMK AO2 LTG DSNT S AND SW T03080161,KHCD,2023-06-02T19:35:00Z,44.87,-94.38,30.8,16.1,90,9,,10.0,30.02067,,,TRUE,TRUE,,,,,,,SCT,5500,SCT,8500,BKN,11000,,,VFR,,,,,,,,,,,,METAR,320.0
KHBV 021935Z AUTO 16009G14KT 10SM SCT049 SCT065 33/20 A2985 RMK AO2 T03320202,KHBV,2023-06-02T19:35:00Z,27.35,-98.73,33.2,20.2,160,9,14,10.0,29.84941,,,TRUE,TRUE,,,,,,,SCT,4900,SCT,6500,,,,,VFR,,,,,,,,,,,,SPECI,200.0
KGZS 021935Z AUTO VRB04G10KT 10SM SCT060 BKN070 BKN090 29/19 A2989 RMK A01,KGZS,2023-06-02T19:35:00Z,35.15,-87.05,29.0,19.0,0,4,10,10.0,29.890747,,,TRUE,TRUE,,,,,,,SCT,6000,BKN,7000,BKN,9000,,,VFR,,,,,,,,,,,,METAR,198.0
KGZL 021935Z AUTO 16008KT 10SM CLR 33/16 A2991 RMK AO2,KGZL,2023-06-02T19:35:00Z,35.28,-95.1,33.0,16.0,160,8,,10.0,29.911417,,,TRUE,TRUE,,,,,,,CLR,,,,,,,,VFR,,,,,,,,,,,,METAR,176.0
KGYF 021935Z AUTO 05005KT 10SM SCT022 27/20 A2988 RMK AO2 T02660203,KGYF,2023-06-02T19:35:00Z,26.13,-94.9,26.6,20.3,50,5,,10.0,29.878937,,,TRUE,TRUE,,,,,,,SCT,2200,,,,,,,VFR,,,,,,,,,,,,METAR,65.0
KGYB 021935Z AUTO 18006KT 10SM CLR 31/17 A2990 RMK AO2 T03060170,KGYB,2023-06-02T19:35:00Z,30.17,-96.98,30.6,17.0,180,6,,10.0,29.899607,,,TRUE,TRUE,,,,,,,CLR,,,,,,,,VFR,,,,,,,,,,,,SPECI,140.0
KGWB 021935Z AUTO 07008KT 10SM CLR 31/09 A3003 RMK AO2,KGWB,2023-06-02T19:35:00Z,41.3,-85.07,31.0,9.0,70,8,,10.0,30.029528,,,TRUE,TRUE,,,,,,,CLR,,,,,,,,VFR,,,,,,,,,,,,SPECI,268.0
KGVT 021935Z AUTO 19005KT 10SM SCT095 32/18 A2990 RMK AO2 TSNO T03170183,KGVT,2023-06-02T19:35:00Z,33.07,-96.07,31.7,18.3,190,5,,10.0,29.899607,,,TRUE,TRUE,,,TRUE,,,,SCT,9500,,,,,,,VFR,,,,,,,,,,,,METAR,165.0
KGRN 021935Z AUTO 17008G19KT 10SM SCT041 SCT049 BKN055 24/13 A2991 RMK AO2 T02380130,KGRN,2023-06-02T19:35:00Z,42.8,-102.17,23.8,13.0,170,8,19,10.0,29.911417,,,TRUE,TRUE,,,,,,,SCT,4100,SCT,4900,BKN,5500,,,VFR,,,,,,,,,,,,SPECI,1080.0
KGPC 021935Z AUTO 04008KT 10SM CLR 31/07 A3000 RMK AO2 T03150073,KGPC,2023-06-02T19:35:00Z,39.63,-86.82,31.5,7.3,40,8,,10.0,30.0,,,TRUE,TRUE,,,,,,,CLR,,,,,,,,VFR,,,,,,,,,,,,SPECI,254.0
KGOP 021935Z AUTO 14007G14KT 120V180 10SM FEW055 31/18 A2990 RMK AO2,KGOP,2023-06-02T19:35:00Z,31.42,-97.8,31.0,18.0,140,7,14,10.0,29.899607,,,TRUE,TRUE,,,,,,,FEW,5500,,,,,,,VFR,,,,,,,,,,,,SPECI,272.0
KGOO 021935Z AUTO 26006G11KT 10SM CLR 21/09 A3003 RMK A01,KGOO,2023-06-02T19:35:00Z,39.22,-121.0,21.0,9.0,260,6,11,10.0,30.029528,,,TRUE,TRUE,,,,,,,CLR,,,,,,,,VFR,,,,,,,,,,,,SPECI,950.0
KGNG 021935Z AUTO 26013G19KT 10SM CLR 23/06 A2999 RMK AO2 LTG DSNT S AND NW,KGNG,2023-06-02T19:35:00Z,42.92,-114.77,23.0,6.0,260,13,19,10.0,29.991142,,,TRUE,TRUE,,,,,,,CLR,,,,,,,,VFR,,,,,,,,,,,,SPECI,1128.0
KGNB 021935Z AUTO 27006KT 10SM SCT021 OVC031 09/04 A3013 RMK AO2 T00920042,KGNB,2023-06-02T19:35:00Z,40.08,-105.92,9.2,4.2,270,6,,10.0,30.129921,,,TRUE,TRUE,,,,,,,SCT,2100,OVC,3100,,,,,VFR,,,,,,,,,,,,SPECI,2500.0
KGMJ 021935Z AUTO 19008KT 9SM BKN060 BKN070 BKN085 31/18 A2993 RMK AO2,KGMJ,2023-06-02T19:35:00Z,36.6,-94.73,31.0,18.0,190,8,,9.0,29.929134,,,TRUE,TRUE,,,,,,,BKN,6000,BKN,7000,BKN,8500,,,VFR,,,,,,,,,,,,SPECI,251.0
KGLW 021935Z AUTO 36004KT 10SM CLR 30/16 A2995 RMK AO2 T03000159,KGLW,2023-06-02T19:35:00Z,37.03,-85.95,30.0,15.9,360,4,,10.0,29.949802,,,TRUE,TRUE,,,,,,,CLR,,,,,,,,VFR,,,,,,,,,,,,SPECI,216.0
KGLE 021935Z AUTO 16007KT 10SM SCT050 BKN070 BKN080 34/17 A2990 RMK AO2 T03400173 PWINO,KGLE,2023-06-02T19:35:00Z,33.65,-97.2,34.0,17.3,160,7,,10.0,29.899607,,,TRUE,TRUE,,,,,TRUE,,SCT,5000,BKN,7000,BKN,8000,,,VFR,,,,,,,,,,,,SPECI,250.0
KGKT 021935Z AUTO 05009KT 010V070 10SM CLR 30/12 A2992 RMK A01,KGKT,2023-06-02T19:35:00Z,35.85,-83.53,30.0,12.0,50,9,,10.0,29.920275,,,TRUE,TRUE,,,,,,,CLR,,,,,,,,VFR,,,,,,,,,,,,METAR,305.0
KGIC 021935Z AUTO 02006KT 10SM OVC085 19/07 A3004 RMK AO1,KGIC,2023-06-02T19:35:00Z,45.95,-116.12,19.0,7.0,20,6,,10.0,30.041338,,,TRUE,TRUE,,,,,,,OVC,8500,,,,,,,VFR,,,,,,,,,,,,SPECI,1002.0
KGGP 021935Z AUTO 07008KT 020V090 10SM CLR 32/08 A3001 RMK AO2,KGGP,2023-06-02T19:35:00Z,40.72,-86.37,32.0,8.0,70,8,,10.0,30.008858,,,TRUE,TRUE,,,,,,,CLR,,,,,,,,VFR,,,,,,,,,,,,METAR,224.0
KGGI 021935Z AUTO 22004KT 10SM SCT060 SCT065 BKN100 32/18 A3002 RMK AO2 T03160179,KGGI,2023-06-02T19:35:00Z,41.72,-92.73,31.6,17.9,220,4,,10.0,30.02067,,,TRUE,TRUE,,,,,,,SCT,6000,SCT,6500,BKN,10000,,,VFR,,,,,,,,,,,,SPECI,305.0
KGGF 021935Z AUTO 14015KT 10SM SCT042 SCT050 25/16 A2991 RMK AO2 LTG DSNT S,KGGF,2023-06-02T19:35:00Z,40.87,-101.73,25.0,16.0,140,15,,10.0,29.911417,,,TRUE,TRUE,,,,,,,SCT,4200,SCT,5000,,,,,VFR,,,,,,,,,,,,METAR,1044.0
KGDJ 021935Z AUTO 11011G16KT 10SM BKN050 BKN085 BKN100 31/19 A2989 RMK AO2 T03070186,KGDJ,2023-06-02T19:35:00Z,32.45,-97.82,30.7,18.6,110,11,16,10.0,29.890747,,,TRUE,TRUE,,,,,,,BKN,5000,BKN,8500,BKN,10000,,,VFR,,,,,,,,,,,,SPECI,235.0
KGCY 021935Z AUTO 03010KT 10SM CLR 29/06 A2994 RMK A01,KGCY,2023-06-02T19:35:00Z,36.2,-82.82,29.0,6.0,30,10,,10.0,29.940945,,,TRUE,TRUE,,,,,,,CLR,,,,,,,,VFR,,,,,,,,,,,,METAR,488.0
KGCM 021935Z AUTO 15009KT 10SM CLR 31/20 A2992 RMK AO2,KGCM,2023-06-02T19:35:00Z,36.3,-95.48,31.0,20.0,150,9,,10.0,29.920275,,,TRUE,TRUE,,,,,,,CLR,,,,,,,,VFR,,,,,,,,,,,,SPECI,215.0
KGCD 021935Z AUTO 27005KT 10SM CLR 20/01 A3006 RMK AO2 T01990012,KGCD,2023-06-02T19:35:00Z,44.4,-118.97,19.9,1.2,270,5,,10.0,30.059055,,,TRUE,TRUE,,,,,,,CLR,,,,,,,,VFR,,,,,,,,,,,,SPECI,1122.0
KGBG 021935Z AUTO 06005KT 10SM SCT110 32/16 A3001 RMK AO2 T03220160 TSNO,KGBG,2023-06-02T19:35:00Z,40.93,-90.43,32.2,16.0,60,5,,10.0,30.008858,,,TRUE,TRUE,,,TRUE,,,,SCT,11000,,,,,,,VFR,,,,,,,,,,,,METAR,230.0
KGAO 021935Z AUTO 04006KT 10SM CLR 31/19 A2987 RMK AO2 T03110192,KGAO,2023-06-02T19:35:00Z,29.45,-90.27,31.1,19.2,40,6,,10.0,29.870079,,,TRUE,TRUE,,,,,,,CLR,,,,,,,,VFR,,,,,,,,,,,,METAR,0.0
KFZG 021935Z AUTO 05006KT 10SM SCT048 SCT055 SCT080 29/17 A2984 RMK AO2 T02870169,KFZG,2023-06-02T19:35:00Z,31.68,-83.27,28.7,16.9,50,6,,10.0,29.840551,,,TRUE,TRUE,,,,,,,SCT,4800,SCT,5500,SCT,8000,,,VFR,,,,,,,,,,,,SPECI,105.0
KFYM 021935Z AUTO 00000KT 10SM FEW060 FEW075 30/17 A2992 RMK A01,KFYM,2023-06-02T19:35:00Z,35.07,-86.57,30.0,17.0,0,0,,10.0,29.920275,,,TRUE,TRUE,,,,,,,FEW,6000,FEW,7500,,,,,VFR,,,,,,,,,,,,METAR,297.0
KFYE 021935Z AUTO VRB04KT 10SM FEW055 31/18 A2991 RMK A01,KFYE,2023-06-02T19:35:00Z,35.2,-89.38,31.0,18.0,0,4,,10.0,29.911417,,,TRUE,TRUE,,,,,,,FEW,5500,,,,,,,VFR,,,,,,,,,,,,METAR,133.0
KFXY 021935Z AUTO 17013G16KT 10SM SCT060 BKN070 BKN080 29/18 A3001 RMK AO2,KFXY,2023-06-02T19:35:00Z,43.23,-93.62,29.0,18.0,170,13,16,10.0,30.008858,,,TRUE,TRUE,,,,,,,SCT,6000,BKN,7000,BKN,8000,,,VFR,,,,,,,,,,,,SPECI,366.0
KFWC 021935Z AUTO 06009KT 10SM CLR 32/07 A2994 RMK AO1 T03240068,KFWC,2023-06-02T19:35:00Z,38.38,-88.42,32.4,6.8,60,9,,10.0,29.940945,,,TRUE,TRUE,,,,,,,CLR,,,,,,,,VFR,,,,,,,,,,,,METAR,131.0
KFTN 021935Z AUTO 16011KT 10SM FEW041 32/22 A2984 RMK A01,KFTN,2023-06-02T19:35:00Z,28.22,-100.02,32.0,22.0,160,11,,10.0,29.840551,,,TRUE,TRUE,,,,,,,FEW,4100,,,,,,,VFR,,,,,,,,,,,,SPECI,236.0
KFSW 021935Z AUTO 17006KT 10SM -RA 25/18 A3001 RMK AO2 P0002,KFSW,2023-06-02T19:35:00Z,40.67,-91.32,25.0,18.0,170,6,,10.0,30.008858,,,TRUE,TRUE,,,,,,-RA,,,,,,,,,,,,,,,0.02,,,,,,METAR,219.0
KFPY 021935Z AUTO 02008KT 10SM SCT048 SCT050 30/18 A2979 RMK AO2 T02980180,KFPY,2023-06-02T19:35:00Z,30.07,-83.57,29.8,18.0,20,8,,10.0,29.790354,,,TRUE,TRUE,,,,,,,SCT,4800,SCT,5000,,,,,VFR,,,,,,,,,,,,SPECI,12.0
KFOT 021935Z AUTO 28010KT 10SM BKN015 13/10 A3010 RMK AO1,KFOT,2023-06-02T19:35:00Z,40.55,-124.13,13.0,10.0,280,10,,10.0,30.100393,,,TRUE,TRUE,,,,,,,BKN,1500,,,,,,,MVFR,,,,,,,,,,,,SPECI,118.0
KFOA 021935Z AUTO 07006G17KT 10SM CLR 33/08 A2996 RMK AO2,KFOA,2023-06-02T19:35:00Z,38.67,-88.45,33.0,8.0,70,6,17,10.0,29.958662,,,TRUE,TRUE,,,,,,,CLR,,,,,,,,VFR,,,,,,,,,,,,SPECI,141.0
KFMM 021935Z AUTO 10SM CLR 22/13 A2992 RMK AO2,KFMM,2023-06-02T19:35:00Z,40.33,-103.8,22.0,13.0,,,,10.0,29.920275,,,TRUE,TRUE,,,,,,,CLR,,,,,,,,VFR,,,,,,,,,,,,SPECI,1376.0
KFLY 021935Z AUTO 17009G20KT 120V210 10SM 18/01 A3001 RMK AO2 T01820006,KFLY,2023-06-02T19:35:00Z,38.95,-104.57,18.2,0.6,170,9,20,10.0,30.008858,,,TRUE,TRUE,,,,,,,,,,,,,,,,,,,,,,,,,,,SPECI,2096.0
KFKR 021935Z AUTO 03011G19KT 020V080 10SM CLR 32/07 A2999 RMK AO2,KFKR,2023-06-02T19:35:00Z,40.27,-86.57,32.0,7.0,30,11,19,10.0,29.991142,,,TRUE,TRUE,,,,,,,CLR,,,,,,,,VFR,,,,,,,,,,,,METAR,260.0
KFHB 021935Z AUTO 04014KT 10SM CLR 25/23 A2981 RMK AO2,KFHB,2023-06-02T19:35:00Z,30.62,-81.47,25.0,23.0,40,14,,10.0,29.811024,,,TRUE,TRUE,,,,,,,CLR,,,,,,,,VFR,,,,,,,,,,,,SPECI,4.0
KFGX 021935Z AUTO 10008KT 10SM CLR 30/09 A2998 RMK AO2 T03040090,KFGX,2023-06-02T19:35:00Z,38.55,-83.75,30.4,9.0,100,8,,10.0,29.97933,,,TRUE,TRUE,,,,,,,CLR,,,,,,,,VFR,,,,,,,,,,,,SPECI,279.0
KFFL 021935Z AUTO 17007KT 10SM FEW070 30/16 A2999 RMK A01,KFFL,2023-06-02T19:35:00Z,41.05,-91.97,30.0,16.0,170,7,,10.0,29.991142,,,TRUE,TRUE,,,,,,,FEW,7000,,,,,,,VFR,,,,,,,,,,,,METAR,240.0
KFET 021935Z AUTO 06005KT 10SM SCT050 BKN070 BKN080 30/19 A2996 RMK AO2 LTG DSNT N THRU S T02960193,KFET,2023-06-02T19:35:00Z,41.45,-96.52,29.6,19.3,60,5,,10.0,29.958662,,,TRUE,TRUE,,,,,,,SCT,5000,BKN,7000,BKN,8000,,,VFR,,,,,,,,,,,,SPECI,366.0
KFEP 021935Z AUTO 05006KT 10SM CLR 31/20 A3004 RMK AO2 LTG DSNT N T03060204,KFEP,2023-06-02T19:35:00Z,42.25,-89.58,30.6,20.4,50,6,,10.0,30.041338,,,TRUE,TRUE,,,,,,,CLR,,,,,,,,VFR,,,,,,,,,,,,SPECI,255.0
KFBR 021935Z AUTO 30008KT 10SM SCT050 OVC060 10/10 A3012 RMK AO2 LTG DSNT NW T01010096,KFBR,2023-06-02T19:35:00Z,41.4,-110.4,10.1,9.6,300,8,,10.0,30.121063,,,TRUE,TRUE,,,,,,,SCT,5000,OVC,6000,,,,,VFR,,,,,,,,,,,,METAR,2140.0
KF70 021935Z AUTO 25003KT 10SM CLR 20/10 A2997 RMK AO2,KF70,2023-06-02T19:35:00Z,33.57,-117.13,20.0,10.0,250,3,,10.0,29.970472,,,TRUE,TRUE,,,,,,,CLR,,,,,,,,VFR,,,,,,,,,,,,SPECI,406.0
KF46 021935Z AUTO 14007KT 10SM SCT055 31/18 A2990 RMK AO2 T03080182,KF46,2023-06-02T19:35:00Z,32.93,-96.43,30.8,18.2,140,7,,10.0,29.899607,,,TRUE,TRUE,,,,,,,SCT,5500,,,,,,,VFR,,,,,,,,,,,,SPECI,175.0
KF44 021935Z AUTO 11005KT 10SM SCT095 31/19 A2989 RMK AO2,KF44,2023-06-02T19:35:00Z,32.17,-95.83,31.0,19.0,110,5,,10.0,29.890747,,,TRUE,TRUE,,,,,,,SCT,9500,,,,,,,VFR,,,,,,,,,,,,SPECI,137.0
KF17 021935Z AUTO 06005KT 10SM SCT050 SCT065 OVC110 31/18 A2991 RMK AO2,KF17,2023-06-02T19:35:00Z,31.83,-94.15,31.0,18.0,60,5,,10.0,29.911417,,,TRUE,TRUE,,,,,,,SCT,5000,SCT,6500,OVC,11000,,,VFR,,,,,,,,,,,,SPECI,93.0
KF05 021935Z AUTO 17014G19KT 10SM SCT049 32/17 A2987 RMK AO2 T03240167,KF05,2023-06-02T19:35:00Z,34.23,-99.28,32.4,16.7,170,14,19,10.0,29.870079,,,TRUE,TRUE,,,,,,,SCT,4900,,,,,,,VFR,,,,,,,,,,,,SPECI,384.0
KF00 021935Z AUTO 11009KT 080V140 10SM SCT060 32/19 A2991 RMK AO2 T03230187,KF00,2023-06-02T19:35:00Z,33.62,-96.18,32.3,18.7,110,9,,10.0,29.911417,,,TRUE,TRUE,,,,,,,SCT,6000,,,,,,,VFR,,,,,,,,,,,,SPECI,189.0
KEZZ 021935Z AUTO 10009KT 10SM SCT050 A2998 RMK AO2 LTG DSNT W,KEZZ,2023-06-02T19:35:00Z,39.72,-94.28,,,100,9,,10.0,29.97933,,,TRUE,TRUE,,,,,,,SCT,5000,,,,,,,VFR,,,,,,,,,,,,METAR,317.0
KEZM 021935Z AUTO 04008KT 020V080 10SM SCT055 BKN080 BKN090 29/16 A2984 RMK AO2,KEZM,2023-06-02T19:35:00Z,32.22,-83.13,29.0,16.0,40,8,,10.0,29.840551,,,TRUE,TRUE,,,,,,,SCT,5500,BKN,8000,BKN,9000,,,VFR,,,,,,,,,,,,METAR,86.0
KETN 021935Z AUTO 16013G16KT 10SM SCT055 29/16 A2989 RMK AO2 T02940160,KETN,2023-06-02T19:35:00Z,32.42,-98.82,29.4,16.0,160,13,16,10.0,29.890747,,,TRUE,TRUE,,,,,,,SCT,5500,,,,,,,VFR,,,,,,,,,,,,SPECI,445.0
KERV 021935Z AUTO 17010G16KT 10SM SCT046 BKN055 30/19 A2990 RMK AO2 T02950190,KERV,2023-06-02T19:35:00Z,29.98,-99.08,29.5,19.0,170,10,16,10.0,29.899607,,,TRUE,TRUE,,,,,,,SCT,4600,BKN,5500,,,,,VFR,,,,,,,,,,,,SPECI,483.0
KEOK 021935Z AUTO 00000KT 10SM CLR 29/18 A3000 RMK A01,KEOK,2023-06-02T19:35:00Z,40.47,-91.42,29.0,18.0,0,0,,10.0,30.0,,,TRUE,TRUE,,,,,,,CLR,,,,,,,,VFR,,,,,,,,,,,,SPECI,206.0
KEMM 021935Z AUTO 32010G16KT 10SM -RA BKN009 OVC026 09/07 A3010 RMK AO2 TSNO,KEMM,2023-06-02T19:35:00Z,41.82,-110.55,9.0,7.0,320,10,16,10.0,30.100393,,,TRUE,TRUE,,,TRUE,,,-RA,BKN,900,OVC,2600,,,,,IFR,,,,,,,,,,,,SPECI,2219.0
KELA 021935Z AUTO 16005KT 10SM SCT055 33/21 A2989 RMK AO2 T03340209,KELA,2023-06-02T19:35:00Z,29.6,-96.32,33.4,20.9,160,5,,10.0,29.890747,,,TRUE,TRUE,,,,,,,SCT,5500,,,,,,,VFR,,,,,,,,,,,,SPECI,56.0
KEIK 021935Z AUTO 27004G14KT 10SM SCT060 SCT085 SCT110 19/05 A2995 RMK AO2 T01930047,KEIK,2023-06-02T19:35:00Z,40.02,-105.05,19.3,4.7,270,4,14,10.0,29.949802,,,TRUE,TRUE,,,,,,,SCT,6000,SCT,8500,SCT,11000,,,VFR,,,,,,,,,,,,SPECI,1551.0
KEGT 021935Z AUTO 13014KT 10SM SCT050 SCT065 30/18 A2992 RMK AO2 T03000183,KEGT,2023-06-02T19:35:00Z,37.32,-97.38,30.0,18.3,130,14,,10.0,29.920275,,,TRUE,TRUE,,,,,,,SCT,5000,SCT,6500,,,,,VFR,,,,,,,,,,,,METAR,387.0
KEDU 021935Z AUTO 00000KT 10SM CLR 25/10 A2996 RMK AO1,KEDU,2023-06-02T19:35:00Z,38.53,-121.78,25.0,10.0,0,0,,10.0,29.958662,,,TRUE,TRUE,,,,,,,CLR,,,,,,,,VFR,,,,,,,,,,,,SPECI,20.0
KEDN 021935Z AUTO 02010G14KT 10SM SCT060 29/17 A2984 RMK AO2 T02910169 PWINO,KEDN,2023-06-02T19:35:00Z,31.3,-85.9,29.1,16.9,20,10,14,10.0,29.840551,,,TRUE,TRUE,,,,,TRUE,,SCT,6000,,,,,,,VFR,,,,,,,,,,,,METAR,103.0
KECU 021935Z AUTO 14012G20KT 10SM FEW031 OVC046 26/18 A2997 RMK AO2,KECU,2023-06-02T19:35:00Z,29.95,-100.17,26.0,18.0,140,12,20,10.0,29.970472,,,TRUE,TRUE,,,,,,,FEW,3100,OVC,4600,,,,,VFR,,,,,,,,,,,,SPECI,725.0
KECS 021935Z AUTO 18013G19KT 10SM BKN031 BKN043 21/12 A2991 RMK AO2 LTG DSNT S,KECS,2023-06-02T19:35:00Z,43.88,-104.32,21.0,12.0,180,13,19,10.0,29.911417,,,TRUE,TRUE,,,,,,,BKN,3100,BKN,4300,,,,,VFR,,,,,,,,,,,,SPECI,1273.0
KEBS 021935Z AUTO 17008KT 10SM CLR 30/18 A2998 RMK AO2,KEBS,2023-06-02T19:35:00Z,42.43,-93.87,30.0,18.0,170,8,,10.0,29.97933,,,TRUE,TRUE,,,,,,,CLR,,,,,,,,VFR,,,,,,,,,,,,METAR,340.0
KEBG 021935Z AUTO 11012KT 10SM BKN043 BKN049 OVC075 33/23 A2983 RMK AO2 T03280225,KEBG,2023-06-02T19:35:00Z,26.45,-98.13,32.8,22.5,110,12,,10.0,29.828741,,,TRUE,TRUE,,,,,,,BKN,4300,BKN,4900,OVC,7500,,,VFR,,,,,,,,,,,,SPECI,21.0
KEBA 021935Z AUTO 25003KT 10SM SCT055 SCT065 29/16 A2988 RMK AO2 T02880161,KEBA,2023-06-02T19:35:00Z,34.1,-82.82,28.8,16.1,250,3,,10.0,29.878937,,,TRUE,TRUE,,,,,,,SCT,5500,SCT,6500,,,,,VFR,,,,,,,,,,,,SPECI,180.0
KE42 021935Z AUTO 18016KT 7SM HZ BKN025 BKN029 BKN047 23/18 A2993 RMK AO2 T02340182,KE42,2023-06-02T19:35:00Z,36.22,-101.2,23.4,18.2,180,16,,7.0,29.929134,,,TRUE,TRUE,,,,,,HZ,BKN,2500,BKN,2900,BKN,4700,,,MVFR,,,,,,,,,,,,SPECI,942.0
KE41 021935Z AUTO 15013G17KT 10SM SCT030 OVC050 25/18 A2992 RMK AO2 T02520177,KE41,2023-06-02T19:35:00Z,31.2,-101.47,25.2,17.7,150,13,17,10.0,29.920275,,,TRUE,TRUE,,,,,,,SCT,3000,OVC,5000,,,,,VFR,,,,,,,,,,,,SPECI,825.0
KE38 021935Z AUTO 24012G20KT 10SM CLR 31/M06 A2999 RMK AO2 T03101064,KE38,2023-06-02T19:35:00Z,30.38,-103.68,31.0,-6.4,240,12,20,10.0,29.991142,,,TRUE,TRUE,,,,,,,CLR,,,,,,,,VFR,,,,,,,,,,,,SPECI,1372.0
KE16 021935Z AUTO 16005KT 10SM CLR 19/09 A3002 RMK AO2 PWINO PNO,KE16,2023-06-02T19:35:00Z,37.08,-121.6,19.0,9.0,160,5,,10.0,30.02067,,,TRUE,TRUE,,,,,TRUE,,CLR,,,,,,,,VFR,,,,,,,,,,,,SPECI,84.0
KE11 021935Z AUTO 16018G28KT 10SM SCT047 BKN060 BKN070 27/16 A2983 RMK AO2 LTG DSNT W T02700157,KE11,2023-06-02T19:35:00Z,32.33,-102.53,27.0,15.7,160,18,28,10.0,29.828741,,,TRUE,TRUE,,,,,,,SCT,4700,BKN,6000,BKN,7000,,,VFR,,,,,,,,,,,,METAR,966.0
KDZJ 021935Z AUTO 31004KT 10SM SCT050 SCT060 SCT120 26/16 A2994 RMK AO2 T02630162,KDZJ,2023-06-02T19:35:00Z,34.85,-84.0,26.3,16.2,310,4,,10.0,29.940945,,,TRUE,TRUE,,,,,,,SCT,5000,SCT,6000,SCT,12000,,,VFR,,,,,,,,,,,,METAR,578.0
KDZB 021935Z AUTO 17005KT 10SM BKN050 30/17 A2990 RMK AO2 T03030166,KDZB,2023-06-02T19:35:00Z,30.53,-98.37,30.3,16.6,170,5,,10.0,29.899607,,,TRUE,TRUE,,,,,,,BKN,5000,,,,,,,VFR,,,,,,,,,,,,SPECI,329.0
KDWX 021935Z AUTO 16009G14KT 10SM BKN024 OVC032 11/08 A3009 RMK AO2 T01140076,KDWX,2023-06-02T19:35:00Z,41.03,-107.5,11.4,7.6,160,9,14,10.0,30.088583,,,TRUE,TRUE,,,,,,,BKN,2400,OVC,3200,,,,,MVFR,,,,,,,,,,,,SPECI,1974.0
KDWA 021935Z AUTO 00000KT 10SM 25/12 A2997 RMK AO2,KDWA,2023-06-02T19:35:00Z,38.58,-121.85,25.0,12.0,0,0,,10.0,29.970472,,,TRUE,TRUE,,,,,,,,,,,,,,,,,,,,,,,,,,,METAR,28.0
KDVO 021935Z AUTO VRB03KT 10SM CLR 23/12 A2998 RMK AO2,KDVO,2023-06-02T19:35:00Z,38.15,-122.55,23.0,12.0,0,3,,10.0,29.97933,,,TRUE,TRUE,,,,,,,CLR,,,,,,,,VFR,,,,,,,,,,,,SPECI,1.0
KDUX 021935Z AUTO 23017KT 7SM RA SCT009 BKN013 OVC050 15/11 A2999 RMK AO2 P0008 T01460114,KDUX,2023-06-02T19:35:00Z,35.85,-102.02,14.6,11.4,230,17,,7.0,29.991142,,,TRUE,TRUE,,,,,,RA,SCT,900,BKN,1300,OVC,5000,,,MVFR,,,,,,0.08,,,,,,SPECI,1129.0
KDUC 021935Z AUTO 14013KT 10SM SCT120 30/19 A2990 RMK AO2 T02960193,KDUC,2023-06-02T19:35:00Z,34.47,-97.97,29.6,19.3,140,13,,10.0,29.899607,,,TRUE,TRUE,,,,,,,SCT,12000,,,,,,,VFR,,,,,,,,,,,,SPECI,339.0
KDUA 021935Z AUTO 12009KT 090V150 10SM SCT050 SCT065 32/14 A2993 RMK AO2,KDUA,2023-06-02T19:35:00Z,33.95,-96.4,32.0,14.0,120,9,,10.0,29.929134,,,TRUE,TRUE,,,,,,,SCT,5000,SCT,6500,,,,,VFR,,,,,,,,,,,,METAR,209.0
KDTA 021935Z AUTO 17006KT 10SM SCT055 20/05 A3001 RMK AO1,KDTA,2023-06-02T19:35:00Z,39.38,-112.5,20.0,5.0,170,6,,10.0,30.008858,,,TRUE,TRUE,,,,,,,SCT,5500,,,,,,,VFR,,,,,,,,,,,,SPECI,1452.0
KDQH 021935Z AUTO 06009KT 10SM SCT047 SCT080 29/16 A2984 RMK AO2 T02900163,KDQH,2023-06-02T19:35:00Z,31.48,-82.87,29.0,16.3,60,9,,10.0,29.840551,,,TRUE,TRUE,,,,,,,SCT,4700,SCT,8000,,,,,VFR,,,,,,,,,,,,SPECI,76.0
KDNV 021935Z AUTO 10007KT 10SM CLR 33/06 A3000 RMK AO2 T03330055,KDNV,2023-06-02T19:35:00Z,40.2,-87.6,33.3,5.5,100,7,,10.0,30.0,,,TRUE,TRUE,,,,,,,CLR,,,,,,,,VFR,,,,,,,,,,,,SPECI,208.0
KDNS 021935Z AUTO 14009G19KT 10SM CLR 30/16 A2998 RMK AO2,KDNS,2023-06-02T19:35:00Z,41.98,-95.37,30.0,16.0,140,9,19,10.0,29.97933,,,TRUE,TRUE,,,,,,,CLR,,,,,,,,VFR,,,,,,,,,,,,METAR,382.0
KDKX 021935Z AUTO 11007KT 070V140 10SM CLR 31/13 A2991 RMK A01,KDKX,2023-06-02T19:35:00Z,35.97,-83.87,31.0,13.0,110,7,,10.0,29.911417,,,TRUE,TRUE,,,,,,,CLR,,,,,,,,VFR,,,,,,,,,,,,METAR,253.0
KDKR 021935Z AUTO 17006KT 10SM CLR 32/21 A2989 RMK AO2,KDKR,2023-06-02T19:35:00Z,31.3,-95.4,32.0,21.0,170,6,,10.0,29.890747,,,TRUE,TRUE,,,,,,,CLR,,,,,,,,VFR,,,,,,,,,,,,SPECI,105.0
KDKB 021935Z AUTO 05005KT 10SM CLR 32/14 A3004 RMK AO2 T03190144,KDKB,2023-06-02T19:35:00Z,41.93,-88.7,31.9,14.4,50,5,,10.0,30.041338,,,TRUE,TRUE,,,,,,,CLR,,,,,,,,VFR,,,,,,,,,,,,METAR,277.0
KDEH 021935Z AUTO 17008KT 10SM FEW055 FEW070 30/17 A3002 RMK AO2,KDEH,2023-06-02T19:35:00Z,43.27,-91.73,30.0,17.0,170,8,,10.0,30.02067,,,TRUE,TRUE,,,,,,,FEW,5500,FEW,7000,,,,,VFR,,,,,,,,,,,,SPECI,348.0
KDCY 021935Z AUTO 10009G15KT 10SM CLR 32/07 A2997 RMK AO2 T03180070,KDCY,2023-06-02T19:35:00Z,38.7,-87.13,31.8,7.0,100,9,15,10.0,29.970472,,,TRUE,TRUE,,,,,,,CLR,,,,,,,,VFR,,,,,,,,,,,,SPECI,143.0
KD73 021935Z AUTO 07008KT 10SM SCT049 SCT060 29/16 A2989 RMK AO2 T02870158,KD73,2023-06-02T19:35:00Z,33.78,-83.7,28.7,15.8,70,8,,10.0,29.890747,,,TRUE,TRUE,,,,,,,SCT,4900,SCT,6000,,,,,VFR,,,,,,,,,,,,SPECI,254.0
KCZT 021935Z AUTO 10SM BKN050 BKN060 32/20 A2982 RMK AO2,KCZT,2023-06-02T19:35:00Z,28.52,-99.82,32.0,20.0,,,,10.0,29.819881,,,TRUE,TRUE,,,,,,,BKN,5000,BKN,6000,,,,,VFR,,,,,,,,,,,,SPECI,176.0
KCZL 021935Z AUTO 01006KT 10SM BKN060 BKN070 30/16 A2991 RMK AO2,KCZL,2023-06-02T19:35:00Z,34.47,-84.93,30.0,16.0,10,6,,10.0,29.911417,,,TRUE,TRUE,,,,,,,BKN,6000,BKN,7000,,,,,VFR,,,,,,,,,,,,METAR,197.0
KCYD 021935Z AUTO 04004KT 10SM CLR 26/18 A2985 RMK A02 T02650183,KCYD,2023-06-02T19:35:00Z,28.17,-89.22,26.5,18.3,40,4,,10.0,29.84941,,,TRUE,TRUE,,,,,,,CLR,,,,,,,,VFR,,,,,,,,,,,,METAR,30.0
KCXW 021935Z AUTO VRB04KT 10SM CLR 32/16 A2990 RMK A01,KCXW,2023-06-02T19:35:00Z,35.02,-92.55,32.0,16.0,0,4,,10.0,29.899607,,,TRUE,TRUE,,,,,,,CLR,,,,,,,,VFR,,,,,,,,,,,,METAR,84.0
KCXU 021935Z AUTO 02006KT 10SM CLR 30/16 A2982 RMK AO1 T02980161,KCXU,2023-06-02T19:35:00Z,31.22,-84.23,29.8,16.1,20,6,,10.0,29.819881,,,TRUE,TRUE,,,,,,,CLR,,,,,,,,VFR,,,,,,,,,,,,METAR,48.0
KCXP 021935Z AUTO 16004KT 10SM CLR 22/M02 A3008 RMK AO2,KCXP,2023-06-02T19:35:00Z,39.18,-119.73,22.0,-2.0,160,4,,10.0,30.079725,,,TRUE,TRUE,,,,,,,CLR,,,,,,,,VFR,,,,,,,,,,,,METAR,1431.0
KCWV 021935Z AUTO 03007KT 7SM SCT048 29/15 A2983 RMK AO2 T02910154,KCWV,2023-06-02T19:35:00Z,32.2,-81.87,29.1,15.4,30,7,,7.0,29.828741,,,TRUE,TRUE,,,,,,,SCT,4800,,,,,,,VFR,,,,,,,,,,,,SPECI,32.0
KCWC 021935Z AUTO 15014G25KT 10SM CLR 32/17 A2988 RMK AO2 T03200170,KCWC,2023-06-02T19:35:00Z,33.85,-98.48,32.0,17.0,150,14,25,10.0,29.878937,,,TRUE,TRUE,,,,,,,CLR,,,,,,,,VFR,,,,,,,,,,,,SPECI,304.0
KCVC 021935Z AUTO 06005KT 10SM SCT060 BKN070 28/16 A2988 RMK AO2,KCVC,2023-06-02T19:35:00Z,33.63,-83.85,28.0,16.0,60,5,,10.0,29.878937,,,TRUE,TRUE,,,,,,,SCT,6000,BKN,7000,,,,,VFR,,,,,,,,,,,,METAR,240.0
KCUH 021935Z AUTO 15008KT 10SM SCT050 SCT065 SCT075 31/16 A2991 RMK AO2 T03050164,KCUH,2023-06-02T19:35:00Z,35.95,-96.77,30.5,16.4,150,8,,10.0,29.911417,,,TRUE,TRUE,,,,,,,SCT,5000,SCT,6500,SCT,7500,,,VFR,,,,,,,,,,,,METAR,274.0
KCTY 021935Z AUTO 03009KT 10SM SCT050 SCT055 30/18 A2977 RMK AO2,KCTY,2023-06-02T19:35:00Z,29.63,-83.1,30.0,18.0,30,9,,10.0,29.769686,,,TRUE,TRUE,,,,,,,SCT,5000,SCT,5500,,,,,VFR,,,,,,,,,,,,METAR,12.0
KCTJ 021935Z AUTO 07007KT 10SM SCT075 28/14 A2994 RMK AO2 T02820139,KCTJ,2023-06-02T19:35:00Z,33.63,-85.15,28.2,13.9,70,7,,10.0,29.940945,,,TRUE,TRUE,,,,,,,SCT,7500,,,,,,,VFR,,,,,,,,,,,,SPECI,351.0
KCSQ 021935Z AUTO 13015G20KT 9SM FEW055 31/17 A2998 RMK AO2,KCSQ,2023-06-02T19:35:00Z,41.02,-94.37,31.0,17.0,130,15,20,9.0,29.97933,,,TRUE,TRUE,,,,,,,FEW,5500,,,,,,,VFR,,,,,,,,,,,,SPECI,394.0
KCRX 021935Z AUTO 10005G10KT 10SM CLR 31/17 A2990 RMK AO2,KCRX,2023-06-02T19:35:00Z,34.92,-88.6,31.0,17.0,100,5,10,10.0,29.899607,,,TRUE,TRUE,,,,,,,CLR,,,,,,,,VFR,,,,,,,,,,,,METAR,128.0
KCQF 021935Z AUTO 03004KT 10SM SCT055 BKN090 30/17 A2983 RMK AO2,KCQF,2023-06-02T19:35:00Z,30.47,-87.88,30.0,17.0,30,4,,10.0,29.828741,,,TRUE,TRUE,,,,,,,SCT,5500,BKN,9000,,,,,VFR,,,,,,,,,,,,METAR,21.0
KCQB 021935Z AUTO 14007KT 5SM HZ SCT050 30/18 A2992 RMK AO2 T02960177,KCQB,2023-06-02T19:35:00Z,35.72,-96.82,29.6,17.7,140,7,,5.0,29.920275,,,TRUE,TRUE,,,,,,HZ,SCT,5000,,,,,,,MVFR,,,,,,,,,,,,SPECI,298.0
KCPW 021935Z AUTO 24007G17KT 10SM SCT004 BKN007 BKN013 01/00 A3035 RMK AO2 LTG DSNT E,KCPW,2023-06-02T19:35:00Z,37.45,-106.8,1.0,0.0,240,7,17,10.0,30.351377,,,TRUE,TRUE,,,,,,,SCT,400,BKN,700,BKN,1300,,,IFR,,,,,,,,,,,,SPECI,3570.0
KCPU 021935Z AUTO 33004KT 10SM CLR 24/07 A2997 RMK AO2 T02430073,KCPU,2023-06-02T19:35:00Z,38.15,-120.65,24.3,7.3,330,4,,10.0,29.970472,,,TRUE,TRUE,,,,,,,CLR,,,,,,,,VFR,,,,,,,,,,,,METAR,400.0
KCPP 021935Z AUTO 00000KT 10SM SCT049 SCT055 BKN070 28/16 A2988 RMK AO2,KCPP,2023-06-02T19:35:00Z,,,28.0,16.0,0,0,,10.0,29.878937,,,TRUE,TRUE,,,,,,,SCT,4900,SCT,5500,BKN,7000,,,VFR,,,,,,,,,,,,METAR,
KCOM 021935Z AUTO 14010KT 10SM BKN046 BKN060 29/17 A2990 RMK AO2 T02880173,KCOM,2023-06-02T19:35:00Z,31.83,-99.4,28.8,17.3,140,10,,10.0,29.899607,,,TRUE,TRUE,,,,,,,BKN,4600,BKN,6000,,,,,VFR,,,,,,,,,,,,SPECI,516.0
KCNI 021935Z AUTO 21003KT 10SM SCT060 29/15 A2991 RMK AO2 T02860152,KCNI,2023-06-02T19:35:00Z,34.32,-84.42,28.6,15.2,210,3,,10.0,29.911417,,,TRUE,TRUE,,,,,,,SCT,6000,,,,,,,VFR,,,,,,,,,,,,SPECI,371.0
KCNC 021935Z AUTO 31005G10KT 9SM SCT060 SCT070 28/20 A2999 RMK AO2,KCNC,2023-06-02T19:35:00Z,41.02,-93.37,28.0,20.0,310,5,10,9.0,29.991142,,,TRUE,TRUE,,,,,,,SCT,6000,SCT,7000,,,,,VFR,,,,,,,,,,,,SPECI,319.0
KCMD 021935Z AUTO 00000KT 2 1/2SM HZ FEW055 SCT120 28/17 A2993 RMK AO2,KCMD,2023-06-02T19:35:00Z,34.27,-86.85,28.0,17.0,0,0,,2.5,29.929134,,,TRUE,TRUE,,,,,,HZ,FEW,5500,SCT,12000,,,,,IFR,,,,,,,,,,,,METAR,294.0
KCKZ 021935Z AUTO 04008KT 10SM FEW090 33/10 A2987 RMK AO2 LTG DSNT NE AND SE,KCKZ,2023-06-02T19:35:00Z,40.38,-75.28,33.0,10.0,40,8,,10.0,29.870079,,,TRUE,TRUE,,,,,,,FEW,9000,,,,,,,VFR,,,,,,,,,,,,SPECI,160.0
KCKP 021935Z AUTO 14011G16KT 10SM SCT065 BKN090 31/14 A2997 RMK AO2 LTG DSNT S THRU W T03060137,KCKP,2023-06-02T19:35:00Z,42.73,-95.55,30.6,13.7,140,11,16,10.0,29.970472,,,TRUE,TRUE,,,,,,,SCT,6500,BKN,9000,,,,,VFR,,,,,,,,,,,,SPECI,369.0
KCKF 021935Z AUTO 04006KT 10SM BKN085 29/16 A2985 RMK AO2 T02910159,KCKF,2023-06-02T19:35:00Z,31.98,-83.77,29.1,15.9,40,6,,10.0,29.84941,,,TRUE,TRUE,,,,,,,BKN,8500,,,,,,,VFR,,,,,,,,,,,,SPECI,92.0
KCIN 021935Z AUTO 13012KT 10SM CLR 31/18 A2997 RMK AO2,KCIN,2023-06-02T19:35:00Z,42.03,-94.78,31.0,18.0,130,12,,10.0,29.970472,,,TRUE,TRUE,,,,,,,CLR,,,,,,,,VFR,,,,,,,,,,,,SPECI,365.0
KCHK 021935Z AUTO 16011KT 10SM SCT050 SCT060 30/19 A2986 RMK AO2 T02960189,KCHK,2023-06-02T19:35:00Z,35.1,-97.97,29.6,18.9,160,11,,10.0,29.861221,,,TRUE,TRUE,,,,,,,SCT,5000,SCT,6000,,,,,VFR,,,,,,,,,,,,SPECI,346.0
KCFD 021935Z AUTO 18004G14KT 10SM CLR 32/18 A2991 RMK AO2 T03180183,KCFD,2023-06-02T19:35:00Z,30.72,-96.33,31.8,18.3,180,4,14,10.0,29.911417,,,TRUE,TRUE,,,,,,,CLR,,,,,,,,VFR,,,,,,,,,,,,SPECI,106.0
KCCY 021935Z AUTO 13010G16KT 10SM CLR 29/17 A3003 RMK AO2,KCCY,2023-06-02T19:35:00Z,43.07,-92.62,29.0,17.0,130,10,16,10.0,30.029528,,,TRUE,TRUE,,,,,,,CLR,,,,,,,,VFR,,,,,,,,,,,,SPECI,340.0
KCCU 021935Z AUTO 26003KT 1/4SM -SN OVC001 03/01 A3028 RMK AO2 P0006,KCCU,2023-06-02T19:35:00Z,39.48,-106.15,3.0,1.0,260,3,,0.25,30.280512,,,TRUE,TRUE,,,,,,-SN,OVC,100,,,,,,,LIFR,,,,,,0.06,,,,,,SPECI,3672.0
KCCO 021935Z AUTO 03008G14KT 10SM SCT050 SCT080 29/15 A2989 RMK AO2 T02910148,KCCO,2023-06-02T19:35:00Z,33.32,-84.77,29.1,14.8,30,8,14,10.0,29.890747,,,TRUE,TRUE,,,,,,,SCT,5000,SCT,8000,,,,,VFR,,,,,,,,,,,,SPECI,290.0
KCCB 021935Z AUTO 31005KT 10SM BKN028 19/11 A2998 RMK AO2,KCCB,2023-06-02T19:35:00Z,34.12,-117.68,19.0,11.0,310,5,,10.0,29.97933,,,TRUE,TRUE,,,,,,,BKN,2800,,,,,,,MVFR,,,,,,,,,,,,METAR,440.0
KCBK 021935Z AUTO 14017G23KT 10SM CLR 26/11 A2993 RMK AO2 T02570108,KCBK,2023-06-02T19:35:00Z,39.43,-101.05,25.7,10.8,140,17,23,10.0,29.929134,,,TRUE,TRUE,,,,,,,CLR,,,,,,,,VFR,,,,,,,,,,,,SPECI,970.0
KCBF 021935Z AUTO 13008G13KT 10SM FEW055 30/16 A2994 RMK AO2,KCBF,2023-06-02T19:35:00Z,41.27,-95.77,30.0,16.0,130,8,13,10.0,29.940945,,,TRUE,TRUE,,,,,,,FEW,5500,,,,,,,VFR,,,,,,,,,,,,SPECI,379.0
KCAV 021935Z AUTO VRB04G15KT 9SM FEW060 FEW070 SCT080 26/18 A3000 RMK A01,KCAV,2023-06-02T19:35:00Z,42.75,-93.77,26.0,18.0,0,4,15,9.0,30.0,,,TRUE,TRUE,,,,,,,FEW,6000,FEW,7000,SCT,8000,,,VFR,,,,,,,,,,,,METAR,352.0
KC83 021935Z AUTO 00000KT 10SM CLR 25/10 A2995 RMK AO2,KC83,2023-06-02T19:35:00Z,37.83,-121.62,25.0,10.0,0,0,,10.0,29.949802,,,TRUE,TRUE,,,,,,,CLR,,,,,,,,VFR,,,,,,,,,,,,METAR,16.0
KC75 021935Z AUTO 00000KT 10SM SCT080 SCT100 33/18 A2999 RMK AO2,KC75,2023-06-02T19:35:00Z,41.02,-89.38,33.0,18.0,0,0,,10.0,29.991142,,,TRUE,TRUE,,,,,,,SCT,8000,SCT,10000,,,,,VFR,,,,,,,,,,,,METAR,166.0
KC65 021935Z AUTO 04009KT 10SM CLR 32/08 A3002 RMK A01,KC65,2023-06-02T19:35:00Z,41.37,-86.3,32.0,8.0,40,9,,10.0,30.02067,,,TRUE,TRUE,,,,,,,CLR,,,,,,,,VFR,,,,,,,,,,,,SPECI,241.0
KC09 021935Z AUTO 09007KT 10SM SCT090 33/11 A3001 RMK AO2 T03300107,KC09,2023-06-02T19:35:00Z,41.43,-88.42,33.0,10.7,90,7,,10.0,30.008858,,,TRUE,TRUE,,,,,,,SCT,9000,,,,,,,VFR,,,,,,,,,,,,SPECI,179.0
KC07 021935Z AUTO 26003KT M1/4SM SN OVC001 01/01 A3021 RMK AO2 LTG DSNT N AND W,KC07,2023-06-02T19:35:00Z,40.35,-106.7,1.0,1.0,260,3,,0.25,30.209646,,,TRUE,TRUE,,,,,,SN,OVC,100,,,,,,,LIFR,,,,,,,,,,,,SPECI,3224.0
KBYY 021935Z AUTO 15005KT 10SM BKN044 30/20 A2990 RMK AO2 T02990199,KBYY,2023-06-02T19:35:00Z,28.97,-95.87,29.9,19.9,150,5,,10.0,29.899607,,,TRUE,TRUE,,,,,,,BKN,4400,,,,,,,VFR,,,,,,,,,,,,SPECI,12.0
KBYL 021935Z AUTO 03007KT 10SM CLR 30/12 A2995 RMK AO1,KBYL,2023-06-02T19:35:00Z,36.8,-84.2,30.0,12.0,30,7,,10.0,29.949802,,,TRUE,TRUE,,,,,,,CLR,,,,,,,,VFR,,,,,,,,,,,,SPECI,355.0
KBXA 021935Z AUTO 03005KT 10SM SCT060 32/17 A2987 RMK AO2 T03240169,KBXA,2023-06-02T19:35:00Z,30.82,-89.87,32.4,16.9,30,5,,10.0,29.870079,,,TRUE,TRUE,,,,,,,SCT,6000,,,,,,,VFR,,,,,,,,,,,,METAR,35.0
KBWD 021935Z AUTO 17011KT 6SM FEW050 31/17 A2989 RMK AO1,KBWD,2023-06-02T19:35:00Z,31.8,-98.95,31.0,17.0,170,11,,6.0,29.890747,,,TRUE,TRUE,,,,,,,FEW,5000,,,,,,,VFR,,,,,,,,,,,,METAR,420.0
KBVS 021935Z AUTO 00000KT 10SM CLR 18/11 A3011 RMK A01,KBVS,2023-06-02T19:35:00Z,48.47,-122.42,18.0,11.0,0,0,,10.0,30.109253,,,TRUE,TRUE,,,,,,,CLR,,,,,,,,VFR,,,,,,,,,,,,SPECI,31.0
KBVN 021935Z AUTO 16011KT 10SM OVC110 24/15 A2999 RMK AO2 T02380150,KBVN,2023-06-02T19:35:00Z,41.73,-98.05,23.8,15.0,160,11,,10.0,29.991142,,,TRUE,TRUE,,,,,,,OVC,11000,,,,,,,VFR,,,,,,,,,,,,SPECI,547.0
KBUU 021935Z AUTO 11004KT 10SM CLR 32/09 A3005 RMK AO2 T03200089 PWINO,KBUU,2023-06-02T19:35:00Z,42.68,-88.3,32.0,8.9,110,4,,10.0,30.050198,,,TRUE,TRUE,,,,,TRUE,,CLR,,,,,,,,VFR,,,,,,,,,,,,SPECI,238.0
KBTN 021935Z AUTO 14012G19KT 10SM FEW060 31/14 A2993 RMK AO2,KBTN,2023-06-02T19:35:00Z,45.82,-97.75,31.0,14.0,140,12,19,10.0,29.929134,,,TRUE,TRUE,,,,,,,FEW,6000,,,,,,,VFR,,,,,,,,,,,,METAR,400.0
KBTA 021935Z AUTO 20013KT 10SM SCT050 SCT060 SCT095 28/17 A2997 RMK AO2 LTG DSNT N THRU S T02840171,KBTA,2023-06-02T19:35:00Z,41.42,-96.12,28.4,17.1,200,13,,10.0,29.970472,,,TRUE,TRUE,,,,,,,SCT,5000,SCT,6000,SCT,9500,,,VFR,,,,,,,,,,,,SPECI,400.0
KBQP 021935Z AUTO 32004KT BKN050 31/18 A2991 RMK AO2 T03080183 PWINO,KBQP,2023-06-02T19:35:00Z,32.75,-91.88,30.8,18.3,320,4,,,29.911417,,,TRUE,TRUE,,,,,TRUE,,BKN,5000,,,,,,,,,,,,,,,,,,,SPECI,50.0
KBQK 021935Z AUTO 06014KT 10SM CLR 27/19 A2982 RMK AO2 T02740186,KBQK,2023-06-02T19:35:00Z,31.25,-81.47,27.4,18.6,60,14,,10.0,29.819881,,,TRUE,TRUE,,,,,,,CLR,,,,,,,,VFR,,,,,,,,,,,,METAR,7.0
KBPG 021935Z AUTO 16023G30KT 7SM SCT018 SCT033 BKN048 29/16 A2986 RMK AO2 T02940159,KBPG,2023-06-02T19:35:00Z,32.22,-101.52,29.4,15.9,160,23,30,7.0,29.861221,,,TRUE,TRUE,,,,,,,SCT,1800,SCT,3300,BKN,4800,,,VFR,,,,,,,,,,,,SPECI,782.0
KBPC 021935Z AUTO 19009G14KT 10SM SCT022 SCT030 SCT037 26/18 A2992 RMK AO2,KBPC,2023-06-02T19:35:00Z,35.88,-101.03,26.0,18.0,190,9,14,10.0,29.920275,,,TRUE,TRUE,,,,,,,SCT,2200,SCT,3000,SCT,3700,,,VFR,,,,,,,,,,,,SPECI,844.0
KBNW 021935Z AUTO 12011KT 9SM CLR 29/20 A2999 RMK AO2,KBNW,2023-06-02T19:35:00Z,42.03,-93.83,29.0,20.0,120,11,,9.0,29.991142,,,TRUE,TRUE,,,,,,,CLR,,,,,,,,VFR,,,,,,,,,,,,METAR,350.0
KBMT 021935Z AUTO 00000KT 10SM SCT050 SCT070 BKN100 33/19 A2988 RMK AO2 T03250186,KBMT,2023-06-02T19:35:00Z,30.07,-94.22,32.5,18.6,0,0,,10.0,29.878937,,,TRUE,TRUE,,,,,,,SCT,5000,SCT,7000,BKN,10000,,,VFR,,,,,,,,,,,,SPECI,8.0
KBKD 021935Z AUTO 16009KT 7SM CLR 31/16 A2988 RMK AO2 T03140161,KBKD,2023-06-02T19:35:00Z,32.72,-98.88,31.4,16.1,160,9,,7.0,29.878937,,,TRUE,TRUE,,,,,,,CLR,,,,,,,,VFR,,,,,,,,,,,,SPECI,383.0
KBIJ 021935Z AUTO 05006KT 10SM SCT050 BKN070 28/15 A2984 RMK AO2,KBIJ,2023-06-02T19:35:00Z,31.4,-84.9,28.0,15.0,50,6,,10.0,29.840551,,,TRUE,TRUE,,,,,,,SCT,5000,BKN,7000,,,,,VFR,,,,,,,,,,,,METAR,63.0
KBIE 021935Z AUTO 16006KT 10SM SCT050 BKN110 29/18 A2995 RMK AO2 LTG DSNT E SW AND W T02930175,KBIE,2023-06-02T19:35:00Z,40.28,-96.75,29.3,17.5,160,6,,10.0,29.949802,,,TRUE,TRUE,,,,,,,SCT,5000,BKN,11000,,,,,VFR,,,,,,,,,,,,SPECI,398.0
KBHC 021935Z AUTO 03009KT 10SM BKN049 BKN060 BKN085 28/15 A2982 RMK AO2,KBHC,2023-06-02T19:35:00Z,31.72,-82.4,28.0,15.0,30,9,,10.0,29.819881,,,TRUE,TRUE,,,,,,,BKN,4900,BKN,6000,BKN,8500,,,VFR,,,,,,,,,,,,SPECI,61.0
KBGF 021935Z AUTO 00000KT 9SM FEW004 SCT041 BKN070 22/20 A2991 RMK A01,KBGF,2023-06-02T19:35:00Z,35.18,-86.07,22.0,20.0,0,0,,9.0,29.911417,,,TRUE,TRUE,,,,,,,FEW,400,SCT,4100,BKN,7000,,,VFR,,,,,,,,,,,,METAR,295.0
KBGE 021935Z AUTO 06012KT 010V070 10SM SCT055 SCT070 30/17 A2981 RMK AO2 T03050171,KBGE,2023-06-02T19:35:00Z,30.97,-84.63,30.5,17.1,60,12,,10.0,29.811024,,,TRUE,TRUE,,,,,,,SCT,5500,SCT,7000,,,,,VFR,,,,,,,,,,,,METAR,40.0
KBEC 021935Z AUTO 15013G19KT 10SM CLR 29/16 A2993 RMK AO2 LTG DSNT W AND NW T02900163,KBEC,2023-06-02T19:35:00Z,37.7,-97.22,29.0,16.3,150,13,19,10.0,29.929134,,,TRUE,TRUE,,,,,,,CLR,,,,,,,,VFR,,,,,,,,,,,,SPECI,421.0
KBDU 021935Z AUTO 28007KT 10SM SCT070 SCT090 BKN120 17/05 A2996 RMK AO2,KBDU,2023-06-02T19:35:00Z,40.03,-105.23,17.0,5.0,280,7,,10.0,29.958662,,,TRUE,TRUE,,,,,,,SCT,7000,SCT,9000,BKN,12000,,,VFR,,,,,,,,,,,,SPECI,1614.0
KBDG 021935Z AUTO 15004KT 10SM 21/00 A3009 RMK AO1 T02130004,KBDG,2023-06-02T19:35:00Z,37.58,-109.47,21.3,0.4,150,4,,10.0,30.088583,,,TRUE,TRUE,,,,,,,,,,,,,,,,,,,,,,,,,,,SPECI,1778.0
KBBP 021935Z AUTO 04009KT 10SM SCT050 BKN060 27/17 A2985 RMK AO2,KBBP,2023-06-02T19:35:00Z,34.62,-79.73,27.0,17.0,40,9,,10.0,29.84941,,,TRUE,TRUE,,,,,,,SCT,5000,BKN,6000,,,,,VFR,,,,,,,,,,,,METAR,44.0
KBBD 021935Z AUTO 16010G17KT 130V200 10SM FEW048 29/17 A2990 RMK AO2,KBBD,2023-06-02T19:35:00Z,31.18,-99.32,29.0,17.0,160,10,17,10.0,29.899607,,,TRUE,TRUE,,,,,,,FEW,4800,,,,,,,VFR,,,,,,,,,,,,SPECI,554.0
KBAM 021935Z AUTO 34009G14KT 10SM BKN095 21/06 A3005 RMK AO1,KBAM,2023-06-02T19:35:00Z,40.6,-116.87,21.0,6.0,340,9,14,10.0,30.050198,,,TRUE,TRUE,,,,,,,BKN,9500,,,,,,,VFR,,,,,,,,,,,,SPECI,1381.0
KAZE 021935Z AUTO 03010G14KT 10SM BKN080 29/17 A2982 RMK AO2 T02850166,KAZE,2023-06-02T19:35:00Z,31.88,-82.65,28.5,16.6,30,10,14,10.0,29.819881,,,TRUE,TRUE,,,,,,,BKN,8000,,,,,,,VFR,,,,,,,,,,,,SPECI,78.0
KAZC 021935Z AUTO 30008G19KT 10SM CLR 26/04 A3004 RMK AO2,KAZC,2023-06-02T19:35:00Z,36.97,-113.02,26.0,4.0,300,8,19,10.0,30.041338,,,TRUE,TRUE,,,,,,,CLR,,,,,,,,VFR,,,,,,,,,,,,SPECI,1476.0
KAYS 021935Z AUTO 07003KT 10SM SCT050 SCT070 29/16 A2980 RMK AO2 T02900164,KAYS,2023-06-02T19:35:00Z,31.25,-82.4,29.0,16.4,70,3,,10.0,29.799213,,,TRUE,TRUE,,,,,,,SCT,5000,SCT,7000,,,,,VFR,,,,,,,,,,,,SPECI,42.0
KAXX 021935Z AUTO 17013G18KT 10SM CLR 12/03 A3014 RMK AO2 T01190027,KAXX,2023-06-02T19:35:00Z,36.42,-105.28,11.9,2.7,170,13,18,10.0,30.138779,,,TRUE,TRUE,,,,,,,CLR,,,,,,,,VFR,,,,,,,,,,,,SPECI,2543.0
KAXS 021935Z AUTO 16013G17KT 10SM SCT047 SCT060 SCT070 30/18 A2988 RMK AO2 LTG DSNT N T03000180,KAXS,2023-06-02T19:35:00Z,34.7,-99.33,30.0,18.0,160,13,17,10.0,29.878937,,,TRUE,TRUE,,,,,,,SCT,4700,SCT,6000,SCT,7000,,,VFR,,,,,,,,,,,,METAR,433.0
KAXH 021935Z AUTO 17004KT 10SM SCT049 SCT060 33/20 A2989 RMK AO2 T03250201,KAXH,2023-06-02T19:35:00Z,29.52,-95.48,32.5,20.1,170,4,,10.0,29.890747,,,TRUE,TRUE,,,,,,,SCT,4900,SCT,6000,,,,,VFR,,,,,,,,,,,,SPECI,18.0
KAXA 021935Z AUTO 13004KT 10SM CLR 29/17 A3000 RMK A01,KAXA,2023-06-02T19:35:00Z,43.07,-94.27,29.0,17.0,130,4,,10.0,30.0,,,TRUE,TRUE,,,,,,,CLR,,,,,,,,VFR,,,,,,,,,,,,METAR,371.0
KAWG 021935Z AUTO 22006G11KT 6SM HZ FEW065 FEW095 26/18 A3000 RMK AO2,KAWG,2023-06-02T19:35:00Z,41.27,-91.67,26.0,18.0,220,6,11,6.0,30.0,,,TRUE,TRUE,,,,,,HZ,FEW,6500,FEW,9500,,,,,VFR,,,,,,,,,,,,SPECI,229.0
KAVQ 021935Z AUTO 04006KT 10SM 30/00 A2989 RMK AO2 T02980002,KAVQ,2023-06-02T19:35:00Z,32.4,-111.22,29.8,0.2,40,6,,10.0,29.890747,,,TRUE,TRUE,,,,,,,,,,,,,,,,,,,,,,,,,,,SPECI,618.0
KAUH 021935Z AUTO 16006KT 10SM CLR 24/16 A2999 RMK AO2 LTG DSNT SW T02440160,KAUH,2023-06-02T19:35:00Z,40.88,-98.0,24.4,16.0,160,6,,10.0,29.991142,,,TRUE,TRUE,,,,,,,CLR,,,,,,,,VFR,,,,,,,,,,,,SPECI,549.0
KASW 021935Z AUTO 04009KT 10SM CLR 31/10 A3003 RMK AO2 T03170106,KASW,2023-06-02T19:35:00Z,41.27,-85.83,31.7,10.6,40,9,,10.0,30.029528,,,TRUE,TRUE,,,,,,,CLR,,,,,,,,VFR,,,,,,,,,,,,SPECI,253.0
KASN 021935Z AUTO 04006KT 10SM SCT050 SCT070 30/16 A2990 RMK AO2 T02960163,KASN,2023-06-02T19:35:00Z,33.57,-86.05,29.6,16.3,40,6,,10.0,29.899607,,,TRUE,TRUE,,,,,,,SCT,5000,SCT,7000,,,,,VFR,,,,,,,,,,,,METAR,159.0
KARM 021935Z AUTO 17009KT 10SM SCT049 32/19 A2990 RMK AO2 T03230187 TSNO,KARM,2023-06-02T19:35:00Z,29.25,-96.15,32.3,18.7,170,9,,10.0,29.899607,,,TRUE,TRUE,,,TRUE,,,,SCT,4900,,,,,,,VFR,,,,,,,,,,,,SPECI,29.0
KAQO 021935Z AUTO 13009G16KT 100V160 10SM BKN055 30/17 A2988 RMK AO2,KAQO,2023-06-02T19:35:00Z,30.78,-98.67,30.0,17.0,130,9,16,10.0,29.878937,,,TRUE,TRUE,,,,,,,BKN,5500,,,,,,,VFR,,,,,,,,,,,,SPECI,334.0
KAPY 021935Z AUTO 16007KT 110V170 10SM 33/20 A2984 RMK AO2 T03320199 TSNO,KAPY,2023-06-02T19:35:00Z,26.97,-99.25,33.2,19.9,160,7,,10.0,29.840551,,,TRUE,TRUE,,,TRUE,,,,,,,,,,,,,,,,,,,,,,,,SPECI,129.0
KANW 021935Z AUTO 14015G20KT 10SM SCT032 23/15 A2996 RMK AO2 T02320146,KANW,2023-06-02T19:35:00Z,42.57,-100.0,23.2,14.6,140,15,20,10.0,29.958662,,,TRUE,TRUE,,,,,,,SCT,3200,,,,,,,VFR,,,,,,,,,,,,METAR,788.0
KALX 021935Z AUTO 02007KT 350V050 10SM CLR 29/16 A2989 RMK AO2 T02910160,KALX,2023-06-02T19:35:00Z,32.92,-85.97,29.1,16.0,20,7,,10.0,29.890747,,,TRUE,TRUE,,,,,,,CLR,,,,,,,,VFR,,,,,,,,,,,,SPECI,198.0
KAJZ 021935Z AUTO 07012KT 10SM BKN070 BKN090 17/06 A3005 RMK AO2 T01690061 PWINO,KAJZ,2023-06-02T19:35:00Z,38.78,-108.07,16.9,6.1,70,12,,10.0,30.050198,,,TRUE,TRUE,,,,,TRUE,,BKN,7000,BKN,9000,,,,,VFR,,,,,,,,,,,,SPECI,1583.0
KAJR 021935Z AUTO 06006KT 10SM SCT050 28/14 A2992 RMK AO2 T02840143,KAJR,2023-06-02T19:35:00Z,34.5,-83.55,28.4,14.3,60,6,,10.0,29.920275,,,TRUE,TRUE,,,,,,,SCT,5000,,,,,,,VFR,,,,,,,,,,,,SPECI,441.0
KAJG 021935Z AUTO 04008G18KT 10SM CLR 33/06 A2996 RMK AO2 T03270057,KAJG,2023-06-02T19:35:00Z,38.62,-87.73,32.7,5.7,40,8,18,10.0,29.958662,,,TRUE,TRUE,,,,,,,CLR,,,,,,,,VFR,,,,,,,,,,,,SPECI,130.0
KAIO 021935Z AUTO 05004KT 10SM FEW055 22/22 A2998 RMK AO2,KAIO,2023-06-02T19:35:00Z,41.4,-95.03,22.0,22.0,50,4,,10.0,29.97933,,,TRUE,TRUE,,,,,,,FEW,5500,,,,,,,VFR,,,,,,,,,,,,SPECI,349.0
KAHQ 021935Z AUTO 17007KT 10SM 30/17 A2995 RMK AO2 T03010167,KAHQ,2023-06-02T19:35:00Z,41.23,-96.6,30.1,16.7,170,7,,10.0,29.949802,,,TRUE,TRUE,,,,,,,,,,,,,,,,,,,,,,,,,,,SPECI,372.0
KAGI 021935Z AUTO 00000KT 10SM CLR 32/21 A2989 RMK AO2 T03190207,KAGI,2023-06-02T19:35:00Z,27.55,-92.45,31.9,20.7,0,0,,10.0,29.890747,,,TRUE,TRUE,,,,,,,CLR,,,,,,,,VFR,,,,,,,,,,,,SPECI,41.0
KAFO 021935Z AUTO 00000KT 10SM -RA SCT011 OVC050 10/08 A3007 RMK AO2,KAFO,2023-06-02T19:35:00Z,42.72,-110.95,10.0,8.0,0,0,,10.0,30.070866,,,TRUE,TRUE,,,,,,-RA,SCT,1100,OVC,5000,,,,,VFR,,,,,,,,,,,,METAR,1881.0
KAFK 021935Z AUTO 18008KT 10SM VCTS SCT110 28/18 A2995 RMK AO2 LTG DSNT NE AND SE T02780177,KAFK,2023-06-02T19:35:00Z,40.6,-95.85,27.8,17.7,180,8,,10.0,29.949802,,,TRUE,TRUE,,,,,,VCTS,SCT,11000,,,,,,,VFR,,,,,,,,,,,,SPECI,353.0
KAEJ 021935Z AUTO 29016G19KT 10SM SCT048 OVC055 13/00 A3011 RMK AO2 T01261001,KAEJ,2023-06-02T19:35:00Z,38.82,-106.12,12.6,-0.1,290,16,19,10.0,30.109253,,,TRUE,TRUE,,,,,,,SCT,4800,OVC,5500,,,,,VFR,,,,,,,,,,,,SPECI,2420.0
KADU 021935Z AUTO 19009KT 10SM SCT002 BKN060 OVC090 27/15 A2999 RMK AO2,KADU,2023-06-02T19:35:00Z,41.7,-94.92,27.0,15.0,190,9,,10.0,29.991142,,,TRUE,TRUE,,,,,,,SCT,200,BKN,6000,OVC,9000,,,VFR,,,,,,,,,,,,SPECI,391.0
KADT 021935Z AUTO 17009G15KT 10SM CLR 26/13 A2997 RMK AO2 T02580126,KADT,2023-06-02T19:35:00Z,39.83,-101.05,25.8,12.6,170,9,15,10.0,29.970472,,,TRUE,TRUE,,,,,,,CLR,,,,,,,,VFR,,,,,,,,,,,,SPECI,899.0
KADH 021935Z AUTO 13011KT 10SM CLR 30/20 A2992 RMK AO2,KADH,2023-06-02T19:35:00Z,34.8,-96.67,30.0,20.0,130,11,,10.0,29.920275,,,TRUE,TRUE,,,,,,,CLR,,,,,,,,VFR,,,,,,,,,,,,SPECI,301.0
KACP 021935Z AUTO 00000KT 10SM SCT055 32/16 A2988 RMK AO2,KACP,2023-06-02T19:35:00Z,30.75,-92.68,32.0,16.0,0,0,,10.0,29.878937,,,TRUE,TRUE,,,,,,,SCT,5500,,,,,,,VFR,,,,,,,,,,,,SPECI,31.0
KAAS 021935Z AUTO 06005KT 10SM CLR 30/11 A3000 RMK AO1,KAAS,2023-06-02T19:35:00Z,37.35,-85.32,30.0,11.0,60,5,,10.0,30.0,,,TRUE,TRUE,,,,,,,CLR,,,,,,,,VFR,,,,,,,,,,,,SPECI,270.0
KAAA 021935Z AUTO 09010G14KT 10SM 34/09 A2999 RMK AO2 T03380090,KAAA,2023-06-02T19:35:00Z,40.17,-89.33,33.8,9.0,90,10,14,10.0,29.991142,,,TRUE,TRUE,,,,,,,,,,,,,,,,,,,,,,,,,,,SPECI,179.0
KA39 021935Z AUTO 25005KT 10SM CLR 30/05 A2991 RMK AO2,KA39,2023-06-02T19:35:00Z,32.98,-111.92,30.0,5.0,250,5,,10.0,29.911417,,,TRUE,TRUE,,,,,,,CLR,,,,,,,,VFR,,,,,,,,,,,,SPECI,391.0
K9V9 021935Z AUTO 17013G23KT 10SM SCT050 SCT095 29/15 A2994 RMK AO2 T02860154,K9V9,2023-06-02T19:35:00Z,43.77,-99.32,28.6,15.4,170,13,23,10.0,29.940945,,,TRUE,TRUE,,,,,,,SCT,5000,SCT,9500,,,,,VFR,,,,,,,,,,,,SPECI,511.0
K9MN 021935Z AUTO 20014G18KT 180V260 10SM SCT045 BKN055 BKN065 26/16 A3005 RMK AO1 T02590157,K9MN,2023-06-02T19:35:00Z,44.02,-92.48,25.9,15.7,200,14,18,10.0,30.050198,,,TRUE,TRUE,,,,,,,SCT,4500,BKN,5500,BKN,6500,,,VFR,,,,,,,,,,,,METAR,308.0
K9A5 021935Z AUTO 04004KT 10SM SCT060 SCT110 30/14 A2990 RMK AO2 T03000135,K9A5,2023-06-02T19:35:00Z,34.68,-85.28,30.0,13.5,40,4,,10.0,29.899607,,,TRUE,TRUE,,,,,,,SCT,6000,SCT,11000,,,,,VFR,,,,,,,,,,,,SPECI,234.0
K8T6 021935Z AUTO 13008G15KT 10SM FEW047 32/22 A2984 RMK AO2,K8T6,2023-06-02T19:35:00Z,28.37,-98.12,32.0,22.0,130,8,15,10.0,29.840551,,,TRUE,TRUE,,,,,,,FEW,4700,,,,,,,VFR,,,,,,,,,,,,METAR,39.0
K8A0 021935Z AUTO 33004KT 10SM CLR 28/16 A2991 RMK AO2,K8A0,2023-06-02T19:35:00Z,34.23,-86.25,28.0,16.0,330,4,,10.0,29.911417,,,TRUE,TRUE,,,,,,,CLR,,,,,,,,VFR,,,,,,,,,,,,SPECI,313.0
K82V 021935Z AUTO 16008KT 10SM 21/08 A2995 RMK AO2,K82V,2023-06-02T19:35:00Z,41.15,-104.13,21.0,8.0,160,8,,10.0,29.949802,,,TRUE,TRUE,,,,,,,,,,,,,,,,,,,,,,,,,,,SPECI,1563.0
K82C 021935Z AUTO 10005KT 10SM SCT065 32/16 A3004 RMK AO2 T03200164,K82C,2023-06-02T19:35:00Z,43.83,-90.13,32.0,16.4,100,5,,10.0,30.041338,,,TRUE,TRUE,,,,,,,SCT,6500,,,,,,,VFR,,,,,,,,,,,,METAR,273.0
K81R 021935Z AUTO 14008KT 10SM BKN050 30/18 A2991 RMK AO2 T03010179,K81R,2023-06-02T19:35:00Z,31.23,-98.72,30.1,17.9,140,8,,10.0,29.911417,,,TRUE,TRUE,,,,,,,BKN,5000,,,,,,,VFR,,,,,,,,,,,,SPECI,381.0
K7BM 021935Z AUTO 29005KT 10SM SCT023 SCT036 BKN047 11/00 A3018 RMK AO2 LTG DSNT N,K7BM,2023-06-02T19:35:00Z,38.78,-106.22,11.0,0.0,290,5,,10.0,30.180119,,,TRUE,TRUE,,,,,,,SCT,2300,SCT,3600,BKN,4700,,,VFR,,,,,,,,,,,,METAR,2996.0
K6S0 021935Z AUTO 29006KT 4SM BR SCT025 SCT034 13/12 A3003 RMK A01,K6S0,2023-06-02T19:35:00Z,45.8,-109.97,13.0,12.0,290,6,,4.0,30.029528,,,TRUE,TRUE,,,,,,BR,SCT,2500,SCT,3400,,,,,MVFR,,,,,,,,,,,,METAR,1364.0
K6R3 021935Z AUTO 00000KT 10SM SCT065 31/20 A2990 RMK AO2 T03130203,K6R3,2023-06-02T19:35:00Z,30.35,-95.0,31.3,20.3,0,0,,10.0,29.899607,,,TRUE,TRUE,,,,,,,SCT,6500,,,,,,,VFR,,,,,,,,,,,,METAR,44.0
K6P9 021935Z AUTO 19008G15KT 10SM SCT055 29/16 A2990 RMK AO2 T02940157,K6P9,2023-06-02T19:35:00Z,32.43,-98.6,29.4,15.7,190,8,15,10.0,29.899607,,,TRUE,TRUE,,,,,,,SCT,5500,,,,,,,VFR,,,,,,,,,,,,SPECI,451.0
K6I2 021935Z AUTO 03007KT 10SM CLR 32/12 A2996 RMK AO2,K6I2,2023-06-02T19:35:00Z,37.63,-85.25,32.0,12.0,30,7,,10.0,29.958662,,,TRUE,TRUE,,,,,,,CLR,,,,,,,,VFR,,,,,,,,,,,,SPECI,258.0
K6A2 021935Z AUTO 04007KT 10SM SCT048 SCT060 BKN090 27/14 A2990 RMK AO2,K6A2,2023-06-02T19:35:00Z,33.23,-84.27,27.0,14.0,40,7,,10.0,29.899607,,,TRUE,TRUE,,,,,,,SCT,4800,SCT,6000,BKN,9000,,,VFR,,,,,,,,,,,,SPECI,290.0
K6A1 021935Z AUTO 07010KT 020V090 10SM BKN048 BKN090 29/14 A2987 RMK AO2 T02920144,K6A1,2023-06-02T19:35:00Z,32.57,-84.25,29.2,14.4,70,10,,10.0,29.870079,,,TRUE,TRUE,,,,,,,BKN,4800,BKN,9000,,,,,VFR,,,,,,,,,,,,SPECI,198.0
K66R 021935Z AUTO 13005KT 10SM SCT048 BKN060 BKN070 31/21 A2990 RMK AO2 T03110205,K66R,2023-06-02T19:35:00Z,29.65,-96.52,31.1,20.5,130,5,,10.0,29.899607,,,TRUE,TRUE,,,,,,,SCT,4800,BKN,6000,BKN,7000,,,VFR,,,,,,,,,,,,METAR,70.0
K65S 021935Z AUTO VRB03KT 10SM SCT100 23/08 A2999 RMK AO2,K65S,2023-06-02T19:35:00Z,48.73,-116.3,23.0,8.0,0,3,,10.0,29.991142,,,TRUE,TRUE,,,,,,,SCT,10000,,,,,,,VFR,,,,,,,,,,,,METAR,708.0
K63S 021935Z AUTO 00000KT 10SM CLR 23/04 A3000 RMK A01,K63S,2023-06-02T19:35:00Z,48.53,-117.88,23.0,4.0,0,0,,10.0,30.0,,,TRUE,TRUE,,,,,,,CLR,,,,,,,,VFR,,,,,,,,,,,,METAR,571.0
K5T9 021935Z AUTO 16005G12KT 10SM SCT031 SCT036 31/24 A2983 RMK A01,K5T9,2023-06-02T19:35:00Z,28.85,-100.52,31.0,24.0,160,5,12,10.0,29.828741,,,TRUE,TRUE,,,,,,,SCT,3100,SCT,3600,,,,,VFR,,,,,,,,,,,,METAR,269.0
K5SM 021935Z AUTO 23009G18KT 1/2SM -RA OVC002 00/00 A3027 RMK AO2 LTG DSNT N AND NW,K5SM,2023-06-02T19:35:00Z,39.43,-107.38,0.0,0.0,230,9,18,0.5,30.268702,,,TRUE,TRUE,,,,,,-RA,OVC,200,,,,,,,LIFR,,,,,,,,,,,,METAR,3229.0
K5C1 021935Z AUTO 17008KT 10SM SCT039 SCT046 28/18 A2991 RMK AO1,K5C1,2023-06-02T19:35:00Z,29.72,-98.7,28.0,18.0,170,8,,10.0,29.911417,,,TRUE,TRUE,,,,,,,SCT,3900,SCT,4600,,,,,VFR,,,,,,,,,,,,METAR,422.0
K5A6 021935Z AUTO 15004KT 10SM 28/19 A2990 RMK AO2 T02790191,K5A6,2023-06-02T19:35:00Z,33.47,-89.73,27.9,19.1,150,4,,10.0,29.899607,,,TRUE,TRUE,,,,,,,,,,,,,,,,,,,,,,,,,,,SPECI,109.0
K54A 021935Z AUTO 22007G13KT 190V250 10SM SCT095 32/22 A2970 RMK AO2 LTG DSNT NW-E,K54A,2023-06-02T19:35:00Z,26.85,-82.25,32.0,22.0,220,7,13,10.0,29.698818,,,TRUE,TRUE,,,,,,,SCT,9500,,,,,,,VFR,,,,,,,,,,,,METAR,2.0
K4V1 021935Z AUTO 23013G17KT 10SM SCT110 22/M02 A2996 RMK AO2 T02221017,K4V1,2023-06-02T19:35:00Z,37.7,-104.78,22.2,-1.7,230,13,17,10.0,29.958662,,,TRUE,TRUE,,,,,,,SCT,11000,,,,,,,VFR,,,,,,,,,,,,METAR,1847.0
K4V0 021935Z AUTO 26008KT 10SM SCT029 SCT046 SCT070 16/09 A3003 RMK AO2 T01600094,K4V0,2023-06-02T19:35:00Z,40.1,-108.77,16.0,9.4,260,8,,10.0,30.029528,,,TRUE,TRUE,,,,,,,SCT,2900,SCT,4600,SCT,7000,,,VFR,,,,,,,,,,,,SPECI,1602.0
K4S2 021935Z AUTO 30007KT 10SM CLR 22/04 A3003 RMK AO2,K4S2,2023-06-02T19:35:00Z,45.68,-121.55,22.0,4.0,300,7,,10.0,30.029528,,,TRUE,TRUE,,,,,,,CLR,,,,,,,,VFR,,,,,,,,,,,,SPECI,183.0
K4S1 021935Z AUTO 35014G20KT CLR 14/08 A3010 RMK AO2 PWINO,K4S1,2023-06-02T19:35:00Z,42.42,-124.42,14.0,8.0,350,14,20,,30.100393,,,TRUE,TRUE,,,,,TRUE,,CLR,,,,,,,,,,,,,,,,,,,,METAR,7.0
K4F2 021935Z AUTO 00000KT 10SM OVC110 30/20 A2990 RMK AO2 T03030203,K4F2,2023-06-02T19:35:00Z,32.18,-94.3,30.3,20.3,0,0,,10.0,29.899607,,,TRUE,TRUE,,,,,,,OVC,11000,,,,,,,VFR,,,,,,,,,,,,METAR,76.0
K4BM 021935Z AUTO 17007G15KT 140V200 10SM SCT032 SCT044 SCT050 11/M01 A3024 RMK AO2,K4BM,2023-06-02T19:35:00Z,39.05,-105.52,11.0,-1.0,170,7,15,10.0,30.239174,,,TRUE,TRUE,,,,,,,SCT,3200,SCT,4400,SCT,5000,,,VFR,,,,,,,,,,,,SPECI,3432.0
K4A9 021935Z AUTO 05009KT 10SM CLR 30/15 A2989 RMK AO2 LTG DSNT N T03020147,K4A9,2023-06-02T19:35:00Z,34.47,-85.72,30.2,14.7,50,9,,10.0,29.890747,,,TRUE,TRUE,,,,,,,CLR,,,,,,,,VFR,,,,,,,,,,,,SPECI,273.0
K49A 021935Z AUTO 00000G10KT 10SM BKN055 BKN060 OVC085 27/17 A2991 RMK AO2,K49A,2023-06-02T19:35:00Z,34.63,-84.53,27.0,17.0,0,0,10,10.0,29.911417,,,TRUE,TRUE,,,,,,,BKN,5500,BKN,6000,OVC,8500,,,VFR,,,,,,,,,,,,SPECI,449.0
K48A 021935Z AUTO 08005KT 10SM SCT049 SCT060 BKN080 29/16 A2985 RMK AO2 T02930165,K48A,2023-06-02T19:35:00Z,32.4,-83.27,29.3,16.5,80,5,,10.0,29.84941,,,TRUE,TRUE,,,,,,,SCT,4900,SCT,6000,BKN,8000,,,VFR,,,,,,,,,,,,SPECI,115.0
K46U 021935Z AUTO 00000KT 10SM OVC019 12/11 A3006 RMK A01,K46U,2023-06-02T19:35:00Z,43.18,-111.05,12.0,11.0,0,0,,10.0,30.059055,,,TRUE,TRUE,,,,,,,OVC,1900,,,,,,,MVFR,,,,,,,,,,,,SPECI,1718.0
K40U 021935Z AUTO 23003KT 7SM -RA SCT017 BKN050 OVC060 11/09 A3008 RMK AO2 P0002 T01080090,K40U,2023-06-02T19:35:00Z,40.98,-109.68,10.8,9.0,230,3,,7.0,30.079725,,,TRUE,TRUE,,,,,,-RA,SCT,1700,BKN,5000,OVC,6000,,,VFR,,,,,,0.02,,,,,,SPECI,1882.0
K3S8 021935Z AUTO 25004KT 10SM CLR 22/06 A3008 RMK AO2,K3S8,2023-06-02T19:35:00Z,42.5,-123.4,22.0,6.0,250,4,,10.0,30.079725,,,TRUE,TRUE,,,,,,,CLR,,,,,,,,VFR,,,,,,,,,,,,METAR,339.0
K3LF 021935Z AUTO 08004KT 10SM CLR 32/13 A3000 RMK AO2 T03200126,K3LF,2023-06-02T19:35:00Z,39.17,-89.67,32.0,12.6,80,4,,10.0,30.0,,,TRUE,TRUE,,,,,,,CLR,,,,,,,,VFR,,,,,,,,,,,,SPECI,207.0
K3K3 021935Z AUTO 14015G21KT 10SM SCT026 SCT032 SCT055 25/16 A2988 RMK AO2,K3K3,2023-06-02T19:35:00Z,38.0,-101.75,25.0,16.0,140,15,21,10.0,29.878937,,,TRUE,TRUE,,,,,,,SCT,2600,SCT,3200,SCT,5500,,,VFR,,,,,,,,,,,,SPECI,1010.0
K3F3 021935Z AUTO 07006KT 10SM SCT050 33/17 A2993 RMK AO2 T03250172,K3F3,2023-06-02T19:35:00Z,32.07,-93.77,32.5,17.2,70,6,,10.0,29.929134,,,TRUE,TRUE,,,,,,,SCT,5000,,,,,,,VFR,,,,,,,,,,,,SPECI,96.0
K3D2 021935Z AUTO 06004KT 10SM CLR 28/12 A3009 RMK AO2 T02750118,K3D2,2023-06-02T19:35:00Z,45.13,-87.18,27.5,11.8,60,4,,10.0,30.088583,,,TRUE,TRUE,,,,,,,CLR,,,,,,,,VFR,,,,,,,,,,,,SPECI,233.0
K3AU 021935Z AUTO 15009G15KT 10SM SCT050 SCT055 BKN070 28/15 A2994 RMK AO2,K3AU,2023-06-02T19:35:00Z,37.67,-97.08,28.0,15.0,150,9,15,10.0,29.940945,,,TRUE,TRUE,,,,,,,SCT,5000,SCT,5500,BKN,7000,,,VFR,,,,,,,,,,,,SPECI,403.0
K36K 021935Z AUTO 14014KT 10SM SCT026 BKN031 BKN036 24/19 A2993 RMK AO2,K36K,2023-06-02T19:35:00Z,37.97,-101.25,24.0,19.0,140,14,,10.0,29.929134,,,TRUE,TRUE,,,,,,,SCT,2600,BKN,3100,BKN,3600,,,VFR,,,,,,,,,,,,METAR,938.0
K33V 021935Z AUTO 18007KT 10SM BKN033 OVC040 06/05 A3013 RMK AO1,K33V,2023-06-02T19:35:00Z,40.75,-106.28,6.0,5.0,180,7,,10.0,30.129921,,,TRUE,TRUE,,,,,,,BKN,3300,OVC,4000,,,,,VFR,,,,,,,,,,,,SPECI,2486.0
K33N 021935Z AUTO 09005KT 10SM CLR 33/15 A2984 RMK A01,K33N,2023-06-02T19:35:00Z,39.22,-75.6,33.0,15.0,90,5,,10.0,29.840551,,,TRUE,TRUE,,,,,,,CLR,,,,,,,,VFR,,,,,,,,,,,,METAR,17.0
K2V5 021935Z AUTO 24008KT 10SM -RA BKN050 OVC080 24/12 A2990 RMK AO2 LTG DSNT SW THRU N,K2V5,2023-06-02T19:35:00Z,40.1,-102.25,24.0,12.0,240,8,,10.0,29.899607,,,TRUE,TRUE,,,,,,-RA,BKN,5000,OVC,8000,,,,,VFR,,,,,,,,,,,,SPECI,1117.0
K2R9 021935Z AUTO 12011KT 10SM SCT050 SCT070 32/19 A2987 RMK AO2 T03170195,K2R9,2023-06-02T19:35:00Z,28.82,-97.87,31.7,19.5,120,11,,10.0,29.870079,,,TRUE,TRUE,,,,,,,SCT,5000,SCT,7000,,,,,VFR,,,,,,,,,,,,METAR,88.0
K2P2 021935Z AUTO 06004KT 10SM CLR 27/10 A3010 RMK AO2 T02700103,K2P2,2023-06-02T19:35:00Z,45.38,-86.92,27.0,10.3,60,4,,10.0,30.100393,,,TRUE,TRUE,,,,,,,CLR,,,,,,,,VFR,,,,,,,,,,,,METAR,182.0
K2M2 021935Z AUTO 36008KT 340V040 10SM FEW050 FEW095 29/17 A2991 RMK A01,K2M2,2023-06-02T19:35:00Z,35.23,-87.25,29.0,17.0,360,8,,10.0,29.911417,,,TRUE,TRUE,,,,,,,FEW,5000,FEW,9500,,,,,VFR,,,,,,,,,,,,METAR,286.0
K2J5 021935Z AUTO 36006KT 10SM SCT044 SCT060 28/16 A2985 RMK AO2 T02770164,K2J5,2023-06-02T19:35:00Z,32.9,-81.97,27.7,16.4,360,6,,10.0,29.84941,,,TRUE,TRUE,,,,,,,SCT,4400,SCT,6000,,,,,VFR,,,,,,,,,,,,SPECI,72.0
K2I0 021935Z AUTO 08006KT 10SM CLR 34/13 A2994 RMK AO2 T03350129,K2I0,2023-06-02T19:35:00Z,37.35,-87.4,33.5,12.9,80,6,,10.0,29.940945,,,TRUE,TRUE,,,,,,,CLR,,,,,,,,VFR,,,,,,,,,,,,SPECI,127.0
K2G9 021935Z AUTO 04006G15KT 10SM SCT085 27/06 A3002 RMK AO2,K2G9,2023-06-02T19:35:00Z,40.03,-79.02,27.0,6.0,40,6,15,10.0,30.02067,,,TRUE,TRUE,,,,,,,SCT,8500,,,,,,,VFR,,,,,,,,,,,,SPECI,677.0
K2G2 021935Z AUTO VRB05G11KT 10SM 31/10 A2997 RMK A01,K2G2,2023-06-02T19:35:00Z,40.37,-80.7,31.0,10.0,0,5,11,10.0,29.970472,,,TRUE,TRUE,,,,,,,,,,,,,,,,,,,,,,,,,,,METAR,365.0
K2A0 021935Z AUTO 03007KT 360V060 10SM FEW060 31/17 A2989 RMK A01,K2A0,2023-06-02T19:35:00Z,35.48,-84.93,31.0,17.0,30,7,,10.0,29.890747,,,TRUE,TRUE,,,,,,,FEW,6000,,,,,,,VFR,,,,,,,,,,,,METAR,219.0
K20V 021935Z AUTO 27007KT 10SM -DZ SCT036 OVC043 06/05 A3013 RMK AO2 P0001,K20V,2023-06-02T19:35:00Z,40.05,-106.37,6.0,5.0,270,7,,10.0,30.129921,,,TRUE,TRUE,,,,,,-DZ,SCT,3600,OVC,4300,,,,,VFR,,,,,,0.01,,,,,,METAR,2259.0
K1V6 021935Z AUTO 25006KT 10SM SCT090 SCT120 24/02 A2992 RMK AO2,K1V6,2023-06-02T19:35:00Z,38.43,-105.1,24.0,2.0,250,6,,10.0,29.920275,,,TRUE,TRUE,,,,,,,SCT,9000,SCT,12000,,,,,VFR,,,,,,,,,,,,SPECI,1658.0
K1U7 021935Z AUTO 00000KT 7SM FEW014 11/10 A3007 RMK A01,K1U7,2023-06-02T19:35:00Z,42.25,-111.33,11.0,10.0,0,0,,7.0,30.070866,,,TRUE,TRUE,,,,,,,FEW,1400,,,,,,,VFR,,,,,,,,,,,,METAR,1808.0
K1R8 021935Z AUTO VRB04G11KT 10SM SCT070 SCT095 30/16 A2984 RMK AO2,K1R8,2023-06-02T19:35:00Z,30.87,-87.82,30.0,16.0,0,4,11,10.0,29.840551,,,TRUE,TRUE,,,,,,,SCT,7000,SCT,9500,,,,,VFR,,,,,,,,,,,,SPECI,76.0
K1H2 021935Z AUTO 04006KT 10SM CLR 33/06 A2999 RMK AO2 T03300064,K1H2,2023-06-02T19:35:00Z,39.07,-88.53,33.0,6.4,40,6,,10.0,29.991142,,,TRUE,TRUE,,,,,,,CLR,,,,,,,,VFR,,,,,,,,,,,,SPECI,174.0
K1F0 021935Z AUTO 15009KT 10SM SCT050 SCT070 31/19 A2989 RMK AO2 T03150185,K1F0,2023-06-02T19:35:00Z,34.15,-97.12,31.5,18.5,150,9,,10.0,29.890747,,,TRUE,TRUE,,,,,,,SCT,5000,SCT,7000,,,,,VFR,,,,,,,,,,,,SPECI,256.0
K1D8 021935Z AUTO 17013G19KT 10SM FEW055 FEW085 BKN110 30/18 A2992 RMK AO2,K1D8,2023-06-02T19:35:00Z,,,30.0,18.0,170,13,19,10.0,29.920275,,,TRUE,TRUE,,,,,,,FEW,5500,FEW,8500,BKN,11000,,,VFR,,,,,,,,,,,,SPECI,
K1A9 021935Z AUTO 06006KT 10SM CLR 31/16 A2986 RMK AO2 T03070158,K1A9,2023-06-02T19:35:00Z,32.43,-86.52,30.7,15.8,60,6,,10.0,29.861221,,,TRUE,TRUE,,,,,,,CLR,,,,,,,,VFR,,,,,,,,,,,,SPECI,65.0
K1A6 021935Z AUTO 05006KT 10SM CLR 31/12 A2994 RMK AO2 T03060118,K1A6,2023-06-02T19:35:00Z,36.62,-83.73,30.6,11.8,50,6,,10.0,29.940945,,,TRUE,TRUE,,,,,,,CLR,,,,,,,,VFR,,,,,,,,,,,,SPECI,348.0
K18A 021935Z AUTO 07007KT 040V100 10SM SCT060 28/15 A2996 RMK AO2 T02840150,K18A,2023-06-02T19:35:00Z,34.35,-83.13,28.4,15.0,70,7,,10.0,29.958662,,,TRUE,TRUE,,,,,,,SCT,6000,,,,,,,VFR,,,,,,,,,,,,SPECI,260.0
K17J 021935Z AUTO 06012G17KT 10SM BKN065 30/15 A2982 RMK AO2 T02970153,K17J,2023-06-02T19:35:00Z,31.0,-84.87,29.7,15.3,60,12,17,10.0,29.819881,,,TRUE,TRUE,,,,,,,BKN,6500,,,,,,,VFR,,,,,,,,,,,,SPECI,42.0
K13K 021935Z AUTO 16007KT 140V200 10SM SCT035 SCT055 SCT065 29/19 A2996 RMK AO2 LTG DSNT NE T02880190,K13K,2023-06-02T19:35:00Z,37.85,-96.3,28.8,19.0,160,7,,10.0,29.958662,,,TRUE,TRUE,,,,,,,SCT,3500,SCT,5500,SCT,6500,,,VFR,,,,,,,,,,,,SPECI,367.0
K11R 021935Z AUTO 13009KT 10SM BKN050 32/19 A2989 RMK AO2 T03190192,K11R,2023-06-02T19:35:00Z,30.22,-96.37,31.9,19.2,130,9,,10.0,29.890747,,,TRUE,TRUE,,,,,,,BKN,5000,,,,,,,VFR,,,,,,,,,,,,SPECI,87.0
K0V4 021935Z AUTO 05012G15KT 10SM CLR 30/12 A2991 RMK AO1,K0V4,2023-06-02T19:35:00Z,37.15,-79.02,30.0,12.0,50,12,15,10.0,29.911417,,,TRUE,TRUE,,,,,,,CLR,,,,,,,,VFR,,,,,,,,,,,,METAR,186.0
K0R0 021935Z AUTO VRB05KT A2990 RMK AO2 PWINO TSNO,K0R0,2023-06-02T19:35:00Z,31.3,-89.82,,,0,5,,,29.899607,,,TRUE,TRUE,,,TRUE,,TRUE,,,,,,,,,,,,,,,,,,,,,,METAR,76.0
K0F2 021935Z AUTO 10SM CLR 31/18 A2989 RMK AO2 T03080178,K0F2,2023-06-02T19:35:00Z,33.6,-97.78,30.8,17.8,,,,10.0,29.890747,,,TRUE,TRUE,,,,,,,CLR,,,,,,,,VFR,,,,,,,,,,,,SPECI,330.0
K0A9 021935Z AUTO 35011G16KT 8SM CLR 29/08 A2993 RMK AO2,K0A9,2023-06-02T19:35:00Z,36.37,-82.17,29.0,8.0,350,11,16,8.0,29.929134,,,TRUE,TRUE,,,,,,,CLR,,,,,,,,VFR,,,,,,,,,,,,METAR,479.0
K0A0 021935Z AUTO VRB06KT 10SM CLR 26/M07 A2994 RMK AO2,K0A0,2023-06-02T19:35:00Z,32.98,-106.97,26.0,-7.0,0,6,,10.0,29.940945,,,TRUE,TRUE,,,,,,,CLR,,,,,,,,VFR,,,,,,,,,,,,METAR,1401.0
K06C 021935Z AUTO 09007KT 10SM CLR 32/14 A3004 RMK AO2 T03220140,K06C,2023-06-02T19:35:00Z,41.98,-88.1,32.2,14.0,90,7,,10.0,30.041338,,,TRUE,TRUE,,,,,,,CLR,,,,,,,,VFR,,,,,,,,,,,,SPECI,243.0
K04V 021935Z AUTO 32015KT 10SM 10/03 A3018 RMK AO2,K04V,2023-06-02T19:35:00Z,38.1,-106.17,10.0,3.0,320,15,,10.0,30.180119,,,TRUE,TRUE,,,,,,,,,,,,,,,,,,,,,,,,,,,METAR,2389.0
CYHK 021935Z 26019G25KT 1/2SM FG VV002 01/01 A2998 RMK FG8 VIS VRB 1/4- 3 /4 SLP158,CYHK,2023-06-02T19:35:00Z,68.62,-95.85,1.0,1.0,260,19,25,0.5,29.97933,1015.8,,,,,,,,,FG,OVX,0,,,,,,,LIFR,,,,,,,,,,,200,SPECI,36.0
KMNE 021934Z AUTO 14004KT 10SM SCT050 SCT070 BKN100 31/19 A2991 RMK AO2,KMNE,2023-06-02T19:34:00Z,32.65,-93.3,31.0,19.0,140,4,,10.0,29.911417,,,TRUE,TRUE,,,,,,,SCT,5000,SCT,7000,BKN,10000,,,VFR,,,,,,,,,,,,METAR,84.0
VOTV 021932Z 36004KT 3000 BR FEW015 FEW025CB SCT080 31/25 Q1010 NOSIG,VOTV,2023-06-02T19:32:00Z,8.48,76.92,31.0,25.0,360,4,,1.86,29.822834,,,,,,TRUE,,,,BR,FEW,1500,FEW,2500,SCT,8000,,,IFR,,,,,,,,,,,,METAR,9.0
ZYTX 021930Z 21001MPS CAVOK 14/11 Q1007 NOSIG,ZYTX,2023-06-02T19:30:00Z,41.63,123.48,14.0,11.0,210,2,,6.21,29.734253,,,,,,TRUE,,,,,CAVOK,,,,,,,,VFR,,,,,,,,,,,,METAR,56.0
ZYTL 021930Z 27004MPS CAVOK 17/07 Q1010 NOSIG,ZYTL,2023-06-02T19:30:00Z,38.97,121.55,17.0,7.0,270,8,,6.21,29.822834,,,,,,TRUE,,,,,CAVOK,,,,,,,,VFR,,,,,,,,,,,,METAR,33.0
ZWWW 021930Z 12001MPS CAVOK 18/01 Q1019 NOSIG,ZWWW,2023-06-02T19:30:00Z,43.9,87.47,18.0,1.0,120,2,,6.21,30.088583,,,,,,TRUE,,,,,CAVOK,,,,,,,,VFR,,,,,,,,,,,,METAR,654.0
ZSSS 021930Z 01003MPS CAVOK 24/20 Q1009 NOSIG,ZSSS,2023-06-02T19:30:00Z,31.2,121.33,24.0,20.0,10,6,,6.21,29.793306,,,,,,TRUE,,,,,CAVOK,,,,,,,,VFR,,,,,,,,,,,,METAR,2.0
ZSPD 021930Z 02005MPS 5000 BR BKN009 22/20 Q1010 NOSIG,ZSPD,2023-06-02T19:30:00Z,31.15,121.8,22.0,20.0,20,10,,3.11,29.822834,,,,,,TRUE,,,,BR,BKN,900,,,,,,,IFR,,,,,,,,,,,,METAR,4.0
ZSHC 021930Z VRB01MPS CAVOK 27/19 Q1008 NOSIG,ZSHC,2023-06-02T19:30:00Z,30.22,120.43,27.0,19.0,0,2,,6.21,29.763779,,,,,,TRUE,,,,,CAVOK,,,,,,,,VFR,,,,,,,,,,,,METAR,8.0
ZGGG 021930Z VRB01MPS 9999 BKN033 31/26 Q1006 NOSIG,ZGGG,2023-06-02T19:30:00Z,23.4,113.3,31.0,26.0,0,2,,6.21,29.704725,,,,,,TRUE,,,,,BKN,3300,,,,,,,VFR,,,,,,,,,,,,METAR,11.0
ZBYN 021930Z 11002MPS CAVOK 14/11 Q1016 NOSIG,ZBYN,2023-06-02T19:30:00Z,37.73,112.63,14.0,11.0,110,4,,6.21,30.0,,,,,,TRUE,,,,,CAVOK,,,,,,,,VFR,,,,,,,,,,,,METAR,778.0
ZBTJ 021930Z 24002MPS CAVOK 21/10 Q1010 NOSIG,ZBTJ,2023-06-02T19:30:00Z,39.12,117.35,21.0,10.0,240,4,,6.21,29.822834,,,,,,TRUE,,,,,CAVOK,,,,,,,,VFR,,,,,,,,,,,,METAR,4.0
ZBAD 021930Z 27002MPS CAVOK 20/10 Q1010 NOSIG,ZBAD,2023-06-02T19:30:00Z,39.5,116.42,20.0,10.0,270,4,,6.21,29.822834,,,,,,TRUE,,,,,CAVOK,,,,,,,,VFR,,,,,,,,,,,,METAR,25.0
ZBAA 021930Z VRB01MPS CAVOK 15/10 Q1010 NOSIG,ZBAA,2023-06-02T19:30:00Z,40.07,116.6,15.0,10.0,0,2,,6.21,29.822834,,,,,,TRUE,,,,,CAVOK,,,,,,,,VFR,,,,,,,,,,,,METAR,31.0
YWLM 021930Z AUTO 31006KT 0350 FG OVC002 14/13 Q1023 RF00.0////./,YWLM,2023-06-02T19:30:00Z,-32.8,151.83,14.0,13.0,310,6,,0.22,30.206694,,,TRUE,,,,,,,FG,OVC,200,,,,,,,LIFR,,,,,,,,,,,,SPECI,7.0
YSTW 021930Z AUTO 14005KT 9999 // NCD 08/07 Q1025 RF00.0/000.0,YSTW,2023-06-02T19:30:00Z,-31.08,150.85,8.0,7.0,140,5,,6.21,30.265747,,,TRUE,,,,,,,,CLR,,,,,,,,VFR,,,,,,,,,,,,SPECI,404.0
YSSY 021930Z 32005KT 9000 FEW005 SCT170 BKN240 15/14 Q1023 RF00.0/000.0 BR,YSSY,2023-06-02T19:30:00Z,-33.95,151.17,15.0,14.0,320,5,,5.59,30.206694,,,,,,,,,,BR,FEW,500,SCT,17000,BKN,24000,,,VFR,,,,,,,,,,,,SPECI,3.0
YSRI 021930Z AUTO 00000KT 9000 // OVC005 12/12 Q1023 RF00/0/000/0,YSRI,2023-06-02T19:30:00Z,-33.6,150.77,12.0,12.0,0,0,,5.59,30.206694,,,TRUE,,,,,,,,OVC,500,,,,,,,IFR,,,,,,,,,,,,SPECI,19.0
YSDU 021930Z AUTO 15007KT 9999 // NCD 11/09 Q1024 RF00.0/000.0,YSDU,2023-06-02T19:30:00Z,-32.22,148.57,11.0,9.0,150,7,,6.21,30.236221,,,TRUE,,,,,,,,CLR,,,,,,,,VFR,,,,,,,,,,,,SPECI,285.0
YSCB 021930Z AUTO 11001KT 9999 // NCD 09/08 Q1024 RF00.0/000.0,YSCB,2023-06-02T19:30:00Z,-35.3,149.18,9.0,8.0,110,1,,6.21,30.236221,,,TRUE,,,,,,,,CLR,,,,,,,,VFR,,,,,,,,,,,,SPECI,577.0
YPXM 021930Z AUTO 13009KT 9999 // OVC010 25/23 Q1014 RF00/0/000/0,YPXM,2023-06-02T19:30:00Z,-10.45,105.68,25.0,23.0,130,9,,6.21,29.940945,,,TRUE,,,,,,,,OVC,1000,,,,,,,MVFR,,,,,,,,,,,,SPECI,262.0
YPWR 021930Z AUTO 05005KT 9999 // BKN120 13/M02 Q1016 RF00.0////./,YPWR,2023-06-02T19:30:00Z,-31.15,136.82,13.0,-2.0,50,5,,6.21,30.0,,,TRUE,,,,,,,,BKN,12000,,,,,,,VFR,,,,,,,,,,,,METAR,169.0
YPTN 021930Z AUTO 00000KT 9999 // NCD 15/12 Q1015 RF00.0/000.0,YPTN,2023-06-02T19:30:00Z,-14.52,132.38,15.0,12.0,0,0,,6.21,29.970472,,,TRUE,,,,,,,,CLR,,,,,,,,VFR,,,,,,,,,,,,SPECI,135.0
YPPH 021930Z 31004KT CAVOK 05/05 Q1025,YPPH,2023-06-02T19:30:00Z,-31.93,115.98,5.0,5.0,310,4,,6.21,30.265747,,,,,,,,,,,CAVOK,,,,,,,,VFR,,,,,,,,,,,,METAR,16.0
YPPD 021930Z AUTO 20006KT 9999 // NCD 16/14 Q1014 RF00.0/000.0,YPPD,2023-06-02T19:30:00Z,-20.37,118.62,16.0,14.0,200,6,,6.21,29.940945,,,TRUE,,,,,,,,CLR,,,,,,,,VFR,,,,,,,,,,,,SPECI,6.0
YPLM 021930Z AUTO 21008KT 9999 // NCD 11/04 Q1017 RF00.0/000.0,YPLM,2023-06-02T19:30:00Z,-22.23,114.08,11.0,4.0,210,8,,6.21,30.029528,,,TRUE,,,,,,,,CLR,,,,,,,,VFR,,,,,,,,,,,,SPECI,5.0
YPKU 021930Z AUTO 01002KT 9999 // NCD 14/13 Q1014 RF00.0/000.0,YPKU,2023-06-02T19:30:00Z,-15.77,128.7,14.0,13.0,10,2,,6.21,29.940945,,,TRUE,,,,,,,,CLR,,,,,,,,VFR,,,,,,,,,,,,SPECI,42.0
YPKG 021930Z AUTO 18009KT 9999 // OVC018 10/07 Q1022 RF00.0/000.2,YPKG,2023-06-02T19:30:00Z,-30.78,121.45,10.0,7.0,180,9,,6.21,30.177166,,,TRUE,,,,,,,,OVC,1800,,,,,,,MVFR,,,,,,,,,,,,SPECI,372.0
YPJT 021930Z AUTO 11009KT 9999 // NCD 07/06 Q1025 RF00.0/000.0,YPJT,2023-06-02T19:30:00Z,-32.1,115.88,7.0,6.0,110,9,,6.21,30.265747,,,TRUE,,,,,,,,CLR,,,,,,,,VFR,,,,,,,,,,,,METAR,29.0
YPGV 021930Z AUTO 00000KT 9999 // NCD 21/20 Q1014 RF00.0/000.0,YPGV,2023-06-02T19:30:00Z,-12.27,136.82,21.0,20.0,0,0,,6.21,29.940945,,,TRUE,,,,,,,,CLR,,,,,,,,VFR,,,,,,,,,,,,SPECI,53.0
YPEA 021930Z AUTO 03004KT 9999 // NCD 07/06 Q1025 RF00.0/000.2,YPEA,2023-06-02T19:30:00Z,-31.67,116.02,7.0,6.0,30,4,,6.21,30.265747,,,TRUE,,,,,,,,CLR,,,,,,,,VFR,,,,,,,,,,,,SPECI,38.0
YPDN 021930Z AUTO 08003KT 9999 // NCD 22/21 Q1014 RF00.0/000.0,YPDN,2023-06-02T19:30:00Z,-12.42,130.9,22.0,21.0,80,3,,6.21,29.940945,,,TRUE,,,,,,,,CLR,,,,,,,,VFR,,,,,,,,,,,,SPECI,32.0
YPCC 021930Z AUTO 14013KT 9999 // SCT022 SCT030 BKN036 27/24 Q1013,YPCC,2023-06-02T19:30:00Z,-12.18,96.83,27.0,24.0,140,13,,6.21,29.911417,,,TRUE,,,,,,,,SCT,2200,SCT,3000,BKN,3600,,,VFR,,,,,,,,,,,,SPECI,3.0
YPAD 021930Z AUTO 04007KT 9999 // BKN115 17/09 Q1017 RF00.0/000.0,YPAD,2023-06-02T19:30:00Z,-34.95,138.52,17.0,9.0,40,7,,6.21,30.029528,,,TRUE,,,,,,,,BKN,11500,,,,,,,VFR,,,,,,,,,,,,SPECI,2.0
YMML 021930Z 29005KT 190V340 9999 -RA NSC 10/09 Q1024 RF00.0/000.6 BKN055 BKN090,YMML,2023-06-02T19:30:00Z,-37.67,144.82,10.0,9.0,290,5,,6.21,30.236221,,,,,,,,,,-RA,BKN,5500,BKN,9000,,,,,VFR,,,,,,,,,,,,SPECI,115.0
YMLT 021930Z AUTO 33007KT 9999 // NCD 06/04 Q1021 RF00.0/000.2,YMLT,2023-06-02T19:30:00Z,-41.53,147.2,6.0,4.0,330,7,,6.21,30.147638,,,TRUE,,,,,,,,CLR,,,,,,,,VFR,,,,,,,,,,,,SPECI,167.0
YMHB 021930Z AUTO 34009KT 9999 // NCD 10/04 Q1019 RF00.0/000.0,YMHB,2023-06-02T19:30:00Z,-42.83,147.52,10.0,4.0,340,9,,6.21,30.088583,,,TRUE,,,,,,,,CLR,,,,,,,,VFR,,,,,,,,,,,,SPECI,2.0
YMAV 021930Z AUTO 20004KT 9999 -SHRA SCT029 SCT038 SCT048 09/09 Q1024,YMAV,2023-06-02T19:30:00Z,-38.03,144.48,9.0,9.0,200,4,,6.21,30.236221,,,TRUE,,,,,,,-SHRA,SCT,2900,SCT,3800,SCT,4800,,,VFR,,,,,,,,,,,,METAR,11.0
YLHI 021930Z AUTO 14004KT 9999 // NCD 16/10 Q1027 RF00.0/000.0,YLHI,2023-06-02T19:30:00Z,-31.53,159.07,16.0,10.0,140,4,,6.21,30.324802,,,TRUE,,,,,,,,CLR,,,,,,,,VFR,,,,,,,,,,,,METAR,2.0
YHID 021930Z AUTO 14010KT 9999 // NCD 26/22 Q1013 RF00.0/000.0,YHID,2023-06-02T19:30:00Z,-10.58,142.3,26.0,22.0,140,10,,6.21,29.911417,,,TRUE,,,,,,,,CLR,,,,,,,,VFR,,,,,,,,,,,,METAR,5.0
YGLA 021930Z AUTO 16005KT 9999 // OVC060 20/15 Q1021 RF00.0/000.0,YGLA,2023-06-02T19:30:00Z,-23.87,151.22,20.0,15.0,160,5,,6.21,30.147638,,,TRUE,,,,,,,,OVC,6000,,,,,,,VFR,,,,,,,,,,,,METAR,17.0
YGEL 021930Z AUTO 15004KT 9999 // NCD 07/05 Q1023 RF00.0/000.0,YGEL,2023-06-02T19:30:00Z,-28.8,114.7,7.0,5.0,150,4,,6.21,30.206694,,,TRUE,,,,,,,,CLR,,,,,,,,VFR,,,,,,,,,,,,METAR,32.0
YCIN 021930Z AUTO 20004KT 9999 // NCD 15/12 Q1013 RF00.0/000.0,YCIN,2023-06-02T19:30:00Z,-17.58,123.83,15.0,12.0,200,4,,6.21,29.911417,,,TRUE,,,,,,,,CLR,,,,,,,,VFR,,,,,,,,,,,,SPECI,83.0
YBWW 021930Z AUTO 13004KT 9999 // ////// 12/11 Q1024 RF00.0/000.0,YBWW,2023-06-02T19:30:00Z,-27.55,151.8,12.0,11.0,130,4,,6.21,30.236221,,,TRUE,,,,,,,,,,,,,,,,,,,,,,,,,,,,METAR,460.0
YBTL 021930Z AUTO 12005KT 9999 // SCT062 20/17 Q1018 RF00.0/000.0,YBTL,2023-06-02T19:30:00Z,-19.25,146.75,20.0,17.0,120,5,,6.21,30.059055,,,TRUE,,,,,,,,SCT,6200,,,,,,,VFR,,,,,,,,,,,,SPECI,4.0
YBSU 021930Z AUTO 25004KT 9999 // NCD 13/12 Q1023 RF00.2/000.2,YBSU,2023-06-02T19:30:00Z,-26.6,153.08,13.0,12.0,250,4,,6.21,30.206694,,,TRUE,,,,,,,,CLR,,,,,,,,VFR,,,,,,,,,,,,METAR,4.0
YBRM 021930Z AUTO 00000KT 9999 // NCD 15/15 Q1014 RF00.0/000.0,YBRM,2023-06-02T19:30:00Z,-17.93,122.23,15.0,15.0,0,0,,6.21,29.940945,,,TRUE,,,,,,,,CLR,,,,,,,,VFR,,,,,,,,,,,,SPECI,11.0
YBRK 021930Z AUTO 12005KT 9999 // BKN061 17/15 Q1021 RF00.0/000.0,YBRK,2023-06-02T19:30:00Z,-23.37,150.47,17.0,15.0,120,5,,6.21,30.147638,,,TRUE,,,,,,,,BKN,6100,,,,,,,VFR,,,,,,,,,,,,SPECI,10.0
YBMA 021930Z AUTO 10004KT 9999 // NCD 11/08 Q1017 RF00.0/000.0,YBMA,2023-06-02T19:30:00Z,-20.67,139.48,11.0,8.0,100,4,,6.21,30.029528,,,TRUE,,,,,,,,CLR,,,,,,,,VFR,,,,,,,,,,,,SPECI,346.0
YBLN 021930Z AUTO 16004KT 9999 // NCD 03/03 Q1025 RF00.0/000.0,YBLN,2023-06-02T19:30:00Z,-33.68,115.4,3.0,3.0,160,4,,6.21,30.265747,,,TRUE,,,,,,,,CLR,,,,,,,,VFR,,,,,,,,,,,,METAR,17.0
YBHM 021930Z AUTO 16013KT 9999 // SCT021 SCT027 BKN033 21/20 Q1018,YBHM,2023-06-02T19:30:00Z,-20.35,148.95,21.0,20.0,160,13,,6.21,30.059055,,,TRUE,,,,,,,,SCT,2100,SCT,2700,BKN,3300,,,VFR,,,,,,,,,,,,SPECI,4.0
YBCS 021930Z AUTO 18012KT 9999 // BKN055 BKN065 22/19 Q1016,YBCS,2023-06-02T19:30:00Z,-16.87,145.75,22.0,19.0,180,12,,6.21,30.0,,,TRUE,,,,,,,,BKN,5500,BKN,6500,,,,,VFR,,,,,,,,,,,,SPECI,2.0
YBCG 021930Z AUTO 00000KT 9999 // OVC046 15/14 Q1024 RF00.0/000.0,YBCG,2023-06-02T19:30:00Z,-28.17,153.5,15.0,14.0,0,0,,6.21,30.236221,,,TRUE,,,,,,,,OVC,4600,,,,,,,VFR,,,,,,,,,,,,SPECI,5.0
YBBN 021930Z 21008KT 9999 FEW022 14/12 Q1024,YBBN,2023-06-02T19:30:00Z,-27.38,153.13,14.0,12.0,210,8,,6.21,30.236221,,,,,,,,,,,FEW,2200,,,,,,,VFR,,,,,,,,,,,,METAR,3.0
YBAS 021930Z AUTO 00000KT 9999 // NCD 08/M00 Q1017 RF00.0/000.0,YBAS,2023-06-02T19:30:00Z,-23.8,133.9,8.0,0.0,0,0,,6.21,30.029528,,,TRUE,,,,,,,,CLR,,,,,,,,VFR,,,,,,,,,,,,SPECI,549.0
WSSS 021930Z 12004KT 9999 FEW014 BKN300 29/26 Q1009 NOSIG,WSSS,2023-06-02T19:30:00Z,1.37,103.97,29.0,26.0,120,4,,6.21,29.793306,,,,,,TRUE,,,,,FEW,1400,BKN,30000,,,,,VFR,,,,,,,,,,,,METAR,17.0
WMKP 021930Z 00000KT 9000 FEW025 29/25 Q1008 NOSIG,WMKP,2023-06-02T19:30:00Z,5.28,100.27,29.0,25.0,0,0,,5.59,29.763779,,,,,,TRUE,,,,,FEW,2500,,,,,,,VFR,,,,,,,,,,,,METAR,4.0
WMKK 021930Z 00000KT 9999 FEW010 FEW017CB 26/24 Q1009 NOSIG,WMKK,2023-06-02T19:30:00Z,2.75,101.72,26.0,24.0,0,0,,6.21,29.793306,,,,,,TRUE,,,,,FEW,1000,FEW,1700,,,,,VFR,,,,,,,,,,,,METAR,21.0
WIPP 021930Z AUTO 13002KT 7000NDV FEW070 26/26 Q1010,WIPP,2023-06-02T19:30:00Z,-2.88,104.7,26.0,26.0,130,2,,,29.822834,,,TRUE,,,,,,,,FEW,7000,,,,,,,,,,,,,,,,,,,METAR,7.0
WIOO 021930Z AUTO 03001KT 3900 BR FEW075 OVC120 26/26 Q1008,WIOO,2023-06-02T19:30:00Z,-0.15,109.4,26.0,26.0,30,1,,2.42,29.763779,,,TRUE,,,,,,,BR,FEW,7500,OVC,12000,,,,,IFR,,,,,,,,,,,,METAR,4.0
WIII 021930Z VRB04KT 5000 BKN020 28/26 Q1010 NOSIG,WIII,2023-06-02T19:30:00Z,-6.13,106.67,28.0,26.0,0,4,,3.11,29.822834,,,,,,TRUE,,,,,BKN,2000,,,,,,,MVFR,,,,,,,,,,,,METAR,9.0
WIDD 021930Z 00000KT 9999 FEW014 27/26 Q1011 NOSIG,WIDD,2023-06-02T19:30:00Z,1.12,104.12,27.0,26.0,0,0,,6.21,29.852362,,,,,,TRUE,,,,,FEW,1400,,,,,,,VFR,,,,,,,,,,,,METAR,26.0
WBSB 021930Z 13001KT 9999 FEW015 SCT140 BKN280 28/27 Q1009 NOSIG,WBSB,2023-06-02T19:30:00Z,4.93,114.92,28.0,27.0,130,1,,6.21,29.793306,,,,,,TRUE,,,,,FEW,1500,SCT,14000,BKN,28000,,,VFR,,,,,,,,,,,,METAR,15.0
WBKK 021930Z 12005KT 9999 FEW015 27/24 Q1009 NOSIG,WBKK,2023-06-02T19:30:00Z,5.93,116.05,27.0,24.0,120,5,,6.21,29.793306,,,,,,TRUE,,,,,FEW,1500,,,,,,,VFR,,,,,,,,,,,,METAR,9.0
WBGG 021930Z VRB01KT 9999 FEW020 26/25 Q1009 NOSIG,WBGG,2023-06-02T19:30:00Z,1.48,110.35,26.0,25.0,0,1,,6.21,29.793306,,,,,,TRUE,,,,,FEW,2000,,,,,,,VFR,,,,,,,,,,,,METAR,26.0
WAPP 021930Z 36003KT 8000 -TSRA FEW015CB SCT016 28/25 Q1010 NOSIG RMK CB TO S,WAPP,2023-06-02T19:30:00Z,-3.7,128.08,28.0,25.0,360,3,,4.97,29.822834,,,,,,TRUE,,,,-TSRA,FEW,1500,SCT,1600,,,,,MVFR,,,,,,,,,,,,METAR,20.0
WAOO 021930Z AUTO 33003KT 9999 NCD 25/25 Q1009 NOSIG,WAOO,2023-06-02T19:30:00Z,-3.45,114.77,25.0,25.0,330,3,,6.21,29.793306,,,TRUE,,,TRUE,,,,,CLR,,,,,,,,VFR,,,,,,,,,,,,METAR,23.0
WAMM 021930Z VRB01KT 9999 FEW019 23/22 Q1010 NOSIG,WAMM,2023-06-02T19:30:00Z,1.55,124.92,23.0,22.0,0,1,,6.21,29.822834,,,,,,TRUE,,,,,FEW,1900,,,,,,,VFR,,,,,,,,,,,,METAR,86.0
WALL 021930Z 16002KT 9000 SCT018 28/26 Q1009 NOSIG,WALL,2023-06-02T19:30:00Z,-1.27,116.9,28.0,26.0,160,2,,5.59,29.793306,,,,,,TRUE,,,,,SCT,1800,,,,,,,VFR,,,,,,,,,,,,METAR,3.0
WAJJ 021930Z 01002KT 9999 FEW012 25/22 Q1009 NOSIG,WAJJ,2023-06-02T19:30:00Z,-2.58,140.52,25.0,22.0,10,2,,6.21,29.793306,,,,,,TRUE,,,,,FEW,1200,,,,,,,VFR,,,,,,,,,,,,METAR,93.0
WAHS 021930Z AUTO VRB01KT 6000 FEW029 SCT038 BKN044 27/24 Q1010,WAHS,2023-06-02T19:30:00Z,-6.98,110.38,27.0,24.0,0,1,,3.73,29.822834,,,TRUE,,,,,,,,FEW,2900,SCT,3800,BKN,4400,,,MVFR,,,,,,,,,,,,METAR,3.0
WADL 021930Z 13003KT 7000 SCT016 23/22 Q1012 NOSIG,WADL,2023-06-02T19:30:00Z,-8.75,116.28,23.0,22.0,130,3,,4.35,29.88189,,,,,,TRUE,,,,,SCT,1600,,,,,,,MVFR,,,,,,,,,,,,METAR,97.0
WADD 021930Z 10005KT 9999 SCT016 26/23 Q1012 NOSIG,WADD,2023-06-02T19:30:00Z,-8.73,115.17,26.0,23.0,100,5,,6.21,29.88189,,,,,,TRUE,,,,,SCT,1600,,,,,,,VFR,,,,,,,,,,,,METAR,3.0
WABB 021930Z VRB02KT 9999 FEW018 24/24 Q1009 NOSIG,WABB,2023-06-02T19:30:00Z,-1.18,136.12,24.0,24.0,0,2,,6.21,29.793306,,,,,,TRUE,,,,,FEW,1800,,,,,,,VFR,,,,,,,,,,,,METAR,12.0
WAAA 021930Z 16002KT 8000 FEW019 25/23 Q1009 NOSIG,WAAA,2023-06-02T19:30:00Z,-5.07,119.55,25.0,23.0,160,2,,4.97,29.793306,,,,,,TRUE,,,,,FEW,1900,,,,,,,MVFR,,,,,,,,,,,,METAR,13.0
VYYY 021930Z 21004KT 6000 SCT018 FEW020CB SCT100 27/26 Q1007 NOSIG,VYYY,2023-06-02T19:30:00Z,16.9,96.13,27.0,26.0,210,4,,3.73,29.734253,,,,,,TRUE,,,,,SCT,1800,FEW,2000,SCT,10000,,,MVFR,,,,,,,,,,,,METAR,31.0
VVVD 021930Z AUTO 20003KT 9999 NCD 28/28 Q1005 NOSIG,VVVD,2023-06-02T19:30:00Z,21.12,107.42,28.0,28.0,200,3,,6.21,29.675198,,,TRUE,,,TRUE,,,,,CLR,,,,,,,,VFR,,,,,,,,,,,,METAR,8.0
VVTS 021930Z 23008KT 9999 FEW015 SCT050 28/28 Q1008 NOSIG,VVTS,2023-06-02T19:30:00Z,10.82,106.67,28.0,28.0,230,8,,6.21,29.763779,,,,,,TRUE,,,,,FEW,1500,SCT,5000,,,,,VFR,,,,,,,,,,,,METAR,10.0
VVPQ 021930Z 22008KT 9999 SCT015 29/26 Q1007 NOSIG,VVPQ,2023-06-02T19:30:00Z,10.23,103.97,29.0,26.0,220,8,,6.21,29.734253,,,,,,TRUE,,,,,SCT,1500,,,,,,,VFR,,,,,,,,,,,,METAR,8.0
VVPB 021930Z 24004KT 9999 FEW025 SCT070 27/24 Q1005 NOSIG,VVPB,2023-06-02T19:30:00Z,16.38,107.7,27.0,24.0,240,4,,6.21,29.675198,,,,,,TRUE,,,,,FEW,2500,SCT,7000,,,,,VFR,,,,,,,,,,,,METAR,15.0
VVNB 021930Z 32006KT CAVOK 27/23 Q1004 NOSIG,VVNB,2023-06-02T19:30:00Z,21.22,105.8,27.0,23.0,320,6,,6.21,29.64567,,,,,,TRUE,,,,,CAVOK,,,,,,,,VFR,,,,,,,,,,,,METAR,6.0
VVDN 021930Z 20003KT CAVOK 27/23 Q1005 NOSIG,VVDN,2023-06-02T19:30:00Z,16.03,108.2,27.0,23.0,200,3,,6.21,29.675198,,,,,,TRUE,,,,,CAVOK,,,,,,,,VFR,,,,,,,,,,,,METAR,7.0
VVCT 021930Z 25003KT 9999 FEW015 SCT050 25/25 Q1007 NOSIG,VVCT,2023-06-02T19:30:00Z,10.08,105.72,25.0,25.0,250,3,,6.21,29.734253,,,,,,TRUE,,,,,FEW,1500,SCT,5000,,,,,VFR,,,,,,,,,,,,METAR,6.0
VVCR 021930Z 36002KT 9999 FEW015 29/25 Q1007 NOSIG,VVCR,2023-06-02T19:30:00Z,12.0,109.22,29.0,25.0,360,2,,6.21,29.734253,,,,,,TRUE,,,,,FEW,1500,,,,,,,VFR,,,,,,,,,,,,METAR,12.0
VVCI 021930Z 29004KT 250V310 9999 -RA FEW020 SCT034 BKN047 26/24 Q1004 TEMPO 4000 RA,VVCI,2023-06-02T19:30:00Z,20.82,106.73,26.0,24.0,290,4,,6.21,29.64567,,,,,,,,,,-RA,FEW,2000,SCT,3400,BKN,4700,,,VFR,,,,,,,,,,,,METAR,6.0
VTSS 021930Z 11002KT 9999 FEW020 27/25 Q1009 NOSIG,VTSS,2023-06-02T19:30:00Z,6.92,100.38,27.0,25.0,110,2,,6.21,29.793306,,,,,,TRUE,,,,,FEW,2000,,,,,,,VFR,,,,,,,,,,,,METAR,28.0
VTSP 021930Z 28008KT 9999 FEW020 28/25 Q1008 NOSIG,VTSP,2023-06-02T19:30:00Z,8.12,98.32,28.0,25.0,280,8,,6.21,29.763779,,,,,,TRUE,,,,,FEW,2000,,,,,,,VFR,,,,,,,,,,,,METAR,12.0
VTCC 021930Z 28004KT 9999 SCT035 27/22 Q1007 NOSIG,VTCC,2023-06-02T19:30:00Z,18.77,98.97,27.0,22.0,280,4,,6.21,29.734253,,,,,,TRUE,,,,,SCT,3500,,,,,,,VFR,,,,,,,,,,,,METAR,308.0
VTBU 021930Z 27004KT 9999 FEW020 29/25 Q1007 NOSIG,VTBU,2023-06-02T19:30:00Z,12.68,101.0,29.0,25.0,270,4,,6.21,29.734253,,,,,,TRUE,,,,,FEW,2000,,,,,,,VFR,,,,,,,,,,,,METAR,12.0
VTBS 021930Z 26005KT 240V300 9999 FEW020CB 30/24 Q1006 NOSIG,VTBS,2023-06-02T19:30:00Z,13.68,100.75,30.0,24.0,260,5,,6.21,29.704725,,,,,,TRUE,,,,,FEW,2000,,,,,,,VFR,,,,,,,,,,,,METAR,1.0
VTBD 021930Z 26009KT 9999 FEW020 30/23 Q1006 NOSIG,VTBD,2023-06-02T19:30:00Z,13.92,100.6,30.0,23.0,260,9,,6.21,29.704725,,,,,,TRUE,,,,,FEW,2000,,,,,,,VFR,,,,,,,,,,,,METAR,6.0
VOTR 021930Z 23003KT 4000 HZ FEW016 30/24 Q1008 NOSIG,VOTR,2023-06-02T19:30:00Z,10.77,78.72,30.0,24.0,230,3,,2.49,29.763779,,,,,,TRUE,,,,HZ,FEW,1600,,,,,,,IFR,,,,,,,,,,,,METAR,90.0
VOMM 021930Z 26006KT 5000 HZ SCT020 31/24 Q1005 NOSIG,VOMM,2023-06-02T19:30:00Z,13.0,80.17,31.0,24.0,260,6,,3.11,29.675198,,,,,,TRUE,,,,HZ,SCT,2000,,,,,,,MVFR,,,,,,,,,,,,METAR,7.0
VOML 021930Z 00000KT 6000 FEW012 29/25 Q1010 NOSIG,VOML,2023-06-02T19:30:00Z,12.97,74.88,29.0,25.0,0,0,,3.73,29.822834,,,,,,TRUE,,,,,FEW,1200,,,,,,,MVFR,,,,,,,,,,,,METAR,100.0
VOKN 021930Z 01002KT 4000 BR SCT012 SCT080 29/27 Q1009 NOSIG,VOKN,2023-06-02T19:30:00Z,11.92,75.55,29.0,27.0,10,2,,2.49,29.793306,,,,,,TRUE,,,,BR,SCT,1200,SCT,8000,,,,,IFR,,,,,,,,,,,,METAR,105.0
VOHS 021930Z 23006KT 6000 SCT020 32/14 Q1010 NOSIG,VOHS,2023-06-02T19:30:00Z,17.23,78.43,32.0,14.0,230,6,,3.73,29.822834,,,,,,TRUE,,,,,SCT,2000,,,,,,,MVFR,,,,,,,,,,,,METAR,607.0
VOCL 021930Z 03003KT 5000 BR SCT010 SCT080 26/23 Q1009 NOSIG,VOCL,2023-06-02T19:30:00Z,11.13,75.95,26.0,23.0,30,3,,3.11,29.793306,,,,,,TRUE,,,,BR,SCT,1000,SCT,8000,,,,,MVFR,,,,,,,,,,,,METAR,104.0
VOCI 021930Z 14002KT 3000 BR FEW015 FEW025CB SCT080 27/26 Q1010 NOSIG,VOCI,2023-06-02T19:30:00Z,10.15,76.4,27.0,26.0,140,2,,1.86,29.822834,,,,,,TRUE,,,,BR,FEW,1500,FEW,2500,SCT,8000,,,IFR,,,,,,,,,,,,METAR,8.0
VOBL 021930Z 25004KT 6000 FEW015 24/20 Q1014 NOSIG,VOBL,2023-06-02T19:30:00Z,13.2,77.7,24.0,20.0,250,4,,3.73,29.940945,,,,,,TRUE,,,,,FEW,1500,,,,,,,MVFR,,,,,,,,,,,,METAR,908.0
VMMC 021930Z VRB02KT 9999 FEW018 29/26 Q1006 NOSIG,VMMC,2023-06-02T19:30:00Z,22.15,113.58,29.0,26.0,0,2,,6.21,29.704725,,,,,,TRUE,,,,,FEW,1800,,,,,,,VFR,,,,,,,,,,,,METAR,1.0
VILK 021930Z VRB02KT 4000 HZ NSC 29/21 Q1004 NOSIG,VILK,2023-06-02T19:30:00Z,26.75,80.88,29.0,21.0,0,2,,2.49,29.64567,,,,,,TRUE,,,,HZ,CLR,,,,,,,,IFR,,,,,,,,,,,,METAR,121.0
VIJP 021930Z VRB02KT 4000 HZ SCT100 29/22 Q1007 NOSIG,VIJP,2023-06-02T19:30:00Z,26.82,75.8,29.0,22.0,0,2,,2.49,29.734253,,,,,,TRUE,,,,HZ,SCT,10000,,,,,,,IFR,,,,,,,,,,,,METAR,383.0
VIDP 021930Z 00000KT 3500 HZ NSC 27/18 Q1006 NOSIG,VIDP,2023-06-02T19:30:00Z,28.57,77.12,27.0,18.0,0,0,,2.17,29.704725,,,,,,TRUE,,,,HZ,CLR,,,,,,,,IFR,,,,,,,,,,,,METAR,236.0
VIAR 021930Z 00000KT 4500 BR NSC 24/21 Q1007 NOSIG,VIAR,2023-06-02T19:30:00Z,31.7,74.8,24.0,21.0,0,0,,2.8,29.734253,,,,,,TRUE,,,,BR,CLR,,,,,,,,IFR,,,,,,,,,,,,METAR,226.0
VHHH 021930Z VRB01KT 9999 FEW020 29/25 Q1007 NOSIG,VHHH,2023-06-02T19:30:00Z,22.32,113.92,29.0,25.0,0,1,,6.21,29.734253,,,,,,TRUE,,,,,FEW,2000,,,,,,,VFR,,,,,,,,,,,,METAR,9.0
VGHS 021930Z 18008KT 4000 HZ SCT100 30/23 Q1004 NOSIG,VGHS,2023-06-02T19:30:00Z,23.85,90.4,30.0,23.0,180,8,,2.49,29.64567,,,,,,TRUE,,,,HZ,SCT,10000,,,,,,,IFR,,,,,,,,,,,,METAR,11.0
VEGT 021930Z 00000KT 3000 BR SCT018 SCT100 27/24 Q1002 NOSIG,VEGT,2023-06-02T19:30:00Z,26.1,91.58,27.0,24.0,0,0,,1.86,29.586615,,,,,,TRUE,,,,BR,SCT,1800,SCT,10000,,,,,IFR,,,,,,,,,,,,METAR,50.0
VECC 021930Z 20008KT 3000 HZ FEW018 SCT100 30/28 Q1003 NOSIG,VECC,2023-06-02T19:30:00Z,22.65,88.43,30.0,28.0,200,8,,1.86,29.616142,,,,,,TRUE,,,,HZ,FEW,1800,SCT,10000,,,,,IFR,,,,,,,,,,,,METAR,11.0
VEBS 021930Z 16007KT 2500 BR FEW012 SCT018 29/29 Q1005 NOSIG,VEBS,2023-06-02T19:30:00Z,20.25,85.82,29.0,29.0,160,7,,1.55,29.675198,,,,,,TRUE,,,,BR,FEW,1200,SCT,1800,,,,,IFR,,,,,,,,,,,,METAR,42.0
VEBN 021930Z VRB02KT 3000 HZ NSC 30/20 Q1003 NOSIG,VEBN,2023-06-02T19:30:00Z,25.45,82.85,30.0,20.0,0,2,,1.86,29.616142,,,,,,TRUE,,,,HZ,CLR,,,,,,,,IFR,,,,,,,,,,,,METAR,81.0
VDSR 021930Z VRB02KT 9999 FEW017 28/24 Q1006,VDSR,2023-06-02T19:30:00Z,13.42,103.8,28.0,24.0,0,2,,6.21,29.704725,,,,,,,,,,,FEW,1700,,,,,,,VFR,,,,,,,,,,,,METAR,16.0
VDPP 021930Z 18004KT 9000 SCT015 28/26 Q1006,VDPP,2023-06-02T19:30:00Z,11.55,104.83,28.0,26.0,180,4,,5.59,29.704725,,,,,,,,,,,SCT,1500,,,,,,,VFR,,,,,,,,,,,,METAR,10.0
VANP 021930Z 22002KT 3000 HZ FEW100 29/15 Q1006 NOSIG,VANP,2023-06-02T19:30:00Z,21.08,79.05,29.0,15.0,220,2,,1.86,29.704725,,,,,,TRUE,,,,HZ,FEW,10000,,,,,,,IFR,,,,,,,,,,,,METAR,309.0
VABB 021930Z 26008KT 4000 HZ FEW020 SCT025 31/26 Q1009 NOSIG,VABB,2023-06-02T19:30:00Z,19.1,72.87,31.0,26.0,260,8,,2.49,29.793306,,,,,,TRUE,,,,HZ,FEW,2000,SCT,2500,,,,,IFR,,,,,,,,,,,,METAR,14.0
VAAH 021930Z 23003KT 4000 HZ FEW020 31/23 Q1005 NOSIG,VAAH,2023-06-02T19:30:00Z,23.07,72.63,31.0,23.0,230,3,,2.49,29.675198,,,,,,TRUE,,,,HZ,FEW,2000,,,,,,,IFR,,,,,,,,,,,,METAR,52.0
UWWW 021930Z 32004MPS 9999 SCT033 19/14 Q1006 R33/190055 NOSIG RMK QFE744/0992,UWWW,2023-06-02T19:30:00Z,53.5,50.17,19.0,14.0,320,8,,6.21,29.704725,,,,,,TRUE,,,,,SCT,3300,,,,,,,VFR,,,,,,,,,,,,SPECI,124.0
UWUU 021930Z 17004MPS 9999 SCT040 21/13 Q1007 R14R/0///60 NOSIG,UWUU,2023-06-02T19:30:00Z,54.57,55.87,21.0,13.0,170,8,,6.21,29.734253,,,,,,TRUE,,,,,SCT,4000,,,,,,,VFR,,,,,,,,,,,,SPECI,137.0
UWSG 021930Z 29003MPS CAVOK 12/11 Q1012 R26/CLRD70 NOSIG RMK QFE756/1008,UWSG,2023-06-02T19:30:00Z,51.72,46.17,12.0,11.0,290,6,,6.21,29.88189,,,,,,TRUE,,,,,CAVOK,,,,,,,,VFR,,,,,,,,,,,,METAR,31.0
UWPS 021930Z 23001MPS CAVOK 15/10 Q1011 R20/CLRD60 NOSIG RMK QFE741,UWPS,2023-06-02T19:30:00Z,54.12,45.2,15.0,10.0,230,2,,6.21,29.852362,,,,,,TRUE,,,,,CAVOK,,,,,,,,VFR,,,,,,,,,,,,METAR,206.0
UWOO 021930Z 15004MPS CAVOK 22/11 Q1010 R26/CLRD60 NOSIG RMK QFE747/0996,UWOO,2023-06-02T19:30:00Z,51.8,55.47,22.0,11.0,150,8,,6.21,29.822834,,,,,,TRUE,,,,,CAVOK,,,,,,,,VFR,,,,,,,,,,,,SPECI,90.0
UWLL 021930Z 34004MPS 9999 SCT040CB 17/12 Q1009 R02/090065 NOSIG RMK QFE745/0993,UWLL,2023-06-02T19:30:00Z,54.27,48.23,17.0,12.0,340,8,,6.21,29.793306,,,,,,TRUE,,,,,SCT,4000,,,,,,,VFR,,,,,,,,,,,,SPECI,119.0
UWKS 021930Z 30001MPS CAVOK 15/10 Q1011 R06/010060 NOSIG RMK QFE743,UWKS,2023-06-02T19:30:00Z,56.08,47.35,15.0,10.0,300,2,,6.21,29.852362,,,,,,TRUE,,,,,CAVOK,,,,,,,,VFR,,,,,,,,,,,,METAR,165.0
UWKE 021930Z 36006MPS 9999 SCT043CB 18/16 Q1006 R03/210360 NOSIG RMK QFE738/0984,UWKE,2023-06-02T19:30:00Z,55.57,52.08,18.0,16.0,360,12,,6.21,29.704725,,,,,,TRUE,,,,,SCT,4300,,,,,,,VFR,,,,,,,,,,,,SPECI,193.0
UWKD 021930Z 34004MPS CAVOK 15/09 Q1009 R29/CLRD70 NOSIG RMK QFE746/0994,UWKD,2023-06-02T19:30:00Z,55.62,49.28,15.0,9.0,340,8,,6.21,29.793306,,,,,,TRUE,,,,,CAVOK,,,,,,,,VFR,,,,,,,,,,,,SPECI,114.0
UWGG 021930Z 00000MPS CAVOK 14/11 Q1010 R18L/090070 NOSIG,UWGG,2023-06-02T19:30:00Z,56.23,43.78,14.0,11.0,0,0,,6.21,29.822834,,,,,,TRUE,,,,,CAVOK,,,,,,,,VFR,,,,,,,,,,,,SPECI,73.0
UUYY 021930Z 36001MPS 9999 FEW036CB 15/11 Q1013 R36/CLRD61 NOSIG RMK QFE750/1001,UUYY,2023-06-02T19:30:00Z,61.65,50.83,15.0,11.0,360,2,,6.21,29.911417,,,,,,TRUE,,,,,FEW,3600,,,,,,,VFR,,,,,,,,,,,,METAR,107.0
UUWW 021930Z VRB01MPS 9999 -SHRA BKN030CB 14/13 Q1008 R24/290050 NOSIG,UUWW,2023-06-02T19:30:00Z,55.6,37.27,14.0,13.0,0,2,,6.21,29.763779,,,,,,TRUE,,,,-SHRA,BKN,3000,,,,,,,MVFR,,,,,,,,,,,,SPECI,195.0
UUOO 021930Z 17002MPS CAVOK 18/08 Q1011 R30/010070 NOSIG RMK QFE745,UUOO,2023-06-02T19:30:00Z,51.82,39.23,18.0,8.0,170,4,,6.21,29.852362,,,,,,TRUE,,,,,CAVOK,,,,,,,,VFR,,,,,,,,,,,,METAR,154.0
UUOL 021930Z 19002MPS CAVOK 17/08 Q1011 R33/090060 NOSIG,UUOL,2023-06-02T19:30:00Z,52.7,39.53,17.0,8.0,190,4,,6.21,29.852362,,,,,,TRUE,,,,,CAVOK,,,,,,,,VFR,,,,,,,,,,,,METAR,176.0
UUOK 021930Z 17004MPS CAVOK 19/06 Q1009 R12/090060 NOSIG RMK QFE739/0986,UUOK,2023-06-02T19:30:00Z,51.75,36.28,19.0,6.0,170,8,,6.21,29.793306,,,,,,TRUE,,,,,CAVOK,,,,,,,,VFR,,,,,,,,,,,,METAR,203.0
UUOB 021930Z 22002MPS CAVOK 21/06 Q1011 R29/010070 NOSIG,UUOB,2023-06-02T19:30:00Z,50.65,36.58,21.0,6.0,220,4,,6.21,29.852362,,,,,,TRUE,,,,,CAVOK,,,,,,,,VFR,,,,,,,,,,,,METAR,218.0
UUMO 021930Z 16002MPS 070V180 8000 -RA NSC 14/14 Q1008 R25/290350 NOSIG RMK QFE741/0988,UUMO,2023-06-02T19:30:00Z,55.52,37.5,14.0,14.0,160,4,,4.97,29.763779,,,,,,TRUE,,,,-RA,CLR,,,,,,,,MVFR,,,,,,,,,,,,METAR,167.0
UUEE 021930Z 11002MPS 070V150 CAVOK 13/12 Q1008 R24L/290051 R24C/290051 NOSIG,UUEE,2023-06-02T19:30:00Z,55.97,37.42,13.0,12.0,110,4,,6.21,29.763779,,,,,,TRUE,,,,,CAVOK,,,,,,,,VFR,,,,,,,,,,,,SPECI,186.0
UUDL 021930Z 19003MPS 7000 -SHRA OVC031CB 13/12 Q1009 R23/010060 NOSIG RMK QFE749,UUDL,2023-06-02T19:30:00Z,57.57,40.17,13.0,12.0,190,6,,4.35,29.793306,,,,,,TRUE,,,,-SHRA,OVC,3100,,,,,,,MVFR,,,,,,,,,,,,METAR,88.0
UUDD 021930Z 23002MPS 200V280 9999 FEW050CB 16/13 Q1009 R32L/290045 NOSIG,UUDD,2023-06-02T19:30:00Z,55.4,37.9,16.0,13.0,230,4,,6.21,29.793306,,,,,,TRUE,,,,,FEW,5000,,,,,,,VFR,,,,,,,,,,,,SPECI,165.0
UUBW 021930Z 22003MPS 8000 SCT030CB 15/15 Q1009 R30/290050 NOSIG RMK QFE746,UUBW,2023-06-02T19:30:00Z,55.55,38.15,15.0,15.0,220,6,,4.97,29.793306,,,,,,TRUE,,,,,SCT,3000,,,,,,,MVFR,,,,,,,,,,,,METAR,111.0
UUBP 021930Z AUTO 24003MPS 9999 -DZ NCD 15/11 Q1009 NOSIG RMK QFE739/0986,UUBP,2023-06-02T19:30:00Z,53.22,34.18,15.0,11.0,240,6,,6.21,29.793306,,,TRUE,,,TRUE,,,,-DZ,CLR,,,,,,,,VFR,,,,,,,,,,,,SPECI,197.0
UUBC 021930Z VRB01MPS CAVOK 14/13 Q1009 R31/190055 NOSIG RMK QFE740/0986,UUBC,2023-06-02T19:30:00Z,54.55,36.37,14.0,13.0,0,2,,6.21,29.793306,,,,,,TRUE,,,,,CAVOK,,,,,,,,VFR,,,,,,,,,,,,METAR,198.0
UTTT 021930Z 04004KT CAVOK 24/07 Q1008 R08R/CLRD70 NOSIG,UTTT,2023-06-02T19:30:00Z,41.27,69.27,24.0,7.0,40,4,,6.21,29.763779,,,,,,TRUE,,,,,CAVOK,,,,,,,,VFR,,,,,,,,,,,,METAR,429.0
UTST 021930Z 23008KT CAVOK 24/02 Q1005 R25/CLRD70 NOSIG,UTST,2023-06-02T19:30:00Z,37.28,67.32,24.0,2.0,230,8,,6.21,29.675198,,,,,,TRUE,,,,,CAVOK,,,,,,,,VFR,,,,,,,,,,,,SPECI,311.0
UTSS 021930Z 12004KT 090V150 9999 NSC 22/08 Q1009 R09/70D NOSIG,UTSS,2023-06-02T19:30:00Z,39.7,66.98,22.0,8.0,120,4,,6.21,29.793306,,,,,,TRUE,,,,,CLR,,,,,,,,VFR,,,,,,,,,,,,METAR,665.0
UTSK 021930Z 00000KT CAVOK 23/01 Q1006 R16/CLRD70,UTSK,2023-06-02T19:30:00Z,38.8,65.77,23.0,1.0,0,0,,6.21,29.704725,,,,,,,,,,,CAVOK,,,,,,,,VFR,,,,,,,,,,,,SPECI,399.0
UTSB 021930Z 33006KT CAVOK 26/M00 Q1007 R01/CLRD70 NOSIG,UTSB,2023-06-02T19:30:00Z,39.77,64.48,26.0,0.0,330,6,,6.21,29.734253,,,,,,TRUE,,,,,CAVOK,,,,,,,,VFR,,,,,,,,,,,,SPECI,225.0
UTSA 021930Z 03004KT 9999 NSC 26/04 Q1008 R07/CLRD70 NOSIG,UTSA,2023-06-02T19:30:00Z,40.12,65.17,26.0,4.0,30,4,,6.21,29.763779,,,,,,TRUE,,,,,CLR,,,,,,,,VFR,,,,,,,,,,,,SPECI,346.0
UTNU 021930Z 05006KT CAVOK 26/06 Q1008 R31/CLRD70 NOSIG,UTNU,2023-06-02T19:30:00Z,41.58,60.63,26.0,6.0,50,6,,6.21,29.763779,,,,,,TRUE,,,,,CAVOK,,,,,,,,VFR,,,,,,,,,,,,SPECI,97.0
UTNN 021930Z 27004KT CAVOK 26/05 Q1009 R33/CLRD60 NOSIG,UTNN,2023-06-02T19:30:00Z,42.48,59.63,26.0,5.0,270,4,,6.21,29.793306,,,,,,TRUE,,,,,CAVOK,,,,,,,,VFR,,,,,,,,,,,,SPECI,76.0
UTFN 021930Z 33008KT 9999 FEW050CB 22/06 Q1009 R28/CLRD70 NOSIG,UTFN,2023-06-02T19:30:00Z,40.98,71.57,22.0,6.0,330,8,,6.21,29.793306,,,,,,TRUE,,,,,FEW,5000,,,,,,,VFR,,,,,,,,,,,,METAR,477.0
UTFF 021930Z 12006KT 9999 NSC 20/08 Q1010 R18/CLRD70,UTFF,2023-06-02T19:30:00Z,40.37,71.73,20.0,8.0,120,6,,6.21,29.822834,,,,,,,,,,,CLR,,,,,,,,VFR,,,,,,,,,,,,METAR,612.0
UTDT 021930Z VRB01MPS 9000 FEW066 SCT110 23/07 Q1006 R35/CLRD70 RMK QFE715/0954,UTDT,2023-06-02T19:30:00Z,37.87,68.87,23.0,7.0,0,2,,5.59,29.704725,,,,,,,,,,,FEW,6600,SCT,11000,,,,,VFR,,,,,,,,,,,,METAR,443.0
UTDL 021930Z 06002MPS 9999 NSC 23/09 Q1009 R08/CLRD70 NOSIG RMK QFE718/0957,UTDL,2023-06-02T19:30:00Z,40.22,69.7,23.0,9.0,60,4,,6.21,29.793306,,,,,,TRUE,,,,,CLR,,,,,,,,VFR,,,,,,,,,,,,SPECI,436.0
UTDK 021930Z 01006MPS 9999 NSC 25/06 Q1010 R01/09//70 RMK QFE700/0934,UTDK,2023-06-02T19:30:00Z,37.98,69.8,25.0,6.0,10,12,,6.21,29.822834,,,,,,,,,,,CLR,,,,,,,,VFR,,,,,,,,,,,,METAR,675.0
UTDD 021930Z 05003MPS 020V080 9999 FEW066CB SCT130 24/07 Q1010 R09/D NOSIG RMK QFE690/0920,UTDD,2023-06-02T19:30:00Z,38.53,68.82,24.0,7.0,50,6,,6.21,29.822834,,,,,,TRUE,,,,,FEW,6600,SCT,13000,,,,,VFR,,,,,,,,,,,,METAR,785.0
USTR 021930Z 29006G11MPS 260V320 9999 TS SCT053CB 24/17 Q1015 R12/290060 R03/290060 TEMPO VRB20MPS 1000 TSRA SQ VV005,USTR,2023-06-02T19:30:00Z,57.18,65.32,24.0,17.0,290,12,21,6.21,29.970472,,,,,,,,,,TS,SCT,5300,,,,,,,VFR,,,,,,,,,,,,SPECI,93.0
USSS 021930Z 29002MPS 9999 SCT033CB 20/15 Q1012 R08R/210060 TEMPO -TSRA RMK QFE739/0986,USSS,2023-06-02T19:30:00Z,56.75,60.78,20.0,15.0,290,4,,6.21,29.88189,,,,,,,,,,,SCT,3300,,,,,,,VFR,,,,,,,,,,,,SPECI,222.0
USRR 021930Z 00000MPS CAVOK 19/10 Q1017 R25/CLRD60 NOSIG RMK QFE757,USRR,2023-06-02T19:30:00Z,61.33,73.42,19.0,10.0,0,0,,6.21,30.029528,,,,,,TRUE,,,,,CAVOK,,,,,,,,VFR,,,,,,,,,,,,SPECI,52.0
USPP 021930Z 00000MPS CAVOK 16/15 Q1009 R03/090060 TEMPO 1500 -TSRA BR BKN011CB RMK QFE746,USPP,2023-06-02T19:30:00Z,57.92,56.02,16.0,15.0,0,0,,6.21,29.793306,,,,,,,,,,,CAVOK,,,,,,,,VFR,,,,,,,,,,,,SPECI,120.0
USNN 021930Z 22001MPS CAVOK 16/13 Q1017 R21/0///65 NOSIG RMK QFE758,USNN,2023-06-02T19:30:00Z,60.95,76.48,16.0,13.0,220,2,,6.21,30.029528,,,,,,TRUE,,,,,CAVOK,,,,,,,,VFR,,,,,,,,,,,,SPECI,52.0
USHH 021930Z 00000MPS CAVOK 18/11 Q1017 R24/010060 NOSIG,USHH,2023-06-02T19:30:00Z,61.03,69.08,18.0,11.0,0,0,,6.21,30.029528,,,,,,TRUE,,,,,CAVOK,,,,,,,,VFR,,,,,,,,,,,,METAR,46.0
USDA 021930Z AUTO VRB01MPS 9999 ///009/// 03/02 Q1007 RMK QFE754/1005,USDA,2023-06-02T19:30:00Z,71.2,72.05,3.0,2.0,0,2,,6.21,29.734253,,,TRUE,,,,,,,,,,,,,,,,,,,,,,,,,,,,METAR,5.0
USCM 021930Z 19001MPS 5000 HZ SCT040 21/09 Q1012 R36/////// TEMPO 2000 BR VV005 RMK QFE721,USCM,2023-06-02T19:30:00Z,53.4,58.75,21.0,9.0,190,2,,3.11,29.88189,,,,,,,,,,HZ,SCT,4000,,,,,,,MVFR,,,,,,,,,,,,METAR,425.0
USCC 021930Z 33004MPS 9999 SCT040CB 22/13 Q1013 R27/000060 NOSIG RMK QFE740,USCC,2023-06-02T19:30:00Z,55.3,61.5,22.0,13.0,330,8,,6.21,29.911417,,,,,,TRUE,,,,,SCT,4000,,,,,,,VFR,,,,,,,,,,,,SPECI,227.0
URWW 021930Z 00000MPS CAVOK 17/08 Q1013 R23/010070 TEMPO -TSRAGR BKN030CB,URWW,2023-06-02T19:30:00Z,48.78,44.33,17.0,8.0,0,0,,6.21,29.911417,,,,,,,,,,,CAVOK,,,,,,,,VFR,,,,,,,,,,,,SPECI,131.0
URWI 021930Z AUTO 22003MPS 9999 // NSC 19/15 Q1014,URWI,2023-06-02T19:30:00Z,46.37,44.33,19.0,15.0,220,6,,6.21,29.940945,,,TRUE,,,,,,,,CLR,,,,,,,,VFR,,,,,,,,,,,,SPECI,145.0
URWA 021930Z 25003MPS CAVOK 21/15 Q1014 R27/010070 NOSIG RMK QFE762/1016,URWA,2023-06-02T19:30:00Z,46.28,47.98,21.0,15.0,250,6,,6.21,29.940945,,,,,,TRUE,,,,,CAVOK,,,,,,,,VFR,,,,,,,,,,,,SPECI,-19.0
URSS 021930Z 04001MPS 9999 NSC 17/16 Q1014 R02/010070 R06/010070 NOSIG RMK R06/07003MPS QFE759,URSS,2023-06-02T19:30:00Z,43.45,39.92,17.0,16.0,40,2,,6.21,29.940945,,,,,,TRUE,,,,,CLR,,,,,,,,VFR,,,,,,,,,,,,SPECI,4.0
URRP 021930Z 00000MPS CAVOK 17/16 Q1014 R05/CLRD70 NOSIG RMK QFE756/1008,URRP,2023-06-02T19:30:00Z,47.5,39.92,17.0,16.0,0,0,,6.21,29.940945,,,,,,TRUE,,,,,CAVOK,,,,,,,,VFR,,,,,,,,,,,,METAR,73.0
URMT 021930Z 29002MPS 9999 SCT034CB 17/15 Q1015 R25/010070 NOSIG RMK QFE723,URMT,2023-06-02T19:30:00Z,45.12,42.12,17.0,15.0,290,4,,6.21,29.970472,,,,,,TRUE,,,,,SCT,3400,,,,,,,VFR,,,,,,,,,,,,SPECI,448.0
URMO 021930Z 14002MPS 9999 BKN/// 16/14 Q1016 R27/010070 NOSIG RMK QFE717/0956,URMO,2023-06-02T19:30:00Z,43.2,44.6,16.0,14.0,140,4,,6.21,30.0,,,,,,TRUE,,,,,,,,,,,,,,,,,,,,,,,,,METAR,505.0
URMM 021930Z VRB01MPS 9999 SCT/// 17/16 Q1016 R12/290150 NOSIG RMK QFE734/0978,URMM,2023-06-02T19:30:00Z,44.22,43.07,17.0,16.0,0,2,,6.21,30.0,,,,,,TRUE,,,,,,,,,,,,,,,,,,,,,,,,,SPECI,318.0
URML 021930Z 18003MPS 9999 FEW008 SCT056 19/18 Q1014 R14/01//70 NOSIG RMK QFE761/1014,URML,2023-06-02T19:30:00Z,42.82,47.65,19.0,18.0,180,6,,6.21,29.940945,,,,,,TRUE,,,,,FEW,800,SCT,5600,,,,,VFR,,,,,,,,,,,,SPECI,4.0
URMG 021930Z 08002MPS CAVOK 20/15 Q1014 R08/090070 NOSIG RMK QFE746/0995,URMG,2023-06-02T19:30:00Z,43.38,45.7,20.0,15.0,80,4,,6.21,29.940945,,,,,,TRUE,,,,,CAVOK,,,,,,,,VFR,,,,,,,,,,,,METAR,160.0
URKK 021930Z 34001MPS 9999 FEW/// 17/16 Q1014 R23L/CLRD70 NOSIG RMK QFE757,URKK,2023-06-02T19:30:00Z,45.03,39.15,17.0,16.0,340,2,,6.21,29.940945,,,,,,TRUE,,,,,,,,,,,,,,,,,,,,,,,,,SPECI,29.0
URKA 021930Z VRB01MPS 9000 FEW/// 14/14 Q1014 R22/010070 TEMPO 0300 FG BKN002 RMK QFE756/1008,URKA,2023-06-02T19:30:00Z,45.0,37.35,14.0,14.0,0,2,,5.59,29.940945,,,,,,,,,,,,,,,,,,,,,,,,,,,,,,,SPECI,41.0
UNWW 021930Z 13001MPS CAVOK 15/05 Q1022 R19/09//55 NOSIG RMK QFE739,UNWW,2023-06-02T19:30:00Z,53.82,86.88,15.0,5.0,130,2,,6.21,30.177166,,,,,,TRUE,,,,,CAVOK,,,,,,,,VFR,,,,,,,,,,,,SPECI,307.0
UNTT 021930Z 21004MPS CAVOK 16/11 Q1019 R21/////// NOSIG RMK QFE749,UNTT,2023-06-02T19:30:00Z,56.38,85.22,16.0,11.0,210,8,,6.21,30.088583,,,,,,TRUE,,,,,CAVOK,,,,,,,,VFR,,,,,,,,,,,,METAR,179.0
UNOO 021930Z 17003MPS CAVOK 21/01 Q1019 R07/CLRD60 NOSIG RMK QFE756,UNOO,2023-06-02T19:30:00Z,54.97,73.32,21.0,1.0,170,6,,6.21,30.088583,,,,,,TRUE,,,,,CAVOK,,,,,,,,VFR,,,,,,,,,,,,SPECI,85.0
UNNT 021930Z 15002MPS CAVOK 17/08 Q1020 R25/090070 R34/090070 NOSIG RMK QFE755/1007,UNNT,2023-06-02T19:30:00Z,55.02,82.65,17.0,8.0,150,4,,6.21,30.11811,,,,,,TRUE,,,,,CAVOK,,,,,,,,VFR,,,,,,,,,,,,SPECI,106.0
UNKL 021930Z 26005MPS CAVOK 22/09 Q1018 R29/CLRD65 NOSIG RMK QFE738,UNKL,2023-06-02T19:30:00Z,56.17,92.48,22.0,9.0,260,10,,6.21,30.059055,,,,,,TRUE,,,,,CAVOK,,,,,,,,VFR,,,,,,,,,,,,SPECI,278.0
UNEE 021930Z 23004MPS CAVOK 21/07 Q1021 R23/CLRD60 NOSIG RMK QFE742,UNEE,2023-06-02T19:30:00Z,55.27,86.1,21.0,7.0,230,8,,6.21,30.147638,,,,,,TRUE,,,,,CAVOK,,,,,,,,VFR,,,,,,,,,,,,SPECI,261.0
UNBB 021930Z 00000MPS CAVOK 21/01 Q1022 R06/CLRD66 NOSIG RMK QFE744,UNBB,2023-06-02T19:30:00Z,53.37,83.53,21.0,1.0,0,0,,6.21,30.177166,,,,,,TRUE,,,,,CAVOK,,,,,,,,VFR,,,,,,,,,,,,SPECI,249.0
UNAA 021930Z 00000MPS CAVOK 14/08 Q1022 R02/CLRD67 NOSIG RMK QFE744,UNAA,2023-06-02T19:30:00Z,53.75,91.4,14.0,8.0,0,0,,6.21,30.177166,,,,,,TRUE,,,,,CAVOK,,,,,,,,VFR,,,,,,,,,,,,SPECI,249.0
UMMS 021930Z 32003MPS 300V360 9999 FEW047 07/03 Q1015 NOSIG,UMMS,2023-06-02T19:30:00Z,53.88,28.03,7.0,3.0,320,6,,6.21,29.970472,,,,,,TRUE,,,,,FEW,4700,,,,,,,VFR,,,,,,,,,,,,METAR,196.0
UMKK 021930Z 35005MPS 310V010 9999 FEW030 10/00 Q1022 R06/CLRD95 NOSIG RMK QFE765/1020,UMKK,2023-06-02T19:30:00Z,54.88,20.57,10.0,0.0,350,10,,6.21,30.177166,,,,,,TRUE,,,,,FEW,3000,,,,,,,VFR,,,,,,,,,,,,METAR,6.0
UMIO 021930Z 36005MPS CAVOK 05/00 Q1013 NOSIG RMK QFE743/0990,UMIO,2023-06-02T19:30:00Z,54.43,30.3,5.0,0.0,360,10,,6.21,29.911417,,,,,,TRUE,,,,,CAVOK,,,,,,,,VFR,,,,,,,,,,,,METAR,189.0
ULWC 021930Z 35002G07MPS 9999 SCT026CB 08/06 Q1009 R21/010060 NOSIG RMK QFE747/0996,ULWC,2023-06-02T19:30:00Z,59.28,38.02,8.0,6.0,350,4,14,6.21,29.793306,,,,,,TRUE,,,,,SCT,2600,,,,,,,VFR,,,,,,,,,,,,METAR,113.0
ULOO 021930Z 32002MPS CAVOK 07/M01 Q1015 R01/090060 NOSIG RMK QFE757,ULOO,2023-06-02T19:30:00Z,57.78,28.4,7.0,-1.0,320,4,,6.21,29.970472,,,,,,TRUE,,,,,CAVOK,,,,,,,,VFR,,,,,,,,,,,,METAR,46.0
ULMM 021930Z 36001MPS CAVOK 03/M01 Q1016 R31/090070 NOSIG RMK QFE754,ULMM,2023-06-02T19:30:00Z,68.78,32.75,3.0,-1.0,360,2,,6.21,30.0,,,,,,TRUE,,,,,CAVOK,,,,,,,,VFR,,,,,,,,,,,,METAR,79.0
ULLI 021930Z 27003MPS 9999 BKN032 06/03 Q1014 R28L/090060 NOSIG,ULLI,2023-06-02T19:30:00Z,59.8,30.27,6.0,3.0,270,6,,6.21,29.940945,,,,,,TRUE,,,,,BKN,3200,,,,,,,VFR,,,,,,,,,,,,METAR,25.0
UIUU 021930Z VRB01MPS 9999 NSC 07/03 Q1018 R26/60D NOSIG RMK QFE719/0959,UIUU,2023-06-02T19:30:00Z,51.8,107.45,7.0,3.0,0,2,,6.21,30.059055,,,,,,TRUE,,,,,CLR,,,,,,,,VFR,,,,,,,,,,,,METAR,508.0
UIII 021930Z 06001MPS CAVOK 06/05 Q1019 R30/CLRD60 NOSIG RMK QFE720/0960,UIII,2023-06-02T19:30:00Z,52.27,104.37,6.0,5.0,60,2,,6.21,30.088583,,,,,,TRUE,,,,,CAVOK,,,,,,,,VFR,,,,,,,,,,,,SPECI,480.0
UIBB 021930Z AUTO 26003MPS 9999 // ///080/// 15/09 Q1015 RMK QFE718/0958,UIBB,2023-06-02T19:30:00Z,56.37,101.7,15.0,9.0,260,6,,6.21,29.970472,,,TRUE,,,,,,,,,,,,,,,,,,,,,,,,,,,,METAR,485.0
UIAA 021930Z 29001MPS 9999 NSC 04/02 Q1015 R29/CLRD70 NOSIG RMK QFE703/0937,UIAA,2023-06-02T19:30:00Z,52.02,113.32,4.0,2.0,290,2,,6.21,29.970472,,,,,,TRUE,,,,,CLR,,,,,,,,VFR,,,,,,,,,,,,SPECI,650.0
UHWW 021930Z 00000MPS 9999 NSC 09/08 Q1001 R25L/0///70 NOSIG RMK QFE749,UHWW,2023-06-02T19:30:00Z,43.4,132.15,9.0,8.0,0,0,,6.21,29.557087,,,,,,TRUE,,,,,CLR,,,,,,,,VFR,,,,,,,,,,,,METAR,11.0
UHSS 021930Z 36009MPS 9999 FEW006 SCT040 07/06 Q0997 R01/70D NOSIG RMK MT OBSC QFE746/0995,UHSS,2023-06-02T19:30:00Z,46.88,142.72,7.0,6.0,360,17,,6.21,29.438976,,,,,,TRUE,,,,,FEW,600,SCT,4000,,,,,VFR,,,,,,,,,,,,METAR,14.0
UHPP 021930Z 06002MPS 9999 FEW003 SCT033 BKN062 04/04 Q1006 R34L/290153 NOSIG RMK MT OBSC QFE751/1002,UHPP,2023-06-02T19:30:00Z,53.17,158.45,4.0,4.0,60,4,,6.21,29.704725,,,,,,TRUE,,,,,FEW,300,SCT,3300,BKN,6200,,,VFR,,,,,,,,,,,,METAR,33.0
UHMA 021930Z 35002MPS 320V020 CAVOK 08/M05 Q1006 R01/////// NOSIG RMK MID 35002MPS END R01/34002MPS QFE751/1001,UHMA,2023-06-02T19:30:00Z,64.73,177.73,8.0,-5.0,350,4,,6.21,29.704725,,,,,,TRUE,,,,,CAVOK,,,,,,,,VFR,,,,,,,,,,,,METAR,53.0
UHHH 021930Z 04006MPS CAVOK 08/05 Q1000 R88/090060 NOSIG RMK QFE744/0992,UHHH,2023-06-02T19:30:00Z,48.52,135.18,8.0,5.0,40,12,,6.21,29.52756,,,,,,TRUE,,,,,CAVOK,,,,,,,,VFR,,,,,,,,,,,,METAR,74.0
UGTB 021930Z 31009KT 9999 SCT054CB 19/15 Q1017 NOSIG,UGTB,2023-06-02T19:30:00Z,41.67,44.95,19.0,15.0,310,9,,6.21,30.029528,,,,,,TRUE,,,,,SCT,5400,,,,,,,VFR,,,,,,,,,,,,METAR,468.0
UGSB 021930Z 07002KT 9999 FEW023CB 19/19 Q1014 NOSIG,UGSB,2023-06-02T19:30:00Z,41.62,41.6,19.0,19.0,70,2,,6.21,29.940945,,,,,,TRUE,,,,,FEW,2300,,,,,,,VFR,,,,,,,,,,,,METAR,32.0
UGMS 021930Z AUTO VRB03KT //// ////// 10/09 Q1022,UGMS,2023-06-02T19:30:00Z,43.05,42.75,10.0,9.0,0,3,,,30.177166,,,TRUE,,,,,,,,,,,,,,,,,,,,,,,,,,,,METAR,1442.0
UGKO 021930Z VRB02KT 9999 BKN030 19/17 Q1014 NOSIG,UGKO,2023-06-02T19:30:00Z,42.18,42.48,19.0,17.0,0,2,,6.21,29.940945,,,,,,TRUE,,,,,BKN,3000,,,,,,,MVFR,,,,,,,,,,,,METAR,44.0
UGAM 021930Z AUTO 08008KT 050V120 //// ////// 16/14 Q1017,UGAM,2023-06-02T19:30:00Z,42.53,43.13,16.0,14.0,80,8,,,30.029528,,,TRUE,,,,,,,,,,,,,,,,,,,,,,,,,,,,METAR,544.0
UERR 021930Z 25004MPS CAVOK 12/01 Q1012 R25/CLRD60 NOSIG RMK QFE728/0971,UERR,2023-06-02T19:30:00Z,62.53,114.05,12.0,1.0,250,8,,6.21,29.88189,,,,,,TRUE,,,,,CAVOK,,,,,,,,VFR,,,,,,,,,,,,SPECI,352.0
UEEE 021930Z 25001MPS CAVOK 10/M01 Q1008 R05/09//60 NOSIG RMK QFE748,UEEE,2023-06-02T19:30:00Z,62.08,129.77,10.0,-1.0,250,2,,6.21,29.763779,,,,,,TRUE,,,,,CAVOK,,,,,,,,VFR,,,,,,,,,,,,METAR,106.0
UDYZ 021930Z 01004KT 310V030 9999 FEW040CB 19/07 Q1016 NOSIG,UDYZ,2023-06-02T19:30:00Z,40.15,44.4,19.0,7.0,10,4,,6.21,30.0,,,,,,TRUE,,,,,FEW,4000,,,,,,,VFR,,,,,,,,,,,,METAR,851.0
UDSG 021930Z 01003KT 310V060 9999 BKN046CB 14/10 Q1021 NOSIG,UDSG,2023-06-02T19:30:00Z,40.75,43.87,14.0,10.0,10,3,,6.21,30.147638,,,,,,TRUE,,,,,BKN,4600,,,,,,,VFR,,,,,,,,,,,,METAR,1515.0
UCFO 021930Z 09003MPS 050V120 CAVOK 19/09 Q1012 NOSIG,UCFO,2023-06-02T19:30:00Z,40.6,72.8,19.0,9.0,90,6,,6.21,29.88189,,,,,,TRUE,,,,,CAVOK,,,,,,,,VFR,,,,,,,,,,,,METAR,881.0
UCFM 021930Z VRB01MPS CAVOK 15/04 Q1013 NOSIG,UCFM,2023-06-02T19:30:00Z,43.07,74.48,15.0,4.0,0,2,,6.21,29.911417,,,,,,TRUE,,,,,CAVOK,,,,,,,,VFR,,,,,,,,,,,,METAR,632.0
UBBZ 021930Z AUTO 29004KT 9999 // ///////// 23/15 Q1017,UBBZ,2023-06-02T19:30:00Z,39.1,46.73,23.0,15.0,290,4,,6.21,30.029528,,,TRUE,,,,,,,,,,,,,,,,,,,,,,,,,,,,METAR,489.0
UBBN 021930Z 10006KT 9999 FEW046 SCT100 20/07 Q1015 NOSIG RMK MT OP QFE687,UBBN,2023-06-02T19:30:00Z,39.18,45.45,20.0,7.0,100,6,,6.21,29.970472,,,,,,TRUE,,,,,FEW,4600,SCT,10000,,,,,VFR,,,,,,,,,,,,SPECI,857.0
UBBG 021930Z 31004KT 280V350 9999 SCT100 23/17 Q1014 NOSIG,UBBG,2023-06-02T19:30:00Z,40.73,46.32,23.0,17.0,310,4,,6.21,29.940945,,,,,,TRUE,,,,,SCT,10000,,,,,,,VFR,,,,,,,,,,,,METAR,333.0
UBBF 021930Z AUTO 30006KT 9999 // ///////// 20/17 Q1015,UBBF,2023-06-02T19:30:00Z,39.6,47.2,20.0,17.0,300,6,,6.21,29.970472,,,TRUE,,,,,,,,,,,,,,,,,,,,,,,,,,,,METAR,370.0
UBBB 021930Z 00000KT CAVOK 22/17 Q1015 NOSIG,UBBB,2023-06-02T19:30:00Z,40.47,50.07,22.0,17.0,0,0,,6.21,29.970472,,,,,,TRUE,,,,,CAVOK,,,,,,,,VFR,,,,,,,,,,,,METAR,94.0
UAUU 021930Z 16004MPS CAVOK 23/07 Q1013 NOSIG RMK QFE743/0991,UAUU,2023-06-02T19:30:00Z,53.2,63.55,23.0,7.0,160,8,,6.21,29.911417,,,,,,TRUE,,,,,CAVOK,,,,,,,,VFR,,,,,,,,,,,,METAR,177.0
UATT 021930Z 24003MPS CAVOK 20/10 Q1013 NOSIG RMK QFE740/0987,UATT,2023-06-02T19:30:00Z,50.25,57.2,20.0,10.0,240,6,,6.21,29.911417,,,,,,TRUE,,,,,CAVOK,,,,,,,,VFR,,,,,,,,,,,,METAR,217.0
UATG 021930Z 23004MPS CAVOK 21/18 Q1014 NOSIG RMK QFE762/1017,UATG,2023-06-02T19:30:00Z,47.12,51.83,21.0,18.0,230,8,,6.21,29.940945,,,,,,TRUE,,,,,CAVOK,,,,,,,,VFR,,,,,,,,,,,,SPECI,-23.0
UATE 021930Z 36003MPS CAVOK 20/16 Q1014 NOSIG RMK QFE759/1012,UATE,2023-06-02T19:30:00Z,43.87,51.1,20.0,16.0,360,6,,6.21,29.940945,,,,,,TRUE,,,,,CAVOK,,,,,,,,VFR,,,,,,,,,,,,METAR,21.0
UASP 021930Z 00000MPS CAVOK 16/03 Q1020 NOSIG RMK QFE755/1006,UASP,2023-06-02T19:30:00Z,52.2,77.07,16.0,3.0,0,0,,6.21,30.11811,,,,,,TRUE,,,,,CAVOK,,,,,,,,VFR,,,,,,,,,,,,METAR,122.0
UARR 021930Z 26006MPS 9999 FEW050CB 20/14 Q1007 NOSIG RMK QFE752/1002,UARR,2023-06-02T19:30:00Z,51.15,51.53,20.0,14.0,260,12,,6.21,29.734253,,,,,,TRUE,,,,,FEW,5000,,,,,,,VFR,,,,,,,,,,,,METAR,33.0
UAKK 021930Z 08003MPS CAVOK 10/00 Q1021 NOSIG RMK QFE718/0958,UAKK,2023-06-02T19:30:00Z,49.68,73.35,10.0,0.0,80,6,,6.21,30.147638,,,,,,TRUE,,,,,CAVOK,,,,,,,,VFR,,,,,,,,,,,,SPECI,532.0
UAIT 021930Z 06004MPS 030V090 CAVOK 26/M01 Q1010 NOSIG RMK QFE733/0977,UAIT,2023-06-02T19:30:00Z,43.32,68.55,26.0,-1.0,60,8,,6.21,29.822834,,,,,,TRUE,,,,,CAVOK,,,,,,,,VFR,,,,,,,,,,,,METAR,301.0
UAII 021930Z 09007MPS CAVOK 26/M06 Q1008 NOSIG RMK QFE721/0961,UAII,2023-06-02T19:30:00Z,42.37,69.48,26.0,-6.0,90,14,,6.21,29.763779,,,,,,TRUE,,,,,CAVOK,,,,,,,,VFR,,,,,,,,,,,,SPECI,410.0
UADD 021930Z 19004MPS 9999 NSC 16/M00 Q1012 NOSIG RMK QFE702/0936,UADD,2023-06-02T19:30:00Z,42.85,71.3,16.0,0.0,190,8,,6.21,29.88189,,,,,,TRUE,,,,,CLR,,,,,,,,VFR,,,,,,,,,,,,METAR,663.0
UACC 021930Z 15004MPS CAVOK 16/02 Q1020 NOSIG RMK QFE733/0978,UACC,2023-06-02T19:30:00Z,51.02,71.47,16.0,2.0,150,8,,6.21,30.11811,,,,,,TRUE,,,,,CAVOK,,,,,,,,VFR,,,,,,,,,,,,METAR,354.0
UAAA 021930Z VRB01MPS 9999 SCT200 15/04 Q1014 NOSIG,UAAA,2023-06-02T19:30:00Z,43.35,77.03,15.0,4.0,0,2,,6.21,29.940945,,,,,,TRUE,,,,,SCT,20000,,,,,,,VFR,,,,,,,,,,,,METAR,673.0
TFFR 021930Z AUTO 11013KT 9999 SCT025 SCT030 30/24 Q1011 TEMPO 2000 SHRA SCT010 FEW013CB BKN018TCU,TFFR,2023-06-02T19:30:00Z,16.27,-61.53,30.0,24.0,110,13,,6.21,29.852362,,,TRUE,,,,,,,,SCT,2500,SCT,3000,,,,,VFR,,,,,,,,,,,,METAR,6.0
TFFF 021930Z AUTO 12013KT 9999 BKN024 BKN046 BKN052 30/24 Q1011 TEMPO 3500 SHRA FEW015CB BKN018TCU,TFFF,2023-06-02T19:30:00Z,14.6,-61.0,30.0,24.0,120,13,,6.21,29.852362,,,TRUE,,,,,,,,BKN,2400,BKN,4600,BKN,5200,,,MVFR,,,,,,,,,,,,METAR,3.0
TBPB 021930Z 10005KT 9999 -SHRA VCSH SCT012CB SCT016 27/25 Q1011 NOSIG,TBPB,2023-06-02T19:30:00Z,13.07,-59.48,27.0,25.0,100,5,,6.21,29.852362,,,,,,TRUE,,,,-SHRA VCSH,SCT,1200,SCT,1600,,,,,VFR,,,,,,,,,,,,SPECI,55.0
SPZO 021930Z 03004KT 340V090 9999 NSC 21/M09 Q1030 NOSIG RMK BIRD HAZARD RWY 10/28,SPZO,2023-06-02T19:30:00Z,-13.55,-71.93,21.0,-9.0,30,4,,6.21,30.413385,,,,,,TRUE,,,,,CLR,,,,,,,,VFR,,,,,,,,,,,,SPECI,3249.0
SPJR 021930Z VRB02KT 9999 SCT027 BKN050 21/07 Q1026,SPJR,2023-06-02T19:30:00Z,-7.13,-78.48,21.0,7.0,0,2,,6.21,30.295275,,,,,,,,,,,SCT,2700,BKN,5000,,,,,VFR,,,,,,,,,,,,METAR,2622.0
SOCA 021930Z AUTO VRB03KT 9999 FEW029/// SCT044/// ///CB 25/23 Q1009 TEMPO 2000 SHRA,SOCA,2023-06-02T19:30:00Z,4.82,-52.37,25.0,23.0,0,3,,6.21,29.793306,,,TRUE,,,,,,,,FEW,2900,SCT,4400,,,,,VFR,,,,,,,,,,,,METAR,7.0
ROAH 021930Z AUTO 33013KT 9999 FEW015 BKN026 24/21 Q1007,ROAH,2023-06-02T19:30:00Z,26.18,127.65,24.0,21.0,330,13,,6.21,29.734253,,,TRUE,,,,,,,,FEW,1500,BKN,2600,,,,,MVFR,,,,,,,,,,,,METAR,6.0
RKSI 021930Z 35006KT CAVOK 18/12 Q1007 NOSIG,RKSI,2023-06-02T19:30:00Z,37.47,126.45,18.0,12.0,350,6,,6.21,29.734253,,,,,,TRUE,,,,,CAVOK,,,,,,,,VFR,,,,,,,,,,,,METAR,7.0
RJTT 021930Z 34008KT 3500 SHRA BR FEW003 SCT008 BKN030 20/20 Q0997 TEMPO 3000 SHRA BR FEW004 BKN005,RJTT,2023-06-02T19:30:00Z,35.55,139.77,20.0,20.0,340,8,,2.17,29.438976,,,,,,,,,,SHRA BR,FEW,300,SCT,800,BKN,3000,,,IFR,,,,,,,,,,,,METAR,5.0
RJGG 021930Z AUTO 30013KT 9999 NSC 20/17 Q0998 NOSIG,RJGG,2023-06-02T19:30:00Z,34.87,136.8,20.0,17.0,300,13,,6.21,29.468504,,,TRUE,,,TRUE,,,,,CLR,,,,,,,,VFR,,,,,,,,,,,,METAR,5.0
RJFF 021930Z AUTO 32006KT 9999 NCD 19/17 Q1003 TEMPO FEW005 BKN008 BKN010,RJFF,2023-06-02T19:30:00Z,33.58,130.45,19.0,17.0,320,6,,6.21,29.616142,,,TRUE,,,,,,,,CLR,,,,,,,,VFR,,,,,,,,,,,,METAR,7.0
RJCC 021930Z 01007KT 9999 FEW003 BKN006 BKN030 14/13 Q0991,RJCC,2023-06-02T19:30:00Z,42.77,141.68,14.0,13.0,10,7,,6.21,29.26181,,,,,,,,,,,FEW,300,BKN,600,BKN,3000,,,IFR,,,,,,,,,,,,METAR,19.0
RJBB 021930Z AUTO 01011KT 6000 NSC 20/20 Q1001 NOSIG,RJBB,2023-06-02T19:30:00Z,34.43,135.25,20.0,20.0,10,11,,3.73,29.557087,,,TRUE,,,TRUE,,,,,CLR,,,,,,,,MVFR,,,,,,,,,,,,METAR,8.0
RJAA 021930Z AUTO 33005KT 300V360 5000 RA BR FEW005 SCT027 BKN029 //////TCU 20/20 Q0997 TEMPO 3000 SHRA BR FEW003 BKN005,RJAA,2023-06-02T19:30:00Z,35.77,140.38,20.0,20.0,330,5,,3.11,29.438976,,,TRUE,,,,,,,RA BR,FEW,500,SCT,2700,BKN,2900,,,MVFR,,,,,,,,,,,,METAR,36.0
RCTP 021930Z 25003KT 9999 FEW015 SCT050 27/26 Q1007 NOSIG RMK A2976,RCTP,2023-06-02T19:30:00Z,25.07,121.22,27.0,26.0,250,3,,6.21,29.734253,,,,,,TRUE,,,,,FEW,1500,SCT,5000,,,,,VFR,,,,,,,,,,,,METAR,33.0
OTBD 021930Z 30008KT 260V330 CAVOK 35/09 Q1005 NOSIG,OTBD,2023-06-02T19:30:00Z,25.25,51.57,35.0,9.0,300,8,,6.21,29.675198,,,,,,TRUE,,,,,CAVOK,,,,,,,,VFR,,,,,,,,,,,,METAR,13.0
OPPS 021930Z 31004KT 8000 HZ FEW100 25/19 Q1008,OPPS,2023-06-02T19:30:00Z,33.98,71.52,25.0,19.0,310,4,,4.97,29.763779,,,,,,,,,,HZ,FEW,10000,,,,,,,MVFR,,,,,,,,,,,,METAR,356.0
OPIS 021930Z 13004KT 6000 NSC 21/16 Q1009 NOSIG,OPIS,2023-06-02T19:30:00Z,33.55,72.83,21.0,16.0,130,4,,3.73,29.793306,,,,,,TRUE,,,,,CLR,,,,,,,,MVFR,,,,,,,,,,,,METAR,542.0
OIYY 021930Z 26006KT CAVOK 29/05 Q1015,OIYY,2023-06-02T19:30:00Z,31.9,54.28,29.0,5.0,260,6,,6.21,29.970472,,,,,,,,,,,CAVOK,,,,,,,,VFR,,,,,,,,,,,,METAR,1226.0
OITT 021930Z VRB02KT 9999 FEW030 SCT170 20/07 Q1019 A3011,OITT,2023-06-02T19:30:00Z,38.13,46.23,20.0,7.0,0,2,,6.21,30.088583,,,,,,,,,,,FEW,3000,SCT,17000,,,,,VFR,,,,,,,,,,,,METAR,1353.0
OITR 021930Z 27004KT 9999 FEW040 SCT170 17/06 Q1018 A3008,OITR,2023-06-02T19:30:00Z,37.67,45.07,17.0,6.0,270,4,,6.21,30.059055,,,,,,,,,,,FEW,4000,SCT,17000,,,,,VFR,,,,,,,,,,,,METAR,1312.0
OISS 021930Z 28004KT 9999 FEW035 27/M01 Q1016 A3001,OISS,2023-06-02T19:30:00Z,29.53,52.58,27.0,-1.0,280,4,,6.21,30.0,,,,,,,,,,,FEW,3500,,,,,,,VFR,,,,,,,,,,,,METAR,1484.0
OING 021930Z 00000KT 9999 FEW030 22/20 Q1015,OING,2023-06-02T19:30:00Z,36.9,54.4,22.0,20.0,0,0,,6.21,29.970472,,,,,,,,,,,FEW,3000,,,,,,,VFR,,,,,,,,,,,,METAR,0.0
OIMM 021930Z 20004KT CAVOK 25/12 Q1015 A3000,OIMM,2023-06-02T19:30:00Z,36.23,59.63,25.0,12.0,200,4,,6.21,29.970472,,,,,,,,,,,CAVOK,,,,,,,,VFR,,,,,,,,,,,,METAR,995.0
OIMB 021930Z 08008KT CAVOK 24/M04 Q1016 A3002,OIMB,2023-06-02T19:30:00Z,32.9,59.28,24.0,-4.0,80,8,,6.21,30.0,,,,,,,,,,,CAVOK,,,,,,,,VFR,,,,,,,,,,,,METAR,1512.0
OIKB 021930Z 25010KT 4000 HZ FEW025CB BKN190 32/26 Q1002 A2961,OIKB,2023-06-02T19:30:00Z,27.22,56.37,32.0,26.0,250,10,,2.49,29.586615,,,,,,,,,,HZ,FEW,2500,BKN,19000,,,,,IFR,,,,,,,,,,,,METAR,6.0
OIII 021930Z 32006KT 9999 FEW100 SCT190 28/M03 Q1014 A2997,OIII,2023-06-02T19:30:00Z,35.68,51.3,28.0,-3.0,320,6,,6.21,29.940945,,,,,,,,,,,FEW,10000,SCT,19000,,,,,VFR,,,,,,,,,,,,METAR,1182.0
OIFM 021930Z 25004KT CAVOK 20/00 Q1019 A3009,OIFM,2023-06-02T19:30:00Z,32.75,51.87,20.0,0.0,250,4,,6.21,30.088583,,,,,,,,,,,CAVOK,,,,,,,,VFR,,,,,,,,,,,,METAR,1539.0
OIBB 021930Z 31010KT CAVOK 31/19 Q1003 A2964,OIBB,2023-06-02T19:30:00Z,28.93,50.83,31.0,19.0,310,10,,6.21,29.616142,,,,,,,,,,,CAVOK,,,,,,,,VFR,,,,,,,,,,,,METAR,15.0
OIAW 021930Z 29008KT CAVOK 35/07 Q1004,OIAW,2023-06-02T19:30:00Z,31.33,48.77,35.0,7.0,290,8,,6.21,29.64567,,,,,,,,,,,CAVOK,,,,,,,,VFR,,,,,,,,,,,,METAR,25.0
OBBI 021930Z 30009KT CAVOK 32/18 Q1005 NOSIG,OBBI,2023-06-02T19:30:00Z,26.27,50.63,32.0,18.0,300,9,,6.21,29.675198,,,,,,TRUE,,,,,CAVOK,,,,,,,,VFR,,,,,,,,,,,,METAR,6.0
NZWN 021930Z AUTO 34002KT 9999 NCD 08/04 Q1015,NZWN,2023-06-02T19:30:00Z,-41.32,174.8,8.0,4.0,340,2,,6.21,29.970472,,,TRUE,,,,,,,,CLR,,,,,,,,VFR,,,,,,,,,,,,METAR,12.0
NZCH 021930Z AUTO 24003KT 9999 NCD 03/M01 Q1015,NZCH,2023-06-02T19:30:00Z,-43.48,172.52,3.0,-1.0,240,3,,6.21,29.970472,,,TRUE,,,,,,,,CLR,,,,,,,,VFR,,,,,,,,,,,,METAR,36.0
NZAA 021930Z AUTO 23014KT 9999 -RA FEW050/// SCT065/// 13/10 Q1020,NZAA,2023-06-02T19:30:00Z,-37.02,174.8,13.0,10.0,230,14,,6.21,30.11811,,,TRUE,,,,,,,-RA,FEW,5000,SCT,6500,,,,,VFR,,,,,,,,,,,,METAR,7.0
NWWW 021930Z AUTO VRB01KT CAVOK 16/14 Q1020 NOSIG,NWWW,2023-06-02T19:30:00Z,-22.02,166.22,16.0,14.0,0,1,,6.21,30.11811,,,TRUE,,,TRUE,,,,,CAVOK,,,,,,,,VFR,,,,,,,,,,,,METAR,16.0
NTAA 021930Z VRB01KT 9999 FEW043 27/17 Q1014 NOSIG,NTAA,2023-06-02T19:30:00Z,-17.55,-149.62,27.0,17.0,0,1,,6.21,29.940945,,,,,,TRUE,,,,,FEW,4300,,,,,,,VFR,,,,,,,,,,,,METAR,2.0
NCRG 021930Z AUTO 27003KT 240V300 9999 FEW035/// 24/17 Q1015,NCRG,2023-06-02T19:30:00Z,-21.2,-159.82,24.0,17.0,270,3,,6.21,29.970472,,,TRUE,,,,,,,,FEW,3500,,,,,,,VFR,,,,,,,,,,,,METAR,7.0
LZZI 021930Z 03008KT 9999 FEW050 15/07 Q1017,LZZI,2023-06-02T19:30:00Z,49.23,18.62,15.0,7.0,30,8,,6.21,30.029528,,,,,,,,,,,FEW,5000,,,,,,,VFR,,,,,,,,,,,,METAR,311.0
LZTT 021930Z 05014KT 020V090 9999 FEW033 SCT056 12/07 Q1016,LZTT,2023-06-02T19:30:00Z,49.07,20.25,12.0,7.0,50,14,,6.21,30.0,,,,,,,,,,,FEW,3300,SCT,5600,,,,,VFR,,,,,,,,,,,,METAR,693.0
LZPP 021930Z 34008KT CAVOK 16/09 Q1015,LZPP,2023-06-02T19:30:00Z,48.62,17.83,16.0,9.0,340,8,,6.21,29.970472,,,,,,,,,,,CAVOK,,,,,,,,VFR,,,,,,,,,,,,METAR,160.0
LZKZ 021930Z 01016KT CAVOK 17/09 Q1015 NOSIG,LZKZ,2023-06-02T19:30:00Z,48.67,21.23,17.0,9.0,10,16,,6.21,29.970472,,,,,,TRUE,,,,,CAVOK,,,,,,,,VFR,,,,,,,,,,,,METAR,227.0
LZIB 021930Z 36005KT CAVOK 18/10 Q1015 NOSIG,LZIB,2023-06-02T19:30:00Z,48.17,17.22,18.0,10.0,360,5,,6.21,29.970472,,,,,,TRUE,,,,,CAVOK,,,,,,,,VFR,,,,,,,,,,,,METAR,129.0
LYVR 021930Z AUTO VRB01KT CAVOK 16/16 Q1013,LYVR,2023-06-02T19:30:00Z,45.13,21.32,16.0,16.0,0,1,,6.21,29.911417,,,TRUE,,,,,,,,CAVOK,,,,,,,,VFR,,,,,,,,,,,,METAR,82.0
LYTV 021930Z AUTO VRB01KT CAVOK 19/18 Q1011,LYTV,2023-06-02T19:30:00Z,42.4,18.72,19.0,18.0,0,1,,6.21,29.852362,,,TRUE,,,,,,,,CAVOK,,,,,,,,VFR,,,,,,,,,,,,METAR,3.0
LYPG 021930Z 13006KT 9999 FEW040 23/15 Q1011 NOSIG,LYPG,2023-06-02T19:30:00Z,42.37,19.25,23.0,15.0,130,6,,6.21,29.852362,,,,,,TRUE,,,,,FEW,4000,,,,,,,VFR,,,,,,,,,,,,METAR,32.0
LYNI 021930Z VRB02KT 9999 -TSRA FEW010 FEW030CB SCT040 18/16 Q1014 NOSIG,LYNI,2023-06-02T19:30:00Z,43.33,21.85,18.0,16.0,0,2,,6.21,29.940945,,,,,,TRUE,,,,-TSRA,FEW,1000,FEW,3000,SCT,4000,,,VFR,,,,,,,,,,,,METAR,197.0
LYKV 021930Z 21001KT 9999 SCT040 17/17 Q1013 NOSIG,LYKV,2023-06-02T19:30:00Z,43.82,20.58,17.0,17.0,210,1,,6.21,29.911417,,,,,,TRUE,,,,,SCT,4000,,,,,,,VFR,,,,,,,,,,,,METAR,209.0
LYBT 021930Z VRB01KT 9999 RA SCT040 17/17 Q1012 NOSIG,LYBT,2023-06-02T19:30:00Z,44.93,20.25,17.0,17.0,0,1,,6.21,29.88189,,,,,,TRUE,,,,RA,SCT,4000,,,,,,,VFR,,,,,,,,,,,,METAR,78.0
LYBE 021930Z VRB01KT 9999 -RA SCT040 17/16 Q1012 NOSIG,LYBE,2023-06-02T19:30:00Z,44.82,20.28,17.0,16.0,0,1,,6.21,29.88189,,,,,,TRUE,,,,-RA,SCT,4000,,,,,,,VFR,,,,,,,,,,,,METAR,93.0
LUKK 021930Z 19008KT CAVOK 21/13 Q1011 NOSIG,LUKK,2023-06-02T19:30:00Z,46.93,28.93,21.0,13.0,190,8,,6.21,29.852362,,,,,,TRUE,,,,,CAVOK,,,,,,,,VFR,,,,,,,,,,,,METAR,102.0
LRTR 021930Z 02004KT CAVOK 17/17 Q1013 NOSIG,LRTR,2023-06-02T19:30:00Z,45.82,21.33,17.0,17.0,20,4,,6.21,29.911417,,,,,,TRUE,,,,,CAVOK,,,,,,,,VFR,,,,,,,,,,,,METAR,104.0
LRTM 021930Z AUTO VRB01KT 9999 NCD 18/13 Q1012,LRTM,2023-06-02T19:30:00Z,46.47,24.42,18.0,13.0,0,1,,6.21,29.88189,,,TRUE,,,,,,,,CLR,,,,,,,,VFR,,,,,,,,,,,,METAR,289.0
LRTC 021930Z AUTO 14003KT 9999 NCD 18/12 Q1012,LRTC,2023-06-02T19:30:00Z,45.07,28.72,18.0,12.0,140,3,,6.21,29.88189,,,TRUE,,,,,,,,CLR,,,,,,,,VFR,,,,,,,,,,,,METAR,52.0
LRSV 021930Z 32012KT CAVOK 18/12 Q1012,LRSV,2023-06-02T19:30:00Z,47.68,26.35,18.0,12.0,320,12,,6.21,29.88189,,,,,,,,,,,CAVOK,,,,,,,,VFR,,,,,,,,,,,,METAR,406.0
LRSM 021930Z AUTO 34004KT 300V360 9999 FEW095/// 18/13 Q1012 RERA,LRSM,2023-06-02T19:30:00Z,47.7,22.88,18.0,13.0,340,4,,6.21,29.88189,,,TRUE,,,,,,,,FEW,9500,,,,,,,VFR,,,,,,,,,,,,METAR,123.0
LRSB 021930Z 33003KT 280V350 CAVOK 17/12 Q1013,LRSB,2023-06-02T19:30:00Z,45.78,24.08,17.0,12.0,330,3,,6.21,29.911417,,,,,,,,,,,CAVOK,,,,,,,,VFR,,,,,,,,,,,,METAR,442.0
LROP 021930Z VRB01KT CAVOK 18/16 Q1012 NOSIG,LROP,2023-06-02T19:30:00Z,44.57,26.1,18.0,16.0,0,1,,6.21,29.88189,,,,,,TRUE,,,,,CAVOK,,,,,,,,VFR,,,,,,,,,,,,METAR,92.0
LROD 021930Z AUTO 20012KT 9999 NCD 19/15 Q1012,LROD,2023-06-02T19:30:00Z,47.03,21.88,19.0,15.0,200,12,,6.21,29.88189,,,TRUE,,,,,,,,CLR,,,,,,,,VFR,,,,,,,,,,,,METAR,132.0
LRIA 021930Z VRB01KT CAVOK 21/11 Q1011,LRIA,2023-06-02T19:30:00Z,47.17,27.62,21.0,11.0,0,1,,6.21,29.852362,,,,,,,,,,,CAVOK,,,,,,,,VFR,,,,,,,,,,,,METAR,71.0
LRCV 021930Z 01005KT CAVOK 18/17 Q1012,LRCV,2023-06-02T19:30:00Z,44.32,23.88,18.0,17.0,10,5,,6.21,29.88189,,,,,,,,,,,CAVOK,,,,,,,,VFR,,,,,,,,,,,,METAR,192.0
LRCL 021930Z 24004KT 130V260 9999 FEW067 15/14 Q1012,LRCL,2023-06-02T19:30:00Z,46.78,23.68,15.0,14.0,240,4,,6.21,29.88189,,,,,,,,,,,FEW,6700,,,,,,,VFR,,,,,,,,,,,,METAR,313.0
LRCK 021930Z 17007KT CAVOK 16/12 Q1012 NOSIG,LRCK,2023-06-02T19:30:00Z,44.37,28.48,16.0,12.0,170,7,,6.21,29.88189,,,,,,TRUE,,,,,CAVOK,,,,,,,,VFR,,,,,,,,,,,,METAR,108.0
LRBS 021930Z 28003KT CAVOK 19/14 Q1012 NOSIG,LRBS,2023-06-02T19:30:00Z,44.5,26.08,19.0,14.0,280,3,,6.21,29.88189,,,,,,TRUE,,,,,CAVOK,,,,,,,,VFR,,,,,,,,,,,,METAR,91.0
LRBM 021930Z AUTO 27008KT 9999 -SHRA VCTS FEW080/// BKN095/// 19/14 Q1012,LRBM,2023-06-02T19:30:00Z,47.67,23.47,19.0,14.0,270,8,,6.21,29.88189,,,TRUE,,,,,,,-SHRA VCTS,FEW,8000,BKN,9500,,,,,VFR,,,,,,,,,,,,METAR,180.0
LRBC 021930Z 12003KT CAVOK 18/14 Q1011,LRBC,2023-06-02T19:30:00Z,46.52,26.92,18.0,14.0,120,3,,6.21,29.852362,,,,,,,,,,,CAVOK,,,,,,,,VFR,,,,,,,,,,,,METAR,183.0
LRAR 021930Z 19009KT 9999 -TSRA FEW010 SCT045CB 17/14 Q1012 RESHRA,LRAR,2023-06-02T19:30:00Z,46.18,21.27,17.0,14.0,190,9,,6.21,29.88189,,,,,,,,,,-TSRA,FEW,1000,SCT,4500,,,,,VFR,,,,,,,,,,,,METAR,102.0
LQTZ 021930Z VRB02KT 8000 NSC 16/16 Q1013,LQTZ,2023-06-02T19:30:00Z,44.47,18.73,16.0,16.0,0,2,,4.97,29.911417,,,,,,,,,,,CLR,,,,,,,,MVFR,,,,,,,,,,,,METAR,242.0
LQSA 021930Z 14003KT CAVOK 15/15 Q1015,LQSA,2023-06-02T19:30:00Z,43.82,18.32,15.0,15.0,140,3,,6.21,29.970472,,,,,,,,,,,CAVOK,,,,,,,,VFR,,,,,,,,,,,,METAR,505.0
LQMO 021930Z 13002KT 9999 FEW080 19/17 Q1011,LQMO,2023-06-02T19:30:00Z,43.28,17.83,19.0,17.0,130,2,,6.21,29.852362,,,,,,,,,,,FEW,8000,,,,,,,VFR,,,,,,,,,,,,METAR,49.0
LQBK 021930Z 15003KT CAVOK 18/18 Q1013 NOSIG,LQBK,2023-06-02T19:30:00Z,44.93,17.3,18.0,18.0,150,3,,6.21,29.911417,,,,,,TRUE,,,,,CAVOK,,,,,,,,VFR,,,,,,,,,,,,METAR,114.0
LPPT 021930Z 33011KT CAVOK 21/14 Q1011,LPPT,2023-06-02T19:30:00Z,38.77,-9.13,21.0,14.0,330,11,,6.21,29.852362,,,,,,,,,,,CAVOK,,,,,,,,VFR,,,,,,,,,,,,METAR,98.0
LPPS 021930Z 33011KT 9999 SCT015 21/17 Q1013,LPPS,2023-06-02T19:30:00Z,33.07,-16.35,21.0,17.0,330,11,,6.21,29.911417,,,,,,,,,,,SCT,1500,,,,,,,VFR,,,,,,,,,,,,METAR,89.0
LPPR 021930Z 32005KT 290V350 9999 FEW030CB 18/15 Q1012,LPPR,2023-06-02T19:30:00Z,41.23,-8.68,18.0,15.0,320,5,,6.21,29.88189,,,,,,,,,,,FEW,3000,,,,,,,VFR,,,,,,,,,,,,METAR,64.0
LPPD 021930Z 12012KT 9999 SCT016 BKN040 19/16 Q1013,LPPD,2023-06-02T19:30:00Z,37.73,-25.68,19.0,16.0,120,12,,6.21,29.911417,,,,,,,,,,,SCT,1600,BKN,4000,,,,,VFR,,,,,,,,,,,,METAR,62.0
LPMA 021930Z 26003KT 210V300 9999 SCT015 21/17 Q1013,LPMA,2023-06-02T19:30:00Z,32.7,-16.77,21.0,17.0,260,3,,6.21,29.911417,,,,,,,,,,,SCT,1500,,,,,,,VFR,,,,,,,,,,,,METAR,54.0
LPHR 021930Z 29010KT 250V310 9999 FEW014 20/15 Q1011,LPHR,2023-06-02T19:30:00Z,38.52,-28.72,20.0,15.0,290,10,,6.21,29.852362,,,,,,,,,,,FEW,1400,,,,,,,VFR,,,,,,,,,,,,METAR,39.0
LPFR 021930Z 24003KT 210V290 9999 FEW030TCU 21/18 Q1011,LPFR,2023-06-02T19:30:00Z,37.02,-7.97,21.0,18.0,240,3,,6.21,29.852362,,,,,,,,,,,FEW,3000,,,,,,,VFR,,,,,,,,,,,,METAR,3.0
LPFL 021930Z 11003KT 050V160 9999 FEW016 19/16 Q1011,LPFL,2023-06-02T19:30:00Z,39.45,-31.12,19.0,16.0,110,3,,6.21,29.852362,,,,,,,,,,,FEW,1600,,,,,,,VFR,,,,,,,,,,,,METAR,35.0
LPCS 021930Z 36015KT 9999 FEW017 19/14 Q1011,LPCS,2023-06-02T19:30:00Z,38.73,-9.35,19.0,14.0,360,15,,6.21,29.852362,,,,,,,,,,,FEW,1700,,,,,,,VFR,,,,,,,,,,,,METAR,99.0
LPAZ 021930Z 13012KT 9999 FEW015 BKN039 20/16 Q1013,LPAZ,2023-06-02T19:30:00Z,36.97,-25.17,20.0,16.0,130,12,,6.21,29.911417,,,,,,,,,,,FEW,1500,BKN,3900,,,,,VFR,,,,,,,,,,,,METAR,96.0
LKTB 021930Z 06007KT 030V120 CAVOK 16/07 Q1017 NOSIG,LKTB,2023-06-02T19:30:00Z,49.15,16.68,16.0,7.0,60,7,,6.21,30.029528,,,,,,TRUE,,,,,CAVOK,,,,,,,,VFR,,,,,,,,,,,,METAR,233.0
LKPR 021930Z 02005KT CAVOK 14/06 Q1019 NOSIG,LKPR,2023-06-02T19:30:00Z,50.1,14.27,14.0,6.0,20,5,,6.21,30.088583,,,,,,TRUE,,,,,CAVOK,,,,,,,,VFR,,,,,,,,,,,,METAR,364.0
LKPD 021930Z 03006KT 350V060 CAVOK 16/07 Q1018 NOSIG RMK BLU BLU,LKPD,2023-06-02T19:30:00Z,50.02,15.73,16.0,7.0,30,6,,6.21,30.059055,,,,,,TRUE,,,,,CAVOK,,,,,,,,VFR,,,,,,,,,,,,METAR,226.0
LKNA 021930Z 03010KT 9999 BKN049 16/07 Q1017 NOSIG RMK BLU BLU,LKNA,2023-06-02T19:30:00Z,49.17,16.12,16.0,7.0,30,10,,6.21,30.029528,,,,,,TRUE,,,,,BKN,4900,,,,,,,VFR,,,,,,,,,,,,METAR,460.0
LKMT 021930Z 01011KT 9999 FEW047 13/08 Q1019 NOSIG,LKMT,2023-06-02T19:30:00Z,49.68,18.12,13.0,8.0,10,11,,6.21,30.088583,,,,,,TRUE,,,,,FEW,4700,,,,,,,VFR,,,,,,,,,,,,METAR,251.0
LKCV 021930Z 05006KT CAVOK 16/08 Q1019 NOSIG RMK BLU BLU,LKCV,2023-06-02T19:30:00Z,49.93,15.38,16.0,8.0,50,6,,6.21,30.088583,,,,,,TRUE,,,,,CAVOK,,,,,,,,VFR,,,,,,,,,,,,METAR,234.0
LJPZ 021930Z AUTO VRB01KT 9999 NCD 21/17 Q1012,LJPZ,2023-06-02T19:30:00Z,45.47,13.62,21.0,17.0,0,1,,6.21,29.88189,,,TRUE,,,,,,,,CLR,,,,,,,,VFR,,,,,,,,,,,,METAR,2.0
LJMB 021930Z AUTO 34006KT 9999 NSC 18/13 Q1014,LJMB,2023-06-02T19:30:00Z,46.47,15.67,18.0,13.0,340,6,,6.21,29.940945,,,TRUE,,,,,,,,CLR,,,,,,,,VFR,,,,,,,,,,,,METAR,263.0
LJLJ 021930Z VRB02KT 9999 FEW055 SCT250 16/15 Q1014 NOSIG,LJLJ,2023-06-02T19:30:00Z,46.22,14.47,16.0,15.0,0,2,,6.21,29.940945,,,,,,TRUE,,,,,FEW,5500,SCT,25000,,,,,VFR,,,,,,,,,,,,METAR,363.0
LJCE 021930Z AUTO 11005KT 080V150 9999 NSC 22/14 Q1013,LJCE,2023-06-02T19:30:00Z,45.9,15.52,22.0,14.0,110,5,,6.21,29.911417,,,TRUE,,,,,,,,CLR,,,,,,,,VFR,,,,,,,,,,,,METAR,153.0
LHBP 021930Z 33007KT CAVOK 19/11 Q1013 NOSIG,LHBP,2023-06-02T19:30:00Z,47.43,19.27,19.0,11.0,330,7,,6.21,29.911417,,,,,,TRUE,,,,,CAVOK,,,,,,,,VFR,,,,,,,,,,,,METAR,141.0
LFYR 021930Z AUTO 03003KT 360V070 CAVOK 21/09 Q1015,LFYR,2023-06-02T19:30:00Z,47.32,1.68,21.0,9.0,30,3,,6.21,29.970472,,,TRUE,,,,,,,,CAVOK,,,,,,,,VFR,,,,,,,,,,,,METAR,83.0
LFVP 021930Z AUTO 25011KT 9999 BKN041 OVC052 13/10 Q1017 BECMG 04003KT,LFVP,2023-06-02T19:30:00Z,46.77,-56.18,13.0,10.0,250,11,,6.21,30.029528,,,TRUE,,,,,,,,BKN,4100,OVC,5200,,,,,VFR,,,,,,,,,,,,SPECI,5.0
LFTW 021930Z AUTO 00000KT CAVOK 20/17 Q1013,LFTW,2023-06-02T19:30:00Z,43.75,4.42,20.0,17.0,0,0,,6.21,29.911417,,,TRUE,,,,,,,,CAVOK,,,,,,,,VFR,,,,,,,,,,,,METAR,91.0
LFTH 021930Z AUTO 24005KT 200V280 CAVOK 20/18 Q1013 NOSIG,LFTH,2023-06-02T19:30:00Z,43.1,6.15,20.0,18.0,240,5,,6.21,29.911417,,,TRUE,,,TRUE,,,,,CAVOK,,,,,,,,VFR,,,,,,,,,,,,METAR,3.0
LFSX 021930Z AUTO VRB03KT CAVOK 21/10 Q1014,LFSX,2023-06-02T19:30:00Z,47.77,6.35,21.0,10.0,0,3,,6.21,29.940945,,,TRUE,,,,,,,,CAVOK,,,,,,,,VFR,,,,,,,,,,,,METAR,266.0
LFST 021930Z AUTO 02011G23KT CAVOK 19/05 Q1016 NOSIG,LFST,2023-06-02T19:30:00Z,48.53,7.63,19.0,5.0,20,11,23,6.21,30.0,,,TRUE,,,TRUE,,,,,CAVOK,,,,,,,,VFR,,,,,,,,,,,,METAR,149.0
LFSO 021930Z AUTO 02007KT CAVOK 18/08 Q1016,LFSO,2023-06-02T19:30:00Z,48.57,5.97,18.0,8.0,20,7,,6.21,30.0,,,TRUE,,,,,,,,CAVOK,,,,,,,,VFR,,,,,,,,,,,,METAR,328.0
LFSN 021930Z AUTO 05008KT CAVOK 18/09 Q1016,LFSN,2023-06-02T19:30:00Z,48.68,6.22,18.0,9.0,50,8,,6.21,30.0,,,TRUE,,,,,,,,CAVOK,,,,,,,,VFR,,,,,,,,,,,,METAR,214.0
LFSL 021930Z AUTO 02002KT 9999 ///TCU 17/15 Q1014 BECMG NSC,LFSL,2023-06-02T19:30:00Z,45.03,1.48,17.0,15.0,20,2,,6.21,29.940945,,,TRUE,,,,,,,,,,,,,,,,,,,,,,,,,,,,SPECI,300.0
LFSI 021930Z AUTO 02005KT CAVOK 20/08 Q1016,LFSI,2023-06-02T19:30:00Z,48.62,4.9,20.0,8.0,20,5,,6.21,30.0,,,TRUE,,,,,,,,CAVOK,,,,,,,,VFR,,,,,,,,,,,,METAR,136.0
LFSG 021930Z AUTO 04008KT CAVOK 17/08 Q1016,LFSG,2023-06-02T19:30:00Z,48.33,6.07,17.0,8.0,40,8,,6.21,30.0,,,TRUE,,,,,,,,CAVOK,,,,,,,,VFR,,,,,,,,,,,,METAR,320.0
LFSD 021930Z AUTO 02005KT 340V040 CAVOK 21/08 Q1014,LFSD,2023-06-02T19:30:00Z,47.27,5.08,21.0,8.0,20,5,,6.21,29.940945,,,TRUE,,,,,,,,CAVOK,,,,,,,,VFR,,,,,,,,,,,,METAR,218.0
LFSB 021930Z AUTO 35012KT 9999 FEW011 SCT070 BKN088 20/09 Q1014 NOSIG,LFSB,2023-06-02T19:30:00Z,47.6,7.52,20.0,9.0,350,12,,6.21,29.940945,,,TRUE,,,TRUE,,,,,FEW,1100,SCT,7000,BKN,8800,,,VFR,,,,,,,,,,,,METAR,262.0
LFRZ 021930Z AUTO 04006KT CAVOK 21/10 Q1015 NOSIG,LFRZ,2023-06-02T19:30:00Z,47.32,-2.17,21.0,10.0,40,6,,6.21,29.970472,,,TRUE,,,TRUE,,,,,CAVOK,,,,,,,,VFR,,,,,,,,,,,,METAR,2.0
LFRV 021930Z AUTO 02013KT 340V040 CAVOK 16/10 Q1017,LFRV,2023-06-02T19:30:00Z,47.72,-2.72,16.0,10.0,20,13,,6.21,30.029528,,,TRUE,,,,,,,,CAVOK,,,,,,,,VFR,,,,,,,,,,,,METAR,132.0
LFRU 021930Z AUTO 06011KT CAVOK 13/09 Q1019,LFRU,2023-06-02T19:30:00Z,48.6,-3.82,13.0,9.0,60,11,,6.21,30.088583,,,TRUE,,,,,,,,CAVOK,,,,,,,,VFR,,,,,,,,,,,,METAR,85.0
LFRT 021930Z AUTO 04012KT 9999 BKN016 12/09 Q1019,LFRT,2023-06-02T19:30:00Z,48.53,-2.85,12.0,9.0,40,12,,6.21,30.088583,,,TRUE,,,,,,,,BKN,1600,,,,,,,MVFR,,,,,,,,,,,,METAR,134.0
LFRS 021930Z AUTO 05007KT 020V080 CAVOK 22/10 Q1015 NOSIG,LFRS,2023-06-02T19:30:00Z,47.17,-1.6,22.0,10.0,50,7,,6.21,29.970472,,,TRUE,,,TRUE,,,,,CAVOK,,,,,,,,VFR,,,,,,,,,,,,METAR,26.0
LFRQ 021930Z AUTO 04012KT CAVOK 15/09 Q1018 NOSIG,LFRQ,2023-06-02T19:30:00Z,47.97,-4.17,15.0,9.0,40,12,,6.21,30.059055,,,TRUE,,,TRUE,,,,,CAVOK,,,,,,,,VFR,,,,,,,,,,,,METAR,94.0
LFRO 021930Z AUTO 06006KT 360V090 9999 FEW020 13/09 Q1020,LFRO,2023-06-02T19:30:00Z,48.75,-3.47,13.0,9.0,60,6,,6.21,30.11811,,,TRUE,,,,,,,,FEW,2000,,,,,,,VFR,,,,,,,,,,,,METAR,86.0
LFRN 021930Z AUTO 01009KT CAVOK 18/10 Q1017 NOSIG,LFRN,2023-06-02T19:30:00Z,48.07,-1.73,18.0,10.0,10,9,,6.21,30.029528,,,TRUE,,,TRUE,,,,,CAVOK,,,,,,,,VFR,,,,,,,,,,,,METAR,35.0
LFRM 021930Z AUTO 03009KT CAVOK 20/09 Q1017 NOSIG,LFRM,2023-06-02T19:30:00Z,47.95,0.2,20.0,9.0,30,9,,6.21,30.029528,,,TRUE,,,TRUE,,,,,CAVOK,,,,,,,,VFR,,,,,,,,,,,,METAR,51.0
LFRL 021930Z AUTO 05012KT CAVOK 14/10 Q1018 TEMPO 05015G25KT,LFRL,2023-06-02T19:30:00Z,48.27,-4.43,14.0,10.0,50,12,,6.21,30.059055,,,TRUE,,,,,,,,CAVOK,,,,,,,,VFR,,,,,,,,,,,,METAR,80.0
LFRK 021930Z AUTO 03010KT 360V080 CAVOK 12/09 Q1020 NOSIG,LFRK,2023-06-02T19:30:00Z,49.17,-0.45,12.0,9.0,30,10,,6.21,30.11811,,,TRUE,,,TRUE,,,,,CAVOK,,,,,,,,VFR,,,,,,,,,,,,METAR,66.0
LFRJ 021930Z AUTO 05011KT 020V090 9999 FEW016 12/09 Q1019,LFRJ,2023-06-02T19:30:00Z,48.52,-4.15,12.0,9.0,50,11,,6.21,30.088583,,,TRUE,,,,,,,,FEW,1600,,,,,,,VFR,,,,,,,,,,,,METAR,109.0
LFRI 021930Z AUTO 03007KT CAVOK 21/12 Q1015 NOSIG,LFRI,2023-06-02T19:30:00Z,46.7,-1.37,21.0,12.0,30,7,,6.21,29.970472,,,TRUE,,,TRUE,,,,,CAVOK,,,,,,,,VFR,,,,,,,,,,,,METAR,89.0
LFRH 021930Z AUTO 03013KT CAVOK 15/09 Q1017 NOSIG,LFRH,2023-06-02T19:30:00Z,47.77,-3.45,15.0,9.0,30,13,,6.21,30.029528,,,TRUE,,,TRUE,,,,,CAVOK,,,,,,,,VFR,,,,,,,,,,,,METAR,46.0
LFRG 021930Z AUTO 03008KT 350V090 CAVOK 12/08 Q1020 NOSIG,LFRG,2023-06-02T19:30:00Z,49.37,0.15,12.0,8.0,30,8,,6.21,30.11811,,,TRUE,,,TRUE,,,,,CAVOK,,,,,,,,VFR,,,,,,,,,,,,METAR,146.0
LFRD 021930Z AUTO 04012KT CAVOK 13/09 Q1019 NOSIG,LFRD,2023-06-02T19:30:00Z,48.58,-2.07,13.0,9.0,40,12,,6.21,30.088583,,,TRUE,,,TRUE,,,,,CAVOK,,,,,,,,VFR,,,,,,,,,,,,METAR,56.0
LFRC 021930Z AUTO 09010KT CAVOK 11/08 Q1021,LFRC,2023-06-02T19:30:00Z,49.63,-1.47,11.0,8.0,90,10,,6.21,30.147638,,,TRUE,,,,,,,,CAVOK,,,,,,,,VFR,,,,,,,,,,,,METAR,137.0
LFRB 021930Z AUTO 05014KT CAVOK 13/09 Q1019 NOSIG,LFRB,2023-06-02T19:30:00Z,48.45,-4.42,13.0,9.0,50,14,,6.21,30.088583,,,TRUE,,,TRUE,,,,,CAVOK,,,,,,,,VFR,,,,,,,,,,,,METAR,91.0
LFQQ 021930Z AUTO 35012KT CAVOK 15/11 Q1020 NOSIG,LFQQ,2023-06-02T19:30:00Z,50.57,3.1,15.0,11.0,350,12,,6.21,30.11811,,,TRUE,,,TRUE,,,,,CAVOK,,,,,,,,VFR,,,,,,,,,,,,METAR,43.0
LFQB 021930Z AUTO 36008KT CAVOK 19/09 Q1016,LFQB,2023-06-02T19:30:00Z,48.32,4.02,19.0,9.0,360,8,,6.21,30.0,,,TRUE,,,,,,,,CAVOK,,,,,,,,VFR,,,,,,,,,,,,METAR,107.0
LFQA 021930Z AUTO 01009KT CAVOK 16/08 Q1017,LFQA,2023-06-02T19:30:00Z,49.2,4.15,16.0,8.0,10,9,,6.21,30.029528,,,TRUE,,,,,,,,CAVOK,,,,,,,,VFR,,,,,,,,,,,,METAR,92.0
LFPV 021930Z AUTO 03008KT CAVOK 16/08 Q1018 NOSIG,LFPV,2023-06-02T19:30:00Z,48.77,2.2,16.0,8.0,30,8,,6.21,30.059055,,,TRUE,,,TRUE,,,,,CAVOK,,,,,,,,VFR,,,,,,,,,,,,METAR,171.0
LFPT 021930Z AUTO 03008KT CAVOK 16/06 Q1018,LFPT,2023-06-02T19:30:00Z,49.1,2.03,16.0,6.0,30,8,,6.21,30.059055,,,TRUE,,,,,,,,CAVOK,,,,,,,,VFR,,,,,,,,,,,,METAR,91.0
LFPO 021930Z AUTO 04010KT 360V060 CAVOK 17/08 Q1018 NOSIG,LFPO,2023-06-02T19:30:00Z,48.72,2.38,17.0,8.0,40,10,,6.21,30.059055,,,TRUE,,,TRUE,,,,,CAVOK,,,,,,,,VFR,,,,,,,,,,,,METAR,88.0
LFPN 021930Z AUTO 03007KT CAVOK 16/07 Q1018 NOSIG,LFPN,2023-06-02T19:30:00Z,48.75,2.12,16.0,7.0,30,7,,6.21,30.059055,,,TRUE,,,TRUE,,,,,CAVOK,,,,,,,,VFR,,,,,,,,,,,,METAR,152.0
LFPM 021930Z AUTO 02006KT 350V060 CAVOK 16/08 Q1017,LFPM,2023-06-02T19:30:00Z,48.62,2.67,16.0,8.0,20,6,,6.21,30.029528,,,TRUE,,,,,,,,CAVOK,,,,,,,,VFR,,,,,,,,,,,,METAR,91.0
LFPG 021930Z 02008KT 360V110 CAVOK 17/08 Q1018 NOSIG,LFPG,2023-06-02T19:30:00Z,49.02,2.53,17.0,8.0,20,8,,6.21,30.059055,,,,,,TRUE,,,,,CAVOK,,,,,,,,VFR,,,,,,,,,,,,METAR,107.0
LFPB 021930Z AUTO 01006KT 340V050 CAVOK 17/07 Q1018 NOSIG,LFPB,2023-06-02T19:30:00Z,48.97,2.42,17.0,7.0,10,6,,6.21,30.059055,,,TRUE,,,TRUE,,,,,CAVOK,,,,,,,,VFR,,,,,,,,,,,,METAR,50.0
LFOZ 021930Z AUTO 03004KT CAVOK 18/09 Q1017,LFOZ,2023-06-02T19:30:00Z,47.9,2.17,18.0,9.0,30,4,,6.21,30.029528,,,TRUE,,,,,,,,CAVOK,,,,,,,,VFR,,,,,,,,,,,,METAR,121.0
LFOV 021930Z AUTO 02011KT CAVOK 18/11 Q1017,LFOV,2023-06-02T19:30:00Z,48.03,-0.75,18.0,11.0,20,11,,6.21,30.029528,,,TRUE,,,,,,,,CAVOK,,,,,,,,VFR,,,,,,,,,,,,METAR,99.0
LFOT 021930Z AUTO 03005KT 350V070 CAVOK 19/10 Q1016 NOSIG,LFOT,2023-06-02T19:30:00Z,47.43,0.72,19.0,10.0,30,5,,6.21,30.0,,,TRUE,,,TRUE,,,,,CAVOK,,,,,,,,VFR,,,,,,,,,,,,METAR,107.0
LFOP 021930Z AUTO 03009KT CAVOK 14/08 Q1019,LFOP,2023-06-02T19:30:00Z,49.37,1.17,14.0,8.0,30,9,,6.21,30.088583,,,TRUE,,,,,,,,CAVOK,,,,,,,,VFR,,,,,,,,,,,,METAR,149.0
LFOK 021930Z AUTO 01011KT CAVOK 16/09 Q1016 NOSIG,LFOK,2023-06-02T19:30:00Z,48.78,4.15,16.0,9.0,10,11,,6.21,30.0,,,TRUE,,,TRUE,,,,,CAVOK,,,,,,,,VFR,,,,,,,,,,,,METAR,166.0
LFOJ 021930Z AUTO 02007KT CAVOK 17/09 Q1016 NOSIG,LFOJ,2023-06-02T19:30:00Z,47.98,1.75,17.0,9.0,20,7,,6.21,30.0,,,TRUE,,,TRUE,,,,,CAVOK,,,,,,,,VFR,,,,,,,,,,,,METAR,122.0
LFOH 021930Z AUTO 04013KT CAVOK 12/08 Q1020,LFOH,2023-06-02T19:30:00Z,49.52,0.08,12.0,8.0,40,13,,6.21,30.11811,,,TRUE,,,,,,,,CAVOK,,,,,,,,VFR,,,,,,,,,,,,METAR,87.0
LFOE 021930Z AUTO 04006KT 360V070 CAVOK 16/08 Q1019 NOSIG,LFOE,2023-06-02T19:30:00Z,49.02,1.22,16.0,8.0,40,6,,6.21,30.088583,,,TRUE,,,TRUE,,,,,CAVOK,,,,,,,,VFR,,,,,,,,,,,,METAR,132.0
LFOB 021930Z AUTO 02006KT CAVOK 14/07 Q1019 NOSIG,LFOB,2023-06-02T19:30:00Z,49.47,2.12,14.0,7.0,20,6,,6.21,30.088583,,,TRUE,,,TRUE,,,,,CAVOK,,,,,,,,VFR,,,,,,,,,,,,METAR,99.0
LFOA 021930Z AUTO 04008KT CAVOK 20/11 Q1015,LFOA,2023-06-02T19:30:00Z,47.05,2.63,20.0,11.0,40,8,,6.21,29.970472,,,TRUE,,,,,,,,CAVOK,,,,,,,,VFR,,,,,,,,,,,,METAR,174.0
LFMY 021930Z AUTO 00000KT CAVOK 19/16 Q1013,LFMY,2023-06-02T19:30:00Z,43.6,5.1,19.0,16.0,0,0,,6.21,29.911417,,,TRUE,,,,,,,,CAVOK,,,,,,,,VFR,,,,,,,,,,,,METAR,57.0
LFMV 021930Z AUTO VRB03KT CAVOK 20/16 Q1013 NOSIG,LFMV,2023-06-02T19:30:00Z,43.9,4.9,20.0,16.0,0,3,,6.21,29.911417,,,TRUE,,,TRUE,,,,,CAVOK,,,,,,,,VFR,,,,,,,,,,,,METAR,33.0
LFMU 021930Z AUTO 17004KT 140V200 CAVOK 21/17 Q1013 TEMPO BKN004,LFMU,2023-06-02T19:30:00Z,43.32,3.35,21.0,17.0,170,4,,6.21,29.911417,,,TRUE,,,,,,,,CAVOK,,,,,,,,VFR,,,,,,,,,,,,METAR,14.0
LFMT 021930Z AUTO 18005KT 9999 FEW017 21/17 Q1013 NOSIG,LFMT,2023-06-02T19:30:00Z,43.57,3.97,21.0,17.0,180,5,,6.21,29.911417,,,TRUE,,,TRUE,,,,,FEW,1700,,,,,,,VFR,,,,,,,,,,,,METAR,1.0
LFMP 021930Z AUTO VRB02KT 9999 BKN084 21/14 Q1013 NOSIG,LFMP,2023-06-02T19:30:00Z,42.73,2.87,21.0,14.0,0,2,,6.21,29.911417,,,TRUE,,,TRUE,,,,,BKN,8400,,,,,,,VFR,,,,,,,,,,,,METAR,41.0
LFMO 021930Z AUTO 33006KT CAVOK 19/17 Q1014 NOSIG,LFMO,2023-06-02T19:30:00Z,44.13,4.87,19.0,17.0,330,6,,6.21,29.940945,,,TRUE,,,TRUE,,,,,CAVOK,,,,,,,,VFR,,,,,,,,,,,,METAR,56.0
LFMN 021930Z 22008KT CAVOK 21/17 Q1013 NOSIG,LFMN,2023-06-02T19:30:00Z,43.65,7.2,21.0,17.0,220,8,,6.21,29.911417,,,,,,TRUE,,,,,CAVOK,,,,,,,,VFR,,,,,,,,,,,,METAR,4.0
LFML 021930Z AUTO VRB02KT CAVOK 21/15 Q1013 NOSIG,LFML,2023-06-02T19:30:00Z,43.45,5.22,21.0,15.0,0,2,,6.21,29.911417,,,TRUE,,,TRUE,,,,,CAVOK,,,,,,,,VFR,,,,,,,,,,,,METAR,20.0
LFMK 021930Z AUTO VRB02KT CAVOK 20/16 Q1012,LFMK,2023-06-02T19:30:00Z,43.22,2.32,20.0,16.0,0,2,,6.21,29.88189,,,TRUE,,,,,,,,CAVOK,,,,,,,,VFR,,,,,,,,,,,,METAR,124.0
LFMI 021930Z AUTO 17002KT CAVOK 20/17 Q1013 NOSIG,LFMI,2023-06-02T19:30:00Z,43.52,4.93,20.0,17.0,170,2,,6.21,29.911417,,,TRUE,,,TRUE,,,,,CAVOK,,,,,,,,VFR,,,,,,,,,,,,METAR,20.0
LFMH 021930Z AUTO 17013KT 9999 ///CB 19/12 Q1015,LFMH,2023-06-02T19:30:00Z,45.52,4.28,19.0,12.0,170,13,,6.21,29.970472,,,TRUE,,,,,,,,,,,,,,,,,,,,,,,,,,,,SPECI,400.0
LFMD 021930Z AUTO VRB02KT CAVOK 21/16 Q1012 NOSIG,LFMD,2023-06-02T19:30:00Z,43.53,6.95,21.0,16.0,0,2,,6.21,29.88189,,,TRUE,,,TRUE,,,,,CAVOK,,,,,,,,VFR,,,,,,,,,,,,METAR,2.0
LFMC 021930Z AUTO 24006KT 9999 ////// 19/16 Q1013,LFMC,2023-06-02T19:30:00Z,43.37,6.38,19.0,16.0,240,6,,6.21,29.911417,,,TRUE,,,,,,,,,,,,,,,,,,,,,,,,,,,,METAR,79.0
LFLY 021930Z AUTO 21013KT 9999 -TSRA FEW021/// BKN066/// OVC100/// ///CB 16/15 Q1014 BECMG NSW NSC,LFLY,2023-06-02T19:30:00Z,45.72,4.95,16.0,15.0,210,13,,6.21,29.940945,,,TRUE,,,,,,,-TSRA,FEW,2100,BKN,6600,OVC,10000,,,VFR,,,,,,,,,,,,SPECI,197.0
LFLX 021930Z AUTO 03008KT CAVOK 19/11 Q1015 NOSIG,LFLX,2023-06-02T19:30:00Z,46.87,1.73,19.0,11.0,30,8,,6.21,29.970472,,,TRUE,,,TRUE,,,,,CAVOK,,,,,,,,VFR,,,,,,,,,,,,METAR,157.0
LFLW 021930Z AUTO 09005KT 9999 ///CB 15/12 Q1016 BECMG NSC,LFLW,2023-06-02T19:30:00Z,44.88,2.42,15.0,12.0,90,5,,6.21,30.0,,,TRUE,,,,,,,,,,,,,,,,,,,,,,,,,,,,METAR,638.0
LFLS 021930Z AUTO 30005KT 240V330 9999 VCTS FEW021/// BKN094/// OVC120/// ///CB 16/14 Q1016,LFLS,2023-06-02T19:30:00Z,45.37,5.32,16.0,14.0,300,5,,6.21,30.0,,,TRUE,,,,,,,VCTS,FEW,2100,BKN,9400,OVC,12000,,,VFR,,,,,,,,,,,,SPECI,386.0
LFLP 021930Z AUTO VRB01KT CAVOK 18/13 Q1015,LFLP,2023-06-02T19:30:00Z,45.92,6.1,18.0,13.0,0,1,,6.21,29.970472,,,TRUE,,,,,,,,CAVOK,,,,,,,,VFR,,,,,,,,,,,,METAR,460.0
LFLN 021930Z AUTO 02006KT CAVOK 22/11 Q1014,LFLN,2023-06-02T19:30:00Z,46.42,4.02,22.0,11.0,20,6,,6.21,29.940945,,,TRUE,,,,,,,,CAVOK,,,,,,,,VFR,,,,,,,,,,,,METAR,238.0
LFLL 021930Z 20010KT 9999 4200 -RA SCT060CB FEW060 BKN100 17/14 Q1015 RETSRA BECMG CAVOK,LFLL,2023-06-02T19:30:00Z,45.72,5.07,17.0,14.0,200,10,,6.21,29.970472,,,,,,,,,,-RA,SCT,6000,FEW,6000,BKN,10000,,,VFR,,,,,,,,,,,,SPECI,234.0
LFLC 021930Z AUTO 19005KT 120V260 9999 BKN058/// BKN068/// BKN090/// //////CB 20/13 Q1014 BECMG NSC,LFLC,2023-06-02T19:30:00Z,45.78,3.17,20.0,13.0,190,5,,6.21,29.940945,,,TRUE,,,,,,,,BKN,5800,BKN,6800,BKN,9000,,,VFR,,,,,,,,,,,,METAR,325.0
LFLB 021930Z AUTO 21007KT 170V260 9999 //////CB 19/15 Q1014,LFLB,2023-06-02T19:30:00Z,45.63,5.87,19.0,15.0,210,7,,6.21,29.940945,,,TRUE,,,,,,,,,,,,,,,,,,,,,,,,,,,,METAR,234.0
LFKS 021930Z AUTO VRB02KT CAVOK 20/16 Q1013,LFKS,2023-06-02T19:30:00Z,41.92,9.4,20.0,16.0,0,2,,6.21,29.911417,,,TRUE,,,,,,,,CAVOK,,,,,,,,VFR,,,,,,,,,,,,METAR,22.0
LFKJ 021930Z AUTO 08003KT CAVOK 21/16 Q1013 NOSIG,LFKJ,2023-06-02T19:30:00Z,41.92,8.8,21.0,16.0,80,3,,6.21,29.911417,,,TRUE,,,TRUE,,,,,CAVOK,,,,,,,,VFR,,,,,,,,,,,,METAR,9.0
LFKF 021930Z AUTO 15003KT CAVOK 20/16 Q1014 NOSIG,LFKF,2023-06-02T19:30:00Z,41.5,9.08,20.0,16.0,150,3,,6.21,29.940945,,,TRUE,,,TRUE,,,,,CAVOK,,,,,,,,VFR,,,,,,,,,,,,METAR,15.0
LFKC 021930Z AUTO VRB02KT CAVOK 19/16 Q1013 NOSIG,LFKC,2023-06-02T19:30:00Z,42.52,8.8,19.0,16.0,0,2,,6.21,29.911417,,,TRUE,,,TRUE,,,,,CAVOK,,,,,,,,VFR,,,,,,,,,,,,METAR,38.0
LFKB 021930Z AUTO 23003KT CAVOK 19/16 Q1013 NOSIG,LFKB,2023-06-02T19:30:00Z,42.55,9.48,19.0,16.0,230,3,,6.21,29.911417,,,TRUE,,,TRUE,,,,,CAVOK,,,,,,,,VFR,,,,,,,,,,,,METAR,7.0
LFJR 021930Z AUTO 03006KT 010V070 CAVOK 20/09 Q1016,LFJR,2023-06-02T19:30:00Z,47.57,-0.32,20.0,9.0,30,6,,6.21,30.0,,,TRUE,,,,,,,,CAVOK,,,,,,,,VFR,,,,,,,,,,,,METAR,50.0
LFJL 021930Z AUTO 05008KT CAVOK 18/08 Q1016 NOSIG,LFJL,2023-06-02T19:30:00Z,48.97,6.25,18.0,8.0,50,8,,6.21,30.0,,,TRUE,,,TRUE,,,,,CAVOK,,,,,,,,VFR,,,,,,,,,,,,METAR,259.0
LFGJ 021930Z AUTO 01008KT CAVOK 20/11 Q1014,LFGJ,2023-06-02T19:30:00Z,47.05,5.43,20.0,11.0,10,8,,6.21,29.940945,,,TRUE,,,,,,,,CAVOK,,,,,,,,VFR,,,,,,,,,,,,METAR,191.0
LFGA 021930Z AUTO 01010KT CAVOK 20/06 Q1015,LFGA,2023-06-02T19:30:00Z,48.1,7.35,20.0,6.0,10,10,,6.21,29.970472,,,TRUE,,,,,,,,CAVOK,,,,,,,,VFR,,,,,,,,,,,,METAR,191.0
LFCR 021930Z AUTO 10002KT CAVOK 16/13 Q1015 NOSIG,LFCR,2023-06-02T19:30:00Z,44.4,2.47,16.0,13.0,100,2,,6.21,29.970472,,,TRUE,,,TRUE,,,,,CAVOK,,,,,,,,VFR,,,,,,,,,,,,METAR,576.0
LFCK 021930Z AUTO 11005KT CAVOK 18/15 Q1014 NOSIG,LFCK,2023-06-02T19:30:00Z,43.55,2.28,18.0,15.0,110,5,,6.21,29.940945,,,TRUE,,,TRUE,,,,,CAVOK,,,,,,,,VFR,,,,,,,,,,,,METAR,223.0
LFBZ 021930Z AUTO VRB03KT CAVOK 21/16 Q1012 TEMPO 08020G30KT 3000 SHRA BKN040CB,LFBZ,2023-06-02T19:30:00Z,43.47,-1.53,21.0,16.0,0,3,,6.21,29.88189,,,TRUE,,,,,,,,CAVOK,,,,,,,,VFR,,,,,,,,,,,,SPECI,70.0
LFBY 021930Z AUTO VRB02KT 9999 // ////// 21/15 Q1012,LFBY,2023-06-02T19:30:00Z,43.68,-1.07,21.0,15.0,0,2,,6.21,29.88189,,,TRUE,,,,,,,,,,,,,,,,,,,,,,,,,,,,METAR,32.0
LFBX 021930Z AUTO VRB02KT 9999 //////CB 19/16 Q1013,LFBX,2023-06-02T19:30:00Z,45.2,0.82,19.0,16.0,0,2,,6.21,29.911417,,,TRUE,,,,,,,,,,,,,,,,,,,,,,,,,,,,METAR,97.0
LFBU 021930Z AUTO 01004KT CAVOK 23/14 Q1013 NOSIG,LFBU,2023-06-02T19:30:00Z,45.72,0.22,23.0,14.0,10,4,,6.21,29.911417,,,TRUE,,,TRUE,,,,,CAVOK,,,,,,,,VFR,,,,,,,,,,,,METAR,124.0
LFBT 021930Z AUTO VRB02KT 7000 RA OVC092/// //////CB 17/14 Q1014 BECMG NSW SCT090,LFBT,2023-06-02T19:30:00Z,43.18,0.0,17.0,14.0,0,2,,4.35,29.940945,,,TRUE,,,,,,,RA,OVC,9200,,,,,,,MVFR,,,,,,,,,,,,METAR,359.0
LFBP 021930Z AUTO 12004KT 080V140 9999 FEW064/// BKN150/// //////CB 20/17 Q1013 TEMPO VRB15G25KT 4000 TSRA,LFBP,2023-06-02T19:30:00Z,43.38,-0.42,20.0,17.0,120,4,,6.21,29.911417,,,TRUE,,,,,,,,FEW,6400,BKN,15000,,,,,VFR,,,,,,,,,,,,METAR,182.0
LFBO 021930Z AUTO 21004KT CAVOK 21/15 Q1013 NOSIG,LFBO,2023-06-02T19:30:00Z,43.62,1.37,21.0,15.0,210,4,,6.21,29.911417,,,TRUE,,,TRUE,,,,,CAVOK,,,,,,,,VFR,,,,,,,,,,,,METAR,150.0
LFBM 021930Z AUTO 09004KT 070V130 CAVOK 24/15 Q1012 TEMPO 3000 -TSRA SCT040CB,LFBM,2023-06-02T19:30:00Z,43.92,-0.5,24.0,15.0,90,4,,6.21,29.88189,,,TRUE,,,,,,,,CAVOK,,,,,,,,VFR,,,,,,,,,,,,SPECI,56.0
LFBL 021930Z AUTO 01006KT 9999 FEW007 21/13 Q1015 NOSIG,LFBL,2023-06-02T19:30:00Z,45.87,1.17,21.0,13.0,10,6,,6.21,29.970472,,,TRUE,,,TRUE,,,,,FEW,700,,,,,,,VFR,,,,,,,,,,,,METAR,402.0
LFBI 021930Z AUTO 02010KT CAVOK 21/10 Q1015 NOSIG,LFBI,2023-06-02T19:30:00Z,46.58,0.32,21.0,10.0,20,10,,6.21,29.970472,,,TRUE,,,TRUE,,,,,CAVOK,,,,,,,,VFR,,,,,,,,,,,,METAR,117.0
LFBH 021930Z AUTO 04008KT CAVOK 23/13 Q1014 NOSIG,LFBH,2023-06-02T19:30:00Z,46.18,-1.2,23.0,13.0,40,8,,6.21,29.940945,,,TRUE,,,TRUE,,,,,CAVOK,,,,,,,,VFR,,,,,,,,,,,,METAR,18.0
LFBG 021930Z AUTO 02008KT CAVOK 25/14 Q1013 NOSIG,LFBG,2023-06-02T19:30:00Z,45.67,-0.32,25.0,14.0,20,8,,6.21,29.911417,,,TRUE,,,TRUE,,,,,CAVOK,,,,,,,,VFR,,,,,,,,,,,,METAR,28.0
LFBE 021930Z AUTO VRB03KT 9999 ///TCU 18/17 Q1013 TEMPO 4000 SHRA SCT050CB BKN060TCU,LFBE,2023-06-02T19:30:00Z,44.82,0.52,18.0,17.0,0,3,,6.21,29.911417,,,TRUE,,,,,,,,,,,,,,,,,,,,,,,,,,,,METAR,49.0
LFBD 021930Z AUTO 09008KT 040V110 CAVOK 25/14 Q1012 NOSIG,LFBD,2023-06-02T19:30:00Z,44.82,-0.7,25.0,14.0,90,8,,6.21,29.88189,,,TRUE,,,TRUE,,,,,CAVOK,,,,,,,,VFR,,,,,,,,,,,,METAR,48.0
LFBC 021930Z AUTO 12007KT 090V150 9999 //////CB 23/14 Q1012,LFBC,2023-06-02T19:30:00Z,44.52,-1.12,23.0,14.0,120,7,,6.21,29.88189,,,TRUE,,,,,,,,,,,,,,,,,,,,,,,,,,,,METAR,22.0
LFBA 021930Z AUTO 13004KT CAVOK 19/16 Q1013 BECMG FEW050CB SCT080,LFBA,2023-06-02T19:30:00Z,44.17,0.6,19.0,16.0,130,4,,6.21,29.911417,,,TRUE,,,,,,,,CAVOK,,,,,,,,VFR,,,,,,,,,,,,SPECI,68.0
LFAT 021930Z AUTO 03007KT 360V060 9999 OVC023 13/09 Q1021,LFAT,2023-06-02T19:30:00Z,50.52,1.62,13.0,9.0,30,7,,6.21,30.147638,,,TRUE,,,,,,,,OVC,2300,,,,,,,MVFR,,,,,,,,,,,,METAR,2.0
LFAQ 021930Z AUTO 36006KT CAVOK 13/09 Q1019,LFAQ,2023-06-02T19:30:00Z,49.97,2.7,13.0,9.0,360,6,,6.21,30.088583,,,TRUE,,,,,,,,CAVOK,,,,,,,,VFR,,,,,,,,,,,,METAR,107.0
LFAC 021930Z AUTO 04016KT 9999 OVC012 12/10 Q1021,LFAC,2023-06-02T19:30:00Z,50.97,1.95,12.0,10.0,40,16,,6.21,30.147638,,,TRUE,,,,,,,,OVC,1200,,,,,,,MVFR,,,,,,,,,,,,METAR,3.0
LEZL 021930Z 01011KT 9999 TS VCSH SCT030CB BKN047 20/16 Q1012 NOSIG,LEZL,2023-06-02T19:30:00Z,37.42,-5.9,20.0,16.0,10,11,,6.21,29.88189,,,,,,TRUE,,,,TS VCSH,SCT,3000,BKN,4700,,,,,VFR,,,,,,,,,,,,METAR,26.0
LEZG 021930Z 10005KT 9999 FEW040 26/05 Q1011,LEZG,2023-06-02T19:30:00Z,41.67,-1.02,26.0,5.0,100,5,,6.21,29.852362,,,,,,,,,,,FEW,4000,,,,,,,VFR,,,,,,,,,,,,METAR,245.0
LEXJ 021930Z 07003KT 350V140 CAVOK 21/17 Q1012,LEXJ,2023-06-02T19:30:00Z,43.42,-3.82,21.0,17.0,70,3,,6.21,29.88189,,,,,,,,,,,CAVOK,,,,,,,,VFR,,,,,,,,,,,,METAR,1.0
LEVX 021930Z 27005KT 9999 VCTS FEW100CB 20/15 Q1012 NOSIG,LEVX,2023-06-02T19:30:00Z,42.23,-8.62,20.0,15.0,270,5,,6.21,29.88189,,,,,,TRUE,,,,VCTS,FEW,10000,,,,,,,VFR,,,,,,,,,,,,METAR,253.0
LEVT 021930Z VRB01KT CAVOK 16/15 Q1014,LEVT,2023-06-02T19:30:00Z,42.87,-2.72,16.0,15.0,0,1,,6.21,29.940945,,,,,,,,,,,CAVOK,,,,,,,,VFR,,,,,,,,,,,,METAR,501.0
LEVS 021930Z 14001KT 9999 VCTS VCSH SCT050CB BKN065 17/13 Q1014,LEVS,2023-06-02T19:30:00Z,40.37,-3.78,17.0,13.0,140,1,,6.21,29.940945,,,,,,,,,,VCTS VCSH,SCT,5000,BKN,6500,,,,,VFR,,,,,,,,,,,,METAR,683.0
LEVD 021930Z 07003KT 9999 FEW040CB 18/13 Q1014,LEVD,2023-06-02T19:30:00Z,41.72,-4.85,18.0,13.0,70,3,,6.21,29.940945,,,,,,,,,,,FEW,4000,,,,,,,VFR,,,,,,,,,,,,METAR,844.0
LEVC 021930Z 13005KT CAVOK 21/16 Q1013 NOSIG,LEVC,2023-06-02T19:30:00Z,39.5,-0.47,21.0,16.0,130,5,,6.21,29.911417,,,,,,TRUE,,,,,CAVOK,,,,,,,,VFR,,,,,,,,,,,,METAR,58.0
LETU 021930Z AUTO 18004KT 9999 //////CB 25/08 Q1012,LETU,2023-06-02T19:30:00Z,,,25.0,8.0,180,4,,6.21,29.88189,,,TRUE,,,,,,,,,,,,,,,,,,,,,,,,,,,,METAR,
LETO 021930Z 20007KT 9999 -SHRA BKN065CB 17/14 Q1013 BECMG NSW NSC,LETO,2023-06-02T19:30:00Z,40.48,-3.47,17.0,14.0,200,7,,6.21,29.911417,,,,,,,,,,-SHRA,BKN,6500,,,,,,,VFR,,,,,,,,,,,,SPECI,598.0
LETL 021930Z AUTO VRB04KT 9999 FEW043 16/11 Q1016,LETL,2023-06-02T19:30:00Z,40.42,-1.22,16.0,11.0,0,4,,6.21,30.0,,,TRUE,,,,,,,,FEW,4300,,,,,,,VFR,,,,,,,,,,,,METAR,1024.0
LEST 021930Z 04004G14KT 330V100 9999 FEW035 FEW070CB 20/13 Q1013 NOSIG,LEST,2023-06-02T19:30:00Z,42.88,-8.42,20.0,13.0,40,4,14,6.21,29.911417,,,,,,TRUE,,,,,FEW,3500,FEW,7000,,,,,VFR,,,,,,,,,,,,METAR,363.0
LESO 021930Z 25003KT 210V290 CAVOK 22/17 Q1012,LESO,2023-06-02T19:30:00Z,43.35,-1.8,22.0,17.0,250,3,,6.21,29.88189,,,,,,,,,,,CAVOK,,,,,,,,VFR,,,,,,,,,,,,METAR,3.0
LESB 021930Z AUTO 18003KT CAVOK 21/15 Q1013,LESB,2023-06-02T19:30:00Z,39.6,2.7,21.0,15.0,180,3,,6.21,29.911417,,,TRUE,,,,,,,,CAVOK,,,,,,,,VFR,,,,,,,,,,,,METAR,48.0
LESA 021930Z AUTO 11002KT CAVOK 18/12 Q1014,LESA,2023-06-02T19:30:00Z,40.95,-5.5,18.0,12.0,110,2,,6.21,29.940945,,,TRUE,,,,,,,,CAVOK,,,,,,,,VFR,,,,,,,,,,,,METAR,788.0
LERT 021930Z 19006KT 150V220 CAVOK 21/17 Q1011 NOSIG,LERT,2023-06-02T19:30:00Z,36.63,-6.33,21.0,17.0,190,6,,6.21,29.852362,,,,,,TRUE,,,,,CAVOK,,,,,,,,VFR,,,,,,,,,,,,METAR,27.0
LERS 021930Z 21003KT 160V240 9999 FEW020 20/17 Q1013,LERS,2023-06-02T19:30:00Z,41.13,1.17,20.0,17.0,210,3,,6.21,29.911417,,,,,,,,,,,FEW,2000,,,,,,,VFR,,,,,,,,,,,,METAR,68.0
LEPP 021930Z 13003KT 100V230 CAVOK 19/13 Q1013,LEPP,2023-06-02T19:30:00Z,42.77,-1.65,19.0,13.0,130,3,,6.21,29.911417,,,,,,,,,,,CAVOK,,,,,,,,VFR,,,,,,,,,,,,METAR,448.0
LEPA 021930Z 21003KT 9999 FEW030 22/17 Q1013 NOSIG,LEPA,2023-06-02T19:30:00Z,39.55,2.73,22.0,17.0,210,3,,6.21,29.911417,,,,,,TRUE,,,,,FEW,3000,,,,,,,VFR,,,,,,,,,,,,METAR,8.0
LEMI 021930Z 11005KT 9999 SCT015 18/16 Q1013,LEMI,2023-06-02T19:30:00Z,37.8,-1.12,18.0,16.0,110,5,,6.21,29.911417,,,,,,,,,,,SCT,1500,,,,,,,VFR,,,,,,,,,,,,METAR,193.0
LEMH 021930Z 17003KT 140V280 9999 FEW023 19/16 Q1014,LEMH,2023-06-02T19:30:00Z,39.87,4.22,19.0,16.0,170,3,,6.21,29.940945,,,,,,,,,,,FEW,2300,,,,,,,VFR,,,,,,,,,,,,METAR,82.0
LEMG 021930Z 12004KT 080V150 9999 FEW013 20/18 Q1012 NOSIG,LEMG,2023-06-02T19:30:00Z,36.67,-4.47,20.0,18.0,120,4,,6.21,29.88189,,,,,,TRUE,,,,,FEW,1300,,,,,,,VFR,,,,,,,,,,,,METAR,5.0
LEMD 021930Z 08002KT 9999 -SHRA FEW065CB BKN075 16/14 Q1014 BECMG NSW NSC,LEMD,2023-06-02T19:30:00Z,40.45,-3.57,16.0,14.0,80,2,,6.21,29.940945,,,,,,,,,,-SHRA,FEW,6500,BKN,7500,,,,,VFR,,,,,,,,,,,,SPECI,589.0
LELO 021930Z 25005KT 9999 FEW045 20/12 Q1013,LELO,2023-06-02T19:30:00Z,42.45,-2.32,20.0,12.0,250,5,,6.21,29.911417,,,,,,,,,,,FEW,4500,,,,,,,VFR,,,,,,,,,,,,METAR,352.0
LELN 021930Z AUTO 12008KT 9999 -RA BKN059 19/10 Q1015,LELN,2023-06-02T19:30:00Z,42.58,-5.65,19.0,10.0,120,8,,6.21,29.970472,,,TRUE,,,,,,,-RA,BKN,5900,,,,,,,VFR,,,,,,,,,,,,METAR,911.0
LELL 021930Z AUTO 10003KT 070V140 9999 FEW018 20/16 Q1014,LELL,2023-06-02T19:30:00Z,41.52,2.1,20.0,16.0,100,3,,6.21,29.940945,,,TRUE,,,,,,,,FEW,1800,,,,,,,VFR,,,,,,,,,,,,METAR,136.0
LELC 021930Z 09006KT 050V140 9999 BKN016 22/18 Q1013 NOSIG,LELC,2023-06-02T19:30:00Z,37.77,-0.8,22.0,18.0,90,6,,6.21,29.911417,,,,,,TRUE,,,,,BKN,1600,,,,,,,MVFR,,,,,,,,,,,,METAR,3.0
LEIB 021930Z 12003KT 080V160 9999 FEW020 21/17 Q1013 NOSIG,LEIB,2023-06-02T19:30:00Z,38.87,1.38,21.0,17.0,120,3,,6.21,29.911417,,,,,,TRUE,,,,,FEW,2000,,,,,,,VFR,,,,,,,,,,,,METAR,4.0
LEHC 021930Z AUTO 09008KT CAVOK 19/11 Q1014,LEHC,2023-06-02T19:30:00Z,42.08,-0.32,19.0,11.0,90,8,,6.21,29.940945,,,TRUE,,,,,,,,CAVOK,,,,,,,,VFR,,,,,,,,,,,,METAR,540.0
LEGR 021930Z 00000KT 9999 FEW040 SCT100 19/13 Q1013,LEGR,2023-06-02T19:30:00Z,37.18,-3.78,19.0,13.0,0,0,,6.21,29.911417,,,,,,,,,,,FEW,4000,SCT,10000,,,,,VFR,,,,,,,,,,,,METAR,560.0
LEGE 021930Z 22003KT 190V260 CAVOK 18/15 Q1013,LEGE,2023-06-02T19:30:00Z,41.9,2.77,18.0,15.0,220,3,,6.21,29.911417,,,,,,,,,,,CAVOK,,,,,,,,VFR,,,,,,,,,,,,METAR,140.0
LEDA 021930Z AUTO 02010KT 350V050 CAVOK 20/11 Q1014,LEDA,2023-06-02T19:30:00Z,41.73,0.53,20.0,11.0,20,10,,6.21,29.940945,,,TRUE,,,,,,,,CAVOK,,,,,,,,VFR,,,,,,,,,,,,METAR,352.0
LECO 021930Z 36003KT 320V050 9000 FEW035 19/15 Q1013 NOSIG,LECO,2023-06-02T19:30:00Z,43.3,-8.37,19.0,15.0,360,3,,5.59,29.911417,,,,,,TRUE,,,,,FEW,3500,,,,,,,VFR,,,,,,,,,,,,METAR,80.0
LECH 021930Z AUTO 11004KT CAVOK 18/14 Q1014,LECH,2023-06-02T19:30:00Z,40.2,0.07,18.0,14.0,110,4,,6.21,29.940945,,,TRUE,,,,,,,,CAVOK,,,,,,,,VFR,,,,,,,,,,,,METAR,360.0
LEBT 021930Z AUTO VRB02KT CAVOK 20/15 Q1013,LEBT,2023-06-02T19:30:00Z,39.58,-0.45,20.0,15.0,0,2,,6.21,29.911417,,,TRUE,,,,,,,,CAVOK,,,,,,,,VFR,,,,,,,,,,,,METAR,50.0
LEBR 021930Z AUTO 06011KT 9999 //////CB 23/11 Q1012,LEBR,2023-06-02T19:30:00Z,42.2,-1.43,23.0,11.0,60,11,,6.21,29.88189,,,TRUE,,,,,,,,,,,,,,,,,,,,,,,,,,,,METAR,347.0
LEBL 021930Z 21005KT 150V240 9999 FEW015 20/17 Q1014 NOSIG,LEBL,2023-06-02T19:30:00Z,41.28,2.07,20.0,17.0,210,5,,6.21,29.940945,,,,,,TRUE,,,,,FEW,1500,,,,,,,VFR,,,,,,,,,,,,METAR,2.0
LEBG 021930Z AUTO 07003KT 9999 FEW002 15/11 Q1015,LEBG,2023-06-02T19:30:00Z,42.37,-3.62,15.0,11.0,70,3,,6.21,29.970472,,,TRUE,,,,,,,,FEW,200,,,,,,,VFR,,,,,,,,,,,,METAR,892.0
LEBB 021930Z 07003KT 010V130 CAVOK 23/15 Q1013 NOSIG,LEBB,2023-06-02T19:30:00Z,43.28,-2.92,23.0,15.0,70,3,,6.21,29.911417,,,,,,TRUE,,,,,CAVOK,,,,,,,,VFR,,,,,,,,,,,,METAR,38.0
LEBA 021930Z AUTO VRB02KT CAVOK 20/13 Q1012,LEBA,2023-06-02T19:30:00Z,37.85,-4.83,20.0,13.0,0,2,,6.21,29.88189,,,TRUE,,,,,,,,CAVOK,,,,,,,,VFR,,,,,,,,,,,,METAR,88.0
LEAS 021930Z 09003KT 060V120 CAVOK 19/16 Q1013 NOSIG,LEAS,2023-06-02T19:30:00Z,43.57,-6.03,19.0,16.0,90,3,,6.21,29.911417,,,,,,TRUE,,,,,CAVOK,,,,,,,,VFR,,,,,,,,,,,,METAR,120.0
LEAO 021930Z 00000KT 9999 FEW038 17/12 Q1013,LEAO,2023-06-02T19:30:00Z,38.95,-3.73,17.0,12.0,0,0,,6.21,29.911417,,,,,,,,,,,FEW,3800,,,,,,,VFR,,,,,,,,,,,,METAR,621.0
LEAM 021930Z 08009KT 9999 FEW050 21/15 Q1012,LEAM,2023-06-02T19:30:00Z,36.85,-2.37,21.0,15.0,80,9,,6.21,29.88189,,,,,,,,,,,FEW,5000,,,,,,,VFR,,,,,,,,,,,,METAR,16.0
LEAL 021930Z 09006KT 9999 SCT014 21/17 Q1013 NOSIG,LEAL,2023-06-02T19:30:00Z,38.27,-0.55,21.0,17.0,90,6,,6.21,29.911417,,,,,,TRUE,,,,,SCT,1400,,,,,,,VFR,,,,,,,,,,,,METAR,26.0
LEAG 021930Z AUTO 07009KT 9999 FEW018/// //////CB 20/17 Q1012,LEAG,2023-06-02T19:30:00Z,36.12,-5.45,20.0,17.0,70,9,,6.21,29.88189,,,TRUE,,,,,,,,FEW,1800,,,,,,,VFR,,,,,,,,,,,,METAR,4.0
LEAB 021930Z 07003KT 040V100 CAVOK 15/14 Q1015 NOSIG,LEAB,2023-06-02T19:30:00Z,38.95,-1.85,15.0,14.0,70,3,,6.21,29.970472,,,,,,TRUE,,,,,CAVOK,,,,,,,,VFR,,,,,,,,,,,,METAR,704.0
LDZD 021930Z VRB02KT 9999 FEW050 19/16 Q1012 NOSIG,LDZD,2023-06-02T19:30:00Z,44.1,15.33,19.0,16.0,0,2,,6.21,29.88189,,,,,,TRUE,,,,,FEW,5000,,,,,,,VFR,,,,,,,,,,,,METAR,82.0
LDZA 021930Z 25003KT 220V280 CAVOK 19/14 Q1013 NOSIG,LDZA,2023-06-02T19:30:00Z,45.72,16.07,19.0,14.0,250,3,,6.21,29.911417,,,,,,TRUE,,,,,CAVOK,,,,,,,,VFR,,,,,,,,,,,,METAR,103.0
LDSP 021930Z 32007KT 290V360 CAVOK 21/14 Q1012 NOSIG,LDSP,2023-06-02T19:30:00Z,43.53,16.3,21.0,14.0,320,7,,6.21,29.88189,,,,,,TRUE,,,,,CAVOK,,,,,,,,VFR,,,,,,,,,,,,METAR,16.0
LDPL 021930Z 08003KT CAVOK 19/15 Q1012 NOSIG,LDPL,2023-06-02T19:30:00Z,44.88,13.92,19.0,15.0,80,3,,6.21,29.88189,,,,,,TRUE,,,,,CAVOK,,,,,,,,VFR,,,,,,,,,,,,METAR,63.0
LDOS 021930Z 11004KT CAVOK 19/17 Q1012,LDOS,2023-06-02T19:30:00Z,45.47,18.82,19.0,17.0,110,4,,6.21,29.88189,,,,,,,,,,,CAVOK,,,,,,,,VFR,,,,,,,,,,,,METAR,82.0
LDDU 021930Z 31003KT 280V010 CAVOK 20/18 Q1012 NOSIG,LDDU,2023-06-02T19:30:00Z,42.57,18.27,20.0,18.0,310,3,,6.21,29.88189,,,,,,TRUE,,,,,CAVOK,,,,,,,,VFR,,,,,,,,,,,,METAR,156.0
LCPH 021930Z AUTO 15011KT 9999 NCD 23/18 Q1007 NOSIG,LCPH,2023-06-02T19:30:00Z,34.72,32.47,23.0,18.0,150,11,,6.21,29.734253,,,TRUE,,,TRUE,,,,,CLR,,,,,,,,VFR,,,,,,,,,,,,METAR,8.0
LCLK 021930Z 28004KT CAVOK 23/13 Q1008 NOSIG,LCLK,2023-06-02T19:30:00Z,34.87,33.62,23.0,13.0,280,4,,6.21,29.763779,,,,,,TRUE,,,,,CAVOK,,,,,,,,VFR,,,,,,,,,,,,METAR,2.0
LBWN 021930Z AUTO VRB02KT 9999 NCD 17/14 Q1012 NOSIG,LBWN,2023-06-02T19:30:00Z,43.22,27.82,17.0,14.0,0,2,,6.21,29.88189,,,TRUE,,,TRUE,,,,,CLR,,,,,,,,VFR,,,,,,,,,,,,METAR,74.0
LBSF 021930Z AUTO 11007KT 9999 //////CB 19/11 Q1014 TEMPO TS FEW033CB,LBSF,2023-06-02T19:30:00Z,42.65,23.37,19.0,11.0,110,7,,6.21,29.940945,,,TRUE,,,,,,,,,,,,,,,,,,,,,,,,,,,,METAR,592.0
LBPD 021930Z AUTO 15005KT 9999 FEW240/// 19/11 Q1012,LBPD,2023-06-02T19:30:00Z,42.05,24.85,19.0,11.0,150,5,,6.21,29.88189,,,TRUE,,,,,,,,FEW,24000,,,,,,,VFR,,,,,,,,,,,,METAR,182.0
LBGO 021930Z AUTO 11010KT 9999 NCD 20/13 Q1011,LBGO,2023-06-02T19:30:00Z,43.15,25.72,20.0,13.0,110,10,,6.21,29.852362,,,TRUE,,,,,,,,CLR,,,,,,,,VFR,,,,,,,,,,,,METAR,84.0
LBBG 021930Z AUTO 04005KT 9999 NCD 17/15 Q1012 NOSIG,LBBG,2023-06-02T19:30:00Z,42.57,27.52,17.0,15.0,40,5,,6.21,29.88189,,,TRUE,,,TRUE,,,,,CLR,,,,,,,,VFR,,,,,,,,,,,,METAR,41.0
KXBP 021930Z AUTO 19010KT 10SM SCT049 SCT110 31/18 A2990 RMK AO2 T03070175,KXBP,2023-06-02T19:30:00Z,33.18,-97.83,30.7,17.5,190,10,,10.0,29.899607,,,TRUE,TRUE,,,,,,,SCT,4900,SCT,11000,,,,,VFR,,,,,,,,,,,,SPECI,256.0
KX26 021930Z AUTO 03013KT 10SM SCT017 SCT027 SCT046 28/23 A2973 RMK AO2 TSNO T02830231,KX26,2023-06-02T19:30:00Z,27.82,-80.5,28.3,23.1,30,13,,10.0,29.731298,,,TRUE,TRUE,,,TRUE,,,,SCT,1700,SCT,2700,SCT,4600,,,VFR,,,,,,,,,,,,METAR,5.0
KVVS 021930Z AUTO 01006G18KT 10SM SCT090 30/10 A2997 RMK AO2 T03030103,KVVS,2023-06-02T19:30:00Z,39.95,-79.65,30.3,10.3,10,6,18,10.0,29.970472,,,TRUE,TRUE,,,,,,,SCT,9000,,,,,,,VFR,,,,,,,,,,,,METAR,386.0
KVES 021930Z AUTO 08005KT 10SM CLR 31/00 A3001 RMK AO2,KVES,2023-06-02T19:30:00Z,40.2,-84.53,31.0,0.0,80,5,,10.0,30.008858,,,TRUE,TRUE,,,,,,,CLR,,,,,,,,VFR,,,,,,,,,,,,METAR,308.0
KU68 021930Z AUTO 31019KT 10SM -RA BKN050 BKN070 OVC080 15/15 A2994 RMK AO2 LTG DSNT SE,KU68,2023-06-02T19:30:00Z,44.92,-108.45,15.0,15.0,310,19,,10.0,29.940945,,,TRUE,TRUE,,,,,,-RA,BKN,5000,BKN,7000,OVC,8000,,,VFR,,,,,,,,,,,,SPECI,1244.0
KSNH 021930Z AUTO 01009KT 10SM FEW049 31/18 A2989 RMK A01,KSNH,2023-06-02T19:30:00Z,35.17,-88.22,31.0,18.0,10,9,,10.0,29.890747,,,TRUE,TRUE,,,,,,,FEW,4900,,,,,,,VFR,,,,,,,,,,,,METAR,142.0
KOLY 021930Z AUTO 10007KT 070V130 10SM CLR 33/04 A2996 RMK AO2 T03300037 PWINO,KOLY,2023-06-02T19:30:00Z,38.72,-88.18,33.0,3.7,100,7,,10.0,29.958662,,,TRUE,TRUE,,,,,TRUE,,CLR,,,,,,,,VFR,,,,,,,,,,,,METAR,144.0
KM91 021930Z AUTO 04006KT 10SM SCT065 30/16 A2993 RMK A01,KM91,2023-06-02T19:30:00Z,36.53,-86.92,30.0,16.0,40,6,,10.0,29.929134,,,TRUE,TRUE,,,,,,,SCT,6500,,,,,,,VFR,,,,,,,,,,,,METAR,214.0
KM54 021930Z AUTO VRB04G11KT 10SM FEW065 31/16 A2989 RMK A01,KM54,2023-06-02T19:30:00Z,36.18,-86.32,31.0,16.0,0,4,11,10.0,29.890747,,,TRUE,TRUE,,,,,,,FEW,6500,,,,,,,VFR,,,,,,,,,,,,METAR,168.0
KM02 021930Z AUTO 02008KT 10SM FEW060 29/16 A2993 RMK A01,KM02,2023-06-02T19:30:00Z,36.13,-87.43,29.0,16.0,20,8,,10.0,29.929134,,,TRUE,TRUE,,,,,,,FEW,6000,,,,,,,VFR,,,,,,,,,,,,METAR,268.0
KJAU 021930Z AUTO 01007KT 10SM BKN060 29/15 A2997 RMK A01,KJAU,2023-06-02T19:30:00Z,36.33,-84.17,29.0,15.0,10,7,,10.0,29.970472,,,TRUE,TRUE,,,,,,,BKN,6000,,,,,,,VFR,,,,,,,,,,,,METAR,350.0
KGNC 021930Z AUTO 32016G27KT 260V010 7SM SCT045 SCT110 25/16 A2987 RMK AO2 T02520158,KGNC,2023-06-02T19:30:00Z,32.68,-102.65,25.2,15.8,320,16,27,7.0,29.870079,,,TRUE,TRUE,,,,,,,SCT,4500,SCT,11000,,,,,VFR,,,,,,,,,,,,SPECI,1002.0
KFSK 021930Z AUTO 16005KT 10SM SCT055 31/18 A2995 RMK AO2 T03090176,KFSK,2023-06-02T19:30:00Z,37.8,-94.77,30.9,17.6,160,5,,10.0,29.949802,,,TRUE,TRUE,,,,,,,SCT,5500,,,,,,,VFR,,,,,,,,,,,,METAR,276.0
KEAN 021930Z AUTO 23005KT 10SM CLR 20/11 A2993 RMK AO2 LTG DSNT NW T01950113,KEAN,2023-06-02T19:30:00Z,42.05,-104.93,19.5,11.3,230,5,,10.0,29.929134,,,TRUE,TRUE,,,,,,,CLR,,,,,,,,VFR,,,,,,,,,,,,SPECI,1452.0
KDVK 021930Z AUTO 10004KT 10SM CLR 30/09 A2998 RMK AO2,KDVK,2023-06-02T19:30:00Z,37.58,-84.77,30.0,9.0,100,4,,10.0,29.97933,,,TRUE,TRUE,,,,,,,CLR,,,,,,,,VFR,,,,,,,,,,,,METAR,309.0
KDED 021930Z AUTO 04013G16KT 10SM BKN033 BKN040 28/20 A2977 RMK AO2 T02820203,KDED,2023-06-02T19:30:00Z,29.07,-81.28,28.2,20.3,40,13,16,10.0,29.769686,,,TRUE,TRUE,,,,,,,BKN,3300,BKN,4000,,,,,VFR,,,,,,,,,,,,METAR,21.0
KBMC 021930Z AUTO 00000KT 10SM CLR 20/04 A3001 RMK AO1 T02020035,KBMC,2023-06-02T19:30:00Z,41.55,-112.07,20.2,3.5,0,0,,10.0,30.008858,,,TRUE,TRUE,,,,,,,CLR,,,,,,,,VFR,,,,,,,,,,,,SPECI,1289.0
KANK 021930Z AUTO 25015G23KT 10SM SCT050 16/01 A3016 RMK AO1 T01590010,KANK,2023-06-02T19:30:00Z,38.53,-106.05,15.9,1.0,250,15,23,10.0,30.159449,,,TRUE,TRUE,,,,,,,SCT,5000,,,,,,,VFR,,,,,,,,,,,,SPECI,2293.0
K9S9 021930Z AUTO VRB05G10KT 10SM CLR 23/M01 A3006 RMK AO2 PWINO,K9S9,2023-06-02T19:30:00Z,45.45,-119.68,23.0,-1.0,0,5,10,10.0,30.059055,,,TRUE,TRUE,,,,,TRUE,,CLR,,,,,,,,VFR,,,,,,,,,,,,METAR,498.0
K5R8 021930Z AUTO 00000KT 10SM BKN050 BKN070 BKN100 31/19 A2988 RMK AO2 T03050192,K5R8,2023-06-02T19:30:00Z,30.43,-93.47,30.5,19.2,0,0,,10.0,29.878937,,,TRUE,TRUE,,,,,,,BKN,5000,BKN,7000,BKN,10000,,,VFR,,,,,,,,,,,,METAR,26.0
K19S 021930Z AUTO 17013KT 10SM OVC021 23/19 A2993 RMK AO2 T02320193,K19S,2023-06-02T19:30:00Z,37.48,-100.83,23.2,19.3,170,13,,10.0,29.929134,,,TRUE,TRUE,,,,,,,OVC,2100,,,,,,,MVFR,,,,,,,,,,,,METAR,886.0
HUEN 021930Z 20003KT CAVOK 22/19 Q1018 NOSIG,HUEN,2023-06-02T19:30:00Z,0.03,32.45,22.0,19.0,200,3,,6.21,30.059055,,,,,,TRUE,,,,,CAVOK,,,,,,,,VFR,,,,,,,,,,,,METAR,1147.0
HRYR 021930Z 04004KT 020V080 9999 FEW025 23/14 Q1021 NOSIG,HRYR,2023-06-02T19:30:00Z,-1.97,30.13,23.0,14.0,40,4,,6.21,30.147638,,,,,,TRUE,,,,,FEW,2500,,,,,,,VFR,,,,,,,,,,,,METAR,1493.0
HKJK 021930Z 09003KT 9999 BKN020 19/14 Q1024 NOSIG,HKJK,2023-06-02T19:30:00Z,-1.32,36.92,19.0,14.0,90,3,,6.21,30.236221,,,,,,TRUE,,,,,BKN,2000,,,,,,,MVFR,,,,,,,,,,,,METAR,1615.0
GQNO 021930Z 32017KT 8000 NSC 23/18 Q1010 NOSIG,GQNO,2023-06-02T19:30:00Z,18.3,-15.97,23.0,18.0,320,17,,4.97,29.822834,,,,,,TRUE,,,,,CLR,,,,,,,,MVFR,,,,,,,,,,,,METAR,1.0
GOBD 021930Z 34013KT CAVOK 25/20 Q1012 NOSIG,GOBD,2023-06-02T19:30:00Z,14.67,-17.07,25.0,20.0,340,13,,6.21,29.88189,,,,,,TRUE,,,,,CAVOK,,,,,,,,VFR,,,,,,,,,,,,METAR,90.0
GMTT 021930Z 04010KT CAVOK 22/19 Q1010 NOSIG,GMTT,2023-06-02T19:30:00Z,35.72,-5.9,22.0,19.0,40,10,,6.21,29.822834,,,,,,TRUE,,,,,CAVOK,,,,,,,,VFR,,,,,,,,,,,,METAR,19.0
GMMX 021930Z 33012KT 290V010 9999 FEW040 SCT100 24/13 Q1010 NOSIG,GMMX,2023-06-02T19:30:00Z,31.62,-8.03,24.0,13.0,330,12,,6.21,29.822834,,,,,,TRUE,,,,,FEW,4000,SCT,10000,,,,,VFR,,,,,,,,,,,,METAR,465.0
GMMN 021930Z 36011KT 9999 FEW026 20/15 Q1011 NOSIG,GMMN,2023-06-02T19:30:00Z,33.37,-7.58,20.0,15.0,360,11,,6.21,29.852362,,,,,,TRUE,,,,,FEW,2600,,,,,,,VFR,,,,,,,,,,,,METAR,196.0
GMME 021930Z 02008KT 350V050 5000 FEW015 SCT016 BKN100 21/18 Q1010 NOSIG,GMME,2023-06-02T19:30:00Z,34.05,-6.77,21.0,18.0,20,8,,3.11,29.822834,,,,,,TRUE,,,,,FEW,1500,SCT,1600,BKN,10000,,,MVFR,,,,,,,,,,,,METAR,84.0
GMFO 021930Z 17004KT 100V220 9999 -TSRA SCT023 FEW040CB BKN053 16/14 Q1013 NOSIG,GMFO,2023-06-02T19:30:00Z,34.78,-1.92,16.0,14.0,170,4,,6.21,29.911417,,,,,,TRUE,,,,-TSRA,SCT,2300,FEW,4000,BKN,5300,,,VFR,,,,,,,,,,,,METAR,452.0
GMFF 021930Z 03004KT 9999 BKN030 FEW040CB 18/14 Q1012 TEMPO TS,GMFF,2023-06-02T19:30:00Z,33.92,-4.97,18.0,14.0,30,4,,6.21,29.88189,,,,,,,,,,,BKN,3000,FEW,4000,,,,,MVFR,,,,,,,,,,,,SPECI,575.0
GMAD 021930Z 25017KT 9999 FEW023 21/17 Q1008 NOSIG,GMAD,2023-06-02T19:30:00Z,30.32,-9.42,21.0,17.0,250,17,,6.21,29.763779,,,,,,TRUE,,,,,FEW,2300,,,,,,,VFR,,,,,,,,,,,,METAR,66.0
GLRB 021930Z 00000KT 9999 SCT014 27/25 Q1011 NOSIG,GLRB,2023-06-02T19:30:00Z,6.25,-10.35,27.0,25.0,0,0,,6.21,29.852362,,,,,,TRUE,,,,,SCT,1400,,,,,,,VFR,,,,,,,,,,,,METAR,12.0
GEML 021930Z VRB02KT CAVOK 21/15 Q1011,GEML,2023-06-02T19:30:00Z,35.27,-2.95,21.0,15.0,0,2,,6.21,29.852362,,,,,,,,,,,CAVOK,,,,,,,,VFR,,,,,,,,,,,,METAR,48.0
GECE 021930Z AUTO 08006KT 040V140 CAVOK 21/18 Q1011,GECE,2023-06-02T19:30:00Z,35.88,-5.3,21.0,18.0,80,6,,6.21,29.852362,,,TRUE,,,,,,,,CAVOK,,,,,,,,VFR,,,,,,,,,,,,METAR,2.0
GCXO 021930Z 31010KT 9999 FEW005 BKN016 18/15 Q1016 NOSIG,GCXO,2023-06-02T19:30:00Z,28.48,-16.35,18.0,15.0,310,10,,6.21,30.0,,,,,,TRUE,,,,,FEW,500,BKN,1600,,,,,MVFR,,,,,,,,,,,,METAR,623.0
GCTS 021930Z 06008KT 020V090 9999 FEW030 BKN045 23/17 Q1013 WS R07 NOSIG,GCTS,2023-06-02T19:30:00Z,28.05,-16.57,23.0,17.0,60,8,,6.21,29.911417,,,,,,TRUE,,,,,FEW,3000,BKN,4500,,,,,VFR,,,,,,,,,,,,SPECI,59.0
GCRR 021930Z 32010KT 290V350 9999 FEW035 23/15 Q1012,GCRR,2023-06-02T19:30:00Z,28.95,-13.58,23.0,15.0,320,10,,6.21,29.88189,,,,,,,,,,,FEW,3500,,,,,,,VFR,,,,,,,,,,,,METAR,9.0
GCLP 021930Z VRB02KT 9999 FEW030 BKN035 23/17 Q1014 NOSIG,GCLP,2023-06-02T19:30:00Z,27.92,-15.38,23.0,17.0,0,2,,6.21,29.940945,,,,,,TRUE,,,,,FEW,3000,BKN,3500,,,,,VFR,,,,,,,,,,,,METAR,16.0
GCLA 021930Z 08003KT 050V130 9999 BKN040 23/17 Q1014,GCLA,2023-06-02T19:30:00Z,28.62,-17.75,23.0,17.0,80,3,,6.21,29.940945,,,,,,,,,,,BKN,4000,,,,,,,VFR,,,,,,,,,,,,METAR,20.0
GCHI 021930Z AUTO 35014KT 9999 FEW026 BKN033 22/16 Q1014,GCHI,2023-06-02T19:30:00Z,27.82,-17.88,22.0,16.0,350,14,,6.21,29.940945,,,TRUE,,,,,,,,FEW,2600,BKN,3300,,,,,VFR,,,,,,,,,,,,METAR,21.0
GCGM 021930Z AUTO 24007KT 210V270 9999 FEW037 22/16 Q1014 RMK R09/24006KT 200V280 ARP/24006KT,GCGM,2023-06-02T19:30:00Z,28.03,-17.22,22.0,16.0,240,7,,6.21,29.940945,,,TRUE,,,,,,,,FEW,3700,,,,,,,VFR,,,,,,,,,,,,METAR,217.0
GCFV 021930Z 31009KT 280V350 9999 FEW035 24/16 Q1013,GCFV,2023-06-02T19:30:00Z,28.43,-13.87,24.0,16.0,310,9,,6.21,29.911417,,,,,,,,,,,FEW,3500,,,,,,,VFR,,,,,,,,,,,,METAR,11.0
GABS 021930Z 21004KT CAVOK 33/21 Q1009 NOSIG,GABS,2023-06-02T19:30:00Z,12.53,-7.95,33.0,21.0,210,4,,6.21,29.793306,,,,,,TRUE,,,,,CAVOK,,,,,,,,VFR,,,,,,,,,,,,METAR,375.0
FMMI 021930Z 14004KT 120V180 9999 FEW010 BKN020 14/14 Q1026 NOSIG,FMMI,2023-06-02T19:30:00Z,-18.8,47.47,14.0,14.0,140,4,,6.21,30.295275,,,,,,TRUE,,,,,FEW,1000,BKN,2000,,,,,MVFR,,,,,,,,,,,,METAR,1269.0
FMEP 021930Z AUTO 10010KT CAVOK 22/13 Q1022,FMEP,2023-06-02T19:30:00Z,-21.32,55.42,22.0,13.0,100,10,,6.21,30.177166,,,TRUE,,,,,,,,CAVOK,,,,,,,,VFR,,,,,,,,,,,,METAR,21.0
FMEE 021930Z AUTO 16010KT CAVOK 22/13 Q1023 NOSIG,FMEE,2023-06-02T19:30:00Z,-20.88,55.52,22.0,13.0,160,10,,6.21,30.206694,,,TRUE,,,TRUE,,,,,CAVOK,,,,,,,,VFR,,,,,,,,,,,,METAR,20.0
FMCZ 021930Z AUTO 35003KT CAVOK 24/22 Q1017 NOSIG,FMCZ,2023-06-02T19:30:00Z,-12.8,45.27,24.0,22.0,350,3,,6.21,30.029528,,,TRUE,,,TRUE,,,,,CAVOK,,,,,,,,VFR,,,,,,,,,,,,METAR,7.0
EPZG 021930Z 03004KT CAVOK 14/M01 Q1021,EPZG,2023-06-02T19:30:00Z,52.13,15.77,14.0,-1.0,30,4,,6.21,30.147638,,,,,,,,,,,CAVOK,,,,,,,,VFR,,,,,,,,,,,,METAR,59.0
EPWR 021930Z 05005KT CAVOK 14/03 Q1020,EPWR,2023-06-02T19:30:00Z,51.1,16.88,14.0,3.0,50,5,,6.21,30.11811,,,,,,,,,,,CAVOK,,,,,,,,VFR,,,,,,,,,,,,METAR,118.0
EPWA 021930Z 36010KT CAVOK 13/M02 Q1020 NOSIG,EPWA,2023-06-02T19:30:00Z,52.17,20.97,13.0,-2.0,360,10,,6.21,30.11811,,,,,,TRUE,,,,,CAVOK,,,,,,,,VFR,,,,,,,,,,,,METAR,107.0
EPSY 021930Z 36008KT CAVOK 09/M00 Q1021,EPSY,2023-06-02T19:30:00Z,53.47,20.93,9.0,0.0,360,8,,6.21,30.147638,,,,,,,,,,,CAVOK,,,,,,,,VFR,,,,,,,,,,,,METAR,136.0
EPSC 021930Z 36003KT 340V040 CAVOK 11/00 Q1024,EPSC,2023-06-02T19:30:00Z,53.58,14.9,11.0,0.0,360,3,,6.21,30.236221,,,,,,,,,,,CAVOK,,,,,,,,VFR,,,,,,,,,,,,METAR,47.0
EPRZ 021930Z 35011KT 9999 BKN018 13/09 Q1018,EPRZ,2023-06-02T19:30:00Z,50.1,22.02,13.0,9.0,350,11,,6.21,30.059055,,,,,,,,,,,BKN,1800,,,,,,,MVFR,,,,,,,,,,,,METAR,206.0
EPRA 021930Z VRB02KT CAVOK 08/07 Q1019,EPRA,2023-06-02T19:30:00Z,51.38,21.22,8.0,7.0,0,2,,6.21,30.088583,,,,,,,,,,,CAVOK,,,,,,,,VFR,,,,,,,,,,,,METAR,182.0
EPPO 021930Z 04006KT CAVOK 12/M00 Q1021,EPPO,2023-06-02T19:30:00Z,52.42,16.83,12.0,0.0,40,6,,6.21,30.147638,,,,,,,,,,,CAVOK,,,,,,,,VFR,,,,,,,,,,,,METAR,87.0
EPMO 021930Z 34007KT CAVOK 11/M01 Q1020,EPMO,2023-06-02T19:30:00Z,52.45,20.65,11.0,-1.0,340,7,,6.21,30.11811,,,,,,,,,,,CAVOK,,,,,,,,VFR,,,,,,,,,,,,METAR,102.0
EPLL 021930Z 36008KT 330V030 CAVOK 12/M01 Q1020,EPLL,2023-06-02T19:30:00Z,51.72,19.4,12.0,-1.0,360,8,,6.21,30.11811,,,,,,,,,,,CAVOK,,,,,,,,VFR,,,,,,,,,,,,METAR,176.0
EPLB 021930Z 33003KT CAVOK 09/07 Q1019,EPLB,2023-06-02T19:30:00Z,51.23,22.72,9.0,7.0,330,3,,6.21,30.088583,,,,,,,,,,,CAVOK,,,,,,,,VFR,,,,,,,,,,,,METAR,206.0
EPKT 021930Z 04004KT CAVOK 11/07 Q1019,EPKT,2023-06-02T19:30:00Z,50.47,19.08,11.0,7.0,40,4,,6.21,30.088583,,,,,,,,,,,CAVOK,,,,,,,,VFR,,,,,,,,,,,,METAR,296.0
EPKK 021930Z 04007KT 350V060 9999 BKN068 12/07 Q1019,EPKK,2023-06-02T19:30:00Z,50.07,19.8,12.0,7.0,40,7,,6.21,30.088583,,,,,,,,,,,BKN,6800,,,,,,,VFR,,,,,,,,,,,,METAR,237.0
EPGD 021930Z 36006KT 9999 FEW025 07/02 Q1023,EPGD,2023-06-02T19:30:00Z,54.37,18.47,7.0,2.0,360,6,,6.21,30.206694,,,,,,,,,,,FEW,2500,,,,,,,VFR,,,,,,,,,,,,METAR,136.0
EPBY 021930Z 05010KT CAVOK 11/01 Q1022,EPBY,2023-06-02T19:30:00Z,53.1,18.0,11.0,1.0,50,10,,6.21,30.177166,,,,,,,,,,,CAVOK,,,,,,,,VFR,,,,,,,,,,,,METAR,66.0
EIWF 021930Z 09007KT CAVOK 15/09 Q1024,EIWF,2023-06-02T19:30:00Z,52.18,-7.08,15.0,9.0,90,7,,6.21,30.236221,,,,,,,,,,,CAVOK,,,,,,,,VFR,,,,,,,,,,,,METAR,26.0
EISG 021930Z 31007KT CAVOK 16/13 Q1025,EISG,2023-06-02T19:30:00Z,54.28,-8.6,16.0,13.0,310,7,,6.21,30.265747,,,,,,,,,,,CAVOK,,,,,,,,VFR,,,,,,,,,,,,METAR,1.0
EINN 021930Z 04009KT CAVOK 21/10 Q1024 NOSIG,EINN,2023-06-02T19:30:00Z,52.7,-8.92,21.0,10.0,40,9,,6.21,30.236221,,,,,,TRUE,,,,,CAVOK,,,,,,,,VFR,,,,,,,,,,,,METAR,20.0
EIDW 021930Z 06006KT 030V090 CAVOK 13/08 Q1026 NOSIG,EIDW,2023-06-02T19:30:00Z,53.42,-6.28,13.0,8.0,60,6,,6.21,30.295275,,,,,,TRUE,,,,,CAVOK,,,,,,,,VFR,,,,,,,,,,,,METAR,75.0
EICK 021930Z 08005KT 030V120 9999 FEW018 13/10 Q1024 NOSIG,EICK,2023-06-02T19:30:00Z,51.85,-8.47,13.0,10.0,80,5,,6.21,30.236221,,,,,,TRUE,,,,,FEW,1800,,,,,,,VFR,,,,,,,,,,,,METAR,158.0
DTTJ 021930Z 08008KT 9999 FEW020 SCT026 22/17 Q1013 NOSIG,DTTJ,2023-06-02T19:30:00Z,33.87,10.77,22.0,17.0,80,8,,6.21,29.911417,,,,,,TRUE,,,,,FEW,2000,SCT,2600,,,,,VFR,,,,,,,,,,,,METAR,3.0
DTTA 021930Z 19009KT 9999 SCT020 SCT040 22/16 Q1013,DTTA,2023-06-02T19:30:00Z,36.85,10.22,22.0,16.0,190,9,,6.21,29.911417,,,,,,,,,,,SCT,2000,SCT,4000,,,,,VFR,,,,,,,,,,,,METAR,4.0
DTNH 021930Z 12007KT 9999 BKN040 22/18 Q1013,DTNH,2023-06-02T19:30:00Z,36.07,10.43,22.0,18.0,120,7,,6.21,29.911417,,,,,,,,,,,BKN,4000,,,,,,,VFR,,,,,,,,,,,,METAR,1.0
DTMB 021930Z 14006KT 9999 FEW026 22/18 Q1013,DTMB,2023-06-02T19:30:00Z,35.77,10.75,22.0,18.0,140,6,,6.21,29.911417,,,,,,,,,,,FEW,2600,,,,,,,VFR,,,,,,,,,,,,METAR,1.0
DIAP 021930Z 20007KT 160V230 8000 -TSRA SCT010 FEW020CB BKN040 26/26 Q1012 NOSIG,DIAP,2023-06-02T19:30:00Z,5.25,-3.92,26.0,26.0,200,7,,4.97,29.88189,,,,,,TRUE,,,,-TSRA,SCT,1000,FEW,2000,BKN,4000,,,MVFR,,,,,,,,,,,,METAR,4.0
DAOO 021930Z 32003KT 9999 SCT020 FEW030CB SCT100 20/17 Q1012,DAOO,2023-06-02T19:30:00Z,35.62,-0.62,20.0,17.0,320,3,,6.21,29.88189,,,,,,,,,,,SCT,2000,FEW,3000,SCT,10000,,,VFR,,,,,,,,,,,,METAR,87.0
DAON 021930Z 29003KT 9999 SCT026 FEW030CB SCT100 18/14 Q1013,DAON,2023-06-02T19:30:00Z,35.02,-1.47,18.0,14.0,290,3,,6.21,29.911417,,,,,,,,,,,SCT,2600,FEW,3000,SCT,10000,,,VFR,,,,,,,,,,,,METAR,245.0
DABC 021930Z 16004KT 9999 FEW030 BKN040 16/12 Q1016,DABC,2023-06-02T19:30:00Z,36.27,6.62,16.0,12.0,160,4,,6.21,30.0,,,,,,,,,,,FEW,3000,BKN,4000,,,,,VFR,,,,,,,,,,,,METAR,686.0
DABB 021930Z 21005KT 9999 FEW020 FEW026CB SCT033 BKN200 18/17 Q1012,DABB,2023-06-02T19:30:00Z,36.82,7.82,18.0,17.0,210,5,,6.21,29.88189,,,,,,,,,,,FEW,2000,FEW,2600,SCT,3300,BKN,20000,VFR,,,,,,,,,,,,METAR,3.0
DAAT 021930Z 29008KT CAVOK 29/// Q1016,DAAT,2023-06-02T19:30:00Z,22.82,5.47,,,290,8,,6.21,30.0,,,,,,,,,,,CAVOK,,,,,,,,VFR,,,,,,,,,,,,SPECI,1376.0
DAAG 021930Z VRB01KT 9999 FEW016 FEW023CB BKN050 20/18 Q1013,DAAG,2023-06-02T19:30:00Z,36.68,3.22,20.0,18.0,0,1,,6.21,29.911417,,,,,,,,,,,FEW,1600,FEW,2300,BKN,5000,,,VFR,,,,,,,,,,,,METAR,18.0
CYMJ 021930Z 03006KT 4SM -SHRA BR FEW022 BKN040 OVC085 19/16 A3001 RMK CU2SC4AC2 DENSITY ALT 2946FT LTNG 87 NM SE 73 NM N SLP165,CYMJ,2023-06-02T19:30:00Z,50.32,-105.55,19.0,16.0,30,6,,4.0,30.008858,1016.5,,,,,,,,,-SHRA BR,FEW,2200,BKN,4000,OVC,8500,,,MVFR,,,,,,,,,,,,SPECI,578.0
BIKF 021930Z 23006KT 9999 FEW009 OVC049 10/07 Q1029,BIKF,2023-06-02T19:30:00Z,63.98,-22.6,10.0,7.0,230,6,,6.21,30.383858,,,,,,,,,,,FEW,900,OVC,4900,,,,,VFR,,,,,,,,,,,,METAR,49.0
PAPB 021928Z AUTO 13019G25KT 6SM -RA FEW007 BKN033 OVC041 07/04 A2962 RMK AO2 PK WND 13026/1907 P0001 T00720044 TSNO $,PAPB,2023-06-02T19:28:00Z,56.58,-169.67,7.2,4.4,130,19,25,6.0,29.619095,,,TRUE,TRUE,TRUE,,TRUE,,,-RA,FEW,700,BKN,3300,OVC,4100,,,VFR,,,,,,0.01,,,,,,METAR,33.0
K1LN 021928Z AUTO 13014G18KT 10SM FEW150 29/14 A2991 RMK AO2 WSHFT 16 LTG DSNT S SLP121 $,K1LN,2023-06-02T19:28:00Z,,,29.0,14.0,130,14,18,10.0,29.911417,1012.1,,TRUE,TRUE,TRUE,,,,,,FEW,15000,,,,,,,VFR,,,,,,,,,,,,SPECI,
MUVR 021926Z 05009KT 010V070 8000 FEW018CB BKN020 28/21 Q1007 RMK CB AT III QUAD AD,MUVR,2023-06-02T19:26:00Z,23.03,-81.43,28.0,21.0,50,9,,4.97,29.734253,,,,,,,,,,,FEW,1800,BKN,2000,,,,,MVFR,,,,,,,,,,,,METAR,65.0
EHSC 021925Z AUTO 02022KT 9999 ///////// 13/12 Q1022 W14/H16,EHSC,2023-06-02T19:25:00Z,51.93,3.67,13.0,12.0,20,22,,6.21,30.177166,,,TRUE,,,,,,,,,,,,,,,,,,,,,,,,,,,,METAR,19.0
EHSA 021925Z AUTO 01022KT 9999 ///////// 13/10 Q1022 W11/H16,EHSA,2023-06-02T19:25:00Z,52.0,3.28,13.0,10.0,10,22,,6.21,30.177166,,,TRUE,,,,,,,,,,,,,,,,,,,,,,,,,,,,METAR,18.0
EHPG 021925Z AUTO 02019KT 350V070 9999 NCD 12/10 Q1022,EHPG,2023-06-02T19:25:00Z,52.37,3.35,12.0,10.0,20,19,,6.21,30.177166,,,TRUE,,,,,,,,CLR,,,,,,,,VFR,,,,,,,,,,,,METAR,24.0
EHMG 021925Z AUTO 04018KT 9999 NCD 13/10 Q1024,EHMG,2023-06-02T19:25:00Z,53.62,4.97,13.0,10.0,40,18,,6.21,30.236221,,,TRUE,,,,,,,,CLR,,,,,,,,VFR,,,,,,,,,,,,METAR,30.0
EHMA 021925Z AUTO 03015KT 9999 NCD 13/11 Q1023,EHMA,2023-06-02T19:25:00Z,53.5,5.95,13.0,11.0,30,15,,6.21,30.206694,,,TRUE,,,,,,,,CLR,,,,,,,,VFR,,,,,,,,,,,,METAR,27.0
EHKV 021925Z AUTO 03020KT 9999 NCD 12/10 Q1024,EHKV,2023-06-02T19:25:00Z,53.27,3.63,12.0,10.0,30,20,,6.21,30.236221,,,TRUE,,,,,,,,CLR,,,,,,,,VFR,,,,,,,,,,,,METAR,28.0
EHJR 021925Z AUTO 03018KT //// // ///////// 12/10 Q1024 RE// W13/H16,EHJR,2023-06-02T19:25:00Z,53.22,3.22,12.0,10.0,30,18,,,30.236221,,,TRUE,,,,,,,,,,,,,,,,,,,,,,,,,,,,METAR,31.0
EHJA 021925Z AUTO 04013KT 9999 FEW007/// 12/09 Q1025,EHJA,2023-06-02T19:25:00Z,53.82,2.95,12.0,9.0,40,13,,6.21,30.265747,,,TRUE,,,,,,,,FEW,700,,,,,,,VFR,,,,,,,,,,,,METAR,34.0
EHHW 021925Z AUTO 04014KT 9999 NCD 13/08 Q1024,EHHW,2023-06-02T19:25:00Z,54.03,6.03,13.0,8.0,40,14,,6.21,30.236221,,,TRUE,,,,,,,,CLR,,,,,,,,VFR,,,,,,,,,,,,METAR,10.0
EHFS 021925Z AUTO 36011KT 320V040 9999 NCD 14/10 Q1021,EHFS,2023-06-02T19:25:00Z,51.45,3.6,14.0,10.0,360,11,,6.21,30.147638,,,TRUE,,,,,,,,CLR,,,,,,,,VFR,,,,,,,,,,,,METAR,1.0
EHFD 021925Z AUTO VRB08KT 9999 NCD 12/10 Q1025,EHFD,2023-06-02T19:25:00Z,54.85,4.7,12.0,10.0,0,8,,6.21,30.265747,,,TRUE,,,,,,,,CLR,,,,,,,,VFR,,,,,,,,,,,,METAR,24.0
EHDV 021925Z AUTO 03014KT 9999 BKN009/// 11/08 Q1025,EHDV,2023-06-02T19:25:00Z,54.32,2.93,11.0,8.0,30,14,,6.21,30.265747,,,TRUE,,,,,,,,BKN,900,,,,,,,IFR,,,,,,,,,,,,METAR,36.0
EHAK 021925Z AUTO 01010KT 330V040 9999 SCT010/// 10/08 Q1026,EHAK,2023-06-02T19:25:00Z,55.38,3.82,10.0,8.0,10,10,,6.21,30.295275,,,TRUE,,,,,,,,SCT,1000,,,,,,,VFR,,,,,,,,,,,,METAR,33.0
EBLB 021925Z AUTO 04006KT 9999 NCD 12/07 Q1019 BLU,EBLB,2023-06-02T19:25:00Z,50.47,6.17,12.0,7.0,40,6,,6.21,30.088583,,,TRUE,,,,,,,,CLR,,,,,,,,VFR,,,,,,,,,,,,METAR,563.0
EBFS 021925Z AUTO 04009KT 9999 BKN160/// 14/07 Q1019 BLU,EBFS,2023-06-02T19:25:00Z,50.23,4.65,14.0,7.0,40,9,,6.21,30.088583,,,TRUE,,,,,,,,BKN,16000,,,,,,,VFR,,,,,,,,,,,,METAR,276.0
EBFN 021925Z AUTO 02014KT 9999 NCD 12/10 Q1021 BLU,EBFN,2023-06-02T19:25:00Z,51.08,2.65,12.0,10.0,20,14,,6.21,30.147638,,,TRUE,,,,,,,,CLR,,,,,,,,VFR,,,,,,,,,,,,METAR,9.0
EBDT 021925Z AUTO 05005KT 9999 NCD 16/08 Q1020 BLU,EBDT,2023-06-02T19:25:00Z,51.02,5.07,16.0,8.0,50,5,,6.21,30.11811,,,TRUE,,,,,,,,CLR,,,,,,,,VFR,,,,,,,,,,,,METAR,25.0
EBCV 021925Z AUTO 03009KT 9999 NCD 16/08 Q1019 BLU,EBCV,2023-06-02T19:25:00Z,50.57,3.82,16.0,8.0,30,9,,6.21,30.088583,,,TRUE,,,,,,,,CLR,,,,,,,,VFR,,,,,,,,,,,,METAR,56.0
EBBL 021925Z AUTO 05004KT 9999 NCD 16/08 Q1020 BLU,EBBL,2023-06-02T19:25:00Z,51.17,5.47,16.0,8.0,50,4,,6.21,30.11811,,,TRUE,,,,,,,,CLR,,,,,,,,VFR,,,,,,,,,,,,METAR,50.0
EBBE 021925Z AUTO 04008KT 9999 FEW042/// 15/08 Q1020 BLU,EBBE,2023-06-02T19:25:00Z,50.75,4.77,15.0,8.0,40,8,,6.21,30.11811,,,TRUE,,,,,,,,FEW,4200,,,,,,,VFR,,,,,,,,,,,,METAR,127.0
CYMX 021925Z 23004KT 200V300 10SM FEW010 BKN060CB BKN180 BKN250 21/18 A2995 RMK CF1CB4AC1CI1 DIST LTG E-SE SLP144 DENSITY ALT 1000FT,CYMX,2023-06-02T19:25:00Z,45.67,-74.03,21.0,18.0,230,4,,10.0,29.949802,1014.4,,,,,,,,,,FEW,1000,BKN,6000,BKN,18000,BKN,25000,VFR,,,,,,,,,,,,SPECI,78.0
CYUL 021924Z 29007KT 15SM VCSH FEW035CB SCT180 OVC250 27/18 A2992 RMK CB1AC2CI4 CB W N QUADS SHWR SW-W SLP133 DENSITY ALT 1500FT,CYUL,2023-06-02T19:24:00Z,45.47,-73.73,27.0,18.0,290,7,,15.0,29.920275,1013.3,,,,,,,,,VCSH,FEW,3500,SCT,18000,OVC,25000,,,VFR,,,,,,,,,,,,SPECI,31.0
PAED 021923Z AUTO 09003KT 10SM -DZ OVC037 09/03 A2991 RMK AO2 DZB23 SLP125,PAED,2023-06-02T19:23:00Z,61.25,-149.83,9.0,3.0,90,3,,10.0,29.911417,1012.5,,TRUE,TRUE,,,,,,-DZ,OVC,3700,,,,,,,VFR,,,,,,,,,,,,METAR,54.0
KMRH 021923Z AUTO 04009G18KT 10SM FEW024 SCT030 BKN085 26/20 A2984 RMK AO2 T02610200,KMRH,2023-06-02T19:23:00Z,34.73,-76.65,26.1,20.0,40,9,18,10.0,29.840551,,,TRUE,TRUE,,,,,,,FEW,2400,SCT,3000,BKN,8500,,,VFR,,,,,,,,,,,,SPECI,2.0
CZBF 021922Z AUTO 07010G22KT 9SM -RA BKN012 OVC030 07/06 A3019 RMK SLP229,CZBF,2023-06-02T19:22:00Z,47.62,-65.75,7.0,6.0,70,10,22,9.0,30.188976,1022.9,,TRUE,,,,,,,-RA,BKN,1200,OVC,3000,,,,,MVFR,,,,,,,,,,,,SPECI,60.0
K1AN 021921Z AUTO 13012G19KT 10SM FEW075 FEW110 30/16 A2985 RMK AO2 LTG DSNT E AND NW TSB06E21 SLP119 $,K1AN,2023-06-02T19:21:00Z,,,30.0,16.0,130,12,19,10.0,29.84941,1011.9,,TRUE,TRUE,TRUE,,,,,,FEW,7500,FEW,11000,,,,,VFR,,,,,,,,,,,,SPECI,
CYUA 021921Z AUTO 21034G42KT ////SM BKN042 BKN048 ///// A////,CYUA,2023-06-02T19:21:00Z,68.92,-137.23,,,210,34,42,,,,,TRUE,,,,,,,,BKN,4200,BKN,4800,,,,,,,,,,,,,,,,,SPECI,25.0
CWSA 021921Z AUTO 06010KT 6SM BR 11/09 A2996 RMK CLD MISG SLP148,CWSA,2023-06-02T19:21:00Z,43.93,-60.0,11.0,9.0,60,10,,6.0,29.958662,1014.8,,TRUE,,,,,,,BR,,,,,,,,,,,,,,,,,,,,,SPECI,4.0
MUCU 021920Z 18012KT 120V230 3000 RA BKN015CB OVC030 26/25 Q1007 RMK CB AT ALL QUAD AD,MUCU,2023-06-02T19:20:00Z,19.97,-75.83,26.0,25.0,180,12,,1.86,29.734253,,,,,,,,,,RA,BKN,1500,OVC,3000,,,,,IFR,,,,,,,,,,,,SPECI,70.0
LXGB 021920Z 06010KT 9999 FEW009 20/18 Q1012 TEMPO FEW009 SCT015,LXGB,2023-06-02T19:20:00Z,36.15,-5.33,20.0,18.0,60,10,,6.21,29.88189,,,,,,,,,,,FEW,900,,,,,,,VFR,,,,,,,,,,,,METAR,5.0
LTFM 021920Z 07008KT 040V100 CAVOK 20/15 Q1012 NOSIG RMK RWY17L 07007KT RWY34L 06008KT RWY16R 07007KT RWY36 06007KT 020V080 RWY18 08007KT,LTFM,2023-06-02T19:20:00Z,41.27,28.75,20.0,15.0,70,8,,6.21,29.88189,,,,,,TRUE,,,,,CAVOK,,,,,,,,VFR,,,,,,,,,,,,METAR,99.0
LTFJ 021920Z 06011KT 9999 FEW025 SCT090 20/14 Q1011 NOSIG RMK RWY24 02009KT 360V060,LTFJ,2023-06-02T19:20:00Z,40.9,29.3,20.0,14.0,60,11,,6.21,29.852362,,,,,,TRUE,,,,,FEW,2500,SCT,9000,,,,,VFR,,,,,,,,,,,,SPECI,83.0
LTFE 021920Z 00000KT 9999 SCT030 BKN090 20/18 Q1009 NOSIG RMK RWY10 13003KT 100V170,LTFE,2023-06-02T19:20:00Z,37.25,27.67,20.0,18.0,0,0,,6.21,29.793306,,,,,,TRUE,,,,,SCT,3000,BKN,9000,,,,,VFR,,,,,,,,,,,,SPECI,6.0
LTFC 021920Z 36006KT 9999 FEW030 BKN080 18/13 Q1011 RMK RWY23 VRB02KT,LTFC,2023-06-02T19:20:00Z,37.87,30.38,18.0,13.0,360,6,,6.21,29.852362,,,,,,,,,,,FEW,3000,BKN,8000,,,,,VFR,,,,,,,,,,,,SPECI,862.0
LTCS 021920Z 13007KT CAVOK 22/08 Q1017 RMK RWY22 11008KT SKC,LTCS,2023-06-02T19:20:00Z,37.45,38.9,22.0,8.0,130,7,,6.21,30.029528,,,,,,,,,,,CAVOK,,,,,,,,VFR,,-0.8,,,,,,,,,,METAR,825.0
LTCJ 021920Z 04005KT CAVOK 19/13 Q1016 NOSIG RMK RWY20 03004KT 2CI180,LTCJ,2023-06-02T19:20:00Z,37.93,41.12,19.0,13.0,40,5,,6.21,30.0,,,,,,TRUE,,,,,CAVOK,,,,,,,,VFR,,,,,,,,,,,,SPECI,559.0
LTCG 021920Z 09005KT 9999 SCT011 BKN033 20/19 Q1014 TEMPO TL2100 3500 BR RMK RWY29 11004KT,LTCG,2023-06-02T19:20:00Z,41.0,39.77,20.0,19.0,90,5,,6.21,29.940945,,,,,,,,,,,SCT,1100,BKN,3300,,,,,VFR,,-0.4,,,,,,,,,,SPECI,28.0
LTCE 021920Z VRB02KT 9999 SCT035 BKN070 14/07 Q1022 NOSIG RMK RWY08R 22005KT 190V270 RWY26R 24007KT RWY08L 24004KT 210V290 3CU035 5AC070,LTCE,2023-06-02T19:20:00Z,39.95,41.17,14.0,7.0,0,2,,6.21,30.177166,,,,,,TRUE,,,,,SCT,3500,BKN,7000,,,,,VFR,,,,,,,,,,,,SPECI,1758.0
LTCC 021920Z VRB02KT CAVOK 20/10 Q1016 NOSIG RMK RWY16 VRB01KT SKC,LTCC,2023-06-02T19:20:00Z,37.88,40.2,20.0,10.0,0,2,,6.21,30.0,,,,,,TRUE,,,,,CAVOK,,,,,,,,VFR,,,,,,,,,,,,SPECI,676.0
LTBU 021920Z 04011KT 9999 FEW035 SCT100 BKN180 17/15 Q1012 RMK RWY22 02008KT,LTBU,2023-06-02T19:20:00Z,41.13,27.92,17.0,15.0,40,11,,6.21,29.88189,,,,,,,,,,,FEW,3500,SCT,10000,BKN,18000,,,VFR,,,,,,,,,,,,SPECI,165.0
LTBS 021920Z 02006KT 9999 FEW030 SCT100 BKN180 22/17 Q1007 NOSIG RMK RWY19 36004KT 2CU030 3AC100 6CI180,LTBS,2023-06-02T19:20:00Z,36.7,28.78,22.0,17.0,20,6,,6.21,29.734253,,,,,,TRUE,,,,,FEW,3000,SCT,10000,BKN,18000,,,VFR,,,,,,,,,,,,METAR,2.0
LTBR 021920Z VRB02KT 9999 BKN035 18/18 Q1011 NOSIG RMK RWY07 21004KT,LTBR,2023-06-02T19:20:00Z,40.25,29.57,18.0,18.0,0,2,,6.21,29.852362,,,,,,TRUE,,,,,BKN,3500,,,,,,,VFR,,,-0.4,,,,,,,,,SPECI,233.0
LTBJ 021920Z 02007KT 8000 -SHRA SCT030 BKN100 18/18 Q1010 NOSIG RMK RWY16 36008KT,LTBJ,2023-06-02T19:20:00Z,38.28,27.15,18.0,18.0,20,7,,4.97,29.822834,,,,,,TRUE,,,,-SHRA,SCT,3000,BKN,10000,,,,,MVFR,,,,,,,,,,,,METAR,123.0
LTBA 021920Z 05010KT CAVOK 21/13 Q1011 RMK RWY23 06009KT,LTBA,2023-06-02T19:20:00Z,40.97,28.82,21.0,13.0,50,10,,6.21,29.852362,,,,,,,,,,,CAVOK,,,,,,,,VFR,,,,,,,,,,,,METAR,33.0
LTAZ 021920Z 13010KT CAVOK 16/12 Q1015 RMK RWY29 12008KT,LTAZ,2023-06-02T19:20:00Z,38.77,34.52,16.0,12.0,130,10,,6.21,29.970472,,,,,,,,,,,CAVOK,,,,,,,,VFR,,,,,,,,,,,,SPECI,944.0
LTAU 021920Z 05003KT 350V080 9999 SCT040 BKN100 14/12 Q1016 NOSIG RMK RWY07 04003KT 340V070,LTAU,2023-06-02T19:20:00Z,38.77,35.48,14.0,12.0,50,3,,6.21,30.0,,,,,,TRUE,,,,,SCT,4000,BKN,10000,,,,,VFR,,,,,,,,,,,,SPECI,1053.0
LTAT 021920Z 21004KT CAVOK 15/14 Q1017 NOSIG RMK RWY03 22003KT,LTAT,2023-06-02T19:20:00Z,38.43,38.08,15.0,14.0,210,4,,6.21,30.029528,,,,,,TRUE,,,,,CAVOK,,,,,,,,VFR,,,,,,,,,,,,SPECI,850.0
LTAP 021920Z VRB02KT 9999 FEW035CB SCT040 17/15 Q1012 NOSIG RMK RWY23 02002KT,LTAP,2023-06-02T19:20:00Z,40.83,35.52,17.0,15.0,0,2,,6.21,29.88189,,,,,,TRUE,,,,,FEW,3500,SCT,4000,,,,,VFR,,,,,,,,,,,,SPECI,536.0
LTAJ 021920Z 30003KT CAVOK 20/11 Q1014 NOSIG RMK RWY10 00000KT SKC,LTAJ,2023-06-02T19:20:00Z,36.95,37.48,20.0,11.0,300,3,,6.21,29.940945,,,,,,TRUE,,,,,CAVOK,,,,,,,,VFR,,,,,,,,,,,,SPECI,684.0
LTAI 021920Z 15004KT 9999 SCT030 22/18 Q1007 NOSIG RMK RWY18C 18003KT RWY36R 17003KT 150V270 RWY18L 17002KT,LTAI,2023-06-02T19:20:00Z,36.9,30.8,22.0,18.0,150,4,,6.21,29.734253,,,,,,TRUE,,,,,SCT,3000,,,,,,,VFR,,,,,,,,,,,,METAR,50.0
LTAG 021920Z 35008KT 9999 FEW035 SCT100 25/14 Q1008 NOSIG RMK 1CU035 3AC100,LTAG,2023-06-02T19:20:00Z,37.0,35.42,25.0,14.0,350,8,,6.21,29.763779,,,,,,TRUE,,,,,FEW,3500,SCT,10000,,,,,VFR,,,,,,,,,,,,SPECI,62.0
LTAF 021920Z 01007KT 9999 FEW040 27/17 Q1008 NOSIG RMK RWY23 02006KT 2CU040,LTAF,2023-06-02T19:20:00Z,36.98,35.28,27.0,17.0,10,7,,6.21,29.763779,,,,,,TRUE,,,,,FEW,4000,,,,,,,VFR,,,,,,,,,,,,METAR,19.0
LTAC 021920Z VRB02KT 9999 SCT040 BKN100 17/13 Q1014 NOSIG RMK RWY21L 10003KT RWY03L VRB01KT RWY21R 06002KT,LTAC,2023-06-02T19:20:00Z,40.12,32.98,17.0,13.0,0,2,,6.21,29.940945,,,,,,TRUE,,,,,SCT,4000,BKN,10000,,,,,VFR,,0.3,,,,,,,,,,SPECI,952.0
LSMM 021920Z AUTO VRB03KT 9999NDV SCT071 BKN085 BKN100 23/07 Q1013 RMK,LSMM,2023-06-02T19:20:00Z,46.75,8.12,23.0,7.0,0,3,,,29.911417,,,TRUE,,,,,,,,SCT,7100,BKN,8500,BKN,10000,,,,,,,,,,,,,,,METAR,570.0
LIMW 021920Z AUTO VRB02KT 9999 NCD 17/12 Q1015,LIMW,2023-06-02T19:20:00Z,45.73,7.37,17.0,12.0,0,2,,6.21,29.970472,,,TRUE,,,,,,,,CLR,,,,,,,,VFR,,,,,,,,,,,,METAR,554.0
LCEN 021920Z 32003KT 9999 FEW025 22/14 Q1008 NOSIG RMK RWY11 36003KT 340V040,LCEN,2023-06-02T19:20:00Z,35.15,33.5,22.0,14.0,320,3,,6.21,29.763779,,,,,,TRUE,,,,,FEW,2500,,,,,,,VFR,,,,,,,,,,,,METAR,91.0
KW99 021920Z AUTO 11005KT 10SM CLR 32/10 A2995 RMK AO2,KW99,2023-06-02T19:20:00Z,39.0,-79.15,32.0,10.0,110,5,,10.0,29.949802,,,TRUE,TRUE,,,,,,,CLR,,,,,,,,VFR,,,,,,,,,,,,SPECI,288.0
KMRC 021920Z AUTO VRB06G11KT 10SM FEW060 32/14 A2990 RMK A01,KMRC,2023-06-02T19:20:00Z,35.55,-87.18,32.0,14.0,0,6,11,10.0,29.899607,,,TRUE,TRUE,,,,,,,FEW,6000,,,,,,,VFR,,,,,,,,,,,,METAR,205.0
KMHV 021920Z AUTO 34005KT 10SM CLR 27/04 A2995 RMK AO2,KMHV,2023-06-02T19:20:00Z,35.07,-118.15,27.0,4.0,340,5,,10.0,29.949802,,,TRUE,TRUE,,,,,,,CLR,,,,,,,,VFR,,,,,,,,,,,,METAR,841.0
KM04 021920Z AUTO VRB05KT 10SM CLR 32/18 A2991 RMK A01,KM04,2023-06-02T19:20:00Z,35.58,-89.58,32.0,18.0,0,5,,10.0,29.911417,,,TRUE,TRUE,,,,,,,CLR,,,,,,,,VFR,,,,,,,,,,,,METAR,83.0
KGZN 021920Z AUTO 15014KT 10SM CLR 29/17 A2989 RMK AO2,KGZN,2023-06-02T19:20:00Z,32.37,-99.02,29.0,17.0,150,14,,10.0,29.890747,,,TRUE,TRUE,,,,,,,CLR,,,,,,,,VFR,,,,,,,,,,,,SPECI,522.0
ETWM 021920Z AUTO 03004KT //// // ////// 16/08 Q1021 ///,ETWM,2023-06-02T19:20:00Z,52.72,7.33,16.0,8.0,30,4,,,30.147638,,,TRUE,,,,,,,,,,,,,,,,,,,,,,,,,,,,METAR,18.0
ETSN 021920Z 34005KT 9999 FEW070 SCT340 18/08 Q1016 BLU+,ETSN,2023-06-02T19:20:00Z,48.72,11.22,18.0,8.0,340,5,,6.21,30.0,,,,,,,,,,,FEW,7000,SCT,34000,,,,,VFR,,,,,,,,,,,,METAR,378.0
ETSL 021920Z AUTO 36006KT 9999 // ////// 18/06 Q1016 ///,ETSL,2023-06-02T19:20:00Z,48.18,10.87,18.0,6.0,360,6,,6.21,30.0,,,TRUE,,,,,,,,,,,,,,,,,,,,,,,,,,,,METAR,548.0
ETSI 021920Z AUTO 06011KT 9999 // ////// 20/08 Q1016 ///,ETSI,2023-06-02T19:20:00Z,48.72,11.53,20.0,8.0,60,11,,6.21,30.0,,,TRUE,,,,,,,,,,,,,,,,,,,,,,,,,,,,METAR,366.0
ETSH 021920Z 05006KT 9999 FEW260 15/M03 Q1021 BLU+,ETSH,2023-06-02T19:20:00Z,51.77,13.17,15.0,-3.0,50,6,,6.21,30.147638,,,,,,,,,,,FEW,26000,,,,,,,VFR,,,,,,,,,,,,METAR,79.0
ETSB 021920Z AUTO 03006KT //// // ////// 15/06 Q1018 ///,ETSB,2023-06-02T19:20:00Z,50.17,7.07,15.0,6.0,30,6,,,30.059055,,,TRUE,,,,,,,,,,,,,,,,,,,,,,,,,,,,METAR,477.0
ETNT 021920Z AUTO 06009KT //// // ////// 15/07 Q1023 ///,ETNT,2023-06-02T19:20:00Z,53.53,7.67,15.0,7.0,60,9,,,30.206694,,,TRUE,,,,,,,,,,,,,,,,,,,,,,,,,,,,METAR,5.0
ETNS 021920Z AUTO 10005KT 9999 // ////// 14/03 Q1024 ///,ETNS,2023-06-02T19:20:00Z,54.47,9.52,14.0,3.0,100,5,,6.21,30.236221,,,TRUE,,,,,,,,,,,,,,,,,,,,,,,,,,,,METAR,22.0
ETNN 021920Z 02006KT 9999 FEW050 16/07 Q1019 BLU+,ETNN,2023-06-02T19:20:00Z,50.82,6.67,16.0,7.0,20,6,,6.21,30.088583,,,,,,,,,,,FEW,5000,,,,,,,VFR,,,,,,,,,,,,METAR,108.0
ETNL 021920Z 04005KT 9999 FEW300 13/01 Q1024 BLU+,ETNL,2023-06-02T19:20:00Z,53.92,12.27,13.0,1.0,40,5,,6.21,30.236221,,,,,,,,,,,FEW,30000,,,,,,,VFR,,,,,,,,,,,,METAR,40.0
ETNH 021920Z 06006KT 9999 FEW280 14/03 Q1024 BLU+,ETNH,2023-06-02T19:20:00Z,54.32,9.55,14.0,3.0,60,6,,6.21,30.236221,,,,,,,,,,,FEW,28000,,,,,,,VFR,,,,,,,,,,,,METAR,6.0
ETMN 021920Z 10006KT 9999 FEW240 15/00 Q1023 BLU+,ETMN,2023-06-02T19:20:00Z,53.77,8.67,15.0,0.0,100,6,,6.21,30.206694,,,,,,,,,,,FEW,24000,,,,,,,VFR,,,,,,,,,,,,METAR,23.0
ETHS 021920Z AUTO 04010KT 7000 // ////// 15/01 Q1022 ///,ETHS,2023-06-02T19:20:00Z,52.92,10.18,15.0,1.0,40,10,,4.35,30.177166,,,TRUE,,,,,,,,,,,,,,,,,,,,,,,,,,,,METAR,71.0
ETHN 021920Z 05007KT 9999 FEW330 14/06 Q1017 BLU+,ETHN,2023-06-02T19:20:00Z,49.38,9.97,14.0,6.0,50,7,,6.21,30.029528,,,,,,,,,,,FEW,33000,,,,,,,VFR,,,,,,,,,,,,METAR,466.0
ETHL 021920Z AUTO 06008KT 9999 // ////// 17/08 Q1016 ///,ETHL,2023-06-02T19:20:00Z,48.22,9.92,17.0,8.0,60,8,,6.21,30.0,,,TRUE,,,,,,,,,,,,,,,,,,,,,,,,,,,,METAR,536.0
ETHF 021920Z 03004KT 9999 FEW040 SCT060 16/07 Q1020 BLU+,ETHF,2023-06-02T19:20:00Z,51.12,9.28,16.0,7.0,30,4,,6.21,30.11811,,,,,,,,,,,FEW,4000,SCT,6000,,,,,VFR,,,,,,,,,,,,METAR,171.0
ETHC 021920Z AUTO 05007KT 9999 // ////// 17/M00 Q1022 ///,ETHC,2023-06-02T19:20:00Z,52.6,10.02,17.0,0.0,50,7,,6.21,30.177166,,,TRUE,,,,,,,,,,,,,,,,,,,,,,,,,,,,METAR,35.0
ETHB 021920Z AUTO 07003KT 9999 // ////// 16/09 Q1021 ///,ETHB,2023-06-02T19:20:00Z,52.27,9.07,16.0,9.0,70,3,,6.21,30.147638,,,TRUE,,,,,,,,,,,,,,,,,,,,,,,,,,,,METAR,69.0
ETHA 021920Z AUTO 05006KT 9999 // ////// 16/08 Q1016 ///,ETHA,2023-06-02T19:20:00Z,47.83,10.87,16.0,8.0,50,6,,6.21,30.0,,,TRUE,,,,,,,,,,,,,,,,,,,,,,,,,,,,METAR,738.0
ETGG 021920Z AUTO 12006KT 9999 // ////// 14/02 Q1024 ///,ETGG,2023-06-02T19:20:00Z,54.83,9.5,14.0,2.0,120,6,,6.21,30.236221,,,TRUE,,,,,,,,,,,,,,,,,,,,,,,,,,,,METAR,33.0
ENOA 021920Z 34011KT CAVOK 10/06 Q1026 W///S3,ENOA,2023-06-02T19:20:00Z,60.5,2.83,10.0,6.0,340,11,,6.21,30.295275,,,,,,,,,,,CAVOK,,,,,,,,VFR,,,,,,,,,,,,SPECI,5.0
ENHK 021920Z 00000KT 9999 FEW020 SCT046 05/02 Q1015,ENHK,2023-06-02T19:20:00Z,70.48,22.13,5.0,2.0,0,0,,6.21,29.970472,,,,,,,,,,,FEW,2000,SCT,4600,,,,,VFR,,,,,,,,,,,,METAR,6.0
ENHE 021920Z 26027KT 9000 BKN008 OVC038 08/07 Q1019 W///S4,ENHE,2023-06-02T19:20:00Z,65.33,2.33,8.0,7.0,260,27,,5.59,30.088583,,,,,,,,,,,BKN,800,OVC,3800,,,,,IFR,,,,,,,,,,,,METAR,10.0
EGYM 021920Z AUTO 03010KT 9999 BKN021/// 11/07 Q1025,EGYM,2023-06-02T19:20:00Z,52.63,0.57,11.0,7.0,30,10,,6.21,30.265747,,,TRUE,,,,,,,,BKN,2100,,,,,,,MVFR,,,,,,,,,,,,METAR,25.0
EGYH 021920Z AUTO 05012KT 9999 OVC018/// 11/08 Q1025,EGYH,2023-06-02T19:20:00Z,52.87,0.15,11.0,8.0,50,12,,6.21,30.265747,,,TRUE,,,,,,,,OVC,1800,,,,,,,MVFR,,,,,,,,,,,,METAR,5.0
EGYE 021920Z AUTO 05010KT //// ///////// ///// Q////,EGYE,2023-06-02T19:20:00Z,52.97,-0.57,,,50,10,,,,,,TRUE,,,,,,,,,,,,,,,,,,,,,,,,,,,,METAR,105.0
EGYD 021920Z AUTO 04009KT 9999 NCD 11/06 Q1026,EGYD,2023-06-02T19:20:00Z,53.03,-0.5,11.0,6.0,40,9,,6.21,30.295275,,,TRUE,,,,,,,,CLR,,,,,,,,VFR,,,,,,,,,,,,METAR,65.0
EGXZ 021920Z AUTO 03004KT 9999 NCD 13/06 Q1026,EGXZ,2023-06-02T19:20:00Z,54.2,-1.38,13.0,6.0,30,4,,6.21,30.295275,,,TRUE,,,,,,,,CLR,,,,,,,,VFR,,,,,,,,,,,,METAR,24.0
EGXW 021920Z AUTO 05011KT 9999 NCD 11/06 Q1026,EGXW,2023-06-02T19:20:00Z,53.18,-0.52,11.0,6.0,50,11,,6.21,30.295275,,,TRUE,,,,,,,,CLR,,,,,,,,VFR,,,,,,,,,,,,METAR,70.0
EGXV 021920Z AUTO 06006KT 9999 FEW240/// 11/07 Q1026,EGXV,2023-06-02T19:20:00Z,53.87,-0.45,11.0,7.0,60,6,,6.21,30.295275,,,TRUE,,,,,,,,FEW,24000,,,,,,,VFR,,,,,,,,,,,,METAR,6.0
EGXT 021920Z AUTO 05011KT 9999 FEW023/// 11/06 Q1025,EGXT,2023-06-02T19:20:00Z,52.62,-0.47,11.0,6.0,50,11,,6.21,30.265747,,,TRUE,,,,,,,,FEW,2300,,,,,,,VFR,,,,,,,,,,,,METAR,74.0
EGXS 021920Z AUTO 02012KT 9999 BKN019/// 11/06 Q1026,EGXS,2023-06-02T19:20:00Z,53.48,0.15,11.0,6.0,20,12,,6.21,30.295275,,,TRUE,,,,,,,,BKN,1900,,,,,,,MVFR,,,,,,,,,,,,METAR,6.0
EGXE 021920Z AUTO 02008KT 9999 NCD 12/07 Q1026,EGXE,2023-06-02T19:20:00Z,54.28,-1.52,12.0,7.0,20,8,,6.21,30.295275,,,TRUE,,,,,,,,CLR,,,,,,,,VFR,,,,,,,,,,,,METAR,30.0
EGWU 021920Z AUTO 05013KT 9999 NCD 15/06 Q1023,EGWU,2023-06-02T19:20:00Z,51.55,-0.42,15.0,6.0,50,13,,6.21,30.206694,,,TRUE,,,,,,,,CLR,,,,,,,,VFR,,,,,,,,,,,,METAR,33.0
EGWC 021920Z AUTO 07008KT //// ///////// ///// Q////,EGWC,2023-06-02T19:20:00Z,52.63,-2.3,,,70,8,,,,,,TRUE,,,,,,,,,,,,,,,,,,,,,,,,,,,,METAR,79.0
EGVP 021920Z AUTO 02009KT 9999 NCD 16/07 Q1022,EGVP,2023-06-02T19:20:00Z,51.13,-1.57,16.0,7.0,20,9,,6.21,30.177166,,,TRUE,,,,,,,,CLR,,,,,,,,VFR,,,,,,,,,,,,METAR,80.0
EGVO 021920Z AUTO 02009KT 9999 NCD 15/07 Q1022,EGVO,2023-06-02T19:20:00Z,51.23,-0.95,15.0,7.0,20,9,,6.21,30.177166,,,TRUE,,,,,,,,CLR,,,,,,,,VFR,,,,,,,,,,,,METAR,118.0
EGUW 021920Z AUTO 04012KT 9999 SCT018/// 11/07 Q1024,EGUW,2023-06-02T19:20:00Z,52.12,0.97,11.0,7.0,40,12,,6.21,30.236221,,,TRUE,,,,,,,,SCT,1800,,,,,,,VFR,,,,,,,,,,,,METAR,86.0
EGUB 021920Z AUTO 03010KT 9999 NCD 13/07 Q1023,EGUB,2023-06-02T19:20:00Z,51.62,-1.08,13.0,7.0,30,10,,6.21,30.206694,,,TRUE,,,,,,,,CLR,,,,,,,,VFR,,,,,,,,,,,,METAR,56.0
EGQM 021920Z AUTO 12003KT 9999 NCD 11/08 Q1027,EGQM,2023-06-02T19:20:00Z,55.42,-1.6,11.0,8.0,120,3,,6.21,30.324802,,,TRUE,,,,,,,,CLR,,,,,,,,VFR,,,,,,,,,,,,METAR,24.0
EGQK 021920Z AUTO 03008KT 9999 BKN058/// 13/10 Q1027,EGQK,2023-06-02T19:20:00Z,57.65,-3.57,13.0,10.0,30,8,,6.21,30.324802,,,TRUE,,,,,,,,BKN,5800,,,,,,,VFR,,,,,,,,,,,,METAR,5.0
EGQA 021920Z AUTO 02006KT 9999 NCD 12/08 Q1027,EGQA,2023-06-02T19:20:00Z,57.83,-3.95,12.0,8.0,20,6,,6.21,30.324802,,,TRUE,,,,,,,,CLR,,,,,,,,VFR,,,,,,,,,,,,METAR,4.0
EGOV 021920Z AUTO 04009KT 9999 NCD 16/09 Q1024,EGOV,2023-06-02T19:20:00Z,53.25,-4.53,16.0,9.0,40,9,,6.21,30.236221,,,TRUE,,,,,,,,CLR,,,,,,,,VFR,,,,,,,,,,,,METAR,11.0
EGOS 021920Z AUTO 08008KT 9999 NCD 17/05 Q1024,EGOS,2023-06-02T19:20:00Z,52.8,-2.67,17.0,5.0,80,8,,6.21,30.236221,,,TRUE,,,,,,,,CLR,,,,,,,,VFR,,,,,,,,,,,,METAR,76.0
EGOP 021920Z AUTO 28006KT 9999 NCD 16/10 Q1023,EGOP,2023-06-02T19:20:00Z,51.72,-4.37,16.0,10.0,280,6,,6.21,30.206694,,,TRUE,,,,,,,,CLR,,,,,,,,VFR,,,,,,,,,,,,METAR,8.0
EGOM 021920Z AUTO 09008KT 9999 NCD 13/05 Q1026,EGOM,2023-06-02T19:20:00Z,55.05,-2.55,13.0,5.0,90,8,,6.21,30.295275,,,TRUE,,,,,,,,CLR,,,,,,,,VFR,,,,,,,,,,,,METAR,286.0
EGNT 021920Z 09004KT CAVOK 11/07 Q1027,EGNT,2023-06-02T19:20:00Z,55.03,-1.7,11.0,7.0,90,4,,6.21,30.324802,,,,,,,,,,,CAVOK,,,,,,,,VFR,,,,,,,,,,,,METAR,77.0
EGDY 021920Z AUTO 05011KT 9999 NCD 16/05 Q1022,EGDY,2023-06-02T19:20:00Z,51.0,-2.63,16.0,5.0,50,11,,6.21,30.177166,,,TRUE,,,,,,,,CLR,,,,,,,,VFR,,,,,,,,,,,,METAR,21.0
EGDR 021920Z AUTO 07006KT 9999 NCD 13/09 Q1022,EGDR,2023-06-02T19:20:00Z,50.08,-5.25,13.0,9.0,70,6,,6.21,30.177166,,,TRUE,,,,,,,,CLR,,,,,,,,VFR,,,,,,,,,,,,METAR,74.0
EGDM 021920Z AUTO 03014KT 9999 NCD 15/07 Q1022,EGDM,2023-06-02T19:20:00Z,51.17,-1.75,15.0,7.0,30,14,,6.21,30.177166,,,TRUE,,,,,,,,CLR,,,,,,,,VFR,,,,,,,,,,,,METAR,122.0
KBKF 021919Z 09006KT 10SM TS BKN070 BKN110 BKN220 21/07 A2992 RMK AO2A SLP070,KBKF,2023-06-02T19:19:00Z,39.72,-104.75,21.0,7.0,90,6,,10.0,29.920275,1007.0,,,TRUE,,,,,,TS,BKN,7000,BKN,11000,BKN,22000,,,VFR,,,,,,,,,,,,SPECI,1703.0
RJTE 021918Z 25011KT 1000 +SHRA BR FEW005 BKN008 OVC015CB 22/21 Q0997 RMK 2ST005 5ST008 8CB015 A2946 CB OHD MOV NE RI++,RJTE,2023-06-02T19:18:00Z,34.98,139.82,22.0,21.0,250,11,,0.62,29.438976,,,,,,,,,,+SHRA BR,FEW,500,BKN,800,OVC,1500,,,LIFR,,,,,,,,,,,,METAR,3.0
K1MN 021917Z AUTO 16010KT 10SM CLR 30/16 A2991 RMK AO2 WSHFT 09 SLP123 $,K1MN,2023-06-02T19:17:00Z,,,30.0,16.0,160,10,,10.0,29.911417,1012.3,,TRUE,TRUE,TRUE,,,,,,CLR,,,,,,,,VFR,,,,,,,,,,,,SPECI,
K40B 021916Z AUTO VRB04KT 21/14 A2999 RMK AO1 SLP149 T02100139 53004,K40B,2023-06-02T19:16:00Z,46.62,-69.52,21.0,13.9,0,4,,,29.991142,1014.9,,TRUE,TRUE,,,,,,,,,,,,,,,,0.4,,,,,,,,,,,METAR,344.0
LHSM 021915Z AUTO 36007KT CAVOK 20/14 Q1013,LHSM,2023-06-02T19:15:00Z,46.68,17.17,20.0,14.0,360,7,,6.21,29.911417,,,TRUE,,,,,,,,CAVOK,,,,,,,,VFR,,,,,,,,,,,,METAR,119.0
LHPR 021915Z AUTO 36007KT CAVOK 20/11 Q1014,LHPR,2023-06-02T19:15:00Z,47.63,17.82,20.0,11.0,360,7,,6.21,29.940945,,,TRUE,,,,,,,,CAVOK,,,,,,,,VFR,,,,,,,,,,,,METAR,127.0
LHPP 021915Z AUTO 28004KT CAVOK 19/15 Q1013,LHPP,2023-06-02T19:15:00Z,45.98,18.23,19.0,15.0,280,4,,6.21,29.911417,,,TRUE,,,,,,,,CAVOK,,,,,,,,VFR,,,,,,,,,,,,METAR,193.0
LHPA 021915Z 01002KT CAVOK 19/12 Q1014 NOSIG RMK BLU,LHPA,2023-06-02T19:15:00Z,47.35,17.5,19.0,12.0,10,2,,6.21,29.940945,,,,,,TRUE,,,,,CAVOK,,,,,,,,VFR,,,,,,,,,,,,METAR,143.0
LHDC 021915Z AUTO 02013KT CAVOK 21/11 Q1012 NOSIG,LHDC,2023-06-02T19:15:00Z,47.48,21.62,21.0,11.0,20,13,,6.21,29.88189,,,TRUE,,,TRUE,,,,,CAVOK,,,,,,,,VFR,,,,,,,,,,,,METAR,105.0
KMUI 021915Z VRB06KT 10SM SCT060 BKN100 34/06 A2986 RMK AO2A LTG DSNT SE SLP111,KMUI,2023-06-02T19:15:00Z,40.43,-76.57,34.0,6.0,0,6,,10.0,29.861221,1011.1,,,TRUE,,,,,,,SCT,6000,BKN,10000,,,,,VFR,,,,,,,,,,,,SPECI,146.0
CYVT 021914Z AUTO 33006KT 9SM SCT011 BKN031 OVC048 18/16 A3001 RMK SLP171 DENSITY ALT 2100FT,CYVT,2023-06-02T19:14:00Z,55.83,-108.42,18.0,16.0,330,6,,9.0,30.008858,1017.1,,TRUE,,,,,,,,SCT,1100,BKN,3100,OVC,4800,,,VFR,,,,,,,,,,,,SPECI,438.0
CYCB 021914Z 27017G23KT 15SM SCT006 BKN018 02/00 A3007 RMK SF4SC3 PRESRR SLP186,CYCB,2023-06-02T19:14:00Z,69.1,-105.12,2.0,0.0,270,17,23,15.0,30.070866,1018.6,,,,,,,,,,SCT,600,BKN,1800,,,,,MVFR,,,,,,,,,,,,SPECI,19.0
KDUB 021913Z AUTO 31008KT 10SM OVC043 13/05 A3001 RMK AO2,KDUB,2023-06-02T19:13:00Z,43.55,-109.68,13.0,5.0,310,8,,10.0,30.008858,,,TRUE,TRUE,,,,,,,OVC,4300,,,,,,,VFR,,,,,,,,,,,,SPECI,2205.0
RJFY 021912Z VRB02KT 6000 SCT002 21/18 Q0999 RMK 3ST002 A2951,RJFY,2023-06-02T19:12:00Z,31.37,130.83,21.0,18.0,0,2,,3.73,29.498032,,,,,,,,,,,SCT,200,,,,,,,MVFR,,,,,,,,,,,,SPECI,59.0
MMBT 021911Z RTD 19009KT 8SM SCT030 33/23 A2982 RMK 8/100,MMBT,2023-06-02T19:11:00Z,15.77,-96.27,33.0,23.0,190,9,,8.0,29.819881,,,,,,,,,,,SCT,3000,,,,,,,VFR,,,,,,,,,,,,METAR,137.0
VCBI 021910Z 24008KT 9999 FEW016 29/26 Q1010 NOSIG,VCBI,2023-06-02T19:10:00Z,7.17,79.88,29.0,26.0,240,8,,6.21,29.822834,,,,,,TRUE,,,,,FEW,1600,,,,,,,VFR,,,,,,,,,,,,METAR,10.0
RJTY 021910Z AUTO 03008KT 6SM RA BR OVC027 19/18 A2948 RMK AO2 CIG 018 RWY36 SLP984 $,RJTY,2023-06-02T19:10:00Z,35.75,139.33,19.0,18.0,30,8,,6.0,29.480314,998.4,,TRUE,TRUE,TRUE,,,,,RA BR,OVC,2700,,,,,,,MVFR,,,,,,,,,,,,METAR,136.0
CZFA 021908Z 14010G19KT 050V160 30SM BKN070 15/M02 A2988 RMK AC7 WSHFT 1901 SLP140 DENSITY ALT 3000FT,CZFA,2023-06-02T19:08:00Z,62.2,-133.38,15.0,-2.0,140,10,19,30.0,29.878937,1014.0,,,,,,,,,,BKN,7000,,,,,,,VFR,,,,,,,,,,,,SPECI,702.0
KCEC 021905Z AUTO 22006KT 10SM SCT011 11/09 A3011 RMK AO2 T01110089,KCEC,2023-06-02T19:05:00Z,41.78,-124.23,11.1,8.9,220,6,,10.0,30.109253,,,TRUE,TRUE,,,,,,,SCT,1100,,,,,,,VFR,,,,,,,,,,,,SPECI,17.0
CYFC 021904Z AUTO 04012G19KT 9SM BKN023 BKN039 OVC081 14/08 A3006 RMK SLP180,CYFC,2023-06-02T19:04:00Z,45.87,-66.53,14.0,8.0,40,12,19,9.0,30.059055,1018.0,,TRUE,,,,,,,,BKN,2300,BKN,3900,OVC,8100,,,MVFR,,,,,,,,,,,,SPECI,16.0
SVVL 021903Z AUTO ///01KT NCD ///// Q////,SVVL,2023-06-02T19:03:00Z,9.33,-70.58,,,,,,,,,,TRUE,,,,,,,,CLR,,,,,,,,,,,,,,,,,,,,METAR,575.0
SVVA 021903Z AUTO 35004KT NCD 28/24 Q1012,SVVA,2023-06-02T19:03:00Z,10.15,-67.92,28.0,24.0,350,4,,,29.88189,,,TRUE,,,,,,,,CLR,,,,,,,,,,,,,,,,,,,,METAR,428.0
SVSR 021903Z AUTO NIL,SVSR,2023-06-02T19:03:00Z,7.87,-67.43,,,,,,,,,,TRUE,,,,,,,,,,,,,,,,,,,,,,,,,,,,METAR,49.0
SVSA 021903Z AUTO NIL,SVSA,2023-06-02T19:03:00Z,7.83,-72.45,,,,,,,,,,TRUE,,,,,,,,,,,,,,,,,,,,,,,,,,,,METAR,383.0
SVPR 021903Z AUTO 02005KT NCD 32/21 Q1011,SVPR,2023-06-02T19:03:00Z,8.3,-62.77,32.0,21.0,20,5,,,29.852362,,,TRUE,,,,,,,,CLR,,,,,,,,,,,,,,,,,,,,METAR,140.0
SVPA 021903Z AUTO NIL,SVPA,2023-06-02T19:03:00Z,5.62,-67.6,,,,,,,,,,TRUE,,,,,,,,,,,,,,,,,,,,,,,,,,,,METAR,77.0
SVMT 021903Z AUTO 10004KT NCD 31/30 Q1010,SVMT,2023-06-02T19:03:00Z,9.75,-63.17,31.0,30.0,100,4,,,29.822834,,,TRUE,,,,,,,,CLR,,,,,,,,,,,,,,,,,,,,METAR,67.0
SVMG 021903Z AUTO 09015KT NCD 34/24 Q1010,SVMG,2023-06-02T19:03:00Z,10.92,-63.97,34.0,24.0,90,15,,,29.822834,,,TRUE,,,,,,,,CLR,,,,,,,,,,,,,,,,,,,,METAR,16.0
SVMC 021903Z AUTO 20005KT NCD 30/24 Q1008,SVMC,2023-06-02T19:03:00Z,10.57,-71.72,30.0,24.0,200,5,,,29.763779,,,TRUE,,,,,,,,CLR,,,,,,,,,,,,,,,,,,,,METAR,76.0
SVLO 021903Z AUTO NIL,SVLO,2023-06-02T19:03:00Z,11.8,-66.18,,,,,,,,,,TRUE,,,,,,,,,,,,,,,,,,,,,,,,,,,,METAR,3.0
SVJM 021903Z AUTO 31011KT NCD 25/22 Q1012,SVJM,2023-06-02T19:03:00Z,9.92,-67.38,25.0,22.0,310,11,,,29.88189,,,TRUE,,,,,,,,CLR,,,,,,,,,,,,,,,,,,,,METAR,448.0
SVGU 021903Z AUTO 15005KT NCD 37/24 Q1011,SVGU,2023-06-02T19:03:00Z,9.03,-69.75,37.0,24.0,150,5,,,29.852362,,,TRUE,,,,,,,,CLR,,,,,,,,,,,,,,,,,,,,METAR,165.0
SVGD 021903Z AUTO 15004KT NCD 32/24 Q1012,SVGD,2023-06-02T19:03:00Z,7.22,-70.75,32.0,24.0,150,4,,,29.88189,,,TRUE,,,,,,,,CLR,,,,,,,,,,,,,,,,,,,,METAR,129.0
SVFM 021903Z AUTO NIL,SVFM,2023-06-02T19:03:00Z,10.48,-66.83,,,,,,,,,,TRUE,,,,,,,,,,,,,,,,,,,,,,,,,,,,METAR,852.0
SVCS 021903Z AUTO 12006KT NCD 26/20 Q1015,SVCS,2023-06-02T19:03:00Z,10.3,-66.82,26.0,20.0,120,6,,,29.970472,,,TRUE,,,,,,,,CLR,,,,,,,,,,,,,,,,,,,,METAR,656.0
SVCB 021903Z AUTO 18006KT NCD 30/23 Q1009,SVCB,2023-06-02T19:03:00Z,8.12,-63.53,30.0,23.0,180,6,,,29.793306,,,TRUE,,,,,,,,CLR,,,,,,,,,,,,,,,,,,,,METAR,47.0
SVBS 021903Z AUTO 24005KT NCD 32/20 Q1013,SVBS,2023-06-02T19:03:00Z,10.25,-67.65,32.0,20.0,240,5,,,29.911417,,,TRUE,,,,,,,,CLR,,,,,,,,,,,,,,,,,,,,METAR,435.0
SVBM 021903Z AUTO 10014KT NCD 28/20 Q1012,SVBM,2023-06-02T19:03:00Z,10.05,-69.37,28.0,20.0,100,14,,,29.88189,,,TRUE,,,,,,,,CLR,,,,,,,,,,,,,,,,,,,,METAR,624.0
SVBI 021903Z AUTO /////KT NCD 34/22 Q1014,SVBI,2023-06-02T19:03:00Z,8.62,-70.22,34.0,22.0,,,,,29.940945,,,TRUE,,,,,,,,CLR,,,,,,,,,,,,,,,,,,,,METAR,185.0
SVBC 021903Z AUTO 35010KT NCD 32/25 Q1010,SVBC,2023-06-02T19:03:00Z,10.12,-64.68,32.0,25.0,350,10,,,29.822834,,,TRUE,,,,,,,,CLR,,,,,,,,,,,,,,,,,,,,METAR,7.0
FACT 021903Z 36027G40KT 9999 FEW020 BKN045 14/11 Q1007 TEMPO 4000 -RA,FACT,2023-06-02T19:03:00Z,-33.97,18.6,14.0,11.0,360,27,40,6.21,29.734253,,,,,,,,,,,FEW,2000,BKN,4500,,,,,VFR,,,,,,,,,,,,SPECI,48.0
PAHX 021902Z AUTO 20004KT 6SM HZ CLR 05/M02 A2990 RMK AO2 SLP126 T00501022,PAHX,2023-06-02T19:02:00Z,62.7,-159.57,5.0,-2.2,200,4,,6.0,29.899607,1012.6,,TRUE,TRUE,,,,,,HZ,CLR,,,,,,,,VFR,,,,,,,,,,,,METAR,20.0
MUHG 021902Z 15007KT 110V180 4000 R05/1200V2100U RA FEW016 SCT027 BKN105 24/24 Q1008,MUHG,2023-06-02T19:02:00Z,20.78,-76.32,24.0,24.0,150,7,,2.49,29.763779,,,,,,,,,,RA,FEW,1600,SCT,2700,BKN,10500,,,IFR,,,,,,,,,,,,SPECI,100.0
KQOA 021902Z 19007KT 160V230 6000 FU FEW090 FEW160 SCT180 SCT210 33/19 A2980 RMK AO2A SLP044 T03280185,KQOA,2023-06-02T19:02:00Z,,,32.8,18.5,190,7,,3.73,29.799213,1004.4,,,TRUE,,,,,,FU,FEW,9000,FEW,16000,SCT,18000,SCT,21000,MVFR,,,,,,,,,,,,METAR,
SCTN 021901Z 36017G28KT 3000 RA SCT020 OVC030 10/10 Q1003,SCTN,2023-06-02T19:01:00Z,-42.92,-72.7,10.0,10.0,360,17,28,1.86,29.616142,,,,,,,,,,RA,SCT,2000,OVC,3000,,,,,IFR,,,,,,,,,,,,SPECI,8.0
MMIO 021901Z RTD 36010KT 10SM SKC 27/07 A3008 RMK SC,MMIO,2023-06-02T19:01:00Z,25.55,-100.93,27.0,7.0,360,10,,10.0,30.079725,,,,,,,,,,,SKC,,,,,,,,VFR,,,,,,,,,,,,METAR,1430.0
ZYHB 021900Z 28003MPS CAVOK 13/10 Q1004 NOSIG,ZYHB,2023-06-02T19:00:00Z,45.62,126.25,13.0,10.0,280,6,,6.21,29.64567,,,,,,TRUE,,,,,CAVOK,,,,,,,,VFR,,,,,,,,,,,,METAR,134.0
ZYCC 021900Z 31002MPS 280V340 9999 SCT030 10/06 Q1005 NOSIG,ZYCC,2023-06-02T19:00:00Z,43.98,125.68,10.0,6.0,310,4,,6.21,29.675198,,,,,,TRUE,,,,,SCT,3000,,,,,,,VFR,,,,,,,,,,,,METAR,211.0
ZWSH 021900Z AUTO 25004MPS 9999 // ///////// 19/04 Q1016,ZWSH,2023-06-02T19:00:00Z,39.55,76.02,19.0,4.0,250,8,,6.21,30.0,,,TRUE,,,,,,,,,,,,,,,,,,,,,,,,,,,,METAR,1374.0
ZUUU 021900Z VRB01MPS 9999 FEW030 21/16 Q1010 NOSIG,ZUUU,2023-06-02T19:00:00Z,30.58,103.95,21.0,16.0,0,2,,6.21,29.822834,,,,,,TRUE,,,,,FEW,3000,,,,,,,VFR,,,,,,,,,,,,METAR,494.0
ZUTF 021900Z 34003MPS 9999 FEW008 BKN020 OVC040 18/17 Q1010 NOSIG,ZUTF,2023-06-02T19:00:00Z,30.3,104.43,18.0,17.0,340,6,,6.21,29.822834,,,,,,TRUE,,,,,FEW,800,BKN,2000,OVC,4000,,,MVFR,,,,,,,,,,,,METAR,443.0
ZUGY 021900Z 01003MPS 350V060 9999 -RA FEW020 OVC040 20/20 Q1012 NOSIG,ZUGY,2023-06-02T19:00:00Z,26.53,106.8,20.0,20.0,10,6,,6.21,29.88189,,,,,,TRUE,,,,-RA,FEW,2000,OVC,4000,,,,,VFR,,,,,,,,,,,,METAR,1130.0
ZUCK 021900Z 30003MPS 4500 -RA BR FEW004 SCT020 OVC040 20/19 Q1009 NOSIG,ZUCK,2023-06-02T19:00:00Z,29.72,106.63,20.0,19.0,300,6,,2.8,29.793306,,,,,,TRUE,,,,-RA BR,FEW,400,SCT,2000,OVC,4000,,,IFR,,,,,,,,,,,,METAR,416.0
ZSQD 021900Z 27002MPS CAVOK 15/12 Q1011 NOSIG,ZSQD,2023-06-02T19:00:00Z,36.27,120.38,15.0,12.0,270,4,,6.21,29.852362,,,,,,TRUE,,,,,CAVOK,,,,,,,,VFR,,,,,,,,,,,,METAR,8.0
ZSOF 021900Z 32003MPS 290V350 CAVOK 21/15 Q1011 NOSIG,ZSOF,2023-06-02T19:00:00Z,31.98,116.97,21.0,15.0,320,6,,6.21,29.852362,,,,,,TRUE,,,,,CAVOK,,,,,,,,VFR,,,,,,,,,,,,METAR,23.0
ZSNJ 021900Z 03002MPS 350V080 CAVOK 24/18 Q1010 NOSIG,ZSNJ,2023-06-02T19:00:00Z,31.75,118.87,24.0,18.0,30,4,,6.21,29.822834,,,,,,TRUE,,,,,CAVOK,,,,,,,,VFR,,,,,,,,,,,,METAR,27.0
ZSNB 021900Z 19002MPS 8000 NSC 23/19 Q1008 NOSIG,ZSNB,2023-06-02T19:00:00Z,29.83,121.47,23.0,19.0,190,4,,4.97,29.763779,,,,,,TRUE,,,,,CLR,,,,,,,,MVFR,,,,,,,,,,,,METAR,5.0
ZSFZ 021900Z 05004MPS 9000 BKN004 27/26 Q1008 NOSIG,ZSFZ,2023-06-02T19:00:00Z,25.93,119.67,27.0,26.0,50,8,,5.59,29.763779,,,,,,TRUE,,,,,BKN,400,,,,,,,LIFR,,,,,,,,,,,,METAR,14.0
ZSAM 021900Z 08003MPS 7000 FEW013 FEW017TCU BKN017 29/26 Q1007 NOSIG,ZSAM,2023-06-02T19:00:00Z,24.53,118.13,29.0,26.0,80,6,,4.35,29.734253,,,,,,TRUE,,,,,FEW,1300,FEW,1700,BKN,1700,,,MVFR,,,,,,,,,,,,METAR,13.0
ZPPP 021900Z 20004MPS CAVOK 20/14 Q1017 NOSIG,ZPPP,2023-06-02T19:00:00Z,25.0,102.65,20.0,14.0,200,8,,6.21,30.029528,,,,,,TRUE,,,,,CAVOK,,,,,,,,VFR,,,,,,,,,,,,METAR,1885.0
ZLXY 021900Z 21002MPS 4000 BR FEW004 17/17 Q1014 NOSIG,ZLXY,2023-06-02T19:00:00Z,34.43,108.75,17.0,17.0,210,4,,2.49,29.940945,,,,,,TRUE,,,,BR,FEW,400,,,,,,,IFR,,,,,,,,,,,,METAR,478.0
ZLLL 021900Z VRB01MPS 9999 OVC033 12/09 Q1018 NOSIG,ZLLL,2023-06-02T19:00:00Z,36.52,103.62,12.0,9.0,0,2,,6.21,30.059055,,,,,,TRUE,,,,,OVC,3300,,,,,,,VFR,,,,,,,,,,,,METAR,1939.0
ZJSY 021900Z 33001MPS 9999 FEW015 28/25 Q1006 NOSIG,ZJSY,2023-06-02T19:00:00Z,18.3,109.42,28.0,25.0,330,2,,6.21,29.704725,,,,,,TRUE,,,,,FEW,1500,,,,,,,VFR,,,,,,,,,,,,METAR,27.0
ZJHK 021900Z 08001MPS CAVOK 26/26 Q1005 NOSIG,ZJHK,2023-06-02T19:00:00Z,19.93,110.43,26.0,26.0,80,2,,6.21,29.675198,,,,,,TRUE,,,,,CAVOK,,,,,,,,VFR,,,,,,,,,,,,METAR,21.0
ZHHH 021900Z VRB01MPS CAVOK 23/13 Q1010 NOSIG,ZHHH,2023-06-02T19:00:00Z,30.78,114.22,23.0,13.0,0,2,,6.21,29.822834,,,,,,TRUE,,,,,CAVOK,,,,,,,,VFR,,,,,,,,,,,,METAR,33.0
ZHCC 021900Z 26001MPS CAVOK 18/16 Q1012 NOSIG,ZHCC,2023-06-02T19:00:00Z,34.52,113.83,18.0,16.0,260,2,,6.21,29.88189,,,,,,TRUE,,,,,CAVOK,,,,,,,,VFR,,,,,,,,,,,,METAR,149.0
ZGSZ 021900Z 19004MPS 9999 FEW015 SCT043 29/27 Q1006 NOSIG,ZGSZ,2023-06-02T19:00:00Z,22.63,113.8,29.0,27.0,190,8,,6.21,29.704725,,,,,,TRUE,,,,,FEW,1500,SCT,4300,,,,,VFR,,,,,,,,,,,,METAR,18.0
ZGOW 021900Z 00000MPS 5000 BR SCT023 27/26 Q1007 NOSIG,ZGOW,2023-06-02T19:00:00Z,23.55,116.5,27.0,26.0,0,0,,3.11,29.734253,,,,,,TRUE,,,,BR,SCT,2300,,,,,,,MVFR,,,,,,,,,,,,METAR,4.0
ZGNN 021900Z 13002MPS CAVOK 28/27 Q1006 NOSIG,ZGNN,2023-06-02T19:00:00Z,22.62,108.17,28.0,27.0,130,4,,6.21,29.704725,,,,,,TRUE,,,,,CAVOK,,,,,,,,VFR,,,,,,,,,,,,METAR,128.0
ZGKL 021900Z VRB01MPS 9999 SCT040 27/26 Q1006 NOSIG,ZGKL,2023-06-02T19:00:00Z,25.22,110.03,27.0,26.0,0,2,,6.21,29.704725,,,,,,TRUE,,,,,SCT,4000,,,,,,,VFR,,,,,,,,,,,,METAR,151.0
ZGHA 021900Z 33004MPS 8000 -RA OVC050 25/22 Q1008 NOSIG,ZGHA,2023-06-02T19:00:00Z,28.18,113.22,25.0,22.0,330,8,,4.97,29.763779,,,,,,TRUE,,,,-RA,OVC,5000,,,,,,,MVFR,,,,,,,,,,,,METAR,61.0
ZBSJ 021900Z VRB01MPS CAVOK 17/12 Q1011 NOSIG,ZBSJ,2023-06-02T19:00:00Z,38.28,114.7,17.0,12.0,0,2,,6.21,29.852362,,,,,,TRUE,,,,,CAVOK,,,,,,,,VFR,,,,,,,,,,,,METAR,70.0
ZBHH 021900Z 09003MPS CAVOK 12/01 Q1016 NOSIG,ZBHH,2023-06-02T19:00:00Z,40.85,111.82,12.0,1.0,90,6,,6.21,30.0,,,,,,TRUE,,,,,CAVOK,,,,,,,,VFR,,,,,,,,,,,,METAR,1081.0
WSSL 021900Z VRB02KT 9999 FEW018 BKN300 29/26 Q1009,WSSL,2023-06-02T19:00:00Z,1.42,103.87,29.0,26.0,0,2,,6.21,29.793306,,,,,,,,,,,FEW,1800,BKN,30000,,,,,VFR,,,,,,,,,,,,METAR,11.0
WSAP 021900Z 06002KT 9999 FEW016 SCT150 BKN300 29/26 Q1010,WSAP,2023-06-02T19:00:00Z,1.37,103.92,29.0,26.0,60,2,,6.21,29.822834,,,,,,,,,,,FEW,1600,SCT,15000,BKN,30000,,,VFR,,,,,,,,,,,,METAR,20.0
WMSA 021900Z 00000KT 9999 FEW017CB 27/24 Q1009,WMSA,2023-06-02T19:00:00Z,3.13,101.55,27.0,24.0,0,0,,6.21,29.793306,,,,,,,,,,,FEW,1700,,,,,,,VFR,,,,,,,,,,,,METAR,19.0
WMKN 021900Z 17006KT 130V200 9999 TS FEW017CB SCT022 27/25 Q1009,WMKN,2023-06-02T19:00:00Z,5.37,103.1,27.0,25.0,170,6,,6.21,29.793306,,,,,,,,,,TS,FEW,1700,SCT,2200,,,,,VFR,,,,,,,,,,,,METAR,12.0
WMKM 021900Z 00000KT 9999 FEW028 26/25 Q1010,WMKM,2023-06-02T19:00:00Z,2.27,102.25,26.0,25.0,0,0,,6.21,29.822834,,,,,,,,,,,FEW,2800,,,,,,,VFR,,,,,,,,,,,,METAR,9.0
WMKL 021900Z 00000KT 9999 FEW026 28/25 Q1009,WMKL,2023-06-02T19:00:00Z,6.32,99.72,28.0,25.0,0,0,,6.21,29.793306,,,,,,,,,,,FEW,2600,,,,,,,VFR,,,,,,,,,,,,METAR,4.0
WMKJ 021900Z VRB02KT 6000 FEW008 27/25 Q1009,WMKJ,2023-06-02T19:00:00Z,1.63,103.67,27.0,25.0,0,2,,3.73,29.793306,,,,,,,,,,,FEW,800,,,,,,,MVFR,,,,,,,,,,,,METAR,38.0
WMKI 021900Z 02004KT 8000 FEW026 27/25 Q1009,WMKI,2023-06-02T19:00:00Z,4.57,101.08,27.0,25.0,20,4,,4.97,29.793306,,,,,,,,,,,FEW,2600,,,,,,,MVFR,,,,,,,,,,,,METAR,37.0
WMKE 021900Z AUTO 00000KT //// // ////// 25/25 Q1009,WMKE,2023-06-02T19:00:00Z,4.53,103.43,25.0,25.0,0,0,,,29.793306,,,TRUE,,,,,,,,,,,,,,,,,,,,,,,,,,,,METAR,5.0
WMKD 021900Z VRB02KT 9999 FEW025 27/26 Q1009 NOSIG,WMKD,2023-06-02T19:00:00Z,3.77,103.22,27.0,26.0,0,2,,6.21,29.793306,,,,,,TRUE,,,,,FEW,2500,,,,,,,VFR,,,,,,,,,,,,METAR,18.0
WMKC 021900Z VRB02KT 9000 -RA FEW010 FEW017CB SCT020 24/24 Q1009,WMKC,2023-06-02T19:00:00Z,6.17,102.28,24.0,24.0,0,2,,5.59,29.793306,,,,,,,,,,-RA,FEW,1000,FEW,1700,SCT,2000,,,VFR,,,,,,,,,,,,METAR,7.0
WMKB 021900Z 02004KT 7000 SCT023 27/26 Q1009 NOSIG,WMKB,2023-06-02T19:00:00Z,5.47,100.38,27.0,26.0,20,4,,4.35,29.793306,,,,,,TRUE,,,,,SCT,2300,,,,,,,MVFR,,,,,,,,,,,,METAR,4.0
WMKA 021900Z 00000KT 9000 FEW028 28/26 Q1009,WMKA,2023-06-02T19:00:00Z,6.2,100.4,28.0,26.0,0,0,,5.59,29.793306,,,,,,,,,,,FEW,2800,,,,,,,VFR,,,,,,,,,,,,METAR,5.0
WMBA 021900Z 00000KT 8000 FEW031 27/25 Q1009,WMBA,2023-06-02T19:00:00Z,4.22,100.7,27.0,25.0,0,0,,4.97,29.793306,,,,,,,,,,,FEW,3100,,,,,,,MVFR,,,,,,,,,,,,METAR,9.0
WMAU 021900Z 24003KT 130V240 7000 SCT025 26/25 Q1010,WMAU,2023-06-02T19:00:00Z,2.38,103.88,26.0,25.0,240,3,,4.35,29.822834,,,,,,,,,,,SCT,2500,,,,,,,MVFR,,,,,,,,,,,,METAR,5.0
WIMM 021900Z 00000KT 1100 BR SCT017 26/26 Q1009 NOSIG,WIMM,2023-06-02T19:00:00Z,3.57,98.67,26.0,26.0,0,0,,0.68,29.793306,,,,,,TRUE,,,,BR,SCT,1700,,,,,,,LIFR,,,,,,,,,,,,METAR,27.0
WIEE 021900Z AUTO 32005KT 9999 SCT021 BKN055 BKN055 27/25 Q1010 NOSIG,WIEE,2023-06-02T19:00:00Z,-0.78,100.28,27.0,25.0,320,5,,6.21,29.822834,,,TRUE,,,TRUE,,,,,SCT,2100,BKN,5500,BKN,5500,,,VFR,,,,,,,,,,,,METAR,5.0
WBKW 021900Z 31004KT 9999 FEW016 26/24 Q1010,WBKW,2023-06-02T19:00:00Z,4.32,118.12,26.0,24.0,310,4,,6.21,29.822834,,,,,,,,,,,FEW,1600,,,,,,,VFR,,,,,,,,,,,,METAR,17.0
WBKT 021900Z 22003KT 9999 FEW014 27/26 Q1009,WBKT,2023-06-02T19:00:00Z,6.92,116.83,27.0,26.0,220,3,,6.21,29.793306,,,,,,,,,,,FEW,1400,,,,,,,VFR,,,,,,,,,,,,METAR,11.0
WBKS 021900Z 22003KT 160V280 9999 FEW016 FEW017CB 27/25 Q1009,WBKS,2023-06-02T19:00:00Z,5.9,118.07,27.0,25.0,220,3,,6.21,29.793306,,,,,,,,,,,FEW,1600,FEW,1700,,,,,VFR,,,,,,,,,,,,METAR,13.0
WBKL 021900Z 00000KT 9999 FEW035 27/25 Q1009,WBKL,2023-06-02T19:00:00Z,5.3,115.25,27.0,25.0,0,0,,6.21,29.793306,,,,,,,,,,,FEW,3500,,,,,,,VFR,,,,,,,,,,,,METAR,29.0
WBGY 021900Z AUTO 00000KT //// // ////// 25/25 Q1009,WBGY,2023-06-02T19:00:00Z,1.22,111.45,25.0,25.0,0,0,,,29.793306,,,TRUE,,,,,,,,,,,,,,,,,,,,,,,,,,,,METAR,13.0
WBGS 021900Z 00000KT 9999 SCT016 26/25 Q1010,WBGS,2023-06-02T19:00:00Z,2.27,111.98,26.0,25.0,0,0,,6.21,29.822834,,,,,,,,,,,SCT,1600,,,,,,,VFR,,,,,,,,,,,,METAR,26.0
WBGR 021900Z VRB03KT 9999 FEW016 26/25 Q1009,WBGR,2023-06-02T19:00:00Z,4.32,113.98,26.0,25.0,0,3,,6.21,29.793306,,,,,,,,,,,FEW,1600,,,,,,,VFR,,,,,,,,,,,,METAR,18.0
WBGB 021900Z 09004KT 9999 FEW016 26/25 Q1009,WBGB,2023-06-02T19:00:00Z,3.12,113.02,26.0,25.0,90,4,,6.21,29.793306,,,,,,,,,,,FEW,1600,,,,,,,VFR,,,,,,,,,,,,METAR,34.0
VTUU 021900Z 00000KT CAVOK 26/26 Q1007 NOSIG,VTUU,2023-06-02T19:00:00Z,15.25,104.87,26.0,26.0,0,0,,6.21,29.734253,,,,,,TRUE,,,,,CAVOK,,,,,,,,VFR,,,,,,,,,,,,METAR,119.0
VTUK 021900Z 20004KT 9000 FEW030 29/23 Q1007 NOSIG,VTUK,2023-06-02T19:00:00Z,16.47,102.78,29.0,23.0,200,4,,5.59,29.734253,,,,,,TRUE,,,,,FEW,3000,,,,,,,VFR,,,,,,,,,,,,METAR,190.0
VTSG 021900Z 09001KT 9999 FEW020 25/25 Q1009 NOSIG,VTSG,2023-06-02T19:00:00Z,8.1,98.98,25.0,25.0,90,1,,6.21,29.793306,,,,,,TRUE,,,,,FEW,2000,,,,,,,VFR,,,,,,,,,,,,METAR,32.0
VTCT 021900Z 29003KT 9999 FEW040 24/24 Q1007 NOSIG,VTCT,2023-06-02T19:00:00Z,19.95,99.88,24.0,24.0,290,3,,6.21,29.734253,,,,,,TRUE,,,,,FEW,4000,,,,,,,VFR,,,,,,,,,,,,METAR,389.0
VRMM 021900Z 29011KT 9999 -SHRA FEW017TCU BKN260 28/26 Q1012 TEMPO 5000 SHRA,VRMM,2023-06-02T19:00:00Z,4.2,73.52,28.0,26.0,290,11,,6.21,29.88189,,,,,,,,,,-SHRA,FEW,1700,BKN,26000,,,,,VFR,,,,,,,,,,,,METAR,2.0
VRMH 021900Z 24009KT 9999 TS FEW017 FEW018CB BKN120 29/27 Q1011 RETS CB NNE,VRMH,2023-06-02T19:00:00Z,6.75,73.17,29.0,27.0,240,9,,6.21,29.852362,,,,,,,,,,TS,FEW,1700,FEW,1800,BKN,12000,,,VFR,,,,,,,,,,,,METAR,1.0
"VRMG 021900Z 20004KT 6000 -SHRA SCT016 FEW017CB OVC110 26/25 Q1013 CB N,E,SE,SW TEMPO 5000 SHRA",VRMG,2023-06-02T19:00:00Z,-0.7,73.15,26.0,25.0,200,4,,3.73,29.911417,,,,,,,,,,-SHRA,SCT,1600,FEW,1700,OVC,11000,,,MVFR,,,,,,,,,,,,METAR,2.0
VOPB 021900Z 21014KT 3000 RA SCT012 FEW022TCU BKN220 26/24 Q1007 TEMPO 1500 RA/DZ 22015G25KT,VOPB,2023-06-02T19:00:00Z,11.63,92.73,26.0,24.0,210,14,,1.86,29.734253,,,,,,,,,,RA,SCT,1200,FEW,2200,BKN,22000,,,IFR,,,,,,,,,,,,METAR,1.0
VOGA 021900Z 32005KT 5000 HZ NSC 27/23 Q1011 NOSIG,VOGA,2023-06-02T19:00:00Z,,,27.0,23.0,320,5,,3.11,29.852362,,,,,,TRUE,,,,HZ,CLR,,,,,,,,MVFR,,,,,,,,,,,,METAR,
VOCB 021900Z 20007KT 5000 BR FEW015 26/24 Q1011 NOSIG,VOCB,2023-06-02T19:00:00Z,11.02,77.03,26.0,24.0,200,7,,3.11,29.852362,,,,,,TRUE,,,,BR,FEW,1500,,,,,,,MVFR,,,,,,,,,,,,METAR,394.0
VERC 021900Z 34003KT 4000 HZ FEW100 30/16 Q1008 NOSIG,VERC,2023-06-02T19:00:00Z,23.32,85.32,30.0,16.0,340,3,,2.49,29.763779,,,,,,TRUE,,,,HZ,FEW,10000,,,,,,,IFR,,,,,,,,,,,,METAR,646.0
VEPT 021900Z 30004KT 4000 HZ NSC 34/19 Q1002 NOSIG,VEPT,2023-06-02T19:00:00Z,25.6,85.08,34.0,19.0,300,4,,2.49,29.586615,,,,,,TRUE,,,,HZ,CLR,,,,,,,,IFR,,,,,,,,,,,,METAR,53.0
VDSV 021900Z 09002KT 9999 SCT015 27/26 Q1008,VDSV,2023-06-02T19:00:00Z,10.58,103.63,27.0,26.0,90,2,,6.21,29.763779,,,,,,,,,,,SCT,1500,,,,,,,VFR,,,,,,,,,,,,METAR,1.0
VAID 021900Z 29005KT 6000 NSC 28/18 Q1010 NOSIG,VAID,2023-06-02T19:00:00Z,22.72,75.8,28.0,18.0,290,5,,3.73,29.822834,,,,,,TRUE,,,,,CLR,,,,,,,,MVFR,,,,,,,,,,,,METAR,564.0
UWOR 021900Z 24006MPS CAVOK 24/11 Q1013 R25/CLRD65 NOSIG RMK QFE736/0982,UWOR,2023-06-02T19:00:00Z,51.07,58.6,24.0,11.0,240,12,,6.21,29.911417,,,,,,TRUE,,,,,CAVOK,,,,,,,,VFR,,,,,,,,,,,,METAR,270.0
UWLW 021900Z 32005MPS 9999 BKN050CB 18/12 Q1008 R02/CLRD60 NOSIG RMK QFE749/0999,UWLW,2023-06-02T19:00:00Z,54.4,48.8,18.0,12.0,320,10,,6.21,29.763779,,,,,,TRUE,,,,,BKN,5000,,,,,,,VFR,,,,,,,,,,,,SPECI,67.0
UTAV 021900Z 34008KT CAVOK 28/M03 Q1007 R31/CLRD70 NOSIG,UTAV,2023-06-02T19:00:00Z,39.08,63.62,28.0,-3.0,340,8,,6.21,29.734253,,,,,,TRUE,,,,,CAVOK,,,,,,,,VFR,,,,,,,,,,,,SPECI,187.0
UTAT 021900Z 30006KT CAVOK 27/10 Q1009 R26/CLRD70 NOSIG,UTAT,2023-06-02T19:00:00Z,41.77,59.83,27.0,10.0,300,6,,6.21,29.793306,,,,,,TRUE,,,,,CAVOK,,,,,,,,VFR,,,,,,,,,,,,SPECI,84.0
UTAM 021900Z 29004KT 6000 SCT230 29/10 Q1008 R88/CLRD70 NOSIG,UTAM,2023-06-02T19:00:00Z,37.62,61.9,29.0,10.0,290,4,,3.73,29.763779,,,,,,TRUE,,,,,SCT,23000,,,,,,,MVFR,,,,,,,,,,,,SPECI,218.0
UTAK 021900Z 36006KT CAVOK 20/15 Q1014 R34L/CLRD70 NOSIG,UTAK,2023-06-02T19:00:00Z,40.05,53.0,20.0,15.0,360,6,,6.21,29.940945,,,,,,TRUE,,,,,CAVOK,,,,,,,,VFR,,,,,,,,,,,,SPECI,83.0
UTAA 021900Z 27006KT 9999 SCT050 BKN100 28/14 Q1012 R88/70D NOSIG,UTAA,2023-06-02T19:00:00Z,37.98,58.37,28.0,14.0,270,6,,6.21,29.88189,,,,,,TRUE,,,,,SCT,5000,BKN,10000,,,,,VFR,,,,,,,,,,,,METAR,207.0
URMN 021900Z 26003MPS 9999 SCT///CB BKN126 16/15 Q1014 R24/////// TEMPO 2000 TSRAGR BKN004 BKN016CB RMK QFE724,URMN,2023-06-02T19:00:00Z,43.52,43.63,16.0,15.0,260,6,,6.21,29.940945,,,,,,,,,,,BKN,12600,,,,,,,VFR,,,,,,,,,,,,SPECI,424.0
UOOO 021900Z 24009MPS 210V270 0450 0350SE R19/0450D -SHRA FG VV002 03/03 Q0991 R19/25//60 NOSIG RMK QFE728/0970,UOOO,2023-06-02T19:00:00Z,69.32,87.33,3.0,3.0,240,17,,0.28,29.26181,,,,,,TRUE,,,,-SHRA FG,OVX,0,,,,,,,LIFR,,,,,,,,,,,200,SPECI,177.0
UMGG 021900Z 34007G10MPS 9999 TS BKN019CB BKN100 13/11 Q1010 NOSIG,UMGG,2023-06-02T19:00:00Z,52.53,31.02,13.0,11.0,340,14,19,6.21,29.822834,,,,,,TRUE,,,,TS,BKN,1900,BKN,10000,,,,,MVFR,,,,,,,,,,,,METAR,135.0
UMBB 021900Z 28002MPS 8000 NSC 10/05 Q1017 NOSIG,UMBB,2023-06-02T19:00:00Z,52.12,23.9,10.0,5.0,280,4,,4.97,30.029528,,,,,,TRUE,,,,,CLR,,,,,,,,MVFR,,,,,,,,,,,,METAR,138.0
ULPB 021900Z AUTO 26002MPS 220V300 9999 // 05/03 Q1013 RMK QFE756/1008,ULPB,2023-06-02T19:00:00Z,61.88,34.15,5.0,3.0,260,4,,6.21,29.911417,,,TRUE,,,,,,,,,,,,,,,,,,,,,,,,,,,,METAR,41.0
UHMM 021900Z 09001MPS 9999 NSC 04/01 Q1007 RMK QFE741 R28/09002MPS,UHMM,2023-06-02T19:00:00Z,59.92,150.72,4.0,1.0,90,2,,6.21,29.734253,,,,,,,,,,,CLR,,,,,,,,VFR,,,,,,,,,,,,METAR,175.0
UHBB 021900Z 06002MPS 9999 FEW033 08/07 Q1004 R36/290250 NOSIG RMK QFE735/0981,UHBB,2023-06-02T19:00:00Z,50.43,127.42,8.0,7.0,60,4,,6.21,29.64567,,,,,,TRUE,,,,,FEW,3300,,,,,,,VFR,,,,,,,,,,,,METAR,185.0
UERP 021900Z 11002MPS 9999 SCT033 12/03 Q1005 NOSIG RMK QFE710,UERP,2023-06-02T19:00:00Z,66.4,112.03,12.0,3.0,110,4,,6.21,29.675198,,,,,,TRUE,,,,,SCT,3300,,,,,,,VFR,,,,,,,,,,,,METAR,514.0
UCFL 021900Z 35003MPS 9999 BKN023CB 15/03 Q1020,UCFL,2023-06-02T19:00:00Z,42.58,76.7,15.0,3.0,350,6,,6.21,30.11811,,,,,,,,,,,BKN,2300,,,,,,,MVFR,,,,,,,,,,,,METAR,1654.0
UBBY 021900Z 10010KT 9999 SCT100 22/13 Q1018 NOSIG RMK MT OP,UBBY,2023-06-02T19:00:00Z,41.57,46.67,22.0,13.0,100,10,,6.21,30.059055,,,,,,TRUE,,,,,SCT,10000,,,,,,,VFR,,,,,,,,,,,,METAR,383.0
UBBQ 021900Z 13003KT 9999 NSC 21/18 Q1016 NOSIG RMK MT OP,UBBQ,2023-06-02T19:00:00Z,40.82,47.72,21.0,18.0,130,3,,6.21,30.0,,,,,,TRUE,,,,,CLR,,,,,,,,VFR,,,,,,,,,,,,METAR,339.0
UBBL 021900Z 14005KT 9000 SCT025 22/21 Q1014 NOSIG RMK MT OP,UBBL,2023-06-02T19:00:00Z,38.75,48.82,22.0,21.0,140,5,,5.59,29.940945,,,,,,TRUE,,,,,SCT,2500,,,,,,,VFR,,,,,,,,,,,,METAR,-11.0
UASK 021900Z 08002MPS 9999 NSC 11/08 Q1019 NOSIG RMK QFE739/0985,UASK,2023-06-02T19:00:00Z,50.03,82.5,11.0,8.0,80,4,,6.21,30.088583,,,,,,TRUE,,,,,CLR,,,,,,,,VFR,,,,,,,,,,,,METAR,285.0
UAOO 021900Z 07005MPS CAVOK 23/00 Q1011 NOSIG RMK QFE747/0996,UAOO,2023-06-02T19:00:00Z,44.7,65.6,23.0,0.0,70,10,,6.21,29.852362,,,,,,TRUE,,,,,CAVOK,,,,,,,,VFR,,,,,,,,,,,,METAR,130.0
TVSA 021900Z 09007KT 9999 SCT018 29/25 Q1011 NOSIG ,TVSA,2023-06-02T19:00:00Z,13.15,-61.15,29.0,25.0,90,7,,6.21,29.852362,,,,,,TRUE,,,,,SCT,1800,,,,,,,VFR,,,,,,,,,,,,METAR,3.0
TUPJ 021900Z 15010KT 10SM BKN019 29/24 A2990 RMK Q1012 VIS16KM,TUPJ,2023-06-02T19:00:00Z,18.43,-64.53,29.0,24.0,150,10,,10.0,29.899607,,,,,,,,,,,BKN,1900,,,,,,,MVFR,,,,,,,,,,,,METAR,6.0
TTPP 021900Z 09007KT 9999 -RA VCSH FEW005 SCT050 25/24 Q1011 NOSIG RMK VCSH ALL QUAD,TTPP,2023-06-02T19:00:00Z,10.58,-61.35,25.0,24.0,90,7,,6.21,29.852362,,,,,,TRUE,,,,-RA VCSH,FEW,500,SCT,5000,,,,,VFR,,,,,,,,,,,,SPECI,11.0
TTCP 021900Z 11009KT 9999 VCSH SCT018 29/26 Q1011 NOSIG RMK VCSH-S,TTCP,2023-06-02T19:00:00Z,11.15,-60.85,29.0,26.0,110,9,,6.21,29.852362,,,,,,TRUE,,,,VCSH,SCT,1800,,,,,,,VFR,,,,,,,,,,,,METAR,13.0
TRPG 021900Z 09011KT 9999 BKN016 28/26 Q1013,TRPG,2023-06-02T19:00:00Z,16.78,-62.2,28.0,26.0,90,11,,6.21,29.911417,,,,,,,,,,,BKN,1600,,,,,,,MVFR,,,,,,,,,,,,METAR,170.0
TQPF 021900Z 14012KT 9999 BKN018 30/26 Q1012,TQPF,2023-06-02T19:00:00Z,18.2,-63.05,30.0,26.0,140,12,,6.21,29.88189,,,,,,,,,,,BKN,1800,,,,,,,MVFR,,,,,,,,,,,,METAR,33.0
TNCM 021900Z 11010KT 9999 FEW017 31/26 Q1014 NOSIG ,TNCM,2023-06-02T19:00:00Z,18.05,-63.12,31.0,26.0,110,10,,6.21,29.940945,,,,,,TRUE,,,,,FEW,1700,,,,,,,VFR,,,,,,,,,,,,METAR,9.0
TNCC 021900Z 09013KT 9999 FEW025 31/26 Q1008 NOSIG,TNCC,2023-06-02T19:00:00Z,12.2,-68.97,31.0,26.0,90,13,,6.21,29.763779,,,,,,TRUE,,,,,FEW,2500,,,,,,,VFR,,,,,,,,,,,,METAR,10.0
TNCA 021900Z 17008KT 130V190 9999 FEW023 30/26 Q1008 NOSIG,TNCA,2023-06-02T19:00:00Z,12.5,-70.0,30.0,26.0,170,8,,6.21,29.763779,,,,,,TRUE,,,,,FEW,2300,,,,,,,VFR,,,,,,,,,,,,METAR,7.0
TLPL 021900Z 09016KT 9999 FEW026 BKN042 31/26 Q1012 NOSIG,TLPL,2023-06-02T19:00:00Z,13.75,-60.95,31.0,26.0,90,16,,6.21,29.88189,,,,,,TRUE,,,,,FEW,2600,BKN,4200,,,,,VFR,,,,,,,,,,,,METAR,13.0
TLPC 021900Z 11010KT 9999 SCT022 SCT042 30/25 Q1012 NOSIG,TLPC,2023-06-02T19:00:00Z,14.02,-61.0,30.0,25.0,110,10,,6.21,29.88189,,,,,,TRUE,,,,,SCT,2200,SCT,4200,,,,,VFR,,,,,,,,,,,,METAR,8.0
TKPK 021900Z 10012KT 9999 SCT019 31/25 Q1012,TKPK,2023-06-02T19:00:00Z,17.3,-62.72,31.0,25.0,100,12,,6.21,29.88189,,,,,,,,,,,SCT,1900,,,,,,,VFR,,,,,,,,,,,,METAR,62.0
TGPY 021900Z 09018KT 9999 FEW014CB SCT016 27/25 Q1011 NOSIG,TGPY,2023-06-02T19:00:00Z,12.0,-61.78,27.0,25.0,90,18,,6.21,29.852362,,,,,,TRUE,,,,,FEW,1400,SCT,1600,,,,,VFR,,,,,,,,,,,,METAR,12.0
TDPD 021900Z 12010KT 9999 BKN017 29/27 Q1012,TDPD,2023-06-02T19:00:00Z,15.55,-61.3,29.0,27.0,120,10,,6.21,29.88189,,,,,,,,,,,BKN,1700,,,,,,,MVFR,,,,,,,,,,,,METAR,13.0
TDCF 021900Z 15005G15KT 9999 SCT020 BKN034 32/21 Q1010,TDCF,2023-06-02T19:00:00Z,15.33,-61.4,32.0,21.0,150,5,15,6.21,29.822834,,,,,,,,,,,SCT,2000,BKN,3400,,,,,VFR,,,,,,,,,,,,METAR,4.0
TAPA 021900Z 10009KT 050V140 9999 SCT022 29/24 Q1012 NOSIG,TAPA,2023-06-02T19:00:00Z,17.13,-61.78,29.0,24.0,100,9,,6.21,29.88189,,,,,,TRUE,,,,,SCT,2200,,,,,,,VFR,,,,,,,,,,,,METAR,15.0
SYEC 021900Z 03006KT 9999 FEW015CB 30/25 Q1010 NOSIG RMK CB W&NNW,SYEC,2023-06-02T19:00:00Z,6.8,-58.1,30.0,25.0,30,6,,6.21,29.822834,,,,,,TRUE,,,,,FEW,1500,,,,,,,VFR,,,,,,,,,,,,METAR,2.0
"SYCJ 021900Z 04008KT 9999 VCSH FEW016CB SCT038 29/26 Q1009 NOSIG RMK CB E-SSE,SW-NW, VCSH E-SE",SYCJ,2023-06-02T19:00:00Z,6.5,-58.25,29.0,26.0,40,8,,6.21,29.793306,,,,,,TRUE,,,,VCSH,FEW,1600,SCT,3800,,,,,VFR,,,,,,,,,,,,METAR,30.0
SULS 021900Z 02009KT 9999 FEW030 FEW036TCU BKN060 22/17 Q1012,SULS,2023-06-02T19:00:00Z,-34.87,-55.1,22.0,17.0,20,9,,6.21,29.88189,,,,,,,,,,,FEW,3000,FEW,3600,BKN,6000,,,VFR,,,,,,,,,,,,METAR,22.0
SUDU 021900Z 34013KT 9999 SCT026 24/17 Q1012,SUDU,2023-06-02T19:00:00Z,-33.35,-56.5,24.0,17.0,340,13,,6.21,29.88189,,,,,,,,,,,SCT,2600,,,,,,,VFR,,,,,,,,,,,,METAR,91.0
SUCA 021900Z 36010KT 330V040 9999 FEW017 FEW033TCU BKN200 23/17 Q1011,SUCA,2023-06-02T19:00:00Z,-34.45,-57.77,23.0,17.0,360,10,,6.21,29.852362,,,,,,,,,,,FEW,1700,FEW,3300,BKN,20000,,,VFR,,,,,,,,,,,,METAR,26.0
SPYL 021900Z 20010KT 9999 SCT020 30/22 Q1011 RMK BIRD HAZARD RWY 17/35 PP000,SPYL,2023-06-02T19:00:00Z,-4.57,-81.25,30.0,22.0,200,10,,6.21,29.852362,,,,,,,,,,,SCT,2000,,,,,,,VFR,,,,,,,,,,,,SPECI,89.0
SPUR 021900Z 21005KT 9999 BKN025 SCT030 30/22 Q1011 RMK BIRD HAZARD RWY 19/01 PP000,SPUR,2023-06-02T19:00:00Z,-5.17,-80.58,30.0,22.0,210,5,,6.21,29.852362,,,,,,,,,,,BKN,2500,SCT,3000,,,,,MVFR,,,,,,,,,,,,METAR,55.0
SPTU 021900Z 27003KT 200V330 9999 SCT020 30/21 Q1011 RMK BIRD HAZARD RWY 01/19 PP000,SPTU,2023-06-02T19:00:00Z,-12.62,-69.22,30.0,21.0,270,3,,6.21,29.852362,,,,,,,,,,,SCT,2000,,,,,,,VFR,,,,,,,,,,,,METAR,213.0
SPTN 021900Z 24008KT 200V280 CAVOK 22/13 Q1014 RMK PP000,SPTN,2023-06-02T19:00:00Z,-18.03,-70.28,22.0,13.0,240,8,,6.21,29.940945,,,,,,,,,,,CAVOK,,,,,,,,VFR,,,,,,,,,,,,SPECI,459.0
SPST 021900Z 26003KT 9999 FEW015 BKN080 30/22 Q1013 RMK PP000,SPST,2023-06-02T19:00:00Z,-6.52,-76.37,30.0,22.0,260,3,,6.21,29.911417,,,,,,,,,,,FEW,1500,BKN,8000,,,,,VFR,,,,,,,,,,,,METAR,282.0
SPSO 021900Z 30008KT CAVOK 23/16 Q1013 RMK BIRD HAZARD RWY 22/04 PP000,SPSO,2023-06-02T19:00:00Z,-13.73,-76.22,23.0,16.0,300,8,,6.21,29.911417,,,,,,,,,,,CAVOK,,,,,,,,VFR,,,,,,,,,,,,SPECI,8.0
SPRU 021900Z 18010KT 5000 BR BKN033 OVC040 25/20 Q1012 RMK PP000,SPRU,2023-06-02T19:00:00Z,-8.08,-79.12,25.0,20.0,180,10,,3.11,29.88189,,,,,,,,,,BR,BKN,3300,OVC,4000,,,,,MVFR,,,,,,,,,,,,METAR,23.0
SPQU 021900Z 25008KT 200V290 CAVOK 19/M03 Q1027 NOSIG RMK PP000,SPQU,2023-06-02T19:00:00Z,-16.33,-71.57,19.0,-3.0,250,8,,6.21,30.324802,,,,,,TRUE,,,,,CAVOK,,,,,,,,VFR,,,,,,,,,,,,SPECI,2527.0
SPQT 021900Z 20004KT 140V230 9999 BKN015 BKN100 28/26 Q1012 NOSIG RMK PP000,SPQT,2023-06-02T19:00:00Z,-3.78,-73.32,28.0,26.0,200,4,,6.21,29.88189,,,,,,TRUE,,,,,BKN,1500,BKN,10000,,,,,MVFR,,,,,,,,,,,,SPECI,92.0
SPPY 021900Z 10008KT 9999 SCT025 BKN070 19/10 Q1028 RMK PP000,SPPY,2023-06-02T19:00:00Z,-6.22,-77.85,19.0,10.0,100,8,,6.21,30.35433,,,,,,,,,,,SCT,2500,BKN,7000,,,,,VFR,,,,,,,,,,,,METAR,2536.0
SPNC 021900Z 06010KT 9999 FEW040 27/06 Q1020 RMK PP000,SPNC,2023-06-02T19:00:00Z,-9.87,-76.2,27.0,6.0,60,10,,6.21,30.11811,,,,,,,,,,,FEW,4000,,,,,,,VFR,,,,,,,,,,,,METAR,1856.0
SPMS 021900Z 09003KT 9999 FEW015 SCT070 30/24 Q1013 RMK BIRD HAZARD RWY09/27 PP000,SPMS,2023-06-02T19:00:00Z,-5.9,-76.12,30.0,24.0,90,3,,6.21,29.911417,,,,,,,,,,,FEW,1500,SCT,7000,,,,,VFR,,,,,,,,,,,,METAR,149.0
SPME 021900Z 31003KT 9999 SCT014 BKN080 30/24 Q1009 RMK BIRD HAZARD RWY 32/14 PP000,SPME,2023-06-02T19:00:00Z,-3.55,-80.4,30.0,24.0,310,3,,6.21,29.793306,,,,,,,,,,,SCT,1400,BKN,8000,,,,,VFR,,,,,,,,,,,,METAR,26.0
SPLO 021900Z 22008KT CAVOK 22/18 Q1014 RMK PP000,SPLO,2023-06-02T19:00:00Z,-17.7,-71.35,22.0,18.0,220,8,,6.21,29.940945,,,,,,,,,,,CAVOK,,,,,,,,VFR,,,,,,,,,,,,METAR,25.0
SPJL 021900Z /////KT CAVOK 17/M05 Q1036 RMK WIND RWY12 14007KT PP000,SPJL,2023-06-02T19:00:00Z,-15.47,-70.15,17.0,-5.0,,,,6.21,30.590551,,,,,,,,,,,CAVOK,,,,,,,,VFR,,,,,,,,,,,,METAR,3837.0
SPJJ 021900Z 09008KT CAVOK 18/// Q1033 RMK PP000,SPJJ,2023-06-02T19:00:00Z,-11.77,-75.47,,,90,8,,6.21,30.501968,,,,,,,,,,,CAVOK,,,,,,,,VFR,,,,,,,,,,,,METAR,3322.0
SPJI 021900Z 13003KT 9999 FEW020 BKN090 31/24 Q1021 RMK PP000,SPJI,2023-06-02T19:00:00Z,-7.17,-76.72,31.0,24.0,130,3,,6.21,30.147638,,,,,,,,,,,FEW,2000,BKN,9000,,,,,VFR,,,,,,,,,,,,METAR,363.0
SPJE 021900Z 13005KT 9999 FEW040 OVC120 26/22 Q1016 RMK BIRD HAZARD RWY 16/34 PP000,SPJE,2023-06-02T19:00:00Z,,,26.0,22.0,130,5,,6.21,30.0,,,,,,,,,,,FEW,4000,OVC,12000,,,,,VFR,,,,,,,,,,,,METAR,
SPJC 021900Z 16010KT 9999 OVC030 23/17 Q1013 NOSIG RMK BIRD HAZARD RWY 16 PP000,SPJC,2023-06-02T19:00:00Z,-12.02,-77.12,23.0,17.0,160,10,,6.21,29.911417,,,,,,TRUE,,,,,OVC,3000,,,,,,,MVFR,,,,,,,,,,,,SPECI,26.0
SPHO 021900Z 09005KT 020V150 CAVOK 21/M05 Q1028 RMK PP000,SPHO,2023-06-02T19:00:00Z,-13.17,-74.22,21.0,-5.0,90,5,,6.21,30.35433,,,,,,,,,,,CAVOK,,,,,,,,VFR,,,,,,,,,,,,METAR,2743.0
SPHI 021900Z 18010KT 9999 SCT033 BKN045 27/21 Q1011 RMK BIRD HAZARD RWY 19/01 PP000,SPHI,2023-06-02T19:00:00Z,-6.78,-79.82,27.0,21.0,180,10,,6.21,29.852362,,,,,,,,,,,SCT,3300,BKN,4500,,,,,VFR,,,,,,,,,,,,METAR,33.0
SPGM 021900Z 02006KT 9999 FEW040 31/22 Q1014 RMK PP000,SPGM,2023-06-02T19:00:00Z,-9.28,-76.0,31.0,22.0,20,6,,6.21,29.940945,,,,,,,,,,,FEW,4000,,,,,,,VFR,,,,,,,,,,,,METAR,643.0
SPEO 021900Z 19009KT 9999 OVC025 23/18 Q1012 RMK BIRD HAZARD RWY 01 PP000,SPEO,2023-06-02T19:00:00Z,-9.17,-78.52,23.0,18.0,190,9,,6.21,29.88189,,,,,,,,,,,OVC,2500,,,,,,,MVFR,,,,,,,,,,,,METAR,13.0
SPCL 021900Z 15006KT 9999 SCT025 31/21 Q1013 RMK BIRD HAZARD RWY 02/20 PP000,SPCL,2023-06-02T19:00:00Z,-8.38,-74.58,31.0,21.0,150,6,,6.21,29.911417,,,,,,,,,,,SCT,2500,,,,,,,VFR,,,,,,,,,,,,METAR,154.0
SMZO 021900Z 30010KT 9999 VCSH FEW015CB SCT020 31/23 Q1009 NOSIG,SMZO,2023-06-02T19:00:00Z,5.82,-55.18,31.0,23.0,300,10,,6.21,29.793306,,,,,,TRUE,,,,VCSH,FEW,1500,SCT,2000,,,,,VFR,,,,,,,,,,,,METAR,7.0
SMJP 021900Z 35006KT 9999 TS FEW015CB SCT020 31/25 Q1008 NOSIG,SMJP,2023-06-02T19:00:00Z,5.45,-55.18,31.0,25.0,350,6,,6.21,29.763779,,,,,,TRUE,,,,TS,FEW,1500,SCT,2000,,,,,VFR,,,,,,,,,,,,METAR,14.0
SLYA 021900Z 36004KT 9999 NSC 27/18 Q1007,SLYA,2023-06-02T19:00:00Z,-21.97,-63.65,27.0,18.0,360,4,,6.21,29.734253,,,,,,,,,,,CLR,,,,,,,,VFR,,,,,,,,,,,,METAR,646.0
SLVR 021900Z 36012G24KT 9999 SCT020 28/21 Q1011,SLVR,2023-06-02T19:00:00Z,-17.63,-63.13,28.0,21.0,360,12,24,6.21,29.852362,,,,,,,,,,,SCT,2000,,,,,,,VFR,,,,,,,,,,,,METAR,377.0
SLVM 021900Z 36005KT 9999 NSC 30/19 Q1006,SLVM,2023-06-02T19:00:00Z,-21.25,-63.4,30.0,19.0,360,5,,6.21,29.704725,,,,,,,,,,,CLR,,,,,,,,VFR,,,,,,,,,,,,METAR,396.0
SLTR 021900Z 30004KT 9999 FEW023 30/21 Q1012,SLTR,2023-06-02T19:00:00Z,-14.83,-64.92,30.0,21.0,300,4,,6.21,29.88189,,,,,,,,,,,FEW,2300,,,,,,,VFR,,,,,,,,,,,,METAR,157.0
SLTJ 021900Z 00000KT 9999 NSC 29/05 Q1013,SLTJ,2023-06-02T19:00:00Z,-21.55,-64.72,29.0,5.0,0,0,,6.21,29.911417,,,,,,,,,,,CLR,,,,,,,,VFR,,,,,,,,,,,,METAR,1850.0
SLSV 021900Z 33005KT 9999 SCT017 29/22 Q1013,SLSV,2023-06-02T19:00:00Z,-16.4,-61.05,29.0,22.0,330,5,,6.21,29.911417,,,,,,,,,,,SCT,1700,,,,,,,VFR,,,,,,,,,,,,METAR,450.0
SLSA 021900Z 01005KT 9999 SCT020 31/21 Q1011,SLSA,2023-06-02T19:00:00Z,-13.77,-65.43,31.0,21.0,10,5,,6.21,29.852362,,,,,,,,,,,SCT,2000,,,,,,,VFR,,,,,,,,,,,,METAR,144.0
SLRY 021900Z 00000KT 9999 FEW020 31/22 Q1009,SLRY,2023-06-02T19:00:00Z,-14.3,-67.37,31.0,22.0,0,0,,6.21,29.793306,,,,,,,,,,,FEW,2000,,,,,,,VFR,,,,,,,,,,,,METAR,187.0
SLRQ 021900Z 35007KT 9999 FEW025 30/22 Q1010,SLRQ,2023-06-02T19:00:00Z,-14.42,-67.5,30.0,22.0,350,7,,6.21,29.822834,,,,,,,,,,,FEW,2500,,,,,,,VFR,,,,,,,,,,,,METAR,209.0
SLRI 021900Z 16005KT 9999 SCT020 31/21 Q1013,SLRI,2023-06-02T19:00:00Z,-11.02,-66.08,31.0,21.0,160,5,,6.21,29.911417,,,,,,,,,,,SCT,2000,,,,,,,VFR,,,,,,,,,,,,METAR,136.0
SLRB 021900Z 36006KT 9999 FEW020 29/24 Q1015,SLRB,2023-06-02T19:00:00Z,-18.32,-59.75,29.0,24.0,360,6,,6.21,29.970472,,,,,,,,,,,FEW,2000,,,,,,,VFR,,,,,,,,,,,,METAR,266.0
SLPS 021900Z 09005KT 9999 NSC 29/22 Q1014,SLPS,2023-06-02T19:00:00Z,-18.98,-57.82,29.0,22.0,90,5,,6.21,29.940945,,,,,,,,,,,CLR,,,,,,,,VFR,,,,,,,,,,,,METAR,136.0
SLOR 021900Z 20004KT 9999 NSC 19/M02 Q1036,SLOR,2023-06-02T19:00:00Z,-17.97,-67.08,19.0,-2.0,200,4,,6.21,30.590551,,,,,,,,,,,CLR,,,,,,,,VFR,,,,,,,,,,,,METAR,3720.0
SLMG 021900Z 00000KT 9999 SCT017 30/23 Q1014,SLMG,2023-06-02T19:00:00Z,-13.27,-64.07,30.0,23.0,0,0,,6.21,29.940945,,,,,,,,,,,SCT,1700,,,,,,,VFR,,,,,,,,,,,,METAR,146.0
SLLP 021900Z 16008KT 9999 FEW017 15/M09 Q1038,SLLP,2023-06-02T19:00:00Z,-16.52,-68.17,15.0,-9.0,160,8,,6.21,30.649607,,,,,,,,,,,FEW,1700,,,,,,,VFR,,,,,,,,,,,,METAR,4061.0
SLJO 021900Z 14004KT 9999 SCT017 31/22 Q1014,SLJO,2023-06-02T19:00:00Z,-13.07,-64.67,31.0,22.0,140,4,,6.21,29.940945,,,,,,,,,,,SCT,1700,,,,,,,VFR,,,,,,,,,,,,METAR,140.0
SLET 021900Z 32018G29KT 9999 FEW015 SCT017 27/19 Q1011,SLET,2023-06-02T19:00:00Z,-17.8,-63.17,27.0,19.0,320,18,29,6.21,29.852362,,,,,,,,,,,FEW,1500,SCT,1700,,,,,VFR,,,,,,,,,,,,METAR,421.0
SLCP 021900Z 34004KT 9999 BKN017 28/22 Q1016,SLCP,2023-06-02T19:00:00Z,-16.15,-62.02,28.0,22.0,340,4,,6.21,30.0,,,,,,,,,,,BKN,1700,,,,,,,MVFR,,,,,,,,,,,,METAR,502.0
SLCO 021900Z 36008KT 9999 SCT025 32/23 Q1012,SLCO,2023-06-02T19:00:00Z,-11.03,-68.78,32.0,23.0,360,8,,6.21,29.88189,,,,,,,,,,,SCT,2500,,,,,,,VFR,,,,,,,,,,,,METAR,238.0
SLCB 021900Z 00000KT 9999 NSC 28/M01 Q1022,SLCB,2023-06-02T19:00:00Z,-17.42,-66.18,28.0,-1.0,0,0,,6.21,30.177166,,,,,,,,,,,CLR,,,,,,,,VFR,,,,,,,,,,,,METAR,2560.0
SLCA 021900Z 36006KT 9999 NSC 28/16 Q1011,SLCA,2023-06-02T19:00:00Z,-20.0,-63.53,28.0,16.0,360,6,,6.21,29.852362,,,,,,,,,,,CLR,,,,,,,,VFR,,,,,,,,,,,,METAR,796.0
SLAL 021900Z 30005KT 9999 NSC 23/M04 Q1028,SLAL,2023-06-02T19:00:00Z,-19.23,-65.15,23.0,-4.0,300,5,,6.21,30.35433,,,,,,,,,,,CLR,,,,,,,,VFR,,,,,,,,,,,,METAR,3109.0
SKVV 021900Z 12006KT 9999 BKN020 32/23 Q1013 RMK A2993,SKVV,2023-06-02T19:00:00Z,4.17,-73.62,32.0,23.0,120,6,,6.21,29.911417,,,,,,,,,,,BKN,2000,,,,,,,MVFR,,,,,,,,,,,,SPECI,421.0
SKVP 021900Z 21008KT 9999 FEW015 SCT200 32/25 Q1010 RMK A2983,SKVP,2023-06-02T19:00:00Z,10.43,-73.25,32.0,25.0,210,8,,6.21,29.822834,,,,,,,,,,,FEW,1500,SCT,20000,,,,,VFR,,,,,,,,,,,,SPECI,137.0
SKUI 021900Z 33005KT 9999 FEW030 BKN100 30/25 Q1009 RMK A2979,SKUI,2023-06-02T19:00:00Z,5.68,-76.63,30.0,25.0,330,5,,6.21,29.793306,,,,,,,,,,,FEW,3000,BKN,10000,,,,,VFR,,,,,,,,,,,,SPECI,55.0
SKUC 021900Z 23005KT 9999 SCT017 32/24 Q1011 RMK A2985,SKUC,2023-06-02T19:00:00Z,7.07,-70.73,32.0,24.0,230,5,,6.21,29.852362,,,,,,,,,,,SCT,1700,,,,,,,VFR,,,,,,,,,,,,SPECI,127.0
SKSP 021900Z VRB02KT 9999 SCT016 31/26 Q1008 RMK A2977,SKSP,2023-06-02T19:00:00Z,12.58,-81.72,31.0,26.0,0,2,,6.21,29.763779,,,,,,,,,,,SCT,1600,,,,,,,VFR,,,,,,,,,,,,METAR,6.0
SKSM 021900Z 25008KT 9999 FEW020 SCT200 33/26 Q1009 RMK A2980,SKSM,2023-06-02T19:00:00Z,11.12,-74.22,33.0,26.0,250,8,,6.21,29.793306,,,,,,,,,,,FEW,2000,SCT,20000,,,,,VFR,,,,,,,,,,,,METAR,5.0
SKRH 021900Z 32009KT 290V360 9999 FEW020 32/27 Q1007 RMK A2975,SKRH,2023-06-02T19:00:00Z,11.52,-72.92,32.0,27.0,320,9,,6.21,29.734253,,,,,,,,,,,FEW,2000,,,,,,,VFR,,,,,,,,,,,,SPECI,11.0
SKRG 021900Z 06008KT 9999 SCT020TCU SCT080 23/14 Q1024 NOSIG RMK TCUS/W A3025,SKRG,2023-06-02T19:00:00Z,6.17,-75.42,23.0,14.0,60,8,,6.21,30.236221,,,,,,TRUE,,,,,SCT,2000,SCT,8000,,,,,VFR,,,,,,,,,,,,SPECI,2132.0
SKPV 021900Z 15010KT 9999 FEW017 33/29 Q1008 RMK A2977,SKPV,2023-06-02T19:00:00Z,13.37,-81.35,33.0,29.0,150,10,,6.21,29.763779,,,,,,,,,,,FEW,1700,,,,,,,VFR,,,,,,,,,,,,SPECI,7.0
SKPS 021900Z 34004KT 290V030 9999 BKN020 23/17 Q1019 RMK A3011,SKPS,2023-06-02T19:00:00Z,1.4,-77.28,23.0,17.0,340,4,,6.21,30.088583,,,,,,,,,,,BKN,2000,,,,,,,MVFR,,,,,,,,,,,,SPECI,1798.0
SKPE 021900Z 11006KT 070V130 9999 SCT018 BKN080 22/19 Q1017 RMK A3004,SKPE,2023-06-02T19:00:00Z,4.82,-75.73,22.0,19.0,110,6,,6.21,30.029528,,,,,,,,,,,SCT,1800,BKN,8000,,,,,VFR,,,,,,,,,,,,METAR,1341.0
SKPC 021900Z 21006KT 170V250 9999 SCT017 30/24 Q1010 RMK A2984,SKPC,2023-06-02T19:00:00Z,6.18,-67.5,30.0,24.0,210,6,,6.21,29.822834,,,,,,,,,,,SCT,1700,,,,,,,VFR,,,,,,,,,,,,SPECI,51.0
SKNV 021900Z VRB04KT 9999 FEW045 34/19 Q1010 RMK A2985,SKNV,2023-06-02T19:00:00Z,2.93,-75.28,34.0,19.0,0,4,,6.21,29.822834,,,,,,,,,,,FEW,4500,,,,,,,VFR,,,,,,,,,,,,SPECI,449.0
SKMZ 021900Z 28007KT 8000 VCFG SCT015 BKN070 20/14 Q1025 RMK A3029,SKMZ,2023-06-02T19:00:00Z,5.03,-75.47,20.0,14.0,280,7,,4.97,30.265747,,,,,,,,,,VCFG,SCT,1500,BKN,7000,,,,,MVFR,,,,,,,,,,,,SPECI,2075.0
SKMR 021900Z 00000KT 9999 BKN020 33/26 Q1007 RMK A2975,SKMR,2023-06-02T19:00:00Z,8.82,-75.83,33.0,26.0,0,0,,6.21,29.734253,,,,,,,,,,,BKN,2000,,,,,,,MVFR,,,,,,,,,,,,SPECI,12.0
SKMD 021900Z 20008KT 760V230 9999 VCSH SCT035 BKN100 26/16 Q1018 RMK VCSH/NW A3006,SKMD,2023-06-02T19:00:00Z,6.22,-75.58,26.0,16.0,200,8,,6.21,30.059055,,,,,,,,,,VCSH,SCT,3500,BKN,10000,,,,,VFR,,,,,,,,,,,,SPECI,1491.0
SKLT 021900Z 26003KT 9999 SCT015 29/25 Q1011 RMK A2988,SKLT,2023-06-02T19:00:00Z,-4.2,-69.93,29.0,25.0,260,3,,6.21,29.852362,,,,,,,,,,,SCT,1500,,,,,,,VFR,,,,,,,,,,,,METAR,78.0
SKLC 021900Z 19008KT 150V260 9999 FEW025 32/24 Q1008 RMK A2978,SKLC,2023-06-02T19:00:00Z,7.82,-76.72,32.0,24.0,190,8,,6.21,29.763779,,,,,,,,,,,FEW,2500,,,,,,,VFR,,,,,,,,,,,,SPECI,20.0
SKIP 021900Z 09009KT 050V120 9999 BKN018 14/08 Q1030 RMK A3042,SKIP,2023-06-02T19:00:00Z,0.85,-77.67,14.0,8.0,90,9,,6.21,30.413385,,,,,,,,,,,BKN,1800,,,,,,,MVFR,,,,,,,,,,,,SPECI,2964.0
SKIB 021900Z 18011KT 9999 SCT030 BKN200 29/20 Q1017 RMK A3004,SKIB,2023-06-02T19:00:00Z,4.42,-75.12,29.0,20.0,180,11,,6.21,30.029528,,,,,,,,,,,SCT,3000,BKN,20000,,,,,VFR,,,,,,,,,,,,SPECI,899.0
SKEJ 021900Z 25004KT 9999 SCT015 BKN200 33/24 Q1007 RMK A2976,SKEJ,2023-06-02T19:00:00Z,7.02,-73.8,33.0,24.0,250,4,,6.21,29.734253,,,,,,,,,,,SCT,1500,BKN,20000,,,,,VFR,,,,,,,,,,,,SPECI,123.0
SKCL 021900Z VRB03KT 9999 FEW020 BKN120 29/21 Q1014 NOSIG RMK A2996,SKCL,2023-06-02T19:00:00Z,3.53,-76.37,29.0,21.0,0,3,,6.21,29.940945,,,,,,TRUE,,,,,FEW,2000,BKN,12000,,,,,VFR,,,,,,,,,,,,METAR,967.0
SKCG 021900Z 29007KT230V330 9999 SCT017CB 30/26 Q1008 RMK CB/E/SE A2977,SKCG,2023-06-02T19:00:00Z,10.43,-75.52,30.0,26.0,,,,6.21,29.763779,,,,,,,,,,,SCT,1700,,,,,,,VFR,,,,,,,,,,,,METAR,6.0
SKCC 021900Z 15012G23KT 9999 SCT022 SCT080 33/19 Q1010 RMK A2982,SKCC,2023-06-02T19:00:00Z,7.92,-72.52,33.0,19.0,150,12,23,6.21,29.822834,,,,,,,,,,,SCT,2200,SCT,8000,,,,,VFR,,,,,,,,,,,,METAR,308.0
SKBQ 021900Z 22005KT 160V280 9999 SCT015 33/25 Q1008 NOSIG RMK A2977,SKBQ,2023-06-02T19:00:00Z,10.87,-74.77,33.0,25.0,220,5,,6.21,29.763779,,,,,,TRUE,,,,,SCT,1500,,,,,,,VFR,,,,,,,,,,,,METAR,23.0
SKBO 021900Z 12007KT 9999 SCT020 SCT080 19/08 Q1026 NOSIG RMK A3032,SKBO,2023-06-02T19:00:00Z,4.7,-74.15,19.0,8.0,120,7,,6.21,30.295275,,,,,,TRUE,,,,,SCT,2000,SCT,8000,,,,,VFR,,,,,,,,,,,,METAR,2547.0
SKBG 021900Z 32007KT 9999 FEW020 BKN070 25/21 Q1014 RMK A2994,SKBG,2023-06-02T19:00:00Z,7.13,-73.18,25.0,21.0,320,7,,6.21,29.940945,,,,,,,,,,,FEW,2000,BKN,7000,,,,,VFR,,,,,,,,,,,,METAR,1187.0
SKAR 021900Z 16004KT 9999 BKN023 SCT100 26/20 Q1016 RMK A3001,SKAR,2023-06-02T19:00:00Z,4.45,-75.77,26.0,20.0,160,4,,6.21,30.0,,,,,,,,,,,BKN,2300,SCT,10000,,,,,MVFR,,,,,,,,,,,,METAR,1214.0
SETU 021900Z 06008KT 9999 BKN020 15/10 Q1032,SETU,2023-06-02T19:00:00Z,0.82,-77.7,15.0,10.0,60,8,,6.21,30.47244,,,,,,,,,,,BKN,2000,,,,,,,MVFR,,,,,,,,,,,,METAR,2936.0
SETN 021900Z 32004KT 9999 FEW023 SCT300 30/26 Q1009 RMK A2980,SETN,2023-06-02T19:00:00Z,0.98,-79.63,30.0,26.0,320,4,,6.21,29.793306,,,,,,,,,,,FEW,2300,SCT,30000,,,,,VFR,,,,,,,,,,,,METAR,10.0
SEST 021900Z 14008KT 9999 4000S -RA SCT010 BKN033 25/24 Q1009 RMK A2981,SEST,2023-06-02T19:00:00Z,-0.9,-89.62,25.0,24.0,140,8,,6.21,29.793306,,,,,,,,,,-RA,SCT,1000,BKN,3300,,,,,VFR,,,,,,,,,,,,METAR,13.0
SESM 021900Z 00000KT 9999 SCT026 BKN100 21/17 Q1019 RMK A3009,SESM,2023-06-02T19:00:00Z,-1.5,-78.07,21.0,17.0,0,0,,6.21,30.088583,,,,,,,,,,,SCT,2600,BKN,10000,,,,,VFR,,,,,,,,,,,,METAR,1056.0
SESA 021900Z 22008KT 9999 FEW012 30/26 Q1010 RMK A2983,SESA,2023-06-02T19:00:00Z,-2.2,-80.98,30.0,26.0,220,8,,6.21,29.822834,,,,,,,,,,,FEW,1200,,,,,,,VFR,,,,,,,,,,,,METAR,6.0
SERO 021900Z 31005KT 9999 FEW013 SCT080 31/25 Q1009,SERO,2023-06-02T19:00:00Z,-3.43,-79.98,31.0,25.0,310,5,,6.21,29.793306,,,,,,,,,,,FEW,1300,SCT,8000,,,,,VFR,,,,,,,,,,,,METAR,6.0
SERB 021900Z 08010KT 9999 BKN040 SCT100 18/13 Q1028,SERB,2023-06-02T19:00:00Z,-1.65,-78.67,18.0,13.0,80,10,,6.21,30.35433,,,,,,,,,,,BKN,4000,SCT,10000,,,,,VFR,,,,,,,,,,,,METAR,2788.0
SEQM 021900Z 34011KT 9999 FEW030 SCT300 21/10 Q1025 NOSIG RMK A3026,SEQM,2023-06-02T19:00:00Z,-0.12,-78.35,21.0,10.0,340,11,,6.21,30.265747,,,,,,TRUE,,,,,FEW,3000,SCT,30000,,,,,VFR,,,,,,,,,,,,SPECI,2386.0
SENL 021900Z 19008KT 9999 VCSH BKN020 28/22 Q1015 RMK A2998,SENL,2023-06-02T19:00:00Z,0.1,-76.87,28.0,22.0,190,8,,6.21,29.970472,,,,,,,,,,VCSH,BKN,2000,,,,,,,MVFR,,,,,,,,,,,,METAR,293.0
SEMT 021900Z 30010KT 9999 FEW020 30/22 Q1009 RMK A2982,SEMT,2023-06-02T19:00:00Z,-0.95,-80.67,30.0,22.0,300,10,,6.21,29.793306,,,,,,,,,,,FEW,2000,,,,,,,VFR,,,,,,,,,,,,SPECI,13.0
SEMC 021900Z 15004KT 9999 SCT026 BKN100 23/17 Q1019 RMK A3009,SEMC,2023-06-02T19:00:00Z,-2.3,-78.12,23.0,17.0,150,4,,6.21,30.088583,,,,,,,,,,,SCT,2600,BKN,10000,,,,,VFR,,,,,,,,,,,,METAR,1036.0
SELT 021900Z 18010KT 9999 SCT030 BKN100 14/10 Q1029,SELT,2023-06-02T19:00:00Z,-0.92,-78.62,14.0,10.0,180,10,,6.21,30.383858,,,,,,,,,,,SCT,3000,BKN,10000,,,,,VFR,,,,,,,,,,,,METAR,2779.0
SEJD 021900Z 30008KT 9999 VCSH FEW016 SCT030 OVC100 24/20 Q1015 RMK A2999,SEJD,2023-06-02T19:00:00Z,-1.07,-77.58,24.0,20.0,300,8,,6.21,29.970472,,,,,,,,,,VCSH,FEW,1600,SCT,3000,OVC,10000,,,VFR,,,,,,,,,,,,METAR,376.0
SEGZ 021900Z 12005KT 9999 SCT020 OVC100 25/22 Q1019,SEGZ,2023-06-02T19:00:00Z,-3.42,-78.57,25.0,22.0,120,5,,6.21,30.088583,,,,,,,,,,,SCT,2000,OVC,10000,,,,,VFR,,,,,,,,,,,,METAR,805.0
SEGU 021900Z 09004KT 9999 SCT023 SCT200 33/24 Q1008 NOSIG RMK A2978,SEGU,2023-06-02T19:00:00Z,-2.15,-79.88,33.0,24.0,90,4,,6.21,29.763779,,,,,,TRUE,,,,,SCT,2300,SCT,20000,,,,,VFR,,,,,,,,,,,,SPECI,6.0
SEGS 021900Z 12010KT 9999 SCT013 BKN030 30/22 Q1012 RMK A2988,SEGS,2023-06-02T19:00:00Z,-0.45,-90.27,30.0,22.0,120,10,,6.21,29.88189,,,,,,,,,,,SCT,1300,BKN,3000,,,,,MVFR,,,,,,,,,,,,METAR,51.0
SECU 021900Z 06007KT 9999 OVC033 17/10 Q1027,SECU,2023-06-02T19:00:00Z,-2.88,-78.98,17.0,10.0,60,7,,6.21,30.324802,,,,,,,,,,,OVC,3300,,,,,,,VFR,,,,,,,,,,,,METAR,2516.0
SECO 021900Z 25007KT 9999 SCT016 BKN100 27/22 Q1015 RMK A2998,SECO,2023-06-02T19:00:00Z,-0.45,-76.98,27.0,22.0,250,7,,6.21,29.970472,,,,,,,,,,,SCT,1600,BKN,10000,,,,,VFR,,,,,,,,,,,,METAR,256.0
SECA 021900Z 04016KT 360V070 9999 FEW040 BKN100 27/12 Q1018 RMK A3006,SECA,2023-06-02T19:00:00Z,-4.0,-79.37,27.0,12.0,40,16,,6.21,30.059055,,,,,,,,,,,FEW,4000,BKN,10000,,,,,VFR,,,,,,,,,,,,METAR,1237.0
SCVD 021900Z 34013KT 310V030 9999 FEW016 SCT028 BKN100 16/09 Q1010,SCVD,2023-06-02T19:00:00Z,-39.65,-73.08,16.0,9.0,340,13,,6.21,29.822834,,,,,,,,,,,FEW,1600,SCT,2800,BKN,10000,,,VFR,,,,,,,,,,,,METAR,19.0
SCTE 021900Z 01020KT 9999 SCT030 BKN060 13/09 Q1005 NOSIG,SCTE,2023-06-02T19:00:00Z,-41.43,-73.08,13.0,9.0,10,20,,6.21,29.675198,,,,,,TRUE,,,,,SCT,3000,BKN,6000,,,,,VFR,,,,,,,,,,,,METAR,85.0
SCTB 021900Z 23004KT 9999 FEW093 20/07 Q1017,SCTB,2023-06-02T19:00:00Z,-33.45,-70.53,20.0,7.0,230,4,,6.21,30.029528,,,,,,,,,,,FEW,9300,,,,,,,VFR,,,,,,,,,,,,METAR,655.0
SCSN 021900Z 11003KT 050V210 4000 BR SCT009 BKN065 17/16 Q1017,SCSN,2023-06-02T19:00:00Z,-33.65,-71.62,17.0,16.0,110,3,,2.49,30.029528,,,,,,,,,,BR,SCT,900,BKN,6500,,,,,IFR,,,,,,,,,,,,METAR,73.0
SCSE 021900Z 27012KT CAVOK 17/11 Q1016,SCSE,2023-06-02T19:00:00Z,-29.92,-71.2,17.0,11.0,270,12,,6.21,30.0,,,,,,,,,,,CAVOK,,,,,,,,VFR,,,,,,,,,,,,METAR,141.0
SCRM 021900Z 02023KT CAVOK 03/00 Q1001 NOSIG,SCRM,2023-06-02T19:00:00Z,-62.18,-58.98,3.0,0.0,20,23,,6.21,29.557087,,,,,,TRUE,,,,,CAVOK,,,,,,,,VFR,,,,,,,,,,,,METAR,45.0
SCRG 021900Z 33001KT 1500 RA FEW010 BKN016 13/11 Q1017 RERA,SCRG,2023-06-02T19:00:00Z,-34.17,-70.77,13.0,11.0,330,1,,0.93,30.029528,,,,,,,,,,RA,FEW,1000,BKN,1600,,,,,LIFR,,,,,,,,,,,,METAR,488.0
SCRD 021900Z 07002KT 9999 FEW070 19/12 Q1017,SCRD,2023-06-02T19:00:00Z,-33.07,-71.55,19.0,12.0,70,2,,6.21,30.029528,,,,,,,,,,,FEW,7000,,,,,,,VFR,,,,,,,,,,,,METAR,342.0
SCQP 021900Z 34013KT 9999 SCT041 15/08 Q1011,SCQP,2023-06-02T19:00:00Z,-38.92,-72.65,15.0,8.0,340,13,,6.21,29.852362,,,,,,,,,,,SCT,4100,,,,,,,VFR,,,,,,,,,,,,METAR,97.0
SCPQ 021900Z 36021G34KT 2500 +RA BKN006 OVC010 09/08 Q1001,SCPQ,2023-06-02T19:00:00Z,-42.33,-73.72,9.0,8.0,360,21,34,1.55,29.557087,,,,,,,,,,+RA,BKN,600,OVC,1000,,,,,IFR,,,,,,,,,,,,METAR,166.0
SCPD 021900Z VRB02KT CAVOK 22/07 Q1017,SCPD,2023-06-02T19:00:00Z,,,22.0,7.0,0,2,,6.21,30.029528,,,,,,,,,,,CAVOK,,,,,,,,VFR,,,,,,,,,,,,METAR,
SCON 021900Z 36011KT 5000 RA OVC030 10/09 Q1001,SCON,2023-06-02T19:00:00Z,-43.13,-73.62,10.0,9.0,360,11,,3.11,29.557087,,,,,,,,,,RA,OVC,3000,,,,,,,MVFR,,,,,,,,,,,,METAR,11.0
SCNT 021900Z 31007KT 260V350 9999 FEW050 10/M04 Q0985,SCNT,2023-06-02T19:00:00Z,-51.67,-72.53,10.0,-4.0,310,7,,6.21,29.084646,,,,,,,,,,,FEW,5000,,,,,,,VFR,,,,,,,,,,,,METAR,68.0
SCMK 021900Z 34018KT 9999 BKN023 OVC030 10/09 Q0999E,SCMK,2023-06-02T19:00:00Z,-43.9,-73.73,10.0,9.0,340,18,,6.21,,,,,,,,,,,,BKN,2300,OVC,3000,,,,,MVFR,,,,,,,,,,,,METAR,22.0
SCJO 021900Z 36018G28KT 9999 SCT030 BKN120 14/08 Q1007,SCJO,2023-06-02T19:00:00Z,-40.6,-73.05,14.0,8.0,360,18,28,6.21,29.734253,,,,,,,,,,,SCT,3000,BKN,12000,,,,,VFR,,,,,,,,,,,,METAR,61.0
SCIR 021900Z 31015G32KT 9999 SCT010 BKN030 15/13 Q1015,SCIR,2023-06-02T19:00:00Z,-33.67,-78.93,15.0,13.0,310,15,32,6.21,29.970472,,,,,,,,,,,SCT,1000,BKN,3000,,,,,MVFR,,,,,,,,,,,,METAR,132.0
SCIP 021900Z VRB02KT 9999 BKN041 20/12 Q1022 NOSIG,SCIP,2023-06-02T19:00:00Z,-27.17,-109.43,20.0,12.0,0,2,,6.21,30.177166,,,,,,TRUE,,,,,BKN,4100,,,,,,,VFR,,,,,,,,,,,,METAR,48.0
SCIE 021900Z 36009KT 4500 BR BKN003 OVC012 14/13 Q1015,SCIE,2023-06-02T19:00:00Z,-36.77,-73.07,14.0,13.0,360,9,,2.8,29.970472,,,,,,,,,,BR,BKN,300,OVC,1200,,,,,LIFR,,,,,,,,,,,,METAR,8.0
SCIC 021900Z 35007KT 9999 SCT030 15/12 Q1016,SCIC,2023-06-02T19:00:00Z,-34.97,-71.22,15.0,12.0,350,7,,6.21,30.0,,,,,,,,,,,SCT,3000,,,,,,,VFR,,,,,,,,,,,,METAR,230.0
SCHR 021900Z VRB02KT 9999 BKN030 OVC045 08/03 Q0993,SCHR,2023-06-02T19:00:00Z,-47.23,-72.58,8.0,3.0,0,2,,6.21,29.320866,,,,,,,,,,,BKN,3000,OVC,4500,,,,,MVFR,,,,,,,,,,,,METAR,203.0
SCGZ 021900Z 06014KT 9999 FEW033 SCT066 BKN083 09/06 Q0984,SCGZ,2023-06-02T19:00:00Z,-54.93,-67.63,9.0,6.0,60,14,,6.21,29.055119,,,,,,,,,,,FEW,3300,SCT,6600,BKN,8300,,,VFR,,,,,,,,,,,,METAR,21.0
SCGE 021900Z 00000KT 9999 BKN046 16/11 Q1014,SCGE,2023-06-02T19:00:00Z,-37.4,-72.42,16.0,11.0,0,0,,6.21,29.940945,,,,,,,,,,,BKN,4600,,,,,,,VFR,,,,,,,,,,,,METAR,122.0
SCFT 021900Z 30003KT 6000 RA FEW004 BKN012 OVC020 04/04 Q1004,SCFT,2023-06-02T19:00:00Z,-43.18,-71.85,4.0,4.0,300,3,,3.73,29.64567,,,,,,,,,,RA,FEW,400,BKN,1200,OVC,2000,,,MVFR,,,,,,,,,,,,METAR,345.0
SCFM 021900Z 34010KT 9999 FEW030 SCT070 06/05 Q0986,SCFM,2023-06-02T19:00:00Z,-53.25,-70.32,6.0,5.0,340,10,,6.21,29.114174,,,,,,,,,,,FEW,3000,SCT,7000,,,,,VFR,,,,,,,,,,,,METAR,28.0
SCFA 021900Z 20010KT CAVOK 18/10 Q1014 NOSIG,SCFA,2023-06-02T19:00:00Z,-23.43,-70.43,18.0,10.0,200,10,,6.21,29.940945,,,,,,TRUE,,,,,CAVOK,,,,,,,,VFR,,,,,,,,,,,,METAR,113.0
SCDA 021900Z 23010KT 9999 BKN027 20/13 Q1014,SCDA,2023-06-02T19:00:00Z,-20.53,-70.17,20.0,13.0,230,10,,6.21,29.940945,,,,,,,,,,,BKN,2700,,,,,,,MVFR,,,,,,,,,,,,METAR,41.0
SCCY 021900Z 03006KT 9999 -RA SCT025 OVC030 05/04 Q0998,SCCY,2023-06-02T19:00:00Z,-45.58,-72.1,5.0,4.0,30,6,,6.21,29.468504,,,,,,,,,,-RA,SCT,2500,OVC,3000,,,,,MVFR,,,,,,,,,,,,METAR,301.0
SCCI 021900Z 35006KT 9999 FEW040 SCT100 07/05 Q0985 NOSIG,SCCI,2023-06-02T19:00:00Z,-53.0,-70.85,7.0,5.0,350,6,,6.21,29.084646,,,,,,TRUE,,,,,FEW,4000,SCT,10000,,,,,VFR,,,,,,,,,,,,METAR,37.0
SCCH 021900Z 02014KT 9999 SCT020 15/12 Q1015,SCCH,2023-06-02T19:00:00Z,-36.57,-72.02,15.0,12.0,20,14,,6.21,29.970472,,,,,,,,,,,SCT,2000,,,,,,,VFR,,,,,,,,,,,,METAR,148.0
SCCC 021900Z 30013KT 9999 FEW040 SCT200 10/M00 Q0996,SCCC,2023-06-02T19:00:00Z,-46.58,-71.7,10.0,0.0,300,13,,6.21,29.409449,,,,,,,,,,,FEW,4000,SCT,20000,,,,,VFR,,,,,,,,,,,,METAR,305.0
SCBA 021900Z 27012KT 9999 FEW030 SCT200 05/02 Q0997,SCBA,2023-06-02T19:00:00Z,-45.92,-71.68,5.0,2.0,270,12,,6.21,29.438976,,,,,,,,,,,FEW,3000,SCT,20000,,,,,VFR,,,,,,,,,,,,METAR,516.0
SCAT 021900Z 26005KT 220V290 9999 SCT020 BKN023 16/11 Q1016,SCAT,2023-06-02T19:00:00Z,-27.27,-70.77,16.0,11.0,260,5,,6.21,30.0,,,,,,,,,,,SCT,2000,BKN,2300,,,,,MVFR,,,,,,,,,,,,METAR,209.0
SCAS 021900Z 08008KT 9999 -RA FEW016 OVC033 07/05 Q1000,SCAS,2023-06-02T19:00:00Z,-45.4,-72.67,7.0,5.0,80,8,,6.21,29.52756,,,,,,,,,,-RA,FEW,1600,OVC,3300,,,,,VFR,,,,,,,,,,,,METAR,8.0
SCAR 021900Z 23012KT CAVOK 21/13 Q1014,SCAR,2023-06-02T19:00:00Z,-18.35,-70.33,21.0,13.0,230,12,,6.21,29.940945,,,,,,,,,,,CAVOK,,,,,,,,VFR,,,,,,,,,,,,METAR,57.0
SCAP 021900Z VRB01KT 5000 SHRA FEW001 BKN028 04/03 Q1006,SCAP,2023-06-02T19:00:00Z,-43.62,-71.8,4.0,3.0,0,1,,3.11,29.704725,,,,,,,,,,SHRA,FEW,100,BKN,2800,,,,,MVFR,,,,,,,,,,,,METAR,252.0
SBYS 021900Z 15003KT 090V210 9999 FEW020 25/12 Q1019,SBYS,2023-06-02T19:00:00Z,-21.97,-47.33,25.0,12.0,150,3,,6.21,30.088583,,,,,,,,,,,FEW,2000,,,,,,,VFR,,,,,,,,,,,,METAR,600.0
SBVH 021900Z 08006KT 9999 SCT029 SCT100 29/21 Q1014,SBVH,2023-06-02T19:00:00Z,-12.68,-60.08,29.0,21.0,80,6,,6.21,29.940945,,,,,,,,,,,SCT,2900,SCT,10000,,,,,VFR,,,,,,,,,,,,METAR,615.0
SBUY 021900Z 00000KT 9999 SCT030 FEW035TCU 29/23 Q1010,SBUY,2023-06-02T19:00:00Z,-4.88,-65.35,29.0,23.0,0,0,,6.21,29.822834,,,,,,,,,,,SCT,3000,FEW,3500,,,,,VFR,,,,,,,,,,,,METAR,44.0
SBUR 021900Z 18006KT CAVOK 25/11 Q1019,SBUR,2023-06-02T19:00:00Z,-19.77,-47.97,25.0,11.0,180,6,,6.21,30.088583,,,,,,,,,,,CAVOK,,,,,,,,VFR,,,,,,,,,,,,METAR,807.0
SBUL 021900Z 36004KT CAVOK 27/10 Q1019,SBUL,2023-06-02T19:00:00Z,-18.87,-48.22,27.0,10.0,360,4,,6.21,30.088583,,,,,,,,,,,CAVOK,,,,,,,,VFR,,,,,,,,,,,,METAR,945.0
SBUF 021900Z 13007KT 9999 SCT021TCU SCT070 26/24 Q1013,SBUF,2023-06-02T19:00:00Z,-9.4,-38.25,26.0,24.0,130,7,,6.21,29.911417,,,,,,,,,,,SCT,2100,SCT,7000,,,,,VFR,,,,,,,,,,,,METAR,266.0
SBUA 021900Z VRB03KT 9999 SCT023 SCT100 30/27 Q1010,SBUA,2023-06-02T19:00:00Z,-0.15,-66.98,30.0,27.0,0,3,,6.21,29.822834,,,,,,,,,,,SCT,2300,SCT,10000,,,,,VFR,,,,,,,,,,,,METAR,73.0
SBTU 021900Z AUTO /////KT ///V/// CAVOK 31/23 Q1010,SBTU,2023-06-02T19:00:00Z,-3.78,-49.72,31.0,23.0,,,,6.21,29.822834,,,TRUE,,,,,,,,CAVOK,,,,,,,,VFR,,,,,,,,,,,,METAR,250.0
SBTF 021900Z 27006KT 9999 SCT020 FEW025TCU 28/25 Q1010,SBTF,2023-06-02T19:00:00Z,-3.37,-64.72,28.0,25.0,270,6,,6.21,29.822834,,,,,,,,,,,SCT,2000,FEW,2500,,,,,VFR,,,,,,,,,,,,METAR,55.0
SBTA 021900Z VRB02KT 9999 FEW035 22/14 Q1020,SBTA,2023-06-02T19:00:00Z,-23.03,-45.5,22.0,14.0,0,2,,6.21,30.11811,,,,,,,,,,,FEW,3500,,,,,,,VFR,,,,,,,,,,,,METAR,578.0
SBST 021900Z /////KT 9999 FEW025 SCT054 24/19 Q1019,SBST,2023-06-02T19:00:00Z,-23.92,-46.3,24.0,19.0,,,,6.21,30.088583,,,,,,,,,,,FEW,2500,SCT,5400,,,,,VFR,,,,,,,,,,,,METAR,5.0
SBSR 021900Z VRB04KT CAVOK 26/13 Q1018,SBSR,2023-06-02T19:00:00Z,-20.8,-49.4,26.0,13.0,0,4,,6.21,30.059055,,,,,,,,,,,CAVOK,,,,,,,,VFR,,,,,,,,,,,,METAR,537.0
SBSP 021900Z 14010KT 9999 SCT033 21/14 Q1022,SBSP,2023-06-02T19:00:00Z,-23.62,-46.65,21.0,14.0,140,10,,6.21,30.177166,,,,,,,,,,,SCT,3300,,,,,,,VFR,,,,,,,,,,,,METAR,802.0
SBSM 021900Z 02007KT CAVOK 27/14 Q1015,SBSM,2023-06-02T19:00:00Z,-29.72,-53.7,27.0,14.0,20,7,,6.21,29.970472,,,,,,,,,,,CAVOK,,,,,,,,VFR,,,,,,,,,,,,METAR,86.0
SBSC 021900Z 15007KT 9999 FEW030 24/18 Q1019,SBSC,2023-06-02T19:00:00Z,-22.92,-43.72,24.0,18.0,150,7,,6.21,30.088583,,,,,,,,,,,FEW,3000,,,,,,,VFR,,,,,,,,,,,,METAR,6.0
SBPS 021900Z 16008KT 130V210 9999 VCSH SCT020 FEW025TCU SCT080 25/21 Q1016,SBPS,2023-06-02T19:00:00Z,-16.43,-39.07,25.0,21.0,160,8,,6.21,30.0,,,,,,,,,,VCSH,SCT,2000,FEW,2500,SCT,8000,,,VFR,,,,,,,,,,,,METAR,44.0
SBPL 021900Z 17011KT 9999 FEW035 32/18 Q1012,SBPL,2023-06-02T19:00:00Z,-9.37,-40.57,32.0,18.0,170,11,,6.21,29.88189,,,,,,,,,,,FEW,3500,,,,,,,VFR,,,,,,,,,,,,METAR,386.0
SBPG 021900Z 08012KT CAVOK 21/09 Q1021,SBPG,2023-06-02T19:00:00Z,-25.18,-50.13,21.0,9.0,80,12,,6.21,30.147638,,,,,,,,,,,CAVOK,,,,,,,,VFR,,,,,,,,,,,,METAR,9.0
SBPF 021900Z 05006KT CAVOK 21/09 Q1019,SBPF,2023-06-02T19:00:00Z,-28.25,-52.33,21.0,9.0,50,6,,6.21,30.088583,,,,,,,,,,,CAVOK,,,,,,,,VFR,,,,,,,,,,,,METAR,720.0
SBPB 021900Z 06012KT 9999 SCT016 ///// Q1008,SBPB,2023-06-02T19:00:00Z,-2.88,-41.72,,,60,12,,6.21,29.763779,,,,,,,,,,,SCT,1600,,,,,,,VFR,,,,,,,,,,,,METAR,3.0
SBPA 021900Z VRB02KT CAVOK 27/14 Q1017,SBPA,2023-06-02T19:00:00Z,-30.0,-51.17,27.0,14.0,0,2,,6.21,30.029528,,,,,,,,,,,CAVOK,,,,,,,,VFR,,,,,,,,,,,,METAR,3.0
SBOI 021900Z 11008KT 040V150 9999 FEW045 32/22 Q1008,SBOI,2023-06-02T19:00:00Z,3.85,-51.78,32.0,22.0,110,8,,6.21,29.763779,,,,,,,,,,,FEW,4500,,,,,,,VFR,,,,,,,,,,,,METAR,15.0
SBNT 021900Z 14015KT 9999 FEW025 29/23 Q1010,SBNT,2023-06-02T19:00:00Z,-5.92,-35.25,29.0,23.0,140,15,,6.21,29.822834,,,,,,,,,,,FEW,2500,,,,,,,VFR,,,,,,,,,,,,METAR,51.0
SBMT 021900Z 07007KT 9999 FEW025 20/14 Q1021,SBMT,2023-06-02T19:00:00Z,-23.52,-46.63,20.0,14.0,70,7,,6.21,30.147638,,,,,,,,,,,FEW,2500,,,,,,,VFR,,,,,,,,,,,,METAR,722.0
SBMS 021900Z 04011KT 9999 FEW030 33/26 Q1009,SBMS,2023-06-02T19:00:00Z,-5.2,-37.37,33.0,26.0,40,11,,6.21,29.793306,,,,,,,,,,,FEW,3000,,,,,,,VFR,,,,,,,,,,,,METAR,23.0
SBMQ 021900Z 12004KT 9999 SCT020 33/25 Q1008,SBMQ,2023-06-02T19:00:00Z,0.05,-51.07,33.0,25.0,120,4,,6.21,29.763779,,,,,,,,,,,SCT,2000,,,,,,,VFR,,,,,,,,,,,,METAR,15.0
SBMK 021900Z 16007KT 130V210 CAVOK 28/09 Q1016,SBMK,2023-06-02T19:00:00Z,-16.7,-43.82,28.0,9.0,160,7,,6.21,30.0,,,,,,,,,,,CAVOK,,,,,,,,VFR,,,,,,,,,,,,METAR,665.0
SBMG 021900Z 08003KT 030V130 CAVOK 25/13 Q1018,SBMG,2023-06-02T19:00:00Z,-23.48,-52.02,25.0,13.0,80,3,,6.21,30.059055,,,,,,,,,,,CAVOK,,,,,,,,VFR,,,,,,,,,,,,METAR,543.0
SBME 021900Z 20007KT 9999 SCT020 23/20 Q1019,SBME,2023-06-02T19:00:00Z,-22.35,-41.77,23.0,20.0,200,7,,6.21,30.088583,,,,,,,,,,,SCT,2000,,,,,,,VFR,,,,,,,,,,,,METAR,2.0
SBMA 021900Z 00000KT 9999 FEW023 35/24 Q1008,SBMA,2023-06-02T19:00:00Z,-5.37,-49.13,35.0,24.0,0,0,,6.21,29.763779,,,,,,,,,,,FEW,2300,,,,,,,VFR,,,,,,,,,,,,METAR,110.0
SBLS 021900Z 13007KT 060V140 9999 FEW045 24/10 Q1020,SBLS,2023-06-02T19:00:00Z,-19.67,-43.88,24.0,10.0,130,7,,6.21,30.11811,,,,,,,,,,,FEW,4500,,,,,,,VFR,,,,,,,,,,,,METAR,850.0
SBLO 021900Z 12006KT CAVOK 23/13 Q1019,SBLO,2023-06-02T19:00:00Z,-23.33,-51.12,23.0,13.0,120,6,,6.21,30.088583,,,,,,,,,,,CAVOK,,,,,,,,VFR,,,,,,,,,,,,METAR,563.0
SBLE 021900Z AUTO 16005KT 130V230 CAVOK 28/19 Q1016,SBLE,2023-06-02T19:00:00Z,-12.48,-41.28,28.0,19.0,160,5,,6.21,30.0,,,TRUE,,,,,,,,CAVOK,,,,,,,,VFR,,,,,,,,,,,,METAR,495.0
SBLB 021900Z AUTO 20022KT 9999 NCD 24/18 Q1018 W///S4,SBLB,2023-06-02T19:00:00Z,-22.1,-39.92,24.0,18.0,200,22,,6.21,30.059055,,,TRUE,,,,,,,,CLR,,,,,,,,VFR,,,,,,,,,,,,METAR,10.0
SBKG 021900Z 10009KT 9999 FEW030 27/21 Q1013,SBKG,2023-06-02T19:00:00Z,-7.27,-35.88,27.0,21.0,100,9,,6.21,29.911417,,,,,,,,,,,FEW,3000,,,,,,,VFR,,,,,,,,,,,,METAR,499.0
SBJV 021900Z 12008KT 9999 FEW030 24/16 Q1019,SBJV,2023-06-02T19:00:00Z,-26.22,-48.8,24.0,16.0,120,8,,6.21,30.088583,,,,,,,,,,,FEW,3000,,,,,,,VFR,,,,,,,,,,,,METAR,3.0
SBJU 021900Z 13004KT 9999 SCT022 31/21 Q1014,SBJU,2023-06-02T19:00:00Z,-7.22,-39.27,31.0,21.0,130,4,,6.21,29.940945,,,,,,,,,,,SCT,2200,,,,,,,VFR,,,,,,,,,,,,METAR,407.0
SBJR 021900Z 19004KT 9999 FEW030 24/20 Q1019,SBJR,2023-06-02T19:00:00Z,-22.98,-43.37,24.0,20.0,190,4,,6.21,30.088583,,,,,,,,,,,FEW,3000,,,,,,,VFR,,,,,,,,,,,,METAR,5.0
SBIZ 021900Z 15007KT 9999 SCT030 34/23 Q1008,SBIZ,2023-06-02T19:00:00Z,-5.52,-47.45,34.0,23.0,150,7,,6.21,29.763779,,,,,,,,,,,SCT,3000,,,,,,,VFR,,,,,,,,,,,,METAR,131.0
SBIP 021900Z AUTO 17005KT 140V200 CAVOK 27/12 Q1017,SBIP,2023-06-02T19:00:00Z,-19.47,-42.48,27.0,12.0,170,5,,6.21,30.029528,,,TRUE,,,,,,,,CAVOK,,,,,,,,VFR,,,,,,,,,,,,METAR,240.0
SBIL 021900Z 20012KT 9999 FEW020 28/23 Q1015,SBIL,2023-06-02T19:00:00Z,-14.8,-39.02,28.0,23.0,200,12,,6.21,29.970472,,,,,,,,,,,FEW,2000,,,,,,,VFR,,,,,,,,,,,,METAR,9.0
SBIH 021900Z 19004KT 9999 VCSH SCT020 FEW025TCU 34/25 Q1008,SBIH,2023-06-02T19:00:00Z,-4.25,-56.0,34.0,25.0,190,4,,6.21,29.763779,,,,,,,,,,VCSH,SCT,2000,FEW,2500,,,,,VFR,,,,,,,,,,,,METAR,30.0
SBHT 021900Z 11004KT 9999 SCT030 33/25 Q1009,SBHT,2023-06-02T19:00:00Z,-3.25,-52.27,33.0,25.0,110,4,,6.21,29.793306,,,,,,,,,,,SCT,3000,,,,,,,VFR,,,,,,,,,,,,METAR,105.0
SBGW 021900Z VRB02KT 9999 FEW040 24/15 Q1020,SBGW,2023-06-02T19:00:00Z,-22.78,-45.2,24.0,15.0,0,2,,6.21,30.11811,,,,,,,,,,,FEW,4000,,,,,,,VFR,,,,,,,,,,,,METAR,539.0
SBGO 021900Z 13002KT 9999 SCT049 28/13 Q1017,SBGO,2023-06-02T19:00:00Z,-16.62,-49.22,28.0,13.0,130,2,,6.21,30.029528,,,,,,,,,,,SCT,4900,,,,,,,VFR,,,,,,,,,,,,METAR,740.0
SBGM 021900Z 12005KT 080V170 9999 FEW035 BKN044 30/22 Q1013,SBGM,2023-06-02T19:00:00Z,-10.78,-65.28,30.0,22.0,120,5,,6.21,29.911417,,,,,,,,,,,FEW,3500,BKN,4400,,,,,VFR,,,,,,,,,,,,METAR,147.0
SBGL 021900Z 07009KT 9999 FEW003 SCT055 23/17 Q1019,SBGL,2023-06-02T19:00:00Z,-22.82,-43.25,23.0,17.0,70,9,,6.21,30.088583,,,,,,,,,,,FEW,300,SCT,5500,,,,,VFR,,,,,,,,,,,,METAR,3.0
SBFS 021900Z 20015KT 9999 FEW015 24/19 Q1019,SBFS,2023-06-02T19:00:00Z,-22.02,-41.07,24.0,19.0,200,15,,6.21,30.088583,,,,,,,,,,,FEW,1500,,,,,,,VFR,,,,,,,,,,,,METAR,3.0
SBES 021900Z 23007KT 9999 FEW020 23/19 Q1019,SBES,2023-06-02T19:00:00Z,-22.82,-42.1,23.0,19.0,230,7,,6.21,30.088583,,,,,,,,,,,FEW,2000,,,,,,,VFR,,,,,,,,,,,,METAR,16.0
SBDN 021900Z 12005KT CAVOK 25/15 Q1017,SBDN,2023-06-02T19:00:00Z,-22.18,-51.43,25.0,15.0,120,5,,6.21,30.029528,,,,,,,,,,,CAVOK,,,,,,,,VFR,,,,,,,,,,,,METAR,438.0
SBCZ 021900Z 14002KT 9999 VCSH BKN030 31/23 Q1013,SBCZ,2023-06-02T19:00:00Z,-7.58,-72.77,31.0,23.0,140,2,,6.21,29.911417,,,,,,,,,,VCSH,BKN,3000,,,,,,,MVFR,,,,,,,,,,,,METAR,193.0
SBCP 021900Z 18012KT 9999 FEW025 25/18 Q1019,SBCP,2023-06-02T19:00:00Z,-21.7,-41.3,25.0,18.0,180,12,,6.21,30.088583,,,,,,,,,,,FEW,2500,,,,,,,VFR,,,,,,,,,,,,METAR,15.0
SBCO 021900Z 14005KT 110V170 CAVOK 26/14 Q1017,SBCO,2023-06-02T19:00:00Z,-29.95,-51.15,26.0,14.0,140,5,,6.21,30.029528,,,,,,,,,,,CAVOK,,,,,,,,VFR,,,,,,,,,,,,METAR,8.0
SBCH 021900Z 36006KT CAVOK 24/13 Q1018,SBCH,2023-06-02T19:00:00Z,-27.13,-52.67,24.0,13.0,360,6,,6.21,30.059055,,,,,,,,,,,CAVOK,,,,,,,,VFR,,,,,,,,,,,,METAR,639.0
SBCC 021900Z 10007KT 9999 SCT025 FEW030TCU 30/20 Q1012,SBCC,2023-06-02T19:00:00Z,-9.33,-54.95,30.0,20.0,100,7,,6.21,29.88189,,,,,,,,,,,SCT,2500,FEW,3000,,,,,VFR,,,,,,,,,,,,METAR,540.0
SBCA 021900Z 05010KT CAVOK 21/14 Q1019,SBCA,2023-06-02T19:00:00Z,-25.0,-53.5,21.0,14.0,50,10,,6.21,30.088583,,,,,,,,,,,CAVOK,,,,,,,,VFR,,,,,,,,,,,,METAR,753.0
SBBW 021900Z 24003KT 9999 FEW020 32/16 Q1014,SBBW,2023-06-02T19:00:00Z,-15.87,-52.38,32.0,16.0,240,3,,6.21,29.940945,,,,,,,,,,,FEW,2000,,,,,,,VFR,,,,,,,,,,,,METAR,354.0
SBBU 021900Z 16008KT CAVOK 24/16 Q1019,SBBU,2023-06-02T19:00:00Z,-22.33,-49.07,24.0,16.0,160,8,,6.21,30.088583,,,,,,,,,,,CAVOK,,,,,,,,VFR,,,,,,,,,,,,METAR,616.0
SBBQ 021900Z 16007KT 110V200 9999 FEW035 19/13 Q1024,SBBQ,2023-06-02T19:00:00Z,-21.25,-43.77,19.0,13.0,160,7,,6.21,30.236221,,,,,,,,,,,FEW,3500,,,,,,,VFR,,,,,,,,,,,,METAR,1106.0
SBBI 021900Z 11007KT 070V170 CAVOK 20/07 Q1022,SBBI,2023-06-02T19:00:00Z,-25.4,-49.23,20.0,7.0,110,7,,6.21,30.177166,,,,,,,,,,,CAVOK,,,,,,,,VFR,,,,,,,,,,,,METAR,928.0
SBBH 021900Z 10008KT CAVOK 24/12 Q1019,SBBH,2023-06-02T19:00:00Z,-19.85,-43.95,24.0,12.0,100,8,,6.21,30.088583,,,,,,,,,,,CAVOK,,,,,,,,VFR,,,,,,,,,,,,METAR,799.0
SBBG 021900Z 02009KT CAVOK 26/14 Q1015,SBBG,2023-06-02T19:00:00Z,-31.38,-54.12,26.0,14.0,20,9,,6.21,29.970472,,,,,,,,,,,CAVOK,,,,,,,,VFR,,,,,,,,,,,,METAR,182.0
SBAX 021900Z 13010KT CAVOK 24/10 Q1019,SBAX,2023-06-02T19:00:00Z,-19.57,-46.97,24.0,10.0,130,10,,6.21,30.088583,,,,,,,,,,,CAVOK,,,,,,,,VFR,,,,,,,,,,,,METAR,989.0
SBAT 021900Z 13007KT 9999 FEW032 34/22 Q1011,SBAT,2023-06-02T19:00:00Z,-9.87,-56.1,34.0,22.0,130,7,,6.21,29.852362,,,,,,,,,,,FEW,3200,,,,,,,VFR,,,,,,,,,,,,METAR,287.0
SBAN 021900Z 14006KT 9999 SCT045 26/13 Q1019,SBAN,2023-06-02T19:00:00Z,-16.22,-48.97,26.0,13.0,140,6,,6.21,30.088583,,,,,,,,,,,SCT,4500,,,,,,,VFR,,,,,,,,,,,,METAR,1131.0
SBAF 021900Z 19009KT 9999 FEW025 SCT030 23/20 Q1020,SBAF,2023-06-02T19:00:00Z,-22.87,-43.38,23.0,20.0,190,9,,6.21,30.11811,,,,,,,,,,,FEW,2500,SCT,3000,,,,,VFR,,,,,,,,,,,,METAR,34.0
SAZS 021900Z 30019KT 9999 SCT049 SCT100 09/01 Q1007 RMK PP///,SAZS,2023-06-02T19:00:00Z,-41.15,-71.17,9.0,1.0,300,19,,6.21,29.734253,,,,,,,,,,,SCT,4900,SCT,10000,,,,,VFR,,,,,,,,,,,,METAR,843.0
SAZN 021900Z 06004KT CAVOK 18/04 Q1010,SAZN,2023-06-02T19:00:00Z,-38.95,-68.15,18.0,4.0,60,4,,6.21,29.822834,,,,,,,,,,,CAVOK,,,,,,,,VFR,,,,,,,,,,,,METAR,273.0
SAZM 021900Z 34010KT CAVOK 18/16 Q1010 RMK PP///,SAZM,2023-06-02T19:00:00Z,-37.92,-57.57,18.0,16.0,340,10,,6.21,29.822834,,,,,,,,,,,CAVOK,,,,,,,,VFR,,,,,,,,,,,,SPECI,17.0
SAWH 021900Z 06004KT 020V130 9999 VCSH FEW030 BKN040 08/04 Q0983 RMK PP000,SAWH,2023-06-02T19:00:00Z,-54.85,-68.3,8.0,4.0,60,4,,6.21,29.02559,,,,,,,,,,VCSH,FEW,3000,BKN,4000,,,,,VFR,,,,,,,,,,,,METAR,22.0
SAWG 021900Z 31004KT CAVOK 10/03 Q0988,SAWG,2023-06-02T19:00:00Z,-51.62,-69.27,10.0,3.0,310,4,,6.21,29.17323,,,,,,,,,,,CAVOK,,,,,,,,VFR,,,,,,,,,,,,METAR,15.0
SAWE 021900Z 30007KT 5000 BR SCT011 07/06 Q0985 RMK PP000,SAWE,2023-06-02T19:00:00Z,-53.78,-67.75,7.0,6.0,300,7,,3.11,29.084646,,,,,,,,,,BR,SCT,1100,,,,,,,MVFR,,,,,,,,,,,,SPECI,22.0
SAVC 021900Z 29018G30KT 270V330 CAVOK 15/M03 Q1000 RMK PP000,SAVC,2023-06-02T19:00:00Z,-45.78,-67.47,15.0,-3.0,290,18,30,6.21,29.52756,,,,,,,,,,,CAVOK,,,,,,,,VFR,,,,,,,,,,,,SPECI,58.0
SASJ 021900Z 07009KT 030V090 CAVOK 23/15 Q1009 RMK PP000,SASJ,2023-06-02T19:00:00Z,-24.38,-65.1,23.0,15.0,70,9,,6.21,29.793306,,,,,,,,,,,CAVOK,,,,,,,,VFR,,,,,,,,,,,,SPECI,913.0
SASA 021900Z VRB04KT CAVOK 25/08 Q1010 RMK PP000,SASA,2023-06-02T19:00:00Z,-24.85,-65.48,25.0,8.0,0,4,,6.21,29.822834,,,,,,,,,,,CAVOK,,,,,,,,VFR,,,,,,,,,,,,SPECI,1235.0
SARP 021900Z 02007KT 9999 FEW045 26/17 Q1014,SARP,2023-06-02T19:00:00Z,-27.38,-55.97,26.0,17.0,20,7,,6.21,29.940945,,,,,,,,,,,FEW,4500,,,,,,,VFR,,,,,,,,,,,,METAR,123.0
SARL 021900Z 05007KT 9999 SCT015 SCT100 26/17 Q1012,SARL,2023-06-02T19:00:00Z,-29.68,-57.15,26.0,17.0,50,7,,6.21,29.88189,,,,,,,,,,,SCT,1500,SCT,10000,,,,,VFR,,,,,,,,,,,,METAR,70.0
SARI 021900Z 05006KT 020V090 9999 FEW030 24/17 Q1016 RMK PP000,SARI,2023-06-02T19:00:00Z,-25.73,-54.47,24.0,17.0,50,6,,6.21,30.0,,,,,,,,,,,FEW,3000,,,,,,,VFR,,,,,,,,,,,,SPECI,268.0
SARF 021900Z 05012KT 9999 FEW025 27/18 Q1011,SARF,2023-06-02T19:00:00Z,-26.22,-58.22,27.0,18.0,50,12,,6.21,29.852362,,,,,,,,,,,FEW,2500,,,,,,,VFR,,,,,,,,,,,,METAR,65.0
SARE 021900Z 03013KT 9999 SCT045 26/17 Q1010 RMK PP///,SARE,2023-06-02T19:00:00Z,-27.43,-59.05,26.0,17.0,30,13,,6.21,29.822834,,,,,,,,,,,SCT,4500,,,,,,,VFR,,,,,,,,,,,,SPECI,52.0
SARC 021900Z 05011KT 9999 FEW025 26/17 Q1010,SARC,2023-06-02T19:00:00Z,-27.43,-58.77,26.0,17.0,50,11,,6.21,29.822834,,,,,,,,,,,FEW,2500,,,,,,,VFR,,,,,,,,,,,,METAR,60.0
SAOC 021900Z 18002KT CAVOK 22/14 Q1006,SAOC,2023-06-02T19:00:00Z,-33.08,-64.27,22.0,14.0,180,2,,6.21,29.704725,,,,,,,,,,,CAVOK,,,,,,,,VFR,,,,,,,,,,,,METAR,422.0
SANT 021900Z 22006KT 9000 NSC 22/15 Q1006 RMK PP000,SANT,2023-06-02T19:00:00Z,-26.85,-65.1,22.0,15.0,220,6,,5.59,29.704725,,,,,,,,,,,CLR,,,,,,,,VFR,,,,,,,,,,,,SPECI,446.0
SAME 021900Z VRB03KT CAVOK 21/09 Q1006,SAME,2023-06-02T19:00:00Z,-32.82,-68.78,21.0,9.0,0,3,,6.21,29.704725,,,,,,,,,,,CAVOK,,,,,,,,VFR,,,,,,,,,,,,METAR,709.0
SAEZ 021900Z 02009KT CAVOK 24/17 Q1010 NOSIG RMK PP000,SAEZ,2023-06-02T19:00:00Z,-34.82,-58.53,24.0,17.0,20,9,,6.21,29.822834,,,,,,TRUE,,,,,CAVOK,,,,,,,,VFR,,,,,,,,,,,,METAR,16.0
SADF 021900Z 02010KT 340V050 9999 FEW033 24/17 Q1010 RMK PP000,SADF,2023-06-02T19:00:00Z,-34.45,-58.58,24.0,17.0,20,10,,6.21,29.822834,,,,,,,,,,,FEW,3300,,,,,,,VFR,,,,,,,,,,,,METAR,4.0
SACO 021900Z 02012KT 360V060 9999 FEW030 26/15 Q1005 NOSIG RMK PP000,SACO,2023-06-02T19:00:00Z,-31.32,-64.22,26.0,15.0,20,12,,6.21,29.675198,,,,,,TRUE,,,,,FEW,3000,,,,,,,VFR,,,,,,,,,,,,SPECI,474.0
SABE 021900Z 01006KT 340V050 9999 FEW009 21/18 Q1011 NOSIG RMK PP000,SABE,2023-06-02T19:00:00Z,-34.57,-58.42,21.0,18.0,10,6,,6.21,29.852362,,,,,,TRUE,,,,,FEW,900,,,,,,,VFR,,,,,,,,,,,,SPECI,3.0
SAAR 021900Z 03013KT CAVOK 23/17 Q1007 RMK PP000,SAAR,2023-06-02T19:00:00Z,-32.92,-60.77,23.0,17.0,30,13,,6.21,29.734253,,,,,,,,,,,CAVOK,,,,,,,,VFR,,,,,,,,,,,,SPECI,24.0
RPVM 021900Z 21003KT 9999 FEW020 26/23 Q1010 NOSIG RMK A2983,RPVM,2023-06-02T19:00:00Z,10.32,123.98,26.0,23.0,210,3,,6.21,29.822834,,,,,,TRUE,,,,,FEW,2000,,,,,,,VFR,,,,,,,,,,,,METAR,9.0
RPMD 021900Z 34003KT 310V020 9999 FEW016 SCT290 25/25 Q1010 RMK A2983,RPMD,2023-06-02T19:00:00Z,7.12,125.65,25.0,25.0,340,3,,6.21,29.822834,,,,,,,,,,,FEW,1600,SCT,29000,,,,,VFR,,,,,,,,,,,,METAR,19.0
RPLL 021900Z 22004KT 9999 FEW025 26/23 Q1008 NOSIG RMK A2977,RPLL,2023-06-02T19:00:00Z,14.52,121.0,26.0,23.0,220,4,,6.21,29.763779,,,,,,TRUE,,,,,FEW,2500,,,,,,,VFR,,,,,,,,,,,,METAR,15.0
RPLI 021900Z 12004KT 9999 FEW017CB SCT090 27/26 Q1008 NOSIG RMK A2977,RPLI,2023-06-02T19:00:00Z,18.17,120.52,27.0,26.0,120,4,,6.21,29.763779,,,,,,TRUE,,,,,FEW,1700,SCT,9000,,,,,VFR,,,,,,,,,,,,METAR,5.0
RPLC 021900Z 27002KT 8000 SCT020 BKN300 27/24 Q1009 NOSIG RMK A2980,RPLC,2023-06-02T19:00:00Z,15.18,120.55,27.0,24.0,270,2,,4.97,29.793306,,,,,,TRUE,,,,,SCT,2000,BKN,30000,,,,,MVFR,,,,,,,,,,,,METAR,138.0
RPLB 021900Z 19003KT 9999 SCT018 BKN080 25/23 Q1009 NOSIG RMK A2980,RPLB,2023-06-02T19:00:00Z,14.8,120.27,25.0,23.0,190,3,,6.21,29.793306,,,,,,TRUE,,,,,SCT,1800,BKN,8000,,,,,VFR,,,,,,,,,,,,METAR,19.0
ROYN 021900Z AUTO 17006KT 9999 NSC 26/25 Q1008,ROYN,2023-06-02T19:00:00Z,24.47,122.97,26.0,25.0,170,6,,6.21,29.763779,,,TRUE,,,,,,,,CLR,,,,,,,,VFR,,,,,,,,,,,,METAR,21.0
RORY 021900Z AUTO 32016KT 9999 FEW016 23/21 Q1006,RORY,2023-06-02T19:00:00Z,27.05,128.4,23.0,21.0,320,16,,6.21,29.704725,,,TRUE,,,,,,,,FEW,1600,,,,,,,VFR,,,,,,,,,,,,METAR,13.0
RORT 021900Z AUTO 35003KT 9999 NCD 24/22 Q1008,RORT,2023-06-02T19:00:00Z,24.63,124.7,24.0,22.0,350,3,,6.21,29.763779,,,TRUE,,,,,,,,CLR,,,,,,,,VFR,,,,,,,,,,,,METAR,9.0
RORS 021900Z AUTO 32007KT 9999 NCD 24/21 Q1007,RORS,2023-06-02T19:00:00Z,24.82,125.15,24.0,21.0,320,7,,6.21,29.734253,,,TRUE,,,,,,,,CLR,,,,,,,,VFR,,,,,,,,,,,,METAR,13.0
RORK 021900Z AUTO 28013KT 8000 BKN012 24/23 Q1004,RORK,2023-06-02T19:00:00Z,25.93,131.32,24.0,23.0,280,13,,4.97,29.64567,,,TRUE,,,,,,,,BKN,1200,,,,,,,MVFR,,,,,,,,,,,,METAR,11.0
ROMY 021900Z AUTO 30003KT 280V340 9999 NCD 23/21 Q1008,ROMY,2023-06-02T19:00:00Z,24.78,125.27,23.0,21.0,300,3,,6.21,29.763779,,,TRUE,,,,,,,,CLR,,,,,,,,VFR,,,,,,,,,,,,METAR,38.0
ROMD 021900Z AUTO 29012KT 260V320 8000 OVC010 24/23 Q1004,ROMD,2023-06-02T19:00:00Z,25.83,131.25,24.0,23.0,290,12,,4.97,29.64567,,,TRUE,,,,,,,,OVC,1000,,,,,,,MVFR,,,,,,,,,,,,METAR,45.0
ROIG 021900Z AUTO 28003KT 6000 FEW049 24/24 Q1008,ROIG,2023-06-02T19:00:00Z,24.38,124.23,24.0,24.0,280,3,,3.73,29.763779,,,TRUE,,,,,,,,FEW,4900,,,,,,,MVFR,,,,,,,,,,,,METAR,37.0
RKTU 021900Z 30002KT 6000 NSC 15/15 Q1007,RKTU,2023-06-02T19:00:00Z,36.7,127.5,15.0,15.0,300,2,,3.73,29.734253,,,,,,,,,,,CLR,,,,,,,,MVFR,,,,,,,,,,,,METAR,46.0
RKTN 021900Z 14002KT 9999 FEW055 16/14 Q1006,RKTN,2023-06-02T19:00:00Z,35.88,128.65,16.0,14.0,140,2,,6.21,29.704725,,,,,,,,,,,FEW,5500,,,,,,,VFR,,,,,,,,,,,,METAR,25.0
RKSS 021900Z 33001KT 7000 NSC 15/15 Q1007 NOSIG,RKSS,2023-06-02T19:00:00Z,37.55,126.78,15.0,15.0,330,1,,4.35,29.734253,,,,,,TRUE,,,,,CLR,,,,,,,,MVFR,,,,,,,,,,,,METAR,18.0
RKSM 021900Z 13001KT 9999 SKC 16/15 A2973,RKSM,2023-06-02T19:00:00Z,37.43,127.12,16.0,15.0,130,1,,6.21,29.731298,,,,,,,,,,,SKC,,,,,,,,VFR,,,,,,,,,,,,METAR,18.0
RKPK 021900Z 03001KT CAVOK 18/14 Q1005,RKPK,2023-06-02T19:00:00Z,35.17,128.93,18.0,14.0,30,1,,6.21,29.675198,,,,,,,,,,,CAVOK,,,,,,,,VFR,,,,,,,,,,,,METAR,3.0
RKPC 021900Z 29005KT 260V320 9000 FEW009 18/16 Q1007 NOSIG,RKPC,2023-06-02T19:00:00Z,33.5,126.48,18.0,16.0,290,5,,5.59,29.734253,,,,,,TRUE,,,,,FEW,900,,,,,,,VFR,,,,,,,,,,,,METAR,23.0
RKNY 021900Z AUTO 28002KT 9999 NCD 15/14 Q1006,RKNY,2023-06-02T19:00:00Z,38.07,128.67,15.0,14.0,280,2,,6.21,29.704725,,,TRUE,,,,,,,,CLR,,,,,,,,VFR,,,,,,,,,,,,METAR,76.0
RKJB 021900Z 35005KT 7000 SCT014 18/15 Q1007 NOSIG,RKJB,2023-06-02T19:00:00Z,34.98,126.38,18.0,15.0,350,5,,4.35,29.734253,,,,,,TRUE,,,,,SCT,1400,,,,,,,MVFR,,,,,,,,,,,,METAR,16.0
RJSM 021900Z VRB02KT 9999 FEW015 BKN030 17/15 Q0993,RJSM,2023-06-02T19:00:00Z,40.7,141.37,17.0,15.0,0,2,,6.21,29.320866,,,,,,,,,,,FEW,1500,BKN,3000,,,,,MVFR,,,,,,,,,,,,METAR,31.0
RJOS 021900Z 35008KT 9999 FEW008 SCT030 BKN080 21/19 Q1000,RJOS,2023-06-02T19:00:00Z,34.12,134.62,21.0,19.0,350,8,,6.21,29.52756,,,,,,,,,,,FEW,800,SCT,3000,BKN,8000,,,VFR,,,,,,,,,,,,METAR,3.0
RJOO 021900Z AUTO 35008KT 9999 NSC 19/17 Q1001,RJOO,2023-06-02T19:00:00Z,34.78,135.43,19.0,17.0,350,8,,6.21,29.557087,,,TRUE,,,,,,,,CLR,,,,,,,,VFR,,,,,,,,,,,,METAR,11.0
RJOK 021900Z AUTO 36016KT 9999 OVC060 23/15 Q0996,RJOK,2023-06-02T19:00:00Z,33.53,133.67,23.0,15.0,360,16,,6.21,29.409449,,,TRUE,,,,,,,,OVC,6000,,,,,,,VFR,,,,,,,,,,,,METAR,7.0
RJOH 021900Z VRB01KT 9999 FEW010 BKN020 BKN/// 18/16 Q1003,RJOH,2023-06-02T19:00:00Z,35.48,133.25,18.0,16.0,0,1,,6.21,29.616142,,,,,,,,,,,FEW,1000,BKN,2000,,,,,MVFR,,,,,,,,,,,,METAR,6.0
RJNK 021900Z 33005KT 280V010 9999 FEW008 BKN010 BKN030 18/16 Q1001,RJNK,2023-06-02T19:00:00Z,36.38,136.42,18.0,16.0,330,5,,6.21,29.557087,,,,,,,,,,,FEW,800,BKN,1000,BKN,3000,,,MVFR,,,,,,,,,,,,METAR,7.0
RJKI 021900Z AUTO 31017KT 9999 NCD 24/21 Q1003,RJKI,2023-06-02T19:00:00Z,28.32,129.92,24.0,21.0,310,17,,6.21,29.616142,,,TRUE,,,,,,,,CLR,,,,,,,,VFR,,,,,,,,,,,,METAR,6.0
RJKA 021900Z AUTO 31016KT 9999 NCD 24/20 Q1002,RJKA,2023-06-02T19:00:00Z,28.42,129.72,24.0,20.0,310,16,,6.21,29.586615,,,TRUE,,,,,,,,CLR,,,,,,,,VFR,,,,,,,,,,,,METAR,7.0
RJFR 021900Z 33006KT 9999 FEW015 19/16 Q1002,RJFR,2023-06-02T19:00:00Z,33.83,131.03,19.0,16.0,330,6,,6.21,29.586615,,,,,,,,,,,FEW,1500,,,,,,,VFR,,,,,,,,,,,,METAR,9.0
RJFM 021900Z AUTO 29008KT 9999 NCD 20/18 Q0999,RJFM,2023-06-02T19:00:00Z,31.87,131.43,20.0,18.0,290,8,,6.21,29.498032,,,TRUE,,,,,,,,CLR,,,,,,,,VFR,,,,,,,,,,,,METAR,10.0
RJDB 021900Z AUTO 01010KT 9999 NCD 20/17 Q1003,RJDB,2023-06-02T19:00:00Z,33.75,129.78,20.0,17.0,10,10,,6.21,29.616142,,,TRUE,,,,,,,,CLR,,,,,,,,VFR,,,,,,,,,,,,METAR,13.0
RCSS 021900Z 08006KT 040V110 9999 FEW015 28/24 Q1007 NOSIG RMK A2975,RCSS,2023-06-02T19:00:00Z,25.07,121.55,28.0,24.0,80,6,,6.21,29.734253,,,,,,TRUE,,,,,FEW,1500,,,,,,,VFR,,,,,,,,,,,,SPECI,8.0
RCNN 021900Z 18003KT 9000 VCSH FEW010 SCT030 26/25 Q1007 RMK A2976 VCSH E,RCNN,2023-06-02T19:00:00Z,22.93,120.2,26.0,25.0,180,3,,5.59,29.734253,,,,,,,,,,VCSH,FEW,1000,SCT,3000,,,,,VFR,,,,,,,,,,,,SPECI,15.0
RCMQ 021900Z 36003KT 6000 FEW008 SCT016 BKN030 26/26 Q1008 RMK A2978,RCMQ,2023-06-02T19:00:00Z,24.27,120.62,26.0,26.0,360,3,,3.73,29.763779,,,,,,,,,,,FEW,800,SCT,1600,BKN,3000,,,MVFR,,,,,,,,,,,,SPECI,202.0
RCKH 021900Z 21005KT 180V240 9999 SCT010 SCT022 BKN040 29/25 Q1007 NOSIG RMK A2975,RCKH,2023-06-02T19:00:00Z,22.57,120.33,29.0,25.0,210,5,,6.21,29.734253,,,,,,TRUE,,,,,SCT,1000,SCT,2200,BKN,4000,,,VFR,,,,,,,,,,,,METAR,6.0
PLCH 021900Z 02003KT 9999 FEW018TCU SCT019 BKN040 28/27 Q1012,PLCH,2023-06-02T19:00:00Z,1.98,-157.35,28.0,27.0,20,3,,6.21,29.88189,,,,,,,,,,,FEW,1800,SCT,1900,BKN,4000,,,VFR,,,,,,,,,,,,METAR,5.0
OTHH 021900Z 30013KT CAVOK 34/07 Q1005 NOSIG,OTHH,2023-06-02T19:00:00Z,25.27,51.6,34.0,7.0,300,13,,6.21,29.675198,,,,,,TRUE,,,,,CAVOK,,,,,,,,VFR,,,,,,,,,,,,METAR,3.0
OPSK 021900Z 05012KT 4000 HZ SCT100 31/22 Q1002 NOSIG,OPSK,2023-06-02T19:00:00Z,27.72,68.8,31.0,22.0,50,12,,2.49,29.586615,,,,,,TRUE,,,,HZ,SCT,10000,,,,,,,IFR,,,,,,,,,,,,METAR,62.0
OPNH 021900Z 13510KT 6000 SCT100 34/25 Q1004,OPNH,2023-06-02T19:00:00Z,26.22,68.38,34.0,25.0,135,10,,3.73,29.64567,,,,,,,,,,,SCT,10000,,,,,,,MVFR,,,,,,,,,,,,METAR,30.0
OMSJ 021900Z 19007KT 150V230 CAVOK 31/21 Q1006 NOSIG,OMSJ,2023-06-02T19:00:00Z,25.32,55.52,31.0,21.0,190,7,,6.21,29.704725,,,,,,TRUE,,,,,CAVOK,,,,,,,,VFR,,,,,,,,,,,,METAR,33.0
OMRK 021900Z 18007KT CAVOK 31/20 Q1006 A2973,OMRK,2023-06-02T19:00:00Z,25.62,55.93,31.0,20.0,180,7,,6.21,29.704725,,,,,,,,,,,CAVOK,,,,,,,,VFR,,,,,,,,,,,,METAR,18.0
OMFJ 021900Z 31010KT 280V340 8000 NSC 32/16 Q1005 A2969,OMFJ,2023-06-02T19:00:00Z,25.1,56.32,32.0,16.0,310,10,,4.97,29.675198,,,,,,,,,,,CLR,,,,,,,,MVFR,,,,,,,,,,,,METAR,27.0
OMDW 021900Z 19006KT CAVOK 30/20 Q1007 NOSIG,OMDW,2023-06-02T19:00:00Z,24.9,55.17,30.0,20.0,190,6,,6.21,29.734253,,,,,,TRUE,,,,,CAVOK,,,,,,,,VFR,,,,,,,,,,,,METAR,34.0
OMDB 021900Z VRB04KT CAVOK 31/22 Q1006 NOSIG,OMDB,2023-06-02T19:00:00Z,25.25,55.37,31.0,22.0,0,4,,6.21,29.704725,,,,,,TRUE,,,,,CAVOK,,,,,,,,VFR,,,,,,,,,,,,METAR,5.0
OMAL 021900Z VRB02KT CAVOK 29/15 Q1009 NOSIG,OMAL,2023-06-02T19:00:00Z,24.25,55.6,29.0,15.0,0,2,,6.21,29.793306,,,,,,TRUE,,,,,CAVOK,,,,,,,,VFR,,,,,,,,,,,,METAR,247.0
OMAD 021900Z 27004KT CAVOK 32/20 Q1006 NOSIG,OMAD,2023-06-02T19:00:00Z,24.42,54.47,32.0,20.0,270,4,,6.21,29.704725,,,,,,TRUE,,,,,CAVOK,,,,,,,,VFR,,,,,,,,,,,,METAR,9.0
OMAA 021900Z 25002KT CAVOK 31/18 Q1006 NOSIG,OMAA,2023-06-02T19:00:00Z,24.42,54.65,31.0,18.0,250,2,,6.21,29.704725,,,,,,TRUE,,,,,CAVOK,,,,,,,,VFR,,,,,,,,,,,,METAR,13.0
OLBA 021900Z 17006KT 6000 NSC 31/12 Q1010 NOSIG,OLBA,2023-06-02T19:00:00Z,33.82,35.48,31.0,12.0,170,6,,3.73,29.822834,,,,,,TRUE,,,,,CLR,,,,,,,,MVFR,,,,,,,,,,,,METAR,29.0
OKKK 021900Z 35015KT CAVOK 36/10 Q1007 NOSIG,OKKK,2023-06-02T19:00:00Z,,,36.0,10.0,350,15,,6.21,29.734253,,,,,,TRUE,,,,,CAVOK,,,,,,,,VFR,,,,,,,,,,,,METAR,
OJAM 021900Z 26004KT 5000 HZ NSC 31/06 Q1016 NOSIG,OJAM,2023-06-02T19:00:00Z,31.98,35.98,31.0,6.0,260,4,,3.11,30.0,,,,,,TRUE,,,,HZ,CLR,,,,,,,,MVFR,,,,,,,,,,,,METAR,765.0
OIZI 021900Z 29008KT CAVOK 36/06 Q1008,OIZI,2023-06-02T19:00:00Z,27.23,60.72,36.0,6.0,290,8,,6.21,29.763779,,,,,,,,,,,CAVOK,,,,,,,,VFR,,,,,,,,,,,,METAR,622.0
OIZH 021900Z 25006KT 5000 FEW035CB SCT100 28/05 Q1015 A2999 TEMPO SHRA,OIZH,2023-06-02T19:00:00Z,29.47,60.92,28.0,5.0,250,6,,3.11,29.970472,,,,,,,,,,,FEW,3500,SCT,10000,,,,,MVFR,,,,,,,,,,,,SPECI,1378.0
OIZB 021900Z 33010KT CAVOK 33/01 Q1006,OIZB,2023-06-02T19:00:00Z,31.1,61.55,33.0,1.0,330,10,,6.21,29.704725,,,,,,,,,,,CAVOK,,,,,,,,VFR,,,,,,,,,,,,METAR,483.0
OITL 021900Z 15006KT 9999 FEW035 SCT080 14/14 Q1019,OITL,2023-06-02T19:00:00Z,38.33,48.42,14.0,14.0,150,6,,6.21,30.088583,,,,,,,,,,,FEW,3500,SCT,8000,,,,,VFR,,,,,,,,,,,,METAR,1314.0
OISY 021900Z 08004KT CAVOK 21/M04 Q1023,OISY,2023-06-02T19:00:00Z,30.7,51.55,21.0,-4.0,80,4,,6.21,30.206694,,,,,,,,,,,CAVOK,,,,,,,,VFR,,,,,,,,,,,,METAR,1800.0
OISL 021900Z 09021KT CAVOK 31/16 Q1010 A2984,OISL,2023-06-02T19:00:00Z,27.67,54.37,31.0,16.0,90,21,,6.21,29.822834,,,,,,,,,,,CAVOK,,,,,,,,VFR,,,,,,,,,,,,METAR,804.0
OISF 021900Z 14025KT 7000 SCT045 SCT100 30/05 Q1015 A2999,OISF,2023-06-02T19:00:00Z,28.9,53.72,30.0,5.0,140,25,,4.35,29.970472,,,,,,,,,,,SCT,4500,SCT,10000,,,,,MVFR,,,,,,,,,,,,METAR,1305.0
OINZ 021900Z 11002KT CAVOK 22/21 Q1014,OINZ,2023-06-02T19:00:00Z,36.63,53.2,22.0,21.0,110,2,,6.21,29.940945,,,,,,,,,,,CAVOK,,,,,,,,VFR,,,,,,,,,,,,METAR,8.0
OINR 021900Z 12002KT 9999 FEW020CB SCT026 OVC080 24/21 Q1013,OINR,2023-06-02T19:00:00Z,36.9,50.67,24.0,21.0,120,2,,6.21,29.911417,,,,,,,,,,,FEW,2000,SCT,2600,OVC,8000,,,VFR,,,,,,,,,,,,METAR,-19.0
OINN 021900Z 11002KT 9999 SCT025 23/20 Q1013,OINN,2023-06-02T19:00:00Z,36.67,51.47,23.0,20.0,110,2,,6.21,29.911417,,,,,,,,,,,SCT,2500,,,,,,,VFR,,,,,,,,,,,,METAR,-25.0
OIMN 021900Z 29018KT CAVOK 23/11 Q1018,OIMN,2023-06-02T19:00:00Z,37.48,57.3,23.0,11.0,290,18,,6.21,30.059055,,,,,,,,,,,CAVOK,,,,,,,,VFR,,,,,,,,,,,,METAR,1065.0
OIMJ 021900Z AUTO 04009KT //// // ////// 20/10 Q1017,OIMJ,2023-06-02T19:00:00Z,36.43,55.1,20.0,10.0,40,9,,,30.029528,,,TRUE,,,,,,,,,,,,,,,,,,,,,,,,,,,,METAR,1285.0
OIKQ 021900Z 22010KT 5000 BR NSC 29/27 Q1004,OIKQ,2023-06-02T19:00:00Z,26.75,55.9,29.0,27.0,220,10,,3.11,29.64567,,,,,,,,,,BR,CLR,,,,,,,,MVFR,,,,,,,,,,,,METAR,9.0
OIKK 021900Z 10004KT CAVOK 22/02 Q1018 A3008,OIKK,2023-06-02T19:00:00Z,30.25,56.97,22.0,2.0,100,4,,6.21,30.059055,,,,,,,,,,,CAVOK,,,,,,,,VFR,,,,,,,,,,,,METAR,1749.0
OIIP 021900Z 31008KT CAVOK 23/02 Q1014 A2997,OIIP,2023-06-02T19:00:00Z,35.78,50.83,23.0,2.0,310,8,,6.21,29.940945,,,,,,,,,,,CAVOK,,,,,,,,VFR,,,,,,,,,,,,METAR,1270.0
OIIK 021900Z 00000KT CAVOK 21/11 Q1016,OIIK,2023-06-02T19:00:00Z,36.25,50.05,21.0,11.0,0,0,,6.21,30.0,,,,,,,,,,,CAVOK,,,,,,,,VFR,,,,,,,,,,,,METAR,1278.0
OIIE 021900Z 31008KT CAVOK 27/M01 Q1013,OIIE,2023-06-02T19:00:00Z,35.42,51.15,27.0,-1.0,310,8,,6.21,29.911417,,,,,,,,,,,CAVOK,,,,,,,,VFR,,,,,,,,,,,,METAR,993.0
OIHH 021900Z 31012KT CAVOK 18/04 Q1021 A3017,OIHH,2023-06-02T19:00:00Z,34.87,48.55,18.0,4.0,310,12,,6.21,30.147638,,,,,,,,,,,CAVOK,,,,,,,,VFR,,,,,,,,,,,,METAR,1742.0
OIFS 021900Z 29008KT CAVOK 19/M06 Q1023,OIFS,2023-06-02T19:00:00Z,32.28,50.85,19.0,-6.0,290,8,,6.21,30.206694,,,,,,,,,,,CAVOK,,,,,,,,VFR,,,,,,,,,,,,METAR,2042.0
OICS 021900Z 32006KT 9999 FEW040 21/03 Q1021 A3015,OICS,2023-06-02T19:00:00Z,35.25,47.02,21.0,3.0,320,6,,6.21,30.147638,,,,,,,,,,,FEW,4000,,,,,,,VFR,,,,,,,,,,,,METAR,1369.0
OICK 021900Z 00000KT CAVOK 24/05 Q1017 A3005,OICK,2023-06-02T19:00:00Z,33.43,48.28,24.0,5.0,0,0,,6.21,30.029528,,,,,,,,,,,CAVOK,,,,,,,,VFR,,,,,,,,,,,,METAR,1156.0
OICI 021900Z 31008KT CAVOK 22/05 Q1021 A3018,OICI,2023-06-02T19:00:00Z,33.58,46.4,22.0,5.0,310,8,,6.21,30.147638,,,,,,,,,,,CAVOK,,,,,,,,VFR,,,,,,,,,,,,METAR,1323.0
OICC 021900Z 30010KT CAVOK 21/06 Q1020 A3014,OICC,2023-06-02T19:00:00Z,34.35,47.17,21.0,6.0,300,10,,6.21,30.11811,,,,,,,,,,,CAVOK,,,,,,,,VFR,,,,,,,,,,,,METAR,1310.0
OIBP 021900Z 00000KT CAVOK 27/22 Q1001 A2959,OIBP,2023-06-02T19:00:00Z,27.38,52.73,27.0,22.0,0,0,,6.21,29.557087,,,,,,,,,,,CAVOK,,,,,,,,VFR,,,,,,,,,,,,METAR,13.0
OIBK 021900Z 15004KT 5000 HZ NSC 29/24 Q1004,OIBK,2023-06-02T19:00:00Z,26.53,53.98,29.0,24.0,150,4,,3.11,29.64567,,,,,,,,,,HZ,CLR,,,,,,,,MVFR,,,,,,,,,,,,METAR,27.0
OIBJ 021900Z AUTO VRB02KT //// // ////// 31/08 Q1009,OIBJ,2023-06-02T19:00:00Z,27.82,52.35,31.0,8.0,0,2,,,29.793306,,,TRUE,,,,,,,,,,,,,,,,,,,,,,,,,,,,METAR,647.0
OIAM 021900Z 31010KT CAVOK 32/14 Q1004,OIAM,2023-06-02T19:00:00Z,30.55,49.15,32.0,14.0,310,10,,6.21,29.64567,,,,,,,,,,,CAVOK,,,,,,,,VFR,,,,,,,,,,,,METAR,7.0
OIAH 021900Z VRB02KT CAVOK 29/02 Q1010,OIAH,2023-06-02T19:00:00Z,30.33,50.83,29.0,2.0,0,2,,6.21,29.822834,,,,,,,,,,,CAVOK,,,,,,,,VFR,,,,,,,,,,,,METAR,730.0
OIAA 021900Z 31016KT CAVOK 35/08 Q1006,OIAA,2023-06-02T19:00:00Z,30.35,48.22,35.0,8.0,310,16,,6.21,29.704725,,,,,,,,,,,CAVOK,,,,,,,,VFR,,,,,,,,,,,,METAR,4.0
OEYN 021900Z 13010KT CAVOK 33/23 Q1007 NOSIG,OEYN,2023-06-02T19:00:00Z,24.13,38.07,33.0,23.0,130,10,,6.21,29.734253,,,,,,TRUE,,,,,CAVOK,,,,,,,,VFR,,,,,,,,,,,,METAR,20.0
OEWJ 021900Z 18003KT 9999 FEW040 33/13 Q1008 NOSIG,OEWJ,2023-06-02T19:00:00Z,26.18,36.47,33.0,13.0,180,3,,6.21,29.763779,,,,,,TRUE,,,,,FEW,4000,,,,,,,VFR,,,,,,,,,,,,METAR,8.0
OEWD 021900Z 36008KT 9999 FEW040 SCT080 33/12 Q1013,OEWD,2023-06-02T19:00:00Z,20.5,45.2,33.0,12.0,360,8,,6.21,29.911417,,,,,,,,,,,FEW,4000,SCT,8000,,,,,VFR,,,,,,,,,,,,METAR,629.0
OETR 021900Z 33019KT 8000 NSC 30/05 Q1016 NOSIG,OETR,2023-06-02T19:00:00Z,31.7,38.73,30.0,5.0,330,19,,4.97,30.0,,,,,,TRUE,,,,,CLR,,,,,,,,MVFR,,,,,,,,,,,,METAR,854.0
OETF 021900Z 19003KT 9999 SCT030 24/11 Q1023 NOSIG,OETF,2023-06-02T19:00:00Z,21.47,40.53,24.0,11.0,190,3,,6.21,30.206694,,,,,,TRUE,,,,,SCT,3000,,,,,,,VFR,,,,,,,,,,,,METAR,1460.0
OETB 021900Z 13005KT 9999 FEW035CB BKN040 34/03 Q1014 NOSIG,OETB,2023-06-02T19:00:00Z,28.37,36.62,34.0,3.0,130,5,,6.21,29.940945,,,,,,TRUE,,,,,FEW,3500,BKN,4000,,,,,VFR,,,,,,,,,,,,METAR,770.0
OESH 021900Z 03005KT 9999 FEW040 34/09 Q1013 NOSIG,OESH,2023-06-02T19:00:00Z,17.47,47.12,34.0,9.0,30,5,,6.21,29.911417,,,,,,TRUE,,,,,FEW,4000,,,,,,,VFR,,,,,,,,,,,,METAR,720.0
OERR 021900Z 14006KT CAVOK 31/03 Q1013 NOSIG,OERR,2023-06-02T19:00:00Z,30.9,41.13,31.0,3.0,140,6,,6.21,29.911417,,,,,,TRUE,,,,,CAVOK,,,,,,,,VFR,,,,,,,,,,,,METAR,554.0
OERK 021900Z 35005KT CAVOK 33/M06 Q1014 NOSIG,OERK,2023-06-02T19:00:00Z,24.95,46.72,33.0,-6.0,350,5,,6.21,29.940945,,,,,,TRUE,,,,,CAVOK,,,,,,,,VFR,,,,,,,,,,,,METAR,618.0
OERF 021900Z 07009KT CAVOK 33/00 Q1014 NOSIG,OERF,2023-06-02T19:00:00Z,29.62,43.48,33.0,0.0,70,9,,6.21,29.940945,,,,,,TRUE,,,,,CAVOK,,,,,,,,VFR,,,,,,,,,,,,METAR,441.0
OEPA 021900Z 33004KT CAVOK 32/06 Q1012 NOSIG,OEPA,2023-06-02T19:00:00Z,28.33,46.12,32.0,6.0,330,4,,6.21,29.88189,,,,,,TRUE,,,,,CAVOK,,,,,,,,VFR,,,,,,,,,,,,METAR,361.0
OENG 021900Z 06004KT 9999 SCT030 30/12 Q1018 NOSIG,OENG,2023-06-02T19:00:00Z,17.62,44.42,30.0,12.0,60,4,,6.21,30.059055,,,,,,TRUE,,,,,SCT,3000,,,,,,,VFR,,,,,,,,,,,,METAR,1210.0
OEMN 021900Z 00000KT 9999 FEW040 34/15 Q1012,OEMN,2023-06-02T19:00:00Z,,,34.0,15.0,0,0,,6.21,29.88189,,,,,,,,,,,FEW,4000,,,,,,,VFR,,,,,,,,,,,,METAR,
OEMA 021900Z 08015KT 9999 FEW030CB BKN035 31/12 Q1018 NOSIG,OEMA,2023-06-02T19:00:00Z,24.55,39.7,31.0,12.0,80,15,,6.21,30.059055,,,,,,TRUE,,,,,FEW,3000,BKN,3500,,,,,VFR,,,,,,,,,,,,METAR,639.0
OEKM 021900Z 21004KT 9999 TS BKN022 FEW025CB 18/12 Q1027 RERA NOSIG,OEKM,2023-06-02T19:00:00Z,18.3,42.78,18.0,12.0,210,4,,6.21,30.324802,,,,,,TRUE,,,,TS,BKN,2200,FEW,2500,,,,,MVFR,,,,,,,,,,,,METAR,2038.0
OEKJ 021900Z 02006KT CAVOK 34/03 Q1014,OEKJ,2023-06-02T19:00:00Z,24.07,47.58,34.0,3.0,20,6,,6.21,29.940945,,,,,,,,,,,CAVOK,,,,,,,,VFR,,,,,,,,,,,,METAR,487.0
OEJN 021900Z 29004KT CAVOK 37/16 Q1007 NOSIG,OEJN,2023-06-02T19:00:00Z,21.68,39.15,37.0,16.0,290,4,,6.21,29.734253,,,,,,TRUE,,,,,CAVOK,,,,,,,,VFR,,,,,,,,,,,,METAR,8.0
OEHL 021900Z 31010KT 9999 BKN040 27/16 Q1020,OEHL,2023-06-02T19:00:00Z,27.43,41.68,27.0,16.0,310,10,,6.21,30.11811,,,,,,,,,,,BKN,4000,,,,,,,VFR,,,,,,,,,,,,METAR,1002.0
OEGT 021900Z 18006KT 8000 SCT040 29/15 Q1012 NOSIG,OEGT,2023-06-02T19:00:00Z,31.42,37.27,29.0,15.0,180,6,,4.97,29.88189,,,,,,TRUE,,,,,SCT,4000,,,,,,,MVFR,,,,,,,,,,,,METAR,512.0
OEGS 021900Z 06005KT CAVOK 32/04 Q1015,OEGS,2023-06-02T19:00:00Z,26.3,43.77,32.0,4.0,60,5,,6.21,29.970472,,,,,,,,,,,CAVOK,,,,,,,,VFR,,,,,,,,,,,,METAR,647.0
OEGN 021900Z 36010KT 9999 FEW030 33/17 Q1010 NOSIG,OEGN,2023-06-02T19:00:00Z,16.9,42.58,33.0,17.0,360,10,,6.21,29.822834,,,,,,TRUE,,,,,FEW,3000,,,,,,,VFR,,,,,,,,,,,,METAR,5.0
OEDR 021900Z 25005KT CAVOK 31/03 Q1005,OEDR,2023-06-02T19:00:00Z,26.27,50.17,31.0,3.0,250,5,,6.21,29.675198,,,,,,,,,,,CAVOK,,,,,,,,VFR,,,,,,,,,,,,METAR,17.0
OEDM 021900Z 05012KT CAVOK 32/05 Q1016,OEDM,2023-06-02T19:00:00Z,24.45,44.12,32.0,5.0,50,12,,6.21,30.0,,,,,,,,,,,CAVOK,,,,,,,,VFR,,,,,,,,,,,,METAR,922.0
OEDF 021900Z 30005KT CAVOK 31/04 Q1006 NOSIG,OEDF,2023-06-02T19:00:00Z,26.43,49.82,31.0,4.0,300,5,,6.21,29.704725,,,,,,TRUE,,,,,CAVOK,,,,,,,,VFR,,,,,,,,,,,,METAR,15.0
OEBH 021900Z 10009KT 9999 FEW030 SCT100 29/17 Q1017 NOSIG,OEBH,2023-06-02T19:00:00Z,19.98,42.62,29.0,17.0,100,9,,6.21,30.029528,,,,,,TRUE,,,,,FEW,3000,SCT,10000,,,,,VFR,,,,,,,,,,,,METAR,1167.0
OEBA 021900Z 26018KT 9999 TS FEW025CB SCT030 19/14 Q1023 RERA NOSIG,OEBA,2023-06-02T19:00:00Z,20.3,41.63,19.0,14.0,260,18,,6.21,30.206694,,,,,,TRUE,,,,TS,FEW,2500,SCT,3000,,,,,VFR,,,,,,,,,,,,METAR,1659.0
OEAO 021900Z 05010KT 9999 BKN040 33/07 Q1015 NOSIG,OEAO,2023-06-02T19:00:00Z,26.48,38.12,33.0,7.0,50,10,,6.21,29.970472,,,,,,TRUE,,,,,BKN,4000,,,,,,,VFR,,,,,,,,,,,,METAR,615.0
OEAH 021900Z 33004KT CAVOK 32/04 Q1008 NOSIG,OEAH,2023-06-02T19:00:00Z,25.28,49.48,32.0,4.0,330,4,,6.21,29.763779,,,,,,TRUE,,,,,CAVOK,,,,,,,,VFR,,,,,,,,,,,,METAR,180.0
OEAB 021900Z 15012KT 9999 TS BKN020 FEW025CB 18/10 Q1027 NOSIG,OEAB,2023-06-02T19:00:00Z,18.23,42.65,18.0,10.0,150,12,,6.21,30.324802,,,,,,TRUE,,,,TS,BKN,2000,FEW,2500,,,,,MVFR,,,,,,,,,,,,METAR,2092.0
NVVV 021900Z 12013KT 9999 SCT018 BKN040 24/23 Q1015 RESHRA,NVVV,2023-06-02T19:00:00Z,-17.68,168.3,24.0,23.0,120,13,,6.21,29.970472,,,,,,,,,,,SCT,1800,BKN,4000,,,,,VFR,,,,,,,,,,,,METAR,23.0
NVSS 021900Z 15005KT 9999 SCT018 BKN040 26/24 Q1013,NVSS,2023-06-02T19:00:00Z,-15.52,167.22,26.0,24.0,150,5,,6.21,29.911417,,,,,,,,,,,SCT,1800,BKN,4000,,,,,VFR,,,,,,,,,,,,METAR,47.0
NSFA 021900Z 00000KT 9999 FEW024 BKN280 26/25 Q1013,NSFA,2023-06-02T19:00:00Z,-13.83,-172.0,26.0,25.0,0,0,,6.21,29.911417,,,,,,,,,,,FEW,2400,BKN,28000,,,,,VFR,,,,,,,,,,,,METAR,6.0
NIUE 021900Z AUTO 17002KT NCD 23/23 Q1014,NIUE,2023-06-02T19:00:00Z,-19.07,-169.92,23.0,23.0,170,2,,,29.940945,,,TRUE,,,,,,,,CLR,,,,,,,,,,,,,,,,,,,,METAR,22.0
NGTA 021900Z 09010KT 9999 SCT019 29/25 Q1010,NGTA,2023-06-02T19:00:00Z,1.37,173.13,29.0,25.0,90,10,,6.21,29.822834,,,,,,,,,,,SCT,1900,,,,,,,VFR,,,,,,,,,,,,METAR,8.0
NFTV 021900Z 13004KT 9999 FEW016 BKN035 24/21 Q1015,NFTV,2023-06-02T19:00:00Z,-18.58,-173.97,24.0,21.0,130,4,,6.21,29.970472,,,,,,,,,,,FEW,1600,BKN,3500,,,,,VFR,,,,,,,,,,,,METAR,71.0
NFTL 021900Z 13003KT 9999 FEW016 BKN040 24/17 Q1016,NFTL,2023-06-02T19:00:00Z,-19.78,-174.33,24.0,17.0,130,3,,6.21,30.0,,,,,,,,,,,FEW,1600,BKN,4000,,,,,VFR,,,,,,,,,,,,METAR,10.0
NFTF 021900Z 12007KT 9999 FEW016 SCT035 BKN130 22/17 Q1018,NFTF,2023-06-02T19:00:00Z,-21.23,-175.15,22.0,17.0,120,7,,6.21,30.059055,,,,,,,,,,,FEW,1600,SCT,3500,BKN,13000,,,VFR,,,,,,,,,,,,METAR,38.0
NFNA 021900Z VRB02KT 8000 -SHRA SCT016 BKN044 BKN100 24/24 Q1015,NFNA,2023-06-02T19:00:00Z,-18.05,178.57,24.0,24.0,0,2,,4.97,29.970472,,,,,,,,,,-SHRA,SCT,1600,BKN,4400,BKN,10000,,,MVFR,,,,,,,,,,,,METAR,6.0
MZBZ 021900Z 08008KT 9999 SCT028 34/27 A2970 Q1006 NOSIG RMK HZ,MZBZ,2023-06-02T19:00:00Z,17.53,-88.3,34.0,27.0,80,8,,6.21,29.704725,,,,,,TRUE,,,,,SCT,2800,,,,,,,VFR,,,,,,,,,,,,SPECI,6.0
MYNN 021900Z 12006KT 9999 SCT015CB BKN020 BKN080 24/22 A2978,MYNN,2023-06-02T19:00:00Z,25.03,-77.47,24.0,22.0,120,6,,6.21,29.778543,,,,,,,,,,,SCT,1500,BKN,2000,BKN,8000,,,MVFR,,,,,,,,,,,,METAR,5.0
MYGF 021900Z 22005KT 9999 TS VCSH FEW015CB BKN250 26/23 A2973 RESHRA,MYGF,2023-06-02T19:00:00Z,26.55,-78.7,26.0,23.0,220,5,,6.21,29.731298,,,,,,,,,,TS VCSH,FEW,1500,BKN,25000,,,,,VFR,,,,,,,,,,,,METAR,2.0
MYAF 021900Z AUTO 01008KT 330V060 //// // NSC 28/22 A2976,MYAF,2023-06-02T19:00:00Z,24.68,-77.78,28.0,22.0,10,8,,,29.760826,,,TRUE,,,,,,,,CLR,,,,,,,,,,,,,,,,,,,,METAR,2.0
MTPP 021900Z 11013KT 9000 FEW010 SCT026 BKN060 30/25 Q1008 A2977,MTPP,2023-06-02T19:00:00Z,18.57,-72.3,30.0,25.0,110,13,,5.59,29.763779,,,,,,,,,,,FEW,1000,SCT,2600,BKN,6000,,,VFR,,,,,,,,,,,,METAR,36.0
MRLM 021900Z 01008KT CAVOK 31/25 A2976,MRLM,2023-06-02T19:00:00Z,9.97,-83.03,31.0,25.0,10,8,,6.21,29.760826,,,,,,,,,,,CAVOK,,,,,,,,VFR,,,,,,,,,,,,METAR,2.0
MRLB 021900Z 16007KT 9999 SCT020 SCT100 29/25 A2978,MRLB,2023-06-02T19:00:00Z,10.6,-85.55,29.0,25.0,160,7,,6.21,29.778543,,,,,,,,,,,SCT,2000,SCT,10000,,,,,VFR,,,,,,,,,,,,METAR,79.0
MPTO 021900Z 14010KT 9999 SCT017TCU SCT090 30/24 Q1010 NOSIG0 ,MPTO,2023-06-02T19:00:00Z,9.05,-79.38,30.0,24.0,140,10,,6.21,29.822834,,,,,,,,,,,SCT,1700,SCT,9000,,,,,VFR,,,,,,,,,,,,METAR,7.0
MPSM 021900Z 19006KT 9999 FEW020 BKN080 31/25 Q1008,MPSM,2023-06-02T19:00:00Z,8.38,-80.13,31.0,25.0,190,6,,6.21,29.763779,,,,,,,,,,,FEW,2000,BKN,8000,,,,,VFR,,,,,,,,,,,,METAR,36.0
MPPA 021900Z 16003KT 9999 SCT015 SCT080 30/26 Q1008,MPPA,2023-06-02T19:00:00Z,8.92,-79.6,30.0,26.0,160,3,,6.21,29.763779,,,,,,,,,,,SCT,1500,SCT,8000,,,,,VFR,,,,,,,,,,,,METAR,1.0
MPMG 021900Z 16009KT 9999 SCT017TCU SCT080 30/25 Q1008 NOSIG,MPMG,2023-06-02T19:00:00Z,8.98,-79.57,30.0,25.0,160,9,,6.21,29.763779,,,,,,TRUE,,,,,SCT,1700,SCT,8000,,,,,VFR,,,,,,,,,,,,METAR,6.0
MPDA 021900Z 18006KT 9999 TS SCT016CB BKN100 30/25 Q1008,MPDA,2023-06-02T19:00:00Z,8.4,-82.43,30.0,25.0,180,6,,6.21,29.763779,,,,,,,,,,TS,SCT,1600,BKN,10000,,,,,VFR,,,,,,,,,,,,METAR,15.0
MPBO 021900Z 05008KT 9999 SCT020 SCT090 31/29 Q1007,MPBO,2023-06-02T19:00:00Z,9.35,-82.25,31.0,29.0,50,8,,6.21,29.734253,,,,,,,,,,,SCT,2000,SCT,9000,,,,,VFR,,,,,,,,,,,,METAR,2.0
MNRS 021900Z 22006KT 9999 FEW013CB BKN014 31/26 Q1008 CB/N/NE/E/SE/S/SW,MNRS,2023-06-02T19:00:00Z,11.42,-85.82,31.0,26.0,220,6,,6.21,29.763779,,,,,,,,,,,FEW,1300,BKN,1400,,,,,MVFR,,,,,,,,,,,,METAR,53.0
MNPC 021900Z 16006KT 7000 SCT016 SCT300 33/26 Q1006 HZ,MNPC,2023-06-02T19:00:00Z,14.05,-83.38,33.0,26.0,160,6,,4.35,29.704725,,,,,,,,,,HZ,SCT,1600,SCT,30000,,,,,MVFR,,,,,,,,,,,,METAR,10.0
MNMG 021900Z 33008KT 9999 SCT023TCU 33/25 Q1007 A2974 TCU SE,MNMG,2023-06-02T19:00:00Z,12.15,-86.17,33.0,25.0,330,8,,6.21,29.734253,,,,,,,,,,,SCT,2300,,,,,,,VFR,,,,,,,,,,,,METAR,59.0
MNJU 021900Z 24006KT 9999 SCT020 34/23 Q1007,MNJU,2023-06-02T19:00:00Z,12.08,-85.37,34.0,23.0,240,6,,6.21,29.734253,,,,,,,,,,,SCT,2000,,,,,,,VFR,,,,,,,,,,,,METAR,85.0
MNJG 021900Z 00000KT 9999 SCT016 30/18 Q1008,MNJG,2023-06-02T19:00:00Z,13.13,-86.02,30.0,18.0,0,0,,6.21,29.763779,,,,,,,,,,,SCT,1600,,,,,,,VFR,,,,,,,,,,,,METAR,981.0
MNCH 021900Z 01004KT 9999 FEW025 35/24 Q1008,MNCH,2023-06-02T19:00:00Z,12.63,-87.13,35.0,24.0,10,4,,6.21,29.763779,,,,,,,,,,,FEW,2500,,,,,,,VFR,,,,,,,,,,,,METAR,70.0
MNBL 021900Z 25004KT 9999 SCT018 SCT090 36/26 Q1006,MNBL,2023-06-02T19:00:00Z,12.0,-83.77,36.0,26.0,250,4,,6.21,29.704725,,,,,,,,,,,SCT,1800,SCT,9000,,,,,VFR,,,,,,,,,,,,METAR,10.0
MKJS 021900Z 18010KT 9999 FEW022 BKN038 28/23 Q1007,MKJS,2023-06-02T19:00:00Z,18.5,-77.92,28.0,23.0,180,10,,6.21,29.734253,,,,,,,,,,,FEW,2200,BKN,3800,,,,,VFR,,,,,,,,,,,,METAR,3.0
MKJP 021900Z 31005KT 9999 -RA VCSH FEW020 FEW022CB OVC100 27/24 Q1008,MKJP,2023-06-02T19:00:00Z,17.93,-76.78,27.0,24.0,310,5,,6.21,29.763779,,,,,,,,,,-RA VCSH,FEW,2000,FEW,2200,OVC,10000,,,VFR,,,,,,,,,,,,METAR,3.0
MHCA 021900Z VRB02KT 9999 FEW028 34/23 Q1009,MHCA,2023-06-02T19:00:00Z,14.87,-85.78,34.0,23.0,0,2,,6.21,29.793306,,,,,,,,,,,FEW,2800,,,,,,,VFR,,,,,,,,,,,,METAR,386.0
MGZA 021900Z 01004KT 9999 FEW022 36/21 QFE 981/6,MGZA,2023-06-02T19:00:00Z,14.97,-89.53,36.0,21.0,10,4,,6.21,,,,,,,,,,,,FEW,2200,,,,,,,VFR,,,,,,,,,,,,METAR,195.0
MGTU 021900Z 27004KT 8000 SCT018 34/22 HZ,MGTU,2023-06-02T19:00:00Z,,,34.0,22.0,270,4,,4.97,,,,,,,,,,,HZ,SCT,1800,,,,,,,MVFR,,,,,,,,,,,,METAR,
MGRT 021900Z 24008KT 9999 SCT020TCU FEW025CB 33/24 Q1011 A2985 CB S/SW/W TCU N/NE/E/SE VOL STA MARIA Y SANTIAGUITO EN ACTIVIDAD,MGRT,2023-06-02T19:00:00Z,14.53,-91.7,33.0,24.0,240,8,,6.21,29.852362,,,,,,,,,,SA,SCT,2000,FEW,2500,,,,,VFR,,,,,,,,,,,,METAR,209.0
MGPB 021900Z 30008KT 6000 FEW020TCU SCT025CB SCT200 36/27 Q1005 A2968 HZ CB/PCPN SE/SSE CB S/SSW/SW TCU WSW,MGPB,2023-06-02T19:00:00Z,15.73,-88.58,36.0,27.0,300,8,,3.73,29.675198,,,,,,,,,,HZ,FEW,2000,SCT,2500,SCT,20000,,,MVFR,,,,,,,,,,,,SPECI,6.0
MGMT 021900Z 18004KT CAVOK 33/27,MGMT,2023-06-02T19:00:00Z,,,33.0,27.0,180,4,,6.21,,,,,,,,,,,,CAVOK,,,,,,,,VFR,,,,,,,,,,,,METAR,
MGHT 021900Z 20010KT 9999 SCT025 28/13,MGHT,2023-06-02T19:00:00Z,15.32,-91.5,28.0,13.0,200,10,,6.21,,,,,,,,,,,,SCT,2500,,,,,,,VFR,,,,,,,,,,,,METAR,1875.0
MGGT 021900Z 22010KT 9999 BKN022TCU 27/18 Q1018 A3006 TCU NE,MGGT,2023-06-02T19:00:00Z,14.58,-90.53,27.0,18.0,220,10,,6.21,30.059055,,,,,,,,,,,BKN,2200,,,,,,,MVFR,,,,,,,,,,,,METAR,1497.0
MGES 021900Z 00000KT 9999 SCT020 32/20 QFE 906.7 FEW200,MGES,2023-06-02T19:00:00Z,14.57,-89.32,32.0,20.0,0,0,,6.21,,,,,,,,,,,,SCT,2000,FEW,20000,,,,,VFR,,,,,,,,,,,,METAR,948.0
MGCB 021900Z 02004KT 9999 FEW018 30/19 QFE 868.2,MGCB,2023-06-02T19:00:00Z,15.48,-90.42,30.0,19.0,20,4,,6.21,,,,,,,,,,,,FEW,1800,,,,,,,VFR,,,,,,,,,,,,METAR,1323.0
MDST 021900Z 13010G20KT 070V150 9999 FEW026CB FEW028 BKN300 34/24 Q1007 CB/SE/S/SW,MDST,2023-06-02T19:00:00Z,19.4,-70.6,34.0,24.0,130,10,20,6.21,29.734253,,,,,,,,,,,FEW,2600,FEW,2800,BKN,30000,,,VFR,,,,,,,,,,,,SPECI,175.0
MDSD 021900Z 18009KT 9999 FEW018CB SCT020 BKN300 29/27 Q1010 CB/NW,MDSD,2023-06-02T19:00:00Z,18.42,-69.67,29.0,27.0,180,9,,6.21,29.822834,,,,,,,,,,,FEW,1800,SCT,2000,BKN,30000,,,VFR,,,,,,,,,,,,METAR,18.0
MDPP 021900Z 14010KT 9999 SCT024 BKN300 34/26 Q1006,MDPP,2023-06-02T19:00:00Z,19.75,-70.57,34.0,26.0,140,10,,6.21,29.704725,,,,,,,,,,,SCT,2400,BKN,30000,,,,,VFR,,,,,,,,,,,,METAR,9.0
MDPC 021900Z 16015KT 9999 SCT020 30/25 Q1010,MDPC,2023-06-02T19:00:00Z,18.57,-68.37,30.0,25.0,160,15,,6.21,29.822834,,,,,,,,,,,SCT,2000,,,,,,,VFR,,,,,,,,,,,,METAR,10.0
MDLR 021900Z 19006KT 9999 SCT020 SCT300 31/26 Q1009,MDLR,2023-06-02T19:00:00Z,18.45,-68.92,31.0,26.0,190,6,,6.21,29.793306,,,,,,,,,,,SCT,2000,SCT,30000,,,,,VFR,,,,,,,,,,,,METAR,66.0
MDJB 021900Z 18015KT 9999 FEW018CB BKN018 30/24 Q1010 CB/W,MDJB,2023-06-02T19:00:00Z,18.57,-69.98,30.0,24.0,180,15,,6.21,29.822834,,,,,,,,,,,FEW,1800,BKN,1800,,,,,MVFR,,,,,,,,,,,,METAR,24.0
MDCY 021900Z 22012KT 9999 SCT022 SCT300 33/25 Q1008,MDCY,2023-06-02T19:00:00Z,19.27,-69.73,33.0,25.0,220,12,,6.21,29.763779,,,,,,,,,,,SCT,2200,SCT,30000,,,,,VFR,,,,,,,,,,,,METAR,4.0
MDBH 021900Z 13010KT 9999 FEW018CB SCT018 SCT080 BKN300 28/27 Q1010 RERA CB/NE/W/NW/N,MDBH,2023-06-02T19:00:00Z,18.25,-71.12,28.0,27.0,130,10,,6.21,29.822834,,,,,,,,,,,FEW,1800,SCT,1800,SCT,8000,BKN,30000,VFR,,,,,,,,,,,,METAR,7.0
MDAB 021900Z 09006KT 9999 FEW020CB BKN020 30/25 Q1010 CB/SW,MDAB,2023-06-02T19:00:00Z,19.2,-69.43,30.0,25.0,90,6,,6.21,29.822834,,,,,,,,,,,FEW,2000,BKN,2000,,,,,MVFR,,,,,,,,,,,,METAR,28.0
LWOH 021900Z 11004KT 9999 VCTS SCT033CB SCT040 18/11 Q1014,LWOH,2023-06-02T19:00:00Z,41.18,20.75,18.0,11.0,110,4,,6.21,29.940945,,,,,,,,,,VCTS,SCT,3300,SCT,4000,,,,,VFR,,,,,,,,,,,,METAR,700.0
LPOV 021900Z 34008KT 310V010 9999 SCT030 19/18 Q1012,LPOV,2023-06-02T19:00:00Z,40.92,-8.65,19.0,18.0,340,8,,6.21,29.88189,,,,,,,,,,,SCT,3000,,,,,,,VFR,,,,,,,,,,,,METAR,16.0
LPMT 021900Z 35010KT 9999 FEW045 SCT048CB 23/14 Q1010,LPMT,2023-06-02T19:00:00Z,38.7,-9.05,23.0,14.0,350,10,,6.21,29.822834,,,,,,,,,,,FEW,4500,SCT,4800,,,,,VFR,,,,,,,,,,,,METAR,4.0
LPMR 021900Z 33008KT 9999 FEW023 19/14 Q1012,LPMR,2023-06-02T19:00:00Z,39.82,-8.88,19.0,14.0,330,8,,6.21,29.88189,,,,,,,,,,,FEW,2300,,,,,,,VFR,,,,,,,,,,,,METAR,50.0
LPLA 021900Z /////KT 9999 FEW015 BKN035 19/17 Q1012,LPLA,2023-06-02T19:00:00Z,38.77,-27.1,19.0,17.0,,,,6.21,29.88189,,,,,,,,,,,FEW,1500,BKN,3500,,,,,VFR,,,,,,,,,,,,METAR,60.0
LPBJ 021900Z 08003KT 050V110 CAVOK 21/13 Q1011,LPBJ,2023-06-02T19:00:00Z,38.08,-7.93,21.0,13.0,80,3,,6.21,29.852362,,,,,,,,,,,CAVOK,,,,,,,,VFR,,,,,,,,,,,,METAR,196.0
LKVO 021900Z VRB03KT CAVOK 16/06 Q1019,LKVO,2023-06-02T19:00:00Z,50.22,14.4,16.0,6.0,0,3,,6.21,30.088583,,,,,,,,,,,CAVOK,,,,,,,,VFR,,,,,,,,,,,,METAR,275.0
LKLN 021900Z AUTO 04005KT 340V080 9999 // NCD 16/05 Q1019,LKLN,2023-06-02T19:00:00Z,49.68,13.27,16.0,5.0,40,5,,6.21,30.088583,,,TRUE,,,,,,,,CLR,,,,,,,,VFR,,,,,,,,,,,,METAR,353.0
LKKV 021900Z 06007KT 020V090 CAVOK 13/05 Q1019,LKKV,2023-06-02T19:00:00Z,50.2,12.92,13.0,5.0,60,7,,6.21,30.088583,,,,,,,,,,,CAVOK,,,,,,,,VFR,,,,,,,,,,,,METAR,600.0
LKKB 021900Z 35004KT 320V020 CAVOK 15/06 Q1019 NOSIG,LKKB,2023-06-02T19:00:00Z,50.12,14.53,15.0,6.0,350,4,,6.21,30.088583,,,,,,TRUE,,,,,CAVOK,,,,,,,,VFR,,,,,,,,,,,,METAR,281.0
LFHP 021900Z AUTO 26007KT 220V330 9999 -TSRA FEW012/// BKN050/// OVC064/// ///CB 14/12 Q1017,LFHP,2023-06-02T19:00:00Z,45.07,3.77,14.0,12.0,260,7,,6.21,30.029528,,,TRUE,,,,,,,-TSRA,FEW,1200,BKN,5000,OVC,6400,,,VFR,,,,,,,,,,,,METAR,829.0
LFBF 021900Z AUTO VRB01KT CAVOK 21/15 Q1013,LFBF,2023-06-02T19:00:00Z,43.53,1.37,21.0,15.0,0,1,,6.21,29.911417,,,TRUE,,,,,,,,CAVOK,,,,,,,,VFR,,,,,,,,,,,,METAR,159.0
LESU 021900Z 22005KT 190V250 9999 VCSH BKN066CB OVC076 17/10 Q1016,LESU,2023-06-02T19:00:00Z,42.33,1.4,17.0,10.0,220,5,,6.21,30.0,,,,,,,,,,VCSH,BKN,6600,OVC,7600,,,,,VFR,,,,,,,,,,,,METAR,802.0
LEGA 021900Z 19005KT 9999 FEW045 BKN076 18/12 Q1014,LEGA,2023-06-02T19:00:00Z,37.13,-3.62,18.0,12.0,190,5,,6.21,29.940945,,,,,,,,,,,FEW,4500,BKN,7600,,,,,VFR,,,,,,,,,,,,METAR,684.0
LEBZ 021900Z 09006KT 060V120 9999 FEW035 20/15 Q1011,LEBZ,2023-06-02T19:00:00Z,38.87,-6.82,20.0,15.0,90,6,,6.21,29.852362,,,,,,,,,,,FEW,3500,,,,,,,VFR,,,,,,,,,,,,METAR,183.0
KRPX 021900Z AUTO 10SM 16/13 A2987 RMK Roundup ,KRPX,2023-06-02T19:00:00Z,46.47,-108.55,16.0,13.0,,,,10.0,29.870079,,,TRUE,,,,,,,,,,,,,,,,,,,,,,,,,,,,METAR,1062.0
KNEL 021900Z AUTO 13009KT CLR 32/13 A2985 RMK AO2 SLP106 T03170128 $,KNEL,2023-06-02T19:00:00Z,40.03,-74.33,31.7,12.8,130,9,,,29.84941,1010.6,,TRUE,TRUE,TRUE,,,,,,CLR,,,,,,,,,,,,,,,,,,,,SPECI,26.0
KFMY 021900Z +TSRA RMK AO2 LTG DSNT NE AND E PNO $,KFMY,2023-06-02T19:00:00Z,26.58,-81.87,,,,,,,,,,,TRUE,TRUE,,,,,+TSRA,,,,,,,,,,,,,,,,,,,,,SPECI,4.0
HTZA 021900Z 00000KT 9999 SCT014 BKN070 25/23 Q1017,HTZA,2023-06-02T19:00:00Z,-6.22,39.22,25.0,23.0,0,0,,6.21,30.029528,,,,,,,,,,,SCT,1400,BKN,7000,,,,,VFR,,,,,,,,,,,,METAR,19.0
HTTB 021900Z 13010KT CAVOK 22/15 Q1020 NOSIG,HTTB,2023-06-02T19:00:00Z,-5.07,32.82,22.0,15.0,130,10,,6.21,30.11811,,,,,,TRUE,,,,,CAVOK,,,,,,,,VFR,,,,,,,,,,,,METAR,1185.0
HTSU 021900Z 00000KT 9999 FEW019 15/09 Q1025,HTSU,2023-06-02T19:00:00Z,-7.95,31.6,15.0,9.0,0,0,,6.21,30.265747,,,,,,,,,,,FEW,1900,,,,,,,VFR,,,,,,,,,,,,METAR,1820.0
HTSO 021900Z 00000KT 9999 SKC 21/17 Q1022,HTSO,2023-06-02T19:00:00Z,-10.67,35.58,21.0,17.0,0,0,,6.21,30.177166,,,,,,,,,,,SKC,,,,,,,,VFR,,,,,,,,,,,,METAR,1058.0
HTMW 021900Z 00000KT 9999 FEW020 FEW021CB 22/19 Q1017 NOSIG,HTMW,2023-06-02T19:00:00Z,-2.43,32.92,22.0,19.0,0,0,,6.21,30.029528,,,,,,TRUE,,,,,FEW,2000,FEW,2100,,,,,VFR,,,,,,,,,,,,METAR,1144.0
HTMT 021900Z 13010KT 9999 FEW019 24/22 Q1018,HTMT,2023-06-02T19:00:00Z,-10.33,40.18,24.0,22.0,130,10,,6.21,30.059055,,,,,,,,,,,FEW,1900,,,,,,,VFR,,,,,,,,,,,,METAR,114.0
HTMG 021900Z 00000KT 9999 BKN020 21/20 Q1019,HTMG,2023-06-02T19:00:00Z,-6.78,37.65,21.0,20.0,0,0,,6.21,30.088583,,,,,,,,,,,BKN,2000,,,,,,,MVFR,,,,,,,,,,,,METAR,512.0
HTKJ 021900Z 06005KT 9999 BKN024 22/19 Q1021 NOSIG,HTKJ,2023-06-02T19:00:00Z,-3.42,37.07,22.0,19.0,60,5,,6.21,30.147638,,,,,,TRUE,,,,,BKN,2400,,,,,,,MVFR,,,,,,,,,,,,METAR,893.0
HTKA 021900Z 00000KT 9999 FEW019 22/20 Q1016 NOSIG,HTKA,2023-06-02T19:00:00Z,-4.88,29.67,22.0,20.0,0,0,,6.21,30.0,,,,,,TRUE,,,,,FEW,1900,,,,,,,VFR,,,,,,,,,,,,METAR,819.0
HTIR 021900Z 15005KT 9999 FEW020 18/13 Q1023,HTIR,2023-06-02T19:00:00Z,-7.67,35.75,18.0,13.0,150,5,,6.21,30.206694,,,,,,,,,,,FEW,2000,,,,,,,VFR,,,,,,,,,,,,METAR,1432.0
HTIB 021900Z 00000KT 9999 FEW021 24/14 Q1017,HTIB,2023-06-02T19:00:00Z,,,24.0,14.0,0,0,,6.21,30.029528,,,,,,,,,,,FEW,2100,,,,,,,VFR,,,,,,,,,,,,METAR,
HTDO 021900Z 10016KT 9999 FEW023 BKN090 22/16 Q1021 NOSIG,HTDO,2023-06-02T19:00:00Z,-6.17,35.77,22.0,16.0,100,16,,6.21,30.147638,,,,,,TRUE,,,,,FEW,2300,BKN,9000,,,,,VFR,,,,,,,,,,,,METAR,1119.0
HTDA 021900Z 20005KT 9999 FEW012 SCT070 24/23 Q1018 NOSIG,HTDA,2023-06-02T19:00:00Z,-6.88,39.2,24.0,23.0,200,5,,6.21,30.059055,,,,,,TRUE,,,,,FEW,1200,SCT,7000,,,,,VFR,,,,,,,,,,,,METAR,53.0
HTBU 021900Z 00000KT 9999 FEW018 FEW020CB 21/19 Q1017,HTBU,2023-06-02T19:00:00Z,-1.32,31.82,21.0,19.0,0,0,,6.21,30.029528,,,,,,,,,,,FEW,1800,FEW,2000,,,,,VFR,,,,,,,,,,,,METAR,1144.0
HTAR 021900Z 12010KT 9999 FEW026 18/17 Q1024 NOSIG,HTAR,2023-06-02T19:00:00Z,-3.37,36.63,18.0,17.0,120,10,,6.21,30.236221,,,,,,TRUE,,,,,FEW,2600,,,,,,,VFR,,,,,,,,,,,,METAR,1386.0
HKNW 021900Z 00000KT 9999 BKN020 19/13 Q1024,HKNW,2023-06-02T19:00:00Z,-1.32,36.82,19.0,13.0,0,0,,6.21,30.236221,,,,,,,,,,,BKN,2000,,,,,,,MVFR,,,,,,,,,,,,METAR,1666.0
HKNK 021900Z 00000KT 9999 FEW018 18/12,HKNK,2023-06-02T19:00:00Z,-0.3,36.17,18.0,12.0,0,0,,6.21,,,,,,,,,,,,FEW,1800,,,,,,,VFR,,,,,,,,,,,,METAR,1900.0
HKNI 021900Z 12002KT 9999 BKN018 18/13,HKNI,2023-06-02T19:00:00Z,-0.33,36.92,18.0,13.0,120,2,,6.21,,,,,,,,,,,,BKN,1800,,,,,,,MVFR,,,,,,,,,,,,METAR,1769.0
HKMO 021900Z 22005KT 9999 BKN020 BKN080 23/22 Q1016 NOSIG,HKMO,2023-06-02T19:00:00Z,-4.02,39.62,23.0,22.0,220,5,,6.21,30.0,,,,,,TRUE,,,,,BKN,2000,BKN,8000,,,,,MVFR,,,,,,,,,,,,METAR,55.0
HKME 021900Z 19006KT 9999 BKN017 19/14,HKME,2023-06-02T19:00:00Z,0.07,37.65,19.0,14.0,190,6,,6.21,,,,,,,,,,,,BKN,1700,,,,,,,MVFR,,,,,,,,,,,,METAR,1609.0
HKLO 021900Z 09005KT CAVOK 32/16 Q1009,HKLO,2023-06-02T19:00:00Z,3.12,35.62,32.0,16.0,90,5,,6.21,29.793306,,,,,,,,,,,CAVOK,,,,,,,,VFR,,,,,,,,,,,,METAR,503.0
HKKT 021900Z 00000KT 9999 FEW018CB 17/15,HKKT,2023-06-02T19:00:00Z,0.97,34.97,17.0,15.0,0,0,,6.21,,,,,,,,,,,,FEW,1800,,,,,,,VFR,,,,,,,,,,,,METAR,1829.0
HKKI 021900Z 05004KT 9999 FEW020CB BKN080 21/17 Q1018 RETS,HKKI,2023-06-02T19:00:00Z,-0.1,34.75,21.0,17.0,50,4,,6.21,30.059055,,,,,,,,,,,FEW,2000,BKN,8000,,,,,VFR,,,,,,,,,,,,METAR,1152.0
HKGO 021900Z AUTO 06004KT 13/11 Q1029 A30.40,HKGO,2023-06-02T19:00:00Z,,,13.0,11.0,60,4,,,30.383858,,,TRUE,,,,,,,,,,,,,,,,,,,,,,,,,,,,METAR,
HKEM 021900Z 09003KT 9999 FEW020 BKN090 20/13,HKEM,2023-06-02T19:00:00Z,-0.57,37.48,20.0,13.0,90,3,,6.21,,,,,,,,,,,,FEW,2000,BKN,9000,,,,,VFR,,,,,,,,,,,,METAR,1265.0
HKEL 021900Z 19003KT 9999 FEW015CB BKN080 15/11 Q1026,HKEL,2023-06-02T19:00:00Z,0.4,35.23,15.0,11.0,190,3,,6.21,30.295275,,,,,,,,,,,FEW,1500,BKN,8000,,,,,VFR,,,,,,,,,,,,METAR,2116.0
HETR 021900Z 08008KT CAVOK 35/14 Q1008,HETR,2023-06-02T19:00:00Z,28.22,33.65,35.0,14.0,80,8,,6.21,29.763779,,,,,,,,,,,CAVOK,,,,,,,,VFR,,,,,,,,,,,,METAR,35.0
HESW 021900Z 01017KT 9999 FEW025 24/16 Q1013,HESW,2023-06-02T19:00:00Z,29.35,25.5,24.0,16.0,10,17,,6.21,29.911417,,,,,,,,,,,FEW,2500,,,,,,,VFR,,,,,,,,,,,,METAR,101.0
HESN 021900Z 31006KT CAVOK 38/05 Q1008 NOSIG,HESN,2023-06-02T19:00:00Z,23.97,32.82,38.0,5.0,310,6,,6.21,29.763779,,,,,,TRUE,,,,,CAVOK,,,,,,,,VFR,,,,,,,,,,,,METAR,197.0
HESH 021900Z 14004KT CAVOK 35/09 Q1008 NOSIG,HESH,2023-06-02T19:00:00Z,27.97,34.38,35.0,9.0,140,4,,6.21,29.763779,,,,,,TRUE,,,,,CAVOK,,,,,,,,VFR,,,,,,,,,,,,METAR,50.0
HESG 021900Z 30006KT CAVOK 36/01 Q1007 NOSIG,HESG,2023-06-02T19:00:00Z,26.33,31.75,36.0,1.0,300,6,,6.21,29.734253,,,,,,TRUE,,,,,CAVOK,,,,,,,,VFR,,,,,,,,,,,,METAR,70.0
HEPS 021900Z 35008KT CAVOK 25/21 Q1008 NOSIG,HEPS,2023-06-02T19:00:00Z,31.28,32.25,25.0,21.0,350,8,,6.21,29.763779,,,,,,TRUE,,,,,CAVOK,,,,,,,,VFR,,,,,,,,,,,,METAR,2.0
HEMM 021900Z 29014KT CAVOK 21/17 Q1012 NOSIG,HEMM,2023-06-02T19:00:00Z,31.32,27.22,21.0,17.0,290,14,,6.21,29.88189,,,,,,TRUE,,,,,CAVOK,,,,,,,,VFR,,,,,,,,,,,,METAR,26.0
HEMA 021900Z 16005KT CAVOK 31/17 Q1009 NOSIG,HEMA,2023-06-02T19:00:00Z,25.55,34.58,31.0,17.0,160,5,,6.21,29.793306,,,,,,TRUE,,,,,CAVOK,,,,,,,,VFR,,,,,,,,,,,,METAR,77.0
HELX 021900Z 19002KT CAVOK 35/10 Q1008 NOSIG,HELX,2023-06-02T19:00:00Z,25.67,32.7,35.0,10.0,190,2,,6.21,29.763779,,,,,,TRUE,,,,,CAVOK,,,,,,,,VFR,,,,,,,,,,,,METAR,86.0
HEGN 021900Z 06005KT 6000 NSC 32/17 Q1008 NOSIG,HEGN,2023-06-02T19:00:00Z,27.18,33.8,32.0,17.0,60,5,,3.73,29.763779,,,,,,TRUE,,,,,CLR,,,,,,,,MVFR,,,,,,,,,,,,METAR,14.0
HEBL 021900Z 02003KT CAVOK 35/15 Q1007 NOSIG,HEBL,2023-06-02T19:00:00Z,22.38,31.62,35.0,15.0,20,3,,6.21,29.734253,,,,,,TRUE,,,,,CAVOK,,,,,,,,VFR,,,,,,,,,,,,METAR,184.0
HEBA 021900Z 29017KT CAVOK 22/19 Q1010 NOSIG,HEBA,2023-06-02T19:00:00Z,30.92,29.7,22.0,19.0,290,17,,6.21,29.822834,,,,,,TRUE,,,,,CAVOK,,,,,,,,VFR,,,,,,,,,,,,METAR,41.0
HEAT 021900Z 34007KT CAVOK 37/06 Q1011 NOSIG,HEAT,2023-06-02T19:00:00Z,27.05,31.02,37.0,6.0,340,7,,6.21,29.852362,,,,,,TRUE,,,,,CAVOK,,,,,,,,VFR,,,,,,,,,,,,METAR,229.0
GVBA 021900Z 04013KT 9999 BKN014 25/19 Q1014 NOSIG,GVBA,2023-06-02T19:00:00Z,16.13,-22.88,25.0,19.0,40,13,,6.21,29.940945,,,,,,TRUE,,,,,BKN,1400,,,,,,,MVFR,,,,,,,,,,,,METAR,23.0
GUCY 021900Z 23008KT 9999 BKN015 BKN110 29/26 Q1011 NOSIG,GUCY,2023-06-02T19:00:00Z,9.57,-13.62,29.0,26.0,230,8,,6.21,29.852362,,,,,,TRUE,,,,,BKN,1500,BKN,11000,,,,,MVFR,,,,,,,,,,,,METAR,10.0
GQPP 021900Z 35014KT 320V020 6000 NSC 22/19 Q1013 NOSIG,GQPP,2023-06-02T19:00:00Z,20.92,-17.02,22.0,19.0,350,14,,3.73,29.911417,,,,,,TRUE,,,,,CLR,,,,,,,,MVFR,,,,,,,,,,,,METAR,5.0
GOTT 021900Z 24006KT CAVOK 38/16 Q1008,GOTT,2023-06-02T19:00:00Z,13.73,-13.65,38.0,16.0,240,6,,6.21,29.763779,,,,,,,,,,,CAVOK,,,,,,,,VFR,,,,,,,,,,,,METAR,53.0
GOTK 021900Z 26004KT CAVOK 35/20 Q1008,GOTK,2023-06-02T19:00:00Z,12.57,-12.22,35.0,20.0,260,4,,6.21,29.763779,,,,,,,,,,,CAVOK,,,,,,,,VFR,,,,,,,,,,,,METAR,165.0
GOSS 021900Z 34010KT 280V020 CAVOK 26/21 Q1011,GOSS,2023-06-02T19:00:00Z,16.05,-16.45,26.0,21.0,340,10,,6.21,29.852362,,,,,,,,,,,CAVOK,,,,,,,,VFR,,,,,,,,,,,,METAR,3.0
GOSP 021900Z 04002KT CAVOK 39/15 Q1009,GOSP,2023-06-02T19:00:00Z,16.68,-14.97,39.0,15.0,40,2,,6.21,29.793306,,,,,,,,,,,CAVOK,,,,,,,,VFR,,,,,,,,,,,,METAR,10.0
GOSM 021900Z 32002KT CAVOK 41/11 Q1007,GOSM,2023-06-02T19:00:00Z,15.6,-13.33,41.0,11.0,320,2,,6.21,29.734253,,,,,,,,,,,CAVOK,,,,,,,,VFR,,,,,,,,,,,,METAR,28.0
GOOD 021900Z 36012KT CAVOK 34/19 Q1010,GOOD,2023-06-02T19:00:00Z,14.65,-16.22,34.0,19.0,360,12,,6.21,29.822834,,,,,,,,,,,CAVOK,,,,,,,,VFR,,,,,,,,,,,,METAR,9.0
GOGG 021900Z 32006KT CAVOK 29/22 Q1011,GOGG,2023-06-02T19:00:00Z,12.55,-16.27,29.0,22.0,320,6,,6.21,29.852362,,,,,,,,,,,CAVOK,,,,,,,,VFR,,,,,,,,,,,,METAR,24.0
GMTN 021900Z 04006KT 9999 SCT012 21/19 Q1011 NOSIG,GMTN,2023-06-02T19:00:00Z,35.58,-5.32,21.0,19.0,40,6,,6.21,29.852362,,,,,,TRUE,,,,,SCT,1200,,,,,,,VFR,,,,,,,,,,,,METAR,10.0
GMTA 021900Z 03003KT 340V060 8000 FEW015 FEW030CB SCT040 21/16 Q1011 NOSIG,GMTA,2023-06-02T19:00:00Z,35.17,-3.85,21.0,16.0,30,3,,4.97,29.852362,,,,,,TRUE,,,,,FEW,1500,FEW,3000,SCT,4000,,,MVFR,,,,,,,,,,,,METAR,14.0
GMMZ 021900Z 31013KT 9999 FEW040 27/03 Q1007 NOSIG,GMMZ,2023-06-02T19:00:00Z,30.93,-6.9,27.0,3.0,310,13,,6.21,29.734253,,,,,,TRUE,,,,,FEW,4000,,,,,,,VFR,,,,,,,,,,,,METAR,1139.0
GMMW 021900Z 07003KT 9999 SCT020 FEW030CB BKN100 19/15 Q1011 NOSIG,GMMW,2023-06-02T19:00:00Z,34.98,-3.02,19.0,15.0,70,3,,6.21,29.852362,,,,,,TRUE,,,,,SCT,2000,FEW,3000,BKN,10000,,,VFR,,,,,,,,,,,,METAR,174.0
GMML 021900Z 32014KT 8000 SCT030 23/21 Q1013 NOSIG,GMML,2023-06-02T19:00:00Z,27.13,-13.23,23.0,21.0,320,14,,4.97,29.911417,,,,,,TRUE,,,,,SCT,3000,,,,,,,MVFR,,,,,,,,,,,,METAR,63.0
GMMI 021900Z AUTO 36007KT 310V040 8000 BKN021 22/// Q1011 NOSIG,GMMI,2023-06-02T19:00:00Z,31.4,-9.68,,,360,7,,4.97,29.852362,,,TRUE,,,TRUE,,,,,BKN,2100,,,,,,,MVFR,,,,,,,,,,,,METAR,102.0
GMMH 021900Z 36009KT CAVOK 23/18 Q1014 NOSIG,GMMH,2023-06-02T19:00:00Z,23.72,-15.93,23.0,18.0,360,9,,6.21,29.940945,,,,,,TRUE,,,,,CAVOK,,,,,,,,VFR,,,,,,,,,,,,METAR,11.0
GMMD 021900Z 20005KT 9999 SCT030 26/06 Q1008 NOSIG,GMMD,2023-06-02T19:00:00Z,32.4,-6.32,26.0,6.0,200,5,,6.21,29.763779,,,,,,TRUE,,,,,SCT,3000,,,,,,,VFR,,,,,,,,,,,,METAR,515.0
GMMC 021900Z 02008KT 8000 FEW010 21/16 Q1010,GMMC,2023-06-02T19:00:00Z,33.57,-7.67,21.0,16.0,20,8,,4.97,29.822834,,,,,,,,,,,FEW,1000,,,,,,,MVFR,,,,,,,,,,,,METAR,62.0
GMMB 021900Z AUTO 34009KT 9999 NSC 20/20 Q1011 NOSIG,GMMB,2023-06-02T19:00:00Z,33.65,-7.22,20.0,20.0,340,9,,6.21,29.852362,,,TRUE,,,TRUE,,,,,CLR,,,,,,,,VFR,,,,,,,,,,,,METAR,191.0
GMFM 021900Z 32004KT 270V360 9999 FEW016 BKN020 19/14 Q1011 NOSIG,GMFM,2023-06-02T19:00:00Z,33.87,-5.52,19.0,14.0,320,4,,6.21,29.852362,,,,,,TRUE,,,,,FEW,1600,BKN,2000,,,,,MVFR,,,,,,,,,,,,METAR,569.0
GMFK 021900Z 36016KT 9999 SCT030 27/05 Q1009 NOSIG,GMFK,2023-06-02T19:00:00Z,31.95,-4.4,27.0,5.0,360,16,,6.21,29.793306,,,,,,TRUE,,,,,SCT,3000,,,,,,,VFR,,,,,,,,,,,,METAR,1033.0
GMAZ 021900Z 12006KT CAVOK 31/02 Q1006 NOSIG,GMAZ,2023-06-02T19:00:00Z,30.32,-5.87,31.0,2.0,120,6,,6.21,29.704725,,,,,,TRUE,,,,,CAVOK,,,,,,,,VFR,,,,,,,,,,,,METAR,729.0
GMAT 021900Z 32014KT 9999 SCT018 BKN025 21/16 Q1011,GMAT,2023-06-02T19:00:00Z,28.43,-11.15,21.0,16.0,320,14,,6.21,29.852362,,,,,,,,,,,SCT,1800,BKN,2500,,,,,MVFR,,,,,,,,,,,,METAR,192.0
GGOV 021900Z 25005KT 160V320 7000 NSC 30/22 Q1010 NOSIG,GGOV,2023-06-02T19:00:00Z,11.88,-15.65,30.0,22.0,250,5,,4.35,29.822834,,,,,,TRUE,,,,,CLR,,,,,,,,MVFR,,,,,,,,,,,,METAR,31.0
GFLL 021900Z 26009KT 9999 BKN012 FEW027CB 28/23 Q1010 RMK CB NE/SE,GFLL,2023-06-02T19:00:00Z,8.62,-13.18,28.0,23.0,260,9,,6.21,29.822834,,,,,,,,,,,BKN,1200,FEW,2700,,,,,MVFR,,,,,,,,,,,,METAR,28.0
GBYD 021900Z 30008KT CAVOK 27/21 Q1011,GBYD,2023-06-02T19:00:00Z,13.33,-16.65,27.0,21.0,300,8,,6.21,29.852362,,,,,,,,,,,CAVOK,,,,,,,,VFR,,,,,,,,,,,,METAR,29.0
GAKD 021900Z 34008KT CAVOK 40/10 Q1008,GAKD,2023-06-02T19:00:00Z,14.48,-11.4,40.0,10.0,340,8,,6.21,29.763779,,,,,,,,,,,CAVOK,,,,,,,,VFR,,,,,,,,,,,,METAR,53.0
FYWW 021900Z AUTO 31003KT //// // ////// 18/00 Q1023,FYWW,2023-06-02T19:00:00Z,-22.57,17.1,18.0,0.0,310,3,,,30.206694,,,TRUE,,,,,,,,,,,,,,,,,,,,,,,,,,,,METAR,1672.0
FYWB 021900Z AUTO 29003KT //// // ////// 15/10 Q1019,FYWB,2023-06-02T19:00:00Z,-22.98,14.65,15.0,10.0,290,3,,,30.088583,,,TRUE,,,,,,,,,,,,,,,,,,,,,,,,,,,,METAR,87.0
FYOA 021900Z AUTO 23002KT //// // ////// 23/04 Q1016,FYOA,2023-06-02T19:00:00Z,-17.88,15.97,23.0,4.0,230,2,,,30.0,,,TRUE,,,,,,,,,,,,,,,,,,,,,,,,,,,,METAR,1099.0
FYLZ 021900Z AUTO 01012G32KT //// // ////// 14/09 Q1017,FYLZ,2023-06-02T19:00:00Z,-26.68,15.25,14.0,9.0,10,12,32,,30.029528,,,TRUE,,,,,,,,,,,,,,,,,,,,,,,,,,,,METAR,129.0
FYKT 021900Z 29009KT CAVOK 21/M05 Q1016,FYKT,2023-06-02T19:00:00Z,-26.53,18.12,21.0,-5.0,290,9,,6.21,30.0,,,,,,,,,,,CAVOK,,,,,,,,VFR,,,,,,,,,,,,METAR,1064.0
FYKM 021900Z AUTO 00000KT //// // ////// 20/08 Q1018,FYKM,2023-06-02T19:00:00Z,-17.63,24.18,20.0,8.0,0,0,,,30.059055,,,TRUE,,,,,,,,,,,,,,,,,,,,,,,,,,,,METAR,959.0
FYGF 021900Z AUTO 29003KT //// // ////// 20/04 Q1022,FYGF,2023-06-02T19:00:00Z,-19.6,18.12,20.0,4.0,290,3,,,30.177166,,,TRUE,,,,,,,,,,,,,,,,,,,,,,,,,,,,METAR,1407.0
FTTJ 021900Z 31007KT 6000 -TSRA SCT026 SCT040CB 28/21 Q1009 NOSIG,FTTJ,2023-06-02T19:00:00Z,12.13,15.03,28.0,21.0,310,7,,3.73,29.793306,,,,,,TRUE,,,,-TSRA,SCT,2600,SCT,4000,,,,,MVFR,,,,,,,,,,,,METAR,295.0
FSIA 021900Z 13012KT 9999 SCT021 27/23 Q1014 NOSIG,FSIA,2023-06-02T19:00:00Z,-4.67,55.52,27.0,23.0,130,12,,6.21,29.940945,,,,,,TRUE,,,,,SCT,2100,,,,,,,VFR,,,,,,,,,,,,METAR,3.0
FQXA 021900Z 08004KT CAVOK 20/19 Q1016,FQXA,2023-06-02T19:00:00Z,-25.05,33.62,20.0,19.0,80,4,,6.21,30.0,,,,,,,,,,,CAVOK,,,,,,,,VFR,,,,,,,,,,,,METAR,3.0
FQTT 021900Z 32005KT CAVOK 21/13 Q1016,FQTT,2023-06-02T19:00:00Z,-16.1,33.63,21.0,13.0,320,5,,6.21,30.0,,,,,,,,,,,CAVOK,,,,,,,,VFR,,,,,,,,,,,,METAR,146.0
FQQL 021900Z 09008KT 9999 CAVOK 25/23 Q1017,FQQL,2023-06-02T19:00:00Z,-17.87,36.87,25.0,23.0,90,8,,6.21,30.029528,,,,,,,,,,,CAVOK,,,,,,,,VFR,,,,,,,,,,,,METAR,5.0
FQPB 021900Z 12003KT 9999 FEW020 26/23 Q1018,FQPB,2023-06-02T19:00:00Z,-12.98,40.52,26.0,23.0,120,3,,6.21,30.059055,,,,,,,,,,,FEW,2000,,,,,,,VFR,,,,,,,,,,,,METAR,101.0
FQNP 021900Z 08007KT CAVOK 22/19 Q1020,FQNP,2023-06-02T19:00:00Z,-15.1,39.27,22.0,19.0,80,7,,6.21,30.11811,,,,,,,,,,,CAVOK,,,,,,,,VFR,,,,,,,,,,,,METAR,434.0
FQMA 021900Z VRB02KT CAVOK 21/18 Q1015,FQMA,2023-06-02T19:00:00Z,-25.92,32.57,21.0,18.0,0,2,,6.21,29.970472,,,,,,,,,,,CAVOK,,,,,,,,VFR,,,,,,,,,,,,METAR,34.0
FQLC 021900Z 06004KT 9999 FEW022 17/14 Q1025,FQLC,2023-06-02T19:00:00Z,-13.27,35.25,17.0,14.0,60,4,,6.21,30.265747,,,,,,,,,,,FEW,2200,,,,,,,VFR,,,,,,,,,,,,METAR,1362.0
FQCH 021900Z /////KT 9999 FEW020 21/15 Q1021,FQCH,2023-06-02T19:00:00Z,-19.15,33.43,21.0,15.0,,,,6.21,30.147638,,,,,,,,,,,FEW,2000,,,,,,,VFR,,,,,,,,,,,,METAR,695.0
FOOL 021900Z 23008KT 200V270 9999 FEW012 28/24 Q1011 NOSIG,FOOL,2023-06-02T19:00:00Z,0.45,9.42,28.0,24.0,230,8,,6.21,29.852362,,,,,,TRUE,,,,,FEW,1200,,,,,,,VFR,,,,,,,,,,,,METAR,9.0
FOOG 021900Z 19010KT 9999 FEW011 26/23 Q1012,FOOG,2023-06-02T19:00:00Z,-0.7,8.75,26.0,23.0,190,10,,6.21,29.88189,,,,,,,,,,,FEW,1100,,,,,,,VFR,,,,,,,,,,,,METAR,4.0
FMSD 021900Z 08019G29KT CAVOK 23/17 Q1020,FMSD,2023-06-02T19:00:00Z,-25.03,46.95,23.0,17.0,80,19,29,6.21,30.11811,,,,,,,,,,,CAVOK,,,,,,,,VFR,,,,,,,,,,,,METAR,7.0
FMNM 021900Z 13008KT 9999 FEW023 25/17 Q1019 NOSIG,FMNM,2023-06-02T19:00:00Z,-15.67,46.35,25.0,17.0,130,8,,6.21,30.088583,,,,,,TRUE,,,,,FEW,2300,,,,,,,VFR,,,,,,,,,,,,METAR,18.0
FMMT 021900Z 24006KT 210V270 8000 -RA SCT017TCU BKN033 21/20 Q1022 TEMPO 4000 RA,FMMT,2023-06-02T19:00:00Z,-18.12,49.38,21.0,20.0,240,6,,4.97,30.177166,,,,,,,,,,-RA,SCT,1700,BKN,3300,,,,,MVFR,,,,,,,,,,,,METAR,13.0
FLKK 021900Z 18003KT CAVOK 16/11 Q1023,FLKK,2023-06-02T19:00:00Z,-15.32,28.45,16.0,11.0,180,3,,6.21,30.206694,,,,,,,,,,,CAVOK,,,,,,,,VFR,,,,,,,,,,,,METAR,1149.0
FIMP 021900Z 12014KT 9999 SCT017 24/16 Q1023,FIMP,2023-06-02T19:00:00Z,-20.43,57.68,24.0,16.0,120,14,,6.21,30.206694,,,,,,,,,,,SCT,1700,,,,,,,VFR,,,,,,,,,,,,METAR,57.0
FGSL 021900Z 26003KT 9999 FEW010 FEW020CB 25/24 Q1012 NOSIG,FGSL,2023-06-02T19:00:00Z,3.75,8.72,25.0,24.0,260,3,,6.21,29.88189,,,,,,TRUE,,,,,FEW,1000,FEW,2000,,,,,VFR,,,,,,,,,,,,METAR,23.0
FDST 021900Z AUTO 29006KT //// // ////// 19/16 Q1015,FDST,2023-06-02T19:00:00Z,-26.43,31.95,19.0,16.0,290,6,,,29.970472,,,TRUE,,,,,,,,,,,,,,,,,,,,,,,,,,,,METAR,642.0
FDSK 021900Z 31004KT CAVOK 16/12 Q1017 NOSIG,FDSK,2023-06-02T19:00:00Z,-26.35,31.72,16.0,12.0,310,4,,6.21,30.029528,,,,,,TRUE,,,,,CAVOK,,,,,,,,VFR,,,,,,,,,,,,METAR,323.0
FDPP 021900Z AUTO 01008KT //// // ////// ///// Q1022,FDPP,2023-06-02T19:00:00Z,-25.97,31.25,,,10,8,,,30.177166,,,TRUE,,,,,,,,,,,,,,,,,,,,,,,,,,,,METAR,1023.0
FDOT 021900Z AUTO 26002KT //// // ////// 12/10 Q1017,FDOT,2023-06-02T19:00:00Z,-26.7,31.43,12.0,10.0,260,2,,,30.029528,,,TRUE,,,,,,,,,,,,,,,,,,,,,,,,,,,,METAR,342.0
FDMY 021900Z AUTO 00000KT //// // ////// M01/M03 Q1026,FDMY,2023-06-02T19:00:00Z,-25.88,31.52,-1.0,-3.0,0,0,,,30.295275,,,TRUE,,,,,,,,,,,,,,,,,,,,,,,,,,,,METAR,401.0
FDBB 021900Z AUTO 00000KT //// // ////// 13/10 Q1014,FDBB,2023-06-02T19:00:00Z,-26.8,31.93,13.0,10.0,0,0,,,29.940945,,,TRUE,,,,,,,,,,,,,,,,,,,,,,,,,,,,METAR,106.0
FBSK 021900Z 11005KT CAVOK 13/06 Q1019 NOSIG,FBSK,2023-06-02T19:00:00Z,-24.55,25.92,13.0,6.0,110,5,,6.21,30.088583,,,,,,TRUE,,,,,CAVOK,,,,,,,,VFR,,,,,,,,,,,,METAR,1007.0
FBPM 021900Z 36007KT CAVOK 14/M02 Q1020,FBPM,2023-06-02T19:00:00Z,-21.17,27.48,14.0,-2.0,360,7,,6.21,30.11811,,,,,,,,,,,CAVOK,,,,,,,,VFR,,,,,,,,,,,,METAR,1009.0
FBMN 021900Z VRB02KT CAVOK 20/07 Q1019,FBMN,2023-06-02T19:00:00Z,-19.97,23.42,20.0,7.0,0,2,,6.21,30.088583,,,,,,,,,,,CAVOK,,,,,,,,VFR,,,,,,,,,,,,METAR,946.0
FAWB 021900Z AUTO 09001KT //// // ////// 09/05 Q1020,FAWB,2023-06-02T19:00:00Z,-25.65,28.22,9.0,5.0,90,1,,,30.11811,,,TRUE,,,,,,,,,,,,,,,,,,,,,,,,,,,,METAR,1245.0
FAUT 021900Z AUTO 24003KT //// // ////// 11/08 Q1013,FAUT,2023-06-02T19:00:00Z,-31.53,28.67,11.0,8.0,240,3,,,29.911417,,,TRUE,,,,,,,,,,,,,,,,,,,,,,,,,,,,METAR,735.0
FAUP 021900Z AUTO 08001KT //// // ////// 14/01 Q1014,FAUP,2023-06-02T19:00:00Z,-28.38,21.27,14.0,1.0,80,1,,,29.940945,,,TRUE,,,,,,,,,,,,,,,,,,,,,,,,,,,,METAR,845.0
FAPP 021900Z AUTO 20005KT //// // ////// 10/04 Q1024,FAPP,2023-06-02T19:00:00Z,-23.83,29.45,10.0,4.0,200,5,,,30.236221,,,TRUE,,,,,,,,,,,,,,,,,,,,,,,,,,,,METAR,1238.0
FAPN 021900Z AUTO 23002KT //// // ////// 11/03 Q1020,FAPN,2023-06-02T19:00:00Z,-25.33,27.17,11.0,3.0,230,2,,,30.11811,,,TRUE,,,,,,,,,,,,,,,,,,,,,,,,,,,,METAR,1045.0
FAPE 021900Z 24003KT CAVOK 13/10 Q1007 NOSIG,FAPE,2023-06-02T19:00:00Z,-33.98,25.6,13.0,10.0,240,3,,6.21,29.734253,,,,,,TRUE,,,,,CAVOK,,,,,,,,VFR,,,,,,,,,,,,METAR,58.0
FAOR 021900Z 32004KT CAVOK 14/02 Q1023 NOSIG,FAOR,2023-06-02T19:00:00Z,-26.13,28.23,14.0,2.0,320,4,,6.21,30.206694,,,,,,TRUE,,,,,CAVOK,,,,,,,,VFR,,,,,,,,,,,,METAR,1684.0
FAMM 021900Z AUTO 04005KT //// // ////// 11/M01 Q1020,FAMM,2023-06-02T19:00:00Z,-25.8,25.53,11.0,-1.0,40,5,,,30.11811,,,TRUE,,,,,,,,,,,,,,,,,,,,,,,,,,,,METAR,1280.0
FALW 021900Z AUTO 36018KT //// // ////// 13/11 Q1009,FALW,2023-06-02T19:00:00Z,-32.97,18.17,13.0,11.0,360,18,,,29.793306,,,TRUE,,,,,,,,,,,,,,,,,,,,,,,,,,,,METAR,31.0
FALE 021900Z VRB02KT CAVOK 13/10 Q1013 NOSIG,FALE,2023-06-02T19:00:00Z,-29.62,31.12,13.0,10.0,0,2,,6.21,29.911417,,,,,,TRUE,,,,,CAVOK,,,,,,,,VFR,,,,,,,,,,,,METAR,109.0
FALA 021900Z 11005KT CAVOK 12/03 Q1023 NOSIG,FALA,2023-06-02T19:00:00Z,-25.93,27.92,12.0,3.0,110,5,,6.21,30.206694,,,,,,TRUE,,,,,CAVOK,,,,,,,,VFR,,,,,,,,,,,,METAR,1365.0
FAKN 021900Z AUTO 33002KT //// // ////// 16/11 Q1020,FAKN,2023-06-02T19:00:00Z,-25.38,31.1,16.0,11.0,330,2,,,30.11811,,,TRUE,,,,,,,,,,,,,,,,,,,,,,,,,,,,METAR,864.0
FAKM 021900Z AUTO 03003KT //// // ////// 10/03 Q1017,FAKM,2023-06-02T19:00:00Z,-28.8,24.77,10.0,3.0,30,3,,,30.029528,,,TRUE,,,,,,,,,,,,,,,,,,,,,,,,,,,,METAR,1203.0
FAHS 021900Z AUTO 27003KT //// // ////// 17/08 Q1017,FAHS,2023-06-02T19:00:00Z,-24.37,31.03,17.0,8.0,270,3,,,30.029528,,,TRUE,,,,,,,,,,,,,,,,,,,,,,,,,,,,METAR,532.0
FAGG 021900Z AUTO 33009KT 9999 // ////// 19/07 Q1005,FAGG,2023-06-02T19:00:00Z,-34.0,22.37,19.0,7.0,330,9,,6.21,29.675198,,,TRUE,,,,,,,,,,,,,,,,,,,,,,,,,,,,METAR,196.0
FAEL 021900Z 01006KT 340V040 CAVOK 17/10 Q1010,FAEL,2023-06-02T19:00:00Z,-33.03,27.82,17.0,10.0,10,6,,6.21,29.822834,,,,,,,,,,,CAVOK,,,,,,,,VFR,,,,,,,,,,,,METAR,127.0
FABL 021900Z AUTO 07002KT //// R02///// // ///////// 06/04 Q1019,FABL,2023-06-02T19:00:00Z,-29.1,26.3,6.0,4.0,70,2,,,30.088583,,,TRUE,,,,,,,,,,,,,,,,,,,,,,,,,,,,METAR,1348.0
EIME 021900Z 08007KT CAVOK 14/08 Q1025,EIME,2023-06-02T19:00:00Z,53.3,-6.45,14.0,8.0,80,7,,6.21,30.265747,,,,,,,,,,,CAVOK,,,,,,,,VFR,,,,,,,,,,,,METAR,90.0
EIDL 021900Z 02014KT CAVOK 15/09 Q1026,EIDL,2023-06-02T19:00:00Z,55.05,-8.33,15.0,9.0,20,14,,6.21,30.295275,,,,,,,,,,,CAVOK,,,,,,,,VFR,,,,,,,,,,,,METAR,2.0
DXXX 021900Z 22008KT 9999 SCT012 27/25 Q1012 NOSIG,DXXX,2023-06-02T19:00:00Z,6.17,1.25,27.0,25.0,220,8,,6.21,29.88189,,,,,,TRUE,,,,,SCT,1200,,,,,,,VFR,,,,,,,,,,,,METAR,22.0
DTTZ 021900Z 03015KT 9999 SCT033 26/14 Q1011,DTTZ,2023-06-02T19:00:00Z,33.93,8.1,26.0,14.0,30,15,,6.21,29.852362,,,,,,,,,,,SCT,3300,,,,,,,VFR,,,,,,,,,,,,METAR,87.0
DTTX 021900Z 07005KT 040V100 9999 SCT030 22/17 Q1013,DTTX,2023-06-02T19:00:00Z,34.72,10.68,22.0,17.0,70,5,,6.21,29.911417,,,,,,,,,,,SCT,3000,,,,,,,VFR,,,,,,,,,,,,METAR,17.0
DTTR 021900Z AUTO 01007KT NCD 30/04 Q1011,DTTR,2023-06-02T19:00:00Z,31.7,9.27,30.0,4.0,10,7,,,29.852362,,,TRUE,,,,,,,,CLR,,,,,,,,,,,,,,,,,,,,METAR,253.0
DTTN 021900Z /////KT 8000 SCT020 FEW023CB SCT030 18/16 Q1013,DTTN,2023-06-02T19:00:00Z,36.47,8.8,18.0,16.0,,,,4.97,29.911417,,,,,,,,,,,SCT,2000,FEW,2300,SCT,3000,,,MVFR,,,,,,,,,,,,METAR,145.0
DTTL 021900Z 15003KT 060V210 9999 FEW020 21/18 Q1014,DTTL,2023-06-02T19:00:00Z,36.85,11.07,21.0,18.0,150,3,,6.21,29.940945,,,,,,,,,,,FEW,2000,,,,,,,VFR,,,,,,,,,,,,METAR,18.0
DTTK 021900Z 28004KT 9999 SCT023 BKN030 24/14 Q1013,DTTK,2023-06-02T19:00:00Z,35.67,10.08,24.0,14.0,280,4,,6.21,29.911417,,,,,,,,,,,SCT,2300,BKN,3000,,,,,MVFR,,,,,,,,,,,,METAR,65.0
DTTG 021900Z 06011KT 9999 SCT030 22/15 Q1013 NOSIG,DTTG,2023-06-02T19:00:00Z,33.73,9.92,22.0,15.0,60,11,,6.21,29.911417,,,,,,TRUE,,,,,SCT,3000,,,,,,,VFR,,,,,,,,,,,,METAR,120.0
DTTF 021900Z 02011KT 9999 BKN026 21/14 Q1014,DTTF,2023-06-02T19:00:00Z,34.42,8.82,21.0,14.0,20,11,,6.21,29.940945,,,,,,,,,,,BKN,2600,,,,,,,MVFR,,,,,,,,,,,,METAR,314.0
DTTD 021900Z 06010KT 020V100 9999 FEW026 25/14 Q1013,DTTD,2023-06-02T19:00:00Z,32.32,10.4,25.0,14.0,60,10,,6.21,29.911417,,,,,,,,,,,FEW,2600,,,,,,,VFR,,,,,,,,,,,,METAR,306.0
DTTB 021900Z 10009KT 9999 SCT020TCU 23/18 Q1013,DTTB,2023-06-02T19:00:00Z,37.25,9.8,23.0,18.0,100,9,,6.21,29.911417,,,,,,,,,,,SCT,2000,,,,,,,VFR,,,,,,,,,,,,METAR,4.0
DTKA 021900Z VRB02KT 9999 SCT020 FEW023CB 20/17 Q1013 NOSIG,DTKA,2023-06-02T19:00:00Z,36.98,8.88,20.0,17.0,0,2,,6.21,29.911417,,,,,,TRUE,,,,,SCT,2000,FEW,2300,,,,,VFR,,,,,,,,,,,,METAR,70.0
DRRN 021900Z 19009KT CAVOK 38/17 Q1007 NOSIG,DRRN,2023-06-02T19:00:00Z,13.47,2.17,38.0,17.0,190,9,,6.21,29.734253,,,,,,TRUE,,,,,CAVOK,,,,,,,,VFR,,,,,,,,,,,,METAR,223.0
DNYO 021900Z 27008KT 9999 FEW013 FEW022CB 33/23 Q1009 NOSIG,DNYO,2023-06-02T19:00:00Z,9.27,12.42,33.0,23.0,270,8,,6.21,29.793306,,,,,,TRUE,,,,,FEW,1300,FEW,2200,,,,,VFR,,,,,,,,,,,,METAR,178.0
DNPO 021900Z 28003KT 9999 BKN008 26/25 Q1011 NOSIG,DNPO,2023-06-02T19:00:00Z,4.83,7.02,26.0,25.0,280,3,,6.21,29.852362,,,,,,TRUE,,,,,BKN,800,,,,,,,IFR,,,,,,,,,,,,METAR,17.0
DNMN 021900Z 23005KT 9999 FEW010 31/24 Q1010,DNMN,2023-06-02T19:00:00Z,9.65,6.47,31.0,24.0,230,5,,6.21,29.822834,,,,,,,,,,,FEW,1000,,,,,,,VFR,,,,,,,,,,,,METAR,268.0
DNMM 021900Z 22005KT 9999 SCT010 26/25 Q1012 NOSIG,DNMM,2023-06-02T19:00:00Z,6.57,3.32,26.0,25.0,220,5,,6.21,29.88189,,,,,,TRUE,,,,,SCT,1000,,,,,,,VFR,,,,,,,,,,,,METAR,27.0
DNKT 021900Z 21010KT 9999 TS BKN012 FEW019CB 32/24 Q1011,DNKT,2023-06-02T19:00:00Z,13.0,7.67,32.0,24.0,210,10,,6.21,29.852362,,,,,,,,,,TS,BKN,1200,FEW,1900,,,,,MVFR,,,,,,,,,,,,METAR,504.0
DNKN 021900Z 25006KT 9999 TS SCT013 FEW019CB 34/22 Q1011 NOSIG,DNKN,2023-06-02T19:00:00Z,12.05,8.52,34.0,22.0,250,6,,6.21,29.852362,,,,,,TRUE,,,,TS,SCT,1300,FEW,1900,,,,,VFR,,,,,,,,,,,,METAR,471.0
DNIM 021900Z 24007KT 9999 BKN011 27/25 Q1012,DNIM,2023-06-02T19:00:00Z,5.43,7.2,27.0,25.0,240,7,,6.21,29.88189,,,,,,,,,,,BKN,1100,,,,,,,MVFR,,,,,,,,,,,,METAR,113.0
DNIL 021900Z 19007KT 9999 FEW012 30/24 Q1011,DNIL,2023-06-02T19:00:00Z,8.43,4.48,30.0,24.0,190,7,,6.21,29.852362,,,,,,,,,,,FEW,1200,,,,,,,VFR,,,,,,,,,,,,METAR,341.0
DNEN 021900Z 21010KT 9999 TS BKN011 FEW020CB 29/23 Q1011 NOSIG,DNEN,2023-06-02T19:00:00Z,6.47,7.55,29.0,23.0,210,10,,6.21,29.852362,,,,,,TRUE,,,,TS,BKN,1100,FEW,2000,,,,,MVFR,,,,,,,,,,,,METAR,142.0
DNAA 021900Z 23006KT 9999 FEW010 29/23 Q1011 NOSIG,DNAA,2023-06-02T19:00:00Z,9.0,7.27,29.0,23.0,230,6,,6.21,29.852362,,,,,,TRUE,,,,,FEW,1000,,,,,,,VFR,,,,,,,,,,,,METAR,338.0
DIYO 021900Z 00000KT 8000 SCT013 FEW020CB 27/25 Q1011 RERA NOSIG,DIYO,2023-06-02T19:00:00Z,6.9,-5.35,27.0,25.0,0,0,,4.97,29.852362,,,,,,TRUE,,,,,SCT,1300,FEW,2000,,,,,MVFR,,,,,,,,,,,,METAR,202.0
DIBK 021900Z 20004KT 8000 FEW015 27/24 Q1012 NOSIG,DIBK,2023-06-02T19:00:00Z,7.73,-5.07,27.0,24.0,200,4,,4.97,29.88189,,,,,,TRUE,,,,,FEW,1500,,,,,,,MVFR,,,,,,,,,,,,METAR,363.0
DGAA 021900Z 22011KT 9999 SCT007 BKN021 26/25 Q1011 NOSIG,DGAA,2023-06-02T19:00:00Z,5.58,-0.17,26.0,25.0,220,11,,6.21,29.852362,,,,,,TRUE,,,,,SCT,700,BKN,2100,,,,,MVFR,,,,,,,,,,,,METAR,68.0
DFOO 021900Z 20006KT 9999 FEW020 FEW033CB 32/22 Q1010,DFOO,2023-06-02T19:00:00Z,11.17,-4.32,32.0,22.0,200,6,,6.21,29.822834,,,,,,,,,,,FEW,2000,FEW,3300,,,,,VFR,,,,,,,,,,,,METAR,461.0
DFFD 021900Z 20005KT 9999 TS FEW026 FEW040CB 34/21 Q1008 NOSIG,DFFD,2023-06-02T19:00:00Z,12.35,-1.52,34.0,21.0,200,5,,6.21,29.763779,,,,,,TRUE,,,,TS,FEW,2600,FEW,4000,,,,,VFR,,,,,,,,,,,,METAR,309.0
DBBB 021900Z 20010KT 9999 FEW011 27/24 Q1011 NOSIG,DBBB,2023-06-02T19:00:00Z,6.35,2.38,27.0,24.0,200,10,,6.21,29.852362,,,,,,TRUE,,,,,FEW,1100,,,,,,,VFR,,,,,,,,,,,,METAR,4.0
DAUZ 021900Z 33002KT CAVOK 32/03 Q1009,DAUZ,2023-06-02T19:00:00Z,28.05,9.63,32.0,3.0,330,2,,6.21,29.793306,,,,,,,,,,,CAVOK,,,,,,,,VFR,,,,,,,,,,,,METAR,567.0
DAUU 021900Z 09008KT 9999 FEW040 SCT200 32/05 Q1008,DAUU,2023-06-02T19:00:00Z,31.92,5.4,32.0,5.0,90,8,,6.21,29.763779,,,,,,,,,,,FEW,4000,SCT,20000,,,,,VFR,,,,,,,,,,,,METAR,147.0
DAUT 021900Z 20009KT 8000 NSC 36/// Q1002,DAUT,2023-06-02T19:00:00Z,29.25,0.27,,,200,9,,4.97,29.586615,,,,,,,,,,,CLR,,,,,,,,MVFR,,,,,,,,,,,,METAR,307.0
DAUO 021900Z 07007KT 9999 FEW046 SCT200 29/10 Q1010,DAUO,2023-06-02T19:00:00Z,33.5,6.78,29.0,10.0,70,7,,6.21,29.822834,,,,,,,,,,,FEW,4600,SCT,20000,,,,,VFR,,,,,,,,,,,,METAR,55.0
DAUL 021900Z 09010KT 9999 SCT033 22/09 Q1013,DAUL,2023-06-02T19:00:00Z,33.77,2.92,22.0,9.0,90,10,,6.21,29.911417,,,,,,,,,,,SCT,3300,,,,,,,VFR,,,,,,,,,,,,METAR,755.0
DAUK 021900Z 05009KT 9999 SCT040 SCT233 29/10 Q1010,DAUK,2023-06-02T19:00:00Z,33.08,6.08,29.0,10.0,50,9,,6.21,29.822834,,,,,,,,,,,SCT,4000,SCT,23300,,,,,VFR,,,,,,,,,,,,METAR,83.0
DAUI 021900Z 07009KT CAVOK 36/// Q1003,DAUI,2023-06-02T19:00:00Z,27.25,2.52,,,70,9,,6.21,29.616142,,,,,,,,,,,CAVOK,,,,,,,,VFR,,,,,,,,,,,,METAR,271.0
DAUH 021900Z 07007KT CAVOK 32/05 Q1008,DAUH,2023-06-02T19:00:00Z,31.67,6.15,32.0,5.0,70,7,,6.21,29.763779,,,,,,,,,,,CAVOK,,,,,,,,VFR,,,,,,,,,,,,METAR,141.0
DAUG 021900Z 12011KT 9999 SCT033 SCT200 30/01 Q1010,DAUG,2023-06-02T19:00:00Z,32.38,3.78,30.0,1.0,120,11,,6.21,29.822834,,,,,,,,,,,SCT,3300,SCT,20000,,,,,VFR,,,,,,,,,,,,METAR,444.0
DAUE 021900Z 12006KT CAVOK 32/M00 Q1007,DAUE,2023-06-02T19:00:00Z,30.57,2.87,32.0,0.0,120,6,,6.21,29.734253,,,,,,,,,,,CAVOK,,,,,,,,VFR,,,,,,,,,,,,METAR,396.0
DAUB 021900Z 32004KT 9999 BKN040 26/11 Q1012,DAUB,2023-06-02T19:00:00Z,34.78,5.73,26.0,11.0,320,4,,6.21,29.88189,,,,,,,,,,,BKN,4000,,,,,,,VFR,,,,,,,,,,,,METAR,75.0
DAUA 021900Z 23013KT CAVOK 35/// Q1003,DAUA,2023-06-02T19:00:00Z,27.83,-0.18,,,230,13,,6.21,29.616142,,,,,,,,,,,CAVOK,,,,,,,,VFR,,,,,,,,,,,,METAR,278.0
DAOY 021900Z 12013KT CAVOK 19/07 Q1012,DAOY,2023-06-02T19:00:00Z,33.72,1.08,19.0,7.0,120,13,,6.21,29.88189,,,,,,,,,,,CAVOK,,,,,,,,VFR,,,,,,,,,,,,METAR,1340.0
DAOV 021900Z 34004KT 300V020 9000 -TSSHRA FEW023CB SCT026 20/11 Q1012,DAOV,2023-06-02T19:00:00Z,35.2,0.15,20.0,11.0,340,4,,5.59,29.88189,,,,,,,,,,SHRA TS,FEW,2300,SCT,2600,,,,,VFR,,,,,,,,,,,,METAR,506.0
DAOR 021900Z 19006KT 8000 FEW033 31/// Q1006,DAOR,2023-06-02T19:00:00Z,31.65,-2.27,,,190,6,,4.97,29.704725,,,,,,,,,,,FEW,3300,,,,,,,MVFR,,,,,,,,,,,,METAR,809.0
DAOL 021900Z 36004KT 9999 FEW023CB SCT026 BKN100 21/15 Q1012,DAOL,2023-06-02T19:00:00Z,35.53,-0.52,21.0,15.0,360,4,,6.21,29.88189,,,,,,,,,,,FEW,2300,SCT,2600,BKN,10000,,,VFR,,,,,,,,,,,,METAR,103.0
DAOI 021900Z 07009KT 9999 FEW020 BKN026 24/12 Q1012,DAOI,2023-06-02T19:00:00Z,36.22,1.32,24.0,12.0,70,9,,6.21,29.88189,,,,,,,,,,,FEW,2000,BKN,2600,,,,,MVFR,,,,,,,,,,,,METAR,141.0
DAOF 021900Z 29019KT CAVOK 28/07 Q1006,DAOF,2023-06-02T19:00:00Z,27.7,-8.17,28.0,7.0,290,19,,6.21,29.704725,,,,,,,,,,,CAVOK,,,,,,,,VFR,,,,,,,,,,,,METAR,441.0
DAOB 021900Z 35004KT 9999 TS SCT026 FEW026CB 17/12 Q1015,DAOB,2023-06-02T19:00:00Z,35.33,1.47,17.0,12.0,350,4,,6.21,29.970472,,,,,,,,,,TS,SCT,2600,FEW,2600,,,,,VFR,,,,,,,,,,,,METAR,976.0
DABT 021900Z 25003KT 9999 BKN020 19/10 Q1016,DABT,2023-06-02T19:00:00Z,35.75,6.32,19.0,10.0,250,3,,6.21,30.0,,,,,,,,,,,BKN,2000,,,,,,,MVFR,,,,,,,,,,,,METAR,813.0
DABS 021900Z 06006KT 9999 BKN033 17/14 Q1016,DABS,2023-06-02T19:00:00Z,35.43,8.12,17.0,14.0,60,6,,6.21,30.0,,,,,,,,,,,BKN,3300,,,,,,,VFR,,,,,,,,,,,,METAR,806.0
DAAY 021900Z 01018KT 6000 NSC 19/10 Q1013,DAAY,2023-06-02T19:00:00Z,33.53,-0.25,19.0,10.0,10,18,,3.73,29.911417,,,,,,,,,,,CLR,,,,,,,,MVFR,,,,,,,,,,,,METAR,1116.0
DAAV 021900Z VRB02KT 8000 FEW016 FEW023CB SCT033 20/17 Q1013,DAAV,2023-06-02T19:00:00Z,36.8,5.88,20.0,17.0,0,2,,4.97,29.911417,,,,,,,,,,,FEW,1600,FEW,2300,SCT,3300,,,MVFR,,,,,,,,,,,,METAR,11.0
DAAS 021900Z 34005KT 9999 -RA FEW023CB SCT026 14/11 Q1016,DAAS,2023-06-02T19:00:00Z,36.18,5.33,14.0,11.0,340,5,,6.21,30.0,,,,,,,,,,-RA,FEW,2300,SCT,2600,,,,,VFR,,,,,,,,,,,,METAR,1012.0
DAAP 021900Z 03004KT CAVOK 34/01 Q1008,DAAP,2023-06-02T19:00:00Z,26.72,8.62,34.0,1.0,30,4,,6.21,29.763779,,,,,,,,,,,CAVOK,,,,,,,,VFR,,,,,,,,,,,,METAR,542.0
DAAJ 021900Z VRB02KT 8000 NSC 32/M04 Q1011,DAAJ,2023-06-02T19:00:00Z,24.28,9.47,32.0,-4.0,0,2,,4.97,29.852362,,,,,,,,,,,CLR,,,,,,,,MVFR,,,,,,,,,,,,METAR,962.0
DAAE 021900Z 27006KT 8000 FEW006 SCT040 BKN090 20/15 Q1013,DAAE,2023-06-02T19:00:00Z,36.72,5.07,20.0,15.0,270,6,,4.97,29.911417,,,,,,,,,,,FEW,600,SCT,4000,BKN,9000,,,MVFR,,,,,,,,,,,,METAR,1.0
CZZJ 021900Z AUTO 07006KT 18/09 RMK AO1 SLP204 T01790092 58012,CZZJ,2023-06-02T19:00:00Z,53.58,-116.47,17.9,9.2,70,6,,,,1020.4,,TRUE,TRUE,,,,,,,,,,,,,,,,-1.2,,,,,,,,,,,METAR,927.0
CZVL 021900Z AUTO 36007KT 350V070 9SM CLR 21/04 A3008 RMK SLP192 DENSITY ALT 3300FT,CZVL,2023-06-02T19:00:00Z,53.67,-113.85,21.0,4.0,360,7,,9.0,30.079725,1019.2,,TRUE,,,,,,,,CLR,,,,,,,,VFR,,,,,,,,,,,,METAR,685.0
CZUM 021900Z AUTO 04012G18KT 350V060 9SM CLR 09/M02 A3042 RMK SLP322,CZUM,2023-06-02T19:00:00Z,53.55,-64.1,9.0,-2.0,40,12,18,9.0,30.41929,1032.2,,TRUE,,,,,,,,CLR,,,,,,,,VFR,,,,,,,,,,,,METAR,431.0
CZTB 021900Z AUTO 09008KT 23/16 RMK AO1 SLP220 T02310158 58005,CZTB,2023-06-02T19:00:00Z,48.37,-89.32,23.1,15.8,90,8,,,,1022.0,,TRUE,TRUE,,,,,,,,,,,,,,,,-0.5,,,,,,,,,,,METAR,197.0
CZST 021900Z 20003KT 160V250 15SM FEW060 BKN065 OVC075 12/08 A3004 RMK SC1SC4AS3 SLP174,CZST,2023-06-02T19:00:00Z,55.93,-129.98,12.0,8.0,200,3,,15.0,30.041338,1017.4,,,,,,,,,,FEW,6000,BKN,6500,OVC,7500,,,VFR,,,,,,,,,,,,METAR,10.0
CZSP 021900Z AUTO 03009KT 10/07 RMK AO1 PK WND 03018/1840 SLP167 T00970069 51009,CZSP,2023-06-02T19:00:00Z,46.45,-62.58,9.7,6.9,30,9,,,,1016.7,,TRUE,TRUE,,,,,,,,,,,,,,,,0.9,,,,,,,,,,,METAR,31.0
CZSM 021900Z AUTO 05005KT 22/03 RMK AO1 SLP203 T02180030 53002,CZSM,2023-06-02T19:00:00Z,60.03,-111.93,21.8,3.0,50,5,,,,1020.3,,TRUE,TRUE,,,,,,,,,,,,,,,,0.2,,,,,,,,,,,METAR,203.0
CZPS 021900Z AUTO 15003KT 19/08 RMK AO1 T01900077,CZPS,2023-06-02T19:00:00Z,52.43,-113.6,19.0,7.7,150,3,,,,,,TRUE,TRUE,,,,,,,,,,,,,,,,,,,,,,,,,,,METAR,953.0
CZPC 021900Z AUTO 14005KT 070V170 9SM SCT032 16/09 A3013 RMK SLP202 DENSITY ALT 4800FT,CZPC,2023-06-02T19:00:00Z,49.52,-114.0,16.0,9.0,140,5,,9.0,30.129921,1020.2,,TRUE,,,,,,,,SCT,3200,,,,,,,VFR,,,,,,,,,,,,METAR,1187.0
CZOL 021900Z AUTO 34003KT 21/07 RMK AO1 T02130072,CZOL,2023-06-02T19:00:00Z,53.65,-113.35,21.3,7.2,340,3,,,,,,TRUE,TRUE,,,,,,,,,,,,,,,,,,,,,,,,,,,METAR,645.0
CZMT 021900Z 15015G21KT 15SM SCT020TCU BKN037 BKN046 13/10 A2993 RMK TCU3SC2SC2 SLP137,CZMT,2023-06-02T19:00:00Z,54.03,-132.13,13.0,10.0,150,15,21,15.0,29.929134,1013.7,,,,,,,,,,SCT,2000,BKN,3700,BKN,4600,,,VFR,,,,,,,,,,,,METAR,11.0
CZMJ 021900Z AUTO 06004KT 20/15 RMK AO1 SLP176 T01980153 51005,CZMJ,2023-06-02T19:00:00Z,50.33,-105.53,19.8,15.3,60,4,,,,1017.6,,TRUE,TRUE,,,,,,,,,,,,,,,,0.5,,,,,,,,,,,METAR,571.0
CZMD 021900Z AUTO 10007KT 070V160 9SM BKN150 BKN170 21/14 A3016 RMK SLP219 DENSITY ALT 1600FT,CZMD,2023-06-02T19:00:00Z,53.43,-91.77,21.0,14.0,100,7,,9.0,30.159449,1021.9,,TRUE,,,,,,,,BKN,15000,BKN,17000,,,,,VFR,,,,,,,,,,,,METAR,276.0
CZKD 021900Z AUTO 11006KT 24/14 RMK AO1 SLP196 T02380138 56009,CZKD,2023-06-02T19:00:00Z,56.03,-96.52,23.8,13.8,110,6,,,,1019.6,,TRUE,TRUE,,,,,,,,,,,,,,,,-0.9,,,,,,,,,,,METAR,190.0
CZHY 021900Z AUTO 36004KT 19/M02 RMK AO1 SLP208 T01871023 53002,CZHY,2023-06-02T19:00:00Z,60.83,-115.78,18.7,-2.3,360,4,,,,1020.8,,TRUE,TRUE,,,,,,,,,,,,,,,,0.2,,,,,,,,,,,METAR,159.0
CZFS 021900Z AUTO 20008G15KT 21/M04 RMK AO1 PK WND 16017/1846 SLP182 T02121042 56006,CZFS,2023-06-02T19:00:00Z,61.77,-121.23,21.2,-4.2,200,8,15,,,1018.2,,TRUE,TRUE,,,,,,,,,,,,,,,,-0.6,,,,,,,,,,,METAR,174.0
CZFM 021900Z 20005KT 160V230 35SM FEW055 OVC079 15/03 A2971 RMK SC1AC8 SC TR SLP065 DENSITY ALT 500FT,CZFM,2023-06-02T19:00:00Z,67.4,-134.87,15.0,3.0,200,5,,35.0,29.71063,1006.5,,,,,,,,,,FEW,5500,OVC,7900,,,,,VFR,,,,,,,,,,,,METAR,33.0
CZEV 021900Z AUTO 22011G16KT 15/01 RMK AO1 PK WND 23017/1845 SLP071 T01510010 58003,CZEV,2023-06-02T19:00:00Z,68.32,-133.48,15.1,1.0,220,11,16,,,1007.1,,TRUE,TRUE,,,,,,,,,,,,,,,,-0.3,,,,,,,,,,,METAR,92.0
CZEM 021900Z 08012G18KT 060V130 15SM SKC 25/01 A3028 RMK SLP255 DENSITY ALT 800FT,CZEM,2023-06-02T19:00:00Z,52.22,-78.52,25.0,1.0,80,12,18,15.0,30.280512,1025.5,,,,,,,,,,SKC,,,,,,,,VFR,,,,,,,,,,,,METAR,9.0
CZEL 021900Z AUTO 02007KT 29/12 RMK AO1 PK WND 34020/1822 SLP171 T02900122 56016,CZEL,2023-06-02T19:00:00Z,43.65,-80.42,29.0,12.2,20,7,,,,1017.1,,TRUE,TRUE,,,,,,,,,,,,,,,,-1.6,,,,,,,,,,,METAR,370.0
CZDB 021900Z AUTO 36014KT 12/07 RMK AO1 PK WND 00020/1815 SLP159 T01240067 53006,CZDB,2023-06-02T19:00:00Z,45.42,-63.47,12.4,6.7,360,14,,,,1015.9,,TRUE,TRUE,,,,,,,,,,,,,,,,0.6,,,,,,,,,,,METAR,38.0
CZCR 021900Z AUTO 11008KT 09/08 RMK AO1 SLP218 T00870083 53012,CZCR,2023-06-02T19:00:00Z,47.98,-66.33,8.7,8.3,110,8,,,,1021.8,,TRUE,TRUE,,,,,,,,,,,,,,,,1.2,,,,,,,,,,,METAR,39.0
CZCP 021900Z AUTO 10019KT ////SM ////// 01/00 A2990,CZCP,2023-06-02T19:00:00Z,70.17,-124.68,1.0,0.0,100,19,,,29.899607,,,TRUE,,,,,,,,,,,,,,,,,,,,,,,,,,,,METAR,23.0
CYZY 021900Z AUTO VRB03KT 9SM CLR 18/01 A2999 RMK SLP171 DENSITY ALT 3100FT,CYZY,2023-06-02T19:00:00Z,55.3,-123.13,18.0,1.0,0,3,,9.0,29.991142,1017.1,,TRUE,,,,,,,,CLR,,,,,,,,VFR,,,,,,,,,,,,SPECI,694.0
CYZX 021900Z 03015KT 15SM OVC090 15/08 A3000 RMK AC8 DENSITY ALT 175FT SLP160,CYZX,2023-06-02T19:00:00Z,44.98,-64.92,15.0,8.0,30,15,,15.0,30.0,1016.0,,,,,,,,,,OVC,9000,,,,,,,VFR,,,,,,,,,,,,SPECI,28.0
CYZW 021900Z 15006KT 080V190 30SM FEW060 SCT100 OVC240 14/00 A2994 RMK CU2AC2CI4 SLP159 DENSITY ALT 2700FT,CYZW,2023-06-02T19:00:00Z,60.17,-132.75,14.0,0.0,150,6,,30.0,29.940945,1015.9,,,,,,,,,,FEW,6000,SCT,10000,OVC,24000,,,VFR,,,,,,,,,,,,METAR,700.0
CYZV 021900Z CCA 16011G16KT 30SM FEW060 FEW080 SCT260 11/05 A3028 RMK FU1CU1AC1CI3 CU TR AC TR SLP257,CYZV,2023-06-02T19:00:00Z,50.22,-66.27,11.0,5.0,160,11,16,30.0,30.280512,1025.7,,,,,,,,,,FEW,6000,FEW,8000,SCT,26000,,,VFR,,,,,,,,,,,,SPECI,43.0
CYZU 021900Z 11008KT 030V140 15SM FEW060 20/06 A3009 RMK CU1 SLP197 DENSITY ALT 3600FT,CYZU,2023-06-02T19:00:00Z,54.15,-115.78,20.0,6.0,110,8,,15.0,30.088583,1019.7,,,,,,,,,,FEW,6000,,,,,,,VFR,,,,,,,,,,,,METAR,785.0
CYZT 021900Z 09008KT 20SM FEW030 SCT100 BKN180 BKN210 14/08 A3006 RMK CU1AC3AC2CI1 SLP183,CYZT,2023-06-02T19:00:00Z,50.68,-127.37,14.0,8.0,90,8,,20.0,30.059055,1018.3,,,,,,,,,,FEW,3000,SCT,10000,BKN,18000,BKN,21000,VFR,,,,,,,,,,,,METAR,13.0
CYZS 021900Z 23016G23KT 15SM BKN130 02/M01 A3038 RMK AC7 SLP296,CYZS,2023-06-02T19:00:00Z,64.2,-83.35,2.0,-1.0,230,16,23,15.0,30.380905,1029.6,,,,,,,,,,BKN,13000,,,,,,,VFR,,,,,,,,,,,,METAR,60.0
CYZR 021900Z AUTO 36009G17KT 9SM CLR 23/14 A3007 RMK SLP183 DENSITY ALT 1600FT,CYZR,2023-06-02T19:00:00Z,43.0,-82.3,23.0,14.0,360,9,17,9.0,30.070866,1018.3,,TRUE,,,,,,,,CLR,,,,,,,,VFR,,,,,,,,,,,,METAR,181.0
CYZP 021900Z AUTO 13018G25KT 9SM CLR 13/10 A2992 RMK SLP135,CYZP,2023-06-02T19:00:00Z,53.25,-131.82,13.0,10.0,130,18,25,9.0,29.920275,1013.5,,TRUE,,,,,,,,CLR,,,,,,,,VFR,,,,,,,,,,,,METAR,7.0
CYZH 021900Z AUTO 33005KT 9SM CLR 17/07 A3008 RMK SLP198 DENSITY ALT 2400FT,CYZH,2023-06-02T19:00:00Z,55.28,-114.77,17.0,7.0,330,5,,9.0,30.079725,1019.8,,TRUE,,,,,,,,CLR,,,,,,,,VFR,,,,,,,,,,,,METAR,583.0
CYZG 021900Z 22016KT 15SM FEW060 BKN150 BKN190 07/M02 A3052 RMK SC1AS4CS2 SLP355,CYZG,2023-06-02T19:00:00Z,62.17,-75.67,7.0,-2.0,220,16,,15.0,30.519686,1035.5,,,,,,,,,,FEW,6000,BKN,15000,BKN,19000,,,VFR,,,,,,,,,,,,METAR,217.0
CYZF 021900Z 20008KT 15SM FEW030 FEW160 20/M07 A3011 RMK SC1AC1 SC TR SLP206 DENSITY ALT 1300FT,CYZF,2023-06-02T19:00:00Z,62.47,-114.45,20.0,-7.0,200,8,,15.0,30.109253,1020.6,,,,,,,,,,FEW,3000,FEW,16000,,,,,VFR,,,,,,,,,,,,SPECI,202.0
CYZE 021900Z AUTO 35008KT 330V080 9SM CLR 30/16 A3008 RMK SLP187 DENSITY ALT 2400FT,CYZE,2023-06-02T19:00:00Z,45.88,-82.57,30.0,16.0,350,8,,9.0,30.079725,1018.7,,TRUE,,,,,,,,CLR,,,,,,,,VFR,,,,,,,,,,,,METAR,189.0
CYYZ 021900Z 03013G19KT 15SM FEW065 SCT160 BKN250 31/14 A3000 RMK CU1AC4CI3 CU TR SLP158 DENSITY ALT 2500FT,CYYZ,2023-06-02T19:00:00Z,43.67,-79.62,31.0,14.0,30,13,19,15.0,30.0,1015.8,,,,,,,,,,FEW,6500,SCT,16000,BKN,25000,,,VFR,,,,,,,,,,,,SPECI,171.0
CYYW 021900Z AUTO 13010KT 110V170 9SM CLR 25/16 A3018 RMK SLP211 DENSITY ALT 2200FT,CYYW,2023-06-02T19:00:00Z,50.3,-88.9,25.0,16.0,130,10,,9.0,30.180119,1021.1,,TRUE,,,,,,,,CLR,,,,,,,,VFR,,,,,,,,,,,,METAR,320.0
CYYU 021900Z VRB02KT 15SM FEW150 27/09 A3019 RMK AC1 SLP227 DENSITY ALT 2000FT,CYYU,2023-06-02T19:00:00Z,49.42,-82.47,27.0,9.0,0,2,,15.0,30.188976,1022.7,,,,,,,,,,FEW,15000,,,,,,,VFR,,,,,,,,,,,,METAR,228.0
CYYT 021900Z 03008KT 1/4SM R16/2000V2600FT/N FG VV001 08/08 A3003 RMK FG8 SLP175,CYYT,2023-06-02T19:00:00Z,47.62,-52.73,8.0,8.0,30,8,,0.25,30.029528,1017.5,,,,,,,,,FG,OVX,0,,,,,,,LIFR,,,,,,,,,,,100,SPECI,128.0
CYYR 021900Z 05017G24KT 15SM BKN036 06/M01 A3048 RMK SC7 DENSITY ALT -1453FT SLP323,CYYR,2023-06-02T19:00:00Z,53.32,-60.42,6.0,-1.0,50,17,24,15.0,30.481298,1032.3,,,,,,,,,,BKN,3600,,,,,,,VFR,,,,,,,,,,,,SPECI,42.0
CYYQ 021900Z 13010KT 15SM SCT065 BKN250 16/07 A3016 RMK SC3CI3 SLP218,CYYQ,2023-06-02T19:00:00Z,58.75,-94.07,16.0,7.0,130,10,,15.0,30.159449,1021.8,,,,,,,,,,SCT,6500,BKN,25000,,,,,VFR,,,,,,,,,,,,SPECI,20.0
CYYL 021900Z AUTO 10008KT 9SM BKN020 19/14 A3005 RMK SLP186 DENSITY ALT 1800FT,CYYL,2023-06-02T19:00:00Z,56.87,-101.07,19.0,14.0,100,8,,9.0,30.050198,1018.6,,TRUE,,,,,,,,BKN,2000,,,,,,,MVFR,,,,,,,,,,,,METAR,351.0
CYYJ 021900Z 13011KT 30SM FEW250 19/05 A3009 RMK CI2 SLP191 DENSITY ALT 300FT,CYYJ,2023-06-02T19:00:00Z,48.63,-123.42,19.0,5.0,130,11,,30.0,30.088583,1019.1,,,,,,,,,,FEW,25000,,,,,,,VFR,,,,,,,,,,,,SPECI,16.0
CYYG 021900Z 01012G17KT 6SM BR OVC007 09/07 A3002 RMK SF8 SLP171,CYYG,2023-06-02T19:00:00Z,46.28,-63.12,9.0,7.0,10,12,17,6.0,30.02067,1017.1,,,,,,,,,BR,OVC,700,,,,,,,IFR,,,,,,,,,,,,METAR,48.0
CYYF 021900Z 17010KT 15SM SKC 24/06 A2995 RMK SLP140 DENSITY ALT 2500FT,CYYF,2023-06-02T19:00:00Z,49.47,-119.6,24.0,6.0,170,10,,15.0,29.949802,1014.0,,,,,,,,,,SKC,,,,,,,,VFR,,,,,,,,,,,,METAR,342.0
CYYE 021900Z 11007KT 1SM FU VV022 18/02 A3004 RMK FU8 SLP186 DENSITY ALT 1800FT,CYYE,2023-06-02T19:00:00Z,58.83,-122.58,18.0,2.0,110,7,,1.0,30.041338,1018.6,,,,,,,,,FU,OVX,0,,,,,,,LIFR,,,,,,,,,,,2200,METAR,379.0
CYYD 021900Z 00000KT 25SM FEW080 SCT120 BKN220 17/03 A2998 RMK CU2AC2CI2 SLP161 DENSITY ALT 2300FT,CYYD,2023-06-02T19:00:00Z,54.82,-127.18,17.0,3.0,0,0,,25.0,29.97933,1016.1,,,,,,,,,,FEW,8000,SCT,12000,BKN,22000,,,VFR,,,,,,,,,,,,METAR,527.0
CYYC 021900Z 14007KT 360V160 20SM SCT040 OVC250 18/07 A3012 RMK CF3CI5 CONTRAILS SLP213 DENSITY ALT 4600FT,CYYC,2023-06-02T19:00:00Z,51.12,-114.02,18.0,7.0,140,7,,20.0,30.121063,1021.3,,,,,,,,,,SCT,4000,OVC,25000,,,,,VFR,,,,,,,,,,,,SPECI,1085.0
CYYB 021900Z 36010G16KT 320V030 25SM FEW060 FEW160 BKN280 29/14 A3009 RMK CU1AC1CI4 SLP186 DENSITY ALT 3000FT,CYYB,2023-06-02T19:00:00Z,46.35,-79.42,29.0,14.0,360,10,16,25.0,30.088583,1018.6,,,,,,,,,,FEW,6000,FEW,16000,BKN,28000,,,VFR,,,,,,,,,,,,METAR,360.0
CYXZ 021900Z 04009KT 360V060 15SM FEW040 SCT045TCU OVC250 29/16 A3014 RMK CU1TCU2CI5 SLP210 DENSITY ALT 2500FT,CYXZ,2023-06-02T19:00:00Z,47.97,-84.77,29.0,16.0,40,9,,15.0,30.138779,1021.0,,,,,,,,,,FEW,4000,SCT,4500,OVC,25000,,,VFR,,,,,,,,,,,,METAR,287.0
CYXY 021900Z 16012G21KT 40SM SCT066 BKN120 BKN260 14/M01 A2990 RMK CU4AC1CI2 SLP147 DENSITY ALT 2800FT,CYXY,2023-06-02T19:00:00Z,60.72,-135.07,14.0,-1.0,160,12,21,40.0,29.899607,1014.7,,,,,,,,,,SCT,6600,BKN,12000,BKN,26000,,,VFR,,,,,,,,,,,,SPECI,677.0
CYXX 021900Z 23009G15KT 30SM FEW060 FEW240 19/07 A3010 RMK SC1CI2 SC TR SLP194 DENSITY ALT 500FT,CYXX,2023-06-02T19:00:00Z,49.03,-122.38,19.0,7.0,230,9,15,30.0,30.100393,1019.4,,,,,,,,,,FEW,6000,FEW,24000,,,,,VFR,,,,,,,,,,,,SPECI,54.0
CYXU 021900Z 35010G19KT 330V040 15SM SCT092 BKN280 31/13 A3004 RMK CU4CI3 SLP168 DENSITY ALT 2900FT,CYXU,2023-06-02T19:00:00Z,43.03,-81.15,31.0,13.0,350,10,19,15.0,30.041338,1016.8,,,,,,,,,,SCT,9200,BKN,28000,,,,,VFR,,,,,,,,,,,,SPECI,278.0
CYXT 021900Z 16009KT 20SM FEW040 BKN080 BKN140 14/06 A3003 RMK CU1AC4AC2 SLP176,CYXT,2023-06-02T19:00:00Z,54.47,-128.57,14.0,6.0,160,9,,20.0,30.029528,1017.6,,,,,,,,,,FEW,4000,BKN,8000,BKN,14000,,,VFR,,,,,,,,,,,,METAR,213.0
CYXS 021900Z AUTO VRB02KT 9SM FEW100 SCT120 19/03 A2998 RMK SLP168 DENSITY ALT 3200FT,CYXS,2023-06-02T19:00:00Z,53.88,-122.68,19.0,3.0,0,2,,9.0,29.97933,1016.8,,TRUE,,,,,,,,FEW,10000,SCT,12000,,,,,VFR,,,,,,,,,,,,METAR,685.0
CYXR 021900Z AUTO 02013G18KT 9SM CLR 29/13 A3011 RMK SLP198 DENSITY ALT 2400FT,CYXR,2023-06-02T19:00:00Z,47.7,-79.85,29.0,13.0,20,13,18,9.0,30.109253,1019.8,,TRUE,,,,,,,,CLR,,,,,,,,VFR,,,,,,,,,,,,METAR,244.0
CYXQ 021900Z 36003KT 30SM FEW080 SCT250 13/M06 A2979 RMK AC1CI2 SLP113 DENSITY ALT 2500FT,CYXQ,2023-06-02T19:00:00Z,62.42,-140.87,13.0,-6.0,360,3,,30.0,29.790354,1011.3,,,,,,,,,,FEW,8000,SCT,25000,,,,,VFR,,,,,,,,,,,,METAR,663.0
CYXP 021900Z 26012KT 15SM FEW015 FEW120 BKN210 M00/M03 A3040 RMK SC1AC1CS5 SLP298,CYXP,2023-06-02T19:00:00Z,66.15,-65.72,0.0,-3.0,260,12,,15.0,30.398623,1029.8,,,,,,,,,,FEW,1500,FEW,12000,BKN,21000,,,VFR,,,,,,,,,,,,METAR,29.0
CYXN 021900Z 18017KT 15SM SKC 03/M00 A3025 RMK SLP248,CYXN,2023-06-02T19:00:00Z,62.23,-92.58,3.0,0.0,180,17,,15.0,30.250984,1024.8,,,,,,,,,,SKC,,,,,,,,VFR,,,,,,,,,,,,METAR,9.0
CYXL 021900Z 17006KT 120V260 15SM FEW036 BKN150 BKN220 29/17 A3011 RMK CU2AC3CI2 TCU ASOCTD SLP199 DENSITY ALT 2900FT,CYXL,2023-06-02T19:00:00Z,50.12,-91.9,29.0,17.0,170,6,,15.0,30.109253,1019.9,,,,,,,,,,FEW,3600,BKN,15000,BKN,22000,,,VFR,,,,,,,,,,,,METAR,381.0
CYXJ 021900Z 12012KT 60SM FEW076 BKN100 21/03 A3005 RMK CU1AC4 SLP185 DENSITY ALT 3400FT,CYXJ,2023-06-02T19:00:00Z,56.25,-120.73,21.0,3.0,120,12,,60.0,30.050198,1018.5,,,,,,,,,,FEW,7600,BKN,10000,,,,,VFR,,,,,,,,,,,,METAR,700.0
CYXH 021900Z 01010G16KT 350V060 15SM FEW070 OVC180 20/09 A3006 RMK CU2AC6 SLP182 DENSITY ALT 3400FT,CYXH,2023-06-02T19:00:00Z,50.02,-110.72,20.0,9.0,10,10,16,15.0,30.059055,1018.2,,,,,,,,,,FEW,7000,OVC,18000,,,,,VFR,,,,,,,,,,,,METAR,717.0
CYXE 021900Z 32005KT 280V060 12SM OVC025 21/15 A3000 RMK SC8 SLP166 DENSITY ALT 2700FT,CYXE,2023-06-02T19:00:00Z,52.17,-106.7,21.0,15.0,320,5,,12.0,30.0,1016.6,,,,,,,,,,OVC,2500,,,,,,,MVFR,,,,,,,,,,,,METAR,504.0
CYXC 021900Z VRB04KT 25SM FEW070 FEW110 SCT240 23/08 A3001 RMK CU1AC1CI3 AC TR SLP156 DENSITY ALT 4600FT,CYXC,2023-06-02T19:00:00Z,49.6,-115.78,23.0,8.0,0,4,,25.0,30.008858,1015.6,,,,,,,,,,FEW,7000,FEW,11000,SCT,24000,,,VFR,,,,,,,,,,,,METAR,928.0
CYWL 021900Z 16005KT 140V270 15SM FEW060 BKN200 18/01 A3000 RMK CU1CI5 CU TR SLP164 DENSITY ALT 4100FT,CYWL,2023-06-02T19:00:00Z,52.18,-122.07,18.0,1.0,160,5,,15.0,30.0,1016.4,,,,,,,,,,FEW,6000,BKN,20000,,,,,VFR,,,,,,,,,,,,METAR,942.0
CYWK 021900Z 03015G21KT 15SM VCBLDU SKC 10/M01 A3038 RMK SLP311,CYWK,2023-06-02T19:00:00Z,52.92,-66.87,10.0,-1.0,30,15,21,15.0,30.380905,1031.1,,,,,,,,,VCBLDU,SKC,,,,,,,,VFR,,,,,,,,,,,,SPECI,547.0
CYWJ 021900Z 17005KT 120V200 50SM FEW030 FEW090 18/M02 A2993 RMK CU1AC1 SLP148 DENSITY ALT 1300FT,CYWJ,2023-06-02T19:00:00Z,65.22,-123.43,18.0,-2.0,170,5,,50.0,29.929134,1014.8,,,,,,,,,,FEW,3000,FEW,9000,,,,,VFR,,,,,,,,,,,,METAR,208.0
CYWH 021900Z 20006KT 170V230 15SM FEW020 SCT240 15/07 A3011 RMK CU1CI3 CU TR SLP198,CYWH,2023-06-02T19:00:00Z,48.42,-123.38,15.0,7.0,200,6,,15.0,30.109253,1019.8,,,,,,,,,,FEW,2000,SCT,24000,,,,,VFR,,,,,,,,,,,,METAR,4.0
CYWG 021900Z CCA 14012KT 15SM SCT074 BKN250 32/16 A2997 RMK CU3CI4 SLP149 DENSITY ALT 2900FT,CYWG,2023-06-02T19:00:00Z,49.9,-97.23,32.0,16.0,140,12,,15.0,29.970472,1014.9,,,,,,,,,,SCT,7400,BKN,25000,,,,,VFR,,,,,,,,,,,,SPECI,238.0
CYWE 021900Z AUTO 23006KT 9SM CLR 18/00 A3012 RMK SLP214 DENSITY ALT 1600FT,CYWE,2023-06-02T19:00:00Z,64.18,-114.08,18.0,0.0,230,6,,9.0,30.121063,1021.4,,TRUE,,,,,,,,CLR,,,,,,,,VFR,,,,,,,,,,,,METAR,374.0
CYWA 021900Z 03004KT 350V050 8SM FEW065TCU BKN090 OVC210 29/18 A3001 RMK TCU1AC6CI1 DENSITY ALT 2332FT FU SLP163,CYWA,2023-06-02T19:00:00Z,45.95,-77.32,29.0,18.0,30,4,,8.0,30.008858,1016.3,,,,,,,,,,FEW,6500,BKN,9000,OVC,21000,,,VFR,,,,,,,,,,,,METAR,121.0
CYVV 021900Z 02004KT 330V050 15SM FEW150 BKN250 27/17 A3008 RMK ACC1CC7 ACC TR CI ASOCTD SLP186 DENSITY ALT 2100FT,CYVV,2023-06-02T19:00:00Z,44.75,-81.1,27.0,17.0,20,4,,15.0,30.079725,1018.6,,,,,,,,,,FEW,15000,BKN,25000,,,,,VFR,,,,,,,,,,,,METAR,221.0
CYVR 021900Z 16006KT 110V220 20SM FEW050 FEW220 19/07 A3010 RMK CU1CI1 CU TR SLP196 DENSITY ALT 300FT,CYVR,2023-06-02T19:00:00Z,49.17,-123.17,19.0,7.0,160,6,,20.0,30.100393,1019.6,,,,,,,,,,FEW,5000,FEW,22000,,,,,VFR,,,,,,,,,,,,SPECI,2.0
CYVQ 021900Z 13009KT 070V160 30SM FEW050 FEW080 21/M05 A2987 RMK SC1AC1 SC TR AC TR SLP118 DENSITY ALT 1100FT,CYVQ,2023-06-02T19:00:00Z,65.27,-126.78,21.0,-5.0,130,9,,30.0,29.870079,1011.8,,,,,,,,,,FEW,5000,FEW,8000,,,,,VFR,,,,,,,,,,,,METAR,63.0
CYVP 021900Z 09006KT 060V120 15SM SKC 09/M02 A3060 RMK SLP367,CYVP,2023-06-02T19:00:00Z,58.12,-68.42,9.0,-2.0,90,6,,15.0,30.59941,1036.7,,,,,,,,,,SKC,,,,,,,,VFR,,,,,,,,,,,,SPECI,28.0
CYVO 021900Z 35014KT 15SM FEW320 28/05 A3012 RMK CI2 SLP202 DENSITY ALT 2700FT,CYVO,2023-06-02T19:00:00Z,48.07,-77.77,28.0,5.0,350,14,,15.0,30.121063,1020.2,,,,,,,,,,FEW,32000,,,,,,,VFR,,,,,,,,,,,,METAR,329.0
CYVM 021900Z 20005KT 15SM FEW110 SCT140 BKN250 02/M04 A3020 RMK AC1AC2CS3 SLP227,CYVM,2023-06-02T19:00:00Z,67.55,-64.02,2.0,-4.0,200,5,,15.0,30.200787,1022.7,,,,,,,,,,FEW,11000,SCT,14000,BKN,25000,,,VFR,,,,,,,,,,,,METAR,3.0
CYVL 021900Z AUTO 18012KT 9SM CLR 17/00 A2986 RMK SLP125 DENSITY ALT 1500FT,CYVL,2023-06-02T19:00:00Z,67.02,-126.13,17.0,0.0,180,12,,9.0,29.861221,1012.5,,TRUE,,,,,,,,CLR,,,,,,,,VFR,,,,,,,,,,,,METAR,261.0
CYVC 021900Z 16002KT 15SM SCT012 OVC025 19/16 A3001 RMK SC4SC8 SLP171 DENSITY ALT 1900FT,CYVC,2023-06-02T19:00:00Z,55.15,-105.27,19.0,16.0,160,2,,15.0,30.008858,1017.1,,,,,,,,,,SCT,1200,OVC,2500,,,,,MVFR,,,,,,,,,,,,METAR,378.0
CYUY 021900Z 36008G16KT 340V060 15SM FEW220 28/06 A3012 RMK CI1 CI TR SLP203 DENSITY ALT 2500FT,CYUY,2023-06-02T19:00:00Z,48.2,-78.82,28.0,6.0,360,8,16,15.0,30.121063,1020.3,,,,,,,,,,FEW,22000,,,,,,,VFR,,,,,,,,,,,,SPECI,304.0
CYUX 021900Z 21010KT 10SM OVC018 01/01 A2997 RMK SC8 SLP151,CYUX,2023-06-02T19:00:00Z,68.77,-81.22,1.0,1.0,210,10,,10.0,29.970472,1015.1,,,,,,,,,,OVC,1800,,,,,,,MVFR,,,,,,,,,,,,METAR,8.0
CYUT 021900Z 21008G16KT 15SM BKN020 04/01 A3011 RMK SC6 SLP202,CYUT,2023-06-02T19:00:00Z,66.52,-86.22,4.0,1.0,210,8,16,15.0,30.109253,1020.2,,,,,,,,,,BKN,2000,,,,,,,MVFR,,,,,,,,,,,,METAR,22.0
CYUB 021900Z 19016G21KT 15SM SCT090 BKN220 14/04 A2969 RMK AS4CI3 SLP057,CYUB,2023-06-02T19:00:00Z,69.43,-133.02,14.0,4.0,190,16,21,15.0,29.68996,1005.7,,,,,,,,,,SCT,9000,BKN,22000,,,,,VFR,,,,,,,,,,,,METAR,5.0
CYTZ 021900Z AUTO 32009KT 290V070 9SM CLR 31/16 A2998 RMK SLP153 DENSITY ALT 2100FT,CYTZ,2023-06-02T19:00:00Z,43.63,-79.4,31.0,16.0,320,9,,9.0,29.97933,1015.3,,TRUE,,,,,,,,CLR,,,,,,,,VFR,,,,,,,,,,,,METAR,76.0
CYTS 021900Z 06008KT 010V080 15SM SKC 28/11 A3017 RMK SLP219 DENSITY ALT 2400FT,CYTS,2023-06-02T19:00:00Z,48.57,-81.37,28.0,11.0,60,8,,15.0,30.171259,1021.9,,,,,,,,,,SKC,,,,,,,,VFR,,,,,,,,,,,,METAR,290.0
CYTQ 021900Z 07006KT 050V190 15SM FEW240 11/M02 A3059 RMK CI1 SLP363,CYTQ,2023-06-02T19:00:00Z,58.67,-69.95,11.0,-2.0,70,6,,15.0,30.590551,1036.3,,,,,,,,,,FEW,24000,,,,,,,VFR,,,,,,,,,,,,METAR,14.0
CYTL 021900Z AUTO 14007G15KT 9SM FEW066 23/10 A3019 RMK SLP232 DENSITY ALT 1600FT,CYTL,2023-06-02T19:00:00Z,53.82,-89.88,23.0,10.0,140,7,15,9.0,30.188976,1023.2,,TRUE,,,,,,,,FEW,6600,,,,,,,VFR,,,,,,,,,,,,SPECI,218.0
CYTH 021900Z VRB04KT 15SM BKN200 23/13 A3007 RMK CI5 SLP190 DENSITY ALT 1700FT,CYTH,2023-06-02T19:00:00Z,55.8,-97.83,23.0,13.0,0,4,,15.0,30.070866,1019.0,,,,,,,,,,BKN,20000,,,,,,,VFR,,,,,,,,,,,,METAR,212.0
CYTE 021900Z 25015G22KT 15SM OVC090 00/M03 A3043 RMK AC8 SLP312,CYTE,2023-06-02T19:00:00Z,64.22,-76.52,0.0,-3.0,250,15,22,15.0,30.431103,1031.2,,,,,,,,,,OVC,9000,,,,,,,VFR,,,,,,,,,,,,SPECI,49.0
CYSP 021900Z 07007KT 020V100 12SM FEW130 BKN150 BKN160 OVC200 26/16 A3017 RMK AC2AC4AC1CI1 HZ SLP219 DENSITY ALT 2300FT,CYSP,2023-06-02T19:00:00Z,48.75,-86.35,26.0,16.0,70,7,,12.0,30.171259,1021.9,,,,,,,,,,FEW,13000,BKN,15000,BKN,16000,OVC,20000,VFR,,,,,,,,,,,,METAR,312.0
CYSN 021900Z 36007KT 320V030 15SM FEW140 BKN250 31/15 A2998 RMK AC2CI5 TCU TOPS DIST NE SLP153 DENSITY ALT 2200FT,CYSN,2023-06-02T19:00:00Z,43.2,-79.17,31.0,15.0,360,7,,15.0,29.97933,1015.3,,,,,,,,,,FEW,14000,BKN,25000,,,,,VFR,,,,,,,,,,,,METAR,96.0
CYSM 021900Z 04012KT 020V080 4SM FU OVC050 22/03 A3010 RMK FU8 SLP199 DENSITY ALT 1400FT,CYSM,2023-06-02T19:00:00Z,60.03,-111.92,22.0,3.0,40,12,,4.0,30.100393,1019.9,,,,,,,,,FU,OVC,5000,,,,,,,MVFR,,,,,,,,,,,,METAR,203.0
CYSK 021900Z 08012KT 15SM SCT140 08/M01 A3051 RMK AS3 SLP334,CYSK,2023-06-02T19:00:00Z,56.53,-79.25,8.0,-1.0,80,12,,15.0,30.510826,1033.4,,,,,,,,,,SCT,14000,,,,,,,VFR,,,,,,,,,,,,METAR,28.0
CYSJ 021900Z 02019G25KT 15SM FEW025 BKN080 BKN120 14/09 A3000 RMK SC1AC5AC1 SLP163,CYSJ,2023-06-02T19:00:00Z,45.32,-65.88,14.0,9.0,20,19,25,15.0,30.0,1016.3,,,,,,,,,,FEW,2500,BKN,8000,BKN,12000,,,VFR,,,,,,,,,,,,SPECI,89.0
CYSF 021900Z AUTO 09006KT 040V150 9SM FEW042 BKN110 18/15 A3002 RMK SLP174 DENSITY ALT 1300FT,CYSF,2023-06-02T19:00:00Z,59.25,-105.83,18.0,15.0,90,6,,9.0,30.02067,1017.4,,TRUE,,,,,,,,FEW,4200,BKN,11000,,,,,VFR,,,,,,,,,,,,METAR,238.0
CYSC 021900Z AUTO 30005KT 250V010 9SM SCT066 BKN250 30/16 A2991 RMK SLP130 DENSITY ALT 2700FT,CYSC,2023-06-02T19:00:00Z,45.43,-71.68,30.0,16.0,300,5,,9.0,29.911417,1013.0,,TRUE,,,,,,,,SCT,6600,BKN,25000,,,,,VFR,,,,,,,,,,,,METAR,236.0
CYSB 021900Z 04008G15KT 010V080 20SM SCT055CB BKN240 29/15 A3011 RMK CB3CI2 CB NW SLP195 DENSITY ALT 2800FT,CYSB,2023-06-02T19:00:00Z,46.63,-80.8,29.0,15.0,40,8,15,20.0,30.109253,1019.5,,,,,,,,,,SCT,5500,BKN,24000,,,,,VFR,,,,,,,,,,,,METAR,349.0
CYRT 021900Z 17013KT 15SM FEW020 FEW160 BKN260 04/00 A3025 RMK SC1AC1CI4 SC TR FU ALF SLP250,CYRT,2023-06-02T19:00:00Z,62.82,-92.12,4.0,0.0,170,13,,15.0,30.250984,1025.0,,,,,,,,,,FEW,2000,FEW,16000,BKN,26000,,,VFR,,,,,,,,,,,,METAR,29.0
CYRQ 021900Z AUTO 07012G17KT 9SM CLR 27/16 A2994 RMK SLP141 DENSITY ALT 1700FT,CYRQ,2023-06-02T19:00:00Z,46.35,-72.68,27.0,16.0,70,12,17,9.0,29.940945,1014.1,,TRUE,,,,,,,,CLR,,,,,,,,VFR,,,,,,,,,,,,METAR,58.0
CYRL 021900Z 12009KT 15SM FEW036 BKN240 28/18 A3007 RMK CU2CI4 SLP185 DENSITY ALT 3000FT,CYRL,2023-06-02T19:00:00Z,51.07,-93.78,28.0,18.0,120,9,,15.0,30.070866,1018.5,,,,,,,,,,FEW,3600,BKN,24000,,,,,VFR,,,,,,,,,,,,METAR,370.0
CYRJ 021900Z 11007KT 080V140 20SM OVC025 18/12 A3013 RMK SC8 SLP207 DENSITY ALT 800FT,CYRJ,2023-06-02T19:00:00Z,48.52,-72.27,18.0,12.0,110,7,,20.0,30.129921,1020.7,,,,,,,,,,OVC,2500,,,,,,,MVFR,,,,,,,,,,,,METAR,173.0
CYRB 021900Z 11021KT 7SM -SHSN SCT013 OVC027 M01/M02 A2980 RMK ST3SC5 SLP099,CYRB,2023-06-02T19:00:00Z,74.72,-94.97,-1.0,-2.0,110,21,,7.0,29.799213,1009.9,,,,,,,,,-SHSN,SCT,1300,OVC,2700,,,,,MVFR,,,,,,,,,,,,SPECI,59.0
CYRA 021900Z 16005KT 130V210 15SM FEW010 19/00 A3009 RMK CU1 SLP198 DENSITY ALT 1300FT,CYRA,2023-06-02T19:00:00Z,64.12,-117.32,19.0,0.0,160,5,,15.0,30.088583,1019.8,,,,,,,,,,FEW,1000,,,,,,,VFR,,,,,,,,,,,,METAR,232.0
CYQZ 021900Z AUTO VRB02KT 9SM FEW100 19/04 A2997 RMK SLP161 DENSITY ALT 2600FT,CYQZ,2023-06-02T19:00:00Z,53.02,-122.52,19.0,4.0,0,2,,9.0,29.970472,1016.1,,TRUE,,,,,,,,FEW,10000,,,,,,,VFR,,,,,,,,,,,,METAR,548.0
CYQW 021900Z AUTO 32009KT 9SM OVC028 18/15 A3004 RMK SLP182 DENSITY ALT 2400FT,CYQW,2023-06-02T19:00:00Z,52.77,-108.25,18.0,15.0,320,9,,9.0,30.041338,1018.2,,TRUE,,,,,,,,OVC,2800,,,,,,,MVFR,,,,,,,,,,,,METAR,545.0
CYQV 021900Z AUTO 07003KT 050V120 9SM SCT091 SCT110 SCT140 24/19 A2999 RMK SLP160 DENSITY ALT 3000FT,CYQV,2023-06-02T19:00:00Z,51.27,-102.47,24.0,19.0,70,3,,9.0,29.991142,1016.0,,TRUE,,,,,,,,SCT,9100,SCT,11000,SCT,14000,,,VFR,,,,,,,,,,,,METAR,493.0
CYQU 021900Z 12010G16KT 25SM FEW075 SCT220 20/05 A3004 RMK CU1CI2 SLP185 DENSITY ALT 3200FT,CYQU,2023-06-02T19:00:00Z,55.18,-118.88,20.0,5.0,120,10,16,25.0,30.041338,1018.5,,,,,,,,,,FEW,7500,SCT,22000,,,,,VFR,,,,,,,,,,,,METAR,668.0
CYQT 021900Z 10008KT 20SM BKN270 23/16 A3016 RMK CI6 SLP218 DENSITY ALT 1500FT,CYQT,2023-06-02T19:00:00Z,48.37,-89.32,23.0,16.0,100,8,,20.0,30.159449,1021.8,,,,,,,,,,BKN,27000,,,,,,,VFR,,,,,,,,,,,,METAR,197.0
CYQQ 021900Z 14008KT 20SM FEW040 BKN230 18/10 A3009 RMK CU1CI7 DENSITY ALT 457FT SLP189,CYQQ,2023-06-02T19:00:00Z,49.72,-124.9,18.0,10.0,140,8,,20.0,30.088583,1018.9,,,,,,,,,,FEW,4000,BKN,23000,,,,,VFR,,,,,,,,,,,,SPECI,24.0
CYQL 021900Z VRB04KT 15SM FEW032 BKN270 17/08 A3010 RMK CU1CS6 HALO SLP202 DENSITY ALT 3800FT,CYQL,2023-06-02T19:00:00Z,49.63,-112.8,17.0,8.0,0,4,,15.0,30.100393,1020.2,,,,,,,,,,FEW,3200,BKN,27000,,,,,VFR,,,,,,,,,,,,METAR,923.0
CYQK 021900Z 15009KT 130V210 20SM FEW044 BKN250 28/18 A3007 RMK CU2CI4 SLP181 DENSITY ALT 3100FT,CYQK,2023-06-02T19:00:00Z,49.78,-94.37,28.0,18.0,150,9,,20.0,30.070866,1018.1,,,,,,,,,,FEW,4400,BKN,25000,,,,,VFR,,,,,,,,,,,,METAR,413.0
CYQI 021900Z 30007KT 270V340 12SM FEW025TCU FEW100 SCT250 20/13 A2987 RMK TCU1AC1CI2 HAZY SLP118 DENSITY ALT 900FT,CYQI,2023-06-02T19:00:00Z,43.83,-66.08,20.0,13.0,300,7,,12.0,29.870079,1011.8,,,,,,,,,,FEW,2500,FEW,10000,SCT,25000,,,VFR,,,,,,,,,,,,METAR,37.0
CYQH 021900Z 15007KT 070V180 30SM BKN110 OVC240 15/M02 A2998 RMK AC5CI3 SLP171 DENSITY ALT 2700FT,CYQH,2023-06-02T19:00:00Z,60.12,-128.82,15.0,-2.0,150,7,,30.0,29.97933,1017.1,,,,,,,,,,BKN,11000,OVC,24000,,,,,VFR,,,,,,,,,,,,METAR,692.0
CYQG 021900Z AUTO 04011G18KT 9SM CLR 31/12 A3005 RMK SLP174 DENSITY ALT 2400FT,CYQG,2023-06-02T19:00:00Z,42.27,-82.97,31.0,12.0,40,11,18,9.0,30.050198,1017.4,,TRUE,,,,,,,,CLR,,,,,,,,VFR,,,,,,,,,,,,SPECI,189.0
CYQF 021900Z AUTO 16003KT 070V240 9SM SCT043 19/07 A3011 RMK SLP210 DENSITY ALT 3900FT,CYQF,2023-06-02T19:00:00Z,52.17,-113.9,19.0,7.0,160,3,,9.0,30.109253,1021.0,,TRUE,,,,,,,,SCT,4300,,,,,,,VFR,,,,,,,,,,,,METAR,912.0
CYQD 021900Z AUTO 12008KT 060V150 9SM FEW110 BKN140 20/17 A3001 RMK SLP170 DENSITY ALT 1600FT,CYQD,2023-06-02T19:00:00Z,53.97,-101.08,20.0,17.0,120,8,,9.0,30.008858,1017.0,,TRUE,,,,,,,,FEW,11000,BKN,14000,,,,,VFR,,,,,,,,,,,,METAR,268.0
CYQB 021900Z 07023G30KT 15SM FEW015 BKN075 15/10 A3005 RMK CF1AC5 CF TR TCU EMBD HAZY SLP178,CYQB,2023-06-02T19:00:00Z,46.78,-71.38,15.0,10.0,70,23,30,15.0,30.050198,1017.8,,,,,,,,,,FEW,1500,BKN,7500,,,,,VFR,,,,,,,,,,,,SPECI,73.0
CYPX 021900Z AUTO 23006KT 170V250 9SM CLR 12/M03 A3056 RMK SLP353,CYPX,2023-06-02T19:00:00Z,60.03,-77.27,12.0,-3.0,230,6,,9.0,30.561024,1035.3,,TRUE,,,,,,,,CLR,,,,,,,,VFR,,,,,,,,,,,,METAR,10.0
CYPW 021900Z 11006KT 070V180 30SM FEW041 BKN220 19/09 A3009 RMK CU1CS6 CU TR HALO CONTRAILS SLP191 DENSITY ALT 900FT,CYPW,2023-06-02T19:00:00Z,49.83,-124.5,19.0,9.0,110,6,,30.0,30.088583,1019.1,,,,,,,,,,FEW,4100,BKN,22000,,,,,VFR,,,,,,,,,,,,METAR,122.0
CYPR 021900Z AUTO 16007G15KT 9SM SCT060 13/08 A2999 RMK SLP158,CYPR,2023-06-02T19:00:00Z,54.28,-130.45,13.0,8.0,160,7,15,9.0,29.991142,1015.8,,TRUE,,,,,,,,SCT,6000,,,,,,,VFR,,,,,,,,,,,,METAR,30.0
CYPO 021900Z AUTO 12010G19KT 060V150 9SM CLR 21/04 A3033 RMK SLP273 DENSITY ALT 500FT,CYPO,2023-06-02T19:00:00Z,54.98,-85.43,21.0,4.0,120,10,19,9.0,30.33071,1027.3,,TRUE,,,,,,,,CLR,,,,,,,,VFR,,,,,,,,,,,,METAR,49.0
CYPH 021900Z AUTO 23007KT 9SM CLR 12/M02 A3054 RMK SLP346,CYPH,2023-06-02T19:00:00Z,58.47,-78.08,12.0,-2.0,230,7,,9.0,30.540354,1034.6,,TRUE,,,,,,,,CLR,,,,,,,,VFR,,,,,,,,,,,,METAR,24.0
CYPG 021900Z 19006KT 10SM TS VCSH SCT060CB BKN075TCU OVC280 30/18 A2996 RMK CB4TCU2CI2 DENSITY ALT 3114FT TS OHD MOV NW CB ALQDS OCNL LTGICCG E SH E SLP143,CYPG,2023-06-02T19:00:00Z,49.9,-98.28,30.0,18.0,190,6,,10.0,29.958662,1014.3,,,,,,,,,TS VCSH,SCT,6000,BKN,7500,OVC,28000,,,VFR,,,,,,,,,,,,METAR,270.0
CYPE 021900Z 10004KT 010V180 15SM FEW080 20/M00 A3009 RMK CU1 CU TR SLP202 DENSITY ALT 2800FT,CYPE,2023-06-02T19:00:00Z,56.22,-117.45,20.0,0.0,100,4,,15.0,30.088583,1020.2,,,,,,,,,,FEW,8000,,,,,,,VFR,,,,,,,,,,,,METAR,572.0
CYPD 021900Z AUTO 15006KT 9SM OVC120 13/02 A2999 RMK SLP161,CYPD,2023-06-02T19:00:00Z,45.67,-61.37,13.0,2.0,150,6,,9.0,29.991142,1016.1,,TRUE,,,,,,,,OVC,12000,,,,,,,VFR,,,,,,,,,,,,METAR,106.0
CYPC 021900Z 12007KT 15SM SCT050 SCT084 BKN140 12/05 A2990 RMK SC4AC1AC1 AC TR CU ASOCTD SLP126,CYPC,2023-06-02T19:00:00Z,69.37,-124.07,12.0,5.0,120,7,,15.0,29.899607,1012.6,,,,,,,,,,SCT,5000,SCT,8400,BKN,14000,,,VFR,,,,,,,,,,,,METAR,5.0
CYPA 021900Z VRB09KT 12SM FEW020 BKN032 OVC270 21/17 A3001 RMK SC2SC5CI1 SLP168 DENSITY ALT 2400FT,CYPA,2023-06-02T19:00:00Z,53.22,-105.67,21.0,17.0,0,9,,12.0,30.008858,1016.8,,,,,,,,,,FEW,2000,BKN,3200,OVC,27000,,,VFR,,,,,,,,,,,,METAR,428.0
CYOY 021900Z 14008G17KT 120V180 15SM SCT065 SCT250 18/11 A3004 RMK CU4CI1 DENSITY ALT 1035FT SLP175,CYOY,2023-06-02T19:00:00Z,46.88,-71.5,18.0,11.0,140,8,17,15.0,30.041338,1017.5,,,,,,,,,,SCT,6500,SCT,25000,,,,,VFR,,,,,,,,,,,,METAR,167.0
CYOW 021900Z 33011G20KT 280V350 15SM FEW070TCU FEW210 BKN250 31/16 A2995 RMK TCU1CI1CI6 TCU TR TCU NE SLP143 DENSITY ALT 2300FT,CYOW,2023-06-02T19:00:00Z,45.32,-75.67,31.0,16.0,330,11,20,15.0,29.949802,1014.3,,,,,,,,,,FEW,7000,FEW,21000,BKN,25000,,,VFR,,,,,,,,,,,,SPECI,111.0
CYOO 021900Z AUTO 34013KT 9SM FEW240 31/15 A2998 RMK LTNG DIST SE SLP152 DENSITY ALT 2400FT,CYOO,2023-06-02T19:00:00Z,43.92,-78.9,31.0,15.0,340,13,,9.0,29.97933,1015.2,,TRUE,,,,,,,,FEW,24000,,,,,,,VFR,,,,,,,,,,,,METAR,136.0
CYOJ 021900Z 10005KT 060V190 12SM FEW084 22/M01 A3008 RMK CF1 CF TR FU SLP199 DENSITY ALT 2100FT,CYOJ,2023-06-02T19:00:00Z,58.62,-117.17,22.0,-1.0,100,5,,12.0,30.079725,1019.9,,,,,,,,,,FEW,8400,,,,,,,VFR,,,,,,,,,,,,METAR,339.0
CYOD 021900Z 35005KT 5SM FU OVC013 16/13 A3006 RMK SC8 DENSITY ALT 2347FT SLP186,CYOD,2023-06-02T19:00:00Z,54.4,-110.28,16.0,13.0,350,5,,5.0,30.059055,1018.6,,,,,,,,,FU,OVC,1300,,,,,,,MVFR,,,,,,,,,,,,METAR,540.0
CYOC 021900Z 23010G18KT 35SM FEW013 SCT027 BKN038 BKN050 07/02 A2973 RMK CU1SC3SC1SC2 LAST STFD OBS/NXT 041300Z SLP083,CYOC,2023-06-02T19:00:00Z,67.57,-139.83,7.0,2.0,230,10,18,35.0,29.731298,1008.3,,,,,,,,,,FEW,1300,SCT,2700,BKN,3800,BKN,5000,VFR,,,,,,,,,,,,METAR,253.0
CYNM 021900Z AUTO 01010G15KT 350V110 9SM CLR 26/01 A3018 RMK SLP226 DENSITY ALT 2100FT,CYNM,2023-06-02T19:00:00Z,49.77,-77.78,26.0,1.0,10,10,15,9.0,30.180119,1022.6,,TRUE,,,,,,,,CLR,,,,,,,,VFR,,,,,,,,,,,,METAR,276.0
CYNE 021900Z AUTO 34006KT 9SM CLR 26/16 A3004 RMK SLP180 DENSITY ALT 2100FT,CYNE,2023-06-02T19:00:00Z,53.97,-97.83,26.0,16.0,340,6,,9.0,30.041338,1018.0,,TRUE,,,,,,,,CLR,,,,,,,,VFR,,,,,,,,,,,,METAR,220.0
CYND 021900Z 33009KT 15SM FEW062 BKN250 31/16 A2994 RMK CU1CI6 TCU TOP N SLP139 DENSITY ALT 2100FT,CYND,2023-06-02T19:00:00Z,45.52,-75.57,31.0,16.0,330,9,,15.0,29.940945,1013.9,,,,,,,,,,FEW,6200,BKN,25000,,,,,VFR,,,,,,,,,,,,METAR,57.0
CYNA 021900Z AUTO 07015G23KT 9SM OVC034 09/01 A3027 RMK SLP252,CYNA,2023-06-02T19:00:00Z,50.18,-61.78,9.0,1.0,70,15,23,9.0,30.268702,1025.2,,TRUE,,,,,,,,OVC,3400,,,,,,,VFR,,,,,,,,,,,,METAR,9.0
CYMU 021900Z 12011G19KT 15SM FEW240 18/M05 A3049 RMK CI2 SLP332,CYMU,2023-06-02T19:00:00Z,56.53,-76.52,18.0,-5.0,120,11,19,15.0,30.490158,1033.2,,,,,,,,,,FEW,24000,,,,,,,VFR,,,,,,,,,,,,METAR,69.0
CYMT 021900Z AUTO 04009G20KT 330V060 9SM CLR 23/01 A3017 RMK SLP221 DENSITY ALT 2200FT,CYMT,2023-06-02T19:00:00Z,49.77,-74.52,23.0,1.0,40,9,20,9.0,30.171259,1022.1,,TRUE,,,,,,,,CLR,,,,,,,,VFR,,,,,,,,,,,,METAR,388.0
CYMO 021900Z AUTO 04009G16KT 360V080 9SM CLR 20/05 A3027 RMK SLP254 DENSITY ALT 300FT,CYMO,2023-06-02T19:00:00Z,51.28,-80.62,20.0,5.0,40,9,16,9.0,30.268702,1025.4,,TRUE,,,,,,,,CLR,,,,,,,,VFR,,,,,,,,,,,,METAR,8.0
CYMM 021900Z AUTO 26005KT 240V330 3SM HZ CLR 21/11 A3005 RMK SLP185 DENSITY ALT 2100FT,CYMM,2023-06-02T19:00:00Z,56.65,-111.22,21.0,11.0,260,5,,3.0,30.050198,1018.5,,TRUE,,,,,,,HZ,CLR,,,,,,,,MVFR,,,,,,,,,,,,METAR,371.0
CYMH 021900Z AUTO 01013G27KT 9SM BKN014 OVC031 03/01 A3035 RMK SLP282,CYMH,2023-06-02T19:00:00Z,52.3,-55.82,3.0,1.0,10,13,27,9.0,30.351377,1028.2,,TRUE,,,,,,,,BKN,1400,OVC,3100,,,,,MVFR,,,,,,,,,,,,SPECI,18.0
CYMA 021900Z VRB06KT 20SM SCT050 SCT100 SCT220 14/M03 A2983 RMK CU3AC1CI1 AC TR SLP121 DENSITY ALT 2100FT,CYMA,2023-06-02T19:00:00Z,63.62,-135.87,14.0,-3.0,0,6,,20.0,29.828741,1012.1,,,,,,,,,,SCT,5000,SCT,10000,SCT,22000,,,VFR,,,,,,,,,,,,METAR,519.0
CYLW 021900Z AUTO 20005KT 100V220 9SM CLR 24/06 A2996 RMK SLP144 DENSITY ALT 2700FT,CYLW,2023-06-02T19:00:00Z,49.95,-119.37,24.0,6.0,200,5,,9.0,29.958662,1014.4,,TRUE,,,,,,,,CLR,,,,,,,,VFR,,,,,,,,,,,,METAR,420.0
CYLT 021900Z 09004KT 10SM FEW200 M03/M05 A3004 RMK CI1 SLP177,CYLT,2023-06-02T19:00:00Z,82.52,-62.32,-3.0,-5.0,90,4,,10.0,30.041338,1017.7,,,,,,,,,,FEW,20000,,,,,,,VFR,,,,,,,,,,,,METAR,9.0
CYLL 021900Z 33012G17KT 10SM BKN025 BKN270 19/12 A3005 RMK SC6CI1 SLP183 DENSITY ALT 3000FT,CYLL,2023-06-02T19:00:00Z,53.32,-110.07,19.0,12.0,330,12,17,10.0,30.050198,1018.3,,,,,,,,,,BKN,2500,BKN,27000,,,,,MVFR,,,,,,,,,,,,METAR,664.0
CYLK 021900Z 27004KT 15SM FEW090 BKN180 BKN230 12/00 A3014 RMK AC2AC3CI2 FU SLP216,CYLK,2023-06-02T19:00:00Z,62.42,-110.67,12.0,0.0,270,4,,15.0,30.138779,1021.6,,,,,,,,,,FEW,9000,BKN,18000,BKN,23000,,,VFR,,,,,,,,,,,,METAR,183.0
CYLJ 021900Z 29007KT 6SM HZ SCT011 OVC030 17/15 A3002 RMK SC4SC4 SLP174 DENSITY ALT 2100FT,CYLJ,2023-06-02T19:00:00Z,54.12,-108.52,17.0,15.0,290,7,,6.0,30.02067,1017.4,,,,,,,,,HZ,SCT,1100,OVC,3000,,,,,MVFR,,,,,,,,,,,,METAR,481.0
CYLH 021900Z AUTO 10011G16KT 030V120 9SM CLR 25/11 A3021 RMK SLP237 DENSITY ALT 1800FT,CYLH,2023-06-02T19:00:00Z,52.2,-87.93,25.0,11.0,100,11,16,9.0,30.209646,1023.7,,TRUE,,,,,,,,CLR,,,,,,,,VFR,,,,,,,,,,,,METAR,245.0
CYLD 021900Z 04003G15KT 15SM FEW051 SCT073 SCT230 28/15 A3017 RMK CU1AS2CI1 SLP222 DENSITY ALT 3000FT,CYLD,2023-06-02T19:00:00Z,47.82,-83.35,28.0,15.0,40,3,15,15.0,30.171259,1022.2,,,,,,,,,,FEW,5100,SCT,7300,SCT,23000,,,VFR,,,,,,,,,,,,METAR,449.0
CYLC 021900Z 27011KT 15SM FEW150 BKN190 04/M01 A3054 RMK AS2AS3 LASTSTFD OBS/NXT 051100Z SLP348,CYLC,2023-06-02T19:00:00Z,62.85,-69.87,4.0,-1.0,270,11,,15.0,30.540354,1034.8,,,,,,,,,,FEW,15000,BKN,19000,,,,,VFR,,,,,,,,,,,,METAR,52.0
CYLA 021900Z 06007KT 040V130 15SM SCT080 BKN240 07/00 A3060 RMK AS3CI3 SLP367,CYLA,2023-06-02T19:00:00Z,59.3,-69.58,7.0,0.0,60,7,,15.0,30.59941,1036.7,,,,,,,,,,SCT,8000,BKN,24000,,,,,VFR,,,,,,,,,,,,METAR,35.0
CYKY 021900Z 33010KT 310V040 12SM FEW031 BKN170 BKN210 20/12 A3004 RMK CU2AC3CI1 SLP176 DENSITY ALT 3300FT,CYKY,2023-06-02T19:00:00Z,51.52,-109.17,20.0,12.0,330,10,,12.0,30.041338,1017.6,,,,,,,,,,FEW,3100,BKN,17000,BKN,21000,,,VFR,,,,,,,,,,,,METAR,692.0
CYKQ 021900Z 07004KT 020V110 15SM FEW180 26/01 A3024 RMK AS2 SLP242 DENSITY ALT 1100FT,CYKQ,2023-06-02T19:00:00Z,51.47,-78.75,26.0,1.0,70,4,,15.0,30.239174,1024.2,,,,,,,,,,FEW,18000,,,,,,,VFR,,,,,,,,,,,,METAR,28.0
CYKP 021900Z AUTO 13005KT 070V170 9SM CLR 24/05 A3025 RMK SLP244 DENSITY ALT 1500FT,CYKP,2023-06-02T19:00:00Z,51.67,-85.9,24.0,5.0,130,5,,9.0,30.250984,1024.4,,TRUE,,,,,,,,CLR,,,,,,,,VFR,,,,,,,,,,,,METAR,181.0
CYKL 021900Z AUTO 04012G18KT 360V100 8SM FEW240 10/M04 A3046 RMK SLP342,CYKL,2023-06-02T19:00:00Z,54.8,-66.8,10.0,-4.0,40,12,18,8.0,30.46063,1034.2,,TRUE,,,,,,,,FEW,24000,,,,,,,VFR,,,,,,,,,,,,SPECI,507.0
CYKF 021900Z AUTO 36006KT 9SM BKN100 32/12 A3003 RMK SLP166 DENSITY ALT 3100FT,CYKF,2023-06-02T19:00:00Z,43.47,-80.38,32.0,12.0,360,6,,9.0,30.029528,1016.6,,TRUE,,,,,,,,BKN,10000,,,,,,,VFR,,,,,,,,,,,,METAR,312.0
CYKA 021900Z 16004KT 130V200 40SM FEW080 24/06 A2993 RMK CU1 CU TR SLP138 DENSITY ALT 2500FT,CYKA,2023-06-02T19:00:00Z,50.7,-120.45,24.0,6.0,160,4,,40.0,29.929134,1013.8,,,,,,,,,,FEW,8000,,,,,,,VFR,,,,,,,,,,,,METAR,344.0
CYJT 021900Z 06018KT 12SM -RA FEW012 FEW023 BKN036 BKN045 06/05 A3011 RMK SF1SC2SC3SC2 SF TR SLP199,CYJT,2023-06-02T19:00:00Z,48.55,-58.57,6.0,5.0,60,18,,12.0,30.109253,1019.9,,,,,,,,,-RA,FEW,1200,FEW,2300,BKN,3600,BKN,4500,VFR,,,,,,,,,,,,SPECI,7.0
CYJF 021900Z VRB04KT 15SM FEW090 FEW130 SCT230 23/00 A3003 RMK AC1AC1CI3 AC TR AC TR SLP173 DENSITY ALT 1700FT,CYJF,2023-06-02T19:00:00Z,60.23,-123.47,23.0,0.0,0,4,,15.0,30.029528,1017.3,,,,,,,,,,FEW,9000,FEW,13000,SCT,23000,,,VFR,,,,,,,,,,,,METAR,215.0
CYIV 021900Z AUTO 12011KT 9SM CLR 24/17 A3007 RMK SLP190 DENSITY ALT 1800FT,CYIV,2023-06-02T19:00:00Z,53.85,-94.65,24.0,17.0,120,11,,9.0,30.070866,1019.0,,TRUE,,,,,,,,CLR,,,,,,,,VFR,,,,,,,,,,,,METAR,234.0
CYIO 021900Z 04007KT 40SM FEW023 BKN046 BKN055 BKN080 00/M03 A2998 RMK SC1SC4SC1AC1 SLP161,CYIO,2023-06-02T19:00:00Z,72.68,-77.97,0.0,-3.0,40,7,,40.0,29.97933,1016.1,,,,,,,,,,FEW,2300,BKN,4600,BKN,5500,BKN,8000,VFR,,,,,,,,,,,,METAR,61.0
CYIN 021900Z AUTO 12010G18KT 090V200 9SM CLR 21/02 A2999 RMK SLP156 DENSITY ALT 5100FT,CYIN,2023-06-02T19:00:00Z,51.27,-121.68,21.0,2.0,120,10,18,9.0,29.991142,1015.6,,TRUE,,,,,,,,CLR,,,,,,,,VFR,,,,,,,,,,,,METAR,1127.0
CYIK 021900Z 20013KT 15SM BKN150 OVC240 04/M05 A3054 RMK AC5CS3 SLP349,CYIK,2023-06-02T19:00:00Z,62.42,-77.93,4.0,-5.0,200,13,,15.0,30.540354,1034.9,,,,,,,,,,BKN,15000,OVC,24000,,,,,VFR,,,,,,,,,,,,METAR,44.0
CYHZ 021900Z 35013KT 10SM BKN100 BKN140 17/10 A2994 RMK AC5AC2 HAZE SLP142 DENSITY ALT 800FT,CYHZ,2023-06-02T19:00:00Z,44.87,-63.5,17.0,10.0,350,13,,10.0,29.940945,1014.2,,,,,,,,,,BKN,10000,BKN,14000,,,,,VFR,,,,,,,,,,,,SPECI,136.0
CYHU 021900Z AUTO 34011G17KT 320V060 9SM CLR 31/15 A2991 RMK LTNG DIST W SLP130 DENSITY ALT 2000FT,CYHU,2023-06-02T19:00:00Z,45.52,-73.42,31.0,15.0,340,11,17,9.0,29.911417,1013.0,,TRUE,,,,,,,,CLR,,,,,,,,VFR,,,,,,,,,,,,METAR,26.0
CYHM 021900Z 31003G18KT 280V050 15SM FEW094 SCT260 31/11 A3000 RMK AC2CI2 SLP157 DENSITY ALT 2800FT,CYHM,2023-06-02T19:00:00Z,43.17,-79.93,31.0,11.0,310,3,18,15.0,30.0,1015.7,,,,,,,,,,FEW,9400,SCT,26000,,,,,VFR,,,,,,,,,,,,METAR,237.0
CYHE 021900Z AUTO 31008G15KT 250V340 9SM CLR 21/09 A3005 RMK SLP177 DENSITY ALT 700FT,CYHE,2023-06-02T19:00:00Z,49.37,-121.5,21.0,9.0,310,8,15,9.0,30.050198,1017.7,,TRUE,,,,,,,,CLR,,,,,,,,VFR,,,,,,,,,,,,METAR,43.0
CYHD 021900Z AUTO 13005KT 070V140 9SM CLR 28/18 A3010 RMK SLP194 DENSITY ALT 3000FT,CYHD,2023-06-02T19:00:00Z,49.82,-92.75,28.0,18.0,130,5,,9.0,30.100393,1019.4,,TRUE,,,,,,,,CLR,,,,,,,,VFR,,,,,,,,,,,,METAR,414.0
CYHA 021900Z 28006KT 15SM FEW250 BKN270 01/M03 A3059 RMK CI1CI6 CONTRAILS SLP363,CYHA,2023-06-02T19:00:00Z,61.03,-69.62,1.0,-3.0,280,6,,15.0,30.590551,1036.3,,,,,,,,,,FEW,25000,BKN,27000,,,,,VFR,,,,,,,,,,,,METAR,31.0
CYGX 021900Z 14006KT 090V180 15SM FEW045 SCT220 23/11 A3011 RMK SC1CI3 SC TR SLP201 DENSITY ALT 1300FT,CYGX,2023-06-02T19:00:00Z,56.35,-94.7,23.0,11.0,140,6,,15.0,30.109253,1020.1,,,,,,,,,,FEW,4500,SCT,22000,,,,,VFR,,,,,,,,,,,,METAR,145.0
CYGW 021900Z AUTO 06009G15KT 030V130 9SM CLR 22/M05 A3042 RMK SLP302 DENSITY ALT 300FT,CYGW,2023-06-02T19:00:00Z,55.27,-77.77,22.0,-5.0,60,9,15,9.0,30.41929,1030.2,,TRUE,,,,,,,,CLR,,,,,,,,VFR,,,,,,,,,,,,METAR,13.0
CYGV 021900Z AUTO 07012G17KT 040V100 9SM OVC050 13/02 A3026 RMK SLP250,CYGV,2023-06-02T19:00:00Z,50.28,-63.62,13.0,2.0,70,12,17,9.0,30.259842,1025.0,,TRUE,,,,,,,,OVC,5000,,,,,,,VFR,,,,,,,,,,,,METAR,32.0
CYGT 021900Z 22011KT 15SM SCT011 BKN016 OVC024 01/00 A2993 RMK SC4SC3SC1 SLP141,CYGT,2023-06-02T19:00:00Z,69.37,-81.82,1.0,0.0,220,11,,15.0,29.929134,1014.1,,,,,,,,,,SCT,1100,BKN,1600,OVC,2400,,,MVFR,,,,,,,,,,,,METAR,49.0
CYGP 021900Z 08009KT 15SM FEW010 OVC015 07/06 A3024 RMK ST2SC6 CIG LWR W VIS LWR W SLP245,CYGP,2023-06-02T19:00:00Z,48.77,-64.47,7.0,6.0,80,9,,15.0,30.239174,1024.5,,,,,,,,,,FEW,1000,OVC,1500,,,,,MVFR,,,,,,,,,,,,METAR,31.0
CYGL 021900Z 06012KT 15SM FEW240 18/M01 A3040 RMK CI2 SLP303,CYGL,2023-06-02T19:00:00Z,53.62,-77.7,18.0,-1.0,60,12,,15.0,30.398623,1030.3,,,,,,,,,,FEW,24000,,,,,,,VFR,,,,,,,,,,,,SPECI,192.0
CYGK 021900Z 18007KT 15SM FEW040 FEW160 BKN240 27/17 A2996 RMK CU1AC1CI5 SLP147 DENSITY ALT 1800FT,CYGK,2023-06-02T19:00:00Z,44.22,-76.58,27.0,17.0,180,7,,15.0,29.958662,1014.7,,,,,,,,,,FEW,4000,FEW,16000,BKN,24000,,,VFR,,,,,,,,,,,,METAR,91.0
CYGH 021900Z 17010KT 140V230 25SM FEW060 20/M04 A2982 RMK SC1 SLP105 DENSITY ALT 1000FT,CYGH,2023-06-02T19:00:00Z,66.23,-128.63,20.0,-4.0,170,10,,25.0,29.819881,1010.5,,,,,,,,,,FEW,6000,,,,,,,VFR,,,,,,,,,,,,METAR,72.0
CYGE 021900Z 30003KT 210V330 20SM FEW080 FEW100 22/08 A3000 RMK CU2AC1 AC TR SLP160 DENSITY ALT 4000FT,CYGE,2023-06-02T19:00:00Z,51.3,-116.98,22.0,8.0,300,3,,20.0,30.0,1016.0,,,,,,,,,,FEW,8000,FEW,10000,,,,,VFR,,,,,,,,,,,,METAR,786.0
CYFT 021900Z 01008KT 340V040 15SM BKN010 01/M02 A3055 RMK ST7 SLP353,CYFT,2023-06-02T19:00:00Z,55.07,-59.18,1.0,-2.0,10,8,,15.0,30.549213,1035.3,,,,,,,,,,BKN,1000,,,,,,,MVFR,,,,,,,,,,,,SPECI,65.0
CYFS 021900Z 22008G15KT 140V270 15SM FEW100 FEW250 21/M04 A3005 RMK AC1CI2 AC TR SLP183 DENSITY ALT 1300FT,CYFS,2023-06-02T19:00:00Z,61.75,-121.22,21.0,-4.0,220,8,15,15.0,30.050198,1018.3,,,,,,,,,,FEW,10000,FEW,25000,,,,,VFR,,,,,,,,,,,,METAR,174.0
CYFR 021900Z 21003KT 170V240 1 1/2SM FU VV040 12/05 A3014 RMK FU8 SLP215,CYFR,2023-06-02T19:00:00Z,61.17,-113.68,12.0,5.0,210,3,,1.5,30.138779,1021.5,,,,,,,,,FU,OVX,0,,,,,,,LIFR,,,,,,,,,,,4000,METAR,159.0
CYFO 021900Z 17007KT 140V200 15SM SCT095 BKN210 22/16 A3001 RMK AC3CI3 SLP169 DENSITY ALT 2000FT,CYFO,2023-06-02T19:00:00Z,54.67,-101.67,22.0,16.0,170,7,,15.0,30.008858,1016.9,,,,,,,,,,SCT,9500,BKN,21000,,,,,VFR,,,,,,,,,,,,METAR,303.0
CYFB 021900Z 25004KT 30SM BKN200 02/M03 A3051 RMK CS7 SLP338,CYFB,2023-06-02T19:00:00Z,63.75,-68.55,2.0,-3.0,250,4,,30.0,30.510826,1033.8,,,,,,,,,,BKN,20000,,,,,,,VFR,,,,,,,,,,,,SPECI,23.0
CYEV 021900Z 21018KT 180V240 15SM SCT058 BKN160 BKN260 16/01 A2971 RMK CU3AS3CS1 HALO CC ASOCTD SLP066 DENSITY ALT 700FT,CYEV,2023-06-02T19:00:00Z,68.32,-133.5,16.0,1.0,210,18,,15.0,29.71063,1006.6,,,,,,,,,,SCT,5800,BKN,16000,BKN,26000,,,VFR,,,,,,,,,,,,METAR,74.0
CYET 021900Z AUTO 07007KT 360V100 9SM CLR 18/09 A3008 RMK SLP202 DENSITY ALT 4000FT,CYET,2023-06-02T19:00:00Z,53.57,-116.47,18.0,9.0,70,7,,9.0,30.079725,1020.2,,TRUE,,,,,,,,CLR,,,,,,,,VFR,,,,,,,,,,,,METAR,925.0
CYEN 021900Z AUTO 14012G25KT 9SM SCT047 29/17 A2993 RMK SLP130 DENSITY ALT 4000FT,CYEN,2023-06-02T19:00:00Z,49.22,-102.97,29.0,17.0,140,12,25,9.0,29.929134,1013.0,,TRUE,,,,,,,,SCT,4700,,,,,,,VFR,,,,,,,,,,,,METAR,580.0
CYEK 021900Z 16014KT 15SM SKC 04/01 A3023 RMK SLP240,CYEK,2023-06-02T19:00:00Z,61.1,-94.07,4.0,1.0,160,14,,15.0,30.230314,1024.0,,,,,,,,,,SKC,,,,,,,,VFR,,,,,,,,,,,,METAR,7.0
CYEG 021900Z VRB05KT 20SM SCT056 BKN240 21/07 A3009 RMK CU3CI2 SLP195 DENSITY ALT 3500FT,CYEG,2023-06-02T19:00:00Z,53.3,-113.58,21.0,7.0,0,5,,20.0,30.088583,1019.5,,,,,,,,,,SCT,5600,BKN,24000,,,,,VFR,,,,,,,,,,,,SPECI,710.0
CYED 021900Z 02005KT 340V050 15SM FEW050 BKN250 22/08 A3010 RMK CU1CI5 DENSITY ALT 3588FT SLP194,CYED,2023-06-02T19:00:00Z,53.67,-113.47,22.0,8.0,20,5,,15.0,30.100393,1019.4,,,,,,,,,,FEW,5000,BKN,25000,,,,,VFR,,,,,,,,,,,,METAR,688.0
CYDQ 021900Z AUTO 13013G18KT 9SM CLR 21/06 A3003 RMK SLP181 DENSITY ALT 3300FT,CYDQ,2023-06-02T19:00:00Z,55.75,-120.18,21.0,6.0,130,13,18,9.0,30.029528,1018.1,,TRUE,,,,,,,,CLR,,,,,,,,VFR,,,,,,,,,,,,SPECI,658.0
CYDP 021900Z 08014KT 15SM FEW025 04/M01 A3055 RMK CF1 CF TR SLP348,CYDP,2023-06-02T19:00:00Z,56.53,-61.68,4.0,-1.0,80,14,,15.0,30.549213,1034.8,,,,,,,,,,FEW,2500,,,,,,,VFR,,,,,,,,,,,,METAR,14.0
CYDN 021900Z AUTO 09008KT 050V120 9SM CLR 27/19 A2998 RMK SLP157 DENSITY ALT 2600FT,CYDN,2023-06-02T19:00:00Z,51.1,-100.05,27.0,19.0,90,8,,9.0,29.97933,1015.7,,TRUE,,,,,,,,CLR,,,,,,,,VFR,,,,,,,,,,,,METAR,302.0
CYDL 021900Z AUTO VRB03KT 9SM SCT076 BKN100 12/01 A2996 RMK SLP155 DENSITY ALT 2900FT,CYDL,2023-06-02T19:00:00Z,58.42,-130.02,12.0,1.0,0,3,,9.0,29.958662,1015.5,,TRUE,,,,,,,,SCT,7600,BKN,10000,,,,,VFR,,,,,,,,,,,,METAR,804.0
CYDF 021900Z 04016G24KT 6SM -RA BR BKN012 OVC032 03/03 A3022 RMK SC6SC2 SLP236,CYDF,2023-06-02T19:00:00Z,49.22,-57.4,3.0,3.0,40,16,24,6.0,30.221457,1023.6,,,,,,,,,-RA BR,BKN,1200,OVC,3200,,,,,MVFR,,,,,,,,,,,,METAR,15.0
CYDC 021900Z 15003KT 070V210 25SM FEW040 23/04 A2998 RMK CU1 SLP144 DENSITY ALT 3700FT,CYDC,2023-06-02T19:00:00Z,49.47,-120.52,23.0,4.0,150,3,,25.0,29.97933,1014.4,,,,,,,,,,FEW,4000,,,,,,,VFR,,,,,,,,,,,,METAR,703.0
CYDB 021900Z 12012G17KT 15SM FEW045 FEW120 SCT170 BKN230 11/M04 A2981 RMK CU1AC2AC2CI1 CU TR AC LENT NE SLP123 DENSITY ALT 2900FT,CYDB,2023-06-02T19:00:00Z,61.37,-139.02,11.0,-4.0,120,12,17,15.0,29.811024,1012.3,,,,,,,,,,FEW,4500,FEW,12000,SCT,17000,BKN,23000,VFR,,,,,,,,,,,,METAR,807.0
CYDA 021900Z 02004KT 20SM SCT060 SCT230 14/03 A2980 RMK CU4CI1 CI TR SLP105 DENSITY ALT 1600FT,CYDA,2023-06-02T19:00:00Z,64.03,-139.12,14.0,3.0,20,4,,20.0,29.799213,1010.5,,,,,,,,,,SCT,6000,SCT,23000,,,,,VFR,,,,,,,,,,,,METAR,338.0
CYCY 021900Z CCA 03003KT 15SM BKN035 BKN060 OVC140 01/M05 A3007 RMK SC5SC1AC2 SLP187,CYCY,2023-06-02T19:00:00Z,70.48,-68.52,1.0,-5.0,30,3,,15.0,30.070866,1018.7,,,,,,,,,,BKN,3500,BKN,6000,OVC,14000,,,VFR,,,,,,,,,,,,METAR,73.0
CYCS 021900Z 17023KT 15SM OVC076 07/00 A3024 RMK AC8 SLP244,CYCS,2023-06-02T19:00:00Z,63.35,-90.72,7.0,0.0,170,23,,15.0,30.239174,1024.4,,,,,,,,,,OVC,7600,,,,,,,VFR,,,,,,,,,,,,METAR,7.0
CYCQ 021900Z VRB04KT 35SM FEW055 FEW100 BKN220 19/06 A3001 RMK CU1AC1CI3 FU VLY S-W SLP176 DENSITY ALT 2900FT,CYCQ,2023-06-02T19:00:00Z,55.7,-121.62,19.0,6.0,0,4,,35.0,30.008858,1017.6,,,,,,,,,,FEW,5500,FEW,10000,BKN,22000,,,VFR,,,,,,,,,,,,METAR,614.0
CYCP 021900Z 00000KT 15SM FEW075TCU SCT080 SCT120 19/06 A2998 RMK TCU2CU1AC1 SLP163 DENSITY ALT 3300FT,CYCP,2023-06-02T19:00:00Z,52.13,-119.28,19.0,6.0,0,0,,15.0,29.97933,1016.3,,,,,,,,,,FEW,7500,SCT,8000,SCT,12000,,,VFR,,,,,,,,,,,,METAR,677.0
CYCO 021900Z 07012KT 15SM SCT019 09/04 A3010 RMK CU3 SLP198,CYCO,2023-06-02T19:00:00Z,67.82,-115.15,9.0,4.0,70,12,,15.0,30.100393,1019.8,,,,,,,,,,SCT,1900,,,,,,,VFR,,,,,,,,,,,,METAR,20.0
CYCK 021900Z AUTO 17008KT 9SM CLR 30/11 A3003 RMK SLP168 DENSITY ALT 2500FT,CYCK,2023-06-02T19:00:00Z,42.3,-82.08,30.0,11.0,170,8,,9.0,30.029528,1016.8,,TRUE,,,,,,,,CLR,,,,,,,,VFR,,,,,,,,,,,,METAR,196.0
CYCG 021900Z 19004KT 15SM FEW075 FEW260 24/04 A2996 RMK CF1CI2 CF TR SLP146 DENSITY ALT 3100FT,CYCG,2023-06-02T19:00:00Z,49.28,-117.63,24.0,4.0,190,4,,15.0,29.958662,1014.6,,,,,,,,,,FEW,7500,FEW,26000,,,,,VFR,,,,,,,,,,,,METAR,487.0
CYCD 021900Z 07007KT 050V120 30SM FEW026 SCT240 19/09 A3008 RMK CU1CI3 CU TR SLP188 DENSITY ALT 500FT,CYCD,2023-06-02T19:00:00Z,49.05,-123.87,19.0,9.0,70,7,,30.0,30.079725,1018.8,,,,,,,,,,FEW,2600,SCT,24000,,,,,VFR,,,,,,,,,,,,METAR,30.0
CYCA 021900Z AUTO 36013G23KT 9SM OVC033 03/01 A3046 RMK SLP319,CYCA,2023-06-02T19:00:00Z,53.68,-57.03,3.0,1.0,360,13,23,9.0,30.46063,1031.9,,TRUE,,,,,,,,OVC,3300,,,,,,,VFR,,,,,,,,,,,,METAR,12.0
CYBW 021900Z AUTO 09006KT 060V140 9SM CLR 18/08 A3012 RMK SLP213 DENSITY ALT 5000FT,CYBW,2023-06-02T19:00:00Z,51.1,-114.37,18.0,8.0,90,6,,9.0,30.121063,1021.3,,TRUE,,,,,,,,CLR,,,,,,,,VFR,,,,,,,,,,,,METAR,1197.0
CYBV 021900Z 27009KT 15SM FEW030 FEW250 26/18 A3002 RMK CU1CI1 WIND EST SLP171 DENSITY ALT 2000FT,CYBV,2023-06-02T19:00:00Z,52.35,-97.03,26.0,18.0,270,9,,15.0,30.02067,1017.1,,,,,,,,,,FEW,3000,FEW,25000,,,,,VFR,,,,,,,,,,,,METAR,219.0
CYBU 021900Z AUTO 10004KT 090V210 9SM FEW026 BKN130 24/17 A2999 RMK SLP159 DENSITY ALT 2500FT,CYBU,2023-06-02T19:00:00Z,53.32,-104.0,24.0,17.0,100,4,,9.0,29.991142,1015.9,,TRUE,,,,,,,,FEW,2600,BKN,13000,,,,,VFR,,,,,,,,,,,,METAR,369.0
CYBQ 021900Z AUTO 11007KT 9SM OVC033 19/09 A3009 RMK SLP202 DENSITY ALT 1400FT,CYBQ,2023-06-02T19:00:00Z,58.7,-98.5,19.0,9.0,110,7,,9.0,30.088583,1020.2,,TRUE,,,,,,,,OVC,3300,,,,,,,VFR,,,,,,,,,,,,METAR,272.0
CYBL 021900Z 09008KT 30SM FEW060 BKN250 18/09 A3008 RMK CU1CI5 CC ASOCTD SLP188 DENSITY ALT 700FT,CYBL,2023-06-02T19:00:00Z,49.95,-125.27,18.0,9.0,90,8,,30.0,30.079725,1018.8,,,,,,,,,,FEW,6000,BKN,25000,,,,,VFR,,,,,,,,,,,,METAR,94.0
CYBK 021900Z VRB02KT 20SM SCT010 OVC130 06/04 A3014 RMK ST3AS5 SLP209,CYBK,2023-06-02T19:00:00Z,64.3,-96.07,6.0,4.0,0,2,,20.0,30.138779,1020.9,,,,,,,,,,SCT,1000,OVC,13000,,,,,VFR,,,,,,,,,,,,METAR,14.0
CYBG 021900Z 09009KT 12SM OVC035 16/10 A3014 RMK SC8 DENSITY ALT 633FT SLP209,CYBG,2023-06-02T19:00:00Z,48.33,-70.98,16.0,10.0,90,9,,12.0,30.138779,1020.9,,,,,,,,,,OVC,3500,,,,,,,VFR,,,,,,,,,,,,SPECI,151.0
CYBD 021900Z 26007KT 240V320 15SM SCT170 BKN200 19/08 A3000 RMK AC3CC2 SLP162 DENSITY ALT 600FT,CYBD,2023-06-02T19:00:00Z,52.38,-126.58,19.0,8.0,260,7,,15.0,30.0,1016.2,,,,,,,,,,SCT,17000,BKN,20000,,,,,VFR,,,,,,,,,,,,METAR,40.0
CYBC 021900Z AUTO 09015G21KT 9SM OVC055 09/06 A3022 RMK SLP237,CYBC,2023-06-02T19:00:00Z,49.13,-68.2,9.0,6.0,90,15,21,9.0,30.221457,1023.7,,TRUE,,,,,,,,OVC,5500,,,,,,,VFR,,,,,,,,,,,,METAR,20.0
CYAZ 021900Z 20005KT 150V220 15SM FEW170 SCT220 13/10 A3014 RMK AC2CI1 SLP208,CYAZ,2023-06-02T19:00:00Z,49.08,-125.77,13.0,10.0,200,5,,15.0,30.138779,1020.8,,,,,,,,,,FEW,17000,SCT,22000,,,,,VFR,,,,,,,,,,,,METAR,26.0
CYAW 021900Z 08007KT 12SM BKN140 13/09 A2995 RMK AC7 DENSITY ALT 2FT LAST OBS /NEXT 051000 UTC SLP142,CYAW,2023-06-02T19:00:00Z,44.63,-63.5,13.0,9.0,80,7,,12.0,29.949802,1014.2,,,,,,,,,,BKN,14000,,,,,,,VFR,,,,,,,,,,,,METAR,50.0
CYAT 021900Z AUTO 03009KT 9SM 18/07 A3035 RMK CLD MISG SLP280,CYAT,2023-06-02T19:00:00Z,52.93,-82.43,18.0,7.0,30,9,,9.0,30.351377,1028.0,,TRUE,,,,,,,,,,,,,,,,,,,,,,,,,,,,METAR,4.0
CYAS 021900Z 12009KT 15SM SCT230 05/M01 A3058 RMK CI4 SLP369,CYAS,2023-06-02T19:00:00Z,60.02,-70.0,5.0,-1.0,120,9,,15.0,30.578741,1036.9,,,,,,,,,,SCT,23000,,,,,,,VFR,,,,,,,,,,,,METAR,99.0
CYAM 021900Z 29009KT 15SM SCT053TCU BKN280 25/12 A3011 RMK TCU3CI4 TCU N-E STNR SLP199 DENSITY ALT 1800FT,CYAM,2023-06-02T19:00:00Z,46.48,-84.52,25.0,12.0,290,9,,15.0,30.109253,1019.9,,,,,,,,,,SCT,5300,BKN,28000,,,,,VFR,,,,,,,,,,,,METAR,186.0
CYAH 021900Z AUTO 08011G17KT 9SM CLR 17/M05 A3042 RMK SLP314,CYAH,2023-06-02T19:00:00Z,53.75,-73.67,17.0,-5.0,80,11,17,9.0,30.41929,1031.4,,TRUE,,,,,,,,CLR,,,,,,,,VFR,,,,,,,,,,,,METAR,298.0
CYAB 021900Z 08019KT 15SM SCT050 OVC100 02/M02 A2988 RMK SC4AS4 SLP123,CYAB,2023-06-02T19:00:00Z,73.0,-85.02,2.0,-2.0,80,19,,15.0,29.878937,1012.3,,,,,,,,,,SCT,5000,OVC,10000,,,,,VFR,,,,,,,,,,,,METAR,36.0
CXZV 021900Z AUTO 14007KT 11/05 RMK AO1 SLP254 T01060046 51009,CXZV,2023-06-02T19:00:00Z,50.22,-66.25,10.6,4.6,140,7,,,,1025.4,,TRUE,TRUE,,,,,,,,,,,,,,,,0.9,,,,,,,,,,,METAR,43.0
CXZC 021900Z AUTO 06007KT 20/04 RMK AO1 SLP259 T02030039 58002,CXZC,2023-06-02T19:00:00Z,51.3,-80.62,20.3,3.9,60,7,,,,1025.9,,TRUE,TRUE,,,,,,,,,,,,,,,,-0.2,,,,,,,,,,,METAR,8.0
CXYH 021900Z AUTO 16006KT 22/M02 RMK AO1 SLP161 T02181018 58013,CXYH,2023-06-02T19:00:00Z,61.25,-123.75,21.8,-1.8,160,6,,,,1016.1,,TRUE,TRUE,,,,,,,,,,,,,,,,-1.3,,,,,,,,,,,METAR,197.0
CXWN 021900Z AUTO 11004KT 33/14 RMK AO1 SLP150 T03260141 58006,CXWN,2023-06-02T19:00:00Z,49.88,-97.13,32.6,14.1,110,4,,,,1015.0,,TRUE,TRUE,,,,,,,,,,,,,,,,-0.6,,,,,,,,,,,METAR,232.0
CXWM 021900Z AUTO 34008KT 16/09 RMK AO1 T01580087,CXWM,2023-06-02T19:00:00Z,49.5,-112.12,15.8,8.7,340,8,,,,,,TRUE,TRUE,,,,,,,,,,,,,,,,,,,,,,,,,,,METAR,947.0
CXVW 021900Z AUTO 15007KT 21/05 RMK AO1 SLP183 T02140049 58010,CXVW,2023-06-02T19:00:00Z,55.1,-117.2,21.4,4.9,150,7,,,,1018.3,,TRUE,TRUE,,,,,,,,,,,,,,,,-1.0,,,,,,,,,,,METAR,696.0
CXVN 021900Z AUTO 01004KT 29/15 RMK AO1 SLP156 T02910148 56018,CXVN,2023-06-02T19:00:00Z,43.18,-79.4,29.1,14.8,10,4,,,,1015.6,,TRUE,TRUE,,,,,,,,,,,,,,,,-1.8,,,,,,,,,,,METAR,86.0
CXVM 021900Z AUTO 34009KT 22/09 RMK AO1 PK WND 34017/1819 T02220087,CXVM,2023-06-02T19:00:00Z,53.35,-110.88,22.2,8.7,340,9,,,,,,TRUE,TRUE,,,,,,,,,,,,,,,,,,,,,,,,,,,METAR,622.0
CXTV 021900Z AUTO 20014G20KT 15/02 RMK AO1 PK WND 18020/1826 SLP064 T01500022 56007,CXTV,2023-06-02T19:00:00Z,68.75,-133.5,15.0,2.2,200,14,20,,,1006.4,,TRUE,TRUE,,,,,,,,,,,,,,,,-0.7,,,,,,,,,,,METAR,91.0
CXTP 021900Z AUTO 34003KT 07/06 RMK AO1 SLP190 T00670057 55000,CXTP,2023-06-02T19:00:00Z,48.55,-53.97,6.7,5.7,340,3,,,,1019.0,,TRUE,TRUE,,,,,,,,,,,,,,,,0.0,,,,,,,,,,,METAR,104.0
CXTO 021900Z AUTO 31/14 RMK AO1 SLP158 T03130135 58012,CXTO,2023-06-02T19:00:00Z,43.67,-79.4,31.3,13.5,,,,,,1015.8,,TRUE,TRUE,,,,,,,,,,,,,,,,-1.2,,,,,,,,,,,METAR,115.0
CXTN 021900Z AUTO 17018G23KT 07/04 RMK AO1 PK WND 18023/1856 SLP158 T00700037 56010,CXTN,2023-06-02T19:00:00Z,69.2,-122.35,7.0,3.7,170,18,23,,,1015.8,,TRUE,TRUE,,,,,,,,,,,,,,,,-1.0,,,,,,,,,,,METAR,564.0
CXTH 021900Z AUTO 34012KT 20/10 RMK AO1 PK WND 33018/1803 T02040098,CXTH,2023-06-02T19:00:00Z,53.63,-111.68,20.4,9.8,340,12,,,,,,TRUE,TRUE,,,,,,,,,,,,,,,,,,,,,,,,,,,METAR,679.0
CXTD 021900Z AUTO 13007KT 15/04 RMK AO1 SLP170 T01470042 53008,CXTD,2023-06-02T19:00:00Z,45.62,-61.68,14.7,4.2,130,7,,,,1017.0,,TRUE,TRUE,,,,,,,,,,,,,,,,0.8,,,,,,,,,,,METAR,58.0
CXSP 021900Z AUTO 33011KT 20/11 RMK AO1 PK WND 33017/1815 T01960111,CXSP,2023-06-02T19:00:00Z,54.02,-111.27,19.6,11.1,330,11,,,,,,TRUE,TRUE,,,,,,,,,,,,,,,,,,,,,,,,,,,METAR,652.0
CXSL 021900Z AUTO 03006KT 20/09 RMK AO1 T01960094,CXSL,2023-06-02T19:00:00Z,54.28,-112.5,19.6,9.4,30,6,,,,,,TRUE,TRUE,,,,,,,,,,,,,,,,,,,,,,,,,,,METAR,680.0
CXSH 021900Z AUTO 08008KT 25/16 RMK AO1 SLP149 T02500156 58005,CXSH,2023-06-02T19:00:00Z,46.55,-72.73,25.0,15.6,80,8,,,,1014.9,,TRUE,TRUE,,,,,,,,,,,,,,,,-0.5,,,,,,,,,,,METAR,106.0
CXSE 021900Z AUTO 27023KT 02/M00 RMK AO1 SOG 11 3016 PK WND 27027/1856 SLP079 T00211004,CXSE,2023-06-02T19:00:00Z,73.77,-105.28,2.1,-0.4,270,23,,,,1007.9,,TRUE,TRUE,,,,,,,,,,,,,,,,,,,,,,,,,,,METAR,11.0
CXSC 021900Z AUTO 36003KT 17/12 RMK AO1 T01680120,CXSC,2023-06-02T19:00:00Z,50.3,-110.08,16.8,12.0,360,3,,,,,,TRUE,TRUE,,,,,,,,,,,,,,,,,,,,,,,,,,,METAR,809.0
CXRL 021900Z AUTO 35007KT 19/10 RMK AO1 T01870102,CXRL,2023-06-02T19:00:00Z,54.5,-111.7,18.7,10.2,350,7,,,,,,TRUE,TRUE,,,,,,,,,,,,,,,,,,,,,,,,,,,METAR,585.0
CXRH 021900Z AUTO 10006KT 05/02 RMK AO1 SLP224 T00480022 51008,CXRH,2023-06-02T19:00:00Z,49.57,-57.88,4.8,2.2,100,6,,,,1022.4,,TRUE,TRUE,,,,,,,,,,,,,,,,0.8,,,,,,,,,,,METAR,68.0
CXRB 021900Z AUTO 12021KT M01/M02 RMK AO1 SOG 10 3011 PK WND 12026/1841 SLP095 T10051018,CXRB,2023-06-02T19:00:00Z,74.72,-94.98,-0.5,-1.8,120,21,,,,1009.5,,TRUE,TRUE,,,,,,,,,,,,,,,,,,,,,,,,,,,METAR,30.0
CXPL 021900Z AUTO 33004KT 20/08 RMK AO1 T02020081,CXPL,2023-06-02T19:00:00Z,51.13,-111.7,20.2,8.1,330,4,,,,,,TRUE,TRUE,,,,,,,,,,,,,,,,,,,,,,,,,,,METAR,735.0
CXPC 021900Z AUTO 27/17 RMK AO1 SLP177 T02670174 58014,CXPC,2023-06-02T19:00:00Z,45.35,-80.05,26.7,17.4,,,,,,1017.7,,TRUE,TRUE,,,,,,,,,,,,,,,,-1.4,,,,,,,,,,,METAR,176.0
CXPA 021900Z AUTO 09008KT 21/06 RMK AO1 T02060063,CXPA,2023-06-02T19:00:00Z,55.62,-118.3,20.6,6.3,90,8,,,,,,TRUE,TRUE,,,,,,,,,,,,,,,,,,,,,,,,,,,METAR,628.0
CXOY 021900Z AUTO 01010KT 21/10 RMK AO1 PK WND 03018/1820 T02050097,CXOY,2023-06-02T19:00:00Z,51.35,-110.35,20.5,9.7,10,10,,,,,,TRUE,TRUE,,,,,,,,,,,,,,,,,,,,,,,,,,,METAR,784.0
CXOX 021900Z AUTO 16004KT 19/13 RMK AO1 SLP164 T01880133 53006,CXOX,2023-06-02T19:00:00Z,55.15,-105.27,18.8,13.3,160,4,,,,1016.4,,TRUE,TRUE,,,,,,,,,,,,,,,,0.6,,,,,,,,,,,METAR,381.0
CXOL 021900Z AUTO 05004KT 18/07 RMK AO1 T01790072,CXOL,2023-06-02T19:00:00Z,51.77,-114.08,17.9,7.2,50,4,,,,,,TRUE,TRUE,,,,,,,,,,,,,,,,,,,,,,,,,,,METAR,1026.0
CXNP 021900Z AUTO 02014KT 09/07 RMK AO1 PK WND 02023/1802 SLP171 T00860070 51009,CXNP,2023-06-02T19:00:00Z,45.75,-64.23,8.6,7.0,20,14,,,,1017.1,,TRUE,TRUE,,,,,,,,,,,,,,,,0.9,,,,,,,,,,,METAR,19.0
CXNM 021900Z AUTO 10009KT 15/09 RMK AO1 T01450092,CXNM,2023-06-02T19:00:00Z,46.82,-60.67,14.5,9.2,100,9,,,,,,TRUE,TRUE,,,,,,,,,,,,,,,,,,,,,,,,,,,METAR,452.0
CXMY 021900Z AUTO 17/08 RMK AO1 T01660082,CXMY,2023-06-02T19:00:00Z,44.98,-62.48,16.6,8.2,,,,,,,,TRUE,TRUE,,,,,,,,,,,,,,,,,,,,,,,,,,,METAR,37.0
CXMO 021900Z AUTO 03006KT 21/11 RMK AO1 T02060106,CXMO,2023-06-02T19:00:00Z,51.67,-112.68,20.6,10.6,30,6,,,,,,TRUE,TRUE,,,,,,,,,,,,,,,,,,,,,,,,,,,METAR,837.0
CXMM 021900Z AUTO 30006KT 21/10 RMK AO1 SLP185 T02130101 54000,CXMM,2023-06-02T19:00:00Z,56.65,-111.22,21.3,10.1,300,6,,,,1018.5,,TRUE,TRUE,,,,,,,,,,,,,,,,,,,,,,,,,,,METAR,372.0
CXMI 021900Z AUTO 12006KT 13/08 RMK AO1 SLP138 T01270083 53004,CXMI,2023-06-02T19:00:00Z,44.6,-63.53,12.7,8.3,120,6,,,,1013.8,,TRUE,TRUE,,,,,,,,,,,,,,,,0.4,,,,,,,,,,,METAR,15.0
CXMG 021900Z AUTO 13004KT 22/M01 RMK AO1 T02161008,CXMG,2023-06-02T19:00:00Z,56.97,-117.45,21.6,-0.8,130,4,,,,,,TRUE,TRUE,,,,,,,,,,,,,,,,,,,,,,,,,,,METAR,467.0
CXMD 021900Z AUTO 12013G18KT 33/16 RMK AO1 PK WND 13018/1854 SLP147 T03250161 58003,CXMD,2023-06-02T19:00:00Z,49.18,-98.08,32.5,16.1,120,13,18,,,1014.7,,TRUE,TRUE,,,,,,,,,,,,,,,,-0.3,,,,,,,,,,,METAR,297.0
CXLL 021900Z AUTO 22/01 RMK AO1 SLP179 T02170009 58011,CXLL,2023-06-02T19:00:00Z,61.12,-122.85,21.7,0.9,,,,,,1017.9,,TRUE,TRUE,,,,,,,,,,,,,,,,-1.1,,,,,,,,,,,METAR,180.0
CXLC 021900Z AUTO 32006KT 19/M03 RMK AO1 SLP210 T01871031 51004,CXLC,2023-06-02T19:00:00Z,63.6,-113.85,18.7,-3.1,320,6,,,,1021.0,,TRUE,TRUE,,,,,,,,,,,,,,,,0.4,,,,,,,,,,,METAR,370.0
CXLB 021900Z AUTO 07004KT 12/10 RMK AO1 SLP141 T01230099 53009,CXLB,2023-06-02T19:00:00Z,44.37,-64.3,12.3,9.9,70,4,,,,1014.1,,TRUE,TRUE,,,,,,,,,,,,,,,,0.9,,,,,,,,,,,METAR,4.0
CXKT 021900Z AUTO 35010G16KT 13/08 RMK AO1 SLP159 T01340082 53010,CXKT,2023-06-02T19:00:00Z,45.07,-64.48,13.4,8.2,350,10,16,,,1015.9,,TRUE,TRUE,,,,,,,,,,,,,,,,1.0,,,,,,,,,,,METAR,48.0
CXKM 021900Z AUTO 34007KT 21/08 RMK AO1 T02130083,CXKM,2023-06-02T19:00:00Z,52.83,-111.87,21.3,8.3,340,7,,,,,,TRUE,TRUE,,,,,,,,,,,,,,,,,,,,,,,,,,,METAR,679.0
CXKI 021900Z AUTO 36005KT 27/09 RMK AO1 SLP196 T02740088 58010,CXKI,2023-06-02T19:00:00Z,48.13,-80.0,27.4,8.8,360,5,,,,1019.6,,TRUE,TRUE,,,,,,,,,,,,,,,,-1.0,,,,,,,,,,,METAR,328.0
CXKE 021900Z AUTO 02003KT 31/15 RMK AO1 SLP141 T03110149 58015,CXKE,2023-06-02T19:00:00Z,45.0,-75.63,31.1,14.9,20,3,,,,1014.1,,TRUE,TRUE,,,,,,,,,,,,,,,,-1.5,,,,,,,,,,,METAR,99.0
CXKA 021900Z AUTO 04003KT 27/08 RMK AO1 SLP229 T02690083 57013,CXKA,2023-06-02T19:00:00Z,49.4,-82.45,26.9,8.3,40,3,,,,1022.9,,TRUE,TRUE,,,,,,,,,,,,,,,,-1.3,,,,,,,,,,,METAR,221.0
CXIB 021900Z AUTO 05002KT 10/07 RMK AO1 SLP175 T01020074 53009,CXIB,2023-06-02T19:00:00Z,46.67,-60.4,10.2,7.4,50,2,,,,1017.5,,TRUE,TRUE,,,,,,,,,,,,,,,,0.9,,,,,,,,,,,METAR,6.0
CXHR 021900Z AUTO 33005KT 19/07 RMK AO1 T01890066,CXHR,2023-06-02T19:00:00Z,51.18,-112.5,18.9,6.6,330,5,,,,,,TRUE,TRUE,,,,,,,,,,,,,,,,,,,,,,,,,,,METAR,975.0
CXHP 021900Z AUTO 29002KT 21/05 RMK AO1 T02080054,CXHP,2023-06-02T19:00:00Z,55.4,-116.48,20.8,5.4,290,2,,,,,,TRUE,TRUE,,,,,,,,,,,,,,,,,,,,,,,,,,,METAR,601.0
CXHM 021900Z AUTO 10006KT 32/09 RMK AO1 SLP157 T03200090 56018,CXHM,2023-06-02T19:00:00Z,43.28,-79.9,32.0,9.0,100,6,,,,1015.7,,TRUE,TRUE,,,,,,,,,,,,,,,,-1.8,,,,,,,,,,,METAR,105.0
CXHD 021900Z AUTO 01007KT 20/10 RMK AO1 T02040099,CXHD,2023-06-02T19:00:00Z,53.18,-112.25,20.4,9.9,10,7,,,,,,TRUE,TRUE,,,,,,,,,,,,,,,,,,,,,,,,,,,METAR,688.0
CXHA 021900Z AUTO 03007KT 31/10 RMK AO1 SLP168 T03140101 58014,CXHA,2023-06-02T19:00:00Z,42.03,-82.9,31.4,10.1,30,7,,,,1016.8,,TRUE,TRUE,,,,,,,,,,,,,,,,-1.4,,,,,,,,,,,METAR,193.0
CXGH 021900Z AUTO 03007KT 22/19 RMK AO1 SLP161 T02200192 58004,CXGH,2023-06-02T19:00:00Z,50.63,-97.0,22.0,19.2,30,7,,,,1016.1,,TRUE,TRUE,,,,,,,,,,,,,,,,-0.4,,,,,,,,,,,METAR,217.0
CXFM 021900Z AUTO 35007KT 18/09 RMK AO1 T01750090,CXFM,2023-06-02T19:00:00Z,49.48,-111.48,17.5,9.0,350,7,,,,,,TRUE,TRUE,,,,,,,,,,,,,,,,,,,,,,,,,,,METAR,884.0
CXET 021900Z AUTO 33008KT 27/16 RMK AO1 SLP176 T02710156 58013,CXET,2023-06-02T19:00:00Z,44.23,-79.78,27.1,15.6,330,8,,,,1017.6,,TRUE,TRUE,,,,,,,,,,,,,,,,-1.3,,,,,,,,,,,METAR,250.0
CXEG 021900Z AUTO 30003KT 21/06 RMK AO1 SLP195 T02080055 50000,CXEG,2023-06-02T19:00:00Z,53.3,-113.6,20.8,5.5,300,3,,,,1019.5,,TRUE,TRUE,,,,,,,,,,,,,,,,0.0,,,,,,,,,,,METAR,706.0
CXEC 021900Z AUTO 25004KT 22/06 RMK AO1 SLP188 T02180057 50000,CXEC,2023-06-02T19:00:00Z,53.57,-113.52,21.8,5.7,250,4,,,,1018.8,,TRUE,TRUE,,,,,,,,,,,,,,,,0.0,,,,,,,,,,,METAR,666.0
CXEA 021900Z AUTO 11007KT 27/18 RMK AO1 SLP182 T02650177 56005,CXEA,2023-06-02T19:00:00Z,50.63,-93.22,26.5,17.7,110,7,,,,1018.2,,TRUE,TRUE,,,,,,,,,,,,,,,,-0.5,,,,,,,,,,,METAR,351.0
CXDW 021900Z AUTO 14009G18KT 31/16 RMK AO1 PK WND 14018/1853 SLP150 T03110162 58001,CXDW,2023-06-02T19:00:00Z,49.4,-98.32,31.1,16.2,140,9,18,,,1015.0,,TRUE,TRUE,,,,,,,,,,,,,,,,-0.1,,,,,,,,,,,METAR,341.0
CXDK 021900Z AUTO 19/M03 RMK AO1 SLP170 T01891029 57024,CXDK,2023-06-02T19:00:00Z,61.27,-124.47,18.9,-2.9,,,,,,1017.0,,TRUE,TRUE,,,,,,,,,,,,,,,,-2.4,,,,,,,,,,,METAR,269.0
CXDI 021900Z AUTO 01007G15KT 33/09 RMK AO1 SLP158 T03270089 56020,CXDI,2023-06-02T19:00:00Z,42.87,-80.55,32.7,8.9,10,7,15,,,1015.8,,TRUE,TRUE,,,,,,,,,,,,,,,,-2.0,,,,,,,,,,,METAR,234.0
CXDE 021900Z AUTO 17005KT 18/M02 RMK AO1 SLP150 T01801022 56010,CXDE,2023-06-02T19:00:00Z,65.22,-123.43,18.0,-2.2,170,5,,,,1015.0,,TRUE,TRUE,,,,,,,,,,,,,,,,-1.0,,,,,,,,,,,METAR,208.0
CXDB 021900Z AUTO 01005KT 15/08 RMK AO1 T01520080,CXDB,2023-06-02T19:00:00Z,49.05,-112.82,15.2,8.0,10,5,,,,,,TRUE,TRUE,,,,,,,,,,,,,,,,,,,,,,,,,,,METAR,1311.0
CXCS 021900Z AUTO 32009KT 20/09 RMK AO1 T01950089,CXCS,2023-06-02T19:00:00Z,51.93,-110.72,19.5,8.9,320,9,,,,,,TRUE,TRUE,,,,,,,,,,,,,,,,,,,,,,,,,,,METAR,771.0
CXCP 021900Z AUTO 05003KT 20/06 RMK AO1 T01960064,CXCP,2023-06-02T19:00:00Z,50.28,-113.35,19.6,6.4,50,3,,,,,,TRUE,TRUE,,,,,,,,,,,,,,,,,,,,,,,,,,,METAR,999.0
CXCK 021900Z AUTO 14009KT 15/M02 RMK AO1 PK WND 14019/1803 SLP121 T01451021 58015,CXCK,2023-06-02T19:00:00Z,62.12,-136.2,14.5,-2.1,140,9,,,,1012.1,,TRUE,TRUE,,,,,,,,,,,,,,,,-1.5,,,,,,,,,,,METAR,526.0
CXCD 021900Z AUTO 10010KT 21/00 RMK AO1 T02110000,CXCD,2023-06-02T19:00:00Z,56.32,-119.75,21.1,0.0,100,10,,,,,,TRUE,TRUE,,,,,,,,,,,,,,,,,,,,,,,,,,,METAR,628.0
CXCA 021900Z AUTO 15008KT 27/15 RMK AO1 SLP215 T02730152 58004,CXCA,2023-06-02T19:00:00Z,49.15,-88.35,27.3,15.2,150,8,,,,1021.5,,TRUE,TRUE,,,,,,,,,,,,,,,,-0.4,,,,,,,,,,,METAR,228.0
CXBW 021900Z AUTO 24007KT 17/09 RMK AO1 T01730091,CXBW,2023-06-02T19:00:00Z,49.8,-112.3,17.3,9.1,240,7,,,,,,TRUE,TRUE,,,,,,,,,,,,,,,,,,,,,,,,,,,METAR,823.0
CXBR 021900Z AUTO 18003KT 17/07 RMK AO1 T01650074,CXBR,2023-06-02T19:00:00Z,49.62,-113.82,16.5,7.4,180,3,,,,,,TRUE,TRUE,,,,,,,,,,,,,,,,,,,,,,,,,,,METAR,1137.0
CXBO 021900Z AUTO 07019G29KT 15/10 RMK AO1 PK WND 08032/1810 T01480101,CXBO,2023-06-02T19:00:00Z,46.83,-71.2,14.8,10.1,70,19,29,,,,,TRUE,TRUE,,,,,,,,,,,,,,,,,,,,,,,,,,,METAR,8.0
CXBI 021900Z AUTO 33010G15KT 29/17 RMK AO1 PK WND 34017/1814 SLP175 T02870169 58012,CXBI,2023-06-02T19:00:00Z,44.48,-79.55,28.7,16.9,330,10,15,,,1017.5,,TRUE,TRUE,,,,,,,,,,,,,,,,-1.2,,,,,,,,,,,METAR,287.0
CXBA 021900Z AUTO 35009KT 22/11 RMK AO1 PK WND 30018/1803 T02190108,CXBA,2023-06-02T19:00:00Z,52.12,-110.1,21.9,10.8,350,9,,,,,,TRUE,TRUE,,,,,,,,,,,,,,,,,,,,,,,,,,,METAR,696.0
CXAK 021900Z AUTO 32006KT 22/08 RMK AO1 T02150077,CXAK,2023-06-02T19:00:00Z,52.35,-112.6,21.5,7.7,320,6,,,,,,TRUE,TRUE,,,,,,,,,,,,,,,,,,,,,,,,,,,METAR,799.0
CXAJ 021900Z AUTO 34004KT 22/08 RMK AO1 T02170083,CXAJ,2023-06-02T19:00:00Z,54.78,-112.82,21.7,8.3,340,4,,,,,,TRUE,TRUE,,,,,,,,,,,,,,,,,,,,,,,,,,,METAR,586.0
CXAG 021900Z AUTO 35008KT 20/11 RMK AO1 T01950111,CXAG,2023-06-02T19:00:00Z,53.92,-112.28,19.5,11.1,350,8,,,,,,TRUE,TRUE,,,,,,,,,,,,,,,,,,,,,,,,,,,METAR,632.0
CXAF 021900Z AUTO 04005KT 20/09 RMK AO1 T01980093,CXAF,2023-06-02T19:00:00Z,54.28,-112.97,19.8,9.3,40,5,,,,,,TRUE,TRUE,,,,,,,,,,,,,,,,,,,,,,,,,,,METAR,667.0
CWZW 021900Z AUTO 15006KT 14/M00 RMK AO1 SLP162 T01391004 58013,CWZW,2023-06-02T19:00:00Z,60.17,-132.73,13.9,-0.4,150,6,,,,1016.2,,TRUE,TRUE,,,,,,,,,,,,,,,,-1.3,,,,,,,,,,,METAR,683.0
CWZQ 021900Z AUTO 31004KT 15/10 RMK AO1 SLP163 T01460098 51014,CWZQ,2023-06-02T19:00:00Z,46.53,-61.05,14.6,9.8,310,4,,,,1016.3,,TRUE,TRUE,,,,,,,,,,,,,,,,1.4,,,,,,,,,,,METAR,13.0
CWZO 021900Z AUTO 17011KT RMK AO1,CWZO,2023-06-02T19:00:00Z,48.57,-123.25,,,170,11,,,,,,TRUE,TRUE,,,,,,,,,,,,,,,,,,,,,,,,,,,METAR,5.0
CWZN 021900Z AUTO 04005KT 15/10 RMK AO1 PK WND 04018/1800 SLP166 T01480097 55000,CWZN,2023-06-02T19:00:00Z,47.37,-55.8,14.8,9.7,40,5,,,,1016.6,,TRUE,TRUE,,,,,,,,,,,,,,,,0.0,,,,,,,,,,,METAR,63.0
CWZL 021900Z AUTO 15016KT 11/10 RMK AO1 PK WND 15019/1859 SLP145 T01100095 51009,CWZL,2023-06-02T19:00:00Z,53.03,-131.6,11.0,9.5,150,16,,,,1014.5,,TRUE,TRUE,,,,,,,,,,,,,,,,0.9,,,,,,,,,,,METAR,17.0
CWZG 021900Z AUTO 08003KT 20/05 RMK AO1 SLP173 T01960046 56014,CWZG,2023-06-02T19:00:00Z,51.2,-115.55,19.6,4.6,80,3,,,,1017.3,,TRUE,TRUE,,,,,,,,,,,,,,,,-1.4,,,,,,,,,,,METAR,1402.0
CWZA 021900Z AUTO 23005KT 19/08 RMK AO1 SLP190 T01930081 58004,CWZA,2023-06-02T19:00:00Z,49.25,-121.77,19.3,8.1,230,5,,,,1019.0,,TRUE,TRUE,,,,,,,,,,,,,,,,-0.4,,,,,,,,,,,METAR,18.0
CWYY 021900Z AUTO 19005KT 24/05 RMK AO1 SLP144 T02410051 58013,CWYY,2023-06-02T19:00:00Z,49.03,-119.43,24.1,5.1,190,5,,,,1014.4,,TRUE,TRUE,,,,,,,,,,,,,,,,-1.3,,,,,,,,,,,METAR,284.0
CWYL 021900Z AUTO 36003KT 20/02 RMK AO1 SLP175 T02040017 56009,CWYL,2023-06-02T19:00:00Z,51.45,-116.33,20.4,1.7,360,3,,,,1017.5,,TRUE,TRUE,,,,,,,,,,,,,,,,-0.9,,,,,,,,,,,METAR,1602.0
CWYJ 021900Z AUTO 17004KT 18/04 RMK AO1 SLP197 T01800043 53003,CWYJ,2023-06-02T19:00:00Z,48.45,-123.3,18.0,4.3,170,4,,,,1019.7,,TRUE,TRUE,,,,,,,,,,,,,,,,0.3,,,,,,,,,,,METAR,59.0
CWXL 021900Z AUTO 35006KT 19/10 RMK AO1 SLP190 T01940100 56007,CWXL,2023-06-02T19:00:00Z,49.73,-111.45,19.4,10.0,350,6,,,,1019.0,,TRUE,TRUE,,,,,,,,,,,,,,,,-0.7,,,,,,,,,,,METAR,815.0
CWXI 021900Z AUTO 05020G26KT 03/01 RMK AO1 PK WND 05027/1832 SLP249 T00250014 51005,CWXI,2023-06-02T19:00:00Z,51.02,-57.1,2.5,1.4,50,20,26,,,1024.9,,TRUE,TRUE,,,,,,,,,,,,,,,,0.5,,,,,,,,,,,METAR,15.0
CWXC 021900Z AUTO 03004KT 17/10 RMK AO1 SLP212 T01740095 51016,CWXC,2023-06-02T19:00:00Z,48.88,-71.03,17.4,9.5,30,4,,,,1021.2,,TRUE,TRUE,,,,,,,,,,,,,,,,1.6,,,,,,,,,,,METAR,306.0
CWXA 021900Z AUTO 00005KT 19/06 RMK AO1 SLP209 T01920064 56005,CWXA,2023-06-02T19:00:00Z,51.07,-115.07,19.2,6.4,0,5,,,,1020.9,,TRUE,TRUE,,,,,,,,,,,,,,,,-0.5,,,,,,,,,,,METAR,1303.0
CWWZ 021900Z AUTO 31001KT 28/17 RMK AO1 SLP158 T02790168 56018,CWWZ,2023-06-02T19:00:00Z,43.25,-79.22,27.9,16.8,310,1,,,,1015.8,,TRUE,TRUE,,,,,,,,,,,,,,,,-1.8,,,,,,,,,,,METAR,75.0
CWWS 021900Z AUTO 31009KT 16/14 RMK AO1 SLP179 T01620135 58001,CWWS,2023-06-02T19:00:00Z,52.82,-97.62,16.2,13.5,310,9,,,,1017.9,,TRUE,TRUE,,,,,,,,,,,,,,,,-0.1,,,,,,,,,,,METAR,220.0
CWWL 021900Z AUTO 13017G24KT 11/10 RMK AO1 6PAST HR 3008 PK WND 13026/1825 SLP155 P0010 T01090096 50026,CWWL,2023-06-02T19:00:00Z,53.5,-130.63,10.9,9.6,130,17,24,,,1015.5,,TRUE,TRUE,,,,,,,,,,,,,,,,2.6,,,,,0.1,,,,,,METAR,8.0
CWWK 021900Z AUTO 23003KT 18/09 RMK AO1 SLP203 T01810089 56001,CWWK,2023-06-02T19:00:00Z,49.02,-122.78,18.1,8.9,230,3,,,,1020.3,,TRUE,TRUE,,,,,,,,,,,,,,,,-0.1,,,,,,,,,,,METAR,10.0
CWWF 021900Z AUTO 12010KT 25/16 RMK AO1 SLP139 T02530155 55004,CWWF,2023-06-02T19:00:00Z,49.7,-103.8,25.3,15.5,120,10,,,,1013.9,,TRUE,TRUE,,,,,,,,,,,,,,,,-0.4,,,,,,,,,,,METAR,583.0
CWWE 021900Z AUTO 02004KT RMK AO1 53007,CWWE,2023-06-02T19:00:00Z,43.98,-64.67,,,20,4,,,,,,TRUE,TRUE,,,,,,,,,,,,,,,,0.7,,,,,,,,,,,METAR,4.0
CWWB 021900Z AUTO 11005KT 28/11 RMK AO1 SLP157 T02830112 56016,CWWB,2023-06-02T19:00:00Z,43.3,-79.78,28.3,11.2,110,5,,,,1015.7,,TRUE,TRUE,,,,,,,,,,,,,,,,-1.6,,,,,,,,,,,METAR,77.0
CWWA 021900Z AUTO 20002KT 19/05 RMK AO1 SLP196 T01910054 51003,CWWA,2023-06-02T19:00:00Z,49.35,-123.18,19.1,5.4,200,2,,,,1019.6,,TRUE,TRUE,,,,,,,,,,,,,,,,0.3,,,,,,,,,,,METAR,172.0
CWVU 021900Z AUTO 01023KT 11/08 RMK AO1 PK WND 01034/1800 SLP123 T01110080 55000,CWVU,2023-06-02T19:00:00Z,44.28,-66.33,11.1,8.0,10,23,,,,1012.3,,TRUE,TRUE,,,,,,,,,,,,,,,,0.0,,,,,,,,,,,METAR,4.0
CWVT 021900Z AUTO 34004KT 18/15 RMK AO1 SLP185 T01800152 53010,CWVT,2023-06-02T19:00:00Z,55.83,-108.42,18.0,15.2,340,4,,,,1018.5,,TRUE,TRUE,,,,,,,,,,,,,,,,1.0,,,,,,,,,,,METAR,431.0
CWVQ 021900Z AUTO 02005KT 30/14 RMK AO1 SLP133 T02980140 56019,CWVQ,2023-06-02T19:00:00Z,45.42,-73.92,29.8,14.0,20,5,,,,1013.3,,TRUE,TRUE,,,,,,,,,,,,,,,,-1.9,,,,,,,,,,,METAR,38.0
CWVP 021900Z AUTO 36007KT 11/11 RMK AO1 SLP185 T01140107 53005,CWVP,2023-06-02T19:00:00Z,49.63,-109.52,11.4,10.7,360,7,,,,1018.5,,TRUE,TRUE,,,,,,,,,,,,,,,,0.5,,,,,,,,,,,METAR,1269.0
CWVN 021900Z AUTO 03012KT 17/14 RMK AO1 SLP161 T01720135 51002,CWVN,2023-06-02T19:00:00Z,49.07,-107.58,17.2,13.5,30,12,,,,1016.1,,TRUE,TRUE,,,,,,,,,,,,,,,,0.2,,,,,,,,,,,METAR,792.0
CWVI 021900Z AUTO 35010G16KT 21/09 RMK AO1 SLP185 T02130092 50002,CWVI,2023-06-02T19:00:00Z,53.52,-112.1,21.3,9.2,350,10,16,,,1018.5,,TRUE,TRUE,,,,,,,,,,,,,,,,0.2,,,,,,,,,,,METAR,640.0
CWVF 021900Z AUTO 15012KT 15/10 RMK AO1 T01490095,CWVF,2023-06-02T19:00:00Z,49.1,-123.3,14.9,9.5,150,12,,,,,,TRUE,TRUE,,,,,,,,,,,,,,,,,,,,,,,,,,,METAR,13.0
CWUX 021900Z AUTO 12008KT 15/09 RMK AO1 SLP210 T01540091 53004,CWUX,2023-06-02T19:00:00Z,48.3,-70.93,15.4,9.1,120,8,,,,1021.0,,TRUE,TRUE,,,,,,,,,,,,,,,,0.4,,,,,,,,,,,METAR,150.0
CWUW 021900Z AUTO 20024KT ////SM ////// M04/M04 A3012,CWUW,2023-06-02T19:00:00Z,68.62,-71.12,-4.0,-4.0,200,24,,,30.121063,,,TRUE,,,,,,,,,,,,,,,,,,,,,,,,,,,,METAR,173.0
CWUS 021900Z AUTO 07003KT 22/05 RMK AO1 SLP143 T02230047 58013,CWUS,2023-06-02T19:00:00Z,49.57,-119.65,22.3,4.7,70,3,,,,1014.3,,TRUE,TRUE,,,,,,,,,,,,,,,,-1.3,,,,,,,,,,,METAR,455.0
CWTY 021900Z AUTO 05009G16KT 23/15 RMK AO1 SLP145 T02310154 58010,CWTY,2023-06-02T19:00:00Z,46.35,-72.52,23.1,15.4,50,9,16,,,1014.5,,TRUE,TRUE,,,,,,,,,,,,,,,,-1.0,,,,,,,,,,,METAR,8.0
CWTT 021900Z AUTO 34004KT 28/15 RMK AO1 T02840147,CWTT,2023-06-02T19:00:00Z,45.27,-72.17,28.4,14.7,340,4,,,,,,TRUE,TRUE,,,,,,,,,,,,,,,,,,,,,,,,,,,METAR,210.0
CWTN 021900Z AUTO 07016G23KT 11/09 RMK AO1 4PAST HR 3008 PK WND 06030/1836 SLP187 P0005 T01080087 50014,CWTN,2023-06-02T19:00:00Z,47.07,-70.78,10.8,8.7,70,16,23,,,1018.7,,TRUE,TRUE,,,,,,,,,,,,,,,,1.4,,,,,0.05,,,,,,METAR,5.0
CWTG 021900Z AUTO 05019KT 09/05 RMK AO1 PK WND 05022/1850 SLP242 T00850053 51013,CWTG,2023-06-02T19:00:00Z,49.32,-67.37,8.5,5.3,50,19,,,,1024.2,,TRUE,TRUE,,,,,,,,,,,,,,,,1.3,,,,,,,,,,,METAR,6.0
CWTA 021900Z AUTO 04003KT 30/15 RMK AO1 SLP132 T02980146 56018,CWTA,2023-06-02T19:00:00Z,45.5,-73.58,29.8,14.6,40,3,,,,1013.2,,TRUE,TRUE,,,,,,,,,,,,,,,,-1.8,,,,,,,,,,,METAR,71.0
CWSW 021900Z 13008KT 090V230 20SM SCT040 BKN290 21/08 A3005 RMK CU4CI3 DIST HZ ALQDS CONTRAILS SLP166 DENSITY ALT 5300FT,CWSW,2023-06-02T19:00:00Z,49.83,-114.87,21.0,8.0,130,8,,20.0,30.050198,1016.6,,,,,,,,,,SCT,4000,BKN,29000,,,,,VFR,,,,,,,,,,,,METAR,1173.0
CWST 021900Z AUTO 03016G28KT 09/06 RMK AO1 PK WND 02028/1850 SLP208 T00850058 52013,CWST,2023-06-02T19:00:00Z,47.35,-70.02,8.5,5.8,30,16,28,,,1020.8,,TRUE,TRUE,,,,,,,,,,,,,,,,1.3,,,,,,,,,,,METAR,31.0
CWSS 021900Z AUTO 05012G19KT 21/11 RMK AO1 PK WND 04020/1836 SLP148 T02060107 53007,CWSS,2023-06-02T19:00:00Z,45.2,-67.25,20.6,10.7,50,12,19,,,1014.8,,TRUE,TRUE,,,,,,,,,,,,,,,,0.7,,,,,,,,,,,METAR,27.0
CWSR 021900Z AUTO 31005KT 19/12 RMK AO1 SLP170 T01860124 53011,CWSR,2023-06-02T19:00:00Z,53.37,-107.55,18.6,12.4,310,5,,,,1017.0,,TRUE,TRUE,,,,,,,,,,,,,,,,1.1,,,,,,,,,,,METAR,589.0
CWSP 021900Z AUTO 29020KT 11/08 RMK AO1 PK WND 29024/1857 SLP199 T01120075 58001,CWSP,2023-06-02T19:00:00Z,48.38,-123.92,11.2,7.5,290,20,,,,1019.9,,TRUE,TRUE,,,,,,,,,,,,,,,,-0.1,,,,,,,,,,,METAR,2.0
CWSL 021900Z AUTO 33002KT 22/09 RMK AO1 SLP148 T02170089 58014,CWSL,2023-06-02T19:00:00Z,50.7,-119.28,21.7,8.9,330,2,,,,1014.8,,TRUE,TRUE,,,,,,,,,,,,,,,,-1.4,,,,,,,,,,,METAR,353.0
CWSK 021900Z AUTO 13005KT 20/08 RMK AO1 SLP178 T02030080 57008,CWSK,2023-06-02T19:00:00Z,49.78,-123.17,20.3,8.0,130,5,,,,1017.8,,TRUE,TRUE,,,,,,,,,,,,,,,,-0.8,,,,,,,,,,,METAR,59.0
CWSG 021900Z AUTO 06011KT 09/06 RMK AO1 PK WND 08024/1802 SLP232 T00880064 50007,CWSG,2023-06-02T19:00:00Z,49.12,-66.65,8.8,6.4,60,11,,,,1023.2,,TRUE,TRUE,,,,,,,,,,,,,,,,0.7,,,,,,,,,,,METAR,5.0
CWSF 021900Z AUTO 10014KT 08/04 RMK AO1 PK WND 10019/1845 SLP248 T00770042 51006,CWSF,2023-06-02T19:00:00Z,49.25,-65.32,7.7,4.2,100,14,,,,1024.8,,TRUE,TRUE,,,,,,,,,,,,,,,,0.6,,,,,,,,,,,METAR,15.0
CWSD 021900Z AUTO 03018G24KT 08/08 RMK AO1 3PAST HR 3005 PK WND 03024/1854 SLP184 P0001 T00760075 50003,CWSD,2023-06-02T19:00:00Z,46.43,-63.85,7.6,7.5,30,18,24,,,1018.4,,TRUE,TRUE,,,,,,,,,,,,,,,,0.3,,,,,0.01,,,,,,METAR,12.0
CWRZ 021900Z AUTO 06030G35KT 07/06 RMK AO1 PK WND 05035/1853 SLP229 T00660055 52012,CWRZ,2023-06-02T19:00:00Z,48.42,-64.32,6.6,5.5,60,30,35,,,1022.9,,TRUE,TRUE,,,,,,,,,,,,,,,,1.2,,,,,,,,,,,METAR,16.0
CWRY 021900Z AUTO 36008KT 15/10 RMK AO1 SLP200 T01480097 57001,CWRY,2023-06-02T19:00:00Z,49.12,-112.05,14.8,9.7,360,8,,,,1020.0,,TRUE,TRUE,,,,,,,,,,,,,,,,-0.1,,,,,,,,,,,METAR,1048.0
CWRX 021900Z AUTO ///// ////SM ////// 00/M01 A2997,CWRX,2023-06-02T19:00:00Z,69.07,-79.07,0.0,-1.0,,,,,29.970472,,,TRUE,,,,,,,,,,,,,,,,,,,,,,,,,,,,METAR,39.0
CWRU 021900Z AUTO 13018G23KT 11/ RMK AO1 PK WND 12024/1807 SLP187 T0111 53011,CWRU,2023-06-02T19:00:00Z,50.12,-127.93,11.1,,130,18,23,,,1018.7,,TRUE,TRUE,,,,,,,,,,,,,,,,1.1,,,,,,,,,,,METAR,76.0
CWRT 021900Z AUTO 11010KT 16/07 RMK AO1 SLP195 T01600071 53005,CWRT,2023-06-02T19:00:00Z,49.62,-114.47,16.0,7.1,110,10,,,,1019.5,,TRUE,TRUE,,,,,,,,,,,,,,,,0.5,,,,,,,,,,,METAR,1311.0
CWRO 021900Z AUTO 14019G25KT 12/ RMK AO1 PK WND 13033/1801 SLP147 T0119 53009,CWRO,2023-06-02T19:00:00Z,54.17,-131.67,11.9,,140,19,25,,,1014.7,,TRUE,TRUE,,,,,,,,,,,,,,,,0.9,,,,,,,,,,,METAR,7.0
CWRN 021900Z AUTO 08010KT 09/08 RMK AO1 PK WND 10017/1812 SLP165 T00880076 55002,CWRN,2023-06-02T19:00:00Z,45.35,-60.98,8.8,7.6,80,10,,,,1016.5,,TRUE,TRUE,,,,,,,,,,,,,,,,-0.2,,,,,,,,,,,METAR,8.0
CWRM 021900Z AUTO 12004KT 18/08 RMK AO1 SLP183 T01780077 56004,CWRM,2023-06-02T19:00:00Z,52.42,-114.92,17.8,7.7,120,4,,,,1018.3,,TRUE,TRUE,,,,,,,,,,,,,,,,-0.4,,,,,,,,,,,METAR,986.0
CWRK 021900Z AUTO 01006KT 29/15 RMK AO1 SLP165 T02900149 58011,CWRK,2023-06-02T19:00:00Z,45.07,-77.87,29.0,14.9,10,6,,,,1016.5,,TRUE,TRUE,,,,,,,,,,,,,,,,-1.1,,,,,,,,,,,METAR,328.0
CWRJ 021900Z AUTO 34005KT 18/13 RMK AO1 SLP175 T01810126 52009,CWRJ,2023-06-02T19:00:00Z,51.57,-107.92,18.1,12.6,340,5,,,,1017.5,,TRUE,TRUE,,,,,,,,,,,,,,,,0.9,,,,,,,,,,,METAR,586.0
CWRA 021900Z AUTO 03016KT 09/08 RMK AO1 PK WND 03022/1838 SLP149 T00870079 58004,CWRA,2023-06-02T19:00:00Z,46.65,-53.07,8.7,7.9,30,16,,,,1014.9,,TRUE,TRUE,,,,,,,,,,,,,,,,-0.4,,,,,,,,,,,METAR,4.0
CWQV 021900Z AUTO 10017KT 11/ RMK AO1 PK WND 10022/1831 T0114,CWQV,2023-06-02T19:00:00Z,48.27,-70.12,11.4,,100,17,,,,,,TRUE,TRUE,,,,,,,,,,,,,,,,,,,,,,,,,,,METAR,4.0
CWQS 021900Z AUTO 14011KT 09/07 RMK AO1 SLP136 T00910070 51017,CWQS,2023-06-02T19:00:00Z,53.32,-132.77,9.1,7.0,140,11,,,,1013.6,,TRUE,TRUE,,,,,,,,,,,,,,,,1.7,,,,,,,,,,,METAR,10.0
CWQR 021900Z AUTO 14014KT 07/03 RMK AO1 PK WND 13019/1810 T00690028,CWQR,2023-06-02T19:00:00Z,50.22,-64.22,6.9,2.8,140,14,,,,,,TRUE,TRUE,,,,,,,,,,,,,,,,,,,,,,,,,,,METAR,9.0
CWQP 021900Z AUTO 25007KT 23/17 RMK AO1 SLP152 T02260173 58015,CWQP,2023-06-02T19:00:00Z,43.83,-77.15,22.6,17.3,250,7,,,,1015.2,,TRUE,TRUE,,,,,,,,,,,,,,,,-1.5,,,,,,,,,,,METAR,77.0
CWQO 021900Z AUTO 05020KT 08/06 RMK AO1 PK WND 05026/1811 T00810061,CWQO,2023-06-02T19:00:00Z,48.42,-68.9,8.1,6.1,50,20,,,,,,TRUE,TRUE,,,,,,,,,,,,,,,,,,,,,,,,,,,METAR,7.0
CWQK 021900Z AUTO 28020KT 11/07 RMK AO1 PK WND 28024/1835 SLP196 T01120071 55000,CWQK,2023-06-02T19:00:00Z,48.3,-123.53,11.2,7.1,280,20,,,,1019.6,,TRUE,TRUE,,,,,,,,,,,,,,,,0.0,,,,,,,,,,,METAR,5.0
CWQH 021900Z AUTO 33009G17KT 30/14 RMK AO1 PK WND 33017/1858 SLP125 T03030141 58023,CWQH,2023-06-02T19:00:00Z,45.37,-71.82,30.3,14.1,330,9,17,,,1012.5,,TRUE,TRUE,,,,,,,,,,,,,,,,-2.3,,,,,,,,,,,METAR,181.0
CWPZ 021900Z AUTO 28003KT 18/M01 RMK AO1 SLP164 T01791007 56007,CWPZ,2023-06-02T19:00:00Z,54.38,-125.97,17.9,-0.7,280,3,,,,1016.4,,TRUE,TRUE,,,,,,,,,,,,,,,,-0.7,,,,,,,,,,,METAR,715.0
CWPR 021900Z AUTO 23001KT 22/02 RMK AO1 SLP142 T02160016 58021,CWPR,2023-06-02T19:00:00Z,49.47,-120.52,21.6,1.6,230,1,,,,1014.2,,TRUE,TRUE,,,,,,,,,,,,,,,,-2.1,,,,,,,,,,,METAR,703.0
CWPO 021900Z AUTO 13011G17KT 31/15 RMK AO1 PK WND 11018/1849 SLP155 T03060150 58002,CWPO,2023-06-02T19:00:00Z,49.2,-98.9,30.6,15.0,130,11,17,,,1015.5,,TRUE,TRUE,,,,,,,,,,,,,,,,-0.2,,,,,,,,,,,METAR,471.0
CWPK 021900Z AUTO 07004KT 26/06 RMK AO1 5PAST HR 8005 SLP185 P0099 T02600062 50255,CWPK,2023-06-02T19:00:00Z,47.92,-74.62,26.0,6.2,70,4,,,,1018.5,,TRUE,TRUE,,,,,,,,,,,,,,,,0.0,,,,,0.99,,,,,,METAR,443.0
CWPE 021900Z AUTO 03012G21KT 17/10 RMK AO1 PK WND 02024/1826 SLP151 T01740104 51009,CWPE,2023-06-02T19:00:00Z,45.07,-66.47,17.4,10.4,30,12,21,,,1015.1,,TRUE,TRUE,,,,,,,,,,,,,,,,0.9,,,,,,,,,,,METAR,9.0
CWPD 021900Z AUTO 01005KT 17/11 RMK AO1 SLP154 T01660107 53014,CWPD,2023-06-02T19:00:00Z,47.57,-71.22,16.6,10.7,10,5,,,,1015.4,,TRUE,TRUE,,,,,,,,,,,,,,,,1.4,,,,,,,,,,,METAR,795.0
CWOY 021900Z AUTO 14003KT 21/16 RMK AO1 SLP170 T02050158 51012,CWOY,2023-06-02T19:00:00Z,51.77,-104.2,20.5,15.8,140,3,,,,1017.0,,TRUE,TRUE,,,,,,,,,,,,,,,,1.2,,,,,,,,,,,METAR,557.0
CWOD 021900Z AUTO 06010G16KT 22/14 RMK AO1 PK WND 08019/1827 SLP200 T02150135 51011,CWOD,2023-06-02T19:00:00Z,48.85,-72.55,21.5,13.5,60,10,16,,,1020.0,,TRUE,TRUE,,,,,,,,,,,,,,,,1.1,,,,,,,,,,,METAR,150.0
CWOC 021900Z AUTO 07005KT 07/06 RMK AO1 0PAST HR 3008 SLP222 P0004 T00740055 50010,CWOC,2023-06-02T19:00:00Z,48.02,-65.32,7.4,5.5,70,5,,,,1022.2,,TRUE,TRUE,,,,,,,,,,,,,,,,1.0,,,,,0.04,,,,,,METAR,42.0
CWOB 021900Z AUTO 28008KT 250V310 ////SM ////// ///// A3038,CWOB,2023-06-02T19:00:00Z,63.33,-64.15,,,280,8,,,30.380905,,,TRUE,,,,,,,,,,,,,,,,,,,,,,,,,,,,METAR,369.0
CWNZ 021900Z AUTO 05005KT 25/10 RMK AO1 SLP237 T02480102 56012,CWNZ,2023-06-02T19:00:00Z,49.75,-84.17,24.8,10.2,50,5,,,,1023.7,,TRUE,TRUE,,,,,,,,,,,,,,,,-1.2,,,,,,,,,,,METAR,261.0
CWNQ 021900Z AUTO 31008KT 25/17 RMK AO1 SLP137 T02540170 58011,CWNQ,2023-06-02T19:00:00Z,46.22,-72.65,25.4,17.0,310,8,,,,1013.7,,TRUE,TRUE,,,,,,,,,,,,,,,,-1.1,,,,,,,,,,,METAR,9.0
CWNP 021900Z AUTO 24002KT 23/07 RMK AO1 SLP144 T02260071 58014,CWNP,2023-06-02T19:00:00Z,50.27,-117.82,22.6,7.1,240,2,,,,1014.4,,TRUE,TRUE,,,,,,,,,,,,,,,,-1.4,,,,,,,,,,,METAR,517.0
CWNM 021900Z AUTO 03003KT 26/08 RMK AO1 SLP142 T02580082 57016,CWNM,2023-06-02T19:00:00Z,49.5,-117.3,25.8,8.2,30,3,,,,1014.2,,TRUE,TRUE,,,,,,,,,,,,,,,,-1.6,,,,,,,,,,,METAR,533.0
CWNK 021900Z AUTO 16010G16KT 32/18 RMK AO1 SLP147 T03240176 58003,CWNK,2023-06-02T19:00:00Z,49.5,-98.03,32.4,17.6,160,10,16,,,1014.7,,TRUE,TRUE,,,,,,,,,,,,,,,,-0.3,,,,,,,,,,,METAR,271.0
CWNH 021900Z AUTO 02013G21KT 09/06 RMK AO1 PK WND 01025/1815 SLP214 T00850064 51015,CWNH,2023-06-02T19:00:00Z,47.8,-69.53,8.5,6.4,20,13,21,,,1021.4,,TRUE,TRUE,,,,,,,,,,,,,,,,1.5,,,,,,,,,,,METAR,147.0
CWNE 021900Z AUTO 03025G30KT 06/06 RMK AO1 PK WND 04032/1833 SLP197 T00640057 53007,CWNE,2023-06-02T19:00:00Z,47.07,-64.0,6.4,5.7,30,25,30,,,1019.7,,TRUE,TRUE,,,,,,,,,,,,,,,,0.7,,,,,,,,,,,METAR,5.0
CWND 021900Z AUTO 17010KT 07/04 RMK AO1 SLP021 T00650035 56010,CWND,2023-06-02T19:00:00Z,69.63,-135.43,6.5,3.5,170,10,,,,1002.1,,TRUE,TRUE,,,,,,,,,,,,,,,,-1.0,,,,,,,,,,,METAR,14.0
CWNC 021900Z AUTO 28007KT 21/16 RMK AO1 SLP147 T02100162 58017,CWNC,2023-06-02T19:00:00Z,43.95,-78.17,21.0,16.2,280,7,,,,1014.7,,TRUE,TRUE,,,,,,,,,,,,,,,,-1.7,,,,,,,,,,,METAR,71.0
CWMT 021900Z AUTO 18005KT 20/M07 RMK AO1 SLP196 T01971073 55004,CWMT,2023-06-02T19:00:00Z,63.13,-117.25,19.7,-7.3,180,5,,,,1019.6,,TRUE,TRUE,,,,,,,,,,,,,,,,-0.4,,,,,,,,,,,METAR,274.0
CWMQ 021900Z AUTO 32005KT 16/12 RMK AO1 SLP187 T01620116 53002,CWMQ,2023-06-02T19:00:00Z,49.9,-109.47,16.2,11.6,320,5,,,,1018.7,,TRUE,TRUE,,,,,,,,,,,,,,,,0.2,,,,,,,,,,,METAR,767.0
CWMM 021900Z AUTO 18003KT 20/08 RMK AO1 SLP197 T01960077 58004,CWMM,2023-06-02T19:00:00Z,49.22,-122.68,19.6,7.7,180,3,,,,1019.7,,TRUE,TRUE,,,,,,,,,,,,,,,,-0.4,,,,,,,,,,,METAR,2.0
CWMJ 021900Z AUTO 03009KT 29/15 RMK AO1 SLP157 T02900148 58014,CWMJ,2023-06-02T19:00:00Z,46.27,-76.0,29.0,14.8,30,9,,,,1015.7,,TRUE,TRUE,,,,,,,,,,,,,,,,-1.4,,,,,,,,,,,METAR,198.0
CWME 021900Z AUTO 22005KT 16/07 RMK AO1 SLP171 T01560072 56009,CWME,2023-06-02T19:00:00Z,52.18,-127.47,15.6,7.2,220,5,,,,1017.1,,TRUE,TRUE,,,,,,,,,,,,,,,,-0.9,,,,,,,,,,,METAR,23.0
CWLY 021900Z AUTO 19013G22KT 160V220 9SM CLR 24/07 A2993 RMK SLP137 DENSITY ALT 1900FT,CWLY,2023-06-02T19:00:00Z,50.22,-121.58,24.0,7.0,190,13,22,9.0,29.929134,1013.7,,TRUE,,,,,,,,CLR,,,,,,,,VFR,,,,,,,,,,,,METAR,228.0
CWLX 021900Z AUTO ///// ////SM ////// M00/M01 A3007,CWLX,2023-06-02T19:00:00Z,68.9,-75.15,0.0,-1.0,,,,,30.070866,,,TRUE,,,,,,,,,,,,,,,,,,,,,,,,,,,,METAR,129.0
CWLS 021900Z AUTO 01009G15KT 29/12 RMK AO1 SLP179 T02890122 56014,CWLS,2023-06-02T19:00:00Z,43.97,-80.75,28.9,12.2,10,9,15,,,1017.9,,TRUE,TRUE,,,,,,,,,,,,,,,,-1.4,,,,,,,,,,,METAR,413.0
CWLP 021900Z AUTO 10012KT 13/08 RMK AO1 SLP182 T01330081 55004,CWLP,2023-06-02T19:00:00Z,50.93,-127.63,13.3,8.1,100,12,,,,1018.2,,TRUE,TRUE,,,,,,,,,,,,,,,,-0.4,,,,,,,,,,,METAR,15.0
CWLM 021900Z AUTO 22007KT 15/07 RMK AO1 SLP200 T01500074 52003,CWLM,2023-06-02T19:00:00Z,48.42,-123.32,15.0,7.4,220,7,,,,1020.0,,TRUE,TRUE,,,,,,,,,,,,,,,,0.3,,,,,,,,,,,METAR,62.0
CWLE 021900Z AUTO 35005KT 20/13 RMK AO1 SLP177 T01970130 53002,CWLE,2023-06-02T19:00:00Z,50.95,-107.15,19.7,13.0,350,5,,,,1017.7,,TRUE,TRUE,,,,,,,,,,,,,,,,0.2,,,,,,,,,,,METAR,666.0
CWLC 021900Z AUTO 13019KT 11/08 RMK AO1 PK WND 13025/1820 T01110075,CWLC,2023-06-02T19:00:00Z,54.3,-130.62,11.1,7.5,130,19,,,,,,TRUE,TRUE,,,,,,,,,,,,,,,,,,,,,,,,,,,METAR,27.0
CWLB 021900Z AUTO 04008KT 20/09 RMK AO1 SLP192 T02010091 53004,CWLB,2023-06-02T19:00:00Z,54.77,-112.02,20.1,9.1,40,8,,,,1019.2,,TRUE,TRUE,,,,,,,,,,,,,,,,0.4,,,,,,,,,,,METAR,561.0
CWKX 021900Z AUTO 35002KT 12/02 RMK AO1 SLP171 T01190017 57012,CWKX,2023-06-02T19:00:00Z,58.43,-130.02,11.9,1.7,350,2,,,,1017.1,,TRUE,TRUE,,,,,,,,,,,,,,,,-1.2,,,,,,,,,,,METAR,807.0
CWKO 021900Z AUTO 02009KT 18/14 RMK AO1 SLP161 T01760140 56001,CWKO,2023-06-02T19:00:00Z,49.17,-105.97,17.6,14.0,20,9,,,,1016.1,,TRUE,TRUE,,,,,,,,,,,,,,,,-0.1,,,,,,,,,,,METAR,914.0
CWKM 021900Z AUTO 28013KT ////SM NCD 01/M01 A2957,CWKM,2023-06-02T19:00:00Z,69.6,-140.17,1.0,-1.0,280,13,,,29.568897,,,TRUE,,,,,,,,CLR,,,,,,,,,,,,,,,,,,,,METAR,8.0
CWKH 021900Z AUTO 19/06 RMK AO1 SLP182 T01870064 51002,CWKH,2023-06-02T19:00:00Z,48.57,-123.55,18.7,6.4,,,,,,1018.2,,TRUE,TRUE,,,,,,,,,,,,,,,,0.2,,,,,,,,,,,METAR,327.0
CWKG 021900Z AUTO 04005KT 20/15 RMK AO1 SLP132 T01950147 58002,CWKG,2023-06-02T19:00:00Z,44.43,-65.2,19.5,14.7,40,5,,,,1013.2,,TRUE,TRUE,,,,,,,,,,,,,,,,-0.2,,,,,,,,,,,METAR,154.0
CWKD 021900Z AUTO 18/02 RMK AO1 SLP243 T01790022 54000,CWKD,2023-06-02T19:00:00Z,50.73,-71.02,17.9,2.2,,,,,,1024.3,,TRUE,TRUE,,,,,,,,,,,,,,,,,,,,,,,,,,,METAR,496.0
CWJX 021900Z AUTO 33009KT 20/10 RMK AO1 SLP174 T01990098 57001,CWJX,2023-06-02T19:00:00Z,50.88,-109.5,19.9,9.8,330,9,,,,1017.4,,TRUE,TRUE,,,,,,,,,,,,,,,,-0.1,,,,,,,,,,,METAR,671.0
CWJW 021900Z AUTO 28004KT 21/03 RMK AO1 SOG 01 7020 SLP169 T02060029,CWJW,2023-06-02T19:00:00Z,52.93,-118.03,20.6,2.9,280,4,,,,1016.9,,TRUE,TRUE,,,,,,,,,,,,,,,,,,,,,,,,,,,METAR,1022.0
CWJV 021900Z AUTO 23004KT 24/05 RMK AO1 SLP142 T02380046 58012,CWJV,2023-06-02T19:00:00Z,50.22,-119.18,23.8,4.6,230,4,,,,1014.2,,TRUE,TRUE,,,,,,,,,,,,,,,,-1.2,,,,,,,,,,,METAR,487.0
CWJU 021900Z AUTO 22006KT 10/09 RMK AO1 SLP138 T00990093 53012,CWJU,2023-06-02T19:00:00Z,54.25,-133.07,9.9,9.3,220,6,,,,1013.8,,TRUE,TRUE,,,,,,,,,,,,,,,,1.2,,,,,,,,,,,METAR,47.0
CWJT 021900Z AUTO 06002KT 25/20 RMK AO1 SLP144 T02480200 56015,CWJT,2023-06-02T19:00:00Z,46.07,-74.57,24.8,20.0,60,2,,,,1014.4,,TRUE,TRUE,,,,,,,,,,,,,,,,-1.5,,,,,,,,,,,METAR,236.0
CWJR 021900Z AUTO 27004KT 24/10 RMK AO1 SLP147 T02380101 58009,CWJR,2023-06-02T19:00:00Z,49.03,-116.5,23.8,10.1,270,4,,,,1014.7,,TRUE,TRUE,,,,,,,,,,,,,,,,-0.9,,,,,,,,,,,METAR,642.0
CWJO 021900Z AUTO 00011KT 16/09 RMK AO1 SLP208 T01600093 51012,CWJO,2023-06-02T19:00:00Z,48.43,-71.15,16.0,9.3,0,11,,,,1020.8,,TRUE,TRUE,,,,,,,,,,,,,,,,1.2,,,,,,,,,,,METAR,113.0
CWJI 021900Z AUTO 05008KT 18/15 RMK AO1 SLP166 T01790151 53005,CWJI,2023-06-02T19:00:00Z,49.72,-105.93,17.9,15.1,50,8,,,,1016.6,,TRUE,TRUE,,,,,,,,,,,,,,,,0.5,,,,,,,,,,,METAR,724.0
CWJH 021900Z AUTO 15002KT 18/14 RMK AO1 SLP171 T01810142 55000,CWJH,2023-06-02T19:00:00Z,56.32,-103.27,18.1,14.2,150,2,,,,1017.1,,TRUE,TRUE,,,,,,,,,,,,,,,,0.0,,,,,,,,,,,METAR,345.0
CWJD 021900Z AUTO 05006KT 13/11 RMK AO1 SLP178 T01290113 58004,CWJD,2023-06-02T19:00:00Z,53.18,-99.27,12.9,11.3,50,6,,,,1017.8,,TRUE,TRUE,,,,,,,,,,,,,,,,-0.4,,,,,,,,,,,METAR,222.0
CWJC 021900Z AUTO 13003KT 16/14 RMK AO1 SLP203 T01550137 58008,CWJC,2023-06-02T19:00:00Z,61.13,-100.9,15.5,13.7,130,3,,,,1020.3,,TRUE,TRUE,,,,,,,,,,,,,,,,-0.8,,,,,,,,,,,METAR,340.0
CWJB 021900Z AUTO 14/10 RMK AO1 T01400099,CWJB,2023-06-02T19:00:00Z,46.78,-71.28,14.0,9.9,,,,,,,,TRUE,TRUE,,,,,,,,,,,,,,,,,,,,,,,,,,,METAR,90.0
CWIZ 021900Z AUTO 36005KT 32/15 RMK AO1 T03230147,CWIZ,2023-06-02T19:00:00Z,45.28,-73.33,32.3,14.7,360,5,,,,,,TRUE,TRUE,,,,,,,,,,,,,,,,,,,,,,,,,,,METAR,45.0
CWIW 021900Z AUTO 26002KT 23/16 RMK AO1 SLP166 T02250162 51011,CWIW,2023-06-02T19:00:00Z,51.67,-105.4,22.5,16.2,260,2,,,,1016.6,,TRUE,TRUE,,,,,,,,,,,,,,,,1.1,,,,,,,,,,,METAR,524.0
CWIT 021900Z AUTO 04006KT 31/14 RMK AO1 SLP126 T03100141 58020,CWIT,2023-06-02T19:00:00Z,45.17,-73.67,31.0,14.1,40,6,,,,1012.6,,TRUE,TRUE,,,,,,,,,,,,,,,,-2.0,,,,,,,,,,,METAR,53.0
CWIS 021900Z AUTO 04008KT 10/07 RMK AO1 SLP197 T01000074 51008,CWIS,2023-06-02T19:00:00Z,47.28,-70.63,10.0,7.4,40,8,,,,1019.7,,TRUE,TRUE,,,,,,,,,,,,,,,,0.8,,,,,,,,,,,METAR,720.0
CWIP 021900Z AUTO 13006KT 10/04 RMK AO1 T01000039,CWIP,2023-06-02T19:00:00Z,50.17,-66.43,10.0,3.9,130,6,,,,,,TRUE,TRUE,,,,,,,,,,,,,,,,,,,,,,,,,,,METAR,27.0
CWIL 021900Z AUTO ///// ////SM SCT006 02/01 A3002,CWIL,2023-06-02T19:00:00Z,68.32,-100.07,2.0,1.0,,,,,30.02067,,,TRUE,,,,,,,,SCT,600,,,,,,,,,,,,,,,,,,,METAR,28.0
CWIK 021900Z AUTO 12010KT 25/16 RMK AO1 PK WND 11017/1845 SLP152 T02500156 55001,CWIK,2023-06-02T19:00:00Z,50.37,-102.58,25.0,15.6,120,10,,,,1015.2,,TRUE,TRUE,,,,,,,,,,,,,,,,-0.1,,,,,,,,,,,METAR,597.0
CWIJ 021900Z AUTO 24007G19KT 15/03 RMK AO1 PK WND 27019/1859 SLP222 T01510029 53010,CWIJ,2023-06-02T19:00:00Z,65.77,-111.23,15.1,2.9,240,7,19,,,1022.2,,TRUE,TRUE,,,,,,,,,,,,,,,,1.0,,,,,,,,,,,METAR,490.0
CWIG 021900Z AUTO 05034G44KT RMK AO1 PK WND 06045/1841,CWIG,2023-06-02T19:00:00Z,47.07,-70.53,,,50,34,44,,,,,TRUE,TRUE,,,,,,,,,,,,,,,,,,,,,,,,,,,METAR,12.0
CWID 021900Z AUTO 32003KT 22/M02 RMK AO1 SLP196 T02241015 58005,CWID,2023-06-02T19:00:00Z,61.32,-117.6,22.4,-1.5,320,3,,,,1019.6,,TRUE,TRUE,,,,,,,,,,,,,,,,-0.5,,,,,,,,,,,METAR,160.0
CWHV 021900Z AUTO 31007KT 22/13 RMK AO1 SLP147 T02210133 58009,CWHV,2023-06-02T19:00:00Z,46.2,-70.78,22.1,13.3,310,7,,,,1014.7,,TRUE,TRUE,,,,,,,,,,,,,,,,-0.9,,,,,,,,,,,METAR,227.0
CWHT 021900Z AUTO 27004KT 14/M02 RMK AO1 SLP140 T01351017 56009,CWHT,2023-06-02T19:00:00Z,60.77,-137.58,13.5,-1.7,270,4,,,,1014.0,,TRUE,TRUE,,,,,,,,,,,,,,,,-0.9,,,,,,,,,,,METAR,601.0
CWHQ 021900Z AUTO 10010G17KT 18/11 RMK AO1 PK WND 09021/1836 T01760109,CWHQ,2023-06-02T19:00:00Z,46.68,-71.97,17.6,10.9,100,10,17,,,,,TRUE,TRUE,,,,,,,,,,,,,,,,,,,,,,,,,,,METAR,56.0
CWHP 021900Z AUTO 03031G38KT 05/03 RMK AO1 PK WND 04038/1805 SLP234 T00480028 53014,CWHP,2023-06-02T19:00:00Z,49.08,-61.7,4.8,2.8,30,31,38,,,1023.4,,TRUE,TRUE,,,,,,,,,,,,,,,,1.4,,,,,,,,,,,METAR,7.0
CWHO 021900Z AUTO 00001KT 01/M02 RMK AO1 SLP355 T00091022 52010,CWHO,2023-06-02T19:00:00Z,55.45,-60.22,0.9,-2.2,0,1,,,,1035.5,,TRUE,TRUE,,,,,,,,,,,,,,,,1.0,,,,,,,,,,,METAR,16.0
CWHL 021900Z AUTO 16017KT 11/07 RMK AO1 PK WND 15023/1829 SLP156 T01120072 51006,CWHL,2023-06-02T19:00:00Z,54.17,-130.35,11.2,7.2,160,17,,,,1015.6,,TRUE,TRUE,,,,,,,,,,,,,,,,0.6,,,,,,,,,,,METAR,5.0
CWHI 021900Z AUTO 06004KT 20/08 RMK AO1 T01950075,CWHI,2023-06-02T19:00:00Z,51.7,-113.22,19.5,7.5,60,4,,,,,,TRUE,TRUE,,,,,,,,,,,,,,,,,,,,,,,,,,,METAR,906.0
CWGZ 021900Z 08012G18KT 050V130 12SM FEW030 FEW050 FEW090 FEW150 03/M11 A3000 RMK SC1SC1AC1AS1 SC TR SC TR AC TR SLP165,CWGZ,2023-06-02T19:00:00Z,76.42,-82.9,3.0,-11.0,80,12,18,12.0,30.0,1016.5,,,,,,,,,,FEW,3000,FEW,5000,FEW,9000,FEW,15000,VFR,,,,,,,,,,,,METAR,24.0
CWGY 021900Z AUTO 34011KT 21/09 RMK AO1 SLP181 T02060091 55001,CWGY,2023-06-02T19:00:00Z,51.67,-110.2,20.6,9.1,340,11,,,,1018.1,,TRUE,TRUE,,,,,,,,,,,,,,,,-0.1,,,,,,,,,,,METAR,709.0
CWGW 021900Z AUTO 15007KT 21/08 RMK AO1 SLP165 T02120078 56011,CWGW,2023-06-02T19:00:00Z,49.75,-114.9,21.2,7.8,150,7,,,,1016.5,,TRUE,TRUE,,,,,,,,,,,,,,,,-1.1,,,,,,,,,,,METAR,1137.0
CWGT 021900Z AUTO 14013KT 16/11 RMK AO1 SLP190 T01640113 58001,CWGT,2023-06-02T19:00:00Z,49.48,-124.43,16.4,11.3,140,13,,,,1019.0,,TRUE,TRUE,,,,,,,,,,,,,,,,-0.1,,,,,,,,,,,METAR,5.0
CWGR 021900Z AUTO 04020G25KT 08/06 RMK AO1 PK WND 03028/1803 SLP181 T00750061 51014,CWGR,2023-06-02T19:00:00Z,47.42,-61.77,7.5,6.1,40,20,25,,,1018.1,,TRUE,TRUE,,,,,,,,,,,,,,,,1.4,,,,,,,,,,,METAR,4.0
CWGM 021900Z AUTO 07003KT 14/09 RMK AO1 SLP202 T01380087 50002,CWGM,2023-06-02T19:00:00Z,49.13,-113.8,13.8,8.7,70,3,,,,1020.2,,TRUE,TRUE,,,,,,,,,,,,,,,,0.2,,,,,,,,,,,METAR,1292.0
CWGL 021900Z AUTO 33007KT 29/17 RMK AO1 SLP151 T02870173 58015,CWGL,2023-06-02T19:00:00Z,44.53,-79.22,28.7,17.3,330,7,,,,1015.1,,TRUE,TRUE,,,,,,,,,,,,,,,,-1.5,,,,,,,,,,,METAR,220.0
CWGH 021900Z AUTO 00000KT 29/18 RMK AO1 SLP140 T02930175 58018,CWGH,2023-06-02T19:00:00Z,44.42,-75.85,29.3,17.5,0,0,,,,1014.0,,TRUE,TRUE,,,,,,,,,,,,,,,,-1.8,,,,,,,,,,,METAR,76.0
CWGD 021900Z AUTO 33010KT 24/14 RMK AO1 SLP181 T02350135 57013,CWGD,2023-06-02T19:00:00Z,43.77,-81.72,23.5,13.5,330,10,,,,1018.1,,TRUE,TRUE,,,,,,,,,,,,,,,,-1.3,,,,,,,,,,,METAR,214.0
CWGB 021900Z AUTO 10012KT 17/ RMK AO1 SLP185 T0170 50000,CWGB,2023-06-02T19:00:00Z,49.35,-124.13,17.0,,100,12,,,,1018.5,,TRUE,TRUE,,,,,,,,,,,,,,,,0.0,,,,,,,,,,,METAR,6.0
CWFQ 021900Z AUTO 02006KT 29/14 RMK AO1 SLP129 T02910143 58020,CWFQ,2023-06-02T19:00:00Z,45.03,-72.85,29.1,14.3,20,6,,,,1012.9,,TRUE,TRUE,,,,,,,,,,,,,,,,-2.0,,,,,,,,,,,METAR,190.0
CWFJ 021900Z AUTO 03004KT 16/08 RMK AO1 T01620079,CWFJ,2023-06-02T19:00:00Z,49.2,-113.27,16.2,7.9,30,4,,,,,,TRUE,TRUE,,,,,,,,,,,,,,,,,,,,,,,,,,,METAR,1142.0
CWFF 021900Z AUTO 20006KT 24/14 RMK AO1 SLP159 T02370142 51012,CWFF,2023-06-02T19:00:00Z,52.82,-104.6,23.7,14.2,200,6,,,,1015.9,,TRUE,TRUE,,,,,,,,,,,,,,,,1.2,,,,,,,,,,,METAR,482.0
CWEZ 021900Z AUTO 24009KT 19/08 RMK AO1 SLP193 T01850079 51002,CWEZ,2023-06-02T19:00:00Z,48.78,-123.05,18.5,7.9,240,9,,,,1019.3,,TRUE,TRUE,,,,,,,,,,,,,,,,0.2,,,,,,,,,,,METAR,23.0
CWEW 021900Z AUTO 09005KT 30/16 RMK AO1 SLP132 T02960155 56018,CWEW,2023-06-02T19:00:00Z,45.82,-73.43,29.6,15.5,90,5,,,,1013.2,,TRUE,TRUE,,,,,,,,,,,,,,,,-1.8,,,,,,,,,,,METAR,17.0
CWEU 021900Z 11007KT 090V220 15SM SKC 01/M06 A2998 RMK SLP163,CWEU,2023-06-02T19:00:00Z,80.0,-85.93,1.0,-6.0,110,7,,15.0,29.97933,1016.3,,,,,,,,,,SKC,,,,,,,,VFR,,,,,,,,,,,,METAR,2.0
CWER 021900Z AUTO 06038G45KT RMK AO1 PK WND 06046/1849,CWER,2023-06-02T19:00:00Z,47.0,-70.82,,,60,38,45,,,,,TRUE,TRUE,,,,,,,,,,,,,,,,,,,,,,,,,,,METAR,4.0
CWEQ 021900Z AUTO 02006KT 23/18 RMK AO1 SLP158 T02280183 55004,CWEQ,2023-06-02T19:00:00Z,52.12,-101.22,22.8,18.3,20,6,,,,1015.8,,TRUE,TRUE,,,,,,,,,,,,,,,,-0.4,,,,,,,,,,,METAR,331.0
CWEP 021900Z AUTO 01008KT 11/08 RMK AO1 SLP167 T01090081 51009,CWEP,2023-06-02T19:00:00Z,46.45,-61.98,10.9,8.1,10,8,,,,1016.7,,TRUE,TRUE,,,,,,,,,,,,,,,,0.9,,,,,,,,,,,METAR,9.0
CWEL 021900Z AUTO 10016KT 15/11 RMK AO1 PK WND 10017/1854 SLP186 T01490109 50000,CWEL,2023-06-02T19:00:00Z,49.22,-123.8,14.9,10.9,100,16,,,,1018.6,,TRUE,TRUE,,,,,,,,,,,,,,,,0.0,,,,,,,,,,,METAR,0.0
CWEH 021900Z AUTO 02015KT 14/11 RMK AO1 PK WND 02019/1835 SLP177 T01390107 51004,CWEH,2023-06-02T19:00:00Z,49.43,-108.98,13.9,10.7,20,15,,,,1017.7,,TRUE,TRUE,,,,,,,,,,,,,,,,0.4,,,,,,,,,,,METAR,1077.0
CWEF 021900Z AUTO 12006KT 09/07 RMK AO1 SLP175 T00910069 51010,CWEF,2023-06-02T19:00:00Z,47.22,-60.13,9.1,6.9,120,6,,,,1017.5,,TRUE,TRUE,,,,,,,,,,,,,,,,1.0,,,,,,,,,,,METAR,27.0
CWEE 021900Z AUTO 24/08 RMK AO1 SLP191 T02350076 52003,CWEE,2023-06-02T19:00:00Z,49.27,-73.35,23.5,7.6,,,,,,1019.1,,TRUE,TRUE,,,,,,,,,,,,,,,,0.3,,,,,,,,,,,METAR,302.0
CWEB 021900Z AUTO 00016KT 14/11 RMK AO1 SLP209 T01440112 53007,CWEB,2023-06-02T19:00:00Z,49.38,-126.55,14.4,11.2,0,16,,,,1020.9,,TRUE,TRUE,,,,,,,,,,,,,,,,0.7,,,,,,,,,,,METAR,1.0
CWDZ 021900Z AUTO 04004KT 22/08 RMK AO1 SLP186 T02180078 56007,CWDZ,2023-06-02T19:00:00Z,51.43,-112.67,21.8,7.8,40,4,,,,1018.6,,TRUE,TRUE,,,,,,,,,,,,,,,,-0.7,,,,,,,,,,,METAR,689.0
CWDV 021900Z AUTO 15005KT 28/15 RMK AO1 SLP207 T02840154 58006,CWDV,2023-06-02T19:00:00Z,49.02,-90.47,28.4,15.4,150,5,,,,1020.7,,TRUE,TRUE,,,,,,,,,,,,,,,,-0.6,,,,,,,,,,,METAR,487.0
CWDQ 021900Z AUTO 36010G17KT 29/11 RMK AO1 PK WND 34020/1838 T02850113,CWDQ,2023-06-02T19:00:00Z,47.42,-72.78,28.5,11.3,360,10,17,,,,,TRUE,TRUE,,,,,,,,,,,,,,,,,,,,,,,,,,,METAR,174.0
CWDO 021900Z AUTO 04014KT 01/01 RMK AO1 PK WND 04023/1826 SLP210 T00120012 53005,CWDO,2023-06-02T19:00:00Z,49.68,-54.78,1.2,1.2,40,14,,,,1021.0,,TRUE,TRUE,,,,,,,,,,,,,,,,0.5,,,,,,,,,,,METAR,89.0
CWDM 021900Z AUTO 05012G18KT 04/03 RMK AO1 PK WND 05020/1834 SLP257 T00400033 51010,CWDM,2023-06-02T19:00:00Z,50.47,-59.63,4.0,3.3,50,12,18,,,1025.7,,TRUE,TRUE,,,,,,,,,,,,,,,,1.0,,,,,,,,,,,METAR,2.0
CWDK 021900Z AUTO 17004KT 19/08 RMK AO1 SLP199 T01910078 58001,CWDK,2023-06-02T19:00:00Z,50.02,-113.62,19.1,7.8,170,4,,,,1019.9,,TRUE,TRUE,,,,,,,,,,,,,,,,-0.1,,,,,,,,,,,METAR,1014.0
CWDJ 021900Z AUTO 01007KT 19/16 RMK AO1 1PAST HR 8003 SLP158 P0000 T01930161 50001,CWDJ,2023-06-02T19:00:00Z,50.4,-104.58,19.3,16.1,10,7,,,,1015.8,,TRUE,TRUE,,,,,,,,,,,,,,,,0.1,,,,,0.005,,,,,,METAR,576.0
CWDA 021900Z AUTO 00035KT 03/ RMK AO1 T0026,CWDA,2023-06-02T19:00:00Z,50.72,-56.12,2.6,,0,35,,,,,,TRUE,TRUE,,,,,,,,,,,,,,,,,,,,,,,,,,,METAR,30.0
CWCT 021900Z AUTO 35009KT 20/09 RMK AO1 SLP200 T01990087 58002,CWCT,2023-06-02T19:00:00Z,52.07,-111.43,19.9,8.7,350,9,,,,1020.0,,TRUE,TRUE,,,,,,,,,,,,,,,,-0.2,,,,,,,,,,,METAR,793.0
CWCO 021900Z AUTO 34011KT 22/17 RMK AO1 SLP183 T02160169 58013,CWCO,2023-06-02T19:00:00Z,44.5,-80.22,21.6,16.9,340,11,,,,1018.3,,TRUE,TRUE,,,,,,,,,,,,,,,,-1.3,,,,,,,,,,,METAR,182.0
CWCJ 021900Z AUTO 26005KT 23/16 RMK AO1 SLP219 T02340155 55005,CWCJ,2023-06-02T19:00:00Z,48.6,-86.28,23.4,15.5,260,5,,,,1021.9,,TRUE,TRUE,,,,,,,,,,,,,,,,-0.5,,,,,,,,,,,METAR,207.0
CWCI 021900Z AUTO 28003KT 14/11 RMK AO1 SLP213 T01380110 58006,CWCI,2023-06-02T19:00:00Z,47.33,-85.82,13.8,11.0,280,3,,,,1021.3,,TRUE,TRUE,,,,,,,,,,,,,,,,-0.6,,,,,,,,,,,METAR,167.0
CWCF 021900Z AUTO 32006KT 26/18 RMK AO1 SLP174 T02570181 54000,CWCF,2023-06-02T19:00:00Z,52.35,-97.03,25.7,18.1,320,6,,,,1017.4,,TRUE,TRUE,,,,,,,,,,,,,,,,,,,,,,,,,,,METAR,219.0
CWBZ 021900Z AUTO 05004KT 32/13 RMK AO1 SLP130 T03230132 58020,CWBZ,2023-06-02T19:00:00Z,45.12,-74.28,32.3,13.2,50,4,,,,1013.0,,TRUE,TRUE,,,,,,,,,,,,,,,,-2.0,,,,,,,,,,,METAR,49.0
CWBY 021900Z AUTO 07013G19KT 10/02 RMK AO1 PK WND 09020/1828 SLP249 T01040015 51004,CWBY,2023-06-02T19:00:00Z,49.83,-64.28,10.4,1.5,70,13,19,,,1024.9,,TRUE,TRUE,,,,,,,,,,,,,,,,0.4,,,,,,,,,,,METAR,56.0
CWBV 021900Z AUTO 07017KT 08/06 RMK AO1 PK WND 07022/1823 SLP133 T00830058 53005,CWBV,2023-06-02T19:00:00Z,44.82,-62.33,8.3,5.8,70,17,,,,1013.3,,TRUE,TRUE,,,,,,,,,,,,,,,,0.5,,,,,,,,,,,METAR,16.0
CWBU 021900Z AUTO 17003KT 24/16 RMK AO1 SLP154 T02370160 53006,CWBU,2023-06-02T19:00:00Z,53.33,-104.02,23.7,16.0,170,3,,,,1015.4,,TRUE,TRUE,,,,,,,,,,,,,,,,0.6,,,,,,,,,,,METAR,369.0
CWBT 021900Z AUTO 14006KT 08/03 RMK AO1 SLP252 T00840029 53007,CWBT,2023-06-02T19:00:00Z,50.27,-64.23,8.4,2.9,140,6,,,,1025.2,,TRUE,TRUE,,,,,,,,,,,,,,,,0.7,,,,,,,,,,,METAR,12.0
CWBS 021900Z AUTO 08010KT 22/17 RMK AO1 T02240166,CWBS,2023-06-02T19:00:00Z,46.18,-72.92,22.4,16.6,80,10,,,,,,TRUE,TRUE,,,,,,,,,,,,,,,,,,,,,,,,,,,METAR,3.0
CWBO 021900Z AUTO 01005KT 20/09 RMK AO1 SLP194 T01970090 56005,CWBO,2023-06-02T19:00:00Z,50.53,-111.83,19.7,9.0,10,5,,,,1019.4,,TRUE,TRUE,,,,,,,,,,,,,,,,-0.5,,,,,,,,,,,METAR,752.0
CWBK 021900Z AUTO 28013KT 11/09 RMK AO1 PK WND 29020/1804 SLP157 T01070090 50003,CWBK,2023-06-02T19:00:00Z,45.77,-62.67,10.7,9.0,280,13,,,,1015.7,,TRUE,TRUE,,,,,,,,,,,,,,,,0.3,,,,,,,,,,,METAR,2.0
CWBA 021900Z AUTO 35006KT 27/13 RMK AO1 T02650132,CWBA,2023-06-02T19:00:00Z,46.72,-79.1,26.5,13.2,350,6,,,,,,TRUE,TRUE,,,,,,,,,,,,,,,,,,,,,,,,,,,METAR,181.0
CWAV 021900Z AUTO 06007KT 17/08 RMK AO1 SLP206 T01730075 56003,CWAV,2023-06-02T19:00:00Z,51.77,-114.67,17.3,7.5,60,7,,,,1020.6,,TRUE,TRUE,,,,,,,,,,,,,,,,-0.3,,,,,,,,,,,METAR,1115.0
CWAR 021900Z AUTO 35014KT 12/09 RMK AO1 PK WND 33018/1802 SLP166 T01180088 58002,CWAR,2023-06-02T19:00:00Z,47.28,-54.0,11.8,8.8,350,14,,,,1016.6,,TRUE,TRUE,,,,,,,,,,,,,,,,-0.2,,,,,,,,,,,METAR,6.0
CWAQ 021900Z AUTO 36009KT 19/17 RMK AO1 SLP151 T01920167 55000,CWAQ,2023-06-02T19:00:00Z,49.05,-105.48,19.2,16.7,360,9,,,,1015.1,,TRUE,TRUE,,,,,,,,,,,,,,,,0.0,,,,,,,,,,,METAR,761.0
CWAJ 021900Z AUTO 17002KT RMK AO1 57016,CWAJ,2023-06-02T19:00:00Z,42.25,-81.9,,,170,2,,,,,,TRUE,TRUE,,,,,,,,,,,,,,,,-1.6,,,,,,,,,,,METAR,177.0
CWAF 021900Z AUTO 03016KT 07/05 RMK AO1 2PAST HR M PK WND 03023/1801 P0001 T00650048 50002,CWAF,2023-06-02T19:00:00Z,48.07,-69.55,6.5,4.8,30,16,,,,,,TRUE,TRUE,,,,,,,,,,,,,,,,0.2,,,,,0.01,,,,,,METAR,6.0
CTRA 021900Z AUTO 16004KT 28/18 RMK AO1 SLP184 T02790175 57005,CTRA,2023-06-02T19:00:00Z,49.67,-93.73,27.9,17.5,160,4,,,,1018.4,,TRUE,TRUE,,,,,,,,,,,,,,,,-0.5,,,,,,,,,,,METAR,432.0
CTNK 021900Z AUTO 03004KT 28/13 RMK AO1 SLP180 T02760133 57005,CTNK,2023-06-02T19:00:00Z,45.53,-78.27,27.6,13.3,30,4,,,,1018.0,,TRUE,TRUE,,,,,,,,,,,,,,,,-0.5,,,,,,,,,,,METAR,405.0
CTCK 021900Z AUTO 21002KT 31/13 RMK AO1 SLP129 T03110134 58018,CTCK,2023-06-02T19:00:00Z,45.25,-74.97,31.1,13.4,210,2,,,,1012.9,,TRUE,TRUE,,,,,,,,,,,,,,,,-1.8,,,,,,,,,,,METAR,84.0
CPSV 021900Z AUTO 02010KT 20/09 RMK AO1 T01980087,CPSV,2023-06-02T19:00:00Z,49.92,-110.92,19.8,8.7,20,10,,,,,,TRUE,TRUE,,,,,,,,,,,,,,,,,,,,,,,,,,,METAR,766.0
CPST 021900Z AUTO 04003KT 17/07 RMK AO1 T01690074,CPST,2023-06-02T19:00:00Z,51.03,-113.28,16.9,7.4,40,3,,,,,,TRUE,TRUE,,,,,,,,,,,,,,,,,,,,,,,,,,,METAR,1005.0
CPRY 021900Z AUTO 33004KT 17/08 RMK AO1 T01690075,CPRY,2023-06-02T19:00:00Z,49.48,-112.68,16.9,7.5,330,4,,,,,,TRUE,TRUE,,,,,,,,,,,,,,,,,,,,,,,,,,,METAR,947.0
CPRO 021900Z AUTO 10001KT 20/08 RMK AO1 T02020084,CPRO,2023-06-02T19:00:00Z,50.83,-112.05,20.2,8.4,100,1,,,,,,TRUE,TRUE,,,,,,,,,,,,,,,,,,,,,,,,,,,METAR,733.0
CPIN 021900Z AUTO 14004KT ////SM ////// ///// A////,CPIN,2023-06-02T19:00:00Z,,,,,140,4,,,,,,TRUE,,,,,,,,,,,,,,,,,,,,,,,,,,,,METAR,
CPFI 021900Z AUTO 30004KT 18/09 RMK AO1 T01810093,CPFI,2023-06-02T19:00:00Z,49.8,-112.03,18.1,9.3,300,4,,,,,,TRUE,TRUE,,,,,,,,,,,,,,,,,,,,,,,,,,,METAR,804.0
CPEH 021900Z AUTO 18/09 RMK AO1 T01750089,CPEH,2023-06-02T19:00:00Z,50.18,-112.43,17.5,8.9,,,,,,,,TRUE,TRUE,,,,,,,,,,,,,,,,,,,,,,,,,,,METAR,814.0
CPBT 021900Z AUTO 06003KT 17/09 RMK AO1 T01730092,CPBT,2023-06-02T19:00:00Z,49.53,-113.05,17.3,9.2,60,3,,,,,,TRUE,TRUE,,,,,,,,,,,,,,,,,,,,,,,,,,,METAR,998.0
CMGB 021900Z AUTO 03004KT 30/15 RMK AO1 SLP127 T03040153 58020,CMGB,2023-06-02T19:00:00Z,45.37,-72.77,30.4,15.3,30,4,,,,1012.7,,TRUE,TRUE,,,,,,,,,,,,,,,,-2.0,,,,,,,,,,,METAR,87.0
CMFM 021900Z AUTO 09004KT 17/13 RMK AO1 SLP181 T01660129 50014,CMFM,2023-06-02T19:00:00Z,47.32,-71.15,16.6,12.9,90,4,,,,1018.1,,TRUE,TRUE,,,,,,,,,,,,,,,,1.4,,,,,,,,,,,METAR,663.0
CERM 021900Z AUTO 04004KT 12/10 RMK AO1 SLP197 T01240095 53014,CERM,2023-06-02T19:00:00Z,47.42,-68.32,12.4,9.5,40,4,,,,1019.7,,TRUE,TRUE,,,,,,,,,,,,,,,,1.4,,,,,,,,,,,METAR,151.0
CBBC 021900Z AUTO 14009G18KT 9SM BKN110 16/06 A3005 RMK SLP180,CBBC,2023-06-02T19:00:00Z,52.18,-128.15,16.0,6.0,140,9,18,9.0,30.050198,1018.0,,TRUE,,,,,,,,BKN,11000,,,,,,,VFR,,,,,,,,,,,,METAR,36.0
CBAR 021900Z AUTO 15012G17KT ////SM ////// ///// A////,CBAR,2023-06-02T19:00:00Z,,,,,150,12,17,,,,,TRUE,,,,,,,,,,,,,,,,,,,,,,,,,,,,METAR,
CAHR 021900Z AUTO 02012KT 08/06 RMK AO1 PK WND 01019/1829 SLP173 T00780064 51009,CAHR,2023-06-02T19:00:00Z,46.35,-63.17,7.8,6.4,20,12,,,,1017.3,,TRUE,TRUE,,,,,,,,,,,,,,,,0.9,,,,,,,,,,,METAR,52.0
BIVM 021900Z 29012KT 1000 BR FEW020 11/09 Q1029,BIVM,2023-06-02T19:00:00Z,63.42,-20.28,11.0,9.0,290,12,,0.62,30.383858,,,,,,,,,,BR,FEW,2000,,,,,,,LIFR,,,,,,,,,,,,METAR,93.0
BIRK 021900Z 22002KT CAVOK 11/09 Q1029,BIRK,2023-06-02T19:00:00Z,64.13,-21.93,11.0,9.0,220,2,,6.21,30.383858,,,,,,,,,,,CAVOK,,,,,,,,VFR,,,,,,,,,,,,METAR,12.0
BIEG 021900Z 36006KT 9999 BKN050 BKN080 10/07 Q1025,BIEG,2023-06-02T19:00:00Z,65.27,-14.4,10.0,7.0,360,6,,6.21,30.265747,,,,,,,,,,,BKN,5000,BKN,8000,,,,,VFR,,,,,,,,,,,,METAR,20.0
BIAR 021900Z 22004KT 9999 BKN047 15/06 Q1026,BIAR,2023-06-02T19:00:00Z,65.67,-18.07,15.0,6.0,220,4,,6.21,30.295275,,,,,,,,,,,BKN,4700,,,,,,,VFR,,,,,,,,,,,,METAR,1.0
AYMH 021900Z VRB03KT 9999 BKN005 OVC030 16/15 Q1023,AYMH,2023-06-02T19:00:00Z,-5.83,144.3,16.0,15.0,0,3,,6.21,30.206694,,,,,,,,,,,BKN,500,OVC,3000,,,,,IFR,,,,,,,,,,,,METAR,1634.0
RODE 021859Z AUTO A2974 RMK AO2 SLPNO PWINO TSNO $,RODE,2023-06-02T18:59:00Z,26.72,127.77,,,,,,,29.740158,,,TRUE,TRUE,TRUE,,TRUE,,TRUE,,,,,,,,,,,,,,,,,,,,,,METAR,69.0
KSYN 021859Z AUTO 00000KT 7SM RA SCT036 BKN043 OVC060 22/19 A3006 RMK AO2 LTG DSNT ALQDS P0003,KSYN,2023-06-02T18:59:00Z,44.47,-93.02,22.0,19.0,0,0,,7.0,30.059055,,,TRUE,TRUE,,,,,,RA,SCT,3600,BKN,4300,OVC,6000,,,VFR,,,,,,0.03,,,,,,SPECI,280.0
KPMH 021859Z AUTO 06004KT 10SM CLR 32/06 A2998 RMK AO2,KPMH,2023-06-02T18:59:00Z,38.83,-82.85,32.0,6.0,60,4,,10.0,29.97933,,,TRUE,TRUE,,,,,,,CLR,,,,,,,,VFR,,,,,,,,,,,,SPECI,200.0
KP92 021859Z AUTO VRB05KT 29/21 A2987 RMK AO1 SLP113 T02890211,KP92,2023-06-02T18:59:00Z,29.57,-91.53,28.9,21.1,0,5,,,29.870079,1011.3,,TRUE,TRUE,,,,,,,,,,,,,,,,,,,,,,,,,,,METAR,1.0
KOXD 021859Z AUTO 05007KT 10SM CLR 33/M03 A3001 RMK AO2,KOXD,2023-06-02T18:59:00Z,39.5,-84.78,33.0,-3.0,50,7,,10.0,30.008858,,,TRUE,TRUE,,,,,,,CLR,,,,,,,,VFR,,,,,,,,,,,,SPECI,317.0
KNOZ 021859Z AUTO 12005KT 10SM CLR 29/10 A2988 RMK AO2 SLP068 T02940100,KNOZ,2023-06-02T18:59:00Z,32.53,-114.5,29.4,10.0,120,5,,10.0,29.878937,1006.8,,TRUE,TRUE,,,,,,,CLR,,,,,,,,VFR,,,,,,,,,,,,METAR,78.0
KNGU 021859Z 05007KT 10SM SCT020 BKN250 24/18 A2991 RMK AO2 SLP128 T02440178 $,KNGU,2023-06-02T18:59:00Z,36.93,-76.27,24.4,17.8,50,7,,10.0,29.911417,1012.8,,,TRUE,TRUE,,,,,,SCT,2000,BKN,25000,,,,,VFR,,,,,,,,,,,,SPECI,3.0
KAID 021859Z 03007KT 10SM CLR 31/03 A3002,KAID,2023-06-02T18:59:00Z,40.12,-85.62,31.0,3.0,30,7,,10.0,30.02067,,,,,,,,,,,CLR,,,,,,,,VFR,,,,,,,,,,,,METAR,277.0
K04W 021859Z AUTO 21009KT 10SM SCT046 SCT070 28/19 A3007 RMK AO2,K04W,2023-06-02T18:59:00Z,46.02,-92.9,28.0,19.0,210,9,,10.0,30.070866,,,TRUE,TRUE,,,,,,,SCT,4600,SCT,7000,,,,,VFR,,,,,,,,,,,,SPECI,310.0
PADG 021858Z 20015KT 2SM -SN BR SCT004 OVC010 M03/M04 A2971,PADG,2023-06-02T18:58:00Z,68.03,-162.9,-3.0,-4.0,200,15,,2.0,29.71063,,,,,,,,,,-SN BR,SCT,400,OVC,1000,,,,,IFR,,,,,,,,,,,,SPECI,296.0
KROG 021858Z 13006KT 10SM CLR 29/17 A2999 RMK AO2 SLP141 T02940172,KROG,2023-06-02T18:58:00Z,36.37,-94.1,29.4,17.2,130,6,,10.0,29.991142,1014.1,,,TRUE,,,,,,,CLR,,,,,,,,VFR,,,,,,,,,,,,METAR,407.0
KPRN 021858Z AUTO VRB05KT 10SM SCT050 SCT060 29/16 A2986 RMK AO2 SLP057 T02940161,KPRN,2023-06-02T18:58:00Z,31.85,-86.62,29.4,16.1,0,5,,10.0,29.861221,1005.7,,TRUE,TRUE,,,,,,,SCT,5000,SCT,6000,,,,,VFR,,,,,,,,,,,,METAR,137.0
KMEI 021858Z 05009KT 10SM FEW065 SCT120 31/18 A2989 RMK AO2 SLP118 T03060178,KMEI,2023-06-02T18:58:00Z,32.33,-88.75,30.6,17.8,50,9,,10.0,29.890747,1011.8,,,TRUE,,,,,,,FEW,6500,SCT,12000,,,,,VFR,,,,,,,,,,,,METAR,90.0
KEUF 021858Z AUTO VRB04KT 10SM FEW055 29/16 A2986 RMK AO2 SLP106 T02940161 $,KEUF,2023-06-02T18:58:00Z,31.95,-85.13,29.4,16.1,0,4,,10.0,29.861221,1010.6,,TRUE,TRUE,TRUE,,,,,,FEW,5500,,,,,,,VFR,,,,,,,,,,,,METAR,87.0
KBCR 021858Z AUTO VRB06KT 10SM SCT060 32/17 A2983 RMK AO2 SLP059 T03170167 $,KBCR,2023-06-02T18:58:00Z,30.85,-85.6,31.7,16.7,0,6,,10.0,29.828741,1005.9,,TRUE,TRUE,TRUE,,,,,,SCT,6000,,,,,,,VFR,,,,,,,,,,,,METAR,26.0
K0J4 021858Z AUTO 02011G19KT 10SM SCT050 SCT060 31/16 A2986 RMK AO2 SLP106 T03110161,K0J4,2023-06-02T18:58:00Z,31.05,-86.32,31.1,16.1,20,11,19,10.0,29.861221,1010.6,,TRUE,TRUE,,,,,,,SCT,5000,SCT,6000,,,,,VFR,,,,,,,,,,,,METAR,96.0
PHNG 021857Z 05012KT 10SM FEW028 28/20 A3013 RMK AO2 SLP196 T02780200,PHNG,2023-06-02T18:57:00Z,21.43,-157.77,27.8,20.0,50,12,,10.0,30.129921,1019.6,,,TRUE,,,,,,,FEW,2800,,,,,,,VFR,,,,,,,,,,,,SPECI,1.0
PASY 021857Z 28013KT 7SM OVC007 05/04 A2967 RMK AO2A SLP051 T00470038 RVRNO PNO FZRANO $,PASY,2023-06-02T18:57:00Z,52.72,174.12,4.7,3.8,280,13,,7.0,29.66929,1005.1,,,TRUE,TRUE,,,TRUE,,,OVC,700,,,,,,,IFR,,,,,,,,,,,,METAR,6.0
PAEL 021857Z 09013KT 20SM BKN022 BKN150 12/06 A2998 RMK SPB E03012KT NOSPECI,PAEL,2023-06-02T18:57:00Z,58.2,-136.35,12.0,6.0,90,13,,20.0,29.97933,,,,,,,,,,,BKN,2200,BKN,15000,,,,,MVFR,,,,,,,,,,,,SPECI,8.0
KNYL 021857Z 7SM CLR 28/11 A2987 RMK AO2 SLP112 T02830111 $,KNYL,2023-06-02T18:57:00Z,32.65,-114.62,28.3,11.1,,,,7.0,29.870079,1011.2,,,TRUE,TRUE,,,,,,CLR,,,,,,,,VFR,,,,,,,,,,,,METAR,58.0
KNJW 021857Z AUTO 31007KT 10SM FEW050 BKN060 30/18 A2994 RMK AO2 SLP050 T03000183,KNJW,2023-06-02T18:57:00Z,32.78,-88.82,30.0,18.3,310,7,,10.0,29.940945,1005.0,,TRUE,TRUE,,,,,,,FEW,5000,BKN,6000,,,,,VFR,,,,,,,,,,,,SPECI,165.0
KNJM 021857Z AUTO 03013G18KT 8SM FEW024 SCT032 OVC050 26/20 A2985 RMK AO2 RAB36E48 SLP111 P0000 T02610200,KNJM,2023-06-02T18:57:00Z,34.68,-77.02,26.1,20.0,30,13,18,8.0,29.84941,1011.1,,TRUE,TRUE,,,,,,,FEW,2400,SCT,3200,OVC,5000,,,VFR,,,,,,0.005,,,,,,METAR,5.0
KMNM 021857Z AUTO 08008KT 10SM CLR 27/14 A3011 RMK AO2 SLP208 T02720144 PNO $,KMNM,2023-06-02T18:57:00Z,45.12,-87.63,27.2,14.4,80,8,,10.0,30.109253,1020.8,,TRUE,TRUE,TRUE,,,,,,CLR,,,,,,,,VFR,,,,,,,,,,,,METAR,188.0
KFLG 021857Z 21009KT 10SM FEW036 BKN065 17/02 A3016 RMK AO2 SLP129 T01720022,KFLG,2023-06-02T18:57:00Z,35.13,-111.67,17.2,2.2,210,9,,10.0,30.159449,1012.9,,,TRUE,,,,,,,FEW,3600,BKN,6500,,,,,VFR,,,,,,,,,,,,METAR,2134.0
KFAF 021857Z AUTO 07005KT 10SM CLR 28/18 A2987 RMK AO2 SLP118 T02750176 $,KFAF,2023-06-02T18:57:00Z,37.13,-76.62,27.5,17.6,70,5,,10.0,29.870079,1011.8,,TRUE,TRUE,TRUE,,,,,,CLR,,,,,,,,VFR,,,,,,,,,,,,SPECI,3.0
KAQV 021857Z AUTO VRB04KT 10SM SCT060 BKN075 33/16 A2989 RMK AO2 SLP116 T03280161,KAQV,2023-06-02T18:57:00Z,31.4,-93.3,32.8,16.1,0,4,,10.0,29.890747,1011.6,,TRUE,TRUE,,,,,,,SCT,6000,BKN,7500,,,,,VFR,,,,,,,,,,,,METAR,123.0
TJSJ 021856Z 13008KT 10SM FEW035 SCT042 SCT130 32/23 A2986 RMK AO2 SLP109 T03220233,TJSJ,2023-06-02T18:56:00Z,18.43,-66.02,32.2,23.3,130,8,,10.0,29.861221,1010.9,,,TRUE,,,,,,,FEW,3500,SCT,4200,SCT,13000,,,VFR,,,,,,,,,,,,SPECI,3.0
RJOI 021856Z 30004KT 9999 FEW030 17/15 A2958 RMK AO2 SLP017 T01720150,RJOI,2023-06-02T18:56:00Z,34.13,132.23,17.2,15.0,300,4,,6.21,29.58071,1001.7,,,TRUE,,,,,,,FEW,3000,,,,,,,VFR,,,,,,,,,,,,SPECI,2.0
PAGM 021856Z AUTO 22008KT 9SM OVC009 01/M02 A2980 RMK AO2 CIG 006V012 SLP098 T00061017 FZRANO,PAGM,2023-06-02T18:56:00Z,63.77,-171.73,0.6,-1.7,220,8,,9.0,29.799213,1009.8,,TRUE,TRUE,,,,TRUE,,,OVC,900,,,,,,,IFR,,,,,,,,,,,,METAR,6.0
KWJF 021856Z 15004KT 10SM CLR 28/04 A2993 RMK AO2 SLP122 T02780039,KWJF,2023-06-02T18:56:00Z,34.73,-118.22,27.8,3.9,150,4,,10.0,29.929134,1012.2,,,TRUE,,,,,,,CLR,,,,,,,,VFR,,,,,,,,,,,,METAR,712.0
KVPZ 021856Z AUTO 03008KT 10SM CLR 32/10 A3005 RMK AO2 SLP168 T03220100,KVPZ,2023-06-02T18:56:00Z,41.45,-87.0,32.2,10.0,30,8,,10.0,30.050198,1016.8,,TRUE,TRUE,,,,,,,CLR,,,,,,,,VFR,,,,,,,,,,,,METAR,235.0
KUKI 021856Z AUTO VRB03KT 10SM CLR 24/09 A2996 RMK AO2 SLP140 T02440089,KUKI,2023-06-02T18:56:00Z,39.12,-123.2,24.4,8.9,0,3,,10.0,29.958662,1014.0,,TRUE,TRUE,,,,,,,CLR,,,,,,,,VFR,,,,,,,,,,,,METAR,183.0
KTPH 021856Z AUTO VRB06KT 10SM CLR 22/04 A3007 RMK AO2 SLP118 T02170039,KTPH,2023-06-02T18:56:00Z,38.05,-117.08,21.7,3.9,0,6,,10.0,30.070866,1011.8,,TRUE,TRUE,,,,,,,CLR,,,,,,,,VFR,,,,,,,,,,,,METAR,1647.0
KSXT 021856Z AUTO 00000KT 10SM CLR 16/06 A3011 RMK AO2 SLP175 T01560061,KSXT,2023-06-02T18:56:00Z,42.6,-123.37,15.6,6.1,0,0,,10.0,30.109253,1017.5,,TRUE,TRUE,,,,,,,CLR,,,,,,,,VFR,,,,,,,,,,,,METAR,1151.0
KSPD 021856Z AUTO 18019G27KT 25/11 A2990 RMK AO1 PK WND 19027/1812 SLP067 T02500106,KSPD,2023-06-02T18:56:00Z,37.28,-102.62,25.0,10.6,180,19,27,,29.899607,1006.7,,TRUE,TRUE,,,,,,,,,,,,,,,,,,,,,,,,,,,METAR,1340.0
KSMP 021856Z AUTO VRB04KT 10SM CLR 15/06 A3010 RMK AO2 SLP184 T01500056,KSMP,2023-06-02T18:56:00Z,47.28,-121.33,15.0,5.6,0,4,,10.0,30.100393,1018.4,,TRUE,TRUE,,,,,,,CLR,,,,,,,,VFR,,,,,,,,,,,,METAR,1206.0
KSLE 021856Z VRB03KT 10SM CLR 19/07 A3011 RMK AO2 SLP195 T01890072,KSLE,2023-06-02T18:56:00Z,44.9,-123.0,18.9,7.2,0,3,,10.0,30.109253,1019.5,,,TRUE,,,,,,,CLR,,,,,,,,VFR,,,,,,,,,,,,METAR,63.0
KSFO 021856Z 34011KT 10SM FEW014 18/10 A3000 RMK AO2 SLP160 T01830100,KSFO,2023-06-02T18:56:00Z,37.62,-122.37,18.3,10.0,340,11,,10.0,30.0,1016.0,,,TRUE,,,,,,,FEW,1400,,,,,,,VFR,,,,,,,,,,,,METAR,2.0
KSDF 021856Z 02012G17KT 10SM FEW250 32/08 A2996 RMK AO2 SLP140 T03170078,KSDF,2023-06-02T18:56:00Z,38.18,-85.73,31.7,7.8,20,12,17,10.0,29.958662,1014.0,,,TRUE,,,,,,,FEW,25000,,,,,,,VFR,,,,,,,,,,,,METAR,146.0
KSBP 021856Z 00000KT 10SM CLR 19/11 A3000 RMK AO2 SLP157 T01890106,KSBP,2023-06-02T18:56:00Z,35.23,-120.63,18.9,10.6,0,0,,10.0,30.0,1015.7,,,TRUE,,,,,,,CLR,,,,,,,,VFR,,,,,,,,,,,,METAR,52.0
KRDM 021856Z VRB03KT 10SM CLR 21/M02 A3007 RMK AO2 SLP167 T02111017,KRDM,2023-06-02T18:56:00Z,44.25,-121.15,21.1,-1.7,0,3,,10.0,30.070866,1016.7,,,TRUE,,,,,,,CLR,,,,,,,,VFR,,,,,,,,,,,,METAR,930.0
KP53 021856Z AUTO 02003KT 17/12 A3013 RMK AO1 SLP206 T01670122,KP53,2023-06-02T18:56:00Z,46.42,-86.65,16.7,12.2,20,3,,,30.129921,1020.6,,TRUE,TRUE,,,,,,,,,,,,,,,,,,,,,,,,,,,METAR,185.0
KP28 021856Z AUTO 35008KT 17/17 A2998 RMK AO1 PK WND 33030/1804 PRESFR SLP146 P0058 T01670167,KP28,2023-06-02T18:56:00Z,37.28,-98.55,16.7,16.7,350,8,,,29.97933,1014.6,,TRUE,TRUE,,,,,,,,,,,,,,,,,,,,,0.58,,,,,,METAR,469.0
KOFK 021856Z AUTO 24009G17KT 10SM 29/14 A2998 RMK AO2 SLP138 T02890144,KOFK,2023-06-02T18:56:00Z,41.98,-97.43,28.9,14.4,240,9,17,10.0,29.97933,1013.8,,TRUE,TRUE,,,,,,,,,,,,,,,,,,,,,,,,,,,METAR,476.0
KNXF 021856Z AUTO 27009KT 10SM OVC035 20/14 A2999 RMK AO2 SLP239 T02000144 $,KNXF,2023-06-02T18:56:00Z,33.28,-117.45,20.0,14.4,270,9,,10.0,29.991142,1023.9,,TRUE,TRUE,TRUE,,,,,,OVC,3500,,,,,,,VFR,,,,,,,,,,,,SPECI,28.0
KNUC 021856Z 29008KT 10SM SCT019 BKN033 17/12 A3003 RMK AO2 SLP166 T01720117 $,KNUC,2023-06-02T18:56:00Z,33.02,-118.57,17.2,11.7,290,8,,10.0,30.029528,1016.6,,,TRUE,TRUE,,,,,,SCT,1900,BKN,3300,,,,,VFR,,,,,,,,,,,,SPECI,52.0
KNTU 021856Z 03012KT 10SM FEW014 SCT022 BKN200 23/19 A2989 RMK AO2 SLP123 T02280189,KNTU,2023-06-02T18:56:00Z,36.82,-76.02,22.8,18.9,30,12,,10.0,29.890747,1012.3,,,TRUE,,,,,,,FEW,1400,SCT,2200,BKN,20000,,,VFR,,,,,,,,,,,,METAR,6.0
KNSE 021856Z 05008KT 10SM BKN055 30/17 A2984 RMK AO2 SLP089 T03000167 $,KNSE,2023-06-02T18:56:00Z,30.73,-87.02,30.0,16.7,50,8,,10.0,29.840551,1008.9,,,TRUE,TRUE,,,,,,BKN,5500,,,,,,,VFR,,,,,,,,,,,,METAR,56.0
KNQI 021856Z 12011G20KT 10SM SCT040 BKN070 32/22 A2986 RMK AO2 SLP108 T03220217 $,KNQI,2023-06-02T18:56:00Z,27.5,-97.82,32.2,21.7,120,11,20,10.0,29.861221,1010.8,,,TRUE,TRUE,,,,,,SCT,4000,BKN,7000,,,,,VFR,,,,,,,,,,,,METAR,15.0
KNOG 021856Z AUTO 13011G20KT 10SM SCT045 SCT055 32/21 A2987 RMK AO2 SLP096 T03170206 TSNO PNO $,KNOG,2023-06-02T18:56:00Z,27.9,-98.05,31.7,20.6,130,11,20,10.0,29.870079,1009.6,,TRUE,TRUE,TRUE,,TRUE,,,,SCT,4500,SCT,5500,,,,,VFR,,,,,,,,,,,,METAR,72.0
KNID 021856Z 10007KT 10SM FEW070 29/06 A2991 RMK AO2 SLP108 T02890061 $,KNID,2023-06-02T18:56:00Z,35.68,-117.68,28.9,6.1,100,7,,10.0,29.911417,1010.8,,,TRUE,TRUE,,,,,,FEW,7000,,,,,,,VFR,,,,,,,,,,,,SPECI,682.0
KNDZ 021856Z 03011G17KT 10SM FEW070 SCT250 32/17 A2984 RMK AO2 SLP088 T03170167 $,KNDZ,2023-06-02T18:56:00Z,30.7,-87.02,31.7,16.7,30,11,17,10.0,29.840551,1008.8,,,TRUE,TRUE,,,,,,FEW,7000,SCT,25000,,,,,VFR,,,,,,,,,,,,METAR,51.0
KMTC 021856Z 05010KT 10SM FEW070 BKN200 31/11 A3003 RMK AO2A SLP170 T03050114 $,KMTC,2023-06-02T18:56:00Z,42.62,-82.83,30.5,11.4,50,10,,10.0,30.029528,1017.0,,,TRUE,TRUE,,,,,,FEW,7000,BKN,20000,,,,,VFR,,,,,,,,,,,,METAR,177.0
KMOB 021856Z 03007KT 10SM BKN055 BKN075 BKN250 32/16 A2986 RMK AO2 SLP109 T03170156 $,KMOB,2023-06-02T18:56:00Z,30.68,-88.25,31.7,15.6,30,7,,10.0,29.861221,1010.9,,,TRUE,TRUE,,,,,,BKN,5500,BKN,7500,BKN,25000,,,VFR,,,,,,,,,,,,METAR,67.0
KMHS 021856Z AUTO 00000KT 10SM CLR 22/05 A3006 RMK AO2 SLP175 T02170050,KMHS,2023-06-02T18:56:00Z,41.32,-122.32,21.7,5.0,0,0,,10.0,30.059055,1017.5,,TRUE,TRUE,,,,,,,CLR,,,,,,,,VFR,,,,,,,,,,,,METAR,1080.0
KMEH 021856Z AUTO VRB04KT 10SM CLR 17/04 A3008 RMK AO2 SLP180 T01720039,KMEH,2023-06-02T18:56:00Z,45.52,-118.42,17.2,3.9,0,4,,10.0,30.079725,1018.0,,TRUE,TRUE,,,,,,,CLR,,,,,,,,VFR,,,,,,,,,,,,SPECI,1138.0
KLWS 021856Z 10SM CLR 26/04 A3000 RMK AO2 SLP149 T02560039,KLWS,2023-06-02T18:56:00Z,46.37,-117.02,25.6,3.9,,,,10.0,30.0,1014.9,,,TRUE,,,,,,,CLR,,,,,,,,VFR,,,,,,,,,,,,METAR,435.0
KLNR 021856Z AUTO VRB04KT 10SM CLR 32/15 A3004 RMK AO2 SLP162 T03170150,KLNR,2023-06-02T18:56:00Z,43.22,-90.18,31.7,15.0,0,4,,10.0,30.041338,1016.2,,TRUE,TRUE,,,,,,,CLR,,,,,,,,VFR,,,,,,,,,,,,METAR,218.0
KLBT 021856Z AUTO 05011G17KT 10SM FEW040 OVC060 28/17 A2986 RMK AO2 SLP108 T02780172,KLBT,2023-06-02T18:56:00Z,34.6,-79.07,27.8,17.2,50,11,17,10.0,29.861221,1010.8,,TRUE,TRUE,,,,,,,FEW,4000,OVC,6000,,,,,VFR,,,,,,,,,,,,METAR,37.0
KLAS 021856Z VRB06KT 10SM FEW120 31/03 A2989 RMK AO2 SLP095 TCU DSNT NW T03110028,KLAS,2023-06-02T18:56:00Z,36.07,-115.17,31.1,2.8,0,6,,10.0,29.890747,1009.5,,,TRUE,,,,,,,FEW,12000,,,,,,,VFR,,,,,,,,,,,,METAR,662.0
KJXN 021856Z 03007G17KT 10SM FEW090 29/10 A3006 RMK AO2 SLP176 T02890100,KJXN,2023-06-02T18:56:00Z,42.27,-84.47,28.9,10.0,30,7,17,10.0,30.059055,1017.6,,,TRUE,,,,,,,FEW,9000,,,,,,,VFR,,,,,,,,,,,,METAR,303.0
KJMS 021856Z AUTO 16014G23KT 10SM CLR 31/17 A2995 RMK AO2 SLP133 T03060172,KJMS,2023-06-02T18:56:00Z,46.93,-98.67,30.6,17.2,160,14,23,10.0,29.949802,1013.3,,TRUE,TRUE,,,,,,,CLR,,,,,,,,VFR,,,,,,,,,,,,METAR,455.0
KJAX 021856Z 06014KT 10SM SCT040 BKN250 28/18 A2981 RMK AO2 SLP094 T02830178,KJAX,2023-06-02T18:56:00Z,30.5,-81.68,28.3,17.8,60,14,,10.0,29.811024,1009.4,,,TRUE,,,,,,,SCT,4000,BKN,25000,,,,,VFR,,,,,,,,,,,,METAR,8.0
KISP 021856Z 17010KT 10SM FEW050 FEW250 26/11 A2988 RMK AO2 SLP117 CB DSNT N MOV S T02560106,KISP,2023-06-02T18:56:00Z,40.8,-73.1,25.6,10.6,170,10,,10.0,29.878937,1011.7,,,TRUE,,,,,,,FEW,5000,FEW,25000,,,,,VFR,,,,,,,,,,,,METAR,25.0
KINW 021856Z AUTO VRB06KT 10SM CLR 25/01 A3002 RMK AO2 SLP099 T02500011,KINW,2023-06-02T18:56:00Z,35.03,-110.72,25.0,1.1,0,6,,10.0,30.02067,1009.9,,TRUE,TRUE,,,,,,,CLR,,,,,,,,VFR,,,,,,,,,,,,METAR,1492.0
KHYA 021856Z 18006KT 10SM CLR 22/17 A2987 RMK AO2 SLP116 T02170167,KHYA,2023-06-02T18:56:00Z,41.67,-70.27,21.7,16.7,180,6,,10.0,29.870079,1011.6,,,TRUE,,,,,,,CLR,,,,,,,,VFR,,,,,,,,,,,,METAR,11.0
KHWV 021856Z AUTO 20009KT 10SM CLR 26/10 A2989 RMK AO2 SLP119 T02610100,KHWV,2023-06-02T18:56:00Z,40.82,-72.87,26.1,10.0,200,9,,10.0,29.890747,1011.9,,TRUE,TRUE,,,,,,,CLR,,,,,,,,VFR,,,,,,,,,,,,METAR,20.0
KGRD 021856Z AUTO 01007KT 10SM SCT055 28/16 A2991 RMK AO2 SLP121 T02830156,KGRD,2023-06-02T18:56:00Z,34.25,-82.15,28.3,15.6,10,7,,10.0,29.911417,1012.1,,TRUE,TRUE,,,,,,,SCT,5500,,,,,,,VFR,,,,,,,,,,,,METAR,188.0
KGON 021856Z 16009KT 10SM CLR 24/13 A2986 RMK AO2 LTG DSNT N AND NW SLP113 T02440133 $,KGON,2023-06-02T18:56:00Z,41.33,-72.05,24.4,13.3,160,9,,10.0,29.861221,1011.3,,,TRUE,TRUE,,,,,,CLR,,,,,,,,VFR,,,,,,,,,,,,METAR,2.0
KELZ 021856Z AUTO 03009KT 10SM FEW085 30/09 A3005 RMK AO2 SLP162 T03000089,KELZ,2023-06-02T18:56:00Z,42.1,-77.98,30.0,8.9,30,9,,10.0,30.050198,1016.2,,TRUE,TRUE,,,,,,,FEW,8500,,,,,,,VFR,,,,,,,,,,,,METAR,639.0
KEKO 021856Z AUTO 20008KT 10SM FEW045 FEW065 SCT080 19/08 A3005 RMK AO2 SLP139 T01940078,KEKO,2023-06-02T18:56:00Z,40.82,-115.78,19.4,7.8,200,8,,10.0,30.050198,1013.9,,TRUE,TRUE,,,,,,,FEW,4500,FEW,6500,SCT,8000,,,VFR,,,,,,,,,,,,METAR,1541.0
KEED 021856Z AUTO 20007KT 170V270 10SM CLR 33/06 A2985 RMK AO2 SLP077 T03330061,KEED,2023-06-02T18:56:00Z,34.77,-114.62,33.3,6.1,200,7,,10.0,29.84941,1007.7,,TRUE,TRUE,,,,,,,CLR,,,,,,,,VFR,,,,,,,,,,,,METAR,271.0
KEAU 021856Z VRB05KT 10SM CLR 31/16 A3005 RMK AO2 LTG DSNT N-E SLP171 T03110161,KEAU,2023-06-02T18:56:00Z,44.87,-91.48,31.1,16.1,0,5,,10.0,30.050198,1017.1,,,TRUE,,,,,,,CLR,,,,,,,,VFR,,,,,,,,,,,,METAR,271.0
KDUG 021856Z AUTO 10SM CLR 25/M03 A3002 RMK AO2 SLP101 T02501033 TSNO,KDUG,2023-06-02T18:56:00Z,31.47,-109.6,25.0,-3.3,,,,10.0,30.02067,1010.1,,TRUE,TRUE,,,TRUE,,,,CLR,,,,,,,,VFR,,,,,,,,,,,,METAR,1260.0
KDAY 021856Z VRB03KT 10SM CLR 31/08 A3001 RMK AO2 SLP154 T03110083,KDAY,2023-06-02T18:56:00Z,39.9,-84.22,31.1,8.3,0,3,,10.0,30.008858,1015.4,,,TRUE,,,,,,,CLR,,,,,,,,VFR,,,,,,,,,,,,METAR,303.0
KD07 021856Z AUTO 16019G26KT 25/16 A2990 RMK AO1 PK WND 16030/1823 SLP109 T02500161,KD07,2023-06-02T18:56:00Z,45.03,-102.02,25.0,16.1,160,19,26,,29.899607,1010.9,,TRUE,TRUE,,,,,,,,,,,,,,,,,,,,,,,,,,,METAR,786.0
KCXY 021856Z 34008KT 10SM FEW100 34/11 A2989 RMK AO2 SLP119 T03440111,KCXY,2023-06-02T18:56:00Z,40.22,-76.85,34.4,11.1,340,8,,10.0,29.890747,1011.9,,,TRUE,,,,,,,FEW,10000,,,,,,,VFR,,,,,,,,,,,,METAR,102.0
KCHS 021856Z 36006G14KT 10SM SCT040 SCT060 BKN250 28/17 A2983 RMK AO2 SLP101 T02830167,KCHS,2023-06-02T18:56:00Z,32.9,-80.03,28.3,16.7,360,6,14,10.0,29.828741,1010.1,,,TRUE,,,,,,,SCT,4000,SCT,6000,BKN,25000,,,VFR,,,,,,,,,,,,METAR,12.0
KCAE 021856Z 01009KT 10SM BKN050 OVC065 28/16 A2986 RMK AO2 SLP109 T02780161,KCAE,2023-06-02T18:56:00Z,33.93,-81.12,27.8,16.1,10,9,,10.0,29.861221,1010.9,,,TRUE,,,,,,,BKN,5000,OVC,6500,,,,,VFR,,,,,,,,,,,,METAR,69.0
KBZN 021856Z 31012KT 10SM -RA SCT013 BKN055 OVC070 15/13 A3004 RMK AO2 SLP152 P0000 T01500128,KBZN,2023-06-02T18:56:00Z,45.78,-111.17,15.0,12.8,310,12,,10.0,30.041338,1015.2,,,TRUE,,,,,,-RA,SCT,1300,BKN,5500,OVC,7000,,,VFR,,,,,,0.005,,,,,,METAR,1349.0
KBJJ 021856Z AUTO 03014G21KT 10SM FEW080 31/12 A3001 RMK AO2 SLP155 T03110117,KBJJ,2023-06-02T18:56:00Z,40.87,-81.88,31.1,11.7,30,14,21,10.0,30.008858,1015.5,,TRUE,TRUE,,,,,,,FEW,8000,,,,,,,VFR,,,,,,,,,,,,METAR,338.0
KBIH 021856Z AUTO VRB05KT 10SM CLR 27/03 A2997 RMK AO2 SLP101 T02670033,KBIH,2023-06-02T18:56:00Z,37.37,-118.35,26.7,3.3,0,5,,10.0,29.970472,1010.1,,TRUE,TRUE,,,,,,,CLR,,,,,,,,VFR,,,,,,,,,,,,METAR,1252.0
KART 021856Z AUTO 02010G16KT 10SM CLR 32/15 A2995 RMK AO2 SLP136 T03170150,KART,2023-06-02T18:56:00Z,43.98,-76.03,31.7,15.0,20,10,16,10.0,29.949802,1013.6,,TRUE,TRUE,,,,,,,CLR,,,,,,,,VFR,,,,,,,,,,,,METAR,100.0
KAND 021856Z AUTO 05009G15KT 020V080 10SM SCT060 29/16 A2989 RMK AO2 SLP113 T02890156,KAND,2023-06-02T18:56:00Z,34.5,-82.72,28.9,15.6,50,9,15,10.0,29.890747,1011.3,,TRUE,TRUE,,,,,,,SCT,6000,,,,,,,VFR,,,,,,,,,,,,METAR,233.0
KALK 021856Z AUTO VRB04KT 10SM CLR 23/M02 A3005 RMK AO2 SLP092 T02331017,KALK,2023-06-02T18:56:00Z,31.6,-110.43,23.3,-1.7,0,4,,10.0,30.050198,1009.2,,TRUE,TRUE,,,,,,,CLR,,,,,,,,VFR,,,,,,,,,,,,METAR,1451.0
K79J 021856Z AUTO 07009KT 10SM SCT050 BKN070 31/16 A2985 RMK AO2 SLP102 T03110161,K79J,2023-06-02T18:56:00Z,31.32,-86.4,31.1,16.1,70,9,,10.0,29.84941,1010.2,,TRUE,TRUE,,,,,,,SCT,5000,BKN,7000,,,,,VFR,,,,,,,,,,,,SPECI,93.0
K2WX 021856Z AUTO 13022G30KT 26/16 A2984 RMK AO1 PK WND 12030/1851 SLP086 T02610161,K2WX,2023-06-02T18:56:00Z,45.6,-103.55,26.1,16.1,130,22,30,,29.840551,1008.6,,TRUE,TRUE,,,,,,,,,,,,,,,,,,,,,,,,,,,METAR,925.0
TNCE 021855Z AUTO 10010KT 050V160 //// // ///////// 30/24 Q1012 RE//,TNCE,2023-06-02T18:55:00Z,17.48,-62.97,30.0,24.0,100,10,,,29.88189,,,TRUE,,,,,,,,,,,,,,,,,,,,,,,,,,,,SPECI,38.0
TNCB 021855Z 12013KT 080V150 CAVOK 32/24 Q1008,TNCB,2023-06-02T18:55:00Z,12.13,-68.28,32.0,24.0,120,13,,6.21,29.763779,,,,,,,,,,,CAVOK,,,,,,,,VFR,,,,,,,,,,,,METAR,6.0
RODN 021855Z 31005KT 10SM FEW020 23/21 A2970 RMK AO2A SLPNO FZRANO $,RODN,2023-06-02T18:55:00Z,26.35,127.77,23.0,21.0,310,5,,10.0,29.698818,,,,TRUE,TRUE,,,TRUE,,,FEW,2000,,,,,,,VFR,,,,,,,,,,,,METAR,38.0
RKSO 021855Z 00000KT 3SM BR CLR 15/15 A2974 RMK AO2A SLP070 WND DATA ESTMD ALTSG/SLP ESTMD T01450145 $,RKSO,2023-06-02T18:55:00Z,37.08,127.02,14.5,14.5,0,0,,3.0,29.740158,1007.0,,,TRUE,TRUE,,,,,BR,CLR,,,,,,,,MVFR,,,,,,,,,,,,SPECI,10.0
RKSG 021855Z 00000KT 5SM BR CLR 16/16 A2971 RMK AO2A DZB45E47DZB47E48 SLP063 P0000 T01590157 $,RKSG,2023-06-02T18:55:00Z,36.97,127.02,15.9,15.7,0,0,,5.0,29.71063,1006.3,,,TRUE,TRUE,,,,,BR,CLR,,,,,,,,MVFR,,,,,,0.005,,,,,,SPECI,12.0
RKJK 021855Z AUTO 00000KT 5SM BR CLR 16/15 A2971 RMK AO2 SLP065 T01560154 $,RKJK,2023-06-02T18:55:00Z,35.9,126.62,15.6,15.4,0,0,,5.0,29.71063,1006.5,,TRUE,TRUE,TRUE,,,,,BR,CLR,,,,,,,,MVFR,,,,,,,,,,,,SPECI,8.0
PHSF 021855Z AUTO 15005KT 10SM CLR 17/11 A3043 RMK AO2 SLP193 T01680111 $,PHSF,2023-06-02T18:55:00Z,19.77,-155.55,16.8,11.1,150,5,,10.0,30.431103,1019.3,,TRUE,TRUE,TRUE,,,,,,CLR,,,,,,,,VFR,,,,,,,,,,,,SPECI,1863.0
PAFR 021855Z AUTO 12008KT 10SM FEW013 SCT019 SCT025 OVC039 08/02 A2992 RMK AO2 RAB26E36 SLP139 P0000 T00780021 $,PAFR,2023-06-02T18:55:00Z,61.27,-149.65,7.8,2.1,120,8,,10.0,29.920275,1013.9,,TRUE,TRUE,TRUE,,,,,,FEW,1300,SCT,1900,SCT,2500,OVC,3900,VFR,,,,,,0.005,,,,,,METAR,106.0
PAFB 021855Z 21005KT 7SM -RA FEW003 SCT012 BKN016 OVC065 05/03 A2984 RMK AO2A RAB46 CIG 011V016 SLP114 P0000 T00510034 FZRANO $,PAFB,2023-06-02T18:55:00Z,64.83,-147.62,5.1,3.4,210,5,,7.0,29.840551,1011.4,,,TRUE,TRUE,,,TRUE,,-RA,FEW,300,SCT,1200,BKN,1600,OVC,6500,MVFR,,,,,,0.005,,,,,,METAR,137.0
PAEI 021855Z 16007KT 10SM -RA BKN011 OVC022 04/03 A2984 RMK AO2A SLP112 P0002 T00410026 $,PAEI,2023-06-02T18:55:00Z,64.67,-147.1,4.1,2.6,160,7,,10.0,29.840551,1011.2,,,TRUE,TRUE,,,,,-RA,BKN,1100,OVC,2200,,,,,MVFR,,,,,,0.02,,,,,,METAR,166.0
OTBH 021855Z 27008KT 9999 CLR 30/12 A2970 Q1006 RMK AO2A SLPNO T02990119 RVRNO FZRANO $,OTBH,2023-06-02T18:55:00Z,25.12,51.32,29.9,11.9,270,8,,6.21,29.704725,,,,TRUE,TRUE,,,TRUE,,,CLR,,,,,,,,VFR,,,,,,,,,,,,SPECI,40.0
OPFA 021855Z 00000KT 4000 FU NSC 25/19 Q1007 NOSIG,OPFA,2023-06-02T18:55:00Z,31.37,73.0,25.0,19.0,0,0,,2.49,29.734253,,,,,,TRUE,,,,FU,CLR,,,,,,,,IFR,,,,,,,,,,,,METAR,180.0
LIVT 021855Z AUTO VRB02KT //// 22/17 Q1012,LIVT,2023-06-02T18:55:00Z,45.68,13.75,22.0,17.0,0,2,,,29.88189,,,TRUE,,,,,,,,,,,,,,,,,,,,,,,,,,,,SPECI,20.0
LIVR 021855Z 12007KT CAVOK 09/06 Q1019 RMK BKN SCT060 SCT080 MON LIB VIS MIN 9999,LIVR,2023-06-02T18:55:00Z,46.28,11.78,9.0,6.0,120,7,,6.21,30.088583,,,,,,,,,,,CAVOK,,,,,,,,VFR,,,,,,,,,,,,SPECI,1997.0
LIVP 021855Z 18007KT 0900 FG VV/// 09/07 Q1020 RMK MON INVIS VAL INVIS VIS MIN 0900,LIVP,2023-06-02T18:55:00Z,46.15,11.03,9.0,7.0,180,7,,0.56,30.11811,,,,,,,,,,FG,OVX,0,,,,,,,LIFR,,,,,,,,,,,,SPECI,2099.0
LIVM 021855Z AUTO /////KT //// 25/// Q////,LIVM,2023-06-02T18:55:00Z,44.45,12.3,,,,,,,,,,TRUE,,,,,,,,,,,,,,,,,,,,,,,,,,,,SPECI,6.0
LIVF 021855Z 18006KT CAVOK 18/15 Q1013,LIVF,2023-06-02T18:55:00Z,43.52,12.72,18.0,15.0,180,6,,6.21,29.911417,,,,,,,,,,,CAVOK,,,,,,,,VFR,,,,,,,,,,,,METAR,549.0
LIVE 021855Z 21002KT 9999 BKN020 17/05 Q1014 RMK BKN VIS MIN 9999,LIVE,2023-06-02T18:55:00Z,46.82,10.5,17.0,5.0,210,2,,6.21,29.940945,,,,,,,,,,,BKN,2000,,,,,,,MVFR,,,,,,,,,,,,SPECI,1684.0
LIVD 021855Z AUTO 09009KT //// 12/09 Q1019,LIVD,2023-06-02T18:55:00Z,46.72,12.22,12.0,9.0,90,9,,,30.088583,,,TRUE,,,,,,,,,,,,,,,,,,,,,,,,,,,,SPECI,1221.0
LIVC 021855Z AUTO VRB02KT //// 07/03 Q1021,LIVC,2023-06-02T18:55:00Z,44.2,10.68,7.0,3.0,0,2,,,30.147638,,,TRUE,,,,,,,,,,,,,,,,,,,,,,,,,,,,SPECI,2139.0
LIRS 021855Z 24004KT 9999 FEW025 21/19 Q1012 RMK SCT SCT200 VIS MIN 9999 WIND THR03 24004KT WIND THR21 25004KT BLU,LIRS,2023-06-02T18:55:00Z,42.75,11.07,21.0,19.0,240,4,,6.21,29.88189,,,,,,,,,,,FEW,2500,,,,,,,VFR,,,,,,,,,,,,SPECI,3.0
LIRM 021855Z 17004KT 9999 FEW070 21/20 Q1013 RMK BKN BKN200 VIS MIN 9999 WIND THR06 21005KT BLU,LIRM,2023-06-02T18:55:00Z,41.05,14.07,21.0,20.0,170,4,,6.21,29.911417,,,,,,,,,,,FEW,7000,,,,,,,VFR,,,-0.5,,,,,,,,,SPECI,6.0
LIRK 021855Z AUTO /////KT //// ///// Q////,LIRK,2023-06-02T18:55:00Z,42.47,12.97,,,,,,,,,,TRUE,,,,,,,,,,,,,,,,,,,,,,,,,,,,SPECI,1721.0
LIRE 021855Z 35002KT CAVOK 21/19 Q1013 RMK SKC VIS MIN 9999 WIND THR13 04001KT WIND THR31 /////KT BLU,LIRE,2023-06-02T18:55:00Z,41.65,12.43,21.0,19.0,350,2,,6.21,29.911417,,,,,,,,,,,CAVOK,,,,,,,,VFR,,,,,,,,,,,,SPECI,16.0
LIQC 021855Z 00000KT 9999 SCT020 21/18 Q1014 RMK SCT QUK / QUL / VIS MAR 20 KM VIS MIN 9999,LIQC,2023-06-02T18:55:00Z,40.55,14.2,21.0,18.0,0,0,,6.21,29.940945,,,,,,,,,,,SCT,2000,,,,,,,VFR,,,,,,,,,,,,SPECI,154.0
LIPS 021855Z 02006KT 9999 -TSRA BKN025CB SCT040TCU 20/15 Q1012 RMK OVC VIS MIN 9999 WIND THR26 36006KT WIND THR08 02006KT BLU,LIPS,2023-06-02T18:55:00Z,45.68,12.1,20.0,15.0,20,6,,6.21,29.88189,,,,,,,,,,-TSRA,BKN,2500,SCT,4000,,,,,MVFR,,,,,,,,,,,,SPECI,42.0
LIPL 021855Z 18003KT 9999 SCT045 25/19 Q1011 RMK BKN SCT100 VIS MIN 9999 WIND THR31 /////KT WIND THR13 19002KT BLU,LIPL,2023-06-02T18:55:00Z,45.42,10.27,25.0,19.0,180,3,,6.21,29.852362,,,,,,,,,,,SCT,4500,,,,,,,VFR,,,,,,,,,,,,SPECI,96.0
LIPI 021855Z 31004KT 9999 -TSRA FEW035CB SCT050 BKN080 19/15 Q1012 RMK OVC VIS MIN 9999 WIND THR06 34006KT WIND THR24 34004KT BLU,LIPI,2023-06-02T18:55:00Z,45.97,13.05,19.0,15.0,310,4,,6.21,29.88189,,,,,,,,,,-TSRA,FEW,3500,SCT,5000,BKN,8000,,,VFR,,,,,,,,,,,,SPECI,49.0
LIPC 021855Z 10003KT CAVOK 22/16 Q1012 RMK SCT SCT200 VIS MIN 9999 WIND THR11 10002KT WIND THR29 11002KT BLU,LIPC,2023-06-02T18:55:00Z,44.22,12.3,22.0,16.0,100,3,,6.21,29.88189,,,,,,,,,,,CAVOK,,,,,,,,VFR,,0.2,,,,,,,,,,SPECI,10.0
LIED 021855Z 14004KT 9999 1200 BKN030 21/19 Q1012 RMK BKN VIS MIN 1200 WIND THR35 /////KT WIND THR17 13004KT AMB,LIED,2023-06-02T18:55:00Z,39.35,8.97,21.0,19.0,140,4,,6.21,29.88189,,,,,,,,,,,BKN,3000,,,,,,,MVFR,,,,,,,,,,,,SPECI,26.0
LIEB 021855Z 19010KT 9999 FEW025 FEW030TCU 19/16 Q1013 RMK BKN BKN200 QUK 2 QUL 0 VIS MAR 25 KM MON W CIME INC NC VIS MIN 9999,LIEB,2023-06-02T18:55:00Z,39.93,9.72,19.0,16.0,190,10,,6.21,29.911417,,,,,,,,,,,FEW,2500,FEW,3000,,,,,VFR,,,,,,,,,,,,SPECI,126.0
LICZ 021855Z 28006KT 9999 FEW040 17/17 Q1012 RMK BKN SCT150 VIS MIN 9999 WIND THR28 27005KT WIND THR10 27006KT A2992 BLU,LICZ,2023-06-02T18:55:00Z,37.4,14.92,17.0,17.0,280,6,,6.21,29.88189,,,,,,,,,,,FEW,4000,,,,,,,VFR,,,,,,,,,,,,SPECI,22.0
LICT 021855Z 32006KT 9999 FEW020TCU SCT025 21/19 Q1013 RMK SCT VIS MIN 9999 WIND THR13 34006KT BLU,LICT,2023-06-02T18:55:00Z,37.92,12.5,21.0,19.0,320,6,,6.21,29.911417,,,,,,,,,,,FEW,2000,SCT,2500,,,,,VFR,,,,,,,,,,,,SPECI,4.0
LIBV 021855Z 03005KT CAVOK 17/14 Q1012 RMK SCT SCT230 VIS MIN 9999 WIND THR32 03005KT WIND THR14 /////KT BLU,LIBV,2023-06-02T18:55:00Z,40.77,16.93,17.0,14.0,30,5,,6.21,29.88189,,,,,,,,,,,CAVOK,,,,,,,,VFR,,,,,,,,,,,,SPECI,344.0
LIBQ 021855Z AUTO /////KT //// 12/04 Q1018,LIBQ,2023-06-02T18:55:00Z,39.32,16.38,12.0,4.0,,,,,30.059055,,,TRUE,,,,,,,,,,,,,,,,,,,,,,,,,,,,SPECI,1660.0
LIBN 021855Z 08003KT CAVOK 21/20 Q1012 RMK SCT SCT200 VIS MIN 9999 WIND THR14 07003KT WIND THR32 07005KT BLU,LIBN,2023-06-02T18:55:00Z,40.23,18.13,21.0,20.0,80,3,,6.21,29.88189,,,,,,,,,,,CAVOK,,,,,,,,VFR,,,,,,,,,,,,SPECI,46.0
LIBA 021855Z 07005KT 9999 FEW060 20/17 Q1013 RMK SCT SCT200 VIS MIN 9999 WIND THR11 06005KT WIND THR29 /////KT BLU,LIBA,2023-06-02T18:55:00Z,41.53,15.72,20.0,17.0,70,5,,6.21,29.911417,,,,,,,,,,,FEW,6000,,,,,,,VFR,,,,,,,,,,,,SPECI,55.0
KXIF 021855Z AUTO 04005KT 10SM FEW085 31/10 A2993 RMK AO2 SLP132 T03110099 $,KXIF,2023-06-02T18:55:00Z,,,31.1,9.9,40,5,,10.0,29.929134,1013.2,,TRUE,TRUE,TRUE,,,,,,FEW,8500,,,,,,,VFR,,,,,,,,,,,,METAR,
KWRI 021855Z AUTO 07005KT 10SM CLR 34/14 A2985 RMK AO2 SLP107 T03360141,KWRI,2023-06-02T18:55:00Z,40.02,-74.58,33.6,14.1,70,5,,10.0,29.84941,1010.7,,TRUE,TRUE,,,,,,,CLR,,,,,,,,VFR,,,,,,,,,,,,SPECI,35.0
KVPS 021855Z AUTO 03009G17KT 10SM BKN065 31/15 A2981 RMK AO2 SLP101 T03090149 TSNO $,KVPS,2023-06-02T18:55:00Z,30.47,-86.52,30.9,14.9,30,9,17,10.0,29.811024,1010.1,,TRUE,TRUE,TRUE,,TRUE,,,,BKN,6500,,,,,,,VFR,,,,,,,,,,,,METAR,21.0
KVOK 021855Z 13008KT 10SM FEW055 SCT250 31/16 A3004 RMK AO2A SLP171 T03130164,KVOK,2023-06-02T18:55:00Z,43.93,-90.27,31.3,16.4,130,8,,10.0,30.041338,1017.1,,,TRUE,,,,,,,FEW,5500,SCT,25000,,,,,VFR,,,,,,,,,,,,METAR,278.0
KVBG 021855Z 27008KT 8SM OVC014 15/11 A3004 RMK AO2A SLP176 T01450107,KVBG,2023-06-02T18:55:00Z,34.73,-120.58,14.5,10.7,270,8,,8.0,30.041338,1017.6,,,TRUE,,,,,,,OVC,1400,,,,,,,MVFR,,,,,,,,,,,,METAR,96.0
KTFP 021855Z AUTO 17010G15KT 5SM CLR 31/21 A2987 RMK AO2 T03050212,KTFP,2023-06-02T18:55:00Z,27.92,-97.22,30.5,21.2,170,10,15,5.0,29.870079,,,TRUE,TRUE,,,,,,,CLR,,,,,,,,MVFR,,,,,,,,,,,,METAR,5.0
KSUU 021855Z AUTO 23010KT 10SM CLR 22/11 A2995 RMK AO2 SLP148 T02240105 $,KSUU,2023-06-02T18:55:00Z,38.27,-121.93,22.4,10.5,230,10,,10.0,29.949802,1014.8,,TRUE,TRUE,TRUE,,,,,,CLR,,,,,,,,VFR,,,,,,,,,,,,METAR,9.0
KS34 021855Z AUTO 00000KT 10SM 17/04 A3005 RMK Plains ,KS34,2023-06-02T18:55:00Z,47.47,-114.9,17.0,4.0,0,0,,10.0,30.050198,,,TRUE,,,,,,,,,,,,,,,,,,,,,,,,,,,,METAR,750.0
KRYM 021855Z AUTO 15013G19KT 10SM CLR 30/18 A3003 RMK AO2 SLP166 T02970175 $,KRYM,2023-06-02T18:55:00Z,46.08,-94.37,29.7,17.5,150,13,19,10.0,30.029528,1016.6,,TRUE,TRUE,TRUE,,,,,,CLR,,,,,,,,VFR,,,,,,,,,,,,METAR,344.0
KRDR 021855Z 11007KT 6SM HZ FU SCT000 BKN170 29/20 A2994 RMK AO2A HZ SCT000 SLP140 T02920195 $,KRDR,2023-06-02T18:55:00Z,47.93,-97.4,29.2,19.5,110,7,,6.0,29.940945,1014.0,,,TRUE,TRUE,,,,,HZ FU,SCT,0,BKN,17000,,,,,VFR,,,,,,,,,,,,METAR,276.0
KRCA 021855Z AUTO 18014KT 10SM SCT028 BKN036 OVC200 22/16 A2988 RMK AO2 SLP103 T02200156 $,KRCA,2023-06-02T18:55:00Z,44.15,-103.12,22.0,15.6,180,14,,10.0,29.878937,1010.3,,TRUE,TRUE,TRUE,,,,,,SCT,2800,BKN,3600,OVC,20000,,,VFR,,,,,,,,,,,,METAR,993.0
KQTZ 021855Z 36004KT 9999 SKC 32/09 A2986 RMK SLP114,KQTZ,2023-06-02T18:55:00Z,,,32.0,9.0,360,4,,6.21,29.861221,1011.4,,,,,,,,,,SKC,,,,,,,,VFR,,,,,,,,,,,,SPECI,
KQRH 021855Z AUTO VRB03KT 9999 FEW017 31/27 A2977 RMK AO2 SLP084 WND DATA ESTMD T03140274,KQRH,2023-06-02T18:55:00Z,,,31.4,27.4,0,3,,6.21,29.769686,1008.4,,TRUE,TRUE,,,,,,,FEW,1700,,,,,,,VFR,,,,,,,,,,,,METAR,
KQDG 021855Z AUTO 29012G19KT 9999 OVC025 19/16 A2932 RMK AO2 PRESRR SLP930 T01920157 $,KQDG,2023-06-02T18:55:00Z,,,19.2,15.7,290,12,19,6.21,29.320866,993.0,,TRUE,TRUE,TRUE,,,,,,OVC,2500,,,,,,,MVFR,,,,,,,,,,,,METAR,
KQBL 021855Z AUTO VRB02KT 10SM SCT060 30/18 A2984 RMK AO2 SLP103 WND DATA ESTMD T02970184,KQBL,2023-06-02T18:55:00Z,,,29.7,18.4,0,2,,10.0,29.840551,1010.3,,TRUE,TRUE,,,,,,,SCT,6000,,,,,,,VFR,,,,,,,,,,,,METAR,
KPSM 021855Z 11011KT 10SM FEW060 BKN200 27/15 A2984 RMK AO2A SLP107 T02730146,KPSM,2023-06-02T18:55:00Z,43.08,-70.82,27.3,14.6,110,11,,10.0,29.840551,1010.7,,,TRUE,,,,,,,FEW,6000,BKN,20000,,,,,VFR,,,,,,,,,,,,METAR,34.0
KP58 021855Z AUTO 33003KT 20/14 A3010 RMK AO1 SLP188 T02000144,KP58,2023-06-02T18:55:00Z,44.02,-82.8,20.0,14.4,330,3,,,30.100393,1018.8,,TRUE,TRUE,,,,,,,,,,,,,,,,,,,,,,,,,,,SPECI,180.0
KOFF 021855Z COR 15011G18KT 10SM VCTS FEW010 BKN050CB BKN250 31/16 A2998 RMK AO2A TS 10SW MOV NW TS 13NW MOV NW SLP148 T03140161 $ COR 1911,KOFF,2023-06-02T18:55:00Z,41.12,-95.92,31.4,16.1,150,11,18,10.0,29.97933,1014.8,TRUE,,TRUE,TRUE,,,,,VCTS,FEW,1000,BKN,5000,BKN,25000,,,VFR,,,,,,,,,,,,METAR,308.0
KNKX 021855Z 31007KT 10SM BKN019 OVC024 18/13 A2999 RMK AO2 SLP152 T01780128,KNKX,2023-06-02T18:55:00Z,32.87,-117.13,17.8,12.8,310,7,,10.0,29.991142,1015.2,,,TRUE,,,,,,,BKN,1900,OVC,2400,,,,,MVFR,,,,,,,,,,,,METAR,138.0
KMUO 021855Z 30018G23KT 10SM SCT070 23/04 A2994 RMK AO2A SLP120 T02300040 $,KMUO,2023-06-02T18:55:00Z,43.03,-115.87,23.0,4.0,300,18,23,10.0,29.940945,1012.0,,,TRUE,TRUE,,,,,,SCT,7000,,,,,,,VFR,,,,,,,,,,,,METAR,915.0
KMIB 021855Z AUTO 16010G16KT 10SM FEW200 29/16 A2990 RMK AO2 SLP121 T02920164 $,KMIB,2023-06-02T18:55:00Z,48.42,-101.35,29.2,16.4,160,10,16,10.0,29.899607,1012.1,,TRUE,TRUE,TRUE,,,,,,FEW,20000,,,,,,,VFR,,,,,,,,,,,,SPECI,505.0
KMGC 021855Z AUTO 01009KT 10SM CLR 28/11 A3006 RMK AO2,KMGC,2023-06-02T18:55:00Z,41.7,-86.82,28.0,11.0,10,9,,10.0,30.059055,,,TRUE,TRUE,,,,,,,CLR,,,,,,,,VFR,,,,,,,,,,,,METAR,199.0
KLGF 021855Z AUTO 21003KT M M CLR 30/09 A2987 RMK AO2 SLP112 T03000089 RVRNO PWINO TSNO $,KLGF,2023-06-02T18:55:00Z,32.87,-114.4,30.0,8.9,210,3,,,29.870079,1011.2,,TRUE,TRUE,TRUE,,TRUE,,TRUE,,CLR,,,,,,,,,,,,,,,,,,,,METAR,118.0
KLFI 021855Z 07008KT 10SM FEW030 26/21 A2989 RMK AO2A SLP128 T02560214 $,KLFI,2023-06-02T18:55:00Z,37.08,-76.33,25.6,21.4,70,8,,10.0,29.890747,1012.8,,,TRUE,TRUE,,,,,,FEW,3000,,,,,,,VFR,,,,,,,,,,,,SPECI,2.0
KLCK 021855Z AUTO 02007G15KT 10SM CLR 32/11 A2998 RMK AO2 T03210108,KLCK,2023-06-02T18:55:00Z,39.82,-82.92,32.1,10.8,20,7,15,10.0,29.97933,,,TRUE,TRUE,,,,,,,CLR,,,,,,,,VFR,,,,,,,,,,,,METAR,225.0
KJQF 021855Z 36006KT 10SM CLR 29/10 A2993,KJQF,2023-06-02T18:55:00Z,35.38,-80.72,29.0,10.0,360,6,,10.0,29.929134,,,,,,,,,,,CLR,,,,,,,,VFR,,,,,,,,,,,,METAR,204.0
KHOP 021855Z AUTO 04007KT 10SM FEW180 31/15 A2993 RMK AO2 SLP132 T03080152,KHOP,2023-06-02T18:55:00Z,36.67,-87.5,30.8,15.2,40,7,,10.0,29.929134,1013.2,,TRUE,TRUE,,,,,,,FEW,18000,,,,,,,VFR,,,,,,,,,,,,SPECI,170.0
KHIF 021855Z 26006KT 10SM SCT036 SCT045 BKN055 19/09 A2999 RMK AO2A SLP112 T01930086,KHIF,2023-06-02T18:55:00Z,41.12,-111.97,19.3,8.6,260,6,,10.0,29.991142,1011.2,,,TRUE,,,,,,,SCT,3600,SCT,4500,BKN,5500,,,VFR,,,,,,,,,,,,METAR,1461.0
KGUS 021855Z 07012G16KT 10SM CLR 31/09 A3001 RMK AO2A SLP160 T03100092 $,KGUS,2023-06-02T18:55:00Z,40.63,-86.15,31.0,9.2,70,12,16,10.0,30.008858,1016.0,,,TRUE,TRUE,,,,,,CLR,,,,,,,,VFR,,,,,,,,,,,,SPECI,245.0
KGTB 021855Z AUTO 36009KT 10SM CLR 31/16 A2994 RMK AO2 SLP135 T03070163,KGTB,2023-06-02T18:55:00Z,44.07,-75.72,30.7,16.3,360,9,,10.0,29.940945,1013.5,,TRUE,TRUE,,,,,,,CLR,,,,,,,,VFR,,,,,,,,,,,,METAR,206.0
KGOV 021855Z AUTO 06003KT 10SM FEW095 32/08 A3009 RMK AO2 SLP191 T03230078 $,KGOV,2023-06-02T18:55:00Z,44.68,-84.73,32.3,7.8,60,3,,10.0,30.088583,1019.1,,TRUE,TRUE,TRUE,,,,,,FEW,9500,,,,,,,VFR,,,,,,,,,,,,METAR,350.0
KFFO 021855Z AUTO 05006KT 10SM CLR 31/08 A2996 RMK AO2 SLP144 T03120082,KFFO,2023-06-02T18:55:00Z,39.83,-84.03,31.2,8.2,50,6,,10.0,29.958662,1014.4,,TRUE,TRUE,,,,,,,CLR,,,,,,,,VFR,,,,,,,,,,,,SPECI,250.0
KFCS 021855Z 17010G26KT 10SM SCT095 21/M05 A2995 RMK AO2A SLP016 T02111053,KFCS,2023-06-02T18:55:00Z,38.67,-104.77,21.1,-5.3,170,10,26,10.0,29.949802,1001.6,,,TRUE,,,,,,,SCT,9500,,,,,,,VFR,,,,,,,,,,,,METAR,1789.0
KEND 021855Z 14012KT 10SM FEW048 SCT060 SCT100 29/19 A2989 RMK AO2A SLP111 T02930187,KEND,2023-06-02T18:55:00Z,36.33,-97.92,29.3,18.7,140,12,,10.0,29.890747,1011.1,,,TRUE,,,,,,,FEW,4800,SCT,6000,SCT,10000,,,VFR,,,,,,,,,,,,SPECI,392.0
KDOV 021855Z AUTO 11007KT 10SM CLR 29/10 A2987 RMK AO2 SLP118 T02880104,KDOV,2023-06-02T18:55:00Z,39.12,-75.47,28.8,10.4,110,7,,10.0,29.870079,1011.8,,TRUE,TRUE,,,,,,,CLR,,,,,,,,VFR,,,,,,,,,,,,SPECI,6.0
KDMA 021855Z AUTO 00000KT 10SM FEW200 28/02 A2992 RMK AO2 SLP132 T02770020 RVRNO VISNO RWY30 $,KDMA,2023-06-02T18:55:00Z,32.17,-110.88,27.7,2.0,0,0,,10.0,29.920275,1013.2,,TRUE,TRUE,TRUE,,,,,,FEW,20000,,,,,,,VFR,,,,,,,,,,,,METAR,804.0
KDAA 021855Z AUTO 08003KT 10SM CLR 33/13 A2986 RMK AO2 SLP114 T03260127 $,KDAA,2023-06-02T18:55:00Z,38.72,-77.17,32.6,12.7,80,3,,10.0,29.861221,1011.4,,TRUE,TRUE,TRUE,,,,,,CLR,,,,,,,,VFR,,,,,,,,,,,,SPECI,17.0
KCMY 021855Z AUTO 20004KT 10SM SCT060 32/16 A3003 RMK AO2 LTG DSNT NE SLP168 T03200155 FZRANO $,KCMY,2023-06-02T18:55:00Z,43.97,-90.73,32.0,15.5,200,4,,10.0,30.029528,1016.8,,TRUE,TRUE,TRUE,,,TRUE,,,SCT,6000,,,,,,,VFR,,,,,,,,,,,,METAR,253.0
KBLV 021855Z 06005KT 10SM SCT070 32/15 A2996 RMK AO2A SLP145 T03190154 $,KBLV,2023-06-02T18:55:00Z,38.53,-89.83,31.9,15.4,60,5,,10.0,29.958662,1014.5,,,TRUE,TRUE,,,,,,SCT,7000,,,,,,,VFR,,,,,,,,,,,,SPECI,134.0
KAPG 021855Z 16005KT 10SM FEW030 32/16 A2986 RMK AO2A SLP114,KAPG,2023-06-02T18:55:00Z,39.47,-76.17,32.0,16.0,160,5,,10.0,29.861221,1011.4,,,TRUE,,,,,,,FEW,3000,,,,,,,VFR,,,,,,,,,,,,SPECI,18.0
KADW 021855Z AUTO 03009KT 10SM CLR 31/14 A2986 RMK AO2 SLP116 T03110142 $,KADW,2023-06-02T18:55:00Z,38.82,-76.87,31.1,14.2,30,9,,10.0,29.861221,1011.6,,TRUE,TRUE,TRUE,,,,,,CLR,,,,,,,,VFR,,,,,,,,,,,,SPECI,87.0
K1ON 021855Z AUTO 16009KT 10SM CLR 30/17 A2992 RMK AO2 SLP129 T03020173 $,K1ON,2023-06-02T18:55:00Z,,,30.2,17.3,160,9,,10.0,29.920275,1012.9,,TRUE,TRUE,TRUE,,,,,,CLR,,,,,,,,VFR,,,,,,,,,,,,METAR,
K1NN 021855Z AUTO 14012KT 10SM CLR 30/17 A2992 RMK AO2 SLP125 T02950170 $,K1NN,2023-06-02T18:55:00Z,,,29.5,17.0,140,12,,10.0,29.920275,1012.5,,TRUE,TRUE,TRUE,,,,,,CLR,,,,,,,,VFR,,,,,,,,,,,,METAR,
K1KN 021855Z AUTO 14007G16KT 10SM FEW055 27/15 A2994 RMK AO2 SLP131 T02700150 $,K1KN,2023-06-02T18:55:00Z,,,27.0,15.0,140,7,16,10.0,29.940945,1013.1,,TRUE,TRUE,TRUE,,,,,,FEW,5500,,,,,,,VFR,,,,,,,,,,,,METAR,
K1JN 021855Z AUTO 16008KT 10SM BKN055 27/17 A2992 RMK AO2 SLP125 T02730166 $,K1JN,2023-06-02T18:55:00Z,,,27.3,16.6,160,8,,10.0,29.920275,1012.5,,TRUE,TRUE,TRUE,,,,,,BKN,5500,,,,,,,VFR,,,,,,,,,,,,METAR,
K1IW 021855Z AUTO 14011KT 10SM SCT035 22/15 A2991 RMK AO2 SLP091 T02180151 $,K1IW,2023-06-02T18:55:00Z,41.05,-102.87,21.8,15.1,140,11,,10.0,29.911417,1009.1,,TRUE,TRUE,TRUE,,,,,,SCT,3500,,,,,,,VFR,,,,,,,,,,,,METAR,1294.0
K1HW 021855Z AUTO 13009KT 10SM SCT033 BKN043 21/15 A2990 RMK AO2 SLP093 T02120146 $,K1HW,2023-06-02T18:55:00Z,41.32,-102.83,21.2,14.6,130,9,,10.0,29.899607,1009.3,,TRUE,TRUE,TRUE,,,,,,SCT,3300,BKN,4300,,,,,VFR,,,,,,,,,,,,METAR,1265.0
K1FW 021855Z AUTO 00000KT 10SM SCT036 BKN046 20/13 A2992 RMK AO2 SLP090 T02030130 $,K1FW,2023-06-02T18:55:00Z,41.37,-103.48,20.3,13.0,0,0,,10.0,29.920275,1009.0,,TRUE,TRUE,TRUE,,,,,,SCT,3600,BKN,4600,,,,,VFR,,,,,,,,,,,,METAR,1451.0
K1EW 021855Z AUTO 13006KT 10SM FEW046 SCT060 19/09 A2994 RMK AO2 SLP096 T01900092 $,K1EW,2023-06-02T18:55:00Z,41.12,-103.98,19.0,9.2,130,6,,10.0,29.940945,1009.6,,TRUE,TRUE,TRUE,,,,,,FEW,4600,SCT,6000,,,,,VFR,,,,,,,,,,,,METAR,1609.0
K1EN 021855Z AUTO 15015G21KT 10SM SCT130 29/14 A2971 RMK AO2 LTG DSNT SW SLP059 T02910137 $,K1EN,2023-06-02T18:55:00Z,,,29.1,13.7,150,15,21,10.0,29.71063,1005.9,,TRUE,TRUE,TRUE,,,,,,SCT,13000,,,,,,,VFR,,,,,,,,,,,,METAR,
K1DW 021855Z AUTO 10008KT 10SM FEW044 FEW055 21/11 A2995 RMK AO2 LTG DSNT NW SLP101 T02080109 $,K1DW,2023-06-02T18:55:00Z,41.37,-103.8,20.8,10.9,100,8,,10.0,29.949802,1010.1,,TRUE,TRUE,TRUE,,,,,,FEW,4400,FEW,5500,,,,,VFR,,,,,,,,,,,,METAR,1539.0
K1DN 021855Z AUTO 13015G23KT 10SM BKN110 28/13 A2847 RMK AO2 SLP628 T02800127 $,K1DN,2023-06-02T18:55:00Z,,,28.0,12.7,130,15,23,10.0,28.470472,962.8,,TRUE,TRUE,TRUE,,,,,,BKN,11000,,,,,,,VFR,,,,,,,,,,,,METAR,
K1CW 021855Z AUTO 08010KT 10SM SCT029 BKN036 20/13 A2993 RMK AO2 LTG DSNT NW SLP099 T02030128 $,K1CW,2023-06-02T18:55:00Z,41.58,-103.57,20.3,12.8,80,10,,10.0,29.929134,1009.9,,TRUE,TRUE,TRUE,,,,,,SCT,2900,BKN,3600,,,,,VFR,,,,,,,,,,,,METAR,1370.0
K1CN 021855Z AUTO 15014KT 10SM SCT060 30/15 A2991 RMK AO2 SLP120 T02990148 $,K1CN,2023-06-02T18:55:00Z,,,29.9,14.8,150,14,,10.0,29.911417,1012.0,,TRUE,TRUE,TRUE,,,,,,SCT,6000,,,,,,,VFR,,,,,,,,,,,,METAR,
K1BW 021855Z AUTO 00000KT 10SM BKN040 BKN049 18/09 A2999 RMK AO2 SLP113 T01840092 $,K1BW,2023-06-02T18:55:00Z,41.52,-104.0,18.4,9.2,0,0,,10.0,29.991142,1011.3,,TRUE,TRUE,TRUE,,,,,,BKN,4000,BKN,4900,,,,,VFR,,,,,,,,,,,,METAR,1606.0
K1BN 021855Z AUTO 16009G16KT 10SM FEW065 FEW090 29/16 A2991 RMK AO2 SLP121 T02890157 $,K1BN,2023-06-02T18:55:00Z,,,28.9,15.7,160,9,16,10.0,29.911417,1012.1,,TRUE,TRUE,TRUE,,,,,,FEW,6500,FEW,9000,,,,,VFR,,,,,,,,,,,,METAR,
ETOU 021855Z AUTO 01007KT 9999 CLR 18/18 A3005 RMK AO2 SLP178 T01840182,ETOU,2023-06-02T18:55:00Z,50.03,8.32,18.4,18.2,10,7,,6.21,30.050198,1017.8,,TRUE,TRUE,,,,,,,CLR,,,,,,,,VFR,,,,,,,,,,,,METAR,141.0
ETIK 021855Z 03009KT 9999 CLR 16/06 A3003 RMK AO2A SLP171 T01590055,ETIK,2023-06-02T18:55:00Z,49.47,10.38,15.9,5.5,30,9,,6.21,30.029528,1017.1,,,TRUE,,,,,,,CLR,,,,,,,,VFR,,,,,,,,,,,,METAR,326.0
ETIH 021855Z AUTO 05006KT 9999 CLR 18/07 A3003 RMK AO2 SLP168 T01770074,ETIH,2023-06-02T18:55:00Z,49.22,11.83,17.7,7.4,50,6,,6.21,30.029528,1016.8,,TRUE,TRUE,,,,,,,CLR,,,,,,,,VFR,,,,,,,,,,,,METAR,436.0
ETIC 021855Z AUTO 00000KT 9999 CLR 17/06 A3003 RMK AO2 SLP170 T01660061 $,ETIC,2023-06-02T18:55:00Z,49.7,11.93,16.6,6.1,0,0,,6.21,30.029528,1017.0,,TRUE,TRUE,TRUE,,,,,,CLR,,,,,,,,VFR,,,,,,,,,,,,METAR,414.0
ETEB 021855Z AUTO 01009KT 9999 CLR 17/05 A3002 RMK AO2 SLP178 T01670053 $,ETEB,2023-06-02T18:55:00Z,49.32,10.63,16.7,5.3,10,9,,6.21,30.02067,1017.8,,TRUE,TRUE,TRUE,,,,,,CLR,,,,,,,,VFR,,,,,,,,,,,,METAR,466.0
BGTL 021855Z AUTO 17018KT 9999 CLR 00/M10 A3011 RMK AO2 SLP182 T00001100 TSNO $,BGTL,2023-06-02T18:55:00Z,76.53,-68.75,0.0,-10.0,170,18,,6.21,30.109253,1018.2,,TRUE,TRUE,TRUE,,TRUE,,,,CLR,,,,,,,,VFR,,,,,,,,,,,,SPECI,79.0
KIZG 021854Z AUTO 10SM TS SCT080 BKN100 29/14 A2987 RMK AO2 LTG DSNT ALQDS TSB19E32E34 SLP114 T02890139,KIZG,2023-06-02T18:54:00Z,43.98,-70.95,28.9,13.9,,,,10.0,29.870079,1011.4,,TRUE,TRUE,,,,,,TS,SCT,8000,BKN,10000,,,,,VFR,,,,,,,,,,,,METAR,138.0
PTKK 021853Z VRB04KT 15SM FEW014 BKN280 28/25 A2982 RMK SLP100 T02790251,PTKK,2023-06-02T18:53:00Z,7.47,151.85,27.9,25.1,0,4,,15.0,29.819881,1010.0,,,,,,,,,,FEW,1400,BKN,28000,,,,,VFR,,,,,,,,,,,,METAR,3.0
PALJ 021853Z 25008KT 10SM BKN025 BKN040 OVC060 06/05 A2994 RMK EST PASS CLSD NOSPECI,PALJ,2023-06-02T18:53:00Z,60.2,-154.3,6.0,5.0,250,8,,10.0,29.940945,,,,,,,,,,,BKN,2500,BKN,4000,OVC,6000,,,MVFR,,,,,,,,,,,,METAR,88.0
PACD 021853Z 15021G29KT 10SM CLR 08/03 A2984 RMK PK WND 14032/1811,PACD,2023-06-02T18:53:00Z,55.22,-162.72,8.0,3.0,150,21,29,10.0,29.840551,,,,,,,,,,,CLR,,,,,,,,VFR,,,,,,,,,,,,METAR,23.0
KNQX 021853Z 18005KT 9SM SCT025 SCT090 BKN250 30/24 A2973 RMK AO2 SLP064 CB DSNT NE T2 SET T03000239 $,KNQX,2023-06-02T18:53:00Z,24.57,-81.67,30.0,23.9,180,5,,9.0,29.731298,1006.4,,,TRUE,TRUE,,,,,,SCT,2500,SCT,9000,BKN,25000,,,VFR,,,,,,,,,,,,METAR,2.0
KDUJ 021853Z AUTO A3001 RMK AO2 SLPNO PWINO $,KDUJ,2023-06-02T18:53:00Z,41.17,-78.9,,,,,,,30.008858,,,TRUE,TRUE,TRUE,,,,TRUE,,,,,,,,,,,,,,,,,,,,,,METAR,552.0
KSQL 021852Z 02008KT 10SM CLR 17/11 A3001,KSQL,2023-06-02T18:52:00Z,37.52,-122.25,17.0,11.0,20,8,,10.0,30.008858,,,,,,,,,,,CLR,,,,,,,,VFR,,,,,,,,,,,,METAR,1.0
PAPT 021850Z 22003KT 25SM FEW010 BKN065 07/04 A2978 RMK NO SPECI,PAPT,2023-06-02T18:50:00Z,62.1,-152.72,7.0,4.0,220,3,,25.0,29.778543,,,,,,,,,,,FEW,1000,BKN,6500,,,,,VFR,,,,,,,,,,,,METAR,577.0
OOSA 021850Z 18004KT CAVOK 30/26 Q1011 NOSIG,OOSA,2023-06-02T18:50:00Z,17.03,54.1,30.0,26.0,180,4,,6.21,29.852362,,,,,,TRUE,,,,,CAVOK,,,,,,,,VFR,,,,,,,,,,,,METAR,20.0
OOMS 021850Z VRB02KT CAVOK 34/21 Q1004 NOSIG,OOMS,2023-06-02T18:50:00Z,23.58,58.28,34.0,21.0,0,2,,6.21,29.64567,,,,,,TRUE,,,,,CAVOK,,,,,,,,VFR,,,,,,,,,,,,METAR,8.0
OOKB 021850Z AUTO 01008KT CAVOK ////// 33/24 Q1004 NOSIG,OOKB,2023-06-02T18:50:00Z,26.17,56.23,33.0,24.0,10,8,,6.21,29.64567,,,TRUE,,,TRUE,,,,,CAVOK,,,,,,,,VFR,,,,,,,,,,,,METAR,30.0
OODQ 021850Z AUTO 21022KT CAVOK ////// 28/26 Q1009 NOSIG RMK RH85? 0,OODQ,2023-06-02T18:50:00Z,19.52,57.65,28.0,26.0,210,22,,6.21,29.793306,,,TRUE,,,TRUE,,,,,CAVOK,,,,,,,,VFR,,,,,,,,,,,,METAR,116.0
OOAD 021850Z AUTO 32012KT 9000 // SCT023 35/05 Q1009 NOSIG,OOAD,2023-06-02T18:50:00Z,22.5,57.37,35.0,5.0,320,12,,5.59,29.793306,,,TRUE,,,TRUE,,,,,SCT,2300,,,,,,,VFR,,,,,,,,,,,,METAR,327.0
MUSC 021850Z 30011KT 9000 BKN020CB 26/22 Q1007,MUSC,2023-06-02T18:50:00Z,22.5,-79.92,26.0,22.0,300,11,,5.59,29.734253,,,,,,,,,,,BKN,2000,,,,,,,MVFR,,,,,,,,,,,,METAR,97.0
MUHA 021850Z 25004KT 190V300 9000 FEW020CB SCT070 26/24 Q1007,MUHA,2023-06-02T18:50:00Z,22.98,-82.42,26.0,24.0,250,4,,5.59,29.734253,,,,,,,,,,,FEW,2000,SCT,7000,,,,,VFR,,,,,,,,,,,,METAR,61.0
MUCM 021850Z 13005KT 090V150 9000 FEW020 BKN080 24/23 Q1008,MUCM,2023-06-02T18:50:00Z,21.42,-77.85,24.0,23.0,130,5,,5.59,29.763779,,,,,,,,,,,FEW,2000,BKN,8000,,,,,VFR,,,,,,,,,,,,METAR,125.0
MUCL 021850Z 23008KT 190V260 9999 FEW030 30/23 Q1007,MUCL,2023-06-02T18:50:00Z,21.63,-81.55,30.0,23.0,230,8,,6.21,29.734253,,,,,,,,,,,FEW,3000,,,,,,,VFR,,,,,,,,,,,,METAR,5.0
MUCF 021850Z 22012KT 180V240 9000 VCSH SCT025 31/24 Q1007,MUCF,2023-06-02T18:50:00Z,22.15,-80.4,31.0,24.0,220,12,,5.59,29.734253,,,,,,,,,,VCSH,SCT,2500,,,,,,,VFR,,,,,,,,,,,,METAR,35.0
MUCC 021850Z VRB03KT 9000 SCT018CB 28/23 Q1006,MUCC,2023-06-02T18:50:00Z,22.47,-78.33,28.0,23.0,0,3,,5.59,29.704725,,,,,,,,,,,SCT,1800,,,,,,,VFR,,,,,,,,,,,,METAR,7.0
MSSS 021850Z 19007KT 5000 HZ BKN027 FEW040CB 29/24 Q1012 A2991,MSSS,2023-06-02T18:50:00Z,13.7,-89.12,29.0,24.0,190,7,,3.11,29.88189,,,,,,,,,,HZ,BKN,2700,FEW,4000,,,,,MVFR,,,,,,,,,,,,SPECI,611.0
MSSM 021850Z 14004KT 9999 SCT030 33/26 Q1007 A2976,MSSM,2023-06-02T18:50:00Z,13.43,-88.12,33.0,26.0,140,4,,6.21,29.734253,,,,,,,,,,,SCT,3000,,,,,,,VFR,,,,,,,,,,,,SPECI,92.0
MSSA 021850Z 00000KT 9999 BKN030 31/22 Q1014 A2997,MSSA,2023-06-02T18:50:00Z,13.97,-89.53,31.0,22.0,0,0,,6.21,29.940945,,,,,,,,,,,BKN,3000,,,,,,,MVFR,,,,,,,,,,,,SPECI,656.0
MSLU 021850Z 14006KT 9999 SCT030 32/26 Q1007 A2975,MSLU,2023-06-02T18:50:00Z,13.33,-87.88,32.0,26.0,140,6,,6.21,29.734253,,,,,,,,,,,SCT,3000,,,,,,,VFR,,,,,,,,,,,,SPECI,5.0
MSAC 021850Z 25003KT 9999 FEW030 31/26 Q1007 A2975,MSAC,2023-06-02T18:50:00Z,13.57,-89.83,31.0,26.0,250,3,,6.21,29.734253,,,,,,,,,,,FEW,3000,,,,,,,VFR,,,,,,,,,,,,SPECI,14.0
MMVR 021850Z 09008KT 5SM BKN015 OVC070 29/25 A2982 RMK 8/46/ HZY DSNT PCPN S,MMVR,2023-06-02T18:50:00Z,19.15,-96.18,29.0,25.0,90,8,,5.0,29.819881,,,,,,,,,,,BKN,1500,OVC,7000,,,,,MVFR,,,,,,,,,,,,METAR,26.0
MMTM 021850Z E11006KT 10SM SCT015 31/24 A2984 RMK 8/100,MMTM,2023-06-02T18:50:00Z,22.28,-97.87,31.0,24.0,110,6,,10.0,29.840551,,,,,,,,,,,SCT,1500,,,,,,,VFR,,,,,,,,,,,,METAR,21.0
MMPG 021850Z 13010KT 8SM BKN020 30/23 A2987 RMK 8/500 HZY,MMPG,2023-06-02T18:50:00Z,28.62,-100.53,30.0,23.0,130,10,,8.0,29.870079,,,,,,,,,,,BKN,2000,,,,,,,MVFR,,,,,,,,,,,,METAR,224.0
LTFO 021850Z 12005KT 9999 SCT015 BKN033 20/17 Q1014 RESHRA,LTFO,2023-06-02T18:50:00Z,41.18,40.85,20.0,17.0,120,5,,6.21,29.940945,,,,,,,,,,,SCT,1500,BKN,3300,,,,,VFR,,,,,,,,,,,,METAR,5.0
LTFH 021850Z 10003KT 9999 SCT011 SCT030 BKN100 19/18 Q1013 NOSIG,LTFH,2023-06-02T18:50:00Z,41.27,36.57,19.0,18.0,100,3,,6.21,29.911417,,,,,,TRUE,,,,,SCT,1100,SCT,3000,BKN,10000,,,VFR,,,,,,,,,,,,METAR,7.0
LTFG 021850Z 11004KT CAVOK 20/19 Q1008,LTFG,2023-06-02T18:50:00Z,36.3,32.3,20.0,19.0,110,4,,6.21,29.763779,,,,,,,,,,,CAVOK,,,,,,,,VFR,,,,,,,,,,,,METAR,26.0
LTFD 021850Z 15003KT 7000 SCT030 BKN100 19/18 Q1011 RETSRA,LTFD,2023-06-02T18:50:00Z,39.55,27.02,19.0,18.0,150,3,,4.35,29.852362,,,,,,,,,,,SCT,3000,BKN,10000,,,,,MVFR,,,,,,,,,,,,METAR,15.0
LTDA 021850Z VRB02KT CAVOK 26/13 Q1009 NOSIG,LTDA,2023-06-02T18:50:00Z,36.37,36.28,26.0,13.0,0,2,,6.21,29.793306,,,,,,TRUE,,,,,CAVOK,,,,,,,,VFR,,,,,,,,,,,,METAR,80.0
LTCW 021850Z 07006KT 9999 FEW040 SCT100 12/07 Q1024,LTCW,2023-06-02T18:50:00Z,37.55,44.23,12.0,7.0,70,6,,6.21,30.236221,,,,,,,,,,,FEW,4000,SCT,10000,,,,,VFR,,,,,,,,,,,,METAR,1852.0
LTCV 021850Z 25006KT CAVOK 21/10 Q1017,LTCV,2023-06-02T18:50:00Z,37.37,42.07,21.0,10.0,250,6,,6.21,30.029528,,,,,,,,,,,CAVOK,,,,,,,,VFR,,,,,,,,,,,,METAR,620.0
LTCT 021850Z 28010KT 9999 FEW040 BKN150 23/07 Q1017,LTCT,2023-06-02T18:50:00Z,39.98,43.87,23.0,7.0,280,10,,6.21,30.029528,,,,,,,,,,,FEW,4000,BKN,15000,,,,,VFR,,,,,,,,,,,,METAR,936.0
LTCN 021850Z VRB02KT 9999 FEW040 23/13 Q1014,LTCN,2023-06-02T18:50:00Z,37.53,36.95,23.0,13.0,0,2,,6.21,29.940945,,,,,,,,,,,FEW,4000,,,,,,,VFR,,,,,,,,,,,,METAR,505.0
LTCI 021850Z VRB01KT 9999 FEW040 14/08 Q1025 NOSIG,LTCI,2023-06-02T18:50:00Z,38.47,43.33,14.0,8.0,0,1,,6.21,30.265747,,,,,,TRUE,,,,,FEW,4000,,,,,,,VFR,,,,,,,,,,,,METAR,1654.0
LTCF 021850Z 23006KT 200V260 9999 SCT035 BKN070 12/08 Q1022 NOSIG,LTCF,2023-06-02T18:50:00Z,40.57,43.12,12.0,8.0,230,6,,6.21,30.177166,,,,,,TRUE,,,,,SCT,3500,BKN,7000,,,,,VFR,,,,,,,,,,,,METAR,1794.0
LTCD 021850Z 15006KT 120V180 9999 FEW040CB SCT045 BKN090 16/10 Q1019 NOSIG,LTCD,2023-06-02T18:50:00Z,39.72,39.52,16.0,10.0,150,6,,6.21,30.088583,,,,,,TRUE,,,,,FEW,4000,SCT,4500,BKN,9000,,,VFR,,,,,,,,,,,,METAR,1146.0
LTCB 021850Z 10004KT 360V170 8000 VCTS SCT007 FEW020CB BKN028 19/18 Q1014 TEMPO -TSRA,LTCB,2023-06-02T18:50:00Z,40.97,38.07,19.0,18.0,100,4,,4.97,29.940945,,,,,,,,,,VCTS,SCT,700,FEW,2000,BKN,2800,,,MVFR,,,,,,,,,,,,METAR,5.0
LTCA 021850Z VRB02KT CAVOK 19/12 Q1017 NOSIG,LTCA,2023-06-02T18:50:00Z,38.6,39.28,19.0,12.0,0,2,,6.21,30.029528,,,,,,TRUE,,,,,CAVOK,,,,,,,,VFR,,,,,,,,,,,,METAR,887.0
LTBY 021850Z VRB02KT 9999 SCT035 15/15 Q1013,LTBY,2023-06-02T18:50:00Z,39.82,30.52,15.0,15.0,0,2,,6.21,29.911417,,,,,,,,,,,SCT,3500,,,,,,,VFR,,,,,,,,,,,,METAR,788.0
LTBQ 021850Z VRB01KT 8000 SCT040 BKN100 17/14 Q1011 NOSIG,LTBQ,2023-06-02T18:50:00Z,40.73,30.07,17.0,14.0,0,1,,4.97,29.852362,,,,,,TRUE,,,,,SCT,4000,BKN,10000,,,,,MVFR,,,,,,,,,,,,METAR,51.0
LTBH 021850Z 26006KT 230V300 9999 SCT035 BKN200 21/16 Q1011,LTBH,2023-06-02T18:50:00Z,40.13,26.42,21.0,16.0,260,6,,6.21,29.852362,,,,,,,,,,,SCT,3500,BKN,20000,,,,,VFR,,,,,,,,,,,,METAR,8.0
LTBF 021850Z VRB01KT 9999 SCT035 BKN100 18/18 Q1011 RESHRA NOSIG,LTBF,2023-06-02T18:50:00Z,39.62,27.92,18.0,18.0,0,1,,6.21,29.852362,,,,,,TRUE,,,,,SCT,3500,BKN,10000,,,,,VFR,,,,,,,,,,,,METAR,95.0
LTBD 021850Z 21006KT 7000 FEW015 SCT030 BKN080 19/18 Q1009 RESHRA,LTBD,2023-06-02T18:50:00Z,37.82,27.88,19.0,18.0,210,6,,4.35,29.793306,,,,,,,,,,,FEW,1500,SCT,3000,BKN,8000,,,MVFR,,,,,,,,,,,,METAR,29.0
LTAY 021850Z 28005KT 250V310 9999 BKN035 BKN100 16/16 Q1012 NOSIG,LTAY,2023-06-02T18:50:00Z,37.78,29.7,16.0,16.0,280,5,,6.21,29.88189,,,,,,TRUE,,,,,BKN,3500,BKN,10000,,,,,VFR,,,,,,,,,,,,METAR,851.0
LTAR 021850Z VRB02KT 9999 SCT030 SCT090 13/10 Q1020,LTAR,2023-06-02T18:50:00Z,39.8,36.9,13.0,10.0,0,2,,6.21,30.11811,,,,,,,,,,,SCT,3000,SCT,9000,,,,,VFR,,,,,,,,,,,,METAR,1601.0
LTAN 021850Z VRB01KT 9999 FEW040 16/13 Q1014 NOSIG,LTAN,2023-06-02T18:50:00Z,37.97,32.55,16.0,13.0,0,1,,6.21,29.940945,,,,,,TRUE,,,,,FEW,4000,,,,,,,VFR,,,,,,,,,,,,METAR,1029.0
LTAE 021850Z 34004KT 320V020 9999 SCT040 SCT100 17/14 Q1014 NOSIG RMK RWY21 35004KT,LTAE,2023-06-02T18:50:00Z,40.07,32.57,17.0,14.0,340,4,,6.21,29.940945,,,,,,TRUE,,,,,SCT,4000,SCT,10000,,,,,VFR,,,,,,,,,,,,METAR,836.0
LIMP 021850Z VRB02KT 9999 FEW060 22/16 Q1011,LIMP,2023-06-02T18:50:00Z,44.82,10.3,22.0,16.0,0,2,,6.21,29.852362,,,,,,,,,,,FEW,6000,,,,,,,VFR,,,,,,,,,,,,METAR,41.0
LIBF 021850Z 23006KT 9999 VCSH FEW035 19/16 Q1013,LIBF,2023-06-02T18:50:00Z,41.42,15.53,19.0,16.0,230,6,,6.21,29.911417,,,,,,,,,,VCSH,FEW,3500,,,,,,,VFR,,,,,,,,,,,,METAR,81.0
KJWN 021850Z 04009G14KT 10SM CLR 31/15 A2992,KJWN,2023-06-02T18:50:00Z,36.18,-86.88,31.0,15.0,40,9,14,10.0,29.920275,,,,,,,,,,,CLR,,,,,,,,VFR,,,,,,,,,,,,METAR,149.0
KAEG 021850Z AUTO 25017G23KT 10SM BKN 120 24/M03 A3004 RMK LTG DSNT E,KAEG,2023-06-02T18:50:00Z,35.13,-106.8,24.0,-3.0,250,17,23,10.0,30.041338,,,TRUE,,,,,,,,BKN,12000,,,,,,,VFR,,,,,,,,,,,,METAR,1771.0
EGYP 021850Z 02025KT 9999 7000NW BR BKN003 05/04 Q0999,EGYP,2023-06-02T18:50:00Z,-51.82,-58.45,5.0,4.0,20,25,,6.21,29.498032,,,,,,,,,,BR,BKN,300,,,,,,,LIFR,,,,,,,,,,,,METAR,70.0
EGXC 021850Z 04010KT 9999 SCT025 12/06 Q1026 RMK BLU,EGXC,2023-06-02T18:50:00Z,53.1,-0.17,12.0,6.0,40,10,,6.21,30.295275,,,,,,,,,,,SCT,2500,,,,,,,VFR,,,,,,,,,,,,METAR,9.0
EGKA 021850Z 06013KT CAVOK 14/07 Q1022,EGKA,2023-06-02T18:50:00Z,50.83,-0.3,14.0,7.0,60,13,,6.21,30.177166,,,,,,,,,,,CAVOK,,,,,,,,VFR,,,,,,,,,,,,METAR,2.0
EGAC 021850Z AUTO 04007KT 9999 -RA NCD 16/08 Q1026,EGAC,2023-06-02T18:50:00Z,54.62,-5.87,16.0,8.0,40,7,,6.21,30.295275,,,TRUE,,,,,,,-RA,CLR,,,,,,,,VFR,,,,,,,,,,,,METAR,2.0
MMEP 021847Z 33012KT 12SM SKC 32/12 A2998,MMEP,2023-06-02T18:47:00Z,21.42,-104.85,32.0,12.0,330,12,,12.0,29.97933,,,,,,,,,,,SKC,,,,,,,,VFR,,,,,,,,,,,,METAR,921.0
KPOC 021847Z 23005KT 6SM HZ OVC031 19/11 A3000,KPOC,2023-06-02T18:47:00Z,34.1,-117.77,19.0,11.0,230,5,,6.0,30.0,,,,,,,,,,HZ,OVC,3100,,,,,,,VFR,,,,,,,,,,,,METAR,304.0
MMTO 021846Z 31003KT 5SM SCT020 25/07 A3033 RMK 8/100 HZY,MMTO,2023-06-02T18:46:00Z,19.35,-99.57,25.0,7.0,310,3,,5.0,30.33071,,,,,,,,,,,SCT,2000,,,,,,,MVFR,,,,,,,,,,,,METAR,2582.0
MMSM 021846Z 32008KT 280V360 8SM FEW025 28/04 A3023 RMK 8/100 HZY,MMSM,2023-06-02T18:46:00Z,19.75,-99.02,28.0,4.0,320,8,,8.0,30.230314,,,,,,,,,,,FEW,2500,,,,,,,VFR,,,,,,,,,,,,METAR,2250.0
MMQT 021846Z 28005KT 7SM FEW030 30/05 A3019 RMK 8/100,MMQT,2023-06-02T18:46:00Z,20.62,-100.18,30.0,5.0,280,5,,7.0,30.188976,,,,,,,,,,,FEW,3000,,,,,,,VFR,,,,,,,,,,,,METAR,1909.0
PAKU 021845Z 07014KT 10SM R06/P6000FT BR OVC010 M02/M03 A2969,PAKU,2023-06-02T18:45:00Z,70.32,-149.6,-2.0,-3.0,70,14,,10.0,29.68996,,,,,,,,,,BR,OVC,1000,,,,,,,MVFR,,,,,,,,,,,,METAR,23.0
MMZH 021845Z 29007KT 7SM SKC 32/24 A2981 RMK HZY ISOL SC,MMZH,2023-06-02T18:45:00Z,17.6,-101.47,32.0,24.0,290,7,,7.0,29.811024,,,,,,,,,,,SKC,,,,,,,,VFR,,,,,,,,,,,,METAR,9.0
MMSD 021845Z 15012KT 10SM SCT250 28/19 A2987 RMK 8/008 SC/AC,MMSD,2023-06-02T18:45:00Z,23.15,-109.72,28.0,19.0,150,12,,10.0,29.870079,,,,,,,,,,,SCT,25000,,,,,,,VFR,,,,,,,,,,,,METAR,107.0
MMPS 021845Z 23008KT 10SM SKC 33/24 A2981 RMK HZY,MMPS,2023-06-02T18:45:00Z,15.87,-97.08,33.0,24.0,230,8,,10.0,29.811024,,,,,,,,,,,SKC,,,,,,,,VFR,,,,,,,,,,,,METAR,65.0
MMPA 021845Z 16004KT 5SM BKN020TCU OVC070 31/25 A2982 RMK 8/27/ HZY,MMPA,2023-06-02T18:45:00Z,20.6,-97.47,31.0,25.0,160,4,,5.0,29.819881,,,,,,,,,,,BKN,2000,OVC,7000,,,,,MVFR,,,,,,,,,,,,SPECI,153.0
MMMX 021845Z 07007KT 5SM SCT025 29/07 A3024 NOSIG RMK 8/100 HZY,MMMX,2023-06-02T18:45:00Z,19.43,-99.08,29.0,7.0,70,7,,5.0,30.239174,,,,,,TRUE,,,,,SCT,2500,,,,,,,MVFR,,,,,,,,,,,,METAR,2224.0
KSWF 021845Z 06007G17KT 10SM SKC 34/12 A2986,KSWF,2023-06-02T18:45:00Z,41.5,-74.08,34.0,12.0,60,7,17,10.0,29.861221,,,,,,,,,,,SKC,,,,,,,,VFR,,,,,,,,,,,,METAR,139.0
KGYY 021845Z 00000KT 10SM CLR 27/16 A3007,KGYY,2023-06-02T18:45:00Z,41.62,-87.42,27.0,16.0,0,0,,10.0,30.070866,,,,,,,,,,,CLR,,,,,,,,VFR,,,,,,,,,,,,METAR,179.0
MMTJ 021844Z 28007KT 8SM BKN035 19/13 A3002 RMK 8/500 HZY,MMTJ,2023-06-02T18:44:00Z,32.53,-116.97,19.0,13.0,280,7,,8.0,30.02067,,,,,,,,,,,BKN,3500,,,,,,,VFR,,,,,,,,,,,,METAR,150.0
MMSP 021844Z 18004KT 8SM SKC 29/05 A3012 RMK HZY ISOL CU,MMSP,2023-06-02T18:44:00Z,22.25,-100.93,29.0,5.0,180,4,,8.0,30.121063,,,,,,,,,,,SKC,,,,,,,,VFR,,,,,,,,,,,,METAR,1841.0
MMRX 021844Z 13010KT 7SM SCT015 32/20 A2984 RMK 8/100 HZY,MMRX,2023-06-02T18:44:00Z,26.02,-98.22,32.0,20.0,130,10,,7.0,29.840551,,,,,,,,,,,SCT,1500,,,,,,,VFR,,,,,,,,,,,,SPECI,45.0
MMPR 021844Z 25014KT 8SM FEW025 28/22 A2984 RMK 8/100 HZY,MMPR,2023-06-02T18:44:00Z,20.67,-105.25,28.0,22.0,250,14,,8.0,29.840551,,,,,,,,,,,FEW,2500,,,,,,,VFR,,,,,,,,,,,,SPECI,6.0
MMCB 021844Z 16006KT 5SM FEW025 31/16 A3000 RMK 8/100 HZY,MMCB,2023-06-02T18:44:00Z,18.83,-99.27,31.0,16.0,160,6,,5.0,30.0,,,,,,,,,,,FEW,2500,,,,,,,MVFR,,,,,,,,,,,,METAR,1281.0
MMAA 021844Z 22010KT 7SM SKC 32/24 A2978 RMK HZY,MMAA,2023-06-02T18:44:00Z,16.75,-99.75,32.0,24.0,220,10,,7.0,29.778543,,,,,,,,,,,SKC,,,,,,,,VFR,,,,,,,,,,,,METAR,5.0
