raw_text,station_id,observation_time,latitude,longitude,temp_c,dewpoint_c,wind_dir_degrees,wind_speed_kt,wind_gust_kt,visibility_statute_mi,altim_in_hg,sea_level_pressure_mb,corrected,auto,auto_station,maintenance_indicator_on,no_signal,lightning_sensor_off,freezing_rain_sensor_off,present_weather_sensor_off,wx_string,sky_cover,cloud_base_ft_agl,sky_cover,cloud_base_ft_agl,sky_cover,cloud_base_ft_agl,sky_cover,cloud_base_ft_agl,flight_category,three_hr_pressure_tendency_mb,maxT_c,minT_c,maxT24hr_c,minT24hr_c,precip_in,pcp3hr_in,pcp6hr_in,pcp24hr_in,snow_in,vert_vis_ft,metar_type,elevation_m
PKWA 270120Z AUTO 09012KT 10SM CLR 30/22 A2984 RMK AO2 T03030224 TSNO,PKWA,2023-05-27T01:20:00Z,8.72,167.72,30.3,22.4,90,12,,10.0,29.840551,,,TRUE,TRUE,,,TRUE,,,,CLR,,,,,,,,VFR,,,,,,,,,,,,METAR,6.0
LLBG 270120Z VRB01KT CAVOK 24/08 Q1004 NOSIG,LLBG,2023-05-27T01:20:00Z,32.0,34.88,24.0,8.0,0,1,,6.21,29.64567,,,,,,TRUE,,,,,CAVOK,,,,,,,,VFR,,,,,,,,,,,,METAR,35.0
LATI 270120Z 16004KT CAVOK 13/13 Q1012 NOSIG,LATI,2023-05-27T01:20:00Z,41.42,19.72,13.0,13.0,160,4,,6.21,29.88189,,,,,,TRUE,,,,,CAVOK,,,,,,,,VFR,,,,,,,,,,,,METAR,32.0
KQFX 270120Z AUTO 26001KT 9999 BKN036 BKN085 20/15 A3010 RMK A02 TSNO,KQFX,2023-05-27T01:20:00Z,,,20.0,15.0,260,1,,6.21,30.100393,,,TRUE,TRUE,,,TRUE,,,,BKN,3600,BKN,8500,,,,,VFR,,,,,,,,,,,,METAR,
KQFV 270120Z AUTO 14002KT 9999 OVC110 19/14 A3014 RMK A02 TSNO,KQFV,2023-05-27T01:20:00Z,,,19.0,14.0,140,2,,6.21,30.138779,,,TRUE,TRUE,,,TRUE,,,,OVC,11000,,,,,,,VFR,,,,,,,,,,,,METAR,
KQFU 270120Z AUTO 20002KT 9999 BKN035 OVC047 20/15 A3014 RMK A02 TSNO,KQFU,2023-05-27T01:20:00Z,,,20.0,15.0,200,2,,6.21,30.138779,,,TRUE,TRUE,,,TRUE,,,,BKN,3500,OVC,4700,,,,,VFR,,,,,,,,,,,,METAR,
KQFT 270120Z AUTO 34001KT 9999 BKN038 BKN095 19/15 A3010 RMK A02 TSNO,KQFT,2023-05-27T01:20:00Z,,,19.0,15.0,340,1,,6.21,30.100393,,,TRUE,TRUE,,,TRUE,,,,BKN,3800,BKN,9500,,,,,VFR,,,,,,,,,,,,METAR,
KQFB 270120Z AUTO 13003KT 9999 BKN023 22/18 A3018 RMK A02 TSNO,KQFB,2023-05-27T01:20:00Z,,,22.0,18.0,130,3,,6.21,30.180119,,,TRUE,TRUE,,,TRUE,,,,BKN,2300,,,,,,,MVFR,,,,,,,,,,,,METAR,
KQEX 270120Z AUTO 18007G13KT 9999 CLR 23/15 / RMK A02 TSNO,KQEX,2023-05-27T01:20:00Z,,,23.0,15.0,180,7,13,6.21,,,,TRUE,TRUE,,,TRUE,,,,CLR,,,,,,,,VFR,,,,,,,,,,,,METAR,
KQEW 270120Z AUTO 34002KT 9999 OVC050 21/16 A3010 RMK A02 TSNO,KQEW,2023-05-27T01:20:00Z,,,21.0,16.0,340,2,,6.21,30.100393,,,TRUE,TRUE,,,TRUE,,,,OVC,5000,,,,,,,VFR,,,,,,,,,,,,METAR,
KQEV 270120Z AUTO 09002KT 6000 OVC048 20/18 A3007 RMK A02 TSNO,KQEV,2023-05-27T01:20:00Z,,,20.0,18.0,90,2,,3.73,30.070866,,,TRUE,TRUE,,,TRUE,,,,OVC,4800,,,,,,,MVFR,,,,,,,,,,,,METAR,
KQEQ 270120Z AUTO 04001KT 9999 BKN034 OVC045 18/17 A3014 RMK A02 TSNO,KQEQ,2023-05-27T01:20:00Z,,,18.0,17.0,40,1,,6.21,30.138779,,,TRUE,TRUE,,,TRUE,,,,BKN,3400,OVC,4500,,,,,VFR,,,,,,,,,,,,METAR,
KQEP 270120Z AUTO 15002KT 3200 HZ BKN030 OVC075 20/16 A3012 RMK A02 TSNO,KQEP,2023-05-27T01:20:00Z,,,20.0,16.0,150,2,,1.99,30.121063,,,TRUE,TRUE,,,TRUE,,,HZ,BKN,3000,OVC,7500,,,,,IFR,,,,,,,,,,,,METAR,
KQEN 270120Z AUTO 24006G14KT 9999 FEW110 BKN140 18/13 A3016 RMK A02 TSNO,KQEN,2023-05-27T01:20:00Z,,,18.0,13.0,240,6,14,6.21,30.159449,,,TRUE,TRUE,,,TRUE,,,,FEW,11000,BKN,14000,,,,,VFR,,,,,,,,,,,,METAR,
KQEJ 270120Z AUTO 21003KT 9999 FEW036 BKN049 BKN140 21/13 A3009 RMK A02 TSNO,KQEJ,2023-05-27T01:20:00Z,,,21.0,13.0,210,3,,6.21,30.088583,,,TRUE,TRUE,,,TRUE,,,,FEW,3600,BKN,4900,BKN,14000,,,VFR,,,,,,,,,,,,METAR,
KQEI 270120Z AUTO 10001KT 9999 BKN038 BKN130 21/14 A3010 RMK A02 TSNO,KQEI,2023-05-27T01:20:00Z,,,21.0,14.0,100,1,,6.21,30.100393,,,TRUE,TRUE,,,TRUE,,,,BKN,3800,BKN,13000,,,,,VFR,,,,,,,,,,,,METAR,
KMTK 270120Z AUTO VRB04G14KT 10SM CLR 25/14 A2995 RMK A01,KMTK,2023-05-27T01:20:00Z,,,25.0,14.0,0,4,14,10.0,29.949802,,,TRUE,TRUE,,,,,,,CLR,,,,,,,,VFR,,,,,,,,,,,,METAR,
KIKT 270120Z AUTO 05013KT 10SM FEW032 FEW050 FEW080 25/17 A2994 RMK A01,KIKT,2023-05-27T01:20:00Z,28.52,-88.28,25.0,17.0,50,13,,10.0,29.940945,,,TRUE,TRUE,,,,,,,FEW,3200,FEW,5000,FEW,8000,,,VFR,,,,,,,,,,,,SPECI,36.0
KHRF 270120Z AUTO 31008KT 10SM FEW075 14/11 A2994 RMK AO2,KHRF,2023-05-27T01:20:00Z,46.25,-114.13,14.0,11.0,310,8,,10.0,29.940945,,,TRUE,TRUE,,,,,,,FEW,7500,,,,,,,VFR,,,,,,,,,,,,METAR,1112.0
KGVW 270120Z AUTO VRB04KT 10SM CLR 26/20 A2996 RMK A01,KGVW,2023-05-27T01:20:00Z,29.13,-94.55,26.0,20.0,0,4,,10.0,29.958662,,,TRUE,TRUE,,,,,,,CLR,,,,,,,,VFR,,,,,,,,,,,,METAR,37.0
KGUL 270120Z AUTO 06006KT 9SM FEW030 FEW036 26/20 A2995 RMK A01,KGUL,2023-05-27T01:20:00Z,27.3,-93.53,26.0,20.0,60,6,,9.0,29.949802,,,TRUE,TRUE,,,,,,,FEW,3000,FEW,3600,,,,,VFR,,,,,,,,,,,,SPECI,20.0
KDSF 270120Z AUTO 03018KT 10SM FEW034 SCT050 26/17 A2994 RMK A01,KDSF,2023-05-27T01:20:00Z,28.35,-88.27,26.0,17.0,30,18,,10.0,29.940945,,,TRUE,TRUE,,,,,,,FEW,3400,SCT,5000,,,,,VFR,,,,,,,,,,,,SPECI,40.0
KATP 270120Z AUTO 06014KT 9SM FEW044 26/17 A2994 RMK A01,KATP,2023-05-27T01:20:00Z,27.2,-90.03,26.0,17.0,60,14,,9.0,29.940945,,,TRUE,TRUE,,,,,,,FEW,4400,,,,,,,VFR,,,,,,,,,,,,METAR,50.0
EYKA 270120Z 36004KT 320V030 CAVOK 07/02 Q1024,EYKA,2023-05-27T01:20:00Z,54.97,24.08,7.0,2.0,360,4,,6.21,30.236221,,,,,,,,,,,CAVOK,,,,,,,,VFR,,,,,,,,,,,,METAR,68.0
EVVA 270120Z AUTO 00000KT CAVOK M00/M00 Q1026,EVVA,2023-05-27T01:20:00Z,57.35,21.55,0.0,0.0,0,0,,6.21,30.295275,,,TRUE,,,,,,,,CAVOK,,,,,,,,VFR,,,,,,,,,,,,METAR,1.0
EVRA 270120Z 34007KT CAVOK 09/01 Q1024 NOSIG,EVRA,2023-05-27T01:20:00Z,56.92,23.97,9.0,1.0,340,7,,6.21,30.236221,,,,,,TRUE,,,,,CAVOK,,,,,,,,VFR,,,,,,,,,,,,METAR,7.0
EVLA 270120Z AUTO 07002KT CAVOK 01/01 Q1027,EVLA,2023-05-27T01:20:00Z,56.52,21.1,1.0,1.0,70,2,,6.21,30.324802,,,TRUE,,,,,,,,CAVOK,,,,,,,,VFR,,,,,,,,,,,,METAR,5.0
EVGA 270120Z AUTO 32003KT CAVOK 05/02 Q1024,EVGA,2023-05-27T01:20:00Z,56.78,24.85,5.0,2.0,320,3,,6.21,30.236221,,,TRUE,,,,,,,,CAVOK,,,,,,,,VFR,,,,,,,,,,,,METAR,61.0
EKVG 270120Z AUTO VRB08G20KT 3800 DZRA BR OVC002/// 09/08 Q1012 RMK OVC005/// WIND SKEID VRB11G33KT,EKVG,2023-05-27T01:20:00Z,62.07,-7.27,9.0,8.0,0,8,20,2.36,29.88189,,,TRUE,,,,,,,DZ RA BR,OVC,200,,,,,,,LIFR,,,,,,,,,,,,METAR,89.0
EETU 270120Z AUTO 29007KT 9999 NCD 05/03 Q1022,EETU,2023-05-27T01:20:00Z,58.32,26.68,5.0,3.0,290,7,,6.21,30.177166,,,TRUE,,,,,,,,CLR,,,,,,,,VFR,,,,,,,,,,,,METAR,67.0
EETN 270120Z 30009KT CAVOK 09/02 Q1022,EETN,2023-05-27T01:20:00Z,59.4,24.82,9.0,2.0,300,9,,6.21,30.177166,,,,,,,,,,,CAVOK,,,,,,,,VFR,,,,,,,,,,,,METAR,41.0
EEPU 270120Z AUTO 29004KT 260V320 9999 NCD 05/02 Q1024,EEPU,2023-05-27T01:20:00Z,58.42,24.47,5.0,2.0,290,4,,6.21,30.236221,,,TRUE,,,,,,,,CLR,,,,,,,,VFR,,,,,,,,,,,,METAR,13.0
EEKE 270120Z AUTO 30004KT 270V340 9999NDV NCD 06/04 Q1025,EEKE,2023-05-27T01:20:00Z,58.23,22.52,6.0,4.0,300,4,,,30.265747,,,TRUE,,,,,,,,CLR,,,,,,,,,,,,,,,,,,,,METAR,4.0
CYZY 270120Z AUTO 27007KT 230V360 9SM -RA OVC091 21/05 A2982 RMK SLP099 DENSITY ALT 3600FT,CYZY,2023-05-27T01:20:00Z,55.3,-123.13,21.0,5.0,270,7,,9.0,29.819881,1009.9,,TRUE,,,,,,,-RA,OVC,9100,,,,,,,VFR,,,,,,,,,,,,SPECI,694.0
CYGW 270120Z AUTO 03004KT 360V060 3SM BR OVC004 M00/M01 A3014 RMK SLP209,CYGW,2023-05-27T01:20:00Z,55.27,-77.77,0.0,-1.0,30,4,,3.0,30.138779,1020.9,,TRUE,,,,,,,BR,OVC,400,,,,,,,LIFR,,,,,,,,,,,,SPECI,13.0
PAOU 270119Z AUTO 32006KT 2SM BR BKN003 OVC007 06/05 A2928 RMK AO2 RAE06 PNO $,PAOU,2023-05-27T01:19:00Z,56.0,-161.17,6.0,5.0,320,6,,2.0,29.279528,,,TRUE,TRUE,TRUE,,,,,BR,BKN,300,OVC,700,,,,,LIFR,,,,,,,,,,,,SPECI,3.0
KNFG 270119Z VRB04KT 10SM BKN026 19/12 A2994 RMK AO2 T01940122 ,KNFG,2023-05-27T01:19:00Z,33.3,-117.35,19.4,12.2,0,4,,10.0,29.940945,,,,TRUE,,,,,,,BKN,2600,,,,,,,MVFR,,,,,,,,,,,,SPECI,21.0
CYUX 270119Z AUTO 30008KT 9SM -SN SCT024 M08/M09 A2995 RMK SLP145,CYUX,2023-05-27T01:19:00Z,68.77,-81.22,-8.0,-9.0,300,8,,9.0,29.949802,1014.5,,TRUE,,,,,,,-SN,SCT,2400,,,,,,,VFR,,,,,,,,,,,,SPECI,8.0
CYIO 270119Z AUTO 20014KT 5SM -SN BKN027 OVC036 M08/M10 A2963 RMK SLP041,CYIO,2023-05-27T01:19:00Z,72.68,-77.97,-8.0,-10.0,200,14,,5.0,29.630905,1004.1,,TRUE,,,,,,,-SN,BKN,2700,OVC,3600,,,,,MVFR,,,,,,,,,,,,SPECI,61.0
PMDY 270118Z AUTO 3SM -RA BR SCT030 OVC036 21/20 A3021 RMK AO2 P0002 TSNO $,PMDY,2023-05-27T01:18:00Z,28.22,-177.37,21.0,20.0,,,,3.0,30.209646,,,TRUE,TRUE,TRUE,,TRUE,,,-RA BR,SCT,3000,OVC,3600,,,,,MVFR,,,,,,0.02,,,,,,SPECI,6.0
PAGS 270118Z AUTO 25005KT 10SM RA BKN029 OVC037 08/07 A3004 RMK AO2 P0001,PAGS,2023-05-27T01:18:00Z,58.42,-135.7,8.0,7.0,250,5,,10.0,30.041338,,,TRUE,TRUE,,,,,,RA,BKN,2900,OVC,3700,,,,,MVFR,,,,,,0.01,,,,,,SPECI,9.0
PACD 270118Z 28014KT 4SM -RA BR OVC006 06/04 A2930 RMK AO2 RAB0057 CIG 004V011 P0000 T00610044,PACD,2023-05-27T01:18:00Z,55.22,-162.72,6.1,4.4,280,14,,4.0,29.300198,,,,TRUE,,,,,,-RA BR,OVC,600,,,,,,,IFR,,,,,,0.005,,,,,,SPECI,23.0
CYTL 270118Z AUTO 11005KT 040V150 9SM -RA FEW055 BKN110 13/11 A2991 RMK LTNG DIST NE E PRESFR SLP138,CYTL,2023-05-27T01:18:00Z,53.82,-89.88,13.0,11.0,110,5,,9.0,29.911417,1013.8,,TRUE,,,,,,,-RA,FEW,5500,BKN,11000,,,,,VFR,,,,,,,,,,,,SPECI,218.0
PADQ 270117Z 08011KT 1 3/4SM -RA BR OVC005 07/06 A2953 RMK AO2 RAB16 P0000 T00720061,PADQ,2023-05-27T01:17:00Z,57.75,-152.5,7.2,6.1,80,11,,1.75,29.530512,,,,TRUE,,,,,,-RA BR,OVC,500,,,,,,,IFR,,,,,,0.005,,,,,,SPECI,5.0
MMTJ 270117Z 27008KT 10SM OVC020 16/12 A2998 RMK 8/5// HZY,MMTJ,2023-05-27T01:17:00Z,32.53,-116.97,16.0,12.0,270,8,,10.0,29.97933,,,,,,,,,,,OVC,2000,,,,,,,MVFR,,,,,,,,,,,,SPECI,150.0
KSDY 270117Z AUTO 10007KT 10SM VCTS SCT060 23/15 A2989 RMK AO2 LTG DSNT S TSB11,KSDY,2023-05-27T01:17:00Z,47.7,-104.2,23.0,15.0,100,7,,10.0,29.890747,,,TRUE,TRUE,,,,,,VCTS,SCT,6000,,,,,,,VFR,,,,,,,,,,,,SPECI,600.0
KCKC 270117Z AUTO 00000KT 10SM CLR 17/M01 A3023 RMK AO2,KCKC,2023-05-27T01:17:00Z,47.83,-90.38,17.0,-1.0,0,0,,10.0,30.230314,,,TRUE,TRUE,,,,,,,CLR,,,,,,,,VFR,,,,,,,,,,,,SPECI,544.0
KADC 270117Z AUTO 14007KT 10SM CLR 25/M01 A3014 RMK A,KADC,2023-05-27T01:17:00Z,46.45,-95.22,25.0,-1.0,140,7,,10.0,30.138779,,,TRUE,,,,,,,,CLR,,,,,,,,VFR,,,,,,,,,,,,METAR,416.0
CYGR 270117Z 32015G21KT 15SM -RA OVC011 05/03 A2998 RMK SC8 SLP153,CYGR,2023-05-27T01:17:00Z,47.42,-61.77,5.0,3.0,320,15,21,15.0,29.97933,1015.3,,,,,,,,,-RA,OVC,1100,,,,,,,MVFR,,,,,,,,,,,,SPECI,4.0
PAMD 270116Z AUTO 11015KT 10SM -RA SCT006 BKN020 OVC034 07/06 A2977 RMK AO2 PNO $,PAMD,2023-05-27T01:16:00Z,59.43,-146.3,7.0,6.0,110,15,,10.0,29.769686,,,TRUE,TRUE,TRUE,,,,,-RA,SCT,600,BKN,2000,OVC,3400,,,MVFR,,,,,,,,,,,,METAR,20.0
PAKI 270116Z AUTO 10SM SCT009 OVC015 05/03 A2923 RMK AO2 $,PAKI,2023-05-27T01:16:00Z,59.93,-164.03,5.0,3.0,,,,10.0,29.22933,,,TRUE,TRUE,TRUE,,,,,,SCT,900,OVC,1500,,,,,MVFR,,,,,,,,,,,,METAR,4.0
KVRB 270116Z AUTO 36013G22KT 10SM FEW019 SCT024 BKN029 24/20 A2985 RMK AO2 T02390200,KVRB,2023-05-27T01:16:00Z,27.65,-80.42,23.9,20.0,360,13,22,10.0,29.84941,,,TRUE,TRUE,,,,,,,FEW,1900,SCT,2400,BKN,2900,,,MVFR,,,,,,,,,,,,SPECI,7.0
KSFY 270116Z AUTO 08006KT 10SM CLR 19/M03 A3024 RMK AO2,KSFY,2023-05-27T01:16:00Z,42.05,-90.12,19.0,-3.0,80,6,,10.0,30.239174,,,TRUE,TRUE,,,,,,,CLR,,,,,,,,VFR,,,,,,,,,,,,METAR,188.0
KMOT 270116Z 22007KT 3SM VCTS +RA SCT047 BKN070 OVC090 19/16 A2993 RMK AO2 LTG DSNT NE AND S TSE13 P0021 T01940161,KMOT,2023-05-27T01:16:00Z,48.25,-101.27,19.4,16.1,220,7,,3.0,29.929134,,,,TRUE,,,,,,VCTS +RA,SCT,4700,BKN,7000,OVC,9000,,,MVFR,,,,,,0.21,,,,,,SPECI,507.0
KLOL 270116Z AUTO 05010KT 10SM VCTS FEW075 FEW100 16/10 A2993 RMK AO2 LTG DSNT SE AND S RAE0054 P0000 T01560100,KLOL,2023-05-27T01:16:00Z,40.07,-118.57,15.6,10.0,50,10,,10.0,29.929134,,,TRUE,TRUE,,,,,,VCTS,FEW,7500,FEW,10000,,,,,VFR,,,,,,0.005,,,,,,SPECI,1191.0
KJYG 270116Z AUTO 15007KT 10SM CLR 24/M06 A3017 RMK AO2 TSNO,KJYG,2023-05-27T01:16:00Z,43.98,-94.55,24.0,-6.0,150,7,,10.0,30.171259,,,TRUE,TRUE,,,TRUE,,,,CLR,,,,,,,,VFR,,,,,,,,,,,,SPECI,323.0
KI69 270116Z AUTO 06003KT 10SM CLR 19/03 A3020 RMK AO1 T01930029,KI69,2023-05-27T01:16:00Z,39.08,-84.22,19.3,2.9,60,3,,10.0,30.200787,,,TRUE,TRUE,,,,,,,CLR,,,,,,,,VFR,,,,,,,,,,,,SPECI,238.0
KBBB 270116Z AUTO 18008KT 10SM CLR 24/M01 A3014 RMK AO2,KBBB,2023-05-27T01:16:00Z,45.32,-95.65,24.0,-1.0,180,8,,10.0,30.138779,,,TRUE,TRUE,,,,,,,CLR,,,,,,,,VFR,,,,,,,,,,,,SPECI,315.0
KAUM 270116Z AUTO 13006KT 10SM CLR 22/M01 A3023 RMK AO2,KAUM,2023-05-27T01:16:00Z,43.67,-92.92,22.0,-1.0,130,6,,10.0,30.230314,,,TRUE,TRUE,,,,,,,CLR,,,,,,,,VFR,,,,,,,,,,,,SPECI,376.0
K40B 270116Z AUTO 00000KT 08/05 A3014 RMK AO1 SLP206 T00850048 53002,K40B,2023-05-27T01:16:00Z,46.62,-69.52,8.5,4.8,0,0,,,30.138779,1020.6,,TRUE,TRUE,,,,,,,,,,,,,,,,0.2,,,,,,,,,,,SPECI,344.0
EHKD 270116Z AUTO 07010KT 040V100 9999 SCT017 10/07 Q1030 WHT,EHKD,2023-05-27T01:16:00Z,52.92,4.77,10.0,7.0,70,10,,6.21,30.413385,,,TRUE,,,,,,,,SCT,1700,,,,,,,VFR,,,,,,,,,,,,SPECI,1.0
CYVM 270116Z AUTO 02010KT 9SM OVC018 M08/M11 A2984 RMK SLP106,CYVM,2023-05-27T01:16:00Z,67.55,-64.02,-8.0,-11.0,20,10,,9.0,29.840551,1010.6,,TRUE,,,,,,,,OVC,1800,,,,,,,MVFR,,,,,,,,,,,,SPECI,3.0
TJPS 270115Z AUTO 07004KT 10SM FEW038 SCT043 27/24 A2995 RMK AO2 TSNO,TJPS,2023-05-27T01:15:00Z,18.02,-66.57,27.0,24.0,70,4,,10.0,29.949802,,,TRUE,TRUE,,,TRUE,,,,FEW,3800,SCT,4300,,,,,VFR,,,,,,,,,,,,METAR,12.0
PAKX 270115Z AUTO 32004KT 10SM OVC055 10/03 A2945 RMK AO2,PAKX,2023-05-27T01:15:00Z,60.2,-154.32,10.0,3.0,320,4,,10.0,29.450787,,,TRUE,TRUE,,,,,,,OVC,5500,,,,,,,VFR,,,,,,,,,,,,METAR,88.0
PAHX 270115Z AUTO 15014G19KT 3/4SM HZ SCT039 BKN070 OVC100 11/03 A2937 RMK AO2 VIS M1/4V5,PAHX,2023-05-27T01:15:00Z,62.7,-159.57,11.0,3.0,150,14,19,0.75,29.371063,,,TRUE,TRUE,,,,,,HZ,SCT,3900,BKN,7000,OVC,10000,,,LIFR,,,,,,,,,,,,METAR,20.0
PAAD 270115Z AUTO 08020KT 10SM OVC006 M02/M03 A2961 RMK AO2 T10201030 PWINO,PAAD,2023-05-27T01:15:00Z,70.13,-146.28,-2.0,-3.0,80,20,,10.0,29.610237,,,TRUE,TRUE,,,,,TRUE,,OVC,600,,,,,,,IFR,,,,,,,,,,,,METAR,8.0
LMML 270115Z 31005KT CAVOK 17/15 Q1014 NOSIG,LMML,2023-05-27T01:15:00Z,35.85,14.47,17.0,15.0,310,5,,6.21,29.940945,,,,,,TRUE,,,,,CAVOK,,,,,,,,VFR,,,,,,,,,,,,METAR,78.0
KY70 270115Z AUTO 09003KT 10SM CLR 18/00 A3029 RMK AO2 T01780001,KY70,2023-05-27T01:15:00Z,42.93,-85.07,17.8,0.1,90,3,,10.0,30.28937,,,TRUE,TRUE,,,,,,,CLR,,,,,,,,VFR,,,,,,,,,,,,SPECI,247.0
KY63 270115Z AUTO 15011KT 10SM CLR 25/02 A3012 RMK AO2 T02460024,KY63,2023-05-27T01:15:00Z,45.98,-96.0,24.6,2.4,150,11,,10.0,30.121063,,,TRUE,TRUE,,,,,,,CLR,,,,,,,,VFR,,,,,,,,,,,,METAR,367.0
KY51 270115Z AUTO 11003KT 10SM CLR 20/03 A3027 RMK AO1 T01960034,KY51,2023-05-27T01:15:00Z,43.58,-90.9,19.6,3.4,110,3,,10.0,30.268702,,,TRUE,TRUE,,,,,,,CLR,,,,,,,,VFR,,,,,,,,,,,,METAR,390.0
KY49 270115Z AUTO 15005KT 10SM CLR 24/05 A3015 RMK AO2 T02350049,KY49,2023-05-27T01:15:00Z,47.15,-94.65,23.5,4.9,150,5,,10.0,30.15059,,,TRUE,TRUE,,,,,,,CLR,,,,,,,,VFR,,,,,,,,,,,,SPECI,413.0
KY31 270115Z AUTO 00000KT 10SM CLR 15/00 A3032 RMK AO2 T01531001,KY31,2023-05-27T01:15:00Z,44.25,-84.18,15.3,-0.1,0,0,,10.0,30.318897,,,TRUE,TRUE,,,,,,,CLR,,,,,,,,VFR,,,,,,,,,,,,SPECI,264.0
KY23 270115Z AUTO 15003KT 10SM CLR 21/02 A3025 RMK AO2 T02140023,KY23,2023-05-27T01:15:00Z,45.3,-91.63,21.4,2.3,150,3,,10.0,30.250984,,,TRUE,TRUE,,,,,,,CLR,,,,,,,,VFR,,,,,,,,,,,,SPECI,322.0
KY19 270115Z AUTO 18019G25KT 10SM CLR 24/14 A2996 RMK AO2,KY19,2023-05-27T01:15:00Z,46.77,-100.9,24.0,14.0,180,19,25,10.0,29.958662,,,TRUE,TRUE,,,,,,,CLR,,,,,,,,VFR,,,,,,,,,,,,SPECI,591.0
KXSA 270115Z AUTO 00000KT 10SM CLR 13/09 A3026 RMK AO2 T01290092,KXSA,2023-05-27T01:15:00Z,37.87,-76.9,12.9,9.2,0,0,,10.0,30.259842,,,TRUE,TRUE,,,,,,,CLR,,,,,,,,VFR,,,,,,,,,,,,METAR,41.0
KXNX 270115Z AUTO 36004KT 10SM FEW120 21/12 A3012 RMK A01,KXNX,2023-05-27T01:15:00Z,36.38,-86.42,21.0,12.0,360,4,,10.0,30.121063,,,TRUE,TRUE,,,,,,,FEW,12000,,,,,,,VFR,,,,,,,,,,,,SPECI,178.0
KX60 270115Z AUTO 05010KT 10SM OVC044 22/16 A2995 RMK AO2 T02180157,KX60,2023-05-27T01:15:00Z,29.35,-82.47,21.8,15.7,50,10,,10.0,29.949802,,,TRUE,TRUE,,,,,,,OVC,4400,,,,,,,VFR,,,,,,,,,,,,SPECI,21.0
KX07 270115Z AUTO 03010KT 10SM BKN027 BKN033 BKN050 22/19 A2990 RMK A01,KX07,2023-05-27T01:15:00Z,27.9,-81.62,22.0,19.0,30,10,,10.0,29.899607,,,TRUE,TRUE,,,,,,,BKN,2700,BKN,3300,BKN,5000,,,MVFR,,,,,,,,,,,,METAR,36.0
KWYS 270115Z AUTO 24008G13KT 10SM SCT070 BKN100 15/01 A2998 RMK AO2,KWYS,2023-05-27T01:15:00Z,44.68,-111.12,15.0,1.0,240,8,13,10.0,29.97933,,,TRUE,TRUE,,,,,,,SCT,7000,BKN,10000,,,,,VFR,,,,,,,,,,,,METAR,2025.0
KWWR 270115Z AUTO 12010KT 10SM CLR 20/15 A3011 RMK AO2,KWWR,2023-05-27T01:15:00Z,36.45,-99.52,20.0,15.0,120,10,,10.0,30.109253,,,TRUE,TRUE,,,,,,,CLR,,,,,,,,VFR,,,,,,,,,,,,METAR,664.0
KWDR 270115Z AUTO 00000KT 10SM CLR 18/07 A3015 RMK AO2,KWDR,2023-05-27T01:15:00Z,33.98,-83.67,18.0,7.0,0,0,,10.0,30.15059,,,TRUE,TRUE,,,,,,,CLR,,,,,,,,VFR,,,,,,,,,,,,METAR,280.0
KW96 270115Z AUTO 00000KT 10SM CLR 14/08 A3024 RMK AO1 T01430076,KW96,2023-05-27T01:15:00Z,37.5,-77.12,14.3,7.6,0,0,,10.0,30.239174,,,TRUE,TRUE,,,,,,,CLR,,,,,,,,VFR,,,,,,,,,,,,SPECI,35.0
KW81 270115Z AUTO 00000KT 10SM CLR 13/07 A3024 RMK AO1 T01290070,KW81,2023-05-27T01:15:00Z,37.18,-78.1,12.9,7.0,0,0,,10.0,30.239174,,,TRUE,TRUE,,,,,,,CLR,,,,,,,,VFR,,,,,,,,,,,,METAR,121.0
KW78 270115Z AUTO 00000KT 10SM CLR 16/06 A3023 RMK AO1 T01550063,KW78,2023-05-27T01:15:00Z,36.7,-78.85,15.5,6.3,0,0,,10.0,30.230314,,,TRUE,TRUE,,,,,,,CLR,,,,,,,,VFR,,,,,,,,,,,,METAR,120.0
KW75 270115Z AUTO 07007KT 10SM CLR 17/05 A3025 RMK AO1 T01650045,KW75,2023-05-27T01:15:00Z,37.6,-76.45,16.5,4.5,70,7,,10.0,30.250984,,,TRUE,TRUE,,,,,,,CLR,,,,,,,,VFR,,,,,,,,,,,,METAR,8.0
KW63 270115Z AUTO 07004KT 10SM CLR 17/08 A3022 RMK AO1,KW63,2023-05-27T01:15:00Z,36.6,-78.55,17.0,8.0,70,4,,10.0,30.221457,,,TRUE,TRUE,,,,,,,CLR,,,,,,,,VFR,,,,,,,,,,,,SPECI,126.0
KW43 270115Z AUTO 18003KT 10SM VCTSRA BKN075 BKN110 17/13 A2990 RMK AO2 LTG DSNT ALQS,KW43,2023-05-27T01:15:00Z,44.67,-104.57,17.0,13.0,180,3,,10.0,29.899607,,,TRUE,TRUE,,,,,,VCTSRA,BKN,7500,BKN,11000,,,,,VFR,,,,,,,,,,,,METAR,1292.0
KW31 270115Z AUTO 00000KT 10SM CLR 16/08 A3023 RMK AO1 T01580084,KW31,2023-05-27T01:15:00Z,36.95,-78.18,15.8,8.4,0,0,,10.0,30.230314,,,TRUE,TRUE,,,,,,,CLR,,,,,,,,VFR,,,,,,,,,,,,METAR,159.0
KW22 270115Z AUTO 05006KT 10SM CLR 17/01 A3023 RMK AO2,KW22,2023-05-27T01:15:00Z,39.0,-80.27,17.0,1.0,50,6,,10.0,30.230314,,,TRUE,TRUE,,,,,,,CLR,,,,,,,,VFR,,,,,,,,,,,,METAR,497.0
KW13 270115Z AUTO 08004KT 10SM CLR 16/06 A3025 RMK AO1 T01600060,KW13,2023-05-27T01:15:00Z,38.08,-78.95,16.0,6.0,80,4,,10.0,30.250984,,,TRUE,TRUE,,,,,,,CLR,,,,,,,,VFR,,,,,,,,,,,,SPECI,440.0
KVYS 270115Z AUTO 08007KT 10SM CLR 21/02 A3024 RMK AO2 T02060015,KVYS,2023-05-27T01:15:00Z,41.35,-89.15,20.6,1.5,80,7,,10.0,30.239174,,,TRUE,TRUE,,,,,,,CLR,,,,,,,,VFR,,,,,,,,,,,,METAR,198.0
KVWU 270115Z AUTO 16005KT 10SM CLR 26/09 A3012 RMK AO2,KVWU,2023-05-27T01:15:00Z,48.15,-94.52,26.0,9.0,160,5,,10.0,30.121063,,,TRUE,TRUE,,,,,,,CLR,,,,,,,,VFR,,,,,,,,,,,,METAR,359.0
KVVV 270115Z AUTO 15007KT 10SM CLR 25/02 A3009 RMK AO2,KVVV,2023-05-27T01:15:00Z,45.3,-96.42,25.0,2.0,150,7,,10.0,30.088583,,,TRUE,TRUE,,,,,,,CLR,,,,,,,,VFR,,,,,,,,,,,,SPECI,334.0
KVTP 270115Z AUTO 26006KT 10SM CLR 09/M23 A3026 RMK AO2,KVTP,2023-05-27T01:15:00Z,37.5,-105.17,9.0,-23.0,260,6,,10.0,30.259842,,,TRUE,TRUE,,,,,,,CLR,,,,,,,,VFR,,,,,,,,,,,,SPECI,3086.0
KVTI 270115Z AUTO 08005KT 10SM CLR 22/01 A3023 RMK AO2 T02160014,KVTI,2023-05-27T01:15:00Z,42.22,-92.02,21.6,1.4,80,5,,10.0,30.230314,,,TRUE,TRUE,,,,,,,CLR,,,,,,,,VFR,,,,,,,,,,,,SPECI,256.0
KVPC 270115Z AUTO 00000KT 10SM CLR 22/11 A3009 RMK AO2,KVPC,2023-05-27T01:15:00Z,34.1,-84.85,22.0,11.0,0,0,,10.0,30.088583,,,TRUE,TRUE,,,,,,,CLR,,,,,,,,VFR,,,,,,,,,,,,METAR,234.0
KVOA 270115Z AUTO 06012KT 10SM FEW080 25/18 A2996 RMK A01,KVOA,2023-05-27T01:15:00Z,29.23,-87.78,25.0,18.0,60,12,,10.0,29.958662,,,TRUE,TRUE,,,,,,,FEW,8000,,,,,,,VFR,,,,,,,,,,,,METAR,53.0
KVNW 270115Z AUTO 06006KT 10SM CLR 16/M04 A3027 RMK AO2,KVNW,2023-05-27T01:15:00Z,40.87,-84.62,16.0,-4.0,60,6,,10.0,30.268702,,,TRUE,TRUE,,,,,,,CLR,,,,,,,,VFR,,,,,,,,,,,,SPECI,238.0
KVNC 270115Z AUTO 10005KT 10SM SCT008 BKN037 OVC110 22/22 A2989 RMK AO2,KVNC,2023-05-27T01:15:00Z,27.07,-82.43,22.0,22.0,100,5,,10.0,29.890747,,,TRUE,TRUE,,,,,,,SCT,800,BKN,3700,OVC,11000,,,VFR,,,,,,,,,,,,METAR,4.0
KVLL 270115Z AUTO 08007KT 10SM CLR 18/01 A3034 RMK AO2 T01820006,KVLL,2023-05-27T01:15:00Z,42.55,-83.18,18.2,0.6,80,7,,10.0,30.339567,,,TRUE,TRUE,,,,,,,CLR,,,,,,,,VFR,,,,,,,,,,,,METAR,214.0
KVKY 270115Z AUTO 08007KT 10SM CLR A2997 RMK A01,KVKY,2023-05-27T01:15:00Z,29.25,-88.43,,,80,7,,10.0,29.970472,,,TRUE,TRUE,,,,,,,CLR,,,,,,,,VFR,,,,,,,,,,,,METAR,32.0
KVKS 270115Z AUTO 00000KT 10SM CLR 25/16 A2997 RMK A01,KVKS,2023-05-27T01:15:00Z,32.23,-90.93,25.0,16.0,0,0,,10.0,29.970472,,,TRUE,TRUE,,,,,,,CLR,,,,,,,,VFR,,,,,,,,,,,,METAR,31.0
KVJI 270115Z AUTO 11009KT 10SM CLR 17/05 A3020 RMK AO2 T01650047,KVJI,2023-05-27T01:15:00Z,36.68,-82.03,16.5,4.7,110,9,,10.0,30.200787,,,TRUE,TRUE,,,,,,,CLR,,,,,,,,VFR,,,,,,,,,,,,METAR,636.0
KVHN 270115Z AUTO 08014G20KT 10SM CLR 27/15 A2999 RMK AO2 LTG DSNT W THRU E T02700151,KVHN,2023-05-27T01:15:00Z,31.07,-104.78,27.0,15.1,80,14,20,10.0,29.991142,,,TRUE,TRUE,,,,,,,CLR,,,,,,,,VFR,,,,,,,,,,,,SPECI,1200.0
KVGC 270115Z AUTO 00000KT 10SM CLR 10/03 A3030 RMK AO2,KVGC,2023-05-27T01:15:00Z,42.85,-75.57,10.0,3.0,0,0,,10.0,30.301182,,,TRUE,TRUE,,,,,,,CLR,,,,,,,,VFR,,,,,,,,,,,,SPECI,346.0
KVER 270115Z AUTO 09004KT 10SM CLR 21/05 A3018 RMK AO2 T02070053,KVER,2023-05-27T01:15:00Z,38.95,-92.68,20.7,5.3,90,4,,10.0,30.180119,,,TRUE,TRUE,,,,,,,CLR,,,,,,,,VFR,,,,,,,,,,,,METAR,209.0
KVDI 270115Z AUTO 03007KT 10SM CLR 19/08 A3006 RMK AO2,KVDI,2023-05-27T01:15:00Z,32.2,-82.37,19.0,8.0,30,7,,10.0,30.059055,,,TRUE,TRUE,,,,,,,CLR,,,,,,,,VFR,,,,,,,,,,,,METAR,81.0
KVDF 270115Z AUTO 04008KT 10SM CLR 23/19 A2991 RMK AO2,KVDF,2023-05-27T01:15:00Z,28.02,-82.33,23.0,19.0,40,8,,10.0,29.911417,,,TRUE,TRUE,,,,,,,CLR,,,,,,,,VFR,,,,,,,,,,,,SPECI,5.0
KVCV 270115Z AUTO 20013KT 10SM CLR 21/05 A2989 RMK AO2,KVCV,2023-05-27T01:15:00Z,34.58,-117.38,21.0,5.0,200,13,,10.0,29.890747,,,TRUE,TRUE,,,,,,,CLR,,,,,,,,VFR,,,,,,,,,,,,SPECI,871.0
KVBW 270115Z AUTO 00000KT 10SM CLR 14/07 A3025 RMK AO1 T01440068,KVBW,2023-05-27T01:15:00Z,38.37,-78.97,14.4,6.8,0,0,,10.0,30.250984,,,TRUE,TRUE,,,,,,,CLR,,,,,,,,VFR,,,,,,,,,,,,METAR,362.0
KVAF 270115Z AUTO 05010KT 10SM CLR 27/18 A2998 RMK A01,KVAF,2023-05-27T01:15:00Z,27.35,-94.63,27.0,18.0,50,10,,10.0,29.97933,,,TRUE,TRUE,,,,,,,CLR,,,,,,,,VFR,,,,,,,,,,,,SPECI,38.0
KUYF 270115Z AUTO 04008KT 10SM CLR 16/00 A3022 RMK AO2,KUYF,2023-05-27T01:15:00Z,39.93,-83.47,16.0,0.0,40,8,,10.0,30.221457,,,TRUE,TRUE,,,,,,,CLR,,,,,,,,VFR,,,,,,,,,,,,METAR,326.0
KUXL 270115Z AUTO 08004KT 10SM CLR 26/14 A2997 RMK AO2 T02550140,KUXL,2023-05-27T01:15:00Z,30.13,-93.38,25.5,14.0,80,4,,10.0,29.970472,,,TRUE,TRUE,,,,,,,CLR,,,,,,,,VFR,,,,,,,,,,,,SPECI,2.0
KUVA 270115Z AUTO 11004KT CLR 27/18 A2996 RMK AO2 T02670177 PWINO,KUVA,2023-05-27T01:15:00Z,29.22,-99.75,26.7,17.7,110,4,,,29.958662,,,TRUE,TRUE,,,,,TRUE,,CLR,,,,,,,,,,,,,,,,,,,,SPECI,285.0
KUUV 270115Z AUTO 00000KT 10SM CLR 17/07 A3019 RMK AO2,KUUV,2023-05-27T01:15:00Z,38.23,-91.17,17.0,7.0,0,0,,10.0,30.188976,,,TRUE,TRUE,,,,,,,CLR,,,,,,,,VFR,,,,,,,,,,,,SPECI,284.0
KUTA 270115Z AUTO 02007KT 10SM CLR 23/11 A3005 RMK AO2 T02300114 $,KUTA,2023-05-27T01:15:00Z,34.68,-90.35,23.0,11.4,20,7,,10.0,30.050198,,,TRUE,TRUE,TRUE,,,,,,CLR,,,,,,,,VFR,,,,,,,,,,,,METAR,58.0
KUSE 270115Z AUTO 05004KT 10SM CLR 15/01 A3029 RMK AO2,KUSE,2023-05-27T01:15:00Z,41.62,-84.13,15.0,1.0,50,4,,10.0,30.28937,,,TRUE,TRUE,,,,,,,CLR,,,,,,,,VFR,,,,,,,,,,,,SPECI,237.0
KUOX 270115Z AUTO 05004KT 10SM CLR 22/15 A3006 RMK AO2,KUOX,2023-05-27T01:15:00Z,34.38,-89.53,22.0,15.0,50,4,,10.0,30.059055,,,TRUE,TRUE,,,,,,,CLR,,,,,,,,VFR,,,,,,,,,,,,METAR,123.0
KUNU 270115Z AUTO 08003KT 10SM CLR 16/M02 A3031 RMK AO2 T01621020,KUNU,2023-05-27T01:15:00Z,43.42,-88.7,16.2,-2.0,80,3,,10.0,30.31004,,,TRUE,TRUE,,,,,,,CLR,,,,,,,,VFR,,,,,,,,,,,,METAR,281.0
KUNI 270115Z AUTO 00000KT 10SM RA CLR 16/06 A3019 RMK AO2 T01610055,KUNI,2023-05-27T01:15:00Z,39.22,-82.23,16.1,5.5,0,0,,10.0,30.188976,,,TRUE,TRUE,,,,,,RA,CLR,,,,,,,,VFR,,,,,,,,,,,,METAR,232.0
KUMP 270115Z AUTO 05005KT 10SM CLR 20/02 A3020 RMK AO2 T02030020,KUMP,2023-05-27T01:15:00Z,39.93,-86.05,20.3,2.0,50,5,,10.0,30.200787,,,TRUE,TRUE,,,,,,,CLR,,,,,,,,VFR,,,,,,,,,,,,METAR,247.0
KUKT 270115Z AUTO 00000KT 10SM CLR 14/06 A3026 RMK A01,KUKT,2023-05-27T01:15:00Z,40.43,-75.38,14.0,6.0,0,0,,10.0,30.259842,,,TRUE,TRUE,,,,,,,CLR,,,,,,,,VFR,,,,,,,,,,,,METAR,156.0
KUCY 270115Z AUTO 02005KT 10SM CLR 18/10 A3009 RMK A01,KUCY,2023-05-27T01:15:00Z,36.38,-88.98,18.0,10.0,20,5,,10.0,30.088583,,,TRUE,TRUE,,,,,,,CLR,,,,,,,,VFR,,,,,,,,,,,,SPECI,97.0
KUBE 270115Z AUTO 16003KT 10SM CLR 19/06 A3025 RMK AO2,KUBE,2023-05-27T01:15:00Z,45.5,-91.98,19.0,6.0,160,3,,10.0,30.250984,,,TRUE,TRUE,,,,,,,CLR,,,,,,,,VFR,,,,,,,,,,,,SPECI,376.0
KU69 270115Z AUTO 32007KT 10SM CLR 16/01 A2996 RMK A01,KU69,2023-05-27T01:15:00Z,40.2,-110.38,16.0,1.0,320,7,,10.0,29.958662,,,TRUE,TRUE,,,,,,,CLR,,,,,,,,VFR,,,,,,,,,,,,METAR,1776.0
KU64 270115Z AUTO 19016G23KT 10SM CLR 21/M08 A2995 RMK AO2 T02081083 $,KU64,2023-05-27T01:15:00Z,,,20.8,-8.3,190,16,23,10.0,29.949802,,,TRUE,TRUE,TRUE,,,,,,CLR,,,,,,,,VFR,,,,,,,,,,,,METAR,
KU55 270115Z AUTO 21013G21KT 10SM FEW095 18/M04 A2999 RMK A01,KU55,2023-05-27T01:15:00Z,37.85,-112.38,18.0,-4.0,210,13,21,10.0,29.991142,,,TRUE,TRUE,,,,,,,FEW,9500,,,,,,,VFR,,,,,,,,,,,,METAR,2060.0
KU42 270115Z AUTO 32007KT 10SM SCT070 SCT120 18/06 A2990 RMK AO1 T01760055,KU42,2023-05-27T01:15:00Z,40.62,-111.98,17.6,5.5,320,7,,10.0,29.899607,,,TRUE,TRUE,,,,,,,SCT,7000,SCT,12000,,,,,VFR,,,,,,,,,,,,SPECI,1399.0
KTZR 270115Z AUTO 06005KT 10SM CLR 19/03 A3022 RMK AO2 T01900030,KTZR,2023-05-27T01:15:00Z,39.9,-83.13,19.0,3.0,60,5,,10.0,30.221457,,,TRUE,TRUE,,,,,,,CLR,,,,,,,,VFR,,,,,,,,,,,,METAR,275.0
KTYQ 270115Z AUTO 06007KT 10SM CLR 20/M01 A3022 RMK AO2 T01971012,KTYQ,2023-05-27T01:15:00Z,40.03,-86.25,19.7,-1.2,60,7,,10.0,30.221457,,,TRUE,TRUE,,,,,,,CLR,,,,,,,,VFR,,,,,,,,,,,,METAR,279.0
KTYL 270115Z AUTO 23016G26KT 10SM CLR 23/M08 A3000 RMK AO2,KTYL,2023-05-27T01:15:00Z,34.45,-110.12,23.0,-8.0,230,16,26,10.0,30.0,,,TRUE,TRUE,,,,,,,CLR,,,,,,,,VFR,,,,,,,,,,,,SPECI,1748.0
KTXW 270115Z AUTO 08010KT 10SM CLR 28/20 A2994 RMK AO2 T02780198,KTXW,2023-05-27T01:15:00Z,26.18,-97.97,27.8,19.8,80,10,,10.0,29.940945,,,TRUE,TRUE,,,,,,,CLR,,,,,,,,VFR,,,,,,,,,,,,METAR,21.0
KTWT 270115Z AUTO 07003KT 10SM CLR 20/07 A3013 RMK AO2,KTWT,2023-05-27T01:15:00Z,37.55,-87.95,20.0,7.0,70,3,,10.0,30.129921,,,TRUE,TRUE,,,,,,,CLR,,,,,,,,VFR,,,,,,,,,,,,METAR,113.0
KTWM 270115Z AUTO 00000KT 10SM CLR 17/05 A3021 RMK AO2,KTWM,2023-05-27T01:15:00Z,47.05,-91.75,17.0,5.0,0,0,,10.0,30.209646,,,TRUE,TRUE,,,,,,,CLR,,,,,,,,VFR,,,,,,,,,,,,METAR,331.0
KTVY 270115Z AUTO 15007KT 10SM SCT100 BKN120 18/05 A2987 RMK AO2,KTVY,2023-05-27T01:15:00Z,40.62,-112.35,18.0,5.0,150,7,,10.0,29.870079,,,TRUE,TRUE,,,,,,,SCT,10000,BKN,12000,,,,,VFR,,,,,,,,,,,,METAR,1310.0
KTVK 270115Z AUTO 00000KT 9SM SCT039 BKN055 BKN070 19/00 A3022 RMK AO2,KTVK,2023-05-27T01:15:00Z,40.68,-92.9,19.0,0.0,0,0,,9.0,30.221457,,,TRUE,TRUE,,,,,,,SCT,3900,BKN,5500,BKN,7000,,,VFR,,,,,,,,,,,,SPECI,311.0
KTVI 270115Z AUTO 07006KT 10SM SCT060 20/14 A3002 RMK AO2,KTVI,2023-05-27T01:15:00Z,30.9,-83.88,20.0,14.0,70,6,,10.0,30.02067,,,TRUE,TRUE,,,,,,,SCT,6000,,,,,,,VFR,,,,,,,,,,,,METAR,74.0
KTTF 270115Z AUTO 00000KT 10SM CLR 13/03 A3030 RMK AO2 T01310030,KTTF,2023-05-27T01:15:00Z,41.93,-83.42,13.1,3.0,0,0,,10.0,30.301182,,,TRUE,TRUE,,,,,,,CLR,,,,,,,,VFR,,,,,,,,,,,,SPECI,186.0
KTSP 270115Z AUTO 31014G21KT 9SM CLR 17/07 A2997 RMK AO2,KTSP,2023-05-27T01:15:00Z,35.13,-118.43,17.0,7.0,310,14,21,9.0,29.970472,,,TRUE,TRUE,,,,,,,CLR,,,,,,,,VFR,,,,,,,,,,,,SPECI,1209.0
KTQV 270115Z AUTO 07014KT 10SM CLR 17/04 A3020 RMK A01,KTQV,2023-05-27T01:15:00Z,36.0,-78.93,17.0,4.0,70,14,,10.0,30.200787,,,TRUE,TRUE,,,,,,,CLR,,,,,,,,VFR,,,,,,,,,,,,SPECI,230.0
KTQK 270115Z AUTO 18016KT 10SM CLR 22/13 A3008 RMK AO2 T02150132,KTQK,2023-05-27T01:15:00Z,38.47,-100.88,21.5,13.2,180,16,,10.0,30.079725,,,TRUE,TRUE,,,,,,,CLR,,,,,,,,VFR,,,,,,,,,,,,METAR,906.0
KTQH 270115Z AUTO 00000KT 10SM SCT080 23/12 A3008 RMK AO2,KTQH,2023-05-27T01:15:00Z,35.93,-95.0,23.0,12.0,0,0,,10.0,30.079725,,,TRUE,TRUE,,,,,,,SCT,8000,,,,,,,VFR,,,,,,,,,,,,METAR,265.0
KTPF 270115Z AUTO 05015G19KT 10SM BKN100 OVC120 23/19 A2990 RMK AO2,KTPF,2023-05-27T01:15:00Z,27.92,-82.45,23.0,19.0,50,15,19,10.0,29.899607,,,TRUE,TRUE,,,,,,,BKN,10000,OVC,12000,,,,,VFR,,,,,,,,,,,,METAR,1.0
KTOC 270115Z AUTO 06004KT 10SM SCT080 18/09 A3014 RMK AO2 T01800091,KTOC,2023-05-27T01:15:00Z,34.6,-83.3,18.0,9.1,60,4,,10.0,30.138779,,,TRUE,TRUE,,,,,,,SCT,8000,,,,,,,VFR,,,,,,,,,,,,METAR,292.0
KTOB 270115Z AUTO 11007KT 10SM CLR 21/M03 A3024 RMK AO2,KTOB,2023-05-27T01:15:00Z,44.02,-92.82,21.0,-3.0,110,7,,10.0,30.239174,,,TRUE,TRUE,,,,,,,CLR,,,,,,,,VFR,,,,,,,,,,,,METAR,394.0
KTNU 270115Z AUTO 11006KT 10SM CLR 20/00 A3021 RMK A01,KTNU,2023-05-27T01:15:00Z,41.67,-93.02,20.0,0.0,110,6,,10.0,30.209646,,,TRUE,TRUE,,,,,,,CLR,,,,,,,,VFR,,,,,,,,,,,,METAR,287.0
KTNB 270115Z AUTO 00000KT 10SM CLR 12/06 A3025 RMK AO2 T01150057,KTNB,2023-05-27T01:15:00Z,36.2,-81.65,11.5,5.7,0,0,,10.0,30.250984,,,TRUE,TRUE,,,,,,,CLR,,,,,,,,VFR,,,,,,,,,,,,METAR,958.0
KTMT 270115Z AUTO 24006KT 10SM SCT075 SCT110 11/07 A3002 RMK AO2 T01110072,KTMT,2023-05-27T01:15:00Z,39.47,-117.2,11.1,7.2,240,6,,10.0,30.02067,,,TRUE,TRUE,,,,,,,SCT,7500,SCT,11000,,,,,VFR,,,,,,,,,,,,METAR,1748.0
KTMK 270115Z AUTO 30009KT 10SM OVC010 14/13 A2999 RMK AO2,KTMK,2023-05-27T01:15:00Z,45.42,-123.82,14.0,13.0,300,9,,10.0,29.991142,,,TRUE,TRUE,,,,,,,OVC,1000,,,,,,,MVFR,,,,,,,,,,,,METAR,8.0
KTME 270115Z AUTO 04005KT 9SM CLR 25/18 A2997 RMK AO2,KTME,2023-05-27T01:15:00Z,29.8,-95.9,25.0,18.0,40,5,,9.0,29.970472,,,TRUE,TRUE,,,,,,,CLR,,,,,,,,VFR,,,,,,,,,,,,SPECI,49.0
KTMA 270115Z AUTO 04006G16KT 010V070 9SM SCT065 20/12 A3005 RMK AO2 T02020123 $,KTMA,2023-05-27T01:15:00Z,31.43,-83.48,20.2,12.3,40,6,16,9.0,30.050198,,,TRUE,TRUE,TRUE,,,,,,SCT,6500,,,,,,,VFR,,,,,,,,,,,,SPECI,105.0
KTKX 270115Z AUTO 05005KT 8SM CLR 21/06 A3009 RMK AO2,KTKX,2023-05-27T01:15:00Z,36.22,-90.03,21.0,6.0,50,5,,8.0,30.088583,,,TRUE,TRUE,,,,,,,CLR,,,,,,,,VFR,,,,,,,,,,,,METAR,73.0
KTKV 270115Z AUTO 00000KT 10SM CLR 18/00 A3029 RMK AO2 T01760001 PWINO,KTKV,2023-05-27T01:15:00Z,45.47,-89.82,17.6,0.1,0,0,,10.0,30.28937,,,TRUE,TRUE,,,,,TRUE,,CLR,,,,,,,,VFR,,,,,,,,,,,,SPECI,449.0
KTKC 270115Z AUTO 16007KT 9SM CLR 23/M01 A3015 RMK AO2,KTKC,2023-05-27T01:15:00Z,44.25,-95.62,23.0,-1.0,160,7,,9.0,30.15059,,,TRUE,TRUE,,,,,,,CLR,,,,,,,,VFR,,,,,,,,,,,,METAR,408.0
KTIP 270115Z AUTO 06006KT 10SM CLR 20/M01 A3021 RMK AO2 T02001015,KTIP,2023-05-27T01:15:00Z,40.28,-88.15,20.0,-1.5,60,6,,10.0,30.209646,,,TRUE,TRUE,,,,,,,CLR,,,,,,,,VFR,,,,,,,,,,,,METAR,224.0
KTIF 270115Z AUTO 15012G21KT 10SM SCT095 21/13 A3005 RMK AO2 T02070130,KTIF,2023-05-27T01:15:00Z,41.97,-100.57,20.7,13.0,150,12,21,10.0,30.050198,,,TRUE,TRUE,,,,,,,SCT,9500,,,,,,,VFR,,,,,,,,,,,,METAR,888.0
KTHA 270115Z AUTO 00000KT 10SM FEW080 FEW100 SCT120 19/17 A3008 RMK A01,KTHA,2023-05-27T01:15:00Z,35.38,-86.25,19.0,17.0,0,0,,10.0,30.079725,,,TRUE,TRUE,,,,,,,FEW,8000,FEW,10000,SCT,12000,,,VFR,,,,,,,,,,,,SPECI,333.0
KTEX 270115Z AUTO 19006KT 10SM BKN110 16/M14 A3014 RMK AO2,KTEX,2023-05-27T01:15:00Z,37.95,-107.9,16.0,-14.0,190,6,,10.0,30.138779,,,TRUE,TRUE,,,,,,,BKN,11000,,,,,,,VFR,,,,,,,,,,,,METAR,2760.0
KTEW 270115Z AUTO 00000KT 10SM CLR 19/00 A3029 RMK AO2 T01890000,KTEW,2023-05-27T01:15:00Z,42.57,-84.42,18.9,0.0,0,0,,10.0,30.28937,,,TRUE,TRUE,,,,,,,CLR,,,,,,,,VFR,,,,,,,,,,,,METAR,281.0
KTCY 270115Z AUTO 30008KT 10SM CLR 24/10 A2986 RMK A01,KTCY,2023-05-27T01:15:00Z,37.68,-121.43,24.0,10.0,300,8,,10.0,29.861221,,,TRUE,TRUE,,,,,,,CLR,,,,,,,,VFR,,,,,,,,,,,,METAR,51.0
KTBR 270115Z AUTO 03005KT 10SM CLR 18/07 A3005 RMK AO2 T01800065 PWINO,KTBR,2023-05-27T01:15:00Z,32.48,-81.73,18.0,6.5,30,5,,10.0,30.050198,,,TRUE,TRUE,,,,,TRUE,,CLR,,,,,,,,VFR,,,,,,,,,,,,METAR,54.0
KTAZ 270115Z AUTO 06004KT 10SM CLR 21/01 A3018 RMK AO2 T02120013,KTAZ,2023-05-27T01:15:00Z,39.53,-89.33,21.2,1.3,60,4,,10.0,30.180119,,,TRUE,TRUE,,,,,,,CLR,,,,,,,,VFR,,,,,,,,,,,,SPECI,188.0
KT89 270115Z AUTO 06011G18KT 10SM CLR 31/18 A2984 RMK A01,KT89,2023-05-27T01:15:00Z,29.27,-103.68,31.0,18.0,60,11,18,10.0,29.840551,,,TRUE,TRUE,,,,,,,CLR,,,,,,,,VFR,,,,,,,,,,,,SPECI,801.0
KT82 270115Z AUTO 13004KT 10SM CLR 25/17 A3001 RMK AO2 T02510166,KT82,2023-05-27T01:15:00Z,30.25,-98.92,25.1,16.6,130,4,,10.0,30.008858,,,TRUE,TRUE,,,,,,,CLR,,,,,,,,VFR,,,,,,,,,,,,SPECI,509.0
KT78 270115Z AUTO 00000KT 6SM HZ SCT070 BKN080 24/20 A2994 RMK AO2,KT78,2023-05-27T01:15:00Z,30.08,-94.7,24.0,20.0,0,0,,6.0,29.940945,,,TRUE,TRUE,,,,,,HZ,SCT,7000,BKN,8000,,,,,VFR,,,,,,,,,,,,METAR,21.0
KT74 270115Z AUTO 10SM CLR 27/16 A2997 RMK AO2 T02660161,KT74,2023-05-27T01:15:00Z,30.57,-97.45,26.6,16.1,,,,10.0,29.970472,,,TRUE,TRUE,,,,,,,CLR,,,,,,,,VFR,,,,,,,,,,,,SPECI,169.0
KT69 270115Z AUTO 16005KT 10SM CLR 26/22 A2994 RMK A01,KT69,2023-05-27T01:15:00Z,28.03,-97.55,26.0,22.0,160,5,,10.0,29.940945,,,TRUE,TRUE,,,,,,,CLR,,,,,,,,VFR,,,,,,,,,,,,SPECI,15.0
KT41 270115Z AUTO 10005KT 10SM CLR 27/15 A2995 RMK AO2 T02660148,KT41,2023-05-27T01:15:00Z,29.67,-95.07,26.6,14.8,100,5,,10.0,29.949802,,,TRUE,TRUE,,,,,,,CLR,,,,,,,,VFR,,,,,,,,,,,,SPECI,8.0
KSZY 270115Z AUTO 02004KT 10SM FEW100 19/14 A3008 RMK A01,KSZY,2023-05-27T01:15:00Z,35.2,-88.5,19.0,14.0,20,4,,10.0,30.079725,,,TRUE,TRUE,,,,,,,FEW,10000,,,,,,,VFR,,,,,,,,,,,,SPECI,184.0
KSZT 270115Z AUTO 05003KT 10SM BKN090 21/10 A2986 RMK AO2,KSZT,2023-05-27T01:15:00Z,48.3,-116.57,21.0,10.0,50,3,,10.0,29.861221,,,TRUE,TRUE,,,,,,,BKN,9000,,,,,,,VFR,,,,,,,,,,,,METAR,649.0
KSYN 270115Z AUTO 13005KT 10SM CLR 22/M02 A3021 RMK AO2 T02191020,KSYN,2023-05-27T01:15:00Z,44.47,-93.02,21.9,-2.0,130,5,,10.0,30.209646,,,TRUE,TRUE,,,,,,,CLR,,,,,,,,VFR,,,,,,,,,,,,SPECI,280.0
KSYM 270115Z AUTO 04003KT 10SM CLR 18/03 A3018 RMK AO2,KSYM,2023-05-27T01:15:00Z,38.22,-83.58,18.0,3.0,40,3,,10.0,30.180119,,,TRUE,TRUE,,,,,,,CLR,,,,,,,,VFR,,,,,,,,,,,,METAR,307.0
KSYI 270115Z AUTO 36004KT 10SM CLR 21/15 A3008 RMK A01,KSYI,2023-05-27T01:15:00Z,35.57,-86.45,21.0,15.0,360,4,,10.0,30.079725,,,TRUE,TRUE,,,,,,,CLR,,,,,,,,VFR,,,,,,,,,,,,SPECI,244.0
KSXU 270115Z AUTO 11005KT 10SM SCT050 21/15 A3002 RMK AO2 LTG DSNT NE E AND SW T02120151,KSXU,2023-05-27T01:15:00Z,34.93,-104.65,21.2,15.1,110,5,,10.0,30.02067,,,TRUE,TRUE,,,,,,,SCT,5000,,,,,,,VFR,,,,,,,,,,,,SPECI,1465.0
KSXK 270115Z AUTO 13012KT 10SM CLR 24/M02 A3012 RMK AO2,KSXK,2023-05-27T01:15:00Z,42.98,-96.17,24.0,-2.0,130,12,,10.0,30.121063,,,TRUE,TRUE,,,,,,,CLR,,,,,,,,VFR,,,,,,,,,,,,SPECI,430.0
KSWW 270115Z AUTO 12005KT 10SM CLR 24/17 A3007 RMK AO2 LTG DSNT W T02350165,KSWW,2023-05-27T01:15:00Z,32.47,-100.47,23.5,16.5,120,5,,10.0,30.070866,,,TRUE,TRUE,,,,,,,CLR,,,,,,,,VFR,,,,,,,,,,,,METAR,718.0
KSVE 270115Z AUTO 00000KT 10SM FEW110 22/04 A2991 RMK AO2,KSVE,2023-05-27T01:15:00Z,40.37,-120.57,22.0,4.0,0,0,,10.0,29.911417,,,TRUE,TRUE,,,,,,,FEW,11000,,,,,,,VFR,,,,,,,,,,,,SPECI,1263.0
KSVC 270115Z AUTO 23009G14KT 10SM CLR 29/M10 A2999 RMK AO2 T02901098,KSVC,2023-05-27T01:15:00Z,32.63,-108.15,29.0,-9.8,230,9,14,10.0,29.991142,,,TRUE,TRUE,,,,,,,CLR,,,,,,,,VFR,,,,,,,,,,,,SPECI,1638.0
KSUZ 270115Z AUTO 06006KT 9SM CLR 22/11 A3006 RMK A01,KSUZ,2023-05-27T01:15:00Z,34.58,-92.48,22.0,11.0,60,6,,9.0,30.059055,,,TRUE,TRUE,,,,,,,CLR,,,,,,,,VFR,,,,,,,,,,,,METAR,114.0
KSUW 270115Z AUTO 00000KT 10SM CLR 12/02 A3022 RMK AO2 T01180018,KSUW,2023-05-27T01:15:00Z,46.68,-92.1,11.8,1.8,0,0,,10.0,30.221457,,,TRUE,TRUE,,,,,,,CLR,,,,,,,,VFR,,,,,,,,,,,,METAR,205.0
KSTK 270115Z AUTO 18007KT 7SM RA BKN040 BKN048 OVC050 14/14 A3006 RMK AO2 P0003 LTG DSNT ALQS,KSTK,2023-05-27T01:15:00Z,40.62,-103.27,14.0,14.0,180,7,,7.0,30.059055,,,TRUE,TRUE,,,,,,RA,BKN,4000,BKN,4800,OVC,5000,,,VFR,,,,,,0.03,,,,,,SPECI,1228.0
KSTF 270115Z AUTO 05006KT 10SM CLR 26/19 A3001 RMK AO2,KSTF,2023-05-27T01:15:00Z,33.43,-88.85,26.0,19.0,50,6,,10.0,30.008858,,,TRUE,TRUE,,,,,,,CLR,,,,,,,,VFR,,,,,,,,,,,,METAR,99.0
KSTE 270115Z AUTO 11003KT 10SM CLR 19/M04 A3029 RMK AO2 T01921043,KSTE,2023-05-27T01:15:00Z,44.55,-89.53,19.2,-4.3,110,3,,10.0,30.28937,,,TRUE,TRUE,,,,,,,CLR,,,,,,,,VFR,,,,,,,,,,,,SPECI,335.0
KSRR 270115Z AUTO 14016G21KT 10SM CLR 19/11 A3015 RMK AO2,KSRR,2023-05-27T01:15:00Z,33.47,-105.52,19.0,11.0,140,16,21,10.0,30.15059,,,TRUE,TRUE,,,,,,,CLR,,,,,,,,VFR,,,,,,,,,,,,SPECI,2063.0
KSRE 270115Z AUTO 08003KT 7SM CLR 23/15 A3005 RMK AO2,KSRE,2023-05-27T01:15:00Z,35.27,-96.68,23.0,15.0,80,3,,7.0,30.050198,,,TRUE,TRUE,,,,,,,CLR,,,,,,,,VFR,,,,,,,,,,,,SPECI,306.0
KSRB 270115Z AUTO 00000KT 10SM BKN065 OVC075 18/17 A3011 RMK AO2,KSRB,2023-05-27T01:15:00Z,36.05,-85.53,18.0,17.0,0,0,,10.0,30.109253,,,TRUE,TRUE,,,,,,,BKN,6500,OVC,7500,,,,,VFR,,,,,,,,,,,,SPECI,303.0
KSPK 270115Z AUTO 12016G23KT 10SM CLR 19/03 A2985 RMK AO2,KSPK,2023-05-27T01:15:00Z,40.15,-111.67,19.0,3.0,120,16,23,10.0,29.84941,,,TRUE,TRUE,,,,,,,CLR,,,,,,,,VFR,,,,,,,,,,,,METAR,1381.0
KSPF 270115Z AUTO 13012G18KT 10SM CLR 20/14 A2991 RMK AO2 LTG DSNT W AND NW,KSPF,2023-05-27T01:15:00Z,44.47,-103.78,20.0,14.0,130,12,18,10.0,29.911417,,,TRUE,TRUE,,,,,,,CLR,,,,,,,,VFR,,,,,,,,,,,,SPECI,1191.0
KSPA 270115Z AUTO 06004KT 10SM CLR 17/06 A3016 RMK AO2,KSPA,2023-05-27T01:15:00Z,34.92,-81.95,17.0,6.0,60,4,,10.0,30.159449,,,TRUE,TRUE,,,,,,,CLR,,,,,,,,VFR,,,,,,,,,,,,METAR,242.0
KSOW 270115Z AUTO 20017G23KT 10SM CLR 22/M13 A3003 RMK AO2,KSOW,2023-05-27T01:15:00Z,34.27,-110.0,22.0,-13.0,200,17,23,10.0,30.029528,,,TRUE,TRUE,,,,,,,CLR,,,,,,,,VFR,,,,,,,,,,,,METAR,1954.0
KSOA 270115Z AUTO 00000G11KT 10SM FEW047 SCT055 26/17 A3002 RMK AO2,KSOA,2023-05-27T01:15:00Z,30.58,-100.65,26.0,17.0,0,0,11,10.0,30.02067,,,TRUE,TRUE,,,,,,,FEW,4700,SCT,5500,,,,,VFR,,,,,,,,,,,,METAR,654.0
KSNL 270115Z AUTO 11004KT 10SM CLR 25/13 A3006 RMK AO2 T02500132,KSNL,2023-05-27T01:15:00Z,35.35,-96.95,25.0,13.2,110,4,,10.0,30.059055,,,TRUE,TRUE,,,,,,,CLR,,,,,,,,VFR,,,,,,,,,,,,METAR,327.0
KSNK 270115Z AUTO 11005KT 10SM -VCTSRA BKN039 BKN110 23/16 A3004 RMK AO2 LTG DSNT SW AND W T02310163,KSNK,2023-05-27T01:15:00Z,32.7,-100.95,23.1,16.3,110,5,,10.0,30.041338,,,TRUE,TRUE,,,,,,VCTS -RA,BKN,3900,BKN,11000,,,,,VFR,,,,,,,,,,,,METAR,738.0
KSNC 270115Z AUTO 00000KT 10SM CLR 15/02 A3025 RMK AO2,KSNC,2023-05-27T01:15:00Z,41.38,-72.5,15.0,2.0,0,0,,10.0,30.250984,,,TRUE,TRUE,,,,,,,CLR,,,,,,,,VFR,,,,,,,,,,,,SPECI,114.0
KSMS 270115Z AUTO 03012KT 10SM BKN044 BKN070 BKN095 19/07 A3010 RMK AO2,KSMS,2023-05-27T01:15:00Z,34.0,-80.37,19.0,7.0,30,12,,10.0,30.100393,,,TRUE,TRUE,,,,,,,BKN,4400,BKN,7000,BKN,9500,,,VFR,,,,,,,,,,,,METAR,53.0
KSME 270115Z AUTO 06007KT 10SM BKN085 21/14 A3011 RMK AO2,KSME,2023-05-27T01:15:00Z,37.05,-84.62,21.0,14.0,60,7,,10.0,30.109253,,,TRUE,TRUE,,,,,,,BKN,8500,,,,,,,VFR,,,,,,,,,,,,METAR,279.0
KSLO 270115Z AUTO 00000KT 10SM CLR 19/09 A3016 RMK AO2 T01900086,KSLO,2023-05-27T01:15:00Z,38.65,-88.97,19.0,8.6,0,0,,10.0,30.159449,,,TRUE,TRUE,,,,,,,CLR,,,,,,,,VFR,,,,,,,,,,,,SPECI,173.0
KSLH 270115Z AUTO 00000KT 10SM CLR 11/08 A3030 RMK AO2,KSLH,2023-05-27T01:15:00Z,45.65,-84.52,11.0,8.0,0,0,,10.0,30.301182,,,TRUE,TRUE,,,,,,,CLR,,,,,,,,VFR,,,,,,,,,,,,SPECI,193.0
KSLB 270115Z AUTO 13008KT 10SM CLR 22/M04 A3018 RMK AO2,KSLB,2023-05-27T01:15:00Z,42.6,-95.23,22.0,-4.0,130,8,,10.0,30.180119,,,TRUE,TRUE,,,,,,,CLR,,,,,,,,VFR,,,,,,,,,,,,METAR,450.0
KSJX 270115Z AUTO 00000KT 10SM CLR 09/02 A3031 RMK AO2 T00920017,KSJX,2023-05-27T01:15:00Z,45.7,-85.57,9.2,1.7,0,0,,10.0,30.31004,,,TRUE,TRUE,,,,,,,CLR,,,,,,,,VFR,,,,,,,,,,,,METAR,202.0
KSJS 270115Z AUTO 06005KT 10SM CLR 18/08 A3017 RMK AO2 T01790084,KSJS,2023-05-27T01:15:00Z,37.75,-82.63,17.9,8.4,60,5,,10.0,30.171259,,,TRUE,TRUE,,,,,,,CLR,,,,,,,,VFR,,,,,,,,,,,,METAR,359.0
KSIK 270115Z AUTO 00000KT 10SM CLR 21/06 A3012 RMK AO2,KSIK,2023-05-27T01:15:00Z,36.9,-89.57,21.0,6.0,0,0,,10.0,30.121063,,,TRUE,TRUE,,,,,,,CLR,,,,,,,,VFR,,,,,,,,,,,,SPECI,95.0
KSHL 270115Z AUTO 14010G15KT 10SM CLR 24/M04 A3013 RMK AO2,KSHL,2023-05-27T01:15:00Z,43.22,-95.83,24.0,-4.0,140,10,15,10.0,30.129921,,,TRUE,TRUE,,,,,,,CLR,,,,,,,,VFR,,,,,,,,,,,,METAR,430.0
KSHD 270115Z AUTO 08003KT 10SM CLR 16/06 A3027 RMK AO2 T01570061,KSHD,2023-05-27T01:15:00Z,38.27,-78.9,15.7,6.1,80,3,,10.0,30.268702,,,TRUE,TRUE,,,,,,,CLR,,,,,,,,VFR,,,,,,,,,,,,METAR,360.0
KSGS 270115Z AUTO 13004KT 10SM CLR 24/M03 A3020 RMK AO2 T02361028,KSGS,2023-05-27T01:15:00Z,44.87,-93.03,23.6,-2.8,130,4,,10.0,30.200787,,,TRUE,TRUE,,,,,,,CLR,,,,,,,,VFR,,,,,,,,,,,,METAR,250.0
KSFQ 270115Z AUTO 07004KT 10SM CLR 15/07 A3023 RMK AO2 T01480070,KSFQ,2023-05-27T01:15:00Z,36.68,-76.6,14.8,7.0,70,4,,10.0,30.230314,,,TRUE,TRUE,,,,,,,CLR,,,,,,,,VFR,,,,,,,,,,,,METAR,19.0
KSEZ 270115Z AUTO 21014G22KT 10SM CLR 23/M06 A2993 RMK AO2,KSEZ,2023-05-27T01:15:00Z,34.85,-111.78,23.0,-6.0,210,14,22,10.0,29.929134,,,TRUE,TRUE,,,,,,,CLR,,,,,,,,VFR,,,,,,,,,,,,SPECI,1455.0
KSEP 270115Z AUTO 10004KT 10SM CLR 24/15 A3005 RMK AO2 T02440151,KSEP,2023-05-27T01:15:00Z,32.22,-98.17,24.4,15.1,100,4,,10.0,30.050198,,,TRUE,TRUE,,,,,,,CLR,,,,,,,,VFR,,,,,,,,,,,,SPECI,399.0
KSEM 270115Z AUTO 08004KT 10SM CLR 23/17 A3000 RMK AO2,KSEM,2023-05-27T01:15:00Z,32.35,-86.98,23.0,17.0,80,4,,10.0,30.0,,,TRUE,TRUE,,,,,,,CLR,,,,,,,,VFR,,,,,,,,,,,,SPECI,48.0
KSEF 270115Z AUTO 02013KT 10SM SCT025 SCT055 24/20 A2988 RMK AO2 T02360205,KSEF,2023-05-27T01:15:00Z,27.45,-81.35,23.6,20.5,20,13,,10.0,29.878937,,,TRUE,TRUE,,,,,,,SCT,2500,SCT,5500,,,,,VFR,,,,,,,,,,,,METAR,17.0
KSDA 270115Z AUTO 11007KT 9SM CLR 23/02 A3015 RMK AO2,KSDA,2023-05-27T01:15:00Z,40.75,-95.42,23.0,2.0,110,7,,9.0,30.15059,,,TRUE,TRUE,,,,,,,CLR,,,,,,,,VFR,,,,,,,,,,,,METAR,293.0
KSCX 270115Z AUTO 00000KT 10SM FEW050 SCT100 16/16 A3013 RMK A01,KSCX,2023-05-27T01:15:00Z,36.45,-84.58,16.0,16.0,0,0,,10.0,30.129921,,,TRUE,TRUE,,,,,,,FEW,5000,SCT,10000,,,,,VFR,,,,,,,,,,,,SPECI,462.0
KSCD 270115Z AUTO 00000KT 10SM OVC100 22/14 A3004 RMK AO2 T02190142,KSCD,2023-05-27T01:15:00Z,33.17,-86.3,21.9,14.2,0,0,,10.0,30.041338,,,TRUE,TRUE,,,,,,,OVC,10000,,,,,,,VFR,,,,,,,,,,,,METAR,164.0
KSBS 270115Z AUTO 13011G15KT 10SM SCT120 19/M02 A2995 RMK AO1 T01901017,KSBS,2023-05-27T01:15:00Z,40.52,-106.87,19.0,-1.7,130,11,15,10.0,29.949802,,,TRUE,TRUE,,,,,,,SCT,12000,,,,,,,VFR,,,,,,,,,,,,METAR,2097.0
KSAZ 270115Z AUTO 14003KT 10SM CLR 25/02 A3016 RMK AO2,KSAZ,2023-05-27T01:15:00Z,46.37,-94.8,25.0,2.0,140,3,,10.0,30.159449,,,TRUE,TRUE,,,,,,,CLR,,,,,,,,VFR,,,,,,,,,,,,METAR,391.0
KSAR 270115Z AUTO 06003KT 10SM CLR 19/05 A3016 RMK AO2 T01940053,KSAR,2023-05-27T01:15:00Z,38.15,-89.7,19.4,5.3,60,3,,10.0,30.159449,,,TRUE,TRUE,,,,,,,CLR,,,,,,,,VFR,,,,,,,,,,,,SPECI,162.0
KSAA 270115Z AUTO 30015G24KT 10SM 17/01 A3001 RMK AO2 LTG DSNT S,KSAA,2023-05-27T01:15:00Z,41.45,-106.8,17.0,1.0,300,15,24,10.0,30.008858,,,TRUE,TRUE,,,,,,,,,,,,,,,,,,,,,,,,,,,SPECI,2093.0
KS71 270115Z AUTO 00000KT 10SM 21/11 A2993 ,KS71,2023-05-27T01:15:00Z,48.6,-109.25,21.0,11.0,0,0,,10.0,29.929134,,,TRUE,,,,,,,,,,,,,,,,,,,,,,,,,,,,METAR,736.0
KS59 270115Z AUTO 00000KT 10SM 18/13 A2991 ,KS59,2023-05-27T01:15:00Z,48.28,-115.48,18.0,13.0,0,0,,10.0,29.911417,,,TRUE,,,,,,,,,,,,,,,,,,,,,,,,,,,,METAR,793.0
KS52 270115Z AUTO 10007KT 10SM BKN100 OVC120 26/06 A2983 RMK AO2 T02610060,KS52,2023-05-27T01:15:00Z,48.42,-120.15,26.1,6.0,100,7,,10.0,29.828741,,,TRUE,TRUE,,,,,,,BKN,10000,OVC,12000,,,,,VFR,,,,,,,,,,,,METAR,517.0
KS39 270115Z AUTO VRB05G17KT 3SM -RA SCT033 BKN060 OVC070 16/08 A2994 RMK AO2,KS39,2023-05-27T01:15:00Z,44.28,-120.9,16.0,8.0,0,5,17,3.0,29.940945,,,TRUE,TRUE,,,,,,-RA,SCT,3300,BKN,6000,OVC,7000,,,MVFR,,,,,,,,,,,,SPECI,987.0
KS32 270115Z AUTO 19017G26KT 10SM CLR 27/10 A3001 RMK AO2 TSNO,KS32,2023-05-27T01:15:00Z,47.42,-98.1,27.0,10.0,190,17,26,10.0,30.008858,,,TRUE,TRUE,,,TRUE,,,,CLR,,,,,,,,VFR,,,,,,,,,,,,SPECI,435.0
KS25 270115Z AUTO 11013KT 10SM BKN090 17/17 A2993 RMK AO2,KS25,2023-05-27T01:15:00Z,47.8,-103.25,17.0,17.0,110,13,,10.0,29.929134,,,TRUE,TRUE,,,,,,,BKN,9000,,,,,,,VFR,,,,,,,,,,,,SPECI,632.0
KS24 270115Z AUTO 03005KT 10SM CLR 12/06 A3028 RMK AO2,KS24,2023-05-27T01:15:00Z,41.3,-83.03,12.0,6.0,30,5,,10.0,30.280512,,,TRUE,TRUE,,,,,,,CLR,,,,,,,,VFR,,,,,,,,,,,,METAR,203.0
KS21 270115Z AUTO 23010G18KT 10SM FEW043 FEW050 BKN070 16/04 A2999 RMK AO2,KS21,2023-05-27T01:15:00Z,43.88,-121.45,16.0,4.0,230,10,18,10.0,29.991142,,,TRUE,TRUE,,,,,,,FEW,4300,FEW,5000,BKN,7000,,,VFR,,,,,,,,,,,,METAR,1269.0
KS12 270115Z AUTO 31008KT 10SM CLR 26/13 A2984 RMK AO2,KS12,2023-05-27T01:15:00Z,,,26.0,13.0,310,8,,10.0,29.840551,,,TRUE,TRUE,,,,,,,CLR,,,,,,,,VFR,,,,,,,,,,,,METAR,
KRZR 270115Z AUTO 00000KT 8SM BKN060 OVC085 22/19 A3005 RMK A01,KRZR,2023-05-27T01:15:00Z,35.22,-84.8,22.0,19.0,0,0,,8.0,30.050198,,,TRUE,TRUE,,,,,,,BKN,6000,OVC,8500,,,,,VFR,,,,,,,,,,,,SPECI,259.0
KRZL 270115Z AUTO 01007KT 10SM CLR 17/02 A3025 RMK AO2,KRZL,2023-05-27T01:15:00Z,40.95,-87.18,17.0,2.0,10,7,,10.0,30.250984,,,TRUE,TRUE,,,,,,,CLR,,,,,,,,VFR,,,,,,,,,,,,SPECI,210.0
KRYW 270115Z AUTO 10005KT 10SM CLR 25/16 A3000 RMK AO2 T02470160,KRYW,2023-05-27T01:15:00Z,30.5,-97.97,24.7,16.0,100,5,,10.0,30.0,,,TRUE,TRUE,,,,,,,CLR,,,,,,,,VFR,,,,,,,,,,,,SPECI,370.0
KRYN 270115Z AUTO 25009G15KT 10SM CLR 33/M09 A2979 RMK AO2,KRYN,2023-05-27T01:15:00Z,32.15,-111.17,33.0,-9.0,250,9,15,10.0,29.790354,,,TRUE,TRUE,,,,,,,CLR,,,,,,,,VFR,,,,,,,,,,,,SPECI,731.0
KRVL 270115Z AUTO 00000KT 10SM CLR 15/06 A3026 RMK AO2,KRVL,2023-05-27T01:15:00Z,40.68,-77.63,15.0,6.0,0,0,,10.0,30.259842,,,TRUE,TRUE,,,,,,,CLR,,,,,,,,VFR,,,,,,,,,,,,SPECI,250.0
KRVJ 270115Z AUTO 00000KT 10SM SCT037 17/08 A3005 RMK AO2 T01750081,KRVJ,2023-05-27T01:15:00Z,32.07,-82.15,17.5,8.1,0,0,,10.0,30.050198,,,TRUE,TRUE,,,,,,,SCT,3700,,,,,,,VFR,,,,,,,,,,,,METAR,60.0
KRVF 270115Z AUTO 03007KT 10SM CLR 18/08 A2994 RMK AO2 LTG DSNT S,KRVF,2023-05-27T01:15:00Z,45.53,-112.3,18.0,8.0,30,7,,10.0,29.940945,,,TRUE,TRUE,,,,,,,CLR,,,,,,,,VFR,,,,,,,,,,,,METAR,1445.0
KRUG 270115Z AUTO 19013G20KT 10SM FEW080 SCT090 SCT110 26/12 A2994 RMK AO2,KRUG,2023-05-27T01:15:00Z,48.38,-100.02,26.0,12.0,190,13,20,10.0,29.940945,,,TRUE,TRUE,,,,,,,FEW,8000,SCT,9000,SCT,11000,,,VFR,,,,,,,,,,,,SPECI,469.0
KRTS 270115Z AUTO 29012KT 10SM SCT095 SCT120 19/04 A2996 RMK AO2,KRTS,2023-05-27T01:15:00Z,39.67,-119.88,19.0,4.0,290,12,,10.0,29.958662,,,TRUE,TRUE,,,,,,,SCT,9500,SCT,12000,,,,,VFR,,,,,,,,,,,,SPECI,1537.0
KRSN 270115Z AUTO 00000KT 10SM CLR 24/17 A3001 RMK AO2 T02420173 $,KRSN,2023-05-27T01:15:00Z,32.52,-92.58,24.2,17.3,0,0,,10.0,30.008858,,,TRUE,TRUE,TRUE,,,,,,CLR,,,,,,,,VFR,,,,,,,,,,,,METAR,86.0
KRRT 270115Z AUTO 16010KT 10SM CLR 27/14 A3005 RMK AO2,KRRT,2023-05-27T01:15:00Z,48.93,-95.33,27.0,14.0,160,10,,10.0,30.050198,,,TRUE,TRUE,,,,,,,CLR,,,,,,,,VFR,,,,,,,,,,,,SPECI,327.0
KRQO 270115Z AUTO 30003KT 4SM HZ OVC090 21/18 A3008 RMK AO2 T02090182,KRQO,2023-05-27T01:15:00Z,35.47,-98.0,20.9,18.2,300,3,,4.0,30.079725,,,TRUE,TRUE,,,,,,HZ,OVC,9000,,,,,,,MVFR,,,,,,,,,,,,METAR,431.0
KRQB 270115Z AUTO 00000KT 10SM CLR 16/01 A3030 RMK AO2 T01640013,KRQB,2023-05-27T01:15:00Z,43.72,-85.5,16.4,1.3,0,0,,10.0,30.301182,,,TRUE,TRUE,,,,,,,CLR,,,,,,,,VFR,,,,,,,,,,,,SPECI,282.0
KRPJ 270115Z AUTO 08008KT 10SM CLR 19/M03 A3027 RMK AO2 T01861027 TSNO,KRPJ,2023-05-27T01:15:00Z,41.88,-89.08,18.6,-2.7,80,8,,10.0,30.268702,,,TRUE,TRUE,,,TRUE,,,,CLR,,,,,,,,VFR,,,,,,,,,,,,METAR,234.0
KRPH 270115Z AUTO 10003KT 9SM CLR 23/19 A3001 RMK AO2 T02340192 $,KRPH,2023-05-27T01:15:00Z,33.12,-98.55,23.4,19.2,100,3,,9.0,30.008858,,,TRUE,TRUE,TRUE,,,,,,CLR,,,,,,,,VFR,,,,,,,,,,,,SPECI,341.0
KRPD 270115Z AUTO 15004KT 10SM CLR 21/05 A3026 RMK AO2 T02060053,KRPD,2023-05-27T01:15:00Z,45.42,-91.77,20.6,5.3,150,4,,10.0,30.259842,,,TRUE,TRUE,,,,,,,CLR,,,,,,,,VFR,,,,,,,,,,,,METAR,334.0
KROX 270115Z AUTO 17013KT 10SM CLR 27/10 A3003 RMK AO2,KROX,2023-05-27T01:15:00Z,48.85,-95.7,27.0,10.0,170,13,,10.0,30.029528,,,TRUE,TRUE,,,,,,,CLR,,,,,,,,VFR,,,,,,,,,,,,METAR,320.0
KROS 270115Z AUTO 00000KT 10SM CLR 23/05 A3022 RMK AO2 T02320045,KROS,2023-05-27T01:15:00Z,45.7,-92.95,23.2,4.5,0,0,,10.0,30.221457,,,TRUE,TRUE,,,,,,,CLR,,,,,,,,VFR,,,,,,,,,,,,METAR,282.0
KRNP 270115Z AUTO 08003KT 10SM CLR 18/M04 A3030 RMK AO2 T01811037,KRNP,2023-05-27T01:15:00Z,43.0,-84.13,18.1,-3.7,80,3,,10.0,30.301182,,,TRUE,TRUE,,,,,,,CLR,,,,,,,,VFR,,,,,,,,,,,,METAR,224.0
KRNH 270115Z AUTO 14005KT 10SM CLR 21/07 A3024 RMK AO2 T02120071,KRNH,2023-05-27T01:15:00Z,45.15,-92.53,21.2,7.1,140,5,,10.0,30.239174,,,TRUE,TRUE,,,,,,,CLR,,,,,,,,VFR,,,,,,,,,,,,METAR,302.0
KRNC 270115Z AUTO 08005KT 10SM CLR 19/14 A3010 RMK A01,KRNC,2023-05-27T01:15:00Z,35.7,-85.85,19.0,14.0,80,5,,10.0,30.100393,,,TRUE,TRUE,,,,,,,CLR,,,,,,,,VFR,,,,,,,,,,,,SPECI,310.0
KRMY 270115Z AUTO 00000KT 10SM CLR 18/00 A3029 RMK AO2 T01790003,KRMY,2023-05-27T01:15:00Z,42.25,-84.95,17.9,0.3,0,0,,10.0,30.28937,,,TRUE,TRUE,,,,,,,CLR,,,,,,,,VFR,,,,,,,,,,,,SPECI,285.0
KRMN 270115Z AUTO 00000KT 10SM CLR 16/06 A3025 RMK AO2 T01610062,KRMN,2023-05-27T01:15:00Z,38.4,-77.45,16.1,6.2,0,0,,10.0,30.250984,,,TRUE,TRUE,,,,,,,CLR,,,,,,,,VFR,,,,,,,,,,,,METAR,50.0
KRLD 270115Z AUTO 23004KT 10SM CLR 27/07 A2981 RMK AO2 T02690071,KRLD,2023-05-27T01:15:00Z,46.3,-119.3,26.9,7.1,230,4,,10.0,29.811024,,,TRUE,TRUE,,,,,,,CLR,,,,,,,,VFR,,,,,,,,,,,,SPECI,118.0
KRKW 270115Z AUTO 02004KT 10SM CLR 18/14 A3011 RMK A01,KRKW,2023-05-27T01:15:00Z,35.92,-84.68,18.0,14.0,20,4,,10.0,30.109253,,,TRUE,TRUE,,,,,,,CLR,,,,,,,,VFR,,,,,,,,,,,,SPECI,505.0
KRKR 270115Z AUTO 00000KT 10SM BKN100 24/16 A3005 RMK AO2,KRKR,2023-05-27T01:15:00Z,35.02,-94.62,24.0,16.0,0,0,,10.0,30.050198,,,TRUE,TRUE,,,,,,,BKN,10000,,,,,,,VFR,,,,,,,,,,,,METAR,136.0
KRID 270115Z AUTO 05008KT 10SM CLR 17/01 A3022 RMK AO2,KRID,2023-05-27T01:15:00Z,39.75,-84.85,17.0,1.0,50,8,,10.0,30.221457,,,TRUE,TRUE,,,,,,,CLR,,,,,,,,VFR,,,,,,,,,,,,METAR,346.0
KRGK 270115Z AUTO 11004KT 10SM CLR 21/02 A3022 RMK AO2,KRGK,2023-05-27T01:15:00Z,44.58,-92.48,21.0,2.0,110,4,,10.0,30.221457,,,TRUE,TRUE,,,,,,,CLR,,,,,,,,VFR,,,,,,,,,,,,METAR,238.0
KRGA 270115Z AUTO 05005KT 10SM CLR 18/12 A3016 RMK AO2,KRGA,2023-05-27T01:15:00Z,37.63,-84.33,18.0,12.0,50,5,,10.0,30.159449,,,TRUE,TRUE,,,,,,,CLR,,,,,,,,VFR,,,,,,,,,,,,METAR,301.0
KRFI 270115Z AUTO 05003KT 10SM CLR 27/11 A3001 RMK AO2 T02670110,KRFI,2023-05-27T01:15:00Z,32.15,-94.85,26.7,11.0,50,3,,10.0,30.008858,,,TRUE,TRUE,,,,,,,CLR,,,,,,,,VFR,,,,,,,,,,,,SPECI,133.0
KREG 270115Z AUTO 00000KT 10SM CLR 24/20 A2995 RMK AO2 T02400195,KREG,2023-05-27T01:15:00Z,30.17,-90.93,24.0,19.5,0,0,,10.0,29.949802,,,TRUE,TRUE,,,,,,,CLR,,,,,,,,VFR,,,,,,,,,,,,METAR,3.0
KRDK 270115Z AUTO 12006KT 10SM CLR 22/00 A3017 RMK AO2,KRDK,2023-05-27T01:15:00Z,41.02,-95.27,22.0,0.0,120,6,,10.0,30.171259,,,TRUE,TRUE,,,,,,,CLR,,,,,,,,VFR,,,,,,,,,,,,METAR,317.0
KRCX 270115Z AUTO 00000KT 10SM CLR 21/05 A3028 RMK AO2 T02110050,KRCX,2023-05-27T01:15:00Z,45.5,-91.0,21.1,5.0,0,0,,10.0,30.280512,,,TRUE,TRUE,,,,,,,CLR,,,,,,,,VFR,,,,,,,,,,,,SPECI,373.0
KRCV 270115Z AUTO 22012G15KT 10SM SCT095 19/M02 A3009 RMK AO2 LTG DSNT SW T01851024,KRCV,2023-05-27T01:15:00Z,37.72,-106.35,18.5,-2.4,220,12,15,10.0,30.088583,,,TRUE,TRUE,,,,,,,SCT,9500,,,,,,,VFR,,,,,,,,,,,,SPECI,2418.0
KRCR 270115Z AUTO 00000KT 10SM CLR 18/M01 A3026 RMK AO2,KRCR,2023-05-27T01:15:00Z,41.07,-86.18,18.0,-1.0,0,0,,10.0,30.259842,,,TRUE,TRUE,,,,,,,CLR,,,,,,,,VFR,,,,,,,,,,,,METAR,240.0
KRCM 270115Z AUTO 04004KT 10SM CLR 20/02 A3015 RMK AO2,KRCM,2023-05-27T01:15:00Z,38.78,-93.8,20.0,2.0,40,4,,10.0,30.15059,,,TRUE,TRUE,,,,,,,CLR,,,,,,,,VFR,,,,,,,,,,,,SPECI,242.0
KRBW 270115Z AUTO 01006KT 10SM RA SCT036 BKN046 BKN050 13/13 A3006 RMK AO2 P0002,KRBW,2023-05-27T01:15:00Z,32.92,-80.63,13.0,13.0,10,6,,10.0,30.059055,,,TRUE,TRUE,,,,,,RA,SCT,3600,BKN,4600,BKN,5000,,,VFR,,,,,,0.02,,,,,,METAR,30.0
KRBO 270115Z AUTO 11006KT 10SM CLR A2995 RMK AO2,KRBO,2023-05-27T01:15:00Z,27.78,-97.68,,,110,6,,10.0,29.949802,,,TRUE,TRUE,,,,,,,CLR,,,,,,,,VFR,,,,,,,,,,,,METAR,24.0
KRAW 270115Z AUTO 08004KT 10SM CLR 20/05 A3016 RMK AO2,KRAW,2023-05-27T01:15:00Z,38.35,-93.35,20.0,5.0,80,4,,10.0,30.159449,,,TRUE,TRUE,,,,,,,CLR,,,,,,,,VFR,,,,,,,,,,,,SPECI,285.0
KRAS 270115Z AUTO 10010KT 10SM CLR 27/21 A2996 RMK AO2 T02690213,KRAS,2023-05-27T01:15:00Z,27.82,-97.08,26.9,21.3,100,10,,10.0,29.958662,,,TRUE,TRUE,,,,,,,CLR,,,,,,,,VFR,,,,,,,,,,,,METAR,3.0
KPZZ 270115Z AUTO 08015G21KT 10SM CLR 26/16 A2996 RMK A01,KPZZ,2023-05-27T01:15:00Z,28.43,-91.03,26.0,16.0,80,15,21,10.0,29.958662,,,TRUE,TRUE,,,,,,,CLR,,,,,,,,VFR,,,,,,,,,,,,METAR,25.0
KPZQ 270115Z AUTO 00000KT 10SM CLR 11/05 A3033 RMK AO2 T01110048,KPZQ,2023-05-27T01:15:00Z,45.4,-83.82,11.1,4.8,0,0,,10.0,30.33071,,,TRUE,TRUE,,,,,,,CLR,,,,,,,,VFR,,,,,,,,,,,,METAR,199.0
KPYX 270115Z AUTO 14011G17KT 10SM CLR 18/12 A3006 RMK AO2 T01790122,KPYX,2023-05-27T01:15:00Z,36.42,-100.75,17.9,12.2,140,11,17,10.0,30.059055,,,TRUE,TRUE,,,,,,,CLR,,,,,,,,VFR,,,,,,,,,,,,SPECI,890.0
KPXE 270115Z AUTO 06007G15KT 10SM CLR 20/09 A3007 RMK AO2 T02010095,KPXE,2023-05-27T01:15:00Z,32.52,-83.77,20.1,9.5,60,7,15,10.0,30.070866,,,TRUE,TRUE,,,,,,,CLR,,,,,,,,VFR,,,,,,,,,,,,METAR,126.0
KPWD 270115Z AUTO 36015KT 10SM FEW040 20/13 A2994 RMK AO2,KPWD,2023-05-27T01:15:00Z,48.78,-104.52,20.0,13.0,360,15,,10.0,29.940945,,,TRUE,TRUE,,,,,,,FEW,4000,,,,,,,VFR,,,,,,,,,,,,METAR,690.0
KPWC 270115Z AUTO 17004KT 10SM CLR 23/07 A3020 RMK AO2,KPWC,2023-05-27T01:15:00Z,46.72,-94.38,23.0,7.0,170,4,,10.0,30.200787,,,TRUE,TRUE,,,,,,,CLR,,,,,,,,VFR,,,,,,,,,,,,METAR,394.0
KPVJ 270115Z AUTO 00000KT 10SM OVC100 23/18 A3003 RMK AO2 T02270181,KPVJ,2023-05-27T01:15:00Z,34.72,-97.22,22.7,18.1,0,0,,10.0,30.029528,,,TRUE,TRUE,,,,,,,OVC,10000,,,,,,,VFR,,,,,,,,,,,,METAR,287.0
KPVF 270115Z AUTO 24004KT 10SM CLR 20/10 A2995 RMK AO1,KPVF,2023-05-27T01:15:00Z,38.72,-120.75,20.0,10.0,240,4,,10.0,29.949802,,,TRUE,TRUE,,,,,,,CLR,,,,,,,,VFR,,,,,,,,,,,,SPECI,788.0
KPVE 270115Z AUTO 04004KT 10SM CLR 20/10 A3009 RMK A01,KPVE,2023-05-27T01:15:00Z,35.65,-88.2,20.0,10.0,40,4,,10.0,30.088583,,,TRUE,TRUE,,,,,,,CLR,,,,,,,,VFR,,,,,,,,,,,,SPECI,146.0
KPVB 270115Z AUTO 08006KT 10SM CLR 19/M04 A3026 RMK AO1 T01921039,KPVB,2023-05-27T01:15:00Z,42.68,-90.43,19.2,-3.9,80,6,,10.0,30.259842,,,TRUE,TRUE,,,,,,,CLR,,,,,,,,VFR,,,,,,,,,,,,METAR,311.0
KPUJ 270115Z AUTO 00000KT 10SM CLR 18/12 A3010 RMK AO2,KPUJ,2023-05-27T01:15:00Z,33.92,-84.93,18.0,12.0,0,0,,10.0,30.100393,,,TRUE,TRUE,,,,,,,CLR,,,,,,,,VFR,,,,,,,,,,,,METAR,385.0
KPTS 270115Z AUTO 08003KT 10SM CLR 22/08 A3010 RMK AO2 T02190076 PWINO,KPTS,2023-05-27T01:15:00Z,37.45,-94.73,21.9,7.6,80,3,,10.0,30.100393,,,TRUE,TRUE,,,,,TRUE,,CLR,,,,,,,,VFR,,,,,,,,,,,,SPECI,286.0
KPTD 270115Z AUTO 00000KT 10SM CLR 12/06 A3027 RMK AO2,KPTD,2023-05-27T01:15:00Z,44.68,-74.95,12.0,6.0,0,0,,10.0,30.268702,,,TRUE,TRUE,,,,,,,CLR,,,,,,,,VFR,,,,,,,,,,,,SPECI,144.0
KPTB 270115Z AUTO 00000KT 10SM CLR 13/08 A3025 RMK AO2 T01310075,KPTB,2023-05-27T01:15:00Z,37.17,-77.52,13.1,7.5,0,0,,10.0,30.250984,,,TRUE,TRUE,,,,,,,CLR,,,,,,,,VFR,,,,,,,,,,,,SPECI,56.0
KPSO 270115Z AUTO 12004KT 10SM CLR 18/00 A3009 RMK AO2 T01820000,KPSO,2023-05-27T01:15:00Z,37.28,-107.05,18.2,0.0,120,4,,10.0,30.088583,,,TRUE,TRUE,,,,,,,CLR,,,,,,,,VFR,,,,,,,,,,,,METAR,2332.0
KPSN 270115Z AUTO 06004KT 8SM CLR 24/17 A2998 RMK AO2,KPSN,2023-05-27T01:15:00Z,31.78,-95.7,24.0,17.0,60,4,,8.0,29.97933,,,TRUE,TRUE,,,,,,,CLR,,,,,,,,VFR,,,,,,,,,,,,METAR,124.0
KPSK 270115Z AUTO 10005KT 10SM CLR 14/06 A3024 RMK AO2 T01430057,KPSK,2023-05-27T01:15:00Z,37.13,-80.67,14.3,5.7,100,5,,10.0,30.239174,,,TRUE,TRUE,,,,,,,CLR,,,,,,,,VFR,,,,,,,,,,,,METAR,629.0
KPRS 270115Z AUTO 07013G19KT 10SM CLR 32/18 A2986 RMK AO2 T03210176,KPRS,2023-05-27T01:15:00Z,29.63,-104.35,32.1,17.6,70,13,19,10.0,29.861221,,,TRUE,TRUE,,,,,,,CLR,,,,,,,,VFR,,,,,,,,,,,,SPECI,890.0
KPRO 270115Z AUTO 13006KT 10SM CLR 23/00 A3020 RMK AO2 T02251003,KPRO,2023-05-27T01:15:00Z,41.83,-94.17,22.5,-0.3,130,6,,10.0,30.200787,,,TRUE,TRUE,,,,,,,CLR,,,,,,,,VFR,,,,,,,,,,,,METAR,308.0
KPRG 270115Z AUTO 06004KT 10SM CLR 20/05 A3019 RMK AO2 T01950046,KPRG,2023-05-27T01:15:00Z,39.7,-87.67,19.5,4.6,60,4,,10.0,30.188976,,,TRUE,TRUE,,,,,,,CLR,,,,,,,,VFR,,,,,,,,,,,,METAR,197.0
KPPQ 270115Z AUTO 00000KT 10SM CLR 21/03 A3019 RMK AO2 T02050030,KPPQ,2023-05-27T01:15:00Z,39.63,-90.78,20.5,3.0,0,0,,10.0,30.188976,,,TRUE,TRUE,,,,,,,CLR,,,,,,,,VFR,,,,,,,,,,,,METAR,215.0
KPPO 270115Z AUTO 01007KT 10SM CLR 14/M01 A3027 RMK AO2 T01391008,KPPO,2023-05-27T01:15:00Z,41.57,-86.73,13.9,-0.8,10,7,,10.0,30.268702,,,TRUE,TRUE,,,,,,,CLR,,,,,,,,VFR,,,,,,,,,,,,SPECI,242.0
KPPA 270115Z AUTO 14013G17KT 10SM 20/16 A3009 RMK AO2 T02010155,KPPA,2023-05-27T01:15:00Z,35.62,-101.0,20.1,15.5,140,13,17,10.0,30.088583,,,TRUE,TRUE,,,,,,,,,,,,,,,,,,,,,,,,,,,METAR,989.0
KPOY 270115Z AUTO 11010KT 10SM CLR 11/08 A2994 RMK AO2 LTG DSNT NE,KPOY,2023-05-27T01:15:00Z,44.87,-108.8,11.0,8.0,110,10,,10.0,29.940945,,,TRUE,TRUE,,,,,,,CLR,,,,,,,,VFR,,,,,,,,,,,,METAR,1547.0
KPOV 270115Z AUTO 03004KT 10SM CLR 14/00 A3028 RMK AO2 T01361002 PWINO,KPOV,2023-05-27T01:15:00Z,41.22,-81.25,13.6,-0.2,30,4,,10.0,30.280512,,,TRUE,TRUE,,,,,TRUE,,CLR,,,,,,,,VFR,,,,,,,,,,,,METAR,363.0
KPO1 270115Z AUTO 04010G16KT 10SM FEW049 SCT060 SCT070 23/15 A2990 RMK AO2,KPO1,2023-05-27T01:15:00Z,48.13,-105.17,23.0,15.0,40,10,16,10.0,29.899607,,,TRUE,TRUE,,,,,,,FEW,4900,SCT,6000,SCT,7000,,,VFR,,,,,,,,,,,,SPECI,621.0
KPNT 270115Z AUTO 06012KT 10SM CLR 20/00 A3024 RMK AO2 T01981002,KPNT,2023-05-27T01:15:00Z,40.92,-88.62,19.8,-0.2,60,12,,10.0,30.239174,,,TRUE,TRUE,,,,,,,CLR,,,,,,,,VFR,,,,,,,,,,,,METAR,199.0
KPNM 270115Z AUTO 12005KT 10SM CLR 23/03 A3020 RMK AO2,KPNM,2023-05-27T01:15:00Z,45.53,-93.6,23.0,3.0,120,5,,10.0,30.200787,,,TRUE,TRUE,,,,,,,CLR,,,,,,,,VFR,,,,,,,,,,,,METAR,298.0
KPNA 270115Z AUTO 09003KT 10SM CLR 10/02 A3006 RMK AO2,KPNA,2023-05-27T01:15:00Z,42.8,-109.8,10.0,2.0,90,3,,10.0,30.059055,,,TRUE,TRUE,,,,,,,CLR,,,,,,,,VFR,,,,,,,,,,,,METAR,2158.0
KPMV 270115Z AUTO 12008KT 10SM CLR 23/02 A3014 RMK AO2 T02300019,KPMV,2023-05-27T01:15:00Z,40.95,-95.92,23.0,1.9,120,8,,10.0,30.138779,,,TRUE,TRUE,,,,,,,CLR,,,,,,,,VFR,,,,,,,,,,,,METAR,365.0
KPMU 270115Z AUTO 00000KT 10SM FEW120 23/13 A3004 RMK AO2,KPMU,2023-05-27T01:15:00Z,34.37,-89.9,23.0,13.0,0,0,,10.0,30.041338,,,TRUE,TRUE,,,,,,,FEW,12000,,,,,,,VFR,,,,,,,,,,,,METAR,67.0
KPLU 270115Z AUTO 00000KT 10SM CLR 27/10 A2986 RMK AO2,KPLU,2023-05-27T01:15:00Z,47.1,-122.28,27.0,10.0,0,0,,10.0,29.861221,,,TRUE,TRUE,,,,,,,CLR,,,,,,,,VFR,,,,,,,,,,,,SPECI,164.0
KPLR 270115Z AUTO 00000KT 10SM CLR 18/17 A3005 RMK A01,KPLR,2023-05-27T01:15:00Z,33.57,-86.25,18.0,17.0,0,0,,10.0,30.050198,,,TRUE,TRUE,,,,,,,CLR,,,,,,,,VFR,,,,,,,,,,,,METAR,145.0
KPLD 270115Z AUTO 04005KT 10SM CLR 17/M02 A3024 RMK AO2,KPLD,2023-05-27T01:15:00Z,40.45,-84.98,17.0,-2.0,40,5,,10.0,30.239174,,,TRUE,TRUE,,,,,,,CLR,,,,,,,,VFR,,,,,,,,,,,,SPECI,282.0
KPKV 270115Z AUTO 15006KT 10SM SCT070 BKN085 27/20 A2996 RMK AO2 T02710200,KPKV,2023-05-27T01:15:00Z,28.65,-96.68,27.1,20.0,150,6,,10.0,29.958662,,,TRUE,TRUE,,,,,,,SCT,7000,BKN,8500,,,,,VFR,,,,,,,,,,,,SPECI,8.0
KPJC 270115Z AUTO 34003KT 10SM CLR 12/05 A3025 RMK AO2,KPJC,2023-05-27T01:15:00Z,40.8,-80.17,12.0,5.0,340,3,,10.0,30.250984,,,TRUE,TRUE,,,,,,,CLR,,,,,,,,VFR,,,,,,,,,,,,METAR,273.0
KPIM 270115Z AUTO 08004KT 10SM CLR 19/13 A3007 RMK AO2 T01910134,KPIM,2023-05-27T01:15:00Z,32.83,-84.88,19.1,13.4,80,4,,10.0,30.070866,,,TRUE,TRUE,,,,,,,CLR,,,,,,,,VFR,,,,,,,,,,,,METAR,274.0
KPHT 270115Z AUTO 00000KT 10SM CLR 18/10 A3010 RMK A01,KPHT,2023-05-27T01:15:00Z,36.33,-88.38,18.0,10.0,0,0,,10.0,30.100393,,,TRUE,TRUE,,,,,,,CLR,,,,,,,,VFR,,,,,,,,,,,,SPECI,172.0
KPHN 270115Z AUTO 00000KT 10SM CLR 11/00 A3034 RMK AO2,KPHN,2023-05-27T01:15:00Z,42.92,-82.52,11.0,0.0,0,0,,10.0,30.339567,,,TRUE,TRUE,,,,,,,CLR,,,,,,,,VFR,,,,,,,,,,,,SPECI,195.0
KPEZ 270115Z AUTO 10005KT 10SM CLR 28/18 A2994 RMK AO2 T02790182,KPEZ,2023-05-27T01:15:00Z,28.95,-98.52,27.9,18.2,100,5,,10.0,29.940945,,,TRUE,TRUE,,,,,,,CLR,,,,,,,,VFR,,,,,,,,,,,,SPECI,126.0
KPEX 270115Z AUTO 13005KT 10SM CLR 24/03 A3018 RMK AO2,KPEX,2023-05-27T01:15:00Z,45.37,-94.73,24.0,3.0,130,5,,10.0,30.180119,,,TRUE,TRUE,,,,,,,CLR,,,,,,,,VFR,,,,,,,,,,,,SPECI,359.0
KPEQ 270115Z AUTO 11019G22KT 10SM CLR 26/16 A2993 RMK AO2 LTG DSNT NW T02630155,KPEQ,2023-05-27T01:15:00Z,31.38,-103.52,26.3,15.5,110,19,22,10.0,29.929134,,,TRUE,TRUE,,,,,,,CLR,,,,,,,,VFR,,,,,,,,,,,,METAR,794.0
KPEA 270115Z AUTO 11005KT 10SM CLR 21/00 A3022 RMK AO2 T02081003,KPEA,2023-05-27T01:15:00Z,41.4,-92.95,20.8,-0.3,110,5,,10.0,30.221457,,,TRUE,TRUE,,,,,,,CLR,,,,,,,,VFR,,,,,,,,,,,,METAR,264.0
KPDC 270115Z AUTO 08003KT 10SM CLR 20/02 A3025 RMK AO2 T02000018,KPDC,2023-05-27T01:15:00Z,43.02,-91.12,20.0,1.8,80,3,,10.0,30.250984,,,TRUE,TRUE,,,,,,,CLR,,,,,,,,VFR,,,,,,,,,,,,METAR,201.0
KPCZ 270115Z AUTO 11004KT 10SM CLR 20/00 A3029 RMK AO2 T01971003,KPCZ,2023-05-27T01:15:00Z,44.33,-89.02,19.7,-0.3,110,4,,10.0,30.28937,,,TRUE,TRUE,,,,,,,CLR,,,,,,,,VFR,,,,,,,,,,,,METAR,248.0
KPCW 270115Z AUTO 07007KT 10SM CLR 14/05 A3028 RMK AO2,KPCW,2023-05-27T01:15:00Z,41.52,-82.87,14.0,5.0,70,7,,10.0,30.280512,,,TRUE,TRUE,,,,,,,CLR,,,,,,,,VFR,,,,,,,,,,,,SPECI,179.0
KPCM 270115Z AUTO 02007KT 10SM SCT120 23/20 A2993 RMK AO2,KPCM,2023-05-27T01:15:00Z,28.0,-82.17,23.0,20.0,20,7,,10.0,29.929134,,,TRUE,TRUE,,,,,,,SCT,12000,,,,,,,VFR,,,,,,,,,,,,METAR,43.0
KPCD 270115Z AUTO 04004KT 10SM CLR 19/08 A3015 RMK AO2 T01910080,KPCD,2023-05-27T01:15:00Z,37.87,-89.87,19.1,8.0,40,4,,10.0,30.15059,,,TRUE,TRUE,,,,,,,CLR,,,,,,,,VFR,,,,,,,,,,,,SPECI,112.0
KPBX 270115Z AUTO 03005KT 10SM CLR 18/08 A3017 RMK AO2 T01840084,KPBX,2023-05-27T01:15:00Z,37.57,-82.57,18.4,8.4,30,5,,10.0,30.171259,,,TRUE,TRUE,,,,,,,CLR,,,,,,,,VFR,,,,,,,,,,,,METAR,447.0
KPBH 270115Z AUTO 00000KT 10SM CLR 19/01 A3027 RMK AO2 T01890006,KPBH,2023-05-27T01:15:00Z,45.7,-90.4,18.9,0.6,0,0,,10.0,30.268702,,,TRUE,TRUE,,,,,,,CLR,,,,,,,,VFR,,,,,,,,,,,,SPECI,445.0
KPAN 270115Z AUTO 22009G18KT 10SM CLR 23/M05 A2998 RMK AO2 PWINO TSNO,KPAN,2023-05-27T01:15:00Z,34.25,-111.33,23.0,-5.0,220,9,18,10.0,29.97933,,,TRUE,TRUE,,,TRUE,,TRUE,,CLR,,,,,,,,VFR,,,,,,,,,,,,SPECI,1575.0
KP52 270115Z AUTO 17010G17KT 140V210 10SM CLR 26/M03 A2985 RMK AO2,KP52,2023-05-27T01:15:00Z,34.73,-112.03,26.0,-3.0,170,10,17,10.0,29.84941,,,TRUE,TRUE,,,,,,,CLR,,,,,,,,VFR,,,,,,,,,,,,METAR,1085.0
KP08 270115Z AUTO 24013KT 10SM CLR 34/M09 A2975 RMK AO2,KP08,2023-05-27T01:15:00Z,32.93,-111.43,34.0,-9.0,240,13,,10.0,29.749016,,,TRUE,TRUE,,,,,,,CLR,,,,,,,,VFR,,,,,,,,,,,,SPECI,477.0
KOZW 270115Z AUTO 04004KT 10SM CLR 17/00 A3030 RMK AO2 T01680001,KOZW,2023-05-27T01:15:00Z,42.62,-83.98,16.8,0.1,40,4,,10.0,30.301182,,,TRUE,TRUE,,,,,,,CLR,,,,,,,,VFR,,,,,,,,,,,,METAR,288.0
KOZS 270115Z AUTO 08004KT 10SM CLR 20/04 A3016 RMK AO2,KOZS,2023-05-27T01:15:00Z,37.97,-92.68,20.0,4.0,80,4,,10.0,30.159449,,,TRUE,TRUE,,,,,,,CLR,,,,,,,,VFR,,,,,,,,,,,,METAR,321.0
KOYM 270115Z AUTO 00000KT 10SM OVC100 14/02 A3032 RMK AO2 PWINO,KOYM,2023-05-27T01:15:00Z,41.42,-78.5,14.0,2.0,0,0,,10.0,30.318897,,,TRUE,TRUE,,,,,TRUE,,OVC,10000,,,,,,,VFR,,,,,,,,,,,,SPECI,582.0
KOXV 270115Z AUTO 10003KT 10SM CLR 21/M00 A3020 RMK AO2,KOXV,2023-05-27T01:15:00Z,41.28,-93.12,21.0,0.0,100,3,,10.0,30.200787,,,TRUE,TRUE,,,,,,,CLR,,,,,,,,VFR,,,,,,,,,,,,METAR,280.0
KOXI 270115Z AUTO 01007KT 10SM CLR 15/02 A3025 RMK AO1,KOXI,2023-05-27T01:15:00Z,41.33,-86.67,15.0,2.0,10,7,,10.0,30.250984,,,TRUE,TRUE,,,,,,,CLR,,,,,,,,VFR,,,,,,,,,,,,METAR,208.0
KOWX 270115Z AUTO 06008KT 10SM CLR 15/M03 A3029 RMK AO1,KOWX,2023-05-27T01:15:00Z,41.03,-83.98,15.0,-3.0,60,8,,10.0,30.28937,,,TRUE,TRUE,,,,,,,CLR,,,,,,,,VFR,,,,,,,,,,,,METAR,232.0
KOWI 270115Z AUTO 08007KT 10SM CLR 21/07 A3012 RMK AO2 PWINO,KOWI,2023-05-27T01:15:00Z,38.53,-95.25,21.0,7.0,80,7,,10.0,30.121063,,,TRUE,TRUE,,,,,TRUE,,CLR,,,,,,,,VFR,,,,,,,,,,,,SPECI,292.0
KOVL 270115Z AUTO 14009KT 10SM CLR 25/M05 A3016 RMK AO2,KOVL,2023-05-27T01:15:00Z,44.78,-95.03,25.0,-5.0,140,9,,10.0,30.159449,,,TRUE,TRUE,,,,,,,CLR,,,,,,,,VFR,,,,,,,,,,,,METAR,329.0
KOSC 270115Z AUTO 15003KT 10SM CLR 14/00 A3032 RMK AO2 T01401001,KOSC,2023-05-27T01:15:00Z,44.45,-83.4,14.0,-0.1,150,3,,10.0,30.318897,,,TRUE,TRUE,,,,,,,CLR,,,,,,,,VFR,,,,,,,,,,,,SPECI,191.0
KOSA 270115Z AUTO 08003KT 10SM CLR 24/16 A3001 RMK AO2 T02430162,KOSA,2023-05-27T01:15:00Z,33.1,-94.97,24.3,16.2,80,3,,10.0,30.008858,,,TRUE,TRUE,,,,,,,CLR,,,,,,,,VFR,,,,,,,,,,,,SPECI,108.0
KORS 270115Z AUTO 00000KT 10SM CLR 22/13 A2983 RMK AO2,KORS,2023-05-27T01:15:00Z,48.7,-122.92,22.0,13.0,0,0,,10.0,29.828741,,,TRUE,TRUE,,,,,,,CLR,,,,,,,,VFR,,,,,,,,,,,,SPECI,7.0
KORK 270115Z AUTO 04005KT 10SM CLR 22/09 A3006 RMK AO2,KORK,2023-05-27T01:15:00Z,34.83,-92.25,22.0,9.0,40,5,,10.0,30.059055,,,TRUE,TRUE,,,,,,,CLR,,,,,,,,VFR,,,,,,,,,,,,METAR,166.0
KORG 270115Z AUTO 10008KT 10SM OVC075 28/14 A2998 RMK AO2 T02780142,KORG,2023-05-27T01:15:00Z,30.07,-93.8,27.8,14.2,100,8,,10.0,29.97933,,,TRUE,TRUE,,,,,,,OVC,7500,,,,,,,VFR,,,,,,,,,,,,METAR,2.0
KOQN 270115Z AUTO 17004KT 10SM CLR 16/08 A3027 RMK AO2,KOQN,2023-05-27T01:15:00Z,39.98,-75.58,16.0,8.0,170,4,,10.0,30.268702,,,TRUE,TRUE,,,,,,,CLR,,,,,,,,VFR,,,,,,,,,,,,METAR,141.0
KOPN 270115Z AUTO 10005KT 10SM CLR 20/08 A3010 RMK AO2,KOPN,2023-05-27T01:15:00Z,32.95,-84.27,20.0,8.0,100,5,,10.0,30.100393,,,TRUE,TRUE,,,,,,,CLR,,,,,,,,VFR,,,,,,,,,,,,METAR,241.0
KOPL 270115Z AUTO 02003KT 10SM SCT075 25/15 A2997 RMK AO2 T02490151,KOPL,2023-05-27T01:15:00Z,30.55,-92.1,24.9,15.1,20,3,,10.0,29.970472,,,TRUE,TRUE,,,,,,,SCT,7500,,,,,,,VFR,,,,,,,,,,,,METAR,22.0
KOOA 270115Z AUTO 08005KT 10SM CLR 21/01 A3022 RMK AO2 T02140006,KOOA,2023-05-27T01:15:00Z,41.23,-92.5,21.4,0.6,80,5,,10.0,30.221457,,,TRUE,TRUE,,,,,,,CLR,,,,,,,,VFR,,,,,,,,,,,,METAR,256.0
KONZ 270115Z AUTO 00000KT 10SM CLR 14/09 A3030 RMK AO2 T01420088,KONZ,2023-05-27T01:15:00Z,42.1,-83.15,14.2,8.8,0,0,,10.0,30.301182,,,TRUE,TRUE,,,,,,,CLR,,,,,,,,VFR,,,,,,,,,,,,SPECI,179.0
KONP 270115Z AUTO 25003KT 1 1/2SM BR OVC004 12/11 A3001 RMK AO2,KONP,2023-05-27T01:15:00Z,44.57,-124.05,12.0,11.0,250,3,,1.5,30.008858,,,TRUE,TRUE,,,,,,BR,OVC,400,,,,,,,LIFR,,,,,,,,,,,,SPECI,43.0
KONM 270115Z AUTO 17018G28KT 10SM CLR 30/M11 A2988 RMK AO2 T02981106,KONM,2023-05-27T01:15:00Z,34.02,-106.9,29.8,-10.6,170,18,28,10.0,29.878937,,,TRUE,TRUE,,,,,,,CLR,,,,,,,,VFR,,,,,,,,,,,,METAR,1467.0
KONL 270115Z AUTO 15011G18KT 10SM CLR 24/10 A3007 RMK AO2 T02370099,KONL,2023-05-27T01:15:00Z,42.47,-98.68,23.7,9.9,150,11,18,10.0,30.070866,,,TRUE,TRUE,,,,,,,CLR,,,,,,,,VFR,,,,,,,,,,,,METAR,619.0
KONA 270115Z AUTO 00000KT 10SM CLR 20/05 A3025 RMK AO2,KONA,2023-05-27T01:15:00Z,44.07,-91.7,20.0,5.0,0,0,,10.0,30.250984,,,TRUE,TRUE,,,,,,,CLR,,,,,,,,VFR,,,,,,,,,,,,METAR,200.0
KOMH 270115Z AUTO 00000KT 10SM CLR 13/08 A3026 RMK AO2,KOMH,2023-05-27T01:15:00Z,38.25,-78.05,13.0,8.0,0,0,,10.0,30.259842,,,TRUE,TRUE,,,,,,,CLR,,,,,,,,VFR,,,,,,,,,,,,METAR,136.0
KOLZ 270115Z AUTO 09005KT 10SM CLR 20/M01 A3025 RMK A01,KOLZ,2023-05-27T01:15:00Z,42.67,-91.97,20.0,-1.0,90,5,,10.0,30.250984,,,TRUE,TRUE,,,,,,,CLR,,,,,,,,VFR,,,,,,,,,,,,METAR,328.0
KOLG 270115Z AUTO 16005KT 10SM CLR 19/00 A3023 RMK AO1,KOLG,2023-05-27T01:15:00Z,46.3,-91.82,19.0,0.0,160,5,,10.0,30.230314,,,TRUE,TRUE,,,,,,,CLR,,,,,,,,VFR,,,,,,,,,,,,SPECI,334.0
KOKZ 270115Z AUTO 02007KT 10SM BKN120 20/07 A3009 RMK AO2 T01960070,KOKZ,2023-05-27T01:15:00Z,32.97,-82.83,19.6,7.0,20,7,,10.0,30.088583,,,TRUE,TRUE,,,,,,,BKN,12000,,,,,,,VFR,,,,,,,,,,,,METAR,128.0
KOKV 270115Z AUTO 00000KT 10SM CLR 12/06 A3024 RMK AO2,KOKV,2023-05-27T01:15:00Z,39.13,-78.15,12.0,6.0,0,0,,10.0,30.239174,,,TRUE,TRUE,,,,,,,CLR,,,,,,,,VFR,,,,,,,,,,,,METAR,213.0
KOKM 270115Z AUTO 08005KT 10SM CLR 24/16 A3004 RMK AO2 T02400161,KOKM,2023-05-27T01:15:00Z,35.67,-95.95,24.0,16.1,80,5,,10.0,30.041338,,,TRUE,TRUE,,,,,,,CLR,,,,,,,,VFR,,,,,,,,,,,,METAR,215.0
KOJA 270115Z AUTO 10007KT 10SM SCT046 SCT055 OVC120 21/17 A3007 RMK AO2 T02080168,KOJA,2023-05-27T01:15:00Z,35.55,-98.67,20.8,16.8,100,7,,10.0,30.070866,,,TRUE,TRUE,,,,,,,SCT,4600,SCT,5500,OVC,12000,,,VFR,,,,,,,,,,,,METAR,490.0
KOIN 270115Z AUTO 16010KT 10SM SCT060 BKN070 BKN090 22/14 A3010 RMK AO1 T02210140,KOIN,2023-05-27T01:15:00Z,39.83,-100.53,22.1,14.0,160,10,,10.0,30.100393,,,TRUE,TRUE,,,,,,,SCT,6000,BKN,7000,BKN,9000,,,VFR,,,,,,,,,,,,SPECI,810.0
KOIC 270115Z AUTO 00000KT 10SM CLR 11/05 A3031 RMK AO2 T01070045 PWINO,KOIC,2023-05-27T01:15:00Z,42.57,-75.52,10.7,4.5,0,0,,10.0,30.31004,,,TRUE,TRUE,,,,,TRUE,,CLR,,,,,,,,VFR,,,,,,,,,,,,SPECI,311.0
KOGS 270115Z AUTO 20004KT 10SM CLR 14/06 A3025 RMK AO2,KOGS,2023-05-27T01:15:00Z,44.67,-75.47,14.0,6.0,200,4,,10.0,30.250984,,,TRUE,TRUE,,,,,,,CLR,,,,,,,,VFR,,,,,,,,,,,,METAR,88.0
KOGA 270115Z AUTO 12011G16KT 10SM BKN050 21/17 A3003 RMK AO2 T02100169,KOGA,2023-05-27T01:15:00Z,41.12,-101.77,21.0,16.9,120,11,16,10.0,30.029528,,,TRUE,TRUE,,,,,,,BKN,5000,,,,,,,VFR,,,,,,,,,,,,METAR,991.0
KOEO 270115Z AUTO 13004KT 10SM CLR 21/05 A3025 RMK AO2 T02080048,KOEO,2023-05-27T01:15:00Z,45.32,-92.7,20.8,4.8,130,4,,10.0,30.250984,,,TRUE,TRUE,,,,,,,CLR,,,,,,,,VFR,,,,,,,,,,,,SPECI,269.0
KOEL 270115Z AUTO 17016G22KT 10SM SCT046 BKN060 OVC075 22/12 A3007 RMK AO1 T02200121,KOEL,2023-05-27T01:15:00Z,39.12,-100.82,22.0,12.1,170,16,22,10.0,30.070866,,,TRUE,TRUE,,,,,,,SCT,4600,BKN,6000,OVC,7500,,,VFR,,,,,,,,,,,,SPECI,924.0
KOEB 270115Z AUTO 11004KT 10SM CLR 18/00 A3029 RMK AO2 T01801002,KOEB,2023-05-27T01:15:00Z,41.92,-85.05,18.0,-0.2,110,4,,10.0,30.28937,,,TRUE,TRUE,,,,,,,CLR,,,,,,,,VFR,,,,,,,,,,,,METAR,291.0
KOBE 270115Z AUTO 35005KT 10SM FEW023 FEW028 FEW120 23/23 A2985 RMK AO2,KOBE,2023-05-27T01:15:00Z,27.27,-80.85,23.0,23.0,350,5,,10.0,29.84941,,,TRUE,TRUE,,,,,,,FEW,2300,FEW,2800,FEW,12000,,,VFR,,,,,,,,,,,,METAR,11.0
KOAR 270115Z AUTO 29012KT 10SM OVC018 14/09 A2997 RMK AO2 PWINO,KOAR,2023-05-27T01:15:00Z,36.67,-121.77,14.0,9.0,290,12,,10.0,29.970472,,,TRUE,TRUE,,,,,TRUE,,OVC,1800,,,,,,,MVFR,,,,,,,,,,,,SPECI,41.0
KO69 270115Z AUTO 30005G11KT 10SM OVC018 13/10 A2995 RMK A01,KO69,2023-05-27T01:15:00Z,38.25,-122.6,13.0,10.0,300,5,11,10.0,29.949802,,,TRUE,TRUE,,,,,,,OVC,1800,,,,,,,MVFR,,,,,,,,,,,,SPECI,26.0
KO32 270115Z AUTO 30006KT 10SM CLR 26/11 A2983 RMK AO2 T02640111 $,KO32,2023-05-27T01:15:00Z,36.67,-119.45,26.4,11.1,300,6,,10.0,29.828741,,,TRUE,TRUE,TRUE,,,,,,CLR,,,,,,,,VFR,,,,,,,,,,,,SPECI,117.0
KO22 270115Z AUTO 25005KT 10SM CLR 23/09 A2990 RMK A01,KO22,2023-05-27T01:15:00Z,38.03,-120.42,23.0,9.0,250,5,,10.0,29.899607,,,TRUE,TRUE,,,,,,,CLR,,,,,,,,VFR,,,,,,,,,,,,SPECI,637.0
KNUQ 270115Z AUTO 35015KT 10SM CLR 17/11 A2992 RMK AO2,KNUQ,2023-05-27T01:15:00Z,37.4,-122.05,17.0,11.0,350,15,,10.0,29.920275,,,TRUE,TRUE,,,,,,,CLR,,,,,,,,VFR,,,,,,,,,,,,SPECI,9.0
KNRN 270115Z AUTO 16008KT 10SM BKN100 23/12 A3009 RMK AO2,KNRN,2023-05-27T01:15:00Z,39.85,-99.9,23.0,12.0,160,8,,10.0,30.088583,,,TRUE,TRUE,,,,,,,BKN,10000,,,,,,,VFR,,,,,,,,,,,,METAR,726.0
KN79 270115Z AUTO 00000KT 9SM CLR 15/03 A3026 RMK AO2 T01500026,KN79,2023-05-27T01:15:00Z,,,15.0,2.6,0,0,,9.0,30.259842,,,TRUE,TRUE,,,,,,,CLR,,,,,,,,VFR,,,,,,,,,,,,SPECI,
KN38 270115Z AUTO 05004KT 10SM CLR 14/00 A3030 RMK AO2,KN38,2023-05-27T01:15:00Z,41.73,-77.4,14.0,0.0,50,4,,10.0,30.301182,,,TRUE,TRUE,,,,,,,CLR,,,,,,,,VFR,,,,,,,,,,,,METAR,576.0
KN03 270115Z AUTO 00000KT 10SM CLR 09/01 A3031 RMK AO2,KN03,2023-05-27T01:15:00Z,42.6,-76.22,9.0,1.0,0,0,,10.0,30.31004,,,TRUE,TRUE,,,,,,,CLR,,,,,,,,VFR,,,,,,,,,,,,METAR,361.0
KMZZ 270115Z AUTO 06008KT 7SM CLR 18/M01 A3025 RMK AO2 T01801012,KMZZ,2023-05-27T01:15:00Z,40.48,-85.68,18.0,-1.2,60,8,,7.0,30.250984,,,TRUE,TRUE,,,,,,,CLR,,,,,,,,VFR,,,,,,,,,,,,METAR,260.0
KMZH 270115Z AUTO 00000KT 10SM CLR 22/05 A3021 RMK AO2,KMZH,2023-05-27T01:15:00Z,46.42,-92.8,22.0,5.0,0,0,,10.0,30.209646,,,TRUE,TRUE,,,,,,,CLR,,,,,,,,VFR,,,,,,,,,,,,METAR,331.0
KMYZ 270115Z AUTO 12004KT 10SM CLR 22/05 A3012 RMK AO2,KMYZ,2023-05-27T01:15:00Z,39.85,-96.63,22.0,5.0,120,4,,10.0,30.121063,,,TRUE,TRUE,,,,,,,CLR,,,,,,,,VFR,,,,,,,,,,,,METAR,388.0
KMYP 270115Z AUTO 21013G23KT 10SM SCT050 SCT065 BKN080 07/M05 A3043 RMK AO2,KMYP,2023-05-27T01:15:00Z,38.48,-106.32,7.0,-5.0,210,13,23,10.0,30.431103,,,TRUE,TRUE,,,,,,,SCT,5000,SCT,6500,BKN,8000,,,VFR,,,,,,,,,,,,SPECI,3629.0
KMYJ 270115Z AUTO 07003KT 10SM CLR 19/05 A3018 RMK AO2,KMYJ,2023-05-27T01:15:00Z,39.15,-91.82,19.0,5.0,70,3,,10.0,30.180119,,,TRUE,TRUE,,,,,,,CLR,,,,,,,,VFR,,,,,,,,,,,,METAR,249.0
KMWO 270115Z AUTO 00000KT 10SM CLR 16/06 A3020 RMK AO2 T01650057,KMWO,2023-05-27T01:15:00Z,39.53,-84.4,16.5,5.7,0,0,,10.0,30.200787,,,TRUE,TRUE,,,,,,,CLR,,,,,,,,VFR,,,,,,,,,,,,METAR,197.0
KMWM 270115Z AUTO 15007KT 10SM CLR 22/M02 A3017 RMK AO2,KMWM,2023-05-27T01:15:00Z,43.9,-95.1,22.0,-2.0,150,7,,10.0,30.171259,,,TRUE,TRUE,,,,,,,CLR,,,,,,,,VFR,,,,,,,,,,,,SPECI,427.0
KMWA 270115Z AUTO 00000KT 10SM CLR 17/09 A3015 RMK AO2 T01720089,KMWA,2023-05-27T01:15:00Z,37.77,-89.02,17.2,8.9,0,0,,10.0,30.15059,,,TRUE,TRUE,,,,,,,CLR,,,,,,,,VFR,,,,,,,,,,,,METAR,142.0
KMVE 270115Z AUTO 16006KT 10SM CLR 26/M01 A3014 RMK AO2,KMVE,2023-05-27T01:15:00Z,44.97,-95.72,26.0,-1.0,160,6,,10.0,30.138779,,,TRUE,TRUE,,,,,,,CLR,,,,,,,,VFR,,,,,,,,,,,,METAR,319.0
KMUT 270115Z AUTO 07006KT 10SM CLR 21/00 A3022 RMK AO2,KMUT,2023-05-27T01:15:00Z,41.37,-91.15,21.0,0.0,70,6,,10.0,30.221457,,,TRUE,TRUE,,,,,,,CLR,,,,,,,,VFR,,,,,,,,,,,,METAR,166.0
KMTV 270115Z AUTO 06003KT 10SM CLR 15/06 A3025 RMK AO2 T01490061,KMTV,2023-05-27T01:15:00Z,36.63,-80.02,14.9,6.1,60,3,,10.0,30.250984,,,TRUE,TRUE,,,,,,,CLR,,,,,,,,VFR,,,,,,,,,,,,SPECI,276.0
KMRJ 270115Z AUTO 10003KT 10SM CLR 08/M13 A3030 RMK AO2 PWINO,KMRJ,2023-05-27T01:15:00Z,42.88,-90.23,8.0,-13.0,100,3,,10.0,30.301182,,,TRUE,TRUE,,,,,TRUE,,CLR,,,,,,,,VFR,,,,,,,,,,,,METAR,350.0
KMQW 270115Z AUTO 05010KT 10SM OVC110 19/09 A3006 RMK AO2 T01910091,KMQW,2023-05-27T01:15:00Z,32.1,-82.88,19.1,9.1,50,10,,10.0,30.059055,,,TRUE,TRUE,,,,,,,OVC,11000,,,,,,,VFR,,,,,,,,,,,,METAR,62.0
KMQS 270115Z AUTO 00000KT 10SM 16/08 A3027 RMK AO2,KMQS,2023-05-27T01:15:00Z,39.98,-75.87,16.0,8.0,0,0,,10.0,30.268702,,,TRUE,TRUE,,,,,,,,,,,,,,,,,,,,,,,,,,,SPECI,200.0
KMQJ 270115Z AUTO 04007KT 10SM CLR 17/03 A3021 RMK AO1,KMQJ,2023-05-27T01:15:00Z,39.85,-85.9,17.0,3.0,40,7,,10.0,30.209646,,,TRUE,TRUE,,,,,,,CLR,,,,,,,,VFR,,,,,,,,,,,,SPECI,262.0
KMQB 270115Z AUTO 06004KT 10SM CLR 20/00 A3022 RMK AO2 T01970003,KMQB,2023-05-27T01:15:00Z,40.52,-90.65,19.7,0.3,60,4,,10.0,30.221457,,,TRUE,TRUE,,,,,,,CLR,,,,,,,,VFR,,,,,,,,,,,,SPECI,205.0
KMPR 270115Z AUTO 11010KT 10SM CLR 25/12 A3007 RMK AO2 T02510124,KMPR,2023-05-27T01:15:00Z,38.35,-97.68,25.1,12.4,110,10,,10.0,30.070866,,,TRUE,TRUE,,,,,,,CLR,,,,,,,,VFR,,,,,,,,,,,,METAR,455.0
KMOX 270115Z AUTO 17011KT 10SM CLR 26/M09 A3012 RMK AO2,KMOX,2023-05-27T01:15:00Z,45.57,-95.97,26.0,-9.0,170,11,,10.0,30.121063,,,TRUE,TRUE,,,,,,,CLR,,,,,,,,VFR,,,,,,,,,,,,SPECI,346.0
KMOP 270115Z AUTO 10004KT 10SM CLR 16/M01 A3030 RMK AO2 T01631009,KMOP,2023-05-27T01:15:00Z,43.62,-84.73,16.3,-0.9,100,4,,10.0,30.301182,,,TRUE,TRUE,,,,,,,CLR,,,,,,,,VFR,,,,,,,,,,,,METAR,229.0
KMNZ 270115Z AUTO 11003KT 10SM CLR 24/17 A3002 RMK AO2 T02420171,KMNZ,2023-05-27T01:15:00Z,31.67,-98.15,24.2,17.1,110,3,,10.0,30.02067,,,TRUE,TRUE,,,,,,,CLR,,,,,,,,VFR,,,,,,,,,,,,SPECI,397.0
KMNV 270115Z AUTO 00000KT 10SM 20/15 A3008 RMK A01,KMNV,2023-05-27T01:15:00Z,35.55,-84.38,20.0,15.0,0,0,,10.0,30.079725,,,TRUE,TRUE,,,,,,,,,,,,,,,,,,,,,,,,,,,SPECI,306.0
KMNI 270115Z AUTO 04008KT 10SM BKN110 17/07 A3007 RMK AO2,KMNI,2023-05-27T01:15:00Z,33.58,-80.22,17.0,7.0,40,8,,10.0,30.070866,,,TRUE,TRUE,,,,,,,BKN,11000,,,,,,,VFR,,,,,,,,,,,,SPECI,29.0
KMNH 270115Z AUTO 13014G18KT 10SM CLR 12/07 A3012 RMK AO2 LTG DSNT NE,KMNH,2023-05-27T01:15:00Z,39.22,-104.65,12.0,7.0,130,14,18,10.0,30.121063,,,TRUE,TRUE,,,,,,,CLR,,,,,,,,VFR,,,,,,,,,,,,METAR,2152.0
KMMI 270115Z AUTO 00000KT 10SM FEW080 SCT095 20/18 A3009 RMK A01,KMMI,2023-05-27T01:15:00Z,35.4,-84.57,20.0,18.0,0,0,,10.0,30.088583,,,TRUE,TRUE,,,,,,,FEW,8000,SCT,9500,,,,,VFR,,,,,,,,,,,,SPECI,252.0
KMMH 270115Z AUTO 28013KT 10SM SCT050 BKN070 OVC100 11/03 A3007 RMK AO2 T01120027,KMMH,2023-05-27T01:15:00Z,37.62,-118.83,11.2,2.7,280,13,,10.0,30.070866,,,TRUE,TRUE,,,,,,,SCT,5000,BKN,7000,OVC,10000,,,VFR,,,,,,,,,,,,METAR,2167.0
KMLJ 270115Z AUTO VRB04KT 10SM SCT060 20/10 A3008 RMK AO2,KMLJ,2023-05-27T01:15:00Z,33.15,-83.25,20.0,10.0,0,4,,10.0,30.079725,,,TRUE,TRUE,,,,,,,SCT,6000,,,,,,,VFR,,,,,,,,,,,,METAR,115.0
KMLE 270115Z AUTO 12008KT 10SM CLR 24/02 A3013 RMK AO2 T02400016,KMLE,2023-05-27T01:15:00Z,41.2,-96.12,24.0,1.6,120,8,,10.0,30.129921,,,TRUE,TRUE,,,,,,,CLR,,,,,,,,VFR,,,,,,,,,,,,METAR,318.0
KMKS 270115Z AUTO 04008KT 10SM -RA OVC120 15/12 A3005 RMK AO2,KMKS,2023-05-27T01:15:00Z,33.18,-80.03,15.0,12.0,40,8,,10.0,30.050198,,,TRUE,TRUE,,,,,,-RA,OVC,12000,,,,,,,VFR,,,,,,,,,,,,SPECI,22.0
KMKN 270115Z AUTO 11004KT 10SM 24/16 A3003 RMK AO2 T02380156,KMKN,2023-05-27T01:15:00Z,31.92,-98.6,23.8,15.6,110,4,,10.0,30.029528,,,TRUE,TRUE,,,,,,,,,,,,,,,,,,,,,,,,,,,SPECI,428.0
KMKJ 270115Z AUTO 00000KT 10SM CLR 13/05 A3026 RMK AO2 T01290054,KMKJ,2023-05-27T01:15:00Z,36.88,-81.33,12.9,5.4,0,0,,10.0,30.259842,,,TRUE,TRUE,,,,,,,CLR,,,,,,,,VFR,,,,,,,,,,,,METAR,777.0
KMJQ 270115Z AUTO 16007KT 10SM CLR 22/M05 A3019 RMK AO2 PWINO,KMJQ,2023-05-27T01:15:00Z,43.63,-94.98,22.0,-5.0,160,7,,10.0,30.188976,,,TRUE,TRUE,,,,,TRUE,,CLR,,,,,,,,VFR,,,,,,,,,,,,METAR,439.0
KMJD 270115Z AUTO 00000KT 10SM CLR 23/19 A2995 RMK AO2,KMJD,2023-05-27T01:15:00Z,30.48,-89.65,23.0,19.0,0,0,,10.0,29.949802,,,TRUE,TRUE,,,,,,,CLR,,,,,,,,VFR,,,,,,,,,,,,METAR,17.0
KMIO 270115Z AUTO 04004KT 10SM CLR 22/11 A3008 RMK AO2,KMIO,2023-05-27T01:15:00Z,36.92,-94.88,22.0,11.0,40,4,,10.0,30.079725,,,TRUE,TRUE,,,,,,,CLR,,,,,,,,VFR,,,,,,,,,,,,SPECI,245.0
KMHR 270115Z AUTO 22011KT 10SM CLR 22/10 A2986 RMK AO2,KMHR,2023-05-27T01:15:00Z,38.55,-121.28,22.0,10.0,220,11,,10.0,29.861221,,,TRUE,TRUE,,,,,,,CLR,,,,,,,,VFR,,,,,,,,,,,,METAR,30.0
KMHP 270115Z AUTO 03008KT 10SM SCT037 19/07 A3006 RMK AO2 T01900072,KMHP,2023-05-27T01:15:00Z,32.37,-82.08,19.0,7.2,30,8,,10.0,30.059055,,,TRUE,TRUE,,,,,,,SCT,3700,,,,,,,VFR,,,,,,,,,,,,METAR,60.0
KMHL 270115Z AUTO 07005KT 10SM CLR 19/03 A3018 RMK AO2,KMHL,2023-05-27T01:15:00Z,39.1,-93.2,19.0,3.0,70,5,,10.0,30.180119,,,TRUE,TRUE,,,,,,,CLR,,,,,,,,VFR,,,,,,,,,,,,SPECI,236.0
KMGR 270115Z AUTO 05005KT 10SM CLR 21/14 A3002 RMK AO2 T02080141,KMGR,2023-05-27T01:15:00Z,31.08,-83.8,20.8,14.1,50,5,,10.0,30.02067,,,TRUE,TRUE,,,,,,,CLR,,,,,,,,VFR,,,,,,,,,,,,METAR,86.0
KMGN 270115Z AUTO 00000KT 10SM CLR 10/02 A3031 RMK AO2 T00990029,KMGN,2023-05-27T01:15:00Z,45.43,-84.92,9.9,2.9,0,0,,10.0,30.31004,,,TRUE,TRUE,,,,,,,CLR,,,,,,,,VFR,,,,,,,,,,,,METAR,205.0
KMGG 270115Z AUTO 11004KT 10SM CLR 23/00 A3020 RMK AO2 T02331004,KMGG,2023-05-27T01:15:00Z,45.23,-93.98,23.3,-0.4,110,4,,10.0,30.200787,,,TRUE,TRUE,,,,,,,CLR,,,,,,,,VFR,,,,,,,,,,,,METAR,310.0
KMGC 270115Z AUTO 00000KT 10SM CLR 10/02 A3028 RMK AO2,KMGC,2023-05-27T01:15:00Z,41.7,-86.82,10.0,2.0,0,0,,10.0,30.280512,,,TRUE,TRUE,,,,,,,CLR,,,,,,,,VFR,,,,,,,,,,,,METAR,199.0
KMEZ 270115Z AUTO 00000KT 10SM CLR 22/17 A3007 RMK AO2 T02200171,KMEZ,2023-05-27T01:15:00Z,34.55,-94.2,22.0,17.1,0,0,,10.0,30.070866,,,TRUE,TRUE,,,,,,,CLR,,,,,,,,VFR,,,,,,,,,,,,METAR,320.0
KMEV 270115Z AUTO 33017G22KT 6SM VCTS RA HZ FEW042 SCT050 BKN065 14/09 A2998 RMK AO2,KMEV,2023-05-27T01:15:00Z,38.98,-119.75,14.0,9.0,330,17,22,6.0,29.97933,,,TRUE,TRUE,,,,,,VCTS RA HZ,FEW,4200,SCT,5000,BKN,6500,,,VFR,,,,,,,,,,,,SPECI,1437.0
KMDZ 270115Z AUTO 14003KT 10SM CLR 19/00 A3027 RMK AO2 T01910003 PWINO,KMDZ,2023-05-27T01:15:00Z,45.1,-90.3,19.1,0.3,140,3,,10.0,30.268702,,,TRUE,TRUE,,,,,TRUE,,CLR,,,,,,,,VFR,,,,,,,,,,,,METAR,446.0
KMDS 270115Z AUTO 14009KT 10SM CLR 24/01 A3011 RMK AO2,KMDS,2023-05-27T01:15:00Z,44.02,-97.08,24.0,1.0,140,9,,10.0,30.109253,,,TRUE,TRUE,,,,,,,CLR,,,,,,,,VFR,,,,,,,,,,,,SPECI,524.0
KMDQ 270115Z AUTO 00000KT 10SM CLR 19/16 A3008 RMK A02 T01900158,KMDQ,2023-05-27T01:15:00Z,34.87,-86.55,19.0,15.8,0,0,,10.0,30.079725,,,TRUE,TRUE,,,,,,,CLR,,,,,,,,VFR,,,,,,,,,,,,METAR,221.0
KMDD 270115Z AUTO 12014G19KT 10SM SCT042 BKN049 BKN070 25/17 A3001 RMK AO2 LTG DSNT NE T02500170,KMDD,2023-05-27T01:15:00Z,32.03,-102.1,25.0,17.0,120,14,19,10.0,30.008858,,,TRUE,TRUE,,,,,,,SCT,4200,BKN,4900,BKN,7000,,,VFR,,,,,,,,,,,,METAR,853.0
KMCJ 270115Z AUTO 08006KT 9SM CLR 29/12 A2994 RMK A01,KMCJ,2023-05-27T01:15:00Z,29.72,-95.4,29.0,12.0,80,6,,9.0,29.940945,,,TRUE,TRUE,,,,,,,CLR,,,,,,,,VFR,,,,,,,,,,,,METAR,70.0
KMCD 270115Z AUTO 27006KT 10SM CLR 11/03 A3030 RMK AO2 T01140029,KMCD,2023-05-27T01:15:00Z,45.85,-84.63,11.4,2.9,270,6,,10.0,30.301182,,,TRUE,TRUE,,,,,,,CLR,,,,,,,,VFR,,,,,,,,,,,,SPECI,228.0
KMCC 270115Z AUTO 20010G17KT 10SM CLR 22/11 A2986 RMK AO2,KMCC,2023-05-27T01:15:00Z,38.67,-121.4,22.0,11.0,200,10,17,10.0,29.861221,,,TRUE,TRUE,,,,,,,CLR,,,,,,,,VFR,,,,,,,,,,,,SPECI,21.0
KMBY 270115Z AUTO 08004KT 10SM CLR 19/02 A3019 RMK AO2,KMBY,2023-05-27T01:15:00Z,39.47,-92.43,19.0,2.0,80,4,,10.0,30.188976,,,TRUE,TRUE,,,,,,,CLR,,,,,,,,VFR,,,,,,,,,,,,METAR,263.0
KMBT 270115Z AUTO 35005KT 10SM CLR 23/13 A3006 RMK A01,KMBT,2023-05-27T01:15:00Z,35.88,-86.38,23.0,13.0,350,5,,10.0,30.059055,,,TRUE,TRUE,,,,,,,CLR,,,,,,,,VFR,,,,,,,,,,,,SPECI,187.0
KMAW 270115Z AUTO 04004KT 10SM CLR 22/04 A3012 RMK AO1,KMAW,2023-05-27T01:15:00Z,36.6,-90.0,22.0,4.0,40,4,,10.0,30.121063,,,TRUE,TRUE,,,,,,,CLR,,,,,,,,VFR,,,,,,,,,,,,SPECI,88.0
KMAO 270115Z AUTO 05011KT 10SM SCT037 BKN120 17/08 A3009 RMK AO2,KMAO,2023-05-27T01:15:00Z,34.18,-79.33,17.0,8.0,50,11,,10.0,30.088583,,,TRUE,TRUE,,,,,,,SCT,3700,BKN,12000,,,,,VFR,,,,,,,,,,,,SPECI,27.0
KMAN 270115Z AUTO 04004KT 10SM BKN070 BKN080 22/07 A2983 RMK A01,KMAN,2023-05-27T01:15:00Z,43.58,-116.52,22.0,7.0,40,4,,10.0,29.828741,,,TRUE,TRUE,,,,,,,BKN,7000,BKN,8000,,,,,VFR,,,,,,,,,,,,SPECI,773.0
KM75 270115Z AUTO 01006KT 10SM SCT036 20/14 A2990 RMK A01,KM75,2023-05-27T01:15:00Z,48.37,-107.92,20.0,14.0,10,6,,10.0,29.899607,,,TRUE,TRUE,,,,,,,SCT,3600,,,,,,,VFR,,,,,,,,,,,,SPECI,687.0
KM40 270115Z AUTO 00000KT 10SM OVC100 22/19 A3004 RMK AO2,KM40,2023-05-27T01:15:00Z,33.87,-88.48,22.0,19.0,0,0,,10.0,30.041338,,,TRUE,TRUE,,,,,,,OVC,10000,,,,,,,VFR,,,,,,,,,,,,METAR,68.0
KM30 270115Z AUTO 00000KT 10SM CLR 21/04 A3013 RMK AO2 T02070042,KM30,2023-05-27T01:15:00Z,37.18,-88.75,20.7,4.2,0,0,,10.0,30.129921,,,TRUE,TRUE,,,,,,,CLR,,,,,,,,VFR,,,,,,,,,,,,METAR,116.0
KM25 270115Z AUTO 03003KT 10SM CLR 20/06 A3013 RMK AO2 PWINO,KM25,2023-05-27T01:15:00Z,36.77,-88.58,20.0,6.0,30,3,,10.0,30.129921,,,TRUE,TRUE,,,,,TRUE,,CLR,,,,,,,,VFR,,,,,,,,,,,,SPECI,157.0
KM21 270115Z AUTO 00000KT 10SM CLR 19/12 A3012 RMK AO2 T01920115,KM21,2023-05-27T01:15:00Z,37.22,-87.15,19.2,11.5,0,0,,10.0,30.121063,,,TRUE,TRUE,,,,,,,CLR,,,,,,,,VFR,,,,,,,,,,,,METAR,127.0
KM08 270115Z AUTO 00000KT 10SM CLR 21/12 A3007 RMK A01,KM08,2023-05-27T01:15:00Z,35.22,-89.05,21.0,12.0,0,0,,10.0,30.070866,,,TRUE,TRUE,,,,,,,CLR,,,,,,,,VFR,,,,,,,,,,,,SPECI,149.0
KM02 270115Z AUTO 00000KT 10SM CLR 18/11 A3009 RMK A01,KM02,2023-05-27T01:15:00Z,36.13,-87.43,18.0,11.0,0,0,,10.0,30.088583,,,TRUE,TRUE,,,,,,,CLR,,,,,,,,VFR,,,,,,,,,,,,SPECI,268.0
KM01 270115Z AUTO 02003KT 6SM HZ CLR 22/11 A3005 RMK AO2 T02160107 $,KM01,2023-05-27T01:15:00Z,35.2,-90.05,21.6,10.7,20,3,,6.0,30.050198,,,TRUE,TRUE,TRUE,,,,,HZ,CLR,,,,,,,,VFR,,,,,,,,,,,,METAR,68.0
KLYV 270115Z AUTO 14009KT 10SM CLR 23/M02 A3014 RMK AO2,KLYV,2023-05-27T01:15:00Z,43.62,-96.22,23.0,-2.0,140,9,,10.0,30.138779,,,TRUE,TRUE,,,,,,,CLR,,,,,,,,VFR,,,,,,,,,,,,METAR,435.0
KLYO 270115Z AUTO 15008KT 10SM SCT100 23/12 A3007 RMK AO2 T02290125,KLYO,2023-05-27T01:15:00Z,38.35,-98.23,22.9,12.5,150,8,,10.0,30.070866,,,TRUE,TRUE,,,,,,,SCT,10000,,,,,,,VFR,,,,,,,,,,,,METAR,515.0
KLXY 270115Z AUTO 20004KT 10SM CLR 26/15 A2999 RMK AO2 T02550149,KLXY,2023-05-27T01:15:00Z,31.63,-96.52,25.5,14.9,200,4,,10.0,29.991142,,,TRUE,TRUE,,,,,,,CLR,,,,,,,,VFR,,,,,,,,,,,,SPECI,164.0
KLXN 270115Z AUTO 15008KT 10SM SCT060 22/13 A3006 RMK AO2 T02160133,KLXN,2023-05-27T01:15:00Z,40.78,-99.77,21.6,13.3,150,8,,10.0,30.059055,,,TRUE,TRUE,,,,,,,SCT,6000,,,,,,,VFR,,,,,,,,,,,,METAR,734.0
KLXL 270115Z AUTO 12005KT 10SM CLR 22/05 A3017 RMK AO2,KLXL,2023-05-27T01:15:00Z,45.95,-94.33,22.0,5.0,120,5,,10.0,30.171259,,,TRUE,TRUE,,,,,,,CLR,,,,,,,,VFR,,,,,,,,,,,,METAR,335.0
KLWB 270115Z AUTO 00000KT 10SM CLR 16/04 A3024 RMK AO2 T01560042,KLWB,2023-05-27T01:15:00Z,37.87,-80.4,15.6,4.2,0,0,,10.0,30.239174,,,TRUE,TRUE,,,,,,,CLR,,,,,,,,VFR,,,,,,,,,,,,SPECI,702.0
KLWA 270115Z AUTO 00000KT 10SM CLR 12/03 A3028 RMK AO2 T01220027,KLWA,2023-05-27T01:15:00Z,42.35,-86.25,12.2,2.7,0,0,,10.0,30.280512,,,TRUE,TRUE,,,,,,,CLR,,,,,,,,VFR,,,,,,,,,,,,SPECI,199.0
KLVN 270115Z AUTO 13005KT 7SM CLR 22/M05 A3022 RMK AO2,KLVN,2023-05-27T01:15:00Z,44.63,-93.23,22.0,-5.0,130,5,,7.0,30.221457,,,TRUE,TRUE,,,,,,,CLR,,,,,,,,VFR,,,,,,,,,,,,SPECI,292.0
KLVL 270115Z AUTO 00000KT 10SM CLR 16/07 A3024 RMK AO1 T01600073,KLVL,2023-05-27T01:15:00Z,36.78,-77.8,16.0,7.3,0,0,,10.0,30.239174,,,TRUE,TRUE,,,,,,,CLR,,,,,,,,VFR,,,,,,,,,,,,METAR,98.0
KLUX 270115Z AUTO 06005KT 10SM CLR 17/07 A3015 RMK AO2,KLUX,2023-05-27T01:15:00Z,34.5,-81.95,17.0,7.0,60,5,,10.0,30.15059,,,TRUE,TRUE,,,,,,,CLR,,,,,,,,VFR,,,,,,,,,,,,METAR,213.0
KLUM 270115Z 00000KT 10SM CLR 21/M05 A3024 RMK AO2 T02141054 PWINO,KLUM,2023-05-27T01:15:00Z,44.9,-91.87,21.4,-5.4,0,0,,10.0,30.239174,,,,TRUE,,,,,TRUE,,CLR,,,,,,,,VFR,,,,,,,,,,,,METAR,271.0
KLUL 270115Z AUTO 07005KT 10SM CLR 24/15 A2999 RMK A02 T02410149,KLUL,2023-05-27T01:15:00Z,31.67,-89.17,24.1,14.9,70,5,,10.0,29.991142,,,TRUE,TRUE,,,,,,,CLR,,,,,,,,VFR,,,,,,,,,,,,METAR,74.0
KLUG 270115Z AUTO 36003KT 10SM OVC110 21/14 A3008 RMK A01,KLUG,2023-05-27T01:15:00Z,35.52,-86.8,21.0,14.0,360,3,,10.0,30.079725,,,TRUE,TRUE,,,,,,,OVC,11000,,,,,,,VFR,,,,,,,,,,,,SPECI,218.0
KLUD 270115Z AUTO 08003KT 7SM CLR 26/14 A3003 RMK AO2 T02570137,KLUD,2023-05-27T01:15:00Z,33.25,-97.58,25.7,13.7,80,3,,7.0,30.029528,,,TRUE,TRUE,,,,,,,CLR,,,,,,,,VFR,,,,,,,,,,,,SPECI,319.0
KLUA 270115Z AUTO 00000KT 10SM CLR 12/06 A3025 RMK AO2,KLUA,2023-05-27T01:15:00Z,38.67,-78.5,12.0,6.0,0,0,,10.0,30.250984,,,TRUE,TRUE,,,,,,,CLR,,,,,,,,VFR,,,,,,,,,,,,METAR,273.0
KLRY 270115Z AUTO 07003KT 10SM CLR 22/02 A3017 RMK AO2,KLRY,2023-05-27T01:15:00Z,38.62,-94.35,22.0,2.0,70,3,,10.0,30.171259,,,TRUE,TRUE,,,,,,,CLR,,,,,,,,VFR,,,,,,,,,,,,METAR,272.0
KLRU 270115Z AUTO 22010KT 10SM CLR 33/M08 A2992 RMK AO2 T03271078,KLRU,2023-05-27T01:15:00Z,32.28,-106.92,32.7,-7.8,220,10,,10.0,29.920275,,,TRUE,TRUE,,,,,,,CLR,,,,,,,,VFR,,,,,,,,,,,,METAR,1355.0
KLRO 270115Z AUTO 36007G13KT 2 1/2SM +RA OVC027 14/14 A3002 RMK AO2,KLRO,2023-05-27T01:15:00Z,32.9,-79.78,14.0,14.0,360,7,13,2.5,30.02067,,,TRUE,TRUE,,,,,,+RA,OVC,2700,,,,,,,IFR,,,,,,,,,,,,METAR,3.0
KLRJ 270115Z AUTO 13010KT 10SM CLR 25/M00 A3011 RMK AO2,KLRJ,2023-05-27T01:15:00Z,42.77,-96.2,25.0,0.0,130,10,,10.0,30.109253,,,TRUE,TRUE,,,,,,,CLR,,,,,,,,VFR,,,,,,,,,,,,METAR,363.0
KLQK 270115Z AUTO 06005KT 10SM SCT075 18/08 A3014 RMK AO2 T01820082,KLQK,2023-05-27T01:15:00Z,34.82,-82.7,18.2,8.2,60,5,,10.0,30.138779,,,TRUE,TRUE,,,,,,,SCT,7500,,,,,,,VFR,,,,,,,,,,,,SPECI,291.0
KLOT 270115Z AUTO 05008KT 10SM CLR 17/01 A3027 RMK AO2,KLOT,2023-05-27T01:15:00Z,41.6,-88.1,17.0,1.0,50,8,,10.0,30.268702,,,TRUE,TRUE,,,,,,,CLR,,,,,,,,VFR,,,,,,,,,,,,METAR,205.0
KLOM 270115Z AUTO 17007KT 10SM CLR 16/07 A3025 RMK AO2 T01640073,KLOM,2023-05-27T01:15:00Z,40.13,-75.27,16.4,7.3,170,7,,10.0,30.250984,,,TRUE,TRUE,,,,,,,CLR,,,,,,,,VFR,,,,,,,,,,,,METAR,87.0
KLNQ 270115Z AUTO 00000KT 10SM CLR 24/18 A2997 RMK AO2 T02430178,KLNQ,2023-05-27T01:15:00Z,29.35,-89.43,24.3,17.8,0,0,,10.0,29.970472,,,TRUE,TRUE,,,,,,,CLR,,,,,,,,VFR,,,,,,,,,,,,METAR,1.0
KLNP 270115Z AUTO 00000KT 10SM CLR 16/08 A3021 RMK AO2,KLNP,2023-05-27T01:15:00Z,36.98,-82.52,16.0,8.0,0,0,,10.0,30.209646,,,TRUE,TRUE,,,,,,,CLR,,,,,,,,VFR,,,,,,,,,,,,METAR,817.0
KLNN 270115Z AUTO 06004KT 10SM CLR 12/03 A3029 RMK AO1 T01220026,KLNN,2023-05-27T01:15:00Z,41.68,-81.38,12.2,2.6,60,4,,10.0,30.28937,,,TRUE,TRUE,,,,,,,CLR,,,,,,,,VFR,,,,,,,,,,,,METAR,190.0
KLNL 270115Z AUTO 00000KT 10SM CLR 17/M01 A3029 RMK AO2 T01701011,KLNL,2023-05-27T01:15:00Z,46.15,-89.22,17.0,-1.1,0,0,,10.0,30.28937,,,TRUE,TRUE,,,,,,,CLR,,,,,,,,VFR,,,,,,,,,,,,METAR,517.0
KLNC 270115Z AUTO 00000KT 10SM CLR 26/14 A3002 RMK AO2 T02550141,KLNC,2023-05-27T01:15:00Z,32.58,-96.72,25.5,14.1,0,0,,10.0,30.02067,,,TRUE,TRUE,,,,,,,CLR,,,,,,,,VFR,,,,,,,,,,,,SPECI,152.0
KLNA 270115Z AUTO 34004KT 10SM CLR 23/21 A2985 RMK AO2 T02300214,KLNA,2023-05-27T01:15:00Z,26.6,-80.08,23.0,21.4,340,4,,10.0,29.84941,,,TRUE,TRUE,,,,,,,CLR,,,,,,,,VFR,,,,,,,,,,,,METAR,3.0
KLMS 270115Z AUTO 00000KT 6SM HZ CLR 23/18 A3005 RMK AO2,KLMS,2023-05-27T01:15:00Z,,,23.0,18.0,0,0,,6.0,30.050198,,,TRUE,TRUE,,,,,,HZ,CLR,,,,,,,,VFR,,,,,,,,,,,,SPECI,
KLMO 270115Z AUTO 10004KT 10SM CLR 19/10 A3003 RMK AO2 T01870099,KLMO,2023-05-27T01:15:00Z,40.17,-105.17,18.7,9.9,100,4,,10.0,30.029528,,,TRUE,TRUE,,,,,,,CLR,,,,,,,,VFR,,,,,,,,,,,,SPECI,1535.0
KLLN 270115Z AUTO 12013G20KT 9SM OVC050 22/17 A3005 RMK AO2 LTG DSNT N AND SE,KLLN,2023-05-27T01:15:00Z,33.55,-102.37,22.0,17.0,120,13,20,9.0,30.050198,,,TRUE,TRUE,,,,,,,OVC,5000,,,,,,,VFR,,,,,,,,,,,,METAR,1071.0
KLKU 270115Z AUTO 00000KT 10SM CLR 12/08 A3025 RMK AO2 T01230079,KLKU,2023-05-27T01:15:00Z,38.02,-77.97,12.3,7.9,0,0,,10.0,30.250984,,,TRUE,TRUE,,,,,,,CLR,,,,,,,,VFR,,,,,,,,,,,,METAR,146.0
KLKR 270115Z AUTO 04006G12KT 10SM FEW034 FEW040 17/07 A3014 RMK AO2,KLKR,2023-05-27T01:15:00Z,34.72,-80.85,17.0,7.0,40,6,12,10.0,30.138779,,,TRUE,TRUE,,,,,,,FEW,3400,FEW,4000,,,,,VFR,,,,,,,,,,,,METAR,166.0
KLJF 270115Z AUTO 14005KT 10SM CLR 22/M02 A3017 RMK AO2,KLJF,2023-05-27T01:15:00Z,45.1,-94.52,22.0,-2.0,140,5,,10.0,30.171259,,,TRUE,TRUE,,,,,,,CLR,,,,,,,,VFR,,,,,,,,,,,,METAR,347.0
KLHM 270115Z AUTO 20008KT 10SM CLR 24/10 A2985 RMK AO1,KLHM,2023-05-27T01:15:00Z,38.92,-121.35,24.0,10.0,200,8,,10.0,29.84941,,,TRUE,TRUE,,,,,,,CLR,,,,,,,,VFR,,,,,,,,,,,,SPECI,36.0
KLHB 270115Z AUTO 00000KT 10SM CLR 27/17 A2998 RMK AO2 T02700167,KLHB,2023-05-27T01:15:00Z,30.87,-96.62,27.0,16.7,0,0,,10.0,29.97933,,,TRUE,TRUE,,,,,,,CLR,,,,,,,,VFR,,,,,,,,,,,,SPECI,83.0
KLGC 270115Z AUTO 00000KT 10SM SCT100 21/12 A3007 RMK AO2 T02080121,KLGC,2023-05-27T01:15:00Z,33.0,-85.07,20.8,12.1,0,0,,10.0,30.070866,,,TRUE,TRUE,,,,,,,SCT,10000,,,,,,,VFR,,,,,,,,,,,,METAR,209.0
KLDM 270115Z AUTO 36003KT 10SM CLR 14/M05 A3031 RMK AO2 T01351055,KLDM,2023-05-27T01:15:00Z,43.97,-86.4,13.5,-5.5,360,3,,10.0,30.31004,,,TRUE,TRUE,,,,,,,CLR,,,,,,,,VFR,,,,,,,,,,,,METAR,194.0
KLCQ 270115Z AUTO 04008KT 10SM SCT035 OVC049 20/13 A2998 RMK AO2,KLCQ,2023-05-27T01:15:00Z,30.18,-82.58,20.0,13.0,40,8,,10.0,29.97933,,,TRUE,TRUE,,,,,,,SCT,3500,OVC,4900,,,,,VFR,,,,,,,,,,,,METAR,59.0
KLCG 270115Z AUTO 14009KT 10SM CLR 24/01 A3012 RMK AO2 T02390011,KLCG,2023-05-27T01:15:00Z,42.25,-96.98,23.9,1.1,140,9,,10.0,30.121063,,,TRUE,TRUE,,,,,,,CLR,,,,,,,,VFR,,,,,,,,,,,,METAR,434.0
KLBO 270115Z AUTO 06003KT 10SM CLR 20/03 A3017 RMK AO2,KLBO,2023-05-27T01:15:00Z,37.65,-92.65,20.0,3.0,60,3,,10.0,30.171259,,,TRUE,TRUE,,,,,,,CLR,,,,,,,,VFR,,,,,,,,,,,,METAR,399.0
KLAM 270115Z AUTO 15004KT 10SM CLR 20/02 A3010 RMK AO2 T01960020 $,KLAM,2023-05-27T01:15:00Z,35.87,-106.27,19.6,2.0,150,4,,10.0,30.100393,,,TRUE,TRUE,TRUE,,,,,,CLR,,,,,,,,VFR,,,,,,,,,,,,METAR,2166.0
KL35 270115Z AUTO 26008KT 10SM CLR 13/M01 A3001 RMK AO2,KL35,2023-05-27T01:15:00Z,34.27,-116.85,13.0,-1.0,260,8,,10.0,30.008858,,,TRUE,TRUE,,,,,,,CLR,,,,,,,,VFR,,,,,,,,,,,,SPECI,2062.0
KL18 270115Z AUTO 25009KT 10SM CLR 17/11 A2995 RMK AO2,KL18,2023-05-27T01:15:00Z,33.35,-117.25,17.0,11.0,250,9,,10.0,29.949802,,,TRUE,TRUE,,,,,,,CLR,,,,,,,,VFR,,,,,,,,,,,,SPECI,215.0
KL08 270115Z AUTO 33022G27KT 10SM CLR 28/07 A2975 RMK AO2,KL08,2023-05-27T01:15:00Z,33.27,-116.32,28.0,7.0,330,22,27,10.0,29.749016,,,TRUE,TRUE,,,,,,,CLR,,,,,,,,VFR,,,,,,,,,,,,SPECI,156.0
KKY8 270115Z AUTO 03003KT 10SM CLR 20/12 A3013 RMK A01,KKY8,2023-05-27T01:15:00Z,37.95,-86.87,20.0,12.0,30,3,,10.0,30.129921,,,TRUE,TRUE,,,,,,,CLR,,,,,,,,VFR,,,,,,,,,,,,METAR,124.0
KK88 270115Z AUTO 07006KT 10SM CLR 21/04 A3013 RMK AO1 T02100042,KK88,2023-05-27T01:15:00Z,37.87,-95.38,21.0,4.2,70,6,,10.0,30.129921,,,TRUE,TRUE,,,,,,,CLR,,,,,,,,VFR,,,,,,,,,,,,METAR,308.0
KK82 270115Z AUTO 13015KT 10SM CLR 25/10 A3006 RMK AO2 T02490099,KK82,2023-05-27T01:15:00Z,39.77,-98.8,24.9,9.9,130,15,,10.0,30.059055,,,TRUE,TRUE,,,,,,,CLR,,,,,,,,VFR,,,,,,,,,,,,METAR,548.0
KK70 270115Z AUTO VRB05KT 10SM FEW003 SCT012 BKN055 23/M37 A2981 RMK AO2,KK70,2023-05-27T01:15:00Z,25.32,-80.28,23.0,-37.0,0,5,,10.0,29.811024,,,TRUE,TRUE,,,,,,,FEW,300,SCT,1200,BKN,5500,,,VFR,,,,,,,,,,,,SPECI,20.0
KJZP 270115Z AUTO 12007KT 10SM BKN070 BKN085 OVC110 21/12 A3013 RMK AO2 T02060118,KJZP,2023-05-27T01:15:00Z,34.45,-84.47,20.6,11.8,120,7,,10.0,30.129921,,,TRUE,TRUE,,,,,,,BKN,7000,BKN,8500,OVC,11000,,,VFR,,,,,,,,,,,,METAR,462.0
KJZI 270115Z AUTO 02013G20KT 3SM RA BKN030 BKN043 OVC075 15/14 A3002 RMK AO2,KJZI,2023-05-27T01:15:00Z,32.7,-80.0,15.0,14.0,20,13,20,3.0,30.02067,,,TRUE,TRUE,,,,,,RA,BKN,3000,BKN,4300,OVC,7500,,,MVFR,,,,,,,,,,,,METAR,5.0
KJYR 270115Z AUTO 13013KT 10SM CLR 24/07 A3010 RMK AO2,KJYR,2023-05-27T01:15:00Z,40.9,-97.62,24.0,7.0,130,13,,10.0,30.100393,,,TRUE,TRUE,,,,,,,CLR,,,,,,,,VFR,,,,,,,,,,,,METAR,508.0
KJYO 270115Z AUTO 30003KT 10SM SCT075 18/10 A3026 RMK AO2,KJYO,2023-05-27T01:15:00Z,39.07,-77.57,18.0,10.0,300,3,,10.0,30.259842,,,TRUE,TRUE,,,,,,,SCT,7500,,,,,,,VFR,,,,,,,,,,,,METAR,112.0
KJYM 270115Z AUTO 14003KT 10SM CLR 16/00 A3030 RMK AO2 T01620001,KJYM,2023-05-27T01:15:00Z,41.92,-84.58,16.2,0.1,140,3,,10.0,30.301182,,,TRUE,TRUE,,,,,,,CLR,,,,,,,,VFR,,,,,,,,,,,,SPECI,357.0
KJYL 270115Z AUTO 05008KT 10SM SCT120 19/08 A3007 RMK AO2 T01860077,KJYL,2023-05-27T01:15:00Z,32.65,-81.6,18.6,7.7,50,8,,10.0,30.070866,,,TRUE,TRUE,,,,,,,SCT,12000,,,,,,,VFR,,,,,,,,,,,,METAR,54.0
KJWY 270115Z AUTO 00000KT 10SM CLR 25/15 A3004 RMK AO2 T02470152,KJWY,2023-05-27T01:15:00Z,32.45,-96.92,24.7,15.2,0,0,,10.0,30.041338,,,TRUE,TRUE,,,,,,,CLR,,,,,,,,VFR,,,,,,,,,,,,SPECI,211.0
KJWG 270115Z AUTO 00000KT 10SM OVC120 20/17 A3010 RMK AO2 T01990167,KJWG,2023-05-27T01:15:00Z,35.87,-98.42,19.9,16.7,0,0,,10.0,30.100393,,,TRUE,TRUE,,,,,,,OVC,12000,,,,,,,VFR,,,,,,,,,,,,METAR,469.0
KJVY 270115Z AUTO 00000KT 10SM CLR 19/09 A3012 RMK AO2,KJVY,2023-05-27T01:15:00Z,38.37,-85.73,19.0,9.0,0,0,,10.0,30.121063,,,TRUE,TRUE,,,,,,,CLR,,,,,,,,VFR,,,,,,,,,,,,METAR,141.0
KJVW 270115Z AUTO 00000KT 10SM CLR 21/21 A2999 RMK AO2,KJVW,2023-05-27T01:15:00Z,32.3,-90.42,21.0,21.0,0,0,,10.0,29.991142,,,TRUE,TRUE,,,,,,,CLR,,,,,,,,VFR,,,,,,,,,,,,METAR,73.0
KJTC 270115Z AUTO 21018G24KT 10SM CLR 22/M11 A3006 RMK AO2,KJTC,2023-05-27T01:15:00Z,34.13,-109.32,22.0,-11.0,210,18,24,10.0,30.059055,,,TRUE,TRUE,,,,,,,CLR,,,,,,,,VFR,,,,,,,,,,,,SPECI,2148.0
KJSV 270115Z AUTO 00000KT 10SM FEW080 23/22 A3004 RMK AO2,KJSV,2023-05-27T01:15:00Z,35.43,-94.8,23.0,22.0,0,0,,10.0,30.041338,,,TRUE,TRUE,,,,,,,FEW,8000,,,,,,,VFR,,,,,,,,,,,,METAR,158.0
KJSO 270115Z AUTO 00000KT 10SM CLR 24/16 A3002 RMK AO2 T02360155 TSNO,KJSO,2023-05-27T01:15:00Z,31.87,-95.22,23.6,15.5,0,0,,10.0,30.02067,,,TRUE,TRUE,,,TRUE,,,,CLR,,,,,,,,VFR,,,,,,,,,,,,METAR,204.0
KJRO 270115Z AUTO 00000KT 10SM CLR 15/08 A3020 RMK AO2,KJRO,2023-05-27T01:15:00Z,38.98,-82.58,15.0,8.0,0,0,,10.0,30.200787,,,TRUE,TRUE,,,,,,,CLR,,,,,,,,VFR,,,,,,,,,,,,METAR,224.0
KJPX 270115Z AUTO 22003KT 10SM CLR 13/07 A3025 RMK AO2 T01280070,KJPX,2023-05-27T01:15:00Z,40.95,-72.25,12.8,7.0,220,3,,10.0,30.250984,,,TRUE,TRUE,,,,,,,CLR,,,,,,,,VFR,,,,,,,,,,,,METAR,10.0
KJOT 270115Z AUTO 05006KT 10SM CLR 19/01 A3026 RMK AO2 T01850010,KJOT,2023-05-27T01:15:00Z,41.52,-88.18,18.5,1.0,50,6,,10.0,30.259842,,,TRUE,TRUE,,,,,,,CLR,,,,,,,,VFR,,,,,,,,,,,,METAR,175.0
KJMR 270115Z AUTO 14003KT 10SM CLR 22/02 A3024 RMK AO2,KJMR,2023-05-27T01:15:00Z,45.88,-93.27,22.0,2.0,140,3,,10.0,30.239174,,,TRUE,TRUE,,,,,,,CLR,,,,,,,,VFR,,,,,,,,,,,,METAR,301.0
KJKJ 270115Z AUTO 17011KT 10SM CLR 28/06 A3005 RMK AO2 TSNO,KJKJ,2023-05-27T01:15:00Z,46.83,-96.67,28.0,6.0,170,11,,10.0,30.050198,,,TRUE,TRUE,,,TRUE,,,,CLR,,,,,,,,VFR,,,,,,,,,,,,METAR,280.0
KJKA 270115Z AUTO 00000KT 10SM CLR 22/19 A2995 RMK AO2,KJKA,2023-05-27T01:15:00Z,30.28,-87.67,22.0,19.0,0,0,,10.0,29.949802,,,TRUE,TRUE,,,,,,,CLR,,,,,,,,VFR,,,,,,,,,,,,METAR,5.0
KJHN 270115Z AUTO 14017G22KT 10SM SCT039 21/14 A3006 RMK AO2 T02070135,KJHN,2023-05-27T01:15:00Z,37.58,-101.73,20.7,13.5,140,17,22,10.0,30.059055,,,TRUE,TRUE,,,,,,,SCT,3900,,,,,,,VFR,,,,,,,,,,,,SPECI,1013.0
KJFZ 270115Z AUTO 12005KT 10SM CLR 15/08 A3022 RMK AO2 T01520075,KJFZ,2023-05-27T01:15:00Z,37.07,-81.8,15.2,7.5,120,5,,10.0,30.221457,,,TRUE,TRUE,,,,,,,CLR,,,,,,,,VFR,,,,,,,,,,,,METAR,809.0
KJFX 270115Z AUTO 00000KT 9SM CLR 19/19 A3004 RMK AO2,KJFX,2023-05-27T01:15:00Z,33.9,-87.32,19.0,19.0,0,0,,9.0,30.041338,,,TRUE,TRUE,,,,,,,CLR,,,,,,,,VFR,,,,,,,,,,,,SPECI,144.0
KJDD 270115Z AUTO 00000KT 10SM CLR 23/18 A3001 RMK AO2,KJDD,2023-05-27T01:15:00Z,32.75,-95.5,23.0,18.0,0,0,,10.0,30.008858,,,TRUE,TRUE,,,,,,,CLR,,,,,,,,VFR,,,,,,,,,,,,METAR,127.0
KJCA 270115Z AUTO 09005KT 10SM CLR 18/10 A3014 RMK AO2 T01810096,KJCA,2023-05-27T01:15:00Z,34.18,-83.57,18.1,9.6,90,5,,10.0,30.138779,,,TRUE,TRUE,,,,,,,CLR,,,,,,,,VFR,,,,,,,,,,,,METAR,287.0
KJAS 270115Z AUTO 00000KT 7SM CLR 23/20 A2996 RMK AO2,KJAS,2023-05-27T01:15:00Z,30.88,-94.03,23.0,20.0,0,0,,7.0,29.958662,,,TRUE,TRUE,,,,,,,CLR,,,,,,,,VFR,,,,,,,,,,,,METAR,60.0
KJAQ 270115Z AUTO 27006KT 10SM CLR 21/11 A2991 RMK AO1 T02090105,KJAQ,2023-05-27T01:15:00Z,38.37,-120.8,20.9,10.5,270,6,,10.0,29.911417,,,TRUE,TRUE,,,,,,,CLR,,,,,,,,VFR,,,,,,,,,,,,METAR,518.0
KIZA 270115Z AUTO 26013G18KT 10SM CLR 17/11 A2994 RMK AO2,KIZA,2023-05-27T01:15:00Z,34.6,-120.07,17.0,11.0,260,13,18,10.0,29.940945,,,TRUE,TRUE,,,,,,,CLR,,,,,,,,VFR,,,,,,,,,,,,METAR,200.0
KIYA 270115Z AUTO 00000KT 10SM CLR 25/12 A2996 RMK AO2 T02520123,KIYA,2023-05-27T01:15:00Z,29.98,-92.08,25.2,12.3,0,0,,10.0,29.958662,,,TRUE,TRUE,,,,,,,CLR,,,,,,,,VFR,,,,,,,,,,,,METAR,4.0
KIUA 270115Z AUTO 00000KT 10SM CLR 12/05 A3032 RMK AO2 T01150046,KIUA,2023-05-27T01:15:00Z,42.92,-77.33,11.5,4.6,0,0,,10.0,30.318897,,,TRUE,TRUE,,,,,,,CLR,,,,,,,,VFR,,,,,,,,,,,,SPECI,248.0
KISQ 270115Z AUTO 20004KT 10SM CLR 11/02 A3029 RMK AO2 T01140022,KISQ,2023-05-27T01:15:00Z,45.97,-86.17,11.4,2.2,200,4,,10.0,30.28937,,,TRUE,TRUE,,,,,,,CLR,,,,,,,,VFR,,,,,,,,,,,,SPECI,206.0
KIRS 270115Z AUTO 10005KT 10SM CLR 17/M10 A3028 RMK AO2 T01711096,KIRS,2023-05-27T01:15:00Z,41.8,-85.43,17.1,-9.6,100,5,,10.0,30.280512,,,TRUE,TRUE,,,,,,,CLR,,,,,,,,VFR,,,,,,,,,,,,METAR,282.0
KIOB 270115Z AUTO 07004KT 10SM CLR 18/07 A3018 RMK AO2 PWINO,KIOB,2023-05-27T01:15:00Z,38.05,-83.98,18.0,7.0,70,4,,10.0,30.180119,,,TRUE,TRUE,,,,,TRUE,,CLR,,,,,,,,VFR,,,,,,,,,,,,SPECI,301.0
KINJ 270115Z AUTO 08004KT 10SM CLR 25/16 A3000 RMK AO2 T02500160,KINJ,2023-05-27T01:15:00Z,32.08,-97.1,25.0,16.0,80,4,,10.0,30.0,,,TRUE,TRUE,,,,,,,CLR,,,,,,,,VFR,,,,,,,,,,,,SPECI,208.0
KINF 270115Z AUTO 04013G18KT 7SM OVC030 21/17 A2995 RMK AO2,KINF,2023-05-27T01:15:00Z,28.8,-82.32,21.0,17.0,40,13,18,7.0,29.949802,,,TRUE,TRUE,,,,,,,OVC,3000,,,,,,,MVFR,,,,,,,,,,,,SPECI,14.0
KIMS 270115Z AUTO 00000KT 10SM CLR 16/09 A3019 RMK AO2,KIMS,2023-05-27T01:15:00Z,38.75,-85.47,16.0,9.0,0,0,,10.0,30.188976,,,TRUE,TRUE,,,,,,,CLR,,,,,,,,VFR,,,,,,,,,,,,METAR,244.0
KIMM 270115Z AUTO 01004KT 10SM SCT011 OVC110 A2985 RMK AO2,KIMM,2023-05-27T01:15:00Z,26.43,-81.4,,,10,4,,10.0,29.84941,,,TRUE,TRUE,,,,,,,SCT,1100,OVC,11000,,,,,VFR,,,,,,,,,,,,SPECI,11.0
KIKW 270115Z AUTO 00000KT 10SM CLR 13/04 A3031 RMK AO2 T01340037,KIKW,2023-05-27T01:15:00Z,43.67,-84.27,13.4,3.7,0,0,,10.0,30.31004,,,TRUE,TRUE,,,,,,,CLR,,,,,,,,VFR,,,,,,,,,,,,SPECI,190.0
KIKV 270115Z AUTO 15004KT 9SM CLR 20/03 A3021 RMK AO2,KIKV,2023-05-27T01:15:00Z,41.68,-93.57,20.0,3.0,150,4,,9.0,30.209646,,,TRUE,TRUE,,,,,,,CLR,,,,,,,,VFR,,,,,,,,,,,,METAR,270.0
KIKK 270115Z AUTO 05012G17KT 10SM CLR 16/00 A3026 RMK AO2 T01590003 PWINO,KIKK,2023-05-27T01:15:00Z,41.07,-87.85,15.9,0.3,50,12,17,10.0,30.259842,,,TRUE,TRUE,,,,,TRUE,,CLR,,,,,,,,VFR,,,,,,,,,,,,METAR,188.0
KIKG 270115Z AUTO 09005KT 10SM CLR 27/20 A2995 RMK AO2 T02700197,KIKG,2023-05-27T01:15:00Z,27.55,-98.03,27.0,19.7,90,5,,10.0,29.949802,,,TRUE,TRUE,,,,,,,CLR,,,,,,,,VFR,,,,,,,,,,,,METAR,37.0
KIJX 270115Z AUTO 07006KT CLR 19/02 A3018 RMK AO2 T01860021,KIJX,2023-05-27T01:15:00Z,39.77,-90.25,18.6,2.1,70,6,,,30.180119,,,TRUE,TRUE,,,,,,,CLR,,,,,,,,,,,,,,,,,,,,METAR,187.0
KIIY 270115Z AUTO 05003KT 10SM CLR 17/10 A3012 RMK AO2 T01710098,KIIY,2023-05-27T01:15:00Z,33.78,-82.82,17.1,9.8,50,3,,10.0,30.121063,,,TRUE,TRUE,,,,,,,CLR,,,,,,,,VFR,,,,,,,,,,,,METAR,192.0
KIIB 270115Z AUTO 11006KT 10SM CLR 19/02 A3025 RMK AO2 T01910016,KIIB,2023-05-27T01:15:00Z,42.45,-91.95,19.1,1.6,110,6,,10.0,30.250984,,,TRUE,TRUE,,,,,,,CLR,,,,,,,,VFR,,,,,,,,,,,,METAR,294.0
KIFP 270115Z AUTO 21013KT 10SM CLR 33/M11 A2966 RMK AO2,KIFP,2023-05-27T01:15:00Z,35.15,-114.57,33.0,-11.0,210,13,,10.0,29.660433,,,TRUE,TRUE,,,,,,,CLR,,,,,,,,VFR,,,,,,,,,,,,METAR,210.0
KIFA 270115Z AUTO 11006KT 10SM CLR 21/01 A3023 RMK AO2 T02090011,KIFA,2023-05-27T01:15:00Z,42.47,-93.27,20.9,1.1,110,6,,10.0,30.230314,,,TRUE,TRUE,,,,,,,CLR,,,,,,,,VFR,,,,,,,,,,,,METAR,344.0
KIER 270115Z AUTO 09004KT 10SM BKN070 26/14 A2999 RMK AO2 T02610143,KIER,2023-05-27T01:15:00Z,31.73,-93.1,26.1,14.3,90,4,,10.0,29.991142,,,TRUE,TRUE,,,,,,,BKN,7000,,,,,,,VFR,,,,,,,,,,,,METAR,35.0
KIDP 270115Z AUTO 07007KT 10SM CLR 23/13 A3009 RMK AO2 T02310127,KIDP,2023-05-27T01:15:00Z,37.17,-95.78,23.1,12.7,70,7,,10.0,30.088583,,,TRUE,TRUE,,,,,,,CLR,,,,,,,,VFR,,,,,,,,,,,,METAR,252.0
KIDI 270115Z AUTO 00000KT 10SM CLR 15/05 A3029 RMK A01,KIDI,2023-05-27T01:15:00Z,40.63,-79.1,15.0,5.0,0,0,,10.0,30.28937,,,TRUE,TRUE,,,,,,,CLR,,,,,,,,VFR,,,,,,,,,,,,SPECI,425.0
KICL 270115Z AUTO VRB03KT 10SM CLR 22/01 A3018 RMK AO2,KICL,2023-05-27T01:15:00Z,40.72,-95.02,22.0,1.0,0,3,,10.0,30.180119,,,TRUE,TRUE,,,,,,,CLR,,,,,,,,VFR,,,,,,,,,,,,SPECI,299.0
KIBM 270115Z AUTO 11017G25KT 10SM -RA SCT032 SCT050 OVC120 14/09 A3000 RMK AO2 LTG DSNT S T01420085,KIBM,2023-05-27T01:15:00Z,41.18,-103.68,14.2,8.5,110,17,25,10.0,30.0,,,TRUE,TRUE,,,,,,-RA,SCT,3200,SCT,5000,OVC,12000,,,VFR,,,,,,,,,,,,METAR,1494.0
KI95 270115Z AUTO 05007KT 10SM CLR 15/01 A3025 RMK A01,KI95,2023-05-27T01:15:00Z,,,15.0,1.0,50,7,,10.0,30.250984,,,TRUE,TRUE,,,,,,,CLR,,,,,,,,VFR,,,,,,,,,,,,METAR,
KI75 270115Z AUTO 09004KT 10SM CLR 20/04 A3020 RMK AO2 T01980038,KI75,2023-05-27T01:15:00Z,41.05,-93.68,19.8,3.8,90,4,,10.0,30.200787,,,TRUE,TRUE,,,,,,,CLR,,,,,,,,VFR,,,,,,,,,,,,SPECI,336.0
KI74 270115Z AUTO 04005KT 10SM CLR 17/03 A3023 RMK AO2,KI74,2023-05-27T01:15:00Z,40.12,-83.75,17.0,3.0,40,5,,10.0,30.230314,,,TRUE,TRUE,,,,,,,CLR,,,,,,,,VFR,,,,,,,,,,,,SPECI,322.0
KI68 270115Z AUTO 06006KT 10SM CLR 19/03 A3019 RMK AO2,KI68,2023-05-27T01:15:00Z,39.47,-84.25,19.0,3.0,60,6,,10.0,30.188976,,,TRUE,TRUE,,,,,,,CLR,,,,,,,,VFR,,,,,,,,,,,,SPECI,274.0
KI67 270115Z AUTO 00000KT 10SM CLR 19/01 A3018 RMK AO1,KI67,2023-05-27T01:15:00Z,39.25,-84.78,19.0,1.0,0,0,,10.0,30.180119,,,TRUE,TRUE,,,,,,,CLR,,,,,,,,VFR,,,,,,,,,,,,SPECI,177.0
KI63 270115Z AUTO 04003KT 10SM CLR 20/01 A3018 RMK AO2 T01970009,KI63,2023-05-27T01:15:00Z,39.98,-90.8,19.7,0.9,40,3,,10.0,30.180119,,,TRUE,TRUE,,,,,,,CLR,,,,,,,,VFR,,,,,,,,,,,,METAR,221.0
KI23 270115Z AUTO 05005KT 10SM CLR 18/03 A3021 RMK AO1,KI23,2023-05-27T01:15:00Z,39.57,-83.42,18.0,3.0,50,5,,10.0,30.209646,,,TRUE,TRUE,,,,,,,CLR,,,,,,,,VFR,,,,,,,,,,,,SPECI,298.0
KI19 270115Z AUTO 00000KT 10SM CLR 19/03 A3019 RMK AO2,KI19,2023-05-27T01:15:00Z,39.7,-83.98,19.0,3.0,0,0,,10.0,30.188976,,,TRUE,TRUE,,,,,,,CLR,,,,,,,,VFR,,,,,,,,,,,,METAR,285.0
KHZX 270115Z AUTO 16005KT 10SM CLR 21/06 A3020 RMK AO2,KHZX,2023-05-27T01:15:00Z,46.62,-93.32,21.0,6.0,160,5,,10.0,30.200787,,,TRUE,TRUE,,,,,,,CLR,,,,,,,,VFR,,,,,,,,,,,,SPECI,374.0
KHZL 270115Z AUTO 00000KT 10SM CLR 11/02 A3031 RMK AO2,KHZL,2023-05-27T01:15:00Z,40.98,-76.0,11.0,2.0,0,0,,10.0,30.31004,,,TRUE,TRUE,,,,,,,CLR,,,,,,,,VFR,,,,,,,,,,,,METAR,481.0
KHZE 270115Z AUTO 17011G17KT 10SM CLR 25/15 A2993 RMK AO2 LTG DSNT W-N,KHZE,2023-05-27T01:15:00Z,47.28,-101.58,25.0,15.0,170,11,17,10.0,29.929134,,,TRUE,TRUE,,,,,,,CLR,,,,,,,,VFR,,,,,,,,,,,,METAR,542.0
KHZD 270115Z AUTO 00000KT 10SM CLR 19/10 A3009 RMK A01,KHZD,2023-05-27T01:15:00Z,36.08,-88.47,19.0,10.0,0,0,,10.0,30.088583,,,TRUE,TRUE,,,,,,,CLR,,,,,,,,VFR,,,,,,,,,,,,SPECI,147.0
KHYX 270115Z AUTO 06004KT 10SM CLR 16/05 A3032 RMK AO2 T01580051,KHYX,2023-05-27T01:15:00Z,43.43,-83.87,15.8,5.1,60,4,,10.0,30.318897,,,TRUE,TRUE,,,,,,,CLR,,,,,,,,VFR,,,,,,,,,,,,METAR,181.0
KHYW 270115Z AUTO 00000KT 10SM -RA CLR 15/12 A3008 RMK AO2,KHYW,2023-05-27T01:15:00Z,33.83,-79.12,15.0,12.0,0,0,,10.0,30.079725,,,TRUE,TRUE,,,,,,-RA,CLR,,,,,,,,VFR,,,,,,,,,,,,METAR,10.0
KHXD 270115Z AUTO 03020G28KT 6SM -RA BKN012 BKN018 BKN031 16/14 A3001 RMK AO2,KHXD,2023-05-27T01:15:00Z,32.22,-80.7,16.0,14.0,30,20,28,6.0,30.008858,,,TRUE,TRUE,,,,,,-RA,BKN,1200,BKN,1800,BKN,3100,,,MVFR,,,,,,,,,,,,METAR,5.0
KHWY 270115Z AUTO 00000KT 10SM CLR 11/08 A3025 RMK AO2 T01110081,KHWY,2023-05-27T01:15:00Z,38.58,-77.72,11.1,8.1,0,0,,10.0,30.250984,,,TRUE,TRUE,,,,,,,CLR,,,,,,,,VFR,,,,,,,,,,,,SPECI,93.0
KHVS 270115Z AUTO 04012KT 10SM BKN043 OVC075 18/05 A3011 RMK AO2,KHVS,2023-05-27T01:15:00Z,34.4,-80.12,18.0,5.0,40,12,,10.0,30.109253,,,TRUE,TRUE,,,,,,,BKN,4300,OVC,7500,,,,,VFR,,,,,,,,,,,,METAR,110.0
KHVE 270115Z AUTO 24012G17KT 10SM CLR 27/M10 A2980 RMK AO2,KHVE,2023-05-27T01:15:00Z,38.42,-110.7,27.0,-10.0,240,12,17,10.0,29.799213,,,TRUE,TRUE,,,,,,,CLR,,,,,,,,VFR,,,,,,,,,,,,METAR,1351.0
KHVC 270115Z AUTO 36003KT 9SM CLR 20/10 A3011 RMK AO2,KHVC,2023-05-27T01:15:00Z,,,20.0,10.0,360,3,,9.0,30.109253,,,TRUE,TRUE,,,,,,,CLR,,,,,,,,VFR,,,,,,,,,,,,SPECI,
KHUM 270115Z AUTO 10004KT 7SM CLR 24/16 A2996 RMK AO2 T02360160,KHUM,2023-05-27T01:15:00Z,29.57,-90.67,23.6,16.0,100,4,,7.0,29.958662,,,TRUE,TRUE,,,,,,,CLR,,,,,,,,VFR,,,,,,,,,,,,METAR,1.0
KHTH 270115Z AUTO 16013KT 10SM CLR 18/06 A2995 RMK A01,KHTH,2023-05-27T01:15:00Z,38.55,-118.63,18.0,6.0,160,13,,10.0,29.949802,,,TRUE,TRUE,,,,,,,CLR,,,,,,,,VFR,,,,,,,,,,,,SPECI,1281.0
KHSG 270115Z AUTO 12007KT 10SM CLR 12/10 A2996 RMK AO2 LTG DSNT N T01180095,KHSG,2023-05-27T01:15:00Z,43.72,-108.38,11.8,9.5,120,7,,10.0,29.958662,,,TRUE,TRUE,,,,,,,CLR,,,,,,,,VFR,,,,,,,,,,,,SPECI,1497.0
KHSD 270115Z AUTO 00000KT 10SM FEW100 21/18 A3005 RMK A01,KHSD,2023-05-27T01:15:00Z,35.6,-97.72,21.0,18.0,0,0,,10.0,30.050198,,,TRUE,TRUE,,,,,,,FEW,10000,,,,,,,VFR,,,,,,,,,,,,SPECI,358.0
KHSB 270115Z AUTO 06003KT 10SM CLR 23/M01 A3014 RMK AO2 T02311006,KHSB,2023-05-27T01:15:00Z,37.82,-88.55,23.1,-0.6,60,3,,10.0,30.138779,,,TRUE,TRUE,,,,,,,CLR,,,,,,,,VFR,,,,,,,,,,,,SPECI,118.0
KHRX 270115Z AUTO 13014KT 10SM VCTS CLR 21/17 A3004 RMK AO2 LTG DSNT SW AND NW T02050168,KHRX,2023-05-27T01:15:00Z,34.87,-102.33,20.5,16.8,130,14,,10.0,30.041338,,,TRUE,TRUE,,,,,,VCTS,CLR,,,,,,,,VFR,,,,,,,,,,,,SPECI,1153.0
KHQU 270115Z AUTO 06008KT 10SM CLR 19/07 A3010 RMK AO2 T01890069,KHQU,2023-05-27T01:15:00Z,33.53,-82.52,18.9,6.9,60,8,,10.0,30.100393,,,TRUE,TRUE,,,,,,,CLR,,,,,,,,VFR,,,,,,,,,,,,METAR,141.0
KHQG 270115Z AUTO 16016G20KT 10SM CLR 20/14 A3006 RMK AO2 T02040137 PWINO,KHQG,2023-05-27T01:15:00Z,37.17,-101.37,20.4,13.7,160,16,20,10.0,30.059055,,,TRUE,TRUE,,,,,TRUE,,CLR,,,,,,,,VFR,,,,,,,,,,,,METAR,956.0
KHQG 270115Z AUTO 16016G20KT 10SM CLR 20/14 A3006 RMK AO2 T02040137 PWINO,KHQG,2023-05-27T01:15:00Z,37.17,-101.37,20.4,13.7,160,16,20,10.0,30.059055,,,TRUE,TRUE,,,,,TRUE,,CLR,,,,,,,,VFR,,,,,,,,,,,,METAR,956.0
KHPT 270115Z AUTO 13005KT 10SM CLR 20/00 A3021 RMK AO2,KHPT,2023-05-27T01:15:00Z,42.72,-93.23,20.0,0.0,130,5,,10.0,30.209646,,,TRUE,TRUE,,,,,,,CLR,,,,,,,,VFR,,,,,,,,,,,,METAR,354.0
KHOE 270115Z AUTO 02006KT 10SM CLR 19/12 A3002 RMK AO2 T01950129,KHOE,2023-05-27T01:15:00Z,31.05,-82.78,19.5,12.9,20,6,,10.0,30.02067,,,TRUE,TRUE,,,,,,,CLR,,,,,,,,VFR,,,,,,,,,,,,METAR,56.0
KHOB 270115Z AUTO 14016G23KT 10SM CLR 26/14 A2998 RMK AO2 LTG DSNT E AND S,KHOB,2023-05-27T01:15:00Z,32.67,-103.22,26.0,14.0,140,16,23,10.0,29.97933,,,TRUE,TRUE,,,,,,,CLR,,,,,,,,VFR,,,,,,,,,,,,SPECI,1112.0
KHNR 270115Z AUTO 14007KT 10SM CLR 22/01 A3017 RMK A01,KHNR,2023-05-27T01:15:00Z,41.58,-95.33,22.0,1.0,140,7,,10.0,30.171259,,,TRUE,TRUE,,,,,,,CLR,,,,,,,,VFR,,,,,,,,,,,,METAR,364.0
KHMZ 270115Z AUTO 00000KT 10SM CLR 12/05 A3026 RMK AO2 T01220050,KHMZ,2023-05-27T01:15:00Z,40.08,-78.52,12.2,5.0,0,0,,10.0,30.259842,,,TRUE,TRUE,,,,,,,CLR,,,,,,,,VFR,,,,,,,,,,,,METAR,351.0
KHMT 270115Z AUTO 23012KT 10SM BKN033 18/10 A2993 RMK AO2 T01840105,KHMT,2023-05-27T01:15:00Z,33.73,-117.02,18.4,10.5,230,12,,10.0,29.929134,,,TRUE,TRUE,,,,,,,BKN,3300,,,,,,,VFR,,,,,,,,,,,,METAR,462.0
KHMP 270115Z AUTO 08005KT 10SM CLR 18/12 A3012 RMK AO2 T01830123,KHMP,2023-05-27T01:15:00Z,33.38,-84.33,18.3,12.3,80,5,,10.0,30.121063,,,TRUE,TRUE,,,,,,,CLR,,,,,,,,VFR,,,,,,,,,,,,METAR,263.0
KHLX 270115Z AUTO 09006KT 10SM CLR 12/05 A3024 RMK AO2 T01200050,KHLX,2023-05-27T01:15:00Z,36.77,-80.82,12.0,5.0,90,6,,10.0,30.239174,,,TRUE,TRUE,,,,,,,CLR,,,,,,,,VFR,,,,,,,,,,,,METAR,819.0
KHLB 270115Z AUTO 00000KT 10SM CLR 17/02 A3019 RMK A01,KHLB,2023-05-27T01:15:00Z,39.35,-85.27,17.0,2.0,0,0,,10.0,30.188976,,,TRUE,TRUE,,,,,,,CLR,,,,,,,,VFR,,,,,,,,,,,,SPECI,297.0
KHJH 270115Z AUTO 13011KT 10SM CLR 26/10 A3010 RMK AO2 T02550095,KHJH,2023-05-27T01:15:00Z,40.15,-97.58,25.5,9.5,130,11,,10.0,30.100393,,,TRUE,TRUE,,,,,,,CLR,,,,,,,,VFR,,,,,,,,,,,,METAR,449.0
KHHG 270115Z AUTO 08004KT 10SM CLR 16/M02 A3026 RMK AO2 T01611025,KHHG,2023-05-27T01:15:00Z,40.85,-85.45,16.1,-2.5,80,4,,10.0,30.259842,,,TRUE,TRUE,,,,,,,CLR,,,,,,,,VFR,,,,,,,,,,,,METAR,247.0
KHHF 270115Z AUTO 14008KT 10SM CLR 22/14 A3006 RMK AO2 T02150143,KHHF,2023-05-27T01:15:00Z,35.9,-100.4,21.5,14.3,140,8,,10.0,30.059055,,,TRUE,TRUE,,,,,,,CLR,,,,,,,,VFR,,,,,,,,,,,,SPECI,729.0
KHFY 270115Z AUTO 06005KT 10SM CLR 21/04 A3020 RMK AO2 T02100036,KHFY,2023-05-27T01:15:00Z,39.63,-86.08,21.0,3.6,60,5,,10.0,30.200787,,,TRUE,TRUE,,,,,,,CLR,,,,,,,,VFR,,,,,,,,,,,,SPECI,250.0
KHFJ 270115Z AUTO 05004KT 10SM CLR 20/09 A3012 RMK AO2,KHFJ,2023-05-27T01:15:00Z,36.9,-94.02,20.0,9.0,50,4,,10.0,30.121063,,,TRUE,TRUE,,,,,,,CLR,,,,,,,,VFR,,,,,,,,,,,,METAR,398.0
KHEQ 270115Z AUTO 16021G29KT 10SM CLR 23/14 A3003 RMK AO2 LTG DSNT SW AND W,KHEQ,2023-05-27T01:15:00Z,40.57,-102.28,23.0,14.0,160,21,29,10.0,30.029528,,,TRUE,TRUE,,,,,,,CLR,,,,,,,,VFR,,,,,,,,,,,,METAR,1136.0
KHDL 270115Z AUTO 05010KT 10SM BKN045 BKN050 23/16 A3000 RMK AO2,KHDL,2023-05-27T01:15:00Z,31.37,-85.32,23.0,16.0,50,10,,10.0,30.0,,,TRUE,TRUE,,,,,,,BKN,4500,BKN,5000,,,,,VFR,,,,,,,,,,,,METAR,109.0
KHDE 270115Z AUTO 14011KT 10SM CLR 24/10 A3006 RMK AO2 T02360102,KHDE,2023-05-27T01:15:00Z,40.45,-99.33,23.6,10.2,140,11,,10.0,30.059055,,,TRUE,TRUE,,,,,,,CLR,,,,,,,,VFR,,,,,,,,,,,,METAR,703.0
KHDC 270115Z AUTO 00000KT 10SM CLR 25/15 A2996 RMK AO2 T02540145,KHDC,2023-05-27T01:15:00Z,30.52,-90.42,25.4,14.5,0,0,,10.0,29.958662,,,TRUE,TRUE,,,,,,,CLR,,,,,,,,VFR,,,,,,,,,,,,METAR,12.0
KHCR 270115Z AUTO 36012KT 10SM SCT090 SCT110 15/04 A2993 RMK AO2,KHCR,2023-05-27T01:15:00Z,40.48,-111.43,15.0,4.0,360,12,,10.0,29.929134,,,TRUE,TRUE,,,,,,,SCT,9000,SCT,11000,,,,,VFR,,,,,,,,,,,,SPECI,1708.0
KHCO 270115Z AUTO 20017KT 10SM CLR 29/08 A2997 RMK AO2,KHCO,2023-05-27T01:15:00Z,48.75,-96.93,29.0,8.0,200,17,,10.0,29.970472,,,TRUE,TRUE,,,,,,,CLR,,,,,,,,VFR,,,,,,,,,,,,METAR,250.0
KHCD 270115Z AUTO 12007KT 10SM CLR 23/M02 A3019 RMK AO2 T02311016,KHCD,2023-05-27T01:15:00Z,44.87,-94.38,23.1,-1.6,120,7,,10.0,30.188976,,,TRUE,TRUE,,,,,,,CLR,,,,,,,,VFR,,,,,,,,,,,,SPECI,320.0
KHBV 270115Z AUTO 12010KT 10SM CLR 29/19 A2994 RMK AO2 T02850187,KHBV,2023-05-27T01:15:00Z,27.35,-98.73,28.5,18.7,120,10,,10.0,29.940945,,,TRUE,TRUE,,,,,,,CLR,,,,,,,,VFR,,,,,,,,,,,,SPECI,200.0
KHAI 270115Z AUTO 09005KT 10SM CLR 19/M01 A3028 RMK AO2 T01851007,KHAI,2023-05-27T01:15:00Z,41.97,-85.6,18.5,-0.7,90,5,,10.0,30.280512,,,TRUE,TRUE,,,,,,,CLR,,,,,,,,VFR,,,,,,,,,,,,SPECI,250.0
KHAF 270115Z AUTO 26006KT 10SM OVC018 13/10 A2997 RMK AO2,KHAF,2023-05-27T01:15:00Z,37.52,-122.5,13.0,10.0,260,6,,10.0,29.970472,,,TRUE,TRUE,,,,,,,OVC,1800,,,,,,,MVFR,,,,,,,,,,,,SPECI,11.0
KHAE 270115Z AUTO 00000KT 10SM CLR 16/06 A3019 RMK AO2,KHAE,2023-05-27T01:15:00Z,39.73,-91.45,16.0,6.0,0,0,,10.0,30.188976,,,TRUE,TRUE,,,,,,,CLR,,,,,,,,VFR,,,,,,,,,,,,SPECI,230.0
KGZS 270115Z AUTO 00000KT 19/18 RMK A01,KGZS,2023-05-27T01:15:00Z,35.15,-87.05,19.0,18.0,0,0,,,,,,TRUE,TRUE,,,,,,,,,,,,,,,,,,,,,,,,,,,SPECI,198.0
KGZL 270115Z AUTO 00000KT 10SM SCT090 SCT110 24/18 A3004 RMK AO2,KGZL,2023-05-27T01:15:00Z,35.28,-95.1,24.0,18.0,0,0,,10.0,30.041338,,,TRUE,TRUE,,,,,,,SCT,9000,SCT,11000,,,,,VFR,,,,,,,,,,,,METAR,176.0
KGYL 270115Z AUTO 13007KT 10SM CLR 24/M02 A3018 RMK AO2 T02421024,KGYL,2023-05-27T01:15:00Z,44.77,-94.08,24.2,-2.4,130,7,,10.0,30.180119,,,TRUE,TRUE,,,,,,,CLR,,,,,,,,VFR,,,,,,,,,,,,METAR,304.0
KGYI 270115Z AUTO 10004KT 10SM OVC110 26/15 A3004 RMK AO2 T02550145 TSNO,KGYI,2023-05-27T01:15:00Z,33.72,-96.67,25.5,14.5,100,4,,10.0,30.041338,,,TRUE,TRUE,,,TRUE,,,,OVC,11000,,,,,,,VFR,,,,,,,,,,,,SPECI,227.0
KGYH 270115Z AUTO 07007KT 10SM CLR 18/08 A3015 RMK A02 T01820076,KGYH,2023-05-27T01:15:00Z,34.75,-82.38,18.2,7.6,70,7,,10.0,30.15059,,,TRUE,TRUE,,,,,,,CLR,,,,,,,,VFR,,,,,,,,,,,,METAR,283.0
KGYF 270115Z AUTO 09012G17KT 10SM CLR 27/20 A2994 RMK AO2 T02660196,KGYF,2023-05-27T01:15:00Z,26.13,-94.9,26.6,19.6,90,12,17,10.0,29.940945,,,TRUE,TRUE,,,,,,,CLR,,,,,,,,VFR,,,,,,,,,,,,METAR,65.0
KGYB 270115Z AUTO 00000KT 10SM CLR 26/19 A2997 RMK AO2 T02570188,KGYB,2023-05-27T01:15:00Z,30.17,-96.98,25.7,18.8,0,0,,10.0,29.970472,,,TRUE,TRUE,,,,,,,CLR,,,,,,,,VFR,,,,,,,,,,,,SPECI,140.0
KGWR 270115Z AUTO 17014KT 10SM CLR 26/09 A3004 RMK A01,KGWR,2023-05-27T01:15:00Z,46.22,-97.65,26.0,9.0,170,14,,10.0,30.041338,,,TRUE,TRUE,,,,,,,CLR,,,,,,,,VFR,,,,,,,,,,,,SPECI,381.0
KGWB 270115Z AUTO 09005KT 10SM CLR 16/01 A3029 RMK AO2,KGWB,2023-05-27T01:15:00Z,41.3,-85.07,16.0,1.0,90,5,,10.0,30.28937,,,TRUE,TRUE,,,,,,,CLR,,,,,,,,VFR,,,,,,,,,,,,SPECI,268.0
KGVE 270115Z AUTO 00000KT 10SM CLR 14/10 A3024 RMK AO1 T01440098,KGVE,2023-05-27T01:15:00Z,38.15,-78.17,14.4,9.8,0,0,,10.0,30.239174,,,TRUE,TRUE,,,,,,,CLR,,,,,,,,VFR,,,,,,,,,,,,METAR,138.0
KGRY 270115Z AUTO 06020KT 10SM FEW038 SCT045 25/14 A2995 RMK A01,KGRY,2023-05-27T01:15:00Z,27.63,-90.45,25.0,14.0,60,20,,10.0,29.949802,,,TRUE,TRUE,,,,,,,FEW,3800,SCT,4500,,,,,VFR,,,,,,,,,,,,METAR,58.0
KGRN 270115Z AUTO 15014G23KT 10SM BKN060 20/14 A2999 RMK AO2 T01980140,KGRN,2023-05-27T01:15:00Z,42.8,-102.17,19.8,14.0,150,14,23,10.0,29.991142,,,TRUE,TRUE,,,,,,,BKN,6000,,,,,,,VFR,,,,,,,,,,,,SPECI,1080.0
KGPH 270115Z AUTO 07004KT 10SM CLR 22/M01 A3016 RMK AO2,KGPH,2023-05-27T01:15:00Z,39.33,-94.32,22.0,-1.0,70,4,,10.0,30.159449,,,TRUE,TRUE,,,,,,,CLR,,,,,,,,VFR,,,,,,,,,,,,SPECI,233.0
KGPC 270115Z AUTO 05006KT 10SM CLR 20/02 A3018 RMK AO2 T01990015,KGPC,2023-05-27T01:15:00Z,39.63,-86.82,19.9,1.5,50,6,,10.0,30.180119,,,TRUE,TRUE,,,,,,,CLR,,,,,,,,VFR,,,,,,,,,,,,SPECI,254.0
KGOO 270115Z AUTO VRB03KT 10SM CLR 20/10 A2993 RMK A01,KGOO,2023-05-27T01:15:00Z,39.22,-121.0,20.0,10.0,0,3,,10.0,29.929134,,,TRUE,TRUE,,,,,,,CLR,,,,,,,,VFR,,,,,,,,,,,,METAR,950.0
KGNT 270115Z AUTO 21012KT 10SM CLR 26/M12 A3000 RMK AO2 T02601118,KGNT,2023-05-27T01:15:00Z,35.17,-107.9,26.0,-11.8,210,12,,10.0,30.0,,,TRUE,TRUE,,,,,,,CLR,,,,,,,,VFR,,,,,,,,,,,,METAR,1988.0
KGNG 270115Z AUTO VRB04KT 10SM FEW065 BKN075 BKN090 15/12 A2993 RMK AO2,KGNG,2023-05-27T01:15:00Z,42.92,-114.77,15.0,12.0,0,4,,10.0,29.929134,,,TRUE,TRUE,,,,,,,FEW,6500,BKN,7500,BKN,9000,,,VFR,,,,,,,,,,,,SPECI,1128.0
KGMJ 270115Z AUTO 06005KT 10SM CLR 23/12 A3007 RMK AO2,KGMJ,2023-05-27T01:15:00Z,36.6,-94.73,23.0,12.0,60,5,,10.0,30.070866,,,TRUE,TRUE,,,,,,,CLR,,,,,,,,VFR,,,,,,,,,,,,METAR,251.0
KGLY 270115Z AUTO 06004KT 10SM CLR 21/05 A3014 RMK AO2,KGLY,2023-05-27T01:15:00Z,38.35,-93.68,21.0,5.0,60,4,,10.0,30.138779,,,TRUE,TRUE,,,,,,,CLR,,,,,,,,VFR,,,,,,,,,,,,METAR,247.0
KGLW 270115Z AUTO 00000KT 10SM CLR 21/14 A3012 RMK AO2 T02060143,KGLW,2023-05-27T01:15:00Z,37.03,-85.95,20.6,14.3,0,0,,10.0,30.121063,,,TRUE,TRUE,,,,,,,CLR,,,,,,,,VFR,,,,,,,,,,,,METAR,216.0
KGKT 270115Z AUTO 07006KT 10SM CLR 22/12 A3009 RMK A01,KGKT,2023-05-27T01:15:00Z,35.85,-83.53,22.0,12.0,70,6,,10.0,30.088583,,,TRUE,TRUE,,,,,,,CLR,,,,,,,,VFR,,,,,,,,,,,,SPECI,305.0
KGIC 270115Z AUTO 06004KT 5SM SCT017 SCT030 OVC050 12/10 A2996 RMK AO1 P0002,KGIC,2023-05-27T01:15:00Z,45.95,-116.12,12.0,10.0,60,4,,5.0,29.958662,,,TRUE,TRUE,,,,,,,SCT,1700,SCT,3000,OVC,5000,,,MVFR,,,,,,0.02,,,,,,METAR,1002.0
KGHW 270115Z AUTO 13008KT 10SM CLR 23/02 A3016 RMK AO2,KGHW,2023-05-27T01:15:00Z,45.63,-95.32,23.0,2.0,130,8,,10.0,30.159449,,,TRUE,TRUE,,,,,,,CLR,,,,,,,,VFR,,,,,,,,,,,,METAR,423.0
KGHG 270115Z AUTO 00000KT 10SM CLR 12/08 A3026 RMK AO2,KGHG,2023-05-27T01:15:00Z,42.1,-70.67,12.0,8.0,0,0,,10.0,30.259842,,,TRUE,TRUE,,,,,,,CLR,,,,,,,,VFR,,,,,,,,,,,,SPECI,3.0
KGGP 270115Z AUTO 07005KT 10SM CLR 19/00 A3025 RMK AO2,KGGP,2023-05-27T01:15:00Z,40.72,-86.37,19.0,0.0,70,5,,10.0,30.250984,,,TRUE,TRUE,,,,,,,CLR,,,,,,,,VFR,,,,,,,,,,,,METAR,224.0
KGGI 270115Z AUTO 12006KT 10SM CLR 22/M01 A3023 RMK AO2 T02201007,KGGI,2023-05-27T01:15:00Z,41.72,-92.73,22.0,-0.7,120,6,,10.0,30.230314,,,TRUE,TRUE,,,,,,,CLR,,,,,,,,VFR,,,,,,,,,,,,SPECI,305.0
KGGE 270115Z AUTO 36014G20KT 7SM -RA BKN046 BKN055 OVC095 14/12 A3004 RMK AO2 P0002,KGGE,2023-05-27T01:15:00Z,33.32,-79.32,14.0,12.0,360,14,20,7.0,30.041338,,,TRUE,TRUE,,,,,,-RA,BKN,4600,BKN,5500,OVC,9500,,,VFR,,,,,,0.02,,,,,,SPECI,9.0
KGDJ 270115Z AUTO 11004KT 10SM CLR 26/15 A3002 RMK AO2 T02570149,KGDJ,2023-05-27T01:15:00Z,32.45,-97.82,25.7,14.9,110,4,,10.0,30.02067,,,TRUE,TRUE,,,,,,,CLR,,,,,,,,VFR,,,,,,,,,,,,SPECI,235.0
KGDB 270115Z AUTO 13009KT 10SM CLR 26/M02 A3015 RMK AO2 T02631022,KGDB,2023-05-27T01:15:00Z,44.75,-95.55,26.3,-2.2,130,9,,10.0,30.15059,,,TRUE,TRUE,,,,,,,CLR,,,,,,,,VFR,,,,,,,,,,,,METAR,316.0
KGDA 270115Z AUTO 00000KT 10SM CLR 17/08 A3014 RMK AO2 T01690075 PWINO,KGDA,2023-05-27T01:15:00Z,37.33,-88.1,16.9,7.5,0,0,,10.0,30.138779,,,TRUE,TRUE,,,,,TRUE,,CLR,,,,,,,,VFR,,,,,,,,,,,,METAR,199.0
KGCY 270115Z AUTO 05008KT 10SM CLR 20/08 A3013 RMK A01,KGCY,2023-05-27T01:15:00Z,36.2,-82.82,20.0,8.0,50,8,,10.0,30.129921,,,TRUE,TRUE,,,,,,,CLR,,,,,,,,VFR,,,,,,,,,,,,SPECI,488.0
KGCM 270115Z AUTO 07005KT 10SM CLR 24/17 A3006 RMK AO2,KGCM,2023-05-27T01:15:00Z,36.3,-95.48,24.0,17.0,70,5,,10.0,30.059055,,,TRUE,TRUE,,,,,,,CLR,,,,,,,,VFR,,,,,,,,,,,,METAR,215.0
KGCD 270115Z AUTO 33008KT 10SM BKN070 BKN085 21/05 A2989 RMK AO2 T02110052,KGCD,2023-05-27T01:15:00Z,44.4,-118.97,21.1,5.2,330,8,,10.0,29.890747,,,TRUE,TRUE,,,,,,,BKN,7000,BKN,8500,,,,,VFR,,,,,,,,,,,,METAR,1122.0
KGBG 270115Z AUTO 06003KT 10SM CLR 20/M01 A3023 RMK AO2 T02031007 TSNO,KGBG,2023-05-27T01:15:00Z,40.93,-90.43,20.3,-0.7,60,3,,10.0,30.230314,,,TRUE,TRUE,,,TRUE,,,,CLR,,,,,,,,VFR,,,,,,,,,,,,METAR,230.0
KGAO 270115Z AUTO 00000KT 10SM CLR 25/16 A2997 RMK AO2 T02460161,KGAO,2023-05-27T01:15:00Z,29.45,-90.27,24.6,16.1,0,0,,10.0,29.970472,,,TRUE,TRUE,,,,,,,CLR,,,,,,,,VFR,,,,,,,,,,,,METAR,0.0
KGAF 270115Z AUTO 20018KT 9SM CLR 29/11 A2998 RMK AO2,KGAF,2023-05-27T01:15:00Z,48.4,-97.37,29.0,11.0,200,18,,9.0,29.97933,,,TRUE,TRUE,,,,,,,CLR,,,,,,,,VFR,,,,,,,,,,,,SPECI,250.0
KFZG 270115Z AUTO 05006KT 020V100 10SM CLR 20/11 A3006 RMK AO2 T01990108,KFZG,2023-05-27T01:15:00Z,31.68,-83.27,19.9,10.8,50,6,,10.0,30.059055,,,TRUE,TRUE,,,,,,,CLR,,,,,,,,VFR,,,,,,,,,,,,METAR,105.0
KFYM 270115Z AUTO 34003KT 10SM SCT065 20/17 A3009 RMK A01,KFYM,2023-05-27T01:15:00Z,35.07,-86.57,20.0,17.0,340,3,,10.0,30.088583,,,TRUE,TRUE,,,,,,,SCT,6500,,,,,,,VFR,,,,,,,,,,,,SPECI,297.0
KFYJ 270115Z AUTO 00000KT 10SM CLR 13/07 A3025 RMK AO1 T01300073,KFYJ,2023-05-27T01:15:00Z,37.52,-76.77,13.0,7.3,0,0,,10.0,30.250984,,,TRUE,TRUE,,,,,,,CLR,,,,,,,,VFR,,,,,,,,,,,,METAR,3.0
KFYG 270115Z AUTO 00000KT 10SM 21/05 A3016 RMK AO2,KFYG,2023-05-27T01:15:00Z,38.58,-91.0,21.0,5.0,0,0,,10.0,30.159449,,,TRUE,TRUE,,,,,,,,,,,,,,,,,,,,,,,,,,,METAR,147.0
KFXY 270115Z AUTO 12006KT 10SM CLR 18/00 A3021 RMK AO2,KFXY,2023-05-27T01:15:00Z,43.23,-93.62,18.0,0.0,120,6,,10.0,30.209646,,,TRUE,TRUE,,,,,,,CLR,,,,,,,,VFR,,,,,,,,,,,,METAR,366.0
KFWS 270115Z AUTO 07004KT 10SM CLR 26/13 A3002 RMK AO2 T02570133,KFWS,2023-05-27T01:15:00Z,32.57,-97.3,25.7,13.3,70,4,,10.0,30.02067,,,TRUE,TRUE,,,,,,,CLR,,,,,,,,VFR,,,,,,,,,,,,SPECI,211.0
KFWC 270115Z AUTO 36003KT 10SM CLR 19/07 A3014 RMK AO1 T01920073,KFWC,2023-05-27T01:15:00Z,38.38,-88.42,19.2,7.3,360,3,,10.0,30.138779,,,TRUE,TRUE,,,,,,,CLR,,,,,,,,VFR,,,,,,,,,,,,METAR,131.0
KFWB 270115Z AUTO 06005KT 10SM CLR 21/06 A3012 RMK AO2,KFWB,2023-05-27T01:15:00Z,36.7,-93.4,21.0,6.0,60,5,,10.0,30.121063,,,TRUE,TRUE,,,,,,,CLR,,,,,,,,VFR,,,,,,,,,,,,METAR,392.0
KFVX 270115Z AUTO 00000KT 10SM CLR 15/07 A3023 RMK AO2 T01520074,KFVX,2023-05-27T01:15:00Z,37.35,-78.43,15.2,7.4,0,0,,10.0,30.230314,,,TRUE,TRUE,,,,,,,CLR,,,,,,,,VFR,,,,,,,,,,,,SPECI,129.0
KFTN 270115Z AUTO 09009G16KT 10SM CLR 30/16 A2993 RMK A01,KFTN,2023-05-27T01:15:00Z,28.22,-100.02,30.0,16.0,90,9,16,10.0,29.929134,,,TRUE,TRUE,,,,,,,CLR,,,,,,,,VFR,,,,,,,,,,,,SPECI,236.0
KFSW 270115Z AUTO 00000KT 10SM 21/01 A3020 RMK AO2,KFSW,2023-05-27T01:15:00Z,40.67,-91.32,21.0,1.0,0,0,,10.0,30.200787,,,TRUE,TRUE,,,,,,,,,,,,,,,,,,,,,,,,,,,METAR,219.0
KFSE 270115Z AUTO 16010KT 10SM CLR 25/05 A3010 RMK AO2,KFSE,2023-05-27T01:15:00Z,47.58,-95.77,25.0,5.0,160,10,,10.0,30.100393,,,TRUE,TRUE,,,,,,,CLR,,,,,,,,VFR,,,,,,,,,,,,SPECI,389.0
KFRR 270115Z AUTO 28003KT 10SM CLR 12/07 A3024 RMK AO1,KFRR,2023-05-27T01:15:00Z,38.92,-78.25,12.0,7.0,280,3,,10.0,30.239174,,,TRUE,TRUE,,,,,,,CLR,,,,,,,,VFR,,,,,,,,,,,,SPECI,213.0
KFRH 270115Z AUTO 06004KT 10SM CLR 18/05 A3015 RMK AO1,KFRH,2023-05-27T01:15:00Z,38.5,-86.63,18.0,5.0,60,4,,10.0,30.15059,,,TRUE,TRUE,,,,,,,CLR,,,,,,,,VFR,,,,,,,,,,,,METAR,241.0
KFPY 270115Z AUTO 03009G15KT 10SM OVC050 23/15 A2998 RMK AO2 T02260151,KFPY,2023-05-27T01:15:00Z,30.07,-83.57,22.6,15.1,30,9,15,10.0,29.97933,,,TRUE,TRUE,,,,,,,OVC,5000,,,,,,,VFR,,,,,,,,,,,,METAR,12.0
KFOT 270115Z AUTO 30011KT 10SM OVC005 11/11 A2997 RMK AO1,KFOT,2023-05-27T01:15:00Z,40.55,-124.13,11.0,11.0,300,11,,10.0,29.970472,,,TRUE,TRUE,,,,,,,OVC,500,,,,,,,IFR,,,,,,,,,,,,SPECI,118.0
KFOA 270115Z AUTO 03004KT 10SM CLR 21/06 A3016 RMK AO2,KFOA,2023-05-27T01:15:00Z,38.67,-88.45,21.0,6.0,30,4,,10.0,30.159449,,,TRUE,TRUE,,,,,,,CLR,,,,,,,,VFR,,,,,,,,,,,,SPECI,141.0
KFMM 270115Z AUTO 9SM -RA OVC070 14/13 A3006 RMK AO2 LTG DSNT ALQDS,KFMM,2023-05-27T01:15:00Z,40.33,-103.8,14.0,13.0,,,,9.0,30.059055,,,TRUE,TRUE,,,,,,-RA,OVC,7000,,,,,,,VFR,,,,,,,,,,,,METAR,1376.0
KFLY 270115Z AUTO 11009KT 10SM CLR 14/08 A3013 RMK AO2 LTG DSNT NE T01400075,KFLY,2023-05-27T01:15:00Z,38.95,-104.57,14.0,7.5,110,9,,10.0,30.129921,,,TRUE,TRUE,,,,,,,CLR,,,,,,,,VFR,,,,,,,,,,,,SPECI,2096.0
KFKS 270115Z AUTO 00000KT 10SM CLR 12/02 A3032 RMK AO2 T01150017,KFKS,2023-05-27T01:15:00Z,44.63,-86.2,11.5,1.7,0,0,,10.0,30.318897,,,TRUE,TRUE,,,,,,,CLR,,,,,,,,VFR,,,,,,,,,,,,SPECI,189.0
KFKR 270115Z AUTO 06010KT 10SM CLR 20/M02 A3021 RMK AO2,KFKR,2023-05-27T01:15:00Z,40.27,-86.57,20.0,-2.0,60,10,,10.0,30.209646,,,TRUE,TRUE,,,,,,,CLR,,,,,,,,VFR,,,,,,,,,,,,METAR,260.0
KFKN 270115Z AUTO 00000KT 10SM CLR 14/06 A3023 RMK AO2 T01350059,KFKN,2023-05-27T01:15:00Z,36.7,-76.9,13.5,5.9,0,0,,10.0,30.230314,,,TRUE,TRUE,,,,,,,CLR,,,,,,,,VFR,,,,,,,,,,,,METAR,9.0
KFKA 270115Z AUTO 13005KT 10SM CLR 20/03 A3025 RMK AO2,KFKA,2023-05-27T01:15:00Z,43.68,-92.17,20.0,3.0,130,5,,10.0,30.250984,,,TRUE,TRUE,,,,,,,CLR,,,,,,,,VFR,,,,,,,,,,,,METAR,388.0
KFHB 270115Z AUTO 01016G22KT 10SM OVC025 19/17 A2997 RMK AO2,KFHB,2023-05-27T01:15:00Z,30.62,-81.47,19.0,17.0,10,16,22,10.0,29.970472,,,TRUE,TRUE,,,,,,,OVC,2500,,,,,,,MVFR,,,,,,,,,,,,METAR,4.0
KFGN 270115Z AUTO 18010KT 10SM CLR 17/12 A3005 RMK AO2,KFGN,2023-05-27T01:15:00Z,49.32,-94.9,17.0,12.0,180,10,,10.0,30.050198,,,TRUE,TRUE,,,,,,,CLR,,,,,,,,VFR,,,,,,,,,,,,METAR,327.0
KFFX 270115Z AUTO 31004KT 10SM CLR 16/02 A3030 RMK AO2 T01630016,KFFX,2023-05-27T01:15:00Z,43.43,-86.0,16.3,1.6,310,4,,10.0,30.301182,,,TRUE,TRUE,,,,,,,CLR,,,,,,,,VFR,,,,,,,,,,,,SPECI,234.0
KFFM 270115Z AUTO 15012KT 10SM CLR 26/04 A3009 RMK AO2,KFFM,2023-05-27T01:15:00Z,46.28,-96.15,26.0,4.0,150,12,,10.0,30.088583,,,TRUE,TRUE,,,,,,,CLR,,,,,,,,VFR,,,,,,,,,,,,METAR,362.0
KFFL 270115Z AUTO 12004KT 10SM CLR 20/M02 A3021 RMK A01,KFFL,2023-05-27T01:15:00Z,41.05,-91.97,20.0,-2.0,120,4,,10.0,30.209646,,,TRUE,TRUE,,,,,,,CLR,,,,,,,,VFR,,,,,,,,,,,,METAR,240.0
KFET 270115Z AUTO 13008KT 10SM CLR 24/03 A3013 RMK AO2 T02360034,KFET,2023-05-27T01:15:00Z,41.45,-96.52,23.6,3.4,130,8,,10.0,30.129921,,,TRUE,TRUE,,,,,,,CLR,,,,,,,,VFR,,,,,,,,,,,,METAR,366.0
KFEP 270115Z AUTO 10006KT 10SM CLR 17/M01 A3028 RMK AO2 T01721008,KFEP,2023-05-27T01:15:00Z,42.25,-89.58,17.2,-0.8,100,6,,10.0,30.280512,,,TRUE,TRUE,,,,,,,CLR,,,,,,,,VFR,,,,,,,,,,,,SPECI,255.0
KFDW 270115Z AUTO 02003KT 10SM CLR 17/07 A3012 RMK AO1,KFDW,2023-05-27T01:15:00Z,34.32,-81.12,17.0,7.0,20,3,,10.0,30.121063,,,TRUE,TRUE,,,,,,,CLR,,,,,,,,VFR,,,,,,,,,,,,SPECI,174.0
KFBL 270115Z AUTO 15003KT 10SM CLR 22/M01 A3021 RMK AO2,KFBL,2023-05-27T01:15:00Z,44.33,-93.32,22.0,-1.0,150,3,,10.0,30.209646,,,TRUE,TRUE,,,,,,,CLR,,,,,,,,VFR,,,,,,,,,,,,METAR,318.0
KF70 270115Z AUTO 24008KT 10SM SCT027 18/10 A2994 RMK AO2,KF70,2023-05-27T01:15:00Z,33.57,-117.13,18.0,10.0,240,8,,10.0,29.940945,,,TRUE,TRUE,,,,,,,SCT,2700,,,,,,,VFR,,,,,,,,,,,,SPECI,406.0
KF46 270115Z AUTO 10004KT 10SM CLR 25/15 A3002 RMK AO2 T02520145,KF46,2023-05-27T01:15:00Z,32.93,-96.43,25.2,14.5,100,4,,10.0,30.02067,,,TRUE,TRUE,,,,,,,CLR,,,,,,,,VFR,,,,,,,,,,,,SPECI,175.0
KF44 270115Z AUTO 00000KT 10SM CLR 23/15 A2999 RMK AO2,KF44,2023-05-27T01:15:00Z,32.17,-95.83,23.0,15.0,0,0,,10.0,29.991142,,,TRUE,TRUE,,,,,,,CLR,,,,,,,,VFR,,,,,,,,,,,,SPECI,137.0
KF17 270115Z AUTO 00000KT 10SM CLR 24/17 A3000 RMK AO2,KF17,2023-05-27T01:15:00Z,31.83,-94.15,24.0,17.0,0,0,,10.0,30.0,,,TRUE,TRUE,,,,,,,CLR,,,,,,,,VFR,,,,,,,,,,,,SPECI,93.0
KF05 270115Z AUTO 14004KT 10SM CLR 25/16 A3004 RMK AO2 T02520163,KF05,2023-05-27T01:15:00Z,34.23,-99.28,25.2,16.3,140,4,,10.0,30.041338,,,TRUE,TRUE,,,,,,,CLR,,,,,,,,VFR,,,,,,,,,,,,SPECI,384.0
KF00 270115Z AUTO 12004KT 10SM CLR 25/14 A3002 RMK AO2 T02490141,KF00,2023-05-27T01:15:00Z,33.62,-96.18,24.9,14.1,120,4,,10.0,30.02067,,,TRUE,TRUE,,,,,,,CLR,,,,,,,,VFR,,,,,,,,,,,,SPECI,189.0
KEZZ 270115Z AUTO 10006KT 10SM CLR 20/01 A3018 RMK AO2 T02040008,KEZZ,2023-05-27T01:15:00Z,39.72,-94.28,20.4,0.8,100,6,,10.0,30.180119,,,TRUE,TRUE,,,,,,,CLR,,,,,,,,VFR,,,,,,,,,,,,METAR,317.0
KEZS 270115Z AUTO 13005KT 10SM CLR 19/04 A3029 RMK AO2 T01870037,KEZS,2023-05-27T01:15:00Z,44.78,-88.57,18.7,3.7,130,5,,10.0,30.28937,,,TRUE,TRUE,,,,,,,CLR,,,,,,,,VFR,,,,,,,,,,,,SPECI,247.0
KEZP 270115Z AUTO 10009KT 10SM SCT090 26/14 A2997 RMK A01,KEZP,2023-05-27T01:15:00Z,28.22,-92.8,26.0,14.0,100,9,,10.0,29.970472,,,TRUE,TRUE,,,,,,,SCT,9000,,,,,,,VFR,,,,,,,,,,,,METAR,30.0
KEZM 270115Z AUTO 06008KT 10SM BKN090 BKN110 19/09 A3007 RMK AO2,KEZM,2023-05-27T01:15:00Z,32.22,-83.13,19.0,9.0,60,8,,10.0,30.070866,,,TRUE,TRUE,,,,,,,BKN,9000,BKN,11000,,,,,VFR,,,,,,,,,,,,METAR,86.0
KEZF 270115Z AUTO 00000KT 10SM CLR 17/09 A3023 RMK AO2 T01700085,KEZF,2023-05-27T01:15:00Z,38.27,-77.45,17.0,8.5,0,0,,10.0,30.230314,,,TRUE,TRUE,,,,,,,CLR,,,,,,,,VFR,,,,,,,,,,,,METAR,26.0
KEVU 270115Z AUTO 11007KT 7SM CLR 21/03 A3017 RMK AO2 T02130039,KEVU,2023-05-27T01:15:00Z,40.35,-94.92,21.3,3.9,110,7,,7.0,30.171259,,,TRUE,TRUE,,,,,,,CLR,,,,,,,,VFR,,,,,,,,,,,,METAR,351.0
KEVM 270115Z AUTO 20004KT 10SM CLR 22/07 A3021 RMK AO2 T02220072,KEVM,2023-05-27T01:15:00Z,47.42,-92.5,22.2,7.2,200,4,,10.0,30.209646,,,TRUE,TRUE,,,,,,,CLR,,,,,,,,VFR,,,,,,,,,,,,METAR,419.0
KETH 270115Z AUTO 14014KT 10SM CLR 26/01 A3009 RMK AO2,KETH,2023-05-27T01:15:00Z,45.78,-96.55,26.0,1.0,140,14,,10.0,30.088583,,,TRUE,TRUE,,,,,,,CLR,,,,,,,,VFR,,,,,,,,,,,,SPECI,309.0
KETB 270115Z AUTO 00000KT 10SM CLR 14/M05 A3032 RMK AO2,KETB,2023-05-27T01:15:00Z,43.42,-88.13,14.0,-5.0,0,0,,10.0,30.318897,,,TRUE,TRUE,,,,,,,CLR,,,,,,,,VFR,,,,,,,,,,,,METAR,269.0
KERY 270115Z AUTO 20004KT 10SM CLR 15/00 A3030 RMK AO2 T01481005,KERY,2023-05-27T01:15:00Z,46.3,-85.45,14.8,-0.5,200,4,,10.0,30.301182,,,TRUE,TRUE,,,,,,,CLR,,,,,,,,VFR,,,,,,,,,,,,SPECI,261.0
KERV 270115Z AUTO 09004KT 10SM CLR 25/17 A3000 RMK AO2 T02490170,KERV,2023-05-27T01:15:00Z,29.98,-99.08,24.9,17.0,90,4,,10.0,30.0,,,TRUE,TRUE,,,,,,,CLR,,,,,,,,VFR,,,,,,,,,,,,SPECI,483.0
KEQA 270115Z AUTO 12006KT 10SM CLR 24/12 A3010 RMK AO2,KEQA,2023-05-27T01:15:00Z,37.78,-96.82,24.0,12.0,120,6,,10.0,30.100393,,,TRUE,TRUE,,,,,,,CLR,,,,,,,,VFR,,,,,,,,,,,,METAR,422.0
KEOK 270115Z AUTO 00000KT 10SM CLR 20/02 A3020 RMK A01,KEOK,2023-05-27T01:15:00Z,40.47,-91.42,20.0,2.0,0,0,,10.0,30.200787,,,TRUE,TRUE,,,,,,,CLR,,,,,,,,VFR,,,,,,,,,,,,METAR,206.0
KEOE 270115Z AUTO 06007KT 10SM CLR 17/04 A3016 RMK AO2,KEOE,2023-05-27T01:15:00Z,34.32,-81.63,17.0,4.0,60,7,,10.0,30.159449,,,TRUE,TRUE,,,,,,,CLR,,,,,,,,VFR,,,,,,,,,,,,METAR,166.0
KENL 270115Z AUTO 00000KT 10SM CLR 20/12 A3016 RMK AO2 T02030115,KENL,2023-05-27T01:15:00Z,38.52,-89.1,20.3,11.5,0,0,,10.0,30.159449,,,TRUE,TRUE,,,,,,,CLR,,,,,,,,VFR,,,,,,,,,,,,SPECI,161.0
KEMV 270115Z AUTO 02003KT 10SM CLR 14/06 A3024 RMK AO2 T01440059,KEMV,2023-05-27T01:15:00Z,36.68,-77.48,14.4,5.9,20,3,,10.0,30.239174,,,TRUE,TRUE,,,,,,,CLR,,,,,,,,VFR,,,,,,,,,,,,METAR,35.0
KEMM 270115Z AUTO 10SM CLR 10/04 A3005 RMK AO2 TSNO,KEMM,2023-05-27T01:15:00Z,41.82,-110.55,10.0,4.0,,,,10.0,30.050198,,,TRUE,TRUE,,,TRUE,,,,CLR,,,,,,,,VFR,,,,,,,,,,,,SPECI,2219.0
KELO 270115Z AUTO 22003KT 10SM CLR 23/02 A3020 RMK AO2,KELO,2023-05-27T01:15:00Z,47.82,-91.83,23.0,2.0,220,3,,10.0,30.200787,,,TRUE,TRUE,,,,,,,CLR,,,,,,,,VFR,,,,,,,,,,,,METAR,438.0
KELK 270115Z AUTO 13005KT 10SM OVC095 21/18 A3007 RMK AO2 SLP466 T02100178 $,KELK,2023-05-27T01:15:00Z,35.43,-99.4,21.0,17.8,130,5,,10.0,30.070866,1046.6,,TRUE,TRUE,TRUE,,,,,,OVC,9500,,,,,,,VFR,,,,,,,,,,,,METAR,603.0
KELA 270115Z AUTO 04004KT 10SM CLR 27/18 A2995 RMK AO2 T02710176,KELA,2023-05-27T01:15:00Z,29.6,-96.32,27.1,17.6,40,4,,10.0,29.949802,,,TRUE,TRUE,,,,,,,CLR,,,,,,,,VFR,,,,,,,,,,,,METAR,56.0
KEKX 270115Z AUTO 04004KT 10SM CLR 19/12 A3014 RMK AO2 T01900115,KEKX,2023-05-27T01:15:00Z,37.68,-85.92,19.0,11.5,40,4,,10.0,30.138779,,,TRUE,TRUE,,,,,,,CLR,,,,,,,,VFR,,,,,,,,,,,,METAR,234.0
KEKS 270115Z AUTO 32010KT 10SM OVC110 15/10 A2999 RMK AO2,KEKS,2023-05-27T01:15:00Z,45.27,-111.65,15.0,10.0,320,10,,10.0,29.991142,,,TRUE,TRUE,,,,,,,OVC,11000,,,,,,,VFR,,,,,,,,,,,,SPECI,1636.0
KEKM 270115Z AUTO 09004KT 10SM CLR 19/00 A3027 RMK AO2 T01920005 $,KEKM,2023-05-27T01:15:00Z,41.72,-86.0,19.2,0.5,90,4,,10.0,30.268702,,,TRUE,TRUE,TRUE,,,,,,CLR,,,,,,,,VFR,,,,,,,,,,,,SPECI,236.0
KEKE 270115Z AUTO 07011KT 10SM CLR 26/16 A2989 RMK A01,KEKE,2023-05-27T01:15:00Z,28.5,-91.58,26.0,16.0,70,11,,10.0,29.890747,,,TRUE,TRUE,,,,,,,CLR,,,,,,,,VFR,,,,,,,,,,,,METAR,31.0
KEIK 270115Z AUTO 10009G14KT 10SM CLR 19/10 A3002 RMK AO2 LTG DSNT E T01870102,KEIK,2023-05-27T01:15:00Z,40.02,-105.05,18.7,10.2,100,9,14,10.0,30.02067,,,TRUE,TRUE,,,,,,,CLR,,,,,,,,VFR,,,,,,,,,,,,SPECI,1551.0
KEGV 270115Z AUTO 00000KT 10SM CLR 17/00 A3028 RMK AO2 T01741001,KEGV,2023-05-27T01:15:00Z,45.93,-89.27,17.4,-0.1,0,0,,10.0,30.280512,,,TRUE,TRUE,,,,,,,CLR,,,,,,,,VFR,,,,,,,,,,,,SPECI,499.0
KEGT 270115Z AUTO 12004KT 10SM CLR 24/13 A3008 RMK AO2 T02360127,KEGT,2023-05-27T01:15:00Z,37.32,-97.38,23.6,12.7,120,4,,10.0,30.079725,,,TRUE,TRUE,,,,,,,CLR,,,,,,,,VFR,,,,,,,,,,,,METAR,387.0
KEFT 270115Z AUTO 10006KT 10SM CLR 18/M04 A3027 RMK AO2 T01811039,KEFT,2023-05-27T01:15:00Z,42.62,-89.6,18.1,-3.9,100,6,,10.0,30.268702,,,TRUE,TRUE,,,,,,,CLR,,,,,,,,VFR,,,,,,,,,,,,METAR,332.0
KEFK 270115Z AUTO 20003KT 10SM CLR 12/03 A3026 RMK AO2 T01200028,KEFK,2023-05-27T01:15:00Z,44.88,-72.23,12.0,2.8,200,3,,10.0,30.259842,,,TRUE,TRUE,,,,,,,CLR,,,,,,,,VFR,,,,,,,,,,,,METAR,282.0
KEDU 270115Z AUTO 19007KT 10SM CLR 23/12 A2985 RMK AO1,KEDU,2023-05-27T01:15:00Z,38.53,-121.78,23.0,12.0,190,7,,10.0,29.84941,,,TRUE,TRUE,,,,,,,CLR,,,,,,,,VFR,,,,,,,,,,,,SPECI,20.0
KEDN 270115Z AUTO 00000KT 10SM CLR 22/16 A3000 RMK AO2 T02210156 PWINO,KEDN,2023-05-27T01:15:00Z,31.3,-85.9,22.1,15.6,0,0,,10.0,30.0,,,TRUE,TRUE,,,,,TRUE,,CLR,,,,,,,,VFR,,,,,,,,,,,,METAR,103.0
KEDJ 270115Z AUTO 06010KT 10SM CLR 16/01 A3026 RMK A01,KEDJ,2023-05-27T01:15:00Z,40.37,-83.82,16.0,1.0,60,10,,10.0,30.259842,,,TRUE,TRUE,,,,,,,CLR,,,,,,,,VFR,,,,,,,,,,,,METAR,341.0
KEDC 270115Z AUTO 11004KT 5SM HZ CLR 25/18 A2996 RMK AO2,KEDC,2023-05-27T01:15:00Z,30.4,-97.57,25.0,18.0,110,4,,5.0,29.958662,,,TRUE,TRUE,,,,,,HZ,CLR,,,,,,,,MVFR,,,,,,,,,,,,SPECI,184.0
KECU 270115Z AUTO 14008KT 10SM CLR 24/16 A3005 RMK AO2,KECU,2023-05-27T01:15:00Z,29.95,-100.17,24.0,16.0,140,8,,10.0,30.050198,,,TRUE,TRUE,,,,,,,CLR,,,,,,,,VFR,,,,,,,,,,,,METAR,725.0
KECS 270115Z AUTO 14016G27KT 10SM BKN045 OVC050 21/11 A2992 RMK AO2 LTG DSNT S THRU NW,KECS,2023-05-27T01:15:00Z,43.88,-104.32,21.0,11.0,140,16,27,10.0,29.920275,,,TRUE,TRUE,,,,,,,BKN,4500,OVC,5000,,,,,VFR,,,,,,,,,,,,SPECI,1273.0
KEBG 270115Z AUTO 10007KT 10SM CLR 27/20 A2994 RMK AO2 T02700199,KEBG,2023-05-27T01:15:00Z,26.45,-98.13,27.0,19.9,100,7,,10.0,29.940945,,,TRUE,TRUE,,,,,,,CLR,,,,,,,,VFR,,,,,,,,,,,,SPECI,21.0
KEBA 270115Z AUTO 06003KT 10SM CLR 18/09 A3012 RMK AO2 T01770093,KEBA,2023-05-27T01:15:00Z,34.1,-82.82,17.7,9.3,60,3,,10.0,30.121063,,,TRUE,TRUE,,,,,,,CLR,,,,,,,,VFR,,,,,,,,,,,,METAR,180.0
KE42 270115Z AUTO 14015KT 10SM SCT030 SCT037 SCT046 20/15 A3008 RMK AO2 T02000148,KE42,2023-05-27T01:15:00Z,36.22,-101.2,20.0,14.8,140,15,,10.0,30.079725,,,TRUE,TRUE,,,,,,,SCT,3000,SCT,3700,SCT,4600,,,VFR,,,,,,,,,,,,SPECI,942.0
KE41 270115Z AUTO 14009KT 10SM SCT041 OVC060 25/16 A3001 RMK AO2 LTG DSNT N T02540164,KE41,2023-05-27T01:15:00Z,31.2,-101.47,25.4,16.4,140,9,,10.0,30.008858,,,TRUE,TRUE,,,,,,,SCT,4100,OVC,6000,,,,,VFR,,,,,,,,,,,,METAR,825.0
KE38 270115Z AUTO 15006KT 10SM CLR 21/17 A3008 RMK AO2 LTG DSNT NW T02070171,KE38,2023-05-27T01:15:00Z,30.38,-103.68,20.7,17.1,150,6,,10.0,30.079725,,,TRUE,TRUE,,,,,,,CLR,,,,,,,,VFR,,,,,,,,,,,,METAR,1372.0
KE16 270115Z AUTO 20010KT 10SM CLR 18/10 A2994 RMK AO2 PWINO PNO,KE16,2023-05-27T01:15:00Z,37.08,-121.6,18.0,10.0,200,10,,10.0,29.940945,,,TRUE,TRUE,,,,,TRUE,,CLR,,,,,,,,VFR,,,,,,,,,,,,METAR,84.0
KDZJ 270115Z AUTO 14007KT 10SM OVC110 19/11 A3015 RMK AO2 T01870108,KDZJ,2023-05-27T01:15:00Z,34.85,-84.0,18.7,10.8,140,7,,10.0,30.15059,,,TRUE,TRUE,,,,,,,OVC,11000,,,,,,,VFR,,,,,,,,,,,,METAR,578.0
KDZB 270115Z AUTO 12004KT 10SM CLR 26/16 A2999 RMK AO2 T02590164,KDZB,2023-05-27T01:15:00Z,30.53,-98.37,25.9,16.4,120,4,,10.0,29.991142,,,TRUE,TRUE,,,,,,,CLR,,,,,,,,VFR,,,,,,,,,,,,SPECI,329.0
KDYT 270115Z AUTO 05005KT 10SM CLR 10/05 A3021 RMK AO2,KDYT,2023-05-27T01:15:00Z,46.72,-92.03,10.0,5.0,50,5,,10.0,30.209646,,,TRUE,TRUE,,,,,,,CLR,,,,,,,,VFR,,,,,,,,,,,,METAR,185.0
KDYB 270115Z AUTO 01006KT 7SM -RA BKN026 BKN036 OVC120 15/15 A3005 RMK AO2,KDYB,2023-05-27T01:15:00Z,33.07,-80.28,15.0,15.0,10,6,,7.0,30.050198,,,TRUE,TRUE,,,,,,-RA,BKN,2600,BKN,3600,OVC,12000,,,MVFR,,,,,,,,,,,,METAR,15.0
KDYA 270115Z AUTO 00000KT 10SM CLR 21/16 A3000 RMK AO2 T02100156,KDYA,2023-05-27T01:15:00Z,32.47,-87.95,21.0,15.6,0,0,,10.0,30.0,,,TRUE,TRUE,,,,,,,CLR,,,,,,,,VFR,,,,,,,,,,,,SPECI,33.0
KDXX 270115Z AUTO 15011KT 10SM CLR 27/M06 A3012 RMK AO2,KDXX,2023-05-27T01:15:00Z,44.98,-96.18,27.0,-6.0,150,11,,10.0,30.121063,,,TRUE,TRUE,,,,,,,CLR,,,,,,,,VFR,,,,,,,,,,,,METAR,327.0
KDWX 270115Z AUTO 32020G29KT 10SM SCT120 15/04 A3001 RMK AO2 T01520040,KDWX,2023-05-27T01:15:00Z,41.03,-107.5,15.2,4.0,320,20,29,10.0,30.008858,,,TRUE,TRUE,,,,,,,SCT,12000,,,,,,,VFR,,,,,,,,,,,,SPECI,1974.0
KDWA 270115Z AUTO 00000KT 10SM CLR 25/13 A2985 RMK AO2,KDWA,2023-05-27T01:15:00Z,38.58,-121.85,25.0,13.0,0,0,,10.0,29.84941,,,TRUE,TRUE,,,,,,,CLR,,,,,,,,VFR,,,,,,,,,,,,METAR,28.0
KDVO 270115Z AUTO 23009G15KT 10SM CLR 16/10 A2994 RMK AO2,KDVO,2023-05-27T01:15:00Z,38.15,-122.55,16.0,10.0,230,9,15,10.0,29.940945,,,TRUE,TRUE,,,,,,,CLR,,,,,,,,VFR,,,,,,,,,,,,METAR,1.0
KDUX 270115Z AUTO 13015G20KT 10SM BKN032 BKN042 OVC050 20/15 A3007 RMK AO2 T01990145,KDUX,2023-05-27T01:15:00Z,35.85,-102.02,19.9,14.5,130,15,20,10.0,30.070866,,,TRUE,TRUE,,,,,,,BKN,3200,BKN,4200,OVC,5000,,,VFR,,,,,,,,,,,,SPECI,1129.0
KDUH 270115Z AUTO 00000KT 10SM CLR 14/04 A3030 RMK AO2 T01360043,KDUH,2023-05-27T01:15:00Z,41.73,-83.65,13.6,4.3,0,0,,10.0,30.301182,,,TRUE,TRUE,,,,,,,CLR,,,,,,,,VFR,,,,,,,,,,,,SPECI,203.0
KDUC 270115Z AUTO 11004KT 10SM BKN110 24/18 A3005 RMK AO2 T02390182,KDUC,2023-05-27T01:15:00Z,34.47,-97.97,23.9,18.2,110,4,,10.0,30.050198,,,TRUE,TRUE,,,,,,,BKN,11000,,,,,,,VFR,,,,,,,,,,,,METAR,339.0
KDUA 270115Z AUTO 00000KT 10SM CLR 25/16 A3004 RMK AO2,KDUA,2023-05-27T01:15:00Z,33.95,-96.4,25.0,16.0,0,0,,10.0,30.041338,,,TRUE,TRUE,,,,,,,CLR,,,,,,,,VFR,,,,,,,,,,,,METAR,209.0
KDTL 270115Z AUTO 14010KT 10SM CLR 24/04 A3011 RMK AO2,KDTL,2023-05-27T01:15:00Z,46.82,-95.88,24.0,4.0,140,10,,10.0,30.109253,,,TRUE,TRUE,,,,,,,CLR,,,,,,,,VFR,,,,,,,,,,,,SPECI,425.0
KDTA 270115Z AUTO 15028G41KT 7SM SCT060 SCT080 BKN110 17/05 A2986 RMK AO1,KDTA,2023-05-27T01:15:00Z,39.38,-112.5,17.0,5.0,150,28,41,7.0,29.861221,,,TRUE,TRUE,,,,,,,SCT,6000,SCT,8000,BKN,11000,,,VFR,,,,,,,,,,,,SPECI,1452.0
KDRM 270115Z AUTO 00000KT 10SM CLR 12/05 A3030 RMK AO2 T01170054,KDRM,2023-05-27T01:15:00Z,46.0,-83.75,11.7,5.4,0,0,,10.0,30.301182,,,TRUE,TRUE,,,,,,,CLR,,,,,,,,VFR,,,,,,,,,,,,METAR,201.0
KDRI 270115Z AUTO 00000KT 10SM CLR 24/17 A2999 RMK AO2 T02410166 $,KDRI,2023-05-27T01:15:00Z,30.83,-93.33,24.1,16.6,0,0,,10.0,29.991142,,,TRUE,TRUE,TRUE,,,,,,CLR,,,,,,,,VFR,,,,,,,,,,,,METAR,59.0
KDQH 270115Z AUTO 06009KT 10SM CLR 20/11 A3005 RMK AO2 T01970110,KDQH,2023-05-27T01:15:00Z,31.48,-82.87,19.7,11.0,60,9,,10.0,30.050198,,,TRUE,TRUE,,,,,,,CLR,,,,,,,,VFR,,,,,,,,,,,,METAR,76.0
KDNV 270115Z AUTO 05009KT 10SM CLR 22/M01 A3021 RMK AO2 T02151006,KDNV,2023-05-27T01:15:00Z,40.2,-87.6,21.5,-0.6,50,9,,10.0,30.209646,,,TRUE,TRUE,,,,,,,CLR,,,,,,,,VFR,,,,,,,,,,,,SPECI,208.0
KDNS 270115Z AUTO 13004G10KT 10SM CLR 21/M00 A3018 RMK AO2,KDNS,2023-05-27T01:15:00Z,41.98,-95.37,21.0,0.0,130,4,10,10.0,30.180119,,,TRUE,TRUE,,,,,,,CLR,,,,,,,,VFR,,,,,,,,,,,,METAR,382.0
KDNN 270115Z AUTO 00000KT 10SM OVC080 20/18 A3008 RMK AO2 T01990184,KDNN,2023-05-27T01:15:00Z,34.72,-84.87,19.9,18.4,0,0,,10.0,30.079725,,,TRUE,TRUE,,,,,,,OVC,8000,,,,,,,VFR,,,,,,,,,,,,METAR,216.0
KDNA 270115Z AUTO 20006KT 10SM CLR 32/M09 A2991 RMK AO2,KDNA,2023-05-27T01:15:00Z,31.88,-106.7,32.0,-9.0,200,6,,10.0,29.911417,,,TRUE,TRUE,,,,,,,CLR,,,,,,,,VFR,,,,,,,,,,,,SPECI,1254.0
KDLZ 270115Z AUTO 36007KT 10SM CLR 16/00 A3024 RMK AO2,KDLZ,2023-05-27T01:15:00Z,40.28,-83.12,16.0,0.0,360,7,,10.0,30.239174,,,TRUE,TRUE,,,,,,,CLR,,,,,,,,VFR,,,,,,,,,,,,METAR,287.0
KDLP 270115Z AUTO 08008KT 10SM CLR 27/14 A2986 RMK A01,KDLP,2023-05-27T01:15:00Z,29.12,-89.55,27.0,14.0,80,8,,10.0,29.861221,,,TRUE,TRUE,,,,,,,CLR,,,,,,,,VFR,,,,,,,,,,,,METAR,31.0
KDLO 270115Z AUTO 03006KT 10SM CLR 25/10 A2985 RMK AO2 T02490095,KDLO,2023-05-27T01:15:00Z,35.75,-119.23,24.9,9.5,30,6,,10.0,29.84941,,,TRUE,TRUE,,,,,,,CLR,,,,,,,,VFR,,,,,,,,,,,,METAR,97.0
KDLL 270115Z AUTO 12004KT 10SM CLR 20/01 A3028 RMK AO2 T01960006,KDLL,2023-05-27T01:15:00Z,43.52,-89.77,19.6,0.6,120,4,,10.0,30.280512,,,TRUE,TRUE,,,,,,,CLR,,,,,,,,VFR,,,,,,,,,,,,SPECI,297.0
KDKX 270115Z AUTO 00000KT 10SM BKN060 BKN070 22/16 A3008 RMK A01,KDKX,2023-05-27T01:15:00Z,35.97,-83.87,22.0,16.0,0,0,,10.0,30.079725,,,TRUE,TRUE,,,,,,,BKN,6000,BKN,7000,,,,,VFR,,,,,,,,,,,,SPECI,253.0
KDKR 270115Z AUTO 00000KT 9SM CLR 25/19 A2998 RMK AO2,KDKR,2023-05-27T01:15:00Z,31.3,-95.4,25.0,19.0,0,0,,9.0,29.97933,,,TRUE,TRUE,,,,,,,CLR,,,,,,,,VFR,,,,,,,,,,,,METAR,105.0
KDKB 270115Z AUTO 07006KT 10SM CLR 17/02 A3027 RMK AO2 T01660020,KDKB,2023-05-27T01:15:00Z,41.93,-88.7,16.6,2.0,70,6,,10.0,30.268702,,,TRUE,TRUE,,,,,,,CLR,,,,,,,,VFR,,,,,,,,,,,,METAR,277.0
KDEH 270115Z AUTO 13004KT 10SM CLR 20/M02 A3024 RMK AO2,KDEH,2023-05-27T01:15:00Z,43.27,-91.73,20.0,-2.0,130,4,,10.0,30.239174,,,TRUE,TRUE,,,,,,,CLR,,,,,,,,VFR,,,,,,,,,,,,SPECI,348.0
KDCY 270115Z AUTO 06003KT 10SM CLR 21/05 A3015 RMK AO2 T02050048,KDCY,2023-05-27T01:15:00Z,38.7,-87.13,20.5,4.8,60,3,,10.0,30.15059,,,TRUE,TRUE,,,,,,,CLR,,,,,,,,VFR,,,,,,,,,,,,METAR,143.0
KDBN 270115Z AUTO 06004KT 10SM SCT042 OVC120 20/06 A3009 RMK AO2,KDBN,2023-05-27T01:15:00Z,32.57,-82.98,20.0,6.0,60,4,,10.0,30.088583,,,TRUE,TRUE,,,,,,,SCT,4200,OVC,12000,,,,,VFR,,,,,,,,,,,,METAR,90.0
KD95 270115Z AUTO 09003KT 10SM CLR 17/M01 A3032 RMK AO2 T01651006,KD95,2023-05-27T01:15:00Z,43.07,-83.27,16.5,-0.6,90,3,,10.0,30.318897,,,TRUE,TRUE,,,,,,,CLR,,,,,,,,VFR,,,,,,,,,,,,METAR,253.0
KD73 270115Z AUTO 07005KT 10SM CLR 18/09 A3013 RMK AO2 T01840094,KD73,2023-05-27T01:15:00Z,33.78,-83.7,18.4,9.4,70,5,,10.0,30.129921,,,TRUE,TRUE,,,,,,,CLR,,,,,,,,VFR,,,,,,,,,,,,METAR,254.0
KD60 270115Z AUTO 17010KT 9SM CLR 19/18 A2994 RMK AO2 LTG DSNT S AND NW,KD60,2023-05-27T01:15:00Z,48.38,-102.9,19.0,18.0,170,10,,9.0,29.940945,,,TRUE,TRUE,,,,,,,CLR,,,,,,,,VFR,,,,,,,,,,,,SPECI,682.0
KD57 270115Z AUTO 17013G19KT 10SM FEW075 24/11 A2992 RMK AO2 LTG DSNT W AND NW,KD57,2023-05-27T01:15:00Z,46.82,-101.87,24.0,11.0,170,13,19,10.0,29.920275,,,TRUE,TRUE,,,,,,,FEW,7500,,,,,,,VFR,,,,,,,,,,,,SPECI,636.0
KD50 270115Z AUTO 36012KT 10SM CLR 21/14 A2993 RMK AO2,KD50,2023-05-27T01:15:00Z,48.93,-103.3,21.0,14.0,360,12,,10.0,29.929134,,,TRUE,TRUE,,,,,,,CLR,,,,,,,,VFR,,,,,,,,,,,,METAR,591.0
KD39 270115Z AUTO 12007KT 10SM CLR 23/04 A3016 RMK AO2 T02310035,KD39,2023-05-27T01:15:00Z,45.7,-94.93,23.1,3.5,120,7,,10.0,30.159449,,,TRUE,TRUE,,,,,,,CLR,,,,,,,,VFR,,,,,,,,,,,,SPECI,378.0
KD25 270115Z AUTO 17003KT 10SM CLR 19/03 A3027 RMK AO2 T01850026,KD25,2023-05-27T01:15:00Z,46.12,-89.88,18.5,2.6,170,3,,10.0,30.268702,,,TRUE,TRUE,,,,,,,CLR,,,,,,,,VFR,,,,,,,,,,,,SPECI,490.0
KCZT 270115Z AUTO 10SM CLR 29/16 A2992 RMK AO2,KCZT,2023-05-27T01:15:00Z,28.52,-99.82,29.0,16.0,,,,10.0,29.920275,,,TRUE,TRUE,,,,,,,CLR,,,,,,,,VFR,,,,,,,,,,,,SPECI,176.0
KCZL 270115Z AUTO 10003KT 10SM OVC090 22/15 A3010 RMK AO2,KCZL,2023-05-27T01:15:00Z,34.47,-84.93,22.0,15.0,100,3,,10.0,30.100393,,,TRUE,TRUE,,,,,,,OVC,9000,,,,,,,VFR,,,,,,,,,,,,METAR,197.0
KCYD 270115Z AUTO 03006G16KT 10SM CLR 26/17 A2996 RMK A02 T02600171,KCYD,2023-05-27T01:15:00Z,28.17,-89.22,26.0,17.1,30,6,16,10.0,29.958662,,,TRUE,TRUE,,,,,,,CLR,,,,,,,,VFR,,,,,,,,,,,,METAR,30.0
KCXW 270115Z AUTO 08006KT 9SM CLR 23/22 A3006 RMK A01,KCXW,2023-05-27T01:15:00Z,35.02,-92.55,23.0,22.0,80,6,,9.0,30.059055,,,TRUE,TRUE,,,,,,,CLR,,,,,,,,VFR,,,,,,,,,,,,SPECI,84.0
KCXU 270115Z AUTO 07005KT 10SM SCT050 22/14 A3001 RMK AO1 T02210140,KCXU,2023-05-27T01:15:00Z,31.22,-84.23,22.1,14.0,70,5,,10.0,30.008858,,,TRUE,TRUE,,,,,,,SCT,5000,,,,,,,VFR,,,,,,,,,,,,METAR,48.0
KCXP 270115Z AUTO 07016KT 10SM TS SCT049 BKN075 BKN085 15/06 A3000 RMK AO2 LTG DSNT E,KCXP,2023-05-27T01:15:00Z,39.18,-119.73,15.0,6.0,70,16,,10.0,30.0,,,TRUE,TRUE,,,,,,TS,SCT,4900,BKN,7500,BKN,8500,,,VFR,,,,,,,,,,,,METAR,1431.0
KCXE 270115Z AUTO 10SM CLR 15/08 A3023 RMK AO1 T01510076,KCXE,2023-05-27T01:15:00Z,36.78,-78.5,15.1,7.6,,,,10.0,30.230314,,,TRUE,TRUE,,,,,,,CLR,,,,,,,,VFR,,,,,,,,,,,,METAR,154.0
KCWV 270115Z AUTO 05008KT 10SM CLR 19/08 A3005 RMK AO2 T01910076,KCWV,2023-05-27T01:15:00Z,32.2,-81.87,19.1,7.6,50,8,,10.0,30.050198,,,TRUE,TRUE,,,,,,,CLR,,,,,,,,VFR,,,,,,,,,,,,METAR,32.0
KCWC 270115Z AUTO 07003KT 10SM CLR 25/17 A3003 RMK AO2 T02500170,KCWC,2023-05-27T01:15:00Z,33.85,-98.48,25.0,17.0,70,3,,10.0,30.029528,,,TRUE,TRUE,,,,,,,CLR,,,,,,,,VFR,,,,,,,,,,,,SPECI,304.0
KCVX 270115Z AUTO 00000KT 10SM CLR 13/00 A3032 RMK AO2 T01301001,KCVX,2023-05-27T01:15:00Z,45.3,-85.27,13.0,-0.1,0,0,,10.0,30.318897,,,TRUE,TRUE,,,,,,,CLR,,,,,,,,VFR,,,,,,,,,,,,SPECI,196.0
KCVH 270115Z AUTO 26015KT 10SM CLR 17/10 A2995 RMK A01,KCVH,2023-05-27T01:15:00Z,36.9,-121.42,17.0,10.0,260,15,,10.0,29.949802,,,TRUE,TRUE,,,,,,,CLR,,,,,,,,VFR,,,,,,,,,,,,SPECI,68.0
KCVC 270115Z AUTO 09006KT 10SM CLR 18/10 A3011 RMK AO2,KCVC,2023-05-27T01:15:00Z,33.63,-83.85,18.0,10.0,90,6,,10.0,30.109253,,,TRUE,TRUE,,,,,,,CLR,,,,,,,,VFR,,,,,,,,,,,,METAR,240.0
KCUH 270115Z AUTO 00000KT 10SM SCT100 25/13 A3005 RMK AO2 T02500131,KCUH,2023-05-27T01:15:00Z,35.95,-96.77,25.0,13.1,0,0,,10.0,30.050198,,,TRUE,TRUE,,,,,,,SCT,10000,,,,,,,VFR,,,,,,,,,,,,METAR,274.0
KCTY 270115Z AUTO 04010G14KT 10SM SCT050 22/16 A2996 RMK AO2,KCTY,2023-05-27T01:15:00Z,29.63,-83.1,22.0,16.0,40,10,14,10.0,29.958662,,,TRUE,TRUE,,,,,,,SCT,5000,,,,,,,VFR,,,,,,,,,,,,METAR,12.0
KCSQ 270115Z AUTO 11008KT 10SM CLR 20/02 A3019 RMK AO2,KCSQ,2023-05-27T01:15:00Z,41.02,-94.37,20.0,2.0,110,8,,10.0,30.188976,,,TRUE,TRUE,,,,,,,CLR,,,,,,,,VFR,,,,,,,,,,,,SPECI,394.0
KCRX 270115Z AUTO 36006KT 10SM OVC110 22/15 A3006 RMK AO2,KCRX,2023-05-27T01:15:00Z,34.92,-88.6,22.0,15.0,360,6,,10.0,30.059055,,,TRUE,TRUE,,,,,,,OVC,11000,,,,,,,VFR,,,,,,,,,,,,SPECI,128.0
KCQW 270115Z AUTO 08010G16KT 10SM BKN047 OVC055 18/06 A3013 RMK AO2,KCQW,2023-05-27T01:15:00Z,34.72,-79.95,18.0,6.0,80,10,16,10.0,30.129921,,,TRUE,TRUE,,,,,,,BKN,4700,OVC,5500,,,,,VFR,,,,,,,,,,,,METAR,67.0
KCQM 270115Z AUTO 00000KT 10SM CLR 24/04 A3017 RMK AO2,KCQM,2023-05-27T01:15:00Z,47.82,-92.68,24.0,4.0,0,0,,10.0,30.171259,,,TRUE,TRUE,,,,,,,CLR,,,,,,,,VFR,,,,,,,,,,,,SPECI,406.0
KCQF 270115Z AUTO 00000KT 10SM OVC045 23/18 A2996 RMK AO2,KCQF,2023-05-27T01:15:00Z,30.47,-87.88,23.0,18.0,0,0,,10.0,29.958662,,,TRUE,TRUE,,,,,,,OVC,4500,,,,,,,VFR,,,,,,,,,,,,METAR,21.0
KCQB 270115Z AUTO 08003KT 10SM CLR 23/17 A3006 RMK AO2 T02270175,KCQB,2023-05-27T01:15:00Z,35.72,-96.82,22.7,17.5,80,3,,10.0,30.059055,,,TRUE,TRUE,,,,,,,CLR,,,,,,,,VFR,,,,,,,,,,,,METAR,298.0
KCPU 270115Z AUTO 31005KT 10SM CLR 22/09 A2989 RMK AO2 T02240091,KCPU,2023-05-27T01:15:00Z,38.15,-120.65,22.4,9.1,310,5,,10.0,29.890747,,,TRUE,TRUE,,,,,,,CLR,,,,,,,,VFR,,,,,,,,,,,,METAR,400.0
KCPT 270115Z AUTO 09006KT 10SM CLR 26/15 A3002 RMK A01,KCPT,2023-05-27T01:15:00Z,32.35,-97.43,26.0,15.0,90,6,,10.0,30.02067,,,TRUE,TRUE,,,,,,,CLR,,,,,,,,VFR,,,,,,,,,,,,SPECI,260.0
KCPP 270115Z AUTO 00000KT 10SM CLR 17/09 A3011 RMK AO2,KCPP,2023-05-27T01:15:00Z,,,17.0,9.0,0,0,,10.0,30.109253,,,TRUE,TRUE,,,,,,,CLR,,,,,,,,VFR,,,,,,,,,,,,METAR,
KCPK 270115Z AUTO 05007KT 10SM CLR 15/06 A3022 RMK AO2 T01460064,KCPK,2023-05-27T01:15:00Z,36.67,-76.32,14.6,6.4,50,7,,10.0,30.221457,,,TRUE,TRUE,,,,,,,CLR,,,,,,,,VFR,,,,,,,,,,,,METAR,4.0
KCPF 270115Z AUTO 00000KT 10SM CLR 18/10 A3015 RMK AO2,KCPF,2023-05-27T01:15:00Z,37.38,-83.27,18.0,10.0,0,0,,10.0,30.15059,,,TRUE,TRUE,,,,,,,CLR,,,,,,,,VFR,,,,,,,,,,,,METAR,382.0
KCOQ 270115Z AUTO 19003KT 10SM CLR 22/02 A3020 RMK AO2 TSNO,KCOQ,2023-05-27T01:15:00Z,46.7,-92.5,22.0,2.0,190,3,,10.0,30.200787,,,TRUE,TRUE,,,TRUE,,,,CLR,,,,,,,,VFR,,,,,,,,,,,,METAR,390.0
KCOM 270115Z AUTO 08004KT 10SM SCT049 23/17 A3003 RMK AO2 LTG DSNT NW T02320166,KCOM,2023-05-27T01:15:00Z,31.83,-99.4,23.2,16.6,80,4,,10.0,30.029528,,,TRUE,TRUE,,,,,,,SCT,4900,,,,,,,VFR,,,,,,,,,,,,METAR,516.0
KCNI 270115Z AUTO 12005KT 10SM SCT095 19/12 A3012 RMK AO2 T01920115,KCNI,2023-05-27T01:15:00Z,34.32,-84.42,19.2,11.5,120,5,,10.0,30.121063,,,TRUE,TRUE,,,,,,,SCT,9500,,,,,,,VFR,,,,,,,,,,,,METAR,371.0
KCNC 270115Z AUTO 12005KT 10SM CLR 19/03 A3020 RMK AO2,KCNC,2023-05-27T01:15:00Z,41.02,-93.37,19.0,3.0,120,5,,10.0,30.200787,,,TRUE,TRUE,,,,,,,CLR,,,,,,,,VFR,,,,,,,,,,,,SPECI,319.0
KCNB 270115Z AUTO 09008KT 10SM CLR 25/M02 A3012 RMK AO2 T02471017,KCNB,2023-05-27T01:15:00Z,44.73,-96.27,24.7,-1.7,90,8,,10.0,30.121063,,,TRUE,TRUE,,,,,,,CLR,,,,,,,,VFR,,,,,,,,,,,,METAR,363.0
KCMR 270115Z AUTO 21012G20KT 10SM CLR 18/M07 A3002 RMK AO2,KCMR,2023-05-27T01:15:00Z,35.3,-112.2,18.0,-7.0,210,12,20,10.0,30.02067,,,TRUE,TRUE,,,,,,,CLR,,,,,,,,VFR,,,,,,,,,,,,SPECI,2039.0
KCMD 270115Z AUTO 02003KT 9SM CLR 18/17 A3007 RMK AO2,KCMD,2023-05-27T01:15:00Z,34.27,-86.85,18.0,17.0,20,3,,9.0,30.070866,,,TRUE,TRUE,,,,,,,CLR,,,,,,,,VFR,,,,,,,,,,,,METAR,294.0
KCLW 270115Z AUTO 04004KT 10SM SCT027 SCT120 23/17 A2990 RMK AO2,KCLW,2023-05-27T01:15:00Z,27.98,-82.75,23.0,17.0,40,4,,10.0,29.899607,,,TRUE,TRUE,,,,,,,SCT,2700,SCT,12000,,,,,VFR,,,,,,,,,,,,METAR,21.0
KCLS 270115Z AUTO 30008G15KT 10SM CLR 25/08 A2987 RMK AO2,KCLS,2023-05-27T01:15:00Z,46.68,-122.98,25.0,8.0,300,8,15,10.0,29.870079,,,TRUE,TRUE,,,,,,,CLR,,,,,,,,VFR,,,,,,,,,,,,SPECI,52.0
KCLK 270115Z AUTO 11007KT 10SM CLR 21/16 A3008 RMK AO2,KCLK,2023-05-27T01:15:00Z,35.53,-98.93,21.0,16.0,110,7,,10.0,30.079725,,,TRUE,TRUE,,,,,,,CLR,,,,,,,,VFR,,,,,,,,,,,,SPECI,489.0
KCLI 270115Z AUTO 20003KT 10SM CLR 19/02 A3030 RMK AO2 T01920019,KCLI,2023-05-27T01:15:00Z,44.62,-88.73,19.2,1.9,200,3,,10.0,30.301182,,,TRUE,TRUE,,,,,,,CLR,,,,,,,,VFR,,,,,,,,,,,,SPECI,248.0
KCKZ 270115Z AUTO 00000KT 10SM CLR 12/07 A3026 RMK AO2,KCKZ,2023-05-27T01:15:00Z,40.38,-75.28,12.0,7.0,0,0,,10.0,30.259842,,,TRUE,TRUE,,,,,,,CLR,,,,,,,,VFR,,,,,,,,,,,,SPECI,160.0
KCKP 270115Z AUTO 14006KT 10SM CLR 23/M01 A3016 RMK AO2 T02281014,KCKP,2023-05-27T01:15:00Z,42.73,-95.55,22.8,-1.4,140,6,,10.0,30.159449,,,TRUE,TRUE,,,,,,,CLR,,,,,,,,VFR,,,,,,,,,,,,METAR,369.0
KCKN 270115Z AUTO 16018G22KT 10SM CLR 27/06 A3002 RMK AO2,KCKN,2023-05-27T01:15:00Z,47.85,-96.62,27.0,6.0,160,18,22,10.0,30.02067,,,TRUE,TRUE,,,,,,,CLR,,,,,,,,VFR,,,,,,,,,,,,SPECI,272.0
KCKM 270115Z AUTO 03008KT 10SM 24/12 A3004 RMK A01,KCKM,2023-05-27T01:15:00Z,34.3,-90.52,24.0,12.0,30,8,,10.0,30.041338,,,TRUE,TRUE,,,,,,,,,,,,,,,,,,,,,,,,,,,METAR,52.0
KCKI 270115Z AUTO 04004KT 10SM SCT100 17/06 A3007 RMK AO2,KCKI,2023-05-27T01:15:00Z,33.72,-79.85,17.0,6.0,40,4,,10.0,30.070866,,,TRUE,TRUE,,,,,,,SCT,10000,,,,,,,VFR,,,,,,,,,,,,SPECI,19.0
KCKF 270115Z AUTO 07007KT 10SM CLR 20/10 A3006 RMK AO2 T02030103,KCKF,2023-05-27T01:15:00Z,31.98,-83.77,20.3,10.3,70,7,,10.0,30.059055,,,TRUE,TRUE,,,,,,,CLR,,,,,,,,VFR,,,,,,,,,,,,METAR,92.0
KCJR 270115Z AUTO 00000KT 10SM CLR 14/07 A3026 RMK AO2 T01430070,KCJR,2023-05-27T01:15:00Z,38.53,-77.87,14.3,7.0,0,0,,10.0,30.259842,,,TRUE,TRUE,,,,,,,CLR,,,,,,,,VFR,,,,,,,,,,,,METAR,90.0
KCIN 270115Z AUTO 13009KT 10SM CLR 22/M01 A3018 RMK AO2,KCIN,2023-05-27T01:15:00Z,42.03,-94.78,22.0,-1.0,130,9,,10.0,30.180119,,,TRUE,TRUE,,,,,,,CLR,,,,,,,,VFR,,,,,,,,,,,,METAR,365.0
KCHK 270115Z AUTO 07004KT 10SM BKN085 BKN090 BKN110 24/17 A3002 RMK AO2 T02380173,KCHK,2023-05-27T01:15:00Z,35.1,-97.97,23.8,17.3,70,4,,10.0,30.02067,,,TRUE,TRUE,,,,,,,BKN,8500,BKN,9000,BKN,11000,,,VFR,,,,,,,,,,,,METAR,346.0
KCGC 270115Z AUTO 07008KT 10SM CLR 21/16 A2993 RMK AO2,KCGC,2023-05-27T01:15:00Z,28.87,-82.57,21.0,16.0,70,8,,10.0,29.929134,,,TRUE,TRUE,,,,,,,CLR,,,,,,,,VFR,,,,,,,,,,,,METAR,3.0
KCFS 270115Z AUTO 00000KT 10SM CLR 13/01 A3032 RMK AO2 T01290012,KCFS,2023-05-27T01:15:00Z,43.47,-83.45,12.9,1.2,0,0,,10.0,30.318897,,,TRUE,TRUE,,,,,,,CLR,,,,,,,,VFR,,,,,,,,,,,,SPECI,214.0
KCFJ 270115Z AUTO 05006KT 10SM CLR 18/M02 A3020 RMK AO2 T01781020,KCFJ,2023-05-27T01:15:00Z,39.98,-86.92,17.8,-2.0,50,6,,10.0,30.200787,,,TRUE,TRUE,,,,,,,CLR,,,,,,,,VFR,,,,,,,,,,,,SPECI,243.0
KCFE 270115Z AUTO 13004KT 10SM CLR 24/M00 A3019 RMK AO2,KCFE,2023-05-27T01:15:00Z,45.17,-93.85,24.0,0.0,130,4,,10.0,30.188976,,,TRUE,TRUE,,,,,,,CLR,,,,,,,,VFR,,,,,,,,,,,,METAR,292.0
KCFD 270115Z AUTO 00000KT 10SM CLR 26/16 A2999 RMK AO2 T02620155,KCFD,2023-05-27T01:15:00Z,30.72,-96.33,26.2,15.5,0,0,,10.0,29.991142,,,TRUE,TRUE,,,,,,,CLR,,,,,,,,VFR,,,,,,,,,,,,METAR,106.0
KCEY 270115Z AUTO 34005KT 10SM CLR 20/08 A3012 RMK A01,KCEY,2023-05-27T01:15:00Z,36.67,-88.37,20.0,8.0,340,5,,10.0,30.121063,,,TRUE,TRUE,,,,,,,CLR,,,,,,,,VFR,,,,,,,,,,,,METAR,172.0
KCDN 270115Z AUTO 02012KT 10SM BKN043 18/06 A3011 RMK AO2,KCDN,2023-05-27T01:15:00Z,34.28,-80.57,18.0,6.0,20,12,,10.0,30.109253,,,TRUE,TRUE,,,,,,,BKN,4300,,,,,,,VFR,,,,,,,,,,,,METAR,90.0
KCDI 270115Z AUTO 00000KT 10SM CLR 12/08 A3023 RMK AO2 T01220075,KCDI,2023-05-27T01:15:00Z,39.97,-81.58,12.2,7.5,0,0,,10.0,30.230314,,,TRUE,TRUE,,,,,,,CLR,,,,,,,,VFR,,,,,,,,,,,,METAR,241.0
KCDH 270115Z AUTO 00000KT 10SM CLR 24/16 A3002 RMK AO2,KCDH,2023-05-27T01:15:00Z,33.62,-92.77,24.0,16.0,0,0,,10.0,30.02067,,,TRUE,TRUE,,,,,,,CLR,,,,,,,,VFR,,,,,,,,,,,,SPECI,38.0
KCDD 270115Z AUTO 00000KT 10SM CLR 23/05 A3017 RMK AO2 PWINO,KCDD,2023-05-27T01:15:00Z,48.27,-92.48,23.0,5.0,0,0,,10.0,30.171259,,,TRUE,TRUE,,,,,TRUE,,CLR,,,,,,,,VFR,,,,,,,,,,,,SPECI,344.0
KCDA 270115Z AUTO 25003KT 10SM CLR 13/01 A3027 RMK AO2 T01300013,KCDA,2023-05-27T01:15:00Z,44.57,-72.02,13.0,1.3,250,3,,10.0,30.268702,,,TRUE,TRUE,,,,,,,CLR,,,,,,,,VFR,,,,,,,,,,,,METAR,357.0
KCCY 270115Z AUTO 10008KT 10SM CLR 20/M00 A3023 RMK AO2,KCCY,2023-05-27T01:15:00Z,43.07,-92.62,20.0,0.0,100,8,,10.0,30.230314,,,TRUE,TRUE,,,,,,,CLR,,,,,,,,VFR,,,,,,,,,,,,METAR,340.0
KCCU 270115Z AUTO 18011KT 10SM SCT046 BKN060 BKN070 08/M04 A3034 RMK AO2,KCCU,2023-05-27T01:15:00Z,39.48,-106.15,8.0,-4.0,180,11,,10.0,30.339567,,,TRUE,TRUE,,,,,,,SCT,4600,BKN,6000,BKN,7000,,,VFR,,,,,,,,,,,,SPECI,3672.0
KCCO 270115Z AUTO 08003KT 10SM CLR 20/12 A3008 RMK AO2 T01970118,KCCO,2023-05-27T01:15:00Z,33.32,-84.77,19.7,11.8,80,3,,10.0,30.079725,,,TRUE,TRUE,,,,,,,CLR,,,,,,,,VFR,,,,,,,,,,,,METAR,290.0
KCCB 270115Z AUTO 26011KT 10SM OVC026 15/09 A2995 RMK AO2,KCCB,2023-05-27T01:15:00Z,34.12,-117.68,15.0,9.0,260,11,,10.0,29.949802,,,TRUE,TRUE,,,,,,,OVC,2600,,,,,,,MVFR,,,,,,,,,,,,METAR,440.0
KCCA 270115Z AUTO 00000KT 10SM CLR 20/12 A3009 RMK AO2,KCCA,2023-05-27T01:15:00Z,35.6,-92.45,20.0,12.0,0,0,,10.0,30.088583,,,TRUE,TRUE,,,,,,,CLR,,,,,,,,VFR,,,,,,,,,,,,METAR,152.0
KCBG 270115Z AUTO 12003KT 10SM CLR 23/08 A3021 RMK AO2,KCBG,2023-05-27T01:15:00Z,45.57,-93.27,23.0,8.0,120,3,,10.0,30.209646,,,TRUE,TRUE,,,,,,,CLR,,,,,,,,VFR,,,,,,,,,,,,METAR,285.0
KCBF 270115Z AUTO 12010KT 10SM CLR 23/M04 A3013 RMK AO2,KCBF,2023-05-27T01:15:00Z,41.27,-95.77,23.0,-4.0,120,10,,10.0,30.129921,,,TRUE,TRUE,,,,,,,CLR,,,,,,,,VFR,,,,,,,,,,,,METAR,379.0
KCAV 270115Z AUTO 14007KT 10SM CLR 22/M02 A3020 RMK A01,KCAV,2023-05-27T01:15:00Z,42.75,-93.77,22.0,-2.0,140,7,,10.0,30.200787,,,TRUE,TRUE,,,,,,,CLR,,,,,,,,VFR,,,,,,,,,,,,METAR,352.0
KCAD 270115Z AUTO 35003KT 10SM CLR 15/M02 A3031 RMK AO2 T01451016,KCAD,2023-05-27T01:15:00Z,44.27,-85.42,14.5,-1.6,350,3,,10.0,30.31004,,,TRUE,TRUE,,,,,,,CLR,,,,,,,,VFR,,,,,,,,,,,,SPECI,397.0
KC83 270115Z AUTO 25015G20KT 10SM CLR 21/10 A2988 RMK AO2,KC83,2023-05-27T01:15:00Z,37.83,-121.62,21.0,10.0,250,15,20,10.0,29.878937,,,TRUE,TRUE,,,,,,,CLR,,,,,,,,VFR,,,,,,,,,,,,SPECI,16.0
KC75 270115Z AUTO 05007KT 10SM CLR 21/05 A3022 RMK AO2,KC75,2023-05-27T01:15:00Z,41.02,-89.38,21.0,5.0,50,7,,10.0,30.221457,,,TRUE,TRUE,,,,,,,CLR,,,,,,,,VFR,,,,,,,,,,,,METAR,166.0
KC65 270115Z AUTO 09004KT 10SM CLR 20/M02 A3025 RMK A01,KC65,2023-05-27T01:15:00Z,41.37,-86.3,20.0,-2.0,90,4,,10.0,30.250984,,,TRUE,TRUE,,,,,,,CLR,,,,,,,,VFR,,,,,,,,,,,,METAR,241.0
KC62 270115Z AUTO 10005KT 10SM CLR 17/00 A3028 RMK AO2 T01711005,KC62,2023-05-27T01:15:00Z,41.47,-85.25,17.1,-0.5,100,5,,10.0,30.280512,,,TRUE,TRUE,,,,,,,CLR,,,,,,,,VFR,,,,,,,,,,,,METAR,304.0
KC35 270115Z AUTO 00000KT 10SM CLR 19/00 A3027 RMK AO2 T01901001 PWINO,KC35,2023-05-27T01:15:00Z,43.53,-89.98,19.0,-0.1,0,0,,10.0,30.268702,,,TRUE,TRUE,,,,,TRUE,,CLR,,,,,,,,VFR,,,,,,,,,,,,METAR,272.0
KC29 270115Z AUTO 13004KT 10SM CLR 19/M04 A3028 RMK AO1 T01881042,KC29,2023-05-27T01:15:00Z,43.12,-89.53,18.8,-4.2,130,4,,10.0,30.280512,,,TRUE,TRUE,,,,,,,CLR,,,,,,,,VFR,,,,,,,,,,,,SPECI,282.0
KC09 270115Z AUTO 07005KT 10SM CLR 19/02 A3025 RMK AO2 T01870016,KC09,2023-05-27T01:15:00Z,41.43,-88.42,18.7,1.6,70,5,,10.0,30.250984,,,TRUE,TRUE,,,,,,,CLR,,,,,,,,VFR,,,,,,,,,,,,SPECI,179.0
KC07 270115Z AUTO 19006G21KT 10SM SCT075 SCT100 SCT120 08/M04 A3021 RMK AO2 LTG DSNT E,KC07,2023-05-27T01:15:00Z,40.35,-106.7,8.0,-4.0,190,6,21,10.0,30.209646,,,TRUE,TRUE,,,,,,,SCT,7500,SCT,10000,SCT,12000,,,VFR,,,,,,,,,,,,METAR,3224.0
KBYY 270115Z AUTO 17004KT 10SM BKN090 25/20 A2996 RMK AO2 T02570207,KBYY,2023-05-27T01:15:00Z,28.97,-95.87,25.7,20.7,170,4,,10.0,29.958662,,,TRUE,TRUE,,,,,,,BKN,9000,,,,,,,VFR,,,,,,,,,,,,SPECI,12.0
KBYL 270115Z AUTO 04004KT 10SM BKN070 20/13 A3013 RMK AO1,KBYL,2023-05-27T01:15:00Z,36.8,-84.2,20.0,13.0,40,4,,10.0,30.129921,,,TRUE,TRUE,,,,,,,BKN,7000,,,,,,,VFR,,,,,,,,,,,,METAR,355.0
KBXK 270115Z AUTO 22009KT 9SM CLR 32/M01 A2974 RMK A01,KBXK,2023-05-27T01:15:00Z,33.42,-112.68,32.0,-1.0,220,9,,9.0,29.740158,,,TRUE,TRUE,,,,,,,CLR,,,,,,,,VFR,,,,,,,,,,,,SPECI,303.0
KBXA 270115Z AUTO 00000KT 10SM CLR 23/17 A2997 RMK AO2 T02260172,KBXA,2023-05-27T01:15:00Z,30.82,-89.87,22.6,17.2,0,0,,10.0,29.970472,,,TRUE,TRUE,,,,,,,CLR,,,,,,,,VFR,,,,,,,,,,,,METAR,35.0
KBWW 270115Z AUTO 16013KT 10SM CLR 22/15 A2992 RMK AO2,KBWW,2023-05-27T01:15:00Z,46.17,-103.3,22.0,15.0,160,13,,10.0,29.920275,,,TRUE,TRUE,,,,,,,CLR,,,,,,,,VFR,,,,,,,,,,,,SPECI,911.0
KBWP 270115Z AUTO 16015KT 10SM CLR 27/03 A3005 RMK AO2,KBWP,2023-05-27T01:15:00Z,46.25,-96.62,27.0,3.0,160,15,,10.0,30.050198,,,TRUE,TRUE,,,,,,,CLR,,,,,,,,VFR,,,,,,,,,,,,SPECI,294.0
KBVU 270115Z AUTO 15016G25KT 10SM CLR 30/M09 A2972 RMK AO2,KBVU,2023-05-27T01:15:00Z,35.95,-114.87,30.0,-9.0,150,16,25,10.0,29.719488,,,TRUE,TRUE,,,,,,,CLR,,,,,,,,VFR,,,,,,,,,,,,SPECI,654.0
KBVS 270115Z AUTO 23005G10KT 10SM CLR 23/15 A2984 RMK A01,KBVS,2023-05-27T01:15:00Z,48.47,-122.42,23.0,15.0,230,5,10,10.0,29.840551,,,TRUE,TRUE,,,,,,,CLR,,,,,,,,VFR,,,,,,,,,,,,METAR,31.0
KBVN 270115Z AUTO 15011KT 10SM CLR 23/09 A3009 RMK AO2 T02320094,KBVN,2023-05-27T01:15:00Z,41.73,-98.05,23.2,9.4,150,11,,10.0,30.088583,,,TRUE,TRUE,,,,,,,CLR,,,,,,,,VFR,,,,,,,,,,,,METAR,547.0
KBVI 270115Z AUTO 00000KT 10SM CLR 18/00 A3026 RMK AO2 T01801003,KBVI,2023-05-27T01:15:00Z,40.77,-80.37,18.0,-0.3,0,0,,10.0,30.259842,,,TRUE,TRUE,,,,,,,CLR,,,,,,,,VFR,,,,,,,,,,,,METAR,387.0
KBUU 270115Z AUTO 05003KT 10SM CLR 15/M01 A3030 RMK AO2 T01511011 PWINO,KBUU,2023-05-27T01:15:00Z,42.68,-88.3,15.1,-1.1,50,3,,10.0,30.301182,,,TRUE,TRUE,,,,,TRUE,,CLR,,,,,,,,VFR,,,,,,,,,,,,SPECI,238.0
KBTN 270115Z AUTO 16011KT 10SM CLR 25/08 A3003 RMK AO2,KBTN,2023-05-27T01:15:00Z,45.82,-97.75,25.0,8.0,160,11,,10.0,30.029528,,,TRUE,TRUE,,,,,,,CLR,,,,,,,,VFR,,,,,,,,,,,,SPECI,400.0
KBTA 270115Z AUTO 11007KT 10SM CLR 23/02 A3014 RMK AO2 T02290020,KBTA,2023-05-27T01:15:00Z,41.42,-96.12,22.9,2.0,110,7,,10.0,30.138779,,,TRUE,TRUE,,,,,,,CLR,,,,,,,,VFR,,,,,,,,,,,,SPECI,400.0
KBRY 270115Z AUTO 04006KT 9SM CLR 21/11 A3011 RMK AO2 T02140113,KBRY,2023-05-27T01:15:00Z,37.82,-85.5,21.4,11.3,40,6,,9.0,30.109253,,,TRUE,TRUE,,,,,,,CLR,,,,,,,,VFR,,,,,,,,,,,,METAR,192.0
KBRG 270115Z AUTO 16016G22KT 10SM CLR 29/M09 A2991 RMK AO2 T02911091,KBRG,2023-05-27T01:15:00Z,34.65,-106.83,29.1,-9.1,160,16,22,10.0,29.911417,,,TRUE,TRUE,,,,,,,CLR,,,,,,,,VFR,,,,,,,,,,,,SPECI,1585.0
KBQX 270115Z AUTO 12010KT 10SM CLR 27/21 A2997 RMK A01,KBQX,2023-05-27T01:15:00Z,28.5,-95.72,27.0,21.0,120,10,,10.0,29.970472,,,TRUE,TRUE,,,,,,,CLR,,,,,,,,VFR,,,,,,,,,,,,SPECI,34.0
KBQP 270115Z AUTO 00000KT CLR 22/17 A3001 RMK AO2 T02220171 PWINO,KBQP,2023-05-27T01:15:00Z,32.75,-91.88,22.2,17.1,0,0,,,30.008858,,,TRUE,TRUE,,,,,TRUE,,CLR,,,,,,,,,,,,,,,,,,,,METAR,50.0
KBQK 270115Z AUTO 02013G21KT 10SM OVC029 18/11 A3000 RMK AO2 T01830109,KBQK,2023-05-27T01:15:00Z,31.25,-81.47,18.3,10.9,20,13,21,10.0,30.0,,,TRUE,TRUE,,,,,,,OVC,2900,,,,,,,MVFR,,,,,,,,,,,,METAR,7.0
KBPG 270115Z AUTO 07014KT 10SM TS BKN035 BKN044 OVC050 23/17 A3003 RMK AO2 LTG DSNT NW THRU E T02310170,KBPG,2023-05-27T01:15:00Z,32.22,-101.52,23.1,17.0,70,14,,10.0,30.029528,,,TRUE,TRUE,,,,,,TS,BKN,3500,BKN,4400,OVC,5000,,,VFR,,,,,,,,,,,,METAR,782.0
KBPC 270115Z AUTO 16012G16KT 10SM CLR 21/13 A3007 RMK AO2,KBPC,2023-05-27T01:15:00Z,35.88,-101.03,21.0,13.0,160,12,16,10.0,30.070866,,,TRUE,TRUE,,,,,,,CLR,,,,,,,,VFR,,,,,,,,,,,,SPECI,844.0
KBOW 270115Z AUTO 03011G17KT 10SM SCT024 SCT032 SCT044 23/18 A2991 RMK AO2,KBOW,2023-05-27T01:15:00Z,27.93,-81.77,23.0,18.0,30,11,17,10.0,29.911417,,,TRUE,TRUE,,,,,,,SCT,2400,SCT,3200,SCT,4400,,,VFR,,,,,,,,,,,,METAR,38.0
KBNW 270115Z AUTO 12008KT 10SM CLR 21/M01 A3019 RMK AO2,KBNW,2023-05-27T01:15:00Z,42.03,-93.83,21.0,-1.0,120,8,,10.0,30.188976,,,TRUE,TRUE,,,,,,,CLR,,,,,,,,VFR,,,,,,,,,,,,METAR,350.0
KBNL 270115Z AUTO 05009KT 10SM FEW050 SCT120 19/06 A3008 RMK AO2,KBNL,2023-05-27T01:15:00Z,33.25,-81.38,19.0,6.0,50,9,,10.0,30.079725,,,TRUE,TRUE,,,,,,,FEW,5000,SCT,12000,,,,,VFR,,,,,,,,,,,,SPECI,76.0
KBMT 270115Z AUTO 11005KT 10SM BKN065 OVC080 27/15 A2995 RMK AO2 T02740152,KBMT,2023-05-27T01:15:00Z,30.07,-94.22,27.4,15.2,110,5,,10.0,29.949802,,,TRUE,TRUE,,,,,,,BKN,6500,OVC,8000,,,,,VFR,,,,,,,,,,,,METAR,8.0
KBKT 270115Z AUTO 09005KT 10SM CLR 14/08 A3024 RMK AO1 T01380084,KBKT,2023-05-27T01:15:00Z,37.07,-77.95,13.8,8.4,90,5,,10.0,30.239174,,,TRUE,TRUE,,,,,,,CLR,,,,,,,,VFR,,,,,,,,,,,,METAR,134.0
KBKS 270115Z AUTO 10007KT 9SM CLR 27/22 A2992 RMK AO2 SLP094 T02740220 $,KBKS,2023-05-27T01:15:00Z,27.2,-98.12,27.4,22.0,100,7,,9.0,29.920275,1009.4,,TRUE,TRUE,TRUE,,,,,,CLR,,,,,,,,VFR,,,,,,,,,,,,SPECI,34.0
KBKN 270115Z AUTO 12004KT CLR 24/15 A3006 RMK AO2,KBKN,2023-05-27T01:15:00Z,36.75,-97.35,24.0,15.0,120,4,,,30.059055,,,TRUE,TRUE,,,,,,,CLR,,,,,,,,,,,,,,,,,,,,METAR,208.0
KBKD 270115Z AUTO 00000KT 7SM CLR 25/18 A3002 RMK AO2 T02500176,KBKD,2023-05-27T01:15:00Z,32.72,-98.88,25.0,17.6,0,0,,7.0,30.02067,,,TRUE,TRUE,,,,,,,CLR,,,,,,,,VFR,,,,,,,,,,,,SPECI,383.0
KBJI 270115Z AUTO 17008KT 10SM CLR 24/05 A3013 RMK AO2 T02390050,KBJI,2023-05-27T01:15:00Z,47.5,-94.92,23.9,5.0,170,8,,10.0,30.129921,,,TRUE,TRUE,,,,,,,CLR,,,,,,,,VFR,,,,,,,,,,,,SPECI,422.0
KBIJ 270115Z AUTO 06006KT 10SM CLR 21/12 A3002 RMK AO2,KBIJ,2023-05-27T01:15:00Z,31.4,-84.9,21.0,12.0,60,6,,10.0,30.02067,,,TRUE,TRUE,,,,,,,CLR,,,,,,,,VFR,,,,,,,,,,,,METAR,63.0
KBIE 270115Z AUTO 12007KT 10SM CLR 24/04 A3012 RMK AO2 T02390043,KBIE,2023-05-27T01:15:00Z,40.28,-96.75,23.9,4.3,120,7,,10.0,30.121063,,,TRUE,TRUE,,,,,,,CLR,,,,,,,,VFR,,,,,,,,,,,,METAR,398.0
KBHC 270115Z AUTO 05007G15KT 10SM CLR 18/08 A3004 RMK AO2,KBHC,2023-05-27T01:15:00Z,31.72,-82.4,18.0,8.0,50,7,15,10.0,30.041338,,,TRUE,TRUE,,,,,,,CLR,,,,,,,,VFR,,,,,,,,,,,,METAR,61.0
KBGF 270115Z AUTO 00000KT 10SM BKN070 OVC120 19/19 A3008 RMK A01,KBGF,2023-05-27T01:15:00Z,35.18,-86.07,19.0,19.0,0,0,,10.0,30.079725,,,TRUE,TRUE,,,,,,,BKN,7000,OVC,12000,,,,,VFR,,,,,,,,,,,,SPECI,295.0
KBGE 270115Z AUTO 08012KT 10SM OVC060 23/16 A3000 RMK AO2 T02320156,KBGE,2023-05-27T01:15:00Z,30.97,-84.63,23.2,15.6,80,12,,10.0,30.0,,,TRUE,TRUE,,,,,,,OVC,6000,,,,,,,VFR,,,,,,,,,,,,METAR,40.0
KBEC 270115Z AUTO 10008KT 10SM SCT080 24/12 A3008 RMK AO2 T02390120,KBEC,2023-05-27T01:15:00Z,37.7,-97.22,23.9,12.0,100,8,,10.0,30.079725,,,TRUE,TRUE,,,,,,,SCT,8000,,,,,,,VFR,,,,,,,,,,,,METAR,421.0
KBEA 270115Z AUTO 13005KT 10SM SCT049 SCT090 26/19 A2994 RMK AO2 T02640186,KBEA,2023-05-27T01:15:00Z,28.37,-97.78,26.4,18.6,130,5,,10.0,29.940945,,,TRUE,TRUE,,,,,,,SCT,4900,SCT,9000,,,,,VFR,,,,,,,,,,,,SPECI,83.0
KBDU 270115Z AUTO 00000KT 10SM CLR 17/08 A3002 RMK AO2 LTG DSNT E,KBDU,2023-05-27T01:15:00Z,40.03,-105.23,17.0,8.0,0,0,,10.0,30.02067,,,TRUE,TRUE,,,,,,,CLR,,,,,,,,VFR,,,,,,,,,,,,METAR,1614.0
KBDN 270115Z AUTO 01006KT 10SM FEW048 FEW075 FEW095 16/12 A2993 RMK AO2,KBDN,2023-05-27T01:15:00Z,44.1,-121.2,16.0,12.0,10,6,,10.0,29.929134,,,TRUE,TRUE,,,,,,,FEW,4800,FEW,7500,FEW,9500,,,VFR,,,,,,,,,,,,METAR,1044.0
KBDH 270115Z AUTO 15008KT 10SM CLR 26/M04 A3018 RMK AO2,KBDH,2023-05-27T01:15:00Z,45.12,-95.13,26.0,-4.0,150,8,,10.0,30.180119,,,TRUE,TRUE,,,,,,,CLR,,,,,,,,VFR,,,,,,,,,,,,METAR,341.0
KBCK 270115Z AUTO 00000KT 10SM CLR 17/06 A3025 RMK AO2 T01690057,KBCK,2023-05-27T01:15:00Z,44.25,-90.85,16.9,5.7,0,0,,10.0,30.250984,,,TRUE,TRUE,,,,,,,CLR,,,,,,,,VFR,,,,,,,,,,,,SPECI,256.0
KBCB 270115Z AUTO 10005KT 10SM CLR 15/06 A3028 RMK AO2 T01480060,KBCB,2023-05-27T01:15:00Z,37.22,-80.42,14.8,6.0,100,5,,10.0,30.280512,,,TRUE,TRUE,,,,,,,CLR,,,,,,,,VFR,,,,,,,,,,,,SPECI,642.0
KBBP 270115Z AUTO 02010G17KT 10SM CLR 18/07 A3012 RMK AO2,KBBP,2023-05-27T01:15:00Z,34.62,-79.73,18.0,7.0,20,10,17,10.0,30.121063,,,TRUE,TRUE,,,,,,,CLR,,,,,,,,VFR,,,,,,,,,,,,METAR,44.0
KBBD 270115Z AUTO 12006KT 10SM CLR 25/16 A3001 RMK AO2,KBBD,2023-05-27T01:15:00Z,31.18,-99.32,25.0,16.0,120,6,,10.0,30.008858,,,TRUE,TRUE,,,,,,,CLR,,,,,,,,VFR,,,,,,,,,,,,METAR,554.0
KBAX 270115Z AUTO 00000KT 10SM CLR 14/04 A3033 RMK AO2 T01390043,KBAX,2023-05-27T01:15:00Z,43.78,-82.98,13.9,4.3,0,0,,10.0,30.33071,,,TRUE,TRUE,,,,,,,CLR,,,,,,,,VFR,,,,,,,,,,,,SPECI,229.0
KBAM 270115Z AUTO 16006KT 10SM SCT070 SCT080 BKN120 18/06 A2995 RMK AO1,KBAM,2023-05-27T01:15:00Z,40.6,-116.87,18.0,6.0,160,6,,10.0,29.949802,,,TRUE,TRUE,,,,,,,SCT,7000,SCT,8000,BKN,12000,,,VFR,,,,,,,,,,,,SPECI,1381.0
KBAC 270115Z AUTO 18013G19KT 10SM CLR 26/11 A3002 RMK AO2,KBAC,2023-05-27T01:15:00Z,46.93,-98.02,26.0,11.0,180,13,19,10.0,30.02067,,,TRUE,TRUE,,,,,,,CLR,,,,,,,,VFR,,,,,,,,,,,,SPECI,423.0
KAZC 270115Z AUTO 00000KT 10SM CLR 23/M02 A2990 RMK AO2,KAZC,2023-05-27T01:15:00Z,36.97,-113.02,23.0,-2.0,0,0,,10.0,29.899607,,,TRUE,TRUE,,,,,,,CLR,,,,,,,,VFR,,,,,,,,,,,,SPECI,1476.0
KAYS 270115Z AUTO 06009G20KT 10SM SCT060 19/11 A3003 RMK AO2 T01900105,KAYS,2023-05-27T01:15:00Z,31.25,-82.4,19.0,10.5,60,9,20,10.0,30.029528,,,TRUE,TRUE,,,,,,,SCT,6000,,,,,,,VFR,,,,,,,,,,,,METAR,42.0
KAXX 270115Z AUTO 27004KT 10SM SCT110 09/06 A3022 RMK AO2 T00880064,KAXX,2023-05-27T01:15:00Z,36.42,-105.28,8.8,6.4,270,4,,10.0,30.221457,,,TRUE,TRUE,,,,,,,SCT,11000,,,,,,,VFR,,,,,,,,,,,,SPECI,2543.0
KAXV 270115Z AUTO 04009KT 10SM CLR 16/00 A3024 RMK AO2,KAXV,2023-05-27T01:15:00Z,40.5,-84.3,16.0,0.0,40,9,,10.0,30.239174,,,TRUE,TRUE,,,,,,,CLR,,,,,,,,VFR,,,,,,,,,,,,METAR,278.0
KAXS 270115Z AUTO 14008KT 5SM HZ SCT080 25/16 A3006 RMK AO2 T02450158,KAXS,2023-05-27T01:15:00Z,34.7,-99.33,24.5,15.8,140,8,,5.0,30.059055,,,TRUE,TRUE,,,,,,HZ,SCT,8000,,,,,,,MVFR,,,,,,,,,,,,METAR,433.0
KAXH 270115Z AUTO 00000KT 10SM SCT080 27/16 A2996 RMK AO2 T02650155,KAXH,2023-05-27T01:15:00Z,29.52,-95.48,26.5,15.5,0,0,,10.0,29.958662,,,TRUE,TRUE,,,,,,,SCT,8000,,,,,,,VFR,,,,,,,,,,,,SPECI,18.0
KAXA 270115Z AUTO 14007G13KT 10SM CLR 21/M01 A3018 RMK A01,KAXA,2023-05-27T01:15:00Z,43.07,-94.27,21.0,-1.0,140,7,13,10.0,30.180119,,,TRUE,TRUE,,,,,,,CLR,,,,,,,,VFR,,,,,,,,,,,,METAR,371.0
KAWG 270115Z AUTO 09007KT 10SM CLR 20/M01 A3020 RMK AO2,KAWG,2023-05-27T01:15:00Z,41.27,-91.67,20.0,-1.0,90,7,,10.0,30.200787,,,TRUE,TRUE,,,,,,,CLR,,,,,,,,VFR,,,,,,,,,,,,METAR,229.0
KAVQ 270115Z AUTO 26015G20KT 10SM 34/M07 A2977 RMK AO2 T03361068,KAVQ,2023-05-27T01:15:00Z,32.4,-111.22,33.6,-6.8,260,15,20,10.0,29.769686,,,TRUE,TRUE,,,,,,,,,,,,,,,,,,,,,,,,,,,SPECI,618.0
KAVC 270115Z AUTO 00000KT 10SM CLR 14/10 A3028 RMK AO2 T01400097,KAVC,2023-05-27T01:15:00Z,36.68,-78.05,14.0,9.7,0,0,,10.0,30.280512,,,TRUE,TRUE,,,,,,,CLR,,,,,,,,VFR,,,,,,,,,,,,METAR,119.0
KAUN 270115Z AUTO 19006KT 10SM CLR 21/11 A2990 RMK A01,KAUN,2023-05-27T01:15:00Z,38.95,-121.08,21.0,11.0,190,6,,10.0,29.899607,,,TRUE,TRUE,,,,,,,CLR,,,,,,,,VFR,,,,,,,,,,,,METAR,453.0
KAUH 270115Z AUTO 13014KT 10SM CLR 24/09 A3009 RMK AO2 T02400094,KAUH,2023-05-27T01:15:00Z,40.88,-98.0,24.0,9.4,130,14,,10.0,30.088583,,,TRUE,TRUE,,,,,,,CLR,,,,,,,,VFR,,,,,,,,,,,,METAR,549.0
KATS 270115Z AUTO 15015G23KT 10SM CLR 27/15 A2996 RMK AO2,KATS,2023-05-27T01:15:00Z,32.85,-104.47,27.0,15.0,150,15,23,10.0,29.958662,,,TRUE,TRUE,,,,,,,CLR,,,,,,,,VFR,,,,,,,,,,,,SPECI,1073.0
KATA 270115Z AUTO 00000KT 8SM CLR 23/18 A3000 RMK AO2 SLP057 T02270179 $,KATA,2023-05-27T01:15:00Z,33.1,-94.2,22.7,17.9,0,0,,8.0,30.0,1005.7,,TRUE,TRUE,TRUE,,,,,,CLR,,,,,,,,VFR,,,,,,,,,,,,SPECI,85.0
KASW 270115Z AUTO 11004KT 10SM CLR 16/M01 A3027 RMK AO2 T01691016,KASW,2023-05-27T01:15:00Z,41.27,-85.83,16.9,-1.6,110,4,,10.0,30.268702,,,TRUE,TRUE,,,,,,,CLR,,,,,,,,VFR,,,,,,,,,,,,METAR,253.0
KASN 270115Z AUTO 05003KT 10SM CLR 20/16 A3005 RMK AO2 T02030164,KASN,2023-05-27T01:15:00Z,33.57,-86.05,20.3,16.4,50,3,,10.0,30.050198,,,TRUE,TRUE,,,,,,,CLR,,,,,,,,VFR,,,,,,,,,,,,METAR,159.0
KASL 270115Z AUTO 00000KT 10SM CLR 23/18 A2998 RMK AO2 T02280178 $,KASL,2023-05-27T01:15:00Z,32.52,-94.3,22.8,17.8,0,0,,10.0,29.97933,,,TRUE,TRUE,TRUE,,,,,,CLR,,,,,,,,VFR,,,,,,,,,,,,SPECI,104.0
KARW 270115Z AUTO 01015G20KT 7SM RA SCT014 BKN050 OVC075 15/13 A3001 RMK AO2 P0004,KARW,2023-05-27T01:15:00Z,32.42,-80.63,15.0,13.0,10,15,20,7.0,30.008858,,,TRUE,TRUE,,,,,,RA,SCT,1400,BKN,5000,OVC,7500,,,VFR,,,,,,0.04,,,,,,METAR,2.0
KARV 270115Z AUTO 17003KT 10SM CLR 20/M01 A3027 RMK AO2 T01951007,KARV,2023-05-27T01:15:00Z,45.92,-89.72,19.5,-0.7,170,3,,10.0,30.268702,,,TRUE,TRUE,,,,,,,CLR,,,,,,,,VFR,,,,,,,,,,,,SPECI,494.0
KARM 270115Z AUTO 19003KT 10SM SCT075 25/22 A2997 RMK AO2 T02520217 TSNO,KARM,2023-05-27T01:15:00Z,29.25,-96.15,25.2,21.7,190,3,,10.0,29.970472,,,TRUE,TRUE,,,TRUE,,,,SCT,7500,,,,,,,VFR,,,,,,,,,,,,SPECI,29.0
KAQX 270115Z AUTO 01007G12KT 10SM SCT110 18/06 A3006 RMK AO2,KAQX,2023-05-27T01:15:00Z,32.98,-81.27,18.0,6.0,10,7,12,10.0,30.059055,,,TRUE,TRUE,,,,,,,SCT,11000,,,,,,,VFR,,,,,,,,,,,,METAR,48.0
KAQO 270115Z AUTO 10003KT 10SM CLR 25/17 A2998 RMK AO2,KAQO,2023-05-27T01:15:00Z,30.78,-98.67,25.0,17.0,100,3,,10.0,29.97933,,,TRUE,TRUE,,,,,,,CLR,,,,,,,,VFR,,,,,,,,,,,,METAR,334.0
KANW 270115Z AUTO 17008KT 10SM CLR 21/14 A3006 RMK AO2 T02060141,KANW,2023-05-27T01:15:00Z,42.57,-100.0,20.6,14.1,170,8,,10.0,30.059055,,,TRUE,TRUE,,,,,,,CLR,,,,,,,,VFR,,,,,,,,,,,,METAR,788.0
KANQ 270115Z AUTO 10004KT 10SM CLR 16/01 A3028 RMK AO2,KANQ,2023-05-27T01:15:00Z,41.63,-85.08,16.0,1.0,100,4,,10.0,30.280512,,,TRUE,TRUE,,,,,,,CLR,,,,,,,,VFR,,,,,,,,,,,,SPECI,299.0
KAMN 270115Z AUTO 05005KT 10SM CLR 15/02 A3031 RMK AO2 T01540021,KAMN,2023-05-27T01:15:00Z,43.32,-84.68,15.4,2.1,50,5,,10.0,30.31004,,,TRUE,TRUE,,,,,,,CLR,,,,,,,,VFR,,,,,,,,,,,,METAR,228.0
KALX 270115Z AUTO 00000KT 10SM CLR 21/19 A3005 RMK AO2 T02070187,KALX,2023-05-27T01:15:00Z,32.92,-85.97,20.7,18.7,0,0,,10.0,30.050198,,,TRUE,TRUE,,,,,,,CLR,,,,,,,,VFR,,,,,,,,,,,,METAR,198.0
KALM 270115Z AUTO 15015G21KT 10SM CLR 29/07 A2991 RMK AO2,KALM,2023-05-27T01:15:00Z,32.83,-105.98,29.0,7.0,150,15,21,10.0,29.911417,,,TRUE,TRUE,,,,,,,CLR,,,,,,,,VFR,,,,,,,,,,,,SPECI,1267.0
KAJZ 270115Z AUTO 04012KT 10SM CLR 27/M04 A2986 RMK AO2 T02651039 PWINO,KAJZ,2023-05-27T01:15:00Z,38.78,-108.07,26.5,-3.9,40,12,,10.0,29.861221,,,TRUE,TRUE,,,,,TRUE,,CLR,,,,,,,,VFR,,,,,,,,,,,,SPECI,1583.0
KAJR 270115Z AUTO 09004KT 7SM OVC075 19/09 A3014 RMK AO2 T01910085,KAJR,2023-05-27T01:15:00Z,34.5,-83.55,19.1,8.5,90,4,,7.0,30.138779,,,TRUE,TRUE,,,,,,,OVC,7500,,,,,,,VFR,,,,,,,,,,,,METAR,441.0
KAJG 270115Z AUTO 05005KT 10SM CLR 21/06 A3015 RMK AO2 T02130059,KAJG,2023-05-27T01:15:00Z,38.62,-87.73,21.3,5.9,50,5,,10.0,30.15059,,,TRUE,TRUE,,,,,,,CLR,,,,,,,,VFR,,,,,,,,,,,,SPECI,130.0
KAIT 270115Z AUTO 15004KT 10SM CLR 20/07 A3019 RMK AO2,KAIT,2023-05-27T01:15:00Z,46.53,-93.67,20.0,7.0,150,4,,10.0,30.188976,,,TRUE,TRUE,,,,,,,CLR,,,,,,,,VFR,,,,,,,,,,,,SPECI,367.0
KAIO 270115Z AUTO 12005KT 10SM CLR 22/02 A3017 RMK AO2,KAIO,2023-05-27T01:15:00Z,41.4,-95.03,22.0,2.0,120,5,,10.0,30.171259,,,TRUE,TRUE,,,,,,,CLR,,,,,,,,VFR,,,,,,,,,,,,METAR,349.0
KAIK 270115Z AUTO 03014G20KT 10SM CLR 18/06 A3010 RMK AO2 T01810059,KAIK,2023-05-27T01:15:00Z,33.65,-81.68,18.1,5.9,30,14,20,10.0,30.100393,,,TRUE,TRUE,,,,,,,CLR,,,,,,,,VFR,,,,,,,,,,,,METAR,155.0
KAIG 270115Z AUTO 16004KT 10SM CLR 17/04 A3029 RMK AO2 T01660035,KAIG,2023-05-27T01:15:00Z,45.15,-89.12,16.6,3.5,160,4,,10.0,30.28937,,,TRUE,TRUE,,,,,,,CLR,,,,,,,,VFR,,,,,,,,,,,,SPECI,462.0
KAID 270115Z AUTO 05006KT 10SM CLR 19/M06 A3023 RMK AO2 T01921056,KAID,2023-05-27T01:15:00Z,40.12,-85.62,19.2,-5.6,50,6,,10.0,30.230314,,,TRUE,TRUE,,,,,,,CLR,,,,,,,,VFR,,,,,,,,,,,,SPECI,277.0
KAHQ 270115Z AUTO 13009KT 10SM 24/02 A3013 RMK AO2 T02350024,KAHQ,2023-05-27T01:15:00Z,41.23,-96.6,23.5,2.4,130,9,,10.0,30.129921,,,TRUE,TRUE,,,,,,,,,,,,,,,,,,,,,,,,,,,METAR,372.0
KAGO 270115Z AUTO 00000KT 10SM CLR 24/17 A3000 RMK A01,KAGO,2023-05-27T01:15:00Z,33.23,-93.22,24.0,17.0,0,0,,10.0,30.0,,,TRUE,TRUE,,,,,,,CLR,,,,,,,,VFR,,,,,,,,,,,,METAR,91.0
KAGI 270115Z AUTO 05011G17KT 040V100 10SM CLR 27/15 A2996 RMK AO2 T02670148,KAGI,2023-05-27T01:15:00Z,27.55,-92.45,26.7,14.8,50,11,17,10.0,29.958662,,,TRUE,TRUE,,,,,,,CLR,,,,,,,,VFR,,,,,,,,,,,,METAR,41.0
KAFK 270115Z AUTO 11008KT 10SM CLR 21/04 A3015 RMK AO2 T02130044,KAFK,2023-05-27T01:15:00Z,40.6,-95.85,21.3,4.4,110,8,,10.0,30.15059,,,TRUE,TRUE,,,,,,,CLR,,,,,,,,VFR,,,,,,,,,,,,METAR,353.0
KAEL 270115Z AUTO 13005KT 10SM CLR 22/01 A3022 RMK AO2,KAEL,2023-05-27T01:15:00Z,43.68,-93.37,22.0,1.0,130,5,,10.0,30.221457,,,TRUE,TRUE,,,,,,,CLR,,,,,,,,VFR,,,,,,,,,,,,SPECI,382.0
KAEJ 270115Z AUTO 27004KT 10SM CLR 12/07 A3011 RMK AO2 T01220065,KAEJ,2023-05-27T01:15:00Z,38.82,-106.12,12.2,6.5,270,4,,10.0,30.109253,,,TRUE,TRUE,,,,,,,CLR,,,,,,,,VFR,,,,,,,,,,,,SPECI,2420.0
KADU 270115Z AUTO 12006KT 10SM SCT042 SCT060 BKN080 20/M02 A3018 RMK AO2 PWINO,KADU,2023-05-27T01:15:00Z,41.7,-94.92,20.0,-2.0,120,6,,10.0,30.180119,,,TRUE,TRUE,,,,,TRUE,,SCT,4200,SCT,6000,BKN,8000,,,VFR,,,,,,,,,,,,METAR,391.0
KACQ 270115Z AUTO 10SM CLR 20/00 A3023 RMK AO2,KACQ,2023-05-27T01:15:00Z,44.07,-93.55,20.0,0.0,,,,10.0,30.230314,,,TRUE,TRUE,,,,,,,CLR,,,,,,,,VFR,,,,,,,,,,,,METAR,339.0
KACP 270115Z AUTO 00000KT 10SM CLR 21/18 A2997 RMK AO2,KACP,2023-05-27T01:15:00Z,30.75,-92.68,21.0,18.0,0,0,,10.0,29.970472,,,TRUE,TRUE,,,,,,,CLR,,,,,,,,VFR,,,,,,,,,,,,METAR,31.0
KACJ 270115Z AUTO 08005KT 10SM BKN100 20/14 A3005 RMK AO2 T02020140,KACJ,2023-05-27T01:15:00Z,32.12,-84.18,20.2,14.0,80,5,,10.0,30.050198,,,TRUE,TRUE,,,,,,,BKN,10000,,,,,,,VFR,,,,,,,,,,,,METAR,140.0
KACB 270115Z AUTO 00000KT 10SM CLR 13/02 A3032 RMK AO2 T01250018,KACB,2023-05-27T01:15:00Z,44.98,-85.2,12.5,1.8,0,0,,10.0,30.318897,,,TRUE,TRUE,,,,,,,CLR,,,,,,,,VFR,,,,,,,,,,,,METAR,189.0
KAAS 270115Z AUTO 05005KT 10SM CLR 20/13 A3018 RMK AO1,KAAS,2023-05-27T01:15:00Z,37.35,-85.32,20.0,13.0,50,5,,10.0,30.180119,,,TRUE,TRUE,,,,,,,CLR,,,,,,,,VFR,,,,,,,,,,,,METAR,270.0
KAAA 270115Z AUTO 08004KT 10SM 21/01 A3020 RMK AO2 T02120014,KAAA,2023-05-27T01:15:00Z,40.17,-89.33,21.2,1.4,80,4,,10.0,30.200787,,,TRUE,TRUE,,,,,,,,,,,,,,,,,,,,,,,,,,,METAR,179.0
KA39 270115Z AUTO 31012KT 10SM SCT100 SCT120 33/M04 A2977 RMK AO2,KA39,2023-05-27T01:15:00Z,32.98,-111.92,33.0,-4.0,310,12,,10.0,29.769686,,,TRUE,TRUE,,,,,,,SCT,10000,SCT,12000,,,,,VFR,,,,,,,,,,,,METAR,391.0
K9V9 270115Z AUTO 15010KT 10SM BKN110 24/12 A3003 RMK AO2 T02370117,K9V9,2023-05-27T01:15:00Z,43.77,-99.32,23.7,11.7,150,10,,10.0,30.029528,,,TRUE,TRUE,,,,,,,BKN,11000,,,,,,,VFR,,,,,,,,,,,,METAR,511.0
K9S9 270115Z AUTO 32004KT 10SM 23/06 A2989 RMK AO2 PWINO,K9S9,2023-05-27T01:15:00Z,45.45,-119.68,23.0,6.0,320,4,,10.0,29.890747,,,TRUE,TRUE,,,,,TRUE,,,,,,,,,,,,,,,,,,,,,,METAR,498.0
K9MN 270115Z AUTO 12006KT 10SM CLR 21/00 A3025 RMK AO1 T02141003,K9MN,2023-05-27T01:15:00Z,44.02,-92.48,21.4,-0.3,120,6,,10.0,30.250984,,,TRUE,TRUE,,,,,,,CLR,,,,,,,,VFR,,,,,,,,,,,,SPECI,308.0
K9D7 270115Z AUTO 19018G26KT 10SM SCT070 OVC100 27/12 A2998 RMK AO2 TSNO,K9D7,2023-05-27T01:15:00Z,48.48,-99.23,27.0,12.0,190,18,26,10.0,29.97933,,,TRUE,TRUE,,,TRUE,,,,SCT,7000,OVC,10000,,,,,VFR,,,,,,,,,,,,SPECI,451.0
K9A5 270115Z AUTO 00000KT 7SM BKN065 OVC080 21/16 A3009 RMK AO2 T02060159,K9A5,2023-05-27T01:15:00Z,34.68,-85.28,20.6,15.9,0,0,,7.0,30.088583,,,TRUE,TRUE,,,,,,,BKN,6500,OVC,8000,,,,,VFR,,,,,,,,,,,,METAR,234.0
K96D 270115Z AUTO 20014G20KT 10SM CLR 28/11 A2995 RMK AO2,K96D,2023-05-27T01:15:00Z,48.93,-97.9,28.0,11.0,200,14,20,10.0,29.949802,,,TRUE,TRUE,,,,,,,CLR,,,,,,,,VFR,,,,,,,,,,,,SPECI,290.0
K8W2 270115Z AUTO 00000KT 10SM CLR 14/07 A3026 RMK AO1 T01360066,K8W2,2023-05-27T01:15:00Z,38.65,-78.7,13.6,6.6,0,0,,10.0,30.259842,,,TRUE,TRUE,,,,,,,CLR,,,,,,,,VFR,,,,,,,,,,,,METAR,295.0
K8T6 270115Z AUTO 13005KT 10SM FEW050 27/21 A2993 RMK AO2,K8T6,2023-05-27T01:15:00Z,28.37,-98.12,27.0,21.0,130,5,,10.0,29.929134,,,TRUE,TRUE,,,,,,,FEW,5000,,,,,,,VFR,,,,,,,,,,,,METAR,39.0
K8A3 270115Z AUTO 00000KT 10SM FEW055 BKN070 OVC090 18/16 A3011 RMK A01,K8A3,2023-05-27T01:15:00Z,36.42,-85.32,18.0,16.0,0,0,,10.0,30.109253,,,TRUE,TRUE,,,,,,,FEW,5500,BKN,7000,OVC,9000,,,VFR,,,,,,,,,,,,SPECI,413.0
K8A0 270115Z AUTO 12003KT 10SM CLR 21/13 A3008 RMK AO2,K8A0,2023-05-27T01:15:00Z,34.23,-86.25,21.0,13.0,120,3,,10.0,30.079725,,,TRUE,TRUE,,,,,,,CLR,,,,,,,,VFR,,,,,,,,,,,,METAR,313.0
K82C 270115Z AUTO 00000KT 10SM CLR 17/07 A3026 RMK AO2 T01660069,K82C,2023-05-27T01:15:00Z,43.83,-90.13,16.6,6.9,0,0,,10.0,30.259842,,,TRUE,TRUE,,,,,,,CLR,,,,,,,,VFR,,,,,,,,,,,,SPECI,273.0
K81R 270115Z AUTO 10007KT 10SM CLR 25/17 A3001 RMK AO2 T02510165,K81R,2023-05-27T01:15:00Z,31.23,-98.72,25.1,16.5,100,7,,10.0,30.008858,,,TRUE,TRUE,,,,,,,CLR,,,,,,,,VFR,,,,,,,,,,,,SPECI,381.0
K7W4 270115Z AUTO 10SM CLR 14/08 A3025 RMK AO1 T01390080,K7W4,2023-05-27T01:15:00Z,37.97,-77.75,13.9,8.0,,,,10.0,30.250984,,,TRUE,TRUE,,,,,,,CLR,,,,,,,,VFR,,,,,,,,,,,,METAR,115.0
K7L2 270115Z AUTO 19019G27KT 10SM CLR 25/13 A2999 RMK AO2,K7L2,2023-05-27T01:15:00Z,46.22,-100.25,25.0,13.0,190,19,27,10.0,29.991142,,,TRUE,TRUE,,,,,,,CLR,,,,,,,,VFR,,,,,,,,,,,,SPECI,541.0
K7BM 270115Z AUTO 29003KT 10SM CLR 10/00 A3022 RMK AO2 LTG DSNT N AND NE,K7BM,2023-05-27T01:15:00Z,38.78,-106.22,10.0,0.0,290,3,,10.0,30.221457,,,TRUE,TRUE,,,,,,,CLR,,,,,,,,VFR,,,,,,,,,,,,METAR,2996.0
K77S 270115Z AUTO 36006KT 10SM FEW060 SCT075 26/13 A2985 RMK A01,K77S,2023-05-27T01:15:00Z,43.93,-123.0,26.0,13.0,360,6,,10.0,29.84941,,,TRUE,TRUE,,,,,,,FEW,6000,SCT,7500,,,,,VFR,,,,,,,,,,,,METAR,161.0
K6S2 270115Z AUTO 31007G12KT 6SM BR OVC003 13/13 A2997 RMK AO2,K6S2,2023-05-27T01:15:00Z,43.98,-124.12,13.0,13.0,310,7,12,6.0,29.970472,,,TRUE,TRUE,,,,,,BR,OVC,300,,,,,,,LIFR,,,,,,,,,,,,SPECI,16.0
K6S0 270115Z AUTO 07003KT 10SM FEW021 FEW026 15/11 A2997 RMK A01,K6S0,2023-05-27T01:15:00Z,45.8,-109.97,15.0,11.0,70,3,,10.0,29.970472,,,TRUE,TRUE,,,,,,,FEW,2100,FEW,2600,,,,,VFR,,,,,,,,,,,,METAR,1364.0
K6R3 270115Z AUTO 00000KT 10SM SCT075 BKN085 25/19 A2997 RMK AO2 T02530194,K6R3,2023-05-27T01:15:00Z,30.35,-95.0,25.3,19.4,0,0,,10.0,29.970472,,,TRUE,TRUE,,,,,,,SCT,7500,BKN,8500,,,,,VFR,,,,,,,,,,,,METAR,44.0
K6L4 270115Z AUTO 04003KT 10SM CLR 19/06 A3018 RMK AO2,K6L4,2023-05-27T01:15:00Z,37.85,-81.92,19.0,6.0,40,3,,10.0,30.180119,,,TRUE,TRUE,,,,,,,CLR,,,,,,,,VFR,,,,,,,,,,,,METAR,504.0
K6B9 270115Z AUTO 00000KT 10SM CLR 10/06 A3030 RMK AO2,K6B9,2023-05-27T01:15:00Z,42.92,-76.43,10.0,6.0,0,0,,10.0,30.301182,,,TRUE,TRUE,,,,,,,CLR,,,,,,,,VFR,,,,,,,,,,,,SPECI,306.0
K6B0 270115Z AUTO 00000KT 10SM CLR 11/04 A3027 RMK AO2 T01100037,K6B0,2023-05-27T01:15:00Z,43.98,-73.1,11.0,3.7,0,0,,10.0,30.268702,,,TRUE,TRUE,,,,,,,CLR,,,,,,,,VFR,,,,,,,,,,,,SPECI,149.0
K6A2 270115Z AUTO 09003KT 10SM CLR 19/10 A3009 RMK AO2,K6A2,2023-05-27T01:15:00Z,33.23,-84.27,19.0,10.0,90,3,,10.0,30.088583,,,TRUE,TRUE,,,,,,,CLR,,,,,,,,VFR,,,,,,,,,,,,METAR,290.0
K6A1 270115Z AUTO 08005KT 10SM CLR 21/12 A3007 RMK AO2 T02060116,K6A1,2023-05-27T01:15:00Z,32.57,-84.25,20.6,11.6,80,5,,10.0,30.070866,,,TRUE,TRUE,,,,,,,CLR,,,,,,,,VFR,,,,,,,,,,,,METAR,198.0
K66R 270115Z AUTO 00000KT 10SM CLR 27/18 A2997 RMK AO2 T02670175,K66R,2023-05-27T01:15:00Z,29.65,-96.52,26.7,17.5,0,0,,10.0,29.970472,,,TRUE,TRUE,,,,,,,CLR,,,,,,,,VFR,,,,,,,,,,,,SPECI,70.0
K65S 270115Z AUTO 00000KT 10SM CLR 23/09 A2986 RMK AO2,K65S,2023-05-27T01:15:00Z,48.73,-116.3,23.0,9.0,0,0,,10.0,29.861221,,,TRUE,TRUE,,,,,,,CLR,,,,,,,,VFR,,,,,,,,,,,,SPECI,708.0
K63S 270115Z AUTO 00000KT 10SM CLR 20/12 A2985 RMK A01,K63S,2023-05-27T01:15:00Z,48.53,-117.88,20.0,12.0,0,0,,10.0,29.84941,,,TRUE,TRUE,,,,,,,CLR,,,,,,,,VFR,,,,,,,,,,,,METAR,571.0
K5T9 270115Z AUTO 11007KT 10SM CLR 29/17 A2991 RMK A01,K5T9,2023-05-27T01:15:00Z,28.85,-100.52,29.0,17.0,110,7,,10.0,29.911417,,,TRUE,TRUE,,,,,,,CLR,,,,,,,,VFR,,,,,,,,,,,,SPECI,269.0
K5SM 270115Z AUTO 21015G27KT 10SM CLR 07/M05 A3024 RMK AO2,K5SM,2023-05-27T01:15:00Z,39.43,-107.38,7.0,-5.0,210,15,27,10.0,30.239174,,,TRUE,TRUE,,,,,,,CLR,,,,,,,,VFR,,,,,,,,,,,,METAR,3229.0
K5R8 270115Z AUTO 00000KT 10SM CLR 24/14 A2997 RMK AO2 T02380141,K5R8,2023-05-27T01:15:00Z,30.43,-93.47,23.8,14.1,0,0,,10.0,29.970472,,,TRUE,TRUE,,,,,,,CLR,,,,,,,,VFR,,,,,,,,,,,,METAR,26.0
K5H4 270115Z AUTO 19014G20KT 10SM BKN110 26/13 A2998 RMK AO2,K5H4,2023-05-27T01:15:00Z,47.78,-99.93,26.0,13.0,190,14,20,10.0,29.97933,,,TRUE,TRUE,,,,,,,BKN,11000,,,,,,,VFR,,,,,,,,,,,,SPECI,490.0
K5C1 270115Z AUTO 00000KT 10SM CLR 25/15 A3000 RMK AO1,K5C1,2023-05-27T01:15:00Z,29.72,-98.7,25.0,15.0,0,0,,10.0,30.0,,,TRUE,TRUE,,,,,,,CLR,,,,,,,,VFR,,,,,,,,,,,,METAR,422.0
K5A6 270115Z AUTO 02005KT 10SM 23/17 A3002 RMK AO2 T02330170,K5A6,2023-05-27T01:15:00Z,33.47,-89.73,23.3,17.0,20,5,,10.0,30.02067,,,TRUE,TRUE,,,,,,,,,,,,,,,,,,,,,,,,,,,SPECI,109.0
K57C 270115Z AUTO 05003KT CLR 15/M02 A3029 RMK AO2 T01511020 PWINO,K57C,2023-05-27T01:15:00Z,42.8,-88.37,15.1,-2.0,50,3,,,30.28937,,,TRUE,TRUE,,,,,TRUE,,CLR,,,,,,,,,,,,,,,,,,,,METAR,454.0
K54A 270115Z AUTO 04006KT 10SM FEW011 SCT060 BKN070 22/21 A2986 RMK AO2,K54A,2023-05-27T01:15:00Z,26.85,-82.25,22.0,21.0,40,6,,10.0,29.861221,,,TRUE,TRUE,,,,,,,FEW,1100,SCT,6000,BKN,7000,,,VFR,,,,,,,,,,,,SPECI,2.0
K4V1 270115Z AUTO 00000KT 10SM CLR 21/07 A3000 RMK AO2 T02140067,K4V1,2023-05-27T01:15:00Z,37.7,-104.78,21.4,6.7,0,0,,10.0,30.0,,,TRUE,TRUE,,,,,,,CLR,,,,,,,,VFR,,,,,,,,,,,,METAR,1847.0
K4V0 270115Z AUTO 28009G14KT 10SM CLR 23/02 A2988 RMK AO2 T02270022,K4V0,2023-05-27T01:15:00Z,40.1,-108.77,22.7,2.2,280,9,14,10.0,29.878937,,,TRUE,TRUE,,,,,,,CLR,,,,,,,,VFR,,,,,,,,,,,,SPECI,1602.0
K4S2 270115Z AUTO 00000KT 10SM OVC090 18/13 A2991 RMK AO2,K4S2,2023-05-27T01:15:00Z,45.68,-121.55,18.0,13.0,0,0,,10.0,29.911417,,,TRUE,TRUE,,,,,,,OVC,9000,,,,,,,VFR,,,,,,,,,,,,SPECI,183.0
K4S1 270115Z AUTO 35012G19KT 13/11 A2994 RMK AO2 PWINO,K4S1,2023-05-27T01:15:00Z,42.42,-124.42,13.0,11.0,350,12,19,,29.940945,,,TRUE,TRUE,,,,,TRUE,,,,,,,,,,,,,,,,,,,,,,METAR,7.0
K4R5 270115Z AUTO 00000KT 10SM SCT110 14/06 A3022 RMK AO2 T01440060,K4R5,2023-05-27T01:15:00Z,46.78,-90.77,14.4,6.0,0,0,,10.0,30.221457,,,TRUE,TRUE,,,,,,,SCT,11000,,,,,,,VFR,,,,,,,,,,,,METAR,195.0
K4O4 270115Z AUTO 09004KT 6SM HZ CLR 24/16 A3002 RMK AO2,K4O4,2023-05-27T01:15:00Z,33.92,-94.87,24.0,16.0,90,4,,6.0,30.02067,,,TRUE,TRUE,,,,,,HZ,CLR,,,,,,,,VFR,,,,,,,,,,,,METAR,148.0
K4M9 270115Z AUTO 02007KT 9SM CLR 23/09 A3011 RMK AO2 PWINO,K4M9,2023-05-27T01:15:00Z,36.4,-90.65,23.0,9.0,20,7,,9.0,30.109253,,,TRUE,TRUE,,,,,TRUE,,CLR,,,,,,,,VFR,,,,,,,,,,,,METAR,86.0
K4I3 270115Z AUTO 01008KT 10SM CLR 16/03 A3026 RMK AO2,K4I3,2023-05-27T01:15:00Z,40.33,-82.53,16.0,3.0,10,8,,10.0,30.259842,,,TRUE,TRUE,,,,,,,CLR,,,,,,,,VFR,,,,,,,,,,,,METAR,361.0
K4F2 270115Z AUTO 00000KT 10SM CLR 22/20 A3000 RMK AO2 T02200197,K4F2,2023-05-27T01:15:00Z,32.18,-94.3,22.0,19.7,0,0,,10.0,30.0,,,TRUE,TRUE,,,,,,,CLR,,,,,,,,VFR,,,,,,,,,,,,METAR,76.0
K4BM 270115Z AUTO 12005KT 10SM CLR 08/01 A3034 RMK AO2 LTG DSNT N,K4BM,2023-05-27T01:15:00Z,39.05,-105.52,8.0,1.0,120,5,,10.0,30.339567,,,TRUE,TRUE,,,,,,,CLR,,,,,,,,VFR,,,,,,,,,,,,SPECI,3432.0
K4A9 270115Z AUTO 00000KT 10SM SCT075 OVC120 20/16 A3007 RMK AO2 T02020157,K4A9,2023-05-27T01:15:00Z,34.47,-85.72,20.2,15.7,0,0,,10.0,30.070866,,,TRUE,TRUE,,,,,,,SCT,7500,OVC,12000,,,,,VFR,,,,,,,,,,,,METAR,273.0
K4A6 270115Z AUTO 34003KT 7SM FEW020 SCT037 OVC055 21/21 A3008 RMK AO2,K4A6,2023-05-27T01:15:00Z,34.68,-86.0,21.0,21.0,340,3,,7.0,30.079725,,,TRUE,TRUE,,,,,,,FEW,2000,SCT,3700,OVC,5500,,,VFR,,,,,,,,,,,,METAR,191.0
K49A 270115Z AUTO 00000KT 10SM OVC075 20/16 A3011 RMK AO2,K49A,2023-05-27T01:15:00Z,34.63,-84.53,20.0,16.0,0,0,,10.0,30.109253,,,TRUE,TRUE,,,,,,,OVC,7500,,,,,,,VFR,,,,,,,,,,,,METAR,449.0
K48A 270115Z AUTO 05007KT 10SM SCT095 19/09 A3007 RMK AO2 T01950090,K48A,2023-05-27T01:15:00Z,32.4,-83.27,19.5,9.0,50,7,,10.0,30.070866,,,TRUE,TRUE,,,,,,,SCT,9500,,,,,,,VFR,,,,,,,,,,,,METAR,115.0
K46U 270115Z AUTO 31007KT 10SM FEW070 14/05 A2998 RMK A01,K46U,2023-05-27T01:15:00Z,43.18,-111.05,14.0,5.0,310,7,,10.0,29.97933,,,TRUE,TRUE,,,,,,,FEW,7000,,,,,,,VFR,,,,,,,,,,,,SPECI,1718.0
K46D 270115Z AUTO 19017G23KT 10SM CLR 26/12 A3000 RMK AO2,K46D,2023-05-27T01:15:00Z,47.45,-99.15,26.0,12.0,190,17,23,10.0,30.0,,,TRUE,TRUE,,,,,,,CLR,,,,,,,,VFR,,,,,,,,,,,,SPECI,488.0
K42J 270115Z AUTO 03012G18KT 10SM OVC027 20/16 A2996 RMK A01,K42J,2023-05-27T01:15:00Z,29.85,-82.05,20.0,16.0,30,12,18,10.0,29.958662,,,TRUE,TRUE,,,,,,,OVC,2700,,,,,,,MVFR,,,,,,,,,,,,METAR,57.0
K41U 270115Z AUTO 07004KT 10SM CLR 14/09 A2994 RMK AO1 T01430092,K41U,2023-05-27T01:15:00Z,39.33,-111.6,14.3,9.2,70,4,,10.0,29.940945,,,TRUE,TRUE,,,,,,,CLR,,,,,,,,VFR,,,,,,,,,,,,METAR,1676.0
K40U 270115Z AUTO 07007KT 10SM SCT110 12/07 A3002 RMK AO2 T01180066,K40U,2023-05-27T01:15:00Z,40.98,-109.68,11.8,6.6,70,7,,10.0,30.02067,,,TRUE,TRUE,,,,,,,SCT,11000,,,,,,,VFR,,,,,,,,,,,,METAR,1882.0
K3U3 270115Z AUTO 26012G18KT 10SM 12/08 A2997 ,K3U3,2023-05-27T01:15:00Z,46.15,-112.87,12.0,8.0,260,12,18,10.0,29.970472,,,TRUE,,,,,,,,,,,,,,,,,,,,,,,,,,,,METAR,1534.0
K3T5 270115Z AUTO 04003KT 10SM CLR 27/20 A2994 RMK AO2 T02690204 $,K3T5,2023-05-27T01:15:00Z,29.9,-96.95,26.9,20.4,40,3,,10.0,29.940945,,,TRUE,TRUE,TRUE,,,,,,CLR,,,,,,,,VFR,,,,,,,,,,,,SPECI,96.0
K3S8 270115Z AUTO 35013KT 10SM CLR 28/05 A2987 RMK AO2,K3S8,2023-05-27T01:15:00Z,42.5,-123.4,28.0,5.0,350,13,,10.0,29.870079,,,TRUE,TRUE,,,,,,,CLR,,,,,,,,VFR,,,,,,,,,,,,SPECI,339.0
K3R7 270115Z AUTO 00000KT 10SM CLR 26/13 A2997 RMK AO2 T02620131,K3R7,2023-05-27T01:15:00Z,30.25,-92.67,26.2,13.1,0,0,,10.0,29.970472,,,TRUE,TRUE,,,,,,,CLR,,,,,,,,VFR,,,,,,,,,,,,SPECI,5.0
K3N8 270115Z AUTO 15009G15KT 10SM CLR 25/06 A3009 RMK AO2 T02470063,K3N8,2023-05-27T01:15:00Z,47.25,-95.92,24.7,6.3,150,9,15,10.0,30.088583,,,TRUE,TRUE,,,,,,,CLR,,,,,,,,VFR,,,,,,,,,,,,SPECI,379.0
K3LF 270115Z AUTO 10003KT 10SM CLR 19/06 A3018 RMK AO2 T01930056,K3LF,2023-05-27T01:15:00Z,39.17,-89.67,19.3,5.6,100,3,,10.0,30.180119,,,TRUE,TRUE,,,,,,,CLR,,,,,,,,VFR,,,,,,,,,,,,METAR,207.0
K3L4 270115Z AUTO 21004KT 5SM HZ CLR 26/21 A2996 RMK A01,K3L4,2023-05-27T01:15:00Z,29.8,-92.8,26.0,21.0,210,4,,5.0,29.958662,,,TRUE,TRUE,,,,,,HZ,CLR,,,,,,,,MVFR,,,,,,,,,,,,SPECI,1.0
K3K3 270115Z AUTO 15015G20KT 10SM CLR 20/13 A3006 RMK AO2,K3K3,2023-05-27T01:15:00Z,38.0,-101.75,20.0,13.0,150,15,20,10.0,30.059055,,,TRUE,TRUE,,,,,,,CLR,,,,,,,,VFR,,,,,,,,,,,,METAR,1010.0
K3F3 270115Z AUTO 07008KT 10SM CLR 24/17 A3003 RMK AO2 T02400169,K3F3,2023-05-27T01:15:00Z,32.07,-93.77,24.0,16.9,70,8,,10.0,30.029528,,,TRUE,TRUE,,,,,,,CLR,,,,,,,,VFR,,,,,,,,,,,,METAR,96.0
K3D2 270115Z AUTO 18003KT 10SM CLR 13/M01 A3030 RMK AO2 T01251006,K3D2,2023-05-27T01:15:00Z,45.13,-87.18,12.5,-0.6,180,3,,10.0,30.301182,,,TRUE,TRUE,,,,,,,CLR,,,,,,,,VFR,,,,,,,,,,,,SPECI,233.0
K3AU 270115Z AUTO 10004KT 10SM CLR 23/11 A3009 RMK AO2,K3AU,2023-05-27T01:15:00Z,37.67,-97.08,23.0,11.0,100,4,,10.0,30.088583,,,TRUE,TRUE,,,,,,,CLR,,,,,,,,VFR,,,,,,,,,,,,SPECI,403.0
K38S 270115Z AUTO 33007KT 10SM 13/13 A2999 ,K38S,2023-05-27T01:15:00Z,46.38,-112.77,13.0,13.0,330,7,,10.0,29.991142,,,TRUE,,,,,,,,,,,,,,,,,,,,,,,,,,,,METAR,1430.0
K36K 270115Z AUTO 15009KT 10SM CLR 20/16 A3010 RMK AO2,K36K,2023-05-27T01:15:00Z,37.97,-101.25,20.0,16.0,150,9,,10.0,30.100393,,,TRUE,TRUE,,,,,,,CLR,,,,,,,,VFR,,,,,,,,,,,,SPECI,938.0
K35A 270115Z AUTO 06004KT 10SM CLR 18/05 A3019 RMK A02 T01810055,K35A,2023-05-27T01:15:00Z,34.68,-81.63,18.1,5.5,60,4,,10.0,30.188976,,,TRUE,TRUE,,,,,,,CLR,,,,,,,,VFR,,,,,,,,,,,,SPECI,186.0
K33V 270115Z AUTO 19006KT 10SM BKN110 16/M02 A3007 RMK AO1,K33V,2023-05-27T01:15:00Z,40.75,-106.28,16.0,-2.0,190,6,,10.0,30.070866,,,TRUE,TRUE,,,,,,,BKN,11000,,,,,,,VFR,,,,,,,,,,,,SPECI,2486.0
K33N 270115Z AUTO 00000KT 10SM CLR 15/05 A3026 RMK A01,K33N,2023-05-27T01:15:00Z,39.22,-75.6,15.0,5.0,0,0,,10.0,30.259842,,,TRUE,TRUE,,,,,,,CLR,,,,,,,,VFR,,,,,,,,,,,,SPECI,17.0
K2V5 270115Z AUTO 15017G26KT 10SM SCT075 SCT080 21/12 A3005 RMK AO2 LTG DSNT W,K2V5,2023-05-27T01:15:00Z,40.1,-102.25,21.0,12.0,150,17,26,10.0,30.050198,,,TRUE,TRUE,,,,,,,SCT,7500,SCT,8000,,,,,VFR,,,,,,,,,,,,SPECI,1117.0
K2R9 270115Z AUTO 09005KT 10SM CLR 28/19 A2995 RMK AO2 T02760189,K2R9,2023-05-27T01:15:00Z,28.82,-97.87,27.6,18.9,90,5,,10.0,29.949802,,,TRUE,TRUE,,,,,,,CLR,,,,,,,,VFR,,,,,,,,,,,,METAR,88.0
K2P2 270115Z AUTO 00000KT 10SM BKN090 OVC120 10/M01 A3030 RMK AO2 T01021011,K2P2,2023-05-27T01:15:00Z,45.38,-86.92,10.2,-1.1,0,0,,10.0,30.301182,,,TRUE,TRUE,,,,,,,BKN,9000,OVC,12000,,,,,VFR,,,,,,,,,,,,SPECI,182.0
K2J9 270115Z AUTO 07011G16KT 10SM OVC060 23/15 A3000 RMK AO2,K2J9,2023-05-27T01:15:00Z,30.6,-84.55,23.0,15.0,70,11,16,10.0,30.0,,,TRUE,TRUE,,,,,,,OVC,6000,,,,,,,VFR,,,,,,,,,,,,SPECI,62.0
K2I0 270115Z AUTO 02003KT 10SM CLR 22/09 A3013 RMK AO2 T02160093,K2I0,2023-05-27T01:15:00Z,37.35,-87.4,21.6,9.3,20,3,,10.0,30.129921,,,TRUE,TRUE,,,,,,,CLR,,,,,,,,VFR,,,,,,,,,,,,METAR,127.0
K2G9 270115Z AUTO 21004KT 10SM CLR 13/00 A3028 RMK AO2,K2G9,2023-05-27T01:15:00Z,40.03,-79.02,13.0,0.0,210,4,,10.0,30.280512,,,TRUE,TRUE,,,,,,,CLR,,,,,,,,VFR,,,,,,,,,,,,METAR,677.0
K2D5 270115Z AUTO 16017G22KT 9SM CLR 26/09 A3003 RMK AO2,K2D5,2023-05-27T01:15:00Z,46.17,-98.08,26.0,9.0,160,17,22,9.0,30.029528,,,TRUE,TRUE,,,,,,,CLR,,,,,,,,VFR,,,,,,,,,,,,SPECI,407.0
K2C8 270115Z AUTO 19021G28KT 9SM CLR 29/12 A2995 RMK AO2,K2C8,2023-05-27T01:15:00Z,48.78,-97.63,29.0,12.0,190,21,28,9.0,29.949802,,,TRUE,TRUE,,,,,,,CLR,,,,,,,,VFR,,,,,,,,,,,,METAR,271.0
K2A0 270115Z AUTO 00000KT 10SM FEW055 BKN120 18/18 A3007 RMK A01,K2A0,2023-05-27T01:15:00Z,35.48,-84.93,18.0,18.0,0,0,,10.0,30.070866,,,TRUE,TRUE,,,,,,,FEW,5500,BKN,12000,,,,,VFR,,,,,,,,,,,,SPECI,219.0
K28J 270115Z AUTO 02013G21KT 10SM OVC022 18/14 A2996 RMK AO2,K28J,2023-05-27T01:15:00Z,29.65,-81.68,18.0,14.0,20,13,21,10.0,29.958662,,,TRUE,TRUE,,,,,,,OVC,2200,,,,,,,MVFR,,,,,,,,,,,,METAR,9.0
K22N 270115Z AUTO 00000KT 10SM CLR 12/04 A3027 RMK AO2,K22N,2023-05-27T01:15:00Z,40.8,-75.77,12.0,4.0,0,0,,10.0,30.268702,,,TRUE,TRUE,,,,,,,CLR,,,,,,,,VFR,,,,,,,,,,,,METAR,159.0
K21D 270115Z AUTO 13004KT 10SM CLR 21/01 A3023 RMK AO2,K21D,2023-05-27T01:15:00Z,45.0,-92.85,21.0,1.0,130,4,,10.0,30.230314,,,TRUE,TRUE,,,,,,,CLR,,,,,,,,VFR,,,,,,,,,,,,METAR,281.0
K20V 270115Z AUTO 17006KT 10SM BKN110 20/01 A3004 RMK AO2,K20V,2023-05-27T01:15:00Z,40.05,-106.37,20.0,1.0,170,6,,10.0,30.041338,,,TRUE,TRUE,,,,,,,BKN,11000,,,,,,,VFR,,,,,,,,,,,,METAR,2259.0
K20U 270115Z AUTO 07004KT 10SM CLR 19/19 A2990 RMK AO2 LTG DSNT NE,K20U,2023-05-27T01:15:00Z,46.93,-103.98,19.0,19.0,70,4,,10.0,29.899607,,,TRUE,TRUE,,,,,,,CLR,,,,,,,,VFR,,,,,,,,,,,,SPECI,839.0
K1V6 270115Z AUTO 06013G17KT 10SM SCT085 20/08 A3000 RMK AO2,K1V6,2023-05-27T01:15:00Z,38.43,-105.1,20.0,8.0,60,13,17,10.0,30.0,,,TRUE,TRUE,,,,,,,SCT,8500,,,,,,,VFR,,,,,,,,,,,,SPECI,1658.0
K1U7 270115Z AUTO 16008KT 10SM CLR 13/07 A2995 RMK A01,K1U7,2023-05-27T01:15:00Z,42.25,-111.33,13.0,7.0,160,8,,10.0,29.949802,,,TRUE,TRUE,,,,,,,CLR,,,,,,,,VFR,,,,,,,,,,,,METAR,1808.0
K1S5 270115Z AUTO 25007KT 10SM SCT090 26/07 A2981 RMK AO2 LTG DSNT SE T02600072,K1S5,2023-05-27T01:15:00Z,46.33,-119.97,26.0,7.2,250,7,,10.0,29.811024,,,TRUE,TRUE,,,,,,,SCT,9000,,,,,,,VFR,,,,,,,,,,,,SPECI,228.0
K1R8 270115Z AUTO 05006KT 10SM FEW070 FEW080 BKN100 24/16 A2997 RMK AO2,K1R8,2023-05-27T01:15:00Z,30.87,-87.82,24.0,16.0,50,6,,10.0,29.970472,,,TRUE,TRUE,,,,,,,FEW,7000,FEW,8000,BKN,10000,,,VFR,,,,,,,,,,,,METAR,76.0
K1R7 270115Z AUTO 00000KT 9SM CLR 21/21 A3000 RMK AO2 PWINO,K1R7,2023-05-27T01:15:00Z,31.6,-90.42,21.0,21.0,0,0,,9.0,30.0,,,TRUE,TRUE,,,,,TRUE,,CLR,,,,,,,,VFR,,,,,,,,,,,,METAR,142.0
K1P1 270115Z AUTO 27003KT 10SM CLR 14/02 A3026 RMK AO2 T01390024,K1P1,2023-05-27T01:15:00Z,43.78,-71.75,13.9,2.4,270,3,,10.0,30.259842,,,TRUE,TRUE,,,,,,,CLR,,,,,,,,VFR,,,,,,,,,,,,METAR,155.0
K1M5 270115Z AUTO 00000KT 10SM CLR 19/13 A3009 RMK A01,K1M5,2023-05-27T01:15:00Z,36.6,-86.48,19.0,13.0,0,0,,10.0,30.088583,,,TRUE,TRUE,,,,,,,CLR,,,,,,,,VFR,,,,,,,,,,,,SPECI,239.0
K1H2 270115Z AUTO 00000KT 10SM CLR 20/05 A3018 RMK AO2 T01960053,K1H2,2023-05-27T01:15:00Z,39.07,-88.53,19.6,5.3,0,0,,10.0,30.180119,,,TRUE,TRUE,,,,,,,CLR,,,,,,,,VFR,,,,,,,,,,,,METAR,174.0
K1F0 270115Z AUTO 10003KT 10SM OVC110 25/15 A3003 RMK AO2 T02470151,K1F0,2023-05-27T01:15:00Z,34.15,-97.12,24.7,15.1,100,3,,10.0,30.029528,,,TRUE,TRUE,,,,,,,OVC,11000,,,,,,,VFR,,,,,,,,,,,,METAR,256.0
K1A9 270115Z AUTO 00000KT 10SM CLR 22/15 A3001 RMK AO2 T02170150,K1A9,2023-05-27T01:15:00Z,32.43,-86.52,21.7,15.0,0,0,,10.0,30.008858,,,TRUE,TRUE,,,,,,,CLR,,,,,,,,VFR,,,,,,,,,,,,METAR,65.0
K1A6 270115Z AUTO 24003KT 10SM OVC060 20/16 A3013 RMK AO2 T01980157,K1A6,2023-05-27T01:15:00Z,36.62,-83.73,19.8,15.7,240,3,,10.0,30.129921,,,TRUE,TRUE,,,,,,,OVC,6000,,,,,,,VFR,,,,,,,,,,,,METAR,348.0
K18H 270115Z AUTO 06010G18KT 10SM FEW039 26/17 A2992 RMK A01,K18H,2023-05-27T01:15:00Z,26.13,-92.03,26.0,17.0,60,10,18,10.0,29.920275,,,TRUE,TRUE,,,,,,,FEW,3900,,,,,,,VFR,,,,,,,,,,,,METAR,30.0
K17J 270115Z AUTO 07005KT 10SM SCT042 SCT060 21/15 A3000 RMK AO2 T02150148,K17J,2023-05-27T01:15:00Z,31.0,-84.87,21.5,14.8,70,5,,10.0,30.0,,,TRUE,TRUE,,,,,,,SCT,4200,SCT,6000,,,,,VFR,,,,,,,,,,,,METAR,42.0
K15M 270115Z AUTO 36004KT 10SM SCT060 BKN070 BKN100 22/17 A3006 RMK AO2 LTG DSNT E T02210166 $,K15M,2023-05-27T01:15:00Z,34.77,-88.17,22.1,16.6,360,4,,10.0,30.059055,,,TRUE,TRUE,TRUE,,,,,,SCT,6000,BKN,7000,BKN,10000,,,VFR,,,,,,,,,,,,METAR,192.0
K14Y 270115Z AUTO 15007KT 10SM CLR 22/04 A3017 RMK AO2,K14Y,2023-05-27T01:15:00Z,45.9,-94.87,22.0,4.0,150,7,,10.0,30.171259,,,TRUE,TRUE,,,,,,,CLR,,,,,,,,VFR,,,,,,,,,,,,METAR,404.0
K13K 270115Z AUTO 08008KT 10SM CLR 22/11 A3011 RMK AO2 T02230108,K13K,2023-05-27T01:15:00Z,37.85,-96.3,22.3,10.8,80,8,,10.0,30.109253,,,TRUE,TRUE,,,,,,,CLR,,,,,,,,VFR,,,,,,,,,,,,METAR,367.0
K11R 270115Z AUTO 00000KT 10SM CLR 27/18 A2996 RMK AO2 T02700175,K11R,2023-05-27T01:15:00Z,30.22,-96.37,27.0,17.5,0,0,,10.0,29.958662,,,TRUE,TRUE,,,,,,,CLR,,,,,,,,VFR,,,,,,,,,,,,SPECI,87.0
K10U 270115Z AUTO 13005KT 10SM BKN120 14/07 A2997 RMK AO2,K10U,2023-05-27T01:15:00Z,,,14.0,7.0,130,5,,10.0,29.970472,,,TRUE,TRUE,,,,,,,BKN,12000,,,,,,,VFR,,,,,,,,,,,,METAR,
K10G 270115Z AUTO 36008KT 10SM CLR 16/02 A3027 RMK AO2,K10G,2023-05-27T01:15:00Z,40.53,-81.95,16.0,2.0,360,8,,10.0,30.268702,,,TRUE,TRUE,,,,,,,CLR,,,,,,,,VFR,,,,,,,,,,,,METAR,371.0
K0VG 270115Z AUTO 06004KT 10SM FEW080 20/11 A3014 RMK AO2,K0VG,2023-05-27T01:15:00Z,36.65,-83.22,20.0,11.0,60,4,,10.0,30.138779,,,TRUE,TRUE,,,,,,,FEW,8000,,,,,,,VFR,,,,,,,,,,,,METAR,426.0
K0V4 270115Z AUTO 09004KT 10SM CLR 15/07 A3023 RMK AO1,K0V4,2023-05-27T01:15:00Z,37.15,-79.02,15.0,7.0,90,4,,10.0,30.230314,,,TRUE,TRUE,,,,,,,CLR,,,,,,,,VFR,,,,,,,,,,,,METAR,186.0
K0S9 270115Z AUTO 33009KT 10SM CLR 21/11 A2984 RMK AO2,K0S9,2023-05-27T01:15:00Z,48.05,-122.82,21.0,11.0,330,9,,10.0,29.840551,,,TRUE,TRUE,,,,,,,CLR,,,,,,,,VFR,,,,,,,,,,,,SPECI,33.0
K0R0 270115Z AUTO 00000KT A3000 RMK AO2 PWINO TSNO,K0R0,2023-05-27T01:15:00Z,31.3,-89.82,,,0,0,,,30.0,,,TRUE,TRUE,,,TRUE,,TRUE,,,,,,,,,,,,,,,,,,,,,,SPECI,76.0
K0F2 270115Z AUTO 10SM SCT120 24/17 A3003 RMK AO2 T02390173,K0F2,2023-05-27T01:15:00Z,33.6,-97.78,23.9,17.3,,,,10.0,30.029528,,,TRUE,TRUE,,,,,,,SCT,12000,,,,,,,VFR,,,,,,,,,,,,SPECI,330.0
K0E0 270115Z AUTO 11013G19KT 10SM CLR 18/11 A3007 RMK AO2 T01770110,K0E0,2023-05-27T01:15:00Z,34.98,-106.0,17.7,11.0,110,13,19,10.0,30.070866,,,TRUE,TRUE,,,,,,,CLR,,,,,,,,VFR,,,,,,,,,,,,METAR,1887.0
K0A9 270115Z AUTO VRB05G13KT 10SM CLR 19/08 A3017 RMK AO2,K0A9,2023-05-27T01:15:00Z,36.37,-82.17,19.0,8.0,0,5,13,10.0,30.171259,,,TRUE,TRUE,,,,,,,CLR,,,,,,,,VFR,,,,,,,,,,,,SPECI,479.0
K0A0 270115Z AUTO 22013KT 10SM CLR 31/M13 A2991 RMK AO2,K0A0,2023-05-27T01:15:00Z,32.98,-106.97,31.0,-13.0,220,13,,10.0,29.911417,,,TRUE,TRUE,,,,,,,CLR,,,,,,,,VFR,,,,,,,,,,,,SPECI,1401.0
K08D 270115Z AUTO 22007KT 10SM SCT095 18/18 A2995 RMK AO2 LTG DSNT S AND W,K08D,2023-05-27T01:15:00Z,48.3,-102.4,18.0,18.0,220,7,,10.0,29.949802,,,TRUE,TRUE,,,,,,,SCT,9500,,,,,,,VFR,,,,,,,,,,,,SPECI,683.0
K06D 270115Z AUTO 19019G26KT 10SM FEW110 26/11 A2996 RMK AO2 LTG DSNT N AND NW,K06D,2023-05-27T01:15:00Z,48.88,-99.62,26.0,11.0,190,19,26,10.0,29.958662,,,TRUE,TRUE,,,,,,,FEW,11000,,,,,,,VFR,,,,,,,,,,,,SPECI,554.0
K06C 270115Z AUTO 00000KT 10SM CLR 16/02 A3028 RMK AO2 T01620020,K06C,2023-05-27T01:15:00Z,41.98,-88.1,16.2,2.0,0,0,,10.0,30.280512,,,TRUE,TRUE,,,,,,,CLR,,,,,,,,VFR,,,,,,,,,,,,METAR,243.0
K04V 270115Z AUTO 14009G16KT 10SM CLR 16/03 A3012 RMK AO2,K04V,2023-05-27T01:15:00Z,38.1,-106.17,16.0,3.0,140,9,16,10.0,30.121063,,,TRUE,TRUE,,,,,,,CLR,,,,,,,,VFR,,,,,,,,,,,,METAR,2389.0
CWPF 270115Z AUTO 17008KT 19/10 RMK AO1 SLP100 T01940098 57021,CWPF,2023-05-27T01:15:00Z,48.43,-123.43,19.4,9.8,170,8,,,,1010.0,,TRUE,TRUE,,,,,,,,,,,,,,,,-2.1,,,,,,,,,,,METAR,5.0
BGTL 270115Z AUTO 28006KT 5000 -SN BKN005 OVC011 M05/M07 A2945 RMK AO2 CIG 003 RWY26 SLP959 TSNO $,BGTL,2023-05-27T01:15:00Z,76.53,-68.75,-5.0,-7.0,280,6,,3.11,29.450787,995.9,,TRUE,TRUE,TRUE,,TRUE,,,-SN,BKN,500,OVC,1100,,,,,IFR,,,,,,,,,,,,SPECI,79.0
SBMO 270114Z 32002KT 9999 SCT013 23/23 Q1015,SBMO,2023-05-27T01:14:00Z,-9.52,-35.78,23.0,23.0,320,2,,6.21,29.970472,,,,,,,,,,,SCT,1300,,,,,,,VFR,,,,,,,,,,,,SPECI,116.0
RKSS 270114Z 17004KT 4000 -RA BKN025 OVC070 20/17 Q1019 NOSIG,RKSS,2023-05-27T01:14:00Z,37.55,126.78,20.0,17.0,170,4,,2.49,30.088583,,,,,,TRUE,,,,-RA,BKN,2500,OVC,7000,,,,,IFR,,,,,,,,,,,,SPECI,18.0
KTOR 270114Z AUTO 12009KT 10SM VCTS -RA FEW037 BKN090 OVC110 16/10 A2992 RMK AO2 TSE08 P0003 T01560100,KTOR,2023-05-27T01:14:00Z,42.07,-104.15,15.6,10.0,120,9,,10.0,29.920275,,,TRUE,TRUE,,,,,,VCTS -RA,FEW,3700,BKN,9000,OVC,11000,,,VFR,,,,,,0.03,,,,,,METAR,1285.0
KCVN 270114Z AUTO 11013KT 10SM VCTS OVC085 19/17 A3005 RMK AO2 LTG DSNT NW-NE TSE12B14RAE06 P0000,KCVN,2023-05-27T01:14:00Z,34.42,-103.07,19.0,17.0,110,13,,10.0,30.050198,,,TRUE,TRUE,,,,,,VCTS,OVC,8500,,,,,,,VFR,,,,,,0.005,,,,,,SPECI,1278.0
EKKA 270114Z AUTO 25006KT 7000 NCD 05/05 Q1029,EKKA,2023-05-27T01:14:00Z,56.3,9.12,5.0,5.0,250,6,,4.35,30.383858,,,TRUE,,,,,,,,CLR,,,,,,,,MVFR,,,,,,,,,,,,SPECI,50.0
CYTE 270114Z AUTO 28012KT 9SM -SN BKN019 M05/M08 A3014 RMK SLP214,CYTE,2023-05-27T01:14:00Z,64.22,-76.52,-5.0,-8.0,280,12,,9.0,30.138779,1021.4,,TRUE,,,,,,,-SN,BKN,1900,,,,,,,MVFR,,,,,,,,,,,,SPECI,49.0
CYNA 270114Z AUTO 05004KT 010V080 9SM -RA SCT009 BKN015 OVC055 06/05 A2996 RMK SLP147,CYNA,2023-05-27T01:14:00Z,50.18,-61.78,6.0,5.0,50,4,,9.0,29.958662,1014.7,,TRUE,,,,,,,-RA,SCT,900,BKN,1500,OVC,5500,,,MVFR,,,,,,,,,,,,SPECI,9.0
CYMH 270114Z AUTO 02005KT 2SM -RA BR OVC004 02/02 A2997 RMK PRESFR SLP150,CYMH,2023-05-27T01:14:00Z,52.3,-55.82,2.0,2.0,20,5,,2.0,29.970472,1015.0,,TRUE,,,,,,,-RA BR,OVC,400,,,,,,,LIFR,,,,,,,,,,,,SPECI,18.0
PAFB 270113Z AUTO 05006KT 10SM FEW003 FEW043 BKN060 OVC075 12/09 A2940 RMK AO2 RAE13 SLP962 FZRANO $,PAFB,2023-05-27T01:13:00Z,64.83,-147.62,12.0,9.0,50,6,,10.0,29.40059,996.2,,TRUE,TRUE,TRUE,,,TRUE,,,FEW,300,FEW,4300,BKN,6000,OVC,7500,VFR,,,,,,,,,,,,SPECI,137.0
MMPB 270113Z 23013KT 5SM RA SCT020CB OVC090 17/12 A3029 RMK 8/36/ RAB10,MMPB,2023-05-27T01:13:00Z,19.17,-98.37,17.0,12.0,230,13,,5.0,30.28937,,,,,,,,,,RA,SCT,2000,OVC,9000,,,,,MVFR,,,,,,,,,,,,SPECI,2250.0
KSHR 270113Z AUTO 28018G27KT 3SM VCTS +RA FEW018 OVC029 14/09 A2994 RMK AO2 PK WND 27027/0110 WSHFT 0059 LTG DSNT NW-E P0005 T01390089,KSHR,2023-05-27T01:13:00Z,44.77,-106.97,13.9,8.9,280,18,27,3.0,29.940945,,,TRUE,TRUE,,,,,,VCTS +RA,FEW,1800,OVC,2900,,,,,MVFR,,,,,,0.05,,,,,,SPECI,1212.0
KPIE 270113Z 04012G23KT 10SM FEW003 SCT029 24/20 A2989 RMK AO2 PK WND 05026/0056 T02390200,KPIE,2023-05-27T01:13:00Z,27.92,-82.68,23.9,20.0,40,12,23,10.0,29.890747,,,,TRUE,,,,,,,FEW,300,SCT,2900,,,,,VFR,,,,,,,,,,,,SPECI,1.0
KOWA 270113Z AUTO 15004KT 10SM CLR 21/00 A3022 RMK AO2,KOWA,2023-05-27T01:13:00Z,44.12,-93.25,21.0,0.0,150,4,,10.0,30.221457,,,TRUE,TRUE,,,,,,,CLR,,,,,,,,VFR,,,,,,,,,,,,SPECI,345.0
KORB 270113Z AUTO 19004KT 10SM CLR 23/06 A3015 RMK AO2,KORB,2023-05-27T01:13:00Z,48.02,-92.87,23.0,6.0,190,4,,10.0,30.15059,,,TRUE,TRUE,,,,,,,CLR,,,,,,,,VFR,,,,,,,,,,,,SPECI,407.0
KMUO 270113Z AUTO 28013G17KT 10SM BKN080 23/04 A2980 RMK AO2 WSHFT 12 SLP074 $,KMUO,2023-05-27T01:13:00Z,43.03,-115.87,23.0,4.0,280,13,17,10.0,29.799213,1007.4,,TRUE,TRUE,TRUE,,,,,,BKN,8000,,,,,,,VFR,,,,,,,,,,,,SPECI,915.0
KLSV 270113Z AUTO 10013KT 10SM CLR 31/M07 A2966 RMK AO2 WSHFT 10 SLP024 $,KLSV,2023-05-27T01:13:00Z,36.23,-115.05,31.0,-7.0,100,13,,10.0,29.660433,1002.4,,TRUE,TRUE,TRUE,,,,,,CLR,,,,,,,,VFR,,,,,,,,,,,,SPECI,563.0
KFOZ 270113Z AUTO 18004KT 10SM CLR 23/07 A3020 RMK AO2,KFOZ,2023-05-27T01:13:00Z,47.77,-93.65,23.0,7.0,180,4,,10.0,30.200787,,,TRUE,TRUE,,,,,,,CLR,,,,,,,,VFR,,,,,,,,,,,,SPECI,412.0
KDVP 270113Z AUTO 14009KT 10SM CLR A3017 RMK AO2,KDVP,2023-05-27T01:13:00Z,43.98,-95.78,,,140,9,,10.0,30.171259,,,TRUE,TRUE,,,,,,,CLR,,,,,,,,VFR,,,,,,,,,,,,METAR,493.0
KAQP 270113Z AUTO 19006KT 10SM 26/M03 A3011 RMK AO2,KAQP,2023-05-27T01:13:00Z,45.22,-96.0,26.0,-3.0,190,6,,10.0,30.109253,,,TRUE,TRUE,,,,,,,,,,,,,,,,,,,,,,,,,,,METAR,312.0
CYAT 270113Z AUTO 05012KT 9SM -RA 04/03 A3007 RMK CLD MISG SLP185,CYAT,2023-05-27T01:13:00Z,52.93,-82.43,4.0,3.0,50,12,,9.0,30.070866,1018.5,,TRUE,,,,,,,-RA,,,,,,,,,,,,,,,,,,,,,SPECI,4.0
SCJO 270112Z AUTO 00000KT 1100 BR FEW037/// 04/03 Q1027,SCJO,2023-05-27T01:12:00Z,-40.6,-73.05,4.0,3.0,0,0,,0.68,30.324802,,,TRUE,,,,,,,BR,FEW,3700,,,,,,,LIFR,,,,,,,,,,,,SPECI,61.0
MMML 270112Z RTD 32012KT 10SM SKC 32/M01 A2971,MMML,2023-05-27T01:12:00Z,32.62,-115.23,32.0,-1.0,320,12,,10.0,29.71063,,,,,,,,,,,SKC,,,,,,,,VFR,,,,,,,,,,,,METAR,21.0
KSDB 270112Z AUTO 19007KT 10SM BKN027 13/08 A2998 RMK AO2 T01280083,KSDB,2023-05-27T01:12:00Z,34.75,-118.72,12.8,8.3,190,7,,10.0,29.97933,,,TRUE,TRUE,,,,,,,BKN,2700,,,,,,,MVFR,,,,,,,,,,,,SPECI,1377.0
PAOM 270111Z 13007KT 10SM BKN012 OVC049 08/06 A2932 RMK AO2 T00780061,PAOM,2023-05-27T01:11:00Z,64.5,-165.43,7.8,6.1,130,7,,10.0,29.320866,,,,TRUE,,,,,,,BKN,1200,OVC,4900,,,,,MVFR,,,,,,,,,,,,SPECI,6.0
KMLB 270111Z 35016G27KT 10SM FEW021 SCT030 23/19 A2986 RMK AO2 PK WND 35027/0105 T02280189,KMLB,2023-05-27T01:11:00Z,28.1,-80.65,22.8,18.9,350,16,27,10.0,29.861221,,,,TRUE,,,,,,,FEW,2100,SCT,3000,,,,,VFR,,,,,,,,,,,,SPECI,7.0
KLGD 270111Z AUTO 31008KT 10SM -RA FEW033 OVC055 16/12 A2992 RMK AO2 TSE05 P0003,KLGD,2023-05-27T01:11:00Z,45.28,-118.0,16.0,12.0,310,8,,10.0,29.920275,,,TRUE,TRUE,,,,,,-RA,FEW,3300,OVC,5500,,,,,VFR,,,,,,0.03,,,,,,SPECI,827.0
CYQD 270111Z AUTO 01004KT 300V050 9SM BKN006 BKN028 OVC043 09/09 A2996 RMK SLP156,CYQD,2023-05-27T01:11:00Z,53.97,-101.08,9.0,9.0,10,4,,9.0,29.958662,1015.6,,TRUE,,,,,,,,BKN,600,BKN,2800,OVC,4300,,,IFR,,,,,,,,,,,,SPECI,268.0
YMHB 270110Z 33015G25KT 9999 VCSH FEW038 SCT046 BKN058 14/05 Q1005,YMHB,2023-05-27T01:10:00Z,-42.83,147.52,14.0,5.0,330,15,25,6.21,29.675198,,,,,,,,,,VCSH,FEW,3800,SCT,4600,BKN,5800,,,VFR,,,,,,,,,,,,SPECI,2.0
VCRI 270110Z VRB02KT 9999 FEW018 25/25 Q1009 NOSIG,VCRI,2023-05-27T01:10:00Z,6.28,81.13,25.0,25.0,0,2,,6.21,29.793306,,,,,,TRUE,,,,,FEW,1800,,,,,,,VFR,,,,,,,,,,,,METAR,50.0
VCBI 270110Z 10003KT 050V150 9999 BKN016 27/26 Q1010 NOSIG,VCBI,2023-05-27T01:10:00Z,7.17,79.88,27.0,26.0,100,3,,6.21,29.822834,,,,,,TRUE,,,,,BKN,1600,,,,,,,MVFR,,,,,,,,,,,,METAR,10.0
PAKN 270110Z 11006KT 10SM OVC032 11/04 A2936 RMK AO2 T01110039,PAKN,2023-05-27T01:10:00Z,58.68,-156.65,11.1,3.9,110,6,,10.0,29.359253,,,,TRUE,,,,,,,OVC,3200,,,,,,,VFR,,,,,,,,,,,,SPECI,20.0
NSFA 270110Z 14003KT 9999 VCSH SCT012 SCT025 OVC080 29/24 Q1010,NSFA,2023-05-27T01:10:00Z,-13.83,-172.0,29.0,24.0,140,3,,6.21,29.822834,,,,,,,,,,VCSH,SCT,1200,SCT,2500,OVC,8000,,,VFR,,,,,,,,,,,,SPECI,6.0
KSVN 270110Z 01012G20KT 10SM SCT029 OVC039 18/09 A2999 RMK AO2A SLP159 $,KSVN,2023-05-27T01:10:00Z,32.02,-81.12,18.0,9.0,10,12,20,10.0,29.991142,1015.9,,,TRUE,TRUE,,,,,,SCT,2900,OVC,3900,,,,,VFR,,,,,,,,,,,,SPECI,13.0
KSUT 270110Z AUTO 02008G20KT 10SM BKN110 15/13 A3004 RMK AO2 T01450125,KSUT,2023-05-27T01:10:00Z,33.93,-78.08,14.5,12.5,20,8,20,10.0,30.041338,,,TRUE,TRUE,,,,,,,BKN,11000,,,,,,,VFR,,,,,,,,,,,,METAR,6.0
KSNY 270110Z AUTO 25016G26KT 3/4SM +TSRA BR 13/11 A3004 RMK AO2 PK WND 24026/0106 WSHFT 0040 LTG DSNT S-NW RAB0059RAEMMB09 P0026 T01330111 $,KSNY,2023-05-27T01:10:00Z,41.1,-102.98,13.3,11.1,250,16,26,0.75,30.041338,,,TRUE,TRUE,TRUE,,,,,+TSRA BR,,,,,,,,,,,,,,,0.26,,,,,,SPECI,1307.0
KSNH 270110Z AUTO 02005KT 10SM BKN085 22/15 A3006 RMK A01,KSNH,2023-05-27T01:10:00Z,35.17,-88.22,22.0,15.0,20,5,,10.0,30.059055,,,TRUE,TRUE,,,,,,,BKN,8500,,,,,,,VFR,,,,,,,,,,,,SPECI,142.0
KS85 270110Z AUTO 03006KT 10SM 24/16 A2987 RMK A01 Culbertson ,KS85,2023-05-27T01:10:00Z,48.15,-104.5,24.0,16.0,30,6,,10.0,29.870079,,,TRUE,TRUE,,,,,,,,,,,,,,,,,,,,,,,,,,,METAR,596.0
KRHP 270110Z AUTO 00000KT 7SM BKN065 OVC080 16/16 A3012 RMK AO2 T01620155,KRHP,2023-05-27T01:10:00Z,35.18,-83.85,16.2,15.5,0,0,,7.0,30.121063,,,TRUE,TRUE,,,,,,,BKN,6500,OVC,8000,,,,,VFR,,,,,,,,,,,,METAR,515.0
KRCZ 270110Z AUTO 03007G17KT 10SM CLR 18/05 A3014 RMK AO2 T01800050,KRCZ,2023-05-27T01:10:00Z,34.88,-79.77,18.0,5.0,30,7,17,10.0,30.138779,,,TRUE,TRUE,,,,,,,CLR,,,,,,,,VFR,,,,,,,,,,,,METAR,110.0
KQFW 270110Z AUTO 17001KT 9999 FEW037 SCT060 BKN110 20/14 A2995 RMK A02 TSNO,KQFW,2023-05-27T01:10:00Z,,,20.0,14.0,170,1,,6.21,29.949802,,,TRUE,TRUE,,,TRUE,,,,FEW,3700,SCT,6000,BKN,11000,,,VFR,,,,,,,,,,,,METAR,
KQEY 270110Z AUTO 06001KT 9999 OVC050 21/17 A2982 RMK A02 TSNO,KQEY,2023-05-27T01:10:00Z,,,21.0,17.0,60,1,,6.21,29.819881,,,TRUE,TRUE,,,TRUE,,,,OVC,5000,,,,,,,VFR,,,,,,,,,,,,METAR,
KQER 270110Z AUTO 18001KT 9999 FEW050 BKN120 20/15 A3006 RMK A02 TSNO,KQER,2023-05-27T01:10:00Z,,,20.0,15.0,180,1,,6.21,30.059055,,,TRUE,TRUE,,,TRUE,,,,FEW,5000,BKN,12000,,,,,VFR,,,,,,,,,,,,METAR,
KO86 270110Z AUTO 15010KT 10SM 25/13 A2984 RMK A01,KO86,2023-05-27T01:10:00Z,40.98,-122.7,25.0,13.0,150,10,,10.0,29.840551,,,TRUE,TRUE,,,,,,,,,,,,,,,,,,,,,,,,,,,SPECI,729.0
KO05 270110Z AUTO 31009G14KT 10SM OVC110 18/04 A2995 RMK A01,KO05,2023-05-27T01:10:00Z,40.28,-121.23,18.0,4.0,310,9,14,10.0,29.949802,,,TRUE,TRUE,,,,,,,OVC,11000,,,,,,,VFR,,,,,,,,,,,,METAR,1380.0
KMRC 270110Z AUTO 00000KT 10SM SCT110 22/13 A3007 RMK A01,KMRC,2023-05-27T01:10:00Z,35.55,-87.18,22.0,13.0,0,0,,10.0,30.070866,,,TRUE,TRUE,,,,,,,SCT,11000,,,,,,,VFR,,,,,,,,,,,,SPECI,205.0
KMQI 270110Z AUTO 06018G23KT 10SM CLR 16/10 A3017 RMK AO2 T01580100,KMQI,2023-05-27T01:10:00Z,35.92,-75.7,15.8,10.0,60,18,23,10.0,30.171259,,,TRUE,TRUE,,,,,,,CLR,,,,,,,,VFR,,,,,,,,,,,,METAR,3.0
KM91 270110Z AUTO 02004KT 10SM CLR 20/12 A3009 RMK A01,KM91,2023-05-27T01:10:00Z,36.53,-86.92,20.0,12.0,20,4,,10.0,30.088583,,,TRUE,TRUE,,,,,,,CLR,,,,,,,,VFR,,,,,,,,,,,,SPECI,214.0
KM54 270110Z AUTO 36003KT 10SM FEW120 22/13 A3006 RMK A01,KM54,2023-05-27T01:10:00Z,36.18,-86.32,22.0,13.0,360,3,,10.0,30.059055,,,TRUE,TRUE,,,,,,,FEW,12000,,,,,,,VFR,,,,,,,,,,,,SPECI,168.0
KM04 270110Z AUTO 04006KT 10SM CLR 21/09 A3008 RMK A01,KM04,2023-05-27T01:10:00Z,35.58,-89.58,21.0,9.0,40,6,,10.0,30.079725,,,TRUE,TRUE,,,,,,,CLR,,,,,,,,VFR,,,,,,,,,,,,SPECI,83.0
KLHZ 270110Z AUTO 05010G15KT 10SM CLR 15/05 A3022 RMK AO2,KLHZ,2023-05-27T01:10:00Z,36.02,-78.33,15.0,5.0,50,10,15,10.0,30.221457,,,TRUE,TRUE,,,,,,,CLR,,,,,,,,VFR,,,,,,,,,,,,METAR,104.0
KKNB 270110Z AUTO 29011G21KT 10SM FEW034 FEW060 SCT110 21/M00 A2993 RMK A01,KKNB,2023-05-27T01:10:00Z,37.02,-112.53,21.0,0.0,290,11,21,10.0,29.929134,,,TRUE,TRUE,,,,,,,FEW,3400,FEW,6000,SCT,11000,,,VFR,,,,,,,,,,,,METAR,1476.0
KJAU 270110Z AUTO 00000KT 10SM OVC055 20/16 A3015 RMK A01,KJAU,2023-05-27T01:10:00Z,36.33,-84.17,20.0,16.0,0,0,,10.0,30.15059,,,TRUE,TRUE,,,,,,,OVC,5500,,,,,,,VFR,,,,,,,,,,,,SPECI,350.0
KIXA 270110Z AUTO 04004KT 10SM CLR 14/08 A3021 RMK AO2,KIXA,2023-05-27T01:10:00Z,36.33,-77.63,14.0,8.0,40,4,,10.0,30.209646,,,TRUE,TRUE,,,,,,,CLR,,,,,,,,VFR,,,,,,,,,,,,METAR,43.0
KHNZ 270110Z AUTO 00000KT 10SM CLR 13/05 A3022 RMK AO2 T01290054,KHNZ,2023-05-27T01:10:00Z,36.37,-78.53,12.9,5.4,0,0,,10.0,30.221457,,,TRUE,TRUE,,,,,,,CLR,,,,,,,,VFR,,,,,,,,,,,,METAR,158.0
KGWW 270110Z AUTO 04012G22KT 10SM CLR 16/06 A3017 RMK AO2 T01580059,KGWW,2023-05-27T01:10:00Z,35.47,-77.97,15.8,5.9,40,12,22,10.0,30.171259,,,TRUE,TRUE,,,,,,,CLR,,,,,,,,VFR,,,,,,,,,,,,METAR,40.0
KFYE 270110Z AUTO VRB03KT 10SM CLR 22/10 A3006 RMK A01,KFYE,2023-05-27T01:10:00Z,35.2,-89.38,22.0,10.0,0,3,,10.0,30.059055,,,TRUE,TRUE,,,,,,,CLR,,,,,,,,VFR,,,,,,,,,,,,SPECI,133.0
KFFA 270110Z AUTO 05009G17KT 360V080 10SM CLR 16/10 A3016 RMK AO2 T01560103,KFFA,2023-05-27T01:10:00Z,36.02,-75.67,15.6,10.3,50,9,17,10.0,30.159449,,,TRUE,TRUE,,,,,,,CLR,,,,,,,,VFR,,,,,,,,,,,,METAR,2.0
KEYF 270110Z AUTO 04011G16KT 010V070 10SM SCT035 SCT042 BKN110 17/10 A3011 RMK AO2 T01740097,KEYF,2023-05-27T01:10:00Z,34.6,-78.58,17.4,9.7,40,11,16,10.0,30.109253,,,TRUE,TRUE,,,,,,,SCT,3500,SCT,4200,BKN,11000,,,VFR,,,,,,,,,,,,METAR,39.0
KEXX 270110Z AUTO 06005KT 10SM CLR 17/07 A3019 RMK AO2 T01710074,KEXX,2023-05-27T01:10:00Z,35.78,-80.3,17.1,7.4,60,5,,10.0,30.188976,,,TRUE,TRUE,,,,,,,CLR,,,,,,,,VFR,,,,,,,,,,,,METAR,221.0
KCII 270110Z AUTO 32006KT 10SM 14/11 A2997 RMK A01 ,KCII,2023-05-27T01:10:00Z,47.83,-112.17,14.0,11.0,320,6,,10.0,29.970472,,,TRUE,TRUE,,,,,,,,,,,,,,,,,,,,,,,,,,,METAR,1202.0
KCGS 270110Z AUTO 00000KT 10SM CLR 16/07 A3024 RMK AO2 T01640073,KCGS,2023-05-27T01:10:00Z,38.98,-76.92,16.4,7.3,0,0,,10.0,30.239174,,,TRUE,TRUE,,,,,,,CLR,,,,,,,,VFR,,,,,,,,,,,,SPECI,15.0
KAKO 270110Z AUTO 25014KT 3SM +TSRA BR FEW025 BKN035 OVC070 12/11 A3012 RMK AO2 LTG DSNT ALQDS PRESRR P0014 T01220111,KAKO,2023-05-27T01:10:00Z,40.17,-103.22,12.2,11.1,250,14,,3.0,30.121063,,,TRUE,TRUE,,,,,,+TSRA BR,FEW,2500,BKN,3500,OVC,7000,,,MVFR,,,,,,0.14,,,,,,SPECI,1431.0
KAFP 270110Z AUTO 01005KT 4SM HZ CLR 18/08 A3015 RMK AO2 T01750075,KAFP,2023-05-27T01:10:00Z,35.02,-80.08,17.5,7.5,10,5,,4.0,30.15059,,,TRUE,TRUE,,,,,,HZ,CLR,,,,,,,,MVFR,,,,,,,,,,,,METAR,91.0
K6S8 270110Z AUTO 22007KT 10SM 16/15 A2993 RMK A01 LAUREL,K6S8,2023-05-27T01:10:00Z,45.7,-108.77,16.0,15.0,220,7,,10.0,29.929134,,,TRUE,TRUE,,,,,,,,,,,,,,,,,,,,,,,,,,,SPECI,1072.0
K4U6 270110Z AUTO 03009KT 10SM 23/15 A2987 RMK A01 Circle ,K4U6,2023-05-27T01:10:00Z,47.42,-105.57,23.0,15.0,30,9,,10.0,29.870079,,,TRUE,TRUE,,,,,,,,,,,,,,,,,,,,,,,,,,,METAR,739.0
K2M2 270110Z AUTO 01004KT 10SM BKN080 OVC090 22/14 A3008 RMK A01,K2M2,2023-05-27T01:10:00Z,35.23,-87.25,22.0,14.0,10,4,,10.0,30.079725,,,TRUE,TRUE,,,,,,,BKN,8000,OVC,9000,,,,,VFR,,,,,,,,,,,,SPECI,286.0
K1A5 270110Z AUTO 00000KT 10SM BKN050 BKN065 19/11 A3017 RMK AO2 T01860109,K1A5,2023-05-27T01:10:00Z,35.22,-83.42,18.6,10.9,0,0,,10.0,30.171259,,,TRUE,TRUE,,,,,,,BKN,5000,BKN,6500,,,,,VFR,,,,,,,,,,,,METAR,611.0
MMIO 270109Z RTD 02012KT 10SM BKN200 22/08 A3010 RMK 8/008 SC,MMIO,2023-05-27T01:09:00Z,25.55,-100.93,22.0,8.0,20,12,,10.0,30.100393,,,,,,,,,,,BKN,20000,,,,,,,VFR,,,,,,,,,,,,SPECI,1430.0
KMTJ 270109Z AUTO 15009KT 10SM FEW110 25/M06 A2991 RMK AO2 WSHFT 0049 T02501056,KMTJ,2023-05-27T01:09:00Z,38.5,-107.9,25.0,-5.6,150,9,,10.0,29.911417,,,TRUE,TRUE,,,,,,,FEW,11000,,,,,,,VFR,,,,,,,,,,,,METAR,1755.0
KGEY 270109Z AUTO 04012G20KT 6SM -RA OVC070 14/11 A2995 RMK AO2 LTG DSNT NE AND E TSE03 PRESFR P0002 T01390111,KGEY,2023-05-27T01:09:00Z,44.52,-108.08,13.9,11.1,40,12,20,6.0,29.949802,,,TRUE,TRUE,,,,,,-RA,OVC,7000,,,,,,,VFR,,,,,,0.02,,,,,,METAR,1191.0
KFME 270109Z AUTO 00000KT CLR 13/08 A3026 RMK AO1,KFME,2023-05-27T01:09:00Z,39.08,-76.77,13.0,8.0,0,0,,,30.259842,,,TRUE,TRUE,,,,,,,CLR,,,,,,,,,,,,,,,,,,,,SPECI,43.0
K2W6 270109Z AUTO 10003KT 10SM CLR 16/07 A3027 RMK AO1,K2W6,2023-05-27T01:09:00Z,38.32,-76.55,16.0,7.0,100,3,,10.0,30.268702,,,TRUE,TRUE,,,,,,,CLR,,,,,,,,VFR,,,,,,,,,,,,SPECI,40.0
CYPQ 270109Z AUTO 22003KT 6SM HZ CLR 13/05 A3028 RMK SLP259,CYPQ,2023-05-27T01:09:00Z,44.22,-78.37,13.0,5.0,220,3,,6.0,30.280512,1025.9,,TRUE,,,,,,,HZ,CLR,,,,,,,,VFR,,,,,,,,,,,,SPECI,190.0
SBLE 270108Z AUTO 13006KT 9999 BKN004 BKN017 OVC027 ///// Q////,SBLE,2023-05-27T01:08:00Z,-12.48,-41.28,,,130,6,,6.21,,,,TRUE,,,,,,,,BKN,400,BKN,1700,OVC,2700,,,LIFR,,,,,,,,,,,,SPECI,495.0
KMSO 270108Z 32009KT 10SM -RA BKN031 BKN046 OVC080 13/12 A2994 RMK AO2 P0006 T01330122,KMSO,2023-05-27T01:08:00Z,46.92,-114.1,13.3,12.2,320,9,,10.0,29.940945,,,,TRUE,,,,,,-RA,BKN,3100,BKN,4600,OVC,8000,,,VFR,,,,,,0.06,,,,,,METAR,974.0
KFLP 270108Z AUTO 08004KT 10SM FEW002 22/08 A3011 RMK AO2,KFLP,2023-05-27T01:08:00Z,36.28,-92.58,22.0,8.0,80,4,,10.0,30.109253,,,TRUE,TRUE,,,,,,,FEW,200,,,,,,,VFR,,,,,,,,,,,,METAR,215.0
FNLU 270108Z VRB03KT 9000 BKN020 25/22 Q1010 NOSIG,FNLU,2023-05-27T01:08:00Z,-8.85,13.22,25.0,22.0,0,3,,5.59,29.822834,,,,,,TRUE,,,,,BKN,2000,,,,,,,MVFR,,,,,,,,,,,,METAR,75.0
CYEK 270108Z AUTO 19016KT 9SM BKN009 00/M01 A3004 RMK SLP175,CYEK,2023-05-27T01:08:00Z,61.1,-94.07,0.0,-1.0,190,16,,9.0,30.041338,1017.5,,TRUE,,,,,,,,BKN,900,,,,,,,IFR,,,,,,,,,,,,SPECI,7.0
YPPD 270107Z AUTO 11017G27KT 9999 // NCD 24/01 Q1019 RF00/0/000/0,YPPD,2023-05-27T01:07:00Z,-20.37,118.62,24.0,1.0,110,17,27,6.21,30.088583,,,TRUE,,,,,,,,CLR,,,,,,,,VFR,,,,,,,,,,,,SPECI,6.0
LTCD 270107Z 01007KT 340V060 9999 -SHRA SCT040 BKN080 11/10 Q1017 NOSIG RMK RWY10 36007KT,LTCD,2023-05-27T01:07:00Z,39.72,39.52,11.0,10.0,10,7,,6.21,30.029528,,,,,,TRUE,,,,-SHRA,SCT,4000,BKN,8000,,,,,VFR,,,,,,,,,,,,SPECI,1146.0
KLAA 270107Z AUTO 22012G22KT 6SM -RA FEW043 OVC080 18/14 A3003 RMK AO2 LTG DSNT N AND NE AND SW P0002 T01780139,KLAA,2023-05-27T01:07:00Z,38.07,-102.68,17.8,13.9,220,12,22,6.0,30.029528,,,TRUE,TRUE,,,,,,-RA,FEW,4300,OVC,8000,,,,,VFR,,,,,,0.02,,,,,,METAR,1129.0
KGEG 270107Z VRB04KT 10SM FEW050CB SCT070 BKN085 BKN160 22/06 A2987 RMK AO2 LTG DSNT N AND NW TSE0056B0057E01 VIRGA CB NW MOV NW CB DSNT NW-N AND SE T02170061,KGEG,2023-05-27T01:07:00Z,47.62,-117.53,21.7,6.1,0,4,,10.0,29.870079,,,,TRUE,,,,,,,FEW,5000,SCT,7000,BKN,8500,BKN,16000,VFR,,,,,,,,,,,,SPECI,718.0
KMIB 270106Z AUTO 23008KT 10SM FEW095 20/16 A2990 RMK AO2 LTG DSNT E-SE AND SW-NW DZE06 SLP125 $,KMIB,2023-05-27T01:06:00Z,48.42,-101.35,20.0,16.0,230,8,,10.0,29.899607,1012.5,,TRUE,TRUE,TRUE,,,,,,FEW,9500,,,,,,,VFR,,,,,,,,,,,,SPECI,505.0
KHHR 270106Z 27010G19KT 10SM SCT023 BKN029 OVC050 19/11 A2996 RMK AO2 T01890106,KHHR,2023-05-27T01:06:00Z,33.92,-118.33,18.9,10.6,270,10,19,10.0,29.958662,,,,TRUE,,,,,,,SCT,2300,BKN,2900,OVC,5000,,,MVFR,,,,,,,,,,,,METAR,21.0
KFHU 270106Z AUTO 26012G21KT 9SM CLR 29/M10 A2997 RMK AO2 WSHFT 0057 SLP086,KFHU,2023-05-27T01:06:00Z,31.58,-110.35,29.0,-10.0,260,12,21,9.0,29.970472,1008.6,,TRUE,TRUE,,,,,,,CLR,,,,,,,,VFR,,,,,,,,,,,,SPECI,1424.0
SUMU 270105Z 25002KT 9999 R25/P2000 R19/0250 FEW011 14/14 Q1014 NOSIG,SUMU,2023-05-27T01:05:00Z,-34.83,-56.02,14.0,14.0,250,2,,6.21,29.940945,,,,,,TRUE,,,,,FEW,1100,,,,,,,VFR,,,,,,,,,,,,SPECI,32.0
KW29 270105Z AUTO 13010KT 10SM CLR 19/06 A3025 RMK AO2 T01880065,KW29,2023-05-27T01:05:00Z,38.98,-76.33,18.8,6.5,130,10,,10.0,30.250984,,,TRUE,TRUE,,,,,,,CLR,,,,,,,,VFR,,,,,,,,,,,,SPECI,1.0
KVUJ 270105Z AUTO 03010G16KT 10SM CLR 17/08 A3022 RMK AO2 T01730081,KVUJ,2023-05-27T01:05:00Z,35.42,-80.15,17.3,8.1,30,10,16,10.0,30.221457,,,TRUE,TRUE,,,,,,,CLR,,,,,,,,VFR,,,,,,,,,,,,METAR,174.0
KUKF 270105Z AUTO 05004KT 10SM CLR 16/07 A3026 RMK AO2,KUKF,2023-05-27T01:05:00Z,36.22,-81.1,16.0,7.0,50,4,,10.0,30.259842,,,TRUE,TRUE,,,,,,,CLR,,,,,,,,VFR,,,,,,,,,,,,METAR,383.0
KTTA 270105Z AUTO 05010G15KT 030V090 10SM SCT048 17/05 A3018 RMK AO2 T01680047,KTTA,2023-05-27T01:05:00Z,35.58,-79.1,16.8,4.7,50,10,15,10.0,30.180119,,,TRUE,TRUE,,,,,,,SCT,4800,,,,,,,VFR,,,,,,,,,,,,METAR,71.0
KTDF 270105Z AUTO 07005KT 10SM CLR 15/07 A3024 RMK AO2,KTDF,2023-05-27T01:05:00Z,36.28,-78.98,15.0,7.0,70,5,,10.0,30.239174,,,TRUE,TRUE,,,,,,,CLR,,,,,,,,VFR,,,,,,,,,,,,METAR,180.0
KSVH 270105Z AUTO 06004KT 10SM CLR 17/06 A3018 RMK AO2 T01710057,KSVH,2023-05-27T01:05:00Z,35.75,-80.95,17.1,5.7,60,4,,10.0,30.180119,,,TRUE,TRUE,,,,,,,CLR,,,,,,,,VFR,,,,,,,,,,,,METAR,286.0
KSIF 270105Z AUTO 00000KT 10SM CLR 16/08 A3021 RMK AO2 T01620079,KSIF,2023-05-27T01:05:00Z,36.43,-79.85,16.2,7.9,0,0,,10.0,30.209646,,,TRUE,TRUE,,,,,,,CLR,,,,,,,,VFR,,,,,,,,,,,,METAR,206.0
KSCR 270105Z AUTO 05005KT 10SM CLR 16/10 A3019 RMK AO2 T01560098,KSCR,2023-05-27T01:05:00Z,35.7,-79.5,15.6,9.8,50,5,,10.0,30.188976,,,TRUE,TRUE,,,,,,,CLR,,,,,,,,VFR,,,,,,,,,,,,METAR,182.0
KRUQ 270105Z AUTO 05006KT 10SM CLR 17/06 A3018 RMK AO2 T01700062,KRUQ,2023-05-27T01:05:00Z,35.65,-80.52,17.0,6.2,50,6,,10.0,30.180119,,,TRUE,TRUE,,,,,,,CLR,,,,,,,,VFR,,,,,,,,,,,,METAR,231.0
KPGV 270105Z AUTO 04007KT 10SM CLR 16/10 A3017 RMK AO2,KPGV,2023-05-27T01:05:00Z,35.63,-77.4,16.0,10.0,40,7,,10.0,30.171259,,,TRUE,TRUE,,,,,,,CLR,,,,,,,,VFR,,,,,,,,,,,,METAR,6.0
KONX 270105Z AUTO 03012G23KT 10SM CLR 16/08 A3020 RMK AO2 T01560077,KONX,2023-05-27T01:05:00Z,36.4,-76.02,15.6,7.7,30,12,23,10.0,30.200787,,,TRUE,TRUE,,,,,,,CLR,,,,,,,,VFR,,,,,,,,,,,,METAR,4.0
KOCW 270105Z AUTO 02010KT 10SM CLR 16/10 A3016 RMK AO2 T01560097,KOCW,2023-05-27T01:05:00Z,35.57,-77.05,15.6,9.7,20,10,,10.0,30.159449,,,TRUE,TRUE,,,,,,,CLR,,,,,,,,VFR,,,,,,,,,,,,METAR,10.0
KMWK 270105Z AUTO 04003KT 10SM CLR 17/08 A3024 RMK AO2 T01660075,KMWK,2023-05-27T01:05:00Z,36.47,-80.55,16.6,7.5,40,3,,10.0,30.239174,,,TRUE,TRUE,,,,,,,CLR,,,,,,,,VFR,,,,,,,,,,,,METAR,374.0
KMRN 270105Z AUTO 00000KT 10SM CLR 17/08 A3021 RMK AO2 T01710082,KMRN,2023-05-27T01:05:00Z,35.82,-81.62,17.1,8.2,0,0,,10.0,30.209646,,,TRUE,TRUE,,,,,,,CLR,,,,,,,,VFR,,,,,,,,,,,,METAR,375.0
KJNX 270105Z AUTO 04011G15KT 10SM CLR 16/06 A3017 RMK AO2,KJNX,2023-05-27T01:05:00Z,35.53,-78.38,16.0,6.0,40,11,15,10.0,30.171259,,,TRUE,TRUE,,,,,,,CLR,,,,,,,,VFR,,,,,,,,,,,,METAR,41.0
KISO 270105Z AUTO 03012G20KT 10SM CLR 17/09 A3015 RMK AO2 T01650091,KISO,2023-05-27T01:05:00Z,35.32,-77.62,16.5,9.1,30,12,20,10.0,30.15059,,,TRUE,TRUE,,,,,,,CLR,,,,,,,,VFR,,,,,,,,,,,,METAR,27.0
KIPJ 270105Z AUTO 05004KT 10SM CLR 17/06 A3018 RMK AO2 T01680061,KIPJ,2023-05-27T01:05:00Z,35.48,-81.17,16.8,6.1,50,4,,10.0,30.180119,,,TRUE,TRUE,,,,,,,CLR,,,,,,,,VFR,,,,,,,,,,,,METAR,266.0
KHRJ 270105Z AUTO 04011KT 10SM CLR 17/05 A3017 RMK AO2 T01690049,KHRJ,2023-05-27T01:05:00Z,35.38,-78.73,16.9,4.9,40,11,,10.0,30.171259,,,TRUE,TRUE,,,,,,,CLR,,,,,,,,VFR,,,,,,,,,,,,METAR,55.0
KHBI 270105Z AUTO 02005KT 10SM CLR 17/07 A3021 RMK AO2 T01700071,KHBI,2023-05-27T01:05:00Z,35.65,-79.9,17.0,7.1,20,5,,10.0,30.209646,,,TRUE,TRUE,,,,,,,CLR,,,,,,,,VFR,,,,,,,,,,,,METAR,199.0
KGEV 270105Z AUTO 00000KT 10SM CLR 12/05 A3025 RMK AO2 T01160053,KGEV,2023-05-27T01:05:00Z,36.43,-81.42,11.6,5.3,0,0,,10.0,30.250984,,,TRUE,TRUE,,,,,,,CLR,,,,,,,,VFR,,,,,,,,,,,,METAR,961.0
KEHO 270105Z AUTO 06007KT 10SM CLR 17/06 A3017 RMK AO2 T01740057,KEHO,2023-05-27T01:05:00Z,35.25,-81.6,17.4,5.7,60,7,,10.0,30.171259,,,TRUE,TRUE,,,,,,,CLR,,,,,,,,VFR,,,,,,,,,,,,METAR,261.0
KEDE 270105Z AUTO 04008KT 10SM CLR 17/12 A3019 RMK AO2 T01650122,KEDE,2023-05-27T01:05:00Z,36.03,-76.57,16.5,12.2,40,8,,10.0,30.188976,,,TRUE,TRUE,,,,,,,CLR,,,,,,,,VFR,,,,,,,,,,,,METAR,4.0
KDPL 270105Z AUTO 03010G17KT 10SM OVC036 17/09 A3013 RMK AO2,KDPL,2023-05-27T01:05:00Z,35.0,-77.97,17.0,9.0,30,10,17,10.0,30.129921,,,TRUE,TRUE,,,,,,,OVC,3600,,,,,,,VFR,,,,,,,,,,,,METAR,39.0
KDMW 270105Z AUTO 00000KT 10SM CLR 19/06 A3025 RMK AO2,KDMW,2023-05-27T01:05:00Z,39.6,-77.0,19.0,6.0,0,0,,10.0,30.250984,,,TRUE,TRUE,,,,,,,CLR,,,,,,,,VFR,,,,,,,,,,,,SPECI,239.0
KCTZ 270105Z AUTO 04014G22KT 10SM BKN039 17/09 A3013 RMK AO2 T01730092,KCTZ,2023-05-27T01:05:00Z,34.98,-78.37,17.3,9.2,40,14,22,10.0,30.129921,,,TRUE,TRUE,,,,,,,BKN,3900,,,,,,,VFR,,,,,,,,,,,,METAR,43.0
KCPC 270105Z AUTO 03005KT 10SM -RA BKN036 BKN049 OVC120 17/11 A3011 RMK AO2 T01670112,KCPC,2023-05-27T01:05:00Z,34.28,-78.72,16.7,11.2,30,5,,10.0,30.109253,,,TRUE,TRUE,,,,,,-RA,BKN,3600,BKN,4900,OVC,12000,,,VFR,,,,,,,,,,,,METAR,27.0
KCGE 270105Z AUTO 13008KT 10SM CLR 16/03 A3026 RMK A01,KCGE,2023-05-27T01:05:00Z,38.53,-76.03,16.0,3.0,130,8,,10.0,30.259842,,,TRUE,TRUE,,,,,,,CLR,,,,,,,,VFR,,,,,,,,,,,,SPECI,5.0
KCBE 270105Z AUTO 11003KT 10SM CLR 17/05 A3029 RMK AO2 T01710050,KCBE,2023-05-27T01:05:00Z,39.62,-78.77,17.1,5.0,110,3,,10.0,30.28937,,,TRUE,TRUE,,,,,,,CLR,,,,,,,,VFR,,,,,,,,,,,,SPECI,226.0
KASJ 270105Z AUTO 02006KT 10SM CLR 15/06 A3021 RMK AO2 T01480055,KASJ,2023-05-27T01:05:00Z,36.28,-77.17,14.8,5.5,20,6,,10.0,30.209646,,,TRUE,TRUE,,,,,,,CLR,,,,,,,,VFR,,,,,,,,,,,,METAR,20.0
KACZ 270105Z AUTO 03011G16KT 10SM -RA OVC034 16/11 A3010 RMK AO2 T01590108,KACZ,2023-05-27T01:05:00Z,,,15.9,10.8,30,11,16,10.0,30.100393,,,TRUE,TRUE,,,,,,-RA,OVC,3400,,,,,,,VFR,,,,,,,,,,,,METAR,
K7W6 270105Z AUTO 03015G24KT 10SM CLR 16/10 A3014 RMK AO2 T01620102,K7W6,2023-05-27T01:05:00Z,35.55,-75.95,16.2,10.2,30,15,24,10.0,30.138779,,,TRUE,TRUE,,,,,,,CLR,,,,,,,,VFR,,,,,,,,,,,,METAR,1.0
K2G4 270105Z AUTO 11005KT 10SM CLR 13/02 A3029 RMK AO2,K2G4,2023-05-27T01:05:00Z,39.58,-79.33,13.0,2.0,110,5,,10.0,30.28937,,,TRUE,TRUE,,,,,,,CLR,,,,,,,,VFR,,,,,,,,,,,,SPECI,908.0
K24A 270105Z AUTO 14009KT 080V160 10SM BKN055 SCT080 16/08 A3018 RMK AO2 LTG DSNT SE T01630084,K24A,2023-05-27T01:05:00Z,35.32,-83.2,16.3,8.4,140,9,,10.0,30.180119,,,TRUE,TRUE,,,,,,,BKN,5500,SCT,8000,,,,,VFR,,,,,,,,,,,,METAR,864.0
K1LN 270105Z AUTO 00000KT 10SM BKN050 BKN120 23/15 A2991 RMK AO2 LTG DSNT NE AND SE RAB0055E05 SLP124 $,K1LN,2023-05-27T01:05:00Z,,,23.0,15.0,0,0,,10.0,29.911417,1012.4,,TRUE,TRUE,TRUE,,,,,,BKN,5000,BKN,12000,,,,,VFR,,,,,,,,,,,,SPECI,
DAOR 270105Z 18006KT 4000 DU FEW033 SCT233 23/01 Q1014,DAOR,2023-05-27T01:05:00Z,31.65,-2.27,23.0,1.0,180,6,,2.49,29.940945,,,,,,,,,,DU,FEW,3300,SCT,23300,,,,,IFR,,,,,,,,,,,,SPECI,809.0
CYQX 270105Z 28007KT 2SM R03/4500VP6000FT/U -DZ BR OVC003 07/07 A2977 RMK FG3ST5 SLP088,CYQX,2023-05-27T01:05:00Z,48.95,-54.58,7.0,7.0,280,7,,2.0,29.769686,1008.8,,,,,,,,,-DZ BR,OVC,300,,,,,,,LIFR,,,,,,,,,,,,SPECI,144.0
RJOI 0527 DH0100/PPH 0.00,RJOI,2023-05-27T01:04:05Z,34.13,132.23,,,,,,,,,,,,,,,,,,,,,,,,,,,,,,,,,,,,,,SPECI,2.0
EHVL 270104Z AUTO 05009KT 9999 BKN018 OVC290 08/06 Q1031 WHT,EHVL,2023-05-27T01:04:00Z,53.28,5.08,8.0,6.0,50,9,,6.21,30.442913,,,TRUE,,,,,,,,BKN,1800,OVC,29000,,,,,MVFR,,,,,,,,,,,,SPECI,2.0
SVVL 270103Z AUTO ///01KT NCD ///// Q////,SVVL,2023-05-27T01:03:00Z,9.33,-70.58,,,,,,,,,,TRUE,,,,,,,,CLR,,,,,,,,,,,,,,,,,,,,METAR,575.0
SVVA 270103Z AUTO 25004KT NCD 28/23 Q1012,SVVA,2023-05-27T01:03:00Z,10.15,-67.92,28.0,23.0,250,4,,,29.88189,,,TRUE,,,,,,,,CLR,,,,,,,,,,,,,,,,,,,,METAR,428.0
SVSR 270103Z AUTO NIL,SVSR,2023-05-27T01:03:00Z,7.87,-67.43,,,,,,,,,,TRUE,,,,,,,,,,,,,,,,,,,,,,,,,,,,METAR,49.0
SVSA 270103Z AUTO NIL,SVSA,2023-05-27T01:03:00Z,7.83,-72.45,,,,,,,,,,TRUE,,,,,,,,,,,,,,,,,,,,,,,,,,,,METAR,383.0
SVPR 270103Z AUTO 10009KT NCD 26/21 Q1013,SVPR,2023-05-27T01:03:00Z,8.3,-62.77,26.0,21.0,100,9,,,29.911417,,,TRUE,,,,,,,,CLR,,,,,,,,,,,,,,,,,,,,METAR,140.0
SVPA 270103Z AUTO NIL,SVPA,2023-05-27T01:03:00Z,5.62,-67.6,,,,,,,,,,TRUE,,,,,,,,,,,,,,,,,,,,,,,,,,,,METAR,77.0
SVMT 270103Z AUTO 08007KT NCD 26/24 Q1012,SVMT,2023-05-27T01:03:00Z,9.75,-63.17,26.0,24.0,80,7,,,29.88189,,,TRUE,,,,,,,,CLR,,,,,,,,,,,,,,,,,,,,METAR,67.0
SVMI 270103Z AUTO 12006KT NCD 27/23 Q1012,SVMI,2023-05-27T01:03:00Z,10.6,-67.0,27.0,23.0,120,6,,,29.88189,,,TRUE,,,,,,,,CLR,,,,,,,,,,,,,,,,,,,,METAR,48.0
SVMG 270103Z AUTO 09013KT NCD 28/25 Q1011,SVMG,2023-05-27T01:03:00Z,10.92,-63.97,28.0,25.0,90,13,,,29.852362,,,TRUE,,,,,,,,CLR,,,,,,,,,,,,,,,,,,,,METAR,16.0
SVMC 270103Z AUTO 02004KT NCD 29/24 Q1009,SVMC,2023-05-27T01:03:00Z,10.57,-71.72,29.0,24.0,20,4,,,29.793306,,,TRUE,,,,,,,,CLR,,,,,,,,,,,,,,,,,,,,METAR,76.0
SVLO 270103Z AUTO NIL,SVLO,2023-05-27T01:03:00Z,11.8,-66.18,,,,,,,,,,TRUE,,,,,,,,,,,,,,,,,,,,,,,,,,,,SPECI,3.0
SVJM 270103Z AUTO 07001KT NCD 26/23 Q1011,SVJM,2023-05-27T01:03:00Z,9.92,-67.38,26.0,23.0,70,1,,,29.852362,,,TRUE,,,,,,,,CLR,,,,,,,,,,,,,,,,,,,,METAR,448.0
SVGU 270103Z AUTO 02001KT NCD 28/22 Q1011,SVGU,2023-05-27T01:03:00Z,9.03,-69.75,28.0,22.0,20,1,,,29.852362,,,TRUE,,,,,,,,CLR,,,,,,,,,,,,,,,,,,,,METAR,165.0
SVGD 270103Z AUTO 34001KT NCD 26/25 Q1011,SVGD,2023-05-27T01:03:00Z,7.22,-70.75,26.0,25.0,340,1,,,29.852362,,,TRUE,,,,,,,,CLR,,,,,,,,,,,,,,,,,,,,METAR,129.0
SVFM 270103Z AUTO NIL,SVFM,2023-05-27T01:03:00Z,10.48,-66.83,,,,,,,,,,TRUE,,,,,,,,,,,,,,,,,,,,,,,,,,,,METAR,852.0
SVCS 270103Z AUTO 13006KT NCD 25/20 Q1015,SVCS,2023-05-27T01:03:00Z,10.3,-66.82,25.0,20.0,130,6,,,29.970472,,,TRUE,,,,,,,,CLR,,,,,,,,,,,,,,,,,,,,METAR,656.0
SVCB 270103Z AUTO 06004KT NCD 28/22 Q1010,SVCB,2023-05-27T01:03:00Z,8.12,-63.53,28.0,22.0,60,4,,,29.822834,,,TRUE,,,,,,,,CLR,,,,,,,,,,,,,,,,,,,,METAR,47.0
SVBS 270103Z AUTO 07001KT NCD 24/22 Q1014,SVBS,2023-05-27T01:03:00Z,10.25,-67.65,24.0,22.0,70,1,,,29.940945,,,TRUE,,,,,,,,CLR,,,,,,,,,,,,,,,,,,,,METAR,435.0
SVBM 270103Z AUTO 11010KT NCD 24/19 Q1013,SVBM,2023-05-27T01:03:00Z,10.05,-69.37,24.0,19.0,110,10,,,29.911417,,,TRUE,,,,,,,,CLR,,,,,,,,,,,,,,,,,,,,METAR,624.0
SVBI 270103Z AUTO /////KT NCD 28/24 Q1014,SVBI,2023-05-27T01:03:00Z,8.62,-70.22,28.0,24.0,,,,,29.940945,,,TRUE,,,,,,,,CLR,,,,,,,,,,,,,,,,,,,,METAR,185.0
SVBC 270103Z AUTO 02005KT NCD 30/23 Q1011,SVBC,2023-05-27T01:03:00Z,10.12,-64.68,30.0,23.0,20,5,,,29.852362,,,TRUE,,,,,,,,CLR,,,,,,,,,,,,,,,,,,,,METAR,7.0
SBIP 270103Z AUTO VRB02KT 3400 VV001 16/12 Q1021,SBIP,2023-05-27T01:03:00Z,-19.47,-42.48,16.0,12.0,0,2,,2.11,30.147638,,,TRUE,,,,,,,,OVX,0,,,,,,,LIFR,,,,,,,,,,,100,SPECI,240.0
KLXV 270103Z AUTO 00000KT 10SM -TSRA BKN080 OVC090 09/01 A3020 RMK AO2 RAB00 TSB0057 P0000 T00940006,KLXV,2023-05-27T01:03:00Z,39.23,-106.32,9.4,0.6,0,0,,10.0,30.200787,,,TRUE,TRUE,,,,,,-TSRA,BKN,8000,OVC,9000,,,,,VFR,,,,,,0.005,,,,,,METAR,3027.0
CYNE 270103Z AUTO 03005KT 350V140 5SM -TSRA OVC006 09/ A2989 RMK LTNG DIST SE S PRESFR DP MISG SLP134,CYNE,2023-05-27T01:03:00Z,53.97,-97.83,9.0,,30,5,,5.0,29.890747,1013.4,,TRUE,,,,,,,-TSRA,OVC,600,,,,,,,IFR,,,,,,,,,,,,SPECI,220.0
CYKL 270103Z AUTO 30003KT 8SM SCT046 BKN055 09/03 A3003 RMK SLP190,CYKL,2023-05-27T01:03:00Z,54.8,-66.8,9.0,3.0,300,3,,8.0,30.029528,1019.0,,TRUE,,,,,,,,SCT,4600,BKN,5500,,,,,VFR,,,,,,,,,,,,SPECI,507.0
KULM 270102Z AUTO 13008KT 10SM CLR 23/M04 A3017 RMK AO2,KULM,2023-05-27T01:02:00Z,44.32,-94.5,23.0,-4.0,130,8,,10.0,30.171259,,,TRUE,TRUE,,,,,,,CLR,,,,,,,,VFR,,,,,,,,,,,,METAR,305.0
KLIC 270102Z AUTO 32007KT 10SM FEW060 BKN110 14/10 A3005 RMK AO2 LTG DSNT NE AND E T01440100,KLIC,2023-05-27T01:02:00Z,39.27,-103.67,14.4,10.0,320,7,,10.0,30.050198,,,TRUE,TRUE,,,,,,,FEW,6000,BKN,11000,,,,,VFR,,,,,,,,,,,,METAR,1635.0
KDEW 270102Z AUTO 15004KT 10SM VCTS 22/09 A2986 RMK AO2 LTG DSNT W-N T02220094 $,KDEW,2023-05-27T01:02:00Z,47.97,-117.43,22.2,9.4,150,4,,10.0,29.861221,,,TRUE,TRUE,TRUE,,,,,VCTS,,,,,,,,,,,,,,,,,,,,,METAR,672.0
CYPD 270102Z AUTO 30011G24KT 2 1/4SM -RA BR BKN005 OVC010 04/04 A2998 RMK VIS VRB 1 1/4-3 SLP159,CYPD,2023-05-27T01:02:00Z,45.67,-61.37,4.0,4.0,300,11,24,2.25,29.97933,1015.9,,TRUE,,,,,,,-RA BR,BKN,500,OVC,1000,,,,,IFR,,,,,,,,,,,,SPECI,106.0
BIAR 270102Z 19010KT 160V230 FEW056 06/01 Q0993,BIAR,2023-05-27T01:02:00Z,65.67,-18.07,6.0,1.0,190,10,,,29.320866,,,,,,,,,,,FEW,5600,,,,,,,,,,,,,,,,,,,METAR,1.0
KGFA 270101Z AUTO 00000KT 10SM FEW032 OVC095 14/12 A2994 RMK AO2 DZE0054 SLP143 $,KGFA,2023-05-27T01:01:00Z,47.5,-111.18,14.0,12.0,0,0,,10.0,29.940945,1014.3,,TRUE,TRUE,TRUE,,,,,,FEW,3200,OVC,9500,,,,,VFR,,,,,,,,,,,,METAR,1058.0
KBFF 270101Z AUTO 22014G23KT 10SM SCT050 BKN065 BKN085 20/10 A2995 RMK AO2 WSHFT 0041 LTG DSNT ALQDS T02000100,KBFF,2023-05-27T01:01:00Z,41.87,-103.6,20.0,10.0,220,14,23,10.0,29.949802,,,TRUE,TRUE,,,,,,,SCT,5000,BKN,6500,BKN,8500,,,VFR,,,,,,,,,,,,SPECI,1204.0
ZYTX 270100Z 18004MPS 150V250 CAVOK 21/13 Q1015 NOSIG,ZYTX,2023-05-27T01:00:00Z,41.63,123.48,21.0,13.0,180,8,,6.21,29.970472,,,,,,TRUE,,,,,CAVOK,,,,,,,,VFR,,,,,,,,,,,,METAR,56.0
ZYTL 270100Z 10005MPS 3000 -RA BR BKN004 OVC033 15/15 Q1017 NOSIG,ZYTL,2023-05-27T01:00:00Z,38.97,121.55,15.0,15.0,100,10,,1.86,30.029528,,,,,,TRUE,,,,-RA BR,BKN,400,OVC,3300,,,,,LIFR,,,,,,,,,,,,METAR,33.0
ZYHB 270100Z 21007MPS CAVOK 21/07 Q1013 NOSIG,ZYHB,2023-05-27T01:00:00Z,45.62,126.25,21.0,7.0,210,14,,6.21,29.911417,,,,,,TRUE,,,,,CAVOK,,,,,,,,VFR,,,,,,,,,,,,METAR,134.0
ZYCC 270100Z 24006MPS 210V270 9999 BKN030 20/11 Q1014 NOSIG,ZYCC,2023-05-27T01:00:00Z,43.98,125.68,20.0,11.0,240,12,,6.21,29.940945,,,,,,TRUE,,,,,BKN,3000,,,,,,,MVFR,,,,,,,,,,,,METAR,211.0
ZWWW 270100Z 25002MPS 220V290 CAVOK 19/00 Q1016 NOSIG,ZWWW,2023-05-27T01:00:00Z,43.9,87.47,19.0,0.0,250,4,,6.21,30.0,,,,,,TRUE,,,,,CAVOK,,,,,,,,VFR,,,,,,,,,,,,METAR,654.0
ZWSH 270100Z 30006MPS 9999 FEW040 17/M05 Q1015 NOSIG,ZWSH,2023-05-27T01:00:00Z,39.55,76.02,17.0,-5.0,300,12,,6.21,29.970472,,,,,,TRUE,,,,,FEW,4000,,,,,,,VFR,,,,,,,,,,,,METAR,1374.0
ZUUU 270100Z VRB01MPS CAVOK 23/17 Q1006 NOSIG,ZUUU,2023-05-27T01:00:00Z,30.58,103.95,23.0,17.0,0,2,,6.21,29.704725,,,,,,TRUE,,,,,CAVOK,,,,,,,,VFR,,,,,,,,,,,,METAR,494.0
ZUTF 270100Z VRB01MPS CAVOK 23/19 Q1006 NOSIG,ZUTF,2023-05-27T01:00:00Z,30.3,104.43,23.0,19.0,0,2,,6.21,29.704725,,,,,,TRUE,,,,,CAVOK,,,,,,,,VFR,,,,,,,,,,,,METAR,443.0
ZUGY 270100Z 20009MPS 9999 BKN030 26/19 Q1011 NOSIG,ZUGY,2023-05-27T01:00:00Z,26.53,106.8,26.0,19.0,200,17,,6.21,29.852362,,,,,,TRUE,,,,,BKN,3000,,,,,,,MVFR,,,,,,,,,,,,METAR,1130.0
ZUCK 270100Z VRB01MPS 2900 BR SCT033 22/20 Q1005 BECMG TL0130 3100,ZUCK,2023-05-27T01:00:00Z,29.72,106.63,22.0,20.0,0,2,,1.8,29.675198,,,,,,,,,,BR,SCT,3300,,,,,,,IFR,,,,,,,,,,,,METAR,416.0
ZSSS 270100Z 15007MPS 9999 BKN013 25/22 Q1011 BECMG TL0200 BKN016,ZSSS,2023-05-27T01:00:00Z,31.2,121.33,25.0,22.0,150,14,,6.21,29.852362,,,,,,,,,,,BKN,1300,,,,,,,MVFR,,,,,,,,,,,,METAR,2.0
ZSQD 270100Z 08004MPS 9999 BKN010 OVC016 20/19 Q1012 NOSIG,ZSQD,2023-05-27T01:00:00Z,36.27,120.38,20.0,19.0,80,8,,6.21,29.88189,,,,,,TRUE,,,,,BKN,1000,OVC,1600,,,,,MVFR,,,,,,,,,,,,METAR,8.0
ZSPD 270100Z 16008MPS CAVOK 23/21 Q1012 NOSIG,ZSPD,2023-05-27T01:00:00Z,31.15,121.8,23.0,21.0,160,16,,6.21,29.88189,,,,,,TRUE,,,,,CAVOK,,,,,,,,VFR,,,,,,,,,,,,METAR,4.0
ZSOF 270100Z 18003MPS 150V210 9999 BKN006 BKN046 24/23 Q1009 BECMG TL0230 BKN010,ZSOF,2023-05-27T01:00:00Z,31.98,116.97,24.0,23.0,180,6,,6.21,29.793306,,,,,,,,,,,BKN,600,BKN,4600,,,,,IFR,,,,,,,,,,,,METAR,23.0
ZSNJ 270100Z 17004MPS 3500 BR BKN004 OVC026 23/23 Q1009 BECMG TL0230 BKN005 OVC030,ZSNJ,2023-05-27T01:00:00Z,31.75,118.87,23.0,23.0,170,8,,2.17,29.793306,,,,,,,,,,BR,BKN,400,OVC,2600,,,,,LIFR,,,,,,,,,,,,METAR,27.0
ZSNB 270100Z 17006MPS 9999 BKN030 27/22 Q1012 NOSIG,ZSNB,2023-05-27T01:00:00Z,29.83,121.47,27.0,22.0,170,12,,6.21,29.88189,,,,,,TRUE,,,,,BKN,3000,,,,,,,MVFR,,,,,,,,,,,,METAR,5.0
ZSHC 270100Z 19004MPS 150V230 CAVOK 29/23 Q1010 NOSIG,ZSHC,2023-05-27T01:00:00Z,30.22,120.43,29.0,23.0,190,8,,6.21,29.822834,,,,,,TRUE,,,,,CAVOK,,,,,,,,VFR,,,,,,,,,,,,METAR,8.0
ZSFZ 270100Z 04006MPS 9999 SCT013 SCT017 27/23 Q1013 NOSIG,ZSFZ,2023-05-27T01:00:00Z,25.93,119.67,27.0,23.0,40,12,,6.21,29.911417,,,,,,TRUE,,,,,SCT,1300,SCT,1700,,,,,VFR,,,,,,,,,,,,METAR,14.0
ZSAM 270100Z 12002MPS 090V160 7000 BKN040 27/24 Q1013 NOSIG,ZSAM,2023-05-27T01:00:00Z,24.53,118.13,27.0,24.0,120,4,,4.35,29.911417,,,,,,TRUE,,,,,BKN,4000,,,,,,,MVFR,,,,,,,,,,,,METAR,13.0
ZPPP 270100Z 24008MPS 9999 SCT030 20/10 Q1018 NOSIG,ZPPP,2023-05-27T01:00:00Z,25.0,102.65,20.0,10.0,240,16,,6.21,30.059055,,,,,,TRUE,,,,,SCT,3000,,,,,,,VFR,,,,,,,,,,,,METAR,1885.0
ZMUB 270100Z VRB02MPS 9999 SCT030CB SCT033 08/02 Q1014 RESHRA NOSIG RMK QFE653.3 62 MOP,ZMUB,2023-05-27T01:00:00Z,47.83,106.75,8.0,2.0,0,4,,6.21,29.940945,,,,,,TRUE,,,,,SCT,3000,SCT,3300,,,,,VFR,,,,,,,,,,,,METAR,1300.0
ZMCK 270100Z 10009MPS 9999 FEW030CB BKN033 06/03 Q1014 NOSIG RMK QFE645.5 83 MOP,ZMCK,2023-05-27T01:00:00Z,47.65,106.82,6.0,3.0,100,17,,6.21,29.940945,,,,,,TRUE,,,,,FEW,3000,BKN,3300,,,,,VFR,,,,,,,,,,,,METAR,1366.0
ZLXY 270100Z 24002MPS 3000 BR FEW015 OVC050 16/16 Q1010 NOSIG,ZLXY,2023-05-27T01:00:00Z,34.43,108.75,16.0,16.0,240,4,,1.86,29.822834,,,,,,TRUE,,,,BR,FEW,1500,OVC,5000,,,,,IFR,,,,,,,,,,,,METAR,478.0
ZLLL 270100Z 21002MPS 190V250 CAVOK 16/07 Q1015 NOSIG,ZLLL,2023-05-27T01:00:00Z,36.52,103.62,16.0,7.0,210,4,,6.21,29.970472,,,,,,TRUE,,,,,CAVOK,,,,,,,,VFR,,,,,,,,,,,,METAR,1939.0
ZJSY 270100Z 09004MPS 9999 FEW020 FEW025TCU 30/26 Q1009 NOSIG,ZJSY,2023-05-27T01:00:00Z,18.3,109.42,30.0,26.0,90,8,,6.21,29.793306,,,,,,TRUE,,,,,FEW,2000,FEW,2500,,,,,VFR,,,,,,,,,,,,METAR,27.0
ZJHK 270100Z 16003MPS 080V210 9999 FEW023TCU BKN023 30/26 Q1010 NOSIG,ZJHK,2023-05-27T01:00:00Z,19.93,110.43,30.0,26.0,160,6,,6.21,29.822834,,,,,,TRUE,,,,,FEW,2300,BKN,2300,,,,,MVFR,,,,,,,,,,,,METAR,21.0
ZHHH 270100Z 10005MPS 8000 FEW009 26/24 Q1007 NOSIG,ZHHH,2023-05-27T01:00:00Z,30.78,114.22,26.0,24.0,100,10,,4.97,29.734253,,,,,,TRUE,,,,,FEW,900,,,,,,,MVFR,,,,,,,,,,,,METAR,33.0
ZHCC 270100Z 04004MPS 020V080 1000 R12R/1400N R12L/1400N BR OVC003 20/19 Q1009 BECMG TL0140 1500,ZHCC,2023-05-27T01:00:00Z,34.52,113.83,20.0,19.0,40,8,,0.62,29.793306,,,,,,,,,,BR,OVC,300,,,,,,,LIFR,,,,,,,,,,,,METAR,149.0
ZGSZ 270100Z 12002MPS 070V180 9999 SCT025 30/24 Q1011 NOSIG,ZGSZ,2023-05-27T01:00:00Z,22.63,113.8,30.0,24.0,120,4,,6.21,29.852362,,,,,,TRUE,,,,,SCT,2500,,,,,,,VFR,,,,,,,,,,,,METAR,18.0
ZGOW 270100Z 07003MPS 040V110 9999 FEW017 BKN046 28/24 Q1012 NOSIG,ZGOW,2023-05-27T01:00:00Z,23.55,116.5,28.0,24.0,70,6,,6.21,29.88189,,,,,,TRUE,,,,,FEW,1700,BKN,4600,,,,,VFR,,,,,,,,,,,,METAR,4.0
ZGNN 270100Z 14003MPS 110V170 9999 BKN016 29/25 Q1010 NOSIG,ZGNN,2023-05-27T01:00:00Z,22.62,108.17,29.0,25.0,140,6,,6.21,29.822834,,,,,,TRUE,,,,,BKN,1600,,,,,,,MVFR,,,,,,,,,,,,METAR,128.0
ZGKL 270100Z VRB01MPS 4000 BR FEW010 SCT033 BKN053 26/25 Q1010 NOSIG,ZGKL,2023-05-27T01:00:00Z,25.22,110.03,26.0,25.0,0,2,,2.49,29.822834,,,,,,TRUE,,,,BR,FEW,1000,SCT,3300,BKN,5300,,,IFR,,,,,,,,,,,,METAR,151.0
ZGHA 270100Z 19006MPS CAVOK 31/24 Q1008 NOSIG,ZGHA,2023-05-27T01:00:00Z,28.18,113.22,31.0,24.0,190,12,,6.21,29.763779,,,,,,TRUE,,,,,CAVOK,,,,,,,,VFR,,,,,,,,,,,,METAR,61.0
ZGGG 270100Z 10002MPS 030V140 9999 SCT026 30/26 Q1011 NOSIG,ZGGG,2023-05-27T01:00:00Z,23.4,113.3,30.0,26.0,100,4,,6.21,29.852362,,,,,,TRUE,,,,,SCT,2600,,,,,,,VFR,,,,,,,,,,,,METAR,11.0
ZBYN 270100Z 05002MPS 030V090 8000 -RA SCT026 OVC040 14/12 Q1014 NOSIG,ZBYN,2023-05-27T01:00:00Z,37.73,112.63,14.0,12.0,50,4,,4.97,29.940945,,,,,,TRUE,,,,-RA,SCT,2600,OVC,4000,,,,,MVFR,,,,,,,,,,,,METAR,778.0
ZBTJ 270100Z 12004MPS 2800 -RA BR NSC 19/19 Q1013 BECMG TL0230 3000,ZBTJ,2023-05-27T01:00:00Z,39.12,117.35,19.0,19.0,120,8,,1.74,29.911417,,,,,,,,,,-RA BR,CLR,,,,,,,,IFR,,,,,,,,,,,,METAR,4.0
ZBSJ 270100Z 22002MPS 4500 -RA BR FEW010 OVC040 19/19 Q1013 NOSIG,ZBSJ,2023-05-27T01:00:00Z,38.28,114.7,19.0,19.0,220,4,,2.8,29.911417,,,,,,TRUE,,,,-RA BR,FEW,1000,OVC,4000,,,,,IFR,,,,,,,,,,,,METAR,70.0
ZBHH 270100Z 22003MPS 9999 FEW040 18/07 Q1014 NOSIG,ZBHH,2023-05-27T01:00:00Z,40.85,111.82,18.0,7.0,220,6,,6.21,29.940945,,,,,,TRUE,,,,,FEW,4000,,,,,,,VFR,,,,,,,,,,,,METAR,1081.0
ZBAD 270100Z 10003MPS 1300 R35R/1200U R35L/1200N R01L/1000N R11L/1300U -SHRA BR SCT005 OVC040 19/18 Q1014 BECMG TL0140 1700,ZBAD,2023-05-27T01:00:00Z,39.5,116.42,19.0,18.0,100,6,,0.81,29.940945,,,,,,,,,,-SHRA BR,SCT,500,OVC,4000,,,,,LIFR,,,,,,,,,,,,METAR,25.0
ZBAA 270100Z 15002MPS 120V200 2800 -SHRA BR OVC040 18/17 Q1014 BECMG TL0240 3200,ZBAA,2023-05-27T01:00:00Z,40.07,116.6,18.0,17.0,150,4,,1.74,29.940945,,,,,,,,,,-SHRA BR,OVC,4000,,,,,,,IFR,,,,,,,,,,,,METAR,31.0
YWLM 270100Z AUTO 30013KT 9999 // NCD 14/07 Q1017 RF00.0/000.0,YWLM,2023-05-27T01:00:00Z,-32.8,151.83,14.0,7.0,300,13,,6.21,30.029528,,,TRUE,,,,,,,,CLR,,,,,,,,VFR,,,,,,,,,,,,METAR,7.0
YSTW 270100Z AUTO 33004KT 300V020 9999 // NCD 12/04 Q1019 RF00.0/000.0,YSTW,2023-05-27T01:00:00Z,-31.08,150.85,12.0,4.0,330,4,,6.21,30.088583,,,TRUE,,,,,,,,CLR,,,,,,,,VFR,,,,,,,,,,,,METAR,404.0
YSSY 270100Z 28008KT 9999 FEW040 15/04 Q1017,YSSY,2023-05-27T01:00:00Z,-33.95,151.17,15.0,4.0,280,8,,6.21,30.029528,,,,,,,,,,,FEW,4000,,,,,,,VFR,,,,,,,,,,,,METAR,3.0
YSRI 270100Z AUTO 10005KT 9999 // NCD 12/08 Q1017 RF00.0/000.0,YSRI,2023-05-27T01:00:00Z,-33.6,150.77,12.0,8.0,100,5,,6.21,30.029528,,,TRUE,,,,,,,,CLR,,,,,,,,VFR,,,,,,,,,,,,METAR,19.0
YSNF 270100Z AUTO 03013KT 9999 // SCT100 21/16 Q1011 RF00.0/000.0,YSNF,2023-05-27T01:00:00Z,-29.03,167.93,21.0,16.0,30,13,,6.21,29.852362,,,TRUE,,,,,,,,SCT,10000,,,,,,,VFR,,,,,,,,,,,,METAR,113.0
YSDU 270100Z AUTO 16006KT 9999 // NCD 11/04 Q1021 RF00.0/000.0,YSDU,2023-05-27T01:00:00Z,-32.22,148.57,11.0,4.0,160,6,,6.21,30.147638,,,TRUE,,,,,,,,CLR,,,,,,,,VFR,,,,,,,,,,,,METAR,285.0
YSCB 270100Z AUTO 35005KT 9999 // OVC004 03/03 Q1018 RF00/0/000/0,YSCB,2023-05-27T01:00:00Z,-35.3,149.18,3.0,3.0,350,5,,6.21,30.059055,,,TRUE,,,,,,,,OVC,400,,,,,,,LIFR,,,,,,,,,,,,METAR,577.0
YPXM 270100Z AUTO 09011KT 9999 // BKN015 BKN019 OVC080 26/23 Q1015,YPXM,2023-05-27T01:00:00Z,-10.45,105.68,26.0,23.0,90,11,,6.21,29.970472,,,TRUE,,,,,,,,BKN,1500,BKN,1900,OVC,8000,,,MVFR,,,,,,,,,,,,METAR,262.0
YPWR 270100Z AUTO 27011KT 9999 // BKN028 OVC037 14/07 Q1026,YPWR,2023-05-27T01:00:00Z,-31.15,136.82,14.0,7.0,270,11,,6.21,30.295275,,,TRUE,,,,,,,,BKN,2800,OVC,3700,,,,,MVFR,,,,,,,,,,,,METAR,169.0
YPTN 270100Z AUTO 14010KT 9999 // NCD 23/06 Q1018 RF00.0/000.0,YPTN,2023-05-27T01:00:00Z,-14.52,132.38,23.0,6.0,140,10,,6.21,30.059055,,,TRUE,,,,,,,,CLR,,,,,,,,VFR,,,,,,,,,,,,METAR,135.0
YPLM 270100Z AUTO 10007KT 9999 // NCD 22/09 Q1021 RF00.0/000.0,YPLM,2023-05-27T01:00:00Z,-22.23,114.08,22.0,9.0,100,7,,6.21,30.147638,,,TRUE,,,,,,,,CLR,,,,,,,,VFR,,,,,,,,,,,,METAR,5.0
YPKU 270100Z AUTO 15012KT 9999 // ////// 24/07 Q1018 RF00.0/000.0,YPKU,2023-05-27T01:00:00Z,-15.77,128.7,24.0,7.0,150,12,,6.21,30.059055,,,TRUE,,,,,,,,,,,,,,,,,,,,,,,,,,,,METAR,42.0
YPKG 270100Z AUTO 01001KT 9999 // NCD 11/03 Q1029 RF00.0/000.0,YPKG,2023-05-27T01:00:00Z,-30.78,121.45,11.0,3.0,10,1,,6.21,30.383858,,,TRUE,,,,,,,,CLR,,,,,,,,VFR,,,,,,,,,,,,METAR,372.0
YPJT 270100Z AUTO 12004KT 9999 // NCD 10/05 Q1030 RF00.0/000.0,YPJT,2023-05-27T01:00:00Z,-32.1,115.88,10.0,5.0,120,4,,6.21,30.413385,,,TRUE,,,,,,,,CLR,,,,,,,,VFR,,,,,,,,,,,,METAR,29.0
YPGV 270100Z AUTO 15019KT 9999 // SCT029 SCT039 BKN048 27/19 Q1014,YPGV,2023-05-27T01:00:00Z,-12.27,136.82,27.0,19.0,150,19,,6.21,29.940945,,,TRUE,,,,,,,,SCT,2900,SCT,3900,BKN,4800,,,VFR,,,,,,,,,,,,METAR,53.0
YPEA 270100Z AUTO 08009KT //// // ////// 12/04 Q1029 RF00.0/000.0,YPEA,2023-05-27T01:00:00Z,-31.67,116.02,12.0,4.0,80,9,,,30.383858,,,TRUE,,,,,,,,,,,,,,,,,,,,,,,,,,,,METAR,38.0
YPDN 270100Z 13012KT CAVOK 28/14 Q1015,YPDN,2023-05-27T01:00:00Z,-12.42,130.9,28.0,14.0,130,12,,6.21,29.970472,,,,,,,,,,,CAVOK,,,,,,,,VFR,,,,,,,,,,,,METAR,32.0
YPCC 270100Z AUTO 15013KT 9999 // SCT027 27/22 Q1013 RF00.0/000.2,YPCC,2023-05-27T01:00:00Z,-12.18,96.83,27.0,22.0,150,13,,6.21,29.911417,,,TRUE,,,,,,,,SCT,2700,,,,,,,VFR,,,,,,,,,,,,METAR,3.0
YMML 270100Z 30016KT 9999 FEW040 14/05 Q1017,YMML,2023-05-27T01:00:00Z,-37.67,144.82,14.0,5.0,300,16,,6.21,30.029528,,,,,,,,,,,FEW,4000,,,,,,,VFR,,,,,,,,,,,,METAR,115.0
YMLT 270100Z AUTO 34017KT 9999 // OVC056 12/06 Q1009 RF00.0/000.0,YMLT,2023-05-27T01:00:00Z,-41.53,147.2,12.0,6.0,340,17,,6.21,29.793306,,,TRUE,,,,,,,,OVC,5600,,,,,,,VFR,,,,,,,,,,,,METAR,167.0
YMAV 270100Z AUTO 29016KT 9999 // NCD 15/06 Q1017 RF00.0/000.0,YMAV,2023-05-27T01:00:00Z,-38.03,144.48,15.0,6.0,290,16,,6.21,30.029528,,,TRUE,,,,,,,,CLR,,,,,,,,VFR,,,,,,,,,,,,METAR,11.0
YLHI 270100Z AUTO 22011KT 9999 // SCT027 SCT033 SCT040 19/12 Q1007,YLHI,2023-05-27T01:00:00Z,-31.53,159.07,19.0,12.0,220,11,,6.21,29.734253,,,TRUE,,,,,,,,SCT,2700,SCT,3300,SCT,4000,,,VFR,,,,,,,,,,,,METAR,2.0
YHID 270100Z AUTO 17011KT 9999 // NCD 29/23 Q1012 RF00.0/000.0,YHID,2023-05-27T01:00:00Z,-10.58,142.3,29.0,23.0,170,11,,6.21,29.88189,,,TRUE,,,,,,,,CLR,,,,,,,,VFR,,,,,,,,,,,,METAR,5.0
YGLA 270100Z AUTO 19008KT 9999 // NCD 19/03 Q1016 RF00.0/000.0,YGLA,2023-05-27T01:00:00Z,-23.87,151.22,19.0,3.0,190,8,,6.21,30.0,,,TRUE,,,,,,,,CLR,,,,,,,,VFR,,,,,,,,,,,,METAR,17.0
YGEL 270100Z AUTO 04008KT 9999 // NCD 13/04 Q1026 RF00.0/000.0,YGEL,2023-05-27T01:00:00Z,-28.8,114.7,13.0,4.0,40,8,,6.21,30.295275,,,TRUE,,,,,,,,CLR,,,,,,,,VFR,,,,,,,,,,,,METAR,32.0
YFRT 270100Z AUTO 28007KT 9999 // OVC033 13/05 Q1029 RF00.0/000.0,YFRT,2023-05-27T01:00:00Z,-30.83,128.12,13.0,5.0,280,7,,6.21,30.383858,,,TRUE,,,,,,,,OVC,3300,,,,,,,VFR,,,,,,,,,,,,METAR,159.0
YCIN 270100Z AUTO 10013KT 9999 // NCD 25/08 Q1016 RF00.0/000.0,YCIN,2023-05-27T01:00:00Z,-17.58,123.83,25.0,8.0,100,13,,6.21,30.0,,,TRUE,,,,,,,,CLR,,,,,,,,VFR,,,,,,,,,,,,METAR,83.0
YCFS 270100Z AUTO 23015KT 9999 // ////// 19/08 Q1016 RF00.0/000.0,YCFS,2023-05-27T01:00:00Z,-30.32,153.12,19.0,8.0,230,15,,6.21,30.0,,,TRUE,,,,,,,,,,,,,,,,,,,,,,,,,,,,METAR,2.0
YBWW 270100Z AUTO 29004KT 9999 // NCD 16/07 Q1017 RF00.0/000.0,YBWW,2023-05-27T01:00:00Z,-27.55,151.8,16.0,7.0,290,4,,6.21,30.029528,,,TRUE,,,,,,,,CLR,,,,,,,,VFR,,,,,,,,,,,,METAR,460.0
YBTL 270100Z AUTO 21010KT 9999 // NCD 25/10 Q1015 RF00.0/000.0,YBTL,2023-05-27T01:00:00Z,-19.25,146.75,25.0,10.0,210,10,,6.21,29.970472,,,TRUE,,,,,,,,CLR,,,,,,,,VFR,,,,,,,,,,,,METAR,4.0
YBSU 270100Z AUTO 21013KT 9999 // NCD 20/08 Q1015 RF00.0/000.0,YBSU,2023-05-27T01:00:00Z,-26.6,153.08,20.0,8.0,210,13,,6.21,29.970472,,,TRUE,,,,,,,,CLR,,,,,,,,VFR,,,,,,,,,,,,METAR,4.0
YBRM 270100Z AUTO 13006KT 9999 // NCD 22/11 Q1017 RF00.0/000.0,YBRM,2023-05-27T01:00:00Z,-17.93,122.23,22.0,11.0,130,6,,6.21,30.029528,,,TRUE,,,,,,,,CLR,,,,,,,,VFR,,,,,,,,,,,,METAR,11.0
YBRK 270100Z AUTO 18004KT 110V240 9999 // NCD 20/02 Q1017 RF00.0/000.0,YBRK,2023-05-27T01:00:00Z,-23.37,150.47,20.0,2.0,180,4,,6.21,30.029528,,,TRUE,,,,,,,,CLR,,,,,,,,VFR,,,,,,,,,,,,METAR,10.0
YBMA 270100Z AUTO 13011KT 9999 // NCD 17/M01 Q1021 RF00.0/000.0,YBMA,2023-05-27T01:00:00Z,-20.67,139.48,17.0,-1.0,130,11,,6.21,30.147638,,,TRUE,,,,,,,,CLR,,,,,,,,VFR,,,,,,,,,,,,METAR,346.0
YBLN 270100Z AUTO 11003KT 9999 // BKN041 07/07 Q1029 RF00.0/000.0,YBLN,2023-05-27T01:00:00Z,-33.68,115.4,7.0,7.0,110,3,,6.21,30.383858,,,TRUE,,,,,,,,BKN,4100,,,,,,,VFR,,,,,,,,,,,,METAR,17.0
YBHM 270100Z AUTO 15020KT 9999 // NCD 20/13 Q1016 RF00.0/000.0,YBHM,2023-05-27T01:00:00Z,-20.35,148.95,20.0,13.0,150,20,,6.21,30.0,,,TRUE,,,,,,,,CLR,,,,,,,,VFR,,,,,,,,,,,,METAR,4.0
YBCS 270100Z AUTO 17006KT 140V200 9999 // NCD 27/18 Q1014 RF00.0/000.0,YBCS,2023-05-27T01:00:00Z,-16.87,145.75,27.0,18.0,170,6,,6.21,29.940945,,,TRUE,,,,,,,,CLR,,,,,,,,VFR,,,,,,,,,,,,METAR,2.0
YBCG 270100Z AUTO 23014KT 9999 // SCT040 20/09 Q1015 RF00.0/000.0,YBCG,2023-05-27T01:00:00Z,-28.17,153.5,20.0,9.0,230,14,,6.21,29.970472,,,TRUE,,,,,,,,SCT,4000,,,,,,,VFR,,,,,,,,,,,,METAR,5.0
YBBN 270100Z 23012KT CAVOK 20/08 Q1016,YBBN,2023-05-27T01:00:00Z,-27.38,153.13,20.0,8.0,230,12,,6.21,30.0,,,,,,,,,,,CAVOK,,,,,,,,VFR,,,,,,,,,,,,METAR,3.0
YBAS 270100Z AUTO 12013KT 9999 // NCD 13/00 Q1026 RF00.0/000.0,YBAS,2023-05-27T01:00:00Z,-23.8,133.9,13.0,0.0,120,13,,6.21,30.295275,,,TRUE,,,,,,,,CLR,,,,,,,,VFR,,,,,,,,,,,,METAR,549.0
YAMB 270100Z AUTO 21003KT 9999 // NCD 19/07 Q1016 RF00.0/000.0,YAMB,2023-05-27T01:00:00Z,-27.63,152.72,19.0,7.0,210,3,,6.21,30.0,,,TRUE,,,,,,,,CLR,,,,,,,,VFR,,,,,,,,,,,,METAR,26.0
WSSS 270100Z VRB01KT 9000 FEW018 BKN300 30/26 Q1010 NOSIG,WSSS,2023-05-27T01:00:00Z,1.37,103.97,30.0,26.0,0,1,,5.59,29.822834,,,,,,TRUE,,,,,FEW,1800,BKN,30000,,,,,VFR,,,,,,,,,,,,METAR,17.0
WSSL 270100Z VRB02KT 8000 FEW018 BKN300 29/27 Q1011,WSSL,2023-05-27T01:00:00Z,1.42,103.87,29.0,27.0,0,2,,4.97,29.852362,,,,,,,,,,,FEW,1800,BKN,30000,,,,,MVFR,,,,,,,,,,,,METAR,11.0
WSAP 270100Z 02003KT 9000 FEW016 BKN300 30/25 Q1011,WSAP,2023-05-27T01:00:00Z,1.37,103.92,30.0,25.0,20,3,,5.59,29.852362,,,,,,,,,,,FEW,1600,BKN,30000,,,,,VFR,,,,,,,,,,,,METAR,20.0
WMSA 270100Z 32005KT 300V010 8000 FEW017CB 27/24 Q1011,WMSA,2023-05-27T01:00:00Z,3.13,101.55,27.0,24.0,320,5,,4.97,29.852362,,,,,,,,,,,FEW,1700,,,,,,,MVFR,,,,,,,,,,,,METAR,19.0
WMKP 270100Z 00000KT 9999 FEW020 27/24 Q1011 NOSIG,WMKP,2023-05-27T01:00:00Z,5.28,100.27,27.0,24.0,0,0,,6.21,29.852362,,,,,,TRUE,,,,,FEW,2000,,,,,,,VFR,,,,,,,,,,,,METAR,4.0
WMKN 270100Z VRB02KT 9999 SCT020 27/26 Q1009,WMKN,2023-05-27T01:00:00Z,5.37,103.1,27.0,26.0,0,2,,6.21,29.793306,,,,,,,,,,,SCT,2000,,,,,,,VFR,,,,,,,,,,,,METAR,12.0
WMKM 270100Z 00000KT 9999 FEW020 29/26 Q1011,WMKM,2023-05-27T01:00:00Z,2.27,102.25,29.0,26.0,0,0,,6.21,29.852362,,,,,,,,,,,FEW,2000,,,,,,,VFR,,,,,,,,,,,,METAR,9.0
WMKL 270100Z VRB02KT 9999 FEW017CB 29/26 Q1010 RERA,WMKL,2023-05-27T01:00:00Z,6.32,99.72,29.0,26.0,0,2,,6.21,29.822834,,,,,,,,,,,FEW,1700,,,,,,,VFR,,,,,,,,,,,,METAR,4.0
WMKK 270100Z 00000KT 9999 FEW017CB 27/24 Q1011 NOSIG,WMKK,2023-05-27T01:00:00Z,2.75,101.72,27.0,24.0,0,0,,6.21,29.852362,,,,,,TRUE,,,,,FEW,1700,,,,,,,VFR,,,,,,,,,,,,METAR,21.0
WMKJ 270100Z VRB01KT 9000 FEW019 27/25 Q1010,WMKJ,2023-05-27T01:00:00Z,1.63,103.67,27.0,25.0,0,1,,5.59,29.822834,,,,,,,,,,,FEW,1900,,,,,,,VFR,,,,,,,,,,,,METAR,38.0
WMKI 270100Z VRB03KT 9000 FEW007 SCT025 25/23 Q1011,WMKI,2023-05-27T01:00:00Z,4.57,101.08,25.0,23.0,0,3,,5.59,29.852362,,,,,,,,,,,FEW,700,SCT,2500,,,,,VFR,,,,,,,,,,,,METAR,37.0
WMKE 270100Z VRB01KT 9999 FEW010 27/25 Q1009,WMKE,2023-05-27T01:00:00Z,4.53,103.43,27.0,25.0,0,1,,6.21,29.793306,,,,,,,,,,,FEW,1000,,,,,,,VFR,,,,,,,,,,,,METAR,5.0
WMKD 270100Z 20004KT 110V270 8000 FEW025 27/25 Q1010 NOSIG,WMKD,2023-05-27T01:00:00Z,3.77,103.22,27.0,25.0,200,4,,4.97,29.822834,,,,,,TRUE,,,,,FEW,2500,,,,,,,MVFR,,,,,,,,,,,,METAR,18.0
WMKC 270100Z VRB01KT 9999 FEW020 28/25 Q1010,WMKC,2023-05-27T01:00:00Z,6.17,102.28,28.0,25.0,0,1,,6.21,29.822834,,,,,,,,,,,FEW,2000,,,,,,,VFR,,,,,,,,,,,,METAR,7.0
WMKB 270100Z 11004KT 080V150 9999 FEW020 28/24 Q1011 NOSIG,WMKB,2023-05-27T01:00:00Z,5.47,100.38,28.0,24.0,110,4,,6.21,29.852362,,,,,,TRUE,,,,,FEW,2000,,,,,,,VFR,,,,,,,,,,,,METAR,4.0
WMKA 270100Z 15004KT 080V190 9999 FEW017CB 26/24 Q1010,WMKA,2023-05-27T01:00:00Z,6.2,100.4,26.0,24.0,150,4,,6.21,29.822834,,,,,,,,,,,FEW,1700,,,,,,,VFR,,,,,,,,,,,,METAR,5.0
WMBA 270100Z 00000KT 9000 FEW030 25/23 Q1011,WMBA,2023-05-27T01:00:00Z,4.22,100.7,25.0,23.0,0,0,,5.59,29.852362,,,,,,,,,,,FEW,3000,,,,,,,VFR,,,,,,,,,,,,METAR,9.0
WMAU 270100Z 00000KT 8000 FEW002 SCT025 28/26 Q1010,WMAU,2023-05-27T01:00:00Z,2.38,103.88,28.0,26.0,0,0,,4.97,29.822834,,,,,,,,,,,FEW,200,SCT,2500,,,,,MVFR,,,,,,,,,,,,METAR,5.0
WIPP 270100Z 20005KT 4500 HZ SCT010 27/25 Q1011 NOSIG,WIPP,2023-05-27T01:00:00Z,-2.88,104.7,27.0,25.0,200,5,,2.8,29.852362,,,,,,TRUE,,,,HZ,SCT,1000,,,,,,,IFR,,,,,,,,,,,,METAR,7.0
WIOO 270100Z 15005KT 9999 SCT013 29/26 Q1010 NOSIG,WIOO,2023-05-27T01:00:00Z,-0.15,109.4,29.0,26.0,150,5,,6.21,29.822834,,,,,,TRUE,,,,,SCT,1300,,,,,,,VFR,,,,,,,,,,,,METAR,4.0
WIMM 270100Z 24003KT 3000 BR FEW018 26/25 Q1010 NOSIG,WIMM,2023-05-27T01:00:00Z,3.57,98.67,26.0,25.0,240,3,,1.86,29.822834,,,,,,TRUE,,,,BR,FEW,1800,,,,,,,IFR,,,,,,,,,,,,METAR,27.0
WILL 270100Z 21004KT 5000 HZ FEW015 27/24 Q1012 NOSIG,WILL,2023-05-27T01:00:00Z,-5.25,105.18,27.0,24.0,210,4,,3.11,29.88189,,,,,,TRUE,,,,HZ,FEW,1500,,,,,,,MVFR,,,,,,,,,,,,METAR,83.0
WIII 270100Z VRB04KT 4000 HZ FEW020 29/25 Q1011 NOSIG,WIII,2023-05-27T01:00:00Z,-6.13,106.67,29.0,25.0,0,4,,2.49,29.852362,,,,,,TRUE,,,,HZ,FEW,2000,,,,,,,IFR,,,,,,,,,,,,METAR,9.0
WIHH 270100Z 11004KT 4000 HZ NSC 28/24 Q1011 NOSIG METAR ,WIHH,2023-05-27T01:00:00Z,-6.27,106.88,28.0,24.0,110,4,,2.49,29.852362,,,,,,TRUE,,,,HZ,CLR,,,,,,,,IFR,,,,,,,,,,,,METAR,26.0
WIEE 270100Z VRB01KT 9999 FEW020 29/24 Q1010 NOSIG,WIEE,2023-05-27T01:00:00Z,-0.78,100.28,29.0,24.0,0,1,,6.21,29.822834,,,,,,TRUE,,,,,FEW,2000,,,,,,,VFR,,,,,,,,,,,,METAR,5.0
WIDN 270100Z 08002KT 9999 SCT017 26/26 Q1011 NOSIG,WIDN,2023-05-27T01:00:00Z,0.92,104.53,26.0,26.0,80,2,,6.21,29.852362,,,,,,TRUE,,,,,SCT,1700,,,,,,,VFR,,,,,,,,,,,,METAR,18.0
WIDD 270100Z 23003KT 9999 FEW014 29/26 Q1012 NOSIG,WIDD,2023-05-27T01:00:00Z,1.12,104.12,29.0,26.0,230,3,,6.21,29.88189,,,,,,TRUE,,,,,FEW,1400,,,,,,,VFR,,,,,,,,,,,,METAR,26.0
WBSB 270100Z 21004KT 9999 FEW015 BKN280 30/27 Q1011 NOSIG,WBSB,2023-05-27T01:00:00Z,4.93,114.92,30.0,27.0,210,4,,6.21,29.852362,,,,,,TRUE,,,,,FEW,1500,BKN,28000,,,,,VFR,,,,,,,,,,,,METAR,15.0
WBKW 270100Z VRB02KT 9999 FEW016 29/26 Q1010,WBKW,2023-05-27T01:00:00Z,4.32,118.12,29.0,26.0,0,2,,6.21,29.822834,,,,,,,,,,,FEW,1600,,,,,,,VFR,,,,,,,,,,,,METAR,17.0
WBKT 270100Z 28004KT 210V340 9999 FEW015 29/27 Q1010,WBKT,2023-05-27T01:00:00Z,6.92,116.83,29.0,27.0,280,4,,6.21,29.822834,,,,,,,,,,,FEW,1500,,,,,,,VFR,,,,,,,,,,,,METAR,11.0
WBKS 270100Z 22003KT 140V270 9999 FEW016 27/25 Q1010,WBKS,2023-05-27T01:00:00Z,5.9,118.07,27.0,25.0,220,3,,6.21,29.822834,,,,,,,,,,,FEW,1600,,,,,,,VFR,,,,,,,,,,,,METAR,13.0
WBKL 270100Z VRB02KT 9999 SCT013 FEW017CB 29/25 Q1010,WBKL,2023-05-27T01:00:00Z,5.3,115.25,29.0,25.0,0,2,,6.21,29.822834,,,,,,,,,,,SCT,1300,FEW,1700,,,,,VFR,,,,,,,,,,,,METAR,29.0
WBKK 270100Z 11004KT 060V150 9999 FEW015 31/24 Q1010 NOSIG,WBKK,2023-05-27T01:00:00Z,5.93,116.05,31.0,24.0,110,4,,6.21,29.822834,,,,,,TRUE,,,,,FEW,1500,,,,,,,VFR,,,,,,,,,,,,METAR,9.0
WBGY 270100Z 00000KT 9999 FEW014 28/25 Q1011,WBGY,2023-05-27T01:00:00Z,1.22,111.45,28.0,25.0,0,0,,6.21,29.852362,,,,,,,,,,,FEW,1400,,,,,,,VFR,,,,,,,,,,,,METAR,13.0
WBGS 270100Z 13004KT 100V230 9999 FEW017 28/24 Q1011,WBGS,2023-05-27T01:00:00Z,2.27,111.98,28.0,24.0,130,4,,6.21,29.852362,,,,,,,,,,,FEW,1700,,,,,,,VFR,,,,,,,,,,,,METAR,26.0
WBGR 270100Z 13004KT 080V200 9999 FEW015CB 30/27 Q1010,WBGR,2023-05-27T01:00:00Z,4.32,113.98,30.0,27.0,130,4,,6.21,29.822834,,,,,,,,,,,FEW,1500,,,,,,,VFR,,,,,,,,,,,,METAR,18.0
WBGG 270100Z VRB03KT 9999 FEW012 27/25 Q1011 NOSIG,WBGG,2023-05-27T01:00:00Z,1.48,110.35,27.0,25.0,0,3,,6.21,29.852362,,,,,,TRUE,,,,,FEW,1200,,,,,,,VFR,,,,,,,,,,,,METAR,26.0
WBGB 270100Z 14003KT 9999 FEW016 28/26 Q1010,WBGB,2023-05-27T01:00:00Z,3.12,113.02,28.0,26.0,140,3,,6.21,29.822834,,,,,,,,,,,FEW,1600,,,,,,,VFR,,,,,,,,,,,,METAR,34.0
WAYY 270100Z 09004KT 4000 -RA BKN011 25/25 Q1014 NOSIG,WAYY,2023-05-27T01:00:00Z,-4.53,136.88,25.0,25.0,90,4,,2.49,29.940945,,,,,,TRUE,,,,-RA,BKN,1100,,,,,,,IFR,,,,,,,,,,,,METAR,32.0
WATT 270100Z 10013G23KT 9999 FEW020 29/20 Q1014 NOSIG,WATT,2023-05-27T01:00:00Z,-10.17,123.67,29.0,20.0,100,13,23,6.21,29.940945,,,,,,TRUE,,,,,FEW,2000,,,,,,,VFR,,,,,,,,,,,,METAR,104.0
WARR 270100Z 12005KT 9999 FEW020 28/22 Q1011 NOSIG METAR ,WARR,2023-05-27T01:00:00Z,-7.37,112.78,28.0,22.0,120,5,,6.21,29.852362,,,,,,TRUE,,,,,FEW,2000,,,,,,,VFR,,,,,,,,,,,,METAR,3.0
WAQQ 270100Z 23005KT 9999 SCT011 30/26 Q1011 NOSIG,WAQQ,2023-05-27T01:00:00Z,3.33,117.57,30.0,26.0,230,5,,6.21,29.852362,,,,,,TRUE,,,,,SCT,1100,,,,,,,VFR,,,,,,,,,,,,METAR,6.0
WAPP 270100Z 16007KT 120V200 9999 SCT017 31/23 Q1012 NOSIG,WAPP,2023-05-27T01:00:00Z,-3.7,128.08,31.0,23.0,160,7,,6.21,29.88189,,,,,,TRUE,,,,,SCT,1700,,,,,,,VFR,,,,,,,,,,,,METAR,20.0
WAMM 270100Z 29003KT 260V330 9999 SCT019 31/23 Q1011 NOSIG,WAMM,2023-05-27T01:00:00Z,1.55,124.92,31.0,23.0,290,3,,6.21,29.852362,,,,,,TRUE,,,,,SCT,1900,,,,,,,VFR,,,,,,,,,,,,METAR,86.0
WALL 270100Z 21006KT 9999 SCT018 30/27 Q1011 NOSIG,WALL,2023-05-27T01:00:00Z,-1.27,116.9,30.0,27.0,210,6,,6.21,29.852362,,,,,,TRUE,,,,,SCT,1800,,,,,,,VFR,,,,,,,,,,,,METAR,3.0
WAKK 270100Z 12009KT 9999 SCT015 29/22 Q1012 NOSIG,WAKK,2023-05-27T01:00:00Z,-8.52,140.42,29.0,22.0,120,9,,6.21,29.88189,,,,,,TRUE,,,,,SCT,1500,,,,,,,VFR,,,,,,,,,,,,METAR,5.0
WAJJ 270100Z 13007KT 9999 FEW013 32/23 Q1008 NOSIG,WAJJ,2023-05-27T01:00:00Z,-2.58,140.52,32.0,23.0,130,7,,6.21,29.763779,,,,,,TRUE,,,,,FEW,1300,,,,,,,VFR,,,,,,,,,,,,METAR,93.0
WAHS 270100Z 11008KT 6000 FEW014 29/22 Q1011 NOSIG,WAHS,2023-05-27T01:00:00Z,-6.98,110.38,29.0,22.0,110,8,,3.73,29.852362,,,,,,TRUE,,,,,FEW,1400,,,,,,,MVFR,,,,,,,,,,,,METAR,3.0
WADL 270100Z 14005KT 090V180 5000 -RA FEW015CB BKN016 25/24 Q1014 TEMPO TL0130 -RA RMK CB OVER THE FIELD,WADL,2023-05-27T01:00:00Z,-8.75,116.28,25.0,24.0,140,5,,3.11,29.940945,,,,,,,,,,-RA,FEW,1500,BKN,1600,,,,,MVFR,,,,,,,,,,,,METAR,97.0
WADD 270100Z 09010KT 9999 FEW017 29/23 Q1013 NOSIG,WADD,2023-05-27T01:00:00Z,-8.73,115.17,29.0,23.0,90,10,,6.21,29.911417,,,,,,TRUE,,,,,FEW,1700,,,,,,,VFR,,,,,,,,,,,,METAR,3.0
WABB 270100Z 24013KT 060V240 9999 FEW018 30/25 Q1009 NOSIG,WABB,2023-05-27T01:00:00Z,-1.18,136.12,30.0,25.0,240,13,,6.21,29.793306,,,,,,TRUE,,,,,FEW,1800,,,,,,,VFR,,,,,,,,,,,,METAR,12.0
WAAA 270100Z 12005KT 9999 FEW019 28/20 Q1011 NOSIG,WAAA,2023-05-27T01:00:00Z,-5.07,119.55,28.0,20.0,120,5,,6.21,29.852362,,,,,,TRUE,,,,,FEW,1900,,,,,,,VFR,,,,,,,,,,,,METAR,13.0
VYYY 270100Z 25004KT 6000 SCT020 FEW025CB SCT110 27/26 Q1008,VYYY,2023-05-27T01:00:00Z,16.9,96.13,27.0,26.0,250,4,,3.73,29.763779,,,,,,,,,,,SCT,2000,FEW,2500,SCT,11000,,,MVFR,,,,,,,,,,,,METAR,31.0
VYNT 270100Z 16006KT 6000 FEW024 28/25 Q1008 NOSIG,VYNT,2023-05-27T01:00:00Z,19.62,96.2,28.0,25.0,160,6,,3.73,29.763779,,,,,,TRUE,,,,,FEW,2400,,,,,,,MVFR,,,,,,,,,,,,METAR,610.0
VVVD 270100Z 16006KT 100V260 9999 SCT019 30/26 Q1009 NOSIG,VVVD,2023-05-27T01:00:00Z,21.12,107.42,30.0,26.0,160,6,,6.21,29.793306,,,,,,TRUE,,,,,SCT,1900,,,,,,,VFR,,,,,,,,,,,,METAR,8.0
VVTS 270100Z 04003KT 9999 SCT022 BKN060 25/24 Q1009 NOSIG,VVTS,2023-05-27T01:00:00Z,10.82,106.67,25.0,24.0,40,3,,6.21,29.793306,,,,,,TRUE,,,,,SCT,2200,BKN,6000,,,,,VFR,,,,,,,,,,,,METAR,10.0
VVPQ 270100Z 24011KT 9999 SCT015 FEW017CB 31/25 Q1008 NOSIG,VVPQ,2023-05-27T01:00:00Z,10.23,103.97,31.0,25.0,240,11,,6.21,29.763779,,,,,,TRUE,,,,,SCT,1500,FEW,1700,,,,,VFR,,,,,,,,,,,,METAR,8.0
VVPB 270100Z 30003KT 9999 FEW017 30/24 Q1009 NOSIG,VVPB,2023-05-27T01:00:00Z,16.38,107.7,30.0,24.0,300,3,,6.21,29.793306,,,,,,TRUE,,,,,FEW,1700,,,,,,,VFR,,,,,,,,,,,,METAR,15.0
VVNB 270100Z 11008KT 090V160 9999 FEW012 SCT014 29/26 Q1008 NOSIG,VVNB,2023-05-27T01:00:00Z,21.22,105.8,29.0,26.0,110,8,,6.21,29.763779,,,,,,TRUE,,,,,FEW,1200,SCT,1400,,,,,VFR,,,,,,,,,,,,METAR,6.0
VVDN 270100Z 16003KT 130V200 CAVOK 30/24 Q1009 NOSIG,VVDN,2023-05-27T01:00:00Z,16.03,108.2,30.0,24.0,160,3,,6.21,29.793306,,,,,,TRUE,,,,,CAVOK,,,,,,,,VFR,,,,,,,,,,,,METAR,7.0
VVCT 270100Z 20004KT 180V270 7000 -SHRA SCT015 FEW017TCU SCT050 27/26 Q1008 NOSIG,VVCT,2023-05-27T01:00:00Z,10.08,105.72,27.0,26.0,200,4,,4.35,29.763779,,,,,,TRUE,,,,-SHRA,SCT,1500,FEW,1700,SCT,5000,,,MVFR,,,,,,,,,,,,METAR,6.0
VVCR 270100Z 04003KT 9999 FEW015 SCT060 29/24 Q1008 NOSIG,VVCR,2023-05-27T01:00:00Z,12.0,109.22,29.0,24.0,40,3,,6.21,29.763779,,,,,,TRUE,,,,,FEW,1500,SCT,6000,,,,,VFR,,,,,,,,,,,,METAR,12.0
VVCI 270100Z 25004KT 210V340 9999 -RA SCT009 BKN016 FEW029CB 27/25 Q1008 TEMPO FM0130 3500 +SHRA,VVCI,2023-05-27T01:00:00Z,20.82,106.73,27.0,25.0,250,4,,6.21,29.763779,,,,,,,,,,-RA,SCT,900,BKN,1600,FEW,2900,,,MVFR,,,,,,,,,,,,METAR,6.0
VTUW 270100Z 10005KT 9999 BKN025 27/25 Q1009 NOSIG,VTUW,2023-05-27T01:00:00Z,17.38,104.63,27.0,25.0,100,5,,6.21,29.793306,,,,,,TRUE,,,,,BKN,2500,,,,,,,MVFR,,,,,,,,,,,,METAR,167.0
VTUV 270100Z 23006KT 8000 FEW035 29/24 Q1008 NOSIG,VTUV,2023-05-27T01:00:00Z,16.12,103.78,29.0,24.0,230,6,,4.97,29.763779,,,,,,TRUE,,,,,FEW,3500,,,,,,,MVFR,,,,,,,,,,,,METAR,136.0
VTUU 270100Z VRB02KT 9999 FEW040 SCT090 27/26 Q1009 NOSIG,VTUU,2023-05-27T01:00:00Z,15.25,104.87,27.0,26.0,0,2,,6.21,29.793306,,,,,,TRUE,,,,,FEW,4000,SCT,9000,,,,,VFR,,,,,,,,,,,,METAR,119.0
VTUQ 270100Z 22005KT 180V250 8000 NSC 30/24 Q1009 NOSIG,VTUQ,2023-05-27T01:00:00Z,14.95,102.32,30.0,24.0,220,5,,4.97,29.793306,,,,,,TRUE,,,,,CLR,,,,,,,,MVFR,,,,,,,,,,,,METAR,225.0
VTUO 270100Z 20004KT 170V230 8000 FEW030 27/25 Q1009 RETS NOSIG,VTUO,2023-05-27T01:00:00Z,15.23,103.25,27.0,25.0,200,4,,4.97,29.793306,,,,,,TRUE,,,,,FEW,3000,,,,,,,MVFR,,,,,,,,,,,,METAR,182.0
VTUL 270100Z 00000KT 7000 FEW030 26/25 Q1009 NOSIG,VTUL,2023-05-27T01:00:00Z,17.43,101.72,26.0,25.0,0,0,,4.35,29.793306,,,,,,TRUE,,,,,FEW,3000,,,,,,,MVFR,,,,,,,,,,,,METAR,257.0
VTUK 270100Z 13003KT 100V160 9000 VCSH FEW030 BKN065 26/24 Q1009 NOSIG,VTUK,2023-05-27T01:00:00Z,16.47,102.78,26.0,24.0,130,3,,5.59,29.793306,,,,,,TRUE,,,,VCSH,FEW,3000,BKN,6500,,,,,VFR,,,,,,,,,,,,METAR,190.0
VTUI 270100Z VRB02KT 9000 FEW010 28/25 Q1008 NOSIG,VTUI,2023-05-27T01:00:00Z,17.2,104.12,28.0,25.0,0,2,,5.59,29.763779,,,,,,TRUE,,,,,FEW,1000,,,,,,,VFR,,,,,,,,,,,,METAR,162.0
VTUD 270100Z 18006KT 150V210 9999 FEW035 28/24 Q1008 NOSIG,VTUD,2023-05-27T01:00:00Z,17.37,102.78,28.0,24.0,180,6,,6.21,29.763779,,,,,,TRUE,,,,,FEW,3500,,,,,,,VFR,,,,,,,,,,,,METAR,177.0
VTSY 270100Z 00000KT 5000 BR BKN004 24/23 Q1012 BECMG TL0150 7000 NSW,VTSY,2023-05-27T01:00:00Z,5.78,101.15,24.0,23.0,0,0,,3.11,29.88189,,,,,,,,,,BR,BKN,400,,,,,,,LIFR,,,,,,,,,,,,METAR,225.0
VTST 270100Z 11003KT 080V140 9999 FEW020 26/26 Q1010 NOSIG,VTST,2023-05-27T01:00:00Z,7.52,99.62,26.0,26.0,110,3,,6.21,29.822834,,,,,,TRUE,,,,,FEW,2000,,,,,,,VFR,,,,,,,,,,,,METAR,17.0
VTSS 270100Z 21005KT 090V260 9999 FEW020 BKN100 28/25 Q1010 NOSIG,VTSS,2023-05-27T01:00:00Z,6.92,100.38,28.0,25.0,210,5,,6.21,29.822834,,,,,,TRUE,,,,,FEW,2000,BKN,10000,,,,,VFR,,,,,,,,,,,,METAR,28.0
VTSR 270100Z VRB02KT 9999 -RA BKN020 27/24 Q1010 NOSIG,VTSR,2023-05-27T01:00:00Z,9.78,98.58,27.0,24.0,0,2,,6.21,29.822834,,,,,,TRUE,,,,-RA,BKN,2000,,,,,,,MVFR,,,,,,,,,,,,METAR,23.0
VTSP 270100Z 28010KT 9999 -RA FEW018TCU 28/25 Q1010 NOSIG,VTSP,2023-05-27T01:00:00Z,8.12,98.32,28.0,25.0,280,10,,6.21,29.822834,,,,,,TRUE,,,,-RA,FEW,1800,,,,,,,VFR,,,,,,,,,,,,METAR,12.0
VTSM 270100Z 31007KT 270V330 9999 FEW020 30/24 Q1010 NOSIG,VTSM,2023-05-27T01:00:00Z,9.55,100.07,30.0,24.0,310,7,,6.21,29.822834,,,,,,TRUE,,,,,FEW,2000,,,,,,,VFR,,,,,,,,,,,,METAR,12.0
VTSG 270100Z VRB01KT 9999 FEW028 29/26 Q1010 NOSIG,VTSG,2023-05-27T01:00:00Z,8.1,98.98,29.0,26.0,0,1,,6.21,29.822834,,,,,,TRUE,,,,,FEW,2800,,,,,,,VFR,,,,,,,,,,,,METAR,32.0
VTSF 270100Z 00000KT 9999 FEW018 31/26 Q1009 NOSIG,VTSF,2023-05-27T01:00:00Z,8.53,99.95,31.0,26.0,0,0,,6.21,29.793306,,,,,,TRUE,,,,,FEW,1800,,,,,,,VFR,,,,,,,,,,,,METAR,6.0
VTSE 270100Z 27007KT 240V300 9999 FEW020 30/25 Q1009 NOSIG,VTSE,2023-05-27T01:00:00Z,10.72,99.37,30.0,25.0,270,7,,6.21,29.793306,,,,,,TRUE,,,,,FEW,2000,,,,,,,VFR,,,,,,,,,,,,METAR,8.0
VTSC 270100Z VRB02KT 9999 FEW020 29/22 Q1010 NOSIG,VTSC,2023-05-27T01:00:00Z,6.52,101.75,29.0,22.0,0,2,,6.21,29.822834,,,,,,TRUE,,,,,FEW,2000,,,,,,,VFR,,,,,,,,,,,,METAR,5.0
VTSB 270100Z 21006KT 9999 FEW020 28/26 Q1009 NOSIG,VTSB,2023-05-27T01:00:00Z,9.12,99.15,28.0,26.0,210,6,,6.21,29.793306,,,,,,TRUE,,,,,FEW,2000,,,,,,,VFR,,,,,,,,,,,,METAR,10.0
VTPT 270100Z /////KT 9999 FEW026 31/23 Q1008 NOSIG,VTPT,2023-05-27T01:00:00Z,16.88,99.25,31.0,23.0,,,,6.21,29.763779,,,,,,TRUE,,,,,FEW,2600,,,,,,,VFR,,,,,,,,,,,,METAR,148.0
VTPP 270100Z 14004KT CAVOK 30/25 Q1007 NOSIG,VTPP,2023-05-27T01:00:00Z,16.78,100.28,30.0,25.0,140,4,,6.21,29.734253,,,,,,TRUE,,,,,CAVOK,,,,,,,,VFR,,,,,,,,,,,,METAR,45.0
VTPO 270100Z 25003KT CAVOK 30/24 Q1007 NOSIG,VTPO,2023-05-27T01:00:00Z,17.23,99.82,30.0,24.0,250,3,,6.21,29.734253,,,,,,TRUE,,,,,CAVOK,,,,,,,,VFR,,,,,,,,,,,,METAR,58.0
VTPM 270100Z 17003KT 150V210 9999 FEW030 28/24 Q1010 NOSIG,VTPM,2023-05-27T01:00:00Z,16.7,98.53,28.0,24.0,170,3,,6.21,29.822834,,,,,,TRUE,,,,,FEW,3000,,,,,,,VFR,,,,,,,,,,,,METAR,211.0
VTPH 270100Z VRB02KT 9999 FEW030 32/22 Q1008 NOSIG,VTPH,2023-05-27T01:00:00Z,12.63,99.95,32.0,22.0,0,2,,6.21,29.763779,,,,,,TRUE,,,,,FEW,3000,,,,,,,VFR,,,,,,,,,,,,METAR,12.0
VTPB 270100Z 00000KT 6000 NSC 29/25 Q1008 NOSIG,VTPB,2023-05-27T01:00:00Z,16.67,101.2,29.0,25.0,0,0,,3.73,29.763779,,,,,,TRUE,,,,,CLR,,,,,,,,MVFR,,,,,,,,,,,,METAR,134.0
VTCT 270100Z VRB02KT 9999 FEW025 27/25 Q1009 NOSIG,VTCT,2023-05-27T01:00:00Z,19.95,99.88,27.0,25.0,0,2,,6.21,29.793306,,,,,,TRUE,,,,,FEW,2500,,,,,,,VFR,,,,,,,,,,,,METAR,389.0
VTCP 270100Z 15003KT 070V240 9999 FEW045 29/24 Q1008 NOSIG,VTCP,2023-05-27T01:00:00Z,18.13,100.17,29.0,24.0,150,3,,6.21,29.763779,,,,,,TRUE,,,,,FEW,4500,,,,,,,VFR,,,,,,,,,,,,METAR,166.0
VTCN 270100Z 05004KT 020V080 CAVOK 29/24 Q1008 NOSIG,VTCN,2023-05-27T01:00:00Z,18.82,100.78,29.0,24.0,50,4,,6.21,29.763779,,,,,,TRUE,,,,,CAVOK,,,,,,,,VFR,,,,,,,,,,,,METAR,211.0
VTCL 270100Z 05003KT 010V080 9999 FEW025 27/23 Q1008 NOSIG,VTCL,2023-05-27T01:00:00Z,18.27,99.52,27.0,23.0,50,3,,6.21,29.763779,,,,,,TRUE,,,,,FEW,2500,,,,,,,VFR,,,,,,,,,,,,METAR,240.0
VTCH 270100Z 00000KT 9999 SCT025 28/23 Q1010 NOSIG,VTCH,2023-05-27T01:00:00Z,19.3,97.98,28.0,23.0,0,0,,6.21,29.822834,,,,,,TRUE,,,,,SCT,2500,,,,,,,VFR,,,,,,,,,,,,METAR,266.0
VTCC 270100Z VRB02KT 9999 FEW035 29/22 Q1009 NOSIG,VTCC,2023-05-27T01:00:00Z,18.77,98.97,29.0,22.0,0,2,,6.21,29.793306,,,,,,TRUE,,,,,FEW,3500,,,,,,,VFR,,,,,,,,,,,,METAR,308.0
VTBU 270100Z 31004KT 8000 FEW020 31/23 Q1009 NOSIG,VTBU,2023-05-27T01:00:00Z,12.68,101.0,31.0,23.0,310,4,,4.97,29.793306,,,,,,TRUE,,,,,FEW,2000,,,,,,,MVFR,,,,,,,,,,,,METAR,12.0
VTBS 270100Z 27005KT 220V330 9999 FEW020 SCT100 29/21 Q1008 NOSIG,VTBS,2023-05-27T01:00:00Z,13.68,100.75,29.0,21.0,270,5,,6.21,29.763779,,,,,,TRUE,,,,,FEW,2000,SCT,10000,,,,,VFR,,,,,,,,,,,,METAR,1.0
VTBD 270100Z 29008KT 250V320 9999 FEW020 30/23 Q1008 NOSIG,VTBD,2023-05-27T01:00:00Z,13.92,100.6,30.0,23.0,290,8,,6.21,29.763779,,,,,,TRUE,,,,,FEW,2000,,,,,,,VFR,,,,,,,,,,,,METAR,6.0
VRMM 270100Z 26009KT 9999 SCT018 29/26 Q1011 NOSIG,VRMM,2023-05-27T01:00:00Z,4.2,73.52,29.0,26.0,260,9,,6.21,29.852362,,,,,,TRUE,,,,,SCT,1800,,,,,,,VFR,,,,,,,,,,,,METAR,2.0
VRMH 270100Z 28006KT 9999 SCT017TCU 30/26 Q1011,VRMH,2023-05-27T01:00:00Z,6.75,73.17,30.0,26.0,280,6,,6.21,29.852362,,,,,,,,,,,SCT,1700,,,,,,,VFR,,,,,,,,,,,,METAR,1.0
VRMG 270100Z 23007KT 9999 FEW017 FEW018CB SCT120 BKN260 28/26 Q1012 CB NE TEMPO 5000 TSRA,VRMG,2023-05-27T01:00:00Z,-0.7,73.15,28.0,26.0,230,7,,6.21,29.88189,,,,,,,,,,,FEW,1700,FEW,1800,SCT,12000,BKN,26000,VFR,,,,,,,,,,,,METAR,2.0
VQPR 270100Z VRB02KT 6000 SCT010 OVC060 12/11 Q1020,VQPR,2023-05-27T01:00:00Z,27.4,89.43,12.0,11.0,0,2,,3.73,30.11811,,,,,,,,,,,SCT,1000,OVC,6000,,,,,MVFR,,,,,,,,,,,,METAR,2227.0
VOTV 270100Z 35003KT 3000 BR FEW015 FEW025TCU 28/24 Q1010 NOSIG,VOTV,2023-05-27T01:00:00Z,8.48,76.92,28.0,24.0,350,3,,1.86,29.822834,,,,,,TRUE,,,,BR,FEW,1500,FEW,2500,,,,,IFR,,,,,,,,,,,,METAR,9.0
VOTR 270100Z 28011KT 3500 BR FEW016 26/24 Q1009 NOSIG,VOTR,2023-05-27T01:00:00Z,10.77,78.72,26.0,24.0,280,11,,2.17,29.793306,,,,,,TRUE,,,,BR,FEW,1600,,,,,,,IFR,,,,,,,,,,,,METAR,90.0
VOTP 270100Z VRB02KT 6000 FEW020 28/26 Q1008 NOSIG,VOTP,2023-05-27T01:00:00Z,13.63,79.55,28.0,26.0,0,2,,3.73,29.763779,,,,,,TRUE,,,,,FEW,2000,,,,,,,MVFR,,,,,,,,,,,,METAR,103.0
VOTK 270100Z 00000KT 5000 BR FEW020 28/22 Q1009 NOSIG,VOTK,2023-05-27T01:00:00Z,8.72,78.02,28.0,22.0,0,0,,3.11,29.793306,,,,,,TRUE,,,,BR,FEW,2000,,,,,,,MVFR,,,,,,,,,,,,METAR,25.0
VORY 270100Z 00000KT 2000 BR FEW020 28/25 Q1006 BECMG 3000 BR,VORY,2023-05-27T01:00:00Z,17.1,81.82,28.0,25.0,0,0,,1.24,29.704725,,,,,,,,,,BR,FEW,2000,,,,,,,IFR,,,,,,,,,,,,METAR,47.0
VOPB 270100Z 26006KT 6000 FEW014 SCT220 30/25 Q1010 NOSIG,VOPB,2023-05-27T01:00:00Z,11.63,92.73,30.0,25.0,260,6,,3.73,29.822834,,,,,,TRUE,,,,,FEW,1400,SCT,22000,,,,,MVFR,,,,,,,,,,,,METAR,1.0
VOMM 270100Z 25007KT 6000 FEW020 SCT100 29/25 Q1007 NOSIG,VOMM,2023-05-27T01:00:00Z,13.0,80.17,29.0,25.0,250,7,,3.73,29.734253,,,,,,TRUE,,,,,FEW,2000,SCT,10000,,,,,MVFR,,,,,,,,,,,,METAR,7.0
VOML 270100Z 10003KT 6000 FEW012 SCT020 FEW025CB 26/22 Q1011 NOSIG,VOML,2023-05-27T01:00:00Z,12.97,74.88,26.0,22.0,100,3,,3.73,29.852362,,,,,,TRUE,,,,,FEW,1200,SCT,2000,FEW,2500,,,MVFR,,,,,,,,,,,,METAR,100.0
VOMD 270100Z 33003KT 8000 NSC 27/23 Q1010 NOSIG,VOMD,2023-05-27T01:00:00Z,9.83,78.08,27.0,23.0,330,3,,4.97,29.822834,,,,,,TRUE,,,,,CLR,,,,,,,,MVFR,,,,,,,,,,,,METAR,135.0
VOKN 270100Z 10006KT 1500 BR FEW012 26/25 Q1011 BECMG 3000 BR,VOKN,2023-05-27T01:00:00Z,11.92,75.55,26.0,25.0,100,6,,0.93,29.852362,,,,,,,,,,BR,FEW,1200,,,,,,,LIFR,,,,,,,,,,,,METAR,105.0
VOHS 270100Z 28010KT 5000 HZ FEW015 SCT100 27/18 Q1012 NOSIG,VOHS,2023-05-27T01:00:00Z,17.23,78.43,27.0,18.0,280,10,,3.11,29.88189,,,,,,TRUE,,,,HZ,FEW,1500,SCT,10000,,,,,MVFR,,,,,,,,,,,,METAR,607.0
VOHB 270100Z 25004KT 6000 SCT010 SCT080 24/22 Q1014,VOHB,2023-05-27T01:00:00Z,15.37,75.08,24.0,22.0,250,4,,3.73,29.940945,,,,,,,,,,,SCT,1000,SCT,8000,,,,,MVFR,,,,,,,,,,,,METAR,661.0
VOCL 270100Z 33002KT 6000 FEW015 FEW025CB 25/23 Q1010 NOSIG,VOCL,2023-05-27T01:00:00Z,11.13,75.95,25.0,23.0,330,2,,3.73,29.822834,,,,,,TRUE,,,,,FEW,1500,FEW,2500,,,,,MVFR,,,,,,,,,,,,METAR,104.0
VOCI 270100Z 11002KT 3000 BR SCT015 26/25 Q1010 BECMG 4000 BR,VOCI,2023-05-27T01:00:00Z,10.15,76.4,26.0,25.0,110,2,,1.86,29.822834,,,,,,,,,,BR,SCT,1500,,,,,,,IFR,,,,,,,,,,,,METAR,8.0
VOCB 270100Z 21004KT 4000 BR FEW012 25/23 Q1012 NOSIG,VOCB,2023-05-27T01:00:00Z,11.02,77.03,25.0,23.0,210,4,,2.49,29.88189,,,,,,TRUE,,,,BR,FEW,1200,,,,,,,IFR,,,,,,,,,,,,METAR,394.0
VOBZ 270100Z 00000KT 6000 FEW020 27/26 Q1005 NOSIG,VOBZ,2023-05-27T01:00:00Z,16.52,80.78,27.0,26.0,0,0,,3.73,29.675198,,,,,,TRUE,,,,,FEW,2000,,,,,,,MVFR,,,,,,,,,,,,METAR,26.0
VOBL 270100Z 25009KT 6000 NSC 22/21 Q1016 NOSIG,VOBL,2023-05-27T01:00:00Z,13.2,77.7,22.0,21.0,250,9,,3.73,30.0,,,,,,TRUE,,,,,CLR,,,,,,,,MVFR,,,,,,,,,,,,METAR,908.0
VOBG 270100Z 28008KT 6000 FEW012 23/21 Q1016 NOSIG,VOBG,2023-05-27T01:00:00Z,12.95,77.65,23.0,21.0,280,8,,3.73,30.0,,,,,,TRUE,,,,,FEW,1200,,,,,,,MVFR,,,,,,,,,,,,METAR,884.0
VNKT 270100Z 00000KT 7000 FEW010 SCT030 BKN100 18/16 Q1013 NOSIG,VNKT,2023-05-27T01:00:00Z,27.68,85.37,18.0,16.0,0,0,,4.35,29.911417,,,,,,TRUE,,,,,FEW,1000,SCT,3000,BKN,10000,,,MVFR,,,,,,,,,,,,METAR,1334.0
VMMC 270100Z 11006KT 9999 FEW010 28/25 Q1011 NOSIG,VMMC,2023-05-27T01:00:00Z,22.15,113.58,28.0,25.0,110,6,,6.21,29.852362,,,,,,TRUE,,,,,FEW,1000,,,,,,,VFR,,,,,,,,,,,,METAR,1.0
VLVT 270100Z 30002KT 7000 SCT050 30/26 Q1009 NOSIG,VLVT,2023-05-27T01:00:00Z,17.98,102.57,30.0,26.0,300,2,,4.35,29.793306,,,,,,TRUE,,,,,SCT,5000,,,,,,,MVFR,,,,,,,,,,,,METAR,171.0
VLSK 270100Z 14004KT 6000 SCT020 OVC100 27/25 Q1011 NOSIG,VLSK,2023-05-27T01:00:00Z,16.55,104.75,27.0,25.0,140,4,,3.73,29.852362,,,,,,TRUE,,,,,SCT,2000,OVC,10000,,,,,MVFR,,,,,,,,,,,,METAR,148.0
VLPS 270100Z 14004KT 9999 FEW013 BKN200 29/25 Q1009 NOSIG,VLPS,2023-05-27T01:00:00Z,15.13,105.78,29.0,25.0,140,4,,6.21,29.793306,,,,,,TRUE,,,,,FEW,1300,BKN,20000,,,,,VFR,,,,,,,,,,,,METAR,102.0
VLLN 270100Z 27002KT 8000 SCT020 FEW100 26/22 Q1010 NOSIG,VLLN,2023-05-27T01:00:00Z,20.97,101.4,26.0,22.0,270,2,,4.97,29.822834,,,,,,TRUE,,,,,SCT,2000,FEW,10000,,,,,MVFR,,,,,,,,,,,,METAR,548.0
VLLB 270100Z 00000KT 9999 SCT020 SCT060 27/22 Q1007 NOSIG,VLLB,2023-05-27T01:00:00Z,19.9,102.17,27.0,22.0,0,0,,6.21,29.734253,,,,,,TRUE,,,,,SCT,2000,SCT,6000,,,,,VFR,,,,,,,,,,,,METAR,297.0
VIUT 270100Z 20013KT 5000 BR FEW015 28/24 Q1003 NOSIG,VIUT,2023-05-27T01:00:00Z,25.82,71.48,28.0,24.0,200,13,,3.11,29.616142,,,,,,TRUE,,,,BR,FEW,1500,,,,,,,MVFR,,,,,,,,,,,,METAR,152.0
VISR 270100Z VRB02KT 6000 FEW010 SCT015 BKN090 11/11 Q1017 TEMPO-RA,VISR,2023-05-27T01:00:00Z,33.98,74.77,11.0,11.0,0,2,,3.73,30.029528,,,,,,,,,,,FEW,1000,SCT,1500,BKN,9000,,,MVFR,,,,,,,,,,,,METAR,1655.0
VISP 270100Z 20005KT 3000 BRTS SCT025 FEW030CB BKN090 25/23 Q1006 TEMPO 25025KT 3000 TSRA,VISP,2023-05-27T01:00:00Z,30.0,77.42,25.0,23.0,200,5,,1.86,29.704725,,,,,,,,,,TS BR,SCT,2500,FEW,3000,BKN,9000,,,IFR,,,,,,,,,,,,METAR,272.0
VISM 270100Z 00000KT 5000 SCT100 18/08 Q1014,VISM,2023-05-27T01:00:00Z,31.08,77.07,18.0,8.0,0,0,,3.11,29.940945,,,,,,,,,,,SCT,10000,,,,,,,MVFR,,,,,,,,,,,,METAR,1537.0
VILK 270100Z VRB02KT 4500 HZ FEW020 SCT200 24/22 Q1005 BECMG 5000 HZ,VILK,2023-05-27T01:00:00Z,26.75,80.88,24.0,22.0,0,2,,2.8,29.675198,,,,,,,,,,HZ,FEW,2000,SCT,20000,,,,,IFR,,,,,,,,,,,,SPECI,121.0
VILH 270100Z 29005KT 6000 SOCC FEW050TCU FEW050 SCT060 BKN100 05/M01 Q1020 TEMPO 29015G25KT RA,VILH,2023-05-27T01:00:00Z,34.13,77.55,5.0,-1.0,290,5,,3.73,30.11811,,,,,,,,,,,FEW,5000,FEW,5000,SCT,6000,BKN,10000,MVFR,,,,,,,,,,,,METAR,3256.0
VIJU 270100Z 36006KT 6000 FEW025 SCT200 23/12 Q1004 NOSIG,VIJU,2023-05-27T01:00:00Z,32.68,74.83,23.0,12.0,360,6,,3.73,29.64567,,,,,,TRUE,,,,,FEW,2500,SCT,20000,,,,,MVFR,,,,,,,,,,,,METAR,285.0
VIJR 270100Z 19013KT 6000 FEW012 SCT015 27/25 Q1003 NOSIG,VIJR,2023-05-27T01:00:00Z,26.88,70.87,27.0,25.0,190,13,,3.73,29.616142,,,,,,TRUE,,,,,FEW,1200,SCT,1500,,,,,MVFR,,,,,,,,,,,,METAR,229.0
VIJP 270100Z 00000KT 3000 BR BKN100 26/22 Q1007 NOSIG,VIJP,2023-05-27T01:00:00Z,26.82,75.8,26.0,22.0,0,0,,1.86,29.734253,,,,,,TRUE,,,,BR,BKN,10000,,,,,,,IFR,,,,,,,,,,,,METAR,383.0
VIJO 270100Z 24010KT 6000 FEW015 SCT025 29/23 Q1004 TEMPO BKN015,VIJO,2023-05-27T01:00:00Z,26.25,73.05,29.0,23.0,240,10,,3.73,29.64567,,,,,,,,,,,FEW,1500,SCT,2500,,,,,MVFR,,,,,,,,,,,,METAR,215.0
VIGR 270100Z VRB02KT 5000 BR FEW030 BKN250 26/24 Q1005 NOSIG,VIGR,2023-05-27T01:00:00Z,26.28,78.22,26.0,24.0,0,2,,3.11,29.675198,,,,,,TRUE,,,,BR,FEW,3000,BKN,25000,,,,,MVFR,,,,,,,,,,,,METAR,187.0
VIGG 270100Z 11002KT 6000 BKN080 17/16 Q1008,VIGG,2023-05-27T01:00:00Z,32.17,76.25,17.0,16.0,110,2,,3.73,29.763779,,,,,,,,,,,BKN,8000,,,,,,,MVFR,,,,,,,,,,,,METAR,760.0
VIDP 270100Z 28011G32KT 0500 R28/2000 R29L/0900 TSRA BKN030 FEW035CB OVC080 20/20 Q1010 TEMPO 0800 TSRA,VIDP,2023-05-27T01:00:00Z,28.57,77.12,20.0,20.0,280,11,32,0.31,29.822834,,,,,,,,,,TSRA,BKN,3000,FEW,3500,OVC,8000,,,LIFR,,,,,,,,,,,,SPECI,236.0
VIDN 270100Z 35004KT 5000 BR SCT025 BKN060 20/17 Q1008,VIDN,2023-05-27T01:00:00Z,30.2,78.18,20.0,17.0,350,4,,3.11,29.763779,,,,,,,,,,BR,SCT,2500,BKN,6000,,,,,MVFR,,,,,,,,,,,,METAR,550.0
VICG 270100Z 24012G22KT 5000 BR-TSRA SCT020 FEW030CB BKN090 22/19 Q1007 3000 TSRABR 25025KTS,VICG,2023-05-27T01:00:00Z,30.67,76.78,22.0,19.0,240,12,22,3.11,29.734253,,,,,,,,,,-TSRA TSRA TS,SCT,2000,FEW,3000,BKN,9000,,,MVFR,,,,,,,,,,,,METAR,316.0
VIBY 270100Z VRB02KT 6000 FEW100 SCT250 25/23 Q1004 NOSIG,VIBY,2023-05-27T01:00:00Z,28.42,79.45,25.0,23.0,0,2,,3.73,29.64567,,,,,,TRUE,,,,,FEW,10000,SCT,25000,,,,,MVFR,,,,,,,,,,,,METAR,175.0
VIBR 270100Z 00000KT 7000 BKN080 13/12 Q1013,VIBR,2023-05-27T01:00:00Z,31.82,77.15,13.0,12.0,0,0,,4.35,29.911417,,,,,,,,,,,BKN,8000,,,,,,,MVFR,,,,,,,,,,,,METAR,1089.0
VIAR 270100Z 21006KT 180V240 4000 HZ SCT030 BKN090 23/20 Q1005 NOSIG,VIAR,2023-05-27T01:00:00Z,31.7,74.8,23.0,20.0,210,6,,2.49,29.675198,,,,,,TRUE,,,,HZ,SCT,3000,BKN,9000,,,,,IFR,,,,,,,,,,,,METAR,226.0
VIAG 270100Z 12007KT 4000 DU FEW030 FEW035TCU BKN250 27/21 Q1005 TEMPO 30015G25KT 3000 BLDU,VIAG,2023-05-27T01:00:00Z,27.15,77.97,27.0,21.0,120,7,,2.49,29.675198,,,,,,,,,,DU,FEW,3000,FEW,3500,BKN,25000,,,IFR,,,,,,,,,,,,METAR,159.0
VHHH 270100Z 05008KT 9999 FEW018 SCT025 30/24 Q1011 NOSIG,VHHH,2023-05-27T01:00:00Z,22.32,113.92,30.0,24.0,50,8,,6.21,29.852362,,,,,,TRUE,,,,,FEW,1800,SCT,2500,,,,,VFR,,,,,,,,,,,,METAR,9.0
VGHS 270100Z 19003T 3500 HZ SCT012 BKN100 26/22 Q1007 NOSIG,VGHS,2023-05-27T01:00:00Z,23.85,90.4,26.0,22.0,,,,2.17,29.734253,,,,,,TRUE,,,,HZ,SCT,1200,BKN,10000,,,,,IFR,,,,,,,,,,,,METAR,11.0
VGEG 270100Z 00000KT 5000 FEW018 27/24 Q1008 NOSIG,VGEG,2023-05-27T01:00:00Z,22.23,91.82,27.0,24.0,0,0,,3.11,29.763779,,,,,,TRUE,,,,,FEW,1800,,,,,,,MVFR,,,,,,,,,,,,METAR,7.0
VETZ 270100Z 11005KT 6000 FEW020 SCT090 25/23 Q1008 NOSIG,VETZ,2023-05-27T01:00:00Z,26.72,92.78,25.0,23.0,110,5,,3.73,29.763779,,,,,,TRUE,,,,,FEW,2000,SCT,9000,,,,,MVFR,,,,,,,,,,,,METAR,73.0
VERP 270100Z 13003KT 3000 HZ NSC 28/19 Q1007 NOSIG,VERP,2023-05-27T01:00:00Z,21.18,81.73,28.0,19.0,130,3,,1.86,29.734253,,,,,,TRUE,,,,HZ,CLR,,,,,,,,IFR,,,,,,,,,,,,METAR,318.0
VERC 270100Z 23003KT 3000 BR NSC 22/20 Q1010 NOSIG,VERC,2023-05-27T01:00:00Z,23.32,85.32,22.0,20.0,230,3,,1.86,29.822834,,,,,,TRUE,,,,BR,CLR,,,,,,,,IFR,,,,,,,,,,,,METAR,646.0
VEPT 270100Z 27004KT 2500 BR NSC 26/24 Q1006 BECMG 3000 BR,VEPT,2023-05-27T01:00:00Z,25.6,85.08,26.0,24.0,270,4,,1.55,29.704725,,,,,,,,,,BR,CLR,,,,,,,,IFR,,,,,,,,,,,,METAR,53.0
VEMN 270100Z 12007KT 4000 BR SCT018 FEW025CB BKN100 23/21 Q1008 NOSIG,VEMN,2023-05-27T01:00:00Z,27.47,95.02,23.0,21.0,120,7,,2.49,29.763779,,,,,,TRUE,,,,BR,SCT,1800,FEW,2500,BKN,10000,,,IFR,,,,,,,,,,,,METAR,111.0
VELR 270100Z 05006KT 2500 BR FEW010 SCT018 OVC060 22/22 Q1008,VELR,2023-05-27T01:00:00Z,27.3,94.1,22.0,22.0,50,6,,1.55,29.763779,,,,,,,,,,BR,FEW,1000,SCT,1800,OVC,6000,,,IFR,,,,,,,,,,,,METAR,101.0
VEKU 270100Z VRB02KT 6000 FEW025 FEW030TCU BKN090 25/23 Q1009 TEMPO 3000 TSRA,VEKU,2023-05-27T01:00:00Z,24.92,92.98,25.0,23.0,0,2,,3.73,29.793306,,,,,,,,,,,FEW,2500,FEW,3000,BKN,9000,,,MVFR,,,,,,,,,,,,METAR,107.0
VEJT 270100Z VRB02KT 6000 FEW012 SCT015 BKN100 25/23 Q1008 TEMPO -RA,VEJT,2023-05-27T01:00:00Z,26.73,94.17,25.0,23.0,0,2,,3.73,29.763779,,,,,,,,,,,FEW,1200,SCT,1500,BKN,10000,,,MVFR,,,,,,,,,,,,METAR,95.0
VEJS 270100Z 32003KT 3000 HZ FEW020 25/22 Q1007,VEJS,2023-05-27T01:00:00Z,22.82,86.17,25.0,22.0,320,3,,1.86,29.734253,,,,,,,,,,HZ,FEW,2000,,,,,,,IFR,,,,,,,,,,,,METAR,151.0
VEHX 270100Z 08003KT 6000 FEW025 FEW030TCU BKN090 23/23 Q1006 NOSIG,VEHX,2023-05-27T01:00:00Z,,,23.0,23.0,80,3,,3.73,29.704725,,,,,,TRUE,,,,,FEW,2500,FEW,3000,BKN,9000,,,MVFR,,,,,,,,,,,,METAR,
VEGY 270100Z 00000KT 2500 BR NSC 23/20 Q1007,VEGY,2023-05-27T01:00:00Z,24.75,84.95,23.0,20.0,0,0,,1.55,29.734253,,,,,,,,,,BR,CLR,,,,,,,,IFR,,,,,,,,,,,,METAR,115.0
VEGT 270100Z 00000KT 3500 BR SCT018 BKN100 25/25 Q1006 NOSIG,VEGT,2023-05-27T01:00:00Z,26.1,91.58,25.0,25.0,0,0,,2.17,29.704725,,,,,,TRUE,,,,BR,SCT,1800,BKN,10000,,,,,IFR,,,,,,,,,,,,METAR,50.0
VEGK 270100Z VRB01KT 1200 R29/1500 BR SCT015 24/24 Q1005 TEMPO BKN010,VEGK,2023-05-27T01:00:00Z,26.75,83.45,24.0,24.0,0,1,,0.75,29.675198,,,,,,,,,,BR,SCT,1500,,,,,,,LIFR,,,,,,,,,,,,METAR,83.0
VECX 270100Z VRB02KT 6000 FEW030 SCT100 27/22 Q1005 NOSIG,VECX,2023-05-27T01:00:00Z,9.15,92.82,27.0,22.0,0,2,,3.73,29.675198,,,,,,TRUE,,,,,FEW,3000,SCT,10000,,,,,MVFR,,,,,,,,,,,,METAR,14.0
VECC 270100Z 17005KT 3000 HZ FEW100 28/25 Q1005 NOSIG,VECC,2023-05-27T01:00:00Z,22.65,88.43,28.0,25.0,170,5,,1.86,29.675198,,,,,,TRUE,,,,HZ,FEW,10000,,,,,,,IFR,,,,,,,,,,,,METAR,11.0
VEBS 270100Z 27002KT 4000 HZ SCT020 SCT100 25/24 Q1007 NOSIG,VEBS,2023-05-27T01:00:00Z,20.25,85.82,25.0,24.0,270,2,,2.49,29.734253,,,,,,TRUE,,,,HZ,SCT,2000,SCT,10000,,,,,IFR,,,,,,,,,,,,METAR,42.0
VEBN 270100Z 00000KT 1500 BR NSC 24/22 Q1006 NOSIG,VEBN,2023-05-27T01:00:00Z,25.45,82.85,24.0,22.0,0,0,,0.93,29.704725,,,,,,TRUE,,,,BR,CLR,,,,,,,,LIFR,,,,,,,,,,,,METAR,81.0
VEBD 270100Z VRB01KT 6000 FEW020 FEW030CB SCT040 BKN070 24/24 Q1007 TEMPO TSRA,VEBD,2023-05-27T01:00:00Z,26.68,88.33,24.0,24.0,0,1,,3.73,29.734253,,,,,,,,,,,FEW,2000,FEW,3000,SCT,4000,BKN,7000,MVFR,,,,,,,,,,,,METAR,126.0
VEAT 270100Z 18003KT 5000 BR FEW020 SCT100 27/23 Q1007 NOSIG,VEAT,2023-05-27T01:00:00Z,23.88,91.25,27.0,23.0,180,3,,3.11,29.734253,,,,,,TRUE,,,,BR,FEW,2000,SCT,10000,,,,,MVFR,,,,,,,,,,,,METAR,20.0
VEAB 270100Z 29003KT 5000 BR FEW030 SCT100 24/21 Q1005 NOSIG,VEAB,2023-05-27T01:00:00Z,25.43,81.73,24.0,21.0,290,3,,3.11,29.675198,,,,,,TRUE,,,,BR,FEW,3000,SCT,10000,,,,,MVFR,,,,,,,,,,,,METAR,98.0
VDSV 270100Z 02005KT 340V050 9000 TS SCT015 FEW017CB BKN040 27/26 Q1008 RMK CB:N,VDSV,2023-05-27T01:00:00Z,10.58,103.63,27.0,26.0,20,5,,5.59,29.763779,,,,,,,,,,TS,SCT,1500,FEW,1700,BKN,4000,,,VFR,,,,,,,,,,,,METAR,1.0
VDSR 270100Z VRB02KT 9999 SCT015 28/24 Q1008,VDSR,2023-05-27T01:00:00Z,13.42,103.8,28.0,24.0,0,2,,6.21,29.763779,,,,,,,,,,,SCT,1500,,,,,,,VFR,,,,,,,,,,,,METAR,16.0
VDPP 270100Z VRB02KT 9999 SCT015 SCT040 28/26 Q1007,VDPP,2023-05-27T01:00:00Z,11.55,104.83,28.0,26.0,0,2,,6.21,29.734253,,,,,,,,,,,SCT,1500,SCT,4000,,,,,VFR,,,,,,,,,,,,METAR,10.0
VAUD 270100Z 23012KT 4000 HZ NSC 27/21 Q1007 NOSIG,VAUD,2023-05-27T01:00:00Z,24.62,73.9,27.0,21.0,230,12,,2.49,29.734253,,,,,,TRUE,,,,HZ,CLR,,,,,,,,IFR,,,,,,,,,,,,METAR,506.0
VANP 270100Z 17002KT 4000 HZ NSC 28/18 Q1008 NOSIG,VANP,2023-05-27T01:00:00Z,21.08,79.05,28.0,18.0,170,2,,2.49,29.763779,,,,,,TRUE,,,,HZ,CLR,,,,,,,,IFR,,,,,,,,,,,,METAR,309.0
VAJM 270100Z 21006KT 6000 FEW015 SCT020 30/26 Q1006 NOSIG,VAJM,2023-05-27T01:00:00Z,22.43,70.07,30.0,26.0,210,6,,3.73,29.704725,,,,,,TRUE,,,,,FEW,1500,SCT,2000,,,,,MVFR,,,,,,,,,,,,METAR,20.0
VAJB 270100Z 17005KT 5000 HZ NSC 25/17 Q1008 NOSIG,VAJB,2023-05-27T01:00:00Z,23.18,80.05,25.0,17.0,170,5,,3.11,29.763779,,,,,,TRUE,,,,HZ,CLR,,,,,,,,MVFR,,,,,,,,,,,,METAR,489.0
VAID 270100Z 26014KT 5000 HZ FEW020 SCT100 26/21 Q1010 NOSIG,VAID,2023-05-27T01:00:00Z,22.72,75.8,26.0,21.0,260,14,,3.11,29.822834,,,,,,TRUE,,,,HZ,FEW,2000,SCT,10000,,,,,MVFR,,,,,,,,,,,,METAR,564.0
VABP 270100Z 21009KT 6000 NSC 26/20 Q1008 NOSIG,VABP,2023-05-27T01:00:00Z,23.28,77.33,26.0,20.0,210,9,,3.73,29.763779,,,,,,TRUE,,,,,CLR,,,,,,,,MVFR,,,,,,,,,,,,METAR,520.0
VABO 270100Z 21009KT 5000 HZ FEW020 29/25 Q1008 NOSIG,VABO,2023-05-27T01:00:00Z,22.33,73.22,29.0,25.0,210,9,,3.11,29.763779,,,,,,TRUE,,,,HZ,FEW,2000,,,,,,,MVFR,,,,,,,,,,,,METAR,36.0
VABJ 270100Z 18008KT 6000 SCT020 29/26 Q1005 NOSIG,VABJ,2023-05-27T01:00:00Z,23.28,69.67,29.0,26.0,180,8,,3.73,29.675198,,,,,,TRUE,,,,,SCT,2000,,,,,,,MVFR,,,,,,,,,,,,METAR,79.0
VABB 270100Z 23005KT 3000 HZ SCT020 SCT025 30/25 Q1010 NOSIG,VABB,2023-05-27T01:00:00Z,19.1,72.87,30.0,25.0,230,5,,1.86,29.822834,,,,,,TRUE,,,,HZ,SCT,2000,SCT,2500,,,,,IFR,,,,,,,,,,,,METAR,14.0
VAAH 270100Z 22012KT 4000 HZ FEW020 28/23 Q1006 NOSIG,VAAH,2023-05-27T01:00:00Z,23.07,72.63,28.0,23.0,220,12,,2.49,29.704725,,,,,,TRUE,,,,HZ,FEW,2000,,,,,,,IFR,,,,,,,,,,,,METAR,52.0
UWWW 270100Z 11004MPS 9999 SCT033 19/07 Q1014 R15/CLRD60 NOSIG RMK QFE749/0999,UWWW,2023-05-27T01:00:00Z,53.5,50.17,19.0,7.0,110,8,,6.21,29.940945,,,,,,TRUE,,,,,SCT,3300,,,,,,,VFR,,,,,,,,,,,,METAR,124.0
UWUU 270100Z VRB01MPS 5000 BR NSC 13/11 Q1019 R32L/0///60 NOSIG,UWUU,2023-05-27T01:00:00Z,54.57,55.87,13.0,11.0,0,2,,3.11,30.088583,,,,,,TRUE,,,,BR,CLR,,,,,,,,MVFR,,,,,,,,,,,,METAR,137.0
UWSG 270100Z 18003MPS CAVOK 19/14 Q1011 R26/CLRD70 NOSIG RMK QFE756/1008,UWSG,2023-05-27T01:00:00Z,51.72,46.17,19.0,14.0,180,6,,6.21,29.852362,,,,,,TRUE,,,,,CAVOK,,,,,,,,VFR,,,,,,,,,,,,METAR,31.0
UWPS 270100Z 25001MPS CAVOK 13/12 Q1011 R20/CLRD60 NOSIG RMK QFE740,UWPS,2023-05-27T01:00:00Z,54.12,45.2,13.0,12.0,250,2,,6.21,29.852362,,,,,,TRUE,,,,,CAVOK,,,,,,,,VFR,,,,,,,,,,,,METAR,206.0
UWOR 270100Z 04002MPS CAVOK 13/09 Q1021 R07/CLRD65 NOSIG RMK QFE741/0988,UWOR,2023-05-27T01:00:00Z,51.07,58.6,13.0,9.0,40,4,,6.21,30.147638,,,,,,TRUE,,,,,CAVOK,,,,,,,,VFR,,,,,,,,,,,,METAR,270.0
UWOO 270100Z 09003MPS CAVOK 15/07 Q1019 R26/60D NOSIG RMK QFE753/1005,UWOO,2023-05-27T01:00:00Z,51.8,55.47,15.0,7.0,90,6,,6.21,30.088583,,,,,,TRUE,,,,,CAVOK,,,,,,,,VFR,,,,,,,,,,,,METAR,90.0
UWLW 270100Z 15007MPS 120V180 8000 -TSRA BKN027CB 18/13 Q1012 R20/CLRD60 NOSIG RMK QFE753/1005,UWLW,2023-05-27T01:00:00Z,54.4,48.8,18.0,13.0,150,14,,4.97,29.88189,,,,,,TRUE,,,,-TSRA,BKN,2700,,,,,,,MVFR,,,,,,,,,,,,METAR,67.0
UWLL 270100Z 11002MPS 9999 TS BKN040CB 19/14 Q1011 R20/090065 NOSIG RMK QFE748/0998,UWLL,2023-05-27T01:00:00Z,54.27,48.23,19.0,14.0,110,4,,6.21,29.852362,,,,,,TRUE,,,,TS,BKN,4000,,,,,,,VFR,,,,,,,,,,,,METAR,119.0
UWKS 270100Z 00000MPS CAVOK 19/11 Q1011 R06/010060 NOSIG RMK QFE743,UWKS,2023-05-27T01:00:00Z,56.08,47.35,19.0,11.0,0,0,,6.21,29.852362,,,,,,TRUE,,,,,CAVOK,,,,,,,,VFR,,,,,,,,,,,,METAR,165.0
UWKE 270100Z 18004MPS CAVOK 22/06 Q1016 R21/090070 NOSIG RMK QFE745/0994,UWKE,2023-05-27T01:00:00Z,55.57,52.08,22.0,6.0,180,8,,6.21,30.0,,,,,,TRUE,,,,,CAVOK,,,,,,,,VFR,,,,,,,,,,,,METAR,193.0
UWKD 270100Z 12006MPS CAVOK 19/09 Q1013 R11/290050 NOSIG RMK QFE749/0999,UWKD,2023-05-27T01:00:00Z,55.62,49.28,19.0,9.0,120,12,,6.21,29.911417,,,,,,TRUE,,,,,CAVOK,,,,,,,,VFR,,,,,,,,,,,,METAR,114.0
UWGG 270100Z 28001MPS 4400 BR NSC 13/13 Q1012 R36R/090070 TEMPO 0300 FG,UWGG,2023-05-27T01:00:00Z,56.23,43.78,13.0,13.0,280,2,,2.73,29.88189,,,,,,,,,,BR,CLR,,,,,,,,IFR,,,,,,,,,,,,METAR,73.0
UUYY 270100Z 07001MPS 5000 BR NSC 13/13 Q1013 R18/29//51 NOSIG RMK QFE751/1002,UUYY,2023-05-27T01:00:00Z,61.65,50.83,13.0,13.0,70,2,,3.11,29.911417,,,,,,TRUE,,,,BR,CLR,,,,,,,,MVFR,,,,,,,,,,,,METAR,107.0
UUWW 270100Z 31003MPS CAVOK 14/12 Q1013 R24/000070 NOSIG,UUWW,2023-05-27T01:00:00Z,55.6,37.27,14.0,12.0,310,6,,6.21,29.911417,,,,,,TRUE,,,,,CAVOK,,,,,,,,VFR,,,,,,,,,,,,METAR,195.0
UUOO 270100Z 33002MPS 6000 NSC 14/13 Q1013 R12/010070 NOSIG RMK QFE745,UUOO,2023-05-27T01:00:00Z,51.82,39.23,14.0,13.0,330,4,,3.73,29.911417,,,,,,TRUE,,,,,CLR,,,,,,,,MVFR,,,,,,,,,,,,METAR,154.0
UUOL 270100Z 30002MPS CAVOK 13/13 Q1013 R33/090059 NOSIG,UUOL,2023-05-27T01:00:00Z,52.7,39.53,13.0,13.0,300,4,,6.21,29.911417,,,,,,TRUE,,,,,CAVOK,,,,,,,,VFR,,,,,,,,,,,,METAR,176.0
UUOK 270100Z AUTO 36001MPS 9999 // 11/11 Q1014 RMK QFE742/0989,UUOK,2023-05-27T01:00:00Z,51.75,36.28,11.0,11.0,360,2,,6.21,29.940945,,,TRUE,,,,,,,,,,,,,,,,,,,,,,,,,,,,METAR,203.0
UUOB 270100Z 35002MPS CAVOK 15/12 Q1014 R11/010070 NOSIG,UUOB,2023-05-27T01:00:00Z,50.65,36.58,15.0,12.0,350,4,,6.21,29.940945,,,,,,TRUE,,,,,CAVOK,,,,,,,,VFR,,,,,,,,,,,,METAR,218.0
UUMO 270100Z 27002MPS CAVOK 11/10 Q1013 R25/CLRD60 NOSIG RMK QFE744/0993,UUMO,2023-05-27T01:00:00Z,55.52,37.5,11.0,10.0,270,4,,6.21,29.911417,,,,,,TRUE,,,,,CAVOK,,,,,,,,VFR,,,,,,,,,,,,METAR,167.0
UUEE 270100Z 32004MPS 290V350 9999 SCT050CB 15/13 Q1013 R24C/290051 NOSIG,UUEE,2023-05-27T01:00:00Z,55.97,37.42,15.0,13.0,320,8,,6.21,29.911417,,,,,,TRUE,,,,,SCT,5000,,,,,,,VFR,,,,,,,,,,,,METAR,186.0
UUDL 270100Z 28004MPS 9999 SCT037 13/12 Q1012 R23/010060 NOSIG RMK QFE751,UUDL,2023-05-27T01:00:00Z,57.57,40.17,13.0,12.0,280,8,,6.21,29.88189,,,,,,TRUE,,,,,SCT,3700,,,,,,,VFR,,,,,,,,,,,,METAR,88.0
UUDD 270100Z 32002MPS 280V350 CAVOK 13/11 Q1013 R32L/CLRD60 NOSIG,UUDD,2023-05-27T01:00:00Z,55.4,37.9,13.0,11.0,320,4,,6.21,29.911417,,,,,,TRUE,,,,,CAVOK,,,,,,,,VFR,,,,,,,,,,,,METAR,165.0
UUBW 270100Z 31002MPS CAVOK 13/13 Q1013 R30/010060 NOSIG RMK QFE749,UUBW,2023-05-27T01:00:00Z,55.55,38.15,13.0,13.0,310,4,,6.21,29.911417,,,,,,TRUE,,,,,CAVOK,,,,,,,,VFR,,,,,,,,,,,,METAR,111.0
UUBP 270100Z AUTO 34002MPS 9999 NCD 15/09 Q1014 NOSIG RMK QFE743/0991,UUBP,2023-05-27T01:00:00Z,53.22,34.18,15.0,9.0,340,4,,6.21,29.940945,,,TRUE,,,TRUE,,,,,CLR,,,,,,,,VFR,,,,,,,,,,,,METAR,197.0
UUBC 270100Z 35003MPS CAVOK 15/12 Q1014 R13/CLRD60 NOSIG RMK QFE742/0990,UUBC,2023-05-27T01:00:00Z,54.55,36.37,15.0,12.0,350,6,,6.21,29.940945,,,,,,TRUE,,,,,CAVOK,,,,,,,,VFR,,,,,,,,,,,,METAR,198.0
UTTT 270100Z 13004KT CAVOK 18/06 Q1013 R08R/CLRD70 NOSIG,UTTT,2023-05-27T01:00:00Z,41.27,69.27,18.0,6.0,130,4,,6.21,29.911417,,,,,,TRUE,,,,,CAVOK,,,,,,,,VFR,,,,,,,,,,,,METAR,429.0
UTST 270100Z 04004KT CAVOK 18/08 Q1011 R25/CLRD70 NOSIG,UTST,2023-05-27T01:00:00Z,37.28,67.32,18.0,8.0,40,4,,6.21,29.852362,,,,,,TRUE,,,,,CAVOK,,,,,,,,VFR,,,,,,,,,,,,METAR,311.0
UTSS 270100Z 14008KT 9999 NSC 17/03 Q1013 R09/70D NOSIG,UTSS,2023-05-27T01:00:00Z,39.7,66.98,17.0,3.0,140,8,,6.21,29.911417,,,,,,TRUE,,,,,CLR,,,,,,,,VFR,,,,,,,,,,,,METAR,665.0
UTSK 270100Z 07008KT CAVOK 16/00 Q1011 R16/CLRD70,UTSK,2023-05-27T01:00:00Z,38.8,65.77,16.0,0.0,70,8,,6.21,29.852362,,,,,,,,,,,CAVOK,,,,,,,,VFR,,,,,,,,,,,,METAR,399.0
UTSB 270100Z 36004KT CAVOK 16/05 Q1011 R01/CLRD70 NOSIG,UTSB,2023-05-27T01:00:00Z,39.77,64.48,16.0,5.0,360,4,,6.21,29.852362,,,,,,TRUE,,,,,CAVOK,,,,,,,,VFR,,,,,,,,,,,,METAR,225.0
UTSA 270100Z 08010KT 9999 NSC 15/03 Q1012 R07/CLRD70 NOSIG,UTSA,2023-05-27T01:00:00Z,40.12,65.17,15.0,3.0,80,10,,6.21,29.88189,,,,,,TRUE,,,,,CLR,,,,,,,,VFR,,,,,,,,,,,,METAR,346.0
UTNU 270100Z VRB02KT CAVOK 17/04 Q1013 R31/CLRD70 NOSIG,UTNU,2023-05-27T01:00:00Z,41.58,60.63,17.0,4.0,0,2,,6.21,29.911417,,,,,,TRUE,,,,,CAVOK,,,,,,,,VFR,,,,,,,,,,,,METAR,97.0
UTNN 270100Z 01004KT CAVOK 17/M00 Q1013 R33/CLRD60 NOSIG,UTNN,2023-05-27T01:00:00Z,42.48,59.63,17.0,0.0,10,4,,6.21,29.911417,,,,,,TRUE,,,,,CAVOK,,,,,,,,VFR,,,,,,,,,,,,METAR,76.0
UTFN 270100Z 35006KT 9999 NSC 18/05 Q1013 R28/CLRD70 NOSIG,UTFN,2023-05-27T01:00:00Z,40.98,71.57,18.0,5.0,350,6,,6.21,29.911417,,,,,,TRUE,,,,,CLR,,,,,,,,VFR,,,,,,,,,,,,METAR,477.0
UTFF 270100Z 15004KT 9999 NSC 17/04 Q1014 R18/CLRD70,UTFF,2023-05-27T01:00:00Z,40.37,71.73,17.0,4.0,150,4,,6.21,29.940945,,,,,,,,,,,CLR,,,,,,,,VFR,,,,,,,,,,,,METAR,612.0
UTDT 270100Z VRB01MPS 9999 NSC 16/08 Q1011 R35/CLRD70 RMK QFE719/0959,UTDT,2023-05-27T01:00:00Z,37.87,68.87,16.0,8.0,0,2,,6.21,29.852362,,,,,,,,,,,CLR,,,,,,,,VFR,,,,,,,,,,,,METAR,443.0
UTDL 270100Z 05002MPS 9999 NSC 19/08 Q1013 R08/CLRD70 NOSIG RMK QFE721/0962,UTDL,2023-05-27T01:00:00Z,40.22,69.7,19.0,8.0,50,4,,6.21,29.911417,,,,,,TRUE,,,,,CLR,,,,,,,,VFR,,,,,,,,,,,,METAR,436.0
UTDK 270100Z 02006MPS 9999 NSC 18/05 Q1014 R01/09//70 RMK QFE703/0937,UTDK,2023-05-27T01:00:00Z,37.98,69.8,18.0,5.0,20,12,,6.21,29.940945,,,,,,,,,,,CLR,,,,,,,,VFR,,,,,,,,,,,,METAR,675.0
UTDD 270100Z VRB01MPS 9999 NSC 15/06 Q1015 R09/D NOSIG RMK QFE693/0924,UTDD,2023-05-27T01:00:00Z,38.53,68.82,15.0,6.0,0,2,,6.21,29.970472,,,,,,TRUE,,,,,CLR,,,,,,,,VFR,,,,,,,,,,,,METAR,785.0
UTAV 270100Z 34004KT CAVOK 15/03 Q1011 R31/CLRD70 NOSIG,UTAV,2023-05-27T01:00:00Z,39.08,63.62,15.0,3.0,340,4,,6.21,29.852362,,,,,,TRUE,,,,,CAVOK,,,,,,,,VFR,,,,,,,,,,,,METAR,187.0
UTAT 270100Z 04006KT CAVOK 19/06 Q1013 R08/CLRD70 NOSIG,UTAT,2023-05-27T01:00:00Z,41.77,59.83,19.0,6.0,40,6,,6.21,29.911417,,,,,,TRUE,,,,,CAVOK,,,,,,,,VFR,,,,,,,,,,,,METAR,84.0
UTAM 270100Z 15002KT CAVOK 17/04 Q1012 R88/CLRD70 NOSIG,UTAM,2023-05-27T01:00:00Z,37.62,61.9,17.0,4.0,150,2,,6.21,29.88189,,,,,,TRUE,,,,,CAVOK,,,,,,,,VFR,,,,,,,,,,,,SPECI,218.0
UTAA 270100Z 12004KT 9999 BKN100 24/03 Q1010 R88/70D NOSIG,UTAA,2023-05-27T01:00:00Z,37.98,58.37,24.0,3.0,120,4,,6.21,29.822834,,,,,,TRUE,,,,,BKN,10000,,,,,,,VFR,,,,,,,,,,,,METAR,207.0
USTR 270100Z 21004MPS CAVOK 15/06 Q1021 R30/090065 R03/090065 NOSIG,USTR,2023-05-27T01:00:00Z,57.18,65.32,15.0,6.0,210,8,,6.21,30.147638,,,,,,TRUE,,,,,CAVOK,,,,,,,,VFR,,,,,,,,,,,,METAR,93.0
USSS 270100Z 00000MPS 9000 NSC 13/11 Q1020 R26L/010060 NOSIG RMK QFE744/0993,USSS,2023-05-27T01:00:00Z,56.75,60.78,13.0,11.0,0,0,,5.59,30.11811,,,,,,TRUE,,,,,CLR,,,,,,,,VFR,,,,,,,,,,,,METAR,222.0
USRR 270100Z 16003MPS CAVOK 13/04 Q1023 R25/CLRD60 NOSIG RMK QFE762,USRR,2023-05-27T01:00:00Z,61.33,73.42,13.0,4.0,160,6,,6.21,30.206694,,,,,,TRUE,,,,,CAVOK,,,,,,,,VFR,,,,,,,,,,,,METAR,52.0
USPP 270100Z 11003MPS CAVOK 19/09 Q1016 R21/090060 NOSIG RMK QFE751,USPP,2023-05-27T01:00:00Z,57.92,56.02,19.0,9.0,110,6,,6.21,30.0,,,,,,TRUE,,,,,CAVOK,,,,,,,,VFR,,,,,,,,,,,,METAR,120.0
USNN 270100Z 15003MPS CAVOK 14/01 Q1025 R21/0///65 NOSIG RMK QFE764,USNN,2023-05-27T01:00:00Z,60.95,76.48,14.0,1.0,150,6,,6.21,30.265747,,,,,,TRUE,,,,,CAVOK,,,,,,,,VFR,,,,,,,,,,,,METAR,52.0
USHH 270100Z 15005MPS CAVOK 15/09 Q1020 R06/010060 TEMPO VRB15MPS 2000 TSRA SQ BKN011CB,USHH,2023-05-27T01:00:00Z,61.03,69.08,15.0,9.0,150,10,,6.21,30.11811,,,,,,,,,,,CAVOK,,,,,,,,VFR,,,,,,,,,,,,METAR,46.0
USDA 270100Z 18007MPS CAVOK 04/03 Q1005 R04/CLRD60 NOSIG RMK QFE753/1004,USDA,2023-05-27T01:00:00Z,71.2,72.05,4.0,3.0,180,14,,6.21,29.675198,,,,,,TRUE,,,,,CAVOK,,,,,,,,VFR,,,,,,,,,,,,METAR,5.0
USCM 270100Z 32002MPS 6000 BKN040 13/08 Q1021 R36/090060 TEMPO 0500 FG RMK QFE727,USCM,2023-05-27T01:00:00Z,53.4,58.75,13.0,8.0,320,4,,3.73,30.147638,,,,,,,,,,,BKN,4000,,,,,,,MVFR,,,,,,,,,,,,METAR,425.0
USCC 270100Z 13002MPS CAVOK 14/09 Q1021 R27/000060 NOSIG RMK QFE745,USCC,2023-05-27T01:00:00Z,55.3,61.5,14.0,9.0,130,4,,6.21,30.147638,,,,,,TRUE,,,,,CAVOK,,,,,,,,VFR,,,,,,,,,,,,METAR,227.0
URWW 270100Z 13003MPS 9999 FEW///CB 20/11 Q1010 R05/010070 TEMPO 1000 TSRAGR BKN004 BKN020CB,URWW,2023-05-27T01:00:00Z,48.78,44.33,20.0,11.0,130,6,,6.21,29.822834,,,,,,,,,,,,,,,,,,,,,,,,,,,,,,,METAR,131.0
URWI 270100Z AUTO 24005MPS 9000 // ///004/// 18/17 Q1010 RMK QBB120,URWI,2023-05-27T01:00:00Z,46.37,44.33,18.0,17.0,240,10,,5.59,29.822834,,,TRUE,,,,,,,,,,,,,,,,,,,,,,,,,,,,METAR,145.0
URWA 270100Z 10006MPS 9999 -RA NSC 22/15 Q1011 R27/010070 NOSIG RMK QFE760/1013,URWA,2023-05-27T01:00:00Z,46.28,47.98,22.0,15.0,100,12,,6.21,29.852362,,,,,,TRUE,,,,-RA,CLR,,,,,,,,VFR,,,,,,,,,,,,METAR,-19.0
URSS 270100Z 06001MPS 8000 BKN015 BKN120 15/15 Q1013 R02/010070 R06/010070 NOSIG RMK R06/07003MPS MT OBSC QFE758,URSS,2023-05-27T01:00:00Z,43.45,39.92,15.0,15.0,60,2,,4.97,29.911417,,,,,,TRUE,,,,,BKN,1500,BKN,12000,,,,,MVFR,,,,,,,,,,,,METAR,4.0
URRP 270100Z 30002MPS 9999 -SHRA SCT056CB 16/16 Q1012 R05/290049 TEMPO 0300 +TSRAGR BKN002 BKN020CB RMK QFE754/1005,URRP,2023-05-27T01:00:00Z,47.5,39.92,16.0,16.0,300,4,,6.21,29.88189,,,,,,,,,,-SHRA,SCT,5600,,,,,,,VFR,,,,,,,,,,,,METAR,73.0
URMT 270100Z 29004MPS CAVOK 13/12 Q1013 R25/290250 TEMPO 1000 BR BKN004 BKN020 RMK QFE721,URMT,2023-05-27T01:00:00Z,45.12,42.12,13.0,12.0,290,8,,6.21,29.911417,,,,,,,,,,,CAVOK,,,,,,,,VFR,,,,,,,,,,,,METAR,448.0
URMO 270100Z AUTO 34002MPS 9999 // ///032/// 16/14 Q1014 RMK QFE717/0956,URMO,2023-05-27T01:00:00Z,43.2,44.6,16.0,14.0,340,4,,6.21,29.940945,,,TRUE,,,,,,,,,,,,,,,,,,,,,,,,,,,,METAR,505.0
URMN 270100Z 06002MPS 9999 FEW/// BKN075 16/15 Q1013 R24/////// NOSIG RMK QFE723,URMN,2023-05-27T01:00:00Z,43.52,43.63,16.0,15.0,60,4,,6.21,29.911417,,,,,,TRUE,,,,,BKN,7500,,,,,,,VFR,,,,,,,,,,,,METAR,424.0
URMM 270100Z 25003MPS 9999 SCT009 14/13 Q1014 R30/190160 TEMPO 0300 FG OVC002 RMK MT OBSC QFE732/0976,URMM,2023-05-27T01:00:00Z,44.22,43.07,14.0,13.0,250,6,,6.21,29.940945,,,,,,,,,,,SCT,900,,,,,,,VFR,,,,,,,,,,,,METAR,318.0
URML 270100Z 34006MPS 8000 NSC 20/17 Q1010 R32/01//70 TEMPO 1500 BR RMK QFE757/1009,URML,2023-05-27T01:00:00Z,42.82,47.65,20.0,17.0,340,12,,4.97,29.822834,,,,,,,,,,,CLR,,,,,,,,MVFR,,,,,,,,,,,,METAR,4.0
URMG 270100Z 30006MPS 9999 -SHRA FEW011 SCT037CB 18/17 Q1012 R26/290250 TEMPO 0500 +SHRA BKN003 BKN020CB RMK OBST OBSC QFE744/0993,URMG,2023-05-27T01:00:00Z,43.38,45.7,18.0,17.0,300,12,,6.21,29.88189,,,,,,,,,,-SHRA,FEW,1100,SCT,3700,,,,,VFR,,,,,,,,,,,,METAR,160.0
URKK 270100Z 25002MPS 9999 BKN021 17/16 Q1013 R05R/290060 TEMPO 1000 BR BKN005 BKN016CB RMK QFE756,URKK,2023-05-27T01:00:00Z,45.03,39.15,17.0,16.0,250,4,,6.21,29.911417,,,,,,,,,,,BKN,2100,,,,,,,MVFR,,,,,,,,,,,,METAR,29.0
URKA 270100Z 20002MPS 5000 BR SCT/// 15/14 Q1013 R22/010070 TEMPO 0500 FG BKN002 BKN016CB RMK QFE755/1006,URKA,2023-05-27T01:00:00Z,45.0,37.35,15.0,14.0,200,4,,3.11,29.911417,,,,,,,,,,BR,,,,,,,,,,,,,,,,,,,,,METAR,41.0
UOOO 270100Z 18007MPS CAVOK 04/M01 Q1025 R19/CLRD60 NOSIG RMK QFE752/1003,UOOO,2023-05-27T01:00:00Z,69.32,87.33,4.0,-1.0,180,14,,6.21,30.265747,,,,,,TRUE,,,,,CAVOK,,,,,,,,VFR,,,,,,,,,,,,METAR,177.0
UNWW 270100Z 03005MPS 010V080 CAVOK 09/M04 Q1019 R01/09//55 NOSIG RMK QFE737,UNWW,2023-05-27T01:00:00Z,53.82,86.88,9.0,-4.0,30,10,,6.21,30.088583,,,,,,TRUE,,,,,CAVOK,,,,,,,,VFR,,,,,,,,,,,,METAR,307.0
UNTT 270100Z 05004MPS CAVOK 10/M02 Q1025 R21/090060 NOSIG RMK QFE753,UNTT,2023-05-27T01:00:00Z,56.38,85.22,10.0,-2.0,50,8,,6.21,30.265747,,,,,,TRUE,,,,,CAVOK,,,,,,,,VFR,,,,,,,,,,,,METAR,179.0
UNOO 270100Z 07003MPS CAVOK 10/01 Q1023 R07/CLRD60 NOSIG RMK QFE759,UNOO,2023-05-27T01:00:00Z,54.97,73.32,10.0,1.0,70,6,,6.21,30.206694,,,,,,TRUE,,,,,CAVOK,,,,,,,,VFR,,,,,,,,,,,,METAR,85.0
UNNT 270100Z 02002MPS 330V040 CAVOK 08/00 Q1024 R25/090070 R34/090070 NOSIG RMK QFE758/1010,UNNT,2023-05-27T01:00:00Z,55.02,82.65,8.0,0.0,20,4,,6.21,30.236221,,,,,,TRUE,,,,,CAVOK,,,,,,,,VFR,,,,,,,,,,,,METAR,106.0
UNKL 270100Z 30003MPS 280V350 CAVOK 10/04 Q1022 R29/290050 NOSIG RMK QFE741,UNKL,2023-05-27T01:00:00Z,56.17,92.48,10.0,4.0,300,6,,6.21,30.177166,,,,,,TRUE,,,,,CAVOK,,,,,,,,VFR,,,,,,,,,,,,METAR,278.0
UNEE 270100Z 02004MPS 9999 SCT046 07/M01 Q1023 R23/CLRD60 NOSIG RMK QFE744,UNEE,2023-05-27T01:00:00Z,55.27,86.1,7.0,-1.0,20,8,,6.21,30.206694,,,,,,TRUE,,,,,SCT,4600,,,,,,,VFR,,,,,,,,,,,,METAR,261.0
UNBB 270100Z 01006MPS CAVOK 08/M06 Q1020 R06/CLRD66 NOSIG RMK QFE743,UNBB,2023-05-27T01:00:00Z,53.37,83.53,8.0,-6.0,10,12,,6.21,30.11811,,,,,,TRUE,,,,,CAVOK,,,,,,,,VFR,,,,,,,,,,,,METAR,249.0
UNAA 270100Z 01003MPS CAVOK 10/00 Q1020 R02/CLRD64 NOSIG RMK QFE742,UNAA,2023-05-27T01:00:00Z,53.75,91.4,10.0,0.0,10,6,,6.21,30.11811,,,,,,TRUE,,,,,CAVOK,,,,,,,,VFR,,,,,,,,,,,,METAR,249.0
UMMS 270100Z 33004MPS CAVOK 09/06 Q1019 NOSIG,UMMS,2023-05-27T01:00:00Z,53.88,28.03,9.0,6.0,330,8,,6.21,30.088583,,,,,,TRUE,,,,,CAVOK,,,,,,,,VFR,,,,,,,,,,,,METAR,196.0
UMKK 270100Z 36003MPS CAVOK 10/08 Q1026 R24/CLRD95 NOSIG RMK QFE768/1025,UMKK,2023-05-27T01:00:00Z,54.88,20.57,10.0,8.0,360,6,,6.21,30.295275,,,,,,TRUE,,,,,CAVOK,,,,,,,,VFR,,,,,,,,,,,,METAR,6.0
UMIO 270100Z 33002MPS CAVOK 08/05 Q1018 NOSIG RMK QFE745/0994,UMIO,2023-05-27T01:00:00Z,54.43,30.3,8.0,5.0,330,4,,6.21,30.059055,,,,,,TRUE,,,,,CAVOK,,,,,,,,VFR,,,,,,,,,,,,METAR,189.0
UMGG 270100Z 32003MPS 8000 NSC 15/13 Q1016 NOSIG,UMGG,2023-05-27T01:00:00Z,52.53,31.02,15.0,13.0,320,6,,4.97,30.0,,,,,,TRUE,,,,,CLR,,,,,,,,MVFR,,,,,,,,,,,,METAR,135.0
UMBB 270100Z 31003MPS 8000 NSC 11/09 Q1022 NOSIG,UMBB,2023-05-27T01:00:00Z,52.12,23.9,11.0,9.0,310,6,,4.97,30.177166,,,,,,TRUE,,,,,CLR,,,,,,,,MVFR,,,,,,,,,,,,METAR,138.0
ULPB 270100Z AUTO 23002MPS 9999 // 06/04 Q1015 RMK QFE757/1010,ULPB,2023-05-27T01:00:00Z,61.88,34.15,6.0,4.0,230,4,,6.21,29.970472,,,TRUE,,,,,,,,,,,,,,,,,,,,,,,,,,,,METAR,41.0
ULOO 270100Z 32002MPS 290V020 CAVOK 07/04 Q1020 NOSIG RMK QFE761,ULOO,2023-05-27T01:00:00Z,57.78,28.4,7.0,4.0,320,4,,6.21,30.11811,,,,,,TRUE,,,,,CAVOK,,,,,,,,VFR,,,,,,,,,,,,METAR,46.0
ULMM 270100Z 24002MPS 190V310 CAVOK 03/01 Q1008 R31/090070 NOSIG RMK QFE749,ULMM,2023-05-27T01:00:00Z,68.78,32.75,3.0,1.0,240,4,,6.21,29.763779,,,,,,TRUE,,,,,CAVOK,,,,,,,,VFR,,,,,,,,,,,,METAR,79.0
ULLI 270100Z 32005MPS 9999 FEW018 BKN040 08/07 Q1017 R28L/190055 NOSIG,ULLI,2023-05-27T01:00:00Z,59.8,30.27,8.0,7.0,320,10,,6.21,30.029528,,,,,,TRUE,,,,,FEW,1800,BKN,4000,,,,,VFR,,,,,,,,,,,,METAR,25.0
UIUU 270100Z VRB01MPS 9999 NSC 07/01 Q1018 R26/CLRD60 NOSIG RMK QFE719/0959,UIUU,2023-05-27T01:00:00Z,51.8,107.45,7.0,1.0,0,2,,6.21,30.059055,,,,,,TRUE,,,,,CLR,,,,,,,,VFR,,,,,,,,,,,,METAR,508.0
UIII 270100Z 35002MPS 310V030 9000 OVC006 05/03 Q1019 R30/60D NOSIG RMK QBB180 QFE719/0959,UIII,2023-05-27T01:00:00Z,52.27,104.37,5.0,3.0,350,4,,5.59,30.088583,,,,,,TRUE,,,,,OVC,600,,,,,,,IFR,,,,,,,,,,,,METAR,480.0
UIBB 270100Z 28002MPS 240V320 9999 NSC 08/03 Q1020 R30/210160 NOSIG RMK QFE722/0963,UIBB,2023-05-27T01:00:00Z,56.37,101.7,8.0,3.0,280,4,,6.21,30.11811,,,,,,TRUE,,,,,CLR,,,,,,,,VFR,,,,,,,,,,,,METAR,485.0
UIAA 270100Z 31002MPS 270V010 9999 SCT040CB 10/00 Q1016 R29/CLRD70 NOSIG RMK QFE703/0938,UIAA,2023-05-27T01:00:00Z,52.02,113.32,10.0,0.0,310,4,,6.21,30.0,,,,,,TRUE,,,,,SCT,4000,,,,,,,VFR,,,,,,,,,,,,METAR,650.0
UHWW 270100Z VRB01MPS 9999 NSC 20/13 Q1017 R25L/0///70 NOSIG RMK QFE762,UHWW,2023-05-27T01:00:00Z,43.4,132.15,20.0,13.0,0,2,,6.21,30.029528,,,,,,TRUE,,,,,CLR,,,,,,,,VFR,,,,,,,,,,,,METAR,11.0
UHSS 270100Z 16005MPS 9999 SCT023 16/11 Q1012 R19/70D NOSIG RMK MT OBSC QFE757/1010,UHSS,2023-05-27T01:00:00Z,46.88,142.72,16.0,11.0,160,10,,6.21,29.88189,,,,,,TRUE,,,,,SCT,2300,,,,,,,VFR,,,,,,,,,,,,METAR,14.0
UHPP 270100Z 30002MPS 9999 FEW050 16/03 Q1010 R16R/CLRD57 NOSIG RMK MT OBSC QFE755/1006,UHPP,2023-05-27T01:00:00Z,53.17,158.45,16.0,3.0,300,4,,6.21,29.822834,,,,,,TRUE,,,,,FEW,5000,,,,,,,VFR,,,,,,,,,,,,METAR,33.0
UHMM 270100Z 01004MPS 320V050 9999 SCT040 15/M01 Q1011 R10/70D NOSIG RMK QFE743 R28/01005MPS 330V040,UHMM,2023-05-27T01:00:00Z,59.92,150.72,15.0,-1.0,10,8,,6.21,29.852362,,,,,,TRUE,,,,,SCT,4000,,,,,,,VFR,,,,,,,,,,,,METAR,175.0
UHMA 270100Z 34007MPS 9999 BKN014 05/01 Q1000 R01/////// NOSIG RMK MID 33007MPS END R01/34007MPS MT OBSC QFE746/0995,UHMA,2023-05-27T01:00:00Z,64.73,177.73,5.0,1.0,340,14,,6.21,29.52756,,,,,,TRUE,,,,,BKN,1400,,,,,,,MVFR,,,,,,,,,,,,METAR,53.0
UHHH 270100Z 24008MPS 9999 FEW040 20/10 Q1010 R88/090060 NOSIG RMK QFE751/1002,UHHH,2023-05-27T01:00:00Z,48.52,135.18,20.0,10.0,240,16,,6.21,29.822834,,,,,,TRUE,,,,,FEW,4000,,,,,,,VFR,,,,,,,,,,,,METAR,74.0
UHBB 270100Z 28007G12MPS 9999 SCT033CB 14/01 Q1003 R36/090060 NOSIG RMK QFE735/0980,UHBB,2023-05-27T01:00:00Z,50.43,127.42,14.0,1.0,280,14,23,6.21,29.616142,,,,,,TRUE,,,,,SCT,3300,,,,,,,VFR,,,,,,,,,,,,METAR,185.0
UGTB 270100Z 29014KT CAVOK 16/12 Q1013 NOSIG,UGTB,2023-05-27T01:00:00Z,41.67,44.95,16.0,12.0,290,14,,6.21,29.911417,,,,,,TRUE,,,,,CAVOK,,,,,,,,VFR,,,,,,,,,,,,METAR,468.0
UGSB 270100Z 11002KT 9999 FEW010 OVC017 16/16 Q1013 NOSIG,UGSB,2023-05-27T01:00:00Z,41.62,41.6,16.0,16.0,110,2,,6.21,29.911417,,,,,,TRUE,,,,,FEW,1000,OVC,1700,,,,,MVFR,,,,,,,,,,,,METAR,32.0
UGMS 270100Z AUTO VRB02KT //// ////// 06/06 Q1020,UGMS,2023-05-27T01:00:00Z,43.05,42.75,6.0,6.0,0,2,,,30.11811,,,TRUE,,,,,,,,,,,,,,,,,,,,,,,,,,,,METAR,1442.0
UGKO 270100Z VRB02KT 5000 BR BKN013 14/14 Q1012 NOSIG,UGKO,2023-05-27T01:00:00Z,42.18,42.48,14.0,14.0,0,2,,3.11,29.88189,,,,,,TRUE,,,,BR,BKN,1300,,,,,,,MVFR,,,,,,,,,,,,METAR,44.0
UGAM 270100Z AUTO 10003KT 060V150 //// ////// 11/11 Q1015,UGAM,2023-05-27T01:00:00Z,42.53,43.13,11.0,11.0,100,3,,,29.970472,,,TRUE,,,,,,,,,,,,,,,,,,,,,,,,,,,,METAR,544.0
UERR 270100Z 36003MPS 9999 FEW040 11/M05 Q1024 R07/CLRD60 NOSIG RMK QFE737/0983,UERR,2023-05-27T01:00:00Z,62.53,114.05,11.0,-5.0,360,6,,6.21,30.236221,,,,,,TRUE,,,,,FEW,4000,,,,,,,VFR,,,,,,,,,,,,METAR,352.0
UERP 270100Z 28003MPS 9999 BKN017CB OVC100 04/00 Q1024 NOSIG RMK QFE724,UERP,2023-05-27T01:00:00Z,66.4,112.03,4.0,0.0,280,6,,6.21,30.236221,,,,,,TRUE,,,,,BKN,1700,OVC,10000,,,,,MVFR,,,,,,,,,,,,METAR,514.0
UEEE 270100Z 03005MPS CAVOK 09/M07 Q1015 R05/09//60 NOSIG RMK QFE752,UEEE,2023-05-27T01:00:00Z,62.08,129.77,9.0,-7.0,30,10,,6.21,29.970472,,,,,,TRUE,,,,,CAVOK,,,,,,,,VFR,,,,,,,,,,,,METAR,106.0
UDYZ 270100Z 05007KT 9999 SCT046 16/06 Q1015 NOSIG,UDYZ,2023-05-27T01:00:00Z,40.15,44.4,16.0,6.0,50,7,,6.21,29.970472,,,,,,TRUE,,,,,SCT,4600,,,,,,,VFR,,,,,,,,,,,,METAR,851.0
UDSG 270100Z 04002KT 9999 FEW049 06/05 Q1019 NOSIG,UDSG,2023-05-27T01:00:00Z,40.75,43.87,6.0,5.0,40,2,,6.21,30.088583,,,,,,TRUE,,,,,FEW,4900,,,,,,,VFR,,,,,,,,,,,,METAR,1515.0
UCFO 270100Z 11002MPS CAVOK 15/05 Q1015 NOSIG,UCFO,2023-05-27T01:00:00Z,40.6,72.8,15.0,5.0,110,4,,6.21,29.970472,,,,,,TRUE,,,,,CAVOK,,,,,,,,VFR,,,,,,,,,,,,METAR,881.0
UCFM 270100Z 13003MPS CAVOK 14/07 Q1014 NOSIG,UCFM,2023-05-27T01:00:00Z,43.07,74.48,14.0,7.0,130,6,,6.21,29.940945,,,,,,TRUE,,,,,CAVOK,,,,,,,,VFR,,,,,,,,,,,,METAR,632.0
UCFL 270100Z VRB01MPS 9999 NSC 11/04 Q1020,UCFL,2023-05-27T01:00:00Z,42.58,76.7,11.0,4.0,0,2,,6.21,30.11811,,,,,,,,,,,CLR,,,,,,,,VFR,,,,,,,,,,,,METAR,1654.0
UBBZ 270100Z AUTO 26002KT 220V300 9999 // NSC 17/13 Q1013,UBBZ,2023-05-27T01:00:00Z,39.1,46.73,17.0,13.0,260,2,,6.21,29.911417,,,TRUE,,,,,,,,CLR,,,,,,,,VFR,,,,,,,,,,,,METAR,489.0
UBBN 270100Z 06006KT 9999 SCT040CB BKN090 15/10 Q1014 NOSIG RMK MT OP QFE686,UBBN,2023-05-27T01:00:00Z,39.18,45.45,15.0,10.0,60,6,,6.21,29.940945,,,,,,TRUE,,,,,SCT,4000,BKN,9000,,,,,VFR,,,,,,,,,,,,METAR,857.0
UBBG 270100Z 23006KT 9999 SCT100 18/13 Q1011 NOSIG,UBBG,2023-05-27T01:00:00Z,40.73,46.32,18.0,13.0,230,6,,6.21,29.852362,,,,,,TRUE,,,,,SCT,10000,,,,,,,VFR,,,,,,,,,,,,METAR,333.0
UBBF 270100Z AUTO 30008KT 9999 // ///////// 16/12 Q1011,UBBF,2023-05-27T01:00:00Z,39.6,47.2,16.0,12.0,300,8,,6.21,29.852362,,,TRUE,,,,,,,,,,,,,,,,,,,,,,,,,,,,METAR,370.0
UBBB 270100Z 29010KT CAVOK 20/16 Q1007 NOSIG,UBBB,2023-05-27T01:00:00Z,40.47,50.07,20.0,16.0,290,10,,6.21,29.734253,,,,,,TRUE,,,,,CAVOK,,,,,,,,VFR,,,,,,,,,,,,METAR,94.0
UAUU 270100Z 00000MPS CAVOK 14/08 Q1022 NOSIG RMK QFE750/1000,UAUU,2023-05-27T01:00:00Z,53.2,63.55,14.0,8.0,0,0,,6.21,30.177166,,,,,,TRUE,,,,,CAVOK,,,,,,,,VFR,,,,,,,,,,,,METAR,177.0
UATT 270100Z 09002MPS CAVOK 13/07 Q1020 NOSIG RMK QFE745/0994,UATT,2023-05-27T01:00:00Z,50.25,57.2,13.0,7.0,90,4,,6.21,30.11811,,,,,,TRUE,,,,,CAVOK,,,,,,,,VFR,,,,,,,,,,,,METAR,217.0
UATG 270100Z 14007MPS CAVOK 25/07 Q1013 NOSIG RMK QFE762/1016,UATG,2023-05-27T01:00:00Z,47.12,51.83,25.0,7.0,140,14,,6.21,29.911417,,,,,,TRUE,,,,,CAVOK,,,,,,,,VFR,,,,,,,,,,,,METAR,-23.0
UATE 270100Z 09008MPS 9999 FEW063CB 25/06 Q1010 NOSIG RMK QFE755/1007,UATE,2023-05-27T01:00:00Z,43.87,51.1,25.0,6.0,90,16,,6.21,29.822834,,,,,,TRUE,,,,,FEW,6300,,,,,,,VFR,,,,,,,,,,,,METAR,21.0
UASS 270100Z 01003MPS 340V040 CAVOK 11/M02 Q1018 NOSIG RMK QFE745/0994,UASS,2023-05-27T01:00:00Z,50.35,80.23,11.0,-2.0,10,6,,6.21,30.059055,,,,,,TRUE,,,,,CAVOK,,,,,,,,VFR,,,,,,,,,,,,METAR,215.0
UASP 270100Z 03004MPS CAVOK 10/M01 Q1021 NOSIG RMK QFE755/1007,UASP,2023-05-27T01:00:00Z,52.2,77.07,10.0,-1.0,30,8,,6.21,30.147638,,,,,,TRUE,,,,,CAVOK,,,,,,,,VFR,,,,,,,,,,,,METAR,122.0
UASK 270100Z VRB01MPS 9999 NSC 08/M02 Q1016 NOSIG RMK QFE737/0982,UASK,2023-05-27T01:00:00Z,50.03,82.5,8.0,-2.0,0,2,,6.21,30.0,,,,,,TRUE,,,,,CLR,,,,,,,,VFR,,,,,,,,,,,,METAR,285.0
UARR 270100Z 15002MPS 9999 FEW050CB 16/07 Q1016 NOSIG RMK QFE758/1011,UARR,2023-05-27T01:00:00Z,51.15,51.53,16.0,7.0,150,4,,6.21,30.0,,,,,,TRUE,,,,,FEW,5000,,,,,,,VFR,,,,,,,,,,,,METAR,33.0
UAOO 270100Z 07004MPS 010V090 CAVOK 16/02 Q1014 NOSIG RMK QFE749/0998,UAOO,2023-05-27T01:00:00Z,44.7,65.6,16.0,2.0,70,8,,6.21,29.940945,,,,,,TRUE,,,,,CAVOK,,,,,,,,VFR,,,,,,,,,,,,METAR,130.0
UAKK 270100Z 07003MPS CAVOK 07/00 Q1019 NOSIG RMK QFE717/0956,UAKK,2023-05-27T01:00:00Z,49.68,73.35,7.0,0.0,70,6,,6.21,30.088583,,,,,,TRUE,,,,,CAVOK,,,,,,,,VFR,,,,,,,,,,,,METAR,532.0
UAIT 270100Z VRB01MPS CAVOK 17/04 Q1013 NOSIG RMK QFE735/0980,UAIT,2023-05-27T01:00:00Z,43.32,68.55,17.0,4.0,0,2,,6.21,29.911417,,,,,,TRUE,,,,,CAVOK,,,,,,,,VFR,,,,,,,,,,,,METAR,301.0
UAII 270100Z 12003MPS CAVOK 16/06 Q1013 NOSIG RMK QFE725/0966,UAII,2023-05-27T01:00:00Z,42.37,69.48,16.0,6.0,120,6,,6.21,29.911417,,,,,,TRUE,,,,,CAVOK,,,,,,,,VFR,,,,,,,,,,,,METAR,410.0
UADD 270100Z 19004MPS 9999 NSC 15/04 Q1014 NOSIG RMK QFE704/0939,UADD,2023-05-27T01:00:00Z,42.85,71.3,15.0,4.0,190,8,,6.21,29.940945,,,,,,TRUE,,,,,CLR,,,,,,,,VFR,,,,,,,,,,,,METAR,663.0
UACP 270100Z 25002MPS CAVOK 10/06 Q1022 NOSIG RMK QFE754/1006,UACP,2023-05-27T01:00:00Z,54.78,69.18,10.0,6.0,250,4,,6.21,30.177166,,,,,,TRUE,,,,,CAVOK,,,,,,,,VFR,,,,,,,,,,,,METAR,134.0
UACC 270100Z 06003MPS CAVOK 11/M01 Q1022 NOSIG RMK QFE735/0980,UACC,2023-05-27T01:00:00Z,51.02,71.47,11.0,-1.0,60,6,,6.21,30.177166,,,,,,TRUE,,,,,CAVOK,,,,,,,,VFR,,,,,,,,,,,,METAR,354.0
UAAH 270100Z 04005MPS 9999 SCT040CB 12/08 Q1015 NOSIG RMK QFE724/0966,UAAH,2023-05-27T01:00:00Z,46.9,75.0,12.0,8.0,40,10,,6.21,29.970472,,,,,,TRUE,,,,,SCT,4000,,,,,,,VFR,,,,,,,,,,,,METAR,427.0
UAAA 270100Z VRB01MPS 9999 FEW050 SCT100 16/06 Q1014 NOSIG,UAAA,2023-05-27T01:00:00Z,43.35,77.03,16.0,6.0,0,2,,6.21,29.940945,,,,,,TRUE,,,,,FEW,5000,SCT,10000,,,,,VFR,,,,,,,,,,,,METAR,673.0
TTPP 270100Z 13005KT 9999 FEW016 27/24 Q1013 NOSIG,TTPP,2023-05-27T01:00:00Z,10.58,-61.35,27.0,24.0,130,5,,6.21,29.911417,,,,,,TRUE,,,,,FEW,1600,,,,,,,VFR,,,,,,,,,,,,METAR,11.0
TTCP 270100Z 09009KT 9999 VCSH FEW018 27/25 Q1013 NOSIG RMK VCSH-NE,TTCP,2023-05-27T01:00:00Z,11.15,-60.85,27.0,25.0,90,9,,6.21,29.911417,,,,,,TRUE,,,,VCSH,FEW,1800,,,,,,,VFR,,,,,,,,,,,,METAR,13.0
TNCM 270100Z 08008KT 9999 SCT016 28/25 Q1017 NOSIG ,TNCM,2023-05-27T01:00:00Z,18.05,-63.12,28.0,25.0,80,8,,6.21,30.029528,,,,,,TRUE,,,,,SCT,1600,,,,,,,VFR,,,,,,,,,,,,METAR,9.0
TNCC 270100Z 09010KT 9999 FEW018 28/26 Q1011 NOSIG,TNCC,2023-05-27T01:00:00Z,12.2,-68.97,28.0,26.0,90,10,,6.21,29.852362,,,,,,TRUE,,,,,FEW,1800,,,,,,,VFR,,,,,,,,,,,,METAR,10.0
TNCA 270100Z 08012KT 9999 FEW018 28/26 Q1011 NOSIG,TNCA,2023-05-27T01:00:00Z,12.5,-70.0,28.0,26.0,80,12,,6.21,29.852362,,,,,,TRUE,,,,,FEW,1800,,,,,,,VFR,,,,,,,,,,,,METAR,7.0
TLPL 270100Z 10016KT 9999 SCT024 28/24 Q1015 NOSIG,TLPL,2023-05-27T01:00:00Z,13.75,-60.95,28.0,24.0,100,16,,6.21,29.970472,,,,,,TRUE,,,,,SCT,2400,,,,,,,VFR,,,,,,,,,,,,METAR,13.0
TKPK 270100Z 08010KT 9999 SCT019 27/23 Q1015,TKPK,2023-05-27T01:00:00Z,17.3,-62.72,27.0,23.0,80,10,,6.21,29.970472,,,,,,,,,,,SCT,1900,,,,,,,VFR,,,,,,,,,,,,METAR,62.0
TGPY 270100 09011KT 9999 FEW019 28/26 Q1013 NOSIG,TGPY,2023-05-27T01:00:00Z,12.0,-61.78,28.0,26.0,90,11,,6.21,29.911417,,,,,,TRUE,,,,,FEW,1900,,,,,,,VFR,,,,,,,,,,,,METAR,12.0
TFFR 270100Z AUTO 10004KT 9999 FEW017/// ///TCU 27/24 Q1015 TEMPO 12015G25KT 1000 TSRA FEW005 BKN010CB,TFFR,2023-05-27T01:00:00Z,16.27,-61.53,27.0,24.0,100,4,,6.21,29.970472,,,TRUE,,,,,,,,FEW,1700,,,,,,,VFR,,,,,,,,,,,,METAR,6.0
TFFF 270100Z AUTO 11008KT 9999 FEW018 27/24 Q1015 TEMPO 11015G25KT 2000 +SHRA SCT012CB BKN018TCU,TFFF,2023-05-27T01:00:00Z,14.6,-61.0,27.0,24.0,110,8,,6.21,29.970472,,,TRUE,,,,,,,,FEW,1800,,,,,,,VFR,,-1.5,,,,,,,,,,METAR,3.0
TBPB 270100Z 08012KT 9999 VCSH BKN016 SCT036 26/24 Q1014 NOSIG,TBPB,2023-05-27T01:00:00Z,13.07,-59.48,26.0,24.0,80,12,,6.21,29.940945,,,,,,TRUE,,,,VCSH,BKN,1600,SCT,3600,,,,,MVFR,,,,,,,,,,,,METAR,55.0
TAPA 270100Z 10008KT 050V150 9999 VCSH FEW020 26/24 Q1016 NOSIG,TAPA,2023-05-27T01:00:00Z,17.13,-61.78,26.0,24.0,100,8,,6.21,30.0,,,,,,TRUE,,,,VCSH,FEW,2000,,,,,,,VFR,,,,,,,,,,,,METAR,15.0
SYCJ 270100Z 04004KT 9999 FEW017CB SCT036 26/25 Q1013 NOSIG RMK CB SSW-W,SYCJ,2023-05-27T01:00:00Z,6.5,-58.25,26.0,25.0,40,4,,6.21,29.911417,,,,,,TRUE,,,,,FEW,1700,SCT,3600,,,,,VFR,,,,,,,,,,,,METAR,30.0
SULS 270100Z 28004KT 9999 BKN013 14/13 Q1013,SULS,2023-05-27T01:00:00Z,-34.87,-55.1,14.0,13.0,280,4,,6.21,29.911417,,,,,,,,,,,BKN,1300,,,,,,,MVFR,,,,,,,,,,,,METAR,22.0
SPZO 270100Z 29006KT 9999 NSC 09/05 Q1032 NOSIG RMK BIRD HAZARD RWY 10/28,SPZO,2023-05-27T01:00:00Z,-13.55,-71.93,9.0,5.0,290,6,,6.21,30.47244,,,,,,TRUE,,,,,CLR,,,,,,,,VFR,,,,,,,,,,,,METAR,3249.0
SPYL 270100Z 15015KT 9999 BKN050 24/21 Q1011 RMK BIRD HAZARD RWY 17/35 PP000,SPYL,2023-05-27T01:00:00Z,-4.57,-81.25,24.0,21.0,150,15,,6.21,29.852362,,,,,,,,,,,BKN,5000,,,,,,,VFR,,,,,,,,,,,,METAR,89.0
SPUR 270100Z 18011KT 9999 BKN035 26/21 Q1011 RMK BIRD HAZARD RWY 19/01 PP000,SPUR,2023-05-27T01:00:00Z,-5.17,-80.58,26.0,21.0,180,11,,6.21,29.852362,,,,,,,,,,,BKN,3500,,,,,,,VFR,,,,,,,,,,,,METAR,55.0
SPTN 270100Z 23005KT 9999 SCT020 OVC030 16/13 Q1017 RMK PP000,SPTN,2023-05-27T01:00:00Z,-18.03,-70.28,16.0,13.0,230,5,,6.21,30.029528,,,,,,,,,,,SCT,2000,OVC,3000,,,,,MVFR,,,,,,,,,,,,METAR,459.0
SPST 270100Z 22003KT 9999 FEW020 25/25 Q1011 RMK PP000,SPST,2023-05-27T01:00:00Z,-6.52,-76.37,25.0,25.0,220,3,,6.21,29.852362,,,,,,,,,,,FEW,2000,,,,,,,VFR,,,,,,,,,,,,METAR,282.0
SPSO 270100Z 21009KT 8000 NSC 20/17 Q1013 RMK PP000,SPSO,2023-05-27T01:00:00Z,-13.73,-76.22,20.0,17.0,210,9,,4.97,29.911417,,,,,,,,,,,CLR,,,,,,,,MVFR,,,,,,,,,,,,METAR,8.0
SPRU 270100Z 14008KT 5000 BR NSC 23/20 Q1012 RMK PP000,SPRU,2023-05-27T01:00:00Z,-8.08,-79.12,23.0,20.0,140,8,,3.11,29.88189,,,,,,,,,,BR,CLR,,,,,,,,MVFR,,,,,,,,,,,,METAR,23.0
SPQU 270100Z 10006KT CAVOK 13/03 Q1027 RMK PP000,SPQU,2023-05-27T01:00:00Z,-16.33,-71.57,13.0,3.0,100,6,,6.21,30.324802,,,,,,,,,,,CAVOK,,,,,,,,VFR,,,,,,,,,,,,METAR,2527.0
SPQT 270100Z VRB03KT 9000 VCTS SCT015 FEW025CB BKN100 24/22 Q1011 NOSIG RMK PP036,SPQT,2023-05-27T01:00:00Z,-3.78,-73.32,24.0,22.0,0,3,,5.59,29.852362,,,,,,TRUE,,,,VCTS,SCT,1500,FEW,2500,BKN,10000,,,VFR,,,,,,,,,,,,METAR,92.0
SPME 270100Z 25004KT 9999 BKN013 27/23 Q1010 RMK BIRD HAZARD RWY 32/14 PP000,SPME,2023-05-27T01:00:00Z,-3.55,-80.4,27.0,23.0,250,4,,6.21,29.822834,,,,,,,,,,,BKN,1300,,,,,,,MVFR,,,,,,,,,,,,METAR,26.0
SPJC 270100Z 15014KT 9999 BKN022 22/17 Q1013 NOSIG RMK PP000,SPJC,2023-05-27T01:00:00Z,-12.02,-77.12,22.0,17.0,150,14,,6.21,29.911417,,,,,,TRUE,,,,,BKN,2200,,,,,,,MVFR,,,,,,,,,,,,METAR,26.0
SPHI 270100Z 17013KT 9999 FEW016 23/21 Q1012 RMK BIRD HAZARD RWY 19/01 PP000,SPHI,2023-05-27T01:00:00Z,-6.78,-79.82,23.0,21.0,170,13,,6.21,29.88189,,,,,,,,,,,FEW,1600,,,,,,,VFR,,,,,,,,,,,,METAR,33.0
SPCL 270100Z 04003KT 9999 SCT020 27/23 Q1011 RMK PP000,SPCL,2023-05-27T01:00:00Z,-8.38,-74.58,27.0,23.0,40,3,,6.21,29.852362,,,,,,,,,,,SCT,2000,,,,,,,VFR,,,,,,,,,,,,METAR,154.0
SOCA 270100Z AUTO 16003KT 100V200 9999 FEW012/// SCT018/// BKN029/// ///TCU 24/24 Q1013 TEMPO 2000 SHRA BKN005 FEW012CB BKN018TCU,SOCA,2023-05-27T01:00:00Z,4.82,-52.37,24.0,24.0,160,3,,6.21,29.911417,,,TRUE,,,,,,,,FEW,1200,SCT,1800,BKN,2900,,,MVFR,,,,,,,,,,,,METAR,7.0
SMJP 270100Z 00000KT 9999 -SHRA FEW008 FEW015CB BKN020 25/24 Q1013 NOSIG,SMJP,2023-05-27T01:00:00Z,5.45,-55.18,25.0,24.0,0,0,,6.21,29.911417,,,,,,TRUE,,,,-SHRA,FEW,800,FEW,1500,BKN,2000,,,MVFR,,,,,,,,,,,,METAR,14.0
SLVR 270100Z 34010KT 9999 NSC 25/23 Q1010,SLVR,2023-05-27T01:00:00Z,-17.63,-63.13,25.0,23.0,340,10,,6.21,29.822834,,,,,,,,,,,CLR,,,,,,,,VFR,,,,,,,,,,,,METAR,377.0
SLTJ 270100Z 00000KT 9999 NSC 17/03 Q1017,SLTJ,2023-05-27T01:00:00Z,-21.55,-64.72,17.0,3.0,0,0,,6.21,30.029528,,,,,,,,,,,CLR,,,,,,,,VFR,,,,,,,,,,,,METAR,1850.0
SLLP 270100Z 06008KT 9999 SCT070 BKN200 05/02 Q1037,SLLP,2023-05-27T01:00:00Z,-16.52,-68.17,5.0,2.0,60,8,,6.21,30.620079,,,,,,,,,,,SCT,7000,BKN,20000,,,,,VFR,,,,,,,,,,,,METAR,4061.0
SLCB 270100Z 12004KT 9999 NSC 17/05 Q1022,SLCB,2023-05-27T01:00:00Z,-17.42,-66.18,17.0,5.0,120,4,,6.21,30.177166,,,,,,,,,,,CLR,,,,,,,,VFR,,,,,,,,,,,,METAR,2560.0
SLAL 270100Z 35003KT 9999 NSC 12/M05 Q1029,SLAL,2023-05-27T01:00:00Z,-19.23,-65.15,12.0,-5.0,350,3,,6.21,30.383858,,,,,,,,,,,CLR,,,,,,,,VFR,,,,,,,,,,,,METAR,3109.0
SKVP 270100Z 05009KT 8000 -DZ SCT015 SCT070 26/25 Q1013 RMK A2992,SKVP,2023-05-27T01:00:00Z,10.43,-73.25,26.0,25.0,50,9,,4.97,29.911417,,,,,,,,,,-DZ,SCT,1500,SCT,7000,,,,,MVFR,,,,,,,,,,,,METAR,137.0
SKUI 270100Z 00000KT 9999 SCT035 OVC100 26/25 Q1009 RMK A2980,SKUI,2023-05-27T01:00:00Z,5.68,-76.63,26.0,25.0,0,0,,6.21,29.793306,,,,,,,,,,,SCT,3500,OVC,10000,,,,,VFR,,,,,,,,,,,,METAR,55.0
SKUC 270100Z 00000KT 9999 FEW023 26/25 Q1011 RMK A2985,SKUC,2023-05-27T01:00:00Z,7.07,-70.73,26.0,25.0,0,0,,6.21,29.852362,,,,,,,,,,,FEW,2300,,,,,,,VFR,,,,,,,,,,,,METAR,127.0
SKSP 270100Z 09004KT 070V170 9999 FEW018 29/23 Q1010 RMK A2984,SKSP,2023-05-27T01:00:00Z,12.58,-81.72,29.0,23.0,90,4,,6.21,29.822834,,,,,,,,,,,FEW,1800,,,,,,,VFR,,,,,,,,,,,,METAR,6.0
SKSM 270100Z 03003KT 8000 -DZ SCT015 BKN080 27/26 Q1011 RMK A2988,SKSM,2023-05-27T01:00:00Z,11.12,-74.22,27.0,26.0,30,3,,4.97,29.852362,,,,,,,,,,-DZ,SCT,1500,BKN,8000,,,,,MVFR,,,,,,,,,,,,METAR,5.0
SKRG 270100Z 33003KT 9999 BKN010 16/15 Q1026 NOSIG RMK A3032,SKRG,2023-05-27T01:00:00Z,6.17,-75.42,16.0,15.0,330,3,,6.21,30.295275,,,,,,TRUE,,,,,BKN,1000,,,,,,,MVFR,,,,,,,,,,,,METAR,2132.0
SKPE 270100Z VRB02KT 9999 FEW017 SCT080 20/19 Q1018 RMK A3007,SKPE,2023-05-27T01:00:00Z,4.82,-75.73,20.0,19.0,0,2,,6.21,30.059055,,,,,,,,,,,FEW,1700,SCT,8000,,,,,VFR,,,,,,,,,,,,METAR,1341.0
SKPC 270100Z 18004KT 9999 FEW020 28/26 Q1010 RMK A2984,SKPC,2023-05-27T01:00:00Z,6.18,-67.5,28.0,26.0,180,4,,6.21,29.822834,,,,,,,,,,,FEW,2000,,,,,,,VFR,,,,,,,,,,,,METAR,51.0
SKNV 270100Z VRB02KT 9999 FEW030 SCT110 24/22 Q1012 RMK A2991,SKNV,2023-05-27T01:00:00Z,2.93,-75.28,24.0,22.0,0,2,,6.21,29.88189,,,,,,,,,,,FEW,3000,SCT,11000,,,,,VFR,,,,,,,,,,,,METAR,449.0
SKMR 270100Z 00000KT 9999 FEW025 BKN090 26/25 Q1010 RMK A2984,SKMR,2023-05-27T01:00:00Z,8.82,-75.83,26.0,25.0,0,0,,6.21,29.822834,,,,,,,,,,,FEW,2500,BKN,9000,,,,,VFR,,,,,,,,,,,,METAR,12.0
SKLT 270100Z 00000KT 9999 SCT015 25/25 Q1011 RMK A2986,SKLT,2023-05-27T01:00:00Z,-4.2,-69.93,25.0,25.0,0,0,,6.21,29.852362,,,,,,,,,,,SCT,1500,,,,,,,VFR,,,,,,,,,,,,METAR,78.0
SKLC 270100Z VRB02KT 9999 FEW015 BKN090 27/26 Q1010 RMK A2984,SKLC,2023-05-27T01:00:00Z,7.82,-76.72,27.0,26.0,0,2,,6.21,29.822834,,,,,,,,,,,FEW,1500,BKN,9000,,,,,VFR,,,,,,,,,,,,METAR,20.0
SKIB 270100Z 30004KT 2000 BR BKN002 20/20 Q1019 RMK A3009,SKIB,2023-05-27T01:00:00Z,4.42,-75.12,20.0,20.0,300,4,,1.24,30.088583,,,,,,,,,,BR,BKN,200,,,,,,,LIFR,,,,,,,,,,,,METAR,899.0
SKCL 270100Z VRB02KT 8000 FEW020 SCT300 21/20 Q1016 NOSIG RMK HZ A3000,SKCL,2023-05-27T01:00:00Z,3.53,-76.37,21.0,20.0,0,2,,4.97,30.0,,,,,,TRUE,,,,,FEW,2000,SCT,30000,,,,,MVFR,,,,,,,,,,,,METAR,967.0
SKCG 270100Z 33005KT 9999 FEW017TCU BKN090 29/26 Q1010 RMK A2984,SKCG,2023-05-27T01:00:00Z,10.43,-75.52,29.0,26.0,330,5,,6.21,29.822834,,,,,,,,,,,FEW,1700,BKN,9000,,,,,VFR,,,,,,,,,,,,METAR,6.0
SKCC 270100Z VRB02KT 9999 FEW023 27/23 Q1014 RMK A2994,SKCC,2023-05-27T01:00:00Z,7.92,-72.52,27.0,23.0,0,2,,6.21,29.940945,,,,,,,,,,,FEW,2300,,,,,,,VFR,,,,,,,,,,,,METAR,308.0
SKBQ 270100Z 27004KT 240V300 8000 TS VCSH BKN010CB SCT100 26/25 Q1011 NOSIG RMK CB VCSH/NE/SW A2987,SKBQ,2023-05-27T01:00:00Z,10.87,-74.77,26.0,25.0,270,4,,4.97,29.852362,,,,,,TRUE,,,,TS VCSH,BKN,1000,SCT,10000,,,,,MVFR,,,,,,,,,,,,METAR,23.0
SKBO 270100Z 33003KT 9999 FEW020 SCT090 12/11 Q1027 NOSIG RMK A3035,SKBO,2023-05-27T01:00:00Z,4.7,-74.15,12.0,11.0,330,3,,6.21,30.324802,,,,,,TRUE,,,,,FEW,2000,SCT,9000,,,,,VFR,,,,,,,,,,,,METAR,2547.0
SKBG 270100Z 31005KT 9999 SCT010 SCT070 21/19 Q1016 RMK A3002,SKBG,2023-05-27T01:00:00Z,7.13,-73.18,21.0,19.0,310,5,,6.21,30.0,,,,,,,,,,,SCT,1000,SCT,7000,,,,,VFR,,,,,,,,,,,,METAR,1187.0
SKAR 270100Z 00000KT 9999 SCT025 20/18 Q1017 RMK A3003,SKAR,2023-05-27T01:00:00Z,4.45,-75.77,20.0,18.0,0,0,,6.21,30.029528,,,,,,,,,,,SCT,2500,,,,,,,VFR,,,,,,,,,,,,METAR,1214.0
SGES 270100Z 06006KT CAVOK 22/20 Q1012,SGES,2023-05-27T01:00:00Z,-25.45,-54.85,22.0,20.0,60,6,,6.21,29.88189,,,,,,,,,,,CAVOK,,,,,,,,VFR,,,,,,,,,,,,METAR,256.0
SGAS 270100Z 05005KT CAVOK 24/21 Q1008,SGAS,2023-05-27T01:00:00Z,-25.25,-57.52,24.0,21.0,50,5,,6.21,29.763779,,,,,,,,,,,CAVOK,,,,,,,,VFR,,,,,,,,,,,,METAR,83.0
SERO 270100Z 00000KT 9999 OVC020 27/25 Q1010,SERO,2023-05-27T01:00:00Z,-3.43,-79.98,27.0,25.0,0,0,,6.21,29.822834,,,,,,,,,,,OVC,2000,,,,,,,MVFR,,,,,,,,,,,,METAR,6.0
SEQM 270100Z 04004KT 9999 FEW010 BKN080 15/13 Q1027 NOSIG RMK A3033,SEQM,2023-05-27T01:00:00Z,-0.12,-78.35,15.0,13.0,40,4,,6.21,30.324802,,,,,,TRUE,,,,,FEW,1000,BKN,8000,,,,,VFR,,,,,,,,,,,,METAR,2386.0
SEMT 270100Z 21010KT 9999 FEW020 27/24 Q1010 RMK A2984,SEMT,2023-05-27T01:00:00Z,-0.95,-80.67,27.0,24.0,210,10,,6.21,29.822834,,,,,,,,,,,FEW,2000,,,,,,,VFR,,,,,,,,,,,,METAR,13.0
SELT 270100Z 20006KT 9999 FEW030 12/10 Q1030,SELT,2023-05-27T01:00:00Z,-0.92,-78.62,12.0,10.0,200,6,,6.21,30.413385,,,,,,,,,,,FEW,3000,,,,,,,VFR,,,,,,,,,,,,METAR,2779.0
SEGU 270100Z 21012KT 9999 FEW026 SCT100 28/25 Q1008 NOSIG RMK A2979,SEGU,2023-05-27T01:00:00Z,-2.15,-79.88,28.0,25.0,210,12,,6.21,29.763779,,,,,,TRUE,,,,,FEW,2600,SCT,10000,,,,,VFR,,,,,,,,,,,,METAR,6.0
SECU 270100Z 10003KT 9999 BKN033 16/11 Q1026,SECU,2023-05-27T01:00:00Z,-2.88,-78.98,16.0,11.0,100,3,,6.21,30.295275,,,,,,,,,,,BKN,3300,,,,,,,VFR,,,,,,,,,,,,METAR,2516.0
SCVM 270100Z 14004KT 100V180 9999 BKN090 15/06 Q1019,SCVM,2023-05-27T01:00:00Z,-32.95,-71.48,15.0,6.0,140,4,,6.21,30.088583,,,,,,,,,,,BKN,9000,,,,,,,VFR,,,,,,,,,,,,METAR,136.0
SCVD 270100Z AUTO 35004KT 330V030 9999 NCD 04/04 Q1027,SCVD,2023-05-27T01:00:00Z,-39.65,-73.08,4.0,4.0,350,4,,6.21,30.324802,,,TRUE,,,,,,,,CLR,,,,,,,,VFR,,,,,,,,,,,,METAR,19.0
SCTN 270100Z AUTO 09006KT 9999 FEW038 03/03 Q1027,SCTN,2023-05-27T01:00:00Z,-42.92,-72.7,3.0,3.0,90,6,,6.21,30.324802,,,TRUE,,,,,,,,FEW,3800,,,,,,,VFR,,,,,,,,,,,,METAR,8.0
SCTE 270100Z 00000KT 8000 3000N BR SCT040 01/01 Q1027 NOSIG,SCTE,2023-05-27T01:00:00Z,-41.43,-73.08,1.0,1.0,0,0,,4.97,30.324802,,,,,,TRUE,,,,BR,SCT,4000,,,,,,,MVFR,,,,,,,,,,,,METAR,85.0
SCSN 270100Z AUTO 25004KT 210V270 9999 NCD 12/09 Q1020,SCSN,2023-05-27T01:00:00Z,-33.65,-71.62,12.0,9.0,250,4,,6.21,30.11811,,,TRUE,,,,,,,,CLR,,,,,,,,VFR,,,,,,,,,,,,METAR,73.0
SCSE 270100Z 10005KT CAVOK 14/10 Q1017,SCSE,2023-05-27T01:00:00Z,-29.92,-71.2,14.0,10.0,100,5,,6.21,30.029528,,,,,,,,,,,CAVOK,,,,,,,,VFR,,,,,,,,,,,,METAR,141.0
SCQP 270100Z 05001KT 2500 BR SCT007 02/02 Q1027,SCQP,2023-05-27T01:00:00Z,-38.92,-72.65,2.0,2.0,50,1,,1.55,30.324802,,,,,,,,,,BR,SCT,700,,,,,,,IFR,,,,,,,,,,,,METAR,97.0
SCPQ 270100Z AUTO 00000KT CAVOK 00/M00 Q1026,SCPQ,2023-05-27T01:00:00Z,-42.33,-73.72,0.0,0.0,0,0,,6.21,30.295275,,,TRUE,,,,,,,,CAVOK,,,,,,,,VFR,,,,,,,,,,,,METAR,166.0
SCON 270100Z AUTO VRB01KT 9999 FEW250/// 01/00 Q1027,SCON,2023-05-27T01:00:00Z,-43.13,-73.62,1.0,0.0,0,1,,6.21,30.324802,,,TRUE,,,,,,,,FEW,25000,,,,,,,VFR,,,,,,,,,,,,METAR,11.0
SCIP 270100Z 33015KT 9999 FEW015 SCT033 21/19 Q1015 RESHRA NOSIG,SCIP,2023-05-27T01:00:00Z,-27.17,-109.43,21.0,19.0,330,15,,6.21,29.970472,,,,,,TRUE,,,,,FEW,1500,SCT,3300,,,,,VFR,,,,,,,,,,,,METAR,48.0
SCIE 270100Z 20006KT CAVOK 09/07 Q1025,SCIE,2023-05-27T01:00:00Z,-36.77,-73.07,9.0,7.0,200,6,,6.21,30.265747,,,,,,,,,,,CAVOK,,,,,,,,VFR,,,,,,,,,,,,METAR,8.0
SCIC 270100Z AUTO 18006KT 130V230 //// R/////// // NCD 12/11 Q1022,SCIC,2023-05-27T01:00:00Z,-34.97,-71.22,12.0,11.0,180,6,,,30.177166,,,TRUE,,,,,,,,CLR,,,,,,,,,,,,,,,,,,,,METAR,230.0
SCHR 270100Z AUTO 27011KT CAVOK 02/M05 Q1020,SCHR,2023-05-27T01:00:00Z,-47.23,-72.58,2.0,-5.0,270,11,,6.21,30.11811,,,TRUE,,,,,,,,CAVOK,,,,,,,,VFR,,,,,,,,,,,,METAR,203.0
SCFA 270100Z 20007KT 9999 BKN012 OVC017 16/13 Q1015 NOSIG,SCFA,2023-05-27T01:00:00Z,-23.43,-70.43,16.0,13.0,200,7,,6.21,29.970472,,,,,,TRUE,,,,,BKN,1200,OVC,1700,,,,,MVFR,,,,,,,,,,,,METAR,113.0
SCEL 270100Z 19005KT 9999 OVC170 12/06 Q1021 NOSIG,SCEL,2023-05-27T01:00:00Z,-33.38,-70.78,12.0,6.0,190,5,,6.21,30.147638,,,,,,TRUE,,,,,OVC,17000,,,,,,,VFR,,,,,,,,,,,,METAR,478.0
SCDA 270100Z 21008KT 9999 OVC027 19/14 Q1015,SCDA,2023-05-27T01:00:00Z,-20.53,-70.17,19.0,14.0,210,8,,6.21,29.970472,,,,,,,,,,,OVC,2700,,,,,,,MVFR,,,,,,,,,,,,METAR,41.0
SCCY 270100Z AUTO VRB02KT CAVOK M01/M04 Q1022,SCCY,2023-05-27T01:00:00Z,-45.58,-72.1,-1.0,-4.0,0,2,,6.21,30.177166,,,TRUE,,,,,,,,CAVOK,,,,,,,,VFR,,,,,,,,,,,,METAR,301.0
SCCI 270100Z 26013KT 9999 SCT040 03/M02 Q1010 NOSIG,SCCI,2023-05-27T01:00:00Z,-53.0,-70.85,3.0,-2.0,260,13,,6.21,29.822834,,,,,,TRUE,,,,,SCT,4000,,,,,,,VFR,,,,,,,,,,,,METAR,37.0
SCCH 270100Z 16003KT 9999 SCT030 08/06 Q1024,SCCH,2023-05-27T01:00:00Z,-36.57,-72.02,8.0,6.0,160,3,,6.21,30.236221,,,,,,,,,,,SCT,3000,,,,,,,VFR,,,,,,,,,,,,METAR,148.0
SCCF 270100Z AUTO 08008KT 9999 BKN230/// 13/M13 Q1027,SCCF,2023-05-27T01:00:00Z,-22.5,-68.9,13.0,-13.0,80,8,,6.21,30.324802,,,TRUE,,,,,,,,BKN,23000,,,,,,,VFR,,,,,,,,,,,,METAR,2290.0
SCBA 270100Z AUTO 28014KT 9999 NCD M02/M04 Q1019,SCBA,2023-05-27T01:00:00Z,-45.92,-71.68,-2.0,-4.0,280,14,,6.21,30.088583,,,TRUE,,,,,,,,CLR,,,,,,,,VFR,,,,,,,,,,,,METAR,516.0
SCAT 270100Z 34004KT 7000 NSC 12/10 Q1016,SCAT,2023-05-27T01:00:00Z,-27.27,-70.77,12.0,10.0,340,4,,4.35,30.0,,,,,,,,,,,CLR,,,,,,,,MVFR,,,,,,,,,,,,METAR,209.0
SCAR 270100Z 20007KT 9999 OVC029 19/14 Q1016,SCAR,2023-05-27T01:00:00Z,-18.35,-70.33,19.0,14.0,200,7,,6.21,30.0,,,,,,,,,,,OVC,2900,,,,,,,MVFR,,,,,,,,,,,,METAR,57.0
SCAP 270100Z AUTO /////KT ///V/// //// // ////// ///// Q////,SCAP,2023-05-27T01:00:00Z,-43.62,-71.8,,,,,,,,,,TRUE,,,,,,,,,,,,,,,,,,,,,,,,,,,,METAR,252.0
SBYS 270100Z 15003KT CAVOK 15/13 Q1020,SBYS,2023-05-27T01:00:00Z,-21.97,-47.33,15.0,13.0,150,3,,6.21,30.11811,,,,,,,,,,,CAVOK,,,,,,,,VFR,,,,,,,,,,,,METAR,600.0
SBVT 270100Z 32003KT 9999 FEW026 20/19 Q1021,SBVT,2023-05-27T01:00:00Z,-20.25,-40.28,20.0,19.0,320,3,,6.21,30.147638,,,,,,,,,,,FEW,2600,,,,,,,VFR,,,,,,,,,,,,METAR,4.0
SBUR 270100Z 06006KT CAVOK 21/13 Q1021,SBUR,2023-05-27T01:00:00Z,-19.77,-47.97,21.0,13.0,60,6,,6.21,30.147638,,,,,,,,,,,CAVOK,,,,,,,,VFR,,,,,,,,,,,,METAR,807.0
SBUL 270100Z 08005KT CAVOK 19/13 Q1021,SBUL,2023-05-27T01:00:00Z,-18.87,-48.22,19.0,13.0,80,5,,6.21,30.147638,,,,,,,,,,,CAVOK,,,,,,,,VFR,,,,,,,,,,,,METAR,945.0
SBUA 270100Z 00000KT 9999 VCTS SCT030 FEW035CB 26/24 Q1011,SBUA,2023-05-27T01:00:00Z,-0.15,-66.98,26.0,24.0,0,0,,6.21,29.852362,,,,,,,,,,VCTS,SCT,3000,FEW,3500,,,,,VFR,,,,,,,,,,,,METAR,73.0
SBTU 270100Z AUTO 36002KT 9999 BKN049 ///// Q1014,SBTU,2023-05-27T01:00:00Z,-3.78,-49.72,,,360,2,,6.21,29.940945,,,TRUE,,,,,,,,BKN,4900,,,,,,,VFR,,,,,,,,,,,,SPECI,250.0
SBTF 270100Z 00000KT 9999 SCT010 SCT070 25/24 Q1011,SBTF,2023-05-27T01:00:00Z,-3.37,-64.72,25.0,24.0,0,0,,6.21,29.852362,,,,,,,,,,,SCT,1000,SCT,7000,,,,,VFR,,,,,,,,,,,,METAR,55.0
SBTE 270100Z 02003KT CAVOK 27/24 Q1012,SBTE,2023-05-27T01:00:00Z,-5.05,-42.82,27.0,24.0,20,3,,6.21,29.88189,,,,,,,,,,,CAVOK,,,,,,,,VFR,,,,,,,,,,,,METAR,60.0
SBTA 270100Z 07005KT 7000 NSC 19/15 Q1020,SBTA,2023-05-27T01:00:00Z,-23.03,-45.5,19.0,15.0,70,5,,4.35,30.11811,,,,,,,,,,,CLR,,,,,,,,MVFR,,,,,,,,,,,,METAR,578.0
SBSV 270100Z 12012KT 090V160 9999 VCSH FEW012 BKN020 BKN060 26/24 Q1016,SBSV,2023-05-27T01:00:00Z,-12.9,-38.32,26.0,24.0,120,12,,6.21,30.0,,,,,,,,,,VCSH,FEW,1200,BKN,2000,BKN,6000,,,MVFR,,,,,,,,,,,,METAR,9.0
SBSR 270100Z 00000KT CAVOK 22/14 Q1018,SBSR,2023-05-27T01:00:00Z,-20.8,-49.4,22.0,14.0,0,0,,6.21,30.059055,,,,,,,,,,,CAVOK,,,,,,,,VFR,,,,,,,,,,,,METAR,537.0
SBSP 270100Z 07004KT 030V110 CAVOK 21/13 Q1022,SBSP,2023-05-27T01:00:00Z,-23.62,-46.65,21.0,13.0,70,4,,6.21,30.177166,,,,,,,,,,,CAVOK,,,,,,,,VFR,,,,,,,,,,,,METAR,802.0
SBSN 270100Z 03002KT CAVOK 26/26 Q1011,SBSN,2023-05-27T01:00:00Z,-2.42,-54.78,26.0,26.0,30,2,,6.21,29.852362,,,,,,,,,,,CAVOK,,,,,,,,VFR,,,,,,,,,,,,METAR,57.0
SBSM 270100Z 01008KT 9000 RA SCT006 SCT023 OVC070 19/18 Q1014,SBSM,2023-05-27T01:00:00Z,-29.72,-53.7,19.0,18.0,10,8,,5.59,29.940945,,,,,,,,,,RA,SCT,600,SCT,2300,OVC,7000,,,VFR,,,,,,,,,,,,METAR,86.0
SBSL 270100Z 06003KT 9999 FEW017 27/26 Q1013,SBSL,2023-05-27T01:00:00Z,-2.58,-44.23,27.0,26.0,60,3,,6.21,29.911417,,,,,,,,,,,FEW,1700,,,,,,,VFR,,,,,,,,,,,,METAR,53.0
SBSJ 270100Z 07004KT 040V100 CAVOK 20/15 Q1021,SBSJ,2023-05-27T01:00:00Z,-23.22,-45.87,20.0,15.0,70,4,,6.21,30.147638,,,,,,,,,,,CAVOK,,,,,,,,VFR,,,,,,,,,,,,METAR,640.0
SBSG 270100Z 17004KT 9999 SCT021 BKN060 24/23 Q1014,SBSG,2023-05-27T01:00:00Z,-5.77,-35.37,24.0,23.0,170,4,,6.21,29.940945,,,,,,,,,,,SCT,2100,BKN,6000,,,,,VFR,,,,,,,,,,,,METAR,83.0
SBSC 270100Z 01003KT CAVOK 21/19 Q1019,SBSC,2023-05-27T01:00:00Z,-22.92,-43.72,21.0,19.0,10,3,,6.21,30.088583,,,,,,,,,,,CAVOK,,,,,,,,VFR,,,,,,,,,,,,METAR,6.0
SBRP 270100Z 16006KT CAVOK 19/13 Q1019,SBRP,2023-05-27T01:00:00Z,-21.13,-47.77,19.0,13.0,160,6,,6.21,30.088583,,,,,,,,,,,CAVOK,,,,,,,,VFR,,,,,,,,,,,,METAR,550.0
SBRJ 270100Z 12007KT CAVOK 23/19 Q1019,SBRJ,2023-05-27T01:00:00Z,-22.9,-43.17,23.0,19.0,120,7,,6.21,30.088583,,,,,,,,,,,CAVOK,,,,,,,,VFR,,,,,,,,,,,,METAR,6.0
SBRF 270100Z 16008KT 9999 VCSH FEW015 SCT023 BKN060 26/23 Q1014,SBRF,2023-05-27T01:00:00Z,-8.13,-34.92,26.0,23.0,160,8,,6.21,29.940945,,,,,,,,,,VCSH,FEW,1500,SCT,2300,BKN,6000,,,VFR,,,,,,,,,,,,METAR,10.0
SBRB 270100Z 06003KT 9999 VCTS FEW030 FEW035CB SCT080 25/25 Q1012,SBRB,2023-05-27T01:00:00Z,-9.87,-67.88,25.0,25.0,60,3,,6.21,29.88189,,,,,,,,,,VCTS,FEW,3000,FEW,3500,SCT,8000,,,VFR,,,,,,,,,,,,METAR,190.0
SBPV 270100Z 35001KT 9999 FEW035 FEW040TCU 25/24 Q1011,SBPV,2023-05-27T01:00:00Z,-8.72,-63.9,25.0,24.0,350,1,,6.21,29.852362,,,,,,,,,,,FEW,3500,FEW,4000,,,,,VFR,,,,,,,,,,,,METAR,89.0
SBPS 270100Z 23004KT 170V290 9999 SCT020 BKN080 22/20 Q1019,SBPS,2023-05-27T01:00:00Z,-16.43,-39.07,22.0,20.0,230,4,,6.21,30.088583,,,,,,,,,,,SCT,2000,BKN,8000,,,,,VFR,,,,,,,,,,,,METAR,44.0
SBPL 270100Z 17005KT CAVOK 25/22 Q1016,SBPL,2023-05-27T01:00:00Z,-9.37,-40.57,25.0,22.0,170,5,,6.21,30.0,,,,,,,,,,,CAVOK,,,,,,,,VFR,,,,,,,,,,,,METAR,386.0
SBPJ 270100Z 09003KT CAVOK 26/21 Q1014,SBPJ,2023-05-27T01:00:00Z,-10.28,-48.37,26.0,21.0,90,3,,6.21,29.940945,,,,,,,,,,,CAVOK,,,,,,,,VFR,,,,,,,,,,,,METAR,226.0
SBPA 270100Z 10002KT CAVOK 22/18 Q1011,SBPA,2023-05-27T01:00:00Z,-30.0,-51.17,22.0,18.0,100,2,,6.21,29.852362,,,,,,,,,,,CAVOK,,,,,,,,VFR,,,,,,,,,,,,METAR,3.0
SBNT 270100Z 15008KT 9999 SCT023 SCT050 BKN080 25/24 Q1013,SBNT,2023-05-27T01:00:00Z,-5.92,-35.25,25.0,24.0,150,8,,6.21,29.911417,,,,,,,,,,,SCT,2300,SCT,5000,BKN,8000,,,VFR,,,,,,,,,,,,METAR,51.0
SBNF 270100Z 04005KT 9999 FEW008 SCT010 BKN024 23/21 Q1017,SBNF,2023-05-27T01:00:00Z,-26.88,-48.65,23.0,21.0,40,5,,6.21,30.029528,,,,,,,,,,,FEW,800,SCT,1000,BKN,2400,,,MVFR,,,,,,,,,,,,METAR,5.0
SBMT 270100Z 10004KT CAVOK 19/14 Q1021,SBMT,2023-05-27T01:00:00Z,-23.52,-46.63,19.0,14.0,100,4,,6.21,30.147638,,,,,,,,,,,CAVOK,,,,,,,,VFR,,,,,,,,,,,,METAR,722.0
SBMQ 270100Z 06007KT 9999 VCTS FEW020CB 28/26 Q1012,SBMQ,2023-05-27T01:00:00Z,0.05,-51.07,28.0,26.0,60,7,,6.21,29.88189,,,,,,,,,,VCTS,FEW,2000,,,,,,,VFR,,,,,,,,,,,,METAR,15.0
SBMN 270100Z 02003KT CAVOK 28/24 Q1011,SBMN,2023-05-27T01:00:00Z,-3.13,-59.98,28.0,24.0,20,3,,6.21,29.852362,,,,,,,,,,,CAVOK,,,,,,,,VFR,,,,,,,,,,,,METAR,71.0
SBMK 270100Z 00000KT CAVOK 19/15 Q1021,SBMK,2023-05-27T01:00:00Z,-16.7,-43.82,19.0,15.0,0,0,,6.21,30.147638,,,,,,,,,,,CAVOK,,,,,,,,VFR,,,,,,,,,,,,METAR,665.0
SBMG 270100Z 08012KT CAVOK 23/15 Q1016,SBMG,2023-05-27T01:00:00Z,-23.48,-52.02,23.0,15.0,80,12,,6.21,30.0,,,,,,,,,,,CAVOK,,,,,,,,VFR,,,,,,,,,,,,METAR,543.0
SBME 270100Z 01003KT CAVOK 20/19 Q1021,SBME,2023-05-27T01:00:00Z,-22.35,-41.77,20.0,19.0,10,3,,6.21,30.147638,,,,,,,,,,,CAVOK,,,,,,,,VFR,,,,,,,,,,,,METAR,2.0
SBMA 270100Z 00000KT CAVOK 25/25 Q1012,SBMA,2023-05-27T01:00:00Z,-5.37,-49.13,25.0,25.0,0,0,,6.21,29.88189,,,,,,,,,,,CAVOK,,,,,,,,VFR,,,,,,,,,,,,METAR,110.0
SBLS 270100Z 12007KT CAVOK 18/13 Q1023,SBLS,2023-05-27T01:00:00Z,-19.67,-43.88,18.0,13.0,120,7,,6.21,30.206694,,,,,,,,,,,CAVOK,,,,,,,,VFR,,,,,,,,,,,,METAR,850.0
SBLO 270100Z 13001KT CAVOK 21/16 Q1018,SBLO,2023-05-27T01:00:00Z,-23.33,-51.12,21.0,16.0,130,1,,6.21,30.059055,,,,,,,,,,,CAVOK,,,,,,,,VFR,,,,,,,,,,,,METAR,563.0
SBLB 270100Z AUTO 09013KT 9999 NCD 24/19 Q1021 W///S4,SBLB,2023-05-27T01:00:00Z,-22.1,-39.92,24.0,19.0,90,13,,6.21,30.147638,,,TRUE,,,,,,,,CLR,,,,,,,,VFR,,,,,,,,,,,,METAR,10.0
SBKP 270100Z 11005KT CAVOK 19/13 Q1020,SBKP,2023-05-27T01:00:00Z,-23.0,-47.13,19.0,13.0,110,5,,6.21,30.11811,,,,,,,,,,,CAVOK,,,,,,,,VFR,,,,,,,,,,,,METAR,659.0
SBKG 270100Z 08005KT CAVOK 22/20 Q1016,SBKG,2023-05-27T01:00:00Z,-7.27,-35.88,22.0,20.0,80,5,,6.21,30.0,,,,,,,,,,,CAVOK,,,,,,,,VFR,,,,,,,,,,,,METAR,499.0
SBJV 270100Z 34002KT 9999 FEW012 BKN018 23/21 Q1017,SBJV,2023-05-27T01:00:00Z,-26.22,-48.8,23.0,21.0,340,2,,6.21,30.029528,,,,,,,,,,,FEW,1200,BKN,1800,,,,,MVFR,,,,,,,,,,,,METAR,3.0
SBJU 270100Z 00000KT CAVOK 25/22 Q1017,SBJU,2023-05-27T01:00:00Z,-7.22,-39.27,25.0,22.0,0,0,,6.21,30.029528,,,,,,,,,,,CAVOK,,,,,,,,VFR,,,,,,,,,,,,METAR,407.0
SBJP 270100Z 16004KT 9999 FEW020 25/24 Q1014,SBJP,2023-05-27T01:00:00Z,-7.15,-34.95,25.0,24.0,160,4,,6.21,29.940945,,,,,,,,,,,FEW,2000,,,,,,,VFR,,,,,,,,,,,,METAR,66.0
SBIL 270100Z 25007KT 9999 VCSH SCT025 24/22 Q1018,SBIL,2023-05-27T01:00:00Z,-14.8,-39.02,24.0,22.0,250,7,,6.21,30.059055,,,,,,,,,,VCSH,SCT,2500,,,,,,,VFR,,,,,,,,,,,,METAR,9.0
SBIH 270100Z 00000KT CAVOK 29/25 Q1011,SBIH,2023-05-27T01:00:00Z,-4.25,-56.0,29.0,25.0,0,0,,6.21,29.852362,,,,,,,,,,,CAVOK,,,,,,,,VFR,,,,,,,,,,,,METAR,30.0
SBGR 270100Z 07007KT CAVOK 18/14 Q1021,SBGR,2023-05-27T01:00:00Z,-23.42,-46.47,18.0,14.0,70,7,,6.21,30.147638,,,,,,,,,,,CAVOK,,,,,,,,VFR,,,,,,,,,,,,METAR,745.0
SBGO 270100Z VRB02KT CAVOK 22/17 Q1019,SBGO,2023-05-27T01:00:00Z,-16.62,-49.22,22.0,17.0,0,2,,6.21,30.088583,,,,,,,,,,,CAVOK,,,,,,,,VFR,,,,,,,,,,,,METAR,740.0
SBGL 270100Z 09004KT CAVOK 22/19 Q1019,SBGL,2023-05-27T01:00:00Z,-22.82,-43.25,22.0,19.0,90,4,,6.21,30.088583,,,,,,,,,,,CAVOK,,,,,,,,VFR,,,,,,,,,,,,METAR,3.0
SBFZ 270100Z 15004KT 9999 FEW017 BKN090 28/25 Q1013,SBFZ,2023-05-27T01:00:00Z,-3.77,-38.52,28.0,25.0,150,4,,6.21,29.911417,,,,,,,,,,,FEW,1700,BKN,9000,,,,,VFR,,,,,,,,,,,,METAR,32.0
SBFN 270100Z AUTO 12011KT 9999 SCT014 27/25 Q1013,SBFN,2023-05-27T01:00:00Z,-3.85,-32.42,27.0,25.0,120,11,,6.21,29.911417,,,TRUE,,,,,,,,SCT,1400,,,,,,,VFR,,,,,,,,,,,,METAR,52.0
SBFL 270100Z 34009KT 9999 SCT013 BKN029 23/22 Q1017,SBFL,2023-05-27T01:00:00Z,-27.67,-48.53,23.0,22.0,340,9,,6.21,30.029528,,,,,,,,,,,SCT,1300,BKN,2900,,,,,MVFR,,,,,,,,,,,,METAR,5.0
SBFI 270100Z 04005KT CAVOK 23/18 Q1013,SBFI,2023-05-27T01:00:00Z,-25.6,-54.48,23.0,18.0,40,5,,6.21,29.911417,,,,,,,,,,,CAVOK,,,,,,,,VFR,,,,,,,,,,,,METAR,233.0
SBES 270100Z 05006KT 020V080 CAVOK 21/19 Q1021,SBES,2023-05-27T01:00:00Z,-22.82,-42.1,21.0,19.0,50,6,,6.21,30.147638,,,,,,,,,,,CAVOK,,,,,,,,VFR,,,,,,,,,,,,METAR,16.0
SBEG 270100Z 02002KT CAVOK 26/25 Q1011,SBEG,2023-05-27T01:00:00Z,-3.03,-60.03,26.0,25.0,20,2,,6.21,29.852362,,,,,,,,,,,CAVOK,,,,,,,,VFR,,,,,,,,,,,,METAR,69.0
SBDN 270100Z 06006KT CAVOK 22/15 Q1016,SBDN,2023-05-27T01:00:00Z,-22.18,-51.43,22.0,15.0,60,6,,6.21,30.0,,,,,,,,,,,CAVOK,,,,,,,,VFR,,,,,,,,,,,,METAR,438.0
SBCY 270100Z 05003KT CAVOK 27/19 Q1013,SBCY,2023-05-27T01:00:00Z,-15.65,-56.12,27.0,19.0,50,3,,6.21,29.911417,,,,,,,,,,,CAVOK,,,,,,,,VFR,,,,,,,,,,,,METAR,182.0
SBCT 270100Z 05002KT CAVOK 16/14 Q1021,SBCT,2023-05-27T01:00:00Z,-25.52,-49.17,16.0,14.0,50,2,,6.21,30.147638,,,,,,,,,,,CAVOK,,,,,,,,VFR,,,,,,,,,,,,METAR,914.0
SBCO 270100Z 09001KT 9999 FEW035 SCT100 19/18 Q1011,SBCO,2023-05-27T01:00:00Z,-29.95,-51.15,19.0,18.0,90,1,,6.21,29.852362,,,,,,,,,,,FEW,3500,SCT,10000,,,,,VFR,,,,,,,,,,,,METAR,8.0
SBCH 270100Z 03008KT CAVOK 22/17 Q1017,SBCH,2023-05-27T01:00:00Z,-27.13,-52.67,22.0,17.0,30,8,,6.21,30.029528,,,,,,,,,,,CAVOK,,,,,,,,VFR,,,,,,,,,,,,METAR,639.0
SBCG 270100Z 01007KT CAVOK 24/17 Q1015,SBCG,2023-05-27T01:00:00Z,-20.47,-54.67,24.0,17.0,10,7,,6.21,29.970472,,,,,,,,,,,CAVOK,,,,,,,,VFR,,,,,,,,,,,,METAR,556.0
SBCF 270100Z 09008KT CAVOK 18/14 Q1023,SBCF,2023-05-27T01:00:00Z,-19.63,-43.97,18.0,14.0,90,8,,6.21,30.206694,,,,,,,,,,,CAVOK,,,,,,,,VFR,,,,,,,,,,,,METAR,825.0
SBCC 270100Z 05004KT CAVOK 24/19 Q1014,SBCC,2023-05-27T01:00:00Z,-9.33,-54.95,24.0,19.0,50,4,,6.21,29.940945,,,,,,,,,,,CAVOK,,,,,,,,VFR,,,,,,,,,,,,METAR,540.0
SBBV 270100Z 08004KT 9999 VCTS FEW030 FEW035CB 27/24 Q1012,SBBV,2023-05-27T01:00:00Z,2.85,-60.7,27.0,24.0,80,4,,6.21,29.88189,,,,,,,,,,VCTS,FEW,3000,FEW,3500,,,,,VFR,,,,,,,,,,,,METAR,80.0
SBBU 270100Z 13003KT CAVOK 23/14 Q1019,SBBU,2023-05-27T01:00:00Z,-22.33,-49.07,23.0,14.0,130,3,,6.21,30.088583,,,,,,,,,,,CAVOK,,,,,,,,VFR,,,,,,,,,,,,METAR,616.0
SBBR 270100Z VRB02KT CAVOK 20/14 Q1021,SBBR,2023-05-27T01:00:00Z,-15.87,-47.92,20.0,14.0,0,2,,6.21,30.147638,,,,,,,,,,,CAVOK,,,,,,,,VFR,,,,,,,,,,,,METAR,1051.0
SBBI 270100Z 34003KT 8000 NSC 17/15 Q1021,SBBI,2023-05-27T01:00:00Z,-25.4,-49.23,17.0,15.0,340,3,,4.97,30.147638,,,,,,,,,,,CLR,,,,,,,,MVFR,,,,,,,,,,,,METAR,928.0
SBBH 270100Z 11005KT CAVOK 17/13 Q1023,SBBH,2023-05-27T01:00:00Z,-19.85,-43.95,17.0,13.0,110,5,,6.21,30.206694,,,,,,,,,,,CAVOK,,,,,,,,VFR,,,,,,,,,,,,METAR,799.0
SBBG 270100Z AUTO VRB02KT CAVOK 19/18 Q1012,SBBG,2023-05-27T01:00:00Z,-31.38,-54.12,19.0,18.0,0,2,,6.21,29.88189,,,TRUE,,,,,,,,CAVOK,,,,,,,,VFR,,,,,,,,,,,,METAR,182.0
SBBE 270100Z 05003KT CAVOK 26/25 Q1013,SBBE,2023-05-27T01:00:00Z,-1.37,-48.47,26.0,25.0,50,3,,6.21,29.911417,,,,,,,,,,,CAVOK,,,,,,,,VFR,,,,,,,,,,,,METAR,16.0
SBAR 270100Z 23003KT 9999 FEW033 SCT050 25/24 Q1015,SBAR,2023-05-27T01:00:00Z,-10.98,-37.07,25.0,24.0,230,3,,6.21,29.970472,,,,,,,,,,,FEW,3300,SCT,5000,,,,,VFR,,,,,,,,,,,,METAR,4.0
SBAN 270100Z 09006KT CAVOK 20/15 Q1022,SBAN,2023-05-27T01:00:00Z,-16.22,-48.97,20.0,15.0,90,6,,6.21,30.177166,,,,,,,,,,,CAVOK,,,,,,,,VFR,,,,,,,,,,,,METAR,1131.0
SAZS 270100Z 26009KT 9999 SCT040 01/M05 Q1022 RMK PP///,SAZS,2023-05-27T01:00:00Z,-41.15,-71.17,1.0,-5.0,260,9,,6.21,30.177166,,,,,,,,,,,SCT,4000,,,,,,,VFR,,,,,,,,,,,,METAR,843.0
SAZN 270100Z 25009KT 9999 FEW045 SCT080 09/M04 Q1023,SAZN,2023-05-27T01:00:00Z,-38.95,-68.15,9.0,-4.0,250,9,,6.21,30.206694,,,,,,,,,,,FEW,4500,SCT,8000,,,,,VFR,,,,,,,,,,,,METAR,273.0
SAZM 270100Z 26008KT CAVOK 12/06 Q1014 RMK PP///,SAZM,2023-05-27T01:00:00Z,-37.92,-57.57,12.0,6.0,260,8,,6.21,29.940945,,,,,,,,,,,CAVOK,,,,,,,,VFR,,,,,,,,,,,,SPECI,17.0
SAWH 270100Z 23027KT 9999 -RA FEW015 SCT035 BKN070 02/M00 Q1003 RMK PP999,SAWH,2023-05-27T01:00:00Z,-54.85,-68.3,2.0,0.0,230,27,,6.21,29.616142,,,,,,,,,,-RA,FEW,1500,SCT,3500,BKN,7000,,,VFR,,,,,,,,,,,,METAR,22.0
SAWG 270100Z 25020KT CAVOK 01/M03 Q1011,SAWG,2023-05-27T01:00:00Z,-51.62,-69.27,1.0,-3.0,250,20,,6.21,29.852362,,,,,,,,,,,CAVOK,,,,,,,,VFR,,,,,,,,,,,,METAR,15.0
SAWE 270100Z 26017KT CAVOK 01/M03 Q1004 RMK PP000,SAWE,2023-05-27T01:00:00Z,-53.78,-67.75,1.0,-3.0,260,17,,6.21,29.64567,,,,,,,,,,,CAVOK,,,,,,,,VFR,,,,,,,,,,,,SPECI,22.0
SAVC 270100Z 28011KT CAVOK 04/M11 Q1017 RMK PP000,SAVC,2023-05-27T01:00:00Z,-45.78,-67.47,4.0,-11.0,280,11,,6.21,30.029528,,,,,,,,,,,CAVOK,,,,,,,,VFR,,,,,,,,,,,,METAR,58.0
SASJ 270100Z 33004KT 9999 OVC025 21/16 Q1014 RMK PP000,SASJ,2023-05-27T01:00:00Z,-24.38,-65.1,21.0,16.0,330,4,,6.21,29.940945,,,,,,,,,,,OVC,2500,,,,,,,MVFR,,,,,,,,,,,,SPECI,913.0
SASA 270100Z 36006KT CAVOK 17/14 Q1015 RMK PP000,SASA,2023-05-27T01:00:00Z,-24.85,-65.48,17.0,14.0,360,6,,6.21,29.970472,,,,,,,,,,,CAVOK,,,,,,,,VFR,,,,,,,,,,,,SPECI,1235.0
SARP 270100Z 05003KT CAVOK 24/19 Q1011,SARP,2023-05-27T01:00:00Z,-27.38,-55.97,24.0,19.0,50,3,,6.21,29.852362,,,,,,,,,,,CAVOK,,,,,,,,VFR,,,,,,,,,,,,METAR,123.0
SARL 270100Z 00000KT 9999 FEW020 FEW045CB SCT100 BKN200 20/19 Q1011 RMK CB OBS TO NW,SARL,2023-05-27T01:00:00Z,-29.68,-57.15,20.0,19.0,0,0,,6.21,29.852362,,,,,,,,,,,FEW,2000,FEW,4500,SCT,10000,BKN,20000,VFR,,,,,,,,,,,,METAR,70.0
SARI 270100Z 07005KT 030V090 CAVOK 22/19 Q1013 RMK PP000,SARI,2023-05-27T01:00:00Z,-25.73,-54.47,22.0,19.0,70,5,,6.21,29.911417,,,,,,,,,,,CAVOK,,,,,,,,VFR,,,,,,,,,,,,SPECI,268.0
SARF 270100Z 09005KT 9999 BKN030 OVC200 25/22 Q1009,SARF,2023-05-27T01:00:00Z,-26.22,-58.22,25.0,22.0,90,5,,6.21,29.793306,,,,,,,,,,,BKN,3000,OVC,20000,,,,,MVFR,,,,,,,,,,,,METAR,65.0
SARE 270100Z 05003KT CAVOK 23/21 Q1009 RMK PP///,SARE,2023-05-27T01:00:00Z,-27.43,-59.05,23.0,21.0,50,3,,6.21,29.793306,,,,,,,,,,,CAVOK,,,,,,,,VFR,,,,,,,,,,,,SPECI,52.0
SARC 270100Z 09003KT CAVOK 24/22 Q1009,SARC,2023-05-27T01:00:00Z,-27.43,-58.77,24.0,22.0,90,3,,6.21,29.793306,,,,,,,,,,,CAVOK,,,,,,,,VFR,,,,,,,,,,,,METAR,60.0
SAOC 270100Z 05003KT CAVOK 12/12 Q1016,SAOC,2023-05-27T01:00:00Z,-33.08,-64.27,12.0,12.0,50,3,,6.21,30.0,,,,,,,,,,,CAVOK,,,,,,,,VFR,,,,,,,,,,,,METAR,422.0
SANT 270100Z 31005KT 7000 BKN050 20/19 Q1011 RMK PP000,SANT,2023-05-27T01:00:00Z,-26.85,-65.1,20.0,19.0,310,5,,4.35,29.852362,,,,,,,,,,,BKN,5000,,,,,,,MVFR,,,,,,,,,,,,METAR,446.0
SAME 270100Z 23005KT CAVOK 14/06 Q1016,SAME,2023-05-27T01:00:00Z,-32.82,-68.78,14.0,6.0,230,5,,6.21,30.0,,,,,,,,,,,CAVOK,,,,,,,,VFR,,,,,,,,,,,,METAR,709.0
SAEZ 270100Z 19002KT CAVOK 13/08 Q1015 NOSIG RMK PP000,SAEZ,2023-05-27T01:00:00Z,-34.82,-58.53,13.0,8.0,190,2,,6.21,29.970472,,,,,,TRUE,,,,,CAVOK,,,,,,,,VFR,,,,,,,,,,,,SPECI,16.0
SADF 270100Z 00000KT CAVOK 12/11 Q1015 PP000,SADF,2023-05-27T01:00:00Z,-34.45,-58.58,12.0,11.0,0,0,,6.21,29.970472,,,,,,,,,,,CAVOK,,,,,,,,VFR,,,,,,,,,,,,METAR,4.0
SACO 270100Z 28004KT 220V310 CAVOK 15/13 Q1016 NOSIG RMK PP000,SACO,2023-05-27T01:00:00Z,-31.32,-64.22,15.0,13.0,280,4,,6.21,30.0,,,,,,TRUE,,,,,CAVOK,,,,,,,,VFR,,,,,,,,,,,,SPECI,474.0
SABE 270100Z 18003KT 130V220 CAVOK 17/08 Q1015 NOSIG RMK PP000,SABE,2023-05-27T01:00:00Z,-34.57,-58.42,17.0,8.0,180,3,,6.21,29.970472,,,,,,TRUE,,,,,CAVOK,,,,,,,,VFR,,,,,,,,,,,,SPECI,3.0
SAAR 270100Z 16008KT CAVOK 15/13 Q1014 RMK PP000,SAAR,2023-05-27T01:00:00Z,-32.92,-60.77,15.0,13.0,160,8,,6.21,29.940945,,,,,,,,,,,CAVOK,,,,,,,,VFR,,,,,,,,,,,,SPECI,24.0
RPVP 270100Z 27010KT 9999 FEW019 BKN080 30/22 Q1010 RMK A2983,RPVP,2023-05-27T01:00:00Z,9.75,118.75,30.0,22.0,270,10,,6.21,29.822834,,,,,,,,,,,FEW,1900,BKN,8000,,,,,VFR,,,,,,,,,,,,METAR,15.0
RPVM 270100Z 25007KT 9999 FEW020 SCT100 BKN300 30/25 Q1009 NOSIG RMK A2980,RPVM,2023-05-27T01:00:00Z,10.32,123.98,30.0,25.0,250,7,,6.21,29.793306,,,,,,TRUE,,,,,FEW,2000,SCT,10000,BKN,30000,,,VFR,,,,,,,,,,,,METAR,9.0
RPVD 270100Z 11004KT 9999 -SHRA SCT015 SCT070 30/25 Q1008 RMK A2977,RPVD,2023-05-27T01:00:00Z,9.33,123.3,30.0,25.0,110,4,,6.21,29.763779,,,,,,,,,,-SHRA,SCT,1500,SCT,7000,,,,,VFR,,,,,,,,,,,,METAR,11.0
RPMZ 270100Z 27008KT 240V310 9999 FEW016CB BKN090 30/27 Q1010 RMK A2983 CB NW-N/E-SW,RPMZ,2023-05-27T01:00:00Z,6.92,122.07,30.0,27.0,270,8,,6.21,29.822834,,,,,,,,,,,FEW,1600,BKN,9000,,,,,VFR,,,,,,,,,,,,METAR,8.0
RPMR 270100Z VRB02KT 9999 FEW018 30/24 Q1010 RMK A2983,RPMR,2023-05-27T01:00:00Z,6.05,125.1,30.0,24.0,0,2,,6.21,29.822834,,,,,,,,,,,FEW,1800,,,,,,,VFR,,,,,,,,,,,,METAR,47.0
RPMD 270100Z 18003KT 120V230 9999 FEW020 OVC260 30/25 Q1008 RMK A2977,RPMD,2023-05-27T01:00:00Z,7.12,125.65,30.0,25.0,180,3,,6.21,29.763779,,,,,,,,,,,FEW,2000,OVC,26000,,,,,VFR,,,,,,,,,,,,METAR,19.0
RPLL 270100Z 26003KT 230V300 9000 FEW023 30/25 Q1009 NOSIG RMK A2980,RPLL,2023-05-27T01:00:00Z,14.52,121.0,30.0,25.0,260,3,,5.59,29.793306,,,,,,TRUE,,,,,FEW,2300,,,,,,,VFR,,,,,,,,,,,,METAR,15.0
RPLI 270100Z VRB03KT 9999 FEW017CB SCT290 33/21 Q1009 NOSIG RMK A2980 CB SW,RPLI,2023-05-27T01:00:00Z,18.17,120.52,33.0,21.0,0,3,,6.21,29.793306,,,,,,TRUE,,,,,FEW,1700,SCT,29000,,,,,VFR,,,,,,,,,,,,METAR,5.0
RPLC 270100Z 18008KT 8000 FEW020 SCT300 30/23 Q1010 NOSIG RMK A2983,RPLC,2023-05-27T01:00:00Z,15.18,120.55,30.0,23.0,180,8,,4.97,29.822834,,,,,,TRUE,,,,,FEW,2000,SCT,30000,,,,,MVFR,,,,,,,,,,,,METAR,138.0
RPLB 270100Z 31003KT 280V010 9000 FEW020 29/24 Q1010 NOSIG RMK A2983,RPLB,2023-05-27T01:00:00Z,14.8,120.27,29.0,24.0,310,3,,5.59,29.822834,,,,,,TRUE,,,,,FEW,2000,,,,,,,VFR,,,,,,,,,,,,METAR,19.0
ROYN 270100Z AUTO 11010KT 9999 SCT021 SCT029 BKN033 27/20 Q1013,ROYN,2023-05-27T01:00:00Z,24.47,122.97,27.0,20.0,110,10,,6.21,29.911417,,,TRUE,,,,,,,,SCT,2100,SCT,2900,BKN,3300,,,VFR,,,,,,,,,,,,METAR,21.0
RORY 270100Z AUTO 08013KT 9999 FEW007 SCT009 BKN010 26/24 Q1015,RORY,2023-05-27T01:00:00Z,27.05,128.4,26.0,24.0,80,13,,6.21,29.970472,,,TRUE,,,,,,,,FEW,700,SCT,900,BKN,1000,,,MVFR,,,,,,,,,,,,METAR,13.0
RORT 270100Z AUTO VRB06KT 9999 FEW019 28/23 Q1013,RORT,2023-05-27T01:00:00Z,24.63,124.7,28.0,23.0,0,6,,6.21,29.911417,,,TRUE,,,,,,,,FEW,1900,,,,,,,VFR,,,,,,,,,,,,METAR,9.0
RORS 270100Z 07012KT 9999 FEW020 28/22 Q1013,RORS,2023-05-27T01:00:00Z,24.82,125.15,28.0,22.0,70,12,,6.21,29.911417,,,,,,,,,,,FEW,2000,,,,,,,VFR,,,,,,,,,,,,METAR,13.0
RORK 270100Z AUTO 08019KT 9000 FEW003 BKN007 OVC018 25/23 Q1014,RORK,2023-05-27T01:00:00Z,25.93,131.32,25.0,23.0,80,19,,5.59,29.940945,,,TRUE,,,,,,,,FEW,300,BKN,700,OVC,1800,,,IFR,,,,,,,,,,,,METAR,11.0
ROMY 270100Z 07013KT 9999 FEW017 SCT050 27/23 Q1013,ROMY,2023-05-27T01:00:00Z,24.78,125.27,27.0,23.0,70,13,,6.21,29.911417,,,,,,,,,,,FEW,1700,SCT,5000,,,,,VFR,,,,,,,,,,,,METAR,38.0
ROMD 270100Z AUTO 06011G21KT 020V090 4000 BR OVC002 24/23 Q1014,ROMD,2023-05-27T01:00:00Z,25.83,131.25,24.0,23.0,60,11,21,2.49,29.940945,,,TRUE,,,,,,,BR,OVC,200,,,,,,,LIFR,,,,,,,,,,,,METAR,45.0
ROIG 270100Z 07010KT 9999 SCT023 28/22 Q1013,ROIG,2023-05-27T01:00:00Z,24.38,124.23,28.0,22.0,70,10,,6.21,29.911417,,,,,,,,,,,SCT,2300,,,,,,,VFR,,,,,,,,,,,,METAR,37.0
ROAH 270100Z 08015KT 9999 -SHRA FEW007 SCT010 BKN020 25/24 Q1014,ROAH,2023-05-27T01:00:00Z,26.18,127.65,25.0,24.0,80,15,,6.21,29.940945,,,,,,,,,,-SHRA,FEW,700,SCT,1000,BKN,2000,,,MVFR,,,,,,,,,,,,METAR,6.0
RKTU 270100Z 07003KT 9000 NSC 19/18 Q1019,RKTU,2023-05-27T01:00:00Z,36.7,127.5,19.0,18.0,70,3,,5.59,30.088583,,,,,,,,,,,CLR,,,,,,,,VFR,,,,,,,,,,,,METAR,46.0
RKTN 270100Z 33002KT 9999 BKN030 BKN100 23/17 Q1019,RKTN,2023-05-27T01:00:00Z,35.88,128.65,23.0,17.0,330,2,,6.21,30.088583,,,,,,,,,,,BKN,3000,BKN,10000,,,,,MVFR,,,,,,,,,,,,METAR,25.0
RKSM 270100Z 17005KT 9999 -RA SCT030 BKN080 21/15 A3010,RKSM,2023-05-27T01:00:00Z,37.43,127.12,21.0,15.0,170,5,,6.21,30.100393,,,,,,,,,,-RA,SCT,3000,BKN,8000,,,,,VFR,,,,,,,,,,,,METAR,18.0
RKSI 270100Z 13006KT 1500 R15L/1500D R15R/1400D R16L/1400D R16R/1400D -RA BR BKN004 BKN020 OVC070 18/18 Q1019 NOSIG,RKSI,2023-05-27T01:00:00Z,37.47,126.45,18.0,18.0,130,6,,0.93,30.088583,,,,,,TRUE,,,,-RA BR,BKN,400,BKN,2000,OVC,7000,,,LIFR,,,,,,,,,,,,METAR,7.0
RKPK 270100Z 19006KT 9999 SCT030 BKN090 23/18 Q1020,RKPK,2023-05-27T01:00:00Z,35.17,128.93,23.0,18.0,190,6,,6.21,30.11811,,,,,,,,,,,SCT,3000,BKN,9000,,,,,VFR,,,,,,,,,,,,METAR,3.0
RKPC 270100Z 34007KT 9999 BKN050 BKN150 23/18 Q1018 NOSIG,RKPC,2023-05-27T01:00:00Z,33.5,126.48,23.0,18.0,340,7,,6.21,30.059055,,,,,,TRUE,,,,,BKN,5000,BKN,15000,,,,,VFR,,,,,,,,,,,,METAR,23.0
RKNY 270100Z 13006KT 9999 FEW030 SCT140 BKN170 26/14 Q1017 NOSIG,RKNY,2023-05-27T01:00:00Z,38.07,128.67,26.0,14.0,130,6,,6.21,30.029528,,,,,,TRUE,,,,,FEW,3000,SCT,14000,BKN,17000,,,VFR,,,,,,,,,,,,METAR,76.0
RKJB 270100Z 17014KT 9999 BKN030 OVC080 24/18 Q1018 NOSIG,RKJB,2023-05-27T01:00:00Z,34.98,126.38,24.0,18.0,170,14,,6.21,30.059055,,,,,,TRUE,,,,,BKN,3000,OVC,8000,,,,,MVFR,,,,,,,,,,,,METAR,16.0
RJTT 270100Z 15008KT 100V200 9999 FEW020 BKN/// 22/17 Q1024 NOSIG,RJTT,2023-05-27T01:00:00Z,35.55,139.77,22.0,17.0,150,8,,6.21,30.236221,,,,,,TRUE,,,,,FEW,2000,,,,,,,VFR,,,,,,,,,,,,METAR,5.0
RJTO 270100Z 04008KT 360V070 9999 FEW025 SCT035 BKN/// 22/16 Q1024,RJTO,2023-05-27T01:00:00Z,34.77,139.37,22.0,16.0,40,8,,6.21,30.236221,,,,,,,,,,,FEW,2500,SCT,3500,,,,,VFR,,,,,,,,,,,,METAR,37.0
RJTI 270100Z 14008KT 9999 FEW020 BKN/// 22/16 Q1024,RJTI,2023-05-27T01:00:00Z,35.63,139.83,22.0,16.0,140,8,,6.21,30.236221,,,,,,,,,,,FEW,2000,,,,,,,VFR,,,,,,,,,,,,METAR,4.0
RJTF 270100Z VRB02KT 9999 FEW030 BKN/// 23/13 Q1024,RJTF,2023-05-27T01:00:00Z,35.67,139.52,23.0,13.0,0,2,,6.21,30.236221,,,,,,,,,,,FEW,3000,,,,,,,VFR,,,,,,,,,,,,METAR,37.0
RJSY 270100Z 26004KT 200V350 9999 FEW030 23/15 Q1022,RJSY,2023-05-27T01:00:00Z,38.82,139.78,23.0,15.0,260,4,,6.21,30.177166,,,,,,,,,,,FEW,3000,,,,,,,VFR,,,,,,,,,,,,METAR,17.0
RJSS 270100Z 13008KT 9999 FEW050 22/15 Q1022,RJSS,2023-05-27T01:00:00Z,38.13,140.92,22.0,15.0,130,8,,6.21,30.177166,,,,,,,,,,,FEW,5000,,,,,,,VFR,,,,,,,,,,,,METAR,5.0
RJSR 270100Z 25010KT 9999 FEW020 SCT030 BKN/// 21/15 Q1022,RJSR,2023-05-27T01:00:00Z,40.18,140.37,21.0,15.0,250,10,,6.21,30.177166,,,,,,,,,,,FEW,2000,SCT,3000,,,,,VFR,,,,,,,,,,,,METAR,83.0
RJSN 270100Z 17006KT 130V200 9999 FEW030 SCT045 24/14 Q1022,RJSN,2023-05-27T01:00:00Z,37.95,139.12,24.0,14.0,170,6,,6.21,30.177166,,,,,,,,,,,FEW,3000,SCT,4500,,,,,VFR,,,,,,,,,,,,METAR,4.0
RJSM 270100Z 32006KT 260V010 9999 FEW025 SCT040 BKN200 23/10 Q1021,RJSM,2023-05-27T01:00:00Z,40.7,141.37,23.0,10.0,320,6,,6.21,30.147638,,,,,,,,,,,FEW,2500,SCT,4000,BKN,20000,,,VFR,,,,,,,,,,,,METAR,31.0
RJSK 270100Z 25003KT 160V330 9999 FEW015 SCT020 20/16 Q1023,RJSK,2023-05-27T01:00:00Z,39.62,140.22,20.0,16.0,250,3,,6.21,30.206694,,,,,,,,,,,FEW,1500,SCT,2000,,,,,VFR,,,,,,,,,,,,METAR,95.0
RJSI 270100Z 16004KT 130V280 9999 FEW020 SCT040 BKN/// 21/16 Q1022,RJSI,2023-05-27T01:00:00Z,39.42,141.13,21.0,16.0,160,4,,6.21,30.177166,,,,,,,,,,,FEW,2000,SCT,4000,,,,,VFR,,,,,,,,,,,,METAR,89.0
RJSF 270100Z VRB02KT 9999 FEW030 SCT/// 21/14 Q1024,RJSF,2023-05-27T01:00:00Z,37.22,140.42,21.0,14.0,0,2,,6.21,30.236221,,,,,,,,,,,FEW,3000,,,,,,,VFR,,,,,,,,,,,,METAR,373.0
RJSC 270100Z VRB02KT 9999 FEW030 22/16 Q1023,RJSC,2023-05-27T01:00:00Z,38.42,140.37,22.0,16.0,0,2,,6.21,30.206694,,,,,,,,,,,FEW,3000,,,,,,,VFR,,,,,,,,,,,,METAR,104.0
RJSA 270100Z 22012KT 180V250 9999 FEW025 BKN/// 20/12 Q1021,RJSA,2023-05-27T01:00:00Z,40.72,140.68,20.0,12.0,220,12,,6.21,30.147638,,,,,,,,,,,FEW,2500,,,,,,,VFR,,,,,,,,,,,,METAR,196.0
RJOY 270100Z VRB02KT 9999 FEW020 BKN/// 25/16 Q1022,RJOY,2023-05-27T01:00:00Z,34.6,135.6,25.0,16.0,0,2,,6.21,30.177166,,,,,,,,,,,FEW,2000,,,,,,,VFR,,,,,,,,,,,,METAR,10.0
RJOW 270100Z 16008KT 120V180 9999 FEW030 BKN/// 25/17 Q1020,RJOW,2023-05-27T01:00:00Z,34.67,131.8,25.0,17.0,160,8,,6.21,30.11811,,,,,,,,,,,FEW,3000,,,,,,,VFR,,,,,,,,,,,,METAR,54.0
RJOT 270100Z VRB03KT 9999 FEW025 BKN/// 22/15 Q1023,RJOT,2023-05-27T01:00:00Z,34.22,134.02,22.0,15.0,0,3,,6.21,30.206694,,,,,,,,,,,FEW,2500,,,,,,,VFR,,,,,,,,,,,,METAR,181.0
RJOS 270100Z 10004KT 070V140 9999 FEW030 BKN150 21/15 Q1023,RJOS,2023-05-27T01:00:00Z,34.12,134.62,21.0,15.0,100,4,,6.21,30.206694,,,,,,,,,,,FEW,3000,BKN,15000,,,,,VFR,,,,,,,,,,,,METAR,3.0
RJOR 270100Z 16005KT 120V210 9999 FEW030 SCT060 BKN070 25/16 Q1021,RJOR,2023-05-27T01:00:00Z,35.52,134.17,25.0,16.0,160,5,,6.21,30.147638,,,,,,,,,,,FEW,3000,SCT,6000,BKN,7000,,,VFR,,,,,,,,,,,,METAR,11.0
RJOO 270100Z 12003KT 020V190 9999 FEW030 BKN/// 24/16 Q1023,RJOO,2023-05-27T01:00:00Z,34.78,135.43,24.0,16.0,120,3,,6.21,30.206694,,,,,,,,,,,FEW,3000,,,,,,,VFR,,,,,,,,,,,,METAR,11.0
RJOM 270100Z 36013KT 9999 FEW030 BKN/// 22/16 Q1022,RJOM,2023-05-27T01:00:00Z,33.82,132.68,22.0,16.0,360,13,,6.21,30.177166,,,,,,,,,,,FEW,3000,,,,,,,VFR,,,,,,,,,,,,METAR,3.0
RJOK 270100Z 17007KT 9999 FEW030 BKN/// 23/16 Q1022,RJOK,2023-05-27T01:00:00Z,33.53,133.67,23.0,16.0,170,7,,6.21,30.177166,,,,,,,,,,,FEW,3000,,,,,,,VFR,,,,,,,,,,,,METAR,7.0
RJOH 270100Z 17006KT 140V200 9999 FEW030 SCT060 BKN080 24/16 Q1021,RJOH,2023-05-27T01:00:00Z,35.48,133.25,24.0,16.0,170,6,,6.21,30.147638,,,,,,,,,,,FEW,3000,SCT,6000,BKN,8000,,,VFR,,,,,,,,,,,,METAR,6.0
RJOC 270100Z 04005KT 9999 FEW030 SCT070 BKN180 22/17 Q1021,RJOC,2023-05-27T01:00:00Z,35.42,132.88,22.0,17.0,40,5,,6.21,30.147638,,,,,,,,,,,FEW,3000,SCT,7000,BKN,18000,,,VFR,,,,,,,,,,,,METAR,2.0
RJOB 270100Z 13003KT 080V170 9999 FEW025 SCT060 BKN130 21/16 Q1023,RJOB,2023-05-27T01:00:00Z,34.75,133.85,21.0,16.0,130,3,,6.21,30.206694,,,,,,,,,,,FEW,2500,SCT,6000,BKN,13000,,,VFR,,,,,,,,,,,,METAR,242.0
RJOA 270100Z VRB02KT 9999 FEW025 BKN/// 21/14 Q1023,RJOA,2023-05-27T01:00:00Z,34.43,132.92,21.0,14.0,0,2,,6.21,30.206694,,,,,,,,,,,FEW,2500,,,,,,,VFR,,,,,,,,,,,,METAR,318.0
RJNW 270100Z 20007KT 160V230 9999 FEW025 SCT/// 23/16 Q1022,RJNW,2023-05-27T01:00:00Z,37.3,136.97,23.0,16.0,200,7,,6.21,30.177166,,,,,,,,,,,FEW,2500,,,,,,,VFR,,,,,,,,,,,,METAR,222.0
RJNT 270100Z 21004KT 160V260 9999 FEW030 BKN/// 25/14 Q1022,RJNT,2023-05-27T01:00:00Z,36.63,137.18,25.0,14.0,210,4,,6.21,30.177166,,,,,,,,,,,FEW,3000,,,,,,,VFR,,,,,,,,,,,,METAR,30.0
RJNS 270100Z 14006KT 080V180 9999 FEW015 SCT025 BKN/// 22/16 Q1024,RJNS,2023-05-27T01:00:00Z,34.8,138.18,22.0,16.0,140,6,,6.21,30.236221,,,,,,,,,,,FEW,1500,SCT,2500,,,,,VFR,,,,,,,,,,,,METAR,133.0
RJNK 270100Z 36004KT 330V030 9999 FEW080 BKN250 24/14 Q1022,RJNK,2023-05-27T01:00:00Z,36.38,136.42,24.0,14.0,360,4,,6.21,30.177166,,,,,,,,,,,FEW,8000,BKN,25000,,,,,VFR,,,,,,,,,,,,METAR,7.0
RJKI 270100Z AUTO 09013KT 060V120 9999 FEW017 BKN031 26/21 Q1017,RJKI,2023-05-27T01:00:00Z,28.32,129.92,26.0,21.0,90,13,,6.21,30.029528,,,TRUE,,,,,,,,FEW,1700,BKN,3100,,,,,VFR,,,,,,,,,,,,METAR,6.0
RJKA 270100Z 09016KT 9999 FEW017 BKN032 BKN050 25/21 Q1017,RJKA,2023-05-27T01:00:00Z,28.42,129.72,25.0,21.0,90,16,,6.21,30.029528,,,,,,,,,,,FEW,1700,BKN,3200,BKN,5000,,,VFR,,,,,,,,,,,,METAR,7.0
RJGG 270100Z 30004KT 9999 FEW025 BKN/// 22/17 Q1023 BECMG 24006KT,RJGG,2023-05-27T01:00:00Z,34.87,136.8,22.0,17.0,300,4,,6.21,30.206694,,,,,,,,,,,FEW,2500,,,,,,,VFR,,,,,,,,,,,,METAR,5.0
RJFU 270100Z 17011KT 9999 FEW040 BKN/// 25/18 Q1019,RJFU,2023-05-27T01:00:00Z,32.92,129.92,25.0,18.0,170,11,,6.21,30.088583,,,,,,,,,,,FEW,4000,,,,,,,VFR,,,,,,,,,,,,METAR,2.0
RJFT 270100Z 11003KT 040V210 9999 FEW035 BKN/// 26/15 Q1020,RJFT,2023-05-27T01:00:00Z,32.83,130.85,26.0,15.0,110,3,,6.21,30.11811,,,,,,,,,,,FEW,3500,,,,,,,VFR,,,,,,,,,,,,METAR,188.0
RJFS 270100Z 21006KT 9999 FEW030 BKN/// 24/18 Q1020,RJFS,2023-05-27T01:00:00Z,33.15,130.3,24.0,18.0,210,6,,6.21,30.11811,,,,,,,,,,,FEW,3000,,,,,,,VFR,,,,,,,,,,,,METAR,2.0
RJFR 270100Z 08011KT 9999 FEW015 BKN/// 22/18 Q1021,RJFR,2023-05-27T01:00:00Z,33.83,131.03,22.0,18.0,80,11,,6.21,30.147638,,,,,,,,,,,FEW,1500,,,,,,,VFR,,,,,,,,,,,,METAR,9.0
RJFO 270100Z 11007KT 9999 FEW030 BKN/// 21/17 Q1022,RJFO,2023-05-27T01:00:00Z,33.47,131.73,21.0,17.0,110,7,,6.21,30.177166,,,,,,,,,,,FEW,3000,,,,,,,VFR,,,,,,,,,,,,METAR,3.0
RJFM 270100Z 06010KT 9999 FEW015 SCT035 23/19 Q1022,RJFM,2023-05-27T01:00:00Z,31.87,131.43,23.0,19.0,60,10,,6.21,30.177166,,,,,,,,,,,FEW,1500,SCT,3500,,,,,VFR,,,,,,,,,,,,METAR,10.0
RJFK 270100Z 09012KT 070V130 9999 FEW025 23/16 Q1021,RJFK,2023-05-27T01:00:00Z,31.8,130.72,23.0,16.0,90,12,,6.21,30.147638,,,,,,,,,,,FEW,2500,,,,,,,VFR,,,,,,,,,,,,METAR,271.0
RJFG 270100Z 11014KT 070V140 9999 FEW015 23/18 Q1020,RJFG,2023-05-27T01:00:00Z,30.62,130.98,23.0,18.0,110,14,,6.21,30.11811,,,,,,,,,,,FEW,1500,,,,,,,VFR,,,,,,,,,,,,METAR,234.0
RJFF 270100Z 17005KT 100V240 9999 FEW030 BKN/// 26/17 Q1019 BECMG 33007KT,RJFF,2023-05-27T01:00:00Z,33.58,130.45,26.0,17.0,170,5,,6.21,30.088583,,,,,,,,,,,FEW,3000,,,,,,,VFR,,,,,,,,,,,,METAR,7.0
RJFE 270100Z 13008KT 080V170 9999 FEW025 SCT035 BKN170 23/17 Q1020,RJFE,2023-05-27T01:00:00Z,32.67,128.82,23.0,17.0,130,8,,6.21,30.11811,,,,,,,,,,,FEW,2500,SCT,3500,BKN,17000,,,VFR,,,,,,,,,,,,METAR,80.0
RJEC 270100Z 17011KT 9999 FEW015 SCT025 BKN040 18/13 Q1018,RJEC,2023-05-27T01:00:00Z,43.67,142.43,18.0,13.0,170,11,,6.21,30.059055,,,,,,,,,,,FEW,1500,SCT,2500,BKN,4000,,,VFR,,,,,,,,,,,,METAR,209.0
RJEB 270100Z 25014G25KT 210V290 9999 FEW030 BKN040 22/12 Q1015,RJEB,2023-05-27T01:00:00Z,44.3,143.4,22.0,12.0,250,14,25,6.21,29.970472,,,,,,,,,,,FEW,3000,BKN,4000,,,,,VFR,,,,,,,,,,,,METAR,24.0
RJDT 270100Z 17005KT 100V270 9999 FEW020 SCT080 BKN/// 22/19 Q1020,RJDT,2023-05-27T01:00:00Z,34.28,129.32,22.0,19.0,170,5,,6.21,30.11811,,,,,,,,,,,FEW,2000,SCT,8000,,,,,VFR,,,,,,,,,,,,METAR,61.0
RJDC 270100Z 08013KT 9999 FEW025 BKN/// 22/17 Q1021,RJDC,2023-05-27T01:00:00Z,33.92,131.27,22.0,17.0,80,13,,6.21,30.147638,,,,,,,,,,,FEW,2500,,,,,,,VFR,,,,,,,,,,,,METAR,5.0
RJDB 270100Z AUTO 06003KT 040V100 9999 NSC 23/19 Q1020,RJDB,2023-05-27T01:00:00Z,33.75,129.78,23.0,19.0,60,3,,6.21,30.11811,,,TRUE,,,,,,,,CLR,,,,,,,,VFR,,,,,,,,,,,,METAR,13.0
RJCW 270100Z 21021KT 9999 FEW005 SCT009 BKN010 15/12 Q1014,RJCW,2023-05-27T01:00:00Z,45.4,141.8,15.0,12.0,210,21,,6.21,29.940945,,,,,,,,,,,FEW,500,SCT,900,BKN,1000,,,MVFR,,,,,,,,,,,,METAR,11.0
RJCO 270100Z VRB05KT 9999 FEW050 23/13 Q1018,RJCO,2023-05-27T01:00:00Z,43.12,141.37,23.0,13.0,0,5,,6.21,30.059055,,,,,,,,,,,FEW,5000,,,,,,,VFR,,,,,,,,,,,,METAR,7.0
RJCN 270100Z 23013KT 9999 FEW025 SCT100 22/12 Q1016,RJCN,2023-05-27T01:00:00Z,43.57,144.97,22.0,12.0,230,13,,6.21,30.0,,,,,,,,,,,FEW,2500,SCT,10000,,,,,VFR,,,,,,,,,,,,METAR,62.0
RJCM 270100Z 20012KT 9999 FEW030 SCT050 BKN060 22/11 Q1016,RJCM,2023-05-27T01:00:00Z,43.88,144.17,22.0,11.0,200,12,,6.21,30.0,,,,,,,,,,,FEW,3000,SCT,5000,BKN,6000,,,VFR,,,,,,,,,,,,METAR,30.0
RJCK 270100Z 18010KT 150V210 9999 FEW040 BKN080 19/12 Q1018,RJCK,2023-05-27T01:00:00Z,43.03,144.18,19.0,12.0,180,10,,6.21,30.059055,,,,,,,,,,,FEW,4000,BKN,8000,,,,,VFR,,,,,,,,,,,,METAR,94.0
RJCH 270100Z 23013KT 9999 FEW010 SCT025 BKN/// 17/14 Q1020,RJCH,2023-05-27T01:00:00Z,41.77,140.82,17.0,14.0,230,13,,6.21,30.11811,,,,,,,,,,,FEW,1000,SCT,2500,,,,,VFR,,,,,,,,,,,,METAR,36.0
RJCC 270100Z 15015KT 9999 FEW015 19/14 Q1019,RJCC,2023-05-27T01:00:00Z,42.77,141.68,19.0,14.0,150,15,,6.21,30.088583,,,,,,,,,,,FEW,1500,,,,,,,VFR,,,,,,,,,,,,METAR,19.0
RJCB 270100Z 26005KT 180V350 9999 FEW020 SCT/// 21/11 Q1018,RJCB,2023-05-27T01:00:00Z,42.72,143.22,21.0,11.0,260,5,,6.21,30.059055,,,,,,,,,,,FEW,2000,,,,,,,VFR,,,,,,,,,,,,METAR,149.0
RJBT 270100Z 17005KT 120V210 9999 FEW025 SCT070 BKN/// 23/16 Q1022,RJBT,2023-05-27T01:00:00Z,35.5,134.8,23.0,16.0,170,5,,6.21,30.177166,,,,,,,,,,,FEW,2500,SCT,7000,,,,,VFR,,,,,,,,,,,,METAR,172.0
RJBE 270100Z 14003KT 110V170 9999 FEW025 BKN/// 22/16 Q1023,RJBE,2023-05-27T01:00:00Z,34.63,135.23,22.0,16.0,140,3,,6.21,30.206694,,,,,,,,,,,FEW,2500,,,,,,,VFR,,,,,,,,,,,,METAR,5.0
RJBD 270100Z 19005KT 160V240 9999 FEW025 SCT040 BKN/// 23/18 Q1023,RJBD,2023-05-27T01:00:00Z,33.67,135.37,23.0,18.0,190,5,,6.21,30.206694,,,,,,,,,,,FEW,2500,SCT,4000,,,,,VFR,,,,,,,,,,,,METAR,91.0
RJBB 270100Z 01004KT 9999 FEW020 SCT150 BKN/// 21/17 Q1023 NOSIG,RJBB,2023-05-27T01:00:00Z,34.43,135.25,21.0,17.0,10,4,,6.21,30.206694,,,,,,TRUE,,,,,FEW,2000,SCT,15000,,,,,VFR,,,,,,,,,,,,METAR,8.0
RJAW 270100Z 08018KT 9999 BKN008 BKN012 27/24 Q1015 RMK 5ST008 6CU012 A2998 WIND BY EQPT/25,RJAW,2023-05-27T01:00:00Z,24.78,141.32,27.0,24.0,80,18,,6.21,29.970472,,,,,,,,,,,BKN,800,BKN,1200,,,,,IFR,,,,,,,,,,,,METAR,116.0
RJAH 270100Z 19005KT 100V220 9999 SCT025 BKN250 23/15 Q1023,RJAH,2023-05-27T01:00:00Z,36.17,140.42,23.0,15.0,190,5,,6.21,30.206694,,,,,,,,,,,SCT,2500,BKN,25000,,,,,VFR,,,,,,,,,,,,METAR,31.0
RJAF 270100Z VRB04KT 9999 FEW040 BKN/// 19/11 Q1024,RJAF,2023-05-27T01:00:00Z,36.17,137.92,19.0,11.0,0,4,,6.21,30.236221,,,,,,,,,,,FEW,4000,,,,,,,VFR,,,,,,,,,,,,METAR,652.0
RJAA 270100Z VRB03KT 9999 FEW030 BKN/// 23/15 Q1024 BECMG 16006KT,RJAA,2023-05-27T01:00:00Z,35.77,140.38,23.0,15.0,0,3,,6.21,30.236221,,,,,,,,,,,FEW,3000,,,,,,,VFR,,,,,,,,,,,,METAR,36.0
RCTP 270100Z 12005KT 070V170 9999 FEW015 SCT025 31/25 Q1012 NOSIG RMK A2989,RCTP,2023-05-27T01:00:00Z,25.07,121.22,31.0,25.0,120,5,,6.21,29.88189,,,,,,TRUE,,,,,FEW,1500,SCT,2500,,,,,VFR,,,,,,,,,,,,METAR,33.0
RCSS 270100Z 09007KT 060V120 9999 FEW020 30/22 Q1012 NOSIG RMK A2990,RCSS,2023-05-27T01:00:00Z,25.07,121.55,30.0,22.0,90,7,,6.21,29.88189,,,,,,TRUE,,,,,FEW,2000,,,,,,,VFR,,,,,,,,,,,,SPECI,8.0
RCNN 270100Z 01005KT 9999 VCSH FEW014 BKN021 BKN050 28/21 Q1012 NOSIG RMK A2989 VCSH S,RCNN,2023-05-27T01:00:00Z,22.93,120.2,28.0,21.0,10,5,,6.21,29.88189,,,,,,TRUE,,,,VCSH,FEW,1400,BKN,2100,BKN,5000,,,MVFR,,,,,,,,,,,,METAR,15.0
RCMQ 270100Z 31005KT 7000 SCT004 BKN008 BKN200 27/24 Q1012 BECMG BKN010 RMK A2991 APCH CLD SCT004,RCMQ,2023-05-27T01:00:00Z,24.27,120.62,27.0,24.0,310,5,,4.35,29.88189,,,,,,,,,,,SCT,400,BKN,800,BKN,20000,,,IFR,,,,,,,,,,,,METAR,202.0
RCKH 270100Z 24003KT 200V300 6000 SCT010 SCT018 BKN040 28/24 Q1011 NOSIG RMK A2987,RCKH,2023-05-27T01:00:00Z,22.57,120.33,28.0,24.0,240,3,,3.73,29.852362,,,,,,TRUE,,,,,SCT,1000,SCT,1800,BKN,4000,,,MVFR,,,,,,,,,,,,METAR,6.0
RCFN 270100Z 31005KT 270V350 9999 -RA SCT015 BKN028 OVC035 25/23 Q1014 NOSIG RMK A2995,RCFN,2023-05-27T01:00:00Z,22.77,121.1,25.0,23.0,310,5,,6.21,29.940945,,,,,,TRUE,,,,-RA,SCT,1500,BKN,2800,OVC,3500,,,MVFR,,,,,,,,,,,,METAR,42.0
PLCH 270100Z 11004KT 9999 FEW020 31/25 Q1008,PLCH,2023-05-27T01:00:00Z,1.98,-157.35,31.0,25.0,110,4,,6.21,29.763779,,,,,,,,,,,FEW,2000,,,,,,,VFR,,,,,,,,,,,,METAR,5.0
OTHH 270100Z AUTO 33011KT CAVOK 31/17 Q1005 NOSIG,OTHH,2023-05-27T01:00:00Z,25.27,51.6,31.0,17.0,330,11,,6.21,29.675198,,,TRUE,,,TRUE,,,,,CAVOK,,,,,,,,VFR,,,,,,,,,,,,METAR,3.0
OTBD 270100Z AUTO 35005KT CAVOK 32/15 Q1006 NOSIG,OTBD,2023-05-27T01:00:00Z,25.25,51.57,32.0,15.0,350,5,,6.21,29.704725,,,TRUE,,,TRUE,,,,,CAVOK,,,,,,,,VFR,,,,,,,,,,,,METAR,13.0
ORSU 270100Z 30004KT CAVOK 16/15 Q1015,ORSU,2023-05-27T01:00:00Z,35.57,45.32,16.0,15.0,300,4,,6.21,29.970472,,,,,,,,,,,CAVOK,,,,,,,,VFR,,,,,,,,,,,,METAR,760.0
ORNI 270100Z 34008KT 7000 NSC 30/08 Q1008,ORNI,2023-05-27T01:00:00Z,31.98,44.4,30.0,8.0,340,8,,4.35,29.763779,,,,,,,,,,,CLR,,,,,,,,MVFR,,,,,,,,,,,,METAR,33.0
ORMM 270100Z 31006KT CAVOK 28/14 Q1007 NOSIG,ORMM,2023-05-27T01:00:00Z,30.53,47.67,28.0,14.0,310,6,,6.21,29.734253,,,,,,TRUE,,,,,CAVOK,,,,,,,,VFR,,,,,,,,,,,,METAR,2.0
ORER 270100Z 13006KT 7000 NSC 25/10 Q1011,ORER,2023-05-27T01:00:00Z,36.23,43.97,25.0,10.0,130,6,,4.35,29.852362,,,,,,,,,,,CLR,,,,,,,,MVFR,,,,,,,,,,,,METAR,399.0
ORBI 270100Z 35005KT CAVOK 26/09 Q1008,ORBI,2023-05-27T01:00:00Z,33.27,44.23,26.0,9.0,350,5,,6.21,29.763779,,,,,,,,,,,CAVOK,,,,,,,,VFR,,,,,,,,,,,,METAR,37.0
OPST 270100Z 36004KT 4000 FU NSC 23/14 Q1004 NOSIG 59%,OPST,2023-05-27T01:00:00Z,32.53,74.37,23.0,14.0,360,4,,2.49,29.64567,,,,,,TRUE,,,,FU,CLR,,,,,,,,IFR,,,,,,,,,,,,METAR,234.0
OPPS 270100Z 23004KT 4000 HZ FEW200 22/13 Q1007,OPPS,2023-05-27T01:00:00Z,33.98,71.52,22.0,13.0,230,4,,2.49,29.734253,,,,,,,,,,HZ,FEW,20000,,,,,,,IFR,,,,,,,,,,,,METAR,356.0
OPNH 270100Z 22506KT 5000 HZ NSC 27/22 Q1000,OPNH,2023-05-27T01:00:00Z,26.22,68.38,27.0,22.0,225,6,,3.11,29.52756,,,,,,,,,,HZ,CLR,,,,,,,,MVFR,,,,,,,,,,,,METAR,30.0
OPMT 270100Z 00000KT 4000 FU SCT040 SCT100 26/21 Q1003 NOSIG,OPMT,2023-05-27T01:00:00Z,30.2,71.42,26.0,21.0,0,0,,2.49,29.616142,,,,,,TRUE,,,,FU,SCT,4000,SCT,10000,,,,,IFR,,,,,,,,,,,,METAR,122.0
OPKC 270100Z 24012KT 5000 FU BKN030 30/26 Q1004 NOSIG,OPKC,2023-05-27T01:00:00Z,24.9,67.13,30.0,26.0,240,12,,3.11,29.64567,,,,,,TRUE,,,,FU,BKN,3000,,,,,,,MVFR,,,,,,,,,,,,METAR,20.0
OPIS 270100Z 23008KT 6000 FEW040 19/12 Q1007 NOSIG,OPIS,2023-05-27T01:00:00Z,33.55,72.83,19.0,12.0,230,8,,3.73,29.734253,,,,,,TRUE,,,,,FEW,4000,,,,,,,MVFR,,,,,,,,,,,,METAR,542.0
OPFA 270100Z 00000KT 4000 FU SCT100 24/21 Q1004 NOSIG,OPFA,2023-05-27T01:00:00Z,31.37,73.0,24.0,21.0,0,0,,2.49,29.64567,,,,,,TRUE,,,,FU,SCT,10000,,,,,,,IFR,,,,,,,,,,,,METAR,180.0
OMSJ 270100Z 18006KT CAVOK 29/18 Q1005 NOSIG,OMSJ,2023-05-27T01:00:00Z,25.32,55.52,29.0,18.0,180,6,,6.21,29.675198,,,,,,TRUE,,,,,CAVOK,,,,,,,,VFR,,,,,,,,,,,,METAR,33.0
OMRK 270100Z 19005KT CAVOK 26/15 Q1005 A2969,OMRK,2023-05-27T01:00:00Z,25.62,55.93,26.0,15.0,190,5,,6.21,29.675198,,,,,,,,,,,CAVOK,,,,,,,,VFR,,,,,,,,,,,,METAR,18.0
OMFJ 270100Z 30013KT CAVOK 33/15 Q1004 A2966,OMFJ,2023-05-27T01:00:00Z,25.1,56.32,33.0,15.0,300,13,,6.21,29.64567,,,,,,,,,,,CAVOK,,,,,,,,VFR,,,,,,,,,,,,METAR,27.0
OMDW 270100Z 17007KT CAVOK 28/20 Q1006 NOSIG,OMDW,2023-05-27T01:00:00Z,24.9,55.17,28.0,20.0,170,7,,6.21,29.704725,,,,,,TRUE,,,,,CAVOK,,,,,,,,VFR,,,,,,,,,,,,METAR,34.0
OMDB 270100Z 19006KT CAVOK 30/20 Q1005 NOSIG,OMDB,2023-05-27T01:00:00Z,25.25,55.37,30.0,20.0,190,6,,6.21,29.675198,,,,,,TRUE,,,,,CAVOK,,,,,,,,VFR,,,,,,,,,,,,METAR,5.0
OMAL 270100Z 08002KT CAVOK 30/12 Q1008 NOSIG,OMAL,2023-05-27T01:00:00Z,24.25,55.6,30.0,12.0,80,2,,6.21,29.763779,,,,,,TRUE,,,,,CAVOK,,,,,,,,VFR,,,,,,,,,,,,METAR,247.0
OMAD 270100Z 22002KT CAVOK 31/23 Q1005 NOSIG,OMAD,2023-05-27T01:00:00Z,24.42,54.47,31.0,23.0,220,2,,6.21,29.675198,,,,,,TRUE,,,,,CAVOK,,,,,,,,VFR,,,,,,,,,,,,METAR,9.0
OMAA 270100Z VRB01KT CAVOK 31/20 Q1005 NOSIG,OMAA,2023-05-27T01:00:00Z,24.42,54.65,31.0,20.0,0,1,,6.21,29.675198,,,,,,TRUE,,,,,CAVOK,,,,,,,,VFR,,,,,,,,,,,,METAR,13.0
OLBA 270100Z 12003KT 8000 NSC 22/06 Q1010 NOSIG,OLBA,2023-05-27T01:00:00Z,33.82,35.48,22.0,6.0,120,3,,4.97,29.822834,,,,,,TRUE,,,,,CLR,,,,,,,,MVFR,,,,,,,,,,,,METAR,29.0
OKKK 270100Z 00000KT CAVOK 26/12 Q1007 NOSIG,OKKK,2023-05-27T01:00:00Z,,,26.0,12.0,0,0,,6.21,29.734253,,,,,,TRUE,,,,,CAVOK,,,,,,,,VFR,,,,,,,,,,,,METAR,
OJAQ 270100Z 35005KT 5000 HZ NSC 27/09 Q1005 NOSIG,OJAQ,2023-05-27T01:00:00Z,29.62,35.02,27.0,9.0,350,5,,3.11,29.675198,,,,,,TRUE,,,,HZ,CLR,,,,,,,,MVFR,,,,,,,,,,,,METAR,45.0
OJAM 270100Z 00000KT 6000 NSC 21/10 Q1013 NOSIG,OJAM,2023-05-27T01:00:00Z,31.98,35.98,21.0,10.0,0,0,,3.73,29.911417,,,,,,TRUE,,,,,CLR,,,,,,,,MVFR,,,,,,,,,,,,METAR,765.0
OJAI 270100Z 07005KT 5000 HZ NSC 21/06 Q1013 NOSIG,OJAI,2023-05-27T01:00:00Z,31.72,36.0,21.0,6.0,70,5,,3.11,29.911417,,,,,,TRUE,,,,HZ,CLR,,,,,,,,MVFR,,,,,,,,,,,,METAR,723.0
OIZH 270100Z 18004KT CAVOK 20/M00 Q1014 A2996,OIZH,2023-05-27T01:00:00Z,29.47,60.92,20.0,0.0,180,4,,6.21,29.940945,,,,,,,,,,,CAVOK,,,,,,,,VFR,,,,,,,,,,,,METAR,1378.0
OIZC 270100Z 27006KT 5000 HZ NSC 29/19 Q1002,OIZC,2023-05-27T01:00:00Z,25.45,60.38,29.0,19.0,270,6,,3.11,29.586615,,,,,,,,,,HZ,CLR,,,,,,,,MVFR,,,,,,,,,,,,METAR,13.0
OIYY 270100Z 36016KT 2500 SA FEW035CB SCT040 23/09 Q1015,OIYY,2023-05-27T01:00:00Z,31.9,54.28,23.0,9.0,360,16,,1.55,29.970472,,,,,,,,,,SA,FEW,3500,SCT,4000,,,,,IFR,,,,,,,,,,,,METAR,1226.0
OITT 270100Z 03010KT 9999 FEW030 FEW032CB 14/08 Q1019 A3010,OITT,2023-05-27T01:00:00Z,38.13,46.23,14.0,8.0,30,10,,6.21,30.088583,,,,,,,,,,,FEW,3000,FEW,3200,,,,,VFR,,,,,,,,,,,,METAR,1353.0
OITR 270100Z 22006KT 9999 FEW035CB SCT040 11/09 Q1016 A3003,OITR,2023-05-27T01:00:00Z,37.67,45.07,11.0,9.0,220,6,,6.21,30.0,,,,,,,,,,,FEW,3500,SCT,4000,,,,,VFR,,,,,,,,,,,,METAR,1312.0
OITP 270100Z 28006KT CAVOK 18/15 Q1008,OITP,2023-05-27T01:00:00Z,39.6,47.88,18.0,15.0,280,6,,6.21,29.763779,,,,,,,,,,,CAVOK,,,,,,,,VFR,,,,,,,,,,,,METAR,72.0
OITL 270100Z 30004KT 9999 FEW035 12/11 Q1016,OITL,2023-05-27T01:00:00Z,38.33,48.42,12.0,11.0,300,4,,6.21,30.0,,,,,,,,,,,FEW,3500,,,,,,,VFR,,,,,,,,,,,,METAR,1314.0
OISY 270100Z 00000KT CAVOK 14/04 Q1022,OISY,2023-05-27T01:00:00Z,30.7,51.55,14.0,4.0,0,0,,6.21,30.177166,,,,,,,,,,,CAVOK,,,,,,,,VFR,,,,,,,,,,,,METAR,1800.0
OISS 270100Z 30004KT 8000 NSC 22/04 Q1016 A3001,OISS,2023-05-27T01:00:00Z,29.53,52.58,22.0,4.0,300,4,,4.97,30.0,,,,,,,,,,,CLR,,,,,,,,MVFR,,,,,,,,,,,,METAR,1484.0
OISL 270100Z 00000KT CAVOK 24/09 Q1008 A2979,OISL,2023-05-27T01:00:00Z,27.67,54.37,24.0,9.0,0,0,,6.21,29.763779,,,,,,,,,,,CAVOK,,,,,,,,VFR,,,,,,,,,,,,METAR,804.0
OISF 270100Z 34004KT 9999 FEW035 18/06 Q1014 A2995,OISF,2023-05-27T01:00:00Z,28.9,53.72,18.0,6.0,340,4,,6.21,29.940945,,,,,,,,,,,FEW,3500,,,,,,,VFR,,,,,,,,,,,,METAR,1305.0
OINZ 270100Z 19004KT 9999 BKN090 20/17 Q1010,OINZ,2023-05-27T01:00:00Z,36.63,53.2,20.0,17.0,190,4,,6.21,29.822834,,,,,,,,,,,BKN,9000,,,,,,,VFR,,,,,,,,,,,,METAR,8.0
OINR 270100Z 21002KT 9999 SCT027 BKN100 22/19 Q1009,OINR,2023-05-27T01:00:00Z,36.9,50.67,22.0,19.0,210,2,,6.21,29.793306,,,,,,,,,,,SCT,2700,BKN,10000,,,,,VFR,,,,,,,,,,,,METAR,-19.0
OINN 270100Z 31002KT 9999 BKN027 BKN090 22/20 Q1008,OINN,2023-05-27T01:00:00Z,36.67,51.47,22.0,20.0,310,2,,6.21,29.763779,,,,,,,,,,,BKN,2700,BKN,9000,,,,,MVFR,,,,,,,,,,,,METAR,-25.0
OING 270100Z 00000KT CAVOK 19/17 Q1009,OING,2023-05-27T01:00:00Z,36.9,54.4,19.0,17.0,0,0,,6.21,29.793306,,,,,,,,,,,CAVOK,,,,,,,,VFR,,,,,,,,,,,,METAR,0.0
OIMN 270100Z 00000KT 7000 BKN070 20/11 Q1015,OIMN,2023-05-27T01:00:00Z,37.48,57.3,20.0,11.0,0,0,,4.35,29.970472,,,,,,,,,,,BKN,7000,,,,,,,MVFR,,,,,,,,,,,,METAR,1065.0
OIMM 270100Z 00000KT CAVOK 19/03 Q1014 A2997,OIMM,2023-05-27T01:00:00Z,36.23,59.63,19.0,3.0,0,0,,6.21,29.940945,,,,,,,,,,,CAVOK,,,,,,,,VFR,,,,,,,,,,,,METAR,995.0
OIMJ 270100Z AUTO 04007KT //// // ////// 17/06 Q1014,OIMJ,2023-05-27T01:00:00Z,36.43,55.1,17.0,6.0,40,7,,,29.940945,,,TRUE,,,,,,,,,,,,,,,,,,,,,,,,,,,,METAR,1285.0
OIMB 270100Z 08006KT 9999 FEW040 BKN090 20/M05 Q1014 A2997,OIMB,2023-05-27T01:00:00Z,32.9,59.28,20.0,-5.0,80,6,,6.21,29.940945,,,,,,,,,,,FEW,4000,BKN,9000,,,,,VFR,,,,,,,,,,,,METAR,1512.0
OIKQ 270100Z 25010KT 3000 BR NSC 28/27 Q1003,OIKQ,2023-05-27T01:00:00Z,26.75,55.9,28.0,27.0,250,10,,1.86,29.616142,,,,,,,,,,BR,CLR,,,,,,,,IFR,,,,,,,,,,,,METAR,9.0
OIKK 270100Z 00000KT CAVOK 18/07 Q1016 A3002,OIKK,2023-05-27T01:00:00Z,30.25,56.97,18.0,7.0,0,0,,6.21,30.0,,,,,,,,,,,CAVOK,,,,,,,,VFR,,,,,,,,,,,,METAR,1749.0
OIKB 270100Z VRB02KT 5000 BR NSC 29/25 Q1003 A2963,OIKB,2023-05-27T01:00:00Z,27.22,56.37,29.0,25.0,0,2,,3.11,29.616142,,,,,,,,,,BR,CLR,,,,,,,,MVFR,,,,,,,,,,,,METAR,6.0
OIIP 270100Z 29010KT 9999 FEW040 SCT200 16/08 Q1014 A2995,OIIP,2023-05-27T01:00:00Z,35.78,50.83,16.0,8.0,290,10,,6.21,29.940945,,,,,,,,,,,FEW,4000,SCT,20000,,,,,VFR,,,,,,,,,,,,METAR,1270.0
OIIK 270100Z 00000KT CAVOK 13/09 Q1016,OIIK,2023-05-27T01:00:00Z,36.25,50.05,13.0,9.0,0,0,,6.21,30.0,,,,,,,,,,,CAVOK,,,,,,,,VFR,,,,,,,,,,,,METAR,1278.0
OIII 270100Z 28006KT 9999 FEW040 SCT100 22/05 Q1014 A2994 NOSIG,OIII,2023-05-27T01:00:00Z,35.68,51.3,22.0,5.0,280,6,,6.21,29.940945,,,,,,TRUE,,,,,FEW,4000,SCT,10000,,,,,VFR,,,,,,,,,,,,METAR,1182.0
OIIE 270100Z 29016KT 9999 FEW040 SCT100 21/07 Q1013,OIIE,2023-05-27T01:00:00Z,35.42,51.15,21.0,7.0,290,16,,6.21,29.911417,,,,,,,,,,,FEW,4000,SCT,10000,,,,,VFR,,,,,,,,,,,,METAR,993.0
OIHH 270100Z 12002KT 9999 FEW040 08/08 Q1020 A3014,OIHH,2023-05-27T01:00:00Z,34.87,48.55,8.0,8.0,120,2,,6.21,30.11811,,,,,,,,,,,FEW,4000,,,,,,,VFR,,,,,,,,,,,,METAR,1742.0
OIFM 270100Z 32006KT CAVOK 18/07 Q1019 A3009,OIFM,2023-05-27T01:00:00Z,32.75,51.87,18.0,7.0,320,6,,6.21,30.088583,,,,,,,,,,,CAVOK,,,,,,,,VFR,,,,,,,,,,,,METAR,1539.0
OICS 270100Z 00000KT CAVOK 12/10 Q1019 A3010,OICS,2023-05-27T01:00:00Z,35.25,47.02,12.0,10.0,0,0,,6.21,30.088583,,,,,,,,,,,CAVOK,,,,,,,,VFR,,,,,,,,,,,,METAR,1369.0
OICK 270100Z 13004KT CAVOK 13/10 Q1017 A3005,OICK,2023-05-27T01:00:00Z,33.43,48.28,13.0,10.0,130,4,,6.21,30.029528,,,,,,,,,,,CAVOK,,,,,,,,VFR,,,,,,,,,,,,METAR,1156.0
OICI 270100Z 12004KT CAVOK 17/07 Q1018 A3008,OICI,2023-05-27T01:00:00Z,33.58,46.4,17.0,7.0,120,4,,6.21,30.059055,,,,,,,,,,,CAVOK,,,,,,,,VFR,,,,,,,,,,,,METAR,1323.0
OICC 270100Z 13004KT CAVOK 12/11 Q1018 A3009,OICC,2023-05-27T01:00:00Z,34.35,47.17,12.0,11.0,130,4,,6.21,30.059055,,,,,,,,,,,CAVOK,,,,,,,,VFR,,,,,,,,,,,,METAR,1310.0
OIBQ 270100Z 31006KT CAVOK 29/23 Q1005 A2970,OIBQ,2023-05-27T01:00:00Z,29.27,50.32,29.0,23.0,310,6,,6.21,29.675198,,,,,,,,,,,CAVOK,,,,,,,,VFR,,,,,,,,,,,,METAR,3.0
OIBP 270100Z 00000KT CAVOK 25/21 Q1003 A2964,OIBP,2023-05-27T01:00:00Z,27.38,52.73,25.0,21.0,0,0,,6.21,29.616142,,,,,,,,,,,CAVOK,,,,,,,,VFR,,,,,,,,,,,,METAR,13.0
OIBK 270100Z 30010KT CAVOK 29/23 Q1003,OIBK,2023-05-27T01:00:00Z,26.53,53.98,29.0,23.0,300,10,,6.21,29.616142,,,,,,,,,,,CAVOK,,,,,,,,VFR,,,,,,,,,,,,METAR,27.0
OIBJ 270100Z AUTO VRB01KT //// // ////// 26/09 Q1010,OIBJ,2023-05-27T01:00:00Z,27.82,52.35,26.0,9.0,0,1,,,29.822834,,,TRUE,,,,,,,,,,,,,,,,,,,,,,,,,,,,METAR,647.0
OIBB 270100Z 33006KT CAVOK 29/21 Q1005 A2970,OIBB,2023-05-27T01:00:00Z,28.93,50.83,29.0,21.0,330,6,,6.21,29.675198,,,,,,,,,,,CAVOK,,,,,,,,VFR,,,,,,,,,,,,METAR,15.0
OIAW 270100Z 32004KT 7000 NSC 30/10 Q1005,OIAW,2023-05-27T01:00:00Z,31.33,48.77,30.0,10.0,320,4,,4.35,29.675198,,,,,,,,,,,CLR,,,,,,,,MVFR,,,,,,,,,,,,METAR,25.0
OIAM 270100Z 00000KT CAVOK 27/15 Q1006,OIAM,2023-05-27T01:00:00Z,30.55,49.15,27.0,15.0,0,0,,6.21,29.704725,,,,,,,,,,,CAVOK,,,,,,,,VFR,,,,,,,,,,,,METAR,7.0
OIAH 270100Z 00000KT CAVOK 22/09 Q1011,OIAH,2023-05-27T01:00:00Z,30.33,50.83,22.0,9.0,0,0,,6.21,29.852362,,,,,,,,,,,CAVOK,,,,,,,,VFR,,,,,,,,,,,,METAR,730.0
OIAA 270100Z 00000KT 6000 NSC 27/18 Q1006,OIAA,2023-05-27T01:00:00Z,30.35,48.22,27.0,18.0,0,0,,3.73,29.704725,,,,,,,,,,,CLR,,,,,,,,MVFR,,,,,,,,,,,,METAR,4.0
OEYN 270100Z 16006KT CAVOK 29/23 Q1004 NOSIG,OEYN,2023-05-27T01:00:00Z,24.13,38.07,29.0,23.0,160,6,,6.21,29.64567,,,,,,TRUE,,,,,CAVOK,,,,,,,,VFR,,,,,,,,,,,,METAR,20.0
OEWJ 270100Z 11003KT CAVOK 28/14 Q1006 NOSIG,OEWJ,2023-05-27T01:00:00Z,26.18,36.47,28.0,14.0,110,3,,6.21,29.704725,,,,,,TRUE,,,,,CAVOK,,,,,,,,VFR,,,,,,,,,,,,METAR,8.0
OEWD 270100Z 34004KT 9999 FEW040 SCT080 28/12 Q1009,OEWD,2023-05-27T01:00:00Z,20.5,45.2,28.0,12.0,340,4,,6.21,29.793306,,,,,,,,,,,FEW,4000,SCT,8000,,,,,VFR,,,,,,,,,,,,METAR,629.0
OETR 270100Z 06009KT CAVOK 21/01 Q1013 NOSIG,OETR,2023-05-27T01:00:00Z,31.7,38.73,21.0,1.0,60,9,,6.21,29.911417,,,,,,TRUE,,,,,CAVOK,,,,,,,,VFR,,,,,,,,,,,,METAR,854.0
OETF 270100Z 00000KT 7000 NSC 22/16 Q1019 NOSIG,OETF,2023-05-27T01:00:00Z,21.47,40.53,22.0,16.0,0,0,,4.35,30.088583,,,,,,TRUE,,,,,CLR,,,,,,,,MVFR,,,,,,,,,,,,METAR,1460.0
OETB 270100Z 00000KT CAVOK 27/M06 Q1013 NOSIG,OETB,2023-05-27T01:00:00Z,28.37,36.62,27.0,-6.0,0,0,,6.21,29.911417,,,,,,TRUE,,,,,CAVOK,,,,,,,,VFR,,,,,,,,,,,,METAR,770.0
OESK 270100Z 35004KT CAVOK 24/M06 Q1015 NOSIG,OESK,2023-05-27T01:00:00Z,29.78,40.1,24.0,-6.0,350,4,,6.21,29.970472,,,,,,TRUE,,,,,CAVOK,,,,,,,,VFR,,,,,,,,,,,,METAR,671.0
OESH 270100Z 14004KT 9999 SCT035 31/15 Q1010 NOSIG,OESH,2023-05-27T01:00:00Z,17.47,47.12,31.0,15.0,140,4,,6.21,29.822834,,,,,,TRUE,,,,,SCT,3500,,,,,,,VFR,,,,,,,,,,,,METAR,720.0
OERR 270100Z 35007KT 9999 FEW040 22/M09 Q1011 NOSIG,OERR,2023-05-27T01:00:00Z,30.9,41.13,22.0,-9.0,350,7,,6.21,29.852362,,,,,,TRUE,,,,,FEW,4000,,,,,,,VFR,,,,,,,,,,,,METAR,554.0
OERK 270100Z 04002KT 9999 SCT040 27/07 Q1012 NOSIG,OERK,2023-05-27T01:00:00Z,24.95,46.72,27.0,7.0,40,2,,6.21,29.88189,,,,,,TRUE,,,,,SCT,4000,,,,,,,VFR,,,,,,,,,,,,METAR,618.0
OERF 270100Z 28004KT CAVOK 24/M02 Q1011 NOSIG,OERF,2023-05-27T01:00:00Z,29.62,43.48,24.0,-2.0,280,4,,6.21,29.852362,,,,,,TRUE,,,,,CAVOK,,,,,,,,VFR,,,,,,,,,,,,METAR,441.0
OEPA 270100Z 18006KT CAVOK 29/12 Q1009 NOSIG,OEPA,2023-05-27T01:00:00Z,28.33,46.12,29.0,12.0,180,6,,6.21,29.793306,,,,,,TRUE,,,,,CAVOK,,,,,,,,VFR,,,,,,,,,,,,METAR,361.0
OENG 270100Z 33006KT 9999 FEW030 SCT090 29/09 Q1015 NOSIG,OENG,2023-05-27T01:00:00Z,17.62,44.42,29.0,9.0,330,6,,6.21,29.970472,,,,,,TRUE,,,,,FEW,3000,SCT,9000,,,,,VFR,,,,,,,,,,,,METAR,1210.0
OEMN 270100Z 00000KT CAVOK 31/22 Q1010,OEMN,2023-05-27T01:00:00Z,,,31.0,22.0,0,0,,6.21,29.822834,,,,,,,,,,,CAVOK,,,,,,,,VFR,,,,,,,,,,,,METAR,
OEMA 270100Z 17003KT CAVOK 28/07 Q1013 NOSIG,OEMA,2023-05-27T01:00:00Z,24.55,39.7,28.0,7.0,170,3,,6.21,29.911417,,,,,,TRUE,,,,,CAVOK,,,,,,,,VFR,,,,,,,,,,,,METAR,639.0
OEKM 270100Z 00000KT 9999 FEW022 20/10 Q1023 NOSIG,OEKM,2023-05-27T01:00:00Z,18.3,42.78,20.0,10.0,0,0,,6.21,30.206694,,,,,,TRUE,,,,,FEW,2200,,,,,,,VFR,,,,,,,,,,,,METAR,2038.0
OEKJ 270100Z 06006KT 9000 NSC 29/09 Q1013,OEKJ,2023-05-27T01:00:00Z,24.07,47.58,29.0,9.0,60,6,,5.59,29.911417,,,,,,,,,,,CLR,,,,,,,,VFR,,,,,,,,,,,,METAR,487.0
OEJN 270100Z 00000KT CAVOK 31/20 Q1006 NOSIG,OEJN,2023-05-27T01:00:00Z,21.68,39.15,31.0,20.0,0,0,,6.21,29.704725,,,,,,TRUE,,,,,CAVOK,,,,,,,,VFR,,,,,,,,,,,,METAR,8.0
OEHL 270100Z 18002KT CAVOK 24/07 Q1016 NOSIG,OEHL,2023-05-27T01:00:00Z,27.43,41.68,24.0,7.0,180,2,,6.21,30.0,,,,,,TRUE,,,,,CAVOK,,,,,,,,VFR,,,,,,,,,,,,METAR,1002.0
OEGT 270100Z 00000KT CAVOK 23/05 Q1010 NOSIG,OEGT,2023-05-27T01:00:00Z,31.42,37.27,23.0,5.0,0,0,,6.21,29.822834,,,,,,TRUE,,,,,CAVOK,,,,,,,,VFR,,,,,,,,,,,,METAR,512.0
OEGS 270100Z 30005KT CAVOK 24/10 Q1011,OEGS,2023-05-27T01:00:00Z,26.3,43.77,24.0,10.0,300,5,,6.21,29.852362,,,,,,,,,,,CAVOK,,,,,,,,VFR,,,,,,,,,,,,METAR,647.0
OEGN 270100Z 07008KT 9999 FEW030 32/20 Q1006 RETS NOSIG,OEGN,2023-05-27T01:00:00Z,16.9,42.58,32.0,20.0,70,8,,6.21,29.704725,,,,,,TRUE,,,,,FEW,3000,,,,,,,VFR,,,,,,,,,,,,METAR,5.0
OEDR 270100Z VRB02KT CAVOK 29/16 Q1005,OEDR,2023-05-27T01:00:00Z,26.27,50.17,29.0,16.0,0,2,,6.21,29.675198,,,,,,,,,,,CAVOK,,,,,,,,VFR,,,,,,,,,,,,METAR,17.0
OEDM 270100Z 09006KT CAVOK 24/04 Q1013,OEDM,2023-05-27T01:00:00Z,24.45,44.12,24.0,4.0,90,6,,6.21,29.911417,,,,,,,,,,,CAVOK,,,,,,,,VFR,,,,,,,,,,,,METAR,922.0
OEDF 270100Z 26004KT CAVOK 28/15 Q1006 NOSIG,OEDF,2023-05-27T01:00:00Z,26.43,49.82,28.0,15.0,260,4,,6.21,29.704725,,,,,,TRUE,,,,,CAVOK,,,,,,,,VFR,,,,,,,,,,,,METAR,15.0
OEBH 270100Z 00000KT CAVOK 24/19 Q1015 NOSIG,OEBH,2023-05-27T01:00:00Z,19.98,42.62,24.0,19.0,0,0,,6.21,29.970472,,,,,,TRUE,,,,,CAVOK,,,,,,,,VFR,,,,,,,,,,,,METAR,1167.0
OEBA 270100Z 28003KT CAVOK 22/13 Q1020 NOSIG,OEBA,2023-05-27T01:00:00Z,20.3,41.63,22.0,13.0,280,3,,6.21,30.11811,,,,,,TRUE,,,,,CAVOK,,,,,,,,VFR,,,,,,,,,,,,METAR,1659.0
OEAO 270100Z 00000KT CAVOK 28/M03 Q1011 NOSIG,OEAO,2023-05-27T01:00:00Z,26.48,38.12,28.0,-3.0,0,0,,6.21,29.852362,,,,,,TRUE,,,,,CAVOK,,,,,,,,VFR,,,,,,,,,,,,METAR,615.0
OEAH 270100Z 32003KT CAVOK 29/15 Q1007 NOSIG,OEAH,2023-05-27T01:00:00Z,25.28,49.48,29.0,15.0,320,3,,6.21,29.734253,,,,,,TRUE,,,,,CAVOK,,,,,,,,VFR,,,,,,,,,,,,METAR,180.0
OEAB 270100Z 00000KT CAVOK 19/12 Q1024 NOSIG,OEAB,2023-05-27T01:00:00Z,18.23,42.65,19.0,12.0,0,0,,6.21,30.236221,,,,,,TRUE,,,,,CAVOK,,,,,,,,VFR,,,,,,,,,,,,METAR,2092.0
OBBI 270100Z 29005KT CAVOK 31/22 Q1006 NOSIG,OBBI,2023-05-27T01:00:00Z,26.27,50.63,31.0,22.0,290,5,,6.21,29.704725,,,,,,TRUE,,,,,CAVOK,,,,,,,,VFR,,,,,,,,,,,,METAR,6.0
NZWN 270100Z AUTO 35018G33KT 9999 BKN021/// BKN027/// BKN042/// 17/13 Q1018,NZWN,2023-05-27T01:00:00Z,-41.32,174.8,17.0,13.0,350,18,33,6.21,30.059055,,,TRUE,,,,,,,,BKN,2100,BKN,2700,BKN,4200,,,MVFR,,,,,,,,,,,,METAR,12.0
NZCH 270100Z AUTO 34010KT 9999 NCD 19/09 Q1012,NZCH,2023-05-27T01:00:00Z,-43.48,172.52,19.0,9.0,340,10,,6.21,29.88189,,,TRUE,,,,,,,,CLR,,,,,,,,VFR,,,,,,,,,,,,METAR,36.0
NZAA 270100Z AUTO 07013KT 9999 BKN036/// BKN043/// 17/13 Q1020,NZAA,2023-05-27T01:00:00Z,-37.02,174.8,17.0,13.0,70,13,,6.21,30.11811,,,TRUE,,,,,,,,BKN,3600,BKN,4300,,,,,VFR,,,,,,,,,,,,METAR,7.0
NWWW 270100Z AUTO 22005KT 190V260 9999 SCT048 OVC060 25/17 Q1011 TEMPO SHRA BKN014 FEW020TCU,NWWW,2023-05-27T01:00:00Z,-22.02,166.22,25.0,17.0,220,5,,6.21,29.852362,,,TRUE,,,,,,,,SCT,4800,OVC,6000,,,,,VFR,,,,,,,,,,,,METAR,16.0
NVVW 270100Z 09003KT 9999 SCT025 28/18 Q1012,NVVW,2023-05-27T01:00:00Z,-19.45,169.22,28.0,18.0,90,3,,6.21,29.88189,,,,,,,,,,,SCT,2500,,,,,,,VFR,,,,,,,,,,,,METAR,5.0
NVVV 270100Z 04004KT 9999 SCT020 27/18 Q1010,NVVV,2023-05-27T01:00:00Z,-17.68,168.3,27.0,18.0,40,4,,6.21,29.822834,,,,,,,,,,,SCT,2000,,,,,,,VFR,,,,,,,,,,,,METAR,23.0
NVSS 270100Z 08006KT 9999 SCT020 28/18 Q1010,NVSS,2023-05-27T01:00:00Z,-15.52,167.22,28.0,18.0,80,6,,6.21,29.822834,,,,,,,,,,,SCT,2000,,,,,,,VFR,,,,,,,,,,,,METAR,47.0
NTAA 270100Z 22006KT 9999 FEW028 30/22 Q1013 NOSIG,NTAA,2023-05-27T01:00:00Z,-17.55,-149.62,30.0,22.0,220,6,,6.21,29.911417,,,,,,TRUE,,,,,FEW,2800,,,,,,,VFR,,,,,,,,,,,,METAR,2.0
NLWW 270100Z 07010KT 9999 SCT013 SCT160 BKN260 29/25 Q1009 TEMPO 09015G25KT 1500 TSRA BKN009 SCT015CB,NLWW,2023-05-27T01:00:00Z,-13.23,-176.18,29.0,25.0,70,10,,6.21,29.793306,,,,,,,,,,,SCT,1300,SCT,16000,BKN,26000,,,VFR,,,,,,,,,,,,METAR,24.0
NIUE 270100Z AUTO 08015KT 050V110 NCD 26/21 Q1013,NIUE,2023-05-27T01:00:00Z,-19.07,-169.92,26.0,21.0,80,15,,,29.911417,,,TRUE,,,,,,,,CLR,,,,,,,,,,,,,,,,,,,,METAR,22.0
NGTA 270100Z 17004KT 9999 FEW018TCU 31/26 Q1009,NGTA,2023-05-27T01:00:00Z,1.37,173.13,31.0,26.0,170,4,,6.21,29.793306,,,,,,,,,,,FEW,1800,,,,,,,VFR,,,,,,,,,,,,METAR,8.0
NFTV 270100Z 07005KT 9999 FEW018 SCT035 27/22 Q1013,NFTV,2023-05-27T01:00:00Z,-18.58,-173.97,27.0,22.0,70,5,,6.21,29.911417,,,,,,,,,,,FEW,1800,SCT,3500,,,,,VFR,,,,,,,,,,,,METAR,71.0
NFTL 270100Z 33005KT 9999 SCT016 BKN100 26/20 Q1012,NFTL,2023-05-27T01:00:00Z,-19.78,-174.33,26.0,20.0,330,5,,6.21,29.88189,,,,,,,,,,,SCT,1600,BKN,10000,,,,,VFR,,,,,,,,,,,,METAR,10.0
NFTF 270100Z 16006KT 9999 FEW016 26/20 Q1013,NFTF,2023-05-27T01:00:00Z,-21.23,-175.15,26.0,20.0,160,6,,6.21,29.911417,,,,,,,,,,,FEW,1600,,,,,,,VFR,,,,,,,,,,,,METAR,38.0
NFNM 270100Z 09008KT 9999 FEW018 BKN047 BKN280 28/22 Q1011,NFNM,2023-05-27T01:00:00Z,-16.68,-179.87,28.0,22.0,90,8,,6.21,29.852362,,,,,,,,,,,FEW,1800,BKN,4700,BKN,28000,,,VFR,,,,,,,,,,,,METAR,21.0
NFNL 270100Z 00000KT 9999 SCT028TCU 30/20 Q1011,NFNL,2023-05-27T01:00:00Z,-16.47,179.33,30.0,20.0,0,0,,6.21,29.852362,,,,,,,,,,,SCT,2800,,,,,,,VFR,,,,,,,,,,,,METAR,17.0
NFNA 270100Z 13006KT 100V170 9999 BKN022 27/19 Q1011,NFNA,2023-05-27T01:00:00Z,-18.05,178.57,27.0,19.0,130,6,,6.21,29.852362,,,,,,,,,,,BKN,2200,,,,,,,MVFR,,,,,,,,,,,,METAR,6.0
NFFN 270100Z 30008KT 9999 FEW030 28/11 Q1012 NOSIG,NFFN,2023-05-27T01:00:00Z,-17.75,177.45,28.0,11.0,300,8,,6.21,29.88189,,,,,,TRUE,,,,,FEW,3000,,,,,,,VFR,,,,,,,,,,,,METAR,14.0
NCSW 270100Z AUTO NIL,NCSW,2023-05-27T01:00:00Z,,,,,,,,,,,,TRUE,,,,,,,,,,,,,,,,,,,,,,,,,,,,METAR,
NCRK 270100Z AUTO NIL,NCRK,2023-05-27T01:00:00Z,-10.02,-161.1,,,,,,,,,,TRUE,,,,,,,,,,,,,,,,,,,,,,,,,,,,METAR,7.0
NCRG 270100Z AUTO 09005KT 050V190 9999 NCD 23/19 Q1016,NCRG,2023-05-27T01:00:00Z,-21.2,-159.82,23.0,19.0,90,5,,6.21,30.0,,,TRUE,,,,,,,,CLR,,,,,,,,VFR,,,,,,,,,,,,METAR,7.0
NCPY 270100Z AUTO 09010KT //// ////// 31/25 Q1009,NCPY,2023-05-27T01:00:00Z,-9.02,-158.03,31.0,25.0,90,10,,,29.793306,,,TRUE,,,,,,,,,,,,,,,,,,,,,,,,,,,,METAR,2.0
NCPL 270100Z AUTO NIL,NCPL,2023-05-27T01:00:00Z,1.98,-157.48,,,,,,,,,,TRUE,,,,,,,,,,,,,,,,,,,,,,,,,,,,METAR,3.0
NCPK 270100Z AUTO 09004KT //// ////// 31/24 Q1010,NCPK,2023-05-27T01:00:00Z,-10.9,-165.83,31.0,24.0,90,4,,,29.822834,,,TRUE,,,,,,,,,,,,,,,,,,,,,,,,,,,,METAR,5.0
NCNS 270100Z AUTO NIL,NCNS,2023-05-27T01:00:00Z,,,,,,,,,,,,TRUE,,,,,,,,,,,,,,,,,,,,,,,,,,,,METAR,
NCMR 270100Z AUTO 09004KT //// ////// ///// Q1014,NCMR,2023-05-27T01:00:00Z,-19.85,-157.7,,,90,4,,,29.940945,,,TRUE,,,,,,,,,,,,,,,,,,,,,,,,,,,,METAR,8.0
NCMK 270100Z AUTO 15006KT //// ////// 25/23 Q1014,NCMK,2023-05-27T01:00:00Z,-20.15,-157.33,25.0,23.0,150,6,,,29.940945,,,TRUE,,,,,,,,,,,,,,,,,,,,,,,,,,,,METAR,13.0
NCMH 270100Z AUTO NIL,NCMH,2023-05-27T01:00:00Z,-10.38,-161.0,,,,,,,,,,TRUE,,,,,,,,,,,,,,,,,,,,,,,,,,,,METAR,1.0
NCMG 270100Z AUTO 14009KT //// ////// ///// Q////,NCMG,2023-05-27T01:00:00Z,-21.88,-157.9,,,140,9,,,,,,TRUE,,,,,,,,,,,,,,,,,,,,,,,,,,,,METAR,14.0
NCAT 270100Z AUTO NIL,NCAT,2023-05-27T01:00:00Z,-19.97,-158.12,,,,,,,,,,TRUE,,,,,,,,,,,,,,,,,,,,,,,,,,,,METAR,11.0
NCAI 270100Z AUTO 17005KT //// ////// 27/25 Q1014,NCAI,2023-05-27T01:00:00Z,-18.82,-159.77,27.0,25.0,170,5,,,29.940945,,,TRUE,,,,,,,,,,,,,,,,,,,,,,,,,,,,METAR,7.0
MZBZ 270100Z 33015KT 8000 -TSRA SCT010CB BKN012 BKN035 23/22 A2983 Q1010 BECMG AT0200 NSW RMK LR-2 CB-E SE S ,MZBZ,2023-05-27T01:00:00Z,17.53,-88.3,23.0,22.0,330,15,,4.97,29.822834,,,,,,,,,,-TSRA,SCT,1000,BKN,1200,BKN,3500,,,MVFR,,,,,,,,,,,,METAR,6.0
MYNN 270100Z 08004KT 050V110 9999 FEW020 SCT032 26/23 A2984,MYNN,2023-05-27T01:00:00Z,25.03,-77.47,26.0,23.0,80,4,,6.21,29.840551,,,,,,,,,,,FEW,2000,SCT,3200,,,,,VFR,,,,,,,,,,,,METAR,5.0
MYGF 270100Z AUTO VRB01KT 9999 // BKN094/// OVC130/// 27/21 A2983,MYGF,2023-05-27T01:00:00Z,26.55,-78.7,27.0,21.0,0,1,,6.21,29.828741,,,TRUE,,,,,,,,BKN,9400,OVC,13000,,,,,VFR,,,,,,,,,,,,METAR,2.0
MWCR 270100Z 22007KT 9999 SCT018 28/21 Q1011,MWCR,2023-05-27T01:00:00Z,19.3,-81.37,28.0,21.0,220,7,,6.21,29.852362,,,,,,,,,,,SCT,1800,,,,,,,VFR,,,,,,,,,,,,METAR,4.0
MTPP 270100Z 10006KT 9000 SCT025 29/23 Q1011 A2987,MTPP,2023-05-27T01:00:00Z,18.57,-72.3,29.0,23.0,100,6,,5.59,29.852362,,,,,,,,,,,SCT,2500,,,,,,,VFR,,,,,,,,,,,,METAR,36.0
MROC 270100Z 00000KT 9999 SCT040 BKN110 22/19 A3000 NOSIG,MROC,2023-05-27T01:00:00Z,10.0,-84.22,22.0,19.0,0,0,,6.21,30.0,,,,,,TRUE,,,,,SCT,4000,BKN,11000,,,,,VFR,,,,,,,,,,,,METAR,900.0
MRLB 270100Z 15009KT 9999 TS FEW015TCU OVC100 24/23 A2982,MRLB,2023-05-27T01:00:00Z,10.6,-85.55,24.0,23.0,150,9,,6.21,29.819881,,,,,,,,,,TS,FEW,1500,OVC,10000,,,,,VFR,,,,,,,,,,,,METAR,79.0
MPTO 270100Z 00000KT 9999 SCT016 SCT090 27/25 Q1009 NOSIG,MPTO,2023-05-27T01:00:00Z,9.05,-79.38,27.0,25.0,0,0,,6.21,29.793306,,,,,,TRUE,,,,,SCT,1600,SCT,9000,,,,,VFR,,,,,,,,,,,,METAR,7.0
MPSM 270100Z 00000KT 9999 SCT020 28/25 Q1010,MPSM,2023-05-27T01:00:00Z,8.38,-80.13,28.0,25.0,0,0,,6.21,29.822834,,,,,,,,,,,SCT,2000,,,,,,,VFR,,,,,,,,,,,,METAR,36.0
MPMG 270100Z AUTO VRB02KT //// R01///// // FEW160/// BKN210/// 28/25 Q1010,MPMG,2023-05-27T01:00:00Z,8.98,-79.57,28.0,25.0,0,2,,,29.822834,,,TRUE,,,,,,,,FEW,16000,BKN,21000,,,,,,,,,,,,,,,,,METAR,6.0
MPDA 270100Z 29004KT 9999 TS SCT016CB SCT120 27/24 Q1010,MPDA,2023-05-27T01:00:00Z,8.4,-82.43,27.0,24.0,290,4,,6.21,29.822834,,,,,,,,,,TS,SCT,1600,SCT,12000,,,,,VFR,,,,,,,,,,,,METAR,15.0
MPBO 270100Z 31004KT 9000 DZ FEW008 SCT015 OVC090 25/25 Q1011,MPBO,2023-05-27T01:00:00Z,9.35,-82.25,25.0,25.0,310,4,,5.59,29.852362,,,,,,,,,,DZ,FEW,800,SCT,1500,OVC,9000,,,VFR,,,,,,,,,,,,METAR,2.0
MNMG 270100Z 16006KT 9000 FEW021 SCT070 29/24 Q1008 A2977 FU NOSIG,MNMG,2023-05-27T01:00:00Z,12.15,-86.17,29.0,24.0,160,6,,5.59,29.763779,,,,,,TRUE,,,,FU,FEW,2100,SCT,7000,,,,,VFR,,,,,,,,,,,,METAR,59.0
MKJS 270100Z 14007KT 9999 FEW022 29/23 Q1011,MKJS,2023-05-27T01:00:00Z,18.5,-77.92,29.0,23.0,140,7,,6.21,29.852362,,,,,,,,,,,FEW,2200,,,,,,,VFR,,,,,,,,,,,,METAR,3.0
MKJP 270100Z 12008KT 9999 FEW022 29/23 Q1011,MKJP,2023-05-27T01:00:00Z,17.93,-76.78,29.0,23.0,120,8,,6.21,29.852362,,,,,,,,,,,FEW,2200,,,,,,,VFR,,,,,,,,,,,,METAR,3.0
MHTG 270100Z VRB02KT 9999 BKN034 SCT090 23/19 Q1016 A3000 RERA NOSIG,MHTG,2023-05-27T01:00:00Z,14.07,-87.22,23.0,19.0,0,2,,6.21,30.0,,,,,,TRUE,,,,,BKN,3400,SCT,9000,,,,,VFR,,,,,,,,,,,,METAR,1001.0
MHPR 270100Z 02012KT 4000 FU FEW048 30/18 Q1013 A2993 NOSIG,MHPR,2023-05-27T01:00:00Z,14.38,-87.62,30.0,18.0,20,12,,2.49,29.911417,,,,,,TRUE,,,,FU,FEW,4800,,,,,,,IFR,,,,,,,,,,,,METAR,628.0
MHLM 270100Z 06009KT 9999 FEW028 29/24 Q1009 A2980 NOSIG,MHLM,2023-05-27T01:00:00Z,15.45,-87.93,29.0,24.0,60,9,,6.21,29.793306,,,,,,TRUE,,,,,FEW,2800,,,,,,,VFR,,,,,,,,,,,,METAR,32.0
MHLC 270100Z 08004KT 9999 FEW020 29/25 Q1009 A2980 NOSIG,MHLC,2023-05-27T01:00:00Z,15.75,-86.85,29.0,25.0,80,4,,6.21,29.793306,,,,,,TRUE,,,,,FEW,2000,,,,,,,VFR,,,,,,,,,,,,METAR,13.0
MHCA 270100Z 05012KT 6000 SCT030TCU BKN070 27/21 Q1011,MHCA,2023-05-27T01:00:00Z,14.87,-85.78,27.0,21.0,50,12,,3.73,29.852362,,,,,,,,,,,SCT,3000,BKN,7000,,,,,MVFR,,,,,,,,,,,,METAR,386.0
MGPB 270100Z 00000KT 9000 BKN200 28/// Q1008 A2977,MGPB,2023-05-27T01:00:00Z,15.73,-88.58,,,0,0,,5.59,29.763779,,,,,,,,,,,BKN,20000,,,,,,,VFR,,,,,,,,,,,,METAR,6.0
MGMM 270100Z 30006 CAVOK 31/21 Q1010 A2983 SCT200,MGMM,2023-05-27T01:00:00Z,16.9,-89.87,31.0,21.0,300,6,,6.21,29.822834,,,,,,,,,,,SCT,20000,,,,,,,VFR,,,,,,,,,,,,METAR,105.0
MGHT 270100Z 00000KT 99999 SCT028 BKN200 20/16,MGHT,2023-05-27T01:00:00Z,15.32,-91.5,20.0,16.0,0,0,,6.21,,,,,,,,,,,,SCT,2800,BKN,20000,,,,,VFR,,,,,,,,,,,,METAR,1875.0
MGGT 270100Z 00000KT 5000 HZ FEW016 SCT090 22/19 Q1019 A3009,MGGT,2023-05-27T01:00:00Z,14.58,-90.53,22.0,19.0,0,0,,3.11,30.088583,,,,,,,,,,HZ,FEW,1600,SCT,9000,,,,,MVFR,,,,,,,,,,,,METAR,1497.0
MDST 270100Z VRB03KT 9999 FEW018CB FEW018 24/23 Q1013 CB/NW,MDST,2023-05-27T01:00:00Z,19.4,-70.6,24.0,23.0,0,3,,6.21,29.911417,,,,,,,,,,,FEW,1800,FEW,1800,,,,,VFR,,,,,,,,,,,,METAR,175.0
MDSD 270100Z 15007KT 9999 SCT018 25/25 Q1014,MDSD,2023-05-27T01:00:00Z,18.42,-69.67,25.0,25.0,150,7,,6.21,29.940945,,,,,,,,,,,SCT,1800,,,,,,,VFR,,,,,,,,,,,,METAR,18.0
MDPP 270100Z 00000KT 9999 SCT018 24/24 Q1012,MDPP,2023-05-27T01:00:00Z,19.75,-70.57,24.0,24.0,0,0,,6.21,29.88189,,,,,,,,,,,SCT,1800,,,,,,,VFR,,,,,,,,,,,,METAR,9.0
MDPC 270100Z 16006KT 9999 FEW018 28/25 Q1014,MDPC,2023-05-27T01:00:00Z,18.57,-68.37,28.0,25.0,160,6,,6.21,29.940945,,,,,,,,,,,FEW,1800,,,,,,,VFR,,,,,,,,,,,,METAR,10.0
MDLR 270100Z 17005KT 9999 FEW018 27/25 Q1013,MDLR,2023-05-27T01:00:00Z,18.45,-68.92,27.0,25.0,170,5,,6.21,29.911417,,,,,,,,,,,FEW,1800,,,,,,,VFR,,,,,,,,,,,,METAR,66.0
MDJB 270100Z 00000KT 9999 FEW018 26/23 Q1013,MDJB,2023-05-27T01:00:00Z,18.57,-69.98,26.0,23.0,0,0,,6.21,29.911417,,,,,,,,,,,FEW,1800,,,,,,,VFR,,,,,,,,,,,,METAR,24.0
LZZI 270100Z 11004KT CAVOK 11/06 Q1023,LZZI,2023-05-27T01:00:00Z,49.23,18.62,11.0,6.0,110,4,,6.21,30.206694,,,,,,,,,,,CAVOK,,,,,,,,VFR,,,,,,,,,,,,METAR,311.0
LZTT 270100Z VRB02KT 9999 SCT080 09/06 Q1022,LZTT,2023-05-27T01:00:00Z,49.07,20.25,9.0,6.0,0,2,,6.21,30.177166,,,,,,,,,,,SCT,8000,,,,,,,VFR,,,,,,,,,,,,METAR,693.0
LZPP 270100Z AUTO 33012KT 9999 NCD 12/06 Q1021,LZPP,2023-05-27T01:00:00Z,48.62,17.83,12.0,6.0,330,12,,6.21,30.147638,,,TRUE,,,,,,,,CLR,,,,,,,,VFR,,,,,,,,,,,,METAR,160.0
LZKZ 270100Z 02010KT CAVOK 16/11 Q1020 NOSIG,LZKZ,2023-05-27T01:00:00Z,48.67,21.23,16.0,11.0,20,10,,6.21,30.11811,,,,,,TRUE,,,,,CAVOK,,,,,,,,VFR,,,,,,,,,,,,METAR,227.0
LZIB 270100Z 31005KT CAVOK 15/06 Q1021 NOSIG,LZIB,2023-05-27T01:00:00Z,48.17,17.22,15.0,6.0,310,5,,6.21,30.147638,,,,,,TRUE,,,,,CAVOK,,,,,,,,VFR,,,,,,,,,,,,METAR,129.0
LYVR 270100Z AUTO 19003KT 9999 4500 NSC 15/15 Q1018,LYVR,2023-05-27T01:00:00Z,45.13,21.32,15.0,15.0,190,3,,6.21,30.059055,,,TRUE,,,,,,,,CLR,,,,,,,,VFR,,,,,,,,,,,,METAR,82.0
LYTV 270100Z AUTO VRB01KT CAVOK 15/10 Q1013,LYTV,2023-05-27T01:00:00Z,42.4,18.72,15.0,10.0,0,1,,6.21,29.911417,,,TRUE,,,,,,,,CAVOK,,,,,,,,VFR,,,,,,,,,,,,METAR,3.0
LYNI 270100Z 00000KT 9999 FEW020 14/12 Q1017 NOSIG,LYNI,2023-05-27T01:00:00Z,43.33,21.85,14.0,12.0,0,0,,6.21,30.029528,,,,,,TRUE,,,,,FEW,2000,,,,,,,VFR,,,,,,,,,,,,METAR,197.0
LYKV 270100Z 00000KT 8000 FEW050 13/13 Q1018 NOSIG,LYKV,2023-05-27T01:00:00Z,43.82,20.58,13.0,13.0,0,0,,4.97,30.059055,,,,,,TRUE,,,,,FEW,5000,,,,,,,MVFR,,,,,,,,,,,,METAR,209.0
LYBT 270100Z 26003KT CAVOK 14/14 Q1017 NOSIG,LYBT,2023-05-27T01:00:00Z,44.93,20.25,14.0,14.0,260,3,,6.21,30.029528,,,,,,TRUE,,,,,CAVOK,,,,,,,,VFR,,,,,,,,,,,,METAR,78.0
LYBE 270100Z 18005KT CAVOK 14/14 Q1017 NOSIG,LYBE,2023-05-27T01:00:00Z,44.82,20.28,14.0,14.0,180,5,,6.21,30.029528,,,,,,TRUE,,,,,CAVOK,,,,,,,,VFR,,,,,,,,,,,,METAR,93.0
LWSK 270100Z 00000KT 9999 FEW100 11/10 Q1016 NOSIG,LWSK,2023-05-27T01:00:00Z,41.97,21.63,11.0,10.0,0,0,,6.21,30.0,,,,,,TRUE,,,,,FEW,10000,,,,,,,VFR,,,,,,,,,,,,METAR,232.0
LUKK 270100Z VRB01KT CAVOK 14/14 Q1014 NOSIG,LUKK,2023-05-27T01:00:00Z,46.93,28.93,14.0,14.0,0,1,,6.21,29.940945,,,,,,TRUE,,,,,CAVOK,,,,,,,,VFR,,,,,,,,,,,,METAR,102.0
LRTR 270100Z 10005KT 070V180 6000 FEW006 13/13 Q1016,LRTR,2023-05-27T01:00:00Z,45.82,21.33,13.0,13.0,100,5,,3.73,30.0,,,,,,,,,,,FEW,600,,,,,,,MVFR,,,,,,,,,,,,METAR,104.0
LRTM 270100Z AUTO 10003KT 9999 FEW075/// OVC095/// 15/13 Q1017,LRTM,2023-05-27T01:00:00Z,46.47,24.42,15.0,13.0,100,3,,6.21,30.029528,,,TRUE,,,,,,,,FEW,7500,OVC,9500,,,,,VFR,,,,,,,,,,,,METAR,289.0
LRTC 270100Z AUTO 34006KT 7000 BKN160/// BKN220/// 15/13 Q1013,LRTC,2023-05-27T01:00:00Z,45.07,28.72,15.0,13.0,340,6,,4.35,29.911417,,,TRUE,,,,,,,,BKN,16000,BKN,22000,,,,,MVFR,,,,,,,,,,,,METAR,52.0
LRSV 270100Z 32014KT CAVOK 17/13 Q1017,LRSV,2023-05-27T01:00:00Z,47.68,26.35,17.0,13.0,320,14,,6.21,30.029528,,,,,,,,,,,CAVOK,,,,,,,,VFR,,,,,,,,,,,,METAR,406.0
LRSM 270100Z AUTO 02006KT 9999 BKN085/// 18/11 Q1017,LRSM,2023-05-27T01:00:00Z,47.7,22.88,18.0,11.0,20,6,,6.21,30.029528,,,TRUE,,,,,,,,BKN,8500,,,,,,,VFR,,,,,,,,,,,,METAR,123.0
LRSB 270100Z 00000KT CAVOK 13/11 Q1017,LRSB,2023-05-27T01:00:00Z,45.78,24.08,13.0,11.0,0,0,,6.21,30.029528,,,,,,,,,,,CAVOK,,,,,,,,VFR,,,,,,,,,,,,METAR,442.0
LROP 270100Z 28004KT 260V320 CAVOK 15/15 Q1015 NOSIG,LROP,2023-05-27T01:00:00Z,44.57,26.1,15.0,15.0,280,4,,6.21,29.970472,,,,,,TRUE,,,,,CAVOK,,,,,,,,VFR,,,,,,,,,,,,METAR,92.0
LROD 270100Z AUTO 04006KT 9999 FEW130/// 16/12 Q1017,LROD,2023-05-27T01:00:00Z,47.03,21.88,16.0,12.0,40,6,,6.21,30.029528,,,TRUE,,,,,,,,FEW,13000,,,,,,,VFR,,,,,,,,,,,,METAR,132.0
LRIA 270100Z 26006KT 230V290 CAVOK 16/12 Q1015,LRIA,2023-05-27T01:00:00Z,47.17,27.62,16.0,12.0,260,6,,6.21,29.970472,,,,,,,,,,,CAVOK,,,,,,,,VFR,,,,,,,,,,,,METAR,71.0
LRCV 270100Z 28007KT CAVOK 13/13 Q1015,LRCV,2023-05-27T01:00:00Z,44.32,23.88,13.0,13.0,280,7,,6.21,29.970472,,,,,,,,,,,CAVOK,,,,,,,,VFR,,,,,,,,,,,,METAR,192.0
LRCL 270100Z 27004KT 230V290 CAVOK 13/11 Q1018,LRCL,2023-05-27T01:00:00Z,46.78,23.68,13.0,11.0,270,4,,6.21,30.059055,,,,,,,,,,,CAVOK,,,,,,,,VFR,,,,,,,,,,,,METAR,313.0
LRCK 270100Z 00000KT CAVOK 15/13 Q1013 NOSIG,LRCK,2023-05-27T01:00:00Z,44.37,28.48,15.0,13.0,0,0,,6.21,29.911417,,,,,,TRUE,,,,,CAVOK,,,,,,,,VFR,,,,,,,,,,,,METAR,108.0
LRBS 270100Z 27005KT CAVOK 15/14 Q1015 NOSIG,LRBS,2023-05-27T01:00:00Z,44.5,26.08,15.0,14.0,270,5,,6.21,29.970472,,,,,,TRUE,,,,,CAVOK,,,,,,,,VFR,,,,,,,,,,,,METAR,91.0
LRBM 270100Z AUTO VRB02KT 9999 OVC130/// 15/14 Q1017,LRBM,2023-05-27T01:00:00Z,47.67,23.47,15.0,14.0,0,2,,6.21,30.029528,,,TRUE,,,,,,,,OVC,13000,,,,,,,VFR,,,,,,,,,,,,METAR,180.0
LRBC 270100Z 34009KT CAVOK 16/10 Q1016,LRBC,2023-05-27T01:00:00Z,46.52,26.92,16.0,10.0,340,9,,6.21,30.0,,,,,,,,,,,CAVOK,,,,,,,,VFR,,,,,,,,,,,,METAR,183.0
LRAR 270100Z VRB01KT CAVOK 14/13 Q1016,LRAR,2023-05-27T01:00:00Z,46.18,21.27,14.0,13.0,0,1,,6.21,30.0,,,,,,,,,,,CAVOK,,,,,,,,VFR,,,,,,,,,,,,METAR,102.0
LQTZ 270100Z VRB02KT 8000 SCT005 BKN025 13/13 Q1018,LQTZ,2023-05-27T01:00:00Z,44.47,18.73,13.0,13.0,0,2,,4.97,30.059055,,,,,,,,,,,SCT,500,BKN,2500,,,,,MVFR,,,,,,,,,,,,METAR,242.0
LQSA 270100Z YRB02KT 9999 FEW003 OVC005 12/12 Q1020,LQSA,2023-05-27T01:00:00Z,43.82,18.32,12.0,12.0,,,,6.21,30.11811,,,,,,,,,,,FEW,300,OVC,500,,,,,IFR,,,,,,,,,,,,METAR,505.0
LQMO 270100Z VRB02KT CAVOK 19/09 Q1013,LQMO,2023-05-27T01:00:00Z,43.28,17.83,19.0,9.0,0,2,,6.21,29.911417,,,,,,,,,,,CAVOK,,,,,,,,VFR,,,,,,,,,,,,METAR,49.0
LQBK 270100Z 10002KT 9999 -RA FEW010 FEW033TCU SCT040 16/16 Q1019 NOSIG,LQBK,2023-05-27T01:00:00Z,44.93,17.3,16.0,16.0,100,2,,6.21,30.088583,,,,,,TRUE,,,,-RA,FEW,1000,FEW,3300,SCT,4000,,,VFR,,,,,,,,,,,,METAR,114.0
LPPT 270100Z 15006KT 9999 SCT008 BKN012 17/15 Q1014,LPPT,2023-05-27T01:00:00Z,38.77,-9.13,17.0,15.0,150,6,,6.21,29.940945,,,,,,,,,,,SCT,800,BKN,1200,,,,,MVFR,,,,,,,,,,,,METAR,98.0
LPPS 270100Z 27008KT 9000 -DZ FEW015 18/15 Q1016 RERA,LPPS,2023-05-27T01:00:00Z,33.07,-16.35,18.0,15.0,270,8,,5.59,30.0,,,,,,,,,,-DZ,FEW,1500,,,,,,,VFR,,,,,,,,,,,,METAR,89.0
LPPR 270100Z 09007KT 9999 FEW040 17/13 Q1013,LPPR,2023-05-27T01:00:00Z,41.23,-8.68,17.0,13.0,90,7,,6.21,29.911417,,,,,,,,,,,FEW,4000,,,,,,,VFR,,,,,,,,,,,,METAR,64.0
LPPD 270100Z 02008KT 9999 FEW017 SCT030 17/14 Q1020,LPPD,2023-05-27T01:00:00Z,37.73,-25.68,17.0,14.0,20,8,,6.21,30.11811,,,,,,,,,,,FEW,1700,SCT,3000,,,,,VFR,,,,,,,,,,,,METAR,62.0
LPMA 270100Z 27004KT 9999 FEW016 SCT030 18/12 Q1016,LPMA,2023-05-27T01:00:00Z,32.7,-16.77,18.0,12.0,270,4,,6.21,30.0,,,,,,,,,,,FEW,1600,SCT,3000,,,,,VFR,,,,,,,,,,,,METAR,54.0
LPLA 270100Z /////KT 7000 -RA FEW012 SCT017 BKN030 18/15 Q1022,LPLA,2023-05-27T01:00:00Z,38.77,-27.1,18.0,15.0,,,,4.35,30.177166,,,,,,,,,,-RA,FEW,1200,SCT,1700,BKN,3000,,,MVFR,,,,,,,,,,,,METAR,60.0
LPFR 270100Z 30005KT CAVOK 17/15 Q1014,LPFR,2023-05-27T01:00:00Z,37.02,-7.97,17.0,15.0,300,5,,6.21,29.940945,,,,,,,,,,,CAVOK,,,,,,,,VFR,,,,,,,,,,,,METAR,3.0
LPBJ 270100Z 27005KT 9999 BKN035 15/13 Q1014,LPBJ,2023-05-27T01:00:00Z,38.08,-7.93,15.0,13.0,270,5,,6.21,29.940945,,,,,,,,,,,BKN,3500,,,,,,,VFR,,,,,,,,,,,,METAR,196.0
LPAZ 270100Z 02013KT 9999 SCT017 BKN049 17/14 Q1019,LPAZ,2023-05-27T01:00:00Z,36.97,-25.17,17.0,14.0,20,13,,6.21,30.088583,,,,,,,,,,,SCT,1700,BKN,4900,,,,,VFR,,,,,,,,,,,,METAR,96.0
LKTB 270100Z VRB03KT CAVOK 12/05 Q1024 NOSIG,LKTB,2023-05-27T01:00:00Z,49.15,16.68,12.0,5.0,0,3,,6.21,30.236221,,,,,,TRUE,,,,,CAVOK,,,,,,,,VFR,,,,,,,,,,,,METAR,233.0
LKPR 270100Z 35005KT CAVOK 08/03 Q1026 NOSIG,LKPR,2023-05-27T01:00:00Z,50.1,14.27,8.0,3.0,350,5,,6.21,30.295275,,,,,,TRUE,,,,,CAVOK,,,,,,,,VFR,,,,,,,,,,,,METAR,364.0
LKPD 270100Z VRB02KT CAVOK 07/05 Q1026 RMK BLACK,LKPD,2023-05-27T01:00:00Z,50.02,15.73,7.0,5.0,0,2,,6.21,30.295275,,,,,,,,,,,CAVOK,,,,,,,,VFR,,,,,,,,,,,,METAR,226.0
LKNA 270100Z 33007KT CAVOK 11/05 Q1024 RMK BLU,LKNA,2023-05-27T01:00:00Z,49.17,16.12,11.0,5.0,330,7,,6.21,30.236221,,,,,,,,,,,CAVOK,,,,,,,,VFR,,,,,,,,,,,,METAR,460.0
LKMT 270100Z 06006KT CAVOK 10/06 Q1024 NOSIG,LKMT,2023-05-27T01:00:00Z,49.68,18.12,10.0,6.0,60,6,,6.21,30.236221,,,,,,TRUE,,,,,CAVOK,,,,,,,,VFR,,,,,,,,,,,,METAR,251.0
LKLN 270100Z AUTO 02003KT 350V070 9999 // FEW120 10/03 Q1026,LKLN,2023-05-27T01:00:00Z,49.68,13.27,10.0,3.0,20,3,,6.21,30.295275,,,TRUE,,,,,,,,FEW,12000,,,,,,,VFR,,,,,,,,,,,,METAR,353.0
LKKV 270100Z VRB02KT CAVOK 08/02 Q1026,LKKV,2023-05-27T01:00:00Z,50.2,12.92,8.0,2.0,0,2,,6.21,30.295275,,,,,,,,,,,CAVOK,,,,,,,,VFR,,,,,,,,,,,,METAR,600.0
LKKB 270100Z 33005KT CAVOK 11/03 Q1026,LKKB,2023-05-27T01:00:00Z,50.12,14.53,11.0,3.0,330,5,,6.21,30.295275,,,,,,,,,,,CAVOK,,,,,,,,VFR,,,,,,,,,,,,METAR,281.0
LKCV 270100Z VRB02KT CAVOK 10/05 Q1025 NOSIG RMK BLU BLU,LKCV,2023-05-27T01:00:00Z,49.93,15.38,10.0,5.0,0,2,,6.21,30.265747,,,,,,TRUE,,,,,CAVOK,,,,,,,,VFR,,,,,,,,,,,,METAR,234.0
LJPZ 270100Z AUTO 13004KT 9999 NCD 16/12 Q1019,LJPZ,2023-05-27T01:00:00Z,45.47,13.62,16.0,12.0,130,4,,6.21,30.088583,,,TRUE,,,,,,,,CLR,,,,,,,,VFR,,,,,,,,,,,,METAR,2.0
LJMB 270100Z AUTO 35006KT 9999 NCD 14/10 Q1021,LJMB,2023-05-27T01:00:00Z,46.47,15.67,14.0,10.0,350,6,,6.21,30.147638,,,TRUE,,,,,,,,CLR,,,,,,,,VFR,,,,,,,,,,,,METAR,263.0
LJLJ 270100Z 33001KT 9999 FEW060 13/10 Q1021 NOSIG,LJLJ,2023-05-27T01:00:00Z,46.22,14.47,13.0,10.0,330,1,,6.21,30.147638,,,,,,TRUE,,,,,FEW,6000,,,,,,,VFR,,,,,,,,,,,,METAR,363.0
LJCE 270100Z AUTO VRB01KT 9999 NCD 13/10 Q1021,LJCE,2023-05-27T01:00:00Z,45.9,15.52,13.0,10.0,0,1,,6.21,30.147638,,,TRUE,,,,,,,,CLR,,,,,,,,VFR,,,,,,,,,,,,METAR,153.0
LHBP 270100Z 36006KT CAVOK 18/13 Q1019 NOSIG,LHBP,2023-05-27T01:00:00Z,47.43,19.27,18.0,13.0,360,6,,6.21,30.088583,,,,,,TRUE,,,,,CAVOK,,,,,,,,VFR,,,,,,,,,,,,METAR,141.0
LGKP 270100Z AUTO 05012KT //// -RA ////// 20/16 Q1007 RE//,LGKP,2023-05-27T01:00:00Z,35.42,27.15,20.0,16.0,50,12,,,29.734253,,,TRUE,,,,,,,-RA,,,,,,,,,,,,,,,,,,,,,METAR,20.0
LFYR 270100Z AUTO VRB03KT CAVOK 15/10 Q1021,LFYR,2023-05-27T01:00:00Z,47.32,1.68,15.0,10.0,0,3,,6.21,30.147638,,,TRUE,,,,,,,,CAVOK,,,,,,,,VFR,,,,,,,,,,,,METAR,83.0
LFVP 270100Z AUTO 25012KT 2300 1400 R26/P2000 BR OVC003 05/05 Q1011,LFVP,2023-05-27T01:00:00Z,46.77,-56.18,5.0,5.0,250,12,,1.43,29.852362,,,TRUE,,,,,,,BR,OVC,300,,,,,,,LIFR,,,,,,,,,,,,METAR,5.0
LFTW 270100Z AUTO 30004KT CAVOK 16/13 Q1018,LFTW,2023-05-27T01:00:00Z,43.75,4.42,16.0,13.0,300,4,,6.21,30.059055,,,TRUE,,,,,,,,CAVOK,,,,,,,,VFR,,,,,,,,,,,,METAR,91.0
LFTH 270100Z AUTO 00000KT CAVOK 16/14 Q1017 NOSIG,LFTH,2023-05-27T01:00:00Z,43.1,6.15,16.0,14.0,0,0,,6.21,30.029528,,,TRUE,,,TRUE,,,,,CAVOK,,,,,,,,VFR,,,,,,,,,,,,METAR,3.0
LFSX 270100Z AUTO 00000KT 9000 NSC 12/M43 Q1021,LFSX,2023-05-27T01:00:00Z,47.77,6.35,12.0,-43.0,0,0,,5.59,30.147638,,,TRUE,,,,,,,,CLR,,,,,,,,VFR,,,,,,,,,,,,METAR,266.0
LFST 270100Z AUTO 01006KT 340V040 CAVOK 14/08 Q1023 NOSIG,LFST,2023-05-27T01:00:00Z,48.53,7.63,14.0,8.0,10,6,,6.21,30.206694,,,TRUE,,,TRUE,,,,,CAVOK,,,,,,,,VFR,,,,,,,,,,,,METAR,149.0
LFSO 270100Z AUTO 05007KT CAVOK 14/07 Q1023,LFSO,2023-05-27T01:00:00Z,48.57,5.97,14.0,7.0,50,7,,6.21,30.206694,,,TRUE,,,,,,,,CAVOK,,,,,,,,VFR,,,,,,,,,,,,METAR,328.0
LFSN 270100Z AUTO 03004KT CAVOK 12/08 Q1024,LFSN,2023-05-27T01:00:00Z,48.68,6.22,12.0,8.0,30,4,,6.21,30.236221,,,TRUE,,,,,,,,CAVOK,,,,,,,,VFR,,,,,,,,,,,,METAR,214.0
LFSL 270100Z AUTO 00000KT CAVOK 13/11 Q1019,LFSL,2023-05-27T01:00:00Z,45.03,1.48,13.0,11.0,0,0,,6.21,30.088583,,,TRUE,,,,,,,,CAVOK,,,,,,,,VFR,,,,,,,,,,,,METAR,300.0
LFSI 270100Z AUTO 06006KT CAVOK 14/09 Q1023,LFSI,2023-05-27T01:00:00Z,48.62,4.9,14.0,9.0,60,6,,6.21,30.206694,,,TRUE,,,,,,,,CAVOK,,,,,,,,VFR,,,,,,,,,,,,METAR,136.0
LFSG 270100Z AUTO 01006KT CAVOK 12/08 Q1023,LFSG,2023-05-27T01:00:00Z,48.33,6.07,12.0,8.0,10,6,,6.21,30.206694,,,TRUE,,,,,,,,CAVOK,,,,,,,,VFR,,,,,,,,,,,,METAR,320.0
LFSD 270100Z AUTO 35006KT 320V020 CAVOK 15/09 Q1021,LFSD,2023-05-27T01:00:00Z,47.27,5.08,15.0,9.0,350,6,,6.21,30.147638,,,TRUE,,,,,,,,CAVOK,,,,,,,,VFR,,,,,,,,,,,,METAR,218.0
LFSB 270100Z AUTO 33005KT CAVOK 13/09 Q1022 NOSIG,LFSB,2023-05-27T01:00:00Z,47.6,7.52,13.0,9.0,330,5,,6.21,30.177166,,,TRUE,,,TRUE,,,,,CAVOK,,,,,,,,VFR,,,,,,,,,,,,METAR,262.0
LFRZ 270100Z AUTO 04007KT 010V070 CAVOK 15/12 Q1022 NOSIG,LFRZ,2023-05-27T01:00:00Z,47.32,-2.17,15.0,12.0,40,7,,6.21,30.177166,,,TRUE,,,TRUE,,,,,CAVOK,,,,,,,,VFR,,,,,,,,,,,,METAR,2.0
LFRV 270100Z AUTO 04009KT CAVOK 12/10 Q1023,LFRV,2023-05-27T01:00:00Z,47.72,-2.72,12.0,10.0,40,9,,6.21,30.206694,,,TRUE,,,,,,,,CAVOK,,,,,,,,VFR,,,,,,,,,,,,METAR,132.0
LFRT 270100Z AUTO 03005KT 7000 FEW007 11/10 Q1025,LFRT,2023-05-27T01:00:00Z,48.53,-2.85,11.0,10.0,30,5,,4.35,30.265747,,,TRUE,,,,,,,,FEW,700,,,,,,,MVFR,,,,,,,,,,,,METAR,134.0
LFRS 270100Z AUTO 05010KT 010V080 9999 NCD 17/10 Q1021 NOSIG,LFRS,2023-05-27T01:00:00Z,47.17,-1.6,17.0,10.0,50,10,,6.21,30.147638,,,TRUE,,,TRUE,,,,,CLR,,,,,,,,VFR,,,,,,,,,,,,METAR,26.0
LFRQ 270100Z AUTO 04008KT CAVOK 12/10 Q1023,LFRQ,2023-05-27T01:00:00Z,47.97,-4.17,12.0,10.0,40,8,,6.21,30.206694,,,TRUE,,,,,,,,CAVOK,,,,,,,,VFR,,,,,,,,,,,,METAR,94.0
LFRN 270100Z AUTO 03003KT 360V090 CAVOK 13/09 Q1023 NOSIG,LFRN,2023-05-27T01:00:00Z,48.07,-1.73,13.0,9.0,30,3,,6.21,30.206694,,,TRUE,,,TRUE,,,,,CAVOK,,,,,,,,VFR,,,,,,,,,,,,METAR,35.0
LFRM 270100Z AUTO 02007KT CAVOK 14/08 Q1023,LFRM,2023-05-27T01:00:00Z,47.95,0.2,14.0,8.0,20,7,,6.21,30.206694,,,TRUE,,,,,,,,CAVOK,,,,,,,,VFR,,,,,,,,,,,,METAR,51.0
LFRL 270100Z AUTO 06011KT 9000 NSC 12/10 Q1023,LFRL,2023-05-27T01:00:00Z,48.27,-4.43,12.0,10.0,60,11,,5.59,30.206694,,,TRUE,,,,,,,,CLR,,,,,,,,VFR,,,,,,,,,,,,METAR,80.0
LFRK 270100Z AUTO 04005KT 350V080 CAVOK 12/10 Q1025,LFRK,2023-05-27T01:00:00Z,49.17,-0.45,12.0,10.0,40,5,,6.21,30.265747,,,TRUE,,,,,,,,CAVOK,,,,,,,,VFR,,,,,,,,,,,,METAR,66.0
LFRJ 270100Z AUTO 07009KT 7000 FEW007 10/10 Q1024,LFRJ,2023-05-27T01:00:00Z,48.52,-4.15,10.0,10.0,70,9,,4.35,30.236221,,,TRUE,,,,,,,,FEW,700,,,,,,,MVFR,,,,,,,,,,,,METAR,109.0
LFRI 270100Z AUTO 05008KT CAVOK 15/11 Q1021,LFRI,2023-05-27T01:00:00Z,46.7,-1.37,15.0,11.0,50,8,,6.21,30.147638,,,TRUE,,,,,,,,CAVOK,,,,,,,,VFR,,,,,,,,,,,,METAR,89.0
LFRH 270100Z AUTO 05010KT CAVOK 13/10 Q1023 NOSIG,LFRH,2023-05-27T01:00:00Z,47.77,-3.45,13.0,10.0,50,10,,6.21,30.206694,,,TRUE,,,TRUE,,,,,CAVOK,,,,,,,,VFR,,,,,,,,,,,,METAR,46.0
LFRG 270100Z AUTO 03005KT CAVOK 10/08 Q1025,LFRG,2023-05-27T01:00:00Z,49.37,0.15,10.0,8.0,30,5,,6.21,30.265747,,,TRUE,,,,,,,,CAVOK,,,,,,,,VFR,,,,,,,,,,,,METAR,146.0
LFRD 270100Z AUTO 05007KT CAVOK 11/10 Q1024 NOSIG,LFRD,2023-05-27T01:00:00Z,48.58,-2.07,11.0,10.0,50,7,,6.21,30.236221,,,TRUE,,,TRUE,,,,,CAVOK,,,,,,,,VFR,,,,,,,,,,,,METAR,56.0
LFRC 270100Z AUTO 07013KT 040V100 8000 OVC007 11/10 Q1026,LFRC,2023-05-27T01:00:00Z,49.63,-1.47,11.0,10.0,70,13,,4.97,30.295275,,,TRUE,,,,,,,,OVC,700,,,,,,,IFR,,,,,,,,,,,,METAR,137.0
LFRB 270100Z AUTO 06010KT CAVOK 11/09 Q1024 NOSIG,LFRB,2023-05-27T01:00:00Z,48.45,-4.42,11.0,9.0,60,10,,6.21,30.236221,,,TRUE,,,TRUE,,,,,CAVOK,,,,,,,,VFR,,,,,,,,,,,,METAR,91.0
LFQQ 270100Z AUTO 03010KT CAVOK 11/07 Q1027 NOSIG,LFQQ,2023-05-27T01:00:00Z,50.57,3.1,11.0,7.0,30,10,,6.21,30.324802,,,TRUE,,,TRUE,,,,,CAVOK,,,,,,,,VFR,,,,,,,,,,,,METAR,43.0
LFQB 270100Z AUTO 04006KT 010V070 CAVOK 15/09 Q1023,LFQB,2023-05-27T01:00:00Z,48.32,4.02,15.0,9.0,40,6,,6.21,30.206694,,,TRUE,,,,,,,,CAVOK,,,,,,,,VFR,,,,,,,,,,,,METAR,107.0
LFQA 270100Z AUTO VRB02KT CAVOK 11/07 Q1024,LFQA,2023-05-27T01:00:00Z,49.2,4.15,11.0,7.0,0,2,,6.21,30.236221,,,TRUE,,,,,,,,CAVOK,,,,,,,,VFR,,,,,,,,,,,,METAR,92.0
LFPV 270100Z AUTO 05009KT CAVOK 14/07 Q1024 NOSIG,LFPV,2023-05-27T01:00:00Z,48.77,2.2,14.0,7.0,50,9,,6.21,30.236221,,,TRUE,,,TRUE,,,,,CAVOK,,,,,,,,VFR,,,,,,,,,,,,METAR,171.0
LFPT 270100Z AUTO 05005KT 020V090 CAVOK 12/04 Q1024,LFPT,2023-05-27T01:00:00Z,49.1,2.03,12.0,4.0,50,5,,6.21,30.236221,,,TRUE,,,,,,,,CAVOK,,,,,,,,VFR,,,,,,,,,,,,METAR,91.0
LFPO 270100Z AUTO 03008KT CAVOK 14/08 Q1024 NOSIG,LFPO,2023-05-27T01:00:00Z,48.72,2.38,14.0,8.0,30,8,,6.21,30.236221,,,TRUE,,,TRUE,,,,,CAVOK,,,,,,,,VFR,,,,,,,,,,,,METAR,88.0
LFPN 270100Z AUTO 04005KT CAVOK 13/07 Q1024 NOSIG,LFPN,2023-05-27T01:00:00Z,48.75,2.12,13.0,7.0,40,5,,6.21,30.236221,,,TRUE,,,TRUE,,,,,CAVOK,,,,,,,,VFR,,,,,,,,,,,,METAR,152.0
LFPM 270100Z AUTO 03003KT 340V070 CAVOK 13/08 Q1023,LFPM,2023-05-27T01:00:00Z,48.62,2.67,13.0,8.0,30,3,,6.21,30.206694,,,TRUE,,,,,,,,CAVOK,,,,,,,,VFR,,,,,,,,,,,,METAR,91.0
LFPG 270100Z 01008KT CAVOK 12/07 Q1024 NOSIG,LFPG,2023-05-27T01:00:00Z,49.02,2.53,12.0,7.0,10,8,,6.21,30.236221,,,,,,TRUE,,,,,CAVOK,,,,,,,,VFR,,,,,,,,,,,,METAR,107.0
LFPB 270100Z AUTO 36008KT CAVOK 13/06 Q1024 NOSIG,LFPB,2023-05-27T01:00:00Z,48.97,2.42,13.0,6.0,360,8,,6.21,30.236221,,,TRUE,,,TRUE,,,,,CAVOK,,,,,,,,VFR,,,,,,,,,,,,METAR,50.0
LFOZ 270100Z AUTO 03006KT 360V060 CAVOK 14/10 Q1022,LFOZ,2023-05-27T01:00:00Z,47.9,2.17,14.0,10.0,30,6,,6.21,30.177166,,,TRUE,,,,,,,,CAVOK,,,,,,,,VFR,,,,,,,,,,,,METAR,121.0
LFOV 270100Z AUTO 01007KT CAVOK 12/08 Q1023,LFOV,2023-05-27T01:00:00Z,48.03,-0.75,12.0,8.0,10,7,,6.21,30.206694,,,TRUE,,,,,,,,CAVOK,,,,,,,,VFR,,,,,,,,,,,,METAR,99.0
LFOT 270100Z AUTO 05010KT 010V080 CAVOK 14/09 Q1022 NOSIG,LFOT,2023-05-27T01:00:00Z,47.43,0.72,14.0,9.0,50,10,,6.21,30.177166,,,TRUE,,,TRUE,,,,,CAVOK,,,,,,,,VFR,,,,,,,,,,,,METAR,107.0
LFOP 270100Z AUTO 04010KT CAVOK 10/07 Q1025,LFOP,2023-05-27T01:00:00Z,49.37,1.17,10.0,7.0,40,10,,6.21,30.265747,,,TRUE,,,,,,,,CAVOK,,,,,,,,VFR,,,,,,,,,,,,METAR,149.0
LFOK 270100Z AUTO 02008KT CAVOK 10/08 Q1023 NOSIG,LFOK,2023-05-27T01:00:00Z,48.78,4.15,10.0,8.0,20,8,,6.21,30.206694,,,TRUE,,,TRUE,,,,,CAVOK,,,,,,,,VFR,,,,,,,,,,,,METAR,166.0
LFOJ 270100Z AUTO 03011KT CAVOK 13/09 Q1022 NOSIG,LFOJ,2023-05-27T01:00:00Z,47.98,1.75,13.0,9.0,30,11,,6.21,30.177166,,,TRUE,,,TRUE,,,,,CAVOK,,,,,,,,VFR,,,,,,,,,,,,METAR,122.0
LFOH 270100Z AUTO 07010KT 040V100 CAVOK 11/09 Q1026,LFOH,2023-05-27T01:00:00Z,49.52,0.08,11.0,9.0,70,10,,6.21,30.295275,,,TRUE,,,,,,,,CAVOK,,,,,,,,VFR,,,,,,,,,,,,METAR,87.0
LFOE 270100Z AUTO 05008KT CAVOK 11/05 Q1025 NOSIG,LFOE,2023-05-27T01:00:00Z,49.02,1.22,11.0,5.0,50,8,,6.21,30.265747,,,TRUE,,,TRUE,,,,,CAVOK,,,,,,,,VFR,,,,,,,,,,,,METAR,132.0
LFOB 270100Z AUTO VRB01KT CAVOK 09/05 Q1025 NOSIG,LFOB,2023-05-27T01:00:00Z,49.47,2.12,9.0,5.0,0,1,,6.21,30.265747,,,TRUE,,,TRUE,,,,,CAVOK,,,,,,,,VFR,,,,,,,,,,,,METAR,99.0
LFOA 270100Z AUTO 06009KT CAVOK 15/12 Q1021,LFOA,2023-05-27T01:00:00Z,47.05,2.63,15.0,12.0,60,9,,6.21,30.147638,,,TRUE,,,,,,,,CAVOK,,,,,,,,VFR,,,,,,,,,,,,METAR,174.0
LFMY 270100Z AUTO 04002KT CAVOK 14/13 Q1018,LFMY,2023-05-27T01:00:00Z,43.6,5.1,14.0,13.0,40,2,,6.21,30.059055,,,TRUE,,,,,,,,CAVOK,,,,,,,,VFR,,,,,,,,,,,,METAR,57.0
LFMV 270100Z AUTO 08003KT CAVOK 15/12 Q1018,LFMV,2023-05-27T01:00:00Z,43.9,4.9,15.0,12.0,80,3,,6.21,30.059055,,,TRUE,,,,,,,,CAVOK,,,,,,,,VFR,,,,,,,,,,,,METAR,33.0
LFMU 270100Z AUTO 00000KT CAVOK 15/12 Q1018,LFMU,2023-05-27T01:00:00Z,43.32,3.35,15.0,12.0,0,0,,6.21,30.059055,,,TRUE,,,,,,,,CAVOK,,,,,,,,VFR,,,,,,,,,,,,METAR,14.0
LFMT 270100Z AUTO 30003KT CAVOK 17/14 Q1018 NOSIG,LFMT,2023-05-27T01:00:00Z,43.57,3.97,17.0,14.0,300,3,,6.21,30.059055,,,TRUE,,,TRUE,,,,,CAVOK,,,,,,,,VFR,,,,,,,,,,,,METAR,1.0
LFMP 270100Z AUTO 00000KT CAVOK 16/12 Q1018,LFMP,2023-05-27T01:00:00Z,42.73,2.87,16.0,12.0,0,0,,6.21,30.059055,,,TRUE,,,,,,,,CAVOK,,,,,,,,VFR,,,,,,,,,,,,METAR,41.0
LFMO 270100Z AUTO VRB01KT CAVOK 15/13 Q1018 NOSIG,LFMO,2023-05-27T01:00:00Z,44.13,4.87,15.0,13.0,0,1,,6.21,30.059055,,,TRUE,,,TRUE,,,,,CAVOK,,,,,,,,VFR,,,,,,,,,,,,METAR,56.0
LFMN 270100Z 34012KT CAVOK 21/11 Q1016 NOSIG,LFMN,2023-05-27T01:00:00Z,43.65,7.2,21.0,11.0,340,12,,6.21,30.0,,,,,,TRUE,,,,,CAVOK,,,,,,,,VFR,,,,,,,,,,,,METAR,4.0
LFML 270100Z AUTO 13005KT CAVOK 16/14 Q1018 NOSIG,LFML,2023-05-27T01:00:00Z,43.45,5.22,16.0,14.0,130,5,,6.21,30.059055,,,TRUE,,,TRUE,,,,,CAVOK,,,,,,,,VFR,,,,,,,,,,,,METAR,20.0
LFMK 270100Z AUTO VRB02KT CAVOK 13/12 Q1018,LFMK,2023-05-27T01:00:00Z,43.22,2.32,13.0,12.0,0,2,,6.21,30.059055,,,TRUE,,,,,,,,CAVOK,,,,,,,,VFR,,,,,,,,,,,,METAR,124.0
LFMI 270100Z AUTO 13002KT CAVOK 17/15 Q1018 NOSIG,LFMI,2023-05-27T01:00:00Z,43.52,4.93,17.0,15.0,130,2,,6.21,30.059055,,,TRUE,,,TRUE,,,,,CAVOK,,,,,,,,VFR,,,,,,,,,,,,METAR,20.0
LFMH 270100Z AUTO 18003KT CAVOK 12/11 Q1021,LFMH,2023-05-27T01:00:00Z,45.52,4.28,12.0,11.0,180,3,,6.21,30.147638,,,TRUE,,,,,,,,CAVOK,,,,,,,,VFR,,,,,,,,,,,,METAR,400.0
LFMD 270100Z AUTO 01004KT 330V040 CAVOK 17/12 Q1016,LFMD,2023-05-27T01:00:00Z,43.53,6.95,17.0,12.0,10,4,,6.21,30.0,,,TRUE,,,,,,,,CAVOK,,,,,,,,VFR,,,,,,,,,,,,METAR,2.0
LFMC 270100Z AUTO 24006KT 200V270 9999 ////// 20/12 Q1017,LFMC,2023-05-27T01:00:00Z,43.37,6.38,20.0,12.0,240,6,,6.21,30.029528,,,TRUE,,,,,,,,,,,,,,,,,,,,,,,,,,,,METAR,79.0
LFLY 270100Z AUTO 32004KT CAVOK 16/13 Q1019 NOSIG,LFLY,2023-05-27T01:00:00Z,45.72,4.95,16.0,13.0,320,4,,6.21,30.088583,,,TRUE,,,TRUE,,,,,CAVOK,,,,,,,,VFR,,,,,,,,,,,,METAR,197.0
LFLX 270100Z AUTO 02007KT CAVOK 12/11 Q1021 NOSIG,LFLX,2023-05-27T01:00:00Z,46.87,1.73,12.0,11.0,20,7,,6.21,30.147638,,,TRUE,,,TRUE,,,,,CAVOK,,,,,,,,VFR,,,,,,,,,,,,METAR,157.0
LFLW 270100Z AUTO 12003KT CAVOK 12/11 Q1021,LFLW,2023-05-27T01:00:00Z,44.88,2.42,12.0,11.0,120,3,,6.21,30.147638,,,TRUE,,,,,,,,CAVOK,,,,,,,,VFR,,,,,,,,,,,,METAR,638.0
LFLS 270100Z AUTO 11003KT CAVOK 12/12 Q1020,LFLS,2023-05-27T01:00:00Z,45.37,5.32,12.0,12.0,110,3,,6.21,30.11811,,,TRUE,,,,,,,,CAVOK,,,,,,,,VFR,,,,,,,,,,,,METAR,386.0
LFLP 270100Z AUTO 03003KT CAVOK 13/11 Q1021,LFLP,2023-05-27T01:00:00Z,45.92,6.1,13.0,11.0,30,3,,6.21,30.147638,,,TRUE,,,,,,,,CAVOK,,,,,,,,VFR,,,,,,,,,,,,METAR,460.0
LFLN 270100Z AUTO 00000KT 6000 NSC 12/12 Q1020,LFLN,2023-05-27T01:00:00Z,46.42,4.02,12.0,12.0,0,0,,3.73,30.11811,,,TRUE,,,,,,,,CLR,,,,,,,,MVFR,,,,,,,,,,,,METAR,238.0
LFLL 270100Z VRB03KT CAVOK 17/13 Q1019 NOSIG,LFLL,2023-05-27T01:00:00Z,45.72,5.07,17.0,13.0,0,3,,6.21,30.088583,,,,,,TRUE,,,,,CAVOK,,,,,,,,VFR,,,,,,,,,,,,METAR,234.0
LFLC 270100Z AUTO 00000KT CAVOK 14/12 Q1021 NOSIG,LFLC,2023-05-27T01:00:00Z,45.78,3.17,14.0,12.0,0,0,,6.21,30.147638,,,TRUE,,,TRUE,,,,,CAVOK,,,,,,,,VFR,,,,,,,,,,,,METAR,325.0
LFLB 270100Z AUTO 16002KT CAVOK 13/13 Q1020,LFLB,2023-05-27T01:00:00Z,45.63,5.87,13.0,13.0,160,2,,6.21,30.11811,,,TRUE,,,,,,,,CAVOK,,,,,,,,VFR,,,,,,,,,,,,METAR,234.0
LFKS 270100Z AUTO 27005KT 240V300 CAVOK 19/13 Q1017,LFKS,2023-05-27T01:00:00Z,41.92,9.4,19.0,13.0,270,5,,6.21,30.029528,,,TRUE,,,,,,,,CAVOK,,,,,,,,VFR,,,,,,,,,,,,METAR,22.0
LFKJ 270100Z AUTO 05005KT CAVOK 15/13 Q1017 NOSIG,LFKJ,2023-05-27T01:00:00Z,41.92,8.8,15.0,13.0,50,5,,6.21,30.029528,,,TRUE,,,TRUE,,,,,CAVOK,,,,,,,,VFR,,,,,,,,,,,,METAR,9.0
LFKF 270100Z AUTO 03002KT 9999 FEW001 12/11 Q1017,LFKF,2023-05-27T01:00:00Z,41.5,9.08,12.0,11.0,30,2,,6.21,30.029528,,,TRUE,,,,,,,,FEW,100,,,,,,,VFR,,,,,,,,,,,,METAR,15.0
LFKC 270100Z AUTO 17005KT CAVOK 15/11 Q1017,LFKC,2023-05-27T01:00:00Z,42.52,8.8,15.0,11.0,170,5,,6.21,30.029528,,,TRUE,,,,,,,,CAVOK,,,,,,,,VFR,,,,,,,,,,,,METAR,38.0
LFKB 270100Z AUTO 23008KT CAVOK 19/11 Q1017 NOSIG,LFKB,2023-05-27T01:00:00Z,42.55,9.48,19.0,11.0,230,8,,6.21,30.029528,,,TRUE,,,TRUE,,,,,CAVOK,,,,,,,,VFR,,,,,,,,,,,,METAR,7.0
LFJR 270100Z AUTO 05007KT 020V080 CAVOK 15/09 Q1022,LFJR,2023-05-27T01:00:00Z,47.57,-0.32,15.0,9.0,50,7,,6.21,30.177166,,,TRUE,,,,,,,,CAVOK,,,,,,,,VFR,,,,,,,,,,,,METAR,50.0
LFJL 270100Z AUTO 03003KT CAVOK 11/07 Q1024 NOSIG,LFJL,2023-05-27T01:00:00Z,48.97,6.25,11.0,7.0,30,3,,6.21,30.236221,,,TRUE,,,TRUE,,,,,CAVOK,,,,,,,,VFR,,,,,,,,,,,,METAR,259.0
LFGJ 270100Z AUTO 34005KT CAVOK 14/11 Q1020,LFGJ,2023-05-27T01:00:00Z,47.05,5.43,14.0,11.0,340,5,,6.21,30.11811,,,TRUE,,,,,,,,CAVOK,,,,,,,,VFR,,,,,,,,,,,,METAR,191.0
LFGA 270100Z AUTO 34004KT CAVOK 14/08 Q1023,LFGA,2023-05-27T01:00:00Z,48.1,7.35,14.0,8.0,340,4,,6.21,30.206694,,,TRUE,,,,,,,,CAVOK,,,,,,,,VFR,,,,,,,,,,,,METAR,191.0
LFCR 270100Z AUTO 14001KT CAVOK 12/11 Q1021 NOSIG,LFCR,2023-05-27T01:00:00Z,44.4,2.47,12.0,11.0,140,1,,6.21,30.147638,,,TRUE,,,TRUE,,,,,CAVOK,,,,,,,,VFR,,,,,,,,,,,,METAR,576.0
LFCK 270100Z AUTO 05002KT CAVOK 14/10 Q1020,LFCK,2023-05-27T01:00:00Z,43.55,2.28,14.0,10.0,50,2,,6.21,30.11811,,,TRUE,,,,,,,,CAVOK,,,,,,,,VFR,,,,,,,,,,,,METAR,223.0
LFBZ 270100Z AUTO 13005KT CAVOK 16/14 Q1018 NOSIG,LFBZ,2023-05-27T01:00:00Z,43.47,-1.53,16.0,14.0,130,5,,6.21,30.059055,,,TRUE,,,TRUE,,,,,CAVOK,,,,,,,,VFR,,,,,,,,,,,,METAR,70.0
LFBY 270100Z AUTO 02001KT 9999 // ////// 17/15 Q1018,LFBY,2023-05-27T01:00:00Z,43.68,-1.07,17.0,15.0,20,1,,6.21,30.059055,,,TRUE,,,,,,,,,,,,,,,,,,,,,,,,,,,,METAR,32.0
LFBX 270100Z AUTO 11002KT CAVOK 13/12 Q1019,LFBX,2023-05-27T01:00:00Z,45.2,0.82,13.0,12.0,110,2,,6.21,30.088583,,,TRUE,,,,,,,,CAVOK,,,,,,,,VFR,,,,,,,,,,,,METAR,97.0
LFBU 270100Z AUTO 02008KT CAVOK 17/12 Q1019,LFBU,2023-05-27T01:00:00Z,45.72,0.22,17.0,12.0,20,8,,6.21,30.088583,,,TRUE,,,,,,,,CAVOK,,,,,,,,VFR,,,,,,,,,,,,METAR,124.0
LFBT 270100Z AUTO 17005KT CAVOK 13/12 Q1019 NOSIG,LFBT,2023-05-27T01:00:00Z,43.18,0.0,13.0,12.0,170,5,,6.21,30.088583,,,TRUE,,,TRUE,,,,,CAVOK,,,,,,,,VFR,,,,,,,,,,,,METAR,359.0
LFBP 270100Z AUTO 14003KT CAVOK 16/15 Q1018 NOSIG,LFBP,2023-05-27T01:00:00Z,43.38,-0.42,16.0,15.0,140,3,,6.21,30.059055,,,TRUE,,,TRUE,,,,,CAVOK,,,,,,,,VFR,,,,,,,,,,,,METAR,182.0
LFBO 270100Z AUTO 17003KT CAVOK 16/11 Q1018 NOSIG,LFBO,2023-05-27T01:00:00Z,43.62,1.37,16.0,11.0,170,3,,6.21,30.059055,,,TRUE,,,TRUE,,,,,CAVOK,,,,,,,,VFR,,,,,,,,,,,,METAR,150.0
LFBM 270100Z AUTO 00000KT CAVOK 15/14 Q1018 NOSIG,LFBM,2023-05-27T01:00:00Z,43.92,-0.5,15.0,14.0,0,0,,6.21,30.059055,,,TRUE,,,TRUE,,,,,CAVOK,,,,,,,,VFR,,,,,,,,,,,,METAR,56.0
LFBL 270100Z AUTO 06009KT CAVOK 17/12 Q1020 NOSIG,LFBL,2023-05-27T01:00:00Z,45.87,1.17,17.0,12.0,60,9,,6.21,30.11811,,,TRUE,,,TRUE,,,,,CAVOK,,,,,,,,VFR,,,,,,,,,,,,METAR,402.0
LFBI 270100Z AUTO 03006KT CAVOK 14/11 Q1021 NOSIG,LFBI,2023-05-27T01:00:00Z,46.58,0.32,14.0,11.0,30,6,,6.21,30.147638,,,TRUE,,,TRUE,,,,,CAVOK,,,,,,,,VFR,,,,,,,,,,,,METAR,117.0
LFBH 270100Z AUTO 05009KT CAVOK 16/12 Q1020 NOSIG,LFBH,2023-05-27T01:00:00Z,46.18,-1.2,16.0,12.0,50,9,,6.21,30.11811,,,TRUE,,,TRUE,,,,,CAVOK,,,,,,,,VFR,,,,,,,,,,,,METAR,18.0
LFBG 270100Z AUTO 04007KT CAVOK 19/13 Q1019,LFBG,2023-05-27T01:00:00Z,45.67,-0.32,19.0,13.0,40,7,,6.21,30.088583,,,TRUE,,,,,,,,CAVOK,,,,,,,,VFR,,,,,,,,,,,,METAR,28.0
LFBE 270100Z AUTO VRB02KT CAVOK 13/13 Q1018 NOSIG,LFBE,2023-05-27T01:00:00Z,44.82,0.52,13.0,13.0,0,2,,6.21,30.059055,,,TRUE,,,TRUE,,,,,CAVOK,,,,,,,,VFR,,,,,,,,,,,,METAR,49.0
LFBD 270100Z AUTO 04004KT CAVOK 19/13 Q1018 NOSIG,LFBD,2023-05-27T01:00:00Z,44.82,-0.7,19.0,13.0,40,4,,6.21,30.059055,,,TRUE,,,TRUE,,,,,CAVOK,,,,,,,,VFR,,,,,,,,,,,,METAR,48.0
LFBC 270100Z AUTO 02004KT CAVOK 17/13 Q1018,LFBC,2023-05-27T01:00:00Z,44.52,-1.12,17.0,13.0,20,4,,6.21,30.059055,,,TRUE,,,,,,,,CAVOK,,,,,,,,VFR,,,,,,,,,,,,METAR,22.0
LFBA 270100Z AUTO 08001KT CAVOK 14/13 Q1018,LFBA,2023-05-27T01:00:00Z,44.17,0.6,14.0,13.0,80,1,,6.21,30.059055,,,TRUE,,,,,,,,CAVOK,,,,,,,,VFR,,,,,,,,,,,,METAR,68.0
LFAT 270100Z AUTO 06010KT CAVOK 11/08 Q1027,LFAT,2023-05-27T01:00:00Z,50.52,1.62,11.0,8.0,60,10,,6.21,30.324802,,,TRUE,,,,,,,,CAVOK,,,,,,,,VFR,,,,,,,,,,,,METAR,2.0
LFAQ 270100Z AUTO 04010KT CAVOK 10/07 Q1026,LFAQ,2023-05-27T01:00:00Z,49.97,2.7,10.0,7.0,40,10,,6.21,30.295275,,,TRUE,,,,,,,,CAVOK,,,,,,,,VFR,,,,,,,,,,,,METAR,107.0
LEZL 270100Z AUTO 00000KT CAVOK 21/16 Q1014,LEZL,2023-05-27T01:00:00Z,37.42,-5.9,21.0,16.0,0,0,,6.21,29.940945,,,TRUE,,,,,,,,CAVOK,,,,,,,,VFR,,,,,,,,,,,,METAR,26.0
LEZG 270100Z 11004KT CAVOK 18/13 Q1019,LEZG,2023-05-27T01:00:00Z,41.67,-1.02,18.0,13.0,110,4,,6.21,30.088583,,,,,,,,,,,CAVOK,,,,,,,,VFR,,,,,,,,,,,,METAR,245.0
LEXJ 270100Z AUTO 00000KT CAVOK 17/16 Q1016,LEXJ,2023-05-27T01:00:00Z,43.42,-3.82,17.0,16.0,0,0,,6.21,30.0,,,TRUE,,,,,,,,CAVOK,,,,,,,,VFR,,,,,,,,,,,,METAR,1.0
LEVX 270100Z 14004KT 070V220 CAVOK 17/10 Q1014 NOSIG,LEVX,2023-05-27T01:00:00Z,42.23,-8.62,17.0,10.0,140,4,,6.21,29.940945,,,,,,TRUE,,,,,CAVOK,,,,,,,,VFR,,,,,,,,,,,,METAR,253.0
LEVT 270100Z VRB02KT CAVOK 14/11 Q1019,LEVT,2023-05-27T01:00:00Z,42.87,-2.72,14.0,11.0,0,2,,6.21,30.088583,,,,,,,,,,,CAVOK,,,,,,,,VFR,,,,,,,,,,,,METAR,501.0
LEVS 270100Z AUTO 07004KT 010V130 9999 BKN026 15/12 Q1019,LEVS,2023-05-27T01:00:00Z,40.37,-3.78,15.0,12.0,70,4,,6.21,30.088583,,,TRUE,,,,,,,,BKN,2600,,,,,,,MVFR,,,,,,,,,,,,METAR,683.0
LEVD 270100Z AUTO 10004KT 070V140 9999 FEW049 12/11 Q1019,LEVD,2023-05-27T01:00:00Z,41.72,-4.85,12.0,11.0,100,4,,6.21,30.088583,,,TRUE,,,,,,,,FEW,4900,,,,,,,VFR,,,,,,,,,,,,METAR,844.0
LEVC 270100Z 08003KT 8000 BKN007 17/16 Q1019 NOSIG,LEVC,2023-05-27T01:00:00Z,39.5,-0.47,17.0,16.0,80,3,,4.97,30.088583,,,,,,TRUE,,,,,BKN,700,,,,,,,IFR,,,,,,,,,,,,METAR,58.0
LETO 270100Z 01007KT 350V080 CAVOK 13/11 Q1019 NOSIG,LETO,2023-05-27T01:00:00Z,40.48,-3.47,13.0,11.0,10,7,,6.21,30.088583,,,,,,TRUE,,,,,CAVOK,,,,,,,,VFR,,,,,,,,,,,,METAR,598.0
LETL 270100Z AUTO 25001KT CAVOK 10/09 Q1021,LETL,2023-05-27T01:00:00Z,40.42,-1.22,10.0,9.0,250,1,,6.21,30.147638,,,TRUE,,,,,,,,CAVOK,,,,,,,,VFR,,,,,,,,,,,,METAR,1024.0
LEST 270100Z 10004KT 080V140 CAVOK 16/13 Q1016 NOSIG,LEST,2023-05-27T01:00:00Z,42.88,-8.42,16.0,13.0,100,4,,6.21,30.0,,,,,,TRUE,,,,,CAVOK,,,,,,,,VFR,,,,,,,,,,,,METAR,363.0
LESO 270100Z AUTO VRB01KT CAVOK 17/15 Q1017,LESO,2023-05-27T01:00:00Z,43.35,-1.8,17.0,15.0,0,1,,6.21,30.029528,,,TRUE,,,,,,,,CAVOK,,,,,,,,VFR,,,,,,,,,,,,METAR,3.0
LESB 270100Z AUTO 32005KT CAVOK 17/13 Q1019,LESB,2023-05-27T01:00:00Z,39.6,2.7,17.0,13.0,320,5,,6.21,30.088583,,,TRUE,,,,,,,,CAVOK,,,,,,,,VFR,,,,,,,,,,,,METAR,48.0
LESA 270100Z AUTO 15010KT 120V190 9000 -RA NSC 12/11 Q1018,LESA,2023-05-27T01:00:00Z,40.95,-5.5,12.0,11.0,150,10,,5.59,30.059055,,,TRUE,,,,,,,-RA,CLR,,,,,,,,VFR,,,,,,,,,,,,METAR,788.0
LERT 270100Z 12008KT CAVOK 21/15 Q1014 NOSIG,LERT,2023-05-27T01:00:00Z,36.63,-6.33,21.0,15.0,120,8,,6.21,29.940945,,,,,,TRUE,,,,,CAVOK,,,,,,,,VFR,,,,,,,,,,,,METAR,27.0
LERS 270100Z AUTO 04003KT 8000 NCD 13/13 Q1019,LERS,2023-05-27T01:00:00Z,41.13,1.17,13.0,13.0,40,3,,4.97,30.088583,,,TRUE,,,,,,,,CLR,,,,,,,,MVFR,,,,,,,,,,,,METAR,68.0
LEPP 270100Z AUTO VRB01KT 8000 FEW057 14/11 Q1020,LEPP,2023-05-27T01:00:00Z,42.77,-1.65,14.0,11.0,0,1,,4.97,30.11811,,,TRUE,,,,,,,,FEW,5700,,,,,,,MVFR,,,,,,,,,,,,METAR,448.0
LEPA 270100Z 06005KT 9999 FEW020 16/15 Q1018 NOSIG,LEPA,2023-05-27T01:00:00Z,39.55,2.73,16.0,15.0,60,5,,6.21,30.059055,,,,,,TRUE,,,,,FEW,2000,,,,,,,VFR,,,,,,,,,,,,METAR,8.0
LEMO 270100Z VRB02KT 9999 SCT026 18/15 Q1015 NOSIG,LEMO,2023-05-27T01:00:00Z,37.17,-5.62,18.0,15.0,0,2,,6.21,29.970472,,,,,,TRUE,,,,,SCT,2600,,,,,,,VFR,,,,,,,,,,,,METAR,82.0
LEMI 270100Z AUTO 02013KT CAVOK 18/13 Q1016,LEMI,2023-05-27T01:00:00Z,37.8,-1.12,18.0,13.0,20,13,,6.21,30.0,,,TRUE,,,,,,,,CAVOK,,,,,,,,VFR,,,,,,,,,,,,METAR,193.0
LEMH 270100Z AUTO 03005KT 0350 0050 R01/1100 R19/0300 FG VV001 17/17 Q1019,LEMH,2023-05-27T01:00:00Z,39.87,4.22,17.0,17.0,30,5,,0.22,30.088583,,,TRUE,,,,,,,FG,OVX,0,,,,,,,LIFR,,,,,,,,,,,100,METAR,82.0
LEMG 270100Z 21003KT 140V300 6000 TSRA FEW026CB SCT035 19/17 Q1016 NOSIG,LEMG,2023-05-27T01:00:00Z,36.67,-4.47,19.0,17.0,210,3,,3.73,30.0,,,,,,TRUE,,,,TSRA,FEW,2600,SCT,3500,,,,,MVFR,,,,,,,,,,,,METAR,5.0
LEMD 270100Z 34005KT 9999 FEW045 14/13 Q1019 NOSIG,LEMD,2023-05-27T01:00:00Z,40.45,-3.57,14.0,13.0,340,5,,6.21,30.088583,,,,,,TRUE,,,,,FEW,4500,,,,,,,VFR,,,,,,,,,,,,METAR,589.0
LELO 270100Z AUTO 08003KT 020V110 CAVOK 15/11 Q1019,LELO,2023-05-27T01:00:00Z,42.45,-2.32,15.0,11.0,80,3,,6.21,30.088583,,,TRUE,,,,,,,,CAVOK,,,,,,,,VFR,,,,,,,,,,,,METAR,352.0
LELN 270100Z AUTO 01004KT 340V050 9999 FEW046 13/11 Q1019,LELN,2023-05-27T01:00:00Z,42.58,-5.65,13.0,11.0,10,4,,6.21,30.088583,,,TRUE,,,,,,,,FEW,4600,,,,,,,VFR,,,,,,,,,,,,METAR,911.0
LELL 270100Z AUTO 29003KT CAVOK 15/12 Q1019,LELL,2023-05-27T01:00:00Z,41.52,2.1,15.0,12.0,290,3,,6.21,30.088583,,,TRUE,,,,,,,,CAVOK,,,,,,,,VFR,,,,,,,,,,,,METAR,136.0
LELC 270100Z AUTO 03019KT 360V060 9000 NSC 21/17 Q1016,LELC,2023-05-27T01:00:00Z,37.77,-0.8,21.0,17.0,30,19,,5.59,30.0,,,TRUE,,,,,,,,CLR,,,,,,,,VFR,,,,,,,,,,,,METAR,3.0
LEJR 270100Z AUTO VRB02KT CAVOK 17/15 Q1014,LEJR,2023-05-27T01:00:00Z,36.75,-6.07,17.0,15.0,0,2,,6.21,29.940945,,,TRUE,,,,,,,,CAVOK,,,,,,,,VFR,,,,,,,,,,,,METAR,25.0
LEIB 270100Z 03005KT CAVOK 18/15 Q1018 NOSIG,LEIB,2023-05-27T01:00:00Z,38.87,1.38,18.0,15.0,30,5,,6.21,30.059055,,,,,,TRUE,,,,,CAVOK,,,,,,,,VFR,,,,,,,,,,,,METAR,4.0
LEHC 270100Z AUTO 08003KT CAVOK 14/11 Q1020,LEHC,2023-05-27T01:00:00Z,42.08,-0.32,14.0,11.0,80,3,,6.21,30.11811,,,TRUE,,,,,,,,CAVOK,,,,,,,,VFR,,,,,,,,,,,,METAR,540.0
LEGR 270100Z AUTO 04008G18KT 010V080 9999 -RA FEW060 BKN100 18/12 Q1015,LEGR,2023-05-27T01:00:00Z,37.18,-3.78,18.0,12.0,40,8,18,6.21,29.970472,,,TRUE,,,,,,,-RA,FEW,6000,BKN,10000,,,,,VFR,,,,,,,,,,,,METAR,560.0
LEGE 270100Z 24002KT CAVOK 13/12 Q1018,LEGE,2023-05-27T01:00:00Z,41.9,2.77,13.0,12.0,240,2,,6.21,30.059055,,,,,,,,,,,CAVOK,,,,,,,,VFR,,,,,,,,,,,,METAR,140.0
LEDA 270100Z AUTO VRB02KT CAVOK 14/11 Q1020,LEDA,2023-05-27T01:00:00Z,41.73,0.53,14.0,11.0,0,2,,6.21,30.11811,,,TRUE,,,,,,,,CAVOK,,,,,,,,VFR,,,,,,,,,,,,METAR,352.0
LECO 270100Z AUTO VRB02KT CAVOK 15/15 Q1015,LECO,2023-05-27T01:00:00Z,43.3,-8.37,15.0,15.0,0,2,,6.21,29.970472,,,TRUE,,,,,,,,CAVOK,,,,,,,,VFR,,,,,,,,,,,,METAR,80.0
LECH 270100Z AUTO 19002KT 0050 R06/0075N FG VV001 12/12 Q1020,LECH,2023-05-27T01:00:00Z,40.2,0.07,12.0,12.0,190,2,,0.03,30.11811,,,TRUE,,,,,,,FG,OVX,0,,,,,,,LIFR,,,,,,,,,,,100,METAR,360.0
LEBT 270100Z AUTO 35003KT 3500 BR FEW005 14/14 Q1020,LEBT,2023-05-27T01:00:00Z,39.58,-0.45,14.0,14.0,350,3,,2.17,30.11811,,,TRUE,,,,,,,BR,FEW,500,,,,,,,IFR,,,,,,,,,,,,METAR,50.0
LEBR 270100Z AUTO 11007KT 9999 NSC 16/12 Q1019,LEBR,2023-05-27T01:00:00Z,42.2,-1.43,16.0,12.0,110,7,,6.21,30.088583,,,TRUE,,,,,,,,CLR,,,,,,,,VFR,,,,,,,,,,,,METAR,347.0
LEBL 270100Z 31006KT 9999 FEW018 17/14 Q1018 NOSIG,LEBL,2023-05-27T01:00:00Z,41.28,2.07,17.0,14.0,310,6,,6.21,30.059055,,,,,,TRUE,,,,,FEW,1800,,,,,,,VFR,,,,,,,,,,,,METAR,2.0
LEBG 270100Z AUTO VRB02KT CAVOK 09/07 Q1019,LEBG,2023-05-27T01:00:00Z,42.37,-3.62,9.0,7.0,0,2,,6.21,30.088583,,,TRUE,,,,,,,,CAVOK,,,,,,,,VFR,,,,,,,,,,,,METAR,892.0
LEBB 270100Z AUTO 11004KT CAVOK 18/15 Q1017,LEBB,2023-05-27T01:00:00Z,43.28,-2.92,18.0,15.0,110,4,,6.21,30.029528,,,TRUE,,,,,,,,CAVOK,,,,,,,,VFR,,,,,,,,,,,,METAR,38.0
LEBA 270100Z AUTO 27005KT 240V300 CAVOK 18/13 Q1014,LEBA,2023-05-27T01:00:00Z,37.85,-4.83,18.0,13.0,270,5,,6.21,29.940945,,,TRUE,,,,,,,,CAVOK,,,,,,,,VFR,,,,,,,,,,,,METAR,88.0
LEAS 270100Z AUTO VRB02KT CAVOK 16/15 Q1016,LEAS,2023-05-27T01:00:00Z,43.57,-6.03,16.0,15.0,0,2,,6.21,30.0,,,TRUE,,,,,,,,CAVOK,,,,,,,,VFR,,,,,,,,,,,,METAR,120.0
LEAM 270100Z AUTO 03008KT 330V100 CAVOK 24/10 Q1014,LEAM,2023-05-27T01:00:00Z,36.85,-2.37,24.0,10.0,30,8,,6.21,29.940945,,,TRUE,,,,,,,,CAVOK,,,,,,,,VFR,,,,,,,,,,,,METAR,16.0
LEAL 270100Z 03007KT CAVOK 19/12 Q1017 NOSIG,LEAL,2023-05-27T01:00:00Z,38.27,-0.55,19.0,12.0,30,7,,6.21,30.029528,,,,,,TRUE,,,,,CAVOK,,,,,,,,VFR,,,,,,,,,,,,METAR,26.0
LEAG 270100Z AUTO 08007KT 9999 FEW025 19/17 Q1015,LEAG,2023-05-27T01:00:00Z,36.12,-5.45,19.0,17.0,80,7,,6.21,29.970472,,,TRUE,,,,,,,,FEW,2500,,,,,,,VFR,,,,,,,,,,,,METAR,4.0
LEAB 270100Z 10004KT 9999 SCT022 13/12 Q1020 NOSIG,LEAB,2023-05-27T01:00:00Z,38.95,-1.85,13.0,12.0,100,4,,6.21,30.11811,,,,,,TRUE,,,,,SCT,2200,,,,,,,VFR,,,,,,,,,,,,METAR,704.0
LDZD 270100Z 14005KT 100V170 CAVOK 20/12 Q1016,LDZD,2023-05-27T01:00:00Z,44.1,15.33,20.0,12.0,140,5,,6.21,30.0,,,,,,,,,,,CAVOK,,,,,,,,VFR,,,,,,,,,,,,METAR,82.0
LDZA 270100Z 02005KT 350V070 CAVOK 16/10 Q1020 NOSIG,LDZA,2023-05-27T01:00:00Z,45.72,16.07,16.0,10.0,20,5,,6.21,30.11811,,,,,,TRUE,,,,,CAVOK,,,,,,,,VFR,,,,,,,,,,,,METAR,103.0
LDSP 270100Z AUTO VRB09KT CAVOK 22/09 Q1015,LDSP,2023-05-27T01:00:00Z,43.53,16.3,22.0,9.0,0,9,,6.21,29.970472,,,TRUE,,,,,,,,CAVOK,,,,,,,,VFR,,,,,,,,,,,,METAR,16.0
LDPL 270100Z 06008KT CAVOK 19/10 Q1018,LDPL,2023-05-27T01:00:00Z,44.88,13.92,19.0,10.0,60,8,,6.21,30.059055,,,,,,,,,,,CAVOK,,,,,,,,VFR,,,,,,,,,,,,METAR,63.0
LDOS 270100Z 30012KT 9999 SCT040 16/14 Q1017,LDOS,2023-05-27T01:00:00Z,45.47,18.82,16.0,14.0,300,12,,6.21,30.029528,,,,,,,,,,,SCT,4000,,,,,,,VFR,,,,,,,,,,,,METAR,82.0
LDDU 270100Z 03012KT 340V100 CAVOK 21/07 Q1013,LDDU,2023-05-27T01:00:00Z,42.57,18.27,21.0,7.0,30,12,,6.21,29.911417,,,,,,,,,,,CAVOK,,,,,,,,VFR,,,,,,,,,,,,METAR,156.0
LCPH 270100Z AUTO 01005KT 9999 NCD 18/10 Q1007 NOSIG,LCPH,2023-05-27T01:00:00Z,34.72,32.47,18.0,10.0,10,5,,6.21,29.734253,,,TRUE,,,TRUE,,,,,CLR,,,,,,,,VFR,,,,,,,,,,,,METAR,8.0
LCLK 270100Z 33005KT CAVOK 19/16 Q1008 NOSIG,LCLK,2023-05-27T01:00:00Z,34.87,33.62,19.0,16.0,330,5,,6.21,29.763779,,,,,,TRUE,,,,,CAVOK,,,,,,,,VFR,,,,,,,,,,,,METAR,2.0
LBWN 270100Z AUTO VRB02KT 9999 NSC 16/14 Q1013 NOSIG,LBWN,2023-05-27T01:00:00Z,43.22,27.82,16.0,14.0,0,2,,6.21,29.911417,,,TRUE,,,TRUE,,,,,CLR,,,,,,,,VFR,,,,,,,,,,,,METAR,74.0
LBSF 270100Z AUTO 20006KT 9999 FEW062/// OVC073/// 13/12 Q1017 NOSIG,LBSF,2023-05-27T01:00:00Z,42.65,23.37,13.0,12.0,200,6,,6.21,30.029528,,,TRUE,,,TRUE,,,,,FEW,6200,OVC,7300,,,,,VFR,,,,,,,,,,,,METAR,592.0
LBPD 270100Z AUTO 26005KT 210V290 9999 BKN086/// OVC097/// 15/14 Q1014,LBPD,2023-05-27T01:00:00Z,42.05,24.85,15.0,14.0,260,5,,6.21,29.940945,,,TRUE,,,,,,,,BKN,8600,OVC,9700,,,,,VFR,,,,,,,,,,,,METAR,182.0
LBGO 270100Z AUTO 00000KT 6000 2200W FEW100/// BKN120/// 13/13 Q1015,LBGO,2023-05-27T01:00:00Z,43.15,25.72,13.0,13.0,0,0,,3.73,29.970472,,,TRUE,,,,,,,,FEW,10000,BKN,12000,,,,,MVFR,,,,,,,,,,,,METAR,84.0
LBBG 270100Z AUTO 02002KT 9999 NCD 17/14 Q1013 NOSIG,LBBG,2023-05-27T01:00:00Z,42.57,27.52,17.0,14.0,20,2,,6.21,29.911417,,,TRUE,,,TRUE,,,,,CLR,,,,,,,,VFR,,,,,,,,,,,,METAR,41.0
KW40 270100Z AUTO 02016G20KT 10SM BKN041 16/07 A3015 RMK AO2 T01630070,KW40,2023-05-27T01:00:00Z,35.22,-78.03,16.3,7.0,20,16,20,10.0,30.15059,,,TRUE,TRUE,,,,,,,BKN,4100,,,,,,,VFR,,,,,,,,,,,,METAR,50.0
KNEL 270100Z AUTO 17003KT CLR 15/03 A3025 RMK AO2 SLP242 T01500033 $,KNEL,2023-05-27T01:00:00Z,40.03,-74.33,15.0,3.3,170,3,,,30.250984,1024.2,,TRUE,TRUE,TRUE,,,,,,CLR,,,,,,,,,,,,,,,,,,,,SPECI,26.0
KMHV 270100Z AUTO 31025G38KT 10SM CLR 22/07 A2982 RMK AO2,KMHV,2023-05-27T01:00:00Z,35.07,-118.15,22.0,7.0,310,25,38,10.0,29.819881,,,TRUE,TRUE,,,,,,,CLR,,,,,,,,VFR,,,,,,,,,,,,SPECI,841.0
KMCZ 270100Z AUTO 04007KT 360V080 10SM CLR 16/07 A3018 RMK AO2 T01550071,KMCZ,2023-05-27T01:00:00Z,,,15.5,7.1,40,7,,10.0,30.180119,,,TRUE,TRUE,,,,,,,CLR,,,,,,,,VFR,,,,,,,,,,,,METAR,
KGZN 270100Z AUTO 11004KT 10SM SCT100 23/17 A3001 RMK AO2,KGZN,2023-05-27T01:00:00Z,32.37,-99.02,23.0,17.0,110,4,,10.0,30.008858,,,TRUE,TRUE,,,,,,,SCT,10000,,,,,,,VFR,,,,,,,,,,,,SPECI,522.0
KETC 270100Z AUTO 05007KT 10SM CLR 16/06 A3019 RMK AO2 T01590061,KETC,2023-05-27T01:00:00Z,35.93,-77.55,15.9,6.1,50,7,,10.0,30.188976,,,TRUE,TRUE,,,,,,,CLR,,,,,,,,VFR,,,,,,,,,,,,METAR,15.0
HUEN 270100Z 36002KT 9999 FEW022 FEW024CB 23/21 Q1015,HUEN,2023-05-27T01:00:00Z,0.03,32.45,23.0,21.0,360,2,,6.21,29.970472,,,,,,,,,,,FEW,2200,FEW,2400,,,,,VFR,,,,,,,,,,,,METAR,1147.0
HRYR 270100Z 00000KT 9999 FEW026 19/16 Q1019 NOSIG,HRYR,2023-05-27T01:00:00Z,-1.97,30.13,19.0,16.0,0,0,,6.21,30.088583,,,,,,TRUE,,,,,FEW,2600,,,,,,,VFR,,,,,,,,,,,,METAR,1493.0
HKNK 270100Z 00000KT CAVOK 14/11,HKNK,2023-05-27T01:00:00Z,-0.3,36.17,14.0,11.0,0,0,,6.21,,,,,,,,,,,,CAVOK,,,,,,,,VFR,,,,,,,,,,,,METAR,1900.0
HKNI 270100Z 12003KT 9999 BKN017 OVC080 15/14 RERA,HKNI,2023-05-27T01:00:00Z,-0.33,36.92,15.0,14.0,120,3,,6.21,,,,,,,,,,,,BKN,1700,OVC,8000,,,,,MVFR,,,,,,,,,,,,METAR,1769.0
HKMO 270100Z 11007KT 9999 BKN019 25/22 RESH Q1013 NOSIG,HKMO,2023-05-27T01:00:00Z,-4.02,39.62,25.0,22.0,110,7,,6.21,29.911417,,,,,,TRUE,,,,,BKN,1900,,,,,,,MVFR,,,,,,,,,,,,METAR,55.0
HKJK 270100Z 06004KT 9999 BKN015 16/14 Q1022 NOSIG,HKJK,2023-05-27T01:00:00Z,-1.32,36.92,16.0,14.0,60,4,,6.21,30.177166,,,,,,TRUE,,,,,BKN,1500,,,,,,,MVFR,,,,,,,,,,,,METAR,1615.0
HETR 270100Z 00000KT CAVOK 24/17 Q1006,HETR,2023-05-27T01:00:00Z,28.22,33.65,24.0,17.0,0,0,,6.21,29.704725,,,,,,,,,,,CAVOK,,,,,,,,VFR,,,,,,,,,,,,SPECI,35.0
HESW 270100Z 28008KT CAVOK 22/06 Q1005,HESW,2023-05-27T01:00:00Z,29.35,25.5,22.0,6.0,280,8,,6.21,29.675198,,,,,,,,,,,CAVOK,,,,,,,,VFR,,,,,,,,,,,,SPECI,101.0
HECA 270100Z 24015KT CAVOK 29/06 Q1003 NOSIG,HECA,2023-05-27T01:00:00Z,30.12,31.4,29.0,6.0,240,15,,6.21,29.616142,,,,,,TRUE,,,,,CAVOK,,,,,,,,VFR,,,,,,,,,,,,METAR,68.0
HAAB 270100Z 00000KT 9999 FEW025 15/12 Q1O25,HAAB,2023-05-27T01:00:00Z,8.97,38.78,15.0,12.0,0,0,,6.21,,,,,,,,,,,,FEW,2500,,,,,,,VFR,,,,,,,,,,,,METAR,2319.0
GVSV 270100Z 05015KT 9999 FEW017 SCT200 23/19 Q1017 NOSIG,GVSV,2023-05-27T01:00:00Z,16.83,-25.07,23.0,19.0,50,15,,6.21,30.029528,,,,,,TRUE,,,,,FEW,1700,SCT,20000,,,,,VFR,,,,,,,,,,,,METAR,16.0
GVNP 270100Z 03015KT 9999 FEW017 23/20 Q1016 NOSIG,GVNP,2023-05-27T01:00:00Z,14.95,-23.48,23.0,20.0,30,15,,6.21,30.0,,,,,,TRUE,,,,,FEW,1700,,,,,,,VFR,,,,,,,,,,,,METAR,70.0
GVAC 270100Z 05011KT 9999 SCT013 BKN100 23/20 Q1017 NOSIG,GVAC,2023-05-27T01:00:00Z,16.73,-22.93,23.0,20.0,50,11,,6.21,30.029528,,,,,,TRUE,,,,,SCT,1300,BKN,10000,,,,,VFR,,,,,,,,,,,,METAR,54.0
GQPP 270100Z 02009KT 7000 NSC 20/18 Q1017 NOSIG,GQPP,2023-05-27T01:00:00Z,20.92,-17.02,20.0,18.0,20,9,,4.35,30.029528,,,,,,TRUE,,,,,CLR,,,,,,,,MVFR,,,,,,,,,,,,METAR,5.0
GOSS 270100Z 36006KT 320V050 CAVOK 25/20 Q1013,GOSS,2023-05-27T01:00:00Z,16.05,-16.45,25.0,20.0,360,6,,6.21,29.911417,,,,,,,,,,,CAVOK,,,,,,,,VFR,,,,,,,,,,,,METAR,3.0
GOGG 270100Z 28006KT CAVOK 28/24 Q1013,GOGG,2023-05-27T01:00:00Z,12.55,-16.27,28.0,24.0,280,6,,6.21,29.911417,,,,,,,,,,,CAVOK,,,,,,,,VFR,,,,,,,,,,,,METAR,24.0
GOBD 270100Z 35006KT 8000 NSC 26/21 Q1014 NOSIG,GOBD,2023-05-27T01:00:00Z,14.67,-17.07,26.0,21.0,350,6,,4.97,29.940945,,,,,,TRUE,,,,,CLR,,,,,,,,MVFR,,,,,,,,,,,,METAR,90.0
GMTT 270100Z 10012KT CAVOK 21/18 Q1012 NOSIG,GMTT,2023-05-27T01:00:00Z,35.72,-5.9,21.0,18.0,100,12,,6.21,29.88189,,,,,,TRUE,,,,,CAVOK,,,,,,,,VFR,,,,,,,,,,,,METAR,19.0
GMTN 270100Z 11009KT 4000 TSRA SCT010 SCT036 SCT060CB 19/13 Q1014 NOSIG,GMTN,2023-05-27T01:00:00Z,35.58,-5.32,19.0,13.0,110,9,,2.49,29.940945,,,,,,TRUE,,,,TSRA,SCT,1000,SCT,3600,SCT,6000,,,IFR,,,,,,,,,,,,METAR,10.0
GMTA 270100Z 02008KT 9999 FEW020 SCT030 20/15 Q1013 NOSIG,GMTA,2023-05-27T01:00:00Z,35.17,-3.85,20.0,15.0,20,8,,6.21,29.911417,,,,,,TRUE,,,,,FEW,2000,SCT,3000,,,,,VFR,,,,,,,,,,,,METAR,14.0
GMMZ 270100Z 27008KT CAVOK 18/05 Q1014 NOSIG,GMMZ,2023-05-27T01:00:00Z,30.93,-6.9,18.0,5.0,270,8,,6.21,29.940945,,,,,,TRUE,,,,,CAVOK,,,,,,,,VFR,,,,,,,,,,,,METAR,1139.0
GMMX 270100Z 27009KT 9999 BKN030 18/12 Q1015 NOSIG,GMMX,2023-05-27T01:00:00Z,31.62,-8.03,18.0,12.0,270,9,,6.21,29.970472,,,,,,TRUE,,,,,BKN,3000,,,,,,,MVFR,,,,,,,,,,,,METAR,465.0
GMMW 270100Z 02009KT 8000 BKN013 19/16 Q1013 NOSIG,GMMW,2023-05-27T01:00:00Z,34.98,-3.02,19.0,16.0,20,9,,4.97,29.911417,,,,,,TRUE,,,,,BKN,1300,,,,,,,MVFR,,,,,,,,,,,,METAR,174.0
GMMN 270100Z 29004KT 9999 BKN020 18/15 Q1014 NOSIG,GMMN,2023-05-27T01:00:00Z,33.37,-7.58,18.0,15.0,290,4,,6.21,29.940945,,,,,,TRUE,,,,,BKN,2000,,,,,,,MVFR,,,,,,,,,,,,METAR,196.0
GMML 270100Z 32003KT 8000 NSC 17/17 Q1018 NOSIG,GMML,2023-05-27T01:00:00Z,27.13,-13.23,17.0,17.0,320,3,,4.97,30.059055,,,,,,TRUE,,,,,CLR,,,,,,,,MVFR,,,,,,,,,,,,METAR,63.0
GMMI 270100Z AUTO 34004KT 6000 SCT016 BKN046 19/// Q1016 NOSIG,GMMI,2023-05-27T01:00:00Z,31.4,-9.68,,,340,4,,3.73,30.0,,,TRUE,,,TRUE,,,,,SCT,1600,BKN,4600,,,,,MVFR,,,,,,,,,,,,METAR,102.0
GMME 270100Z 01004KT 5000 SCT016 SCT020 BKN083 20/17 Q1013 TEMPO 3000 RA,GMME,2023-05-27T01:00:00Z,34.05,-6.77,20.0,17.0,10,4,,3.11,29.911417,,,,,,,,,,,SCT,1600,SCT,2000,BKN,8300,,,MVFR,,,,,,,,,,,,METAR,84.0
GMMB 270100Z AUTO 23002KT 9999 SCT032/// SCT080/// 17/17 Q1014 NOSIG,GMMB,2023-05-27T01:00:00Z,33.65,-7.22,17.0,17.0,230,2,,6.21,29.940945,,,TRUE,,,TRUE,,,,,SCT,3200,SCT,8000,,,,,VFR,,,,,,,,,,,,METAR,191.0
GMFO 270100Z 34011KT 9999 FEW020 SCT130 17/15 Q1013 NOSIG,GMFO,2023-05-27T01:00:00Z,34.78,-1.92,17.0,15.0,340,11,,6.21,29.911417,,,,,,TRUE,,,,,FEW,2000,SCT,13000,,,,,VFR,,,,,,,,,,,,METAR,452.0
GMFM 270100Z 27006KT 8000 -TS FEW013 BKN016 FEW026CB 16/12 Q1015 NOSIG,GMFM,2023-05-27T01:00:00Z,33.87,-5.52,16.0,12.0,270,6,,4.97,29.970472,,,,,,TRUE,,,,-TS,FEW,1300,BKN,1600,FEW,2600,,,MVFR,,,,,,,,,,,,METAR,569.0
GMFK 270100Z 23007KT 200V260 4000 DU NSC 24/04 Q1013 NOSIG,GMFK,2023-05-27T01:00:00Z,31.95,-4.4,24.0,4.0,230,7,,2.49,29.911417,,,,,,TRUE,,,,DU,CLR,,,,,,,,IFR,,,,,,,,,,,,METAR,1033.0
GMFF 270100Z 27009KT 9999 BKN033 SCT040CB 17/13 Q1014 TEMPO SHRA,GMFF,2023-05-27T01:00:00Z,33.92,-4.97,17.0,13.0,270,9,,6.21,29.940945,,,,,,,,,,,BKN,3300,SCT,4000,,,,,VFR,,,,,,,,,,,,METAR,575.0
GMAD 270100Z 25011KT 8000 SCT016 19/17 Q1015 NOSIG,GMAD,2023-05-27T01:00:00Z,30.32,-9.42,19.0,17.0,250,11,,4.97,29.970472,,,,,,TRUE,,,,,SCT,1600,,,,,,,MVFR,,,,,,,,,,,,METAR,66.0
GLRB 270100Z 00000KT 9999 BKN014 FEW024CB 27/26 Q1013 NOSIG RMK CB-N,GLRB,2023-05-27T01:00:00Z,6.25,-10.35,27.0,26.0,0,0,,6.21,29.911417,,,,,,TRUE,,,,,BKN,1400,FEW,2400,,,,,MVFR,,,,,,,,,,,,METAR,12.0
GEML 270100Z AUTO 06007KT 020V100 9999 BKN011 BKN017 BKN023 20/18 Q1013,GEML,2023-05-27T01:00:00Z,35.27,-2.95,20.0,18.0,60,7,,6.21,29.911417,,,TRUE,,,,,,,,BKN,1100,BKN,1700,BKN,2300,,,MVFR,,,,,,,,,,,,METAR,48.0
GECE 270100Z AUTO 11006KT 4500 VCTS SHRA FEW013 SCT045 OVC050 ///CB 19/18 Q1014,GECE,2023-05-27T01:00:00Z,35.88,-5.3,19.0,18.0,110,6,,2.8,29.940945,,,TRUE,,,,,,,VCTS SHRA,FEW,1300,SCT,4500,OVC,5000,,,IFR,,,,,,,,,,,,METAR,2.0
GCXO 270100Z AUTO 26005KT 9999 OVC070 15/12 Q1019,GCXO,2023-05-27T01:00:00Z,28.48,-16.35,15.0,12.0,260,5,,6.21,30.088583,,,TRUE,,,,,,,,OVC,7000,,,,,,,VFR,,,,,,,,,,,,METAR,623.0
GCTS 270100Z 36006KT 9999 FEW035 17/13 Q1018 NOSIG,GCTS,2023-05-27T01:00:00Z,28.05,-16.57,17.0,13.0,360,6,,6.21,30.059055,,,,,,TRUE,,,,,FEW,3500,,,,,,,VFR,,,,,,,,,,,,METAR,59.0
GCRR 270100Z AUTO 00000KT CAVOK 19/14 Q1017,GCRR,2023-05-27T01:00:00Z,28.95,-13.58,19.0,14.0,0,0,,6.21,30.029528,,,TRUE,,,,,,,,CAVOK,,,,,,,,VFR,,,,,,,,,,,,METAR,9.0
GCLP 270100Z 27004KT 9999 FEW045 18/14 Q1018 NOSIG,GCLP,2023-05-27T01:00:00Z,27.92,-15.38,18.0,14.0,270,4,,6.21,30.059055,,,,,,TRUE,,,,,FEW,4500,,,,,,,VFR,,,,,,,,,,,,METAR,16.0
GCLA 270100Z AUTO 27006KT CAVOK 19/13 Q1018,GCLA,2023-05-27T01:00:00Z,28.62,-17.75,19.0,13.0,270,6,,6.21,30.059055,,,TRUE,,,,,,,,CAVOK,,,,,,,,VFR,,,,,,,,,,,,METAR,20.0
GCHI 270100Z AUTO 30004KT 260V320 CAVOK 20/14 Q1018,GCHI,2023-05-27T01:00:00Z,27.82,-17.88,20.0,14.0,300,4,,6.21,30.059055,,,TRUE,,,,,,,,CAVOK,,,,,,,,VFR,,,,,,,,,,,,METAR,21.0
GCGM 270100Z AUTO 34002KT CAVOK 18/13 Q1019 RMK R09/02003KT ARP/01003KT 340V050,GCGM,2023-05-27T01:00:00Z,28.03,-17.22,18.0,13.0,340,2,,6.21,30.088583,,,TRUE,,,,,,,,CAVOK,,,,,,,,VFR,,,,,,,,,,,,METAR,217.0
GCFV 270100Z AUTO 29004KT CAVOK 18/13 Q1018,GCFV,2023-05-27T01:00:00Z,28.43,-13.87,18.0,13.0,290,4,,6.21,30.059055,,,TRUE,,,,,,,,CAVOK,,,,,,,,VFR,,,,,,,,,,,,METAR,11.0
GBYD 270100Z 34006KT CAVOK 26/23 Q1013,GBYD,2023-05-27T01:00:00Z,13.33,-16.65,26.0,23.0,340,6,,6.21,29.911417,,,,,,,,,,,CAVOK,,,,,,,,VFR,,,,,,,,,,,,METAR,29.0
GAKD 270100Z 04008KT CAVOK 35/12 Q1012,GAKD,2023-05-27T01:00:00Z,14.48,-11.4,35.0,12.0,40,8,,6.21,29.88189,,,,,,,,,,,CAVOK,,,,,,,,VFR,,,,,,,,,,,,METAR,53.0
GABS 270100Z 20003KT CAVOK 25/22 Q1012 NOSIG,GABS,2023-05-27T01:00:00Z,12.53,-7.95,25.0,22.0,200,3,,6.21,29.88189,,,,,,TRUE,,,,,CAVOK,,,,,,,,VFR,,,,,,,,,,,,METAR,375.0
FZAA 270100Z 00000KT 6000 SCT016 25/24 Q1012 NOSIG,FZAA,2023-05-27T01:00:00Z,-4.38,15.45,25.0,24.0,0,0,,3.73,29.88189,,,,,,TRUE,,,,,SCT,1600,,,,,,,MVFR,,,,,,,,,,,,METAR,309.0
FYWW 270100Z AUTO 10007KT //// // ////// 13/M00 Q1022,FYWW,2023-05-27T01:00:00Z,-22.57,17.1,13.0,0.0,100,7,,,30.177166,,,TRUE,,,,,,,,,,,,,,,,,,,,,,,,,,,,METAR,1672.0
FYWB 270100Z AUTO 06007KT //// // ////// 10/09 Q1014,FYWB,2023-05-27T01:00:00Z,-22.98,14.65,10.0,9.0,60,7,,,29.940945,,,TRUE,,,,,,,,,,,,,,,,,,,,,,,,,,,,METAR,87.0
FYOA 270100Z AUTO 08001KT //// // ////// 16/04 Q1014,FYOA,2023-05-27T01:00:00Z,-17.88,15.97,16.0,4.0,80,1,,,29.940945,,,TRUE,,,,,,,,,,,,,,,,,,,,,,,,,,,,METAR,1099.0
FYLZ 270100Z AUTO 00000KT //// // ////// 09/07 Q1014,FYLZ,2023-05-27T01:00:00Z,-26.68,15.25,9.0,7.0,0,0,,,29.940945,,,TRUE,,,,,,,,,,,,,,,,,,,,,,,,,,,,METAR,129.0
FYKT 270100Z AUTO 07007KT //// // ////// 07/M03 Q1020,FYKT,2023-05-27T01:00:00Z,-26.53,18.12,7.0,-3.0,70,7,,,30.11811,,,TRUE,,,,,,,,,,,,,,,,,,,,,,,,,,,,METAR,1064.0
FVRG 270100Z 08006KT CAVOK 12/11 Q1024 NOSIG,FVRG,2023-05-27T01:00:00Z,-17.93,31.1,12.0,11.0,80,6,,6.21,30.236221,,,,,,TRUE,,,,,CAVOK,,,,,,,,VFR,,,,,,,,,,,,METAR,1490.0
FTTJ 270100Z 18004KT 8000 NSC 27/22 Q1006 NOSIG,FTTJ,2023-05-27T01:00:00Z,12.13,15.03,27.0,22.0,180,4,,4.97,29.704725,,,,,,TRUE,,,,,CLR,,,,,,,,MVFR,,,,,,,,,,,,METAR,295.0
FSIA 270100Z 12016G27KT 9999 BKN022 28/22 Q1013 NOSIG,FSIA,2023-05-27T01:00:00Z,-4.67,55.52,28.0,22.0,120,16,27,6.21,29.911417,,,,,,TRUE,,,,,BKN,2200,,,,,,,MVFR,,,,,,,,,,,,METAR,3.0
FQXA 270100Z 13002KT 9999 BKN020 20/19 Q1021,FQXA,2023-05-27T01:00:00Z,-25.05,33.62,20.0,19.0,130,2,,6.21,30.147638,,,,,,,,,,,BKN,2000,,,,,,,MVFR,,,,,,,,,,,,METAR,3.0
FQTT 270100Z 00000KT CAVOK 14/13 Q1017,FQTT,2023-05-27T01:00:00Z,-16.1,33.63,14.0,13.0,0,0,,6.21,30.029528,,,,,,,,,,,CAVOK,,,,,,,,VFR,,,,,,,,,,,,METAR,146.0
FQNP 270100Z VRB02KT CAVOK 18/15 Q1019,FQNP,2023-05-27T01:00:00Z,-15.1,39.27,18.0,15.0,0,2,,6.21,30.088583,,,,,,,,,,,CAVOK,,,,,,,,VFR,,,,,,,,,,,,METAR,434.0
FQLC 270100Z 13003KT CAVOK 14/12 Q1023,FQLC,2023-05-27T01:00:00Z,-13.27,35.25,14.0,12.0,130,3,,6.21,30.206694,,,,,,,,,,,CAVOK,,,,,,,,VFR,,,,,,,,,,,,METAR,1362.0
FQCH 270100Z /////KT CAVOK 17/16 Q1021,FQCH,2023-05-27T01:00:00Z,-19.15,33.43,17.0,16.0,,,,6.21,30.147638,,,,,,,,,,,CAVOK,,,,,,,,VFR,,,,,,,,,,,,METAR,695.0
FQBR 270100Z 12003KT 090V170 9999 FEW020 23/22 Q1017,FQBR,2023-05-27T01:00:00Z,-19.8,34.9,23.0,22.0,120,3,,6.21,30.029528,,,,,,,,,,,FEW,2000,,,,,,,VFR,,,,,,,,,,,,METAR,14.0
FOOL 270100Z 19008KT 9999 SCT010 27/25 Q1009 NOSIG,FOOL,2023-05-27T01:00:00Z,0.45,9.42,27.0,25.0,190,8,,6.21,29.793306,,,,,,TRUE,,,,,SCT,1000,,,,,,,VFR,,,,,,,,,,,,METAR,9.0
FOOG 270100Z AUTO 18010KT 150V210 //// NCD VV005 27/24 Q1009,FOOG,2023-05-27T01:00:00Z,-0.7,8.75,27.0,24.0,180,10,,,29.793306,,,TRUE,,,,,,,,OVX,0,CLR,,,,,,LIFR,,,,,,,,,,,500,METAR,4.0
FMSD 270100Z 08006KT 9999 FEW016 22/18 Q1021,FMSD,2023-05-27T01:00:00Z,-25.03,46.95,22.0,18.0,80,6,,6.21,30.147638,,,,,,,,,,,FEW,1600,,,,,,,VFR,,,,,,,,,,,,METAR,7.0
FMNM 270100Z 16003KT 9999 FEW040 21/17 Q1018,FMNM,2023-05-27T01:00:00Z,-15.67,46.35,21.0,17.0,160,3,,6.21,30.059055,,,,,,,,,,,FEW,4000,,,,,,,VFR,,,,,,,,,,,,METAR,18.0
FMMT 270100Z 24005KT 9999 FEW017 20/19 Q1020,FMMT,2023-05-27T01:00:00Z,-18.12,49.38,20.0,19.0,240,5,,6.21,30.11811,,,,,,,,,,,FEW,1700,,,,,,,VFR,,,,,,,,,,,,METAR,13.0
FMMI 270100Z 16003KT 9999 FEW017 SCT020 12/12 Q1025 NOSIG,FMMI,2023-05-27T01:00:00Z,-18.8,47.47,12.0,12.0,160,3,,6.21,30.265747,,,,,,TRUE,,,,,FEW,1700,SCT,2000,,,,,VFR,,,,,,,,,,,,METAR,1269.0
FMEP 270100Z AUTO 12007KT 5000 -RADZ BR FEW014/// BKN023/// BKN032/// ///CB 21/20 Q1020,FMEP,2023-05-27T01:00:00Z,-21.32,55.42,21.0,20.0,120,7,,3.11,30.11811,,,TRUE,,,,,,,-RA -DZ BR,FEW,1400,BKN,2300,BKN,3200,,,MVFR,,,,,,,,,,,,SPECI,21.0
FMEE 270100Z AUTO 12008KT 9999 FEW047 22/18 Q1019 TEMPO 2000 SHRA FEW018CB SCT030,FMEE,2023-05-27T01:00:00Z,-20.88,55.52,22.0,18.0,120,8,,6.21,30.088583,,,TRUE,,,,,,,,FEW,4700,,,,,,,VFR,,,,,,,,,,,,METAR,20.0
FMCZ 270100Z AUTO 31004KT 290V360 CAVOK 23/21 Q1016 BECMG 17010KT,FMCZ,2023-05-27T01:00:00Z,-12.8,45.27,23.0,21.0,310,4,,6.21,30.0,,,TRUE,,,,,,,,CAVOK,,,,,,,,VFR,,,,,,,,,,,,METAR,7.0
FKKD 270100Z 03002KT 9999 TS BKN013 FEW016CB 27/26 Q1010 TEMPO 04015G35KT 3000 SQ TSRA SCT003 BKN010 SCT013CB,FKKD,2023-05-27T01:00:00Z,4.0,9.72,27.0,26.0,30,2,,6.21,29.822834,,,,,,,,,,TS,BKN,1300,FEW,1600,,,,,MVFR,,,,,,,,,,,,METAR,10.0
FGSL 270100Z 25005KT 9999 SCT009 26/26 Q1010 NOSIG,FGSL,2023-05-27T01:00:00Z,3.75,8.72,26.0,26.0,250,5,,6.21,29.822834,,,,,,TRUE,,,,,SCT,900,,,,,,,VFR,,,,,,,,,,,,METAR,23.0
FEFF 270100Z 00000KT 8000 NSC 24/23 Q1010 NOSIG,FEFF,2023-05-27T01:00:00Z,4.4,18.52,24.0,23.0,0,0,,4.97,29.822834,,,,,,TRUE,,,,,CLR,,,,,,,,MVFR,,,,,,,,,,,,METAR,364.0
FDST 270100Z AUTO 07006KT //// // ////// ///// Q1023,FDST,2023-05-27T01:00:00Z,-26.43,31.95,,,70,6,,,30.206694,,,TRUE,,,,,,,,,,,,,,,,,,,,,,,,,,,,METAR,642.0
FDPP 270100Z AUTO 29001KT //// // ////// ///// Q1029,FDPP,2023-05-27T01:00:00Z,-25.97,31.25,,,290,1,,,30.383858,,,TRUE,,,,,,,,,,,,,,,,,,,,,,,,,,,,METAR,1023.0
FDMY 270100Z AUTO 28003KT //// // ////// 16/11 Q1035,FDMY,2023-05-27T01:00:00Z,-25.88,31.52,16.0,11.0,280,3,,,30.561024,,,TRUE,,,,,,,,,,,,,,,,,,,,,,,,,,,,METAR,401.0
FDBB 270100Z AUTO 00000KT //// // ////// 18/14 Q1022,FDBB,2023-05-27T01:00:00Z,-26.8,31.93,18.0,14.0,0,0,,,30.177166,,,TRUE,,,,,,,,,,,,,,,,,,,,,,,,,,,,METAR,106.0
FCBB 270100Z VRB02KT 8000 SCT015 25/23 Q1012 NOSIG,FCBB,2023-05-27T01:00:00Z,-4.25,15.25,25.0,23.0,0,2,,4.97,29.88189,,,,,,TRUE,,,,,SCT,1500,,,,,,,MVFR,,,,,,,,,,,,METAR,316.0
FBMN 270100Z 13008KT CAVOK 17/03 Q1019,FBMN,2023-05-27T01:00:00Z,-19.97,23.42,17.0,3.0,130,8,,6.21,30.088583,,,,,,,,,,,CAVOK,,,,,,,,VFR,,,,,,,,,,,,METAR,946.0
FAWB 270100Z AUTO 01001KT //// // ////// 12/08 Q1021,FAWB,2023-05-27T01:00:00Z,-25.65,28.22,12.0,8.0,10,1,,,30.147638,,,TRUE,,,,,,,,,,,,,,,,,,,,,,,,,,,,METAR,1245.0
FAUP 270100Z 00000KT CAVOK 03/M03 Q1021 NOSIG,FAUP,2023-05-27T01:00:00Z,-28.38,21.27,3.0,-3.0,0,0,,6.21,30.147638,,,,,,TRUE,,,,,CAVOK,,,,,,,,VFR,,,,,,,,,,,,METAR,845.0
FAPP 270100Z AUTO 09007KT //// // ////// 14/13 Q1025,FAPP,2023-05-27T01:00:00Z,-23.83,29.45,14.0,13.0,90,7,,,30.265747,,,TRUE,,,,,,,,,,,,,,,,,,,,,,,,,,,,METAR,1238.0
FAPN 270100Z AUTO 00000KT //// // ////// 10/08 Q1021,FAPN,2023-05-27T01:00:00Z,-25.33,27.17,10.0,8.0,0,0,,,30.147638,,,TRUE,,,,,,,,,,,,,,,,,,,,,,,,,,,,METAR,1045.0
FAPE 270100Z VRB02KT 9999 ////// 07/05 Q1020 NOSIG,FAPE,2023-05-27T01:00:00Z,-33.98,25.6,7.0,5.0,0,2,,6.21,30.11811,,,,,,TRUE,,,,,,,,,,,,,,,,,,,,,,,,,METAR,58.0
FAOR 270100Z 07004KT CAVOK 11/M06 Q1025 NOSIG,FAOR,2023-05-27T01:00:00Z,-26.13,28.23,11.0,-6.0,70,4,,6.21,30.265747,,,,,,TRUE,,,,,CAVOK,,,,,,,,VFR,,,,,,,,,,,,METAR,1684.0
FAMM 270100Z AUTO 07003KT //// // ////// 09/03 Q1021,FAMM,2023-05-27T01:00:00Z,-25.8,25.53,9.0,3.0,70,3,,,30.147638,,,TRUE,,,,,,,,,,,,,,,,,,,,,,,,,,,,METAR,1280.0
FALW 270100Z AUTO 03001KT //// // ////// 06/05 Q1017,FALW,2023-05-27T01:00:00Z,-32.97,18.17,6.0,5.0,30,1,,,30.029528,,,TRUE,,,,,,,,,,,,,,,,,,,,,,,,,,,,METAR,31.0
FALE 270100Z 18002KT 9999 FEW049 13/09 Q1023 NOSIG,FALE,2023-05-27T01:00:00Z,-29.62,31.12,13.0,9.0,180,2,,6.21,30.206694,,,,,,TRUE,,,,,FEW,4900,,,,,,,VFR,,,,,,,,,,,,METAR,109.0
FALA 270100Z AUTO 00000KT //// ////// 10/06 Q1024,FALA,2023-05-27T01:00:00Z,-25.93,27.92,10.0,6.0,0,0,,,30.236221,,,TRUE,,,,,,,,,,,,,,,,,,,,,,,,,,,,SPECI,1365.0
FAKN 270100Z AUTO 17001KT //// // ////// 14/11 Q1026,FAKN,2023-05-27T01:00:00Z,-25.38,31.1,14.0,11.0,170,1,,,30.295275,,,TRUE,,,,,,,,,,,,,,,,,,,,,,,,,,,,METAR,864.0
FAHS 270100Z AUTO 16010KT //// // ////// 18/13 Q1022,FAHS,2023-05-27T01:00:00Z,-24.37,31.03,18.0,13.0,160,10,,,30.177166,,,TRUE,,,,,,,,,,,,,,,,,,,,,,,,,,,,METAR,532.0
FAGG 270100Z AUTO 30004KT 9999 // ////// 06/04 Q1018,FAGG,2023-05-27T01:00:00Z,-34.0,22.37,6.0,4.0,300,4,,6.21,30.059055,,,TRUE,,,,,,,,,,,,,,,,,,,,,,,,,,,,METAR,196.0
FACT 270100Z 04009KT CAVOK 09/05 Q1018 NOSIG,FACT,2023-05-27T01:00:00Z,-33.97,18.6,9.0,5.0,40,9,,6.21,30.059055,,,,,,TRUE,,,,,CAVOK,,,,,,,,VFR,,,,,,,,,,,,METAR,48.0
FABL 270100Z AUTO 20004KT //// R02///// // ///////// M02/M04 Q1024,FABL,2023-05-27T01:00:00Z,-29.1,26.3,-2.0,-4.0,200,4,,,30.236221,,,TRUE,,,,,,,,,,,,,,,,,,,,,,,,,,,,METAR,1348.0
EPWR 270100Z 33005KT CAVOK 07/04 Q1027,EPWR,2023-05-27T01:00:00Z,51.1,16.88,7.0,4.0,330,5,,6.21,30.324802,,,,,,,,,,,CAVOK,,,,,,,,VFR,,,,,,,,,,,,METAR,118.0
EPWA 270100Z 35007KT CAVOK 09/04 Q1025 NOSIG,EPWA,2023-05-27T01:00:00Z,52.17,20.97,9.0,4.0,350,7,,6.21,30.265747,,,,,,TRUE,,,,,CAVOK,,,,,,,,VFR,,,,,,,,,,,,METAR,107.0
EPSY 270100Z 35005KT 310V010 CAVOK 07/05 Q1025,EPSY,2023-05-27T01:00:00Z,53.47,20.93,7.0,5.0,350,5,,6.21,30.265747,,,,,,,,,,,CAVOK,,,,,,,,VFR,,,,,,,,,,,,METAR,136.0
EPSC 270100Z 29001KT CAVOK 04/03 Q1028,EPSC,2023-05-27T01:00:00Z,53.58,14.9,4.0,3.0,290,1,,6.21,30.35433,,,,,,,,,,,CAVOK,,,,,,,,VFR,,,,,,,,,,,,METAR,47.0
EPRZ 270100Z 35010KT CAVOK 13/08 Q1022,EPRZ,2023-05-27T01:00:00Z,50.1,22.02,13.0,8.0,350,10,,6.21,30.177166,,,,,,,,,,,CAVOK,,,,,,,,VFR,,,,,,,,,,,,METAR,206.0
EPPO 270100Z 35003KT CAVOK 07/05 Q1027,EPPO,2023-05-27T01:00:00Z,52.42,16.83,7.0,5.0,350,3,,6.21,30.324802,,,,,,,,,,,CAVOK,,,,,,,,VFR,,,,,,,,,,,,METAR,87.0
EPMO 270100Z 32004KT CAVOK 07/04 Q1025,EPMO,2023-05-27T01:00:00Z,52.45,20.65,7.0,4.0,320,4,,6.21,30.265747,,,,,,,,,,,CAVOK,,,,,,,,VFR,,,,,,,,,,,,METAR,102.0
EPLL 270100Z 36004KT 320V040 CAVOK 09/03 Q1025,EPLL,2023-05-27T01:00:00Z,51.72,19.4,9.0,3.0,360,4,,6.21,30.265747,,,,,,,,,,,CAVOK,,,,,,,,VFR,,,,,,,,,,,,METAR,176.0
EPLB 270100Z 34004KT 290V010 CAVOK 11/05 Q1023,EPLB,2023-05-27T01:00:00Z,51.23,22.72,11.0,5.0,340,4,,6.21,30.206694,,,,,,,,,,,CAVOK,,,,,,,,VFR,,,,,,,,,,,,METAR,206.0
EPKT 270100Z 36002KT 9999 MIFG NSC 05/04 Q1024,EPKT,2023-05-27T01:00:00Z,50.47,19.08,5.0,4.0,360,2,,6.21,30.236221,,,,,,,,,,MIFG,CLR,,,,,,,,VFR,,,,,,,,,,,,METAR,296.0
EPKK 270100Z VRB02KT CAVOK 12/04 Q1023,EPKK,2023-05-27T01:00:00Z,50.07,19.8,12.0,4.0,0,2,,6.21,30.206694,,,,,,,,,,,CAVOK,,,,,,,,VFR,,,,,,,,,,,,METAR,237.0
EPGD 270100Z 28002KT CAVOK 05/05 Q1027,EPGD,2023-05-27T01:00:00Z,54.37,18.47,5.0,5.0,280,2,,6.21,30.324802,,,,,,,,,,,CAVOK,,,,,,,,VFR,,,,,,,,,,,,METAR,136.0
EPBY 270100Z 29002KT CAVOK 05/03 Q1027,EPBY,2023-05-27T01:00:00Z,53.1,18.0,5.0,3.0,290,2,,6.21,30.324802,,,,,,,,,,,CAVOK,,,,,,,,VFR,,,,,,,,,,,,METAR,66.0
EIWF 270100Z 04006KT CAVOK 09/08 Q1030,EIWF,2023-05-27T01:00:00Z,52.18,-7.08,9.0,8.0,40,6,,6.21,30.413385,,,,,,,,,,,CAVOK,,,,,,,,VFR,,,,,,,,,,,,METAR,26.0
EINN 270100Z 03003KT 9999 FEW030 12/10 Q1030 NOSIG,EINN,2023-05-27T01:00:00Z,52.7,-8.92,12.0,10.0,30,3,,6.21,30.413385,,,,,,TRUE,,,,,FEW,3000,,,,,,,VFR,,,,,,,,,,,,METAR,20.0
EIME 270100Z 10006KT CAVOK 11/10 Q1030,EIME,2023-05-27T01:00:00Z,53.3,-6.45,11.0,10.0,100,6,,6.21,30.413385,,,,,,,,,,,CAVOK,,,,,,,,VFR,,,,,,,,,,,,METAR,90.0
EIDW 270100Z 17002KT 9999 FEW015 08/08 Q1030 NOSIG,EIDW,2023-05-27T01:00:00Z,53.42,-6.28,8.0,8.0,170,2,,6.21,30.413385,,,,,,TRUE,,,,,FEW,1500,,,,,,,VFR,,,,,,,,,,,,METAR,75.0
EICK 270100Z 32005KT 9999 FEW040 11/09 Q1030 NOSIG,EICK,2023-05-27T01:00:00Z,51.85,-8.47,11.0,9.0,320,5,,6.21,30.413385,,,,,,TRUE,,,,,FEW,4000,,,,,,,VFR,,,,,,,,,,,,METAR,158.0
DXXX 270100Z 27006KT 9999 FEW013 28/25 Q1011 NOSIG,DXXX,2023-05-27T01:00:00Z,6.17,1.25,28.0,25.0,270,6,,6.21,29.852362,,,,,,TRUE,,,,,FEW,1300,,,,,,,VFR,,,,,,,,,,,,METAR,22.0
DTTZ 270100Z 10008KT 9999 FEW033 21/11 Q1018,DTTZ,2023-05-27T01:00:00Z,33.93,8.1,21.0,11.0,100,8,,6.21,30.059055,,,,,,,,,,,FEW,3300,,,,,,,VFR,,,,,,,,,,,,METAR,87.0
DTTX 270100Z 31004KT 9999 FEW030 19/14 Q1017,DTTX,2023-05-27T01:00:00Z,34.72,10.68,19.0,14.0,310,4,,6.21,30.029528,,,,,,,,,,,FEW,3000,,,,,,,VFR,,,,,,,,,,,,METAR,17.0
DTTR 270100Z AUTO 06005KT NCD 17/11 Q1019,DTTR,2023-05-27T01:00:00Z,31.7,9.27,17.0,11.0,60,5,,,30.088583,,,TRUE,,,,,,,,CLR,,,,,,,,,,,,,,,,,,,,METAR,253.0
DTTN 270100Z /////KT 8000 FEW020 14/11 Q1018,DTTN,2023-05-27T01:00:00Z,36.47,8.8,14.0,11.0,,,,4.97,30.059055,,,,,,,,,,,FEW,2000,,,,,,,MVFR,,,,,,,,,,,,METAR,145.0
DTTK 270100Z VRB02KT 7000 FEW023 18/15 Q////,DTTK,2023-05-27T01:00:00Z,35.67,10.08,18.0,15.0,0,2,,4.35,,,,,,,,,,,,FEW,2300,,,,,,,MVFR,,,,,,,,,,,,METAR,65.0
DTTJ 270100Z 26001KT CAVOK 18/16 Q1017 NOSIG,DTTJ,2023-05-27T01:00:00Z,33.87,10.77,18.0,16.0,260,1,,6.21,30.029528,,,,,,TRUE,,,,,CAVOK,,,,,,,,VFR,,,,,,,,,,,,METAR,3.0
DTTG 270100Z 33001KT CAVOK 15/13 Q1018 NOSIG,DTTG,2023-05-27T01:00:00Z,33.73,9.92,15.0,13.0,330,1,,6.21,30.059055,,,,,,TRUE,,,,,CAVOK,,,,,,,,VFR,,,,,,,,,,,,METAR,120.0
DTTF 270100Z 08002KT 8000 NSC 17/15 Q1019,DTTF,2023-05-27T01:00:00Z,34.42,8.82,17.0,15.0,80,2,,4.97,30.088583,,,,,,,,,,,CLR,,,,,,,,MVFR,,,,,,,,,,,,METAR,314.0
DTTD 270100Z AUTO VRB02KT NCD 16/13 Q1018,DTTD,2023-05-27T01:00:00Z,32.32,10.4,16.0,13.0,0,2,,,30.059055,,,TRUE,,,,,,,,CLR,,,,,,,,,,,,,,,,,,,,METAR,306.0
DTTB 270100Z 27003KT 9999 SCT020 16/12 Q1018,DTTB,2023-05-27T01:00:00Z,37.25,9.8,16.0,12.0,270,3,,6.21,30.059055,,,,,,,,,,,SCT,2000,,,,,,,VFR,,,,,,,,,,,,METAR,4.0
DTTA 270100Z VRB02KT 9999 FEW026 19/13 Q1018,DTTA,2023-05-27T01:00:00Z,36.85,10.22,19.0,13.0,0,2,,6.21,30.059055,,,,,,,,,,,FEW,2600,,,,,,,VFR,,,,,,,,,,,,METAR,4.0
DTNH 270100Z 32003KT 290V350 9999 FEW026 16/12 Q1017,DTNH,2023-05-27T01:00:00Z,36.07,10.43,16.0,12.0,320,3,,6.21,30.029528,,,,,,,,,,,FEW,2600,,,,,,,VFR,,,,,,,,,,,,METAR,1.0
DTMB 270100Z 32006KT 280V350 9999 FEW033 19/17 Q1017 NOSIG,DTMB,2023-05-27T01:00:00Z,35.77,10.75,19.0,17.0,320,6,,6.21,30.029528,,,,,,TRUE,,,,,FEW,3300,,,,,,,VFR,,,,,,,,,,,,METAR,1.0
DTKA 270100Z 10002KT 9999 FEW020 12/11 Q1018 NOSIG,DTKA,2023-05-27T01:00:00Z,36.98,8.88,12.0,11.0,100,2,,6.21,30.059055,,,,,,TRUE,,,,,FEW,2000,,,,,,,VFR,,,,,,,,,,,,METAR,70.0
DRRN 270100Z 23010KT 8000 NSC 34/19 Q1007 NOSIG,DRRN,2023-05-27T01:00:00Z,13.47,2.17,34.0,19.0,230,10,,4.97,29.734253,,,,,,TRUE,,,,,CLR,,,,,,,,MVFR,,,,,,,,,,,,METAR,223.0
DNPO 270100Z 00000KT 8000 SCT008 25/25 Q1011 NOSIG,DNPO,2023-05-27T01:00:00Z,4.83,7.02,25.0,25.0,0,0,,4.97,29.852362,,,,,,TRUE,,,,,SCT,800,,,,,,,MVFR,,,,,,,,,,,,METAR,17.0
DNMM 270100Z 27004KT 9999 FEW011 27/26 Q1011 NOSIG,DNMM,2023-05-27T01:00:00Z,6.57,3.32,27.0,26.0,270,4,,6.21,29.852362,,,,,,TRUE,,,,,FEW,1100,,,,,,,VFR,,,,,,,,,,,,METAR,27.0
DNKT 270100Z 20018KT 9999 FEW013 33/21 Q1009,DNKT,2023-05-27T01:00:00Z,13.0,7.67,33.0,21.0,200,18,,6.21,29.793306,,,,,,,,,,,FEW,1300,,,,,,,VFR,,,,,,,,,,,,METAR,504.0
DNKN 270100Z 23009KT 9999 TS FEW011 FEW019CB 28/19 Q1011 NOSIG,DNKN,2023-05-27T01:00:00Z,12.05,8.52,28.0,19.0,230,9,,6.21,29.852362,,,,,,TRUE,,,,TS,FEW,1100,FEW,1900,,,,,VFR,,,,,,,,,,,,METAR,471.0
DNKA 270100Z 30004KT 6000 BKN008 21/20 Q1012 NOSIG,DNKA,2023-05-27T01:00:00Z,10.58,7.45,21.0,20.0,300,4,,3.73,29.88189,,,,,,TRUE,,,,,BKN,800,,,,,,,IFR,,,,,,,,,,,,METAR,631.0
DNAA 270100Z 04002KT 9999 FEW010 27/24 Q1010 NOSIG,DNAA,2023-05-27T01:00:00Z,9.0,7.27,27.0,24.0,40,2,,6.21,29.822834,,,,,,TRUE,,,,,FEW,1000,,,,,,,VFR,,,,,,,,,,,,METAR,338.0
DIYO 270100Z 16008KT 8000 SCT010 27/25 Q1014 NOSIG,DIYO,2023-05-27T01:00:00Z,6.9,-5.35,27.0,25.0,160,8,,4.97,29.940945,,,,,,TRUE,,,,,SCT,1000,,,,,,,MVFR,,,,,,,,,,,,METAR,202.0
DIAP 270100Z 28003KT 9999 FEW013 29/27 Q1012 NOSIG,DIAP,2023-05-27T01:00:00Z,5.25,-3.92,29.0,27.0,280,3,,6.21,29.88189,,,,,,TRUE,,,,,FEW,1300,,,,,,,VFR,,,,,,,,,,,,METAR,4.0
DGAA 270100Z 26007KT 9999 FEW010 28/25 Q1011 NOSIG,DGAA,2023-05-27T01:00:00Z,5.58,-0.17,28.0,25.0,260,7,,6.21,29.852362,,,,,,TRUE,,,,,FEW,1000,,,,,,,VFR,,,,,,,,,,,,METAR,68.0
DFOO 270100Z 21004KT 6000 NSC 29/22 Q1012,DFOO,2023-05-27T01:00:00Z,11.17,-4.32,29.0,22.0,210,4,,3.73,29.88189,,,,,,,,,,,CLR,,,,,,,,MVFR,,,,,,,,,,,,METAR,461.0
DFFD 270100Z 19008KT CAVOK 33/22 Q1010 NOSIG,DFFD,2023-05-27T01:00:00Z,12.35,-1.52,33.0,22.0,190,8,,6.21,29.822834,,,,,,TRUE,,,,,CAVOK,,,,,,,,VFR,,,,,,,,,,,,METAR,309.0
DBBB 270100Z 26005KT 230V290 9999 FEW012 29/26 Q1010 NOSIG,DBBB,2023-05-27T01:00:00Z,6.35,2.38,29.0,26.0,260,5,,6.21,29.822834,,,,,,TRUE,,,,,FEW,1200,,,,,,,VFR,,,,,,,,,,,,METAR,4.0
DAUZ 270100Z 04009KT CAVOK 21/10 Q1017,DAUZ,2023-05-27T01:00:00Z,28.05,9.63,21.0,10.0,40,9,,6.21,30.029528,,,,,,,,,,,CAVOK,,,,,,,,VFR,,,,,,,,,,,,METAR,567.0
DAUU 270100Z 12008KT CAVOK 23/07 Q1016,DAUU,2023-05-27T01:00:00Z,31.92,5.4,23.0,7.0,120,8,,6.21,30.0,,,,,,,,,,,CAVOK,,,,,,,,VFR,,,,,,,,,,,,METAR,147.0
DAUT 270100Z 23006KT CAVOK 25/M06 Q1012,DAUT,2023-05-27T01:00:00Z,29.25,0.27,25.0,-6.0,230,6,,6.21,29.88189,,,,,,,,,,,CAVOK,,,,,,,,VFR,,,,,,,,,,,,METAR,307.0
DAUO 270100Z 14007KT CAVOK 23/11 Q1017,DAUO,2023-05-27T01:00:00Z,33.5,6.78,23.0,11.0,140,7,,6.21,30.029528,,,,,,,,,,,CAVOK,,,,,,,,VFR,,,,,,,,,,,,METAR,55.0
DAUL 270100Z 00000KT 9999 FEW033 15/11 Q1019,DAUL,2023-05-27T01:00:00Z,33.77,2.92,15.0,11.0,0,0,,6.21,30.088583,,,,,,,,,,,FEW,3300,,,,,,,VFR,,,,,,,,,,,,METAR,755.0
DAUK 270100Z 11011KT CAVOK 22/08 Q1017,DAUK,2023-05-27T01:00:00Z,33.08,6.08,22.0,8.0,110,11,,6.21,30.029528,,,,,,,,,,,CAVOK,,,,,,,,VFR,,,,,,,,,,,,METAR,83.0
DAUI 270100Z 08010KT CAVOK 29/M01 Q1012,DAUI,2023-05-27T01:00:00Z,27.25,2.52,29.0,-1.0,80,10,,6.21,29.88189,,,,,,,,,,,CAVOK,,,,,,,,VFR,,,,,,,,,,,,METAR,271.0
DAUH 270100Z 09005KT CAVOK 21/08 Q1017,DAUH,2023-05-27T01:00:00Z,31.67,6.15,21.0,8.0,90,5,,6.21,30.029528,,,,,,,,,,,CAVOK,,,,,,,,VFR,,,,,,,,,,,,METAR,141.0
DAUG 270100Z 10008KT CAVOK 22/05 Q1018,DAUG,2023-05-27T01:00:00Z,32.38,3.78,22.0,5.0,100,8,,6.21,30.059055,,,,,,,,,,,CAVOK,,,,,,,,VFR,,,,,,,,,,,,METAR,444.0
DAUE 270100Z 10008KT CAVOK 24/06 Q1016,DAUE,2023-05-27T01:00:00Z,30.57,2.87,24.0,6.0,100,8,,6.21,30.0,,,,,,,,,,,CAVOK,,,,,,,,VFR,,,,,,,,,,,,METAR,396.0
DAUB 270100Z 09016KT CAVOK 24/10 Q1017,DAUB,2023-05-27T01:00:00Z,34.78,5.73,24.0,10.0,90,16,,6.21,30.029528,,,,,,,,,,,CAVOK,,,,,,,,VFR,,,,,,,,,,,,METAR,75.0
DAUA 270100Z 25010KT 9999 FEW046 SCT133 29/M04 Q1013,DAUA,2023-05-27T01:00:00Z,27.83,-0.18,29.0,-4.0,250,10,,6.21,29.911417,,,,,,,,,,,FEW,4600,SCT,13300,,,,,VFR,,,,,,,,,,,,METAR,278.0
DAOY 270100Z 12020KT 8000 FEW030 16/07 Q1018,DAOY,2023-05-27T01:00:00Z,33.72,1.08,16.0,7.0,120,20,,4.97,30.059055,,,,,,,,,,,FEW,3000,,,,,,,MVFR,,,,,,,,,,,,METAR,1340.0
DAOV 270100Z 15010KT 9999 SCT030 SCT100 23/08 Q1012,DAOV,2023-05-27T01:00:00Z,35.2,0.15,23.0,8.0,150,10,,6.21,29.88189,,,,,,,,,,,SCT,3000,SCT,10000,,,,,VFR,,,,,,,,,,,,METAR,506.0
DAOO 270100Z 35008KT 9999 SCT023 19/17 Q1010,DAOO,2023-05-27T01:00:00Z,35.62,-0.62,19.0,17.0,350,8,,6.21,29.822834,,,,,,,,,,,SCT,2300,,,,,,,VFR,,,,,,,,,,,,METAR,87.0
DAON 270100Z 28005KT 8000 SCT010 18/16 Q1011,DAON,2023-05-27T01:00:00Z,35.02,-1.47,18.0,16.0,280,5,,4.97,29.852362,,,,,,,,,,,SCT,1000,,,,,,,MVFR,,,,,,,,,,,,METAR,245.0
DAOI 270100Z 06010KT 9999 SCT023 FEW026CB 23/12 Q1015,DAOI,2023-05-27T01:00:00Z,36.22,1.32,23.0,12.0,60,10,,6.21,29.970472,,,,,,,,,,,SCT,2300,FEW,2600,,,,,VFR,,,,,,,,,,,,METAR,141.0
DAOF 270100Z 29011KT 9999 FEW046 SCT233 19/10 Q1015,DAOF,2023-05-27T01:00:00Z,27.7,-8.17,19.0,10.0,290,11,,6.21,29.970472,,,,,,,,,,,FEW,4600,SCT,23300,,,,,VFR,,,,,,,,,,,,METAR,441.0
DAOB 270100Z 12013KT 9999 SCT030 16/10 Q1018,DAOB,2023-05-27T01:00:00Z,35.33,1.47,16.0,10.0,120,13,,6.21,30.059055,,,,,,,,,,,SCT,3000,,,,,,,VFR,,,,,,,,,,,,METAR,976.0
DABT 270100Z 00000KT CAVOK 13/11 Q1021,DABT,2023-05-27T01:00:00Z,35.75,6.32,13.0,11.0,0,0,,6.21,30.147638,,,,,,,,,,,CAVOK,,,,,,,,VFR,,,,,,,,,,,,METAR,813.0
DABS 270100Z 10004KT CAVOK 12/10 Q1020,DABS,2023-05-27T01:00:00Z,35.43,8.12,12.0,10.0,100,4,,6.21,30.11811,,,,,,,,,,,CAVOK,,,,,,,,VFR,,,,,,,,,,,,METAR,806.0
DABC 270100Z 19003KT CAVOK 13/09 Q1020,DABC,2023-05-27T01:00:00Z,36.27,6.62,13.0,9.0,190,3,,6.21,30.11811,,,,,,,,,,,CAVOK,,,,,,,,VFR,,,,,,,,,,,,METAR,686.0
DABB 270100Z 00000KT 6000 NSC 14/13 Q1018,DABB,2023-05-27T01:00:00Z,36.82,7.82,14.0,13.0,0,0,,3.73,30.059055,,,,,,,,,,,CLR,,,,,,,,MVFR,,,,,,,,,,,,METAR,3.0
DAAV 270100Z 00000KT CAVOK 16/14 Q1016,DAAV,2023-05-27T01:00:00Z,36.8,5.88,16.0,14.0,0,0,,6.21,30.0,,,,,,,,,,,CAVOK,,,,,,,,VFR,,,,,,,,,,,,METAR,11.0
DAAT 270100Z 33005KT CAVOK 23/// Q1019,DAAT,2023-05-27T01:00:00Z,22.82,5.47,,,330,5,,6.21,30.088583,,,,,,,,,,,CAVOK,,,,,,,,VFR,,,,,,,,,,,,SPECI,1376.0
DAAS 270100Z 07004KT 8000 FEW026 14/09 Q1021,DAAS,2023-05-27T01:00:00Z,36.18,5.33,14.0,9.0,70,4,,4.97,30.147638,,,,,,,,,,,FEW,2600,,,,,,,MVFR,,,,,,,,,,,,METAR,1012.0
DAAP 270100Z 06004KT CAVOK 24/03 Q1017,DAAP,2023-05-27T01:00:00Z,26.72,8.62,24.0,3.0,60,4,,6.21,30.029528,,,,,,,,,,,CAVOK,,,,,,,,VFR,,,,,,,,,,,,METAR,542.0
DAAJ 270100Z 02016KT CAVOK 25/M02 Q1015,DAAJ,2023-05-27T01:00:00Z,24.28,9.47,25.0,-2.0,20,16,,6.21,29.970472,,,,,,,,,,,CAVOK,,,,,,,,VFR,,,,,,,,,,,,METAR,962.0
DAAG 270100Z 07006KT CAVOK 19/16 Q1015,DAAG,2023-05-27T01:00:00Z,36.68,3.22,19.0,16.0,70,6,,6.21,29.970472,,,,,,,,,,,CAVOK,,,,,,,,VFR,,,,,,,,,,,,METAR,18.0
DAAE 270100Z 24007KT CAVOK 17/14 Q1016,DAAE,2023-05-27T01:00:00Z,36.72,5.07,17.0,14.0,240,7,,6.21,30.0,,,,,,,,,,,CAVOK,,,,,,,,VFR,,,,,,,,,,,,METAR,1.0
CZZJ 270100Z AUTO 10007KT 22/03 RMK AO1 SLP120 T02150030 56015,CZZJ,2023-05-27T01:00:00Z,53.58,-116.47,21.5,3.0,100,7,,,,1012.0,,TRUE,TRUE,,,,,,,,,,,,,,,,-1.5,,,,,,,,,,,METAR,927.0
CZVL 270100Z AUTO 17009KT 120V200 9SM SCT086 23/03 A2991 RMK SLP134 DENSITY ALT 3700FT,CZVL,2023-05-27T01:00:00Z,53.67,-113.85,23.0,3.0,170,9,,9.0,29.911417,1013.4,,TRUE,,,,,,,,SCT,8600,,,,,,,VFR,,,,,,,,,,,,METAR,685.0
CZUM 270100Z AUTO 33005KT 9SM OVC071 10/M00 A2999 RMK SLP171,CZUM,2023-05-27T01:00:00Z,53.55,-64.1,10.0,0.0,330,5,,9.0,29.991142,1017.1,,TRUE,,,,,,,,OVC,7100,,,,,,,VFR,,,,,,,,,,,,SPECI,431.0
CZTB 270100Z AUTO 06007KT 17/04 RMK AO1 SLP225 T01700044 56009,CZTB,2023-05-27T01:00:00Z,48.37,-89.32,17.0,4.4,60,7,,,,1022.5,,TRUE,TRUE,,,,,,,,,,,,,,,,-0.9,,,,,,,,,,,METAR,197.0
CZST 270100Z 21008KT 170V240 15SM BKN070 17/06 A3001 RMK AC5 LAST STFD OBS/NEXT 271300Z/ SLP165,CZST,2023-05-27T01:00:00Z,55.93,-129.98,17.0,6.0,210,8,,15.0,30.008858,1016.5,,,,,,,,,,BKN,7000,,,,,,,VFR,,,,,,,,,,,,SPECI,10.0
CZSP 270100Z AUTO 33011G16KT 04/04 RMK AO1 6PAST HR 3005 PK WND 31017/0037 SLP174 P0002 T00400035 50006,CZSP,2023-05-27T01:00:00Z,46.45,-62.58,4.0,3.5,330,11,16,,,1017.4,,TRUE,TRUE,,,,,,,,,,,,,,,,0.6,,,,,0.02,,,,,,METAR,31.0
CZSM 270100Z AUTO 13004KT 25/03 RMK AO1 SLP101 T02460034 58011,CZSM,2023-05-27T01:00:00Z,60.03,-111.93,24.6,3.4,130,4,,,,1010.1,,TRUE,TRUE,,,,,,,,,,,,,,,,-1.1,,,,,,,,,,,METAR,203.0
CZSJ 270100Z AUTO 24007KT 200V280 9SM CLR 29/10 A2986 RMK SLP114 DENSITY ALT 2900FT,CZSJ,2023-05-27T01:00:00Z,53.07,-93.35,29.0,10.0,240,7,,9.0,29.861221,1011.4,,TRUE,,,,,,,,CLR,,,,,,,,VFR,,,,,,,,,,,,METAR,286.0
CZPC 270100Z AUTO 13006KT 9SM CLR 17/07 A2998 RMK SLP153 DENSITY ALT 5000FT,CZPC,2023-05-27T01:00:00Z,49.52,-114.0,17.0,7.0,130,6,,9.0,29.97933,1015.3,,TRUE,,,,,,,,CLR,,,,,,,,VFR,,,,,,,,,,,,SPECI,1187.0
CZOL 270100Z AUTO 13004KT 22/03 RMK AO1 T02200033,CZOL,2023-05-27T01:00:00Z,53.65,-113.35,22.0,3.3,130,4,,,,,,TRUE,TRUE,,,,,,,,,,,,,,,,,,,,,,,,,,,METAR,645.0
CZMJ 270100Z AUTO 35006KT 17/12 RMK AO1 SLP162 T01670121 58008,CZMJ,2023-05-27T01:00:00Z,50.33,-105.53,16.7,12.1,350,6,,,,1016.2,,TRUE,TRUE,,,,,,,,,,,,,,,,-0.8,,,,,,,,,,,METAR,571.0
CZMD 270100Z AUTO 06005KT 9SM CLR 22/17 A2987 RMK SLP120 DENSITY ALT 2000FT,CZMD,2023-05-27T01:00:00Z,53.43,-91.77,22.0,17.0,60,5,,9.0,29.870079,1012.0,,TRUE,,,,,,,,CLR,,,,,,,,VFR,,,,,,,,,,,,METAR,276.0
CZKD 270100Z AUTO 03003KT 05/05 RMK AO1 1PAST HR 7005 SLP174 P0000 T00530048 50001,CZKD,2023-05-27T01:00:00Z,56.03,-96.52,5.3,4.8,30,3,,,,1017.4,,TRUE,TRUE,,,,,,,,,,,,,,,,0.1,,,,,0.005,,,,,,METAR,190.0
CZHY 270100Z AUTO 19007KT 26/02 RMK AO1 SLP062 T02630018 56018,CZHY,2023-05-27T01:00:00Z,60.83,-115.78,26.3,1.8,190,7,,,,1006.2,,TRUE,TRUE,,,,,,,,,,,,,,,,-1.8,,,,,,,,,,,METAR,159.0
CZFS 270100Z AUTO 13006KT 25/05 RMK AO1 SLP005 T02490052 56020,CZFS,2023-05-27T01:00:00Z,61.77,-121.23,24.9,5.2,130,6,,,,1000.5,,TRUE,TRUE,,,,,,,,,,,,,,,,-2.0,,,,,,,,,,,METAR,174.0
CZEV 270100Z AUTO 12008KT 11/02 RMK AO1 SLP054 T01140021 58023,CZEV,2023-05-27T01:00:00Z,68.32,-133.48,11.4,2.1,120,8,,,,1005.4,,TRUE,TRUE,,,,,,,,,,,,,,,,-2.3,,,,,,,,,,,METAR,92.0
CZEL 270100Z AUTO 05006KT 15/01 RMK AO1 SLP267 T01450005 53002,CZEL,2023-05-27T01:00:00Z,43.65,-80.42,14.5,0.5,50,6,,,,1026.7,,TRUE,TRUE,,,,,,,,,,,,,,,,0.2,,,,,,,,,,,METAR,370.0
CZDB 270100Z AUTO 29005KT 05/04 RMK AO1 SLP191 T00450035 52005,CZDB,2023-05-27T01:00:00Z,45.42,-63.47,4.5,3.5,290,5,,,,1019.1,,TRUE,TRUE,,,,,,,,,,,,,,,,0.5,,,,,,,,,,,METAR,38.0
CZCR 270100Z AUTO 21004KT 11/08 RMK AO1 SLP169 T01090078 56007,CZCR,2023-05-27T01:00:00Z,47.98,-66.33,10.9,7.8,210,4,,,,1016.9,,TRUE,TRUE,,,,,,,,,,,,,,,,-0.7,,,,,,,,,,,METAR,39.0
CZCP 270100Z AUTO 09026KT ////SM ////// M04/M05 A2990,CZCP,2023-05-27T01:00:00Z,70.17,-124.68,-4.0,-5.0,90,26,,,29.899607,,,TRUE,,,,,,,,,,,,,,,,,,,,,,,,,,,,SPECI,23.0
CZBF 270100Z AUTO 00000KT 9SM OVC150 10/09 A3004 RMK SLP178,CZBF,2023-05-27T01:00:00Z,47.62,-65.75,10.0,9.0,0,0,,9.0,30.041338,1017.8,,TRUE,,,,,,,,OVC,15000,,,,,,,VFR,,,,,,,,,,,,METAR,60.0
CYZX 270100Z 25005KT 15SM BKN090 07/06 A3013 RMK AC6 DENSITY ALT -950FT SLP203,CYZX,2023-05-27T01:00:00Z,44.98,-64.92,7.0,6.0,250,5,,15.0,30.129921,1020.3,,,,,,,,,,BKN,9000,,,,,,,VFR,,,,,,,,,,,,METAR,28.0
CYZV 270100Z 08002KT 15SM BKN150 08/04 A3002 RMK AC5 SLP168,CYZV,2023-05-27T01:00:00Z,50.22,-66.27,8.0,4.0,80,2,,15.0,30.02067,1016.8,,,,,,,,,,BKN,15000,,,,,,,VFR,,,,,,,,,,,,METAR,43.0
CYZU 270100Z 13014KT 15SM FEW100 SCT240 22/06 A2986 RMK AC1CI3 SLP120 DENSITY ALT 4100FT,CYZU,2023-05-27T01:00:00Z,54.15,-115.78,22.0,6.0,130,14,,15.0,29.861221,1012.0,,,,,,,,,,FEW,10000,SCT,24000,,,,,VFR,,,,,,,,,,,,SPECI,785.0
CYZT 270100Z 31016G22KT 10SM SCT018 BKN037 BKN045 14/09 A3001 RMK SC3SC3SC1 SLP163,CYZT,2023-05-27T01:00:00Z,50.68,-127.37,14.0,9.0,310,16,22,10.0,30.008858,1016.3,,,,,,,,,,SCT,1800,BKN,3700,BKN,4500,,,VFR,,,,,,,,,,,,SPECI,13.0
CYZS 270100Z 25006KT 15SM OVC018 M04/M08 A3013 RMK SC8 SLP213,CYZS,2023-05-27T01:00:00Z,64.2,-83.35,-4.0,-8.0,250,6,,15.0,30.129921,1021.3,,,,,,,,,,OVC,1800,,,,,,,MVFR,,,,,,,,,,,,SPECI,60.0
CYZR 270100Z AUTO 03004KT 9SM CLR 11/04 A3033 RMK SLP276,CYZR,2023-05-27T01:00:00Z,43.0,-82.3,11.0,4.0,30,4,,9.0,30.33071,1027.6,,TRUE,,,,,,,,CLR,,,,,,,,VFR,,,,,,,,,,,,SPECI,181.0
CYZP 270100Z AUTO 02007KT 9SM BKN047 12/06 A3011 RMK SLP197,CYZP,2023-05-27T01:00:00Z,53.25,-131.82,12.0,6.0,20,7,,9.0,30.109253,1019.7,,TRUE,,,,,,,,BKN,4700,,,,,,,VFR,,,,,,,,,,,,SPECI,7.0
CYZH 270100Z AUTO 13012KT 9SM CLR 23/05 A2984 RMK SLP113 DENSITY ALT 3500FT,CYZH,2023-05-27T01:00:00Z,55.28,-114.77,23.0,5.0,130,12,,9.0,29.840551,1011.3,,TRUE,,,,,,,,CLR,,,,,,,,VFR,,,,,,,,,,,,SPECI,583.0
CYZF 270100Z 15009KT 15SM SCT160 SCT240 20/06 A2975 RMK AC3CI1 SLP084 DENSITY ALT 1600FT,CYZF,2023-05-27T01:00:00Z,62.47,-114.45,20.0,6.0,150,9,,15.0,29.749016,1008.4,,,,,,,,,,SCT,16000,SCT,24000,,,,,VFR,,,,,,,,,,,,METAR,202.0
CYZE 270100Z AUTO 21007KT 9SM CLR 11/01 A3030 RMK SLP265,CYZE,2023-05-27T01:00:00Z,45.88,-82.57,11.0,1.0,210,7,,9.0,30.301182,1026.5,,TRUE,,,,,,,,CLR,,,,,,,,VFR,,,,,,,,,,,,SPECI,189.0
CYYZ 270100Z 18004KT 15SM FEW250 17/M00 A3029 RMK CI1 CI TR SLP262,CYYZ,2023-05-27T01:00:00Z,43.67,-79.62,17.0,0.0,180,4,,15.0,30.28937,1026.2,,,,,,,,,,FEW,25000,,,,,,,VFR,,,,,,,,,,,,METAR,171.0
CYYY 270100Z 25007KT 15SM BKN180 15/05 A3005 RMK AC5 SLP179,CYYY,2023-05-27T01:00:00Z,48.6,-68.22,15.0,5.0,250,7,,15.0,30.050198,1017.9,,,,,,,,,,BKN,18000,,,,,,,VFR,,,,,,,,,,,,SPECI,43.0
CYYW 270100Z AUTO 14007KT 9SM CLR 24/07 A3008 RMK SLP178 DENSITY ALT 2200FT,CYYW,2023-05-27T01:00:00Z,50.3,-88.9,24.0,7.0,140,7,,9.0,30.079725,1017.8,,TRUE,,,,,,,,CLR,,,,,,,,VFR,,,,,,,,,,,,METAR,320.0
CYYU 270100Z 23006KT 12SM FEW260 24/08 A3011 RMK CI1 CI TR HZ SLP201 DENSITY ALT 1800FT,CYYU,2023-05-27T01:00:00Z,49.42,-82.47,24.0,8.0,230,6,,12.0,30.109253,1020.1,,,,,,,,,,FEW,26000,,,,,,,VFR,,,,,,,,,,,,SPECI,228.0
CYYT 270100Z 26012KT 1/2SM R16/6000FT/N -DZ FG VV002 07/07 A2981 RMK FG8 SLP100,CYYT,2023-05-27T01:00:00Z,47.62,-52.73,7.0,7.0,260,12,,0.5,29.811024,1010.0,,,,,,,,,-DZ FG,OVX,0,,,,,,,LIFR,,,,,,,,,,,200,METAR,128.0
CYYR 270100Z 15005KT 15SM SCT050 SCT140 BKN190 BKN230 09/03 A3000 RMK SC3AC1AC1CI1 DENSITY ALT -522FT SLP160,CYYR,2023-05-27T01:00:00Z,53.32,-60.42,9.0,3.0,150,5,,15.0,30.0,1016.0,,,,,,,,,,SCT,5000,SCT,14000,BKN,19000,BKN,23000,VFR,,,,,,,,,,,,METAR,42.0
CYYQ 270100Z 14009KT 15SM BKN140 BKN250 03/M00 A3006 RMK AC7CI1 CI TR SLP182,CYYQ,2023-05-27T01:00:00Z,58.75,-94.07,3.0,0.0,140,9,,15.0,30.059055,1018.2,,,,,,,,,,BKN,14000,BKN,25000,,,,,VFR,,,,,,,,,,,,METAR,20.0
CYYN 270100Z AUTO 09008KT 9SM CLR 18/10 A2996 RMK SLP151 DENSITY ALT 3700FT,CYYN,2023-05-27T01:00:00Z,50.28,-107.68,18.0,10.0,90,8,,9.0,29.958662,1015.1,,TRUE,,,,,,,,CLR,,,,,,,,VFR,,,,,,,,,,,,SPECI,814.0
CYYL 270100Z AUTO 12004KT 090V170 9SM OVC100 14/08 A2997 RMK SLP163,CYYL,2023-05-27T01:00:00Z,56.87,-101.07,14.0,8.0,120,4,,9.0,29.970472,1016.3,,TRUE,,,,,,,,OVC,10000,,,,,,,VFR,,,,,,,,,,,,SPECI,351.0
CYYJ 270100Z 08004KT 30SM FEW035TCU FEW050 FEW080 23/12 A2982 RMK TCU1SC1AC1 TCU TR SC TR AC TR SLP101 DENSITY ALT 1100FT,CYYJ,2023-05-27T01:00:00Z,48.63,-123.42,23.0,12.0,80,4,,30.0,29.819881,1010.1,,,,,,,,,,FEW,3500,FEW,5000,FEW,8000,,,VFR,,,,,,,,,,,,METAR,16.0
CYYH 270100Z 33008KT 15SM SKC M08/M11 A2998 RMK SLP159,CYYH,2023-05-27T01:00:00Z,69.53,-93.57,-8.0,-11.0,330,8,,15.0,29.97933,1015.9,,,,,,,,,,SKC,,,,,,,,VFR,,,,,,,,,,,,SPECI,19.0
CYYG 270100Z 31008KT 5SM -RA BR OVC008 04/04 A3005 RMK ST8 SLP180,CYYG,2023-05-27T01:00:00Z,46.28,-63.12,4.0,4.0,310,8,,5.0,30.050198,1018.0,,,,,,,,,-RA BR,OVC,800,,,,,,,IFR,,,,,,,,,,,,SPECI,48.0
CYYF 270100Z 34005KT 15SM FEW080TCU FEW140 SCT230 26/10 A2980 RMK TCU1AC1CI1 SLP090 DENSITY ALT 2800FT,CYYF,2023-05-27T01:00:00Z,49.47,-119.6,26.0,10.0,340,5,,15.0,29.799213,1009.0,,,,,,,,,,FEW,8000,FEW,14000,SCT,23000,,,VFR,,,,,,,,,,,,SPECI,342.0
CYYE 270100Z 25005KT 30SM BKN130 BKN180 27/06 A2956 RMK AC6AC1 VIRGA S-W SLP014 DENSITY ALT 3400FT,CYYE,2023-05-27T01:00:00Z,58.83,-122.58,27.0,6.0,250,5,,30.0,29.56004,1001.4,,,,,,,,,,BKN,13000,BKN,18000,,,,,VFR,,,,,,,,,,,,SPECI,379.0
CYYD 270100Z 01005KT 330V040 25SM BKN080 21/04 A2987 RMK CU5 SLP119 DENSITY ALT 2900FT,CYYD,2023-05-27T01:00:00Z,54.82,-127.18,21.0,4.0,10,5,,25.0,29.870079,1011.9,,,,,,,,,,BKN,8000,,,,,,,VFR,,,,,,,,,,,,SPECI,527.0
CYYC 270100Z 10010KT 12SM BKN075 BKN250 20/03 A2994 RMK HZ2AC5CI1 CI TR SLP148 DENSITY ALT 5000FT,CYYC,2023-05-27T01:00:00Z,51.12,-114.02,20.0,3.0,100,10,,12.0,29.940945,1014.8,,,,,,,,,,BKN,7500,BKN,25000,,,,,VFR,,,,,,,,,,,,METAR,1085.0
CYYB 270100Z 26007KT 30SM FEW260 17/02 A3025 RMK CI1 SLP250,CYYB,2023-05-27T01:00:00Z,46.35,-79.42,17.0,2.0,260,7,,30.0,30.250984,1025.0,,,,,,,,,,FEW,26000,,,,,,,VFR,,,,,,,,,,,,SPECI,360.0
CYXY 270100Z 18020G25KT 40SM SCT070 BKN200 10/M07 A2973 RMK CU4CI3 SLP091 DENSITY ALT 2600FT,CYXY,2023-05-27T01:00:00Z,60.72,-135.07,10.0,-7.0,180,20,25,40.0,29.731298,1009.1,,,,,,,,,,SCT,7000,BKN,20000,,,,,VFR,,,,,,,,,,,,METAR,677.0
CYXX 270100Z 20007KT 30SM FEW080CB FEW150 27/10 A2982 RMK CB1AC1 CB TR DIST NE-SE SLP100 DENSITY ALT 1700FT,CYXX,2023-05-27T01:00:00Z,49.03,-122.38,27.0,10.0,200,7,,30.0,29.819881,1010.0,,,,,,,,,,FEW,8000,FEW,15000,,,,,VFR,,,,,,,,,,,,METAR,54.0
CYXU 270100Z 23006KT 15SM FEW270 15/02 A3031 RMK CI1 SLP270,CYXU,2023-05-27T01:00:00Z,43.03,-81.15,15.0,2.0,230,6,,15.0,30.31004,1027.0,,,,,,,,,,FEW,27000,,,,,,,VFR,,,,,,,,,,,,METAR,278.0
CYXT 270100Z 25010G19KT 210V270 20SM SCT062 SCT240 19/05 A2994 RMK CU3CI1 SLP143 DENSITY ALT 1400FT,CYXT,2023-05-27T01:00:00Z,54.47,-128.57,19.0,5.0,250,10,19,20.0,29.940945,1014.3,,,,,,,,,,SCT,6200,SCT,24000,,,,,VFR,,,,,,,,,,,,SPECI,213.0
CYXS 270100Z AUTO 30016G23KT 9SM BKN130 22/07 A2982 RMK SLP108 DENSITY ALT 3700FT,CYXS,2023-05-27T01:00:00Z,53.88,-122.68,22.0,7.0,300,16,23,9.0,29.819881,1010.8,,TRUE,,,,,,,,BKN,13000,,,,,,,VFR,,,,,,,,,,,,SPECI,685.0
CYXR 270100Z AUTO 26004KT 9SM CLR 22/M02 A3018 RMK SLP225 DENSITY ALT 1500FT,CYXR,2023-05-27T01:00:00Z,47.7,-79.85,22.0,-2.0,260,4,,9.0,30.180119,1022.5,,TRUE,,,,,,,,CLR,,,,,,,,VFR,,,,,,,,,,,,SPECI,244.0
CYXL 270100Z 21006KT 15SM FEW070 SCT240 25/12 A3008 RMK AC1CI3 SLP192 DENSITY ALT 2500FT,CYXL,2023-05-27T01:00:00Z,50.12,-91.9,25.0,12.0,210,6,,15.0,30.079725,1019.2,,,,,,,,,,FEW,7000,SCT,24000,,,,,VFR,,,,,,,,,,,,SPECI,381.0
CYXJ 270100Z 15010G15KT 15SM SCT060 25/08 A2975 RMK CU3 SLP078 DENSITY ALT 4200FT,CYXJ,2023-05-27T01:00:00Z,56.25,-120.73,25.0,8.0,150,10,15,15.0,29.749016,1007.8,,,,,,,,,,SCT,6000,,,,,,,VFR,,,,,,,,,,,,SPECI,700.0
CYXH 270100Z 11003KT 080V150 15SM BKN065TCU OVC270 23/08 A2992 RMK TCU7CI1 SLP131 DENSITY ALT 3800FT,CYXH,2023-05-27T01:00:00Z,50.02,-110.72,23.0,8.0,110,3,,15.0,29.920275,1013.1,,,,,,,,,,BKN,6500,OVC,27000,,,,,VFR,,,,,,,,,,,,SPECI,717.0
CYXE 270100Z 00000KT 15SM SCT050 BKN088 19/10 A2996 RMK CU4AC3 SLP154 DENSITY ALT 2500FT,CYXE,2023-05-27T01:00:00Z,52.17,-106.7,19.0,10.0,0,0,,15.0,29.958662,1015.4,,,,,,,,,,SCT,5000,BKN,8800,,,,,VFR,,,,,,,,,,,,SPECI,504.0
CYXC 270100Z 10004KT 25SM FEW070TCU SCT110 SCT240 22/07 A2991 RMK TCU1AC2CI1 SLP123 DENSITY ALT 4600FT,CYXC,2023-05-27T01:00:00Z,49.6,-115.78,22.0,7.0,100,4,,25.0,29.911417,1012.3,,,,,,,,,,FEW,7000,SCT,11000,SCT,24000,,,VFR,,,,,,,,,,,,SPECI,928.0
CYWL 270100Z 10008KT 060V130 15SM SCT070 24/04 A2984 RMK CU3 SLP105 DENSITY ALT 4900FT,CYWL,2023-05-27T01:00:00Z,52.18,-122.07,24.0,4.0,100,8,,15.0,29.840551,1010.5,,,,,,,,,,SCT,7000,,,,,,,VFR,,,,,,,,,,,,SPECI,942.0
CYWK 270100Z 34004KT 15SM OVC060 11/M00 A3004 RMK SC8 SLP188,CYWK,2023-05-27T01:00:00Z,52.92,-66.87,11.0,0.0,340,4,,15.0,30.041338,1018.8,,,,,,,,,,OVC,6000,,,,,,,VFR,,,,,,,,,,,,METAR,547.0
CYWH 270100Z 21012KT 15SM FEW050 FEW070 SCT220 14/10 A2985 RMK CU1AC1CI3 CU TR AC TR SLP109,CYWH,2023-05-27T01:00:00Z,48.42,-123.38,14.0,10.0,210,12,,15.0,29.84941,1010.9,,,,,,,,,,FEW,5000,FEW,7000,SCT,22000,,,VFR,,,,,,,,,,,,SPECI,4.0
CYWG 270100Z 20020G26KT 15SM FEW100 30/11 A2992 RMK AC1 AC TR SLP134 DENSITY ALT 2700FT,CYWG,2023-05-27T01:00:00Z,49.9,-97.23,30.0,11.0,200,20,26,15.0,29.920275,1013.4,,,,,,,,,,FEW,10000,,,,,,,VFR,,,,,,,,,,,,METAR,238.0
CYWE 270100Z AUTO 05008KT 9SM BKN110 OVC130 12/06 A2981 RMK ICE MISG SLP111,CYWE,2023-05-27T01:00:00Z,64.18,-114.08,12.0,6.0,50,8,,9.0,29.811024,1011.1,,TRUE,,,,,,,,BKN,11000,OVC,13000,,,,,VFR,,,,,,,,,,,,METAR,374.0
CYVV 270100Z 25003KT 15SM FEW250 13/M02 A3031 RMK CI1 SLP270,CYVV,2023-05-27T01:00:00Z,44.75,-81.1,13.0,-2.0,250,3,,15.0,30.31004,1027.0,,,,,,,,,,FEW,25000,,,,,,,VFR,,,,,,,,,,,,SPECI,221.0
CYVT 270100Z AUTO 08003KT 7SM BKN100 21/05 A2992 RMK SLP143 DENSITY ALT 2400FT,CYVT,2023-05-27T01:00:00Z,55.83,-108.42,21.0,5.0,80,3,,7.0,29.920275,1014.3,,TRUE,,,,,,,,BKN,10000,,,,,,,VFR,,,,,,,,,,,,SPECI,438.0
CYVR 270100Z 28007KT 20SM FEW050 FEW090 FEW220 21/15 A2983 RMK CU1AC1CI1 CU TR AC TR CI TR SLP104 DENSITY ALT 900FT,CYVR,2023-05-27T01:00:00Z,49.17,-123.17,21.0,15.0,280,7,,20.0,29.828741,1010.4,,,,,,,,,,FEW,5000,FEW,9000,FEW,22000,,,VFR,,,,,,,,,,,,METAR,2.0
CYVQ 270100Z 11009KT 30SM -RA SCT062 OVC088 11/05 A2960 RMK SC3AC5 SLP028,CYVQ,2023-05-27T01:00:00Z,65.27,-126.78,11.0,5.0,110,9,,30.0,29.601377,1002.8,,,,,,,,,-RA,SCT,6200,OVC,8800,,,,,VFR,,,,,,,,,,,,SPECI,63.0
CYVP 270100Z 35006KT 15SM FEW016 BKN026 01/M02 A3017 RMK SF1SC7 SF TR SLP221,CYVP,2023-05-27T01:00:00Z,58.12,-68.42,1.0,-2.0,350,6,,15.0,30.171259,1022.1,,,,,,,,,,FEW,1600,BKN,2600,,,,,MVFR,,,,,,,,,,,,METAR,28.0
CYVO 270100Z 20004KT 15SM FEW120 FEW240 17/05 A3017 RMK AC1CI1 SLP225,CYVO,2023-05-27T01:00:00Z,48.07,-77.77,17.0,5.0,200,4,,15.0,30.171259,1022.5,,,,,,,,,,FEW,12000,FEW,24000,,,,,VFR,,,,,,,,,,,,SPECI,329.0
CYVL 270100Z AUTO 10010G16KT 070V130 9SM OVC055 07/M02 A2971 RMK SLP080,CYVL,2023-05-27T01:00:00Z,67.02,-126.13,7.0,-2.0,100,10,16,9.0,29.71063,1008.0,,TRUE,,,,,,,,OVC,5500,,,,,,,VFR,,,,,,,,,,,,METAR,261.0
CYVC 270100Z 14004KT 10SM BKN087 16/11 A2997 RMK AC7 FU SLP160 DENSITY ALT 1700FT,CYVC,2023-05-27T01:00:00Z,55.15,-105.27,16.0,11.0,140,4,,10.0,29.970472,1016.0,,,,,,,,,,BKN,8700,,,,,,,VFR,,,,,,,,,,,,SPECI,378.0
CYUY 270100Z 22003KT 15SM BKN180 18/01 A3018 RMK AS5 SLP226 DENSITY ALT 1400FT,CYUY,2023-05-27T01:00:00Z,48.2,-78.82,18.0,1.0,220,3,,15.0,30.180119,1022.6,,,,,,,,,,BKN,18000,,,,,,,VFR,,,,,,,,,,,,METAR,304.0
CYUL 270100Z 25005KT 15SM FEW160 FEW250 17/03 A3021 RMK AC1CI1 AC TR SLP233,CYUL,2023-05-27T01:00:00Z,45.47,-73.73,17.0,3.0,250,5,,15.0,30.209646,1023.3,,,,,,,,,,FEW,16000,FEW,25000,,,,,VFR,,,,,,,,,,,,METAR,31.0
CYUB 270100Z 10017KT 15SM FEW015 FEW220 08/M01 A2972 RMK SC1CI1 SC TR SLP066,CYUB,2023-05-27T01:00:00Z,69.43,-133.02,8.0,-1.0,100,17,,15.0,29.719488,1006.6,,,,,,,,,,FEW,1500,FEW,22000,,,,,VFR,,,,,,,,,,,,SPECI,5.0
CYUA 270100Z AUTO 09014G22KT ////SM BKN048 ///// A////,CYUA,2023-05-27T01:00:00Z,68.92,-137.23,,,90,14,22,,,,,TRUE,,,,,,,,BKN,4800,,,,,,,,,,,,,,,,,,,SPECI,25.0
CYTZ 270100Z AUTO 27003KT 9SM CLR 15/02 A3029 RMK SLP261,CYTZ,2023-05-27T01:00:00Z,43.63,-79.4,15.0,2.0,270,3,,9.0,30.28937,1026.1,,TRUE,,,,,,,,CLR,,,,,,,,VFR,,,,,,,,,,,,METAR,76.0
CYTS 270100Z 22004KT 15SM FEW210 22/M01 A3017 RMK CI2 SLP221 DENSITY ALT 1800FT,CYTS,2023-05-27T01:00:00Z,48.57,-81.37,22.0,-1.0,220,4,,15.0,30.171259,1022.1,,,,,,,,,,FEW,21000,,,,,,,VFR,,,,,,,,,,,,SPECI,290.0
CYTR 270100Z 21008KT 15SM FEW160 FEW250 13/04 A3027 RMK AC1CI1 DENSITY ALT -133FT SLP252,CYTR,2023-05-27T01:00:00Z,44.12,-77.52,13.0,4.0,210,8,,15.0,30.268702,1025.2,,,,,,,,,,FEW,16000,FEW,25000,,,,,VFR,,,,,,,,,,,,METAR,80.0
CYTH 270100Z 01005KT 5SM -RA BR OVC005 06/06 A2998 RMK SC8 SLP167,CYTH,2023-05-27T01:00:00Z,55.8,-97.83,6.0,6.0,10,5,,5.0,29.97933,1016.7,,,,,,,,,-RA BR,OVC,500,,,,,,,IFR,,,,,,,,,,,,SPECI,212.0
CYSN 270100Z 17003KT 15SM FEW250 16/04 A3029 RMK CI1 LAST STFD OBS/NEXT 271100Z SLP258,CYSN,2023-05-27T01:00:00Z,43.2,-79.17,16.0,4.0,170,3,,15.0,30.28937,1025.8,,,,,,,,,,FEW,25000,,,,,,,VFR,,,,,,,,,,,,SPECI,96.0
CYSM 270100Z 15004KT 110V170 10SM FEW090 25/04 A2980 RMK CU2 FU SLP097 DENSITY ALT 2100FT,CYSM,2023-05-27T01:00:00Z,60.03,-111.92,25.0,4.0,150,4,,10.0,29.799213,1009.7,,,,,,,,,,FEW,9000,,,,,,,VFR,,,,,,,,,,,,SPECI,203.0
CYSJ 270100Z 20003KT 190V250 15SM FEW100 SCT140 07/06 A3013 RMK AC2AC2 SLP208,CYSJ,2023-05-27T01:00:00Z,45.32,-65.88,7.0,6.0,200,3,,15.0,30.129921,1020.8,,,,,,,,,,FEW,10000,SCT,14000,,,,,VFR,,,,,,,,,,,,METAR,89.0
CYSF 270100Z AUTO 16008KT 6SM HZ CLR 19/07 A2990 RMK SLP135 DENSITY ALT 1500FT,CYSF,2023-05-27T01:00:00Z,59.25,-105.83,19.0,7.0,160,8,,6.0,29.899607,1013.5,,TRUE,,,,,,,HZ,CLR,,,,,,,,VFR,,,,,,,,,,,,SPECI,238.0
CYSC 270100Z AUTO 00000KT 9SM CLR 12/05 A3021 RMK SLP236,CYSC,2023-05-27T01:00:00Z,45.43,-71.68,12.0,5.0,0,0,,9.0,30.209646,1023.6,,TRUE,,,,,,,,CLR,,,,,,,,VFR,,,,,,,,,,,,SPECI,236.0
CYSB 270100Z 23006KT 20SM SCT250 17/01 A3025 RMK CI4 SLP248,CYSB,2023-05-27T01:00:00Z,46.63,-80.8,17.0,1.0,230,6,,20.0,30.250984,1024.8,,,,,,,,,,SCT,25000,,,,,,,VFR,,,,,,,,,,,,SPECI,349.0
CYRV 270100Z AUTO 17006KT 9SM CLR 24/14 A2979 RMK LTNG DIST W SLP090 DENSITY ALT 3000FT,CYRV,2023-05-27T01:00:00Z,50.97,-118.17,24.0,14.0,170,6,,9.0,29.790354,1009.0,,TRUE,,,,,,,,CLR,,,,,,,,VFR,,,,,,,,,,,,SPECI,456.0
CYRT 270100Z 19021KT 15SM FEW020 SCT170 BKN260 M01/M04 A2999 RMK SC1AC3CI4 SC TR SLP160,CYRT,2023-05-27T01:00:00Z,62.82,-92.12,-1.0,-4.0,190,21,,15.0,29.991142,1016.0,,,,,,,,,,FEW,2000,SCT,17000,BKN,26000,,,VFR,,,,,,,,,,,,SPECI,29.0
CYRQ 270100Z AUTO 33003KT 9SM BKN150 17/02 A3018 RMK SLP223,CYRQ,2023-05-27T01:00:00Z,46.35,-72.68,17.0,2.0,330,3,,9.0,30.180119,1022.3,,TRUE,,,,,,,,BKN,15000,,,,,,,VFR,,,,,,,,,,,,METAR,58.0
CYRL 270100Z 20007G16KT 15SM FEW056 26/12 A3000 RMK CF1 CF TR SLP160 DENSITY ALT 2800FT,CYRL,2023-05-27T01:00:00Z,51.07,-93.78,26.0,12.0,200,7,16,15.0,30.0,1016.0,,,,,,,,,,FEW,5600,,,,,,,VFR,,,,,,,,,,,,SPECI,370.0
CYRJ 270100Z 28007KT 25SM FEW140 SCT230 13/01 A3018 RMK AC2CI1 SLP225,CYRJ,2023-05-27T01:00:00Z,48.52,-72.27,13.0,1.0,280,7,,25.0,30.180119,1022.5,,,,,,,,,,FEW,14000,SCT,23000,,,,,VFR,,,,,,,,,,,,SPECI,173.0
CYRB 270100Z 29017KT 3SM -SN BR OVC009 M05/M06 A2974 RMK ST8 SLP082,CYRB,2023-05-27T01:00:00Z,74.72,-94.97,-5.0,-6.0,290,17,,3.0,29.740158,1008.2,,,,,,,,,-SN BR,OVC,900,,,,,,,IFR,,,,,,,,,,,,METAR,59.0
CYQZ 270100Z AUTO 20007KT 9SM FEW130 27/05 A2976 RMK SLP085 DENSITY ALT 3800FT,CYQZ,2023-05-27T01:00:00Z,53.02,-122.52,27.0,5.0,200,7,,9.0,29.760826,1008.5,,TRUE,,,,,,,,FEW,13000,,,,,,,VFR,,,,,,,,,,,,SPECI,548.0
CYQY 270100Z 27011G16KT 15SM SCT016 BKN038 BKN070 06/03 A2993 RMK SC3SC3AC1 SLP138,CYQY,2023-05-27T01:00:00Z,46.17,-60.03,6.0,3.0,270,11,16,15.0,29.929134,1013.8,,,,,,,,,,SCT,1600,BKN,3800,BKN,7000,,,VFR,,,,,,,,,,,,METAR,58.0
CYQW 270100Z AUTO 07003KT 020V100 6SM HZ FEW055 SCT069 19/11 A2997 RMK SLP156 DENSITY ALT 2700FT,CYQW,2023-05-27T01:00:00Z,52.77,-108.25,19.0,11.0,70,3,,6.0,29.970472,1015.6,,TRUE,,,,,,,HZ,FEW,5500,SCT,6900,,,,,VFR,,,,,,,,,,,,SPECI,545.0
CYQV 270100Z AUTO 35007KT 9SM OVC013 17/15 A2993 RMK SLP145 DENSITY ALT 2300FT,CYQV,2023-05-27T01:00:00Z,51.27,-102.47,17.0,15.0,350,7,,9.0,29.929134,1014.5,,TRUE,,,,,,,,OVC,1300,,,,,,,MVFR,,,,,,,,,,,,SPECI,493.0
CYQU 270100Z 13006KT 060V150 25SM FEW080 25/04 A2979 RMK AC1 SLP098 DENSITY ALT 4000FT,CYQU,2023-05-27T01:00:00Z,55.18,-118.88,25.0,4.0,130,6,,25.0,29.790354,1009.8,,,,,,,,,,FEW,8000,,,,,,,VFR,,,,,,,,,,,,SPECI,668.0
CYQT 270100Z 06007KT 20SM SCT300 17/05 A3017 RMK CI4 SLP224,CYQT,2023-05-27T01:00:00Z,48.37,-89.32,17.0,5.0,60,7,,20.0,30.171259,1022.4,,,,,,,,,,SCT,30000,,,,,,,VFR,,,,,,,,,,,,SPECI,197.0
CYQR 270100Z 35009KT 15SM FEW015 BKN020 15/13 A2997 RMK CU2SC5 SLP160 DENSITY ALT 2300FT,CYQR,2023-05-27T01:00:00Z,50.43,-104.67,15.0,13.0,350,9,,15.0,29.970472,1016.0,,,,,,,,,,FEW,1500,BKN,2000,,,,,MVFR,,,,,,,,,,,,SPECI,576.0
CYQQ 270100Z 33010KT 20SM FEW050 SCT120 BKN250 23/12 A2984 RMK CU1AC4CI3 DENSITY ALT 1258FT SLP107,CYQQ,2023-05-27T01:00:00Z,49.72,-124.9,23.0,12.0,330,10,,20.0,29.840551,1010.7,,,,,,,,,,FEW,5000,SCT,12000,BKN,25000,,,VFR,,,,,,,,,,,,METAR,24.0
CYQM 270100Z 17002KT 12SM -RA FEW066 BKN082 06/06 A3008 RMK AC1AC7 AC TR SLP190,CYQM,2023-05-27T01:00:00Z,46.12,-64.67,6.0,6.0,170,2,,12.0,30.079725,1019.0,,,,,,,,,-RA,FEW,6600,BKN,8200,,,,,VFR,,,,,,,,,,,,METAR,67.0
CYQL 270100Z VRB02KT 15SM SCT065 BKN280 20/07 A2995 RMK CU3CI3 SLP143 DENSITY ALT 4300FT,CYQL,2023-05-27T01:00:00Z,49.63,-112.8,20.0,7.0,0,2,,15.0,29.949802,1014.3,,,,,,,,,,SCT,6500,BKN,28000,,,,,VFR,,,,,,,,,,,,SPECI,923.0
CYQK 270100Z 19010KT 20SM SKC 25/12 A3006 RMK FU ALOFT SLP181 DENSITY ALT 2700FT,CYQK,2023-05-27T01:00:00Z,49.78,-94.37,25.0,12.0,190,10,,20.0,30.059055,1018.1,,,,,,,,,,SKC,,,,,,,,VFR,,,,,,,,,,,,SPECI,413.0
CYQI 270100Z 30007KT 15SM FEW034 FEW250 07/07 A3019 RMK SC1CI1 SLP225,CYQI,2023-05-27T01:00:00Z,43.83,-66.08,7.0,7.0,300,7,,15.0,30.188976,1022.5,,,,,,,,,,FEW,3400,FEW,25000,,,,,VFR,,,,,,,,,,,,SPECI,37.0
CYQH 270100Z 26014G22KT 30SM SCT060 OVC090 15/M00 A2974 RMK CU3AC5 SLP083 DENSITY ALT 3000FT,CYQH,2023-05-27T01:00:00Z,60.12,-128.82,15.0,0.0,260,14,22,30.0,29.740158,1008.3,,,,,,,,,,SCT,6000,OVC,9000,,,,,VFR,,,,,,,,,,,,SPECI,692.0
CYQG 270100Z AUTO 05007KT 9SM CLR 15/04 A3031 RMK SLP268,CYQG,2023-05-27T01:00:00Z,42.27,-82.97,15.0,4.0,50,7,,9.0,30.31004,1026.8,,TRUE,,,,,,,,CLR,,,,,,,,VFR,,,,,,,,,,,,METAR,189.0
CYQF 270100Z AUTO 12005KT 9SM CLR 20/02 A2994 RMK SLP152 DENSITY ALT 4300FT,CYQF,2023-05-27T01:00:00Z,52.17,-113.9,20.0,2.0,120,5,,9.0,29.940945,1015.2,,TRUE,,,,,,,,CLR,,,,,,,,VFR,,,,,,,,,,,,SPECI,912.0
CYQB 270100Z 26005KT 30SM FEW170 FEW210 14/05 A3015 RMK AC1CI1 CI TR SLP213,CYQB,2023-05-27T01:00:00Z,46.78,-71.38,14.0,5.0,260,5,,30.0,30.15059,1021.3,,,,,,,,,,FEW,17000,FEW,21000,,,,,VFR,,,,,,,,,,,,METAR,73.0
CYQA 270100Z AUTO 26003KT 230V310 9SM CLR 15/01 A3029 RMK SLP262,CYQA,2023-05-27T01:00:00Z,44.97,-79.3,15.0,1.0,260,3,,9.0,30.28937,1026.2,,TRUE,,,,,,,,CLR,,,,,,,,VFR,,,,,,,,,,,,SPECI,277.0
CYPY 270100Z AUTO 11007KT 9SM CLR 22/06 A2984 RMK SLP113 DENSITY ALT 1900FT,CYPY,2023-05-27T01:00:00Z,58.77,-111.12,22.0,6.0,110,7,,9.0,29.840551,1011.3,,TRUE,,,,,,,,CLR,,,,,,,,VFR,,,,,,,,,,,,SPECI,225.0
CYPX 270100Z AUTO 06007KT 9SM CLR 01/M05 A3021 RMK SLP234,CYPX,2023-05-27T01:00:00Z,60.03,-77.27,1.0,-5.0,60,7,,9.0,30.209646,1023.4,,TRUE,,,,,,,,CLR,,,,,,,,VFR,,,,,,,,,,,,SPECI,10.0
CYPW 270100Z 26006KT 30SM FEW038 FEW120 BKN250 23/13 A2985 RMK CU1AC2CI3 CU TR SLP109 DENSITY ALT 1500FT,CYPW,2023-05-27T01:00:00Z,49.83,-124.5,23.0,13.0,260,6,,30.0,29.84941,1010.9,,,,,,,,,,FEW,3800,FEW,12000,BKN,25000,,,VFR,,,,,,,,,,,,SPECI,122.0
CYPR 270100Z AUTO 29011KT 9SM CLR 12/06 A3009 RMK SLP194,CYPR,2023-05-27T01:00:00Z,54.28,-130.45,12.0,6.0,290,11,,9.0,30.088583,1019.4,,TRUE,,,,,,,,CLR,,,,,,,,VFR,,,,,,,,,,,,SPECI,30.0
CYPO 270100Z AUTO 08005KT 9SM -RA OVC005 03/03 A3005 RMK SLP180,CYPO,2023-05-27T01:00:00Z,54.98,-85.43,3.0,3.0,80,5,,9.0,30.050198,1018.0,,TRUE,,,,,,,-RA,OVC,500,,,,,,,IFR,,,,,,,,,,,,METAR,49.0
CYPL 270100Z AUTO 23013G22KT 9SM CLR 27/10 A3001 RMK SLP165 DENSITY ALT 2900FT,CYPL,2023-05-27T01:00:00Z,51.43,-90.22,27.0,10.0,230,13,22,9.0,30.008858,1016.5,,TRUE,,,,,,,,CLR,,,,,,,,VFR,,,,,,,,,,,,METAR,390.0
CYPH 270100Z AUTO 02007KT 9SM CLR 00/M03 A3020 RMK SLP229,CYPH,2023-05-27T01:00:00Z,58.47,-78.08,0.0,-3.0,20,7,,9.0,30.200787,1022.9,,TRUE,,,,,,,,CLR,,,,,,,,VFR,,,,,,,,,,,,SPECI,24.0
CYPE 270100Z 21004KT 140V220 15SM FEW070 FEW250 23/07 A2982 RMK CU1CI1 CU TR CI TR SLP108 DENSITY ALT 3400FT,CYPE,2023-05-27T01:00:00Z,56.22,-117.45,23.0,7.0,210,4,,15.0,29.819881,1010.8,,,,,,,,,,FEW,7000,FEW,25000,,,,,VFR,,,,,,,,,,,,SPECI,572.0
CYPA 270100Z VRB05KT 15SM FEW025 SCT080 18/11 A2997 RMK CU1AC3 CU TR SLP158 DENSITY ALT 2100FT,CYPA,2023-05-27T01:00:00Z,53.22,-105.67,18.0,11.0,0,5,,15.0,29.970472,1015.8,,,,,,,,,,FEW,2500,SCT,8000,,,,,VFR,,,,,,,,,,,,SPECI,428.0
CYOW 270100Z 21003KT 15SM SCT130 BKN160 18/02 A3024 RMK AC4AC1 SLP245,CYOW,2023-05-27T01:00:00Z,45.32,-75.67,18.0,2.0,210,3,,15.0,30.239174,1024.5,,,,,,,,,,SCT,13000,BKN,16000,,,,,VFR,,,,,,,,,,,,METAR,111.0
CYOO 270100Z AUTO 26002KT 9SM CLR 15/02 A3028 RMK SLP258,CYOO,2023-05-27T01:00:00Z,43.92,-78.9,15.0,2.0,260,2,,9.0,30.280512,1025.8,,TRUE,,,,,,,,CLR,,,,,,,,VFR,,,,,,,,,,,,METAR,136.0
CYOJ 270100Z 15012KT 15SM FEW250 25/05 A2973 RMK CI1 SLP077 DENSITY ALT 2800FT,CYOJ,2023-05-27T01:00:00Z,58.62,-117.17,25.0,5.0,150,12,,15.0,29.731298,1007.7,,,,,,,,,,FEW,25000,,,,,,,VFR,,,,,,,,,,,,SPECI,339.0
CYOD 270100Z 00000KT 12SM FEW065 21/05 A2995 RMK CU2 DENSITY ALT 2995FT SLP152,CYOD,2023-05-27T01:00:00Z,54.4,-110.28,21.0,5.0,0,0,,12.0,29.949802,1015.2,,,,,,,,,,FEW,6500,,,,,,,VFR,,,,,,,,,,,,SPECI,540.0
CYNM 270100Z AUTO 20004KT 9SM BKN160 20/01 A3010 RMK SLP201 DENSITY ALT 1500FT,CYNM,2023-05-27T01:00:00Z,49.77,-77.78,20.0,1.0,200,4,,9.0,30.100393,1020.1,,TRUE,,,,,,,,BKN,16000,,,,,,,VFR,,,,,,,,,,,,SPECI,276.0
CYND 270100Z CCA 00000KT 15SM FEW120 SCT140 BKN240 17/06 A3023 RMK AC2AC2CI3 LAST STFD OBS/NXT 271100Z SLP240,CYND,2023-05-27T01:00:00Z,45.52,-75.57,17.0,6.0,0,0,,15.0,30.230314,1024.0,,,,,,,,,,FEW,12000,SCT,14000,BKN,24000,,,VFR,,,,,,,,,,,,SPECI,57.0
CYMX 270100Z 29003KT 240V330 25SM BKN160 17/01 A3022 RMK AC5 SLP236,CYMX,2023-05-27T01:00:00Z,45.67,-74.03,17.0,1.0,290,3,,25.0,30.221457,1023.6,,,,,,,,,,BKN,16000,,,,,,,VFR,,,,,,,,,,,,METAR,78.0
CYMT 270100Z AUTO 19004KT 9SM OVC071 12/03 A3018 RMK SLP230,CYMT,2023-05-27T01:00:00Z,49.77,-74.52,12.0,3.0,190,4,,9.0,30.180119,1023.0,,TRUE,,,,,,,,OVC,7100,,,,,,,VFR,,,,,,,,,,,,SPECI,388.0
CYMO 270100Z AUTO 06004KT 9SM CLR 12/04 A3006 RMK SLP183,CYMO,2023-05-27T01:00:00Z,51.28,-80.62,12.0,4.0,60,4,,9.0,30.059055,1018.3,,TRUE,,,,,,,,CLR,,,,,,,,VFR,,,,,,,,,,,,SPECI,8.0
CYMM 270100Z AUTO 15009KT 130V200 9SM BKN091 23/07 A2986 RMK SLP122 DENSITY ALT 2500FT,CYMM,2023-05-27T01:00:00Z,56.65,-111.22,23.0,7.0,150,9,,9.0,29.861221,1012.2,,TRUE,,,,,,,,BKN,9100,,,,,,,VFR,,,,,,,,,,,,SPECI,371.0
CYMJ 270100Z 34007KT 15SM FEW016 BKN030 BKN280 17/12 A2996 RMK CU1SC7CI1 DENSITY ALT 2669FT SLP152,CYMJ,2023-05-27T01:00:00Z,50.32,-105.55,17.0,12.0,340,7,,15.0,29.958662,1015.2,,,,,,,,,,FEW,1600,BKN,3000,BKN,28000,,,MVFR,,,,,,,,,,,,SPECI,578.0
CYMA 270100Z 08007KT 050V120 20SM FEW014 SCT055CB BKN080 BKN150 09/05 A2953 RMK SC1CB3AC1AC1 SLP017,CYMA,2023-05-27T01:00:00Z,63.62,-135.87,9.0,5.0,80,7,,20.0,29.530512,1001.7,,,,,,,,,,FEW,1400,SCT,5500,BKN,8000,BKN,15000,VFR,,,,,,,,,,,,SPECI,519.0
CYLW 270100Z AUTO 11005KT 9SM CLR 26/06 A2981 RMK SLP095 DENSITY ALT 3200FT,CYLW,2023-05-27T01:00:00Z,49.95,-119.37,26.0,6.0,110,5,,9.0,29.811024,1009.5,,TRUE,,,,,,,,CLR,,,,,,,,VFR,,,,,,,,,,,,SPECI,420.0
CYLL 270100Z VRB02KT 15SM SCT065 SCT270 20/05 A2995 RMK CU3CI1 SLP152 DENSITY ALT 3300FT,CYLL,2023-05-27T01:00:00Z,53.32,-110.07,20.0,5.0,0,2,,15.0,29.949802,1015.2,,,,,,,,,,SCT,6500,SCT,27000,,,,,VFR,,,,,,,,,,,,SPECI,664.0
CYLH 270100Z AUTO 23011G17KT 9SM CLR 29/11 A2994 RMK SLP142 DENSITY ALT 2600FT,CYLH,2023-05-27T01:00:00Z,52.2,-87.93,29.0,11.0,230,11,17,9.0,29.940945,1014.2,,TRUE,,,,,,,,CLR,,,,,,,,VFR,,,,,,,,,,,,METAR,245.0
CYLD 270100Z 22005KT 15SM FEW230 19/01 A3025 RMK CI1 CI TR LAST STFD OBS NEXT 27 1000 UTC SLP253 DENSITY ALT 1900FT,CYLD,2023-05-27T01:00:00Z,47.82,-83.35,19.0,1.0,220,5,,15.0,30.250984,1025.3,,,,,,,,,,FEW,23000,,,,,,,VFR,,,,,,,,,,,,SPECI,449.0
CYKY 270100Z 16006KT 15SM FEW050 SCT075 BKN220 20/09 A2996 RMK CU1AC3CI1 SLP150 DENSITY ALT 3400FT,CYKY,2023-05-27T01:00:00Z,51.52,-109.17,20.0,9.0,160,6,,15.0,29.958662,1015.0,,,,,,,,,,FEW,5000,SCT,7500,BKN,22000,,,VFR,,,,,,,,,,,,SPECI,692.0
CYKP 270100Z AUTO 21008KT 180V240 9SM CLR 27/09 A2997 RMK SLP143 DENSITY ALT 2200FT,CYKP,2023-05-27T01:00:00Z,51.67,-85.9,27.0,9.0,210,8,,9.0,29.970472,1014.3,,TRUE,,,,,,,,CLR,,,,,,,,VFR,,,,,,,,,,,,METAR,181.0
CYKJ 270100Z AUTO 15004KT 130V190 7SM CLR 17/08 A2994 RMK SLP153 DENSITY ALT 2300FT,CYKJ,2023-05-27T01:00:00Z,57.25,-105.62,17.0,8.0,150,4,,7.0,29.940945,1015.3,,TRUE,,,,,,,,CLR,,,,,,,,VFR,,,,,,,,,,,,SPECI,519.0
CYKF 270100Z AUTO 12005KT 9SM CLR 14/04 A3030 RMK SLP267,CYKF,2023-05-27T01:00:00Z,43.47,-80.38,14.0,4.0,120,5,,9.0,30.301182,1026.7,,TRUE,,,,,,,,CLR,,,,,,,,VFR,,,,,,,,,,,,METAR,312.0
CYKA 270100Z 10005KT 40SM FEW100TCU FEW120 28/06 A2977 RMK TCU1AC1 TCU TR SLP083 DENSITY ALT 3100FT,CYKA,2023-05-27T01:00:00Z,50.7,-120.45,28.0,6.0,100,5,,40.0,29.769686,1008.3,,,,,,,,,,FEW,10000,FEW,12000,,,,,VFR,,,,,,,,,,,,SPECI,344.0
CYJT 270100Z 26007KT 3SM -DZ BR FEW004 BKN009 OVC016 06/04 A2984 RMK SF2SF4SC2 SLP106,CYJT,2023-05-27T01:00:00Z,48.55,-58.57,6.0,4.0,260,7,,3.0,29.840551,1010.6,,,,,,,,,-DZ BR,FEW,400,BKN,900,OVC,1600,,,IFR,,,,,,,,,,,,METAR,7.0
CYIV 270100Z AUTO 01008KT 9SM FEW091 BKN140 14/11 A2989 RMK LTNG DIST SW SLP129,CYIV,2023-05-27T01:00:00Z,53.85,-94.65,14.0,11.0,10,8,,9.0,29.890747,1012.9,,TRUE,,,,,,,,FEW,9100,BKN,14000,,,,,VFR,,,,,,,,,,,,SPECI,234.0
CYIN 270100Z AUTO 16006KT 9SM CLR 21/01 A2987 RMK SLP117 DENSITY ALT 5400FT,CYIN,2023-05-27T01:00:00Z,51.27,-121.68,21.0,1.0,160,6,,9.0,29.870079,1011.7,,TRUE,,,,,,,,CLR,,,,,,,,VFR,,,,,,,,,,,,METAR,1127.0
CYHZ 270100Z 29008KT 15SM FEW014 SCT027 BKN044 BKN062 07/04 A3008 RMK CF1SC3SC2SC1 SLP192,CYHZ,2023-05-27T01:00:00Z,44.87,-63.5,7.0,4.0,290,8,,15.0,30.079725,1019.2,,,,,,,,,,FEW,1400,SCT,2700,BKN,4400,BKN,6200,VFR,,,,,,,,,,,,METAR,136.0
CYHY 270100Z 18008KT 12SM BKN020 BKN100 BKN250 26/03 A2970 RMK FU5AC1CI2 AC TR THIN LYR FU SLP064 DENSITY ALT 2300FT,CYHY,2023-05-27T01:00:00Z,60.83,-115.77,26.0,3.0,180,8,,12.0,29.698818,1006.4,,,,,,,,,,BKN,2000,BKN,10000,BKN,25000,,,MVFR,,,,,,,,,,,,SPECI,159.0
CYHU 270100Z AUTO 25008KT 9SM BKN160 19/02 A3020 RMK SLP230 DENSITY ALT 300FT,CYHU,2023-05-27T01:00:00Z,45.52,-73.42,19.0,2.0,250,8,,9.0,30.200787,1023.0,,TRUE,,,,,,,,BKN,16000,,,,,,,VFR,,,,,,,,,,,,SPECI,26.0
CYHM 270100Z 18005KT 130V200 15SM FEW250 15/03 A3030 RMK CI2 CONTRAILS SLP266,CYHM,2023-05-27T01:00:00Z,43.17,-79.93,15.0,3.0,180,5,,15.0,30.301182,1026.6,,,,,,,,,,FEW,25000,,,,,,,VFR,,,,,,,,,,,,METAR,237.0
CYHK 270100Z AUTO 04017KT 9SM CLR M08/M10 A2998 RMK SLP159,CYHK,2023-05-27T01:00:00Z,68.62,-95.85,-8.0,-10.0,40,17,,9.0,29.97933,1015.9,,TRUE,,,,,,,,CLR,,,,,,,,VFR,,,,,,,,,,,,SPECI,36.0
CYHE 270100Z AUTO 30008G15KT 270V020 9SM CLR 27/13 A2978 RMK SLP085 DENSITY ALT 1700FT,CYHE,2023-05-27T01:00:00Z,49.37,-121.5,27.0,13.0,300,8,15,9.0,29.778543,1008.5,,TRUE,,,,,,,,CLR,,,,,,,,VFR,,,,,,,,,,,,SPECI,43.0
CYHD 270100Z AUTO 19008KT 9SM CLR 26/12 A3008 RMK SLP192 DENSITY ALT 2700FT,CYHD,2023-05-27T01:00:00Z,49.82,-92.75,26.0,12.0,190,8,,9.0,30.079725,1019.2,,TRUE,,,,,,,,CLR,,,,,,,,VFR,,,,,,,,,,,,SPECI,414.0
CYGX 270100Z VRB02KT 10SM -DZ OVC010 04/04 A3001 RMK ST8 SLP173,CYGX,2023-05-27T01:00:00Z,56.35,-94.7,4.0,4.0,0,2,,10.0,30.008858,1017.3,,,,,,,,,-DZ,OVC,1000,,,,,,,MVFR,,,,,,,,,,,,SPECI,145.0
CYGV 270100Z AUTO 30007KT 9SM BKN180 OVC200 06/05 A3000 RMK SLP164,CYGV,2023-05-27T01:00:00Z,50.28,-63.62,6.0,5.0,300,7,,9.0,30.0,1016.4,,TRUE,,,,,,,,BKN,18000,OVC,20000,,,,,VFR,,,,,,,,,,,,SPECI,32.0
CYGP 270100Z 31003KT 15SM BKN140 06/06 A3003 RMK AC7 SLP173,CYGP,2023-05-27T01:00:00Z,48.77,-64.47,6.0,6.0,310,3,,15.0,30.029528,1017.3,,,,,,,,,,BKN,14000,,,,,,,VFR,,,,,,,,,,,,METAR,31.0
CYGL 270100Z 29007KT 15SM FEW050 SCT140 BKN200 12/05 A3009 RMK SC1AC3CI4 SC TR SLP198,CYGL,2023-05-27T01:00:00Z,53.62,-77.7,12.0,5.0,290,7,,15.0,30.088583,1019.8,,,,,,,,,,FEW,5000,SCT,14000,BKN,20000,,,VFR,,,,,,,,,,,,METAR,192.0
CYGK 270100Z 22004KT 15SM FEW160 FEW250 13/05 A3028 RMK AC1CI1 AC TR CI TR SLP259,CYGK,2023-05-27T01:00:00Z,44.22,-76.58,13.0,5.0,220,4,,15.0,30.280512,1025.9,,,,,,,,,,FEW,16000,FEW,25000,,,,,VFR,,,,,,,,,,,,METAR,91.0
CYFS 270100Z 15007KT 15SM SCT110 BKN140 BKN170 BKN250 26/05 A2953 RMK AC3AC2AC2CI1 CI TR SLP007 DENSITY ALT 2400FT,CYFS,2023-05-27T01:00:00Z,61.75,-121.22,26.0,5.0,150,7,,15.0,29.530512,1000.7,,,,,,,,,,SCT,11000,BKN,14000,BKN,17000,BKN,25000,VFR,,,,,,,,,,,,METAR,174.0
CYFC 270100Z AUTO 21002KT 9SM OVC130 09/07 A3012 RMK SLP202,CYFC,2023-05-27T01:00:00Z,45.87,-66.53,9.0,7.0,210,2,,9.0,30.121063,1020.2,,TRUE,,,,,,,,OVC,13000,,,,,,,VFR,,,,,,,,,,,,METAR,16.0
CYFB 270100Z 33020G26KT 30SM -SN SCT023 M07/M11 A3011 RMK SC4 SLP201,CYFB,2023-05-27T01:00:00Z,63.75,-68.55,-7.0,-11.0,330,20,26,30.0,30.109253,1020.1,,,,,,,,,-SN,SCT,2300,,,,,,,VFR,,,,,,,,,,,,METAR,23.0
CYEV 270100Z 11008KT 15SM BKN052 12/02 A2966 RMK SC7 SLP049,CYEV,2023-05-27T01:00:00Z,68.32,-133.5,12.0,2.0,110,8,,15.0,29.660433,1004.9,,,,,,,,,,BKN,5200,,,,,,,VFR,,,,,,,,,,,,METAR,74.0
CYET 270100Z AUTO 08005KT 060V120 9SM CLR 23/03 A2985 RMK SLP117 DENSITY ALT 4700FT,CYET,2023-05-27T01:00:00Z,53.57,-116.47,23.0,3.0,80,5,,9.0,29.84941,1011.7,,TRUE,,,,,,,,CLR,,,,,,,,VFR,,,,,,,,,,,,METAR,925.0
CYER 270100Z AUTO 09013KT 9SM -RA OVC006 01/00 A3005 RMK PCPN 0.5MM PAST HR SLP177,CYER,2023-05-27T01:00:00Z,56.02,-87.68,1.0,0.0,90,13,,9.0,30.050198,1017.7,,TRUE,,,,,,,-RA,OVC,600,,,,,,,IFR,,,,,,,,,,,,METAR,11.0
CYEN 270100Z AUTO 33010G15KT 9SM CLR 21/14 A2993 RMK SLP140 DENSITY ALT 3100FT,CYEN,2023-05-27T01:00:00Z,49.22,-102.97,21.0,14.0,330,10,15,9.0,29.929134,1014.0,,TRUE,,,,,,,,CLR,,,,,,,,VFR,,,,,,,,,,,,METAR,580.0
CYEG 270100Z 16005KT 110V200 20SM FEW080 22/02 A2992 RMK CU1 SLP141 DENSITY ALT 3800FT,CYEG,2023-05-27T01:00:00Z,53.3,-113.58,22.0,2.0,160,5,,20.0,29.920275,1014.1,,,,,,,,,,FEW,8000,,,,,,,VFR,,,,,,,,,,,,METAR,710.0
CYDQ 270100Z AUTO 14011KT 9SM CLR 25/06 A2976 RMK SLP084 DENSITY ALT 4000FT,CYDQ,2023-05-27T01:00:00Z,55.75,-120.18,25.0,6.0,140,11,,9.0,29.760826,1008.4,,TRUE,,,,,,,,CLR,,,,,,,,VFR,,,,,,,,,,,,METAR,658.0
CYDN 270100Z AUTO 29005KT 9SM FEW076 21/19 A2986 RMK SLP117 DENSITY ALT 2000FT,CYDN,2023-05-27T01:00:00Z,51.1,-100.05,21.0,19.0,290,5,,9.0,29.861221,1011.7,,TRUE,,,,,,,,FEW,7600,,,,,,,VFR,,,,,,,,,,,,METAR,302.0
CYDL 270100Z AUTO 26012G22KT 220V290 9SM CLR 14/M04 A2984 RMK SLP109 DENSITY ALT 3300FT,CYDL,2023-05-27T01:00:00Z,58.42,-130.02,14.0,-4.0,260,12,22,9.0,29.840551,1010.9,,TRUE,,,,,,,,CLR,,,,,,,,VFR,,,,,,,,,,,,METAR,804.0
CYDF 270100Z 03002KT 12SM OVC017 04/04 A2982 RMK SC8 OBS TKN +8 SLP101,CYDF,2023-05-27T01:00:00Z,49.22,-57.4,4.0,4.0,30,2,,12.0,29.819881,1010.1,,,,,,,,,,OVC,1700,,,,,,,MVFR,,,,,,,,,,,,SPECI,15.0
CYDC 270100Z 00000KT 25SM FEW120CB SCT140 SCT270 25/04 A2984 RMK CB2AC1CI1 CI TR LAST STFD OBS/NEXT 27 1300Z SLP101 DENSITY ALT 4100FT,CYDC,2023-05-27T01:00:00Z,49.47,-120.52,25.0,4.0,0,0,,25.0,29.840551,1010.1,,,,,,,,,,FEW,12000,SCT,14000,SCT,27000,,,VFR,,,,,,,,,,,,METAR,703.0
CYDB 270100Z AUTO 31003KT 280V030 9SM CLR 08/M00 A2958 RMK SLP044 DENSITY ALT 2900FT,CYDB,2023-05-27T01:00:00Z,61.37,-139.02,8.0,0.0,310,3,,9.0,29.58071,1004.4,,TRUE,,,,,,,,CLR,,,,,,,,VFR,,,,,,,,,,,,METAR,807.0
CYCY 270100Z AUTO 26017G23KT 9SM CLR M05/M11 A2965 RMK SLP046,CYCY,2023-05-27T01:00:00Z,70.48,-68.52,-5.0,-11.0,260,17,23,9.0,29.648623,1004.6,,TRUE,,,,,,,,CLR,,,,,,,,VFR,,,,,,,,,,,,METAR,73.0
CYCQ 270100Z 23010KT 180V260 15SM SCT062 BKN120 BKN240 27/05 A2971 RMK CU3AC2CI2 FU DIST W LAST STFD OBS/NXT 271300Z SLP067 DENSITY ALT 4100FT,CYCQ,2023-05-27T01:00:00Z,55.7,-121.62,27.0,5.0,230,10,,15.0,29.71063,1006.7,,,,,,,,,,SCT,6200,BKN,12000,BKN,24000,,,VFR,,,,,,,,,,,,METAR,614.0
CYCP 270100Z 19006KT 160V250 15SM FEW080 SCT150 24/06 A2984 RMK CU2AC2 LAST STFD OBS/NXT 271300Z SLP111 DENSITY ALT 3900FT,CYCP,2023-05-27T01:00:00Z,52.13,-119.28,24.0,6.0,190,6,,15.0,29.840551,1011.1,,,,,,,,,,FEW,8000,SCT,15000,,,,,VFR,,,,,,,,,,,,METAR,677.0
CYCO 270100Z 08015KT 15SM FEW015 FEW100 M03/M09 A3007 RMK SC1AC1 SC TR AC TR SLP188,CYCO,2023-05-27T01:00:00Z,67.82,-115.15,-3.0,-9.0,80,15,,15.0,30.070866,1018.8,,,,,,,,,,FEW,1500,FEW,10000,,,,,VFR,,,,,,,,,,,,METAR,20.0
CYCK 270100Z AUTO VRB02KT 9SM CLR 14/00 A3031 RMK SLP268,CYCK,2023-05-27T01:00:00Z,42.3,-82.08,14.0,0.0,0,2,,9.0,30.31004,1026.8,,TRUE,,,,,,,,CLR,,,,,,,,VFR,,,,,,,,,,,,METAR,196.0
CYCG 270100Z VRB02KT 15SM FEW085TCU SCT130 BKN220 BKN260 26/07 A2982 RMK TCU1AC3CI2CI1 SLP095 DENSITY ALT 3400FT,CYCG,2023-05-27T01:00:00Z,49.28,-117.63,26.0,7.0,0,2,,15.0,29.819881,1009.5,,,,,,,,,,FEW,8500,SCT,13000,BKN,22000,BKN,26000,VFR,,,,,,,,,,,,METAR,487.0
CYCD 270100Z 17008KT 30SM FEW060TCU SCT140 25/12 A2983 RMK TCU1AC2 SLP102 DENSITY ALT 1400FT,CYCD,2023-05-27T01:00:00Z,49.05,-123.87,25.0,12.0,170,8,,30.0,29.828741,1010.2,,,,,,,,,,FEW,6000,SCT,14000,,,,,VFR,,,,,,,,,,,,METAR,30.0
CYCB 270100Z 33007KT 15SM SKC M06/M11 A3009 RMK SLP195,CYCB,2023-05-27T01:00:00Z,69.1,-105.12,-6.0,-11.0,330,7,,15.0,30.088583,1019.5,,,,,,,,,,SKC,,,,,,,,VFR,,,,,,,,,,,,METAR,19.0
CYCA 270100Z AUTO 08003KT 5SM -RA BR SCT035 OVC042 03/03 A3005 RMK PCPN 0.5MM PAST HR SLP178,CYCA,2023-05-27T01:00:00Z,53.68,-57.03,3.0,3.0,80,3,,5.0,30.050198,1017.8,,TRUE,,,,,,,-RA BR,SCT,3500,OVC,4200,,,,,MVFR,,,,,,,,,,,,METAR,12.0
CYBX 270100Z CCA 03018G23KT 3SM -RA BR OVC022 03/02 A2988 RMK SC8 SLP123,CYBX,2023-05-27T01:00:00Z,51.45,-57.18,3.0,2.0,30,18,23,3.0,29.878937,1012.3,,,,,,,,,-RA BR,OVC,2200,,,,,,,MVFR,,,,,,,,,,,,METAR,32.0
CYBW 270100Z AUTO 20008KT 130V210 9SM SCT071 19/04 A2995 RMK SLP153 DENSITY ALT 5400FT,CYBW,2023-05-27T01:00:00Z,51.1,-114.37,19.0,4.0,200,8,,9.0,29.949802,1015.3,,TRUE,,,,,,,,SCT,7100,,,,,,,VFR,,,,,,,,,,,,METAR,1197.0
CYBU 270100Z AUTO /////KT 9SM OVC076 15/14 A2996 RMK SLP157 DENSITY ALT 1500FT,CYBU,2023-05-27T01:00:00Z,53.32,-104.0,15.0,14.0,,,,9.0,29.958662,1015.7,,TRUE,,,,,,,,OVC,7600,,,,,,,VFR,,,,,,,,,,,,METAR,369.0
CYBR 270100Z 24011KT 12SM -TSRA BKN050CB BKN110 BKN250 19/17 A2991 RMK CB5AC1CI1 SLP132 DENSITY ALT 2100FT,CYBR,2023-05-27T01:00:00Z,49.92,-99.95,19.0,17.0,240,11,,12.0,29.911417,1013.2,,,,,,,,,-TSRA,BKN,5000,BKN,11000,BKN,25000,,,VFR,,,,,,,,,,,,METAR,405.0
CYBQ 270100Z AUTO 14003KT 9SM OVC043 12/04 A2997 RMK SLP164,CYBQ,2023-05-27T01:00:00Z,58.7,-98.5,12.0,4.0,140,3,,9.0,29.970472,1016.4,,TRUE,,,,,,,,OVC,4300,,,,,,,VFR,,,,,,,,,,,,METAR,272.0
CYBL 270100Z 30009KT 30SM FEW050 SCT130 BKN220 23/11 A2985 RMK CU1AC3CI3 SLP112 DENSITY ALT 1500FT,CYBL,2023-05-27T01:00:00Z,49.95,-125.27,23.0,11.0,300,9,,30.0,29.84941,1011.2,,,,,,,,,,FEW,5000,SCT,13000,BKN,22000,,,VFR,,,,,,,,,,,,METAR,94.0
CYBK 270100Z 24007KT 8SM -RA BKN029 OVC050 07/05 A2976 RMK SC7SC1 SLP082,CYBK,2023-05-27T01:00:00Z,64.3,-96.07,7.0,5.0,240,7,,8.0,29.760826,1008.2,,,,,,,,,-RA,BKN,2900,OVC,5000,,,,,MVFR,,,,,,,,,,,,METAR,14.0
CYBG 270100Z 29008KT 25SM BKN120 BKN180 BKN250 14/01 A3016 RMK AC5AC2CI1 DENSITY ALT 382FT SLP217,CYBG,2023-05-27T01:00:00Z,48.33,-70.98,14.0,1.0,290,8,,25.0,30.159449,1021.7,,,,,,,,,,BKN,12000,BKN,18000,BKN,25000,,,VFR,,,,,,,,,,,,METAR,151.0
CYBD 270100Z 26012G18KT 15SM BKN084 BKN260 21/12 A2991 RMK AC5CI2 LAST STFD OBS/NXT 271300Z/ SLP131 DENSITY ALT 900FT,CYBD,2023-05-27T01:00:00Z,52.38,-126.58,21.0,12.0,260,12,18,15.0,29.911417,1013.1,,,,,,,,,,BKN,8400,BKN,26000,,,,,VFR,,,,,,,,,,,,METAR,40.0
CYBC 270100Z AUTO 31004KT 9SM OVC150 11/05 A3004 RMK SLP174,CYBC,2023-05-27T01:00:00Z,49.13,-68.2,11.0,5.0,310,4,,9.0,30.041338,1017.4,,TRUE,,,,,,,,OVC,15000,,,,,,,VFR,,,,,,,,,,,,METAR,20.0
CYAZ 270100Z 29010KT 15SM FEW140 SCT230 SCT240 15/11 A2991 RMK AC1CI2CC1 LAST STFD OBS/NXT 271300UTC SLP132,CYAZ,2023-05-27T01:00:00Z,49.08,-125.77,15.0,11.0,290,10,,15.0,29.911417,1013.2,,,,,,,,,,FEW,14000,SCT,23000,SCT,24000,,,VFR,,,,,,,,,,,,METAR,26.0
CYAY 270100Z AUTO 01019G24KT A2986 RMK PCPN 0.8MM PAST HR CLD MISG WX MISG VIS MISG T MISG DP MISG DENSITY ALT MISG,CYAY,2023-05-27T01:00:00Z,51.38,-56.07,,,10,19,24,,29.861221,,,TRUE,,,,,,,,,,,,,,,,,,,,,,,,,,,,METAR,23.0
CYAM 270100Z 26004KT 25SM FEW230 BKN280 13/01 A3029 RMK CI1CI4 SLP263,CYAM,2023-05-27T01:00:00Z,46.48,-84.52,13.0,1.0,260,4,,25.0,30.28937,1026.3,,,,,,,,,,FEW,23000,BKN,28000,,,,,VFR,,,,,,,,,,,,METAR,186.0
CYAH 270100Z AUTO 23003KT 9SM FEW049 13/06 A3009 RMK SLP200,CYAH,2023-05-27T01:00:00Z,53.75,-73.67,13.0,6.0,230,3,,9.0,30.088583,1020.0,,TRUE,,,,,,,,FEW,4900,,,,,,,VFR,,,,,,,,,,,,METAR,298.0
CYAB 270100Z 25013G19KT 15SM SCT030 SCT100 SCT200 M07/M11 A2971 RMK SC3AC1CI1 CI TR SLP064,CYAB,2023-05-27T01:00:00Z,73.0,-85.02,-7.0,-11.0,250,13,19,15.0,29.71063,1006.4,,,,,,,,,,SCT,3000,SCT,10000,SCT,20000,,,VFR,,,,,,,,,,,,METAR,36.0
CXZV 270100Z AUTO 00000KT 07/04 RMK AO1 SLP165 T00700036 56008,CXZV,2023-05-27T01:00:00Z,50.22,-66.25,7.0,3.6,0,0,,,,1016.5,,TRUE,TRUE,,,,,,,,,,,,,,,,-0.8,,,,,,,,,,,METAR,43.0
CXZC 270100Z AUTO 05003KT 13/06 RMK AO1 SLP188 T01270055 56003,CXZC,2023-05-27T01:00:00Z,51.3,-80.62,12.7,5.5,50,3,,,,1018.8,,TRUE,TRUE,,,,,,,,,,,,,,,,-0.3,,,,,,,,,,,METAR,8.0
CXYH 270100Z AUTO 30006KT 23/04 RMK AO1 PK WND 28017/0040 SLP004 T02320035 55003,CXYH,2023-05-27T01:00:00Z,61.25,-123.75,23.2,3.5,300,6,,,,1000.4,,TRUE,TRUE,,,,,,,,,,,,,,,,-0.3,,,,,,,,,,,METAR,197.0
CXWN 270100Z AUTO 21008G16KT 30/09 RMK AO1 PK WND 23018/0018 SLP134 T03010093 55011,CXWN,2023-05-27T01:00:00Z,49.88,-97.13,30.1,9.3,210,8,16,,,1013.4,,TRUE,TRUE,,,,,,,,,,,,,,,,-1.1,,,,,,,,,,,METAR,232.0
CXWM 270100Z AUTO 16009KT 19/08 RMK AO1 T01870075,CXWM,2023-05-27T01:00:00Z,49.5,-112.12,18.7,7.5,160,9,,,,,,TRUE,TRUE,,,,,,,,,,,,,,,,,,,,,,,,,,,METAR,947.0
CXVW 270100Z AUTO 15004KT 24/04 RMK AO1 SLP101 T02370043 57017,CXVW,2023-05-27T01:00:00Z,55.1,-117.2,23.7,4.3,150,4,,,,1010.1,,TRUE,TRUE,,,,,,,,,,,,,,,,-1.7,,,,,,,,,,,METAR,696.0
CXVN 270100Z AUTO 17002KT 15/04 RMK AO1 SLP262 T01450040 55005,CXVN,2023-05-27T01:00:00Z,43.18,-79.4,14.5,4.0,170,2,,,,1026.2,,TRUE,TRUE,,,,,,,,,,,,,,,,-0.5,,,,,,,,,,,METAR,86.0
CXVM 270100Z AUTO 10004KT 21/04 RMK AO1 T02110038,CXVM,2023-05-27T01:00:00Z,53.35,-110.88,21.1,3.8,100,4,,,,,,TRUE,TRUE,,,,,,,,,,,,,,,,,,,,,,,,,,,METAR,622.0
CXTP 270100Z AUTO 00000KT 07/06 RMK AO1 SLP080 T00660064 56011,CXTP,2023-05-27T01:00:00Z,48.55,-53.97,6.6,6.4,0,0,,,,1008.0,,TRUE,TRUE,,,,,,,,,,,,,,,,-1.1,,,,,,,,,,,METAR,104.0
CXTO 270100Z AUTO 16/M00 RMK AO1 SLP261 T01571002 55005,CXTO,2023-05-27T01:00:00Z,43.67,-79.4,15.7,-0.2,,,,,,1026.1,,TRUE,TRUE,,,,,,,,,,,,,,,,-0.5,,,,,,,,,,,METAR,115.0
CXTN 270100Z AUTO 14022KT M04/M07 RMK AO1 PK WND 14026/0025 SLP143 T10371072 56025,CXTN,2023-05-27T01:00:00Z,69.2,-122.35,-3.7,-7.2,140,22,,,,1014.3,,TRUE,TRUE,,,,,,,,,,,,,,,,-2.5,,,,,,,,,,,METAR,564.0
CXTH 270100Z AUTO 06004KT 19/05 RMK AO1 T01850050,CXTH,2023-05-27T01:00:00Z,53.63,-111.68,18.5,5.0,60,4,,,,,,TRUE,TRUE,,,,,,,,,,,,,,,,,,,,,,,,,,,METAR,679.0
CXTD 270100Z AUTO 29008KT 04/03 RMK AO1 SLP181 T00420030 52002,CXTD,2023-05-27T01:00:00Z,45.62,-61.68,4.2,3.0,290,8,,,,1018.1,,TRUE,TRUE,,,,,,,,,,,,,,,,0.2,,,,,,,,,,,METAR,58.0
CXSP 270100Z AUTO 11004KT 20/06 RMK AO1 T01990058,CXSP,2023-05-27T01:00:00Z,54.02,-111.27,19.9,5.8,110,4,,,,,,TRUE,TRUE,,,,,,,,,,,,,,,,,,,,,,,,,,,METAR,652.0
CXSL 270100Z AUTO 16003KT 21/06 RMK AO1 T02070061,CXSL,2023-05-27T01:00:00Z,54.28,-112.5,20.7,6.1,160,3,,,,,,TRUE,TRUE,,,,,,,,,,,,,,,,,,,,,,,,,,,METAR,680.0
CXSH 270100Z AUTO 33004KT 17/M00 RMK AO1 SLP225 T01691004 53003,CXSH,2023-05-27T01:00:00Z,46.55,-72.73,16.9,-0.4,330,4,,,,1022.5,,TRUE,TRUE,,,,,,,,,,,,,,,,0.3,,,,,,,,,,,METAR,106.0
CXSE 270100Z AUTO 28022G27KT M05/M06 RMK AO1 SOG 21 6008 PK WND 28029/0004 SLP126 T10491062,CXSE,2023-05-27T01:00:00Z,73.77,-105.28,-4.9,-6.2,280,22,27,,,1012.6,,TRUE,TRUE,,,,,,,,,,,,,,,,,,,,,,,,,,,METAR,11.0
CXSC 270100Z AUTO 10009KT 20/08 RMK AO1 T01990082,CXSC,2023-05-27T01:00:00Z,50.3,-110.08,19.9,8.2,100,9,,,,,,TRUE,TRUE,,,,,,,,,,,,,,,,,,,,,,,,,,,METAR,809.0
CXRL 270100Z AUTO 17001KT 21/05 RMK AO1 T02060052,CXRL,2023-05-27T01:00:00Z,54.5,-111.7,20.6,5.2,170,1,,,,,,TRUE,TRUE,,,,,,,,,,,,,,,,,,,,,,,,,,,METAR,585.0
CXRH 270100Z AUTO 03001KT 06/03 RMK AO1 SLP099 T00580033 56014,CXRH,2023-05-27T01:00:00Z,49.57,-57.88,5.8,3.3,30,1,,,,1009.9,,TRUE,TRUE,,,,,,,,,,,,,,,,-1.4,,,,,,,,,,,METAR,68.0
CXRB 270100Z AUTO 30019KT M05/M07 RMK AO1 SOG 11 1004 PK WND 30024/0001 SLP077 T10541066,CXRB,2023-05-27T01:00:00Z,74.72,-94.98,-5.4,-6.6,300,19,,,,1007.7,,TRUE,TRUE,,,,,,,,,,,,,,,,,,,,,,,,,,,METAR,30.0
CXPL 270100Z AUTO 16003KT 22/03 RMK AO1 T02200032,CXPL,2023-05-27T01:00:00Z,51.13,-111.7,22.0,3.2,160,3,,,,,,TRUE,TRUE,,,,,,,,,,,,,,,,,,,,,,,,,,,METAR,735.0
CXPC 270100Z AUTO 13/03 RMK AO1 SLP266 T01290031 56009,CXPC,2023-05-27T01:00:00Z,45.35,-80.05,12.9,3.1,,,,,,1026.6,,TRUE,TRUE,,,,,,,,,,,,,,,,-0.9,,,,,,,,,,,METAR,176.0
CXPA 270100Z AUTO 15007KT 24/05 RMK AO1 T02370049,CXPA,2023-05-27T01:00:00Z,55.62,-118.3,23.7,4.9,150,7,,,,,,TRUE,TRUE,,,,,,,,,,,,,,,,,,,,,,,,,,,METAR,628.0
CXOY 270100Z AUTO 17007KT 20/09 RMK AO1 T01960092,CXOY,2023-05-27T01:00:00Z,51.35,-110.35,19.6,9.2,170,7,,,,,,TRUE,TRUE,,,,,,,,,,,,,,,,,,,,,,,,,,,METAR,784.0
CXOX 270100Z AUTO 15005KT 16/09 RMK AO1 SLP154 T01610094 56005,CXOX,2023-05-27T01:00:00Z,55.15,-105.27,16.1,9.4,150,5,,,,1015.4,,TRUE,TRUE,,,,,,,,,,,,,,,,-0.5,,,,,,,,,,,METAR,381.0
CXOL 270100Z AUTO 11005KT 20/02 RMK AO1 T02010024,CXOL,2023-05-27T01:00:00Z,51.77,-114.08,20.1,2.4,110,5,,,,,,TRUE,TRUE,,,,,,,,,,,,,,,,,,,,,,,,,,,METAR,1026.0
CXNP 270100Z AUTO 01002KT 06/05 RMK AO1 9PAST HR 0000 SLP189 P0004 T00560052 50009,CXNP,2023-05-27T01:00:00Z,45.75,-64.23,5.6,5.2,10,2,,,,1018.9,,TRUE,TRUE,,,,,,,,,,,,,,,,0.9,,,,,0.04,,,,,,METAR,19.0
CXNM 270100Z AUTO 30010G17KT 02/02 RMK AO1 PK WND 29017/0057 T00190019,CXNM,2023-05-27T01:00:00Z,46.82,-60.67,1.9,1.9,300,10,17,,,,,TRUE,TRUE,,,,,,,,,,,,,,,,,,,,,,,,,,,METAR,452.0
CXMY 270100Z AUTO 06/04 RMK AO1 T00610043,CXMY,2023-05-27T01:00:00Z,44.98,-62.48,6.1,4.3,,,,,,,,TRUE,TRUE,,,,,,,,,,,,,,,,,,,,,,,,,,,METAR,37.0
CXMO 270100Z AUTO 22005KT 21/05 RMK AO1 T02050053,CXMO,2023-05-27T01:00:00Z,51.67,-112.68,20.5,5.3,220,5,,,,,,TRUE,TRUE,,,,,,,,,,,,,,,,,,,,,,,,,,,METAR,837.0
CXMM 270100Z AUTO 16006KT 23/06 RMK AO1 SLP121 T02300062 58010,CXMM,2023-05-27T01:00:00Z,56.65,-111.22,23.0,6.2,160,6,,,,1012.1,,TRUE,TRUE,,,,,,,,,,,,,,,,-1.0,,,,,,,,,,,METAR,372.0
CXMI 270100Z AUTO 29008KT 08/05 RMK AO1 SLP190 T00790050 52012,CXMI,2023-05-27T01:00:00Z,44.6,-63.53,7.9,5.0,290,8,,,,1019.0,,TRUE,TRUE,,,,,,,,,,,,,,,,1.2,,,,,,,,,,,METAR,15.0
CXMG 270100Z AUTO 16010KT 25/05 RMK AO1 PK WND 18017/0003 T02470051,CXMG,2023-05-27T01:00:00Z,56.97,-117.45,24.7,5.1,160,10,,,,,,TRUE,TRUE,,,,,,,,,,,,,,,,,,,,,,,,,,,METAR,467.0
CXMD 270100Z AUTO 22011G18KT 28/10 RMK AO1 PK WND 19027/0010 SLP138 T02820102 55008,CXMD,2023-05-27T01:00:00Z,49.18,-98.08,28.2,10.2,220,11,18,,,1013.8,,TRUE,TRUE,,,,,,,,,,,,,,,,-0.8,,,,,,,,,,,METAR,297.0
CXLB 270100Z AUTO 31009KT 09/06 RMK AO1 SLP199 T00890056 51015,CXLB,2023-05-27T01:00:00Z,44.37,-64.3,8.9,5.6,310,9,,,,1019.9,,TRUE,TRUE,,,,,,,,,,,,,,,,1.5,,,,,,,,,,,METAR,4.0
CXKT 270100Z AUTO 23004KT 07/05 RMK AO1 SLP195 T00700049 58001,CXKT,2023-05-27T01:00:00Z,45.07,-64.48,7.0,4.9,230,4,,,,1019.5,,TRUE,TRUE,,,,,,,,,,,,,,,,-0.1,,,,,,,,,,,METAR,48.0
CXKM 270100Z AUTO 11002KT 21/05 RMK AO1 T02070048,CXKM,2023-05-27T01:00:00Z,52.83,-111.87,20.7,4.8,110,2,,,,,,TRUE,TRUE,,,,,,,,,,,,,,,,,,,,,,,,,,,METAR,679.0
CXKI 270100Z AUTO 00000KT 17/02 RMK AO1 SLP216 T01670024 56007,CXKI,2023-05-27T01:00:00Z,48.13,-80.0,16.7,2.4,0,0,,,,1021.6,,TRUE,TRUE,,,,,,,,,,,,,,,,-0.7,,,,,,,,,,,METAR,328.0
CXKE 270100Z AUTO 20001KT 13/06 RMK AO1 SLP245 T01300056 55004,CXKE,2023-05-27T01:00:00Z,45.0,-75.63,13.0,5.6,200,1,,,,1024.5,,TRUE,TRUE,,,,,,,,,,,,,,,,-0.4,,,,,,,,,,,METAR,99.0
CXKA 270100Z AUTO 22007KT 24/07 RMK AO1 SLP204 T02400072 55006,CXKA,2023-05-27T01:00:00Z,49.4,-82.45,24.0,7.2,220,7,,,,1020.4,,TRUE,TRUE,,,,,,,,,,,,,,,,-0.6,,,,,,,,,,,METAR,221.0
CXIB 270100Z AUTO 31002KT 06/04 RMK AO1 SLP129 T00630036 53004,CXIB,2023-05-27T01:00:00Z,46.67,-60.4,6.3,3.6,310,2,,,,1012.9,,TRUE,TRUE,,,,,,,,,,,,,,,,0.4,,,,,,,,,,,METAR,6.0
CXHR 270100Z AUTO 36003KT 20/02 RMK AO1 T01950019,CXHR,2023-05-27T01:00:00Z,51.18,-112.5,19.5,1.9,360,3,,,,,,TRUE,TRUE,,,,,,,,,,,,,,,,,,,,,,,,,,,METAR,975.0
CXHP 270100Z AUTO 08010KT 23/08 RMK AO1 T02270083,CXHP,2023-05-27T01:00:00Z,55.4,-116.48,22.7,8.3,80,10,,,,,,TRUE,TRUE,,,,,,,,,,,,,,,,,,,,,,,,,,,METAR,601.0
CXHM 270100Z AUTO 00000KT 14/04 RMK AO1 SLP264 T01360038 55000,CXHM,2023-05-27T01:00:00Z,43.28,-79.9,13.6,3.8,0,0,,,,1026.4,,TRUE,TRUE,,,,,,,,,,,,,,,,0.0,,,,,,,,,,,METAR,105.0
CXHD 270100Z AUTO 11007KT 21/04 RMK AO1 T02070040,CXHD,2023-05-27T01:00:00Z,53.18,-112.25,20.7,4.0,110,7,,,,,,TRUE,TRUE,,,,,,,,,,,,,,,,,,,,,,,,,,,METAR,688.0
CXHA 270100Z AUTO 11001KT 14/04 RMK AO1 SLP265 T01360041 55000,CXHA,2023-05-27T01:00:00Z,42.03,-82.9,13.6,4.1,110,1,,,,1026.5,,TRUE,TRUE,,,,,,,,,,,,,,,,0.0,,,,,,,,,,,METAR,193.0
CXGH 270100Z AUTO 20018G25KT 29/11 RMK AO1 PK WND 20028/0005 SLP121 T02940112 56013,CXGH,2023-05-27T01:00:00Z,50.63,-97.0,29.4,11.2,200,18,25,,,1012.1,,TRUE,TRUE,,,,,,,,,,,,,,,,-1.3,,,,,,,,,,,METAR,217.0
CXFR 270100Z AUTO 14009KT 23/06 RMK AO1 T02300058,CXFR,2023-05-27T01:00:00Z,56.08,-118.43,23.0,5.8,140,9,,,,,,TRUE,TRUE,,,,,,,,,,,,,,,,,,,,,,,,,,,METAR,657.0
CXFM 270100Z AUTO 02002KT 19/09 RMK AO1 T01940089,CXFM,2023-05-27T01:00:00Z,49.48,-111.48,19.4,8.9,20,2,,,,,,TRUE,TRUE,,,,,,,,,,,,,,,,,,,,,,,,,,,METAR,884.0
CXET 270100Z AUTO 30002KT 14/01 RMK AO1 SLP269 T01420005 56007,CXET,2023-05-27T01:00:00Z,44.23,-79.78,14.2,0.5,300,2,,,,1026.9,,TRUE,TRUE,,,,,,,,,,,,,,,,-0.7,,,,,,,,,,,METAR,250.0
CXEG 270100Z AUTO 13006KT 22/02 RMK AO1 SLP140 T02160016 58010,CXEG,2023-05-27T01:00:00Z,53.3,-113.6,21.6,1.6,130,6,,,,1014.0,,TRUE,TRUE,,,,,,,,,,,,,,,,-1.0,,,,,,,,,,,METAR,706.0
CXEC 270100Z AUTO 11007KT 22/02 RMK AO1 SLP133 T02210024 57012,CXEC,2023-05-27T01:00:00Z,53.57,-113.52,22.1,2.4,110,7,,,,1013.3,,TRUE,TRUE,,,,,,,,,,,,,,,,-1.2,,,,,,,,,,,METAR,666.0
CXEA 270100Z AUTO 22004KT 25/11 RMK AO1 SLP162 T02540106 57008,CXEA,2023-05-27T01:00:00Z,50.63,-93.22,25.4,10.6,220,4,,,,1016.2,,TRUE,TRUE,,,,,,,,,,,,,,,,-0.8,,,,,,,,,,,METAR,351.0
CXDW 270100Z AUTO 20017G24KT 28/11 RMK AO1 PK WND 20028/0004 SLP138 T02840108 55007,CXDW,2023-05-27T01:00:00Z,49.4,-98.32,28.4,10.8,200,17,24,,,1013.8,,TRUE,TRUE,,,,,,,,,,,,,,,,-0.7,,,,,,,,,,,METAR,341.0
CXDK 270100Z AUTO 20/04 RMK AO1 17 0032Z 3014 SLP039 T02040042,CXDK,2023-05-27T01:00:00Z,61.27,-124.47,20.4,4.2,,,,,,1003.9,,TRUE,TRUE,,,,,,,,,,,,,,,,,,,,,,,,,,,METAR,269.0
CXDI 270100Z AUTO 00000KT 12/03 RMK AO1 SLP267 T01150027 53006,CXDI,2023-05-27T01:00:00Z,42.87,-80.55,11.5,2.7,0,0,,,,1026.7,,TRUE,TRUE,,,,,,,,,,,,,,,,0.6,,,,,,,,,,,METAR,234.0
CXDE 270100Z AUTO 08007KT 08/02 RMK AO1 PK WND 09019/0024 SLP061 T00750016 58025,CXDE,2023-05-27T01:00:00Z,65.22,-123.43,7.5,1.6,80,7,,,,1006.1,,TRUE,TRUE,,,,,,,,,,,,,,,,-2.5,,,,,,,,,,,METAR,208.0
CXDB 270100Z AUTO 17007KT 15/08 RMK AO1 T01510081,CXDB,2023-05-27T01:00:00Z,49.05,-112.82,15.1,8.1,170,7,,,,,,TRUE,TRUE,,,,,,,,,,,,,,,,,,,,,,,,,,,METAR,1311.0
CXCS 270100Z AUTO 17005KT 18/08 RMK AO1 T01830082,CXCS,2023-05-27T01:00:00Z,51.93,-110.72,18.3,8.2,170,5,,,,,,TRUE,TRUE,,,,,,,,,,,,,,,,,,,,,,,,,,,METAR,771.0
CXCP 270100Z AUTO 18006KT 21/02 RMK AO1 T02070020,CXCP,2023-05-27T01:00:00Z,50.28,-113.35,20.7,2.0,180,6,,,,,,TRUE,TRUE,,,,,,,,,,,,,,,,,,,,,,,,,,,METAR,999.0
CXCK 270100Z AUTO 21011G20KT 13/M06 RMK AO1 PK WND 16027/0003 SLP027 T01331060 51008,CXCK,2023-05-27T01:00:00Z,62.12,-136.2,13.3,-6.0,210,11,20,,,1002.7,,TRUE,TRUE,,,,,,,,,,,,,,,,0.8,,,,,,,,,,,METAR,526.0
CXCD 270100Z AUTO 12006KT 24/06 RMK AO1 T02350064,CXCD,2023-05-27T01:00:00Z,56.32,-119.75,23.5,6.4,120,6,,,,,,TRUE,TRUE,,,,,,,,,,,,,,,,,,,,,,,,,,,METAR,628.0
CXCA 270100Z AUTO 16009KT 16/02 RMK AO1 SLP227 T01630024 55004,CXCA,2023-05-27T01:00:00Z,49.15,-88.35,16.3,2.4,160,9,,,,1022.7,,TRUE,TRUE,,,,,,,,,,,,,,,,-0.4,,,,,,,,,,,METAR,228.0
CXBW 270100Z AUTO 24003KT 22/05 RMK AO1 T02200053,CXBW,2023-05-27T01:00:00Z,49.8,-112.3,22.0,5.3,240,3,,,,,,TRUE,TRUE,,,,,,,,,,,,,,,,,,,,,,,,,,,METAR,823.0
CXBR 270100Z AUTO 10004KT RMK AO1,CXBR,2023-05-27T01:00:00Z,49.62,-113.82,,,100,4,,,,,,TRUE,TRUE,,,,,,,,,,,,,,,,,,,,,,,,,,,METAR,1137.0
CXBO 270100Z AUTO 25007KT 18/04 RMK AO1 T01760042,CXBO,2023-05-27T01:00:00Z,46.83,-71.2,17.6,4.2,250,7,,,,,,TRUE,TRUE,,,,,,,,,,,,,,,,,,,,,,,,,,,METAR,8.0
CXBK 270100Z AUTO 32009KT 16/13 RMK AO1 SLP158 T01550126 55003,CXBK,2023-05-27T01:00:00Z,50.2,-104.7,15.5,12.6,320,9,,,,1015.8,,TRUE,TRUE,,,,,,,,,,,,,,,,-0.3,,,,,,,,,,,METAR,585.0
CXBI 270100Z AUTO 31003KT 12/03 RMK AO1 SLP269 T01210027 56006,CXBI,2023-05-27T01:00:00Z,44.48,-79.55,12.1,2.7,310,3,,,,1026.9,,TRUE,TRUE,,,,,,,,,,,,,,,,-0.6,,,,,,,,,,,METAR,287.0
CXBA 270100Z AUTO 00000KT 19/08 RMK AO1 T01920081,CXBA,2023-05-27T01:00:00Z,52.12,-110.1,19.2,8.1,0,0,,,,,,TRUE,TRUE,,,,,,,,,,,,,,,,,,,,,,,,,,,METAR,696.0
CXAT 270100Z AUTO 29015KT M08/M12 RMK AO1 SOG 06 2015 PK WND 29022/0029 SLP066 T10811117,CXAT,2023-05-27T01:00:00Z,73.0,-85.03,-8.1,-11.7,290,15,,,,1006.6,,TRUE,TRUE,,,,,,,,,,,,,,,,,,,,,,,,,,,METAR,10.0
CXAK 270100Z AUTO 02005KT 21/02 RMK AO1 T02080021,CXAK,2023-05-27T01:00:00Z,52.35,-112.6,20.8,2.1,20,5,,,,,,TRUE,TRUE,,,,,,,,,,,,,,,,,,,,,,,,,,,METAR,799.0
CXAJ 270100Z AUTO 20004KT 22/05 RMK AO1 T02210050,CXAJ,2023-05-27T01:00:00Z,54.78,-112.82,22.1,5.0,200,4,,,,,,TRUE,TRUE,,,,,,,,,,,,,,,,,,,,,,,,,,,METAR,586.0
CXAG 270100Z AUTO 09003KT 21/06 RMK AO1 T02110055,CXAG,2023-05-27T01:00:00Z,53.92,-112.28,21.1,5.5,90,3,,,,,,TRUE,TRUE,,,,,,,,,,,,,,,,,,,,,,,,,,,METAR,632.0
CXAF 270100Z AUTO 21004KT 21/04 RMK AO1 T02140035,CXAF,2023-05-27T01:00:00Z,54.28,-112.97,21.4,3.5,210,4,,,,,,TRUE,TRUE,,,,,,,,,,,,,,,,,,,,,,,,,,,METAR,667.0
CWZW 270100Z AUTO 24014G21KT 11/M04 RMK AO1 PK WND 22022/0024 SLP117 T01141035 53015,CWZW,2023-05-27T01:00:00Z,60.17,-132.73,11.4,-3.5,240,14,21,,,1011.7,,TRUE,TRUE,,,,,,,,,,,,,,,,1.5,,,,,,,,,,,METAR,683.0
CWZQ 270100Z AUTO 29015KT 05/04 RMK AO1 PK WND 30018/0044 SLP152 T00490035 55000,CWZQ,2023-05-27T01:00:00Z,46.53,-61.05,4.9,3.5,290,15,,,,1015.2,,TRUE,TRUE,,,,,,,,,,,,,,,,0.0,,,,,,,,,,,METAR,13.0
CWZO 270100Z AUTO 17013KT RMK AO1,CWZO,2023-05-27T01:00:00Z,48.57,-123.25,,,170,13,,,,,,TRUE,TRUE,,,,,,,,,,,,,,,,,,,,,,,,,,,METAR,5.0
CWZN 270100Z AUTO 24012KT 04/04 RMK AO1 SLP100 T00440044 58002,CWZN,2023-05-27T01:00:00Z,47.37,-55.8,4.4,4.4,240,12,,,,1010.0,,TRUE,TRUE,,,,,,,,,,,,,,,,-0.2,,,,,,,,,,,METAR,63.0
CWZL 270100Z AUTO 04010KT 11/07 RMK AO1 SLP203 T01100071 58005,CWZL,2023-05-27T01:00:00Z,53.03,-131.6,11.0,7.1,40,10,,,,1020.3,,TRUE,TRUE,,,,,,,,,,,,,,,,-0.5,,,,,,,,,,,METAR,17.0
CWZG 270100Z AUTO 09005KT 18/02 RMK AO1 SLP137 T01800022 58007,CWZG,2023-05-27T01:00:00Z,51.2,-115.55,18.0,2.2,90,5,,,,1013.7,,TRUE,TRUE,,,,,,,,,,,,,,,,-0.7,,,,,,,,,,,METAR,1402.0
CWZA 270100Z AUTO 27004KT 27/12 RMK AO1 SLP095 T02710121 56013,CWZA,2023-05-27T01:00:00Z,49.25,-121.77,27.1,12.1,270,4,,,,1009.5,,TRUE,TRUE,,,,,,,,,,,,,,,,-1.3,,,,,,,,,,,METAR,18.0
CWYY 270100Z AUTO 33003KT 28/06 RMK AO1 SLP082 T02780064 56023,CWYY,2023-05-27T01:00:00Z,49.03,-119.43,27.8,6.4,330,3,,,,1008.2,,TRUE,TRUE,,,,,,,,,,,,,,,,-2.3,,,,,,,,,,,METAR,284.0
CWYL 270100Z AUTO 24006KT 17/02 RMK AO1 SLP146 T01700023 57008,CWYL,2023-05-27T01:00:00Z,51.45,-116.33,17.0,2.3,240,6,,,,1014.6,,TRUE,TRUE,,,,,,,,,,,,,,,,-0.8,,,,,,,,,,,METAR,1602.0
CWYJ 270100Z AUTO 24005KT 24/10 RMK AO1 SLP105 T02400095 58019,CWYJ,2023-05-27T01:00:00Z,48.45,-123.3,24.0,9.5,240,5,,,,1010.5,,TRUE,TRUE,,,,,,,,,,,,,,,,-1.9,,,,,,,,,,,METAR,59.0
CWXL 270100Z AUTO 06004KT 21/08 RMK AO1 SLP140 T02100079 57010,CWXL,2023-05-27T01:00:00Z,49.73,-111.45,21.0,7.9,60,4,,,,1014.0,,TRUE,TRUE,,,,,,,,,,,,,,,,-1.0,,,,,,,,,,,METAR,815.0
CWXI 270100Z AUTO 04020KT 02/02 RMK AO1 PK WND 05027/0012 SLP103 T00230023 56018,CWXI,2023-05-27T01:00:00Z,51.02,-57.1,2.3,2.3,40,20,,,,1010.3,,TRUE,TRUE,,,,,,,,,,,,,,,,-1.8,,,,,,,,,,,METAR,15.0
CWXC 270100Z AUTO 14001KT 12/02 RMK AO1 SLP212 T01150020 52004,CWXC,2023-05-27T01:00:00Z,48.88,-71.03,11.5,2.0,140,1,,,,1021.2,,TRUE,TRUE,,,,,,,,,,,,,,,,0.4,,,,,,,,,,,METAR,306.0
CWXA 270100Z AUTO 00034KT 18/03 RMK AO1 SLP167 T01830026 57011,CWXA,2023-05-27T01:00:00Z,51.07,-115.07,18.3,2.6,0,34,,,,1016.7,,TRUE,TRUE,,,,,,,,,,,,,,,,-1.1,,,,,,,,,,,METAR,1303.0
CWWZ 270100Z AUTO 15002KT 15/09 RMK AO1 SLP259 T01460094 56008,CWWZ,2023-05-27T01:00:00Z,43.25,-79.22,14.6,9.4,150,2,,,,1025.9,,TRUE,TRUE,,,,,,,,,,,,,,,,-0.8,,,,,,,,,,,METAR,75.0
CWWS 270100Z AUTO 01016G21KT 09/08 RMK AO1 8PAST HR 7017 PK WND 28033/0018 SLP114 P0007 T00860082 50018,CWWS,2023-05-27T01:00:00Z,52.82,-97.62,8.6,8.2,10,16,21,,,1011.4,,TRUE,TRUE,,,,,,,,,,,,,,,,1.8,,,,,0.07,,,,,,METAR,220.0
CWWL 270100Z AUTO 36019KT 11/06 RMK AO1 PK WND 35024/0025 SLP189 T01060064 58004,CWWL,2023-05-27T01:00:00Z,53.5,-130.63,10.6,6.4,360,19,,,,1018.9,,TRUE,TRUE,,,,,,,,,,,,,,,,-0.4,,,,,,,,,,,METAR,8.0
CWWK 270100Z AUTO 24002KT 20/13 RMK AO1 SLP110 T02020131 56016,CWWK,2023-05-27T01:00:00Z,49.02,-122.78,20.2,13.1,240,2,,,,1011.0,,TRUE,TRUE,,,,,,,,,,,,,,,,-1.6,,,,,,,,,,,METAR,10.0
CWWF 270100Z AUTO 34007KT 17/13 RMK AO1 SLP154 T01690126 55000,CWWF,2023-05-27T01:00:00Z,49.7,-103.8,16.9,12.6,340,7,,,,1015.4,,TRUE,TRUE,,,,,,,,,,,,,,,,0.0,,,,,,,,,,,METAR,583.0
CWWE 270100Z AUTO 31007KT 09/05 RMK AO1 PK WND 32018/0020 SLP210 T00890048 53013,CWWE,2023-05-27T01:00:00Z,43.98,-64.67,8.9,4.8,310,7,,,,1021.0,,TRUE,TRUE,,,,,,,,,,,,,,,,1.3,,,,,,,,,,,METAR,4.0
CWWB 270100Z AUTO 06002KT 15/07 RMK AO1 SLP263 T01540068 55002,CWWB,2023-05-27T01:00:00Z,43.3,-79.78,15.4,6.8,60,2,,,,1026.3,,TRUE,TRUE,,,,,,,,,,,,,,,,-0.2,,,,,,,,,,,METAR,77.0
CWWA 270100Z AUTO 21001KT 23/11 RMK AO1 SLP111 T02320114 56014,CWWA,2023-05-27T01:00:00Z,49.35,-123.18,23.2,11.4,210,1,,,,1011.1,,TRUE,TRUE,,,,,,,,,,,,,,,,-1.4,,,,,,,,,,,METAR,172.0
CWVU 270100Z AUTO 25008KT 08/06 RMK AO1 SLP217 T00760060 53006,CWVU,2023-05-27T01:00:00Z,44.28,-66.33,7.6,6.0,250,8,,,,1021.7,,TRUE,TRUE,,,,,,,,,,,,,,,,0.6,,,,,,,,,,,METAR,4.0
CWVT 270100Z AUTO 08002KT 21/04 RMK AO1 SLP158 T02060037 56008,CWVT,2023-05-27T01:00:00Z,55.83,-108.42,20.6,3.7,80,2,,,,1015.8,,TRUE,TRUE,,,,,,,,,,,,,,,,-0.8,,,,,,,,,,,METAR,431.0
CWVQ 270100Z AUTO 25005KT 17/03 RMK AO1 SLP234 T01680029 55001,CWVQ,2023-05-27T01:00:00Z,45.42,-73.92,16.8,2.9,250,5,,,,1023.4,,TRUE,TRUE,,,,,,,,,,,,,,,,-0.1,,,,,,,,,,,METAR,38.0
CWVP 270100Z AUTO 08004KT 16/07 RMK AO1 SLP149 T01600067 57008,CWVP,2023-05-27T01:00:00Z,49.63,-109.52,16.0,6.7,80,4,,,,1014.9,,TRUE,TRUE,,,,,,,,,,,,,,,,-0.8,,,,,,,,,,,METAR,1269.0
CWVN 270100Z AUTO 04012KT 19/09 RMK AO1 SLP140 T01880091 56014,CWVN,2023-05-27T01:00:00Z,49.07,-107.58,18.8,9.1,40,12,,,,1014.0,,TRUE,TRUE,,,,,,,,,,,,,,,,-1.4,,,,,,,,,,,METAR,792.0
CWVI 270100Z AUTO 07005KT 22/04 RMK AO1 SLP146 T02170036 57010,CWVI,2023-05-27T01:00:00Z,53.52,-112.1,21.7,3.6,70,5,,,,1014.6,,TRUE,TRUE,,,,,,,,,,,,,,,,-1.0,,,,,,,,,,,METAR,640.0
CWVF 270100Z AUTO 29004KT 18/15 RMK AO1 T01750153,CWVF,2023-05-27T01:00:00Z,49.1,-123.3,17.5,15.3,290,4,,,,,,TRUE,TRUE,,,,,,,,,,,,,,,,,,,,,,,,,,,METAR,13.0
CWUX 270100Z AUTO 26008KT 14/02 RMK AO1 SLP215 T01440015 50006,CWUX,2023-05-27T01:00:00Z,48.3,-70.93,14.4,1.5,260,8,,,,1021.5,,TRUE,TRUE,,,,,,,,,,,,,,,,0.6,,,,,,,,,,,METAR,150.0
CWUW 270100Z AUTO 27018KT ////SM ////// M13/M14 A2978,CWUW,2023-05-27T01:00:00Z,68.62,-71.12,-13.0,-14.0,270,18,,,29.778543,,,TRUE,,,,,,,,,,,,,,,,,,,,,,,,,,,,METAR,173.0
CWUS 270100Z AUTO 05001KT 24/08 RMK AO1 SLP094 T02420084 56019,CWUS,2023-05-27T01:00:00Z,49.57,-119.65,24.2,8.4,50,1,,,,1009.4,,TRUE,TRUE,,,,,,,,,,,,,,,,-1.9,,,,,,,,,,,METAR,455.0
CWTY 270100Z AUTO 28003KT 18/02 RMK AO1 SLP220 T01820022 53001,CWTY,2023-05-27T01:00:00Z,46.35,-72.52,18.2,2.2,280,3,,,,1022.0,,TRUE,TRUE,,,,,,,,,,,,,,,,0.1,,,,,,,,,,,METAR,8.0
CWTT 270100Z AUTO 25003KT 12/06 RMK AO1 T01210055,CWTT,2023-05-27T01:00:00Z,45.27,-72.17,12.1,5.5,250,3,,,,,,TRUE,TRUE,,,,,,,,,,,,,,,,,,,,,,,,,,,METAR,210.0
CWTN 270100Z AUTO 28002KT 12/08 RMK AO1 SLP205 T01180078 53011,CWTN,2023-05-27T01:00:00Z,47.07,-70.78,11.8,7.8,280,2,,,,1020.5,,TRUE,TRUE,,,,,,,,,,,,,,,,1.1,,,,,,,,,,,METAR,5.0
CWTG 270100Z AUTO 26012KT 09/06 RMK AO1 SLP167 T00870059 56006,CWTG,2023-05-27T01:00:00Z,49.32,-67.37,8.7,5.9,260,12,,,,1016.7,,TRUE,TRUE,,,,,,,,,,,,,,,,-0.6,,,,,,,,,,,METAR,6.0
CWTA 270100Z AUTO 19001KT 18/02 RMK AO1 SLP232 T01790022 53002,CWTA,2023-05-27T01:00:00Z,45.5,-73.58,17.9,2.2,190,1,,,,1023.2,,TRUE,TRUE,,,,,,,,,,,,,,,,0.2,,,,,,,,,,,METAR,71.0
CWSW 270100Z 34008G16KT 320V020 20SM -RA FEW017 SCT055TCU BKN062 BKN090 13/11 A2996 RMK SF1TCU3NS3AC1 SF TR HZ ALQDS LST STFD OBS/NXT 271300Z SLP154 DENSITY ALT 4500FT,CWSW,2023-05-27T01:00:00Z,49.83,-114.87,13.0,11.0,340,8,16,20.0,29.958662,1015.4,,,,,,,,,-RA,FEW,1700,SCT,5500,BKN,6200,BKN,9000,VFR,,,,,,,,,,,,METAR,1173.0
CWST 270100Z AUTO 22002KT 10/06 RMK AO1 SLP199 T01010055 55000,CWST,2023-05-27T01:00:00Z,47.35,-70.02,10.1,5.5,220,2,,,,1019.9,,TRUE,TRUE,,,,,,,,,,,,,,,,0.0,,,,,,,,,,,METAR,31.0
CWSS 270100Z AUTO 27001KT 07/06 RMK AO1 SLP216 T00690057 55004,CWSS,2023-05-27T01:00:00Z,45.2,-67.25,6.9,5.7,270,1,,,,1021.6,,TRUE,TRUE,,,,,,,,,,,,,,,,-0.4,,,,,,,,,,,METAR,27.0
CWSR 270100Z AUTO 33002KT 18/05 RMK AO1 SLP157 T01820053 57005,CWSR,2023-05-27T01:00:00Z,53.37,-107.55,18.2,5.3,330,2,,,,1015.7,,TRUE,TRUE,,,,,,,,,,,,,,,,-0.5,,,,,,,,,,,METAR,589.0
CWSP 270100Z AUTO 30022G28KT 11/10 RMK AO1 PK WND 29030/0026 SLP117 T01050103 56010,CWSP,2023-05-27T01:00:00Z,48.38,-123.92,10.5,10.3,300,22,28,,,1011.7,,TRUE,TRUE,,,,,,,,,,,,,,,,-1.0,,,,,,,,,,,METAR,2.0
CWSL 270100Z AUTO 02001KT 25/14 RMK AO1 SLP092 T02450140 56019,CWSL,2023-05-27T01:00:00Z,50.7,-119.28,24.5,14.0,20,1,,,,1009.2,,TRUE,TRUE,,,,,,,,,,,,,,,,-1.9,,,,,,,,,,,METAR,353.0
CWSK 270100Z AUTO 16005KT 26/10 RMK AO1 SLP093 T02560098 56008,CWSK,2023-05-27T01:00:00Z,49.78,-123.17,25.6,9.8,160,5,,,,1009.3,,TRUE,TRUE,,,,,,,,,,,,,,,,-0.8,,,,,,,,,,,METAR,59.0
CWSG 270100Z AUTO 24011KT 09/04 RMK AO1 SLP170 T00920038 56003,CWSG,2023-05-27T01:00:00Z,49.12,-66.65,9.2,3.8,240,11,,,,1017.0,,TRUE,TRUE,,,,,,,,,,,,,,,,-0.3,,,,,,,,,,,METAR,5.0
CWSF 270100Z AUTO 16005KT 07/06 RMK AO1 SLP167 T00660055 57007,CWSF,2023-05-27T01:00:00Z,49.25,-65.32,6.6,5.5,160,5,,,,1016.7,,TRUE,TRUE,,,,,,,,,,,,,,,,-0.7,,,,,,,,,,,METAR,15.0
CWSD 270100Z AUTO 31005KT 05/05 RMK AO1 3PAST HR 1001 SLP187 P0001 T00540053 50003,CWSD,2023-05-27T01:00:00Z,46.43,-63.85,5.4,5.3,310,5,,,,1018.7,,TRUE,TRUE,,,,,,,,,,,,,,,,0.3,,,,,0.01,,,,,,METAR,12.0
CWSA 270100Z AUTO 24015G20KT 7SM 07/06 A3005 RMK CLD MISG SLP178,CWSA,2023-05-27T01:00:00Z,43.93,-60.0,7.0,6.0,240,15,20,7.0,30.050198,1017.8,,TRUE,,,,,,,,,,,,,,,,,,,,,,,,,,,,METAR,4.0
CWRZ 270100Z AUTO 26008KT 06/05 RMK AO1 SLP171 T00600051 58008,CWRZ,2023-05-27T01:00:00Z,48.42,-64.32,6.0,5.1,260,8,,,,1017.1,,TRUE,TRUE,,,,,,,,,,,,,,,,-0.8,,,,,,,,,,,METAR,16.0
CWRY 270100Z AUTO 00000KT 17/08 RMK AO1 SLP150 T01700075 56009,CWRY,2023-05-27T01:00:00Z,49.12,-112.05,17.0,7.5,0,0,,,,1015.0,,TRUE,TRUE,,,,,,,,,,,,,,,,-0.9,,,,,,,,,,,METAR,1048.0
CWRX 270100Z AUTO ///// ////SM ////// M07/M10 A2991,CWRX,2023-05-27T01:00:00Z,69.07,-79.07,-7.0,-10.0,,,,,29.911417,,,TRUE,,,,,,,,,,,,,,,,,,,,,,,,,,,,METAR,39.0
CWRU 270100Z AUTO 32038KT 10/ RMK AO1 PK WND 32041/0007 SLP133 T0095 58011,CWRU,2023-05-27T01:00:00Z,50.12,-127.93,9.5,,320,38,,,,1013.3,,TRUE,TRUE,,,,,,,,,,,,,,,,-1.1,,,,,,,,,,,METAR,76.0
CWRT 270100Z AUTO 14008KT 16/07 RMK AO1 SLP149 T01630068 56010,CWRT,2023-05-27T01:00:00Z,49.62,-114.47,16.3,6.8,140,8,,,,1014.9,,TRUE,TRUE,,,,,,,,,,,,,,,,-1.0,,,,,,,,,,,METAR,1311.0
CWRO 270100Z AUTO 30013KT 12/ RMK AO1 SLP201 T0118,CWRO,2023-05-27T01:00:00Z,54.17,-131.67,11.8,,300,13,,,,1020.1,,TRUE,TRUE,,,,,,,,,,,,,,,,,,,,,,,,,,,METAR,7.0
CWRN 270100Z AUTO 28011KT 05/05 RMK AO1 SLP166 T00520046 51004,CWRN,2023-05-27T01:00:00Z,45.35,-60.98,5.2,4.6,280,11,,,,1016.6,,TRUE,TRUE,,,,,,,,,,,,,,,,0.4,,,,,,,,,,,METAR,8.0
CWRM 270100Z AUTO 13005KT 19/04 RMK AO1 SLP124 T01870041 58010,CWRM,2023-05-27T01:00:00Z,52.42,-114.92,18.7,4.1,130,5,,,,1012.4,,TRUE,TRUE,,,,,,,,,,,,,,,,-1.0,,,,,,,,,,,METAR,986.0
CWRK 270100Z AUTO 00000KT 13/05 RMK AO1 SLP249 T01290054 55005,CWRK,2023-05-27T01:00:00Z,45.07,-77.87,12.9,5.4,0,0,,,,1024.9,,TRUE,TRUE,,,,,,,,,,,,,,,,-0.5,,,,,,,,,,,METAR,328.0
CWRJ 270100Z AUTO 06004KT 20/07 RMK AO1 SLP151 T01950067 58009,CWRJ,2023-05-27T01:00:00Z,51.57,-107.92,19.5,6.7,60,4,,,,1015.1,,TRUE,TRUE,,,,,,,,,,,,,,,,-0.9,,,,,,,,,,,METAR,586.0
CWRA 270100Z AUTO 25020KT 04/04 RMK AO1 PK WND 26029/0036 SLP116 T00380038 53002,CWRA,2023-05-27T01:00:00Z,46.65,-53.07,3.8,3.8,250,20,,,,1011.6,,TRUE,TRUE,,,,,,,,,,,,,,,,0.2,,,,,,,,,,,METAR,4.0
CWQV 270100Z AUTO 28007KT 15/ RMK AO1 PK WND 28017/0021 T0152,CWQV,2023-05-27T01:00:00Z,48.27,-70.12,15.2,,280,7,,,,,,TRUE,TRUE,,,,,,,,,,,,,,,,,,,,,,,,,,,METAR,4.0
CWQS 270100Z AUTO 29007KT 10/05 RMK AO1 SLP204 T01030050 58008,CWQS,2023-05-27T01:00:00Z,53.32,-132.77,10.3,5.0,290,7,,,,1020.4,,TRUE,TRUE,,,,,,,,,,,,,,,,-0.8,,,,,,,,,,,METAR,10.0
CWQR 270100Z AUTO 23009KT 05/04 RMK AO1 T00500043,CWQR,2023-05-27T01:00:00Z,50.22,-64.22,5.0,4.3,230,9,,,,,,TRUE,TRUE,,,,,,,,,,,,,,,,,,,,,,,,,,,METAR,9.0
CWQP 270100Z AUTO 25005KT 09/06 RMK AO1 SLP261 T00870055 55008,CWQP,2023-05-27T01:00:00Z,43.83,-77.15,8.7,5.5,250,5,,,,1026.1,,TRUE,TRUE,,,,,,,,,,,,,,,,-0.8,,,,,,,,,,,METAR,77.0
CWQO 270100Z AUTO 23008KT 10/04 RMK AO1 PK WND 23017/0007 T00950044,CWQO,2023-05-27T01:00:00Z,48.42,-68.9,9.5,4.4,230,8,,,,,,TRUE,TRUE,,,,,,,,,,,,,,,,,,,,,,,,,,,METAR,7.0
CWQK 270100Z AUTO 26029G34KT 11/10 RMK AO1 PK WND 26034/0059 SLP101 T01090103 58023,CWQK,2023-05-27T01:00:00Z,48.3,-123.53,10.9,10.3,260,29,34,,,1010.1,,TRUE,TRUE,,,,,,,,,,,,,,,,-2.3,,,,,,,,,,,METAR,5.0
CWQH 270100Z AUTO 18003KT 14/03 RMK AO1 SLP234 T01400033 55001,CWQH,2023-05-27T01:00:00Z,45.37,-71.82,14.0,3.3,180,3,,,,1023.4,,TRUE,TRUE,,,,,,,,,,,,,,,,-0.1,,,,,,,,,,,METAR,181.0
CWPZ 270100Z AUTO 16003KT 17/11 RMK AO1 SLP136 T01720108 58015,CWPZ,2023-05-27T01:00:00Z,54.38,-125.97,17.2,10.8,160,3,,,,1013.6,,TRUE,TRUE,,,,,,,,,,,,,,,,-1.5,,,,,,,,,,,METAR,715.0
CWPR 270100Z AUTO 36001KT 25/02 RMK AO1 SLP097 T02500015 58015,CWPR,2023-05-27T01:00:00Z,49.47,-120.52,25.0,1.5,360,1,,,,1009.7,,TRUE,TRUE,,,,,,,,,,,,,,,,-1.5,,,,,,,,,,,METAR,703.0
CWPO 270100Z AUTO 19022G29KT 27/11 RMK AO1 PK WND 19034/0005 SLP146 T02670111 55007,CWPO,2023-05-27T01:00:00Z,49.2,-98.9,26.7,11.1,190,22,29,,,1014.6,,TRUE,TRUE,,,,,,,,,,,,,,,,-0.7,,,,,,,,,,,METAR,471.0
CWPK 270100Z AUTO 00000KT 13/01 RMK AO1 SLP244 T01330010 56004,CWPK,2023-05-27T01:00:00Z,47.92,-74.62,13.3,1.0,0,0,,,,1024.4,,TRUE,TRUE,,,,,,,,,,,,,,,,-0.4,,,,,,,,,,,METAR,443.0
CWPE 270100Z AUTO 30002KT 09/06 RMK AO1 SLP212 T00880062 55002,CWPE,2023-05-27T01:00:00Z,45.07,-66.47,8.8,6.2,300,2,,,,1021.2,,TRUE,TRUE,,,,,,,,,,,,,,,,-0.2,,,,,,,,,,,METAR,9.0
CWPD 270100Z AUTO 17003KT 09/00 RMK AO1 SLP211 T00910000 53008,CWPD,2023-05-27T01:00:00Z,47.57,-71.22,9.1,0.0,170,3,,,,1021.1,,TRUE,TRUE,,,,,,,,,,,,,,,,0.8,,,,,,,,,,,METAR,795.0
CWOY 270100Z AUTO 35002KT 14/12 RMK AO1 SLP158 T01400120 58003,CWOY,2023-05-27T01:00:00Z,51.77,-104.2,14.0,12.0,350,2,,,,1015.8,,TRUE,TRUE,,,,,,,,,,,,,,,,-0.3,,,,,,,,,,,METAR,557.0
CWOE 270100Z AUTO 06010KT 20/08 RMK AO1 SLP134 T02030078 56010,CWOE,2023-05-27T01:00:00Z,49.12,-110.47,20.3,7.8,60,10,,,,1013.4,,TRUE,TRUE,,,,,,,,,,,,,,,,-1.0,,,,,,,,,,,METAR,931.0
CWOD 270100Z AUTO 27009KT 13/01 RMK AO1 SLP224 T01260011 55004,CWOD,2023-05-27T01:00:00Z,48.85,-72.55,12.6,1.1,270,9,,,,1022.4,,TRUE,TRUE,,,,,,,,,,,,,,,,-0.4,,,,,,,,,,,METAR,150.0
CWOC 270100Z AUTO 08002KT 06/06 RMK AO1 SLP173 T00640061 57007,CWOC,2023-05-27T01:00:00Z,48.02,-65.32,6.4,6.1,80,2,,,,1017.3,,TRUE,TRUE,,,,,,,,,,,,,,,,-0.7,,,,,,,,,,,METAR,42.0
CWOB 270100Z AUTO 36020G28KT ////SM ////// ///// A2981,CWOB,2023-05-27T01:00:00Z,63.33,-64.15,,,360,20,28,,29.811024,,,TRUE,,,,,,,,,,,,,,,,,,,,,,,,,,,,METAR,369.0
CWNZ 270100Z AUTO 24007KT 23/07 RMK AO1 PK WND 25019/0009 SLP208 T02250066 55000,CWNZ,2023-05-27T01:00:00Z,49.75,-84.17,22.5,6.6,240,7,,,,1020.8,,TRUE,TRUE,,,,,,,,,,,,,,,,0.0,,,,,,,,,,,METAR,261.0
CWNQ 270100Z AUTO 30001KT 16/07 RMK AO1 SLP221 T01580070 53001,CWNQ,2023-05-27T01:00:00Z,46.22,-72.65,15.8,7.0,300,1,,,,1022.1,,TRUE,TRUE,,,,,,,,,,,,,,,,0.1,,,,,,,,,,,METAR,9.0
CWNP 270100Z AUTO 00000KT 26/07 RMK AO1 SLP093 T02560069 57019,CWNP,2023-05-27T01:00:00Z,50.27,-117.82,25.6,6.9,0,0,,,,1009.3,,TRUE,TRUE,,,,,,,,,,,,,,,,-1.9,,,,,,,,,,,METAR,517.0
CWNM 270100Z AUTO 01003KT 25/10 RMK AO1 SLP101 T02450099 56022,CWNM,2023-05-27T01:00:00Z,49.5,-117.3,24.5,9.9,10,3,,,,1010.1,,TRUE,TRUE,,,,,,,,,,,,,,,,-2.2,,,,,,,,,,,METAR,533.0
CWNK 270100Z AUTO 21021G29KT 29/11 RMK AO1 PK WND 20029/0050 SLP134 T02940107 55007,CWNK,2023-05-27T01:00:00Z,49.5,-98.03,29.4,10.7,210,21,29,,,1013.4,,TRUE,TRUE,,,,,,,,,,,,,,,,-0.7,,,,,,,,,,,METAR,271.0
CWNH 270100Z AUTO 32004KT 16/02 RMK AO1 SLP196 T01560019 55000,CWNH,2023-05-27T01:00:00Z,47.8,-69.53,15.6,1.9,320,4,,,,1019.6,,TRUE,TRUE,,,,,,,,,,,,,,,,0.0,,,,,,,,,,,METAR,147.0
CWNE 270100Z AUTO 30008KT 06/05 RMK AO1 2PAST HR 5001 SLP180 P0001 T00600049 50002,CWNE,2023-05-27T01:00:00Z,47.07,-64.0,6.0,4.9,300,8,,,,1018.0,,TRUE,TRUE,,,,,,,,,,,,,,,,0.2,,,,,0.01,,,,,,METAR,5.0
CWNC 270100Z AUTO 32003KT 15/01 RMK AO1 SLP256 T01460007 55009,CWNC,2023-05-27T01:00:00Z,43.95,-78.17,14.6,0.7,320,3,,,,1025.6,,TRUE,TRUE,,,,,,,,,,,,,,,,-0.9,,,,,,,,,,,METAR,71.0
CWMT 270100Z AUTO 09009KT 22/08 RMK AO1 SLP060 T02190075 58019,CWMT,2023-05-27T01:00:00Z,63.13,-117.25,21.9,7.5,90,9,,,,1006.0,,TRUE,TRUE,,,,,,,,,,,,,,,,-1.9,,,,,,,,,,,METAR,274.0
CWMQ 270100Z AUTO 07007KT 20/08 RMK AO1 SLP142 T02010075 57011,CWMQ,2023-05-27T01:00:00Z,49.9,-109.47,20.1,7.5,70,7,,,,1014.2,,TRUE,TRUE,,,,,,,,,,,,,,,,-1.1,,,,,,,,,,,METAR,767.0
CWMM 270100Z AUTO 25004KT 27/13 RMK AO1 SLP100 T02730128 56017,CWMM,2023-05-27T01:00:00Z,49.22,-122.68,27.3,12.8,250,4,,,,1010.0,,TRUE,TRUE,,,,,,,,,,,,,,,,-1.7,,,,,,,,,,,METAR,2.0
CWMJ 270100Z AUTO 00000KT 14/07 RMK AO1 SLP241 T01410066 57006,CWMJ,2023-05-27T01:00:00Z,46.27,-76.0,14.1,6.6,0,0,,,,1024.1,,TRUE,TRUE,,,,,,,,,,,,,,,,-0.6,,,,,,,,,,,METAR,198.0
CWME 270100Z AUTO 24019KT 18/12 RMK AO1 PK WND 23022/0058 SLP144 T01770123 58014,CWME,2023-05-27T01:00:00Z,52.18,-127.47,17.7,12.3,240,19,,,,1014.4,,TRUE,TRUE,,,,,,,,,,,,,,,,-1.4,,,,,,,,,,,METAR,23.0
CWLY 270100Z AUTO VRB02KT 9SM CLR 26/08 A2973 RMK SLP069 DENSITY ALT 2400FT,CWLY,2023-05-27T01:00:00Z,50.22,-121.58,26.0,8.0,0,2,,9.0,29.731298,1006.9,,TRUE,,,,,,,,CLR,,,,,,,,VFR,,,,,,,,,,,,METAR,228.0
CWLX 270100Z AUTO ///// ////SM ////// M09/M10 A2990,CWLX,2023-05-27T01:00:00Z,68.9,-75.15,-9.0,-10.0,,,,,29.899607,,,TRUE,,,,,,,,,,,,,,,,,,,,,,,,,,,,METAR,129.0
CWLS 270100Z AUTO 34003KT 15/01 RMK AO1 SLP271 T01470012 53004,CWLS,2023-05-27T01:00:00Z,43.97,-80.75,14.7,1.2,340,3,,,,1027.1,,TRUE,TRUE,,,,,,,,,,,,,,,,0.4,,,,,,,,,,,METAR,413.0
CWLP 270100Z AUTO 30017G23KT 11/09 RMK AO1 PK WND 29023/0052 SLP169 T01120090 58003,CWLP,2023-05-27T01:00:00Z,50.93,-127.63,11.2,9.0,300,17,23,,,1016.9,,TRUE,TRUE,,,,,,,,,,,,,,,,-0.3,,,,,,,,,,,METAR,15.0
CWLM 270100Z AUTO 24012KT 17/10 RMK AO1 PK WND 24017/0005 SLP108 T01660099 58019,CWLM,2023-05-27T01:00:00Z,48.42,-123.32,16.6,9.9,240,12,,,,1010.8,,TRUE,TRUE,,,,,,,,,,,,,,,,-1.9,,,,,,,,,,,METAR,62.0
CWLE 270100Z AUTO 08005KT 19/09 RMK AO1 SLP157 T01890090 58008,CWLE,2023-05-27T01:00:00Z,50.95,-107.15,18.9,9.0,80,5,,,,1015.7,,TRUE,TRUE,,,,,,,,,,,,,,,,-0.8,,,,,,,,,,,METAR,666.0
CWLC 270100Z AUTO 28016KT 11/06 RMK AO1 PK WND 28019/0006 T01070062,CWLC,2023-05-27T01:00:00Z,54.3,-130.62,10.7,6.2,280,16,,,,,,TRUE,TRUE,,,,,,,,,,,,,,,,,,,,,,,,,,,METAR,27.0
CWLB 270100Z AUTO 20002KT 21/06 RMK AO1 SLP145 T02080061 56011,CWLB,2023-05-27T01:00:00Z,54.77,-112.02,20.8,6.1,200,2,,,,1014.5,,TRUE,TRUE,,,,,,,,,,,,,,,,-1.1,,,,,,,,,,,METAR,561.0
CWKX 270100Z AUTO 25012G21KT 14/M04 RMK AO1 PK WND 24023/0035 SLP124 T01441041 51013,CWKX,2023-05-27T01:00:00Z,58.43,-130.02,14.4,-4.1,250,12,21,,,1012.4,,TRUE,TRUE,,,,,,,,,,,,,,,,1.3,,,,,,,,,,,METAR,807.0
CWKO 270100Z AUTO 02008KT 16/11 RMK AO1 SLP157 T01630108 55011,CWKO,2023-05-27T01:00:00Z,49.17,-105.97,16.3,10.8,20,8,,,,1015.7,,TRUE,TRUE,,,,,,,,,,,,,,,,-1.1,,,,,,,,,,,METAR,914.0
CWKM 270100Z AUTO 09027G34KT ////SM OVC013 02/00 A2960,CWKM,2023-05-27T01:00:00Z,69.6,-140.17,2.0,0.0,90,27,34,,29.601377,,,TRUE,,,,,,,,OVC,1300,,,,,,,,,,,,,,,,,,,METAR,8.0
CWKH 270100Z AUTO 24/09 RMK AO1 SLP102 T02380091 56015,CWKH,2023-05-27T01:00:00Z,48.57,-123.55,23.8,9.1,,,,,,1010.2,,TRUE,TRUE,,,,,,,,,,,,,,,,-1.5,,,,,,,,,,,METAR,327.0
CWKG 270100Z AUTO 28002KT 07/05 RMK AO1 SLP210 T00650049 51008,CWKG,2023-05-27T01:00:00Z,44.43,-65.2,6.5,4.9,280,2,,,,1021.0,,TRUE,TRUE,,,,,,,,,,,,,,,,0.8,,,,,,,,,,,METAR,154.0
CWJX 270100Z AUTO 09005KT 21/06 RMK AO1 SOG 01 8012 SLP139 T02100059,CWJX,2023-05-27T01:00:00Z,50.88,-109.5,21.0,5.9,90,5,,,,1013.9,,TRUE,TRUE,,,,,,,,,,,,,,,,,,,,,,,,,,,METAR,671.0
CWJW 270100Z AUTO 19005KT 24/01 RMK AO1 SOG 01 8013 SLP110 T02390005,CWJW,2023-05-27T01:00:00Z,52.93,-118.03,23.9,0.5,190,5,,,,1011.0,,TRUE,TRUE,,,,,,,,,,,,,,,,,,,,,,,,,,,METAR,1022.0
CWJV 270100Z AUTO 30001KT 26/08 RMK AO1 SLP093 T02620077 58016,CWJV,2023-05-27T01:00:00Z,50.22,-119.18,26.2,7.7,300,1,,,,1009.3,,TRUE,TRUE,,,,,,,,,,,,,,,,-1.6,,,,,,,,,,,METAR,487.0
CWJU 270100Z AUTO 25005KT 10/05 RMK AO1 SLP207 T01040052 58008,CWJU,2023-05-27T01:00:00Z,54.25,-133.07,10.4,5.2,250,5,,,,1020.7,,TRUE,TRUE,,,,,,,,,,,,,,,,-0.8,,,,,,,,,,,METAR,47.0
CWJT 270100Z AUTO 00000KT 13/05 RMK AO1 SLP238 T01320050 56005,CWJT,2023-05-27T01:00:00Z,46.07,-74.57,13.2,5.0,0,0,,,,1023.8,,TRUE,TRUE,,,,,,,,,,,,,,,,-0.5,,,,,,,,,,,METAR,236.0
CWJR 270100Z AUTO 31007KT 24/11 RMK AO1 SLP108 T02360106 57017,CWJR,2023-05-27T01:00:00Z,49.03,-116.5,23.6,10.6,310,7,,,,1010.8,,TRUE,TRUE,,,,,,,,,,,,,,,,-1.7,,,,,,,,,,,METAR,642.0
CWJI 270100Z AUTO 02010KT 17/10 RMK AO1 SLP151 T01740102 58010,CWJI,2023-05-27T01:00:00Z,49.72,-105.93,17.4,10.2,20,10,,,,1015.1,,TRUE,TRUE,,,,,,,,,,,,,,,,-1.0,,,,,,,,,,,METAR,724.0
CWJH 270100Z AUTO 00000KT 14/10 RMK AO1 SLP157 T01380098 58008,CWJH,2023-05-27T01:00:00Z,56.32,-103.27,13.8,9.8,0,0,,,,1015.7,,TRUE,TRUE,,,,,,,,,,,,,,,,-0.8,,,,,,,,,,,METAR,345.0
CWJD 270100Z AUTO 02003KT 09/08 RMK AO1 3PAST HR 5002 SLP138 P0001 T00880075 50003,CWJD,2023-05-27T01:00:00Z,53.18,-99.27,8.8,7.5,20,3,,,,1013.8,,TRUE,TRUE,,,,,,,,,,,,,,,,0.3,,,,,0.01,,,,,,METAR,222.0
CWJC 270100Z AUTO 22010KT 11/04 RMK AO1 SLP138 T01080035 57017,CWJC,2023-05-27T01:00:00Z,61.13,-100.9,10.8,3.5,220,10,,,,1013.8,,TRUE,TRUE,,,,,,,,,,,,,,,,-1.7,,,,,,,,,,,METAR,340.0
CWJB 270100Z AUTO 17/05 RMK AO1 T01730047,CWJB,2023-05-27T01:00:00Z,46.78,-71.28,17.3,4.7,,,,,,,,TRUE,TRUE,,,,,,,,,,,,,,,,,,,,,,,,,,,METAR,90.0
CWIZ 270100Z AUTO 26003KT 18/01 RMK AO1 T01770013,CWIZ,2023-05-27T01:00:00Z,45.28,-73.33,17.7,1.3,260,3,,,,,,TRUE,TRUE,,,,,,,,,,,,,,,,,,,,,,,,,,,METAR,45.0
CWIW 270100Z AUTO 03007KT 18/12 RMK AO1 SLP155 T01770116 58006,CWIW,2023-05-27T01:00:00Z,51.67,-105.4,17.7,11.6,30,7,,,,1015.5,,TRUE,TRUE,,,,,,,,,,,,,,,,-0.6,,,,,,,,,,,METAR,524.0
CWIT 270100Z AUTO 26002KT 15/03 RMK AO1 SLP232 T01470033 56001,CWIT,2023-05-27T01:00:00Z,45.17,-73.67,14.7,3.3,260,2,,,,1023.2,,TRUE,TRUE,,,,,,,,,,,,,,,,-0.1,,,,,,,,,,,METAR,53.0
CWIS 270100Z AUTO 31004KT 12/M00 RMK AO1 SLP223 T01181003 53003,CWIS,2023-05-27T01:00:00Z,47.28,-70.63,11.8,-0.3,310,4,,,,1022.3,,TRUE,TRUE,,,,,,,,,,,,,,,,0.3,,,,,,,,,,,METAR,720.0
CWIP 270100Z AUTO 14004KT 07/05 RMK AO1 T00650051,CWIP,2023-05-27T01:00:00Z,50.17,-66.43,6.5,5.1,140,4,,,,,,TRUE,TRUE,,,,,,,,,,,,,,,,,,,,,,,,,,,METAR,27.0
CWIL 270100Z AUTO ///// ////SM OVC014 M07/M10 A3002,CWIL,2023-05-27T01:00:00Z,68.32,-100.07,-7.0,-10.0,,,,,30.02067,,,TRUE,,,,,,,,OVC,1400,,,,,,,,,,,,,,,,,,,METAR,28.0
CWIK 270100Z AUTO 30006KT 20/14 RMK AO1 SLP144 T01980135 53003,CWIK,2023-05-27T01:00:00Z,50.37,-102.58,19.8,13.5,300,6,,,,1014.4,,TRUE,TRUE,,,,,,,,,,,,,,,,0.3,,,,,,,,,,,METAR,597.0
CWIJ 270100Z AUTO 05012KT M00/M02 RMK AO1 SLP168 T10021022 58003,CWIJ,2023-05-27T01:00:00Z,65.77,-111.23,-0.2,-2.2,50,12,,,,1016.8,,TRUE,TRUE,,,,,,,,,,,,,,,,-0.3,,,,,,,,,,,METAR,490.0
CWII 270100Z AUTO 20015KT 27/11 RMK AO1 PK WND 20024/0001 SLP129 T02720109 56012,CWII,2023-05-27T01:00:00Z,50.7,-96.57,27.2,10.9,200,15,,,,1012.9,,TRUE,TRUE,,,,,,,,,,,,,,,,-1.2,,,,,,,,,,,METAR,216.0
CWIG 270100Z AUTO 27004KT RMK AO1,CWIG,2023-05-27T01:00:00Z,47.07,-70.53,,,270,4,,,,,,TRUE,TRUE,,,,,,,,,,,,,,,,,,,,,,,,,,,METAR,12.0
CWID 270100Z AUTO 14005KT 25/05 RMK AO1 SLP046 T02540051 56018,CWID,2023-05-27T01:00:00Z,61.32,-117.6,25.4,5.1,140,5,,,,1004.6,,TRUE,TRUE,,,,,,,,,,,,,,,,-1.8,,,,,,,,,,,METAR,160.0
CWHV 270100Z AUTO 23003KT 15/03 RMK AO1 SLP213 T01540027 55001,CWHV,2023-05-27T01:00:00Z,46.2,-70.78,15.4,2.7,230,3,,,,1021.3,,TRUE,TRUE,,,,,,,,,,,,,,,,-0.1,,,,,,,,,,,METAR,227.0
CWHT 270100Z AUTO 23016G25KT 11/M08 RMK AO1 PK WND 20035/0009 SLP063 T01051075 55006,CWHT,2023-05-27T01:00:00Z,60.77,-137.58,10.5,-7.5,230,16,25,,,1006.3,,TRUE,TRUE,,,,,,,,,,,,,,,,-0.6,,,,,,,,,,,METAR,601.0
CWHQ 270100Z AUTO 33004KT 16/02 RMK AO1 T01590018,CWHQ,2023-05-27T01:00:00Z,46.68,-71.97,15.9,1.8,330,4,,,,,,TRUE,TRUE,,,,,,,,,,,,,,,,,,,,,,,,,,,METAR,56.0
CWHO 270100Z AUTO 00027KT 06/01 RMK AO1 SLP151 T00550012 56007,CWHO,2023-05-27T01:00:00Z,55.45,-60.22,5.5,1.2,0,27,,,,1015.1,,TRUE,TRUE,,,,,,,,,,,,,,,,-0.7,,,,,,,,,,,METAR,16.0
CWHL 270100Z AUTO 30016KT 10/06 RMK AO1 PK WND 30018/0000 SLP187 T01040056 58007,CWHL,2023-05-27T01:00:00Z,54.17,-130.35,10.4,5.6,300,16,,,,1018.7,,TRUE,TRUE,,,,,,,,,,,,,,,,-0.7,,,,,,,,,,,METAR,5.0
CWHI 270100Z AUTO 07004KT 21/01 RMK AO1 T02140013,CWHI,2023-05-27T01:00:00Z,51.7,-113.22,21.4,1.3,70,4,,,,,,TRUE,TRUE,,,,,,,,,,,,,,,,,,,,,,,,,,,METAR,906.0
CWGY 270100Z AUTO 14008KT 19/10 RMK AO1 SLP147 T01890095 57011,CWGY,2023-05-27T01:00:00Z,51.67,-110.2,18.9,9.5,140,8,,,,1014.7,,TRUE,TRUE,,,,,,,,,,,,,,,,-1.1,,,,,,,,,,,METAR,709.0
CWGW 270100Z AUTO 35009KT 13/11 RMK AO1 SLP153 T01310107 55000,CWGW,2023-05-27T01:00:00Z,49.75,-114.9,13.1,10.7,350,9,,,,1015.3,,TRUE,TRUE,,,,,,,,,,,,,,,,0.0,,,,,,,,,,,METAR,1137.0
CWGT 270100Z AUTO 34005KT 20/15 RMK AO1 SLP109 T02030148 56014,CWGT,2023-05-27T01:00:00Z,49.48,-124.43,20.3,14.8,340,5,,,,1010.9,,TRUE,TRUE,,,,,,,,,,,,,,,,-1.4,,,,,,,,,,,METAR,5.0
CWGR 270100Z AUTO 32014KT 05/03 RMK AO1 PK WND 33021/0034 SLP151 T00460033 53003,CWGR,2023-05-27T01:00:00Z,47.42,-61.77,4.6,3.3,320,14,,,,1015.1,,TRUE,TRUE,,,,,,,,,,,,,,,,0.3,,,,,,,,,,,METAR,4.0
CWGM 270100Z AUTO 10004KT 15/08 RMK AO1 SLP151 T01540077 57008,CWGM,2023-05-27T01:00:00Z,49.13,-113.8,15.4,7.7,100,4,,,,1015.1,,TRUE,TRUE,,,,,,,,,,,,,,,,-0.8,,,,,,,,,,,METAR,1292.0
CWGL 270100Z AUTO 32008KT 15/03 RMK AO1 SLP247 T01530031 55005,CWGL,2023-05-27T01:00:00Z,44.53,-79.22,15.3,3.1,320,8,,,,1024.7,,TRUE,TRUE,,,,,,,,,,,,,,,,-0.5,,,,,,,,,,,METAR,220.0
CWGH 270100Z AUTO 27001KT 14/03 RMK AO1 SLP253 T01350034 55000,CWGH,2023-05-27T01:00:00Z,44.42,-75.85,13.5,3.4,270,1,,,,1025.3,,TRUE,TRUE,,,,,,,,,,,,,,,,0.0,,,,,,,,,,,METAR,76.0
CWGD 270100Z AUTO 01005KT 13/M00 RMK AO1 SLP269 T01281002 56004,CWGD,2023-05-27T01:00:00Z,43.77,-81.72,12.8,-0.2,10,5,,,,1026.9,,TRUE,TRUE,,,,,,,,,,,,,,,,-0.4,,,,,,,,,,,METAR,214.0
CWGB 270100Z AUTO 25007KT 21/ RMK AO1 SLP099 T0208 57017,CWGB,2023-05-27T01:00:00Z,49.35,-124.13,20.8,,250,7,,,,1009.9,,TRUE,TRUE,,,,,,,,,,,,,,,,-1.7,,,,,,,,,,,METAR,6.0
CWFQ 270100Z AUTO 19002KT 14/02 RMK AO1 SLP239 T01390015 56002,CWFQ,2023-05-27T01:00:00Z,45.03,-72.85,13.9,1.5,190,2,,,,1023.9,,TRUE,TRUE,,,,,,,,,,,,,,,,-0.2,,,,,,,,,,,METAR,190.0
CWFJ 270100Z AUTO 18003KT 17/08 RMK AO1 T01680081,CWFJ,2023-05-27T01:00:00Z,49.2,-113.27,16.8,8.1,180,3,,,,,,TRUE,TRUE,,,,,,,,,,,,,,,,,,,,,,,,,,,METAR,1142.0
CWFF 270100Z AUTO 08004KT 16/11 RMK AO1 SLP156 T01570110 56003,CWFF,2023-05-27T01:00:00Z,52.82,-104.6,15.7,11.0,80,4,,,,1015.6,,TRUE,TRUE,,,,,,,,,,,,,,,,-0.3,,,,,,,,,,,METAR,482.0
CWEZ 270100Z AUTO 35001KT 22/14 RMK AO1 SLP100 T02160140 58016,CWEZ,2023-05-27T01:00:00Z,48.78,-123.05,21.6,14.0,350,1,,,,1010.0,,TRUE,TRUE,,,,,,,,,,,,,,,,-1.6,,,,,,,,,,,METAR,23.0
CWEW 270100Z AUTO 27003KT 18/02 RMK AO1 SLP230 T01820020 53004,CWEW,2023-05-27T01:00:00Z,45.82,-73.43,18.2,2.0,270,3,,,,1023.0,,TRUE,TRUE,,,,,,,,,,,,,,,,0.4,,,,,,,,,,,METAR,17.0
CWEU 270100Z 03007G15KT 15SM FEW110 SCT160 BKN200 M05/M12 A2950 RMK AC1AC3CS4 AC TR HALO SLP002,CWEU,2023-05-27T01:00:00Z,80.0,-85.93,-5.0,-12.0,30,7,15,15.0,29.500984,1000.2,,,,,,,,,,FEW,11000,SCT,16000,BKN,20000,,,VFR,,,,,,,,,,,,METAR,2.0
CWER 270100Z AUTO 02006KT RMK AO1,CWER,2023-05-27T01:00:00Z,47.0,-70.82,,,20,6,,,,,,TRUE,TRUE,,,,,,,,,,,,,,,,,,,,,,,,,,,METAR,4.0
CWEQ 270100Z AUTO 07005KT 15/13 RMK AO1 SLP134 T01450134 50001,CWEQ,2023-05-27T01:00:00Z,52.12,-101.22,14.5,13.4,70,5,,,,1013.4,,TRUE,TRUE,,,,,,,,,,,,,,,,0.1,,,,,,,,,,,METAR,331.0
CWEP 270100Z AUTO 31018G23KT 04/04 RMK AO1 8PAST HR 3004 PK WND 31023/0057 SLP166 P0003 T00350038 50008,CWEP,2023-05-27T01:00:00Z,46.45,-61.98,3.5,3.8,310,18,23,,,1016.6,,TRUE,TRUE,,,,,,,,,,,,,,,,0.8,,,,,0.03,,,,,,METAR,9.0
CWEL 270100Z AUTO 02001KT 21/15 RMK AO1 SLP102 T02110153 56017,CWEL,2023-05-27T01:00:00Z,49.22,-123.8,21.1,15.3,20,1,,,,1010.2,,TRUE,TRUE,,,,,,,,,,,,,,,,-1.7,,,,,,,,,,,METAR,0.0
CWEH 270100Z AUTO 07009KT 18/07 RMK AO1 SLP146 T01830067 57010,CWEH,2023-05-27T01:00:00Z,49.43,-108.98,18.3,6.7,70,9,,,,1014.6,,TRUE,TRUE,,,,,,,,,,,,,,,,-1.0,,,,,,,,,,,METAR,1077.0
CWEF 270100Z AUTO 30017KT 04/04 RMK AO1 PK WND 30019/0045 SLP117 T00410038 56004,CWEF,2023-05-27T01:00:00Z,47.22,-60.13,4.1,3.8,300,17,,,,1011.7,,TRUE,TRUE,,,,,,,,,,,,,,,,-0.4,,,,,,,,,,,METAR,27.0
CWEB 270100Z AUTO 00031KT 12/10 RMK AO1 SLP137 T01240100 58012,CWEB,2023-05-27T01:00:00Z,49.38,-126.55,12.4,10.0,0,31,,,,1013.7,,TRUE,TRUE,,,,,,,,,,,,,,,,-1.2,,,,,,,,,,,METAR,1.0
CWDZ 270100Z AUTO 32003KT 23/02 RMK AO1 SLP132 T02310018 58014,CWDZ,2023-05-27T01:00:00Z,51.43,-112.67,23.1,1.8,320,3,,,,1013.2,,TRUE,TRUE,,,,,,,,,,,,,,,,-1.4,,,,,,,,,,,METAR,689.0
CWDV 270100Z AUTO 25004KT 24/06 RMK AO1 SLP211 T02390063 56007,CWDV,2023-05-27T01:00:00Z,49.02,-90.47,23.9,6.3,250,4,,,,1021.1,,TRUE,TRUE,,,,,,,,,,,,,,,,-0.7,,,,,,,,,,,METAR,487.0
CWDQ 270100Z AUTO 02002KT 15/01 RMK AO1 SLP233 T01470010 55000,CWDQ,2023-05-27T01:00:00Z,47.42,-72.78,14.7,1.0,20,2,,,,1023.3,,TRUE,TRUE,,,,,,,,,,,,,,,,0.0,,,,,,,,,,,METAR,174.0
CWDO 270100Z AUTO 26013KT 02/02 RMK AO1 PK WND 26017/0048 SLP072 T00240024 56017,CWDO,2023-05-27T01:00:00Z,49.68,-54.78,2.4,2.4,260,13,,,,1007.2,,TRUE,TRUE,,,,,,,,,,,,,,,,-1.7,,,,,,,,,,,METAR,89.0
CWDM 270100Z AUTO 02009KT 05/04 RMK AO1 3PAST HR 6013 SLP124 P0001 T00470044 50003,CWDM,2023-05-27T01:00:00Z,50.47,-59.63,4.7,4.4,20,9,,,,1012.4,,TRUE,TRUE,,,,,,,,,,,,,,,,0.3,,,,,0.01,,,,,,METAR,2.0
CWDK 270100Z AUTO 18008KT 20/06 RMK AO1 SLP141 T02030059 57011,CWDK,2023-05-27T01:00:00Z,50.02,-113.62,20.3,5.9,180,8,,,,1014.1,,TRUE,TRUE,,,,,,,,,,,,,,,,-1.1,,,,,,,,,,,METAR,1014.0
CWDJ 270100Z AUTO 35010KT 15/12 RMK AO1 SLP153 T01530119 56005,CWDJ,2023-05-27T01:00:00Z,50.4,-104.58,15.3,11.9,350,10,,,,1015.3,,TRUE,TRUE,,,,,,,,,,,,,,,,-0.5,,,,,,,,,,,METAR,576.0
CWDC 270100Z AUTO 21003KT 19/06 RMK AO1 SLP134 T01900058 56008,CWDC,2023-05-27T01:00:00Z,59.57,-108.48,19.0,5.8,210,3,,,,1013.4,,TRUE,TRUE,,,,,,,,,,,,,,,,-0.8,,,,,,,,,,,METAR,311.0
CWDA 270100Z AUTO 00035KT 03/ RMK AO1 T0025,CWDA,2023-05-27T01:00:00Z,50.72,-56.12,2.5,,0,35,,,,,,TRUE,TRUE,,,,,,,,,,,,,,,,,,,,,,,,,,,METAR,30.0
CWCT 270100Z AUTO 34002KT 20/04 RMK AO1 SLP156 T02030035 57011,CWCT,2023-05-27T01:00:00Z,52.07,-111.43,20.3,3.5,340,2,,,,1015.6,,TRUE,TRUE,,,,,,,,,,,,,,,,-1.1,,,,,,,,,,,METAR,793.0
CWCO 270100Z AUTO 27001KT 13/02 RMK AO1 SLP267 T01250016 56011,CWCO,2023-05-27T01:00:00Z,44.5,-80.22,12.5,1.6,270,1,,,,1026.7,,TRUE,TRUE,,,,,,,,,,,,,,,,-1.1,,,,,,,,,,,METAR,182.0
CWCJ 270100Z AUTO 20002KT 12/M01 RMK AO1 SLP253 T01161008 58015,CWCJ,2023-05-27T01:00:00Z,48.6,-86.28,11.6,-0.8,200,2,,,,1025.3,,TRUE,TRUE,,,,,,,,,,,,,,,,-1.5,,,,,,,,,,,METAR,207.0
CWCF 270100Z AUTO 31011G24KT 10/08 RMK AO1 PK WND 28027/0048 SLP120 T00990084 55007,CWCF,2023-05-27T01:00:00Z,52.35,-97.03,9.9,8.4,310,11,24,,,1012.0,,TRUE,TRUE,,,,,,,,,,,,,,,,-0.7,,,,,,,,,,,METAR,219.0
CWBZ 270100Z AUTO 24001KT 13/04 RMK AO1 SLP237 T01340042 55002,CWBZ,2023-05-27T01:00:00Z,45.12,-74.28,13.4,4.2,240,1,,,,1023.7,,TRUE,TRUE,,,,,,,,,,,,,,,,-0.2,,,,,,,,,,,METAR,49.0
CWBY 270100Z AUTO 28001KT 05/04 RMK AO1 SLP170 T00530043 56006,CWBY,2023-05-27T01:00:00Z,49.83,-64.28,5.3,4.3,280,1,,,,1017.0,,TRUE,TRUE,,,,,,,,,,,,,,,,-0.6,,,,,,,,,,,METAR,56.0
CWBV 270100Z AUTO 30013G18KT 06/04 RMK AO1 PK WND 30020/0021 SLP169 T00630037 52010,CWBV,2023-05-27T01:00:00Z,44.82,-62.33,6.3,3.7,300,13,18,,,1016.9,,TRUE,TRUE,,,,,,,,,,,,,,,,1.0,,,,,,,,,,,METAR,16.0
CWBU 270100Z AUTO 05005KT 15/12 RMK AO1 SLP152 T01460121 56003,CWBU,2023-05-27T01:00:00Z,53.33,-104.02,14.6,12.1,50,5,,,,1015.2,,TRUE,TRUE,,,,,,,,,,,,,,,,-0.3,,,,,,,,,,,METAR,369.0
CWBT 270100Z AUTO 26001KT 04/04 RMK AO1 SLP166 T00360035 56009,CWBT,2023-05-27T01:00:00Z,50.27,-64.23,3.6,3.5,260,1,,,,1016.6,,TRUE,TRUE,,,,,,,,,,,,,,,,-0.9,,,,,,,,,,,METAR,12.0
CWBS 270100Z AUTO 32006KT 20/02 RMK AO1 T01980018,CWBS,2023-05-27T01:00:00Z,46.18,-72.92,19.8,1.8,320,6,,,,,,TRUE,TRUE,,,,,,,,,,,,,,,,,,,,,,,,,,,METAR,3.0
CWBO 270100Z AUTO 35002KT 22/04 RMK AO1 SLP139 T02170041 58013,CWBO,2023-05-27T01:00:00Z,50.53,-111.83,21.7,4.1,350,2,,,,1013.9,,TRUE,TRUE,,,,,,,,,,,,,,,,-1.3,,,,,,,,,,,METAR,752.0
CWBK 270100Z AUTO 32020KT 06/04 RMK AO1 4PAST HR 3003 PK WND 32022/0043 SLP179 P0002 T00570043 50004,CWBK,2023-05-27T01:00:00Z,45.77,-62.67,5.7,4.3,320,20,,,,1017.9,,TRUE,TRUE,,,,,,,,,,,,,,,,0.4,,,,,0.02,,,,,,METAR,2.0
CWBA 270100Z AUTO 24003KT 19/04 RMK AO1 T01940035,CWBA,2023-05-27T01:00:00Z,46.72,-79.1,19.4,3.5,240,3,,,,,,TRUE,TRUE,,,,,,,,,,,,,,,,,,,,,,,,,,,METAR,181.0
CWAV 270100Z AUTO 11006KT 19/03 RMK AO1 SLP146 T01890028 56012,CWAV,2023-05-27T01:00:00Z,51.77,-114.67,18.9,2.8,110,6,,,,1014.6,,TRUE,TRUE,,,,,,,,,,,,,,,,-1.2,,,,,,,,,,,METAR,1115.0
CWAR 270100Z AUTO 16018KT 04/04 RMK AO1 PK WND 16022/0032 SLP108 T00390038 56002,CWAR,2023-05-27T01:00:00Z,47.28,-54.0,3.9,3.8,160,18,,,,1010.8,,TRUE,TRUE,,,,,,,,,,,,,,,,-0.2,,,,,,,,,,,METAR,6.0
CWAQ 270100Z AUTO 04007KT 17/12 RMK AO1 SLP155 T01720122 55004,CWAQ,2023-05-27T01:00:00Z,49.05,-105.48,17.2,12.2,40,7,,,,1015.5,,TRUE,TRUE,,,,,,,,,,,,,,,,-0.4,,,,,,,,,,,METAR,761.0
CWAJ 270100Z AUTO 03001KT RMK AO1 53001,CWAJ,2023-05-27T01:00:00Z,42.25,-81.9,,,30,1,,,,,,TRUE,TRUE,,,,,,,,,,,,,,,,0.1,,,,,,,,,,,METAR,177.0
CWAF 270100Z AUTO 29016KT 13/04 RMK AO1 PK WND 29019/0022 T01270038,CWAF,2023-05-27T01:00:00Z,48.07,-69.55,12.7,3.8,290,16,,,,,,TRUE,TRUE,,,,,,,,,,,,,,,,,,,,,,,,,,,METAR,6.0
CTNK 270100Z AUTO 00000KT 13/M00 RMK AO1 SLP252 T01331004 55003,CTNK,2023-05-27T01:00:00Z,45.53,-78.27,13.3,-0.4,0,0,,,,1025.2,,TRUE,TRUE,,,,,,,,,,,,,,,,-0.3,,,,,,,,,,,METAR,405.0
CTCK 270100Z AUTO 21002KT 12/04 RMK AO1 SLP238 T01240035 56005,CTCK,2023-05-27T01:00:00Z,45.25,-74.97,12.4,3.5,210,2,,,,1023.8,,TRUE,TRUE,,,,,,,,,,,,,,,,-0.5,,,,,,,,,,,METAR,84.0
CPSV 270100Z AUTO 02002KT 22/07 RMK AO1 T02160071,CPSV,2023-05-27T01:00:00Z,49.92,-110.92,21.6,7.1,20,2,,,,,,TRUE,TRUE,,,,,,,,,,,,,,,,,,,,,,,,,,,METAR,766.0
CPST 270100Z AUTO 34002KT 21/01 RMK AO1 T02060014,CPST,2023-05-27T01:00:00Z,51.03,-113.28,20.6,1.4,340,2,,,,,,TRUE,TRUE,,,,,,,,,,,,,,,,,,,,,,,,,,,METAR,1005.0
CPRY 270100Z AUTO 18004KT 19/07 RMK AO1 T01940067,CPRY,2023-05-27T01:00:00Z,49.48,-112.68,19.4,6.7,180,4,,,,,,TRUE,TRUE,,,,,,,,,,,,,,,,,,,,,,,,,,,METAR,947.0
CPRO 270100Z AUTO 19003KT 22/03 RMK AO1 T02200030,CPRO,2023-05-27T01:00:00Z,50.83,-112.05,22.0,3.0,190,3,,,,,,TRUE,TRUE,,,,,,,,,,,,,,,,,,,,,,,,,,,METAR,733.0
CPIN 270100Z AUTO 11006KT ////SM ////// ///// A////,CPIN,2023-05-27T01:00:00Z,,,,,110,6,,,,,,TRUE,,,,,,,,,,,,,,,,,,,,,,,,,,,,METAR,
CPFI 270100Z AUTO 16002KT 22/04 RMK AO1 T02190035,CPFI,2023-05-27T01:00:00Z,49.8,-112.03,21.9,3.5,160,2,,,,,,TRUE,TRUE,,,,,,,,,,,,,,,,,,,,,,,,,,,METAR,804.0
CPEH 270100Z AUTO 20/04 RMK AO1 T02010035,CPEH,2023-05-27T01:00:00Z,50.18,-112.43,20.1,3.5,,,,,,,,TRUE,TRUE,,,,,,,,,,,,,,,,,,,,,,,,,,,METAR,814.0
CPBT 270100Z AUTO 08003KT 19/06 RMK AO1 T01900055,CPBT,2023-05-27T01:00:00Z,49.53,-113.05,19.0,5.5,80,3,,,,,,TRUE,TRUE,,,,,,,,,,,,,,,,,,,,,,,,,,,METAR,998.0
CMGB 270100Z AUTO 18002KT 13/04 RMK AO1 SLP233 T01290044 56003,CMGB,2023-05-27T01:00:00Z,45.37,-72.77,12.9,4.4,180,2,,,,1023.3,,TRUE,TRUE,,,,,,,,,,,,,,,,-0.3,,,,,,,,,,,METAR,87.0
CMFM 270100Z AUTO 36002KT 11/01 RMK AO1 SLP226 T01050005 53008,CMFM,2023-05-27T01:00:00Z,47.32,-71.15,10.5,0.5,360,2,,,,1022.6,,TRUE,TRUE,,,,,,,,,,,,,,,,0.8,,,,,,,,,,,METAR,663.0
CERM 270100Z AUTO 02001KT 10/07 RMK AO1 SLP193 T00960070 52004,CERM,2023-05-27T01:00:00Z,47.42,-68.32,9.6,7.0,20,1,,,,1019.3,,TRUE,TRUE,,,,,,,,,,,,,,,,0.4,,,,,,,,,,,METAR,151.0
CBBC 270100Z AUTO 29003KT 200V360 9SM CLR 16/09 A3001 RMK SLP164,CBBC,2023-05-27T01:00:00Z,52.18,-128.15,16.0,9.0,290,3,,9.0,30.008858,1016.4,,TRUE,,,,,,,,CLR,,,,,,,,VFR,,,,,,,,,,,,METAR,36.0
CBAR 270100Z AUTO 10025KT ////SM ////// 02/M03 A2982,CBAR,2023-05-27T01:00:00Z,,,2.0,-3.0,100,25,,,29.819881,,,TRUE,,,,,,,,,,,,,,,,,,,,,,,,,,,,METAR,
CAHR 270100Z AUTO 33006KT 04/04 RMK AO1 2PAST HR 2004 SLP182 P0001 T00440038 50002,CAHR,2023-05-27T01:00:00Z,46.35,-63.17,4.4,3.8,330,6,,,,1018.2,,TRUE,TRUE,,,,,,,,,,,,,,,,0.2,,,,,0.01,,,,,,METAR,52.0
BKPR 270100Z VRB02KT 0300 R17/1700D R35/P2000N FG BKN003 09/09 Q1017 NOSIG,BKPR,2023-05-27T01:00:00Z,42.58,21.03,9.0,9.0,0,2,,0.19,30.029528,,,,,,TRUE,,,,FG,BKN,300,,,,,,,LIFR,,,,,,,,,,,,METAR,545.0
BIRK 270100Z 28028G41KT 9999 -RA OVC016 05/03 Q1002,BIRK,2023-05-27T01:00:00Z,64.13,-21.93,5.0,3.0,280,28,41,6.21,29.586615,,,,,,,,,,-RA,OVC,1600,,,,,,,MVFR,,,,,,,,,,,,METAR,12.0
BIKF 270100Z 28033G44KT 9999 BKN016 04/02 Q1003,BIKF,2023-05-27T01:00:00Z,63.98,-22.6,4.0,2.0,280,33,44,6.21,29.616142,,,,,,,,,,,BKN,1600,,,,,,,MVFR,,,,,,,,,,,,METAR,49.0
BIEG 270100Z 22013KT CAVOK 07/00 Q0994,BIEG,2023-05-27T01:00:00Z,65.27,-14.4,7.0,0.0,220,13,,6.21,29.350393,,,,,,,,,,,CAVOK,,,,,,,,VFR,,,,,,,,,,,,METAR,20.0
AYPY 270100Z 17013KT 9999 FEW025 SCT050 29/24 Q1011,AYPY,2023-05-27T01:00:00Z,-9.43,147.22,29.0,24.0,170,13,,6.21,29.852362,,,,,,,,,,,FEW,2500,SCT,5000,,,,,VFR,,,,,,,,,,,,METAR,44.0
AYNZ 270100Z 12003KT 9999 HZ FEW025 SCT050 30/21 Q1009,AYNZ,2023-05-27T01:00:00Z,-6.57,146.72,30.0,21.0,120,3,,6.21,29.793306,,,,,,,,,,HZ,FEW,2500,SCT,5000,,,,,VFR,,,,,,,,,,,,METAR,74.0
AYMH 270100Z 26010KT 9999 HZ SCT030 23/16 Q1021,AYMH,2023-05-27T01:00:00Z,-5.83,144.3,23.0,16.0,260,10,,6.21,30.147638,,,,,,,,,,HZ,SCT,3000,,,,,,,VFR,,,,,,,,,,,,METAR,1634.0
AGGR 270100Z 09004KT 9999 SCT017 29/25 Q1010,AGGR,2023-05-27T01:00:00Z,-11.53,160.07,29.0,25.0,90,4,,6.21,29.822834,,,,,,,,,,,SCT,1700,,,,,,,VFR,,,,,,,,,,,,METAR,11.0
AGGH 270100Z METAR ,AGGH,2023-05-27T01:00:00Z,-9.42,160.05,,,,,,,,,,,,,,,,,,,,,,,,,,,,,,,,,,,,,,METAR,6.0
RODE 270059Z AUTO A3000 RMK AO2 SLPNO PWINO TSNO $,RODE,2023-05-27T00:59:00Z,26.72,127.77,,,,,,,30.0,,,TRUE,TRUE,TRUE,,TRUE,,TRUE,,,,,,,,,,,,,,,,,,,,,,METAR,69.0
KRTN 270059Z AUTO 29011G19KT 3SM -TSRA BKN060 BKN070 OVC090 13/08 A3006 RMK AO2 LTG DSNT ALQDS P0006 T01280083,KRTN,2023-05-27T00:59:00Z,36.73,-104.5,12.8,8.3,290,11,19,3.0,30.059055,,,TRUE,TRUE,,,,,,-TSRA,BKN,6000,BKN,7000,OVC,9000,,,MVFR,,,,,,0.06,,,,,,METAR,1939.0
KPMH 270059Z AUTO 00000KT 10SM CLR 19/04 A3019 RMK AO2,KPMH,2023-05-27T00:59:00Z,38.83,-82.85,19.0,4.0,0,0,,10.0,30.188976,,,TRUE,TRUE,,,,,,,CLR,,,,,,,,VFR,,,,,,,,,,,,METAR,200.0
KP92 270059Z AUTO 00000KT 25/18 A2994 RMK AO1 SLP139 T02500178,KP92,2023-05-27T00:59:00Z,29.57,-91.53,25.0,17.8,0,0,,,29.940945,1013.9,,TRUE,TRUE,,,,,,,,,,,,,,,,,,,,,,,,,,,METAR,1.0
KNOZ 270059Z AUTO 23006KT 10SM CLR 33/M04 A2972 RMK AO2 SLP013 T03281044,KNOZ,2023-05-27T00:59:00Z,32.53,-114.5,32.8,-4.4,230,6,,10.0,29.719488,1001.3,,TRUE,TRUE,,,,,,,CLR,,,,,,,,VFR,,,,,,,,,,,,SPECI,78.0
KNGU 270059Z 06015KT 10SM SCT150 BKN230 17/06 A3024 RMK AO2 SLP240 T01670061 $,KNGU,2023-05-27T00:59:00Z,36.93,-76.27,16.7,6.1,60,15,,10.0,30.239174,1024.0,,,TRUE,TRUE,,,,,,SCT,15000,BKN,23000,,,,,VFR,,,,,,,,,,,,SPECI,3.0
KMRT 270059Z AUTO 03010KT 10SM CLR 17/02 A3024 RMK AO1,KMRT,2023-05-27T00:59:00Z,40.22,-83.35,17.0,2.0,30,10,,10.0,30.239174,,,TRUE,TRUE,,,,,,,CLR,,,,,,,,VFR,,,,,,,,,,,,SPECI,302.0
KI35 270059Z AUTO 00000KT 10SM OVC070 21/14 A3014 RMK AO2,KI35,2023-05-27T00:59:00Z,36.87,-83.37,21.0,14.0,0,0,,10.0,30.138779,,,TRUE,TRUE,,,,,,,OVC,7000,,,,,,,VFR,,,,,,,,,,,,METAR,467.0
K2V6 270059Z AUTO 15020G25KT 10SM VCTS 20/00 A3003 RMK AO2 LTG DSNT SW AND W,K2V6,2023-05-27T00:59:00Z,40.1,-102.72,20.0,0.0,150,20,25,10.0,30.029528,,,TRUE,TRUE,,,,,,VCTS,,,,,,,,,,,,,,,,,,,,,METAR,1257.0
K04W 270059Z AUTO 17003KT 10SM CLR 22/07 A3022 RMK AO2,K04W,2023-05-27T00:59:00Z,46.02,-92.9,22.0,7.0,170,3,,10.0,30.221457,,,TRUE,TRUE,,,,,,,CLR,,,,,,,,VFR,,,,,,,,,,,,METAR,310.0
MUCF 270058Z AUTO 25004KT 220V280 28/22 Q1011,MUCF,2023-05-27T00:58:00Z,22.15,-80.4,28.0,22.0,250,4,,,29.852362,,,TRUE,,,,,,,,,,,,,,,,,,,,,,,,,,,,METAR,35.0
KUGN 270058Z 05003KT 10SM CLR 13/M03 A3029 RMK AO2 LAST T01281033,KUGN,2023-05-27T00:58:00Z,42.42,-87.87,12.8,-3.3,50,3,,10.0,30.28937,,,,TRUE,,,,,,,CLR,,,,,,,,VFR,,,,,,,,,,,,METAR,217.0
KROG 270058Z 09005KT 10SM CLR 23/09 A3011 RMK AO2 SLP185 T02330094,KROG,2023-05-27T00:58:00Z,36.37,-94.1,23.3,9.4,90,5,,10.0,30.109253,1018.5,,,TRUE,,,,,,,CLR,,,,,,,,VFR,,,,,,,,,,,,METAR,407.0
KPRN 270058Z AUTO 07004KT 10SM CLR 21/15 A3000 RMK AO2 SLP105 T02110150,KPRN,2023-05-27T00:58:00Z,31.85,-86.62,21.1,15.0,70,4,,10.0,30.0,1010.5,,TRUE,TRUE,,,,,,,CLR,,,,,,,,VFR,,,,,,,,,,,,METAR,137.0
KMRH 270058Z AUTO 03012G19KT 10SM -RA FEW032 BKN041 OVC110 16/13 A3008 RMK AO2 SLP187 P0002 T01560133,KMRH,2023-05-27T00:58:00Z,34.73,-76.65,15.6,13.3,30,12,19,10.0,30.079725,1018.7,,TRUE,TRUE,,,,,,-RA,FEW,3200,BKN,4100,OVC,11000,,,VFR,,,,,,0.02,,,,,,METAR,2.0
KMEI 270058Z 06004KT 10SM CLR 24/16 A3000 RMK AO2 SLP154 T02390156,KMEI,2023-05-27T00:58:00Z,32.33,-88.75,23.9,15.6,60,4,,10.0,30.0,1015.4,,,TRUE,,,,,,,CLR,,,,,,,,VFR,,,,,,,,,,,,METAR,90.0
KEUF 270058Z AUTO 09003KT 10SM CLR 22/14 A3003 RMK AO2 SLP165 T02220144 $,KEUF,2023-05-27T00:58:00Z,31.95,-85.13,22.2,14.4,90,3,,10.0,30.029528,1016.5,,TRUE,TRUE,TRUE,,,,,,CLR,,,,,,,,VFR,,,,,,,,,,,,METAR,87.0
KBKF 270058Z 12011KT 10SM SCT090 BKN140 BKN200 14/09 A3001 RMK AO2A SLP116 T01380092,KBKF,2023-05-27T00:58:00Z,39.72,-104.75,13.8,9.2,120,11,,10.0,30.008858,1011.6,,,TRUE,,,,,,,SCT,9000,BKN,14000,BKN,20000,,,VFR,,,,,,,,,,,,METAR,1703.0
KBCR 270058Z AUTO 03004KT 10SM CLR 23/16 A2999 RMK AO2 SLP112 T02330161 $,KBCR,2023-05-27T00:58:00Z,30.85,-85.6,23.3,16.1,30,4,,10.0,29.991142,1011.2,,TRUE,TRUE,TRUE,,,,,,CLR,,,,,,,,VFR,,,,,,,,,,,,METAR,26.0
K0J4 270058Z AUTO 06005KT 10SM CLR 23/15 A3001 RMK AO2 SLP157 T02330150,K0J4,2023-05-27T00:58:00Z,31.05,-86.32,23.3,15.0,60,5,,10.0,30.008858,1015.7,,TRUE,TRUE,,,,,,,CLR,,,,,,,,VFR,,,,,,,,,,,,METAR,96.0
PHNG 270057Z AUTO 06010KT 10SM FEW042 SCT060 29/19 A3001 RMK AO2 SLP158 T02890194 $,PHNG,2023-05-27T00:57:00Z,21.43,-157.77,28.9,19.4,60,10,,10.0,30.008858,1015.8,,TRUE,TRUE,TRUE,,,,,,FEW,4200,SCT,6000,,,,,VFR,,,,,,,,,,,,METAR,1.0
KNYL 270057Z 27006KT 7SM CLR 32/M01 A2971 RMK AO2 SLP057 T03221011,KNYL,2023-05-27T00:57:00Z,32.65,-114.62,32.2,-1.1,270,6,,7.0,29.71063,1005.7,,,TRUE,,,,,,,CLR,,,,,,,,VFR,,,,,,,,,,,,METAR,58.0
KNJW 270057Z AUTO 06005KT 10SM CLR 23/17 A3004 RMK AO2 SLP086 T02330167 $,KNJW,2023-05-27T00:57:00Z,32.78,-88.82,23.3,16.7,60,5,,10.0,30.041338,1008.6,,TRUE,TRUE,TRUE,,,,,,CLR,,,,,,,,VFR,,,,,,,,,,,,METAR,165.0
KNJM 270057Z AUTO 02012G21KT 8SM -RA BKN110 14/12 A3009 RMK AO2 SLP193 P0002 T01440122,KNJM,2023-05-27T00:57:00Z,34.68,-77.02,14.4,12.2,20,12,21,8.0,30.088583,1019.3,,TRUE,TRUE,,,,,,-RA,BKN,11000,,,,,,,VFR,,,,,,0.02,,,,,,METAR,5.0
KMNM 270057Z AUTO 18005KT 9SM CLR 17/02 A3030 RMK AO2 SLP281 T01670017 PNO $,KMNM,2023-05-27T00:57:00Z,45.12,-87.63,16.7,1.7,180,5,,9.0,30.301182,1028.1,,TRUE,TRUE,TRUE,,,,,,CLR,,,,,,,,VFR,,,,,,,,,,,,METAR,188.0
KFLG 270057Z AUTO 21018G22KT 10SM CLR 18/M08 A3004 RMK AO2 PK WND 22028/2359 SLP106 T01781083,KFLG,2023-05-27T00:57:00Z,35.13,-111.67,17.8,-8.3,210,18,22,10.0,30.041338,1010.6,,TRUE,TRUE,,,,,,,CLR,,,,,,,,VFR,,,,,,,,,,,,METAR,2134.0
KAQV 270057Z AUTO 00000KT 9SM CLR 23/14 A2997 RMK AO2 SLP147 T02330139,KAQV,2023-05-27T00:57:00Z,31.4,-93.3,23.3,13.9,0,0,,9.0,29.970472,1014.7,,TRUE,TRUE,,,,,,,CLR,,,,,,,,VFR,,,,,,,,,,,,METAR,123.0
K1NN 270057Z AUTO 20010KT 10SM -RA SCT065 OVC110 M A2992 RMK AO2 LTG DSNT SE AND NW RAB57 SLPNO ALSTG ESTMD $,K1NN,2023-05-27T00:57:00Z,,,,,200,10,,10.0,29.920275,,,TRUE,TRUE,TRUE,,,,,-RA,SCT,6500,OVC,11000,,,,,VFR,,,,,,,,,,,,SPECI,
TJSJ 270056Z 16003KT 10SM FEW050 FEW090 28/24 A2996 RMK AO2 SLP141 T02780239 $,TJSJ,2023-05-27T00:56:00Z,18.43,-66.02,27.8,23.9,160,3,,10.0,29.958662,1014.1,,,TRUE,TRUE,,,,,,FEW,5000,FEW,9000,,,,,VFR,,,,,,,,,,,,METAR,3.0
PHNY 270056Z AUTO 03017KT 10SM CLR 24/17 A3005 RMK AO2 PK WND 03027/0030 SLP156 T02440172,PHNY,2023-05-27T00:56:00Z,20.77,-156.95,24.4,17.2,30,17,,10.0,30.050198,1015.6,,TRUE,TRUE,,,,,,,CLR,,,,,,,,VFR,,,,,,,,,,,,METAR,395.0
PFWS 270056Z AUTO 16020G26KT 10SM FEW045 BKN065 BKN100 10/04 A2940 RMK AO2 PK WND 14027/0030 SLP996 T01000044,PFWS,2023-05-27T00:56:00Z,58.7,-157.0,10.0,4.4,160,20,26,10.0,29.40059,999.6,,TRUE,TRUE,,,,,,,FEW,4500,BKN,6500,BKN,10000,,,VFR,,,,,,,,,,,,METAR,40.0
PFSH 270056Z AUTO 29003KT 10SM SCT031 OVC050 09/07 A2937 RMK AO2 RAE50 SLP945 P0000 T00940072,PFSH,2023-05-27T00:56:00Z,64.37,-161.22,9.4,7.2,290,3,,10.0,29.371063,994.5,,TRUE,TRUE,,,,,,,SCT,3100,OVC,5000,,,,,VFR,,,,,,0.005,,,,,,METAR,6.0
PFNO 270056Z AUTO 10016G20KT 10SM BKN033 15/07 A2938 RMK AO2 SLP029 T01500067 $,PFNO,2023-05-27T00:56:00Z,66.82,-161.02,15.0,6.7,100,16,20,10.0,29.379921,1002.9,,TRUE,TRUE,TRUE,,,,,,BKN,3300,,,,,,,VFR,,,,,,,,,,,,METAR,14.0
PFKW 270056Z AUTO 20007KT 10SM SCT040 OVC050 09/03 A2930 RMK AO2 SLP920 T00940028,PFKW,2023-05-27T00:56:00Z,60.8,-161.43,9.4,2.8,200,7,,10.0,29.300198,992.0,,TRUE,TRUE,,,,,,,SCT,4000,OVC,5000,,,,,VFR,,,,,,,,,,,,METAR,4.0
PFKT 270056Z AUTO 28010KT 10SM 08/05 A2934 RMK AO2 SLP935 T00780050 $,PFKT,2023-05-27T00:56:00Z,65.33,-166.47,7.8,5.0,280,10,,10.0,29.338583,993.5,,TRUE,TRUE,TRUE,,,,,,,,,,,,,,,,,,,,,,,,,,METAR,8.0
PFEL 270056Z AUTO 00000KT 10SM FEW043 BKN055 OVC065 09/07 A2936 RMK AO2 RAB28E49 SLP942 P0000 T00940067,PFEL,2023-05-27T00:56:00Z,64.62,-162.27,9.4,6.7,0,0,,10.0,29.359253,994.2,,TRUE,TRUE,,,,,,,FEW,4300,BKN,5500,OVC,6500,,,VFR,,,,,,0.005,,,,,,METAR,50.0
PFCL 270056Z AUTO 13015KT 10SM BKN018 BKN023 OVC034 09/05 A2936 RMK AO2 RAE21 SLP936 P0000 T00890050 TSNO,PFCL,2023-05-27T00:56:00Z,58.83,-158.53,8.9,5.0,130,15,,10.0,29.359253,993.6,,TRUE,TRUE,,,TRUE,,,,BKN,1800,BKN,2300,OVC,3400,,,MVFR,,,,,,0.005,,,,,,METAR,23.0
PAZK 270056Z AUTO 17010G17KT 10SM OVC060 11/M06 A2952 RMK AO2 SLP020 T01061056,PAZK,2023-05-27T00:56:00Z,61.93,-147.17,10.6,-5.6,170,10,17,10.0,29.518702,1002.0,,TRUE,TRUE,,,,,,,OVC,6000,,,,,,,VFR,,,,,,,,,,,,METAR,1002.0
PAWS 270056Z AUTO 10008G17KT 10SM OVC070 14/M02 A2959 RMK AO2 SLP026 T01391017,PAWS,2023-05-27T00:56:00Z,61.57,-149.53,13.9,-1.7,100,8,17,10.0,29.589567,1002.6,,TRUE,TRUE,,,,,,,OVC,7000,,,,,,,VFR,,,,,,,,,,,,METAR,102.0
PAWN 270056Z AUTO 19004KT 10SM OVC065 13/06 RMK AO2 SLPNO T01280056 $,PAWN,2023-05-27T00:56:00Z,67.57,-162.98,12.8,5.6,190,4,,10.0,,,,TRUE,TRUE,TRUE,,,,,,OVC,6500,,,,,,,VFR,,,,,,,,,,,,METAR,26.0
PAWM 270056Z AUTO 17007KT 6SM HZ BKN060 12/06 A2934 RMK AO2 SLP938 T01170061,PAWM,2023-05-27T00:56:00Z,64.68,-163.42,11.7,6.1,170,7,,6.0,29.338583,993.8,,TRUE,TRUE,,,,,,HZ,BKN,6000,,,,,,,VFR,,,,,,,,,,,,METAR,80.0
PAWG 270056Z 29004KT 10SM SCT045 BKN060 12/04 A3010,PAWG,2023-05-27T00:56:00Z,56.48,-132.37,12.0,4.0,290,4,,10.0,30.100393,,,,,,,,,,,SCT,4500,BKN,6000,,,,,VFR,,,,,,,,,,,,METAR,6.0
PAVD 270056Z 27012KT 5SM -RA BR FEW015 BKN035 OVC050 07/04 RMK AO2 SLPNO A2990 PCPN VRY LGT P0000 T00670044 $,PAVD,2023-05-27T00:56:00Z,61.13,-146.25,6.7,4.4,270,12,,5.0,,,,,TRUE,TRUE,,,,,-RA BR,FEW,1500,BKN,3500,OVC,5000,,,MVFR,,,,,,0.005,,,,,,METAR,21.0
PAVC 270056Z AUTO 35010G16KT 10SM OVC019 09/07 A2929 RMK AO2 SLP920 T00940067 PNO $,PAVC,2023-05-27T00:56:00Z,55.12,-162.27,9.4,6.7,350,10,16,10.0,29.291338,992.0,,TRUE,TRUE,TRUE,,,,,,OVC,1900,,,,,,,MVFR,,,,,,,,,,,,METAR,48.0
PAUN 270056Z AUTO 13010KT 10SM FEW055 OVC070 13/03 A2934 RMK AO2 SLP939 T01280033,PAUN,2023-05-27T00:56:00Z,63.88,-160.8,12.8,3.3,130,10,,10.0,29.338583,993.9,,TRUE,TRUE,,,,,,,FEW,5500,OVC,7000,,,,,VFR,,,,,,,,,,,,METAR,4.0
PATG 270056Z AUTO 10SM -RA SCT009 OVC018 06/06 A2935 RMK AO2 RAB39 SLP939 P0000 T00610056 $,PATG,2023-05-27T00:56:00Z,59.05,-160.38,6.1,5.6,,,,10.0,29.350393,993.9,,TRUE,TRUE,TRUE,,,,,-RA,SCT,900,OVC,1800,,,,,MVFR,,,,,,0.005,,,,,,METAR,1.0
PASY 270056Z 30015KT 10SM BKN020 06/02 A2993 RMK AO2A SLP139 T00640017 PNO FZRANO $,PASY,2023-05-27T00:56:00Z,52.72,174.12,6.4,1.7,300,15,,10.0,29.929134,1013.9,,,TRUE,TRUE,,,TRUE,,,BKN,2000,,,,,,,MVFR,,,,,,,,,,,,METAR,6.0
PASX 270056Z AUTO 28005KT 10SM SCT060 SCT075 09/05 A2961 RMK AO2 SLP033 T00890050,PASX,2023-05-27T00:56:00Z,60.48,-151.05,8.9,5.0,280,5,,10.0,29.610237,1003.3,,TRUE,TRUE,,,,,,,SCT,6000,SCT,7500,,,,,VFR,,,,,,,,,,,,METAR,28.0
PASM 270056Z AUTO 16013G19KT 10SM FEW080 BKN095 09/03 A2930 RMK AO2 SLP929 T00940028,PASM,2023-05-27T00:56:00Z,62.07,-163.3,9.4,2.8,160,13,19,10.0,29.300198,992.9,,TRUE,TRUE,,,,,,,FEW,8000,BKN,9500,,,,,VFR,,,,,,,,,,,,METAR,108.0
PASK 270056Z AUTO 04011KT 10SM CLR 10/06 A2939 RMK AO2 SLP948 T01000056,PASK,2023-05-27T00:56:00Z,66.6,-160.0,10.0,5.6,40,11,,10.0,29.388779,994.8,,TRUE,TRUE,,,,,,,CLR,,,,,,,,VFR,,,,,,,,,,,,METAR,3.0
PASD 270056Z 15007KT 3SM -RA BR SCT005 BKN011 OVC020 07/07 A2929 RMK AO2 SLP921 VIS NW-NE 2 T00720067 PNO $,PASD,2023-05-27T00:56:00Z,55.33,-160.52,7.2,6.7,150,7,,3.0,29.291338,992.1,,,TRUE,TRUE,,,,,-RA BR,SCT,500,BKN,1100,OVC,2000,,,MVFR,,,,,,,,,,,,METAR,6.0
PARY 270056Z AUTO 14009KT 10SM -RA SCT065 OVC085 13/04 A2937 RMK AO2 RAB41 SLP953 P0000 T01330044,PARY,2023-05-27T00:56:00Z,64.73,-155.47,13.3,4.4,140,9,,10.0,29.371063,995.3,,TRUE,TRUE,,,,,,-RA,SCT,6500,OVC,8500,,,,,VFR,,,,,,0.005,,,,,,METAR,185.0
PARC 270056Z AUTO VRB06KT 8SM -RA BKN049 OVC060 07/04 A2947 RMK AO2 SLP015 P0001 T00670044,PARC,2023-05-27T00:56:00Z,68.12,-145.58,6.7,4.4,0,6,,8.0,29.471457,1001.5,,TRUE,TRUE,,,,,,-RA,BKN,4900,OVC,6000,,,,,VFR,,,,,,0.01,,,,,,METAR,626.0
PAPO 270056Z AUTO 02008KT 10SM CLR A2943 RMK AO2 SLPNO FZRANO PNO $,PAPO,2023-05-27T00:56:00Z,68.35,-166.8,,,20,8,,10.0,29.430119,,,TRUE,TRUE,TRUE,,,TRUE,,,CLR,,,,,,,,VFR,,,,,,,,,,,,METAR,4.0
PAPN 270056Z AUTO 13015G21KT 10SM -RA BKN050 OVC060 09/06 A2933 RMK AO2 SLP933 P0000 T00890056,PAPN,2023-05-27T00:56:00Z,57.58,-157.57,8.9,5.6,130,15,21,10.0,29.329725,993.3,,TRUE,TRUE,,,,,,-RA,BKN,5000,OVC,6000,,,,,VFR,,,,,,0.005,,,,,,METAR,19.0
PAPM 270056Z AUTO 16015G23KT 10SM -RA BKN015 OVC035 07/05 A2929 RMK AO2 SLP920 P0000 T00670050,PAPM,2023-05-27T00:56:00Z,59.02,-161.82,6.7,5.0,160,15,23,10.0,29.291338,992.0,,TRUE,TRUE,,,,,,-RA,BKN,1500,OVC,3500,,,,,MVFR,,,,,,0.005,,,,,,METAR,4.0
PAPH 270056Z AUTO 16019G26KT 10SM OVC055 09/05 A2929 RMK AO2 PK WND 16026/0048 SLP918 T00890050,PAPH,2023-05-27T00:56:00Z,56.95,-158.62,8.9,5.0,160,19,26,10.0,29.291338,991.8,,TRUE,TRUE,,,,,,,OVC,5500,,,,,,,VFR,,,,,,,,,,,,METAR,29.0
PAPG 270056Z 06006KT 10SM BKN040 BKN060 11/05 A3009 RMK AO2 RAE09 SLP192 P0000 T01110050,PAPG,2023-05-27T00:56:00Z,56.82,-132.93,11.1,5.0,60,6,,10.0,30.088583,1019.2,,,TRUE,,,,,,,BKN,4000,BKN,6000,,,,,VFR,,,,,,0.005,,,,,,METAR,24.0
PAOH 270056Z AUTO VRB03KT 10SM 09/05 A3004 RMK AO2 RAB31E48 SLP172 T00940050 PNO $,PAOH,2023-05-27T00:56:00Z,58.1,-135.45,9.4,5.0,0,3,,10.0,30.041338,1017.2,,TRUE,TRUE,TRUE,,,,,,,,,,,,,,,,,,,,,,,,,,METAR,0.0
PANI 270056Z AUTO 16017G23KT 10SM BKN035 OVC044 10/02 A2940 RMK AO2 PK WND 17028/2357 RAB26E40 SLP947 P0000 T01000022 $,PANI,2023-05-27T00:56:00Z,61.58,-159.53,10.0,2.2,160,17,23,10.0,29.40059,994.7,,TRUE,TRUE,TRUE,,,,,,BKN,3500,OVC,4400,,,,,VFR,,,,,,0.005,,,,,,METAR,21.0
PAMY 270056Z AUTO 13014KT 6SM -RA BR BKN009 OVC016 04/03 A2917 RMK AO2 RAB43 CIG 008V013 SLP875 T00440028 PNO $,PAMY,2023-05-27T00:56:00Z,60.37,-166.27,4.4,2.8,130,14,,6.0,29.170275,987.5,,TRUE,TRUE,TRUE,,,,,-RA BR,BKN,900,OVC,1600,,,,,IFR,,,,,,,,,,,,METAR,14.0
PAMO 270056Z AUTO 15015KT 10SM SCT043 OVC095 09/03 A2929 RMK AO2 SLP922 T00890028,PAMO,2023-05-27T00:56:00Z,62.1,-163.68,8.9,2.8,150,15,,10.0,29.291338,992.2,,TRUE,TRUE,,,,,,,SCT,4300,OVC,9500,,,,,VFR,,,,,,,,,,,,METAR,93.0
PAMM 270056Z AUTO 25009KT 10SM CLR 12/06 A3010 RMK AO2 SLP287 T01220056 $,PAMM,2023-05-27T00:56:00Z,55.13,-131.58,12.2,5.6,250,9,,10.0,30.100393,1028.7,,TRUE,TRUE,TRUE,,,,,,CLR,,,,,,,,VFR,,,,,,,,,,,,METAR,0.0
PAMH 270056Z AUTO 00000KT 10SM OVC055 13/04 A2943 RMK AO2 SLP965 T01330044,PAMH,2023-05-27T00:56:00Z,63.9,-152.28,13.3,4.4,0,0,,10.0,29.430119,996.5,,TRUE,TRUE,,,,,,,OVC,5500,,,,,,,VFR,,,,,,,,,,,,METAR,200.0
PAMB 270056Z AUTO 12013G17KT 9SM FEW014 OVC029 08/06 A2937 RMK AO2 SLP948 T00830056 $,PAMB,2023-05-27T00:56:00Z,58.98,-159.05,8.3,5.6,120,13,17,9.0,29.371063,994.8,,TRUE,TRUE,TRUE,,,,,,FEW,1400,OVC,2900,,,,,MVFR,,,,,,,,,,,,METAR,28.0
PALG 270056Z AUTO 12008G17KT 10SM SCT038 SCT047 OVC095 11/03 A2932 RMK AO2 SLP932 T01060028,PALG,2023-05-27T00:56:00Z,61.53,-160.33,10.6,2.8,120,8,17,10.0,29.320866,993.2,,TRUE,TRUE,,,,,,,SCT,3800,SCT,4700,OVC,9500,,,VFR,,,,,,,,,,,,METAR,13.0
PAKH 270056Z AUTO 10SM OVC018 07/05 A2947 RMK AO2 SLP980 T00720050 TSNO $,PAKH,2023-05-27T00:56:00Z,56.93,-154.18,7.2,5.0,,,,10.0,29.471457,998.0,,TRUE,TRUE,TRUE,,TRUE,,,,OVC,1800,,,,,,,MVFR,,,,,,,,,,,,METAR,15.0
PAKF 270056Z AUTO 28008KT 10SM OVC023 09/04 A2929 RMK AO2 SLP918 T00890044,PAKF,2023-05-27T00:56:00Z,54.85,-163.42,8.9,4.4,280,8,,10.0,29.291338,991.8,,TRUE,TRUE,,,,,,,OVC,2300,,,,,,,MVFR,,,,,,,,,,,,METAR,2.0
PAJZ 270056Z AUTO 14014KT 9SM BKN022 OVC029 08/04 A2946 RMK AO2 SLP983 T00780039 $,PAJZ,2023-05-27T00:56:00Z,59.73,-157.27,7.8,3.9,140,14,,9.0,29.459646,998.3,,TRUE,TRUE,TRUE,,,,,,BKN,2200,OVC,2900,,,,,MVFR,,,,,,,,,,,,METAR,80.0
PAIN 270056Z AUTO 17009G17KT 10SM FEW065 14/M02 A2946 RMK AO2 SLP986 T01391017 PNO $,PAIN,2023-05-27T00:56:00Z,63.73,-148.92,13.9,-1.7,170,9,17,10.0,29.459646,998.6,,TRUE,TRUE,TRUE,,,,,,FEW,6500,,,,,,,VFR,,,,,,,,,,,,METAR,525.0
PAIK 270056Z AUTO 09009KT 10SM BKN036 OVC045 13/06 A2942 RMK AO2 SLP963 T01280056,PAIK,2023-05-27T00:56:00Z,66.98,-160.43,12.8,5.6,90,9,,10.0,29.421259,996.3,,TRUE,TRUE,,,,,,,BKN,3600,OVC,4500,,,,,VFR,,,,,,,,,,,,METAR,49.0
PAIG 270056Z AUTO 07012KT 10SM OVC041 07/03 A2941 RMK AO2 SLP968 T00670033 $,PAIG,2023-05-27T00:56:00Z,59.32,-155.9,6.7,3.3,70,12,,10.0,29.409449,996.8,,TRUE,TRUE,TRUE,,,,,,OVC,4100,,,,,,,VFR,,,,,,,,,,,,METAR,24.0
PAHY 270056Z AUTO 22004KT 10SM BKN049 11/03 A3011 RMK AO2 SLP194 T01110033 $,PAHY,2023-05-27T00:56:00Z,55.2,-132.83,11.1,3.3,220,4,,10.0,30.109253,1019.4,,TRUE,TRUE,TRUE,,,,,,BKN,4900,,,,,,,VFR,,,,,,,,,,,,METAR,0.0
PAHL 270056Z AUTO 04008KT 010V080 10SM SCT045 17/07 A2936 RMK AO2 SLP946 T01720072,PAHL,2023-05-27T00:56:00Z,65.7,-156.35,17.2,7.2,40,8,,10.0,29.359253,994.6,,TRUE,TRUE,,,,,,,SCT,4500,,,,,,,VFR,,,,,,,,,,,,METAR,49.0
PAHC 270056Z AUTO 12008KT 10SM FEW038 BKN048 OVC055 10/03 A2936 RMK AO2 SLP946 T01000028,PAHC,2023-05-27T00:56:00Z,62.18,-159.78,10.0,2.8,120,8,,10.0,29.359253,994.6,,TRUE,TRUE,,,,,,,FEW,3800,BKN,4800,OVC,5500,,,VFR,,,,,,,,,,,,METAR,21.0
PAGN 270056Z AUTO VRB05KT 10SM BKN047 OVC055 12/05 A3006 RMK AO2 SLP168 T01220050,PAGN,2023-05-27T00:56:00Z,57.5,-134.58,12.2,5.0,0,5,,10.0,30.059055,1016.8,,TRUE,TRUE,,,,,,,BKN,4700,OVC,5500,,,,,VFR,,,,,,,,,,,,METAR,2.0
PAFM 270056Z AUTO 15009KT 10SM OVC043 14/06 A2945 RMK AO2 SLP976 T01390061,PAFM,2023-05-27T00:56:00Z,67.1,-157.85,13.9,6.1,150,9,,10.0,29.450787,997.6,,TRUE,TRUE,,,,,,,OVC,4300,,,,,,,VFR,,,,,,,,,,,,METAR,79.0
PAFE 270056Z AUTO 14010KT 10SM OVC043 11/06 A3010 RMK AO2 RAB33E52 SLP206 P0000 T01060056 $,PAFE,2023-05-27T00:56:00Z,56.97,-133.92,10.6,5.6,140,10,,10.0,30.100393,1020.6,,TRUE,TRUE,TRUE,,,,,,OVC,4300,,,,,,,VFR,,,,,,0.005,,,,,,METAR,1.0
PADU 270056Z 25006KT 10SM FEW015 BKN030 08/02 A2936 RMK AO2 SLP944 T00830022,PADU,2023-05-27T00:56:00Z,53.9,-166.53,8.3,2.2,250,6,,10.0,29.359253,994.4,,,TRUE,,,,,,,FEW,1500,BKN,3000,,,,,MVFR,,,,,,,,,,,,METAR,4.0
PADM 270056Z AUTO 09010G16KT 10SM -RA SCT046 BKN060 OVC095 11/02 A2934 RMK AO2 RAB51 SLP939 P0000 T01060022,PADM,2023-05-27T00:56:00Z,61.87,-162.03,10.6,2.2,90,10,16,10.0,29.338583,993.9,,TRUE,TRUE,,,,,,-RA,SCT,4600,BKN,6000,OVC,9500,,,VFR,,,,,,0.005,,,,,,METAR,17.0
PADL 270056Z 13008G14KT 10SM -RA OVC026 08/06 A2938 RMK AO2 RAB20 SLP952 P0000 T00780056,PADL,2023-05-27T00:56:00Z,59.05,-158.5,7.8,5.6,130,8,14,10.0,29.379921,995.2,,,TRUE,,,,,,-RA,OVC,2600,,,,,,,MVFR,,,,,,0.005,,,,,,METAR,20.0
PADK 270056Z AUTO 30012G20KT BKN029 OVC038 07/03 A2971 RMK AO2 SLP059 T00720028 PWINO $,PADK,2023-05-27T00:56:00Z,51.88,-176.65,7.2,2.8,300,12,20,,29.71063,1005.9,,TRUE,TRUE,TRUE,,,,TRUE,,BKN,2900,OVC,3800,,,,,,,,,,,,,,,,,METAR,3.0
PACM 270056Z AUTO 11016G20KT BKN033 OVC043 08/03 A2927 RMK AO2 SLP907 T00830033 PWINO $,PACM,2023-05-27T00:56:00Z,61.85,-165.57,8.3,3.3,110,16,20,,29.27067,990.7,,TRUE,TRUE,TRUE,,,,TRUE,,BKN,3300,OVC,4300,,,,,,,,,,,,,,,,,METAR,3.0
PABV 270056Z AUTO 32005KT 10SM SCT080 BKN100 13/03 A2958 RMK AO2 SLP023 T01280033,PABV,2023-05-27T00:56:00Z,61.42,-149.52,12.8,3.3,320,5,,10.0,29.58071,1002.3,,TRUE,TRUE,,,,,,,SCT,8000,BKN,10000,,,,,VFR,,,,,,,,,,,,METAR,21.0
PABL 270056Z AUTO 12009KT 10SM RA SCT029 BKN039 OVC050 12/09 A2936 RMK AO2 SLP943 P0005 T01170094,PABL,2023-05-27T00:56:00Z,65.98,-161.15,11.7,9.4,120,9,,10.0,29.359253,994.3,,TRUE,TRUE,,,,,,RA,SCT,2900,BKN,3900,OVC,5000,,,VFR,,,,,,0.05,,,,,,METAR,7.0
MMGM 270056Z 21009KT 10SM OVC130 28/20 A2975 RMK 8/02/,MMGM,2023-05-27T00:56:00Z,27.95,-110.92,28.0,20.0,210,9,,10.0,29.749016,,,,,,,,,,,OVC,13000,,,,,,,VFR,,,,,,,,,,,,METAR,13.0
KYKN 270056Z AUTO 13011KT 10SM CLR 25/03 A3009 RMK AO2 SLP194 T02500028,KYKN,2023-05-27T00:56:00Z,42.92,-97.37,25.0,2.8,130,11,,10.0,30.088583,1019.4,,TRUE,TRUE,,,,,,,CLR,,,,,,,,VFR,,,,,,,,,,,,METAR,388.0
KY50 270056Z AUTO 09004KT 10SM CLR 21/02 A3028 RMK AO2 SLP255 T02060022 $,KY50,2023-05-27T00:56:00Z,44.03,-89.3,20.6,2.2,90,4,,10.0,30.280512,1025.5,,TRUE,TRUE,TRUE,,,,,,CLR,,,,,,,,VFR,,,,,,,,,,,,METAR,261.0
KWWD 270056Z AUTO 00000KT 10SM CLR 13/07 A3028 RMK AO2 SLP257 T01330072 $,KWWD,2023-05-27T00:56:00Z,39.02,-74.92,13.3,7.2,0,0,,10.0,30.280512,1025.7,,TRUE,TRUE,TRUE,,,,,,CLR,,,,,,,,VFR,,,,,,,,,,,,METAR,4.0
KWVL 270056Z AUTO 22005KT 10SM CLR 12/07 A3019 RMK AO2 SLP252 T01220067,KWVL,2023-05-27T00:56:00Z,44.52,-69.67,12.2,6.7,220,5,,10.0,30.188976,1025.2,,TRUE,TRUE,,,,,,,CLR,,,,,,,,VFR,,,,,,,,,,,,METAR,87.0
KWMC 270056Z AUTO 00000KT 10SM FEW110 18/07 A2993 RMK AO2 RAB15E41 SLP107 P0000 T01830067,KWMC,2023-05-27T00:56:00Z,40.9,-117.8,18.3,6.7,0,0,,10.0,29.929134,1010.7,,TRUE,TRUE,,,,,,,FEW,11000,,,,,,,VFR,,,,,,0.005,,,,,,METAR,1311.0
KWJF 270056Z 23021G30KT 10SM CLR 19/09 A2985 RMK AO2 PK WND 23033/0024 SLP102 T01890089,KWJF,2023-05-27T00:56:00Z,34.73,-118.22,18.9,8.9,230,21,30,10.0,29.84941,1010.2,,,TRUE,,,,,,,CLR,,,,,,,,VFR,,,,,,,,,,,,METAR,712.0
KVPZ 270056Z AUTO 01005KT 10SM CLR 14/02 A3027 RMK AO2 SLP250 T01440017,KVPZ,2023-05-27T00:56:00Z,41.45,-87.0,14.4,1.7,10,5,,10.0,30.268702,1025.0,,TRUE,TRUE,,,,,,,CLR,,,,,,,,VFR,,,,,,,,,,,,METAR,235.0
KVIS 270056Z AUTO 29009KT 10SM CLR 27/12 A2985 RMK AO2 SLP114 T02670117,KVIS,2023-05-27T00:56:00Z,36.32,-119.4,26.7,11.7,290,9,,10.0,29.84941,1011.4,,TRUE,TRUE,,,,,,,CLR,,,,,,,,VFR,,,,,,,,,,,,METAR,92.0
KVBT 270056Z AUTO 09009KT 10SM CLR 24/09 A3011 RMK AO2 SLP189 T02390094,KVBT,2023-05-27T00:56:00Z,36.35,-94.22,23.9,9.4,90,9,,10.0,30.109253,1018.9,,TRUE,TRUE,,,,,,,CLR,,,,,,,,VFR,,,,,,,,,,,,METAR,390.0
KUKI 270056Z AUTO 16005KT 10SM CLR 24/13 A2987 RMK AO2 SLP107 T02440128,KUKI,2023-05-27T00:56:00Z,39.12,-123.2,24.4,12.8,160,5,,10.0,29.870079,1010.7,,TRUE,TRUE,,,,,,,CLR,,,,,,,,VFR,,,,,,,,,,,,METAR,183.0
KUDG 270056Z AUTO 04013G19KT 10SM CLR 19/07 A3012 RMK AO2 SLP198 T01890067,KUDG,2023-05-27T00:56:00Z,34.45,-79.88,18.9,6.7,40,13,19,10.0,30.121063,1019.8,,TRUE,TRUE,,,,,,,CLR,,,,,,,,VFR,,,,,,,,,,,,METAR,57.0
KUCP 270056Z AUTO 01006KT 10SM CLR 17/04 A3028 RMK AO2 SLP268 T01670039,KUCP,2023-05-27T00:56:00Z,41.03,-80.42,16.7,3.9,10,6,,10.0,30.280512,1026.8,,TRUE,TRUE,,,,,,,CLR,,,,,,,,VFR,,,,,,,,,,,,METAR,313.0
KTVF 270056Z AUTO 17019G25KT 10SM CLR 27/09 A3006 RMK AO2 SLP176 T02670094,KTVF,2023-05-27T00:56:00Z,48.07,-96.17,26.7,9.4,170,19,25,10.0,30.059055,1017.6,,TRUE,TRUE,,,,,,,CLR,,,,,,,,VFR,,,,,,,,,,,,METAR,339.0
KTPH 270056Z AUTO 35021G26KT 10SM CLR 18/03 A2995 RMK AO2 PK WND 35027/0041 SLP095 T01780028,KTPH,2023-05-27T00:56:00Z,38.05,-117.08,17.8,2.8,350,21,26,10.0,29.949802,1009.5,,TRUE,TRUE,,,,,,,CLR,,,,,,,,VFR,,,,,,,,,,,,METAR,1647.0
KTOA 270056Z 26013KT 10SM SCT025 BKN045 18/11 A2996,KTOA,2023-05-27T00:56:00Z,33.8,-118.33,18.0,11.0,260,13,,10.0,29.958662,,,,,,,,,,,SCT,2500,BKN,4500,,,,,VFR,,,,,,,,,,,,METAR,30.0
KSXT 270056Z AUTO VRB03KT 10SM CLR 21/07 A2996 RMK AO2 SLP109 T02060072,KSXT,2023-05-27T00:56:00Z,42.6,-123.37,20.6,7.2,0,3,,10.0,29.958662,1010.9,,TRUE,TRUE,,,,,,,CLR,,,,,,,,VFR,,,,,,,,,,,,SPECI,1151.0
KSUE 270056Z AUTO 18005KT 10SM CLR 17/00 A3031 RMK AO2 SLP263 T01670000,KSUE,2023-05-27T00:56:00Z,44.85,-87.42,16.7,0.0,180,5,,10.0,30.31004,1026.3,,TRUE,TRUE,,,,,,,CLR,,,,,,,,VFR,,,,,,,,,,,,METAR,215.0
KSRC 270056Z AUTO 36005KT 10SM CLR 22/08 A3008 RMK AO2 SLP185 T02170078,KSRC,2023-05-27T00:56:00Z,35.22,-91.73,21.7,7.8,360,5,,10.0,30.079725,1018.5,,TRUE,TRUE,,,,,,,CLR,,,,,,,,VFR,,,,,,,,,,,,METAR,80.0
KSQI 270056Z AUTO 09011KT 10SM CLR 21/M03 A3024 RMK AO2 SLP105 T02061028,KSQI,2023-05-27T00:56:00Z,41.75,-89.67,20.6,-2.8,90,11,,10.0,30.239174,1010.5,,TRUE,TRUE,,,,,,,CLR,,,,,,,,VFR,,,,,,,,,,,,METAR,196.0
KSPD 270056Z AUTO 14016G24KT 20/12 A3005 RMK AO1 PK WND 15031/0003 SLP127 T02000122,KSPD,2023-05-27T00:56:00Z,37.28,-102.62,20.0,12.2,140,16,24,,30.050198,1012.7,,TRUE,TRUE,,,,,,,,,,,,,,,,,,,,,,,,,,,METAR,1340.0
KSOP 270056Z AUTO 04012G17KT 10SM CLR 17/06 A3016 RMK AO2 SLP217 T01720061,KSOP,2023-05-27T00:56:00Z,35.23,-79.4,17.2,6.1,40,12,17,10.0,30.159449,1021.7,,TRUE,TRUE,,,,,,,CLR,,,,,,,,VFR,,,,,,,,,,,,METAR,135.0
KSMP 270056Z AUTO VRB04KT 10SM SCT048 19/07 A2996 RMK AO2 SLP126 T01890067 REQ SEAMTRSMP,KSMP,2023-05-27T00:56:00Z,47.28,-121.33,18.9,6.7,0,4,,10.0,29.958662,1012.6,,TRUE,TRUE,,,,,,,SCT,4800,,,,,,,VFR,,,,,,,,,,,,METAR,1206.0
KSMN 270056Z AUTO 13004KT 10SM OVC085 14/10 A2994 RMK AO2 RAE41 SLP835 P0001 T01390100,KSMN,2023-05-27T00:56:00Z,45.12,-113.87,13.9,10.0,130,4,,10.0,29.940945,983.5,,TRUE,TRUE,,,,,,,OVC,8500,,,,,,,VFR,,,,,,0.01,,,,,,METAR,1228.0
KSLG 270056Z AUTO 06003KT 10SM CLR 23/13 A3010 RMK AO2 SLP181 T02280128,KSLG,2023-05-27T00:56:00Z,36.2,-94.48,22.8,12.8,60,3,,10.0,30.100393,1018.1,,TRUE,TRUE,,,,,,,CLR,,,,,,,,VFR,,,,,,,,,,,,METAR,361.0
KSKX 270056Z AUTO 08011KT 10SM CLR 14/08 A3013 RMK AO2 RAE32 SLP160 P0001 T01390078,KSKX,2023-05-27T00:56:00Z,36.45,-105.67,13.9,7.8,80,11,,10.0,30.129921,1016.0,,TRUE,TRUE,,,,,,,CLR,,,,,,,,VFR,,,,,,0.01,,,,,,METAR,2163.0
KSHV 270056Z 09004KT 10SM BKN250 26/14 A3000 RMK SLPNO,KSHV,2023-05-27T00:56:00Z,32.45,-93.83,26.0,14.0,90,4,,10.0,30.0,,,,,,,,,,,BKN,25000,,,,,,,VFR,,,,,,,,,,,,METAR,70.0
KSGU 270056Z AUTO 28013G20KT 10SM CLR 29/M04 A2975 RMK AO2 SLP041 T02941039,KSGU,2023-05-27T00:56:00Z,37.03,-113.52,29.4,-3.9,280,13,20,10.0,29.749016,1004.1,,TRUE,TRUE,,,,,,,CLR,,,,,,,,VFR,,,,,,,,,,,,METAR,877.0
KSGT 270056Z AUTO 03009KT 10SM CLR 23/09 A3006 RMK AO2 SLP179 T02330094,KSGT,2023-05-27T00:56:00Z,34.6,-91.57,23.3,9.4,30,9,,10.0,30.059055,1017.9,,TRUE,TRUE,,,,,,,CLR,,,,,,,,VFR,,,,,,,,,,,,METAR,67.0
KSGJ 270056Z AUTO 36018G30KT 10SM 20/17 A2995 RMK AO2 PK WND 35030/0052 SLP140 T02000167 $,KSGJ,2023-05-27T00:56:00Z,29.97,-81.33,20.0,16.7,360,18,30,10.0,29.949802,1014.0,,TRUE,TRUE,TRUE,,,,,,,,,,,,,,,,,,,,,,,,,,METAR,2.0
KSGH 270056Z AUTO 05007KT 10SM CLR 16/04 A3021 RMK AO2 SLP231 T01610044,KSGH,2023-05-27T00:56:00Z,39.83,-83.83,16.1,4.4,50,7,,10.0,30.209646,1023.1,,TRUE,TRUE,,,,,,,CLR,,,,,,,,VFR,,,,,,,,,,,,METAR,318.0
KSFZ 270056Z AUTO VRB04KT 10SM CLR 14/06 A3026 RMK AO2 SLP247 T01390056,KSFZ,2023-05-27T00:56:00Z,41.92,-71.5,13.9,5.6,0,4,,10.0,30.259842,1024.7,,TRUE,TRUE,,,,,,,CLR,,,,,,,,VFR,,,,,,,,,,,,METAR,129.0
KSFO 270056Z 25012KT 10SM FEW015 SCT021 16/09 A2995 RMK AO2 SLP141 T01610094,KSFO,2023-05-27T00:56:00Z,37.62,-122.37,16.1,9.4,250,12,,10.0,29.949802,1014.1,,,TRUE,,,,,,,FEW,1500,SCT,2100,,,,,VFR,,,,,,,,,,,,METAR,2.0
KSFM 270056Z AUTO 00000KT 10SM CLR 09/06 A3026 RMK AO2 SLP252 T00940061,KSFM,2023-05-27T00:56:00Z,43.38,-70.72,9.4,6.1,0,0,,10.0,30.259842,1025.2,,TRUE,TRUE,,,,,,,CLR,,,,,,,,VFR,,,,,,,,,,,,METAR,70.0
KSDF 270056Z 05007KT 10SM FEW200 SCT300 23/07 A3013 RMK AO2 SLP201 T02330072,KSDF,2023-05-27T00:56:00Z,38.18,-85.73,23.3,7.2,50,7,,10.0,30.129921,1020.1,,,TRUE,,,,,,,FEW,20000,SCT,30000,,,,,VFR,,,,,,,,,,,,METAR,146.0
KSBP 270056Z 31015KT 10SM CLR 17/10 A2994 RMK AO2 SLP139 T01670100,KSBP,2023-05-27T00:56:00Z,35.23,-120.63,16.7,10.0,310,15,,10.0,29.940945,1013.9,,,TRUE,,,,,,,CLR,,,,,,,,VFR,,,,,,,,,,,,METAR,52.0
KRUT 270056Z AUTO 14003KT 10SM CLR 13/05 A3027 RMK AO2 SLP248 T01280050 $,KRUT,2023-05-27T00:56:00Z,43.53,-72.95,12.8,5.0,140,3,,10.0,30.268702,1024.8,,TRUE,TRUE,TRUE,,,,,,CLR,,,,,,,,VFR,,,,,,,,,,,,METAR,238.0
KRKD 270056Z AUTO 25008KT 10SM CLR 10/08 A3023 RMK AO2 SLP238 T01000078,KRKD,2023-05-27T00:56:00Z,44.07,-69.1,10.0,7.8,250,8,,10.0,30.230314,1023.8,,TRUE,TRUE,,,,,,,CLR,,,,,,,,VFR,,,,,,,,,,,,METAR,15.0
KRDM 270056Z 03006KT 10SM -RA FEW047 SCT070 OVC085 18/11 A2993 RMK AO2 PK WND 31032/0022 RAB14 SLP129 P0004 T01780106,KRDM,2023-05-27T00:56:00Z,44.25,-121.15,17.8,10.6,30,6,,10.0,29.929134,1012.9,,,TRUE,,,,,,-RA,FEW,4700,SCT,7000,OVC,8500,,,VFR,,,,,,0.04,,,,,,METAR,930.0
KPWT 270056Z AUTO 05008KT 10SM CLR 26/11 A2985 RMK AO2 SLP111 T02560111,KPWT,2023-05-27T00:56:00Z,47.5,-122.77,25.6,11.1,50,8,,10.0,29.84941,1011.1,,TRUE,TRUE,,,,,,,CLR,,,,,,,,VFR,,,,,,,,,,,,METAR,143.0
KPWG 270056Z AUTO 08004KT 10SM CLR 27/14 A2999 RMK AO2 SLP149 T02720144,KPWG,2023-05-27T00:56:00Z,31.48,-97.32,27.2,14.4,80,4,,10.0,29.991142,1014.9,,TRUE,TRUE,,,,,,,CLR,,,,,,,,VFR,,,,,,,,,,,,METAR,178.0
KPVU 270056Z 13009KT 10SM CLR 20/04 A2987 RMK AO2 SLP075 T02000044,KPVU,2023-05-27T00:56:00Z,40.22,-111.72,20.0,4.4,130,9,,10.0,29.870079,1007.5,,,TRUE,,,,,,,CLR,,,,,,,,VFR,,,,,,,,,,,,METAR,1370.0
KPVG 270056Z AUTO 10SM CLR 15/06 A3023 RMK AO2 RAB35E45 SLP239 P0000 T01500061 $,KPVG,2023-05-27T00:56:00Z,36.78,-76.45,15.0,6.1,,,,10.0,30.230314,1023.9,,TRUE,TRUE,TRUE,,,,,,CLR,,,,,,,,VFR,,,,,,0.005,,,,,,METAR,7.0
KPVC 270056Z AUTO 19006KT 10SM CLR 12/08 A3028 RMK AO2 SLP254 T01170083,KPVC,2023-05-27T00:56:00Z,42.07,-70.22,11.7,8.3,190,6,,10.0,30.280512,1025.4,,TRUE,TRUE,,,,,,,CLR,,,,,,,,VFR,,,,,,,,,,,,METAR,1.0
KPTV 270056Z AUTO 31010KT 10SM CLR 27/11 A2985 RMK AO2 SLP107 T02670111,KPTV,2023-05-27T00:56:00Z,36.02,-119.07,26.7,11.1,310,10,,10.0,29.84941,1010.7,,TRUE,TRUE,,,,,,,CLR,,,,,,,,VFR,,,,,,,,,,,,METAR,132.0
KPTN 270056Z AUTO 00000KT 10SM BKN080 26/18 A2996 RMK AO2 SLP146 T02560183 $,KPTN,2023-05-27T00:56:00Z,29.72,-91.33,25.6,18.3,0,0,,10.0,29.958662,1014.6,,TRUE,TRUE,TRUE,,,,,,BKN,8000,,,,,,,VFR,,,,,,,,,,,,METAR,2.0
KPRX 270056Z AUTO 08004KT 10SM CLR 26/15 A3002 RMK AO2 SLP162 T02560150,KPRX,2023-05-27T00:56:00Z,33.63,-95.45,25.6,15.0,80,4,,10.0,30.02067,1016.2,,TRUE,TRUE,,,,,,,CLR,,,,,,,,VFR,,,,,,,,,,,,METAR,165.0
KPQI 270056Z AUTO 21003KT 10SM CLR 11/08 A3011 RMK AO2 SLP223 T01110083,KPQI,2023-05-27T00:56:00Z,46.68,-68.05,11.1,8.3,210,3,,10.0,30.109253,1022.3,,TRUE,TRUE,,,,,,,CLR,,,,,,,,VFR,,,,,,,,,,,,METAR,154.0
KPIB 270056Z AUTO 00000KT 10SM CLR 23/17 A3000 RMK AO2 SLP157 T02280172,KPIB,2023-05-27T00:56:00Z,31.47,-89.33,22.8,17.2,0,0,,10.0,30.0,1015.7,,TRUE,TRUE,,,,,,,CLR,,,,,,,,VFR,,,,,,,,,,,,METAR,91.0
KP60 270056Z AUTO 00000KT 09/02 A3006 RMK AO1 SLP146 T00940022,KP60,2023-05-27T00:56:00Z,44.55,-110.42,9.4,2.2,0,0,,,30.059055,1014.6,,TRUE,TRUE,,,,,,,,,,,,,,,,,,,,,,,,,,,SPECI,2377.0
KP53 270056Z AUTO 00000KT 15/01 A3027 RMK AO1 SLP250 T01500011,KP53,2023-05-27T00:56:00Z,46.42,-86.65,15.0,1.1,0,0,,,30.268702,1025.0,,TRUE,TRUE,,,,,,,,,,,,,,,,,,,,,,,,,,,METAR,185.0
KP28 270056Z AUTO 00000KT 23/16 A3007 RMK AO1 SLP172 T02280161 $,KP28,2023-05-27T00:56:00Z,37.28,-98.55,22.8,16.1,0,0,,,30.070866,1017.2,,TRUE,TRUE,TRUE,,,,,,,,,,,,,,,,,,,,,,,,,,METAR,469.0
KOWB 270056Z 04003KT 10SM CLR 22/09 A3013 RMK AO2 SLP201 T02220094,KOWB,2023-05-27T00:56:00Z,37.72,-87.17,22.2,9.4,40,3,,10.0,30.129921,1020.1,,,TRUE,,,,,,,CLR,,,,,,,,VFR,,,,,,,,,,,,METAR,121.0
KOTH 270056Z 33009KT 6SM BR BKN005 OVC010 13/12 A3000 RMK AO2 SLP160 T01280122,KOTH,2023-05-27T00:56:00Z,43.42,-124.25,12.8,12.2,330,9,,6.0,30.0,1016.0,,,TRUE,,,,,,BR,BKN,500,OVC,1000,,,,,IFR,,,,,,,,,,,,METAR,3.0
KOTG 270056Z AUTO 13009KT 10SM CLR 24/M06 A3017 RMK AO2 SLP214 T02391056 PNO $,KOTG,2023-05-27T00:56:00Z,43.65,-95.57,23.9,-5.6,130,9,,10.0,30.171259,1021.4,,TRUE,TRUE,TRUE,,,,,,CLR,,,,,,,,VFR,,,,,,,,,,,,METAR,478.0
KOLU 270056Z AUTO 12011KT 10SM CLR 25/07 A3011 RMK AO2 SLP189 T02500072,KOLU,2023-05-27T00:56:00Z,41.45,-97.33,25.0,7.2,120,11,,10.0,30.109253,1018.9,,TRUE,TRUE,,,,,,,CLR,,,,,,,,VFR,,,,,,,,,,,,METAR,438.0
KOKK 270056Z AUTO 07011KT 10SM CLR 19/M01 A3024 RMK AO2 SLP242 T01941011 PNO $,KOKK,2023-05-27T00:56:00Z,40.53,-86.07,19.4,-1.1,70,11,,10.0,30.239174,1024.2,,TRUE,TRUE,TRUE,,,,,,CLR,,,,,,,,VFR,,,,,,,,,,,,METAR,251.0
KOFK 270056Z AUTO 13011KT 10SM 26/04 A3009 RMK AO2 SLP180 T02560039,KOFK,2023-05-27T00:56:00Z,41.98,-97.43,25.6,3.9,130,11,,10.0,30.088583,1018.0,,TRUE,TRUE,,,,,,,,,,,,,,,,,,,,,,,,,,,METAR,476.0
KOCH 270056Z AUTO 00000KT 10SM CLR 24/17 A2999 RMK AO2 SLP157 T02390172,KOCH,2023-05-27T00:56:00Z,31.57,-94.72,23.9,17.2,0,0,,10.0,29.991142,1015.7,,TRUE,TRUE,,,,,,,CLR,,,,,,,,VFR,,,,,,,,,,,,METAR,105.0
KOAJ 270056Z 03009KT 10SM -RA BKN034 OVC042 16/11 A3011 RMK AO2 RAB00 SLP200 P0000 T01610111,KOAJ,2023-05-27T00:56:00Z,34.82,-77.62,16.1,11.1,30,9,,10.0,30.109253,1020.0,,,TRUE,,,,,,-RA,BKN,3400,OVC,4200,,,,,VFR,,,,,,0.005,,,,,,METAR,26.0
KNYG 270056Z AUTO 10004KT 10SM CLR 20/09 A3024 RMK AO2 SLP242 T02000089 $,KNYG,2023-05-27T00:56:00Z,38.5,-77.3,20.0,8.9,100,4,,10.0,30.239174,1024.2,,TRUE,TRUE,TRUE,,,,,,CLR,,,,,,,,VFR,,,,,,,,,,,,METAR,2.0
KNXP 270056Z AUTO 23013KT 10SM CLR 29/M06 A2982 RMK AO2 WSHFT 2345 SLP068 T02891056,KNXP,2023-05-27T00:56:00Z,34.28,-116.13,28.9,-5.6,230,13,,10.0,29.819881,1006.8,,TRUE,TRUE,,,,,,,CLR,,,,,,,,VFR,,,,,,,,,,,,SPECI,610.0
KNXF 270056Z AUTO 30012KT 10SM -RA CLR 18/12 A2994 RMK AO2 SLP224 P0000 T01830117 $,KNXF,2023-05-27T00:56:00Z,33.28,-117.45,18.3,11.7,300,12,,10.0,29.940945,1022.4,,TRUE,TRUE,TRUE,,,,,-RA,CLR,,,,,,,,VFR,,,,,,0.005,,,,,,METAR,28.0
KNUC 270056Z AUTO 29012KT CLR 16/ A2998 RMK AO2 SLP150 T0161 $,KNUC,2023-05-27T00:56:00Z,33.02,-118.57,16.1,,290,12,,,29.97933,1015.0,,TRUE,TRUE,TRUE,,,,,,CLR,,,,,,,,,,,,,,,,,,,,METAR,52.0
KNTU 270056Z 06014G21KT 10SM OVC300 16/08 A3022 RMK AO2 SLP234 T01560083,KNTU,2023-05-27T00:56:00Z,36.82,-76.02,15.6,8.3,60,14,21,10.0,30.221457,1023.4,,,TRUE,,,,,,,OVC,30000,,,,,,,VFR,,,,,,,,,,,,METAR,6.0
KNSE 270056Z 05005KT 10SM FEW042 SCT110 22/18 A2997 RMK AO2 SLP134 T02170178 $,KNSE,2023-05-27T00:56:00Z,30.73,-87.02,21.7,17.8,50,5,,10.0,29.970472,1013.4,,,TRUE,TRUE,,,,,,FEW,4200,SCT,11000,,,,,VFR,,,,,,,,,,,,METAR,56.0
KNQI 270056Z AUTO 11007KT 10SM CLR 28/21 A2992 RMK AO2 SLP129 T02780211 $,KNQI,2023-05-27T00:56:00Z,27.5,-97.82,27.8,21.1,110,7,,10.0,29.920275,1012.9,,TRUE,TRUE,TRUE,,,,,,CLR,,,,,,,,VFR,,,,,,,,,,,,METAR,15.0
KNPA 270056Z 00000KT 10SM SCT047 BKN110 23/19 A2996 RMK AO2 SLP146 T02280189,KNPA,2023-05-27T00:56:00Z,30.35,-87.32,22.8,18.9,0,0,,10.0,29.958662,1014.6,,,TRUE,,,,,,,SCT,4700,BKN,11000,,,,,VFR,,,,,,,,,,,,METAR,6.0
KNOG 270056Z AUTO 10010KT 10SM CLR 28/19 A2994 RMK AO2 SLP120 T02780189 TSNO $,KNOG,2023-05-27T00:56:00Z,27.9,-98.05,27.8,18.9,100,10,,10.0,29.940945,1012.0,,TRUE,TRUE,TRUE,,TRUE,,,,CLR,,,,,,,,VFR,,,,,,,,,,,,SPECI,72.0
KNMM 270056Z AUTO 08004KT 10SM FEW065 A3001 RMK AO2 SLPNO,KNMM,2023-05-27T00:56:00Z,32.53,-88.53,,,80,4,,10.0,30.008858,,,TRUE,TRUE,,,,,,,FEW,6500,,,,,,,VFR,,,,,,,,,,,,SPECI,94.0
KNLC 270056Z 33006KT 10SM FEW050 27/11 A2985 RMK AO2 SLP107 T02720106,KNLC,2023-05-27T00:56:00Z,36.32,-119.95,27.2,10.6,330,6,,10.0,29.84941,1010.7,,,TRUE,,,,,,,FEW,5000,,,,,,,VFR,,,,,,,,,,,,SPECI,69.0
KNKT 270056Z 05013KT 9SM -RA BKN036 BKN046 OVC095 15/13 A3011 RMK AO2 SLP194 P0005 T01500133 $,KNKT,2023-05-27T00:56:00Z,34.9,-76.88,15.0,13.3,50,13,,9.0,30.109253,1019.4,,,TRUE,TRUE,,,,,-RA,BKN,3600,BKN,4600,OVC,9500,,,VFR,,,,,,0.05,,,,,,METAR,8.0
KNJK 270056Z 24024KT 10SM CLR 31/05 A2974 RMK AO2 PK WND 24032/0049 SLP084 T03060050 $,KNJK,2023-05-27T00:56:00Z,32.82,-115.67,30.6,5.0,240,24,,10.0,29.740158,1008.4,,,TRUE,TRUE,,,,,,CLR,,,,,,,,VFR,,,,,,,,,,,,METAR,-15.0
KNID 270056Z AUTO VRB04KT 10SM CLR 31/M06 A2973 RMK AO2 SLP052 T03061056 $,KNID,2023-05-27T00:56:00Z,35.68,-117.68,30.6,-5.6,0,4,,10.0,29.731298,1005.2,,TRUE,TRUE,TRUE,,,,,,CLR,,,,,,,,VFR,,,,,,,,,,,,SPECI,682.0
KNGP 270056Z AUTO 11011KT 10SM CLR 29/21 A2993 RMK AO2 SLP136 T02890211 $,KNGP,2023-05-27T00:56:00Z,27.68,-97.28,28.9,21.1,110,11,,10.0,29.929134,1013.6,,TRUE,TRUE,TRUE,,,,,,CLR,,,,,,,,VFR,,,,,,,,,,,,SPECI,5.0
KNFL 270056Z 02005KT 10SM FEW050 SCT100 BKN150 BKN250 22/06 A2990 RMK AO2 SLP101 CB DSNT NW-N T02220061,KNFL,2023-05-27T00:56:00Z,39.42,-118.7,22.2,6.1,20,5,,10.0,29.899607,1010.1,,,TRUE,,,,,,,FEW,5000,SCT,10000,BKN,15000,BKN,25000,VFR,,,,,,,,,,,,SPECI,1199.0
KNFE 270056Z AUTO 05007KT 10SM CLR 16/07 A3022 RMK AO2 SLP235 T01610072,KNFE,2023-05-27T00:56:00Z,36.7,-76.13,16.1,7.2,50,7,,10.0,30.221457,1023.5,,TRUE,TRUE,,,,,,,CLR,,,,,,,,VFR,,,,,,,,,,,,METAR,4.0
KNDZ 270056Z 05005KT 10SM FEW042 SCT100 24/17 A2997 RMK AO2 SLP135 T02390172 $,KNDZ,2023-05-27T00:56:00Z,30.7,-87.02,23.9,17.2,50,5,,10.0,29.970472,1013.5,,,TRUE,TRUE,,,,,,FEW,4200,SCT,10000,,,,,VFR,,,,,,,,,,,,METAR,51.0
KNCA 270056Z AUTO 03014KT 10SM -RA BKN032 BKN046 BKN120 15/11 A3009 RMK AO2 SLP192 P0001 T01500111,KNCA,2023-05-27T00:56:00Z,34.72,-77.45,15.0,11.1,30,14,,10.0,30.088583,1019.2,,TRUE,TRUE,,,,,,-RA,BKN,3200,BKN,4600,BKN,12000,,,VFR,,,,,,0.01,,,,,,METAR,9.0
KNBC 270056Z AUTO 03013KT 8SM RA OVC110 15/13 A3003 RMK AO2 SLP168 P0014 T01500128,KNBC,2023-05-27T00:56:00Z,32.47,-80.72,15.0,12.8,30,13,,8.0,30.029528,1016.8,,TRUE,TRUE,,,,,,RA,OVC,11000,,,,,,,VFR,,,,,,0.14,,,,,,METAR,9.0
KMYR 270056Z 36009KT 10SM -RA OVC050 16/14 A3006 RMK AO2 SLP178 P0002 T01560144,KMYR,2023-05-27T00:56:00Z,33.68,-78.92,15.6,14.4,360,9,,10.0,30.059055,1017.8,,,TRUE,,,,,,-RA,OVC,5000,,,,,,,VFR,,,,,,0.02,,,,,,METAR,7.0
KMVN 270056Z AUTO 35004KT 10SM CLR 20/08 A3015 RMK AO2 SLP212 T02000078,KMVN,2023-05-27T00:56:00Z,38.32,-88.87,20.0,7.8,350,4,,10.0,30.15059,1021.2,,TRUE,TRUE,,,,,,,CLR,,,,,,,,VFR,,,,,,,,,,,,METAR,145.0
KMTW 270056Z AUTO 00000KT 10SM CLR 14/M01 A3032 RMK AO2 SLP269 T01441006,KMTW,2023-05-27T00:56:00Z,44.12,-87.67,14.4,-0.6,0,0,,10.0,30.318897,1026.9,,TRUE,TRUE,,,,,,,CLR,,,,,,,,VFR,,,,,,,,,,,,METAR,197.0
KMTC 270056Z 06010KT 10SM FEW250 15/02 A3029 RMK AO2A SLP263 T01510019 $,KMTC,2023-05-27T00:56:00Z,42.62,-82.83,15.1,1.9,60,10,,10.0,30.28937,1026.3,,,TRUE,TRUE,,,,,,FEW,25000,,,,,,,VFR,,,,,,,,,,,,SPECI,177.0
KMSV 270056Z AUTO 35003KT 10SM CLR 14/02 A3027 RMK AO2 SLP252 T01440017,KMSV,2023-05-27T00:56:00Z,41.7,-74.78,14.4,1.7,350,3,,10.0,30.268702,1025.2,,TRUE,TRUE,,,,,,,CLR,,,,,,,,VFR,,,,,,,,,,,,METAR,427.0
KMRF 270056Z AUTO 10019G24KT 10SM CLR 24/16 A3003 RMK AO2 PK WND 09026/0030 LTG DSNT E SLP111 T02390156,KMRF,2023-05-27T00:56:00Z,30.37,-104.02,23.9,15.6,100,19,24,10.0,30.029528,1011.1,,TRUE,TRUE,,,,,,,CLR,,,,,,,,VFR,,,,,,,,,,,,METAR,1476.0
KMQY 270056Z 35007KT 10SM OVC120 23/13 A3009 RMK AO2 SLP193 T02280133,KMQY,2023-05-27T00:56:00Z,36.02,-86.52,22.8,13.3,350,7,,10.0,30.088583,1019.3,,,TRUE,,,,,,,OVC,12000,,,,,,,VFR,,,,,,,,,,,,METAR,156.0
KMOB 270056Z 04006KT 10SM FEW050 BKN065 OVC100 26/14 A2998 RMK AO2 SLP148 T02610144,KMOB,2023-05-27T00:56:00Z,30.68,-88.25,26.1,14.4,40,6,,10.0,29.97933,1014.8,,,TRUE,,,,,,,FEW,5000,BKN,6500,OVC,10000,,,VFR,,,,,,,,,,,,METAR,67.0
KMML 270056Z AUTO 14009KT 10SM CLR 25/M01 A3014 RMK AO2 SLP203 T02501006 $,KMML,2023-05-27T00:56:00Z,44.45,-95.82,25.0,-0.6,140,9,,10.0,30.138779,1020.3,,TRUE,TRUE,TRUE,,,,,,CLR,,,,,,,,VFR,,,,,,,,,,,,METAR,358.0
KMKY 270056Z AUTO 10SM CLR 22/19 A2985 RMK AO2 SLP108 T02170194 TSNO PNO $,KMKY,2023-05-27T00:56:00Z,26.0,-81.67,21.7,19.4,,,,10.0,29.84941,1010.8,,TRUE,TRUE,TRUE,,TRUE,,,,CLR,,,,,,,,VFR,,,,,,,,,,,,METAR,2.0
KMKT 270056Z AUTO 14009KT 10SM CLR 23/M03 A3020 RMK AO2 SLP225 T02331028,KMKT,2023-05-27T00:56:00Z,44.22,-93.92,23.3,-2.8,140,9,,10.0,30.200787,1022.5,,TRUE,TRUE,,,,,,,CLR,,,,,,,,VFR,,,,,,,,,,,,METAR,309.0
KMHS 270056Z AUTO VRB05KT 10SM SCT085 BKN110 22/10 A2988 RMK AO2 SLP118 T02220100,KMHS,2023-05-27T00:56:00Z,41.32,-122.32,22.2,10.0,0,5,,10.0,29.878937,1011.8,,TRUE,TRUE,,,,,,,SCT,8500,BKN,11000,,,,,VFR,,,,,,,,,,,,METAR,1080.0
KMEH 270056Z AUTO VRB04KT 10SM FEW014 18/06 A2993 RMK AO2 SLP132 T01780061,KMEH,2023-05-27T00:56:00Z,45.52,-118.42,17.8,6.1,0,4,,10.0,29.929134,1013.2,,TRUE,TRUE,,,,,,,FEW,1400,,,,,,,VFR,,,,,,,,,,,,METAR,1138.0
KMDT 270056Z 29004KT 10SM SCT250 18/07 A3023 RMK AO2 SLP239 T01830072,KMDT,2023-05-27T00:56:00Z,40.2,-76.77,18.3,7.2,290,4,,10.0,30.230314,1023.9,,,TRUE,,,,,,,SCT,25000,,,,,,,VFR,,,,,,,,,,,,METAR,91.0
KMBL 270056Z AUTO 00000KT 10SM CLR 13/M12 A3032 RMK AO2 SLP269 T01281117,KMBL,2023-05-27T00:56:00Z,44.27,-86.25,12.8,-11.7,0,0,,10.0,30.318897,1026.9,,TRUE,TRUE,,,,,,,CLR,,,,,,,,VFR,,,,,,,,,,,,METAR,187.0
KM19 270056Z AUTO 04007KT 10SM CLR 23/06 A3009 RMK AO2 SLP188 T02330056 PNO $,KM19,2023-05-27T00:56:00Z,35.65,-91.17,23.3,5.6,40,7,,10.0,30.088583,1018.8,,TRUE,TRUE,TRUE,,,,,,CLR,,,,,,,,VFR,,,,,,,,,,,,METAR,72.0
KLZU 270056Z AUTO 08009KT 10SM CLR 19/11 A3011 RMK AO2 SLP202 T01940106,KLZU,2023-05-27T00:56:00Z,33.98,-83.97,19.4,10.6,80,9,,10.0,30.109253,1020.2,,TRUE,TRUE,,,,,,,CLR,,,,,,,,VFR,,,,,,,,,,,,METAR,316.0
KLWS 270056Z 28007KT 10SM FEW120 25/08 A2983 RMK AO2 LTG DSNT NE SLP097 T02500078,KLWS,2023-05-27T00:56:00Z,46.37,-117.02,25.0,7.8,280,7,,10.0,29.828741,1009.7,,,TRUE,,,,,,,FEW,12000,,,,,,,VFR,,,,,,,,,,,,METAR,435.0
KLRD 270056Z 08010KT 10SM CLR 31/17 A2989 RMK AO2 SLP119 T03110172,KLRD,2023-05-27T00:56:00Z,27.55,-99.47,31.1,17.2,80,10,,10.0,29.890747,1011.9,,,TRUE,,,,,,,CLR,,,,,,,,VFR,,,,,,,,,,,,METAR,150.0
KLNR 270056Z AUTO 06004KT 10SM CLR 20/04 A3026 RMK AO2 SLP242 T02000039 $,KLNR,2023-05-27T00:56:00Z,43.22,-90.18,20.0,3.9,60,4,,10.0,30.259842,1024.2,,TRUE,TRUE,TRUE,,,,,,CLR,,,,,,,,VFR,,,,,,,,,,,,METAR,218.0
KLEW 270056Z AUTO 16003KT 10SM CLR 11/06 A3025 RMK AO2 SLP252 T01110061 PNO $,KLEW,2023-05-27T00:56:00Z,44.03,-70.28,11.1,6.1,160,3,,10.0,30.250984,1025.2,,TRUE,TRUE,TRUE,,,,,,CLR,,,,,,,,VFR,,,,,,,,,,,,METAR,81.0
KLCI 270056Z AUTO 28004KT 10SM CLR 16/03 A3025 RMK AO2 SLP242 T01610028,KLCI,2023-05-27T00:56:00Z,43.57,-71.42,16.1,2.8,280,4,,10.0,30.250984,1024.2,,TRUE,TRUE,,,,,,,CLR,,,,,,,,VFR,,,,,,,,,,,,METAR,166.0
KLBT 270056Z AUTO 03013G21KT 10SM CLR 18/08 A3010 RMK AO2 SLP192 T01830078,KLBT,2023-05-27T00:56:00Z,34.6,-79.07,18.3,7.8,30,13,21,10.0,30.100393,1019.2,,TRUE,TRUE,,,,,,,CLR,,,,,,,,VFR,,,,,,,,,,,,METAR,37.0
KLBL 270056Z AUTO 16014KT 10SM BKN039 22/13 A3006 RMK AO2 SLP158 T02170133,KLBL,2023-05-27T00:56:00Z,37.03,-100.97,21.7,13.3,160,14,,10.0,30.059055,1015.8,,TRUE,TRUE,,,,,,,BKN,3900,,,,,,,VFR,,,,,,,,,,,,METAR,877.0
KLAS 270056Z 21006KT 10SM FEW120 31/M06 A2970 RMK AO2 PK WND 08026/0015 SLP035 T03061056,KLAS,2023-05-27T00:56:00Z,36.07,-115.17,30.6,-5.6,210,6,,10.0,29.698818,1003.5,,,TRUE,,,,,,,FEW,12000,,,,,,,VFR,,,,,,,,,,,,METAR,662.0
KKLS 270056Z AUTO 30015G21KT CLR 24/13 A2987 RMK AO2 SLP117 T02390128 PWINO $,KKLS,2023-05-27T00:56:00Z,46.12,-122.9,23.9,12.8,300,15,21,,29.870079,1011.7,,TRUE,TRUE,TRUE,,,,TRUE,,CLR,,,,,,,,,,,,,,,,,,,,METAR,4.0
KJXN 270056Z 08004KT 10SM CLR 16/01 A3029 RMK AO2 SLP260 T01560006,KJXN,2023-05-27T00:56:00Z,42.27,-84.47,15.6,0.6,80,4,,10.0,30.28937,1026.0,,,TRUE,,,,,,,CLR,,,,,,,,VFR,,,,,,,,,,,,METAR,303.0
KJRB 270056Z AUTO 15003KT 10SM CLR 18/06 A3026 RMK AO2 SLP247 T01830061,KJRB,2023-05-27T00:56:00Z,40.7,-74.02,18.3,6.1,150,3,,10.0,30.259842,1024.7,,TRUE,TRUE,,,,,,,CLR,,,,,,,,VFR,,,,,,,,,,,,METAR,2.0
KJMS 270056Z AUTO 18019G27KT 10SM CLR 27/10 A3000 RMK AO2 PK WND 18031/2358 SLP152 T02670100,KJMS,2023-05-27T00:56:00Z,46.93,-98.67,26.7,10.0,180,19,27,10.0,30.0,1015.2,,TRUE,TRUE,,,,,,,CLR,,,,,,,,VFR,,,,,,,,,,,,METAR,455.0
KJHW 270056Z AUTO 36007KT 10SM CLR 14/01 A3032 RMK AO2 SLP276 T01390011 PNO $,KJHW,2023-05-27T00:56:00Z,42.15,-79.27,13.9,1.1,360,7,,10.0,30.318897,1027.6,,TRUE,TRUE,TRUE,,,,,,CLR,,,,,,,,VFR,,,,,,,,,,,,METAR,520.0
KJAX 270056Z 02018G26KT 10SM OVC028 19/13 A2997 RMK AO2 PK WND 02027/0040 SLP150 T01940128,KJAX,2023-05-27T00:56:00Z,30.5,-81.68,19.4,12.8,20,18,26,10.0,29.970472,1015.0,,,TRUE,,,,,,,OVC,2800,,,,,,,MVFR,,,,,,,,,,,,METAR,8.0
KJAC 270056Z 21006KT 10SM CLR 14/03 A3001 RMK AO2 SLP137 T01390033 PNO $,KJAC,2023-05-27T00:56:00Z,43.62,-110.73,13.9,3.3,210,6,,10.0,30.008858,1013.7,,,TRUE,TRUE,,,,,,CLR,,,,,,,,VFR,,,,,,,,,,,,METAR,1967.0
KIWD 270056Z AUTO 18004KT 10SM CLR 23/M01 A3025 RMK AO2 SLP241 T02281006,KIWD,2023-05-27T00:56:00Z,46.52,-90.12,22.8,-0.6,180,4,,10.0,30.250984,1024.1,,TRUE,TRUE,,,,,,,CLR,,,,,,,,VFR,,,,,,,,,,,,METAR,373.0
KITH 270056Z 03003KT 10SM CLR 10/04 A3031 RMK AO2 SLP265 T01000044,KITH,2023-05-27T00:56:00Z,42.48,-76.45,10.0,4.4,30,3,,10.0,30.31004,1026.5,,,TRUE,,,,,,,CLR,,,,,,,,VFR,,,,,,,,,,,,METAR,338.0
KISP 270056Z 24004KT 10SM FEW250 15/08 A3025 RMK AO2 SLP243 T01500083,KISP,2023-05-27T00:56:00Z,40.8,-73.1,15.0,8.3,240,4,,10.0,30.250984,1024.3,,,TRUE,,,,,,,FEW,25000,,,,,,,VFR,,,,,,,,,,,,METAR,25.0
KISM 270056Z 02009G18KT 010V070 10SM FEW030 OVC037 23/18 A2991 RMK AO2 SLP129 T02330178 PNO $,KISM,2023-05-27T00:56:00Z,28.28,-81.43,23.3,17.8,20,9,18,10.0,29.911417,1012.9,,,TRUE,TRUE,,,,,,FEW,3000,OVC,3700,,,,,VFR,,,,,,,,,,,,METAR,25.0
KINW 270056Z AUTO 22018G25KT 10SM CLR 27/M08 A2991 RMK AO2 SLP068 T02671078,KINW,2023-05-27T00:56:00Z,35.03,-110.72,26.7,-7.8,220,18,25,10.0,29.911417,1006.8,,TRUE,TRUE,,,,,,,CLR,,,,,,,,VFR,,,,,,,,,,,,METAR,1492.0
KILE 270056Z AUTO 10006KT 10SM 27/16 A2999 RMK AO2 SLP145 T02670156,KILE,2023-05-27T00:56:00Z,31.08,-97.68,26.7,15.6,100,6,,10.0,29.991142,1014.5,,TRUE,TRUE,,,,,,,,,,,,,,,,,,,,,,,,,,,METAR,256.0
KHYS 270056Z AUTO 16015G23KT 10SM OVC110 24/13 A3005 RMK AO2 SLP165 T02440128 $,KHYS,2023-05-27T00:56:00Z,38.85,-99.27,24.4,12.8,160,15,23,10.0,30.050198,1016.5,,TRUE,TRUE,TRUE,,,,,,OVC,11000,,,,,,,VFR,,,,,,,,,,,,METAR,607.0
KHYI 270056Z 10004KT 10SM 26/21 A2996 RMK AO2 SLP137 T02560206,KHYI,2023-05-27T00:56:00Z,29.88,-97.87,25.6,20.6,100,4,,10.0,29.958662,1013.7,,,TRUE,,,,,,,,,,,,,,,,,,,,,,,,,,,METAR,180.0
KHYA 270056Z 00000KT 10SM CLR 11/07 A3027 RMK AO2 SLP251 T01110072,KHYA,2023-05-27T00:56:00Z,41.67,-70.27,11.1,7.2,0,0,,10.0,30.268702,1025.1,,,TRUE,,,,,,,CLR,,,,,,,,VFR,,,,,,,,,,,,METAR,11.0
KHWV 270056Z AUTO 00000KT 10SM CLR 14/06 A3026 RMK AO2 SLP245 T01440061,KHWV,2023-05-27T00:56:00Z,40.82,-72.87,14.4,6.1,0,0,,10.0,30.259842,1024.5,,TRUE,TRUE,,,,,,,CLR,,,,,,,,VFR,,,,,,,,,,,,METAR,20.0
KHPN 270056Z 00000KT 10SM CLR 15/05 A3025 RMK AO2 SLP242 T01500050,KHPN,2023-05-27T00:56:00Z,41.07,-73.7,15.0,5.0,0,0,,10.0,30.250984,1024.2,,,TRUE,,,,,,,CLR,,,,,,,,VFR,,,,,,,,,,,,METAR,113.0
KHND 270056Z 20012G18KT 10SM CLR 30/M02 A2974 RMK AO2 SLP062 T03001022,KHND,2023-05-27T00:56:00Z,35.98,-115.13,30.0,-2.2,200,12,18,10.0,29.740158,1006.2,,,TRUE,,,,,,,CLR,,,,,,,,VFR,,,,,,,,,,,,METAR,740.0
KHNB 270056Z AUTO 06005KT 10SM CLR 21/11 A3014 RMK AO2 SLP206 T02060106,KHNB,2023-05-27T00:56:00Z,38.25,-86.95,20.6,10.6,60,5,,10.0,30.138779,1020.6,,TRUE,TRUE,,,,,,,CLR,,,,,,,,VFR,,,,,,,,,,,,METAR,159.0
KHEZ 270056Z AUTO 00000KT 10SM CLR 24/16 A2999 RMK AO2 SLP153 T02390161,KHEZ,2023-05-27T00:56:00Z,31.62,-91.3,23.9,16.1,0,0,,10.0,29.991142,1015.3,,TRUE,TRUE,,,,,,,CLR,,,,,,,,VFR,,,,,,,,,,,,METAR,82.0
KHEF 270056Z 00000KT 10SM CLR 17/08 A3024 RMK AO2 SLP247 T01670078,KHEF,2023-05-27T00:56:00Z,38.72,-77.52,16.7,7.8,0,0,,10.0,30.239174,1024.7,,,TRUE,,,,,,,CLR,,,,,,,,VFR,,,,,,,,,,,,METAR,53.0
KHDN 270056Z AUTO 22020G24KT 10SM CLR 21/M04 A2993 RMK AO2 SLP066 T02061039,KHDN,2023-05-27T00:56:00Z,40.48,-107.22,20.6,-3.9,220,20,24,10.0,29.929134,1006.6,,TRUE,TRUE,,,,,,,CLR,,,,,,,,VFR,,,,,,,,,,,,METAR,2012.0
KGXY 270056Z AUTO 05007KT 10SM CLR 17/10 A2999 RMK AO2 SLP133 T01670100,KGXY,2023-05-27T00:56:00Z,40.43,-104.62,16.7,10.0,50,7,,10.0,29.991142,1013.3,,TRUE,TRUE,,,,,,,CLR,,,,,,,,VFR,,,,,,,,,,,,METAR,1420.0
KGVQ 270056Z AUTO 17003KT 10SM CLR 14/02 A3031 RMK AO2 SLP264 T01440022,KGVQ,2023-05-27T00:56:00Z,43.03,-78.17,14.4,2.2,170,3,,10.0,30.31004,1026.4,,TRUE,TRUE,,,,,,,CLR,,,,,,,,VFR,,,,,,,,,,,,METAR,279.0
KGUC 270056Z AUTO 21009G18KT 10SM CLR 21/M06 A3003 RMK AO2 SLP098 T02111061,KGUC,2023-05-27T00:56:00Z,38.52,-106.93,21.1,-6.1,210,9,18,10.0,30.029528,1009.8,,TRUE,TRUE,,,,,,,CLR,,,,,,,,VFR,,,,,,,,,,,,METAR,2337.0
KGTU 270056Z 08004KT 10SM CLR 27/17 A2999 RMK AO2 SLP151 T02720167,KGTU,2023-05-27T00:56:00Z,30.68,-97.68,27.2,16.7,80,4,,10.0,29.991142,1015.1,,,TRUE,,,,,,,CLR,,,,,,,,VFR,,,,,,,,,,,,METAR,232.0
KGTR 270056Z 03009KT 10SM CLR 24/17 A3003 RMK AO2 LTG DSNT NW SLP174 T02390167,KGTR,2023-05-27T00:56:00Z,33.45,-88.58,23.9,16.7,30,9,,10.0,30.029528,1017.4,,,TRUE,,,,,,,CLR,,,,,,,,VFR,,,,,,,,,,,,METAR,80.0
KGRD 270056Z AUTO 04005KT 10SM CLR 17/08 A3014 RMK AO2 SLP203 T01670078,KGRD,2023-05-27T00:56:00Z,34.25,-82.15,16.7,7.8,40,5,,10.0,30.138779,1020.3,,TRUE,TRUE,,,,,,,CLR,,,,,,,,VFR,,,,,,,,,,,,METAR,188.0
KGPZ 270056Z AUTO 16007KT 8SM CLR 22/07 A3020 RMK AO2 SLP228 T02220072,KGPZ,2023-05-27T00:56:00Z,47.22,-93.52,22.2,7.2,160,7,,8.0,30.200787,1022.8,,TRUE,TRUE,,,,,,,CLR,,,,,,,,VFR,,,,,,,,,,,,METAR,410.0
KGON 270056Z 21005KT 10SM CLR 14/08 A3024 RMK AO2 SLP239 T01440078,KGON,2023-05-27T00:56:00Z,41.33,-72.05,14.4,7.8,210,5,,10.0,30.239174,1023.9,,,TRUE,,,,,,,CLR,,,,,,,,VFR,,,,,,,,,,,,METAR,2.0
KGNR 270056Z AUTO 29003KT 13/03 A3015 RMK AO1 SLP217 T01330028,KGNR,2023-05-27T00:56:00Z,45.47,-69.55,13.3,2.8,290,3,,,30.15059,1021.7,,TRUE,TRUE,,,,,,,,,,,,,,,,,,,,,,,,,,,METAR,426.0
KGNA 270056Z AUTO 25004KT 08/01 A3021 RMK AO1 SLP235 T00780011,KGNA,2023-05-27T00:56:00Z,47.75,-90.35,7.8,1.1,250,4,,,30.209646,1023.5,,TRUE,TRUE,,,,,,,,,,,,,,,,,,,,,,,,,,,METAR,186.0
KGDV 270056Z AUTO 10007KT 10SM FEW047 22/16 A2989 RMK AO2 SLP111 T02170156 TSNO,KGDV,2023-05-27T00:56:00Z,47.13,-104.8,21.7,15.6,100,7,,10.0,29.890747,1011.1,,TRUE,TRUE,,,TRUE,,,,FEW,4700,,,,,,,VFR,,,,,,,,,,,,METAR,749.0
KGBD 270056Z AUTO 18014KT 10SM FEW085 SCT110 23/14 A3007 RMK AO2 SLP172 T02330144,KGBD,2023-05-27T00:56:00Z,38.35,-98.87,23.3,14.4,180,14,,10.0,30.070866,1017.2,,TRUE,TRUE,,,,,,,FEW,8500,SCT,11000,,,,,VFR,,,,,,,,,,,,METAR,573.0
KGAI 270056Z AUTO 00000KT 10SM CLR 18/06 A3025 RMK AO2 SLP257 T01780061,KGAI,2023-05-27T00:56:00Z,39.17,-77.17,17.8,6.1,0,0,,10.0,30.250984,1025.7,,TRUE,TRUE,,,,,,,CLR,,,,,,,,VFR,,,,,,,,,,,,METAR,151.0
KGAD 270056Z AUTO 00000KT 10SM CLR 21/17 A3006 RMK AO2 SLP179 T02060172 PNO $,KGAD,2023-05-27T00:56:00Z,33.97,-86.08,20.6,17.2,0,0,,10.0,30.059055,1017.9,,TRUE,TRUE,TRUE,,,,,,CLR,,,,,,,,VFR,,,,,,,,,,,,METAR,169.0
KFSD 270056Z 15012KT 10SM BKN250 27/00 A3011 RMK AO2 SLP189 T02670000,KFSD,2023-05-27T00:56:00Z,43.58,-96.75,26.7,0.0,150,12,,10.0,30.109253,1018.9,,,TRUE,,,,,,,BKN,25000,,,,,,,VFR,,,,,,,,,,,,METAR,433.0
KFRM 270056Z AUTO 15010KT 10SM CLR 23/M02 A3019 RMK AO2 SLP223 T02331022,KFRM,2023-05-27T00:56:00Z,43.63,-94.42,23.3,-2.2,150,10,,10.0,30.188976,1022.3,,TRUE,TRUE,,,,,,,CLR,,,,,,,,VFR,,,,,,,,,,,,METAR,353.0
KFOD 270056Z AUTO 14008KT 10SM CLR 23/M02 A3020 RMK AO2 SLP237 T02281017,KFOD,2023-05-27T00:56:00Z,42.53,-94.17,22.8,-1.7,140,8,,10.0,30.200787,1023.7,,TRUE,TRUE,,,,,,,CLR,,,,,,,,VFR,,,,,,,,,,,,METAR,347.0
KFNL 270056Z 11006KT 10SM CLR 18/09 A3001 RMK AO2 SLP119 T01780089,KFNL,2023-05-27T00:56:00Z,40.45,-105.02,17.8,8.9,110,6,,10.0,30.008858,1011.9,,,TRUE,,,,,,,CLR,,,,,,,,VFR,,,,,,,,,,,,METAR,1529.0
KFKL 270056Z AUTO 01005KT 10SM CLR 16/04 A3029 RMK AO2 SLP259 T01560039,KFKL,2023-05-27T00:56:00Z,41.37,-79.87,15.6,3.9,10,5,,10.0,30.28937,1025.9,,TRUE,TRUE,,,,,,,CLR,,,,,,,,VFR,,,,,,,,,,,,METAR,468.0
KFCI 270056Z AUTO 10004KT 10SM CLR 17/08 RMK AO2 SLPNO T01670078 $,KFCI,2023-05-27T00:56:00Z,37.4,-77.52,16.7,7.8,100,4,,10.0,,,,TRUE,TRUE,TRUE,,,,,,CLR,,,,,,,,VFR,,,,,,,,,,,,METAR,63.0
KFAM 270056Z AUTO 03004KT 10SM CLR 19/06 A3017 RMK AO2 SLP223 T01940061,KFAM,2023-05-27T00:56:00Z,37.77,-90.42,19.4,6.1,30,4,,10.0,30.171259,1022.3,,TRUE,TRUE,,,,,,,CLR,,,,,,,,VFR,,,,,,,,,,,,METAR,276.0
KEWK 270056Z AUTO 12011KT 10SM CLR 24/13 A3010 RMK AO2 SLP179 T02440133,KEWK,2023-05-27T00:56:00Z,38.05,-97.27,24.4,13.3,120,11,,10.0,30.100393,1017.9,,TRUE,TRUE,,,,,,,CLR,,,,,,,,VFR,,,,,,,,,,,,METAR,468.0
KEUL 270056Z AUTO 34017G21KT 10SM BKN070 BKN085 BKN110 25/08 A2983 RMK AO2 SLP084 T02500083,KEUL,2023-05-27T00:56:00Z,43.63,-116.62,25.0,8.3,340,17,21,10.0,29.828741,1008.4,,TRUE,TRUE,,,,,,,BKN,7000,BKN,8500,BKN,11000,,,VFR,,,,,,,,,,,,METAR,741.0
KESC 270056Z AUTO 13003KT 10SM CLR 13/07 A3031 RMK AO2 SLP268 T01330067,KESC,2023-05-27T00:56:00Z,45.72,-87.08,13.3,6.7,130,3,,10.0,30.31004,1026.8,,TRUE,TRUE,,,,,,,CLR,,,,,,,,VFR,,,,,,,,,,,,METAR,180.0
KENV 270056Z AUTO 32012KT 10SM CLR 22/00 A2984 RMK AO2 SLP085 T02170000 PNO $,KENV,2023-05-27T00:56:00Z,40.72,-114.02,21.7,0.0,320,12,,10.0,29.840551,1008.5,,TRUE,TRUE,TRUE,,,,,,CLR,,,,,,,,VFR,,,,,,,,,,,,METAR,1291.0
KELZ 270056Z AUTO 01004KT 10SM CLR 15/01 A3032 RMK AO2 SLP271 T01500006,KELZ,2023-05-27T00:56:00Z,42.1,-77.98,15.0,0.6,10,4,,10.0,30.318897,1027.1,,TRUE,TRUE,,,,,,,CLR,,,,,,,,VFR,,,,,,,,,,,,METAR,639.0
KEKY 270056Z AUTO 06004KT 10SM CLR 23/15 A3004 RMK AO2 SLP020 T02330150,KEKY,2023-05-27T00:56:00Z,33.32,-86.93,23.3,15.0,60,4,,10.0,30.041338,1002.0,,TRUE,TRUE,,,,,,,CLR,,,,,,,,VFR,,,,,,,,,,,,METAR,213.0
KEKQ 270056Z AUTO 05006KT 10SM SCT095 21/13 A3014 RMK AO2 SLP198 T02110133,KEKQ,2023-05-27T00:56:00Z,36.85,-84.85,21.1,13.3,50,6,,10.0,30.138779,1019.8,,TRUE,TRUE,,,,,,,SCT,9500,,,,,,,VFR,,,,,,,,,,,,METAR,291.0
KEKO 270056Z AUTO 03006KT 10SM -RA FEW019 BKN049 OVC060 11/08 A3001 RMK AO2 SLP144 P0010 T01060083,KEKO,2023-05-27T00:56:00Z,40.82,-115.78,10.6,8.3,30,6,,10.0,30.008858,1014.4,,TRUE,TRUE,,,,,,-RA,FEW,1900,BKN,4900,OVC,6000,,,VFR,,,,,,0.1,,,,,,METAR,1541.0
KEHR 270056Z AUTO 07005KT 10SM CLR 21/09 A3013 RMK AO2 SLP202 T02110089,KEHR,2023-05-27T00:56:00Z,37.82,-87.67,21.1,8.9,70,5,,10.0,30.129921,1020.2,,TRUE,TRUE,,,,,,,CLR,,,,,,,,VFR,,,,,,,,,,,,METAR,117.0
KEGE 270056Z 23010KT 10SM FEW110 21/M03 A2999 RMK AO2 SLP068 T02061028,KEGE,2023-05-27T00:56:00Z,39.63,-106.92,20.6,-2.8,230,10,,10.0,29.991142,1006.8,,,TRUE,,,,,,,FEW,11000,,,,,,,VFR,,,,,,,,,,,,METAR,1993.0
KEEN 270056Z AUTO 10SM CLR 13/04 A3025 RMK AO2 SLP250 T01280044 $,KEEN,2023-05-27T00:56:00Z,42.88,-72.27,12.8,4.4,,,,10.0,30.250984,1025.0,,TRUE,TRUE,TRUE,,,,,,CLR,,,,,,,,VFR,,,,,,,,,,,,METAR,143.0
KEED 270056Z AUTO 19013G21KT 10SM CLR 33/M10 A2969 RMK AO2 SLP024 T03331100,KEED,2023-05-27T00:56:00Z,34.77,-114.62,33.3,-10.0,190,13,21,10.0,29.68996,1002.4,,TRUE,TRUE,,,,,,,CLR,,,,,,,,VFR,,,,,,,,,,,,METAR,271.0
KEAU 270056Z 14006KT 10SM CLR 23/M01 A3024 RMK AO2 SLP239 T02281006,KEAU,2023-05-27T00:56:00Z,44.87,-91.48,22.8,-0.6,140,6,,10.0,30.239174,1023.9,,,TRUE,,,,,,,CLR,,,,,,,,VFR,,,,,,,,,,,,METAR,271.0
KEAR 270056Z AUTO 14011KT 10SM FEW080 24/11 A3006 RMK AO2 SLP166 T02440106,KEAR,2023-05-27T00:56:00Z,40.72,-99.0,24.4,10.6,140,11,,10.0,30.059055,1016.6,,TRUE,TRUE,,,,,,,FEW,8000,,,,,,,VFR,,,,,,,,,,,,METAR,649.0
KDYR 270056Z AUTO 04006KT 10SM CLR 22/08 A3010 RMK AO2 SLP197 T02170078,KDYR,2023-05-27T00:56:00Z,36.0,-89.4,21.7,7.8,40,6,,10.0,30.100393,1019.7,,TRUE,TRUE,,,,,,,CLR,,,,,,,,VFR,,,,,,,,,,,,METAR,98.0
KDWU 270056Z AUTO 00000KT 10SM CLR 17/11 A3017 RMK AO2 SLP218 T01720111,KDWU,2023-05-27T00:56:00Z,38.55,-82.73,17.2,11.1,0,0,,10.0,30.171259,1021.8,,TRUE,TRUE,,,,,,,CLR,,,,,,,,VFR,,,,,,,,,,,,METAR,165.0
KDVL 270056Z AUTO 19016G20KT 10SM CLR 26/11 A2998 RMK AO2 PK WND 20026/0021 SLP158 T02610111,KDVL,2023-05-27T00:56:00Z,48.12,-98.92,26.1,11.1,190,16,20,10.0,29.97933,1015.8,,TRUE,TRUE,,,,,,,CLR,,,,,,,,VFR,,,,,,,,,,,,METAR,439.0
KDUG 270056Z AUTO 26015KT 10SM CLR 29/M09 A2992 RMK AO2 PK WND 22029/2357 SLP065 T02941094 TSNO,KDUG,2023-05-27T00:56:00Z,31.47,-109.6,29.4,-9.4,260,15,,10.0,29.920275,1006.5,,TRUE,TRUE,,,TRUE,,,,CLR,,,,,,,,VFR,,,,,,,,,,,,METAR,1260.0
KDIK 270056Z AUTO 16010KT 10SM CLR 23/14 A2990 RMK AO2 LTG DSNT NW SLP113 T02280144,KDIK,2023-05-27T00:56:00Z,46.8,-102.8,22.8,14.4,160,10,,10.0,29.899607,1011.3,,TRUE,TRUE,,,,,,,CLR,,,,,,,,VFR,,,,,,,,,,,,METAR,788.0
KDIJ 270056Z AUTO 18009KT 10SM CLR 13/06 A2999 RMK AO2 SLP129 T01330056,KDIJ,2023-05-27T00:56:00Z,43.75,-111.1,13.3,5.6,180,9,,10.0,29.991142,1012.9,,TRUE,TRUE,,,,,,,CLR,,,,,,,,VFR,,,,,,,,,,,,METAR,1896.0
KDAY 270056Z 03008KT 10SM CLR 18/03 A3022 RMK AO2 SLP230 T01830028,KDAY,2023-05-27T00:56:00Z,39.9,-84.22,18.3,2.8,30,8,,10.0,30.221457,1023.0,,,TRUE,,,,,,,CLR,,,,,,,,VFR,,,,,,,,,,,,METAR,303.0
KD07 270056Z AUTO 16018G27KT 20/14 A2994 RMK AO1 PK WND 15030/0023 SLP134 T02000139 $,KD07,2023-05-27T00:56:00Z,45.03,-102.02,20.0,13.9,160,18,27,,29.940945,1013.4,,TRUE,TRUE,TRUE,,,,,,,,,,,,,,,,,,,,,,,,,,METAR,786.0
KCXY 270056Z 24004KT 10SM CLR 18/05 A3024 RMK AO2 SLP241 T01830050,KCXY,2023-05-27T00:56:00Z,40.22,-76.85,18.3,5.0,240,4,,10.0,30.239174,1024.1,,,TRUE,,,,,,,CLR,,,,,,,,VFR,,,,,,,,,,,,METAR,102.0
KCWI 270056Z AUTO 08007KT 10SM CLR 19/01 A3024 RMK AO2 SLP243 T01940011,KCWI,2023-05-27T00:56:00Z,41.82,-90.32,19.4,1.1,80,7,,10.0,30.239174,1024.3,,TRUE,TRUE,,,,,,,CLR,,,,,,,,VFR,,,,,,,,,,,,METAR,212.0
KCVO 270056Z AUTO 30014G21KT 10SM CLR 24/12 A2987 RMK AO2 SLP115 T02390122,KCVO,2023-05-27T00:56:00Z,44.5,-123.28,23.9,12.2,300,14,21,10.0,29.870079,1011.5,,TRUE,TRUE,,,,,,,CLR,,,,,,,,VFR,,,,,,,,,,,,METAR,75.0
KCTB 270056Z AUTO 33005KT 10SM OVC065 14/11 A2998 RMK AO2 SLP145 T01390111,KCTB,2023-05-27T00:56:00Z,48.6,-112.37,13.9,11.1,330,5,,10.0,29.97933,1014.5,,TRUE,TRUE,,,,,,,OVC,6500,,,,,,,VFR,,,,,,,,,,,,METAR,1172.0
KCOE 270056Z AUTO 10010KT 10SM FEW110 23/07 A2987 RMK AO2 LTG DSNT SW SLP123 T02280072 PNO $,KCOE,2023-05-27T00:56:00Z,47.77,-116.82,22.8,7.2,100,10,,10.0,29.870079,1012.3,,TRUE,TRUE,TRUE,,,,,,FEW,11000,,,,,,,VFR,,,,,,,,,,,,METAR,693.0
KCOD 270056Z AUTO 34005KT 10SM SCT090 OVC110 12/10 A2995 RMK AO2 RAB16E26 PRESFR SLP119 P0000 T01220100,KCOD,2023-05-27T00:56:00Z,44.52,-109.02,12.2,10.0,340,5,,10.0,29.949802,1011.9,,TRUE,TRUE,,,,,,,SCT,9000,OVC,11000,,,,,VFR,,,,,,0.005,,,,,,METAR,1550.0
KCIU 270056Z AUTO 24005KT 10SM CLR 17/00 A3030 RMK AO2 SLP261 T01720000,KCIU,2023-05-27T00:56:00Z,46.25,-84.47,17.2,0.0,240,5,,10.0,30.301182,1026.1,,TRUE,TRUE,,,,,,,CLR,,,,,,,,VFR,,,,,,,,,,,,METAR,242.0
KCHS 270056Z 01013KT 10SM -RA OVC100 15/13 A3003 RMK AO2 SLP167 P0005 T01500128,KCHS,2023-05-27T00:56:00Z,32.9,-80.03,15.0,12.8,10,13,,10.0,30.029528,1016.7,,,TRUE,,,,,,-RA,OVC,10000,,,,,,,VFR,,,,,,0.05,,,,,,METAR,12.0
KCGZ 270056Z AUTO 29011KT 10SM CLR 33/M01 A2975 RMK AO2 SLP059 T03331011 PNO $,KCGZ,2023-05-27T00:56:00Z,32.95,-111.77,33.3,-1.1,290,11,,10.0,29.749016,1005.9,,TRUE,TRUE,TRUE,,,,,,CLR,,,,,,,,VFR,,,,,,,,,,,,METAR,444.0
KCEC 270056Z AUTO 18006KT 10SM OVC008 11/09 A2998 RMK AO2 SLP152 T01110094,KCEC,2023-05-27T00:56:00Z,41.78,-124.23,11.1,9.4,180,6,,10.0,29.97933,1015.2,,TRUE,TRUE,,,,,,,OVC,800,,,,,,,IFR,,,,,,,,,,,,METAR,17.0
KCAE 270056Z 02009G16KT 10SM BKN150 19/06 A3009 RMK AO2 SLP188 T01890061,KCAE,2023-05-27T00:56:00Z,33.93,-81.12,18.9,6.1,20,9,16,10.0,30.088583,1018.8,,,TRUE,,,,,,,BKN,15000,,,,,,,VFR,,,,,,,,,,,,METAR,69.0
KBZN 270056Z COR 31004KT 10SM SCT110 16/11 A2993 RMK AO2 SLP117 T01560106,KBZN,2023-05-27T00:56:00Z,45.78,-111.17,15.6,10.6,310,4,,10.0,29.929134,1011.7,TRUE,,TRUE,,,,,,,SCT,11000,,,,,,,VFR,,,,,,,,,,,,METAR,1349.0
KBVX 270056Z AUTO 00000KT 10SM CLR 21/08 A3011 RMK AO2 SLP194 T02110083,KBVX,2023-05-27T00:56:00Z,35.73,-91.65,21.1,8.3,0,0,,10.0,30.109253,1019.4,,TRUE,TRUE,,,,,,,CLR,,,,,,,,VFR,,,,,,,,,,,,METAR,137.0
KBTP 270056Z AUTO 00000KT 10SM CLR 16/03 A3027 RMK AO2 SLP256 T01610033 TSNO $,KBTP,2023-05-27T00:56:00Z,40.77,-79.95,16.1,3.3,0,0,,10.0,30.268702,1025.6,,TRUE,TRUE,TRUE,,TRUE,,,,CLR,,,,,,,,VFR,,,,,,,,,,,,METAR,375.0
KBOK 270056Z AUTO 18004KT 10SM OVC006 11/10 A2997 RMK AO2 SLP152 T01110100,KBOK,2023-05-27T00:56:00Z,42.07,-124.28,11.1,10.0,180,4,,10.0,29.970472,1015.2,,TRUE,TRUE,,,,,,,OVC,600,,,,,,,IFR,,,,,,,,,,,,METAR,140.0
KBMI 270056Z 08009KT 10SM CLR 21/M04 A3022 RMK AO2 SLP229 T02111039,KBMI,2023-05-27T00:56:00Z,40.47,-88.92,21.1,-3.9,80,9,,10.0,30.221457,1022.9,,,TRUE,,,,,,,CLR,,,,,,,,VFR,,,,,,,,,,,,METAR,262.0
KBLM 270056Z AUTO 00000KT 10SM CLR 15/04 A3027 RMK AO2 SLP251 T01500044,KBLM,2023-05-27T00:56:00Z,40.17,-74.12,15.0,4.4,0,0,,10.0,30.268702,1025.1,,TRUE,TRUE,,,,,,,CLR,,,,,,,,VFR,,,,,,,,,,,,METAR,45.0
KBKX 270056Z AUTO 15009KT 10SM CLR 24/02 A3012 RMK AO2 SLP205 T02440017,KBKX,2023-05-27T00:56:00Z,44.3,-96.82,24.4,1.7,150,9,,10.0,30.121063,1020.5,,TRUE,TRUE,,,,,,,CLR,,,,,,,,VFR,,,,,,,,,,,,METAR,494.0
KBIH 270056Z AUTO 29009KT 10SM SCT120 22/04 A2988 RMK AO2 SLP084 T02220044,KBIH,2023-05-27T00:56:00Z,37.37,-118.35,22.2,4.4,290,9,,10.0,29.878937,1008.4,,TRUE,TRUE,,,,,,,SCT,12000,,,,,,,VFR,,,,,,,,,,,,METAR,1252.0
KBID 270056Z AUTO 20007KT 10SM CLR 13/11 A3027 RMK AO2 SLP252 T01280106,KBID,2023-05-27T00:56:00Z,41.17,-71.58,12.8,10.6,200,7,,10.0,30.268702,1025.2,,TRUE,TRUE,,,,,,,CLR,,,,,,,,VFR,,,,,,,,,,,,METAR,32.0
KBHB 270056Z AUTO 22004KT 10SM CLR 12/06 A3020 RMK AO2 SLP229 T01170056,KBHB,2023-05-27T00:56:00Z,44.45,-68.37,11.7,5.6,220,4,,10.0,30.200787,1022.9,,TRUE,TRUE,,,,,,,CLR,,,,,,,,VFR,,,,,,,,,,,,METAR,21.0
KAWO 270056Z AUTO 31009KT 10SM CLR 26/13 A2984 RMK AO2 SLP108 T02560128,KAWO,2023-05-27T00:56:00Z,48.17,-122.17,25.6,12.8,310,9,,10.0,29.840551,1010.8,,TRUE,TRUE,,,,,,,CLR,,,,,,,,VFR,,,,,,,,,,,,METAR,38.0
KASH 270056Z 14003KT 10SM CLR 14/07 A3025 RMK AO2 SLP249 T01440072,KASH,2023-05-27T00:56:00Z,42.78,-71.52,14.4,7.2,140,3,,10.0,30.250984,1024.9,,,TRUE,,,,,,,CLR,,,,,,,,VFR,,,,,,,,,,,,METAR,56.0
KART 270056Z AUTO 00000KT 10SM CLR 10/04 A3028 RMK AO2 SLP255 T01000044,KART,2023-05-27T00:56:00Z,43.98,-76.03,10.0,4.4,0,0,,10.0,30.280512,1025.5,,TRUE,TRUE,,,,,,,CLR,,,,,,,,VFR,,,,,,,,,,,,METAR,100.0
KARG 270056Z AUTO 02006KT 10SM CLR 22/08 A3011 RMK AO2 SLP194 T02220078,KARG,2023-05-27T00:56:00Z,36.12,-90.92,22.2,7.8,20,6,,10.0,30.109253,1019.4,,TRUE,TRUE,,,,,,,CLR,,,,,,,,VFR,,,,,,,,,,,,METAR,82.0
KAND 270056Z AUTO 08007KT 10SM CLR 19/08 A3013 RMK AO2 SLP198 T01890083,KAND,2023-05-27T00:56:00Z,34.5,-82.72,18.9,8.3,80,7,,10.0,30.129921,1019.8,,TRUE,TRUE,,,,,,,CLR,,,,,,,,VFR,,,,,,,,,,,,METAR,233.0
KALK 270056Z AUTO 26014G30KT 10SM CLR 28/M06 A2998 RMK AO2 PK WND 27030/0053 SLP062 T02831061,KALK,2023-05-27T00:56:00Z,31.6,-110.43,28.3,-6.1,260,14,30,10.0,29.97933,1006.2,,TRUE,TRUE,,,,,,,CLR,,,,,,,,VFR,,,,,,,,,,,,METAR,1451.0
KAJO 270056Z AUTO 26009G14KT 10SM OVC037 17/11 A2995 RMK AO2 SLP140 T01720111,KAJO,2023-05-27T00:56:00Z,33.9,-117.6,17.2,11.1,260,9,14,10.0,29.949802,1014.0,,TRUE,TRUE,,,,,,,OVC,3700,,,,,,,VFR,,,,,,,,,,,,METAR,161.0
KAIZ 270056Z AUTO 07005KT 10SM CLR 21/06 RMK AO2 SLPNO T02060061 $,KAIZ,2023-05-27T00:56:00Z,38.1,-92.53,20.6,6.1,70,5,,10.0,,,,TRUE,TRUE,TRUE,,,,,,CLR,,,,,,,,VFR,,,,,,,,,,,,METAR,263.0
KAFJ 270056Z AUTO 35004KT 10SM CLR 18/03 A3026 RMK AO2 SLP246 T01780028,KAFJ,2023-05-27T00:56:00Z,40.13,-80.28,17.8,2.8,350,4,,10.0,30.259842,1024.6,,TRUE,TRUE,,,,,,,CLR,,,,,,,,VFR,,,,,,,,,,,,METAR,360.0
KADF 270056Z AUTO 00000KT 10SM 24/15 A3004 RMK AO2 SLP171 T02440150 $,KADF,2023-05-27T00:56:00Z,34.1,-93.07,24.4,15.0,0,0,,10.0,30.041338,1017.1,,TRUE,TRUE,TRUE,,,,,,,,,,,,,,,,,,,,,,,,,,METAR,54.0
K8D3 270056Z AUTO 17012KT 26/06 A3006 RMK AO1 SLP161 T02610061,K8D3,2023-05-27T00:56:00Z,45.67,-96.98,26.1,6.1,170,12,,,30.059055,1016.1,,TRUE,TRUE,,,,,,,,,,,,,,,,,,,,,,,,,,,METAR,535.0
K79J 270056Z AUTO 07004KT 10SM CLR 24/16 A2999 RMK AO2 SLP152 T02390161,K79J,2023-05-27T00:56:00Z,31.32,-86.4,23.9,16.1,70,4,,10.0,29.991142,1015.2,,TRUE,TRUE,,,,,,,CLR,,,,,,,,VFR,,,,,,,,,,,,METAR,93.0
K2WX 270056Z AUTO 14017G26KT 23/14 A2987 RMK AO1 PK WND 14026/0050 SLP097 T02280139,K2WX,2023-05-27T00:56:00Z,45.6,-103.55,22.8,13.9,140,17,26,,29.870079,1009.7,,TRUE,TRUE,,,,,,,,,,,,,,,,,,,,,,,,,,,METAR,925.0
K1M4 270056Z AUTO 00000KT 10SM CLR 20/17 A3008 RMK AO2 SLP173 T02000172,K1M4,2023-05-27T00:56:00Z,34.28,-87.6,20.0,17.2,0,0,,10.0,30.079725,1017.3,,TRUE,TRUE,,,,,,,CLR,,,,,,,,VFR,,,,,,,,,,,,METAR,283.0
TXKF 270055Z 23006KT 9999 -RA FEW005 SCT020 BKN060 OVC130 21/21 Q1019 ,TXKF,2023-05-27T00:55:00Z,32.37,-64.68,21.0,21.0,230,6,,6.21,30.088583,,,,,,,,,,-RA,FEW,500,SCT,2000,BKN,6000,OVC,13000,VFR,,,,,,,,,,,,METAR,4.0
TNCE 270055Z AUTO 08010KT 050V110 //// // ///////// 27/25 Q1015 RE//,TNCE,2023-05-27T00:55:00Z,17.48,-62.97,27.0,25.0,80,10,,,29.970472,,,TRUE,,,,,,,,,,,,,,,,,,,,,,,,,,,,METAR,38.0
TNCB 270055Z 08015KT 050V110 9999 FEW009 28/25 Q1011,TNCB,2023-05-27T00:55:00Z,12.13,-68.28,28.0,25.0,80,15,,6.21,29.852362,,,,,,,,,,,FEW,900,,,,,,,VFR,,,,,,,,,,,,METAR,6.0
RJTY 270055Z AUTO 00000KT 10SM FEW200 23/14 A3026 RMK AO2 SLP249 T02300143 $,RJTY,2023-05-27T00:55:00Z,35.75,139.33,23.0,14.3,0,0,,10.0,30.259842,1024.9,,TRUE,TRUE,TRUE,,,,,,FEW,20000,,,,,,,VFR,,,,,,,,,,,,METAR,136.0
RJFY 270055Z 09016G28KT 9999 FEW010 SCT020 BKN045 24/18 Q1020 RMK 1CU010 3CU020 6SC045 A3013,RJFY,2023-05-27T00:55:00Z,31.37,130.83,24.0,18.0,90,16,28,6.21,30.11811,,,,,,,,,,,FEW,1000,SCT,2000,BKN,4500,,,VFR,,,,,,,,,,,,METAR,59.0
PHSF 270055Z AUTO 28012KT 10SM CLR 19/11 A3029 RMK AO2 SLP152 T01860114 $,PHSF,2023-05-27T00:55:00Z,19.77,-155.55,18.6,11.4,280,12,,10.0,30.28937,1015.2,,TRUE,TRUE,TRUE,,,,,,CLR,,,,,,,,VFR,,,,,,,,,,,,SPECI,1863.0
PHHI 270055Z AUTO 04012KT 10SM SCT035 BKN060 26/16 A3005 RMK AO2 RAB41E51 SLP167 P0000 T02580158 $,PHHI,2023-05-27T00:55:00Z,21.48,-158.05,25.8,15.8,40,12,,10.0,30.050198,1016.7,,TRUE,TRUE,TRUE,,,,,,SCT,3500,BKN,6000,,,,,VFR,,,,,,0.005,,,,,,SPECI,246.0
PGWT 270055Z 11015KT 7SM SCT016 SCT040 SCT080 BKN120 29/26,PGWT,2023-05-27T00:55:00Z,14.98,145.62,29.0,26.0,110,15,,7.0,,,,,,,,,,,,SCT,1600,SCT,4000,SCT,8000,BKN,12000,VFR,,,,,,,,,,,,METAR,84.0
PATL 270055Z AUTO 00000KT 10SM FEW039 12/01 A2944 RMK AO2 SLP972 T01180011 TSNO $,PATL,2023-05-27T00:55:00Z,62.9,-155.97,11.8,1.1,0,0,,10.0,29.438976,997.2,,TRUE,TRUE,TRUE,,TRUE,,,,FEW,3900,,,,,,,VFR,,,,,,,,,,,,METAR,261.0
PATC 270055Z AUTO 04017KT 10SM BKN014 OVC026 00/00 A2933 RMK AO2 SLP937 T00040001,PATC,2023-05-27T00:55:00Z,65.57,-167.92,0.4,0.1,40,17,,10.0,29.329725,993.7,,TRUE,TRUE,,,,,,,BKN,1400,OVC,2600,,,,,MVFR,,,,,,,,,,,,METAR,77.0
PASV 270055Z AUTO VRB06KT 10SM BKN021 OVC060 08/03 A2942 RMK AO2 SHRAB2357E0053 SLP973 T00760031,PASV,2023-05-27T00:55:00Z,61.1,-155.57,7.6,3.1,0,6,,10.0,29.421259,997.3,,TRUE,TRUE,,,,,,,BKN,2100,OVC,6000,,,,,MVFR,,,,,,,,,,,,METAR,462.0
PALU 270055Z AUTO 09010KT 020V100 10SM SCT014 03/00 A2951 RMK AO2 SLP994 T00340004,PALU,2023-05-27T00:55:00Z,68.88,-166.1,3.4,0.4,90,10,,10.0,29.509842,999.4,,TRUE,TRUE,,,,,,,SCT,1400,,,,,,,VFR,,,,,,,,,,,,METAR,8.0
PAIM 270055Z AUTO 07014G18KT 10SM SCT085 09/05 A2942 RMK AO2 SLP967 T00920054,PAIM,2023-05-27T00:55:00Z,66.0,-153.7,9.2,5.4,70,14,18,10.0,29.421259,996.7,,TRUE,TRUE,,,,,,,SCT,8500,,,,,,,VFR,,,,,,,,,,,,METAR,309.0
PAFR 270055Z AUTO 13017G22KT 10SM FEW036 OVC070 11/M01 A2958 RMK AO2 PK WND 14026/54 RAB08E46 SLP023 P0000 T01101014 $,PAFR,2023-05-27T00:55:00Z,61.27,-149.65,11.0,-1.4,130,17,22,10.0,29.58071,1002.3,,TRUE,TRUE,TRUE,,,,,,FEW,3600,OVC,7000,,,,,VFR,,,,,,0.005,,,,,,METAR,106.0
PAEI 270055Z 32010G15KT 10SM FEW090 OVC110 16/07 A2938 RMK AO2A SLP952 T01600070,PAEI,2023-05-27T00:55:00Z,64.67,-147.1,16.0,7.0,320,10,15,10.0,29.379921,995.2,,,TRUE,,,,,,,FEW,9000,OVC,11000,,,,,VFR,,,,,,,,,,,,METAR,166.0
PAEH 270055Z AUTO 02016G24KT 010V110 3SM -RA OVC006 05/05 A2927 RMK AO2 PK WND 01027/0014 RAB2256 SLP917 P0009 T00480053,PAEH,2023-05-27T00:55:00Z,58.65,-162.07,4.8,5.3,20,16,24,3.0,29.27067,991.7,,TRUE,TRUE,,,,,,-RA,OVC,600,,,,,,,IFR,,,,,,0.09,,,,,,METAR,101.0
PAED 270055Z 14007KT 10SM FEW035 BKN070 BKN090 12/02 A2957 RMK AO2A RAB05E35 SLP010 P0000 T01230016,PAED,2023-05-27T00:55:00Z,61.25,-149.83,12.3,1.6,140,7,,10.0,29.568897,1001.0,,,TRUE,,,,,,,FEW,3500,BKN,7000,BKN,9000,,,VFR,,,,,,0.005,,,,,,METAR,54.0
PACZ 270055Z AUTO 13010G17KT 100V170 10SM -RA BKN019 06/03 A2922 RMK AO2 RAB0040 SLP896 P0000 T00640029,PACZ,2023-05-27T00:55:00Z,61.78,-166.03,6.4,2.9,130,10,17,10.0,29.220472,989.6,,TRUE,TRUE,,,,,,-RA,BKN,1900,,,,,,,MVFR,,,,,,0.005,,,,,,METAR,129.0
OPLA 270055Z 33005KT 4000 FU SCT040 SCT100 22/16 Q1003 NOSIG RMK QFE978 A29.65,OPLA,2023-05-27T00:55:00Z,31.52,74.4,22.0,16.0,330,5,,2.49,29.616142,,,,,,TRUE,,,,FU,SCT,4000,SCT,10000,,,,,IFR,,,,,,,,,,,,METAR,217.0
OKAS 270055Z 31003KT 9999 CLR 27/12 A2976 RMK AO2A SLP072 T02720116 FZRANO $,OKAS,2023-05-27T00:55:00Z,29.35,47.52,27.2,11.6,310,3,,6.21,29.760826,1007.2,,,TRUE,TRUE,,,TRUE,,,CLR,,,,,,,,VFR,,,,,,,,,,,,METAR,144.0
NZCM 270055Z AUTO VRB05KT 9999 CLR M24/M32 A2911 RMK AO2 PRESRR SLP864 T12381324,NZCM,2023-05-27T00:55:00Z,-77.85,166.67,-23.8,-32.4,0,5,,6.21,29.111221,986.4,,TRUE,TRUE,,,,,,,CLR,,,,,,,,VFR,,,,,,,,,,,,METAR,24.0
LIVT 270055Z AUTO VRB03KT //// 21/10 Q1019,LIVT,2023-05-27T00:55:00Z,45.68,13.75,21.0,10.0,0,3,,,30.088583,,,TRUE,,,,,,,,,,,,,,,,,,,,,,,,,,,,METAR,20.0
LIVR 270055Z 11004KT CAVOK 08/06 Q1025 RMK SKC MON LIB VIS MIN 9999,LIVR,2023-05-27T00:55:00Z,46.28,11.78,8.0,6.0,110,4,,6.21,30.265747,,,,,,,,,,,CAVOK,,,,,,,,VFR,,,,,,,,,,,,SPECI,1997.0
LIVP 270055Z 02008KT 340V040 9999 FEW020 08/05 Q1026 RMK SCT MON CLD CIME VAL FOSCHIA SKC SUP VIS MIN 9999,LIVP,2023-05-27T00:55:00Z,46.15,11.03,8.0,5.0,20,8,,6.21,30.295275,,,,,,,,,,,FEW,2000,,,,,,,VFR,,,,,,,,,,,,METAR,2099.0
LIVM 270055Z AUTO VRB01KT //// 19/14 Q1018,LIVM,2023-05-27T00:55:00Z,44.45,12.3,19.0,14.0,0,1,,,30.059055,,,TRUE,,,,,,,,,,,,,,,,,,,,,,,,,,,,METAR,6.0
LIVF 270055Z 03004KT CAVOK 17/11 Q1018,LIVF,2023-05-27T00:55:00Z,43.52,12.72,17.0,11.0,30,4,,6.21,30.059055,,,,,,,,,,,CAVOK,,,,,,,,VFR,,,,,,,,,,,,METAR,549.0
LIVD 270055Z AUTO VRB02KT //// 07/06 Q1025,LIVD,2023-05-27T00:55:00Z,46.72,12.22,7.0,6.0,0,2,,,30.265747,,,TRUE,,,,,,,,,,,,,,,,,,,,,,,,,,,,METAR,1221.0
LIVC 270055Z AUTO 07019KT //// 07/07 Q1026,LIVC,2023-05-27T00:55:00Z,44.2,10.68,7.0,7.0,70,19,,,30.295275,,,TRUE,,,,,,,,,,,,,,,,,,,,,,,,,,,,METAR,2139.0
LIRX 270055Z AUTO 36000KT //// ///// Q////,LIRX,2023-05-27T00:55:00Z,42.73,10.38,,,360,0,,,,,,TRUE,,,,,,,,,,,,,,,,,,,,,,,,,,,,METAR,397.0
LIRS 270055Z VRB02KT CAVOK 16/15 Q1016 RMK SKC VIS MIN 9999 WIND THR03 03004KT WIND THR21 VRB01KT BLU,LIRS,2023-05-27T00:55:00Z,42.75,11.07,16.0,15.0,0,2,,6.21,30.0,,,,,,,,,,,CAVOK,,,,,,,,VFR,,,,,,,,,,,,SPECI,3.0
LIRK 270055Z AUTO /////KT //// ///// Q////,LIRK,2023-05-27T00:55:00Z,42.47,12.97,,,,,,,,,,TRUE,,,,,,,,,,,,,,,,,,,,,,,,,,,,METAR,1721.0
LIQC 270055Z 00000KT CAVOK 20/15 Q1016 RMK SKC QUK / QUL / VIS MAR 20 KM VIS MIN 9999,LIQC,2023-05-27T00:55:00Z,40.55,14.2,20.0,15.0,0,0,,6.21,30.0,,,,,,,,,,,CAVOK,,,,,,,,VFR,,,,,,,,,,,,METAR,154.0
LIPS 270055Z 01003KT 8000 FEW030CB BKN060 17/15 Q1020 RETS RMK OVC VIS MIN 8000 WIND THR26 01005KT WIND THR08 33005KT BLU,LIPS,2023-05-27T00:55:00Z,45.68,12.1,17.0,15.0,10,3,,4.97,30.11811,,,,,,,,,,,FEW,3000,BKN,6000,,,,,MVFR,,,,,,,,,,,,METAR,42.0
LIPL 270055Z 07006KT 9999 - RA FEW035 SCT080 20/20 Q1018,LIPL,2023-05-27T00:55:00Z,45.42,10.27,20.0,20.0,70,6,,6.21,30.059055,,,,,,,,,,- RA,FEW,3500,SCT,8000,,,,,VFR,,,,,,,,,,,,METAR,96.0
LIPI 270055Z 32004KT 9999 FEW050 SCT110 17/15 Q1019 RMK BKN VIS MIN 9999 WIND THR06 /////KT WIND THR24 32004KT BLU,LIPI,2023-05-27T00:55:00Z,45.97,13.05,17.0,15.0,320,4,,6.21,30.088583,,,,,,,,,,,FEW,5000,SCT,11000,,,,,VFR,,,,,,,,,,,,METAR,49.0
LIPC 270055Z 24001KT CAVOK 15/14 Q1018 RMK SKC VIS MIN 9999 WIND THR11 24001KT WIND THR29 25001KT BLU,LIPC,2023-05-27T00:55:00Z,44.22,12.3,15.0,14.0,240,1,,6.21,30.059055,,,,,,,,,,,CAVOK,,,,,,,,VFR,,,,,,,,,,,,METAR,10.0
LIEB 270055Z 30011KT CAVOK 20/12 Q1016 RMK SKC QUK / QUL / VIS MAR 20 KM MON INVIS VIS MIN 9999,LIEB,2023-05-27T00:55:00Z,39.93,9.72,20.0,12.0,300,11,,6.21,30.0,,,,,,,,,,,CAVOK,,,,,,,,VFR,,,,,,,,,,,,SPECI,126.0
LICZ 270055Z 27002KT 9999 FEW020 17/17 Q1014 RMK FEW VIS MIN 9999 WIND THR28 27002KT WIND THR10 27002KT A2995 BLU,LICZ,2023-05-27T00:55:00Z,37.4,14.92,17.0,17.0,270,2,,6.21,29.940945,,,,,,,,,,,FEW,2000,,,,,,,VFR,,,,,,,,,,,,SPECI,22.0
LICT 270055Z 35002KT 9999 SCT008 BKN040 18/16 Q1016 RMK BKN BKN090 VIS MIN 9999 WIND THR13 35006KT BLU,LICT,2023-05-27T00:55:00Z,37.92,12.5,18.0,16.0,350,2,,6.21,30.0,,,,,,,,,,,SCT,800,BKN,4000,,,,,VFR,,,,,,,,,,,,SPECI,4.0
LIBV 270055Z 29004KT CAVOK 15/13 Q1013 RMK BKN FEW070 SCT120 VIS MIN 9999 WIND THR32 30005KT WIND THR14 30005KT BLU,LIBV,2023-05-27T00:55:00Z,40.77,16.93,15.0,13.0,290,4,,6.21,29.911417,,,,,,,,,,,CAVOK,,,,,,,,VFR,,,,,,,,,,,,METAR,344.0
LIBQ 270055Z AUTO 07011G22KT //// 08/08 Q1018,LIBQ,2023-05-27T00:55:00Z,39.32,16.38,8.0,8.0,70,11,22,,30.059055,,,TRUE,,,,,,,,,,,,,,,,,,,,,,,,,,,,METAR,1660.0
LIBN 270055Z 35006KT CAVOK 18/17 Q1013 RMK SKC VIS MIN 9999 WIND THR14 35008KT WIND THR32 35009KT BLU,LIBN,2023-05-27T00:55:00Z,40.23,18.13,18.0,17.0,350,6,,6.21,29.911417,,,,,,,,,,,CAVOK,,,,,,,,VFR,,,,,,,,,,,,SPECI,46.0
LIBA 270055Z 28014KT 9999 FEW060 19/14 Q1013 RMK SCT SCT120 VIS MIN 9999 WIND THR11 /////KT WIND THR29 /////KT BLU,LIBA,2023-05-27T00:55:00Z,41.53,15.72,19.0,14.0,280,14,,6.21,29.911417,,,,,,,,,,,FEW,6000,,,,,,,VFR,,,,,,,,,,,,SPECI,55.0
KZPH 270055Z AUTO 02009KT 10SM SCT120 22/18 A2992 RMK A02 T02190178,KZPH,2023-05-27T00:55:00Z,28.23,-82.15,21.9,17.8,20,9,,10.0,29.920275,,,TRUE,TRUE,,,,,,,SCT,12000,,,,,,,VFR,,,,,,,,,,,,METAR,26.0
KZER 270055Z AUTO 06005KT 10SM CLR 14/00 A3029 RMK AO2,KZER,2023-05-27T00:55:00Z,40.7,-76.37,14.0,0.0,60,5,,10.0,30.28937,,,TRUE,TRUE,,,,,,,CLR,,,,,,,,VFR,,,,,,,,,,,,METAR,518.0
KXNO 270055Z AUTO 01012KT 10SM CLR 18/06 A3007 RMK AO2 SLP184 T01780063 $,KXNO,2023-05-27T00:55:00Z,33.62,-81.07,17.8,6.3,10,12,,10.0,30.070866,1018.4,,TRUE,TRUE,TRUE,,,,,,CLR,,,,,,,,VFR,,,,,,,,,,,,METAR,94.0
KXMR 270055Z AUTO 36018G23KT 10SM BKN020 23/19 A2984 RMK AO2 SLP108 T02270190 $,KXMR,2023-05-27T00:55:00Z,28.47,-80.57,22.7,19.0,360,18,23,10.0,29.840551,1010.8,,TRUE,TRUE,TRUE,,,,,,BKN,2000,,,,,,,MVFR,,,,,,,,,,,,METAR,5.0
KXLL 270055Z AUTO 12003KT 10SM CLR 19/01 A3026 RMK AO2,KXLL,2023-05-27T00:55:00Z,40.57,-75.48,19.0,1.0,120,3,,10.0,30.259842,,,TRUE,TRUE,,,,,,,CLR,,,,,,,,VFR,,,,,,,,,,,,METAR,118.0
KXIF 270055Z AUTO 00000KT 10SM CLR 15/05 A3024 RMK AO2 SLP243 T01460046 $,KXIF,2023-05-27T00:55:00Z,,,14.6,4.6,0,0,,10.0,30.239174,1024.3,,TRUE,TRUE,TRUE,,,,,,CLR,,,,,,,,VFR,,,,,,,,,,,,METAR,
KWRI 270055Z AUTO 20005KT 10SM CLR 15/04 A3025 RMK AO2 SLP243 T01490037,KWRI,2023-05-27T00:55:00Z,40.02,-74.58,14.9,3.7,200,5,,10.0,30.250984,1024.3,,TRUE,TRUE,,,,,,,CLR,,,,,,,,VFR,,,,,,,,,,,,METAR,35.0
KWRB 270055Z AUTO 05004KT 10SM CLR 20/09 A3006 RMK AO2 SLP180 T02020094,KWRB,2023-05-27T00:55:00Z,32.63,-83.58,20.2,9.4,50,4,,10.0,30.059055,1018.0,,TRUE,TRUE,,,,,,,CLR,,,,,,,,VFR,,,,,,,,,,,,METAR,82.0
KW99 270055Z AUTO 00000KT 10SM CLR 17/06 A3026 RMK AO2,KW99,2023-05-27T00:55:00Z,39.0,-79.15,17.0,6.0,0,0,,10.0,30.259842,,,TRUE,TRUE,,,,,,,CLR,,,,,,,,VFR,,,,,,,,,,,,METAR,288.0
KVPS 270055Z AUTO 06007KT 10SM CLR 25/17 A2996 RMK AO2 SLP152 T02470172 $,KVPS,2023-05-27T00:55:00Z,30.47,-86.52,24.7,17.2,60,7,,10.0,29.958662,1015.2,,TRUE,TRUE,TRUE,,,,,,CLR,,,,,,,,VFR,,,,,,,,,,,,METAR,21.0
KVOK 270055Z AUTO 14003KT 10SM CLR 21/02 A3024 RMK AO2 SLP244 T02070020,KVOK,2023-05-27T00:55:00Z,43.93,-90.27,20.7,2.0,140,3,,10.0,30.239174,1024.4,,TRUE,TRUE,,,,,,,CLR,,,,,,,,VFR,,,,,,,,,,,,SPECI,278.0
KVBG 270055Z AUTO 31008KT 9SM BKN017 15/10 A2998 RMK AO2 SLP155 T01450103 TSNO $,KVBG,2023-05-27T00:55:00Z,34.73,-120.58,14.5,10.3,310,8,,9.0,29.97933,1015.5,,TRUE,TRUE,TRUE,,TRUE,,,,BKN,1700,,,,,,,MVFR,,,,,,,,,,,,METAR,96.0
KVAD 270055Z AUTO 05007KT 10SM OVC050 20/13 A3000 RMK AO2 SLP160 T02010126 $,KVAD,2023-05-27T00:55:00Z,30.97,-83.2,20.1,12.6,50,7,,10.0,30.0,1016.0,,TRUE,TRUE,TRUE,,,,,,OVC,5000,,,,,,,VFR,,,,,,,,,,,,METAR,70.0
KUKL 270055Z AUTO 10006KT 10SM CLR 21/06 A3012 RMK AO2 T02120057,KUKL,2023-05-27T00:55:00Z,38.3,-95.73,21.2,5.7,100,6,,10.0,30.121063,,,TRUE,TRUE,,,,,,,CLR,,,,,,,,VFR,,,,,,,,,,,,METAR,357.0
KTTS 270055Z AUTO 01014G20KT 10SM BKN020 OVC027 22/19 A2986 RMK AO2 CIG 018 RWY15/33 SLP116 T02200190 $,KTTS,2023-05-27T00:55:00Z,28.58,-80.67,22.0,19.0,10,14,20,10.0,29.861221,1011.6,,TRUE,TRUE,TRUE,,,,,,BKN,2000,OVC,2700,,,,,MVFR,,,,,,,,,,,,METAR,1.0
KTIK 270055Z AUTO 12004KT 10SM BKN100 24/17 A3002 RMK AO2 SLP162 T02360171 $,KTIK,2023-05-27T00:55:00Z,35.4,-97.38,23.6,17.1,120,4,,10.0,30.02067,1016.2,,TRUE,TRUE,TRUE,,,,,,BKN,10000,,,,,,,VFR,,,,,,,,,,,,METAR,387.0
KTDR 270055Z AUTO 06009KT 10SM OVC070 25/18 A2992 RMK AO2 SLPNO T02460178 $,KTDR,2023-05-27T00:55:00Z,30.05,-85.52,24.6,17.8,60,9,,10.0,29.920275,,,TRUE,TRUE,TRUE,,,,,,OVC,7000,,,,,,,VFR,,,,,,,,,,,,METAR,4.0
KTCM 270055Z AUTO 28007KT 10SM CLR 28/10 A2984 RMK AO2 SLP107 T02770099 $,KTCM,2023-05-27T00:55:00Z,47.13,-122.47,27.7,9.9,280,7,,10.0,29.840551,1010.7,,TRUE,TRUE,TRUE,,,,,,CLR,,,,,,,,VFR,,,,,,,,,,,,METAR,87.0
KTBX 270055Z AUTO 10SM CLR 10/02 A3012 RMK AO2,KTBX,2023-05-27T00:55:00Z,43.47,-108.23,10.0,2.0,,,,10.0,30.121063,,,TRUE,TRUE,,,,,,,CLR,,,,,,,,VFR,,,,,,,,,,,,METAR,2230.0
KTBN 270055Z AUTO 06004KT 10SM CLR 21/05 A3013 RMK AO2 SLP200 T02050053 FZRANO $,KTBN,2023-05-27T00:55:00Z,37.73,-92.13,20.5,5.3,60,4,,10.0,30.129921,1020.0,,TRUE,TRUE,TRUE,,,TRUE,,,CLR,,,,,,,,VFR,,,,,,,,,,,,METAR,349.0
KT70 270055Z AUTO 10012KT 7SM CLR 29/17 A2991 RMK AO2 SLP116 T02890171 $,KT70,2023-05-27T00:55:00Z,29.12,-100.48,28.9,17.1,100,12,,7.0,29.911417,1011.6,,TRUE,TRUE,TRUE,,,,,,CLR,,,,,,,,VFR,,,,,,,,,,,,METAR,296.0
KT35 270055Z AUTO 00000KT CLR 27/16 A2997 RMK AO2 T02710160 PWINO,KT35,2023-05-27T00:55:00Z,30.88,-96.97,27.1,16.0,0,0,,,29.970472,,,TRUE,TRUE,,,,,TRUE,,CLR,,,,,,,,,,,,,,,,,,,,METAR,122.0
KT20 270055Z AUTO 08003KT 10SM CLR 28/19 A2995 RMK AO2 T02800186,KT20,2023-05-27T00:55:00Z,29.52,-97.47,28.0,18.6,80,3,,10.0,29.949802,,,TRUE,TRUE,,,,,,,CLR,,,,,,,,VFR,,,,,,,,,,,,METAR,107.0
KSZL 270055Z AUTO 07006KT 10SM CLR 21/04 A3014 RMK AO2 SLP206 T02090040 $,KSZL,2023-05-27T00:55:00Z,38.73,-93.53,20.9,4.0,70,6,,10.0,30.138779,1020.6,,TRUE,TRUE,TRUE,,,,,,CLR,,,,,,,,VFR,,,,,,,,,,,,METAR,259.0
KSYF 270055Z AUTO 17016G25KT 10SM OVC065 21/12 A3005 RMK AO2 T02130116 PWINO,KSYF,2023-05-27T00:55:00Z,39.77,-101.8,21.3,11.6,170,16,25,10.0,30.050198,,,TRUE,TRUE,,,,,TRUE,,OVC,6500,,,,,,,VFR,,,,,,,,,,,,METAR,1041.0
KSXS 270055Z AUTO 08004KT 10SM CLR 22/16 A2998 RMK AO2 SLP151 T02220160,KSXS,2023-05-27T00:55:00Z,31.37,-85.85,22.2,16.0,80,4,,10.0,29.97933,1015.1,,TRUE,TRUE,,,,,,,CLR,,,,,,,,VFR,,,,,,,,,,,,METAR,120.0
KSUU 270055Z AUTO 23022G28KT 10SM CLR 19/11 A2986 RMK AO2 PK WND 24030/31 SLP118 T01890107 $,KSUU,2023-05-27T00:55:00Z,38.27,-121.93,18.9,10.7,230,22,28,10.0,29.861221,1011.8,,TRUE,TRUE,TRUE,,,,,,CLR,,,,,,,,VFR,,,,,,,,,,,,METAR,9.0
KSUN 270055Z 31009KT 10SM SCT120 11/09 A3000,KSUN,2023-05-27T00:55:00Z,43.5,-114.28,11.0,9.0,310,9,,10.0,30.0,,,,,,,,,,,SCT,12000,,,,,,,VFR,,,,,,,,,,,,METAR,1619.0
KSSC 270055Z AUTO 03010KT 10SM CLR 18/07 A3008 RMK AO2 SLP187 T01820070 $,KSSC,2023-05-27T00:55:00Z,33.97,-80.47,18.2,7.0,30,10,,10.0,30.079725,1018.7,,TRUE,TRUE,TRUE,,,,,,CLR,,,,,,,,VFR,,,,,,,,,,,,METAR,71.0
KSLR 270055Z AUTO 00000KT 10SM CLR 25/15 A3003 RMK AO2 T02540154,KSLR,2023-05-27T00:55:00Z,33.17,-95.62,25.4,15.4,0,0,,10.0,30.029528,,,TRUE,TRUE,,,,,,,CLR,,,,,,,,VFR,,,,,,,,,,,,METAR,144.0
KSLI 270055Z AUTO 24010KT 10SM SCT034 OVC045 17/11 A2993 RMK AO2 SLP138 T01730113,KSLI,2023-05-27T00:55:00Z,33.78,-118.03,17.3,11.3,240,10,,10.0,29.929134,1013.8,,TRUE,TRUE,,,,,,,SCT,3400,OVC,4500,,,,,VFR,,,,,,,,,,,,METAR,8.0
KSKF 270055Z AUTO 09010KT 10SM CLR 27/18 A2992 RMK AO2 SLP125 T02730183,KSKF,2023-05-27T00:55:00Z,29.38,-98.57,27.3,18.3,90,10,,10.0,29.920275,1012.5,,TRUE,TRUE,,,,,,,CLR,,,,,,,,VFR,,,,,,,,,,,,METAR,214.0
KSKA 270055Z 07015KT 10SM OVC110 20/08 A2985 RMK AO2A SLP101 T02010084 $,KSKA,2023-05-27T00:55:00Z,47.62,-117.67,20.1,8.4,70,15,,10.0,29.84941,1010.1,,,TRUE,TRUE,,,,,,OVC,11000,,,,,,,VFR,,,,,,,,,,,,METAR,754.0
KSHM 270055Z AUTO 08007KT 10SM FEW080 BKN120 14/08 A3005 RMK AO2 LTG DSNT N SLP137 T01400084 $,KSHM,2023-05-27T00:55:00Z,38.8,-104.52,14.0,8.4,80,7,,10.0,30.050198,1013.7,,TRUE,TRUE,TRUE,,,,,,FEW,8000,BKN,12000,,,,,VFR,,,,,,,,,,,,METAR,1900.0
KSEQ 270055Z AUTO 04006KT 9SM CLR 27/18 A2992 RMK AO2 SLP128 T02680181,KSEQ,2023-05-27T00:55:00Z,29.57,-97.9,26.8,18.1,40,6,,9.0,29.920275,1012.8,,TRUE,TRUE,,,,,,,CLR,,,,,,,,VFR,,,,,,,,,,,,METAR,160.0
KSDC 270055Z AUTO 00000KT 10SM CLR 12/03 A3031 RMK AO2,KSDC,2023-05-27T00:55:00Z,43.23,-77.12,12.0,3.0,0,0,,10.0,30.31004,,,TRUE,TRUE,,,,,,,CLR,,,,,,,,VFR,,,,,,,,,,,,METAR,127.0
KSCK 270055Z 34007KT 10SM CLR 24/11 A2987 RMK AO2 SLP114 T02440111,KSCK,2023-05-27T00:55:00Z,37.88,-121.22,24.4,11.1,340,7,,10.0,29.870079,1011.4,,,TRUE,,,,,,,CLR,,,,,,,,VFR,,,,,,,,,,,,METAR,8.0
KSCH 270055Z 17003KT 15SM CLR 19/02 A3024,KSCH,2023-05-27T00:55:00Z,42.85,-73.92,19.0,2.0,170,3,,15.0,30.239174,,,,,,,,,,,CLR,,,,,,,,VFR,,,,,,,,,,,,METAR,100.0
KSBO 270055Z AUTO 04005KT 10SM SCT120 19/06 A3008 RMK AO2,KSBO,2023-05-27T00:55:00Z,32.62,-82.37,19.0,6.0,40,5,,10.0,30.079725,,,TRUE,TRUE,,,,,,,SCT,12000,,,,,,,VFR,,,,,,,,,,,,METAR,98.0
KS33 270055Z AUTO 02012G17KT 10SM OVC075 A2994 RMK AO2 LTG DSNT E,KS33,2023-05-27T00:55:00Z,44.67,-121.15,,,20,12,17,10.0,29.940945,,,TRUE,TRUE,,,,,,,OVC,7500,,,,,,,VFR,,,,,,,,,,,,METAR,739.0
KRZT 270055Z AUTO 06003KT 10SM CLR 18/01 A3022 RMK AO2 PWINO,KRZT,2023-05-27T00:55:00Z,39.43,-83.02,18.0,1.0,60,3,,10.0,30.221457,,,TRUE,TRUE,,,,,TRUE,,CLR,,,,,,,,VFR,,,,,,,,,,,,METAR,217.0
KRYM 270055Z AUTO 15009KT 10SM CLR 24/05 A3016 RMK AO2 SLP214 T02430046 $,KRYM,2023-05-27T00:55:00Z,46.08,-94.37,24.3,4.6,150,9,,10.0,30.159449,1021.4,,TRUE,TRUE,TRUE,,,,,,CLR,,,,,,,,VFR,,,,,,,,,,,,METAR,344.0
KRWV 270055Z AUTO 00000KT CLR 27/16 A2997 RMK AO2 PWINO T02670157,KRWV,2023-05-27T00:55:00Z,30.52,-96.7,26.7,15.7,0,0,,,29.970472,,,TRUE,TRUE,,,,,TRUE,,CLR,,,,,,,,,,,,,,,,,,,,METAR,116.0
KRNO 270055Z 18013KT 10SM SCT055 BKN100 18/09 A2994 RMK AO2 WSHFT 2345 LTG DSNT SE RAE08 TSE18 SLP104 CB DSNT N AND SE THRU S P0001 T01780089 $,KRNO,2023-05-27T00:55:00Z,39.5,-119.77,17.8,8.9,180,13,,10.0,29.940945,1010.4,,,TRUE,TRUE,,,,,,SCT,5500,BKN,10000,,,,,VFR,,,,,,0.01,,,,,,METAR,1344.0
KRND 270055Z AUTO 09004KT 10SM CLR 26/18 A2992 RMK AO2 SLP125 T02640180 TSNO $,KRND,2023-05-27T00:55:00Z,29.53,-98.27,26.4,18.0,90,4,,10.0,29.920275,1012.5,,TRUE,TRUE,TRUE,,TRUE,,,,CLR,,,,,,,,VFR,,,,,,,,,,,,SPECI,224.0
KRIV 270055Z AUTO 30011KT 10SM FEW044 18/10 A2993 RMK AO2 SLP130 T01760102,KRIV,2023-05-27T00:55:00Z,33.87,-117.23,17.6,10.2,300,11,,10.0,29.929134,1013.0,,TRUE,TRUE,,,,,,,FEW,4400,,,,,,,VFR,,,,,,,,,,,,METAR,454.0
KRDR 270055Z AUTO 18014G24KT 10SM CLR 28/10 A2997 RMK AO2 PK WND 20028/2355 SLP150 T02840101 $,KRDR,2023-05-27T00:55:00Z,47.93,-97.4,28.4,10.1,180,14,24,10.0,29.970472,1015.0,,TRUE,TRUE,TRUE,,,,,,CLR,,,,,,,,VFR,,,,,,,,,,,,METAR,276.0
KRCE 270055Z AUTO 00000KT 10SM SCT120 22/19 A3006 RMK AO2,KRCE,2023-05-27T00:55:00Z,35.48,-97.82,22.0,19.0,0,0,,10.0,30.059055,,,TRUE,TRUE,,,,,,,SCT,12000,,,,,,,VFR,,,,,,,,,,,,METAR,412.0
KRCA 270055Z AUTO 16009KT 10SM CLR 22/13 A2990 RMK AO2 SLP109 T02230131 $,KRCA,2023-05-27T00:55:00Z,44.15,-103.12,22.3,13.1,160,9,,10.0,29.899607,1010.9,,TRUE,TRUE,TRUE,,,,,,CLR,,,,,,,,VFR,,,,,,,,,,,,SPECI,993.0
KQVF 270055Z AUTO VRB03KT 9999 CLR 25/23 A2994 RMK AO2 SLP141 WND DATA ESTMD T02470231,KQVF,2023-05-27T00:55:00Z,,,24.7,23.1,0,3,,6.21,29.940945,1014.1,,TRUE,TRUE,,,,,,,CLR,,,,,,,,VFR,,,,,,,,,,,,METAR,
KQTZ 270055Z 34006KT 9999 BKN200 28/09 A2978 RMK SLP085,KQTZ,2023-05-27T00:55:00Z,,,28.0,9.0,340,6,,6.21,29.778543,1008.5,,,,,,,,,,BKN,20000,,,,,,,VFR,,,,,,,,,,,,METAR,
KQN3 270055Z 22006KT 9999 CLR 34/21 A2978 RMK AO2A SLP064 T03420206,KQN3,2023-05-27T00:55:00Z,,,34.2,20.6,220,6,,6.21,29.778543,1006.4,,,TRUE,,,,,,,CLR,,,,,,,,VFR,,,,,,,,,,,,METAR,
KQHY 270055Z AUTO 07003KT 10SM BKN110 25/17 A2996 RMK AO2 SLP152 T02500172 TSNO $,KQHY,2023-05-27T00:55:00Z,,,25.0,17.2,70,3,,10.0,29.958662,1015.2,,TRUE,TRUE,TRUE,,TRUE,,,,BKN,11000,,,,,,,VFR,,,,,,,,,,,,METAR,
KQD3 270055Z AUTO VRB04KT 9999 BKN220 30/26 A2978 RMK AO2 SLP069 WND DATA ESTMD T02990263,KQD3,2023-05-27T00:55:00Z,,,29.9,26.3,0,4,,6.21,29.778543,1006.9,,TRUE,TRUE,,,,,,,BKN,22000,,,,,,,VFR,,,,,,,,,,,,METAR,
KQBL 270055Z AUTO VRB03KT 10SM SCT100 25/17 A2998 RMK AO2 SLP152 WND DATA ESTMD T02500172,KQBL,2023-05-27T00:55:00Z,,,25.0,17.2,0,3,,10.0,29.97933,1015.2,,TRUE,TRUE,,,,,,,SCT,10000,,,,,,,VFR,,,,,,,,,,,,METAR,
KQAZ 270055Z AUTO 04004KT 9999 CLR 35/02 A2977 RMK AO2 SLP069 WND DATA ESTMD T03480021,KQAZ,2023-05-27T00:55:00Z,,,34.8,2.1,40,4,,6.21,29.769686,1006.9,,TRUE,TRUE,,,,,,,CLR,,,,,,,,VFR,,,,,,,,,,,,METAR,
KPVW 270055Z AUTO 13009KT 10SM SCT020 SCT027 19/16 A3006 RMK AO2 LTG DSNT W P0001 T01920161,KPVW,2023-05-27T00:55:00Z,34.17,-101.72,19.2,16.1,130,9,,10.0,30.059055,,,TRUE,TRUE,,,,,,,SCT,2000,SCT,2700,,,,,VFR,,,,,,0.01,,,,,,METAR,1029.0
KPTT 270055Z AUTO 15005KT 10SM OVC080 22/13 A3009 RMK AO2 T02240130,KPTT,2023-05-27T00:55:00Z,37.7,-98.75,22.4,13.0,150,5,,10.0,30.088583,,,TRUE,TRUE,,,,,,,OVC,8000,,,,,,,VFR,,,,,,,,,,,,METAR,594.0
KPSM 270055Z 15004KT 10SM FEW200 10/07 A3025 RMK AO2A SLP247 T01030070,KPSM,2023-05-27T00:55:00Z,43.08,-70.82,10.3,7.0,150,4,,10.0,30.250984,1024.7,,,TRUE,,,,,,,FEW,20000,,,,,,,VFR,,,,,,,,,,,,SPECI,34.0
KPOE 270055Z 00000KT 5SM HZ CLR 25/14 A2997 RMK AO2A SLP149 T02530135,KPOE,2023-05-27T00:55:00Z,31.05,-93.2,25.3,13.5,0,0,,5.0,29.970472,1014.9,,,TRUE,,,,,,HZ,CLR,,,,,,,,MVFR,,,,,,,,,,,,METAR,98.0
KPOB 270055Z AUTO 04013KT 10SM FEW170 17/04 A3014 RMK AO2 SLP209 T01720042 $,KPOB,2023-05-27T00:55:00Z,35.17,-79.02,17.2,4.2,40,13,,10.0,30.138779,1020.9,,TRUE,TRUE,TRUE,,,,,,FEW,17000,,,,,,,VFR,,,,,,,,,,,,METAR,57.0
KPHP 270055Z AUTO 14015KT 10SM FEW110 22/15 A2994 RMK AO2 PK WND 15028/0025 SLP125 T02170150,KPHP,2023-05-27T00:55:00Z,44.05,-101.6,21.7,15.0,140,15,,10.0,29.940945,1012.5,,TRUE,TRUE,,,,,,,FEW,11000,,,,,,,VFR,,,,,,,,,,,,METAR,673.0
KPAM 270055Z AUTO 06005KT 10SM SCT070 24/17 A2995 RMK AO2 SLP145 T02400170 $,KPAM,2023-05-27T00:55:00Z,30.07,-85.57,24.0,17.0,60,5,,10.0,29.949802,1014.5,,TRUE,TRUE,TRUE,,,,,,SCT,7000,,,,,,,VFR,,,,,,,,,,,,METAR,4.0
KP58 270055Z AUTO 17004KT 13/00 A3031 RMK AO1 SLP266 T01330000,KP58,2023-05-27T00:55:00Z,44.02,-82.8,13.3,0.0,170,4,,,30.31004,1026.6,,TRUE,TRUE,,,,,,,,,,,,,,,,,,,,,,,,,,,METAR,180.0
KOZR 270055Z AUTO 03005KT 10SM CLR 22/16 A2998 RMK AO2 SLP153 T02200156,KOZR,2023-05-27T00:55:00Z,31.28,-85.72,22.0,15.6,30,5,,10.0,29.97933,1015.3,,TRUE,TRUE,,,,,,,CLR,,,,,,,,VFR,,,,,,,,,,,,METAR,90.0
KOZA 270055Z AUTO 15012G19KT 10SM SCT047 SCT060 26/15 A3000 RMK AO2,KOZA,2023-05-27T00:55:00Z,30.73,-101.2,26.0,15.0,150,12,19,10.0,30.0,,,TRUE,TRUE,,,,,,,SCT,4700,SCT,6000,,,,,VFR,,,,,,,,,,,,METAR,721.0
KOFF 270055Z 11011KT 10SM FEW250 25/00 A3016 RMK AO2A SLP212 T02460001 PWINO PNO FZRANO TSNO CHINO RWY31 $,KOFF,2023-05-27T00:55:00Z,41.12,-95.92,24.6,0.1,110,11,,10.0,30.159449,1021.2,,,TRUE,TRUE,,TRUE,TRUE,TRUE,,FEW,25000,,,,,,,VFR,,,,,,,,,,,,SPECI,308.0
KOCQ 270055Z AUTO 14005KT 10SM CLR 17/04 A3029 RMK AO1 T01720041,KOCQ,2023-05-27T00:55:00Z,44.87,-87.92,17.2,4.1,140,5,,10.0,30.28937,,,TRUE,TRUE,,,,,,,CLR,,,,,,,,VFR,,,,,,,,,,,,METAR,181.0
KNTD 270055Z 28008KT 6SM HZ FEW028 BKN043 16/12 A2997 RMK AO2 SLP148 T01610117 $,KNTD,2023-05-27T00:55:00Z,34.12,-119.12,16.1,11.7,280,8,,6.0,29.970472,1014.8,,,TRUE,TRUE,,,,,HZ,FEW,2800,BKN,4300,,,,,VFR,,,,,,,,,,,,METAR,1.0
KNOW 270055Z AUTO 29021G27KT 10SM CLR 13/11 A2988 RMK AO2 T01300112,KNOW,2023-05-27T00:55:00Z,48.13,-123.4,13.0,11.2,290,21,27,10.0,29.878937,,,TRUE,TRUE,,,,,,,CLR,,,,,,,,VFR,,,,,,,,,,,,METAR,3.0
KNKX 270055Z 29010KT 10SM CLR 17/10 A2995 RMK AO2 SLP137 T01720100 $,KNKX,2023-05-27T00:55:00Z,32.87,-117.13,17.2,10.0,290,10,,10.0,29.949802,1013.7,,,TRUE,TRUE,,,,,,CLR,,,,,,,,VFR,,,,,,,,,,,,METAR,138.0
KNBG 270055Z 15003KT 10SM FEW060 BKN250 26/16 A2995 RMK AO2 SLP142 T02610161 $,KNBG,2023-05-27T00:55:00Z,29.83,-90.02,26.1,16.1,150,3,,10.0,29.949802,1014.2,,,TRUE,TRUE,,,,,,FEW,6000,BKN,25000,,,,,VFR,,,,,,,,,,,,METAR,0.0
KMXF 270055Z AUTO 05004KT 10SM CLR 24/12 A2999 RMK AO2 SLP157 T02380124,KMXF,2023-05-27T00:55:00Z,32.38,-86.37,23.8,12.4,50,4,,10.0,29.991142,1015.7,,TRUE,TRUE,,,,,,,CLR,,,,,,,,VFR,,,,,,,,,,,,METAR,47.0
KMUI 270055Z AUTO 00000KT 10SM CLR 16/04 A3023 RMK AO2 SLP239 T01580039 TSNO $,KMUI,2023-05-27T00:55:00Z,40.43,-76.57,15.8,3.9,0,0,,10.0,30.230314,1023.9,,TRUE,TRUE,TRUE,,TRUE,,,,CLR,,,,,,,,VFR,,,,,,,,,,,,METAR,146.0
KMTN 270055Z 10007KT 10SM CLR 19/08 A3026,KMTN,2023-05-27T00:55:00Z,39.32,-76.42,19.0,8.0,100,7,,10.0,30.259842,,,,,,,,,,,CLR,,,,,,,,VFR,,,,,,,,,,,,METAR,2.0
KMPZ 270055Z AUTO 11005KT 10SM CLR 22/00 A3021 RMK AO2,KMPZ,2023-05-27T00:55:00Z,40.95,-91.52,22.0,0.0,110,5,,10.0,30.209646,,,TRUE,TRUE,,,,,,,CLR,,,,,,,,VFR,,,,,,,,,,,,METAR,222.0
KMMT 270055Z 01006KT 10SM SCT150 OVC200 18/06 A3007 RMK AO2A SLP185 T01810063 $,KMMT,2023-05-27T00:55:00Z,33.92,-80.8,18.1,6.3,10,6,,10.0,30.070866,1018.5,,,TRUE,TRUE,,,,,,SCT,15000,OVC,20000,,,,,VFR,,,,,,,,,,,,METAR,76.0
KMKG 270055Z 32005KT 10SM BKN250 17/M01 A3030 RMK AO2 SLP260 T01721006,KMKG,2023-05-27T00:55:00Z,43.17,-86.23,17.2,-0.6,320,5,,10.0,30.301182,1026.0,,,TRUE,,,,,,,BKN,25000,,,,,,,VFR,,,,,,,,,,,,METAR,190.0
KMGE 270055Z 09006KT 10SM FEW250 21/11 A3007 RMK AO2A SLP178 T02080106 $,KMGE,2023-05-27T00:55:00Z,33.92,-84.52,20.8,10.6,90,6,,10.0,30.070866,1017.8,,,TRUE,TRUE,,,,,,FEW,25000,,,,,,,VFR,,,,,,,,,,,,METAR,309.0
KMCF 270055Z AUTO 04014KT 10SM CLR 23/18 A2984 RMK AO2 SLP107 T02310182 FZRANO $,KMCF,2023-05-27T00:55:00Z,27.85,-82.52,23.1,18.2,40,14,,10.0,29.840551,1010.7,,TRUE,TRUE,TRUE,,,TRUE,,,CLR,,,,,,,,VFR,,,,,,,,,,,,METAR,3.0
KLZZ 270055Z AUTO 11004KT 10SM CLR 25/16 A2997 RMK AO2 T02510159,KLZZ,2023-05-27T00:55:00Z,31.1,-98.2,25.1,15.9,110,4,,10.0,29.970472,,,TRUE,TRUE,,,,,,,CLR,,,,,,,,VFR,,,,,,,,,,,,SPECI,356.0
KLUV 270055Z AUTO 14014KT 10SM BKN016 BKN021 BKN026 21/20 A3003 RMK AO2 LTG DSNT SE AND S P0004,KLUV,2023-05-27T00:55:00Z,32.75,-101.92,21.0,20.0,140,14,,10.0,30.029528,,,TRUE,TRUE,,,,,,,BKN,1600,BKN,2100,BKN,2600,,,MVFR,,,,,,0.04,,,,,,METAR,910.0
KLUF 270055Z AUTO 21014KT 10SM CLR 34/M05 A2971 RMK AO2 SLP047 T03351053 $,KLUF,2023-05-27T00:55:00Z,33.53,-112.37,33.5,-5.3,210,14,,10.0,29.71063,1004.7,,TRUE,TRUE,TRUE,,,,,,CLR,,,,,,,,VFR,,,,,,,,,,,,METAR,333.0
KLTS 270055Z AUTO 12009KT 10SM CLR 24/16 A3001 RMK AO2 SLP151 T02430163 $,KLTS,2023-05-27T00:55:00Z,34.67,-99.27,24.3,16.3,120,9,,10.0,30.008858,1015.1,,TRUE,TRUE,TRUE,,,,,,CLR,,,,,,,,VFR,,,,,,,,,,,,METAR,416.0
KLSF 270055Z AUTO 00000KT 10SM CLR 23/14 A3000 RMK AO2 SLP163 T02290144 $,KLSF,2023-05-27T00:55:00Z,32.32,-84.97,22.9,14.4,0,0,,10.0,30.0,1016.3,,TRUE,TRUE,TRUE,,,,,,CLR,,,,,,,,VFR,,,,,,,,,,,,METAR,68.0
KLRF 270055Z AUTO 05006KT 10SM CLR 23/09 A3004 RMK AO2 SLP173 T02290089,KLRF,2023-05-27T00:55:00Z,34.92,-92.12,22.9,8.9,50,6,,10.0,30.041338,1017.3,,TRUE,TRUE,,,,,,,CLR,,,,,,,,VFR,,,,,,,,,,,,METAR,85.0
KLOR 270055Z AUTO 00000KT 10SM FEW085 22/16 A2999 RMK AO2 SLP138 T02200160,KLOR,2023-05-27T00:55:00Z,31.35,-85.75,22.0,16.0,0,0,,10.0,29.991142,1013.8,,TRUE,TRUE,,,,,,,FEW,8500,,,,,,,VFR,,,,,,,,,,,,METAR,92.0
KLLJ 270055Z AUTO 16006KT 10SM -RA SCT065 BKN100 13/08 A2997 RMK AO2 RAB2358E21B52 SLP121 P0000 T01280078,KLLJ,2023-05-27T00:55:00Z,44.52,-114.22,12.8,7.8,160,6,,10.0,29.970472,1012.1,,TRUE,TRUE,,,,,,-RA,SCT,6500,BKN,10000,,,,,VFR,,,,,,0.005,,,,,,METAR,1535.0
KLHW 270055Z 01009KT 10SM FEW035 OVC120 18/10 A3000 RMK AO2A SLP162 T01830101 $,KLHW,2023-05-27T00:55:00Z,31.88,-81.57,18.3,10.1,10,9,,10.0,30.0,1016.2,,,TRUE,TRUE,,,,,,FEW,3500,OVC,12000,,,,,VFR,,,,,,,,,,,,METAR,14.0
KLGF 270055Z AUTO 25010KT M M CLR 33/M02 A2972 RMK AO2 SLP061 T03251018 RVRNO PWINO TSNO $,KLGF,2023-05-27T00:55:00Z,32.87,-114.4,32.5,-1.8,250,10,,,29.719488,1006.1,,TRUE,TRUE,TRUE,,TRUE,,TRUE,,CLR,,,,,,,,,,,,,,,,,,,,METAR,118.0
KLFI 270055Z AUTO 09013KT 10SM CLR 16/06 A3022 RMK AO2 SLP240 T01620063 $,KLFI,2023-05-27T00:55:00Z,37.08,-76.33,16.2,6.3,90,13,,10.0,30.221457,1024.0,,TRUE,TRUE,TRUE,,,,,,CLR,,,,,,,,VFR,,,,,,,,,,,,SPECI,2.0
KLCK 270055Z AUTO 06006KT 10SM CLR 17/05 A3021 RMK AO2 T01730047,KLCK,2023-05-27T00:55:00Z,39.82,-82.92,17.3,4.7,60,6,,10.0,30.209646,,,TRUE,TRUE,,,,,,,CLR,,,,,,,,VFR,,,,,,,,,,,,METAR,225.0
KK62 270055Z AUTO 08004KT 10SM CLR 19/02 A3017 RMK AO2,KK62,2023-05-27T00:55:00Z,38.7,-84.4,19.0,2.0,80,4,,10.0,30.171259,,,TRUE,TRUE,,,,,,,CLR,,,,,,,,VFR,,,,,,,,,,,,METAR,274.0
KJQF 270055Z 05004G22KT 10SM CLR 18/06 A3020,KJQF,2023-05-27T00:55:00Z,35.38,-80.72,18.0,6.0,50,4,22,10.0,30.200787,,,,,,,,,,,CLR,,,,,,,,VFR,,,,,,,,,,,,METAR,204.0
KJES 270055Z AUTO 03005KT 10SM CLR 18/11 A3005 RMK AO2,KJES,2023-05-27T00:55:00Z,31.55,-81.88,18.0,11.0,30,5,,10.0,30.050198,,,TRUE,TRUE,,,,,,,CLR,,,,,,,,VFR,,,,,,,,,,,,METAR,26.0
KIRK 270055Z AUTO 08005KT 10SM CLR 20/02 A3020 RMK AO2 SLP229 T02000017,KIRK,2023-05-27T00:55:00Z,40.1,-92.55,20.0,1.7,80,5,,10.0,30.200787,1022.9,,TRUE,TRUE,,,,,,,CLR,,,,,,,,VFR,,,,,,,,,,,,METAR,292.0
KINS 270055Z AUTO 09009KT 10SM BKN130 29/M11 A2976 RMK AO2 SLP037 T02861106 $,KINS,2023-05-27T00:55:00Z,36.58,-115.68,28.6,-10.6,90,9,,10.0,29.760826,1003.7,,TRUE,TRUE,TRUE,,,,,,BKN,13000,,,,,,,VFR,,,,,,,,,,,,METAR,954.0
KIAB 270055Z AUTO 13010KT 10SM CLR 26/13 A3005 RMK AO2 SLP168 T02550130 $,KIAB,2023-05-27T00:55:00Z,37.62,-97.27,25.5,13.0,130,10,,10.0,30.050198,1016.8,,TRUE,TRUE,TRUE,,,,,,CLR,,,,,,,,VFR,,,,,,,,,,,,METAR,413.0
KHUA 270055Z AUTO 05006KT 9SM FEW065 21/15 A3005 RMK AO2 SLP172 T02130154,KHUA,2023-05-27T00:55:00Z,34.68,-86.68,21.3,15.4,50,6,,9.0,30.050198,1017.2,,TRUE,TRUE,,,,,,,FEW,6500,,,,,,,VFR,,,,,,,,,,,,METAR,200.0
KHST 270055Z 36005KT 10SM SCT043 BKN050 25/20 A2982 RMK AO2A SLP101 T02470202 $,KHST,2023-05-27T00:55:00Z,25.48,-80.37,24.7,20.2,360,5,,10.0,29.819881,1010.1,,,TRUE,TRUE,,,,,,SCT,4300,BKN,5000,,,,,VFR,,,,,,,,,,,,METAR,1.0
KHSP 270055Z AUTO 07005KT 10SM CLR 13/05 A3029 RMK AO2 T01250050,KHSP,2023-05-27T00:55:00Z,37.95,-79.82,12.5,5.0,70,5,,10.0,30.28937,,,TRUE,TRUE,,,,,,,CLR,,,,,,,,VFR,,,,,,,,,,,,METAR,1148.0
KHRT 270055Z AUTO 04004KT 10SM CLR 25/17 A2995 RMK AO2 RAB14E23 SLP144 P0000 T02450167,KHRT,2023-05-27T00:55:00Z,30.42,-86.68,24.5,16.7,40,4,,10.0,29.949802,1014.4,,TRUE,TRUE,,,,,,,CLR,,,,,,,,VFR,,,,,,0.005,,,,,,METAR,10.0
KHOP 270055Z AUTO 36005KT 10SM CLR 20/11 A3009 RMK AO2 SLP190 T01980113,KHOP,2023-05-27T00:55:00Z,36.67,-87.5,19.8,11.3,360,5,,10.0,30.088583,1019.0,,TRUE,TRUE,,,,,,,CLR,,,,,,,,VFR,,,,,,,,,,,,METAR,170.0
KHON 270055Z AUTO 15012G23KT 10SM CLR 27/08 A3003 RMK AO2 SLP163 T02670078,KHON,2023-05-27T00:55:00Z,44.38,-98.23,26.7,7.8,150,12,23,10.0,30.029528,1016.3,,TRUE,TRUE,,,,,,,CLR,,,,,,,,VFR,,,,,,,,,,,,METAR,391.0
KHMN 270055Z AUTO 15023G28KT 10SM FEW120 31/11 A2991 RMK AO2 PK WND 19029/2357 SLP056 T03070106 $,KHMN,2023-05-27T00:55:00Z,32.85,-106.1,30.7,10.6,150,23,28,10.0,29.911417,1005.6,,TRUE,TRUE,TRUE,,,,,,FEW,12000,,,,,,,VFR,,,,,,,,,,,,SPECI,1240.0
KHLR 270055Z AUTO 10006KT 9SM CLR 27/16 A2999 RMK AO2 SLP146 T02680155,KHLR,2023-05-27T00:55:00Z,31.13,-97.72,26.8,15.5,100,6,,9.0,29.991142,1014.6,,TRUE,TRUE,,,,,,,CLR,,,,,,,,VFR,,,,,,,,,,,,METAR,271.0
KHIF 270055Z AUTO 11014G24KT 10SM FEW100 16/05 A2988 RMK AO2 PK WND 10030/04 SLP079 T01590052,KHIF,2023-05-27T00:55:00Z,41.12,-111.97,15.9,5.2,110,14,24,10.0,29.878937,1007.9,,TRUE,TRUE,,,,,,,FEW,10000,,,,,,,VFR,,,,,,,,,,,,SPECI,1461.0
KHHW 270055Z AUTO 00000KT 10SM SCT070 OVC090 25/16 A3002 RMK AO2,KHHW,2023-05-27T00:55:00Z,34.03,-95.55,25.0,16.0,0,0,,10.0,30.02067,,,TRUE,TRUE,,,,,,,SCT,7000,OVC,9000,,,,,VFR,,,,,,,,,,,,METAR,178.0
KHFF 270055Z AUTO 07011G17KT 10SM OVC180 18/06 A3012 RMK AO2 SLP201 T01810056 $,KHFF,2023-05-27T00:55:00Z,35.03,-79.5,18.1,5.6,70,11,17,10.0,30.121063,1020.1,,TRUE,TRUE,TRUE,,,,,,OVC,18000,,,,,,,VFR,,,,,,,,,,,,METAR,100.0
KHEY 270055Z AUTO 04005KT 9SM CLR 24/16 A2997 RMK AO2 SLP149 T02360161,KHEY,2023-05-27T00:55:00Z,31.35,-85.65,23.6,16.1,40,5,,9.0,29.970472,1014.9,,TRUE,TRUE,,,,,,,CLR,,,,,,,,VFR,,,,,,,,,,,,METAR,95.0
KHEG 270055Z AUTO 02014G24KT 10SM OVC027 20/14 A2999 RMK AO2,KHEG,2023-05-27T00:55:00Z,30.28,-81.8,20.0,14.0,20,14,24,10.0,29.991142,,,TRUE,TRUE,,,,,,,OVC,2700,,,,,,,MVFR,,,,,,,,,,,,METAR,25.0
KGXF 270055Z AUTO 24009KT 10SM CLR 34/M02 A2972 RMK AO2 SLP053 T03391020 FZRANO $,KGXF,2023-05-27T00:55:00Z,32.88,-112.72,33.9,-2.0,240,9,,10.0,29.719488,1005.3,,TRUE,TRUE,TRUE,,,TRUE,,,CLR,,,,,,,,VFR,,,,,,,,,,,,SPECI,261.0
KGXA 270055Z AUTO 30016KT 10SM CLR 21/06 A2984 RMK AO2 SLP089 WND DATA ESTMD T02130058,KGXA,2023-05-27T00:55:00Z,34.57,-117.67,21.3,5.8,300,16,,10.0,29.840551,1008.9,,TRUE,TRUE,,,,,,,CLR,,,,,,,,VFR,,,,,,,,,,,,METAR,927.0
KGVT 270055Z AUTO 07004KT 10SM CLR 25/16 A3002 RMK AO2 TSNO T02510156,KGVT,2023-05-27T00:55:00Z,33.07,-96.07,25.1,15.6,70,4,,10.0,30.02067,,,TRUE,TRUE,,,TRUE,,,,CLR,,,,,,,,VFR,,,,,,,,,,,,METAR,165.0
KGUS 270055Z AUTO 08009KT 10SM CLR 19/M01 A3022 RMK AO2 SLP236 T01931007 $,KGUS,2023-05-27T00:55:00Z,40.63,-86.15,19.3,-0.7,80,9,,10.0,30.221457,1023.6,,TRUE,TRUE,TRUE,,,,,,CLR,,,,,,,,VFR,,,,,,,,,,,,METAR,245.0
KGUR 270055Z AUTO 18007KT 9SM SCT180 BKN210 20/08 A2989 RMK AO2 SLP111 T01970081,KGUR,2023-05-27T00:55:00Z,42.25,-104.72,19.7,8.1,180,7,,9.0,29.890747,1011.1,,TRUE,TRUE,,,,,,,SCT,18000,BKN,21000,,,,,VFR,,,,,,,,,,,,METAR,1341.0
KGTB 270055Z AUTO 25004KT 10SM CLR 12/02 A3026 RMK AO2 SLP249 T01200022,KGTB,2023-05-27T00:55:00Z,44.07,-75.72,12.0,2.2,250,4,,10.0,30.259842,1024.9,,TRUE,TRUE,,,,,,,CLR,,,,,,,,VFR,,,,,,,,,,,,METAR,206.0
KGSB 270055Z AUTO 05010KT 10SM FEW046 BKN170 16/07 A3013 RMK AO2 SLP206 T01640071 $,KGSB,2023-05-27T00:55:00Z,35.33,-77.93,16.4,7.1,50,10,,10.0,30.129921,1020.6,,TRUE,TRUE,TRUE,,,,,,FEW,4600,BKN,17000,,,,,VFR,,,,,,,,,,,,METAR,33.0
KGRK 270055Z AUTO 10005KT 10SM CLR 26/15 A2998 RMK AO2 SLP143 T02620152,KGRK,2023-05-27T00:55:00Z,31.07,-97.83,26.2,15.2,100,5,,10.0,29.97933,1014.3,,TRUE,TRUE,,,,,,,CLR,,,,,,,,VFR,,,,,,,,,,,,METAR,311.0
KGRF 270055Z AUTO 28009KT 10SM CLR 28/09 A2982 RMK AO2 SLP101 T02750093 $,KGRF,2023-05-27T00:55:00Z,47.07,-122.57,27.5,9.3,280,9,,10.0,29.819881,1010.1,,TRUE,TRUE,TRUE,,,,,,CLR,,,,,,,,VFR,,,,,,,,,,,,SPECI,91.0
KGPI 270055Z 27005KT 10SM FEW070 18/11 A2992 RMK AO2 SLP125 T01780106 $,KGPI,2023-05-27T00:55:00Z,48.32,-114.25,17.8,10.6,270,5,,10.0,29.920275,1012.5,,,TRUE,TRUE,,,,,,FEW,7000,,,,,,,VFR,,,,,,,,,,,,METAR,903.0
KGOV 270055Z AUTO 33004KT 9SM CLR 17/M01 A3031 RMK AO2 SLP273 T01691013 $,KGOV,2023-05-27T00:55:00Z,44.68,-84.73,16.9,-1.3,330,4,,9.0,30.31004,1027.3,,TRUE,TRUE,TRUE,,,,,,CLR,,,,,,,,VFR,,,,,,,,,,,,METAR,350.0
KGNB 270055Z AUTO 16008KT 10SM SCT095 BKN120 16/01 A3008 RMK AO2 T01580008,KGNB,2023-05-27T00:55:00Z,40.08,-105.92,15.8,0.8,160,8,,10.0,30.079725,,,TRUE,TRUE,,,,,,,SCT,9500,BKN,12000,,,,,VFR,,,,,,,,,,,,METAR,2500.0
KGLE 270055Z AUTO 11003KT 10SM SCT100 25/13 A3004 RMK AO2 T02490132,KGLE,2023-05-27T00:55:00Z,33.65,-97.2,24.9,13.2,110,3,,10.0,30.041338,,,TRUE,TRUE,,,,,,,SCT,10000,,,,,,,VFR,,,,,,,,,,,,METAR,250.0
KGGF 270055Z AUTO 14017G22KT 10SM SCT050 21/17 A3002 RMK AO2 LTG DSNT SW AND W,KGGF,2023-05-27T00:55:00Z,40.87,-101.73,21.0,17.0,140,17,22,10.0,30.02067,,,TRUE,TRUE,,,,,,,SCT,5000,,,,,,,VFR,,,,,,,,,,,,METAR,1044.0
KFTK 270055Z AUTO 02004KT 10SM CLR 21/10 A3011 RMK AO2 SLPNO T02060101 $,KFTK,2023-05-27T00:55:00Z,37.9,-85.97,20.6,10.1,20,4,,10.0,30.109253,,,TRUE,TRUE,TRUE,,,,,,CLR,,,,,,,,VFR,,,,,,,,,,,,METAR,225.0
KFSI 270055Z AUTO 00000KT 10SM OVC090 24/18 A3001 RMK AO2 SLP155 T02360178 FZRANO $,KFSI,2023-05-27T00:55:00Z,34.65,-98.4,23.6,17.8,0,0,,10.0,30.008858,1015.5,,TRUE,TRUE,TRUE,,,TRUE,,,OVC,9000,,,,,,,VFR,,,,,,,,,,,,METAR,360.0
KFRI 270055Z AUTO 10007KT 10SM CLR 25/10 A3009 RMK AO2 SLP181 T02480095 $,KFRI,2023-05-27T00:55:00Z,39.05,-96.77,24.8,9.5,100,7,,10.0,30.088583,1018.1,,TRUE,TRUE,TRUE,,,,,,CLR,,,,,,,,VFR,,,,,,,,,,,,METAR,232.0
KFMH 270055Z 16003KT 10SM CLR 11/07 A3028,KFMH,2023-05-27T00:55:00Z,41.65,-70.52,11.0,7.0,160,3,,10.0,30.280512,,,,,,,,,,,CLR,,,,,,,,VFR,,,,,,,,,,,,METAR,35.0
KFGX 270055Z AUTO 09004KT 10SM CLR 19/05 A3019 RMK AO2 T01850046,KFGX,2023-05-27T00:55:00Z,38.55,-83.75,18.5,4.6,90,4,,10.0,30.188976,,,TRUE,TRUE,,,,,,,CLR,,,,,,,,VFR,,,,,,,,,,,,METAR,279.0
KFFO 270055Z AUTO 04006KT 10SM CLR 18/04 A3016 RMK AO2 SLP215 T01800035,KFFO,2023-05-27T00:55:00Z,39.83,-84.03,18.0,3.5,40,6,,10.0,30.159449,1021.5,,TRUE,TRUE,,,,,,,CLR,,,,,,,,VFR,,,,,,,,,,,,METAR,250.0
KFEW 270055Z 00000KT 10SM CLR 13/07 A3005 RMK AO2A PK WND 10026/2355 LTG DSNT N AND SE SLP123 T01320074 $,KFEW,2023-05-27T00:55:00Z,41.13,-104.87,13.2,7.4,0,0,,10.0,30.050198,1012.3,,,TRUE,TRUE,,,,,,CLR,,,,,,,,VFR,,,,,,,,,,,,METAR,1877.0
KFCS 270055Z 01002KT 10SM SCT030 BKN080 16/08 A3006 RMK AO2A SLP071 P0000 T01610081 $,KFCS,2023-05-27T00:55:00Z,38.67,-104.77,16.1,8.1,10,2,,10.0,30.059055,1007.1,,,TRUE,TRUE,,,,,,SCT,3000,BKN,8000,,,,,VFR,,,,,,0.005,,,,,,METAR,1789.0
KFBR 270055Z AUTO 32004KT 10SM SCT075 OVC090 11/06 A3006 RMK AO2 LTG DSNT NW T01130060,KFBR,2023-05-27T00:55:00Z,41.4,-110.4,11.3,6.0,320,4,,10.0,30.059055,,,TRUE,TRUE,,,,,,,SCT,7500,OVC,9000,,,,,VFR,,,,,,,,,,,,METAR,2140.0
KFBG 270055Z AUTO 03010KT 10SM CLR 17/05 A3012 RMK AO2 SLP202 T01720048 $,KFBG,2023-05-27T00:55:00Z,35.12,-78.92,17.2,4.8,30,10,,10.0,30.121063,1020.2,,TRUE,TRUE,TRUE,,,,,,CLR,,,,,,,,VFR,,,,,,,,,,,,METAR,69.0
KFAF 270055Z AUTO 06004KT 10SM CLR 16/06 A3021 RMK AO2 SLP234 T01640057 $,KFAF,2023-05-27T00:55:00Z,37.13,-76.62,16.4,5.7,60,4,,10.0,30.209646,1023.4,,TRUE,TRUE,TRUE,,,,,,CLR,,,,,,,,VFR,,,,,,,,,,,,SPECI,3.0
KEND 270055Z AUTO 20005KT 10SM SCT110 23/17 A3003 RMK AO2 SLP162 T02250167 $,KEND,2023-05-27T00:55:00Z,36.33,-97.92,22.5,16.7,200,5,,10.0,30.029528,1016.2,,TRUE,TRUE,TRUE,,,,,,SCT,11000,,,,,,,VFR,,,,,,,,,,,,METAR,392.0
KEGI 270055Z AUTO 05003KT 10SM SCT110 24/17 A2997 RMK AO2 SLP148 T02350170 $,KEGI,2023-05-27T00:55:00Z,30.65,-86.52,23.5,17.0,50,3,,10.0,29.970472,1014.8,,TRUE,TRUE,TRUE,,,,,,SCT,11000,,,,,,,VFR,,,,,,,,,,,,METAR,59.0
KEDW 270055Z 23023KT 30SM CLR 22/09 A2981 RMK AO2A PK WND 23032/52 SLP083 T02180093,KEDW,2023-05-27T00:55:00Z,34.9,-117.87,21.8,9.3,230,23,,30.0,29.811024,1008.3,,,TRUE,,,,,,,CLR,,,,,,,,VFR,,,,,,,,,,,,METAR,698.0
KEBS 270055Z AUTO 13010KT 10SM CLR 22/M06 A3019 RMK AO2,KEBS,2023-05-27T00:55:00Z,42.43,-93.87,22.0,-6.0,130,10,,10.0,30.188976,,,TRUE,TRUE,,,,,,,CLR,,,,,,,,VFR,,,,,,,,,,,,METAR,340.0
KEAT 270055Z AUTO 08004KT 10SM FEW120 23/12 A2983 RMK AO2 SLP097 T02280122,KEAT,2023-05-27T00:55:00Z,47.4,-120.2,22.8,12.2,80,4,,10.0,29.828741,1009.7,,TRUE,TRUE,,,,,,,FEW,12000,,,,,,,VFR,,,,,,,,,,,,METAR,375.0
KE11 270055Z AUTO 14019KT 10SM SCT042 26/16 A2999 RMK AO2 LTG DSNT E T02560158,KE11,2023-05-27T00:55:00Z,32.33,-102.53,25.6,15.8,140,19,,10.0,29.991142,,,TRUE,TRUE,,,,,,,SCT,4200,,,,,,,VFR,,,,,,,,,,,,METAR,966.0
KDYS 270055Z AUTO 10008KT 10SM CLR 24/16 A2999 RMK AO2 SLP120 T02410156,KDYS,2023-05-27T00:55:00Z,32.42,-99.83,24.1,15.6,100,8,,10.0,29.991142,1012.0,,TRUE,TRUE,,,,,,,CLR,,,,,,,,VFR,,,,,,,,,,,,METAR,544.0
KDOV 270055Z AUTO 15005KT 10SM CLR 14/03 A3025 RMK AO2 SLP247 T01430025,KDOV,2023-05-27T00:55:00Z,39.12,-75.47,14.3,2.5,150,5,,10.0,30.250984,1024.7,,TRUE,TRUE,,,,,,,CLR,,,,,,,,VFR,,,,,,,,,,,,METAR,6.0
KDMA 270055Z 22011G19KT 8SM CLR 33/M07 A2980 RMK AO2A SLP050 T03291075 RVRNO $,KDMA,2023-05-27T00:55:00Z,32.17,-110.88,32.9,-7.5,220,11,19,8.0,29.799213,1005.0,,,TRUE,TRUE,,,,,,CLR,,,,,,,,VFR,,,,,,,,,,,,METAR,804.0
KDLH 270055Z 14006KT 10SM CLR 22/04 A3021 RMK AO2 SLP232 T02170044 $,KDLH,2023-05-27T00:55:00Z,46.85,-92.2,21.7,4.4,140,6,,10.0,30.209646,1023.2,,,TRUE,TRUE,,,,,,CLR,,,,,,,,VFR,,,,,,,,,,,,METAR,434.0
KDLF 270055Z AUTO 11011KT 10SM CLR 28/16 A2989 RMK AO2 SLP110 T02810164 $,KDLF,2023-05-27T00:55:00Z,29.37,-100.78,28.1,16.4,110,11,,10.0,29.890747,1011.0,,TRUE,TRUE,TRUE,,,,,,CLR,,,,,,,,VFR,,,,,,,,,,,,SPECI,328.0
KDCM 270055Z AUTO 05007G16KT 10SM CLR 17/06 A3016 RMK AO2 LTG DSNT SE,KDCM,2023-05-27T00:55:00Z,34.78,-81.2,17.0,6.0,50,7,16,10.0,30.159449,,,TRUE,TRUE,,,,,,,CLR,,,,,,,,VFR,,,,,,,,,,,,METAR,191.0
KDAA 270055Z AUTO 00000KT 10SM CLR 16/07 A3022 RMK AO2 SLP236 T01580070 $,KDAA,2023-05-27T00:55:00Z,38.72,-77.17,15.8,7.0,0,0,,10.0,30.221457,1023.6,,TRUE,TRUE,TRUE,,,,,,CLR,,,,,,,,VFR,,,,,,,,,,,,METAR,17.0
KCWN 270055Z AUTO 16004KT 10SM FEW120 15/06 A3002 RMK AO2 LTG DSNT NE SLP016 T01450061 $,KCWN,2023-05-27T00:55:00Z,38.75,-104.85,14.5,6.1,160,4,,10.0,30.02067,1001.6,,TRUE,TRUE,TRUE,,,,,,FEW,12000,,,,,,,VFR,,,,,,,,,,,,METAR,2040.0
KCVS 270055Z 15009KT 7SM VCTS BKN065CB OVC085 22/17 A3003 RMK AO2A LTG DSNT N-NE TSB21E50 SLP123 T02160174 $,KCVS,2023-05-27T00:55:00Z,34.37,-103.32,21.6,17.4,150,9,,7.0,30.029528,1012.3,,,TRUE,TRUE,,,,,VCTS,BKN,6500,OVC,8500,,,,,VFR,,,,,,,,,,,,METAR,1305.0
KCTJ 270055Z AUTO 00000KT 10SM CLR 19/08 A3012 RMK AO2 T01880080,KCTJ,2023-05-27T00:55:00Z,33.63,-85.15,18.8,8.0,0,0,,10.0,30.121063,,,TRUE,TRUE,,,,,,,CLR,,,,,,,,VFR,,,,,,,,,,,,METAR,351.0
KCPW 270055Z AUTO 19017G27KT 10SM BKN050 BKN060 OVC070 07/M04 A3039 RMK AO2 LTG DSNT W,KCPW,2023-05-27T00:55:00Z,37.45,-106.8,7.0,-4.0,190,17,27,10.0,30.389763,,,TRUE,TRUE,,,,,,,BKN,5000,BKN,6000,OVC,7000,,,VFR,,,,,,,,,,,,METAR,3570.0
KCOF 270055Z AUTO 35015G24KT 10SM FEW020 23/19 A2984 RMK AO2 PK WND 36026/20 SLP109 T02290194 $,KCOF,2023-05-27T00:55:00Z,28.23,-80.6,22.9,19.4,350,15,24,10.0,29.840551,1010.9,,TRUE,TRUE,TRUE,,,,,,FEW,2000,,,,,,,VFR,,,,,,,,,,,,METAR,1.0
KCNW 270055Z VRB03KT 7SM SKC 26/16 A2998,KCNW,2023-05-27T00:55:00Z,31.63,-97.07,26.0,16.0,0,3,,7.0,29.97933,,,,,,,,,,,SKC,,,,,,,,VFR,,,,,,,,,,,,METAR,139.0
KCNK 270055Z AUTO 12013G21KT 10SM CLR 26/11 A3008 RMK AO2 SLP173 T02560111,KCNK,2023-05-27T00:55:00Z,39.55,-97.65,25.6,11.1,120,13,21,10.0,30.079725,1017.3,,TRUE,TRUE,,,,,,,CLR,,,,,,,,VFR,,,,,,,,,,,,METAR,445.0
KCMY 270055Z AUTO 00000KT 10SM CLR 20/04 A3024 RMK AO2 SLP245 T01980039 FZRANO $,KCMY,2023-05-27T00:55:00Z,43.97,-90.73,19.8,3.9,0,0,,10.0,30.239174,1024.5,,TRUE,TRUE,TRUE,,,TRUE,,,CLR,,,,,,,,VFR,,,,,,,,,,,,METAR,253.0
KCMA 270055Z 28009KT 10SM OVC040 17/11 A2996 RMK AO2 SLP152 T01720111,KCMA,2023-05-27T00:55:00Z,34.22,-119.1,17.2,11.1,280,9,,10.0,29.958662,1015.2,,,TRUE,,,,,,,OVC,4000,,,,,,,VFR,,,,,,,,,,,,METAR,20.0
KCEF 270055Z 00000KT 10SM CLR 14/06 A3021 RMK AO2A SLP236 T01350056,KCEF,2023-05-27T00:55:00Z,42.2,-72.52,13.5,5.6,0,0,,10.0,30.209646,1023.6,,,TRUE,,,,,,,CLR,,,,,,,,VFR,,,,,,,,,,,,METAR,72.0
KCBM 270055Z AUTO 03004KT 10SM SCT120 M A2999 RMK AO2 SLPNO ALSTG ESTMD $,KCBM,2023-05-27T00:55:00Z,33.65,-88.45,,,30,4,,10.0,29.991142,,,TRUE,TRUE,TRUE,,,,,,SCT,12000,,,,,,,VFR,,,,,,,,,,,,METAR,59.0
KCBK 270055Z AUTO 15013G23KT 10SM SCT050 BKN060 OVC095 23/13 A3007 RMK AO2 T02280130,KCBK,2023-05-27T00:55:00Z,39.43,-101.05,22.8,13.0,150,13,23,10.0,30.070866,,,TRUE,TRUE,,,,,,,SCT,5000,BKN,6000,OVC,9500,,,VFR,,,,,,,,,,,,METAR,970.0
KCAO 270055Z AUTO 14019G28KT 10SM FEW028 BKN036 19/13 A3004 RMK AO2 PK WND 15028/0025 SLP127 T01940133,KCAO,2023-05-27T00:55:00Z,36.45,-103.15,19.4,13.3,140,19,28,10.0,30.041338,1012.7,,TRUE,TRUE,,,,,,,FEW,2800,BKN,3600,,,,,VFR,,,,,,,,,,,,METAR,1517.0
KBYS 270055Z AUTO 25010G21KT 10SM CLR 28/02 A2973 RMK AO2 SLP046 T02840018 $,KBYS,2023-05-27T00:55:00Z,35.28,-116.63,28.4,1.8,250,10,21,10.0,29.731298,1004.6,,TRUE,TRUE,TRUE,,,,,,CLR,,,,,,,,VFR,,,,,,,,,,,,METAR,717.0
KBWD 270055Z AUTO 09007KT 5SM BKN050 25/16 A3001 RMK AO1,KBWD,2023-05-27T00:55:00Z,31.8,-98.95,25.0,16.0,90,7,,5.0,30.008858,,,TRUE,TRUE,,,,,,,BKN,5000,,,,,,,MVFR,,,,,,,,,,,,SPECI,420.0
KBLV 270055Z 07003KT 10SM CLR 22/03 A3014 RMK AO2A SLP208 T02150027 $,KBLV,2023-05-27T00:55:00Z,38.53,-89.83,21.5,2.7,70,3,,10.0,30.138779,1020.8,,,TRUE,TRUE,,,,,,CLR,,,,,,,,VFR,,,,,,,,,,,,METAR,134.0
KBIX 270055Z AUTO 00000KT 10SM CLR 25/16 A2994 RMK AO2 SLP141 T02460158,KBIX,2023-05-27T00:55:00Z,30.42,-88.92,24.6,15.8,0,0,,10.0,29.940945,1014.1,,TRUE,TRUE,,,,,,,CLR,,,,,,,,VFR,,,,,,,,,,,,METAR,4.0
KBDG 270055Z AUTO 19009G21KT 10SM 24/M07 A2995 RMK AO1 T02371068,KBDG,2023-05-27T00:55:00Z,37.58,-109.47,23.7,-6.8,190,9,21,10.0,29.949802,,,TRUE,TRUE,,,,,,,,,,,,,,,,,,,,,,,,,,,METAR,1778.0
KBAD 270055Z AUTO 08003KT 10SM CLR 25/15 A2999 RMK AO2 SLP158 T02530150,KBAD,2023-05-27T00:55:00Z,32.5,-93.67,25.3,15.0,80,3,,10.0,29.991142,1015.8,,TRUE,TRUE,,,,,,,CLR,,,,,,,,VFR,,,,,,,,,,,,METAR,49.0
KBAB 270055Z AUTO 18009KT 10SM CLR 25/12 A2984 RMK AO2 SLP107 T02540119 $,KBAB,2023-05-27T00:55:00Z,39.13,-121.43,25.4,11.9,180,9,,10.0,29.840551,1010.7,,TRUE,TRUE,TRUE,,,,,,CLR,,,,,,,,VFR,,,,,,,,,,,,METAR,31.0
KAZE 270055Z AUTO 06006KT 10SM CLR 20/09 A3004 RMK AO2 T01950086,KAZE,2023-05-27T00:55:00Z,31.88,-82.65,19.5,8.6,60,6,,10.0,30.041338,,,TRUE,TRUE,,,,,,,CLR,,,,,,,,VFR,,,,,,,,,,,,METAR,78.0
KAST 270055Z AUTO 30010KT 10SM OVC009 14/11 A2996 RMK AO2 SLP145 T01390111,KAST,2023-05-27T00:55:00Z,46.15,-123.88,13.9,11.1,300,10,,10.0,29.958662,1014.5,,TRUE,TRUE,,,,,,,OVC,900,,,,,,,IFR,,,,,,,,,,,,METAR,3.0
KAPY 270055Z AUTO 10009G16KT 10SM CLR 32/15 A2990 RMK AO2 T03200154 TSNO,KAPY,2023-05-27T00:55:00Z,26.97,-99.25,32.0,15.4,100,9,16,10.0,29.899607,,,TRUE,TRUE,,,TRUE,,,,CLR,,,,,,,,VFR,,,,,,,,,,,,METAR,129.0
KAPS 270055Z AUTO 00000KT 10SM CLR 26/16 A2996 RMK AO2,KAPS,2023-05-27T00:55:00Z,30.08,-90.58,26.0,16.0,0,0,,10.0,29.958662,,,TRUE,TRUE,,,,,,,CLR,,,,,,,,VFR,,,,,,,,,,,,METAR,1.0
KANJ 270055Z AUTO 26004KT 10SM CLR 18/03 A3028 RMK AO2 SLPNO T01830028,KANJ,2023-05-27T00:55:00Z,46.47,-84.37,18.3,2.8,260,4,,10.0,30.280512,,,TRUE,TRUE,,,,,,,CLR,,,,,,,,VFR,,,,,,,,,,,,METAR,220.0
KAFO 270055Z AUTO 17011G17KT 10SM CLR 13/00 A2998 RMK AO2 LTG DSNT W,KAFO,2023-05-27T00:55:00Z,42.72,-110.95,13.0,0.0,170,11,17,10.0,29.97933,,,TRUE,TRUE,,,,,,,CLR,,,,,,,,VFR,,,,,,,,,,,,METAR,1881.0
KADW 270055Z AUTO 11003KT 10SM CLR 17/07 A3021 RMK AO2 SLP236 T01700065 $,KADW,2023-05-27T00:55:00Z,38.82,-76.87,17.0,6.5,110,3,,10.0,30.209646,1023.6,,TRUE,TRUE,TRUE,,,,,,CLR,,,,,,,,VFR,,,,,,,,,,,,SPECI,87.0
KADT 270055Z AUTO 15017G23KT 10SM SCT055 SCT065 BKN080 A3010 RMK AO2,KADT,2023-05-27T00:55:00Z,39.83,-101.05,,,150,17,23,10.0,30.100393,,,TRUE,TRUE,,,,,,,SCT,5500,SCT,6500,BKN,8000,,,VFR,,,,,,,,,,,,METAR,899.0
KADH 270055Z AUTO 06005KT 10SM CLR 25/18 A3005 RMK AO2,KADH,2023-05-27T00:55:00Z,34.8,-96.67,25.0,18.0,60,5,,10.0,30.050198,,,TRUE,TRUE,,,,,,,CLR,,,,,,,,VFR,,,,,,,,,,,,METAR,301.0
KABH 270055Z AUTO 10007KT 10SM BKN110 BKN130 13/10 A3008 RMK AO2 LTG DSNT NE SLP151 T01340100,KABH,2023-05-27T00:55:00Z,38.75,-104.3,13.4,10.0,100,7,,10.0,30.079725,1015.1,,TRUE,TRUE,,,,,,,BKN,11000,BKN,13000,,,,,VFR,,,,,,,,,,,,METAR,1838.0
KAAT 270055Z AUTO 02015G25KT 10SM BKN100 OVC110 20/04 A2991 RMK AO2 WSHFT 0037 SLP105 T02000039,KAAT,2023-05-27T00:55:00Z,41.48,-120.57,20.0,3.9,20,15,25,10.0,29.911417,1010.5,,TRUE,TRUE,,,,,,,BKN,10000,OVC,11000,,,,,VFR,,,,,,,,,,,,METAR,1336.0
K9L2 270055Z AUTO 22014G22KT 10SM CLR 25/06 A2980 RMK AO2 SLP076 T02520064,K9L2,2023-05-27T00:55:00Z,34.98,-117.87,25.2,6.4,220,14,22,10.0,29.799213,1007.6,,TRUE,TRUE,,,,,,,CLR,,,,,,,,VFR,,,,,,,,,,,,METAR,697.0
K82V 270055Z AUTO 33004KT 10SM 12/11 A3002 RMK AO2 LTG DSNT N AND SE,K82V,2023-05-27T00:55:00Z,41.15,-104.13,12.0,11.0,330,4,,10.0,30.02067,,,TRUE,TRUE,,,,,,,,,,,,,,,,,,,,,,,,,,,METAR,1563.0
K6P9 270055Z AUTO 07004KT 10SM SCT100 24/18 A3003 RMK AO2 T02350179,K6P9,2023-05-27T00:55:00Z,32.43,-98.6,23.5,17.9,70,4,,10.0,30.029528,,,TRUE,TRUE,,,,,,,SCT,10000,,,,,,,VFR,,,,,,,,,,,,METAR,451.0
K6I2 270055Z AUTO 04003KT 10SM CLR 20/12 A3014 RMK AO2,K6I2,2023-05-27T00:55:00Z,37.63,-85.25,20.0,12.0,40,3,,10.0,30.138779,,,TRUE,TRUE,,,,,,,CLR,,,,,,,,VFR,,,,,,,,,,,,METAR,258.0
K54J 270055Z AUTO 04005KT 10SM CLR 23/16 A2999 RMK AO2 T02320160,K54J,2023-05-27T00:55:00Z,30.73,-86.15,23.2,16.0,40,5,,10.0,29.991142,,,TRUE,TRUE,,,,,,,CLR,,,,,,,,VFR,,,,,,,,,,,,METAR,87.0
K4MR 270055Z AUTO 14016KT 10SM CLR 25/17 A2997 RMK AO2 LTG DSNT E AND NW SLPNO T02470167 $,K4MR,2023-05-27T00:55:00Z,34.3,-103.8,24.7,16.7,140,16,,10.0,29.970472,,,TRUE,TRUE,TRUE,,,,,,CLR,,,,,,,,VFR,,,,,,,,,,,,METAR,1339.0
K2J5 270055Z AUTO 34009KT 10SM BKN120 19/07 A3008 RMK AO2 T01880068,K2J5,2023-05-27T00:55:00Z,32.9,-81.97,18.8,6.8,340,9,,10.0,30.079725,,,TRUE,TRUE,,,,,,,BKN,12000,,,,,,,VFR,,,,,,,,,,,,METAR,72.0
K2DP 270055Z AUTO 04019G23KT 10SM M 16/11 A3012 RMK AO2 PK WND 04026/08 SLPNO T01620113 $,K2DP,2023-05-27T00:55:00Z,35.68,-75.9,16.2,11.3,40,19,23,10.0,30.121063,,,TRUE,TRUE,TRUE,,,,,,,,,,,,,,,,,,,,,,,,,,METAR,1.0
K1YT 270055Z AUTO 04008KT 10SM CLR 25/M00 A2980 RMK AO2 LTG DSNT E SLP089 T02511002 $,K1YT,2023-05-27T00:55:00Z,46.67,-120.45,25.1,-0.2,40,8,,10.0,29.799213,1008.9,,TRUE,TRUE,TRUE,,,,,,CLR,,,,,,,,VFR,,,,,,,,,,,,METAR,423.0
K1OW 270055Z AUTO 02007KT 10SM SCT110 OVC170 13/10 A3012 RMK AO2 LTG DSNT NE AND SE RAE21 SLP164 P0011 T01250100 $,K1OW,2023-05-27T00:55:00Z,40.88,-104.0,12.5,10.0,20,7,,10.0,30.121063,1016.4,,TRUE,TRUE,TRUE,,,,,,SCT,11000,OVC,17000,,,,,VFR,,,,,,0.11,,,,,,METAR,1650.0
K1ON 270055Z AUTO 22010KT 10SM -RA BKN065 BKN110 OVC140 20/16 A2991 RMK AO2 LTG DSNT NE AND SE-S AND W RAB52 SLP131 P0000 T01970157 $,K1ON,2023-05-27T00:55:00Z,,,19.7,15.7,220,10,,10.0,29.911417,1013.1,,TRUE,TRUE,TRUE,,,,,-RA,BKN,6500,BKN,11000,OVC,14000,,,VFR,,,,,,0.005,,,,,,METAR,
K1OM 270055Z AUTO 11004KT 10SM FEW026 18/13 A2991 RMK AO2 LTG DSNT SE SLP123 T01790126 $,K1OM,2023-05-27T00:55:00Z,47.33,-108.93,17.9,12.6,110,4,,10.0,29.911417,1012.3,,TRUE,TRUE,TRUE,,,,,,FEW,2600,,,,,,,VFR,,,,,,,,,,,,METAR,1088.0
K1NW 270055Z AUTO 10006KT 9SM M 14/12 A2999 RMK AO2 LTG DSNT SE-S RAE24 SLP120 P0006 T01350119 $,K1NW,2023-05-27T00:55:00Z,40.63,-103.83,13.5,11.9,100,6,,9.0,29.991142,1012.0,,TRUE,TRUE,TRUE,,,,,,,,,,,,,,,,,,,,0.06,,,,,,METAR,1461.0
K1MW 270055Z AUTO 27006KT 10SM -RA OVC080 14/12 A3003 RMK AO2 LTG DSNT N-S TSE08 SLP139 P0017 T01430120 $,K1MW,2023-05-27T00:55:00Z,40.7,-103.48,14.3,12.0,270,6,,10.0,30.029528,1013.9,,TRUE,TRUE,TRUE,,,,,-RA,OVC,8000,,,,,,,VFR,,,,,,0.17,,,,,,METAR,1338.0
K1MN 270055Z AUTO 20008KT 10SM BKN140 21/15 A2990 RMK AO2 LTG DSNT N AND E-SE SLP124 T02140152 $,K1MN,2023-05-27T00:55:00Z,,,21.4,15.2,200,8,,10.0,29.899607,1012.4,,TRUE,TRUE,TRUE,,,,,,BKN,14000,,,,,,,VFR,,,,,,,,,,,,METAR,
K1MM 270055Z AUTO 28003KT 10SM FEW025 BKN038 BKN047 OVC060 17/12 A2992 RMK AO2 LTG DSNT E SLP128 T01670122 $,K1MM,2023-05-27T00:55:00Z,47.02,-109.63,16.7,12.2,280,3,,10.0,29.920275,1012.8,,TRUE,TRUE,TRUE,,,,,,FEW,2500,BKN,3800,BKN,4700,OVC,6000,VFR,,,,,,,,,,,,METAR,1256.0
K1KN 270055Z AUTO 20011KT 10SM OVC130 19/16 A2993 RMK AO2 LTG DSNT N AND E AND S RAB13E44 SLP134 P0000 T01920162 $,K1KN,2023-05-27T00:55:00Z,,,19.2,16.2,200,11,,10.0,29.929134,1013.4,,TRUE,TRUE,TRUE,,,,,,OVC,13000,,,,,,,VFR,,,,,,0.005,,,,,,METAR,
K1JW 270055Z AUTO 26010KT 8SM TSRA BKN035 OVC043 13/11 M RMK AO2 PK WND 17033/07 RAB32 TSB31 SLPNO P0023 T01280105 $,K1JW,2023-05-27T00:55:00Z,40.97,-103.2,12.8,10.5,260,10,,8.0,,,,TRUE,TRUE,TRUE,,,,,TSRA,BKN,3500,OVC,4300,,,,,VFR,,,,,,0.23,,,,,,METAR,1382.0
K1JN 270055Z AUTO 17008KT 10SM -RA SCT100 OVC130 19/18 A2992 RMK AO2 LTG DSNT N AND E-SE AND SW RAB27 SLP133 P0000 T01860183 $,K1JN,2023-05-27T00:55:00Z,,,18.6,18.3,170,8,,10.0,29.920275,1013.3,,TRUE,TRUE,TRUE,,,,,-RA,SCT,10000,OVC,13000,,,,,VFR,,,,,,0.005,,,,,,METAR,
K1JM 270055Z AUTO 31010KT 10SM OVC070 14/10 A2994 RMK AO2 RAE26 SLP139 P0001 T01360104 $,K1JM,2023-05-27T00:55:00Z,47.75,-111.55,13.6,10.4,310,10,,10.0,29.940945,1013.9,,TRUE,TRUE,TRUE,,,,,,OVC,7000,,,,,,,VFR,,,,,,0.01,,,,,,METAR,1154.0
K1IW 270055Z AUTO 15018G23KT 10SM RA FEW044 SCT080 BKN170 20/14 A2996 RMK AO2 LTG DSNT S-W RAB46 SLP111 P0001 T01960137 $,K1IW,2023-05-27T00:55:00Z,41.05,-102.87,19.6,13.7,150,18,23,10.0,29.958662,1011.1,,TRUE,TRUE,TRUE,,,,,RA,FEW,4400,SCT,8000,BKN,17000,,,VFR,,,,,,0.01,,,,,,METAR,1294.0
K1IN 270055Z AUTO 20006KT 10SM -RA OVC120 18/16 A2993 RMK AO2 LTG DSNT N AND E AND S RAE21RAB30 SLP137 P0001 T01810155 $,K1IN,2023-05-27T00:55:00Z,,,18.1,15.5,200,6,,10.0,29.929134,1013.7,,TRUE,TRUE,TRUE,,,,,-RA,OVC,12000,,,,,,,VFR,,,,,,0.01,,,,,,METAR,
K1IM 270055Z AUTO 19004KT 10SM -RA FEW016 FEW022 SCT030 SCT070 OVC090 14/13 A2992 RMK AO2 RAE23RAB26 SLP134 P0001 T01420131 $,K1IM,2023-05-27T00:55:00Z,47.32,-111.47,14.2,13.1,190,4,,10.0,29.920275,1013.4,,TRUE,TRUE,TRUE,,,,,-RA,FEW,1600,FEW,2200,SCT,3000,SCT,7000,VFR,,,,,,0.01,,,,,,METAR,1110.0
K1HW 270055Z AUTO 14018KT 10SM FEW046 BKN070 20/15 A2996 RMK AO2 PK WND 14030/11 LTG DSNT S AND W SLP114 T02010151 $,K1HW,2023-05-27T00:55:00Z,41.32,-102.83,20.1,15.1,140,18,,10.0,29.958662,1011.4,,TRUE,TRUE,TRUE,,,,,,FEW,4600,BKN,7000,,,,,VFR,,,,,,,,,,,,METAR,1265.0
K1HM 270055Z AUTO 25004KT 8SM -RA BKN031 BKN038 OVC055 14/11 A2995 RMK AO2 RAB06E24RAB30 SLP146 P0001 T01360109 $,K1HM,2023-05-27T00:55:00Z,47.7,-111.95,13.6,10.9,250,4,,8.0,29.949802,1014.6,,TRUE,TRUE,TRUE,,,,,-RA,BKN,3100,BKN,3800,OVC,5500,,,VFR,,,,,,0.01,,,,,,METAR,1181.0
K1GN 270055Z AUTO 00000KT 10SM OVC110 19/16 A2992 RMK AO2 LTG DSNT NE-SW TSE2358 SLP139 T01890163 $,K1GN,2023-05-27T00:55:00Z,,,18.9,16.3,0,0,,10.0,29.920275,1013.9,,TRUE,TRUE,TRUE,,,,,,OVC,11000,,,,,,,VFR,,,,,,,,,,,,METAR,
K1GM 270055Z AUTO 34008KT 10SM FEW008 SCT014 OVC024 12/10 M RMK AO2 LTG DSNT SW CIG 014V024 OVC V BKN SLPNO T01190100 $,K1GM,2023-05-27T00:55:00Z,47.33,-112.1,11.9,10.0,340,8,,10.0,,,,TRUE,TRUE,TRUE,,,,,,FEW,800,SCT,1400,OVC,2400,,,MVFR,,,,,,,,,,,,METAR,1317.0
K1FW 270055Z AUTO 23018KT 10SM TSRA BKN049 OVC070 14/14 A3002 RMK AO2 PK WND 23038/06 RAB25 TSB40 SLP131 P0006 T01380136 $,K1FW,2023-05-27T00:55:00Z,41.37,-103.48,13.8,13.6,230,18,,10.0,30.02067,1013.1,,TRUE,TRUE,TRUE,,,,,TSRA,BKN,4900,OVC,7000,,,,,VFR,,,,,,0.06,,,,,,METAR,1451.0
K1EW 270055Z AUTO 30003KT 10SM FEW041 SCT070 13/10 A2999 RMK AO2 PK WND 23030/2354 LTG DSNT NE AND SE RAE49 SLP121 P0011 T01300100 $,K1EW,2023-05-27T00:55:00Z,41.12,-103.98,13.0,10.0,300,3,,10.0,29.991142,1012.1,,TRUE,TRUE,TRUE,,,,,,FEW,4100,SCT,7000,,,,,VFR,,,,,,0.11,,,,,,METAR,1609.0
K1EN 270055Z AUTO 24004KT 10SM VCTS BKN055 BKN075 24/14 A2971 RMK AO2 SLP063 T02400135 $,K1EN,2023-05-27T00:55:00Z,,,24.0,13.5,240,4,,10.0,29.71063,1006.3,,TRUE,TRUE,TRUE,,,,,VCTS,BKN,5500,BKN,7500,,,,,VFR,,,,,,,,,,,,METAR,
K1EM 270055Z AUTO 10007KT 10SM FEW050 18/12 A2992 RMK AO2 LTG DSNT SE SLP125 T01790117 $,K1EM,2023-05-27T00:55:00Z,47.45,-109.42,17.9,11.7,100,7,,10.0,29.920275,1012.5,,TRUE,TRUE,TRUE,,,,,,FEW,5000,,,,,,,VFR,,,,,,,,,,,,METAR,1118.0
K1DW 270055Z AUTO 28013KT 10SM -RA FEW050 OVC070 13/10 A3004 RMK AO2 PK WND 26027/2354 LTG DSNT E-S AND NW TSE34 SLPNO P0015 T01300102 $,K1DW,2023-05-27T00:55:00Z,41.37,-103.8,13.0,10.2,280,13,,10.0,30.041338,,,TRUE,TRUE,TRUE,,,,,-RA,FEW,5000,OVC,7000,,,,,VFR,,,,,,0.15,,,,,,METAR,1539.0
K1DM 270055Z AUTO 30008KT 10SM FEW049 BKN110 17/13 A2993 RMK AO2 LTG DSNT SE SLP134 T01710128 $,K1DM,2023-05-27T00:55:00Z,47.37,-109.8,17.1,12.8,300,8,,10.0,29.929134,1013.4,,TRUE,TRUE,TRUE,,,,,,FEW,4900,BKN,11000,,,,,VFR,,,,,,,,,,,,METAR,1093.0
K1CW 270055Z AUTO 21023G29KT 10SM -RA FEW075 BKN100 OVC120 16/09 A2997 RMK AO2 PK WND 23037/11 LTG DSNT NE-S AND NW RAB34 SLP113 P0000 T01560086 $,K1CW,2023-05-27T00:55:00Z,41.58,-103.57,15.6,8.6,210,23,29,10.0,29.970472,1011.3,,TRUE,TRUE,TRUE,,,,,-RA,FEW,7500,BKN,10000,OVC,12000,,,VFR,,,,,,0.005,,,,,,METAR,1370.0
K1CN 270055Z AUTO 18017KT 10SM CLR 25/13 A2991 RMK AO2 PK WND 19029/2355 LTG DSNT W-N SLP124 T02540132 $,K1CN,2023-05-27T00:55:00Z,,,25.4,13.2,180,17,,10.0,29.911417,1012.4,,TRUE,TRUE,TRUE,,,,,,CLR,,,,,,,,VFR,,,,,,,,,,,,METAR,
K1BW 270055Z AUTO 23012KT 10SM RA OVC065 12/09 A3007 RMK AO2 PK WND 22036/30 LTG DSNT SE AND NW TSE07 SLP149 P0007 T01230093 $,K1BW,2023-05-27T00:55:00Z,41.52,-104.0,12.3,9.3,230,12,,10.0,30.070866,1014.9,,TRUE,TRUE,TRUE,,,,,RA,OVC,6500,,,,,,,VFR,,,,,,0.07,,,,,,METAR,1606.0
K1BN 270055Z AUTO 19013KT 10SM CLR 25/11 A2992 RMK AO2 PK WND 18026/12 LTG DSNT SW-N SLPNO T02490111 $,K1BN,2023-05-27T00:55:00Z,,,24.9,11.1,190,13,,10.0,29.920275,,,TRUE,TRUE,TRUE,,,,,,CLR,,,,,,,,VFR,,,,,,,,,,,,METAR,
K1AN 270055Z AUTO 19021G26KT 10SM CLR 26/13 A2987 RMK AO2 PK WND 20029/41 LTG DSNT SW-NW SLP128 T02590127 $,K1AN,2023-05-27T00:55:00Z,,,25.9,12.7,190,21,26,10.0,29.870079,1012.8,,TRUE,TRUE,TRUE,,,,,,CLR,,,,,,,,VFR,,,,,,,,,,,,METAR,
K1AM 270055Z AUTO 31004KT 10SM BKN020 BKN075 15/12 A2993 RMK AO2 LTG DSNT SW SLP136 T01450122 $,K1AM,2023-05-27T00:55:00Z,47.28,-110.8,14.5,12.2,310,4,,10.0,29.929134,1013.6,,TRUE,TRUE,TRUE,,,,,,BKN,2000,BKN,7500,,,,,MVFR,,,,,,,,,,,,METAR,1228.0
K18A 270055Z AUTO 00000KT 10SM CLR 17/09 A3020 RMK AO2 T01700092,K18A,2023-05-27T00:55:00Z,34.35,-83.13,17.0,9.2,0,0,,10.0,30.200787,,,TRUE,TRUE,,,,,,,CLR,,,,,,,,VFR,,,,,,,,,,,,METAR,260.0
FJDG 270055Z 18008KT 9000 BR FEW020 26/24 A2993 RMK SLP132 T02640239,FJDG,2023-05-27T00:55:00Z,-7.32,72.42,26.4,23.9,180,8,,5.59,29.929134,1013.2,,,,,,,,,BR,FEW,2000,,,,,,,VFR,,,,,,,,,,,,METAR,3.0
ETIC 270055Z AUTO 00000KT 9999 SCT120 10/04 A3027 RMK AO2 SLP252 T01020039 $,ETIC,2023-05-27T00:55:00Z,49.7,11.93,10.2,3.9,0,0,,6.21,30.268702,1025.2,,TRUE,TRUE,TRUE,,,,,,SCT,12000,,,,,,,VFR,,,,,,,,,,,,METAR,414.0
EHWO 270055Z AUTO 06009KT 020V080 9999 NCD 09/06 Q1029 BLU,EHWO,2023-05-27T00:55:00Z,51.45,4.33,9.0,6.0,60,9,,6.21,30.383858,,,TRUE,,,,,,,,CLR,,,,,,,,VFR,,,,,,,,,,,,METAR,15.0
EHVK 270055Z AUTO 04007KT 020V080 9999 NCD 09/05 Q1029 BLU,EHVK,2023-05-27T00:55:00Z,51.65,5.7,9.0,5.0,40,7,,6.21,30.383858,,,TRUE,,,,,,,,CLR,,,,,,,,VFR,,,,,,,,,,,,METAR,20.0
EHSC 270055Z AUTO 07019KT 9999 ///////// 12/08 Q1030 W13/H11,EHSC,2023-05-27T00:55:00Z,51.93,3.67,12.0,8.0,70,19,,6.21,30.413385,,,TRUE,,,,,,,,,,,,,,,,,,,,,,,,,,,,METAR,19.0
EHSA 270055Z AUTO 05018KT 9999 ///////// 12/08 Q1029 W11/H12,EHSA,2023-05-27T00:55:00Z,52.0,3.28,12.0,8.0,50,18,,6.21,30.383858,,,TRUE,,,,,,,,,,,,,,,,,,,,,,,,,,,,METAR,18.0
EHRD 270055Z AUTO 05007KT 9999 NCD 08/06 Q1029 NOSIG,EHRD,2023-05-27T00:55:00Z,51.95,4.45,8.0,6.0,50,7,,6.21,30.383858,,,TRUE,,,TRUE,,,,,CLR,,,,,,,,VFR,,,,,,,,,,,,METAR,-4.0
EHPG 270055Z AUTO 06019KT 9999 SCT016 11/07 Q1030,EHPG,2023-05-27T00:55:00Z,52.37,3.35,11.0,7.0,60,19,,6.21,30.413385,,,TRUE,,,,,,,,SCT,1600,,,,,,,VFR,,,,,,,,,,,,METAR,24.0
EHMG 270055Z AUTO 06011KT 9999 BKN016 11/06 Q1032,EHMG,2023-05-27T00:55:00Z,53.62,4.97,11.0,6.0,60,11,,6.21,30.47244,,,TRUE,,,,,,,,BKN,1600,,,,,,,MVFR,,,,,,,,,,,,METAR,30.0
EHMA 270055Z AUTO 04009KT 9999 FEW017 11/06 Q1031,EHMA,2023-05-27T00:55:00Z,53.5,5.95,11.0,6.0,40,9,,6.21,30.442913,,,TRUE,,,,,,,,FEW,1700,,,,,,,VFR,,,,,,,,,,,,METAR,27.0
EHLW 270055Z AUTO 05001KT 9999 NCD 05/05 Q1031 BLU,EHLW,2023-05-27T00:55:00Z,53.22,5.75,5.0,5.0,50,1,,6.21,30.442913,,,TRUE,,,,,,,,CLR,,,,,,,,VFR,,,,,,,,,,,,METAR,1.0
EHLE 270055Z AUTO 06007KT 9999 NCD 07/05 Q1030,EHLE,2023-05-27T00:55:00Z,52.45,5.52,7.0,5.0,60,7,,6.21,30.413385,,,TRUE,,,,,,,,CLR,,,,,,,,VFR,,,,,,,,,,,,METAR,-3.0
EHKV 270055Z AUTO 06010KT 9999 NSC 11/07 Q1031,EHKV,2023-05-27T00:55:00Z,53.27,3.63,11.0,7.0,60,10,,6.21,30.442913,,,TRUE,,,,,,,,CLR,,,,,,,,VFR,,,,,,,,,,,,METAR,28.0
EHJR 270055Z AUTO 07011KT //// // ///////// 11/07 Q1031 RE// W12/H8,EHJR,2023-05-27T00:55:00Z,53.22,3.22,11.0,7.0,70,11,,,30.442913,,,TRUE,,,,,,,,,,,,,,,,,,,,,,,,,,,,METAR,31.0
EHJA 270055Z AUTO 06007KT 030V140 9999 NSC 12/07 Q1031,EHJA,2023-05-27T00:55:00Z,53.82,2.95,12.0,7.0,60,7,,6.21,30.442913,,,TRUE,,,,,,,,CLR,,,,,,,,VFR,,,,,,,,,,,,METAR,34.0
EHHW 270055Z AUTO 04008KT 020V090 9999 SCT016/// 10/06 Q1031,EHHW,2023-05-27T00:55:00Z,54.03,6.03,10.0,6.0,40,8,,6.21,30.442913,,,TRUE,,,,,,,,SCT,1600,,,,,,,VFR,,,,,,,,,,,,METAR,10.0
EHGR 270055Z AUTO 04006KT 350V090 9999 NCD 08/05 Q1029 BLU,EHGR,2023-05-27T00:55:00Z,51.55,4.93,8.0,5.0,40,6,,6.21,30.383858,,,TRUE,,,,,,,,CLR,,,,,,,,VFR,,,,,,,,,,,,METAR,12.0
EHGG 270055Z AUTO 02001KT 9999 NCD 03/03 Q1030,EHGG,2023-05-27T00:55:00Z,53.12,6.57,3.0,3.0,20,1,,6.21,30.413385,,,TRUE,,,,,,,,CLR,,,,,,,,VFR,,,,,,,,,,,,METAR,2.0
EHFS 270055Z AUTO 04009KT 010V070 9999 NSC 10/08 Q1029,EHFS,2023-05-27T00:55:00Z,51.45,3.6,10.0,8.0,40,9,,6.21,30.383858,,,TRUE,,,,,,,,CLR,,,,,,,,VFR,,,,,,,,,,,,METAR,1.0
EHFD 270055Z AUTO 03004KT 320V080 9999 NSC 10/06 Q1031,EHFD,2023-05-27T00:55:00Z,54.85,4.7,10.0,6.0,30,4,,6.21,30.442913,,,TRUE,,,,,,,,CLR,,,,,,,,VFR,,,,,,,,,,,,METAR,24.0
EHEH 270055Z AUTO 03008KT 9999 NCD 09/05 Q1029 BLU,EHEH,2023-05-27T00:55:00Z,51.45,5.38,9.0,5.0,30,8,,6.21,30.383858,,,TRUE,,,,,,,,CLR,,,,,,,,VFR,,,,,,,,,,,,METAR,20.0
EHDV 270055Z AUTO VRB02KT 9999 NSC 11/// Q1031,EHDV,2023-05-27T00:55:00Z,54.32,2.93,,,0,2,,6.21,30.442913,,,TRUE,,,,,,,,CLR,,,,,,,,VFR,,0.0,,,,,,,,,,METAR,36.0
EHDL 270055Z AUTO 05008KT 350V100 9999 NCD 07/05 Q1029 BLU,EHDL,2023-05-27T00:55:00Z,52.07,5.88,7.0,5.0,50,8,,6.21,30.383858,,,TRUE,,,,,,,,CLR,,,,,,,,VFR,,,,,,,,,,,,METAR,49.0
EHBK 270055Z AUTO 04009KT 9999 FEW034 09/06 Q1027,EHBK,2023-05-27T00:55:00Z,50.92,5.77,9.0,6.0,40,9,,6.21,30.324802,,,TRUE,,,,,,,,FEW,3400,,,,,,,VFR,,,,,,,,,,,,METAR,112.0
EHAM 270055Z 08008KT 9999 FEW019 10/06 Q1030 NOSIG,EHAM,2023-05-27T00:55:00Z,52.32,4.78,10.0,6.0,80,8,,6.21,30.413385,,,,,,TRUE,,,,,FEW,1900,,,,,,,VFR,,,,,,,,,,,,METAR,-2.0
EHAK 270055Z AUTO 22003KT 200V260 9999 NCD 11/07 Q1031,EHAK,2023-05-27T00:55:00Z,55.38,3.82,11.0,7.0,220,3,,6.21,30.442913,,,TRUE,,,,,,,,CLR,,,,,,,,VFR,,,,,,,,,,,,METAR,33.0
EGUN 270055Z 01003KT 9999 CLR 06/06 A3043 RMK AO2A SLP308 T00620062 $,EGUN,2023-05-27T00:55:00Z,52.37,0.48,6.2,6.2,10,3,,6.21,30.431103,1030.8,,,TRUE,TRUE,,,,,,CLR,,,,,,,,VFR,,,,,,,,,,,,METAR,10.0
EBLB 270055Z AUTO 09003KT 9999 NCD 05/03 Q1027 BLU,EBLB,2023-05-27T00:55:00Z,50.47,6.17,5.0,3.0,90,3,,6.21,30.324802,,,TRUE,,,,,,,,CLR,,,,,,,,VFR,,,,,,,,,,,,METAR,563.0
EBFS 270055Z AUTO 04006KT 9999 BKN200/// 08/05 Q1026 BLU,EBFS,2023-05-27T00:55:00Z,50.23,4.65,8.0,5.0,40,6,,6.21,30.295275,,,TRUE,,,,,,,,BKN,20000,,,,,,,VFR,,,,,,,,,,,,METAR,276.0
EBFN 270055Z AUTO 06007KT 9999 NCD 10/07 Q1028 BLU,EBFN,2023-05-27T00:55:00Z,51.08,2.65,10.0,7.0,60,7,,6.21,30.35433,,,TRUE,,,,,,,,CLR,,,,,,,,VFR,,,,,,,,,,,,METAR,9.0
EBDT 270055Z AUTO 04007KT 9999 NCD 09/06 Q1028 BLU,EBDT,2023-05-27T00:55:00Z,51.02,5.07,9.0,6.0,40,7,,6.21,30.35433,,,TRUE,,,,,,,,CLR,,,,,,,,VFR,,,,,,,,,,,,METAR,25.0
EBCV 270055Z AUTO 04008KT 9999 FEW085/// BKN100/// OVC110/// 10/06 Q1027 BLU,EBCV,2023-05-27T00:55:00Z,50.57,3.82,10.0,6.0,40,8,,6.21,30.324802,,,TRUE,,,,,,,,FEW,8500,BKN,10000,OVC,11000,,,VFR,,,,,,,,,,,,METAR,56.0
EBBL 270055Z AUTO 05008KT 9999 NCD 09/06 Q1028 BLU,EBBL,2023-05-27T00:55:00Z,51.17,5.47,9.0,6.0,50,8,,6.21,30.35433,,,TRUE,,,,,,,,CLR,,,,,,,,VFR,,,,,,,,,,,,METAR,50.0
EBBE 270055Z AUTO 04007KT 9999 NCD 09/06 Q1027 BLU,EBBE,2023-05-27T00:55:00Z,50.75,4.77,9.0,6.0,40,7,,6.21,30.324802,,,TRUE,,,,,,,,CLR,,,,,,,,VFR,,,,,,,,,,,,METAR,127.0
PTYA 270054Z VRB06KT 11SM -RA SCT016CB BKN130 OVC300 28/27 A2970 RMK SHRAB05E26RAB26 CB NE-SE AND SW AND NW SLP057 T02840269,PTYA,2023-05-27T00:54:00Z,9.48,138.08,28.4,26.9,0,6,,11.0,29.698818,1005.7,,,,,,,,,-RA,SCT,1600,BKN,13000,OVC,30000,,,VFR,,,,,,,,,,,,METAR,4.0
PTTP 270054Z VRB02KT 15SM SCT018 OVC300 29/26 A2984 RMK SLP105 T02940256,PTTP,2023-05-27T00:54:00Z,6.97,158.22,29.4,25.6,0,2,,15.0,29.840551,1010.5,,,,,,,,,,SCT,1800,OVC,30000,,,,,VFR,,,,,,,,,,,,METAR,36.0
PHOG 270054Z 03019KT 10SM FEW040 SCT060 28/18 A3002 RMK AO2 SLP170 T02780178,PHOG,2023-05-27T00:54:00Z,20.9,-156.43,27.8,17.8,30,19,,10.0,30.02067,1017.0,,,TRUE,,,,,,,FEW,4000,SCT,6000,,,,,VFR,,,,,,,,,,,,METAR,14.0
PHMK 270054Z 02014G22KT 10SM CLR 27/19 A3002 RMK AO2 PK WND 03026/0011 SLP168 T02670189,PHMK,2023-05-27T00:54:00Z,21.15,-157.1,26.7,18.9,20,14,22,10.0,30.02067,1016.8,,,TRUE,,,,,,,CLR,,,,,,,,VFR,,,,,,,,,,,,METAR,135.0
PGSN 270054Z 11016G21KT 10SM FEW020 30/26 A2987 RMK T03000261,PGSN,2023-05-27T00:54:00Z,15.12,145.72,30.0,26.1,110,16,21,10.0,29.870079,,,,,,,,,,,FEW,2000,,,,,,,VFR,,,,,,,,,,,,SPECI,65.0
PALJ 270054Z 06004KT 30SM SCT050 BKN070 OVC120 11/07 A2944 RMK EST PASS OPEN NOSPECI,PALJ,2023-05-27T00:54:00Z,60.2,-154.3,11.0,7.0,60,4,,30.0,29.438976,,,,,,,,,,,SCT,5000,BKN,7000,OVC,12000,,,VFR,,,,,,,,,,,,METAR,88.0
PAHN 270054Z AUTO 11009G21KT BKN065 OVC080 10/05 A2996 RMK AO2 SLP149 T01000050 TSNO $,PAHN,2023-05-27T00:54:00Z,59.25,-135.52,10.0,5.0,110,9,21,,29.958662,1014.9,,TRUE,TRUE,TRUE,,TRUE,,,,BKN,6500,OVC,8000,,,,,,,,,,,,,,,,,METAR,15.0
KWLD 270054Z AUTO 10006KT 10SM CLR 26/14 A3008 RMK AO2 SLP175 T02610139,KWLD,2023-05-27T00:54:00Z,37.17,-97.03,26.1,13.9,100,6,,10.0,30.079725,1017.5,,TRUE,TRUE,,,,,,,CLR,,,,,,,,VFR,,,,,,,,,,,,METAR,351.0
KWAL 270054Z AUTO 07008KT 10SM CLR 14/07 A3026 RMK AO2 SLP243 T01440067,KWAL,2023-05-27T00:54:00Z,37.93,-75.47,14.4,6.7,70,8,,10.0,30.259842,1024.3,,TRUE,TRUE,,,,,,,CLR,,,,,,,,VFR,,,,,,,,,,,,METAR,10.0
KVTA 270054Z AUTO 03003KT 10SM CLR 19/02 A3022 RMK AO2 SLP229 T01940022,KVTA,2023-05-27T00:54:00Z,40.02,-82.47,19.4,2.2,30,3,,10.0,30.221457,1022.9,,TRUE,TRUE,,,,,,,CLR,,,,,,,,VFR,,,,,,,,,,,,METAR,268.0
KVSF 270054Z AUTO 00000KT 10SM CLR 13/03 A3026 RMK AO2 SLP250 T01330033,KVSF,2023-05-27T00:54:00Z,43.35,-72.52,13.3,3.3,0,0,,10.0,30.259842,1025.0,,TRUE,TRUE,,,,,,,CLR,,,,,,,,VFR,,,,,,,,,,,,METAR,176.0
KVAY 270054Z AUTO 00000KT 10SM CLR 16/03 A3026 RMK AO2 SLP246 T01610028,KVAY,2023-05-27T00:54:00Z,39.93,-74.83,16.1,2.8,0,0,,10.0,30.259842,1024.6,,TRUE,TRUE,,,,,,,CLR,,,,,,,,VFR,,,,,,,,,,,,METAR,15.0
KUZA 270054Z AUTO VRB05KT 10SM CLR 18/06 A3016 RMK AO2 SLP207 T01780061,KUZA,2023-05-27T00:54:00Z,34.98,-81.05,17.8,6.1,0,5,,10.0,30.159449,1020.7,,TRUE,TRUE,,,,,,,CLR,,,,,,,,VFR,,,,,,,,,,,,METAR,198.0
KUIN 270054Z AUTO 06003KT 10SM CLR 22/00 A3019 RMK AO2 SLP220 T02220000,KUIN,2023-05-27T00:54:00Z,39.95,-91.2,22.2,0.0,60,3,,10.0,30.188976,1022.0,,TRUE,TRUE,,,,,,,CLR,,,,,,,,VFR,,,,,,,,,,,,METAR,233.0
KTQE 270054Z AUTO 12011KT 10SM CLR 26/01 A3012 RMK AO2 SLP191 T02560011,KTQE,2023-05-27T00:54:00Z,41.77,-96.18,25.6,1.1,120,11,,10.0,30.121063,1019.1,,TRUE,TRUE,,,,,,,CLR,,,,,,,,VFR,,,,,,,,,,,,METAR,312.0
KTAD 270054Z AUTO 17012G20KT 10SM CLR 22/06 A2999 RMK AO2 LTG DSNT E-S SLP089 T02170056,KTAD,2023-05-27T00:54:00Z,37.27,-104.33,21.7,5.6,170,12,20,10.0,29.991142,1008.9,,TRUE,TRUE,,,,,,,CLR,,,,,,,,VFR,,,,,,,,,,,,METAR,1751.0
KSYR 270054Z 36003KT 10SM FEW200 FEW280 15/02 A3029 RMK AO2 SLP253 T01500017,KSYR,2023-05-27T00:54:00Z,43.12,-76.1,15.0,1.7,360,3,,10.0,30.28937,1025.3,,,TRUE,,,,,,,FEW,20000,FEW,28000,,,,,VFR,,,,,,,,,,,,METAR,125.0
KSUS 270054Z 06004KT 10SM CLR 20/04 A3015 RMK AO2 SLP207 T02000044,KSUS,2023-05-27T00:54:00Z,38.65,-90.65,20.0,4.4,60,4,,10.0,30.15059,1020.7,,,TRUE,,,,,,,CLR,,,,,,,,VFR,,,,,,,,,,,,METAR,140.0
KSLC 270054Z 14009G19KT 10SM FEW055 SCT085 BKN120 21/05 A2988 RMK AO2 RAE21 SLP077 CB DSNT SE-SW SH SW P0000 T02110050,KSLC,2023-05-27T00:54:00Z,40.77,-111.97,21.1,5.0,140,9,19,10.0,29.878937,1007.7,,,TRUE,,,,,,,FEW,5500,SCT,8500,BKN,12000,,,VFR,,,,,,0.005,,,,,,METAR,1286.0
KSET 270054Z AUTO 06003KT 10SM CLR 22/03 A3015 RMK AO2 SLP207 T02220033 $,KSET,2023-05-27T00:54:00Z,38.93,-90.43,22.2,3.3,60,3,,10.0,30.15059,1020.7,,TRUE,TRUE,TRUE,,,,,,CLR,,,,,,,,VFR,,,,,,,,,,,,METAR,133.0
KSBY 270054Z 09003KT 10SM CLR 14/07 A3026 RMK AO2 SLP248 T01440067,KSBY,2023-05-27T00:54:00Z,38.33,-75.5,14.4,6.7,90,3,,10.0,30.259842,1024.8,,,TRUE,,,,,,,CLR,,,,,,,,VFR,,,,,,,,,,,,METAR,14.0
KSBN 270054Z 36008KT 10SM CLR 17/02 A3027 RMK AO2 SLP251 T01720022,KSBN,2023-05-27T00:54:00Z,41.7,-86.32,17.2,2.2,360,8,,10.0,30.268702,1025.1,,,TRUE,,,,,,,CLR,,,,,,,,VFR,,,,,,,,,,,,METAR,236.0
KSBD 270054Z 27010G20KT 6SM HZ CLR 19/07 A2993,KSBD,2023-05-27T00:54:00Z,34.08,-117.25,19.0,7.0,270,10,20,6.0,29.929134,,,,,,,,,,HZ,CLR,,,,,,,,VFR,,,,,,,,,,,,METAR,353.0
KRST 270054Z 13008KT 10SM CLR 20/01 A3024 RMK AO2 SLP242 T02000011,KRST,2023-05-27T00:54:00Z,43.9,-92.5,20.0,1.1,130,8,,10.0,30.239174,1024.2,,,TRUE,,,,,,,CLR,,,,,,,,VFR,,,,,,,,,,,,METAR,398.0
KRSP 270054Z AUTO VRB03KT 10SM CLR 16/01 A3027 RMK AO2 SLP252 T01610011 $,KRSP,2023-05-27T00:54:00Z,39.65,-77.47,16.1,1.1,0,3,,10.0,30.268702,1025.2,,TRUE,TRUE,TRUE,,,,,,CLR,,,,,,,,VFR,,,,,,,,,,,,METAR,555.0
KROC 270054Z 00000KT 10SM CLR 15/04 A3030 RMK AO2 SLP265 T01500039,KROC,2023-05-27T00:54:00Z,43.12,-77.68,15.0,3.9,0,0,,10.0,30.301182,1026.5,,,TRUE,,,,,,,CLR,,,,,,,,VFR,,,,,,,,,,,,METAR,166.0
KROA 270054Z VRB03KT 10SM CLR 18/06 A3025 RMK AO2 SLP236 T01830061,KROA,2023-05-27T00:54:00Z,37.32,-79.97,18.3,6.1,0,3,,10.0,30.250984,1023.6,,,TRUE,,,,,,,CLR,,,,,,,,VFR,,,,,,,,,,,,METAR,349.0
KRKS 270054Z AUTO 23011KT 10SM CLR 12/03 A3000 RMK AO2 SLP113 T01220033,KRKS,2023-05-27T00:54:00Z,41.6,-109.07,12.2,3.3,230,11,,10.0,30.0,1011.3,,TRUE,TRUE,,,,,,,CLR,,,,,,,,VFR,,,,,,,,,,,,METAR,2062.0
KRIC 270054Z 10006KT 10SM BKN300 16/08 A3024 RMK AO2 SLP244 T01610078,KRIC,2023-05-27T00:54:00Z,37.52,-77.32,16.1,7.8,100,6,,10.0,30.239174,1024.4,,,TRUE,,,,,,,BKN,30000,,,,,,,VFR,,,,,,,,,,,,METAR,51.0
KRFD 270054Z 06004KT 10SM SCT250 19/M03 A3028 RMK AO2 SLP252 T01941033,KRFD,2023-05-27T00:54:00Z,42.2,-89.1,19.4,-3.3,60,4,,10.0,30.280512,1025.2,,,TRUE,,,,,,,SCT,25000,,,,,,,VFR,,,,,,,,,,,,METAR,222.0
KRDG 270054Z 00000KT 10SM CLR 20/02 A3023 RMK AO2 SLP242 T02000017,KRDG,2023-05-27T00:54:00Z,40.37,-75.97,20.0,1.7,0,0,,10.0,30.230314,1024.2,,,TRUE,,,,,,,CLR,,,,,,,,VFR,,,,,,,,,,,,METAR,101.0
KRBL 270054Z AUTO 16011KT 10SM CLR 27/12 A2980 RMK AO2 SLP089 T02720122,KRBL,2023-05-27T00:54:00Z,40.15,-122.25,27.2,12.2,160,11,,10.0,29.799213,1008.9,,TRUE,TRUE,,,,,,,CLR,,,,,,,,VFR,,,,,,,,,,,,METAR,107.0
KPTW 270054Z AUTO 00000KT 10SM CLR 16/06 A3026 RMK AO2 SLP244 T01560056,KPTW,2023-05-27T00:54:00Z,40.23,-75.55,15.6,5.6,0,0,,10.0,30.259842,1024.4,,TRUE,TRUE,,,,,,,CLR,,,,,,,,VFR,,,,,,,,,,,,METAR,88.0
KPSF 270054Z AUTO 00000KT 10SM CLR 12/06 A3025 RMK AO2 SLP233 T01170061,KPSF,2023-05-27T00:54:00Z,42.43,-73.28,11.7,6.1,0,0,,10.0,30.250984,1023.3,,TRUE,TRUE,,,,,,,CLR,,,,,,,,VFR,,,,,,,,,,,,METAR,352.0
KPNE 270054Z 16005KT 10SM CLR 18/03 A3027 RMK AO2 SLP249 T01830028,KPNE,2023-05-27T00:54:00Z,40.08,-75.02,18.3,2.8,160,5,,10.0,30.268702,1024.9,,,TRUE,,,,,,,CLR,,,,,,,,VFR,,,,,,,,,,,,METAR,32.0
KPLN 270054Z AUTO 01003KT 10SM CLR 17/01 A3031 RMK AO2 SLP266 T01670006,KPLN,2023-05-27T00:54:00Z,45.57,-84.8,16.7,0.6,10,3,,10.0,30.31004,1026.6,,TRUE,TRUE,,,,,,,CLR,,,,,,,,VFR,,,,,,,,,,,,METAR,215.0
KPIA 270054Z 10004KT 10SM CLR 22/M01 A3021 RMK AO2 SLP227 T02221011,KPIA,2023-05-27T00:54:00Z,40.67,-89.68,22.2,-1.1,100,4,,10.0,30.209646,1022.7,,,TRUE,,,,,,,CLR,,,,,,,,VFR,,,,,,,,,,,,METAR,200.0
KPHL 270054Z 17007KT 10SM SCT250 18/03 A3026 RMK AO2 SLP246 T01780033,KPHL,2023-05-27T00:54:00Z,39.87,-75.23,17.8,3.3,170,7,,10.0,30.259842,1024.6,,,TRUE,,,,,,,SCT,25000,,,,,,,VFR,,,,,,,,,,,,METAR,2.0
KPHF 270054Z 07010KT 10SM CLR 16/06 A3023 RMK AO2 SLP236 T01560056,KPHF,2023-05-27T00:54:00Z,37.13,-76.5,15.6,5.6,70,10,,10.0,30.230314,1023.6,,,TRUE,,,,,,,CLR,,,,,,,,VFR,,,,,,,,,,,,METAR,12.0
KORH 270054Z 07004KT 10SM CLR 16/03 A3025 RMK AO2 SLP244 T01560028,KORH,2023-05-27T00:54:00Z,42.27,-71.87,15.6,2.8,70,4,,10.0,30.250984,1024.4,,,TRUE,,,,,,,CLR,,,,,,,,VFR,,,,,,,,,,,,METAR,306.0
KOLS 270054Z AUTO 23011G20KT 10SM CLR 29/M04 A2993 RMK AO2 SLP076 T02941039,KOLS,2023-05-27T00:54:00Z,31.42,-110.85,29.4,-3.9,230,11,20,10.0,29.929134,1007.6,,TRUE,TRUE,,,,,,,CLR,,,,,,,,VFR,,,,,,,,,,,,METAR,1194.0
KOLM 270054Z 28011KT 10SM CLR 26/09 A2986 RMK AO2 SLP110 T02610094,KOLM,2023-05-27T00:54:00Z,46.97,-122.9,26.1,9.4,280,11,,10.0,29.861221,1011.0,,,TRUE,,,,,,,CLR,,,,,,,,VFR,,,,,,,,,,,,METAR,58.0
KOFP 270054Z AUTO 10003KT 10SM CLR 17/08 A3025 RMK AO2 SLP243 T01670078,KOFP,2023-05-27T00:54:00Z,37.7,-77.43,16.7,7.8,100,3,,10.0,30.250984,1024.3,,TRUE,TRUE,,,,,,,CLR,,,,,,,,VFR,,,,,,,,,,,,METAR,63.0
KNY0 270054Z AUTO 02004KT 10SM CLR 15/02 A3025 RMK AO2,KNY0,2023-05-27T00:54:00Z,42.98,-74.33,15.0,2.0,20,4,,10.0,30.250984,,,TRUE,TRUE,,,,,,,CLR,,,,,,,,VFR,,,,,,,,,,,,SPECI,266.0
KNAK 270054Z AUTO 10007KT 10SM CLR 20/11 A3024 RMK AO2 SLP241 T02000106 $,KNAK,2023-05-27T00:54:00Z,38.98,-76.48,20.0,10.6,100,7,,10.0,30.239174,1024.1,,TRUE,TRUE,TRUE,,,,,,CLR,,,,,,,,VFR,,,,,,,,,,,,METAR,2.0
KMWN 270054Z 31025KT 80SM FEW060 FEW100 SCT200 01/M04 RMK,KMWN,2023-05-27T00:54:00Z,44.27,-71.3,1.0,-4.0,310,25,,80.0,,,,,,,,,,,,FEW,6000,FEW,10000,SCT,20000,,,VFR,,,,,,,,,,,,METAR,1911.0
KMVL 270054Z AUTO 20003KT 10SM CLR 09/05 A3026 RMK AO2 SLP252 T00890050,KMVL,2023-05-27T00:54:00Z,44.53,-72.62,8.9,5.0,200,3,,10.0,30.259842,1025.2,,TRUE,TRUE,,,,,,,CLR,,,,,,,,VFR,,,,,,,,,,,,METAR,226.0
KMTP 270054Z AUTO VRB03KT 14/10 A3027 RMK AO1 SLP250 T01440100,KMTP,2023-05-27T00:54:00Z,41.07,-71.92,14.4,10.0,0,3,,,30.268702,1025.0,,TRUE,TRUE,,,,,,,,,,,,,,,,,,,,,,,,,,,METAR,2.0
KMRY 270054Z 28008KT 10SM OVC017 14/09 A2998 RMK AO2 SLP162 T01440094,KMRY,2023-05-27T00:54:00Z,36.58,-121.85,14.4,9.4,280,8,,10.0,29.97933,1016.2,,,TRUE,,,,,,,OVC,1700,,,,,,,MVFR,,,,,,,,,,,,METAR,51.0
KMNE 270054Z AUTO 00000KT 10SM CLR 26/17 A3001 RMK AO2,KMNE,2023-05-27T00:54:00Z,32.65,-93.3,26.0,17.0,0,0,,10.0,30.008858,,,TRUE,TRUE,,,,,,,CLR,,,,,,,,VFR,,,,,,,,,,,,METAR,84.0
KMKC 270054Z 08010KT 10SM CLR 24/01 A3014 RMK AO2 SLP199 T02440011,KMKC,2023-05-27T00:54:00Z,39.12,-94.6,24.4,1.1,80,10,,10.0,30.138779,1019.9,,,TRUE,,,,,,,CLR,,,,,,,,VFR,,,,,,,,,,,,METAR,228.0
KMIV 270054Z AUTO 00000KT 10SM CLR 12/04 A3027 RMK AO2 SLP248 T01170044,KMIV,2023-05-27T00:54:00Z,39.37,-75.08,11.7,4.4,0,0,,10.0,30.268702,1024.8,,TRUE,TRUE,,,,,,,CLR,,,,,,,,VFR,,,,,,,,,,,,METAR,18.0
KMGJ 270054Z AUTO 00000KT 10SM CLR 13/06 A3024 RMK AO2 SLP240 T01280061,KMGJ,2023-05-27T00:54:00Z,41.52,-74.27,12.8,6.1,0,0,,10.0,30.239174,1024.0,,TRUE,TRUE,,,,,,,CLR,,,,,,,,VFR,,,,,,,,,,,,METAR,106.0
KMFI 270054Z AUTO 16003KT 10SM CLR 21/02 A3027 RMK AO2 SLP252 T02110017,KMFI,2023-05-27T00:54:00Z,44.63,-90.18,21.1,1.7,160,3,,10.0,30.268702,1025.2,,TRUE,TRUE,,,,,,,CLR,,,,,,,,VFR,,,,,,,,,,,,METAR,383.0
KMEM 270054Z 05010KT 10SM CLR 24/08 A3007 RMK AO2 SLP178 T02440078 $,KMEM,2023-05-27T00:54:00Z,35.07,-89.98,24.4,7.8,50,10,,10.0,30.070866,1017.8,,,TRUE,TRUE,,,,,,CLR,,,,,,,,VFR,,,,,,,,,,,,METAR,78.0
KLYH 270054Z 06004KT 10SM CLR 17/07 A3023 RMK AO2 SLP234 T01670067 $,KLYH,2023-05-27T00:54:00Z,37.32,-79.2,16.7,6.7,60,4,,10.0,30.230314,1023.4,,,TRUE,TRUE,,,,,,CLR,,,,,,,,VFR,,,,,,,,,,,,METAR,282.0
KLWT 270054Z AUTO 07009KT 10SM SCT027 BKN034 OVC050 17/11 A2995 RMK AO2 SLP120 T01720111,KLWT,2023-05-27T00:54:00Z,47.05,-109.47,17.2,11.1,70,9,,10.0,29.949802,1012.0,,TRUE,TRUE,,,,,,,SCT,2700,BKN,3400,OVC,5000,,,VFR,,,,,,,,,,,,METAR,1254.0
KLWM 270054Z 00000KT 10SM CLR 12/05 A3027 RMK AO2 SLP249 T01220050,KLWM,2023-05-27T00:54:00Z,42.72,-71.13,12.2,5.0,0,0,,10.0,30.268702,1024.9,,,TRUE,,,,,,,CLR,,,,,,,,VFR,,,,,,,,,,,,METAR,42.0
KLNK 270054Z 13012KT 10SM CLR 26/03 A3012 RMK AO2 SLP190 T02560028,KLNK,2023-05-27T00:54:00Z,40.85,-96.77,25.6,2.8,130,12,,10.0,30.121063,1019.0,,,TRUE,,,,,,,CLR,,,,,,,,VFR,,,,,,,,,,,,METAR,357.0
KLEX 270054Z 05008KT 10SM CLR 19/09 A3015 RMK AO2 SLP206 T01940094,KLEX,2023-05-27T00:54:00Z,38.03,-84.6,19.4,9.4,50,8,,10.0,30.15059,1020.6,,,TRUE,,,,,,,CLR,,,,,,,,VFR,,,,,,,,,,,,METAR,294.0
KLAF 270054Z AUTO 06008KT 10SM CLR 21/M01 A3021 RMK AO2 SLP228 T02111006,KLAF,2023-05-27T00:54:00Z,40.42,-86.93,21.1,-0.6,60,8,,10.0,30.209646,1022.8,,TRUE,TRUE,,,,,,,CLR,,,,,,,,VFR,,,,,,,,,,,,METAR,182.0
KJST 270054Z AUTO 11003KT 10SM CLR 14/M01 A3027 RMK AO2 SLP253 T01441006,KJST,2023-05-27T00:54:00Z,40.32,-78.83,14.4,-0.6,110,3,,10.0,30.268702,1025.3,,TRUE,TRUE,,,,,,,CLR,,,,,,,,VFR,,,,,,,,,,,,METAR,695.0
KJAN 270054Z 07004KT 10SM CLR 24/17 A2999 RMK AO2 SLP150 T02440167,KJAN,2023-05-27T00:54:00Z,32.32,-90.08,24.4,16.7,70,4,,10.0,29.991142,1015.0,,,TRUE,,,,,,,CLR,,,,,,,,VFR,,,,,,,,,,,,METAR,92.0
KIZG 270054Z AUTO 30005KT 10SM CLR 11/06 A3024 RMK AO2 SLP243 T01110061,KIZG,2023-05-27T00:54:00Z,43.98,-70.95,11.1,6.1,300,5,,10.0,30.239174,1024.3,,TRUE,TRUE,,,,,,,CLR,,,,,,,,VFR,,,,,,,,,,,,METAR,138.0
KISW 270054Z AUTO 15003KT 10SM CLR 21/02 A3028 RMK AO2 SLP253 T02110017,KISW,2023-05-27T00:54:00Z,44.37,-89.83,21.1,1.7,150,3,,10.0,30.280512,1025.3,,TRUE,TRUE,,,,,,,CLR,,,,,,,,VFR,,,,,,,,,,,,METAR,311.0
KIPT 270054Z 00000KT 10SM CLR 16/04 A3025 RMK AO2 SLP243 T01610044,KIPT,2023-05-27T00:54:00Z,41.25,-76.92,16.1,4.4,0,0,,10.0,30.250984,1024.3,,,TRUE,,,,,,,CLR,,,,,,,,VFR,,,,,,,,,,,,METAR,160.0
KINT 270054Z AUTO 07006KT 10SM CLR 17/07 A3021 RMK AO2 SLP226 T01720067,KINT,2023-05-27T00:54:00Z,36.13,-80.22,17.2,6.7,70,6,,10.0,30.209646,1022.6,,TRUE,TRUE,,,,,,,CLR,,,,,,,,VFR,,,,,,,,,,,,METAR,292.0
KINL 270054Z AUTO 20004KT 10SM CLR 26/08 A3012 RMK AO2 SLP200 T02560083,KINL,2023-05-27T00:54:00Z,48.57,-93.4,25.6,8.3,200,4,,10.0,30.121063,1020.0,,TRUE,TRUE,,,,,,,CLR,,,,,,,,VFR,,,,,,,,,,,,METAR,353.0
KIND 270054Z 06010KT 10SM FEW250 22/00 A3018 RMK AO2 SLP217 T02170000,KIND,2023-05-27T00:54:00Z,39.72,-86.27,21.7,0.0,60,10,,10.0,30.180119,1021.7,,,TRUE,,,,,,,FEW,25000,,,,,,,VFR,,,,,,,,,,,,METAR,242.0
KIMT 270054Z AUTO 14008G15KT 10SM CLR 21/01 A3026 RMK AO2 SLP250 T02060011,KIMT,2023-05-27T00:54:00Z,45.82,-88.12,20.6,1.1,140,8,15,10.0,30.259842,1025.0,,TRUE,TRUE,,,,,,,CLR,,,,,,,,VFR,,,,,,,,,,,,METAR,343.0
KILN 270054Z AUTO 07004KT 10SM CLR 19/03 A3020 RMK AO2 SLP227 T01940028,KILN,2023-05-27T00:54:00Z,39.43,-83.8,19.4,2.8,70,4,,10.0,30.200787,1022.7,,TRUE,TRUE,,,,,,,CLR,,,,,,,,VFR,,,,,,,,,,,,METAR,325.0
KHWD 270054Z 29013KT 10SM FEW027 16/10 A2995 RMK AO2 SLP150 T01610100,KHWD,2023-05-27T00:54:00Z,37.67,-122.12,16.1,10.0,290,13,,10.0,29.949802,1015.0,,,TRUE,,,,,,,FEW,2700,,,,,,,VFR,,,,,,,,,,,,METAR,9.0
KGSO 270054Z 07008KT 10SM OVC250 16/07 A3020 RMK AO2 SLP221 T01610072,KGSO,2023-05-27T00:54:00Z,36.1,-79.95,16.1,7.2,70,8,,10.0,30.200787,1022.1,,,TRUE,,,,,,,OVC,25000,,,,,,,VFR,,,,,,,,,,,,METAR,275.0
KGED 270054Z AUTO 12003KT 10SM CLR 15/06 A3026 RMK AO2 SLP247 T01500061,KGED,2023-05-27T00:54:00Z,38.68,-75.37,15.0,6.1,120,3,,10.0,30.259842,1024.7,,TRUE,TRUE,,,,,,,CLR,,,,,,,,VFR,,,,,,,,,,,,METAR,15.0
KGCN 270054Z 22016G25KT 10SM CLR 21/M06 A2999 RMK AO2 SLP091 T02061056,KGCN,2023-05-27T00:54:00Z,35.95,-112.15,20.6,-5.6,220,16,25,10.0,29.991142,1009.1,,,TRUE,,,,,,,CLR,,,,,,,,VFR,,,,,,,,,,,,METAR,1993.0
KGCK 270054Z 17010KT 10SM CLR 21/13 A3006 RMK AO2 SLP156 T02060128,KGCK,2023-05-27T00:54:00Z,37.92,-100.72,20.6,12.8,170,10,,10.0,30.059055,1015.6,,,TRUE,,,,,,,CLR,,,,,,,,VFR,,,,,,,,,,,,METAR,877.0
KFZY 270054Z AUTO 00000KT 10SM CLR 12/04 A3029 RMK AO2 SLP259 T01170039,KFZY,2023-05-27T00:54:00Z,43.35,-76.38,11.7,3.9,0,0,,10.0,30.28937,1025.9,,TRUE,TRUE,,,,,,,CLR,,,,,,,,VFR,,,,,,,,,,,,METAR,143.0
KFWA 270054Z 08009KT 10SM FEW250 17/M03 A3027 RMK AO2 SLP249 T01671028,KFWA,2023-05-27T00:54:00Z,40.98,-85.2,16.7,-2.8,80,9,,10.0,30.268702,1024.9,,,TRUE,,,,,,,FEW,25000,,,,,,,VFR,,,,,,,,,,,,METAR,243.0
KFIG 270054Z AUTO 36004KT 10SM CLR 14/02 A3027 RMK AO2 SLP253 T01440022,KFIG,2023-05-27T00:54:00Z,41.05,-78.42,14.4,2.2,360,4,,10.0,30.268702,1025.3,,TRUE,TRUE,,,,,,,CLR,,,,,,,,VFR,,,,,,,,,,,,METAR,461.0
KFFZ 270054Z AUTO 28010KT 10SM CLR 33/M01 A2973 RMK AO2 SLP042 T03331006,KFFZ,2023-05-27T00:54:00Z,33.47,-111.72,33.3,-0.6,280,10,,10.0,29.731298,1004.2,,TRUE,TRUE,,,,,,,CLR,,,,,,,,VFR,,,,,,,,,,,,METAR,420.0
KEWN 270054Z 05016G21KT 10SM BKN041 OVC047 17/09 A3013 RMK AO2 SLP202 T01670094,KEWN,2023-05-27T00:54:00Z,35.07,-77.05,16.7,9.4,50,16,21,10.0,30.129921,1020.2,,,TRUE,,,,,,,BKN,4100,OVC,4700,,,,,VFR,,,,,,,,,,,,METAR,3.0
KEVV 270054Z 04005KT 10SM CLR 21/09 A3014 RMK AO2 SLP203 T02110089 $,KEVV,2023-05-27T00:54:00Z,38.05,-87.52,21.1,8.9,40,5,,10.0,30.138779,1020.3,,,TRUE,TRUE,,,,,,CLR,,,,,,,,VFR,,,,,,,,,,,,METAR,123.0
KEFD 270054Z 06004KT 10SM CLR 28/14 A2993,KEFD,2023-05-27T00:54:00Z,29.6,-95.17,28.0,14.0,60,4,,10.0,29.929134,,,,,,,,,,,CLR,,,,,,,,VFR,,,,,,,,,,,,METAR,9.0
KECG 270054Z 03015KT 10SM CLR 16/10 A3019 RMK AO2 SLP222 T01610100,KECG,2023-05-27T00:54:00Z,36.27,-76.18,16.1,10.0,30,15,,10.0,30.188976,1022.2,,,TRUE,,,,,,,CLR,,,,,,,,VFR,,,,,,,,,,,,METAR,2.0
KDYL 270054Z AUTO 00000KT 10SM CLR 16/06 A3024 RMK AO2 SLP239 T01560056,KDYL,2023-05-27T00:54:00Z,40.33,-75.12,15.6,5.6,0,0,,10.0,30.239174,1023.9,,TRUE,TRUE,,,,,,,CLR,,,,,,,,VFR,,,,,,,,,,,,METAR,121.0
KDSV 270054Z AUTO 29004KT 10SM CLR 16/01 A3031 RMK AO2 SLP274 T01560011,KDSV,2023-05-27T00:54:00Z,42.57,-77.72,15.6,1.1,290,4,,10.0,30.31004,1027.4,,TRUE,TRUE,,,,,,,CLR,,,,,,,,VFR,,,,,,,,,,,,METAR,195.0
KDSM 270054Z 11008KT 10SM FEW250 23/00 A3020 RMK AO2 SLP225 T02280000,KDSM,2023-05-27T00:54:00Z,41.53,-93.67,22.8,0.0,110,8,,10.0,30.200787,1022.5,,,TRUE,,,,,,,FEW,25000,,,,,,,VFR,,,,,,,,,,,,METAR,286.0
KDMH 270054Z AUTO 22/04 A3024 RMK AO1 SLP240 T02170039,KDMH,2023-05-27T00:54:00Z,39.28,-76.62,21.7,3.9,,,,,30.239174,1024.0,,TRUE,TRUE,,,,,,,,,,,,,,,,,,,,,,,,,,,METAR,4.0
KDEC 270054Z 05009KT 10SM CLR 21/03 A3018 RMK AO2 SLP219 T02110028,KDEC,2023-05-27T00:54:00Z,39.83,-88.87,21.1,2.8,50,9,,10.0,30.180119,1021.9,,,TRUE,,,,,,,CLR,,,,,,,,VFR,,,,,,,,,,,,METAR,205.0
KDDH 270054Z AUTO 16003KT 10SM CLR 11/07 A3025 RMK AO2 SLP246 T01110067 $,KDDH,2023-05-27T00:54:00Z,42.9,-73.25,11.1,6.7,160,3,,10.0,30.250984,1024.6,,TRUE,TRUE,TRUE,,,,,,CLR,,,,,,,,VFR,,,,,,,,,,,,METAR,241.0
KCRW 270054Z 05003KT 10SM FEW200 19/07 A3017 RMK AO2 SLP212 T01940072,KCRW,2023-05-27T00:54:00Z,38.38,-81.58,19.4,7.2,50,3,,10.0,30.171259,1021.2,,,TRUE,,,,,,,FEW,20000,,,,,,,VFR,,,,,,,,,,,,METAR,278.0
KCOU 270054Z 10003KT 10SM CLR 21/06 A3018 RMK AO2 SLP215 T02110056,KCOU,2023-05-27T00:54:00Z,38.82,-92.22,21.1,5.6,100,3,,10.0,30.180119,1021.5,,,TRUE,,,,,,,CLR,,,,,,,,VFR,,,,,,,,,,,,METAR,272.0
KCOS 270054Z 08010KT 10SM FEW080 SCT140 BKN250 16/08 A3008 RMK AO2 SLP134 T01560078 $,KCOS,2023-05-27T00:54:00Z,38.82,-104.68,15.6,7.8,80,10,,10.0,30.079725,1013.4,,,TRUE,TRUE,,,,,,FEW,8000,SCT,14000,BKN,25000,,,VFR,,,,,,,,,,,,METAR,1886.0
KCEU 270054Z AUTO 08007KT 10SM FEW090 19/07 A3014 RMK AO2 SLP199 T01940072,KCEU,2023-05-27T00:54:00Z,34.67,-82.88,19.4,7.2,80,7,,10.0,30.138779,1019.9,,TRUE,TRUE,,,,,,,FEW,9000,,,,,,,VFR,,,,,,,,,,,,METAR,270.0
KCAR 270054Z AUTO 19006KT 10SM CLR 12/07 A3009 RMK AO2 SLP194 T01220067,KCAR,2023-05-27T00:54:00Z,46.87,-68.02,12.2,6.7,190,6,,10.0,30.088583,1019.4,,TRUE,TRUE,,,,,,,CLR,,,,,,,,VFR,,,,,,,,,,,,METAR,189.0
KBWI 270054Z 00000KT 10SM FEW050 FEW100 FEW250 19/05 A3023 RMK AO2 SLP236 T01890050,KBWI,2023-05-27T00:54:00Z,39.17,-76.68,18.9,5.0,0,0,,10.0,30.230314,1023.6,,,TRUE,,,,,,,FEW,5000,FEW,10000,FEW,25000,,,VFR,,,,,,,,,,,,METAR,42.0
KBUY 270054Z AUTO 06005KT 10SM CLR 17/08 A3020 RMK AO2 SLP223 T01670078,KBUY,2023-05-27T00:54:00Z,36.05,-79.47,16.7,7.8,60,5,,10.0,30.200787,1022.3,,TRUE,TRUE,,,,,,,CLR,,,,,,,,VFR,,,,,,,,,,,,METAR,185.0
KBUF 270054Z 00000KT 10SM FEW160 FEW270 18/M01 A3031 RMK AO2 SLP264 T01781006,KBUF,2023-05-27T00:54:00Z,42.93,-78.73,17.8,-0.6,0,0,,10.0,30.31004,1026.4,,,TRUE,,,,,,,FEW,16000,FEW,27000,,,,,VFR,,,,,,,,,,,,METAR,217.0
KBTV 270054Z 21003KT 10SM CLR 16/04 A3025 RMK AO2 SLP243 T01560039,KBTV,2023-05-27T00:54:00Z,44.47,-73.15,15.6,3.9,210,3,,10.0,30.250984,1024.3,,,TRUE,,,,,,,CLR,,,,,,,,VFR,,,,,,,,,,,,METAR,101.0
KBOS 270054Z 13006KT 10SM CLR 14/08 A3026 RMK AO2 SLP245 T01390083,KBOS,2023-05-27T00:54:00Z,42.37,-71.02,13.9,8.3,130,6,,10.0,30.259842,1024.5,,,TRUE,,,,,,,CLR,,,,,,,,VFR,,,,,,,,,,,,METAR,4.0
KBFL 270054Z 31010KT 7SM CLR 26/11 A2984 RMK AO2 SLP100 T02610111,KBFL,2023-05-27T00:54:00Z,35.43,-119.05,26.1,11.1,310,10,,7.0,29.840551,1010.0,,,TRUE,,,,,,,CLR,,,,,,,,VFR,,,,,,,,,,,,METAR,146.0
KAVP 270054Z 10003KT 10SM CLR 15/03 A3026 RMK AO2 SLP246 T01500033,KAVP,2023-05-27T00:54:00Z,41.33,-75.72,15.0,3.3,100,3,,10.0,30.259842,1024.6,,,TRUE,,,,,,,CLR,,,,,,,,VFR,,,,,,,,,,,,METAR,290.0
KAVL 270054Z VRB03KT 10SM OVC050 18/07 A3019 RMK AO2 SLP207 T01780072 $,KAVL,2023-05-27T00:54:00Z,35.43,-82.53,17.8,7.2,0,3,,10.0,30.188976,1020.7,,,TRUE,TRUE,,,,,,OVC,5000,,,,,,,VFR,,,,,,,,,,,,METAR,646.0
KAUW 270054Z AUTO 17003KT 10SM CLR 22/03 A3026 RMK AO2 SLP251 T02170028,KAUW,2023-05-27T00:54:00Z,44.93,-89.62,21.7,2.8,170,3,,10.0,30.259842,1025.1,,TRUE,TRUE,,,,,,,CLR,,,,,,,,VFR,,,,,,,,,,,,METAR,367.0
KAPN 270054Z AUTO 11004KT 10SM CLR 14/01 A3032 RMK AO2 SLP271 T01390011,KAPN,2023-05-27T00:54:00Z,45.07,-83.57,13.9,1.1,110,4,,10.0,30.318897,1027.1,,TRUE,TRUE,,,,,,,CLR,,,,,,,,VFR,,,,,,,,,,,,METAR,208.0
KAPC 270054Z 27014KT 10SM CLR 18/11 A2992 RMK AO2 SLP123 T01780111,KAPC,2023-05-27T00:54:00Z,38.2,-122.28,17.8,11.1,270,14,,10.0,29.920275,1012.3,,,TRUE,,,,,,,CLR,,,,,,,,VFR,,,,,,,,,,,,METAR,5.0
KALO 270054Z AUTO 12007KT 10SM CLR 22/M01 A3022 RMK AO2 SLP233 T02171006,KALO,2023-05-27T00:54:00Z,42.55,-92.4,21.7,-0.6,120,7,,10.0,30.221457,1023.3,,TRUE,TRUE,,,,,,,CLR,,,,,,,,VFR,,,,,,,,,,,,METAR,264.0
KAKR 270054Z AUTO 05008KT 10SM CLR 18/M02 A3027 RMK AO2 SLP247 T01831017 $,KAKR,2023-05-27T00:54:00Z,41.03,-81.47,18.3,-1.7,50,8,,10.0,30.268702,1024.7,,TRUE,TRUE,TRUE,,,,,,CLR,,,,,,,,VFR,,,,,,,,,,,,METAR,319.0
KAKQ 270054Z AUTO VRB03KT 10SM CLR 15/06 A3023 RMK AO2 SLP238 T01500056,KAKQ,2023-05-27T00:54:00Z,36.98,-77.0,15.0,5.6,0,3,,10.0,30.230314,1023.8,,TRUE,TRUE,,,,,,,CLR,,,,,,,,VFR,,,,,,,,,,,,METAR,34.0
KAKH 270054Z AUTO 05008KT 10SM CLR 17/06 A3016 RMK AO2 SLP211 T01720056,KAKH,2023-05-27T00:54:00Z,35.2,-81.15,17.2,5.6,50,8,,10.0,30.159449,1021.1,,TRUE,TRUE,,,,,,,CLR,,,,,,,,VFR,,,,,,,,,,,,METAR,242.0
KACY 270054Z 19003KT 10SM CLR 15/04 A3027 RMK AO2 SLP250 T01500044,KACY,2023-05-27T00:54:00Z,39.45,-74.57,15.0,4.4,190,3,,10.0,30.268702,1025.0,,,TRUE,,,,,,,CLR,,,,,,,,VFR,,,,,,,,,,,,METAR,18.0
KAAO 270054Z AUTO 10006KT 10SM FEW100 24/13 A3008 RMK AO2 SLP175 T02440128,KAAO,2023-05-27T00:54:00Z,37.75,-97.22,24.4,12.8,100,6,,10.0,30.079725,1017.5,,TRUE,TRUE,,,,,,,FEW,10000,,,,,,,VFR,,,,,,,,,,,,METAR,429.0
K1V4 270054Z AUTO 13/03 A3024 RMK AO1 SLP240 T01280033,K1V4,2023-05-27T00:54:00Z,44.42,-72.02,12.8,3.3,,,,,30.239174,1024.0,,TRUE,TRUE,,,,,,,,,,,,,,,,,,,,,,,,,,,METAR,213.0
K12N 270054Z AUTO 00000KT 14/07 A3025 RMK AO1 SLP243 P0003 T01440072,K12N,2023-05-27T00:54:00Z,41.02,-74.73,14.4,7.2,0,0,,,30.250984,1024.3,,TRUE,TRUE,,,,,,,,,,,,,,,,,,,,,0.03,,,,,,METAR,178.0
TJNR 270053Z AUTO 14004KT 10SM CLR 27/24 A2999 RMK AO2 SLP154 T02670244,TJNR,2023-05-27T00:53:00Z,18.25,-65.63,26.7,24.4,140,4,,10.0,29.991142,1015.4,,TRUE,TRUE,,,,,,,CLR,,,,,,,,VFR,,,,,,,,,,,,METAR,7.0
TISX 270053Z 10008KT 10SM FEW017 28/24 A2998 RMK AO2 SLP150 T02780244,TISX,2023-05-27T00:53:00Z,17.7,-64.8,27.8,24.4,100,8,,10.0,29.97933,1015.0,,,TRUE,,,,,,,FEW,1700,,,,,,,VFR,,,,,,,,,,,,METAR,16.0
PHTO 270053Z 01004KT 10SM SCT020 BKN045 25/19 A3001 RMK AO2 SLP160 T02500194,PHTO,2023-05-27T00:53:00Z,19.72,-155.05,25.0,19.4,10,4,,10.0,30.008858,1016.0,,,TRUE,,,,,,,SCT,2000,BKN,4500,,,,,VFR,,,,,,,,,,,,METAR,9.0
PHNL 270053Z 05014G22KT 10SM FEW026 SCT040 29/17 A3001 RMK AO2 SLP163 T02890172,PHNL,2023-05-27T00:53:00Z,21.33,-157.93,28.9,17.2,50,14,22,10.0,30.008858,1016.3,,,TRUE,,,,,,,FEW,2600,SCT,4000,,,,,VFR,,,,,,,,,,,,METAR,2.0
PHLI 270053Z 05012KT 10SM SCT027 BKN038 26/19 A3006 RMK AO2 SLP176 T02610194,PHLI,2023-05-27T00:53:00Z,21.97,-159.33,26.1,19.4,50,12,,10.0,30.059055,1017.6,,,TRUE,,,,,,,SCT,2700,BKN,3800,,,,,VFR,,,,,,,,,,,,METAR,32.0
PHKO 270053Z 23010KT 10SM OVC055 28/19 A2998 RMK AO2 SLP152 T02780194,PHKO,2023-05-27T00:53:00Z,19.73,-156.05,27.8,19.4,230,10,,10.0,29.97933,1015.2,,,TRUE,,,,,,,OVC,5500,,,,,,,VFR,,,,,,,,,,,,METAR,11.0
PHJR 270053Z 01013G19KT 340V070 10SM CLR 29/14 A3002 RMK AO2 SLP173 T02890144,PHJR,2023-05-27T00:53:00Z,21.32,-158.07,28.9,14.4,10,13,19,10.0,30.02067,1017.3,,,TRUE,,,,,,,CLR,,,,,,,,VFR,,,,,,,,,,,,METAR,9.0
PAYA 270053Z AUTO VRB05KT 10SM SCT037 BKN048 OVC070 08/05 A2997 RMK AO2 RAE34 SLP148 P0000 T00780050 TSNO $,PAYA,2023-05-27T00:53:00Z,59.52,-139.67,7.8,5.0,0,5,,10.0,29.970472,1014.8,,TRUE,TRUE,TRUE,,TRUE,,,,SCT,3700,BKN,4800,OVC,7000,,,VFR,,,,,,0.005,,,,,,METAR,9.0
PAWD 270053Z AUTO 19010KT 10SM -RA BKN046 OVC055 07/04 A2970 RMK AO2 SLP058 P0000 T00670039 TSNO,PAWD,2023-05-27T00:53:00Z,60.12,-149.42,6.7,3.9,190,10,,10.0,29.698818,1005.8,,TRUE,TRUE,,,TRUE,,,-RA,BKN,4600,OVC,5500,,,,,VFR,,,,,,0.005,,,,,,METAR,3.0
PAVL 270053Z AUTO 26008KT 10SM SCT060 OVC080 07/02 A2938 RMK AO2 SLP950 T00670017 TSNO $,PAVL,2023-05-27T00:53:00Z,67.73,-164.55,6.7,1.7,260,8,,10.0,29.379921,995.0,,TRUE,TRUE,TRUE,,TRUE,,,,SCT,6000,OVC,8000,,,,,VFR,,,,,,,,,,,,METAR,6.0
PATO 270053Z AUTO 10019G36KT 3SM -RA FEW030 BKN035 OVC044 06/03 A2973 RMK AO2 PK WND 11039/0004 SLP068 P0008 T00560028 TSNO,PATO,2023-05-27T00:53:00Z,60.78,-148.85,5.6,2.8,100,19,36,3.0,29.731298,1006.8,,TRUE,TRUE,,,TRUE,,,-RA,FEW,3000,BKN,3500,OVC,4400,,,MVFR,,,,,,0.08,,,,,,METAR,47.0
PATK 270053Z 05006KT 10SM FEW060 BKN080 OVC095 11/05 A2958 RMK AO2 RAB04E39 SLP019 P0000 T01110050,PATK,2023-05-27T00:53:00Z,62.32,-150.1,11.1,5.0,50,6,,10.0,29.58071,1001.9,,,TRUE,,,,,,,FEW,6000,BKN,8000,OVC,9500,,,VFR,,,,,,0.005,,,,,,METAR,107.0
PASO 270053Z AUTO 16008KT 130V190 10SM FEW030 BKN036 OVC075 09/06 A2958 RMK AO2 SLP018 T00890056 TSNO,PASO,2023-05-27T00:53:00Z,59.45,-151.7,8.9,5.6,160,8,,10.0,29.58071,1001.8,,TRUE,TRUE,,,TRUE,,,,FEW,3000,BKN,3600,OVC,7500,,,VFR,,,,,,,,,,,,METAR,20.0
PASN 270053Z AUTO 29018KT 10SM OVC006 06/03 A2914 RMK AO2 CIG 003V009 SLP867 T00560033 TSNO $,PASN,2023-05-27T00:53:00Z,57.15,-170.22,5.6,3.3,290,18,,10.0,29.140747,986.7,,TRUE,TRUE,TRUE,,TRUE,,,,OVC,600,,,,,,,IFR,,,,,,,,,,,,METAR,8.0
PASI 270053Z 22010KT 8SM -RA FEW018 SCT030 BKN060 09/05 A3006 RMK AO2 RAB48 SLP179 P0000 T00940050 $,PASI,2023-05-27T00:53:00Z,57.03,-135.35,9.4,5.0,220,10,,8.0,30.059055,1017.9,,,TRUE,TRUE,,,,,-RA,FEW,1800,SCT,3000,BKN,6000,,,VFR,,,,,,0.005,,,,,,METAR,2.0
PASC 270053Z 07019G24KT 10SM OVC010 00/M03 A2963 RMK AO2 SLP036 T00001028,PASC,2023-05-27T00:53:00Z,70.2,-148.47,0.0,-2.8,70,19,24,10.0,29.630905,1003.6,,,TRUE,,,,,,,OVC,1000,,,,,,,MVFR,,,,,,,,,,,,METAR,17.0
PAQT 270053Z AUTO 06014KT 10SM OVC012 00/M03 A2968 RMK AO2 SLP050 T00001033,PAQT,2023-05-27T00:53:00Z,70.22,-151.0,0.0,-3.3,60,14,,10.0,29.681103,1005.0,,TRUE,TRUE,,,,,,,OVC,1200,,,,,,,MVFR,,,,,,,,,,,,METAR,11.0
PAOT 270053Z 10011KT 10SM BKN060 OVC075 08/04 A2936 RMK AO2 SLP942 T00780039,PAOT,2023-05-27T00:53:00Z,66.88,-162.6,7.8,3.9,100,11,,10.0,29.359253,994.2,,,TRUE,,,,,,,BKN,6000,OVC,7500,,,,,VFR,,,,,,,,,,,,METAR,3.0
PAOR 270053Z 15004KT 10SM OVC085 09/06 A2951 RMK AO2 SLP004 T00890061,PAOR,2023-05-27T00:53:00Z,62.97,-141.93,8.9,6.1,150,4,,10.0,29.509842,1000.4,,,TRUE,,,,,,,OVC,8500,,,,,,,VFR,,,,,,,,,,,,METAR,524.0
PANN 270053Z AUTO 11003KT 10SM -RA FEW060 BKN075 OVC090 11/09 A2937 RMK AO2 PK WND 17026/2354 SLP952 P0009 T01110089 TSNO $,PANN,2023-05-27T00:53:00Z,64.55,-149.08,11.1,8.9,110,3,,10.0,29.371063,995.2,,TRUE,TRUE,TRUE,,TRUE,,,-RA,FEW,6000,BKN,7500,OVC,9000,,,VFR,,,,,,0.09,,,,,,METAR,110.0
PANC 270053Z 16022G31KT 10SM FEW060 OVC090 09/02 A2958 RMK AO2 PK WND 14032/0014 RAE02 SLP017 P0000 T00890022,PANC,2023-05-27T00:53:00Z,61.17,-150.02,8.9,2.2,160,22,31,10.0,29.58071,1001.7,,,TRUE,,,,,,,FEW,6000,OVC,9000,,,,,VFR,,,,,,0.005,,,,,,METAR,39.0
PAMR 270053Z 19007KT 10SM FEW075 OVC085 11/01 A2958 RMK AO2 RAE24 SLP019 P0000 T01110006,PAMR,2023-05-27T00:53:00Z,61.22,-149.85,11.1,0.6,190,7,,10.0,29.58071,1001.9,,,TRUE,,,,,,,FEW,7500,OVC,8500,,,,,VFR,,,,,,0.005,,,,,,METAR,43.0
PAMC 270053Z AUTO 21008G14KT 10SM BKN070 14/02 A2942 RMK AO2 SLP964 T01390022 TSNO,PAMC,2023-05-27T00:53:00Z,62.97,-155.62,13.9,2.2,210,8,14,10.0,29.421259,996.4,,TRUE,TRUE,,,TRUE,,,,BKN,7000,,,,,,,VFR,,,,,,,,,,,,METAR,101.0
PALH 270053Z 18012G24KT 10SM FEW070 OVC085 09/02 A2960 RMK AO2 PK WND 18027/0004 RAE2357 SLP023 P0000 T00890022,PALH,2023-05-27T00:53:00Z,61.18,-149.97,8.9,2.2,180,12,24,10.0,29.601377,1002.3,,,TRUE,,,,,,,FEW,7000,OVC,8500,,,,,VFR,,,,,,0.005,,,,,,METAR,26.0
PAKW 270053Z AUTO 21008KT 10SM OVC049 11/05 A3010 RMK AO2 SLP192 T01110050 TSNO $,PAKW,2023-05-27T00:53:00Z,55.58,-133.07,11.1,5.0,210,8,,10.0,30.100393,1019.2,,TRUE,TRUE,TRUE,,TRUE,,,,OVC,4900,,,,,,,VFR,,,,,,,,,,,,METAR,7.0
PAKT 270053Z 34011KT 10SM FEW065 14/06 A3009 RMK AO2 SLP189 HARBOR WIND 31006KT T01390056,PAKT,2023-05-27T00:53:00Z,55.35,-131.72,13.9,5.6,340,11,,10.0,30.088583,1018.9,,,TRUE,,,,,,,FEW,6500,,,,,,,VFR,,,,,,,,,,,,METAR,27.0
PAJN 270053Z 08005KT 10SM -RA FEW012 BKN036 OVC045 09/07 A3003 RMK AO2 SLP170 PCPN VRY LGT P0000 T00940072 $,PAJN,2023-05-27T00:53:00Z,58.35,-134.55,9.4,7.2,80,5,,10.0,30.029528,1017.0,,,TRUE,TRUE,,,,,-RA,FEW,1200,BKN,3600,OVC,4500,,,VFR,,,,,,0.005,,,,,,METAR,6.0
PAIL 270053Z AUTO 09015G19KT 10SM -RA BKN035 BKN049 OVC055 08/03 A2948 RMK AO2 RAB2357 SLP985 P0000 T00830028 TSNO,PAIL,2023-05-27T00:53:00Z,59.75,-154.92,8.3,2.8,90,15,19,10.0,29.480314,998.5,,TRUE,TRUE,,,TRUE,,,-RA,BKN,3500,BKN,4900,OVC,5500,,,VFR,,,,,,0.005,,,,,,METAR,44.0
PAHO 270053Z 22007KT 10SM SCT060 BKN100 09/05 A2958 RMK AO2 SLP018 T00940050,PAHO,2023-05-27T00:53:00Z,59.63,-151.48,9.4,5.0,220,7,,10.0,29.58071,1001.8,,,TRUE,,,,,,,SCT,6000,BKN,10000,,,,,VFR,,,,,,,,,,,,METAR,6.0
PAGY 270053Z AUTO 21021G30KT 10SM BKN055 BKN075 OVC095 10/04 A2992 RMK AO2 PK WND 21033/0037 SLP131 T01000039 TSNO,PAGY,2023-05-27T00:53:00Z,59.47,-135.32,10.0,3.9,210,21,30,10.0,29.920275,1013.1,,TRUE,TRUE,,,TRUE,,,,BKN,5500,BKN,7500,OVC,9500,,,VFR,,,,,,,,,,,,METAR,7.0
PAFA 270053Z 07005KT 10SM -RA FEW030 SCT060CB BKN085 14/06 A2940 RMK AO2 RAB33 SLP960 CB E-S MOV NE P0000 T01390061 $,PAFA,2023-05-27T00:53:00Z,64.8,-147.87,13.9,6.1,70,5,,10.0,29.40059,996.0,,,TRUE,TRUE,,,,,-RA,FEW,3000,SCT,6000,BKN,8500,,,VFR,,,,,,0.005,,,,,,METAR,130.0
PAEN 270053Z 23007KT 10SM -RA OVC060 08/03 A2959 RMK AO2 RAB51 SLP023 P0000 T00780033,PAEN,2023-05-27T00:53:00Z,60.57,-151.25,7.8,3.3,230,7,,10.0,29.589567,1002.3,,,TRUE,,,,,,-RA,OVC,6000,,,,,,,VFR,,,,,,0.005,,,,,,METAR,30.0
PAEG 270053Z AUTO 29009KT 10SM -RA FEW028 BKN065 OVC080 14/08 A2937 RMK AO2 RAB37 SLP947 P0000 T01390083 TSNO $,PAEG,2023-05-27T00:53:00Z,64.78,-141.15,13.9,8.3,290,9,,10.0,29.371063,994.7,,TRUE,TRUE,TRUE,,TRUE,,,-RA,FEW,2800,BKN,6500,OVC,8000,,,VFR,,,,,,0.005,,,,,,METAR,273.0
PADE 270053Z AUTO 03005KT 10SM -RA OVC060 07/06 A2933 RMK AO2 RAB2355 SLP933 P0008 T00670061 TSNO,PADE,2023-05-27T00:53:00Z,66.07,-162.77,6.7,6.1,30,5,,10.0,29.329725,993.3,,TRUE,TRUE,,,TRUE,,,-RA,OVC,6000,,,,,,,VFR,,,,,,0.08,,,,,,METAR,5.0
PACV 270053Z 10008KT 10SM -RA OVC023 07/04 A2985 RMK AO2 SLP107 P0003 T00670044,PACV,2023-05-27T00:53:00Z,60.5,-145.47,6.7,4.4,100,8,,10.0,29.84941,1010.7,,,TRUE,,,,,,-RA,OVC,2300,,,,,,,MVFR,,,,,,0.03,,,,,,METAR,15.0
PABT 270053Z 20003KT 5SM -RA BR FEW008 BKN050 OVC060 08/07 A2947 RMK AO2 SLP988 P0004 T00780067 $,PABT,2023-05-27T00:53:00Z,66.92,-151.52,7.8,6.7,200,3,,5.0,29.471457,998.8,,,TRUE,TRUE,,,,,-RA BR,FEW,800,BKN,5000,OVC,6000,,,MVFR,,,,,,0.04,,,,,,METAR,195.0
PABR 270053Z 05017KT 10SM CLR 01/M03 A2973 RMK AO2 SLP067 T00061033,PABR,2023-05-27T00:53:00Z,71.28,-156.78,0.6,-3.3,50,17,,10.0,29.731298,1006.7,,,TRUE,,,,,,,CLR,,,,,,,,VFR,,,,,,,,,,,,METAR,6.0
PABI 270053Z 18020G30KT 10SM FEW030 BKN070 BKN090 BKN140 BKN200 16/M03 A2944,PABI,2023-05-27T00:53:00Z,64.0,-145.72,16.0,-3.0,180,20,30,10.0,29.438976,,,,,,,,,,,FEW,3000,BKN,7000,BKN,9000,BKN,14000,VFR,,,,,,,,,,,,METAR,388.0
PABE 270053Z 16011KT 10SM -RA BKN033 OVC042 08/04 A2931 RMK AO2 RAB17 SLP925 P0000 T00830039,PABE,2023-05-27T00:53:00Z,60.78,-161.83,8.3,3.9,160,11,,10.0,29.309055,992.5,,,TRUE,,,,,,-RA,BKN,3300,OVC,4200,,,,,VFR,,,,,,0.005,,,,,,METAR,28.0
PAAQ 270053Z 16/00 A2959 RMK AO2 PK WND 13036/0046 SLP021 T01560000 $,PAAQ,2023-05-27T00:53:00Z,61.6,-149.08,15.6,0.0,,,,,29.589567,1002.1,,,TRUE,TRUE,,,,,,,,,,,,,,,,,,,,,,,,,,METAR,68.0
MMTM 270053Z E09010KT 10SM BKN200 28/22 A2989 RMK 8/008 CU,MMTM,2023-05-27T00:53:00Z,22.28,-97.87,28.0,22.0,90,10,,10.0,29.890747,,,,,,,,,,,BKN,20000,,,,,,,VFR,,,,,,,,,,,,METAR,21.0
MMSL 270053Z 19005KT 10SM BKN240 25/15 A2980 RMK 8/008 RTS,MMSL,2023-05-27T00:53:00Z,22.95,-109.93,25.0,15.0,190,5,,10.0,29.799213,,,,,,,,,,,BKN,24000,,,,,,,VFR,,,,,,,,,,,,METAR,205.0
KZZV 270053Z AUTO 04005KT 10SM CLR 19/02 A3022 RMK AO2 SLP231 T01940022,KZZV,2023-05-27T00:53:00Z,39.95,-81.9,19.4,2.2,40,5,,10.0,30.221457,1023.1,,TRUE,TRUE,,,,,,,CLR,,,,,,,,VFR,,,,,,,,,,,,METAR,268.0
KYKM 270053Z AUTO 10008KT 10SM FEW034 SCT090 25/06 A2983 RMK AO2 SLP097 T02500056,KYKM,2023-05-27T00:53:00Z,46.57,-120.53,25.0,5.6,100,8,,10.0,29.828741,1009.7,,TRUE,TRUE,,,,,,,FEW,3400,SCT,9000,,,,,VFR,,,,,,,,,,,,METAR,319.0
KYIP 270053Z 16007KT 10SM CLR 17/02 A3031 RMK AO2 SLP262 T01670022,KYIP,2023-05-27T00:53:00Z,42.23,-83.53,16.7,2.2,160,7,,10.0,30.31004,1026.2,,,TRUE,,,,,,,CLR,,,,,,,,VFR,,,,,,,,,,,,METAR,215.0
KXNA 270053Z 08007KT 10SM CLR 23/10 A3009 RMK AO2 SLP180 T02330100,KXNA,2023-05-27T00:53:00Z,36.28,-94.3,23.3,10.0,80,7,,10.0,30.088583,1018.0,,,TRUE,,,,,,,CLR,,,,,,,,VFR,,,,,,,,,,,,METAR,390.0
KWVI 270053Z AUTO 25007KT 220V280 10SM OVC020 14/11 A2997 RMK AO2 SLP147 T01440106,KWVI,2023-05-27T00:53:00Z,36.93,-121.78,14.4,10.6,250,7,,10.0,29.970472,1014.7,,TRUE,TRUE,,,,,,,OVC,2000,,,,,,,MVFR,,,,,,,,,,,,METAR,47.0
KWST 270053Z AUTO 15007KT 10SM CLR 14/11 A3026 RMK AO2 SLP245 T01390106,KWST,2023-05-27T00:53:00Z,41.35,-71.8,13.9,10.6,150,7,,10.0,30.259842,1024.5,,TRUE,TRUE,,,,,,,CLR,,,,,,,,VFR,,,,,,,,,,,,METAR,20.0
KWRL 270053Z AUTO 05008KT 10SM FEW110 13/10 A2991 RMK AO2 TSB2359E14 SLP115 T01280100,KWRL,2023-05-27T00:53:00Z,43.97,-107.95,12.8,10.0,50,8,,10.0,29.911417,1011.5,,TRUE,TRUE,,,,,,,FEW,11000,,,,,,,VFR,,,,,,,,,,,,METAR,1281.0
KVUO 270053Z AUTO 35008KT 310V030 10SM CLR 29/10 A2984 RMK AO2 SLP105 T02890100,KVUO,2023-05-27T00:53:00Z,45.62,-122.65,28.9,10.0,350,8,,10.0,29.840551,1010.5,,TRUE,TRUE,,,,,,,CLR,,,,,,,,VFR,,,,,,,,,,,,METAR,7.0
KVLD 270053Z 05010G22KT 10SM OVC050 22/13 A3001 RMK AO1 SLP167 T02170133,KVLD,2023-05-27T00:53:00Z,30.78,-83.27,21.7,13.3,50,10,22,10.0,30.008858,1016.7,,,TRUE,,,,,,,OVC,5000,,,,,,,VFR,,,,,,,,,,,,METAR,59.0
KVIH 270053Z AUTO 05004KT 10SM CLR 20/06 A3018 RMK AO2 SLP213 T02000061,KVIH,2023-05-27T00:53:00Z,38.13,-91.77,20.0,6.1,50,4,,10.0,30.180119,1021.3,,TRUE,TRUE,,,,,,,CLR,,,,,,,,VFR,,,,,,,,,,,,METAR,342.0
KVGT 270053Z VRB05KT 10SM CLR 32/M06 A2970 RMK AO2 SLP050 T03171056,KVGT,2023-05-27T00:53:00Z,36.22,-115.2,31.7,-5.6,0,5,,10.0,29.698818,1005.0,,,TRUE,,,,,,,CLR,,,,,,,,VFR,,,,,,,,,,,,METAR,664.0
KVEL 270053Z AUTO 28010G15KT 10SM FEW110 21/00 A2988 RMK AO2 LTG DSNT N SLP068 T02110000,KVEL,2023-05-27T00:53:00Z,40.45,-109.52,21.1,0.0,280,10,15,10.0,29.878937,1006.8,,TRUE,TRUE,,,,,,,FEW,11000,,,,,,,VFR,,,,,,,,,,,,METAR,1604.0
KUUU 270053Z AUTO 16006KT 10SM CLR 12/09 A3026 RMK AO2 SLP248 T01220094,KUUU,2023-05-27T00:53:00Z,41.53,-71.28,12.2,9.4,160,6,,10.0,30.259842,1024.8,,TRUE,TRUE,,,,,,,CLR,,,,,,,,VFR,,,,,,,,,,,,METAR,45.0
KUTS 270053Z AUTO 00000KT 8SM CLR 27/18 A2996 RMK AO2 SLP142 T02670183,KUTS,2023-05-27T00:53:00Z,30.75,-95.58,26.7,18.3,0,0,,8.0,29.958662,1014.2,,TRUE,TRUE,,,,,,,CLR,,,,,,,,VFR,,,,,,,,,,,,METAR,103.0
KUNV 270053Z 00000KT 10SM SCT060 17/02 A3027,KUNV,2023-05-27T00:53:00Z,40.85,-77.83,17.0,2.0,0,0,,10.0,30.268702,,,,,,,,,,,SCT,6000,,,,,,,VFR,,,,,,,,,,,,METAR,365.0
KUNO 270053Z AUTO 08004KT 10SM CLR 21/07 A3015 RMK AO2 SLP202 T02060072,KUNO,2023-05-27T00:53:00Z,36.88,-91.9,20.6,7.2,80,4,,10.0,30.15059,1020.2,,TRUE,TRUE,,,,,,,CLR,,,,,,,,VFR,,,,,,,,,,,,METAR,376.0
KUAO 270053Z 23006KT 10SM CLR 28/13 A2984 RMK AO2 SLP101 T02780133,KUAO,2023-05-27T00:53:00Z,45.25,-122.77,27.8,13.3,230,6,,10.0,29.840551,1010.1,,,TRUE,,,,,,,CLR,,,,,,,,VFR,,,,,,,,,,,,METAR,60.0
KTYS 270053Z 01005KT 10SM CLR 23/12 A3007 RMK AO2 SLP173 T02280122,KTYS,2023-05-27T00:53:00Z,35.82,-83.98,22.8,12.2,10,5,,10.0,30.070866,1017.3,,,TRUE,,,,,,,CLR,,,,,,,,VFR,,,,,,,,,,,,METAR,300.0
KTYR 270053Z 07004KT 10SM CLR 27/13 A2999 RMK AO2 SLP149 T02670133,KTYR,2023-05-27T00:53:00Z,32.37,-95.4,26.7,13.3,70,4,,10.0,29.991142,1014.9,,,TRUE,,,,,,,CLR,,,,,,,,VFR,,,,,,,,,,,,METAR,161.0
KTXK 270053Z 07003KT 10SM FEW090 26/16 A3002 RMK AO2 SLP160 T02610156,KTXK,2023-05-27T00:53:00Z,33.45,-93.98,26.1,15.6,70,3,,10.0,30.02067,1016.0,,,TRUE,,,,,,,FEW,9000,,,,,,,VFR,,,,,,,,,,,,METAR,118.0
KTWF 270053Z 29014KT 10SM CLR 17/07 A2992 RMK AO2 SLP099 T01720072,KTWF,2023-05-27T00:53:00Z,42.48,-114.48,17.2,7.2,290,14,,10.0,29.920275,1009.9,,,TRUE,,,,,,,CLR,,,,,,,,VFR,,,,,,,,,,,,METAR,1269.0
KTVR 270053Z AUTO 36003KT 10SM CLR 25/17 A2998 RMK AO2 SLP158 T02500167 $,KTVR,2023-05-27T00:53:00Z,32.35,-91.03,25.0,16.7,360,3,,10.0,29.97933,1015.8,,TRUE,TRUE,TRUE,,,,,,CLR,,,,,,,,VFR,,,,,,,,,,,,METAR,25.0
KTVL 270053Z AUTO 17007KT 10SM BKN055 16/04 A3001 RMK AO2 LTG DSNT NE SLP131 T01560039,KTVL,2023-05-27T00:53:00Z,38.9,-120.0,15.6,3.9,170,7,,10.0,30.008858,1013.1,,TRUE,TRUE,,,,,,,BKN,5500,,,,,,,VFR,,,,,,,,,,,,METAR,1907.0
KTVC 270053Z 01007KT 10SM SCT250 14/03 A3031 RMK AO2 SLP265 T01390028,KTVC,2023-05-27T00:53:00Z,44.73,-85.58,13.9,2.8,10,7,,10.0,30.31004,1026.5,,,TRUE,,,,,,,SCT,25000,,,,,,,VFR,,,,,,,,,,,,METAR,188.0
KTUS 270053Z 24014G21KT 10SM CLR 33/M06 A2983 RMK AO2 SLP055 T03331056,KTUS,2023-05-27T00:53:00Z,32.13,-110.95,33.3,-5.6,240,14,21,10.0,29.828741,1005.5,,,TRUE,,,,,,,CLR,,,,,,,,VFR,,,,,,,,,,,,METAR,776.0
KTUP 270053Z 33003KT 10SM FEW120 23/18 A3004 RMK AO2 LTG DSNT S SLP169 T02280178 $,KTUP,2023-05-27T00:53:00Z,34.27,-88.77,22.8,17.8,330,3,,10.0,30.041338,1016.9,,,TRUE,TRUE,,,,,,FEW,12000,,,,,,,VFR,,,,,,,,,,,,METAR,107.0
KTUL 270053Z 07006KT 10SM FEW070 BKN120 BKN250 26/16 A3005 RMK AO2 SLP169 T02610156,KTUL,2023-05-27T00:53:00Z,36.2,-95.88,26.1,15.6,70,6,,10.0,30.050198,1016.9,,,TRUE,,,,,,,FEW,7000,BKN,12000,BKN,25000,,,VFR,,,,,,,,,,,,METAR,196.0
KTTN 270053Z 18010KT 10SM CLR 17/04 A3025 RMK AO2 SLP236 T01670044,KTTN,2023-05-27T00:53:00Z,40.28,-74.82,16.7,4.4,180,10,,10.0,30.250984,1023.6,,,TRUE,,,,,,,CLR,,,,,,,,VFR,,,,,,,,,,,,METAR,58.0
KTRI 270053Z 07004KT 10SM BKN250 20/08 A3015 RMK AO2 SLP190 T02000078,KTRI,2023-05-27T00:53:00Z,36.48,-82.4,20.0,7.8,70,4,,10.0,30.15059,1019.0,,,TRUE,,,,,,,BKN,25000,,,,,,,VFR,,,,,,,,,,,,METAR,456.0
KTPA 270053Z 03014G23KT 10SM FEW029 SCT120 24/18 A2989 RMK AO2 SLP122 T02440178 $,KTPA,2023-05-27T00:53:00Z,27.97,-82.53,24.4,17.8,30,14,23,10.0,29.890747,1012.2,,,TRUE,TRUE,,,,,,FEW,2900,SCT,12000,,,,,VFR,,,,,,,,,,,,METAR,2.0
KTOP 270053Z AUTO 07011KT 10SM CLR 24/05 A3011 RMK AO2 SLP191 T02440050,KTOP,2023-05-27T00:53:00Z,39.07,-95.63,24.4,5.0,70,11,,10.0,30.109253,1019.1,,TRUE,TRUE,,,,,,,CLR,,,,,,,,VFR,,,,,,,,,,,,METAR,268.0
KTOI 270053Z AUTO 05003KT 10SM CLR 24/16 A3001 RMK AO2 SLP160 T02390156,KTOI,2023-05-27T00:53:00Z,31.85,-86.02,23.9,15.6,50,3,,10.0,30.008858,1016.0,,TRUE,TRUE,,,,,,,CLR,,,,,,,,VFR,,,,,,,,,,,,METAR,120.0
KTMB 270053Z 02008KT 10SM SCT055 BKN070 25/22 A2983 RMK AO2 LTG DSNT SE SLP100 T02500222,KTMB,2023-05-27T00:53:00Z,25.65,-80.43,25.0,22.2,20,8,,10.0,29.828741,1010.0,,,TRUE,,,,,,,SCT,5500,BKN,7000,,,,,VFR,,,,,,,,,,,,METAR,2.0
KTLH 270053Z 07012G16KT 10SM OVC060 24/16 A2997 RMK AO2 SLP147 T02440161,KTLH,2023-05-27T00:53:00Z,30.4,-84.35,24.4,16.1,70,12,16,10.0,29.970472,1014.7,,,TRUE,,,,,,,OVC,6000,,,,,,,VFR,,,,,,,,,,,,METAR,17.0
KTKI 270053Z 10005KT 10SM CLR 26/12 A3001 RMK AO2 SLP159 T02610122,KTKI,2023-05-27T00:53:00Z,33.18,-96.58,26.1,12.2,100,5,,10.0,30.008858,1015.9,,,TRUE,,,,,,,CLR,,,,,,,,VFR,,,,,,,,,,,,METAR,173.0
KTIW 270053Z 27008KT 10SM FEW070 28/11 A2985 RMK AO2 SLP104 T02830106,KTIW,2023-05-27T00:53:00Z,47.27,-122.58,28.3,10.6,270,8,,10.0,29.84941,1010.4,,,TRUE,,,,,,,FEW,7000,,,,,,,VFR,,,,,,,,,,,,METAR,89.0
KTHV 270053Z AUTO 00000KT 10SM CLR 13/08 A3025 RMK AO2 SLP243 T01330083,KTHV,2023-05-27T00:53:00Z,39.92,-76.88,13.3,8.3,0,0,,10.0,30.250984,1024.3,,TRUE,TRUE,,,,,,,CLR,,,,,,,,VFR,,,,,,,,,,,,METAR,141.0
KTDZ 270053Z AUTO 05005KT 10SM CLR 17/02 A3030 RMK AO2 SLP258 T01720017,KTDZ,2023-05-27T00:53:00Z,41.57,-83.48,17.2,1.7,50,5,,10.0,30.301182,1025.8,,TRUE,TRUE,,,,,,,CLR,,,,,,,,VFR,,,,,,,,,,,,METAR,189.0
KTCS 270053Z AUTO 21015G26KT 10SM CLR 31/M12 A2990 RMK AO2 PK WND 19030/2355 SLP043 T03061122,KTCS,2023-05-27T00:53:00Z,33.23,-107.27,30.6,-12.2,210,15,26,10.0,29.899607,1004.3,,TRUE,TRUE,,,,,,,CLR,,,,,,,,VFR,,,,,,,,,,,,METAR,1471.0
KTCL 270053Z 06003KT 8SM CLR 23/16 A3001 RMK AO2 SLP161 T02280161,KTCL,2023-05-27T00:53:00Z,33.22,-87.62,22.8,16.1,60,3,,8.0,30.008858,1016.1,,,TRUE,,,,,,,CLR,,,,,,,,VFR,,,,,,,,,,,,METAR,48.0
KSWO 270053Z 09004KT 10SM CLR 25/16 A3005 RMK AO2 SLP164 T02500156,KSWO,2023-05-27T00:53:00Z,36.17,-97.08,25.0,15.6,90,4,,10.0,30.050198,1016.4,,,TRUE,,,,,,,CLR,,,,,,,,VFR,,,,,,,,,,,,METAR,293.0
KSTS 270053Z 19008KT 10SM FEW022 17/10 A2993 RMK AO2 SLP129 T01720100,KSTS,2023-05-27T00:53:00Z,38.5,-122.82,17.2,10.0,190,8,,10.0,29.929134,1012.9,,,TRUE,,,,,,,FEW,2200,,,,,,,VFR,,,,,,,,,,,,METAR,35.0
KSTP 270053Z 13007KT 10SM CLR 23/01 A3021 RMK AO2 SLP226 T02330011,KSTP,2023-05-27T00:53:00Z,44.93,-93.05,23.3,1.1,130,7,,10.0,30.209646,1022.6,,,TRUE,,,,,,,CLR,,,,,,,,VFR,,,,,,,,,,,,METAR,213.0
KSTJ 270053Z 10008KT 10SM CLR 24/01 A3015 RMK AO2 SLP206 T02390011,KSTJ,2023-05-27T00:53:00Z,39.77,-94.92,23.9,1.1,100,8,,10.0,30.15059,1020.6,,,TRUE,,,,,,,CLR,,,,,,,,VFR,,,,,,,,,,,,METAR,247.0
KSTC 270053Z 15009KT 10SM CLR 24/03 A3018 RMK AO2 SLP225 T02440028,KSTC,2023-05-27T00:53:00Z,45.55,-94.05,24.4,2.8,150,9,,10.0,30.180119,1022.5,,,TRUE,,,,,,,CLR,,,,,,,,VFR,,,,,,,,,,,,METAR,302.0
KSSI 270053Z AUTO 01018G25KT 10SM OVC029 20/12 A2999 RMK AO2 PK WND 36026/0021 SLP157 T02000122,KSSI,2023-05-27T00:53:00Z,31.15,-81.38,20.0,12.2,10,18,25,10.0,29.991142,1015.7,,TRUE,TRUE,,,,,,,OVC,2900,,,,,,,MVFR,,,,,,,,,,,,METAR,6.0
KSSF 270053Z 09007KT 10SM CLR 28/18 A2993 RMK AO2 SLP123 T02780183 $,KSSF,2023-05-27T00:53:00Z,29.33,-98.47,27.8,18.3,90,7,,10.0,29.929134,1012.3,,,TRUE,TRUE,,,,,,CLR,,,,,,,,VFR,,,,,,,,,,,,METAR,175.0
KSRQ 270053Z 05007KT 10SM FEW034 24/19 A2985 RMK AO2 SLP108 T02440194,KSRQ,2023-05-27T00:53:00Z,27.4,-82.57,24.4,19.4,50,7,,10.0,29.84941,1010.8,,,TRUE,,,,,,,FEW,3400,,,,,,,VFR,,,,,,,,,,,,METAR,5.0
KSPW 270053Z AUTO 12010KT 10SM CLR 23/M02 A3017 RMK AO2 SLP211 T02281017,KSPW,2023-05-27T00:53:00Z,43.17,-95.22,22.8,-1.7,120,10,,10.0,30.171259,1021.1,,TRUE,TRUE,,,,,,,CLR,,,,,,,,VFR,,,,,,,,,,,,METAR,407.0
KSPG 270053Z AUTO 04019KT 10SM CLR 26/21 A2987 RMK AO2 PK WND 05027/0023 SLP113 T02560211 $,KSPG,2023-05-27T00:53:00Z,27.77,-82.63,25.6,21.1,40,19,,10.0,29.870079,1011.3,,TRUE,TRUE,TRUE,,,,,,CLR,,,,,,,,VFR,,,,,,,,,,,,METAR,1.0
KSPB 270053Z AUTO 32008KT 10SM CLR 28/09 A2983 RMK AO2 SLP100 T02830094,KSPB,2023-05-27T00:53:00Z,45.77,-122.87,28.3,9.4,320,8,,10.0,29.828741,1010.0,,TRUE,TRUE,,,,,,,CLR,,,,,,,,VFR,,,,,,,,,,,,METAR,15.0
KSNS 270053Z AUTO 30010KT 10SM OVC022 17/09 A2996 RMK AO2 SLP154 T01720094,KSNS,2023-05-27T00:53:00Z,36.67,-121.6,17.2,9.4,300,10,,10.0,29.958662,1015.4,,TRUE,TRUE,,,,,,,OVC,2200,,,,,,,MVFR,,,,,,,,,,,,METAR,20.0
KSNA 270053Z 25007KT 10SM OVC048 18/11 A2995 RMK AO2 SLP142 T01830106,KSNA,2023-05-27T00:53:00Z,33.67,-117.87,18.3,10.6,250,7,,10.0,29.949802,1014.2,,,TRUE,,,,,,,OVC,4800,,,,,,,VFR,,,,,,,,,,,,METAR,14.0
KSMQ 270053Z AUTO 00000KT 10SM CLR 14/08 A3022 RMK AO2 SLP235 T01440078,KSMQ,2023-05-27T00:53:00Z,40.62,-74.67,14.4,7.8,0,0,,10.0,30.221457,1023.5,,TRUE,TRUE,,,,,,,CLR,,,,,,,,VFR,,,,,,,,,,,,METAR,30.0
KSMF 270053Z 15010KT 10SM CLR 23/12 A2985 RMK AO2 SLP109 T02330117,KSMF,2023-05-27T00:53:00Z,38.7,-121.6,23.3,11.7,150,10,,10.0,29.84941,1010.9,,,TRUE,,,,,,,CLR,,,,,,,,VFR,,,,,,,,,,,,METAR,7.0
KSLN 270053Z 12012KT 10SM CLR 26/13 A3008 RMK AO2 SLP175 T02610133,KSLN,2023-05-27T00:53:00Z,38.8,-97.65,26.1,13.3,120,12,,10.0,30.079725,1017.5,,,TRUE,,,,,,,CLR,,,,,,,,VFR,,,,,,,,,,,,METAR,377.0
KSJC 270053Z 33014KT 10SM FEW015 FEW035 FEW045 19/11 A2992 RMK AO2 SLP132 T01890111,KSJC,2023-05-27T00:53:00Z,37.37,-121.92,18.9,11.1,330,14,,10.0,29.920275,1013.2,,,TRUE,,,,,,,FEW,1500,FEW,3500,FEW,4500,,,VFR,,,,,,,,,,,,METAR,13.0
KSIY 270053Z AUTO 01014G21KT 10SM CLR 27/03 A2985 RMK AO2 SLP101 T02720028,KSIY,2023-05-27T00:53:00Z,41.77,-122.47,27.2,2.8,10,14,21,10.0,29.84941,1010.1,,TRUE,TRUE,,,,,,,CLR,,,,,,,,VFR,,,,,,,,,,,,METAR,807.0
KSHN 270053Z AUTO 25013KT 10SM -RA SCT100 24/10 A2984 RMK AO2 SLP104 P0000 T02390100,KSHN,2023-05-27T00:53:00Z,47.23,-123.13,23.9,10.0,250,13,,10.0,29.840551,1010.4,,TRUE,TRUE,,,,,,-RA,SCT,10000,,,,,,,VFR,,,,,,0.005,,,,,,METAR,84.0
KSGR 270053Z 06006KT 10SM BKN080 29/14 A2994 RMK AO2 SLP140 T02940139,KSGR,2023-05-27T00:53:00Z,29.62,-95.65,29.4,13.9,60,6,,10.0,29.940945,1014.0,,,TRUE,,,,,,,BKN,8000,,,,,,,VFR,,,,,,,,,,,,METAR,22.0
KSFF 270053Z 35003G12KT 10SM -RA FEW065 BKN090 18/12 A2986 RMK AO2 LTG DSNT ALQDS RAB17 TSB16E31 SLP106 P0004 T01780122,KSFF,2023-05-27T00:53:00Z,47.68,-117.32,17.8,12.2,350,3,12,10.0,29.861221,1010.6,,,TRUE,,,,,,-RA,FEW,6500,BKN,9000,,,,,VFR,,,,,,0.04,,,,,,METAR,593.0
KSFB 270053Z 01014G20KT 10SM BKN021 BKN027 OVC044 21/18 A2990 RMK AO2 SLP125 T02110178,KSFB,2023-05-27T00:53:00Z,28.77,-81.23,21.1,17.8,10,14,20,10.0,29.899607,1012.5,,,TRUE,,,,,,,BKN,2100,BKN,2700,OVC,4400,,,MVFR,,,,,,,,,,,,METAR,16.0
KSEG 270053Z AUTO 00000KT 10SM CLR 14/06 A3025 RMK AO2 SLP244 T01390061,KSEG,2023-05-27T00:53:00Z,40.82,-76.87,13.9,6.1,0,0,,10.0,30.250984,1024.4,,TRUE,TRUE,,,,,,,CLR,,,,,,,,VFR,,,,,,,,,,,,METAR,136.0
KSEA 270053Z VRB06KT 10SM FEW050 27/09 A2986 RMK AO2 SLP114 TCU DSNT SE T02720089,KSEA,2023-05-27T00:53:00Z,47.45,-122.32,27.2,8.9,0,6,,10.0,29.861221,1011.4,,,TRUE,,,,,,,FEW,5000,,,,,,,VFR,,,,,,,,,,,,METAR,115.0
KSDM 270053Z COR 28006KT 10SM BKN022 17/11 A2995 RMK AO2 SLP140 T01670106,KSDM,2023-05-27T00:53:00Z,32.58,-117.0,16.7,10.6,280,6,,10.0,29.949802,1014.0,TRUE,,TRUE,,,,,,,BKN,2200,,,,,,,MVFR,,,,,,,,,,,,METAR,161.0
KSDL 270053Z 25012G18KT 10SM CLR 33/M01 A2975 RMK AO2 SLP051 T03281011,KSDL,2023-05-27T00:53:00Z,33.62,-111.92,32.8,-1.1,250,12,18,10.0,29.749016,1005.1,,,TRUE,,,,,,,CLR,,,,,,,,VFR,,,,,,,,,,,,METAR,438.0
KSBM 270053Z AUTO 13003KT 10SM CLR 16/M01 A3031 RMK AO2 SLP266 T01611011,KSBM,2023-05-27T00:53:00Z,43.78,-87.85,16.1,-1.1,130,3,,10.0,30.31004,1026.6,,TRUE,TRUE,,,,,,,CLR,,,,,,,,VFR,,,,,,,,,,,,METAR,225.0
KSBA 270053Z 26010KT 10SM OVC038 17/10 A2995 RMK AO2 SLP141 T01720100,KSBA,2023-05-27T00:53:00Z,34.43,-119.85,17.2,10.0,260,10,,10.0,29.949802,1014.1,,,TRUE,,,,,,,OVC,3800,,,,,,,VFR,,,,,,,,,,,,METAR,2.0
KSAV 270053Z 02014KT 10SM FEW030 BKN065 BKN120 BKN200 18/09 A3003 RMK AO2 SLP169 T01780094,KSAV,2023-05-27T00:53:00Z,32.12,-81.2,17.8,9.4,20,14,,10.0,30.029528,1016.9,,,TRUE,,,,,,,FEW,3000,BKN,6500,BKN,12000,BKN,20000,VFR,,,,,,,,,,,,METAR,10.0
KSAF 270053Z 13017G24KT 10SM CLR 22/04 A3003 RMK AO2 PK WND 14027/0035 SLP076 T02170039,KSAF,2023-05-27T00:53:00Z,35.62,-106.1,21.7,3.9,130,17,24,10.0,30.029528,1007.6,,,TRUE,,,,,,,CLR,,,,,,,,VFR,,,,,,,,,,,,METAR,1918.0
KSAC 270053Z 21008KT 10SM CLR 21/12 A2987 RMK AO2 SLP115 T02110117,KSAC,2023-05-27T00:53:00Z,38.5,-121.5,21.1,11.7,210,8,,10.0,29.870079,1011.5,,,TRUE,,,,,,,CLR,,,,,,,,VFR,,,,,,,,,,,,METAR,5.0
KRXE 270053Z AUTO 21006KT 10SM CLR 17/05 A2992 RMK AO2 SLP109 T01670050,KRXE,2023-05-27T00:53:00Z,43.83,-111.8,16.7,5.0,210,6,,10.0,29.920275,1010.9,,TRUE,TRUE,,,,,,,CLR,,,,,,,,VFR,,,,,,,,,,,,METAR,1483.0
KRWL 270053Z AUTO 28023G35KT 10SM -RA CLR 17/02 A2999 RMK AO2 PK WND 28038/0039 RAB2354 SLP083 P0000 T01720022,KRWL,2023-05-27T00:53:00Z,41.8,-107.2,17.2,2.2,280,23,35,10.0,29.991142,1008.3,,TRUE,TRUE,,,,,,-RA,CLR,,,,,,,,VFR,,,,,,0.005,,,,,,METAR,2066.0
KRWI 270053Z AUTO 03010G17KT 10SM CLR 17/04 A3019 RMK AO2 SLP222 T01670044,KRWI,2023-05-27T00:53:00Z,35.85,-77.9,16.7,4.4,30,10,17,10.0,30.188976,1022.2,,TRUE,TRUE,,,,,,,CLR,,,,,,,,VFR,,,,,,,,,,,,METAR,46.0
KRWF 270053Z AUTO 13009KT 10SM CLR 24/M01 A3015 RMK AO2 SLP206 T02441006,KRWF,2023-05-27T00:53:00Z,44.55,-95.08,24.4,-0.6,130,9,,10.0,30.15059,1020.6,,TRUE,TRUE,,,,,,,CLR,,,,,,,,VFR,,,,,,,,,,,,METAR,312.0
KRVS 270053Z 06009KT 10SM CLR 26/14 A3005 RMK AO2 SLP178 T02610144,KRVS,2023-05-27T00:53:00Z,36.05,-95.98,26.1,14.4,60,9,,10.0,30.050198,1017.8,,,TRUE,,,,,,,CLR,,,,,,,,VFR,,,,,,,,,,,,METAR,191.0
KRUE 270053Z AUTO 08004KT 10SM CLR 24/13 A3005 RMK AO2 SLP170 T02440128,KRUE,2023-05-27T00:53:00Z,35.25,-93.1,24.4,12.8,80,4,,10.0,30.050198,1017.0,,TRUE,TRUE,,,,,,,CLR,,,,,,,,VFR,,,,,,,,,,,,METAR,119.0
KRSW 270053Z 06007KT 10SM OVC085 22/21 A2985 RMK AO2 RAE22 SLP105 P0000 T02170206,KRSW,2023-05-27T00:53:00Z,26.53,-81.75,21.7,20.6,60,7,,10.0,29.84941,1010.5,,,TRUE,,,,,,,OVC,8500,,,,,,,VFR,,,,,,0.005,,,,,,METAR,8.0
KRSL 270053Z AUTO 15015G24KT 10SM CLR 26/09 A3004 RMK AO2 SLP161 T02560094,KRSL,2023-05-27T00:53:00Z,38.87,-98.82,25.6,9.4,150,15,24,10.0,30.041338,1016.1,,TRUE,TRUE,,,,,,,CLR,,,,,,,,VFR,,,,,,,,,,,,METAR,569.0
KRQE 270053Z AUTO 22015G24KT 10SM CLR 22/M09 A3000 RMK AO2 PK WND 24031/0018 SLP071 T02221089,KRQE,2023-05-27T00:53:00Z,35.65,-109.07,22.2,-8.9,220,15,24,10.0,30.0,1007.1,,TRUE,TRUE,,,,,,,CLR,,,,,,,,VFR,,,,,,,,,,,,METAR,2056.0
KRNT 270053Z 34007KT 9SM CLR 28/10 A2983 RMK AO2 SLP106 T02780100,KRNT,2023-05-27T00:53:00Z,47.5,-122.22,27.8,10.0,340,7,,9.0,29.828741,1010.6,,,TRUE,,,,,,,CLR,,,,,,,,VFR,,,,,,,,,,,,METAR,7.0
KRNM 270053Z 26007KT 10SM SCT030 18/09 A2994 RMK AO2 SLP131 T01830089,KRNM,2023-05-27T00:53:00Z,33.03,-116.92,18.3,8.9,260,7,,10.0,29.940945,1013.1,,,TRUE,,,,,,,SCT,3000,,,,,,,VFR,,,,,,,,,,,,METAR,423.0
KRMG 270053Z AUTO 00000KT 10SM BKN085 23/14 A3006 RMK AO2 SLP171 T02280139,KRMG,2023-05-27T00:53:00Z,34.35,-85.17,22.8,13.9,0,0,,10.0,30.059055,1017.1,,TRUE,TRUE,,,,,,,BKN,8500,,,,,,,VFR,,,,,,,,,,,,METAR,196.0
KRME 270053Z 35003KT 10SM CLR 14/04 A3029 RMK AO2 SLP255 T01440044,KRME,2023-05-27T00:53:00Z,43.22,-75.4,14.4,4.4,350,3,,10.0,30.28937,1025.5,,,TRUE,,,,,,,CLR,,,,,,,,VFR,,,,,,,,,,,,METAR,146.0
KRKP 270053Z AUTO 13009KT 5SM HZ CLR 27/21 A2993 RMK AO2 SLP138 T02670211,KRKP,2023-05-27T00:53:00Z,28.08,-97.05,26.7,21.1,130,9,,5.0,29.929134,1013.8,,TRUE,TRUE,,,,,,HZ,CLR,,,,,,,,MVFR,,,,,,,,,,,,METAR,8.0
KRIW 270053Z AUTO 35006KT 10SM CLR 16/07 A2995 RMK AO2 SLP097 T01610067,KRIW,2023-05-27T00:53:00Z,43.07,-108.43,16.1,6.7,350,6,,10.0,29.949802,1009.7,,TRUE,TRUE,,,,,,,CLR,,,,,,,,VFR,,,,,,,,,,,,METAR,1662.0
KRIL 270053Z AUTO VRB06KT 10SM CLR 23/M03 A2990 RMK AO2 PK WND 18028/0001 SLP075 T02331028,KRIL,2023-05-27T00:53:00Z,39.53,-107.73,23.3,-2.8,0,6,,10.0,29.899607,1007.5,,TRUE,TRUE,,,,,,,CLR,,,,,,,,VFR,,,,,,,,,,,,METAR,1683.0
KRHI 270053Z AUTO 00000KT 10SM CLR 19/02 A3029 RMK AO2 SLP257 T01890017 $,KRHI,2023-05-27T00:53:00Z,45.63,-89.48,18.9,1.7,0,0,,10.0,30.28937,1025.7,,TRUE,TRUE,TRUE,,,,,,CLR,,,,,,,,VFR,,,,,,,,,,,,METAR,493.0
KRDD 270053Z 14013KT 10SM CLR 28/13 A2978 RMK AO2 SLP080 T02780133,KRDD,2023-05-27T00:53:00Z,40.52,-122.3,27.8,13.3,140,13,,10.0,29.778543,1008.0,,,TRUE,,,,,,,CLR,,,,,,,,VFR,,,,,,,,,,,,METAR,152.0
KRBG 270053Z AUTO 34008G16KT 10SM CLR 27/09 A2986 RMK AO2 SLP109 T02720094,KRBG,2023-05-27T00:53:00Z,43.23,-123.35,27.2,9.4,340,8,16,10.0,29.861221,1010.9,,TRUE,TRUE,,,,,,,CLR,,,,,,,,VFR,,,,,,,,,,,,METAR,152.0
KRBD 270053Z 09005KT 10SM CLR 27/13 A3000 RMK AO2 SLP152 T02670133,KRBD,2023-05-27T00:53:00Z,32.68,-96.87,26.7,13.3,90,5,,10.0,30.0,1015.2,,,TRUE,,,,,,,CLR,,,,,,,,VFR,,,,,,,,,,,,METAR,200.0
KRAL 270053Z 27011KT 10SM CLR 18/09 A2994 RMK AO2 SLP126 T01780094,KRAL,2023-05-27T00:53:00Z,33.95,-117.45,17.8,9.4,270,11,,10.0,29.940945,1012.6,,,TRUE,,,,,,,CLR,,,,,,,,VFR,,,,,,,,,,,,METAR,254.0
KRAC 270053Z AUTO 36005KT 10SM CLR 12/M03 A3032 RMK AO2 SLP268 T01171028,KRAC,2023-05-27T00:53:00Z,42.77,-87.82,11.7,-2.8,360,5,,10.0,30.318897,1026.8,,TRUE,TRUE,,,,,,,CLR,,,,,,,,VFR,,,,,,,,,,,,METAR,203.0
KPWA 270053Z 01004KT 10SM BKN110 23/17 A3005 RMK AO2 SLP163 T02280167,KPWA,2023-05-27T00:53:00Z,35.53,-97.65,22.8,16.7,10,4,,10.0,30.050198,1016.3,,,TRUE,,,,,,,BKN,11000,,,,,,,VFR,,,,,,,,,,,,METAR,390.0
KPUW 270053Z AUTO 25007KT 10SM CLR 22/07 A2989 RMK AO2 LTG DSNT SE SLP112 T02170067,KPUW,2023-05-27T00:53:00Z,46.75,-117.12,21.7,6.7,250,7,,10.0,29.890747,1011.2,,TRUE,TRUE,,,,,,,CLR,,,,,,,,VFR,,,,,,,,,,,,METAR,774.0
KPUC 270053Z AUTO 29009KT 10SM SCT085 BKN110 20/M01 A2991 RMK AO2 SLP068 T02001011,KPUC,2023-05-27T00:53:00Z,39.62,-110.75,20.0,-1.1,290,9,,10.0,29.911417,1006.8,,TRUE,TRUE,,,,,,,SCT,8500,BKN,11000,,,,,VFR,,,,,,,,,,,,METAR,1777.0
KPUB 270053Z 11014G24KT 10SM CLR 21/07 A2996 RMK AO2 PK WND 10028/0017 WSHFT 0004 SLP099 T02110072,KPUB,2023-05-27T00:53:00Z,38.28,-104.5,21.1,7.2,110,14,24,10.0,29.958662,1009.9,,,TRUE,,,,,,,CLR,,,,,,,,VFR,,,,,,,,,,,,METAR,1441.0
KPTK 270053Z 06004KT 10SM SCT250 17/M03 A3031 RMK AO2 SLP265 T01671028,KPTK,2023-05-27T00:53:00Z,42.67,-83.42,16.7,-2.8,60,4,,10.0,30.31004,1026.5,,,TRUE,,,,,,,SCT,25000,,,,,,,VFR,,,,,,,,,,,,METAR,295.0
KPSX 270053Z AUTO 14008KT 10SM CLR 27/19 A2995 RMK AO2 SLP140 T02720194,KPSX,2023-05-27T00:53:00Z,28.72,-96.25,27.2,19.4,140,8,,10.0,29.949802,1014.0,,TRUE,TRUE,,,,,,,CLR,,,,,,,,VFR,,,,,,,,,,,,METAR,4.0
KPSP 270053Z 32016G28KT 10SM CLR 29/08 A2974 RMK AO2 PK WND 32028/0046 SLP069 T02890083,KPSP,2023-05-27T00:53:00Z,33.82,-116.5,28.9,8.3,320,16,28,10.0,29.740158,1006.9,,,TRUE,,,,,,,CLR,,,,,,,,VFR,,,,,,,,,,,,METAR,123.0
KPSC 270053Z 28007KT 10SM CLR 27/07 A2981 RMK AO2 SLP094 T02720067,KPSC,2023-05-27T00:53:00Z,46.27,-119.12,27.2,6.7,280,7,,10.0,29.811024,1009.4,,,TRUE,,,,,,,CLR,,,,,,,,VFR,,,,,,,,,,,,METAR,121.0
KPRC 270053Z 21010G18KT 10SM CLR 22/M04 A2995 RMK AO2 SLP077 T02221039,KPRC,2023-05-27T00:53:00Z,34.65,-112.42,22.2,-3.9,210,10,18,10.0,29.949802,1007.7,,,TRUE,,,,,,,CLR,,,,,,,,VFR,,,,,,,,,,,,METAR,1528.0
KPRB 270053Z AUTO 21016G21KT 10SM CLR 21/09 A2989 RMK AO2 SLP116 T02060094,KPRB,2023-05-27T00:53:00Z,35.67,-120.63,20.6,9.4,210,16,21,10.0,29.890747,1011.6,,TRUE,TRUE,,,,,,,CLR,,,,,,,,VFR,,,,,,,,,,,,METAR,249.0
KPQL 270053Z 03004KT 10SM SCT070 24/17 A2996 RMK AO2 SLP145 T02440167,KPQL,2023-05-27T00:53:00Z,30.47,-88.53,24.4,16.7,30,4,,10.0,29.958662,1014.5,,,TRUE,,,,,,,SCT,7000,,,,,,,VFR,,,,,,,,,,,,METAR,4.0
KPOU 270053Z 00000KT 10SM CLR 14/07 A3023 RMK AO2 SLP235 T01440072,KPOU,2023-05-27T00:53:00Z,41.63,-73.88,14.4,7.2,0,0,,10.0,30.230314,1023.5,,,TRUE,,,,,,,CLR,,,,,,,,VFR,,,,,,,,,,,,METAR,45.0
KPOF 270053Z AUTO 01006KT 10SM CLR 21/07 A3012 RMK AO2 SLP196 T02110072,KPOF,2023-05-27T00:53:00Z,36.77,-90.32,21.1,7.2,10,6,,10.0,30.121063,1019.6,,TRUE,TRUE,,,,,,,CLR,,,,,,,,VFR,,,,,,,,,,,,METAR,99.0
KPNS 270053Z 07007KT 10SM CLR 26/18 A2996 RMK AO2 SLP145 T02560178 $,KPNS,2023-05-27T00:53:00Z,30.48,-87.18,25.6,17.8,70,7,,10.0,29.958662,1014.5,,,TRUE,TRUE,,,,,,CLR,,,,,,,,VFR,,,,,,,,,,,,METAR,34.0
KPNC 270053Z AUTO 13007KT 10SM CLR 26/13 A3005 RMK AO2 SLP166 T02560133,KPNC,2023-05-27T00:53:00Z,36.73,-97.1,25.6,13.3,130,7,,10.0,30.050198,1016.6,,TRUE,TRUE,,,,,,,CLR,,,,,,,,VFR,,,,,,,,,,,,METAR,304.0
KPMP 270053Z AUTO 01004KT 10SM BKN036 24/21 A2983 RMK AO2 LTG DSNT SE SLP102 T02440206,KPMP,2023-05-27T00:53:00Z,26.25,-80.12,24.4,20.6,10,4,,10.0,29.828741,1010.2,,TRUE,TRUE,,,,,,,BKN,3600,,,,,,,VFR,,,,,,,,,,,,METAR,4.0
KPMD 270053Z 21020G27KT 10SM CLR 19/07 A2987 RMK AO2 PK WND 21028/0040 SLP101 T01940072,KPMD,2023-05-27T00:53:00Z,34.63,-118.08,19.4,7.2,210,20,27,10.0,29.870079,1010.1,,,TRUE,,,,,,,CLR,,,,,,,,VFR,,,,,,,,,,,,METAR,764.0
KPKD 270053Z AUTO 15008KT 10SM CLR 25/04 A3014 RMK AO2 SLP205 T02500039,KPKD,2023-05-27T00:53:00Z,46.9,-95.07,25.0,3.9,150,8,,10.0,30.138779,1020.5,,TRUE,TRUE,,,,,,,CLR,,,,,,,,VFR,,,,,,,,,,,,METAR,439.0
KPKB 270053Z 02005KT 10SM CLR 20/02 A3020 RMK AO2 RAB2354E33 SLP224 P0000 T02000017,KPKB,2023-05-27T00:53:00Z,39.35,-81.43,20.0,1.7,20,5,,10.0,30.200787,1022.4,,,TRUE,,,,,,,CLR,,,,,,,,VFR,,,,,,0.005,,,,,,METAR,245.0
KPIR 270053Z AUTO 17013G21KT 10SM FEW060 OVC085 23/12 A2998 RMK AO2 PK WND 16029/0016 SLP142 T02280122,KPIR,2023-05-27T00:53:00Z,44.38,-100.28,22.8,12.2,170,13,21,10.0,29.97933,1014.2,,TRUE,TRUE,,,,,,,FEW,6000,OVC,8500,,,,,VFR,,,,,,,,,,,,METAR,524.0
KPIL 270053Z AUTO 07010KT 10SM CLR 28/22 A2992 RMK AO2 SLP130 T02780217,KPIL,2023-05-27T00:53:00Z,26.17,-97.33,27.8,21.7,70,10,,10.0,29.920275,1013.0,,TRUE,TRUE,,,,,,,CLR,,,,,,,,VFR,,,,,,,,,,,,METAR,5.0
KPIH 270053Z 19010KT 10SM FEW075 14/09 A2994 RMK AO2 RAE42 TSE53 SLP118 P0000 T01390089,KPIH,2023-05-27T00:53:00Z,42.92,-112.57,13.9,8.9,190,10,,10.0,29.940945,1011.8,,,TRUE,,,,,,,FEW,7500,,,,,,,VFR,,,,,,0.005,,,,,,METAR,1357.0
KPHD 270053Z AUTO 03004KT 10SM CLR 17/03 A3024 RMK AO2 SLP241 T01720033,KPHD,2023-05-27T00:53:00Z,40.47,-81.42,17.2,3.3,30,4,,10.0,30.239174,1024.1,,TRUE,TRUE,,,,,,,CLR,,,,,,,,VFR,,,,,,,,,,,,METAR,272.0
KPGA 270053Z AUTO 25007KT 10SM CLR 28/M07 A2980 RMK AO2 SLP028 T02781067,KPGA,2023-05-27T00:53:00Z,36.92,-111.45,27.8,-6.7,250,7,,10.0,29.799213,1002.8,,TRUE,TRUE,,,,,,,CLR,,,,,,,,VFR,,,,,,,,,,,,METAR,1310.0
KPEO 270053Z AUTO 00000KT 10SM CLR 12/01 A3031 RMK AO2 SLP264 T01220011,KPEO,2023-05-27T00:53:00Z,42.65,-77.05,12.2,1.1,0,0,,10.0,30.31004,1026.4,,TRUE,TRUE,,,,,,,CLR,,,,,,,,VFR,,,,,,,,,,,,METAR,268.0
KPDX 270053Z 35007KT 10SM FEW060 29/10 A2983 RMK AO2 SLP100 T02940100,KPDX,2023-05-27T00:53:00Z,45.6,-122.62,29.4,10.0,350,7,,10.0,29.828741,1010.0,,,TRUE,,,,,,,FEW,6000,,,,,,,VFR,,,,,,,,,,,,METAR,7.0
KPDT 270053Z 31007KT 10SM CLR 26/07 A2985 RMK AO2 SLP097 T02560072,KPDT,2023-05-27T00:53:00Z,45.7,-118.83,25.6,7.2,310,7,,10.0,29.84941,1009.7,,,TRUE,,,,,,,CLR,,,,,,,,VFR,,,,,,,,,,,,METAR,453.0
KPDK 270053Z 08007KT 10SM CLR 21/11 A3009 RMK AO2 SLP179 T02110111,KPDK,2023-05-27T00:53:00Z,33.88,-84.3,21.1,11.1,80,7,,10.0,30.088583,1017.9,,,TRUE,,,,,,,CLR,,,,,,,,VFR,,,,,,,,,,,,METAR,299.0
KPBI 270053Z 34004KT 10SM FEW010 FEW030 BKN150 22/21 A2985 RMK AO2 SLP106 T02220206 $,KPBI,2023-05-27T00:53:00Z,26.68,-80.1,22.2,20.6,340,4,,10.0,29.84941,1010.6,,,TRUE,TRUE,,,,,,FEW,1000,FEW,3000,BKN,15000,,,VFR,,,,,,,,,,,,METAR,4.0
KPBG 270053Z AUTO 23003KT 10SM CLR 14/04 A3024 RMK AO2 SLP241 T01390044,KPBG,2023-05-27T00:53:00Z,44.65,-73.47,13.9,4.4,230,3,,10.0,30.239174,1024.1,,TRUE,TRUE,,,,,,,CLR,,,,,,,,VFR,,,,,,,,,,,,METAR,61.0
KPBF 270053Z AUTO 03009KT 10SM CLR 26/09 A3004 RMK AO2 SLP170 T02560089,KPBF,2023-05-27T00:53:00Z,34.18,-91.93,25.6,8.9,30,9,,10.0,30.041338,1017.0,,TRUE,TRUE,,,,,,,CLR,,,,,,,,VFR,,,,,,,,,,,,METAR,63.0
KPAH 270053Z 04003KT 10SM CLR 22/06 A3012 RMK AO2 SLP195 T02170061,KPAH,2023-05-27T00:53:00Z,37.07,-88.77,21.7,6.1,40,3,,10.0,30.121063,1019.5,,,TRUE,,,,,,,CLR,,,,,,,,VFR,,,,,,,,,,,,METAR,125.0
KPAE 270053Z 34006KT 10SM CLR 24/11 A2987 RMK AO2 SLP111 T02390111,KPAE,2023-05-27T00:53:00Z,47.92,-122.28,23.9,11.1,340,6,,10.0,29.870079,1011.1,,,TRUE,,,,,,,CLR,,,,,,,,VFR,,,,,,,,,,,,METAR,166.0
KP68 270053Z AUTO 29007G15KT 13/04 A3000 RMK AO1 SLP118 T01280044,KP68,2023-05-27T00:53:00Z,39.6,-116.0,12.8,4.4,290,7,15,,30.0,1011.8,,TRUE,TRUE,,,,,,,,,,,,,,,,,,,,,,,,,,,METAR,1813.0
KOXB 270053Z AUTO 08005KT 10SM CLR 15/06 A3027 RMK AO2 SLP248 T01500061,KOXB,2023-05-27T00:53:00Z,38.32,-75.12,15.0,6.1,80,5,,10.0,30.268702,1024.8,,TRUE,TRUE,,,,,,,CLR,,,,,,,,VFR,,,,,,,,,,,,METAR,2.0
KOWD 270053Z 18005KT 10SM CLR 14/04 A3025 RMK AO2 SLP244 T01440044,KOWD,2023-05-27T00:53:00Z,42.18,-71.17,14.4,4.4,180,5,,10.0,30.250984,1024.4,,,TRUE,,,,,,,CLR,,,,,,,,VFR,,,,,,,,,,,,METAR,14.0
KOVS 270053Z AUTO 00000KT 10SM CLR 22/02 A3025 RMK AO2 SLP247 T02170022,KOVS,2023-05-27T00:53:00Z,43.15,-90.68,21.7,2.2,0,0,,10.0,30.250984,1024.7,,TRUE,TRUE,,,,,,,CLR,,,,,,,,VFR,,,,,,,,,,,,METAR,205.0
KOTM 270053Z AUTO 14005KT 10SM CLR 21/01 A3021 RMK AO2 SLP227 T02060011,KOTM,2023-05-27T00:53:00Z,41.1,-92.45,20.6,1.1,140,5,,10.0,30.209646,1022.7,,TRUE,TRUE,,,,,,,CLR,,,,,,,,VFR,,,,,,,,,,,,METAR,254.0
KOSU 270053Z 03006KT 10SM CLR 18/03 A3021 RMK AO2 SLP229 T01830033,KOSU,2023-05-27T00:53:00Z,40.08,-83.08,18.3,3.3,30,6,,10.0,30.209646,1022.9,,,TRUE,,,,,,,CLR,,,,,,,,VFR,,,,,,,,,,,,METAR,276.0
KOSH 270053Z 13004KT 10SM CLR 18/02 A3029 RMK AO2 SLP254 T01780022,KOSH,2023-05-27T00:53:00Z,43.98,-88.55,17.8,2.2,130,4,,10.0,30.28937,1025.4,,,TRUE,,,,,,,CLR,,,,,,,,VFR,,,,,,,,,,,,METAR,239.0
KOQT 270053Z AUTO 00000KT 10SM FEW065 22/14 A3010 RMK AO2 SLP181 T02220144,KOQT,2023-05-27T00:53:00Z,36.02,-84.23,22.2,14.4,0,0,,10.0,30.100393,1018.1,,TRUE,TRUE,,,,,,,FEW,6500,,,,,,,VFR,,,,,,,,,,,,METAR,276.0
KOPF 270053Z 02008KT 10SM BKN060 BKN075 24/21 A2984 RMK AO2 SLP106 T02390206 $,KOPF,2023-05-27T00:53:00Z,25.92,-80.28,23.9,20.6,20,8,,10.0,29.840551,1010.6,,,TRUE,TRUE,,,,,,BKN,6000,BKN,7500,,,,,VFR,,,,,,,,,,,,METAR,1.0
KONT 270053Z 26009KT 10SM SCT032 OVC038 17/09 A2994 RMK AO2 SLP134 T01670094,KONT,2023-05-27T00:53:00Z,34.05,-117.58,16.7,9.4,260,9,,10.0,29.940945,1013.4,,,TRUE,,,,,,,SCT,3200,OVC,3800,,,,,VFR,,,,,,,,,,,,METAR,279.0
KONO 270053Z AUTO 04008G17KT 10SM CLR 24/08 A2983 RMK AO2 WSHFT 2340 SLP092 T02440083,KONO,2023-05-27T00:53:00Z,44.02,-117.02,24.4,8.3,40,8,17,10.0,29.828741,1009.2,,TRUE,TRUE,,,,,,,CLR,,,,,,,,VFR,,,,,,,,,,,,METAR,668.0
KOMK 270053Z AUTO 19005KT 10SM CLR 27/08 A2981 RMK AO2 SLP089 T02720078,KOMK,2023-05-27T00:53:00Z,48.47,-119.52,27.2,7.8,190,5,,10.0,29.811024,1008.9,,TRUE,TRUE,,,,,,,CLR,,,,,,,,VFR,,,,,,,,,,,,METAR,395.0
KOLF 270053Z AUTO 05009KT 10SM SCT047 BKN060 23/14 A2990 RMK AO2 SLP119 T02280144,KOLF,2023-05-27T00:53:00Z,48.1,-105.58,22.8,14.4,50,9,,10.0,29.899607,1011.9,,TRUE,TRUE,,,,,,,SCT,4700,BKN,6000,,,,,VFR,,,,,,,,,,,,METAR,605.0
KOJC 270053Z 09006KT 10SM CLR 23/04 A3014 RMK AO2 SLP198 T02330039,KOJC,2023-05-27T00:53:00Z,38.85,-94.73,23.3,3.9,90,6,,10.0,30.138779,1019.8,,,TRUE,,,,,,,CLR,,,,,,,,VFR,,,,,,,,,,,,METAR,328.0
KOGD 270053Z 13007KT 10SM CLR 20/03 A2988 RMK AO2 SLP072 T02000033,KOGD,2023-05-27T00:53:00Z,41.2,-112.02,20.0,3.3,130,7,,10.0,29.878937,1007.2,,,TRUE,,,,,,,CLR,,,,,,,,VFR,,,,,,,,,,,,METAR,1356.0
KOGB 270053Z AUTO 02010KT 10SM BKN110 18/07 A3007 RMK AO2 SLP182 T01830072,KOGB,2023-05-27T00:53:00Z,33.47,-80.85,18.3,7.2,20,10,,10.0,30.070866,1018.2,,TRUE,TRUE,,,,,,,BKN,11000,,,,,,,VFR,,,,,,,,,,,,METAR,59.0
KODX 270053Z AUTO 13012G25KT 10SM CLR 24/11 A3005 RMK AO2 SLP168 T02440111,KODX,2023-05-27T00:53:00Z,41.62,-98.95,24.4,11.1,130,12,25,10.0,30.050198,1016.8,,TRUE,TRUE,,,,,,,CLR,,,,,,,,VFR,,,,,,,,,,,,METAR,628.0
KODO 270053Z AUTO 9SM FEW046 SCT060 27/16 A2999 RMK AO2 SLP112 T02670156 $,KODO,2023-05-27T00:53:00Z,31.92,-102.4,26.7,15.6,,,,9.0,29.991142,1011.2,,TRUE,TRUE,TRUE,,,,,,FEW,4600,SCT,6000,,,,,VFR,,,,,,,,,,,,METAR,912.0
KOAK 270053Z 28014KT 10SM FEW018 SCT025 16/09 A2996 RMK AO2 PK WND 28028/0042 SLP144 T01610094,KOAK,2023-05-27T00:53:00Z,37.72,-122.23,16.1,9.4,280,14,,10.0,29.958662,1014.4,,,TRUE,,,,,,,FEW,1800,SCT,2500,,,,,VFR,,,,,,,,,,,,METAR,3.0
KNUW 270053Z 24007KT 10SM FEW040 SCT070 SCT100 16/11 A2987 RMK AO2 SLP119 T01560106 $,KNUW,2023-05-27T00:53:00Z,48.35,-122.65,15.6,10.6,240,7,,10.0,29.870079,1011.9,,,TRUE,TRUE,,,,,,FEW,4000,SCT,7000,SCT,10000,,,VFR,,,,,,,,,,,,METAR,14.0
KNUI 270053Z AUTO 10008KT 10SM CLR 17/07 A3024 RMK AO2 SLP240 T01720072,KNUI,2023-05-27T00:53:00Z,38.15,-76.43,17.2,7.2,100,8,,10.0,30.239174,1024.0,,TRUE,TRUE,,,,,,,CLR,,,,,,,,VFR,,,,,,,,,,,,METAR,4.0
KNSI 270053Z AUTO 27010KT 260V320 10SM OVC025 16/ A2996 RMK AO2 SLP142 T0156 $,KNSI,2023-05-27T00:53:00Z,33.23,-119.45,15.6,,270,10,,10.0,29.958662,1014.2,,TRUE,TRUE,TRUE,,,,,,OVC,2500,,,,,,,MVFR,,,,,,,,,,,,METAR,161.0
KNRS 270053Z AUTO 31010KT 10SM CLR 18/12 A2996 RMK AO2 SLP146 T01780117 $,KNRS,2023-05-27T00:53:00Z,32.57,-117.12,17.8,11.7,310,10,,10.0,29.958662,1014.6,,TRUE,TRUE,TRUE,,,,,,CLR,,,,,,,,VFR,,,,,,,,,,,,METAR,15.0
KNQX 270053Z 35007KT 10SM SCT025 29/21 A2983 RMK AO2 SLP099 T2 SET T02890206 $,KNQX,2023-05-27T00:53:00Z,24.57,-81.67,28.9,20.6,350,7,,10.0,29.828741,1009.9,,,TRUE,TRUE,,,,,,SCT,2500,,,,,,,VFR,,,,,,,,,,,,METAR,2.0
KNIP 270053Z 02016G30KT 10SM OVC025 21/14 A2998 RMK AO2 PK WND 03034/0033 SLP146 T02060144,KNIP,2023-05-27T00:53:00Z,30.23,-81.67,20.6,14.4,20,16,30,10.0,29.97933,1014.6,,,TRUE,,,,,,,OVC,2500,,,,,,,MVFR,,,,,,,,,,,,METAR,3.0
KNEW 270053Z 14005KT 10SM CLR 27/14 A2996 RMK AO2 SLP137 T02720144,KNEW,2023-05-27T00:53:00Z,30.05,-90.03,27.2,14.4,140,5,,10.0,29.958662,1013.7,,,TRUE,,,,,,,CLR,,,,,,,,VFR,,,,,,,,,,,,METAR,1.0
KMYV 270053Z AUTO 14011KT 10SM CLR 26/12 A2984 RMK AO2 SLP109 T02560117,KMYV,2023-05-27T00:53:00Z,39.1,-121.57,25.6,11.7,140,11,,10.0,29.840551,1010.9,,TRUE,TRUE,,,,,,,CLR,,,,,,,,VFR,,,,,,,,,,,,METAR,18.0
KMYF 270053Z 28011G15KT 10SM SCT029 18/11 A2995 RMK AO2 SLP139 T01830106,KMYF,2023-05-27T00:53:00Z,32.82,-117.13,18.3,10.6,280,11,15,10.0,29.949802,1013.9,,,TRUE,,,,,,,SCT,2900,,,,,,,VFR,,,,,,,,,,,,METAR,128.0
KMWT 270053Z AUTO 00000KT 10SM CLR 24/13 A3004 RMK AO2 SLP163 T02440133,KMWT,2023-05-27T00:53:00Z,34.55,-93.58,24.4,13.3,0,0,,10.0,30.041338,1016.3,,TRUE,TRUE,,,,,,,CLR,,,,,,,,VFR,,,,,,,,,,,,METAR,220.0
KMWL 270053Z AUTO 00000KT 10SM CLR 26/17 A2999 RMK AO2 SLP145 T02610167,KMWL,2023-05-27T00:53:00Z,32.78,-98.07,26.1,16.7,0,0,,10.0,29.991142,1014.5,,TRUE,TRUE,,,,,,,CLR,,,,,,,,VFR,,,,,,,,,,,,METAR,288.0
KMVY 270053Z 15006KT 10SM CLR 11/09 A3028 RMK AO2 SLP253 T01110089,KMVY,2023-05-27T00:53:00Z,41.4,-70.62,11.1,8.9,150,6,,10.0,30.280512,1025.3,,,TRUE,,,,,,,CLR,,,,,,,,VFR,,,,,,,,,,,,METAR,18.0
KMTO 270053Z AUTO 09005KT 10SM CLR 21/03 A3017 RMK AO2 SLP213 T02110028,KMTO,2023-05-27T00:53:00Z,39.47,-88.27,21.1,2.8,90,5,,10.0,30.171259,1021.3,,TRUE,TRUE,,,,,,,CLR,,,,,,,,VFR,,,,,,,,,,,,METAR,216.0
KMTH 270053Z AUTO 33004KT 10SM FEW002 FEW075 28/21 A2981 RMK AO2 SLP095 T02780211,KMTH,2023-05-27T00:53:00Z,24.73,-81.05,27.8,21.1,330,4,,10.0,29.811024,1009.5,,TRUE,TRUE,,,,,,,FEW,200,FEW,7500,,,,,VFR,,,,,,,,,,,,METAR,1.0
KMSY 270053Z 08005KT 10SM FEW070 FEW280 28/13 A2995 RMK AO2 SLP144 T02780133,KMSY,2023-05-27T00:53:00Z,30.0,-90.25,27.8,13.3,80,5,,10.0,29.949802,1014.4,,,TRUE,,,,,,,FEW,7000,FEW,28000,,,,,VFR,,,,,,,,,,,,METAR,0.0
KMSS 270053Z AUTO 00000KT 10SM CLR 12/06 A3026 RMK AO2 SLP249 T01220056,KMSS,2023-05-27T00:53:00Z,44.93,-74.85,12.2,5.6,0,0,,10.0,30.259842,1024.9,,TRUE,TRUE,,,,,,,CLR,,,,,,,,VFR,,,,,,,,,,,,METAR,60.0
KMSP 270053Z 13009KT 10SM FEW250 24/M01 A3020 RMK AO2 SLP224 T02441006,KMSP,2023-05-27T00:53:00Z,44.88,-93.23,24.4,-0.6,130,9,,10.0,30.200787,1022.4,,,TRUE,,,,,,,FEW,25000,,,,,,,VFR,,,,,,,,,,,,METAR,255.0
KMSN 270053Z 11008KT 10SM BKN250 18/M02 A3027 RMK AO2 SLP251 T01831022,KMSN,2023-05-27T00:53:00Z,43.13,-89.35,18.3,-2.2,110,8,,10.0,30.268702,1025.1,,,TRUE,,,,,,,BKN,25000,,,,,,,VFR,,,,,,,,,,,,METAR,262.0
KMSL 270053Z AUTO 08008G19KT 10SM FEW060 SCT070 BKN110 24/14 A3005 RMK AO2 SLP170 T02390144,KMSL,2023-05-27T00:53:00Z,34.75,-87.6,23.9,14.4,80,8,19,10.0,30.050198,1017.0,,TRUE,TRUE,,,,,,,FEW,6000,SCT,7000,BKN,11000,,,VFR,,,,,,,,,,,,METAR,170.0
KMRB 270053Z 00000KT 10SM CLR 14/07 A3023 RMK AO2 SLP237 T01440067,KMRB,2023-05-27T00:53:00Z,39.4,-77.98,14.4,6.7,0,0,,10.0,30.230314,1023.7,,,TRUE,,,,,,,CLR,,,,,,,,VFR,,,,,,,,,,,,METAR,165.0
KMPO 270053Z AUTO 00000KT 10SM CLR 11/02 A3028 RMK AO2 SLP256 T01110022,KMPO,2023-05-27T00:53:00Z,41.13,-75.38,11.1,2.2,0,0,,10.0,30.280512,1025.6,,TRUE,TRUE,,,,,,,CLR,,,,,,,,VFR,,,,,,,,,,,,METAR,576.0
KMOD 270053Z 35008KT 10SM CLR 24/12 A2985 RMK AO2 SLP109 T02440117,KMOD,2023-05-27T00:53:00Z,37.62,-120.95,24.4,11.7,350,8,,10.0,29.84941,1010.9,,,TRUE,,,,,,,CLR,,,,,,,,VFR,,,,,,,,,,,,METAR,25.0
KMNN 270053Z AUTO 05010KT 10SM CLR 16/02 A3025 RMK AO2 SLP245 T01610017,KMNN,2023-05-27T00:53:00Z,40.62,-83.07,16.1,1.7,50,10,,10.0,30.250984,1024.5,,TRUE,TRUE,,,,,,,CLR,,,,,,,,VFR,,,,,,,,,,,,METAR,301.0
KMMV 270053Z AUTO 29007KT 10SM CLR 26/12 A2983 RMK AO2 SLP101 T02610122,KMMV,2023-05-27T00:53:00Z,45.2,-123.13,26.1,12.2,290,7,,10.0,29.828741,1010.1,,TRUE,TRUE,,,,,,,CLR,,,,,,,,VFR,,,,,,,,,,,,METAR,48.0
KMMK 270053Z AUTO 00000KT 10SM CLR 16/05 A3023 RMK AO2 SLP238 T01560050 $,KMMK,2023-05-27T00:53:00Z,41.52,-72.83,15.6,5.0,0,0,,10.0,30.230314,1023.8,,TRUE,TRUE,TRUE,,,,,,CLR,,,,,,,,VFR,,,,,,,,,,,,METAR,30.0
KMLU 270053Z 03007KT 10SM CLR 26/16 A2999 RMK AO2 SLP155 T02610161,KMLU,2023-05-27T00:53:00Z,32.52,-92.03,26.1,16.1,30,7,,10.0,29.991142,1015.5,,,TRUE,,,,,,,CLR,,,,,,,,VFR,,,,,,,,,,,,METAR,22.0
KMLT 270053Z AUTO 00000KT 10SM CLR 11/08 A3016 RMK AO2 SLP219 T01110078,KMLT,2023-05-27T00:53:00Z,45.65,-68.7,11.1,7.8,0,0,,10.0,30.159449,1021.9,,TRUE,TRUE,,,,,,,CLR,,,,,,,,VFR,,,,,,,,,,,,METAR,121.0
KMLS 270053Z AUTO 04012KT 10SM CLR 23/14 A2985 RMK AO2 SLP094 T02280144,KMLS,2023-05-27T00:53:00Z,46.43,-105.88,22.8,14.4,40,12,,10.0,29.84941,1009.4,,TRUE,TRUE,,,,,,,CLR,,,,,,,,VFR,,,,,,,,,,,,METAR,800.0
KMLC 270053Z AUTO 08003KT 10SM FEW055 FEW070 SCT095 23/19 A3004 RMK AO2 SLP163 T02280189,KMLC,2023-05-27T00:53:00Z,34.88,-95.78,22.8,18.9,80,3,,10.0,30.041338,1016.3,,TRUE,TRUE,,,,,,,FEW,5500,FEW,7000,SCT,9500,,,VFR,,,,,,,,,,,,METAR,231.0
KMKO 270053Z AUTO 05010KT 10SM BKN060 OVC095 25/15 A3006 RMK AO2 SLP174 T02500150,KMKO,2023-05-27T00:53:00Z,35.65,-95.37,25.0,15.0,50,10,,10.0,30.059055,1017.4,,TRUE,TRUE,,,,,,,BKN,6000,OVC,9500,,,,,VFR,,,,,,,,,,,,METAR,184.0
KMKL 270053Z AUTO 05004KT 10SM CLR 21/11 A3009 RMK AO2 SLP186 T02060106,KMKL,2023-05-27T00:53:00Z,35.6,-88.92,20.6,10.6,50,4,,10.0,30.088583,1018.6,,TRUE,TRUE,,,,,,,CLR,,,,,,,,VFR,,,,,,,,,,,,METAR,130.0
KMIW 270053Z AUTO 14006KT 10SM CLR 21/02 A3021 RMK AO2 SLP229 T02110017,KMIW,2023-05-27T00:53:00Z,42.12,-92.92,21.1,1.7,140,6,,10.0,30.209646,1022.9,,TRUE,TRUE,,,,,,,CLR,,,,,,,,VFR,,,,,,,,,,,,METAR,296.0
KMIE 270053Z 05010G20KT 10SM -RA CLR 20/M03 A3022 RMK AO2 SLP227 P0000 T02001028,KMIE,2023-05-27T00:53:00Z,40.23,-85.4,20.0,-2.8,50,10,20,10.0,30.221457,1022.7,,,TRUE,,,,,,-RA,CLR,,,,,,,,VFR,,,,,,0.005,,,,,,METAR,286.0
KMIC 270053Z 13006KT 10SM CLR 24/01 A3019 RMK AO2 SLP220 T02390011,KMIC,2023-05-27T00:53:00Z,45.07,-93.35,23.9,1.1,130,6,,10.0,30.188976,1022.0,,,TRUE,,,,,,,CLR,,,,,,,,VFR,,,,,,,,,,,,METAR,263.0
KMIA 270053Z 01005KT 10SM FEW025 BKN080 BKN250 25/22 A2983 RMK AO2 SLP102 CB DSNT NE T02500217 $,KMIA,2023-05-27T00:53:00Z,25.8,-80.32,25.0,21.7,10,5,,10.0,29.828741,1010.2,,,TRUE,TRUE,,,,,,FEW,2500,BKN,8000,BKN,25000,,,VFR,,,,,,,,,,,,METAR,1.0
KMHT 270053Z 15006KT 10SM CLR 15/07 A3023 RMK AO2 SLP250 T01500067,KMHT,2023-05-27T00:53:00Z,42.93,-71.43,15.0,6.7,150,6,,10.0,30.230314,1025.0,,,TRUE,,,,,,,CLR,,,,,,,,VFR,,,,,,,,,,,,METAR,68.0
KMHE 270053Z AUTO 14013KT 10SM CLR 27/07 A3005 RMK AO2 SLP170 T02670067,KMHE,2023-05-27T00:53:00Z,43.77,-98.03,26.7,6.7,140,13,,10.0,30.050198,1017.0,,TRUE,TRUE,,,,,,,CLR,,,,,,,,VFR,,,,,,,,,,,,METAR,397.0
KMGY 270053Z AUTO 07004KT 10SM CLR 20/02 A3019 RMK AO2 SLP220 T02000017,KMGY,2023-05-27T00:53:00Z,39.6,-84.23,20.0,1.7,70,4,,10.0,30.188976,1022.0,,TRUE,TRUE,,,,,,,CLR,,,,,,,,VFR,,,,,,,,,,,,METAR,290.0
KMGW 270053Z 12004KT 10SM CLR 19/03 A3024 RMK AO2 SLP236 T01890028,KMGW,2023-05-27T00:53:00Z,39.65,-79.92,18.9,2.8,120,4,,10.0,30.239174,1023.6,,,TRUE,,,,,,,CLR,,,,,,,,VFR,,,,,,,,,,,,METAR,375.0
KMGM 270053Z 08005KT 10SM CLR 22/16 A3001 RMK AO2 SLP159 T02220161,KMGM,2023-05-27T00:53:00Z,32.3,-86.4,22.2,16.1,80,5,,10.0,30.008858,1015.9,,,TRUE,,,,,,,CLR,,,,,,,,VFR,,,,,,,,,,,,METAR,64.0
KMFE 270053Z 08010KT 10SM CLR 29/19 A2992 RMK AO2 SLP130 T02940194 $,KMFE,2023-05-27T00:53:00Z,26.18,-98.25,29.4,19.4,80,10,,10.0,29.920275,1013.0,,,TRUE,TRUE,,,,,,CLR,,,,,,,,VFR,,,,,,,,,,,,METAR,29.0
KMDW 270053Z 03008KT 10SM SCT250 17/M02 A3027 RMK AO2 SLP249 T01721022,KMDW,2023-05-27T00:53:00Z,41.78,-87.75,17.2,-2.2,30,8,,10.0,30.268702,1024.9,,,TRUE,,,,,,,SCT,25000,,,,,,,VFR,,,,,,,,,,,,METAR,186.0
KMCW 270053Z AUTO 12011KT 10SM CLR 22/M03 A3023 RMK AO2 SLP228 T02221028,KMCW,2023-05-27T00:53:00Z,43.15,-93.33,22.2,-2.8,120,11,,10.0,30.230314,1022.8,,TRUE,TRUE,,,,,,,CLR,,,,,,,,VFR,,,,,,,,,,,,METAR,363.0
KMCO 270053Z 36013KT 10SM SCT022 BKN036 BKN130 22/18 A2990 RMK AO2 PK WND 02026/0021 SLP123 T02220178,KMCO,2023-05-27T00:53:00Z,28.42,-81.33,22.2,17.8,360,13,,10.0,29.899607,1012.3,,,TRUE,,,,,,,SCT,2200,BKN,3600,BKN,13000,,,VFR,,,,,,,,,,,,METAR,27.0
KMCN 270053Z AUTO 08012KT 10SM CLR 21/07 A3007 RMK AO2 SLP178 T02060067,KMCN,2023-05-27T00:53:00Z,32.68,-83.65,20.6,6.7,80,12,,10.0,30.070866,1017.8,,TRUE,TRUE,,,,,,,CLR,,,,,,,,VFR,,,,,,,,,,,,METAR,104.0
KMCK 270053Z AUTO 15012KT 10SM OVC070 22/14 A3004 RMK AO2 SLP156 T02220139,KMCK,2023-05-27T00:53:00Z,40.2,-100.58,22.2,13.9,150,12,,10.0,30.041338,1015.6,,TRUE,TRUE,,,,,,,OVC,7000,,,,,,,VFR,,,,,,,,,,,,METAR,780.0
KMCI 270053Z 08009KT 10SM CLR 22/04 A3015 RMK AO2 SLP204 T02220039,KMCI,2023-05-27T00:53:00Z,39.3,-94.73,22.2,3.9,80,9,,10.0,30.15059,1020.4,,,TRUE,,,,,,,CLR,,,,,,,,VFR,,,,,,,,,,,,METAR,308.0
KMCE 270053Z AUTO VRB06KT 10SM CLR 26/10 A2985 RMK AO2 SLP106 T02610100,KMCE,2023-05-27T00:53:00Z,37.28,-120.5,26.1,10.0,0,6,,10.0,29.84941,1010.6,,TRUE,TRUE,,,,,,,CLR,,,,,,,,VFR,,,,,,,,,,,,METAR,49.0
KMCB 270053Z AUTO 00000KT 10SM CLR 25/14 A2998 RMK AO2 SLP146 T02500139,KMCB,2023-05-27T00:53:00Z,31.18,-90.47,25.0,13.9,0,0,,10.0,29.97933,1014.6,,TRUE,TRUE,,,,,,,CLR,,,,,,,,VFR,,,,,,,,,,,,METAR,124.0
KMBS 270053Z 10004KT 10SM CLR 17/03 A3032 RMK AO2 SLP270 T01670028,KMBS,2023-05-27T00:53:00Z,43.53,-84.08,16.7,2.8,100,4,,10.0,30.318897,1027.0,,,TRUE,,,,,,,CLR,,,,,,,,VFR,,,,,,,,,,,,METAR,201.0
KMAI 270053Z AUTO 05010KT 10SM BKN065 23/16 A2997 RMK AO2 SLP147 T02330161,KMAI,2023-05-27T00:53:00Z,30.83,-85.18,23.3,16.1,50,10,,10.0,29.970472,1014.7,,TRUE,TRUE,,,,,,,BKN,6500,,,,,,,VFR,,,,,,,,,,,,METAR,33.0
KMAF 270053Z 13016KT 10SM BKN041 OVC050 26/18 A2998 RMK AO2 SLP113 T02560178,KMAF,2023-05-27T00:53:00Z,31.95,-102.2,25.6,17.8,130,16,,10.0,29.97933,1011.3,,,TRUE,,,,,,,BKN,4100,OVC,5000,,,,,VFR,,,,,,,,,,,,METAR,874.0
KMAE 270053Z AUTO 28009KT 10SM CLR 27/11 A2986 RMK AO2 SLP108 T02670106,KMAE,2023-05-27T00:53:00Z,36.98,-120.12,26.7,10.6,280,9,,10.0,29.861221,1010.8,,TRUE,TRUE,,,,,,,CLR,,,,,,,,VFR,,,,,,,,,,,,METAR,77.0
KLXT 270053Z AUTO 09006KT 10SM CLR 22/04 A3015 RMK AO2 SLP206 T02170039,KLXT,2023-05-27T00:53:00Z,38.97,-94.37,21.7,3.9,90,6,,10.0,30.15059,1020.6,,TRUE,TRUE,,,,,,,CLR,,,,,,,,VFR,,,,,,,,,,,,METAR,306.0
KLWV 270053Z AUTO 08007KT 10SM CLR 21/05 A3015 RMK AO2 SLP206 T02060050,KLWV,2023-05-27T00:53:00Z,38.77,-87.6,20.6,5.0,80,7,,10.0,30.15059,1020.6,,TRUE,TRUE,,,,,,,CLR,,,,,,,,VFR,,,,,,,,,,,,METAR,128.0
KLWD 270053Z AUTO 10003KT 10SM CLR 21/03 A3020 RMK AO2 SLP224 T02060028,KLWD,2023-05-27T00:53:00Z,40.63,-93.9,20.6,2.8,100,3,,10.0,30.200787,1022.4,,TRUE,TRUE,,,,,,,CLR,,,,,,,,VFR,,,,,,,,,,,,METAR,345.0
KLVS 270053Z AUTO 19016KT 10SM CLR 18/06 A3012 RMK AO2 PK WND 18028/0007 SLP108 T01830056,KLVS,2023-05-27T00:53:00Z,35.65,-105.13,18.3,5.6,190,16,,10.0,30.121063,1010.8,,TRUE,TRUE,,,,,,,CLR,,,,,,,,VFR,,,,,,,,,,,,METAR,2095.0
KLVM 270053Z AUTO 09009KT 10SM -RA SCT065 OVC080 14/12 A2994 RMK AO2 SLP124 P0005 T01390122,KLVM,2023-05-27T00:53:00Z,45.7,-110.43,13.9,12.2,90,9,,10.0,29.940945,1012.4,,TRUE,TRUE,,,,,,-RA,SCT,6500,OVC,8000,,,,,VFR,,,,,,0.05,,,,,,METAR,1418.0
KLVK 270053Z 27015KT 10SM CLR 18/09 A2991 RMK AO2 SLP126 T01780094,KLVK,2023-05-27T00:53:00Z,37.7,-121.82,17.8,9.4,270,15,,10.0,29.911417,1012.6,,,TRUE,,,,,,,CLR,,,,,,,,VFR,,,,,,,,,,,,METAR,120.0
KLVJ 270053Z AUTO 12005KT 7SM BKN075 30/14 A2995 RMK AO2 SLP142 T03000144,KLVJ,2023-05-27T00:53:00Z,29.52,-95.25,30.0,14.4,120,5,,7.0,29.949802,1014.2,,TRUE,TRUE,,,,,,,BKN,7500,,,,,,,VFR,,,,,,,,,,,,METAR,11.0
KLUK 270053Z 03003KT 10SM CLR 20/04 A3018 RMK AO2 SLP218 T02000044,KLUK,2023-05-27T00:53:00Z,39.1,-84.42,20.0,4.4,30,3,,10.0,30.180119,1021.8,,,TRUE,,,,,,,CLR,,,,,,,,VFR,,,,,,,,,,,,METAR,144.0
KLSE 270053Z 00000KT 10SM CLR 23/02 A3024 RMK AO2 SLP236 T02330022,KLSE,2023-05-27T00:53:00Z,43.88,-91.25,23.3,2.2,0,0,,10.0,30.239174,1023.6,,,TRUE,,,,,,,CLR,,,,,,,,VFR,,,,,,,,,,,,METAR,198.0
KLPR 270053Z AUTO 05006KT 10SM CLR 15/M01 A3029 RMK AO2 SLP256 T01501011,KLPR,2023-05-27T00:53:00Z,41.35,-82.18,15.0,-1.1,50,6,,10.0,30.28937,1025.6,,TRUE,TRUE,,,,,,,CLR,,,,,,,,VFR,,,,,,,,,,,,METAR,241.0
KLOZ 270053Z AUTO 04004KT 10SM FEW095 20/13 A3014 RMK AO2 SLP198 T02000128 $,KLOZ,2023-05-27T00:53:00Z,37.08,-84.07,20.0,12.8,40,4,,10.0,30.138779,1019.8,,TRUE,TRUE,TRUE,,,,,,FEW,9500,,,,,,,VFR,,,,,,,,,,,,METAR,361.0
KLOU 270053Z 04006KT 10SM CLR 21/07 A3014 RMK AO2 SLP202 T02110067,KLOU,2023-05-27T00:53:00Z,38.22,-85.67,21.1,6.7,40,6,,10.0,30.138779,1020.2,,,TRUE,,,,,,,CLR,,,,,,,,VFR,,,,,,,,,,,,METAR,165.0
KLNS 270053Z 05003KT 10SM CLR 18/03 A3024 RMK AO2 SLP240 T01780028,KLNS,2023-05-27T00:53:00Z,40.12,-76.3,17.8,2.8,50,3,,10.0,30.239174,1024.0,,,TRUE,,,,,,,CLR,,,,,,,,VFR,,,,,,,,,,,,METAR,122.0
KLND 270053Z AUTO 04008KT 10SM CLR 15/07 A2994 RMK AO2 SLP099 T01500072,KLND,2023-05-27T00:53:00Z,42.82,-108.73,15.0,7.2,40,8,,10.0,29.940945,1009.9,,TRUE,TRUE,,,,,,,CLR,,,,,,,,VFR,,,,,,,,,,,,METAR,1700.0
KLMT 270053Z 33011G19KT 10SM CLR 23/03 A2990 RMK AO2 SLP097 T02330033,KLMT,2023-05-27T00:53:00Z,42.15,-121.72,23.3,3.3,330,11,19,10.0,29.899607,1009.7,,,TRUE,,,,,,,CLR,,,,,,,,VFR,,,,,,,,,,,,METAR,1246.0
KLLQ 270053Z AUTO 00000KT 10SM CLR 25/14 A3002 RMK AO2 SLP163 T02500144,KLLQ,2023-05-27T00:53:00Z,33.63,-91.75,25.0,14.4,0,0,,10.0,30.02067,1016.3,,TRUE,TRUE,,,,,,,CLR,,,,,,,,VFR,,,,,,,,,,,,METAR,86.0
KLKV 270053Z AUTO 04009KT 10SM FEW036 SCT070 BKN090 21/03 A2993 RMK AO2 RAB21E43 SLP117 P0000 T02060033,KLKV,2023-05-27T00:53:00Z,42.17,-120.4,20.6,3.3,40,9,,10.0,29.929134,1011.7,,TRUE,TRUE,,,,,,,FEW,3600,SCT,7000,BKN,9000,,,VFR,,,,,,0.005,,,,,,METAR,1440.0
KLIT 270053Z 06007KT 10SM FEW250 24/09 A3006 RMK AO2 SLP180 T02440094,KLIT,2023-05-27T00:53:00Z,34.73,-92.23,24.4,9.4,60,7,,10.0,30.059055,1018.0,,,TRUE,,,,,,,FEW,25000,,,,,,,VFR,,,,,,,,,,,,METAR,77.0
KLHX 270053Z AUTO 13015KT 10SM BKN110 19/12 A2998 RMK AO2 PK WND 13029/0016 LTG DSNT SE SLP112 T01890122,KLHX,2023-05-27T00:53:00Z,38.05,-103.52,18.9,12.2,130,15,,10.0,29.97933,1011.2,,TRUE,TRUE,,,,,,,BKN,11000,,,,,,,VFR,,,,,,,,,,,,METAR,1289.0
KLHQ 270053Z AUTO 07003KT 10SM CLR 17/05 A3022 RMK AO2 SLP230 T01720050,KLHQ,2023-05-27T00:53:00Z,39.75,-82.67,17.2,5.0,70,3,,10.0,30.221457,1023.0,,TRUE,TRUE,,,,,,,CLR,,,,,,,,VFR,,,,,,,,,,,,METAR,259.0
KLGB 270053Z 30012KT 10SM OVC031 18/10 A2995 RMK AO2 SLP142 T01780100,KLGB,2023-05-27T00:53:00Z,33.82,-118.15,17.8,10.0,300,12,,10.0,29.949802,1014.2,,,TRUE,,,,,,,OVC,3100,,,,,,,VFR,,,,,,,,,,,,METAR,10.0
KLFT 270053Z 04003KT 10SM CLR 27/16 A2996 RMK AO2 SLP144 T02720161,KLFT,2023-05-27T00:53:00Z,30.2,-91.97,27.2,16.1,40,3,,10.0,29.958662,1014.4,,,TRUE,,,,,,,CLR,,,,,,,,VFR,,,,,,,,,,,,METAR,9.0
KLFK 270053Z AUTO 05004KT 10SM CLR 26/17 A2997 RMK AO2 SLP146 T02610167,KLFK,2023-05-27T00:53:00Z,31.23,-94.75,26.1,16.7,50,4,,10.0,29.970472,1014.6,,TRUE,TRUE,,,,,,,CLR,,,,,,,,VFR,,,,,,,,,,,,METAR,87.0
KLEE 270053Z AUTO 01010KT 10SM OVC032 21/17 A2993 RMK AO2 SLP135 T02110167,KLEE,2023-05-27T00:53:00Z,28.82,-81.82,21.1,16.7,10,10,,10.0,29.929134,1013.5,,TRUE,TRUE,,,,,,,OVC,3200,,,,,,,VFR,,,,,,,,,,,,METAR,21.0
KLEB 270053Z 00000KT 10SM CLR 12/04 A3025 RMK AO2 SLP245 T01170044,KLEB,2023-05-27T00:53:00Z,43.63,-72.3,11.7,4.4,0,0,,10.0,30.250984,1024.5,,,TRUE,,,,,,,CLR,,,,,,,,VFR,,,,,,,,,,,,METAR,169.0
KLCH 270053Z 07005KT 10SM BKN090 26/14 A2996 RMK AO2 SLP154 T02610139,KLCH,2023-05-27T00:53:00Z,30.13,-93.22,26.1,13.9,70,5,,10.0,29.958662,1015.4,,,TRUE,,,,,,,BKN,9000,,,,,,,VFR,,,,,,,,,,,,METAR,2.0
KLBX 270053Z AUTO 14005KT 9SM CLR 26/19 A2995 RMK AO2 SLP141 T02610194,KLBX,2023-05-27T00:53:00Z,29.12,-95.47,26.1,19.4,140,5,,9.0,29.949802,1014.1,,TRUE,TRUE,,,,,,,CLR,,,,,,,,VFR,,,,,,,,,,,,METAR,4.0
KLBF 270053Z AUTO 11009KT 10SM CLR 20/16 A3004 RMK AO2 SLP155 T02000156,KLBF,2023-05-27T00:53:00Z,41.12,-100.67,20.0,15.6,110,9,,10.0,30.041338,1015.5,,TRUE,TRUE,,,,,,,CLR,,,,,,,,VFR,,,,,,,,,,,,METAR,843.0
KLBB 270053Z 10014G21KT 10SM SCT030 BKN050 BKN075 BKN130 22/18 A3004 RMK AO2 SLP136 T02170178,KLBB,2023-05-27T00:53:00Z,33.67,-101.82,21.7,17.8,100,14,21,10.0,30.041338,1013.6,,,TRUE,,,,,,,SCT,3000,BKN,5000,BKN,7500,BKN,13000,VFR,,,,,,,,,,,,METAR,996.0
KLAX 270053Z 26015KT 10SM SCT022 BKN048 17/12 A2996 RMK AO2 SLP143 T01720117,KLAX,2023-05-27T00:53:00Z,33.93,-118.38,17.2,11.7,260,15,,10.0,29.958662,1014.3,,,TRUE,,,,,,,SCT,2200,BKN,4800,,,,,VFR,,,,,,,,,,,,METAR,30.0
KLAW 270053Z AUTO 00000KT 9SM OVC095 23/20 A3004 RMK AO2 SLP162 T02330200,KLAW,2023-05-27T00:53:00Z,34.55,-98.42,23.3,20.0,0,0,,9.0,30.041338,1016.2,,TRUE,TRUE,,,,,,,OVC,9500,,,,,,,VFR,,,,,,,,,,,,METAR,328.0
KLAR 270053Z AUTO 15026G35KT 10SM FEW120 14/02 A3002 RMK AO2 PK WND 15035/0050 SLP082 T01440022 $,KLAR,2023-05-27T00:53:00Z,41.32,-105.67,14.4,2.2,150,26,35,10.0,30.02067,1008.2,,TRUE,TRUE,TRUE,,,,,,FEW,12000,,,,,,,VFR,,,,,,,,,,,,METAR,2217.0
KLAN 270053Z 06006KT 10SM CLR 17/02 A3030 RMK AO2 SLP261 T01720017,KLAN,2023-05-27T00:53:00Z,42.78,-84.58,17.2,1.7,60,6,,10.0,30.301182,1026.1,,,TRUE,,,,,,,CLR,,,,,,,,VFR,,,,,,,,,,,,METAR,261.0
KJLN 270053Z 04005KT 10SM CLR 23/09 A3010 RMK AO2 SLP187 T02330089,KJLN,2023-05-27T00:53:00Z,37.15,-94.5,23.3,8.9,40,5,,10.0,30.100393,1018.7,,,TRUE,,,,,,,CLR,,,,,,,,VFR,,,,,,,,,,,,METAR,297.0
KJKL 270053Z AUTO 00000KT 10SM CLR 19/09 A3016 RMK AO2 SLP204 T01940094,KJKL,2023-05-27T00:53:00Z,37.6,-83.32,19.4,9.4,0,0,,10.0,30.159449,1020.4,,TRUE,TRUE,,,,,,,CLR,,,,,,,,VFR,,,,,,,,,,,,METAR,414.0
KJER 270053Z AUTO 26009KT 10SM CLR 17/07 A2992 RMK AO2 SLP112 T01720072,KJER,2023-05-27T00:53:00Z,42.72,-114.45,17.2,7.2,260,9,,10.0,29.920275,1011.2,,TRUE,TRUE,,,,,,,CLR,,,,,,,,VFR,,,,,,,,,,,,METAR,1226.0
KJEF 270053Z 06005KT 10SM CLR 23/02 A3016 RMK AO2 SLP202 T02330017 $,KJEF,2023-05-27T00:53:00Z,38.6,-92.15,23.3,1.7,60,5,,10.0,30.159449,1020.2,,,TRUE,TRUE,,,,,,CLR,,,,,,,,VFR,,,,,,,,,,,,METAR,167.0
KJBR 270053Z AUTO 36006KT 10SM CLR 23/06 A3009 RMK AO2 SLP187 T02330061 $,KJBR,2023-05-27T00:53:00Z,35.83,-90.65,23.3,6.1,360,6,,10.0,30.088583,1018.7,,TRUE,TRUE,TRUE,,,,,,CLR,,,,,,,,VFR,,,,,,,,,,,,METAR,79.0
KIXD 270053Z 09007KT 10SM CLR 24/03 A3014 RMK AO2 SLP199 T02390033,KIXD,2023-05-27T00:53:00Z,38.82,-94.88,23.9,3.3,90,7,,10.0,30.138779,1019.9,,,TRUE,,,,,,,CLR,,,,,,,,VFR,,,,,,,,,,,,METAR,322.0
KIWI 270053Z AUTO 23004KT 10SM CLR 11/07 A3027 RMK AO2 SLP249 T01060067,KIWI,2023-05-27T00:53:00Z,43.97,-69.72,10.6,6.7,230,4,,10.0,30.268702,1024.9,,TRUE,TRUE,,,,,,,CLR,,,,,,,,VFR,,,,,,,,,,,,METAR,16.0
KITR 270053Z AUTO 16024G33KT 10SM CLR 20/13 A3005 RMK AO2 PK WND 16035/0015 LTG DSNT SW SLP137 T02000128,KITR,2023-05-27T00:53:00Z,39.23,-102.28,20.0,12.8,160,24,33,10.0,30.050198,1013.7,,TRUE,TRUE,,,,,,,CLR,,,,,,,,VFR,,,,,,,,,,,,METAR,1285.0
KIPL 270053Z AUTO 26019G30KT 10SM CLR 31/04 A2969 RMK AO2 PK WND 27030/0049 SLP055 T03060044,KIPL,2023-05-27T00:53:00Z,32.83,-115.58,30.6,4.4,260,19,30,10.0,29.68996,1005.5,,TRUE,TRUE,,,,,,,CLR,,,,,,,,VFR,,,,,,,,,,,,METAR,-16.0
KINK 270053Z AUTO 14019G27KT 10SM CLR 28/15 A2993 RMK AO2 PK WND 15027/0041 SLP091 T02780150,KINK,2023-05-27T00:53:00Z,31.78,-103.2,27.8,15.0,140,19,27,10.0,29.929134,1009.1,,TRUE,TRUE,,,,,,,CLR,,,,,,,,VFR,,,,,,,,,,,,METAR,857.0
KIML 270053Z AUTO 15017G31KT 10SM FEW055 21/15 A3003 RMK AO2 PK WND 15034/0028 SLP150 T02110150,KIML,2023-05-27T00:53:00Z,40.52,-101.62,21.1,15.0,150,17,31,10.0,30.029528,1015.0,,TRUE,TRUE,,,,,,,FEW,5500,,,,,,,VFR,,,,,,,,,,,,METAR,997.0
KILM 270053Z 03013KT 10SM -RA FEW040 SCT095 OVC120 16/13 A3007 RMK AO2 SLP182 P0002 T01610128,KILM,2023-05-27T00:53:00Z,34.27,-77.9,16.1,12.8,30,13,,10.0,30.070866,1018.2,,,TRUE,,,,,,-RA,FEW,4000,SCT,9500,OVC,12000,,,VFR,,,,,,0.02,,,,,,METAR,9.0
KIDA 270053Z 24018G29KT 10SM FEW090 18/06 A2992 RMK AO2 PK WND 23029/0045 SLP105 T01780061,KIDA,2023-05-27T00:53:00Z,43.52,-112.07,17.8,6.1,240,18,29,10.0,29.920275,1010.5,,,TRUE,,,,,,,FEW,9000,,,,,,,VFR,,,,,,,,,,,,METAR,1444.0
KICT 270053Z 12010KT 10SM SCT075 SCT250 26/12 A3006 RMK AO2 SLP168 T02560122,KICT,2023-05-27T00:53:00Z,37.65,-97.43,25.6,12.2,120,10,,10.0,30.059055,1016.8,,,TRUE,,,,,,,SCT,7500,SCT,25000,,,,,VFR,,,,,,,,,,,,METAR,428.0
KICR 270053Z AUTO 14006KT 9SM SCT070 BKN095 22/14 A3002 RMK AO2 SLP157 T02170144,KICR,2023-05-27T00:53:00Z,43.38,-99.85,21.7,14.4,140,6,,9.0,30.02067,1015.7,,TRUE,TRUE,,,,,,,SCT,7000,BKN,9500,,,,,VFR,,,,,,,,,,,,METAR,618.0
KIAH 270053Z 03005KT 7SM FEW080 FEW180 SCT250 27/14 A2994 RMK AO2 SLP139 T02720139,KIAH,2023-05-27T00:53:00Z,30.0,-95.37,27.2,13.9,30,5,,7.0,29.940945,1013.9,,,TRUE,,,,,,,FEW,8000,FEW,18000,SCT,25000,,,VFR,,,,,,,,,,,,METAR,27.0
KIAG 270053Z 00000KT 10SM CLR 18/02 A3030 RMK AO2 SLP262 T01830017,KIAG,2023-05-27T00:53:00Z,43.12,-78.93,18.3,1.7,0,0,,10.0,30.301182,1026.2,,,TRUE,,,,,,,CLR,,,,,,,,VFR,,,,,,,,,,,,METAR,179.0
KHZY 270053Z AUTO 04003KT 10SM CLR 14/03 A3031 RMK AO2 SLP264 T01390028,KHZY,2023-05-27T00:53:00Z,41.78,-80.7,13.9,2.8,40,3,,10.0,30.31004,1026.4,,TRUE,TRUE,,,,,,,CLR,,,,,,,,VFR,,,,,,,,,,,,METAR,279.0
KHYR 270053Z AUTO 21003KT 10SM CLR 22/01 A3025 RMK AO2 SLP242 T02170006,KHYR,2023-05-27T00:53:00Z,46.02,-91.45,21.7,0.6,210,3,,10.0,30.250984,1024.2,,TRUE,TRUE,,,,,,,CLR,,,,,,,,VFR,,,,,,,,,,,,METAR,369.0
KHWO 270053Z AUTO 01004KT 10SM BKN070 OVC085 23/21 A2985 RMK AO2 SLP106 T02330211,KHWO,2023-05-27T00:53:00Z,26.0,-80.23,23.3,21.1,10,4,,10.0,29.84941,1010.6,,TRUE,TRUE,,,,,,,BKN,7000,OVC,8500,,,,,VFR,,,,,,,,,,,,METAR,2.0
KHVR 270053Z AUTO 24005KT 10SM OVC090 18/13 A2992 RMK AO2 RAB2359E26 SLP128 P0000 T01780133,KHVR,2023-05-27T00:53:00Z,48.55,-109.77,17.8,13.3,240,5,,10.0,29.920275,1012.8,,TRUE,TRUE,,,,,,,OVC,9000,,,,,,,VFR,,,,,,0.005,,,,,,METAR,789.0
KHVN 270053Z 03003KT 10SM CLR 15/09 A3024 RMK AO2 SLP239 T01500094,KHVN,2023-05-27T00:53:00Z,41.27,-72.88,15.0,9.4,30,3,,10.0,30.239174,1023.9,,,TRUE,,,,,,,CLR,,,,,,,,VFR,,,,,,,,,,,,METAR,4.0
KHUL 270053Z AUTO 20004KT 10SM CLR 09/06 A3011 RMK AO2 SLP202 T00890061,KHUL,2023-05-27T00:53:00Z,46.12,-67.8,8.9,6.1,200,4,,10.0,30.109253,1020.2,,TRUE,TRUE,,,,,,,CLR,,,,,,,,VFR,,,,,,,,,,,,METAR,148.0
KHUF 270053Z 04005KT 10SM CLR 19/06 A3017 RMK AO2 SLP214 T01940056,KHUF,2023-05-27T00:53:00Z,39.45,-87.32,19.4,5.6,40,5,,10.0,30.171259,1021.4,,,TRUE,,,,,,,CLR,,,,,,,,VFR,,,,,,,,,,,,METAR,174.0
KHTL 270053Z AUTO 16007KT 10SM CLR 18/03 A3031 RMK AO2 SLP265 T01780028 $,KHTL,2023-05-27T00:53:00Z,44.35,-84.67,17.8,2.8,160,7,,10.0,30.31004,1026.5,,TRUE,TRUE,TRUE,,,,,,CLR,,,,,,,,VFR,,,,,,,,,,,,METAR,350.0
KHSV 270053Z 36003KT 10SM SCT060 SCT070 22/14 A3006 RMK AO2 SLP172 T02220144,KHSV,2023-05-27T00:53:00Z,34.65,-86.78,22.2,14.4,360,3,,10.0,30.059055,1017.2,,,TRUE,,,,,,,SCT,6000,SCT,7000,,,,,VFR,,,,,,,,,,,,METAR,190.0
KHSI 270053Z AUTO 13015G25KT 10SM OVC100 25/11 A3008 RMK AO2 SLP173 T02500111,KHSI,2023-05-27T00:53:00Z,40.6,-98.43,25.0,11.1,130,15,25,10.0,30.079725,1017.3,,TRUE,TRUE,,,,,,,OVC,10000,,,,,,,VFR,,,,,,,,,,,,METAR,592.0
KHRO 270053Z AUTO 08004KT 10SM CLR 22/08 A3012 RMK AO2 SLP187 T02170078,KHRO,2023-05-27T00:53:00Z,36.27,-93.15,21.7,7.8,80,4,,10.0,30.121063,1018.7,,TRUE,TRUE,,,,,,,CLR,,,,,,,,VFR,,,,,,,,,,,,METAR,417.0
KHQM 270053Z AUTO 29012KT 10SM OVC007 14/11 A2995 RMK AO2 SLP144 T01440111,KHQM,2023-05-27T00:53:00Z,46.97,-123.93,14.4,11.1,290,12,,10.0,29.949802,1014.4,,TRUE,TRUE,,,,,,,OVC,700,,,,,,,IFR,,,,,,,,,,,,METAR,4.0
KHOU 270053Z 06007KT 10SM FEW075 SCT250 30/13 A2994 RMK AO2 SLP142 T03000128,KHOU,2023-05-27T00:53:00Z,29.63,-95.28,30.0,12.8,60,7,,10.0,29.940945,1014.2,,,TRUE,,,,,,,FEW,7500,SCT,25000,,,,,VFR,,,,,,,,,,,,METAR,13.0
KHOT 270053Z AUTO 08006KT 10SM CLR 25/13 A3006 RMK AO2 SLP172 T02500128,KHOT,2023-05-27T00:53:00Z,34.48,-93.1,25.0,12.8,80,6,,10.0,30.059055,1017.2,,TRUE,TRUE,,,,,,,CLR,,,,,,,,VFR,,,,,,,,,,,,METAR,153.0
KHLN 270053Z 36007KT 10SM BKN040 BKN055 BKN075 16/11 A2994 RMK AO2 SLP138 T01610106,KHLN,2023-05-27T00:53:00Z,46.6,-111.98,16.1,10.6,360,7,,10.0,29.940945,1013.8,,,TRUE,,,,,,,BKN,4000,BKN,5500,BKN,7500,,,VFR,,,,,,,,,,,,METAR,1178.0
KHLG 270053Z 03006KT 10SM CLR 19/00 A3024 RMK AO2 SLP239 T01890000,KHLG,2023-05-27T00:53:00Z,40.17,-80.65,18.9,0.0,30,6,,10.0,30.239174,1023.9,,,TRUE,,,,,,,CLR,,,,,,,,VFR,,,,,,,,,,,,METAR,365.0
KHLC 270053Z AUTO 15010G20KT 10SM BKN100 25/12 A3004 RMK AO2 SLP155 T02500122,KHLC,2023-05-27T00:53:00Z,39.37,-99.83,25.0,12.2,150,10,20,10.0,30.041338,1015.5,,TRUE,TRUE,,,,,,,BKN,10000,,,,,,,VFR,,,,,,,,,,,,METAR,667.0
KHKY 270053Z AUTO 07008KT 10SM CLR 18/06 A3018 RMK AO2 SLP205 T01780056,KHKY,2023-05-27T00:53:00Z,35.75,-81.38,17.8,5.6,70,8,,10.0,30.180119,1020.5,,TRUE,TRUE,,,,,,,CLR,,,,,,,,VFR,,,,,,,,,,,,METAR,357.0
KHKS 270053Z 00000KT 10SM CLR 26/14 A2999 RMK AO2 SLP147 T02560144,KHKS,2023-05-27T00:53:00Z,32.33,-90.22,25.6,14.4,0,0,,10.0,29.991142,1014.7,,,TRUE,,,,,,,CLR,,,,,,,,VFR,,,,,,,,,,,,METAR,103.0
KHKA 270053Z AUTO 03007KT 10SM CLR 23/07 A3009 RMK AO2 SLP186 T02280072 $,KHKA,2023-05-27T00:53:00Z,35.93,-89.83,22.8,7.2,30,7,,10.0,30.088583,1018.6,,TRUE,TRUE,TRUE,,,,,,CLR,,,,,,,,VFR,,,,,,,,,,,,METAR,78.0
KHJO 270053Z AUTO VRB05KT 10SM CLR 27/11 A2985 RMK AO2 SLP109 T02720111,KHJO,2023-05-27T00:53:00Z,36.32,-119.62,27.2,11.1,0,5,,10.0,29.84941,1010.9,,TRUE,TRUE,,,,,,,CLR,,,,,,,,VFR,,,,,,,,,,,,METAR,73.0
KHIO 270053Z 33014KT 10SM FEW050 28/11 A2983 RMK AO2 SLP099 T02780106,KHIO,2023-05-27T00:53:00Z,45.55,-122.95,27.8,10.6,330,14,,10.0,29.828741,1009.9,,,TRUE,,,,,,,FEW,5000,,,,,,,VFR,,,,,,,,,,,,METAR,62.0
KHIB 270053Z AUTO 22003KT 10SM CLR 23/02 A3018 RMK AO2 SLP223 T02330017,KHIB,2023-05-27T00:53:00Z,47.38,-92.83,23.3,1.7,220,3,,10.0,30.180119,1022.3,,TRUE,TRUE,,,,,,,CLR,,,,,,,,VFR,,,,,,,,,,,,METAR,409.0
KHGR 270053Z 05006KT 10SM CLR 19/02 A3024 RMK AO2 SLP250 T01890022,KHGR,2023-05-27T00:53:00Z,39.7,-77.73,18.9,2.2,50,6,,10.0,30.239174,1025.0,,,TRUE,,,,,,,CLR,,,,,,,,VFR,,,,,,,,,,,,METAR,206.0
KHFD 270053Z 36003KT 10SM CLR 20/02 A3023 RMK AO2 SLP235 T02000022,KHFD,2023-05-27T00:53:00Z,41.73,-72.65,20.0,2.2,360,3,,10.0,30.230314,1023.5,,,TRUE,,,,,,,CLR,,,,,,,,VFR,,,,,,,,,,,,METAR,3.0
KHEI 270053Z AUTO 14016G23KT 10SM FEW055 23/14 A2992 RMK AO2 PK WND 16029/0008 SLP120 T02280139,KHEI,2023-05-27T00:53:00Z,46.02,-102.65,22.8,13.9,140,16,23,10.0,29.920275,1012.0,,TRUE,TRUE,,,,,,,FEW,5500,,,,,,,VFR,,,,,,,,,,,,METAR,824.0
KHBG 270053Z AUTO 00000KT 10SM CLR 23/16 A2999 RMK AO2 SLP152 T02330161,KHBG,2023-05-27T00:53:00Z,31.27,-89.25,23.3,16.1,0,0,,10.0,29.991142,1015.2,,TRUE,TRUE,,,,,,,CLR,,,,,,,,VFR,,,,,,,,,,,,METAR,45.0
KHAO 270053Z AUTO 07004KT 10SM CLR 19/03 A3019 RMK AO2 SLP223 T01890028,KHAO,2023-05-27T00:53:00Z,39.37,-84.52,18.9,2.8,70,4,,10.0,30.188976,1022.3,,TRUE,TRUE,,,,,,,CLR,,,,,,,,VFR,,,,,,,,,,,,METAR,185.0
KGZH 270053Z AUTO 03003KT 10SM CLR 22/17 A2999 RMK AO2 SLP153 T02220172,KGZH,2023-05-27T00:53:00Z,31.42,-87.05,22.2,17.2,30,3,,10.0,29.991142,1015.3,,TRUE,TRUE,,,,,,,CLR,,,,,,,,VFR,,,,,,,,,,,,METAR,77.0
KGWO 270053Z AUTO 03006KT 10SM CLR 25/17 A3001 RMK AO2 SLP161 T02500167,KGWO,2023-05-27T00:53:00Z,33.5,-90.08,25.0,16.7,30,6,,10.0,30.008858,1016.1,,TRUE,TRUE,,,,,,,CLR,,,,,,,,VFR,,,,,,,,,,,,METAR,42.0
KGVL 270053Z AUTO 10008KT 10SM CLR 19/10 A3014 RMK AO2 SLP195 T01890100,KGVL,2023-05-27T00:53:00Z,34.27,-83.83,18.9,10.0,100,8,,10.0,30.138779,1019.5,,TRUE,TRUE,,,,,,,CLR,,,,,,,,VFR,,,,,,,,,,,,METAR,387.0
KGUY 270053Z AUTO 15010KT 10SM BKN045 21/15 A3004 RMK AO2 SLP140 T02110150,KGUY,2023-05-27T00:53:00Z,36.68,-101.5,21.1,15.0,150,10,,10.0,30.041338,1014.0,,TRUE,TRUE,,,,,,,BKN,4500,,,,,,,VFR,,,,,,,,,,,,METAR,950.0
KGUP 270053Z AUTO 24023G29KT 10SM CLR 24/M08 A2998 RMK AO2 PK WND 23036/0005 SLP041 T02391078,KGUP,2023-05-27T00:53:00Z,35.52,-108.8,23.9,-7.8,240,23,29,10.0,29.97933,1004.1,,TRUE,TRUE,,,,,,,CLR,,,,,,,,VFR,,,,,,,,,,,,METAR,1972.0
KGTF 270053Z 12007KT 10SM OVC090 16/12 A2995 RMK AO2 SLP137 T01560117,KGTF,2023-05-27T00:53:00Z,47.47,-111.38,15.6,11.7,120,7,,10.0,29.949802,1013.7,,,TRUE,,,,,,,OVC,9000,,,,,,,VFR,,,,,,,,,,,,METAR,1117.0
KGSP 270053Z 07006KT 10SM CLR 18/07 A3016 RMK AO2 SLP206 T01830067,KGSP,2023-05-27T00:53:00Z,34.9,-82.22,18.3,6.7,70,6,,10.0,30.159449,1020.6,,,TRUE,,,,,,,CLR,,,,,,,,VFR,,,,,,,,,,,,METAR,285.0
KGSH 270053Z AUTO 10006KT 10SM CLR 18/01 A3026 RMK AO2 SLP245 T01830011,KGSH,2023-05-27T00:53:00Z,41.53,-85.78,18.3,1.1,100,6,,10.0,30.259842,1024.5,,TRUE,TRUE,,,,,,,CLR,,,,,,,,VFR,,,,,,,,,,,,METAR,252.0
KGRR 270053Z 09005KT 10SM SCT250 19/02 A3029 RMK AO2 SLP258 T01890017,KGRR,2023-05-27T00:53:00Z,42.88,-85.52,18.9,1.7,90,5,,10.0,30.28937,1025.8,,,TRUE,,,,,,,SCT,25000,,,,,,,VFR,,,,,,,,,,,,METAR,239.0
KGRI 270053Z 13011KT 10SM CLR 25/12 A3008 RMK AO2 SLP179 T02500117,KGRI,2023-05-27T00:53:00Z,40.97,-98.32,25.0,11.7,130,11,,10.0,30.079725,1017.9,,,TRUE,,,,,,,CLR,,,,,,,,VFR,,,,,,,,,,,,METAR,562.0
KGRB 270053Z 15010KT 10SM CLR 19/M01 A3030 RMK AO2 SLP261 T01891011,KGRB,2023-05-27T00:53:00Z,44.48,-88.13,18.9,-1.1,150,10,,10.0,30.301182,1026.1,,,TRUE,,,,,,,CLR,,,,,,,,VFR,,,,,,,,,,,,METAR,209.0
KGPT 270053Z AUTO 27003KT 10SM CLR 24/17 A2995 RMK AO2 SLP141 T02440172,KGPT,2023-05-27T00:53:00Z,30.42,-89.08,24.4,17.2,270,3,,10.0,29.949802,1014.1,,TRUE,TRUE,,,,,,,CLR,,,,,,,,VFR,,,,,,,,,,,,METAR,5.0
KGOK 270053Z AUTO 00000KT 9SM SCT120 22/17 A3004 RMK AO2 SLP165 T02220172,KGOK,2023-05-27T00:53:00Z,35.85,-97.4,22.2,17.2,0,0,,9.0,30.041338,1016.5,,TRUE,TRUE,,,,,,,SCT,12000,,,,,,,VFR,,,,,,,,,,,,METAR,326.0
KGNV 270053Z 02011G18KT 10SM BKN027 BKN033 OVC044 22/16 A2998 RMK AO2 SLP149 T02170156 $,KGNV,2023-05-27T00:53:00Z,29.7,-82.28,21.7,15.6,20,11,18,10.0,29.97933,1014.9,,,TRUE,TRUE,,,,,,BKN,2700,BKN,3300,OVC,4400,,,MVFR,,,,,,,,,,,,METAR,41.0
KGMU 270053Z 06007KT 10SM CLR 20/07 A3016 RMK AO2 SLP205 T02000067,KGMU,2023-05-27T00:53:00Z,34.85,-82.35,20.0,6.7,60,7,,10.0,30.159449,1020.5,,,TRUE,,,,,,,CLR,,,,,,,,VFR,,,,,,,,,,,,METAR,309.0
KGLR 270053Z AUTO VRB03KT 10SM CLR 18/M03 A3032 RMK AO2 SLP267 T01781033,KGLR,2023-05-27T00:53:00Z,45.02,-84.68,17.8,-3.3,0,3,,10.0,30.318897,1026.7,,TRUE,TRUE,,,,,,,CLR,,,,,,,,VFR,,,,,,,,,,,,METAR,403.0
KGLH 270053Z 04005KT 10SM CLR 26/14 A3000 RMK AO2 SLP164 T02610144 $,KGLH,2023-05-27T00:53:00Z,33.47,-90.98,26.1,14.4,40,5,,10.0,30.0,1016.4,,,TRUE,TRUE,,,,,,CLR,,,,,,,,VFR,,,,,,,,,,,,METAR,40.0
KGLD 270053Z AUTO 17020G28KT 10SM SCT065 21/12 A3005 RMK AO2 PK WND 17033/0002 SLP142 T02110122,KGLD,2023-05-27T00:53:00Z,39.37,-101.7,21.1,12.2,170,20,28,10.0,30.050198,1014.2,,TRUE,TRUE,,,,,,,SCT,6500,,,,,,,VFR,,,,,,,,,,,,METAR,1111.0
KGKY 270053Z 09005KT 10SM CLR 28/12 A3000 RMK AO2 SLP152 T02780122,KGKY,2023-05-27T00:53:00Z,32.67,-97.1,27.8,12.2,90,5,,10.0,30.0,1015.2,,,TRUE,,,,,,,CLR,,,,,,,,VFR,,,,,,,,,,,,METAR,189.0
KGKJ 270053Z AUTO 04007KT 10SM CLR 14/02 A3029 RMK AO2 SLP258 T01440022,KGKJ,2023-05-27T00:53:00Z,41.63,-80.22,14.4,2.2,40,7,,10.0,30.28937,1025.8,,TRUE,TRUE,,,,,,,CLR,,,,,,,,VFR,,,,,,,,,,,,METAR,428.0
KGJT 270053Z 17017G23KT 10SM CLR 28/M06 A2980 RMK AO2 PK WND 16032/0003 WSHFT 2351 SLP024 T02781061,KGJT,2023-05-27T00:53:00Z,39.13,-108.53,27.8,-6.1,170,17,23,10.0,29.799213,1002.4,,,TRUE,,,,,,,CLR,,,,,,,,VFR,,,,,,,,,,,,METAR,1475.0
KGIF 270053Z AUTO 02012KT 10SM BKN120 22/18 A2991 RMK AO2 RAB21E36 SLP124 P0000 T02220183,KGIF,2023-05-27T00:53:00Z,28.07,-81.75,22.2,18.3,20,12,,10.0,29.911417,1012.4,,TRUE,TRUE,,,,,,,BKN,12000,,,,,,,VFR,,,,,,0.005,,,,,,METAR,44.0
KGGW 270053Z AUTO 32005KT 10SM BKN044 23/15 A2990 RMK AO2 SLP117 T02280150,KGGW,2023-05-27T00:53:00Z,48.22,-106.62,22.8,15.0,320,5,,10.0,29.899607,1011.7,,TRUE,TRUE,,,,,,,BKN,4400,,,,,,,VFR,,,,,,,,,,,,METAR,698.0
KGGG 270053Z 07003KT 10SM CLR 26/16 A2999 RMK AO2 SLP150 T02560161,KGGG,2023-05-27T00:53:00Z,32.38,-94.72,25.6,16.1,70,3,,10.0,29.991142,1015.0,,,TRUE,,,,,,,CLR,,,,,,,,VFR,,,,,,,,,,,,METAR,107.0
KGFL 270053Z AUTO 00000KT 10SM CLR 12/06 A3025 RMK AO2 SLP246 T01170061,KGFL,2023-05-27T00:53:00Z,43.33,-73.62,11.7,6.1,0,0,,10.0,30.250984,1024.6,,TRUE,TRUE,,,,,,,CLR,,,,,,,,VFR,,,,,,,,,,,,METAR,99.0
KGFK 270053Z 20016G27KT 10SM FEW090 29/09 A2998 RMK AO2 PK WND 20028/0027 SLP149 T02940094,KGFK,2023-05-27T00:53:00Z,47.95,-97.18,29.4,9.4,200,16,27,10.0,29.97933,1014.9,,,TRUE,,,,,,,FEW,9000,,,,,,,VFR,,,,,,,,,,,,METAR,256.0
KGEZ 270053Z AUTO 06006KT 10SM CLR 22/01 A3018 RMK AO2 SLP215 T02170011,KGEZ,2023-05-27T00:53:00Z,39.58,-85.8,21.7,1.1,60,6,,10.0,30.180119,1021.5,,TRUE,TRUE,,,,,,,CLR,,,,,,,,VFR,,,,,,,,,,,,METAR,245.0
KGCC 270053Z AUTO 19008KT 10SM FEW050 FEW070 FEW100 17/09 A2987 RMK AO2 PK WND 18031/2354 WSHFT 2346 LTG DSNT N-SE RAB25E38 SLP087 P0000 T01670094,KGCC,2023-05-27T00:53:00Z,44.33,-105.55,16.7,9.4,190,8,,10.0,29.870079,1008.7,,TRUE,TRUE,,,,,,,FEW,5000,FEW,7000,FEW,10000,,,VFR,,,,,,0.005,,,,,,METAR,1328.0
KGAG 270053Z AUTO 16007KT 10SM CLR 23/16 A3006 RMK AO2 SLP159 T02280156 $,KGAG,2023-05-27T00:53:00Z,36.3,-99.77,22.8,15.6,160,7,,10.0,30.059055,1015.9,,TRUE,TRUE,TRUE,,,,,,CLR,,,,,,,,VFR,,,,,,,,,,,,METAR,670.0
KFYV 270053Z 00000KT 10SM CLR 23/12 A3009 RMK AO2 SLP179 T02280117,KFYV,2023-05-27T00:53:00Z,36.02,-94.17,22.8,11.7,0,0,,10.0,30.088583,1017.9,,,TRUE,,,,,,,CLR,,,,,,,,VFR,,,,,,,,,,,,METAR,377.0
KFXE 270053Z 01003KT 10SM CLR 23/22 A2983 RMK AO2 LTG DSNT E SLP103 T02330222 PNO,KFXE,2023-05-27T00:53:00Z,26.2,-80.18,23.3,22.2,10,3,,10.0,29.828741,1010.3,,,TRUE,,,,,,,CLR,,,,,,,,VFR,,,,,,,,,,,,METAR,3.0
KFWN 270053Z AUTO 00000KT 10SM CLR 14/06 A3026 RMK AO2 SLP245 T01440061,KFWN,2023-05-27T00:53:00Z,41.2,-74.63,14.4,6.1,0,0,,10.0,30.259842,1024.5,,TRUE,TRUE,,,,,,,CLR,,,,,,,,VFR,,,,,,,,,,,,METAR,129.0
KFVE 270053Z AUTO 29006KT 10SM CLR 14/01 A3008 RMK AO2 SLP189 T01440006,KFVE,2023-05-27T00:53:00Z,47.28,-68.3,14.4,0.6,290,6,,10.0,30.079725,1018.9,,TRUE,TRUE,,,,,,,CLR,,,,,,,,VFR,,,,,,,,,,,,METAR,299.0
KFUL 270053Z 25008KT 10SM BKN035 18/10 A2994 RMK AO2 SLP137 T01830100,KFUL,2023-05-27T00:53:00Z,33.87,-117.98,18.3,10.0,250,8,,10.0,29.940945,1013.7,,,TRUE,,,,,,,BKN,3500,,,,,,,VFR,,,,,,,,,,,,METAR,23.0
KFTY 270053Z 10004KT 10SM CLR 23/12 A3008 RMK AO2 SLP178 T02280117,KFTY,2023-05-27T00:53:00Z,33.78,-84.52,22.8,11.7,100,4,,10.0,30.079725,1017.8,,,TRUE,,,,,,,CLR,,,,,,,,VFR,,,,,,,,,,,,METAR,245.0
KFTW 270053Z 10006KT 10SM CLR 27/11 A3000 RMK AO2 SLP150 T02720111,KFTW,2023-05-27T00:53:00Z,32.83,-97.37,27.2,11.1,100,6,,10.0,30.0,1015.0,,,TRUE,,,,,,,CLR,,,,,,,,VFR,,,,,,,,,,,,METAR,213.0
KFST 270053Z AUTO 13015G24KT 10SM CLR 24/17 A2996 RMK AO2 PK WND 13034/0035 LTG DSNT NW SLP103 T02440167,KFST,2023-05-27T00:53:00Z,30.92,-102.92,24.4,16.7,130,15,24,10.0,29.958662,1010.3,,TRUE,TRUE,,,,,,,CLR,,,,,,,,VFR,,,,,,,,,,,,METAR,917.0
KFSM 270053Z 05005KT 10SM BKN090 BKN120 26/17 A3004 RMK AO2 SLP167 T02560167,KFSM,2023-05-27T00:53:00Z,35.33,-94.37,25.6,16.7,50,5,,10.0,30.041338,1016.7,,,TRUE,,,,,,,BKN,9000,BKN,12000,,,,,VFR,,,,,,,,,,,,METAR,136.0
KFRG 270053Z AUTO 20006KT 10SM CLR 16/07 A3026 RMK AO2 SLP247 T01610072 $,KFRG,2023-05-27T00:53:00Z,40.73,-73.42,16.1,7.2,200,6,,10.0,30.259842,1024.7,,TRUE,TRUE,TRUE,,,,,,CLR,,,,,,,,VFR,,,,,,,,,,,,METAR,23.0
KFPR 270053Z AUTO 01008G19KT 10SM FEW028 BKN037 OVC045 24/20 A2983 RMK AO2 SLP101 T02390200,KFPR,2023-05-27T00:53:00Z,27.5,-80.38,23.9,20.0,10,8,19,10.0,29.828741,1010.1,,TRUE,TRUE,,,,,,,FEW,2800,BKN,3700,OVC,4500,,,VFR,,,,,,,,,,,,METAR,7.0
KFOK 270053Z 25003KT 10SM CLR 14/06 A3026 RMK AO2 SLP247 T01390061,KFOK,2023-05-27T00:53:00Z,40.85,-72.62,13.9,6.1,250,3,,10.0,30.259842,1024.7,,,TRUE,,,,,,,CLR,,,,,,,,VFR,,,,,,,,,,,,METAR,13.0
KFOE 270053Z 09006KT 10SM CLR 23/06 A3012 RMK AO2 SLP191 T02330056 $,KFOE,2023-05-27T00:53:00Z,38.93,-95.65,23.3,5.6,90,6,,10.0,30.121063,1019.1,,,TRUE,TRUE,,,,,,CLR,,,,,,,,VFR,,,,,,,,,,,,METAR,315.0
KFNT 270053Z 07007KT 10SM CLR 16/00 A3031 RMK AO2 SLP265 T01610000,KFNT,2023-05-27T00:53:00Z,42.97,-83.75,16.1,0.0,70,7,,10.0,30.31004,1026.5,,,TRUE,,,,,,,CLR,,,,,,,,VFR,,,,,,,,,,,,METAR,235.0
KFNB 270053Z AUTO 11010KT 10SM CLR 23/04 A3013 RMK AO2 SLP199 T02330039,KFNB,2023-05-27T00:53:00Z,40.07,-95.58,23.3,3.9,110,10,,10.0,30.129921,1019.9,,TRUE,TRUE,,,,,,,CLR,,,,,,,,VFR,,,,,,,,,,,,METAR,301.0
KFMY 270053Z 07006KT 10SM SCT075 BKN085 BKN110 22/21 A2985 RMK AO2 RAE20 SLP108 P0000 T02220206,KFMY,2023-05-27T00:53:00Z,26.58,-81.87,22.2,20.6,70,6,,10.0,29.84941,1010.8,,,TRUE,,,,,,,SCT,7500,BKN,8500,BKN,11000,,,VFR,,,,,,0.005,,,,,,METAR,4.0
KFMN 270053Z 24013KT 10SM CLR 28/M09 A2986 RMK AO2 SLP058 T02781089,KFMN,2023-05-27T00:53:00Z,36.75,-108.23,27.8,-8.9,240,13,,10.0,29.861221,1005.8,,,TRUE,,,,,,,CLR,,,,,,,,VFR,,,,,,,,,,,,METAR,1677.0
KFLO 270053Z 03010KT 10SM FEW110 18/06 A3009 RMK AO2 SLP188 T01830061,KFLO,2023-05-27T00:53:00Z,34.18,-79.73,18.3,6.1,30,10,,10.0,30.088583,1018.8,,,TRUE,,,,,,,FEW,11000,,,,,,,VFR,,,,,,,,,,,,METAR,43.0
KFLL 270053Z 03003KT 10SM FEW026 BKN060 BKN250 23/22 A2982 RMK TCU DSNT SE SLP099 T02330222,KFLL,2023-05-27T00:53:00Z,26.07,-80.15,23.3,22.2,30,3,,10.0,29.819881,1009.9,,,,,,,,,,FEW,2600,BKN,6000,BKN,25000,,,VFR,,,,,,,,,,,,METAR,1.0
KFLD 270053Z AUTO 15006KT 10SM CLR 16/00 A3030 RMK AO2 SLP262 T01610000,KFLD,2023-05-27T00:53:00Z,43.77,-88.48,16.1,0.0,150,6,,10.0,30.301182,1026.2,,TRUE,TRUE,,,,,,,CLR,,,,,,,,VFR,,,,,,,,,,,,METAR,242.0
KFHR 270053Z AUTO 24008KT 10SM CLR 26/11 A2985 RMK AO2 SLP106 T02610111 $,KFHR,2023-05-27T00:53:00Z,48.52,-123.03,26.1,11.1,240,8,,10.0,29.84941,1010.6,,TRUE,TRUE,TRUE,,,,,,CLR,,,,,,,,VFR,,,,,,,,,,,,METAR,34.0
KFFT 270053Z AUTO 04005KT 10SM CLR 22/08 A3014 RMK AO2 SLP204 T02170083,KFFT,2023-05-27T00:53:00Z,38.18,-84.9,21.7,8.3,40,5,,10.0,30.138779,1020.4,,TRUE,TRUE,,,,,,,CLR,,,,,,,,VFR,,,,,,,,,,,,METAR,235.0
KFFC 270053Z AUTO 00000KT 10SM CLR 19/13 A3008 RMK AO2 SLP182 T01890133,KFFC,2023-05-27T00:53:00Z,33.35,-84.57,18.9,13.3,0,0,,10.0,30.079725,1018.2,,TRUE,TRUE,,,,,,,CLR,,,,,,,,VFR,,,,,,,,,,,,METAR,242.0
KFDY 270053Z AUTO 05010KT 10SM CLR 17/M02 A3026 RMK AO2 SLP242 T01721017,KFDY,2023-05-27T00:53:00Z,41.02,-83.67,17.2,-1.7,50,10,,10.0,30.259842,1024.2,,TRUE,TRUE,,,,,,,CLR,,,,,,,,VFR,,,,,,,,,,,,METAR,247.0
KFDR 270053Z AUTO 13006KT 10SM FEW038 OVC090 26/16 A3000 RMK AO2 SLP144 T02560161 $,KFDR,2023-05-27T00:53:00Z,34.35,-98.98,25.6,16.1,130,6,,10.0,30.0,1014.4,,TRUE,TRUE,TRUE,,,,,,FEW,3800,OVC,9000,,,,,VFR,,,,,,,,,,,,METAR,378.0
KFCM 270053Z 17006KT 10SM CLR 23/M01 A3019 RMK AO2 SLP220 T02331006,KFCM,2023-05-27T00:53:00Z,44.83,-93.47,23.3,-0.6,170,6,,10.0,30.188976,1022.0,,,TRUE,,,,,,,CLR,,,,,,,,VFR,,,,,,,,,,,,METAR,276.0
KFAY 270053Z 03016G22KT 10SM CLR 18/07 A3013 RMK AO2 SLP196 T01780067 $,KFAY,2023-05-27T00:53:00Z,34.98,-78.88,17.8,6.7,30,16,22,10.0,30.129921,1019.6,,,TRUE,TRUE,,,,,,CLR,,,,,,,,VFR,,,,,,,,,,,,METAR,57.0
KFAT 270053Z 30005KT 10SM FEW070 27/10 A2985 RMK AO2 SLP105 MTNS OBSC HZ DSNT N-E-SE T02670100,KFAT,2023-05-27T00:53:00Z,36.78,-119.72,26.7,10.0,300,5,,10.0,29.84941,1010.5,,,TRUE,,,,,,,FEW,7000,,,,,,,VFR,,,,,,,,,,,,METAR,102.0
KFAR 270053Z 17012G20KT 10SM CLR 30/07 A3003 RMK AO2 SLP164 T03000072,KFAR,2023-05-27T00:53:00Z,46.9,-96.82,30.0,7.2,170,12,20,10.0,30.029528,1016.4,,,TRUE,,,,,,,CLR,,,,,,,,VFR,,,,,,,,,,,,METAR,276.0
KEYE 270053Z AUTO 05007KT 10SM CLR 22/02 A3018 RMK AO2 SLP219 T02170022,KEYE,2023-05-27T00:53:00Z,39.83,-86.3,21.7,2.2,50,7,,10.0,30.180119,1021.9,,TRUE,TRUE,,,,,,,CLR,,,,,,,,VFR,,,,,,,,,,,,METAR,248.0
KEWB 270053Z 17006KT 10SM CLR 12/10 A3026 RMK AO2 SLP248 T01220100,KEWB,2023-05-27T00:53:00Z,41.68,-70.95,12.2,10.0,170,6,,10.0,30.259842,1024.8,,,TRUE,,,,,,,CLR,,,,,,,,VFR,,,,,,,,,,,,METAR,22.0
KEVW 270053Z AUTO 32007KT 10SM FEW090 SCT100 11/04 A3004 RMK AO2 SLP120 T01060039,KEVW,2023-05-27T00:53:00Z,41.27,-111.03,10.6,3.9,320,7,,10.0,30.041338,1012.0,,TRUE,TRUE,,,,,,,FEW,9000,SCT,10000,,,,,VFR,,,,,,,,,,,,METAR,2178.0
KESF 270053Z AUTO 00000KT 9SM CLR 24/16 A2997 RMK AO2 SLP147 T02390156,KESF,2023-05-27T00:53:00Z,31.4,-92.28,23.9,15.6,0,0,,9.0,29.970472,1014.7,,TRUE,TRUE,,,,,,,CLR,,,,,,,,VFR,,,,,,,,,,,,METAR,27.0
KEQY 270053Z AUTO 04010KT 10SM CLR 17/08 A3015 RMK AO2 SLP217 T01720078,KEQY,2023-05-27T00:53:00Z,35.02,-80.62,17.2,7.8,40,10,,10.0,30.15059,1021.7,,TRUE,TRUE,,,,,,,CLR,,,,,,,,VFR,,,,,,,,,,,,METAR,205.0
KEPH 270053Z AUTO 32007KT 10SM FEW060 BKN110 24/07 A2982 RMK AO2 SLP092 T02390067,KEPH,2023-05-27T00:53:00Z,47.3,-119.52,23.9,6.7,320,7,,10.0,29.819881,1009.2,,TRUE,TRUE,,,,,,,FEW,6000,BKN,11000,,,,,VFR,,,,,,,,,,,,METAR,382.0
KENW 270053Z 00000KT 10SM CLR 16/M02 A3030 RMK AO2 SLP260 T01561022,KENW,2023-05-27T00:53:00Z,42.6,-87.93,15.6,-2.2,0,0,,10.0,30.301182,1026.0,,,TRUE,,,,,,,CLR,,,,,,,,VFR,,,,,,,,,,,,METAR,222.0
KEMP 270053Z AUTO 09008KT 10SM CLR 23/09 A3010 RMK AO2 SLP188 T02280094,KEMP,2023-05-27T00:53:00Z,38.33,-96.2,22.8,9.4,90,8,,10.0,30.100393,1018.8,,TRUE,TRUE,,,,,,,CLR,,,,,,,,VFR,,,,,,,,,,,,METAR,366.0
KELY 270053Z AUTO 34005KT 10SM BKN110 19/M01 A2992 RMK AO2 SLP074 T01891011,KELY,2023-05-27T00:53:00Z,39.3,-114.85,18.9,-1.1,340,5,,10.0,29.920275,1007.4,,TRUE,TRUE,,,,,,,BKN,11000,,,,,,,VFR,,,,,,,,,,,,METAR,1906.0
KELN 270053Z AUTO 00000KT 10SM CLR 25/08 A2985 RMK AO2 RAB08E19 SLP100 P0000 T02500078,KELN,2023-05-27T00:53:00Z,47.03,-120.53,25.0,7.8,0,0,,10.0,29.84941,1010.0,,TRUE,TRUE,,,,,,,CLR,,,,,,,,VFR,,,,,,0.005,,,,,,METAR,532.0
KELM 270053Z 03005KT 10SM CLR 16/01 A3030 RMK AO2 SLP260 T01560011,KELM,2023-05-27T00:53:00Z,42.15,-76.9,15.6,1.1,30,5,,10.0,30.301182,1026.0,,,TRUE,,,,,,,CLR,,,,,,,,VFR,,,,,,,,,,,,METAR,287.0
KELD 270053Z AUTO 03004KT 10SM CLR 24/16 A3002 RMK AO2 SLP162 T02390156,KELD,2023-05-27T00:53:00Z,33.22,-92.82,23.9,15.6,30,4,,10.0,30.02067,1016.2,,TRUE,TRUE,,,,,,,CLR,,,,,,,,VFR,,,,,,,,,,,,METAR,76.0
KEET 270053Z AUTO 00000KT 10SM CLR 24/16 A3003 RMK AO2 SLP163 T02390156,KEET,2023-05-27T00:53:00Z,33.18,-86.78,23.9,15.6,0,0,,10.0,30.029528,1016.3,,TRUE,TRUE,,,,,,,CLR,,,,,,,,VFR,,,,,,,,,,,,METAR,172.0
KEEO 270053Z AUTO 18005KT 10SM FEW110 21/M03 A2993 RMK AO2 SLP074 T02061033,KEEO,2023-05-27T00:53:00Z,40.05,-107.88,20.6,-3.3,180,5,,10.0,29.929134,1007.4,,TRUE,TRUE,,,,,,,FEW,11000,,,,,,,VFR,,,,,,,,,,,,METAR,1957.0
KECP 270053Z AUTO 35005KT 10SM SCT100 24/17 A2996 RMK AO1 SLP155 T02440167,KECP,2023-05-27T00:53:00Z,30.35,-85.8,24.4,16.7,350,5,,10.0,29.958662,1015.5,,TRUE,TRUE,,,,,,,SCT,10000,,,,,,,VFR,,,,,,,,,,,,METAR,17.0
KDXR 270053Z 23004KT 10SM CLR 14/04 A3026 RMK AO2 SLP245 T01440044,KDXR,2023-05-27T00:53:00Z,41.37,-73.48,14.4,4.4,230,4,,10.0,30.259842,1024.5,,,TRUE,,,,,,,CLR,,,,,,,,VFR,,,,,,,,,,,,METAR,138.0
KDWH 270053Z AUTO 05003KT 9SM CLR 27/14 A2995 RMK AO2 SLP140 T02720144,KDWH,2023-05-27T00:53:00Z,30.07,-95.55,27.2,14.4,50,3,,9.0,29.949802,1014.0,,TRUE,TRUE,,,,,,,CLR,,,,,,,,VFR,,,,,,,,,,,,METAR,46.0
KDVT 270053Z 26013G21KT 10SM CLR 32/M03 A2974 RMK AO2 SLP049 T03221033,KDVT,2023-05-27T00:53:00Z,33.68,-112.07,32.2,-3.3,260,13,21,10.0,29.740158,1004.9,,,TRUE,,,,,,,CLR,,,,,,,,VFR,,,,,,,,,,,,METAR,454.0
KDUJ 270053Z AUTO 00000KT 10SM CLR 17/00 A3027 RMK AO2 SLP247 T01720000,KDUJ,2023-05-27T00:53:00Z,41.17,-78.9,17.2,0.0,0,0,,10.0,30.268702,1024.7,,TRUE,TRUE,,,,,,,CLR,,,,,,,,VFR,,,,,,,,,,,,METAR,552.0
KDTW 270053Z 16003KT 10SM FEW250 16/01 A3031 RMK AO2 SLP265 T01610011,KDTW,2023-05-27T00:53:00Z,42.23,-83.33,16.1,1.1,160,3,,10.0,30.31004,1026.5,,,TRUE,,,,,,,FEW,25000,,,,,,,VFR,,,,,,,,,,,,METAR,192.0
KDTS 270053Z 07006KT 10SM CLR 25/17 A2996 RMK AO2 SLP146 T02500172,KDTS,2023-05-27T00:53:00Z,30.4,-86.47,25.0,17.2,70,6,,10.0,29.958662,1014.6,,,TRUE,,,,,,,CLR,,,,,,,,VFR,,,,,,,,,,,,METAR,5.0
KDTO 270053Z 10007KT 10SM CLR 28/11 A3001 RMK AO2 SLP154 T02780106,KDTO,2023-05-27T00:53:00Z,33.2,-97.2,27.8,10.6,100,7,,10.0,30.008858,1015.4,,,TRUE,,,,,,,CLR,,,,,,,,VFR,,,,,,,,,,,,METAR,199.0
KDTN 270053Z AUTO 00000KT 10SM CLR 27/14 A3000 RMK AO2 SLP157 T02670144,KDTN,2023-05-27T00:53:00Z,32.55,-93.75,26.7,14.4,0,0,,10.0,30.0,1015.7,,TRUE,TRUE,,,,,,,CLR,,,,,,,,VFR,,,,,,,,,,,,METAR,53.0
KDRT 270053Z AUTO 11009KT 10SM CLR 30/17 A2991 RMK AO2 SLP117 T03000167 $,KDRT,2023-05-27T00:53:00Z,29.37,-100.92,30.0,16.7,110,9,,10.0,29.911417,1011.7,,TRUE,TRUE,TRUE,,,,,,CLR,,,,,,,,VFR,,,,,,,,,,,,METAR,303.0
KDRO 270053Z AUTO 14013G18KT 10SM CLR 22/M01 A2997 RMK AO2 SLP085 T02221006,KDRO,2023-05-27T00:53:00Z,37.15,-107.77,22.2,-0.6,140,13,18,10.0,29.970472,1008.5,,TRUE,TRUE,,,,,,,CLR,,,,,,,,VFR,,,,,,,,,,,,METAR,2021.0
KDRA 270053Z AUTO 26008G18KT 10SM CLR 27/M03 A2978 RMK AO2 SLP049 T02721033,KDRA,2023-05-27T00:53:00Z,36.62,-116.03,27.2,-3.3,260,8,18,10.0,29.778543,1004.9,,TRUE,TRUE,,,,,,,CLR,,,,,,,,VFR,,,,,,,,,,,,METAR,988.0
KDNL 270053Z AUTO 03011G19KT 10SM CLR 19/05 A3009 RMK AO2 SLP187 T01940050,KDNL,2023-05-27T00:53:00Z,33.47,-82.03,19.4,5.0,30,11,19,10.0,30.088583,1018.7,,TRUE,TRUE,,,,,,,CLR,,,,,,,,VFR,,,,,,,,,,,,METAR,126.0
KDMO 270053Z AUTO 08005KT 10SM CLR 22/02 A3017 RMK AO2 SLP212 T02170017,KDMO,2023-05-27T00:53:00Z,38.72,-93.17,21.7,1.7,80,5,,10.0,30.171259,1021.2,,TRUE,TRUE,,,,,,,CLR,,,,,,,,VFR,,,,,,,,,,,,METAR,271.0
KDMN 270053Z AUTO 26017G22KT 10SM CLR 32/M11 A2990 RMK AO2 PK WND 25027/2356 SLP050 T03221111,KDMN,2023-05-27T00:53:00Z,32.27,-107.72,32.2,-11.1,260,17,22,10.0,29.899607,1005.0,,TRUE,TRUE,,,,,,,CLR,,,,,,,,VFR,,,,,,,,,,,,METAR,1310.0
KDLS 270053Z AUTO 31013KT 10SM FEW075 OVC100 21/13 A2987 RMK AO2 RAE2357B20E33 SLP114 P0000 T02060128,KDLS,2023-05-27T00:53:00Z,45.62,-121.17,20.6,12.8,310,13,,10.0,29.870079,1011.4,,TRUE,TRUE,,,,,,,FEW,7500,OVC,10000,,,,,VFR,,,,,,0.005,,,,,,METAR,71.0
KDLN 270053Z AUTO 00000KT 10SM FEW055 BKN080 14/07 A2993 RMK AO2 LTG DSNT SE AND S SLP106 T01390072,KDLN,2023-05-27T00:53:00Z,45.25,-112.55,13.9,7.2,0,0,,10.0,29.929134,1010.6,,TRUE,TRUE,,,,,,,FEW,5500,BKN,8000,,,,,VFR,,,,,,,,,,,,METAR,1586.0
KDKK 270053Z AUTO 00000KT 10SM CLR 13/05 A3031 RMK AO2 SLP265 T01280050,KDKK,2023-05-27T00:53:00Z,42.5,-79.28,12.8,5.0,0,0,,10.0,30.31004,1026.5,,TRUE,TRUE,,,,,,,CLR,,,,,,,,VFR,,,,,,,,,,,,METAR,205.0
KDHT 270053Z AUTO 14014KT 10SM FEW040 SCT049 OVC065 21/15 A3004 RMK AO2 SLP130 T02110150,KDHT,2023-05-27T00:53:00Z,36.02,-102.55,21.1,15.0,140,14,,10.0,30.041338,1013.0,,TRUE,TRUE,,,,,,,FEW,4000,SCT,4900,OVC,6500,,,VFR,,,,,,,,,,,,METAR,1217.0
KDHN 270053Z 03006KT 10SM CLR 23/16 A3003 RMK AO2 SLP164 T02330161,KDHN,2023-05-27T00:53:00Z,31.32,-85.45,23.3,16.1,30,6,,10.0,30.029528,1016.4,,,TRUE,,,,,,,CLR,,,,,,,,VFR,,,,,,,,,,,,METAR,113.0
KDGW 270053Z AUTO 12013KT 10SM FEW065 16/09 A2991 RMK AO2 LTG DSNT NE AND E RAB24E38 TSE2358B34E49 SLP092 P0000 T01560094 PWINO $,KDGW,2023-05-27T00:53:00Z,42.8,-105.38,15.6,9.4,120,13,,10.0,29.911417,1009.2,,TRUE,TRUE,TRUE,,,,TRUE,,FEW,6500,,,,,,,VFR,,,,,,0.005,,,,,,METAR,1503.0
KDFW 270053Z 12007KT 10SM FEW090 BKN160 BKN250 27/12 A2999 RMK AO2 SLP147 T02720117,KDFW,2023-05-27T00:53:00Z,32.9,-97.02,27.2,11.7,120,7,,10.0,29.991142,1014.7,,,TRUE,,,,,,,FEW,9000,BKN,16000,BKN,25000,,,VFR,,,,,,,,,,,,METAR,168.0
KDFI 270053Z AUTO 06005KT 10SM CLR 17/00 A3029 RMK AO2 SLP256 T01670000,KDFI,2023-05-27T00:53:00Z,41.33,-84.43,16.7,0.0,60,5,,10.0,30.28937,1025.6,,TRUE,TRUE,,,,,,,CLR,,,,,,,,VFR,,,,,,,,,,,,METAR,215.0
KDET 270053Z 06008KT 10SM CLR 18/02 A3031 RMK AO2 SLP263 T01830017,KDET,2023-05-27T00:53:00Z,42.4,-83.02,18.3,1.7,60,8,,10.0,30.31004,1026.3,,,TRUE,,,,,,,CLR,,,,,,,,VFR,,,,,,,,,,,,METAR,190.0
KDEQ 270053Z AUTO 00000KT 25/17 A3001 RMK AO2 SLP157 T02500167 $,KDEQ,2023-05-27T00:53:00Z,34.05,-94.4,25.0,16.7,0,0,,,30.008858,1015.7,,TRUE,TRUE,TRUE,,,,,,,,,,,,,,,,,,,,,,,,,,METAR,107.0
KDEN 270053Z 09009KT 10SM FEW060 SCT090 BKN150 15/10 A3001 RMK AO2 SLP114 T01500100 $,KDEN,2023-05-27T00:53:00Z,39.85,-104.65,15.0,10.0,90,9,,10.0,30.008858,1011.4,,,TRUE,TRUE,,,,,,FEW,6000,SCT,9000,BKN,15000,,,VFR,,,,,,,,,,,,METAR,1656.0
KDCU 270053Z AUTO 04005KT 10SM BKN055 BKN070 22/13 A3007 RMK AO2 SLP176 T02170133,KDCU,2023-05-27T00:53:00Z,34.65,-86.95,21.7,13.3,40,5,,10.0,30.070866,1017.6,,TRUE,TRUE,,,,,,,BKN,5500,BKN,7000,,,,,VFR,,,,,,,,,,,,METAR,180.0
KDBQ 270053Z 09004KT 10SM CLR 21/02 A3026 RMK AO2 SLP245 T02060022,KDBQ,2023-05-27T00:53:00Z,42.4,-90.7,20.6,2.2,90,4,,10.0,30.259842,1024.5,,,TRUE,,,,,,,CLR,,,,,,,,VFR,,,,,,,,,,,,METAR,317.0
KDAN 270053Z AUTO 07004KT 10SM CLR 16/07 A3022 RMK AO2 SLP226 T01610072,KDAN,2023-05-27T00:53:00Z,36.57,-79.33,16.1,7.2,70,4,,10.0,30.221457,1022.6,,TRUE,TRUE,,,,,,,CLR,,,,,,,,VFR,,,,,,,,,,,,METAR,170.0
KDAL 270053Z 10005KT 10SM BKN150 BKN250 28/11 A3000 RMK AO2 SLP151 T02780111,KDAL,2023-05-27T00:53:00Z,32.85,-96.85,27.8,11.1,100,5,,10.0,30.0,1015.1,,,TRUE,,,,,,,BKN,15000,BKN,25000,,,,,VFR,,,,,,,,,,,,METAR,148.0
KDAB 270053Z 36015G27KT 7SM -RA BKN019 OVC024 22/18 A2991 RMK AO2 PK WND 35028/0022 RAE2356B44 SLP127 P0000 T02170178,KDAB,2023-05-27T00:53:00Z,29.18,-81.07,21.7,17.8,360,15,27,7.0,29.911417,1012.7,,,TRUE,,,,,,-RA,BKN,1900,OVC,2400,,,,,MVFR,,,,,,0.005,,,,,,METAR,8.0
KCYS 270053Z AUTO 09010G16KT 10SM CLR 13/08 A3003 RMK AO2 PK WND 10038/2359 RAE09 SLP110 P0000 T01330078,KCYS,2023-05-27T00:53:00Z,41.15,-104.8,13.3,7.8,90,10,16,10.0,30.029528,1011.0,,TRUE,TRUE,,,,,,,CLR,,,,,,,,VFR,,,,,,0.005,,,,,,METAR,1868.0
KCXO 270053Z AUTO 00000KT 10SM CLR 24/18 A2996 RMK AO2 SLP143 T02390183,KCXO,2023-05-27T00:53:00Z,30.35,-95.42,23.9,18.3,0,0,,10.0,29.958662,1014.3,,TRUE,TRUE,,,,,,,CLR,,,,,,,,VFR,,,,,,,,,,,,METAR,69.0
KCUT 270053Z AUTO 10SM FEW029 SCT038 SCT060 17/11 A3002 RMK AO2 SLP117 T01720111,KCUT,2023-05-27T00:53:00Z,43.73,-103.62,17.2,11.1,,,,10.0,30.02067,1011.7,,TRUE,TRUE,,,,,,,FEW,2900,SCT,3800,SCT,6000,,,VFR,,,,,,,,,,,,METAR,1700.0
KCUB 270053Z AUTO 02007KT 340V070 10SM CLR 19/05 A3010 RMK AO2 SLP192 T01890050,KCUB,2023-05-27T00:53:00Z,33.97,-81.0,18.9,5.0,20,7,,10.0,30.100393,1019.2,,TRUE,TRUE,,,,,,,CLR,,,,,,,,VFR,,,,,,,,,,,,METAR,55.0
KCSV 270053Z AUTO 36004KT 10SM CLR 16/14 A3014 RMK AO2 SLP196 T01610139,KCSV,2023-05-27T00:53:00Z,35.95,-85.08,16.1,13.9,360,4,,10.0,30.138779,1019.6,,TRUE,TRUE,,,,,,,CLR,,,,,,,,VFR,,,,,,,,,,,,METAR,569.0
KCSM 270053Z 12005KT 10SM OVC095 22/16 A3008 RMK AO2 SLP167 T02170161,KCSM,2023-05-27T00:53:00Z,35.35,-99.2,21.7,16.1,120,5,,10.0,30.079725,1016.7,,,TRUE,,,,,,,OVC,9500,,,,,,,VFR,,,,,,,,,,,,METAR,586.0
KCRS 270053Z AUTO 08005KT 9SM CLR 27/15 A3000 RMK AO2 SLP154 T02670150,KCRS,2023-05-27T00:53:00Z,32.03,-96.4,26.7,15.0,80,5,,9.0,30.0,1015.4,,TRUE,TRUE,,,,,,,CLR,,,,,,,,VFR,,,,,,,,,,,,METAR,136.0
KCRQ 270053Z 27007KT 10SM FEW024 18/11 A2994 RMK AO2 SLP137 T01830106,KCRQ,2023-05-27T00:53:00Z,33.13,-117.28,18.3,10.6,270,7,,10.0,29.940945,1013.7,,,TRUE,,,,,,,FEW,2400,,,,,,,VFR,,,,,,,,,,,,METAR,96.0
KCRG 270053Z 02019G27KT 10SM OVC022 20/15 A2997 RMK AO2 PK WND 01033/0014 SLP146 T02000150,KCRG,2023-05-27T00:53:00Z,30.33,-81.52,20.0,15.0,20,19,27,10.0,29.970472,1014.6,,,TRUE,,,,,,,OVC,2200,,,,,,,MVFR,,,,,,,,,,,,METAR,12.0
KCRE 270053Z AUTO 02012G18KT 10SM -RA OVC110 16/13 A3005 RMK AO1 SLP177 P0002 T01560133,KCRE,2023-05-27T00:53:00Z,33.82,-78.72,15.6,13.3,20,12,18,10.0,30.050198,1017.7,,TRUE,TRUE,,,,,,-RA,OVC,11000,,,,,,,VFR,,,,,,0.02,,,,,,METAR,9.0
KCQC 270053Z AUTO 12013G22KT 10SM CLR 16/11 A3012 RMK AO2 SLP132 T01560111,KCQC,2023-05-27T00:53:00Z,35.0,-105.67,15.6,11.1,120,13,22,10.0,30.121063,1013.2,,TRUE,TRUE,,,,,,,CLR,,,,,,,,VFR,,,,,,,,,,,,METAR,2163.0
KCPS 270053Z 06004KT 10SM CLR 22/05 A3015 RMK AO2 SLP209 T02170050 $,KCPS,2023-05-27T00:53:00Z,38.53,-90.15,21.7,5.0,60,4,,10.0,30.15059,1020.9,,,TRUE,TRUE,,,,,,CLR,,,,,,,,VFR,,,,,,,,,,,,METAR,125.0
KCPR 270053Z 08012G22KT 10SM CLR 18/07 A2986 RMK AO2 SLP064 T01830067,KCPR,2023-05-27T00:53:00Z,42.9,-106.47,18.3,6.7,80,12,22,10.0,29.861221,1006.4,,,TRUE,,,,,,,CLR,,,,,,,,VFR,,,,,,,,,,,,METAR,1623.0
KCOT 270053Z AUTO 09008KT 10SM CLR 31/18 A2991 RMK AO2 SLP120 T03110178,KCOT,2023-05-27T00:53:00Z,28.45,-99.22,31.1,17.8,90,8,,10.0,29.911417,1012.0,,TRUE,TRUE,,,,,,,CLR,,,,,,,,VFR,,,,,,,,,,,,METAR,144.0
KCNY 270053Z AUTO 22011KT 10SM CLR 27/M09 A2975 RMK AO2 PK WND 20026/0011 WSHFT 0007 SLP020 T02721094,KCNY,2023-05-27T00:53:00Z,38.77,-109.75,27.2,-9.4,220,11,,10.0,29.749016,1002.0,,TRUE,TRUE,,,,,,,CLR,,,,,,,,VFR,,,,,,,,,,,,METAR,1392.0
KCNO 270053Z 25010KT 10SM BKN034 OVC042 17/09 A2995 RMK AO2 SLP141 T01720094 $,KCNO,2023-05-27T00:53:00Z,33.98,-117.62,17.2,9.4,250,10,,10.0,29.949802,1014.1,,,TRUE,TRUE,,,,,,BKN,3400,OVC,4200,,,,,VFR,,,,,,,,,,,,METAR,191.0
KCNM 270053Z AUTO 13013G21KT 10SM CLR 28/14 A2991 RMK AO2 LTG DSNT S SLP077 T02780144,KCNM,2023-05-27T00:53:00Z,32.33,-104.25,27.8,14.4,130,13,21,10.0,29.911417,1007.7,,TRUE,TRUE,,,,,,,CLR,,,,,,,,VFR,,,,,,,,,,,,METAR,993.0
KCMX 270053Z AUTO 08003KT 10SM CLR 18/01 A3024 RMK AO2 SLP240 T01780006,KCMX,2023-05-27T00:53:00Z,47.17,-88.48,17.8,0.6,80,3,,10.0,30.239174,1024.0,,TRUE,TRUE,,,,,,,CLR,,,,,,,,VFR,,,,,,,,,,,,METAR,326.0
KCMI 270053Z 05010KT 10SM CLR 22/01 A3020 RMK AO2 SLP223 T02220006,KCMI,2023-05-27T00:53:00Z,40.03,-88.27,22.2,0.6,50,10,,10.0,30.200787,1022.3,,,TRUE,,,,,,,CLR,,,,,,,,VFR,,,,,,,,,,,,METAR,227.0
KCLM 270053Z AUTO 30009KT 10SM CLR 19/11 A2989 RMK AO2 SLP123 T01890106,KCLM,2023-05-27T00:53:00Z,48.12,-123.5,18.9,10.6,300,9,,10.0,29.890747,1012.3,,TRUE,TRUE,,,,,,,CLR,,,,,,,,VFR,,,,,,,,,,,,METAR,81.0
KCLL 270053Z 08005KT 10SM CLR 29/13 A2996 RMK AO2 SLP140 T02890133,KCLL,2023-05-27T00:53:00Z,30.58,-96.37,28.9,13.3,80,5,,10.0,29.958662,1014.0,,,TRUE,,,,,,,CLR,,,,,,,,VFR,,,,,,,,,,,,METAR,96.0
KCKB 270053Z 10006KT 10SM CLR 18/01 A3022 RMK AO2 SLP223 T01830011,KCKB,2023-05-27T00:53:00Z,39.3,-80.22,18.3,1.1,100,6,,10.0,30.221457,1022.3,,,TRUE,,,,,,,CLR,,,,,,,,VFR,,,,,,,,,,,,METAR,368.0
KCHO 270053Z VRB03KT 10SM CLR 19/06 A3023 RMK AO2 SLP234 T01940061,KCHO,2023-05-27T00:53:00Z,38.13,-78.45,19.4,6.1,0,3,,10.0,30.230314,1023.4,,,TRUE,,,,,,,CLR,,,,,,,,VFR,,,,,,,,,,,,METAR,193.0
KCHA 270053Z 00000KT 10SM SCT050 SCT110 BKN250 24/14 A3007 RMK AO2 SLP176 TCU DSNT NW T02390144,KCHA,2023-05-27T00:53:00Z,35.03,-85.2,23.9,14.4,0,0,,10.0,30.070866,1017.6,,,TRUE,,,,,,,SCT,5000,SCT,11000,BKN,25000,,,VFR,,,,,,,,,,,,METAR,203.0
KCGI 270053Z AUTO 03006KT 10SM CLR 22/06 A3012 RMK AO2 SLP197 T02170056,KCGI,2023-05-27T00:53:00Z,37.23,-89.58,21.7,5.6,30,6,,10.0,30.121063,1019.7,,TRUE,TRUE,,,,,,,CLR,,,,,,,,VFR,,,,,,,,,,,,METAR,103.0
KCEZ 270053Z AUTO 13009KT 10SM FEW110 25/M03 A2990 RMK AO2 PK WND 20026/2354 SLP063 T02501033,KCEZ,2023-05-27T00:53:00Z,37.3,-108.63,25.0,-3.3,130,9,,10.0,29.899607,1006.3,,TRUE,TRUE,,,,,,,FEW,11000,,,,,,,VFR,,,,,,,,,,,,METAR,1801.0
KCEW 270053Z AUTO 00000KT 10SM CLR 23/17 A2999 RMK AO2 SLP152 T02280167,KCEW,2023-05-27T00:53:00Z,30.78,-86.52,22.8,16.7,0,0,,10.0,29.991142,1015.2,,TRUE,TRUE,,,,,,,CLR,,,,,,,,VFR,,,,,,,,,,,,METAR,47.0
KCDW 270053Z 11003KT 10SM CLR 18/03 A3025 RMK AO2 SLP248 T01780033,KCDW,2023-05-27T00:53:00Z,40.88,-74.28,17.8,3.3,110,3,,10.0,30.250984,1024.8,,,TRUE,,,,,,,CLR,,,,,,,,VFR,,,,,,,,,,,,METAR,52.0
KCDS 270053Z AUTO 14010KT 10SM CLR 23/16 A3003 RMK AO2 SLP151 T02280156,KCDS,2023-05-27T00:53:00Z,34.43,-100.28,22.8,15.6,140,10,,10.0,30.029528,1015.1,,TRUE,TRUE,,,,,,,CLR,,,,,,,,VFR,,,,,,,,,,,,METAR,595.0
KCDR 270053Z AUTO 15021G31KT 10SM CLR 22/14 A2991 RMK AO2 PK WND 15035/0002 SLP110 T02220139,KCDR,2023-05-27T00:53:00Z,42.83,-103.1,22.2,13.9,150,21,31,10.0,29.911417,1011.0,,TRUE,TRUE,,,,,,,CLR,,,,,,,,VFR,,,,,,,,,,,,METAR,1002.0
KCDC 270053Z AUTO 24010KT 10SM CLR 21/M01 A2991 RMK AO2 PK WND 21027/2356 SLP071 T02061006,KCDC,2023-05-27T00:53:00Z,37.7,-113.1,20.6,-0.6,240,10,,10.0,29.911417,1007.1,,TRUE,TRUE,,,,,,,CLR,,,,,,,,VFR,,,,,,,,,,,,METAR,1703.0
KCCR 270053Z 26013KT 10SM CLR 17/09 A2992 RMK AO2 SLP119 T01720094,KCCR,2023-05-27T00:53:00Z,38.0,-122.05,17.2,9.4,260,13,,10.0,29.920275,1011.9,,,TRUE,,,,,,,CLR,,,,,,,,VFR,,,,,,,,,,,,METAR,6.0
KCAG 270053Z AUTO 33008G23KT 270V040 10SM CLR 19/01 A2995 RMK AO2 SLP098 T01890011,KCAG,2023-05-27T00:53:00Z,40.5,-107.52,18.9,1.1,330,8,23,10.0,29.949802,1009.8,,TRUE,TRUE,,,,,,,CLR,,,,,,,,VFR,,,,,,,,,,,,METAR,1888.0
KBYI 270053Z AUTO 20006KT 10SM CLR 17/09 A2991 RMK AO2 SLP102 T01670089,KBYI,2023-05-27T00:53:00Z,42.55,-113.77,16.7,8.9,200,6,,10.0,29.911417,1010.2,,TRUE,TRUE,,,,,,,CLR,,,,,,,,VFR,,,,,,,,,,,,METAR,1263.0
KBYG 270053Z AUTO 26025G35KT 10SM FEW080 OVC095 16/06 A2993 RMK AO2 PK WND 26035/0053 WSHFT 0021 LTG DSNT N AND NW RAE47 TSE09 SLP104 P0004 T01560061,KBYG,2023-05-27T00:53:00Z,44.38,-106.72,15.6,6.1,260,25,35,10.0,29.929134,1010.4,,TRUE,TRUE,,,,,,,FEW,8000,OVC,9500,,,,,VFR,,,,,,0.04,,,,,,METAR,1503.0
KBWG 270053Z AUTO 02003KT 10SM CLR 23/13 A3011 RMK AO2 SLP191 T02280128 $,KBWG,2023-05-27T00:53:00Z,36.97,-86.42,22.8,12.8,20,3,,10.0,30.109253,1019.1,,TRUE,TRUE,TRUE,,,,,,CLR,,,,,,,,VFR,,,,,,,,,,,,METAR,159.0
KBVY 270053Z 16006KT 10SM CLR 12/05 A3025 RMK AO2 SLP238 T01170050,KBVY,2023-05-27T00:53:00Z,42.58,-70.92,11.7,5.0,160,6,,10.0,30.250984,1023.8,,,TRUE,,,,,,,CLR,,,,,,,,VFR,,,,,,,,,,,,METAR,28.0
KBVO 270053Z AUTO 06005KT 10SM CLR 24/16 A3008 RMK AO2 SLP175 T02440156,KBVO,2023-05-27T00:53:00Z,36.77,-96.02,24.4,15.6,60,5,,10.0,30.079725,1017.5,,TRUE,TRUE,,,,,,,CLR,,,,,,,,VFR,,,,,,,,,,,,METAR,210.0
KBUR 270053Z 17008KT 10SM OVC038 16/09 A2995 RMK AO2 SLP132 T01610089,KBUR,2023-05-27T00:53:00Z,34.2,-118.37,16.1,8.9,170,8,,10.0,29.949802,1013.2,,,TRUE,,,,,,,OVC,3800,,,,,,,VFR,,,,,,,,,,,,METAR,221.0
KBTR 270053Z 01003KT 10SM CLR 26/17 A2995 RMK AO2 SLP142 T02610167,KBTR,2023-05-27T00:53:00Z,30.53,-91.15,26.1,16.7,10,3,,10.0,29.949802,1014.2,,,TRUE,,,,,,,CLR,,,,,,,,VFR,,,,,,,,,,,,METAR,20.0
KBTM 270053Z AUTO 30011KT 10SM FEW036 BKN050 BKN065 13/07 A2996 RMK AO2 SLP118 T01330072,KBTM,2023-05-27T00:53:00Z,45.97,-112.5,13.3,7.2,300,11,,10.0,29.958662,1011.8,,TRUE,TRUE,,,,,,,FEW,3600,BKN,5000,BKN,6500,,,VFR,,,,,,,,,,,,METAR,1680.0
KBTL 270053Z 09004KT 10SM CLR 21/01 A3029 RMK AO2 SLP254 T02060011,KBTL,2023-05-27T00:53:00Z,42.32,-85.25,20.6,1.1,90,4,,10.0,30.28937,1025.4,,,TRUE,,,,,,,CLR,,,,,,,,VFR,,,,,,,,,,,,METAR,282.0
KBRO 270053Z 08007KT 10SM FEW029 28/22 A2992 RMK AO2 SLP129 T02780217,KBRO,2023-05-27T00:53:00Z,25.92,-97.42,27.8,21.7,80,7,,10.0,29.920275,1012.9,,,TRUE,,,,,,,FEW,2900,,,,,,,VFR,,,,,,,,,,,,METAR,6.0
KBRL 270053Z AUTO 09004KT 10SM CLR 22/M03 A3020 RMK AO2 SLP225 T02221028,KBRL,2023-05-27T00:53:00Z,40.77,-91.13,22.2,-2.8,90,4,,10.0,30.200787,1022.5,,TRUE,TRUE,,,,,,,CLR,,,,,,,,VFR,,,,,,,,,,,,METAR,208.0
KBRD 270053Z AUTO 16006KT 10SM CLR 23/06 A3018 RMK AO2 SLP219 T02330056,KBRD,2023-05-27T00:53:00Z,46.4,-94.13,23.3,5.6,160,6,,10.0,30.180119,1021.9,,TRUE,TRUE,,,,,,,CLR,,,,,,,,VFR,,,,,,,,,,,,METAR,372.0
KBPT 270053Z 09008KT 9SM BKN070 BKN090 27/17 A2995 RMK AO2 RAE19B35E44 SLP141 P0001 T02670172,KBPT,2023-05-27T00:53:00Z,29.95,-94.03,26.7,17.2,90,8,,9.0,29.949802,1014.1,,,TRUE,,,,,,,BKN,7000,BKN,9000,,,,,VFR,,,,,,0.01,,,,,,METAR,6.0
KBPK 270053Z AUTO 09003KT 10SM CLR 20/08 A3011 RMK AO2 SLP189 T02000083,KBPK,2023-05-27T00:53:00Z,36.37,-92.47,20.0,8.3,90,3,,10.0,30.109253,1018.9,,TRUE,TRUE,,,,,,,CLR,,,,,,,,VFR,,,,,,,,,,,,METAR,279.0
KBPI 270053Z AUTO 06003KT 10SM FEW110 11/05 A3005 RMK AO2 SLP121 T01110050,KBPI,2023-05-27T00:53:00Z,42.58,-110.1,11.1,5.0,60,3,,10.0,30.050198,1012.1,,TRUE,TRUE,,,,,,,FEW,11000,,,,,,,VFR,,,,,,,,,,,,METAR,2120.0
KBOI 270053Z 35005KT 10SM BKN110 24/05 A2982 RMK AO2 LTG DSNT SE SLP076 T02440050,KBOI,2023-05-27T00:53:00Z,43.57,-116.23,24.4,5.0,350,5,,10.0,29.819881,1007.6,,,TRUE,,,,,,,BKN,11000,,,,,,,VFR,,,,,,,,,,,,METAR,860.0
KBNO 270053Z AUTO 01005KT 10SM CLR 19/05 A2991 RMK AO2 SLP104 T01940050,KBNO,2023-05-27T00:53:00Z,43.6,-118.95,19.4,5.0,10,5,,10.0,29.911417,1010.4,,TRUE,TRUE,,,,,,,CLR,,,,,,,,VFR,,,,,,,,,,,,METAR,1263.0
KBNA 270053Z 01009KT 10SM BKN100 BKN250 23/12 A3009 RMK AO2 SLP186 T02330117,KBNA,2023-05-27T00:53:00Z,36.12,-86.68,23.3,11.7,10,9,,10.0,30.088583,1018.6,,,TRUE,,,,,,,BKN,10000,BKN,25000,,,,,VFR,,,,,,,,,,,,METAR,168.0
KBMQ 270053Z AUTO 11006KT 10SM CLR 26/17 A3001 RMK AO2 SLP144 T02610167,KBMQ,2023-05-27T00:53:00Z,30.73,-98.23,26.1,16.7,110,6,,10.0,30.008858,1014.4,,TRUE,TRUE,,,,,,,CLR,,,,,,,,VFR,,,,,,,,,,,,METAR,387.0
KBMG 270053Z 05005KT 10SM CLR 22/03 A3016 RMK AO2 SLP210 T02170028,KBMG,2023-05-27T00:53:00Z,39.15,-86.62,21.7,2.8,50,5,,10.0,30.159449,1021.0,,,TRUE,,,,,,,CLR,,,,,,,,VFR,,,,,,,,,,,,METAR,254.0
KBLI 270053Z 20003KT 10SM CLR 25/14 A2984 RMK AO2 SLP109 T02500144,KBLI,2023-05-27T00:53:00Z,48.8,-122.53,25.0,14.4,200,3,,10.0,29.840551,1010.9,,,TRUE,,,,,,,CLR,,,,,,,,VFR,,,,,,,,,,,,METAR,46.0
KBKV 270053Z 04011G22KT 10SM BKN045 22/17 A2992 RMK AO2 SLP132 T02220172,KBKV,2023-05-27T00:53:00Z,28.47,-82.45,22.2,17.2,40,11,22,10.0,29.920275,1013.2,,,TRUE,,,,,,,BKN,4500,,,,,,,VFR,,,,,,,,,,,,METAR,21.0
KBKL 270053Z 04008KT 10SM CLR 14/09 A3028 RMK AO2 SLP253 T01390094,KBKL,2023-05-27T00:53:00Z,41.53,-81.67,13.9,9.4,40,8,,10.0,30.280512,1025.3,,,TRUE,,,,,,,CLR,,,,,,,,VFR,,,,,,,,,,,,METAR,177.0
KBKE 270053Z AUTO 29015G22KT 9SM -RA FEW049 SCT075 OVC090 16/08 A2991 RMK AO2 LTG DSNT N AND NW RAB45 SLP124 P0000 T01560083,KBKE,2023-05-27T00:53:00Z,44.85,-117.82,15.6,8.3,290,15,22,9.0,29.911417,1012.4,,TRUE,TRUE,,,,,,-RA,FEW,4900,SCT,7500,OVC,9000,,,VFR,,,,,,0.005,,,,,,METAR,1025.0
KBIV 270053Z AUTO 00000KT 10SM CLR 17/00 A3029 RMK AO2 SLP258 T01670000,KBIV,2023-05-27T00:53:00Z,42.75,-86.1,16.7,0.0,0,0,,10.0,30.28937,1025.8,,TRUE,TRUE,,,,,,,CLR,,,,,,,,VFR,,,,,,,,,,,,METAR,207.0
KBIL 270053Z 07005KT 10SM FEW046 SCT110 BKN150 17/13 A2990 RMK AO2 LTG DSNT N-SE RAE35 TSE46 SLP109 CB DSNT N-S P0002 T01670128 $,KBIL,2023-05-27T00:53:00Z,45.8,-108.55,16.7,12.8,70,5,,10.0,29.899607,1010.9,,,TRUE,TRUE,,,,,,FEW,4600,SCT,11000,BKN,15000,,,VFR,,,,,,0.02,,,,,,METAR,1089.0
KBHM 270053Z 04004KT 10SM FEW075 24/14 A3006 RMK AO2 SLP171 T02390139,KBHM,2023-05-27T00:53:00Z,33.57,-86.75,23.9,13.9,40,4,,10.0,30.059055,1017.1,,,TRUE,,,,,,,FEW,7500,,,,,,,VFR,,,,,,,,,,,,METAR,191.0
KBGR 270053Z COR 20005KT 10SM FEW250 12/06 A3019 RMK AO2 SLP221 T01220061,KBGR,2023-05-27T00:53:00Z,44.8,-68.82,12.2,6.1,200,5,,10.0,30.188976,1022.1,TRUE,,TRUE,,,,,,,FEW,25000,,,,,,,VFR,,,,,,,,,,,,METAR,45.0
KBGM 270053Z AUTO 35007KT 10SM CLR 15/01 A3029 RMK AO2 SLP256 T01500006,KBGM,2023-05-27T00:53:00Z,42.22,-75.98,15.0,0.6,350,7,,10.0,30.28937,1025.6,,TRUE,TRUE,,,,,,,CLR,,,,,,,,VFR,,,,,,,,,,,,METAR,485.0
KBFM 270053Z 05009KT 10SM BKN060 26/16 A2998 RMK AO2 SLP151 T02610161,KBFM,2023-05-27T00:53:00Z,30.62,-88.07,26.1,16.1,50,9,,10.0,29.97933,1015.1,,,TRUE,,,,,,,BKN,6000,,,,,,,VFR,,,,,,,,,,,,METAR,7.0
KBFI 270053Z 30007KT 10SM CLR 26/09 A2983 RMK AO2 SLP102 T02610089,KBFI,2023-05-27T00:53:00Z,47.55,-122.32,26.1,8.9,300,7,,10.0,29.828741,1010.2,,,TRUE,,,,,,,CLR,,,,,,,,VFR,,,,,,,,,,,,METAR,7.0
KBFD 270053Z AUTO 02003KT 10SM CLR 16/00 A3030 RMK AO2 SLP258 T01610000,KBFD,2023-05-27T00:53:00Z,41.8,-78.63,16.1,0.0,20,3,,10.0,30.301182,1025.8,,TRUE,TRUE,,,,,,,CLR,,,,,,,,VFR,,,,,,,,,,,,METAR,642.0
KBEH 270053Z AUTO 00000KT 10SM CLR 14/M03 A3027 RMK AO2 SLP252 T01391033,KBEH,2023-05-27T00:53:00Z,42.13,-86.42,13.9,-3.3,0,0,,10.0,30.268702,1025.2,,TRUE,TRUE,,,,,,,CLR,,,,,,,,VFR,,,,,,,,,,,,METAR,196.0
KBDE 270053Z AUTO 17010G17KT 10SM CLR 27/11 A3009 RMK AO2 SLP188 T02670111 $,KBDE,2023-05-27T00:53:00Z,48.73,-94.62,26.7,11.1,170,10,17,10.0,30.088583,1018.8,,TRUE,TRUE,TRUE,,,,,,CLR,,,,,,,,VFR,,,,,,,,,,,,METAR,330.0
KBCT 270053Z 03008G15KT 10SM SCT065 23/20 A2984 RMK LTG DSNT NE-SE.,KBCT,2023-05-27T00:53:00Z,26.38,-80.1,23.0,20.0,30,8,15,10.0,29.840551,,,,,,,,,,,SCT,6500,,,,,,,VFR,,,,,,,,,,,,METAR,3.0
KBCE 270053Z AUTO 24012G19KT 10SM FEW110 14/M02 A3002 RMK AO2 SLP082 T01441022,KBCE,2023-05-27T00:53:00Z,37.7,-112.15,14.4,-2.2,240,12,19,10.0,30.02067,1008.2,,TRUE,TRUE,,,,,,,FEW,11000,,,,,,,VFR,,,,,,,,,,,,METAR,2311.0
KBBW 270053Z AUTO 00000KT 10SM SCT110 22/16 A3006 RMK AO2 SLP165 T02170161,KBBW,2023-05-27T00:53:00Z,41.43,-99.63,21.7,16.1,0,0,,10.0,30.059055,1016.5,,TRUE,TRUE,,,,,,,SCT,11000,,,,,,,VFR,,,,,,,,,,,,METAR,771.0
KBAF 270053Z 00000KT 10SM CLR 14/05 A3024 RMK AO2 SLP240 T01390050 $,KBAF,2023-05-27T00:53:00Z,42.17,-72.72,13.9,5.0,0,0,,10.0,30.239174,1024.0,,,TRUE,TRUE,,,,,,CLR,,,,,,,,VFR,,,,,,,,,,,,METAR,80.0
KAZO 270053Z 00000KT 10SM CLR 20/01 A3028 RMK AO2 SLP255 T02000011,KAZO,2023-05-27T00:53:00Z,42.23,-85.55,20.0,1.1,0,0,,10.0,30.280512,1025.5,,,TRUE,,,,,,,CLR,,,,,,,,VFR,,,,,,,,,,,,METAR,264.0
KAXN 270053Z AUTO 15010KT 10SM CLR 24/01 A3016 RMK AO2 SLP210 T02440011,KAXN,2023-05-27T00:53:00Z,45.87,-95.4,24.4,1.1,150,10,,10.0,30.159449,1021.0,,TRUE,TRUE,,,,,,,CLR,,,,,,,,VFR,,,,,,,,,,,,METAR,433.0
KAWM 270053Z AUTO 04006KT 10SM CLR 23/09 A3005 RMK AO2 SLP174 T02330094,KAWM,2023-05-27T00:53:00Z,35.13,-90.23,23.3,9.4,40,6,,10.0,30.050198,1017.4,,TRUE,TRUE,,,,,,,CLR,,,,,,,,VFR,,,,,,,,,,,,METAR,64.0
KAUS 270053Z 12004KT 8SM FEW090 SCT150 27/18 A2995 RMK AO2 SLP134 T02670183,KAUS,2023-05-27T00:53:00Z,30.18,-97.68,26.7,18.3,120,4,,8.0,29.949802,1013.4,,,TRUE,,,,,,,FEW,9000,SCT,15000,,,,,VFR,,,,,,,,,,,,METAR,148.0
KAUG 270053Z AUTO 20006KT 10SM CLR 12/06 A3023 RMK AO2 SLP239 T01220056,KAUG,2023-05-27T00:53:00Z,44.32,-69.8,12.2,5.6,200,6,,10.0,30.230314,1023.9,,TRUE,TRUE,,,,,,,CLR,,,,,,,,VFR,,,,,,,,,,,,METAR,107.0
KATY 270053Z AUTO 15014G24KT 10SM CLR 25/03 A3009 RMK AO2 SLP182 T02500033,KATY,2023-05-27T00:53:00Z,44.9,-97.15,25.0,3.3,150,14,24,10.0,30.088583,1018.2,,TRUE,TRUE,,,,,,,CLR,,,,,,,,VFR,,,,,,,,,,,,METAR,531.0
KASX 270053Z AUTO 34006KT 10SM CLR 16/08 A3022 RMK AO2 SLP236 T01560078,KASX,2023-05-27T00:53:00Z,46.55,-90.92,15.6,7.8,340,6,,10.0,30.221457,1023.6,,TRUE,TRUE,,,,,,,CLR,,,,,,,,VFR,,,,,,,,,,,,METAR,249.0
KASE 270053Z 27004KT 10SM CLR 18/M05 A3003 RMK AO2 SLP059 T01831050,KASE,2023-05-27T00:53:00Z,39.23,-106.87,18.3,-5.0,270,4,,10.0,30.029528,1005.9,,,TRUE,,,,,,,CLR,,,,,,,,VFR,,,,,,,,,,,,METAR,2384.0
KASD 270053Z AUTO 00000KT 10SM CLR 25/18 A2995 RMK AO2 SLP143 T02500178,KASD,2023-05-27T00:53:00Z,30.35,-89.82,25.0,17.8,0,0,,10.0,29.949802,1014.3,,TRUE,TRUE,,,,,,,CLR,,,,,,,,VFR,,,,,,,,,,,,METAR,8.0
KARB 270053Z AUTO 13005KT 10SM CLR 16/03 A3030 RMK AO2 SLP260 T01560028,KARB,2023-05-27T00:53:00Z,42.22,-83.73,15.6,2.8,130,5,,10.0,30.301182,1026.0,,TRUE,TRUE,,,,,,,CLR,,,,,,,,VFR,,,,,,,,,,,,METAR,251.0
KARA 270053Z 34004KT 10SM CLR 26/16 A2995 RMK AO2 SLP142 T02610161,KARA,2023-05-27T00:53:00Z,30.03,-91.88,26.1,16.1,340,4,,10.0,29.949802,1014.2,,,TRUE,,,,,,,CLR,,,,,,,,VFR,,,,,,,,,,,,METAR,5.0
KAPF 270053Z 03008KT 10SM FEW085 SCT100 23/19 A2983 RMK AO2 SLP100 T02280194,KAPF,2023-05-27T00:53:00Z,26.15,-81.77,22.8,19.4,30,8,,10.0,29.828741,1010.0,,,TRUE,,,,,,,FEW,8500,SCT,10000,,,,,VFR,,,,,,,,,,,,METAR,2.0
KAPA 270053Z 15010KT 10SM FEW090 BKN130 BKN220 17/05 A3001 RMK AO2 SLP117 T01720050 $,KAPA,2023-05-27T00:53:00Z,39.57,-104.85,17.2,5.0,150,10,,10.0,30.008858,1011.7,,,TRUE,TRUE,,,,,,FEW,9000,BKN,13000,BKN,22000,,,VFR,,,,,,,,,,,,METAR,1791.0
KAOO 270053Z AUTO 00000KT 10SM CLR 17/02 A3026 RMK AO2 SLP248 T01670017,KAOO,2023-05-27T00:53:00Z,40.3,-78.32,16.7,1.7,0,0,,10.0,30.259842,1024.8,,TRUE,TRUE,,,,,,,CLR,,,,,,,,VFR,,,,,,,,,,,,METAR,450.0
KAOH 270053Z AUTO 04008KT 10SM CLR 17/00 A3025 RMK AO2 SLP244 T01670000,KAOH,2023-05-27T00:53:00Z,40.7,-84.02,16.7,0.0,40,8,,10.0,30.250984,1024.4,,TRUE,TRUE,,,,,,,CLR,,,,,,,,VFR,,,,,,,,,,,,METAR,294.0
KANB 270053Z AUTO 00000KT 10SM CLR 23/14 A3005 RMK AO2 SLP171 T02280144,KANB,2023-05-27T00:53:00Z,33.58,-85.85,22.8,14.4,0,0,,10.0,30.050198,1017.1,,TRUE,TRUE,,,,,,,CLR,,,,,,,,VFR,,,,,,,,,,,,METAR,187.0
KAMW 270053Z AUTO 13007KT 10SM CLR 22/01 A3020 RMK AO2 SLP223 T02220006,KAMW,2023-05-27T00:53:00Z,41.98,-93.62,22.2,0.6,130,7,,10.0,30.200787,1022.3,,TRUE,TRUE,,,,,,,CLR,,,,,,,,VFR,,,,,,,,,,,,METAR,282.0
KAMA 270053Z 16015KT 10SM FEW030 SCT037 21/15 A3006 RMK AO2 SLP141 T02060150,KAMA,2023-05-27T00:53:00Z,35.22,-101.72,20.6,15.0,160,15,,10.0,30.059055,1014.1,,,TRUE,,,,,,,FEW,3000,SCT,3700,,,,,VFR,,,,,,,,,,,,METAR,1102.0
KALW 270053Z 26006KT 10SM CLR 24/07 A2983 RMK AO2 SLP097 T02440067,KALW,2023-05-27T00:53:00Z,46.1,-118.28,24.4,6.7,260,6,,10.0,29.828741,1009.7,,,TRUE,,,,,,,CLR,,,,,,,,VFR,,,,,,,,,,,,METAR,355.0
KALI 270053Z AUTO 10008KT 10SM CLR 28/19 A2992 RMK AO2 SLP128 T02780189,KALI,2023-05-27T00:53:00Z,27.73,-98.02,27.8,18.9,100,8,,10.0,29.920275,1012.8,,TRUE,TRUE,,,,,,,CLR,,,,,,,,VFR,,,,,,,,,,,,METAR,52.0
KAIA 270053Z AUTO 14025G36KT 10SM CLR 19/14 A2997 RMK AO2 PK WND 14036/0046 SLP116 T01940144,KAIA,2023-05-27T00:53:00Z,42.05,-102.8,19.4,14.4,140,25,36,10.0,29.970472,1011.6,,TRUE,TRUE,,,,,,,CLR,,,,,,,,VFR,,,,,,,,,,,,METAR,1198.0
KAGS 270053Z 04009KT 10SM CLR 19/06 A3007 RMK AO2 SLP182 T01890061,KAGS,2023-05-27T00:53:00Z,33.37,-81.97,18.9,6.1,40,9,,10.0,30.070866,1018.2,,,TRUE,,,,,,,CLR,,,,,,,,VFR,,,,,,,,,,,,METAR,40.0
KAGC 270053Z VRB04KT 10SM CLR 19/01 A3023 RMK AO2 SLP240 T01940006,KAGC,2023-05-27T00:53:00Z,40.35,-79.92,19.4,0.6,0,4,,10.0,30.230314,1024.0,,,TRUE,,,,,,,CLR,,,,,,,,VFR,,,,,,,,,,,,METAR,380.0
KAFW 270053Z 11006KT 10SM BKN130 OVC250 28/12 A2999 RMK AO2 SLP143 T02780122,KAFW,2023-05-27T00:53:00Z,32.97,-97.32,27.8,12.2,110,6,,10.0,29.991142,1014.3,,,TRUE,,,,,,,BKN,13000,OVC,25000,,,,,VFR,,,,,,,,,,,,METAR,208.0
KAEX 270053Z 03003KT 7SM CLR 27/14 A2997 RMK AO2 SLP152 T02670139,KAEX,2023-05-27T00:53:00Z,31.33,-92.57,26.7,13.9,30,3,,7.0,29.970472,1015.2,,,TRUE,,,,,,,CLR,,,,,,,,VFR,,,,,,,,,,,,METAR,25.0
KADG 270053Z AUTO 12003KT 10SM CLR 17/03 A3031 RMK AO2 SLP264 T01720028,KADG,2023-05-27T00:53:00Z,41.87,-84.08,17.2,2.8,120,3,,10.0,30.31004,1026.4,,TRUE,TRUE,,,,,,,CLR,,,,,,,,VFR,,,,,,,,,,,,METAR,244.0
KACV 270053Z AUTO 27005KT 10SM OVC007 12/09 A2996 RMK AO2 SLP151 T01170094,KACV,2023-05-27T00:53:00Z,40.98,-124.1,11.7,9.4,270,5,,10.0,29.958662,1015.1,,TRUE,TRUE,,,,,,,OVC,700,,,,,,,IFR,,,,,,,,,,,,METAR,63.0
KACK 270053Z 13005KT 10SM CLR 09/07 A3029 RMK AO2 SLP256 T00940072,KACK,2023-05-27T00:53:00Z,41.25,-70.07,9.4,7.2,130,5,,10.0,30.28937,1025.6,,,TRUE,,,,,,,CLR,,,,,,,,VFR,,,,,,,,,,,,METAR,12.0
KABY 270053Z AUTO 07008KT 10SM CLR 22/13 A3003 RMK AO2 SLP167 T02170128,KABY,2023-05-27T00:53:00Z,31.53,-84.2,21.7,12.8,70,8,,10.0,30.029528,1016.7,,TRUE,TRUE,,,,,,,CLR,,,,,,,,VFR,,,,,,,,,,,,METAR,60.0
KABR 270053Z AUTO 18016G26KT 10SM CLR 28/09 A3002 RMK AO2 PK WND 16030/0021 SLP159 T02780089,KABR,2023-05-27T00:53:00Z,45.45,-98.42,27.8,8.9,180,16,26,10.0,30.02067,1015.9,,TRUE,TRUE,,,,,,,CLR,,,,,,,,VFR,,,,,,,,,,,,METAR,397.0
KAAF 270053Z AUTO 07006KT 10SM CLR 23/17 A2994 RMK AO2 SLP138 T02330172,KAAF,2023-05-27T00:53:00Z,29.73,-85.03,23.3,17.2,70,6,,10.0,29.940945,1013.8,,TRUE,TRUE,,,,,,,CLR,,,,,,,,VFR,,,,,,,,,,,,METAR,5.0
PKMJ 270052Z 11007KT 15SM SCT014 BKN045 OVC130 27/23 A2987 ,PKMJ,2023-05-27T00:52:00Z,7.07,171.27,27.0,23.0,110,7,,15.0,29.870079,,,,,,,,,,,SCT,1400,BKN,4500,OVC,13000,,,VFR,,,,,,,,,,,,METAR,2.0
PATA 270052Z 12006KT 9SM FEW050 SCT090 BKN150 16/06 A2939 RMK AO2 SLP954 T01610061 $,PATA,2023-05-27T00:52:00Z,65.17,-152.1,16.1,6.1,120,6,,9.0,29.388779,995.4,,,TRUE,TRUE,,,,,,FEW,5000,SCT,9000,BKN,15000,,,VFR,,,,,,,,,,,,METAR,62.0
PABA 270052Z AUTO 08022KT 10SM OVC008 00/M02 A2963 RMK AO2 PK WND 08028/0006 SLP040 T00001017 FZRANO,PABA,2023-05-27T00:52:00Z,70.13,-143.58,0.0,-1.7,80,22,,10.0,29.630905,1004.0,,TRUE,TRUE,,,,TRUE,,,OVC,800,,,,,,,IFR,,,,,,,,,,,,METAR,1.0
NSTU 270052Z 05008KT 12SM SCT016TCU BKN040 BKN110 29/27 A2982 RMK TCU ALQDS SLP100 T02850269,NSTU,2023-05-27T00:52:00Z,-14.33,-170.72,28.5,26.9,50,8,,12.0,29.819881,1010.0,,,,,,,,,,SCT,1600,BKN,4000,BKN,11000,,,VFR,,,,,,,,,,,,METAR,8.0
MMMT 270052Z 36015KT 7SM BKN060 26/23 A2985 RMK 8/100,MMMT,2023-05-27T00:52:00Z,18.1,-94.57,26.0,23.0,360,15,,7.0,29.84941,,,,,,,,,,,BKN,6000,,,,,,,VFR,,,,,,,,,,,,METAR,15.0
MMCL 270052Z 30005KT 10SM FEW120 BKN150 OVC230 29/13 A2980 RMK 8/077 HZY,MMCL,2023-05-27T00:52:00Z,24.77,-107.47,29.0,13.0,300,5,,10.0,29.799213,,,,,,,,,,,FEW,12000,BKN,15000,OVC,23000,,,VFR,,,,,,,,,,,,METAR,35.0
KVTN 270052Z AUTO 16018KT 10SM SCT075 22/11 A3003 RMK AO2 PK WND 15033/2356 SLP157 T02170111,KVTN,2023-05-27T00:52:00Z,42.87,-100.55,21.7,11.1,160,18,,10.0,30.029528,1015.7,,TRUE,TRUE,,,,,,,SCT,7500,,,,,,,VFR,,,,,,,,,,,,METAR,790.0
KTRM 270052Z AUTO 33013KT 10SM CLR 31/06 A2969 RMK AO2 SLP057 T03110056 $,KTRM,2023-05-27T00:52:00Z,33.63,-116.17,31.1,5.6,330,13,,10.0,29.68996,1005.7,,TRUE,TRUE,TRUE,,,,,,CLR,,,,,,,,VFR,,,,,,,,,,,,METAR,-39.0
KTOL 270052Z 08006KT 10SM CLR 16/03 A3029 RMK AO2 SLP258 T01560033,KTOL,2023-05-27T00:52:00Z,41.58,-83.8,15.6,3.3,80,6,,10.0,30.28937,1025.8,,,TRUE,,,,,,,CLR,,,,,,,,VFR,,,,,,,,,,,,METAR,206.0
KTAN 270052Z AUTO 14004KT 10SM CLR 13/08 A3026 RMK AO2 SLP248 T01330078,KTAN,2023-05-27T00:52:00Z,41.88,-71.02,13.3,7.8,140,4,,10.0,30.259842,1024.8,,TRUE,TRUE,,,,,,,CLR,,,,,,,,VFR,,,,,,,,,,,,METAR,8.0
KSUX 270052Z 14010KT 10SM CLR 26/03 A3012 RMK AO2 SLP193 T02560033,KSUX,2023-05-27T00:52:00Z,42.38,-96.38,25.6,3.3,140,10,,10.0,30.121063,1019.3,,,TRUE,,,,,,,CLR,,,,,,,,VFR,,,,,,,,,,,,METAR,332.0
KSPS 270052Z AUTO 07005KT 10SM FEW110 25/17 A3002 RMK AO2 SLP154 T02500172,KSPS,2023-05-27T00:52:00Z,33.98,-98.5,25.0,17.2,70,5,,10.0,30.02067,1015.4,,TRUE,TRUE,,,,,,,FEW,11000,,,,,,,VFR,,,,,,,,,,,,METAR,310.0
KSPI 270052Z 07006KT 10SM CLR 21/03 A3018 RMK AO2 SLP219 T02110028,KSPI,2023-05-27T00:52:00Z,39.85,-89.68,21.1,2.8,70,6,,10.0,30.180119,1021.9,,,TRUE,,,,,,,CLR,,,,,,,,VFR,,,,,,,,,,,,METAR,179.0
KSGF 270052Z 06008KT 10SM CLR 22/07 A3012 RMK AO2 SLP190 T02220072,KSGF,2023-05-27T00:52:00Z,37.23,-93.38,22.2,7.2,60,8,,10.0,30.121063,1019.0,,,TRUE,,,,,,,CLR,,,,,,,,VFR,,,,,,,,,,,,METAR,387.0
KREO 270052Z AUTO 00000KT 22/03 A2987 RMK AO1 SLP095 T02170028,KREO,2023-05-27T00:52:00Z,42.58,-117.87,21.7,2.8,0,0,,,29.870079,1009.5,,TRUE,TRUE,,,,,,,,,,,,,,,,,,,,,,,,,,,METAR,1237.0
KRAP 270052Z 14011KT 10SM CLR 22/14 A2991 RMK AO2 PK WND 15028/2356 SLP111 T02170144,KRAP,2023-05-27T00:52:00Z,44.05,-103.05,21.7,14.4,140,11,,10.0,29.911417,1011.1,,,TRUE,,,,,,,CLR,,,,,,,,VFR,,,,,,,,,,,,METAR,965.0
KPYM 270052Z AUTO 16004KT 10SM CLR 13/07 A3026 RMK AO2 SLP249 T01330067,KPYM,2023-05-27T00:52:00Z,41.92,-70.73,13.3,6.7,160,4,,10.0,30.259842,1024.9,,TRUE,TRUE,,,,,,,CLR,,,,,,,,VFR,,,,,,,,,,,,METAR,42.0
KPWK 270052Z 01004KT 10SM CLR 15/M04 A3029 RMK AO2 SLP258 T01501044,KPWK,2023-05-27T00:52:00Z,42.12,-87.9,15.0,-4.4,10,4,,10.0,30.28937,1025.8,,,TRUE,,,,,,,CLR,,,,,,,,VFR,,,,,,,,,,,,METAR,194.0
KPPF 270052Z AUTO 00000KT 10SM CLR 24/09 A3010 RMK AO2 SLP186 T02440094,KPPF,2023-05-27T00:52:00Z,37.33,-95.5,24.4,9.4,0,0,,10.0,30.100393,1018.6,,TRUE,TRUE,,,,,,,CLR,,,,,,,,VFR,,,,,,,,,,,,METAR,265.0
KP69 270052Z AUTO 00000KT 16/13 A2991 RMK AO1 SLP122 T01560133,KP69,2023-05-27T00:52:00Z,46.15,-115.6,15.6,13.3,0,0,,,29.911417,1012.2,,TRUE,TRUE,,,,,,,,,,,,,,,,,,,,,,,,,,,METAR,447.0
KORE 270052Z AUTO 00000KT 10SM CLR 13/04 A3025 RMK AO2 RAB09E11 SLP247 P0000 T01330044,KORE,2023-05-27T00:52:00Z,42.57,-72.28,13.3,4.4,0,0,,10.0,30.250984,1024.7,,TRUE,TRUE,,,,,,,CLR,,,,,,,,VFR,,,,,,0.005,,,,,,METAR,165.0
KOMA 270052Z 12012KT 10SM SCT250 26/02 A3014 RMK AO2 SLP200 T02560022,KOMA,2023-05-27T00:52:00Z,41.32,-95.9,25.6,2.2,120,12,,10.0,30.138779,1020.0,,,TRUE,,,,,,,SCT,25000,,,,,,,VFR,,,,,,,,,,,,METAR,299.0
KOKC 270052Z 18004KT 10SM SCT055 BKN085 BKN140 OVC250 23/17 A3005 RMK AO2 SLP165 TCU W MOV N T02280167,KOKC,2023-05-27T00:52:00Z,35.38,-97.6,22.8,16.7,180,4,,10.0,30.050198,1016.5,,,TRUE,,,,,,,SCT,5500,BKN,8500,BKN,14000,OVC,25000,VFR,,,,,,,,,,,,METAR,391.0
KOKB 270052Z AUTO 30008KT 10SM CLR 19/12 A2994 RMK AO2 SLP137 T01940117,KOKB,2023-05-27T00:52:00Z,33.22,-117.35,19.4,11.7,300,8,,10.0,29.940945,1013.7,,TRUE,TRUE,,,,,,,CLR,,,,,,,,VFR,,,,,,,,,,,,METAR,7.0
KNZY 270052Z 28009KT 10SM FEW025 SCT035 18/12 A2995 RMK AO2 SLP140 T01830117,KNZY,2023-05-27T00:52:00Z,32.7,-117.22,18.3,11.7,280,9,,10.0,29.949802,1014.0,,,TRUE,,,,,,,FEW,2500,SCT,3500,,,,,VFR,,,,,,,,,,,,METAR,4.0
KNRB 270052Z AUTO 01024G36KT 10SM OVC021 21/16 A2996 RMK AO2 PK WND 02038/0014 SLP144 T02110161,KNRB,2023-05-27T00:52:00Z,30.38,-81.42,21.1,16.1,10,24,36,10.0,29.958662,1014.4,,TRUE,TRUE,,,,,,,OVC,2100,,,,,,,MVFR,,,,,,,,,,,,SPECI,4.0
KNHK 270052Z 10011KT 10SM FEW065 BKN280 18/07 A3024 RMK AO2 SLP241 T01830072,KNHK,2023-05-27T00:52:00Z,38.28,-76.4,18.3,7.2,100,11,,10.0,30.239174,1024.1,,,TRUE,,,,,,,FEW,6500,BKN,28000,,,,,VFR,,,,,,,,,,,,METAR,5.0
KNFW 270052Z 07008KT 7SM BKN250 27/11 A3000 RMK AO2 SLP143 T02720106 VISNO S $,KNFW,2023-05-27T00:52:00Z,32.78,-97.43,27.2,10.6,70,8,,7.0,30.0,1014.3,,,TRUE,TRUE,,,,,,BKN,25000,,,,,,,VFR,,,,,,,,,,,,METAR,188.0
KN60 270052Z AUTO 23019G26KT 21/16 A2992 RMK AO1 PK WND 22026/0050 SLP128 T02110156,KN60,2023-05-27T00:52:00Z,47.65,-101.43,21.1,15.6,230,19,26,,29.920275,1012.8,,TRUE,TRUE,,,,,,,,,,,,,,,,,,,,,,,,,,,METAR,582.0
KMWH 270052Z 33005KT 10SM BKN120 24/08 A2982 RMK AO2 TSE02 SLP096 T02390083,KMWH,2023-05-27T00:52:00Z,47.2,-119.32,23.9,8.3,330,5,,10.0,29.819881,1009.6,,,TRUE,,,,,,,BKN,12000,,,,,,,VFR,,,,,,,,,,,,METAR,355.0
KMLI 270052Z AUTO 10007KT 10SM CLR 21/00 A3021 RMK AO2 SLP229 T02060000 $,KMLI,2023-05-27T00:52:00Z,41.45,-90.52,20.6,0.0,100,7,,10.0,30.209646,1022.9,,TRUE,TRUE,TRUE,,,,,,CLR,,,,,,,,VFR,,,,,,,,,,,,METAR,174.0
KMLF 270052Z AUTO 21026G36KT 10SM SCT120 23/M03 A2985 RMK AO2 PK WND 20036/0052 SLP057 T02331033,KMLF,2023-05-27T00:52:00Z,38.42,-113.02,23.3,-3.3,210,26,36,10.0,29.84941,1005.7,,TRUE,TRUE,,,,,,,SCT,12000,,,,,,,VFR,,,,,,,,,,,,METAR,1537.0
KMKE 270052Z 00000KT 10SM BKN250 13/M07 A3030 RMK AO2 SLP264 T01331072,KMKE,2023-05-27T00:52:00Z,42.95,-87.9,13.3,-7.2,0,0,,10.0,30.301182,1026.4,,,TRUE,,,,,,,BKN,25000,,,,,,,VFR,,,,,,,,,,,,METAR,203.0
KMHK 270052Z 11007KT 10SM CLR 26/08 A3010 RMK AO2 SLP184 T02560083,KMHK,2023-05-27T00:52:00Z,39.13,-96.68,25.6,8.3,110,7,,10.0,30.100393,1018.4,,,TRUE,,,,,,,CLR,,,,,,,,VFR,,,,,,,,,,,,METAR,320.0
KMFD 270052Z 01005KT 10SM CLR 14/01 A3027 RMK AO2 SLP252 T01440006,KMFD,2023-05-27T00:52:00Z,40.82,-82.52,14.4,0.6,10,5,,10.0,30.268702,1025.2,,,TRUE,,,,,,,CLR,,,,,,,,VFR,,,,,,,,,,,,METAR,394.0
KMEB 270052Z AUTO 05014KT 10SM -RA CLR 18/05 A3013 RMK AO2 PK WND 04026/0009 SLP201 P0000 T01830050,KMEB,2023-05-27T00:52:00Z,34.78,-79.37,18.3,5.0,50,14,,10.0,30.129921,1020.1,,TRUE,TRUE,,,,,,-RA,CLR,,,,,,,,VFR,,,,,,0.005,,,,,,METAR,65.0
KMDH 270052Z 35004KT 10SM CLR 21/07 A3013 RMK AO2 SLP202 T02110067,KMDH,2023-05-27T00:52:00Z,37.78,-89.25,21.1,6.7,350,4,,10.0,30.129921,1020.2,,,TRUE,,,,,,,CLR,,,,,,,,VFR,,,,,,,,,,,,METAR,122.0
KMBG 270052Z AUTO 19016G25KT 10SM SCT080 25/12 A2995 RMK AO2 PK WND 18029/0037 SLP133 T02500117,KMBG,2023-05-27T00:52:00Z,45.55,-100.42,25.0,11.7,190,16,25,10.0,29.949802,1013.3,,TRUE,TRUE,,,,,,,SCT,8000,,,,,,,VFR,,,,,,,,,,,,METAR,515.0
KLWC 270052Z AUTO 08006KT 10SM CLR 23/05 A3013 RMK AO1 SLP196 T02330050,KLWC,2023-05-27T00:52:00Z,39.02,-95.22,23.3,5.0,80,6,,10.0,30.129921,1019.6,,TRUE,TRUE,,,,,,,CLR,,,,,,,,VFR,,,,,,,,,,,,METAR,252.0
KIOW 270052Z AUTO 12005KT 10SM CLR 22/00 A3023 RMK AO2 SLP236 T02170000,KIOW,2023-05-27T00:52:00Z,41.63,-91.55,21.7,0.0,120,5,,10.0,30.230314,1023.6,,TRUE,TRUE,,,,,,,CLR,,,,,,,,VFR,,,,,,,,,,,,METAR,199.0
KIJD 270052Z AUTO 00000KT 10SM CLR 15/06 A3024 RMK AO2 SLP240 T01500061,KIJD,2023-05-27T00:52:00Z,41.75,-72.18,15.0,6.1,0,0,,10.0,30.239174,1024.0,,TRUE,TRUE,,,,,,,CLR,,,,,,,,VFR,,,,,,,,,,,,METAR,73.0
KIEN 270052Z AUTO 16019G31KT 10SM CLR 21/13 A2994 RMK AO2 PK WND 18034/2354 SLP118 T02110133,KIEN,2023-05-27T00:52:00Z,43.03,-102.52,21.1,13.3,160,19,31,10.0,29.940945,1011.8,,TRUE,TRUE,,,,,,,CLR,,,,,,,,VFR,,,,,,,,,,,,METAR,1002.0
KIAD 270052Z 17005KT 10SM FEW100 BKN250 18/05 A3024 RMK AO2 SLP238 T01830050,KIAD,2023-05-27T00:52:00Z,38.93,-77.45,18.3,5.0,170,5,,10.0,30.239174,1023.8,,,TRUE,,,,,,,FEW,10000,BKN,25000,,,,,VFR,,,,,,,,,,,,METAR,90.0
KHUT 270052Z AUTO 12012G16KT 10SM BKN080 OVC100 26/12 A3006 RMK AO2 SLP161 T02560117,KHUT,2023-05-27T00:52:00Z,38.07,-97.87,25.6,11.7,120,12,16,10.0,30.059055,1016.1,,TRUE,TRUE,,,,,,,BKN,8000,OVC,10000,,,,,VFR,,,,,,,,,,,,METAR,464.0
KHRL 270052Z 07010KT 10SM CLR 27/20 A2992 RMK AO2 SLP131 T02670200,KHRL,2023-05-27T00:52:00Z,26.23,-97.65,26.7,20.0,70,10,,10.0,29.920275,1013.1,,,TRUE,,,,,,,CLR,,,,,,,,VFR,,,,,,,,,,,,METAR,9.0
KHIE 270052Z AUTO 00000KT 10SM CLR 10/03 A3026 RMK AO2 SLP252 T01000033,KHIE,2023-05-27T00:52:00Z,44.37,-71.55,10.0,3.3,0,0,,10.0,30.259842,1025.2,,TRUE,TRUE,,,,,,,CLR,,,,,,,,VFR,,,,,,,,,,,,METAR,321.0
KGLS 270052Z AUTO 14006KT 10SM CLR 27/19 A2995 RMK AO2 SLP142 T02670189 $,KGLS,2023-05-27T00:52:00Z,29.27,-94.87,26.7,18.9,140,6,,10.0,29.949802,1014.2,,TRUE,TRUE,TRUE,,,,,,CLR,,,,,,,,VFR,,,,,,,,,,,,METAR,2.0
KFIT 270052Z AUTO 00000KT 10SM CLR 16/06 A3025 RMK AO2 SLP245 T01560056,KFIT,2023-05-27T00:52:00Z,42.55,-71.75,15.6,5.6,0,0,,10.0,30.250984,1024.5,,TRUE,TRUE,,,,,,,CLR,,,,,,,,VFR,,,,,,,,,,,,METAR,102.0
KEST 270052Z AUTO 15011KT 10SM CLR 23/M03 A3018 RMK AO2 SLP215 T02331033,KEST,2023-05-27T00:52:00Z,43.4,-94.75,23.3,-3.3,150,11,,10.0,30.180119,1021.5,,TRUE,TRUE,,,,,,,CLR,,,,,,,,VFR,,,,,,,,,,,,METAR,401.0
KDVN 270052Z AUTO 10006KT 10SM CLR 21/01 A3024 RMK AO2 SLP235 T02060011,KDVN,2023-05-27T00:52:00Z,41.62,-90.58,20.6,1.1,100,6,,10.0,30.239174,1023.5,,TRUE,TRUE,,,,,,,CLR,,,,,,,,VFR,,,,,,,,,,,,METAR,227.0
KDPA 270052Z 05005KT 10SM CLR 18/01 A3026 RMK AO2 SLP247 T01780006,KDPA,2023-05-27T00:52:00Z,41.88,-88.25,17.8,0.6,50,5,,10.0,30.259842,1024.7,,,TRUE,,,,,,,CLR,,,,,,,,VFR,,,,,,,,,,,,METAR,228.0
KDDC 270052Z AUTO 14016G24KT 6SM HZ CLR 22/14 A3007 RMK AO2 SLP160 T02170144,KDDC,2023-05-27T00:52:00Z,37.77,-99.97,21.7,14.4,140,16,24,6.0,30.070866,1016.0,,TRUE,TRUE,,,,,,HZ,CLR,,,,,,,,VFR,,,,,,,,,,,,METAR,786.0
KDCA 270052Z 13004KT 10SM FEW110 BKN250 20/06 A3024 RMK AO2 SLP239 T02000061,KDCA,2023-05-27T00:52:00Z,38.85,-77.03,20.0,6.1,130,4,,10.0,30.239174,1023.9,,,TRUE,,,,,,,FEW,11000,BKN,25000,,,,,VFR,,,,,,,,,,,,METAR,4.0
KCVG 270052Z 07008KT 10SM CLR 21/03 A3018 RMK AO2 SLP213 T02110033,KCVG,2023-05-27T00:52:00Z,39.05,-84.67,21.1,3.3,70,8,,10.0,30.180119,1021.3,,,TRUE,,,,,,,CLR,,,,,,,,VFR,,,,,,,,,,,,METAR,264.0
KCQX 270052Z AUTO 20004KT 10SM CLR 12/08 A3029 RMK AO2 SLP257 T01170083,KCQX,2023-05-27T00:52:00Z,41.68,-70.0,11.7,8.3,200,4,,10.0,30.28937,1025.7,,TRUE,TRUE,,,,,,,CLR,,,,,,,,VFR,,,,,,,,,,,,METAR,17.0
KCNU 270052Z AUTO 08005KT 10SM CLR 24/07 A3010 RMK AO2 SLP184 T02440072,KCNU,2023-05-27T00:52:00Z,37.67,-95.48,24.4,7.2,80,5,,10.0,30.100393,1018.4,,TRUE,TRUE,,,,,,,CLR,,,,,,,,VFR,,,,,,,,,,,,METAR,301.0
KCLT 270052Z 07014G20KT 10SM OVC200 19/05 A3017 RMK AO2 SLP225 T01890050,KCLT,2023-05-27T00:52:00Z,35.22,-80.95,18.9,5.0,70,14,20,10.0,30.171259,1022.5,,,TRUE,,,,,,,OVC,20000,,,,,,,VFR,,,,,,,,,,,,METAR,223.0
KCKV 270052Z AUTO 02006KT 10SM CLR 21/10 A3010 RMK AO2 SLP190 T02060100,KCKV,2023-05-27T00:52:00Z,36.62,-87.42,20.6,10.0,20,6,,10.0,30.100393,1019.0,,TRUE,TRUE,,,,,,,CLR,,,,,,,,VFR,,,,,,,,,,,,METAR,166.0
KCID 270052Z 11006KT 10SM CLR 21/00 A3022 RMK AO2 SLP232 T02060000,KCID,2023-05-27T00:52:00Z,41.88,-91.72,20.6,0.0,110,6,,10.0,30.221457,1023.2,,,TRUE,,,,,,,CLR,,,,,,,,VFR,,,,,,,,,,,,METAR,257.0
KCFV 270052Z AUTO 08006KT 10SM CLR 24/14 A3007 RMK AO2 SLP176 T02390139,KCFV,2023-05-27T00:52:00Z,37.08,-95.57,23.9,13.9,80,6,,10.0,30.070866,1017.6,,TRUE,TRUE,,,,,,,CLR,,,,,,,,VFR,,,,,,,,,,,,METAR,228.0
KBML 270052Z AUTO 00000KT 10SM CLR 09/03 A3024 RMK AO2 SLP246 T00940033,KBML,2023-05-27T00:52:00Z,44.58,-71.18,9.4,3.3,0,0,,10.0,30.239174,1024.6,,TRUE,TRUE,,,,,,,CLR,,,,,,,,VFR,,,,,,,,,,,,METAR,344.0
KBLU 270052Z AUTO 00000KT 10SM FEW029 BKN049 OVC100 16/08 A3003 RMK AO2 SLP115 T01560078,KBLU,2023-05-27T00:52:00Z,39.28,-120.7,15.6,7.8,0,0,,10.0,30.029528,1011.5,,TRUE,TRUE,,,,,,,FEW,2900,BKN,4900,OVC,10000,,,VFR,,,,,,,,,,,,METAR,1605.0
KBLH 270052Z AUTO 22013G22KT 10SM CLR 33/M08 A2970 RMK AO2 SLP052 T03281083,KBLH,2023-05-27T00:52:00Z,33.62,-114.72,32.8,-8.3,220,13,22,10.0,29.698818,1005.2,,TRUE,TRUE,,,,,,,CLR,,,,,,,,VFR,,,,,,,,,,,,METAR,119.0
KBLF 270052Z AUTO VRB03KT 10SM CLR 14/04 A3023 RMK AO2 SLP223 T01390039,KBLF,2023-05-27T00:52:00Z,37.3,-81.2,13.9,3.9,0,3,,10.0,30.230314,1022.3,,TRUE,TRUE,,,,,,,CLR,,,,,,,,VFR,,,,,,,,,,,,METAR,871.0
KBKB 270052Z AUTO 00000KT 10SM CLR 24/13 A2996 RMK AO2 SLP170 T02440133 $,KBKB,2023-05-27T00:52:00Z,31.02,-92.92,24.4,13.3,0,0,,10.0,29.958662,1017.0,,TRUE,TRUE,TRUE,,,,,,CLR,,,,,,,,VFR,,,,,,,,,,,,METAR,74.0
KBIS 270052Z 18016G23KT 10SM SCT100 26/12 A2995 RMK AO2 PK WND 17032/0004 SLP135 T02610122,KBIS,2023-05-27T00:52:00Z,46.77,-100.75,26.1,12.2,180,16,23,10.0,29.949802,1013.5,,,TRUE,,,,,,,SCT,10000,,,,,,,VFR,,,,,,,,,,,,METAR,506.0
KBDR 270052Z 32004KT 10SM CLR 19/02 A3023 RMK AO2 SLP237 T01890017,KBDR,2023-05-27T00:52:00Z,41.17,-73.13,18.9,1.7,320,4,,10.0,30.230314,1023.7,,,TRUE,,,,,,,CLR,,,,,,,,VFR,,,,,,,,,,,,METAR,5.0
KBAN 270052Z AUTO 23005KT 10SM FEW065 OVC085 13/03 A3001 RMK AO2 SLP130 T01330028 $,KBAN,2023-05-27T00:52:00Z,38.35,-119.52,13.3,2.8,230,5,,10.0,30.008858,1013.0,,TRUE,TRUE,TRUE,,,,,,FEW,6500,OVC,8500,,,,,VFR,,,,,,,,,,,,METAR,2067.0
KATL 270052Z 09007KT 10SM FEW200 22/12 A3008 RMK AO2 SLP180 T02170117 $,KATL,2023-05-27T00:52:00Z,33.63,-84.45,21.7,11.7,90,7,,10.0,30.079725,1018.0,,,TRUE,TRUE,,,,,,FEW,20000,,,,,,,VFR,,,,,,,,,,,,METAR,309.0
KARR 270052Z 06007KT 10SM CLR 18/00 A3025 RMK AO2 SLP245 T01830000,KARR,2023-05-27T00:52:00Z,41.77,-88.48,18.3,0.0,60,7,,10.0,30.250984,1024.5,,,TRUE,,,,,,,CLR,,,,,,,,VFR,,,,,,,,,,,,METAR,213.0
KAQW 270052Z AUTO 00000KT 10SM CLR 12/06 A3026 RMK AO2 SLP248 T01220061,KAQW,2023-05-27T00:52:00Z,42.7,-73.17,12.2,6.1,0,0,,10.0,30.259842,1024.8,,TRUE,TRUE,,,,,,,CLR,,,,,,,,VFR,,,,,,,,,,,,METAR,196.0
KALS 270052Z AUTO 19019G28KT 10SM CLR 16/02 A3008 RMK AO2 PK WND 18036/2357 SLP117 T01610022,KALS,2023-05-27T00:52:00Z,37.43,-105.87,16.1,2.2,190,19,28,10.0,30.079725,1011.7,,TRUE,TRUE,,,,,,,CLR,,,,,,,,VFR,,,,,,,,,,,,METAR,2299.0
KAFN 270052Z AUTO 00000KT 10SM CLR 12/06 A3026 RMK AO2 SLP253 T01220056 $,KAFN,2023-05-27T00:52:00Z,42.8,-72.0,12.2,5.6,0,0,,10.0,30.259842,1025.3,,TRUE,TRUE,TRUE,,,,,,CLR,,,,,,,,VFR,,,,,,,,,,,,METAR,308.0
KABQ 270052Z 09023G37KT 10SM FEW070 SCT200 24/06 A2993 RMK AO2 PK WND 08038/0004 SLP060 T02390061,KABQ,2023-05-27T00:52:00Z,35.05,-106.62,23.9,6.1,90,23,37,10.0,29.929134,1006.0,,,TRUE,,,,,,,FEW,7000,SCT,20000,,,,,VFR,,,,,,,,,,,,METAR,1620.0
KABI 270052Z 10007KT 8SM FEW044 25/17 A3002 RMK AO2 SLP144 T02500167,KABI,2023-05-27T00:52:00Z,32.42,-99.68,25.0,16.7,100,7,,8.0,30.02067,1014.4,,,TRUE,,,,,,,FEW,4400,,,,,,,VFR,,,,,,,,,,,,METAR,543.0
PHBK 270051Z AUTO 28009KT 10SM FEW050 28/18 A3002 RMK AO2 SLP168 T02830178,PHBK,2023-05-27T00:51:00Z,22.03,-159.78,28.3,17.8,280,9,,10.0,30.02067,1016.8,,TRUE,TRUE,,,,,,,FEW,5000,,,,,,,VFR,,,,,,,,,,,,METAR,5.0
MUGM 270051Z 31003KT 10SM FEW030 SCT250 28/25 A2990 RMK AO2 SLP126 T02830250 $,MUGM,2023-05-27T00:51:00Z,19.9,-75.2,28.3,25.0,310,3,,10.0,29.899607,1012.6,,,TRUE,TRUE,,,,,,FEW,3000,SCT,25000,,,,,VFR,,,,,,,,,,,,METAR,21.0
MMCZ 270051Z 04007KT 8SM FEW015 28/22 A2983 RMK 8/500,MMCZ,2023-05-27T00:51:00Z,20.52,-86.92,28.0,22.0,40,7,,8.0,29.828741,,,,,,,,,,,FEW,1500,,,,,,,VFR,,,,,,,,,,,,METAR,7.0
KYNG 270051Z 36006KT 10SM CLR 15/02 A3028 RMK AO2 SLP254 T01500022,KYNG,2023-05-27T00:51:00Z,41.25,-80.67,15.0,2.2,360,6,,10.0,30.280512,1025.4,,,TRUE,,,,,,,CLR,,,,,,,,VFR,,,,,,,,,,,,METAR,356.0
KXWA 270051Z AUTO 10009G17KT 10SM FEW044 BKN050 OVC075 22/13 A2993 RMK AO2 WSHFT 0035 SLP133 T02170133,KXWA,2023-05-27T00:51:00Z,48.27,-103.75,21.7,13.3,100,9,17,10.0,29.929134,1013.3,,TRUE,TRUE,,,,,,,FEW,4400,BKN,5000,OVC,7500,,,VFR,,,,,,,,,,,,METAR,717.0
KVNY 270051Z 16005KT 10SM OVC032 18/10 A2993 RMK AO2 SLP131 T01830100,KVNY,2023-05-27T00:51:00Z,34.22,-118.48,18.3,10.0,160,5,,10.0,29.929134,1013.1,,,TRUE,,,,,,,OVC,3200,,,,,,,VFR,,,,,,,,,,,,METAR,241.0
KVCT 270051Z 13007KT 9SM CLR 27/20 A2995 RMK AO2 SLP139 T02670200,KVCT,2023-05-27T00:51:00Z,28.87,-96.93,26.7,20.0,130,7,,9.0,29.949802,1013.9,,,TRUE,,,,,,,CLR,,,,,,,,VFR,,,,,,,,,,,,METAR,33.0
KTPL 270051Z AUTO 07004KT CLR 26/18 A2999 RMK AO2 SLP146 T02610178 PWINO RVRNO $,KTPL,2023-05-27T00:51:00Z,31.15,-97.4,26.1,17.8,70,4,,,29.991142,1014.6,,TRUE,TRUE,TRUE,,,,TRUE,,CLR,,,,,,,,,,,,,,,,,,,,METAR,206.0
KTEB 270051Z 00000KT 10SM CLR 19/03 A3023 RMK AO2 SLP238 T01940028,KTEB,2023-05-27T00:51:00Z,40.87,-74.05,19.4,2.8,0,0,,10.0,30.230314,1023.8,,,TRUE,,,,,,,CLR,,,,,,,,VFR,,,,,,,,,,,,METAR,3.0
KSTL 270051Z 06006KT 10SM CLR 23/02 A3016 RMK AO2 SLP209 T02330022,KSTL,2023-05-27T00:51:00Z,38.75,-90.37,23.3,2.2,60,6,,10.0,30.159449,1020.9,,,TRUE,,,,,,,CLR,,,,,,,,VFR,,,,,,,,,,,,METAR,163.0
KSNT 270051Z AUTO 17004KT 12/04 A2999 RMK AO1 SLP094 T01220044,KSNT,2023-05-27T00:51:00Z,44.17,-114.93,12.2,4.4,170,4,,,29.991142,1009.4,,TRUE,TRUE,,,,,,,,,,,,,,,,,,,,,,,,,,,METAR,1980.0
KSMX 270051Z 30012KT 10SM FEW030 17/10 A2996 RMK AO2 SLP148 T01670100,KSMX,2023-05-27T00:51:00Z,34.9,-120.45,16.7,10.0,300,12,,10.0,29.958662,1014.8,,,TRUE,,,,,,,FEW,3000,,,,,,,VFR,,,,,,,,,,,,METAR,73.0
KSMO 270051Z 24009G14KT 220V280 10SM OVC045 16/11 A2995 RMK AO2 SLP143 T01610106,KSMO,2023-05-27T00:51:00Z,34.02,-118.45,16.1,10.6,240,9,14,10.0,29.949802,1014.3,,,TRUE,,,,,,,OVC,4500,,,,,,,VFR,,,,,,,,,,,,METAR,56.0
KSLK 270051Z AUTO 00000KT 10SM CLR 09/03 A3027 RMK AO2 SLP257 T00940033,KSLK,2023-05-27T00:51:00Z,44.4,-74.2,9.4,3.3,0,0,,10.0,30.268702,1025.7,,TRUE,TRUE,,,,,,,CLR,,,,,,,,VFR,,,,,,,,,,,,METAR,502.0
KSJT 270051Z 14006KT 10SM FEW046 SCT065 26/17 A2997 RMK AO2 SLP131 T02610172,KSJT,2023-05-27T00:51:00Z,31.37,-100.5,26.1,17.2,140,6,,10.0,29.970472,1013.1,,,TRUE,,,,,,,FEW,4600,SCT,6500,,,,,VFR,,,,,,,,,,,,METAR,582.0
KSAT 270051Z 10006KT 10SM FEW050 27/17 A2996 RMK AO2 SLP127 T02670167,KSAT,2023-05-27T00:51:00Z,29.53,-98.48,26.7,16.7,100,6,,10.0,29.958662,1012.7,,,TRUE,,,,,,,FEW,5000,,,,,,,VFR,,,,,,,,,,,,METAR,246.0
KSAN 270051Z 29010G17KT 10SM SCT027 18/11 A2997 RMK AO2 SLP146 T01830111,KSAN,2023-05-27T00:51:00Z,32.73,-117.18,18.3,11.1,290,10,17,10.0,29.970472,1014.6,,,TRUE,,,,,,,SCT,2700,,,,,,,VFR,,,,,,,,,,,,METAR,3.0
KSAD 270051Z AUTO 26019G26KT 10SM CLR 34/M08 A2978 RMK AO2 PK WND 26026/0050 SLP031 T03391083,KSAD,2023-05-27T00:51:00Z,32.85,-109.63,33.9,-8.3,260,19,26,10.0,29.778543,1003.1,,TRUE,TRUE,,,,,,,CLR,,,,,,,,VFR,,,,,,,,,,,,METAR,937.0
KROW 270051Z 16012KT 10SM SCT060 29/13 A2994 RMK AO2 SLP070 T02940133,KROW,2023-05-27T00:51:00Z,33.3,-104.5,29.4,13.3,160,12,,10.0,29.940945,1007.0,,,TRUE,,,,,,,SCT,6000,,,,,,,VFR,,,,,,,,,,,,METAR,1105.0
KRDU 270051Z 05012KT 10SM FEW120 SCT200 OVC250 17/06 A3020 RMK AO2 SLP223 T01670061,KRDU,2023-05-27T00:51:00Z,35.9,-78.78,16.7,6.1,50,12,,10.0,30.200787,1022.3,,,TRUE,,,,,,,FEW,12000,SCT,20000,OVC,25000,,,VFR,,,,,,,,,,,,METAR,121.0
KPWM 270051Z 21004KT 10SM SCT075 11/06 A3025 RMK AO2 SLP245 T01110056,KPWM,2023-05-27T00:51:00Z,43.65,-70.3,11.1,5.6,210,4,,10.0,30.250984,1024.5,,,TRUE,,,,,,,SCT,7500,,,,,,,VFR,,,,,,,,,,,,METAR,15.0
KPVD 270051Z 18007KT 10SM FEW250 14/09 A3026 RMK AO2 SLP248 T01390094,KPVD,2023-05-27T00:51:00Z,41.72,-71.43,13.9,9.4,180,7,,10.0,30.259842,1024.8,,,TRUE,,,,,,,FEW,25000,,,,,,,VFR,,,,,,,,,,,,METAR,15.0
KPIT 270051Z 04005KT 10SM SCT150 BKN250 19/M01 A3024 RMK AO2 SLP245 T01941006,KPIT,2023-05-27T00:51:00Z,40.47,-80.2,19.4,-0.6,40,5,,10.0,30.239174,1024.5,,,TRUE,,,,,,,SCT,15000,BKN,25000,,,,,VFR,,,,,,,,,,,,METAR,339.0
KPHX 270051Z 27014KT 10SM CLR 35/M03 A2970 RMK AO2 PK WND 28029/0013 WSHFT 2338 SLP039 T03501028,KPHX,2023-05-27T00:51:00Z,33.43,-112.02,35.0,-2.8,270,14,,10.0,29.698818,1003.9,,,TRUE,,,,,,,CLR,,,,,,,,VFR,,,,,,,,,,,,METAR,338.0
KP59 270051Z AUTO 00000KT 17/04 A3024 RMK AO1 SLP239 T01720039,KP59,2023-05-27T00:51:00Z,47.47,-87.88,17.2,3.9,0,0,,,30.239174,1023.9,,TRUE,TRUE,,,,,,,,,,,,,,,,,,,,,,,,,,,METAR,185.0
KOXR 270051Z 29010KT 10SM OVC038 16/11 A2996 RMK AO2 SLP143 T01610111,KOXR,2023-05-27T00:51:00Z,34.2,-119.2,16.1,11.1,290,10,,10.0,29.958662,1014.3,,,TRUE,,,,,,,OVC,3800,,,,,,,VFR,,,,,,,,,,,,METAR,12.0
KOXC 270051Z 34005KT 10SM CLR 14/04 A3026 RMK AO2 SLP257 T01440044,KOXC,2023-05-27T00:51:00Z,41.47,-73.13,14.4,4.4,340,5,,10.0,30.259842,1025.7,,,TRUE,,,,,,,CLR,,,,,,,,VFR,,,,,,,,,,,,METAR,211.0
KORF 270051Z 05011KT 10SM CLR 16/07 A3022 RMK AO2 SLP232 T01560072,KORF,2023-05-27T00:51:00Z,36.9,-76.2,15.6,7.2,50,11,,10.0,30.221457,1023.2,,,TRUE,,,,,,,CLR,,,,,,,,VFR,,,,,,,,,,,,METAR,5.0
KORD 270051Z 02010KT 10SM SCT250 17/M03 A3027 RMK AO2 SLP251 T01671033,KORD,2023-05-27T00:51:00Z,41.95,-87.93,16.7,-3.3,20,10,,10.0,30.268702,1025.1,,,TRUE,,,,,,,SCT,25000,,,,,,,VFR,,,,,,,,,,,,METAR,202.0
KOCF 270051Z AUTO 05006KT 10SM OVC035 21/16 A2995 RMK AO2 SLP144 T02110161 PNO $,KOCF,2023-05-27T00:51:00Z,29.17,-82.22,21.1,16.1,50,6,,10.0,29.949802,1014.4,,TRUE,TRUE,TRUE,,,,,,OVC,3500,,,,,,,VFR,,,,,,,,,,,,METAR,24.0
KNYC 270051Z AUTO 00000KT 10SM CLR 18/03 A3027 RMK AO2 SLP243 T01830028 $,KNYC,2023-05-27T00:51:00Z,40.78,-73.97,18.3,2.8,0,0,,10.0,30.268702,1024.3,,TRUE,TRUE,TRUE,,,,,,CLR,,,,,,,,VFR,,,,,,,,,,,,METAR,33.0
KMYL 270051Z AUTO 30008KT 10SM CLR 14/08 A2993 RMK AO2 SLP115 T01440083,KMYL,2023-05-27T00:51:00Z,44.9,-116.1,14.4,8.3,300,8,,10.0,29.929134,1011.5,,TRUE,TRUE,,,,,,,CLR,,,,,,,,VFR,,,,,,,,,,,,METAR,1532.0
KMPV 270051Z AUTO 18004KT 10SM CLR 11/03 A3031 RMK AO2 SLP268 T01060033,KMPV,2023-05-27T00:51:00Z,44.2,-72.57,10.6,3.3,180,4,,10.0,30.31004,1026.8,,TRUE,TRUE,,,,,,,CLR,,,,,,,,VFR,,,,,,,,,,,,METAR,336.0
KLGU 270051Z AUTO 18008KT 10SM CLR 20/02 A2989 RMK AO2 SLP088 T02000022,KLGU,2023-05-27T00:51:00Z,41.78,-111.85,20.0,2.2,180,8,,10.0,29.890747,1008.8,,TRUE,TRUE,,,,,,,CLR,,,,,,,,VFR,,,,,,,,,,,,METAR,1359.0
KLGA 270051Z 18007KT 10SM FEW250 19/07 A3024 RMK AO2 SLP241 T01890067 $,KLGA,2023-05-27T00:51:00Z,40.78,-73.88,18.9,6.7,180,7,,10.0,30.239174,1024.1,,,TRUE,TRUE,,,,,,FEW,25000,,,,,,,VFR,,,,,,,,,,,,METAR,9.0
KJFK 270051Z 19008KT 10SM FEW250 16/09 A3026 RMK AO2 SLP248 T01560089,KJFK,2023-05-27T00:51:00Z,40.63,-73.77,15.6,8.9,190,8,,10.0,30.259842,1024.8,,,TRUE,,,,,,,FEW,25000,,,,,,,VFR,,,,,,,,,,,,METAR,3.0
KJCT 270051Z AUTO 12009KT 10SM BKN060 27/18 A2998 RMK AO2 SLP117 T02670178,KJCT,2023-05-27T00:51:00Z,30.5,-99.77,26.7,17.8,120,9,,10.0,29.97933,1011.7,,TRUE,TRUE,,,,,,,BKN,6000,,,,,,,VFR,,,,,,,,,,,,METAR,522.0
KIWA 270051Z 26010G17KT 10SM CLR 34/M03 A2974,KIWA,2023-05-27T00:51:00Z,33.3,-111.65,34.0,-3.0,260,10,17,10.0,29.740158,,,,,,,,,,,CLR,,,,,,,,VFR,,,,,,,,,,,,METAR,420.0
KILG 270051Z 16012KT 10SM CLR 18/05 A3027 RMK AO2 SLP251 T01780050,KILG,2023-05-27T00:51:00Z,39.67,-75.6,17.8,5.0,160,12,,10.0,30.268702,1025.1,,,TRUE,,,,,,,CLR,,,,,,,,VFR,,,,,,,,,,,,METAR,22.0
KIGM 270051Z AUTO 24020G25KT 10SM CLR 27/M04 A2983 RMK AO2 PK WND 22029/2353 SLP040 T02671044,KIGM,2023-05-27T00:51:00Z,35.25,-113.93,26.7,-4.4,240,20,25,10.0,29.828741,1004.0,,TRUE,TRUE,,,,,,,CLR,,,,,,,,VFR,,,,,,,,,,,,METAR,1045.0
KHTS 270051Z 05003KT 10SM CLR 21/04 A3016 RMK AO2 SLP209 T02060044,KHTS,2023-05-27T00:51:00Z,38.37,-82.55,20.6,4.4,50,3,,10.0,30.159449,1020.9,,,TRUE,,,,,,,CLR,,,,,,,,VFR,,,,,,,,,,,,METAR,252.0
KHSE 270051Z AUTO 05012G22KT 10SM -RA BKN055 OVC120 17/14 A3010 RMK AO2 SLP194 P0001 T01670144,KHSE,2023-05-27T00:51:00Z,35.23,-75.62,16.7,14.4,50,12,22,10.0,30.100393,1019.4,,TRUE,TRUE,,,,,,-RA,BKN,5500,OVC,12000,,,,,VFR,,,,,,0.01,,,,,,METAR,4.0
KHDO 270051Z AUTO 11007KT 10SM CLR 28/18 A2995 RMK AO2 SLP128 T02780183,KHDO,2023-05-27T00:51:00Z,29.37,-99.17,27.8,18.3,110,7,,10.0,29.949802,1012.8,,TRUE,TRUE,,,,,,,CLR,,,,,,,,VFR,,,,,,,,,,,,METAR,280.0
KGDP 270051Z AUTO 05022KT 5SM HZ CLR 24/12 RMK AO2 PK WND 05033/0014 SLPNO T02390122 $,KGDP,2023-05-27T00:51:00Z,31.83,-104.82,23.9,12.2,50,22,,5.0,,,,TRUE,TRUE,TRUE,,,,,HZ,CLR,,,,,,,,MVFR,,,,,,,,,,,,METAR,1664.0
KEWR 270051Z 17005KT 10SM FEW250 20/04 A3024 RMK AO2 SLP240 T02000044,KEWR,2023-05-27T00:51:00Z,40.68,-74.17,20.0,4.4,170,5,,10.0,30.239174,1024.0,,,TRUE,,,,,,,FEW,25000,,,,,,,VFR,,,,,,,,,,,,METAR,2.0
KERI 270051Z 03005KT 10SM CLR 15/02 A3031 RMK AO2 SLP263 T01500017,KERI,2023-05-27T00:51:00Z,42.08,-80.18,15.0,1.7,30,5,,10.0,30.31004,1026.3,,,TRUE,,,,,,,CLR,,,,,,,,VFR,,,,,,,,,,,,METAR,222.0
KELP 270051Z 25006KT 10SM FEW100 SCT160 SCT250 34/M08 A2988 RMK AO2 SLP036 CB DSNT E ACSL N T03441083,KELP,2023-05-27T00:51:00Z,31.82,-106.35,34.4,-8.3,250,6,,10.0,29.878937,1003.6,,,TRUE,,,,,,,FEW,10000,SCT,16000,SCT,25000,,,VFR,,,,,,,,,,,,METAR,1205.0
KEKN 270051Z AUTO 00000KT 10SM CLR 14/04 A3025 RMK AO2 SLP246 T01440039,KEKN,2023-05-27T00:51:00Z,38.88,-79.85,14.4,3.9,0,0,,10.0,30.250984,1024.6,,TRUE,TRUE,,,,,,,CLR,,,,,,,,VFR,,,,,,,,,,,,METAR,596.0
KDAW 270051Z AUTO 18004KT 10SM CLR 12/06 A3025 RMK AO2 SLP240 T01170061,KDAW,2023-05-27T00:51:00Z,43.28,-70.92,11.7,6.1,180,4,,10.0,30.250984,1024.0,,TRUE,TRUE,,,,,,,CLR,,,,,,,,VFR,,,,,,,,,,,,METAR,100.0
KCSG 270051Z 08008KT 10SM CLR 23/13 A3003 RMK AO2 SLP165 T02330133,KCSG,2023-05-27T00:51:00Z,32.52,-84.95,23.3,13.3,80,8,,10.0,30.029528,1016.5,,,TRUE,,,,,,,CLR,,,,,,,,VFR,,,,,,,,,,,,METAR,120.0
KCRP 270051Z 09010KT 10SM FEW025 FEW040 FEW060 28/21 A2993 RMK AO2 SLP134 T02780211,KCRP,2023-05-27T00:51:00Z,27.77,-97.5,27.8,21.1,90,10,,10.0,29.929134,1013.4,,,TRUE,,,,,,,FEW,2500,FEW,4000,FEW,6000,,,VFR,,,,,,,,,,,,METAR,11.0
KCON 270051Z AUTO 00000KT 10SM CLR 15/03 A3024 RMK AO2 SLP240 T01500033,KCON,2023-05-27T00:51:00Z,43.2,-71.5,15.0,3.3,0,0,,10.0,30.239174,1024.0,,TRUE,TRUE,,,,,,,CLR,,,,,,,,VFR,,,,,,,,,,,,METAR,102.0
KCMH 270051Z 05007KT 10SM CLR 19/04 A3021 RMK AO2 SLP228 T01940044,KCMH,2023-05-27T00:51:00Z,40.0,-82.88,19.4,4.4,50,7,,10.0,30.209646,1022.8,,,TRUE,,,,,,,CLR,,,,,,,,VFR,,,,,,,,,,,,METAR,257.0
KCLE 270051Z 01007KT 10SM FEW250 15/01 A3027 RMK AO2 SLP265 T01500011,KCLE,2023-05-27T00:51:00Z,41.42,-81.85,15.0,1.1,10,7,,10.0,30.268702,1026.5,,,TRUE,,,,,,,FEW,25000,,,,,,,VFR,,,,,,,,,,,,METAR,237.0
KCDJ 270051Z AUTO 00000KT 23/01 A3019 RMK AO1 SLP215 T02280011,KCDJ,2023-05-27T00:51:00Z,39.82,-93.57,22.8,1.1,0,0,,,30.188976,1021.5,,TRUE,TRUE,,,,,,,,,,,,,,,,,,,,,,,,,,,METAR,234.0
KCAK 270051Z 05011KT 10SM CLR 16/03 A3026 RMK AO2 SLP248 T01610028,KCAK,2023-05-27T00:51:00Z,40.92,-81.45,16.1,2.8,50,11,,10.0,30.259842,1024.8,,,TRUE,,,,,,,CLR,,,,,,,,VFR,,,,,,,,,,,,METAR,369.0
KBKW 270051Z AUTO 13004KT 10SM CLR 16/03 A3022 RMK AO2 SLP220 T01560033,KBKW,2023-05-27T00:51:00Z,37.8,-81.12,15.6,3.3,130,4,,10.0,30.221457,1022.0,,TRUE,TRUE,,,,,,,CLR,,,,,,,,VFR,,,,,,,,,,,,METAR,762.0
KBHK 270051Z AUTO 09009KT 10SM BKN110 21/17 A2989 RMK AO2 SLP104 T02110167,KBHK,2023-05-27T00:51:00Z,46.35,-104.25,21.1,16.7,90,9,,10.0,29.890747,1010.4,,TRUE,TRUE,,,,,,,BKN,11000,,,,,,,VFR,,,,,,,,,,,,METAR,904.0
KBGD 270051Z AUTO 12014G22KT 10SM CLR 22/16 A3006 RMK AO2 SLP149 T02220156,KBGD,2023-05-27T00:51:00Z,35.7,-101.4,22.2,15.6,120,14,22,10.0,30.059055,1014.9,,TRUE,TRUE,,,,,,,CLR,,,,,,,,VFR,,,,,,,,,,,,METAR,928.0
KBED 270051Z 08003KT 10SM CLR 13/06 A3024 RMK AO2 SLP252 T01330061,KBED,2023-05-27T00:51:00Z,42.47,-71.3,13.3,6.1,80,3,,10.0,30.239174,1025.2,,,TRUE,,,,,,,CLR,,,,,,,,VFR,,,,,,,,,,,,METAR,39.0
KBDL 270051Z 01004KT 10SM FEW200 17/03 A3024 RMK AO2 SLP238 T01720033,KBDL,2023-05-27T00:51:00Z,41.93,-72.68,17.2,3.3,10,4,,10.0,30.239174,1023.8,,,TRUE,,,,,,,FEW,20000,,,,,,,VFR,,,,,,,,,,,,METAR,52.0
KBAZ 270051Z AUTO 10007KT 10SM CLR 27/19 A2994 RMK AO2 SLP131 T02720189,KBAZ,2023-05-27T00:51:00Z,29.72,-98.05,27.2,18.9,100,7,,10.0,29.940945,1013.1,,TRUE,TRUE,,,,,,,CLR,,,,,,,,VFR,,,,,,,,,,,,METAR,199.0
KAVX 270051Z AUTO 26011KT 10SM OVC006 13/10 A2997 RMK AO2 CIG 005V010 SLP144 T01280100,KAVX,2023-05-27T00:51:00Z,33.4,-118.42,12.8,10.0,260,11,,10.0,29.970472,1014.4,,TRUE,TRUE,,,,,,,OVC,600,,,,,,,IFR,,,,,,,,,,,,METAR,482.0
KATT 270051Z AUTO 13005KT 9SM CLR 27/17 A2997 RMK AO2 SLP138 T02720172,KATT,2023-05-27T00:51:00Z,30.32,-97.77,27.2,17.2,130,5,,9.0,29.970472,1013.8,,TRUE,TRUE,,,,,,,CLR,,,,,,,,VFR,,,,,,,,,,,,METAR,203.0
KALB 270051Z 00000KT 10SM FEW250 19/03 A3025 RMK AO2 SLP242 T01890033,KALB,2023-05-27T00:51:00Z,42.75,-73.8,18.9,3.3,0,0,,10.0,30.250984,1024.2,,,TRUE,,,,,,,FEW,25000,,,,,,,VFR,,,,,,,,,,,,METAR,82.0
KAHN 270051Z AUTO 08006KT 10SM CLR 17/09 A3011 RMK AO2 SLP195 T01720089,KAHN,2023-05-27T00:51:00Z,33.95,-83.33,17.2,8.9,80,6,,10.0,30.109253,1019.5,,TRUE,TRUE,,,,,,,CLR,,,,,,,,VFR,,,,,,,,,,,,METAR,241.0
KACT 270051Z 07004KT 10SM CLR 26/16 A2998 RMK AO2 SLP145 T02610156,KACT,2023-05-27T00:51:00Z,31.62,-97.23,26.1,15.6,70,4,,10.0,29.97933,1014.5,,,TRUE,,,,,,,CLR,,,,,,,,VFR,,,,,,,,,,,,METAR,150.0
KABE 270051Z 06005KT 10SM CLR 17/01 A3024 RMK AO2 SLP240 T01720011,KABE,2023-05-27T00:51:00Z,40.65,-75.45,17.2,1.1,60,5,,10.0,30.239174,1024.0,,,TRUE,,,,,,,CLR,,,,,,,,VFR,,,,,,,,,,,,METAR,117.0
K6R6 270051Z AUTO 11015G24KT 26/18 A2998 RMK AO1 PK WND 14028/2353 SLP119 T02610178,K6R6,2023-05-27T00:51:00Z,30.05,-102.22,26.1,17.8,110,15,24,,29.97933,1011.9,,TRUE,TRUE,,,,,,,,,,,,,,,,,,,,,,,,,,,METAR,702.0
TJBQ 270050Z 12003KT 10SM CLR 27/23 A2997,TJBQ,2023-05-27T00:50:00Z,18.5,-67.13,27.0,23.0,120,3,,10.0,29.970472,,,,,,,,,,,CLR,,,,,,,,VFR,,,,,,,,,,,,METAR,69.0
PWAK 270050Z AUTO 05017KT 7SM SCT017 BKN029 BKN170 30/24 A2999 RMK AO2 CIG 018V029 SLP162,PWAK,2023-05-27T00:50:00Z,19.28,166.62,30.0,24.0,50,17,,7.0,29.991142,1016.2,,TRUE,TRUE,,,,,,,SCT,1700,BKN,2900,BKN,17000,,,MVFR,,,,,,,,,,,,METAR,7.0
PTRO 270050Z 24014G21KT 12SM BKN015CB BKN110 OVC290 28/24 A2972 RMK CB ALQDS,PTRO,2023-05-27T00:50:00Z,7.37,134.55,28.0,24.0,240,14,21,12.0,29.719488,,,,,,,,,,,BKN,1500,BKN,11000,OVC,29000,,,MVFR,,,,,,,,,,,,METAR,30.0
PTKK 270050Z VRB04KT 15SM FEW012 SCT120 OVC280 30/27 A2980 RMK SLP094 T03040267,PTKK,2023-05-27T00:50:00Z,7.47,151.85,30.4,26.7,0,4,,15.0,29.799213,1009.4,,,,,,,,,,FEW,1200,SCT,12000,OVC,28000,,,VFR,,,,,,,,,,,,METAR,3.0
PKMR 270050Z 12005KT 15SM FEW014TCU SCT045 BKN110 OVC300 27/24 A2985 RMK TCU OHD SLP108 T02700241,PKMR,2023-05-27T00:50:00Z,7.08,171.38,27.0,24.1,120,5,,15.0,29.84941,1010.8,,,,,,,,,,FEW,1400,SCT,4500,BKN,11000,OVC,30000,VFR,,,,,,,,,,,,METAR,7.0
PGRO 270050Z 12015KT 7SM SCT010 BKN090 27/24 A2984,PGRO,2023-05-27T00:50:00Z,14.18,145.25,27.0,24.0,120,15,,7.0,29.840551,,,,,,,,,,,SCT,1000,BKN,9000,,,,,VFR,,,,,,,,,,,,METAR,181.0
PAEL 270050Z VRB06KT 15SM -SHRA OVC025 08/06 A3002 RMK SEA 0 SWELL 2 SW NOSPECI,PAEL,2023-05-27T00:50:00Z,58.2,-136.35,8.0,6.0,0,6,,15.0,30.02067,,,,,,,,,,-SHRA,OVC,2500,,,,,,,MVFR,,,,,,,,,,,,METAR,8.0
OOSA 270050Z 22011KT 9999 VCTS FEW030CB 29/25 Q1010 NOSIG,OOSA,2023-05-27T00:50:00Z,17.03,54.1,29.0,25.0,220,11,,6.21,29.822834,,,,,,TRUE,,,,VCTS,FEW,3000,,,,,,,VFR,,,,,,,,,,,,METAR,20.0
OOMS 270050Z 22015KT CAVOK 36/19 Q1004 NOSIG,OOMS,2023-05-27T00:50:00Z,23.58,58.28,36.0,19.0,220,15,,6.21,29.64567,,,,,,TRUE,,,,,CAVOK,,,,,,,,VFR,,,,,,,,,,,,METAR,8.0
OOKB 270050Z AUTO 21010KT 180V260 CAVOK 38/06 Q1003 NOSIG,OOKB,2023-05-27T00:50:00Z,26.17,56.23,38.0,6.0,210,10,,6.21,29.616142,,,TRUE,,,TRUE,,,,,CAVOK,,,,,,,,VFR,,,,,,,,,,,,METAR,30.0
OODQ 270050Z AUTO 21021KT CAVOK ////// 26/26 Q1008 NOSIG RMK RH100? 0,OODQ,2023-05-27T00:50:00Z,19.52,57.65,26.0,26.0,210,21,,6.21,29.763779,,,TRUE,,,TRUE,,,,,CAVOK,,,,,,,,VFR,,,,,,,,,,,,METAR,116.0
OOAD 270050Z AUTO 23009KT 9999 // NCD 30/21 Q1010 NOSIG,OOAD,2023-05-27T00:50:00Z,22.5,57.37,30.0,21.0,230,9,,6.21,29.822834,,,TRUE,,,TRUE,,,,,CLR,,,,,,,,VFR,,,,,,,,,,,,METAR,327.0
MUVR 270050Z 14003KT 9000 SCT020 24/21 Q1011,MUVR,2023-05-27T00:50:00Z,23.03,-81.43,24.0,21.0,140,3,,5.59,29.852362,,,,,,,,,,,SCT,2000,,,,,,,VFR,,,,,,,,,,,,METAR,65.0
MUSC 270050Z 21003KT 9000 BKN018 24/20 Q1011,MUSC,2023-05-27T00:50:00Z,22.5,-79.92,24.0,20.0,210,3,,5.59,29.852362,,,,,,,,,,,BKN,1800,,,,,,,MVFR,,,,,,,,,,,,METAR,97.0
MUHG 270050Z VRB02KT CAVOK 26/23 Q1012,MUHG,2023-05-27T00:50:00Z,20.78,-76.32,26.0,23.0,0,2,,6.21,29.88189,,,,,,,,,,,CAVOK,,,,,,,,VFR,,,,,,,,,,,,METAR,100.0
MUHA 270050Z 29004KT 9000 FEW030TCU 25/20 Q1011,MUHA,2023-05-27T00:50:00Z,22.98,-82.42,25.0,20.0,290,4,,5.59,29.852362,,,,,,,,,,,FEW,3000,,,,,,,VFR,,,,,,,,,,,,METAR,61.0
MUCU 270050Z VRB03KT 9000 SCT020CB 28/24 Q1012,MUCU,2023-05-27T00:50:00Z,19.97,-75.83,28.0,24.0,0,3,,5.59,29.88189,,,,,,,,,,,SCT,2000,,,,,,,VFR,,,,,,,,,,,,METAR,70.0
MUCM 270050Z 19005KT 9000 FEW020 25/22 Q1011,MUCM,2023-05-27T00:50:00Z,21.42,-77.85,25.0,22.0,190,5,,5.59,29.852362,,,,,,,,,,,FEW,2000,,,,,,,VFR,,,,,,,,,,,,METAR,125.0
MUCL 270050Z 24005KT 200V270 9000 SCT018 28/23 Q1010,MUCL,2023-05-27T00:50:00Z,21.63,-81.55,28.0,23.0,240,5,,5.59,29.822834,,,,,,,,,,,SCT,1800,,,,,,,VFR,,,,,,,,,,,,METAR,5.0
MUCC 270050Z 24006KT 9000 SCT020 28/23 Q1010,MUCC,2023-05-27T00:50:00Z,22.47,-78.33,28.0,23.0,240,6,,5.59,29.822834,,,,,,,,,,,SCT,2000,,,,,,,VFR,,,,,,,,,,,,METAR,7.0
MSLP 270050Z VRB02KT 9999 FEW020 28/25 Q1008 A2978 NOSIG,MSLP,2023-05-27T00:50:00Z,13.43,-89.05,28.0,25.0,0,2,,6.21,29.763779,,,,,,TRUE,,,,,FEW,2000,,,,,,,VFR,,,,,,,,,,,,METAR,25.0
MMDO 270050Z 14007KT 10SM SCT025 BKN090 BKN200 28/M01 A3009 RMK 8/871 CB DSPTG ARND,MMDO,2023-05-27T00:50:00Z,24.12,-104.52,28.0,-1.0,140,7,,10.0,30.088583,,,,,,,,,,,SCT,2500,BKN,9000,BKN,20000,,,VFR,,,,,,,,,,,,METAR,1863.0
LXGB 270050Z AUTO 07008KT 7000 // FEW010/// BKN017/// 19/18 Q1015,LXGB,2023-05-27T00:50:00Z,36.15,-5.33,19.0,18.0,70,8,,4.35,29.970472,,,TRUE,,,,,,,,FEW,1000,BKN,1700,,,,,MVFR,,,,,,,,,,,,SPECI,5.0
LTFO 270050Z 09004KT 9999 BKN012 BKN028 17/15 Q1013,LTFO,2023-05-27T00:50:00Z,41.18,40.85,17.0,15.0,90,4,,6.21,29.911417,,,,,,,,,,,BKN,1200,BKN,2800,,,,,MVFR,,,,,,,,,,,,METAR,5.0
LTFM 270050Z 03006KT 9999 BKN008 17/14 Q1013 NOSIG RMK RWY17L 35003KT RWY34L 03006KT RWY16R VRB02KT RWY36 07007KT RWY18 04004KT,LTFM,2023-05-27T00:50:00Z,41.27,28.75,17.0,14.0,30,6,,6.21,29.911417,,,,,,TRUE,,,,,BKN,800,,,,,,,IFR,,,,,,,,,,,,METAR,99.0
LTFJ 270050Z 06012KT 6000 2800NE PRFG BKN003 15/15 Q1012 TEMPO 1200 BCFG,LTFJ,2023-05-27T00:50:00Z,40.9,29.3,15.0,15.0,60,12,,3.73,29.88189,,,,,,,,,,PRFG,BKN,300,,,,,,,LIFR,,,,,,,,,,,,METAR,83.0
LTFH 270050Z 10003KT 4000 BR BKN005 14/14 Q1013 NOSIG,LTFH,2023-05-27T00:50:00Z,41.27,36.57,14.0,14.0,100,3,,2.49,29.911417,,,,,,TRUE,,,,BR,BKN,500,,,,,,,IFR,,,,,,,,,,,,METAR,7.0
LTFG 270050Z 12005KT CAVOK 16/11 Q1009,LTFG,2023-05-27T00:50:00Z,36.3,32.3,16.0,11.0,120,5,,6.21,29.793306,,,,,,,,,,,CAVOK,,,,,,,,VFR,,,,,,,,,,,,METAR,26.0
LTFE 270050Z VRB02KT CAVOK 15/13 Q1010 NOSIG RMK RWY10 VRB02KT,LTFE,2023-05-27T00:50:00Z,37.25,27.67,15.0,13.0,0,2,,6.21,29.822834,,,,,,TRUE,,,,,CAVOK,,,,,,,,VFR,,,,,,,,,,,,METAR,6.0
LTFD 270050Z 08010KT CAVOK 19/13 Q1011,LTFD,2023-05-27T00:50:00Z,39.55,27.02,19.0,13.0,80,10,,6.21,29.852362,,,,,,,,,,,CAVOK,,,,,,,,VFR,,,,,,,,,,,,METAR,15.0
LTFC 270050Z 07004KT 030V100 CAVOK 08/07 Q1013 RMK RWY23 05004KT,LTFC,2023-05-27T00:50:00Z,37.87,30.38,8.0,7.0,70,4,,6.21,29.911417,,,,,,,,,,,CAVOK,,,,,,,,VFR,,,,,,,,,,,,METAR,862.0
LTDA 270050Z 30004KT 280V340 CAVOK 16/13 Q1010 NOSIG,LTDA,2023-05-27T00:50:00Z,36.37,36.28,16.0,13.0,300,4,,6.21,29.822834,,,,,,TRUE,,,,,CAVOK,,,,,,,,VFR,,,,,,,,,,,,METAR,80.0
LTCW 270050Z 31003KT 230V030 9999 SCT035 SCT070 08/07 Q1020 RESHRA,LTCW,2023-05-27T00:50:00Z,37.55,44.23,8.0,7.0,310,3,,6.21,30.11811,,,,,,,,,,,SCT,3500,SCT,7000,,,,,VFR,,,,,,,,,,,,METAR,1852.0
LTCV 270050Z 23007KT CAVOK 18/11 Q1011,LTCV,2023-05-27T00:50:00Z,37.37,42.07,18.0,11.0,230,7,,6.21,29.852362,,,,,,,,,,,CAVOK,,,,,,,,VFR,,,,,,,,,,,,METAR,620.0
LTCT 270050Z 31006KT 9999 FEW040 SCT100 14/10 Q1016,LTCT,2023-05-27T00:50:00Z,39.98,43.87,14.0,10.0,310,6,,6.21,30.0,,,,,,,,,,,FEW,4000,SCT,10000,,,,,VFR,,,,,,,,,,,,METAR,936.0
LTCS 270050Z 02007KT CAVOK 15/10 Q1012 RMK RWY22 34005KT SKC,LTCS,2023-05-27T00:50:00Z,37.45,38.9,15.0,10.0,20,7,,6.21,29.88189,,,,,,,,,,,CAVOK,,,,,,,,VFR,,,,,,,,,,,,METAR,825.0
LTCN 270050Z 06007KT CAVOK 13/12 Q1011,LTCN,2023-05-27T00:50:00Z,37.53,36.95,13.0,12.0,60,7,,6.21,29.852362,,,,,,,,,,,CAVOK,,,,,,,,VFR,,,,,,,,,,,,METAR,505.0
LTCJ 270050Z VRB01KT CAVOK 14/11 Q1011 NOSIG RMK RWY20 03003KT 2AC100,LTCJ,2023-05-27T00:50:00Z,37.93,41.12,14.0,11.0,0,1,,6.21,29.852362,,,,,,TRUE,,,,,CAVOK,,,,,,,,VFR,,,,,,,,,,,,METAR,559.0
LTCI 270050Z VRB01KT 9999 SCT030 BKN070 09/07 Q1021 RESHRA NOSIG,LTCI,2023-05-27T00:50:00Z,38.47,43.33,9.0,7.0,0,1,,6.21,30.147638,,,,,,TRUE,,,,,SCT,3000,BKN,7000,,,,,VFR,,,,,,,,,,,,METAR,1654.0
LTCG 270050Z 00000KT 8000 SCT012 SCT100 15/15 Q1013 NOSIG RMK RWY29 VRB01KT,LTCG,2023-05-27T00:50:00Z,41.0,39.77,15.0,15.0,0,0,,4.97,29.911417,,,,,,TRUE,,,,,SCT,1200,SCT,10000,,,,,MVFR,,,,,,,,,,,,METAR,28.0
LTCF 270050Z VRB02KT CAVOK 04/02 Q1019 NOSIG,LTCF,2023-05-27T00:50:00Z,40.57,43.12,4.0,2.0,0,2,,6.21,30.088583,,,,,,TRUE,,,,,CAVOK,,,,,,,,VFR,,,,,,,,,,,,METAR,1794.0
LTCE 270050Z VRB01KT 8000 NSC 04/04 Q1019 NOSIG RMK RWY08R 16002KT RWY26R VRB02KT RWY08L 18003KT SKC,LTCE,2023-05-27T00:50:00Z,39.95,41.17,4.0,4.0,0,1,,4.97,30.088583,,,,,,TRUE,,,,,CLR,,,,,,,,MVFR,,,,,,,,,,,,METAR,1758.0
LTCC 270050Z VRB02KT CAVOK 12/10 Q1012 NOSIG RMK RWY16 00000KT SKC,LTCC,2023-05-27T00:50:00Z,37.88,40.2,12.0,10.0,0,2,,6.21,29.88189,,,,,,TRUE,,,,,CAVOK,,,,,,,,VFR,,,,,,,,,,,,METAR,676.0
LTCB 270050Z 22003KT 8000 FEW008 BKN028 14/13 Q1013 NOSIG,LTCB,2023-05-27T00:50:00Z,40.97,38.07,14.0,13.0,220,3,,4.97,29.911417,,,,,,TRUE,,,,,FEW,800,BKN,2800,,,,,MVFR,,,,,,,,,,,,METAR,5.0
LTCA 270050Z 25004KT 9999 FEW040 10/10 Q1013 NOSIG,LTCA,2023-05-27T00:50:00Z,38.6,39.28,10.0,10.0,250,4,,6.21,29.911417,,,,,,TRUE,,,,,FEW,4000,,,,,,,VFR,,,,,,,,,,,,METAR,887.0
LTBY 270050Z 00000KT 9999 SCT040 10/10 Q1014,LTBY,2023-05-27T00:50:00Z,39.82,30.52,10.0,10.0,0,0,,6.21,29.940945,,,,,,,,,,,SCT,4000,,,,,,,VFR,,,,,,,,,,,,METAR,788.0
LTBU 270050Z 04008KT 9999 SCT010 14/14 Q1013 RMK RWY22 04009KT,LTBU,2023-05-27T00:50:00Z,41.13,27.92,14.0,14.0,40,8,,6.21,29.911417,,,,,,,,,,,SCT,1000,,,,,,,VFR,,,,,,,,,,,,METAR,165.0
LTBS 270050Z 01007KT 9999 FEW030 BKN130 19/17 Q1010 NOSIG RMK RWY19 35007KT 320V020 1CU030 5AC130,LTBS,2023-05-27T00:50:00Z,36.7,28.78,19.0,17.0,10,7,,6.21,29.822834,,,,,,TRUE,,,,,FEW,3000,BKN,13000,,,,,VFR,,,,,,,,,,,,METAR,2.0
LTBR 270050Z 00000KT 6000 FEW040 BKN190 13/13 Q1012 NOSIG RMK RWY07 00000KT,LTBR,2023-05-27T00:50:00Z,40.25,29.57,13.0,13.0,0,0,,3.73,29.88189,,,,,,TRUE,,,,,FEW,4000,BKN,19000,,,,,MVFR,,,,,,,,,,,,METAR,233.0
LTBQ 270050Z VRB01KT 6000 BKN010 OVC020 13/13 Q1013 NOSIG,LTBQ,2023-05-27T00:50:00Z,40.73,30.07,13.0,13.0,0,1,,3.73,29.911417,,,,,,TRUE,,,,,BKN,1000,OVC,2000,,,,,MVFR,,,,,,,,,,,,METAR,51.0
LTBJ 270050Z 00000KT CAVOK 15/15 Q1010 NOSIG RMK RWY16 19004KT,LTBJ,2023-05-27T00:50:00Z,38.28,27.15,15.0,15.0,0,0,,6.21,29.822834,,,,,,TRUE,,,,,CAVOK,,,,,,,,VFR,,,,,,,,,,,,METAR,123.0
LTBH 270050Z 09005KT CAVOK 14/13 Q1012,LTBH,2023-05-27T00:50:00Z,40.13,26.42,14.0,13.0,90,5,,6.21,29.88189,,,,,,,,,,,CAVOK,,,,,,,,VFR,,,,,,,,,,,,METAR,8.0
LTBF 270050Z 00000KT CAVOK 14/14 Q1012 NOSIG,LTBF,2023-05-27T00:50:00Z,39.62,27.92,14.0,14.0,0,0,,6.21,29.88189,,,,,,TRUE,,,,,CAVOK,,,,,,,,VFR,,,,,,,,,,,,METAR,95.0
LTBD 270050Z 08005KT CAVOK 17/14 Q1010,LTBD,2023-05-27T00:50:00Z,37.82,27.88,17.0,14.0,80,5,,6.21,29.822834,,,,,,,,,,,CAVOK,,,,,,,,VFR,,,,,,,,,,,,METAR,29.0
LTBA 270050Z 01008KT CAVOK 17/14 Q1012 RMK RWY23 02007KT,LTBA,2023-05-27T00:50:00Z,40.97,28.82,17.0,14.0,10,8,,6.21,29.88189,,,,,,,,,,,CAVOK,,,,,,,,VFR,,,,,,,,,,,,METAR,33.0
LTAZ 270050Z 13010KT 9999 SCT040 SCT100 11/09 Q1014 RMK RWY29 19006KT,LTAZ,2023-05-27T00:50:00Z,38.77,34.52,11.0,9.0,130,10,,6.21,29.940945,,,,,,,,,,,SCT,4000,SCT,10000,,,,,VFR,,,,,,,,,,,,METAR,944.0
LTAY 270050Z VRB02KT 9999 FEW035 11/11 Q1013 NOSIG,LTAY,2023-05-27T00:50:00Z,37.78,29.7,11.0,11.0,0,2,,6.21,29.911417,,,,,,TRUE,,,,,FEW,3500,,,,,,,VFR,,,,,,,,,,,,METAR,851.0
LTAU 270050Z 09004KT 9999 FEW040 08/07 Q1014 NOSIG RMK RWY07 VRB02KT,LTAU,2023-05-27T00:50:00Z,38.77,35.48,8.0,7.0,90,4,,6.21,29.940945,,,,,,TRUE,,,,,FEW,4000,,,,,,,VFR,,,,,,,,,,,,METAR,1053.0
LTAT 270050Z VRB01KT 9999 FEW040 SCT100 11/09 Q1013 NOSIG RMK RWY03 22003KT,LTAT,2023-05-27T00:50:00Z,38.43,38.08,11.0,9.0,0,1,,6.21,29.911417,,,,,,TRUE,,,,,FEW,4000,SCT,10000,,,,,VFR,,,,,,,,,,,,METAR,850.0
LTAR 270050Z 15003KT 120V190 CAVOK 08/07 Q1017,LTAR,2023-05-27T00:50:00Z,39.8,36.9,8.0,7.0,150,3,,6.21,30.029528,,,,,,,,,,,CAVOK,,,,,,,,VFR,,,,,,,,,,,,METAR,1601.0
LTAP 270050Z 36001KT 9999 FEW040 10/10 Q1012 NOSIG RMK RWY23 36003KT,LTAP,2023-05-27T00:50:00Z,40.83,35.52,10.0,10.0,360,1,,6.21,29.88189,,,,,,TRUE,,,,,FEW,4000,,,,,,,VFR,,,,,,,,,,,,METAR,536.0
LTAN 270050Z 30002KT CAVOK 11/09 Q1014 NOSIG,LTAN,2023-05-27T00:50:00Z,37.97,32.55,11.0,9.0,300,2,,6.21,29.940945,,,,,,TRUE,,,,,CAVOK,,,,,,,,VFR,,,,,,,,,,,,METAR,1029.0
LTAJ 270050Z VRB01KT CAVOK 12/10 Q1011 NOSIG RMK RWY10 VRB02KT SKC,LTAJ,2023-05-27T00:50:00Z,36.95,37.48,12.0,10.0,0,1,,6.21,29.852362,,,,,,TRUE,,,,,CAVOK,,,,,,,,VFR,,,,,,,,,,,,METAR,684.0
LTAI 270050Z 35004KT 220V360 9999 SCT030 18/13 Q1009 NOSIG RMK RWY18C 34004KT RWY36R 36005KT RWY18L 36004KT,LTAI,2023-05-27T00:50:00Z,36.9,30.8,18.0,13.0,350,4,,6.21,29.793306,,,,,,TRUE,,,,,SCT,3000,,,,,,,VFR,,,,,,,,,,,,METAR,50.0
LTAF 270050Z 26002KT 9999 FEW017 18/17 Q1010 NOSIG RMK RWY23 VRB02KT 2ST017,LTAF,2023-05-27T00:50:00Z,36.98,35.28,18.0,17.0,260,2,,6.21,29.822834,,,,,,TRUE,,,,,FEW,1700,,,,,,,VFR,,,,,,,,,,,,METAR,19.0
LTAE 270050Z 36005KT CAVOK 08/07 Q1014 NOSIG RMK RWY21 36004KT,LTAE,2023-05-27T00:50:00Z,40.07,32.57,8.0,7.0,360,5,,6.21,29.940945,,,,,,TRUE,,,,,CAVOK,,,,,,,,VFR,,,,,,,,,,,,METAR,836.0
LTAC 270050Z VRB01KT 9999 FEW040 SCT100 10/09 Q1014 NOSIG RMK RWY21L VRB02KT RWY03L 00000KT RWY21R VRB01KT,LTAC,2023-05-27T00:50:00Z,40.12,32.98,10.0,9.0,0,1,,6.21,29.940945,,,,,,TRUE,,,,,FEW,4000,SCT,10000,,,,,VFR,,,,,,,,,,,,METAR,952.0
LSZS 270050Z AUTO 22001KT CAVOK 05/04 Q1025,LSZS,2023-05-27T00:50:00Z,46.53,9.88,5.0,4.0,220,1,,6.21,30.265747,,,TRUE,,,,,,,,CAVOK,,,,,,,,VFR,,,,,,,,,,,,METAR,1708.0
LSZR 270050Z AUTO 28005KT 230V320 CAVOK 14/13 Q1022,LSZR,2023-05-27T00:50:00Z,47.48,9.57,14.0,13.0,280,5,,6.21,30.177166,,,TRUE,,,,,,,,CAVOK,,,,,,,,VFR,,,,,,,,,,,,METAR,396.0
LSZL 270050Z AUTO 00000KT 9999NDV NCD 15/13 Q1019 RMK,LSZL,2023-05-27T00:50:00Z,46.17,8.88,15.0,13.0,0,0,,,30.088583,,,TRUE,,,,,,,,CLR,,,,,,,,,,,,,,,,,,,,METAR,198.0
LSZH 270050Z AUTO 32006KT CAVOK 13/09 Q1022 NOSIG,LSZH,2023-05-27T00:50:00Z,47.48,8.53,13.0,9.0,320,6,,6.21,30.177166,,,TRUE,,,TRUE,,,,,CAVOK,,,,,,,,VFR,,,,,,,,,,,,METAR,424.0
LSZG 270050Z AUTO VRB03KT CAVOK 15/11 Q1021,LSZG,2023-05-27T00:50:00Z,47.17,7.42,15.0,11.0,0,3,,6.21,30.147638,,,TRUE,,,,,,,,CAVOK,,,,,,,,VFR,,,,,,,,,,,,METAR,428.0
LSZC 270050Z AUTO 21004KT CAVOK 14/11 Q1022,LSZC,2023-05-27T00:50:00Z,46.97,8.38,14.0,11.0,210,4,,6.21,30.177166,,,TRUE,,,,,,,,CAVOK,,,,,,,,VFR,,,,,,,,,,,,METAR,445.0
LSZB 270050Z AUTO 05001KT CAVOK 10/09 Q1021,LSZB,2023-05-27T00:50:00Z,46.92,7.5,10.0,9.0,50,1,,6.21,30.147638,,,TRUE,,,,,,,,CAVOK,,,,,,,,VFR,,,,,,,,,,,,METAR,510.0
LSZA 270050Z AUTO VRB02KT CAVOK 15/14 Q1019,LSZA,2023-05-27T00:50:00Z,46.0,8.92,15.0,14.0,0,2,,6.21,30.088583,,,TRUE,,,,,,,,CAVOK,,,,,,,,VFR,,,,,,,,,,,,METAR,276.0
LSMP 270050Z AUTO VRB01KT 9999NDV NCD 14/10 Q1021 RMK,LSMP,2023-05-27T00:50:00Z,46.83,6.92,14.0,10.0,0,1,,,30.147638,,,TRUE,,,,,,,,CLR,,,,,,,,,,,,,,,,,,,,METAR,490.0
LSMM 270050Z AUTO 11007KT 070V140 9999NDV NCD 14/11 Q1022 RMK,LSMM,2023-05-27T00:50:00Z,46.75,8.12,14.0,11.0,110,7,,,30.177166,,,TRUE,,,,,,,,CLR,,,,,,,,,,,,,,,,,,,,METAR,570.0
LSME 270050Z AUTO VRB01KT 9999NDV BR NCD 13/13 Q1022 RMK,LSME,2023-05-27T00:50:00Z,47.1,8.3,13.0,13.0,0,1,,,30.177166,,,TRUE,,,,,,,BR,CLR,,,,,,,,,,,,,,,,,,,,METAR,427.0
LSMD 270050Z AUTO VRB02KT 9999NDV NCD 14/10 Q1022 RMK,LSMD,2023-05-27T00:50:00Z,47.4,8.65,14.0,10.0,0,2,,,30.177166,,,TRUE,,,,,,,,CLR,,,,,,,,,,,,,,,,,,,,METAR,436.0
LSMA 270050Z AUTO VRB02KT 9999NDV NCD 12/11 Q1022 RMK,LSMA,2023-05-27T00:50:00Z,46.95,8.28,12.0,11.0,0,2,,,30.177166,,,TRUE,,,,,,,,CLR,,,,,,,,,,,,,,,,,,,,METAR,441.0
LSGS 270050Z AUTO 00000KT CAVOK 17/12 Q1021,LSGS,2023-05-27T00:50:00Z,46.22,7.32,17.0,12.0,0,0,,6.21,30.147638,,,TRUE,,,,,,,,CAVOK,,,,,,,,VFR,,,,,,,,,,,,METAR,482.0
LSGG 270050Z AUTO VRB01KT CAVOK 14/12 Q1021 NOSIG,LSGG,2023-05-27T00:50:00Z,46.25,6.12,14.0,12.0,0,1,,6.21,30.147638,,,TRUE,,,TRUE,,,,,CAVOK,,,,,,,,VFR,,,,,,,,,,,,METAR,411.0
LSGC 270050Z AUTO VRB03KT CAVOK 11/09 Q1023,LSGC,2023-05-27T00:50:00Z,47.08,6.8,11.0,9.0,0,3,,6.21,30.206694,,,TRUE,,,,,,,,CAVOK,,,,,,,,VFR,,,,,,,,,,,,METAR,1018.0
LOWW 270050Z 34008KT CAVOK 13/07 Q1023 NOSIG,LOWW,2023-05-27T00:50:00Z,48.12,16.57,13.0,7.0,340,8,,6.21,30.206694,,,,,,TRUE,,,,,CAVOK,,,,,,,,VFR,,,,,,,,,,,,METAR,179.0
LOWS 270050Z AUTO VRB02KT 9999 FEW080 12/10 Q1023,LOWS,2023-05-27T00:50:00Z,47.78,13.02,12.0,10.0,0,2,,6.21,30.206694,,,TRUE,,,,,,,,FEW,8000,,,,,,,VFR,,,,,,,,,,,,METAR,427.0
LOWL 270050Z AUTO 04003KT 010V070 9999 BKN060 16/07 Q1024,LOWL,2023-05-27T00:50:00Z,48.22,14.18,16.0,7.0,40,3,,6.21,30.236221,,,TRUE,,,,,,,,BKN,6000,,,,,,,VFR,,,,,,,,,,,,METAR,290.0
LOWK 270050Z AUTO 11003KT 070V150 9999 FEW070 16/09 Q1022,LOWK,2023-05-27T00:50:00Z,46.65,14.32,16.0,9.0,110,3,,6.21,30.177166,,,TRUE,,,,,,,,FEW,7000,,,,,,,VFR,,,,,,,,,,,,METAR,450.0
LOWI 270050Z AUTO 14002KT 9999 BKN050 15/11 Q1022,LOWI,2023-05-27T00:50:00Z,47.27,11.33,15.0,11.0,140,2,,6.21,30.177166,,,TRUE,,,,,,,,BKN,5000,,,,,,,VFR,,,,,,,,,,,,METAR,570.0
LOWG 270050Z AUTO 31003KT 270V330 9999 FEW060 14/11 Q1022,LOWG,2023-05-27T00:50:00Z,47.0,15.43,14.0,11.0,310,3,,6.21,30.177166,,,TRUE,,,,,,,,FEW,6000,,,,,,,VFR,,,,,,,,,,,,METAR,337.0
LIRZ 270050Z AUTO 29005KT 260V330 9999 NCD 15/11 Q1017,LIRZ,2023-05-27T00:50:00Z,43.1,12.5,15.0,11.0,290,5,,6.21,30.029528,,,TRUE,,,,,,,,CLR,,,,,,,,VFR,,,,,,,,,,,,METAR,206.0
LIRQ 270050Z VRB02KT CAVOK 16/14 Q1017,LIRQ,2023-05-27T00:50:00Z,43.8,11.2,16.0,14.0,0,2,,6.21,30.029528,,,,,,,,,,,CAVOK,,,,,,,,VFR,,,,,,,,,,,,METAR,33.0
LIRN 270050Z 25004KT CAVOK 18/14 Q1015 NOSIG,LIRN,2023-05-27T00:50:00Z,40.88,14.3,18.0,14.0,250,4,,6.21,29.970472,,,,,,TRUE,,,,,CAVOK,,,,,,,,VFR,,,,,,,,,,,,METAR,76.0
LIRF 270050Z 01005KT CAVOK 17/13 Q1014 NOSIG,LIRF,2023-05-27T00:50:00Z,41.78,12.23,17.0,13.0,10,5,,6.21,29.940945,,,,,,TRUE,,,,,CAVOK,,,,,,,,VFR,,,,,,,,,,,,METAR,2.0
LIRA 270050Z VRB01KT CAVOK 18/14 Q1015,LIRA,2023-05-27T00:50:00Z,41.8,12.58,18.0,14.0,0,1,,6.21,29.970472,,,,,,,,,,,CAVOK,,,,,,,,VFR,,,,,,,,,,,,METAR,101.0
LIPZ 270050Z 05008KT 9999 -RA NSC 17/16 Q1019 NOSIG,LIPZ,2023-05-27T00:50:00Z,45.5,12.35,17.0,16.0,50,8,,6.21,30.088583,,,,,,TRUE,,,,-RA,CLR,,,,,,,,VFR,,,,,,,,,,,,METAR,3.0
LIPY 270050Z AUTO VRB02KT 9999 NCD 15/13 Q1017,LIPY,2023-05-27T00:50:00Z,43.62,13.37,15.0,13.0,0,2,,6.21,30.029528,,,TRUE,,,,,,,,CLR,,,,,,,,VFR,,,,,,,,,,,,METAR,11.0
LIPX 270050Z 08012KT 050V110 9999 FEW030CB SCT060 21/15 Q1019,LIPX,2023-05-27T00:50:00Z,45.38,10.87,21.0,15.0,80,12,,6.21,30.088583,,,,,,,,,,,FEW,3000,SCT,6000,,,,,VFR,,,,,,,,,,,,METAR,67.0
LIPR 270050Z AUTO 27002KT 9999 NCD 15/12 Q1017,LIPR,2023-05-27T00:50:00Z,44.02,12.62,15.0,12.0,270,2,,6.21,30.029528,,,TRUE,,,,,,,,CLR,,,,,,,,VFR,,,,,,,,,,,,METAR,10.0
LIPQ 270050Z AUTO 10006KT 9999 FEW073/// 20/11 Q1020,LIPQ,2023-05-27T00:50:00Z,45.82,13.47,20.0,11.0,100,6,,6.21,30.11811,,,TRUE,,,,,,,,FEW,7300,,,,,,,VFR,,,,,,,,,,,,METAR,6.0
LIPO 270050Z AUTO 03004KT 9999 -RA FEW065/// BKN071/// 21/16 Q1018,LIPO,2023-05-27T00:50:00Z,45.42,10.33,21.0,16.0,30,4,,6.21,30.059055,,,TRUE,,,,,,,-RA,FEW,6500,BKN,7100,,,,,VFR,,,,,,,,,,,,METAR,104.0
LIPH 270050Z AUTO 31006KT 290V350 9999 -RA BKN081/// 17/16 Q1020,LIPH,2023-05-27T00:50:00Z,45.63,12.18,17.0,16.0,310,6,,6.21,30.11811,,,TRUE,,,,,,,-RA,BKN,8100,,,,,,,VFR,,,,,,,,,,,,METAR,10.0
LIPE 270050Z 19004KT CAVOK 20/15 Q1018,LIPE,2023-05-27T00:50:00Z,44.52,11.3,20.0,15.0,190,4,,6.21,30.059055,,,,,,,,,,,CAVOK,,,,,,,,VFR,,,,,,,,,,,,METAR,37.0
LIMZ 270050Z AUTO 22005KT 9999 NCD 12/09 Q1018,LIMZ,2023-05-27T00:50:00Z,44.53,7.62,12.0,9.0,220,5,,6.21,30.059055,,,TRUE,,,,,,,,CLR,,,,,,,,VFR,,,,,,,,,,,,METAR,377.0
LIML 270050Z 08006KT 9999 SCT080 20/14 Q1018 NOSIG,LIML,2023-05-27T00:50:00Z,45.47,9.27,20.0,14.0,80,6,,6.21,30.059055,,,,,,TRUE,,,,,SCT,8000,,,,,,,VFR,,,,,,,,,,,,METAR,109.0
LIMJ 270050Z VRB01KT CAVOK 20/14 Q1017,LIMJ,2023-05-27T00:50:00Z,44.42,8.83,20.0,14.0,0,1,,6.21,30.029528,,,,,,,,,,,CAVOK,,,,,,,,VFR,,,,,,,,,,,,METAR,3.0
LIMF 270050Z 27003KT 210V290 CAVOK 16/11 Q1018,LIMF,2023-05-27T00:50:00Z,45.22,7.65,16.0,11.0,270,3,,6.21,30.059055,,,,,,,,,,,CAVOK,,,,,,,,VFR,,,,,,,,,,,,METAR,295.0
LIME 270050Z AUTO 09006KT 070V130 9999 TS BKN064/// 20/14 Q1019,LIME,2023-05-27T00:50:00Z,45.67,9.7,20.0,14.0,90,6,,6.21,30.088583,,,TRUE,,,,,,,TS,BKN,6400,,,,,,,VFR,,,,,,,,,,,,METAR,239.0
LIMC 270050Z 03004KT CAVOK 16/13 Q1018 NOSIG,LIMC,2023-05-27T00:50:00Z,45.62,8.72,16.0,13.0,30,4,,6.21,30.059055,,,,,,TRUE,,,,,CAVOK,,,,,,,,VFR,,,,,,,,,,,,METAR,221.0
LIEO 270050Z 25009KT CAVOK 19/14 Q1017,LIEO,2023-05-27T00:50:00Z,40.88,9.52,19.0,14.0,250,9,,6.21,30.029528,,,,,,,,,,,CAVOK,,,,,,,,VFR,,,,,,,,,,,,METAR,8.0
LIEE 270050Z 36006KT CAVOK 15/13 Q1017,LIEE,2023-05-27T00:50:00Z,39.25,9.07,15.0,13.0,360,6,,6.21,30.029528,,,,,,,,,,,CAVOK,,,,,,,,VFR,,,,,,,,,,,,METAR,1.0
LICR 270050Z AUTO 02009KT 9999 NCD 19/14 Q1014,LICR,2023-05-27T00:50:00Z,38.07,15.65,19.0,14.0,20,9,,6.21,29.940945,,,TRUE,,,,,,,,CLR,,,,,,,,VFR,,,,,,,,,,,,METAR,16.0
LICJ 270050Z 16004KT CAVOK 19/17 Q1015,LICJ,2023-05-27T00:50:00Z,38.17,13.08,19.0,17.0,160,4,,6.21,29.970472,,,,,,,,,,,CAVOK,,,,,,,,VFR,,,,,,,,,,,,METAR,20.0
LICD 270050Z AUTO 32015KT 9999 NCD 18/17 Q1015,LICD,2023-05-27T00:50:00Z,35.5,12.62,18.0,17.0,320,15,,6.21,29.970472,,,TRUE,,,,,,,,CLR,,,,,,,,VFR,,,,,,,,,,,,METAR,20.0
LICC 270050Z 24004KT 9999 FEW090 16/15 Q1014,LICC,2023-05-27T00:50:00Z,37.47,15.05,16.0,15.0,240,4,,6.21,29.940945,,,,,,,,,,,FEW,9000,,,,,,,VFR,,,,,,,,,,,,METAR,6.0
LICB 270050Z AUTO VRB02KT 9999 SCT099/// 15/11 Q1014,LICB,2023-05-27T00:50:00Z,37.0,14.62,15.0,11.0,0,2,,6.21,29.940945,,,TRUE,,,,,,,,SCT,9900,,,,,,,VFR,,,,,,,,,,,,METAR,212.0
LICA 270050Z AUTO 19003KT 9999 BKN012/// 17/17 Q1015,LICA,2023-05-27T00:50:00Z,38.9,16.25,17.0,17.0,190,3,,6.21,29.970472,,,TRUE,,,,,,,,BKN,1200,,,,,,,MVFR,,,,,,,,,,,,METAR,7.0
LIBR 270050Z 33011KT CAVOK 19/16 Q1012,LIBR,2023-05-27T00:50:00Z,40.65,17.95,19.0,16.0,330,11,,6.21,29.88189,,,,,,,,,,,CAVOK,,,,,,,,VFR,,,,,,,,,,,,METAR,5.0
LIBP 270050Z AUTO 24006KT 9999 NCD 16/13 Q1017,LIBP,2023-05-27T00:50:00Z,42.42,14.18,16.0,13.0,240,6,,6.21,30.029528,,,TRUE,,,,,,,,CLR,,,,,,,,VFR,,,,,,,,,,,,METAR,10.0
LIBD 270050Z AUTO 22003KT 160V270 9999 SCT083/// 17/13 Q1013,LIBD,2023-05-27T00:50:00Z,41.13,16.77,17.0,13.0,220,3,,6.21,29.911417,,,TRUE,,,,,,,,SCT,8300,,,,,,,VFR,,,,,,,,,,,,METAR,42.0
LGTS 270050Z VRB01KT 9999 FEW025 17/17 Q1013 NOSIG,LGTS,2023-05-27T00:50:00Z,40.52,22.97,17.0,17.0,0,1,,6.21,29.911417,,,,,,TRUE,,,,,FEW,2500,,,,,,,VFR,,,,,,,,,,,,METAR,4.0
LGSR 270050Z 34009KT 9999 FEW025 19/16 Q1008 RMK SCT080 BLU,LGSR,2023-05-27T00:50:00Z,36.4,25.48,19.0,16.0,340,9,,6.21,29.763779,,,,,,,,,,,FEW,2500,,,,,,,VFR,,,,,,,,,,,,METAR,31.0
LGSO 270050Z AUTO 02013KT //// -RA ////// 19/15 Q1010 RE//,LGSO,2023-05-27T00:50:00Z,37.42,24.95,19.0,15.0,20,13,,,29.822834,,,TRUE,,,,,,,-RA,,,,,,,,,,,,,,,,,,,,,METAR,71.0
LGSA 270050Z VRB03KT 9999 -RA FEW020 BKN080 18/17 Q1009,LGSA,2023-05-27T00:50:00Z,35.53,24.13,18.0,17.0,0,3,,6.21,29.793306,,,,,,,,,,-RA,FEW,2000,BKN,8000,,,,,VFR,,,,,,,,,,,,METAR,122.0
LGRX 270050Z VRB03KT CAVOK 18/14 Q1010,LGRX,2023-05-27T00:50:00Z,38.17,21.42,18.0,14.0,0,3,,6.21,29.822834,,,,,,,,,,,CAVOK,,,,,,,,VFR,,,,,,,,,,,,METAR,16.0
LGRP 270050Z 06005KT 9999 FEW018 19/17 Q1008 NOSIG,LGRP,2023-05-27T00:50:00Z,36.4,28.08,19.0,17.0,60,5,,6.21,29.763779,,,,,,TRUE,,,,,FEW,1800,,,,,,,VFR,,,,,,,,,,,,METAR,3.0
LGPZ 270050Z 06014KT 9999 FEW030 SCT080 18/16 Q1011,LGPZ,2023-05-27T00:50:00Z,38.92,20.77,18.0,16.0,60,14,,6.21,29.852362,,,,,,,,,,,FEW,3000,SCT,8000,,,,,VFR,,,,,,,,,,,,METAR,3.0
LGPA 270050Z AUTO 35004KT 330V050 //// // ////// 20/15 Q1009 RE//,LGPA,2023-05-27T00:50:00Z,37.02,25.1,20.0,15.0,350,4,,,29.793306,,,TRUE,,,,,,,,,,,,,,,,,,,,,,,,,,,,METAR,42.0
LGKZ 270050Z AUTO 01006KT 310V020 //// // ////// 13/10 Q1015 RE//,LGKZ,2023-05-27T00:50:00Z,40.28,21.83,13.0,10.0,10,6,,,29.970472,,,TRUE,,,,,,,,,,,,,,,,,,,,,,,,,,,,METAR,615.0
LGKR 270050Z 00000KT 9999 FEW020 SCT080 18/15 Q1011 NOSIG,LGKR,2023-05-27T00:50:00Z,39.62,19.92,18.0,15.0,0,0,,6.21,29.852362,,,,,,TRUE,,,,,FEW,2000,SCT,8000,,,,,VFR,,,,,,,,,,,,METAR,2.0
LGKO 270050Z 04006KT 9999 FEW020 SCT035 20/13 Q1009,LGKO,2023-05-27T00:50:00Z,36.8,27.08,20.0,13.0,40,6,,6.21,29.793306,,,,,,,,,,,FEW,2000,SCT,3500,,,,,VFR,,,,,,,,,,,,METAR,130.0
LGKL 270050Z AUTO VRB01KT //// // ////// 18/15 Q1011 RE//,LGKL,2023-05-27T00:50:00Z,37.07,22.02,18.0,15.0,0,1,,,29.852362,,,TRUE,,,,,,,,,,,,,,,,,,,,,,,,,,,,METAR,4.0
LGIR 270050Z 31007KT 9999 FEW018TCU BKN025 19/18 Q1009 NOSIG,LGIR,2023-05-27T00:50:00Z,35.33,25.17,19.0,18.0,310,7,,6.21,29.793306,,,,,,TRUE,,,,,FEW,1800,BKN,2500,,,,,MVFR,,,,,,,,,,,,METAR,37.0
LGIO 270050Z AUTO 04004KT 020V260 //// // ////// 12/12 Q1013 RE//,LGIO,2023-05-27T00:50:00Z,39.7,20.82,12.0,12.0,40,4,,,29.911417,,,TRUE,,,,,,,,,,,,,,,,,,,,,,,,,,,,METAR,476.0
LGEL 270050Z 00000KT 9999 FEW025 21/12 Q1011,LGEL,2023-05-27T00:50:00Z,38.07,23.55,21.0,12.0,0,0,,6.21,29.852362,,,,,,,,,,,FEW,2500,,,,,,,VFR,,,,,,,,,,,,METAR,21.0
LGBL 270050Z 26005KT 9999 FEW030 17/13 Q1013,LGBL,2023-05-27T00:50:00Z,39.22,22.8,17.0,13.0,260,5,,6.21,29.911417,,,,,,,,,,,FEW,3000,,,,,,,VFR,,,,,,,,,,,,METAR,13.0
LGAV 270050Z 03008KT 9999 FEW025 18/12 Q1011 NOSIG,LGAV,2023-05-27T00:50:00Z,37.93,23.95,18.0,12.0,30,8,,6.21,29.852362,,,,,,TRUE,,,,,FEW,2500,,,,,,,VFR,,,,,,,,,,,,METAR,83.0
LGAL 270050Z 00000KT 9999 FEW025 13/10 Q1012,LGAL,2023-05-27T00:50:00Z,40.85,25.95,13.0,10.0,0,0,,6.21,29.88189,,,,,,,,,,,FEW,2500,,,,,,,VFR,,,,,,,,,,,,METAR,5.0
LGAD 270050Z 00000KT 9999 FEW020 16/15 Q1010,LGAD,2023-05-27T00:50:00Z,37.92,21.28,16.0,15.0,0,0,,6.21,29.822834,,,,,,,,,,,FEW,2000,,,,,,,VFR,,,,,,,,,,,,METAR,8.0
LCRA 270050Z AUTO 08012KT 9999 FEW160/// 21/13 Q1008,LCRA,2023-05-27T00:50:00Z,34.58,32.98,21.0,13.0,80,12,,6.21,29.763779,,,TRUE,,,,,,,,FEW,16000,,,,,,,VFR,,,,,,,,,,,,METAR,23.0
LCEN 270050Z 00000KT 9999 FEW025 SCT100 18/16 Q1009 NOSIG RMK RWY11 00000KT,LCEN,2023-05-27T00:50:00Z,35.15,33.5,18.0,16.0,0,0,,6.21,29.793306,,,,,,TRUE,,,,,FEW,2500,SCT,10000,,,,,VFR,,,,,,,,,,,,METAR,91.0
KXBP 270050Z AUTO 00000KT 10SM CLR 26/16 A3003 RMK AO2 T02550162,KXBP,2023-05-27T00:50:00Z,33.18,-97.83,25.5,16.2,0,0,,10.0,30.029528,,,TRUE,TRUE,,,,,,,CLR,,,,,,,,VFR,,,,,,,,,,,,METAR,256.0
KX26 270050Z AUTO 34019G26KT BKN017 BKN023 BKN043 23/20 A2985 RMK AO2 TSNO,KX26,2023-05-27T00:50:00Z,27.82,-80.5,23.0,20.0,340,19,26,,29.84941,,,TRUE,TRUE,,,TRUE,,,,BKN,1700,BKN,2300,BKN,4300,,,,,,,,,,,,,,,METAR,5.0
KWHP 270050Z 12005KT 10SM OVC034 16/09 A2998,KWHP,2023-05-27T00:50:00Z,34.25,-118.42,16.0,9.0,120,5,,10.0,29.97933,,,,,,,,,,,OVC,3400,,,,,,,VFR,,,,,,,,,,,,METAR,302.0
KVVS 270050Z AUTO 09003KT 10SM CLR 17/02 A3025 RMK AO2 T01690022,KVVS,2023-05-27T00:50:00Z,39.95,-79.65,16.9,2.2,90,3,,10.0,30.250984,,,TRUE,TRUE,,,,,,,CLR,,,,,,,,VFR,,,,,,,,,,,,METAR,386.0
KVQQ 270050Z 03010G22KT 10SM OVC028 20/16 A2997,KVQQ,2023-05-27T00:50:00Z,30.22,-81.88,20.0,16.0,30,10,22,10.0,29.970472,,,,,,,,,,,OVC,2800,,,,,,,MVFR,,,,,,,,,,,,METAR,21.0
KVES 270050Z AUTO 04008KT 10SM CLR 17/M03 A3023 RMK AO2,KVES,2023-05-27T00:50:00Z,40.2,-84.53,17.0,-3.0,40,8,,10.0,30.230314,,,TRUE,TRUE,,,,,,,CLR,,,,,,,,VFR,,,,,,,,,,,,METAR,308.0
KU68 270050Z AUTO 11017G22KT 10SM -VCTSRA OVC070 13/12 A2997 RMK AO2 LTG DSNT N THRU SE,KU68,2023-05-27T00:50:00Z,44.92,-108.45,13.0,12.0,110,17,22,10.0,29.970472,,,TRUE,TRUE,,,,,,VCTS -RA,OVC,7000,,,,,,,VFR,,,,,,,,,,,,METAR,1244.0
KRYY 270050Z 09008KT 10SM CLR 22/11 A3009 RMK AO2 SLP182 T02220111 $,KRYY,2023-05-27T00:50:00Z,34.02,-84.6,22.2,11.1,90,8,,10.0,30.088583,1018.2,,,TRUE,TRUE,,,,,,CLR,,,,,,,,VFR,,,,,,,,,,,,METAR,306.0
KOQU 270050Z 18015KT 10SM SKC 16/09 A3027,KOQU,2023-05-27T00:50:00Z,41.6,-71.42,16.0,9.0,180,15,,10.0,30.268702,,,,,,,,,,,SKC,,,,,,,,VFR,,,,,,,,,,,,METAR,6.0
KOLY 270050Z AUTO 00000KT 10SM CLR 22/02 A3015 RMK AO2 T02150024 PWINO,KOLY,2023-05-27T00:50:00Z,38.72,-88.18,21.5,2.4,0,0,,10.0,30.15059,,,TRUE,TRUE,,,,,TRUE,,CLR,,,,,,,,VFR,,,,,,,,,,,,METAR,144.0
KOLV 270050Z 02005KT 10SM CLR 23/09 A3006,KOLV,2023-05-27T00:50:00Z,34.98,-89.78,23.0,9.0,20,5,,10.0,30.059055,,,,,,,,,,,CLR,,,,,,,,VFR,,,,,,,,,,,,METAR,124.0
KNQA 270050Z 03004KT 10SM CLR 21/11 A3006,KNQA,2023-05-27T00:50:00Z,35.35,-89.87,21.0,11.0,30,4,,10.0,30.059055,,,,,,,,,,,CLR,,,,,,,,VFR,,,,,,,,,,,,METAR,90.0
KLAL 270050Z 04013G18KT 10SM BKN023 BKN110 23/18 A2990,KLAL,2023-05-27T00:50:00Z,27.98,-82.02,23.0,18.0,40,13,18,10.0,29.899607,,,,,,,,,,,BKN,2300,BKN,11000,,,,,MVFR,,,,,,,,,,,,METAR,39.0
KJWN 270050Z 00000KT 10SM CLR 22/12 A3007,KJWN,2023-05-27T00:50:00Z,36.18,-86.88,22.0,12.0,0,0,,10.0,30.070866,,,,,,,,,,,CLR,,,,,,,,VFR,,,,,,,,,,,,METAR,149.0
KGPM 270050Z 08005KT 10SM SKC 27/12 A3002,KGPM,2023-05-27T00:50:00Z,32.7,-97.05,27.0,12.0,80,5,,10.0,30.02067,,,,,,,,,,,SKC,,,,,,,,VFR,,,,,,,,,,,,METAR,178.0
KGNC 270050Z AUTO 10017G22KT 10SM CLR 23/17 A3003 RMK AO2 T02290167,KGNC,2023-05-27T00:50:00Z,32.68,-102.65,22.9,16.7,100,17,22,10.0,30.029528,,,TRUE,TRUE,,,,,,,CLR,,,,,,,,VFR,,,,,,,,,,,,METAR,1002.0
KGEU 270050Z 22014KT 10SM SKC 34/M07 A2970,KGEU,2023-05-27T00:50:00Z,33.53,-112.3,34.0,-7.0,220,14,,10.0,29.698818,,,,,,,,,,,SKC,,,,,,,,VFR,,,,,,,,,,,,METAR,319.0
KFSK 270050Z AUTO 06007KT 10SM CLR 22/06 A3012 RMK AO2 T02230058,KFSK,2023-05-27T00:50:00Z,37.8,-94.77,22.3,5.8,60,7,,10.0,30.121063,,,TRUE,TRUE,,,,,,,CLR,,,,,,,,VFR,,,,,,,,,,,,METAR,276.0
KETN 270050Z AUTO 08004KT 10SM CLR 23/17 A3003 RMK AO2 T02280173,KETN,2023-05-27T00:50:00Z,32.42,-98.82,22.8,17.3,80,4,,10.0,30.029528,,,TRUE,TRUE,,,,,,,CLR,,,,,,,,VFR,,,,,,,,,,,,METAR,445.0
KEAN 270050Z AUTO 19009G15KT 10SM CLR 18/07 A2992 RMK AO2 LTG DSNT N T01800067,KEAN,2023-05-27T00:50:00Z,42.05,-104.93,18.0,6.7,190,9,15,10.0,29.920275,,,TRUE,TRUE,,,,,,,CLR,,,,,,,,VFR,,,,,,,,,,,,METAR,1452.0
KDED 270050Z AUTO 33015G20KT 10SM BKN016 BKN022 OVC027 20/17 A2993 RMK AO2 T02020174,KDED,2023-05-27T00:50:00Z,29.07,-81.28,20.2,17.4,330,15,20,10.0,29.929134,,,TRUE,TRUE,,,,,,,BKN,1600,BKN,2200,OVC,2700,,,MVFR,,,,,,,,,,,,METAR,21.0
KDAG 270050Z AUTO 26010G22KT 10SM CLR 29/04 A2975 RMK AO2 SLP053 T02940039 $,KDAG,2023-05-27T00:50:00Z,34.85,-116.78,29.4,3.9,260,10,22,10.0,29.749016,1005.3,,TRUE,TRUE,TRUE,,,,,,CLR,,,,,,,,VFR,,,,,,,,,,,,METAR,584.0
KCWA 270050Z 13004KT 10SM CLR 19/03 A3029,KCWA,2023-05-27T00:50:00Z,44.78,-89.67,19.0,3.0,130,4,,10.0,30.28937,,,,,,,,,,,CLR,,,,,,,,VFR,,,,,,,,,,,,METAR,387.0
KBMC 270050Z AUTO 12010KT 10SM CLR 21/00 A2988 RMK AO1 T02050004,KBMC,2023-05-27T00:50:00Z,41.55,-112.07,20.5,0.4,120,10,,10.0,29.878937,,,TRUE,TRUE,,,,,,,CLR,,,,,,,,VFR,,,,,,,,,,,,METAR,1289.0
KBIF 270050Z 28004KT 7SM FEW150 FEW250 33/M08 A2991 RMK A02 SLPNO ALSTG WND DATA ESTMD,KBIF,2023-05-27T00:50:00Z,31.85,-106.38,33.0,-8.0,280,4,,7.0,29.911417,,,,TRUE,,,,,,,FEW,15000,FEW,25000,,,,,VFR,,,,,,,,,,,,METAR,1201.0
KANK 270050Z AUTO 16007G15KT 10SM CLR A3013 RMK AO1,KANK,2023-05-27T00:50:00Z,38.53,-106.05,,,160,7,15,10.0,30.129921,,,TRUE,TRUE,,,,,,,CLR,,,,,,,,VFR,,,,,,,,,,,,METAR,2293.0
KALN 270050Z VRB04KT 10SM CLR 22/05 A3017,KALN,2023-05-27T00:50:00Z,38.88,-90.03,22.0,5.0,0,4,,10.0,30.171259,,,,,,,,,,,CLR,,,,,,,,VFR,,,,,,,,,,,,METAR,159.0
KADM 270050Z 09004KT 10SM BKN120 25/15 A3002,KADM,2023-05-27T00:50:00Z,34.3,-97.02,25.0,15.0,90,4,,10.0,30.02067,,,,,,,,,,,BKN,12000,,,,,,,VFR,,,,,,,,,,,,METAR,223.0
K19S 270050Z AUTO 16017KT 10SM CLR 22/12 A3007 RMK AO2 T02160119,K19S,2023-05-27T00:50:00Z,37.48,-100.83,21.6,11.9,160,17,,10.0,30.070866,,,TRUE,TRUE,,,,,,,CLR,,,,,,,,VFR,,,,,,,,,,,,METAR,886.0
FHAW 270050Z 13014KT 9999 FEW022 SCT035 26/21 Q1014 TEMPO SCT020,FHAW,2023-05-27T00:50:00Z,-7.97,-14.4,26.0,21.0,130,14,,6.21,29.940945,,,,,,,,,,,FEW,2200,SCT,3500,,,,,VFR,,,,,,,,,,,,METAR,79.0
EYVI 270050Z 35011KT CAVOK 09/03 Q1022 NOSIG,EYVI,2023-05-27T00:50:00Z,54.63,25.28,9.0,3.0,350,11,,6.21,30.177166,,,,,,TRUE,,,,,CAVOK,,,,,,,,VFR,,,,,,,,,,,,METAR,180.0
EYSA 270050Z AUTO 30007KT 9999NDV NCD 05/02 Q1025,EYSA,2023-05-27T00:50:00Z,55.9,23.4,5.0,2.0,300,7,,,30.265747,,,TRUE,,,,,,,,CLR,,,,,,,,,,,,,,,,,,,,METAR,135.0
EYPA 270050Z VRB01KT CAVOK 04/03 Q1027,EYPA,2023-05-27T00:50:00Z,55.97,21.08,4.0,3.0,0,1,,6.21,30.324802,,,,,,,,,,,CAVOK,,,,,,,,VFR,,,,,,,,,,,,METAR,15.0
ESUT 270050Z AUTO 29009KT 9999 FEW022/// SCT039/// BKN046/// 00/M02 Q1018 RESHUP REUP,ESUT,2023-05-27T00:50:00Z,65.8,15.08,0.0,-2.0,290,9,,6.21,30.059055,,,TRUE,,,,,,,UP,FEW,2200,SCT,3900,BKN,4600,,,VFR,,,,,,,,,,,,METAR,457.0
ESUP 270050Z AUTO 26005KT 9999 NCD ///// Q1013,ESUP,2023-05-27T00:50:00Z,67.25,23.07,,,260,5,,6.21,29.911417,,,TRUE,,,,,,,,CLR,,,,,,,,VFR,,,,,,,,,,,,METAR,164.0
ESTL 270050Z AUTO 00000KT 9999 NCD 04/04 Q1028,ESTL,2023-05-27T00:50:00Z,56.07,13.2,4.0,4.0,0,0,,6.21,30.35433,,,TRUE,,,,,,,,CLR,,,,,,,,VFR,,,,,,,,,,,,METAR,39.0
ESTA 270050Z AUTO 11001KT 9999 NCD 05/03 Q1028,ESTA,2023-05-27T00:50:00Z,56.28,12.83,5.0,3.0,110,1,,6.21,30.35433,,,TRUE,,,,,,,,CLR,,,,,,,,VFR,,,,,,,,,,,,METAR,19.0
ESSV 270050Z AUTO 20003KT 9999 NCD 05/04 Q1026,ESSV,2023-05-27T00:50:00Z,57.67,18.35,5.0,4.0,200,3,,6.21,30.295275,,,TRUE,,,,,,,,CLR,,,,,,,,VFR,,,,,,,,,,,,METAR,38.0
ESST 270050Z AUTO 00000KT 9999 NCD 03/01 Q1025,ESST,2023-05-27T00:50:00Z,60.15,12.98,3.0,1.0,0,0,,6.21,30.265747,,,TRUE,,,,,,,,CLR,,,,,,,,VFR,,,,,,,,,,,,METAR,110.0
ESSP 270050Z AUTO 11001KT 9999 NCD 04/00 Q1026,ESSP,2023-05-27T00:50:00Z,58.58,16.25,4.0,0.0,110,1,,6.21,30.295275,,,TRUE,,,,,,,,CLR,,,,,,,,VFR,,,,,,,,,,,,METAR,3.0
ESSL 270050Z AUTO 13003KT 9999 NCD 03/M00 Q1026,ESSL,2023-05-27T00:50:00Z,58.4,15.67,3.0,0.0,130,3,,6.21,30.295275,,,TRUE,,,,,,,,CLR,,,,,,,,VFR,,,,,,,,,,,,METAR,51.0
ESSD 270050Z AUTO 25004KT 9999 NCD 02/M01 Q1025,ESSD,2023-05-27T00:50:00Z,60.42,15.5,2.0,-1.0,250,4,,6.21,30.265747,,,TRUE,,,,,,,,CLR,,,,,,,,VFR,,,,,,,,,,,,METAR,151.0
ESSB 270050Z AUTO VRB03KT 9999 OVC094/// 07/05 Q1025,ESSB,2023-05-27T00:50:00Z,59.35,17.93,7.0,5.0,0,3,,6.21,30.265747,,,TRUE,,,,,,,,OVC,9400,,,,,,,VFR,,,,,,,,,,,,METAR,14.0
ESSA 270050Z VRB01KT CAVOK 04/M00 Q1025 NOSIG,ESSA,2023-05-27T00:50:00Z,59.65,17.93,4.0,0.0,0,1,,6.21,30.265747,,,,,,TRUE,,,,,CAVOK,,,,,,,,VFR,,,,,,,,,,,,METAR,36.0
ESPE 270050Z AUTO 28009KT 9999 NCD 01/M04 Q1017,ESPE,2023-05-27T00:50:00Z,65.88,20.15,1.0,-4.0,280,9,,6.21,30.029528,,,TRUE,,,,,,,,CLR,,,,,,,,VFR,,,,,,,,,,,,METAR,182.0
ESPA 270050Z AUTO 28008KT 9999 NCD 04/M05 Q1017,ESPA,2023-05-27T00:50:00Z,65.53,22.12,4.0,-5.0,280,8,,6.21,30.029528,,,TRUE,,,,,,,,CLR,,,,,,,,VFR,,,,,,,,,,,,METAR,12.0
ESOW 270050Z AUTO 03003KT 9999 NCD 05/M01 Q1026,ESOW,2023-05-27T00:50:00Z,59.58,16.63,5.0,-1.0,30,3,,6.21,30.295275,,,TRUE,,,,,,,,CLR,,,,,,,,VFR,,,,,,,,,,,,METAR,7.0
ESOK 270050Z AUTO 29003KT 250V330 9999 NCD 04/00 Q1025,ESOK,2023-05-27T00:50:00Z,59.45,13.33,4.0,0.0,290,3,,6.21,30.265747,,,TRUE,,,,,,,,CLR,,,,,,,,VFR,,,,,,,,,,,,METAR,101.0
ESOH 270050Z AUTO 00000KT 9999 FEW120/// SCT160/// M00/M02 Q1025,ESOH,2023-05-27T00:50:00Z,60.02,13.58,0.0,-2.0,0,0,,6.21,30.265747,,,TRUE,,,,,,,,FEW,12000,SCT,16000,,,,,VFR,,,,,,,,,,,,METAR,145.0
ESOE 270050Z AUTO 00000KT 9999 NCD 02/M00 Q1025,ESOE,2023-05-27T00:50:00Z,59.22,15.05,2.0,0.0,0,0,,6.21,30.265747,,,TRUE,,,,,,,,CLR,,,,,,,,VFR,,,,,,,,,,,,METAR,57.0
ESNZ 270050Z AUTO 20004KT 9999 -RA FEW021/// SCT027/// 03/M09 Q1021 REDZ,ESNZ,2023-05-27T00:50:00Z,63.18,14.5,3.0,-9.0,200,4,,6.21,30.147638,,,TRUE,,,,,,,-RA,FEW,2100,SCT,2700,,,,,VFR,,,,,,,,,,,,METAR,360.0
ESNX 270050Z AUTO 28007KT 9999 NCD 01/M05 Q1017,ESNX,2023-05-27T00:50:00Z,65.58,19.28,1.0,-5.0,280,7,,6.21,30.029528,,,TRUE,,,,,,,,CLR,,,,,,,,VFR,,,,,,,,,,,,METAR,380.0
ESNV 270050Z AUTO 26005KT 9999 NCD M03/M05 Q1020,ESNV,2023-05-27T00:50:00Z,64.58,16.83,-3.0,-5.0,260,5,,6.21,30.11811,,,TRUE,,,,,,,,CLR,,,,,,,,VFR,,,,,,,,,,,,METAR,348.0
ESNU 270050Z AUTO 28006KT 9999 NCD 03/M02 Q1020,ESNU,2023-05-27T00:50:00Z,63.78,20.28,3.0,-2.0,280,6,,6.21,30.11811,,,TRUE,,,,,,,,CLR,,,,,,,,VFR,,,,,,,,,,,,METAR,8.0
ESNS 270050Z AUTO 28008KT 9999 NCD 03/M03 Q1019,ESNS,2023-05-27T00:50:00Z,64.62,21.07,3.0,-3.0,280,8,,6.21,30.088583,,,TRUE,,,,,,,,CLR,,,,,,,,VFR,,,,,,,,,,,,METAR,41.0
ESNQ 270050Z AUTO 32009KT 9999 SG FEW032/// SCT160/// 00/M05 Q1012 REUP,ESNQ,2023-05-27T00:50:00Z,67.82,20.33,0.0,-5.0,320,9,,6.21,29.88189,,,TRUE,,,,,,,SG,FEW,3200,SCT,16000,,,,,VFR,,,,,,,,,,,,METAR,447.0
ESNO 270050Z AUTO 31010KT 9999 NCD 03/M01 Q1021,ESNO,2023-05-27T00:50:00Z,63.4,18.97,3.0,-1.0,310,10,,6.21,30.147638,,,TRUE,,,,,,,,CLR,,,,,,,,VFR,,,,,,,,,,,,METAR,100.0
ESNL 270050Z AUTO 26008KT 9999 NCD 01/M03 Q1019,ESNL,2023-05-27T00:50:00Z,64.55,18.72,1.0,-3.0,260,8,,6.21,30.088583,,,TRUE,,,,,,,,CLR,,,,,,,,VFR,,,,,,,,,,,,METAR,220.0
ESNK 270050Z AUTO VRB02KT 9999 NCD ///// Q1023,ESNK,2023-05-27T00:50:00Z,63.03,17.77,,,0,2,,6.21,30.206694,,,TRUE,,,,,,,,CLR,,,,,,,,VFR,,,,,,,,,,,,METAR,4.0
ESNG 270050Z AUTO 28011KT 9999 FEW210/// 02/M06 Q1014,ESNG,2023-05-27T00:50:00Z,67.13,20.82,2.0,-6.0,280,11,,6.21,29.940945,,,TRUE,,,,,,,,FEW,21000,,,,,,,VFR,,,,,,,,,,,,METAR,300.0
ESND 270050Z AUTO 00000KT 9999 OVC074/// M00/M02 Q1023,ESND,2023-05-27T00:50:00Z,62.05,14.42,0.0,-2.0,0,0,,6.21,30.206694,,,TRUE,,,,,,,,OVC,7400,,,,,,,VFR,,,,,,,,,,,,METAR,352.0
ESMX 270050Z 18003KT CAVOK 03/02 Q1027,ESMX,2023-05-27T00:50:00Z,56.92,14.72,3.0,2.0,180,3,,6.21,30.324802,,,,,,,,,,,CAVOK,,,,,,,,VFR,,,,,,,,,,,,METAR,176.0
ESMT 270050Z AUTO 00000KT 9999 NCD 08/07 Q1028,ESMT,2023-05-27T00:50:00Z,56.68,12.82,8.0,7.0,0,0,,6.21,30.35433,,,TRUE,,,,,,,,CLR,,,,,,,,VFR,,,,,,,,,,,,METAR,24.0
ESMS 270050Z 31004KT CAVOK 05/04 Q1028,ESMS,2023-05-27T00:50:00Z,55.53,13.37,5.0,4.0,310,4,,6.21,30.35433,,,,,,,,,,,CAVOK,,,,,,,,VFR,,,,,,,,,,,,METAR,68.0
ESMQ 270050Z AUTO 29002KT 9999 NCD 02/02 Q1027,ESMQ,2023-05-27T00:50:00Z,56.68,16.3,2.0,2.0,290,2,,6.21,30.324802,,,TRUE,,,,,,,,CLR,,,,,,,,VFR,,,,,,,,,,,,METAR,3.0
ESMK 270050Z AUTO 28008KT 9999 NCD 08/06 Q1027,ESMK,2023-05-27T00:50:00Z,55.92,14.08,8.0,6.0,280,8,,6.21,30.324802,,,TRUE,,,,,,,,CLR,,,,,,,,VFR,,,,,,,,,,,,METAR,20.0
ESKS 270050Z AUTO 09005KT 9999 OVC098/// 04/M04 Q1023,ESKS,2023-05-27T00:50:00Z,61.17,12.83,4.0,-4.0,90,5,,6.21,30.206694,,,TRUE,,,,,,,,OVC,9800,,,,,,,VFR,,,,,,,,,,,,METAR,503.0
ESKN 270050Z 00000KT 0100 R08/P2000N R26/0500N PRFG NSC 03/02 Q1025,ESKN,2023-05-27T00:50:00Z,58.78,16.92,3.0,2.0,0,0,,0.06,30.265747,,,,,,,,,,PRFG,CLR,,,,,,,,LIFR,,,,,,,,,,,,METAR,41.0
ESKM 270050Z AUTO VRB01KT 9999 FEW110/// 00/M02 Q1025,ESKM,2023-05-27T00:50:00Z,60.97,14.52,0.0,-2.0,0,1,,6.21,30.265747,,,TRUE,,,,,,,,FEW,11000,,,,,,,VFR,,,,,,,,,,,,METAR,184.0
ESIB 270050Z AUTO 16003KT 080V230 9999 NCD 06/05 Q1026,ESIB,2023-05-27T00:50:00Z,58.42,12.7,6.0,5.0,160,3,,6.21,30.295275,,,TRUE,,,,,,,,CLR,,,,,,,,VFR,,,,,,,,,,,,METAR,51.0
ESIA 270050Z AUTO 21002KT 9999 NCD 03/02 Q1026,ESIA,2023-05-27T00:50:00Z,58.52,14.5,3.0,2.0,210,2,,6.21,30.295275,,,TRUE,,,,,,,,CLR,,,,,,,,VFR,,,,,,,,,,,,METAR,94.0
ESGT 270050Z AUTO 15004KT 9999 R15///// R33///// NCD 04/03 Q1026,ESGT,2023-05-27T00:50:00Z,58.32,12.33,4.0,3.0,150,4,,6.21,30.295275,,,TRUE,,,,,,,,CLR,,,,,,,,VFR,,,,,,,,,,,,METAR,40.0
ESGP 270050Z AUTO VRB03KT 8000 NCD 06/05 Q1026,ESGP,2023-05-27T00:50:00Z,57.77,11.87,6.0,5.0,0,3,,4.97,30.295275,,,TRUE,,,,,,,,CLR,,,,,,,,MVFR,,,,,,,,,,,,METAR,15.0
ESGJ 270050Z AUTO 23003KT 9999 NCD 03/02 Q1026,ESGJ,2023-05-27T00:50:00Z,57.77,14.07,3.0,2.0,230,3,,6.21,30.295275,,,TRUE,,,,,,,,CLR,,,,,,,,VFR,,,,,,,,,,,,METAR,224.0
ESGG 270050Z 23006KT CAVOK 07/06 Q1026,ESGG,2023-05-27T00:50:00Z,57.67,12.3,7.0,6.0,230,6,,6.21,30.295275,,,,,,,,,,,CAVOK,,,,,,,,VFR,,,,,,,,,,,,METAR,152.0
ESDF 270050Z AUTO 01003KT 9999 NCD 05/03 Q1027,ESDF,2023-05-27T00:50:00Z,56.27,15.27,5.0,3.0,10,3,,6.21,30.324802,,,TRUE,,,,,,,,CLR,,,,,,,,VFR,,,,,,,,,,,,METAR,52.0
ESCM 270050Z AUTO 00000KT 9999 OVC096/// 05/02 Q1025,ESCM,2023-05-27T00:50:00Z,59.88,17.6,5.0,2.0,0,0,,6.21,30.265747,,,TRUE,,,,,,,,OVC,9600,,,,,,,VFR,,,,,,,,,,,,METAR,21.0
ESCF 270050Z AUTO 20003KT 9999 NCD 04/00 Q1026,ESCF,2023-05-27T00:50:00Z,58.38,15.52,4.0,0.0,200,3,,6.21,30.295275,,,TRUE,,,,,,,,CLR,,,,,,,,VFR,,,,,,,,,,,,METAR,86.0
ENZV 270050Z AUTO 15003KT 9999 FEW012/// SCT020/// BKN030/// 06/05 Q1029,ENZV,2023-05-27T00:50:00Z,58.88,5.63,6.0,5.0,150,3,,6.21,30.383858,,,TRUE,,,,,,,,FEW,1200,SCT,2000,BKN,3000,,,MVFR,,,,,,,,,,,,METAR,7.0
ENWV 270050Z AUTO 21006KT 150V230 9999NDV SCT021/// 09/07 Q1031 W///S4,ENWV,2023-05-27T00:50:00Z,56.28,3.4,9.0,7.0,210,6,,,30.442913,,,TRUE,,,,,,,,SCT,2100,,,,,,,,,,,,,,,,,,,METAR,30.0
ENVD 270050Z AUTO 28018KT 9999 NCD 03/M01 Q1006,ENVD,2023-05-27T00:50:00Z,70.07,29.85,3.0,-1.0,280,18,,6.21,29.704725,,,TRUE,,,,,,,,CLR,,,,,,,,VFR,,,,,,,,,,,,METAR,39.0
ENVA 270050Z AUTO 08004KT 060V120 9999 -RA BKN024/// OVC028/// 06/05 Q1022 RMK WIND 670FT 22010KT,ENVA,2023-05-27T00:50:00Z,63.47,10.92,6.0,5.0,80,4,,6.21,30.177166,,,TRUE,,,,,,,-RA,BKN,2400,OVC,2800,,,,,MVFR,,,,,,,,,,,,METAR,12.0
ENUN 270050Z AUTO 18014KT 9999NDV FEW028/// BKN110/// 05/M02 Q1015 W07/S5,ENUN,2023-05-27T00:50:00Z,,,5.0,-2.0,180,14,,,29.970472,,,TRUE,,,,,,,,FEW,2800,BKN,11000,,,,,,,,,,,,,,,,,METAR,
ENUG 270050Z AUTO 29040KT 9999NDV BKN017/// BKN093/// 02/M01 Q1002 W///S6,ENUG,2023-05-27T00:50:00Z,71.3,22.25,2.0,-1.0,290,40,,,29.586615,,,TRUE,,,,,,,,BKN,1700,BKN,9300,,,,,,,,,,,,,,,,,METAR,30.0
ENTO 270050Z AUTO 31003KT 290V350 9999 NCD 08/01 Q1026,ENTO,2023-05-27T00:50:00Z,59.2,10.27,8.0,1.0,310,3,,6.21,30.295275,,,TRUE,,,,,,,,CLR,,,,,,,,VFR,,,,,,,,,,,,METAR,84.0
ENTC 270050Z 28014KT 9999 VCSH SCT026 BKN055 02/M02 Q1013 RMK WIND 2600FT 28026G38KT,ENTC,2023-05-27T00:50:00Z,69.68,18.92,2.0,-2.0,280,14,,6.21,29.911417,,,,,,,,,,VCSH,SCT,2600,BKN,5500,,,,,VFR,,,,,,,,,,,,METAR,9.0
ENSS 270050Z AUTO 27010KT 9999 FEW080/// SCT108/// 03/M01 Q1005 RMK WIND 0500FT 26022KT,ENSS,2023-05-27T00:50:00Z,70.35,31.05,3.0,-1.0,270,10,,6.21,29.675198,,,TRUE,,,,,,,,FEW,8000,SCT,10800,,,,,VFR,,,,,,,,,,,,METAR,13.0
ENSR 270050Z AUTO 29010KT 250V330 9999 -SN ///027/// 02/M02 Q1011 RMK WIND RWY32 31010KT WIND 1118FT 26022KT,ENSR,2023-05-27T00:50:00Z,69.78,20.97,2.0,-2.0,290,10,,6.21,29.852362,,,TRUE,,,,,,,-SN,,,,,,,,,,,,,,,,,,,,,METAR,5.0
ENSL 270050Z AUTO 19023KT 9999NDV OVC033/// 10/08 Q1028 W08/S4,ENSL,2023-05-27T00:50:00Z,58.37,1.9,10.0,8.0,190,23,,,30.35433,,,TRUE,,,,,,,,OVC,3300,,,,,,,,,,,,,,,,,,,METAR,50.0
ENSK 270050Z AUTO 29006KT 9999 -SN SCT011/// BKN027/// BKN062/// 00/M01 Q1016,ENSK,2023-05-27T00:50:00Z,68.57,15.02,0.0,-1.0,290,6,,6.21,30.0,,,TRUE,,,,,,,-SN,SCT,1100,BKN,2700,BKN,6200,,,MVFR,,,,,,,,,,,,METAR,3.0
ENSH 270050Z AUTO 25006KT 9999 SCT070/// 01/M01 Q1017 RMK WIND 0150FT 23009KT,ENSH,2023-05-27T00:50:00Z,68.25,14.67,1.0,-1.0,250,6,,6.21,30.029528,,,TRUE,,,,,,,,SCT,7000,,,,,,,VFR,,,,,,,,,,,,METAR,9.0
ENSG 270050Z AUTO 24005KT 210V270 9999 OVC029/// 05/01 Q1025 RMK WIND 3806FT 23016KT,ENSG,2023-05-27T00:50:00Z,61.15,7.13,5.0,1.0,240,5,,6.21,30.265747,,,TRUE,,,,,,,,OVC,2900,,,,,,,MVFR,,,,,,,,,,,,METAR,493.0
ENSF 270050Z AUTO 22032KT 9999NDV OVC006/// ///// Q//// W///S4,ENSF,2023-05-27T00:50:00Z,61.25,1.85,,,220,32,,,,,,TRUE,,,,,,,,OVC,600,,,,,,,,,,,,,,,,,,,METAR,15.0
ENSE 270050Z AUTO 22029KT //// OVC005/// 10/09 Q1021 W///S4,ENSE,2023-05-27T00:50:00Z,61.45,2.15,10.0,9.0,220,29,,,30.147638,,,TRUE,,,,,,,,OVC,500,,,,,,,,,,,,,,,,,,,METAR,10.0
ENSD 270050Z AUTO VRB03KT 9999 -RA BKN035/// OVC053/// 10/03 Q1024 RMK WIND RWY26 VRB03KT WIND 1140FT 21009G19KT,ENSD,2023-05-27T00:50:00Z,61.82,6.12,10.0,3.0,0,3,,6.21,30.236221,,,TRUE,,,,,,,-RA,BKN,3500,OVC,5300,,,,,VFR,,,-0.9,,,,,,,,,METAR,61.0
ENSB 270050Z 03006KT 9999 FEW025 M02/M08 Q0998 RMK WIND 1400FT 06006KT,ENSB,2023-05-27T00:50:00Z,78.25,15.47,-2.0,-8.0,30,6,,6.21,29.468504,,,,,,,,,,,FEW,2500,,,,,,,VFR,,,,,,,,,,,,METAR,30.0
ENRY 270050Z AUTO 28005KT 9999 NCD 08/02 Q1026,ENRY,2023-05-27T00:50:00Z,59.37,10.77,8.0,2.0,280,5,,6.21,30.295275,,,TRUE,,,,,,,,CLR,,,,,,,,VFR,,,,,,,,,,,,METAR,45.0
ENRS 270050Z AUTO 23011KT 9999 OVC053/// 04/M01 Q1018,ENRS,2023-05-27T00:50:00Z,67.52,12.1,4.0,-1.0,230,11,,6.21,30.059055,,,TRUE,,,,,,,,OVC,5300,,,,,,,VFR,,,,,,,,,,,,METAR,4.0
ENRO 270050Z AUTO 26001KT 9999 FEW062/// OVC078/// 01/M02 Q1022,ENRO,2023-05-27T00:50:00Z,62.57,11.33,1.0,-2.0,260,1,,6.21,30.177166,,,TRUE,,,,,,,,FEW,6200,OVC,7800,,,,,VFR,,,,,,,,,,,,METAR,624.0
ENRM 270050Z AUTO 17006KT 140V200 9999 -RA BKN018/// OVC025/// 06/03 Q1020,ENRM,2023-05-27T00:50:00Z,64.83,11.13,6.0,3.0,170,6,,6.21,30.11811,,,TRUE,,,,,,,-RA,BKN,1800,OVC,2500,,,,,MVFR,,,,,,,,,,,,METAR,4.0
ENRA 270050Z AUTO 00000KT 9999 FEW026/// BKN051/// 02/00 Q1019,ENRA,2023-05-27T00:50:00Z,66.37,14.3,2.0,0.0,0,0,,6.21,30.088583,,,TRUE,,,,,,,,FEW,2600,BKN,5100,,,,,VFR,,,,,,,,,,,,METAR,66.0
ENQR 270050Z AUTO 23027KT 7000NDV OVC005/// 09/09 Q1020 W10/S4,ENQR,2023-05-27T00:50:00Z,61.52,2.22,9.0,9.0,230,27,,,30.11811,,,TRUE,,,,,,,,OVC,500,,,,,,,,,,,,,,,,,,,METAR,10.0
ENQC 270050Z AUTO 19024KT 4000NDV -RA BR OVC004/// 09/08 Q1024 W///S4,ENQC,2023-05-27T00:50:00Z,60.88,3.62,9.0,8.0,190,24,,,30.236221,,,TRUE,,,,,,,-RA BR,OVC,400,,,,,,,,,,,,,,,,,,,METAR,20.0
ENQA 270050Z AUTO 20027KT 1400NDV -RA OVC004/// 08/08 Q1025 W13/S4,ENQA,2023-05-27T00:50:00Z,60.65,3.72,8.0,8.0,200,27,,,30.265747,,,TRUE,,,,,,,-RA,OVC,400,,,,,,,,,,,,,,,,,,,METAR,90.0
ENOV 270050Z AUTO VRB02G13KT 9999 BKN030/// OVC039/// 10/03 Q1023 RMK WIND RWY24 07009G20KT WIND 2090FT 16029KT,ENOV,2023-05-27T00:50:00Z,62.17,6.07,10.0,3.0,0,2,13,6.21,30.206694,,,TRUE,,,,,,,,BKN,3000,OVC,3900,,,,,MVFR,,,,,,,,,,,,METAR,72.0
ENOL 270050Z 25011KT 9999 FEW015 SCT030 BKN040 08/06 Q1021,ENOL,2023-05-27T00:50:00Z,63.7,9.6,8.0,6.0,250,11,,6.21,30.147638,,,,,,,,,,,FEW,1500,SCT,3000,BKN,4000,,,VFR,,,,,,,,,,,,METAR,9.0
ENNM 270050Z AUTO 05003KT 020V100 9999 -DZ BKN016/// OVC022/// 04/03 Q1021,ENNM,2023-05-27T00:50:00Z,64.47,11.57,4.0,3.0,50,3,,6.21,30.147638,,,TRUE,,,,,,,-DZ,BKN,1600,OVC,2200,,,,,MVFR,,,,,,,,,,,,METAR,2.0
ENNE 270050Z AUTO 17014KT 9999NDV -DZ OVC023/// 06/02 Q1017 W///S5,ENNE,2023-05-27T00:50:00Z,66.03,8.08,6.0,2.0,170,14,,,30.029528,,,TRUE,,,,,,,-DZ,OVC,2300,,,,,,,,,,,,,,,,,,,METAR,10.0
ENNA 270050Z AUTO 25014KT 9999 FEW016/// SCT046/// OVC140/// 03/M02 Q1008 RMK WIND 1800FT 29020KT,ENNA,2023-05-27T00:50:00Z,70.07,24.97,3.0,-2.0,250,14,,6.21,29.763779,,,TRUE,,,,,,,,FEW,1600,SCT,4600,OVC,14000,,,VFR,,,,,,,,,,,,METAR,12.0
ENMS 270050Z AUTO 20004KT 9999 FEW029/// BKN043/// 01/00 Q1020 RMK WIND 412FT VRB03KT,ENMS,2023-05-27T00:50:00Z,65.78,13.22,1.0,0.0,200,4,,6.21,30.11811,,,TRUE,,,,,,,,FEW,2900,BKN,4300,,,,,VFR,,,,,,,,,,,,METAR,44.0
ENML 270050Z AUTO 04004KT 010V110 9999NDV -RA SCT050/// 08/06 Q1022,ENML,2023-05-27T00:50:00Z,62.75,7.27,8.0,6.0,40,4,,,30.177166,,,TRUE,,,,,,,-RA,SCT,5000,,,,,,,,,,,,,,,,,,,METAR,3.0
ENMH 270050Z AUTO 25016KT 9999 DZRA FEW014/// BKN020/// 02/00 Q1004,ENMH,2023-05-27T00:50:00Z,71.02,27.82,2.0,0.0,250,16,,6.21,29.64567,,,TRUE,,,,,,,DZ RA,FEW,1400,BKN,2000,,,,,MVFR,,,,,,,,,,,,METAR,10.0
ENLE 270050Z 19008KT CAVOK 09/06 Q1031 W10/S4,ENLE,2023-05-27T00:50:00Z,56.53,3.22,9.0,6.0,190,8,,6.21,30.442913,,,,,,,,,,,CAVOK,,,,,,,,VFR,,,,,,,,,,,,METAR,10.0
ENLA 270050Z AUTO 19013KT 9999NDV SCT170/// 10/07 Q1029 W///S4,ENLA,2023-05-27T00:50:00Z,57.1,2.83,10.0,7.0,190,13,,,30.383858,,,TRUE,,,,,,,,SCT,17000,,,,,,,,,,,,,,,,,,,METAR,10.0
ENKR 270050Z AUTO 27013KT 9999 FEW037/// BKN053/// OVC070/// 03/M02 Q1007 RMK WIND 731FT 27024KT,ENKR,2023-05-27T00:50:00Z,69.72,29.88,3.0,-2.0,270,13,,6.21,29.734253,,,TRUE,,,,,,,,FEW,3700,BKN,5300,OVC,7000,,,VFR,,,,,,,,,,,,METAR,86.0
ENKB 270050Z AUTO 22008KT 160V250 9999 -RA BKN031/// OVC042/// 08/03 Q1021 RMK WIND 745FT 21015KT,ENKB,2023-05-27T00:50:00Z,63.12,7.82,8.0,3.0,220,8,,6.21,30.147638,,,TRUE,,,,,,,-RA,BKN,3100,OVC,4200,,,,,VFR,,,-1.5,,,,,,,,,METAR,62.0
ENJS 270050Z 21018KT 9999 FEW018 BKN029 09/08 Q1029 W09/S/,ENJS,2023-05-27T00:50:00Z,,,9.0,8.0,210,18,,6.21,30.383858,,,,,,,,,,,FEW,1800,BKN,2900,,,,,MVFR,,,,,,,,,,,,METAR,
ENHV 270050Z AUTO 25017KT 230V280 9999 SCT011/// BKN033/// OVC059/// 02/M01 Q1005 REDZ,ENHV,2023-05-27T00:50:00Z,71.02,25.97,2.0,-1.0,250,17,,6.21,29.675198,,,TRUE,,,,,,,,SCT,1100,BKN,3300,OVC,5900,,,VFR,,,,,,,,,,,,METAR,13.0
ENHM 270050Z AUTO 22024KT //// SCT029/// BKN037/// OVC043/// 10/10 Q1026 W10/S/,ENHM,2023-05-27T00:50:00Z,59.57,2.23,10.0,10.0,220,24,,,30.295275,,,TRUE,,,,,,,,SCT,2900,BKN,3700,OVC,4300,,,,,,,,,,,,,,,METAR,10.0
ENHK 270050Z AUTO 28026G37KT 9999 -SN FEW008/// SCT021/// BKN027/// 01/M00 Q1008,ENHK,2023-05-27T00:50:00Z,70.48,22.13,1.0,0.0,280,26,37,6.21,29.763779,,,TRUE,,,,,,,-SN,FEW,800,SCT,2100,BKN,2700,,,MVFR,,,,,,,,,,,,METAR,6.0
ENHF 270050Z AUTO 24022KT 9999 FEW005/// SCT013/// BKN027/// 01/M00 Q1006 RMK WIND 1254FT 28031KT,ENHF,2023-05-27T00:50:00Z,70.67,23.67,1.0,0.0,240,22,,6.21,29.704725,,,TRUE,,,,,,,,FEW,500,SCT,1300,BKN,2700,,,MVFR,,,,,,,,,,,,METAR,79.0
ENHE 270050Z 20017KT 9999 -RA FEW010 BKN020 08/05 Q1017 W///S5,ENHE,2023-05-27T00:50:00Z,65.33,2.33,8.0,5.0,200,17,,6.21,30.029528,,,,,,,,,,-RA,FEW,1000,BKN,2000,,,,,MVFR,,,,,,,,,,,,METAR,10.0
ENHD 270050Z AUTO 18006KT 9999 BKN032/// BKN100/// 07/05 Q1029,ENHD,2023-05-27T00:50:00Z,59.35,5.22,7.0,5.0,180,6,,6.21,30.383858,,,TRUE,,,,,,,,BKN,3200,BKN,10000,,,,,VFR,,,,,,,,,,,,METAR,22.0
ENGM 270050Z 01003KT CAVOK 06/M01 Q1025,ENGM,2023-05-27T00:50:00Z,60.2,11.07,6.0,-1.0,10,3,,6.21,30.265747,,,,,,,,,,,CAVOK,,,,,,,,VFR,,,,,,,,,,,,METAR,204.0
ENGC 270050Z 24029KT 9999 BKN005 09/09 Q1023 W08/S4,ENGC,2023-05-27T00:50:00Z,61.02,2.02,9.0,9.0,240,29,,6.21,30.206694,,,,,,,,,,,BKN,500,,,,,,,IFR,,,,,,,,,,,,METAR,10.0
ENFL 270050Z AUTO 17020KT 9999NDV -SHRA SCT008/// BKN011/// OVC016/// 08/07 Q1025,ENFL,2023-05-27T00:50:00Z,61.57,5.02,8.0,7.0,170,20,,,30.265747,,,TRUE,,,,,,,-SHRA,SCT,800,BKN,1100,OVC,1600,,,,,,,,,,,,,,,METAR,1.0
ENFB 270050Z AUTO 22033KT 9999NDV SCT006/// OVC011/// ///// Q//// W///S4,ENFB,2023-05-27T00:50:00Z,61.2,1.83,,,220,33,,,,,,TRUE,,,,,,,,SCT,600,OVC,1100,,,,,,,,,,,,,,,,,METAR,10.0
ENEV 270050Z 25005KT 210V290 9999 OVC066 02/M01 Q1016 RMK WIND 1400FT 23012KT,ENEV,2023-05-27T00:50:00Z,68.48,16.67,2.0,-1.0,250,5,,6.21,30.0,,,,,,,,,,,OVC,6600,,,,,,,VFR,,,,,,,,,,,,METAR,26.0
ENDU 270050Z 28007KT 9999 VCSH FEW007 SCT025CB BKN040 00/M01 Q1014 RESHSN RMK WIND 1100FT 26015KT WIND 2200FT 27018KT,ENDU,2023-05-27T00:50:00Z,69.05,18.55,0.0,-1.0,280,7,,6.21,29.940945,,,,,,,,,,VCSH,FEW,700,SCT,2500,BKN,4000,,,VFR,,,,,,,,,,,,METAR,65.0
ENDR 270050Z AUTO 22024KT 8000NDV -RA FEW011/// SCT051/// OVC098/// 07/06 Q1019 W///S4,ENDR,2023-05-27T00:50:00Z,64.35,7.77,7.0,6.0,220,24,,,30.088583,,,TRUE,,,,,,,-RA,FEW,1100,SCT,5100,OVC,9800,,,,,,,,,,,,,,,METAR,10.0
ENCN 270050Z AUTO VRB01KT 9999 NCD 08/02 Q1028,ENCN,2023-05-27T00:50:00Z,58.2,8.07,8.0,2.0,0,1,,6.21,30.35433,,,TRUE,,,,,,,,CLR,,,,,,,,VFR,,,,,,,,,,,,METAR,17.0
ENBV 270050Z AUTO 25021KT 9999 SCT022/// OVC030/// 03/M01 Q1005,ENBV,2023-05-27T00:50:00Z,70.87,29.02,3.0,-1.0,250,21,,6.21,29.675198,,,TRUE,,,,,,,,SCT,2200,OVC,3000,,,,,MVFR,,,,,,,,,,,,METAR,13.0
ENBS 270050Z AUTO 25019KT 9999 -SN VV010 02/M01 Q1004,ENBS,2023-05-27T00:50:00Z,70.62,29.68,2.0,-1.0,250,19,,6.21,29.64567,,,TRUE,,,,,,,-SN,OVX,0,,,,,,,LIFR,,,,,,,,,,,1000,METAR,144.0
ENBR 270050Z AUTO 17010KT 9999 BKN018/// OVC031/// 08/08 Q1028 RERA RESHRA RMK WIND 1200FT 19015KT,ENBR,2023-05-27T00:50:00Z,60.28,5.22,8.0,8.0,170,10,,6.21,30.35433,,,TRUE,,,,,,,SHRA,BKN,1800,OVC,3100,,,,,MVFR,,,,,,,,,,,,METAR,49.0
ENBO 270050Z 26010KT 9999 FEW015 BKN060 03/M01 Q1018,ENBO,2023-05-27T00:50:00Z,67.27,14.37,3.0,-1.0,260,10,,6.21,30.059055,,,,,,,,,,,FEW,1500,BKN,6000,,,,,VFR,,,,,,,,,,,,METAR,13.0
ENBN 270050Z AUTO 19004KT 160V230 9999NDV BKN034/// OVC043/// 05/01 Q1021,ENBN,2023-05-27T00:50:00Z,65.47,12.22,5.0,1.0,190,4,,,30.147638,,,TRUE,,,,,,,,BKN,3400,OVC,4300,,,,,,,,,,,,,,,,,METAR,3.0
ENBL 270050Z AUTO 22006KT 170V250 9000 -RA BKN013/// OVC022/// 05/04 Q1025,ENBL,2023-05-27T00:50:00Z,61.4,5.77,5.0,4.0,220,6,,5.59,30.265747,,,TRUE,,,,,,,-RA,BKN,1300,OVC,2200,,,,,MVFR,,,,,,,,,,,,METAR,313.0
ENAT 270050Z AUTO 27015KT 9999 FEW041/// SCT053/// BKN066/// 03/M03 Q1009 RMK WIND 700FT 25022KT,ENAT,2023-05-27T00:50:00Z,69.97,23.37,3.0,-3.0,270,15,,6.21,29.793306,,,TRUE,,,,,,,,FEW,4100,SCT,5300,BKN,6600,,,VFR,,,,,,,,,,,,METAR,3.0
ENAN 270050Z AUTO 24011KT 210V270 9999 FEW035/// BKN051/// OVC066/// 02/M04 Q1014,ENAN,2023-05-27T00:50:00Z,69.3,16.13,2.0,-4.0,240,11,,6.21,29.940945,,,TRUE,,,,,,,,FEW,3500,BKN,5100,OVC,6600,,,VFR,,,,,,,,,,,,METAR,13.0
ENAL 270050Z AUTO 20014KT 9999 OVC034/// 10/04 Q1021,ENAL,2023-05-27T00:50:00Z,62.57,6.12,10.0,4.0,200,14,,6.21,30.147638,,,TRUE,,,,,,,,OVC,3400,,,,,,,VFR,,,,,,,,,,,,METAR,21.0
ELLX 270050Z AUTO 04015KT 9999 NCD 11/04 Q1025 NOSIG,ELLX,2023-05-27T00:50:00Z,49.63,6.2,11.0,4.0,40,15,,6.21,30.265747,,,TRUE,,,TRUE,,,,,CLR,,,,,,,,VFR,,,,,,,,,,,,METAR,374.0
EKYT 270050Z AUTO 24008KT 9999 NCD 09/08 Q1028,EKYT,2023-05-27T00:50:00Z,57.1,9.87,9.0,8.0,240,8,,6.21,30.35433,,,TRUE,,,,,,,,CLR,,,,,,,,VFR,,,,,,,,,,,,METAR,2.0
EKVD 270050Z AUTO 29004KT //// ///////// 06/05 Q1030,EKVD,2023-05-27T00:50:00Z,55.43,9.32,6.0,5.0,290,4,,,30.413385,,,TRUE,,,,,,,,,,,,,,,,,,,,,,,,,,,,METAR,41.0
EKSP 270050Z 28006KT CAVOK 05/04 Q1030 RMK FEW250,EKSP,2023-05-27T00:50:00Z,55.22,9.27,5.0,4.0,280,6,,6.21,30.413385,,,,,,,,,,,CAVOK,,,,,,,,VFR,,,,,,,,,,,,METAR,40.0
EKSB 270050Z AUTO 31007KT 9999 NCD 08/07 Q1030,EKSB,2023-05-27T00:50:00Z,54.97,9.8,8.0,7.0,310,7,,6.21,30.413385,,,TRUE,,,,,,,,CLR,,,,,,,,VFR,,,,,,,,,,,,METAR,23.0
EKRS 270050Z AUTO 21002KT 9999 NCD 05/05 Q1029,EKRS,2023-05-27T00:50:00Z,55.42,11.8,5.0,5.0,210,2,,6.21,30.383858,,,TRUE,,,,,,,,CLR,,,,,,,,VFR,,,,,,,,,,,,METAR,34.0
EKRN 270050Z AUTO 28003KT 9999 NCD 09/06 Q1027,EKRN,2023-05-27T00:50:00Z,55.07,14.75,9.0,6.0,280,3,,6.21,30.324802,,,TRUE,,,,,,,,CLR,,,,,,,,VFR,,,,,,,,,,,,METAR,14.0
EKRK 270050Z AUTO 27001KT 9999 NCD 05/04 Q1029,EKRK,2023-05-27T00:50:00Z,55.58,12.13,5.0,4.0,270,1,,6.21,30.383858,,,TRUE,,,,,,,,CLR,,,,,,,,VFR,,,,,,,,,,,,METAR,40.0
EKEB 270050Z AUTO 28004KT 9999 BKN017/// 06/05 Q1030,EKEB,2023-05-27T00:50:00Z,55.52,8.55,6.0,5.0,280,4,,6.21,30.413385,,,TRUE,,,,,,,,BKN,1700,,,,,,,MVFR,,,,,,,,,,,,METAR,29.0
EKCH 270050Z AUTO 30004KT 9999 NCD 09/07 Q1029 NOSIG,EKCH,2023-05-27T00:50:00Z,55.62,12.67,9.0,7.0,300,4,,6.21,30.383858,,,TRUE,,,TRUE,,,,,CLR,,,,,,,,VFR,,,,,,,,,,,,METAR,4.0
EKBI 270050Z AUTO 27003KT 9000 NCD 04/04 Q1030,EKBI,2023-05-27T00:50:00Z,55.73,9.15,4.0,4.0,270,3,,5.59,30.413385,,,TRUE,,,,,,,,CLR,,,,,,,,VFR,,,,,,,,,,,,METAR,67.0
EKAH 270050Z AUTO 27005KT 9999 NCD 07/05 Q1029,EKAH,2023-05-27T00:50:00Z,56.28,10.62,7.0,5.0,270,5,,6.21,30.383858,,,TRUE,,,,,,,,CLR,,,,,,,,VFR,,,,,,,,,,,,METAR,25.0
EGYP 270050Z 27014KT 9999 BKN030 00/M00 Q0996,EGYP,2023-05-27T00:50:00Z,-51.82,-58.45,0.0,0.0,270,14,,6.21,29.409449,,,,,,,,,,,BKN,3000,,,,,,,MVFR,,,,,,,,,,,,METAR,70.0
EGYM 270050Z AUTO 36004KT 9999 BR NCD 05/05 Q1031,EGYM,2023-05-27T00:50:00Z,52.63,0.57,5.0,5.0,360,4,,6.21,30.442913,,,TRUE,,,,,,,BR,CLR,,,,,,,,VFR,,,,,,,,,,,,METAR,25.0
EGYH 270050Z AUTO 18003KT 9999 NCD 06/06 Q1031,EGYH,2023-05-27T00:50:00Z,52.87,0.15,6.0,6.0,180,3,,6.21,30.442913,,,TRUE,,,,,,,,CLR,,,,,,,,VFR,,,,,,,,,,,,METAR,5.0
EGYE 270050Z AUTO 18005KT //// ///////// ///// Q////,EGYE,2023-05-27T00:50:00Z,52.97,-0.57,,,180,5,,,,,,TRUE,,,,,,,,,,,,,,,,,,,,,,,,,,,,METAR,105.0
EGYD 270050Z AUTO 20003KT 9999 NCD 06/05 Q1031,EGYD,2023-05-27T00:50:00Z,53.03,-0.5,6.0,5.0,200,3,,6.21,30.442913,,,TRUE,,,,,,,,CLR,,,,,,,,VFR,,,,,,,,,,,,METAR,65.0
EGXZ 270050Z AUTO 14007KT 9999 OVC063/// 11/08 Q1030,EGXZ,2023-05-27T00:50:00Z,54.2,-1.38,11.0,8.0,140,7,,6.21,30.413385,,,TRUE,,,,,,,,OVC,6300,,,,,,,VFR,,,,,,,,,,,,METAR,24.0
EGXW 270050Z AUTO 18004KT 9999 NCD 09/07 Q1031,EGXW,2023-05-27T00:50:00Z,53.18,-0.52,9.0,7.0,180,4,,6.21,30.442913,,,TRUE,,,,,,,,CLR,,,,,,,,VFR,,,,,,,,,,,,METAR,70.0
EGXV 270050Z AUTO 29001KT 9999 FEW250/// 07/06 Q1031,EGXV,2023-05-27T00:50:00Z,53.87,-0.45,7.0,6.0,290,1,,6.21,30.442913,,,TRUE,,,,,,,,FEW,25000,,,,,,,VFR,,,,,,,,,,,,METAR,6.0
EGXT 270050Z AUTO 12002KT 9999 NCD 07/05 Q1030,EGXT,2023-05-27T00:50:00Z,52.62,-0.47,7.0,5.0,120,2,,6.21,30.413385,,,TRUE,,,,,,,,CLR,,,,,,,,VFR,,,,,,,,,,,,METAR,74.0
EGXS 270050Z AUTO 18004KT 9999 NCD 08/07 Q1031,EGXS,2023-05-27T00:50:00Z,53.48,0.15,8.0,7.0,180,4,,6.21,30.442913,,,TRUE,,,,,,,,CLR,,,,,,,,VFR,,,,,,,,,,,,METAR,6.0
EGXE 270050Z AUTO 15007KT 9999 OVC060/// 11/08 Q1030,EGXE,2023-05-27T00:50:00Z,54.28,-1.52,11.0,8.0,150,7,,6.21,30.413385,,,TRUE,,,,,,,,OVC,6000,,,,,,,VFR,,,,,,,,,,,,METAR,30.0
EGXC 270050Z AUTO 12002KT 9999 NCD 08/07 Q1031,EGXC,2023-05-27T00:50:00Z,53.1,-0.17,8.0,7.0,120,2,,6.21,30.442913,,,TRUE,,,,,,,,CLR,,,,,,,,VFR,,,,,,,,,,,,METAR,9.0
EGWU 270050Z AUTO 07007KT 9999 NCD 09/06 Q1030,EGWU,2023-05-27T00:50:00Z,51.55,-0.42,9.0,6.0,70,7,,6.21,30.413385,,,TRUE,,,,,,,,CLR,,,,,,,,VFR,,,,,,,,,,,,METAR,33.0
EGWC 270050Z AUTO 06001KT //// ///////// ///// Q////,EGWC,2023-05-27T00:50:00Z,52.63,-2.3,,,60,1,,,,,,TRUE,,,,,,,,,,,,,,,,,,,,,,,,,,,,METAR,79.0
EGVP 270050Z AUTO 09002KT 9999 NCD 08/06 Q1029,EGVP,2023-05-27T00:50:00Z,51.13,-1.57,8.0,6.0,90,2,,6.21,30.383858,,,TRUE,,,,,,,,CLR,,,,,,,,VFR,,,,,,,,,,,,METAR,80.0
EGVO 270050Z AUTO 05005KT 9999 NCD 08/06 Q1029,EGVO,2023-05-27T00:50:00Z,51.23,-0.95,8.0,6.0,50,5,,6.21,30.383858,,,TRUE,,,,,,,,CLR,,,,,,,,VFR,,,,,,,,,,,,METAR,118.0
EGVN 270050Z AUTO 05006KT 9999 NCD 08/05 Q1030,EGVN,2023-05-27T00:50:00Z,51.77,-1.58,8.0,5.0,50,6,,6.21,30.413385,,,TRUE,,,,,,,,CLR,,,,,,,,VFR,,,,,,,,,,,,METAR,83.0
EGUW 270050Z AUTO 05007KT 9999 NCD 08/07 Q1030,EGUW,2023-05-27T00:50:00Z,52.12,0.97,8.0,7.0,50,7,,6.21,30.413385,,,TRUE,,,,,,,,CLR,,,,,,,,VFR,,,,,,,,,,,,METAR,86.0
EGUB 270050Z AUTO 34004KT 9999 NCD 06/04 Q1030,EGUB,2023-05-27T00:50:00Z,51.62,-1.08,6.0,4.0,340,4,,6.21,30.413385,,,TRUE,,,,,,,,CLR,,,,,,,,VFR,,,,,,,,,,,,METAR,56.0
EGTE 270050Z VRB01KT CAVOK 08/06 Q1029,EGTE,2023-05-27T00:50:00Z,50.73,-3.42,8.0,6.0,0,1,,6.21,30.383858,,,,,,,,,,,CAVOK,,,,,,,,VFR,,,,,,,,,,,,METAR,30.0
EGSY 270050Z AUTO 07004KT 9999 NCD 10/07 Q1029,EGSY,2023-05-27T00:50:00Z,51.4,-3.43,10.0,7.0,70,4,,6.21,30.383858,,,TRUE,,,,,,,,CLR,,,,,,,,VFR,,,,,,,,,,,,METAR,46.0
EGSS 270050Z AUTO 05006KT 7000 NCD 07/06 Q1030,EGSS,2023-05-27T00:50:00Z,51.88,0.22,7.0,6.0,50,6,,4.35,30.413385,,,TRUE,,,,,,,,CLR,,,,,,,,MVFR,,,,,,,,,,,,METAR,101.0
EGSH 270050Z AUTO 02002KT 9999 NCD 08/07 Q1031,EGSH,2023-05-27T00:50:00Z,52.68,1.28,8.0,7.0,20,2,,6.21,30.442913,,,TRUE,,,,,,,,CLR,,,,,,,,VFR,,,,,,,,,,,,METAR,21.0
EGQS 270050Z 25010KT 9999 FEW025 BKN030 14/09 Q1027 RMK BLU,EGQS,2023-05-27T00:50:00Z,57.72,-3.32,14.0,9.0,250,10,,6.21,30.324802,,,,,,,,,,,FEW,2500,BKN,3000,,,,,MVFR,,,,,,,,,,,,METAR,6.0
EGQM 270050Z AUTO 24003KT 9999 BR NCD 09/09 Q1029,EGQM,2023-05-27T00:50:00Z,55.42,-1.6,9.0,9.0,240,3,,6.21,30.383858,,,TRUE,,,,,,,BR,CLR,,,,,,,,VFR,,,,,,,,,,,,METAR,24.0
EGQL 270050Z 25007KT 9999 SKC 10/09 Q1028 RMK BLU,EGQL,2023-05-27T00:50:00Z,56.38,-2.87,10.0,9.0,250,7,,6.21,30.35433,,,,,,,,,,,SKC,,,,,,,,VFR,,,,,,,,,,,,METAR,11.0
EGQK 270050Z AUTO 22010KT 9999 OVC028/// 14/10 Q1026,EGQK,2023-05-27T00:50:00Z,57.65,-3.57,14.0,10.0,220,10,,6.21,30.295275,,,TRUE,,,,,,,,OVC,2800,,,,,,,MVFR,,,,,,,,,,,,METAR,5.0
EGQA 270050Z AUTO 22007KT 9999 OVC037/// 13/10 Q1026,EGQA,2023-05-27T00:50:00Z,57.83,-3.95,13.0,10.0,220,7,,6.21,30.295275,,,TRUE,,,,,,,,OVC,3700,,,,,,,VFR,,,,,,,,,,,,METAR,4.0
EGPU 270050Z AUTO 23008KT 9999 OVC034/// 12/11 Q1029,EGPU,2023-05-27T00:50:00Z,56.5,-6.88,12.0,11.0,230,8,,6.21,30.383858,,,TRUE,,,,,,,,OVC,3400,,,,,,,VFR,,,,,,,,,,,,METAR,12.0
EGPO 270050Z AUTO 23006KT 9999 FEW002/// BKN022/// BKN027/// 11/10 Q1026 REDZ,EGPO,2023-05-27T00:50:00Z,58.22,-6.32,11.0,10.0,230,6,,6.21,30.295275,,,TRUE,,,,,,,,FEW,200,BKN,2200,BKN,2700,,,MVFR,,,,,,,,,,,,METAR,10.0
EGPL 270050Z AUTO 24014KT 9999 SCT002/// OVC009/// 12/11 Q1027,EGPL,2023-05-27T00:50:00Z,57.47,-7.37,12.0,11.0,240,14,,6.21,30.324802,,,TRUE,,,,,,,,SCT,200,OVC,900,,,,,IFR,,,,,,,,,,,,METAR,3.0
EGPK 270050Z AUTO VRB02KT 9999 NCD 09/07 Q1030,EGPK,2023-05-27T00:50:00Z,55.5,-4.58,9.0,7.0,0,2,,6.21,30.413385,,,TRUE,,,,,,,,CLR,,,,,,,,VFR,,,,,,,,,,,,METAR,14.0
EGPI 270050Z AUTO 00000KT 9999 OVC037/// 10/09 Q1030,EGPI,2023-05-27T00:50:00Z,55.68,-6.25,10.0,9.0,0,0,,6.21,30.413385,,,TRUE,,,,,,,,OVC,3700,,,,,,,VFR,,,,,,,,,,,,METAR,17.0
EGPH 270050Z 25005KT CAVOK 11/09 Q1029,EGPH,2023-05-27T00:50:00Z,55.95,-3.35,11.0,9.0,250,5,,6.21,30.383858,,,,,,,,,,,CAVOK,,,,,,,,VFR,,,,,,,,,,,,METAR,29.0
EGPF 270050Z AUTO 23006KT 9999 NCD 08/06 Q1030,EGPF,2023-05-27T00:50:00Z,55.87,-4.42,8.0,6.0,230,6,,6.21,30.413385,,,TRUE,,,,,,,,CLR,,,,,,,,VFR,,,,,,,,,,,,METAR,8.0
EGPE 270050Z AUTO 23012KT 9999 OVC034/// 13/09 Q1027,EGPE,2023-05-27T00:50:00Z,57.53,-4.05,13.0,9.0,230,12,,6.21,30.324802,,,TRUE,,,,,,,,OVC,3400,,,,,,,VFR,,,,,,,,,,,,METAR,7.0
EGPD 270050Z AUTO 16002KT 9999 OVC046 12/10 Q1027 NOSIG,EGPD,2023-05-27T00:50:00Z,57.2,-2.22,12.0,10.0,160,2,,6.21,30.324802,,,TRUE,,,TRUE,,,,,OVC,4600,,,,,,,VFR,,,,,,,,,,,,METAR,65.0
EGPC 270050Z AUTO 19006KT 9999 BKN024/// OVC041/// 12/09 Q1026,EGPC,2023-05-27T00:50:00Z,58.45,-3.08,12.0,9.0,190,6,,6.21,30.295275,,,TRUE,,,,,,,,BKN,2400,OVC,4100,,,,,MVFR,,,,,,,,,,,,METAR,38.0
EGPB 270050Z AUTO 24014KT 3900 RA OVC005/// 10/09 Q1024 REDZ,EGPB,2023-05-27T00:50:00Z,59.87,-1.3,10.0,9.0,240,14,,2.42,30.236221,,,TRUE,,,,,,,RA,OVC,500,,,,,,,IFR,,,,,,,,,,,,METAR,2.0
EGPA 270050Z 20005KT 9999 FEW012 BKN040 11/09 Q1025,EGPA,2023-05-27T00:50:00Z,58.95,-2.9,11.0,9.0,200,5,,6.21,30.265747,,,,,,,,,,,FEW,1200,BKN,4000,,,,,VFR,,,,,,,,,,,,METAR,15.0
EGOV 270050Z AUTO 35004KT 9999 BKN045/// SCT054/// 12/09 Q1030,EGOV,2023-05-27T00:50:00Z,53.25,-4.53,12.0,9.0,350,4,,6.21,30.413385,,,TRUE,,,,,,,,BKN,4500,SCT,5400,,,,,VFR,,,,,,,,,,,,METAR,11.0
EGOS 270050Z AUTO 04004KT 9999 NCD 10/07 Q1030,EGOS,2023-05-27T00:50:00Z,52.8,-2.67,10.0,7.0,40,4,,6.21,30.413385,,,TRUE,,,,,,,,CLR,,,,,,,,VFR,,,,,,,,,,,,METAR,76.0
EGOP 270050Z AUTO 08008KT 9999 NCD 13/08 Q1029,EGOP,2023-05-27T00:50:00Z,51.72,-4.37,13.0,8.0,80,8,,6.21,30.383858,,,TRUE,,,,,,,,CLR,,,,,,,,VFR,,,,,,,,,,,,METAR,8.0
EGOM 270050Z AUTO 00000KT 0900 FG FEW002/// 08/08 Q1029,EGOM,2023-05-27T00:50:00Z,55.05,-2.55,8.0,8.0,0,0,,0.56,30.383858,,,TRUE,,,,,,,FG,FEW,200,,,,,,,LIFR,,,,,,,,,,,,METAR,286.0
EGNX 270050Z 13004KT CAVOK 09/05 Q1031,EGNX,2023-05-27T00:50:00Z,52.82,-1.32,9.0,5.0,130,4,,6.21,30.442913,,,,,,,,,,,CAVOK,,,,,,,,VFR,,,,,,,,,,,,METAR,91.0
EGNT 270050Z VRB02KT 3000 R25/1400U BR FEW018 08/08 Q1029,EGNT,2023-05-27T00:50:00Z,55.03,-1.7,8.0,8.0,0,2,,1.86,30.383858,,,,,,,,,,BR,FEW,1800,,,,,,,IFR,,,,,,,,,,,,METAR,77.0
EGNS 270050Z 00000KT CAVOK 11/10 Q1030,EGNS,2023-05-27T00:50:00Z,54.08,-4.63,11.0,10.0,0,0,,6.21,30.413385,,,,,,,,,,,CAVOK,,,,,,,,VFR,,,,,,,,,,,,METAR,18.0
EGNM 270050Z 17006KT CAVOK 11/07 Q1030,EGNM,2023-05-27T00:50:00Z,53.87,-1.65,11.0,7.0,170,6,,6.21,30.413385,,,,,,,,,,,CAVOK,,,,,,,,VFR,,,,,,,,,,,,METAR,221.0
EGNJ 270050Z AUTO 24003KT 9999 NCD 09/07 Q1031,EGNJ,2023-05-27T00:50:00Z,53.57,-0.35,9.0,7.0,240,3,,6.21,30.442913,,,TRUE,,,,,,,,CLR,,,,,,,,VFR,,,,,,,,,,,,METAR,23.0
EGMD 270050Z AUTO 06014KT 9999 NCD 12/10 Q1029,EGMD,2023-05-27T00:50:00Z,50.95,0.93,12.0,10.0,60,14,,6.21,30.383858,,,TRUE,,,,,,,,CLR,,,,,,,,VFR,,,,,,,,,,,,METAR,4.0
EGLL 270050Z AUTO 06006KT 9999 NCD 10/07 Q1030,EGLL,2023-05-27T00:50:00Z,51.48,-0.45,10.0,7.0,60,6,,6.21,30.413385,,,TRUE,,,,,,,,CLR,,,,,,,,VFR,,,,,,,,,,,,METAR,26.0
EGLF 270050Z AUTO 06006KT 9999 NCD 09/06 Q1029,EGLF,2023-05-27T00:50:00Z,51.28,-0.77,9.0,6.0,60,6,,6.21,30.383858,,,TRUE,,,,,,,,CLR,,,,,,,,VFR,,,,,,,,,,,,METAR,65.0
EGLC 270050Z AUTO 04004KT 330V100 9999 NCD 10/07 Q1030,EGLC,2023-05-27T00:50:00Z,51.5,0.05,10.0,7.0,40,4,,6.21,30.413385,,,TRUE,,,,,,,,CLR,,,,,,,,VFR,,,,,,,,,,,,METAR,10.0
EGKK 270050Z 04006KT CAVOK 09/08 Q1029,EGKK,2023-05-27T00:50:00Z,51.13,-0.18,9.0,8.0,40,6,,6.21,30.383858,,,,,,,,,,,CAVOK,,,,,,,,VFR,,,,,,,,,,,,METAR,58.0
EGJJ 270050Z AUTO 06016KT 030V090 9999 NCD 12/10 Q1025,EGJJ,2023-05-27T00:50:00Z,49.22,-2.2,12.0,10.0,60,16,,6.21,30.265747,,,TRUE,,,,,,,,CLR,,,,,,,,VFR,,,,,,,,,,,,METAR,84.0
EGJB 270050Z 07014KT 9999 FEW009 11/10 Q1026,EGJB,2023-05-27T00:50:00Z,49.42,-2.6,11.0,10.0,70,14,,6.21,30.295275,,,,,,,,,,,FEW,900,,,,,,,VFR,,,,,,,,,,,,METAR,102.0
EGHQ 270050Z AUTO 07006KT 9999 NCD 13/07 Q1028,EGHQ,2023-05-27T00:50:00Z,50.43,-5.0,13.0,7.0,70,6,,6.21,30.35433,,,TRUE,,,,,,,,CLR,,,,,,,,VFR,,,,,,,,,,,,METAR,101.0
EGGW 270050Z AUTO 06006KT 9999 NCD 06/05 Q1030,EGGW,2023-05-27T00:50:00Z,51.87,-0.37,6.0,5.0,60,6,,6.21,30.413385,,,TRUE,,,,,,,,CLR,,,,,,,,VFR,,,,,,,,,,,,METAR,159.0
EGGP 270050Z 14003KT CAVOK 12/10 Q1030,EGGP,2023-05-27T00:50:00Z,53.33,-2.85,12.0,10.0,140,3,,6.21,30.413385,,,,,,,,,,,CAVOK,,,,,,,,VFR,,,,,,,,,,,,METAR,23.0
EGGD 270050Z AUTO 07006KT 9999 NCD 07/04 Q1029,EGGD,2023-05-27T00:50:00Z,51.37,-2.72,7.0,4.0,70,6,,6.21,30.383858,,,TRUE,,,,,,,,CLR,,,,,,,,VFR,,,,,,,,,,,,METAR,182.0
EGFF 270050Z AUTO 09008KT 9999 NCD 13/07 Q1029,EGFF,2023-05-27T00:50:00Z,51.38,-3.35,13.0,7.0,90,8,,6.21,30.383858,,,TRUE,,,,,,,,CLR,,,,,,,,VFR,,,,,,,,,,,,METAR,65.0
EGDY 270050Z AUTO 07006KT 9999 NCD 10/06 Q1029,EGDY,2023-05-27T00:50:00Z,51.0,-2.63,10.0,6.0,70,6,,6.21,30.383858,,,TRUE,,,,,,,,CLR,,,,,,,,VFR,,,,,,,,,,,,METAR,21.0
EGDR 270050Z AUTO 05006KT 9999 NCD 10/07 Q1027,EGDR,2023-05-27T00:50:00Z,50.08,-5.25,10.0,7.0,50,6,,6.21,30.324802,,,TRUE,,,,,,,,CLR,,,,,,,,VFR,,,,,,,,,,,,METAR,74.0
EGDM 270050Z AUTO 03004KT 9999 NCD 08/06 Q1029,EGDM,2023-05-27T00:50:00Z,51.17,-1.75,8.0,6.0,30,4,,6.21,30.383858,,,TRUE,,,,,,,,CLR,,,,,,,,VFR,,,,,,,,,,,,METAR,122.0
EGCK 270050Z AUTO VRB02KT 9999 FEW045/// 10/08 Q1030,EGCK,2023-05-27T00:50:00Z,53.1,-4.33,10.0,8.0,0,2,,6.21,30.413385,,,TRUE,,,,,,,,FEW,4500,,,,,,,VFR,,,,,,,,,,,,METAR,6.0
EGCC 270050Z AUTO 17003KT 130V220 9999 NCD 13/08 Q1031 NOSIG,EGCC,2023-05-27T00:50:00Z,53.35,-2.27,13.0,8.0,170,3,,6.21,30.442913,,,TRUE,,,TRUE,,,,,CLR,,,,,,,,VFR,,,,,,,,,,,,METAR,78.0
EGBB 270050Z 11002KT CAVOK 07/04 Q1031,EGBB,2023-05-27T00:50:00Z,52.47,-1.75,7.0,4.0,110,2,,6.21,30.442913,,,,,,,,,,,CAVOK,,,,,,,,VFR,,,,,,,,,,,,METAR,91.0
EGAC 270050Z AUTO 17002KT 9999 NCD 10/08 Q1030,EGAC,2023-05-27T00:50:00Z,54.62,-5.87,10.0,8.0,170,2,,6.21,30.413385,,,TRUE,,,,,,,,CLR,,,,,,,,VFR,,,,,,,,,,,,METAR,2.0
EGAA 270050Z AUTO 11001KT 9999 NCD 06/06 Q1030,EGAA,2023-05-27T00:50:00Z,54.65,-6.22,6.0,6.0,110,1,,6.21,30.413385,,,TRUE,,,,,,,,CLR,,,,,,,,VFR,,,,,,,,,,,,METAR,65.0
EFVA 270050Z AUTO 31007KT CAVOK 07/M00 Q1020,EFVA,2023-05-27T00:50:00Z,63.05,21.77,7.0,0.0,310,7,,6.21,30.11811,,,TRUE,,,,,,,,CAVOK,,,,,,,,VFR,,,,,,,,,,,,METAR,4.0
EFUT 270050Z AUTO 30006KT CAVOK 06/03 Q1019,EFUT,2023-05-27T00:50:00Z,60.88,26.93,6.0,3.0,300,6,,6.21,30.088583,,,TRUE,,,,,,,,CAVOK,,,,,,,,VFR,,,,,,,,,,,,METAR,104.0
EFTU 270050Z AUTO 29005KT CAVOK 05/01 Q1023,EFTU,2023-05-27T00:50:00Z,60.52,22.27,5.0,1.0,290,5,,6.21,30.206694,,,TRUE,,,,,,,,CAVOK,,,,,,,,VFR,,,,,,,,,,,,METAR,47.0
EFTP 270050Z AUTO 27007KT CAVOK 06/02 Q1020,EFTP,2023-05-27T00:50:00Z,61.42,23.62,6.0,2.0,270,7,,6.21,30.11811,,,TRUE,,,,,,,,CAVOK,,,,,,,,VFR,,,,,,,,,,,,METAR,111.0
EFSI 270050Z AUTO 28005KT CAVOK 06/02 Q1020,EFSI,2023-05-27T00:50:00Z,62.7,22.83,6.0,2.0,280,5,,6.21,30.11811,,,TRUE,,,,,,,,CAVOK,,,,,,,,VFR,,,,,,,,,,,,METAR,90.0
EFSA 270050Z AUTO 29004KT CAVOK 06/05 Q1017,EFSA,2023-05-27T00:50:00Z,61.95,28.93,6.0,5.0,290,4,,6.21,30.029528,,,TRUE,,,,,,,,CAVOK,,,,,,,,VFR,,,,,,,,,,,,METAR,90.0
EFRO 270050Z AUTO 28003KT 240V320 CAVOK 01/M04 Q1013,EFRO,2023-05-27T00:50:00Z,66.57,25.82,1.0,-4.0,280,3,,6.21,29.911417,,,TRUE,,,,,,,,CAVOK,,,,,,,,VFR,,,,,,,,,,,,METAR,201.0
EFPO 270050Z AUTO 29006KT CAVOK 06/00 Q1022,EFPO,2023-05-27T00:50:00Z,61.47,21.8,6.0,0.0,290,6,,6.21,30.177166,,,TRUE,,,,,,,,CAVOK,,,,,,,,VFR,,,,,,,,,,,,METAR,10.0
EFOU 270050Z AUTO 32011KT CAVOK 07/M01 Q1016,EFOU,2023-05-27T00:50:00Z,64.92,25.37,7.0,-1.0,320,11,,6.21,30.0,,,TRUE,,,,,,,,CAVOK,,,,,,,,VFR,,,,,,,,,,,,METAR,15.0
EFMI 270050Z AUTO 25003KT CAVOK 04/03 Q1018,EFMI,2023-05-27T00:50:00Z,61.68,27.2,4.0,3.0,250,3,,6.21,30.059055,,,TRUE,,,,,,,,CAVOK,,,,,,,,VFR,,,,,,,,,,,,METAR,99.0
EFMA 270050Z AUTO 33004KT CAVOK 05/02 Q1025,EFMA,2023-05-27T00:50:00Z,60.12,19.9,5.0,2.0,330,4,,6.21,30.265747,,,TRUE,,,,,,,,CAVOK,,,,,,,,VFR,,,,,,,,,,,,METAR,6.0
EFLP 270050Z AUTO 29007KT CAVOK 05/03 Q1018,EFLP,2023-05-27T00:50:00Z,61.03,28.15,5.0,3.0,290,7,,6.21,30.059055,,,TRUE,,,,,,,,CAVOK,,,,,,,,VFR,,,,,,,,,,,,METAR,102.0
EFKU 270050Z AUTO 26004KT CAVOK 05/01 Q1017,EFKU,2023-05-27T00:50:00Z,63.02,27.8,5.0,1.0,260,4,,6.21,30.029528,,,TRUE,,,,,,,,CAVOK,,,,,,,,VFR,,,,,,,,,,,,METAR,92.0
EFKT 270050Z AUTO 30008KT CAVOK 03/M05 Q1011,EFKT,2023-05-27T00:50:00Z,67.7,24.85,3.0,-5.0,300,8,,6.21,29.852362,,,TRUE,,,,,,,,CAVOK,,,,,,,,VFR,,,,,,,,,,,,METAR,190.0
EFKS 270050Z AUTO 28004KT CAVOK 01/M00 Q1013,EFKS,2023-05-27T00:50:00Z,66.0,29.23,1.0,0.0,280,4,,6.21,29.911417,,,TRUE,,,,,,,,CAVOK,,,,,,,,VFR,,,,,,,,,,,,METAR,270.0
EFKK 270050Z AUTO 26004KT 230V300 CAVOK 04/01 Q1019,EFKK,2023-05-27T00:50:00Z,63.72,23.13,4.0,1.0,260,4,,6.21,30.088583,,,TRUE,,,,,,,,CAVOK,,,,,,,,VFR,,,,,,,,,,,,METAR,25.0
EFKI 270050Z AUTO 18005KT CAVOK 03/00 Q1015,EFKI,2023-05-27T00:50:00Z,64.27,27.67,3.0,0.0,180,5,,6.21,29.970472,,,TRUE,,,,,,,,CAVOK,,,,,,,,VFR,,,,,,,,,,,,METAR,132.0
EFKE 270050Z AUTO 29005KT 250V310 CAVOK 04/M04 Q1015,EFKE,2023-05-27T00:50:00Z,65.78,24.57,4.0,-4.0,290,5,,6.21,29.970472,,,TRUE,,,,,,,,CAVOK,,,,,,,,VFR,,,,,,,,,,,,METAR,15.0
EFJY 270050Z AUTO 28007KT CAVOK 02/01 Q1018,EFJY,2023-05-27T00:50:00Z,62.4,25.68,2.0,1.0,280,7,,6.21,30.059055,,,TRUE,,,,,,,,CAVOK,,,,,,,,VFR,,,,,,,,,,,,METAR,139.0
EFJO 270050Z AUTO 31003KT 0550 R28/0600D FG NCD 03/03 Q1016,EFJO,2023-05-27T00:50:00Z,62.67,29.62,3.0,3.0,310,3,,0.34,30.0,,,TRUE,,,,,,,FG,CLR,,,,,,,,LIFR,,,,,,,,,,,,METAR,118.0
EFIV 270050Z AUTO 26008KT CAVOK 03/M05 Q1009,EFIV,2023-05-27T00:50:00Z,68.62,27.42,3.0,-5.0,260,8,,6.21,29.793306,,,TRUE,,,,,,,,CAVOK,,,,,,,,VFR,,,,,,,,,,,,METAR,145.0
EFHK 270050Z 27006KT CAVOK 03/00 Q1021 NOSIG,EFHK,2023-05-27T00:50:00Z,60.32,24.97,3.0,0.0,270,6,,6.21,30.147638,,,,,,TRUE,,,,,CAVOK,,,,,,,,VFR,,,,,,,,,,,,METAR,56.0
EFHA 270050Z AUTO 27007KT CAVOK 04/01 Q1019,EFHA,2023-05-27T00:50:00Z,61.85,24.8,4.0,1.0,270,7,,6.21,30.088583,,,TRUE,,,,,,,,CAVOK,,,,,,,,VFR,,,,,,,,,,,,METAR,144.0
EFET 270050Z AUTO 27011KT CAVOK 01/M05 Q1011,EFET,2023-05-27T00:50:00Z,68.37,23.43,1.0,-5.0,270,11,,6.21,29.852362,,,TRUE,,,,,,,,CAVOK,,,,,,,,VFR,,,,,,,,,,,,METAR,300.0
EEEI 270050Z AUTO 29007KT CAVOK 07/03 Q1023,EEEI,2023-05-27T00:50:00Z,59.27,24.2,7.0,3.0,290,7,,6.21,30.206694,,,TRUE,,,,,,,,CAVOK,,,,,,,,VFR,,,,,,,,,,,,METAR,19.0
EDXW 270050Z AUTO 36008KT 9999 // BKN017/// 09/06 Q1030,EDXW,2023-05-27T00:50:00Z,54.92,8.33,9.0,6.0,360,8,,6.21,30.413385,,,TRUE,,,,,,,,BKN,1700,,,,,,,MVFR,,,,,,,,,,,,METAR,8.0
EDWE 270050Z AUTO VRB02KT 9999 // BKN018/// 05/04 Q1031,EDWE,2023-05-27T00:50:00Z,53.38,7.23,5.0,4.0,0,2,,6.21,30.442913,,,TRUE,,,,,,,,BKN,1800,,,,,,,MVFR,,,,,,,,,,,,METAR,0.0
EDVK 270050Z AUTO 28003KT 9999 // NCD 07/05 Q1028,EDVK,2023-05-27T00:50:00Z,51.4,9.37,7.0,5.0,280,3,,6.21,30.35433,,,TRUE,,,,,,,,CLR,,,,,,,,VFR,,,,,,,,,,,,METAR,277.0
EDVE 270050Z AUTO 34002KT 9999 NCD 07/05 Q1029,EDVE,2023-05-27T00:50:00Z,52.32,10.55,7.0,5.0,340,2,,6.21,30.383858,,,TRUE,,,,,,,,CLR,,,,,,,,VFR,,,,,,,,,,,,METAR,83.0
EDTY 270050Z AUTO 06004KT 9999 // NCD 10/06 Q1025,EDTY,2023-05-27T00:50:00Z,49.12,9.78,10.0,6.0,60,4,,6.21,30.265747,,,TRUE,,,,,,,,CLR,,,,,,,,VFR,,,,,,,,,,,,METAR,398.0
EDTL 270050Z AUTO 36004KT 9999 // NCD 12/09 Q1023,EDTL,2023-05-27T00:50:00Z,48.37,7.83,12.0,9.0,360,4,,6.21,30.206694,,,TRUE,,,,,,,,CLR,,,,,,,,VFR,,,,,,,,,,,,METAR,152.0
EDSB 270050Z AUTO 02012KT 9999 // NCD 14/08 Q1023,EDSB,2023-05-27T00:50:00Z,48.78,8.08,14.0,8.0,20,12,,6.21,30.206694,,,TRUE,,,,,,,,CLR,,,,,,,,VFR,,,,,,,,,,,,METAR,122.0
EDQM 270050Z AUTO 36005KT 330V050 9999 // NCD 08/03 Q1027,EDQM,2023-05-27T00:50:00Z,50.3,11.85,8.0,3.0,360,5,,6.21,30.324802,,,TRUE,,,,,,,,CLR,,,,,,,,VFR,,,,,,,,,,,,METAR,578.0
EDNY 270050Z AUTO 04005KT 330V090 9999 BKN240/// 14/09 Q1022,EDNY,2023-05-27T00:50:00Z,47.67,9.52,14.0,9.0,40,5,,6.21,30.177166,,,TRUE,,,,,,,,BKN,24000,,,,,,,VFR,,,,,,,,,,,,METAR,411.0
EDMO 270050Z AUTO 03006KT 9999 // NCD 12/08 Q1024,EDMO,2023-05-27T00:50:00Z,48.07,11.27,12.0,8.0,30,6,,6.21,30.236221,,,TRUE,,,,,,,,CLR,,,,,,,,VFR,,,,,,,,,,,,METAR,587.0
EDMA 270050Z AUTO 06010KT 9999 // BKN063/// 13/07 Q1024,EDMA,2023-05-27T00:50:00Z,48.42,10.92,13.0,7.0,60,10,,6.21,30.236221,,,TRUE,,,,,,,,BKN,6300,,,,,,,VFR,,,,,,,,,,,,METAR,462.0
EDLW 270050Z AUTO 05003KT 9999 // NCD 07/05 Q1029,EDLW,2023-05-27T00:50:00Z,51.52,7.62,7.0,5.0,50,3,,6.21,30.383858,,,TRUE,,,,,,,,CLR,,,,,,,,VFR,,,,,,,,,,,,METAR,122.0
EDLV 270050Z AUTO 03005KT 350V060 9999 // NCD 09/05 Q1029,EDLV,2023-05-27T00:50:00Z,51.6,6.15,9.0,5.0,30,5,,6.21,30.383858,,,TRUE,,,,,,,,CLR,,,,,,,,VFR,,,,,,,,,,,,METAR,27.0
EDLP 270050Z 12003KT CAVOK 05/03 Q1029,EDLP,2023-05-27T00:50:00Z,51.62,8.62,5.0,3.0,120,3,,6.21,30.383858,,,,,,,,,,,CAVOK,,,,,,,,VFR,,,,,,,,,,,,METAR,211.0
EDLN 270050Z AUTO 03004KT 9999 // NCD 10/06 Q1028,EDLN,2023-05-27T00:50:00Z,51.23,6.5,10.0,6.0,30,4,,6.21,30.35433,,,TRUE,,,,,,,,CLR,,,,,,,,VFR,,,,,,,,,,,,METAR,38.0
EDJA 270050Z AUTO 05007KT 9999 // SCT150/// 11/08 Q1023,EDJA,2023-05-27T00:50:00Z,47.98,10.23,11.0,8.0,50,7,,6.21,30.206694,,,TRUE,,,,,,,,SCT,15000,,,,,,,VFR,,,,,,,,,,,,METAR,625.0
EDHL 270050Z AUTO 26003KT 9999 // NCD 07/06 Q1030,EDHL,2023-05-27T00:50:00Z,53.8,10.72,7.0,6.0,260,3,,6.21,30.413385,,,TRUE,,,,,,,,CLR,,,,,,,,VFR,,,,,,,,,,,,METAR,13.0
EDHK 270050Z AUTO 33004KT 9999 // NCD 07/05 Q1030,EDHK,2023-05-27T00:50:00Z,54.38,10.15,7.0,5.0,330,4,,6.21,30.413385,,,TRUE,,,,,,,,CLR,,,,,,,,VFR,,,,,,,,,,,,METAR,24.0
EDHI 270050Z AUTO 33003KT 270V010 9999 // NCD 09/07 Q1030,EDHI,2023-05-27T00:50:00Z,53.53,9.83,9.0,7.0,330,3,,6.21,30.413385,,,TRUE,,,,,,,,CLR,,,,,,,,VFR,,,,,,,,,,,,METAR,5.0
EDGS 270050Z AUTO 10009KT 9999 // NCD 07/05 Q1027,EDGS,2023-05-27T00:50:00Z,50.7,8.08,7.0,5.0,100,9,,6.21,30.324802,,,TRUE,,,,,,,,CLR,,,,,,,,VFR,,,,,,,,,,,,METAR,595.0
EDFM 270050Z AUTO 33005KT 9999 // NCD 13/07 Q1025,EDFM,2023-05-27T00:50:00Z,49.47,8.52,13.0,7.0,330,5,,6.21,30.265747,,,TRUE,,,,,,,,CLR,,,,,,,,VFR,,,,,,,,,,,,METAR,94.0
EDFH 270050Z 08005KT 040V120 CAVOK 09/04 Q1026,EDFH,2023-05-27T00:50:00Z,49.95,7.27,9.0,4.0,80,5,,6.21,30.295275,,,,,,,,,,,CAVOK,,,,,,,,VFR,,,,,,,,,,,,METAR,494.0
EDDW 270050Z AUTO 01004KT 330V050 CAVOK 08/06 Q1030,EDDW,2023-05-27T00:50:00Z,53.03,8.8,8.0,6.0,10,4,,6.21,30.413385,,,TRUE,,,,,,,,CAVOK,,,,,,,,VFR,,,,,,,,,,,,METAR,5.0
EDDV 270050Z AUTO 26002KT CAVOK 06/06 Q1029,EDDV,2023-05-27T00:50:00Z,52.47,9.68,6.0,6.0,260,2,,6.21,30.383858,,,TRUE,,,,,,,,CAVOK,,,,,,,,VFR,,,,,,,,,,,,METAR,53.0
EDDS 270050Z AUTO 04007KT CAVOK 13/06 Q1024,EDDS,2023-05-27T00:50:00Z,48.68,9.22,13.0,6.0,40,7,,6.21,30.236221,,,TRUE,,,,,,,,CAVOK,,,,,,,,VFR,,,,,,,,,,,,METAR,374.0
EDDR 270050Z AUTO 05013KT CAVOK 12/06 Q1024,EDDR,2023-05-27T00:50:00Z,49.22,7.1,12.0,6.0,50,13,,6.21,30.236221,,,TRUE,,,,,,,,CAVOK,,,,,,,,VFR,,,,,,,,,,,,METAR,317.0
EDDP 270050Z AUTO 02003KT CAVOK 08/05 Q1028 NOSIG,EDDP,2023-05-27T00:50:00Z,51.43,12.23,8.0,5.0,20,3,,6.21,30.35433,,,TRUE,,,TRUE,,,,,CAVOK,,,,,,,,VFR,,,,,,,,,,,,METAR,129.0
EDDN 270050Z AUTO 34003KT CAVOK 11/06 Q1026,EDDN,2023-05-27T00:50:00Z,49.5,11.05,11.0,6.0,340,3,,6.21,30.295275,,,TRUE,,,,,,,,CAVOK,,,,,,,,VFR,,,,,,,,,,,,METAR,312.0
EDDM 270050Z AUTO 04006KT CAVOK 12/08 Q1024 NOSIG,EDDM,2023-05-27T00:50:00Z,48.35,11.82,12.0,8.0,40,6,,6.21,30.236221,,,TRUE,,,TRUE,,,,,CAVOK,,,,,,,,VFR,,,,,,,,,,,,METAR,445.0
EDDL 270050Z AUTO 02006KT CAVOK 09/06 Q1028 NOSIG,EDDL,2023-05-27T00:50:00Z,51.3,6.77,9.0,6.0,20,6,,6.21,30.35433,,,TRUE,,,TRUE,,,,,CAVOK,,,,,,,,VFR,,,,,,,,,,,,METAR,37.0
EDDK 270050Z AUTO 09001KT CAVOK 08/05 Q1028 NOSIG,EDDK,2023-05-27T00:50:00Z,50.87,7.15,8.0,5.0,90,1,,6.21,30.35433,,,TRUE,,,TRUE,,,,,CAVOK,,,,,,,,VFR,,,,,,,,,,,,METAR,92.0
EDDH 270050Z AUTO 33001KT CAVOK 06/06 Q1030 NOSIG,EDDH,2023-05-27T00:50:00Z,53.63,10.0,6.0,6.0,330,1,,6.21,30.413385,,,TRUE,,,TRUE,,,,,CAVOK,,,,,,,,VFR,,,,,,,,,,,,METAR,8.0
EDDG 270050Z AUTO 03004KT 330V120 CAVOK 08/05 Q1029 NOSIG,EDDG,2023-05-27T00:50:00Z,52.13,7.7,8.0,5.0,30,4,,6.21,30.383858,,,TRUE,,,TRUE,,,,,CAVOK,,,,,,,,VFR,,,,,,,,,,,,METAR,46.0
EDDF 270050Z AUTO 03012KT CAVOK 13/05 Q1026,EDDF,2023-05-27T00:50:00Z,50.05,8.6,13.0,5.0,30,12,,6.21,30.295275,,,TRUE,,,,,,,,CAVOK,,,,,,,,VFR,,,,,,,,,,,,METAR,113.0
EDDE 270050Z AUTO VRB02KT CAVOK 08/04 Q1028,EDDE,2023-05-27T00:50:00Z,50.98,10.97,8.0,4.0,0,2,,6.21,30.35433,,,TRUE,,,,,,,,CAVOK,,,,,,,,VFR,,,,,,,,,,,,METAR,314.0
EDDC 270050Z AUTO VRB02KT CAVOK 08/05 Q1028,EDDC,2023-05-27T00:50:00Z,51.13,13.75,8.0,5.0,0,2,,6.21,30.35433,,,TRUE,,,,,,,,CAVOK,,,,,,,,VFR,,,,,,,,,,,,METAR,227.0
EDDB 270050Z AUTO 02004KT CAVOK 09/05 Q1028 NOSIG,EDDB,2023-05-27T00:50:00Z,52.38,13.53,9.0,5.0,20,4,,6.21,30.35433,,,TRUE,,,TRUE,,,,,CAVOK,,,,,,,,VFR,,,,,,,,,,,,METAR,48.0
EDBC 270050Z AUTO 33004KT 9999 // NCD 09/05 Q1029,EDBC,2023-05-27T00:50:00Z,51.85,11.42,9.0,5.0,330,4,,6.21,30.383858,,,TRUE,,,,,,,,CLR,,,,,,,,VFR,,,,,,,,,,,,METAR,178.0
EDAH 270050Z AUTO 31004KT 9999 // NCD 08/07 Q1028,EDAH,2023-05-27T00:50:00Z,53.87,14.15,8.0,7.0,310,4,,6.21,30.35433,,,TRUE,,,,,,,,CLR,,,,,,,,VFR,,,,,,,,,,,,METAR,22.0
EDAC 270050Z AUTO 13002KT 9999 // NCD 06/04 Q1028,EDAC,2023-05-27T00:50:00Z,50.98,12.5,6.0,4.0,130,2,,6.21,30.35433,,,TRUE,,,,,,,,CLR,,,,,,,,VFR,,,,,,,,,,,,METAR,193.0
EBOS 270050Z 07010KT CAVOK 10/07 Q1029 NOSIG,EBOS,2023-05-27T00:50:00Z,51.2,2.87,10.0,7.0,70,10,,6.21,30.383858,,,,,,TRUE,,,,,CAVOK,,,,,,,,VFR,,,,,,,,,,,,METAR,5.0
EBLG 270050Z 04008KT CAVOK 08/06 Q1027 NOSIG,EBLG,2023-05-27T00:50:00Z,50.63,5.45,8.0,6.0,40,8,,6.21,30.324802,,,,,,TRUE,,,,,CAVOK,,,,,,,,VFR,,,,,,,,,,,,METAR,187.0
EBCI 270050Z 04008KT CAVOK 09/05 Q1027 NOSIG,EBCI,2023-05-27T00:50:00Z,50.47,4.45,9.0,5.0,40,8,,6.21,30.324802,,,,,,TRUE,,,,,CAVOK,,,,,,,,VFR,,,,,,,,,,,,METAR,176.0
EBBR 270050Z 05005KT CAVOK 08/06 Q1028 NOSIG,EBBR,2023-05-27T00:50:00Z,50.9,4.52,8.0,6.0,50,5,,6.21,30.35433,,,,,,TRUE,,,,,CAVOK,,,,,,,,VFR,,,,,,,,,,,,METAR,49.0
EBAW 270050Z AUTO 04008KT 9999 // VV/// 10/05 Q1029,EBAW,2023-05-27T00:50:00Z,51.2,4.47,10.0,5.0,40,8,,6.21,30.383858,,,TRUE,,,,,,,,OVX,0,,,,,,,LIFR,,,,,,,,,,,,METAR,7.0
BGSF 270050Z AUTO 05008KT 020V090 9999NDV OVC060/// 05/M05 Q1014,BGSF,2023-05-27T00:50:00Z,67.0,-50.72,5.0,-5.0,50,8,,,29.940945,,,TRUE,,,,,,,,OVC,6000,,,,,,,,,,,,,,,,,,,METAR,75.0
BGKK 270050Z AUTO 21006KT 9999NDV FEW150/// FEW200/// 02/M09 Q1012,BGKK,2023-05-27T00:50:00Z,65.57,-37.13,2.0,-9.0,210,6,,,29.88189,,,TRUE,,,,,,,,FEW,15000,FEW,20000,,,,,,,,,,,,,,,,,METAR,37.0
BGJN 270050Z AUTO 13015KT 8000NDV -RA OVC019/// 02/M00 Q1011,BGJN,2023-05-27T00:50:00Z,69.25,-51.07,2.0,0.0,130,15,,,29.852362,,,TRUE,,,,,,,-RA,OVC,1900,,,,,,,,,,,,,,,,,,,METAR,22.0
BGBW 270050Z AUTO 08004KT 9999NDV NCD 03/M01 Q1023,BGBW,2023-05-27T00:50:00Z,61.17,-45.42,3.0,-1.0,80,4,,,30.206694,,,TRUE,,,,,,,,CLR,,,,,,,,,,,,,,,,,,,,METAR,49.0
PTSA 270049Z 12007KT 10SM BKN019TCU BKN130 BKN300 29/25 A2981 RMK TCU NE LAST,PTSA,2023-05-27T00:49:00Z,5.35,162.95,29.0,25.0,120,7,,10.0,29.811024,,,,,,,,,,,BKN,1900,BKN,13000,BKN,30000,,,MVFR,,,,,,,,,,,,METAR,3.0
PAPT 270049Z 16012KT 25SM BKN060 OVC100 09/00 A2948 RMK NO SPECI,PAPT,2023-05-27T00:49:00Z,62.1,-152.72,9.0,0.0,160,12,,25.0,29.480314,,,,,,,,,,,BKN,6000,OVC,10000,,,,,VFR,,,,,,,,,,,,METAR,577.0
PAPB 270049Z AUTO 27018KT 3/4SM HZ VV002 06/03 A2917 RMK AO2 TSNO $,PAPB,2023-05-27T00:49:00Z,56.58,-169.67,6.0,3.0,270,18,,0.75,29.170275,,,TRUE,TRUE,TRUE,,TRUE,,,HZ,OVX,0,,,,,,,LIFR,,,,,,,,,,,200,METAR,33.0
MMZH 270049Z 20005KT 7SM FEW100 31/23 A2979 RMK 8/030 HZY FU SE,MMZH,2023-05-27T00:49:00Z,17.6,-101.47,31.0,23.0,200,5,,7.0,29.790354,,,,,,,,,,,FEW,10000,,,,,,,VFR,,,,,,,,,,,,METAR,9.0
KTRK 270049Z 25012KT 10SM SCT050 BKN075 14/07 A3002,KTRK,2023-05-27T00:49:00Z,39.32,-120.13,14.0,7.0,250,12,,10.0,30.02067,,,,,,,,,,,SCT,5000,BKN,7500,,,,,VFR,,,,,,,,,,,,METAR,1800.0
MMMZ 270048Z 27007KT 15SM BKN240 29/21 A2980 RMK 8/009 ISOL AC,MMMZ,2023-05-27T00:48:00Z,23.17,-106.27,29.0,21.0,270,7,,15.0,29.799213,,,,,,,,,,,BKN,24000,,,,,,,VFR,,,,,,,,,,,,METAR,7.0
MMGL 270048Z 24008KT 10SM FEW300 33/M04 A2998 RMK 8/002 AC,MMGL,2023-05-27T00:48:00Z,20.52,-103.32,33.0,-4.0,240,8,,10.0,29.97933,,,,,,,,,,,FEW,30000,,,,,,,VFR,,,,,,,,,,,,METAR,1531.0
KJDN 270048Z AUTO 02010KT 21/14 A2990 RMK AO1 SLP117 T02110139,KJDN,2023-05-27T00:48:00Z,47.33,-106.95,21.1,13.9,20,10,,,29.899607,1011.7,,TRUE,TRUE,,,,,,,,,,,,,,,,,,,,,,,,,,,METAR,802.0
KCWF 270048Z 07005KT 10SM CLR 27/13 A2997,KCWF,2023-05-27T00:48:00Z,30.22,-93.15,27.0,13.0,70,5,,10.0,29.970472,,,,,,,,,,,CLR,,,,,,,,VFR,,,,,,,,,,,,METAR,4.0
KASG 270048Z 06005KT 10SM CLR 24/13 A3010,KASG,2023-05-27T00:48:00Z,36.17,-94.12,24.0,13.0,60,5,,10.0,30.100393,,,,,,,,,,,CLR,,,,,,,,VFR,,,,,,,,,,,,METAR,410.0
KANE 270048Z 12006KT 10SM CLR 25/M01 A3020,KANE,2023-05-27T00:48:00Z,45.15,-93.22,25.0,-1.0,120,6,,10.0,30.200787,,,,,,,,,,,CLR,,,,,,,,VFR,,,,,,,,,,,,METAR,276.0
MMLP 270047Z 20010KT 10SM SCT100 BKN200 24/12 A2982 RMK 8/038,MMLP,2023-05-27T00:47:00Z,24.07,-110.37,24.0,12.0,200,10,,10.0,29.819881,,,,,,,,,,,SCT,10000,BKN,20000,,,,,VFR,,,,,,,,,,,,METAR,16.0
MMIA 270047Z 25010KT 6SM SKC 29/18 A2986,MMIA,2023-05-27T00:47:00Z,19.27,-103.57,29.0,18.0,250,10,,6.0,29.861221,,,,,,,,,,,SKC,,,,,,,,VFR,,,,,,,,,,,,METAR,744.0
KTIX 270047Z 36015G21KT 7SM BKN020 BKN025 24/19 A2989,KTIX,2023-05-27T00:47:00Z,28.5,-80.8,24.0,19.0,360,15,21,7.0,29.890747,,,,,,,,,,,BKN,2000,BKN,2500,,,,,MVFR,,,,,,,,,,,,METAR,10.0
KSEE 270047Z 26009KT 10SM FEW042 19/09 A2994,KSEE,2023-05-27T00:47:00Z,32.82,-116.97,19.0,9.0,260,9,,10.0,29.940945,,,,,,,,,,,FEW,4200,,,,,,,VFR,,,,,,,,,,,,METAR,113.0
KRHV 270047Z 32010KT 10SM SKC 20/11 A2992,KRHV,2023-05-27T00:47:00Z,37.33,-121.82,20.0,11.0,320,10,,10.0,29.920275,,,,,,,,,,,SKC,,,,,,,,VFR,,,,,,,,,,,,METAR,37.0
KPAO 270047Z 31009KT 10SM CLR 19/11 A2993,KPAO,2023-05-27T00:47:00Z,37.47,-122.12,19.0,11.0,310,9,,10.0,29.929134,,,,,,,,,,,CLR,,,,,,,,VFR,,,,,,,,,,,,METAR,2.0
KLBE 270047Z 10006KT 10SM CLR 17/01 A3025,KLBE,2023-05-27T00:47:00Z,40.27,-79.4,17.0,1.0,100,6,,10.0,30.250984,,,,,,,,,,,CLR,,,,,,,,VFR,,,,,,,,,,,,METAR,345.0
KHSA 270047Z 00000KT 10SM FEW070 24/18 A2996,KHSA,2023-05-27T00:47:00Z,30.37,-89.45,24.0,18.0,0,0,,10.0,29.958662,,,,,,,,,,,FEW,7000,,,,,,,VFR,,,,,,,,,,,,METAR,6.0
KGYR 270047Z 23014G21KT 10SM SKC 34/M02 A2972,KGYR,2023-05-27T00:47:00Z,33.42,-112.37,34.0,-2.0,230,14,21,10.0,29.719488,,,,,,,,,,,SKC,,,,,,,,VFR,,,,,,,,,,,,METAR,292.0
KFDK 270047Z 07005KT 10SM CLR 17/09 A3024,KFDK,2023-05-27T00:47:00Z,39.42,-77.37,17.0,9.0,70,5,,10.0,30.239174,,,,,,,,,,,CLR,,,,,,,,VFR,,,,,,,,,,,,METAR,82.0
KEVB 270047Z 01018G27KT 10SM BKN019 OVC024 22/19 A2989,KEVB,2023-05-27T00:47:00Z,29.05,-80.95,22.0,19.0,10,18,27,10.0,29.890747,,,,,,,,,,,BKN,1900,OVC,2400,,,,,MVFR,,,,,,,,,,,,METAR,2.0
KCQT 270047Z AUTO VRB06KT 10SM OVC048 18/11 A2996 RMK AO2 SLP143 T01830106 $,KCQT,2023-05-27T00:47:00Z,34.02,-118.28,18.3,10.6,0,6,,10.0,29.958662,1014.3,,TRUE,TRUE,TRUE,,,,,,OVC,4800,,,,,,,VFR,,,,,,,,,,,,METAR,51.0
KCIC 270047Z 16010KT 10SM CLR 26/13 A2982,KCIC,2023-05-27T00:47:00Z,39.78,-121.85,26.0,13.0,160,10,,10.0,29.819881,,,,,,,,,,,CLR,,,,,,,,VFR,,,,,,,,,,,,METAR,72.0
KCHD 270047Z 28008G16KT 10SM CLR 35/M03 A2972,KCHD,2023-05-27T00:47:00Z,33.27,-111.82,35.0,-3.0,280,8,16,10.0,29.719488,,,,,,,,,,,CLR,,,,,,,,VFR,,,,,,,,,,,,METAR,378.0
KCFO 270047Z 07008KT 10SM SKC 16/09 A3003,KCFO,2023-05-27T00:47:00Z,39.78,-104.55,16.0,9.0,70,8,,10.0,30.029528,,,,,,,,,,,SKC,,,,,,,,VFR,,,,,,,,,,,,METAR,1672.0
KADS 270047Z 09008KT 10SM SKC 28/11 A3001,KADS,2023-05-27T00:47:00Z,32.97,-96.83,28.0,11.0,90,8,,10.0,30.008858,,,,,,,,,,,SKC,,,,,,,,VFR,,,,,,,,,,,,METAR,198.0
MMMX 270046Z 08017KT 6SM VCRA SCT020CB SCT080 BKN220 23/09 A3024 NOSIG RMK 8/363 HZY PCPN 3TH QUAD,MMMX,2023-05-27T00:46:00Z,19.43,-99.08,23.0,9.0,80,17,,6.0,30.239174,,,,,,TRUE,,,,VCRA,SCT,2000,SCT,8000,BKN,22000,,,VFR,,,,,,,,,,,,METAR,2224.0
PALP 270045Z 06014KT 10SM OVC012 M00/M04 A2968,PALP,2023-05-27T00:45:00Z,70.33,-150.93,0.0,-4.0,60,14,,10.0,29.681103,,,,,,,,,,,OVC,1200,,,,,,,MVFR,,,,,,,,,,,,METAR,4.0
PAKU 270045Z 08019KT 10SM R06/P6000FT BKN013 M01/M03 A2966,PAKU,2023-05-27T00:45:00Z,70.32,-149.6,-1.0,-3.0,80,19,,10.0,29.660433,,,,,,,,,,,BKN,1300,,,,,,,MVFR,,,,,,,,,,,,METAR,23.0
MMUN 270045Z 04003KT 7SM FEW015 27/21 A2984 RMK 8/100,MMUN,2023-05-27T00:45:00Z,21.03,-86.85,27.0,21.0,40,3,,7.0,29.840551,,,,,,,,,,,FEW,1500,,,,,,,VFR,,,,,,,,,,,,METAR,13.0
MMPR 270045Z 22008KT 15SM SCT230 28/22 A2980 RMK 8/002 CC OVHD,MMPR,2023-05-27T00:45:00Z,20.67,-105.25,28.0,22.0,220,8,,15.0,29.799213,,,,,,,,,,,SCT,23000,,,,,,,VFR,,,,,,,,,,,,METAR,6.0
MMLM 270045Z 25007KT 10SM SCT040 OVC080 26/14 A2981 RMK 8/52/,MMLM,2023-05-27T00:45:00Z,25.68,-109.08,26.0,14.0,250,7,,10.0,29.811024,,,,,,,,,,,SCT,4000,OVC,8000,,,,,VFR,,,,,,,,,,,,METAR,6.0
MMCN 270045Z 28002KT 10SM SCT040 BKN100 OVC200 28/08 A2977 RMK 8/577,MMCN,2023-05-27T00:45:00Z,27.4,-109.83,28.0,8.0,280,2,,10.0,29.769686,,,,,,,,,,,SCT,4000,BKN,10000,OVC,20000,,,VFR,,,,,,,,,,,,METAR,57.0
MMCB 270045Z 00000KT 7SM SCT025CB OVC090 24/18 A3000 RMK 8/92/ OCNL DROPS RA S HZY,MMCB,2023-05-27T00:45:00Z,18.83,-99.27,24.0,18.0,0,0,,7.0,30.0,,,,,,,,,,,SCT,2500,OVC,9000,,,,,VFR,,,,,,,,,,,,METAR,1281.0
LIRP 270045Z 13002KT CAVOK 15/14 Q1017 NOSIG,LIRP,2023-05-27T00:45:00Z,43.68,10.38,15.0,14.0,130,2,,6.21,30.029528,,,,,,TRUE,,,,,CAVOK,,,,,,,,VFR,,,,,,,,,,,,METAR,1.0
LHSN 270045Z 02010KT CAVOK 18/13 Q1018 NOSIG RMK BLU,LHSN,2023-05-27T00:45:00Z,47.12,20.23,18.0,13.0,20,10,,6.21,30.059055,,,,,,TRUE,,,,,CAVOK,,,,,,,,VFR,,,,,,,,,,,,METAR,89.0
LHSM 270045Z AUTO 35014KT 9999 FEW058 //////TCU 15/11 Q1020,LHSM,2023-05-27T00:45:00Z,46.68,17.17,15.0,11.0,350,14,,6.21,30.11811,,,TRUE,,,,,,,,FEW,5800,,,,,,,VFR,,,,,,,,,,,,METAR,119.0
LHPR 270045Z AUTO 31004KT 9999 VCTS OVC057 //////CB 15/10 Q1021,LHPR,2023-05-27T00:45:00Z,47.63,17.82,15.0,10.0,310,4,,6.21,30.147638,,,TRUE,,,,,,,VCTS,OVC,5700,,,,,,,VFR,,,,,,,,,,,,METAR,127.0
LHPP 270045Z AUTO 06004KT 020V110 9999 SCT095 //////TCU 17/13 Q1019,LHPP,2023-05-27T00:45:00Z,45.98,18.23,17.0,13.0,60,4,,6.21,30.088583,,,TRUE,,,,,,,,SCT,9500,,,,,,,VFR,,,,,,,,,,,,METAR,193.0
LHKE 270045Z 03008KT 010V070 CAVOK 18/13 Q1018 NOSIG RMK BLU,LHKE,2023-05-27T00:45:00Z,46.92,19.75,18.0,13.0,30,8,,6.21,30.059055,,,,,,TRUE,,,,,CAVOK,,,,,,,,VFR,,,,,,,,,,,,METAR,113.0
LHDC 270045Z AUTO 02011KT 350V050 CAVOK 18/13 Q1018 NOSIG,LHDC,2023-05-27T00:45:00Z,47.48,21.62,18.0,13.0,20,11,,6.21,30.059055,,,TRUE,,,TRUE,,,,,CAVOK,,,,,,,,VFR,,,,,,,,,,,,METAR,105.0
KWDG 270045Z 23007KT 10SM SCT120 22/17 A3006,KWDG,2023-05-27T00:45:00Z,36.37,-97.78,22.0,17.0,230,7,,10.0,30.059055,,,,,,,,,,,SCT,12000,,,,,,,VFR,,,,,,,,,,,,METAR,352.0
KUES 270045Z 07008KT 10SM CLR 14/M05 A3032,KUES,2023-05-27T00:45:00Z,43.05,-88.25,14.0,-5.0,70,8,,10.0,30.318897,,,,,,,,,,,CLR,,,,,,,,VFR,,,,,,,,,,,,METAR,273.0
KSWF 270045Z 08005KT 10SM SKC 18/03 A3024,KSWF,2023-05-27T00:45:00Z,41.5,-74.08,18.0,3.0,80,5,,10.0,30.239174,,,,,,,,,,,SKC,,,,,,,,VFR,,,,,,,,,,,,METAR,139.0
KSUA 270045Z 00000KT 10SM SCT021 23/21 A2984,KSUA,2023-05-27T00:45:00Z,27.18,-80.22,23.0,21.0,0,0,,10.0,29.840551,,,,,,,,,,,SCT,2100,,,,,,,VFR,,,,,,,,,,,,METAR,4.0
KSAW 270045Z 17009KT 10SM CLR 20/M03 A3027,KSAW,2023-05-27T00:45:00Z,46.35,-87.4,20.0,-3.0,170,9,,10.0,30.268702,,,,,,,,,,,CLR,,,,,,,,VFR,,,,,,,,,,,,METAR,359.0
KOUN 270045Z 15003KT 10SM SCT090 OVC120 24/16 A3004,KOUN,2023-05-27T00:45:00Z,35.25,-97.47,24.0,16.0,150,3,,10.0,30.041338,,,,,,,,,,,SCT,9000,OVC,12000,,,,,VFR,,,,,,,,,,,,METAR,359.0
KMWC 270045Z 11003KT 10SM CLR 17/M11 A3031,KMWC,2023-05-27T00:45:00Z,43.12,-88.03,17.0,-11.0,110,3,,10.0,30.31004,,,,,,,,,,,CLR,,,,,,,,VFR,,,,,,,,,,,,METAR,225.0
KMMU 270045Z 00000KT 10SM SKC 14/08 A3025,KMMU,2023-05-27T00:45:00Z,40.78,-74.42,14.0,8.0,0,0,,10.0,30.250984,,,,,,,,,,,SKC,,,,,,,,VFR,,,,,,,,,,,,METAR,55.0
KJVL 270045Z COR 10008KT 10SM FEW250 20/M14 A3028,KJVL,2023-05-27T00:45:00Z,42.62,-89.05,20.0,-14.0,100,8,,10.0,30.280512,,TRUE,,,,,,,,,FEW,25000,,,,,,,VFR,,,,,,,,,,,,METAR,244.0
KGYY 270045Z COR 00000KT 10SM CLR 13/05 A3029,KGYY,2023-05-27T00:45:00Z,41.62,-87.42,13.0,5.0,0,0,,10.0,30.28937,,TRUE,,,,,,,,,CLR,,,,,,,,VFR,,,,,,,,,,,,METAR,179.0
KFQD 270045Z AUTO 08006KT 10SM CLR 18/07 A3018 RMK AO2,KFQD,2023-05-27T00:45:00Z,35.42,-81.93,18.0,7.0,80,6,,10.0,30.180119,,,TRUE,TRUE,,,,,,,CLR,,,,,,,,VFR,,,,,,,,,,,,METAR,325.0
KESN 270045Z 13005KT 10SM CLR 17/05 A3025,KESN,2023-05-27T00:45:00Z,38.8,-76.07,17.0,5.0,130,5,,10.0,30.250984,,,,,,,,,,,CLR,,,,,,,,VFR,,,,,,,,,,,,METAR,14.0
KEMT 270045Z 23005KT 10SM OVC037 18/10 A2995,KEMT,2023-05-27T00:45:00Z,34.08,-118.03,18.0,10.0,230,5,,10.0,29.949802,,,,,,,,,,,OVC,3700,,,,,,,VFR,,,,,,,,,,,,METAR,84.0
KCGF 270045Z 08004KT 10SM CLR 14/02 A3029,KCGF,2023-05-27T00:45:00Z,41.57,-81.47,14.0,2.0,80,4,,10.0,30.28937,,,,,,,,,,,CLR,,,,,,,,VFR,,,,,,,,,,,,METAR,265.0
KBJC 270045Z 01005KT 10SM BKN150 18/10 A3004,KBJC,2023-05-27T00:45:00Z,39.9,-105.1,18.0,10.0,10,5,,10.0,30.041338,,,,,,,,,,,BKN,15000,,,,,,,VFR,,,,,,,,,,,,METAR,1694.0
KBBG 270045Z 00000KT 10SM CLR 22/08 A3012,KBBG,2023-05-27T00:45:00Z,36.53,-93.2,22.0,8.0,0,0,,10.0,30.121063,,,,,,,,,,,CLR,,,,,,,,VFR,,,,,,,,,,,,METAR,403.0
KBAK 270045Z 07005KT 10SM CLR 19/02 A3018,KBAK,2023-05-27T00:45:00Z,39.27,-85.9,19.0,2.0,70,5,,10.0,30.180119,,,,,,,,,,,CLR,,,,,,,,VFR,,,,,,,,,,,,METAR,199.0
KATW 270045Z 14006KT 10SM CLR 19/01 A3029,KATW,2023-05-27T00:45:00Z,44.27,-88.52,19.0,1.0,140,6,,10.0,30.28937,,,,,,,,,,,CLR,,,,,,,,VFR,,,,,,,,,,,,METAR,266.0
RKNW 270044Z 04003KT 9999 -RA BKN045 BKN100 19/14 A3011 RMK CIG045,RKNW,2023-05-27T00:44:00Z,37.33,127.95,19.0,14.0,40,3,,6.21,30.109253,,,,,,,,,,-RA,BKN,4500,BKN,10000,,,,,VFR,,,,,,,,,,,,SPECI,152.0
MMVR 270044Z 06005KT 7SM SCT070 BKN200 28/22 A2990 RMK 8/058 ISOL CU,MMVR,2023-05-27T00:44:00Z,19.15,-96.18,28.0,22.0,60,5,,7.0,29.899607,,,,,,,,,,,SCT,7000,BKN,20000,,,,,VFR,,,,,,,,,,,,METAR,26.0
MMVA 270044Z 34006KT 7SM SCT060 28/22 A2987 RMK 8/020,MMVA,2023-05-27T00:44:00Z,18.0,-92.82,28.0,22.0,340,6,,7.0,29.870079,,,,,,,,,,,SCT,6000,,,,,,,VFR,,,,,,,,,,,,METAR,13.0
MMTO 270044Z 15009KT 6SM SCT020 BKN070 BKN200 17/12 A3031 RMK 8/463 HZY CB W SW,MMTO,2023-05-27T00:44:00Z,19.35,-99.57,17.0,12.0,150,9,,6.0,30.31004,,,,,,,,,,,SCT,2000,BKN,7000,BKN,20000,,,VFR,,,,,,,,,,,,METAR,2582.0
MMCP 270044Z 34015KT 7SM FEW040 28/21 A2985 RMK 8/100 HZY,MMCP,2023-05-27T00:44:00Z,19.82,-90.5,28.0,21.0,340,15,,7.0,29.84941,,,,,,,,,,,FEW,4000,,,,,,,VFR,,,,,,,,,,,,METAR,9.0
MMAA 270044Z 22003KT 6SM FEW015 SCT090 SCT300 30/23 A2979 RMK 8/162 HZY DSNT CB N NE NW,MMAA,2023-05-27T00:44:00Z,16.75,-99.75,30.0,23.0,220,3,,6.0,29.790354,,,,,,,,,,,FEW,1500,SCT,9000,SCT,30000,,,VFR,,,,,,,,,,,,METAR,5.0
MMTP 270043Z 00000KT 6SM FEW100 29/26 A2978 RMK 8/070 HZY,MMTP,2023-05-27T00:43:00Z,14.78,-92.37,29.0,26.0,0,0,,6.0,29.778543,,,,,,,,,,,FEW,10000,,,,,,,VFR,,,,,,,,,,,,METAR,27.0
MMSM 270043Z 06017KT 7SM FEW020CB SCT080 BKN220 21/11 A3023 RMK 8/363 HZY,MMSM,2023-05-27T00:43:00Z,19.75,-99.02,21.0,11.0,60,17,,7.0,30.230314,,,,,,,,,,,FEW,2000,SCT,8000,BKN,22000,,,VFR,,,,,,,,,,,,METAR,2250.0
MMMM 270043Z 21007KT 7SM SCT030 SCT080 BKN300 26/10 A3008 RMK 8/463 HZY,MMMM,2023-05-27T00:43:00Z,19.85,-101.03,26.0,10.0,210,7,,7.0,30.079725,,,,,,,,,,,SCT,3000,SCT,8000,BKN,30000,,,VFR,,,,,,,,,,,,METAR,1840.0
MMCS 270043Z 19009KT 10SM FEW080 SCT110 33/M05 A2990 RMK 8/070 ISOL SC,MMCS,2023-05-27T00:43:00Z,31.63,-106.42,33.0,-5.0,190,9,,10.0,29.899607,,,,,,,,,,,FEW,8000,SCT,11000,,,,,VFR,,,,,,,,,,,,METAR,1194.0
MMAS 270043Z 26003KT 9SM SCT200 29/M04 A3006 RMK 8/002 HZY ISOL CU DSNT TCU 1 QUAD,MMAS,2023-05-27T00:43:00Z,21.7,-102.32,29.0,-4.0,260,3,,9.0,30.059055,,,,,,,,,,,SCT,20000,,,,,,,VFR,,,,,,,,,,,,METAR,1866.0
RKSG 270042Z 10003KT 3SM -RA BKN020 BKN030 19/17 A3010 RMK AO2A RAB2148 SLP193 WND DATA ALSTG/SLP ESTMD $,RKSG,2023-05-27T00:42:00Z,36.97,127.02,19.0,17.0,100,3,,3.0,30.100393,1019.3,,,TRUE,TRUE,,,,,-RA,BKN,2000,BKN,3000,,,,,MVFR,,,,,,,,,,,,METAR,12.0
RKJK 270042Z AUTO 13003KT 5SM -DZ BR FEW065 21/21 A3005 RMK AO2 DZB42 SLP180,RKJK,2023-05-27T00:42:00Z,35.9,126.62,21.0,21.0,130,3,,5.0,30.050198,1018.0,,TRUE,TRUE,,,,,,-DZ BR,FEW,6500,,,,,,,MVFR,,,,,,,,,,,,SPECI,8.0
MMTC 270042Z 04003KT 10SM SCT030CB BKN100 OVC250 32/10 A2991 RMK 8/977 CB SW S SE BINOVC AL W,MMTC,2023-05-27T00:42:00Z,25.57,-103.4,32.0,10.0,40,3,,10.0,29.911417,,,,,,,,,,,SCT,3000,BKN,10000,OVC,25000,,,VFR,,,,,,,,,,,,METAR,1128.0
MMPS 270042Z 09006KT 10SM SCT010CB BKN070 BKN310 28/22 A2983 RMK 8/363 -RAB12 -RAE25 HZY,MMPS,2023-05-27T00:42:00Z,15.87,-97.08,28.0,22.0,90,6,,10.0,29.828741,,,,,,,,,,,SCT,1000,BKN,7000,BKN,31000,,,VFR,,,,,,,,,,,,METAR,65.0
MMPQ 270042Z 00000KT 5SM SCT040 31/23 A2974 RMK 8/400 HZY MSGTX MMMX,MMPQ,2023-05-27T00:42:00Z,17.53,-92.02,31.0,23.0,0,0,,5.0,29.740158,,,,,,,,,,,SCT,4000,,,,,,,MVFR,,,,,,,,,,,,METAR,48.0
MMMD 270042Z 36004G14KT 6SM FEW020 28/22 A2987 RMK 8/400 HZY,MMMD,2023-05-27T00:42:00Z,20.95,-89.65,28.0,22.0,360,4,14,6.0,29.870079,,,,,,,,,,,FEW,2000,,,,,,,VFR,,,,,,,,,,,,METAR,10.0
MMEP 270042Z 36006KT 12SM FEW250 27/16 A2996 RMK 8/002,MMEP,2023-05-27T00:42:00Z,21.42,-104.85,27.0,16.0,360,6,,12.0,29.958662,,,,,,,,,,,FEW,25000,,,,,,,VFR,,,,,,,,,,,,METAR,921.0
KRPX 270042Z AUTO 10SM 19/12 A2985 RMK Roundup ,KRPX,2023-05-27T00:42:00Z,46.47,-108.55,19.0,12.0,,,,10.0,29.84941,,,TRUE,,,,,,,,,,,,,,,,,,,,,,,,,,,,METAR,1062.0
MMTG 270041Z 31021KT 7SM SKC 29/18 A2986 RMK ISOL CI / HZY,MMTG,2023-05-27T00:41:00Z,16.57,-93.03,29.0,18.0,310,21,,7.0,29.861221,,,,,,,,,,,SKC,,,,,,,,VFR,,,,,,,,,,,,METAR,463.0
MMRX 270041Z 10010KT 7SM FEW045 SCT280 29/18 A2991 RMK 8/508 HZY,MMRX,2023-05-27T00:41:00Z,26.02,-98.22,29.0,18.0,100,10,,7.0,29.911417,,,,,,,,,,,FEW,4500,SCT,28000,,,,,VFR,,,,,,,,,,,,METAR,45.0
MMQT 270041Z 06014KT 7SM BKN020CB BKN200 24/13 A3017 RMK 8/301,MMQT,2023-05-27T00:41:00Z,20.62,-100.18,24.0,13.0,60,14,,7.0,30.171259,,,,,,,,,,,BKN,2000,BKN,20000,,,,,MVFR,,,,,,,,,,,,METAR,1909.0
MMOX 270041Z 15003KT 7SM SCT025 BKN080 BKN210 21/16 A3015 RMK 8/432 MDT CU ALQDS HZY,MMOX,2023-05-27T00:41:00Z,17.0,-96.72,21.0,16.0,150,3,,7.0,30.15059,,,,,,,,,,,SCT,2500,BKN,8000,BKN,21000,,,VFR,,,,,,,,,,,,METAR,1528.0
MMZO 270040Z 27010KT 8SM FEW210 30/26 A2975 RMK 8/004 HZY,MMZO,2023-05-27T00:40:00Z,19.13,-104.57,30.0,26.0,270,10,,8.0,29.749016,,,,,,,,,,,FEW,21000,,,,,,,VFR,,,,,,,,,,,,METAR,11.0
MMZC 270040Z E02015KT 7SM BKN050 BKN100 28/03 A3009 RMK 8/720 HZY,MMZC,2023-05-27T00:40:00Z,22.9,-102.68,28.0,3.0,20,15,,7.0,30.088583,,,,,,,,,,,BKN,5000,BKN,10000,,,,,VFR,,,,,,,,,,,,METAR,2175.0
MMSP 270040Z 07015KT 9SM FEW030 BKN250 23/12 A3013 RMK 8/403 DSTN CB NW N,MMSP,2023-05-27T00:40:00Z,22.25,-100.93,23.0,12.0,70,15,,9.0,30.129921,,,,,,,,,,,FEW,3000,BKN,25000,,,,,VFR,,,,,,,,,,,,METAR,1841.0
MMSD 270040Z 36008KT 10SM SCT120 BKN200 31/09 A2980 RMK 8/038,MMSD,2023-05-27T00:40:00Z,23.15,-109.72,31.0,9.0,360,8,,10.0,29.799213,,,,,,,,,,,SCT,12000,BKN,20000,,,,,VFR,,,,,,,,,,,,METAR,107.0
MMPN 270040Z 00000KT 8SM SCT280 28/14 A3005 RMK 8/001 HZY SC AC,MMPN,2023-05-27T00:40:00Z,19.38,-102.03,28.0,14.0,0,0,,8.0,30.050198,,,,,,,,,,,SCT,28000,,,,,,,VFR,,,,,,,,,,,,METAR,1602.0
MMPA 270040Z 08006KT 4SM BKN280 29/24 A2990 RMK 8/008 HZY,MMPA,2023-05-27T00:40:00Z,20.6,-97.47,29.0,24.0,80,6,,4.0,29.899607,,,,,,,,,,,BKN,28000,,,,,,,MVFR,,,,,,,,,,,,SPECI,153.0
MMNL 270040Z 12010KT 10SM SCT080 OVC200 32/16 A2989 RMK 8/072,MMNL,2023-05-27T00:40:00Z,27.43,-99.57,32.0,16.0,120,10,,10.0,29.890747,,,,,,,,,,,SCT,8000,OVC,20000,,,,,VFR,,,,,,,,,,,,METAR,146.0
MMMY 270040Z 09010KT 10SM FEW030 BKN200 30/18 A2991 RMK 8/508,MMMY,2023-05-27T00:40:00Z,25.77,-100.1,30.0,18.0,90,10,,10.0,29.911417,,,,,,,,,,,FEW,3000,BKN,20000,,,,,VFR,,,,,,,,,,,,METAR,382.0
MMMA 270040Z 05009KT 10SM FEW020 FEW200 28/21 A2991 RMK 8/105,MMMA,2023-05-27T00:40:00Z,25.77,-97.52,28.0,21.0,50,9,,10.0,29.911417,,,,,,,,,,,FEW,2000,FEW,20000,,,,,VFR,,,,,,,,,,,,METAR,7.0
MMLT 270040Z 07010KT 10SM BKN130 OVC200 27/22 A2975 RMK 8/027 HZY,MMLT,2023-05-27T00:40:00Z,25.98,-111.33,27.0,22.0,70,10,,10.0,29.749016,,,,,,,,,,,BKN,13000,OVC,20000,,,,,VFR,,,,,,,,,,,,METAR,4.0
MMLO 270040Z 03009KT 10SM SCT030CB BKN090 BKN220 26/08 A3012 RMK 8/363 CB N,MMLO,2023-05-27T00:40:00Z,21.0,-101.47,26.0,8.0,30,9,,10.0,30.121063,,,,,,,,,,,SCT,3000,BKN,9000,BKN,22000,,,VFR,,,,,,,,,,,,METAR,1805.0
MMHO 270040Z 26007KT 10SM BKN090 OVC200 32/06 A2982 RMK 8/037 BINOVC ISOL SC HZY,MMHO,2023-05-27T00:40:00Z,29.08,-111.05,32.0,6.0,260,7,,10.0,29.819881,,,,,,,,,,,BKN,9000,OVC,20000,,,,,VFR,,,,,,,,,,,,METAR,186.0
MMCV 270040Z 08013KT 10SM SCT020CB BKN120 29/18 A2990 RMK 8/360,MMCV,2023-05-27T00:40:00Z,23.72,-98.97,29.0,18.0,80,13,,10.0,29.899607,,,,,,,,,,,SCT,2000,BKN,12000,,,,,VFR,,,,,,,,,,,,METAR,230.0
MMCU 270040Z 01009KT 10SM SCT030CB BKN080 BKN200 33/04 A2994 RMK 8/363,MMCU,2023-05-27T00:40:00Z,28.7,-105.97,33.0,4.0,10,9,,10.0,29.940945,,,,,,,,,,,SCT,3000,BKN,8000,BKN,20000,,,VFR,,,,,,,,,,,,METAR,1349.0
MMCE 270040Z 01005KT 7SM FEW015 28/22 A2986 RMK 8/100 HZY,MMCE,2023-05-27T00:40:00Z,18.65,-91.8,28.0,22.0,10,5,,7.0,29.861221,,,,,,,,,,,FEW,1500,,,,,,,VFR,,,,,,,,,,,,METAR,5.0
MMBT 270040Z 35010KT 7SM FEW020 SCT120 BKN200 28/24 A2985 RMK 8/538,MMBT,2023-05-27T00:40:00Z,15.77,-96.27,28.0,24.0,350,10,,7.0,29.84941,,,,,,,,,,,FEW,2000,SCT,12000,BKN,20000,,,VFR,,,,,,,,,,,,METAR,137.0
MMAN 270040Z 10008KT 12SM FEW035 SCT080 BKN200 30/17 A2994 RMK 8/538,MMAN,2023-05-27T00:40:00Z,25.87,-100.23,30.0,17.0,100,8,,12.0,29.940945,,,,,,,,,,,FEW,3500,SCT,8000,BKN,20000,,,VFR,,,,,,,,,,,,METAR,447.0
KPGD 270040Z 08008KT 3SM +RA BR BKN041 OVC070 21/21 A2988 RMK AO2 RAB00 P0027 T02110206,KPGD,2023-05-27T00:40:00Z,26.92,-82.0,21.1,20.6,80,8,,3.0,29.878937,,,,TRUE,,,,,,+RA BR,BKN,4100,OVC,7000,,,,,MVFR,,,,,,0.27,,,,,,METAR,7.0
RKTI 270035Z 22003KT 9999 -RA BKN040 BKN120 20/16 A3011 RMK CIG040,RKTI,2023-05-27T00:35:00Z,37.02,127.88,20.0,16.0,220,3,,6.21,30.109253,,,,,,,,,,-RA,BKN,4000,BKN,12000,,,,,VFR,,,,,,,,,,,,SPECI,55.0
KDUB 270033Z AUTO 28016G22KT 10SM CLR 12/01 A3001 RMK AO2,KDUB,2023-05-27T00:33:00Z,43.55,-109.68,12.0,1.0,280,16,22,10.0,30.008858,,,TRUE,TRUE,,,,,,,CLR,,,,,,,,VFR,,,,,,,,,,,,METAR,2205.0
YPPH 270030Z 03004KT CAVOK 09/05 Q1029,YPPH,2023-05-27T00:30:00Z,-31.93,115.98,9.0,5.0,30,4,,6.21,30.383858,,,,,,,,,,,CAVOK,,,,,,,,VFR,,,,,,,,,,,,METAR,16.0
YPAD 270030Z 29010KT 9999 FEW014 15/10 Q1021,YPAD,2023-05-27T00:30:00Z,-34.95,138.52,15.0,10.0,290,10,,6.21,30.147638,,,,,,,,,,,FEW,1400,,,,,,,VFR,,,,,,,,,,,,METAR,2.0
VOGO 270030Z 01007KT 6000 FEW020 28/25 Q1010 NOSIG,VOGO,2023-05-27T00:30:00Z,15.38,73.83,28.0,25.0,10,7,,3.73,29.822834,,,,,,TRUE,,,,,FEW,2000,,,,,,,MVFR,,,,,,,,,,,,METAR,56.0
LYPG 270030Z 36010KT 330V030 CAVOK 20/08 Q1014 NOSIG,LYPG,2023-05-27T00:30:00Z,42.37,19.25,20.0,8.0,360,10,,6.21,29.940945,,,,,,TRUE,,,,,CAVOK,,,,,,,,VFR,,,,,,,,,,,,METAR,32.0
GQNO 270030Z 02015KT CAVOK 29/18 Q1014 NOSIG,GQNO,2023-05-27T00:30:00Z,18.3,-15.97,29.0,18.0,20,15,,6.21,29.940945,,,,,,TRUE,,,,,CAVOK,,,,,,,,VFR,,,,,,,,,,,,METAR,1.0
RODN 270027Z 07007G14KT 10SM BKN007 OVC013 24/22 A2995 RMK A02A SLPNO ALSTG ESTMD RVRNO FZRANO TSNO $,RODN,2023-05-27T00:27:00Z,26.35,127.77,24.0,22.0,70,7,14,10.0,29.949802,,,,TRUE,TRUE,,TRUE,TRUE,,,BKN,700,OVC,1300,,,,,IFR,,,,,,,,,,,,SPECI,38.0
RKPM 270025Z 11006G017KT 1600 BR OVC005 20/19 A3010 RMK CIG005,RKPM,2023-05-27T00:25:00Z,33.28,126.15,20.0,19.0,110,6,17,0.99,30.100393,,,,,,,,,,BR,OVC,500,,,,,,,LIFR,,,,,,,,,,,,SPECI,53.0
PAAK 270025Z AUTO 29011G19KT 10SM SCT012 BKN019 OVC025 05/03 A2963 RMK AO2 RAE2357,PAAK,2023-05-27T00:25:00Z,52.22,-174.2,5.0,3.0,290,11,19,10.0,29.630905,,,TRUE,TRUE,,,,,,,SCT,1200,BKN,1900,OVC,2500,,,MVFR,,,,,,,,,,,,SPECI,11.0
KTHM 270023Z AUTO 10004KT 10SM 15/12 A2998 RMK Thompson Falls ,KTHM,2023-05-27T00:23:00Z,47.57,-115.28,15.0,12.0,100,4,,10.0,29.97933,,,TRUE,,,,,,,,,,,,,,,,,,,,,,,,,,,,METAR,751.0
KS34 270023Z AUTO 00000KT 10SM 18/M40 A2994 RMK Plains ,KS34,2023-05-27T00:23:00Z,47.47,-114.9,18.0,-40.0,0,0,,10.0,29.940945,,,TRUE,,,,,,,,,,,,,,,,,,,,,,,,,,,,METAR,750.0
RKSO 270022Z 11007KT 6SM -RA BR FEW029 OVC036 19/19 A3009 RMK AO2A SLP193 $,RKSO,2023-05-27T00:22:00Z,37.08,127.02,19.0,19.0,110,7,,6.0,30.088583,1019.3,,,TRUE,TRUE,,,,,-RA BR,FEW,2900,OVC,3600,,,,,VFR,,,,,,,,,,,,METAR,10.0
PASL 270022Z AUTO 15007KT 130V210 10SM -RA BKN026 OVC035 09/04 A2946 RMK AO2 P0000,PASL,2023-05-27T00:22:00Z,61.68,-157.15,9.0,4.0,150,7,,10.0,29.459646,,,TRUE,TRUE,,,,,,-RA,BKN,2600,OVC,3500,,,,,MVFR,,,,,,0.005,,,,,,SPECI,64.0
LTAG 270020Z 01004KT 9999 FEW017 15/14 Q1010 NOSIG RMK 2ST017,LTAG,2023-05-27T00:20:00Z,37.0,35.42,15.0,14.0,10,4,,6.21,29.822834,,,,,,TRUE,,,,,FEW,1700,,,,,,,VFR,,,,,,,,,,,,SPECI,62.0
ETWM 270020Z AUTO 02002KT //// // ////// 06/05 Q1030 ///,ETWM,2023-05-27T00:20:00Z,52.72,7.33,6.0,5.0,20,2,,,30.413385,,,TRUE,,,,,,,,,,,,,,,,,,,,,,,,,,,,SPECI,18.0
ETSN 270020Z 01004KT 9999 12/06 Q1024 BLU+,ETSN,2023-05-27T00:20:00Z,48.72,11.22,12.0,6.0,10,4,,6.21,30.236221,,,,,,,,,,,,,,,,,,,,,,,,,,,,,,,METAR,378.0
ETSL 270020Z AUTO 02005KT 4700 // ////// 11/07 Q1024 ///,ETSL,2023-05-27T00:20:00Z,48.18,10.87,11.0,7.0,20,5,,2.92,30.236221,,,TRUE,,,,,,,,,,,,,,,,,,,,,,,,,,,,SPECI,548.0
ETSI 270020Z AUTO 08003KT 9999 // ////// 14/05 Q1024 ///,ETSI,2023-05-27T00:20:00Z,48.72,11.53,14.0,5.0,80,3,,6.21,30.236221,,,TRUE,,,,,,,,,,,,,,,,,,,,,,,,,,,,METAR,366.0
ETSH 270020Z 28001KT 9999 06/03 Q1028 BLU+,ETSH,2023-05-27T00:20:00Z,51.77,13.17,6.0,3.0,280,1,,6.21,30.35433,,,,,,,,,,,,,,,,,,,,,,,,,,,,,,,METAR,79.0
ETSB 270020Z AUTO 06009KT //// // ////// 10/03 Q1026 ///,ETSB,2023-05-27T00:20:00Z,50.17,7.07,10.0,3.0,60,9,,,30.295275,,,TRUE,,,,,,,,,,,,,,,,,,,,,,,,,,,,SPECI,477.0
ETNW 270020Z 34003KT 9999 07/06 Q1029 BLU+,ETNW,2023-05-27T00:20:00Z,52.45,9.42,7.0,6.0,340,3,,6.21,30.383858,,,,,,,,,,,,,,,,,,,,,,,,,,,,,,,METAR,57.0
ETNT 270020Z AUTO 36003KT //// // ////// 07/06 Q1030 ///,ETNT,2023-05-27T00:20:00Z,53.53,7.67,7.0,6.0,360,3,,,30.413385,,,TRUE,,,,,,,,,,,,,,,,,,,,,,,,,,,,SPECI,5.0
ETNS 270020Z AUTO 34005KT 9999 // ////// 07/05 Q1030 ///,ETNS,2023-05-27T00:20:00Z,54.47,9.52,7.0,5.0,340,5,,6.21,30.413385,,,TRUE,,,,,,,,,,,,,,,,,,,,,,,,,,,,SPECI,22.0
ETNN 270020Z AUTO 30001KT 9999 // ////// 08/05 Q1027 ///,ETNN,2023-05-27T00:20:00Z,50.82,6.67,8.0,5.0,300,1,,6.21,30.324802,,,TRUE,,,,,,,,,,,,,,,,,,,,,,,,,,,,SPECI,108.0
ETNL 270020Z 29003KT 9999 07/06 Q1028 BLU+,ETNL,2023-05-27T00:20:00Z,53.92,12.27,7.0,6.0,290,3,,6.21,30.35433,,,,,,,,,,,,,,,,,,,,,,,,,,,,,,,METAR,40.0
ETNH 270020Z AUTO 32002KT 4700 // ////// 04/03 Q1030 ///,ETNH,2023-05-27T00:20:00Z,54.32,9.55,4.0,3.0,320,2,,2.92,30.413385,,,TRUE,,,,,,,,,,,,,,,,,,,,,,,,,,,,SPECI,6.0
ETMN 270020Z 03005KT 9999 FEW014 08/06 Q1030 BLU+,ETMN,2023-05-27T00:20:00Z,53.77,8.67,8.0,6.0,30,5,,6.21,30.413385,,,,,,,,,,,FEW,1400,,,,,,,VFR,,,,,,,,,,,,METAR,23.0
ETHS 270020Z AUTO 06003KT 5000 // ////// 05/04 Q1029 ///,ETHS,2023-05-27T00:20:00Z,52.92,10.18,5.0,4.0,60,3,,3.11,30.383858,,,TRUE,,,,,,,,,,,,,,,,,,,,,,,,,,,,SPECI,71.0
ETHN 270020Z 06009KT 9999 09/05 Q1025 BLU+,ETHN,2023-05-27T00:20:00Z,49.38,9.97,9.0,5.0,60,9,,6.21,30.265747,,,,,,,,,,,,,,,,,,,,,,,,,,,,,,,METAR,466.0
ETHL 270020Z AUTO 03004KT 9999 // ////// 12/07 Q1023 ///,ETHL,2023-05-27T00:20:00Z,48.22,9.92,12.0,7.0,30,4,,6.21,30.206694,,,TRUE,,,,,,,,,,,,,,,,,,,,,,,,,,,,SPECI,536.0
ETHF 270020Z 31004KT 9999 08/05 Q1028 BLU+,ETHF,2023-05-27T00:20:00Z,51.12,9.28,8.0,5.0,310,4,,6.21,30.35433,,,,,,,,,,,,,,,,,,,,,,,,,,,,,,,METAR,171.0
ETHC 270020Z AUTO VRB01KT 0550 // ////// 07/06 Q1029 ///,ETHC,2023-05-27T00:20:00Z,52.6,10.02,7.0,6.0,0,1,,0.34,30.383858,,,TRUE,,,,,,,,,,,,,,,,,,,,,,,,,,,,SPECI,35.0
ETHB 270020Z 00000KT 9999 06/05 Q1029 BLU+,ETHB,2023-05-27T00:20:00Z,52.27,9.07,6.0,5.0,0,0,,6.21,30.383858,,,,,,,,,,,,,,,,,,,,,,,,,,,,,,,METAR,69.0
ETHA 270020Z AUTO 05006KT 9999 // ////// 12/08 Q1023 ///,ETHA,2023-05-27T00:20:00Z,47.83,10.87,12.0,8.0,50,6,,6.21,30.206694,,,TRUE,,,,,,,,,,,,,,,,,,,,,,,,,,,,SPECI,738.0
ETGG 270020Z AUTO 32005KT 9999 // ////// 08/06 Q1030 ///,ETGG,2023-05-27T00:20:00Z,54.83,9.5,8.0,6.0,320,5,,6.21,30.413385,,,TRUE,,,,,,,,,,,,,,,,,,,,,,,,,,,,SPECI,33.0
ENOA 270020Z 22027KT 3000 -RA BR OVC005 08/08 Q1025 W///S4,ENOA,2023-05-27T00:20:00Z,60.5,2.83,8.0,8.0,220,27,,1.86,30.265747,,,,,,,,,,-RA BR,OVC,500,,,,,,,IFR,,,,,,,,,,,,SPECI,5.0
RKTP 270019Z 09005KT 4800 -RA BR BKN030 OVC060 20/19 A3008 RMK CIG030,RKTP,2023-05-27T00:19:00Z,36.7,126.48,20.0,19.0,90,5,,2.98,30.079725,,,,,,,,,,-RA BR,BKN,3000,OVC,6000,,,,,IFR,,,,,,,,,,,,SPECI,13.0
LHPA 270015Z 35004KT CAVOK 14/11 Q1021 NOSIG RMK BLU,LHPA,2023-05-27T00:15:00Z,47.35,17.5,14.0,11.0,350,4,,6.21,30.147638,,,,,,TRUE,,,,,CAVOK,,,,,,,,VFR,,,,,,,,,,,,METAR,143.0
KTFP 270015Z AUTO 14008KT 10SM CLR 27/21 A2993 RMK AO2 T02720211,KTFP,2023-05-27T00:15:00Z,27.92,-97.22,27.2,21.1,140,8,,10.0,29.929134,,,TRUE,TRUE,,,,,,,CLR,,,,,,,,VFR,,,,,,,,,,,,METAR,5.0
KMBO 270015Z AUTO 00000KT 4SM HZ CLR 25/17 A2998 RMK AO2,KMBO,2023-05-27T00:15:00Z,32.43,-90.1,25.0,17.0,0,0,,4.0,29.97933,,,TRUE,TRUE,,,,,,HZ,CLR,,,,,,,,MVFR,,,,,,,,,,,,METAR,98.0
RKSP 270011Z 10011G021KT 0800 -RA FG VV001 15/15 A3006 RMK CIG001,RKSP,2023-05-27T00:11:00Z,37.97,124.67,15.0,15.0,100,11,21,0.5,30.059055,,,,,,,,,,-RA FG,OVX,0,,,,,,,LIFR,,,,,,,,,,,100,SPECI,171.0
RJAK 270011Z 18004KT 130V270 9999 FEW025 BKN250 22/14 Q1024 RMK 2CU025 6CI250 A3024,RJAK,2023-05-27T00:11:00Z,36.03,140.18,22.0,14.0,180,4,,6.21,30.236221,,,,,,,,,,,FEW,2500,BKN,25000,,,,,VFR,,,,,,,,,,,,SPECI,20.0
KOWP 270010Z AUTO 06005KT 10SM SCT075 27/16 A3007 RMK AO2 T02670157,KOWP,2023-05-27T00:10:00Z,36.18,-96.15,26.7,15.7,60,5,,10.0,30.070866,,,TRUE,TRUE,,,,,,,SCT,7500,,,,,,,VFR,,,,,,,,,,,,SPECI,267.0
