No errors
No warnings
145 ms
data source=metars
5081 results
raw_text,station_id,observation_time,latitude,longitude,temp_c,dewpoint_c,wind_dir_degrees,wind_speed_kt,wind_gust_kt,visibility_statute_mi,altim_in_hg,sea_level_pressure_mb,corrected,auto,auto_station,maintenance_indicator_on,no_signal,lightning_sensor_off,freezing_rain_sensor_off,present_weather_sensor_off,wx_string,sky_cover,cloud_base_ft_agl,sky_cover,cloud_base_ft_agl,sky_cover,cloud_base_ft_agl,sky_cover,cloud_base_ft_agl,flight_category,three_hr_pressure_tendency_mb,maxT_c,minT_c,maxT24hr_c,minT24hr_c,precip_in,pcp3hr_in,pcp6hr_in,pcp24hr_in,snow_in,vert_vis_ft,metar_type,elevation_m
KSUA 021747Z 05012KT 7SM VCSH SCT009 BKN020 28/22 A2978,KSUA,2023-06-02T17:47:00Z,27.18,-80.22,28.0,22.0,50,12,,7.0,29.778543,,,,,,,,,,VCSH,SCT,900,BKN,2000,,,,,MVFR,,,,,,,,,,,,METAR,4.0
KBAK 021747Z 05014G18KT 10SM CLR 31/03 A3002,KBAK,2023-06-02T17:47:00Z,39.27,-85.9,31.0,3.0,50,14,18,10.0,30.02067,,,,,,,,,,,CLR,,,,,,,,VFR,,,,,,,,,,,,METAR,199.0
PACM 021745Z AUTO 13005KT BKN006 OVC010 02/02 A2987 RMK AO2 CIG 005V010 PWINO FZRANO $,PACM,2023-06-02T17:45:00Z,61.85,-165.57,2.0,2.0,130,5,,,29.870079,,,TRUE,TRUE,TRUE,,,TRUE,TRUE,,BKN,600,OVC,1000,,,,,,,,,,,,,,,,,SPECI,3.0
LMML 021745Z 25005KT 210V300 9999 FEW016 21/17 Q1014 NOSIG,LMML,2023-06-02T17:45:00Z,35.85,14.47,21.0,17.0,250,5,,6.21,29.940945,,,,,,TRUE,,,,,FEW,1600,,,,,,,VFR,,,,,,,,,,,,METAR,78.0
KUES 021745Z 07008KT 10SM CLR 29/13 A3010,KUES,2023-06-02T17:45:00Z,43.05,-88.25,29.0,13.0,70,8,,10.0,30.100393,,,,,,,,,,,CLR,,,,,,,,VFR,,,,,,,,,,,,METAR,273.0
KTZR 021745Z 31003KT 10SM CLR 31/09 A3002,KTZR,2023-06-02T17:45:00Z,39.9,-83.13,31.0,9.0,310,3,,10.0,30.02067,,,,,,,,,,,CLR,,,,,,,,VFR,,,,,,,,,,,,METAR,275.0
KSWF 021745Z 07010G15KT 10SM SKC 33/15 A2989,KSWF,2023-06-02T17:45:00Z,41.5,-74.08,33.0,15.0,70,10,15,10.0,29.890747,,,,,,,,,,,SKC,,,,,,,,VFR,,,,,,,,,,,,METAR,139.0
KSAW 021745Z 05014KT 10SM FEW100 27/12 A3015,KSAW,2023-06-02T17:45:00Z,46.35,-87.4,27.0,12.0,50,14,,10.0,30.15059,,,,,,,,,,,FEW,10000,,,,,,,VFR,,,,,,,,,,,,METAR,359.0
KS71 021745Z AUTO 00000KT 1 3/4SM 15/15 A3005 ,KS71,2023-06-02T17:45:00Z,48.6,-109.25,15.0,15.0,0,0,,1.75,30.050198,,,TRUE,,,,,,,,,,,,,,,,,,,,,,,,,,,,METAR,736.0
KOUN 021745Z 16011KT 10SM SCT044 BKN050 29/18 A2994,KOUN,2023-06-02T17:45:00Z,35.25,-97.47,29.0,18.0,160,11,,10.0,29.940945,,,,,,,,,,,SCT,4400,BKN,5000,,,,,VFR,,,,,,,,,,,,METAR,359.0
KLOT 021745Z 04009KT 10SM CLR 32/08 A3006,KLOT,2023-06-02T17:45:00Z,41.6,-88.1,32.0,8.0,40,9,,10.0,30.059055,,,,,,,,,,,CLR,,,,,,,,VFR,,,,,,,,,,,,METAR,205.0
KHRF 021745Z AUTO 36005KT 10SM BKN048 OVC055 16/11 A3003 RMK AO2 Hamilton ,KHRF,2023-06-02T17:45:00Z,46.25,-114.13,16.0,11.0,360,5,,10.0,30.029528,,,TRUE,TRUE,,,,,,,BKN,4800,OVC,5500,,,,,VFR,,,,,,,,,,,,METAR,1112.0
KGYY 021745Z 36010KT 10SM CLR 27/16 A3008,KGYY,2023-06-02T17:45:00Z,41.62,-87.42,27.0,16.0,360,10,,10.0,30.079725,,,,,,,,,,,CLR,,,,,,,,VFR,,,,,,,,,,,,METAR,179.0
KGVW 021745Z AUTO 09006KT 10SM CLR 28/22 A2994 RMK A01,KGVW,2023-06-02T17:45:00Z,29.13,-94.55,28.0,22.0,90,6,,10.0,29.940945,,,TRUE,TRUE,,,,,,,CLR,,,,,,,,VFR,,,,,,,,,,,,METAR,37.0
KESN 021745Z 00000KT 10SM CLR 29/16 A2991,KESN,2023-06-02T17:45:00Z,38.8,-76.07,29.0,16.0,0,0,,10.0,29.911417,,,,,,,,,,,CLR,,,,,,,,VFR,,,,,,,,,,,,METAR,14.0
K3U3 021745Z AUTO 36008KT 9SM 11/09 A3011 ,K3U3,2023-06-02T17:45:00Z,46.15,-112.87,11.0,9.0,360,8,,9.0,30.109253,,,TRUE,,,,,,,,,,,,,,,,,,,,,,,,,,,,METAR,1534.0
K38S 021745Z AUTO 36009KT 4SM 12/12 A3014 ,K38S,2023-06-02T17:45:00Z,46.38,-112.77,12.0,12.0,360,9,,4.0,30.138779,,,TRUE,,,,,,,,,,,,,,,,,,,,,,,,,,,,METAR,1430.0
K1S3 021745Z AUTO 06008KT 10SM 22/16 A2986 ,K1S3,2023-06-02T17:45:00Z,46.27,-106.62,22.0,16.0,60,8,,10.0,29.861221,,,TRUE,,,,,,,,,,,,,,,,,,,,,,,,,,,,METAR,831.0
PAPG 021744Z 00000KT 10SM -RA BKN002 BKN039 OVC050 08/08 A3002 RMK AO2 P0001,PAPG,2023-06-02T17:44:00Z,56.82,-132.93,8.0,8.0,0,0,,10.0,30.02067,,,,TRUE,,,,,,-RA,BKN,200,BKN,3900,OVC,5000,,,LIFR,,,,,,0.01,,,,,,METAR,24.0
PABI 021744Z 30004KT 10SM -RA SCT009 BKN013 OVC018 03/01 A2988 RMK AO2 P0000 T00330006,PABI,2023-06-02T17:44:00Z,64.0,-145.72,3.3,0.6,300,4,,10.0,29.878937,,,,TRUE,,,,,,-RA,SCT,900,BKN,1300,OVC,1800,,,MVFR,,,,,,0.005,,,,,,SPECI,388.0
KGTF 021744Z 33005KT 1 3/4SM RA BR OVC008 11/11 A3009 RMK AO2 CIG 004V012 P0017 T01110111,KGTF,2023-06-02T17:44:00Z,47.47,-111.38,11.1,11.1,330,5,,1.75,30.088583,,,,TRUE,,,,,,RA BR,OVC,800,,,,,,,IFR,,,,,,0.17,,,,,,SPECI,1117.0
CYQM 021744Z 01015G24KT 4SM -RA BR OVC006 08/06 A3006 RMK ST8 SLP182,CYQM,2023-06-02T17:44:00Z,46.12,-64.67,8.0,6.0,10,15,24,4.0,30.059055,1018.2,,,,,,,,,-RA BR,OVC,600,,,,,,,IFR,,,,,,,,,,,,SPECI,67.0
KGBD 021743Z AUTO 26012KT 6SM +TSRA BR SCT024 BKN037 OVC050 16/16 A3002 RMK AO2 PK WND 26028/1657 LTG DSNT ALQDS P0071,KGBD,2023-06-02T17:43:00Z,38.35,-98.87,16.0,16.0,260,12,,6.0,30.02067,,,TRUE,TRUE,,,,,,+TSRA BR,SCT,2400,BKN,3700,OVC,5000,,,VFR,,,,,,0.71,,,,,,SPECI,573.0
KAFN 021743Z AUTO 19006KT 10SM VCTS -RA SCT075 OVC100 24/16 A2993 RMK AO2 LTG DSNT S RAB35 TSB1653E37 P0000 T02390161,KAFN,2023-06-02T17:43:00Z,42.8,-72.0,23.9,16.1,190,6,,10.0,29.929134,,,TRUE,TRUE,,,,,,VCTS -RA,SCT,7500,OVC,10000,,,,,VFR,,,,,,0.005,,,,,,METAR,308.0
CYDQ 021743Z AUTO 14013KT 100V180 9SM FEW240 20/04 A3004 RMK SLP177 DENSITY ALT 3200FT,CYDQ,2023-06-02T17:43:00Z,55.75,-120.18,20.0,4.0,140,13,,9.0,30.041338,1017.7,,TRUE,,,,,,,,FEW,24000,,,,,,,VFR,,,,,,,,,,,,SPECI,658.0
SMJP 021742Z 35006KT 9999 FEW018CB 30/23 Q1010 NOSIG,SMJP,2023-06-02T17:42:00Z,5.45,-55.18,30.0,23.0,350,6,,6.21,29.822834,,,,,,TRUE,,,,,FEW,1800,,,,,,,VFR,,,,,,,,,,,,SPECI,14.0
PADQ 021742Z COR 07005KT 10SM SCT014 09/06 A2997 RMK AO2 T00940061,PADQ,2023-06-02T17:42:00Z,57.75,-152.5,9.4,6.1,70,5,,10.0,29.970472,,TRUE,,TRUE,,,,,,,SCT,1400,,,,,,,VFR,,,,,,,,,,,,METAR,5.0
MMCV 021742Z 15008KT 7SM OVC020 30/21 A2988 RMK SLP/// 57007 918 8/5// HZY BINOVC,MMCV,2023-06-02T17:42:00Z,23.72,-98.97,30.0,21.0,150,8,,7.0,29.878937,,,,,,,,,,,OVC,2000,,,,,,,MVFR,-0.7,,,,,,,,,,,METAR,230.0
KI35 021742Z AUTO 09005KT 10SM CLR 29/14 A3000 RMK AO2,KI35,2023-06-02T17:42:00Z,36.87,-83.37,29.0,14.0,90,5,,10.0,30.0,,,TRUE,TRUE,,,,,,,CLR,,,,,,,,VFR,,,,,,,,,,,,METAR,467.0
KAIT 021742Z AUTO 17008G15KT 10SM CLR 28/18 A3007 RMK AO2,KAIT,2023-06-02T17:42:00Z,46.53,-93.67,28.0,18.0,170,8,15,10.0,30.070866,,,TRUE,TRUE,,,,,,,CLR,,,,,,,,VFR,,,,,,,,,,,,SPECI,367.0
CYMH 021742Z AUTO 01014G25KT 9SM -RA BKN016 OVC031 03/01 A3035 RMK SLP281,CYMH,2023-06-02T17:42:00Z,52.3,-55.82,3.0,1.0,10,14,25,9.0,30.351377,1028.1,,TRUE,,,,,,,-RA,BKN,1600,OVC,3100,,,,,MVFR,,,,,,,,,,,,SPECI,18.0
LETO 021741Z 10016KT 9999 VCTS -SHRA SCT060CB 17/12 Q1012 BECMG VRB15G25KT 3000 TSRA SCT030CB,LETO,2023-06-02T17:41:00Z,40.48,-3.47,17.0,12.0,100,16,,6.21,29.88189,,,,,,,,,,VCTS -SHRA,SCT,6000,,,,,,,VFR,,,,,,,,,,,,SPECI,598.0
KTOP 021741Z 23009G17KT 10SM -TSRA FEW047 SCT070 SCT085 27/19 A2998 RMK AO2 RAB38 TSB35 P0000 T02670194,KTOP,2023-06-02T17:41:00Z,39.07,-95.63,26.7,19.4,230,9,17,10.0,29.97933,,,,TRUE,,,,,,-TSRA,FEW,4700,SCT,7000,SCT,8500,,,VFR,,,,,,0.005,,,,,,SPECI,268.0
KLCI 021741Z AUTO 01004KT 10SM FEW002 29/14 A2989 RMK AO2,KLCI,2023-06-02T17:41:00Z,43.57,-71.42,29.0,14.0,10,4,,10.0,29.890747,,,TRUE,TRUE,,,,,,,FEW,200,,,,,,,VFR,,,,,,,,,,,,SPECI,166.0
KFOE 021741Z AUTO 17007KT 10SM TS CLR 29/19 A2999 RMK AO2 TSB35 T02940194,KFOE,2023-06-02T17:41:00Z,38.93,-95.65,29.4,19.4,170,7,,10.0,29.991142,,,TRUE,TRUE,,,,,,TS,CLR,,,,,,,,VFR,,,,,,,,,,,,SPECI,315.0
KFIT 021741Z AUTO 08007KT 10SM VCTS CLR 34/13 A2987 RMK AO2 LTG DSNT W AND NW T03390133,KFIT,2023-06-02T17:41:00Z,42.55,-71.75,33.9,13.3,80,7,,10.0,29.870079,,,TRUE,TRUE,,,,,,VCTS,CLR,,,,,,,,VFR,,,,,,,,,,,,SPECI,102.0
KCAR 021741Z AUTO 05011G21KT 2 1/2SM +RA BR FEW043 BKN060 OVC070 14/12 A3002 RMK AO2 WSHFT 1725 RAB33 P0002 T01390117,KCAR,2023-06-02T17:41:00Z,46.87,-68.02,13.9,11.7,50,11,21,2.5,30.02067,,,TRUE,TRUE,,,,,,+RA BR,FEW,4300,BKN,6000,OVC,7000,,,IFR,,,,,,0.02,,,,,,SPECI,189.0
KBAF 021741Z 04009KT 10SM VCTS CLR 33/12 A2986 RMK AO2 LTG DSNT SW AND NW T03330117,KBAF,2023-06-02T17:41:00Z,42.17,-72.72,33.3,11.7,40,9,,10.0,29.861221,,,,TRUE,,,,,,VCTS,CLR,,,,,,,,VFR,,,,,,,,,,,,METAR,80.0
YWLM 021740Z AUTO 31005KT 0900 FG OVC001 10/10 Q1023 RF00.0////./,YWLM,2023-06-02T17:40:00Z,-32.8,151.83,10.0,10.0,310,5,,0.56,30.206694,,,TRUE,,,,,,,FG,OVC,100,,,,,,,LIFR,,,,,,,,,,,,SPECI,7.0
RJTY 021740Z AUTO 02007KT 6SM RA OVC031 19/19 A2947 RMK AO2 SLP980 $,RJTY,2023-06-02T17:40:00Z,35.75,139.33,19.0,19.0,20,7,,6.0,29.471457,998.0,,TRUE,TRUE,TRUE,,,,,RA,OVC,3100,,,,,,,VFR,,,,,,,,,,,,SPECI,136.0
PKWA 021740Z AUTO 10012KT 10SM SCT029 28/25 A2985 RMK AO2 T02750249 TSNO,PKWA,2023-06-02T17:40:00Z,8.72,167.72,27.5,24.9,100,12,,10.0,29.84941,,,TRUE,TRUE,,,TRUE,,,,SCT,2900,,,,,,,VFR,,,,,,,,,,,,METAR,6.0
PATQ 021740Z AUTO 30006KT 1/2SM SN FZFG BKN008 OVC015 M02/M03 A2970 RMK AO2 CIG 007V013 P0000 FZRANO TSNO,PATQ,2023-06-02T17:40:00Z,70.47,-157.43,-2.0,-3.0,300,6,,0.5,29.698818,,,TRUE,TRUE,,,TRUE,TRUE,,SN FZFG,BKN,800,OVC,1500,,,,,LIFR,,,,,,0.005,,,,,,METAR,28.0
KTTS 021740Z AUTO 05013G18KT 10SM FEW020 BKN025 BKN031 BKN100 27/22 A2977 RMK AO2 CIG 024V031 CIG 022 RWY15/33 SLP085 $,KTTS,2023-06-02T17:40:00Z,28.58,-80.67,27.0,22.0,50,13,18,10.0,29.769686,1008.5,,TRUE,TRUE,TRUE,,,,,,FEW,2000,BKN,2500,BKN,3100,BKN,10000,MVFR,,,,,,,,,,,,SPECI,1.0
KS85 021740Z AUTO 07013KT 10SM 24/20 A2990 RMK A01 Culbertson ,KS85,2023-06-02T17:40:00Z,48.15,-104.5,24.0,20.0,70,13,,10.0,29.899607,,,TRUE,TRUE,,,,,,,,,,,,,,,,,,,,,,,,,,,METAR,596.0
KQFX 021740Z AUTO 10001KT 4800 FEW080 16/15 A2970 RMK A02 TSNO,KQFX,2023-06-02T17:40:00Z,,,16.0,15.0,100,1,,2.98,29.698818,,,TRUE,TRUE,,,TRUE,,,,FEW,8000,,,,,,,IFR,,,,,,,,,,,,METAR,
KQFW 021740Z AUTO 00000KT 8000 BKN070 14/14 A2956 RMK A02 TSNO,KQFW,2023-06-02T17:40:00Z,,,14.0,14.0,0,0,,4.97,29.56004,,,TRUE,TRUE,,,TRUE,,,,BKN,7000,,,,,,,MVFR,,,,,,,,,,,,METAR,
KQFV 021740Z AUTO 10001KT 9999 BKN075 14/13 A2977 RMK A02 TSNO,KQFV,2023-06-02T17:40:00Z,,,14.0,13.0,100,1,,6.21,29.769686,,,TRUE,TRUE,,,TRUE,,,,BKN,7500,,,,,,,VFR,,,,,,,,,,,,METAR,
KQFU 021740Z AUTO 27001KT 9999 CLR 16/16 A2977 RMK A02 TSNO,KQFU,2023-06-02T17:40:00Z,,,16.0,16.0,270,1,,6.21,29.769686,,,TRUE,TRUE,,,TRUE,,,,CLR,,,,,,,,VFR,,,,,,,,,,,,METAR,
KQFT 021740Z AUTO 12001KT 3200 BR SCT070 17/15 A2970 RMK A02 TSNO,KQFT,2023-06-02T17:40:00Z,,,17.0,15.0,120,1,,1.99,29.698818,,,TRUE,TRUE,,,TRUE,,,BR,SCT,7000,,,,,,,IFR,,,,,,,,,,,,METAR,
KQFB 021740Z AUTO 14001KT 9999 CLR 17/14 A2975 RMK A02 TSNO,KQFB,2023-06-02T17:40:00Z,,,17.0,14.0,140,1,,6.21,29.749016,,,TRUE,TRUE,,,TRUE,,,,CLR,,,,,,,,VFR,,,,,,,,,,,,METAR,
KQEY 021740Z AUTO 04001KT 6000 CLR 17/16 A2944 RMK A02 TSNO,KQEY,2023-06-02T17:40:00Z,,,17.0,16.0,40,1,,3.73,29.438976,,,TRUE,TRUE,,,TRUE,,,,CLR,,,,,,,,MVFR,,,,,,,,,,,,METAR,
KQEX 021740Z AUTO 34003KT 9999 CLR 22/14 / RMK A02 TSNO,KQEX,2023-06-02T17:40:00Z,,,22.0,14.0,340,3,,6.21,,,,TRUE,TRUE,,,TRUE,,,,CLR,,,,,,,,VFR,,,,,,,,,,,,METAR,
KQEW 021740Z AUTO 21002KT 9999 BKN048 19/15 A2970 RMK A02 TSNO,KQEW,2023-06-02T17:40:00Z,,,19.0,15.0,210,2,,6.21,29.698818,,,TRUE,TRUE,,,TRUE,,,,BKN,4800,,,,,,,VFR,,,,,,,,,,,,METAR,
KQEV 021740Z AUTO 24001KT 4800 CLR 16/15 A2969 RMK A02 TSNO,KQEV,2023-06-02T17:40:00Z,,,16.0,15.0,240,1,,2.98,29.68996,,,TRUE,TRUE,,,TRUE,,,,CLR,,,,,,,,IFR,,,,,,,,,,,,METAR,
KQEQ 021740Z AUTO 35002KT 9999 CLR 19/19 / RMK A02 TSNO,KQEQ,2023-06-02T17:40:00Z,,,19.0,19.0,350,2,,6.21,,,,TRUE,TRUE,,,TRUE,,,,CLR,,,,,,,,VFR,,,,,,,,,,,,METAR,
KQEP 021740Z AUTO 28001KT 6000 FEW065 17/16 A2974 RMK A02 TSNO,KQEP,2023-06-02T17:40:00Z,,,17.0,16.0,280,1,,3.73,29.740158,,,TRUE,TRUE,,,TRUE,,,,FEW,6500,,,,,,,MVFR,,,,,,,,,,,,METAR,
KQEN 021740Z AUTO 31002KT 9999 SCT049 SCT075 12/09 A2977 RMK A02 TSNO,KQEN,2023-06-02T17:40:00Z,,,12.0,9.0,310,2,,6.21,29.769686,,,TRUE,TRUE,,,TRUE,,,,SCT,4900,SCT,7500,,,,,VFR,,,,,,,,,,,,METAR,
KQEJ 021740Z AUTO 18001KT 9999 SCT075 SCT085 16/14 A2971 RMK A02 TSNO,KQEJ,2023-06-02T17:40:00Z,,,16.0,14.0,180,1,,6.21,29.71063,,,TRUE,TRUE,,,TRUE,,,,SCT,7500,SCT,8500,,,,,VFR,,,,,,,,,,,,METAR,
KQEI 021740Z AUTO 13001KT 9999 BKN070 15/14 A2972 RMK A02 TSNO,KQEI,2023-06-02T17:40:00Z,,,15.0,14.0,130,1,,6.21,29.719488,,,TRUE,TRUE,,,TRUE,,,,BKN,7000,,,,,,,VFR,,,,,,,,,,,,METAR,
KMTK 021740Z AUTO 05011G16KT 10SM CLR 27/20 A2988 RMK A01,KMTK,2023-06-02T17:40:00Z,,,27.0,20.0,50,11,16,10.0,29.878937,,,TRUE,TRUE,,,,,,,CLR,,,,,,,,VFR,,,,,,,,,,,,METAR,
KJYL 021740Z AUTO 07007KT 10SM SCT039 SCT050 SCT055 28/17 A2989 RMK AO2 T02790171,KJYL,2023-06-02T17:40:00Z,32.65,-81.6,27.9,17.1,70,7,,10.0,29.890747,,,TRUE,TRUE,,,,,,,SCT,3900,SCT,5000,SCT,5500,,,VFR,,,,,,,,,,,,SPECI,54.0
KIKT 021740Z AUTO 03016G21KT 10SM CLR 25/20 A2984 RMK A01,KIKT,2023-06-02T17:40:00Z,28.52,-88.28,25.0,20.0,30,16,21,10.0,29.840551,,,TRUE,TRUE,,,,,,,CLR,,,,,,,,VFR,,,,,,,,,,,,SPECI,36.0
KIER 021740Z AUTO 07006KT 10SM SCT044 32/19 A2994 RMK AO2 T03190191,KIER,2023-06-02T17:40:00Z,31.73,-93.1,31.9,19.1,70,6,,10.0,29.940945,,,TRUE,TRUE,,,,,,,SCT,4400,,,,,,,VFR,,,,,,,,,,,,SPECI,35.0
KDSF 021740Z AUTO 02019G24KT 10SM FEW026 A2984 RMK A01,KDSF,2023-06-02T17:40:00Z,28.35,-88.27,,,20,19,24,10.0,29.840551,,,TRUE,TRUE,,,,,,,FEW,2600,,,,,,,VFR,,,,,,,,,,,,SPECI,40.0
KCII 021740Z AUTO 35010G16KT 10SM 13/10 A3011 RMK A01 ,KCII,2023-06-02T17:40:00Z,47.83,-112.17,13.0,10.0,350,10,16,10.0,30.109253,,,TRUE,TRUE,,,,,,,,,,,,,,,,,,,,,,,,,,,METAR,1202.0
KATP 021740Z AUTO 02016G23KT 5SM HZ FEW023 FEW030 26/21 A2986 RMK A01,KATP,2023-06-02T17:40:00Z,27.2,-90.03,26.0,21.0,20,16,23,5.0,29.861221,,,TRUE,TRUE,,,,,,HZ,FEW,2300,FEW,3000,,,,,MVFR,,,,,,,,,,,,METAR,50.0
K6S8 021740Z AUTO 31014G19KT 4SM BR 14/14 A2995 RMK A01 Laurel,K6S8,2023-06-02T17:40:00Z,45.7,-108.77,14.0,14.0,310,14,19,4.0,29.949802,,,TRUE,TRUE,,,,,,BR,,,,,,,,,,,,,,,,,,,,,SPECI,1072.0
K4U6 021740Z AUTO 06013KT 10SM 23/17 A2988 RMK A01 Circle ,K4U6,2023-06-02T17:40:00Z,47.42,-105.57,23.0,17.0,60,13,,10.0,29.878937,,,TRUE,TRUE,,,,,,,,,,,,,,,,,,,,,,,,,,,METAR,739.0
DAOR 021740Z 21010KT 5000 SCT033 33/// Q1005,DAOR,2023-06-02T17:40:00Z,31.65,-2.27,,,210,10,,3.11,29.675198,,,,,,,,,,,SCT,3300,,,,,,,MVFR,,,,,,,,,,,,SPECI,809.0
CYBU 021740Z AUTO VRB03KT 9SM SCT020 22/17 A2996 RMK SLP152 DENSITY ALT 2300FT,CYBU,2023-06-02T17:40:00Z,53.32,-104.0,22.0,17.0,0,3,,9.0,29.958662,1015.2,,TRUE,,,,,,,,SCT,2000,,,,,,,VFR,,,,,,,,,,,,SPECI,369.0
CYAY 021740Z AUTO 01024G31KT 9SM -RA BKN009 OVC045 02/01 A3028 RMK PCPN 1.0MM PAST HR SLP257,CYAY,2023-06-02T17:40:00Z,51.38,-56.07,2.0,1.0,10,24,31,9.0,30.280512,1025.7,,TRUE,,,,,,,-RA,BKN,900,OVC,4500,,,,,IFR,,,,,,,,,,,,SPECI,23.0
CWWU 021740Z 04006KT 3SM BR OVC004 07/06 A3005 RMK FG1ST7 VIS VRB 2 - 4 SLP177,CWWU,2023-06-02T17:40:00Z,47.52,-52.98,7.0,6.0,40,6,,3.0,30.050198,1017.7,,,,,,,,,BR,OVC,400,,,,,,,LIFR,,,,,,,,,,,,SPECI,2.0
YBHM 021739Z AUTO 17013KT 6000 -SHRA SCT012 BKN023 BKN033 21/20 Q1018,YBHM,2023-06-02T17:39:00Z,-20.35,148.95,21.0,20.0,170,13,,3.73,30.059055,,,TRUE,,,,,,,-SHRA,SCT,1200,BKN,2300,BKN,3300,,,MVFR,,,,,,,,,,,,SPECI,4.0
PFNO 021739Z AUTO 25012KT 2 1/2SM -SN BR BKN015 OVC022 M01/M03 A2986 RMK AO2 VIS 1 3/4V4 P0000 FZRANO $,PFNO,2023-06-02T17:39:00Z,66.82,-161.02,-1.0,-3.0,250,12,,2.5,29.861221,,,TRUE,TRUE,TRUE,,,TRUE,,-SN BR,BKN,1500,OVC,2200,,,,,IFR,,,,,,0.005,,,,,,SPECI,14.0
PAPO 021739Z AUTO 22014KT 1 3/4SM -SN BR BKN009 OVC024 M02/M02 A2970 RMK AO2 CIG 007V013 FZRANO PNO $,PAPO,2023-06-02T17:39:00Z,68.35,-166.8,-2.0,-2.0,220,14,,1.75,29.698818,,,TRUE,TRUE,TRUE,,,TRUE,,-SN BR,BKN,900,OVC,2400,,,,,IFR,,,,,,,,,,,,METAR,4.0
PAIG 021739Z AUTO 20008G16KT 10SM SCT016 OVC110 06/03 A2996 RMK AO2 $,PAIG,2023-06-02T17:39:00Z,59.32,-155.9,6.0,3.0,200,8,16,10.0,29.958662,,,TRUE,TRUE,TRUE,,,,,,SCT,1600,OVC,11000,,,,,VFR,,,,,,,,,,,,METAR,24.0
KNJM 021739Z AUTO 04014KT 8SM FEW021 SCT026 OVC050 26/19 A2986 RMK AO2 T02560194,KNJM,2023-06-02T17:39:00Z,34.68,-77.02,25.6,19.4,40,14,,8.0,29.861221,,,TRUE,TRUE,,,,,,,FEW,2100,SCT,2600,OVC,5000,,,VFR,,,,,,,,,,,,SPECI,5.0
KMRT 021739Z AUTO 05010G14KT 10SM CLR 31/06 A3003 RMK AO1,KMRT,2023-06-02T17:39:00Z,40.22,-83.35,31.0,6.0,50,10,14,10.0,30.029528,,,TRUE,TRUE,,,,,,,CLR,,,,,,,,VFR,,,,,,,,,,,,SPECI,302.0
KFVE 021739Z AUTO 04009G18KT 4SM RA BR BKN007 BKN025 OVC033 12/11 A3006 RMK AO2 CIG 005V015 P0006 T01170106,KFVE,2023-06-02T17:39:00Z,47.28,-68.3,11.7,10.6,40,9,18,4.0,30.059055,,,TRUE,TRUE,,,,,,RA BR,BKN,700,BKN,2500,OVC,3300,,,IFR,,,,,,0.06,,,,,,SPECI,299.0
K2V6 021739Z AUTO 13008KT 10SM 22/05 A2994 RMK AO2,K2V6,2023-06-02T17:39:00Z,40.1,-102.72,22.0,5.0,130,8,,10.0,29.940945,,,TRUE,TRUE,,,,,,,,,,,,,,,,,,,,,,,,,,,METAR,1257.0
CYQX 021739Z 35014KT 1 3/4SM R13/4500VP6000FT/U -DZ BR OVC002 04/04 A3013 RMK FG3ST5 SLP209,CYQX,2023-06-02T17:39:00Z,48.95,-54.58,4.0,4.0,350,14,,1.75,30.129921,1020.9,,,,,,,,,-DZ BR,OVC,200,,,,,,,LIFR,,,,,,,,,,,,SPECI,144.0
CYHY 021739Z 33004KT 2SM FU BKN044 BKN050 18/01 A3013 RMK FU5FU2 FU ALQDS SLP211 DENSITY ALT 800FT,CYHY,2023-06-02T17:39:00Z,60.83,-115.77,18.0,1.0,330,4,,2.0,30.129921,1021.1,,,,,,,,,FU,BKN,4400,BKN,5000,,,,,IFR,,,,,,,,,,,,SPECI,159.0
YSRI 021738Z AUTO 00000KT 9999 // OVC008 11/11 Q1023 RF00/0/000/0,YSRI,2023-06-02T17:38:00Z,-33.6,150.77,11.0,11.0,0,0,,6.21,30.206694,,,TRUE,,,,,,,,OVC,800,,,,,,,IFR,,,,,,,,,,,,METAR,19.0
PASK 021738Z AUTO 25014G19KT 10SM FEW007 BKN028 M01/M03 A2987 RMK AO2 SNB02E14 P0000 FZRANO,PASK,2023-06-02T17:38:00Z,66.6,-160.0,-1.0,-3.0,250,14,19,10.0,29.870079,,,TRUE,TRUE,,,,TRUE,,,FEW,700,BKN,2800,,,,,MVFR,,,,,,0.005,,,,,,SPECI,3.0
KLWT 021738Z AUTO 35007KT 3SM -RA BR BKN004 OVC010 13/12 A3001 RMK AO2 CIG 002V007 P0007 T01280122,KLWT,2023-06-02T17:38:00Z,47.05,-109.47,12.8,12.2,350,7,,3.0,30.008858,,,TRUE,TRUE,,,,,,-RA BR,BKN,400,OVC,1000,,,,,LIFR,,,,,,0.07,,,,,,SPECI,1254.0
KHSI 021738Z AUTO 05008KT 10SM -RA SCT042 BKN065 OVC080 19/18 A3002 RMK AO2 LTG DSNT SW TSE03 P0024 T01890178,KHSI,2023-06-02T17:38:00Z,40.6,-98.43,18.9,17.8,50,8,,10.0,30.02067,,,TRUE,TRUE,,,,,,-RA,SCT,4200,BKN,6500,OVC,8000,,,VFR,,,,,,0.24,,,,,,METAR,592.0
KFNL 021738Z VRB04KT 10SM VCTS SCT047 BKN055 18/09 A2996 RMK AO2 LTG DSNT SW AND NW TSB32,KFNL,2023-06-02T17:38:00Z,40.45,-105.02,18.0,9.0,0,4,,10.0,29.958662,,,,TRUE,,,,,,VCTS,SCT,4700,BKN,5500,,,,,VFR,,,,,,,,,,,,SPECI,1529.0
CYPL 021738Z AUTO 12006KT 9SM -RA FEW043 BKN130 BKN150 20/16 A3019 RMK LTNG DIST S SLP229 DENSITY ALT 1900FT,CYPL,2023-06-02T17:38:00Z,51.43,-90.22,20.0,16.0,120,6,,9.0,30.188976,1022.9,,TRUE,,,,,,,-RA,FEW,4300,BKN,13000,BKN,15000,,,VFR,,,,,,,,,,,,SPECI,390.0
PATO 021737Z AUTO 14007KT 110V180 10SM -RA OVC030 06/04 A3000 RMK AO2 P0000 T00560039 TSNO,PATO,2023-06-02T17:37:00Z,60.78,-148.85,5.6,3.9,140,7,,10.0,30.0,,,TRUE,TRUE,,,TRUE,,,-RA,OVC,3000,,,,,,,MVFR,,,,,,0.005,,,,,,SPECI,47.0
PAMH 021737Z AUTO VRB03KT 10SM BKN014 BKN050 OVC060 03/01 A2986 RMK AO2 RAB07E19 P0000,PAMH,2023-06-02T17:37:00Z,63.9,-152.28,3.0,1.0,0,3,,10.0,29.861221,,,TRUE,TRUE,,,,,,,BKN,1400,BKN,5000,OVC,6000,,,MVFR,,,,,,0.005,,,,,,SPECI,200.0
KSFY 021737Z AUTO 27005KT 10SM CLR 31/16 A3005 RMK AO2,KSFY,2023-06-02T17:37:00Z,42.05,-90.12,31.0,16.0,270,5,,10.0,30.050198,,,TRUE,TRUE,,,,,,,CLR,,,,,,,,VFR,,,,,,,,,,,,SPECI,188.0
KPBI 021737Z 06009KT 10SM TS SCT025CB BKN039 BKN070 28/23 A2976 RMK AO2 RAB13E31 TSB37 OCNL LTGICCG NW-N TS NW-N MOV NE P0005 T02830233,KPBI,2023-06-02T17:37:00Z,26.68,-80.1,28.3,23.3,60,9,,10.0,29.760826,,,,TRUE,,,,,,TS,SCT,2500,BKN,3900,BKN,7000,,,VFR,,,,,,0.05,,,,,,SPECI,4.0
KJYG 021737Z AUTO 15009KT 10SM CLR 28/16 A3003 RMK AO2 TSNO,KJYG,2023-06-02T17:37:00Z,43.98,-94.55,28.0,16.0,150,9,,10.0,30.029528,,,TRUE,TRUE,,,TRUE,,,,CLR,,,,,,,,VFR,,,,,,,,,,,,SPECI,323.0
KHHW 021737Z AUTO 14003KT 10SM BKN045 BKN070 BKN090 29/18 A2995 RMK AO2,KHHW,2023-06-02T17:37:00Z,34.03,-95.55,29.0,18.0,140,3,,10.0,29.949802,,,TRUE,TRUE,,,,,,,BKN,4500,BKN,7000,BKN,9000,,,VFR,,,,,,,,,,,,METAR,178.0
KCQM 021737Z AUTO 18006KT 10SM SCT070 27/17 A3010 RMK A,KCQM,2023-06-02T17:37:00Z,47.82,-92.68,27.0,17.0,180,6,,10.0,30.100393,,,TRUE,,,,,,,,SCT,7000,,,,,,,VFR,,,,,,,,,,,,METAR,406.0
CZBF 021737Z AUTO 07009G18KT 9SM -RA BKN010 BKN014 BKN028 OVC035 08/07 A3017 RMK PCPN 0.8MM PAST HR SLP221,CZBF,2023-06-02T17:37:00Z,47.62,-65.75,8.0,7.0,70,9,18,9.0,30.171259,1022.1,,TRUE,,,,,,,-RA,BKN,1000,BKN,1400,BKN,2800,OVC,3500,MVFR,,,,,,,,,,,,SPECI,60.0
CYUA 021737Z AUTO 21017KT 160V220 ////SM FEW050 FEW055 ///// A////,CYUA,2023-06-02T17:37:00Z,68.92,-137.23,,,210,17,,,,,,TRUE,,,,,,,,FEW,5000,FEW,5500,,,,,,,,,,,,,,,,,SPECI,25.0
CYSF 021737Z AUTO 06004KT 030V090 9SM BKN009 BKN016 OVC039 16/15 A3001 RMK SLP172 DENSITY ALT 1100FT,CYSF,2023-06-02T17:37:00Z,59.25,-105.83,16.0,15.0,60,4,,9.0,30.008858,1017.2,,TRUE,,,,,,,,BKN,900,BKN,1600,OVC,3900,,,IFR,,,,,,,,,,,,SPECI,238.0
PAGN 021736Z AUTO 00000KT 10SM BKN027 OVC033 11/08 A3001 RMK AO2,PAGN,2023-06-02T17:36:00Z,57.5,-134.58,11.0,8.0,0,0,,10.0,30.008858,,,TRUE,TRUE,,,,,,,BKN,2700,OVC,3300,,,,,MVFR,,,,,,,,,,,,METAR,2.0
PABR 021736Z 08007KT 1/2SM R08/3000V4000FT SN FZFG VV015 M03/M04 A2971 RMK AO2 P0002 T10281044,PABR,2023-06-02T17:36:00Z,71.28,-156.78,-2.8,-4.4,80,7,,0.5,29.71063,,,,TRUE,,,,,,SN FZFG,OVX,0,,,,,,,LIFR,,,,,,0.02,,,,,1500,SPECI,6.0
KTMB 021736Z 16006KT 10SM VCTS -RA FEW055 BKN110 28/21 A2976 RMK AO2 LTG DSNT S-NW RAB35 P0000 T02830211,KTMB,2023-06-02T17:36:00Z,25.65,-80.43,28.3,21.1,160,6,,10.0,29.760826,,,,TRUE,,,,,,VCTS -RA,FEW,5500,BKN,11000,,,,,VFR,,,,,,0.005,,,,,,SPECI,2.0
KRWL 021736Z AUTO 24014KT 8SM -RA FEW007 BKN048 OVC075 11/09 A3003 RMK AO2 P0002 T01060089,KRWL,2023-06-02T17:36:00Z,41.8,-107.2,10.6,8.9,240,14,,8.0,30.029528,,,TRUE,TRUE,,,,,,-RA,FEW,700,BKN,4800,OVC,7500,,,VFR,,,,,,0.02,,,,,,SPECI,2066.0
KMZH 021736Z AUTO 08003KT 10SM CLR 25/16 A3011 RMK AO2,KMZH,2023-06-02T17:36:00Z,46.42,-92.8,25.0,16.0,80,3,,10.0,30.109253,,,TRUE,TRUE,,,,,,,CLR,,,,,,,,VFR,,,,,,,,,,,,METAR,331.0
KI69 021736Z AUTO 06007KT 10SM CLR 31/09 A3002 RMK AO1 T03100086,KI69,2023-06-02T17:36:00Z,39.08,-84.22,31.0,8.6,60,7,,10.0,30.02067,,,TRUE,TRUE,,,,,,,CLR,,,,,,,,VFR,,,,,,,,,,,,SPECI,238.0
KFGN 021736Z AUTO 17005KT 1SM HZ CLR 24/17 A3006 RMK AO2 VIS 1/4V3,KFGN,2023-06-02T17:36:00Z,49.32,-94.9,24.0,17.0,170,5,,1.0,30.059055,,,TRUE,TRUE,,,,,,HZ,CLR,,,,,,,,IFR,,,,,,,,,,,,SPECI,327.0
KCKC 021736Z AUTO 13005KT 10SM CLR 23/12 A3018 RMK AO2,KCKC,2023-06-02T17:36:00Z,47.83,-90.38,23.0,12.0,130,5,,10.0,30.180119,,,TRUE,TRUE,,,,,,,CLR,,,,,,,,VFR,,,,,,,,,,,,SPECI,544.0
KBBB 021736Z AUTO 20013KT 10SM CLR 28/17 A3002 RMK AO2,KBBB,2023-06-02T17:36:00Z,45.32,-95.65,28.0,17.0,200,13,,10.0,30.02067,,,TRUE,TRUE,,,,,,,CLR,,,,,,,,VFR,,,,,,,,,,,,SPECI,315.0
KAPS 021736Z AUTO 08007KT 10SM CLR 29/18 A2991 RMK AO2,KAPS,2023-06-02T17:36:00Z,30.08,-90.58,29.0,18.0,80,7,,10.0,29.911417,,,TRUE,TRUE,,,,,,,CLR,,,,,,,,VFR,,,,,,,,,,,,SPECI,1.0
KADC 021736Z AUTO 15012KT 10SM SCT040 SCT050 28/16 A3003 RMK AO2 TSNO,KADC,2023-06-02T17:36:00Z,46.45,-95.22,28.0,16.0,150,12,,10.0,30.029528,,,TRUE,TRUE,,,TRUE,,,,SCT,4000,SCT,5000,,,,,VFR,,,,,,,,,,,,SPECI,416.0
RJTR 021735Z AUTO 29006KT 2 1/2SM +RA BR OVC019 19/19 A2946 RMK AO2 VIS 2 1/4V3 SLP976 RVRNO $,RJTR,2023-06-02T17:35:00Z,35.52,139.4,19.0,19.0,290,6,,2.5,29.459646,997.6,,TRUE,TRUE,TRUE,,,,,+RA BR,OVC,1900,,,,,,,IFR,,,,,,,,,,,,METAR,106.0
RJOS 021735Z 34007KT 9999 FEW006 SCT025 BKN080 21/20 Q1000 RMK 1ST006 4CU025 7AC080 A2954,RJOS,2023-06-02T17:35:00Z,34.12,134.62,21.0,20.0,340,7,,6.21,29.52756,,,,,,,,,,,FEW,600,SCT,2500,BKN,8000,,,VFR,,,,,,,,,,,,METAR,3.0
PAKX 021735Z AUTO 25003KT 7SM SCT009 SCT017 OVC030 04/04 A2995 RMK AO2,PAKX,2023-06-02T17:35:00Z,60.2,-154.32,4.0,4.0,250,3,,7.0,29.949802,,,TRUE,TRUE,,,,,,,SCT,900,SCT,1700,OVC,3000,,,MVFR,,,,,,,,,,,,METAR,88.0
PAAD 021735Z 04010KT 3/4SM -SN BKN005 OVC014 M03/M03 A2963 RMK AO2 T10281035,PAAD,2023-06-02T17:35:00Z,70.13,-146.28,-2.8,-3.5,40,10,,0.75,29.630905,,,,TRUE,,,,,,-SN,BKN,500,OVC,1400,,,,,LIFR,,,,,,,,,,,,SPECI,8.0
NFNA 021735Z 13003KT 8000 -SHRA FEW013 BKN016 BKN042 24/24 Q1015,NFNA,2023-06-02T17:35:00Z,-18.05,178.57,24.0,24.0,130,3,,4.97,29.970472,,,,,,,,,,-SHRA,FEW,1300,BKN,1600,BKN,4200,,,MVFR,,,,,,,,,,,,SPECI,6.0
KZPH 021735Z AUTO 02006KT 10SM SCT036 SCT065 BKN100 30/21 A2978 RMK A02 T02970215,KZPH,2023-06-02T17:35:00Z,28.23,-82.15,29.7,21.5,20,6,,10.0,29.778543,,,TRUE,TRUE,,,,,,,SCT,3600,SCT,6500,BKN,10000,,,VFR,,,,,,,,,,,,METAR,26.0
KZER 021735Z AUTO 05005KT 10SM CLR 31/09 A3001 RMK AO2 LTG DSNT NE,KZER,2023-06-02T17:35:00Z,40.7,-76.37,31.0,9.0,50,5,,10.0,30.008858,,,TRUE,TRUE,,,,,,,CLR,,,,,,,,VFR,,,,,,,,,,,,METAR,518.0
KY70 021735Z AUTO 11005KT 10SM CLR 31/04 A3009 RMK AO2 T03130036,KY70,2023-06-02T17:35:00Z,42.93,-85.07,31.3,3.6,110,5,,10.0,30.088583,,,TRUE,TRUE,,,,,,,CLR,,,,,,,,VFR,,,,,,,,,,,,SPECI,247.0
KY63 021735Z AUTO 16013G17KT 10SM CLR 30/18 A3001 RMK AO2 T03030176,KY63,2023-06-02T17:35:00Z,45.98,-96.0,30.3,17.6,160,13,17,10.0,30.008858,,,TRUE,TRUE,,,,,,,CLR,,,,,,,,VFR,,,,,,,,,,,,METAR,367.0
KY49 021735Z AUTO 17010G15KT 10SM SCT034 SCT042 SCT065 27/18 A3005 RMK AO2 LTG DSNT S T02660181,KY49,2023-06-02T17:35:00Z,47.15,-94.65,26.6,18.1,170,10,15,10.0,30.050198,,,TRUE,TRUE,,,,,,,SCT,3400,SCT,4200,SCT,6500,,,VFR,,,,,,,,,,,,METAR,413.0
KY31 021735Z AUTO 15004KT 10SM CLR 31/09 A3010 RMK AO2 T03100092,KY31,2023-06-02T17:35:00Z,44.25,-84.18,31.0,9.2,150,4,,10.0,30.100393,,,TRUE,TRUE,,,,,,,CLR,,,,,,,,VFR,,,,,,,,,,,,SPECI,264.0
KY23 021735Z AUTO 08004KT 10SM SCT046 SCT055 31/21 A3009 RMK AO2 T03050206,KY23,2023-06-02T17:35:00Z,45.3,-91.63,30.5,20.6,80,4,,10.0,30.088583,,,TRUE,TRUE,,,,,,,SCT,4600,SCT,5500,,,,,VFR,,,,,,,,,,,,SPECI,322.0
KY19 021735Z AUTO 12015KT 10SM CLR 27/19 A2994 RMK AO2,KY19,2023-06-02T17:35:00Z,46.77,-100.9,27.0,19.0,120,15,,10.0,29.940945,,,TRUE,TRUE,,,,,,,CLR,,,,,,,,VFR,,,,,,,,,,,,SPECI,591.0
KXVG 021735Z AUTO 15014G17KT 10SM CLR 27/17 A3006 RMK AO2,KXVG,2023-06-02T17:35:00Z,46.98,-94.2,27.0,17.0,150,14,17,10.0,30.059055,,,TRUE,TRUE,,,,,,,CLR,,,,,,,,VFR,,,,,,,,,,,,METAR,407.0
KXSA 021735Z AUTO 04004KT 10SM CLR 27/11 A2994 RMK AO2 T02740111,KXSA,2023-06-02T17:35:00Z,37.87,-76.9,27.4,11.1,40,4,,10.0,29.940945,,,TRUE,TRUE,,,,,,,CLR,,,,,,,,VFR,,,,,,,,,,,,METAR,41.0
KXNX 021735Z AUTO VRB05KT 10SM CLR 31/15 A2999 RMK A01,KXNX,2023-06-02T17:35:00Z,36.38,-86.42,31.0,15.0,0,5,,10.0,29.991142,,,TRUE,TRUE,,,,,,,CLR,,,,,,,,VFR,,,,,,,,,,,,SPECI,178.0
KXLL 021735Z AUTO 36007G15KT 330V030 10SM CLR 33/11 A2991 RMK AO2 LTG DSNT N,KXLL,2023-06-02T17:35:00Z,40.57,-75.48,33.0,11.0,360,7,15,10.0,29.911417,,,TRUE,TRUE,,,,,,,CLR,,,,,,,,VFR,,,,,,,,,,,,SPECI,118.0
KX60 021735Z AUTO 05006KT 10SM SCT045 30/18 A2980 RMK AO2 T02970182,KX60,2023-06-02T17:35:00Z,29.35,-82.47,29.7,18.2,50,6,,10.0,29.799213,,,TRUE,TRUE,,,,,,,SCT,4500,,,,,,,VFR,,,,,,,,,,,,METAR,21.0
KX07 021735Z AUTO 06007KT 10SM CLR 30/22 A2977 RMK A01,KX07,2023-06-02T17:35:00Z,27.9,-81.62,30.0,22.0,60,7,,10.0,29.769686,,,TRUE,TRUE,,,,,,,CLR,,,,,,,,VFR,,,,,,,,,,,,METAR,36.0
KWYS 021735Z AUTO 23005KT 8SM SCT020 BKN050 11/11 A3005 RMK AO2,KWYS,2023-06-02T17:35:00Z,44.68,-111.12,11.0,11.0,230,5,,8.0,30.050198,,,TRUE,TRUE,,,,,,,SCT,2000,BKN,5000,,,,,VFR,,,,,,,,,,,,SPECI,2025.0
KWWR 021735Z AUTO 17014G17KT 10SM SCT035 SCT047 BKN050 27/18 A2996 RMK AO2 LTG DSNT N THRU E,KWWR,2023-06-02T17:35:00Z,36.45,-99.52,27.0,18.0,170,14,17,10.0,29.958662,,,TRUE,TRUE,,,,,,,SCT,3500,SCT,4700,BKN,5000,,,VFR,,,,,,,,,,,,SPECI,664.0
KWDR 021735Z AUTO 00000KT 10SM BKN042 BKN050 26/15 A2995 RMK AO2 LTG DSNT SE,KWDR,2023-06-02T17:35:00Z,33.98,-83.67,26.0,15.0,0,0,,10.0,29.949802,,,TRUE,TRUE,,,,,,,BKN,4200,BKN,5000,,,,,VFR,,,,,,,,,,,,METAR,280.0
KW99 021735Z AUTO 02005KT 10SM CLR 31/12 A2999 RMK AO2,KW99,2023-06-02T17:35:00Z,39.0,-79.15,31.0,12.0,20,5,,10.0,29.991142,,,TRUE,TRUE,,,,,,,CLR,,,,,,,,VFR,,,,,,,,,,,,METAR,288.0
KW96 021735Z AUTO 05006KT 10SM CLR 27/10 A2993 RMK AO1 T02710104,KW96,2023-06-02T17:35:00Z,37.5,-77.12,27.1,10.4,50,6,,10.0,29.929134,,,TRUE,TRUE,,,,,,,CLR,,,,,,,,VFR,,,,,,,,,,,,SPECI,35.0
KW81 021735Z AUTO 07005KT 10SM CLR 27/10 A2994 RMK AO1 T02670096,KW81,2023-06-02T17:35:00Z,37.18,-78.1,26.7,9.6,70,5,,10.0,29.940945,,,TRUE,TRUE,,,,,,,CLR,,,,,,,,VFR,,,,,,,,,,,,METAR,121.0
KW78 021735Z AUTO 08008KT 040V100 10SM CLR 28/13 A2994 RMK AO1 T02750130,KW78,2023-06-02T17:35:00Z,36.7,-78.85,27.5,13.0,80,8,,10.0,29.940945,,,TRUE,TRUE,,,,,,,CLR,,,,,,,,VFR,,,,,,,,,,,,METAR,120.0
KW75 021735Z AUTO 11004KT 10SM CLR 25/15 A2993 RMK AO1 T02460151,KW75,2023-06-02T17:35:00Z,37.6,-76.45,24.6,15.1,110,4,,10.0,29.929134,,,TRUE,TRUE,,,,,,,CLR,,,,,,,,VFR,,,,,,,,,,,,SPECI,8.0
KW63 021735Z AUTO 08005KT 10SM CLR 27/12 A2994 RMK AO1,KW63,2023-06-02T17:35:00Z,36.6,-78.55,27.0,12.0,80,5,,10.0,29.940945,,,TRUE,TRUE,,,,,,,CLR,,,,,,,,VFR,,,,,,,,,,,,SPECI,126.0
KW43 021735Z AUTO 00000KT 10SM SCT039 SCT050 SCT060 21/12 A2992 RMK AO2,KW43,2023-06-02T17:35:00Z,44.67,-104.57,21.0,12.0,0,0,,10.0,29.920275,,,TRUE,TRUE,,,,,,,SCT,3900,SCT,5000,SCT,6000,,,VFR,,,,,,,,,,,,SPECI,1292.0
KW31 021735Z AUTO 02006KT 10SM CLR M38/M45 A2993 RMK AO1 T13771450,KW31,2023-06-02T17:35:00Z,36.95,-78.18,-37.7,-45.0,20,6,,10.0,29.929134,,,TRUE,TRUE,,,,,,,CLR,,,,,,,,VFR,,,,,,,,,,,,SPECI,159.0
KW22 021735Z AUTO 00000G11KT 10SM CLR 31/10 A3003 RMK AO2,KW22,2023-06-02T17:35:00Z,39.0,-80.27,31.0,10.0,0,0,11,10.0,30.029528,,,TRUE,TRUE,,,,,,,CLR,,,,,,,,VFR,,,,,,,,,,,,SPECI,497.0
KW13 021735Z AUTO 08005KT 10SM CLR 28/12 A3000 RMK AO1 T02770118,KW13,2023-06-02T17:35:00Z,38.08,-78.95,27.7,11.8,80,5,,10.0,30.0,,,TRUE,TRUE,,,,,,,CLR,,,,,,,,VFR,,,,,,,,,,,,SPECI,440.0
KVYS 021735Z AUTO 09006KT 10SM CLR 33/13 A3004 RMK AO2 T03260126,KVYS,2023-06-02T17:35:00Z,41.35,-89.15,32.6,12.6,90,6,,10.0,30.041338,,,TRUE,TRUE,,,,,,,CLR,,,,,,,,VFR,,,,,,,,,,,,METAR,198.0
KVWU 021735Z AUTO 14003KT 10SM SCT035 SCT070 29/20 A3005 RMK AO2,KVWU,2023-06-02T17:35:00Z,48.15,-94.52,29.0,20.0,140,3,,10.0,30.050198,,,TRUE,TRUE,,,,,,,SCT,3500,SCT,7000,,,,,VFR,,,,,,,,,,,,METAR,359.0
KVTP 021735Z AUTO 25008G16KT 10SM SCT040 SCT047 SCT050 08/M13 A3022 RMK AO2,KVTP,2023-06-02T17:35:00Z,37.5,-105.17,8.0,-13.0,250,8,16,10.0,30.221457,,,TRUE,TRUE,,,,,,,SCT,4000,SCT,4700,SCT,5000,,,VFR,,,,,,,,,,,,SPECI,3086.0
KVTI 021735Z AUTO 07004KT 10SM BKN120 33/17 A3005 RMK AO2 T03280173,KVTI,2023-06-02T17:35:00Z,42.22,-92.02,32.8,17.3,70,4,,10.0,30.050198,,,TRUE,TRUE,,,,,,,BKN,12000,,,,,,,VFR,,,,,,,,,,,,SPECI,256.0
KVPC 021735Z AUTO VRB04KT 10SM FEW055 BKN065 BKN075 28/15 A2994 RMK AO2,KVPC,2023-06-02T17:35:00Z,34.1,-84.85,28.0,15.0,0,4,,10.0,29.940945,,,TRUE,TRUE,,,,,,,FEW,5500,BKN,6500,BKN,7500,,,VFR,,,,,,,,,,,,SPECI,234.0
KVOA 021735Z AUTO 05020KT 10SM CLR 25/19 A2986 RMK A01,KVOA,2023-06-02T17:35:00Z,29.23,-87.78,25.0,19.0,50,20,,10.0,29.861221,,,TRUE,TRUE,,,,,,,CLR,,,,,,,,VFR,,,,,,,,,,,,METAR,53.0
KVNW 021735Z AUTO 10011G17KT 10SM CLR 31/07 A3005 RMK AO2,KVNW,2023-06-02T17:35:00Z,40.87,-84.62,31.0,7.0,100,11,17,10.0,30.050198,,,TRUE,TRUE,,,,,,,CLR,,,,,,,,VFR,,,,,,,,,,,,SPECI,238.0
KVNC 021735Z AUTO 12008G15KT 070V190 10SM TS FEW050 FEW110 32/20 A2975 RMK AO2 LTG DSNT W-NE,KVNC,2023-06-02T17:35:00Z,27.07,-82.43,32.0,20.0,120,8,15,10.0,29.749016,,,TRUE,TRUE,,,,,,TS,FEW,5000,FEW,11000,,,,,VFR,,,,,,,,,,,,METAR,4.0
KVLL 021735Z AUTO 06008KT 10SM CLR 31/11 A3010 RMK AO2 T03110114,KVLL,2023-06-02T17:35:00Z,42.55,-83.18,31.1,11.4,60,8,,10.0,30.100393,,,TRUE,TRUE,,,,,,,CLR,,,,,,,,VFR,,,,,,,,,,,,METAR,214.0
KVKY 021735Z AUTO 07017KT 10SM CLR A2990 RMK A01,KVKY,2023-06-02T17:35:00Z,29.25,-88.43,,,70,17,,10.0,29.899607,,,TRUE,TRUE,,,,,,,CLR,,,,,,,,VFR,,,,,,,,,,,,METAR,32.0
KVKS 021735Z AUTO 36006KT 10SM FEW050 FEW065 SCT080 29/M33 A2992 RMK A01,KVKS,2023-06-02T17:35:00Z,32.23,-90.93,29.0,-33.0,360,6,,10.0,29.920275,,,TRUE,TRUE,,,,,,,FEW,5000,FEW,6500,SCT,8000,,,VFR,,,,,,,,,,,,SPECI,31.0
KVHN 021735Z AUTO 28006KT 10SM CLR 30/M05 A2997 RMK AO2 T03011053,KVHN,2023-06-02T17:35:00Z,31.07,-104.78,30.1,-5.3,280,6,,10.0,29.970472,,,TRUE,TRUE,,,,,,,CLR,,,,,,,,VFR,,,,,,,,,,,,SPECI,1200.0
KVGC 021735Z AUTO 36011G16KT 10SM CLR 31/10 A2998 RMK AO2,KVGC,2023-06-02T17:35:00Z,42.85,-75.57,31.0,10.0,360,11,16,10.0,29.97933,,,TRUE,TRUE,,,,,,,CLR,,,,,,,,VFR,,,,,,,,,,,,METAR,346.0
KVER 021735Z AUTO 00000KT 10SM SCT070 SCT080 31/19 A3002 RMK AO2 T03070193,KVER,2023-06-02T17:35:00Z,38.95,-92.68,30.7,19.3,0,0,,10.0,30.02067,,,TRUE,TRUE,,,,,,,SCT,7000,SCT,8000,,,,,VFR,,,,,,,,,,,,METAR,209.0
KVDI 021735Z AUTO 04007KT 340V080 10SM SCT043 SCT055 BKN065 28/17 A2987 RMK AO2,KVDI,2023-06-02T17:35:00Z,32.2,-82.37,28.0,17.0,40,7,,10.0,29.870079,,,TRUE,TRUE,,,,,,,SCT,4300,SCT,5500,BKN,6500,,,VFR,,,,,,,,,,,,SPECI,81.0
KVDF 021735Z AUTO 09008KT 10SM SCT036 SCT110 31/23 A2977 RMK AO2,KVDF,2023-06-02T17:35:00Z,28.02,-82.33,31.0,23.0,90,8,,10.0,29.769686,,,TRUE,TRUE,,,,,,,SCT,3600,SCT,11000,,,,,VFR,,,,,,,,,,,,SPECI,5.0
KVBW 021735Z AUTO 03006KT 10SM CLR 30/11 A2997 RMK AO1 T03030107,KVBW,2023-06-02T17:35:00Z,38.37,-78.97,30.3,10.7,30,6,,10.0,29.970472,,,TRUE,TRUE,,,,,,,CLR,,,,,,,,VFR,,,,,,,,,,,,METAR,362.0
KVAF 021735Z AUTO 06009KT 10SM 29/19 A2994 RMK A01,KVAF,2023-06-02T17:35:00Z,27.35,-94.63,29.0,19.0,60,9,,10.0,29.940945,,,TRUE,TRUE,,,,,,,,,,,,,,,,,,,,,,,,,,,SPECI,38.0
KUYF 021735Z AUTO 06006G14KT 10SM CLR 31/00 A3003 RMK AO2,KUYF,2023-06-02T17:35:00Z,39.93,-83.47,31.0,0.0,60,6,14,10.0,30.029528,,,TRUE,TRUE,,,,,,,CLR,,,,,,,,VFR,,,,,,,,,,,,METAR,326.0
KUXL 021735Z AUTO 00000KT 10SM SCT040 SCT048 BKN065 30/22 A2993 RMK AO2 T03040215,KUXL,2023-06-02T17:35:00Z,30.13,-93.38,30.4,21.5,0,0,,10.0,29.929134,,,TRUE,TRUE,,,,,,,SCT,4000,SCT,4800,BKN,6500,,,VFR,,,,,,,,,,,,SPECI,2.0
KUVA 021735Z AUTO 12013G18KT SCT032 BKN050 28/21 A2992 RMK AO2 T02810212 PWINO,KUVA,2023-06-02T17:35:00Z,29.22,-99.75,28.1,21.2,120,13,18,,29.920275,,,TRUE,TRUE,,,,,TRUE,,SCT,3200,BKN,5000,,,,,,,,,,,,,,,,,SPECI,285.0
KUUV 021735Z AUTO 04004KT 10SM CLR 31/14 A3003 RMK AO2,KUUV,2023-06-02T17:35:00Z,38.23,-91.17,31.0,14.0,40,4,,10.0,30.029528,,,TRUE,TRUE,,,,,,,CLR,,,,,,,,VFR,,,,,,,,,,,,SPECI,284.0
KUTA 021735Z AUTO 04005KT 10SM SCT050 SCT065 SCT330 31/19 A2995 RMK AO2 T03130190 $,KUTA,2023-06-02T17:35:00Z,34.68,-90.35,31.3,19.0,40,5,,10.0,29.949802,,,TRUE,TRUE,TRUE,,,,,,SCT,5000,SCT,6500,SCT,33000,,,VFR,,,,,,,,,,,,METAR,58.0
KUSE 021735Z AUTO 06011G16KT 050V110 10SM CLR 33/09 A3006 RMK AO2,KUSE,2023-06-02T17:35:00Z,41.62,-84.13,33.0,9.0,60,11,16,10.0,30.059055,,,TRUE,TRUE,,,,,,,CLR,,,,,,,,VFR,,,,,,,,,,,,METAR,237.0
KUOX 021735Z AUTO VRB04KT 10SM FEW050 30/17 A2996 RMK AO2,KUOX,2023-06-02T17:35:00Z,34.38,-89.53,30.0,17.0,0,4,,10.0,29.958662,,,TRUE,TRUE,,,,,,,FEW,5000,,,,,,,VFR,,,,,,,,,,,,METAR,123.0
KUNU 021735Z AUTO 12003KT 10SM CLR 30/15 A3010 RMK AO2 T03000154,KUNU,2023-06-02T17:35:00Z,43.42,-88.7,30.0,15.4,120,3,,10.0,30.100393,,,TRUE,TRUE,,,,,,,CLR,,,,,,,,VFR,,,,,,,,,,,,SPECI,281.0
KUNI 021735Z AUTO 00000KT 10SM CLR 32/09 A3000 RMK AO2 T03150094,KUNI,2023-06-02T17:35:00Z,39.22,-82.23,31.5,9.4,0,0,,10.0,30.0,,,TRUE,TRUE,,,,,,,CLR,,,,,,,,VFR,,,,,,,,,,,,SPECI,232.0
KUMP 021735Z AUTO 08008G14KT 10SM CLR 31/10 A3004 RMK AO2 T03130102,KUMP,2023-06-02T17:35:00Z,39.93,-86.05,31.3,10.2,80,8,14,10.0,30.041338,,,TRUE,TRUE,,,,,,,CLR,,,,,,,,VFR,,,,,,,,,,,,SPECI,247.0
KULM 021735Z AUTO 16007KT 10SM CLR 29/16 A3003 RMK AO2 LTG DSNT NE,KULM,2023-06-02T17:35:00Z,44.32,-94.5,29.0,16.0,160,7,,10.0,30.029528,,,TRUE,TRUE,,,,,,,CLR,,,,,,,,VFR,,,,,,,,,,,,METAR,305.0
KUKT 021735Z AUTO VRB05G13KT 10SM CLR 34/13 A2991 RMK A01,KUKT,2023-06-02T17:35:00Z,40.43,-75.38,34.0,13.0,0,5,13,10.0,29.911417,,,TRUE,TRUE,,,,,,,CLR,,,,,,,,VFR,,,,,,,,,,,,METAR,156.0
KUKL 021735Z AUTO 18008KT 10SM CLR 30/18 A3000 RMK AO2 T02960178,KUKL,2023-06-02T17:35:00Z,38.3,-95.73,29.6,17.8,180,8,,10.0,30.0,,,TRUE,TRUE,,,,,,,CLR,,,,,,,,VFR,,,,,,,,,,,,METAR,357.0
KUCY 021735Z AUTO 04006G14KT 10SM SCT050 31/19 A2994 RMK A01,KUCY,2023-06-02T17:35:00Z,36.38,-88.98,31.0,19.0,40,6,14,10.0,29.940945,,,TRUE,TRUE,,,,,,,SCT,5000,,,,,,,VFR,,,,,,,,,,,,SPECI,97.0
KUBE 021735Z AUTO 16003KT 10SM SCT055 SCT095 26/20 A3010 RMK AO2 LTG DSNT SW,KUBE,2023-06-02T17:35:00Z,45.5,-91.98,26.0,20.0,160,3,,10.0,30.100393,,,TRUE,TRUE,,,,,,,SCT,5500,SCT,9500,,,,,VFR,,,,,,,,,,,,METAR,376.0
KU69 021735Z AUTO 05008KT 10SM BKN055 BKN065 12/09 A3005 RMK A01,KU69,2023-06-02T17:35:00Z,40.2,-110.38,12.0,9.0,50,8,,10.0,30.050198,,,TRUE,TRUE,,,,,,,BKN,5500,BKN,6500,,,,,VFR,,,,,,,,,,,,METAR,1776.0
KU64 021735Z AUTO 13009KT 10SM BKN150 BKN170 16/00 A3008 RMK AO2 T01580003 $,KU64,2023-06-02T17:35:00Z,,,15.8,0.3,130,9,,10.0,30.079725,,,TRUE,TRUE,TRUE,,,,,,BKN,15000,BKN,17000,,,,,VFR,,,,,,,,,,,,METAR,
KU55 021735Z AUTO 30014G21KT 10SM BKN080 OVC090 16/03 A3012 RMK A01,KU55,2023-06-02T17:35:00Z,37.85,-112.38,16.0,3.0,300,14,21,10.0,30.121063,,,TRUE,TRUE,,,,,,,BKN,8000,OVC,9000,,,,,VFR,,,,,,,,,,,,METAR,2060.0
KTYQ 021735Z AUTO 11010KT 10SM CLR 30/08 A3005 RMK AO2 T03030077,KTYQ,2023-06-02T17:35:00Z,40.03,-86.25,30.3,7.7,110,10,,10.0,30.050198,,,TRUE,TRUE,,,,,,,CLR,,,,,,,,VFR,,,,,,,,,,,,SPECI,279.0
KTYL 021735Z AUTO 28005KT 10SM BKN070 20/00 A3010 RMK AO2,KTYL,2023-06-02T17:35:00Z,34.45,-110.12,20.0,0.0,280,5,,10.0,30.100393,,,TRUE,TRUE,,,,,,,BKN,7000,,,,,,,VFR,,,,,,,,,,,,SPECI,1748.0
KTXW 021735Z AUTO 13009G17KT 10SM SCT036 SCT043 SCT050 32/22 A2987 RMK AO2 T03220218,KTXW,2023-06-02T17:35:00Z,26.18,-97.97,32.2,21.8,130,9,17,10.0,29.870079,,,TRUE,TRUE,,,,,,,SCT,3600,SCT,4300,SCT,5000,,,VFR,,,,,,,,,,,,METAR,21.0
KTWT 021735Z AUTO 09004KT 10SM SCT060 32/14 A2997 RMK AO2,KTWT,2023-06-02T17:35:00Z,37.55,-87.95,32.0,14.0,90,4,,10.0,29.970472,,,TRUE,TRUE,,,,,,,SCT,6000,,,,,,,VFR,,,,,,,,,,,,METAR,113.0
KTWM 021735Z AUTO 07009G16KT 10SM CLR 22/17 A3013 RMK AO2,KTWM,2023-06-02T17:35:00Z,47.05,-91.75,22.0,17.0,70,9,16,10.0,30.129921,,,TRUE,TRUE,,,,,,,CLR,,,,,,,,VFR,,,,,,,,,,,,METAR,331.0
KTVY 021735Z AUTO 09005KT 10SM SCT060 SCT070 BKN110 22/06 A3001 RMK AO2,KTVY,2023-06-02T17:35:00Z,40.62,-112.35,22.0,6.0,90,5,,10.0,30.008858,,,TRUE,TRUE,,,,,,,SCT,6000,SCT,7000,BKN,11000,,,VFR,,,,,,,,,,,,METAR,1310.0
KTVK 021735Z AUTO VRB06KT 9SM FEW047 FEW065 FEW080 30/17 A3005 RMK AO2,KTVK,2023-06-02T17:35:00Z,40.68,-92.9,30.0,17.0,0,6,,9.0,30.050198,,,TRUE,TRUE,,,,,,,FEW,4700,FEW,6500,FEW,8000,,,VFR,,,,,,,,,,,,SPECI,311.0
KTVI 021735Z AUTO 05008KT 10SM SCT042 BKN050 27/17 A2986 RMK AO2,KTVI,2023-06-02T17:35:00Z,30.9,-83.88,27.0,17.0,50,8,,10.0,29.861221,,,TRUE,TRUE,,,,,,,SCT,4200,BKN,5000,,,,,VFR,,,,,,,,,,,,METAR,74.0
KTTF 021735Z AUTO 15008KT 10SM CLR 30/14 A3006 RMK AO2 T02980136,KTTF,2023-06-02T17:35:00Z,41.93,-83.42,29.8,13.6,150,8,,10.0,30.059055,,,TRUE,TRUE,,,,,,,CLR,,,,,,,,VFR,,,,,,,,,,,,METAR,186.0
KTSP 021735Z AUTO 32012KT 9SM CLR 19/02 A3004 RMK AO2,KTSP,2023-06-02T17:35:00Z,35.13,-118.43,19.0,2.0,320,12,,9.0,30.041338,,,TRUE,TRUE,,,,,,,CLR,,,,,,,,VFR,,,,,,,,,,,,SPECI,1209.0
KTQV 021735Z AUTO 04009KT 020V080 10SM CLR 26/12 A2993 RMK A01,KTQV,2023-06-02T17:35:00Z,36.0,-78.93,26.0,12.0,40,9,,10.0,29.929134,,,TRUE,TRUE,,,,,,,CLR,,,,,,,,VFR,,,,,,,,,,,,SPECI,230.0
KTQK 021735Z AUTO 14023G28KT 10SM CLR 21/12 A2996 RMK AO2 T02150117,KTQK,2023-06-02T17:35:00Z,38.47,-100.88,21.5,11.7,140,23,28,10.0,29.958662,,,TRUE,TRUE,,,,,,,CLR,,,,,,,,VFR,,,,,,,,,,,,METAR,906.0
KTQH 021735Z AUTO 15008KT 10SM SCT050 32/13 A3000 RMK AO2,KTQH,2023-06-02T17:35:00Z,35.93,-95.0,32.0,13.0,150,8,,10.0,30.0,,,TRUE,TRUE,,,,,,,SCT,5000,,,,,,,VFR,,,,,,,,,,,,SPECI,265.0
KTPF 021735Z AUTO 10009KT 065V145 10SM RA SCT036 BKN048 SCT055 31/22 A2976 RMK AO2,KTPF,2023-06-02T17:35:00Z,27.92,-82.45,31.0,22.0,100,9,,10.0,29.760826,,,TRUE,TRUE,,,,,,RA,SCT,3600,BKN,4800,SCT,5500,,,VFR,,,,,,,,,,,,METAR,1.0
KTOC 021735Z AUTO 09004KT 10SM CLR 27/15 A2994 RMK AO2 T02740152,KTOC,2023-06-02T17:35:00Z,34.6,-83.3,27.4,15.2,90,4,,10.0,29.940945,,,TRUE,TRUE,,,,,,,CLR,,,,,,,,VFR,,,,,,,,,,,,METAR,292.0
KTOB 021735Z AUTO 12009KT 10SM CLR 29/16 A3007 RMK AO2 LTG DSNT N AND NW,KTOB,2023-06-02T17:35:00Z,44.02,-92.82,29.0,16.0,120,9,,10.0,30.070866,,,TRUE,TRUE,,,,,,,CLR,,,,,,,,VFR,,,,,,,,,,,,METAR,394.0
KTNU 021735Z AUTO VRB04KT 10SM CLR 29/20 A3004 RMK A01,KTNU,2023-06-02T17:35:00Z,41.67,-93.02,29.0,20.0,0,4,,10.0,30.041338,,,TRUE,TRUE,,,,,,,CLR,,,,,,,,VFR,,,,,,,,,,,,SPECI,287.0
KTNB 021735Z AUTO 06007KT 040V130 10SM CLR 25/05 A3006 RMK AO2 T02450054,KTNB,2023-06-02T17:35:00Z,36.2,-81.65,24.5,5.4,60,7,,10.0,30.059055,,,TRUE,TRUE,,,,,,,CLR,,,,,,,,VFR,,,,,,,,,,,,SPECI,958.0
KTMT 021735Z AUTO 01004KT 10SM CLR 16/05 A3010 RMK AO2 T01590046,KTMT,2023-06-02T17:35:00Z,39.47,-117.2,15.9,4.6,10,4,,10.0,30.100393,,,TRUE,TRUE,,,,,,,CLR,,,,,,,,VFR,,,,,,,,,,,,METAR,1748.0
KTMK 021735Z AUTO 31005KT 3SM -RA HZ CLR 15/08 A3016 RMK AO2,KTMK,2023-06-02T17:35:00Z,45.42,-123.82,15.0,8.0,310,5,,3.0,30.159449,,,TRUE,TRUE,,,,,,-RA HZ,CLR,,,,,,,,MVFR,,,,,,,,,,,,SPECI,8.0
KTME 021735Z AUTO 15006KT 10SM CLR 31/19 A2994 RMK AO2,KTME,2023-06-02T17:35:00Z,29.8,-95.9,31.0,19.0,150,6,,10.0,29.940945,,,TRUE,TRUE,,,,,,,CLR,,,,,,,,VFR,,,,,,,,,,,,METAR,49.0
KTMA 021735Z AUTO 06008KT 360V080 10SM BKN045 BKN060 OVC330 27/17 A2988 RMK AO2 T02740172 $,KTMA,2023-06-02T17:35:00Z,31.43,-83.48,27.4,17.2,60,8,,10.0,29.878937,,,TRUE,TRUE,TRUE,,,,,,BKN,4500,BKN,6000,OVC,33000,,,VFR,,,,,,,,,,,,METAR,105.0
KTKX 021735Z AUTO VRB06KT 10SM CLR 33/18 A2994 RMK AO2,KTKX,2023-06-02T17:35:00Z,36.22,-90.03,33.0,18.0,0,6,,10.0,29.940945,,,TRUE,TRUE,,,,,,,CLR,,,,,,,,VFR,,,,,,,,,,,,METAR,73.0
KTKV 021735Z AUTO 04009KT 010V070 10SM SCT060 OVC070 28/17 A3015 RMK AO2 T02780169 PWINO,KTKV,2023-06-02T17:35:00Z,45.47,-89.82,27.8,16.9,40,9,,10.0,30.15059,,,TRUE,TRUE,,,,,TRUE,,SCT,6000,OVC,7000,,,,,VFR,,,,,,,,,,,,SPECI,449.0
KTKC 021735Z AUTO 16010KT 10SM CLR 29/20 A3002 RMK AO2,KTKC,2023-06-02T17:35:00Z,44.25,-95.62,29.0,20.0,160,10,,10.0,30.02067,,,TRUE,TRUE,,,,,,,CLR,,,,,,,,VFR,,,,,,,,,,,,METAR,408.0
KTIP 021735Z AUTO 10009G15KT 10SM CLR 32/07 A3003 RMK AO2 T03220070,KTIP,2023-06-02T17:35:00Z,40.28,-88.15,32.2,7.0,100,9,15,10.0,30.029528,,,TRUE,TRUE,,,,,,,CLR,,,,,,,,VFR,,,,,,,,,,,,SPECI,224.0
KTIF 021735Z AUTO 15014G21KT 10SM BKN024 BKN030 OVC042 21/15 A2998 RMK AO2 T02050153,KTIF,2023-06-02T17:35:00Z,41.97,-100.57,20.5,15.3,150,14,21,10.0,29.97933,,,TRUE,TRUE,,,,,,,BKN,2400,BKN,3000,OVC,4200,,,MVFR,,,,,,,,,,,,METAR,888.0
KTHA 021735Z AUTO VRB06G13KT 10SM FEW050 FEW055 28/16 A2994 RMK A01,KTHA,2023-06-02T17:35:00Z,35.38,-86.25,28.0,16.0,0,6,13,10.0,29.940945,,,TRUE,TRUE,,,,,,,FEW,5000,FEW,5500,,,,,VFR,,,,,,,,,,,,SPECI,333.0
KTGI 021735Z AUTO 29007KT 10SM CLR 23/17 A2993 RMK AO1 T02340174,KTGI,2023-06-02T17:35:00Z,37.82,-75.98,23.4,17.4,290,7,,10.0,29.929134,,,TRUE,TRUE,,,,,,,CLR,,,,,,,,VFR,,,,,,,,,,,,METAR,1.0
KTEX 021735Z AUTO 00000KT 10SM BKN050 OVC060 10/00 A3020 RMK AO2,KTEX,2023-06-02T17:35:00Z,37.95,-107.9,10.0,0.0,0,0,,10.0,30.200787,,,TRUE,TRUE,,,,,,,BKN,5000,OVC,6000,,,,,VFR,,,,,,,,,,,,SPECI,2760.0
KTEW 021735Z AUTO 04007G17KT 10SM SCT085 33/06 A3009 RMK AO2 T03300062,KTEW,2023-06-02T17:35:00Z,42.57,-84.42,33.0,6.2,40,7,17,10.0,30.088583,,,TRUE,TRUE,,,,,,,SCT,8500,,,,,,,VFR,,,,,,,,,,,,METAR,281.0
KTCY 021735Z AUTO 33007KT 10SM CLR 22/07 A2996 RMK A01,KTCY,2023-06-02T17:35:00Z,37.68,-121.43,22.0,7.0,330,7,,10.0,29.958662,,,TRUE,TRUE,,,,,,,CLR,,,,,,,,VFR,,,,,,,,,,,,METAR,51.0
KTBX 021735Z AUTO M1/4SM FG OVC001 07/06 A3011 RMK AO2,KTBX,2023-06-02T17:35:00Z,43.47,-108.23,7.0,6.0,,,,0.25,30.109253,,,TRUE,TRUE,,,,,,FG,OVC,100,,,,,,,LIFR,,,,,,,,,,,,SPECI,2230.0
KTBR 021735Z AUTO 02005KT 10SM SCT035 SCT065 27/16 A2987 RMK AO2 T02710164 PWINO,KTBR,2023-06-02T17:35:00Z,32.48,-81.73,27.1,16.4,20,5,,10.0,29.870079,,,TRUE,TRUE,,,,,TRUE,,SCT,3500,SCT,6500,,,,,VFR,,,,,,,,,,,,METAR,54.0
KTAZ 021735Z AUTO 02008KT 10SM CLR 32/15 A3002 RMK AO2 T03170149,KTAZ,2023-06-02T17:35:00Z,39.53,-89.33,31.7,14.9,20,8,,10.0,30.02067,,,TRUE,TRUE,,,,,,,CLR,,,,,,,,VFR,,,,,,,,,,,,SPECI,188.0
KT82 021735Z AUTO 18007KT 10SM BKN037 OVC044 27/18 A2996 RMK AO2 T02650179,KT82,2023-06-02T17:35:00Z,30.25,-98.92,26.5,17.9,180,7,,10.0,29.958662,,,TRUE,TRUE,,,,,,,BKN,3700,OVC,4400,,,,,VFR,,,,,,,,,,,,SPECI,509.0
KT78 021735Z AUTO 13003KT 6SM HZ SCT040 30/21 A2991 RMK AO2,KT78,2023-06-02T17:35:00Z,30.08,-94.7,30.0,21.0,130,3,,6.0,29.911417,,,TRUE,TRUE,,,,,,HZ,SCT,4000,,,,,,,VFR,,,,,,,,,,,,METAR,21.0
KT74 021735Z AUTO 10SM SCT042 29/19 A2994 RMK AO2 T02880191,KT74,2023-06-02T17:35:00Z,30.57,-97.45,28.8,19.1,,,,10.0,29.940945,,,TRUE,TRUE,,,,,,,SCT,4200,,,,,,,VFR,,,,,,,,,,,,METAR,169.0
KT69 021735Z AUTO 18009G14KT 10SM CLR 30/21 A2990 RMK A01,KT69,2023-06-02T17:35:00Z,28.03,-97.55,30.0,21.0,180,9,14,10.0,29.899607,,,TRUE,TRUE,,,,,,,CLR,,,,,,,,VFR,,,,,,,,,,,,SPECI,15.0
KT41 021735Z AUTO 10008KT 070V150 10SM CLR 32/19 A2993 RMK AO2 T03220194,KT41,2023-06-02T17:35:00Z,29.67,-95.07,32.2,19.4,100,8,,10.0,29.929134,,,TRUE,TRUE,,,,,,,CLR,,,,,,,,VFR,,,,,,,,,,,,SPECI,8.0
KT35 021735Z AUTO 18005KT 10SM CLR 30/19 A2993 RMK AO2 T02950187,KT35,2023-06-02T17:35:00Z,30.88,-96.97,29.5,18.7,180,5,,10.0,29.929134,,,TRUE,TRUE,,,,,,,CLR,,,,,,,,VFR,,,,,,,,,,,,SPECI,122.0
KT20 021735Z AUTO 12004KT 10SM SCT041 SCT047 31/21 A2992 RMK AO2 T03050205,KT20,2023-06-02T17:35:00Z,29.52,-97.47,30.5,20.5,120,4,,10.0,29.920275,,,TRUE,TRUE,,,,,,,SCT,4100,SCT,4700,,,,,VFR,,,,,,,,,,,,SPECI,107.0
KSZY 021735Z AUTO VRB05G10KT 10SM CLR 29/17 A2996 RMK A01,KSZY,2023-06-02T17:35:00Z,35.2,-88.5,29.0,17.0,0,5,10,10.0,29.958662,,,TRUE,TRUE,,,,,,,CLR,,,,,,,,VFR,,,,,,,,,,,,SPECI,184.0
KSZT 021735Z AUTO 11003KT 10SM CLR 20/06 A3002 RMK AO2,KSZT,2023-06-02T17:35:00Z,48.3,-116.57,20.0,6.0,110,3,,10.0,30.02067,,,TRUE,TRUE,,,,,,,CLR,,,,,,,,VFR,,,,,,,,,,,,SPECI,649.0
KSYI 021735Z AUTO 35007G13KT 10SM CLR 29/17 A2994 RMK A01,KSYI,2023-06-02T17:35:00Z,35.57,-86.45,29.0,17.0,350,7,13,10.0,29.940945,,,TRUE,TRUE,,,,,,,CLR,,,,,,,,VFR,,,,,,,,,,,,SPECI,244.0
KSYF 021735Z AUTO 17016G21KT 10SM SCT037 BKN044 A2993 RMK AO2 PWINO,KSYF,2023-06-02T17:35:00Z,39.77,-101.8,,,170,16,21,10.0,29.929134,,,TRUE,TRUE,,,,,TRUE,,SCT,3700,BKN,4400,,,,,VFR,,,,,,,,,,,,SPECI,1041.0
KSXU 021735Z AUTO 00000KT 10SM CLR 18/14 A3001 RMK AO2 LTG DSNT NW T01750137,KSXU,2023-06-02T17:35:00Z,34.93,-104.65,17.5,13.7,0,0,,10.0,30.008858,,,TRUE,TRUE,,,,,,,CLR,,,,,,,,VFR,,,,,,,,,,,,SPECI,1465.0
KSXK 021735Z AUTO 15015G22KT 10SM FEW049 FEW065 30/18 A2999 RMK AO2,KSXK,2023-06-02T17:35:00Z,42.98,-96.17,30.0,18.0,150,15,22,10.0,29.991142,,,TRUE,TRUE,,,,,,,FEW,4900,FEW,6500,,,,,VFR,,,,,,,,,,,,METAR,430.0
KSWW 021735Z AUTO 16011KT 10SM SCT026 BKN034 BKN043 27/19 A2998 RMK AO2 T02690187,KSWW,2023-06-02T17:35:00Z,32.47,-100.47,26.9,18.7,160,11,,10.0,29.97933,,,TRUE,TRUE,,,,,,,SCT,2600,BKN,3400,BKN,4300,,,VFR,,,,,,,,,,,,METAR,718.0
KSVE 021735Z AUTO 11004KT 10SM CLR 18/02 A3008 RMK AO2,KSVE,2023-06-02T17:35:00Z,40.37,-120.57,18.0,2.0,110,4,,10.0,30.079725,,,TRUE,TRUE,,,,,,,CLR,,,,,,,,VFR,,,,,,,,,,,,SPECI,1263.0
KSVC 021735Z AUTO 16006KT 10SM CLR 24/M01 A3006 RMK AO2 T02381015,KSVC,2023-06-02T17:35:00Z,32.63,-108.15,23.8,-1.5,160,6,,10.0,30.059055,,,TRUE,TRUE,,,,,,,CLR,,,,,,,,VFR,,,,,,,,,,,,SPECI,1638.0
KSUZ 021735Z AUTO 06006KT 9SM CLR 31/19 A2996 RMK A01,KSUZ,2023-06-02T17:35:00Z,34.58,-92.48,31.0,19.0,60,6,,9.0,29.958662,,,TRUE,TRUE,,,,,,,CLR,,,,,,,,VFR,,,,,,,,,,,,METAR,114.0
KSUW 021735Z AUTO 03006KT 10SM SCT006 15/11 A3015 RMK AO2 T01540110,KSUW,2023-06-02T17:35:00Z,46.68,-92.1,15.4,11.0,30,6,,10.0,30.15059,,,TRUE,TRUE,,,,,,,SCT,600,,,,,,,VFR,,,,,,,,,,,,SPECI,205.0
KSTK 021735Z AUTO 00000KT 10SM CLR 21/15 A2992 RMK AO2,KSTK,2023-06-02T17:35:00Z,40.62,-103.27,21.0,15.0,0,0,,10.0,29.920275,,,TRUE,TRUE,,,,,,,CLR,,,,,,,,VFR,,,,,,,,,,,,METAR,1228.0
KSTF 021735Z AUTO VRB04KT 10SM BKN047 BKN100 05/M03 A2992 RMK AO2,KSTF,2023-06-02T17:35:00Z,33.43,-88.85,5.0,-3.0,0,4,,10.0,29.920275,,,TRUE,TRUE,,,,,,,BKN,4700,BKN,10000,,,,,VFR,,,,,,,,,,,,METAR,99.0
KSTE 021735Z AUTO 08008KT 030V090 10SM SCT050 31/14 A3011 RMK AO2 T03100135,KSTE,2023-06-02T17:35:00Z,44.55,-89.53,31.0,13.5,80,8,,10.0,30.109253,,,TRUE,TRUE,,,,,,,SCT,5000,,,,,,,VFR,,,,,,,,,,,,METAR,335.0
KSRR 021735Z AUTO 26014G17KT 230V290 10SM FEW110 21/M05 A3010 RMK AO2,KSRR,2023-06-02T17:35:00Z,33.47,-105.52,21.0,-5.0,260,14,17,10.0,30.100393,,,TRUE,TRUE,,,,,,,FEW,11000,,,,,,,VFR,,,,,,,,,,,,METAR,2063.0
KSRE 021735Z AUTO 14005G13KT 7SM FEW047 30/17 A2997 RMK AO2,KSRE,2023-06-02T17:35:00Z,35.27,-96.68,30.0,17.0,140,5,13,7.0,29.970472,,,TRUE,TRUE,,,,,,,FEW,4700,,,,,,,VFR,,,,,,,,,,,,SPECI,306.0
KSRB 021735Z AUTO VRB05G10KT 10SM FEW050 29/18 A2996 RMK AO2,KSRB,2023-06-02T17:35:00Z,36.05,-85.53,29.0,18.0,0,5,10,10.0,29.958662,,,TRUE,TRUE,,,,,,,FEW,5000,,,,,,,VFR,,,,,,,,,,,,SPECI,303.0
KSPK 021735Z AUTO 04008KT 10SM -RA BKN070 BKN085 15/10 A3003 RMK AO2,KSPK,2023-06-02T17:35:00Z,40.15,-111.67,15.0,10.0,40,8,,10.0,30.029528,,,TRUE,TRUE,,,,,,-RA,BKN,7000,BKN,8500,,,,,VFR,,,,,,,,,,,,METAR,1381.0
KSPF 021735Z AUTO 09013G18KT 10SM CLR 22/16 A2990 RMK AO2,KSPF,2023-06-02T17:35:00Z,44.47,-103.78,22.0,16.0,90,13,18,10.0,29.899607,,,TRUE,TRUE,,,,,,,CLR,,,,,,,,VFR,,,,,,,,,,,,METAR,1191.0
KSPA 021735Z AUTO 09005KT 10SM CLR 27/11 A2993 RMK AO2,KSPA,2023-06-02T17:35:00Z,34.92,-81.95,27.0,11.0,90,5,,10.0,29.929134,,,TRUE,TRUE,,,,,,,CLR,,,,,,,,VFR,,,,,,,,,,,,METAR,242.0
KSOW 021735Z AUTO 31007G15KT 10SM FEW044 SCT075 SCT090 20/M00 A3012 RMK AO2,KSOW,2023-06-02T17:35:00Z,34.27,-110.0,20.0,0.0,310,7,15,10.0,30.121063,,,TRUE,TRUE,,,,,,,FEW,4400,SCT,7500,SCT,9000,,,VFR,,,,,,,,,,,,METAR,1954.0
KSOA 021735Z AUTO 13010G16KT 10SM 26/18 A2998 RMK AO2,KSOA,2023-06-02T17:35:00Z,30.58,-100.65,26.0,18.0,130,10,16,10.0,29.97933,,,TRUE,TRUE,,,,,,,,,,,,,,,,,,,,,,,,,,,SPECI,654.0
KSNL 021735Z AUTO 15009G14KT 10SM SCT044 SCT049 30/17 A2997 RMK AO2 T03030166,KSNL,2023-06-02T17:35:00Z,35.35,-96.95,30.3,16.6,150,9,14,10.0,29.970472,,,TRUE,TRUE,,,,,,,SCT,4400,SCT,4900,,,,,VFR,,,,,,,,,,,,METAR,327.0
KSNK 021735Z AUTO 15011KT 10SM SCT027 BKN037 OVC045 25/18 A2996 RMK AO2 T02540181,KSNK,2023-06-02T17:35:00Z,32.7,-100.95,25.4,18.1,150,11,,10.0,29.958662,,,TRUE,TRUE,,,,,,,SCT,2700,BKN,3700,OVC,4500,,,VFR,,,,,,,,,,,,METAR,738.0
KSNC 021735Z AUTO 18007KT 10SM CLR 30/18 A2991 RMK AO2,KSNC,2023-06-02T17:35:00Z,41.38,-72.5,30.0,18.0,180,7,,10.0,29.911417,,,TRUE,TRUE,,,,,,,CLR,,,,,,,,VFR,,,,,,,,,,,,SPECI,114.0
KSMS 021735Z AUTO 01008KT 10SM FEW030 SCT034 OVC050 25/19 A2990 RMK AO2,KSMS,2023-06-02T17:35:00Z,34.0,-80.37,25.0,19.0,10,8,,10.0,29.899607,,,TRUE,TRUE,,,,,,,FEW,3000,SCT,3400,OVC,5000,,,VFR,,,,,,,,,,,,METAR,53.0
KSME 021735Z AUTO 04006G12KT 10SM CLR 29/14 A2997 RMK AO2,KSME,2023-06-02T17:35:00Z,37.05,-84.62,29.0,14.0,40,6,12,10.0,29.970472,,,TRUE,TRUE,,,,,,,CLR,,,,,,,,VFR,,,,,,,,,,,,SPECI,279.0
KSMD 021735Z AUTO VRB06G15KT 9SM CLR 32/11 A3006 RMK A01,KSMD,2023-06-02T17:35:00Z,41.15,-85.15,32.0,11.0,0,6,15,9.0,30.059055,,,TRUE,TRUE,,,,,,,CLR,,,,,,,,VFR,,,,,,,,,,,,METAR,252.0
KSLR 021735Z AUTO 11006KT 10SM SCT050 BKN070 BKN095 31/16 A2996 RMK AO2 T03130158,KSLR,2023-06-02T17:35:00Z,33.17,-95.62,31.3,15.8,110,6,,10.0,29.958662,,,TRUE,TRUE,,,,,,,SCT,5000,BKN,7000,BKN,9500,,,VFR,,,,,,,,,,,,METAR,144.0
KSLH 021735Z AUTO 05008KT 10SM CLR 26/12 A3013 RMK AO2,KSLH,2023-06-02T17:35:00Z,45.65,-84.52,26.0,12.0,50,8,,10.0,30.129921,,,TRUE,TRUE,,,,,,,CLR,,,,,,,,VFR,,,,,,,,,,,,SPECI,193.0
KSLB 021735Z AUTO 14016G21KT 10SM CLR 29/17 A3004 RMK AO2,KSLB,2023-06-02T17:35:00Z,42.6,-95.23,29.0,17.0,140,16,21,10.0,30.041338,,,TRUE,TRUE,,,,,,,CLR,,,,,,,,VFR,,,,,,,,,,,,SPECI,450.0
KSJX 021735Z AUTO 06007KT 020V080 10SM CLR 28/13 A3014 RMK AO2 T02790127,KSJX,2023-06-02T17:35:00Z,45.7,-85.57,27.9,12.7,60,7,,10.0,30.138779,,,TRUE,TRUE,,,,,,,CLR,,,,,,,,VFR,,,,,,,,,,,,METAR,202.0
KSJS 021735Z AUTO 04003KT 10SM CLR 29/12 A3001 RMK AO2 T02890120,KSJS,2023-06-02T17:35:00Z,37.75,-82.63,28.9,12.0,40,3,,10.0,30.008858,,,TRUE,TRUE,,,,,,,CLR,,,,,,,,VFR,,,,,,,,,,,,METAR,359.0
KSIK 021735Z AUTO 06008KT 10SM CLR 34/17 A2996 RMK AO2,KSIK,2023-06-02T17:35:00Z,36.9,-89.57,34.0,17.0,60,8,,10.0,29.958662,,,TRUE,TRUE,,,,,,,CLR,,,,,,,,VFR,,,,,,,,,,,,METAR,95.0
KSHL 021735Z AUTO 16015KT 10SM CLR 29/17 A3001 RMK AO2,KSHL,2023-06-02T17:35:00Z,43.22,-95.83,29.0,17.0,160,15,,10.0,30.008858,,,TRUE,TRUE,,,,,,,CLR,,,,,,,,VFR,,,,,,,,,,,,SPECI,430.0
KSHD 021735Z AUTO 04014G21KT 10SM CLR 30/10 A3000 RMK AO2 T03020098,KSHD,2023-06-02T17:35:00Z,38.27,-78.9,30.2,9.8,40,14,21,10.0,30.0,,,TRUE,TRUE,,,,,,,CLR,,,,,,,,VFR,,,,,,,,,,,,METAR,360.0
KSGS 021735Z AUTO 14003KT 10SM VCTS SCT050 SCT070 29/15 A3005 RMK AO2 LTG DSNT S T02940149,KSGS,2023-06-02T17:35:00Z,44.87,-93.03,29.4,14.9,140,3,,10.0,30.050198,,,TRUE,TRUE,,,,,,VCTS,SCT,5000,SCT,7000,,,,,VFR,,,,,,,,,,,,METAR,250.0
KSFQ 021735Z AUTO 02007KT 10SM BKN026 OVC032 25/19 A2992 RMK AO2 T02540194,KSFQ,2023-06-02T17:35:00Z,36.68,-76.6,25.4,19.4,20,7,,10.0,29.920275,,,TRUE,TRUE,,,,,,,BKN,2600,OVC,3200,,,,,MVFR,,,,,,,,,,,,METAR,19.0
KSEZ 021735Z AUTO 18007KT 10SM CLR 24/04 A3005 RMK AO2,KSEZ,2023-06-02T17:35:00Z,34.85,-111.78,24.0,4.0,180,7,,10.0,30.050198,,,TRUE,TRUE,,,,,,,CLR,,,,,,,,VFR,,,,,,,,,,,,METAR,1455.0
KSEP 021735Z AUTO 18010KT 10SM SCT044 29/17 A2997 RMK AO2 T02870172,KSEP,2023-06-02T17:35:00Z,32.22,-98.17,28.7,17.2,180,10,,10.0,29.970472,,,TRUE,TRUE,,,,,,,SCT,4400,,,,,,,VFR,,,,,,,,,,,,SPECI,399.0
KSEF 021735Z AUTO 08005KT 10SM SCT039 BKN055 BKN065 31/21 A2976 RMK AO2 T03070209,KSEF,2023-06-02T17:35:00Z,27.45,-81.35,30.7,20.9,80,5,,10.0,29.760826,,,TRUE,TRUE,,,,,,,SCT,3900,BKN,5500,BKN,6500,,,VFR,,,,,,,,,,,,METAR,17.0
KSDC 021735Z AUTO 36005KT 10SM SCT120 27/13 A3002 RMK AO2,KSDC,2023-06-02T17:35:00Z,43.23,-77.12,27.0,13.0,360,5,,10.0,30.02067,,,TRUE,TRUE,,,,,,,SCT,12000,,,,,,,VFR,,,,,,,,,,,,SPECI,127.0
KSDA 021735Z AUTO 14010G17KT 8SM FEW055 SCT070 30/17 A2999 RMK AO2,KSDA,2023-06-02T17:35:00Z,40.75,-95.42,30.0,17.0,140,10,17,8.0,29.991142,,,TRUE,TRUE,,,,,,,FEW,5500,SCT,7000,,,,,VFR,,,,,,,,,,,,SPECI,293.0
KSCX 021735Z AUTO 02007G12KT 10SM BKN049 27/15 A2999 RMK A01,KSCX,2023-06-02T17:35:00Z,36.45,-84.58,27.0,15.0,20,7,12,10.0,29.991142,,,TRUE,TRUE,,,,,,,BKN,4900,,,,,,,VFR,,,,,,,,,,,,SPECI,462.0
KSCD 021735Z AUTO 05007KT 030V090 10SM SCT050 BKN090 BKN120 29/17 A2993 RMK AO2 T02870168,KSCD,2023-06-02T17:35:00Z,33.17,-86.3,28.7,16.8,50,7,,10.0,29.929134,,,TRUE,TRUE,,,,,,,SCT,5000,BKN,9000,BKN,12000,,,VFR,,,,,,,,,,,,SPECI,164.0
KSBS 021735Z AUTO 00000KT 7SM SCT014 BKN026 OVC032 08/08 A3008 RMK AO1 T00750075,KSBS,2023-06-02T17:35:00Z,40.52,-106.87,7.5,7.5,0,0,,7.0,30.079725,,,TRUE,TRUE,,,,,,,SCT,1400,BKN,2600,OVC,3200,,,MVFR,,,,,,,,,,,,SPECI,2097.0
KSBO 021735Z AUTO 05006KT 10SM SCT041 28/16 A2989 RMK AO2,KSBO,2023-06-02T17:35:00Z,32.62,-82.37,28.0,16.0,50,6,,10.0,29.890747,,,TRUE,TRUE,,,,,,,SCT,4100,,,,,,,VFR,,,,,,,,,,,,SPECI,98.0
KSAZ 021735Z AUTO 14008KT 113V193 10SM SCT039 29/17 A3004 RMK AO2,KSAZ,2023-06-02T17:35:00Z,46.37,-94.8,29.0,17.0,140,8,,10.0,30.041338,,,TRUE,TRUE,,,,,,,SCT,3900,,,,,,,VFR,,,,,,,,,,,,METAR,391.0
KSAR 021735Z AUTO 07006KT 10SM CLR 31/15 A3000 RMK AO2 T03050151,KSAR,2023-06-02T17:35:00Z,38.15,-89.7,30.5,15.1,70,6,,10.0,30.0,,,TRUE,TRUE,,,,,,,CLR,,,,,,,,VFR,,,,,,,,,,,,METAR,162.0
KSAA 021735Z AUTO 24009KT 10SM BKN030 OVC038 12/05 A3004 RMK AO2 LTG DSNT NE,KSAA,2023-06-02T17:35:00Z,41.45,-106.8,12.0,5.0,240,9,,10.0,30.041338,,,TRUE,TRUE,,,,,,,BKN,3000,OVC,3800,,,,,MVFR,,,,,,,,,,,,SPECI,2093.0
KS52 021735Z AUTO 00000KT 10SM OVC100 20/04 A3001 RMK AO2 T02030036,KS52,2023-06-02T17:35:00Z,48.42,-120.15,20.3,3.6,0,0,,10.0,30.008858,,,TRUE,TRUE,,,,,,,OVC,10000,,,,,,,VFR,,,,,,,,,,,,METAR,517.0
KS39 021735Z AUTO 03005KT 10SM CLR 18/00 A3009 RMK AO2,KS39,2023-06-02T17:35:00Z,44.28,-120.9,18.0,0.0,30,5,,10.0,30.088583,,,TRUE,TRUE,,,,,,,CLR,,,,,,,,VFR,,,,,,,,,,,,SPECI,987.0
KS33 021735Z AUTO 00000KT 10SM CLR A3010 RMK AO2,KS33,2023-06-02T17:35:00Z,44.67,-121.15,,,0,0,,10.0,30.100393,,,TRUE,TRUE,,,,,,,CLR,,,,,,,,VFR,,,,,,,,,,,,SPECI,739.0
KS32 021735Z AUTO 13009G14KT 9SM CLR 29/20 A2997 RMK AO2 TSNO,KS32,2023-06-02T17:35:00Z,47.42,-98.1,29.0,20.0,130,9,14,9.0,29.970472,,,TRUE,TRUE,,,TRUE,,,,CLR,,,,,,,,VFR,,,,,,,,,,,,SPECI,435.0
KS25 021735Z AUTO 07008KT 10SM SCT085 23/20 A2993 RMK AO2,KS25,2023-06-02T17:35:00Z,47.8,-103.25,23.0,20.0,70,8,,10.0,29.929134,,,TRUE,TRUE,,,,,,,SCT,8500,,,,,,,VFR,,,,,,,,,,,,METAR,632.0
KS24 021735Z AUTO 05012KT 10SM CLR 30/14 A3005 RMK AO2,KS24,2023-06-02T17:35:00Z,41.3,-83.03,30.0,14.0,50,12,,10.0,30.050198,,,TRUE,TRUE,,,,,,,CLR,,,,,,,,VFR,,,,,,,,,,,,METAR,203.0
KS12 021735Z AUTO 00000KT 10SM CLR 15/09 A3013 RMK AO2,KS12,2023-06-02T17:35:00Z,,,15.0,9.0,0,0,,10.0,30.129921,,,TRUE,TRUE,,,,,,,CLR,,,,,,,,VFR,,,,,,,,,,,,METAR,
KRZT 021735Z AUTO 09009KT 10SM CLR 31/05 A3001 RMK AO2 PWINO,KRZT,2023-06-02T17:35:00Z,39.43,-83.02,31.0,5.0,90,9,,10.0,30.008858,,,TRUE,TRUE,,,,,TRUE,,CLR,,,,,,,,VFR,,,,,,,,,,,,SPECI,217.0
KRZR 021735Z AUTO VRB04KT 10SM CLR 28/19 A2992 RMK A01,KRZR,2023-06-02T17:35:00Z,35.22,-84.8,28.0,19.0,0,4,,10.0,29.920275,,,TRUE,TRUE,,,,,,,CLR,,,,,,,,VFR,,,,,,,,,,,,SPECI,259.0
KRZN 021735Z AUTO 18005KT 10SM CLR 30/15 A3008 RMK AO2 T03030147,KRZN,2023-06-02T17:35:00Z,45.82,-92.37,30.3,14.7,180,5,,10.0,30.079725,,,TRUE,TRUE,,,,,,,CLR,,,,,,,,VFR,,,,,,,,,,,,METAR,301.0
KRZL 021735Z AUTO 05012G17KT 10SM CLR 31/05 A3006 RMK AO2,KRZL,2023-06-02T17:35:00Z,40.95,-87.18,31.0,5.0,50,12,17,10.0,30.059055,,,TRUE,TRUE,,,,,,,CLR,,,,,,,,VFR,,,,,,,,,,,,SPECI,210.0
KRYW 021735Z AUTO 15006KT 100V190 10SM CLR 29/18 A2995 RMK AO2 T02880178,KRYW,2023-06-02T17:35:00Z,30.5,-97.97,28.8,17.8,150,6,,10.0,29.949802,,,TRUE,TRUE,,,,,,,CLR,,,,,,,,VFR,,,,,,,,,,,,SPECI,370.0
KRYN 021735Z AUTO 06009KT 040V110 10SM CLR 27/01 A2993 RMK AO2,KRYN,2023-06-02T17:35:00Z,32.15,-111.17,27.0,1.0,60,9,,10.0,29.929134,,,TRUE,TRUE,,,,,,,CLR,,,,,,,,VFR,,,,,,,,,,,,SPECI,731.0
KRWV 021735Z AUTO 18007KT 140V200 10SM CLR 31/17 A2993 RMK AO2 T03060173,KRWV,2023-06-02T17:35:00Z,30.52,-96.7,30.6,17.3,180,7,,10.0,29.929134,,,TRUE,TRUE,,,,,,,CLR,,,,,,,,VFR,,,,,,,,,,,,SPECI,116.0
KRVL 021735Z AUTO VRB06KT 9SM FEW085 FEW110 33/10 A2996 RMK AO2,KRVL,2023-06-02T17:35:00Z,40.68,-77.63,33.0,10.0,0,6,,9.0,29.958662,,,TRUE,TRUE,,,,,,,FEW,8500,FEW,11000,,,,,VFR,,,,,,,,,,,,METAR,250.0
KRVJ 021735Z AUTO 02008KT 10SM SCT042 BKN049 BKN065 28/18 A2986 RMK AO2 T02760178,KRVJ,2023-06-02T17:35:00Z,32.07,-82.15,27.6,17.8,20,8,,10.0,29.861221,,,TRUE,TRUE,,,,,,,SCT,4200,BKN,4900,BKN,6500,,,VFR,,,,,,,,,,,,METAR,60.0
KRUG 021735Z AUTO 15009G16KT 10SM CLR 28/18 A2994 RMK AO2,KRUG,2023-06-02T17:35:00Z,48.38,-100.02,28.0,18.0,150,9,16,10.0,29.940945,,,TRUE,TRUE,,,,,,,CLR,,,,,,,,VFR,,,,,,,,,,,,METAR,469.0
KRTS 021735Z AUTO 00000KT 10SM CLR 16/02 A3011 RMK AO2,KRTS,2023-06-02T17:35:00Z,39.67,-119.88,16.0,2.0,0,0,,10.0,30.109253,,,TRUE,TRUE,,,,,,,CLR,,,,,,,,VFR,,,,,,,,,,,,SPECI,1537.0
KRSW 021735Z 10SM SCT043 31/22 A2974 RMK AO2 LTG DSNT SE AND S T03110222,KRSW,2023-06-02T17:35:00Z,26.53,-81.75,31.1,22.2,,,,10.0,29.740158,,,,TRUE,,,,,,,SCT,4300,,,,,,,VFR,,,,,,,,,,,,SPECI,8.0
KRSN 021735Z AUTO 00000KT 10SM FEW047 31/19 A2994 RMK AO2 T03070193 $,KRSN,2023-06-02T17:35:00Z,32.52,-92.58,30.7,19.3,0,0,,10.0,29.940945,,,TRUE,TRUE,TRUE,,,,,,FEW,4700,,,,,,,VFR,,,,,,,,,,,,METAR,86.0
KRRT 021735Z AUTO 05008KT 10SM SCT040 SCT046 24/22 A3004 RMK AO2,KRRT,2023-06-02T17:35:00Z,48.93,-95.33,24.0,22.0,50,8,,10.0,30.041338,,,TRUE,TRUE,,,,,,,SCT,4000,SCT,4600,,,,,VFR,,,,,,,,,,,,SPECI,327.0
KRQO 021735Z AUTO 17012G19KT 4SM HZ SCT040 SCT047 28/19 A2996 RMK AO2 T02830193,KRQO,2023-06-02T17:35:00Z,35.47,-98.0,28.3,19.3,170,12,19,4.0,29.958662,,,TRUE,TRUE,,,,,,HZ,SCT,4000,SCT,4700,,,,,MVFR,,,,,,,,,,,,METAR,431.0
KRQB 021735Z AUTO 00000KT 10SM CLR 30/07 A3010 RMK AO2 T03030066,KRQB,2023-06-02T17:35:00Z,43.72,-85.5,30.3,6.6,0,0,,10.0,30.100393,,,TRUE,TRUE,,,,,,,CLR,,,,,,,,VFR,,,,,,,,,,,,SPECI,282.0
KRPJ 021735Z AUTO 05004KT 10SM CLR 30/16 A3006 RMK AO2 T03040155 TSNO,KRPJ,2023-06-02T17:35:00Z,41.88,-89.08,30.4,15.5,50,4,,10.0,30.059055,,,TRUE,TRUE,,,TRUE,,,,CLR,,,,,,,,VFR,,,,,,,,,,,,SPECI,234.0
KRPH 021735Z AUTO 13008G15KT 100V180 10SM SCT046 BKN070 BKN340 30/19 A2992 RMK AO2 T02970186 $,KRPH,2023-06-02T17:35:00Z,33.12,-98.55,29.7,18.6,130,8,15,10.0,29.920275,,,TRUE,TRUE,TRUE,,,,,,SCT,4600,BKN,7000,BKN,34000,,,VFR,,,,,,,,,,,,METAR,341.0
KRPD 021735Z AUTO 10004KT 10SM SCT095 31/19 A3011 RMK AO2 LTG DSNT SW T03050190,KRPD,2023-06-02T17:35:00Z,45.42,-91.77,30.5,19.0,100,4,,10.0,30.109253,,,TRUE,TRUE,,,,,,,SCT,9500,,,,,,,VFR,,,,,,,,,,,,SPECI,334.0
KROX 021735Z AUTO 15005KT 10SM SCT039 28/18 A3003 RMK AO2,KROX,2023-06-02T17:35:00Z,48.85,-95.7,28.0,18.0,150,5,,10.0,30.029528,,,TRUE,TRUE,,,,,,,SCT,3900,,,,,,,VFR,,,,,,,,,,,,METAR,320.0
KROS 021735Z AUTO 15006KT 10SM SCT049 32/18 A3007 RMK AO2 LTG DSNT S T03150176,KROS,2023-06-02T17:35:00Z,45.7,-92.95,31.5,17.6,150,6,,10.0,30.070866,,,TRUE,TRUE,,,,,,,SCT,4900,,,,,,,VFR,,,,,,,,,,,,METAR,282.0
KRNH 021735Z AUTO 10008KT 10SM SCT050 SCT065 SCT080 30/21 A3007 RMK AO2 T02990207,KRNH,2023-06-02T17:35:00Z,45.15,-92.53,29.9,20.7,100,8,,10.0,30.070866,,,TRUE,TRUE,,,,,,,SCT,5000,SCT,6500,SCT,8000,,,VFR,,,,,,,,,,,,METAR,302.0
KRND 021735Z AUTO 14009KT 10SM SCT040 29/20 A2990 RMK AO2 SLP117 TSNO $,KRND,2023-06-02T17:35:00Z,29.53,-98.27,29.0,20.0,140,9,,10.0,29.899607,1011.7,,TRUE,TRUE,TRUE,,TRUE,,,,SCT,4000,,,,,,,VFR,,,,,,,,,,,,METAR,224.0
KRNC 021735Z AUTO 04004G12KT 10SM FEW050 29/16 A2995 RMK A01,KRNC,2023-06-02T17:35:00Z,35.7,-85.85,29.0,16.0,40,4,12,10.0,29.949802,,,TRUE,TRUE,,,,,,,FEW,5000,,,,,,,VFR,,,,,,,,,,,,SPECI,310.0
KRMY 021735Z AUTO 07005KT 10SM CLR 32/06 A3009 RMK AO2 T03150060,KRMY,2023-06-02T17:35:00Z,42.25,-84.95,31.5,6.0,70,5,,10.0,30.088583,,,TRUE,TRUE,,,,,,,CLR,,,,,,,,VFR,,,,,,,,,,,,SPECI,285.0
KRMN 021735Z AUTO 00000KT 10SM CLR 30/12 A2994 RMK AO2 T03010117,KRMN,2023-06-02T17:35:00Z,38.4,-77.45,30.1,11.7,0,0,,10.0,29.940945,,,TRUE,TRUE,,,,,,,CLR,,,,,,,,VFR,,,,,,,,,,,,METAR,50.0
KRLD 021735Z AUTO 19005KT 10SM CLR 22/07 A3003 RMK AO2 T02240065,KRLD,2023-06-02T17:35:00Z,46.3,-119.3,22.4,6.5,190,5,,10.0,30.029528,,,TRUE,TRUE,,,,,,,CLR,,,,,,,,VFR,,,,,,,,,,,,SPECI,118.0
KRKW 021735Z AUTO VRB05KT 10SM SCT043 BKN055 BKN065 26/17 A2998 RMK A01,KRKW,2023-06-02T17:35:00Z,35.92,-84.68,26.0,17.0,0,5,,10.0,29.97933,,,TRUE,TRUE,,,,,,,SCT,4300,BKN,5500,BKN,6500,,,VFR,,,,,,,,,,,,SPECI,505.0
KRKR 021735Z AUTO 07004KT 10SM SCT055 30/16 A2996 RMK AO2,KRKR,2023-06-02T17:35:00Z,35.02,-94.62,30.0,16.0,70,4,,10.0,29.958662,,,TRUE,TRUE,,,,,,,SCT,5500,,,,,,,VFR,,,,,,,,,,,,SPECI,136.0
KRGK 021735Z AUTO 11006KT 10SM TS SCT100 29/18 A3005 RMK AO2 LTG DSNT W,KRGK,2023-06-02T17:35:00Z,44.58,-92.48,29.0,18.0,110,6,,10.0,30.050198,,,TRUE,TRUE,,,,,,TS,SCT,10000,,,,,,,VFR,,,,,,,,,,,,METAR,238.0
KRGA 021735Z AUTO 04005KT 10SM CLR 30/12 A3001 RMK AO2,KRGA,2023-06-02T17:35:00Z,37.63,-84.33,30.0,12.0,40,5,,10.0,30.008858,,,TRUE,TRUE,,,,,,,CLR,,,,,,,,VFR,,,,,,,,,,,,METAR,301.0
KRFI 021735Z AUTO 12007KT 10SM BKN049 BKN060 BKN090 32/19 A2994 RMK AO2 T03150191,KRFI,2023-06-02T17:35:00Z,32.15,-94.85,31.5,19.1,120,7,,10.0,29.940945,,,TRUE,TRUE,,,,,,,BKN,4900,BKN,6000,BKN,9000,,,VFR,,,,,,,,,,,,SPECI,133.0
KREG 021735Z AUTO 08004KT 10SM SCT048 31/18 A2990 RMK AO2 T03120182,KREG,2023-06-02T17:35:00Z,30.17,-90.93,31.2,18.2,80,4,,10.0,29.899607,,,TRUE,TRUE,,,,,,,SCT,4800,,,,,,,VFR,,,,,,,,,,,,SPECI,3.0
KRDK 021735Z AUTO 16011G17KT FEW050 FEW060 31/17 A3001 RMK AO2,KRDK,2023-06-02T17:35:00Z,41.02,-95.27,31.0,17.0,160,11,17,,30.008858,,,TRUE,TRUE,,,,,,,FEW,5000,FEW,6000,,,,,,,,,,,,,,,,,SPECI,317.0
KRCX 021735Z AUTO 00000KT 10SM CLR 29/20 A3012 RMK AO2 LTG DSNT NE S AND SW T02900197,KRCX,2023-06-02T17:35:00Z,45.5,-91.0,29.0,19.7,0,0,,10.0,30.121063,,,TRUE,TRUE,,,,,,,CLR,,,,,,,,VFR,,,,,,,,,,,,SPECI,373.0
KRCV 021735Z AUTO 25009G14KT 10SM SCT043 BKN070 OVC085 12/01 A3016 RMK AO2 LTG DSNT SE T01220010,KRCV,2023-06-02T17:35:00Z,37.72,-106.35,12.2,1.0,250,9,14,10.0,30.159449,,,TRUE,TRUE,,,,,,,SCT,4300,BKN,7000,OVC,8500,,,VFR,,,,,,,,,,,,METAR,2418.0
KRCR 021735Z AUTO 08010KT 10SM CLR 31/09 A3005 RMK AO2,KRCR,2023-06-02T17:35:00Z,41.07,-86.18,31.0,9.0,80,10,,10.0,30.050198,,,TRUE,TRUE,,,,,,,CLR,,,,,,,,VFR,,,,,,,,,,,,SPECI,240.0
KRCE 021735Z AUTO 14012KT 120V180 10SM SCT043 SCT050 29/19 A2995 RMK AO2,KRCE,2023-06-02T17:35:00Z,35.48,-97.82,29.0,19.0,140,12,,10.0,29.949802,,,TRUE,TRUE,,,,,,,SCT,4300,SCT,5000,,,,,VFR,,,,,,,,,,,,METAR,412.0
KRBW 021735Z AUTO 01010G16KT 10SM BKN033 BKN040 24/16 A2989 RMK AO2,KRBW,2023-06-02T17:35:00Z,32.92,-80.63,24.0,16.0,10,10,16,10.0,29.890747,,,TRUE,TRUE,,,,,,,BKN,3300,BKN,4000,,,,,VFR,,,,,,,,,,,,METAR,30.0
KRBO 021735Z AUTO 13010KT 10SM SCT034 SCT043 A2990 RMK AO2,KRBO,2023-06-02T17:35:00Z,27.78,-97.68,,,130,10,,10.0,29.899607,,,TRUE,TRUE,,,,,,,SCT,3400,SCT,4300,,,,,VFR,,,,,,,,,,,,METAR,24.0
KRAW 021735Z AUTO 18006KT 10SM SCT050 SCT060 30/17 A3002 RMK AO2,KRAW,2023-06-02T17:35:00Z,38.35,-93.35,30.0,17.0,180,6,,10.0,30.02067,,,TRUE,TRUE,,,,,,,SCT,5000,SCT,6000,,,,,VFR,,,,,,,,,,,,SPECI,285.0
KRAS 021735Z AUTO 13010KT 10SM SCT025 29/22 A2992 RMK AO2 T02930216,KRAS,2023-06-02T17:35:00Z,27.82,-97.08,29.3,21.6,130,10,,10.0,29.920275,,,TRUE,TRUE,,,,,,,SCT,2500,,,,,,,VFR,,,,,,,,,,,,SPECI,3.0
KPZZ 021735Z AUTO 05017KT 10SM CLR 27/20 A2990 RMK A01,KPZZ,2023-06-02T17:35:00Z,28.43,-91.03,27.0,20.0,50,17,,10.0,29.899607,,,TRUE,TRUE,,,,,,,CLR,,,,,,,,VFR,,,,,,,,,,,,METAR,25.0
KPZQ 021735Z AUTO 04003KT 10SM CLR 26/13 A3015 RMK AO2 T02550126,KPZQ,2023-06-02T17:35:00Z,45.4,-83.82,25.5,12.6,40,3,,10.0,30.15059,,,TRUE,TRUE,,,,,,,CLR,,,,,,,,VFR,,,,,,,,,,,,METAR,199.0
KPYX 021735Z AUTO 17012KT 10SM BKN017 OVC023 18/14 A2996 RMK AO2 T01810137,KPYX,2023-06-02T17:35:00Z,36.42,-100.75,18.1,13.7,170,12,,10.0,29.958662,,,TRUE,TRUE,,,,,,,BKN,1700,OVC,2300,,,,,MVFR,,,,,,,,,,,,SPECI,890.0
KPXE 021735Z AUTO 07007KT 020V090 10SM SCT043 SCT050 BKN065 28/17 A2990 RMK AO2 T02810169,KPXE,2023-06-02T17:35:00Z,32.52,-83.77,28.1,16.9,70,7,,10.0,29.899607,,,TRUE,TRUE,,,,,,,SCT,4300,SCT,5000,BKN,6500,,,VFR,,,,,,,,,,,,SPECI,126.0
KPWD 021735Z AUTO 07010KT 8SM BKN070 20/18 A2995 RMK AO2,KPWD,2023-06-02T17:35:00Z,48.78,-104.52,20.0,18.0,70,10,,8.0,29.949802,,,TRUE,TRUE,,,,,,,BKN,7000,,,,,,,VFR,,,,,,,,,,,,METAR,690.0
KPWC 021735Z AUTO 18012G19KT 10SM SCT042 28/17 A3008 RMK AO2,KPWC,2023-06-02T17:35:00Z,46.72,-94.38,28.0,17.0,180,12,19,10.0,30.079725,,,TRUE,TRUE,,,,,,,SCT,4200,,,,,,,VFR,,,,,,,,,,,,METAR,394.0
KPVW 021735Z AUTO 17008KT 10SM SCT009 BKN014 OVC033 21/18 A2997 RMK AO2 LTG DSNT W T02080175,KPVW,2023-06-02T17:35:00Z,34.17,-101.72,20.8,17.5,170,8,,10.0,29.970472,,,TRUE,TRUE,,,,,,,SCT,900,BKN,1400,OVC,3300,,,MVFR,,,,,,,,,,,,METAR,1029.0
KPVJ 021735Z AUTO 17005KT 10SM SCT046 SCT055 SCT090 29/18 A2995 RMK AO2 T02910178,KPVJ,2023-06-02T17:35:00Z,34.72,-97.22,29.1,17.8,170,5,,10.0,29.949802,,,TRUE,TRUE,,,,,,,SCT,4600,SCT,5500,SCT,9000,,,VFR,,,,,,,,,,,,SPECI,287.0
KPVF 021735Z AUTO 28004KT 10SM CLR 20/06 A3002 RMK AO1,KPVF,2023-06-02T17:35:00Z,38.72,-120.75,20.0,6.0,280,4,,10.0,30.02067,,,TRUE,TRUE,,,,,,,CLR,,,,,,,,VFR,,,,,,,,,,,,SPECI,788.0
KPVE 021735Z AUTO 03004G10KT 10SM CLR 30/17 A2995 RMK A01,KPVE,2023-06-02T17:35:00Z,35.65,-88.2,30.0,17.0,30,4,10,10.0,29.949802,,,TRUE,TRUE,,,,,,,CLR,,,,,,,,VFR,,,,,,,,,,,,SPECI,146.0
KPVB 021735Z AUTO 00000KT 10SM CLR 30/11 A3008 RMK AO1 T03020110,KPVB,2023-06-02T17:35:00Z,42.68,-90.43,30.2,11.0,0,0,,10.0,30.079725,,,TRUE,TRUE,,,,,,,CLR,,,,,,,,VFR,,,,,,,,,,,,SPECI,311.0
KPUJ 021735Z AUTO 00000KT BKN049 BKN060 26/15 A2995 RMK AO2 PWINO,KPUJ,2023-06-02T17:35:00Z,33.92,-84.93,26.0,15.0,0,0,,,29.949802,,,TRUE,TRUE,,,,,TRUE,,BKN,4900,BKN,6000,,,,,,,,,,,,,,,,,SPECI,385.0
KPTT 021735Z AUTO 30034G38KT 1 1/4SM +VCTSRA SCT006 BKN009 OVC021 17/16 A3001 RMK AO2 LTG DSNT ALQS P0025 T01670164,KPTT,2023-06-02T17:35:00Z,37.7,-98.75,16.7,16.4,300,34,38,1.25,30.008858,,,TRUE,TRUE,,,,,,VCTS +RA,SCT,600,BKN,900,OVC,2100,,,IFR,,,,,,0.25,,,,,,SPECI,594.0
KPTS 021735Z AUTO 15006KT 10SM SCT049 29/18 A2999 RMK AO2 T02880183 PWINO,KPTS,2023-06-02T17:35:00Z,37.45,-94.73,28.8,18.3,150,6,,10.0,29.991142,,,TRUE,TRUE,,,,,TRUE,,SCT,4900,,,,,,,VFR,,,,,,,,,,,,SPECI,286.0
KPTD 021735Z AUTO 02004KT 10SM CLR 29/16 A2998 RMK AO2,KPTD,2023-06-02T17:35:00Z,44.68,-74.95,29.0,16.0,20,4,,10.0,29.97933,,,TRUE,TRUE,,,,,,,CLR,,,,,,,,VFR,,,,,,,,,,,,METAR,144.0
KPTB 021735Z AUTO 05007KT 10SM CLR 28/12 A2994 RMK AO2 T02770120,KPTB,2023-06-02T17:35:00Z,37.17,-77.52,27.7,12.0,50,7,,10.0,29.940945,,,TRUE,TRUE,,,,,,,CLR,,,,,,,,VFR,,,,,,,,,,,,METAR,56.0
KPSO 021735Z AUTO 12004KT 10SM OVC070 13/02 A3016 RMK AO2 T01300019,KPSO,2023-06-02T17:35:00Z,37.28,-107.05,13.0,1.9,120,4,,10.0,30.159449,,,TRUE,TRUE,,,,,,,OVC,7000,,,,,,,VFR,,,,,,,,,,,,SPECI,2332.0
KPSN 021735Z AUTO 00000KT 10SM FEW060 FEW075 SCT100 30/21 A2992 RMK AO2,KPSN,2023-06-02T17:35:00Z,31.78,-95.7,30.0,21.0,0,0,,10.0,29.920275,,,TRUE,TRUE,,,,,,,FEW,6000,FEW,7500,SCT,10000,,,VFR,,,,,,,,,,,,SPECI,124.0
KPSK 021735Z AUTO 05011G18KT 10SM CLR 26/11 A3003 RMK AO2 T02580108,KPSK,2023-06-02T17:35:00Z,37.13,-80.67,25.8,10.8,50,11,18,10.0,30.029528,,,TRUE,TRUE,,,,,,,CLR,,,,,,,,VFR,,,,,,,,,,,,METAR,629.0
KPRS 021735Z AUTO 26010G15KT 220V300 10SM CLR 32/06 A2990 RMK AO2 T03220058,KPRS,2023-06-02T17:35:00Z,29.63,-104.35,32.2,5.8,260,10,15,10.0,29.899607,,,TRUE,TRUE,,,,,,,CLR,,,,,,,,VFR,,,,,,,,,,,,SPECI,890.0
KPRO 021735Z AUTO 14004KT 10SM CLR 29/20 A3004 RMK AO2 T02910197,KPRO,2023-06-02T17:35:00Z,41.83,-94.17,29.1,19.7,140,4,,10.0,30.041338,,,TRUE,TRUE,,,,,,,CLR,,,,,,,,VFR,,,,,,,,,,,,METAR,308.0
KPRG 021735Z AUTO 06006G14KT 10SM CLR 32/10 A3003 RMK AO2 T03190102,KPRG,2023-06-02T17:35:00Z,39.7,-87.67,31.9,10.2,60,6,14,10.0,30.029528,,,TRUE,TRUE,,,,,,,CLR,,,,,,,,VFR,,,,,,,,,,,,SPECI,197.0
KPPQ 021735Z AUTO 10006KT 10SM CLR 32/15 A3003 RMK AO2 T03200149,KPPQ,2023-06-02T17:35:00Z,39.63,-90.78,32.0,14.9,100,6,,10.0,30.029528,,,TRUE,TRUE,,,,,,,CLR,,,,,,,,VFR,,,,,,,,,,,,SPECI,215.0
KPPO 021735Z AUTO 08008KT 10SM CLR 31/07 A3008 RMK AO2 T03110071,KPPO,2023-06-02T17:35:00Z,41.57,-86.73,31.1,7.1,80,8,,10.0,30.079725,,,TRUE,TRUE,,,,,,,CLR,,,,,,,,VFR,,,,,,,,,,,,METAR,242.0
KPPA 021735Z AUTO 15010KT 23/19 A2998 RMK AO2 T02250189 PWINO,KPPA,2023-06-02T17:35:00Z,35.62,-101.0,22.5,18.9,150,10,,,29.97933,,,TRUE,TRUE,,,,,TRUE,,,,,,,,,,,,,,,,,,,,,,SPECI,989.0
KPOY 021735Z AUTO 32017G21KT 10SM -RA OVC009 11/10 A2997 RMK AO2,KPOY,2023-06-02T17:35:00Z,44.87,-108.8,11.0,10.0,320,17,21,10.0,29.970472,,,TRUE,TRUE,,,,,,-RA,OVC,900,,,,,,,IFR,,,,,,,,,,,,SPECI,1547.0
KPOV 021735Z AUTO 06010G16KT 020V080 10SM CLR 30/05 A3004 RMK AO2 T02950050 PWINO,KPOV,2023-06-02T17:35:00Z,41.22,-81.25,29.5,5.0,60,10,16,10.0,30.041338,,,TRUE,TRUE,,,,,TRUE,,CLR,,,,,,,,VFR,,,,,,,,,,,,METAR,363.0
KPNT 021735Z AUTO 05006KT 10SM SCT090 33/07 A3004 RMK AO2 T03280065,KPNT,2023-06-02T17:35:00Z,40.92,-88.62,32.8,6.5,50,6,,10.0,30.041338,,,TRUE,TRUE,,,,,,,SCT,9000,,,,,,,VFR,,,,,,,,,,,,SPECI,199.0
KPNM 021735Z AUTO 16008KT 10SM CLR 28/18 A3008 RMK AO2 LTG DSNT SE,KPNM,2023-06-02T17:35:00Z,45.53,-93.6,28.0,18.0,160,8,,10.0,30.079725,,,TRUE,TRUE,,,,,,,CLR,,,,,,,,VFR,,,,,,,,,,,,METAR,298.0
KPNA 021735Z AUTO 32008KT 10SM BKN021 BKN031 OVC040 11/07 A3005 RMK AO2,KPNA,2023-06-02T17:35:00Z,42.8,-109.8,11.0,7.0,320,8,,10.0,30.050198,,,TRUE,TRUE,,,,,,,BKN,2100,BKN,3100,OVC,4000,,,MVFR,,,,,,,,,,,,SPECI,2158.0
KPMV 021735Z AUTO 15009KT 10SM CLR 29/19 A3001 RMK AO2 T02930186,KPMV,2023-06-02T17:35:00Z,40.95,-95.92,29.3,18.6,150,9,,10.0,30.008858,,,TRUE,TRUE,,,,,,,CLR,,,,,,,,VFR,,,,,,,,,,,,METAR,365.0
KPMU 021735Z AUTO VRB04KT 10SM CLR 31/19 A2994 RMK AO2,KPMU,2023-06-02T17:35:00Z,34.37,-89.9,31.0,19.0,0,4,,10.0,29.940945,,,TRUE,TRUE,,,,,,,CLR,,,,,,,,VFR,,,,,,,,,,,,METAR,67.0
KPLU 021735Z AUTO VRB03KT 10SM CLR 16/08 A3013 RMK AO2,KPLU,2023-06-02T17:35:00Z,47.1,-122.28,16.0,8.0,0,3,,10.0,30.129921,,,TRUE,TRUE,,,,,,,CLR,,,,,,,,VFR,,,,,,,,,,,,SPECI,164.0
KPLR 021735Z AUTO 06004KT 10SM CLR 29/18 A2993 RMK A01,KPLR,2023-06-02T17:35:00Z,33.57,-86.25,29.0,18.0,60,4,,10.0,29.929134,,,TRUE,TRUE,,,,,,,CLR,,,,,,,,VFR,,,,,,,,,,,,METAR,145.0
KPLD 021735Z AUTO 08007KT 10SM CLR A3004 RMK AO2,KPLD,2023-06-02T17:35:00Z,40.45,-84.98,,,80,7,,10.0,30.041338,,,TRUE,TRUE,,,,,,,CLR,,,,,,,,VFR,,,,,,,,,,,,METAR,282.0
KPKV 021735Z AUTO 12008KT 10SM CLR 31/22 A2992 RMK AO2 T03100219,KPKV,2023-06-02T17:35:00Z,28.65,-96.68,31.0,21.9,120,8,,10.0,29.920275,,,TRUE,TRUE,,,,,,,CLR,,,,,,,,VFR,,,,,,,,,,,,METAR,8.0
KPJC 021735Z AUTO 00000KT 10SM BKN075 31/08 A3001 RMK AO2,KPJC,2023-06-02T17:35:00Z,40.8,-80.17,31.0,8.0,0,0,,10.0,30.008858,,,TRUE,TRUE,,,,,,,BKN,7500,,,,,,,VFR,,,,,,,,,,,,METAR,273.0
KPIM 021735Z AUTO 09007KT 10SM SCT049 SCT060 29/15 A2992 RMK AO2 T02910152,KPIM,2023-06-02T17:35:00Z,32.83,-84.88,29.1,15.2,90,7,,10.0,29.920275,,,TRUE,TRUE,,,,,,,SCT,4900,SCT,6000,,,,,VFR,,,,,,,,,,,,METAR,274.0
KPHT 021735Z AUTO 09007KT 040V130 10SM FEW050 30/18 A2996 RMK A01,KPHT,2023-06-02T17:35:00Z,36.33,-88.38,30.0,18.0,90,7,,10.0,29.958662,,,TRUE,TRUE,,,,,,,FEW,5000,,,,,,,VFR,,,,,,,,,,,,SPECI,172.0
KPHN 021735Z AUTO 01007KT 350V050 10SM CLR 28/10 A3010 RMK AO2,KPHN,2023-06-02T17:35:00Z,42.92,-82.52,28.0,10.0,10,7,,10.0,30.100393,,,TRUE,TRUE,,,,,,,CLR,,,,,,,,VFR,,,,,,,,,,,,SPECI,195.0
KPEZ 021735Z AUTO 11009G15KT 10SM CLR 31/20 A2991 RMK AO2 T03090203,KPEZ,2023-06-02T17:35:00Z,28.95,-98.52,30.9,20.3,110,9,15,10.0,29.911417,,,TRUE,TRUE,,,,,,,CLR,,,,,,,,VFR,,,,,,,,,,,,SPECI,126.0
KPEX 021735Z AUTO 15008G14KT 10SM BKN110 28/18 A3005 RMK AO2,KPEX,2023-06-02T17:35:00Z,45.37,-94.73,28.0,18.0,150,8,14,10.0,30.050198,,,TRUE,TRUE,,,,,,,BKN,11000,,,,,,,VFR,,,,,,,,,,,,SPECI,359.0
KPEQ 021735Z AUTO 27010KT 10SM CLR 29/15 A2985 RMK AO2 T02940147,KPEQ,2023-06-02T17:35:00Z,31.38,-103.52,29.4,14.7,270,10,,10.0,29.84941,,,TRUE,TRUE,,,,,,,CLR,,,,,,,,VFR,,,,,,,,,,,,METAR,794.0
KPEA 021735Z AUTO 15007KT 10SM CLR 29/20 A3005 RMK AO2 T02890196,KPEA,2023-06-02T17:35:00Z,41.4,-92.95,28.9,19.6,150,7,,10.0,30.050198,,,TRUE,TRUE,,,,,,,CLR,,,,,,,,VFR,,,,,,,,,,,,SPECI,264.0
KPDC 021735Z AUTO 00000KT 10SM CLR 29/17 A3006 RMK AO2 T02920170,KPDC,2023-06-02T17:35:00Z,43.02,-91.12,29.2,17.0,0,0,,10.0,30.059055,,,TRUE,TRUE,,,,,,,CLR,,,,,,,,VFR,,,,,,,,,,,,SPECI,201.0
KPCZ 021735Z AUTO 00000KT 10SM CLR 31/14 A3011 RMK AO2 T03050143,KPCZ,2023-06-02T17:35:00Z,44.33,-89.02,30.5,14.3,0,0,,10.0,30.109253,,,TRUE,TRUE,,,,,,,CLR,,,,,,,,VFR,,,,,,,,,,,,METAR,248.0
KPCW 021735Z AUTO 05008KT 10SM CLR 28/14 A3005 RMK AO2,KPCW,2023-06-02T17:35:00Z,41.52,-82.87,28.0,14.0,50,8,,10.0,30.050198,,,TRUE,TRUE,,,,,,,CLR,,,,,,,,VFR,,,,,,,,,,,,SPECI,179.0
KPCM 021735Z AUTO 02005KT 7SM -RA SCT026 BKN038 OVC047 27/25 A2978 RMK AO2 P0011,KPCM,2023-06-02T17:35:00Z,28.0,-82.17,27.0,25.0,20,5,,7.0,29.778543,,,TRUE,TRUE,,,,,,-RA,SCT,2600,BKN,3800,OVC,4700,,,VFR,,,,,,0.11,,,,,,METAR,43.0
KPBX 021735Z AUTO 05008KT 10SM CLR 28/09 A3001 RMK AO2 T02800091,KPBX,2023-06-02T17:35:00Z,37.57,-82.57,28.0,9.1,50,8,,10.0,30.008858,,,TRUE,TRUE,,,,,,,CLR,,,,,,,,VFR,,,,,,,,,,,,METAR,447.0
KPBH 021735Z AUTO 09005KT 10SM CLR 28/17 A3012 RMK AO2 LTG DSNT E T02820174,KPBH,2023-06-02T17:35:00Z,45.7,-90.4,28.2,17.4,90,5,,10.0,30.121063,,,TRUE,TRUE,,,,,,,CLR,,,,,,,,VFR,,,,,,,,,,,,SPECI,445.0
KPAN 021735Z AUTO 22008G14KT 10SM CLR 22/02 A3008 RMK AO2 PWINO TSNO,KPAN,2023-06-02T17:35:00Z,34.25,-111.33,22.0,2.0,220,8,14,10.0,30.079725,,,TRUE,TRUE,,,TRUE,,TRUE,,CLR,,,,,,,,VFR,,,,,,,,,,,,SPECI,1575.0
KOZW 021735Z AUTO 35004KT 10SM CLR 31/09 A3010 RMK AO2 T03120093,KOZW,2023-06-02T17:35:00Z,42.62,-83.98,31.2,9.3,350,4,,10.0,30.100393,,,TRUE,TRUE,,,,,,,CLR,,,,,,,,VFR,,,,,,,,,,,,METAR,288.0
KOZS 021735Z AUTO 18004KT 10SM SCT049 BKN065 30/15 A3003 RMK AO2,KOZS,2023-06-02T17:35:00Z,37.97,-92.68,30.0,15.0,180,4,,10.0,30.029528,,,TRUE,TRUE,,,,,,,SCT,4900,BKN,6500,,,,,VFR,,,,,,,,,,,,METAR,321.0
KOZA 021735Z AUTO 18012KT 10SM BKN026 OVC036 25/17 A2996 RMK AO2,KOZA,2023-06-02T17:35:00Z,30.73,-101.2,25.0,17.0,180,12,,10.0,29.958662,,,TRUE,TRUE,,,,,,,BKN,2600,OVC,3600,,,,,MVFR,,,,,,,,,,,,SPECI,721.0
KOYM 021735Z AUTO 03005KT 10SM SCT085 BKN110 29/08 A3008 RMK AO2 LTG DSNT E PWINO,KOYM,2023-06-02T17:35:00Z,41.42,-78.5,29.0,8.0,30,5,,10.0,30.079725,,,TRUE,TRUE,,,,,TRUE,,SCT,8500,BKN,11000,,,,,VFR,,,,,,,,,,,,METAR,582.0
KOXV 021735Z AUTO 12006KT 10SM CLR 29/19 A3004 RMK AO2,KOXV,2023-06-02T17:35:00Z,41.28,-93.12,29.0,19.0,120,6,,10.0,30.041338,,,TRUE,TRUE,,,,,,,CLR,,,,,,,,VFR,,,,,,,,,,,,SPECI,280.0
KOXI 021735Z AUTO 10007G14KT 10SM CLR 32/08 A3005 RMK AO1,KOXI,2023-06-02T17:35:00Z,41.33,-86.67,32.0,8.0,100,7,14,10.0,30.050198,,,TRUE,TRUE,,,,,,,CLR,,,,,,,,VFR,,,,,,,,,,,,SPECI,208.0
KOWX 021735Z AUTO 12013KT 10SM CLR 33/03 A3005 RMK AO1,KOWX,2023-06-02T17:35:00Z,41.03,-83.98,33.0,3.0,120,13,,10.0,30.050198,,,TRUE,TRUE,,,,,,,CLR,,,,,,,,VFR,,,,,,,,,,,,SPECI,232.0
KOWP 021735Z AUTO 15007KT 10SM SCT048 SCT060 SCT080 31/18 A3000 RMK AO2 T03110179,KOWP,2023-06-02T17:35:00Z,36.18,-96.15,31.1,17.9,150,7,,10.0,30.0,,,TRUE,TRUE,,,,,,,SCT,4800,SCT,6000,SCT,8000,,,VFR,,,,,,,,,,,,SPECI,267.0
KOVL 021735Z AUTO 21009KT 150V210 7SM CLR 29/16 A3003 RMK AO2 LTG DSNT E,KOVL,2023-06-02T17:35:00Z,44.78,-95.03,29.0,16.0,210,9,,7.0,30.029528,,,TRUE,TRUE,,,,,,,CLR,,,,,,,,VFR,,,,,,,,,,,,METAR,329.0
KOSC 021735Z AUTO 07008KT 10SM CLR 28/08 A3012 RMK AO2 T02780082,KOSC,2023-06-02T17:35:00Z,44.45,-83.4,27.8,8.2,70,8,,10.0,30.121063,,,TRUE,TRUE,,,,,,,CLR,,,,,,,,VFR,,,,,,,,,,,,SPECI,191.0
KOSA 021735Z AUTO 10005KT 10SM BKN047 BKN060 BKN080 30/19 A2994 RMK AO2 T02980188,KOSA,2023-06-02T17:35:00Z,33.1,-94.97,29.8,18.8,100,5,,10.0,29.940945,,,TRUE,TRUE,,,,,,,BKN,4700,BKN,6000,BKN,8000,,,VFR,,,,,,,,,,,,SPECI,108.0
KORS 021735Z AUTO 17010KT 10SM CLR 16/07 A3010 RMK AO2,KORS,2023-06-02T17:35:00Z,48.7,-122.92,16.0,7.0,170,10,,10.0,30.100393,,,TRUE,TRUE,,,,,,,CLR,,,,,,,,VFR,,,,,,,,,,,,SPECI,7.0
KORK 021735Z AUTO VRB06KT 050V110 10SM BKN050 BKN060 BKN070 31/18 A2996 RMK AO2,KORK,2023-06-02T17:35:00Z,34.83,-92.25,31.0,18.0,0,6,,10.0,29.958662,,,TRUE,TRUE,,,,,,,BKN,5000,BKN,6000,BKN,7000,,,VFR,,,,,,,,,,,,METAR,166.0
KORG 021735Z AUTO 07003KT 10SM SCT042 BKN048 31/19 A2994 RMK AO2 T03090190,KORG,2023-06-02T17:35:00Z,30.07,-93.8,30.9,19.0,70,3,,10.0,29.940945,,,TRUE,TRUE,,,,,,,SCT,4200,BKN,4800,,,,,VFR,,,,,,,,,,,,SPECI,2.0
KOQN 021735Z AUTO 36003KT 10SM CLR 33/10 A2991 RMK AO2 LTG DSNT NE,KOQN,2023-06-02T17:35:00Z,39.98,-75.58,33.0,10.0,360,3,,10.0,29.911417,,,TRUE,TRUE,,,,,,,CLR,,,,,,,,VFR,,,,,,,,,,,,SPECI,141.0
KOPN 021735Z AUTO 04005KT 10SM SCT041 BKN050 BKN060 27/13 A2994 RMK AO2,KOPN,2023-06-02T17:35:00Z,32.95,-84.27,27.0,13.0,40,5,,10.0,29.940945,,,TRUE,TRUE,,,,,,,SCT,4100,BKN,5000,BKN,6000,,,VFR,,,,,,,,,,,,METAR,241.0
KOPL 021735Z AUTO 03006KT 10SM CLR 30/18 A2992 RMK AO2 T03030179,KOPL,2023-06-02T17:35:00Z,30.55,-92.1,30.3,17.9,30,6,,10.0,29.920275,,,TRUE,TRUE,,,,,,,CLR,,,,,,,,VFR,,,,,,,,,,,,SPECI,22.0
KOOA 021735Z AUTO 12009KT 10SM CLR 32/16 A3004 RMK AO2 T03240163,KOOA,2023-06-02T17:35:00Z,41.23,-92.5,32.4,16.3,120,9,,10.0,30.041338,,,TRUE,TRUE,,,,,,,CLR,,,,,,,,VFR,,,,,,,,,,,,METAR,256.0
KONZ 021735Z AUTO 17006KT 10SM CLR 29/14 A3006 RMK AO2 T02890137,KONZ,2023-06-02T17:35:00Z,42.1,-83.15,28.9,13.7,170,6,,10.0,30.059055,,,TRUE,TRUE,,,,,,,CLR,,,,,,,,VFR,,,,,,,,,,,,METAR,179.0
KONP 021735Z AUTO 33011G14KT 10SM CLR 13/07 A3018 RMK AO2,KONP,2023-06-02T17:35:00Z,44.57,-124.05,13.0,7.0,330,11,14,10.0,30.180119,,,TRUE,TRUE,,,,,,,CLR,,,,,,,,VFR,,,,,,,,,,,,SPECI,43.0
KONM 021735Z AUTO 15007KT 10SM SCT120 25/M06 A2999 RMK AO2 LTG DSNT NE T02541065,KONM,2023-06-02T17:35:00Z,34.02,-106.9,25.4,-6.5,150,7,,10.0,29.991142,,,TRUE,TRUE,,,,,,,SCT,12000,,,,,,,VFR,,,,,,,,,,,,METAR,1467.0
KONL 021735Z AUTO 15012KT 10SM OVC090 23/15 A3001 RMK AO2 T02280147,KONL,2023-06-02T17:35:00Z,42.47,-98.68,22.8,14.7,150,12,,10.0,30.008858,,,TRUE,TRUE,,,,,,,OVC,9000,,,,,,,VFR,,,,,,,,,,,,METAR,619.0
KONA 021735Z AUTO 11004KT 10SM CLR 28/18 A3007 RMK AO2,KONA,2023-06-02T17:35:00Z,44.07,-91.7,28.0,18.0,110,4,,10.0,30.070866,,,TRUE,TRUE,,,,,,,CLR,,,,,,,,VFR,,,,,,,,,,,,METAR,200.0
KOMH 021735Z AUTO 05007KT 10SM CLR 30/10 A2997 RMK AO2,KOMH,2023-06-02T17:35:00Z,38.25,-78.05,30.0,10.0,50,7,,10.0,29.970472,,,TRUE,TRUE,,,,,,,CLR,,,,,,,,VFR,,,,,,,,,,,,METAR,136.0
KOLZ 021735Z AUTO 17005KT 10SM CLR 26/18 A3008 RMK A01,KOLZ,2023-06-02T17:35:00Z,42.67,-91.97,26.0,18.0,170,5,,10.0,30.079725,,,TRUE,TRUE,,,,,,,CLR,,,,,,,,VFR,,,,,,,,,,,,SPECI,328.0
KOLG 021735Z AUTO 01006KT 10SM SCT080 BKN110 27/17 A3009 RMK AO1,KOLG,2023-06-02T17:35:00Z,46.3,-91.82,27.0,17.0,10,6,,10.0,30.088583,,,TRUE,TRUE,,,,,,,SCT,8000,BKN,11000,,,,,VFR,,,,,,,,,,,,METAR,334.0
KOLE 021735Z AUTO 34007KT 300V020 10SM BKN080 BKN100 27/08 A3008 RMK AO2 LTG DSNT E,KOLE,2023-06-02T17:35:00Z,42.23,-78.37,27.0,8.0,340,7,,10.0,30.079725,,,TRUE,TRUE,,,,,,,BKN,8000,BKN,10000,,,,,VFR,,,,,,,,,,,,SPECI,651.0
KOKZ 021735Z AUTO 04008KT 010V080 10SM SCT043 BKN065 BKN070 28/16 A2990 RMK AO2 T02830156,KOKZ,2023-06-02T17:35:00Z,32.97,-82.83,28.3,15.6,40,8,,10.0,29.899607,,,TRUE,TRUE,,,,,,,SCT,4300,BKN,6500,BKN,7000,,,VFR,,,,,,,,,,,,METAR,128.0
KOKV 021735Z AUTO 09005KT 10SM CLR 29/09 A2997 RMK AO2,KOKV,2023-06-02T17:35:00Z,39.13,-78.15,29.0,9.0,90,5,,10.0,29.970472,,,TRUE,TRUE,,,,,,,CLR,,,,,,,,VFR,,,,,,,,,,,,METAR,213.0
KOKM 021735Z AUTO 14009KT 10SM SCT048 SCT060 31/17 A2997 RMK AO2 T03060174,KOKM,2023-06-02T17:35:00Z,35.67,-95.95,30.6,17.4,140,9,,10.0,29.970472,,,TRUE,TRUE,,,,,,,SCT,4800,SCT,6000,,,,,VFR,,,,,,,,,,,,METAR,215.0
KOJA 021735Z AUTO 17015KT 10SM SCT036 SCT050 SCT095 27/19 A2995 RMK AO2 LTG DSNT W T02730191,KOJA,2023-06-02T17:35:00Z,35.55,-98.67,27.3,19.1,170,15,,10.0,29.949802,,,TRUE,TRUE,,,,,,,SCT,3600,SCT,5000,SCT,9500,,,VFR,,,,,,,,,,,,SPECI,490.0
KOIN 021735Z AUTO 19009G15KT 10SM SCT022 BKN027 22/17 A2999 RMK AO1 T02200171,KOIN,2023-06-02T17:35:00Z,39.83,-100.53,22.0,17.1,190,9,15,10.0,29.991142,,,TRUE,TRUE,,,,,,,SCT,2200,BKN,2700,,,,,MVFR,,,,,,,,,,,,METAR,810.0
KOIC 021735Z AUTO 01012G16KT 10SM CLR 32/12 A2998 RMK AO2 T03150117 PWINO,KOIC,2023-06-02T17:35:00Z,42.57,-75.52,31.5,11.7,10,12,16,10.0,29.97933,,,TRUE,TRUE,,,,,TRUE,,CLR,,,,,,,,VFR,,,,,,,,,,,,SPECI,311.0
KOGS 021735Z AUTO 04005KT 10SM CLR 31/15 A2995 RMK AO2,KOGS,2023-06-02T17:35:00Z,44.67,-75.47,31.0,15.0,40,5,,10.0,29.949802,,,TRUE,TRUE,,,,,,,CLR,,,,,,,,VFR,,,,,,,,,,,,SPECI,88.0
KOGA 021735Z AUTO 14010G15KT 10SM OVC034 24/15 A2994 RMK AO2 T02350145,KOGA,2023-06-02T17:35:00Z,41.12,-101.77,23.5,14.5,140,10,15,10.0,29.940945,,,TRUE,TRUE,,,,,,,OVC,3400,,,,,,,VFR,,,,,,,,,,,,SPECI,991.0
KOEO 021735Z AUTO 11008KT 10SM SCT050 30/19 A3009 RMK AO2 T03040187,KOEO,2023-06-02T17:35:00Z,45.32,-92.7,30.4,18.7,110,8,,10.0,30.088583,,,TRUE,TRUE,,,,,,,SCT,5000,,,,,,,VFR,,,,,,,,,,,,METAR,269.0
KOEL 021735Z AUTO 18007KT 10SM CLR 22/14 A2995 RMK AO1 T02200138,KOEL,2023-06-02T17:35:00Z,39.12,-100.82,22.0,13.8,180,7,,10.0,29.949802,,,TRUE,TRUE,,,,,,,CLR,,,,,,,,VFR,,,,,,,,,,,,SPECI,924.0
KOEB 021735Z AUTO 04011G18KT 010V080 10SM CLR 32/09 A3008 RMK AO2 T03150087,KOEB,2023-06-02T17:35:00Z,41.92,-85.05,31.5,8.7,40,11,18,10.0,30.079725,,,TRUE,TRUE,,,,,,,CLR,,,,,,,,VFR,,,,,,,,,,,,SPECI,291.0
KODX 021735Z AUTO 12008KT 9SM -RA SCT009 BKN049 OVC090 19/17 A3000 RMK AO2 P0000 T01890172,KODX,2023-06-02T17:35:00Z,41.62,-98.95,18.9,17.2,120,8,,9.0,30.0,,,TRUE,TRUE,,,,,,-RA,SCT,900,BKN,4900,OVC,9000,,,VFR,,,,,,0.005,,,,,,METAR,628.0
KOCQ 021735Z AUTO 05004KT 10SM CLR 26/14 A3011 RMK AO1 T02610135,KOCQ,2023-06-02T17:35:00Z,44.87,-87.92,26.1,13.5,50,4,,10.0,30.109253,,,TRUE,TRUE,,,,,,,CLR,,,,,,,,VFR,,,,,,,,,,,,METAR,181.0
KOBE 021735Z AUTO 06007KT 030V110 10SM SCT038 SCT050 30/23 A2974 RMK AO2,KOBE,2023-06-02T17:35:00Z,27.27,-80.85,30.0,23.0,60,7,,10.0,29.740158,,,TRUE,TRUE,,,,,,,SCT,3800,SCT,5000,,,,,VFR,,,,,,,,,,,,METAR,11.0
KOAR 021735Z AUTO 27007KT 10SM OVC018 13/08 A3004 RMK AO2 PWINO,KOAR,2023-06-02T17:35:00Z,36.67,-121.77,13.0,8.0,270,7,,10.0,30.041338,,,TRUE,TRUE,,,,,TRUE,,OVC,1800,,,,,,,MVFR,,,,,,,,,,,,SPECI,41.0
KO86 021735Z AUTO VRB04KT 10SM 18/05 A3003 RMK A01,KO86,2023-06-02T17:35:00Z,40.98,-122.7,18.0,5.0,0,4,,10.0,30.029528,,,TRUE,TRUE,,,,,,,,,,,,,,,,,,,,,,,,,,,SPECI,729.0
KO32 021735Z AUTO 00000KT 9SM CLR 21/12 A2994 RMK AO2 T02140124 $,KO32,2023-06-02T17:35:00Z,36.67,-119.45,21.4,12.4,0,0,,9.0,29.940945,,,TRUE,TRUE,TRUE,,,,,,CLR,,,,,,,,VFR,,,,,,,,,,,,METAR,117.0
KO22 021735Z AUTO 18004KT 10SM CLR 23/07 A2998 RMK A01,KO22,2023-06-02T17:35:00Z,38.03,-120.42,23.0,7.0,180,4,,10.0,29.97933,,,TRUE,TRUE,,,,,,,CLR,,,,,,,,VFR,,,,,,,,,,,,SPECI,637.0
KNRN 021735Z AUTO 19009KT 10SM SCT030 SCT060 26/16 A2997 RMK AO2,KNRN,2023-06-02T17:35:00Z,39.85,-99.9,26.0,16.0,190,9,,10.0,29.970472,,,TRUE,TRUE,,,,,,,SCT,3000,SCT,6000,,,,,VFR,,,,,,,,,,,,SPECI,726.0
KNOW 021735Z AUTO 30011KT 10SM CLR 13/09 A3013 RMK AO2 T01290091,KNOW,2023-06-02T17:35:00Z,48.13,-123.4,12.9,9.1,300,11,,10.0,30.129921,,,TRUE,TRUE,,,,,,,CLR,,,,,,,,VFR,,,,,,,,,,,,METAR,3.0
KN79 021735Z AUTO VRB04KT 7SM CLR 32/09 A2995 RMK AO2 T03210088,KN79,2023-06-02T17:35:00Z,,,32.1,8.8,0,4,,7.0,29.949802,,,TRUE,TRUE,,,,,,,CLR,,,,,,,,VFR,,,,,,,,,,,,METAR,
KN38 021735Z AUTO 01012KT 10SM SCT075 SCT090 29/09 A3004 RMK AO2,KN38,2023-06-02T17:35:00Z,41.73,-77.4,29.0,9.0,10,12,,10.0,30.041338,,,TRUE,TRUE,,,,,,,SCT,7500,SCT,9000,,,,,VFR,,,,,,,,,,,,SPECI,576.0
KN03 021735Z AUTO 34005KT 10SM CLR 31/09 A3000 RMK AO2,KN03,2023-06-02T17:35:00Z,42.6,-76.22,31.0,9.0,340,5,,10.0,30.0,,,TRUE,TRUE,,,,,,,CLR,,,,,,,,VFR,,,,,,,,,,,,SPECI,361.0
KMZZ 021735Z AUTO 07011G15KT 7SM CLR 31/09 A3005 RMK AO2 T03050092,KMZZ,2023-06-02T17:35:00Z,40.48,-85.68,30.5,9.2,70,11,15,7.0,30.050198,,,TRUE,TRUE,,,,,,,CLR,,,,,,,,VFR,,,,,,,,,,,,SPECI,260.0
KMYZ 021735Z AUTO 15003KT 10SM SCT110 27/20 A3000 RMK AO2 LTG DSNT W,KMYZ,2023-06-02T17:35:00Z,39.85,-96.63,27.0,20.0,150,3,,10.0,30.0,,,TRUE,TRUE,,,,,,,SCT,11000,,,,,,,VFR,,,,,,,,,,,,METAR,388.0
KMYJ 021735Z AUTO 10007KT 062V132 10SM SCT060 31/17 A3002 RMK AO2,KMYJ,2023-06-02T17:35:00Z,39.15,-91.82,31.0,17.0,100,7,,10.0,30.02067,,,TRUE,TRUE,,,,,,,SCT,6000,,,,,,,VFR,,,,,,,,,,,,METAR,249.0
KMWO 021735Z AUTO 05006KT 5SM HZ CLR 32/09 A3002 RMK AO2 T03170085,KMWO,2023-06-02T17:35:00Z,39.53,-84.4,31.7,8.5,50,6,,5.0,30.02067,,,TRUE,TRUE,,,,,,HZ,CLR,,,,,,,,MVFR,,,,,,,,,,,,METAR,197.0
KMWM 021735Z AUTO 17008KT 10SM CLR 28/17 A3004 RMK AO2 LTG DSNT E,KMWM,2023-06-02T17:35:00Z,43.9,-95.1,28.0,17.0,170,8,,10.0,30.041338,,,TRUE,TRUE,,,,,,,CLR,,,,,,,,VFR,,,,,,,,,,,,METAR,427.0
KMVE 021735Z AUTO 16011G16KT 140V200 10SM CLR 29/18 A3001 RMK AO2,KMVE,2023-06-02T17:35:00Z,44.97,-95.72,29.0,18.0,160,11,16,10.0,30.008858,,,TRUE,TRUE,,,,,,,CLR,,,,,,,,VFR,,,,,,,,,,,,METAR,319.0
KMUT 021735Z AUTO VRB04KT 10SM 31/17 A3004 RMK AO2,KMUT,2023-06-02T17:35:00Z,41.37,-91.15,31.0,17.0,0,4,,10.0,30.041338,,,TRUE,TRUE,,,,,,,,,,,,,,,,,,,,,,,,,,,SPECI,166.0
KMTV 021735Z AUTO 04012G15KT 10SM CLR 28/11 A2998 RMK AO2 T02770108,KMTV,2023-06-02T17:35:00Z,36.63,-80.02,27.7,10.8,40,12,15,10.0,29.97933,,,TRUE,TRUE,,,,,,,CLR,,,,,,,,VFR,,,,,,,,,,,,SPECI,276.0
KMRJ 021735Z AUTO 00000KT 10SM CLR 30/12 A3011 RMK AO2 PWINO,KMRJ,2023-06-02T17:35:00Z,42.88,-90.23,30.0,12.0,0,0,,10.0,30.109253,,,TRUE,TRUE,,,,,TRUE,,CLR,,,,,,,,VFR,,,,,,,,,,,,SPECI,350.0
KMQW 021735Z AUTO 06007KT 10SM SCT042 SCT050 BKN070 30/18 A2987 RMK AO2 T03020183,KMQW,2023-06-02T17:35:00Z,32.1,-82.88,30.2,18.3,60,7,,10.0,29.870079,,,TRUE,TRUE,,,,,,,SCT,4200,SCT,5000,BKN,7000,,,VFR,,,,,,,,,,,,METAR,62.0
KMQS 021735Z AUTO 02007G12KT 010V070 10SM CLR 33/12 A2993 RMK AO2,KMQS,2023-06-02T17:35:00Z,39.98,-75.87,33.0,12.0,20,7,12,10.0,29.929134,,,TRUE,TRUE,,,,,,,CLR,,,,,,,,VFR,,,,,,,,,,,,METAR,200.0
KMQJ 021735Z AUTO 07008KT 10SM CLR 33/12 A3004 RMK AO1,KMQJ,2023-06-02T17:35:00Z,39.85,-85.9,33.0,12.0,70,8,,10.0,30.041338,,,TRUE,TRUE,,,,,,,CLR,,,,,,,,VFR,,,,,,,,,,,,METAR,262.0
KMQB 021735Z AUTO 08007KT 10SM CLR 32/16 A3005 RMK AO2 T03240161,KMQB,2023-06-02T17:35:00Z,40.52,-90.65,32.4,16.1,80,7,,10.0,30.050198,,,TRUE,TRUE,,,,,,,CLR,,,,,,,,VFR,,,,,,,,,,,,METAR,205.0
KMPZ 021735Z AUTO 13007KT 10SM CLR 31/16 A3003 RMK AO2,KMPZ,2023-06-02T17:35:00Z,40.95,-91.52,31.0,16.0,130,7,,10.0,30.029528,,,TRUE,TRUE,,,,,,,CLR,,,,,,,,VFR,,,,,,,,,,,,SPECI,222.0
KMPR 021735Z AUTO 16014G20KT 10SM SCT042 SCT050 28/18 A2997 RMK AO2 T02820176,KMPR,2023-06-02T17:35:00Z,38.35,-97.68,28.2,17.6,160,14,20,10.0,29.970472,,,TRUE,TRUE,,,,,,,SCT,4200,SCT,5000,,,,,VFR,,,,,,,,,,,,METAR,455.0
KMOX 021735Z AUTO 18010G16KT 10SM CLR 30/13 A3001 RMK AO2,KMOX,2023-06-02T17:35:00Z,45.57,-95.97,30.0,13.0,180,10,16,10.0,30.008858,,,TRUE,TRUE,,,,,,,CLR,,,,,,,,VFR,,,,,,,,,,,,METAR,346.0
KMOP 021735Z AUTO 08005KT 10SM CLR 32/09 A3009 RMK AO2 T03180086,KMOP,2023-06-02T17:35:00Z,43.62,-84.73,31.8,8.6,80,5,,10.0,30.088583,,,TRUE,TRUE,,,,,,,CLR,,,,,,,,VFR,,,,,,,,,,,,METAR,229.0
KMNZ 021735Z AUTO 15011G18KT 10SM CLR 29/17 A2995 RMK AO2 T02940168,KMNZ,2023-06-02T17:35:00Z,31.67,-98.15,29.4,16.8,150,11,18,10.0,29.949802,,,TRUE,TRUE,,,,,,,CLR,,,,,,,,VFR,,,,,,,,,,,,SPECI,397.0
KMNV 021735Z AUTO VRB05KT 10SM 29/17 A2995 RMK A01,KMNV,2023-06-02T17:35:00Z,35.55,-84.38,29.0,17.0,0,5,,10.0,29.949802,,,TRUE,TRUE,,,,,,,,,,,,,,,,,,,,,,,,,,,SPECI,306.0
KMNI 021735Z AUTO 02009G15KT 10SM SCT027 SCT032 OVC043 25/17 A2988 RMK AO2,KMNI,2023-06-02T17:35:00Z,33.58,-80.22,25.0,17.0,20,9,15,10.0,29.878937,,,TRUE,TRUE,,,,,,,SCT,2700,SCT,3200,OVC,4300,,,VFR,,,,,,,,,,,,SPECI,29.0
KMNH 021735Z AUTO 15009KT 10SM SCT065 17/02 A3004 RMK AO2 LTG DSNT NW,KMNH,2023-06-02T17:35:00Z,39.22,-104.65,17.0,2.0,150,9,,10.0,30.041338,,,TRUE,TRUE,,,,,,,SCT,6500,,,,,,,VFR,,,,,,,,,,,,METAR,2152.0
KMMI 021735Z AUTO 06006KT 10SM CLR 29/16 A2996 RMK A01,KMMI,2023-06-02T17:35:00Z,35.4,-84.57,29.0,16.0,60,6,,10.0,29.958662,,,TRUE,TRUE,,,,,,,CLR,,,,,,,,VFR,,,,,,,,,,,,SPECI,252.0
KMMH 021735Z AUTO 13004KT 10SM CLR 18/M02 A3015 RMK AO2 T01761021,KMMH,2023-06-02T17:35:00Z,37.62,-118.83,17.6,-2.1,130,4,,10.0,30.15059,,,TRUE,TRUE,,,,,,,CLR,,,,,,,,VFR,,,,,,,,,,,,SPECI,2167.0
KMLJ 021735Z AUTO 08006G13KT 10SM FEW046 BKN055 BKN070 28/17 A2989 RMK AO2,KMLJ,2023-06-02T17:35:00Z,33.15,-83.25,28.0,17.0,80,6,13,10.0,29.890747,,,TRUE,TRUE,,,,,,,FEW,4600,BKN,5500,BKN,7000,,,VFR,,,,,,,,,,,,METAR,115.0
KMLE 021735Z AUTO 16010G16KT 10SM SCT045 SCT050 BKN110 30/18 A3000 RMK AO2 T02980178,KMLE,2023-06-02T17:35:00Z,41.2,-96.12,29.8,17.8,160,10,16,10.0,30.0,,,TRUE,TRUE,,,,,,,SCT,4500,SCT,5000,BKN,11000,,,VFR,,,,,,,,,,,,SPECI,318.0
KMKS 021735Z AUTO 01005KT 10SM SCT034 BKN044 25/18 A2987 RMK AO2 LTG DSNT SE,KMKS,2023-06-02T17:35:00Z,33.18,-80.03,25.0,18.0,10,5,,10.0,29.870079,,,TRUE,TRUE,,,,,,,SCT,3400,BKN,4400,,,,,VFR,,,,,,,,,,,,SPECI,22.0
KMKN 021735Z AUTO 18010G18KT 10SM 31/17 A2995 RMK AO2 T03120169,KMKN,2023-06-02T17:35:00Z,31.92,-98.6,31.2,16.9,180,10,18,10.0,29.949802,,,TRUE,TRUE,,,,,,,,,,,,,,,,,,,,,,,,,,,SPECI,428.0
KMKJ 021735Z AUTO 09009G15KT 060V130 10SM CLR 24/09 A3007 RMK AO2 T02430094,KMKJ,2023-06-02T17:35:00Z,36.88,-81.33,24.3,9.4,90,9,15,10.0,30.070866,,,TRUE,TRUE,,,,,,,CLR,,,,,,,,VFR,,,,,,,,,,,,METAR,777.0
KMJQ 021735Z AUTO 16011G16KT 10SM SCT045 SCT050 SCT070 28/16 A3006 RMK AO2 PWINO,KMJQ,2023-06-02T17:35:00Z,43.63,-94.98,28.0,16.0,160,11,16,10.0,30.059055,,,TRUE,TRUE,,,,,TRUE,,SCT,4500,SCT,5000,SCT,7000,,,VFR,,,,,,,,,,,,METAR,439.0
KMJD 021735Z AUTO 02008KT 10SM SCT049 SCT055 BKN065 30/19 A2989 RMK AO2,KMJD,2023-06-02T17:35:00Z,30.48,-89.65,30.0,19.0,20,8,,10.0,29.890747,,,TRUE,TRUE,,,,,,,SCT,4900,SCT,5500,BKN,6500,,,VFR,,,,,,,,,,,,METAR,17.0
KMHP 021735Z AUTO 02009KT 360V070 10SM SCT041 SCT050 SCT065 28/17 A2987 RMK AO2 T02820174,KMHP,2023-06-02T17:35:00Z,32.37,-82.08,28.2,17.4,20,9,,10.0,29.870079,,,TRUE,TRUE,,,,,,,SCT,4100,SCT,5000,SCT,6500,,,VFR,,,,,,,,,,,,METAR,60.0
KMHL 021735Z AUTO 17005KT 10SM BKN050 30/17 A3002 RMK AO2,KMHL,2023-06-02T17:35:00Z,39.1,-93.2,30.0,17.0,170,5,,10.0,30.02067,,,TRUE,TRUE,,,,,,,BKN,5000,,,,,,,VFR,,,,,,,,,,,,SPECI,236.0
KMGR 021735Z AUTO 08009KT 030V120 10SM SCT048 SCT210 SCT250 BKN290 BKN330 BKN350 28/17 A2986 RMK AO2 T02840174,KMGR,2023-06-02T17:35:00Z,31.08,-83.8,28.4,17.4,80,9,,10.0,29.861221,,,TRUE,TRUE,,,,,,,SCT,4800,SCT,21000,SCT,25000,BKN,29000,VFR,,,,,,,,,,,,METAR,86.0
KMGN 021735Z AUTO 06008KT 10SM CLR 30/13 A3011 RMK AO2 T02990133,KMGN,2023-06-02T17:35:00Z,45.43,-84.92,29.9,13.3,60,8,,10.0,30.109253,,,TRUE,TRUE,,,,,,,CLR,,,,,,,,VFR,,,,,,,,,,,,METAR,205.0
KMGG 021735Z AUTO 16007KT 130V200 10SM CLR 28/17 A3007 RMK AO2 LTG DSNT SE T02800167,KMGG,2023-06-02T17:35:00Z,45.23,-93.98,28.0,16.7,160,7,,10.0,30.070866,,,TRUE,TRUE,,,,,,,CLR,,,,,,,,VFR,,,,,,,,,,,,METAR,310.0
KMFV 021735Z AUTO 10003KT 10SM SCT033 24/16 A2991 RMK AO2 T02410155,KMFV,2023-06-02T17:35:00Z,37.63,-75.77,24.1,15.5,100,3,,10.0,29.911417,,,TRUE,TRUE,,,,,,,SCT,3300,,,,,,,VFR,,,,,,,,,,,,SPECI,13.0
KMEZ 021735Z AUTO 08007KT 10SM FEW350 29/18 A2999 RMK AO2 T02930181,KMEZ,2023-06-02T17:35:00Z,34.55,-94.2,29.3,18.1,80,7,,10.0,29.991142,,,TRUE,TRUE,,,,,,,FEW,35000,,,,,,,VFR,,,,,,,,,,,,METAR,320.0
KMEV 021735Z AUTO 00000KT 10SM CLR 17/02 A3008 RMK AO2,KMEV,2023-06-02T17:35:00Z,38.98,-119.75,17.0,2.0,0,0,,10.0,30.079725,,,TRUE,TRUE,,,,,,,CLR,,,,,,,,VFR,,,,,,,,,,,,SPECI,1437.0
KMDZ 021735Z AUTO 35004KT 10SM BKN045 BKN060 OVC075 27/18 A3012 RMK AO2 LTG DSNT NE AND W T02650181 PWINO,KMDZ,2023-06-02T17:35:00Z,45.1,-90.3,26.5,18.1,350,4,,10.0,30.121063,,,TRUE,TRUE,,,,,TRUE,,BKN,4500,BKN,6000,OVC,7500,,,VFR,,,,,,,,,,,,SPECI,446.0
KMDS 021735Z AUTO 13012G17KT 10SM FEW041 SCT049 27/19 A3001 RMK AO2,KMDS,2023-06-02T17:35:00Z,44.02,-97.08,27.0,19.0,130,12,17,10.0,30.008858,,,TRUE,TRUE,,,,,,,FEW,4100,SCT,4900,,,,,VFR,,,,,,,,,,,,METAR,524.0
KMDQ 021735Z AUTO 33006KT 10SM SCT050 30/17 A2994 RMK A02 T03000169,KMDQ,2023-06-02T17:35:00Z,34.87,-86.55,30.0,16.9,330,6,,10.0,29.940945,,,TRUE,TRUE,,,,,,,SCT,5000,,,,,,,VFR,,,,,,,,,,,,METAR,221.0
KMDD 021735Z AUTO 15017KT 10SM SCT031 BKN048 27/18 A2992 RMK AO2 T02740176,KMDD,2023-06-02T17:35:00Z,32.03,-102.1,27.4,17.6,150,17,,10.0,29.920275,,,TRUE,TRUE,,,,,,,SCT,3100,BKN,4800,,,,,VFR,,,,,,,,,,,,SPECI,853.0
KMCJ 021735Z AUTO VRB06KT 10SM FEW047 31/19 A2991 RMK A01,KMCJ,2023-06-02T17:35:00Z,29.72,-95.4,31.0,19.0,0,6,,10.0,29.911417,,,TRUE,TRUE,,,,,,,FEW,4700,,,,,,,VFR,,,,,,,,,,,,METAR,70.0
KMCD 021735Z AUTO 05005KT 10SM CLR 26/11 A3014 RMK AO2 T02570114,KMCD,2023-06-02T17:35:00Z,45.85,-84.63,25.7,11.4,50,5,,10.0,30.138779,,,TRUE,TRUE,,,,,,,CLR,,,,,,,,VFR,,,,,,,,,,,,METAR,228.0
KMCC 021735Z AUTO 00000KT 9SM CLR 20/10 A2996 RMK AO2,KMCC,2023-06-02T17:35:00Z,38.67,-121.4,20.0,10.0,0,0,,9.0,29.958662,,,TRUE,TRUE,,,,,,,CLR,,,,,,,,VFR,,,,,,,,,,,,METAR,21.0
KMBY 021735Z AUTO 09006KT 10SM SCT050 SCT070 32/14 A3003 RMK AO2,KMBY,2023-06-02T17:35:00Z,39.47,-92.43,32.0,14.0,90,6,,10.0,30.029528,,,TRUE,TRUE,,,,,,,SCT,5000,SCT,7000,,,,,VFR,,,,,,,,,,,,METAR,263.0
KMBT 021735Z AUTO 02009G14KT 10SM SCT060 30/15 A2993 RMK A01,KMBT,2023-06-02T17:35:00Z,35.88,-86.38,30.0,15.0,20,9,14,10.0,29.929134,,,TRUE,TRUE,,,,,,,SCT,6000,,,,,,,VFR,,,,,,,,,,,,SPECI,187.0
KMBO 021735Z AUTO 00000KT 10SM FEW065 29/19 A2993 RMK AO2,KMBO,2023-06-02T17:35:00Z,32.43,-90.1,29.0,19.0,0,0,,10.0,29.929134,,,TRUE,TRUE,,,,,,,FEW,6500,,,,,,,VFR,,,,,,,,,,,,METAR,98.0
KMAW 021735Z AUTO 03006KT 10SM SCT055 BKN080 32/16 A2997 RMK AO1,KMAW,2023-06-02T17:35:00Z,36.6,-90.0,32.0,16.0,30,6,,10.0,29.970472,,,TRUE,TRUE,,,,,,,SCT,5500,BKN,8000,,,,,VFR,,,,,,,,,,,,SPECI,88.0
KMAO 021735Z AUTO 08008KT 10SM SCT035 BKN050 25/17 A2988 RMK AO2,KMAO,2023-06-02T17:35:00Z,34.18,-79.33,25.0,17.0,80,8,,10.0,29.878937,,,TRUE,TRUE,,,,,,,SCT,3500,BKN,5000,,,,,VFR,,,,,,,,,,,,METAR,27.0
KMAN 021735Z AUTO 34011G17KT 10SM FEW110 21/06 A2999 RMK A01,KMAN,2023-06-02T17:35:00Z,43.58,-116.52,21.0,6.0,340,11,17,10.0,29.991142,,,TRUE,TRUE,,,,,,,FEW,11000,,,,,,,VFR,,,,,,,,,,,,METAR,773.0
KM40 021735Z AUTO 00000G10KT 10SM SCT050 SCT060 30/20 A2994 RMK AO2,KM40,2023-06-02T17:35:00Z,33.87,-88.48,30.0,20.0,0,0,10,10.0,29.940945,,,TRUE,TRUE,,,,,,,SCT,5000,SCT,6000,,,,,VFR,,,,,,,,,,,,METAR,68.0
KM30 021735Z AUTO 06006KT 10SM SCT060 SCT070 31/15 A2997 RMK AO2 T03090147,KM30,2023-06-02T17:35:00Z,37.18,-88.75,30.9,14.7,60,6,,10.0,29.970472,,,TRUE,TRUE,,,,,,,SCT,6000,SCT,7000,,,,,VFR,,,,,,,,,,,,METAR,116.0
KM25 021735Z AUTO 07005KT 10SM SCT060 31/16 A2998 RMK AO2 PWINO,KM25,2023-06-02T17:35:00Z,36.77,-88.58,31.0,16.0,70,5,,10.0,29.97933,,,TRUE,TRUE,,,,,TRUE,,SCT,6000,,,,,,,VFR,,,,,,,,,,,,SPECI,157.0
KM21 021735Z AUTO 04004KT 10SM SCT060 SCT075 31/16 A2997 RMK AO2 T03050155,KM21,2023-06-02T17:35:00Z,37.22,-87.15,30.5,15.5,40,4,,10.0,29.970472,,,TRUE,TRUE,,,,,,,SCT,6000,SCT,7500,,,,,VFR,,,,,,,,,,,,METAR,127.0
KM08 021735Z AUTO VRB05KT 10SM BKN045 29/18 A2995 RMK A01,KM08,2023-06-02T17:35:00Z,35.22,-89.05,29.0,18.0,0,5,,10.0,29.949802,,,TRUE,TRUE,,,,,,,BKN,4500,,,,,,,VFR,,,,,,,,,,,,SPECI,149.0
KM02 021735Z AUTO 06006KT 10SM FEW050 FEW060 FEW075 29/16 A2996 RMK A01,KM02,2023-06-02T17:35:00Z,36.13,-87.43,29.0,16.0,60,6,,10.0,29.958662,,,TRUE,TRUE,,,,,,,FEW,5000,FEW,6000,FEW,7500,,,VFR,,,,,,,,,,,,SPECI,268.0
KM01 021735Z AUTO 05005KT 10SM FEW047 SCT380 31/19 A2993 RMK AO2 T03130186 $,KM01,2023-06-02T17:35:00Z,35.2,-90.05,31.3,18.6,50,5,,10.0,29.929134,,,TRUE,TRUE,TRUE,,,,,,FEW,4700,SCT,38000,,,,,VFR,,,,,,,,,,,,METAR,68.0
KLYV 021735Z AUTO 16008G16KT 10SM SCT050 28/15 A3002 RMK AO2,KLYV,2023-06-02T17:35:00Z,43.62,-96.22,28.0,15.0,160,8,16,10.0,30.02067,,,TRUE,TRUE,,,,,,,SCT,5000,,,,,,,VFR,,,,,,,,,,,,METAR,435.0
KLYO 021735Z AUTO 17016KT 10SM SCT036 SCT060 BKN090 27/19 A2997 RMK AO2 T02670187,KLYO,2023-06-02T17:35:00Z,38.35,-98.23,26.7,18.7,170,16,,10.0,29.970472,,,TRUE,TRUE,,,,,,,SCT,3600,SCT,6000,BKN,9000,,,VFR,,,,,,,,,,,,METAR,515.0
KLXY 021735Z AUTO 11004KT 10SM SCT042 SCT048 SCT055 30/20 A2993 RMK AO2 T03040200,KLXY,2023-06-02T17:35:00Z,31.63,-96.52,30.4,20.0,110,4,,10.0,29.929134,,,TRUE,TRUE,,,,,,,SCT,4200,SCT,4800,SCT,5500,,,VFR,,,,,,,,,,,,SPECI,164.0
KLXV 021735Z AUTO 31009KT 6SM -RA BKN029 OVC036 06/02 A3017 RMK AO2 RAB09 P0000 T00560017,KLXV,2023-06-02T17:35:00Z,39.23,-106.32,5.6,1.7,310,9,,6.0,30.171259,,,TRUE,TRUE,,,,,,-RA,BKN,2900,OVC,3600,,,,,MVFR,,,,,,0.005,,,,,,METAR,3027.0
KLXN 021735Z AUTO 12011KT 10SM BKN021 BKN028 22/16 A2998 RMK AO2 LTG DSNT SE T02160162,KLXN,2023-06-02T17:35:00Z,40.78,-99.77,21.6,16.2,120,11,,10.0,29.97933,,,TRUE,TRUE,,,,,,,BKN,2100,BKN,2800,,,,,MVFR,,,,,,,,,,,,SPECI,734.0
KLXL 021735Z AUTO 15009KT 10SM CLR 28/17 A3005 RMK AO2 LTG DSNT SE,KLXL,2023-06-02T17:35:00Z,45.95,-94.33,28.0,17.0,150,9,,10.0,30.050198,,,TRUE,TRUE,,,,,,,CLR,,,,,,,,VFR,,,,,,,,,,,,METAR,335.0
KLWA 021735Z AUTO 30007KT 10SM CLR 30/14 A3008 RMK AO2 T02950139,KLWA,2023-06-02T17:35:00Z,42.35,-86.25,29.5,13.9,300,7,,10.0,30.079725,,,TRUE,TRUE,,,,,,,CLR,,,,,,,,VFR,,,,,,,,,,,,SPECI,199.0
KLVN 021735Z AUTO 00000KT 10SM TS CLR 28/16 A3007 RMK AO2,KLVN,2023-06-02T17:35:00Z,44.63,-93.23,28.0,16.0,0,0,,10.0,30.070866,,,TRUE,TRUE,,,,,,TS,CLR,,,,,,,,VFR,,,,,,,,,,,,SPECI,292.0
KLVL 021735Z AUTO 03006KT 10SM SCT045 27/16 A2994 RMK AO1 T02730159,KLVL,2023-06-02T17:35:00Z,36.78,-77.8,27.3,15.9,30,6,,10.0,29.940945,,,TRUE,TRUE,,,,,,,SCT,4500,,,,,,,VFR,,,,,,,,,,,,METAR,98.0
KLUX 021735Z AUTO 03006KT 10SM SCT049 27/15 A2993 RMK AO2,KLUX,2023-06-02T17:35:00Z,34.5,-81.95,27.0,15.0,30,6,,10.0,29.929134,,,TRUE,TRUE,,,,,,,SCT,4900,,,,,,,VFR,,,,,,,,,,,,METAR,213.0
KLUV 021735Z AUTO 16017KT 10SM SCT035 26/19 A2995 RMK AO2,KLUV,2023-06-02T17:35:00Z,32.75,-101.92,26.0,19.0,160,17,,10.0,29.949802,,,TRUE,TRUE,,,,,,,SCT,3500,,,,,,,VFR,,,,,,,,,,,,SPECI,910.0
KLUM 021735Z 09004KT 10SM SCT048 31/13 A3008 RMK AO2 LTG DSNT SW T03100134 PWINO,KLUM,2023-06-02T17:35:00Z,44.9,-91.87,31.0,13.4,90,4,,10.0,30.079725,,,,TRUE,,,,,TRUE,,SCT,4800,,,,,,,VFR,,,,,,,,,,,,METAR,271.0
KLUL 021735Z AUTO 01004KT 10SM SCT050 SCT060 SCT070 30/17 A2991 RMK A02 T03000169,KLUL,2023-06-02T17:35:00Z,31.67,-89.17,30.0,16.9,10,4,,10.0,29.911417,,,TRUE,TRUE,,,,,,,SCT,5000,SCT,6000,SCT,7000,,,VFR,,,,,,,,,,,,METAR,74.0
KLUG 021735Z AUTO 02007G14KT 10SM SCT055 SCT070 SCT090 30/16 A2994 RMK A01,KLUG,2023-06-02T17:35:00Z,35.52,-86.8,30.0,16.0,20,7,14,10.0,29.940945,,,TRUE,TRUE,,,,,,,SCT,5500,SCT,7000,SCT,9000,,,VFR,,,,,,,,,,,,SPECI,218.0
KLUD 021735Z AUTO 16009G15KT 7SM SCT041 29/17 A2994 RMK AO2 T02940173,KLUD,2023-06-02T17:35:00Z,33.25,-97.58,29.4,17.3,160,9,15,7.0,29.940945,,,TRUE,TRUE,,,,,,,SCT,4100,,,,,,,VFR,,,,,,,,,,,,SPECI,319.0
KLUA 021735Z AUTO 02008KT 10SM CLR 30/10 A2997 RMK AO2,KLUA,2023-06-02T17:35:00Z,38.67,-78.5,30.0,10.0,20,8,,10.0,29.970472,,,TRUE,TRUE,,,,,,,CLR,,,,,,,,VFR,,,,,,,,,,,,METAR,273.0
KLRY 021735Z AUTO 20005KT 10SM SCT048 SCT060 30/17 A3003 RMK AO2 PWINO,KLRY,2023-06-02T17:35:00Z,38.62,-94.35,30.0,17.0,200,5,,10.0,30.029528,,,TRUE,TRUE,,,,,TRUE,,SCT,4800,SCT,6000,,,,,VFR,,,,,,,,,,,,METAR,272.0
KLRU 021735Z AUTO 00000KT 10SM CLR 27/M03 A3000 RMK AO2 T02701033,KLRU,2023-06-02T17:35:00Z,32.28,-106.92,27.0,-3.3,0,0,,10.0,30.0,,,TRUE,TRUE,,,,,,,CLR,,,,,,,,VFR,,,,,,,,,,,,SPECI,1355.0
KLRO 021735Z AUTO VRB04KT 9SM SCT038 BKN044 26/18 A2985 RMK AO2,KLRO,2023-06-02T17:35:00Z,32.9,-79.78,26.0,18.0,0,4,,9.0,29.84941,,,TRUE,TRUE,,,,,,,SCT,3800,BKN,4400,,,,,VFR,,,,,,,,,,,,METAR,3.0
KLRJ 021735Z AUTO 16013G21KT 10SM FEW055 FEW075 FEW095 30/17 A2998 RMK AO2,KLRJ,2023-06-02T17:35:00Z,42.77,-96.2,30.0,17.0,160,13,21,10.0,29.97933,,,TRUE,TRUE,,,,,,,FEW,5500,FEW,7500,FEW,9500,,,VFR,,,,,,,,,,,,SPECI,363.0
KLQK 021735Z AUTO 12007KT 10SM CLR 29/16 A2993 RMK AO2 T02850159,KLQK,2023-06-02T17:35:00Z,34.82,-82.7,28.5,15.9,120,7,,10.0,29.929134,,,TRUE,TRUE,,,,,,,CLR,,,,,,,,VFR,,,,,,,,,,,,SPECI,291.0
KLOM 021735Z AUTO 07011G14KT 10SM CLR 33/13 A2990 RMK AO2 T03340130,KLOM,2023-06-02T17:35:00Z,40.13,-75.27,33.4,13.0,70,11,14,10.0,29.899607,,,TRUE,TRUE,,,,,,,CLR,,,,,,,,VFR,,,,,,,,,,,,METAR,87.0
KLNQ 021735Z AUTO 04009KT 10SM CLR 30/20 A2990 RMK AO2 T02970200,KLNQ,2023-06-02T17:35:00Z,29.35,-89.43,29.7,20.0,40,9,,10.0,29.899607,,,TRUE,TRUE,,,,,,,CLR,,,,,,,,VFR,,,,,,,,,,,,METAR,1.0
KLNP 021735Z AUTO 04011KT 10SM CLR 24/07 A3007 RMK AO2,KLNP,2023-06-02T17:35:00Z,36.98,-82.52,24.0,7.0,40,11,,10.0,30.070866,,,TRUE,TRUE,,,,,,,CLR,,,,,,,,VFR,,,,,,,,,,,,METAR,817.0
KLNN 021735Z AUTO 02008KT 10SM CLR 25/14 A3004 RMK AO1 T02530141,KLNN,2023-06-02T17:35:00Z,41.68,-81.38,25.3,14.1,20,8,,10.0,30.041338,,,TRUE,TRUE,,,,,,,CLR,,,,,,,,VFR,,,,,,,,,,,,SPECI,190.0
KLNL 021735Z AUTO 00000KT 5SM VCTSRA SCT030 BKN050 OVC075 19/18 A3022 RMK AO2 P0001 T01860180,KLNL,2023-06-02T17:35:00Z,46.15,-89.22,18.6,18.0,0,0,,5.0,30.221457,,,TRUE,TRUE,,,,,,VCTSRA,SCT,3000,BKN,5000,OVC,7500,,,MVFR,,,,,,0.01,,,,,,METAR,517.0
KLNC 021735Z AUTO 12006KT 10SM SCT047 SCT060 BKN100 31/20 A2994 RMK AO2 T03060201,KLNC,2023-06-02T17:35:00Z,32.58,-96.72,30.6,20.1,120,6,,10.0,29.940945,,,TRUE,TRUE,,,,,,,SCT,4700,SCT,6000,BKN,10000,,,VFR,,,,,,,,,,,,SPECI,152.0
KLNA 021735Z AUTO 09009KT 10SM SCT038 SCT046 SCT085 30/23 A2977 RMK AO2 T02980228,KLNA,2023-06-02T17:35:00Z,26.6,-80.08,29.8,22.8,90,9,,10.0,29.769686,,,TRUE,TRUE,,,,,,,SCT,3800,SCT,4600,SCT,8500,,,VFR,,,,,,,,,,,,SPECI,3.0
KLMO 021735Z AUTO 22009KT 10SM SCT039 BKN050 BKN090 19/09 A2998 RMK AO2 T01860094,KLMO,2023-06-02T17:35:00Z,40.17,-105.17,18.6,9.4,220,9,,10.0,29.97933,,,TRUE,TRUE,,,,,,,SCT,3900,BKN,5000,BKN,9000,,,VFR,,,,,,,,,,,,METAR,1535.0
KLLN 021735Z AUTO 15011G20KT 8SM SCT018 SCT022 BKN043 23/18 A2995 RMK AO2 LTG DSNT N AND NW,KLLN,2023-06-02T17:35:00Z,33.55,-102.37,23.0,18.0,150,11,20,8.0,29.949802,,,TRUE,TRUE,,,,,,,SCT,1800,SCT,2200,BKN,4300,,,VFR,,,,,,,,,,,,SPECI,1071.0
KLKU 021735Z AUTO 08009G15KT 10SM CLR 29/12 A2995 RMK AO2 T02920122,KLKU,2023-06-02T17:35:00Z,38.02,-77.97,29.2,12.2,80,9,15,10.0,29.949802,,,TRUE,TRUE,,,,,,,CLR,,,,,,,,VFR,,,,,,,,,,,,METAR,146.0
KLKR 021735Z AUTO VRB06KT 10SM CLR 27/15 A2992 RMK AO2,KLKR,2023-06-02T17:35:00Z,34.72,-80.85,27.0,15.0,0,6,,10.0,29.920275,,,TRUE,TRUE,,,,,,,CLR,,,,,,,,VFR,,,,,,,,,,,,METAR,166.0
KLJF 021735Z AUTO 15006KT 10SM CLR 26/17 A3005 RMK AO2 LTG DSNT SE,KLJF,2023-06-02T17:35:00Z,45.1,-94.52,26.0,17.0,150,6,,10.0,30.050198,,,TRUE,TRUE,,,,,,,CLR,,,,,,,,VFR,,,,,,,,,,,,METAR,347.0
KLHM 021735Z AUTO 23004KT 10SM CLR 21/09 A2996 RMK AO1,KLHM,2023-06-02T17:35:00Z,38.92,-121.35,21.0,9.0,230,4,,10.0,29.958662,,,TRUE,TRUE,,,,,,,CLR,,,,,,,,VFR,,,,,,,,,,,,METAR,36.0
KLHB 021735Z AUTO 14007KT 7SM CLR 31/18 A2994 RMK AO2 T03070184,KLHB,2023-06-02T17:35:00Z,30.87,-96.62,30.7,18.4,140,7,,7.0,29.940945,,,TRUE,TRUE,,,,,,,CLR,,,,,,,,VFR,,,,,,,,,,,,SPECI,83.0
KLGC 021735Z AUTO 03004KT 10SM SCT050 28/14 A2992 RMK AO2 T02760140,KLGC,2023-06-02T17:35:00Z,33.0,-85.07,27.6,14.0,30,4,,10.0,29.920275,,,TRUE,TRUE,,,,,,,SCT,5000,,,,,,,VFR,,,,,,,,,,,,METAR,209.0
KLDM 021735Z AUTO 28004KT 10SM CLR 27/12 A3010 RMK AO2 T02670123,KLDM,2023-06-02T17:35:00Z,43.97,-86.4,26.7,12.3,280,4,,10.0,30.100393,,,TRUE,TRUE,,,,,,,CLR,,,,,,,,VFR,,,,,,,,,,,,METAR,194.0
KLCQ 021735Z AUTO 05006KT 10SM SCT043 27/18 A2984 RMK AO2,KLCQ,2023-06-02T17:35:00Z,30.18,-82.58,27.0,18.0,50,6,,10.0,29.840551,,,TRUE,TRUE,,,,,,,SCT,4300,,,,,,,VFR,,,,,,,,,,,,METAR,59.0
KLCG 021735Z AUTO 19011G20KT 10SM SCT050 SCT070 SCT080 30/17 A2999 RMK AO2 LTG DSNT NE T02980168,KLCG,2023-06-02T17:35:00Z,42.25,-96.98,29.8,16.8,190,11,20,10.0,29.991142,,,TRUE,TRUE,,,,,,,SCT,5000,SCT,7000,SCT,8000,,,VFR,,,,,,,,,,,,METAR,434.0
KLBO 021735Z AUTO 13003KT 10SM CLR 30/13 A3005 RMK AO2,KLBO,2023-06-02T17:35:00Z,37.65,-92.65,30.0,13.0,130,3,,10.0,30.050198,,,TRUE,TRUE,,,,,,,CLR,,,,,,,,VFR,,,,,,,,,,,,METAR,399.0
KLAM 021735Z AUTO 02004KT 9SM VCTS SCT055 BKN075 OVC090 15/04 A3012 RMK AO2 RAB1703E1715 P0000 T01490037 $,KLAM,2023-06-02T17:35:00Z,35.87,-106.27,14.9,3.7,20,4,,9.0,30.121063,,,TRUE,TRUE,TRUE,,,,,VCTS,SCT,5500,BKN,7500,OVC,9000,,,VFR,,,,,,0.005,,,,,,SPECI,2166.0
KL35 021735Z AUTO 05007KT 10SM CLR 17/M02 A3012 RMK AO2,KL35,2023-06-02T17:35:00Z,34.27,-116.85,17.0,-2.0,50,7,,10.0,30.121063,,,TRUE,TRUE,,,,,,,CLR,,,,,,,,VFR,,,,,,,,,,,,METAR,2062.0
KL18 021735Z AUTO 00000KT 10SM OVC030 17/13 A2999 RMK AO2,KL18,2023-06-02T17:35:00Z,33.35,-117.25,17.0,13.0,0,0,,10.0,29.991142,,,TRUE,TRUE,,,,,,,OVC,3000,,,,,,,MVFR,,,,,,,,,,,,METAR,215.0
KL08 021735Z AUTO VRB04KT 10SM CLR 27/03 A2988 RMK AO2,KL08,2023-06-02T17:35:00Z,33.27,-116.32,27.0,3.0,0,4,,10.0,29.878937,,,TRUE,TRUE,,,,,,,CLR,,,,,,,,VFR,,,,,,,,,,,,METAR,156.0
KKY8 021735Z AUTO 02004G12KT 10SM CLR 31/16 A2998 RMK A01,KKY8,2023-06-02T17:35:00Z,37.95,-86.87,31.0,16.0,20,4,12,10.0,29.97933,,,TRUE,TRUE,,,,,,,CLR,,,,,,,,VFR,,,,,,,,,,,,METAR,124.0
KK88 021735Z AUTO 09004KT 10SM SCT048 SCT055 BKN120 29/18 A3000 RMK AO1 T02880180,KK88,2023-06-02T17:35:00Z,37.87,-95.38,28.8,18.0,90,4,,10.0,30.0,,,TRUE,TRUE,,,,,,,SCT,4800,SCT,5500,BKN,12000,,,VFR,,,,,,,,,,,,SPECI,308.0
KK82 021735Z AUTO 13005KT 2 1/2SM +VCTSRA BR SCT030 BKN060 OVC090 17/16 A3000 RMK AO2 VIS 1 1/2V4 LTG DSNT ALQDS P0024 T01710163,KK82,2023-06-02T17:35:00Z,39.77,-98.8,17.1,16.3,130,5,,2.5,30.0,,,TRUE,TRUE,,,,,,VCTS +RA BR,SCT,3000,BKN,6000,OVC,9000,,,IFR,,,,,,0.24,,,,,,METAR,548.0
KK70 021735Z AUTO 32004KT 10SM CLR 28/M34 A2975 RMK AO2,KK70,2023-06-02T17:35:00Z,25.32,-80.28,28.0,-34.0,320,4,,10.0,29.749016,,,TRUE,TRUE,,,,,,,CLR,,,,,,,,VFR,,,,,,,,,,,,SPECI,20.0
KK62 021735Z AUTO 05010G15KT 010V080 10SM CLR 31/10 A3000 RMK AO2,KK62,2023-06-02T17:35:00Z,38.7,-84.4,31.0,10.0,50,10,15,10.0,30.0,,,TRUE,TRUE,,,,,,,CLR,,,,,,,,VFR,,,,,,,,,,,,SPECI,274.0
KJZP 021735Z AUTO 27004KT 10SM SCT041 SCT048 BKN050 26/16 A2996 RMK AO2 T02610158,KJZP,2023-06-02T17:35:00Z,34.45,-84.47,26.1,15.8,270,4,,10.0,29.958662,,,TRUE,TRUE,,,,,,,SCT,4100,SCT,4800,BKN,5000,,,VFR,,,,,,,,,,,,METAR,462.0
KJZI 021735Z AUTO VRB04KT 10SM FEW030 BKN040 26/18 A2986 RMK AO2,KJZI,2023-06-02T17:35:00Z,32.7,-80.0,26.0,18.0,0,4,,10.0,29.861221,,,TRUE,TRUE,,,,,,,FEW,3000,BKN,4000,,,,,VFR,,,,,,,,,,,,METAR,5.0
KJYR 021735Z AUTO 00000KT 10SM SCT050 SCT085 BKN110 27/14 A3001 RMK AO2,KJYR,2023-06-02T17:35:00Z,40.9,-97.62,27.0,14.0,0,0,,10.0,30.008858,,,TRUE,TRUE,,,,,,,SCT,5000,SCT,8500,BKN,11000,,,VFR,,,,,,,,,,,,SPECI,508.0
KJYO 021735Z AUTO 06009KT 10SM CLR 31/13 A2996 RMK AO2,KJYO,2023-06-02T17:35:00Z,39.07,-77.57,31.0,13.0,60,9,,10.0,29.958662,,,TRUE,TRUE,,,,,,,CLR,,,,,,,,VFR,,,,,,,,,,,,METAR,112.0
KJYM 021735Z AUTO 09011G17KT 10SM SCT085 31/05 A3009 RMK AO2 T03090048,KJYM,2023-06-02T17:35:00Z,41.92,-84.58,30.9,4.8,90,11,17,10.0,30.088583,,,TRUE,TRUE,,,,,,,SCT,8500,,,,,,,VFR,,,,,,,,,,,,SPECI,357.0
KJWY 021735Z AUTO 16006KT 10SM SCT044 BKN050 BKN060 31/20 A2996 RMK AO2 T03050203,KJWY,2023-06-02T17:35:00Z,32.45,-96.92,30.5,20.3,160,6,,10.0,29.958662,,,TRUE,TRUE,,,,,,,SCT,4400,BKN,5000,BKN,6000,,,VFR,,,,,,,,,,,,SPECI,211.0
KJWG 021735Z AUTO 15014G19KT 10SM SCT038 SCT049 29/19 A2997 RMK AO2 T02900190,KJWG,2023-06-02T17:35:00Z,35.87,-98.42,29.0,19.0,150,14,19,10.0,29.970472,,,TRUE,TRUE,,,,,,,SCT,3800,SCT,4900,,,,,VFR,,,,,,,,,,,,SPECI,469.0
KJVY 021735Z AUTO 12006KT 10SM CLR 31/10 A3000 RMK AO2,KJVY,2023-06-02T17:35:00Z,38.37,-85.73,31.0,10.0,120,6,,10.0,30.0,,,TRUE,TRUE,,,,,,,CLR,,,,,,,,VFR,,,,,,,,,,,,SPECI,141.0
KJVW 021735Z AUTO VRB04G11KT 10SM BKN050 BKN065 BKN110 30/20 A2993 RMK AO2,KJVW,2023-06-02T17:35:00Z,32.3,-90.42,30.0,20.0,0,4,11,10.0,29.929134,,,TRUE,TRUE,,,,,,,BKN,5000,BKN,6500,BKN,11000,,,VFR,,,,,,,,,,,,SPECI,73.0
KJSV 021735Z AUTO VRB04G10KT 10SM FEW049 30/20 A2996 RMK AO2,KJSV,2023-06-02T17:35:00Z,35.43,-94.8,30.0,20.0,0,4,10,10.0,29.958662,,,TRUE,TRUE,,,,,,,FEW,4900,,,,,,,VFR,,,,,,,,,,,,METAR,158.0
KJSO 021735Z AUTO 00000KT 10SM BKN043 BKN055 29/19 A2996 RMK AO2 T02880191 TSNO,KJSO,2023-06-02T17:35:00Z,31.87,-95.22,28.8,19.1,0,0,,10.0,29.958662,,,TRUE,TRUE,,,TRUE,,,,BKN,4300,BKN,5500,,,,,VFR,,,,,,,,,,,,METAR,204.0
KJRO 021735Z AUTO 00000KT 10SM CLR 30/08 A3001 RMK AO2,KJRO,2023-06-02T17:35:00Z,38.98,-82.58,30.0,8.0,0,0,,10.0,30.008858,,,TRUE,TRUE,,,,,,,CLR,,,,,,,,VFR,,,,,,,,,,,,METAR,224.0
KJPX 021735Z AUTO 23008KT 10SM CLR 25/07 A2991 RMK AO2 T02480070,KJPX,2023-06-02T17:35:00Z,40.95,-72.25,24.8,7.0,230,8,,10.0,29.911417,,,TRUE,TRUE,,,,,,,CLR,,,,,,,,VFR,,,,,,,,,,,,METAR,10.0
KJOT 021735Z AUTO 06005KT 10SM CLR 32/12 A3006 RMK AO2 T03150117,KJOT,2023-06-02T17:35:00Z,41.52,-88.18,31.5,11.7,60,5,,10.0,30.059055,,,TRUE,TRUE,,,,,,,CLR,,,,,,,,VFR,,,,,,,,,,,,SPECI,175.0
KJMR 021735Z AUTO 16007KT 110V180 10SM CLR 27/16 A3011 RMK AO2 LTG DSNT S,KJMR,2023-06-02T17:35:00Z,45.88,-93.27,27.0,16.0,160,7,,10.0,30.109253,,,TRUE,TRUE,,,,,,,CLR,,,,,,,,VFR,,,,,,,,,,,,METAR,301.0
KJKJ 021735Z AUTO 15008KT 10SM CLR 29/18 A2997 RMK AO2 TSNO,KJKJ,2023-06-02T17:35:00Z,46.83,-96.67,29.0,18.0,150,8,,10.0,29.970472,,,TRUE,TRUE,,,TRUE,,,,CLR,,,,,,,,VFR,,,,,,,,,,,,METAR,280.0
KJHN 021735Z AUTO 18008G16KT 10SM BKN025 BKN037 OVC044 22/16 A2996 RMK AO2 T02200157,KJHN,2023-06-02T17:35:00Z,37.58,-101.73,22.0,15.7,180,8,16,10.0,29.958662,,,TRUE,TRUE,,,,,,,BKN,2500,BKN,3700,OVC,4400,,,MVFR,,,,,,,,,,,,SPECI,1013.0
KJFZ 021735Z AUTO 05008KT 010V100 10SM CLR 26/10 A3006 RMK AO2 T02560098,KJFZ,2023-06-02T17:35:00Z,37.07,-81.8,25.6,9.8,50,8,,10.0,30.059055,,,TRUE,TRUE,,,,,,,CLR,,,,,,,,VFR,,,,,,,,,,,,METAR,809.0
KJFX 021735Z AUTO 05006KT 10SM FEW065 FEW110 29/20 A2993 RMK AO2,KJFX,2023-06-02T17:35:00Z,33.9,-87.32,29.0,20.0,50,6,,10.0,29.929134,,,TRUE,TRUE,,,,,,,FEW,6500,FEW,11000,,,,,VFR,,,,,,,,,,,,SPECI,144.0
KJES 021735Z AUTO 02004KT 10SM SCT041 SCT050 BKN060 28/17 A2987 RMK AO2,KJES,2023-06-02T17:35:00Z,31.55,-81.88,28.0,17.0,20,4,,10.0,29.870079,,,TRUE,TRUE,,,,,,,SCT,4100,SCT,5000,BKN,6000,,,VFR,,,,,,,,,,,,SPECI,26.0
KJDD 021735Z AUTO 14003KT 10SM SCT050 SCT070 31/19 A2994 RMK AO2,KJDD,2023-06-02T17:35:00Z,32.75,-95.5,31.0,19.0,140,3,,10.0,29.940945,,,TRUE,TRUE,,,,,,,SCT,5000,SCT,7000,,,,,VFR,,,,,,,,,,,,SPECI,127.0
KJCA 021735Z AUTO 02005KT 10SM SCT047 SCT055 28/17 A2994 RMK AO2 T02780166,KJCA,2023-06-02T17:35:00Z,34.18,-83.57,27.8,16.6,20,5,,10.0,29.940945,,,TRUE,TRUE,,,,,,,SCT,4700,SCT,5500,,,,,VFR,,,,,,,,,,,,METAR,287.0
KJAS 021735Z AUTO 00000KT 9SM FEW044 FEW050 FEW065 31/21 A2991 RMK AO2,KJAS,2023-06-02T17:35:00Z,30.88,-94.03,31.0,21.0,0,0,,9.0,29.911417,,,TRUE,TRUE,,,,,,,FEW,4400,FEW,5000,FEW,6500,,,VFR,,,,,,,,,,,,METAR,60.0
KJAQ 021735Z AUTO 28006KT 10SM CLR 19/09 A2999 RMK AO1 T01930091,KJAQ,2023-06-02T17:35:00Z,38.37,-120.8,19.3,9.1,280,6,,10.0,29.991142,,,TRUE,TRUE,,,,,,,CLR,,,,,,,,VFR,,,,,,,,,,,,METAR,518.0
KIZA 021735Z AUTO 31005KT 8SM CLR 17/10 A3000 RMK AO2,KIZA,2023-06-02T17:35:00Z,34.6,-120.07,17.0,10.0,310,5,,8.0,30.0,,,TRUE,TRUE,,,,,,,CLR,,,,,,,,VFR,,,,,,,,,,,,SPECI,200.0
KIYA 021735Z AUTO 06005KT 7SM CLR 30/15 A2992 RMK AO2 T03020147,KIYA,2023-06-02T17:35:00Z,29.98,-92.08,30.2,14.7,60,5,,7.0,29.920275,,,TRUE,TRUE,,,,,,,CLR,,,,,,,,VFR,,,,,,,,,,,,SPECI,4.0
KISQ 021735Z AUTO 11008KT 10SM CLR 29/09 A3013 RMK AO2 T02850091,KISQ,2023-06-02T17:35:00Z,45.97,-86.17,28.5,9.1,110,8,,10.0,30.129921,,,TRUE,TRUE,,,,,,,CLR,,,,,,,,VFR,,,,,,,,,,,,METAR,206.0
KIRS 021735Z AUTO 06010G17KT 10SM CLR 32/M12 A3007 RMK AO2 T03161118,KIRS,2023-06-02T17:35:00Z,41.8,-85.43,31.6,-11.8,60,10,17,10.0,30.070866,,,TRUE,TRUE,,,,,,,CLR,,,,,,,,VFR,,,,,,,,,,,,SPECI,282.0
KIOB 021735Z AUTO 05007KT 10SM CLR 30/11 A3002 RMK AO2 PWINO,KIOB,2023-06-02T17:35:00Z,38.05,-83.98,30.0,11.0,50,7,,10.0,30.02067,,,TRUE,TRUE,,,,,TRUE,,CLR,,,,,,,,VFR,,,,,,,,,,,,SPECI,301.0
KINJ 021735Z AUTO 15010KT 10SM BKN039 BKN045 BKN055 31/20 A2993 RMK AO2 T03110202,KINJ,2023-06-02T17:35:00Z,32.08,-97.1,31.1,20.2,150,10,,10.0,29.929134,,,TRUE,TRUE,,,,,,,BKN,3900,BKN,4500,BKN,5500,,,VFR,,,,,,,,,,,,SPECI,208.0
KINF 021735Z AUTO 04006KT 7SM BKN039 BKN050 OVC060 28/21 A2979 RMK AO2,KINF,2023-06-02T17:35:00Z,28.8,-82.32,28.0,21.0,40,6,,7.0,29.790354,,,TRUE,TRUE,,,,,,,BKN,3900,BKN,5000,OVC,6000,,,VFR,,,,,,,,,,,,SPECI,14.0
KIMS 021735Z AUTO 07007KT 10SM CLR 31/07 A3003 RMK AO2,KIMS,2023-06-02T17:35:00Z,38.75,-85.47,31.0,7.0,70,7,,10.0,30.029528,,,TRUE,TRUE,,,,,,,CLR,,,,,,,,VFR,,,,,,,,,,,,SPECI,244.0
KIKW 021735Z AUTO 07004KT 10SM CLR 29/12 A3011 RMK AO2 T02940116,KIKW,2023-06-02T17:35:00Z,43.67,-84.27,29.4,11.6,70,4,,10.0,30.109253,,,TRUE,TRUE,,,,,,,CLR,,,,,,,,VFR,,,,,,,,,,,,SPECI,190.0
KIKV 021735Z AUTO VRB05KT 9SM CLR 29/21 A3005 RMK AO2,KIKV,2023-06-02T17:35:00Z,41.68,-93.57,29.0,21.0,0,5,,9.0,30.050198,,,TRUE,TRUE,,,,,,,CLR,,,,,,,,VFR,,,,,,,,,,,,SPECI,270.0
KIKK 021735Z AUTO 08011G15KT 10SM CLR 32/06 A3005 RMK AO2 T03230057 PWINO,KIKK,2023-06-02T17:35:00Z,41.07,-87.85,32.3,5.7,80,11,15,10.0,30.050198,,,TRUE,TRUE,,,,,TRUE,,CLR,,,,,,,,VFR,,,,,,,,,,,,SPECI,188.0
KIKG 021735Z AUTO 11009G17KT 10SM SCT040 SCT050 SCT060 31/21 A2988 RMK AO2 T03120210,KIKG,2023-06-02T17:35:00Z,27.55,-98.03,31.2,21.0,110,9,17,10.0,29.878937,,,TRUE,TRUE,,,,,,,SCT,4000,SCT,5000,SCT,6000,,,VFR,,,,,,,,,,,,SPECI,37.0
KIJX 021735Z AUTO 00000KT 10SM SCT075 31/15 A3002 RMK AO2 T03080150,KIJX,2023-06-02T17:35:00Z,39.77,-90.25,30.8,15.0,0,0,,10.0,30.02067,,,TRUE,TRUE,,,,,,,SCT,7500,,,,,,,VFR,,,,,,,,,,,,SPECI,187.0
KIIY 021735Z AUTO 00000KT 10SM SCT043 SCT050 27/17 A2992 RMK AO2 T02710171,KIIY,2023-06-02T17:35:00Z,33.78,-82.82,27.1,17.1,0,0,,10.0,29.920275,,,TRUE,TRUE,,,,,,,SCT,4300,SCT,5000,,,,,VFR,,,,,,,,,,,,METAR,192.0
KIIB 021735Z AUTO 00000KT 10SM BKN110 29/17 A3008 RMK AO2 T02900167,KIIB,2023-06-02T17:35:00Z,42.45,-91.95,29.0,16.7,0,0,,10.0,30.079725,,,TRUE,TRUE,,,,,,,BKN,11000,,,,,,,VFR,,,,,,,,,,,,SPECI,294.0
KIGQ 021735Z AUTO 09007KT 10SM CLR 32/13 A3006 RMK AO2 T03190127,KIGQ,2023-06-02T17:35:00Z,41.53,-87.53,31.9,12.7,90,7,,10.0,30.059055,,,TRUE,TRUE,,,,,,,CLR,,,,,,,,VFR,,,,,,,,,,,,SPECI,187.0
KIFA 021735Z AUTO 15005G08KT 10SM CLR 30/19 A3006 RMK AO2 T02950188,KIFA,2023-06-02T17:35:00Z,42.47,-93.27,29.5,18.8,150,5,8,10.0,30.059055,,,TRUE,TRUE,,,,,,,CLR,,,,,,,,VFR,,,,,,,,,,,,SPECI,344.0
KIDP 021735Z AUTO 15007KT 10SM SCT049 SCT060 30/19 A2998 RMK AO2 T03000187,KIDP,2023-06-02T17:35:00Z,37.17,-95.78,30.0,18.7,150,7,,10.0,29.97933,,,TRUE,TRUE,,,,,,,SCT,4900,SCT,6000,,,,,VFR,,,,,,,,,,,,SPECI,252.0
KIDI 021735Z AUTO 08009KT 10SM CLR 30/10 A3005 RMK A01,KIDI,2023-06-02T17:35:00Z,40.63,-79.1,30.0,10.0,80,9,,10.0,30.050198,,,TRUE,TRUE,,,,,,,CLR,,,,,,,,VFR,,,,,,,,,,,,METAR,425.0
KICL 021735Z AUTO VRB06G13KT 10SM CLR 30/18 A3003 RMK AO2,KICL,2023-06-02T17:35:00Z,40.72,-95.02,30.0,18.0,0,6,13,10.0,30.029528,,,TRUE,TRUE,,,,,,,CLR,,,,,,,,VFR,,,,,,,,,,,,SPECI,299.0
KIBM 021735Z AUTO 00000KT 10SM CLR 19/11 A2996 RMK AO2 T01940108,KIBM,2023-06-02T17:35:00Z,41.18,-103.68,19.4,10.8,0,0,,10.0,29.958662,,,TRUE,TRUE,,,,,,,CLR,,,,,,,,VFR,,,,,,,,,,,,SPECI,1494.0
KI95 021735Z AUTO 11005G18KT 10SM CLR 30/11 A3003 RMK A01,KI95,2023-06-02T17:35:00Z,,,30.0,11.0,110,5,18,10.0,30.029528,,,TRUE,TRUE,,,,,,,CLR,,,,,,,,VFR,,,,,,,,,,,,SPECI,
KI75 021735Z AUTO 11006KT 7SM CLR 30/19 A3004 RMK AO2 T02970192,KI75,2023-06-02T17:35:00Z,41.05,-93.68,29.7,19.2,110,6,,7.0,30.041338,,,TRUE,TRUE,,,,,,,CLR,,,,,,,,VFR,,,,,,,,,,,,SPECI,336.0
KI74 021735Z AUTO 01005G14KT 10SM CLR 30/08 A3004 RMK AO2,KI74,2023-06-02T17:35:00Z,40.12,-83.75,30.0,8.0,10,5,14,10.0,30.041338,,,TRUE,TRUE,,,,,,,CLR,,,,,,,,VFR,,,,,,,,,,,,SPECI,322.0
KI68 021735Z AUTO VRB03G13KT 10SM CLR 30/11 A3001 RMK AO2,KI68,2023-06-02T17:35:00Z,39.47,-84.25,30.0,11.0,0,3,13,10.0,30.008858,,,TRUE,TRUE,,,,,,,CLR,,,,,,,,VFR,,,,,,,,,,,,METAR,274.0
KI67 021735Z AUTO 06003KT 10SM CLR 31/09 A3001 RMK AO1,KI67,2023-06-02T17:35:00Z,39.25,-84.78,31.0,9.0,60,3,,10.0,30.008858,,,TRUE,TRUE,,,,,,,CLR,,,,,,,,VFR,,,,,,,,,,,,SPECI,177.0
KI63 021735Z AUTO 11008KT 10SM SCT070 SCT090 31/17 A3003 RMK AO2 T03140165,KI63,2023-06-02T17:35:00Z,39.98,-90.8,31.4,16.5,110,8,,10.0,30.029528,,,TRUE,TRUE,,,,,,,SCT,7000,SCT,9000,,,,,VFR,,,,,,,,,,,,SPECI,221.0
KI23 021735Z AUTO 08013G16KT 10SM CLR 33/07 A3002 RMK AO1,KI23,2023-06-02T17:35:00Z,39.57,-83.42,33.0,7.0,80,13,16,10.0,30.02067,,,TRUE,TRUE,,,,,,,CLR,,,,,,,,VFR,,,,,,,,,,,,SPECI,298.0
KI19 021735Z AUTO VRB05KT 10SM CLR 31/11 A3001 RMK AO2,KI19,2023-06-02T17:35:00Z,39.7,-83.98,31.0,11.0,0,5,,10.0,30.008858,,,TRUE,TRUE,,,,,,,CLR,,,,,,,,VFR,,,,,,,,,,,,METAR,285.0
KI16 021735Z AUTO 10SM CLR 30/08 A3006 RMK AO2 T02960081 PNO,KI16,2023-06-02T17:35:00Z,37.6,-81.57,29.6,8.1,,,,10.0,30.059055,,,TRUE,TRUE,,,,,,,CLR,,,,,,,,VFR,,,,,,,,,,,,SPECI,528.0
KHZX 021735Z AUTO 16007KT 10SM CLR 27/18 A3009 RMK AO2,KHZX,2023-06-02T17:35:00Z,46.62,-93.32,27.0,18.0,160,7,,10.0,30.088583,,,TRUE,TRUE,,,,,,,CLR,,,,,,,,VFR,,,,,,,,,,,,SPECI,374.0
KHZL 021735Z AUTO 33006KT CLR 30/11 A3002 RMK AO2 PWINO,KHZL,2023-06-02T17:35:00Z,40.98,-76.0,30.0,11.0,330,6,,,30.02067,,,TRUE,TRUE,,,,,TRUE,,CLR,,,,,,,,,,,,,,,,,,,,METAR,481.0
KHZE 021735Z AUTO 13010G23KT 10SM SCT090 28/18 A2993 RMK AO2,KHZE,2023-06-02T17:35:00Z,47.28,-101.58,28.0,18.0,130,10,23,10.0,29.929134,,,TRUE,TRUE,,,,,,,SCT,9000,,,,,,,VFR,,,,,,,,,,,,SPECI,542.0
KHZD 021735Z AUTO 04006KT 10SM SCT050 30/18 A2995 RMK A01,KHZD,2023-06-02T17:35:00Z,36.08,-88.47,30.0,18.0,40,6,,10.0,29.949802,,,TRUE,TRUE,,,,,,,SCT,5000,,,,,,,VFR,,,,,,,,,,,,SPECI,147.0
KHYX 021735Z AUTO 32009KT 10SM CLR 29/16 A3009 RMK AO2 T02880159,KHYX,2023-06-02T17:35:00Z,43.43,-83.87,28.8,15.9,320,9,,10.0,30.088583,,,TRUE,TRUE,,,,,,,CLR,,,,,,,,VFR,,,,,,,,,,,,METAR,181.0
KHYW 021735Z AUTO 00000KT 10SM SCT030 OVC038 23/18 A2988 RMK AO2,KHYW,2023-06-02T17:35:00Z,33.83,-79.12,23.0,18.0,0,0,,10.0,29.878937,,,TRUE,TRUE,,,,,,,SCT,3000,OVC,3800,,,,,VFR,,,,,,,,,,,,SPECI,10.0
KHWY 021735Z AUTO 01005KT 10SM CLR 32/08 A2994 RMK AO2 T03150077,KHWY,2023-06-02T17:35:00Z,38.58,-77.72,31.5,7.7,10,5,,10.0,29.940945,,,TRUE,TRUE,,,,,,,CLR,,,,,,,,VFR,,,,,,,,,,,,SPECI,93.0
KHVS 021735Z AUTO 03009KT 10SM FEW035 BKN049 BKN055 27/17 A2990 RMK AO2,KHVS,2023-06-02T17:35:00Z,34.4,-80.12,27.0,17.0,30,9,,10.0,29.899607,,,TRUE,TRUE,,,,,,,FEW,3500,BKN,4900,BKN,5500,,,VFR,,,,,,,,,,,,METAR,110.0
KHVE 021735Z AUTO 00000KT 10SM CLR 23/01 A2997 RMK AO2,KHVE,2023-06-02T17:35:00Z,38.42,-110.7,23.0,1.0,0,0,,10.0,29.970472,,,TRUE,TRUE,,,,,,,CLR,,,,,,,,VFR,,,,,,,,,,,,METAR,1351.0
KHTH 021735Z AUTO 34009KT 10SM CLR 20/04 A3006 RMK A01,KHTH,2023-06-02T17:35:00Z,38.55,-118.63,20.0,4.0,340,9,,10.0,30.059055,,,TRUE,TRUE,,,,,,,CLR,,,,,,,,VFR,,,,,,,,,,,,SPECI,1281.0
KHSP 021735Z AUTO 04006KT 5SM HZ CLR 24/08 A3013 RMK AO2 T02410080,KHSP,2023-06-02T17:35:00Z,37.95,-79.82,24.1,8.0,40,6,,5.0,30.129921,,,TRUE,TRUE,,,,,,HZ,CLR,,,,,,,,MVFR,,,,,,,,,,,,METAR,1148.0
KHSG 021735Z AUTO 33008KT 7SM -DZ SCT016 BKN024 OVC028 12/11 A2997 RMK AO2 LTG DSNT SE T01200107,KHSG,2023-06-02T17:35:00Z,43.72,-108.38,12.0,10.7,330,8,,7.0,29.970472,,,TRUE,TRUE,,,,,,-DZ,SCT,1600,BKN,2400,OVC,2800,,,MVFR,,,,,,,,,,,,METAR,1497.0
KHSB 021735Z AUTO 10006KT 10SM SCT075 34/06 A2998 RMK AO2 T03420061,KHSB,2023-06-02T17:35:00Z,37.82,-88.55,34.2,6.1,100,6,,10.0,29.97933,,,TRUE,TRUE,,,,,,,SCT,7500,,,,,,,VFR,,,,,,,,,,,,METAR,118.0
KHRX 021735Z AUTO 10SM SCT014 BKN100 OVC120 20/16 A2997 RMK AO2 T02010160 TSNO,KHRX,2023-06-02T17:35:00Z,34.87,-102.33,20.1,16.0,,,,10.0,29.970472,,,TRUE,TRUE,,,TRUE,,,,SCT,1400,BKN,10000,OVC,12000,,,VFR,,,,,,,,,,,,SPECI,1153.0
KHQU 021735Z AUTO 04007KT 330V080 10SM BKN041 BKN048 27/17 A2991 RMK AO2 T02660168,KHQU,2023-06-02T17:35:00Z,33.53,-82.52,26.6,16.8,40,7,,10.0,29.911417,,,TRUE,TRUE,,,,,,,BKN,4100,BKN,4800,,,,,VFR,,,,,,,,,,,,SPECI,141.0
KHQG 021735Z AUTO 17012KT 10SM SCT019 BKN025 OVC032 21/17 A2997 RMK AO2 T02140168 PWINO,KHQG,2023-06-02T17:35:00Z,37.17,-101.37,21.4,16.8,170,12,,10.0,29.970472,,,TRUE,TRUE,,,,,TRUE,,SCT,1900,BKN,2500,OVC,3200,,,MVFR,,,,,,,,,,,,SPECI,956.0
KHQG 021735Z AUTO 17012KT 10SM SCT019 BKN025 OVC032 21/17 A2997 RMK AO2 T02140168 PWINO,KHQG,2023-06-02T17:35:00Z,37.17,-101.37,21.4,16.8,170,12,,10.0,29.970472,,,TRUE,TRUE,,,,,TRUE,,SCT,1900,BKN,2500,OVC,3200,,,MVFR,,,,,,,,,,,,SPECI,956.0
KHPT 021735Z AUTO 13004KT 10SM SCT002 28/16 A3006 RMK AO2,KHPT,2023-06-02T17:35:00Z,42.72,-93.23,28.0,16.0,130,4,,10.0,30.059055,,,TRUE,TRUE,,,,,,,SCT,200,,,,,,,VFR,,,,,,,,,,,,SPECI,354.0
KHOE 021735Z AUTO 05007KT 10SM SCT042 BKN050 BKN060 27/17 A2986 RMK AO2 T02790171,KHOE,2023-06-02T17:35:00Z,31.05,-82.78,27.9,17.1,50,7,,10.0,29.861221,,,TRUE,TRUE,,,,,,,SCT,4200,BKN,5000,BKN,6000,,,VFR,,,,,,,,,,,,SPECI,56.0
KHNR 021735Z AUTO 13010G16KT 10SM FEW050 FEW070 FEW080 30/20 A3002 RMK A01,KHNR,2023-06-02T17:35:00Z,41.58,-95.33,30.0,20.0,130,10,16,10.0,30.02067,,,TRUE,TRUE,,,,,,,FEW,5000,FEW,7000,FEW,8000,,,VFR,,,,,,,,,,,,SPECI,364.0
KHMZ 021735Z AUTO 15006KT 10SM SCT080 30/09 A2999 RMK AO2 T02950086,KHMZ,2023-06-02T17:35:00Z,40.08,-78.52,29.5,8.6,150,6,,10.0,29.991142,,,TRUE,TRUE,,,,,,,SCT,8000,,,,,,,VFR,,,,,,,,,,,,SPECI,351.0
KHMT 021735Z AUTO 35003KT 10SM OVC022 16/11 A2999 RMK AO2 T01640106,KHMT,2023-06-02T17:35:00Z,33.73,-117.02,16.4,10.6,350,3,,10.0,29.991142,,,TRUE,TRUE,,,,,,,OVC,2200,,,,,,,MVFR,,,,,,,,,,,,METAR,462.0
KHMP 021735Z AUTO 03006KT 10SM SCT046 SCT060 28/15 A2996 RMK AO2 T02800155,KHMP,2023-06-02T17:35:00Z,33.38,-84.33,28.0,15.5,30,6,,10.0,29.958662,,,TRUE,TRUE,,,,,,,SCT,4600,SCT,6000,,,,,VFR,,,,,,,,,,,,METAR,263.0
KHLX 021735Z AUTO 05005G14KT 10SM CLR 25/10 A3004 RMK AO2 T02510098,KHLX,2023-06-02T17:35:00Z,36.77,-80.82,25.1,9.8,50,5,14,10.0,30.041338,,,TRUE,TRUE,,,,,,,CLR,,,,,,,,VFR,,,,,,,,,,,,METAR,819.0
KHLB 021735Z AUTO VRB05G11KT 10SM CLR 30/05 A3003 RMK A01,KHLB,2023-06-02T17:35:00Z,39.35,-85.27,30.0,5.0,0,5,11,10.0,30.029528,,,TRUE,TRUE,,,,,,,CLR,,,,,,,,VFR,,,,,,,,,,,,SPECI,297.0
KHJH 021735Z AUTO 31005KT 7SM -RA SCT050 BKN070 BKN080 23/18 A3000 RMK AO2 LTG DSNT NE AND W P0002 T02310179,KHJH,2023-06-02T17:35:00Z,40.15,-97.58,23.1,17.9,310,5,,7.0,30.0,,,TRUE,TRUE,,,,,,-RA,SCT,5000,BKN,7000,BKN,8000,,,VFR,,,,,,0.02,,,,,,SPECI,449.0
KHHG 021735Z AUTO 04012G18KT 10SM CLR 30/12 A3005 RMK AO2 T03030118,KHHG,2023-06-02T17:35:00Z,40.85,-85.45,30.3,11.8,40,12,18,10.0,30.050198,,,TRUE,TRUE,,,,,,,CLR,,,,,,,,VFR,,,,,,,,,,,,SPECI,247.0
KHHF 021735Z AUTO 18012KT 10SM SCT023 SCT039 BKN049 25/19 A2995 RMK AO2 T02530192,KHHF,2023-06-02T17:35:00Z,35.9,-100.4,25.3,19.2,180,12,,10.0,29.949802,,,TRUE,TRUE,,,,,,,SCT,2300,SCT,3900,BKN,4900,,,VFR,,,,,,,,,,,,SPECI,729.0
KHFY 021735Z AUTO 06005KT 10SM CLR 31/11 A3004 RMK AO2 T03080114,KHFY,2023-06-02T17:35:00Z,39.63,-86.08,30.8,11.4,60,5,,10.0,30.041338,,,TRUE,TRUE,,,,,,,CLR,,,,,,,,VFR,,,,,,,,,,,,SPECI,250.0
KHFJ 021735Z AUTO 12005KT 10SM CLR 28/17 A3002 RMK AO2,KHFJ,2023-06-02T17:35:00Z,36.9,-94.02,28.0,17.0,120,5,,10.0,30.02067,,,TRUE,TRUE,,,,,,,CLR,,,,,,,,VFR,,,,,,,,,,,,SPECI,398.0
KHEQ 021735Z AUTO 19007KT 10SM CLR 24/15 A2994 RMK AO2,KHEQ,2023-06-02T17:35:00Z,40.57,-102.28,24.0,15.0,190,7,,10.0,29.940945,,,TRUE,TRUE,,,,,,,CLR,,,,,,,,VFR,,,,,,,,,,,,SPECI,1136.0
KHEG 021735Z AUTO 04011G16KT 10SM FEW034 SCT047 27/18 A2985 RMK AO2,KHEG,2023-06-02T17:35:00Z,30.28,-81.8,27.0,18.0,40,11,16,10.0,29.84941,,,TRUE,TRUE,,,,,,,FEW,3400,SCT,4700,,,,,VFR,,,,,,,,,,,,METAR,25.0
KHDL 021735Z AUTO 03008KT 28/16 A2987 RMK AO2,KHDL,2023-06-02T17:35:00Z,31.37,-85.32,28.0,16.0,30,8,,,29.870079,,,TRUE,TRUE,,,,,,,,,,,,,,,,,,,,,,,,,,,METAR,109.0
KHDE 021735Z AUTO 14014KT 10SM BKN020 OVC026 23/16 A2998 RMK AO2 LTG DSNT SE AND S T02250163,KHDE,2023-06-02T17:35:00Z,40.45,-99.33,22.5,16.3,140,14,,10.0,29.97933,,,TRUE,TRUE,,,,,,,BKN,2000,OVC,2600,,,,,MVFR,,,,,,,,,,,,SPECI,703.0
KHDC 021735Z AUTO 07003KT 10SM SCT050 SCT070 30/18 A2990 RMK AO2 T02960180,KHDC,2023-06-02T17:35:00Z,30.52,-90.42,29.6,18.0,70,3,,10.0,29.899607,,,TRUE,TRUE,,,,,,,SCT,5000,SCT,7000,,,,,VFR,,,,,,,,,,,,SPECI,12.0
KHCR 021735Z AUTO 09003KT 10SM SCT027 SCT043 BKN060 13/07 A3004 RMK AO2,KHCR,2023-06-02T17:35:00Z,40.48,-111.43,13.0,7.0,90,3,,10.0,30.041338,,,TRUE,TRUE,,,,,,,SCT,2700,SCT,4300,BKN,6000,,,VFR,,,,,,,,,,,,METAR,1708.0
KHCO 021735Z AUTO 12009KT 10SM CLR 28/22 A2998 RMK AO2,KHCO,2023-06-02T17:35:00Z,48.75,-96.93,28.0,22.0,120,9,,10.0,29.97933,,,TRUE,TRUE,,,,,,,CLR,,,,,,,,VFR,,,,,,,,,,,,METAR,250.0
KHCD 021735Z AUTO 18004KT 10SM SCT045 29/18 A3005 RMK AO2 LTG DSNT E T02920183,KHCD,2023-06-02T17:35:00Z,44.87,-94.38,29.2,18.3,180,4,,10.0,30.050198,,,TRUE,TRUE,,,,,,,SCT,4500,,,,,,,VFR,,,,,,,,,,,,SPECI,320.0
KHBV 021735Z AUTO 15011KT 10SM SCT041 BKN065 30/20 A2990 RMK AO2 T03000204,KHBV,2023-06-02T17:35:00Z,27.35,-98.73,30.0,20.4,150,11,,10.0,29.899607,,,TRUE,TRUE,,,,,,,SCT,4100,BKN,6500,,,,,VFR,,,,,,,,,,,,METAR,200.0
KHAI 021735Z AUTO 09011G15KT 10SM SCT090 33/05 A3008 RMK AO2 T03250052,KHAI,2023-06-02T17:35:00Z,41.97,-85.6,32.5,5.2,90,11,15,10.0,30.079725,,,TRUE,TRUE,,,,,,,SCT,9000,,,,,,,VFR,,,,,,,,,,,,SPECI,250.0
KHAF 021735Z AUTO 14005KT 6SM HZ OVC015 13/09 A3003 RMK AO2,KHAF,2023-06-02T17:35:00Z,37.52,-122.5,13.0,9.0,140,5,,6.0,30.029528,,,TRUE,TRUE,,,,,,HZ,OVC,1500,,,,,,,MVFR,,,,,,,,,,,,METAR,11.0
KHAE 021735Z AUTO 07004KT 10SM CLR 31/16 A3003 RMK AO2,KHAE,2023-06-02T17:35:00Z,39.73,-91.45,31.0,16.0,70,4,,10.0,30.029528,,,TRUE,TRUE,,,,,,,CLR,,,,,,,,VFR,,,,,,,,,,,,METAR,230.0
KGZS 021735Z AUTO VRB04G10KT 10SM CLR 29/19 A2994 RMK A01,KGZS,2023-06-02T17:35:00Z,35.15,-87.05,29.0,19.0,0,4,10,10.0,29.940945,,,TRUE,TRUE,,,,,,,CLR,,,,,,,,VFR,,,,,,,,,,,,SPECI,198.0
KGZL 021735Z AUTO 16007G12KT 120V190 10SM FEW050 32/18 A2996 RMK AO2,KGZL,2023-06-02T17:35:00Z,35.28,-95.1,32.0,18.0,160,7,12,10.0,29.958662,,,TRUE,TRUE,,,,,,,FEW,5000,,,,,,,VFR,,,,,,,,,,,,SPECI,176.0
KGYL 021735Z AUTO 10003KT 10SM CLR 28/17 A3005 RMK AO2 LTG DSNT E AND SE T02790168,KGYL,2023-06-02T17:35:00Z,44.77,-94.08,27.9,16.8,100,3,,10.0,30.050198,,,TRUE,TRUE,,,,,,,CLR,,,,,,,,VFR,,,,,,,,,,,,METAR,304.0
KGYF 021735Z AUTO 11004KT 10SM CLR 27/21 A2991 RMK AO2 T02690206,KGYF,2023-06-02T17:35:00Z,26.13,-94.9,26.9,20.6,110,4,,10.0,29.911417,,,TRUE,TRUE,,,,,,,CLR,,,,,,,,VFR,,,,,,,,,,,,METAR,65.0
KGYB 021735Z AUTO 16005G08KT 10SM CLR 30/18 A2994 RMK AO2 T02960177,KGYB,2023-06-02T17:35:00Z,30.17,-96.98,29.6,17.7,160,5,8,10.0,29.940945,,,TRUE,TRUE,,,,,,,CLR,,,,,,,,VFR,,,,,,,,,,,,SPECI,140.0
KGWR 021735Z AUTO 17013KT 10SM CLR 29/19 A2996 RMK A01,KGWR,2023-06-02T17:35:00Z,46.22,-97.65,29.0,19.0,170,13,,10.0,29.958662,,,TRUE,TRUE,,,,,,,CLR,,,,,,,,VFR,,,,,,,,,,,,METAR,381.0
KGWB 021735Z AUTO 03009G16KT 10SM SCT090 30/10 A3007 RMK AO2,KGWB,2023-06-02T17:35:00Z,41.3,-85.07,30.0,10.0,30,9,16,10.0,30.070866,,,TRUE,TRUE,,,,,,,SCT,9000,,,,,,,VFR,,,,,,,,,,,,SPECI,268.0
KGVT 021735Z AUTO 10006KT 10SM SCT049 BKN060 BKN070 31/19 A2994 RMK AO2 TSNO T03070188,KGVT,2023-06-02T17:35:00Z,33.07,-96.07,30.7,18.8,100,6,,10.0,29.940945,,,TRUE,TRUE,,,TRUE,,,,SCT,4900,BKN,6000,BKN,7000,,,VFR,,,,,,,,,,,,METAR,165.0
KGVE 021735Z AUTO 06009G15KT 10SM CLR 30/11 A2995 RMK AO1 T03010108,KGVE,2023-06-02T17:35:00Z,38.15,-78.17,30.1,10.8,60,9,15,10.0,29.949802,,,TRUE,TRUE,,,,,,,CLR,,,,,,,,VFR,,,,,,,,,,,,METAR,138.0
KGUL 021735Z AUTO 07004KT 10SM CLR 27/21 A2992 RMK A01,KGUL,2023-06-02T17:35:00Z,27.3,-93.53,27.0,21.0,70,4,,10.0,29.920275,,,TRUE,TRUE,,,,,,,CLR,,,,,,,,VFR,,,,,,,,,,,,SPECI,20.0
KGRY 021735Z AUTO 04019KT 10SM FEW025 25/20 A2989 RMK A01,KGRY,2023-06-02T17:35:00Z,27.63,-90.45,25.0,20.0,40,19,,10.0,29.890747,,,TRUE,TRUE,,,,,,,FEW,2500,,,,,,,VFR,,,,,,,,,,,,METAR,58.0
KGRN 021735Z AUTO 15011G14KT 10SM SCT029 OVC040 21/14 A2993 RMK AO2 T02090141,KGRN,2023-06-02T17:35:00Z,42.8,-102.17,20.9,14.1,150,11,14,10.0,29.929134,,,TRUE,TRUE,,,,,,,SCT,2900,OVC,4000,,,,,VFR,,,,,,,,,,,,SPECI,1080.0
KGRI 021735Z 18011KT 5SM -RA BR OVC095 18/16 A3004 RMK AO2 P0011 T01830161,KGRI,2023-06-02T17:35:00Z,40.97,-98.32,18.3,16.1,180,11,,5.0,30.041338,,,,TRUE,,,,,,-RA BR,OVC,9500,,,,,,,MVFR,,,,,,0.11,,,,,,METAR,562.0
KGPH 021735Z AUTO 12004KT 10SM SCT047 SCT055 28/17 A3001 RMK AO2,KGPH,2023-06-02T17:35:00Z,39.33,-94.32,28.0,17.0,120,4,,10.0,30.008858,,,TRUE,TRUE,,,,,,,SCT,4700,SCT,5500,,,,,VFR,,,,,,,,,,,,SPECI,233.0
KGPC 021735Z AUTO 05008KT 10SM CLR 31/09 A3003 RMK AO2 T03060086,KGPC,2023-06-02T17:35:00Z,39.63,-86.82,30.6,8.6,50,8,,10.0,30.029528,,,TRUE,TRUE,,,,,,,CLR,,,,,,,,VFR,,,,,,,,,,,,SPECI,254.0
KGOP 021735Z AUTO 13007G13KT 090V180 10SM CLR 30/16 A2994 RMK AO2,KGOP,2023-06-02T17:35:00Z,31.42,-97.8,30.0,16.0,130,7,13,10.0,29.940945,,,TRUE,TRUE,,,,,,,CLR,,,,,,,,VFR,,,,,,,,,,,,METAR,272.0
KGNT 021735Z AUTO 20012KT 10SM SCT050 BKN070 OVC095 11/06 A3014 RMK AO2 LTG DSNT ALQS P0004 T01090055,KGNT,2023-06-02T17:35:00Z,35.17,-107.9,10.9,5.5,200,12,,10.0,30.138779,,,TRUE,TRUE,,,,,,,SCT,5000,BKN,7000,OVC,9500,,,VFR,,,,,,0.04,,,,,,METAR,1988.0
KGNG 021735Z AUTO 27010KT 10SM CLR 20/06 A3001 RMK AO2,KGNG,2023-06-02T17:35:00Z,42.92,-114.77,20.0,6.0,270,10,,10.0,30.008858,,,TRUE,TRUE,,,,,,,CLR,,,,,,,,VFR,,,,,,,,,,,,SPECI,1128.0
KGNB 021735Z AUTO 00000KT 10SM SCT013 OVC024 07/04 A3013 RMK AO2 LTG DSNT NE T00700039,KGNB,2023-06-02T17:35:00Z,40.08,-105.92,7.0,3.9,0,0,,10.0,30.129921,,,TRUE,TRUE,,,,,,,SCT,1300,OVC,2400,,,,,MVFR,,,,,,,,,,,,METAR,2500.0
KGMJ 021735Z AUTO 15007G13KT 10SM FEW050 30/19 A2998 RMK AO2,KGMJ,2023-06-02T17:35:00Z,36.6,-94.73,30.0,19.0,150,7,13,10.0,29.97933,,,TRUE,TRUE,,,,,,,FEW,5000,,,,,,,VFR,,,,,,,,,,,,METAR,251.0
KGLY 021735Z AUTO 11008KT 10SM FEW050 31/17 A3000 RMK AO2,KGLY,2023-06-02T17:35:00Z,38.35,-93.68,31.0,17.0,110,8,,10.0,30.0,,,TRUE,TRUE,,,,,,,FEW,5000,,,,,,,VFR,,,,,,,,,,,,METAR,247.0
KGLW 021735Z AUTO 08006KT 10SM SCT060 29/16 A2998 RMK AO2 T02940164,KGLW,2023-06-02T17:35:00Z,37.03,-85.95,29.4,16.4,80,6,,10.0,29.97933,,,TRUE,TRUE,,,,,,,SCT,6000,,,,,,,VFR,,,,,,,,,,,,METAR,216.0
KGLE 021735Z AUTO 17011G16KT 10SM SCT046 SCT050 SCT080 32/18 A2995 RMK AO2 T03180180 PWINO,KGLE,2023-06-02T17:35:00Z,33.65,-97.2,31.8,18.0,170,11,16,10.0,29.949802,,,TRUE,TRUE,,,,,TRUE,,SCT,4600,SCT,5000,SCT,8000,,,VFR,,,,,,,,,,,,METAR,250.0
KGKT 021735Z AUTO 04009KT 010V070 10SM CLR 29/13 A2996 RMK A01,KGKT,2023-06-02T17:35:00Z,35.85,-83.53,29.0,13.0,40,9,,10.0,29.958662,,,TRUE,TRUE,,,,,,,CLR,,,,,,,,VFR,,,,,,,,,,,,SPECI,305.0
KGIC 021735Z AUTO 05006KT 10SM CLR 16/06 A3005 RMK AO1,KGIC,2023-06-02T17:35:00Z,45.95,-116.12,16.0,6.0,50,6,,10.0,30.050198,,,TRUE,TRUE,,,,,,,CLR,,,,,,,,VFR,,,,,,,,,,,,METAR,1002.0
KGHW 021735Z AUTO 15009G17KT 10SM CLR 29/18 A3004 RMK AO2 LTG DSNT SE,KGHW,2023-06-02T17:35:00Z,45.63,-95.32,29.0,18.0,150,9,17,10.0,30.041338,,,TRUE,TRUE,,,,,,,CLR,,,,,,,,VFR,,,,,,,,,,,,METAR,423.0
KGHG 021735Z AUTO 11007KT 10SM CLR 29/16 A2987 RMK AO2,KGHG,2023-06-02T17:35:00Z,42.1,-70.67,29.0,16.0,110,7,,10.0,29.870079,,,TRUE,TRUE,,,,,,,CLR,,,,,,,,VFR,,,,,,,,,,,,METAR,3.0
KGGP 021735Z AUTO 08008G18KT 10SM CLR 31/06 A3006 RMK AO2,KGGP,2023-06-02T17:35:00Z,40.72,-86.37,31.0,6.0,80,8,18,10.0,30.059055,,,TRUE,TRUE,,,,,,,CLR,,,,,,,,VFR,,,,,,,,,,,,SPECI,224.0
KGGI 021735Z AUTO 14005KT 10SM CLR 30/19 A3006 RMK AO2 T03000194,KGGI,2023-06-02T17:35:00Z,41.72,-92.73,30.0,19.4,140,5,,10.0,30.059055,,,TRUE,TRUE,,,,,,,CLR,,,,,,,,VFR,,,,,,,,,,,,SPECI,305.0
KGGF 021735Z AUTO 15014G21KT 10SM BKN032 BKN037 BKN043 23/16 A2993 RMK AO2,KGGF,2023-06-02T17:35:00Z,40.87,-101.73,23.0,16.0,150,14,21,10.0,29.929134,,,TRUE,TRUE,,,,,,,BKN,3200,BKN,3700,BKN,4300,,,VFR,,,,,,,,,,,,SPECI,1044.0
KGGE 021735Z AUTO 03010KT 10SM SCT024 OVC046 25/18 A2987 RMK AO2,KGGE,2023-06-02T17:35:00Z,33.32,-79.32,25.0,18.0,30,10,,10.0,29.870079,,,TRUE,TRUE,,,,,,,SCT,2400,OVC,4600,,,,,VFR,,,,,,,,,,,,SPECI,9.0
KGDJ 021735Z AUTO 15009G16KT 10SM SCT042 SCT050 30/19 A2993 RMK AO2 T03000191,KGDJ,2023-06-02T17:35:00Z,32.45,-97.82,30.0,19.1,150,9,16,10.0,29.929134,,,TRUE,TRUE,,,,,,,SCT,4200,SCT,5000,,,,,VFR,,,,,,,,,,,,SPECI,235.0
KGDB 021735Z AUTO 16014G18KT 10SM SCT048 31/18 A3002 RMK AO2 LTG DSNT E T03100180,KGDB,2023-06-02T17:35:00Z,44.75,-95.55,31.0,18.0,160,14,18,10.0,30.02067,,,TRUE,TRUE,,,,,,,SCT,4800,,,,,,,VFR,,,,,,,,,,,,METAR,316.0
KGDA 021735Z AUTO 02005KT 10SM CLR 30/15 A2999 RMK AO2 T03040147 PWINO,KGDA,2023-06-02T17:35:00Z,37.33,-88.1,30.4,14.7,20,5,,10.0,29.991142,,,TRUE,TRUE,,,,,TRUE,,CLR,,,,,,,,VFR,,,,,,,,,,,,METAR,199.0
KGCY 021735Z AUTO 04009KT 10SM CLR 27/08 A2998 RMK A01,KGCY,2023-06-02T17:35:00Z,36.2,-82.82,27.0,8.0,40,9,,10.0,29.97933,,,TRUE,TRUE,,,,,,,CLR,,,,,,,,VFR,,,,,,,,,,,,SPECI,488.0
KGCM 021735Z AUTO 18005G13KT 10SM SCT050 SCT060 30/20 A2997 RMK AO2,KGCM,2023-06-02T17:35:00Z,36.3,-95.48,30.0,20.0,180,5,13,10.0,29.970472,,,TRUE,TRUE,,,,,,,SCT,5000,SCT,6000,,,,,VFR,,,,,,,,,,,,METAR,215.0
KGCD 021735Z AUTO 26005KT 10SM OVC100 14/02 A3009 RMK AO2 T01420022,KGCD,2023-06-02T17:35:00Z,44.4,-118.97,14.2,2.2,260,5,,10.0,30.088583,,,TRUE,TRUE,,,,,,,OVC,10000,,,,,,,VFR,,,,,,,,,,,,SPECI,1122.0
KGBG 021735Z AUTO 12004KT 10SM SCT065 BKN075 33/17 A3005 RMK AO2 T03280168 TSNO,KGBG,2023-06-02T17:35:00Z,40.93,-90.43,32.8,16.8,120,4,,10.0,30.050198,,,TRUE,TRUE,,,TRUE,,,,SCT,6500,BKN,7500,,,,,VFR,,,,,,,,,,,,SPECI,230.0
KGAO 021735Z AUTO 06009KT 10SM CLR 31/20 A2990 RMK AO2 T03070195,KGAO,2023-06-02T17:35:00Z,29.45,-90.27,30.7,19.5,60,9,,10.0,29.899607,,,TRUE,TRUE,,,,,,,CLR,,,,,,,,VFR,,,,,,,,,,,,SPECI,0.0
KGAF 021735Z AUTO 13009G15KT 8SM CLR 29/20 A2998 RMK AO2,KGAF,2023-06-02T17:35:00Z,48.4,-97.37,29.0,20.0,130,9,15,8.0,29.97933,,,TRUE,TRUE,,,,,,,CLR,,,,,,,,VFR,,,,,,,,,,,,SPECI,250.0
KFZG 021735Z AUTO 05008KT 020V090 10SM CLR 29/18 A2988 RMK AO2 T02890175,KFZG,2023-06-02T17:35:00Z,31.68,-83.27,28.9,17.5,50,8,,10.0,29.878937,,,TRUE,TRUE,,,,,,,CLR,,,,,,,,VFR,,,,,,,,,,,,METAR,105.0
KFYM 021735Z AUTO 01005G10KT 10SM CLR 29/18 A2996 RMK A01,KFYM,2023-06-02T17:35:00Z,35.07,-86.57,29.0,18.0,10,5,10,10.0,29.958662,,,TRUE,TRUE,,,,,,,CLR,,,,,,,,VFR,,,,,,,,,,,,SPECI,297.0
KFYJ 021735Z AUTO 00000KT 10SM CLR 27/09 A2993 RMK AO1 T02710086,KFYJ,2023-06-02T17:35:00Z,37.52,-76.77,27.1,8.6,0,0,,10.0,29.929134,,,TRUE,TRUE,,,,,,,CLR,,,,,,,,VFR,,,,,,,,,,,,METAR,3.0
KFYG 021735Z AUTO 00000KT 10SM 31/19 A2999 RMK AO2,KFYG,2023-06-02T17:35:00Z,38.58,-91.0,31.0,19.0,0,0,,10.0,29.991142,,,TRUE,TRUE,,,,,,,,,,,,,,,,,,,,,,,,,,,METAR,147.0
KFYE 021735Z AUTO 02005KT 10SM SCT046 SCT060 29/19 A2994 RMK A01,KFYE,2023-06-02T17:35:00Z,35.2,-89.38,29.0,19.0,20,5,,10.0,29.940945,,,TRUE,TRUE,,,,,,,SCT,4600,SCT,6000,,,,,VFR,,,,,,,,,,,,SPECI,133.0
KFXY 021735Z AUTO 17008KT 10SM BKN048 BKN055 BKN075 27/17 A3006 RMK AO2,KFXY,2023-06-02T17:35:00Z,43.23,-93.62,27.0,17.0,170,8,,10.0,30.059055,,,TRUE,TRUE,,,,,,,BKN,4800,BKN,5500,BKN,7500,,,VFR,,,,,,,,,,,,METAR,366.0
KFWC 021735Z AUTO 03006KT 10SM CLR 31/12 A2997 RMK AO1 T03140120,KFWC,2023-06-02T17:35:00Z,38.38,-88.42,31.4,12.0,30,6,,10.0,29.970472,,,TRUE,TRUE,,,,,,,CLR,,,,,,,,VFR,,,,,,,,,,,,SPECI,131.0
KFWB 021735Z AUTO VRB03KT 10SM SCT047 SCT055 29/18 A3002 RMK AO2,KFWB,2023-06-02T17:35:00Z,36.7,-93.4,29.0,18.0,0,3,,10.0,30.02067,,,TRUE,TRUE,,,,,,,SCT,4700,SCT,5500,,,,,VFR,,,,,,,,,,,,METAR,392.0
KFVX 021735Z AUTO 04011G15KT 10SM CLR 28/14 A2994 RMK AO2 T02800143,KFVX,2023-06-02T17:35:00Z,37.35,-78.43,28.0,14.3,40,11,15,10.0,29.940945,,,TRUE,TRUE,,,,,,,CLR,,,,,,,,VFR,,,,,,,,,,,,SPECI,129.0
KFTN 021735Z AUTO 15009G16KT 10SM BKN029 OVC033 30/22 A2990 RMK A01,KFTN,2023-06-02T17:35:00Z,28.22,-100.02,30.0,22.0,150,9,16,10.0,29.899607,,,TRUE,TRUE,,,,,,,BKN,2900,OVC,3300,,,,,MVFR,,,,,,,,,,,,SPECI,236.0
KFSW 021735Z AUTO 08004KT 10SM 31/17 A3003 RMK AO2,KFSW,2023-06-02T17:35:00Z,40.67,-91.32,31.0,17.0,80,4,,10.0,30.029528,,,TRUE,TRUE,,,,,,,,,,,,,,,,,,,,,,,,,,,SPECI,219.0
KFSE 021735Z AUTO 12007KT 10SM SCT035 27/17 A3002 RMK AO2,KFSE,2023-06-02T17:35:00Z,47.58,-95.77,27.0,17.0,120,7,,10.0,30.02067,,,TRUE,TRUE,,,,,,,SCT,3500,,,,,,,VFR,,,,,,,,,,,,SPECI,389.0
KFRR 021735Z AUTO 07003KT CLR 29/11 A2996 RMK AO1,KFRR,2023-06-02T17:35:00Z,38.92,-78.25,29.0,11.0,70,3,,,29.958662,,,TRUE,TRUE,,,,,,,CLR,,,,,,,,,,,,,,,,,,,,SPECI,213.0
KFRH 021735Z AUTO 05008KT 011V071 10SM CLR 29/07 A3001 RMK AO1,KFRH,2023-06-02T17:35:00Z,38.5,-86.63,29.0,7.0,50,8,,10.0,30.008858,,,TRUE,TRUE,,,,,,,CLR,,,,,,,,VFR,,,,,,,,,,,,SPECI,241.0
KFPY 021735Z AUTO 04010KT 10SM SCT044 29/18 A2983 RMK AO2 T02930181,KFPY,2023-06-02T17:35:00Z,30.07,-83.57,29.3,18.1,40,10,,10.0,29.828741,,,TRUE,TRUE,,,,,,,SCT,4400,,,,,,,VFR,,,,,,,,,,,,METAR,12.0
KFOT 021735Z AUTO 31009KT 9SM OVC013 11/10 A3010 RMK AO1,KFOT,2023-06-02T17:35:00Z,40.55,-124.13,11.0,10.0,310,9,,9.0,30.100393,,,TRUE,TRUE,,,,,,,OVC,1300,,,,,,,MVFR,,,,,,,,,,,,SPECI,118.0
KFOA 021735Z AUTO 03007KT 10SM CLR 32/14 A2999 RMK AO2,KFOA,2023-06-02T17:35:00Z,38.67,-88.45,32.0,14.0,30,7,,10.0,29.991142,,,TRUE,TRUE,,,,,,,CLR,,,,,,,,VFR,,,,,,,,,,,,SPECI,141.0
KFMM 021735Z AUTO 10SM CLR 20/14 A2995 RMK AO2,KFMM,2023-06-02T17:35:00Z,40.33,-103.8,20.0,14.0,,,,10.0,29.949802,,,TRUE,TRUE,,,,,,,CLR,,,,,,,,VFR,,,,,,,,,,,,SPECI,1376.0
KFLY 021735Z AUTO 19013G18KT 10SM 17/02 A3005 RMK AO2 T01730022,KFLY,2023-06-02T17:35:00Z,38.95,-104.57,17.3,2.2,190,13,18,10.0,30.050198,,,TRUE,TRUE,,,,,,,,,,,,,,,,,,,,,,,,,,,SPECI,2096.0
KFKS 021735Z AUTO 26007KT 10SM CLR 27/15 A3010 RMK AO2 T02710153,KFKS,2023-06-02T17:35:00Z,44.63,-86.2,27.1,15.3,260,7,,10.0,30.100393,,,TRUE,TRUE,,,,,,,CLR,,,,,,,,VFR,,,,,,,,,,,,SPECI,189.0
KFKR 021735Z AUTO 03007G14KT 350V060 10SM CLR 32/05 A3003 RMK AO2,KFKR,2023-06-02T17:35:00Z,40.27,-86.57,32.0,5.0,30,7,14,10.0,30.029528,,,TRUE,TRUE,,,,,,,CLR,,,,,,,,VFR,,,,,,,,,,,,SPECI,260.0
KFKN 021735Z AUTO 08007KT 10SM SCT027 SCT031 BKN042 26/18 A2992 RMK AO2 T02600178,KFKN,2023-06-02T17:35:00Z,36.7,-76.9,26.0,17.8,80,7,,10.0,29.920275,,,TRUE,TRUE,,,,,,,SCT,2700,SCT,3100,BKN,4200,,,VFR,,,,,,,,,,,,METAR,9.0
KFKA 021735Z AUTO 16008KT 10SM VCTS CLR 29/18 A3008 RMK AO2 LTG DSNT NW,KFKA,2023-06-02T17:35:00Z,43.68,-92.17,29.0,18.0,160,8,,10.0,30.079725,,,TRUE,TRUE,,,,,,VCTS,CLR,,,,,,,,VFR,,,,,,,,,,,,METAR,388.0
KFHB 021735Z AUTO 05013G19KT 10SM CLR 25/23 A2986 RMK AO2,KFHB,2023-06-02T17:35:00Z,30.62,-81.47,25.0,23.0,50,13,19,10.0,29.861221,,,TRUE,TRUE,,,,,,,CLR,,,,,,,,VFR,,,,,,,,,,,,METAR,4.0
KFGX 021735Z AUTO 08012G16KT 10SM CLR 30/09 A3002 RMK AO2 T02990092,KFGX,2023-06-02T17:35:00Z,38.55,-83.75,29.9,9.2,80,12,16,10.0,30.02067,,,TRUE,TRUE,,,,,,,CLR,,,,,,,,VFR,,,,,,,,,,,,SPECI,279.0
KFFX 021735Z AUTO 28006KT 10SM CLR 32/12 A3010 RMK AO2 T03190123,KFFX,2023-06-02T17:35:00Z,43.43,-86.0,31.9,12.3,280,6,,10.0,30.100393,,,TRUE,TRUE,,,,,,,CLR,,,,,,,,VFR,,,,,,,,,,,,SPECI,234.0
KFFM 021735Z AUTO 14010KT 10SM CLR 28/18 A2999 RMK AO2,KFFM,2023-06-02T17:35:00Z,46.28,-96.15,28.0,18.0,140,10,,10.0,29.991142,,,TRUE,TRUE,,,,,,,CLR,,,,,,,,VFR,,,,,,,,,,,,METAR,362.0
KFFL 021735Z AUTO 17007G13KT 10SM CLR 30/14 A3003 RMK A01,KFFL,2023-06-02T17:35:00Z,41.05,-91.97,30.0,14.0,170,7,13,10.0,30.029528,,,TRUE,TRUE,,,,,,,CLR,,,,,,,,VFR,,,,,,,,,,,,SPECI,240.0
KFET 021735Z AUTO 17009KT 130V190 10SM SCT040 SCT095 29/20 A3001 RMK AO2 T02890196,KFET,2023-06-02T17:35:00Z,41.45,-96.52,28.9,19.6,170,9,,10.0,30.008858,,,TRUE,TRUE,,,,,,,SCT,4000,SCT,9500,,,,,VFR,,,,,,,,,,,,SPECI,366.0
KFEP 021735Z AUTO 06004KT 10SM SCT070 SCT095 30/20 A3008 RMK AO2 T03040196,KFEP,2023-06-02T17:35:00Z,42.25,-89.58,30.4,19.6,60,4,,10.0,30.079725,,,TRUE,TRUE,,,,,,,SCT,7000,SCT,9500,,,,,VFR,,,,,,,,,,,,METAR,255.0
KFDW 021735Z AUTO 04007G15KT 10SM SCT038 SCT046 27/15 A2991 RMK AO1,KFDW,2023-06-02T17:35:00Z,34.32,-81.12,27.0,15.0,40,7,15,10.0,29.911417,,,TRUE,TRUE,,,,,,,SCT,3800,SCT,4600,,,,,VFR,,,,,,,,,,,,SPECI,174.0
KFBR 021735Z AUTO 32007KT 7SM RA SCT035 OVC041 09/09 A3012 RMK AO2 T00870085,KFBR,2023-06-02T17:35:00Z,41.4,-110.4,8.7,8.5,320,7,,7.0,30.121063,,,TRUE,TRUE,,,,,,RA,SCT,3500,OVC,4100,,,,,VFR,,,,,,,,,,,,METAR,2140.0
KFBL 021735Z AUTO 00000KT 10SM TS CLR 29/16 A3006 RMK AO2 LTG DSNT NE,KFBL,2023-06-02T17:35:00Z,44.33,-93.32,29.0,16.0,0,0,,10.0,30.059055,,,TRUE,TRUE,,,,,,TS,CLR,,,,,,,,VFR,,,,,,,,,,,,METAR,318.0
KF70 021735Z AUTO 03005KT 10SM OVC023 17/10 A2999 RMK AO2,KF70,2023-06-02T17:35:00Z,33.57,-117.13,17.0,10.0,30,5,,10.0,29.991142,,,TRUE,TRUE,,,,,,,OVC,2300,,,,,,,MVFR,,,,,,,,,,,,SPECI,406.0
KF46 021735Z AUTO 10009KT 10SM SCT045 30/19 A2994 RMK AO2 T03030186,KF46,2023-06-02T17:35:00Z,32.93,-96.43,30.3,18.6,100,9,,10.0,29.940945,,,TRUE,TRUE,,,,,,,SCT,4500,,,,,,,VFR,,,,,,,,,,,,SPECI,175.0
KF44 021735Z AUTO 00000KT 10SM SCT100 30/20 A2992 RMK AO2,KF44,2023-06-02T17:35:00Z,32.17,-95.83,30.0,20.0,0,0,,10.0,29.920275,,,TRUE,TRUE,,,,,,,SCT,10000,,,,,,,VFR,,,,,,,,,,,,METAR,137.0
KF17 021735Z AUTO 08004KT 10SM SCT048 SCT060 SCT075 30/18 A2994 RMK AO2,KF17,2023-06-02T17:35:00Z,31.83,-94.15,30.0,18.0,80,4,,10.0,29.940945,,,TRUE,TRUE,,,,,,,SCT,4800,SCT,6000,SCT,7500,,,VFR,,,,,,,,,,,,METAR,93.0
KF05 021735Z AUTO 18012G16KT 10SM SCT039 SCT046 SCT055 30/19 A2993 RMK AO2 T03000190,KF05,2023-06-02T17:35:00Z,34.23,-99.28,30.0,19.0,180,12,16,10.0,29.929134,,,TRUE,TRUE,,,,,,,SCT,3900,SCT,4600,SCT,5500,,,VFR,,,,,,,,,,,,SPECI,384.0
KF00 021735Z AUTO 10010KT 10SM CLR 31/19 A2995 RMK AO2 T03090188,KF00,2023-06-02T17:35:00Z,33.62,-96.18,30.9,18.8,100,10,,10.0,29.949802,,,TRUE,TRUE,,,,,,,CLR,,,,,,,,VFR,,,,,,,,,,,,METAR,189.0
KEZZ 021735Z AUTO 15008KT 10SM SCT047 A3003 RMK AO2,KEZZ,2023-06-02T17:35:00Z,39.72,-94.28,,,150,8,,10.0,30.029528,,,TRUE,TRUE,,,,,,,SCT,4700,,,,,,,VFR,,,,,,,,,,,,SPECI,317.0
KEZP 021735Z AUTO 04008KT 10SM CLR 27/21 A2993 RMK A01,KEZP,2023-06-02T17:35:00Z,28.22,-92.8,27.0,21.0,40,8,,10.0,29.929134,,,TRUE,TRUE,,,,,,,CLR,,,,,,,,VFR,,,,,,,,,,,,METAR,30.0
KEZM 021735Z AUTO 03008G14KT 10SM SCT043 SCT060 SCT070 28/17 A2989 RMK AO2,KEZM,2023-06-02T17:35:00Z,32.22,-83.13,28.0,17.0,30,8,14,10.0,29.890747,,,TRUE,TRUE,,,,,,,SCT,4300,SCT,6000,SCT,7000,,,VFR,,,,,,,,,,,,METAR,86.0
KEZF 021735Z AUTO 03003KT 10SM CLR 29/13 A2992 RMK AO2 T02900132,KEZF,2023-06-02T17:35:00Z,38.27,-77.45,29.0,13.2,30,3,,10.0,29.920275,,,TRUE,TRUE,,,,,,,CLR,,,,,,,,VFR,,,,,,,,,,,,METAR,26.0
KEVU 021735Z AUTO 14008KT 7SM SCT041 SCT047 30/21 A3002 RMK AO2 T03020210,KEVU,2023-06-02T17:35:00Z,40.35,-94.92,30.2,21.0,140,8,,7.0,30.02067,,,TRUE,TRUE,,,,,,,SCT,4100,SCT,4700,,,,,VFR,,,,,,,,,,,,METAR,351.0
KEVM 021735Z AUTO 16007KT 10SM CLR 26/19 A3013 RMK AO2 T02630185,KEVM,2023-06-02T17:35:00Z,47.42,-92.5,26.3,18.5,160,7,,10.0,30.129921,,,TRUE,TRUE,,,,,,,CLR,,,,,,,,VFR,,,,,,,,,,,,METAR,419.0
KETN 021735Z AUTO 18010G16KT 10SM SCT045 28/17 A2995 RMK AO2 T02780175,KETN,2023-06-02T17:35:00Z,32.42,-98.82,27.8,17.5,180,10,16,10.0,29.949802,,,TRUE,TRUE,,,,,,,SCT,4500,,,,,,,VFR,,,,,,,,,,,,SPECI,445.0
KETB 021735Z AUTO 12006KT 10SM CLR 29/12 A3011 RMK AO2,KETB,2023-06-02T17:35:00Z,43.42,-88.13,29.0,12.0,120,6,,10.0,30.109253,,,TRUE,TRUE,,,,,,,CLR,,,,,,,,VFR,,,,,,,,,,,,SPECI,269.0
KERY 021735Z AUTO 05005KT 10SM CLR 30/07 A3014 RMK AO2 T02960074,KERY,2023-06-02T17:35:00Z,46.3,-85.45,29.6,7.4,50,5,,10.0,30.138779,,,TRUE,TRUE,,,,,,,CLR,,,,,,,,VFR,,,,,,,,,,,,SPECI,261.0
KERV 021735Z AUTO 15011KT 10SM SCT039 BKN046 27/19 A2995 RMK AO2 T02700189,KERV,2023-06-02T17:35:00Z,29.98,-99.08,27.0,18.9,150,11,,10.0,29.949802,,,TRUE,TRUE,,,,,,,SCT,3900,BKN,4600,,,,,VFR,,,,,,,,,,,,METAR,483.0
KEQA 021735Z AUTO 13010G15KT 10SM SCT043 BKN095 31/17 A2999 RMK AO2,KEQA,2023-06-02T17:35:00Z,37.78,-96.82,31.0,17.0,130,10,15,10.0,29.991142,,,TRUE,TRUE,,,,,,,SCT,4300,BKN,9500,,,,,VFR,,,,,,,,,,,,METAR,422.0
KEOK 021735Z AUTO 15009KT 10SM CLR 31/19 A3003 RMK A01,KEOK,2023-06-02T17:35:00Z,40.47,-91.42,31.0,19.0,150,9,,10.0,30.029528,,,TRUE,TRUE,,,,,,,CLR,,,,,,,,VFR,,,,,,,,,,,,METAR,206.0
KEOE 021735Z AUTO 04010G15KT 020V080 10SM CLR 28/13 A2994 RMK AO2 LTG DSNT SE,KEOE,2023-06-02T17:35:00Z,34.32,-81.63,28.0,13.0,40,10,15,10.0,29.940945,,,TRUE,TRUE,,,,,,,CLR,,,,,,,,VFR,,,,,,,,,,,,METAR,166.0
KEMV 021735Z AUTO 01005KT 10SM SCT031 BKN042 BKN048 26/18 A2994 RMK AO2 T02550180,KEMV,2023-06-02T17:35:00Z,36.68,-77.48,25.5,18.0,10,5,,10.0,29.940945,,,TRUE,TRUE,,,,,,,SCT,3100,BKN,4200,BKN,4800,,,VFR,,,,,,,,,,,,METAR,35.0
KEMM 021735Z AUTO 32008KT 10SM -RA SCT023 BKN028 OVC034 07/06 A3010 RMK AO2 TSNO,KEMM,2023-06-02T17:35:00Z,41.82,-110.55,7.0,6.0,320,8,,10.0,30.100393,,,TRUE,TRUE,,,TRUE,,,-RA,SCT,2300,BKN,2800,OVC,3400,,,MVFR,,,,,,,,,,,,SPECI,2219.0
KELO 021735Z AUTO 18005KT 10SM SCT080 27/13 A3012 RMK AO2 LTG DSNT SE,KELO,2023-06-02T17:35:00Z,47.82,-91.83,27.0,13.0,180,5,,10.0,30.121063,,,TRUE,TRUE,,,,,,,SCT,8000,,,,,,,VFR,,,,,,,,,,,,METAR,438.0
KELK 021735Z AUTO 21004KT 3SM -RA BR FEW022 OVC050 22/22 A2995 RMK AO2 VIS 2 1/2V4 LTG DSNT NW - NE SLP426 P0000 T02190219 $,KELK,2023-06-02T17:35:00Z,35.43,-99.4,21.9,21.9,210,4,,3.0,29.949802,1042.6,,TRUE,TRUE,TRUE,,,,,-RA BR,FEW,2200,OVC,5000,,,,,MVFR,,,,,,0.005,,,,,,METAR,603.0
KELA 021735Z AUTO 17005KT 10SM CLR 33/20 A2992 RMK AO2 T03310198,KELA,2023-06-02T17:35:00Z,29.6,-96.32,33.1,19.8,170,5,,10.0,29.920275,,,TRUE,TRUE,,,,,,,CLR,,,,,,,,VFR,,,,,,,,,,,,SPECI,56.0
KEKX 021735Z AUTO 08007KT 10SM CLR 29/14 A3000 RMK AO2 T02900137,KEKX,2023-06-02T17:35:00Z,37.68,-85.92,29.0,13.7,80,7,,10.0,30.0,,,TRUE,TRUE,,,,,,,CLR,,,,,,,,VFR,,,,,,,,,,,,METAR,234.0
KEKM 021735Z AUTO 16007KT 10SM FEW360 32/09 A3007 RMK AO2 T03170088 $,KEKM,2023-06-02T17:35:00Z,41.72,-86.0,31.7,8.8,160,7,,10.0,30.070866,,,TRUE,TRUE,TRUE,,,,,,FEW,36000,,,,,,,VFR,,,,,,,,,,,,SPECI,236.0
KEKE 021735Z AUTO VRB04KT 10SM CLR 28/21 A2984 RMK A01,KEKE,2023-06-02T17:35:00Z,28.5,-91.58,28.0,21.0,0,4,,10.0,29.840551,,,TRUE,TRUE,,,,,,,CLR,,,,,,,,VFR,,,,,,,,,,,,METAR,31.0
KEIK 021735Z AUTO 25004KT 10SM SCT042 19/08 A2996 RMK AO2 LTG DSNT W T01920078,KEIK,2023-06-02T17:35:00Z,40.02,-105.05,19.2,7.8,250,4,,10.0,29.958662,,,TRUE,TRUE,,,,,,,SCT,4200,,,,,,,VFR,,,,,,,,,,,,SPECI,1551.0
KEGV 021735Z AUTO 06003KT 5SM +RA SCT043 BKN050 OVC065 17/17 A3020 RMK AO2 T01740174,KEGV,2023-06-02T17:35:00Z,45.93,-89.27,17.4,17.4,60,3,,5.0,30.200787,,,TRUE,TRUE,,,,,,+RA,SCT,4300,BKN,5000,OVC,6500,,,MVFR,,,,,,,,,,,,SPECI,499.0
KEGT 021735Z AUTO 15013G21KT 10SM BKN044 BKN050 BKN100 28/18 A2998 RMK AO2 T02790182,KEGT,2023-06-02T17:35:00Z,37.32,-97.38,27.9,18.2,150,13,21,10.0,29.97933,,,TRUE,TRUE,,,,,,,BKN,4400,BKN,5000,BKN,10000,,,VFR,,,,,,,,,,,,SPECI,387.0
KEFT 021735Z AUTO 11004KT 10SM CLR 30/15 A3008 RMK AO2 T02960149,KEFT,2023-06-02T17:35:00Z,42.62,-89.6,29.6,14.9,110,4,,10.0,30.079725,,,TRUE,TRUE,,,,,,,CLR,,,,,,,,VFR,,,,,,,,,,,,SPECI,332.0
KEFK 021735Z AUTO 03007KT 10SM CLR 29/15 A2998 RMK AO2 T02850152,KEFK,2023-06-02T17:35:00Z,44.88,-72.23,28.5,15.2,30,7,,10.0,29.97933,,,TRUE,TRUE,,,,,,,CLR,,,,,,,,VFR,,,,,,,,,,,,METAR,282.0
KEDU 021735Z AUTO 00000KT 10SM CLR 20/12 A2997 RMK AO1,KEDU,2023-06-02T17:35:00Z,38.53,-121.78,20.0,12.0,0,0,,10.0,29.970472,,,TRUE,TRUE,,,,,,,CLR,,,,,,,,VFR,,,,,,,,,,,,SPECI,20.0
KEDN 021735Z AUTO 03007KT 10SM SCT047 SCT055 28/17 A2988 RMK AO2 T02800168 PWINO,KEDN,2023-06-02T17:35:00Z,31.3,-85.9,28.0,16.8,30,7,,10.0,29.878937,,,TRUE,TRUE,,,,,TRUE,,SCT,4700,SCT,5500,,,,,VFR,,,,,,,,,,,,SPECI,103.0
KEDJ 021735Z AUTO 06010G17KT 040V110 10SM CLR 31/08 A3005 RMK A01,KEDJ,2023-06-02T17:35:00Z,40.37,-83.82,31.0,8.0,60,10,17,10.0,30.050198,,,TRUE,TRUE,,,,,,,CLR,,,,,,,,VFR,,,,,,,,,,,,METAR,341.0
KECU 021735Z AUTO 14014G19KT 10SM SCT026 BKN032 OVC038 25/19 A3000 RMK AO2,KECU,2023-06-02T17:35:00Z,29.95,-100.17,25.0,19.0,140,14,19,10.0,30.0,,,TRUE,TRUE,,,,,,,SCT,2600,BKN,3200,OVC,3800,,,VFR,,,,,,,,,,,,SPECI,725.0
KECS 021735Z AUTO 16005KT 10SM SCT029 20/11 A2992 RMK AO2 LTG DSNT S,KECS,2023-06-02T17:35:00Z,43.88,-104.32,20.0,11.0,160,5,,10.0,29.920275,,,TRUE,TRUE,,,,,,,SCT,2900,,,,,,,VFR,,,,,,,,,,,,SPECI,1273.0
KEBS 021735Z AUTO 14005KT 10SM CLR 29/19 A3003 RMK AO2,KEBS,2023-06-02T17:35:00Z,42.43,-93.87,29.0,19.0,140,5,,10.0,30.029528,,,TRUE,TRUE,,,,,,,CLR,,,,,,,,VFR,,,,,,,,,,,,SPECI,340.0
KEBG 021735Z AUTO 14011G14KT 10SM SCT042 SCT049 32/22 A2987 RMK AO2 T03220221,KEBG,2023-06-02T17:35:00Z,26.45,-98.13,32.2,22.1,140,11,14,10.0,29.870079,,,TRUE,TRUE,,,,,,,SCT,4200,SCT,4900,,,,,VFR,,,,,,,,,,,,METAR,21.0
KEBA 021735Z AUTO 05005KT 10SM SCT040 SCT048 SCT060 27/17 A2992 RMK AO2 T02700167,KEBA,2023-06-02T17:35:00Z,34.1,-82.82,27.0,16.7,50,5,,10.0,29.920275,,,TRUE,TRUE,,,,,,,SCT,4000,SCT,4800,SCT,6000,,,VFR,,,,,,,,,,,,METAR,180.0
KE42 021735Z AUTO 16013KT 10SM BKN017 BKN025 BKN085 23/19 A2997 RMK AO2 T02260185,KE42,2023-06-02T17:35:00Z,36.22,-101.2,22.6,18.5,160,13,,10.0,29.970472,,,TRUE,TRUE,,,,,,,BKN,1700,BKN,2500,BKN,8500,,,MVFR,,,,,,,,,,,,METAR,942.0
KE41 021735Z AUTO 15012G16KT 10SM BKN024 OVC033 25/18 A2996 RMK AO2 T02450182,KE41,2023-06-02T17:35:00Z,31.2,-101.47,24.5,18.2,150,12,16,10.0,29.958662,,,TRUE,TRUE,,,,,,,BKN,2400,OVC,3300,,,,,MVFR,,,,,,,,,,,,METAR,825.0
KE38 021735Z AUTO 28009KT 240V310 10SM CLR 29/05 A3001 RMK AO2 T02920045,KE38,2023-06-02T17:35:00Z,30.38,-103.68,29.2,4.5,280,9,,10.0,30.008858,,,TRUE,TRUE,,,,,,,CLR,,,,,,,,VFR,,,,,,,,,,,,SPECI,1372.0
KE16 021735Z AUTO 18006KT 10SM SCT020 14/08 A3004 RMK AO2 PWINO PNO,KE16,2023-06-02T17:35:00Z,37.08,-121.6,14.0,8.0,180,6,,10.0,30.041338,,,TRUE,TRUE,,,,,TRUE,,SCT,2000,,,,,,,VFR,,,,,,,,,,,,SPECI,84.0
KE11 021735Z AUTO 16016G23KT 10SM BKN035 BKN041 27/17 A2992 RMK AO2 T02710169,KE11,2023-06-02T17:35:00Z,32.33,-102.53,27.1,16.9,160,16,23,10.0,29.920275,,,TRUE,TRUE,,,,,,,BKN,3500,BKN,4100,,,,,VFR,,,,,,,,,,,,METAR,966.0
KDZJ 021735Z AUTO 03003KT 10SM SCT060 26/17 A2999 RMK AO2 T02610174,KDZJ,2023-06-02T17:35:00Z,34.85,-84.0,26.1,17.4,30,3,,10.0,29.991142,,,TRUE,TRUE,,,,,,,SCT,6000,,,,,,,VFR,,,,,,,,,,,,SPECI,578.0
KDZB 021735Z AUTO 17005KT 10SM SCT045 30/17 A2994 RMK AO2 T02980170,KDZB,2023-06-02T17:35:00Z,30.53,-98.37,29.8,17.0,170,5,,10.0,29.940945,,,TRUE,TRUE,,,,,,,SCT,4500,,,,,,,VFR,,,,,,,,,,,,METAR,329.0
KDYT 021735Z AUTO 05006KT 1SM UP BR BKN003 10/09 A3015 RMK AO2 VIS 1/2V2,KDYT,2023-06-02T17:35:00Z,46.72,-92.03,10.0,9.0,50,6,,1.0,30.15059,,,TRUE,TRUE,,,,,,BR UP,BKN,300,,,,,,,LIFR,,,,,,,,,,,,METAR,185.0
KDYB 021735Z AUTO 36009KT 320V020 7SM SCT031 OVC040 25/19 A2987 RMK AO2,KDYB,2023-06-02T17:35:00Z,33.07,-80.28,25.0,19.0,360,9,,7.0,29.870079,,,TRUE,TRUE,,,,,,,SCT,3100,OVC,4000,,,,,VFR,,,,,,,,,,,,METAR,15.0
KDYA 021735Z AUTO 01004KT 10SM SCT048 SCT055 30/18 A2991 RMK AO2 T03020179,KDYA,2023-06-02T17:35:00Z,32.47,-87.95,30.2,17.9,10,4,,10.0,29.911417,,,TRUE,TRUE,,,,,,,SCT,4800,SCT,5500,,,,,VFR,,,,,,,,,,,,SPECI,33.0
KDXX 021735Z AUTO 18013G17KT 10SM CLR 31/17 A3001 RMK AO2,KDXX,2023-06-02T17:35:00Z,44.98,-96.18,31.0,17.0,180,13,17,10.0,30.008858,,,TRUE,TRUE,,,,,,,CLR,,,,,,,,VFR,,,,,,,,,,,,METAR,327.0
KDWX 021735Z AUTO 18003KT 10SM -RA OVC026 10/08 A3009 RMK AO2 T00980079,KDWX,2023-06-02T17:35:00Z,41.03,-107.5,9.8,7.9,180,3,,10.0,30.088583,,,TRUE,TRUE,,,,,,-RA,OVC,2600,,,,,,,MVFR,,,,,,,,,,,,SPECI,1974.0
KDWA 021735Z AUTO 00000KT 9SM CLR 20/12 A2998 RMK AO2,KDWA,2023-06-02T17:35:00Z,38.58,-121.85,20.0,12.0,0,0,,9.0,29.97933,,,TRUE,TRUE,,,,,,,CLR,,,,,,,,VFR,,,,,,,,,,,,METAR,28.0
KDVO 021735Z AUTO 00000KT 10SM CLR 19/11 A3000 RMK AO2,KDVO,2023-06-02T17:35:00Z,38.15,-122.55,19.0,11.0,0,0,,10.0,30.0,,,TRUE,TRUE,,,,,,,CLR,,,,,,,,VFR,,,,,,,,,,,,SPECI,1.0
KDUX 021735Z AUTO 12003KT 10SM BKN017 BKN022 BKN027 22/17 A2996 RMK AO2 T02150170,KDUX,2023-06-02T17:35:00Z,35.85,-102.02,21.5,17.0,120,3,,10.0,29.958662,,,TRUE,TRUE,,,,,,,BKN,1700,BKN,2200,BKN,2700,,,MVFR,,,,,,,,,,,,METAR,1129.0
KDUH 021735Z AUTO 08006KT 10SM CLR 30/11 A3007 RMK AO2 T03040107,KDUH,2023-06-02T17:35:00Z,41.73,-83.65,30.4,10.7,80,6,,10.0,30.070866,,,TRUE,TRUE,,,,,,,CLR,,,,,,,,VFR,,,,,,,,,,,,METAR,203.0
KDUC 021735Z AUTO 16014KT 10SM SCT040 SCT050 29/20 A2996 RMK AO2 T02910199,KDUC,2023-06-02T17:35:00Z,34.47,-97.97,29.1,19.9,160,14,,10.0,29.958662,,,TRUE,TRUE,,,,,,,SCT,4000,SCT,5000,,,,,VFR,,,,,,,,,,,,METAR,339.0
KDUA 021735Z AUTO 12010KT 10SM SCT048 32/15 A2997 RMK AO2,KDUA,2023-06-02T17:35:00Z,33.95,-96.4,32.0,15.0,120,10,,10.0,29.970472,,,TRUE,TRUE,,,,,,,SCT,4800,,,,,,,VFR,,,,,,,,,,,,SPECI,209.0
KDTL 021735Z AUTO 13012KT 10SM CLR 28/18 A3002 RMK AO2,KDTL,2023-06-02T17:35:00Z,46.82,-95.88,28.0,18.0,130,12,,10.0,30.02067,,,TRUE,TRUE,,,,,,,CLR,,,,,,,,VFR,,,,,,,,,,,,METAR,425.0
KDTA 021735Z AUTO 18006KT 10SM SCT039 19/07 A3002 RMK AO1,KDTA,2023-06-02T17:35:00Z,39.38,-112.5,19.0,7.0,180,6,,10.0,30.02067,,,TRUE,TRUE,,,,,,,SCT,3900,,,,,,,VFR,,,,,,,,,,,,SPECI,1452.0
KDRM 021735Z AUTO 33003KT 10SM CLR 29/12 A3013 RMK AO2 T02890121,KDRM,2023-06-02T17:35:00Z,46.0,-83.75,28.9,12.1,330,3,,10.0,30.129921,,,TRUE,TRUE,,,,,,,CLR,,,,,,,,VFR,,,,,,,,,,,,METAR,201.0
KDRI 021735Z AUTO VRB04KT 10SM FEW047 31/22 A2993 RMK AO2 T03140217 $,KDRI,2023-06-02T17:35:00Z,30.83,-93.33,31.4,21.7,0,4,,10.0,29.929134,,,TRUE,TRUE,TRUE,,,,,,FEW,4700,,,,,,,VFR,,,,,,,,,,,,METAR,59.0
KDQH 021735Z AUTO 06009G16KT 10SM SCT044 BKN050 28/17 A2988 RMK AO2 T02760165,KDQH,2023-06-02T17:35:00Z,31.48,-82.87,27.6,16.5,60,9,16,10.0,29.878937,,,TRUE,TRUE,,,,,,,SCT,4400,BKN,5000,,,,,VFR,,,,,,,,,,,,METAR,76.0
KDNV 021735Z AUTO 06011G17KT 10SM CLR 33/07 A3004 RMK AO2 T03260067,KDNV,2023-06-02T17:35:00Z,40.2,-87.6,32.6,6.7,60,11,17,10.0,30.041338,,,TRUE,TRUE,,,,,,,CLR,,,,,,,,VFR,,,,,,,,,,,,METAR,208.0
KDNS 021735Z AUTO 16013KT 10SM CLR 30/19 A3003 RMK AO2,KDNS,2023-06-02T17:35:00Z,41.98,-95.37,30.0,19.0,160,13,,10.0,30.029528,,,TRUE,TRUE,,,,,,,CLR,,,,,,,,VFR,,,,,,,,,,,,SPECI,382.0
KDNN 021735Z AUTO 33004KT 10SM FEW046 BKN055 BKN080 28/17 A2993 RMK AO2 T02800174,KDNN,2023-06-02T17:35:00Z,34.72,-84.87,28.0,17.4,330,4,,10.0,29.929134,,,TRUE,TRUE,,,,,,,FEW,4600,BKN,5500,BKN,8000,,,VFR,,,,,,,,,,,,METAR,216.0
KDNA 021735Z AUTO 26012KT 10SM FEW110 28/M03 A2999 RMK AO2,KDNA,2023-06-02T17:35:00Z,31.88,-106.7,28.0,-3.0,260,12,,10.0,29.991142,,,TRUE,TRUE,,,,,,,FEW,11000,,,,,,,VFR,,,,,,,,,,,,SPECI,1254.0
KDLZ 021735Z AUTO 04006KT 10SM CLR 30/07 A3003 RMK AO2,KDLZ,2023-06-02T17:35:00Z,40.28,-83.12,30.0,7.0,40,6,,10.0,30.029528,,,TRUE,TRUE,,,,,,,CLR,,,,,,,,VFR,,,,,,,,,,,,METAR,287.0
KDLP 021735Z AUTO 07012G17KT 10SM CLR 28/19 A2980 RMK A01,KDLP,2023-06-02T17:35:00Z,29.12,-89.55,28.0,19.0,70,12,17,10.0,29.799213,,,TRUE,TRUE,,,,,,,CLR,,,,,,,,VFR,,,,,,,,,,,,METAR,31.0
KDLO 021735Z AUTO 00000KT 10SM CLR 21/07 A2996 RMK AO2 T02070067,KDLO,2023-06-02T17:35:00Z,35.75,-119.23,20.7,6.7,0,0,,10.0,29.958662,,,TRUE,TRUE,,,,,,,CLR,,,,,,,,VFR,,,,,,,,,,,,METAR,97.0
KDLL 021735Z AUTO 16007KT 10SM CLR 31/15 A3009 RMK AO2 T03100154,KDLL,2023-06-02T17:35:00Z,43.52,-89.77,31.0,15.4,160,7,,10.0,30.088583,,,TRUE,TRUE,,,,,,,CLR,,,,,,,,VFR,,,,,,,,,,,,SPECI,297.0
KDKX 021735Z AUTO VRB05KT 10SM CLR 29/15 A2995 RMK A01,KDKX,2023-06-02T17:35:00Z,35.97,-83.87,29.0,15.0,0,5,,10.0,29.949802,,,TRUE,TRUE,,,,,,,CLR,,,,,,,,VFR,,,,,,,,,,,,SPECI,253.0
KDKR 021735Z AUTO 00000G10KT 10SM FEW039 FEW060 30/22 A2993 RMK AO2,KDKR,2023-06-02T17:35:00Z,31.3,-95.4,30.0,22.0,0,0,10,10.0,29.929134,,,TRUE,TRUE,,,,,,,FEW,3900,FEW,6000,,,,,VFR,,,,,,,,,,,,METAR,105.0
KDKB 021735Z AUTO 07010KT 10SM CLR 32/16 A3008 RMK AO2 T03160161,KDKB,2023-06-02T17:35:00Z,41.93,-88.7,31.6,16.1,70,10,,10.0,30.079725,,,TRUE,TRUE,,,,,,,CLR,,,,,,,,VFR,,,,,,,,,,,,METAR,277.0
KDHT 021735Z AUTO VRB04KT 10SM SCT019 SCT030 22/17 A2995 RMK AO2 T02220172,KDHT,2023-06-02T17:35:00Z,36.02,-102.55,22.2,17.2,0,4,,10.0,29.949802,,,TRUE,TRUE,,,,,,,SCT,1900,SCT,3000,,,,,VFR,,,,,,,,,,,,SPECI,1217.0
KDEH 021735Z AUTO 00000G10KT 10SM CLR 29/17 A3006 RMK AO2,KDEH,2023-06-02T17:35:00Z,43.27,-91.73,29.0,17.0,0,0,10,10.0,30.059055,,,TRUE,TRUE,,,,,,,CLR,,,,,,,,VFR,,,,,,,,,,,,SPECI,348.0
KDCY 021735Z AUTO 05014G18KT 10SM CLR 31/08 A3000 RMK AO2 T03110075,KDCY,2023-06-02T17:35:00Z,38.7,-87.13,31.1,7.5,50,14,18,10.0,30.0,,,TRUE,TRUE,,,,,,,CLR,,,,,,,,VFR,,,,,,,,,,,,SPECI,143.0
KDCM 021735Z AUTO 36009KT 330V030 10SM CLR 27/14 A2993 RMK AO2 LTG DSNT SE,KDCM,2023-06-02T17:35:00Z,34.78,-81.2,27.0,14.0,360,9,,10.0,29.929134,,,TRUE,TRUE,,,,,,,CLR,,,,,,,,VFR,,,,,,,,,,,,METAR,191.0
KD95 021735Z AUTO 02004KT 10SM CLR 31/09 A3010 RMK AO2 T03070089,KD95,2023-06-02T17:35:00Z,43.07,-83.27,30.7,8.9,20,4,,10.0,30.100393,,,TRUE,TRUE,,,,,,,CLR,,,,,,,,VFR,,,,,,,,,,,,METAR,253.0
KD73 021735Z AUTO 04004KT 10SM SCT043 BKN050 BKN070 26/17 A2994 RMK AO2 T02600167,KD73,2023-06-02T17:35:00Z,33.78,-83.7,26.0,16.7,40,4,,10.0,29.940945,,,TRUE,TRUE,,,,,,,SCT,4300,BKN,5000,BKN,7000,,,VFR,,,,,,,,,,,,METAR,254.0
KD60 021735Z AUTO 12011KT 10SM FEW085 26/20 A2996 RMK AO2,KD60,2023-06-02T17:35:00Z,48.38,-102.9,26.0,20.0,120,11,,10.0,29.958662,,,TRUE,TRUE,,,,,,,FEW,8500,,,,,,,VFR,,,,,,,,,,,,SPECI,682.0
KD57 021735Z AUTO 14014G23KT 10SM BKN080 26/14 A2991 RMK AO2,KD57,2023-06-02T17:35:00Z,46.82,-101.87,26.0,14.0,140,14,23,10.0,29.911417,,,TRUE,TRUE,,,,,,,BKN,8000,,,,,,,VFR,,,,,,,,,,,,METAR,636.0
KD55 021735Z AUTO 16014KT 10SM CLR 30/15 A3000 RMK AO2,KD55,2023-06-02T17:35:00Z,48.75,-98.4,30.0,15.0,160,14,,10.0,30.0,,,TRUE,TRUE,,,,,,,CLR,,,,,,,,VFR,,,,,,,,,,,,METAR,488.0
KD50 021735Z AUTO 10011KT 10SM CLR 26/17 A2994 RMK AO2,KD50,2023-06-02T17:35:00Z,48.93,-103.3,26.0,17.0,100,11,,10.0,29.940945,,,TRUE,TRUE,,,,,,,CLR,,,,,,,,VFR,,,,,,,,,,,,SPECI,591.0
KD39 021735Z AUTO 16012G15KT 10SM SCT110 29/17 A3004 RMK AO2 T02850173,KD39,2023-06-02T17:35:00Z,45.7,-94.93,28.5,17.3,160,12,15,10.0,30.041338,,,TRUE,TRUE,,,,,,,SCT,11000,,,,,,,VFR,,,,,,,,,,,,METAR,378.0
KD25 021735Z AUTO 10008KT 10SM CLR 23/17 A3017 RMK AO2 LTG DSNT SE THRU SW T02340166,KD25,2023-06-02T17:35:00Z,46.12,-89.88,23.4,16.6,100,8,,10.0,30.171259,,,TRUE,TRUE,,,,,,,CLR,,,,,,,,VFR,,,,,,,,,,,,SPECI,490.0
KCZT 021735Z AUTO 10SM SCT043 BKN050 BKN060 31/20 A2987 RMK AO2,KCZT,2023-06-02T17:35:00Z,28.52,-99.82,31.0,20.0,,,,10.0,29.870079,,,TRUE,TRUE,,,,,,,SCT,4300,BKN,5000,BKN,6000,,,VFR,,,,,,,,,,,,METAR,176.0
KCZL 021735Z AUTO 32007KT 10SM SCT050 BKN075 BKN090 29/17 A2995 RMK AO2,KCZL,2023-06-02T17:35:00Z,34.47,-84.93,29.0,17.0,320,7,,10.0,29.949802,,,TRUE,TRUE,,,,,,,SCT,5000,BKN,7500,BKN,9000,,,VFR,,,,,,,,,,,,SPECI,197.0
KCYD 021735Z AUTO 01010KT 7SM SCT026 29/19 A2988 RMK A02 T02880191,KCYD,2023-06-02T17:35:00Z,28.17,-89.22,28.8,19.1,10,10,,7.0,29.878937,,,TRUE,TRUE,,,,,,,SCT,2600,,,,,,,VFR,,,,,,,,,,,,METAR,30.0
KCXU 021735Z AUTO 02005KT 10SM SCT047 29/16 A2986 RMK AO1 T02880162,KCXU,2023-06-02T17:35:00Z,31.22,-84.23,28.8,16.2,20,5,,10.0,29.861221,,,TRUE,TRUE,,,,,,,SCT,4700,,,,,,,VFR,,,,,,,,,,,,SPECI,48.0
KCXE 021735Z AUTO 05005KT 10SM CLR 27/12 A2994 RMK AO1 T02670121,KCXE,2023-06-02T17:35:00Z,36.78,-78.5,26.7,12.1,50,5,,10.0,29.940945,,,TRUE,TRUE,,,,,,,CLR,,,,,,,,VFR,,,,,,,,,,,,METAR,154.0
KCWV 021735Z AUTO 06005KT 10SM SCT039 BKN055 BKN070 29/18 A2987 RMK AO2 T02850175,KCWV,2023-06-02T17:35:00Z,32.2,-81.87,28.5,17.5,60,5,,10.0,29.870079,,,TRUE,TRUE,,,,,,,SCT,3900,BKN,5500,BKN,7000,,,VFR,,,,,,,,,,,,METAR,32.0
KCWC 021735Z AUTO 16013G18KT 10SM SCT042 SCT050 30/18 A2994 RMK AO2 T03020176,KCWC,2023-06-02T17:35:00Z,33.85,-98.48,30.2,17.6,160,13,18,10.0,29.940945,,,TRUE,TRUE,,,,,,,SCT,4200,SCT,5000,,,,,VFR,,,,,,,,,,,,SPECI,304.0
KCVX 021735Z AUTO 32005KT 10SM CLR 24/12 A3011 RMK AO2 T02420121,KCVX,2023-06-02T17:35:00Z,45.3,-85.27,24.2,12.1,320,5,,10.0,30.109253,,,TRUE,TRUE,,,,,,,CLR,,,,,,,,VFR,,,,,,,,,,,,METAR,196.0
KCVH 021735Z AUTO 00000KT 10SM FEW023 15/08 A3004 RMK A01,KCVH,2023-06-02T17:35:00Z,36.9,-121.42,15.0,8.0,0,0,,10.0,30.041338,,,TRUE,TRUE,,,,,,,FEW,2300,,,,,,,VFR,,,,,,,,,,,,METAR,68.0
KCVC 021735Z AUTO 36004KT 10SM BKN043 BKN060 BKN075 27/17 A2993 RMK AO2,KCVC,2023-06-02T17:35:00Z,33.63,-83.85,27.0,17.0,360,4,,10.0,29.929134,,,TRUE,TRUE,,,,,,,BKN,4300,BKN,6000,BKN,7500,,,VFR,,,,,,,,,,,,SPECI,240.0
KCUH 021735Z AUTO 18007KT 10SM SCT046 SCT060 SCT085 30/17 A2996 RMK AO2 T02950170,KCUH,2023-06-02T17:35:00Z,35.95,-96.77,29.5,17.0,180,7,,10.0,29.958662,,,TRUE,TRUE,,,,,,,SCT,4600,SCT,6000,SCT,8500,,,VFR,,,,,,,,,,,,SPECI,274.0
KCTY 021735Z AUTO 05007KT 10SM CLR 28/18 A2982 RMK AO2,KCTY,2023-06-02T17:35:00Z,29.63,-83.1,28.0,18.0,50,7,,10.0,29.819881,,,TRUE,TRUE,,,,,,,CLR,,,,,,,,VFR,,,,,,,,,,,,SPECI,12.0
KCTJ 021735Z AUTO 01006KT 320V060 10SM SCT050 27/14 A2997 RMK AO2 T02680144,KCTJ,2023-06-02T17:35:00Z,33.63,-85.15,26.8,14.4,10,6,,10.0,29.970472,,,TRUE,TRUE,,,,,,,SCT,5000,,,,,,,VFR,,,,,,,,,,,,SPECI,351.0
KCSQ 021735Z AUTO 14012G18KT 10SM CLR 30/19 A3003 RMK AO2,KCSQ,2023-06-02T17:35:00Z,41.02,-94.37,30.0,19.0,140,12,18,10.0,30.029528,,,TRUE,TRUE,,,,,,,CLR,,,,,,,,VFR,,,,,,,,,,,,METAR,394.0
KCRX 021735Z AUTO VRB04KT 10SM FEW046 SCT060 30/19 A2995 RMK AO2,KCRX,2023-06-02T17:35:00Z,34.92,-88.6,30.0,19.0,0,4,,10.0,29.949802,,,TRUE,TRUE,,,,,,,FEW,4600,SCT,6000,,,,,VFR,,,,,,,,,,,,SPECI,128.0
KCQW 021735Z AUTO 08007G13KT 10SM SCT041 BKN049 BKN055 27/17 A2990 RMK AO2,KCQW,2023-06-02T17:35:00Z,34.72,-79.95,27.0,17.0,80,7,13,10.0,29.899607,,,TRUE,TRUE,,,,,,,SCT,4100,BKN,4900,BKN,5500,,,VFR,,,,,,,,,,,,METAR,67.0
KCQF 021735Z AUTO 05008KT 020V090 10SM SCT065 29/16 A2987 RMK AO2,KCQF,2023-06-02T17:35:00Z,30.47,-87.88,29.0,16.0,50,8,,10.0,29.870079,,,TRUE,TRUE,,,,,,,SCT,6500,,,,,,,VFR,,,,,,,,,,,,SPECI,21.0
KCQB 021735Z AUTO 14006KT 10SM SCT050 30/18 A2997 RMK AO2 T02950182,KCQB,2023-06-02T17:35:00Z,35.72,-96.82,29.5,18.2,140,6,,10.0,29.970472,,,TRUE,TRUE,,,,,,,SCT,5000,,,,,,,VFR,,,,,,,,,,,,METAR,298.0
KCPW 021735Z AUTO 24005KT 5SM -SN SCT016 BKN021 OVC027 00/M02 A3037 RMK AO2 LTG DSNT SE,KCPW,2023-06-02T17:35:00Z,37.45,-106.8,0.0,-2.0,240,5,,5.0,30.369095,,,TRUE,TRUE,,,,,,-SN,SCT,1600,BKN,2100,OVC,2700,,,MVFR,,,,,,,,,,,,SPECI,3570.0
KCPU 021735Z AUTO 35003KT 10SM CLR 21/08 A2997 RMK AO2 T02130081,KCPU,2023-06-02T17:35:00Z,38.15,-120.65,21.3,8.1,350,3,,10.0,29.970472,,,TRUE,TRUE,,,,,,,CLR,,,,,,,,VFR,,,,,,,,,,,,METAR,400.0
KCPT 021735Z AUTO 15010G18KT 10SM FEW037 30/20 A2994 RMK A01,KCPT,2023-06-02T17:35:00Z,32.35,-97.43,30.0,20.0,150,10,18,10.0,29.940945,,,TRUE,TRUE,,,,,,,FEW,3700,,,,,,,VFR,,,,,,,,,,,,METAR,260.0
KCPP 021735Z AUTO 00000KT 10SM SCT038 SCT047 SCT055 27/17 A2992 RMK AO2,KCPP,2023-06-02T17:35:00Z,,,27.0,17.0,0,0,,10.0,29.920275,,,TRUE,TRUE,,,,,,,SCT,3800,SCT,4700,SCT,5500,,,VFR,,,,,,,,,,,,SPECI,
KCPK 021735Z AUTO 06006KT 10SM BKN021 BKN027 24/18 A2991 RMK AO2 T02440181,KCPK,2023-06-02T17:35:00Z,36.67,-76.32,24.4,18.1,60,6,,10.0,29.911417,,,TRUE,TRUE,,,,,,,BKN,2100,BKN,2700,,,,,MVFR,,,,,,,,,,,,METAR,4.0
KCPF 021735Z AUTO 00000KT 10SM CLR 28/13 A3000 RMK AO2,KCPF,2023-06-02T17:35:00Z,37.38,-83.27,28.0,13.0,0,0,,10.0,30.0,,,TRUE,TRUE,,,,,,,CLR,,,,,,,,VFR,,,,,,,,,,,,METAR,382.0
KCOQ 021735Z AUTO 11006KT 10SM CLR 23/14 A3012 RMK AO2 TSNO,KCOQ,2023-06-02T17:35:00Z,46.7,-92.5,23.0,14.0,110,6,,10.0,30.121063,,,TRUE,TRUE,,,TRUE,,,,CLR,,,,,,,,VFR,,,,,,,,,,,,METAR,390.0
KCOM 021735Z AUTO 18010G15KT 10SM SCT037 BKN045 BKN050 28/18 A2995 RMK AO2 T02750178,KCOM,2023-06-02T17:35:00Z,31.83,-99.4,27.5,17.8,180,10,15,10.0,29.949802,,,TRUE,TRUE,,,,,,,SCT,3700,BKN,4500,BKN,5000,,,VFR,,,,,,,,,,,,SPECI,516.0
KCNI 021735Z AUTO 04006KT 10SM CLR 28/15 A2995 RMK AO2 T02750154,KCNI,2023-06-02T17:35:00Z,34.32,-84.42,27.5,15.4,40,6,,10.0,29.949802,,,TRUE,TRUE,,,,,,,CLR,,,,,,,,VFR,,,,,,,,,,,,METAR,371.0
KCNC 021735Z AUTO 16006KT 10SM FEW049 FEW060 SCT075 29/19 A3003 RMK AO2,KCNC,2023-06-02T17:35:00Z,41.02,-93.37,29.0,19.0,160,6,,10.0,30.029528,,,TRUE,TRUE,,,,,,,FEW,4900,FEW,6000,SCT,7500,,,VFR,,,,,,,,,,,,SPECI,319.0
KCNB 021735Z AUTO 14009G16KT 090V220 10SM SCT050 29/17 A3001 RMK AO2 T02900165,KCNB,2023-06-02T17:35:00Z,44.73,-96.27,29.0,16.5,140,9,16,10.0,30.008858,,,TRUE,TRUE,,,,,,,SCT,5000,,,,,,,VFR,,,,,,,,,,,,METAR,363.0
KCMR 021735Z AUTO 00000G12KT 10SM FEW065 17/01 A3014 RMK AO2,KCMR,2023-06-02T17:35:00Z,35.3,-112.2,17.0,1.0,0,0,12,10.0,30.138779,,,TRUE,TRUE,,,,,,,FEW,6500,,,,,,,VFR,,,,,,,,,,,,SPECI,2039.0
KCMD 021735Z AUTO 03008KT 2SM HZ BKN044 BKN050 BKN055 28/19 A2996 RMK AO2 VIS 1V5,KCMD,2023-06-02T17:35:00Z,34.27,-86.85,28.0,19.0,30,8,,2.0,29.958662,,,TRUE,TRUE,,,,,,HZ,BKN,4400,BKN,5000,BKN,5500,,,IFR,,,,,,,,,,,,SPECI,294.0
KCLW 021735Z AUTO 07004KT 10SM SCT031 29/20 A2976 RMK AO2,KCLW,2023-06-02T17:35:00Z,27.98,-82.75,29.0,20.0,70,4,,10.0,29.760826,,,TRUE,TRUE,,,,,,,SCT,3100,,,,,,,VFR,,,,,,,,,,,,METAR,21.0
KCLS 021735Z AUTO 12004KT 10SM CLR 15/09 A3014 RMK AO2,KCLS,2023-06-02T17:35:00Z,46.68,-122.98,15.0,9.0,120,4,,10.0,30.138779,,,TRUE,TRUE,,,,,,,CLR,,,,,,,,VFR,,,,,,,,,,,,SPECI,52.0
KCLK 021735Z AUTO 17011G18KT 10SM BKN030 BKN046 BKN075 26/19 A2995 RMK AO2 LTG DSNT W,KCLK,2023-06-02T17:35:00Z,35.53,-98.93,26.0,19.0,170,11,18,10.0,29.949802,,,TRUE,TRUE,,,,,,,BKN,3000,BKN,4600,BKN,7500,,,MVFR,,,,,,,,,,,,METAR,489.0
KCLI 021735Z AUTO 13005KT 10SM CLR 29/17 A3012 RMK AO2 T02930167,KCLI,2023-06-02T17:35:00Z,44.62,-88.73,29.3,16.7,130,5,,10.0,30.121063,,,TRUE,TRUE,,,,,,,CLR,,,,,,,,VFR,,,,,,,,,,,,METAR,248.0
KCKZ 021735Z AUTO 04008G14KT 10SM CLR 33/12 A2992 RMK AO2,KCKZ,2023-06-02T17:35:00Z,40.38,-75.28,33.0,12.0,40,8,14,10.0,29.920275,,,TRUE,TRUE,,,,,,,CLR,,,,,,,,VFR,,,,,,,,,,,,METAR,160.0
KCKP 021735Z AUTO 14013G17KT 10SM SCT055 30/14 A3002 RMK AO2 T03040140,KCKP,2023-06-02T17:35:00Z,42.73,-95.55,30.4,14.0,140,13,17,10.0,30.02067,,,TRUE,TRUE,,,,,,,SCT,5500,,,,,,,VFR,,,,,,,,,,,,SPECI,369.0
KCKN 021735Z AUTO 15010KT 10SM CLR 29/18 A2998 RMK AO2,KCKN,2023-06-02T17:35:00Z,47.85,-96.62,29.0,18.0,150,10,,10.0,29.97933,,,TRUE,TRUE,,,,,,,CLR,,,,,,,,VFR,,,,,,,,,,,,SPECI,272.0
KCKM 021735Z AUTO 02008KT 10SM 30/19 A2995 RMK A01,KCKM,2023-06-02T17:35:00Z,34.3,-90.52,30.0,19.0,20,8,,10.0,29.949802,,,TRUE,TRUE,,,,,,,,,,,,,,,,,,,,,,,,,,,METAR,52.0
KCKI 021735Z AUTO 03004KT 10SM SCT028 OVC047 25/16 A2988 RMK AO2,KCKI,2023-06-02T17:35:00Z,33.72,-79.85,25.0,16.0,30,4,,10.0,29.878937,,,TRUE,TRUE,,,,,,,SCT,2800,OVC,4700,,,,,VFR,,,,,,,,,,,,SPECI,19.0
KCKF 021735Z AUTO 04010KT 10SM SCT046 SCT055 SCT065 27/16 A2989 RMK AO2 T02730156,KCKF,2023-06-02T17:35:00Z,31.98,-83.77,27.3,15.6,40,10,,10.0,29.890747,,,TRUE,TRUE,,,,,,,SCT,4600,SCT,5500,SCT,6500,,,VFR,,,,,,,,,,,,METAR,92.0
KCJR 021735Z AUTO 10005KT 10SM CLR 31/09 A2996 RMK AO2 T03120087,KCJR,2023-06-02T17:35:00Z,38.53,-77.87,31.2,8.7,100,5,,10.0,29.958662,,,TRUE,TRUE,,,,,,,CLR,,,,,,,,VFR,,,,,,,,,,,,METAR,90.0
KCIN 021735Z AUTO 14009G15KT 110V170 9SM CLR 30/19 A3002 RMK AO2,KCIN,2023-06-02T17:35:00Z,42.03,-94.78,30.0,19.0,140,9,15,9.0,30.02067,,,TRUE,TRUE,,,,,,,CLR,,,,,,,,VFR,,,,,,,,,,,,METAR,365.0
KCHK 021735Z AUTO 15010KT 130V190 10SM SCT044 SCT050 BKN070 28/19 A2992 RMK AO2 T02820189,KCHK,2023-06-02T17:35:00Z,35.1,-97.97,28.2,18.9,150,10,,10.0,29.920275,,,TRUE,TRUE,,,,,,,SCT,4400,SCT,5000,BKN,7000,,,VFR,,,,,,,,,,,,METAR,346.0
KCGC 021735Z AUTO 02005KT 10SM SCT042 BKN055 BKN070 30/20 A2979 RMK AO2,KCGC,2023-06-02T17:35:00Z,28.87,-82.57,30.0,20.0,20,5,,10.0,29.790354,,,TRUE,TRUE,,,,,,,SCT,4200,BKN,5500,BKN,7000,,,VFR,,,,,,,,,,,,METAR,3.0
KCFS 021735Z AUTO 00000KT 10SM CLR 32/08 A3010 RMK AO2 T03160081,KCFS,2023-06-02T17:35:00Z,43.47,-83.45,31.6,8.1,0,0,,10.0,30.100393,,,TRUE,TRUE,,,,,,,CLR,,,,,,,,VFR,,,,,,,,,,,,METAR,214.0
KCFJ 021735Z AUTO 08010KT 10SM CLR A3003 RMK AO2,KCFJ,2023-06-02T17:35:00Z,39.98,-86.92,,,80,10,,10.0,30.029528,,,TRUE,TRUE,,,,,,,CLR,,,,,,,,VFR,,,,,,,,,,,,METAR,243.0
KCFE 021735Z AUTO 17009KT 10SM VCTS CLR 27/19 A3006 RMK AO2 LTG DSNT SE,KCFE,2023-06-02T17:35:00Z,45.17,-93.85,27.0,19.0,170,9,,10.0,30.059055,,,TRUE,TRUE,,,,,,VCTS,CLR,,,,,,,,VFR,,,,,,,,,,,,METAR,292.0
KCFD 021735Z AUTO 17003KT 10SM CLR 30/18 A2994 RMK AO2 T03020178,KCFD,2023-06-02T17:35:00Z,30.72,-96.33,30.2,17.8,170,3,,10.0,29.940945,,,TRUE,TRUE,,,,,,,CLR,,,,,,,,VFR,,,,,,,,,,,,SPECI,106.0
KCEY 021735Z AUTO 02010KT 10SM FEW060 FEW070 30/17 A2998 RMK A01,KCEY,2023-06-02T17:35:00Z,36.67,-88.37,30.0,17.0,20,10,,10.0,29.97933,,,TRUE,TRUE,,,,,,,FEW,6000,FEW,7000,,,,,VFR,,,,,,,,,,,,METAR,172.0
KCDN 021735Z AUTO 04009KT 10SM SCT045 BKN050 26/16 A2990 RMK AO2,KCDN,2023-06-02T17:35:00Z,34.28,-80.57,26.0,16.0,40,9,,10.0,29.899607,,,TRUE,TRUE,,,,,,,SCT,4500,BKN,5000,,,,,VFR,,,,,,,,,,,,METAR,90.0
KCDI 021735Z AUTO 36008KT 10SM CLR 31/12 A3001 RMK AO2 T03090117,KCDI,2023-06-02T17:35:00Z,39.97,-81.58,30.9,11.7,360,8,,10.0,30.008858,,,TRUE,TRUE,,,,,,,CLR,,,,,,,,VFR,,,,,,,,,,,,METAR,241.0
KCDH 021735Z AUTO 00000G10KT 8SM SCT047 32/20 A2994 RMK AO2,KCDH,2023-06-02T17:35:00Z,33.62,-92.77,32.0,20.0,0,0,10,8.0,29.940945,,,TRUE,TRUE,,,,,,,SCT,4700,,,,,,,VFR,,,,,,,,,,,,SPECI,38.0
KCDA 021735Z AUTO 31005KT 10SM CLR 27/14 A2998 RMK AO2 T02700142,KCDA,2023-06-02T17:35:00Z,44.57,-72.02,27.0,14.2,310,5,,10.0,29.97933,,,TRUE,TRUE,,,,,,,CLR,,,,,,,,VFR,,,,,,,,,,,,METAR,357.0
KCCY 021735Z AUTO VRB06G12KT 10SM CLR 29/19 A3007 RMK AO2,KCCY,2023-06-02T17:35:00Z,43.07,-92.62,29.0,19.0,0,6,12,10.0,30.070866,,,TRUE,TRUE,,,,,,,CLR,,,,,,,,VFR,,,,,,,,,,,,SPECI,340.0
KCCU 021735Z AUTO 00000KT 1/4SM +SN OVC001 03/01 A3026 RMK AO2 P0001,KCCU,2023-06-02T17:35:00Z,39.48,-106.15,3.0,1.0,0,0,,0.25,30.259842,,,TRUE,TRUE,,,,,,+SN,OVC,100,,,,,,,LIFR,,,,,,0.01,,,,,,SPECI,3672.0
KCCO 021735Z AUTO 01009KT 10SM SCT049 BKN070 27/15 A2993 RMK AO2 T02700146,KCCO,2023-06-02T17:35:00Z,33.32,-84.77,27.0,14.6,10,9,,10.0,29.929134,,,TRUE,TRUE,,,,,,,SCT,4900,BKN,7000,,,,,VFR,,,,,,,,,,,,METAR,290.0
KCCA 021735Z AUTO 33003KT 7SM FEW055 FEW070 30/18 A2998 RMK AO2,KCCA,2023-06-02T17:35:00Z,35.6,-92.45,30.0,18.0,330,3,,7.0,29.97933,,,TRUE,TRUE,,,,,,,FEW,5500,FEW,7000,,,,,VFR,,,,,,,,,,,,METAR,152.0
KCBK 021735Z AUTO 15018KT 10SM CLR 24/13 A2996 RMK AO2 T02410133,KCBK,2023-06-02T17:35:00Z,39.43,-101.05,24.1,13.3,150,18,,10.0,29.958662,,,TRUE,TRUE,,,,,,,CLR,,,,,,,,VFR,,,,,,,,,,,,METAR,970.0
KCBG 021735Z AUTO 18003KT 10SM CLR 30/17 A3006 RMK AO2 LTG DSNT S,KCBG,2023-06-02T17:35:00Z,45.57,-93.27,30.0,17.0,180,3,,10.0,30.059055,,,TRUE,TRUE,,,,,,,CLR,,,,,,,,VFR,,,,,,,,,,,,METAR,285.0
KCBF 021735Z AUTO 19010KT 10SM FEW048 29/17 A2999 RMK AO2,KCBF,2023-06-02T17:35:00Z,41.27,-95.77,29.0,17.0,190,10,,10.0,29.991142,,,TRUE,TRUE,,,,,,,FEW,4800,,,,,,,VFR,,,,,,,,,,,,METAR,379.0
KCAV 021735Z AUTO VRB04KT 10SM CLR 30/17 A3005 RMK A01,KCAV,2023-06-02T17:35:00Z,42.75,-93.77,30.0,17.0,0,4,,10.0,30.050198,,,TRUE,TRUE,,,,,,,CLR,,,,,,,,VFR,,,,,,,,,,,,SPECI,352.0
KCAD 021735Z AUTO 12006KT 10SM BKN070 32/11 A3010 RMK AO2 T03180109,KCAD,2023-06-02T17:35:00Z,44.27,-85.42,31.8,10.9,120,6,,10.0,30.100393,,,TRUE,TRUE,,,,,,,BKN,7000,,,,,,,VFR,,,,,,,,,,,,SPECI,397.0
KC75 021735Z AUTO 00000KT 10SM SCT065 SCT070 31/19 A3003 RMK AO2,KC75,2023-06-02T17:35:00Z,41.02,-89.38,31.0,19.0,0,0,,10.0,30.029528,,,TRUE,TRUE,,,,,,,SCT,6500,SCT,7000,,,,,VFR,,,,,,,,,,,,SPECI,166.0
KC65 021735Z AUTO 02008KT 10SM CLR 32/09 A3005 RMK A01,KC65,2023-06-02T17:35:00Z,41.37,-86.3,32.0,9.0,20,8,,10.0,30.050198,,,TRUE,TRUE,,,,,,,CLR,,,,,,,,VFR,,,,,,,,,,,,SPECI,241.0
KC62 021735Z AUTO 03008G16KT 350V070 10SM SCT080 30/09 A3008 RMK AO2 T03060093,KC62,2023-06-02T17:35:00Z,41.47,-85.25,30.6,9.3,30,8,16,10.0,30.079725,,,TRUE,TRUE,,,,,,,SCT,8000,,,,,,,VFR,,,,,,,,,,,,SPECI,304.0
KC35 021735Z AUTO 00000KT 10SM CLR 30/17 A3009 RMK AO2 T02980165 PWINO,KC35,2023-06-02T17:35:00Z,43.53,-89.98,29.8,16.5,0,0,,10.0,30.088583,,,TRUE,TRUE,,,,,TRUE,,CLR,,,,,,,,VFR,,,,,,,,,,,,METAR,272.0
KC29 021735Z AUTO 04005KT 10SM CLR 30/17 A3009 RMK AO1 T03020167,KC29,2023-06-02T17:35:00Z,43.12,-89.53,30.2,16.7,40,5,,10.0,30.088583,,,TRUE,TRUE,,,,,,,CLR,,,,,,,,VFR,,,,,,,,,,,,METAR,282.0
KC09 021735Z AUTO 14005KT 10SM CLR 32/13 A3004 RMK AO2 T03200128,KC09,2023-06-02T17:35:00Z,41.43,-88.42,32.0,12.8,140,5,,10.0,30.041338,,,TRUE,TRUE,,,,,,,CLR,,,,,,,,VFR,,,,,,,,,,,,SPECI,179.0
KC07 021735Z AUTO 25004KT 1/4SM RA OVC001 01/01 A3019 RMK AO2 LTG DSNT N,KC07,2023-06-02T17:35:00Z,40.35,-106.7,1.0,1.0,250,4,,0.25,30.188976,,,TRUE,TRUE,,,,,,RA,OVC,100,,,,,,,LIFR,,,,,,,,,,,,SPECI,3224.0
KBYY 021735Z AUTO 15008KT 10SM BKN043 29/20 A2992 RMK AO2 T02930199,KBYY,2023-06-02T17:35:00Z,28.97,-95.87,29.3,19.9,150,8,,10.0,29.920275,,,TRUE,TRUE,,,,,,,BKN,4300,,,,,,,VFR,,,,,,,,,,,,SPECI,12.0
KBYL 021735Z AUTO 02006KT 10SM FEW050 28/15 A2999 RMK AO1,KBYL,2023-06-02T17:35:00Z,36.8,-84.2,28.0,15.0,20,6,,10.0,29.991142,,,TRUE,TRUE,,,,,,,FEW,5000,,,,,,,VFR,,,,,,,,,,,,SPECI,355.0
KBXK 021735Z AUTO VRB04KT 9SM CLR 28/04 A2991 RMK A01,KBXK,2023-06-02T17:35:00Z,33.42,-112.68,28.0,4.0,0,4,,9.0,29.911417,,,TRUE,TRUE,,,,,,,CLR,,,,,,,,VFR,,,,,,,,,,,,METAR,303.0
KBXA 021735Z AUTO 02005KT 10SM BKN050 BKN060 32/17 A2991 RMK AO2 T03150172,KBXA,2023-06-02T17:35:00Z,30.82,-89.87,31.5,17.2,20,5,,10.0,29.911417,,,TRUE,TRUE,,,,,,,BKN,5000,BKN,6000,,,,,VFR,,,,,,,,,,,,SPECI,35.0
KBWW 021735Z AUTO 12018G25KT 10SM BKN035 BKN040 25/18 A2990 RMK AO2,KBWW,2023-06-02T17:35:00Z,46.17,-103.3,25.0,18.0,120,18,25,10.0,29.899607,,,TRUE,TRUE,,,,,,,BKN,3500,BKN,4000,,,,,VFR,,,,,,,,,,,,SPECI,911.0
KBWP 021735Z AUTO 16011G18KT 10SM FEW050 30/18 A2996 RMK AO2,KBWP,2023-06-02T17:35:00Z,46.25,-96.62,30.0,18.0,160,11,18,10.0,29.958662,,,TRUE,TRUE,,,,,,,FEW,5000,,,,,,,VFR,,,,,,,,,,,,SPECI,294.0
KBVX 021735Z AUTO VRB06KT 10SM FEW050 32/18 A2998 RMK AO2,KBVX,2023-06-02T17:35:00Z,35.73,-91.65,32.0,18.0,0,6,,10.0,29.97933,,,TRUE,TRUE,,,,,,,FEW,5000,,,,,,,VFR,,,,,,,,,,,,METAR,137.0
KBVU 021735Z AUTO VRB06KT 10SM CLR 29/03 A2989 RMK AO2,KBVU,2023-06-02T17:35:00Z,35.95,-114.87,29.0,3.0,0,6,,10.0,29.890747,,,TRUE,TRUE,,,,,,,CLR,,,,,,,,VFR,,,,,,,,,,,,SPECI,654.0
KBVS 021735Z AUTO VRB04KT 10SM CLR 16/10 A3012 RMK A01,KBVS,2023-06-02T17:35:00Z,48.47,-122.42,16.0,10.0,0,4,,10.0,30.121063,,,TRUE,TRUE,,,,,,,CLR,,,,,,,,VFR,,,,,,,,,,,,SPECI,31.0
KBVN 021735Z AUTO 22008KT 10SM SCT034 SCT050 BKN120 23/17 A3003 RMK AO2 LTG DSNT S T02260167,KBVN,2023-06-02T17:35:00Z,41.73,-98.05,22.6,16.7,220,8,,10.0,30.029528,,,TRUE,TRUE,,,,,,,SCT,3400,SCT,5000,BKN,12000,,,VFR,,,,,,,,,,,,SPECI,547.0
KBVI 021735Z AUTO 00000KT 10SM CLR 32/08 A3003 RMK AO2 T03180083,KBVI,2023-06-02T17:35:00Z,40.77,-80.37,31.8,8.3,0,0,,10.0,30.029528,,,TRUE,TRUE,,,,,,,CLR,,,,,,,,VFR,,,,,,,,,,,,METAR,387.0
KBUU 021735Z AUTO 13006KT 10SM CLR 31/10 A3008 RMK AO2 T03130097 PWINO,KBUU,2023-06-02T17:35:00Z,42.68,-88.3,31.3,9.7,130,6,,10.0,30.079725,,,TRUE,TRUE,,,,,TRUE,,CLR,,,,,,,,VFR,,,,,,,,,,,,SPECI,238.0
KBTA 021735Z AUTO 15010G14KT 10SM BKN043 BKN060 28/18 A3001 RMK AO2 T02840176,KBTA,2023-06-02T17:35:00Z,41.42,-96.12,28.4,17.6,150,10,14,10.0,30.008858,,,TRUE,TRUE,,,,,,,BKN,4300,BKN,6000,,,,,VFR,,,,,,,,,,,,SPECI,400.0
KBRY 021735Z AUTO 07008KT 10SM CLR 30/12 A2997 RMK AO2 T02980122,KBRY,2023-06-02T17:35:00Z,37.82,-85.5,29.8,12.2,70,8,,10.0,29.970472,,,TRUE,TRUE,,,,,,,CLR,,,,,,,,VFR,,,,,,,,,,,,METAR,192.0
KBRG 021735Z AUTO 05010KT 10SM SCT110 21/00 A3003 RMK AO2 LTG DSNT NE T02081001,KBRG,2023-06-02T17:35:00Z,34.65,-106.83,20.8,-0.1,50,10,,10.0,30.029528,,,TRUE,TRUE,,,,,,,SCT,11000,,,,,,,VFR,,,,,,,,,,,,METAR,1585.0
KBQX 021735Z AUTO 13008KT 10SM CLR 29/21 A2993 RMK A01,KBQX,2023-06-02T17:35:00Z,28.5,-95.72,29.0,21.0,130,8,,10.0,29.929134,,,TRUE,TRUE,,,,,,,CLR,,,,,,,,VFR,,,,,,,,,,,,SPECI,34.0
KBQP 021735Z AUTO 07004KT SCT046 SCT055 31/18 A2995 RMK AO2 T03080177 PWINO,KBQP,2023-06-02T17:35:00Z,32.75,-91.88,30.8,17.7,70,4,,,29.949802,,,TRUE,TRUE,,,,,TRUE,,SCT,4600,SCT,5500,,,,,,,,,,,,,,,,,METAR,50.0
KBQK 021735Z AUTO 08014KT 10SM SCT032 BKN050 28/19 A2985 RMK AO2 T02810193,KBQK,2023-06-02T17:35:00Z,31.25,-81.47,28.1,19.3,80,14,,10.0,29.84941,,,TRUE,TRUE,,,,,,,SCT,3200,BKN,5000,,,,,VFR,,,,,,,,,,,,SPECI,7.0
KBPG 021735Z AUTO 16017KT 10SM SCT036 SCT045 BKN050 27/17 A2994 RMK AO2 T02730170,KBPG,2023-06-02T17:35:00Z,32.22,-101.52,27.3,17.0,160,17,,10.0,29.940945,,,TRUE,TRUE,,,,,,,SCT,3600,SCT,4500,BKN,5000,,,VFR,,,,,,,,,,,,METAR,782.0
KBPC 021735Z AUTO 17012KT 10SM OVC024 23/17 A2997 RMK AO2,KBPC,2023-06-02T17:35:00Z,35.88,-101.03,23.0,17.0,170,12,,10.0,29.970472,,,TRUE,TRUE,,,,,,,OVC,2400,,,,,,,MVFR,,,,,,,,,,,,METAR,844.0
KBNW 021735Z AUTO 12008KT 10SM CLR 28/22 A3004 RMK AO2,KBNW,2023-06-02T17:35:00Z,42.03,-93.83,28.0,22.0,120,8,,10.0,30.041338,,,TRUE,TRUE,,,,,,,CLR,,,,,,,,VFR,,,,,,,,,,,,SPECI,350.0
KBNL 021735Z AUTO 36011KT 10SM SCT038 SCT044 SCT050 26/17 A2989 RMK AO2,KBNL,2023-06-02T17:35:00Z,33.25,-81.38,26.0,17.0,360,11,,10.0,29.890747,,,TRUE,TRUE,,,,,,,SCT,3800,SCT,4400,SCT,5000,,,VFR,,,,,,,,,,,,SPECI,76.0
KBMT 021735Z AUTO 00000KT 10SM CLR 30/19 A2992 RMK AO2 T03040186,KBMT,2023-06-02T17:35:00Z,30.07,-94.22,30.4,18.6,0,0,,10.0,29.920275,,,TRUE,TRUE,,,,,,,CLR,,,,,,,,VFR,,,,,,,,,,,,SPECI,8.0
KBKT 021735Z AUTO 03008KT 10SM CLR 28/14 A2994 RMK AO1 T02750141,KBKT,2023-06-02T17:35:00Z,37.07,-77.95,27.5,14.1,30,8,,10.0,29.940945,,,TRUE,TRUE,,,,,,,CLR,,,,,,,,VFR,,,,,,,,,,,,METAR,134.0
KBKS 021735Z AUTO 18008G15KT 10SM SCT041 SCT050 BKN070 31/22 A2986 RMK AO2 SLP073 T03100220 $,KBKS,2023-06-02T17:35:00Z,27.2,-98.12,31.0,22.0,180,8,15,10.0,29.861221,1007.3,,TRUE,TRUE,TRUE,,,,,,SCT,4100,SCT,5000,BKN,7000,,,VFR,,,,,,,,,,,,METAR,34.0
KBKN 021735Z AUTO 15012KT FEW048 FEW060 SCT070 29/19 A2996 RMK AO2,KBKN,2023-06-02T17:35:00Z,36.75,-97.35,29.0,19.0,150,12,,,29.958662,,,TRUE,TRUE,,,,,,,FEW,4800,FEW,6000,SCT,7000,,,,,,,,,,,,,,,METAR,208.0
KBKD 021735Z AUTO 15008G15KT 5SM HZ CLR 29/17 A2994 RMK AO2 T02920174,KBKD,2023-06-02T17:35:00Z,32.72,-98.88,29.2,17.4,150,8,15,5.0,29.940945,,,TRUE,TRUE,,,,,,HZ,CLR,,,,,,,,MVFR,,,,,,,,,,,,SPECI,383.0
KBJI 021735Z AUTO 14009G14KT 10SM SCT028 26/19 A3005 RMK AO2 T02630185,KBJI,2023-06-02T17:35:00Z,47.5,-94.92,26.3,18.5,140,9,14,10.0,30.050198,,,TRUE,TRUE,,,,,,,SCT,2800,,,,,,,VFR,,,,,,,,,,,,SPECI,422.0
KBIJ 021735Z AUTO 04007KT 10SM BKN050 28/15 A2988 RMK AO2,KBIJ,2023-06-02T17:35:00Z,31.4,-84.9,28.0,15.0,40,7,,10.0,29.878937,,,TRUE,TRUE,,,,,,,BKN,5000,,,,,,,VFR,,,,,,,,,,,,SPECI,63.0
KBIE 021735Z AUTO 13007KT 10SM SCT090 OVC110 29/17 A3000 RMK AO2 LTG DSNT W T02910172,KBIE,2023-06-02T17:35:00Z,40.28,-96.75,29.1,17.2,130,7,,10.0,30.0,,,TRUE,TRUE,,,,,,,SCT,9000,OVC,11000,,,,,VFR,,,,,,,,,,,,SPECI,398.0
KBHC 021735Z AUTO 04009G15KT 10SM SCT042 SCT060 27/16 A2986 RMK AO2,KBHC,2023-06-02T17:35:00Z,31.72,-82.4,27.0,16.0,40,9,15,10.0,29.861221,,,TRUE,TRUE,,,,,,,SCT,4200,SCT,6000,,,,,VFR,,,,,,,,,,,,METAR,61.0
KBGF 021735Z AUTO 01005KT 10SM FEW050 29/17 A2993 RMK A01,KBGF,2023-06-02T17:35:00Z,35.18,-86.07,29.0,17.0,10,5,,10.0,29.929134,,,TRUE,TRUE,,,,,,,FEW,5000,,,,,,,VFR,,,,,,,,,,,,SPECI,295.0
KBGE 021735Z AUTO 03008KT 020V080 10SM SCT050 30/17 A2986 RMK AO2 T02950165,KBGE,2023-06-02T17:35:00Z,30.97,-84.63,29.5,16.5,30,8,,10.0,29.861221,,,TRUE,TRUE,,,,,,,SCT,5000,,,,,,,VFR,,,,,,,,,,,,SPECI,40.0
KBEC 021735Z AUTO 17012G17KT 10SM BKN044 BKN055 BKN065 27/17 A2998 RMK AO2 T02700171,KBEC,2023-06-02T17:35:00Z,37.7,-97.22,27.0,17.1,170,12,17,10.0,29.97933,,,TRUE,TRUE,,,,,,,BKN,4400,BKN,5500,BKN,6500,,,VFR,,,,,,,,,,,,METAR,421.0
KBEA 021735Z AUTO 14008KT 10SM SCT039 BKN048 BKN060 31/19 A2990 RMK AO2 T03080187 PWINO,KBEA,2023-06-02T17:35:00Z,28.37,-97.78,30.8,18.7,140,8,,10.0,29.899607,,,TRUE,TRUE,,,,,TRUE,,SCT,3900,BKN,4800,BKN,6000,,,VFR,,,,,,,,,,,,METAR,83.0
KBDU 021735Z AUTO 18003KT 10SM -RA SCT037 OVC055 13/08 A2997 RMK AO2 P0001 LTG DSNT N,KBDU,2023-06-02T17:35:00Z,40.03,-105.23,13.0,8.0,180,3,,10.0,29.970472,,,TRUE,TRUE,,,,,,-RA,SCT,3700,OVC,5500,,,,,VFR,,,,,,0.01,,,,,,METAR,1614.0
KBDN 021735Z AUTO 31005KT 10SM CLR 18/01 A3008 RMK AO2,KBDN,2023-06-02T17:35:00Z,44.1,-121.2,18.0,1.0,310,5,,10.0,30.079725,,,TRUE,TRUE,,,,,,,CLR,,,,,,,,VFR,,,,,,,,,,,,SPECI,1044.0
KBDH 021735Z AUTO 21006KT 10SM CLR 28/17 A3005 RMK AO2 LTG DSNT SE,KBDH,2023-06-02T17:35:00Z,45.12,-95.13,28.0,17.0,210,6,,10.0,30.050198,,,TRUE,TRUE,,,,,,,CLR,,,,,,,,VFR,,,,,,,,,,,,METAR,341.0
KBDG 021735Z AUTO 14005KT 10SM 18/01 A3012 RMK AO1 T01820005,KBDG,2023-06-02T17:35:00Z,37.58,-109.47,18.2,0.5,140,5,,10.0,30.121063,,,TRUE,TRUE,,,,,,,,,,,,,,,,,,,,,,,,,,,METAR,1778.0
KBCK 021735Z AUTO 01003KT 10SM OVC050 30/17 A3008 RMK AO2 LTG DSNT W T03020167,KBCK,2023-06-02T17:35:00Z,44.25,-90.85,30.2,16.7,10,3,,10.0,30.079725,,,TRUE,TRUE,,,,,,,OVC,5000,,,,,,,VFR,,,,,,,,,,,,METAR,256.0
KBCB 021735Z AUTO 08011G18KT 10SM CLR 26/11 A3006 RMK AO2 T02620111,KBCB,2023-06-02T17:35:00Z,37.22,-80.42,26.2,11.1,80,11,18,10.0,30.059055,,,TRUE,TRUE,,,,,,,CLR,,,,,,,,VFR,,,,,,,,,,,,SPECI,642.0
KBBP 021735Z AUTO 02010G14KT 10SM SCT042 SCT049 SCT055 26/18 A2989 RMK AO2,KBBP,2023-06-02T17:35:00Z,34.62,-79.73,26.0,18.0,20,10,14,10.0,29.890747,,,TRUE,TRUE,,,,,,,SCT,4200,SCT,4900,SCT,5500,,,VFR,,,,,,,,,,,,METAR,44.0
KBBD 021735Z AUTO 18014KT 10SM BKN035 27/18 A2994 RMK AO2,KBBD,2023-06-02T17:35:00Z,31.18,-99.32,27.0,18.0,180,14,,10.0,29.940945,,,TRUE,TRUE,,,,,,,BKN,3500,,,,,,,VFR,,,,,,,,,,,,SPECI,554.0
KBAX 021735Z AUTO 06006G16KT 10SM 29/15 A3011 RMK AO2 T02880148,KBAX,2023-06-02T17:35:00Z,43.78,-82.98,28.8,14.8,60,6,16,10.0,30.109253,,,TRUE,TRUE,,,,,,,,,,,,,,,,,,,,,,,,,,,METAR,229.0
KBAM 021735Z AUTO 02007KT 10SM CLR 18/09 A3006 RMK AO1,KBAM,2023-06-02T17:35:00Z,40.6,-116.87,18.0,9.0,20,7,,10.0,30.059055,,,TRUE,TRUE,,,,,,,CLR,,,,,,,,VFR,,,,,,,,,,,,SPECI,1381.0
KBAC 021735Z AUTO 14013KT 9SM CLR 29/20 A2997 RMK AO2,KBAC,2023-06-02T17:35:00Z,46.93,-98.02,29.0,20.0,140,13,,9.0,29.970472,,,TRUE,TRUE,,,,,,,CLR,,,,,,,,VFR,,,,,,,,,,,,METAR,423.0
KAZE 021735Z AUTO 03005KT 10SM SCT044 SCT055 29/17 A2986 RMK AO2 T02860169,KAZE,2023-06-02T17:35:00Z,31.88,-82.65,28.6,16.9,30,5,,10.0,29.861221,,,TRUE,TRUE,,,,,,,SCT,4400,SCT,5500,,,,,VFR,,,,,,,,,,,,SPECI,78.0
KAZC 021735Z AUTO 29006KT 10SM CLR 25/04 A3005 RMK AO2,KAZC,2023-06-02T17:35:00Z,36.97,-113.02,25.0,4.0,290,6,,10.0,30.050198,,,TRUE,TRUE,,,,,,,CLR,,,,,,,,VFR,,,,,,,,,,,,METAR,1476.0
KAYS 021735Z AUTO 08006KT 10SM BKN045 28/17 A2985 RMK AO2 T02790174,KAYS,2023-06-02T17:35:00Z,31.25,-82.4,27.9,17.4,80,6,,10.0,29.84941,,,TRUE,TRUE,,,,,,,BKN,4500,,,,,,,VFR,,,,,,,,,,,,METAR,42.0
KAXX 021735Z AUTO 29007G18KT 10SM CLR 13/00 A3016 RMK AO2 T01301002,KAXX,2023-06-02T17:35:00Z,36.42,-105.28,13.0,-0.2,290,7,18,10.0,30.159449,,,TRUE,TRUE,,,,,,,CLR,,,,,,,,VFR,,,,,,,,,,,,SPECI,2543.0
KAXV 021735Z AUTO 09006KT 10SM CLR 30/09 A3004 RMK AO2,KAXV,2023-06-02T17:35:00Z,40.5,-84.3,30.0,9.0,90,6,,10.0,30.041338,,,TRUE,TRUE,,,,,,,CLR,,,,,,,,VFR,,,,,,,,,,,,METAR,278.0
KAXS 021735Z AUTO 18013KT 10SM BKN036 BKN047 BKN080 28/19 A2995 RMK AO2 T02820192,KAXS,2023-06-02T17:35:00Z,34.7,-99.33,28.2,19.2,180,13,,10.0,29.949802,,,TRUE,TRUE,,,,,,,BKN,3600,BKN,4700,BKN,8000,,,VFR,,,,,,,,,,,,SPECI,433.0
KAXH 021735Z AUTO 14003KT 10SM BKN041 BKN049 BKN055 31/21 A2993 RMK AO2 T03060207,KAXH,2023-06-02T17:35:00Z,29.52,-95.48,30.6,20.7,140,3,,10.0,29.929134,,,TRUE,TRUE,,,,,,,BKN,4100,BKN,4900,BKN,5500,,,VFR,,,,,,,,,,,,SPECI,18.0
KAXA 021735Z AUTO 13008KT 10SM CLR 28/19 A3004 RMK A01,KAXA,2023-06-02T17:35:00Z,43.07,-94.27,28.0,19.0,130,8,,10.0,30.041338,,,TRUE,TRUE,,,,,,,CLR,,,,,,,,VFR,,,,,,,,,,,,SPECI,371.0
KAWG 021735Z AUTO 15007KT 9SM CLR 31/17 A3003 RMK AO2,KAWG,2023-06-02T17:35:00Z,41.27,-91.67,31.0,17.0,150,7,,9.0,30.029528,,,TRUE,TRUE,,,,,,,CLR,,,,,,,,VFR,,,,,,,,,,,,SPECI,229.0
KAVQ 021735Z AUTO 00000KT 10SM 28/02 A2992 RMK AO2 T02750015,KAVQ,2023-06-02T17:35:00Z,32.4,-111.22,27.5,1.5,0,0,,10.0,29.920275,,,TRUE,TRUE,,,,,,,,,,,,,,,,,,,,,,,,,,,SPECI,618.0
KAVC 021735Z AUTO 03006G14KT 10SM CLR 27/16 A2999 RMK AO2 T02740159,KAVC,2023-06-02T17:35:00Z,36.68,-78.05,27.4,15.9,30,6,14,10.0,29.991142,,,TRUE,TRUE,,,,,,,CLR,,,,,,,,VFR,,,,,,,,,,,,METAR,119.0
KAUM 021735Z AUTO 19005KT 10SM VCTS CLR 29/18 A3007 RMK AO2 LTG DSNT N,KAUM,2023-06-02T17:35:00Z,43.67,-92.92,29.0,18.0,190,5,,10.0,30.070866,,,TRUE,TRUE,,,,,,VCTS,CLR,,,,,,,,VFR,,,,,,,,,,,,METAR,376.0
KAUH 021735Z AUTO 21006KT 10SM SCT060 BKN085 OVC100 23/16 A3003 RMK AO2 LTG DSNT SW T02290159,KAUH,2023-06-02T17:35:00Z,40.88,-98.0,22.9,15.9,210,6,,10.0,30.029528,,,TRUE,TRUE,,,,,,,SCT,6000,BKN,8500,OVC,10000,,,VFR,,,,,,,,,,,,SPECI,549.0
KATS 021735Z AUTO 10007G13KT 10SM CLR 27/13 A2992 RMK AO2,KATS,2023-06-02T17:35:00Z,32.85,-104.47,27.0,13.0,100,7,13,10.0,29.920275,,,TRUE,TRUE,,,,,,,CLR,,,,,,,,VFR,,,,,,,,,,,,METAR,1073.0
KATA 021735Z AUTO 11003KT 10SM FEW070 30/19 A2992 RMK AO2 SLP033 T02990192 $,KATA,2023-06-02T17:35:00Z,33.1,-94.2,29.9,19.2,110,3,,10.0,29.920275,1003.3,,TRUE,TRUE,TRUE,,,,,,FEW,7000,,,,,,,VFR,,,,,,,,,,,,SPECI,85.0
KASW 021735Z AUTO 11007KT 10SM CLR 31/10 A3006 RMK AO2 T03090106,KASW,2023-06-02T17:35:00Z,41.27,-85.83,30.9,10.6,110,7,,10.0,30.059055,,,TRUE,TRUE,,,,,,,CLR,,,,,,,,VFR,,,,,,,,,,,,SPECI,253.0
KASN 021735Z AUTO 06005KT 10SM SCT046 SCT050 28/18 A2994 RMK AO2 T02840181,KASN,2023-06-02T17:35:00Z,33.57,-86.05,28.4,18.1,60,5,,10.0,29.940945,,,TRUE,TRUE,,,,,,,SCT,4600,SCT,5000,,,,,VFR,,,,,,,,,,,,SPECI,159.0
KASL 021735Z AUTO VRB05KT 10SM FEW330 31/20 A2992 RMK AO2 T03150197 $,KASL,2023-06-02T17:35:00Z,32.52,-94.3,31.5,19.7,0,5,,10.0,29.920275,,,TRUE,TRUE,TRUE,,,,,,FEW,33000,,,,,,,VFR,,,,,,,,,,,,METAR,104.0
KARW 021735Z AUTO 02010KT 10SM SCT033 BKN041 BKN047 26/16 A2986 RMK AO2 LTG DSNT SE,KARW,2023-06-02T17:35:00Z,32.42,-80.63,26.0,16.0,20,10,,10.0,29.861221,,,TRUE,TRUE,,,,,,,SCT,3300,BKN,4100,BKN,4700,,,VFR,,,,,,,,,,,,METAR,2.0
KARV 021735Z AUTO 10006KT 060V130 10SM VCTS CLR 22/16 A3018 RMK AO2 LTG DSNT SE AND SW T02220159,KARV,2023-06-02T17:35:00Z,45.92,-89.72,22.2,15.9,100,6,,10.0,30.180119,,,TRUE,TRUE,,,,,,VCTS,CLR,,,,,,,,VFR,,,,,,,,,,,,SPECI,494.0
KARM 021735Z AUTO 12007KT 090V160 10SM BKN038 BKN045 30/20 A2993 RMK AO2 T03020203 TSNO,KARM,2023-06-02T17:35:00Z,29.25,-96.15,30.2,20.3,120,7,,10.0,29.929134,,,TRUE,TRUE,,,TRUE,,,,BKN,3800,BKN,4500,,,,,VFR,,,,,,,,,,,,METAR,29.0
KAQX 021735Z AUTO VRB04KT 10SM FEW039 OVC045 25/17 A2988 RMK AO2,KAQX,2023-06-02T17:35:00Z,32.98,-81.27,25.0,17.0,0,4,,10.0,29.878937,,,TRUE,TRUE,,,,,,,FEW,3900,OVC,4500,,,,,VFR,,,,,,,,,,,,METAR,48.0
KAQO 021735Z AUTO 16007G15KT 120V200 10SM SCT044 29/18 A2993 RMK AO2,KAQO,2023-06-02T17:35:00Z,30.78,-98.67,29.0,18.0,160,7,15,10.0,29.929134,,,TRUE,TRUE,,,,,,,SCT,4400,,,,,,,VFR,,,,,,,,,,,,SPECI,334.0
KAPY 021735Z AUTO 15008KT 10SM 31/21 A2988 RMK AO2 T03080209 TSNO,KAPY,2023-06-02T17:35:00Z,26.97,-99.25,30.8,20.9,150,8,,10.0,29.878937,,,TRUE,TRUE,,,TRUE,,,,,,,,,,,,,,,,,,,,,,,,SPECI,129.0
KANW 021735Z AUTO 15013KT 10SM BKN022 22/16 A2999 RMK AO2 T02170160,KANW,2023-06-02T17:35:00Z,42.57,-100.0,21.7,16.0,150,13,,10.0,29.991142,,,TRUE,TRUE,,,,,,,BKN,2200,,,,,,,MVFR,,,,,,,,,,,,SPECI,788.0
KANQ 021735Z AUTO 04012KT 10SM CLR 30/10 A3007 RMK AO2,KANQ,2023-06-02T17:35:00Z,41.63,-85.08,30.0,10.0,40,12,,10.0,30.070866,,,TRUE,TRUE,,,,,,,CLR,,,,,,,,VFR,,,,,,,,,,,,METAR,299.0
KAMN 021735Z AUTO 06008KT 10SM CLR 31/07 A3010 RMK AO2 T03140066,KAMN,2023-06-02T17:35:00Z,43.32,-84.68,31.4,6.6,60,8,,10.0,30.100393,,,TRUE,TRUE,,,,,,,CLR,,,,,,,,VFR,,,,,,,,,,,,METAR,228.0
KALX 021735Z AUTO 01004KT 10SM CLR 28/17 A2993 RMK AO2 T02760173,KALX,2023-06-02T17:35:00Z,32.92,-85.97,27.6,17.3,10,4,,10.0,29.929134,,,TRUE,TRUE,,,,,,,CLR,,,,,,,,VFR,,,,,,,,,,,,SPECI,198.0
KALM 021735Z AUTO 27012G17KT 10SM CLR 28/M07 A2995 RMK AO2,KALM,2023-06-02T17:35:00Z,32.83,-105.98,28.0,-7.0,270,12,17,10.0,29.949802,,,TRUE,TRUE,,,,,,,CLR,,,,,,,,VFR,,,,,,,,,,,,METAR,1267.0
KAJZ 021735Z AUTO 09010KT 10SM OVC090 16/07 A3007 RMK AO2 T01590071 PWINO,KAJZ,2023-06-02T17:35:00Z,38.78,-108.07,15.9,7.1,90,10,,10.0,30.070866,,,TRUE,TRUE,,,,,TRUE,,OVC,9000,,,,,,,VFR,,,,,,,,,,,,SPECI,1583.0
KAJR 021735Z AUTO 04003KT 10SM SCT050 28/14 A2995 RMK AO2 T02760139,KAJR,2023-06-02T17:35:00Z,34.5,-83.55,27.6,13.9,40,3,,10.0,29.949802,,,TRUE,TRUE,,,,,,,SCT,5000,,,,,,,VFR,,,,,,,,,,,,SPECI,441.0
KAJG 021735Z AUTO 09009KT 10SM CLR 33/07 A2999 RMK AO2 T03250074,KAJG,2023-06-02T17:35:00Z,38.62,-87.73,32.5,7.4,90,9,,10.0,29.991142,,,TRUE,TRUE,,,,,,,CLR,,,,,,,,VFR,,,,,,,,,,,,SPECI,130.0
KAIO 021735Z AUTO 15008G13KT 10SM FEW050 FEW080 30/20 A3001 RMK AO2,KAIO,2023-06-02T17:35:00Z,41.4,-95.03,30.0,20.0,150,8,13,10.0,30.008858,,,TRUE,TRUE,,,,,,,FEW,5000,FEW,8000,,,,,VFR,,,,,,,,,,,,SPECI,349.0
KAIK 021735Z AUTO 03009G17KT 10SM SCT039 SCT049 BKN055 26/17 A2991 RMK AO2 T02640170,KAIK,2023-06-02T17:35:00Z,33.65,-81.68,26.4,17.0,30,9,17,10.0,29.911417,,,TRUE,TRUE,,,,,,,SCT,3900,SCT,4900,BKN,5500,,,VFR,,,,,,,,,,,,METAR,155.0
KAIG 021735Z AUTO 02004KT 10SM SCT041 BKN060 OVC070 22/16 A3015 RMK AO2 P0005 T02240164,KAIG,2023-06-02T17:35:00Z,45.15,-89.12,22.4,16.4,20,4,,10.0,30.15059,,,TRUE,TRUE,,,,,,,SCT,4100,BKN,6000,OVC,7000,,,VFR,,,,,,0.05,,,,,,METAR,462.0
KAHQ 021735Z AUTO 15009G14KT 10SM 28/19 A3000 RMK AO2 T02790190,KAHQ,2023-06-02T17:35:00Z,41.23,-96.6,27.9,19.0,150,9,14,10.0,30.0,,,TRUE,TRUE,,,,,,,,,,,,,,,,,,,,,,,,,,,SPECI,372.0
KAGO 021735Z AUTO 00000KT 10SM FEW047 FEW055 30/19 A2993 RMK A01,KAGO,2023-06-02T17:35:00Z,33.23,-93.22,30.0,19.0,0,0,,10.0,29.929134,,,TRUE,TRUE,,,,,,,FEW,4700,FEW,5500,,,,,VFR,,,,,,,,,,,,METAR,91.0
KAGI 021735Z AUTO 04011G15KT 10SM CLR 29/20 A2991 RMK AO2 T02930196,KAGI,2023-06-02T17:35:00Z,27.55,-92.45,29.3,19.6,40,11,15,10.0,29.911417,,,TRUE,TRUE,,,,,,,CLR,,,,,,,,VFR,,,,,,,,,,,,SPECI,41.0
KAFO 021735Z AUTO 21003KT 10SM -RA SCT008 BKN018 OVC046 09/08 A3007 RMK AO2,KAFO,2023-06-02T17:35:00Z,42.72,-110.95,9.0,8.0,210,3,,10.0,30.070866,,,TRUE,TRUE,,,,,,-RA,SCT,800,BKN,1800,OVC,4600,,,MVFR,,,,,,,,,,,,METAR,1881.0
KAFK 021735Z AUTO 15009KT 10SM SCT046 SCT120 29/18 A3001 RMK AO2 T02930177,KAFK,2023-06-02T17:35:00Z,40.6,-95.85,29.3,17.7,150,9,,10.0,30.008858,,,TRUE,TRUE,,,,,,,SCT,4600,SCT,12000,,,,,VFR,,,,,,,,,,,,SPECI,353.0
KAEL 021735Z AUTO 15007KT 10SM VCTS CLR 29/17 A3006 RMK AO2 LTG DSNT N,KAEL,2023-06-02T17:35:00Z,43.68,-93.37,29.0,17.0,150,7,,10.0,30.059055,,,TRUE,TRUE,,,,,,VCTS,CLR,,,,,,,,VFR,,,,,,,,,,,,SPECI,382.0
KAEJ 021735Z AUTO 24012KT 10SM BKN065 OVC070 13/M01 A3011 RMK AO2 T01291011,KAEJ,2023-06-02T17:35:00Z,38.82,-106.12,12.9,-1.1,240,12,,10.0,30.109253,,,TRUE,TRUE,,,,,,,BKN,6500,OVC,7000,,,,,VFR,,,,,,,,,,,,SPECI,2420.0
KADU 021735Z AUTO 13010KT 10SM SCT003 BKN029 OVC065 29/19 A3003 RMK AO2,KADU,2023-06-02T17:35:00Z,41.7,-94.92,29.0,19.0,130,10,,10.0,30.029528,,,TRUE,TRUE,,,,,,,SCT,300,BKN,2900,OVC,6500,,,MVFR,,,,,,,,,,,,SPECI,391.0
KADT 021735Z AUTO 15012G20KT 10SM CLR 24/16 A2999 RMK AO2 T02400160,KADT,2023-06-02T17:35:00Z,39.83,-101.05,24.0,16.0,150,12,20,10.0,29.991142,,,TRUE,TRUE,,,,,,,CLR,,,,,,,,VFR,,,,,,,,,,,,SPECI,899.0
KADH 021735Z AUTO 15007KT 10SM SCT045 28/20 A2997 RMK AO2,KADH,2023-06-02T17:35:00Z,34.8,-96.67,28.0,20.0,150,7,,10.0,29.970472,,,TRUE,TRUE,,,,,,,SCT,4500,,,,,,,VFR,,,,,,,,,,,,SPECI,301.0
KACQ 021735Z AUTO 13004KT 10SM TS CLR 27/17 A3008 RMK AO2 LTG DSNT NE,KACQ,2023-06-02T17:35:00Z,44.07,-93.55,27.0,17.0,130,4,,10.0,30.079725,,,TRUE,TRUE,,,,,,TS,CLR,,,,,,,,VFR,,,,,,,,,,,,METAR,339.0
KACP 021735Z AUTO 00000KT 10SM CLR 31/17 A2992 RMK AO2,KACP,2023-06-02T17:35:00Z,30.75,-92.68,31.0,17.0,0,0,,10.0,29.920275,,,TRUE,TRUE,,,,,,,CLR,,,,,,,,VFR,,,,,,,,,,,,SPECI,31.0
KACJ 021735Z AUTO 03008KT 010V070 10SM BKN046 28/17 A2989 RMK AO2 T02790175,KACJ,2023-06-02T17:35:00Z,32.12,-84.18,27.9,17.5,30,8,,10.0,29.890747,,,TRUE,TRUE,,,,,,,BKN,4600,,,,,,,VFR,,,,,,,,,,,,METAR,140.0
KACB 021735Z AUTO 00000KT 10SM CLR 31/12 A3009 RMK AO2 T03140118,KACB,2023-06-02T17:35:00Z,44.98,-85.2,31.4,11.8,0,0,,10.0,30.088583,,,TRUE,TRUE,,,,,,,CLR,,,,,,,,VFR,,,,,,,,,,,,METAR,189.0
KAAS 021735Z AUTO 08008KT 10SM CLR 28/13 A3004 RMK AO1,KAAS,2023-06-02T17:35:00Z,37.35,-85.32,28.0,13.0,80,8,,10.0,30.041338,,,TRUE,TRUE,,,,,,,CLR,,,,,,,,VFR,,,,,,,,,,,,SPECI,270.0
KAAA 021735Z AUTO 07004KT 10SM 32/15 A3002 RMK AO2 T03240149,KAAA,2023-06-02T17:35:00Z,40.17,-89.33,32.4,14.9,70,4,,10.0,30.02067,,,TRUE,TRUE,,,,,,,,,,,,,,,,,,,,,,,,,,,SPECI,179.0
KA39 021735Z AUTO 11003KT 10SM CLR 28/05 A2994 RMK AO2,KA39,2023-06-02T17:35:00Z,32.98,-111.92,28.0,5.0,110,3,,10.0,29.940945,,,TRUE,TRUE,,,,,,,CLR,,,,,,,,VFR,,,,,,,,,,,,METAR,391.0
K9V9 021735Z AUTO 19017KT 10SM BKN050 25/16 A2996 RMK AO2 T02520155,K9V9,2023-06-02T17:35:00Z,43.77,-99.32,25.2,15.5,190,17,,10.0,29.958662,,,TRUE,TRUE,,,,,,,BKN,5000,,,,,,,VFR,,,,,,,,,,,,SPECI,511.0
K9MN 021735Z AUTO 00000KT 10SM SCT046 SCT050 29/15 A3008 RMK AO1 T02870153,K9MN,2023-06-02T17:35:00Z,44.02,-92.48,28.7,15.3,0,0,,10.0,30.079725,,,TRUE,TRUE,,,,,,,SCT,4600,SCT,5000,,,,,VFR,,,,,,,,,,,,SPECI,308.0
K9D7 021735Z AUTO 14014G21KT 10SM CLR 29/20 A2999 RMK AO2 TSNO,K9D7,2023-06-02T17:35:00Z,48.48,-99.23,29.0,20.0,140,14,21,10.0,29.991142,,,TRUE,TRUE,,,TRUE,,,,CLR,,,,,,,,VFR,,,,,,,,,,,,METAR,451.0
K9A5 021735Z AUTO 02006KT 10SM SCT050 SCT060 SCT065 28/15 A2994 RMK AO2 T02830151,K9A5,2023-06-02T17:35:00Z,34.68,-85.28,28.3,15.1,20,6,,10.0,29.940945,,,TRUE,TRUE,,,,,,,SCT,5000,SCT,6000,SCT,6500,,,VFR,,,,,,,,,,,,SPECI,234.0
K96D 021735Z AUTO 15011KT 10SM CLR 29/19 A2998 RMK AO2,K96D,2023-06-02T17:35:00Z,48.93,-97.9,29.0,19.0,150,11,,10.0,29.97933,,,TRUE,TRUE,,,,,,,CLR,,,,,,,,VFR,,,,,,,,,,,,METAR,290.0
K8W2 021735Z AUTO 03008KT 10SM CLR 30/10 A2997 RMK AO1 T02980101,K8W2,2023-06-02T17:35:00Z,38.65,-78.7,29.8,10.1,30,8,,10.0,29.970472,,,TRUE,TRUE,,,,,,,CLR,,,,,,,,VFR,,,,,,,,,,,,METAR,295.0
K8T6 021735Z AUTO 13008G14KT 10SM CLR 32/21 A2988 RMK AO2,K8T6,2023-06-02T17:35:00Z,28.37,-98.12,32.0,21.0,130,8,14,10.0,29.878937,,,TRUE,TRUE,,,,,,,CLR,,,,,,,,VFR,,,,,,,,,,,,METAR,39.0
K8A0 021735Z AUTO 09003KT 10SM SCT046 SCT050 28/16 A2995 RMK AO2,K8A0,2023-06-02T17:35:00Z,34.23,-86.25,28.0,16.0,90,3,,10.0,29.949802,,,TRUE,TRUE,,,,,,,SCT,4600,SCT,5000,,,,,VFR,,,,,,,,,,,,SPECI,313.0
K82V 021735Z AUTO 10SM 18/10 A2997 RMK AO2,K82V,2023-06-02T17:35:00Z,41.15,-104.13,18.0,10.0,,,,10.0,29.970472,,,TRUE,TRUE,,,,,,,,,,,,,,,,,,,,,,,,,,,SPECI,1563.0
K82C 021735Z AUTO 00000KT 10SM CLR 30/15 A3009 RMK AO2 T02960153,K82C,2023-06-02T17:35:00Z,43.83,-90.13,29.6,15.3,0,0,,10.0,30.088583,,,TRUE,TRUE,,,,,,,CLR,,,,,,,,VFR,,,,,,,,,,,,SPECI,273.0
K81R 021735Z AUTO 16009G17KT 10SM SCT039 29/19 A2996 RMK AO2 T02900185,K81R,2023-06-02T17:35:00Z,31.23,-98.72,29.0,18.5,160,9,17,10.0,29.958662,,,TRUE,TRUE,,,,,,,SCT,3900,,,,,,,VFR,,,,,,,,,,,,METAR,381.0
K7W4 021735Z AUTO 10SM CLR 29/14 A2995 RMK AO1 T02890139,K7W4,2023-06-02T17:35:00Z,37.97,-77.75,28.9,13.9,,,,10.0,29.949802,,,TRUE,TRUE,,,,,,,CLR,,,,,,,,VFR,,,,,,,,,,,,METAR,115.0
K7L2 021735Z AUTO 15015KT 10SM CLR 29/16 A2994 RMK AO2,K7L2,2023-06-02T17:35:00Z,46.22,-100.25,29.0,16.0,150,15,,10.0,29.940945,,,TRUE,TRUE,,,,,,,CLR,,,,,,,,VFR,,,,,,,,,,,,METAR,541.0
K7BM 021735Z AUTO 29005KT 10SM OVC037 07/00 A3019 RMK AO2 LTG DSNT S,K7BM,2023-06-02T17:35:00Z,38.78,-106.22,7.0,0.0,290,5,,10.0,30.188976,,,TRUE,TRUE,,,,,,,OVC,3700,,,,,,,VFR,,,,,,,,,,,,METAR,2996.0
K77S 021735Z AUTO 00000KT 10SM CLR 16/08 A3011 RMK A01,K77S,2023-06-02T17:35:00Z,43.93,-123.0,16.0,8.0,0,0,,10.0,30.109253,,,TRUE,TRUE,,,,,,,CLR,,,,,,,,VFR,,,,,,,,,,,,METAR,161.0
K6S2 021735Z AUTO 34012KT 10SM CLR 15/08 A3014 RMK AO2,K6S2,2023-06-02T17:35:00Z,43.98,-124.12,15.0,8.0,340,12,,10.0,30.138779,,,TRUE,TRUE,,,,,,,CLR,,,,,,,,VFR,,,,,,,,,,,,METAR,16.0
K6S0 021735Z AUTO 25008KT 5SM BR CLR 13/12 A3002 RMK A01,K6S0,2023-06-02T17:35:00Z,45.8,-109.97,13.0,12.0,250,8,,5.0,30.02067,,,TRUE,TRUE,,,,,,BR,CLR,,,,,,,,MVFR,,,,,,,,,,,,METAR,1364.0
K6R3 021735Z AUTO 00000KT 10SM CLR 32/20 A2994 RMK AO2 T03160197,K6R3,2023-06-02T17:35:00Z,30.35,-95.0,31.6,19.7,0,0,,10.0,29.940945,,,TRUE,TRUE,,,,,,,CLR,,,,,,,,VFR,,,,,,,,,,,,SPECI,44.0
K6P9 021735Z AUTO 18009G17KT 10SM BKN044 BKN050 28/18 A2995 RMK AO2 T02810176,K6P9,2023-06-02T17:35:00Z,32.43,-98.6,28.1,17.6,180,9,17,10.0,29.949802,,,TRUE,TRUE,,,,,,,BKN,4400,BKN,5000,,,,,VFR,,,,,,,,,,,,METAR,451.0
K6L4 021735Z AUTO 03004G14KT 10SM CLR 28/10 A3002 RMK AO2,K6L4,2023-06-02T17:35:00Z,37.85,-81.92,28.0,10.0,30,4,14,10.0,30.02067,,,TRUE,TRUE,,,,,,,CLR,,,,,,,,VFR,,,,,,,,,,,,SPECI,504.0
K6I2 021735Z AUTO 04003KT 10SM CLR 32/12 A3000 RMK AO2,K6I2,2023-06-02T17:35:00Z,37.63,-85.25,32.0,12.0,40,3,,10.0,30.0,,,TRUE,TRUE,,,,,,,CLR,,,,,,,,VFR,,,,,,,,,,,,SPECI,258.0
K6B9 021735Z AUTO 36007KT 10SM SCT120 30/15 A3000 RMK AO2,K6B9,2023-06-02T17:35:00Z,42.92,-76.43,30.0,15.0,360,7,,10.0,30.0,,,TRUE,TRUE,,,,,,,SCT,12000,,,,,,,VFR,,,,,,,,,,,,METAR,306.0
K6B0 021735Z AUTO 33010KT 10SM CLR 29/15 A2994 RMK AO2 LTG DSNT SW T02900153,K6B0,2023-06-02T17:35:00Z,43.98,-73.1,29.0,15.3,330,10,,10.0,29.940945,,,TRUE,TRUE,,,,,,,CLR,,,,,,,,VFR,,,,,,,,,,,,METAR,149.0
K6A2 021735Z AUTO 05006KT 10SM SCT041 SCT050 SCT060 26/15 A2993 RMK AO2,K6A2,2023-06-02T17:35:00Z,33.23,-84.27,26.0,15.0,50,6,,10.0,29.929134,,,TRUE,TRUE,,,,,,,SCT,4100,SCT,5000,SCT,6000,,,VFR,,,,,,,,,,,,SPECI,290.0
K6A1 021735Z AUTO 08011G18KT 10SM BKN044 BKN050 BKN080 29/15 A2991 RMK AO2 T02860150,K6A1,2023-06-02T17:35:00Z,32.57,-84.25,28.6,15.0,80,11,18,10.0,29.911417,,,TRUE,TRUE,,,,,,,BKN,4400,BKN,5000,BKN,8000,,,VFR,,,,,,,,,,,,SPECI,198.0
K66R 021735Z AUTO 00000KT 10SM SCT038 30/20 A2993 RMK AO2 T02970198,K66R,2023-06-02T17:35:00Z,29.65,-96.52,29.7,19.8,0,0,,10.0,29.929134,,,TRUE,TRUE,,,,,,,SCT,3800,,,,,,,VFR,,,,,,,,,,,,SPECI,70.0
K63S 021735Z AUTO 00000KT 10SM CLR 19/06 A3002 RMK A01,K63S,2023-06-02T17:35:00Z,48.53,-117.88,19.0,6.0,0,0,,10.0,30.02067,,,TRUE,TRUE,,,,,,,CLR,,,,,,,,VFR,,,,,,,,,,,,METAR,571.0
K5T9 021735Z AUTO 14012G17KT 10SM BKN030 29/24 A2986 RMK A01,K5T9,2023-06-02T17:35:00Z,28.85,-100.52,29.0,24.0,140,12,17,10.0,29.861221,,,TRUE,TRUE,,,,,,,BKN,3000,,,,,,,MVFR,,,,,,,,,,,,SPECI,269.0
K5SM 021735Z AUTO 22011KT 1/4SM SN OVC002 00/00 A3025 RMK AO2 LTG DSNT S,K5SM,2023-06-02T17:35:00Z,39.43,-107.38,0.0,0.0,220,11,,0.25,30.250984,,,TRUE,TRUE,,,,,,SN,OVC,200,,,,,,,LIFR,,,,,,,,,,,,SPECI,3229.0
K5R8 021735Z AUTO 00000KT 10SM SCT040 SCT047 30/20 A2992 RMK AO2 T03000198,K5R8,2023-06-02T17:35:00Z,30.43,-93.47,30.0,19.8,0,0,,10.0,29.920275,,,TRUE,TRUE,,,,,,,SCT,4000,SCT,4700,,,,,VFR,,,,,,,,,,,,SPECI,26.0
K5H4 021735Z AUTO 14012G18KT 10SM CLR 30/18 A2996 RMK AO2,K5H4,2023-06-02T17:35:00Z,47.78,-99.93,30.0,18.0,140,12,18,10.0,29.958662,,,TRUE,TRUE,,,,,,,CLR,,,,,,,,VFR,,,,,,,,,,,,METAR,490.0
K5C1 021735Z AUTO 16008KT 10SM SCT037 BKN044 27/18 A2995 RMK AO1,K5C1,2023-06-02T17:35:00Z,29.72,-98.7,27.0,18.0,160,8,,10.0,29.949802,,,TRUE,TRUE,,,,,,,SCT,3700,BKN,4400,,,,,VFR,,,,,,,,,,,,METAR,422.0
K5A6 021735Z AUTO 36007KT 10SM 29/19 A2993 RMK AO2 T02860192,K5A6,2023-06-02T17:35:00Z,33.47,-89.73,28.6,19.2,360,7,,10.0,29.929134,,,TRUE,TRUE,,,,,,,,,,,,,,,,,,,,,,,,,,,SPECI,109.0
K57C 021735Z AUTO 12008KT CLR 31/11 A3008 RMK AO2 T03090113 PWINO,K57C,2023-06-02T17:35:00Z,42.8,-88.37,30.9,11.3,120,8,,,30.079725,,,TRUE,TRUE,,,,,TRUE,,CLR,,,,,,,,,,,,,,,,,,,,METAR,454.0
K54J 021735Z AUTO 04009G17KT 10SM SCT048 SCT055 29/16 A2987 RMK AO2 T02890163,K54J,2023-06-02T17:35:00Z,30.73,-86.15,28.9,16.3,40,9,17,10.0,29.870079,,,TRUE,TRUE,,,,,,,SCT,4800,SCT,5500,,,,,VFR,,,,,,,,,,,,METAR,87.0
K54A 021735Z AUTO 11003KT 10SM FEW080 29/21 A2975 RMK AO2 LTG DSNT S AND NW,K54A,2023-06-02T17:35:00Z,26.85,-82.25,29.0,21.0,110,3,,10.0,29.749016,,,TRUE,TRUE,,,,,,,FEW,8000,,,,,,,VFR,,,,,,,,,,,,SPECI,2.0
K4V1 021735Z AUTO 24013G20KT 10SM CLR 22/M01 A3000 RMK AO2 T02191015,K4V1,2023-06-02T17:35:00Z,37.7,-104.78,21.9,-1.5,240,13,20,10.0,30.0,,,TRUE,TRUE,,,,,,,CLR,,,,,,,,VFR,,,,,,,,,,,,METAR,1847.0
K4V0 021735Z AUTO 01003KT 10SM -RA OVC065 13/09 A3004 RMK AO2 T01320089,K4V0,2023-06-02T17:35:00Z,40.1,-108.77,13.2,8.9,10,3,,10.0,30.041338,,,TRUE,TRUE,,,,,,-RA,OVC,6500,,,,,,,VFR,,,,,,,,,,,,SPECI,1602.0
K4S2 021735Z AUTO 30009G15KT 10SM CLR 20/03 A3005 RMK AO2,K4S2,2023-06-02T17:35:00Z,45.68,-121.55,20.0,3.0,300,9,15,10.0,30.050198,,,TRUE,TRUE,,,,,,,CLR,,,,,,,,VFR,,,,,,,,,,,,SPECI,183.0
K4S1 021735Z AUTO 35014G21KT CLR 12/08 A3009 RMK AO2 PWINO,K4S1,2023-06-02T17:35:00Z,42.42,-124.42,12.0,8.0,350,14,21,,30.088583,,,TRUE,TRUE,,,,,TRUE,,CLR,,,,,,,,,,,,,,,,,,,,METAR,7.0
K4R5 021735Z AUTO 01005KT 10SM SCT080 BKN100 OVC120 19/14 A3013 RMK AO2 T01920139,K4R5,2023-06-02T17:35:00Z,46.78,-90.77,19.2,13.9,10,5,,10.0,30.129921,,,TRUE,TRUE,,,,,,,SCT,8000,BKN,10000,OVC,12000,,,VFR,,,,,,,,,,,,SPECI,195.0
K4O4 021735Z AUTO 10007KT 7SM FEW047 FEW060 30/19 A2995 RMK AO2,K4O4,2023-06-02T17:35:00Z,33.92,-94.87,30.0,19.0,100,7,,7.0,29.949802,,,TRUE,TRUE,,,,,,,FEW,4700,FEW,6000,,,,,VFR,,,,,,,,,,,,SPECI,148.0
K4M9 021735Z AUTO VRB03G10KT 10SM CLR 31/20 A2997 RMK AO2 PWINO,K4M9,2023-06-02T17:35:00Z,36.4,-90.65,31.0,20.0,0,3,10,10.0,29.970472,,,TRUE,TRUE,,,,,TRUE,,CLR,,,,,,,,VFR,,,,,,,,,,,,METAR,86.0
K4I3 021735Z AUTO 07004G15KT 10SM CLR 30/10 A3004 RMK AO2,K4I3,2023-06-02T17:35:00Z,40.33,-82.53,30.0,10.0,70,4,15,10.0,30.041338,,,TRUE,TRUE,,,,,,,CLR,,,,,,,,VFR,,,,,,,,,,,,METAR,361.0
K4F2 021735Z AUTO 11003KT 10SM SCT045 BKN070 OVC100 30/20 A2993 RMK AO2 T03020199,K4F2,2023-06-02T17:35:00Z,32.18,-94.3,30.2,19.9,110,3,,10.0,29.929134,,,TRUE,TRUE,,,,,,,SCT,4500,BKN,7000,OVC,10000,,,VFR,,,,,,,,,,,,METAR,76.0
K4BM 021735Z AUTO 16010G14KT 10SM SCT034 BKN043 BKN050 06/M02 A3026 RMK AO2,K4BM,2023-06-02T17:35:00Z,39.05,-105.52,6.0,-2.0,160,10,14,10.0,30.259842,,,TRUE,TRUE,,,,,,,SCT,3400,BKN,4300,BKN,5000,,,VFR,,,,,,,,,,,,SPECI,3432.0
K4A9 021735Z AUTO 02008KT 10SM SCT050 28/16 A2993 RMK AO2 T02810160,K4A9,2023-06-02T17:35:00Z,34.47,-85.72,28.1,16.0,20,8,,10.0,29.929134,,,TRUE,TRUE,,,,,,,SCT,5000,,,,,,,VFR,,,,,,,,,,,,SPECI,273.0
K4A6 021735Z AUTO 00000KT 10SM FEW055 29/18 A2993 RMK AO2,K4A6,2023-06-02T17:35:00Z,34.68,-86.0,29.0,18.0,0,0,,10.0,29.929134,,,TRUE,TRUE,,,,,,,FEW,5500,,,,,,,VFR,,,,,,,,,,,,METAR,191.0
K49A 021735Z AUTO VRB04KT 10SM FEW036 SCT043 BKN060 26/20 A2995 RMK AO2,K49A,2023-06-02T17:35:00Z,34.63,-84.53,26.0,20.0,0,4,,10.0,29.949802,,,TRUE,TRUE,,,,,,,FEW,3600,SCT,4300,BKN,6000,,,VFR,,,,,,,,,,,,SPECI,449.0
K48A 021735Z AUTO 02010KT 10SM SCT055 SCT075 28/17 A2989 RMK AO2 T02810174,K48A,2023-06-02T17:35:00Z,32.4,-83.27,28.1,17.4,20,10,,10.0,29.890747,,,TRUE,TRUE,,,,,,,SCT,5500,SCT,7500,,,,,VFR,,,,,,,,,,,,METAR,115.0
K46U 021735Z AUTO 18004KT 6SM BR FEW022 SCT027 BKN043 11/10 A3006 RMK A01,K46U,2023-06-02T17:35:00Z,43.18,-111.05,11.0,10.0,180,4,,6.0,30.059055,,,TRUE,TRUE,,,,,,BR,FEW,2200,SCT,2700,BKN,4300,,,VFR,,,,,,,,,,,,SPECI,1718.0
K46D 021735Z AUTO 08008G14KT 10SM CLR 28/19 A2997 RMK AO2,K46D,2023-06-02T17:35:00Z,47.45,-99.15,28.0,19.0,80,8,14,10.0,29.970472,,,TRUE,TRUE,,,,,,,CLR,,,,,,,,VFR,,,,,,,,,,,,METAR,488.0
K42J 021735Z AUTO 04009KT 6SM HZ FEW042 OVC050 28/16 A2982 RMK A01,K42J,2023-06-02T17:35:00Z,29.85,-82.05,28.0,16.0,40,9,,6.0,29.819881,,,TRUE,TRUE,,,,,,HZ,FEW,4200,OVC,5000,,,,,VFR,,,,,,,,,,,,METAR,57.0
K41U 021735Z AUTO 00000KT 10SM OVC085 17/06 A3005 RMK AO1 T01650061,K41U,2023-06-02T17:35:00Z,39.33,-111.6,16.5,6.1,0,0,,10.0,30.050198,,,TRUE,TRUE,,,,,,,OVC,8500,,,,,,,VFR,,,,,,,,,,,,METAR,1676.0
K40U 021735Z AUTO 08004KT 5SM RA BR BKN022 OVC031 10/08 A3007 RMK AO2 P0004 T00970081,K40U,2023-06-02T17:35:00Z,40.98,-109.68,9.7,8.1,80,4,,5.0,30.070866,,,TRUE,TRUE,,,,,,RA BR,BKN,2200,OVC,3100,,,,,MVFR,,,,,,0.04,,,,,,METAR,1882.0
K3T5 021735Z AUTO 17008KT 10SM FEW049 SCT350 30/20 A2991 RMK AO2 T02990200 $,K3T5,2023-06-02T17:35:00Z,29.9,-96.95,29.9,20.0,170,8,,10.0,29.911417,,,TRUE,TRUE,TRUE,,,,,,FEW,4900,SCT,35000,,,,,VFR,,,,,,,,,,,,METAR,96.0
K3S8 021735Z AUTO 00000KT 10SM CLR 17/06 A3011 RMK AO2,K3S8,2023-06-02T17:35:00Z,42.5,-123.4,17.0,6.0,0,0,,10.0,30.109253,,,TRUE,TRUE,,,,,,,CLR,,,,,,,,VFR,,,,,,,,,,,,SPECI,339.0
K3R7 021735Z AUTO 06006KT 10SM SCT048 30/18 A2992 RMK AO2 T03020177,K3R7,2023-06-02T17:35:00Z,30.25,-92.67,30.2,17.7,60,6,,10.0,29.920275,,,TRUE,TRUE,,,,,,,SCT,4800,,,,,,,VFR,,,,,,,,,,,,SPECI,5.0
K3N8 021735Z AUTO 16008KT 10SM SCT037 SCT045 BKN060 27/18 A3001 RMK AO2 T02740182,K3N8,2023-06-02T17:35:00Z,47.25,-95.92,27.4,18.2,160,8,,10.0,30.008858,,,TRUE,TRUE,,,,,,,SCT,3700,SCT,4500,BKN,6000,,,VFR,,,,,,,,,,,,METAR,379.0
K3LF 021735Z AUTO 08009G14KT 10SM CLR 31/12 A3003 RMK AO2 T03110123,K3LF,2023-06-02T17:35:00Z,39.17,-89.67,31.1,12.3,80,9,14,10.0,30.029528,,,TRUE,TRUE,,,,,,,CLR,,,,,,,,VFR,,,,,,,,,,,,SPECI,207.0
K3K3 021735Z AUTO 14014G20KT 10SM SCT026 BKN034 BKN050 20/15 A2997 RMK AO2,K3K3,2023-06-02T17:35:00Z,38.0,-101.75,20.0,15.0,140,14,20,10.0,29.970472,,,TRUE,TRUE,,,,,,,SCT,2600,BKN,3400,BKN,5000,,,VFR,,,,,,,,,,,,SPECI,1010.0
K3F3 021735Z AUTO 07003G15KT 10SM SCT050 32/19 A2997 RMK AO2 T03210188,K3F3,2023-06-02T17:35:00Z,32.07,-93.77,32.1,18.8,70,3,15,10.0,29.970472,,,TRUE,TRUE,,,,,,,SCT,5000,,,,,,,VFR,,,,,,,,,,,,SPECI,96.0
K3D2 021735Z AUTO 04004KT 10SM CLR 27/13 A3011 RMK AO2 T02740132,K3D2,2023-06-02T17:35:00Z,45.13,-87.18,27.4,13.2,40,4,,10.0,30.109253,,,TRUE,TRUE,,,,,,,CLR,,,,,,,,VFR,,,,,,,,,,,,SPECI,233.0
K3AU 021735Z AUTO 16010KT 10SM SCT045 SCT050 28/15 A2998 RMK AO2,K3AU,2023-06-02T17:35:00Z,37.67,-97.08,28.0,15.0,160,10,,10.0,29.97933,,,TRUE,TRUE,,,,,,,SCT,4500,SCT,5000,,,,,VFR,,,,,,,,,,,,SPECI,403.0
K36K 021735Z AUTO 16011G22KT 10SM BKN030 22/16 A3000 RMK AO2,K36K,2023-06-02T17:35:00Z,37.97,-101.25,22.0,16.0,160,11,22,10.0,30.0,,,TRUE,TRUE,,,,,,,BKN,3000,,,,,,,MVFR,,,,,,,,,,,,SPECI,938.0
K35A 021735Z AUTO 04009KT 10SM SCT050 28/15 A2996 RMK A02 LTG DSNT S T02750148,K35A,2023-06-02T17:35:00Z,34.68,-81.63,27.5,14.8,40,9,,10.0,29.958662,,,TRUE,TRUE,,,,,,,SCT,5000,,,,,,,VFR,,,,,,,,,,,,SPECI,186.0
K33V 021735Z AUTO 18010KT 7SM SCT008 SCT020 OVC027 05/04 A3012 RMK AO1,K33V,2023-06-02T17:35:00Z,40.75,-106.28,5.0,4.0,180,10,,7.0,30.121063,,,TRUE,TRUE,,,,,,,SCT,800,SCT,2000,OVC,2700,,,MVFR,,,,,,,,,,,,SPECI,2486.0
K33N 021735Z AUTO VRB03KT 10SM CLR 31/14 A2990 RMK A01,K33N,2023-06-02T17:35:00Z,39.22,-75.6,31.0,14.0,0,3,,10.0,29.899607,,,TRUE,TRUE,,,,,,,CLR,,,,,,,,VFR,,,,,,,,,,,,SPECI,17.0
K2V5 021735Z AUTO 17009G15KT 10SM CLR 25/11 A2994 RMK AO2,K2V5,2023-06-02T17:35:00Z,40.1,-102.25,25.0,11.0,170,9,15,10.0,29.940945,,,TRUE,TRUE,,,,,,,CLR,,,,,,,,VFR,,,,,,,,,,,,SPECI,1117.0
K2R9 021735Z AUTO 14007KT 10SM BKN041 BKN050 BKN060 30/20 A2992 RMK AO2 T02980201,K2R9,2023-06-02T17:35:00Z,28.82,-97.87,29.8,20.1,140,7,,10.0,29.920275,,,TRUE,TRUE,,,,,,,BKN,4100,BKN,5000,BKN,6000,,,VFR,,,,,,,,,,,,SPECI,88.0
K2P2 021735Z AUTO 08005KT 10SM CLR 26/11 A3012 RMK AO2 T02610110,K2P2,2023-06-02T17:35:00Z,45.38,-86.92,26.1,11.0,80,5,,10.0,30.121063,,,TRUE,TRUE,,,,,,,CLR,,,,,,,,VFR,,,,,,,,,,,,SPECI,182.0
K2M2 021735Z AUTO 03010KT 10SM FEW050 29/17 A2995 RMK A01,K2M2,2023-06-02T17:35:00Z,35.23,-87.25,29.0,17.0,30,10,,10.0,29.949802,,,TRUE,TRUE,,,,,,,FEW,5000,,,,,,,VFR,,,,,,,,,,,,SPECI,286.0
K2J9 021735Z AUTO 06009KT 10SM SCT047 29/16 A2986 RMK AO2,K2J9,2023-06-02T17:35:00Z,30.6,-84.55,29.0,16.0,60,9,,10.0,29.861221,,,TRUE,TRUE,,,,,,,SCT,4700,,,,,,,VFR,,,,,,,,,,,,SPECI,62.0
K2J5 021735Z AUTO 31009KT 10SM SCT043 27/17 A2989 RMK AO2 T02710168,K2J5,2023-06-02T17:35:00Z,32.9,-81.97,27.1,16.8,310,9,,10.0,29.890747,,,TRUE,TRUE,,,,,,,SCT,4300,,,,,,,VFR,,,,,,,,,,,,SPECI,72.0
K2I0 021735Z AUTO 10008KT 10SM BKN060 32/14 A2998 RMK AO2 T03240140,K2I0,2023-06-02T17:35:00Z,37.35,-87.4,32.4,14.0,100,8,,10.0,29.97933,,,TRUE,TRUE,,,,,,,BKN,6000,,,,,,,VFR,,,,,,,,,,,,METAR,127.0
K2G9 021735Z AUTO 01005KT 10SM CLR 27/05 A3006 RMK AO2,K2G9,2023-06-02T17:35:00Z,40.03,-79.02,27.0,5.0,10,5,,10.0,30.059055,,,TRUE,TRUE,,,,,,,CLR,,,,,,,,VFR,,,,,,,,,,,,SPECI,677.0
K2D5 021735Z AUTO 14010KT 9SM SCT045 BKN050 28/18 A2997 RMK AO2,K2D5,2023-06-02T17:35:00Z,46.17,-98.08,28.0,18.0,140,10,,9.0,29.970472,,,TRUE,TRUE,,,,,,,SCT,4500,BKN,5000,,,,,VFR,,,,,,,,,,,,METAR,407.0
K2C8 021735Z AUTO 12007G14KT 080V140 10SM CLR 29/19 A2997 RMK AO2,K2C8,2023-06-02T17:35:00Z,48.78,-97.63,29.0,19.0,120,7,14,10.0,29.970472,,,TRUE,TRUE,,,,,,,CLR,,,,,,,,VFR,,,,,,,,,,,,SPECI,271.0
K2A0 021735Z AUTO 03007KT 360V060 10SM CLR 29/15 A2993 RMK A01,K2A0,2023-06-02T17:35:00Z,35.48,-84.93,29.0,15.0,30,7,,10.0,29.929134,,,TRUE,TRUE,,,,,,,CLR,,,,,,,,VFR,,,,,,,,,,,,SPECI,219.0
K28J 021735Z AUTO 08010KT 10SM CLR 27/18 A2982 RMK AO2,K28J,2023-06-02T17:35:00Z,29.65,-81.68,27.0,18.0,80,10,,10.0,29.819881,,,TRUE,TRUE,,,,,,,CLR,,,,,,,,VFR,,,,,,,,,,,,METAR,9.0
K22N 021735Z AUTO 32005KT 10SM SCT110 33/07 A2992 RMK AO2,K22N,2023-06-02T17:35:00Z,40.8,-75.77,33.0,7.0,320,5,,10.0,29.920275,,,TRUE,TRUE,,,,,,,SCT,11000,,,,,,,VFR,,,,,,,,,,,,METAR,159.0
K21D 021735Z AUTO 20004KT 10SM VCTS CLR 28/17 A3007 RMK AO2 LTG DSNT S,K21D,2023-06-02T17:35:00Z,45.0,-92.85,28.0,17.0,200,4,,10.0,30.070866,,,TRUE,TRUE,,,,,,VCTS,CLR,,,,,,,,VFR,,,,,,,,,,,,METAR,281.0
K20V 021735Z AUTO 00000KT 10SM -RA OVC031 05/05 A3013 RMK AO2 P0002,K20V,2023-06-02T17:35:00Z,40.05,-106.37,5.0,5.0,0,0,,10.0,30.129921,,,TRUE,TRUE,,,,,,-RA,OVC,3100,,,,,,,VFR,,,,,,0.02,,,,,,SPECI,2259.0
K20U 021735Z AUTO 10012G17KT 10SM CLR 24/18 A2992 RMK AO2,K20U,2023-06-02T17:35:00Z,46.93,-103.98,24.0,18.0,100,12,17,10.0,29.920275,,,TRUE,TRUE,,,,,,,CLR,,,,,,,,VFR,,,,,,,,,,,,SPECI,839.0
K1V6 021735Z AUTO 30007KT 10SM CLR 23/01 A2996 RMK AO2,K1V6,2023-06-02T17:35:00Z,38.43,-105.1,23.0,1.0,300,7,,10.0,29.958662,,,TRUE,TRUE,,,,,,,CLR,,,,,,,,VFR,,,,,,,,,,,,SPECI,1658.0
K1U7 021735Z AUTO 01010KT 2 1/2SM BR SCT010 BKN013 BKN018 10/10 A3006 RMK A01,K1U7,2023-06-02T17:35:00Z,42.25,-111.33,10.0,10.0,10,10,,2.5,30.059055,,,TRUE,TRUE,,,,,,BR,SCT,1000,BKN,1300,BKN,1800,,,IFR,,,,,,,,,,,,METAR,1808.0
K1R8 021735Z AUTO 36008G13KT 10SM SCT050 SCT060 SCT080 30/17 A2987 RMK AO2,K1R8,2023-06-02T17:35:00Z,30.87,-87.82,30.0,17.0,360,8,13,10.0,29.870079,,,TRUE,TRUE,,,,,,,SCT,5000,SCT,6000,SCT,8000,,,VFR,,,,,,,,,,,,SPECI,76.0
K1R7 021735Z AUTO 00000KT 10SM FEW047 29/20 A2994 RMK AO2 PWINO,K1R7,2023-06-02T17:35:00Z,31.6,-90.42,29.0,20.0,0,0,,10.0,29.940945,,,TRUE,TRUE,,,,,TRUE,,FEW,4700,,,,,,,VFR,,,,,,,,,,,,METAR,142.0
K1H2 021735Z AUTO 02004KT 10SM SCT080 32/13 A3002 RMK AO2 T03200129,K1H2,2023-06-02T17:35:00Z,39.07,-88.53,32.0,12.9,20,4,,10.0,30.02067,,,TRUE,TRUE,,,,,,,SCT,8000,,,,,,,VFR,,,,,,,,,,,,SPECI,174.0
K1F0 021735Z AUTO 14007KT 110V190 10SM SCT041 SCT048 30/20 A2994 RMK AO2 T03010195,K1F0,2023-06-02T17:35:00Z,34.15,-97.12,30.1,19.5,140,7,,10.0,29.940945,,,TRUE,TRUE,,,,,,,SCT,4100,SCT,4800,,,,,VFR,,,,,,,,,,,,SPECI,256.0
K1A9 021735Z AUTO 00000KT 10SM SCT050 28/16 A2990 RMK AO2 T02840163,K1A9,2023-06-02T17:35:00Z,32.43,-86.52,28.4,16.3,0,0,,10.0,29.899607,,,TRUE,TRUE,,,,,,,SCT,5000,,,,,,,VFR,,,,,,,,,,,,SPECI,65.0
K1A6 021735Z AUTO 03003KT 10SM SCT047 SCT060 29/16 A2998 RMK AO2 T02920164,K1A6,2023-06-02T17:35:00Z,36.62,-83.73,29.2,16.4,30,3,,10.0,29.97933,,,TRUE,TRUE,,,,,,,SCT,4700,SCT,6000,,,,,VFR,,,,,,,,,,,,SPECI,348.0
K18H 021735Z AUTO 04011KT 10SM CLR 28/20 A2988 RMK A01,K18H,2023-06-02T17:35:00Z,26.13,-92.03,28.0,20.0,40,11,,10.0,29.878937,,,TRUE,TRUE,,,,,,,CLR,,,,,,,,VFR,,,,,,,,,,,,METAR,30.0
K18A 021735Z AUTO 06004KT 10SM SCT046 SCT050 27/17 A3000 RMK AO2 T02720166,K18A,2023-06-02T17:35:00Z,34.35,-83.13,27.2,16.6,60,4,,10.0,30.0,,,TRUE,TRUE,,,,,,,SCT,4600,SCT,5000,,,,,VFR,,,,,,,,,,,,SPECI,260.0
K17J 021735Z AUTO 08013KT 060V120 10SM SCT049 29/15 A2986 RMK AO2 T02860151,K17J,2023-06-02T17:35:00Z,31.0,-84.87,28.6,15.1,80,13,,10.0,29.861221,,,TRUE,TRUE,,,,,,,SCT,4900,,,,,,,VFR,,,,,,,,,,,,SPECI,42.0
K15M 021735Z AUTO 03006KT 10SM CLR 29/17 A2996 RMK AO2 T02930174 $,K15M,2023-06-02T17:35:00Z,34.77,-88.17,29.3,17.4,30,6,,10.0,29.958662,,,TRUE,TRUE,TRUE,,,,,,CLR,,,,,,,,VFR,,,,,,,,,,,,METAR,192.0
K14Y 021735Z AUTO 15007G10KT 5SM HZ CLR 27/17 A3005 RMK AO2,K14Y,2023-06-02T17:35:00Z,45.9,-94.87,27.0,17.0,150,7,10,5.0,30.050198,,,TRUE,TRUE,,,,,,HZ,CLR,,,,,,,,MVFR,,,,,,,,,,,,METAR,404.0
K13K 021735Z AUTO 17009KT 140V200 10SM SCT050 28/19 A3000 RMK AO2 T02840193,K13K,2023-06-02T17:35:00Z,37.85,-96.3,28.4,19.3,170,9,,10.0,30.0,,,TRUE,TRUE,,,,,,,SCT,5000,,,,,,,VFR,,,,,,,,,,,,SPECI,367.0
K11R 021735Z AUTO 09003KT 10SM CLR 31/19 A2992 RMK AO2 T03100185 PNO,K11R,2023-06-02T17:35:00Z,30.22,-96.37,31.0,18.5,90,3,,10.0,29.920275,,,TRUE,TRUE,,,,,,,CLR,,,,,,,,VFR,,,,,,,,,,,,SPECI,87.0
K10G 021735Z AUTO 02010G15KT 339V049 10SM SCT080 31/07 A3004 RMK AO2,K10G,2023-06-02T17:35:00Z,40.53,-81.95,31.0,7.0,20,10,15,10.0,30.041338,,,TRUE,TRUE,,,,,,,SCT,8000,,,,,,,VFR,,,,,,,,,,,,SPECI,371.0
K0V4 021735Z AUTO 05016G20KT 10SM CLR 29/13 A2994 RMK AO1,K0V4,2023-06-02T17:35:00Z,37.15,-79.02,29.0,13.0,50,16,20,10.0,29.940945,,,TRUE,TRUE,,,,,,,CLR,,,,,,,,VFR,,,,,,,,,,,,SPECI,186.0
K0S9 021735Z AUTO 10006KT 10SM CLR 15/09 A3012 RMK AO2,K0S9,2023-06-02T17:35:00Z,48.05,-122.82,15.0,9.0,100,6,,10.0,30.121063,,,TRUE,TRUE,,,,,,,CLR,,,,,,,,VFR,,,,,,,,,,,,METAR,33.0
K0R0 021735Z AUTO 36007KT 330V030 A2994 RMK AO2 PWINO TSNO,K0R0,2023-06-02T17:35:00Z,31.3,-89.82,,,360,7,,,29.940945,,,TRUE,TRUE,,,TRUE,,TRUE,,,,,,,,,,,,,,,,,,,,,,SPECI,76.0
K0F2 021735Z AUTO 10SM SCT041 29/19 A2995 RMK AO2 T02930192,K0F2,2023-06-02T17:35:00Z,33.6,-97.78,29.3,19.2,,,,10.0,29.949802,,,TRUE,TRUE,,,,,,,SCT,4100,,,,,,,VFR,,,,,,,,,,,,SPECI,330.0
K0A9 021735Z AUTO VRB04G10KT 7SM CLR 28/14 A2997 RMK AO2,K0A9,2023-06-02T17:35:00Z,36.37,-82.17,28.0,14.0,0,4,10,7.0,29.970472,,,TRUE,TRUE,,,,,,,CLR,,,,,,,,VFR,,,,,,,,,,,,SPECI,479.0
K0A0 021735Z AUTO VRB03KT 10SM CLR 26/M06 A2998 RMK AO2,K0A0,2023-06-02T17:35:00Z,32.98,-106.97,26.0,-6.0,0,3,,10.0,29.97933,,,TRUE,TRUE,,,,,,,CLR,,,,,,,,VFR,,,,,,,,,,,,SPECI,1401.0
K08D 021735Z AUTO 13010G16KT 10SM CLR 26/17 A2995 RMK AO2,K08D,2023-06-02T17:35:00Z,48.3,-102.4,26.0,17.0,130,10,16,10.0,29.949802,,,TRUE,TRUE,,,,,,,CLR,,,,,,,,VFR,,,,,,,,,,,,SPECI,683.0
K06D 021735Z AUTO 14014G20KT 10SM FEW050 30/17 A2999 RMK AO2,K06D,2023-06-02T17:35:00Z,48.88,-99.62,30.0,17.0,140,14,20,10.0,29.991142,,,TRUE,TRUE,,,,,,,FEW,5000,,,,,,,VFR,,,,,,,,,,,,METAR,554.0
K06C 021735Z AUTO 09007KT 10SM CLR 31/14 A3007 RMK AO2 T03140141,K06C,2023-06-02T17:35:00Z,41.98,-88.1,31.4,14.1,90,7,,10.0,30.070866,,,TRUE,TRUE,,,,,,,CLR,,,,,,,,VFR,,,,,,,,,,,,SPECI,243.0
K04V 021735Z AUTO 28013G21KT 10SM 12/00 A3017 RMK AO2,K04V,2023-06-02T17:35:00Z,38.1,-106.17,12.0,0.0,280,13,21,10.0,30.171259,,,TRUE,TRUE,,,,,,,,,,,,,,,,,,,,,,,,,,,SPECI,2389.0
CYHZ 021735Z 36016KT 10SM FEW037 SCT130 BKN160 16/10 A2993 RMK SC1AC4AC3 SC TR HAZE SLP139 DENSITY ALT 700FT,CYHZ,2023-06-02T17:35:00Z,44.87,-63.5,16.0,10.0,360,16,,10.0,29.929134,1013.9,,,,,,,,,,FEW,3700,SCT,13000,BKN,16000,,,VFR,,,,,,,,,,,,SPECI,136.0
KPOB 021734Z AUTO 04012KT 10SM SCT039 SCT055 27/17 A2988 RMK AO2 SLP120 $,KPOB,2023-06-02T17:34:00Z,35.17,-79.02,27.0,17.0,40,12,,10.0,29.878937,1012.0,,TRUE,TRUE,TRUE,,,,,,SCT,3900,SCT,5500,,,,,VFR,,,,,,,,,,,,METAR,57.0
KMNE 021734Z AUTO 00000KT 10SM SCT044 31/20 A2995 RMK AO2,KMNE,2023-06-02T17:34:00Z,32.65,-93.3,31.0,20.0,0,0,,10.0,29.949802,,,TRUE,TRUE,,,,,,,SCT,4400,,,,,,,VFR,,,,,,,,,,,,METAR,84.0
KLOR 021734Z AUTO 03003KT 10SM BKN048 28/17 A2986 RMK AO2 SLP093,KLOR,2023-06-02T17:34:00Z,31.35,-85.75,28.0,17.0,30,3,,10.0,29.861221,1009.3,,TRUE,TRUE,,,,,,,BKN,4800,,,,,,,VFR,,,,,,,,,,,,METAR,92.0
KGUY 021734Z AUTO 17011KT 10SM SCT015 BKN022 22/18 A2996 RMK AO2 T02170183,KGUY,2023-06-02T17:34:00Z,36.68,-101.5,21.7,18.3,170,11,,10.0,29.958662,,,TRUE,TRUE,,,,,,,SCT,1500,BKN,2200,,,,,MVFR,,,,,,,,,,,,SPECI,950.0
KCDD 021734Z AUTO 16005KT 10SM CLR 28/16 A3011 RMK AO2 PWINO,KCDD,2023-06-02T17:34:00Z,48.27,-92.48,28.0,16.0,160,5,,10.0,30.109253,,,TRUE,TRUE,,,,,TRUE,,CLR,,,,,,,,VFR,,,,,,,,,,,,METAR,344.0
CWIL 021734Z AUTO ///// ////SM OVC003 02/01 A2997,CWIL,2023-06-02T17:34:00Z,68.32,-100.07,2.0,1.0,,,,,29.970472,,,TRUE,,,,,,,,OVC,300,,,,,,,,,,,,,,,,,,,SPECI,28.0
PALU 021733Z AUTO 21019KT 180V240 1/2SM SN OVC008 01/M01 A2966 RMK AO2 PK WND 21028/1658 SLP044,PALU,2023-06-02T17:33:00Z,68.88,-166.1,1.0,-1.0,210,19,,0.5,29.660433,1004.4,,TRUE,TRUE,,,,,,SN,OVC,800,,,,,,,LIFR,,,,,,,,,,,,METAR,8.0
KRNP 021733Z AUTO 04006KT 10SM CLR 31/04 A3009 RMK AO2 T03130035,KRNP,2023-06-02T17:33:00Z,43.0,-84.13,31.3,3.5,40,6,,10.0,30.088583,,,TRUE,TRUE,,,,,,,CLR,,,,,,,,VFR,,,,,,,,,,,,SPECI,224.0
KRIW 021733Z AUTO 31003KT 10SM FEW018 SCT024 OVC046 14/09 A2998 RMK AO2 T01390094,KRIW,2023-06-02T17:33:00Z,43.07,-108.43,13.9,9.4,310,3,,10.0,29.97933,,,TRUE,TRUE,,,,,,,FEW,1800,SCT,2400,OVC,4600,,,VFR,,,,,,,,,,,,SPECI,1662.0
KOWA 021733Z AUTO 13004KT 10SM TS CLR 30/17 A3006 RMK AO2 LTG DSNT N,KOWA,2023-06-02T17:33:00Z,44.12,-93.25,30.0,17.0,130,4,,10.0,30.059055,,,TRUE,TRUE,,,,,,TS,CLR,,,,,,,,VFR,,,,,,,,,,,,SPECI,345.0
KORB 021733Z AUTO 15009KT 10SM CLR 26/18 A3008 RMK AO2,KORB,2023-06-02T17:33:00Z,48.02,-92.87,26.0,18.0,150,9,,10.0,30.079725,,,TRUE,TRUE,,,,,,,CLR,,,,,,,,VFR,,,,,,,,,,,,SPECI,407.0
KOAJ 021733Z 03007KT 10SM OVC026 24/19 A2988 RMK AO2 RAB21E33 P0000,KOAJ,2023-06-02T17:33:00Z,34.82,-77.62,24.0,19.0,30,7,,10.0,29.878937,,,,TRUE,,,,,,,OVC,2600,,,,,,,MVFR,,,,,,0.005,,,,,,SPECI,26.0
KNUQ 021733Z AUTO 00000KT 10SM CLR 18/08 A3001 RMK AO2,KNUQ,2023-06-02T17:33:00Z,37.4,-122.05,18.0,8.0,0,0,,10.0,30.008858,,,TRUE,TRUE,,,,,,,CLR,,,,,,,,VFR,,,,,,,,,,,,METAR,9.0
KFOZ 021733Z AUTO 13007KT 123V183 10SM CLR 26/19 A3013 RMK AO2,KFOZ,2023-06-02T17:33:00Z,47.77,-93.65,26.0,19.0,130,7,,10.0,30.129921,,,TRUE,TRUE,,,,,,,CLR,,,,,,,,VFR,,,,,,,,,,,,SPECI,412.0
KEEN 021733Z AUTO 32008G15KT CLR 32/12 A2988 RMK AO2 LTG DSNT SE TSE27 PWINO $,KEEN,2023-06-02T17:33:00Z,42.88,-72.27,32.0,12.0,320,8,15,,29.878937,,,TRUE,TRUE,TRUE,,,,TRUE,,CLR,,,,,,,,,,,,,,,,,,,,SPECI,143.0
KDVP 021733Z AUTO 15009G16KT 10SM SCT044 28/15 A3004 RMK AO2 T02780147,KDVP,2023-06-02T17:33:00Z,43.98,-95.78,27.8,14.7,150,9,16,10.0,30.041338,,,TRUE,TRUE,,,,,,,SCT,4400,,,,,,,VFR,,,,,,,,,,,,SPECI,493.0
KDUB 021733Z AUTO 32005KT 10SM OVC055 14/06 A3001 RMK AO2,KDUB,2023-06-02T17:33:00Z,43.55,-109.68,14.0,6.0,320,5,,10.0,30.008858,,,TRUE,TRUE,,,,,,,OVC,5500,,,,,,,VFR,,,,,,,,,,,,METAR,2205.0
KAQP 021733Z AUTO 22007KT 10SM 29/17 A2999 RMK AO2,KAQP,2023-06-02T17:33:00Z,45.22,-96.0,29.0,17.0,220,7,,10.0,29.991142,,,TRUE,TRUE,,,,,,,,,,,,,,,,,,,,,,,,,,,METAR,312.0
PAWI 021732Z AUTO 13009KT 10SM SCT027 M03/M05 A2968 RMK AO2 T10281050 TSNO $,PAWI,2023-06-02T17:32:00Z,70.63,-160.02,-2.8,-5.0,130,9,,10.0,29.681103,,,TRUE,TRUE,TRUE,,TRUE,,,,SCT,2700,,,,,,,VFR,,,,,,,,,,,,SPECI,12.0
PABE 021732Z 18010KT 10SM BKN010 OVC015 02/02 A2991 RMK AO2 T00220017,PABE,2023-06-02T17:32:00Z,60.78,-161.83,2.2,1.7,180,10,,10.0,29.911417,,,,TRUE,,,,,,,BKN,1000,OVC,1500,,,,,MVFR,,,,,,,,,,,,SPECI,28.0
KRSL 021732Z AUTO 22020G27KT 10SM VCTS -RA SCT027 BKN031 OVC039 17/15 A2998 RMK AO2 PK WND 20034/1709 WSHFT 1703 LTG DSNT ALQDS RAB15 P0001 T01720150,KRSL,2023-06-02T17:32:00Z,38.87,-98.82,17.2,15.0,220,20,27,10.0,29.97933,,,TRUE,TRUE,,,,,,VCTS -RA,SCT,2700,BKN,3100,OVC,3900,,,VFR,,,,,,0.01,,,,,,SPECI,569.0
KMTH 021732Z AUTO 16004KT 10SM SCT024 BKN031 BKN038 31/24 A2975 RMK AO2 T03060239,KMTH,2023-06-02T17:32:00Z,24.73,-81.05,30.6,23.9,160,4,,10.0,29.749016,,,TRUE,TRUE,,,,,,,SCT,2400,BKN,3100,BKN,3800,,,VFR,,,,,,,,,,,,SPECI,1.0
KAST 021732Z AUTO 04007KT 10SM SCT028 14/07 A3015 RMK AO2 T01440067,KAST,2023-06-02T17:32:00Z,46.15,-123.88,14.4,6.7,40,7,,10.0,30.15059,,,TRUE,TRUE,,,,,,,SCT,2800,,,,,,,VFR,,,,,,,,,,,,SPECI,3.0
TXKF 021731Z 11018KT 5000 -RA BR SCT007 OVC042 22/21 Q1007 ,TXKF,2023-06-02T17:31:00Z,32.37,-64.68,22.0,21.0,110,18,,3.11,29.734253,,,,,,,,,,-RA BR,SCT,700,OVC,4200,,,,,MVFR,,,,,,,,,,,,SPECI,4.0
PATA 021731Z 26008KT 10SM SCT028 03/M03 A2985 RMK AO2 T00281033 $,PATA,2023-06-02T17:31:00Z,65.17,-152.1,2.8,-3.3,260,8,,10.0,29.84941,,,,TRUE,TRUE,,,,,,SCT,2800,,,,,,,VFR,,,,,,,,,,,,SPECI,62.0
KSHR 021731Z AUTO 32010KT 8SM -RA FEW008 BKN055 OVC065 15/13 A2990 RMK AO2 P0003 T01500128,KSHR,2023-06-02T17:31:00Z,44.77,-106.97,15.0,12.8,320,10,,8.0,29.899607,,,TRUE,TRUE,,,,,,-RA,FEW,800,BKN,5500,OVC,6500,,,VFR,,,,,,0.03,,,,,,SPECI,1212.0
ZYTX 021730Z 20002MPS CAVOK 15/10 Q1007 NOSIG,ZYTX,2023-06-02T17:30:00Z,41.63,123.48,15.0,10.0,200,4,,6.21,29.734253,,,,,,TRUE,,,,,CAVOK,,,,,,,,VFR,,,,,,,,,,,,METAR,56.0
ZYTL 021730Z 27003MPS CAVOK 18/06 Q1010 NOSIG,ZYTL,2023-06-02T17:30:00Z,38.97,121.55,18.0,6.0,270,6,,6.21,29.822834,,,,,,TRUE,,,,,CAVOK,,,,,,,,VFR,,,,,,,,,,,,METAR,33.0
ZWWW 021730Z 20003MPS CAVOK 20/M00 Q1019 NOSIG,ZWWW,2023-06-02T17:30:00Z,43.9,87.47,20.0,0.0,200,6,,6.21,30.088583,,,,,,TRUE,,,,,CAVOK,,,,,,,,VFR,,,,,,,,,,,,METAR,654.0
ZSSS 021730Z 04005MPS CAVOK 24/21 Q1009 NOSIG,ZSSS,2023-06-02T17:30:00Z,31.2,121.33,24.0,21.0,40,10,,6.21,29.793306,,,,,,TRUE,,,,,CAVOK,,,,,,,,VFR,,,,,,,,,,,,METAR,2.0
ZSPD 021730Z 04005MPS 9999 BKN010 22/20 Q1009 NOSIG,ZSPD,2023-06-02T17:30:00Z,31.15,121.8,22.0,20.0,40,10,,6.21,29.793306,,,,,,TRUE,,,,,BKN,1000,,,,,,,MVFR,,,,,,,,,,,,METAR,4.0
ZSHC 021730Z 25002MPS 220V290 CAVOK 26/19 Q1007 NOSIG,ZSHC,2023-06-02T17:30:00Z,30.22,120.43,26.0,19.0,250,4,,6.21,29.734253,,,,,,TRUE,,,,,CAVOK,,,,,,,,VFR,,,,,,,,,,,,METAR,8.0
ZMCK 021730Z 01004MPS 9999 SCT033 10/00 Q1020 NOSIG RMK QFE649.1 50 NT,ZMCK,2023-06-02T17:30:00Z,47.65,106.82,10.0,0.0,10,8,,6.21,30.11811,,,,,,TRUE,,,,,SCT,3300,,,,,,,VFR,,,,,,,,,,,,METAR,1366.0
ZGGG 021730Z 12003MPS 9999 BKN033 31/26 Q1006 NOSIG,ZGGG,2023-06-02T17:30:00Z,23.4,113.3,31.0,26.0,120,6,,6.21,29.704725,,,,,,TRUE,,,,,BKN,3300,,,,,,,VFR,,,,,,,,,,,,METAR,11.0
ZBYN 021730Z 14002MPS CAVOK 15/12 Q1015 NOSIG,ZBYN,2023-06-02T17:30:00Z,37.73,112.63,15.0,12.0,140,4,,6.21,29.970472,,,,,,TRUE,,,,,CAVOK,,,,,,,,VFR,,,,,,,,,,,,METAR,778.0
ZBTJ 021730Z 24004MPS CAVOK 22/10 Q1010 NOSIG,ZBTJ,2023-06-02T17:30:00Z,39.12,117.35,22.0,10.0,240,8,,6.21,29.822834,,,,,,TRUE,,,,,CAVOK,,,,,,,,VFR,,,,,,,,,,,,METAR,4.0
ZBAD 021730Z 25004MPS CAVOK 22/09 Q1010 NOSIG,ZBAD,2023-06-02T17:30:00Z,39.5,116.42,22.0,9.0,250,8,,6.21,29.822834,,,,,,TRUE,,,,,CAVOK,,,,,,,,VFR,,,,,,,,,,,,METAR,25.0
ZBAA 021730Z 36002MPS CAVOK 20/10 Q1010 NOSIG,ZBAA,2023-06-02T17:30:00Z,40.07,116.6,20.0,10.0,360,4,,6.21,29.822834,,,,,,TRUE,,,,,CAVOK,,,,,,,,VFR,,,,,,,,,,,,METAR,31.0
YSTW 021730Z AUTO 28003KT 9999 // NCD 09/07 Q1025 RF00.0/000.0,YSTW,2023-06-02T17:30:00Z,-31.08,150.85,9.0,7.0,280,3,,6.21,30.265747,,,TRUE,,,,,,,,CLR,,,,,,,,VFR,,,,,,,,,,,,METAR,404.0
YSSY 021730Z 36004KT 9999 SCT012 SCT160 BKN200 15/14 Q1023 RF00.0/000.0 HZ/BR,YSSY,2023-06-02T17:30:00Z,-33.95,151.17,15.0,14.0,360,4,,6.21,30.206694,,,,,,,,,,HZ BR,SCT,1200,SCT,16000,BKN,20000,,,VFR,,,,,,,,,,,,METAR,3.0
YSNF 021730Z AUTO 19007KT 9999 // SCT016 BKN020 BKN029 18/16 Q1023,YSNF,2023-06-02T17:30:00Z,-29.03,167.93,18.0,16.0,190,7,,6.21,30.206694,,,TRUE,,,,,,,,SCT,1600,BKN,2000,BKN,2900,,,MVFR,,,,,,,,,,,,SPECI,113.0
YSDU 021730Z AUTO 08008KT 9999 // NCD 13/10 Q1022 RF00.0/000.0,YSDU,2023-06-02T17:30:00Z,-32.22,148.57,13.0,10.0,80,8,,6.21,30.177166,,,TRUE,,,,,,,,CLR,,,,,,,,VFR,,,,,,,,,,,,SPECI,285.0
YSCB 021730Z AUTO 00000KT 9999 // OVC110 08/08 Q1024 RF00.0/000.0,YSCB,2023-06-02T17:30:00Z,-35.3,149.18,8.0,8.0,0,0,,6.21,30.236221,,,TRUE,,,,,,,,OVC,11000,,,,,,,VFR,,,,,,,,,,,,SPECI,577.0
YPXM 021730Z AUTO 12009KT 9999 // BKN010 OVC017 25/23 Q1015,YPXM,2023-06-02T17:30:00Z,-10.45,105.68,25.0,23.0,120,9,,6.21,29.970472,,,TRUE,,,,,,,,BKN,1000,OVC,1700,,,,,MVFR,,,,,,,,,,,,METAR,262.0
YPWR 021730Z AUTO 07009KT 9999 // BKN110 14/M02 Q1016 RF00.0////./,YPWR,2023-06-02T17:30:00Z,-31.15,136.82,14.0,-2.0,70,9,,6.21,30.0,,,TRUE,,,,,,,,BKN,11000,,,,,,,VFR,,,,,,,,,,,,METAR,169.0
YPTN 021730Z AUTO 16005KT 9999 // NCD 16/12 Q1014 RF00.0/000.0,YPTN,2023-06-02T17:30:00Z,-14.52,132.38,16.0,12.0,160,5,,6.21,29.940945,,,TRUE,,,,,,,,CLR,,,,,,,,VFR,,,,,,,,,,,,SPECI,135.0
YPPH 021730Z 34004KT CAVOK 05/04 Q1025,YPPH,2023-06-02T17:30:00Z,-31.93,115.98,5.0,4.0,340,4,,6.21,30.265747,,,,,,,,,,,CAVOK,,,,,,,,VFR,,,,,,,,,,,,METAR,16.0
YPPD 021730Z AUTO 20007KT 9999 // NCD 17/15 Q1015 RF00.0/000.0,YPPD,2023-06-02T17:30:00Z,-20.37,118.62,17.0,15.0,200,7,,6.21,29.970472,,,TRUE,,,,,,,,CLR,,,,,,,,VFR,,,,,,,,,,,,SPECI,6.0
YPLM 021730Z AUTO 20009KT 9999 // NCD 15/05 Q1018 RF00.0/000.0,YPLM,2023-06-02T17:30:00Z,-22.23,114.08,15.0,5.0,200,9,,6.21,30.059055,,,TRUE,,,,,,,,CLR,,,,,,,,VFR,,,,,,,,,,,,SPECI,5.0
YPKU 021730Z AUTO 11005KT 9999 // NCD 16/15 Q1013 RF00.0/000.0,YPKU,2023-06-02T17:30:00Z,-15.77,128.7,16.0,15.0,110,5,,6.21,29.911417,,,TRUE,,,,,,,,CLR,,,,,,,,VFR,,,,,,,,,,,,METAR,42.0
YPKG 021730Z AUTO 19005KT 9999 // OVC024 10/07 Q1022 RF00.0/000.2,YPKG,2023-06-02T17:30:00Z,-30.78,121.45,10.0,7.0,190,5,,6.21,30.177166,,,TRUE,,,,,,,,OVC,2400,,,,,,,MVFR,,,,,,,,,,,,METAR,372.0
YPJT 021730Z AUTO 00000KT 9999 // NCD 06/05 Q1025 RF00.0/000.0,YPJT,2023-06-02T17:30:00Z,-32.1,115.88,6.0,5.0,0,0,,6.21,30.265747,,,TRUE,,,,,,,,CLR,,,,,,,,VFR,,,,,,,,,,,,METAR,29.0
YPGV 021730Z AUTO 00000KT 9999 // SCT060 22/21 Q1014 RF00.0/000.0,YPGV,2023-06-02T17:30:00Z,-12.27,136.82,22.0,21.0,0,0,,6.21,29.940945,,,TRUE,,,,,,,,SCT,6000,,,,,,,VFR,,,,,,,,,,,,METAR,53.0
YPEA 021730Z AUTO 00000KT 9999 // NCD 07/05 Q1025 RF00.0/000.2,YPEA,2023-06-02T17:30:00Z,-31.67,116.02,7.0,5.0,0,0,,6.21,30.265747,,,TRUE,,,,,,,,CLR,,,,,,,,VFR,,,,,,,,,,,,SPECI,38.0
YPDN 021730Z AUTO 06003KT 9999 // NCD 22/21 Q1013 RF00.0/000.0,YPDN,2023-06-02T17:30:00Z,-12.42,130.9,22.0,21.0,60,3,,6.21,29.911417,,,TRUE,,,,,,,,CLR,,,,,,,,VFR,,,,,,,,,,,,SPECI,32.0
YPCC 021730Z AUTO 13013KT 9999 // NCD 27/23 Q1014 RF00.0/000.2,YPCC,2023-06-02T17:30:00Z,-12.18,96.83,27.0,23.0,130,13,,6.21,29.940945,,,TRUE,,,,,,,,CLR,,,,,,,,VFR,,,,,,,,,,,,SPECI,3.0
YPAD 021730Z AUTO 04008KT 9999 // BKN115 16/09 Q1017 RF00.0/000.0,YPAD,2023-06-02T17:30:00Z,-34.95,138.52,16.0,9.0,40,8,,6.21,30.029528,,,TRUE,,,,,,,,BKN,11500,,,,,,,VFR,,,,,,,,,,,,SPECI,2.0
YMML 021730Z 01010KT 9999 -RA NSC 10/08 Q1023 FEW075 BKN090,YMML,2023-06-02T17:30:00Z,-37.67,144.82,10.0,8.0,10,10,,6.21,30.206694,,,,,,,,,,-RA,FEW,7500,BKN,9000,,,,,VFR,,,,,,,,,,,,METAR,115.0
YMLT 021730Z AUTO 36006KT 9999 // NCD 04/03 Q1021 RF00.0/000.2,YMLT,2023-06-02T17:30:00Z,-41.53,147.2,4.0,3.0,360,6,,6.21,30.147638,,,TRUE,,,,,,,,CLR,,,,,,,,VFR,,,,,,,,,,,,METAR,167.0
YMHB 021730Z AUTO 34011KT 9999 // NCD 09/04 Q1019 RF00.0/000.0,YMHB,2023-06-02T17:30:00Z,-42.83,147.52,9.0,4.0,340,11,,6.21,30.088583,,,TRUE,,,,,,,,CLR,,,,,,,,VFR,,,,,,,,,,,,SPECI,2.0
YMAV 021730Z AUTO 00000KT 9999 -SHRA OVC052 09/08 Q1023 RF00.0/001.2,YMAV,2023-06-02T17:30:00Z,-38.03,144.48,9.0,8.0,0,0,,6.21,30.206694,,,TRUE,,,,,,,-SHRA,OVC,5200,,,,,,,VFR,,,,,,,,,,,,METAR,11.0
YLHI 021730Z AUTO 14005KT 9999 // NCD 17/10 Q1026 RF00.0/000.0,YLHI,2023-06-02T17:30:00Z,-31.53,159.07,17.0,10.0,140,5,,6.21,30.295275,,,TRUE,,,,,,,,CLR,,,,,,,,VFR,,,,,,,,,,,,METAR,2.0
YHID 021730Z AUTO 14011KT 9999 // NCD 26/22 Q1012 RF00.0/000.0,YHID,2023-06-02T17:30:00Z,-10.58,142.3,26.0,22.0,140,11,,6.21,29.88189,,,TRUE,,,,,,,,CLR,,,,,,,,VFR,,,,,,,,,,,,METAR,5.0
YGLA 021730Z AUTO 14007KT 9999 // OVC060 19/15 Q1021 RF00.0/000.0,YGLA,2023-06-02T17:30:00Z,-23.87,151.22,19.0,15.0,140,7,,6.21,30.147638,,,TRUE,,,,,,,,OVC,6000,,,,,,,VFR,,,,,,,,,,,,METAR,17.0
YGEL 021730Z AUTO 15005KT 9999 // NCD 08/06 Q1023 RF00.0/000.0,YGEL,2023-06-02T17:30:00Z,-28.8,114.7,8.0,6.0,150,5,,6.21,30.206694,,,TRUE,,,,,,,,CLR,,,,,,,,VFR,,,,,,,,,,,,METAR,32.0
YFRT 021730Z AUTO 29012KT 9999 // SCT009 BKN020 OVC032 13/13 Q1015,YFRT,2023-06-02T17:30:00Z,-30.83,128.12,13.0,13.0,290,12,,6.21,29.970472,,,TRUE,,,,,,,,SCT,900,BKN,2000,OVC,3200,,,MVFR,,,,,,,,,,,,METAR,159.0
YCIN 021730Z AUTO 21005KT 9999 // NCD 17/12 Q1013 RF00.0/000.0,YCIN,2023-06-02T17:30:00Z,-17.58,123.83,17.0,12.0,210,5,,6.21,29.911417,,,TRUE,,,,,,,,CLR,,,,,,,,VFR,,,,,,,,,,,,METAR,83.0
YCFS 021730Z AUTO 00000KT 9999 // SCT026 OVC038 14/14 Q1024,YCFS,2023-06-02T17:30:00Z,-30.32,153.12,14.0,14.0,0,0,,6.21,30.236221,,,TRUE,,,,,,,,SCT,2600,OVC,3800,,,,,VFR,,,,,,,,,,,,METAR,2.0
YBWW 021730Z AUTO 14003KT 9999 // NCD 14/12 Q1023 RF00.0/000.0,YBWW,2023-06-02T17:30:00Z,-27.55,151.8,14.0,12.0,140,3,,6.21,30.206694,,,TRUE,,,,,,,,CLR,,,,,,,,VFR,,,,,,,,,,,,METAR,460.0
YBTL 021730Z AUTO 23001KT 9999 // SCT022 OVC064 22/17 Q1018,YBTL,2023-06-02T17:30:00Z,-19.25,146.75,22.0,17.0,230,1,,6.21,30.059055,,,TRUE,,,,,,,,SCT,2200,OVC,6400,,,,,VFR,,,,,,,,,,,,SPECI,4.0
YBSU 021730Z AUTO 26003KT 9999 // BKN027 13/12 Q1023 RF00.0/000.0,YBSU,2023-06-02T17:30:00Z,-26.6,153.08,13.0,12.0,260,3,,6.21,30.206694,,,TRUE,,,,,,,,BKN,2700,,,,,,,MVFR,,,,,,,,,,,,METAR,4.0
YBRM 021730Z AUTO 00000KT 8000 // NCD 16/15 Q1014 RF00.0/000.0,YBRM,2023-06-02T17:30:00Z,-17.93,122.23,16.0,15.0,0,0,,4.97,29.940945,,,TRUE,,,,,,,,CLR,,,,,,,,MVFR,,,,,,,,,,,,SPECI,11.0
YBRK 021730Z AUTO 14008KT 9999 // SCT025 SCT036 SCT044 17/15 Q1021,YBRK,2023-06-02T17:30:00Z,-23.37,150.47,17.0,15.0,140,8,,6.21,30.147638,,,TRUE,,,,,,,,SCT,2500,SCT,3600,SCT,4400,,,VFR,,,,,,,,,,,,SPECI,10.0
YBMA 021730Z AUTO 00000KT 9999 // NCD 12/09 Q1017 RF00.0/000.0,YBMA,2023-06-02T17:30:00Z,-20.67,139.48,12.0,9.0,0,0,,6.21,30.029528,,,TRUE,,,,,,,,CLR,,,,,,,,VFR,,,,,,,,,,,,SPECI,346.0
YBLN 021730Z AUTO 06005KT 9999 // NCD 04/04 Q1026 RF00.0/000.0,YBLN,2023-06-02T17:30:00Z,-33.68,115.4,4.0,4.0,60,5,,6.21,30.295275,,,TRUE,,,,,,,,CLR,,,,,,,,VFR,,,,,,,,,,,,METAR,17.0
YBCS 021730Z AUTO 18006KT 9999 // SCT031 SCT068 22/19 Q1016,YBCS,2023-06-02T17:30:00Z,-16.87,145.75,22.0,19.0,180,6,,6.21,30.0,,,TRUE,,,,,,,,SCT,3100,SCT,6800,,,,,VFR,,,,,,,,,,,,SPECI,2.0
YBCG 021730Z AUTO 00000KT 9999 // BKN027 BKN047 15/14 Q1023,YBCG,2023-06-02T17:30:00Z,-28.17,153.5,15.0,14.0,0,0,,6.21,30.206694,,,TRUE,,,,,,,,BKN,2700,BKN,4700,,,,,MVFR,,,,,,,,,,,,SPECI,5.0
YBBN 021730Z 21008KT 9999 FEW028 14/12 Q1023,YBBN,2023-06-02T17:30:00Z,-27.38,153.13,14.0,12.0,210,8,,6.21,30.206694,,,,,,,,,,,FEW,2800,,,,,,,VFR,,,,,,,,,,,,METAR,3.0
YBAS 021730Z AUTO 00000KT 9999 // NCD 09/00 Q1017 RF00.0/000.0,YBAS,2023-06-02T17:30:00Z,-23.8,133.9,9.0,0.0,0,0,,6.21,30.029528,,,TRUE,,,,,,,,CLR,,,,,,,,VFR,,,,,,,,,,,,SPECI,549.0
YAMB 021730Z AUTO 00000KT 9999 // SCT030 08/08 Q1023 RF00.0/000.0,YAMB,2023-06-02T17:30:00Z,-27.63,152.72,8.0,8.0,0,0,,6.21,30.206694,,,TRUE,,,,,,,,SCT,3000,,,,,,,VFR,,,,,,,,,,,,METAR,26.0
WSSS 021730Z 14006G17KT 090V260 9999 FEW016 BKN160 29/26 Q1010 NOSIG,WSSS,2023-06-02T17:30:00Z,1.37,103.97,29.0,26.0,140,6,17,6.21,29.822834,,,,,,TRUE,,,,,FEW,1600,BKN,16000,,,,,VFR,,,,,,,,,,,,METAR,17.0
WMKP 021730Z 00000KT 9000 FEW017CB 30/26 Q1010 NOSIG,WMKP,2023-06-02T17:30:00Z,5.28,100.27,30.0,26.0,0,0,,5.59,29.822834,,,,,,TRUE,,,,,FEW,1700,,,,,,,VFR,,,,,,,,,,,,METAR,4.0
WMKK 021730Z VRB02KT 9999 FEW030 27/24 Q1010 NOSIG,WMKK,2023-06-02T17:30:00Z,2.75,101.72,27.0,24.0,0,2,,6.21,29.822834,,,,,,TRUE,,,,,FEW,3000,,,,,,,VFR,,,,,,,,,,,,METAR,21.0
WIPP 021730Z 10003KT 8000 FEW010 27/25 Q1010 NOSIG,WIPP,2023-06-02T17:30:00Z,-2.88,104.7,27.0,25.0,100,3,,4.97,29.822834,,,,,,TRUE,,,,,FEW,1000,,,,,,,MVFR,,,,,,,,,,,,METAR,7.0
WIOO 021730Z 00000KT 4000 BR BKN012 27/25 Q1009 NOSIG,WIOO,2023-06-02T17:30:00Z,-0.15,109.4,27.0,25.0,0,0,,2.49,29.793306,,,,,,TRUE,,,,BR,BKN,1200,,,,,,,IFR,,,,,,,,,,,,METAR,4.0
WIMM 021730Z 18003KT 3000 BR SCT017 27/26 Q1010 NOSIG,WIMM,2023-06-02T17:30:00Z,3.57,98.67,27.0,26.0,180,3,,1.86,29.822834,,,,,,TRUE,,,,BR,SCT,1700,,,,,,,IFR,,,,,,,,,,,,METAR,27.0
WIII 021730Z VRB05KT 6000 SCT020 29/26 Q1011 NOSIG,WIII,2023-06-02T17:30:00Z,-6.13,106.67,29.0,26.0,0,5,,3.73,29.852362,,,,,,TRUE,,,,,SCT,2000,,,,,,,MVFR,,,,,,,,,,,,METAR,9.0
WIEE 021730Z 35004KT 9999 BKN020 26/25 Q1011 NOSIG,WIEE,2023-06-02T17:30:00Z,-0.78,100.28,26.0,25.0,350,4,,6.21,29.852362,,,,,,TRUE,,,,,BKN,2000,,,,,,,MVFR,,,,,,,,,,,,METAR,5.0
WIDD 021730Z 18003KT 9999 SCT014 28/26 Q1012 NOSIG,WIDD,2023-06-02T17:30:00Z,1.12,104.12,28.0,26.0,180,3,,6.21,29.88189,,,,,,TRUE,,,,,SCT,1400,,,,,,,VFR,,,,,,,,,,,,METAR,26.0
WBSB 021730Z 16001KT 9999 FEW015 BKN280 28/27 Q1010 NOSIG,WBSB,2023-06-02T17:30:00Z,4.93,114.92,28.0,27.0,160,1,,6.21,29.822834,,,,,,TRUE,,,,,FEW,1500,BKN,28000,,,,,VFR,,,,,,,,,,,,METAR,15.0
WBKK 021730Z 11004KT 9999 FEW014 28/25 Q1009 NOSIG,WBKK,2023-06-02T17:30:00Z,5.93,116.05,28.0,25.0,110,4,,6.21,29.793306,,,,,,TRUE,,,,,FEW,1400,,,,,,,VFR,,,,,,,,,,,,METAR,9.0
WBGG 021730Z 00000KT 9999 SCT020 26/25 Q1010 NOSIG,WBGG,2023-06-02T17:30:00Z,1.48,110.35,26.0,25.0,0,0,,6.21,29.822834,,,,,,TRUE,,,,,SCT,2000,,,,,,,VFR,,,,,,,,,,,,METAR,26.0
WARR 021730Z 19003KT 6000 FEW020 26/24 Q1011 NOSIG ,WARR,2023-06-02T17:30:00Z,-7.37,112.78,26.0,24.0,190,3,,3.73,29.852362,,,,,,TRUE,,,,,FEW,2000,,,,,,,MVFR,,,,,,,,,,,,METAR,3.0
WAPP 021730Z 32004KT 8000 -RA SCT016 27/24 Q1011 NOSIG,WAPP,2023-06-02T17:30:00Z,-3.7,128.08,27.0,24.0,320,4,,4.97,29.852362,,,,,,TRUE,,,,-RA,SCT,1600,,,,,,,MVFR,,,,,,,,,,,,METAR,20.0
WAOO 021730Z AUTO VRB01KT 9999 NCD 26/26 Q1009,WAOO,2023-06-02T17:30:00Z,-3.45,114.77,26.0,26.0,0,1,,6.21,29.793306,,,TRUE,,,,,,,,CLR,,,,,,,,VFR,,,,,,,,,,,,METAR,23.0
WAMM 021730Z VRB01KT 9999 FEW019 24/23 Q1010 NOSIG METAR ,WAMM,2023-06-02T17:30:00Z,1.55,124.92,24.0,23.0,0,1,,6.21,29.822834,,,,,,TRUE,,,,,FEW,1900,,,,,,,VFR,,,,,,,,,,,,METAR,86.0
WALL 021730Z 25002KT 9000 SCT018 29/26 Q1010 NOSIG,WALL,2023-06-02T17:30:00Z,-1.27,116.9,29.0,26.0,250,2,,5.59,29.822834,,,,,,TRUE,,,,,SCT,1800,,,,,,,VFR,,,,,,,,,,,,METAR,3.0
WAJJ 021730Z 00000KT 9999 FEW012 25/23 Q1009 NOSIG,WAJJ,2023-06-02T17:30:00Z,-2.58,140.52,25.0,23.0,0,0,,6.21,29.793306,,,,,,TRUE,,,,,FEW,1200,,,,,,,VFR,,,,,,,,,,,,METAR,93.0
WAHS 021730Z AUTO 14002KT 8000 FEW025 SCT039 BKN046 28/24 Q1010,WAHS,2023-06-02T17:30:00Z,-6.98,110.38,28.0,24.0,140,2,,4.97,29.822834,,,TRUE,,,,,,,,FEW,2500,SCT,3900,BKN,4600,,,MVFR,,,,,,,,,,,,METAR,3.0
WADL 021730Z 14004KT 7000 SCT016 24/23 Q1013 NOSIG,WADL,2023-06-02T17:30:00Z,-8.75,116.28,24.0,23.0,140,4,,4.35,29.911417,,,,,,TRUE,,,,,SCT,1600,,,,,,,MVFR,,,,,,,,,,,,METAR,97.0
WADD 021730Z 10007KT 9999 SCT017 27/23 Q1012 NOSIG,WADD,2023-06-02T17:30:00Z,-8.73,115.17,27.0,23.0,100,7,,6.21,29.88189,,,,,,TRUE,,,,,SCT,1700,,,,,,,VFR,,,,,,,,,,,,METAR,3.0
WABB 021730Z VRB02KT 9999 FEW018 25/24 Q1009 NOSIG,WABB,2023-06-02T17:30:00Z,-1.18,136.12,25.0,24.0,0,2,,6.21,29.793306,,,,,,TRUE,,,,,FEW,1800,,,,,,,VFR,,,,,,,,,,,,METAR,12.0
WAAA 021730Z 16002KT 8000 -RA FEW019 26/23 Q1010 NOSIG,WAAA,2023-06-02T17:30:00Z,-5.07,119.55,26.0,23.0,160,2,,4.97,29.822834,,,,,,TRUE,,,,-RA,FEW,1900,,,,,,,MVFR,,,,,,,,,,,,METAR,13.0
VYYY 021730Z 24003KT 6000 SCT018 FEW020CB SCT100 27/26 Q1007 NOSIG,VYYY,2023-06-02T17:30:00Z,16.9,96.13,27.0,26.0,240,3,,3.73,29.734253,,,,,,TRUE,,,,,SCT,1800,FEW,2000,SCT,10000,,,MVFR,,,,,,,,,,,,METAR,31.0
VVVD 021730Z AUTO VRB02KT 9999 NCD 28/28 Q1006 NOSIG,VVVD,2023-06-02T17:30:00Z,21.12,107.42,28.0,28.0,0,2,,6.21,29.704725,,,TRUE,,,TRUE,,,,,CLR,,,,,,,,VFR,,,,,,,,,,,,METAR,8.0
VVTS 021730Z 23010KT 9999 SCT020 SCT040 29/28 Q1008 NOSIG,VVTS,2023-06-02T17:30:00Z,10.82,106.67,29.0,28.0,230,10,,6.21,29.763779,,,,,,TRUE,,,,,SCT,2000,SCT,4000,,,,,VFR,,,,,,,,,,,,METAR,10.0
VVPB 021730Z VRB02KT 9999 FEW025 BKN070 28/24 Q1006 NOSIG,VVPB,2023-06-02T17:30:00Z,16.38,107.7,28.0,24.0,0,2,,6.21,29.704725,,,,,,TRUE,,,,,FEW,2500,BKN,7000,,,,,VFR,,,,,,,,,,,,METAR,15.0
VVNB 021730Z 27009KT 230V300 9999 FEW030TCU BKN045 28/23 Q1006 TEMPO 4000 TSRA,VVNB,2023-06-02T17:30:00Z,21.22,105.8,28.0,23.0,270,9,,6.21,29.704725,,,,,,,,,,,FEW,3000,BKN,4500,,,,,VFR,,,,,,,,,,,,SPECI,6.0
VVDN 021730Z 21003KT 9999 FEW015 27/23 Q1006 NOSIG,VVDN,2023-06-02T17:30:00Z,16.03,108.2,27.0,23.0,210,3,,6.21,29.704725,,,,,,TRUE,,,,,FEW,1500,,,,,,,VFR,,,,,,,,,,,,METAR,7.0
VVCT 021730Z 23005KT 9999 FEW015 BKN050 26/26 Q1008 NOSIG,VVCT,2023-06-02T17:30:00Z,10.08,105.72,26.0,26.0,230,5,,6.21,29.763779,,,,,,TRUE,,,,,FEW,1500,BKN,5000,,,,,VFR,,,,,,,,,,,,METAR,6.0
VVCR 021730Z 23006KT 9999 FEW015 29/25 Q1007 NOSIG,VVCR,2023-06-02T17:30:00Z,12.0,109.22,29.0,25.0,230,6,,6.21,29.734253,,,,,,TRUE,,,,,FEW,1500,,,,,,,VFR,,,,,,,,,,,,METAR,12.0
VVCI 021730Z 11005KT CAVOK 31/27 Q1005 NOSIG,VVCI,2023-06-02T17:30:00Z,20.82,106.73,31.0,27.0,110,5,,6.21,29.675198,,,,,,TRUE,,,,,CAVOK,,,,,,,,VFR,,,,,,,,,,,,METAR,6.0
VTSS 021730Z 23003KT 090V260 9999 FEW020 28/24 Q1010 NOSIG,VTSS,2023-06-02T17:30:00Z,6.92,100.38,28.0,24.0,230,3,,6.21,29.822834,,,,,,TRUE,,,,,FEW,2000,,,,,,,VFR,,,,,,,,,,,,METAR,28.0
VTSP 021730Z 27008KT 9999 FEW020 28/26 Q1009 NOSIG,VTSP,2023-06-02T17:30:00Z,8.12,98.32,28.0,26.0,270,8,,6.21,29.793306,,,,,,TRUE,,,,,FEW,2000,,,,,,,VFR,,,,,,,,,,,,METAR,12.0
VTCC 021730Z 20005KT 9999 FEW035 28/21 Q1007 NOSIG,VTCC,2023-06-02T17:30:00Z,18.77,98.97,28.0,21.0,200,5,,6.21,29.734253,,,,,,TRUE,,,,,FEW,3500,,,,,,,VFR,,,,,,,,,,,,METAR,308.0
VTBU 021730Z 24005KT 9999 FEW020 30/25 Q1008 NOSIG,VTBU,2023-06-02T17:30:00Z,12.68,101.0,30.0,25.0,240,5,,6.21,29.763779,,,,,,TRUE,,,,,FEW,2000,,,,,,,VFR,,,,,,,,,,,,METAR,12.0
VTBS 021730Z 21005KT 9999 FEW020 31/26 Q1007 NOSIG,VTBS,2023-06-02T17:30:00Z,13.68,100.75,31.0,26.0,210,5,,6.21,29.734253,,,,,,TRUE,,,,,FEW,2000,,,,,,,VFR,,,,,,,,,,,,METAR,1.0
VTBD 021730Z 27009KT 220V300 9999 FEW030 31/26 Q1007 NOSIG,VTBD,2023-06-02T17:30:00Z,13.92,100.6,31.0,26.0,270,9,,6.21,29.734253,,,,,,TRUE,,,,,FEW,3000,,,,,,,VFR,,,,,,,,,,,,METAR,6.0
VOTV 021730Z 30007KT 3000 BR FEW015 SCT080 31/25 Q1010 NOSIG,VOTV,2023-06-02T17:30:00Z,8.48,76.92,31.0,25.0,300,7,,1.86,29.822834,,,,,,TRUE,,,,BR,FEW,1500,SCT,8000,,,,,IFR,,,,,,,,,,,,METAR,9.0
VOTR 021730Z 20004KT 4000 HZ FEW016 30/24 Q1009 NOSIG,VOTR,2023-06-02T17:30:00Z,10.77,78.72,30.0,24.0,200,4,,2.49,29.793306,,,,,,TRUE,,,,HZ,FEW,1600,,,,,,,IFR,,,,,,,,,,,,METAR,90.0
VOMM 021730Z 20004KT 5000 HZ SCT020 FEW025TCU 32/23 Q1006 NOSIG,VOMM,2023-06-02T17:30:00Z,13.0,80.17,32.0,23.0,200,4,,3.11,29.704725,,,,,,TRUE,,,,HZ,SCT,2000,FEW,2500,,,,,MVFR,,,,,,,,,,,,METAR,7.0
VOML 021730Z 32004KT 6000 FEW015 29/25 Q1010 NOSIG,VOML,2023-06-02T17:30:00Z,12.97,74.88,29.0,25.0,320,4,,3.73,29.822834,,,,,,TRUE,,,,,FEW,1500,,,,,,,MVFR,,,,,,,,,,,,METAR,100.0
VOKN 021730Z 20003KT 5000 BR SCT012 SCT080 29/27 Q1010 NOSIG,VOKN,2023-06-02T17:30:00Z,11.92,75.55,29.0,27.0,200,3,,3.11,29.822834,,,,,,TRUE,,,,BR,SCT,1200,SCT,8000,,,,,MVFR,,,,,,,,,,,,METAR,105.0
VOHS 021730Z 16005KT 6000 SCT020 31/16 Q1010 NOSIG,VOHS,2023-06-02T17:30:00Z,17.23,78.43,31.0,16.0,160,5,,3.73,29.822834,,,,,,TRUE,,,,,SCT,2000,,,,,,,MVFR,,,,,,,,,,,,METAR,607.0
VOGA 021730Z 32005KT 5000 HZ FEW015 27/23 Q1011 NOSIG,VOGA,2023-06-02T17:30:00Z,,,27.0,23.0,320,5,,3.11,29.852362,,,,,,TRUE,,,,HZ,FEW,1500,,,,,,,MVFR,,,,,,,,,,,,METAR,
VOCL 021730Z 05002KT 5000 SCT010 FEW025CB SCT080 26/23 Q1010 NOSIG,VOCL,2023-06-02T17:30:00Z,11.13,75.95,26.0,23.0,50,2,,3.11,29.822834,,,,,,TRUE,,,,,SCT,1000,FEW,2500,SCT,8000,,,MVFR,,,,,,,,,,,,METAR,104.0
VOCI 021730Z 11002KT 3500 BR FEW015 SCT080 28/26 Q1011 NOSIG,VOCI,2023-06-02T17:30:00Z,10.15,76.4,28.0,26.0,110,2,,2.17,29.852362,,,,,,TRUE,,,,BR,FEW,1500,SCT,8000,,,,,IFR,,,,,,,,,,,,METAR,8.0
VOBL 021730Z 23004KT 6000 FEW015 25/21 Q1014 NOSIG,VOBL,2023-06-02T17:30:00Z,13.2,77.7,25.0,21.0,230,4,,3.73,29.940945,,,,,,TRUE,,,,,FEW,1500,,,,,,,MVFR,,,,,,,,,,,,METAR,908.0
VNKT 021730Z 11003KT 8000 FEW020 22/15 Q1013 NOSIG,VNKT,2023-06-02T17:30:00Z,27.68,85.37,22.0,15.0,110,3,,4.97,29.911417,,,,,,TRUE,,,,,FEW,2000,,,,,,,MVFR,,,,,,,,,,,,METAR,1334.0
VMMC 021730Z 21006KT 180V240 9999 FEW015 29/26 Q1006 NOSIG,VMMC,2023-06-02T17:30:00Z,22.15,113.58,29.0,26.0,210,6,,6.21,29.704725,,,,,,TRUE,,,,,FEW,1500,,,,,,,VFR,,,,,,,,,,,,METAR,1.0
VILK 021730Z 33004KT 5000 HZ NSC 31/21 Q1004 NOSIG,VILK,2023-06-02T17:30:00Z,26.75,80.88,31.0,21.0,330,4,,3.11,29.64567,,,,,,TRUE,,,,HZ,CLR,,,,,,,,MVFR,,,,,,,,,,,,METAR,121.0
VIJP 021730Z VRB02KT 4000 HZ SCT100 30/23 Q1008 NOSIG,VIJP,2023-06-02T17:30:00Z,26.82,75.8,30.0,23.0,0,2,,2.49,29.763779,,,,,,TRUE,,,,HZ,SCT,10000,,,,,,,IFR,,,,,,,,,,,,METAR,383.0
VIDP 021730Z VRB02KT 3500 HZ NSC 29/18 Q1007 NOSIG,VIDP,2023-06-02T17:30:00Z,28.57,77.12,29.0,18.0,0,2,,2.17,29.734253,,,,,,TRUE,,,,HZ,CLR,,,,,,,,IFR,,,,,,,,,,,,METAR,236.0
VIAR 021730Z VRB02KT 5000 HZ NSC 25/22 Q1007 NOSIG,VIAR,2023-06-02T17:30:00Z,31.7,74.8,25.0,22.0,0,2,,3.11,29.734253,,,,,,TRUE,,,,HZ,CLR,,,,,,,,MVFR,,,,,,,,,,,,METAR,226.0
VHHH 021730Z 19007KT 9999 FEW015 30/25 Q1006 NOSIG,VHHH,2023-06-02T17:30:00Z,22.32,113.92,30.0,25.0,190,7,,6.21,29.704725,,,,,,TRUE,,,,,FEW,1500,,,,,,,VFR,,,,,,,,,,,,METAR,9.0
VGHS 021730Z 19010KT 4000 HZ SCT100 31/23 Q1004 NOSIG,VGHS,2023-06-02T17:30:00Z,23.85,90.4,31.0,23.0,190,10,,2.49,29.64567,,,,,,TRUE,,,,HZ,SCT,10000,,,,,,,IFR,,,,,,,,,,,,METAR,11.0
VEPT 021730Z 28003KT 4000 HZ NSC 35/20 Q1002 NOSIG,VEPT,2023-06-02T17:30:00Z,25.6,85.08,35.0,20.0,280,3,,2.49,29.586615,,,,,,TRUE,,,,HZ,CLR,,,,,,,,IFR,,,,,,,,,,,,METAR,53.0
VEGT 021730Z 22003KT 3000 BR SCT018 SCT100 28/24 Q1003 NOSIG,VEGT,2023-06-02T17:30:00Z,26.1,91.58,28.0,24.0,220,3,,1.86,29.616142,,,,,,TRUE,,,,BR,SCT,1800,SCT,10000,,,,,IFR,,,,,,,,,,,,METAR,50.0
VECC 021730Z 17008KT 3500 HZ FEW100 30/27 Q1003 NOSIG,VECC,2023-06-02T17:30:00Z,22.65,88.43,30.0,27.0,170,8,,2.17,29.616142,,,,,,TRUE,,,,HZ,FEW,10000,,,,,,,IFR,,,,,,,,,,,,METAR,11.0
VEBS 021730Z 18005KT 3000 HZ FEW018 29/29 Q1005 NOSIG,VEBS,2023-06-02T17:30:00Z,20.25,85.82,29.0,29.0,180,5,,1.86,29.675198,,,,,,TRUE,,,,HZ,FEW,1800,,,,,,,IFR,,,,,,,,,,,,METAR,42.0
VEBN 021730Z 30003KT 3000 HZ NSC 31/20 Q1004 NOSIG,VEBN,2023-06-02T17:30:00Z,25.45,82.85,31.0,20.0,300,3,,1.86,29.64567,,,,,,TRUE,,,,HZ,CLR,,,,,,,,IFR,,,,,,,,,,,,METAR,81.0
VDSV 021730Z 00000KT 9999 SCT015 27/26 Q1009,VDSV,2023-06-02T17:30:00Z,10.58,103.63,27.0,26.0,0,0,,6.21,29.793306,,,,,,,,,,,SCT,1500,,,,,,,VFR,,,,,,,,,,,,METAR,1.0
VDSR 021730Z 20004KT 150V220 9999 FEW017 28/24 Q1007,VDSR,2023-06-02T17:30:00Z,13.42,103.8,28.0,24.0,200,4,,6.21,29.734253,,,,,,,,,,,FEW,1700,,,,,,,VFR,,,,,,,,,,,,METAR,16.0
VDPP 021730Z 20004KT 170V230 9000 SCT015 29/26 Q1007,VDPP,2023-06-02T17:30:00Z,11.55,104.83,29.0,26.0,200,4,,5.59,29.734253,,,,,,,,,,,SCT,1500,,,,,,,VFR,,,,,,,,,,,,METAR,10.0
VASU 021730Z 20009KT 6000 NSC 30/26 Q1008 NOSIG,VASU,2023-06-02T17:30:00Z,21.12,72.73,30.0,26.0,200,9,,3.73,29.763779,,,,,,TRUE,,,,,CLR,,,,,,,,MVFR,,,,,,,,,,,,METAR,6.0
VANP 021730Z 22002KT 3000 HZ FEW100 32/15 Q1006 NOSIG,VANP,2023-06-02T17:30:00Z,21.08,79.05,32.0,15.0,220,2,,1.86,29.704725,,,,,,TRUE,,,,HZ,FEW,10000,,,,,,,IFR,,,,,,,,,,,,METAR,309.0
VAID 021730Z 27007KT 6000 NSC 30/19 Q1010 NOSIG,VAID,2023-06-02T17:30:00Z,22.72,75.8,30.0,19.0,270,7,,3.73,29.822834,,,,,,TRUE,,,,,CLR,,,,,,,,MVFR,,,,,,,,,,,,METAR,564.0
VABB 021730Z 26010KT 4000 HZ FEW020 SCT025 31/26 Q1010 NOSIG,VABB,2023-06-02T17:30:00Z,19.1,72.87,31.0,26.0,260,10,,2.49,29.822834,,,,,,TRUE,,,,HZ,FEW,2000,SCT,2500,,,,,IFR,,,,,,,,,,,,METAR,14.0
VAAH 021730Z 27004KT 4000 FU SCT020 SCT080 32/22 Q1006 NOSIG,VAAH,2023-06-02T17:30:00Z,23.07,72.63,32.0,22.0,270,4,,2.49,29.704725,,,,,,TRUE,,,,FU,SCT,2000,SCT,8000,,,,,IFR,,,,,,,,,,,,METAR,52.0
UWWW 021730Z 32008MPS 9999 TS SCT033CB 18/15 Q1005 R33/190055 NOSIG RMK QFE743/0991,UWWW,2023-06-02T17:30:00Z,53.5,50.17,18.0,15.0,320,16,,6.21,29.675198,,,,,,TRUE,,,,TS,SCT,3300,,,,,,,VFR,,,,,,,,,,,,METAR,124.0
UWUU 021730Z 15004MPS 9999 SCT040 23/14 Q1007 R14R/0///60 NOSIG,UWUU,2023-06-02T17:30:00Z,54.57,55.87,23.0,14.0,150,8,,6.21,29.734253,,,,,,TRUE,,,,,SCT,4000,,,,,,,VFR,,,,,,,,,,,,METAR,137.0
UWSG 021730Z 33004MPS CAVOK 15/13 Q1011 R26/CLRD70 NOSIG RMK QFE755/1007,UWSG,2023-06-02T17:30:00Z,51.72,46.17,15.0,13.0,330,8,,6.21,29.852362,,,,,,TRUE,,,,,CAVOK,,,,,,,,VFR,,,,,,,,,,,,METAR,31.0
UWPS 021730Z 09002MPS CAVOK 18/12 Q1011 R02/CLRD60 NOSIG RMK QFE739,UWPS,2023-06-02T17:30:00Z,54.12,45.2,18.0,12.0,90,4,,6.21,29.852362,,,,,,TRUE,,,,,CAVOK,,,,,,,,VFR,,,,,,,,,,,,METAR,206.0
UWOO 021730Z 18005MPS CAVOK 25/11 Q1009 R26/CLRD60 NOSIG RMK QFE746/0995,UWOO,2023-06-02T17:30:00Z,51.8,55.47,25.0,11.0,180,10,,6.21,29.793306,,,,,,TRUE,,,,,CAVOK,,,,,,,,VFR,,,,,,,,,,,,METAR,90.0
UWLL 021730Z 31004MPS 9999 SCT040CB 17/11 Q1010 R02/090065 NOSIG RMK QFE745/0993,UWLL,2023-06-02T17:30:00Z,54.27,48.23,17.0,11.0,310,8,,6.21,29.822834,,,,,,TRUE,,,,,SCT,4000,,,,,,,VFR,,,,,,,,,,,,METAR,119.0
UWKS 021730Z 06001MPS CAVOK 18/10 Q1011 R24/010060 NOSIG RMK QFE744,UWKS,2023-06-02T17:30:00Z,56.08,47.35,18.0,10.0,60,2,,6.21,29.852362,,,,,,TRUE,,,,,CAVOK,,,,,,,,VFR,,,,,,,,,,,,METAR,165.0
UWKE 021730Z 01006MPS 9999 SCT050CB 19/15 Q1007 R03/210360 NOSIG RMK QFE739/0985,UWKE,2023-06-02T17:30:00Z,55.57,52.08,19.0,15.0,10,12,,6.21,29.734253,,,,,,TRUE,,,,,SCT,5000,,,,,,,VFR,,,,,,,,,,,,METAR,193.0
UWKD 021730Z 36005MPS CAVOK 16/08 Q1010 R29/CLRD70 NOSIG RMK QFE746/0995,UWKD,2023-06-02T17:30:00Z,55.62,49.28,16.0,8.0,360,10,,6.21,29.822834,,,,,,TRUE,,,,,CAVOK,,,,,,,,VFR,,,,,,,,,,,,METAR,114.0
UWGG 021730Z 00000MPS CAVOK 17/12 Q1010 R18L/090070 NOSIG,UWGG,2023-06-02T17:30:00Z,56.23,43.78,17.0,12.0,0,0,,6.21,29.822834,,,,,,TRUE,,,,,CAVOK,,,,,,,,VFR,,,,,,,,,,,,METAR,73.0
UUYY 021730Z 03002MPS 9999 FEW033CB 15/11 Q1012 R36/61D NOSIG RMK QFE750/1000,UUYY,2023-06-02T17:30:00Z,61.65,50.83,15.0,11.0,30,4,,6.21,29.88189,,,,,,TRUE,,,,,FEW,3300,,,,,,,VFR,,,,,,,,,,,,METAR,107.0
UUWW 021730Z 04003MPS 9999 FEW030 15/13 Q1008 R24/290145 TEMPO 1500 TSRA BKN016CB,UUWW,2023-06-02T17:30:00Z,55.6,37.27,15.0,13.0,40,6,,6.21,29.763779,,,,,,,,,,,FEW,3000,,,,,,,VFR,,,,,,,,,,,,METAR,195.0
UUOO 021730Z 20002MPS CAVOK 21/08 Q1011 R30/010070 NOSIG RMK QFE745,UUOO,2023-06-02T17:30:00Z,51.82,39.23,21.0,8.0,200,4,,6.21,29.852362,,,,,,TRUE,,,,,CAVOK,,,,,,,,VFR,,,,,,,,,,,,METAR,154.0
UUOL 021730Z 19002MPS CAVOK 20/08 Q1010 R33/090060 NOSIG,UUOL,2023-06-02T17:30:00Z,52.7,39.53,20.0,8.0,190,4,,6.21,29.822834,,,,,,TRUE,,,,,CAVOK,,,,,,,,VFR,,,,,,,,,,,,METAR,176.0
UUOK 021730Z 18004MPS CAVOK 22/07 Q1010 R12/090060 NOSIG RMK QFE739/0986,UUOK,2023-06-02T17:30:00Z,51.75,36.28,22.0,7.0,180,8,,6.21,29.822834,,,,,,TRUE,,,,,CAVOK,,,,,,,,VFR,,,,,,,,,,,,METAR,203.0
UUOB 021730Z 21003MPS 9000 NSC 23/07 Q1011 R29/010070 NOSIG,UUOB,2023-06-02T17:30:00Z,50.65,36.58,23.0,7.0,210,6,,5.59,29.852362,,,,,,TRUE,,,,,CLR,,,,,,,,VFR,,,,,,,,,,,,METAR,218.0
UUMO 021730Z 36002MPS 9999 FEW076CB 16/13 Q1008 RETS R25/290350 TEMPO 2100 -TSRA BKN016CB RMK QFE741/0988,UUMO,2023-06-02T17:30:00Z,55.52,37.5,16.0,13.0,360,4,,6.21,29.763779,,,,,,,,,,,FEW,7600,,,,,,,VFR,,,,,,,,,,,,METAR,167.0
UUEE 021730Z 02005MPS 320V060 9999 SCT081CB 14/12 Q1008 R24L/290051 R24C/290051 NOSIG,UUEE,2023-06-02T17:30:00Z,55.97,37.42,14.0,12.0,20,10,,6.21,29.763779,,,,,,TRUE,,,,,SCT,8100,,,,,,,VFR,,,,,,,,,,,,METAR,186.0
UUDL 021730Z 26008G13MPS 9999 -SHRA BKN030CB 14/12 Q1010 R23/010060 TEMPO -TSRA BKN016CB RMK QFE749,UUDL,2023-06-02T17:30:00Z,57.57,40.17,14.0,12.0,260,16,25,6.21,29.822834,,,,,,,,,,-SHRA,BKN,3000,,,,,,,MVFR,,,,,,,,,,,,METAR,88.0
UUDD 021730Z 35006MPS 9999 -SHRA BKN026CB 16/13 Q1007 WS R32L R88/CLRD60 TEMPO -TSRA,UUDD,2023-06-02T17:30:00Z,55.4,37.9,16.0,13.0,350,12,,6.21,29.734253,,,,,,,,,,-SHRA,BKN,2600,,,,,,,MVFR,,,,,,,,,,,,METAR,165.0
UUBW 021730Z 30006MPS 270V350 9999 -TSRA SCT051CB 18/12 Q1008 R30/010060 NOSIG RMK QFE746,UUBW,2023-06-02T17:30:00Z,55.55,38.15,18.0,12.0,300,12,,6.21,29.763779,,,,,,TRUE,,,,-TSRA,SCT,5100,,,,,,,VFR,,,,,,,,,,,,METAR,111.0
UUBP 021730Z AUTO 20003MPS 140V240 9999 NCD 17/10 Q1009 NOSIG RMK QFE739/0986,UUBP,2023-06-02T17:30:00Z,53.22,34.18,17.0,10.0,200,6,,6.21,29.793306,,,TRUE,,,TRUE,,,,,CLR,,,,,,,,VFR,,,,,,,,,,,,METAR,197.0
UUBC 021730Z 30005MPS 280V340 9999 -SHRA BKN066CB 16/12 Q1009 R31/CLRD60 NOSIG RMK QFE740/0987,UUBC,2023-06-02T17:30:00Z,54.55,36.37,16.0,12.0,300,10,,6.21,29.793306,,,,,,TRUE,,,,-SHRA,BKN,6600,,,,,,,VFR,,,,,,,,,,,,METAR,198.0
UTTT 021730Z 03004KT 350V070 CAVOK 26/03 Q1009 R08R/CLRD70 NOSIG,UTTT,2023-06-02T17:30:00Z,41.27,69.27,26.0,3.0,30,4,,6.21,29.793306,,,,,,TRUE,,,,,CAVOK,,,,,,,,VFR,,,,,,,,,,,,METAR,429.0
UTST 021730Z 23008KT CAVOK 26/02 Q1006 R25/CLRD70 NOSIG,UTST,2023-06-02T17:30:00Z,37.28,67.32,26.0,2.0,230,8,,6.21,29.704725,,,,,,TRUE,,,,,CAVOK,,,,,,,,VFR,,,,,,,,,,,,METAR,311.0
UTSS 021730Z 00000KT 9999 NSC 22/07 Q1009 R09/CLRD70 NOSIG,UTSS,2023-06-02T17:30:00Z,39.7,66.98,22.0,7.0,0,0,,6.21,29.793306,,,,,,TRUE,,,,,CLR,,,,,,,,VFR,,,,,,,,,,,,METAR,665.0
UTSK 021730Z 30004KT CAVOK 26/M00 Q1007 R16/CLRD70,UTSK,2023-06-02T17:30:00Z,38.8,65.77,26.0,0.0,300,4,,6.21,29.734253,,,,,,,,,,,CAVOK,,,,,,,,VFR,,,,,,,,,,,,METAR,399.0
UTSB 021730Z 31006KT CAVOK 27/02 Q1007 R01/CLRD70 NOSIG,UTSB,2023-06-02T17:30:00Z,39.77,64.48,27.0,2.0,310,6,,6.21,29.734253,,,,,,TRUE,,,,,CAVOK,,,,,,,,VFR,,,,,,,,,,,,METAR,225.0
UTSA 021730Z 08008KT 040V100 9999 NSC 28/M02 Q1008 R25/CLRD70 NOSIG,UTSA,2023-06-02T17:30:00Z,40.12,65.17,28.0,-2.0,80,8,,6.21,29.763779,,,,,,TRUE,,,,,CLR,,,,,,,,VFR,,,,,,,,,,,,METAR,346.0
UTNU 021730Z 34002KT CAVOK 27/07 Q1008 R31/CLRD70 NOSIG,UTNU,2023-06-02T17:30:00Z,41.58,60.63,27.0,7.0,340,2,,6.21,29.763779,,,,,,TRUE,,,,,CAVOK,,,,,,,,VFR,,,,,,,,,,,,METAR,97.0
UTNN 021730Z 35002KT CAVOK 28/03 Q1009 R33/CLRD60 NOSIG,UTNN,2023-06-02T17:30:00Z,42.48,59.63,28.0,3.0,350,2,,6.21,29.793306,,,,,,TRUE,,,,,CAVOK,,,,,,,,VFR,,,,,,,,,,,,METAR,76.0
UTFN 021730Z 05006KT 9999 SCT050CB 26/04 Q1010 R28/CLRD70 NOSIG,UTFN,2023-06-02T17:30:00Z,40.98,71.57,26.0,4.0,50,6,,6.21,29.822834,,,,,,TRUE,,,,,SCT,5000,,,,,,,VFR,,,,,,,,,,,,METAR,477.0
UTFF 021730Z 09004KT 9999 NSC 25/07 Q1010 R18/CLRD70,UTFF,2023-06-02T17:30:00Z,40.37,71.73,25.0,7.0,90,4,,6.21,29.822834,,,,,,,,,,,CLR,,,,,,,,VFR,,,,,,,,,,,,METAR,612.0
UTDT 021730Z 04003MPS 9999 FEW066 SCT110 28/05 Q1006 R35/CLRD70 RMK QFE715/0954,UTDT,2023-06-02T17:30:00Z,37.87,68.87,28.0,5.0,40,6,,6.21,29.704725,,,,,,,,,,,FEW,6600,SCT,11000,,,,,VFR,,,,,,,,,,,,METAR,443.0
UTDL 021730Z 04002MPS 9999 NSC 25/11 Q1009 R08/CLRD70 NOSIG RMK QFE718/0958,UTDL,2023-06-02T17:30:00Z,40.22,69.7,25.0,11.0,40,4,,6.21,29.793306,,,,,,TRUE,,,,,CLR,,,,,,,,VFR,,,,,,,,,,,,METAR,436.0
UTDK 021730Z 03006MPS 9999 BKN130 28/07 Q1010 R01/09//70 RMK QFE700/0934,UTDK,2023-06-02T17:30:00Z,37.98,69.8,28.0,7.0,30,12,,6.21,29.822834,,,,,,,,,,,BKN,13000,,,,,,,VFR,,,,,,,,,,,,METAR,675.0
UTDD 021730Z 09005MPS 9999 FEW066CB BKN130 25/07 Q1010 R09/D NOSIG RMK QFE690/0920,UTDD,2023-06-02T17:30:00Z,38.53,68.82,25.0,7.0,90,10,,6.21,29.822834,,,,,,TRUE,,,,,FEW,6600,BKN,13000,,,,,VFR,,,,,,,,,,,,METAR,785.0
USTR 021730Z 14003MPS 9999 SCT060CB 26/16 Q1015 R12/090065 R03/090065 TEMPO VRB18MPS 2100 -TSRA SQ BKN020CB,USTR,2023-06-02T17:30:00Z,57.18,65.32,26.0,16.0,140,6,,6.21,29.970472,,,,,,,,,,,SCT,6000,,,,,,,VFR,,,,,,,,,,,,METAR,93.0
USSS 021730Z 11003MPS 020V160 9999 VCTS SCT033CB 19/16 Q1015 R26L/290050 TEMPO -TSRA RMK QFE741/0988,USSS,2023-06-02T17:30:00Z,56.75,60.78,19.0,16.0,110,6,,6.21,29.970472,,,,,,,,,,VCTS,SCT,3300,,,,,,,VFR,,,,,,,,,,,,METAR,222.0
USRR 021730Z 26002MPS CAVOK 19/10 Q1017 R25/CLRD60 NOSIG RMK QFE757,USRR,2023-06-02T17:30:00Z,61.33,73.42,19.0,10.0,260,4,,6.21,30.029528,,,,,,TRUE,,,,,CAVOK,,,,,,,,VFR,,,,,,,,,,,,METAR,52.0
USPP 021730Z 01002MPS CAVOK 18/15 Q1010 R03/090060 NOSIG RMK QFE747,USPP,2023-06-02T17:30:00Z,57.92,56.02,18.0,15.0,10,4,,6.21,29.822834,,,,,,TRUE,,,,,CAVOK,,,,,,,,VFR,,,,,,,,,,,,METAR,120.0
USNN 021730Z 32001MPS CAVOK 18/12 Q1017 R21/0///65 NOSIG RMK QFE758,USNN,2023-06-02T17:30:00Z,60.95,76.48,18.0,12.0,320,2,,6.21,30.029528,,,,,,TRUE,,,,,CAVOK,,,,,,,,VFR,,,,,,,,,,,,METAR,52.0
USHH 021730Z 00000MPS CAVOK 20/10 Q1017 R24/010060 NOSIG,USHH,2023-06-02T17:30:00Z,61.03,69.08,20.0,10.0,0,0,,6.21,30.029528,,,,,,TRUE,,,,,CAVOK,,,,,,,,VFR,,,,,,,,,,,,METAR,46.0
USDA 021730Z AUTO 36002MPS 9999 ///012/// ///087/// 03/02 Q1006 RMK QFE753/1004,USDA,2023-06-02T17:30:00Z,71.2,72.05,3.0,2.0,360,4,,6.21,29.704725,,,TRUE,,,,,,,,,,,,,,,,,,,,,,,,,,,,METAR,5.0
USCM 021730Z 16003MPS 5000 HZ SCT040 24/09 Q1012 R36/////// TEMPO 2000 BR VV005 RMK QFE720,USCM,2023-06-02T17:30:00Z,53.4,58.75,24.0,9.0,160,6,,3.11,29.88189,,,,,,,,,,HZ,SCT,4000,,,,,,,MVFR,,,,,,,,,,,,METAR,425.0
USCC 021730Z 35004MPS 9999 SCT040CB 24/12 Q1013 R27/000060 NOSIG RMK QFE740,USCC,2023-06-02T17:30:00Z,55.3,61.5,24.0,12.0,350,8,,6.21,29.911417,,,,,,TRUE,,,,,SCT,4000,,,,,,,VFR,,,,,,,,,,,,METAR,227.0
URWW 021730Z 28002MPS CAVOK 20/07 Q1013 R23/010070 TEMPO -TSRAGR BKN030CB,URWW,2023-06-02T17:30:00Z,48.78,44.33,20.0,7.0,280,4,,6.21,29.911417,,,,,,,,,,,CAVOK,,,,,,,,VFR,,,,,,,,,,,,METAR,131.0
URWI 021730Z AUTO 25003MPS 9999 // ///////// 21/15 Q1014,URWI,2023-06-02T17:30:00Z,46.37,44.33,21.0,15.0,250,6,,6.21,29.940945,,,TRUE,,,,,,,,,,,,,,,,,,,,,,,,,,,,METAR,145.0
URWA 021730Z 26003MPS CAVOK 23/14 Q1014 R27/010070 NOSIG RMK QFE762/1016,URWA,2023-06-02T17:30:00Z,46.28,47.98,23.0,14.0,260,6,,6.21,29.940945,,,,,,TRUE,,,,,CAVOK,,,,,,,,VFR,,,,,,,,,,,,METAR,-19.0
URSS 021730Z 29002MPS 9999 NSC 19/17 Q1014 R02/010070 R06/010070 NOSIG RMK R06/31001G04MPS QFE759,URSS,2023-06-02T17:30:00Z,43.45,39.92,19.0,17.0,290,4,,6.21,29.940945,,,,,,TRUE,,,,,CLR,,,,,,,,VFR,,,,,,,,,,,,METAR,4.0
URRP 021730Z 02001MPS CAVOK 19/17 Q1014 R05/CLRD70 NOSIG RMK QFE755/1007,URRP,2023-06-02T17:30:00Z,47.5,39.92,19.0,17.0,20,2,,6.21,29.940945,,,,,,TRUE,,,,,CAVOK,,,,,,,,VFR,,,,,,,,,,,,METAR,73.0
URMT 021730Z 17003MPS 9999 -SHRA BKN033CB 18/16 Q1016 R25/010070 NOSIG RMK QFE723,URMT,2023-06-02T17:30:00Z,45.12,42.12,18.0,16.0,170,6,,6.21,30.0,,,,,,TRUE,,,,-SHRA,BKN,3300,,,,,,,VFR,,,,,,,,,,,,METAR,448.0
URMO 021730Z 11002MPS 9999 SCT/// BKN140 18/14 Q1015 R27/010070 NOSIG RMK QFE717/0956,URMO,2023-06-02T17:30:00Z,43.2,44.6,18.0,14.0,110,4,,6.21,29.970472,,,,,,TRUE,,,,,BKN,14000,,,,,,,VFR,,,,,,,,,,,,METAR,505.0
URMM 021730Z 12003MPS 9999 -TSRA SCT///CB 18/17 Q1015 R12/290150 TEMPO 1000 TSRA BKN004 BKN030CB RMK QFE733/0977,URMM,2023-06-02T17:30:00Z,44.22,43.07,18.0,17.0,120,6,,6.21,29.970472,,,,,,,,,,-TSRA,,,,,,,,,,,,,,,,,,,,,METAR,318.0
URML 021730Z 17003MPS 9999 FEW///CB 20/17 Q1015 R14/01//70 NOSIG RMK QFE761/1015,URML,2023-06-02T17:30:00Z,42.82,47.65,20.0,17.0,170,6,,6.21,29.970472,,,,,,TRUE,,,,,,,,,,,,,,,,,,,,,,,,,METAR,4.0
URMG 021730Z 11005MPS CAVOK 22/15 Q1014 R08/090070 NOSIG RMK QFE746/0995,URMG,2023-06-02T17:30:00Z,43.38,45.7,22.0,15.0,110,10,,6.21,29.940945,,,,,,TRUE,,,,,CAVOK,,,,,,,,VFR,,,,,,,,,,,,METAR,160.0
URKK 021730Z 34002MPS CAVOK 20/17 Q1014 R23L/CLRD70 NOSIG RMK QFE757,URKK,2023-06-02T17:30:00Z,45.03,39.15,20.0,17.0,340,4,,6.21,29.940945,,,,,,TRUE,,,,,CAVOK,,,,,,,,VFR,,,,,,,,,,,,METAR,29.0
URKA 021730Z 24002MPS 9999 FEW/// 17/16 Q1014 R22/010070 TEMPO SCT020 RMK QFE756/1008,URKA,2023-06-02T17:30:00Z,45.0,37.35,17.0,16.0,240,4,,6.21,29.940945,,,,,,,,,,,,,,,,,,,,,,,,,,,,,,,METAR,41.0
UNWW 021730Z 00000MPS CAVOK 17/05 Q1022 R19/09//55 NOSIG RMK QFE739,UNWW,2023-06-02T17:30:00Z,53.82,86.88,17.0,5.0,0,0,,6.21,30.177166,,,,,,TRUE,,,,,CAVOK,,,,,,,,VFR,,,,,,,,,,,,METAR,307.0
UNTT 021730Z 22004MPS CAVOK 18/11 Q1020 R21/////// NOSIG RMK QFE749,UNTT,2023-06-02T17:30:00Z,56.38,85.22,18.0,11.0,220,8,,6.21,30.11811,,,,,,TRUE,,,,,CAVOK,,,,,,,,VFR,,,,,,,,,,,,METAR,179.0
UNOO 021730Z 18004MPS CAVOK 25/01 Q1019 R07/CLRD60 NOSIG RMK QFE756,UNOO,2023-06-02T17:30:00Z,54.97,73.32,25.0,1.0,180,8,,6.21,30.088583,,,,,,TRUE,,,,,CAVOK,,,,,,,,VFR,,,,,,,,,,,,METAR,85.0
UNNT 021730Z 19001MPS 9000 NSC 18/08 Q1021 R07/090070 R34/090070 NOSIG RMK QFE755/1007,UNNT,2023-06-02T17:30:00Z,55.02,82.65,18.0,8.0,190,2,,5.59,30.147638,,,,,,TRUE,,,,,CLR,,,,,,,,VFR,,,,,,,,,,,,METAR,106.0
UNKL 021730Z 28001MPS CAVOK 21/10 Q1019 R29/CLRD65 NOSIG RMK QFE738,UNKL,2023-06-02T17:30:00Z,56.17,92.48,21.0,10.0,280,2,,6.21,30.088583,,,,,,TRUE,,,,,CAVOK,,,,,,,,VFR,,,,,,,,,,,,METAR,278.0
UNEE 021730Z 24003MPS CAVOK 20/07 Q1021 R23/CLRD60 NOSIG RMK QFE742,UNEE,2023-06-02T17:30:00Z,55.27,86.1,20.0,7.0,240,6,,6.21,30.147638,,,,,,TRUE,,,,,CAVOK,,,,,,,,VFR,,,,,,,,,,,,METAR,261.0
UNBB 021730Z 00000MPS CAVOK 22/M01 Q1022 R06/CLRD66 NOSIG RMK QFE744,UNBB,2023-06-02T17:30:00Z,53.37,83.53,22.0,-1.0,0,0,,6.21,30.177166,,,,,,TRUE,,,,,CAVOK,,,,,,,,VFR,,,,,,,,,,,,METAR,249.0
UNAA 021730Z 36001MPS CAVOK 12/07 Q1022 R02/CLRD67 NOSIG RMK QFE744,UNAA,2023-06-02T17:30:00Z,53.75,91.4,12.0,7.0,360,2,,6.21,30.177166,,,,,,TRUE,,,,,CAVOK,,,,,,,,VFR,,,,,,,,,,,,METAR,249.0
UMMS 021730Z 02006MPS 9999 SCT026 08/03 Q1014 NOSIG,UMMS,2023-06-02T17:30:00Z,53.88,28.03,8.0,3.0,20,12,,6.21,29.940945,,,,,,TRUE,,,,,SCT,2600,,,,,,,VFR,,,,,,,,,,,,METAR,196.0
UMKK 021730Z 35007MPS 9999 SCT034 11/03 Q1021 R24/CLRD95 NOSIG RMK QFE765/1020,UMKK,2023-06-02T17:30:00Z,54.88,20.57,11.0,3.0,350,14,,6.21,30.147638,,,,,,TRUE,,,,,SCT,3400,,,,,,,VFR,,,,,,,,,,,,METAR,6.0
UMIO 021730Z 01004MPS 9999 BKN017 06/03 Q1013 NOSIG RMK QFE743/0990,UMIO,2023-06-02T17:30:00Z,54.43,30.3,6.0,3.0,10,8,,6.21,29.911417,,,,,,TRUE,,,,,BKN,1700,,,,,,,MVFR,,,,,,,,,,,,METAR,189.0
ULWC 021730Z 35005MPS 9999 -SHRA SCT026CB 08/05 Q1010 R21/010060 NOSIG RMK QFE747/0997,ULWC,2023-06-02T17:30:00Z,59.28,38.02,8.0,5.0,350,10,,6.21,29.822834,,,,,,TRUE,,,,-SHRA,SCT,2600,,,,,,,VFR,,,,,,,,,,,,METAR,113.0
ULPB 021730Z 26003MPS 220V320 9999 FEW033 SCT048CB 07/02 Q1012 R19/09//60 NOSIG RMK QFE755/1007,ULPB,2023-06-02T17:30:00Z,61.88,34.15,7.0,2.0,260,6,,6.21,29.88189,,,,,,TRUE,,,,,FEW,3300,SCT,4800,,,,,VFR,,,,,,,,,,,,METAR,41.0
ULOO 021730Z 30003MPS 260V360 CAVOK 10/01 Q1014 R01/090060 NOSIG RMK QFE756,ULOO,2023-06-02T17:30:00Z,57.78,28.4,10.0,1.0,300,6,,6.21,29.940945,,,,,,TRUE,,,,,CAVOK,,,,,,,,VFR,,,,,,,,,,,,METAR,46.0
ULMM 021730Z 02002MPS 9999 BKN040 04/M01 Q1016 R31/190065 NOSIG RMK QFE755,ULMM,2023-06-02T17:30:00Z,68.78,32.75,4.0,-1.0,20,4,,6.21,30.0,,,,,,TRUE,,,,,BKN,4000,,,,,,,VFR,,,,,,,,,,,,METAR,79.0
ULLI 021730Z 30006MPS 9999 SCT028 08/03 Q1014 R28L/090060 NOSIG,ULLI,2023-06-02T17:30:00Z,59.8,30.27,8.0,3.0,300,12,,6.21,29.940945,,,,,,TRUE,,,,,SCT,2800,,,,,,,VFR,,,,,,,,,,,,METAR,25.0
UIUU 021730Z VRB01MPS 9999 NSC 08/03 Q1018 R26/60D NOSIG RMK QFE719/0959,UIUU,2023-06-02T17:30:00Z,51.8,107.45,8.0,3.0,0,2,,6.21,30.059055,,,,,,TRUE,,,,,CLR,,,,,,,,VFR,,,,,,,,,,,,METAR,508.0
UIII 021730Z 10002MPS CAVOK 08/06 Q1020 R12/CLRD60 NOSIG RMK QFE722/0963,UIII,2023-06-02T17:30:00Z,52.27,104.37,8.0,6.0,100,4,,6.21,30.11811,,,,,,TRUE,,,,,CAVOK,,,,,,,,VFR,,,,,,,,,,,,METAR,480.0
UIBB 021730Z AUTO 27004MPS 9999 // ///077/// 16/06 Q1016 RMK QFE719/0959,UIBB,2023-06-02T17:30:00Z,56.37,101.7,16.0,6.0,270,8,,6.21,30.0,,,TRUE,,,,,,,,,,,,,,,,,,,,,,,,,,,,METAR,485.0
UIAA 021730Z 23003MPS 9999 NSC 08/03 Q1015 R29/70D NOSIG RMK QFE703/0937,UIAA,2023-06-02T17:30:00Z,52.02,113.32,8.0,3.0,230,6,,6.21,29.970472,,,,,,TRUE,,,,,CLR,,,,,,,,VFR,,,,,,,,,,,,METAR,650.0
UHWW 021730Z VRB01MPS 9999 NSC 12/09 Q1001 R25L/0///70 NOSIG RMK QFE749,UHWW,2023-06-02T17:30:00Z,43.4,132.15,12.0,9.0,0,2,,6.21,29.557087,,,,,,TRUE,,,,,CLR,,,,,,,,VFR,,,,,,,,,,,,METAR,11.0
UHMA 021730Z VRB01MPS CAVOK 06/M04 Q1007 R01/////// NOSIG RMK MID 05002MPS END R01/07002MPS QFE751/1002,UHMA,2023-06-02T17:30:00Z,64.73,177.73,6.0,-4.0,0,2,,6.21,29.734253,,,,,,TRUE,,,,,CAVOK,,,,,,,,VFR,,,,,,,,,,,,METAR,53.0
UHHH 021730Z 04005MPS CAVOK 08/06 Q1000 R88/090060 NOSIG RMK QFE744/0992,UHHH,2023-06-02T17:30:00Z,48.52,135.18,8.0,6.0,40,10,,6.21,29.52756,,,,,,TRUE,,,,,CAVOK,,,,,,,,VFR,,,,,,,,,,,,METAR,74.0
UGTB 021730Z 31004KT 280V360 9999 BKN058CB 24/15 Q1016 TEMPO 26015KT TSRA,UGTB,2023-06-02T17:30:00Z,41.67,44.95,24.0,15.0,310,4,,6.21,30.0,,,,,,,,,,,BKN,5800,,,,,,,VFR,,,,,,,,,,,,METAR,468.0
UGSB 021730Z 07006KT 290V090 9999 FEW026 20/19 Q1014 NOSIG,UGSB,2023-06-02T17:30:00Z,41.62,41.6,20.0,19.0,70,6,,6.21,29.940945,,,,,,TRUE,,,,,FEW,2600,,,,,,,VFR,,,,,,,,,,,,METAR,32.0
UGMS 021730Z AUTO VRB01KT //// ////// 12/10 Q1022,UGMS,2023-06-02T17:30:00Z,43.05,42.75,12.0,10.0,0,1,,,30.177166,,,TRUE,,,,,,,,,,,,,,,,,,,,,,,,,,,,METAR,1442.0
UGKO 021730Z 26006KT 9999 SCT035 20/17 Q1014 NOSIG,UGKO,2023-06-02T17:30:00Z,42.18,42.48,20.0,17.0,260,6,,6.21,29.940945,,,,,,TRUE,,,,,SCT,3500,,,,,,,VFR,,,,,,,,,,,,METAR,44.0
UGAM 021730Z AUTO 09008KT //// ////// 16/14 Q1017,UGAM,2023-06-02T17:30:00Z,42.53,43.13,16.0,14.0,90,8,,,30.029528,,,TRUE,,,,,,,,,,,,,,,,,,,,,,,,,,,,METAR,544.0
UERR 021730Z VRB01MPS CAVOK 12/M02 Q1012 R25/CLRD60 NOSIG RMK QFE728/0971,UERR,2023-06-02T17:30:00Z,62.53,114.05,12.0,-2.0,0,2,,6.21,29.88189,,,,,,TRUE,,,,,CAVOK,,,,,,,,VFR,,,,,,,,,,,,METAR,352.0
UEEE 021730Z 26003MPS CAVOK 10/02 Q1009 R05/09//60 NOSIG RMK QFE748,UEEE,2023-06-02T17:30:00Z,62.08,129.77,10.0,2.0,260,6,,6.21,29.793306,,,,,,TRUE,,,,,CAVOK,,,,,,,,VFR,,,,,,,,,,,,METAR,106.0
UDYZ 021730Z 36006KT 9999 BKN040CB 24/05 Q1015 NOSIG,UDYZ,2023-06-02T17:30:00Z,40.15,44.4,24.0,5.0,360,6,,6.21,29.970472,,,,,,TRUE,,,,,BKN,4000,,,,,,,VFR,,,,,,,,,,,,METAR,851.0
UDSG 021730Z 08006KT 9999 SCT046CB 13/09 Q1021 NOSIG,UDSG,2023-06-02T17:30:00Z,40.75,43.87,13.0,9.0,80,6,,6.21,30.147638,,,,,,TRUE,,,,,SCT,4600,,,,,,,VFR,,,,,,,,,,,,METAR,1515.0
UCFO 021730Z 04003MPS 9999 FEW050CB 18/09 Q1013 NOSIG,UCFO,2023-06-02T17:30:00Z,40.6,72.8,18.0,9.0,40,6,,6.21,29.911417,,,,,,TRUE,,,,,FEW,5000,,,,,,,VFR,,,,,,,,,,,,METAR,881.0
UCFM 021730Z VRB01MPS CAVOK 19/01 Q1013 NOSIG,UCFM,2023-06-02T17:30:00Z,43.07,74.48,19.0,1.0,0,2,,6.21,29.911417,,,,,,TRUE,,,,,CAVOK,,,,,,,,VFR,,,,,,,,,,,,METAR,632.0
UBBZ 021730Z AUTO 02006KT 9999 // NSC 24/16 Q1016,UBBZ,2023-06-02T17:30:00Z,39.1,46.73,24.0,16.0,20,6,,6.21,30.0,,,TRUE,,,,,,,,CLR,,,,,,,,VFR,,,,,,,,,,,,METAR,489.0
UBBN 021730Z 29008KT 9999 SCT046 BKN100 26/03 Q1014 NOSIG RMK MT OP QFE686,UBBN,2023-06-02T17:30:00Z,39.18,45.45,26.0,3.0,290,8,,6.21,29.940945,,,,,,TRUE,,,,,SCT,4600,BKN,10000,,,,,VFR,,,,,,,,,,,,METAR,857.0
UBBG 021730Z 10006KT 9999 SCT100 24/17 Q1014 NOSIG,UBBG,2023-06-02T17:30:00Z,40.73,46.32,24.0,17.0,100,6,,6.21,29.940945,,,,,,TRUE,,,,,SCT,10000,,,,,,,VFR,,,,,,,,,,,,METAR,333.0
UBBF 021730Z AUTO 01004KT 320V050 9999 // ///////// 23/17 Q1015,UBBF,2023-06-02T17:30:00Z,39.6,47.2,23.0,17.0,10,4,,6.21,29.970472,,,TRUE,,,,,,,,,,,,,,,,,,,,,,,,,,,,METAR,370.0
UBBB 021730Z VRB02KT CAVOK 22/18 Q1015 NOSIG,UBBB,2023-06-02T17:30:00Z,40.47,50.07,22.0,18.0,0,2,,6.21,29.970472,,,,,,TRUE,,,,,CAVOK,,,,,,,,VFR,,,,,,,,,,,,METAR,94.0
UAUU 021730Z 14003MPS CAVOK 25/05 Q1013 NOSIG RMK QFE743/0991,UAUU,2023-06-02T17:30:00Z,53.2,63.55,25.0,5.0,140,6,,6.21,29.911417,,,,,,TRUE,,,,,CAVOK,,,,,,,,VFR,,,,,,,,,,,,SPECI,177.0
UATT 021730Z 24003MPS CAVOK 23/10 Q1012 NOSIG RMK QFE740/0987,UATT,2023-06-02T17:30:00Z,50.25,57.2,23.0,10.0,240,6,,6.21,29.88189,,,,,,TRUE,,,,,CAVOK,,,,,,,,VFR,,,,,,,,,,,,METAR,217.0
UATG 021730Z 23005MPS CAVOK 22/18 Q1014 NOSIG RMK QFE762/1016,UATG,2023-06-02T17:30:00Z,47.12,51.83,22.0,18.0,230,10,,6.21,29.940945,,,,,,TRUE,,,,,CAVOK,,,,,,,,VFR,,,,,,,,,,,,METAR,-23.0
UATE 021730Z 35003MPS CAVOK 22/15 Q1014 NOSIG RMK QFE759/1012,UATE,2023-06-02T17:30:00Z,43.87,51.1,22.0,15.0,350,6,,6.21,29.940945,,,,,,TRUE,,,,,CAVOK,,,,,,,,VFR,,,,,,,,,,,,METAR,21.0
UASP 021730Z 11002MPS CAVOK 18/02 Q1021 NOSIG RMK QFE755/1007,UASP,2023-06-02T17:30:00Z,52.2,77.07,18.0,2.0,110,4,,6.21,30.147638,,,,,,TRUE,,,,,CAVOK,,,,,,,,VFR,,,,,,,,,,,,SPECI,122.0
UARR 021730Z 17002MPS 9999 SCT050CB 21/15 Q1005 NOSIG RMK QFE750/1000,UARR,2023-06-02T17:30:00Z,51.15,51.53,21.0,15.0,170,4,,6.21,29.675198,,,,,,TRUE,,,,,SCT,5000,,,,,,,VFR,,,,,,,,,,,,METAR,33.0
UAKK 021730Z 08004MPS CAVOK 12/02 Q1021 NOSIG RMK QFE718/0958,UAKK,2023-06-02T17:30:00Z,49.68,73.35,12.0,2.0,80,8,,6.21,30.147638,,,,,,TRUE,,,,,CAVOK,,,,,,,,VFR,,,,,,,,,,,,SPECI,532.0
UAIT 021730Z 08010MPS CAVOK 28/M03 Q1011 NOSIG RMK QFE733/0978,UAIT,2023-06-02T17:30:00Z,43.32,68.55,28.0,-3.0,80,19,,6.21,29.852362,,,,,,TRUE,,,,,CAVOK,,,,,,,,VFR,,,,,,,,,,,,METAR,301.0
UAII 021730Z 04003MPS 010V070 CAVOK 27/M06 Q1009 NOSIG RMK QFE722/0962,UAII,2023-06-02T17:30:00Z,42.37,69.48,27.0,-6.0,40,6,,6.21,29.793306,,,,,,TRUE,,,,,CAVOK,,,,,,,,VFR,,,,,,,,,,,,SPECI,410.0
UADD 021730Z 05006MPS 9999 NSC 24/M05 Q1012 NOSIG RMK QFE702/0937,UADD,2023-06-02T17:30:00Z,42.85,71.3,24.0,-5.0,50,12,,6.21,29.88189,,,,,,TRUE,,,,,CLR,,,,,,,,VFR,,,,,,,,,,,,SPECI,663.0
UACC 021730Z 11004MPS CAVOK 15/05 Q1020 NOSIG RMK QFE733/0978,UACC,2023-06-02T17:30:00Z,51.02,71.47,15.0,5.0,110,8,,6.21,30.11811,,,,,,TRUE,,,,,CAVOK,,,,,,,,VFR,,,,,,,,,,,,METAR,354.0
UAAA 021730Z 21002MPS 9999 FEW100 SCT200 18/03 Q1014 NOSIG,UAAA,2023-06-02T17:30:00Z,43.35,77.03,18.0,3.0,210,4,,6.21,29.940945,,,,,,TRUE,,,,,FEW,10000,SCT,20000,,,,,VFR,,,,,,,,,,,,METAR,673.0
TJPS 021730Z AUTO 13012KT 10SM BKN019 BKN024 BKN032 31/26 A2989 RMK AO2 TSNO,TJPS,2023-06-02T17:30:00Z,18.02,-66.57,31.0,26.0,130,12,,10.0,29.890747,,,TRUE,TRUE,,,TRUE,,,,BKN,1900,BKN,2400,BKN,3200,,,MVFR,,,,,,,,,,,,SPECI,12.0
TFFR 021730Z AUTO 14015KT 110V170 9999 SCT027 SCT150 31/24 Q1012 TEMPO 2000 SHRA SCT010 FEW013CB BKN018TCU,TFFR,2023-06-02T17:30:00Z,16.27,-61.53,31.0,24.0,140,15,,6.21,29.88189,,,TRUE,,,,,,,,SCT,2700,SCT,15000,,,,,VFR,,,,,,,,,,,,SPECI,6.0
TFFF 021730Z AUTO 11014KT 9999 BKN027 BKN032 31/24 Q1012 TEMPO 1800 +SHRA SCT010 SCT013CB BKN018TCU,TFFF,2023-06-02T17:30:00Z,14.6,-61.0,31.0,24.0,110,14,,6.21,29.88189,,,TRUE,,,,,,,,BKN,2700,BKN,3200,,,,,MVFR,,,,,,,,,,,,SPECI,3.0
SPZO 021730Z VRB04KT 9999 NSC 20/M08 Q1033 NOSIG RMK BIRD HAZARD RWY 10/28,SPZO,2023-06-02T17:30:00Z,-13.55,-71.93,20.0,-8.0,0,4,,6.21,30.501968,,,,,,TRUE,,,,,CLR,,,,,,,,VFR,,,,,,,,,,,,SPECI,3249.0
SPJR 021730Z VRB03KT 9999 FEW030 SCT050 21/08 Q1028,SPJR,2023-06-02T17:30:00Z,-7.13,-78.48,21.0,8.0,0,3,,6.21,30.35433,,,,,,,,,,,FEW,3000,SCT,5000,,,,,VFR,,,,,,,,,,,,METAR,2622.0
SOCA 021730Z AUTO 03005KT 360V060 9999 FEW039/// BKN120/// BKN210/// ///TCU 27/24 Q1009 TEMPO 1000 TSRA SCT010 BKN012CB,SOCA,2023-06-02T17:30:00Z,4.82,-52.37,27.0,24.0,30,5,,6.21,29.793306,,,TRUE,,,,,,,,FEW,3900,BKN,12000,BKN,21000,,,VFR,,,,,,,,,,,,METAR,7.0
SCIE 021730Z 01011KT 8000 BKN006 BKN013 15/14 Q1015,SCIE,2023-06-02T17:30:00Z,-36.77,-73.07,15.0,14.0,10,11,,4.97,29.970472,,,,,,,,,,,BKN,600,BKN,1300,,,,,IFR,,,,,,,,,,,,SPECI,8.0
ROAH 021730Z AUTO 32017KT 9999 FEW014 SCT019 24/22 Q1006,ROAH,2023-06-02T17:30:00Z,26.18,127.65,24.0,22.0,320,17,,6.21,29.704725,,,TRUE,,,,,,,,FEW,1400,SCT,1900,,,,,VFR,,,,,,,,,,,,METAR,6.0
RKSI 021730Z 29004KT 250V340 CAVOK 18/13 Q1006 NOSIG,RKSI,2023-06-02T17:30:00Z,37.47,126.45,18.0,13.0,290,4,,6.21,29.704725,,,,,,TRUE,,,,,CAVOK,,,,,,,,VFR,,,,,,,,,,,,METAR,7.0
RJTT 021730Z 34012KT 4000 R34L/P2000N R22/P2000N R34R/P2000N R05/1600VP2000N +SHRA BR FEW003 SCT010 BKN014 21/20 Q0996 TEMPO 2000 SHRA BR FEW004 BKN005,RJTT,2023-06-02T17:30:00Z,35.55,139.77,21.0,20.0,340,12,,2.49,29.409449,,,,,,,,,,+SHRA BR,FEW,300,SCT,1000,BKN,1400,,,IFR,,,,,,,,,,,,METAR,5.0
RJGG 021730Z AUTO 27011KT 9999 FEW048 SCT080 BKN100 20/18 Q0999 NOSIG,RJGG,2023-06-02T17:30:00Z,34.87,136.8,20.0,18.0,270,11,,6.21,29.498032,,,TRUE,,,TRUE,,,,,FEW,4800,SCT,8000,BKN,10000,,,VFR,,,,,,,,,,,,METAR,5.0
RJFF 021730Z AUTO 33006KT 9999 FEW007 SCT013 20/19 Q1002 TEMPO FEW005 BKN008 BKN015,RJFF,2023-06-02T17:30:00Z,33.58,130.45,20.0,19.0,330,6,,6.21,29.586615,,,TRUE,,,,,,,,FEW,700,SCT,1300,,,,,VFR,,,,,,,,,,,,METAR,7.0
RJCC 021730Z 32011KT 9999 FEW005 BKN020 BKN090 14/13 Q0991,RJCC,2023-06-02T17:30:00Z,42.77,141.68,14.0,13.0,320,11,,6.21,29.26181,,,,,,,,,,,FEW,500,BKN,2000,BKN,9000,,,MVFR,,,,,,,,,,,,METAR,19.0
RJBB 021730Z AUTO 07005KT 9999 NSC 20/19 Q1000 NOSIG,RJBB,2023-06-02T17:30:00Z,34.43,135.25,20.0,19.0,70,5,,6.21,29.52756,,,TRUE,,,TRUE,,,,,CLR,,,,,,,,VFR,,,,,,,,,,,,METAR,8.0
RJAA 021730Z AUTO 20013G26KT 160V240 8000 -RA FEW011 SCT015 OVC020 //////CB 24/23 Q0995 TEMPO 3000 SHRA BR FEW005 BKN008 BECMG 27012KT,RJAA,2023-06-02T17:30:00Z,35.77,140.38,24.0,23.0,200,13,26,4.97,29.379921,,,TRUE,,,,,,,-RA,FEW,1100,SCT,1500,OVC,2000,,,MVFR,,,,,,,,,,,,METAR,36.0
RCTP 021730Z VRB02KT 9999 FEW015 SCT070 28/26 Q1007 NOSIG RMK A2976,RCTP,2023-06-02T17:30:00Z,25.07,121.22,28.0,26.0,0,2,,6.21,29.734253,,,,,,TRUE,,,,,FEW,1500,SCT,7000,,,,,VFR,,,,,,,,,,,,METAR,33.0
PAVL 021730Z AUTO 23016KT 8SM -SN OVC025 M01/M02 A2975 RMK AO2 P0000 T10111022 TSNO,PAVL,2023-06-02T17:30:00Z,67.73,-164.55,-1.1,-2.2,230,16,,8.0,29.749016,,,TRUE,TRUE,,,TRUE,,,-SN,OVC,2500,,,,,,,MVFR,,,,,,0.005,,,,,,SPECI,6.0
OTBD 021730Z 32010KT 290V350 CAVOK 35/04 Q1005 NOSIG,OTBD,2023-06-02T17:30:00Z,25.25,51.57,35.0,4.0,320,10,,6.21,29.675198,,,,,,TRUE,,,,,CAVOK,,,,,,,,VFR,,,,,,,,,,,,METAR,13.0
OPPS 021730Z 18006KT 8000 HZ BKN070 28/16 Q1008,OPPS,2023-06-02T17:30:00Z,33.98,71.52,28.0,16.0,180,6,,4.97,29.763779,,,,,,,,,,HZ,BKN,7000,,,,,,,MVFR,,,,,,,,,,,,METAR,356.0
OPKC 021730Z 25008KT 6000 BKN030 30/25 Q1005 NOSIG,OPKC,2023-06-02T17:30:00Z,24.9,67.13,30.0,25.0,250,8,,3.73,29.675198,,,,,,TRUE,,,,,BKN,3000,,,,,,,MVFR,,,,,,,,,,,,METAR,20.0
OPIS 021730Z 13006KT 6000 NSC 23/15 Q1009 NOSIG,OPIS,2023-06-02T17:30:00Z,33.55,72.83,23.0,15.0,130,6,,3.73,29.793306,,,,,,TRUE,,,,,CLR,,,,,,,,MVFR,,,,,,,,,,,,METAR,542.0
OIZH 021730Z 18008KT 8000 SCT035CB SCT040TCU BKN100 30/04 Q1015 A2998 TEMPO TSRA,OIZH,2023-06-02T17:30:00Z,29.47,60.92,30.0,4.0,180,8,,4.97,29.970472,,,,,,,,,,,SCT,3500,SCT,4000,BKN,10000,,,MVFR,,,,,,,,,,,,METAR,1378.0
OIYY 021730Z 29004KT CAVOK 31/05 Q1015,OIYY,2023-06-02T17:30:00Z,31.9,54.28,31.0,5.0,290,4,,6.21,29.970472,,,,,,,,,,,CAVOK,,,,,,,,VFR,,,,,,,,,,,,METAR,1226.0
OITT 021730Z 00000KT 9999 FEW030 SCT170 21/07 Q1019 A3009,OITT,2023-06-02T17:30:00Z,38.13,46.23,21.0,7.0,0,0,,6.21,30.088583,,,,,,,,,,,FEW,3000,SCT,17000,,,,,VFR,,,,,,,,,,,,METAR,1353.0
OISS 021730Z 35010KT 9999 FEW035 29/01 Q1015 A2998,OISS,2023-06-02T17:30:00Z,29.53,52.58,29.0,1.0,350,10,,6.21,29.970472,,,,,,,,,,,FEW,3500,,,,,,,VFR,,,,,,,,,,,,METAR,1484.0
OINZ 021730Z 34002KT CAVOK 22/20 Q1014,OINZ,2023-06-02T17:30:00Z,36.63,53.2,22.0,20.0,340,2,,6.21,29.940945,,,,,,,,,,,CAVOK,,,,,,,,VFR,,,,,,,,,,,,METAR,8.0
OIMM 021730Z 07006KT CAVOK 27/12 Q1015 A3000,OIMM,2023-06-02T17:30:00Z,36.23,59.63,27.0,12.0,70,6,,6.21,29.970472,,,,,,,,,,,CAVOK,,,,,,,,VFR,,,,,,,,,,,,METAR,995.0
OIKB 021730Z 25008KT 5000 HZ FEW025CB SCT190 31/27 Q1003 A2964,OIKB,2023-06-02T17:30:00Z,27.22,56.37,31.0,27.0,250,8,,3.11,29.616142,,,,,,,,,,HZ,FEW,2500,SCT,19000,,,,,MVFR,,,,,,,,,,,,METAR,6.0
OIII 021730Z 28010KT 9999 FEW100 BKN190 30/M03 Q1014 A2997,OIII,2023-06-02T17:30:00Z,35.68,51.3,30.0,-3.0,280,10,,6.21,29.940945,,,,,,,,,,,FEW,10000,BKN,19000,,,,,VFR,,,,,,,,,,,,METAR,1182.0
OIFM 021730Z 01008KT CAVOK 25/00 Q1018 A3007,OIFM,2023-06-02T17:30:00Z,32.75,51.87,25.0,0.0,10,8,,6.21,30.059055,,,,,,,,,,,CAVOK,,,,,,,,VFR,,,,,,,,,,,,METAR,1539.0
OICC 021730Z 28010KT CAVOK 21/07 Q1020 A3013,OICC,2023-06-02T17:30:00Z,34.35,47.17,21.0,7.0,280,10,,6.21,30.11811,,,,,,,,,,,CAVOK,,,,,,,,VFR,,,,,,,,,,,,METAR,1310.0
OIBB 021730Z 30014KT CAVOK 30/20 Q1003 A2964,OIBB,2023-06-02T17:30:00Z,28.93,50.83,30.0,20.0,300,14,,6.21,29.616142,,,,,,,,,,,CAVOK,,,,,,,,VFR,,,,,,,,,,,,METAR,15.0
OIAW 021730Z 30010KT CAVOK 38/07 Q1004,OIAW,2023-06-02T17:30:00Z,31.33,48.77,38.0,7.0,300,10,,6.21,29.64567,,,,,,,,,,,CAVOK,,,,,,,,VFR,,,,,,,,,,,,METAR,25.0
OBBI 021730Z 31012KT CAVOK 32/18 Q1005 NOSIG,OBBI,2023-06-02T17:30:00Z,26.27,50.63,32.0,18.0,310,12,,6.21,29.675198,,,,,,TRUE,,,,,CAVOK,,,,,,,,VFR,,,,,,,,,,,,METAR,6.0
NZWN 021730Z AUTO 34004KT 9999 NCD 11/03 Q1013,NZWN,2023-06-02T17:30:00Z,-41.32,174.8,11.0,3.0,340,4,,6.21,29.911417,,,TRUE,,,,,,,,CLR,,,,,,,,VFR,,,,,,,,,,,,METAR,12.0
NZCH 021730Z AUTO 21005KT 9999 NCD 01/M01 Q1013,NZCH,2023-06-02T17:30:00Z,-43.48,172.52,1.0,-1.0,210,5,,6.21,29.911417,,,TRUE,,,,,,,,CLR,,,,,,,,VFR,,,,,,,,,,,,METAR,36.0
NZAA 021730Z AUTO 23011KT 9999 FEW041/// 14/10 Q1018,NZAA,2023-06-02T17:30:00Z,-37.02,174.8,14.0,10.0,230,11,,6.21,30.059055,,,TRUE,,,,,,,,FEW,4100,,,,,,,VFR,,,,,,,,,,,,METAR,7.0
NWWW 021730Z AUTO VRB02KT CAVOK 17/14 Q1019 NOSIG,NWWW,2023-06-02T17:30:00Z,-22.02,166.22,17.0,14.0,0,2,,6.21,30.088583,,,TRUE,,,TRUE,,,,,CAVOK,,,,,,,,VFR,,,,,,,,,,,,METAR,16.0
NTAA 021730Z 12006KT 9999 FEW043 24/17 Q1013 NOSIG,NTAA,2023-06-02T17:30:00Z,-17.55,-149.62,24.0,17.0,120,6,,6.21,29.911417,,,,,,TRUE,,,,,FEW,4300,,,,,,,VFR,,,,,,,,,,,,METAR,2.0
NLWW 021730Z AUTO 14003KT 100V200 9999 -RA FEW032/// BKN044/// BKN050/// 26/25 Q1012 TEMPO 1500 TSRA BKN010 SCT016CB,NLWW,2023-06-02T17:30:00Z,-13.23,-176.18,26.0,25.0,140,3,,6.21,29.88189,,,TRUE,,,,,,,-RA,FEW,3200,BKN,4400,BKN,5000,,,VFR,,,,,,,,,,,,METAR,24.0
NCRG 021730Z AUTO 17002KT 9999 FEW032/// 17/17 Q1014,NCRG,2023-06-02T17:30:00Z,-21.2,-159.82,17.0,17.0,170,2,,6.21,29.940945,,,TRUE,,,,,,,,FEW,3200,,,,,,,VFR,,,,,,,,,,,,METAR,7.0
LZZI 021730Z 04008KT 010V070 9999 FEW056 17/07 Q1016,LZZI,2023-06-02T17:30:00Z,49.23,18.62,17.0,7.0,40,8,,6.21,30.0,,,,,,,,,,,FEW,5600,,,,,,,VFR,,,,,,,,,,,,METAR,311.0
LZTT 021730Z 04018KT 9999 FEW036 BKN050 15/07 Q1014,LZTT,2023-06-02T17:30:00Z,49.07,20.25,15.0,7.0,40,18,,6.21,29.940945,,,,,,,,,,,FEW,3600,BKN,5000,,,,,VFR,,,,,,,,,,,,METAR,693.0
LZPP 021730Z 35015KT CAVOK 20/09 Q1013,LZPP,2023-06-02T17:30:00Z,48.62,17.83,20.0,9.0,350,15,,6.21,29.911417,,,,,,,,,,,CAVOK,,,,,,,,VFR,,,,,,,,,,,,METAR,160.0
LZKZ 021730Z 01014KT 9999 FEW040 19/12 Q1013 NOSIG,LZKZ,2023-06-02T17:30:00Z,48.67,21.23,19.0,12.0,10,14,,6.21,29.911417,,,,,,TRUE,,,,,FEW,4000,,,,,,,VFR,,,,,,,,,,,,METAR,227.0
LZIB 021730Z 36011KT CAVOK 22/12 Q1013 NOSIG,LZIB,2023-06-02T17:30:00Z,48.17,17.22,22.0,12.0,360,11,,6.21,29.911417,,,,,,TRUE,,,,,CAVOK,,,,,,,,VFR,,,,,,,,,,,,METAR,129.0
LYVR 021730Z AUTO 05005KT 9999 -SHRA NSC 18/18 Q1013,LYVR,2023-06-02T17:30:00Z,45.13,21.32,18.0,18.0,50,5,,6.21,29.911417,,,TRUE,,,,,,,-SHRA,CLR,,,,,,,,VFR,,,,,,,,,,,,METAR,82.0
LYTV 021730Z VRB02KT 9999 FEW040 24/17 Q1011 NOSIG,LYTV,2023-06-02T17:30:00Z,42.4,18.72,24.0,17.0,0,2,,6.21,29.852362,,,,,,TRUE,,,,,FEW,4000,,,,,,,VFR,,,,,,,,,,,,METAR,3.0
LYPG 021730Z 14005KT 110V170 9999 FEW040 26/15 Q1010 NOSIG,LYPG,2023-06-02T17:30:00Z,42.37,19.25,26.0,15.0,140,5,,6.21,29.822834,,,,,,TRUE,,,,,FEW,4000,,,,,,,VFR,,,,,,,,,,,,METAR,32.0
LYNI 021730Z 31007KT 9999 TS FEW033CB FEW040 22/17 Q1011 TEMPO 26015G25KT 3000 TSRA SCT033CB SCT040,LYNI,2023-06-02T17:30:00Z,43.33,21.85,22.0,17.0,310,7,,6.21,29.852362,,,,,,,,,,TS,FEW,3300,FEW,4000,,,,,VFR,,,,,,,,,,,,METAR,197.0
LYKV 021730Z 07002KT 9999 -RA BKN040 18/18 Q1012 NOSIG,LYKV,2023-06-02T17:30:00Z,43.82,20.58,18.0,18.0,70,2,,6.21,29.88189,,,,,,TRUE,,,,-RA,BKN,4000,,,,,,,VFR,,,,,,,,,,,,METAR,209.0
LYBT 021730Z 34010KT 9999 TS SCT030CB BKN040 19/15 Q1012 TEMPO 01020G38KT 2000 TSRAGR BKN027CB,LYBT,2023-06-02T17:30:00Z,44.93,20.25,19.0,15.0,340,10,,6.21,29.88189,,,,,,,,,,TS,SCT,3000,BKN,4000,,,,,VFR,,,,,,,,,,,,METAR,78.0
LYBE 021730Z 29004KT 9999 FEW040TCU 21/19 Q1012 TEMPO 34020G38KT 4000 TSRA SCT030CB SCT040,LYBE,2023-06-02T17:30:00Z,44.82,20.28,21.0,19.0,290,4,,6.21,29.88189,,,,,,,,,,,FEW,4000,,,,,,,VFR,,,,,,,,,,,,METAR,93.0
LWSK 021730Z 27003KT 9999 FEW040 24/14 Q1011 NOSIG,LWSK,2023-06-02T17:30:00Z,41.97,21.63,24.0,14.0,270,3,,6.21,29.852362,,,,,,TRUE,,,,,FEW,4000,,,,,,,VFR,,,,,,,,,,,,METAR,232.0
LWOH 021730Z 10002KT 9999 SCT040 21/13 Q1013,LWOH,2023-06-02T17:30:00Z,41.18,20.75,21.0,13.0,100,2,,6.21,29.911417,,,,,,,,,,,SCT,4000,,,,,,,VFR,,,,,,,,,,,,METAR,700.0
LUKK 021730Z 17011KT CAVOK 24/13 Q1010 NOSIG,LUKK,2023-06-02T17:30:00Z,46.93,28.93,24.0,13.0,170,11,,6.21,29.822834,,,,,,TRUE,,,,,CAVOK,,,,,,,,VFR,,,,,,,,,,,,METAR,102.0
LRTR 021730Z 13007KT 9999 -SHRA VCTS FEW045 FEW050CB 19/18 Q1012 RETS NOSIG,LRTR,2023-06-02T17:30:00Z,45.82,21.33,19.0,18.0,130,7,,6.21,29.88189,,,,,,TRUE,,,,-SHRA VCTS,FEW,4500,FEW,5000,,,,,VFR,,,,,,,,,,,,METAR,104.0
LRTM 021730Z AUTO 06004KT 010V100 9999 FEW120/// 22/14 Q1011,LRTM,2023-06-02T17:30:00Z,46.47,24.42,22.0,14.0,60,4,,6.21,29.852362,,,TRUE,,,,,,,,FEW,12000,,,,,,,VFR,,,,,,,,,,,,METAR,289.0
LRTC 021730Z AUTO 14006KT 9999 NCD 21/11 Q1011,LRTC,2023-06-02T17:30:00Z,45.07,28.72,21.0,11.0,140,6,,6.21,29.852362,,,TRUE,,,,,,,,CLR,,,,,,,,VFR,,,,,,,,,,,,METAR,52.0
LRSV 021730Z 27005KT CAVOK 21/16 Q1011,LRSV,2023-06-02T17:30:00Z,47.68,26.35,21.0,16.0,270,5,,6.21,29.852362,,,,,,,,,,,CAVOK,,,,,,,,VFR,,,,,,,,,,,,METAR,406.0
LRSM 021730Z AUTO 27009KT 9999 VCTS SCT070/// BKN160/// 22/13 Q1010,LRSM,2023-06-02T17:30:00Z,47.7,22.88,22.0,13.0,270,9,,6.21,29.822834,,,TRUE,,,,,,,VCTS,SCT,7000,BKN,16000,,,,,VFR,,,,,,,,,,,,METAR,123.0
LRSB 021730Z VRB01KT 9999 FEW050CB 19/13 Q1012,LRSB,2023-06-02T17:30:00Z,45.78,24.08,19.0,13.0,0,1,,6.21,29.88189,,,,,,,,,,,FEW,5000,,,,,,,VFR,,,,,,,,,,,,METAR,442.0
LROP 021730Z 00000KT 9999 FEW050CB 20/14 Q1010 NOSIG,LROP,2023-06-02T17:30:00Z,44.57,26.1,20.0,14.0,0,0,,6.21,29.822834,,,,,,TRUE,,,,,FEW,5000,,,,,,,VFR,,,,,,,,,,,,METAR,92.0
LROD 021730Z 22006KT 9999 FEW035 23/16 Q1011,LROD,2023-06-02T17:30:00Z,47.03,21.88,23.0,16.0,220,6,,6.21,29.852362,,,,,,,,,,,FEW,3500,,,,,,,VFR,,,,,,,,,,,,METAR,132.0
LRIA 021730Z 27004KT 250V360 CAVOK 23/12 Q1010,LRIA,2023-06-02T17:30:00Z,47.17,27.62,23.0,12.0,270,4,,6.21,29.822834,,,,,,,,,,,CAVOK,,,,,,,,VFR,,,,,,,,,,,,METAR,71.0
LRCV 021730Z 07006KT CAVOK 19/19 Q1011,LRCV,2023-06-02T17:30:00Z,44.32,23.88,19.0,19.0,70,6,,6.21,29.852362,,,,,,,,,,,CAVOK,,,,,,,,VFR,,,,,,,,,,,,METAR,192.0
LRCL 021730Z 25005KT 9999 FEW065CB 18/15 Q1012 RETS,LRCL,2023-06-02T17:30:00Z,46.78,23.68,18.0,15.0,250,5,,6.21,29.88189,,,,,,,,,,,FEW,6500,,,,,,,VFR,,,,,,,,,,,,METAR,313.0
LRCK 021730Z 15007KT CAVOK 20/12 Q1012 NOSIG,LRCK,2023-06-02T17:30:00Z,44.37,28.48,20.0,12.0,150,7,,6.21,29.88189,,,,,,TRUE,,,,,CAVOK,,,,,,,,VFR,,,,,,,,,,,,METAR,108.0
LRBS 021730Z 00000KT 9999 FEW050CB 21/13 Q1011 NOSIG,LRBS,2023-06-02T17:30:00Z,44.5,26.08,21.0,13.0,0,0,,6.21,29.852362,,,,,,TRUE,,,,,FEW,5000,,,,,,,VFR,,,,,,,,,,,,METAR,91.0
LRBM 021730Z AUTO 34002KT 9999 NCD 23/14 Q1011,LRBM,2023-06-02T17:30:00Z,47.67,23.47,23.0,14.0,340,2,,6.21,29.852362,,,TRUE,,,,,,,,CLR,,,,,,,,VFR,,,,,,,,,,,,METAR,180.0
LRBC 021730Z 23006KT 200V260 9999 SCT065 23/13 Q1010,LRBC,2023-06-02T17:30:00Z,46.52,26.92,23.0,13.0,230,6,,6.21,29.822834,,,,,,,,,,,SCT,6500,,,,,,,VFR,,,,,,,,,,,,METAR,183.0
LRAR 021730Z 13006KT 020V170 9999 TS VCSH SCT014 SCT046CB 18/13 Q1012,LRAR,2023-06-02T17:30:00Z,46.18,21.27,18.0,13.0,130,6,,6.21,29.88189,,,,,,,,,,TS VCSH,SCT,1400,SCT,4600,,,,,VFR,,,,,,,,,,,,METAR,102.0
LQTZ 021730Z VRB02KT CAVOK 19/18 Q1012,LQTZ,2023-06-02T17:30:00Z,44.47,18.73,19.0,18.0,0,2,,6.21,29.88189,,,,,,,,,,,CAVOK,,,,,,,,VFR,,,,,,,,,,,,METAR,242.0
LQSA 021730Z VRB01KT CAVOK 17/17 Q1014,LQSA,2023-06-02T17:30:00Z,43.82,18.32,17.0,17.0,0,1,,6.21,29.940945,,,,,,,,,,,CAVOK,,,,,,,,VFR,,,,,,,,,,,,METAR,505.0
LQMO 021730Z VRB02KT 9999 FEW075 21/17 Q1010,LQMO,2023-06-02T17:30:00Z,43.28,17.83,21.0,17.0,0,2,,6.21,29.822834,,,,,,,,,,,FEW,7500,,,,,,,VFR,,,,,,,,,,,,METAR,49.0
LQBK 021730Z VRB02KT 9999 FEW033 SCT043 22/21 Q1012 NOSIG,LQBK,2023-06-02T17:30:00Z,44.93,17.3,22.0,21.0,0,2,,6.21,29.88189,,,,,,TRUE,,,,,FEW,3300,SCT,4300,,,,,VFR,,,,,,,,,,,,METAR,114.0
LPPT 021730Z 31011KT 270V350 9999 FEW042 FEW047CB 23/14 Q1010,LPPT,2023-06-02T17:30:00Z,38.77,-9.13,23.0,14.0,310,11,,6.21,29.822834,,,,,,,,,,,FEW,4200,FEW,4700,,,,,VFR,,,,,,,,,,,,METAR,98.0
LPPS 021730Z 34010KT 310V010 9999 SCT015 22/17 Q1012,LPPS,2023-06-02T17:30:00Z,33.07,-16.35,22.0,17.0,340,10,,6.21,29.88189,,,,,,,,,,,SCT,1500,,,,,,,VFR,,,,,,,,,,,,METAR,89.0
LPPR 021730Z 29005KT 260V330 9999 FEW030CB 19/15 Q1012,LPPR,2023-06-02T17:30:00Z,41.23,-8.68,19.0,15.0,290,5,,6.21,29.88189,,,,,,,,,,,FEW,3000,,,,,,,VFR,,,,,,,,,,,,METAR,64.0
LPPD 021730Z 13012KT 9999 FEW018 SCT045 20/16 Q1013,LPPD,2023-06-02T17:30:00Z,37.73,-25.68,20.0,16.0,130,12,,6.21,29.911417,,,,,,,,,,,FEW,1800,SCT,4500,,,,,VFR,,,,,,,,,,,,METAR,62.0
LPMA 021730Z 05008KT 340V090 9999 FEW015 22/17 Q1012,LPMA,2023-06-02T17:30:00Z,32.7,-16.77,22.0,17.0,50,8,,6.21,29.88189,,,,,,,,,,,FEW,1500,,,,,,,VFR,,,,,,,,,,,,METAR,54.0
LPHR 021730Z 26009KT 9999 FEW008 SCT014 21/16 Q1011,LPHR,2023-06-02T17:30:00Z,38.52,-28.72,21.0,16.0,260,9,,6.21,29.852362,,,,,,,,,,,FEW,800,SCT,1400,,,,,VFR,,,,,,,,,,,,METAR,39.0
LPFR 021730Z 24008KT 9999 FEW020 21/18 Q1009,LPFR,2023-06-02T17:30:00Z,37.02,-7.97,21.0,18.0,240,8,,6.21,29.793306,,,,,,,,,,,FEW,2000,,,,,,,VFR,,,,,,,,,,,,METAR,3.0
LPFL 021730Z 03009KT 9999 FEW015 19/16 Q1011,LPFL,2023-06-02T17:30:00Z,39.45,-31.12,19.0,16.0,30,9,,6.21,29.852362,,,,,,,,,,,FEW,1500,,,,,,,VFR,,,,,,,,,,,,METAR,35.0
LPCS 021730Z 35013KT 9999 FEW025 FEW045CB 21/13 Q1010,LPCS,2023-06-02T17:30:00Z,38.73,-9.35,21.0,13.0,350,13,,6.21,29.822834,,,,,,,,,,,FEW,2500,FEW,4500,,,,,VFR,,,,,,,,,,,,METAR,99.0
LPAZ 021730Z 14012KT 9999 FEW015 SCT049 20/16 Q1013,LPAZ,2023-06-02T17:30:00Z,36.97,-25.17,20.0,16.0,140,12,,6.21,29.911417,,,,,,,,,,,FEW,1500,SCT,4900,,,,,VFR,,,,,,,,,,,,METAR,96.0
LKTB 021730Z 07012KT CAVOK 19/08 Q1015 NOSIG,LKTB,2023-06-02T17:30:00Z,49.15,16.68,19.0,8.0,70,12,,6.21,29.970472,,,,,,TRUE,,,,,CAVOK,,,,,,,,VFR,,,,,,,,,,,,METAR,233.0
LKPR 021730Z 36010KT CAVOK 17/06 Q1018 NOSIG,LKPR,2023-06-02T17:30:00Z,50.1,14.27,17.0,6.0,360,10,,6.21,30.059055,,,,,,TRUE,,,,,CAVOK,,,,,,,,VFR,,,,,,,,,,,,METAR,364.0
LKPD 021730Z 02010KT 340V060 CAVOK 18/07 Q1017 NOSIG RMK BLU BLU,LKPD,2023-06-02T17:30:00Z,50.02,15.73,18.0,7.0,20,10,,6.21,30.029528,,,,,,TRUE,,,,,CAVOK,,,,,,,,VFR,,,,,,,,,,,,SPECI,226.0
LKNA 021730Z 34008KT CAVOK 19/09 Q1016 NOSIG RMK BLU BLU,LKNA,2023-06-02T17:30:00Z,49.17,16.12,19.0,9.0,340,8,,6.21,30.0,,,,,,TRUE,,,,,CAVOK,,,,,,,,VFR,,,,,,,,,,,,SPECI,460.0
LKMT 021730Z 01012KT CAVOK 16/08 Q1017 NOSIG,LKMT,2023-06-02T17:30:00Z,49.68,18.12,16.0,8.0,10,12,,6.21,30.029528,,,,,,TRUE,,,,,CAVOK,,,,,,,,VFR,,,,,,,,,,,,METAR,251.0
LKKV 021730Z 03007KT 350V060 9999 FEW043 15/05 Q1019,LKKV,2023-06-02T17:30:00Z,50.2,12.92,15.0,5.0,30,7,,6.21,30.088583,,,,,,,,,,,FEW,4300,,,,,,,VFR,,,,,,,,,,,,METAR,600.0
LKCV 021730Z 04010KT CAVOK 18/08 Q1017 NOSIG RMK BLU BLU,LKCV,2023-06-02T17:30:00Z,49.93,15.38,18.0,8.0,40,10,,6.21,30.029528,,,,,,TRUE,,,,,CAVOK,,,,,,,,VFR,,,,,,,,,,,,SPECI,234.0
LJPZ 021730Z 28004KT 250V310 CAVOK 23/17 Q1012,LJPZ,2023-06-02T17:30:00Z,45.47,13.62,23.0,17.0,280,4,,6.21,29.88189,,,,,,,,,,,CAVOK,,,,,,,,VFR,,,,,,,,,,,,METAR,2.0
LJMB 021730Z VRB03KT 9999 FEW049 BKN210 22/12 Q1013,LJMB,2023-06-02T17:30:00Z,46.47,15.67,22.0,12.0,0,3,,6.21,29.911417,,,,,,,,,,,FEW,4900,BKN,21000,,,,,VFR,,,,,,,,,,,,METAR,263.0
LJLJ 021730Z 26003KT 9999 FEW050TCU SCT100 BKN150 18/17 Q1013 NOSIG,LJLJ,2023-06-02T17:30:00Z,46.22,14.47,18.0,17.0,260,3,,6.21,29.911417,,,,,,TRUE,,,,,FEW,5000,SCT,10000,BKN,15000,,,VFR,,,,,,,,,,,,METAR,363.0
LJCE 021730Z 20004KT 9999 VCTS FEW060CB SCT070 24/15 Q1012 RMK BLU,LJCE,2023-06-02T17:30:00Z,45.9,15.52,24.0,15.0,200,4,,6.21,29.88189,,,,,,,,,,VCTS,FEW,6000,SCT,7000,,,,,VFR,,,,,,,,,,,,METAR,153.0
LHBP 021730Z 33010KT CAVOK 25/11 Q1011 NOSIG,LHBP,2023-06-02T17:30:00Z,47.43,19.27,25.0,11.0,330,10,,6.21,29.852362,,,,,,TRUE,,,,,CAVOK,,,,,,,,VFR,,,,,,,,,,,,METAR,141.0
LFYR 021730Z AUTO 04008KT 360V110 CAVOK 24/10 Q1015,LFYR,2023-06-02T17:30:00Z,47.32,1.68,24.0,10.0,40,8,,6.21,29.970472,,,TRUE,,,,,,,,CAVOK,,,,,,,,VFR,,,,,,,,,,,,METAR,83.0
LFVP 021730Z AUTO 11005KT 060V150 9999 SCT008 BKN037 15/11 Q1016 TEMPO 0300 -RA FG OVC003,LFVP,2023-06-02T17:30:00Z,46.77,-56.18,15.0,11.0,110,5,,6.21,30.0,,,TRUE,,,,,,,,SCT,800,BKN,3700,,,,,VFR,,,,,,,,,,,,METAR,5.0
LFTW 021730Z AUTO 21004KT CAVOK 23/15 Q1013 BECMG 36014KT,LFTW,2023-06-02T17:30:00Z,43.75,4.42,23.0,15.0,210,4,,6.21,29.911417,,,TRUE,,,,,,,,CAVOK,,,,,,,,VFR,,,,,,,,,,,,METAR,91.0
LFTH 021730Z AUTO 22009KT CAVOK 22/18 Q1013 NOSIG,LFTH,2023-06-02T17:30:00Z,43.1,6.15,22.0,18.0,220,9,,6.21,29.911417,,,TRUE,,,TRUE,,,,,CAVOK,,,,,,,,VFR,,,,,,,,,,,,METAR,3.0
LFSX 021730Z AUTO 36008KT CAVOK 24/11 Q1013,LFSX,2023-06-02T17:30:00Z,47.77,6.35,24.0,11.0,360,8,,6.21,29.911417,,,TRUE,,,,,,,,CAVOK,,,,,,,,VFR,,,,,,,,,,,,METAR,266.0
LFST 021730Z AUTO 03014KT CAVOK 23/08 Q1015 NOSIG,LFST,2023-06-02T17:30:00Z,48.53,7.63,23.0,8.0,30,14,,6.21,29.970472,,,TRUE,,,TRUE,,,,,CAVOK,,,,,,,,VFR,,,,,,,,,,,,METAR,149.0
LFSO 021730Z AUTO 02010KT 350V050 8000 NSC 22/08 Q1015,LFSO,2023-06-02T17:30:00Z,48.57,5.97,22.0,8.0,20,10,,4.97,29.970472,,,TRUE,,,,,,,,CLR,,,,,,,,MVFR,,,,,,,,,,,,METAR,328.0
LFSN 021730Z AUTO 01009KT 340V040 CAVOK 23/08 Q1015,LFSN,2023-06-02T17:30:00Z,48.68,6.22,23.0,8.0,10,9,,6.21,29.970472,,,TRUE,,,,,,,,CAVOK,,,,,,,,VFR,,,,,,,,,,,,METAR,214.0
LFSM 021730Z AUTO 05011KT 020V080 CAVOK 24/09 Q1013,LFSM,2023-06-02T17:30:00Z,47.48,6.78,24.0,9.0,50,11,,6.21,29.911417,,,TRUE,,,,,,,,CAVOK,,,,,,,,VFR,,,,,,,,,,,,METAR,317.0
LFSL 021730Z AUTO 36006KT 9999 -RA VCTS ///CB 20/15 Q1014 TEMPO VRB15G30KT 3000 SHRA,LFSL,2023-06-02T17:30:00Z,45.03,1.48,20.0,15.0,360,6,,6.21,29.940945,,,TRUE,,,,,,,-RA VCTS,,,,,,,,,,,,,,,,,,,,,METAR,300.0
LFSI 021730Z AUTO 03010KT 360V060 CAVOK 23/09 Q1015,LFSI,2023-06-02T17:30:00Z,48.62,4.9,23.0,9.0,30,10,,6.21,29.970472,,,TRUE,,,,,,,,CAVOK,,,,,,,,VFR,,,,,,,,,,,,METAR,136.0
LFSG 021730Z AUTO 01010KT CAVOK 21/09 Q1015,LFSG,2023-06-02T17:30:00Z,48.33,6.07,21.0,9.0,10,10,,6.21,29.970472,,,TRUE,,,,,,,,CAVOK,,,,,,,,VFR,,,,,,,,,,,,METAR,320.0
LFSD 021730Z AUTO 04011KT CAVOK 25/09 Q1013,LFSD,2023-06-02T17:30:00Z,47.27,5.08,25.0,9.0,40,11,,6.21,29.911417,,,TRUE,,,,,,,,CAVOK,,,,,,,,VFR,,,,,,,,,,,,METAR,218.0
LFSB 021730Z AUTO 36012KT 9999 FEW013 23/09 Q1013 TEMPO FEW060CB,LFSB,2023-06-02T17:30:00Z,47.6,7.52,23.0,9.0,360,12,,6.21,29.911417,,,TRUE,,,,,,,,FEW,1300,,,,,,,VFR,,,,,,,,,,,,METAR,262.0
LFRZ 021730Z AUTO 03011KT 360V060 CAVOK 24/12 Q1015 NOSIG,LFRZ,2023-06-02T17:30:00Z,47.32,-2.17,24.0,12.0,30,11,,6.21,29.970472,,,TRUE,,,TRUE,,,,,CAVOK,,,,,,,,VFR,,,,,,,,,,,,METAR,2.0
LFRV 021730Z AUTO 02010KT 350V050 CAVOK 21/12 Q1016,LFRV,2023-06-02T17:30:00Z,47.72,-2.72,21.0,12.0,20,10,,6.21,30.0,,,TRUE,,,,,,,,CAVOK,,,,,,,,VFR,,,,,,,,,,,,METAR,132.0
LFRU 021730Z AUTO 04014KT 010V070 9999 BKN023 15/10 Q1019,LFRU,2023-06-02T17:30:00Z,48.6,-3.82,15.0,10.0,40,14,,6.21,30.088583,,,TRUE,,,,,,,,BKN,2300,,,,,,,MVFR,,,,,,,,,,,,METAR,85.0
LFRT 021730Z AUTO 04014KT 9999 BKN017 14/09 Q1019,LFRT,2023-06-02T17:30:00Z,48.53,-2.85,14.0,9.0,40,14,,6.21,30.088583,,,TRUE,,,,,,,,BKN,1700,,,,,,,MVFR,,,,,,,,,,,,METAR,134.0
LFRS 021730Z AUTO 06011KT 020V080 CAVOK 24/11 Q1015 NOSIG,LFRS,2023-06-02T17:30:00Z,47.17,-1.6,24.0,11.0,60,11,,6.21,29.970472,,,TRUE,,,TRUE,,,,,CAVOK,,,,,,,,VFR,,,,,,,,,,,,METAR,26.0
LFRQ 021730Z AUTO 04013KT CAVOK 20/10 Q1017 TEMPO 05015G25KT,LFRQ,2023-06-02T17:30:00Z,47.97,-4.17,20.0,10.0,40,13,,6.21,30.029528,,,TRUE,,,,,,,,CAVOK,,,,,,,,VFR,,,,,,,,,,,,METAR,94.0
LFRO 021730Z AUTO 05008KT 360V120 9999 BKN021 14/09 Q1020,LFRO,2023-06-02T17:30:00Z,48.75,-3.47,14.0,9.0,50,8,,6.21,30.11811,,,TRUE,,,,,,,,BKN,2100,,,,,,,MVFR,,,,,,,,,,,,METAR,86.0
LFRN 021730Z AUTO 01010KT 330V040 CAVOK 22/11 Q1017 NOSIG,LFRN,2023-06-02T17:30:00Z,48.07,-1.73,22.0,11.0,10,10,,6.21,30.029528,,,TRUE,,,TRUE,,,,,CAVOK,,,,,,,,VFR,,,,,,,,,,,,METAR,35.0
LFRM 021730Z AUTO 02011KT 340V060 CAVOK 23/08 Q1016 NOSIG,LFRM,2023-06-02T17:30:00Z,47.95,0.2,23.0,8.0,20,11,,6.21,30.0,,,TRUE,,,TRUE,,,,,CAVOK,,,,,,,,VFR,,,,,,,,,,,,METAR,51.0
LFRL 021730Z AUTO 03011KT 010V070 CAVOK 17/11 Q1018 TEMPO 05015G25KT,LFRL,2023-06-02T17:30:00Z,48.27,-4.43,17.0,11.0,30,11,,6.21,30.059055,,,TRUE,,,,,,,,CAVOK,,,,,,,,VFR,,,,,,,,,,,,METAR,80.0
LFRK 021730Z AUTO 02014KT 350V060 8000 NSC 13/09 Q1020 TEMPO 03017G27KT,LFRK,2023-06-02T17:30:00Z,49.17,-0.45,13.0,9.0,20,14,,4.97,30.11811,,,TRUE,,,,,,,,CLR,,,,,,,,MVFR,,,,,,,,,,,,METAR,66.0
LFRJ 021730Z AUTO 04018KT CAVOK 14/10 Q1019,LFRJ,2023-06-02T17:30:00Z,48.52,-4.15,14.0,10.0,40,18,,6.21,30.088583,,,TRUE,,,,,,,,CAVOK,,,,,,,,VFR,,,,,,,,,,,,METAR,109.0
LFRI 021730Z AUTO 04010KT 010V070 CAVOK 24/11 Q1014 NOSIG,LFRI,2023-06-02T17:30:00Z,46.7,-1.37,24.0,11.0,40,10,,6.21,29.940945,,,TRUE,,,TRUE,,,,,CAVOK,,,,,,,,VFR,,,,,,,,,,,,METAR,89.0
LFRH 021730Z AUTO 04014KT CAVOK 20/11 Q1017 NOSIG,LFRH,2023-06-02T17:30:00Z,47.77,-3.45,20.0,11.0,40,14,,6.21,30.029528,,,TRUE,,,TRUE,,,,,CAVOK,,,,,,,,VFR,,,,,,,,,,,,METAR,46.0
LFRG 021730Z AUTO 04009KT 350V080 CAVOK 14/09 Q1020 TEMPO 04015G25KT,LFRG,2023-06-02T17:30:00Z,49.37,0.15,14.0,9.0,40,9,,6.21,30.11811,,,TRUE,,,,,,,,CAVOK,,,,,,,,VFR,,,,,,,,,,,,METAR,146.0
LFRD 021730Z AUTO 03012KT 360V060 CAVOK 16/10 Q1019 TEMPO 05015G25KT,LFRD,2023-06-02T17:30:00Z,48.58,-2.07,16.0,10.0,30,12,,6.21,30.088583,,,TRUE,,,,,,,,CAVOK,,,,,,,,VFR,,,,,,,,,,,,METAR,56.0
LFRC 021730Z AUTO 07016KT 040V100 CAVOK 12/08 Q1021 TEMPO 06015G25KT,LFRC,2023-06-02T17:30:00Z,49.63,-1.47,12.0,8.0,70,16,,6.21,30.147638,,,TRUE,,,,,,,,CAVOK,,,,,,,,VFR,,,,,,,,,,,,METAR,137.0
LFRB 021730Z AUTO 04016KT CAVOK 15/10 Q1019 TEMPO 05018G30KT,LFRB,2023-06-02T17:30:00Z,48.45,-4.42,15.0,10.0,40,16,,6.21,30.088583,,,TRUE,,,,,,,,CAVOK,,,,,,,,VFR,,,,,,,,,,,,METAR,91.0
LFQQ 021730Z AUTO 02013KT 9999 FEW042 18/09 Q1020 NOSIG,LFQQ,2023-06-02T17:30:00Z,50.57,3.1,18.0,9.0,20,13,,6.21,30.11811,,,TRUE,,,TRUE,,,,,FEW,4200,,,,,,,VFR,,,,,,,,,,,,METAR,43.0
LFQG 021730Z AUTO 36010KT CAVOK 23/11 Q1014,LFQG,2023-06-02T17:30:00Z,47.0,3.1,23.0,11.0,360,10,,6.21,29.940945,,,TRUE,,,,,,,,CAVOK,,,,,,,,VFR,,,,,,,,,,,,METAR,172.0
LFQB 021730Z AUTO 01010KT 350V050 CAVOK 22/10 Q1016,LFQB,2023-06-02T17:30:00Z,48.32,4.02,22.0,10.0,10,10,,6.21,30.0,,,TRUE,,,,,,,,CAVOK,,,,,,,,VFR,,,,,,,,,,,,METAR,107.0
LFQA 021730Z AUTO 01010KT CAVOK 20/09 Q1017,LFQA,2023-06-02T17:30:00Z,49.2,4.15,20.0,9.0,10,10,,6.21,30.029528,,,TRUE,,,,,,,,CAVOK,,,,,,,,VFR,,,,,,,,,,,,METAR,92.0
LFPV 021730Z AUTO 01010KT 340V060 CAVOK 19/08 Q1017 NOSIG,LFPV,2023-06-02T17:30:00Z,48.77,2.2,19.0,8.0,10,10,,6.21,30.029528,,,TRUE,,,TRUE,,,,,CAVOK,,,,,,,,VFR,,,,,,,,,,,,METAR,171.0
LFPT 021730Z AUTO 03011KT CAVOK 19/07 Q1018,LFPT,2023-06-02T17:30:00Z,49.1,2.03,19.0,7.0,30,11,,6.21,30.059055,,,TRUE,,,,,,,,CAVOK,,,,,,,,VFR,,,,,,,,,,,,METAR,91.0
LFPO 021730Z AUTO 03010KT 340V050 CAVOK 20/09 Q1017 NOSIG,LFPO,2023-06-02T17:30:00Z,48.72,2.38,20.0,9.0,30,10,,6.21,30.029528,,,TRUE,,,TRUE,,,,,CAVOK,,,,,,,,VFR,,,,,,,,,,,,METAR,88.0
LFPN 021730Z AUTO 04011KT 360V080 CAVOK 19/07 Q1017 NOSIG,LFPN,2023-06-02T17:30:00Z,48.75,2.12,19.0,7.0,40,11,,6.21,30.029528,,,TRUE,,,TRUE,,,,,CAVOK,,,,,,,,VFR,,,,,,,,,,,,METAR,152.0
LFPM 021730Z AUTO 02009KT 350V050 CAVOK 20/09 Q1017,LFPM,2023-06-02T17:30:00Z,48.62,2.67,20.0,9.0,20,9,,6.21,30.029528,,,TRUE,,,,,,,,CAVOK,,,,,,,,VFR,,,,,,,,,,,,METAR,91.0
LFPG 021730Z 02012KT 350V080 CAVOK 19/08 Q1018 NOSIG,LFPG,2023-06-02T17:30:00Z,49.02,2.53,19.0,8.0,20,12,,6.21,30.059055,,,,,,TRUE,,,,,CAVOK,,,,,,,,VFR,,,,,,,,,,,,METAR,107.0
LFPB 021730Z AUTO 01010KT 340V040 CAVOK 19/08 Q1018 NOSIG,LFPB,2023-06-02T17:30:00Z,48.97,2.42,19.0,8.0,10,10,,6.21,30.059055,,,TRUE,,,TRUE,,,,,CAVOK,,,,,,,,VFR,,,,,,,,,,,,METAR,50.0
LFOZ 021730Z AUTO 04009KT 010V070 CAVOK 21/09 Q1016,LFOZ,2023-06-02T17:30:00Z,47.9,2.17,21.0,9.0,40,9,,6.21,30.0,,,TRUE,,,,,,,,CAVOK,,,,,,,,VFR,,,,,,,,,,,,METAR,121.0
LFOV 021730Z AUTO 03012KT CAVOK 22/10 Q1016,LFOV,2023-06-02T17:30:00Z,48.03,-0.75,22.0,10.0,30,12,,6.21,30.0,,,TRUE,,,,,,,,CAVOK,,,,,,,,VFR,,,,,,,,,,,,METAR,99.0
LFOT 021730Z AUTO 05010KT 010V080 9000 NSC 22/10 Q1016 NOSIG,LFOT,2023-06-02T17:30:00Z,47.43,0.72,22.0,10.0,50,10,,5.59,30.0,,,TRUE,,,TRUE,,,,,CLR,,,,,,,,VFR,,,,,,,,,,,,METAR,107.0
LFOP 021730Z AUTO 02012KT CAVOK 17/08 Q1019 NOSIG,LFOP,2023-06-02T17:30:00Z,49.37,1.17,17.0,8.0,20,12,,6.21,30.088583,,,TRUE,,,TRUE,,,,,CAVOK,,,,,,,,VFR,,,,,,,,,,,,METAR,149.0
LFOK 021730Z AUTO 36015KT CAVOK 20/10 Q1016 NOSIG,LFOK,2023-06-02T17:30:00Z,48.78,4.15,20.0,10.0,360,15,,6.21,30.0,,,TRUE,,,TRUE,,,,,CAVOK,,,,,,,,VFR,,,,,,,,,,,,METAR,166.0
LFOJ 021730Z AUTO 03014KT CAVOK 21/08 Q1016 NOSIG,LFOJ,2023-06-02T17:30:00Z,47.98,1.75,21.0,8.0,30,14,,6.21,30.0,,,TRUE,,,TRUE,,,,,CAVOK,,,,,,,,VFR,,,,,,,,,,,,METAR,122.0
LFOH 021730Z AUTO 04019KT CAVOK 13/08 Q1020 NOSIG,LFOH,2023-06-02T17:30:00Z,49.52,0.08,13.0,8.0,40,19,,6.21,30.11811,,,TRUE,,,TRUE,,,,,CAVOK,,,,,,,,VFR,,,,,,,,,,,,METAR,87.0
LFOE 021730Z AUTO 03010KT 360V060 CAVOK 19/08 Q1018 NOSIG,LFOE,2023-06-02T17:30:00Z,49.02,1.22,19.0,8.0,30,10,,6.21,30.059055,,,TRUE,,,TRUE,,,,,CAVOK,,,,,,,,VFR,,,,,,,,,,,,METAR,132.0
LFOB 021730Z AUTO 03013KT CAVOK 18/08 Q1018 NOSIG,LFOB,2023-06-02T17:30:00Z,49.47,2.12,18.0,8.0,30,13,,6.21,30.059055,,,TRUE,,,TRUE,,,,,CAVOK,,,,,,,,VFR,,,,,,,,,,,,METAR,99.0
LFOA 021730Z AUTO 02013KT CAVOK 24/12 Q1014,LFOA,2023-06-02T17:30:00Z,47.05,2.63,24.0,12.0,20,13,,6.21,29.940945,,,TRUE,,,,,,,,CAVOK,,,,,,,,VFR,,,,,,,,,,,,METAR,174.0
LFMY 021730Z AUTO 21005KT 9999 ////// 23/15 Q1013,LFMY,2023-06-02T17:30:00Z,43.6,5.1,23.0,15.0,210,5,,6.21,29.911417,,,TRUE,,,,,,,,,,,,,,,,,,,,,,,,,,,,METAR,57.0
LFMV 021730Z AUTO VRB01KT CAVOK 23/16 Q1013 NOSIG,LFMV,2023-06-02T17:30:00Z,43.9,4.9,23.0,16.0,0,1,,6.21,29.911417,,,TRUE,,,TRUE,,,,,CAVOK,,,,,,,,VFR,,,,,,,,,,,,METAR,33.0
LFMU 021730Z AUTO 16007KT 140V200 CAVOK 23/17 Q1012 NOSIG,LFMU,2023-06-02T17:30:00Z,43.32,3.35,23.0,17.0,160,7,,6.21,29.88189,,,TRUE,,,TRUE,,,,,CAVOK,,,,,,,,VFR,,,,,,,,,,,,METAR,14.0
LFMT 021730Z AUTO 17005KT CAVOK 22/17 Q1012 NOSIG,LFMT,2023-06-02T17:30:00Z,43.57,3.97,22.0,17.0,170,5,,6.21,29.88189,,,TRUE,,,TRUE,,,,,CAVOK,,,,,,,,VFR,,,,,,,,,,,,METAR,1.0
LFMP 021730Z AUTO 08008KT CAVOK 23/15 Q1012 NOSIG,LFMP,2023-06-02T17:30:00Z,42.73,2.87,23.0,15.0,80,8,,6.21,29.88189,,,TRUE,,,TRUE,,,,,CAVOK,,,,,,,,VFR,,,,,,,,,,,,METAR,41.0
LFMO 021730Z AUTO 34004KT 300V360 CAVOK 20/19 Q1013 TEMPO VRB15KT 2000 TSRA BKN030CB,LFMO,2023-06-02T17:30:00Z,44.13,4.87,20.0,19.0,340,4,,6.21,29.911417,,,TRUE,,,,,,,,CAVOK,,,,,,,,VFR,,,,,,,,,,,,SPECI,56.0
LFMN 021730Z 20009KT CAVOK 22/18 Q1012 NOSIG,LFMN,2023-06-02T17:30:00Z,43.65,7.2,22.0,18.0,200,9,,6.21,29.88189,,,,,,TRUE,,,,,CAVOK,,,,,,,,VFR,,,,,,,,,,,,METAR,4.0
LFML 021730Z AUTO 29004KT CAVOK 23/16 Q1013 NOSIG,LFML,2023-06-02T17:30:00Z,43.45,5.22,23.0,16.0,290,4,,6.21,29.911417,,,TRUE,,,TRUE,,,,,CAVOK,,,,,,,,VFR,,,,,,,,,,,,METAR,20.0
LFMK 021730Z AUTO VRB02KT CAVOK 24/16 Q1012 NOSIG,LFMK,2023-06-02T17:30:00Z,43.22,2.32,24.0,16.0,0,2,,6.21,29.88189,,,TRUE,,,TRUE,,,,,CAVOK,,,,,,,,VFR,,,,,,,,,,,,METAR,124.0
LFMI 021730Z AUTO 17006KT CAVOK 23/16 Q1013 NOSIG,LFMI,2023-06-02T17:30:00Z,43.52,4.93,23.0,16.0,170,6,,6.21,29.911417,,,TRUE,,,TRUE,,,,,CAVOK,,,,,,,,VFR,,,,,,,,,,,,METAR,20.0
LFMH 021730Z AUTO 26004KT 220V330 9999 TS ///CB 21/13 Q1013,LFMH,2023-06-02T17:30:00Z,45.52,4.28,21.0,13.0,260,4,,6.21,29.911417,,,TRUE,,,,,,,TS,,,,,,,,,,,,,,,,,,,,,METAR,400.0
LFMD 021730Z AUTO 17007KT CAVOK 24/16 Q1012 NOSIG,LFMD,2023-06-02T17:30:00Z,43.53,6.95,24.0,16.0,170,7,,6.21,29.88189,,,TRUE,,,TRUE,,,,,CAVOK,,,,,,,,VFR,,,,,,,,,,,,METAR,2.0
LFMC 021730Z AUTO 30006KT 9999 ////// 22/17 Q1012,LFMC,2023-06-02T17:30:00Z,43.37,6.38,22.0,17.0,300,6,,6.21,29.88189,,,TRUE,,,,,,,,,,,,,,,,,,,,,,,,,,,,METAR,79.0
LFLY 021730Z AUTO 01009KT 340V050 CAVOK 26/12 Q1012 TEMPO VRB15G30KT 4000 TSRA BKN060CB,LFLY,2023-06-02T17:30:00Z,45.72,4.95,26.0,12.0,10,9,,6.21,29.88189,,,TRUE,,,,,,,,CAVOK,,,,,,,,VFR,,,,,,,,,,,,METAR,197.0
LFLX 021730Z AUTO 03011KT CAVOK 24/12 Q1014 NOSIG,LFLX,2023-06-02T17:30:00Z,46.87,1.73,24.0,12.0,30,11,,6.21,29.940945,,,TRUE,,,TRUE,,,,,CAVOK,,,,,,,,VFR,,,,,,,,,,,,METAR,157.0
LFLW 021730Z AUTO VRB02KT 9999 ///CB 17/14 Q1015 BECMG NSC,LFLW,2023-06-02T17:30:00Z,44.88,2.42,17.0,14.0,0,2,,6.21,29.970472,,,TRUE,,,,,,,,,,,,,,,,,,,,,,,,,,,,METAR,638.0
LFLV 021730Z AUTO 01010KT CAVOK 25/13 Q1013,LFLV,2023-06-02T17:30:00Z,46.17,3.38,25.0,13.0,10,10,,6.21,29.911417,,,TRUE,,,,,,,,CAVOK,,,,,,,,VFR,,,,,,,,,,,,METAR,248.0
LFLU 021730Z AUTO 14004KT 080V140 5000 TSRA BR FEW013/// SCT039/// BKN060/// ///CB 16/15 Q1015,LFLU,2023-06-02T17:30:00Z,44.92,4.98,16.0,15.0,140,4,,3.11,29.970472,,,TRUE,,,,,,,TSRA BR,FEW,1300,SCT,3900,BKN,6000,,,MVFR,,,,,,,,,,,,METAR,162.0
LFLP 021730Z AUTO 11005KT 080V160 CAVOK 19/13 Q1014 TEMPO VRB15G30KT 2500 TSRA BKN045CB,LFLP,2023-06-02T17:30:00Z,45.92,6.1,19.0,13.0,110,5,,6.21,29.940945,,,TRUE,,,,,,,,CAVOK,,,,,,,,VFR,,,,,,,,,,,,METAR,460.0
LFLN 021730Z AUTO 03008KT CAVOK 25/12 Q1013 TEMPO SCT070TCU,LFLN,2023-06-02T17:30:00Z,46.42,4.02,25.0,12.0,30,8,,6.21,29.911417,,,TRUE,,,,,,,,CAVOK,,,,,,,,VFR,,,,,,,,,,,,METAR,238.0
LFLL 021730Z 02009KT 9999 FEW060CB FEW060 SCT086 BKN260 25/13 Q1012 TEMPO VRB10KT,LFLL,2023-06-02T17:30:00Z,45.72,5.07,25.0,13.0,20,9,,6.21,29.88189,,,,,,,,,,,FEW,6000,FEW,6000,SCT,8600,BKN,26000,VFR,,,,,,,,,,,,METAR,234.0
LFLH 021730Z AUTO 04008KT 360V080 CAVOK 26/10 Q1013,LFLH,2023-06-02T17:30:00Z,46.83,4.82,26.0,10.0,40,8,,6.21,29.911417,,,TRUE,,,,,,,,CAVOK,,,,,,,,VFR,,,,,,,,,,,,METAR,190.0
LFLC 021730Z AUTO 01010KT 340V050 9999 ///CB 26/12 Q1013 TEMPO VRB15G25KT 4000 TSRA,LFLC,2023-06-02T17:30:00Z,45.78,3.17,26.0,12.0,10,10,,6.21,29.911417,,,TRUE,,,,,,,,,,,,,,,,,,,,,,,,,,,,METAR,325.0
LFLB 021730Z AUTO 17009KT 9999 -RA ///CB 19/15 Q1012 TEMPO VRB15G30KT 2500 TSRA BECMG NSC,LFLB,2023-06-02T17:30:00Z,45.63,5.87,19.0,15.0,170,9,,6.21,29.88189,,,TRUE,,,,,,,-RA,,,,,,,,,,,,,,,,,,,,,METAR,234.0
LFKS 021730Z AUTO 16005KT 130V190 9999 //////CB 21/17 Q1013,LFKS,2023-06-02T17:30:00Z,41.92,9.4,21.0,17.0,160,5,,6.21,29.911417,,,TRUE,,,,,,,,,,,,,,,,,,,,,,,,,,,,METAR,22.0
LFKJ 021730Z AUTO 20005KT 9999 VCTS ///CB 23/16 Q1012 BECMG NSW FEW040 SCT200,LFKJ,2023-06-02T17:30:00Z,41.92,8.8,23.0,16.0,200,5,,6.21,29.88189,,,TRUE,,,,,,,VCTS,,,,,,,,,,,,,,,,,,,,,METAR,9.0
LFKF 021730Z AUTO 21006KT 160V240 CAVOK 23/13 Q1012 NOSIG,LFKF,2023-06-02T17:30:00Z,41.5,9.08,23.0,13.0,210,6,,6.21,29.88189,,,TRUE,,,TRUE,,,,,CAVOK,,,,,,,,VFR,,,,,,,,,,,,METAR,15.0
LFKC 021730Z AUTO 34006KT 310V020 9999 ///CB 21/16 Q1013 BECMG SCT035 BKN120,LFKC,2023-06-02T17:30:00Z,42.52,8.8,21.0,16.0,340,6,,6.21,29.911417,,,TRUE,,,,,,,,,,,,,,,,,,,,,,,,,,,,METAR,38.0
LFKB 021730Z AUTO 06007KT 9999 VCTS FEW030/// SCT037/// BKN043/// ///CB 23/17 Q1013 BECMG NSW FEW040,LFKB,2023-06-02T17:30:00Z,42.55,9.48,23.0,17.0,60,7,,6.21,29.911417,,,TRUE,,,,,,,VCTS,FEW,3000,SCT,3700,BKN,4300,,,VFR,,,,,,,,,,,,METAR,7.0
LFJR 021730Z AUTO 04008KT 360V080 CAVOK 23/10 Q1015,LFJR,2023-06-02T17:30:00Z,47.57,-0.32,23.0,10.0,40,8,,6.21,29.970472,,,TRUE,,,,,,,,CAVOK,,,,,,,,VFR,,,,,,,,,,,,METAR,50.0
LFJL 021730Z AUTO 36012KT CAVOK 22/08 Q1016 NOSIG,LFJL,2023-06-02T17:30:00Z,48.97,6.25,22.0,8.0,360,12,,6.21,30.0,,,TRUE,,,TRUE,,,,,CAVOK,,,,,,,,VFR,,,,,,,,,,,,METAR,259.0
LFHP 021730Z AUTO 31009KT 9999 VCTS SCT048/// BKN056/// OVC100/// ///CB 17/11 Q1015,LFHP,2023-06-02T17:30:00Z,45.07,3.77,17.0,11.0,310,9,,6.21,29.970472,,,TRUE,,,,,,,VCTS,SCT,4800,BKN,5600,OVC,10000,,,VFR,,,,,,,,,,,,METAR,829.0
LFGJ 021730Z AUTO 01011KT CAVOK 24/11 Q1013,LFGJ,2023-06-02T17:30:00Z,47.05,5.43,24.0,11.0,10,11,,6.21,29.911417,,,TRUE,,,,,,,,CAVOK,,,,,,,,VFR,,,,,,,,,,,,METAR,191.0
LFGA 021730Z AUTO 02013KT CAVOK 23/08 Q1014,LFGA,2023-06-02T17:30:00Z,48.1,7.35,23.0,8.0,20,13,,6.21,29.940945,,,TRUE,,,,,,,,CAVOK,,,,,,,,VFR,,,,,,,,,,,,METAR,191.0
LFCR 021730Z AUTO 03007KT 350V050 CAVOK 17/13 Q1014 TEMPO TS BECMG FEW045CB SCT080,LFCR,2023-06-02T17:30:00Z,44.4,2.47,17.0,13.0,30,7,,6.21,29.940945,,,TRUE,,,,,,,,CAVOK,,,,,,,,VFR,,,,,,,,,,,,SPECI,576.0
LFCK 021730Z AUTO 13006KT CAVOK 21/15 Q1014 NOSIG,LFCK,2023-06-02T17:30:00Z,43.55,2.28,21.0,15.0,130,6,,6.21,29.940945,,,TRUE,,,TRUE,,,,,CAVOK,,,,,,,,VFR,,,,,,,,,,,,METAR,223.0
LFBZ 021730Z AUTO 35006KT CAVOK 22/17 Q1012 TEMPO 08020G30KT 3000 SHRA BKN040CB,LFBZ,2023-06-02T17:30:00Z,43.47,-1.53,22.0,17.0,350,6,,6.21,29.88189,,,TRUE,,,,,,,,CAVOK,,,,,,,,VFR,,,,,,,,,,,,METAR,70.0
LFBY 021730Z AUTO 19006KT 160V220 9999 // ////// 24/17 Q1011,LFBY,2023-06-02T17:30:00Z,43.68,-1.07,24.0,17.0,190,6,,6.21,29.852362,,,TRUE,,,,,,,,,,,,,,,,,,,,,,,,,,,,METAR,32.0
LFBX 021730Z AUTO VRB03KT 9999 VCTS ///CB 26/16 Q1012,LFBX,2023-06-02T17:30:00Z,45.2,0.82,26.0,16.0,0,3,,6.21,29.88189,,,TRUE,,,,,,,VCTS,,,,,,,,,,,,,,,,,,,,,METAR,97.0
LFBU 021730Z AUTO 02009KT CAVOK 26/14 Q1013 TEMPO VRB15G25KT SCT050CB,LFBU,2023-06-02T17:30:00Z,45.72,0.22,26.0,14.0,20,9,,6.21,29.911417,,,TRUE,,,,,,,,CAVOK,,,,,,,,VFR,,,,,,,,,,,,METAR,124.0
LFBT 021730Z AUTO 20006KT 9999 TS FEW100/// //////CB 21/16 Q1013 TEMPO VRB15G30KT 3000 SHRA,LFBT,2023-06-02T17:30:00Z,43.18,0.0,21.0,16.0,200,6,,6.21,29.911417,,,TRUE,,,,,,,TS,FEW,10000,,,,,,,VFR,,,,,,,,,,,,METAR,359.0
LFBP 021730Z AUTO 00000KT 9999 ///CB 20/17 Q1012 TEMPO VRB15G25KT 3000 SHRA,LFBP,2023-06-02T17:30:00Z,43.38,-0.42,20.0,17.0,0,0,,6.21,29.88189,,,TRUE,,,,,,,,,,,,,,,,,,,,,,,,,,,,METAR,182.0
LFBO 021730Z AUTO 06007KT 030V090 CAVOK 22/15 Q1012 TEMPO TS BECMG FEW060CB,LFBO,2023-06-02T17:30:00Z,43.62,1.37,22.0,15.0,60,7,,6.21,29.88189,,,TRUE,,,,,,,,CAVOK,,,,,,,,VFR,,,,,,,,,,,,METAR,150.0
LFBM 021730Z AUTO 13004KT 080V170 9999 VCTS ///CB 28/15 Q1011 TEMPO 3000 -TSRA,LFBM,2023-06-02T17:30:00Z,43.92,-0.5,28.0,15.0,130,4,,6.21,29.852362,,,TRUE,,,,,,,VCTS,,,,,,,,,,,,,,,,,,,,,METAR,56.0
LFBL 021730Z AUTO 02008KT CAVOK 24/12 Q1014 TEMPO VRB15G25KT 3000 TSRA BKN050CB,LFBL,2023-06-02T17:30:00Z,45.87,1.17,24.0,12.0,20,8,,6.21,29.940945,,,TRUE,,,,,,,,CAVOK,,,,,,,,VFR,,,,,,,,,,,,METAR,402.0
LFBI 021730Z AUTO 04010KT 360V060 CAVOK 24/11 Q1014 NOSIG,LFBI,2023-06-02T17:30:00Z,46.58,0.32,24.0,11.0,40,10,,6.21,29.940945,,,TRUE,,,TRUE,,,,,CAVOK,,,,,,,,VFR,,,,,,,,,,,,METAR,117.0
LFBH 021730Z AUTO 04010KT CAVOK 27/11 Q1013 NOSIG,LFBH,2023-06-02T17:30:00Z,46.18,-1.2,27.0,11.0,40,10,,6.21,29.911417,,,TRUE,,,TRUE,,,,,CAVOK,,,,,,,,VFR,,,,,,,,,,,,METAR,18.0
LFBG 021730Z AUTO 03011KT 360V060 CAVOK 28/14 Q1012 TEMPO FEW070TCU,LFBG,2023-06-02T17:30:00Z,45.67,-0.32,28.0,14.0,30,11,,6.21,29.88189,,,TRUE,,,,,,,,CAVOK,,,,,,,,VFR,,,,,,,,,,,,SPECI,28.0
LFBF 021730Z AUTO 04005KT CAVOK 23/14 Q1012,LFBF,2023-06-02T17:30:00Z,43.53,1.37,23.0,14.0,40,5,,6.21,29.88189,,,TRUE,,,,,,,,CAVOK,,,,,,,,VFR,,,,,,,,,,,,METAR,159.0
LFBE 021730Z AUTO 05004KT 010V090 9999 FEW045 BKN110 BKN210 19/18 Q1012 TEMPO VRB15G25KT 3000 SHRA BKN050CB,LFBE,2023-06-02T17:30:00Z,44.82,0.52,19.0,18.0,50,4,,6.21,29.88189,,,TRUE,,,,,,,,FEW,4500,BKN,11000,BKN,21000,,,VFR,,,,,,,,,,,,SPECI,49.0
LFBD 021730Z AUTO 04011KT 9999 TS ///CB 30/13 Q1011 TEMPO VRB20G30KT 3000 SHRA,LFBD,2023-06-02T17:30:00Z,44.82,-0.7,30.0,13.0,40,11,,6.21,29.852362,,,TRUE,,,,,,,TS,,,,,,,,,,,,,,,,,,,,,METAR,48.0
LFBC 021730Z AUTO 35010KT CAVOK 29/14 Q1011,LFBC,2023-06-02T17:30:00Z,44.52,-1.12,29.0,14.0,350,10,,6.21,29.852362,,,TRUE,,,,,,,,CAVOK,,,,,,,,VFR,,,,,,,,,,,,METAR,22.0
LFBA 021730Z AUTO 14002KT 9999 //////TCU 20/17 Q1012 TEMPO VRB15G25KT 4000 TSRA BECMG FEW050CB SCT080,LFBA,2023-06-02T17:30:00Z,44.17,0.6,20.0,17.0,140,2,,6.21,29.88189,,,TRUE,,,,,,,,,,,,,,,,,,,,,,,,,,,,METAR,68.0
LFAT 021730Z AUTO 04012KT 9999 OVC026 14/08 Q1021 NOSIG,LFAT,2023-06-02T17:30:00Z,50.52,1.62,14.0,8.0,40,12,,6.21,30.147638,,,TRUE,,,TRUE,,,,,OVC,2600,,,,,,,MVFR,,,,,,,,,,,,METAR,2.0
LFAQ 021730Z AUTO 03013KT CAVOK 17/07 Q1019,LFAQ,2023-06-02T17:30:00Z,49.97,2.7,17.0,7.0,30,13,,6.21,30.088583,,,TRUE,,,,,,,,CAVOK,,,,,,,,VFR,,,,,,,,,,,,METAR,107.0
LFAC 021730Z AUTO 03016KT 9999 SCT015 OVC031 13/10 Q1022,LFAC,2023-06-02T17:30:00Z,50.97,1.95,13.0,10.0,30,16,,6.21,30.177166,,,TRUE,,,,,,,,SCT,1500,OVC,3100,,,,,VFR,,,,,,,,,,,,METAR,3.0
LEZL 021730Z 14004KT 100V160 9999 -TSRA FEW030CB 24/16 Q1010 NOSIG,LEZL,2023-06-02T17:30:00Z,37.42,-5.9,24.0,16.0,140,4,,6.21,29.822834,,,,,,TRUE,,,,-TSRA,FEW,3000,,,,,,,VFR,,,,,,,,,,,,METAR,26.0
LEZG 021730Z 11004KT 070V180 9999 FEW040 28/03 Q1011,LEZG,2023-06-02T17:30:00Z,41.67,-1.02,28.0,3.0,110,4,,6.21,29.852362,,,,,,,,,,,FEW,4000,,,,,,,VFR,,,,,,,,,,,,METAR,245.0
LEXJ 021730Z 06004KT 350V160 CAVOK 24/16 Q1012,LEXJ,2023-06-02T17:30:00Z,43.42,-3.82,24.0,16.0,60,4,,6.21,29.88189,,,,,,,,,,,CAVOK,,,,,,,,VFR,,,,,,,,,,,,METAR,1.0
LEVX 021730Z 28007KT CAVOK 21/16 Q1012 NOSIG,LEVX,2023-06-02T17:30:00Z,42.23,-8.62,21.0,16.0,280,7,,6.21,29.88189,,,,,,TRUE,,,,,CAVOK,,,,,,,,VFR,,,,,,,,,,,,METAR,253.0
LEVT 021730Z 02004KT 9999 FEW055 17/15 Q1013,LEVT,2023-06-02T17:30:00Z,42.87,-2.72,17.0,15.0,20,4,,6.21,29.911417,,,,,,,,,,,FEW,5500,,,,,,,VFR,,,,,,,,,,,,METAR,501.0
LEVS 021730Z 27004KT 210V310 9999 VCTS FEW050CB SCT070 18/13 Q1012 RESHRA,LEVS,2023-06-02T17:30:00Z,40.37,-3.78,18.0,13.0,270,4,,6.21,29.88189,,,,,,,,,,VCTS,FEW,5000,SCT,7000,,,,,VFR,,,,,,,,,,,,METAR,683.0
LEVD 021730Z 05007KT 9999 FEW040CB 19/12 Q1013,LEVD,2023-06-02T17:30:00Z,41.72,-4.85,19.0,12.0,50,7,,6.21,29.911417,,,,,,,,,,,FEW,4000,,,,,,,VFR,,,,,,,,,,,,METAR,844.0
LEVC 021730Z 11008KT 070V140 9999 FEW035 23/16 Q1012 NOSIG,LEVC,2023-06-02T17:30:00Z,39.5,-0.47,23.0,16.0,110,8,,6.21,29.88189,,,,,,TRUE,,,,,FEW,3500,,,,,,,VFR,,,,,,,,,,,,METAR,58.0
LETU 021730Z AUTO 05004KT 010V100 9999 //////CB 27/M19 Q1011,LETU,2023-06-02T17:30:00Z,,,27.0,-19.0,50,4,,6.21,29.852362,,,TRUE,,,,,,,,,,,,,,,,,,,,,,,,,,,,METAR,
LETL 021730Z AUTO 13006KT 090V160 CAVOK 17/11 Q1014,LETL,2023-06-02T17:30:00Z,40.42,-1.22,17.0,11.0,130,6,,6.21,29.940945,,,TRUE,,,,,,,,CAVOK,,,,,,,,VFR,,,,,,,,,,,,METAR,1024.0
LESU 021730Z 08006KT 9999 SCT071CB BKN097 18/11 Q1014,LESU,2023-06-02T17:30:00Z,42.33,1.4,18.0,11.0,80,6,,6.21,29.940945,,,,,,,,,,,SCT,7100,BKN,9700,,,,,VFR,,,,,,,,,,,,METAR,802.0
LEST 021730Z 36007KT 9999 FEW035 FEW060CB 21/15 Q1013 NOSIG,LEST,2023-06-02T17:30:00Z,42.88,-8.42,21.0,15.0,360,7,,6.21,29.911417,,,,,,TRUE,,,,,FEW,3500,FEW,6000,,,,,VFR,,,,,,,,,,,,METAR,363.0
LESO 021730Z 05005KT 020V100 CAVOK 23/16 Q1012,LESO,2023-06-02T17:30:00Z,43.35,-1.8,23.0,16.0,50,5,,6.21,29.88189,,,,,,,,,,,CAVOK,,,,,,,,VFR,,,,,,,,,,,,METAR,3.0
LESB 021730Z AUTO 21009KT 9999 FEW036/// 23/15 Q1012,LESB,2023-06-02T17:30:00Z,39.6,2.7,23.0,15.0,210,9,,6.21,29.88189,,,TRUE,,,,,,,,FEW,3600,,,,,,,VFR,,,,,,,,,,,,METAR,48.0
LESA 021730Z 10005KT 030V150 9999 FEW035 21/12 Q1013,LESA,2023-06-02T17:30:00Z,40.95,-5.5,21.0,12.0,100,5,,6.21,29.911417,,,,,,,,,,,FEW,3500,,,,,,,VFR,,,,,,,,,,,,METAR,788.0
LERT 021730Z 18007KT 140V220 9999 FEW022 23/17 Q1010 NOSIG,LERT,2023-06-02T17:30:00Z,36.63,-6.33,23.0,17.0,180,7,,6.21,29.822834,,,,,,TRUE,,,,,FEW,2200,,,,,,,VFR,,,,,,,,,,,,METAR,27.0
LERS 021730Z 17004KT 110V230 9999 FEW030 21/17 Q1012,LERS,2023-06-02T17:30:00Z,41.13,1.17,21.0,17.0,170,4,,6.21,29.88189,,,,,,,,,,,FEW,3000,,,,,,,VFR,,,,,,,,,,,,METAR,68.0
LERI 021730Z 06006KT 9999 FEW035 22/15 Q1012 NOSIG,LERI,2023-06-02T17:30:00Z,37.95,-1.22,22.0,15.0,60,6,,6.21,29.88189,,,,,,TRUE,,,,,FEW,3500,,,,,,,VFR,,,,,,,,,,,,METAR,74.0
LEPP 021730Z 05011KT 010V080 9999 FEW060CB 23/13 Q1012,LEPP,2023-06-02T17:30:00Z,42.77,-1.65,23.0,13.0,50,11,,6.21,29.88189,,,,,,,,,,,FEW,6000,,,,,,,VFR,,,,,,,,,,,,METAR,448.0
LEPA 021730Z 23008KT 9999 FEW035TCU 23/16 Q1012 BECMG NSC,LEPA,2023-06-02T17:30:00Z,39.55,2.73,23.0,16.0,230,8,,6.21,29.88189,,,,,,,,,,,FEW,3500,,,,,,,VFR,,,,,,,,,,,,METAR,8.0
LEMO 021730Z 20010KT 160V230 9999 FEW050TCU 23/12 Q1010 NOSIG,LEMO,2023-06-02T17:30:00Z,37.17,-5.62,23.0,12.0,200,10,,6.21,29.822834,,,,,,TRUE,,,,,FEW,5000,,,,,,,VFR,,,,,,,,,,,,METAR,82.0
LEMI 021730Z 11007KT 9999 FEW015 20/16 Q1013,LEMI,2023-06-02T17:30:00Z,37.8,-1.12,20.0,16.0,110,7,,6.21,29.911417,,,,,,,,,,,FEW,1500,,,,,,,VFR,,,,,,,,,,,,METAR,193.0
LEMH 021730Z 18006KT 130V240 9999 FEW023 21/16 Q1013,LEMH,2023-06-02T17:30:00Z,39.87,4.22,21.0,16.0,180,6,,6.21,29.911417,,,,,,,,,,,FEW,2300,,,,,,,VFR,,,,,,,,,,,,METAR,82.0
LEMG 021730Z 12007KT 9999 FEW018 FEW050TCU 21/17 Q1012 NOSIG,LEMG,2023-06-02T17:30:00Z,36.67,-4.47,21.0,17.0,120,7,,6.21,29.88189,,,,,,TRUE,,,,,FEW,1800,FEW,5000,,,,,VFR,,,,,,,,,,,,METAR,5.0
LEMD 021730Z 11007KT 060V160 9999 VCTS SCT060CB 22/12 Q1012 BECMG VRB15G25KT 3000 TSRA SCT040CB,LEMD,2023-06-02T17:30:00Z,40.45,-3.57,22.0,12.0,110,7,,6.21,29.88189,,,,,,,,,,VCTS,SCT,6000,,,,,,,VFR,,,,,,,,,,,,METAR,589.0
LELO 021730Z 26007KT 210V360 9999 FEW045 23/11 Q1012,LELO,2023-06-02T17:30:00Z,42.45,-2.32,23.0,11.0,260,7,,6.21,29.88189,,,,,,,,,,,FEW,4500,,,,,,,VFR,,,,,,,,,,,,METAR,352.0
LELN 021730Z 11002KT 9999 VCTS FEW050CB 23/05 Q1013,LELN,2023-06-02T17:30:00Z,42.58,-5.65,23.0,5.0,110,2,,6.21,29.911417,,,,,,,,,,VCTS,FEW,5000,,,,,,,VFR,,,,,,,,,,,,METAR,911.0
LELL 021730Z 12007KT 080V160 9999 FEW045 21/16 Q1013,LELL,2023-06-02T17:30:00Z,41.52,2.1,21.0,16.0,120,7,,6.21,29.911417,,,,,,,,,,,FEW,4500,,,,,,,VFR,,,,,,,,,,,,METAR,136.0
LELC 021730Z 08005KT 040V120 9999 BKN018 22/18 Q1012 NOSIG,LELC,2023-06-02T17:30:00Z,37.77,-0.8,22.0,18.0,80,5,,6.21,29.88189,,,,,,TRUE,,,,,BKN,1800,,,,,,,MVFR,,,,,,,,,,,,METAR,3.0
LEJR 021730Z 14008KT 100V180 9999 TS FEW040CB BKN060 26/12 Q1010,LEJR,2023-06-02T17:30:00Z,36.75,-6.07,26.0,12.0,140,8,,6.21,29.822834,,,,,,,,,,TS,FEW,4000,BKN,6000,,,,,VFR,,,,,,,,,,,,METAR,25.0
LEIB 021730Z 11005KT 070V160 9999 FEW020 22/17 Q1012 NOSIG,LEIB,2023-06-02T17:30:00Z,38.87,1.38,22.0,17.0,110,5,,6.21,29.88189,,,,,,TRUE,,,,,FEW,2000,,,,,,,VFR,,,,,,,,,,,,METAR,4.0
LEHC 021730Z AUTO 13005KT 060V230 CAVOK 25/06 Q1012,LEHC,2023-06-02T17:30:00Z,42.08,-0.32,25.0,6.0,130,5,,6.21,29.88189,,,TRUE,,,,,,,,CAVOK,,,,,,,,VFR,,,,,,,,,,,,METAR,540.0
LEGT 021730Z VRB03KT 9999 TS FEW030 SCT050CB 24/11 Q1012,LEGT,2023-06-02T17:30:00Z,40.28,-3.72,24.0,11.0,0,3,,6.21,29.88189,,,,,,,,,,TS,FEW,3000,SCT,5000,,,,,VFR,,,,,,,,,,,,METAR,619.0
LEGR 021730Z VRB02KT 9999 FEW030 SCT090 20/13 Q1013,LEGR,2023-06-02T17:30:00Z,37.18,-3.78,20.0,13.0,0,2,,6.21,29.911417,,,,,,,,,,,FEW,3000,SCT,9000,,,,,VFR,,,,,,,,,,,,METAR,560.0
LEGE 021730Z 22006KT 190V270 9999 FEW030 22/14 Q1012,LEGE,2023-06-02T17:30:00Z,41.9,2.77,22.0,14.0,220,6,,6.21,29.88189,,,,,,,,,,,FEW,3000,,,,,,,VFR,,,,,,,,,,,,METAR,140.0
LEGA 021730Z 25006KT 9999 FEW028 BKN090 19/12 Q1013,LEGA,2023-06-02T17:30:00Z,37.13,-3.62,19.0,12.0,250,6,,6.21,29.911417,,,,,,,,,,,FEW,2800,BKN,9000,,,,,VFR,,,,,,,,,,,,METAR,684.0
LEDA 021730Z 11011KT 080V140 9999 VCTS FEW050CB 24/12 Q1012,LEDA,2023-06-02T17:30:00Z,41.73,0.53,24.0,12.0,110,11,,6.21,29.88189,,,,,,,,,,VCTS,FEW,5000,,,,,,,VFR,,,,,,,,,,,,METAR,352.0
LECV 021730Z 12003KT 080V190 9999 FEW040CB SCT050 20/08 Q1013,LECV,2023-06-02T17:30:00Z,40.68,-3.75,20.0,8.0,120,3,,6.21,29.911417,,,,,,,,,,,FEW,4000,SCT,5000,,,,,VFR,,,,,,,,,,,,METAR,995.0
LECO 021730Z 31008KT 280V350 9999 FEW012 FEW035TCU 21/15 Q1012 NOSIG,LECO,2023-06-02T17:30:00Z,43.3,-8.37,21.0,15.0,310,8,,6.21,29.88189,,,,,,TRUE,,,,,FEW,1200,FEW,3500,,,,,VFR,,,,,,,,,,,,METAR,80.0
LECH 021730Z AUTO 15007KT 110V180 CAVOK 20/15 Q1013,LECH,2023-06-02T17:30:00Z,40.2,0.07,20.0,15.0,150,7,,6.21,29.911417,,,TRUE,,,,,,,,CAVOK,,,,,,,,VFR,,,,,,,,,,,,METAR,360.0
LEBZ 021730Z 09007KT 9999 -SHRA SCT035CB 23/12 Q1010,LEBZ,2023-06-02T17:30:00Z,38.87,-6.82,23.0,12.0,90,7,,6.21,29.822834,,,,,,,,,,-SHRA,SCT,3500,,,,,,,VFR,,,,,,,,,,,,METAR,183.0
LEBT 021730Z AUTO 13007KT 070V170 CAVOK 22/15 Q1012,LEBT,2023-06-02T17:30:00Z,39.58,-0.45,22.0,15.0,130,7,,6.21,29.88189,,,TRUE,,,,,,,,CAVOK,,,,,,,,VFR,,,,,,,,,,,,METAR,50.0
LEBR 021730Z AUTO VRB03KT 9999 FEW080/// //////CB 28/09 Q1011,LEBR,2023-06-02T17:30:00Z,42.2,-1.43,28.0,9.0,0,3,,6.21,29.852362,,,TRUE,,,,,,,,FEW,8000,,,,,,,VFR,,,,,,,,,,,,METAR,347.0
LEBL 021730Z 19005KT 150V220 9999 FEW015 20/17 Q1013 NOSIG,LEBL,2023-06-02T17:30:00Z,41.28,2.07,20.0,17.0,190,5,,6.21,29.911417,,,,,,TRUE,,,,,FEW,1500,,,,,,,VFR,,,,,,,,,,,,METAR,2.0
LEBG 021730Z 16006KT 9999 FEW040CB 17/12 Q1014,LEBG,2023-06-02T17:30:00Z,42.37,-3.62,17.0,12.0,160,6,,6.21,29.940945,,,,,,,,,,,FEW,4000,,,,,,,VFR,,,,,,,,,,,,METAR,892.0
LEBB 021730Z 09007KT 050V140 9999 FEW055 26/13 Q1011 NOSIG,LEBB,2023-06-02T17:30:00Z,43.28,-2.92,26.0,13.0,90,7,,6.21,29.852362,,,,,,TRUE,,,,,FEW,5500,,,,,,,VFR,,,,,,,,,,,,METAR,38.0
LEBA 021730Z 03009KT 360V070 9999 SCT035CB 22/10 Q1011,LEBA,2023-06-02T17:30:00Z,37.85,-4.83,22.0,10.0,30,9,,6.21,29.852362,,,,,,,,,,,SCT,3500,,,,,,,VFR,,,,,,,,,,,,METAR,88.0
LEAS 021730Z VRB02KT 9999 FEW005 19/17 Q1013 NOSIG,LEAS,2023-06-02T17:30:00Z,43.57,-6.03,19.0,17.0,0,2,,6.21,29.911417,,,,,,TRUE,,,,,FEW,500,,,,,,,VFR,,,,,,,,,,,,METAR,120.0
LEAO 021730Z 22007KT 170V290 9999 FEW048 18/12 Q1013,LEAO,2023-06-02T17:30:00Z,38.95,-3.73,18.0,12.0,220,7,,6.21,29.911417,,,,,,,,,,,FEW,4800,,,,,,,VFR,,,,,,,,,,,,METAR,621.0
LEAM 021730Z 09005KT 040V140 9999 SCT030 BKN050 23/15 Q1011,LEAM,2023-06-02T17:30:00Z,36.85,-2.37,23.0,15.0,90,5,,6.21,29.852362,,,,,,,,,,,SCT,3000,BKN,5000,,,,,VFR,,,,,,,,,,,,METAR,16.0
LEAL 021730Z 08005KT 050V110 9999 FEW016 21/17 Q1012 NOSIG,LEAL,2023-06-02T17:30:00Z,38.27,-0.55,21.0,17.0,80,5,,6.21,29.88189,,,,,,TRUE,,,,,FEW,1600,,,,,,,VFR,,,,,,,,,,,,METAR,26.0
LEAG 021730Z AUTO 10009KT 050V120 9999 FEW019/// 20/17 Q1011,LEAG,2023-06-02T17:30:00Z,36.12,-5.45,20.0,17.0,100,9,,6.21,29.852362,,,TRUE,,,,,,,,FEW,1900,,,,,,,VFR,,,,,,,,,,,,METAR,4.0
LEAB 021730Z 18008KT 150V220 9999 -SHRA SCT050TCU 15/13 Q1014 NOSIG,LEAB,2023-06-02T17:30:00Z,38.95,-1.85,15.0,13.0,180,8,,6.21,29.940945,,,,,,TRUE,,,,-SHRA,SCT,5000,,,,,,,VFR,,,,,,,,,,,,METAR,704.0
LDZD 021730Z 10003KT 060V130 9999 FEW030 SCT050 20/15 Q1012 NOSIG,LDZD,2023-06-02T17:30:00Z,44.1,15.33,20.0,15.0,100,3,,6.21,29.88189,,,,,,TRUE,,,,,FEW,3000,SCT,5000,,,,,VFR,,,,,,,,,,,,METAR,82.0
LDZA 021730Z 13006KT 9999 VCTS FEW050CB FEW060TCU 23/10 Q1011 TEMPO TSRA,LDZA,2023-06-02T17:30:00Z,45.72,16.07,23.0,10.0,130,6,,6.21,29.852362,,,,,,,,,,VCTS,FEW,5000,FEW,6000,,,,,VFR,,,,,,,,,,,,METAR,103.0
LDSP 021730Z 04005KT 360V080 CAVOK 23/15 Q1011 NOSIG,LDSP,2023-06-02T17:30:00Z,43.53,16.3,23.0,15.0,40,5,,6.21,29.852362,,,,,,TRUE,,,,,CAVOK,,,,,,,,VFR,,,,,,,,,,,,METAR,16.0
LDPL 021730Z 29006KT CAVOK 24/14 Q1012 NOSIG,LDPL,2023-06-02T17:30:00Z,44.88,13.92,24.0,14.0,290,6,,6.21,29.88189,,,,,,TRUE,,,,,CAVOK,,,,,,,,VFR,,,,,,,,,,,,METAR,63.0
LDOS 021730Z 09007KT CAVOK 22/17 Q1011,LDOS,2023-06-02T17:30:00Z,45.47,18.82,22.0,17.0,90,7,,6.21,29.852362,,,,,,,,,,,CAVOK,,,,,,,,VFR,,,,,,,,,,,,METAR,82.0
LDLO 021730Z 29005KT 240V310 CAVOK 22/20 Q1012,LDLO,2023-06-02T17:30:00Z,44.57,14.4,22.0,20.0,290,5,,6.21,29.88189,,,,,,,,,,,CAVOK,,,,,,,,VFR,,,,,,,,,,,,METAR,46.0
LDDU 021730Z 29007KT 260V320 CAVOK 22/18 Q1011 BECMG 32004KT,LDDU,2023-06-02T17:30:00Z,42.57,18.27,22.0,18.0,290,7,,6.21,29.852362,,,,,,,,,,,CAVOK,,,,,,,,VFR,,,,,,,,,,,,METAR,156.0
LCPH 021730Z AUTO 15012KT 9999 NCD 24/18 Q1007 NOSIG,LCPH,2023-06-02T17:30:00Z,34.72,32.47,24.0,18.0,150,12,,6.21,29.734253,,,TRUE,,,TRUE,,,,,CLR,,,,,,,,VFR,,,,,,,,,,,,METAR,8.0
LCLK 021730Z VRB02KT CAVOK 26/15 Q1007 NOSIG,LCLK,2023-06-02T17:30:00Z,34.87,33.62,26.0,15.0,0,2,,6.21,29.734253,,,,,,TRUE,,,,,CAVOK,,,,,,,,VFR,,,,,,,,,,,,METAR,2.0
LBWN 021730Z AUTO 13004KT 9999 NCD 20/13 Q1012 NOSIG,LBWN,2023-06-02T17:30:00Z,43.22,27.82,20.0,13.0,130,4,,6.21,29.88189,,,TRUE,,,TRUE,,,,,CLR,,,,,,,,VFR,,,,,,,,,,,,METAR,74.0
LBSF 021730Z 17003KT 140V250 9999 BKN068 21/12 Q1012 NOSIG,LBSF,2023-06-02T17:30:00Z,42.65,23.37,21.0,12.0,170,3,,6.21,29.88189,,,,,,TRUE,,,,,BKN,6800,,,,,,,VFR,,,,,,,,,,,,METAR,592.0
LBPD 021730Z AUTO 08006KT 9999 SCT250/// 21/13 Q1011 NOSIG,LBPD,2023-06-02T17:30:00Z,42.05,24.85,21.0,13.0,80,6,,6.21,29.852362,,,TRUE,,,TRUE,,,,,SCT,25000,,,,,,,VFR,,,,,,,,,,,,METAR,182.0
LBGO 021730Z AUTO 19004KT 150V220 9999 FEW079/// SCT092/// BKN140/// 24/13 Q1010 NOSIG,LBGO,2023-06-02T17:30:00Z,43.15,25.72,24.0,13.0,190,4,,6.21,29.822834,,,TRUE,,,TRUE,,,,,FEW,7900,SCT,9200,BKN,14000,,,VFR,,,,,,,,,,,,METAR,84.0
LBBG 021730Z AUTO 12007KT 9999 NCD 20/15 Q1012 NOSIG,LBBG,2023-06-02T17:30:00Z,42.57,27.52,20.0,15.0,120,7,,6.21,29.88189,,,TRUE,,,TRUE,,,,,CLR,,,,,,,,VFR,,,,,,,,,,,,METAR,41.0
KXBP 021730Z AUTO 15006KT 10SM SCT075 SCT085 29/19 A2995 RMK AO2 T02900186,KXBP,2023-06-02T17:30:00Z,33.18,-97.83,29.0,18.6,150,6,,10.0,29.949802,,,TRUE,TRUE,,,,,,,SCT,7500,SCT,8500,,,,,VFR,,,,,,,,,,,,SPECI,256.0
KX26 021730Z AUTO 10SM CLR 27/23 RMK AO2 TSNO T02740230,KX26,2023-06-02T17:30:00Z,27.82,-80.5,27.4,23.0,,,,10.0,,,,TRUE,TRUE,,,TRUE,,,,CLR,,,,,,,,VFR,,,,,,,,,,,,METAR,5.0
KVVS 021730Z AUTO 36011KT 290V030 10SM CLR 30/10 A3001 RMK AO2 T03010099,KVVS,2023-06-02T17:30:00Z,39.95,-79.65,30.1,9.9,360,11,,10.0,30.008858,,,TRUE,TRUE,,,,,,,CLR,,,,,,,,VFR,,,,,,,,,,,,METAR,386.0
KVES 021730Z AUTO 01007KT 10SM CLR 30/02 A3004 RMK AO2,KVES,2023-06-02T17:30:00Z,40.2,-84.53,30.0,2.0,10,7,,10.0,30.041338,,,TRUE,TRUE,,,,,,,CLR,,,,,,,,VFR,,,,,,,,,,,,METAR,308.0
KVCV 021730Z AUTO VRB03KT 10SM CLR 22/06 A2999 RMK AO2,KVCV,2023-06-02T17:30:00Z,34.58,-117.38,22.0,6.0,0,3,,10.0,29.991142,,,TRUE,TRUE,,,,,,,CLR,,,,,,,,VFR,,,,,,,,,,,,SPECI,871.0
KU68 021730Z AUTO 30020G24KT 5SM -RA BKN070 OVC075 13/13 A2994 RMK AO2,KU68,2023-06-02T17:30:00Z,44.92,-108.45,13.0,13.0,300,20,24,5.0,29.940945,,,TRUE,TRUE,,,,,,-RA,BKN,7000,OVC,7500,,,,,MVFR,,,,,,,,,,,,SPECI,1244.0
KT89 021730Z AUTO VRB04G11KT 10SM CLR 31/14 A2987 RMK A01,KT89,2023-06-02T17:30:00Z,29.27,-103.68,31.0,14.0,0,4,11,10.0,29.870079,,,TRUE,TRUE,,,,,,,CLR,,,,,,,,VFR,,,,,,,,,,,,SPECI,801.0
KSNH 021730Z AUTO VRB04KT 10SM SCT047 BKN055 BKN070 30/18 A2994 RMK A01,KSNH,2023-06-02T17:30:00Z,35.17,-88.22,30.0,18.0,0,4,,10.0,29.940945,,,TRUE,TRUE,,,,,,,SCT,4700,BKN,5500,BKN,7000,,,VFR,,,,,,,,,,,,SPECI,142.0
KSKF 021730Z AUTO 12008KT 10SM BKN038 BKN060 BKN200 28/24 A2989 RMK AO2 SLP115,KSKF,2023-06-02T17:30:00Z,29.38,-98.57,28.0,24.0,120,8,,10.0,29.890747,1011.5,,TRUE,TRUE,,,,,,,BKN,3800,BKN,6000,BKN,20000,,,VFR,,,,,,,,,,,,METAR,214.0
KSEM 021730Z AUTO VRB03KT 10SM SCT050 SCT060 29/17 A2990 RMK AO2,KSEM,2023-06-02T17:30:00Z,32.35,-86.98,29.0,17.0,0,3,,10.0,29.899607,,,TRUE,TRUE,,,,,,,SCT,5000,SCT,6000,,,,,VFR,,,,,,,,,,,,SPECI,48.0
KS21 021730Z AUTO 12003KT 10SM CLR 16/03 A3014 RMK AO2,KS21,2023-06-02T17:30:00Z,43.88,-121.45,16.0,3.0,120,3,,10.0,30.138779,,,TRUE,TRUE,,,,,,,CLR,,,,,,,,VFR,,,,,,,,,,,,METAR,1269.0
KRVF 021730Z AUTO 36012KT 7SM FEW010 FEW013 BKN060 13/12 A3007 RMK AO2,KRVF,2023-06-02T17:30:00Z,45.53,-112.3,13.0,12.0,360,12,,7.0,30.070866,,,TRUE,TRUE,,,,,,,FEW,1000,FEW,1300,BKN,6000,,,VFR,,,,,,,,,,,,METAR,1445.0
KQER 021730Z AUTO 02001KT 0800 BR FEW085 15/14 A2970 RMK A02 TSNO,KQER,2023-06-02T17:30:00Z,,,15.0,14.0,20,1,,0.5,29.698818,,,TRUE,TRUE,,,TRUE,,,BR,FEW,8500,,,,,,,LIFR,,,,,,,,,,,,METAR,
KPO1 021730Z AUTO 06011KT 10SM FEW060 SCT120 22/18 A2992 RMK AO2,KPO1,2023-06-02T17:30:00Z,48.13,-105.17,22.0,18.0,60,11,,10.0,29.920275,,,TRUE,TRUE,,,,,,,FEW,6000,SCT,12000,,,,,VFR,,,,,,,,,,,,SPECI,621.0
KPHP 021730Z AUTO 14011KT 10SM SCT027 24/17 A2989 RMK AO2 T02390172,KPHP,2023-06-02T17:30:00Z,44.05,-101.6,23.9,17.2,140,11,,10.0,29.890747,,,TRUE,TRUE,,,,,,,SCT,2700,,,,,,,VFR,,,,,,,,,,,,SPECI,673.0
KP52 021730Z AUTO VRB04KT 10SM CLR 24/04 A2998 RMK AO2,KP52,2023-06-02T17:30:00Z,34.73,-112.03,24.0,4.0,0,4,,10.0,29.97933,,,TRUE,TRUE,,,,,,,CLR,,,,,,,,VFR,,,,,,,,,,,,METAR,1085.0
KP08 021730Z AUTO 00000KT 10SM CLR 28/05 A2992 RMK AO2,KP08,2023-06-02T17:30:00Z,32.93,-111.43,28.0,5.0,0,0,,10.0,29.920275,,,TRUE,TRUE,,,,,,,CLR,,,,,,,,VFR,,,,,,,,,,,,SPECI,477.0
KOWI 021730Z AUTO 13008KT 10SM FEW041 SCT060 30/21 A2998 RMK AO2 PWINO,KOWI,2023-06-02T17:30:00Z,38.53,-95.25,30.0,21.0,130,8,,10.0,29.97933,,,TRUE,TRUE,,,,,TRUE,,FEW,4100,SCT,6000,,,,,VFR,,,,,,,,,,,,SPECI,292.0
KOLY 021730Z AUTO 04007KT 020V080 10SM CLR 33/05 A3000 RMK AO2 T03250047 PWINO,KOLY,2023-06-02T17:30:00Z,38.72,-88.18,32.5,4.7,40,7,,10.0,30.0,,,TRUE,TRUE,,,,,TRUE,,CLR,,,,,,,,VFR,,,,,,,,,,,,METAR,144.0
KO69 021730Z AUTO VRB04KT 10SM CLR 17/09 A3000 RMK A01,KO69,2023-06-02T17:30:00Z,38.25,-122.6,17.0,9.0,0,4,,10.0,30.0,,,TRUE,TRUE,,,,,,,CLR,,,,,,,,VFR,,,,,,,,,,,,SPECI,26.0
KMRC 021730Z AUTO 07008KT 10SM FEW050 FEW070 29/16 A2993 RMK A01,KMRC,2023-06-02T17:30:00Z,35.55,-87.18,29.0,16.0,70,8,,10.0,29.929134,,,TRUE,TRUE,,,,,,,FEW,5000,FEW,7000,,,,,VFR,,,,,,,,,,,,SPECI,205.0
KMIO 021730Z AUTO 13010KT 10SM CLR 30/18 A2999 RMK AO2,KMIO,2023-06-02T17:30:00Z,36.92,-94.88,30.0,18.0,130,10,,10.0,29.991142,,,TRUE,TRUE,,,,,,,CLR,,,,,,,,VFR,,,,,,,,,,,,SPECI,245.0
KMHR 021730Z AUTO 25005KT 10SM CLR 20/10 A2995 RMK AO2,KMHR,2023-06-02T17:30:00Z,38.55,-121.28,20.0,10.0,250,5,,10.0,29.949802,,,TRUE,TRUE,,,,,,,CLR,,,,,,,,VFR,,,,,,,,,,,,SPECI,30.0
KM91 021730Z AUTO 05007KT 030V100 10SM FEW060 29/15 A2996 RMK A01,KM91,2023-06-02T17:30:00Z,36.53,-86.92,29.0,15.0,50,7,,10.0,29.958662,,,TRUE,TRUE,,,,,,,FEW,6000,,,,,,,VFR,,,,,,,,,,,,SPECI,214.0
KM75 021730Z AUTO 01013G19KT 7SM SCT035 OVC044 18/17 A2996 RMK A01,KM75,2023-06-02T17:30:00Z,48.37,-107.92,18.0,17.0,10,13,19,7.0,29.958662,,,TRUE,TRUE,,,,,,,SCT,3500,OVC,4400,,,,,VFR,,,,,,,,,,,,SPECI,687.0
KM54 021730Z AUTO VRB05KT 10SM BKN060 BKN090 30/16 A2993 RMK A01,KM54,2023-06-02T17:30:00Z,36.18,-86.32,30.0,16.0,0,5,,10.0,29.929134,,,TRUE,TRUE,,,,,,,BKN,6000,BKN,9000,,,,,VFR,,,,,,,,,,,,SPECI,168.0
KM04 021730Z AUTO 00000G12KT 10SM CLR 30/19 A2995 RMK A01,KM04,2023-06-02T17:30:00Z,35.58,-89.58,30.0,19.0,0,0,12,10.0,29.949802,,,TRUE,TRUE,,,,,,,CLR,,,,,,,,VFR,,,,,,,,,,,,SPECI,83.0
KLMS 021730Z AUTO 03004KT 10SM FEW055 BKN070 SCT095 28/19 A2997 RMK AO2,KLMS,2023-06-02T17:30:00Z,,,28.0,19.0,30,4,,10.0,29.970472,,,TRUE,TRUE,,,,,,,FEW,5500,BKN,7000,SCT,9500,,,VFR,,,,,,,,,,,,SPECI,
KKNB 021730Z AUTO 20010KT 10SM CLR 23/05 A3006 RMK A01,KKNB,2023-06-02T17:30:00Z,37.02,-112.53,23.0,5.0,200,10,,10.0,30.059055,,,TRUE,TRUE,,,,,,,CLR,,,,,,,,VFR,,,,,,,,,,,,METAR,1476.0
KJTC 021730Z AUTO 29011KT 10SM CLR 19/M06 A3014 RMK AO2,KJTC,2023-06-02T17:30:00Z,34.13,-109.32,19.0,-6.0,290,11,,10.0,30.138779,,,TRUE,TRUE,,,,,,,CLR,,,,,,,,VFR,,,,,,,,,,,,SPECI,2148.0
KJAU 021730Z AUTO 03005G12KT 10SM CLR 28/15 A3001 RMK A01,KJAU,2023-06-02T17:30:00Z,36.33,-84.17,28.0,15.0,30,5,12,10.0,30.008858,,,TRUE,TRUE,,,,,,,CLR,,,,,,,,VFR,,,,,,,,,,,,SPECI,350.0
KHVC 021730Z AUTO 03009KT 9SM FEW060 30/14 A2997 RMK AO2,KHVC,2023-06-02T17:30:00Z,,,30.0,14.0,30,9,,9.0,29.970472,,,TRUE,TRUE,,,,,,,FEW,6000,,,,,,,VFR,,,,,,,,,,,,SPECI,
KHSD 021730Z AUTO 16010G16KT 10SM CLR 29/18 A2995 RMK A01,KHSD,2023-06-02T17:30:00Z,35.6,-97.72,29.0,18.0,160,10,16,10.0,29.949802,,,TRUE,TRUE,,,,,,,CLR,,,,,,,,VFR,,,,,,,,,,,,SPECI,358.0
KGOO 021730Z AUTO 00000KT 10SM CLR 21/07 A3002 RMK A01,KGOO,2023-06-02T17:30:00Z,39.22,-121.0,21.0,7.0,0,0,,10.0,30.02067,,,TRUE,TRUE,,,,,,,CLR,,,,,,,,VFR,,,,,,,,,,,,SPECI,950.0
KGNC 021730Z AUTO 15009G16KT 10SM SCT031 25/17 A2996 RMK AO2 T02540171,KGNC,2023-06-02T17:30:00Z,32.68,-102.65,25.4,17.1,150,9,16,10.0,29.958662,,,TRUE,TRUE,,,,,,,SCT,3100,,,,,,,VFR,,,,,,,,,,,,METAR,1002.0
KFSK 021730Z AUTO 13007KT 100V160 10SM SCT049 SCT065 SCT085 29/18 A3000 RMK AO2 T02920176,KFSK,2023-06-02T17:30:00Z,37.8,-94.77,29.2,17.6,130,7,,10.0,30.0,,,TRUE,TRUE,,,,,,,SCT,4900,SCT,6500,SCT,8500,,,VFR,,,,,,,,,,,,METAR,276.0
KEAN 021730Z AUTO 00000KT 10SM SCT085 SCT100 20/10 A2993 RMK AO2 LTG DSNT NW T02010103,KEAN,2023-06-02T17:30:00Z,42.05,-104.93,20.1,10.3,0,0,,10.0,29.929134,,,TRUE,TRUE,,,,,,,SCT,8500,SCT,10000,,,,,VFR,,,,,,,,,,,,METAR,1452.0
KDVK 021730Z AUTO 03007KT 10SM CLR 28/12 A3002 RMK AO2,KDVK,2023-06-02T17:30:00Z,37.58,-84.77,28.0,12.0,30,7,,10.0,30.02067,,,TRUE,TRUE,,,,,,,CLR,,,,,,,,VFR,,,,,,,,,,,,METAR,309.0
KDED 021730Z AUTO 02011G16KT 10SM SCT032 SCT041 BKN047 29/21 A2981 RMK AO2 T02900206,KDED,2023-06-02T17:30:00Z,29.07,-81.28,29.0,20.6,20,11,16,10.0,29.811024,,,TRUE,TRUE,,,,,,,SCT,3200,SCT,4100,BKN,4700,,,VFR,,,,,,,,,,,,METAR,21.0
KCXW 021730Z AUTO 08008KT 8SM FEW055 32/21 A2995 RMK A01,KCXW,2023-06-02T17:30:00Z,35.02,-92.55,32.0,21.0,80,8,,8.0,29.949802,,,TRUE,TRUE,,,,,,,FEW,5500,,,,,,,VFR,,,,,,,,,,,,SPECI,84.0
KCXP 021730Z AUTO 00000KT 10SM CLR 18/00 A3009 RMK AO2,KCXP,2023-06-02T17:30:00Z,39.18,-119.73,18.0,0.0,0,0,,10.0,30.088583,,,TRUE,TRUE,,,,,,,CLR,,,,,,,,VFR,,,,,,,,,,,,METAR,1431.0
KCCB 021730Z AUTO 25005KT 9SM OVC024 16/12 A2999 RMK AO2,KCCB,2023-06-02T17:30:00Z,34.12,-117.68,16.0,12.0,250,5,,9.0,29.991142,,,TRUE,TRUE,,,,,,,OVC,2400,,,,,,,MVFR,,,,,,,,,,,,METAR,440.0
KC83 021730Z AUTO VRB04G10KT 9SM CLR 21/09 A2997 RMK AO2,KC83,2023-06-02T17:30:00Z,37.83,-121.62,21.0,9.0,0,4,10,9.0,29.970472,,,TRUE,TRUE,,,,,,,CLR,,,,,,,,VFR,,,,,,,,,,,,SPECI,16.0
KBTN 021730Z AUTO 15013G20KT 10SM CLR 29/15 A2995 RMK AO2,KBTN,2023-06-02T17:30:00Z,45.82,-97.75,29.0,15.0,150,13,20,10.0,29.949802,,,TRUE,TRUE,,,,,,,CLR,,,,,,,,VFR,,,,,,,,,,,,METAR,400.0
KBMC 021730Z AUTO 00000KT 10SM BKN110 18/07 A3001 RMK AO1 T01780073,KBMC,2023-06-02T17:30:00Z,41.55,-112.07,17.8,7.3,0,0,,10.0,30.008858,,,TRUE,TRUE,,,,,,,BKN,11000,,,,,,,VFR,,,,,,,,,,,,METAR,1289.0
KANK 021730Z AUTO 26014G20KT 10SM SCT085 16/00 A3017 RMK AO1 T01600003,KANK,2023-06-02T17:30:00Z,38.53,-106.05,16.0,0.3,260,14,20,10.0,30.171259,,,TRUE,TRUE,,,,,,,SCT,8500,,,,,,,VFR,,,,,,,,,,,,METAR,2293.0
KAMA 021730Z 16010KT 10SM OVC015 21/17 A2997 RMK AO2 T02060172,KAMA,2023-06-02T17:30:00Z,35.22,-101.72,20.6,17.2,160,10,,10.0,29.970472,,,,TRUE,,,,,,,OVC,1500,,,,,,,MVFR,,,,,,,,,,,,SPECI,1102.0
K9S9 021730Z AUTO 24010KT 10SM CLR 20/01 A3008 RMK AO2 PWINO,K9S9,2023-06-02T17:30:00Z,45.45,-119.68,20.0,1.0,240,10,,10.0,30.079725,,,TRUE,TRUE,,,,,TRUE,,CLR,,,,,,,,VFR,,,,,,,,,,,,METAR,498.0
K65S 021730Z AUTO 00000KT 10SM FEW090 19/07 A3001 RMK AO2,K65S,2023-06-02T17:30:00Z,48.73,-116.3,19.0,7.0,0,0,,10.0,30.008858,,,TRUE,TRUE,,,,,,,FEW,9000,,,,,,,VFR,,,,,,,,,,,,SPECI,708.0
K2G2 021730Z AUTO VRB06KT 10SM 30/09 A3001 RMK A01,K2G2,2023-06-02T17:30:00Z,40.37,-80.7,30.0,9.0,0,6,,10.0,30.008858,,,TRUE,TRUE,,,,,,,,,,,,,,,,,,,,,,,,,,,SPECI,365.0
K1D8 021730Z AUTO 14016G21KT 10SM CLR 28/19 A2994 RMK AO2,K1D8,2023-06-02T17:30:00Z,,,28.0,19.0,140,16,21,10.0,29.940945,,,TRUE,TRUE,,,,,,,CLR,,,,,,,,VFR,,,,,,,,,,,,SPECI,
K19S 021730Z AUTO 14013KT 10SM CLR 21/17 A2997 RMK AO2 T02050170,K19S,2023-06-02T17:30:00Z,37.48,-100.83,20.5,17.0,140,13,,10.0,29.970472,,,TRUE,TRUE,,,,,,,CLR,,,,,,,,VFR,,,,,,,,,,,,METAR,886.0
HRYR 021730Z 14003KT 9999 SCT025 24/15 Q1020 NOSIG,HRYR,2023-06-02T17:30:00Z,-1.97,30.13,24.0,15.0,140,3,,6.21,30.11811,,,,,,TRUE,,,,,SCT,2500,,,,,,,VFR,,,,,,,,,,,,METAR,1493.0
HECA 021730Z 28009KT 6000 NSC 37/05 Q1009 NOSIG,HECA,2023-06-02T17:30:00Z,30.12,31.4,37.0,5.0,280,9,,3.73,29.793306,,,,,,TRUE,,,,,CLR,,,,,,,,MVFR,,,,,,,,,,,,METAR,68.0
GQNO 021730Z 32018KT 8000 NSC 25/19 Q1010 NOSIG,GQNO,2023-06-02T17:30:00Z,18.3,-15.97,25.0,19.0,320,18,,4.97,29.822834,,,,,,TRUE,,,,,CLR,,,,,,,,MVFR,,,,,,,,,,,,METAR,1.0
GOBD 021730Z 35014KT CAVOK 28/19 Q1011 NOSIG,GOBD,2023-06-02T17:30:00Z,14.67,-17.07,28.0,19.0,350,14,,6.21,29.852362,,,,,,TRUE,,,,,CAVOK,,,,,,,,VFR,,,,,,,,,,,,METAR,90.0
GMTT 021730Z 09013KT 9999 FEW040 25/16 Q1009 NOSIG,GMTT,2023-06-02T17:30:00Z,35.72,-5.9,25.0,16.0,90,13,,6.21,29.793306,,,,,,TRUE,,,,,FEW,4000,,,,,,,VFR,,,,,,,,,,,,METAR,19.0
GMMX 021730Z 02004KT 300V090 9999 SCT040 28/09 Q1008 NOSIG,GMMX,2023-06-02T17:30:00Z,31.62,-8.03,28.0,9.0,20,4,,6.21,29.763779,,,,,,TRUE,,,,,SCT,4000,,,,,,,VFR,,,,,,,,,,,,METAR,465.0
GMMN 021730Z 34014KT 9999 FEW026 23/15 Q1009 NOSIG,GMMN,2023-06-02T17:30:00Z,33.37,-7.58,23.0,15.0,340,14,,6.21,29.793306,,,,,,TRUE,,,,,FEW,2600,,,,,,,VFR,,,,,,,,,,,,METAR,196.0
GMME 021730Z 34011KT 300V010 7000 FEW015 SCT200 22/17 Q1009 NOSIG,GMME,2023-06-02T17:30:00Z,34.05,-6.77,22.0,17.0,340,11,,4.35,29.793306,,,,,,TRUE,,,,,FEW,1500,SCT,20000,,,,,MVFR,,,,,,,,,,,,METAR,84.0
GMFO 021730Z 36010KT 9999 FEW026 FEW040CB BKN053 20/15 Q1011 NOSIG,GMFO,2023-06-02T17:30:00Z,34.78,-1.92,20.0,15.0,360,10,,6.21,29.852362,,,,,,TRUE,,,,,FEW,2600,FEW,4000,BKN,5300,,,VFR,,,,,,,,,,,,METAR,452.0
GMFF 021730Z 06003KT 030V090 9999 BKN030 FEW040CB 21/13 Q1010 TEMPO TS,GMFF,2023-06-02T17:30:00Z,33.92,-4.97,21.0,13.0,60,3,,6.21,29.822834,,,,,,,,,,,BKN,3000,FEW,4000,,,,,MVFR,,,,,,,,,,,,SPECI,575.0
GMAD 021730Z 26023KT 9999 FEW023 24/17 Q1008 NOSIG,GMAD,2023-06-02T17:30:00Z,30.32,-9.42,24.0,17.0,260,23,,6.21,29.763779,,,,,,TRUE,,,,,FEW,2300,,,,,,,VFR,,,,,,,,,,,,METAR,66.0
GEML 021730Z 13004KT 050V160 CAVOK 22/13 Q1011,GEML,2023-06-02T17:30:00Z,35.27,-2.95,22.0,13.0,130,4,,6.21,29.852362,,,,,,,,,,,CAVOK,,,,,,,,VFR,,,,,,,,,,,,METAR,48.0
GECE 021730Z AUTO VRB06KT 9999 FEW011/// 22/18 Q1011,GECE,2023-06-02T17:30:00Z,35.88,-5.3,22.0,18.0,0,6,,6.21,29.852362,,,TRUE,,,,,,,,FEW,1100,,,,,,,VFR,,,,,,,,,,,,METAR,2.0
GCXO 021730Z 31011KT 9999 FEW007 SCT012 BKN020 18/14 Q1015 NOSIG,GCXO,2023-06-02T17:30:00Z,28.48,-16.35,18.0,14.0,310,11,,6.21,29.970472,,,,,,TRUE,,,,,FEW,700,SCT,1200,BKN,2000,,,MVFR,,,,,,,,,,,,METAR,623.0
GCTS 021730Z 03007KT 340V110 9999 FEW030 BKN045 24/15 Q1013 WS R07 NOSIG,GCTS,2023-06-02T17:30:00Z,28.05,-16.57,24.0,15.0,30,7,,6.21,29.911417,,,,,,TRUE,,,,,FEW,3000,BKN,4500,,,,,VFR,,,,,,,,,,,,SPECI,59.0
GCRR 021730Z 32011KT 280V360 9999 FEW035 SCT045 25/15 Q1012,GCRR,2023-06-02T17:30:00Z,28.95,-13.58,25.0,15.0,320,11,,6.21,29.88189,,,,,,,,,,,FEW,3500,SCT,4500,,,,,VFR,,,,,,,,,,,,METAR,9.0
GCLP 021730Z 17006KT 130V210 9999 BKN035 24/16 Q1013 NOSIG,GCLP,2023-06-02T17:30:00Z,27.92,-15.38,24.0,16.0,170,6,,6.21,29.911417,,,,,,TRUE,,,,,BKN,3500,,,,,,,VFR,,,,,,,,,,,,METAR,16.0
GCLA 021730Z 13004KT 060V170 9999 BKN040 24/17 Q1014,GCLA,2023-06-02T17:30:00Z,28.62,-17.75,24.0,17.0,130,4,,6.21,29.940945,,,,,,,,,,,BKN,4000,,,,,,,VFR,,,,,,,,,,,,METAR,20.0
GCHI 021730Z AUTO 34014KT 9999 FEW035 23/16 Q1014,GCHI,2023-06-02T17:30:00Z,27.82,-17.88,23.0,16.0,340,14,,6.21,29.940945,,,TRUE,,,,,,,,FEW,3500,,,,,,,VFR,,,,,,,,,,,,METAR,21.0
GCGM 021730Z AUTO 12009KT 090V150 9999 SCT040 SCT047 23/16 Q1014 RMK R09/VRB04KT ARP/12008KT 070V160,GCGM,2023-06-02T17:30:00Z,28.03,-17.22,23.0,16.0,120,9,,6.21,29.940945,,,TRUE,,,,,,,,SCT,4000,SCT,4700,,,,,VFR,,,,,,,,,,,,METAR,217.0
GABS 021730Z VRB04KT CAVOK 38/18 Q1008 NOSIG,GABS,2023-06-02T17:30:00Z,12.53,-7.95,38.0,18.0,0,4,,6.21,29.763779,,,,,,TRUE,,,,,CAVOK,,,,,,,,VFR,,,,,,,,,,,,METAR,375.0
FMMI 021730Z 11009KT 9999 FEW017 BKN020 15/14 Q1026 NOSIG,FMMI,2023-06-02T17:30:00Z,-18.8,47.47,15.0,14.0,110,9,,6.21,30.295275,,,,,,TRUE,,,,,FEW,1700,BKN,2000,,,,,MVFR,,,,,,,,,,,,METAR,1269.0
FMEP 021730Z AUTO 11017KT CAVOK 24/16 Q1022,FMEP,2023-06-02T17:30:00Z,-21.32,55.42,24.0,16.0,110,17,,6.21,30.177166,,,TRUE,,,,,,,,CAVOK,,,,,,,,VFR,,,,,,,,,,,,METAR,21.0
FMEE 021730Z AUTO 16011KT 9999 SCT066 22/17 Q1023 NOSIG,FMEE,2023-06-02T17:30:00Z,-20.88,55.52,22.0,17.0,160,11,,6.21,30.206694,,,TRUE,,,TRUE,,,,,SCT,6600,,,,,,,VFR,,,,,,,,,,,,METAR,20.0
FMCZ 021730Z AUTO 24003KT 210V270 CAVOK 25/22 Q1017 NOSIG,FMCZ,2023-06-02T17:30:00Z,-12.8,45.27,25.0,22.0,240,3,,6.21,30.029528,,,TRUE,,,TRUE,,,,,CAVOK,,,,,,,,VFR,,,,,,,,,,,,METAR,7.0
ETNS 021730Z 07007KT 9999 FEW060 17/02 Q1024 BLU+FCST CANCEL,ETNS,2023-06-02T17:30:00Z,54.47,9.52,17.0,2.0,70,7,,6.21,30.236221,,,,,,,,,,,FEW,6000,,,,,,,VFR,,,,,,,,,,,,SPECI,22.0
EPZG 021730Z 04008KT 360V070 CAVOK 18/M02 Q1020,EPZG,2023-06-02T17:30:00Z,52.13,15.77,18.0,-2.0,40,8,,6.21,30.11811,,,,,,,,,,,CAVOK,,,,,,,,VFR,,,,,,,,,,,,METAR,59.0
EPWR 021730Z 03008KT CAVOK 16/03 Q1019,EPWR,2023-06-02T17:30:00Z,51.1,16.88,16.0,3.0,30,8,,6.21,30.088583,,,,,,,,,,,CAVOK,,,,,,,,VFR,,,,,,,,,,,,METAR,118.0
EPWA 021730Z 36012KT CAVOK 16/M03 Q1018 NOSIG,EPWA,2023-06-02T17:30:00Z,52.17,20.97,16.0,-3.0,360,12,,6.21,30.059055,,,,,,TRUE,,,,,CAVOK,,,,,,,,VFR,,,,,,,,,,,,METAR,107.0
EPSY 021730Z 35013KT 320V020 CAVOK 12/00 Q1019,EPSY,2023-06-02T17:30:00Z,53.47,20.93,12.0,0.0,350,13,,6.21,30.088583,,,,,,,,,,,CAVOK,,,,,,,,VFR,,,,,,,,,,,,METAR,136.0
EPSC 021730Z 36008KT 330V030 CAVOK 14/M01 Q1023,EPSC,2023-06-02T17:30:00Z,53.58,14.9,14.0,-1.0,360,8,,6.21,30.206694,,,,,,,,,,,CAVOK,,,,,,,,VFR,,,,,,,,,,,,METAR,47.0
EPRZ 021730Z 34014KT CAVOK 15/09 Q1016,EPRZ,2023-06-02T17:30:00Z,50.1,22.02,15.0,9.0,340,14,,6.21,30.0,,,,,,,,,,,CAVOK,,,,,,,,VFR,,,,,,,,,,,,METAR,206.0
EPRA 021730Z 02004KT CAVOK 12/08 Q1018,EPRA,2023-06-02T17:30:00Z,51.38,21.22,12.0,8.0,20,4,,6.21,30.059055,,,,,,,,,,,CAVOK,,,,,,,,VFR,,,,,,,,,,,,METAR,182.0
EPPO 021730Z 04008KT CAVOK 17/M04 Q1020,EPPO,2023-06-02T17:30:00Z,52.42,16.83,17.0,-4.0,40,8,,6.21,30.11811,,,,,,,,,,,CAVOK,,,,,,,,VFR,,,,,,,,,,,,METAR,87.0
EPMO 021730Z 35010KT 330V030 CAVOK 15/M04 Q1018,EPMO,2023-06-02T17:30:00Z,52.45,20.65,15.0,-4.0,350,10,,6.21,30.059055,,,,,,,,,,,CAVOK,,,,,,,,VFR,,,,,,,,,,,,METAR,102.0
EPLL 021730Z 34006KT 300V030 CAVOK 16/M01 Q1018,EPLL,2023-06-02T17:30:00Z,51.72,19.4,16.0,-1.0,340,6,,6.21,30.059055,,,,,,,,,,,CAVOK,,,,,,,,VFR,,,,,,,,,,,,METAR,176.0
EPLB 021730Z 35007KT 310V030 9999 FEW016 11/08 Q1017,EPLB,2023-06-02T17:30:00Z,51.23,22.72,11.0,8.0,350,7,,6.21,30.029528,,,,,,,,,,,FEW,1600,,,,,,,VFR,,,,,,,,,,,,METAR,206.0
EPKT 021730Z 01011KT 9999 FEW022 SCT034 13/08 Q1018,EPKT,2023-06-02T17:30:00Z,50.47,19.08,13.0,8.0,10,11,,6.21,30.059055,,,,,,,,,,,FEW,2200,SCT,3400,,,,,VFR,,,,,,,,,,,,METAR,296.0
EPKK 021730Z 36012KT 9999 FEW050 SCT068 15/07 Q1017,EPKK,2023-06-02T17:30:00Z,50.07,19.8,15.0,7.0,360,12,,6.21,30.029528,,,,,,,,,,,FEW,5000,SCT,6800,,,,,VFR,,,,,,,,,,,,METAR,237.0
EPGD 021730Z 03010KT 350V050 9999 FEW032 09/01 Q1022,EPGD,2023-06-02T17:30:00Z,54.37,18.47,9.0,1.0,30,10,,6.21,30.177166,,,,,,,,,,,FEW,3200,,,,,,,VFR,,,,,,,,,,,,METAR,136.0
EPBY 021730Z 05011KT 020V080 CAVOK 14/M00 Q1021,EPBY,2023-06-02T17:30:00Z,53.1,18.0,14.0,0.0,50,11,,6.21,30.147638,,,,,,,,,,,CAVOK,,,,,,,,VFR,,,,,,,,,,,,METAR,66.0
EISG 021730Z 30007KT CAVOK 18/14 Q1025,EISG,2023-06-02T17:30:00Z,54.28,-8.6,18.0,14.0,300,7,,6.21,30.265747,,,,,,,,,,,CAVOK,,,,,,,,VFR,,,,,,,,,,,,METAR,1.0
EINN 021730Z 03010KT 9999 FEW040 23/11 Q1023 NOSIG,EINN,2023-06-02T17:30:00Z,52.7,-8.92,23.0,11.0,30,10,,6.21,30.206694,,,,,,TRUE,,,,,FEW,4000,,,,,,,VFR,,,,,,,,,,,,METAR,20.0
EIKN 021730Z 07006KT 340V110 9999 FEW021 20/11 Q1025 NOSIG,EIKN,2023-06-02T17:30:00Z,53.92,-8.82,20.0,11.0,70,6,,6.21,30.265747,,,,,,TRUE,,,,,FEW,2100,,,,,,,VFR,,,,,,,,,,,,METAR,201.0
EIDW 021730Z 09007KT 050V110 9999 FEW018 14/08 Q1026 NOSIG,EIDW,2023-06-02T17:30:00Z,53.42,-6.28,14.0,8.0,90,7,,6.21,30.295275,,,,,,TRUE,,,,,FEW,1800,,,,,,,VFR,,,,,,,,,,,,METAR,75.0
EIDL 021730Z 36013KT CAVOK 16/12 Q1026,EIDL,2023-06-02T17:30:00Z,55.05,-8.33,16.0,12.0,360,13,,6.21,30.295275,,,,,,,,,,,CAVOK,,,,,,,,VFR,,,,,,,,,,,,METAR,2.0
EICK 021730Z 11007KT 9999 FEW020 15/10 Q1024 NOSIG,EICK,2023-06-02T17:30:00Z,51.85,-8.47,15.0,10.0,110,7,,6.21,30.236221,,,,,,TRUE,,,,,FEW,2000,,,,,,,VFR,,,,,,,,,,,,METAR,158.0
DTTJ 021730Z 08011KT 9999 FEW020 23/16 Q1012 NOSIG,DTTJ,2023-06-02T17:30:00Z,33.87,10.77,23.0,16.0,80,11,,6.21,29.88189,,,,,,TRUE,,,,,FEW,2000,,,,,,,VFR,,,,,,,,,,,,METAR,3.0
DTTA 021730Z 12007KT 050V160 9999 SCT026 24/18 Q1012,DTTA,2023-06-02T17:30:00Z,36.85,10.22,24.0,18.0,120,7,,6.21,29.88189,,,,,,,,,,,SCT,2600,,,,,,,VFR,,,,,,,,,,,,METAR,4.0
DTNH 021730Z 13011KT 9999 BKN023 22/18 Q1012 NOSIG,DTNH,2023-06-02T17:30:00Z,36.07,10.43,22.0,18.0,130,11,,6.21,29.88189,,,,,,TRUE,,,,,BKN,2300,,,,,,,MVFR,,,,,,,,,,,,METAR,1.0
DTMB 021730Z 15009KT 9999 SCT026 23/18 Q1013,DTMB,2023-06-02T17:30:00Z,35.77,10.75,23.0,18.0,150,9,,6.21,29.911417,,,,,,,,,,,SCT,2600,,,,,,,VFR,,,,,,,,,,,,METAR,1.0
DIAP 021730Z 23008KT 8000 -TSRA FEW007 BKN010 FEW020CB BKN024 26/25 Q1011 TEMPO 4000 TSRA,DIAP,2023-06-02T17:30:00Z,5.25,-3.92,26.0,25.0,230,8,,4.97,29.852362,,,,,,,,,,-TSRA,FEW,700,BKN,1000,FEW,2000,BKN,2400,MVFR,,,,,,,,,,,,METAR,4.0
DAOO 021730Z VRB02KT 9999 SCT020 SCT100 22/14 Q1010,DAOO,2023-06-02T17:30:00Z,35.62,-0.62,22.0,14.0,0,2,,6.21,29.822834,,,,,,,,,,,SCT,2000,SCT,10000,,,,,VFR,,,,,,,,,,,,METAR,87.0
DAON 021730Z 34005KT 9999 BKN026 SCT100 19/15 Q1011,DAON,2023-06-02T17:30:00Z,35.02,-1.47,19.0,15.0,340,5,,6.21,29.852362,,,,,,,,,,,BKN,2600,SCT,10000,,,,,MVFR,,,,,,,,,,,,METAR,245.0
DABC 021730Z 04009KT 9999 FEW030CB BKN040 19/11 Q1015,DABC,2023-06-02T17:30:00Z,36.27,6.62,19.0,11.0,40,9,,6.21,29.970472,,,,,,,,,,,FEW,3000,BKN,4000,,,,,VFR,,,,,,,,,,,,METAR,686.0
DABB 021730Z 20003KT 8000 -TSRA FEW020 FEW026CB SCT033 BKN200 20/18 Q1012,DABB,2023-06-02T17:30:00Z,36.82,7.82,20.0,18.0,200,3,,4.97,29.88189,,,,,,,,,,-TSRA,FEW,2000,FEW,2600,SCT,3300,BKN,20000,MVFR,,,,,,,,,,,,METAR,3.0
DAAT 021730Z 28010KT CAVOK 33/// Q1015,DAAT,2023-06-02T17:30:00Z,22.82,5.47,,,280,10,,6.21,29.970472,,,,,,,,,,,CAVOK,,,,,,,,VFR,,,,,,,,,,,,SPECI,1376.0
DAAG 021730Z VRB02KT 9999 -RA FEW016 FEW023CB SCT040 BKN080 21/18 Q1012,DAAG,2023-06-02T17:30:00Z,36.68,3.22,21.0,18.0,0,2,,6.21,29.88189,,,,,,,,,,-RA,FEW,1600,FEW,2300,SCT,4000,BKN,8000,VFR,,,,,,,,,,,,METAR,18.0
CWPF 021730Z AUTO 18011KT 13/08 RMK AO1 SLP192 T01330075 50002,CWPF,2023-06-02T17:30:00Z,48.43,-123.43,13.3,7.5,180,11,,,,1019.2,,TRUE,TRUE,,,,,,,,,,,,,,,,0.2,,,,,,,,,,,METAR,5.0
BKPR 021730Z 05009KT 9999 TS SCT030CB BKN040 18/13 Q1013 NOSIG,BKPR,2023-06-02T17:30:00Z,42.58,21.03,18.0,13.0,50,9,,6.21,29.911417,,,,,,TRUE,,,,TS,SCT,3000,BKN,4000,,,,,VFR,,,,,,,,,,,,METAR,545.0
BIKF 021730Z 26005KT 220V300 CAVOK 12/09 Q1029,BIKF,2023-06-02T17:30:00Z,63.98,-22.6,12.0,9.0,260,5,,6.21,30.383858,,,,,,,,,,,CAVOK,,,,,,,,VFR,,,,,,,,,,,,METAR,49.0
PFWS 021729Z AUTO 25007KT 10SM SCT015 06/02 A2998 RMK AO2,PFWS,2023-06-02T17:29:00Z,58.7,-157.0,6.0,2.0,250,7,,10.0,29.97933,,,TRUE,TRUE,,,,,,,SCT,1500,,,,,,,VFR,,,,,,,,,,,,SPECI,40.0
PAIK 021729Z AUTO 25011G15KT 8SM -SN BKN014 BKN021 M01/M04 A2985 RMK AO2 P0000 FZRANO,PAIK,2023-06-02T17:29:00Z,66.98,-160.43,-1.0,-4.0,250,11,15,8.0,29.84941,,,TRUE,TRUE,,,,TRUE,,-SN,BKN,1400,BKN,2100,,,,,MVFR,,,,,,0.005,,,,,,METAR,49.0
OEBA 021729Z 27014KT 4000 TSRA FEW025CB SCT030 26/14 Q1021 NOSIG,OEBA,2023-06-02T17:29:00Z,20.3,41.63,26.0,14.0,270,14,,2.49,30.147638,,,,,,TRUE,,,,TSRA,FEW,2500,SCT,3000,,,,,IFR,,,,,,,,,,,,SPECI,1659.0
KHEY 021729Z AUTO 05009KT 10SM SCT047 SCT350 29/17 A2984 RMK AO2 SLP104,KHEY,2023-06-02T17:29:00Z,31.35,-85.65,29.0,17.0,50,9,,10.0,29.840551,1010.4,,TRUE,TRUE,,,,,,,SCT,4700,SCT,35000,,,,,VFR,,,,,,,,,,,,METAR,95.0
KCEC 021729Z AUTO 29006KT 10SM OVC010 10/09 A3011 RMK AO2 T01000089,KCEC,2023-06-02T17:29:00Z,41.78,-124.23,10.0,8.9,290,6,,10.0,30.109253,,,TRUE,TRUE,,,,,,,OVC,1000,,,,,,,MVFR,,,,,,,,,,,,SPECI,17.0
CZMT 021729Z 16009G17KT 10SM -SHRA SCT016TCU BKN040 BKN100 12/10 A2992 RMK TCU3SC3AC1 SLP133,CZMT,2023-06-02T17:29:00Z,54.03,-132.13,12.0,10.0,160,9,17,10.0,29.920275,1013.3,,,,,,,,,-SHRA,SCT,1600,BKN,4000,BKN,10000,,,VFR,,,,,,,,,,,,SPECI,11.0
UTO8 M M M 158/-06/-08/1916/M/ PK WND 1919 1658Z SOG 63 8006 74MM,UTO8,2023-06-02T17:28:03Z,,,,,,,,4.97,,,,,,,,,,,,,,,,,,,,,,,,,,,,,,,,SPECI,
RJFY 021728Z 23003KT 5000 PRFG BR SCT002 21/21 Q0998 RMK 4ST002 A2947 FG SW-W,RJFY,2023-06-02T17:28:00Z,31.37,130.83,21.0,21.0,230,3,,3.11,29.468504,,,,,,,,,,PRFG BR,SCT,200,,,,,,,MVFR,,,,,,,,,,,,METAR,59.0
KCVN 021728Z AUTO 04014KT 10SM -TSRA SCT026 BKN070 OVC090 16/13 A2999 RMK AO2 WSHFT 1659 LTG DSNT ALQDS P0003,KCVN,2023-06-02T17:28:00Z,34.42,-103.07,16.0,13.0,40,14,,10.0,29.991142,,,TRUE,TRUE,,,,,,-TSRA,SCT,2600,BKN,7000,OVC,9000,,,VFR,,,,,,0.03,,,,,,SPECI,1278.0
KCAG 021728Z AUTO 12005KT 10SM -RA BKN028 OVC036 11/06 A3007 RMK AO2 P0000 T01060061,KCAG,2023-06-02T17:28:00Z,40.5,-107.52,10.6,6.1,120,5,,10.0,30.070866,,,TRUE,TRUE,,,,,,-RA,BKN,2800,OVC,3600,,,,,MVFR,,,,,,0.005,,,,,,METAR,1888.0
CYMJ 021728Z 35005KT 8SM -SHRA FEW025 OVC085 19/17 A3001 RMK SC2AC6 DENSITY ALT 2946FT PCPN VRY LGT BR LTNG 57 NM SE SLP164,CYMJ,2023-06-02T17:28:00Z,50.32,-105.55,19.0,17.0,350,5,,8.0,30.008858,1016.4,,,,,,,,,-SHRA,FEW,2500,OVC,8500,,,,,VFR,,,,,,,,,,,,SPECI,578.0
CYCA 021728Z AUTO 36013G21KT 9SM SCT011 OVC031 03/01 A3045 RMK SLP315,CYCA,2023-06-02T17:28:00Z,53.68,-57.03,3.0,1.0,360,13,21,9.0,30.448818,1031.5,,TRUE,,,,,,,,SCT,1100,OVC,3100,,,,,VFR,,,,,,,,,,,,SPECI,12.0
KMRH 021727Z AUTO 02013KT 10SM SCT018 OVC060 26/21 A2985 RMK AO2 T02560206,KMRH,2023-06-02T17:27:00Z,34.73,-76.65,25.6,20.6,20,13,,10.0,29.84941,,,TRUE,TRUE,,,,,,,SCT,1800,OVC,6000,,,,,VFR,,,,,,,,,,,,SPECI,2.0
KFWN 021727Z AUTO 30007G18KT 260V360 10SM CLR 31/13 A2992 RMK AO2 LTG DSNT NW T03060128,KFWN,2023-06-02T17:27:00Z,41.2,-74.63,30.6,12.8,300,7,18,10.0,29.920275,,,TRUE,TRUE,,,,,,,CLR,,,,,,,,VFR,,,,,,,,,,,,SPECI,129.0
KBYG 021727Z AUTO 35009KT 9SM -RA BKN005 BKN060 OVC075 14/13 A2993 RMK AO2 P0002 T01440133,KBYG,2023-06-02T17:27:00Z,44.38,-106.72,14.4,13.3,350,9,,9.0,29.929134,,,TRUE,TRUE,,,,,,-RA,BKN,500,BKN,6000,OVC,7500,,,IFR,,,,,,0.02,,,,,,SPECI,1503.0
KAIA 021727Z AUTO 16012KT 10SM OVC015 17/14 A2994 RMK AO2 T01670139,KAIA,2023-06-02T17:27:00Z,42.05,-102.8,16.7,13.9,160,12,,10.0,29.940945,,,TRUE,TRUE,,,,,,,OVC,1500,,,,,,,MVFR,,,,,,,,,,,,SPECI,1198.0
CYOC 021727Z 26012G26KT 35SM FEW012 SCT027 BKN039 BKN220 06/03 A2970 RMK CU1SC3SC2CI1 CU EMBD PRESRR SLP073,CYOC,2023-06-02T17:27:00Z,67.57,-139.83,6.0,3.0,260,12,26,35.0,29.698818,1007.3,,,,,,,,,,FEW,1200,SCT,2700,BKN,3900,BKN,22000,VFR,,,,,,,,,,,,SPECI,253.0
PAKP 021726Z AUTO 04012KT 1SM -SN BR OVC017 M02/M04 A2958 RMK AO2 P0000 FZRANO,PAKP,2023-06-02T17:26:00Z,68.13,-151.73,-2.0,-4.0,40,12,,1.0,29.58071,,,TRUE,TRUE,,,,TRUE,,-SN BR,OVC,1700,,,,,,,IFR,,,,,,0.005,,,,,,SPECI,649.0
PAIN 021726Z AUTO 36004KT 10SM BKN011 BKN027 OVC047 02/01 A2984 RMK AO2 RAE10 FZRANO PNO $,PAIN,2023-06-02T17:26:00Z,63.73,-148.92,2.0,1.0,360,4,,10.0,29.840551,,,TRUE,TRUE,TRUE,,,TRUE,,,BKN,1100,BKN,2700,OVC,4700,,,MVFR,,,,,,,,,,,,SPECI,525.0
KXMR 021726Z AUTO 02012KT 10SM FEW022 FEW150 SCT200 28/22 A2977 RMK AO2 WSHFT 16 SLP084 $,KXMR,2023-06-02T17:26:00Z,28.47,-80.57,28.0,22.0,20,12,,10.0,29.769686,1008.4,,TRUE,TRUE,TRUE,,,,,,FEW,2200,FEW,15000,SCT,20000,,,VFR,,,,,,,,,,,,METAR,5.0
PPIZ 021725Z AUTO 18013KT 9SM -SN FEW014 SCT024 SCT031 M02/M04 A2967 RMK AO2 P0000 FZRANO,PPIZ,2023-06-02T17:25:00Z,69.73,-163.0,-2.0,-4.0,180,13,,9.0,29.66929,,,TRUE,TRUE,,,,TRUE,,-SN,FEW,1400,SCT,2400,SCT,3100,,,VFR,,,,,,0.005,,,,,,SPECI,5.0
PHHI 021725Z AUTO 34005KT 10SM SCT021 BKN050 BKN090 23/18 A3015 RMK AO2 SLP201 $,PHHI,2023-06-02T17:25:00Z,21.48,-158.05,23.0,18.0,340,5,,10.0,30.15059,1020.1,,TRUE,TRUE,TRUE,,,,,,SCT,2100,BKN,5000,BKN,9000,,,VFR,,,,,,,,,,,,METAR,246.0
PATC 021725Z AUTO 18016KT 1SM -SN OVC004 M02/M02 A2979 RMK AO2 SLP092,PATC,2023-06-02T17:25:00Z,65.57,-167.92,-2.0,-2.0,180,16,,1.0,29.790354,1009.2,,TRUE,TRUE,,,,,,-SN,OVC,400,,,,,,,LIFR,,,,,,,,,,,,METAR,77.0
PASL 021725Z AUTO 24003KT 10SM FEW017 SCT021 OVC037 04/01 A2997 RMK AO2,PASL,2023-06-02T17:25:00Z,61.68,-157.15,4.0,1.0,240,3,,10.0,29.970472,,,TRUE,TRUE,,,,,,,FEW,1700,SCT,2100,OVC,3700,,,VFR,,,,,,,,,,,,SPECI,64.0
PARC 021725Z AUTO 10SM BKN016 BKN022 BKN034 02/M01 A2956 RMK AO2 FZRANO $,PARC,2023-06-02T17:25:00Z,68.12,-145.58,2.0,-1.0,,,,10.0,29.56004,,,TRUE,TRUE,TRUE,,,TRUE,,,BKN,1600,BKN,2200,BKN,3400,,,MVFR,,,,,,,,,,,,SPECI,626.0
PADM 021725Z AUTO 12007KT 10SM FEW020 BKN027 04/01 A2992 RMK AO2,PADM,2023-06-02T17:25:00Z,61.87,-162.03,4.0,1.0,120,7,,10.0,29.920275,,,TRUE,TRUE,,,,,,,FEW,2000,BKN,2700,,,,,MVFR,,,,,,,,,,,,SPECI,17.0
OPLA 021725Z 00000KT 6000 NSC 26/18 Q1006 NOSIG RMK QFE981 A29.72,OPLA,2023-06-02T17:25:00Z,31.52,74.4,26.0,18.0,0,0,,3.73,29.704725,,,,,,TRUE,,,,,CLR,,,,,,,,MVFR,,,,,,,,,,,,METAR,217.0
KRHI 021725Z AUTO 07007G17KT 10SM VCTS SCT060 BKN080 BKN095 22/15 A3018 RMK AO2 LTG DSNT SE AND NW TSB04E19 T02170150,KRHI,2023-06-02T17:25:00Z,45.63,-89.48,21.7,15.0,70,7,17,10.0,30.180119,,,TRUE,TRUE,,,,,,VCTS,SCT,6000,BKN,8000,BKN,9500,,,VFR,,,,,,,,,,,,SPECI,493.0
KNKT 021725Z 04009KT 10SM 25/22 A2988 RMK AO2 T02500217,KNKT,2023-06-02T17:25:00Z,34.9,-76.88,25.0,21.7,40,9,,10.0,29.878937,,,,TRUE,,,,,,,,,,,,,,,,,,,,,,,,,,,SPECI,8.0
KGWW 021725Z AUTO 04009KT 10SM SCT048 26/18 A2990 RMK AO2 T02580179,KGWW,2023-06-02T17:25:00Z,35.47,-77.97,25.8,17.9,40,9,,10.0,29.899607,,,TRUE,TRUE,,,,,,,SCT,4800,,,,,,,VFR,,,,,,,,,,,,METAR,40.0
KFFA 021725Z AUTO 36007KT 1 1/2SM BR OVC002 19/19 A2990 RMK AO2 T01880188,KFFA,2023-06-02T17:25:00Z,36.02,-75.67,18.8,18.8,360,7,,1.5,29.899607,,,TRUE,TRUE,,,,,,BR,OVC,200,,,,,,,LIFR,,,,,,,,,,,,METAR,2.0
KDLF 021725Z AUTO 13012KT 10SM OVC024 26/21 A2985 RMK AO2 CIG 019V024 CIG 022 RWY31 SLP096 $,KDLF,2023-06-02T17:25:00Z,29.37,-100.78,26.0,21.0,130,12,,10.0,29.84941,1009.6,,TRUE,TRUE,TRUE,,,,,,OVC,2400,,,,,,,MVFR,,,,,,,,,,,,SPECI,328.0
K1A5 021725Z AUTO 26005KT 10SM SCT080 27/16 A3001 RMK AO2 T02650160,K1A5,2023-06-02T17:25:00Z,35.22,-83.42,26.5,16.0,260,5,,10.0,30.008858,,,TRUE,TRUE,,,,,,,SCT,8000,,,,,,,VFR,,,,,,,,,,,,METAR,611.0
EHWO 021725Z AUTO 06010KT 350V090 9999 FEW040 19/08 Q1020 BLU,EHWO,2023-06-02T17:25:00Z,51.45,4.33,19.0,8.0,60,10,,6.21,30.11811,,,TRUE,,,,,,,,FEW,4000,,,,,,,VFR,,,,,,,,,,,,SPECI,15.0
EHVL 021725Z AUTO 02018KT 9999 NCD 14/10 Q1023 BLU,EHVL,2023-06-02T17:25:00Z,53.28,5.08,14.0,10.0,20,18,,6.21,30.206694,,,TRUE,,,,,,,,CLR,,,,,,,,VFR,,,,,,,,,,,,SPECI,2.0
EHVK 021725Z AUTO 05010KT 010V070 9999 NCD 18/08 Q1020 BLU,EHVK,2023-06-02T17:25:00Z,51.65,5.7,18.0,8.0,50,10,,6.21,30.11811,,,TRUE,,,,,,,,CLR,,,,,,,,VFR,,,,,,,,,,,,SPECI,20.0
EHSC 021725Z AUTO 01022KT 9999 ///////// 13/11 Q1022 W14/H15,EHSC,2023-06-02T17:25:00Z,51.93,3.67,13.0,11.0,10,22,,6.21,30.177166,,,TRUE,,,,,,,,,,,,,,,,,,,,,,,,,,,,METAR,19.0
EHSA 021725Z AUTO 36023KT 9999 ///////// 12/10 Q1022 W11/H15,EHSA,2023-06-02T17:25:00Z,52.0,3.28,12.0,10.0,360,23,,6.21,30.177166,,,TRUE,,,,,,,,,,,,,,,,,,,,,,,,,,,,METAR,18.0
EHRD 021725Z AUTO 35008KT 300V040 9999 NCD 17/10 Q1021 NOSIG,EHRD,2023-06-02T17:25:00Z,51.95,4.45,17.0,10.0,350,8,,6.21,30.147638,,,TRUE,,,TRUE,,,,,CLR,,,,,,,,VFR,,,,,,,,,,,,METAR,-4.0
EHPG 021725Z AUTO 01012G22KT 310V100 9999 FEW009 12/10 Q1023,EHPG,2023-06-02T17:25:00Z,52.37,3.35,12.0,10.0,10,12,22,6.21,30.206694,,,TRUE,,,,,,,,FEW,900,,,,,,,VFR,,,,,,,,,,,,METAR,24.0
EHMG 021725Z AUTO 03019KT 9999 NCD 13/10 Q1024,EHMG,2023-06-02T17:25:00Z,53.62,4.97,13.0,10.0,30,19,,6.21,30.236221,,,TRUE,,,,,,,,CLR,,,,,,,,VFR,,,,,,,,,,,,METAR,30.0
EHMA 021725Z AUTO 02019KT 9999 NCD 13/11 Q1023,EHMA,2023-06-02T17:25:00Z,53.5,5.95,13.0,11.0,20,19,,6.21,30.206694,,,TRUE,,,,,,,,CLR,,,,,,,,VFR,,,,,,,,,,,,METAR,27.0
EHLW 021725Z AUTO 03015KT 360V060 9999 NCD 15/11 Q1022 BLU,EHLW,2023-06-02T17:25:00Z,53.22,5.75,15.0,11.0,30,15,,6.21,30.177166,,,TRUE,,,,,,,,CLR,,,,,,,,VFR,,,,,,,,,,,,SPECI,1.0
EHLE 021725Z AUTO 01012KT 340V040 9999 NCD 18/11 Q1021 NOSIG,EHLE,2023-06-02T17:25:00Z,52.45,5.52,18.0,11.0,10,12,,6.21,30.147638,,,TRUE,,,TRUE,,,,,CLR,,,,,,,,VFR,,,,,,,,,,,,METAR,-3.0
EHKV 021725Z AUTO 03019KT 9999 NCD 12/10 Q1024,EHKV,2023-06-02T17:25:00Z,53.27,3.63,12.0,10.0,30,19,,6.21,30.236221,,,TRUE,,,,,,,,CLR,,,,,,,,VFR,,,,,,,,,,,,METAR,28.0
EHKD 021725Z AUTO 02014KT 350V050 9999 NCD 15/11 Q1023 BLU NOSIG,EHKD,2023-06-02T17:25:00Z,52.92,4.77,15.0,11.0,20,14,,6.21,30.206694,,,TRUE,,,TRUE,,,,,CLR,,,,,,,,VFR,,,,,,,,,,,,METAR,1.0
EHJR 021725Z AUTO 03018KT //// // ///////// 12/10 Q1024 RE// W13/H17,EHJR,2023-06-02T17:25:00Z,53.22,3.22,12.0,10.0,30,18,,,30.236221,,,TRUE,,,,,,,,,,,,,,,,,,,,,,,,,,,,METAR,31.0
EHJA 021725Z AUTO 04013KT 9999 SCT008/// 12/09 Q1025,EHJA,2023-06-02T17:25:00Z,53.82,2.95,12.0,9.0,40,13,,6.21,30.265747,,,TRUE,,,,,,,,SCT,800,,,,,,,VFR,,,,,,,,,,,,METAR,34.0
EHHW 021725Z AUTO 03014KT 9999 NCD 13/10 Q1024,EHHW,2023-06-02T17:25:00Z,54.03,6.03,13.0,10.0,30,14,,6.21,30.236221,,,TRUE,,,,,,,,CLR,,,,,,,,VFR,,,,,,,,,,,,METAR,10.0
EHGR 021725Z AUTO 03010KT 330V070 9999 BKN043 OVC047 18/09 Q1020 BLU,EHGR,2023-06-02T17:25:00Z,51.55,4.93,18.0,9.0,30,10,,6.21,30.11811,,,TRUE,,,,,,,,BKN,4300,OVC,4700,,,,,VFR,,,,,,,,,,,,SPECI,12.0
EHGG 021725Z AUTO 03012KT 340V060 9999 FEW045 SCT049 18/10 Q1021 NOSIG,EHGG,2023-06-02T17:25:00Z,53.12,6.57,18.0,10.0,30,12,,6.21,30.147638,,,TRUE,,,TRUE,,,,,FEW,4500,SCT,4900,,,,,VFR,,,,,,,,,,,,METAR,2.0
EHFS 021725Z AUTO 35015KT 320V030 9999 NCD 15/11 Q1021,EHFS,2023-06-02T17:25:00Z,51.45,3.6,15.0,11.0,350,15,,6.21,30.147638,,,TRUE,,,,,,,,CLR,,,,,,,,VFR,,,,,,,,,,,,METAR,1.0
EHFD 021725Z AUTO 03009KT 310V050 9999 NCD 12/09 Q1025,EHFD,2023-06-02T17:25:00Z,54.85,4.7,12.0,9.0,30,9,,6.21,30.265747,,,TRUE,,,,,,,,CLR,,,,,,,,VFR,,,,,,,,,,,,METAR,24.0
EHEH 021725Z AUTO 04011KT 360V070 9999 FEW045 19/08 Q1020 BLU NOSIG,EHEH,2023-06-02T17:25:00Z,51.45,5.38,19.0,8.0,40,11,,6.21,30.11811,,,TRUE,,,TRUE,,,,,FEW,4500,,,,,,,VFR,,,,,,,,,,,,METAR,20.0
EHDV 021725Z AUTO 03015KT 9999 SCT010/// 11/08 Q1026,EHDV,2023-06-02T17:25:00Z,54.32,2.93,11.0,8.0,30,15,,6.21,30.295275,,,TRUE,,,,,,,,SCT,1000,,,,,,,VFR,,,,,,,,,,,,METAR,36.0
EHDL 021725Z AUTO 04005KT 350V140 9999 OVC058 19/09 Q1021 BLU,EHDL,2023-06-02T17:25:00Z,52.07,5.88,19.0,9.0,40,5,,6.21,30.147638,,,TRUE,,,,,,,,OVC,5800,,,,,,,VFR,,,,,,,,,,,,SPECI,49.0
EHBK 021725Z AUTO 04011KT 350V090 9999 BKN040 18/08 Q1019,EHBK,2023-06-02T17:25:00Z,50.92,5.77,18.0,8.0,40,11,,6.21,30.088583,,,TRUE,,,,,,,,BKN,4000,,,,,,,VFR,,,,,,,,,,,,METAR,112.0
EHAM 021725Z 01011KT 320V050 9999 FEW038 18/10 Q1021 NOSIG,EHAM,2023-06-02T17:25:00Z,52.32,4.78,18.0,10.0,10,11,,6.21,30.147638,,,,,,TRUE,,,,,FEW,3800,,,,,,,VFR,,,,,,,,,,,,METAR,-2.0
EHAK 021725Z AUTO 01012KT 320V050 9999 BKN010/// 10/07 Q1026,EHAK,2023-06-02T17:25:00Z,55.38,3.82,10.0,7.0,10,12,,6.21,30.295275,,,TRUE,,,,,,,,BKN,1000,,,,,,,MVFR,,,,,,,,,,,,METAR,33.0
EBLB 021725Z AUTO 05010KT 9999 NCD 14/06 Q1019 BLU,EBLB,2023-06-02T17:25:00Z,50.47,6.17,14.0,6.0,50,10,,6.21,30.088583,,,TRUE,,,,,,,,CLR,,,,,,,,VFR,,,,,,,,,,,,METAR,563.0
EBFS 021725Z AUTO 05011KT 9999 SCT160/// 16/06 Q1019 BLU,EBFS,2023-06-02T17:25:00Z,50.23,4.65,16.0,6.0,50,11,,6.21,30.088583,,,TRUE,,,,,,,,SCT,16000,,,,,,,VFR,,,,,,,,,,,,SPECI,276.0
EBFN 021725Z AUTO 02014KT 9999 BKN014/// BKN033/// 13/10 Q1022 GRN,EBFN,2023-06-02T17:25:00Z,51.08,2.65,13.0,10.0,20,14,,6.21,30.177166,,,TRUE,,,,,,,,BKN,1400,BKN,3300,,,,,MVFR,,,,,,,,,,,,SPECI,9.0
EBDT 021725Z AUTO 05009KT 9999 FEW043/// 18/08 Q1020 BLU,EBDT,2023-06-02T17:25:00Z,51.02,5.07,18.0,8.0,50,9,,6.21,30.11811,,,TRUE,,,,,,,,FEW,4300,,,,,,,VFR,,,,,,,,,,,,SPECI,25.0
EBCV 021725Z AUTO 03011KT 9999 NCD 19/07 Q1019 BLU,EBCV,2023-06-02T17:25:00Z,50.57,3.82,19.0,7.0,30,11,,6.21,30.088583,,,TRUE,,,,,,,,CLR,,,,,,,,VFR,,,,,,,,,,,,METAR,56.0
EBBL 021725Z AUTO 05012KT 9999 BKN042/// 18/08 Q1020 BLU,EBBL,2023-06-02T17:25:00Z,51.17,5.47,18.0,8.0,50,12,,6.21,30.11811,,,TRUE,,,,,,,,BKN,4200,,,,,,,VFR,,,,,,,,,,,,SPECI,50.0
EBBE 021725Z AUTO 04011KT 9999 NCD 17/08 Q1020 BLU,EBBE,2023-06-02T17:25:00Z,50.75,4.77,17.0,8.0,40,11,,6.21,30.11811,,,TRUE,,,,,,,,CLR,,,,,,,,VFR,,,,,,,,,,,,SPECI,127.0
KSYN 021724Z AUTO 19013G23KT 7SM VCTSRA SCT019 SCT041 BKN080 23/17 A3007 RMK AO2 LTG DSNT ALQDS T02260167 P0001,KSYN,2023-06-02T17:24:00Z,44.47,-93.02,22.6,16.7,190,13,23,7.0,30.070866,,,TRUE,TRUE,,,,,,VCTSRA,SCT,1900,SCT,4100,BKN,8000,,,VFR,,,,,,0.01,,,,,,METAR,280.0
KSBP 021724Z VRB03KT 10SM BKN016 16/11 A3002 RMK AO2 T01560106 $,KSBP,2023-06-02T17:24:00Z,35.23,-120.63,15.6,10.6,0,3,,10.0,30.02067,,,,TRUE,TRUE,,,,,,BKN,1600,,,,,,,MVFR,,,,,,,,,,,,SPECI,52.0
RJNY 021723Z 23008KT 2500 SHRA FEW005 SCT008 OVC015 21/21 Q0997 RMK 1ST005 3ST008 8CU015 A2945 VIS S-W 1800M,RJNY,2023-06-02T17:23:00Z,34.82,138.3,21.0,21.0,230,8,,1.55,29.438976,,,,,,,,,,SHRA,FEW,500,SCT,800,OVC,1500,,,IFR,,,,,,,,,,,,METAR,7.0
KIEN 021723Z AUTO 12011KT 10SM SCT030 OVC037 21/14 A2991 RMK AO2 T02110139,KIEN,2023-06-02T17:23:00Z,43.03,-102.52,21.1,13.9,120,11,,10.0,29.911417,,,TRUE,TRUE,,,,,,,SCT,3000,OVC,3700,,,,,VFR,,,,,,,,,,,,SPECI,1002.0
KBIL 021723Z 35010KT 9SM -RA SCT007 BKN015 OVC031 15/14 A2993 RMK AO2 P0001 T01500139,KBIL,2023-06-02T17:23:00Z,45.8,-108.55,15.0,13.9,350,10,,9.0,29.929134,,,,TRUE,,,,,,-RA,SCT,700,BKN,1500,OVC,3100,,,MVFR,,,,,,0.01,,,,,,SPECI,1089.0
KBFF 021723Z AUTO 13006KT 10SM SCT012 19/15 A2993 RMK AO2 T01890150,KBFF,2023-06-02T17:23:00Z,41.87,-103.6,18.9,15.0,130,6,,10.0,29.929134,,,TRUE,TRUE,,,,,,,SCT,1200,,,,,,,VFR,,,,,,,,,,,,SPECI,1204.0
KAFP 021723Z AUTO 04007KT 350V090 10SM CLR 27/14 A2991 RMK AO2 T02720139,KAFP,2023-06-02T17:23:00Z,35.02,-80.08,27.2,13.9,40,7,,10.0,29.911417,,,TRUE,TRUE,,,,,,,CLR,,,,,,,,VFR,,,,,,,,,,,,METAR,91.0
LIBF 021722Z VRB02KT 9999 VCTS VCSH FEW040 SCT045CB 21/16 Q1013 RETS,LIBF,2023-06-02T17:22:00Z,41.42,15.53,21.0,16.0,0,2,,6.21,29.911417,,,,,,,,,,VCTS VCSH,FEW,4000,SCT,4500,,,,,VFR,,,,,,,,,,,,SPECI,81.0
KRHP 021722Z AUTO 05006KT 10SM BKN048 BKN070 27/15 A2996 RMK AO2 T02690153,KRHP,2023-06-02T17:22:00Z,35.18,-83.85,26.9,15.3,50,6,,10.0,29.958662,,,TRUE,TRUE,,,,,,,BKN,4800,BKN,7000,,,,,VFR,,,,,,,,,,,,METAR,515.0
KMYR 021722Z 01008KT 10SM BKN026 OVC032 24/19 A2988 RMK AO2,KMYR,2023-06-02T17:22:00Z,33.68,-78.92,24.0,19.0,10,8,,10.0,29.878937,,,,TRUE,,,,,,,BKN,2600,OVC,3200,,,,,MVFR,,,,,,,,,,,,METAR,7.0
KDAB 021722Z 04017G21KT 10SM SCT024 SCT029 29/21 A2981 RMK AO2 T02890206,KDAB,2023-06-02T17:22:00Z,29.18,-81.07,28.9,20.6,40,17,21,10.0,29.811024,,,,TRUE,,,,,,,SCT,2400,SCT,2900,,,,,VFR,,,,,,,,,,,,SPECI,8.0
KAVX 021722Z AUTO 23004KT 10SM BKN006 OVC018 14/11 A3001 RMK AO2 T01390111,KAVX,2023-06-02T17:22:00Z,33.4,-118.42,13.9,11.1,230,4,,10.0,30.008858,,,TRUE,TRUE,,,,,,,BKN,600,OVC,1800,,,,,IFR,,,,,,,,,,,,SPECI,482.0
KAQW 021722Z AUTO 33011G15KT 10SM VCTS CLR 31/16 A2991 RMK AO2 LTG DSNT NE-S T03060161,KAQW,2023-06-02T17:22:00Z,42.7,-73.17,30.6,16.1,330,11,15,10.0,29.911417,,,TRUE,TRUE,,,,,,VCTS,CLR,,,,,,,,VFR,,,,,,,,,,,,SPECI,196.0
K2W6 021722Z AUTO 02004KT 10SM CLR 27/12 A2995 RMK AO1,K2W6,2023-06-02T17:22:00Z,38.32,-76.55,27.0,12.0,20,4,,10.0,29.949802,,,TRUE,TRUE,,,,,,,CLR,,,,,,,,VFR,,,,,,,,,,,,SPECI,40.0
SAVT 021721Z 27019KT 240V300 CAVOK 18/M02 Q1005 RMK PP000,SAVT,2023-06-02T17:21:00Z,-43.2,-65.27,18.0,-2.0,270,19,,6.21,29.675198,,,,,,,,,,,CAVOK,,,,,,,,VFR,,,,,,,,,,,,SPECI,37.0
PARS 021721Z AUTO 00000KT 10SM BKN012 BKN019 OVC024 04/02 A2989 RMK AO2 $,PARS,2023-06-02T17:21:00Z,61.77,-161.32,4.0,2.0,0,0,,10.0,29.890747,,,TRUE,TRUE,TRUE,,,,,,BKN,1200,BKN,1900,OVC,2400,,,MVFR,,,,,,,,,,,,METAR,15.0
PAFR 021721Z AUTO 13010KT 10SM FEW030 OVC040 08/02 A2991 RMK AO2 RAE21 SLP136 $,PAFR,2023-06-02T17:21:00Z,61.27,-149.65,8.0,2.0,130,10,,10.0,29.911417,1013.6,,TRUE,TRUE,TRUE,,,,,,FEW,3000,OVC,4000,,,,,VFR,,,,,,,,,,,,SPECI,106.0
KORE 021721Z AUTO 32010G16KT 290V010 10SM VCTS CLR 33/12 A2988 RMK AO2 LTG DSNT NE T03330122,KORE,2023-06-02T17:21:00Z,42.57,-72.28,33.3,12.2,320,10,16,10.0,29.878937,,,TRUE,TRUE,,,,,,VCTS,CLR,,,,,,,,VFR,,,,,,,,,,,,METAR,165.0
KHRT 021721Z 08009G20KT 050V140 10SM SCT055 31/16 A2983,KHRT,2023-06-02T17:21:00Z,30.42,-86.68,31.0,16.0,80,9,20,10.0,29.828741,,,,,,,,,,,SCT,5500,,,,,,,VFR,,,,,,,,,,,,SPECI,10.0
KFME 021721Z AUTO 03007KT 330V080 32/11 A2994 RMK AO1,KFME,2023-06-02T17:21:00Z,39.08,-76.77,32.0,11.0,30,7,,,29.940945,,,TRUE,TRUE,,,,,,,,,,,,,,,,,,,,,,,,,,,SPECI,43.0
CYGP 021721Z 04008KT 15SM FEW008 OVC012 07/06 A3023 RMK SF2SC6 CIG LWR W SLP240,CYGP,2023-06-02T17:21:00Z,48.77,-64.47,7.0,6.0,40,8,,15.0,30.230314,1024.0,,,,,,,,,,FEW,800,OVC,1200,,,,,MVFR,,,,,,,,,,,,SPECI,31.0
CYBC 021721Z AUTO 09014KT 9SM OVC025 09/06 A3022 RMK RVR MISG SLP236,CYBC,2023-06-02T17:21:00Z,49.13,-68.2,9.0,6.0,90,14,,9.0,30.221457,1023.6,,TRUE,,,,,,,,OVC,2500,,,,,,,MVFR,,,,,,,,,,,,SPECI,20.0
PACZ 021720Z 19006KT 1SM DZ BR OVC003 00/00 A2981 RMK AO2A SLP102,PACZ,2023-06-02T17:20:00Z,61.78,-166.03,0.0,0.0,190,6,,1.0,29.811024,1010.2,,,TRUE,,,,,,DZ BR,OVC,300,,,,,,,LIFR,,,,,,,,,,,,SPECI,129.0
LXGB 021720Z 08007KT 9999 SCT015 SCT300 21/17 Q1011 TEMPO FEW015,LXGB,2023-06-02T17:20:00Z,36.15,-5.33,21.0,17.0,80,7,,6.21,29.852362,,,,,,,,,,,SCT,1500,SCT,30000,,,,,VFR,,,,,,,,,,,,SPECI,5.0
LTFM 021720Z 07012KT CAVOK 20/16 Q1012 NOSIG RMK RWY17L 07010KT RWY34L 07011KT RWY16R 07011KT RWY36 07010KT RWY18 07010KT,LTFM,2023-06-02T17:20:00Z,41.27,28.75,20.0,16.0,70,12,,6.21,29.88189,,,,,,TRUE,,,,,CAVOK,,,,,,,,VFR,,,,,,,,,,,,METAR,99.0
LTFJ 021720Z 06013KT 9999 FEW025 21/13 Q1011 NOSIG RMK RWY24 04010KT,LTFJ,2023-06-02T17:20:00Z,40.9,29.3,21.0,13.0,60,13,,6.21,29.852362,,,,,,TRUE,,,,,FEW,2500,,,,,,,VFR,,,,,,,,,,,,METAR,83.0
LTFE 021720Z 00000KT 9999 SCT030 BKN090 20/19 Q1009 NOSIG RMK RWY10 VRB02KT,LTFE,2023-06-02T17:20:00Z,37.25,27.67,20.0,19.0,0,0,,6.21,29.793306,,,,,,TRUE,,,,,SCT,3000,BKN,9000,,,,,VFR,,,,,,,,,,,,METAR,6.0
LTFC 021720Z 02005KT 9999 FEW030 SCT080 18/13 Q1011 RMK RWY23 02004KT,LTFC,2023-06-02T17:20:00Z,37.87,30.38,18.0,13.0,20,5,,6.21,29.852362,,,,,,,,,,,FEW,3000,SCT,8000,,,,,VFR,,,,,,,,,,,,METAR,862.0
LTCS 021720Z 15006KT CAVOK 22/09 Q1016 RMK RWY22 13008KT SKC,LTCS,2023-06-02T17:20:00Z,37.45,38.9,22.0,9.0,150,6,,6.21,30.0,,,,,,,,,,,CAVOK,,,,,,,,VFR,,,,,,,,,,,,METAR,825.0
LTCJ 021720Z 02004KT CAVOK 20/12 Q1015 NOSIG RMK RWY20 VRB02KT 2CI200,LTCJ,2023-06-02T17:20:00Z,37.93,41.12,20.0,12.0,20,4,,6.21,29.970472,,,,,,TRUE,,,,,CAVOK,,,,,,,,VFR,,,,,,,,,,,,METAR,559.0
LTCG 021720Z 11008KT 9999 BKN009 20/19 Q1014 TEMPO FM1800 3500 BR RMK RWY29 10008KT,LTCG,2023-06-02T17:20:00Z,41.0,39.77,20.0,19.0,110,8,,6.21,29.940945,,,,,,,,,,,BKN,900,,,,,,,IFR,,0.8,,,,,,,,,,METAR,28.0
LTCE 021720Z VRB02KT 9999 SCT035 BKN070 15/08 Q1021 NOSIG RMK RWY08R 28004KT RWY26R VRB02KT RWY08L 29003KT 240V330 3CU035 5AC070,LTCE,2023-06-02T17:20:00Z,39.95,41.17,15.0,8.0,0,2,,6.21,30.147638,,,,,,TRUE,,,,,SCT,3500,BKN,7000,,,,,VFR,,,,,,,,,,,,METAR,1758.0
LTCC 021720Z 18003KT 150V210 CAVOK 23/09 Q1016 NOSIG RMK RWY16 VRB02KT SKC,LTCC,2023-06-02T17:20:00Z,37.88,40.2,23.0,9.0,180,3,,6.21,30.0,,,,,,TRUE,,,,,CAVOK,,,,,,,,VFR,,,,,,,,,,,,METAR,676.0
LTBU 021720Z 05010KT CAVOK 19/13 Q1012 RMK RWY22 05006KT,LTBU,2023-06-02T17:20:00Z,41.13,27.92,19.0,13.0,50,10,,6.21,29.88189,,,,,,,,,,,CAVOK,,,,,,,,VFR,,,,,,,,,,,,METAR,165.0
LTBS 021720Z VRB01KT 9999 FEW030 SCT120 BKN180 22/18 Q1006 NOSIG RMK RWY19 07004KT 010V120 2CU030 3AC120 6CI180,LTBS,2023-06-02T17:20:00Z,36.7,28.78,22.0,18.0,0,1,,6.21,29.704725,,,,,,TRUE,,,,,FEW,3000,SCT,12000,BKN,18000,,,VFR,,,,,,,,,,,,METAR,2.0
LTBR 021720Z 34005KT 9999 -SHRA SCT030CB BKN035 19/17 Q1010 RETSRA NOSIG RMK RWY07 02005KT,LTBR,2023-06-02T17:20:00Z,40.25,29.57,19.0,17.0,340,5,,6.21,29.822834,,,,,,TRUE,,,,-SHRA,SCT,3000,BKN,3500,,,,,VFR,,,,,,,,,,,,METAR,233.0
LTBJ 021720Z 36013KT 9999 -SHRA SCT030 BKN100 19/18 Q1009 NOSIG RMK RWY16 01012KT,LTBJ,2023-06-02T17:20:00Z,38.28,27.15,19.0,18.0,360,13,,6.21,29.793306,,,,,,TRUE,,,,-SHRA,SCT,3000,BKN,10000,,,,,VFR,,,,,,,,,,,,METAR,123.0
LTBA 021720Z 06013KT CAVOK 22/11 Q1011 RMK RWY23 07012KT,LTBA,2023-06-02T17:20:00Z,40.97,28.82,22.0,11.0,60,13,,6.21,29.852362,,,,,,,,,,,CAVOK,,,,,,,,VFR,,,,,,,,,,,,METAR,33.0
LTAZ 021720Z 13009KT 9999 FEW040 SCT100 16/13 Q1015 RMK RWY29 13007KT,LTAZ,2023-06-02T17:20:00Z,38.77,34.52,16.0,13.0,130,9,,6.21,29.970472,,,,,,,,,,,FEW,4000,SCT,10000,,,,,VFR,,,,,,,,,,,,METAR,944.0
LTAU 021720Z 08006KT 9999 SCT040 17/12 Q1016 NOSIG RMK RWY07 05005KT,LTAU,2023-06-02T17:20:00Z,38.77,35.48,17.0,12.0,80,6,,6.21,30.0,,,,,,TRUE,,,,,SCT,4000,,,,,,,VFR,,,,,,,,,,,,METAR,1053.0
LTAT 021720Z 16003KT 070V200 9999 SCT035 BKN100 18/13 Q1017 NOSIG RMK RWY03 15002KT,LTAT,2023-06-02T17:20:00Z,38.43,38.08,18.0,13.0,160,3,,6.21,30.029528,,,,,,TRUE,,,,,SCT,3500,BKN,10000,,,,,VFR,,,,,,,,,,,,METAR,850.0
LTAP 021720Z VRB02KT 9999 SCT040 19/16 Q1012 NOSIG RMK RWY23 01005KT,LTAP,2023-06-02T17:20:00Z,40.83,35.52,19.0,16.0,0,2,,6.21,29.88189,,,,,,TRUE,,,,,SCT,4000,,,,,,,VFR,,,,,,,,,,,,METAR,536.0
LTAJ 021720Z 00000KT CAVOK 26/10 Q1014 NOSIG RMK RWY10 00000KT SKC,LTAJ,2023-06-02T17:20:00Z,36.95,37.48,26.0,10.0,0,0,,6.21,29.940945,,,,,,TRUE,,,,,CAVOK,,,,,,,,VFR,,,,,,,,,,,,METAR,684.0
LTAI 021720Z 29005KT 230V310 9999 SCT030 24/17 Q1007 NOSIG RMK RWY18C 28005KT RWY36R 29006KT RWY18L 33004KT 270V010,LTAI,2023-06-02T17:20:00Z,36.9,30.8,24.0,17.0,290,5,,6.21,29.734253,,,,,,TRUE,,,,,SCT,3000,,,,,,,VFR,,,,,,,,,,,,METAR,50.0
LTAG 021720Z 03006KT 9999 FEW035 SCT100 24/15 Q1009 NOSIG RMK 1CU035 3AC100,LTAG,2023-06-02T17:20:00Z,37.0,35.42,24.0,15.0,30,6,,6.21,29.793306,,,,,,TRUE,,,,,FEW,3500,SCT,10000,,,,,VFR,,,,,,,,,,,,METAR,62.0
LTAF 021720Z 02005KT 9999 FEW040 26/16 Q1009 NOSIG RMK RWY23 05005KT 2CU040,LTAF,2023-06-02T17:20:00Z,36.98,35.28,26.0,16.0,20,5,,6.21,29.793306,,,,,,TRUE,,,,,FEW,4000,,,,,,,VFR,,,,,,,,,,,,METAR,19.0
LTAC 021720Z 04004KT 350V060 9999 SCT040 BKN100 19/12 Q1013 NOSIG RMK RWY21L 04004KT 320V060 RWY03L 04004KT RWY21R 03003KT,LTAC,2023-06-02T17:20:00Z,40.12,32.98,19.0,12.0,40,4,,6.21,29.911417,,,,,,TRUE,,,,,SCT,4000,BKN,10000,,,,,VFR,,,,,,,,,,,,METAR,952.0
LSZS 021720Z AUTO 16008KT 140V200 9999 FEW060CB 12/06 Q1018,LSZS,2023-06-02T17:20:00Z,46.53,9.88,12.0,6.0,160,8,,6.21,30.059055,,,TRUE,,,,,,,,FEW,6000,,,,,,,VFR,,,,,,,,,,,,METAR,1708.0
LSZR 021720Z 02007KT 9999 FEW070 24/10 Q1013 RMK R,LSZR,2023-06-02T17:20:00Z,47.48,9.57,24.0,10.0,20,7,,6.21,29.911417,,,,,,,,,,,FEW,7000,,,,,,,VFR,,,,,,,,,,,,METAR,396.0
LSZL 021720Z AUTO 34003KT 280V030 9999NDV -SHRA FEW044 BKN059 BKN091 23/16 Q1011 RMK,LSZL,2023-06-02T17:20:00Z,46.17,8.88,23.0,16.0,340,3,,,29.852362,,,TRUE,,,,,,,-SHRA,FEW,4400,BKN,5900,BKN,9100,,,,,,,,,,,,,,,SPECI,198.0
LSZH 021720Z 07006KT 9999 FEW075 25/06 Q1013 NOSIG,LSZH,2023-06-02T17:20:00Z,47.48,8.53,25.0,6.0,70,6,,6.21,29.911417,,,,,,TRUE,,,,,FEW,7500,,,,,,,VFR,,,,,,,,,,,,METAR,424.0
LSZG 021720Z 01010KT CAVOK 24/10 Q1013,LSZG,2023-06-02T17:20:00Z,47.17,7.42,24.0,10.0,10,10,,6.21,29.911417,,,,,,,,,,,CAVOK,,,,,,,,VFR,,,,,,,,,,,,METAR,428.0
LSZC 021720Z AUTO 34005KT 300V110 9999 //////TCU 25/08 Q1012,LSZC,2023-06-02T17:20:00Z,46.97,8.38,25.0,8.0,340,5,,6.21,29.88189,,,TRUE,,,,,,,,,,,,,,,,,,,,,,,,,,,,METAR,445.0
LSZB 021720Z 36006KT 310V050 9999 //////TCU 24/10 Q1012,LSZB,2023-06-02T17:20:00Z,46.92,7.5,24.0,10.0,360,6,,6.21,29.88189,,,,,,,,,,,,,,,,,,,,,,,,,,,,,,,SPECI,510.0
LSZA 021720Z VRB04KT 9999 -RA VCTS FEW055CB BKN090 22/15 Q1012,LSZA,2023-06-02T17:20:00Z,46.0,8.92,22.0,15.0,0,4,,6.21,29.88189,,,,,,,,,,-RA VCTS,FEW,5500,BKN,9000,,,,,VFR,,,,,,,,,,,,METAR,276.0
LSMP 021720Z AUTO 04008KT 010V070 9999NDV NCD 25/10 Q1012 RMK,LSMP,2023-06-02T17:20:00Z,46.83,6.92,25.0,10.0,40,8,,,29.88189,,,TRUE,,,,,,,,CLR,,,,,,,,,,,,,,,,,,,,METAR,490.0
LSMM 021720Z AUTO VRB04G17KT 9999NDV FEW074 25/09 Q1012 RMK,LSMM,2023-06-02T17:20:00Z,46.75,8.12,25.0,9.0,0,4,17,,29.88189,,,TRUE,,,,,,,,FEW,7400,,,,,,,,,,,,,,,,,,,METAR,570.0
LSME 021720Z AUTO 03005KT 9999NDV NCD 26/08 Q1012 RMK,LSME,2023-06-02T17:20:00Z,47.1,8.3,26.0,8.0,30,5,,,29.88189,,,TRUE,,,,,,,,CLR,,,,,,,,,,,,,,,,,,,,METAR,427.0
LSMD 021720Z AUTO 09006KT 050V140 9999NDV NCD 25/08 Q1013 RMK,LSMD,2023-06-02T17:20:00Z,47.4,8.65,25.0,8.0,90,6,,,29.911417,,,TRUE,,,,,,,,CLR,,,,,,,,,,,,,,,,,,,,METAR,436.0
LSMA 021720Z AUTO 04008KT 360V070 9999NDV NCD 25/09 Q1012 RMK,LSMA,2023-06-02T17:20:00Z,46.95,8.28,25.0,9.0,40,8,,,29.88189,,,TRUE,,,,,,,,CLR,,,,,,,,,,,,,,,,,,,,METAR,441.0
LSGS 021720Z 22009KT 190V260 9999 TS FEW075 SCT100CB 26/10 Q1011,LSGS,2023-06-02T17:20:00Z,46.22,7.32,26.0,10.0,220,9,,6.21,29.852362,,,,,,,,,,TS,FEW,7500,SCT,10000,,,,,VFR,,,,,,,,,,,,METAR,482.0
LSGG 021720Z 14010KT 9999 FEW050CB BKN090 24/12 Q1012 NOSIG,LSGG,2023-06-02T17:20:00Z,46.25,6.12,24.0,12.0,140,10,,6.21,29.88189,,,,,,TRUE,,,,,FEW,5000,BKN,9000,,,,,VFR,,,,,,,,,,,,METAR,411.0
LSGC 021720Z 03008KT 350V050 CAVOK 19/08 Q1016,LSGC,2023-06-02T17:20:00Z,47.08,6.8,19.0,8.0,30,8,,6.21,30.0,,,,,,,,,,,CAVOK,,,,,,,,VFR,,,,,,,,,,,,METAR,1018.0
LOWW 021720Z 03010KT 360V060 CAVOK 22/12 Q1013 NOSIG,LOWW,2023-06-02T17:20:00Z,48.12,16.57,22.0,12.0,30,10,,6.21,29.911417,,,,,,TRUE,,,,,CAVOK,,,,,,,,VFR,,,,,,,,,,,,METAR,179.0
LOWS 021720Z 35008KT 9999 FEW060 SCT070 23/10 Q1014 NOSIG,LOWS,2023-06-02T17:20:00Z,47.78,13.02,23.0,10.0,350,8,,6.21,29.940945,,,,,,TRUE,,,,,FEW,6000,SCT,7000,,,,,VFR,,,,,,,,,,,,METAR,427.0
LOWL 021720Z AUTO 03012KT 9999 FEW060 SCT070 22/11 Q1014 NOSIG,LOWL,2023-06-02T17:20:00Z,48.22,14.18,22.0,11.0,30,12,,6.21,29.940945,,,TRUE,,,TRUE,,,,,FEW,6000,SCT,7000,,,,,VFR,,,,,,,,,,,,METAR,290.0
LOWK 021720Z 04003KT 350V080 9999 FEW060 FEW060CB 23/14 Q1012 NOSIG,LOWK,2023-06-02T17:20:00Z,46.65,14.32,23.0,14.0,40,3,,6.21,29.88189,,,,,,TRUE,,,,,FEW,6000,FEW,6000,,,,,VFR,,,,,,,,,,,,METAR,450.0
LOWI 021720Z 10004KT 040V140 9999 FEW050CB SCT060 22/13 Q1013 TEMPO VRB15G30KT -TSRA,LOWI,2023-06-02T17:20:00Z,47.27,11.33,22.0,13.0,100,4,,6.21,29.911417,,,,,,,,,,,FEW,5000,SCT,6000,,,,,VFR,,,,,,,,,,,,METAR,570.0
LOWG 021720Z AUTO VRB01KT 9999 SCT070 BKN080 22/12 Q1013 NOSIG,LOWG,2023-06-02T17:20:00Z,47.0,15.43,22.0,12.0,0,1,,6.21,29.911417,,,TRUE,,,TRUE,,,,,SCT,7000,BKN,8000,,,,,VFR,,,,,,,,,,,,METAR,337.0
LLBG 021720Z 35004KT 9000 NSC 34/10 Q1008 NOSIG RMK FEW140,LLBG,2023-06-02T17:20:00Z,32.0,34.88,34.0,10.0,350,4,,5.59,29.763779,,,,,,TRUE,,,,,CLR,,,,,,,,VFR,,,,,,,,,,,,METAR,35.0
LIRZ 021720Z AUTO 33004KT 9999 FEW050/// 22/15 Q1013,LIRZ,2023-06-02T17:20:00Z,43.1,12.5,22.0,15.0,330,4,,6.21,29.911417,,,TRUE,,,,,,,,FEW,5000,,,,,,,VFR,,,,,,,,,,,,METAR,206.0
LIRQ 021720Z 10003KT 070V140 9999 FEW060 19/17 Q1012,LIRQ,2023-06-02T17:20:00Z,43.8,11.2,19.0,17.0,100,3,,6.21,29.88189,,,,,,,,,,,FEW,6000,,,,,,,VFR,,,,,,,,,,,,METAR,33.0
LIRN 021720Z VRB04KT 9999 SCT040 25/15 Q1012 NOSIG,LIRN,2023-06-02T17:20:00Z,40.88,14.3,25.0,15.0,0,4,,6.21,29.88189,,,,,,TRUE,,,,,SCT,4000,,,,,,,VFR,,,,,,,,,,,,METAR,76.0
LIRF 021720Z 28009KT 260V330 CAVOK 22/17 Q1012 NOSIG,LIRF,2023-06-02T17:20:00Z,41.78,12.23,22.0,17.0,280,9,,6.21,29.88189,,,,,,TRUE,,,,,CAVOK,,,,,,,,VFR,,,,,,,,,,,,METAR,2.0
LIRA 021720Z 27007KT CAVOK 23/16 Q1013,LIRA,2023-06-02T17:20:00Z,41.8,12.58,23.0,16.0,270,7,,6.21,29.911417,,,,,,,,,,,CAVOK,,,,,,,,VFR,,,,,,,,,,,,METAR,101.0
LIPZ 021720Z 15007KT CAVOK 24/18 Q1011 NOSIG,LIPZ,2023-06-02T17:20:00Z,45.5,12.35,24.0,18.0,150,7,,6.21,29.852362,,,,,,TRUE,,,,,CAVOK,,,,,,,,VFR,,,,,,,,,,,,METAR,3.0
LIPY 021720Z AUTO VRB01KT 9999 NCD 23/17 Q1012,LIPY,2023-06-02T17:20:00Z,43.62,13.37,23.0,17.0,0,1,,6.21,29.88189,,,TRUE,,,,,,,,CLR,,,,,,,,VFR,,,,,,,,,,,,METAR,11.0
LIPX 021720Z 19005KT 150V210 9999 FEW050 27/15 Q1011,LIPX,2023-06-02T17:20:00Z,45.38,10.87,27.0,15.0,190,5,,6.21,29.852362,,,,,,,,,,,FEW,5000,,,,,,,VFR,,,,,,,,,,,,METAR,67.0
LIPR 021720Z 13004KT 100V170 9999 FEW060 24/13 Q1011,LIPR,2023-06-02T17:20:00Z,44.02,12.62,24.0,13.0,130,4,,6.21,29.852362,,,,,,,,,,,FEW,6000,,,,,,,VFR,,,,,,,,,,,,METAR,10.0
LIPQ 021720Z AUTO 14006KT 9999 SCT110/// 23/16 Q1012,LIPQ,2023-06-02T17:20:00Z,45.82,13.47,23.0,16.0,140,6,,6.21,29.88189,,,TRUE,,,,,,,,SCT,11000,,,,,,,VFR,,,,,,,,,,,,METAR,6.0
LIPO 021720Z AUTO 13006KT 9999 NCD 27/15 Q1011,LIPO,2023-06-02T17:20:00Z,45.42,10.33,27.0,15.0,130,6,,6.21,29.852362,,,TRUE,,,,,,,,CLR,,,,,,,,VFR,,,,,,,,,,,,METAR,104.0
LIPH 021720Z 14006KT 9999 TS SCT050CB 26/12 Q1011,LIPH,2023-06-02T17:20:00Z,45.63,12.18,26.0,12.0,140,6,,6.21,29.852362,,,,,,,,,,TS,SCT,5000,,,,,,,VFR,,,,,,,,,,,,METAR,10.0
LIPE 021720Z 21006KT 190V250 9999 FEW050 25/14 Q1011,LIPE,2023-06-02T17:20:00Z,44.52,11.3,25.0,14.0,210,6,,6.21,29.852362,,,,,,,,,,,FEW,5000,,,,,,,VFR,,,,,,,,,,,,METAR,37.0
LIMZ 021720Z AUTO VRB02KT 9999 FEW230/// 25/14 Q1012,LIMZ,2023-06-02T17:20:00Z,44.53,7.62,25.0,14.0,0,2,,6.21,29.88189,,,TRUE,,,,,,,,FEW,23000,,,,,,,VFR,,,,,,,,,,,,METAR,377.0
LIMW 021720Z AUTO VRB04KT 9999 NCD 21/11 Q1014,LIMW,2023-06-02T17:20:00Z,45.73,7.37,21.0,11.0,0,4,,6.21,29.940945,,,TRUE,,,,,,,,CLR,,,,,,,,VFR,,,,,,,,,,,,METAR,554.0
LIML 021720Z 24006KT 180V280 9999 VCTS SCT025CB 27/15 Q1010 TEMPO 4000 TSRA,LIML,2023-06-02T17:20:00Z,45.47,9.27,27.0,15.0,240,6,,6.21,29.822834,,,,,,,,,,VCTS,SCT,2500,,,,,,,VFR,,,,,,,,,,,,SPECI,109.0
LIMJ 021720Z 22003KT CAVOK 21/17 Q1012,LIMJ,2023-06-02T17:20:00Z,44.42,8.83,21.0,17.0,220,3,,6.21,29.88189,,,,,,,,,,,CAVOK,,,,,,,,VFR,,,,,,,,,,,,METAR,3.0
LIMF 021720Z 21006KT 9999 FEW050 24/13 Q1011,LIMF,2023-06-02T17:20:00Z,45.22,7.65,24.0,13.0,210,6,,6.21,29.852362,,,,,,,,,,,FEW,5000,,,,,,,VFR,,,,,,,,,,,,METAR,295.0
LIME 021720Z 01004KT 9999 FEW060 23/15 Q1011 NOSIG,LIME,2023-06-02T17:20:00Z,45.67,9.7,23.0,15.0,10,4,,6.21,29.852362,,,,,,TRUE,,,,,FEW,6000,,,,,,,VFR,,,,,,,,,,,,METAR,239.0
LIMC 021720Z 21005KT 170V240 CAVOK 27/12 Q1011 NOSIG,LIMC,2023-06-02T17:20:00Z,45.62,8.72,27.0,12.0,210,5,,6.21,29.852362,,,,,,TRUE,,,,,CAVOK,,,,,,,,VFR,,,,,,,,,,,,METAR,221.0
LIEO 021720Z VRB02KT CAVOK 22/17 Q1012,LIEO,2023-06-02T17:20:00Z,40.88,9.52,22.0,17.0,0,2,,6.21,29.88189,,,,,,,,,,,CAVOK,,,,,,,,VFR,,,,,,,,,,,,METAR,8.0
LIEE 021720Z 17005KT 9999 FEW020TCU SCT035 21/17 Q1013,LIEE,2023-06-02T17:20:00Z,39.25,9.07,21.0,17.0,170,5,,6.21,29.911417,,,,,,,,,,,FEW,2000,SCT,3500,,,,,VFR,,,,,,,,,,,,METAR,1.0
LIEA 021720Z 01004KT 9999 FEW025 22/17 Q1012,LIEA,2023-06-02T17:20:00Z,40.62,8.28,22.0,17.0,10,4,,6.21,29.88189,,,,,,,,,,,FEW,2500,,,,,,,VFR,,,,,,,,,,,,METAR,22.0
LICR 021720Z AUTO VRB02KT 9999 NCD 21/16 Q1014,LICR,2023-06-02T17:20:00Z,38.07,15.65,21.0,16.0,0,2,,6.21,29.940945,,,TRUE,,,,,,,,CLR,,,,,,,,VFR,,,,,,,,,,,,METAR,16.0
LICJ 021720Z 03010KT 9999 FEW030 22/17 Q1013,LICJ,2023-06-02T17:20:00Z,38.17,13.08,22.0,17.0,30,10,,6.21,29.911417,,,,,,,,,,,FEW,3000,,,,,,,VFR,,,,,,,,,,,,METAR,20.0
LICD 021720Z AUTO 18004KT 150V210 9999 NCD 22/17 Q1013,LICD,2023-06-02T17:20:00Z,35.5,12.62,22.0,17.0,180,4,,6.21,29.911417,,,TRUE,,,,,,,,CLR,,,,,,,,VFR,,,,,,,,,,,,METAR,20.0
LICC 021720Z 33003KT 290V360 9999 FEW050 SCT110 21/15 Q1012,LICC,2023-06-02T17:20:00Z,37.47,15.05,21.0,15.0,330,3,,6.21,29.88189,,,,,,,,,,,FEW,5000,SCT,11000,,,,,VFR,,,,,,,,,,,,METAR,6.0
LICB 021720Z AUTO 25007KT 9999 NCD 20/16 Q1014,LICB,2023-06-02T17:20:00Z,37.0,14.62,20.0,16.0,250,7,,6.21,29.940945,,,TRUE,,,,,,,,CLR,,,,,,,,VFR,,,,,,,,,,,,METAR,212.0
LICA 021720Z AUTO 23007KT 9999 NCD 22/17 Q1013,LICA,2023-06-02T17:20:00Z,38.9,16.25,22.0,17.0,230,7,,6.21,29.911417,,,TRUE,,,,,,,,CLR,,,,,,,,VFR,,,,,,,,,,,,METAR,7.0
LIBR 021720Z 35006KT CAVOK 22/18 Q1012,LIBR,2023-06-02T17:20:00Z,40.65,17.95,22.0,18.0,350,6,,6.21,29.88189,,,,,,,,,,,CAVOK,,,,,,,,VFR,,,,,,,,,,,,METAR,5.0
LIBP 021720Z AUTO 09005KT 9999 BKN110/// 23/16 Q1012,LIBP,2023-06-02T17:20:00Z,42.42,14.18,23.0,16.0,90,5,,6.21,29.88189,,,TRUE,,,,,,,,BKN,11000,,,,,,,VFR,,,,,,,,,,,,METAR,10.0
LIBD 021720Z VRB03KT 9999 FEW040 22/16 Q1012,LIBD,2023-06-02T17:20:00Z,41.13,16.77,22.0,16.0,0,3,,6.21,29.88189,,,,,,,,,,,FEW,4000,,,,,,,VFR,,,,,,,,,,,,METAR,42.0
LGTS 021720Z 16010KT 9999 FEW030 25/09 Q1010 NOSIG,LGTS,2023-06-02T17:20:00Z,40.52,22.97,25.0,9.0,160,10,,6.21,29.822834,,,,,,TRUE,,,,,FEW,3000,,,,,,,VFR,,,,,,,,,,,,METAR,4.0
LGSR 021720Z 32006KT 9999 -DZ SCT018 19/17 Q1010,LGSR,2023-06-02T17:20:00Z,36.4,25.48,19.0,17.0,320,6,,6.21,29.822834,,,,,,,,,,-DZ,SCT,1800,,,,,,,VFR,,,,,,,,,,,,METAR,31.0
LGSO 021720Z AUTO VRB03KT //// // ////// 18/14 Q1010 RE//,LGSO,2023-06-02T17:20:00Z,37.42,24.95,18.0,14.0,0,3,,,29.822834,,,TRUE,,,,,,,,,,,,,,,,,,,,,,,,,,,,SPECI,71.0
LGSA 021720Z 29007KT 9999 FEW010 SCT020 17/16 Q1011,LGSA,2023-06-02T17:20:00Z,35.53,24.13,17.0,16.0,290,7,,6.21,29.852362,,,,,,,,,,,FEW,1000,SCT,2000,,,,,VFR,,,,,,,,,,,,METAR,122.0
LGRX 021720Z 00000KT 9999 FEW030 22/16 Q1011,LGRX,2023-06-02T17:20:00Z,38.17,21.42,22.0,16.0,0,0,,6.21,29.852362,,,,,,,,,,,FEW,3000,,,,,,,VFR,,,,,,,,,,,,METAR,16.0
LGRP 021720Z 30011KT 9999 FEW016 SCT025 22/18 Q1007 NOSIG,LGRP,2023-06-02T17:20:00Z,36.4,28.08,22.0,18.0,300,11,,6.21,29.734253,,,,,,TRUE,,,,,FEW,1600,SCT,2500,,,,,VFR,,,,,,,,,,,,METAR,3.0
LGPZ 021720Z 25005KT 9999 FEW025 23/19 Q1011,LGPZ,2023-06-02T17:20:00Z,38.92,20.77,23.0,19.0,250,5,,6.21,29.852362,,,,,,,,,,,FEW,2500,,,,,,,VFR,,,,,,,,,,,,METAR,3.0
LGPA 021720Z AUTO 01005KT //// // ////// 18/17 Q1010 RE//,LGPA,2023-06-02T17:20:00Z,37.02,25.1,18.0,17.0,10,5,,,29.822834,,,TRUE,,,,,,,,,,,,,,,,,,,,,,,,,,,,SPECI,42.0
LGMT 021720Z 29004KT 9999 -RA FEW020 SCT030 19/18 Q1011,LGMT,2023-06-02T17:20:00Z,39.05,26.6,19.0,18.0,290,4,,6.21,29.852362,,,,,,,,,,-RA,FEW,2000,SCT,3000,,,,,VFR,,,,,,,,,,,,METAR,4.0
LGMK 021720Z 04007KT 9999 FEW015 SCT025 18/13 Q1010,LGMK,2023-06-02T17:20:00Z,37.43,25.35,18.0,13.0,40,7,,6.21,29.822834,,,,,,,,,,,FEW,1500,SCT,2500,,,,,VFR,,,,,,,,,,,,METAR,126.0
LGLM 021720Z 06004KT 9999 FEW018 22/13 Q1009,LGLM,2023-06-02T17:20:00Z,39.92,25.23,22.0,13.0,60,4,,6.21,29.793306,,,,,,,,,,,FEW,1800,,,,,,,VFR,,,,,,,,,,,,METAR,4.0
LGKZ 021720Z AUTO 00000KT //// // ////// 20/09 Q1013 RE//,LGKZ,2023-06-02T17:20:00Z,40.28,21.83,20.0,9.0,0,0,,,29.911417,,,TRUE,,,,,,,,,,,,,,,,,,,,,,,,,,,,SPECI,615.0
LGKV 021720Z 21004KT CAVOK 21/14 Q1010,LGKV,2023-06-02T17:20:00Z,40.92,24.62,21.0,14.0,210,4,,6.21,29.822834,,,,,,,,,,,CAVOK,,,,,,,,VFR,,,,,,,,,,,,METAR,5.0
LGKR 021720Z 26006KT 9999 FEW020 25/14 Q1010 NOSIG,LGKR,2023-06-02T17:20:00Z,39.62,19.92,25.0,14.0,260,6,,6.21,29.822834,,,,,,TRUE,,,,,FEW,2000,,,,,,,VFR,,,,,,,,,,,,METAR,2.0
LGKP 021720Z 30019KT 9999 FEW012 FEW018CB 19/18 Q1008,LGKP,2023-06-02T17:20:00Z,35.42,27.15,19.0,18.0,300,19,,6.21,29.763779,,,,,,,,,,,FEW,1200,FEW,1800,,,,,VFR,,,,,,,,,,,,METAR,20.0
LGKO 021720Z 36007KT 9999 FEW010 FEW014TCU SCT025 19/16 Q1009,LGKO,2023-06-02T17:20:00Z,36.8,27.08,19.0,16.0,360,7,,6.21,29.793306,,,,,,,,,,,FEW,1000,FEW,1400,SCT,2500,,,VFR,,,,,,,,,,,,METAR,130.0
LGKL 021720Z 00000KT 9999 FEW025 21/14 Q1012,LGKL,2023-06-02T17:20:00Z,37.07,22.02,21.0,14.0,0,0,,6.21,29.88189,,,,,,,,,,,FEW,2500,,,,,,,VFR,,,,,,,,,,,,METAR,4.0
LGIR 021720Z 31009KT 9999 FEW008 BKN020 BKN080 19/17 Q1011 NOSIG,LGIR,2023-06-02T17:20:00Z,35.33,25.17,19.0,17.0,310,9,,6.21,29.852362,,,,,,TRUE,,,,,FEW,800,BKN,2000,BKN,8000,,,MVFR,,,,,,,,,,,,METAR,37.0
LGIO 021720Z 32005KT 290V350 9999 FEW040 20/15 Q1012,LGIO,2023-06-02T17:20:00Z,39.7,20.82,20.0,15.0,320,5,,6.21,29.88189,,,,,,,,,,,FEW,4000,,,,,,,VFR,,,,,,,,,,,,METAR,476.0
LGEL 021720Z 00000KT 9999 FEW025 BKN070 21/13 Q1011,LGEL,2023-06-02T17:20:00Z,38.07,23.55,21.0,13.0,0,0,,6.21,29.852362,,,,,,,,,,,FEW,2500,BKN,7000,,,,,VFR,,,,,,,,,,,,METAR,21.0
LGBL 021720Z 11007KT 9999 FEW035 23/12 Q1010,LGBL,2023-06-02T17:20:00Z,39.22,22.8,23.0,12.0,110,7,,6.21,29.822834,,,,,,,,,,,FEW,3500,,,,,,,VFR,,,,,,,,,,,,METAR,13.0
LGAV 021720Z 27001KT 9999 FEW030 18/14 Q1011 NOSIG,LGAV,2023-06-02T17:20:00Z,37.93,23.95,18.0,14.0,270,1,,6.21,29.852362,,,,,,TRUE,,,,,FEW,3000,,,,,,,VFR,,,,,,,,,,,,METAR,83.0
LGAL 021720Z 26004KT CAVOK 23/12 Q1010,LGAL,2023-06-02T17:20:00Z,40.85,25.95,23.0,12.0,260,4,,6.21,29.822834,,,,,,,,,,,CAVOK,,,,,,,,VFR,,,,,,,,,,,,METAR,5.0
LGAD 021720Z 15006KT 9999 FEW025 22/16 Q1011,LGAD,2023-06-02T17:20:00Z,37.92,21.28,22.0,16.0,150,6,,6.21,29.852362,,,,,,,,,,,FEW,2500,,,,,,,VFR,,,,,,,,,,,,METAR,8.0
LCRA 021720Z 10010KT CAVOK 24/16 Q1007 NOSIG,LCRA,2023-06-02T17:20:00Z,34.58,32.98,24.0,16.0,100,10,,6.21,29.734253,,,,,,TRUE,,,,,CAVOK,,,,,,,,VFR,,,,,,,,,,,,METAR,23.0
LCEN 021720Z 14008KT 8000 FEW025 25/14 Q1008 NOSIG RMK RWY11 15010KT,LCEN,2023-06-02T17:20:00Z,35.15,33.5,25.0,14.0,140,8,,4.97,29.763779,,,,,,TRUE,,,,,FEW,2500,,,,,,,MVFR,,,,,,,,,,,,METAR,91.0
LATI 021720Z 30003KT 250V320 9999 BKN180 23/18 Q1011 NOSIG,LATI,2023-06-02T17:20:00Z,41.42,19.72,23.0,18.0,300,3,,6.21,29.852362,,,,,,TRUE,,,,,BKN,18000,,,,,,,VFR,,,,,,,,,,,,METAR,32.0
KVUJ 021720Z AUTO 05011G17KT 10SM CLR 27/13 A2997 RMK AO2 T02730130,KVUJ,2023-06-02T17:20:00Z,35.42,-80.15,27.3,13.0,50,11,17,10.0,29.970472,,,TRUE,TRUE,,,,,,,CLR,,,,,,,,VFR,,,,,,,,,,,,METAR,174.0
KTTA 021720Z AUTO 36007G15KT 10SM SCT043 26/15 A2992 RMK AO2 T02550147,KTTA,2023-06-02T17:20:00Z,35.58,-79.1,25.5,14.7,360,7,15,10.0,29.920275,,,TRUE,TRUE,,,,,,,SCT,4300,,,,,,,VFR,,,,,,,,,,,,METAR,71.0
KTDF 021720Z AUTO 04009KT 10SM CLR 25/13 A2997 RMK AO2,KTDF,2023-06-02T17:20:00Z,36.28,-78.98,25.0,13.0,40,9,,10.0,29.970472,,,TRUE,TRUE,,,,,,,CLR,,,,,,,,VFR,,,,,,,,,,,,METAR,180.0
KSVH 021720Z AUTO 03009G15KT 10SM CLR 27/10 A2994 RMK AO2 T02720104,KSVH,2023-06-02T17:20:00Z,35.75,-80.95,27.2,10.4,30,9,15,10.0,29.940945,,,TRUE,TRUE,,,,,,,CLR,,,,,,,,VFR,,,,,,,,,,,,METAR,286.0
KSIF 021720Z AUTO 02010G15KT 350V060 10SM CLR 28/11 A2995 RMK AO2 T02760112,KSIF,2023-06-02T17:20:00Z,36.43,-79.85,27.6,11.2,20,10,15,10.0,29.949802,,,TRUE,TRUE,,,,,,,CLR,,,,,,,,VFR,,,,,,,,,,,,METAR,206.0
KSCR 021720Z AUTO 03009G16KT 10SM CLR 26/13 A2993 RMK AO2 T02610130,KSCR,2023-06-02T17:20:00Z,35.7,-79.5,26.1,13.0,30,9,16,10.0,29.929134,,,TRUE,TRUE,,,,,,,CLR,,,,,,,,VFR,,,,,,,,,,,,METAR,182.0
KRUQ 021720Z AUTO 02008KT 10SM CLR 27/11 A2993 RMK AO2 T02700109,KRUQ,2023-06-02T17:20:00Z,35.65,-80.52,27.0,10.9,20,8,,10.0,29.929134,,,TRUE,TRUE,,,,,,,CLR,,,,,,,,VFR,,,,,,,,,,,,METAR,231.0
KPGV 021720Z AUTO 03008KT 10SM SCT031 SCT037 OVC045 27/20 A2989 RMK AO2,KPGV,2023-06-02T17:20:00Z,35.63,-77.4,27.0,20.0,30,8,,10.0,29.890747,,,TRUE,TRUE,,,,,,,SCT,3100,SCT,3700,OVC,4500,,,VFR,,,,,,,,,,,,METAR,6.0
KONX 021720Z AUTO 36008KT 10SM OVC010 21/20 A2991 RMK AO2 T02140203,KONX,2023-06-02T17:20:00Z,36.4,-76.02,21.4,20.3,360,8,,10.0,29.911417,,,TRUE,TRUE,,,,,,,OVC,1000,,,,,,,MVFR,,,,,,,,,,,,METAR,4.0
KMRN 021720Z AUTO 01005KT 10SM CLR 28/10 A2997 RMK AO2 T02800104,KMRN,2023-06-02T17:20:00Z,35.82,-81.62,28.0,10.4,10,5,,10.0,29.970472,,,TRUE,TRUE,,,,,,,CLR,,,,,,,,VFR,,,,,,,,,,,,METAR,375.0
KMKY 021720Z AUTO 3SM -RA BR FEW008 BKN042 OVC100 23/22 A2979 RMK AO2 TSNO PNO $,KMKY,2023-06-02T17:20:00Z,26.0,-81.67,23.0,22.0,,,,3.0,29.790354,,,TRUE,TRUE,TRUE,,TRUE,,,-RA BR,FEW,800,BKN,4200,OVC,10000,,,MVFR,,,,,,,,,,,,METAR,2.0
KMHV 021720Z AUTO 00000KT 10SM CLR 24/05 A2996 RMK AO2,KMHV,2023-06-02T17:20:00Z,35.07,-118.15,24.0,5.0,0,0,,10.0,29.958662,,,TRUE,TRUE,,,,,,,CLR,,,,,,,,VFR,,,,,,,,,,,,SPECI,841.0
KMCZ 021720Z AUTO 01009KT 10SM BKN032 25/19 A2990 RMK AO2 T02550186,KMCZ,2023-06-02T17:20:00Z,,,25.5,18.6,10,9,,10.0,29.899607,,,TRUE,TRUE,,,,,,,BKN,3200,,,,,,,VFR,,,,,,,,,,,,METAR,
KJNX 021720Z AUTO 03007G16KT 10SM SCT037 SCT042 27/18 A2990 RMK AO2,KJNX,2023-06-02T17:20:00Z,35.53,-78.38,27.0,18.0,30,7,16,10.0,29.899607,,,TRUE,TRUE,,,,,,,SCT,3700,SCT,4200,,,,,VFR,,,,,,,,,,,,METAR,41.0
KGZN 021720Z AUTO 18010G16KT 10SM FEW037 28/18 A2994 RMK AO2,KGZN,2023-06-02T17:20:00Z,32.37,-99.02,28.0,18.0,180,10,16,10.0,29.940945,,,TRUE,TRUE,,,,,,,FEW,3700,,,,,,,VFR,,,,,,,,,,,,SPECI,522.0
KGEV 021720Z AUTO 06005KT 10SM CLR 22/08 A3007 RMK AO2 T02190075,KGEV,2023-06-02T17:20:00Z,36.43,-81.42,21.9,7.5,60,5,,10.0,30.070866,,,TRUE,TRUE,,,,,,,CLR,,,,,,,,VFR,,,,,,,,,,,,METAR,961.0
KFQD 021720Z AUTO 02006KT 10SM CLR 27/13 A2997 RMK AO2,KFQD,2023-06-02T17:20:00Z,35.42,-81.93,27.0,13.0,20,6,,10.0,29.970472,,,TRUE,TRUE,,,,,,,CLR,,,,,,,,VFR,,,,,,,,,,,,METAR,325.0
KEHO 021720Z AUTO 03005KT 10SM CLR 27/12 A2995 RMK AO2 T02680122,KEHO,2023-06-02T17:20:00Z,35.25,-81.6,26.8,12.2,30,5,,10.0,29.949802,,,TRUE,TRUE,,,,,,,CLR,,,,,,,,VFR,,,,,,,,,,,,METAR,261.0
KCPC 021720Z AUTO 05003KT 10SM SCT028 BKN036 OVC046 24/18 A2989 RMK AO2 T02420178,KCPC,2023-06-02T17:20:00Z,34.28,-78.72,24.2,17.8,50,3,,10.0,29.890747,,,TRUE,TRUE,,,,,,,SCT,2800,BKN,3600,OVC,4600,,,VFR,,,,,,,,,,,,METAR,27.0
KCGE 021720Z AUTO 30006KT 10SM CLR 28/15 A2992 RMK A01,KCGE,2023-06-02T17:20:00Z,38.53,-76.03,28.0,15.0,300,6,,10.0,29.920275,,,TRUE,TRUE,,,,,,,CLR,,,,,,,,VFR,,,,,,,,,,,,SPECI,5.0
KCBE 021720Z AUTO 19005KT 10SM CLR 30/14 A3002 RMK AO2 T03030142,KCBE,2023-06-02T17:20:00Z,39.62,-78.77,30.3,14.2,190,5,,10.0,30.02067,,,TRUE,TRUE,,,,,,,CLR,,,,,,,,VFR,,,,,,,,,,,,SPECI,226.0
KASJ 021720Z AUTO 04006KT 10SM SCT029 SCT035 SCT041 25/18 A2992 RMK AO2 T02500180,KASJ,2023-06-02T17:20:00Z,36.28,-77.17,25.0,18.0,40,6,,10.0,29.920275,,,TRUE,TRUE,,,,,,,SCT,2900,SCT,3500,SCT,4100,,,VFR,,,,,,,,,,,,METAR,20.0
KACZ 021720Z AUTO 02006KT 10SM BKN026 OVC031 24/19 A2988 RMK AO2 T02410190,KACZ,2023-06-02T17:20:00Z,,,24.1,19.0,20,6,,10.0,29.878937,,,TRUE,TRUE,,,,,,,BKN,2600,OVC,3100,,,,,MVFR,,,,,,,,,,,,METAR,
K2G4 021720Z AUTO VRB05G12KT 10SM BKN070 25/09 A3009 RMK AO2,K2G4,2023-06-02T17:20:00Z,39.58,-79.33,25.0,9.0,0,5,12,10.0,30.088583,,,TRUE,TRUE,,,,,,,BKN,7000,,,,,,,VFR,,,,,,,,,,,,SPECI,908.0
EYVI 021720Z 35012KT CAVOK 11/M00 Q1016 NOSIG,EYVI,2023-06-02T17:20:00Z,54.63,25.28,11.0,0.0,350,12,,6.21,30.0,,,,,,TRUE,,,,,CAVOK,,,,,,,,VFR,,,,,,,,,,,,METAR,180.0
EYSA 021720Z 01006KT CAVOK 10/02 Q1019 NOSIG,EYSA,2023-06-02T17:20:00Z,55.9,23.4,10.0,2.0,10,6,,6.21,30.088583,,,,,,TRUE,,,,,CAVOK,,,,,,,,VFR,,,,,,,,,,,,METAR,135.0
EYPA 021720Z 34008KT 290V030 CAVOK 10/03 Q1021,EYPA,2023-06-02T17:20:00Z,55.97,21.08,10.0,3.0,340,8,,6.21,30.147638,,,,,,,,,,,CAVOK,,,,,,,,VFR,,,,,,,,,,,,METAR,15.0
EYKA 021720Z 32006KT 270V020 CAVOK 10/03 Q1018,EYKA,2023-06-02T17:20:00Z,54.97,24.08,10.0,3.0,320,6,,6.21,30.059055,,,,,,,,,,,CAVOK,,,,,,,,VFR,,,,,,,,,,,,METAR,68.0
EVVA 021720Z AUTO 34011KT 9999 FEW028 10/04 Q1020,EVVA,2023-06-02T17:20:00Z,57.35,21.55,10.0,4.0,340,11,,6.21,30.11811,,,TRUE,,,,,,,,FEW,2800,,,,,,,VFR,,,,,,,,,,,,METAR,1.0
EVRA 021720Z 33010KT 300V360 9999 FEW030CB BKN048 10/02 Q1018 NOSIG,EVRA,2023-06-02T17:20:00Z,56.92,23.97,10.0,2.0,330,10,,6.21,30.059055,,,,,,TRUE,,,,,FEW,3000,BKN,4800,,,,,VFR,,,,,,,,,,,,METAR,7.0
EVLA 021720Z AUTO 34007KT 300V040 9999 FEW039/// 10/02 Q1021,EVLA,2023-06-02T17:20:00Z,56.52,21.1,10.0,2.0,340,7,,6.21,30.147638,,,TRUE,,,,,,,,FEW,3900,,,,,,,VFR,,,,,,,,,,,,METAR,5.0
EVGA 021720Z 31005KT 280V340 9999 FEW034CB 09/03 Q1017 NOSIG,EVGA,2023-06-02T17:20:00Z,56.78,24.85,9.0,3.0,310,5,,6.21,30.029528,,,,,,TRUE,,,,,FEW,3400,,,,,,,VFR,,,,,,,,,,,,METAR,61.0
ETWM 021720Z AUTO 05007KT //// // ////// 18/08 Q1021 ///,ETWM,2023-06-02T17:20:00Z,52.72,7.33,18.0,8.0,50,7,,,30.147638,,,TRUE,,,,,,,,,,,,,,,,,,,,,,,,,,,,METAR,18.0
ETSN 021720Z 34006KT 9999 FEW065 BKN320 22/07 Q1015 BLU+,ETSN,2023-06-02T17:20:00Z,48.72,11.22,22.0,7.0,340,6,,6.21,29.970472,,,,,,,,,,,FEW,6500,BKN,32000,,,,,VFR,,,,,,,,,,,,SPECI,378.0
ETSL 021720Z AUTO 36009KT 9999 // ////// 21/07 Q1015 ///,ETSL,2023-06-02T17:20:00Z,48.18,10.87,21.0,7.0,360,9,,6.21,29.970472,,,TRUE,,,,,,,,,,,,,,,,,,,,,,,,,,,,METAR,548.0
ETSI 021720Z AUTO 01007KT 9999 // ////// 23/07 Q1014 ///,ETSI,2023-06-02T17:20:00Z,48.72,11.53,23.0,7.0,10,7,,6.21,29.940945,,,TRUE,,,,,,,,,,,,,,,,,,,,,,,,,,,,METAR,366.0
ETSH 021720Z 02007KT 9999 FEW065 19/M03 Q1020 BLU+,ETSH,2023-06-02T17:20:00Z,51.77,13.17,19.0,-3.0,20,7,,6.21,30.11811,,,,,,,,,,,FEW,6500,,,,,,,VFR,,,,,,,,,,,,SPECI,79.0
ETSB 021720Z AUTO 04010KT //// // ////// 17/06 Q1018 ///,ETSB,2023-06-02T17:20:00Z,50.17,7.07,17.0,6.0,40,10,,,30.059055,,,TRUE,,,,,,,,,,,,,,,,,,,,,,,,,,,,METAR,477.0
ETNW 021720Z 10006KT 9999 FEW042 BKN068 19/08 Q1021 BLU BLU BECMG BLU+,ETNW,2023-06-02T17:20:00Z,52.45,9.42,19.0,8.0,100,6,,6.21,30.147638,,,,,,,,,,,FEW,4200,BKN,6800,,,,,VFR,,,,,,,,,,,,METAR,57.0
ETNT 021720Z AUTO 05012KT //// // ////// 18/06 Q1022 ///,ETNT,2023-06-02T17:20:00Z,53.53,7.67,18.0,6.0,50,12,,,30.177166,,,TRUE,,,,,,,,,,,,,,,,,,,,,,,,,,,,METAR,5.0
ETNN 021720Z 01010KT 9999 FEW040 18/08 Q1019 BLU+,ETNN,2023-06-02T17:20:00Z,50.82,6.67,18.0,8.0,10,10,,6.21,30.088583,,,,,,,,,,,FEW,4000,,,,,,,VFR,,,,,,,,,,,,SPECI,108.0
ETNL 021720Z 04008KT 9999 FEW060 17/M03 Q1023 BLU+,ETNL,2023-06-02T17:20:00Z,53.92,12.27,17.0,-3.0,40,8,,6.21,30.206694,,,,,,,,,,,FEW,6000,,,,,,,VFR,,,,,,,,,,,,SPECI,40.0
ETNH 021720Z 05011KT 9999 FEW050 17/01 Q1024 BLU+,ETNH,2023-06-02T17:20:00Z,54.32,9.55,17.0,1.0,50,11,,6.21,30.236221,,,,,,,,,,,FEW,5000,,,,,,,VFR,,,,,,,,,,,,SPECI,6.0
ETMN 021720Z 08011KT 9999 FEW060 18/03 Q1023 BLU+,ETMN,2023-06-02T17:20:00Z,53.77,8.67,18.0,3.0,80,11,,6.21,30.206694,,,,,,,,,,,FEW,6000,,,,,,,VFR,,,,,,,,,,,,SPECI,23.0
ETHS 021720Z AUTO 02010KT 8000 // ////// 18/01 Q1021 ///,ETHS,2023-06-02T17:20:00Z,52.92,10.18,18.0,1.0,20,10,,4.97,30.147638,,,TRUE,,,,,,,,,,,,,,,,,,,,,,,,,,,,METAR,71.0
ETHN 021720Z 04011KT 9999 SCT330 19/06 Q1017 BLU+,ETHN,2023-06-02T17:20:00Z,49.38,9.97,19.0,6.0,40,11,,6.21,30.029528,,,,,,,,,,,SCT,33000,,,,,,,VFR,,,,,,,,,,,,SPECI,466.0
ETHL 021720Z AUTO 05009KT 9999 // ////// 22/08 Q1015 ///,ETHL,2023-06-02T17:20:00Z,48.22,9.92,22.0,8.0,50,9,,6.21,29.970472,,,TRUE,,,,,,,,,,,,,,,,,,,,,,,,,,,,METAR,536.0
ETHF 021720Z 05008KT 9999 FEW041 BKN050 17/07 Q1019 BLU,ETHF,2023-06-02T17:20:00Z,51.12,9.28,17.0,7.0,50,8,,6.21,30.088583,,,,,,,,,,,FEW,4100,BKN,5000,,,,,VFR,,,,,,,,,,,,SPECI,171.0
ETHC 021720Z AUTO 04008KT 9000 // ////// 18/02 Q1021 ///,ETHC,2023-06-02T17:20:00Z,52.6,10.02,18.0,2.0,40,8,,5.59,30.147638,,,TRUE,,,,,,,,,,,,,,,,,,,,,,,,,,,,METAR,35.0
ETHB 021720Z AUTO 08007KT 9999 // ////// 17/09 Q1021 ///,ETHB,2023-06-02T17:20:00Z,52.27,9.07,17.0,9.0,80,7,,6.21,30.147638,,,TRUE,,,,,,,,,,,,,,,,,,,,,,,,,,,,METAR,69.0
ETHA 021720Z AUTO 05014KT 9999 // ////// 20/08 Q1015 ///,ETHA,2023-06-02T17:20:00Z,47.83,10.87,20.0,8.0,50,14,,6.21,29.970472,,,TRUE,,,,,,,,,,,,,,,,,,,,,,,,,,,,METAR,738.0
ETGG 021720Z AUTO 11008KT 9999 // ////// 18/01 Q1024 ///,ETGG,2023-06-02T17:20:00Z,54.83,9.5,18.0,1.0,110,8,,6.21,30.236221,,,TRUE,,,,,,,,,,,,,,,,,,,,,,,,,,,,METAR,33.0
ESUT 021720Z 29010KT 260V320 9999 FEW036 BKN098 05/M01 Q1019,ESUT,2023-06-02T17:20:00Z,65.8,15.08,5.0,-1.0,290,10,,6.21,30.088583,,,,,,,,,,,FEW,3600,BKN,9800,,,,,VFR,,,,,,,,,,,,METAR,457.0
ESUP 021720Z AUTO VRB01KT 9999 OVC050/// ///// Q1016,ESUP,2023-06-02T17:20:00Z,67.25,23.07,,,0,1,,6.21,30.0,,,TRUE,,,,,,,,OVC,5000,,,,,,,VFR,,,,,,,,,,,,METAR,164.0
ESTL 021720Z AUTO 30011KT 9999 NCD 15/04 Q1023,ESTL,2023-06-02T17:20:00Z,56.07,13.2,15.0,4.0,300,11,,6.21,30.206694,,,TRUE,,,,,,,,CLR,,,,,,,,VFR,,,,,,,,,,,,METAR,39.0
ESTA 021720Z 32014KT CAVOK 14/04 Q1023,ESTA,2023-06-02T17:20:00Z,56.28,12.83,14.0,4.0,320,14,,6.21,30.206694,,,,,,,,,,,CAVOK,,,,,,,,VFR,,,,,,,,,,,,METAR,19.0
ESSV 021720Z 26006KT CAVOK 11/01 Q1022,ESSV,2023-06-02T17:20:00Z,57.67,18.35,11.0,1.0,260,6,,6.21,30.177166,,,,,,,,,,,CAVOK,,,,,,,,VFR,,,,,,,,,,,,METAR,38.0
ESST 021720Z 31006KT CAVOK 16/M02 Q1021,ESST,2023-06-02T17:20:00Z,60.15,12.98,16.0,-2.0,310,6,,6.21,30.147638,,,,,,,,,,,CAVOK,,,,,,,,VFR,,,,,,,,,,,,METAR,110.0
ESSP 021720Z AUTO 33006KT 9999 FEW076/// 14/M02 Q1022,ESSP,2023-06-02T17:20:00Z,58.58,16.25,14.0,-2.0,330,6,,6.21,30.177166,,,TRUE,,,,,,,,FEW,7600,,,,,,,VFR,,,,,,,,,,,,METAR,3.0
ESSL 021720Z AUTO 28009KT 240V310 9999 FEW066/// 15/M00 Q1022,ESSL,2023-06-02T17:20:00Z,58.4,15.67,15.0,0.0,280,9,,6.21,30.177166,,,TRUE,,,,,,,,FEW,6600,,,,,,,VFR,,,,,,,,,,,,METAR,51.0
ESSD 021720Z AUTO 34005KT 310V010 9999 BKN070/// 13/M01 Q1021,ESSD,2023-06-02T17:20:00Z,60.42,15.5,13.0,-1.0,340,5,,6.21,30.147638,,,TRUE,,,,,,,,BKN,7000,,,,,,,VFR,,,,,,,,,,,,METAR,151.0
ESSB 021720Z VRB03KT CAVOK 14/M03 Q1021,ESSB,2023-06-02T17:20:00Z,59.35,17.93,14.0,-3.0,0,3,,6.21,30.147638,,,,,,,,,,,CAVOK,,,,,,,,VFR,,,,,,,,,,,,METAR,14.0
ESSA 021720Z 04007KT 010V080 CAVOK 12/M01 Q1021 NOSIG,ESSA,2023-06-02T17:20:00Z,59.65,17.93,12.0,-1.0,40,7,,6.21,30.147638,,,,,,TRUE,,,,,CAVOK,,,,,,,,VFR,,,,,,,,,,,,METAR,36.0
ESPE 021720Z AUTO 07004KT 030V100 9999 OVC062/// 10/M02 Q1017,ESPE,2023-06-02T17:20:00Z,65.88,20.15,10.0,-2.0,70,4,,6.21,30.029528,,,TRUE,,,,,,,,OVC,6200,,,,,,,VFR,,,,,,,,,,,,METAR,182.0
ESPA 021720Z 36005KT 320V050 CAVOK 10/M00 Q1017,ESPA,2023-06-02T17:20:00Z,65.53,22.12,10.0,0.0,360,5,,6.21,30.029528,,,,,,,,,,,CAVOK,,,,,,,,VFR,,,,,,,,,,,,METAR,12.0
ESOW 021720Z AUTO 34006KT 9999 OVC078/// 14/M03 Q1021,ESOW,2023-06-02T17:20:00Z,59.58,16.63,14.0,-3.0,340,6,,6.21,30.147638,,,TRUE,,,,,,,,OVC,7800,,,,,,,VFR,,,,,,,,,,,,METAR,7.0
ESOK 021720Z AUTO 31003KT 240V360 9999 NCD 15/M01 Q1022,ESOK,2023-06-02T17:20:00Z,59.45,13.33,15.0,-1.0,310,3,,6.21,30.177166,,,TRUE,,,,,,,,CLR,,,,,,,,VFR,,,,,,,,,,,,METAR,101.0
ESOH 021720Z 34004KT 280V030 9999 NSC 15/M01 Q1021,ESOH,2023-06-02T17:20:00Z,60.02,13.58,15.0,-1.0,340,4,,6.21,30.147638,,,,,,,,,,,CLR,,,,,,,,VFR,,,,,,,,,,,,METAR,145.0
ESOE 021720Z 36009KT 310V030 CAVOK 15/M01 Q1022,ESOE,2023-06-02T17:20:00Z,59.22,15.05,15.0,-1.0,360,9,,6.21,30.177166,,,,,,,,,,,CAVOK,,,,,,,,VFR,,,,,,,,,,,,METAR,57.0
ESNZ 021720Z 29014KT 9999 SCT037 07/M06 Q1021,ESNZ,2023-06-02T17:20:00Z,63.18,14.5,7.0,-6.0,290,14,,6.21,30.147638,,,,,,,,,,,SCT,3700,,,,,,,VFR,,,,,,,,,,,,METAR,360.0
ESNX 021720Z AUTO 33006KT 9999 OVC061/// 09/M02 Q1016,ESNX,2023-06-02T17:20:00Z,65.58,19.28,9.0,-2.0,330,6,,6.21,30.0,,,TRUE,,,,,,,,OVC,6100,,,,,,,VFR,,,,,,,,,,,,METAR,380.0
ESNV 021720Z AUTO 31007KT 9999 NCD 10/M02 Q1018,ESNV,2023-06-02T17:20:00Z,64.58,16.83,10.0,-2.0,310,7,,6.21,30.059055,,,TRUE,,,,,,,,CLR,,,,,,,,VFR,,,,,,,,,,,,METAR,348.0
ESNU 021720Z 18008KT 150V210 CAVOK 10/M00 Q1018,ESNU,2023-06-02T17:20:00Z,63.78,20.28,10.0,0.0,180,8,,6.21,30.059055,,,,,,,,,,,CAVOK,,,,,,,,VFR,,,,,,,,,,,,METAR,8.0
ESNS 021720Z 08008KT CAVOK 10/M01 Q1018,ESNS,2023-06-02T17:20:00Z,64.62,21.07,10.0,-1.0,80,8,,6.21,30.059055,,,,,,,,,,,CAVOK,,,,,,,,VFR,,,,,,,,,,,,METAR,41.0
ESNQ 021720Z 34005KT CAVOK 07/M04 Q1015,ESNQ,2023-06-02T17:20:00Z,67.82,20.33,7.0,-4.0,340,5,,6.21,29.970472,,,,,,,,,,,CAVOK,,,,,,,,VFR,,,,,,,,,,,,METAR,447.0
ESNO 021720Z 20008KT CAVOK 09/M01 Q1018,ESNO,2023-06-02T17:20:00Z,63.4,18.97,9.0,-1.0,200,8,,6.21,30.059055,,,,,,,,,,,CAVOK,,,,,,,,VFR,,,,,,,,,,,,METAR,100.0
ESNN 021720Z 32010KT 290V350 CAVOK 13/M03 Q1019,ESNN,2023-06-02T17:20:00Z,62.52,17.43,13.0,-3.0,320,10,,6.21,30.088583,,,,,,,,,,,CAVOK,,,,,,,,VFR,,,,,,,,,,,,METAR,4.0
ESNL 021720Z AUTO 32007KT 9999 BKN079/// 12/M04 Q1017,ESNL,2023-06-02T17:20:00Z,64.55,18.72,12.0,-4.0,320,7,,6.21,30.029528,,,TRUE,,,,,,,,BKN,7900,,,,,,,VFR,,,,,,,,,,,,METAR,220.0
ESNK 021720Z AUTO 31010KT 9999 SCT074/// 13/M03 Q1019,ESNK,2023-06-02T17:20:00Z,63.03,17.77,13.0,-3.0,310,10,,6.21,30.088583,,,TRUE,,,,,,,,SCT,7400,,,,,,,VFR,,,,,,,,,,,,METAR,4.0
ESNG 021720Z 07003KT 010V150 9999 BKN048 08/M03 Q1016,ESNG,2023-06-02T17:20:00Z,67.13,20.82,8.0,-3.0,70,3,,6.21,30.0,,,,,,,,,,,BKN,4800,,,,,,,VFR,,,,,,,,,,,,METAR,300.0
ESND 021720Z AUTO 30011KT 250V320 9999 SCT059/// 12/M03 Q1021,ESND,2023-06-02T17:20:00Z,62.05,14.42,12.0,-3.0,300,11,,6.21,30.147638,,,TRUE,,,,,,,,SCT,5900,,,,,,,VFR,,,,,,,,,,,,METAR,352.0
ESMX 021720Z AUTO 01005KT 9999 FEW070/// 15/M02 Q1022,ESMX,2023-06-02T17:20:00Z,56.92,14.72,15.0,-2.0,10,5,,6.21,30.177166,,,TRUE,,,,,,,,FEW,7000,,,,,,,VFR,,,,,,,,,,,,METAR,176.0
ESMT 021720Z 32012KT CAVOK 14/05 Q1023,ESMT,2023-06-02T17:20:00Z,56.68,12.82,14.0,5.0,320,12,,6.21,30.206694,,,,,,,,,,,CAVOK,,,,,,,,VFR,,,,,,,,,,,,METAR,24.0
ESMS 021720Z 19008KT CAVOK 14/05 Q1023,ESMS,2023-06-02T17:20:00Z,55.53,13.37,14.0,5.0,190,8,,6.21,30.206694,,,,,,,,,,,CAVOK,,,,,,,,VFR,,,,,,,,,,,,METAR,68.0
ESMQ 021720Z 16007KT CAVOK 12/01 Q1023,ESMQ,2023-06-02T17:20:00Z,56.68,16.3,12.0,1.0,160,7,,6.21,30.206694,,,,,,,,,,,CAVOK,,,,,,,,VFR,,,,,,,,,,,,METAR,3.0
ESMK 021720Z AUTO 11010KT 9999 NCD 14/07 Q1023,ESMK,2023-06-02T17:20:00Z,55.92,14.08,14.0,7.0,110,10,,6.21,30.206694,,,TRUE,,,,,,,,CLR,,,,,,,,VFR,,,,,,,,,,,,METAR,20.0
ESKS 021720Z AUTO 36008KT 330V030 9999 FEW100/// 12/M04 Q1020,ESKS,2023-06-02T17:20:00Z,61.17,12.83,12.0,-4.0,360,8,,6.21,30.11811,,,TRUE,,,,,,,,FEW,10000,,,,,,,VFR,,,,,,,,,,,,METAR,503.0
ESKN 021720Z 31006KT 260V010 CAVOK 14/M01 Q1021,ESKN,2023-06-02T17:20:00Z,58.78,16.92,14.0,-1.0,310,6,,6.21,30.147638,,,,,,,,,,,CAVOK,,,,,,,,VFR,,,,,,,,,,,,METAR,41.0
ESKM 021720Z AUTO 29005KT 250V320 9999 NCD 14/M02 Q1021,ESKM,2023-06-02T17:20:00Z,60.97,14.52,14.0,-2.0,290,5,,6.21,30.147638,,,TRUE,,,,,,,,CLR,,,,,,,,VFR,,,,,,,,,,,,METAR,184.0
ESIB 021720Z AUTO 10003KT 070V130 9999 NCD 14/M01 Q1023,ESIB,2023-06-02T17:20:00Z,58.42,12.7,14.0,-1.0,100,3,,6.21,30.206694,,,TRUE,,,,,,,,CLR,,,,,,,,VFR,,,,,,,,,,,,METAR,51.0
ESIA 021720Z AUTO 32005KT 270V060 9999 NCD 13/M01 Q1023,ESIA,2023-06-02T17:20:00Z,58.52,14.5,13.0,-1.0,320,5,,6.21,30.206694,,,TRUE,,,,,,,,CLR,,,,,,,,VFR,,,,,,,,,,,,METAR,94.0
ESGT 021720Z AUTO VRB02KT 9999 R15///// R33///// NCD 15/M01 Q1023,ESGT,2023-06-02T17:20:00Z,58.32,12.33,15.0,-1.0,0,2,,6.21,30.206694,,,TRUE,,,,,,,,CLR,,,,,,,,VFR,,,,,,,,,,,,METAR,40.0
ESGP 021720Z 31006KT CAVOK 14/01 Q1024,ESGP,2023-06-02T17:20:00Z,57.77,11.87,14.0,1.0,310,6,,6.21,30.236221,,,,,,,,,,,CAVOK,,,,,,,,VFR,,,,,,,,,,,,METAR,15.0
ESGJ 021720Z AUTO 04003KT 350V070 9999 NCD 13/00 Q1023,ESGJ,2023-06-02T17:20:00Z,57.77,14.07,13.0,0.0,40,3,,6.21,30.206694,,,TRUE,,,,,,,,CLR,,,,,,,,VFR,,,,,,,,,,,,METAR,224.0
ESGG 021720Z 30008KT CAVOK 13/01 Q1023,ESGG,2023-06-02T17:20:00Z,57.67,12.3,13.0,1.0,300,8,,6.21,30.206694,,,,,,,,,,,CAVOK,,,,,,,,VFR,,,,,,,,,,,,METAR,152.0
ESDF 021720Z 18009KT CAVOK 11/06 Q1024,ESDF,2023-06-02T17:20:00Z,56.27,15.27,11.0,6.0,180,9,,6.21,30.236221,,,,,,,,,,,CAVOK,,,,,,,,VFR,,,,,,,,,,,,METAR,52.0
ESCM 021720Z AUTO 08010KT 9999 OVC076/// 12/01 Q1021,ESCM,2023-06-02T17:20:00Z,59.88,17.6,12.0,1.0,80,10,,6.21,30.147638,,,TRUE,,,,,,,,OVC,7600,,,,,,,VFR,,,,,,,,,,,,METAR,21.0
ESCF 021720Z AUTO 29009KT 9999 NCD 14/00 Q1022,ESCF,2023-06-02T17:20:00Z,58.38,15.52,14.0,0.0,290,9,,6.21,30.177166,,,TRUE,,,,,,,,CLR,,,,,,,,VFR,,,,,,,,,,,,METAR,86.0
ENZV 021720Z 29005KT 260V320 CAVOK 11/06 Q1025,ENZV,2023-06-02T17:20:00Z,58.88,5.63,11.0,6.0,290,5,,6.21,30.265747,,,,,,,,,,,CAVOK,,,,,,,,VFR,,,,,,,,,,,,METAR,7.0
ENWV 021720Z AUTO 35010KT 9999NDV FEW013/// 12/07 Q1026 W///S4,ENWV,2023-06-02T17:20:00Z,56.28,3.4,12.0,7.0,350,10,,,30.295275,,,TRUE,,,,,,,,FEW,1300,,,,,,,,,,,,,,,,,,,METAR,30.0
ENVD 021720Z 21004KT CAVOK 06/M01 Q1016,ENVD,2023-06-02T17:20:00Z,70.07,29.85,6.0,-1.0,210,4,,6.21,30.0,,,,,,,,,,,CAVOK,,,,,,,,VFR,,,,,,,,,,,,METAR,39.0
ENVA 021720Z 29004KT 9999 VCSH BKN029 09/03 Q1024 BECMG BKN014 RMK WIND 670FT 28008KT,ENVA,2023-06-02T17:20:00Z,63.47,10.92,9.0,3.0,290,4,,6.21,30.236221,,,,,,,,,,VCSH,BKN,2900,,,,,,,MVFR,,,,,,,,,,,,SPECI,12.0
ENUN 021720Z AUTO 24031KT 150V250 9999NDV OVC033/// 08/// Q1015 W08/S4,ENUN,2023-06-02T17:20:00Z,,,8.0,,240,31,,,29.970472,,,TRUE,,,,,,,,OVC,3300,,,,,,,,,,,,,,,,,,,METAR,
ENUG 021720Z AUTO 27013KT 9999NDV SCT017/// BKN040/// 08/01 Q1014 W///S4,ENUG,2023-06-02T17:20:00Z,71.3,22.25,8.0,1.0,270,13,,,29.940945,,,TRUE,,,,,,,,SCT,1700,BKN,4000,,,,,,,,,,,,,,,,,METAR,30.0
ENTO 021720Z 19012KT CAVOK 12/02 Q1023 NOSIG,ENTO,2023-06-02T17:20:00Z,59.2,10.27,12.0,2.0,190,12,,6.21,30.206694,,,,,,TRUE,,,,,CAVOK,,,,,,,,VFR,,,,,,,,,,,,METAR,84.0
ENTC 021720Z 23007KT 210V270 9999 SCT034 BKN043 08/02 Q1016 NOSIG RMK WIND 2600FT 20014KT,ENTC,2023-06-02T17:20:00Z,69.68,18.92,8.0,2.0,230,7,,6.21,30.0,,,,,,TRUE,,,,,SCT,3400,BKN,4300,,,,,VFR,,,1.4,,,,,,,,,SPECI,9.0
ENST 021720Z 19015KT 9999 -RA FEW008 SCT015 BKN023 07/05 Q1021 RMK WIND 300FT 20018KT,ENST,2023-06-02T17:20:00Z,65.97,12.47,7.0,5.0,190,15,,6.21,30.147638,,,,,,,,,,-RA,FEW,800,SCT,1500,BKN,2300,,,MVFR,,,1.8,,,,,,,,,METAR,17.0
ENSS 021720Z 21007KT 180V240 9999 FEW029 BKN057 05/M00 Q1016 RMK WIND 0500FT 22011KT,ENSS,2023-06-02T17:20:00Z,70.35,31.05,5.0,0.0,210,7,,6.21,30.0,,,,,,,,,,,FEW,2900,BKN,5700,,,,,VFR,,,,,,,,,,,,SPECI,13.0
ENSR 021720Z 01006KT 9999 FEW028 BKN051 08/02 Q1016 RMK WIND RWY32 36005KT WIND 1118FT VRB02KT,ENSR,2023-06-02T17:20:00Z,69.78,20.97,8.0,2.0,10,6,,6.21,30.0,,,,,,,,,,,FEW,2800,BKN,5100,,,,,VFR,,,,,,,,,,,,SPECI,5.0
ENSL 021720Z AUTO 35013KT 9999NDV BKN013/// 10/06 Q1027 W09/S4,ENSL,2023-06-02T17:20:00Z,58.37,1.9,10.0,6.0,350,13,,,30.324802,,,TRUE,,,,,,,,BKN,1300,,,,,,,,,,,,,,,,,,,METAR,50.0
ENSK 021720Z 19012KT 9999 -SHRA FEW020 SCT038 BKN048 06/02 Q1016,ENSK,2023-06-02T17:20:00Z,68.57,15.02,6.0,2.0,190,12,,6.21,30.0,,,,,,,,,,-SHRA,FEW,2000,SCT,3800,BKN,4800,,,VFR,,,,,,,,,,,,METAR,3.0
ENSH 021720Z 21020KT 9999 -RA BKN020 06/03 Q1017 RMK WIND 0150FT 19019KT,ENSH,2023-06-02T17:20:00Z,68.25,14.67,6.0,3.0,210,20,,6.21,30.029528,,,,,,,,,,-RA,BKN,2000,,,,,,,MVFR,,,,,,,,,,,,SPECI,9.0
ENSG 021720Z 25008KT 230V290 9999 FEW062 SCT110 12/M01 Q1023 RMK WIND 3806FT 27012KT,ENSG,2023-06-02T17:20:00Z,61.15,7.13,12.0,-1.0,250,8,,6.21,30.206694,,,,,,,,,,,FEW,6200,SCT,11000,,,,,VFR,,,,,,,,,,,,SPECI,493.0
ENSF 021720Z AUTO 25007KT 9999NDV NCD ///// Q//// W///S3,ENSF,2023-06-02T17:20:00Z,61.25,1.85,,,250,7,,,,,,TRUE,,,,,,,,CLR,,,,,,,,,,,,,,,,,,,,METAR,15.0
ENSE 021720Z AUTO 23006G18KT 170V320 //// FEW015/// SCT090/// 11/06 Q1027 W///S4,ENSE,2023-06-02T17:20:00Z,61.45,2.15,11.0,6.0,230,6,18,,30.324802,,,TRUE,,,,,,,,FEW,1500,SCT,9000,,,,,,,,,,,,,,,,,METAR,10.0
ENSD 021720Z 32005KT 280V360 9999 FEW045 SCT050 BKN065 12/05 Q1026 RMK WIND RWY26 VRB02KT WIND 1140FT VRB04KT,ENSD,2023-06-02T17:20:00Z,61.82,6.12,12.0,5.0,320,5,,6.21,30.295275,,,,,,,,,,,FEW,4500,SCT,5000,BKN,6500,,,VFR,,,,,,,,,,,,SPECI,61.0
ENSB 021720Z 27006KT CAVOK 02/M05 Q1012 RMK WIND 1400FT 31003KT,ENSB,2023-06-02T17:20:00Z,78.25,15.47,2.0,-5.0,270,6,,6.21,29.88189,,,,,,,,,,,CAVOK,,,,,,,,VFR,,,,,,,,,,,,SPECI,30.0
ENRY 021720Z 22012KT CAVOK 14/01 Q1023,ENRY,2023-06-02T17:20:00Z,59.37,10.77,14.0,1.0,220,12,,6.21,30.206694,,,,,,,,,,,CAVOK,,,,,,,,VFR,,,,,,,,,,,,METAR,45.0
ENRS 021720Z 20018KT 5000 RA OVC004 07/07 Q1016,ENRS,2023-06-02T17:20:00Z,67.52,12.1,7.0,7.0,200,18,,3.11,30.0,,,,,,,,,,RA,OVC,400,,,,,,,LIFR,,,,,,,,,,,,METAR,4.0
ENRO 021720Z AUTO 32007KT 280V340 9999 BKN028/// OVC033/// 06/M00 Q1022,ENRO,2023-06-02T17:20:00Z,62.57,11.33,6.0,0.0,320,7,,6.21,30.177166,,,TRUE,,,,,,,,BKN,2800,OVC,3300,,,,,MVFR,,,,,,,,,,,,METAR,624.0
ENRM 021720Z 22015KT 9999 -RA OVC005 07/06 Q1022,ENRM,2023-06-02T17:20:00Z,64.83,11.13,7.0,6.0,220,15,,6.21,30.177166,,,,,,,,,,-RA,OVC,500,,,,,,,IFR,,,,,,,,,,,,METAR,4.0
ENRA 021720Z 27008KT 9999 FEW030 BKN060 08/00 Q1021,ENRA,2023-06-02T17:20:00Z,66.37,14.3,8.0,0.0,270,8,,6.21,30.147638,,,,,,,,,,,FEW,3000,BKN,6000,,,,,VFR,,,,,,,,,,,,METAR,66.0
ENQR 021720Z AUTO 25006KT 9999NDV FEW015/// 11/06 Q1027 W10/S3,ENQR,2023-06-02T17:20:00Z,61.52,2.22,11.0,6.0,250,6,,,30.324802,,,TRUE,,,,,,,,FEW,1500,,,,,,,,,,,,,,,,,,,METAR,10.0
ENQC 021720Z AUTO 33014KT 9999NDV OVC070/// 12/07 Q1026 W///S4,ENQC,2023-06-02T17:20:00Z,60.88,3.62,12.0,7.0,330,14,,,30.295275,,,TRUE,,,,,,,,OVC,7000,,,,,,,,,,,,,,,,,,,METAR,20.0
ENQA 021720Z AUTO 35020KT 9999NDV OVC069/// 09/06 Q1026 W12/S4,ENQA,2023-06-02T17:20:00Z,60.65,3.72,9.0,6.0,350,20,,,30.295275,,,TRUE,,,,,,,,OVC,6900,,,,,,,,,,,,,,,,,,,METAR,90.0
ENOV 021720Z 07004KT 9999 -RA SCT015 BKN027 09/06 Q1026 RMK WIND RWY24 06004KT WIND 2090FT 00000KT,ENOV,2023-06-02T17:20:00Z,62.17,6.07,9.0,6.0,70,4,,6.21,30.295275,,,,,,,,,,-RA,SCT,1500,BKN,2700,,,,,MVFR,,,,,,,,,,,,SPECI,72.0
ENOL 021720Z 23012KT 3500 -DZ SCT003 OVC007 07/07 Q1024 TEMPO 2000 DZ BR OVC004,ENOL,2023-06-02T17:20:00Z,63.7,9.6,7.0,7.0,230,12,,2.17,30.236221,,,,,,,,,,-DZ,SCT,300,OVC,700,,,,,IFR,,,,,,,,,,,,SPECI,9.0
ENNM 021720Z AUTO 25004KT 9999 -RA OVC025/// 08/04 Q1023,ENNM,2023-06-02T17:20:00Z,64.47,11.57,8.0,4.0,250,4,,6.21,30.206694,,,TRUE,,,,,,,-RA,OVC,2500,,,,,,,MVFR,,,,,,,,,,,,METAR,2.0
ENNE 021720Z AUTO 27018KT 6000NDV -RA OVC006/// 08/07 Q1019 W///S3,ENNE,2023-06-02T17:20:00Z,66.03,8.08,8.0,7.0,270,18,,,30.088583,,,TRUE,,,,,,,-RA,OVC,600,,,,,,,,,,,,,,,,,,,METAR,10.0
ENNA 021720Z 30010KT CAVOK 08/M01 Q1016 RMK WIND 1800FT 31014KT,ENNA,2023-06-02T17:20:00Z,70.07,24.97,8.0,-1.0,300,10,,6.21,30.0,,,,,,,,,,,CAVOK,,,,,,,,VFR,,,,,,,,,,,,SPECI,12.0
ENMS 021720Z 20006KT 170V240 9999 SCT027 BKN034 08/01 Q1021 RMK WIND 412FT 17005KT,ENMS,2023-06-02T17:20:00Z,65.78,13.22,8.0,1.0,200,6,,6.21,30.147638,,,,,,,,,,,SCT,2700,BKN,3400,,,,,VFR,,,,,,,,,,,,SPECI,44.0
ENML 021720Z 26009KT 9999 VCSH FEW012 SCT022 BKN026 09/07 Q1026,ENML,2023-06-02T17:20:00Z,62.75,7.27,9.0,7.0,260,9,,6.21,30.295275,,,,,,,,,,VCSH,FEW,1200,SCT,2200,BKN,2600,,,MVFR,,,,,,,,,,,,METAR,3.0
ENMH 021720Z 30004KT 270V330 9999 FEW017 BKN025 05/02 Q1015,ENMH,2023-06-02T17:20:00Z,71.02,27.82,5.0,2.0,300,4,,6.21,29.970472,,,,,,,,,,,FEW,1700,BKN,2500,,,,,MVFR,,,,,,,,,,,,METAR,10.0
ENLK 021720Z 18015G25KT 9999 RA SCT010 BKN015 06/06 Q1016,ENLK,2023-06-02T17:20:00Z,68.15,13.62,6.0,6.0,180,15,25,6.21,30.0,,,,,,,,,,RA,SCT,1000,BKN,1500,,,,,MVFR,,,,,,,,,,,,METAR,26.0
ENLE 021720Z 34014KT 9999 FEW015 09/06 Q1026 W11/S4,ENLE,2023-06-02T17:20:00Z,56.53,3.22,9.0,6.0,340,14,,6.21,30.295275,,,,,,,,,,,FEW,1500,,,,,,,VFR,,,,,,,,,,,,METAR,10.0
ENLA 021720Z AUTO 33013KT 9999NDV FEW012/// 10/07 Q1026 W///S4,ENLA,2023-06-02T17:20:00Z,57.1,2.83,10.0,7.0,330,13,,,30.295275,,,TRUE,,,,,,,,FEW,1200,,,,,,,,,,,,,,,,,,,METAR,10.0
ENKR 021720Z VRB03KT 9999 BKN057 06/M03 Q1016 RMK WIND 731FT VRB03KT,ENKR,2023-06-02T17:20:00Z,69.72,29.88,6.0,-3.0,0,3,,6.21,30.0,,,,,,,,,,,BKN,5700,,,,,,,VFR,,,,,,,,,,,,SPECI,86.0
ENKB 021720Z 24010KT 9999 -DZ VV005 08/06 Q1025 RMK WIND 745FT 25017KT,ENKB,2023-06-02T17:20:00Z,63.12,7.82,8.0,6.0,240,10,,6.21,30.265747,,,,,,,,,,-DZ,OVX,0,,,,,,,LIFR,,,,,,,,,,,500,SPECI,62.0
ENJS 021720Z 01015KT 9999 BKN012 10/06 Q1027 W09/S/,ENJS,2023-06-02T17:20:00Z,,,10.0,6.0,10,15,,6.21,30.324802,,,,,,,,,,,BKN,1200,,,,,,,MVFR,,,,,,,,,,,,METAR,
ENHV 021720Z 27008KT 9999 FEW017 BKN025 05/02 Q1016,ENHV,2023-06-02T17:20:00Z,71.02,25.97,5.0,2.0,270,8,,6.21,30.0,,,,,,,,,,,FEW,1700,BKN,2500,,,,,MVFR,,,,,,,,,,,,METAR,13.0
ENHM 021720Z AUTO 36011KT //// BKN015/// 09/09 Q1027 W10/S/,ENHM,2023-06-02T17:20:00Z,59.57,2.23,9.0,9.0,360,11,,,30.324802,,,TRUE,,,,,,,,BKN,1500,,,,,,,,,,,,,,,,,,,METAR,10.0
ENHK 021720Z AUTO 26005KT 230V290 9999 BKN016/// BKN044/// 06/03 Q1016,ENHK,2023-06-02T17:20:00Z,70.48,22.13,6.0,3.0,260,5,,6.21,30.0,,,TRUE,,,,,,,,BKN,1600,BKN,4400,,,,,MVFR,,,,,,,,,,,,METAR,6.0
ENHF 021720Z 24010KT 9999 -SHRA FEW015 SCT023 BKN029 05/02 Q1015 RMK WIND 1254FT 28013KT,ENHF,2023-06-02T17:20:00Z,70.67,23.67,5.0,2.0,240,10,,6.21,29.970472,,,,,,,,,,-SHRA,FEW,1500,SCT,2300,BKN,2900,,,MVFR,,,,,,,,,,,,SPECI,79.0
ENHE 021720Z 27025KT 9999 -RA BKN008 07/06 Q1020 W///S4,ENHE,2023-06-02T17:20:00Z,65.33,2.33,7.0,6.0,270,25,,6.21,30.11811,,,,,,,,,,-RA,BKN,800,,,,,,,IFR,,,,,,,,,,,,SPECI,10.0
ENHD 021720Z 34010KT CAVOK 11/07 Q1025,ENHD,2023-06-02T17:20:00Z,59.35,5.22,11.0,7.0,340,10,,6.21,30.265747,,,,,,,,,,,CAVOK,,,,,,,,VFR,,,,,,,,,,,,METAR,22.0
ENGM 021720Z 17006KT 130V220 CAVOK 17/M03 Q1021 NOSIG,ENGM,2023-06-02T17:20:00Z,60.2,11.07,17.0,-3.0,170,6,,6.21,30.147638,,,,,,TRUE,,,,,CAVOK,,,,,,,,VFR,,,,,,,,,,,,METAR,204.0
ENGC 021720Z 29005KT 9999 SCT015 09/05 Q1027 W08/S3,ENGC,2023-06-02T17:20:00Z,61.02,2.02,9.0,5.0,290,5,,6.21,30.324802,,,,,,,,,,,SCT,1500,,,,,,,VFR,,,,,,,,,,,,SPECI,10.0
ENFL 021720Z 31016KT 9999 FEW014 SCT070 10/06 Q1026,ENFL,2023-06-02T17:20:00Z,61.57,5.02,10.0,6.0,310,16,,6.21,30.295275,,,,,,,,,,,FEW,1400,SCT,7000,,,,,VFR,,,,,,,,,,,,METAR,1.0
ENFB 021720Z AUTO 24006KT //// NCD ///// Q//// W///S3,ENFB,2023-06-02T17:20:00Z,61.2,1.83,,,240,6,,,,,,TRUE,,,,,,,,CLR,,,,,,,,,,,,,,,,,,,,SPECI,10.0
ENEV 021720Z 24010G20KT 190V280 9999 SCT024 BKN030 06/02 Q1018 RMK WIND 1400FT 24026G37KT,ENEV,2023-06-02T17:20:00Z,68.48,16.67,6.0,2.0,240,10,20,6.21,30.059055,,,,,,,,,,,SCT,2400,BKN,3000,,,,,MVFR,,,,,,,,,,,,SPECI,26.0
ENDU 021720Z 23006KT 180V280 9999 SCT040 09/00 Q1016 RMK WIND 1100FT 21007KT WIND 2200FT 23009KT,ENDU,2023-06-02T17:20:00Z,69.05,18.55,9.0,0.0,230,6,,6.21,30.0,,,,,,,,,,,SCT,4000,,,,,,,VFR,,,-0.7,,,,,,,,,SPECI,65.0
ENDR 021720Z AUTO 26020KT 9999NDV -RA BKN007/// BKN027/// OVC092/// 07/07 Q1023 W///S3,ENDR,2023-06-02T17:20:00Z,64.35,7.77,7.0,7.0,260,20,,,30.206694,,,TRUE,,,,,,,-RA,BKN,700,BKN,2700,OVC,9200,,,,,,,,,,,,,,,SPECI,10.0
ENCN 021720Z 20011KT 180V230 CAVOK 12/05 Q1024,ENCN,2023-06-02T17:20:00Z,58.2,8.07,12.0,5.0,200,11,,6.21,30.236221,,,,,,,,,,,CAVOK,,,,,,,,VFR,,,,,,,,,,,,METAR,17.0
ENBV 021720Z 31006KT 9999 -RA FEW018 SCT024 BKN031 05/02 Q1015,ENBV,2023-06-02T17:20:00Z,70.87,29.02,5.0,2.0,310,6,,6.21,29.970472,,,,,,,,,,-RA,FEW,1800,SCT,2400,BKN,3100,,,VFR,,,,,,,,,,,,METAR,13.0
ENBS 021720Z 27007KT 9999 SCT030 BKN057 04/00 Q1015,ENBS,2023-06-02T17:20:00Z,70.62,29.68,4.0,0.0,270,7,,6.21,29.970472,,,,,,,,,,,SCT,3000,BKN,5700,,,,,VFR,,,,,,,,,,,,METAR,144.0
ENBR 021720Z 30010KT CAVOK 12/07 Q1024 NOSIG RMK WIND 1200FT 33014KT,ENBR,2023-06-02T17:20:00Z,60.28,5.22,12.0,7.0,300,10,,6.21,30.236221,,,,,,TRUE,,,,,CAVOK,,,,,,,,VFR,,,,,,,,,,,,SPECI,49.0
ENBO 021720Z 22014KT 9999 -DZ SCT025 BKN070 07/01 Q1019 TEMPO RA,ENBO,2023-06-02T17:20:00Z,67.27,14.37,7.0,1.0,220,14,,6.21,30.088583,,,,,,,,,,-DZ,SCT,2500,BKN,7000,,,,,VFR,,,,,,,,,,,,SPECI,13.0
ENBN 021720Z 21013KT 9999 -RA FEW015 BKN021 07/05 Q1022,ENBN,2023-06-02T17:20:00Z,65.47,12.22,7.0,5.0,210,13,,6.21,30.177166,,,,,,,,,,-RA,FEW,1500,BKN,2100,,,,,MVFR,,,,,,,,,,,,METAR,3.0
ENBL 021720Z 32007KT 9999 FEW050 SCT070 12/04 Q1024,ENBL,2023-06-02T17:20:00Z,61.4,5.77,12.0,4.0,320,7,,6.21,30.236221,,,,,,,,,,,FEW,5000,SCT,7000,,,,,VFR,,,,,,,,,,,,METAR,313.0
ENAT 021720Z 07005KT 9999 SCT027 BKN051 07/01 Q1016 RMK WIND 700FT 09004KT,ENAT,2023-06-02T17:20:00Z,69.97,23.37,7.0,1.0,70,5,,6.21,30.0,,,,,,,,,,,SCT,2700,BKN,5100,,,,,VFR,,,,,,,,,,,,SPECI,3.0
ENAN 021720Z 20013KT 9999 FEW017 SCT035 BKN098 07/02 Q1015,ENAN,2023-06-02T17:20:00Z,69.3,16.13,7.0,2.0,200,13,,6.21,29.970472,,,,,,,,,,,FEW,1700,SCT,3500,BKN,9800,,,VFR,,,,,,,,,,,,METAR,13.0
ENAL 021720Z 24007KT 9999 SCT008 BKN023 08/07 Q1026,ENAL,2023-06-02T17:20:00Z,62.57,6.12,8.0,7.0,240,7,,6.21,30.295275,,,,,,,,,,,SCT,800,BKN,2300,,,,,MVFR,,,,,,,,,,,,METAR,21.0
ELLX 021720Z 05013KT CAVOK 19/06 Q1017 NOSIG,ELLX,2023-06-02T17:20:00Z,49.63,6.2,19.0,6.0,50,13,,6.21,30.029528,,,,,,TRUE,,,,,CAVOK,,,,,,,,VFR,,,,,,,,,,,,METAR,374.0
EKYT 021720Z AUTO 32005KT 290V030 9999 NCD 16/01 Q1024,EKYT,2023-06-02T17:20:00Z,57.1,9.87,16.0,1.0,320,5,,6.21,30.236221,,,TRUE,,,,,,,,CLR,,,,,,,,VFR,,,,,,,,,,,,METAR,2.0
EKVG 021720Z AUTO 29010KT 9999 FEW008/// 10/09 Q1025 RMK BKN005/// WIND SKEID 29013KT,EKVG,2023-06-02T17:20:00Z,62.07,-7.27,10.0,9.0,290,10,,6.21,30.265747,,,TRUE,,,,,,,,FEW,800,,,,,,,VFR,,,,,,,,,,,,SPECI,89.0
EKVD 021720Z AUTO 12006KT 080V150 //// ///////// 17/03 Q1024,EKVD,2023-06-02T17:20:00Z,55.43,9.32,17.0,3.0,120,6,,,30.236221,,,TRUE,,,,,,,,,,,,,,,,,,,,,,,,,,,,SPECI,41.0
EKSP 021720Z 12006KT 090V160 CAVOK 17/01 Q1024 RMK FEW055 SCT071,EKSP,2023-06-02T17:20:00Z,55.22,9.27,17.0,1.0,120,6,,6.21,30.236221,,,,,,,,,,,CAVOK,,,,,,,,VFR,,,,,,,,,,,,SPECI,40.0
EKSB 021720Z 07008KT 9999 FEW045 16/01 Q1024,EKSB,2023-06-02T17:20:00Z,54.97,9.8,16.0,1.0,70,8,,6.21,30.236221,,,,,,,,,,,FEW,4500,,,,,,,VFR,,,,,,,,,,,,METAR,23.0
EKRS 021720Z AUTO VRB07KT 9999 NCD 15/02 Q1024,EKRS,2023-06-02T17:20:00Z,55.42,11.8,15.0,2.0,0,7,,6.21,30.236221,,,TRUE,,,,,,,,CLR,,,,,,,,VFR,,,,,,,,,,,,METAR,34.0
EKRN 021720Z AUTO 14008KT 9999 NCD 12/05 Q1024,EKRN,2023-06-02T17:20:00Z,55.07,14.75,12.0,5.0,140,8,,6.21,30.236221,,,TRUE,,,,,,,,CLR,,,,,,,,VFR,,,,,,,,,,,,METAR,14.0
EKRK 021720Z AUTO 34009KT 9999 NCD 14/03 Q1024,EKRK,2023-06-02T17:20:00Z,55.58,12.13,14.0,3.0,340,9,,6.21,30.236221,,,TRUE,,,,,,,,CLR,,,,,,,,VFR,,,,,,,,,,,,METAR,40.0
EKKA 021720Z AUTO 36006KT 340V040 9999 FEW076/// 17/02 Q1024,EKKA,2023-06-02T17:20:00Z,56.3,9.12,17.0,2.0,360,6,,6.21,30.236221,,,TRUE,,,,,,,,FEW,7600,,,,,,,VFR,,,,,,,,,,,,METAR,50.0
EKEB 021720Z AUTO 30010KT 9999 BKN075/// 17/04 Q1024,EKEB,2023-06-02T17:20:00Z,55.52,8.55,17.0,4.0,300,10,,6.21,30.236221,,,TRUE,,,,,,,,BKN,7500,,,,,,,VFR,,,,,,,,,,,,METAR,29.0
EKCH 021720Z AUTO 36013KT 9999 NCD 15/04 Q1023 NOSIG,EKCH,2023-06-02T17:20:00Z,55.62,12.67,15.0,4.0,360,13,,6.21,30.206694,,,TRUE,,,TRUE,,,,,CLR,,,,,,,,VFR,,,,,,,,,,,,METAR,4.0
EKBI 021720Z AUTO 14007KT 9999 BKN071/// 17/03 Q1024,EKBI,2023-06-02T17:20:00Z,55.73,9.15,17.0,3.0,140,7,,6.21,30.236221,,,TRUE,,,,,,,,BKN,7100,,,,,,,VFR,,,,,,,,,,,,METAR,67.0
EKAH 021720Z AUTO 02007KT 9999 NCD 15/00 Q1025,EKAH,2023-06-02T17:20:00Z,56.28,10.62,15.0,0.0,20,7,,6.21,30.265747,,,TRUE,,,,,,,,CLR,,,,,,,,VFR,,,,,,,,,,,,METAR,25.0
EGYM 021720Z AUTO 04009KT 9999 OVC024/// 13/07 Q1025,EGYM,2023-06-02T17:20:00Z,52.63,0.57,13.0,7.0,40,9,,6.21,30.265747,,,TRUE,,,,,,,,OVC,2400,,,,,,,MVFR,,,,,,,,,,,,METAR,25.0
EGYH 021720Z AUTO 07014KT 9999 OVC022/// 12/07 Q1026,EGYH,2023-06-02T17:20:00Z,52.87,0.15,12.0,7.0,70,14,,6.21,30.295275,,,TRUE,,,,,,,,OVC,2200,,,,,,,MVFR,,,,,,,,,,,,METAR,5.0
EGYD 021720Z AUTO 05012KT 9999 NCD 14/06 Q1026,EGYD,2023-06-02T17:20:00Z,53.03,-0.5,14.0,6.0,50,12,,6.21,30.295275,,,TRUE,,,,,,,,CLR,,,,,,,,VFR,,,,,,,,,,,,METAR,65.0
EGXZ 021720Z AUTO 03005KT 9999 NCD 16/06 Q1026,EGXZ,2023-06-02T17:20:00Z,54.2,-1.38,16.0,6.0,30,5,,6.21,30.295275,,,TRUE,,,,,,,,CLR,,,,,,,,VFR,,,,,,,,,,,,METAR,24.0
EGXW 021720Z AUTO 05012KT 9999 NCD 13/06 Q1026,EGXW,2023-06-02T17:20:00Z,53.18,-0.52,13.0,6.0,50,12,,6.21,30.295275,,,TRUE,,,,,,,,CLR,,,,,,,,VFR,,,,,,,,,,,,METAR,70.0
EGXV 021720Z AUTO 06010KT 9999 FEW250/// 13/07 Q1026,EGXV,2023-06-02T17:20:00Z,53.87,-0.45,13.0,7.0,60,10,,6.21,30.295275,,,TRUE,,,,,,,,FEW,25000,,,,,,,VFR,,,,,,,,,,,,METAR,6.0
EGXT 021720Z AUTO 06013KT 9999 FEW027/// 14/07 Q1025,EGXT,2023-06-02T17:20:00Z,52.62,-0.47,14.0,7.0,60,13,,6.21,30.265747,,,TRUE,,,,,,,,FEW,2700,,,,,,,VFR,,,,,,,,,,,,METAR,74.0
EGXS 021720Z AUTO 03013KT 9999 BKN019/// 12/07 Q1026,EGXS,2023-06-02T17:20:00Z,53.48,0.15,12.0,7.0,30,13,,6.21,30.295275,,,TRUE,,,,,,,,BKN,1900,,,,,,,MVFR,,,,,,,,,,,,METAR,6.0
EGXE 021720Z AUTO 03009KT 9999 NCD 15/06 Q1027,EGXE,2023-06-02T17:20:00Z,54.28,-1.52,15.0,6.0,30,9,,6.21,30.324802,,,TRUE,,,,,,,,CLR,,,,,,,,VFR,,,,,,,,,,,,METAR,30.0
EGWU 021720Z AUTO 06014KT 9999 FEW044/// 18/07 Q1023,EGWU,2023-06-02T17:20:00Z,51.55,-0.42,18.0,7.0,60,14,,6.21,30.206694,,,TRUE,,,,,,,,FEW,4400,,,,,,,VFR,,,,,,,,,,,,METAR,33.0
EGWC 021720Z AUTO 07009KT //// ///////// ///// Q////,EGWC,2023-06-02T17:20:00Z,52.63,-2.3,,,70,9,,,,,,TRUE,,,,,,,,,,,,,,,,,,,,,,,,,,,,SPECI,79.0
EGVP 021720Z AUTO 05011KT 9999 NCD 18/07 Q1022,EGVP,2023-06-02T17:20:00Z,51.13,-1.57,18.0,7.0,50,11,,6.21,30.177166,,,TRUE,,,,,,,,CLR,,,,,,,,VFR,,,,,,,,,,,,METAR,80.0
EGVO 021720Z AUTO 03010KT 9999 NCD 17/06 Q1022,EGVO,2023-06-02T17:20:00Z,51.23,-0.95,17.0,6.0,30,10,,6.21,30.177166,,,TRUE,,,,,,,,CLR,,,,,,,,VFR,,,,,,,,,,,,METAR,118.0
EGVN 021720Z 05013KT CAVOK 17/06 Q1023 NOSIG RMK BLU BLU,EGVN,2023-06-02T17:20:00Z,51.77,-1.58,17.0,6.0,50,13,,6.21,30.206694,,,,,,TRUE,,,,,CAVOK,,,,,,,,VFR,,,,,,,,,,,,METAR,83.0
EGUW 021720Z AUTO 04013KT 9999 OVC023/// 13/07 Q1024,EGUW,2023-06-02T17:20:00Z,52.12,0.97,13.0,7.0,40,13,,6.21,30.236221,,,TRUE,,,,,,,,OVC,2300,,,,,,,MVFR,,,,,,,,,,,,METAR,86.0
EGUL 021720Z AUTO 03014KT 9999 BKN028 14/13 A3025 RMK AO2 SLP247 $,EGUL,2023-06-02T17:20:00Z,52.42,0.57,14.0,13.0,30,14,,6.21,30.250984,1024.7,,TRUE,TRUE,TRUE,,,,,,BKN,2800,,,,,,,MVFR,,,,,,,,,,,,SPECI,8.0
EGUB 021720Z AUTO 03013KT 9999 NCD 16/08 Q1023,EGUB,2023-06-02T17:20:00Z,51.62,-1.08,16.0,8.0,30,13,,6.21,30.206694,,,TRUE,,,,,,,,CLR,,,,,,,,VFR,,,,,,,,,,,,METAR,56.0
EGTK 021720Z 06014KT 020V090 CAVOK 16/06 Q1024,EGTK,2023-06-02T17:20:00Z,51.83,-1.32,16.0,6.0,60,14,,6.21,30.236221,,,,,,,,,,,CAVOK,,,,,,,,VFR,,,,,,,,,,,,METAR,78.0
EGTE 021720Z 21008KT CAVOK 17/09 Q1022,EGTE,2023-06-02T17:20:00Z,50.73,-3.42,17.0,9.0,210,8,,6.21,30.177166,,,,,,,,,,,CAVOK,,,,,,,,VFR,,,,,,,,,,,,METAR,30.0
EGSY 021720Z AUTO 07010KT 040V100 9999 NCD 20/07 Q1023,EGSY,2023-06-02T17:20:00Z,51.4,-3.43,20.0,7.0,70,10,,6.21,30.206694,,,TRUE,,,,,,,,CLR,,,,,,,,VFR,,,,,,,,,,,,METAR,46.0
EGSS 021720Z AUTO 04012KT 9999 FEW035 15/06 Q1024,EGSS,2023-06-02T17:20:00Z,51.88,0.22,15.0,6.0,40,12,,6.21,30.236221,,,TRUE,,,,,,,,FEW,3500,,,,,,,VFR,,,,,,,,,,,,METAR,101.0
EGSH 021720Z 03010KT 350V070 9999 BKN023 13/07 Q1025 NOSIG,EGSH,2023-06-02T17:20:00Z,52.68,1.28,13.0,7.0,30,10,,6.21,30.265747,,,,,,TRUE,,,,,BKN,2300,,,,,,,MVFR,,,,,,,,,,,,METAR,21.0
EGQM 021720Z AUTO 08004KT 9999 NCD 12/07 Q1027,EGQM,2023-06-02T17:20:00Z,55.42,-1.6,12.0,7.0,80,4,,6.21,30.324802,,,TRUE,,,,,,,,CLR,,,,,,,,VFR,,,,,,,,,,,,METAR,24.0
EGQK 021720Z AUTO 03009KT 9999 BKN062/// 15/10 Q1026,EGQK,2023-06-02T17:20:00Z,57.65,-3.57,15.0,10.0,30,9,,6.21,30.295275,,,TRUE,,,,,,,,BKN,6200,,,,,,,VFR,,,,,,,,,,,,METAR,5.0
EGQA 021720Z AUTO 06007KT 9999 OVC061/// 13/08 Q1027,EGQA,2023-06-02T17:20:00Z,57.83,-3.95,13.0,8.0,60,7,,6.21,30.324802,,,TRUE,,,,,,,,OVC,6100,,,,,,,VFR,,,,,,,,,,,,METAR,4.0
EGPU 021720Z 35006KT 9999 SCT014 14/11 Q1027,EGPU,2023-06-02T17:20:00Z,56.5,-6.88,14.0,11.0,350,6,,6.21,30.324802,,,,,,,,,,,SCT,1400,,,,,,,VFR,,,,,,,,,,,,METAR,12.0
EGPO 021720Z 05011KT 9999 FEW024 12/08 Q1028,EGPO,2023-06-02T17:20:00Z,58.22,-6.32,12.0,8.0,50,11,,6.21,30.35433,,,,,,,,,,,FEW,2400,,,,,,,VFR,,,,,,,,,,,,METAR,10.0
EGPN 021720Z 08009KT CAVOK 13/03 Q1027,EGPN,2023-06-02T17:20:00Z,56.45,-3.02,13.0,3.0,80,9,,6.21,30.324802,,,,,,,,,,,CAVOK,,,,,,,,VFR,,,,,,,,,,,,METAR,4.0
EGPL 021720Z AUTO 01012KT 9999 OVC005/// 14/10 Q1028,EGPL,2023-06-02T17:20:00Z,57.47,-7.37,14.0,10.0,10,12,,6.21,30.35433,,,TRUE,,,,,,,,OVC,500,,,,,,,IFR,,,,,,,,,,,,METAR,3.0
EGPK 021720Z 25009KT CAVOK 15/09 Q1026,EGPK,2023-06-02T17:20:00Z,55.5,-4.58,15.0,9.0,250,9,,6.21,30.295275,,,,,,,,,,,CAVOK,,,,,,,,VFR,,,,,,,,,,,,METAR,14.0
EGPI 021720Z 35008KT CAVOK 16/11 Q1027,EGPI,2023-06-02T17:20:00Z,55.68,-6.25,16.0,11.0,350,8,,6.21,30.324802,,,,,,,,,,,CAVOK,,,,,,,,VFR,,,,,,,,,,,,METAR,17.0
EGPH 021720Z 05009KT CAVOK 14/09 Q1026,EGPH,2023-06-02T17:20:00Z,55.95,-3.35,14.0,9.0,50,9,,6.21,30.295275,,,,,,,,,,,CAVOK,,,,,,,,VFR,,,,,,,,,,,,METAR,29.0
EGPF 021720Z AUTO 02004KT 320V060 9999 NCD 21/03 Q1026,EGPF,2023-06-02T17:20:00Z,55.87,-4.42,21.0,3.0,20,4,,6.21,30.295275,,,TRUE,,,,,,,,CLR,,,,,,,,VFR,,,,,,,,,,,,METAR,8.0
EGPE 021720Z 04008KT 9999 FEW040 14/09 Q1027,EGPE,2023-06-02T17:20:00Z,57.53,-4.05,14.0,9.0,40,8,,6.21,30.324802,,,,,,,,,,,FEW,4000,,,,,,,VFR,,,,,,,,,,,,METAR,7.0
EGPD 021720Z AUTO 10008KT 9999 NCD 13/06 Q1027 NOSIG,EGPD,2023-06-02T17:20:00Z,57.2,-2.22,13.0,6.0,100,8,,6.21,30.324802,,,TRUE,,,TRUE,,,,,CLR,,,,,,,,VFR,,,,,,,,,,,,METAR,65.0
EGPC 021720Z 14007KT 9999 FEW030 11/07 Q1028,EGPC,2023-06-02T17:20:00Z,58.45,-3.08,11.0,7.0,140,7,,6.21,30.35433,,,,,,,,,,,FEW,3000,,,,,,,VFR,,,,,,,,,,,,METAR,38.0
EGPB 021720Z 24004KT 9999 FEW030 10/06 Q1028,EGPB,2023-06-02T17:20:00Z,59.87,-1.3,10.0,6.0,240,4,,6.21,30.35433,,,,,,,,,,,FEW,3000,,,,,,,VFR,,,,,,,,,,,,METAR,2.0
EGPA 021720Z 15007KT CAVOK 12/07 Q1028,EGPA,2023-06-02T17:20:00Z,58.95,-2.9,12.0,7.0,150,7,,6.21,30.35433,,,,,,,,,,,CAVOK,,,,,,,,VFR,,,,,,,,,,,,METAR,15.0
EGOV 021720Z AUTO 05013KT 9999 NCD 17/08 Q1024,EGOV,2023-06-02T17:20:00Z,53.25,-4.53,17.0,8.0,50,13,,6.21,30.236221,,,TRUE,,,,,,,,CLR,,,,,,,,VFR,,,,,,,,,,,,METAR,11.0
EGOS 021720Z AUTO 07009KT 9999 NCD 19/06 Q1024,EGOS,2023-06-02T17:20:00Z,52.8,-2.67,19.0,6.0,70,9,,6.21,30.236221,,,TRUE,,,,,,,,CLR,,,,,,,,VFR,,,,,,,,,,,,METAR,76.0
EGOP 021720Z AUTO 27007KT 9999 NCD 16/09 Q1023,EGOP,2023-06-02T17:20:00Z,51.72,-4.37,16.0,9.0,270,7,,6.21,30.206694,,,TRUE,,,,,,,,CLR,,,,,,,,VFR,,,,,,,,,,,,METAR,8.0
EGOM 021720Z AUTO 12011KT 9999 NCD 15/06 Q1026,EGOM,2023-06-02T17:20:00Z,55.05,-2.55,15.0,6.0,120,11,,6.21,30.295275,,,TRUE,,,,,,,,CLR,,,,,,,,VFR,,,,,,,,,,,,METAR,286.0
EGNX 021720Z 05011KT 010V090 CAVOK 16/04 Q1025,EGNX,2023-06-02T17:20:00Z,52.82,-1.32,16.0,4.0,50,11,,6.21,30.265747,,,,,,,,,,,CAVOK,,,,,,,,VFR,,,,,,,,,,,,METAR,91.0
EGNV 021720Z 05009KT CAVOK 13/06 Q1027,EGNV,2023-06-02T17:20:00Z,54.52,-1.42,13.0,6.0,50,9,,6.21,30.324802,,,,,,,,,,,CAVOK,,,,,,,,VFR,,,,,,,,,,,,METAR,36.0
EGNT 021720Z 10005KT 080V140 CAVOK 13/06 Q1027,EGNT,2023-06-02T17:20:00Z,55.03,-1.7,13.0,6.0,100,5,,6.21,30.324802,,,,,,,,,,,CAVOK,,,,,,,,VFR,,,,,,,,,,,,METAR,77.0
EGNS 021720Z 09004KT 070V130 CAVOK 17/07 Q1026 NOSIG,EGNS,2023-06-02T17:20:00Z,54.08,-4.63,17.0,7.0,90,4,,6.21,30.295275,,,,,,TRUE,,,,,CAVOK,,,,,,,,VFR,,,,,,,,,,,,METAR,18.0
EGNR 021720Z 31009KT CAVOK 19/10 Q1025,EGNR,2023-06-02T17:20:00Z,53.17,-2.98,19.0,10.0,310,9,,6.21,30.265747,,,,,,,,,,,CAVOK,,,,,,,,VFR,,,,,,,,,,,,METAR,11.0
EGNM 021720Z 07009KT CAVOK 16/05 Q1026,EGNM,2023-06-02T17:20:00Z,53.87,-1.65,16.0,5.0,70,9,,6.21,30.295275,,,,,,,,,,,CAVOK,,,,,,,,VFR,,,,,,,,,,,,METAR,221.0
EGNJ 021720Z AUTO 06011KT 9999 FEW024/// 13/08 Q1027,EGNJ,2023-06-02T17:20:00Z,53.57,-0.35,13.0,8.0,60,11,,6.21,30.324802,,,TRUE,,,,,,,,FEW,2400,,,,,,,VFR,,,,,,,,,,,,METAR,23.0
EGNH 021720Z 08007KT 030V130 CAVOK 20/05 Q1025,EGNH,2023-06-02T17:20:00Z,53.77,-3.03,20.0,5.0,80,7,,6.21,30.265747,,,,,,,,,,,CAVOK,,,,,,,,VFR,,,,,,,,,,,,METAR,10.0
EGMD 021720Z 04017KT 9999 BKN026 13/08 Q1023,EGMD,2023-06-02T17:20:00Z,50.95,0.93,13.0,8.0,40,17,,6.21,30.206694,,,,,,,,,,,BKN,2600,,,,,,,MVFR,,,,,,,,,,,,METAR,4.0
EGMC 021720Z 07014KT 9999 FEW033 14/08 Q1023,EGMC,2023-06-02T17:20:00Z,51.57,0.7,14.0,8.0,70,14,,6.21,30.206694,,,,,,,,,,,FEW,3300,,,,,,,VFR,,,,,,,,,,,,METAR,15.0
EGLL 021720Z AUTO 05009KT 020V080 9999 NCD 18/06 Q1023 NOSIG,EGLL,2023-06-02T17:20:00Z,51.48,-0.45,18.0,6.0,50,9,,6.21,30.206694,,,TRUE,,,TRUE,,,,,CLR,,,,,,,,VFR,,,,,,,,,,,,METAR,26.0
EGLF 021720Z AUTO 03009KT 340V070 9999 NCD 18/07 Q1022,EGLF,2023-06-02T17:20:00Z,51.28,-0.77,18.0,7.0,30,9,,6.21,30.177166,,,TRUE,,,,,,,,CLR,,,,,,,,VFR,,,,,,,,,,,,METAR,65.0
EGLC 021720Z AUTO 06013KT 9999 NCD 16/06 Q1023,EGLC,2023-06-02T17:20:00Z,51.5,0.05,16.0,6.0,60,13,,6.21,30.206694,,,TRUE,,,,,,,,CLR,,,,,,,,VFR,,,,,,,,,,,,METAR,10.0
EGKK 021720Z 06013KT CAVOK 16/07 Q1022,EGKK,2023-06-02T17:20:00Z,51.13,-0.18,16.0,7.0,60,13,,6.21,30.177166,,,,,,,,,,,CAVOK,,,,,,,,VFR,,,,,,,,,,,,METAR,58.0
EGKB 021720Z 04012KT 9999 FEW035 14/06 Q1023,EGKB,2023-06-02T17:20:00Z,51.32,0.02,14.0,6.0,40,12,,6.21,30.206694,,,,,,,,,,,FEW,3500,,,,,,,VFR,,,,,,,,,,,,METAR,183.0
EGJJ 021720Z 06017G27KT 020V100 9999 FEW022 14/08 Q1020,EGJJ,2023-06-02T17:20:00Z,49.22,-2.2,14.0,8.0,60,17,27,6.21,30.11811,,,,,,,,,,,FEW,2200,,,,,,,VFR,,,,,,,,,,,,METAR,84.0
EGJB 021720Z 07016KT CAVOK 13/08 Q1020,EGJB,2023-06-02T17:20:00Z,49.42,-2.6,13.0,8.0,70,16,,6.21,30.11811,,,,,,,,,,,CAVOK,,,,,,,,VFR,,,,,,,,,,,,METAR,102.0
EGJA 021720Z 08018KT CAVOK 13/09 Q1021,EGJA,2023-06-02T17:20:00Z,49.72,-2.2,13.0,9.0,80,18,,6.21,30.147638,,,,,,,,,,,CAVOK,,,,,,,,VFR,,,,,,,,,,,,METAR,83.0
EGHQ 021720Z 31006KT 9999 FEW027 16/10 Q1022,EGHQ,2023-06-02T17:20:00Z,50.43,-5.0,16.0,10.0,310,6,,6.21,30.177166,,,,,,,,,,,FEW,2700,,,,,,,VFR,,,,,,,,,,,,METAR,101.0
EGHI 021720Z 04007KT 340V110 CAVOK 19/07 Q1022,EGHI,2023-06-02T17:20:00Z,50.95,-1.35,19.0,7.0,40,7,,6.21,30.177166,,,,,,,,,,,CAVOK,,,,,,,,VFR,,,,,,,,,,,,METAR,13.0
EGHH 021720Z 18007KT 130V210 CAVOK 17/09 Q1022,EGHH,2023-06-02T17:20:00Z,50.78,-1.83,17.0,9.0,180,7,,6.21,30.177166,,,,,,,,,,,CAVOK,,,,,,,,VFR,,,,,,,,,,,,METAR,9.0
EGHE 021720Z 09010KT 9999 SCT017 13/10 Q1023,EGHE,2023-06-02T17:20:00Z,49.92,-6.28,13.0,10.0,90,10,,6.21,30.206694,,,,,,,,,,,SCT,1700,,,,,,,VFR,,,,,,,,,,,,METAR,31.0
EGGW 021720Z AUTO 02013G23KT 010V070 9999 NCD 15/07 Q1023,EGGW,2023-06-02T17:20:00Z,51.87,-0.37,15.0,7.0,20,13,23,6.21,30.206694,,,TRUE,,,,,,,,CLR,,,,,,,,VFR,,,,,,,,,,,,METAR,159.0
EGGP 021720Z 10008KT CAVOK 20/05 Q1024,EGGP,2023-06-02T17:20:00Z,53.33,-2.85,20.0,5.0,100,8,,6.21,30.236221,,,,,,,,,,,CAVOK,,,,,,,,VFR,,,,,,,,,,,,METAR,23.0
EGGD 021720Z AUTO 06014KT 9999 NCD 18/06 Q1023,EGGD,2023-06-02T17:20:00Z,51.37,-2.72,18.0,6.0,60,14,,6.21,30.206694,,,TRUE,,,,,,,,CLR,,,,,,,,VFR,,,,,,,,,,,,METAR,182.0
EGFF 021720Z AUTO 08011KT 9999 NCD 19/08 Q1023,EGFF,2023-06-02T17:20:00Z,51.38,-3.35,19.0,8.0,80,11,,6.21,30.206694,,,TRUE,,,,,,,,CLR,,,,,,,,VFR,,,,,,,,,,,,METAR,65.0
EGDY 021720Z AUTO 04014KT 9999 NCD 18/07 Q1022,EGDY,2023-06-02T17:20:00Z,51.0,-2.63,18.0,7.0,40,14,,6.21,30.177166,,,TRUE,,,,,,,,CLR,,,,,,,,VFR,,,,,,,,,,,,METAR,21.0
EGDR 021720Z AUTO 08008KT 9999 NCD 14/09 Q1022,EGDR,2023-06-02T17:20:00Z,50.08,-5.25,14.0,9.0,80,8,,6.21,30.177166,,,TRUE,,,,,,,,CLR,,,,,,,,VFR,,,,,,,,,,,,METAR,74.0
EGDM 021720Z AUTO 05012KT 9999 NCD 17/07 Q1022,EGDM,2023-06-02T17:20:00Z,51.17,-1.75,17.0,7.0,50,12,,6.21,30.177166,,,TRUE,,,,,,,,CLR,,,,,,,,VFR,,,,,,,,,,,,METAR,122.0
EGCK 021720Z AUTO 03017KT 9999 NCD 18/10 Q1024,EGCK,2023-06-02T17:20:00Z,53.1,-4.33,18.0,10.0,30,17,,6.21,30.236221,,,TRUE,,,,,,,,CLR,,,,,,,,VFR,,,,,,,,,,,,METAR,6.0
EGCC 021720Z AUTO 07005KT 010V120 9999 NCD 19/06 Q1025 NOSIG,EGCC,2023-06-02T17:20:00Z,53.35,-2.27,19.0,6.0,70,5,,6.21,30.265747,,,TRUE,,,TRUE,,,,,CLR,,,,,,,,VFR,,,,,,,,,,,,METAR,78.0
EGBB 021720Z 06011KT 020V090 CAVOK 18/05 Q1024,EGBB,2023-06-02T17:20:00Z,52.47,-1.75,18.0,5.0,60,11,,6.21,30.236221,,,,,,,,,,,CAVOK,,,,,,,,VFR,,,,,,,,,,,,METAR,91.0
EGAE 021720Z 04013KT CAVOK 17/12 Q1026,EGAE,2023-06-02T17:20:00Z,55.03,-7.15,17.0,12.0,40,13,,6.21,30.295275,,,,,,,,,,,CAVOK,,,,,,,,VFR,,,,,,,,,,,,METAR,9.0
EGAC 021720Z AUTO 06005KT 360V140 9999 NCD 18/07 Q1026,EGAC,2023-06-02T17:20:00Z,54.62,-5.87,18.0,7.0,60,5,,6.21,30.295275,,,TRUE,,,,,,,,CLR,,,,,,,,VFR,,,,,,,,,,,,METAR,2.0
EGAA 021720Z AUTO 08005KT 040V130 9999 NCD 18/06 Q1026,EGAA,2023-06-02T17:20:00Z,54.65,-6.22,18.0,6.0,80,5,,6.21,30.295275,,,TRUE,,,,,,,,CLR,,,,,,,,VFR,,,,,,,,,,,,METAR,65.0
EFVA 021720Z AUTO 01006KT CAVOK 09/M02 Q1018,EFVA,2023-06-02T17:20:00Z,63.05,21.77,9.0,-2.0,10,6,,6.21,30.059055,,,TRUE,,,,,,,,CAVOK,,,,,,,,VFR,,,,,,,,,,,,METAR,4.0
EFUT 021720Z AUTO 33009KT 300V360 CAVOK 08/01 Q1014 RESHRA,EFUT,2023-06-02T17:20:00Z,60.88,26.93,8.0,1.0,330,9,,6.21,29.940945,,,TRUE,,,,,,,,CAVOK,,,,,,,,VFR,,,,,,,,,,,,METAR,104.0
EFTU 021720Z AUTO 34005KT 300V010 9999 BKN039 09/M01 Q1018,EFTU,2023-06-02T17:20:00Z,60.52,22.27,9.0,-1.0,340,5,,6.21,30.059055,,,TRUE,,,,,,,,BKN,3900,,,,,,,VFR,,,,,,,,,,,,METAR,47.0
EFTP 021720Z AUTO 34010KT 310V010 9999 BKN040 08/M01 Q1017,EFTP,2023-06-02T17:20:00Z,61.42,23.62,8.0,-1.0,340,10,,6.21,30.029528,,,TRUE,,,,,,,,BKN,4000,,,,,,,VFR,,,,,,,,,,,,METAR,111.0
EFSI 021720Z AUTO 32011KT 300V360 CAVOK 09/M02 Q1017,EFSI,2023-06-02T17:20:00Z,62.7,22.83,9.0,-2.0,320,11,,6.21,30.029528,,,TRUE,,,,,,,,CAVOK,,,,,,,,VFR,,,,,,,,,,,,METAR,90.0
EFSA 021720Z AUTO VRB02KT 9999 SHRA //////CB 07/01 Q1013,EFSA,2023-06-02T17:20:00Z,61.95,28.93,7.0,1.0,0,2,,6.21,29.911417,,,TRUE,,,,,,,SHRA,,,,,,,,,,,,,,,,,,,,,METAR,90.0
EFRO 021720Z AUTO 35007KT CAVOK 06/M00 Q1016,EFRO,2023-06-02T17:20:00Z,66.57,25.82,6.0,0.0,350,7,,6.21,30.0,,,TRUE,,,,,,,,CAVOK,,,,,,,,VFR,,,,,,,,,,,,METAR,201.0
EFPO 021720Z AUTO 33012KT 300V360 CAVOK 09/02 Q1018,EFPO,2023-06-02T17:20:00Z,61.47,21.8,9.0,2.0,330,12,,6.21,30.059055,,,TRUE,,,,,,,,CAVOK,,,,,,,,VFR,,,,,,,,,,,,METAR,10.0
EFOU 021720Z AUTO 36008KT 320V030 9999 FEW040 OVC048 09/00 Q1016,EFOU,2023-06-02T17:20:00Z,64.92,25.37,9.0,0.0,360,8,,6.21,30.0,,,TRUE,,,,,,,,FEW,4000,OVC,4800,,,,,VFR,,,,,,,,,,,,METAR,15.0
EFMI 021720Z AUTO 32005KT 260V020 9999 -SHRA BKN045 06/02 Q1014,EFMI,2023-06-02T17:20:00Z,61.68,27.2,6.0,2.0,320,5,,6.21,29.940945,,,TRUE,,,,,,,-SHRA,BKN,4500,,,,,,,VFR,,,,,,,,,,,,METAR,99.0
EFMA 021720Z AUTO 33010KT 300V360 CAVOK 10/M01 Q1021,EFMA,2023-06-02T17:20:00Z,60.12,19.9,10.0,-1.0,330,10,,6.21,30.147638,,,TRUE,,,,,,,,CAVOK,,,,,,,,VFR,,,,,,,,,,,,METAR,6.0
EFLP 021720Z AUTO 23003KT 9999 SHRA //////CB 08/02 Q1013,EFLP,2023-06-02T17:20:00Z,61.03,28.15,8.0,2.0,230,3,,6.21,29.911417,,,TRUE,,,,,,,SHRA,,,,,,,,,,,,,,,,,,,,,METAR,102.0
EFKU 021720Z AUTO 36007KT 330V030 9999 SHRA //////CB 06/02 Q1013,EFKU,2023-06-02T17:20:00Z,63.02,27.8,6.0,2.0,360,7,,6.21,29.911417,,,TRUE,,,,,,,SHRA,,,,,,,,,,,,,,,,,,,,,SPECI,92.0
EFKT 021720Z AUTO 35005KT 320V020 9999 OVC046 07/M01 Q1016,EFKT,2023-06-02T17:20:00Z,67.7,24.85,7.0,-1.0,350,5,,6.21,30.0,,,TRUE,,,,,,,,OVC,4600,,,,,,,VFR,,,,,,,,,,,,METAR,190.0
EFKS 021720Z AUTO 06003KT 010V090 9999 OVC045 05/01 Q1014,EFKS,2023-06-02T17:20:00Z,66.0,29.23,5.0,1.0,60,3,,6.21,29.940945,,,TRUE,,,,,,,,OVC,4500,,,,,,,VFR,,,,,,,,,,,,METAR,270.0
EFKK 021720Z AUTO 35011KT CAVOK 08/M00 Q1017,EFKK,2023-06-02T17:20:00Z,63.72,23.13,8.0,0.0,350,11,,6.21,30.029528,,,TRUE,,,,,,,,CAVOK,,,,,,,,VFR,,,,,,,,,,,,METAR,25.0
EFKI 021720Z AUTO 36006KT 330V030 9999 BKN020 07/04 Q1014,EFKI,2023-06-02T17:20:00Z,64.27,27.67,7.0,4.0,360,6,,6.21,29.940945,,,TRUE,,,,,,,,BKN,2000,,,,,,,MVFR,,,,,,,,,,,,METAR,132.0
EFKE 021720Z 35009KT CAVOK 08/M00 Q1017,EFKE,2023-06-02T17:20:00Z,65.78,24.57,8.0,0.0,350,9,,6.21,30.029528,,,,,,,,,,,CAVOK,,,,,,,,VFR,,,,,,,,,,,,METAR,15.0
EFJY 021720Z AUTO 33010KT 9999 SHRA //////CB 06/04 Q1015,EFJY,2023-06-02T17:20:00Z,62.4,25.68,6.0,4.0,330,10,,6.21,29.970472,,,TRUE,,,,,,,SHRA,,,,,,,,,,,,,,,,,,,,,SPECI,139.0
EFJO 021720Z AUTO 12007KT CAVOK 07/M01 Q1012,EFJO,2023-06-02T17:20:00Z,62.67,29.62,7.0,-1.0,120,7,,6.21,29.88189,,,TRUE,,,,,,,,CAVOK,,,,,,,,VFR,,,,,,,,,,,,METAR,118.0
EFIV 021720Z AUTO 07003KT 9999 BKN041 06/M03 Q1016,EFIV,2023-06-02T17:20:00Z,68.62,27.42,6.0,-3.0,70,3,,6.21,30.0,,,TRUE,,,,,,,,BKN,4100,,,,,,,VFR,,,,,,,,,,,,METAR,145.0
EFHK 021720Z 33008KT 9999 -SHRA FEW015 SCT024CB BKN047 07/04 Q1016 NOSIG,EFHK,2023-06-02T17:20:00Z,60.32,24.97,7.0,4.0,330,8,,6.21,30.0,,,,,,TRUE,,,,-SHRA,FEW,1500,SCT,2400,BKN,4700,,,VFR,,,,,,,,,,,,METAR,56.0
EFHA 021720Z AUTO 32008KT 290V360 9999 OVC023 07/03 Q1015,EFHA,2023-06-02T17:20:00Z,61.85,24.8,7.0,3.0,320,8,,6.21,29.970472,,,TRUE,,,,,,,,OVC,2300,,,,,,,MVFR,,,,,,,,,,,,METAR,144.0
EFET 021720Z AUTO VRB02KT CAVOK 06/M03 Q1016,EFET,2023-06-02T17:20:00Z,68.37,23.43,6.0,-3.0,0,2,,6.21,30.0,,,TRUE,,,,,,,,CAVOK,,,,,,,,VFR,,,,,,,,,,,,METAR,300.0
EETU 021720Z AUTO 31005KT 280V340 9999 BKN086/// 10/M00 Q1015,EETU,2023-06-02T17:20:00Z,58.32,26.68,10.0,0.0,310,5,,6.21,29.970472,,,TRUE,,,,,,,,BKN,8600,,,,,,,VFR,,,,,,,,,,,,METAR,67.0
EETN 021720Z 31007KT 9999 FEW030CB 09/04 Q1016 TEMPO 5000 SHRA,EETN,2023-06-02T17:20:00Z,59.4,24.82,9.0,4.0,310,7,,6.21,30.0,,,,,,,,,,,FEW,3000,,,,,,,VFR,,,,,,,,,,,,METAR,41.0
EEPU 021720Z AUTO 28003KT 240V330 9999 FEW036/// SCT055/// 09/06 Q1017,EEPU,2023-06-02T17:20:00Z,58.42,24.47,9.0,6.0,280,3,,6.21,30.029528,,,TRUE,,,,,,,,FEW,3600,SCT,5500,,,,,VFR,,,,,,,,,,,,METAR,13.0
EEKE 021720Z AUTO 35010KT 310V010 9999NDV SCT038 09/01 Q1019,EEKE,2023-06-02T17:20:00Z,58.23,22.52,9.0,1.0,350,10,,,30.088583,,,TRUE,,,,,,,,SCT,3800,,,,,,,,,,,,,,,,,,,METAR,4.0
EDXW 021720Z 09007KT CAVOK 18/03 Q1024,EDXW,2023-06-02T17:20:00Z,54.92,8.33,18.0,3.0,90,7,,6.21,30.236221,,,,,,,,,,,CAVOK,,,,,,,,VFR,,,,,,,,,,,,METAR,8.0
EDWE 021720Z 03014KT CAVOK 18/08 Q1022,EDWE,2023-06-02T17:20:00Z,53.38,7.23,18.0,8.0,30,14,,6.21,30.177166,,,,,,,,,,,CAVOK,,,,,,,,VFR,,,,,,,,,,,,METAR,0.0
EDVK 021720Z 06007KT 020V090 9999 SCT048 17/07 Q1020,EDVK,2023-06-02T17:20:00Z,51.4,9.37,17.0,7.0,60,7,,6.21,30.11811,,,,,,,,,,,SCT,4800,,,,,,,VFR,,,,,,,,,,,,METAR,277.0
EDVE 021720Z 06005KT 020V100 CAVOK 19/03 Q1021,EDVE,2023-06-02T17:20:00Z,52.32,10.55,19.0,3.0,60,5,,6.21,30.147638,,,,,,,,,,,CAVOK,,,,,,,,VFR,,,,,,,,,,,,METAR,83.0
EDTY 021720Z 02010KT CAVOK 20/08 Q1016,EDTY,2023-06-02T17:20:00Z,49.12,9.78,20.0,8.0,20,10,,6.21,30.0,,,,,,,,,,,CAVOK,,,,,,,,VFR,,,,,,,,,,,,METAR,398.0
EDTL 021720Z 01012KT CAVOK 22/09 Q1014,EDTL,2023-06-02T17:20:00Z,48.37,7.83,22.0,9.0,10,12,,6.21,29.940945,,,,,,,,,,,CAVOK,,,,,,,,VFR,,,,,,,,,,,,METAR,152.0
EDSB 021720Z 01010KT CAVOK 21/09 Q1014,EDSB,2023-06-02T17:20:00Z,48.78,8.08,21.0,9.0,10,10,,6.21,29.940945,,,,,,,,,,,CAVOK,,,,,,,,VFR,,,,,,,,,,,,METAR,122.0
EDQM 021720Z 03007KT 320V070 CAVOK 15/06 Q1019,EDQM,2023-06-02T17:20:00Z,50.3,11.85,15.0,6.0,30,7,,6.21,30.088583,,,,,,,,,,,CAVOK,,,,,,,,VFR,,,,,,,,,,,,METAR,578.0
EDNY 021720Z 02012KT CAVOK 24/09 Q1013,EDNY,2023-06-02T17:20:00Z,47.67,9.52,24.0,9.0,20,12,,6.21,29.911417,,,,,,,,,,,CAVOK,,,,,,,,VFR,,,,,,,,,,,,METAR,411.0
EDMO 021720Z 01009KT CAVOK 22/09 Q1015,EDMO,2023-06-02T17:20:00Z,48.07,11.27,22.0,9.0,10,9,,6.21,29.970472,,,,,,,,,,,CAVOK,,,,,,,,VFR,,,,,,,,,,,,METAR,587.0
EDMA 021720Z 36009KT CAVOK 21/07 Q1015,EDMA,2023-06-02T17:20:00Z,48.42,10.92,21.0,7.0,360,9,,6.21,29.970472,,,,,,,,,,,CAVOK,,,,,,,,VFR,,,,,,,,,,,,METAR,462.0
EDLW 021720Z 07007KT 030V120 CAVOK 17/06 Q1020,EDLW,2023-06-02T17:20:00Z,51.52,7.62,17.0,6.0,70,7,,6.21,30.11811,,,,,,,,,,,CAVOK,,,,,,,,VFR,,,,,,,,,,,,METAR,122.0
EDLV 021720Z 07004KT 010V150 9999 SCT049 19/08 Q1020,EDLV,2023-06-02T17:20:00Z,51.6,6.15,19.0,8.0,70,4,,6.21,30.11811,,,,,,,,,,,SCT,4900,,,,,,,VFR,,,,,,,,,,,,METAR,27.0
EDLP 021720Z 04006KT 010V070 CAVOK 16/06 Q1020,EDLP,2023-06-02T17:20:00Z,51.62,8.62,16.0,6.0,40,6,,6.21,30.11811,,,,,,,,,,,CAVOK,,,,,,,,VFR,,,,,,,,,,,,METAR,211.0
EDLN 021720Z 05009KT 010V090 CAVOK 18/07 Q1020,EDLN,2023-06-02T17:20:00Z,51.23,6.5,18.0,7.0,50,9,,6.21,30.11811,,,,,,,,,,,CAVOK,,,,,,,,VFR,,,,,,,,,,,,METAR,38.0
EDJA 021720Z 03011KT CAVOK 21/09 Q1015,EDJA,2023-06-02T17:20:00Z,47.98,10.23,21.0,9.0,30,11,,6.21,29.970472,,,,,,,,,,,CAVOK,,,,,,,,VFR,,,,,,,,,,,,METAR,625.0
EDHL 021720Z 05011KT CAVOK 17/01 Q1024,EDHL,2023-06-02T17:20:00Z,53.8,10.72,17.0,1.0,50,11,,6.21,30.236221,,,,,,,,,,,CAVOK,,,,,,,,VFR,,,,,,,,,,,,METAR,13.0
EDHK 021720Z AUTO 07008KT 9999 // NCD 16/04 Q1024,EDHK,2023-06-02T17:20:00Z,54.38,10.15,16.0,4.0,70,8,,6.21,30.236221,,,TRUE,,,,,,,,CLR,,,,,,,,VFR,,,,,,,,,,,,METAR,24.0
EDHI 021720Z 04011KT CAVOK 18/M03 Q1023,EDHI,2023-06-02T17:20:00Z,53.53,9.83,18.0,-3.0,40,11,,6.21,30.206694,,,,,,,,,,,CAVOK,,,,,,,,VFR,,,,,,,,,,,,METAR,5.0
EDGS 021720Z 05009KT 020V090 9999 FEW039 15/07 Q1019,EDGS,2023-06-02T17:20:00Z,50.7,8.08,15.0,7.0,50,9,,6.21,30.088583,,,,,,,,,,,FEW,3900,,,,,,,VFR,,,,,,,,,,,,METAR,595.0
EDFM 021720Z 36011KT CAVOK 22/06 Q1016,EDFM,2023-06-02T17:20:00Z,49.47,8.52,22.0,6.0,360,11,,6.21,30.0,,,,,,,,,,,CAVOK,,,,,,,,VFR,,,,,,,,,,,,METAR,94.0
EDFH 021720Z 01010KT 340V040 CAVOK 17/08 Q1018,EDFH,2023-06-02T17:20:00Z,49.95,7.27,17.0,8.0,10,10,,6.21,30.059055,,,,,,,,,,,CAVOK,,,,,,,,VFR,,,,,,,,,,,,METAR,494.0
EDDW 021720Z AUTO 04006KT CAVOK 18/06 Q1021 NOSIG,EDDW,2023-06-02T17:20:00Z,53.03,8.8,18.0,6.0,40,6,,6.21,30.147638,,,TRUE,,,TRUE,,,,,CAVOK,,,,,,,,VFR,,,,,,,,,,,,METAR,5.0
EDDV 021720Z AUTO 08006KT CAVOK 18/08 Q1021 NOSIG,EDDV,2023-06-02T17:20:00Z,52.47,9.68,18.0,8.0,80,6,,6.21,30.147638,,,TRUE,,,TRUE,,,,,CAVOK,,,,,,,,VFR,,,,,,,,,,,,METAR,53.0
EDDS 021720Z AUTO 02008KT 350V060 CAVOK 21/08 Q1015 NOSIG,EDDS,2023-06-02T17:20:00Z,48.68,9.22,21.0,8.0,20,8,,6.21,29.970472,,,TRUE,,,TRUE,,,,,CAVOK,,,,,,,,VFR,,,,,,,,,,,,METAR,374.0
EDDR 021720Z AUTO 05009KT 350V080 CAVOK 20/07 Q1016 NOSIG,EDDR,2023-06-02T17:20:00Z,49.22,7.1,20.0,7.0,50,9,,6.21,30.0,,,TRUE,,,TRUE,,,,,CAVOK,,,,,,,,VFR,,,,,,,,,,,,METAR,317.0
EDDP 021720Z AUTO 02007KT 360V060 CAVOK 19/05 Q1020 NOSIG,EDDP,2023-06-02T17:20:00Z,51.43,12.23,19.0,5.0,20,7,,6.21,30.11811,,,TRUE,,,TRUE,,,,,CAVOK,,,,,,,,VFR,,,,,,,,,,,,METAR,129.0
EDDN 021720Z AUTO 35012KT CAVOK 20/07 Q1016 NOSIG,EDDN,2023-06-02T17:20:00Z,49.5,11.05,20.0,7.0,350,12,,6.21,30.0,,,TRUE,,,TRUE,,,,,CAVOK,,,,,,,,VFR,,,,,,,,,,,,METAR,312.0
EDDM 021720Z AUTO 35006KT 320V030 CAVOK 23/04 Q1015 NOSIG,EDDM,2023-06-02T17:20:00Z,48.35,11.82,23.0,4.0,350,6,,6.21,29.970472,,,TRUE,,,TRUE,,,,,CAVOK,,,,,,,,VFR,,,,,,,,,,,,METAR,445.0
EDDL 021720Z AUTO 06012KT 030V090 CAVOK 19/07 Q1020 BECMG 03006KT,EDDL,2023-06-02T17:20:00Z,51.3,6.77,19.0,7.0,60,12,,6.21,30.11811,,,TRUE,,,,,,,,CAVOK,,,,,,,,VFR,,,,,,,,,,,,SPECI,37.0
EDDK 021720Z AUTO 02012KT CAVOK 20/09 Q1019 BECMG 04006KT,EDDK,2023-06-02T17:20:00Z,50.87,7.15,20.0,9.0,20,12,,6.21,30.088583,,,TRUE,,,,,,,,CAVOK,,,,,,,,VFR,,,,,,,,,,,,SPECI,92.0
EDDH 021720Z AUTO 06012KT 030V090 CAVOK 17/M03 Q1023 NOSIG,EDDH,2023-06-02T17:20:00Z,53.63,10.0,17.0,-3.0,60,12,,6.21,30.206694,,,TRUE,,,TRUE,,,,,CAVOK,,,,,,,,VFR,,,,,,,,,,,,METAR,8.0
EDDG 021720Z AUTO 04008KT 350V080 CAVOK 18/08 Q1020 NOSIG,EDDG,2023-06-02T17:20:00Z,52.13,7.7,18.0,8.0,40,8,,6.21,30.11811,,,TRUE,,,TRUE,,,,,CAVOK,,,,,,,,VFR,,,,,,,,,,,,METAR,46.0
EDDF 021720Z AUTO 02013KT CAVOK 21/05 Q1017 NOSIG,EDDF,2023-06-02T17:20:00Z,50.05,8.6,21.0,5.0,20,13,,6.21,30.029528,,,TRUE,,,TRUE,,,,,CAVOK,,,,,,,,VFR,,,,,,,,,,,,METAR,113.0
EDDE 021720Z AUTO 05009KT CAVOK 15/07 Q1020 NOSIG,EDDE,2023-06-02T17:20:00Z,50.98,10.97,15.0,7.0,50,9,,6.21,30.11811,,,TRUE,,,TRUE,,,,,CAVOK,,,,,,,,VFR,,,,,,,,,,,,METAR,314.0
EDDC 021720Z AUTO 05006KT 020V080 CAVOK 18/05 Q1019 NOSIG,EDDC,2023-06-02T17:20:00Z,51.13,13.75,18.0,5.0,50,6,,6.21,30.088583,,,TRUE,,,TRUE,,,,,CAVOK,,,,,,,,VFR,,,,,,,,,,,,METAR,227.0
EDDB 021720Z AUTO 03011KT CAVOK 17/M01 Q1021 NOSIG,EDDB,2023-06-02T17:20:00Z,52.38,13.53,17.0,-1.0,30,11,,6.21,30.147638,,,TRUE,,,TRUE,,,,,CAVOK,,,,,,,,VFR,,,,,,,,,,,,METAR,48.0
EDBC 021720Z AUTO 01006KT 9999 // BKN070/// 16/07 Q1020,EDBC,2023-06-02T17:20:00Z,51.85,11.42,16.0,7.0,10,6,,6.21,30.11811,,,TRUE,,,,,,,,BKN,7000,,,,,,,VFR,,,,,,,,,,,,METAR,178.0
EDAH 021720Z AUTO 06006KT 010V100 9999 // FEW052/// 14/02 Q1023,EDAH,2023-06-02T17:20:00Z,53.87,14.15,14.0,2.0,60,6,,6.21,30.206694,,,TRUE,,,,,,,,FEW,5200,,,,,,,VFR,,,,,,,,,,,,METAR,22.0
EDAC 021720Z 05005KT 010V080 9999 FEW043 17/08 Q1019,EDAC,2023-06-02T17:20:00Z,50.98,12.5,17.0,8.0,50,5,,6.21,30.088583,,,,,,,,,,,FEW,4300,,,,,,,VFR,,,,,,,,,,,,METAR,193.0
EBOS 021720Z 02017KT 9999 SCT012 13/10 Q1022 TEMPO BKN012,EBOS,2023-06-02T17:20:00Z,51.2,2.87,13.0,10.0,20,17,,6.21,30.177166,,,,,,,,,,,SCT,1200,,,,,,,VFR,,,,,,,,,,,,METAR,5.0
EBLG 021720Z 04012KT 9999 FEW042 17/07 Q1019 NOSIG,EBLG,2023-06-02T17:20:00Z,50.63,5.45,17.0,7.0,40,12,,6.21,30.088583,,,,,,TRUE,,,,,FEW,4200,,,,,,,VFR,,,,,,,,,,,,METAR,187.0
EBCI 021720Z 05013KT CAVOK 17/06 Q1019 NOSIG,EBCI,2023-06-02T17:20:00Z,50.47,4.45,17.0,6.0,50,13,,6.21,30.088583,,,,,,TRUE,,,,,CAVOK,,,,,,,,VFR,,,,,,,,,,,,METAR,176.0
EBBR 021720Z 06008KT 030V100 9999 FEW046 17/08 Q1020 NOSIG,EBBR,2023-06-02T17:20:00Z,50.9,4.52,17.0,8.0,60,8,,6.21,30.11811,,,,,,TRUE,,,,,FEW,4600,,,,,,,VFR,,,,,,,,,,,,METAR,49.0
EBAW 021720Z 03010KT 330V070 9999 FEW041 18/08 Q1020 NOSIG,EBAW,2023-06-02T17:20:00Z,51.2,4.47,18.0,8.0,30,10,,6.21,30.11811,,,,,,TRUE,,,,,FEW,4100,,,,,,,VFR,,,,,,,,,,,,METAR,7.0
PAWN 021719Z AUTO 21010KT 9SM -SN BKN012 BKN040 M01/M03 RMK AO2 P0000 FZRANO $,PAWN,2023-06-02T17:19:00Z,67.57,-162.98,-1.0,-3.0,210,10,,9.0,,,,TRUE,TRUE,TRUE,,,TRUE,,-SN,BKN,1200,BKN,4000,,,,,MVFR,,,,,,0.005,,,,,,METAR,26.0
KHDN 021719Z AUTO 00000KT 10SM -RA SCT008 OVC038 09/08 A3010 RMK AO2 P0000,KHDN,2023-06-02T17:19:00Z,40.48,-107.22,9.0,8.0,0,0,,10.0,30.100393,,,TRUE,TRUE,,,,,,-RA,SCT,800,OVC,3800,,,,,VFR,,,,,,0.005,,,,,,SPECI,2012.0
KAPF 021719Z 05005KT 10SM FEW030 29/22 A2976 RMK AO2 LTG DSNT N AND SE AND W TSE1654 T02890217,KAPF,2023-06-02T17:19:00Z,26.15,-81.77,28.9,21.7,50,5,,10.0,29.760826,,,,TRUE,,,,,,,FEW,3000,,,,,,,VFR,,,,,,,,,,,,SPECI,2.0
CYPR 021719Z AUTO 15004KT 9SM OVC060 11/09 A2999 RMK SLP158,CYPR,2023-06-02T17:19:00Z,54.28,-130.45,11.0,9.0,150,4,,9.0,29.991142,1015.8,,TRUE,,,,,,,,OVC,6000,,,,,,,VFR,,,,,,,,,,,,SPECI,30.0
PAKN 021718Z 19008KT 10SM BKN014 07/03 A2995 RMK AO2 T00670028,PAKN,2023-06-02T17:18:00Z,58.68,-156.65,6.7,2.8,190,8,,10.0,29.949802,,,,TRUE,,,,,,,BKN,1400,,,,,,,MVFR,,,,,,,,,,,,SPECI,20.0
KSPG 021718Z 05007KT 10SM CLR 28/23 A2975 RMK AO2 LTG DSNT S AND SW T02830228,KSPG,2023-06-02T17:18:00Z,27.77,-82.63,28.3,22.8,50,7,,10.0,29.749016,,,,TRUE,,,,,,,CLR,,,,,,,,VFR,,,,,,,,,,,,METAR,1.0
KPAO 021718Z VRB06KT 10SM SKC 16/09 A3002,KPAO,2023-06-02T17:18:00Z,37.47,-122.12,16.0,9.0,0,6,,10.0,30.02067,,,,,,,,,,,SKC,,,,,,,,VFR,,,,,,,,,,,,SPECI,2.0
NZCM 021717Z AUTO 04020KT 8000 -SN OVC040 M29/M34 A2946 RMK AO2 SNB1717 SLP984 T12911344,NZCM,2023-06-02T17:17:00Z,-77.85,166.67,-29.1,-34.4,40,20,,4.97,29.459646,998.4,,TRUE,TRUE,,,,,,-SN,OVC,4000,,,,,,,MVFR,,,,,,,,,,,,SPECI,24.0
MMTJ 021717Z 30008KT 8SM BKN015 OVC035 18/13 A3001 RMK 8/5// HZY,MMTJ,2023-06-02T17:17:00Z,32.53,-116.97,18.0,13.0,300,8,,8.0,30.008858,,,,,,,,,,,BKN,1500,OVC,3500,,,,,MVFR,,,,,,,,,,,,METAR,150.0
CYDF 021717Z 03013G20KT 3SM -RA BR BKN011 OVC025 03/03 A3021 RMK SC6SC2 SLP233,CYDF,2023-06-02T17:17:00Z,49.22,-57.4,3.0,3.0,30,13,20,3.0,30.209646,1023.3,,,,,,,,,-RA BR,BKN,1100,OVC,2500,,,,,MVFR,,,,,,,,,,,,SPECI,15.0
PFKW 021716Z AUTO 18012KT 10SM OVC011 03/02 A2991 RMK AO2,PFKW,2023-06-02T17:16:00Z,60.8,-161.43,3.0,2.0,180,12,,10.0,29.911417,,,TRUE,TRUE,,,,,,,OVC,1100,,,,,,,MVFR,,,,,,,,,,,,METAR,4.0
KHQM 021716Z AUTO 23007KT 10SM SCT024 13/07 A3016 RMK AO2 T01330067,KHQM,2023-06-02T17:16:00Z,46.97,-123.93,13.3,6.7,230,7,,10.0,30.159449,,,TRUE,TRUE,,,,,,,SCT,2400,,,,,,,VFR,,,,,,,,,,,,SPECI,4.0
KBTM 021716Z AUTO 35004KT 10SM FEW016 OVC032 12/08 A3009 RMK AO2 T01220083,KBTM,2023-06-02T17:16:00Z,45.97,-112.5,12.2,8.3,350,4,,10.0,30.088583,,,TRUE,TRUE,,,,,,,FEW,1600,OVC,3200,,,,,VFR,,,,,,,,,,,,SPECI,1680.0
KBBW 021716Z AUTO 12015G23KT 10SM FEW022 BKN028 21/17 A3000 RMK AO2 T02060167,KBBW,2023-06-02T17:16:00Z,41.43,-99.63,20.6,16.7,120,15,23,10.0,30.0,,,TRUE,TRUE,,,,,,,FEW,2200,BKN,2800,,,,,MVFR,,,,,,,,,,,,METAR,771.0
K40B 021716Z AUTO VRB04KT 24/14 A2998 RMK AO1 SLP147 T02450144 54000,K40B,2023-06-02T17:16:00Z,46.62,-69.52,24.5,14.4,0,4,,,29.97933,1014.7,,TRUE,TRUE,,,,,,,,,,,,,,,,,,,,,,,,,,,SPECI,344.0
CYVC 021716Z 04005KT 15SM BKN010 OVC018 17/15 A2999 RMK SC5SC3 CIG RAG SLP166 DENSITY ALT 1800FT,CYVC,2023-06-02T17:16:00Z,55.15,-105.27,17.0,15.0,40,5,,15.0,29.991142,1016.6,,,,,,,,,,BKN,1000,OVC,1800,,,,,MVFR,,,,,,,,,,,,SPECI,378.0
CYUT 021716Z 22009G16KT 15SM BKN020 03/00 A3011 RMK SC7 WSHFT 1701 PRESFR SLP200,CYUT,2023-06-02T17:16:00Z,66.52,-86.22,3.0,0.0,220,9,16,15.0,30.109253,1020.0,,,,,,,,,,BKN,2000,,,,,,,MVFR,,,,,,,,,,,,SPECI,22.0
LIRP 021715Z 27008KT CAVOK 23/15 Q1012 NOSIG,LIRP,2023-06-02T17:15:00Z,43.68,10.38,23.0,15.0,270,8,,6.21,29.88189,,,,,,TRUE,,,,,CAVOK,,,,,,,,VFR,,,,,,,,,,,,METAR,1.0
LHSN 021715Z 27002KT CAVOK 26/12 Q1011 BECMG FM1845 05010KT RMK BLU,LHSN,2023-06-02T17:15:00Z,47.12,20.23,26.0,12.0,270,2,,6.21,29.852362,,,,,,,,,,,CAVOK,,,,,,,,VFR,,,,,,,,,,,,METAR,89.0
LHSM 021715Z AUTO 36006KT CAVOK 25/15 Q1012,LHSM,2023-06-02T17:15:00Z,46.68,17.17,25.0,15.0,360,6,,6.21,29.88189,,,TRUE,,,,,,,,CAVOK,,,,,,,,VFR,,,,,,,,,,,,METAR,119.0
LHPR 021715Z AUTO 36010KT CAVOK 23/11 Q1012,LHPR,2023-06-02T17:15:00Z,47.63,17.82,23.0,11.0,360,10,,6.21,29.88189,,,TRUE,,,,,,,,CAVOK,,,,,,,,VFR,,,,,,,,,,,,METAR,127.0
LHPP 021715Z AUTO 22003KT CAVOK 23/17 Q1012,LHPP,2023-06-02T17:15:00Z,45.98,18.23,23.0,17.0,220,3,,6.21,29.88189,,,TRUE,,,,,,,,CAVOK,,,,,,,,VFR,,,,,,,,,,,,METAR,193.0
LHPA 021715Z 01010KT CAVOK 25/12 Q1012 NOSIG RMK BLU,LHPA,2023-06-02T17:15:00Z,47.35,17.5,25.0,12.0,10,10,,6.21,29.88189,,,,,,TRUE,,,,,CAVOK,,,,,,,,VFR,,,,,,,,,,,,METAR,143.0
LHKE 021715Z VRB02KT CAVOK 26/09 Q1011 NOSIG RMK BLU,LHKE,2023-06-02T17:15:00Z,46.92,19.75,26.0,9.0,0,2,,6.21,29.852362,,,,,,TRUE,,,,,CAVOK,,,,,,,,VFR,,,,,,,,,,,,METAR,113.0
LHDC 021715Z AUTO 26006KT CAVOK 25/13 Q1010 NOSIG,LHDC,2023-06-02T17:15:00Z,47.48,21.62,25.0,13.0,260,6,,6.21,29.822834,,,TRUE,,,TRUE,,,,,CAVOK,,,,,,,,VFR,,,,,,,,,,,,METAR,105.0
KU42 021715Z AUTO 11003KT 10SM OVC060 15/12 A3004 RMK AO1 T01470116,KU42,2023-06-02T17:15:00Z,40.62,-111.98,14.7,11.6,110,3,,10.0,30.041338,,,TRUE,TRUE,,,,,,,OVC,6000,,,,,,,VFR,,,,,,,,,,,,METAR,1399.0
KRCM 021715Z AUTO 10012KT 10SM SCT050 30/16 A3001 RMK AO2 LTG DSNT W,KRCM,2023-06-02T17:15:00Z,38.78,-93.8,30.0,16.0,100,12,,10.0,30.008858,,,TRUE,TRUE,,,,,,,SCT,5000,,,,,,,VFR,,,,,,,,,,,,METAR,242.0
KOKB 021715Z AUTO 30005KT 10SM BKN017 OVC037 19/14 A2998 RMK AO2 T01890139,KOKB,2023-06-02T17:15:00Z,33.22,-117.35,18.9,13.9,300,5,,10.0,29.97933,,,TRUE,TRUE,,,,,,,BKN,1700,OVC,3700,,,,,MVFR,,,,,,,,,,,,SPECI,7.0
KLZZ 021715Z AUTO 15008KT 10SM CLR 28/18 A2992 RMK AO2 T02760177,KLZZ,2023-06-02T17:15:00Z,31.1,-98.2,27.6,17.7,150,8,,10.0,29.920275,,,TRUE,TRUE,,,,,,,CLR,,,,,,,,VFR,,,,,,,,,,,,METAR,356.0
KLTS 021715Z 14013KT 10SM SCT036 SCT210 29/19 A2991 RMK SLP114 $,KLTS,2023-06-02T17:15:00Z,34.67,-99.27,29.0,19.0,140,13,,10.0,29.911417,1011.4,,,,TRUE,,,,,,SCT,3600,SCT,21000,,,,,VFR,,,,,,,,,,,,SPECI,416.0
KETC 021715Z AUTO 02009G15KT 7SM SCT034 SCT040 SCT045 26/17 A2991 RMK AO2 T02580173,KETC,2023-06-02T17:15:00Z,35.93,-77.55,25.8,17.3,20,9,15,7.0,29.911417,,,TRUE,TRUE,,,,,,,SCT,3400,SCT,4000,SCT,4500,,,VFR,,,,,,,,,,,,METAR,15.0
KBWD 021715Z AUTO 18011G19KT 6SM SCT038 29/18 A2995 RMK AO1,KBWD,2023-06-02T17:15:00Z,31.8,-98.95,29.0,18.0,180,11,19,6.0,29.949802,,,TRUE,TRUE,,,,,,,SCT,3800,,,,,,,VFR,,,,,,,,,,,,METAR,420.0
KACV 021715Z AUTO 28005KT 10SM OVC014 12/08 A3010 RMK AO2 T01220083,KACV,2023-06-02T17:15:00Z,40.98,-124.1,12.2,8.3,280,5,,10.0,30.100393,,,TRUE,TRUE,,,,,,,OVC,1400,,,,,,,MVFR,,,,,,,,,,,,SPECI,63.0
KPRB 021714Z AUTO VRB04KT 10SM OVC010 12/08 A3003 RMK AO2 CIG 007V012 T01220083,KPRB,2023-06-02T17:14:00Z,35.67,-120.63,12.2,8.3,0,4,,10.0,30.029528,,,TRUE,TRUE,,,,,,,OVC,1000,,,,,,,MVFR,,,,,,,,,,,,SPECI,249.0
PASV 021713Z AUTO 10001KT 10SM OVC009 02/00 A2989 RMK AO2 SLP136,PASV,2023-06-02T17:13:00Z,61.1,-155.57,2.0,0.0,100,1,,10.0,29.890747,1013.6,,TRUE,TRUE,,,,,,,OVC,900,,,,,,,IFR,,,,,,,,,,,,METAR,462.0
PATL 021712Z AUTO 00000KT 10SM BKN012 BKN039 01/00 A2992 RMK AO2 SLP143,PATL,2023-06-02T17:12:00Z,62.9,-155.97,1.0,0.0,0,0,,10.0,29.920275,1014.3,,TRUE,TRUE,,,,,,,BKN,1200,BKN,3900,,,,,MVFR,,,,,,,,,,,,METAR,261.0
KPVG 021712Z AUTO 10SM BKN021 25/19 A2993 RMK AO2 $,KPVG,2023-06-02T17:12:00Z,36.78,-76.45,25.0,19.0,,,,10.0,29.929134,,,TRUE,TRUE,TRUE,,,,,,BKN,2100,,,,,,,MVFR,,,,,,,,,,,,SPECI,7.0
RJTE 021711Z 22019G31KT 180V240 4900 -SHRA BR BKN008 BKN015 24/23 Q0997 RMK 6ST008 7CU015 A2945,RJTE,2023-06-02T17:11:00Z,34.98,139.82,24.0,23.0,220,19,31,3.04,29.438976,,,,,,,,,,-SHRA BR,BKN,800,BKN,1500,,,,,IFR,,,,,,,,,,,,METAR,3.0
KVPS 021711Z AUTO 08010G15KT 10SM SCT055 30/16 A2985 RMK AO2 WSHFT 09 SLP114 TSNO $,KVPS,2023-06-02T17:11:00Z,30.47,-86.52,30.0,16.0,80,10,15,10.0,29.84941,1011.4,,TRUE,TRUE,TRUE,,TRUE,,,,SCT,5500,,,,,,,VFR,,,,,,,,,,,,SPECI,21.0
KILM 021711Z 01010KT 10SM FEW024 BKN038 OVC046 26/19 A2987 RMK AO2 T02610194,KILM,2023-06-02T17:11:00Z,34.27,-77.9,26.1,19.4,10,10,,10.0,29.870079,,,,TRUE,,,,,,,FEW,2400,BKN,3800,OVC,4600,,,VFR,,,,,,,,,,,,SPECI,9.0
VCBI 021710Z 23009KT 9999 SCT016 29/27 Q1011 NOSIG,VCBI,2023-06-02T17:10:00Z,7.17,79.88,29.0,27.0,230,9,,6.21,29.852362,,,,,,TRUE,,,,,SCT,1600,,,,,,,VFR,,,,,,,,,,,,METAR,10.0
KT70 021710Z AUTO 13012G18KT 10SM OVC030 28/21 A2987 RMK AO2 SLP102 $,KT70,2023-06-02T17:10:00Z,29.12,-100.48,28.0,21.0,130,12,18,10.0,29.870079,1010.2,,TRUE,TRUE,TRUE,,,,,,OVC,3000,,,,,,,MVFR,,,,,,,,,,,,METAR,296.0
KSUT 021710Z AUTO 02005KT 10SM BKN018 OVC026 23/18 A2988 RMK AO2 T02250176,KSUT,2023-06-02T17:10:00Z,33.93,-78.08,22.5,17.6,20,5,,10.0,29.878937,,,TRUE,TRUE,,,,,,,BKN,1800,OVC,2600,,,,,MVFR,,,,,,,,,,,,METAR,6.0
KRCZ 021710Z AUTO 00000KT 10SM CLR 26/17 A2991 RMK AO2 T02580167,KRCZ,2023-06-02T17:10:00Z,34.88,-79.77,25.8,16.7,0,0,,10.0,29.911417,,,TRUE,TRUE,,,,,,,CLR,,,,,,,,VFR,,,,,,,,,,,,METAR,110.0
KQDG 021710Z AUTO 01003KT 8000 BR FEW014 SCT022 BKN030 OVC036 17/16 A2925 RMK AO2 SLP907 $,KQDG,2023-06-02T17:10:00Z,,,17.0,16.0,10,3,,4.97,29.25,990.7,,TRUE,TRUE,TRUE,,,,,BR,FEW,1400,SCT,2200,BKN,3000,OVC,3600,MVFR,,,,,,,,,,,,SPECI,
KNSI 021710Z VRB03KT 10SM SCT015 SCT025 16/12 A3000 RMK AO2 T01560122 $,KNSI,2023-06-02T17:10:00Z,33.23,-119.45,15.6,12.2,0,3,,10.0,30.0,,,,TRUE,TRUE,,,,,,SCT,1500,SCT,2500,,,,,VFR,,,,,,,,,,,,SPECI,161.0
KMQI 021710Z AUTO 03009KT 10SM OVC005 21/19 A2991 RMK AO2 T02080188,KMQI,2023-06-02T17:10:00Z,35.92,-75.7,20.8,18.8,30,9,,10.0,29.911417,,,TRUE,TRUE,,,,,,,OVC,500,,,,,,,IFR,,,,,,,,,,,,METAR,3.0
KLHZ 021710Z AUTO 01006KT 10SM SCT032 SCT039 BKN045 25/17 A2995 RMK AO2,KLHZ,2023-06-02T17:10:00Z,36.02,-78.33,25.0,17.0,10,6,,10.0,29.949802,,,TRUE,TRUE,,,,,,,SCT,3200,SCT,3900,BKN,4500,,,VFR,,,,,,,,,,,,METAR,104.0
KIXA 021710Z AUTO 04004KT 10SM BKN027 BKN035 OVC044 23/21 A2993 RMK AO2,KIXA,2023-06-02T17:10:00Z,36.33,-77.63,23.0,21.0,40,4,,10.0,29.929134,,,TRUE,TRUE,,,,,,,BKN,2700,BKN,3500,OVC,4400,,,MVFR,,,,,,,,,,,,METAR,43.0
KHNZ 021710Z AUTO 05007KT 010V070 10SM CLR 24/12 A2995 RMK,KHNZ,2023-06-02T17:10:00Z,36.37,-78.53,24.0,12.0,50,7,,10.0,29.949802,,,TRUE,,,,,,,,CLR,,,,,,,,VFR,,,,,,,,,,,,METAR,158.0
KEYF 021710Z AUTO 02006KT 10SM BKN029 OVC039 25/18 A2989 RMK AO2 T02490181,KEYF,2023-06-02T17:10:00Z,34.6,-78.58,24.9,18.1,20,6,,10.0,29.890747,,,TRUE,TRUE,,,,,,,BKN,2900,OVC,3900,,,,,MVFR,,,,,,,,,,,,METAR,39.0
KEXX 021710Z AUTO 06011G16KT 10SM CLR 27/11 A2994 RMK AO2 T02720111,KEXX,2023-06-02T17:10:00Z,35.78,-80.3,27.2,11.1,60,11,16,10.0,29.940945,,,TRUE,TRUE,,,,,,,CLR,,,,,,,,VFR,,,,,,,,,,,,METAR,221.0
KDYS 021710Z AUTO 14009KT 10SM BKN034 BKN043 BKN055 BKN180 27/18 A2991 RMK AO2 SLP088 $,KDYS,2023-06-02T17:10:00Z,32.42,-99.83,27.0,18.0,140,9,,10.0,29.911417,1008.8,,TRUE,TRUE,TRUE,,,,,,BKN,3400,BKN,4300,BKN,5500,BKN,18000,VFR,,,,,,,,,,,,SPECI,544.0
KCGS 021710Z AUTO 09006KT 10SM CLR 31/13 A2992 RMK AO2 T03110132,KCGS,2023-06-02T17:10:00Z,38.98,-76.92,31.1,13.2,90,6,,10.0,29.920275,,,TRUE,TRUE,,,,,,,CLR,,,,,,,,VFR,,,,,,,,,,,,METAR,15.0
K1LN 021710Z AUTO 13014KT 10SM CLR 27/18 A2993 RMK AO2 WSHFT 1659 SLP128 $,K1LN,2023-06-02T17:10:00Z,,,27.0,18.0,130,14,,10.0,29.929134,1012.8,,TRUE,TRUE,TRUE,,,,,,CLR,,,,,,,,VFR,,,,,,,,,,,,SPECI,
SBLB 021709Z AUTO 20020KT 9999 -SHRA NCD 24/18 Q1017 W///S4,SBLB,2023-06-02T17:09:00Z,-22.1,-39.92,24.0,18.0,200,20,,6.21,30.029528,,,TRUE,,,,,,,-SHRA,CLR,,,,,,,,VFR,,,,,,,,,,,,METAR,10.0
KSXS 021709Z AUTO 06010G15KT 6SM HZ FEW047 FEW210 FEW320 28/16 A2987 RMK AO2 WSHFT 06 SLP113,KSXS,2023-06-02T17:09:00Z,31.37,-85.85,28.0,16.0,60,10,15,6.0,29.870079,1011.3,,TRUE,TRUE,,,,,,HZ,FEW,4700,FEW,21000,FEW,32000,,,VFR,,,,,,,,,,,,METAR,120.0
KDLN 021709Z AUTO 06003KT 10SM FEW011 BKN025 OVC038 12/10 A3005 RMK AO2 T01220100,KDLN,2023-06-02T17:09:00Z,45.25,-112.55,12.2,10.0,60,3,,10.0,30.050198,,,TRUE,TRUE,,,,,,,FEW,1100,BKN,2500,OVC,3800,,,MVFR,,,,,,,,,,,,METAR,1586.0
KCRE 021708Z 03008KT 360V060 10SM SCT022 BKN029 OVC050 24/19 A2987 RMK AO1 T02440189,KCRE,2023-06-02T17:08:00Z,33.82,-78.72,24.4,18.9,30,8,,10.0,29.870079,,,,TRUE,,,,,,,SCT,2200,BKN,2900,OVC,5000,,,MVFR,,,,,,,,,,,,METAR,9.0
CZPC 021708Z AUTO 12006KT 040V160 9SM SCT022 BKN028 15/09 A3012 RMK SLP196 DENSITY ALT 4600FT,CZPC,2023-06-02T17:08:00Z,49.52,-114.0,15.0,9.0,120,6,,9.0,30.121063,1019.6,,TRUE,,,,,,,,SCT,2200,BKN,2800,,,,,MVFR,,,,,,,,,,,,SPECI,1187.0
CYKJ 021708Z AUTO 12007KT 080V140 9SM OVC007 15/14 A3001 RMK SLP175 DENSITY ALT 2100FT,CYKJ,2023-06-02T17:08:00Z,57.25,-105.62,15.0,14.0,120,7,,9.0,30.008858,1017.5,,TRUE,,,,,,,,OVC,700,,,,,,,IFR,,,,,,,,,,,,SPECI,519.0
PHTO 021707Z 25006KT 3SM -RA BR FEW009 BKN030 OVC036 21/21 A3013 RMK AO2 P0001 T02110206,PHTO,2023-06-02T17:07:00Z,19.72,-155.05,21.1,20.6,250,6,,3.0,30.129921,,,,TRUE,,,,,,-RA BR,FEW,900,BKN,3000,OVC,3600,,,MVFR,,,,,,0.01,,,,,,METAR,9.0
KECG 021707Z 03011KT 10SM OVC010 23/19 A2991 RMK AO2 CIG 008V014 T02280194,KECG,2023-06-02T17:07:00Z,36.27,-76.18,22.8,19.4,30,11,,10.0,29.911417,,,,TRUE,,,,,,,OVC,1000,,,,,,,MVFR,,,,,,,,,,,,METAR,2.0
KCPR 021707Z 24007KT 10SM FEW021 SCT026 BKN042 17/11 A2993 RMK AO2 T01670106,KCPR,2023-06-02T17:07:00Z,42.9,-106.47,16.7,10.6,240,7,,10.0,29.929134,,,,TRUE,,,,,,,FEW,2100,SCT,2600,BKN,4200,,,VFR,,,,,,,,,,,,METAR,1623.0
KC99 021707Z AUTO 32006G14KT 10SM SCT009 BKN036 OVC090 02/00 A3019 RMK AO2 LTG DSNT NE THRU SE,KC99,2023-06-02T17:07:00Z,39.87,-105.55,2.0,0.0,320,6,14,10.0,30.188976,,,TRUE,TRUE,,,,,,,SCT,900,BKN,3600,OVC,9000,,,VFR,,,,,,,,,,,,METAR,3334.0
PWAK 021705Z AUTO 06013KT 9SM SCT019 26/22 A3001 RMK AO2 SLP168,PWAK,2023-06-02T17:05:00Z,19.28,166.62,26.0,22.0,60,13,,9.0,30.008858,1016.8,,TRUE,TRUE,,,,,,,SCT,1900,,,,,,,VFR,,,,,,,,,,,,METAR,7.0
KW29 021705Z AUTO 31003KT 10SM CLR 27/15 A2993 RMK AO2 T02680154,KW29,2023-06-02T17:05:00Z,38.98,-76.33,26.8,15.4,310,3,,10.0,29.929134,,,TRUE,TRUE,,,,,,,CLR,,,,,,,,VFR,,,,,,,,,,,,METAR,1.0
KUKF 021705Z AUTO 04007KT 10SM CLR 26/09 A3003 RMK AO2,KUKF,2023-06-02T17:05:00Z,36.22,-81.1,26.0,9.0,40,7,,10.0,30.029528,,,TRUE,TRUE,,,,,,,CLR,,,,,,,,VFR,,,,,,,,,,,,METAR,383.0
KOCW 021705Z AUTO 02008KT 10SM SCT027 BKN035 OVC048 26/18 A2990 RMK AO2 T02590175,KOCW,2023-06-02T17:05:00Z,35.57,-77.05,25.9,17.5,20,8,,10.0,29.899607,,,TRUE,TRUE,,,,,,,SCT,2700,BKN,3500,OVC,4800,,,VFR,,,,,,,,,,,,METAR,10.0
KMWK 021705Z AUTO 04008KT 10SM CLR 27/10 A3000 RMK AO2 T02710097,KMWK,2023-06-02T17:05:00Z,36.47,-80.55,27.1,9.7,40,8,,10.0,30.0,,,TRUE,TRUE,,,,,,,CLR,,,,,,,,VFR,,,,,,,,,,,,METAR,374.0
KIPJ 021705Z AUTO 03007G14KT 10SM CLR 27/12 A2995 RMK AO2 T02710124,KIPJ,2023-06-02T17:05:00Z,35.48,-81.17,27.1,12.4,30,7,14,10.0,29.949802,,,TRUE,TRUE,,,,,,,CLR,,,,,,,,VFR,,,,,,,,,,,,METAR,266.0
KHRJ 021705Z AUTO 03010KT 10SM SCT035 SCT042 SCT049 27/17 A2992 RMK AO2 T02650172,KHRJ,2023-06-02T17:05:00Z,35.38,-78.73,26.5,17.2,30,10,,10.0,29.920275,,,TRUE,TRUE,,,,,,,SCT,3500,SCT,4200,SCT,4900,,,VFR,,,,,,,,,,,,METAR,55.0
KHBI 021705Z AUTO 03006KT 10SM CLR 26/11 A2996 RMK AO2 T02600111,KHBI,2023-06-02T17:05:00Z,35.65,-79.9,26.0,11.1,30,6,,10.0,29.958662,,,TRUE,TRUE,,,,,,,CLR,,,,,,,,VFR,,,,,,,,,,,,METAR,199.0
KEDE 021705Z AUTO 03009KT 10SM SCT018 OVC027 25/22 A2992 RMK AO2 T02460218,KEDE,2023-06-02T17:05:00Z,36.03,-76.57,24.6,21.8,30,9,,10.0,29.920275,,,TRUE,TRUE,,,,,,,SCT,1800,OVC,2700,,,,,MVFR,,,,,,,,,,,,METAR,4.0
KDPL 021705Z AUTO 03009KT 10SM BKN026 OVC033 24/19 A2990 RMK AO2,KDPL,2023-06-02T17:05:00Z,35.0,-77.97,24.0,19.0,30,9,,10.0,29.899607,,,TRUE,TRUE,,,,,,,BKN,2600,OVC,3300,,,,,MVFR,,,,,,,,,,,,METAR,39.0
KDMW 021705Z AUTO 04005KT 10SM CLR 32/11 A2996 RMK AO2,KDMW,2023-06-02T17:05:00Z,39.6,-77.0,32.0,11.0,40,5,,10.0,29.958662,,,TRUE,TRUE,,,,,,,CLR,,,,,,,,VFR,,,,,,,,,,,,METAR,239.0
KCVS 021705Z AUTO 14011KT 10SM SCT027 BKN032 OVC110 20/20 A2996 RMK AO2 LTG DSNT E SLP098 $,KCVS,2023-06-02T17:05:00Z,34.37,-103.32,20.0,20.0,140,11,,10.0,29.958662,1009.8,,TRUE,TRUE,TRUE,,,,,,SCT,2700,BKN,3200,OVC,11000,,,VFR,,,,,,,,,,,,METAR,1305.0
KCTZ 021705Z AUTO 02006KT 10SM SCT029 OVC041 25/20 A2991 RMK AO2 T02530196,KCTZ,2023-06-02T17:05:00Z,34.98,-78.37,25.3,19.6,20,6,,10.0,29.911417,,,TRUE,TRUE,,,,,,,SCT,2900,OVC,4100,,,,,VFR,,,,,,,,,,,,METAR,43.0
K7W6 021705Z AUTO 36009G14KT 10SM SCT018 BKN024 OVC048 24/20 A2988 RMK AO2 T02390199,K7W6,2023-06-02T17:05:00Z,35.55,-75.95,23.9,19.9,360,9,14,10.0,29.878937,,,TRUE,TRUE,,,,,,,SCT,1800,BKN,2400,OVC,4800,,,MVFR,,,,,,,,,,,,METAR,1.0
K2DP 021705Z AUTO 02009KT 10SM SCT016 SCT022 24/22 A2986 RMK AO2 SLPNO $,K2DP,2023-06-02T17:05:00Z,35.68,-75.9,24.0,22.0,20,9,,10.0,29.861221,,,TRUE,TRUE,TRUE,,,,,,SCT,1600,SCT,2200,,,,,VFR,,,,,,,,,,,,METAR,1.0
K24A 021705Z AUTO 00000KT 10SM CLR 25/13 A3003 RMK AO2 T02490129,K24A,2023-06-02T17:05:00Z,35.32,-83.2,24.9,12.9,0,0,,10.0,30.029528,,,TRUE,TRUE,,,,,,,CLR,,,,,,,,VFR,,,,,,,,,,,,METAR,864.0
KBZN 021704Z 32005KT 5SM -RA BR SCT008 BKN012 OVC055 13/12 A3004 RMK AO2 P0000 T01330122,KBZN,2023-06-02T17:04:00Z,45.78,-111.17,13.3,12.2,320,5,,5.0,30.041338,,,,TRUE,,,,,,-RA BR,SCT,800,BKN,1200,OVC,5500,,,MVFR,,,,,,0.005,,,,,,SPECI,1349.0
CYYH 021704Z 18008KT 5SM BR FEW002 FEW006 BKN055 02/02 A2985 RMK FG1ST1ST1SC5 ST TR FG DSIPTG VIS NW 10 SLP112,CYYH,2023-06-02T17:04:00Z,69.53,-93.57,2.0,2.0,180,8,,5.0,29.84941,1011.2,,,,,,,,,BR,FEW,200,FEW,600,BKN,5500,,,MVFR,,,,,,,,,,,,SPECI,19.0
CYPY 021704Z AUTO 12006KT 2 1/2SM HZ BKN035 19/10 A3006 RMK SLP188 DENSITY ALT 1200FT,CYPY,2023-06-02T17:04:00Z,58.77,-111.12,19.0,10.0,120,6,,2.5,30.059055,1018.8,,TRUE,,,,,,,HZ,BKN,3500,,,,,,,IFR,,,,,,,,,,,,SPECI,225.0
SVVL 021703Z AUTO ///01KT NCD ///// Q////,SVVL,2023-06-02T17:03:00Z,9.33,-70.58,,,,,,,,,,TRUE,,,,,,,,CLR,,,,,,,,,,,,,,,,,,,,METAR,575.0
SVVA 021703Z AUTO 10004KT NCD 32/23 Q1014,SVVA,2023-06-02T17:03:00Z,10.15,-67.92,32.0,23.0,100,4,,,29.940945,,,TRUE,,,,,,,,CLR,,,,,,,,,,,,,,,,,,,,METAR,428.0
SVSR 021703Z AUTO NIL,SVSR,2023-06-02T17:03:00Z,7.87,-67.43,,,,,,,,,,TRUE,,,,,,,,,,,,,,,,,,,,,,,,,,,,METAR,49.0
SVSA 021703Z AUTO NIL,SVSA,2023-06-02T17:03:00Z,7.83,-72.45,,,,,,,,,,TRUE,,,,,,,,,,,,,,,,,,,,,,,,,,,,METAR,383.0
SVPR 021703Z AUTO 05005KT NCD 31/21 Q1014,SVPR,2023-06-02T17:03:00Z,8.3,-62.77,31.0,21.0,50,5,,,29.940945,,,TRUE,,,,,,,,CLR,,,,,,,,,,,,,,,,,,,,METAR,140.0
SVPA 021703Z AUTO NIL,SVPA,2023-06-02T17:03:00Z,5.62,-67.6,,,,,,,,,,TRUE,,,,,,,,,,,,,,,,,,,,,,,,,,,,METAR,77.0
SVMT 021703Z AUTO 13006KT NCD 32/32 Q1013,SVMT,2023-06-02T17:03:00Z,9.75,-63.17,32.0,32.0,130,6,,,29.911417,,,TRUE,,,,,,,,CLR,,,,,,,,,,,,,,,,,,,,METAR,67.0
SVMI 021703Z AUTO 27007KT NCD 32/23 Q1013,SVMI,2023-06-02T17:03:00Z,10.6,-67.0,32.0,23.0,270,7,,,29.911417,,,TRUE,,,,,,,,CLR,,,,,,,,,,,,,,,,,,,,METAR,48.0
SVMG 021703Z AUTO 09015KT NCD 37/24 Q1012,SVMG,2023-06-02T17:03:00Z,10.92,-63.97,37.0,24.0,90,15,,,29.88189,,,TRUE,,,,,,,,CLR,,,,,,,,,,,,,,,,,,,,METAR,16.0
SVMC 021703Z AUTO NIL,SVMC,2023-06-02T17:03:00Z,10.57,-71.72,,,,,,,,,,TRUE,,,,,,,,,,,,,,,,,,,,,,,,,,,,METAR,76.0
SVLO 021703Z AUTO NIL,SVLO,2023-06-02T17:03:00Z,11.8,-66.18,,,,,,,,,,TRUE,,,,,,,,,,,,,,,,,,,,,,,,,,,,METAR,3.0
SVJM 021703Z AUTO 26002KT NCD 28/22 Q1014,SVJM,2023-06-02T17:03:00Z,9.92,-67.38,28.0,22.0,260,2,,,29.940945,,,TRUE,,,,,,,,CLR,,,,,,,,,,,,,,,,,,,,METAR,448.0
SVGU 021703Z AUTO 20004KT NCD 32/23 Q1013,SVGU,2023-06-02T17:03:00Z,9.03,-69.75,32.0,23.0,200,4,,,29.911417,,,TRUE,,,,,,,,CLR,,,,,,,,,,,,,,,,,,,,METAR,165.0
SVGD 021703Z AUTO 14004KT NCD 31/23 Q1015,SVGD,2023-06-02T17:03:00Z,7.22,-70.75,31.0,23.0,140,4,,,29.970472,,,TRUE,,,,,,,,CLR,,,,,,,,,,,,,,,,,,,,METAR,129.0
SVFM 021703Z AUTO NIL,SVFM,2023-06-02T17:03:00Z,10.48,-66.83,,,,,,,,,,TRUE,,,,,,,,,,,,,,,,,,,,,,,,,,,,METAR,852.0
SVCS 021703Z AUTO 22003KT NCD 28/20 Q1017,SVCS,2023-06-02T17:03:00Z,10.3,-66.82,28.0,20.0,220,3,,,30.029528,,,TRUE,,,,,,,,CLR,,,,,,,,,,,,,,,,,,,,METAR,656.0
SVCB 021703Z AUTO 19007KT NCD 30/23 Q1012,SVCB,2023-06-02T17:03:00Z,8.12,-63.53,30.0,23.0,190,7,,,29.88189,,,TRUE,,,,,,,,CLR,,,,,,,,,,,,,,,,,,,,METAR,47.0
SVBS 021703Z AUTO 16006KT NCD 31/21 Q1016,SVBS,2023-06-02T17:03:00Z,10.25,-67.65,31.0,21.0,160,6,,,30.0,,,TRUE,,,,,,,,CLR,,,,,,,,,,,,,,,,,,,,METAR,435.0
SVBM 021703Z AUTO 10014KT NCD 24/22 Q1015,SVBM,2023-06-02T17:03:00Z,10.05,-69.37,24.0,22.0,100,14,,,29.970472,,,TRUE,,,,,,,,CLR,,,,,,,,,,,,,,,,,,,,METAR,624.0
SVBI 021703Z AUTO /////KT NCD 26/23 Q1016,SVBI,2023-06-02T17:03:00Z,8.62,-70.22,26.0,23.0,,,,,30.0,,,TRUE,,,,,,,,CLR,,,,,,,,,,,,,,,,,,,,METAR,185.0
SVBC 021703Z AUTO 33010KT NCD 29/27 Q1012,SVBC,2023-06-02T17:03:00Z,10.12,-64.68,29.0,27.0,330,10,,,29.88189,,,TRUE,,,,,,,,CLR,,,,,,,,,,,,,,,,,,,,METAR,7.0
KJMS 021703Z AUTO 15008KT 10SM FEW002 29/18 A2995 RMK AO2 T02890183,KJMS,2023-06-02T17:03:00Z,46.93,-98.67,28.9,18.3,150,8,,10.0,29.949802,,,TRUE,TRUE,,,,,,,FEW,200,,,,,,,VFR,,,,,,,,,,,,SPECI,455.0
KJAC 021703Z VRB03KT 10SM -RA BKN016 OVC020 12/09 A3004 RMK AO2 PNO $,KJAC,2023-06-02T17:03:00Z,43.62,-110.73,12.0,9.0,0,3,,10.0,30.041338,,,,TRUE,TRUE,,,,,-RA,BKN,1600,OVC,2000,,,,,MVFR,,,,,,,,,,,,SPECI,1967.0
KFMY 021703Z 13005KT 10SM SCT035 31/22 A2974 RMK AO2 LTG DSNT SE T03110222,KFMY,2023-06-02T17:03:00Z,26.58,-81.87,31.1,22.2,130,5,,10.0,29.740158,,,,TRUE,,,,,,,SCT,3500,,,,,,,VFR,,,,,,,,,,,,SPECI,4.0
PAHX 021702Z AUTO 25004KT 10SM CLR 04/M02 A2991 RMK AO2 SLP131 T00441022,PAHX,2023-06-02T17:02:00Z,62.7,-159.57,4.4,-2.2,250,4,,10.0,29.911417,1013.1,,TRUE,TRUE,,,,,,,CLR,,,,,,,,VFR,,,,,,,,,,,,METAR,20.0
KDDC 021702Z AUTO 11018G28KT 6SM -RA FEW060 BKN075 OVC095 16/13 A2995 RMK AO2 PK WND 09028/1655 LTG DSNT N-E TSE1656 P0001 T01610133,KDDC,2023-06-02T17:02:00Z,37.77,-99.97,16.1,13.3,110,18,28,6.0,29.949802,,,TRUE,TRUE,,,,,,-RA,FEW,6000,BKN,7500,OVC,9500,,,VFR,,,,,,0.01,,,,,,SPECI,786.0
PAFS 021701Z AUTO 24004KT 10SM FEW017 OVC048 03/00 A2991 RMK AO2 SLP136 T00330000,PAFS,2023-06-02T17:01:00Z,63.02,-154.35,3.3,0.0,240,4,,10.0,29.911417,1013.6,,TRUE,TRUE,,,,,,,FEW,1700,OVC,4800,,,,,VFR,,,,,,,,,,,,METAR,131.0
KSRQ 021701Z 06010KT 10SM VCTS FEW039 SCT050 BKN060 31/21 A2974 RMK AO2 LTG DSNT ALQDS T03060206,KSRQ,2023-06-02T17:01:00Z,27.4,-82.57,30.6,20.6,60,10,,10.0,29.740158,,,,TRUE,,,,,,VCTS,FEW,3900,SCT,5000,BKN,6000,,,VFR,,,,,,,,,,,,METAR,5.0
CWKM 021701Z AUTO VRB10G21KT ////SM NCD 06/M00 A2955,CWKM,2023-06-02T17:01:00Z,69.6,-140.17,6.0,0.0,0,10,21,,29.551182,,,TRUE,,,,,,,,CLR,,,,,,,,,,,,,,,,,,,,SPECI,8.0
ZYHB 021700Z 26003MPS CAVOK 13/11 Q1004 NOSIG,ZYHB,2023-06-02T17:00:00Z,45.62,126.25,13.0,11.0,260,6,,6.21,29.64567,,,,,,TRUE,,,,,CAVOK,,,,,,,,VFR,,,,,,,,,,,,METAR,134.0
ZYCC 021700Z 28002MPS 250V330 9999 BKN030 14/06 Q1005 NOSIG,ZYCC,2023-06-02T17:00:00Z,43.98,125.68,14.0,6.0,280,4,,6.21,29.675198,,,,,,TRUE,,,,,BKN,3000,,,,,,,MVFR,,,,,,,,,,,,METAR,211.0
ZWSH 021700Z AUTO 27002MPS 240V300 9999 // ///////// 20/03 Q1016,ZWSH,2023-06-02T17:00:00Z,39.55,76.02,20.0,3.0,270,4,,6.21,30.0,,,TRUE,,,,,,,,,,,,,,,,,,,,,,,,,,,,METAR,1374.0
ZUUU 021700Z 36002MPS 310V030 9999 FEW033 21/15 Q1011 NOSIG,ZUUU,2023-06-02T17:00:00Z,30.58,103.95,21.0,15.0,360,4,,6.21,29.852362,,,,,,TRUE,,,,,FEW,3300,,,,,,,VFR,,,,,,,,,,,,METAR,494.0
ZUTF 021700Z 34002MPS 300V010 9999 -RA FEW005 BKN020 OVC040 18/17 Q1011 NOSIG,ZUTF,2023-06-02T17:00:00Z,30.3,104.43,18.0,17.0,340,4,,6.21,29.852362,,,,,,TRUE,,,,-RA,FEW,500,BKN,2000,OVC,4000,,,MVFR,,,,,,,,,,,,METAR,443.0
ZUGY 021700Z VRB01MPS 9999 -RA OVC040 21/19 Q1012 RETS NOSIG,ZUGY,2023-06-02T17:00:00Z,26.53,106.8,21.0,19.0,0,2,,6.21,29.88189,,,,,,TRUE,,,,-RA,OVC,4000,,,,,,,VFR,,,,,,,,,,,,METAR,1130.0
ZUCK 021700Z 29005MPS 4000 -SHRA BR SCT004 SCT007 OVC030 20/20 Q1009 RERA NOSIG,ZUCK,2023-06-02T17:00:00Z,29.72,106.63,20.0,20.0,290,10,,2.49,29.793306,,,,,,TRUE,,,,-SHRA BR,SCT,400,SCT,700,OVC,3000,,,IFR,,,,,,,,,,,,METAR,416.0
ZSQD 021700Z VRB01MPS CAVOK 16/11 Q1011 NOSIG,ZSQD,2023-06-02T17:00:00Z,36.27,120.38,16.0,11.0,0,2,,6.21,29.852362,,,,,,TRUE,,,,,CAVOK,,,,,,,,VFR,,,,,,,,,,,,METAR,8.0
ZSOF 021700Z 31003MPS CAVOK 21/14 Q1012 NOSIG,ZSOF,2023-06-02T17:00:00Z,31.98,116.97,21.0,14.0,310,6,,6.21,29.88189,,,,,,TRUE,,,,,CAVOK,,,,,,,,VFR,,,,,,,,,,,,METAR,23.0
ZSNJ 021700Z 06004MPS CAVOK 26/17 Q1009 NOSIG,ZSNJ,2023-06-02T17:00:00Z,31.75,118.87,26.0,17.0,60,8,,6.21,29.793306,,,,,,TRUE,,,,,CAVOK,,,,,,,,VFR,,,,,,,,,,,,METAR,27.0
ZSNB 021700Z 19001MPS CAVOK 23/19 Q1007 NOSIG,ZSNB,2023-06-02T17:00:00Z,29.83,121.47,23.0,19.0,190,2,,6.21,29.734253,,,,,,TRUE,,,,,CAVOK,,,,,,,,VFR,,,,,,,,,,,,METAR,5.0
ZSFZ 021700Z 05006MPS 9000 FEW003 BKN005 27/26 Q1008 NOSIG,ZSFZ,2023-06-02T17:00:00Z,25.93,119.67,27.0,26.0,50,12,,5.59,29.763779,,,,,,TRUE,,,,,FEW,300,BKN,500,,,,,IFR,,,,,,,,,,,,METAR,14.0
ZSAM 021700Z 11002MPS 9000 NSC 29/27 Q1007 NOSIG,ZSAM,2023-06-02T17:00:00Z,24.53,118.13,29.0,27.0,110,4,,5.59,29.734253,,,,,,TRUE,,,,,CLR,,,,,,,,VFR,,,,,,,,,,,,METAR,13.0
ZPPP 021700Z 21006MPS 9999 FEW026 22/13 Q1017 NOSIG,ZPPP,2023-06-02T17:00:00Z,25.0,102.65,22.0,13.0,210,12,,6.21,30.029528,,,,,,TRUE,,,,,FEW,2600,,,,,,,VFR,,,,,,,,,,,,METAR,1885.0
ZMUB 021700Z 35004MPS 9999 SCT033 10/M00 Q1020 NOSIG RMK QFE657.6 47 NT,ZMUB,2023-06-02T17:00:00Z,47.83,106.75,10.0,0.0,350,8,,6.21,30.11811,,,,,,TRUE,,,,,SCT,3300,,,,,,,VFR,,,,,,,,,,,,SPECI,1300.0
ZLXY 021700Z 23002MPS 5000 BR SCT050 17/17 Q1015 NOSIG,ZLXY,2023-06-02T17:00:00Z,34.43,108.75,17.0,17.0,230,4,,3.11,29.970472,,,,,,TRUE,,,,BR,SCT,5000,,,,,,,MVFR,,,,,,,,,,,,METAR,478.0
ZLLL 021700Z VRB01MPS 9999 OVC046 12/09 Q1019 NOSIG,ZLLL,2023-06-02T17:00:00Z,36.52,103.62,12.0,9.0,0,2,,6.21,30.088583,,,,,,TRUE,,,,,OVC,4600,,,,,,,VFR,,,,,,,,,,,,METAR,1939.0
ZJSY 021700Z 01002MPS 330V050 CAVOK 30/25 Q1006 NOSIG,ZJSY,2023-06-02T17:00:00Z,18.3,109.42,30.0,25.0,10,4,,6.21,29.704725,,,,,,TRUE,,,,,CAVOK,,,,,,,,VFR,,,,,,,,,,,,METAR,27.0
ZJHK 021700Z VRB01MPS CAVOK 27/26 Q1006 NOSIG,ZJHK,2023-06-02T17:00:00Z,19.93,110.43,27.0,26.0,0,2,,6.21,29.704725,,,,,,TRUE,,,,,CAVOK,,,,,,,,VFR,,,,,,,,,,,,METAR,21.0
ZHHH 021700Z 02002MPS 340V050 CAVOK 24/11 Q1010 NOSIG,ZHHH,2023-06-02T17:00:00Z,30.78,114.22,24.0,11.0,20,4,,6.21,29.822834,,,,,,TRUE,,,,,CAVOK,,,,,,,,VFR,,,,,,,,,,,,METAR,33.0
ZHCC 021700Z 25002MPS CAVOK 18/16 Q1013 NOSIG,ZHCC,2023-06-02T17:00:00Z,34.52,113.83,18.0,16.0,250,4,,6.21,29.911417,,,,,,TRUE,,,,,CAVOK,,,,,,,,VFR,,,,,,,,,,,,METAR,149.0
ZGSZ 021700Z 18004MPS 9999 FEW043 29/27 Q1006 NOSIG,ZGSZ,2023-06-02T17:00:00Z,22.63,113.8,29.0,27.0,180,8,,6.21,29.704725,,,,,,TRUE,,,,,FEW,4300,,,,,,,VFR,,,,,,,,,,,,METAR,18.0
ZGOW 021700Z 00000MPS 6000 NSC 27/26 Q1007 NOSIG,ZGOW,2023-06-02T17:00:00Z,23.55,116.5,27.0,26.0,0,0,,3.73,29.734253,,,,,,TRUE,,,,,CLR,,,,,,,,MVFR,,,,,,,,,,,,METAR,4.0
ZGNN 021700Z 10002MPS CAVOK 29/27 Q1006 NOSIG,ZGNN,2023-06-02T17:00:00Z,22.62,108.17,29.0,27.0,100,4,,6.21,29.704725,,,,,,TRUE,,,,,CAVOK,,,,,,,,VFR,,,,,,,,,,,,METAR,128.0
ZGKL 021700Z 35003MPS 9999 SCT040 28/26 Q1007 NOSIG,ZGKL,2023-06-02T17:00:00Z,25.22,110.03,28.0,26.0,350,6,,6.21,29.734253,,,,,,TRUE,,,,,SCT,4000,,,,,,,VFR,,,,,,,,,,,,METAR,151.0
ZGHA 021700Z 35005MPS 8000 OVC040 26/22 Q1009 NOSIG,ZGHA,2023-06-02T17:00:00Z,28.18,113.22,26.0,22.0,350,10,,4.97,29.793306,,,,,,TRUE,,,,,OVC,4000,,,,,,,MVFR,,,,,,,,,,,,METAR,61.0
ZBSJ 021700Z 14002MPS CAVOK 18/11 Q1010 NOSIG,ZBSJ,2023-06-02T17:00:00Z,38.28,114.7,18.0,11.0,140,4,,6.21,29.822834,,,,,,TRUE,,,,,CAVOK,,,,,,,,VFR,,,,,,,,,,,,METAR,70.0
ZBHH 021700Z 08002MPS 040V110 CAVOK 12/01 Q1015 NOSIG,ZBHH,2023-06-02T17:00:00Z,40.85,111.82,12.0,1.0,80,4,,6.21,29.970472,,,,,,TRUE,,,,,CAVOK,,,,,,,,VFR,,,,,,,,,,,,METAR,1081.0
WSSL 021700Z 13006KT 9999 FEW018 BKN300 29/26 Q1010,WSSL,2023-06-02T17:00:00Z,1.42,103.87,29.0,26.0,130,6,,6.21,29.822834,,,,,,,,,,,FEW,1800,BKN,30000,,,,,VFR,,,,,,,,,,,,METAR,11.0
WSAP 021700Z 11005KT 9999 FEW016 SCT150 BKN300 29/26 Q1010,WSAP,2023-06-02T17:00:00Z,1.37,103.92,29.0,26.0,110,5,,6.21,29.822834,,,,,,,,,,,FEW,1600,SCT,15000,BKN,30000,,,VFR,,,,,,,,,,,,METAR,20.0
WMSA 021700Z 00000KT 9999 FEW026 28/24 Q1011,WMSA,2023-06-02T17:00:00Z,3.13,101.55,28.0,24.0,0,0,,6.21,29.852362,,,,,,,,,,,FEW,2600,,,,,,,VFR,,,,,,,,,,,,METAR,19.0
WMKN 021700Z 34010KT 9999 FEW017CB SCT022 28/25 Q1011,WMKN,2023-06-02T17:00:00Z,5.37,103.1,28.0,25.0,340,10,,6.21,29.852362,,,,,,,,,,,FEW,1700,SCT,2200,,,,,VFR,,,,,,,,,,,,METAR,12.0
WMKM 021700Z VRB02KT 9999 FEW029 27/25 Q1011,WMKM,2023-06-02T17:00:00Z,2.27,102.25,27.0,25.0,0,2,,6.21,29.852362,,,,,,,,,,,FEW,2900,,,,,,,VFR,,,,,,,,,,,,METAR,9.0
WMKL 021700Z 00000KT 9999 FEW026 28/25 Q1011,WMKL,2023-06-02T17:00:00Z,6.32,99.72,28.0,25.0,0,0,,6.21,29.852362,,,,,,,,,,,FEW,2600,,,,,,,VFR,,,,,,,,,,,,METAR,4.0
WMKJ 021700Z VRB02KT 7000 FEW010 27/26 Q1010,WMKJ,2023-06-02T17:00:00Z,1.63,103.67,27.0,26.0,0,2,,4.35,29.822834,,,,,,,,,,,FEW,1000,,,,,,,MVFR,,,,,,,,,,,,METAR,38.0
WMKI 021700Z VRB02KT 8000 FEW002 27/25 Q1011,WMKI,2023-06-02T17:00:00Z,4.57,101.08,27.0,25.0,0,2,,4.97,29.852362,,,,,,,,,,,FEW,200,,,,,,,MVFR,,,,,,,,,,,,METAR,37.0
WMKE 021700Z AUTO 00000KT //// // ////// 26/25 Q1010,WMKE,2023-06-02T17:00:00Z,4.53,103.43,26.0,25.0,0,0,,,29.822834,,,TRUE,,,,,,,,,,,,,,,,,,,,,,,,,,,,METAR,5.0
WMKD 021700Z 00000KT 9999 FEW025 28/25 Q1010 NOSIG,WMKD,2023-06-02T17:00:00Z,3.77,103.22,28.0,25.0,0,0,,6.21,29.822834,,,,,,TRUE,,,,,FEW,2500,,,,,,,VFR,,,,,,,,,,,,METAR,18.0
WMKC 021700Z VRB02KT 9000 -TSRA FEW010 FEW017CB SCT020 24/24 Q1010,WMKC,2023-06-02T17:00:00Z,6.17,102.28,24.0,24.0,0,2,,5.59,29.822834,,,,,,,,,,-TSRA,FEW,1000,FEW,1700,SCT,2000,,,VFR,,,,,,,,,,,,METAR,7.0
WMKB 021700Z VRB02KT 8000 SCT024 28/27 Q1010 NOSIG,WMKB,2023-06-02T17:00:00Z,5.47,100.38,28.0,27.0,0,2,,4.97,29.822834,,,,,,TRUE,,,,,SCT,2400,,,,,,,MVFR,,,,,,,,,,,,METAR,4.0
WMKA 021700Z 00000KT 9000 FEW028 28/25 Q1010,WMKA,2023-06-02T17:00:00Z,6.2,100.4,28.0,25.0,0,0,,5.59,29.822834,,,,,,,,,,,FEW,2800,,,,,,,VFR,,,,,,,,,,,,METAR,5.0
WMBA 021700Z 00000KT 9000 FEW031 27/25 Q1010,WMBA,2023-06-02T17:00:00Z,4.22,100.7,27.0,25.0,0,0,,5.59,29.822834,,,,,,,,,,,FEW,3100,,,,,,,VFR,,,,,,,,,,,,METAR,9.0
WMAU 021700Z 16004KT 110V240 9000 SCT025 27/25 Q1010,WMAU,2023-06-02T17:00:00Z,2.38,103.88,27.0,25.0,160,4,,5.59,29.822834,,,,,,,,,,,SCT,2500,,,,,,,VFR,,,,,,,,,,,,METAR,5.0
WBKW 021700Z 00000KT 9999 FEW015CB 27/25 Q1010,WBKW,2023-06-02T17:00:00Z,4.32,118.12,27.0,25.0,0,0,,6.21,29.822834,,,,,,,,,,,FEW,1500,,,,,,,VFR,,,,,,,,,,,,METAR,17.0
WBKT 021700Z VRB02KT 9999 FEW014 26/26 Q1010,WBKT,2023-06-02T17:00:00Z,6.92,116.83,26.0,26.0,0,2,,6.21,29.822834,,,,,,,,,,,FEW,1400,,,,,,,VFR,,,,,,,,,,,,METAR,11.0
WBKL 021700Z 00000KT 9999 FEW040 27/25 Q1010,WBKL,2023-06-02T17:00:00Z,5.3,115.25,27.0,25.0,0,0,,6.21,29.822834,,,,,,,,,,,FEW,4000,,,,,,,VFR,,,,,,,,,,,,METAR,29.0
WBGY 021700Z AUTO 00000KT //// // ////// 26/25 Q1010,WBGY,2023-06-02T17:00:00Z,1.22,111.45,26.0,25.0,0,0,,,29.822834,,,TRUE,,,,,,,,,,,,,,,,,,,,,,,,,,,,METAR,13.0
WBGS 021700Z 00000KT 9999 SCT017 27/26 Q1010,WBGS,2023-06-02T17:00:00Z,2.27,111.98,27.0,26.0,0,0,,6.21,29.822834,,,,,,,,,,,SCT,1700,,,,,,,VFR,,,,,,,,,,,,METAR,26.0
WBGR 021700Z VRB01KT 9999 FEW016 26/25 Q1010,WBGR,2023-06-02T17:00:00Z,4.32,113.98,26.0,25.0,0,1,,6.21,29.822834,,,,,,,,,,,FEW,1600,,,,,,,VFR,,,,,,,,,,,,METAR,18.0
WBGB 021700Z 11003KT 080V150 9999 FEW016 27/26 Q1010,WBGB,2023-06-02T17:00:00Z,3.12,113.02,27.0,26.0,110,3,,6.21,29.822834,,,,,,,,,,,FEW,1600,,,,,,,VFR,,,,,,,,,,,,METAR,34.0
WATT 021700Z 12005KT 8000 FEW018 24/22 Q1013 NOSIG,WATT,2023-06-02T17:00:00Z,-10.17,123.67,24.0,22.0,120,5,,4.97,29.911417,,,,,,TRUE,,,,,FEW,1800,,,,,,,MVFR,,,,,,,,,,,,METAR,104.0
VVPQ 021700Z 22006KT 9999 SCT015 29/26 Q1009 NOSIG,VVPQ,2023-06-02T17:00:00Z,10.23,103.97,29.0,26.0,220,6,,6.21,29.793306,,,,,,TRUE,,,,,SCT,1500,,,,,,,VFR,,,,,,,,,,,,METAR,8.0
VTUU 021700Z 18003KT 140V230 CAVOK 26/26 Q1007 NOSIG,VTUU,2023-06-02T17:00:00Z,15.25,104.87,26.0,26.0,180,3,,6.21,29.734253,,,,,,TRUE,,,,,CAVOK,,,,,,,,VFR,,,,,,,,,,,,METAR,119.0
VTUK 021700Z 20004KT 9000 FEW030 30/22 Q1007 NOSIG,VTUK,2023-06-02T17:00:00Z,16.47,102.78,30.0,22.0,200,4,,5.59,29.734253,,,,,,TRUE,,,,,FEW,3000,,,,,,,VFR,,,,,,,,,,,,METAR,190.0
VTSG 021700Z 00000KT 9000 FEW020 25/25 Q1010 NOSIG,VTSG,2023-06-02T17:00:00Z,8.1,98.98,25.0,25.0,0,0,,5.59,29.822834,,,,,,TRUE,,,,,FEW,2000,,,,,,,VFR,,,,,,,,,,,,METAR,32.0
VTCT 021700Z VRB02KT 9999 -RA FEW020 BKN045 25/25 Q1008 NOSIG,VTCT,2023-06-02T17:00:00Z,19.95,99.88,25.0,25.0,0,2,,6.21,29.763779,,,,,,TRUE,,,,-RA,FEW,2000,BKN,4500,,,,,VFR,,,,,,,,,,,,METAR,389.0
VRMM 021700Z 27017KT 9999 FEW017TCU SCT120 BKN260 29/26 Q1012 TEMPO 5000 SHRA,VRMM,2023-06-02T17:00:00Z,4.2,73.52,29.0,26.0,270,17,,6.21,29.88189,,,,,,,,,,,FEW,1700,SCT,12000,BKN,26000,,,VFR,,,,,,,,,,,,METAR,2.0
VRMH 021700Z 26007KT 9999 FEW017TCU SCT120 BKN260 29/26 Q1011,VRMH,2023-06-02T17:00:00Z,6.75,73.17,29.0,26.0,260,7,,6.21,29.852362,,,,,,,,,,,FEW,1700,SCT,12000,BKN,26000,,,VFR,,,,,,,,,,,,METAR,1.0
VRMG 021700Z 31004KT 9999 FEW018 FEW019CB BKN110 27/25 Q1013 CB SSE TEMPO 5000 TSRA,VRMG,2023-06-02T17:00:00Z,-0.7,73.15,27.0,25.0,310,4,,6.21,29.911417,,,,,,,,,,,FEW,1800,FEW,1900,BKN,11000,,,VFR,,,,,,,,,,,,METAR,2.0
VOPB 021700Z 20003KT 5000 BR SCT014 SCT220 26/25 Q1008 TEMPO RA/DZ,VOPB,2023-06-02T17:00:00Z,11.63,92.73,26.0,25.0,200,3,,3.11,29.763779,,,,,,,,,,BR,SCT,1400,SCT,22000,,,,,MVFR,,,,,,,,,,,,METAR,1.0
VOMD 021700Z 02002KT 6000 FEW020 30/22 Q1009 NOSIG,VOMD,2023-06-02T17:00:00Z,9.83,78.08,30.0,22.0,20,2,,3.73,29.793306,,,,,,TRUE,,,,,FEW,2000,,,,,,,MVFR,,,,,,,,,,,,METAR,135.0
VOCB 021700Z 20008KT 5000 BR FEW012 BKN080 27/23 Q1011 NOSIG,VOCB,2023-06-02T17:00:00Z,11.02,77.03,27.0,23.0,200,8,,3.11,29.852362,,,,,,TRUE,,,,BR,FEW,1200,BKN,8000,,,,,MVFR,,,,,,,,,,,,METAR,394.0
VOBG 021700Z 24004KT 6000 FEW012 24/20 Q1015 NOSIG,VOBG,2023-06-02T17:00:00Z,12.95,77.65,24.0,20.0,240,4,,3.73,29.970472,,,,,,TRUE,,,,,FEW,1200,,,,,,,MVFR,,,,,,,,,,,,METAR,884.0
VOAR 021700Z 30003KT 4500 HZ FEW018 BKN090 30/22 Q1007 NOSIG,VOAR,2023-06-02T17:00:00Z,13.07,79.68,30.0,22.0,300,3,,2.8,29.734253,,,,,,TRUE,,,,HZ,FEW,1800,BKN,9000,,,,,IFR,,,,,,,,,,,,METAR,81.0
VGEG 021700Z 22007KT 4500 HZ FEW018 29/27 Q1005 NOSIG,VGEG,2023-06-02T17:00:00Z,22.23,91.82,29.0,27.0,220,7,,2.8,29.675198,,,,,,TRUE,,,,HZ,FEW,1800,,,,,,,IFR,,,,,,,,,,,,METAR,7.0
VERP 021700Z 27004KT 5000 HZ NSC 35/15 Q1005 NOSIG,VERP,2023-06-02T17:00:00Z,21.18,81.73,35.0,15.0,270,4,,3.11,29.675198,,,,,,TRUE,,,,HZ,CLR,,,,,,,,MVFR,,,,,,,,,,,,METAR,318.0
VERC 021700Z 00000KT 4000 HZ SCT100 30/16 Q1008 NOSIG,VERC,2023-06-02T17:00:00Z,23.32,85.32,30.0,16.0,0,0,,2.49,29.763779,,,,,,TRUE,,,,HZ,SCT,10000,,,,,,,IFR,,,,,,,,,,,,METAR,646.0
VEGY 021700Z 00000KT 5000 HZ NSC 33/19 Q1003,VEGY,2023-06-02T17:00:00Z,24.75,84.95,33.0,19.0,0,0,,3.11,29.616142,,,,,,,,,,HZ,CLR,,,,,,,,MVFR,,,,,,,,,,,,METAR,115.0
VABP 021700Z 32004KT 6000 SCT020 SCT100 33/11 Q1008 NOSIG,VABP,2023-06-02T17:00:00Z,23.28,77.33,33.0,11.0,320,4,,3.73,29.763779,,,,,,TRUE,,,,,SCT,2000,SCT,10000,,,,,MVFR,,,,,,,,,,,,METAR,520.0
UWOR 021700Z 19005MPS CAVOK 22/13 Q1013 R25/CLRD65 NOSIG RMK QFE736/0982,UWOR,2023-06-02T17:00:00Z,51.07,58.6,22.0,13.0,190,10,,6.21,29.911417,,,,,,TRUE,,,,,CAVOK,,,,,,,,VFR,,,,,,,,,,,,METAR,270.0
UWLW 021700Z 36005MPS CAVOK 19/14 Q1009 R02/CLRD60 NOSIG RMK QFE750/1000,UWLW,2023-06-02T17:00:00Z,54.4,48.8,19.0,14.0,360,10,,6.21,29.793306,,,,,,TRUE,,,,,CAVOK,,,,,,,,VFR,,,,,,,,,,,,METAR,67.0
UTAV 021700Z 32006KT CAVOK 27/01 Q1007 R31/CLRD70 NOSIG,UTAV,2023-06-02T17:00:00Z,39.08,63.62,27.0,1.0,320,6,,6.21,29.734253,,,,,,TRUE,,,,,CAVOK,,,,,,,,VFR,,,,,,,,,,,,METAR,187.0
UTAT 021700Z 35004KT CAVOK 30/11 Q1009 R26/CLRD70 NOSIG,UTAT,2023-06-02T17:00:00Z,41.77,59.83,30.0,11.0,350,4,,6.21,29.793306,,,,,,TRUE,,,,,CAVOK,,,,,,,,VFR,,,,,,,,,,,,METAR,84.0
UTAM 021700Z 32004KT 6000 SCT230 31/08 Q1008 R88/CLRD70 NOSIG,UTAM,2023-06-02T17:00:00Z,37.62,61.9,31.0,8.0,320,4,,3.73,29.763779,,,,,,TRUE,,,,,SCT,23000,,,,,,,MVFR,,,,,,,,,,,,METAR,218.0
UTAK 021700Z 36012KT CAVOK 23/14 Q1014 R34L/CLRD70 NOSIG,UTAK,2023-06-02T17:00:00Z,40.05,53.0,23.0,14.0,360,12,,6.21,29.940945,,,,,,TRUE,,,,,CAVOK,,,,,,,,VFR,,,,,,,,,,,,METAR,83.0
UTAA 021700Z 29008KT 9999 SCT100 29/15 Q1012 R88/70D NOSIG,UTAA,2023-06-02T17:00:00Z,37.98,58.37,29.0,15.0,290,8,,6.21,29.88189,,,,,,TRUE,,,,,SCT,10000,,,,,,,VFR,,,,,,,,,,,,METAR,207.0
URMN 021700Z 26001MPS 9999 SCT///CB BKN137 18/17 Q1014 R24/010070 NOSIG RMK QFE724,URMN,2023-06-02T17:00:00Z,43.52,43.63,18.0,17.0,260,2,,6.21,29.940945,,,,,,TRUE,,,,,BKN,13700,,,,,,,VFR,,,,,,,,,,,,METAR,424.0
UOOO 021700Z 19007MPS 0550 0500NE R19/0550N PRFG BKN004 BKN013CB 04/04 Q0991 R19/25//60 NOSIG RMK QFE728/0970,UOOO,2023-06-02T17:00:00Z,69.32,87.33,4.0,4.0,190,14,,0.34,29.26181,,,,,,TRUE,,,,PRFG,BKN,400,BKN,1300,,,,,LIFR,,,,,,,,,,,,METAR,177.0
UMGG 021700Z 33006MPS 9999 -TSRA SCT029CB BKN074 19/14 Q1009 NOSIG,UMGG,2023-06-02T17:00:00Z,52.53,31.02,19.0,14.0,330,12,,6.21,29.793306,,,,,,TRUE,,,,-TSRA,SCT,2900,BKN,7400,,,,,VFR,,,,,,,,,,,,METAR,135.0
UMBB 021700Z 35004MPS 9000 SCT030 SCT100 10/06 Q1016 NOSIG,UMBB,2023-06-02T17:00:00Z,52.12,23.9,10.0,6.0,350,8,,5.59,30.0,,,,,,TRUE,,,,,SCT,3000,SCT,10000,,,,,VFR,,,,,,,,,,,,METAR,138.0
UHSS 021700Z 36006MPS 9999 SCT040 08/06 Q0997 R01/70D NOSIG RMK QFE746/0995,UHSS,2023-06-02T17:00:00Z,46.88,142.72,8.0,6.0,360,12,,6.21,29.438976,,,,,,TRUE,,,,,SCT,4000,,,,,,,VFR,,,,,,,,,,,,METAR,14.0
UHPP 021700Z 06001MPS 9999 SCT009 BKN025 04/04 Q1006 R34L/290153 NOSIG RMK QFE751/1002,UHPP,2023-06-02T17:00:00Z,53.17,158.45,4.0,4.0,60,2,,6.21,29.704725,,,,,,TRUE,,,,,SCT,900,BKN,2500,,,,,MVFR,,,,,,,,,,,,METAR,33.0
UHMM 021700Z 12001MPS 9999 NSC M01/M01 Q1008 RMK QFE741 R28/09003MPS,UHMM,2023-06-02T17:00:00Z,59.92,150.72,-1.0,-1.0,120,2,,6.21,29.763779,,,,,,,,,,,CLR,,,,,,,,VFR,,,,,,,,,,,,METAR,175.0
UHBB 021700Z 04001MPS 9999 SCT033CB 09/07 Q1003 R36/290250 NOSIG RMK QFE735/0980,UHBB,2023-06-02T17:00:00Z,50.43,127.42,9.0,7.0,40,2,,6.21,29.616142,,,,,,TRUE,,,,,SCT,3300,,,,,,,VFR,,,,,,,,,,,,METAR,185.0
UERP 021700Z VRB01MPS 9999 SCT033 12/03 Q1007 NOSIG RMK QFE711,UERP,2023-06-02T17:00:00Z,66.4,112.03,12.0,3.0,0,2,,6.21,29.734253,,,,,,TRUE,,,,,SCT,3300,,,,,,,VFR,,,,,,,,,,,,METAR,514.0
UCFL 021700Z 31003MPS 9999 BKN023CB 15/04 Q1021,UCFL,2023-06-02T17:00:00Z,42.58,76.7,15.0,4.0,310,6,,6.21,30.147638,,,,,,,,,,,BKN,2300,,,,,,,MVFR,,,,,,,,,,,,METAR,1654.0
UBBY 021700Z 10010KT 9999 SCT100 22/13 Q1017 NOSIG RMK MT OP,UBBY,2023-06-02T17:00:00Z,41.57,46.67,22.0,13.0,100,10,,6.21,30.029528,,,,,,TRUE,,,,,SCT,10000,,,,,,,VFR,,,,,,,,,,,,METAR,383.0
UBBQ 021700Z 17004KT 9999 SCT100 22/17 Q1015 NOSIG RMK MT OP OBSC,UBBQ,2023-06-02T17:00:00Z,40.82,47.72,22.0,17.0,170,4,,6.21,29.970472,,,,,,TRUE,,,,,SCT,10000,,,,,,,VFR,,,,,,,,,,,,METAR,339.0
UBBL 021700Z 15005KT 8000 BKN018 23/20 Q1014 NOSIG RMK MT OP,UBBL,2023-06-02T17:00:00Z,38.75,48.82,23.0,20.0,150,5,,4.97,29.940945,,,,,,TRUE,,,,,BKN,1800,,,,,,,MVFR,,,,,,,,,,,,METAR,-11.0
UASK 021700Z 10002MPS 070V130 9999 NSC 14/08 Q1019 NOSIG RMK QFE738/0985,UASK,2023-06-02T17:00:00Z,50.03,82.5,14.0,8.0,100,4,,6.21,30.088583,,,,,,TRUE,,,,,CLR,,,,,,,,VFR,,,,,,,,,,,,METAR,285.0
UAOO 021700Z 09006MPS CAVOK 25/M02 Q1011 NOSIG RMK QFE747/0996,UAOO,2023-06-02T17:00:00Z,44.7,65.6,25.0,-2.0,90,12,,6.21,29.852362,,,,,,TRUE,,,,,CAVOK,,,,,,,,VFR,,,,,,,,,,,,METAR,130.0
TVSA 021700Z 07008KT 9999 BKN018 BKN038 29/26 Q1013 NOSIG ,TVSA,2023-06-02T17:00:00Z,13.15,-61.15,29.0,26.0,70,8,,6.21,29.911417,,,,,,TRUE,,,,,BKN,1800,BKN,3800,,,,,MVFR,,,,,,,,,,,,METAR,3.0
TUPJ 021700Z 15009KT 10SM SCT021 30/24 A2993 RMK Q1013 VIS16KM,TUPJ,2023-06-02T17:00:00Z,18.43,-64.53,30.0,24.0,150,9,,10.0,29.929134,,,,,,,,,,,SCT,2100,,,,,,,VFR,,,,,,,,,,,,METAR,6.0
TTPP 021700Z 18012KT 0500 +TSRA SCT008CB OVC012 26/25 Q1013 NOSIG RMK CB OVHD,TTPP,2023-06-02T17:00:00Z,10.58,-61.35,26.0,25.0,180,12,,0.31,29.911417,,,,,,TRUE,,,,+TSRA,SCT,800,OVC,1200,,,,,LIFR,,,,,,,,,,,,METAR,11.0
TTCP 021700Z 11009KT 9999 FEW020 30/25 Q1012 NOSIG,TTCP,2023-06-02T17:00:00Z,11.15,-60.85,30.0,25.0,110,9,,6.21,29.88189,,,,,,TRUE,,,,,FEW,2000,,,,,,,VFR,,,,,,,,,,,,METAR,13.0
TRPG 021700Z 10012KT 9999 BKN016 30/26 Q1015,TRPG,2023-06-02T17:00:00Z,16.78,-62.2,30.0,26.0,100,12,,6.21,29.970472,,,,,,,,,,,BKN,1600,,,,,,,MVFR,,,,,,,,,,,,METAR,170.0
TQPF 021700Z 13014KT 9999 SCT019 30/26 Q1014,TQPF,2023-06-02T17:00:00Z,18.2,-63.05,30.0,26.0,130,14,,6.21,29.940945,,,,,,,,,,,SCT,1900,,,,,,,VFR,,,,,,,,,,,,METAR,33.0
TNCM 021700Z 11011KT 9999 FEW017 31/26 Q1015 NOSIG ,TNCM,2023-06-02T17:00:00Z,18.05,-63.12,31.0,26.0,110,11,,6.21,29.970472,,,,,,TRUE,,,,,FEW,1700,,,,,,,VFR,,,,,,,,,,,,METAR,9.0
TNCC 021700Z 09011KT 050V120 9999 FEW025 31/26 Q1010 NOSIG,TNCC,2023-06-02T17:00:00Z,12.2,-68.97,31.0,26.0,90,11,,6.21,29.822834,,,,,,TRUE,,,,,FEW,2500,,,,,,,VFR,,,,,,,,,,,,METAR,10.0
TNCA 021700Z 17007KT 140V200 9999 FEW017 29/25 Q1011 NOSIG,TNCA,2023-06-02T17:00:00Z,12.5,-70.0,29.0,25.0,170,7,,6.21,29.852362,,,,,,TRUE,,,,,FEW,1700,,,,,,,VFR,,,,,,,,,,,,METAR,7.0
TLPL 021700Z 10017KT 9999 SCT023 BKN040 30/25 Q1013 NOSIG,TLPL,2023-06-02T17:00:00Z,13.75,-60.95,30.0,25.0,100,17,,6.21,29.911417,,,,,,TRUE,,,,,SCT,2300,BKN,4000,,,,,VFR,,,,,,,,,,,,METAR,13.0
TLPC 021700Z 10009KT 9999 FEW025 BKN040 30/25 Q1013 NOSIG,TLPC,2023-06-02T17:00:00Z,14.02,-61.0,30.0,25.0,100,9,,6.21,29.911417,,,,,,TRUE,,,,,FEW,2500,BKN,4000,,,,,VFR,,,,,,,,,,,,METAR,8.0
TKPK 021700Z 09011KT 9999 FEW019 32/25 Q1014,TKPK,2023-06-02T17:00:00Z,17.3,-62.72,32.0,25.0,90,11,,6.21,29.940945,,,,,,,,,,,FEW,1900,,,,,,,VFR,,,,,,,,,,,,METAR,62.0
TGPY 021700Z 09012KT 9999 FEW016 29/26 Q1012 NOSIG CB TOP -S,TGPY,2023-06-02T17:00:00Z,12.0,-61.78,29.0,26.0,90,12,,6.21,29.88189,,,,,,TRUE,,,,,FEW,1600,,,,,,,VFR,,,,,,,,,,,,METAR,12.0
TDPD 021700Z 11012KT 9999 BKN017 SCT035 29/26 Q1014,TDPD,2023-06-02T17:00:00Z,15.55,-61.3,29.0,26.0,110,12,,6.21,29.940945,,,,,,,,,,,BKN,1700,SCT,3500,,,,,MVFR,,,,,,,,,,,,METAR,13.0
TDCF 021700Z 29002KT 9999 SCT018 BKN034 33/25 Q1012,TDCF,2023-06-02T17:00:00Z,15.33,-61.4,33.0,25.0,290,2,,6.21,29.88189,,,,,,,,,,,SCT,1800,BKN,3400,,,,,VFR,,,,,,,,,,,,METAR,4.0
TBPB 021700Z 12010KT 9999 FEW018 SCT036 31/26 Q1012 NOSIG,TBPB,2023-06-02T17:00:00Z,13.07,-59.48,31.0,26.0,120,10,,6.21,29.88189,,,,,,TRUE,,,,,FEW,1800,SCT,3600,,,,,VFR,,,,,,,,,,,,METAR,55.0
TAPA 021700Z 09010KT 040V150 9999 SCT020 29/24 Q1014 NOSIG,TAPA,2023-06-02T17:00:00Z,17.13,-61.78,29.0,24.0,90,10,,6.21,29.940945,,,,,,TRUE,,,,,SCT,2000,,,,,,,VFR,,,,,,,,,,,,METAR,15.0
SYEC 021700Z VRB02KT 9999 FEW015CB BKN016 28/25 Q1011 NOSIG RMK CB SSE&W-WNW,SYEC,2023-06-02T17:00:00Z,6.8,-58.1,28.0,25.0,0,2,,6.21,29.852362,,,,,,TRUE,,,,,FEW,1500,BKN,1600,,,,,MVFR,,,,,,,,,,,,METAR,2.0
"SYCJ 021700Z 36008KT 9000 TS VCSH FEW015CB SCT016 27/25 Q1011 NOSIG RMK CB E,S,SW,NW, VCSH E,NW",SYCJ,2023-06-02T17:00:00Z,6.5,-58.25,27.0,25.0,360,8,,5.59,29.852362,,,,,,TRUE,,,,TS VCSH,FEW,1500,SCT,1600,,,,,VFR,,,,,,,,,,,,METAR,30.0
SUMU 021700Z 36008KT 9999 FEW023 BKN060 22/18 Q1013 NOSIG,SUMU,2023-06-02T17:00:00Z,-34.83,-56.02,22.0,18.0,360,8,,6.21,29.911417,,,,,,TRUE,,,,,FEW,2300,BKN,6000,,,,,VFR,,,,,,,,,,,,METAR,32.0
SULS 021700Z 36014KT 9999 SCT026 FEW033CB BKN200 23/17 Q1013,SULS,2023-06-02T17:00:00Z,-34.87,-55.1,23.0,17.0,360,14,,6.21,29.911417,,,,,,,,,,,SCT,2600,FEW,3300,BKN,20000,,,VFR,,,,,,,,,,,,METAR,22.0
SUDU 021700Z 35011KT 9999 SCT023 23/18 Q1014,SUDU,2023-06-02T17:00:00Z,-33.35,-56.5,23.0,18.0,350,11,,6.21,29.940945,,,,,,,,,,,SCT,2300,,,,,,,VFR,,,,,,,,,,,,METAR,91.0
SUCA 021700Z 36013G25KT 320V030 9999 FEW015 23/17 Q1011,SUCA,2023-06-02T17:00:00Z,-34.45,-57.77,23.0,17.0,360,13,25,6.21,29.852362,,,,,,,,,,,FEW,1500,,,,,,,VFR,,,,,,,,,,,,METAR,26.0
SUAA 021700Z 36011KT 9999 FEW013 BKN070 22/17 Q1013,SUAA,2023-06-02T17:00:00Z,-34.78,-56.25,22.0,17.0,360,11,,6.21,29.911417,,,,,,,,,,,FEW,1300,BKN,7000,,,,,VFR,,,,,,,,,,,,METAR,48.0
SPYL 021700Z 18010KT 9999 BKN020 SCT050 29/23 Q1012 RMK BIRD HAZARD RWY 17/35 PP000,SPYL,2023-06-02T17:00:00Z,-4.57,-81.25,29.0,23.0,180,10,,6.21,29.88189,,,,,,,,,,,BKN,2000,SCT,5000,,,,,MVFR,,,,,,,,,,,,METAR,89.0
SPUR 021700Z 19005KT 150V230 9999 BKN025 29/22 Q1013 RMK BIRD HAZARD RWY 19/01 PP000,SPUR,2023-06-02T17:00:00Z,-5.17,-80.58,29.0,22.0,190,5,,6.21,29.911417,,,,,,,,,,,BKN,2500,,,,,,,MVFR,,,,,,,,,,,,METAR,55.0
SPTU 021700Z VRB02KT 9999 FEW015 30/22 Q1013 RMK BIRD HAZARD RWY 01/19 PP000,SPTU,2023-06-02T17:00:00Z,-12.62,-69.22,30.0,22.0,0,2,,6.21,29.911417,,,,,,,,,,,FEW,1500,,,,,,,VFR,,,,,,,,,,,,METAR,213.0
SPTN 021700Z VRB03KT 9999 FEW033 20/12 Q1016 RMK PP000,SPTN,2023-06-02T17:00:00Z,-18.03,-70.28,20.0,12.0,0,3,,6.21,30.0,,,,,,,,,,,FEW,3300,,,,,,,VFR,,,,,,,,,,,,METAR,459.0
SPST 021700Z 00000KT 9999 SCT015 BKN080 28/22 Q1016 RMK PP000,SPST,2023-06-02T17:00:00Z,-6.52,-76.37,28.0,22.0,0,0,,6.21,30.0,,,,,,,,,,,SCT,1500,BKN,8000,,,,,VFR,,,,,,,,,,,,METAR,282.0
SPSO 021700Z 29005KT 9999 BKN027 22/16 Q1015 RMK BIRD HAZARD RWY 22/04 PP000,SPSO,2023-06-02T17:00:00Z,-13.73,-76.22,22.0,16.0,290,5,,6.21,29.970472,,,,,,,,,,,BKN,2700,,,,,,,MVFR,,,,,,,,,,,,METAR,8.0
SPRU 021700Z 16009KT 9000 VCFG BKN020 26/19 Q1013 RMK PP000,SPRU,2023-06-02T17:00:00Z,-8.08,-79.12,26.0,19.0,160,9,,5.59,29.911417,,,,,,,,,,VCFG,BKN,2000,,,,,,,MVFR,,,,,,,,,,,,METAR,23.0
SPQU 021700Z 25008KT 210V290 CAVOK 20/M05 Q1028 NOSIG RMK PP000,SPQU,2023-06-02T17:00:00Z,-16.33,-71.57,20.0,-5.0,250,8,,6.21,30.35433,,,,,,TRUE,,,,,CAVOK,,,,,,,,VFR,,,,,,,,,,,,METAR,2527.0
SPQT 021700Z 19003KT 150V240 9999 BKN015 BKN100 27/25 Q1015 NOSIG RMK BIRD HAZARD RWY 06/24 PP000,SPQT,2023-06-02T17:00:00Z,-3.78,-73.32,27.0,25.0,190,3,,6.21,29.970472,,,,,,TRUE,,,,,BKN,1500,BKN,10000,,,,,MVFR,,,,,,,,,,,,METAR,92.0
SPPY 021700Z 11011KT 9999 SCT025 BKN070 18/10 Q1030 RMK PP000,SPPY,2023-06-02T17:00:00Z,-6.22,-77.85,18.0,10.0,110,11,,6.21,30.413385,,,,,,,,,,,SCT,2500,BKN,7000,,,,,VFR,,,,,,,,,,,,METAR,2536.0
SPNC 021700Z 27003KT 9999 FEW040 27/07 Q1023 RMK PP000,SPNC,2023-06-02T17:00:00Z,-9.87,-76.2,27.0,7.0,270,3,,6.21,30.206694,,,,,,,,,,,FEW,4000,,,,,,,VFR,,,,,,,,,,,,METAR,1856.0
SPMS 021700Z 10003KT 9999 FEW012 SCT070 28/24 Q1015 RMK BIRD HAZARD RWY09/27 PP000,SPMS,2023-06-02T17:00:00Z,-5.9,-76.12,28.0,24.0,100,3,,6.21,29.970472,,,,,,,,,,,FEW,1200,SCT,7000,,,,,VFR,,,,,,,,,,,,METAR,149.0
SPME 021700Z 34005KT 9999 SCT014 BKN080 30/24 Q1011 RMK BIRD HAZARD RWY 32/14 PP000,SPME,2023-06-02T17:00:00Z,-3.55,-80.4,30.0,24.0,340,5,,6.21,29.852362,,,,,,,,,,,SCT,1400,BKN,8000,,,,,VFR,,,,,,,,,,,,METAR,26.0
SPLO 021700Z 18009KT 9999 SCT050 21/18 Q1015 RMK PP000,SPLO,2023-06-02T17:00:00Z,-17.7,-71.35,21.0,18.0,180,9,,6.21,29.970472,,,,,,,,,,,SCT,5000,,,,,,,VFR,,,,,,,,,,,,METAR,25.0
SPJL 021700Z /////KT CAVOK 14/M05 Q1039 RMK WIND RWY12 24002KT PP000,SPJL,2023-06-02T17:00:00Z,-15.47,-70.15,14.0,-5.0,,,,6.21,30.679134,,,,,,,,,,,CAVOK,,,,,,,,VFR,,,,,,,,,,,,METAR,3837.0
SPJJ 021700Z 10003KT CAVOK 14/// Q1036 RMK PP000,SPJJ,2023-06-02T17:00:00Z,-11.77,-75.47,,,100,3,,6.21,30.590551,,,,,,,,,,,CAVOK,,,,,,,,VFR,,,,,,,,,,,,METAR,3322.0
SPJI 021700Z 11006KT 9999 FEW020 SCT090 29/24 Q1024 RMK PP000,SPJI,2023-06-02T17:00:00Z,-7.17,-76.72,29.0,24.0,110,6,,6.21,30.236221,,,,,,,,,,,FEW,2000,SCT,9000,,,,,VFR,,,,,,,,,,,,METAR,363.0
SPJE 021700Z 15003KT 9999 SCT040 BKN100 26/21 Q1018 RMK BIRD HAZARD RWY 16/34 PP000,SPJE,2023-06-02T17:00:00Z,,,26.0,21.0,150,3,,6.21,30.059055,,,,,,,,,,,SCT,4000,BKN,10000,,,,,VFR,,,,,,,,,,,,METAR,
SPJC 021700Z 17010KT 8000 OVC030 23/18 Q1014 NOSIG RMK BIRD HAZARD RWY 16 PP000,SPJC,2023-06-02T17:00:00Z,-12.02,-77.12,23.0,18.0,170,10,,4.97,29.940945,,,,,,TRUE,,,,,OVC,3000,,,,,,,MVFR,,,,,,,,,,,,METAR,26.0
SPHO 021700Z VRB03KT 9999 FEW020 19/M05 Q1031 RMK PP000,SPHO,2023-06-02T17:00:00Z,-13.17,-74.22,19.0,-5.0,0,3,,6.21,30.442913,,,,,,,,,,,FEW,2000,,,,,,,VFR,,,,,,,,,,,,METAR,2743.0
SPHI 021700Z 19009KT 9999 OVC030 27/20 Q1013 RMK BIRD HAZARD RWY 19/01 PP000,SPHI,2023-06-02T17:00:00Z,-6.78,-79.82,27.0,20.0,190,9,,6.21,29.911417,,,,,,,,,,,OVC,3000,,,,,,,MVFR,,,,,,,,,,,,METAR,33.0
SPGM 021700Z 01004KT 9999 FEW030 29/19 Q1017 RMK PP000,SPGM,2023-06-02T17:00:00Z,-9.28,-76.0,29.0,19.0,10,4,,6.21,30.029528,,,,,,,,,,,FEW,3000,,,,,,,VFR,,,,,,,,,,,,METAR,643.0
SPEO 021700Z 24004KT 9999 OVC020 23/18 Q1013 RMK BIRD HAZARD RWY 01 PP000,SPEO,2023-06-02T17:00:00Z,-9.17,-78.52,23.0,18.0,240,4,,6.21,29.911417,,,,,,,,,,,OVC,2000,,,,,,,MVFR,,,,,,,,,,,,METAR,13.0
SPCL 021700Z 12005KT 9999 SCT015 30/21 Q1015 RMK BIRD HAZARD RWY 02/20 PP000,SPCL,2023-06-02T17:00:00Z,-8.38,-74.58,30.0,21.0,120,5,,6.21,29.970472,,,,,,,,,,,SCT,1500,,,,,,,VFR,,,,,,,,,,,,METAR,154.0
SMZO 021700Z 00000KT 9999 SCT020 33/24 Q1010 NOSIG,SMZO,2023-06-02T17:00:00Z,5.82,-55.18,33.0,24.0,0,0,,6.21,29.822834,,,,,,TRUE,,,,,SCT,2000,,,,,,,VFR,,,,,,,,,,,,METAR,7.0
SLYA 021700Z 02010KT 9999 FEW023 26/18 Q1008,SLYA,2023-06-02T17:00:00Z,-21.97,-63.65,26.0,18.0,20,10,,6.21,29.763779,,,,,,,,,,,FEW,2300,,,,,,,VFR,,,,,,,,,,,,METAR,646.0
SLVR 021700Z 34015G25KT 9999 FEW015 SCT020 27/22 Q1013,SLVR,2023-06-02T17:00:00Z,-17.63,-63.13,27.0,22.0,340,15,25,6.21,29.911417,,,,,,,,,,,FEW,1500,SCT,2000,,,,,VFR,,,,,,,,,,,,METAR,377.0
SLVM 021700Z 36008KT 9999 NSC 29/17 Q1008,SLVM,2023-06-02T17:00:00Z,-21.25,-63.4,29.0,17.0,360,8,,6.21,29.763779,,,,,,,,,,,CLR,,,,,,,,VFR,,,,,,,,,,,,METAR,396.0
SLTR 021700Z 32004KT 9999 FEW023 29/21 Q1014,SLTR,2023-06-02T17:00:00Z,-14.83,-64.92,29.0,21.0,320,4,,6.21,29.940945,,,,,,,,,,,FEW,2300,,,,,,,VFR,,,,,,,,,,,,METAR,157.0
SLTJ 021700Z 18004KT 9999 NSC 27/07 Q1016,SLTJ,2023-06-02T17:00:00Z,-21.55,-64.72,27.0,7.0,180,4,,6.21,30.0,,,,,,,,,,,CLR,,,,,,,,VFR,,,,,,,,,,,,METAR,1850.0
SLSV 021700Z 35006KT 9999 SCT017 28/22 Q1015,SLSV,2023-06-02T17:00:00Z,-16.4,-61.05,28.0,22.0,350,6,,6.21,29.970472,,,,,,,,,,,SCT,1700,,,,,,,VFR,,,,,,,,,,,,METAR,450.0
SLSA 021700Z 06004KT 9999 FEW020 30/20 Q1015,SLSA,2023-06-02T17:00:00Z,-13.77,-65.43,30.0,20.0,60,4,,6.21,29.970472,,,,,,,,,,,FEW,2000,,,,,,,VFR,,,,,,,,,,,,METAR,144.0
SLRY 021700Z 36008KT 9999 FEW017 29/21 Q1011,SLRY,2023-06-02T17:00:00Z,-14.3,-67.37,29.0,21.0,360,8,,6.21,29.852362,,,,,,,,,,,FEW,1700,,,,,,,VFR,,,,,,,,,,,,METAR,187.0
SLRQ 021700Z 01004KT 9999 FEW023 29/21 Q1012,SLRQ,2023-06-02T17:00:00Z,-14.42,-67.5,29.0,21.0,10,4,,6.21,29.88189,,,,,,,,,,,FEW,2300,,,,,,,VFR,,,,,,,,,,,,METAR,209.0
SLRI 021700Z 18004KT 9999 SCT017 30/21 Q1015,SLRI,2023-06-02T17:00:00Z,-11.02,-66.08,30.0,21.0,180,4,,6.21,29.970472,,,,,,,,,,,SCT,1700,,,,,,,VFR,,,,,,,,,,,,METAR,136.0
SLRB 021700Z 36010KT 9999 FEW020 29/24 Q1017,SLRB,2023-06-02T17:00:00Z,-18.32,-59.75,29.0,24.0,360,10,,6.21,30.029528,,,,,,,,,,,FEW,2000,,,,,,,VFR,,,,,,,,,,,,METAR,266.0
SLPS 021700Z 00000KT 9999 NSC 29/22 Q1016,SLPS,2023-06-02T17:00:00Z,-18.98,-57.82,29.0,22.0,0,0,,6.21,30.0,,,,,,,,,,,CLR,,,,,,,,VFR,,,,,,,,,,,,METAR,136.0
SLOR 021700Z 36005KT 9999 NSC 18/M04 Q1038,SLOR,2023-06-02T17:00:00Z,-17.97,-67.08,18.0,-4.0,360,5,,6.21,30.649607,,,,,,,,,,,CLR,,,,,,,,VFR,,,,,,,,,,,,METAR,3720.0
SLLP 021700Z 23005KT 9999 FEW017 14/M08 Q1040,SLLP,2023-06-02T17:00:00Z,-16.52,-68.17,14.0,-8.0,230,5,,6.21,30.708662,,,,,,,,,,,FEW,1700,,,,,,,VFR,,,,,,,,,,,,METAR,4061.0
SLJE 021700Z 36006KT 9999 FEW020 28/22 Q1017,SLJE,2023-06-02T17:00:00Z,-17.82,-60.75,28.0,22.0,360,6,,6.21,30.029528,,,,,,,,,,,FEW,2000,,,,,,,VFR,,,,,,,,,,,,METAR,286.0
SLET 021700Z 32016G28KT 9999 FEW015 BKN017 26/21 Q1013,SLET,2023-06-02T17:00:00Z,-17.8,-63.17,26.0,21.0,320,16,28,6.21,29.911417,,,,,,,,,,,FEW,1500,BKN,1700,,,,,MVFR,,,,,,,,,,,,METAR,421.0
SLCP 021700Z 36004KT 9999 BKN015 28/22 Q1018,SLCP,2023-06-02T17:00:00Z,-16.15,-62.02,28.0,22.0,360,4,,6.21,30.059055,,,,,,,,,,,BKN,1500,,,,,,,MVFR,,,,,,,,,,,,METAR,502.0
SLCO 021700Z VRB02KT 9999 BKN025 31/23 Q1014,SLCO,2023-06-02T17:00:00Z,-11.03,-68.78,31.0,23.0,0,2,,6.21,29.940945,,,,,,,,,,,BKN,2500,,,,,,,MVFR,,,,,,,,,,,,METAR,238.0
SLCB 021700Z 17003KT 9999 NSC 24/M06 Q1025,SLCB,2023-06-02T17:00:00Z,-17.42,-66.18,24.0,-6.0,170,3,,6.21,30.265747,,,,,,,,,,,CLR,,,,,,,,VFR,,,,,,,,,,,,METAR,2560.0
SLCA 021700Z 36004KT 9999 NSC 26/15 Q1013,SLCA,2023-06-02T17:00:00Z,-20.0,-63.53,26.0,15.0,360,4,,6.21,29.911417,,,,,,,,,,,CLR,,,,,,,,VFR,,,,,,,,,,,,METAR,796.0
SLAL 021700Z 22005KT 9999 NSC 21/M04 Q1030,SLAL,2023-06-02T17:00:00Z,-19.23,-65.15,21.0,-4.0,220,5,,6.21,30.413385,,,,,,,,,,,CLR,,,,,,,,VFR,,,,,,,,,,,,METAR,3109.0
SKVV 021700Z 09006KT 9999 SCT020 BKN090 31/23 Q1015 RMK A2999,SKVV,2023-06-02T17:00:00Z,4.17,-73.62,31.0,23.0,90,6,,6.21,29.970472,,,,,,,,,,,SCT,2000,BKN,9000,,,,,VFR,,,,,,,,,,,,METAR,421.0
SKVP 021700Z 19006KT 9999 FEW015 SCT080 31/24 Q1011 RMK A2987,SKVP,2023-06-02T17:00:00Z,10.43,-73.25,31.0,24.0,190,6,,6.21,29.852362,,,,,,,,,,,FEW,1500,SCT,8000,,,,,VFR,,,,,,,,,,,,METAR,137.0
SKUI 021700Z 24005KT 9999 SCT018 SCT200 28/25 Q1011 RMK A2986,SKUI,2023-06-02T17:00:00Z,5.68,-76.63,28.0,25.0,240,5,,6.21,29.852362,,,,,,,,,,,SCT,1800,SCT,20000,,,,,VFR,,,,,,,,,,,,METAR,55.0
SKUC 021700Z VRB02KT 9999 SCT010 31/24 Q1013 RMK A2992,SKUC,2023-06-02T17:00:00Z,7.07,-70.73,31.0,24.0,0,2,,6.21,29.911417,,,,,,,,,,,SCT,1000,,,,,,,VFR,,,,,,,,,,,,METAR,127.0
SKSP 021700Z 24003KT 210V270 9999 FEW016 30/27 Q1009 RMK A2981,SKSP,2023-06-02T17:00:00Z,12.58,-81.72,30.0,27.0,240,3,,6.21,29.793306,,,,,,,,,,,FEW,1600,,,,,,,VFR,,,,,,,,,,,,METAR,6.0
SKSM 021700Z 27008KT 9999 FEW020 BKN200 32/25 Q1011 RMK A2986,SKSM,2023-06-02T17:00:00Z,11.12,-74.22,32.0,25.0,270,8,,6.21,29.852362,,,,,,,,,,,FEW,2000,BKN,20000,,,,,VFR,,,,,,,,,,,,METAR,5.0
SKRH 021700Z 33008KT 270V030 9999 FEW020 SCT200 32/26 Q1008 RMK A2979,SKRH,2023-06-02T17:00:00Z,11.52,-72.92,32.0,26.0,330,8,,6.21,29.763779,,,,,,,,,,,FEW,2000,SCT,20000,,,,,VFR,,,,,,,,,,,,METAR,11.0
SKRG 021700Z VRB02KT 9999 FEW020 BKN200 22/14 Q1026 NOSIG RMK A3031,SKRG,2023-06-02T17:00:00Z,6.17,-75.42,22.0,14.0,0,2,,6.21,30.295275,,,,,,TRUE,,,,,FEW,2000,BKN,20000,,,,,VFR,,,,,,,,,,,,METAR,2132.0
SKPV 021700Z 14008KT 9999 FEW017 35/30 Q1009 RMK A2980,SKPV,2023-06-02T17:00:00Z,13.37,-81.35,35.0,30.0,140,8,,6.21,29.793306,,,,,,,,,,,FEW,1700,,,,,,,VFR,,,,,,,,,,,,METAR,7.0
SKPS 021700Z 00000KT 9999 RA SCT020 BKN080 21/16 Q1022 RMK A3018,SKPS,2023-06-02T17:00:00Z,1.4,-77.28,21.0,16.0,0,0,,6.21,30.177166,,,,,,,,,,RA,SCT,2000,BKN,8000,,,,,VFR,,,,,,,,,,,,METAR,1798.0
SKPE 021700Z 32005KT 270V360 9999 SCT018 BKN080 24/20 Q1019 RMK A3010,SKPE,2023-06-02T17:00:00Z,4.82,-75.73,24.0,20.0,320,5,,6.21,30.088583,,,,,,,,,,,SCT,1800,BKN,8000,,,,,VFR,,,,,,,,,,,,METAR,1341.0
SKPC 021700Z 24009KT 200V270 9999 BKN017 29/25 Q1012 RMK A2989,SKPC,2023-06-02T17:00:00Z,6.18,-67.5,29.0,25.0,240,9,,6.21,29.88189,,,,,,,,,,,BKN,1700,,,,,,,MVFR,,,,,,,,,,,,METAR,51.0
SKNV 021700Z VRB06KT 9999 FEW040 SCT110 31/20 Q1013 RMK A2994,SKNV,2023-06-02T17:00:00Z,2.93,-75.28,31.0,20.0,0,6,,6.21,29.911417,,,,,,,,,,,FEW,4000,SCT,11000,,,,,VFR,,,,,,,,,,,,METAR,449.0
SKMZ 021700Z 21004KT 7000 VCFG BKN015 19/16 Q1028 RMK VCFG/W A3034,SKMZ,2023-06-02T17:00:00Z,5.03,-75.47,19.0,16.0,210,4,,4.35,30.35433,,,,,,,,,,VCFG,BKN,1500,,,,,,,MVFR,,,,,,,,,,,,METAR,2075.0
SKMR 021700Z 00000KT 9999 BKN020 32/24 Q1010 RMK A2983,SKMR,2023-06-02T17:00:00Z,8.82,-75.83,32.0,24.0,0,0,,6.21,29.822834,,,,,,,,,,,BKN,2000,,,,,,,MVFR,,,,,,,,,,,,METAR,12.0
SKMD 021700Z 20007KT 180V260 9999 SCT035 BKN100 26/17 Q1020 RMK A3013,SKMD,2023-06-02T17:00:00Z,6.22,-75.58,26.0,17.0,200,7,,6.21,30.11811,,,,,,,,,,,SCT,3500,BKN,10000,,,,,VFR,,,,,,,,,,,,METAR,1491.0
SKLT 021700Z VRB02KT 9999 BKN015 BKN080 28/24 Q1014 RMK A2996,SKLT,2023-06-02T17:00:00Z,-4.2,-69.93,28.0,24.0,0,2,,6.21,29.940945,,,,,,,,,,,BKN,1500,BKN,8000,,,,,MVFR,,,,,,,,,,,,METAR,78.0
SKLC 021700Z 25005KT 9999 FEW025 31/25 Q1011 RMK A2986,SKLC,2023-06-02T17:00:00Z,7.82,-76.72,31.0,25.0,250,5,,6.21,29.852362,,,,,,,,,,,FEW,2500,,,,,,,VFR,,,,,,,,,,,,METAR,20.0
SKIP 021700Z 09010KT 9999 BKN018 14/09 Q1031 RMK A3047,SKIP,2023-06-02T17:00:00Z,0.85,-77.67,14.0,9.0,90,10,,6.21,30.442913,,,,,,,,,,,BKN,1800,,,,,,,MVFR,,,,,,,,,,,,METAR,2964.0
SKIB 021700Z 15009KT 9999 SCT030 BKN200 27/21 Q1019 RMK A3010,SKIB,2023-06-02T17:00:00Z,4.42,-75.12,27.0,21.0,150,9,,6.21,30.088583,,,,,,,,,,,SCT,3000,BKN,20000,,,,,VFR,,,,,,,,,,,,METAR,899.0
SKEJ 021700Z 21003KT 9999 SCT015 30/24 Q1010 RMK A2983,SKEJ,2023-06-02T17:00:00Z,7.02,-73.8,30.0,24.0,210,3,,6.21,29.822834,,,,,,,,,,,SCT,1500,,,,,,,VFR,,,,,,,,,,,,METAR,123.0
SKCL 021700Z VRB02KT 7000 SCT017 BKN150 27/20 Q1017 NOSIG RMK HZ A3004,SKCL,2023-06-02T17:00:00Z,3.53,-76.37,27.0,20.0,0,2,,4.35,30.029528,,,,,,TRUE,,,,,SCT,1700,BKN,15000,,,,,MVFR,,,,,,,,,,,,METAR,967.0
SKCG 021700Z 26008KT 220V290 9999 SCT017 30/26 Q1009 RMK A2982,SKCG,2023-06-02T17:00:00Z,10.43,-75.52,30.0,26.0,260,8,,6.21,29.793306,,,,,,,,,,,SCT,1700,,,,,,,VFR,,,,,,,,,,,,METAR,6.0
SKCC 021700Z 18015KT 9999 SCT022 SCT080 33/18 Q1012 RMK A2988,SKCC,2023-06-02T17:00:00Z,7.92,-72.52,33.0,18.0,180,15,,6.21,29.88189,,,,,,,,,,,SCT,2200,SCT,8000,,,,,VFR,,,,,,,,,,,,METAR,308.0
SKBQ 021700Z 19005KT 140V230 9999 FEW015 32/24 Q1010 NOSIG RMK A2983,SKBQ,2023-06-02T17:00:00Z,10.87,-74.77,32.0,24.0,190,5,,6.21,29.822834,,,,,,TRUE,,,,,FEW,1500,,,,,,,VFR,,,,,,,,,,,,METAR,23.0
SKBO 021700Z 16009KT 100V200 9999 SCT020 SCT080 18/07 Q1028 NOSIG RMK A3037,SKBO,2023-06-02T17:00:00Z,4.7,-74.15,18.0,7.0,160,9,,6.21,30.35433,,,,,,TRUE,,,,,SCT,2000,SCT,8000,,,,,VFR,,,,,,,,,,,,METAR,2547.0
SKBG 021700Z 17005KT 9999 FEW020 BKN270 25/19 Q1016 RMK A3000,SKBG,2023-06-02T17:00:00Z,7.13,-73.18,25.0,19.0,170,5,,6.21,30.0,,,,,,,,,,,FEW,2000,BKN,27000,,,,,VFR,,,,,,,,,,,,METAR,1187.0
SKAR 021700Z 00000KT 9999 BKN018 25/20 Q1018 RMK A3007,SKAR,2023-06-02T17:00:00Z,4.45,-75.77,25.0,20.0,0,0,,6.21,30.059055,,,,,,,,,,,BKN,1800,,,,,,,MVFR,,,,,,,,,,,,METAR,1214.0
SGES 021700Z 02008KT 9999 SCT030 25/16 Q1017,SGES,2023-06-02T17:00:00Z,-25.45,-54.85,25.0,16.0,20,8,,6.21,30.029528,,,,,,,,,,,SCT,3000,,,,,,,VFR,,,,,,,,,,,,METAR,256.0
SGEN 021700Z 09008KT 9999 SCT027 23/16Q1017,SGEN,2023-06-02T17:00:00Z,-27.23,-55.83,,,90,8,,6.21,30.029528,,,,,,,,,,,SCT,2700,,,,,,,VFR,,,,,,,,,,,,METAR,202.0
SGAS 021700Z 02015KT 9999 SCT033 28/18 Q1015,SGAS,2023-06-02T17:00:00Z,-25.25,-57.52,28.0,18.0,20,15,,6.21,29.970472,,,,,,,,,,,SCT,3300,,,,,,,VFR,,,,,,,,,,,,METAR,83.0
SETU 021700Z 06008KT 9999 BKN020 14/10 Q1034,SETU,2023-06-02T17:00:00Z,0.82,-77.7,14.0,10.0,60,8,,6.21,30.531496,,,,,,,,,,,BKN,2000,,,,,,,MVFR,,,,,,,,,,,,METAR,2936.0
SETN 021700Z 31005KT 9999 FEW020 SCT100 28/24 Q1011 RMK A2985,SETN,2023-06-02T17:00:00Z,0.98,-79.63,28.0,24.0,310,5,,6.21,29.852362,,,,,,,,,,,FEW,2000,SCT,10000,,,,,VFR,,,,,,,,,,,,METAR,10.0
SEST 021700Z METAR 13007KT 9999 4000E -RA SCT010 OVC040 27/24 Q1011 RMK A2986,SEST,2023-06-02T17:00:00Z,-0.9,-89.62,27.0,24.0,130,7,,6.21,29.852362,,,,,,,,,,-RA,SCT,1000,OVC,4000,,,,,VFR,,,,,,,,,,,,METAR,13.0
SESM 021700Z 34002KT 4000 VCSH FEW010 BKN020 OVC090 20/19 Q1021 RMK A3015,SESM,2023-06-02T17:00:00Z,-1.5,-78.07,20.0,19.0,340,2,,2.49,30.147638,,,,,,,,,,VCSH,FEW,1000,BKN,2000,OVC,9000,,,IFR,,,,,,,,,,,,METAR,1056.0
SESA 021700Z 21008KT 9999 FEW010 29/25 Q1011 RMK A2988,SESA,2023-06-02T17:00:00Z,-2.2,-80.98,29.0,25.0,210,8,,6.21,29.852362,,,,,,,,,,,FEW,1000,,,,,,,VFR,,,,,,,,,,,,METAR,6.0
SERO 021700Z 00000KT 9999 FEW013 BKN080 30/24 Q1011,SERO,2023-06-02T17:00:00Z,-3.43,-79.98,30.0,24.0,0,0,,6.21,29.852362,,,,,,,,,,,FEW,1300,BKN,8000,,,,,VFR,,,,,,,,,,,,METAR,6.0
SERB 021700Z 06006KT 9999 BKN040 16/13 Q1030,SERB,2023-06-02T17:00:00Z,-1.65,-78.67,16.0,13.0,60,6,,6.21,30.413385,,,,,,,,,,,BKN,4000,,,,,,,VFR,,,,,,,,,,,,METAR,2788.0
SEQM 021700Z 34007KT 9999 SCT030 BKN300 21/10 Q1026 NOSIG RMK A3032,SEQM,2023-06-02T17:00:00Z,-0.12,-78.35,21.0,10.0,340,7,,6.21,30.295275,,,,,,TRUE,,,,,SCT,3000,BKN,30000,,,,,VFR,,,,,,,,,,,,METAR,2386.0
SENL 021700Z 18005KT 9999 BKN020 SCT100 26/22 Q1017 RMK A3005,SENL,2023-06-02T17:00:00Z,0.1,-76.87,26.0,22.0,180,5,,6.21,30.029528,,,,,,,,,,,BKN,2000,SCT,10000,,,,,MVFR,,,,,,,,,,,,METAR,293.0
SEMT 021700Z 28005KT 9999 FEW020 SCT100 29/22 Q1011 RMK A2988,SEMT,2023-06-02T17:00:00Z,-0.95,-80.67,29.0,22.0,280,5,,6.21,29.852362,,,,,,,,,,,FEW,2000,SCT,10000,,,,,VFR,,,,,,,,,,,,METAR,13.0
SEMC 021700Z 12003KT 9999 SCT026 BKN100 23/18 Q1021 RMK A3015,SEMC,2023-06-02T17:00:00Z,-2.3,-78.12,23.0,18.0,120,3,,6.21,30.147638,,,,,,,,,,,SCT,2600,BKN,10000,,,,,VFR,,,,,,,,,,,,METAR,1036.0
SELT 021700Z 16006KT 9999 BKN030 BKN100 15/10 Q1031,SELT,2023-06-02T17:00:00Z,-0.92,-78.62,15.0,10.0,160,6,,6.21,30.442913,,,,,,,,,,,BKN,3000,BKN,10000,,,,,MVFR,,,,,,,,,,,,METAR,2779.0
SEJD 021700Z 27004KT 8000 3000W -RA SCT008 BKN026 OVC090 23/21 Q1018 RMK A3006,SEJD,2023-06-02T17:00:00Z,-1.07,-77.58,23.0,21.0,270,4,,4.97,30.059055,,,,,,,,,,-RA,SCT,800,BKN,2600,OVC,9000,,,MVFR,,,,,,,,,,,,METAR,376.0
SEGZ 021700Z 02002KT 9999 FEW016 SCT033 OVC100 24/22 Q1021,SEGZ,2023-06-02T17:00:00Z,-3.42,-78.57,24.0,22.0,20,2,,6.21,30.147638,,,,,,,,,,,FEW,1600,SCT,3300,OVC,10000,,,VFR,,,,,,,,,,,,METAR,805.0
SEGU 021700Z 08004KT 9999 FEW023 SCT200 31/24 Q1010 NOSIG RMK A2984,SEGU,2023-06-02T17:00:00Z,-2.15,-79.88,31.0,24.0,80,4,,6.21,29.822834,,,,,,TRUE,,,,,FEW,2300,SCT,20000,,,,,VFR,,,,,,,,,,,,METAR,6.0
SEGS 021700Z 12007KT 9999 SCT013 BKN030 29/22 Q1013 RMK A2993,SEGS,2023-06-02T17:00:00Z,-0.45,-90.27,29.0,22.0,120,7,,6.21,29.911417,,,,,,,,,,,SCT,1300,BKN,3000,,,,,MVFR,,,,,,,,,,,,METAR,51.0
SECU 021700Z 07005KT 9999 OVC030 17/10 Q1028,SECU,2023-06-02T17:00:00Z,-2.88,-78.98,17.0,10.0,70,5,,6.21,30.35433,,,,,,,,,,,OVC,3000,,,,,,,MVFR,,,,,,,,,,,,METAR,2516.0
SECO 021700Z 02005KT 9999 SCT016 OVC100 26/22 Q1017 RMK A3004,SECO,2023-06-02T17:00:00Z,-0.45,-76.98,26.0,22.0,20,5,,6.21,30.029528,,,,,,,,,,,SCT,1600,OVC,10000,,,,,VFR,,,,,,,,,,,,METAR,256.0
SECA 021700Z 08010KT 040V110 9999 FEW040 BKN100 28/13 Q1019 RMK A3010,SECA,2023-06-02T17:00:00Z,-4.0,-79.37,28.0,13.0,80,10,,6.21,30.088583,,,,,,,,,,,FEW,4000,BKN,10000,,,,,VFR,,,,,,,,,,,,METAR,1237.0
SCVM 021700Z 29006KT 210V020 9999 BKN040 19/12 Q1018,SCVM,2023-06-02T17:00:00Z,-32.95,-71.48,19.0,12.0,290,6,,6.21,30.059055,,,,,,,,,,,BKN,4000,,,,,,,VFR,,,,,,,,,,,,METAR,136.0
SCVD 021700Z 34012KT 310V020 9999 SCT021TCU BKN026 BKN200 15/10 Q1011,SCVD,2023-06-02T17:00:00Z,-39.65,-73.08,15.0,10.0,340,12,,6.21,29.852362,,,,,,,,,,,SCT,2100,BKN,2600,BKN,20000,,,MVFR,,,,,,,,,,,,METAR,19.0
SCTN 021700Z 35021G36KT 6000 -RA SCT025 OVC030 11/09 Q1004,SCTN,2023-06-02T17:00:00Z,-42.92,-72.7,11.0,9.0,350,21,36,3.73,29.64567,,,,,,,,,,-RA,SCT,2500,OVC,3000,,,,,MVFR,,,,,,,,,,,,METAR,8.0
SCTE 021700Z 01019KT 9999 SCT020 OVC040 12/09 Q1007 NOSIG,SCTE,2023-06-02T17:00:00Z,-41.43,-73.08,12.0,9.0,10,19,,6.21,29.734253,,,,,,TRUE,,,,,SCT,2000,OVC,4000,,,,,VFR,,,,,,,,,,,,METAR,85.0
SCTB 021700Z VRB03KT 9999 FEW130 17/07 Q1019,SCTB,2023-06-02T17:00:00Z,-33.45,-70.53,17.0,7.0,0,3,,6.21,30.088583,,,,,,,,,,,FEW,13000,,,,,,,VFR,,,,,,,,,,,,METAR,655.0
SCSN 021700Z 07008KT 3000 -RA OVC005 15/15 Q1018,SCSN,2023-06-02T17:00:00Z,-33.65,-71.62,15.0,15.0,70,8,,1.86,30.059055,,,,,,,,,,-RA,OVC,500,,,,,,,IFR,,,,,,,,,,,,METAR,73.0
SCSE 021700Z VRB02KT CAVOK 17/11 Q1017,SCSE,2023-06-02T17:00:00Z,-29.92,-71.2,17.0,11.0,0,2,,6.21,30.029528,,,,,,,,,,,CAVOK,,,,,,,,VFR,,,,,,,,,,,,METAR,141.0
SCRM 021700Z 03021KT CAVOK 03/01 Q1001 NOSIG,SCRM,2023-06-02T17:00:00Z,-62.18,-58.98,3.0,1.0,30,21,,6.21,29.557087,,,,,,TRUE,,,,,CAVOK,,,,,,,,VFR,,,,,,,,,,,,METAR,45.0
SCRG 021700Z 14007KT 2000 BR FEW010 BKN013 12/12 Q1018,SCRG,2023-06-02T17:00:00Z,-34.17,-70.77,12.0,12.0,140,7,,1.24,30.059055,,,,,,,,,,BR,FEW,1000,BKN,1300,,,,,IFR,,,,,,,,,,,,METAR,488.0
SCRD 021700Z 26005KT 9999 FEW020 BKN066 16/11 Q1018,SCRD,2023-06-02T17:00:00Z,-33.07,-71.55,16.0,11.0,260,5,,6.21,30.059055,,,,,,,,,,,FEW,2000,BKN,6600,,,,,VFR,,,,,,,,,,,,METAR,342.0
SCQP 021700Z 32011KT 9999 -SHRA SCT020 BKN035 14/10 Q1012,SCQP,2023-06-02T17:00:00Z,-38.92,-72.65,14.0,10.0,320,11,,6.21,29.88189,,,,,,,,,,-SHRA,SCT,2000,BKN,3500,,,,,VFR,,,,,,,,,,,,METAR,97.0
SCPQ 021700Z 34017G27KT 310V010 4000 +RA BKN010 OVC020 10/09 Q1002,SCPQ,2023-06-02T17:00:00Z,-42.33,-73.72,10.0,9.0,340,17,27,2.49,29.586615,,,,,,,,,,+RA,BKN,1000,OVC,2000,,,,,IFR,,,,,,,,,,,,METAR,166.0
SCPD 021700Z 15007KT 080V210 9999 SCT170 19/07 Q1018,SCPD,2023-06-02T17:00:00Z,,,19.0,7.0,150,7,,6.21,30.059055,,,,,,,,,,,SCT,17000,,,,,,,VFR,,,,,,,,,,,,METAR,
SCON 021700Z 01009KT 330V060 7000 -RA BKN020 OVC050 10/09 Q1003,SCON,2023-06-02T17:00:00Z,-43.13,-73.62,10.0,9.0,10,9,,4.35,29.616142,,,,,,,,,,-RA,BKN,2000,OVC,5000,,,,,MVFR,,,,,,,,,,,,METAR,11.0
SCNT 021700Z 32010KT 9999 FEW050 10/01 Q0985,SCNT,2023-06-02T17:00:00Z,-51.67,-72.53,10.0,1.0,320,10,,6.21,29.084646,,,,,,,,,,,FEW,5000,,,,,,,VFR,,,,,,,,,,,,METAR,68.0
SCMK 021700Z 35015KT 9999 SCT033 BKN200 10/08 Q1001,SCMK,2023-06-02T17:00:00Z,-43.9,-73.73,10.0,8.0,350,15,,6.21,29.557087,,,,,,,,,,,SCT,3300,BKN,20000,,,,,VFR,,,,,,,,,,,,METAR,22.0
SCJO 021700Z 01015KT 9999 SCT025 OVC200 14/09 Q1008,SCJO,2023-06-02T17:00:00Z,-40.6,-73.05,14.0,9.0,10,15,,6.21,29.763779,,,,,,,,,,,SCT,2500,OVC,20000,,,,,VFR,,,,,,,,,,,,METAR,61.0
SCIR 021700Z 31010G29KT 9999 SCT020 17/12 Q1016,SCIR,2023-06-02T17:00:00Z,-33.67,-78.93,17.0,12.0,310,10,29,6.21,30.0,,,,,,,,,,,SCT,2000,,,,,,,VFR,,,,,,,,,,,,METAR,132.0
SCIP 021700Z 11006KT 9999 BKN041 20/11 Q1023 NOSIG,SCIP,2023-06-02T17:00:00Z,-27.17,-109.43,20.0,11.0,110,6,,6.21,30.206694,,,,,,TRUE,,,,,BKN,4100,,,,,,,VFR,,,,,,,,,,,,METAR,48.0
SCIC 021700Z 03007KT 9999 OVC011 14/12 Q1017,SCIC,2023-06-02T17:00:00Z,-34.97,-71.22,14.0,12.0,30,7,,6.21,30.029528,,,,,,,,,,,OVC,1100,,,,,,,MVFR,,,,,,,,,,,,METAR,230.0
SCHR 021700Z VRB01KT 9999 BKN040 07/04 Q0993,SCHR,2023-06-02T17:00:00Z,-47.23,-72.58,7.0,4.0,0,1,,6.21,29.320866,,,,,,,,,,,BKN,4000,,,,,,,VFR,,,,,,,,,,,,METAR,203.0
SCGZ 021700Z 07018KT 9999 FEW036 BKN066 BKN083 09/05 Q0983,SCGZ,2023-06-02T17:00:00Z,-54.93,-67.63,9.0,5.0,70,18,,6.21,29.02559,,,,,,,,,,,FEW,3600,BKN,6600,BKN,8300,,,VFR,,,,,,,,,,,,METAR,21.0
SCGE 021700Z 36010KT 9999 BKN046 15/12 Q1015,SCGE,2023-06-02T17:00:00Z,-37.4,-72.42,15.0,12.0,360,10,,6.21,29.970472,,,,,,,,,,,BKN,4600,,,,,,,VFR,,,,,,,,,,,,METAR,122.0
SCFT 021700Z VRB02KT 5000 RA BKN010 OVC020 05/04 Q1005,SCFT,2023-06-02T17:00:00Z,-43.18,-71.85,5.0,4.0,0,2,,3.11,29.675198,,,,,,,,,,RA,BKN,1000,OVC,2000,,,,,MVFR,,,,,,,,,,,,METAR,345.0
SCFM 021700Z 07005KT 9999 FEW015 SCT030 BKN070 05/04 Q0985,SCFM,2023-06-02T17:00:00Z,-53.25,-70.32,5.0,4.0,70,5,,6.21,29.084646,,,,,,,,,,,FEW,1500,SCT,3000,BKN,7000,,,VFR,,,,,,,,,,,,METAR,28.0
SCFA 021700Z 20009KT CAVOK 18/11 Q1016 NOSIG,SCFA,2023-06-02T17:00:00Z,-23.43,-70.43,18.0,11.0,200,9,,6.21,30.0,,,,,,TRUE,,,,,CAVOK,,,,,,,,VFR,,,,,,,,,,,,METAR,113.0
SCEL 021700Z VRB02KT 9999 SCT060 18/06 Q1018 NOSIG,SCEL,2023-06-02T17:00:00Z,-33.38,-70.78,18.0,6.0,0,2,,6.21,30.059055,,,,,,TRUE,,,,,SCT,6000,,,,,,,VFR,,,,,,,,,,,,METAR,478.0
SCDA 021700Z 24010KT 9999 FEW032 21/13 Q1015,SCDA,2023-06-02T17:00:00Z,-20.53,-70.17,21.0,13.0,240,10,,6.21,29.970472,,,,,,,,,,,FEW,3200,,,,,,,VFR,,,,,,,,,,,,METAR,41.0
SCCY 021700Z 01006KT 290V040 9999 -RA SCT025 OVC033 06/03 Q1000,SCCY,2023-06-02T17:00:00Z,-45.58,-72.1,6.0,3.0,10,6,,6.21,29.52756,,,,,,,,,,-RA,SCT,2500,OVC,3300,,,,,VFR,,,,,,,,,,,,METAR,301.0
SCCI 021700Z 31004KT 9999 -RA SCT040 BKN070 06/04 Q0985 NOSIG,SCCI,2023-06-02T17:00:00Z,-53.0,-70.85,6.0,4.0,310,4,,6.21,29.084646,,,,,,TRUE,,,,-RA,SCT,4000,BKN,7000,,,,,VFR,,,,,,,,,,,,METAR,37.0
SCCH 021700Z 04007KT 9999 BKN020 16/12 Q1016,SCCH,2023-06-02T17:00:00Z,-36.57,-72.02,16.0,12.0,40,7,,6.21,30.0,,,,,,,,,,,BKN,2000,,,,,,,MVFR,,,,,,,,,,,,METAR,148.0
SCCF 021700Z 27012KT CAVOK 24/M18 Q1027,SCCF,2023-06-02T17:00:00Z,-22.5,-68.9,24.0,-18.0,270,12,,6.21,30.324802,,,,,,,,,,,CAVOK,,,,,,,,VFR,,,,,,,,,,,,METAR,2290.0
SCCC 021700Z 31018G31KT 9999 FEW040 10/M00 Q0998,SCCC,2023-06-02T17:00:00Z,-46.58,-71.7,10.0,0.0,310,18,31,6.21,29.468504,,,,,,,,,,,FEW,4000,,,,,,,VFR,,,,,,,,,,,,METAR,305.0
SCBA 021700Z 27013KT 9999 FEW030 05/03 Q0998,SCBA,2023-06-02T17:00:00Z,-45.92,-71.68,5.0,3.0,270,13,,6.21,29.468504,,,,,,,,,,,FEW,3000,,,,,,,VFR,,,,,,,,,,,,METAR,516.0
SCAT 021700Z 34007KT 290V040 9999 SCT023 17/10 Q1016,SCAT,2023-06-02T17:00:00Z,-27.27,-70.77,17.0,10.0,340,7,,6.21,30.0,,,,,,,,,,,SCT,2300,,,,,,,VFR,,,,,,,,,,,,METAR,209.0
SCAS 021700Z 09010KT 8000 -SHRA FEW015 BKN036 08/05 Q1001,SCAS,2023-06-02T17:00:00Z,-45.4,-72.67,8.0,5.0,90,10,,4.97,29.557087,,,,,,,,,,-SHRA,FEW,1500,BKN,3600,,,,,MVFR,,,,,,,,,,,,METAR,8.0
SCAR 021700Z 23008KT CAVOK 21/13 Q1015,SCAR,2023-06-02T17:00:00Z,-18.35,-70.33,21.0,13.0,230,8,,6.21,29.970472,,,,,,,,,,,CAVOK,,,,,,,,VFR,,,,,,,,,,,,METAR,57.0
SBYS 021700Z VRB03KT 9999 FEW020 23/15 Q1020,SBYS,2023-06-02T17:00:00Z,-21.97,-47.33,23.0,15.0,0,3,,6.21,30.11811,,,,,,,,,,,FEW,2000,,,,,,,VFR,,,,,,,,,,,,METAR,600.0
SBVT 021700Z 19013KT 9999 FEW030 27/16 Q1017,SBVT,2023-06-02T17:00:00Z,-20.25,-40.28,27.0,16.0,190,13,,6.21,30.029528,,,,,,,,,,,FEW,3000,,,,,,,VFR,,,,,,,,,,,,METAR,4.0
SBVH 021700Z 07007KT 9999 SCT020 28/22 Q1016,SBVH,2023-06-02T17:00:00Z,-12.68,-60.08,28.0,22.0,70,7,,6.21,30.0,,,,,,,,,,,SCT,2000,,,,,,,VFR,,,,,,,,,,,,METAR,615.0
SBUY 021700Z 15004KT 9999 SCT030 28/24 Q1012,SBUY,2023-06-02T17:00:00Z,-4.88,-65.35,28.0,24.0,150,4,,6.21,29.88189,,,,,,,,,,,SCT,3000,,,,,,,VFR,,,,,,,,,,,,METAR,44.0
SBUR 021700Z 18004KT CAVOK 25/12 Q1019,SBUR,2023-06-02T17:00:00Z,-19.77,-47.97,25.0,12.0,180,4,,6.21,30.088583,,,,,,,,,,,CAVOK,,,,,,,,VFR,,,,,,,,,,,,METAR,807.0
SBUL 021700Z 31004KT 9999 FEW045 25/11 Q1020,SBUL,2023-06-02T17:00:00Z,-18.87,-48.22,25.0,11.0,310,4,,6.21,30.11811,,,,,,,,,,,FEW,4500,,,,,,,VFR,,,,,,,,,,,,METAR,945.0
SBUF 021700Z 12003KT 9999 SCT021TCU SCT070 26/24 Q1013,SBUF,2023-06-02T17:00:00Z,-9.4,-38.25,26.0,24.0,120,3,,6.21,29.911417,,,,,,,,,,,SCT,2100,SCT,7000,,,,,VFR,,,,,,,,,,,,METAR,266.0
SBUA 021700Z 25004KT 210V310 9999 SCT018 BKN026 28/26 Q1013,SBUA,2023-06-02T17:00:00Z,-0.15,-66.98,28.0,26.0,250,4,,6.21,29.911417,,,,,,,,,,,SCT,1800,BKN,2600,,,,,MVFR,,,,,,,,,,,,METAR,73.0
SBTU 021700Z AUTO 31005KT 260V360 9999 FEW032 31/23 Q1011,SBTU,2023-06-02T17:00:00Z,-3.78,-49.72,31.0,23.0,310,5,,6.21,29.852362,,,TRUE,,,,,,,,FEW,3200,,,,,,,VFR,,,,,,,,,,,,METAR,250.0
SBTT 021700Z 29004KT 9999 BKN015 27/23 Q1015,SBTT,2023-06-02T17:00:00Z,-4.25,-69.93,27.0,23.0,290,4,,6.21,29.970472,,,,,,,,,,,BKN,1500,,,,,,,MVFR,,,,,,,,,,,,METAR,79.0
SBTF 021700Z 12003KT 9999 SCT017 29/24 Q1012,SBTF,2023-06-02T17:00:00Z,-3.37,-64.72,29.0,24.0,120,3,,6.21,29.88189,,,,,,,,,,,SCT,1700,,,,,,,VFR,,,,,,,,,,,,METAR,55.0
SBTE 021700Z 11005KT 9999 BKN030 33/23 Q1009,SBTE,2023-06-02T17:00:00Z,-5.05,-42.82,33.0,23.0,110,5,,6.21,29.793306,,,,,,,,,,,BKN,3000,,,,,,,MVFR,,,,,,,,,,,,METAR,60.0
SBTA 021700Z 08002KT 9999 SCT035 22/14 Q1020,SBTA,2023-06-02T17:00:00Z,-23.03,-45.5,22.0,14.0,80,2,,6.21,30.11811,,,,,,,,,,,SCT,3500,,,,,,,VFR,,,,,,,,,,,,METAR,578.0
SBSV 021700Z 16009KT 9999 VCSH SCT021 FEW025TCU SCT060 29/23 Q1014,SBSV,2023-06-02T17:00:00Z,-12.9,-38.32,29.0,23.0,160,9,,6.21,29.940945,,,,,,,,,,VCSH,SCT,2100,FEW,2500,SCT,6000,,,VFR,,,,,,,,,,,,METAR,9.0
SBST 021700Z /////KT 9999 FEW026 24/18 Q1019,SBST,2023-06-02T17:00:00Z,-23.92,-46.3,24.0,18.0,,,,6.21,30.088583,,,,,,,,,,,FEW,2600,,,,,,,VFR,,,,,,,,,,,,METAR,5.0
SBSR 021700Z 11006KT 060V220 9999 SCT035 25/14 Q1019,SBSR,2023-06-02T17:00:00Z,-20.8,-49.4,25.0,14.0,110,6,,6.21,30.088583,,,,,,,,,,,SCT,3500,,,,,,,VFR,,,,,,,,,,,,METAR,537.0
SBSP 021700Z 12006KT 060V170 9999 SCT033 21/13 Q1023,SBSP,2023-06-02T17:00:00Z,-23.62,-46.65,21.0,13.0,120,6,,6.21,30.206694,,,,,,,,,,,SCT,3300,,,,,,,VFR,,,,,,,,,,,,METAR,802.0
SBSN 021700Z 06008KT 9999 SCT020 31/26 Q1010,SBSN,2023-06-02T17:00:00Z,-2.42,-54.78,31.0,26.0,60,8,,6.21,29.822834,,,,,,,,,,,SCT,2000,,,,,,,VFR,,,,,,,,,,,,METAR,57.0
SBSM 021700Z 03006KT CAVOK 26/14 Q1016,SBSM,2023-06-02T17:00:00Z,-29.72,-53.7,26.0,14.0,30,6,,6.21,30.0,,,,,,,,,,,CAVOK,,,,,,,,VFR,,,,,,,,,,,,METAR,86.0
SBSL 021700Z 01009KT 9999 BKN030 32/27 Q1009,SBSL,2023-06-02T17:00:00Z,-2.58,-44.23,32.0,27.0,10,9,,6.21,29.793306,,,,,,,,,,,BKN,3000,,,,,,,MVFR,,,,,,,,,,,,METAR,53.0
SBSJ 021700Z 03005KT 340V090 9999 SCT023 21/14 Q1021,SBSJ,2023-06-02T17:00:00Z,-23.22,-45.87,21.0,14.0,30,5,,6.21,30.147638,,,,,,,,,,,SCT,2300,,,,,,,VFR,,,,,,,,,,,,METAR,640.0
SBSG 021700Z 11012KT 080V140 9999 BKN026 30/23 Q1011,SBSG,2023-06-02T17:00:00Z,-5.77,-35.37,30.0,23.0,110,12,,6.21,29.852362,,,,,,,,,,,BKN,2600,,,,,,,MVFR,,,,,,,,,,,,METAR,83.0
SBSC 021700Z 18006KT 9999 FEW030 25/18 Q1019,SBSC,2023-06-02T17:00:00Z,-22.92,-43.72,25.0,18.0,180,6,,6.21,30.088583,,,,,,,,,,,FEW,3000,,,,,,,VFR,,,,,,,,,,,,METAR,6.0
SBRP 021700Z 11006KT 070V150 9999 FEW035 26/15 Q1018,SBRP,2023-06-02T17:00:00Z,-21.13,-47.77,26.0,15.0,110,6,,6.21,30.059055,,,,,,,,,,,FEW,3500,,,,,,,VFR,,,,,,,,,,,,METAR,550.0
SBRJ 021700Z 17010KT 9999 SCT035 25/18 Q1019,SBRJ,2023-06-02T17:00:00Z,-22.9,-43.17,25.0,18.0,170,10,,6.21,30.088583,,,,,,,,,,,SCT,3500,,,,,,,VFR,,,,,,,,,,,,METAR,6.0
SBRF 021700Z 13008KT 080V170 9999 VCSH BKN025 FEW026TCU 29/22 Q1012,SBRF,2023-06-02T17:00:00Z,-8.13,-34.92,29.0,22.0,130,8,,6.21,29.88189,,,,,,,,,,VCSH,BKN,2500,FEW,2600,,,,,MVFR,,,,,,,,,,,,METAR,10.0
SBRB 021700Z 20004KT 9999 BKN024 29/23 Q1015,SBRB,2023-06-02T17:00:00Z,-9.87,-67.88,29.0,23.0,200,4,,6.21,29.970472,,,,,,,,,,,BKN,2400,,,,,,,MVFR,,,,,,,,,,,,METAR,190.0
SBPV 021700Z 22003KT 9999 BKN030 FEW035TCU 28/23 Q1013,SBPV,2023-06-02T17:00:00Z,-8.72,-63.9,28.0,23.0,220,3,,6.21,29.911417,,,,,,,,,,,BKN,3000,FEW,3500,,,,,MVFR,,,,,,,,,,,,METAR,89.0
SBPS 021700Z VRB09G19KT 9999 VCSH BKN017 FEW025TCU BKN070 25/21 Q1016,SBPS,2023-06-02T17:00:00Z,-16.43,-39.07,25.0,21.0,0,9,19,6.21,30.0,,,,,,,,,,VCSH,BKN,1700,FEW,2500,BKN,7000,,,MVFR,,,,,,,,,,,,METAR,44.0
SBPP 021700Z 01010KT 9999 FEW020 23/16 Q1018,SBPP,2023-06-02T17:00:00Z,-22.55,-55.7,23.0,16.0,10,10,,6.21,30.059055,,,,,,,,,,,FEW,2000,,,,,,,VFR,,,,,,,,,,,,METAR,650.0
SBPL 021700Z 17011KT 9999 FEW035 33/19 Q1013,SBPL,2023-06-02T17:00:00Z,-9.37,-40.57,33.0,19.0,170,11,,6.21,29.911417,,,,,,,,,,,FEW,3500,,,,,,,VFR,,,,,,,,,,,,METAR,386.0
SBPK 021700Z 05008KT 9999 SCT030 27/17 Q1017,SBPK,2023-06-02T17:00:00Z,-31.72,-52.33,27.0,17.0,50,8,,6.21,30.029528,,,,,,,,,,,SCT,3000,,,,,,,VFR,,,,,,,,,,,,METAR,17.0
SBPJ 021700Z 10007KT 9999 FEW030 34/18 Q1012,SBPJ,2023-06-02T17:00:00Z,-10.28,-48.37,34.0,18.0,100,7,,6.21,29.88189,,,,,,,,,,,FEW,3000,,,,,,,VFR,,,,,,,,,,,,METAR,226.0
SBPG 021700Z 09013KT CAVOK 21/09 Q1022,SBPG,2023-06-02T17:00:00Z,-25.18,-50.13,21.0,9.0,90,13,,6.21,30.177166,,,,,,,,,,,CAVOK,,,,,,,,VFR,,,,,,,,,,,,METAR,9.0
SBPF 021700Z 06006KT CAVOK 21/10 Q1020,SBPF,2023-06-02T17:00:00Z,-28.25,-52.33,21.0,10.0,60,6,,6.21,30.11811,,,,,,,,,,,CAVOK,,,,,,,,VFR,,,,,,,,,,,,METAR,720.0
SBPB 021700Z 07010KT 9999 FEW016 ///// Q1009,SBPB,2023-06-02T17:00:00Z,-2.88,-41.72,,,70,10,,6.21,29.793306,,,,,,,,,,,FEW,1600,,,,,,,VFR,,,,,,,,,,,,METAR,3.0
SBPA 021700Z VRB03KT CAVOK 26/15 Q1018,SBPA,2023-06-02T17:00:00Z,-30.0,-51.17,26.0,15.0,0,3,,6.21,30.059055,,,,,,,,,,,CAVOK,,,,,,,,VFR,,,,,,,,,,,,METAR,3.0
SBOI 021700Z 13007KT 080V160 9999 SCT040 32/23 Q1010,SBOI,2023-06-02T17:00:00Z,3.85,-51.78,32.0,23.0,130,7,,6.21,29.822834,,,,,,,,,,,SCT,4000,,,,,,,VFR,,,,,,,,,,,,METAR,15.0
SBNT 021700Z 12014KT 090V150 9999 SCT026 30/24 Q1010,SBNT,2023-06-02T17:00:00Z,-5.92,-35.25,30.0,24.0,120,14,,6.21,29.822834,,,,,,,,,,,SCT,2600,,,,,,,VFR,,,,,,,,,,,,METAR,51.0
SBNM 021700Z 02014KT CAVOK 25/14 Q1017,SBNM,2023-06-02T17:00:00Z,-28.27,-54.17,25.0,14.0,20,14,,6.21,30.029528,,,,,,,,,,,CAVOK,,,,,,,,VFR,,,,,,,,,,,,METAR,325.0
SBNF 021700Z 00000KT CAVOK 25/14 Q1020,SBNF,2023-06-02T17:00:00Z,-26.88,-48.65,25.0,14.0,0,0,,6.21,30.11811,,,,,,,,,,,CAVOK,,,,,,,,VFR,,,,,,,,,,,,METAR,5.0
SBMY 021700Z AUTO VRB04KT 9999 FEW024 BKN049 31/25 Q1013,SBMY,2023-06-02T17:00:00Z,-5.82,-61.28,31.0,25.0,0,4,,6.21,29.911417,,,TRUE,,,,,,,,FEW,2400,BKN,4900,,,,,VFR,,,,,,,,,,,,METAR,44.0
SBMT 021700Z 07008KT 050V110 9999 SCT025 20/14 Q1022,SBMT,2023-06-02T17:00:00Z,-23.52,-46.63,20.0,14.0,70,8,,6.21,30.177166,,,,,,,,,,,SCT,2500,,,,,,,VFR,,,,,,,,,,,,METAR,722.0
SBMS 021700Z 19006KT 9999 FEW030 36/23 Q1009,SBMS,2023-06-02T17:00:00Z,-5.2,-37.37,36.0,23.0,190,6,,6.21,29.793306,,,,,,,,,,,FEW,3000,,,,,,,VFR,,,,,,,,,,,,METAR,23.0
SBMQ 021700Z 06006KT 9999 BKN020 33/25 Q1009,SBMQ,2023-06-02T17:00:00Z,0.05,-51.07,33.0,25.0,60,6,,6.21,29.793306,,,,,,,,,,,BKN,2000,,,,,,,MVFR,,,,,,,,,,,,METAR,15.0
SBMO 021700Z 11010KT 9999 BKN025 29/23 Q1013,SBMO,2023-06-02T17:00:00Z,-9.52,-35.78,29.0,23.0,110,10,,6.21,29.911417,,,,,,,,,,,BKN,2500,,,,,,,MVFR,,,,,,,,,,,,METAR,116.0
SBMN 021700Z 12003KT 9999 FEW030 FEW035TCU 32/24 Q1011,SBMN,2023-06-02T17:00:00Z,-3.13,-59.98,32.0,24.0,120,3,,6.21,29.852362,,,,,,,,,,,FEW,3000,FEW,3500,,,,,VFR,,,,,,,,,,,,METAR,71.0
SBMK 021700Z 18008KT CAVOK 29/10 Q1017,SBMK,2023-06-02T17:00:00Z,-16.7,-43.82,29.0,10.0,180,8,,6.21,30.029528,,,,,,,,,,,CAVOK,,,,,,,,VFR,,,,,,,,,,,,METAR,665.0
SBMG 021700Z VRB02KT 9999 FEW020 25/13 Q1018,SBMG,2023-06-02T17:00:00Z,-23.48,-52.02,25.0,13.0,0,2,,6.21,30.059055,,,,,,,,,,,FEW,2000,,,,,,,VFR,,,,,,,,,,,,METAR,543.0
SBME 021700Z 30002KT 9999 BKN020 22/21 Q1019,SBME,2023-06-02T17:00:00Z,-22.35,-41.77,22.0,21.0,300,2,,6.21,30.088583,,,,,,,,,,,BKN,2000,,,,,,,MVFR,,,,,,,,,,,,METAR,2.0
SBMA 021700Z 17003KT 9999 SCT020 SCT025TCU 33/25 Q1010,SBMA,2023-06-02T17:00:00Z,-5.37,-49.13,33.0,25.0,170,3,,6.21,29.822834,,,,,,,,,,,SCT,2000,SCT,2500,,,,,VFR,,,,,,,,,,,,METAR,110.0
SBLS 021700Z 13006KT 030V160 9999 SCT030 24/11 Q1020,SBLS,2023-06-02T17:00:00Z,-19.67,-43.88,24.0,11.0,130,6,,6.21,30.11811,,,,,,,,,,,SCT,3000,,,,,,,VFR,,,,,,,,,,,,METAR,850.0
SBLO 021700Z 10009KT CAVOK 23/14 Q1020,SBLO,2023-06-02T17:00:00Z,-23.33,-51.12,23.0,14.0,100,9,,6.21,30.11811,,,,,,,,,,,CAVOK,,,,,,,,VFR,,,,,,,,,,,,METAR,563.0
SBLE 021700Z AUTO 11006KT 060V190 9999 FEW033 28/20 Q1016,SBLE,2023-06-02T17:00:00Z,-12.48,-41.28,28.0,20.0,110,6,,6.21,30.0,,,TRUE,,,,,,,,FEW,3300,,,,,,,VFR,,,,,,,,,,,,METAR,495.0
SBKP 021700Z 11007KT 010V140 9999 FEW025 23/13 Q1020,SBKP,2023-06-02T17:00:00Z,-23.0,-47.13,23.0,13.0,110,7,,6.21,30.11811,,,,,,,,,,,FEW,2500,,,,,,,VFR,,,,,,,,,,,,METAR,659.0
SBKG 021700Z 10008KT 9999 SCT030 29/20 Q1013,SBKG,2023-06-02T17:00:00Z,-7.27,-35.88,29.0,20.0,100,8,,6.21,29.911417,,,,,,,,,,,SCT,3000,,,,,,,VFR,,,,,,,,,,,,METAR,499.0
SBJV 021700Z 13006KT 9999 SCT025 25/17 Q1020,SBJV,2023-06-02T17:00:00Z,-26.22,-48.8,25.0,17.0,130,6,,6.21,30.11811,,,,,,,,,,,SCT,2500,,,,,,,VFR,,,,,,,,,,,,METAR,3.0
SBJU 021700Z 16010KT 9999 SCT022 31/21 Q1015,SBJU,2023-06-02T17:00:00Z,-7.22,-39.27,31.0,21.0,160,10,,6.21,29.970472,,,,,,,,,,,SCT,2200,,,,,,,VFR,,,,,,,,,,,,METAR,407.0
SBJR 021700Z 20004KT 9999 FEW020 29/20 Q1019,SBJR,2023-06-02T17:00:00Z,-22.98,-43.37,29.0,20.0,200,4,,6.21,30.088583,,,,,,,,,,,FEW,2000,,,,,,,VFR,,,,,,,,,,,,METAR,5.0
SBJP 021700Z 11015KT 090V150 9999 BKN020 30/22 Q1011,SBJP,2023-06-02T17:00:00Z,-7.15,-34.95,30.0,22.0,110,15,,6.21,29.852362,,,,,,,,,,,BKN,2000,,,,,,,MVFR,,,,,,,,,,,,METAR,66.0
SBJE 021700Z 06010KT 9999 BKN020 33/25 Q1009,SBJE,2023-06-02T17:00:00Z,-2.9,-40.35,33.0,25.0,60,10,,6.21,29.793306,,,,,,,,,,,BKN,2000,,,,,,,MVFR,,,,,,,,,,,,METAR,25.0
SBIZ 021700Z 13008KT 9999 SCT025 34/24 Q1010,SBIZ,2023-06-02T17:00:00Z,-5.52,-47.45,34.0,24.0,130,8,,6.21,29.822834,,,,,,,,,,,SCT,2500,,,,,,,VFR,,,,,,,,,,,,METAR,131.0
SBIP 021700Z AUTO 18005KT 120V230 CAVOK 27/11 Q1017,SBIP,2023-06-02T17:00:00Z,-19.47,-42.48,27.0,11.0,180,5,,6.21,30.029528,,,TRUE,,,,,,,,CAVOK,,,,,,,,VFR,,,,,,,,,,,,METAR,240.0
SBIL 021700Z 19015KT 9999 SCT025 FEW030TCU 29/24 Q1015,SBIL,2023-06-02T17:00:00Z,-14.8,-39.02,29.0,24.0,190,15,,6.21,29.970472,,,,,,,,,,,SCT,2500,FEW,3000,,,,,VFR,,,,,,,,,,,,METAR,9.0
SBIH 021700Z 15003KT 9999 VCSH SCT020 FEW025TCU 32/25 Q1010,SBIH,2023-06-02T17:00:00Z,-4.25,-56.0,32.0,25.0,150,3,,6.21,29.822834,,,,,,,,,,VCSH,SCT,2000,FEW,2500,,,,,VFR,,,,,,,,,,,,METAR,30.0
SBHT 021700Z 10005KT 9999 BKN030 32/23 Q1010,SBHT,2023-06-02T17:00:00Z,-3.25,-52.27,32.0,23.0,100,5,,6.21,29.822834,,,,,,,,,,,BKN,3000,,,,,,,MVFR,,,,,,,,,,,,METAR,105.0
SBGW 021700Z 03004KT 290V090 9999 SCT040 24/15 Q1021,SBGW,2023-06-02T17:00:00Z,-22.78,-45.2,24.0,15.0,30,4,,6.21,30.147638,,,,,,,,,,,SCT,4000,,,,,,,VFR,,,,,,,,,,,,METAR,539.0
SBGR 021700Z 06007KT 9999 BKN020 19/13 Q1023,SBGR,2023-06-02T17:00:00Z,-23.42,-46.47,19.0,13.0,60,7,,6.21,30.206694,,,,,,,,,,,BKN,2000,,,,,,,MVFR,,,,,,,,,,,,METAR,745.0
SBGO 021700Z 13005KT 9999 SCT040 28/14 Q1018,SBGO,2023-06-02T17:00:00Z,-16.62,-49.22,28.0,14.0,130,5,,6.21,30.059055,,,,,,,,,,,SCT,4000,,,,,,,VFR,,,,,,,,,,,,METAR,740.0
SBGM 021700Z 14005KT 060V210 9999 SCT030 SCT051 30/22 Q1015,SBGM,2023-06-02T17:00:00Z,-10.78,-65.28,30.0,22.0,140,5,,6.21,29.970472,,,,,,,,,,,SCT,3000,SCT,5100,,,,,VFR,,,,,,,,,,,,METAR,147.0
SBGL 021700Z 06011KT 9999 FEW028 SCT055 24/19 Q1019,SBGL,2023-06-02T17:00:00Z,-22.82,-43.25,24.0,19.0,60,11,,6.21,30.088583,,,,,,,,,,,FEW,2800,SCT,5500,,,,,VFR,,,,,,,,,,,,METAR,3.0
SBFZ 021700Z 10015KT 9999 SCT025 30/24 Q1010,SBFZ,2023-06-02T17:00:00Z,-3.77,-38.52,30.0,24.0,100,15,,6.21,29.822834,,,,,,,,,,,SCT,2500,,,,,,,VFR,,,,,,,,,,,,METAR,32.0
SBFS 021700Z 21014KT 9999 FEW015 25/20 Q1019,SBFS,2023-06-02T17:00:00Z,-22.02,-41.07,25.0,20.0,210,14,,6.21,30.088583,,,,,,,,,,,FEW,1500,,,,,,,VFR,,,,,,,,,,,,METAR,3.0
SBFN 021700Z AUTO 14010KT 100V160 9999 SCT023 29/24 Q1011,SBFN,2023-06-02T17:00:00Z,-3.85,-32.42,29.0,24.0,140,10,,6.21,29.852362,,,TRUE,,,,,,,,SCT,2300,,,,,,,VFR,,,,,,,,,,,,METAR,52.0
SBFL 021700Z 35007KT CAVOK 26/12 Q1019,SBFL,2023-06-02T17:00:00Z,-27.67,-48.53,26.0,12.0,350,7,,6.21,30.088583,,,,,,,,,,,CAVOK,,,,,,,,VFR,,,,,,,,,,,,METAR,5.0
SBFI 021700Z 02009KT 9999 SCT030 26/17 Q1017,SBFI,2023-06-02T17:00:00Z,-25.6,-54.48,26.0,17.0,20,9,,6.21,30.029528,,,,,,,,,,,SCT,3000,,,,,,,VFR,,,,,,,,,,,,METAR,233.0
SBES 021700Z 23008KT 190V260 9999 FEW010 SCT020 23/19 Q1019,SBES,2023-06-02T17:00:00Z,-22.82,-42.1,23.0,19.0,230,8,,6.21,30.088583,,,,,,,,,,,FEW,1000,SCT,2000,,,,,VFR,,,,,,,,,,,,METAR,16.0
SBEG 021700Z 12005KT 050V160 9999 BKN030 FEW033TCU 32/24 Q1011,SBEG,2023-06-02T17:00:00Z,-3.03,-60.03,32.0,24.0,120,5,,6.21,29.852362,,,,,,,,,,,BKN,3000,FEW,3300,,,,,MVFR,,,,,,,,,,,,METAR,69.0
SBDN 021700Z 13008KT CAVOK 25/15 Q1018,SBDN,2023-06-02T17:00:00Z,-22.18,-51.43,25.0,15.0,130,8,,6.21,30.059055,,,,,,,,,,,CAVOK,,,,,,,,VFR,,,,,,,,,,,,METAR,438.0
SBCZ 021700Z 17003KT 9999 BKN025 30/23 Q1015,SBCZ,2023-06-02T17:00:00Z,-7.58,-72.77,30.0,23.0,170,3,,6.21,29.970472,,,,,,,,,,,BKN,2500,,,,,,,MVFR,,,,,,,,,,,,METAR,193.0
SBCY 021700Z 01002KT CAVOK 32/18 Q1014,SBCY,2023-06-02T17:00:00Z,-15.65,-56.12,32.0,18.0,10,2,,6.21,29.940945,,,,,,,,,,,CAVOK,,,,,,,,VFR,,,,,,,,,,,,METAR,182.0
SBCX 021700Z 06006KT CAVOK 21/07 Q1021,SBCX,2023-06-02T17:00:00Z,-29.2,-51.18,21.0,7.0,60,6,,6.21,30.147638,,,,,,,,,,,CAVOK,,,,,,,,VFR,,,,,,,,,,,,METAR,752.0
SBCT 021700Z 07008KT 030V130 CAVOK 21/05 Q1022,SBCT,2023-06-02T17:00:00Z,-25.52,-49.17,21.0,5.0,70,8,,6.21,30.177166,,,,,,,,,,,CAVOK,,,,,,,,VFR,,,,,,,,,,,,METAR,914.0
SBCR 021700Z 05007KT CAVOK 28/19 Q1014,SBCR,2023-06-02T17:00:00Z,-19.0,-57.67,28.0,19.0,50,7,,6.21,29.940945,,,,,,,,,,,CAVOK,,,,,,,,VFR,,,,,,,,,,,,METAR,142.0
SBCP 021700Z 20010KT 9999 BKN020 25/17 Q1019,SBCP,2023-06-02T17:00:00Z,-21.7,-41.3,25.0,17.0,200,10,,6.21,30.088583,,,,,,,,,,,BKN,2000,,,,,,,MVFR,,,,,,,,,,,,METAR,15.0
SBCO 021700Z 02003KT 320V110 CAVOK 26/15 Q1017,SBCO,2023-06-02T17:00:00Z,-29.95,-51.15,26.0,15.0,20,3,,6.21,30.029528,,,,,,,,,,,CAVOK,,,,,,,,VFR,,,,,,,,,,,,METAR,8.0
SBCJ 021700Z 14007KT 9999 SCT023 30/20 Q1015,SBCJ,2023-06-02T17:00:00Z,-6.12,-50.0,30.0,20.0,140,7,,6.21,29.970472,,,,,,,,,,,SCT,2300,,,,,,,VFR,,,,,,,,,,,,METAR,634.0
SBCH 021700Z 03007KT CAVOK 23/13 Q1020,SBCH,2023-06-02T17:00:00Z,-27.13,-52.67,23.0,13.0,30,7,,6.21,30.11811,,,,,,,,,,,CAVOK,,,,,,,,VFR,,,,,,,,,,,,METAR,639.0
SBCG 021700Z VRB04KT 9999 SCT040 26/15 Q1018,SBCG,2023-06-02T17:00:00Z,-20.47,-54.67,26.0,15.0,0,4,,6.21,30.059055,,,,,,,,,,,SCT,4000,,,,,,,VFR,,,,,,,,,,,,METAR,556.0
SBCF 021700Z 08008KT 9999 SCT030 24/12 Q1020,SBCF,2023-06-02T17:00:00Z,-19.63,-43.97,24.0,12.0,80,8,,6.21,30.11811,,,,,,,,,,,SCT,3000,,,,,,,VFR,,,,,,,,,,,,METAR,825.0
SBCC 021700Z 10004KT 9999 BKN025 FEW030TCU 30/20 Q1014,SBCC,2023-06-02T17:00:00Z,-9.33,-54.95,30.0,20.0,100,4,,6.21,29.940945,,,,,,,,,,,BKN,2500,FEW,3000,,,,,MVFR,,,,,,,,,,,,METAR,540.0
SBCB 021700Z 25012KT 9999 FEW020 24/19 Q1019,SBCB,2023-06-02T17:00:00Z,-22.92,-42.08,24.0,19.0,250,12,,6.21,30.088583,,,,,,,,,,,FEW,2000,,,,,,,VFR,,,,,,,,,,,,METAR,3.0
SBCA 021700Z 05011KT CAVOK 21/13 Q1020,SBCA,2023-06-02T17:00:00Z,-25.0,-53.5,21.0,13.0,50,11,,6.21,30.11811,,,,,,,,,,,CAVOK,,,,,,,,VFR,,,,,,,,,,,,METAR,753.0
SBBW 021700Z 11004KT 9999 FEW020 31/17 Q1016,SBBW,2023-06-02T17:00:00Z,-15.87,-52.38,31.0,17.0,110,4,,6.21,30.0,,,,,,,,,,,FEW,2000,,,,,,,VFR,,,,,,,,,,,,METAR,354.0
SBBV 021700Z 09006KT 9999 SCT035 FEW040TCU 33/20 Q1011,SBBV,2023-06-02T17:00:00Z,2.85,-60.7,33.0,20.0,90,6,,6.21,29.852362,,,,,,,,,,,SCT,3500,FEW,4000,,,,,VFR,,,,,,,,,,,,METAR,80.0
SBBU 021700Z 10004KT 9999 FEW035 25/16 Q1020,SBBU,2023-06-02T17:00:00Z,-22.33,-49.07,25.0,16.0,100,4,,6.21,30.11811,,,,,,,,,,,FEW,3500,,,,,,,VFR,,,,,,,,,,,,METAR,616.0
SBBR 021700Z 11005KT 040V190 9999 SCT045 26/12 Q1019,SBBR,2023-06-02T17:00:00Z,-15.87,-47.92,26.0,12.0,110,5,,6.21,30.088583,,,,,,,,,,,SCT,4500,,,,,,,VFR,,,,,,,,,,,,METAR,1051.0
SBBQ 021700Z 15006KT 9999 BKN030 20/16 Q1024,SBBQ,2023-06-02T17:00:00Z,-21.25,-43.77,20.0,16.0,150,6,,6.21,30.236221,,,,,,,,,,,BKN,3000,,,,,,,MVFR,,,,,,,,,,,,METAR,1106.0
SBBI 021700Z 03005KT 320V090 CAVOK 21/07 Q1022,SBBI,2023-06-02T17:00:00Z,-25.4,-49.23,21.0,7.0,30,5,,6.21,30.177166,,,,,,,,,,,CAVOK,,,,,,,,VFR,,,,,,,,,,,,METAR,928.0
SBBH 021700Z 08004KT 9999 FEW035 24/14 Q1020,SBBH,2023-06-02T17:00:00Z,-19.85,-43.95,24.0,14.0,80,4,,6.21,30.11811,,,,,,,,,,,FEW,3500,,,,,,,VFR,,,,,,,,,,,,METAR,799.0
SBBG 021700Z 01009KT CAVOK 25/16 Q1016,SBBG,2023-06-02T17:00:00Z,-31.38,-54.12,25.0,16.0,10,9,,6.21,30.0,,,,,,,,,,,CAVOK,,,,,,,,VFR,,,,,,,,,,,,METAR,182.0
SBBE 021700Z 12007KT 9999 SCT040 33/24 Q1009,SBBE,2023-06-02T17:00:00Z,-1.37,-48.47,33.0,24.0,120,7,,6.21,29.793306,,,,,,,,,,,SCT,4000,,,,,,,VFR,,,,,,,,,,,,METAR,16.0
SBAX 021700Z 09003KT 9999 FEW025 24/11 Q1020,SBAX,2023-06-02T17:00:00Z,-19.57,-46.97,24.0,11.0,90,3,,6.21,30.11811,,,,,,,,,,,FEW,2500,,,,,,,VFR,,,,,,,,,,,,METAR,989.0
SBAT 021700Z 14007KT 9999 SCT025 32/23 Q1013,SBAT,2023-06-02T17:00:00Z,-9.87,-56.1,32.0,23.0,140,7,,6.21,29.911417,,,,,,,,,,,SCT,2500,,,,,,,VFR,,,,,,,,,,,,METAR,287.0
SBAR 021700Z 13009KT 9999 SCT013 BKN016 BKN073 26/24 Q1013,SBAR,2023-06-02T17:00:00Z,-10.98,-37.07,26.0,24.0,130,9,,6.21,29.911417,,,,,,,,,,,SCT,1300,BKN,1600,BKN,7300,,,MVFR,,,,,,,,,,,,METAR,4.0
SBAN 021700Z 14005KT 080V180 9999 SCT040 26/14 Q1020,SBAN,2023-06-02T17:00:00Z,-16.22,-48.97,26.0,14.0,140,5,,6.21,30.11811,,,,,,,,,,,SCT,4000,,,,,,,VFR,,,,,,,,,,,,METAR,1131.0
SBAF 021700Z 17008KT 9999 SCT030 25/18 Q1020,SBAF,2023-06-02T17:00:00Z,-22.87,-43.38,25.0,18.0,170,8,,6.21,30.11811,,,,,,,,,,,SCT,3000,,,,,,,VFR,,,,,,,,,,,,METAR,34.0
SAZS 021700Z 31021KT 9999 SCT035 SCT045 09/00 Q1008 RMQ PP///,SAZS,2023-06-02T17:00:00Z,-41.15,-71.17,9.0,0.0,310,21,,6.21,29.763779,,,,,,,,,,,SCT,3500,SCT,4500,,,,,VFR,,,,,,,,,,,,METAR,843.0
SAZN 021700Z 30006KT CAVOK 14/03 Q1011,SAZN,2023-06-02T17:00:00Z,-38.95,-68.15,14.0,3.0,300,6,,6.21,29.852362,,,,,,,,,,,CAVOK,,,,,,,,VFR,,,,,,,,,,,,METAR,273.0
SAZM 021700Z 32008KT CAVOK 18/16 Q1010 RMK PP///,SAZM,2023-06-02T17:00:00Z,-37.92,-57.57,18.0,16.0,320,8,,6.21,29.822834,,,,,,,,,,,CAVOK,,,,,,,,VFR,,,,,,,,,,,,METAR,17.0
SAWH 021700Z VRB02KT 9999 VCSH FEW030 SCT040 08/04 Q0983 RMK PP000,SAWH,2023-06-02T17:00:00Z,-54.85,-68.3,8.0,4.0,0,2,,6.21,29.02559,,,,,,,,,,VCSH,FEW,3000,SCT,4000,,,,,VFR,,,,,,,,,,,,METAR,22.0
SAWG 021700Z 26010KT 9999 FEW025 SCT090 BKN200 09/00 Q0986,SAWG,2023-06-02T17:00:00Z,-51.62,-69.27,9.0,0.0,260,10,,6.21,29.114174,,,,,,,,,,,FEW,2500,SCT,9000,BKN,20000,,,VFR,,,,,,,,,,,,METAR,15.0
SAWE 021700Z 03009KT 3000 BR FEW017 08/06 Q0984 RMK PP000,SAWE,2023-06-02T17:00:00Z,-53.78,-67.75,8.0,6.0,30,9,,1.86,29.055119,,,,,,,,,,BR,FEW,1700,,,,,,,IFR,,,,,,,,,,,,METAR,22.0
SAVC 021700Z 30024G36KT CAVOK 14/M02 Q0999 RMK PP000,SAVC,2023-06-02T17:00:00Z,-45.78,-67.47,14.0,-2.0,300,24,36,6.21,29.498032,,,,,,,,,,,CAVOK,,,,,,,,VFR,,,,,,,,,,,,METAR,58.0
SASJ 021700Z 07006KT 020V120 CAVOK 23/14 Q1010 RMK PP000,SASJ,2023-06-02T17:00:00Z,-24.38,-65.1,23.0,14.0,70,6,,6.21,29.822834,,,,,,,,,,,CAVOK,,,,,,,,VFR,,,,,,,,,,,,METAR,913.0
SASA 021700Z VRB03KT CAVOK 22/10 Q1012 RMK PP000,SASA,2023-06-02T17:00:00Z,-24.85,-65.48,22.0,10.0,0,3,,6.21,29.88189,,,,,,,,,,,CAVOK,,,,,,,,VFR,,,,,,,,,,,,METAR,1235.0
SARP 021700Z 36008KT 9999 FEW030 25/18 Q1015,SARP,2023-06-02T17:00:00Z,-27.38,-55.97,25.0,18.0,360,8,,6.21,29.970472,,,,,,,,,,,FEW,3000,,,,,,,VFR,,,,,,,,,,,,METAR,123.0
SARL 021700Z 05009KT 9999 BKN015 SCT100 26/18 Q1013,SARL,2023-06-02T17:00:00Z,-29.68,-57.15,26.0,18.0,50,9,,6.21,29.911417,,,,,,,,,,,BKN,1500,SCT,10000,,,,,MVFR,,,,,,,,,,,,METAR,70.0
SARI 021700Z 06006KT 030V090 9999 FEW028 23/17 Q1018 RMK PP000,SARI,2023-06-02T17:00:00Z,-25.73,-54.47,23.0,17.0,60,6,,6.21,30.059055,,,,,,,,,,,FEW,2800,,,,,,,VFR,,,,,,,,,,,,METAR,268.0
SARF 021700Z 03014KT 9999 FEW025 27/17 Q1012,SARF,2023-06-02T17:00:00Z,-26.22,-58.22,27.0,17.0,30,14,,6.21,29.88189,,,,,,,,,,,FEW,2500,,,,,,,VFR,,,,,,,,,,,,METAR,65.0
SARE 021700Z 01010KT 9999 SCT040 26/17 Q1011 RMK PP///,SARE,2023-06-02T17:00:00Z,-27.43,-59.05,26.0,17.0,10,10,,6.21,29.852362,,,,,,,,,,,SCT,4000,,,,,,,VFR,,,,,,,,,,,,METAR,52.0
SARC 021700Z 05014KT 9999 FEW025 26/17 Q1011,SARC,2023-06-02T17:00:00Z,-27.43,-58.77,26.0,17.0,50,14,,6.21,29.852362,,,,,,,,,,,FEW,2500,,,,,,,VFR,,,,,,,,,,,,METAR,60.0
SAOC 021700Z 36008KT CAVOK 20/14 Q1006,SAOC,2023-06-02T17:00:00Z,-33.08,-64.27,20.0,14.0,360,8,,6.21,29.704725,,,,,,,,,,,CAVOK,,,,,,,,VFR,,,,,,,,,,,,METAR,422.0
SANT 021700Z 23004KT 180V310 9000 NSC 22/15 Q1007 RMK PP000,SANT,2023-06-02T17:00:00Z,-26.85,-65.1,22.0,15.0,230,4,,5.59,29.734253,,,,,,,,,,,CLR,,,,,,,,VFR,,,,,,,,,,,,METAR,446.0
SAME 021700Z 15008KT 110V210 8000 NSC 20/09 Q1008,SAME,2023-06-02T17:00:00Z,-32.82,-68.78,20.0,9.0,150,8,,4.97,29.763779,,,,,,,,,,,CLR,,,,,,,,MVFR,,,,,,,,,,,,METAR,709.0
SAEZ 021700Z 36015KT 9999 FEW030 SCT200 24/16 Q1010 TEMPO 8000 -RA,SAEZ,2023-06-02T17:00:00Z,-34.82,-58.53,24.0,16.0,360,15,,6.21,29.822834,,,,,,,,,,,FEW,3000,SCT,20000,,,,,VFR,,,,,,,,,,,,METAR,16.0
SADF 021700Z 01013KT 340V040 9999 FEW028 24/17 Q1011 RMK PP000,SADF,2023-06-02T17:00:00Z,-34.45,-58.58,24.0,17.0,10,13,,6.21,29.852362,,,,,,,,,,,FEW,2800,,,,,,,VFR,,,,,,,,,,,,METAR,4.0
SACO 021700Z 02013KT 340V050 9999 FEW030 25/14 Q1006 NOSIG RMK PP000,SACO,2023-06-02T17:00:00Z,-31.32,-64.22,25.0,14.0,20,13,,6.21,29.704725,,,,,,TRUE,,,,,FEW,3000,,,,,,,VFR,,,,,,,,,,,,METAR,474.0
SABE 021700Z 36009KT CAVOK 21/17 Q1011 NOSIG RMK PP000,SABE,2023-06-02T17:00:00Z,-34.57,-58.42,21.0,17.0,360,9,,6.21,29.852362,,,,,,TRUE,,,,,CAVOK,,,,,,,,VFR,,,,,,,,,,,,METAR,3.0
SAAR 021700Z 02014KT CAVOK 23/17 Q1009 RMK PP000,SAAR,2023-06-02T17:00:00Z,-32.92,-60.77,23.0,17.0,20,14,,6.21,29.793306,,,,,,,,,,,CAVOK,,,,,,,,VFR,,,,,,,,,,,,METAR,24.0
RPVM 021700Z 24004KT 9999 FEW020 SCT300 26/23 Q1010 NOSIG RMK A2983,RPVM,2023-06-02T17:00:00Z,10.32,123.98,26.0,23.0,240,4,,6.21,29.822834,,,,,,TRUE,,,,,FEW,2000,SCT,30000,,,,,VFR,,,,,,,,,,,,METAR,9.0
RPMD 021700Z 05005KT 9999 FEW016 SCT090 25/25 Q1011 RMK A2985,RPMD,2023-06-02T17:00:00Z,7.12,125.65,25.0,25.0,50,5,,6.21,29.852362,,,,,,,,,,,FEW,1600,SCT,9000,,,,,VFR,,,,,,,,,,,,METAR,19.0
RPLL 021700Z 22003KT 180V250 9999 FEW018 26/23 Q1009 NOSIG RMK A2980,RPLL,2023-06-02T17:00:00Z,14.52,121.0,26.0,23.0,220,3,,6.21,29.793306,,,,,,TRUE,,,,,FEW,1800,,,,,,,VFR,,,,,,,,,,,,METAR,15.0
RPLC 021700Z 18002KT 8000 SCT020 BKN100 27/23 Q1009 NOSIG RMK A2980,RPLC,2023-06-02T17:00:00Z,15.18,120.55,27.0,23.0,180,2,,4.97,29.793306,,,,,,TRUE,,,,,SCT,2000,BKN,10000,,,,,MVFR,,,,,,,,,,,,METAR,138.0
RPLB 021700Z 12002KT 9999 FEW018 SCT080 BKN300 25/23 Q1009 NOSIG RMK A2980,RPLB,2023-06-02T17:00:00Z,14.8,120.27,25.0,23.0,120,2,,6.21,29.793306,,,,,,TRUE,,,,,FEW,1800,SCT,8000,BKN,30000,,,VFR,,,,,,,,,,,,METAR,19.0
ROYN 021700Z AUTO 10005KT 9999 FEW036 SCT050 27/25 Q1008,ROYN,2023-06-02T17:00:00Z,24.47,122.97,27.0,25.0,100,5,,6.21,29.763779,,,TRUE,,,,,,,,FEW,3600,SCT,5000,,,,,VFR,,,,,,,,,,,,METAR,21.0
RORY 021700Z AUTO 32017KT 9000 FEW015 24/22 Q1005,RORY,2023-06-02T17:00:00Z,27.05,128.4,24.0,22.0,320,17,,5.59,29.675198,,,TRUE,,,,,,,,FEW,1500,,,,,,,VFR,,,,,,,,,,,,METAR,13.0
RORT 021700Z AUTO 25003KT 8000 NCD 26/23 Q1008,RORT,2023-06-02T17:00:00Z,24.63,124.7,26.0,23.0,250,3,,4.97,29.763779,,,TRUE,,,,,,,,CLR,,,,,,,,MVFR,,,,,,,,,,,,METAR,9.0
RORS 021700Z AUTO 32007KT 9999 FEW018 25/22 Q1008,RORS,2023-06-02T17:00:00Z,24.82,125.15,25.0,22.0,320,7,,6.21,29.763779,,,TRUE,,,,,,,,FEW,1800,,,,,,,VFR,,,,,,,,,,,,METAR,13.0
RORK 021700Z AUTO 29017G27KT 9000 FEW011 24/23 Q1003,RORK,2023-06-02T17:00:00Z,25.93,131.32,24.0,23.0,290,17,27,5.59,29.616142,,,TRUE,,,,,,,,FEW,1100,,,,,,,VFR,,,,,,,,,,,,METAR,11.0
ROMY 021700Z AUTO 29004KT 8000 NCD 24/22 Q1008,ROMY,2023-06-02T17:00:00Z,24.78,125.27,24.0,22.0,290,4,,4.97,29.763779,,,TRUE,,,,,,,,CLR,,,,,,,,MVFR,,,,,,,,,,,,METAR,38.0
ROMD 021700Z AUTO 29017G28KT 9000 FEW007 24/23 Q1003,ROMD,2023-06-02T17:00:00Z,25.83,131.25,24.0,23.0,290,17,28,5.59,29.616142,,,TRUE,,,,,,,,FEW,700,,,,,,,VFR,,,,,,,,,,,,METAR,45.0
ROIG 021700Z AUTO 29002KT 7000 FEW030 24/24 Q1008,ROIG,2023-06-02T17:00:00Z,24.38,124.23,24.0,24.0,290,2,,4.35,29.763779,,,TRUE,,,,,,,,FEW,3000,,,,,,,MVFR,,,,,,,,,,,,METAR,37.0
RKTU 021700Z 30001KT 6000 NSC 16/16 Q1006,RKTU,2023-06-02T17:00:00Z,36.7,127.5,16.0,16.0,300,1,,3.73,29.704725,,,,,,,,,,,CLR,,,,,,,,MVFR,,,,,,,,,,,,METAR,46.0
RKTN 021700Z 04001KT 9999 SCT040 18/14 Q1005,RKTN,2023-06-02T17:00:00Z,35.88,128.65,18.0,14.0,40,1,,6.21,29.675198,,,,,,,,,,,SCT,4000,,,,,,,VFR,,,,,,,,,,,,METAR,25.0
RKSS 021700Z 27001KT 8000 NSC 16/15 Q1006 NOSIG,RKSS,2023-06-02T17:00:00Z,37.55,126.78,16.0,15.0,270,1,,4.97,29.704725,,,,,,TRUE,,,,,CLR,,,,,,,,MVFR,,,,,,,,,,,,METAR,18.0
RKSM 021700Z 20002KT 9999 SKC 17/16 A2971,RKSM,2023-06-02T17:00:00Z,37.43,127.12,17.0,16.0,200,2,,6.21,29.71063,,,,,,,,,,,SKC,,,,,,,,VFR,,,,,,,,,,,,METAR,18.0
RKPK 021700Z 03004KT CAVOK 19/13 Q1004,RKPK,2023-06-02T17:00:00Z,35.17,128.93,19.0,13.0,30,4,,6.21,29.64567,,,,,,,,,,,CAVOK,,,,,,,,VFR,,,,,,,,,,,,METAR,3.0
RKPC 021700Z 26004KT 220V290 9999 FEW010 17/16 Q1007 NOSIG,RKPC,2023-06-02T17:00:00Z,33.5,126.48,17.0,16.0,260,4,,6.21,29.734253,,,,,,TRUE,,,,,FEW,1000,,,,,,,VFR,,,,,,,,,,,,METAR,23.0
RKNY 021700Z AUTO 26005KT 9000 ///068/// 16/15 Q1005,RKNY,2023-06-02T17:00:00Z,38.07,128.67,16.0,15.0,260,5,,5.59,29.675198,,,TRUE,,,,,,,,,,,,,,,,,,,,,,,,,,,,METAR,76.0
RKJB 021700Z AUTO 36009KT 7000 NCD 18/15 Q1007,RKJB,2023-06-02T17:00:00Z,34.98,126.38,18.0,15.0,360,9,,4.35,29.734253,,,TRUE,,,,,,,,CLR,,,,,,,,MVFR,,,,,,,,,,,,METAR,16.0
RJSM 021700Z 12003KT 060V160 3000 BR FEW002 SCT030 15/14 Q0991,RJSM,2023-06-02T17:00:00Z,40.7,141.37,15.0,14.0,120,3,,1.86,29.26181,,,,,,,,,,BR,FEW,200,SCT,3000,,,,,IFR,,,,,,,,,,,,METAR,31.0
RJOO 021700Z AUTO VRB01KT 9999 NSC 20/19 Q1000,RJOO,2023-06-02T17:00:00Z,34.78,135.43,20.0,19.0,0,1,,6.21,29.52756,,,TRUE,,,,,,,,CLR,,,,,,,,VFR,,,,,,,,,,,,METAR,11.0
RJOK 021700Z AUTO 36008KT 9999 OVC050 23/16 Q0997,RJOK,2023-06-02T17:00:00Z,33.53,133.67,23.0,16.0,360,8,,6.21,29.438976,,,TRUE,,,,,,,,OVC,5000,,,,,,,VFR,,,,,,,,,,,,METAR,7.0
RJOH 021700Z VRB02KT 9999 FEW045 SCT060 BKN/// 18/18 Q1002,RJOH,2023-06-02T17:00:00Z,35.48,133.25,18.0,18.0,0,2,,6.21,29.586615,,,,,,,,,,,FEW,4500,SCT,6000,,,,,VFR,,,,,,,,,,,,METAR,6.0
RJNK 021700Z 20004KT 160V220 9999 SCT010 BKN030 18/17 Q1001,RJNK,2023-06-02T17:00:00Z,36.38,136.42,18.0,17.0,200,4,,6.21,29.557087,,,,,,,,,,,SCT,1000,BKN,3000,,,,,MVFR,,,,,,,,,,,,METAR,7.0
RJKI 021700Z AUTO 30017KT 9999 FEW016 SCT029 24/22 Q1002,RJKI,2023-06-02T17:00:00Z,28.32,129.92,24.0,22.0,300,17,,6.21,29.586615,,,TRUE,,,,,,,,FEW,1600,SCT,2900,,,,,VFR,,,,,,,,,,,,METAR,6.0
RJKA 021700Z AUTO 30015KT 260V360 9999 SCT017 BKN022 24/22 Q1001,RJKA,2023-06-02T17:00:00Z,28.42,129.72,24.0,22.0,300,15,,6.21,29.557087,,,TRUE,,,,,,,,SCT,1700,BKN,2200,,,,,MVFR,,,,,,,,,,,,METAR,7.0
RJFR 021700Z 33009KT 9999 FEW010 20/17 Q1002,RJFR,2023-06-02T17:00:00Z,33.83,131.03,20.0,17.0,330,9,,6.21,29.586615,,,,,,,,,,,FEW,1000,,,,,,,VFR,,,,,,,,,,,,METAR,9.0
RJFM 021700Z AUTO 31003KT 270V340 9999 NCD 21/20 Q0997,RJFM,2023-06-02T17:00:00Z,31.87,131.43,21.0,20.0,310,3,,6.21,29.438976,,,TRUE,,,,,,,,CLR,,,,,,,,VFR,,,,,,,,,,,,METAR,10.0
RJDB 021700Z AUTO 01013KT 9999 NCD 20/18 Q1003,RJDB,2023-06-02T17:00:00Z,33.75,129.78,20.0,18.0,10,13,,6.21,29.616142,,,TRUE,,,,,,,,CLR,,,,,,,,VFR,,,,,,,,,,,,METAR,13.0
RJAH 021700Z VRB02KT 1200 R21/0800V1200D +SHRA BR FEW003 BKN005 BKN012 BKN020CB 21/21 Q0996,RJAH,2023-06-02T17:00:00Z,36.17,140.42,21.0,21.0,0,2,,0.75,29.409449,,,,,,,,,,+SHRA BR,FEW,300,BKN,500,BKN,1200,BKN,2000,LIFR,,,,,,,,,,,,METAR,31.0
RCSS 021700Z 09007KT 9999 FEW015 27/25 Q1007 NOSIG RMK A2976,RCSS,2023-06-02T17:00:00Z,25.07,121.55,27.0,25.0,90,7,,6.21,29.734253,,,,,,TRUE,,,,,FEW,1500,,,,,,,VFR,,,,,,,,,,,,METAR,8.0
RCNN 021700Z 22003KT 9000 VCSH FEW010 BKN030 27/25 Q1008 RMK A2977 VCSH SE,RCNN,2023-06-02T17:00:00Z,22.93,120.2,27.0,25.0,220,3,,5.59,29.763779,,,,,,,,,,VCSH,FEW,1000,BKN,3000,,,,,MVFR,,,,,,,,,,,,METAR,15.0
RCMQ 021700Z 32003KT 8000 FEW008 SCT016 BKN030 26/26 Q1009 RMK A2980,RCMQ,2023-06-02T17:00:00Z,24.27,120.62,26.0,26.0,320,3,,4.97,29.793306,,,,,,,,,,,FEW,800,SCT,1600,BKN,3000,,,MVFR,,,,,,,,,,,,METAR,202.0
RCKH 021700Z 22005KT 9999 SCT010 SCT022 BKN040 29/26 Q1007 NOSIG RMK A2976,RCKH,2023-06-02T17:00:00Z,22.57,120.33,29.0,26.0,220,5,,6.21,29.734253,,,,,,TRUE,,,,,SCT,1000,SCT,2200,BKN,4000,,,VFR,,,,,,,,,,,,METAR,6.0
PLCH 021700Z 00000KT 9999 FEW018TCU SCT019 BKN040 26/25 Q1011,PLCH,2023-06-02T17:00:00Z,1.98,-157.35,26.0,25.0,0,0,,6.21,29.852362,,,,,,,,,,,FEW,1800,SCT,1900,BKN,4000,,,VFR,,,,,,,,,,,,METAR,5.0
PAFB 021700Z AUTO 22008KT 9SM BKN007 OVC013 04/03 A2983 RMK AO2 BKN V OVC SLP110 FZRANO $,PAFB,2023-06-02T17:00:00Z,64.83,-147.62,4.0,3.0,220,8,,9.0,29.828741,1011.0,,TRUE,TRUE,TRUE,,,TRUE,,,BKN,700,OVC,1300,,,,,IFR,,,,,,,,,,,,METAR,137.0
OTHH 021700Z 32014KT CAVOK 34/08 Q1005 NOSIG,OTHH,2023-06-02T17:00:00Z,25.27,51.6,34.0,8.0,320,14,,6.21,29.675198,,,,,,TRUE,,,,,CAVOK,,,,,,,,VFR,,,,,,,,,,,,METAR,3.0
OSDI 021700Z 04005KT 8000 SCT030 BKN100 29/06 Q1012,OSDI,2023-06-02T17:00:00Z,33.42,36.52,29.0,6.0,40,5,,4.97,29.88189,,,,,,,,,,,SCT,3000,BKN,10000,,,,,MVFR,,,,,,,,,,,,METAR,614.0
ORSU 021700Z 27007KT CAVOK 23/08 Q1019,ORSU,2023-06-02T17:00:00Z,35.57,45.32,23.0,8.0,270,7,,6.21,30.088583,,,,,,,,,,,CAVOK,,,,,,,,VFR,,,,,,,,,,,,METAR,760.0
ORMM 021700Z 27016KT CAVOK 35/10 Q1007 NOSIG,ORMM,2023-06-02T17:00:00Z,30.53,47.67,35.0,10.0,270,16,,6.21,29.734253,,,,,,TRUE,,,,,CAVOK,,,,,,,,VFR,,,,,,,,,,,,METAR,2.0
ORER 021700Z 26006KT CAVOK 27/06 Q1016,ORER,2023-06-02T17:00:00Z,36.23,43.97,27.0,6.0,260,6,,6.21,30.0,,,,,,,,,,,CAVOK,,,,,,,,VFR,,,,,,,,,,,,METAR,399.0
ORBI 021700Z 01006KT CAVOK 33/10 Q1011 NOSIG,ORBI,2023-06-02T17:00:00Z,33.27,44.23,33.0,10.0,10,6,,6.21,29.852362,,,,,,TRUE,,,,,CAVOK,,,,,,,,VFR,,,,,,,,,,,,METAR,37.0
OPST 021700Z 00000KT 4000 FU FEW040 27/18 Q1007 NOSIG 59%,OPST,2023-06-02T17:00:00Z,32.53,74.37,27.0,18.0,0,0,,2.49,29.734253,,,,,,TRUE,,,,FU,FEW,4000,,,,,,,IFR,,,,,,,,,,,,METAR,234.0
OPSK 021700Z 05010KT 4000 HZ SCT100 32/22 Q1002 NOSIG,OPSK,2023-06-02T17:00:00Z,27.72,68.8,32.0,22.0,50,10,,2.49,29.586615,,,,,,TRUE,,,,HZ,SCT,10000,,,,,,,IFR,,,,,,,,,,,,METAR,62.0
OPNH 021700Z 13508KT 6000 FEW035 SCT100 35/25 Q1004,OPNH,2023-06-02T17:00:00Z,26.22,68.38,35.0,25.0,135,8,,3.73,29.64567,,,,,,,,,,,FEW,3500,SCT,10000,,,,,MVFR,,,,,,,,,,,,METAR,30.0
OPMT 021700Z 00000KT 4000 FU NSC 30/19 Q1005 NOSIG,OPMT,2023-06-02T17:00:00Z,30.2,71.42,30.0,19.0,0,0,,2.49,29.675198,,,,,,TRUE,,,,FU,CLR,,,,,,,,IFR,,,,,,,,,,,,METAR,122.0
OMSJ 021700Z 20013KT CAVOK 31/21 Q1006 NOSIG,OMSJ,2023-06-02T17:00:00Z,25.32,55.52,31.0,21.0,200,13,,6.21,29.704725,,,,,,TRUE,,,,,CAVOK,,,,,,,,VFR,,,,,,,,,,,,METAR,33.0
OMRK 021700Z 22007KT CAVOK 32/19 Q1006 A2971,OMRK,2023-06-02T17:00:00Z,25.62,55.93,32.0,19.0,220,7,,6.21,29.704725,,,,,,,,,,,CAVOK,,,,,,,,VFR,,,,,,,,,,,,METAR,18.0
OMFJ 021700Z 27014KT 8000 NSC 35/14 Q1004 A2965,OMFJ,2023-06-02T17:00:00Z,25.1,56.32,35.0,14.0,270,14,,4.97,29.64567,,,,,,,,,,,CLR,,,,,,,,MVFR,,,,,,,,,,,,METAR,27.0
OMDW 021700Z 25010KT CAVOK 31/21 Q1006 NOSIG,OMDW,2023-06-02T17:00:00Z,24.9,55.17,31.0,21.0,250,10,,6.21,29.704725,,,,,,TRUE,,,,,CAVOK,,,,,,,,VFR,,,,,,,,,,,,METAR,34.0
OMDB 021700Z 24008KT 210V270 CAVOK 31/23 Q1005 NOSIG,OMDB,2023-06-02T17:00:00Z,25.25,55.37,31.0,23.0,240,8,,6.21,29.675198,,,,,,TRUE,,,,,CAVOK,,,,,,,,VFR,,,,,,,,,,,,METAR,5.0
OMAL 021700Z 27009KT CAVOK 31/14 Q1008 NOSIG,OMAL,2023-06-02T17:00:00Z,24.25,55.6,31.0,14.0,270,9,,6.21,29.763779,,,,,,TRUE,,,,,CAVOK,,,,,,,,VFR,,,,,,,,,,,,METAR,247.0
OMAD 021700Z 28007KT CAVOK 32/18 Q1006 NOSIG,OMAD,2023-06-02T17:00:00Z,24.42,54.47,32.0,18.0,280,7,,6.21,29.704725,,,,,,TRUE,,,,,CAVOK,,,,,,,,VFR,,,,,,,,,,,,METAR,9.0
OMAA 021700Z 27010KT CAVOK 32/18 Q1006 NOSIG,OMAA,2023-06-02T17:00:00Z,24.42,54.65,32.0,18.0,270,10,,6.21,29.704725,,,,,,TRUE,,,,,CAVOK,,,,,,,,VFR,,,,,,,,,,,,METAR,13.0
OLBA 021700Z 04003KT 350V110 6000 NSC 32/16 Q1008 NOSIG,OLBA,2023-06-02T17:00:00Z,33.82,35.48,32.0,16.0,40,3,,3.73,29.763779,,,,,,TRUE,,,,,CLR,,,,,,,,MVFR,,,,,,,,,,,,METAR,29.0
OKKK 021700Z 35016KT CAVOK 38/08 Q1007 NOSIG,OKKK,2023-06-02T17:00:00Z,,,38.0,8.0,350,16,,6.21,29.734253,,,,,,TRUE,,,,,CAVOK,,,,,,,,VFR,,,,,,,,,,,,METAR,
OJAQ 021700Z 18008KT 5000 DU FEW050 BKN100 37/09 Q1008 NOSIG,OJAQ,2023-06-02T17:00:00Z,29.62,35.02,37.0,9.0,180,8,,3.11,29.763779,,,,,,TRUE,,,,DU,FEW,5000,BKN,10000,,,,,MVFR,,,,,,,,,,,,METAR,45.0
OJAM 021700Z 25003KT 4000 HZ NSC 32/07 Q1014 NOSIG,OJAM,2023-06-02T17:00:00Z,31.98,35.98,32.0,7.0,250,3,,2.49,29.940945,,,,,,TRUE,,,,HZ,CLR,,,,,,,,IFR,,,,,,,,,,,,METAR,765.0
OJAI 021700Z 24007KT 4200 HZ NSC 33/07 Q1013 NOSIG,OJAI,2023-06-02T17:00:00Z,31.72,36.0,33.0,7.0,240,7,,2.61,29.911417,,,,,,TRUE,,,,HZ,CLR,,,,,,,,IFR,,,,,,,,,,,,METAR,723.0
OIZJ 021700Z 31006KT CAVOK 31/27 Q1002,OIZJ,2023-06-02T17:00:00Z,25.65,57.8,31.0,27.0,310,6,,6.21,29.586615,,,,,,,,,,,CAVOK,,,,,,,,VFR,,,,,,,,,,,,METAR,6.0
OIZI 021700Z 31004KT CAVOK 38/06 Q1007,OIZI,2023-06-02T17:00:00Z,27.23,60.72,38.0,6.0,310,4,,6.21,29.734253,,,,,,,,,,,CAVOK,,,,,,,,VFR,,,,,,,,,,,,METAR,622.0
OIZB 021700Z 33016KT CAVOK 35/02 Q1005,OIZB,2023-06-02T17:00:00Z,31.1,61.55,35.0,2.0,330,16,,6.21,29.675198,,,,,,,,,,,CAVOK,,,,,,,,VFR,,,,,,,,,,,,METAR,483.0
OITR 021700Z 26006KT 9999 FEW040 BKN170 20/06 Q1018 A3007,OITR,2023-06-02T17:00:00Z,37.67,45.07,20.0,6.0,260,6,,6.21,30.059055,,,,,,,,,,,FEW,4000,BKN,17000,,,,,VFR,,,,,,,,,,,,METAR,1312.0
OITP 021700Z 14010KT 9999 FEW035CB BKN040 24/19 Q1012,OITP,2023-06-02T17:00:00Z,39.6,47.88,24.0,19.0,140,10,,6.21,29.88189,,,,,,,,,,,FEW,3500,BKN,4000,,,,,VFR,,,,,,,,,,,,METAR,72.0
OITM 021700Z 23002KT 9999 FEW035 OVC180 21/05 Q1018,OITM,2023-06-02T17:00:00Z,37.35,46.15,21.0,5.0,230,2,,6.21,30.059055,,,,,,,,,,,FEW,3500,OVC,18000,,,,,VFR,,,,,,,,,,,,METAR,1340.0
OITL 021700Z 07008KT 9999 SCT035 FEW045CB BKN180 16/15 Q1018,OITL,2023-06-02T17:00:00Z,38.33,48.42,16.0,15.0,70,8,,6.21,30.059055,,,,,,,,,,,SCT,3500,FEW,4500,BKN,18000,,,VFR,,,,,,,,,,,,METAR,1314.0
OISY 021700Z 08006KT CAVOK 23/M04 Q1022,OISY,2023-06-02T17:00:00Z,30.7,51.55,23.0,-4.0,80,6,,6.21,30.177166,,,,,,,,,,,CAVOK,,,,,,,,VFR,,,,,,,,,,,,METAR,1800.0
OISL 021700Z 27004KT CAVOK 35/08 Q1007 A2975,OISL,2023-06-02T17:00:00Z,27.67,54.37,35.0,8.0,270,4,,6.21,29.734253,,,,,,,,,,,CAVOK,,,,,,,,VFR,,,,,,,,,,,,METAR,804.0
OISF 021700Z 00000KT 9999 FEW040 30/07 Q1012 A2991,OISF,2023-06-02T17:00:00Z,28.9,53.72,30.0,7.0,0,0,,6.21,29.88189,,,,,,,,,,,FEW,4000,,,,,,,VFR,,,,,,,,,,,,METAR,1305.0
OINR 021700Z 00000KT 9999 FEW020CB SCT026 OVC080 25/21 Q1013,OINR,2023-06-02T17:00:00Z,36.9,50.67,25.0,21.0,0,0,,6.21,29.911417,,,,,,,,,,,FEW,2000,SCT,2600,OVC,8000,,,VFR,,,,,,,,,,,,METAR,-19.0
OINN 021700Z 11002KT 9999 SCT025 25/19 Q1013,OINN,2023-06-02T17:00:00Z,36.67,51.47,25.0,19.0,110,2,,6.21,29.911417,,,,,,,,,,,SCT,2500,,,,,,,VFR,,,,,,,,,,,,METAR,-25.0
OING 021700Z 27006KT 9999 FEW030 SCT090 24/20 Q1015,OING,2023-06-02T17:00:00Z,36.9,54.4,24.0,20.0,270,6,,6.21,29.970472,,,,,,,,,,,FEW,3000,SCT,9000,,,,,VFR,,,,,,,,,,,,METAR,0.0
OINE 021700Z 25004KT 9999 FEW035 26/18 Q1012,OINE,2023-06-02T17:00:00Z,37.38,55.45,26.0,18.0,250,4,,6.21,29.88189,,,,,,,,,,,FEW,3500,,,,,,,VFR,,,,,,,,,,,,METAR,125.0
OIMQ 021700Z 00000KT 9999 FEW040 28/04 Q1013,OIMQ,2023-06-02T17:00:00Z,35.27,58.47,28.0,4.0,0,0,,6.21,29.911417,,,,,,,,,,,FEW,4000,,,,,,,VFR,,,,,,,,,,,,METAR,1101.0
OIMN 021700Z 29014KT 9999 FEW035 24/10 Q1017,OIMN,2023-06-02T17:00:00Z,37.48,57.3,24.0,10.0,290,14,,6.21,30.029528,,,,,,,,,,,FEW,3500,,,,,,,VFR,,,,,,,,,,,,METAR,1065.0
OIMJ 021700Z AUTO 36020KT //// // ////// 21/11 Q1016,OIMJ,2023-06-02T17:00:00Z,36.43,55.1,21.0,11.0,360,20,,,30.0,,,TRUE,,,,,,,,,,,,,,,,,,,,,,,,,,,,METAR,1285.0
OIMD 021700Z 00000KT CAVOK 30/01 Q1010,OIMD,2023-06-02T17:00:00Z,34.38,58.63,30.0,1.0,0,0,,6.21,29.822834,,,,,,,,,,,CAVOK,,,,,,,,VFR,,,,,,,,,,,,METAR,1097.0
OIMB 021700Z 12006KT CAVOK 26/M04 Q1015 A3000,OIMB,2023-06-02T17:00:00Z,32.9,59.28,26.0,-4.0,120,6,,6.21,29.970472,,,,,,,,,,,CAVOK,,,,,,,,VFR,,,,,,,,,,,,METAR,1512.0
OIKQ 021700Z 23010KT 5000 BR NSC 30/28 Q1003,OIKQ,2023-06-02T17:00:00Z,26.75,55.9,30.0,28.0,230,10,,3.11,29.616142,,,,,,,,,,BR,CLR,,,,,,,,MVFR,,,,,,,,,,,,METAR,9.0
OIKK 021700Z 00000KT CAVOK 24/01 Q1018 A3007,OIKK,2023-06-02T17:00:00Z,30.25,56.97,24.0,1.0,0,0,,6.21,30.059055,,,,,,,,,,,CAVOK,,,,,,,,VFR,,,,,,,,,,,,METAR,1749.0
OIIP 021700Z 30012KT CAVOK 26/01 Q1014 A2996,OIIP,2023-06-02T17:00:00Z,35.78,50.83,26.0,1.0,300,12,,6.21,29.940945,,,,,,,,,,,CAVOK,,,,,,,,VFR,,,,,,,,,,,,METAR,1270.0
OIIK 021700Z 02004KT CAVOK 24/08 Q1016,OIIK,2023-06-02T17:00:00Z,36.25,50.05,24.0,8.0,20,4,,6.21,30.0,,,,,,,,,,,CAVOK,,,,,,,,VFR,,,,,,,,,,,,METAR,1278.0
OIIE 021700Z 29008KT CAVOK 30/M00 Q1013,OIIE,2023-06-02T17:00:00Z,35.42,51.15,30.0,0.0,290,8,,6.21,29.911417,,,,,,,,,,,CAVOK,,,,,,,,VFR,,,,,,,,,,,,METAR,993.0
OIHH 021700Z 28008KT CAVOK 20/05 Q1021 A3016,OIHH,2023-06-02T17:00:00Z,34.87,48.55,20.0,5.0,280,8,,6.21,30.147638,,,,,,,,,,,CAVOK,,,,,,,,VFR,,,,,,,,,,,,METAR,1742.0
OIGG 021700Z 01004KT 9999 FEW080 SCT160 23/20 Q1013,OIGG,2023-06-02T17:00:00Z,37.33,49.6,23.0,20.0,10,4,,6.21,29.911417,,,,,,,,,,,FEW,8000,SCT,16000,,,,,VFR,,,,,,,,,,,,METAR,-16.0
OIFS 021700Z 33010KT CAVOK 23/M08 Q1022,OIFS,2023-06-02T17:00:00Z,32.28,50.85,23.0,-8.0,330,10,,6.21,30.177166,,,,,,,,,,,CAVOK,,,,,,,,VFR,,,,,,,,,,,,METAR,2042.0
OICS 021700Z VRB02KT 9999 SCT040 BKN200 22/04 Q1020 A3013,OICS,2023-06-02T17:00:00Z,35.25,47.02,22.0,4.0,0,2,,6.21,30.11811,,,,,,,,,,,SCT,4000,BKN,20000,,,,,VFR,,,,,,,,,,,,METAR,1369.0
OICK 021700Z 23004KT CAVOK 25/04 Q1016 A3002,OICK,2023-06-02T17:00:00Z,33.43,48.28,25.0,4.0,230,4,,6.21,30.0,,,,,,,,,,,CAVOK,,,,,,,,VFR,,,,,,,,,,,,METAR,1156.0
OICI 021700Z 32008KT CAVOK 24/05 Q1021 A3016,OICI,2023-06-02T17:00:00Z,33.58,46.4,24.0,5.0,320,8,,6.21,30.147638,,,,,,,,,,,CAVOK,,,,,,,,VFR,,,,,,,,,,,,METAR,1323.0
OIBP 021700Z 30004KT CAVOK 30/23 Q1001 A2958,OIBP,2023-06-02T17:00:00Z,27.38,52.73,30.0,23.0,300,4,,6.21,29.557087,,,,,,,,,,,CAVOK,,,,,,,,VFR,,,,,,,,,,,,METAR,13.0
OIBL 021700Z 23004KT 5000 HZ NSC 31/25 Q1003,OIBL,2023-06-02T17:00:00Z,26.53,54.82,31.0,25.0,230,4,,3.11,29.616142,,,,,,,,,,HZ,CLR,,,,,,,,MVFR,,,,,,,,,,,,METAR,25.0
OIBK 021700Z 31008KT 5000 HZ NSC 29/24 Q1002,OIBK,2023-06-02T17:00:00Z,26.53,53.98,29.0,24.0,310,8,,3.11,29.586615,,,,,,,,,,HZ,CLR,,,,,,,,MVFR,,,,,,,,,,,,METAR,27.0
OIBJ 021700Z AUTO 30005KT //// // ////// 33/08 Q1009,OIBJ,2023-06-02T17:00:00Z,27.82,52.35,33.0,8.0,300,5,,,29.793306,,,TRUE,,,,,,,,,,,,,,,,,,,,,,,,,,,,METAR,647.0
OIAM 021700Z 30010KT CAVOK 35/12 Q1004,OIAM,2023-06-02T17:00:00Z,30.55,49.15,35.0,12.0,300,10,,6.21,29.64567,,,,,,,,,,,CAVOK,,,,,,,,VFR,,,,,,,,,,,,METAR,7.0
OIAH 021700Z 31012KT CAVOK 33/01 Q1010,OIAH,2023-06-02T17:00:00Z,30.33,50.83,33.0,1.0,310,12,,6.21,29.822834,,,,,,,,,,,CAVOK,,,,,,,,VFR,,,,,,,,,,,,METAR,730.0
OIAG 021700Z 35010KT CAVOK 34/00 Q1004,OIAG,2023-06-02T17:00:00Z,30.73,49.68,34.0,0.0,350,10,,6.21,29.64567,,,,,,,,,,,CAVOK,,,,,,,,VFR,,,,,,,,,,,,METAR,17.0
OIAA 021700Z 31016KT CAVOK 37/06 Q1005,OIAA,2023-06-02T17:00:00Z,30.35,48.22,37.0,6.0,310,16,,6.21,29.675198,,,,,,,,,,,CAVOK,,,,,,,,VFR,,,,,,,,,,,,METAR,4.0
OEYN 021700Z 25004KT CAVOK 34/22 Q1006 NOSIG,OEYN,2023-06-02T17:00:00Z,24.13,38.07,34.0,22.0,250,4,,6.21,29.704725,,,,,,TRUE,,,,,CAVOK,,,,,,,,VFR,,,,,,,,,,,,METAR,20.0
OEWJ 021700Z 28003KT 9999 FEW040 34/13 Q1008 NOSIG,OEWJ,2023-06-02T17:00:00Z,26.18,36.47,34.0,13.0,280,3,,6.21,29.763779,,,,,,TRUE,,,,,FEW,4000,,,,,,,VFR,,,,,,,,,,,,METAR,8.0
OEWD 021700Z 05004KT 9000 NSC 33/12 Q1012,OEWD,2023-06-02T17:00:00Z,20.5,45.2,33.0,12.0,50,4,,5.59,29.88189,,,,,,,,,,,CLR,,,,,,,,VFR,,,,,,,,,,,,METAR,629.0
OETR 021700Z 11004KT CAVOK 32/07 Q1015 NOSIG,OETR,2023-06-02T17:00:00Z,31.7,38.73,32.0,7.0,110,4,,6.21,29.970472,,,,,,TRUE,,,,,CAVOK,,,,,,,,VFR,,,,,,,,,,,,METAR,854.0
OETF 021700Z 33012KT 9999 TS FEW025CB BKN030 22/14 Q1021 RERA NOSIG,OETF,2023-06-02T17:00:00Z,21.47,40.53,22.0,14.0,330,12,,6.21,30.147638,,,,,,TRUE,,,,TS,FEW,2500,BKN,3000,,,,,MVFR,,,,,,,,,,,,METAR,1460.0
OETB 021700Z 04003KT 9999 FEW035CB BKN040 37/01 Q1012 NOSIG,OETB,2023-06-02T17:00:00Z,28.37,36.62,37.0,1.0,40,3,,6.21,29.88189,,,,,,TRUE,,,,,FEW,3500,BKN,4000,,,,,VFR,,,,,,,,,,,,METAR,770.0
OESK 021700Z 07003KT 9999 SCT040 35/02 Q1016 NOSIG,OESK,2023-06-02T17:00:00Z,29.78,40.1,35.0,2.0,70,3,,6.21,30.0,,,,,,TRUE,,,,,SCT,4000,,,,,,,VFR,,,,,,,,,,,,METAR,671.0
OESH 021700Z 05008KT CAVOK 36/10 Q1012 NOSIG,OESH,2023-06-02T17:00:00Z,17.47,47.12,36.0,10.0,50,8,,6.21,29.88189,,,,,,TRUE,,,,,CAVOK,,,,,,,,VFR,,,,,,,,,,,,METAR,720.0
OERR 021700Z 00000KT CAVOK 35/00 Q1012 NOSIG,OERR,2023-06-02T17:00:00Z,30.9,41.13,35.0,0.0,0,0,,6.21,29.88189,,,,,,TRUE,,,,,CAVOK,,,,,,,,VFR,,,,,,,,,,,,METAR,554.0
OERK 021700Z 36010KT CAVOK 35/M03 Q1013 NOSIG,OERK,2023-06-02T17:00:00Z,24.95,46.72,35.0,-3.0,360,10,,6.21,29.911417,,,,,,TRUE,,,,,CAVOK,,,,,,,,VFR,,,,,,,,,,,,METAR,618.0
OERF 021700Z 03008KT CAVOK 35/M02 Q1013 NOSIG,OERF,2023-06-02T17:00:00Z,29.62,43.48,35.0,-2.0,30,8,,6.21,29.911417,,,,,,TRUE,,,,,CAVOK,,,,,,,,VFR,,,,,,,,,,,,METAR,441.0
OEPA 021700Z 02008KT CAVOK 35/06 Q1012 NOSIG,OEPA,2023-06-02T17:00:00Z,28.33,46.12,35.0,6.0,20,8,,6.21,29.88189,,,,,,TRUE,,,,,CAVOK,,,,,,,,VFR,,,,,,,,,,,,METAR,361.0
OENG 021700Z 06008KT 9999 SCT030 32/11 Q1017 NOSIG,OENG,2023-06-02T17:00:00Z,17.62,44.42,32.0,11.0,60,8,,6.21,30.029528,,,,,,TRUE,,,,,SCT,3000,,,,,,,VFR,,,,,,,,,,,,METAR,1210.0
OEMN 021700Z 02008KT 9999 SCT040 35/14 Q1010,OEMN,2023-06-02T17:00:00Z,,,35.0,14.0,20,8,,6.21,29.822834,,,,,,,,,,,SCT,4000,,,,,,,VFR,,,,,,,,,,,,METAR,
OEMA 021700Z 06008KT 8000 TS FEW030CB BKN035 33/12 Q1016 NOSIG,OEMA,2023-06-02T17:00:00Z,24.55,39.7,33.0,12.0,60,8,,4.97,30.0,,,,,,TRUE,,,,TS,FEW,3000,BKN,3500,,,,,MVFR,,,,,,,,,,,,METAR,639.0
OEKM 021700Z 02012KT 9999 TSRA BKN022 FEW025CB 19/11 Q1026 NOSIG,OEKM,2023-06-02T17:00:00Z,18.3,42.78,19.0,11.0,20,12,,6.21,30.295275,,,,,,TRUE,,,,TSRA,BKN,2200,FEW,2500,,,,,MVFR,,,,,,,,,,,,METAR,2038.0
OEKJ 021700Z 02014KT CAVOK 37/03 Q1014,OEKJ,2023-06-02T17:00:00Z,24.07,47.58,37.0,3.0,20,14,,6.21,29.940945,,,,,,,,,,,CAVOK,,,,,,,,VFR,,,,,,,,,,,,METAR,487.0
OEJN 021700Z 35007KT 9999 FEW040 37/14 Q1008 NOSIG,OEJN,2023-06-02T17:00:00Z,21.68,39.15,37.0,14.0,350,7,,6.21,29.763779,,,,,,TRUE,,,,,FEW,4000,,,,,,,VFR,,,,,,,,,,,,METAR,8.0
OEHL 021700Z 02004KT 9000 TS FEW035CB BKN040 33/11 Q1017 TEMPO 5000 TSRA,OEHL,2023-06-02T17:00:00Z,27.43,41.68,33.0,11.0,20,4,,5.59,30.029528,,,,,,,,,,TS,FEW,3500,BKN,4000,,,,,VFR,,,,,,,,,,,,METAR,1002.0
OEGT 021700Z 29006KT 8000 TS FEW025CB SCT040 33/12 Q1010 RERA NOSIG,OEGT,2023-06-02T17:00:00Z,31.42,37.27,33.0,12.0,290,6,,4.97,29.822834,,,,,,TRUE,,,,TS,FEW,2500,SCT,4000,,,,,MVFR,,,,,,,,,,,,METAR,512.0
OEGS 021700Z 04008KT CAVOK 34/04 Q1014,OEGS,2023-06-02T17:00:00Z,26.3,43.77,34.0,4.0,40,8,,6.21,29.940945,,,,,,,,,,,CAVOK,,,,,,,,VFR,,,,,,,,,,,,METAR,647.0
OEGN 021700Z 15018KT 9000 FEW030 SCT100 34/26 Q1009 NOSIG,OEGN,2023-06-02T17:00:00Z,16.9,42.58,34.0,26.0,150,18,,5.59,29.793306,,,,,,TRUE,,,,,FEW,3000,SCT,10000,,,,,VFR,,,,,,,,,,,,METAR,5.0
OEDR 021700Z 32010KT CAVOK 35/02 Q1005,OEDR,2023-06-02T17:00:00Z,26.27,50.17,35.0,2.0,320,10,,6.21,29.675198,,,,,,,,,,,CAVOK,,,,,,,,VFR,,,,,,,,,,,,METAR,17.0
OEDM 021700Z 06006KT 9999 FEW040 33/07 Q1015,OEDM,2023-06-02T17:00:00Z,24.45,44.12,33.0,7.0,60,6,,6.21,29.970472,,,,,,,,,,,FEW,4000,,,,,,,VFR,,,,,,,,,,,,METAR,922.0
OEDF 021700Z 35006KT CAVOK 32/05 Q1006 NOSIG,OEDF,2023-06-02T17:00:00Z,26.43,49.82,32.0,5.0,350,6,,6.21,29.704725,,,,,,TRUE,,,,,CAVOK,,,,,,,,VFR,,,,,,,,,,,,METAR,15.0
OEBH 021700Z 11007KT 9999 FEW030 SCT100 30/17 Q1016 NOSIG,OEBH,2023-06-02T17:00:00Z,19.98,42.62,30.0,17.0,110,7,,6.21,30.0,,,,,,TRUE,,,,,FEW,3000,SCT,10000,,,,,VFR,,,,,,,,,,,,METAR,1167.0
OEAO 021700Z 05018KT 9999 TS FEW035CB BKN040 34/07 Q1014 NOSIG,OEAO,2023-06-02T17:00:00Z,26.48,38.12,34.0,7.0,50,18,,6.21,29.940945,,,,,,TRUE,,,,TS,FEW,3500,BKN,4000,,,,,VFR,,,,,,,,,,,,METAR,615.0
OEAH 021700Z 01004KT CAVOK 35/03 Q1008 NOSIG,OEAH,2023-06-02T17:00:00Z,25.28,49.48,35.0,3.0,10,4,,6.21,29.763779,,,,,,TRUE,,,,,CAVOK,,,,,,,,VFR,,,,,,,,,,,,METAR,180.0
OEAB 021700Z 36010KT 9999 TS BKN020 FEW025CB 20/11 Q1027 RERA NOSIG,OEAB,2023-06-02T17:00:00Z,18.23,42.65,20.0,11.0,360,10,,6.21,30.324802,,,,,,TRUE,,,,TS,BKN,2000,FEW,2500,,,,,MVFR,,,,,,,,,,,,METAR,2092.0
NVVV 021700Z 12010KT 9999 -SHRA FEW012 SCT018 BKN040 OVC120 24/23 Q1013 INTER 1700/1900 5000 RA SCT008 BKN018 FEW020TCU OVC035,NVVV,2023-06-02T17:00:00Z,-17.68,168.3,24.0,23.0,120,10,,6.21,29.911417,,,,,,,,,,-SHRA,FEW,1200,SCT,1800,BKN,4000,OVC,12000,VFR,,,,,,,,,,,,METAR,23.0
NSFA 021700Z 19003KT 9999 FEW022 BKN160 24/23 Q1012,NSFA,2023-06-02T17:00:00Z,-13.83,-172.0,24.0,23.0,190,3,,6.21,29.88189,,,,,,,,,,,FEW,2200,BKN,16000,,,,,VFR,,,,,,,,,,,,METAR,6.0
NIUE 021700Z AUTO 02001KT NCD 22/21 Q1014,NIUE,2023-06-02T17:00:00Z,-19.07,-169.92,22.0,21.0,20,1,,,29.940945,,,TRUE,,,,,,,,CLR,,,,,,,,,,,,,,,,,,,,METAR,22.0
NGTA 021700Z 07006KT 9999 FEW019 29/25 Q1009,NGTA,2023-06-02T17:00:00Z,1.37,173.13,29.0,25.0,70,6,,6.21,29.793306,,,,,,,,,,,FEW,1900,,,,,,,VFR,,,,,,,,,,,,METAR,8.0
NGFU 021700Z 00000KT 9999 FEW018TCU SCT300 28/26 Q1010,NGFU,2023-06-02T17:00:00Z,-8.52,179.18,28.0,26.0,0,0,,6.21,29.822834,,,,,,,,,,,FEW,1800,SCT,30000,,,,,VFR,,,,,,,,,,,,METAR,2.0
NFTV 021700Z VRB02KT 9999 SCT017 BKN035 24/22 Q1014,NFTV,2023-06-02T17:00:00Z,-18.58,-173.97,24.0,22.0,0,2,,6.21,29.940945,,,,,,,,,,,SCT,1700,BKN,3500,,,,,VFR,,,,,,,,,,,,METAR,71.0
NFTL 021700Z 13007KT 9999 FEW016 SCT040 24/17 Q1015,NFTL,2023-06-02T17:00:00Z,-19.78,-174.33,24.0,17.0,130,7,,6.21,29.970472,,,,,,,,,,,FEW,1600,SCT,4000,,,,,VFR,,,,,,,,,,,,METAR,10.0
NFTF 021700Z 12006KT 9999 FEW018 21/17 Q1017,NFTF,2023-06-02T17:00:00Z,-21.23,-175.15,21.0,17.0,120,6,,6.21,30.029528,,,,,,,,,,,FEW,1800,,,,,,,VFR,,,,,,,,,,,,METAR,38.0
NFFN 021700Z 17004KT 9999 -SHRA FEW026TCU SCT047 BKN110 24/22 Q1014 NOSIG,NFFN,2023-06-02T17:00:00Z,-17.75,177.45,24.0,22.0,170,4,,6.21,29.940945,,,,,,TRUE,,,,-SHRA,FEW,2600,SCT,4700,BKN,11000,,,VFR,,,,,,,,,,,,METAR,14.0
NCSW 021700Z AUTO NIL,NCSW,2023-06-02T17:00:00Z,,,,,,,,,,,,TRUE,,,,,,,,,,,,,,,,,,,,,,,,,,,,METAR,
NCRK 021700Z AUTO NIL,NCRK,2023-06-02T17:00:00Z,-10.02,-161.1,,,,,,,,,,TRUE,,,,,,,,,,,,,,,,,,,,,,,,,,,,METAR,7.0
NCPY 021700Z AUTO 35001KT //// ////// 28/25 Q1011,NCPY,2023-06-02T17:00:00Z,-9.02,-158.03,28.0,25.0,350,1,,,29.852362,,,TRUE,,,,,,,,,,,,,,,,,,,,,,,,,,,,METAR,2.0
NCPL 021700Z AUTO NIL,NCPL,2023-06-02T17:00:00Z,1.98,-157.48,,,,,,,,,,TRUE,,,,,,,,,,,,,,,,,,,,,,,,,,,,METAR,3.0
NCPK 021700Z AUTO 13001KT //// ////// 26/25 Q1011,NCPK,2023-06-02T17:00:00Z,-10.9,-165.83,26.0,25.0,130,1,,,29.852362,,,TRUE,,,,,,,,,,,,,,,,,,,,,,,,,,,,METAR,5.0
NCNS 021700Z AUTO NIL,NCNS,2023-06-02T17:00:00Z,,,,,,,,,,,,TRUE,,,,,,,,,,,,,,,,,,,,,,,,,,,,METAR,
NCMK 021700Z AUTO 00000KT //// ////// 16/15 Q1012,NCMK,2023-06-02T17:00:00Z,-20.15,-157.33,16.0,15.0,0,0,,,29.88189,,,TRUE,,,,,,,,,,,,,,,,,,,,,,,,,,,,METAR,13.0
NCMH 021700Z AUTO NIL,NCMH,2023-06-02T17:00:00Z,-10.38,-161.0,,,,,,,,,,TRUE,,,,,,,,,,,,,,,,,,,,,,,,,,,,METAR,1.0
NCMG 021700Z AUTO 16001KT //// ////// ///// Q////,NCMG,2023-06-02T17:00:00Z,-21.88,-157.9,,,160,1,,,,,,TRUE,,,,,,,,,,,,,,,,,,,,,,,,,,,,METAR,14.0
NCAT 021700Z AUTO NIL,NCAT,2023-06-02T17:00:00Z,-19.97,-158.12,,,,,,,,,,TRUE,,,,,,,,,,,,,,,,,,,,,,,,,,,,METAR,11.0
NCAI 021700Z AUTO 28001KT //// ////// 18/17 Q1014,NCAI,2023-06-02T17:00:00Z,-18.82,-159.77,18.0,17.0,280,1,,,29.940945,,,TRUE,,,,,,,,,,,,,,,,,,,,,,,,,,,,METAR,7.0
MZBZ 021700Z 02006KT 9999 SCT026 33/27 A2976 Q1007 NOSIG RMK HZ,MZBZ,2023-06-02T17:00:00Z,17.53,-88.3,33.0,27.0,20,6,,6.21,29.734253,,,,,,TRUE,,,,,SCT,2600,,,,,,,VFR,,,,,,,,,,,,METAR,6.0
MYNN 021700Z 14005KT 100V180 9999 FEW014CB SCT017TCU OVC080 26/23 A2981,MYNN,2023-06-02T17:00:00Z,25.03,-77.47,26.0,23.0,140,5,,6.21,29.811024,,,,,,,,,,,FEW,1400,SCT,1700,OVC,8000,,,VFR,,,,,,,,,,,,METAR,5.0
MYGF 021700Z 12009KT 9000 +TSRA BKN015CB BKN120 23/22 A2979 RAB31,MYGF,2023-06-02T17:00:00Z,26.55,-78.7,23.0,22.0,120,9,,5.59,29.790354,,,,,,,,,,+TSRA RA,BKN,1500,BKN,12000,,,,,MVFR,,,,,,,,,,,,SPECI,2.0
MYAF 021700Z AUTO 21005KT 180V250 //// // //////TCU 26/21 A2980,MYAF,2023-06-02T17:00:00Z,24.68,-77.78,26.0,21.0,210,5,,,29.799213,,,TRUE,,,,,,,,,,,,,,,,,,,,,,,,,,,,METAR,2.0
MWCR 021700Z 19008KT 9999 SCT016 31/24 Q1008,MWCR,2023-06-02T17:00:00Z,19.3,-81.37,31.0,24.0,190,8,,6.21,29.763779,,,,,,,,,,,SCT,1600,,,,,,,VFR,,,,,,,,,,,,METAR,4.0
MWCB 021700Z 19008KT 9999 SCT016 SCT030 30/25 Q1009,MWCB,2023-06-02T17:00:00Z,19.68,-79.88,30.0,25.0,190,8,,6.21,29.793306,,,,,,,,,,,SCT,1600,SCT,3000,,,,,VFR,,,,,,,,,,,,METAR,7.0
MTPP 021700Z 11011KT 9000 RERA FEW010 SCT024 BKN060 28/25 Q1010 A2982,MTPP,2023-06-02T17:00:00Z,18.57,-72.3,28.0,25.0,110,11,,5.59,29.822834,,,,,,,,,,,FEW,1000,SCT,2400,BKN,6000,,,VFR,,,,,,,,,,,,METAR,36.0
MRPV 021700Z 34003KT 9999 FEW030 SCT180 25/19 A3003 NOSIG,MRPV,2023-06-02T17:00:00Z,9.95,-84.15,25.0,19.0,340,3,,6.21,30.029528,,,,,,TRUE,,,,,FEW,3000,SCT,18000,,,,,VFR,,,,,,,,,,,,METAR,998.0
MROC 021700Z 27003KT 200V330 9999 FEW025 BKN200 25/20 A2999 NOSIG,MROC,2023-06-02T17:00:00Z,10.0,-84.22,25.0,20.0,270,3,,6.21,29.991142,,,,,,TRUE,,,,,FEW,2500,BKN,20000,,,,,VFR,,,,,,,,,,,,METAR,900.0
MRLM 021700Z 05005KT CAVOK 31/25 A2980,MRLM,2023-06-02T17:00:00Z,9.97,-83.03,31.0,25.0,50,5,,6.21,29.799213,,,,,,,,,,,CAVOK,,,,,,,,VFR,,,,,,,,,,,,METAR,2.0
MRLB 021700Z 15006KT 9999 VCSH SCT015 SCT140 30/24 A2983,MRLB,2023-06-02T17:00:00Z,10.6,-85.55,30.0,24.0,150,6,,6.21,29.828741,,,,,,,,,,VCSH,SCT,1500,SCT,14000,,,,,VFR,,,,,,,,,,,,METAR,79.0
MPTO 021700Z 12011KT 9999 SCT017TCU SCT090 30/25 Q1011 NOSIG,MPTO,2023-06-02T17:00:00Z,9.05,-79.38,30.0,25.0,120,11,,6.21,29.852362,,,,,,TRUE,,,,,SCT,1700,SCT,9000,,,,,VFR,,,,,,,,,,,,METAR,7.0
MPSM 021700Z 16008KT 9999 FEW020 BKN080 30/25 Q1010,MPSM,2023-06-02T17:00:00Z,8.38,-80.13,30.0,25.0,160,8,,6.21,29.822834,,,,,,,,,,,FEW,2000,BKN,8000,,,,,VFR,,,,,,,,,,,,METAR,36.0
MPPA 021700Z 18008KT 9999 FEW008 SCT015 30/26 Q1010,MPPA,2023-06-02T17:00:00Z,8.92,-79.6,30.0,26.0,180,8,,6.21,29.822834,,,,,,,,,,,FEW,800,SCT,1500,,,,,VFR,,,,,,,,,,,,METAR,1.0
MPMG 021700Z 18011KT 9999 SCT017TCU 30/25 Q1010 TEMPO SCT016CB,MPMG,2023-06-02T17:00:00Z,8.98,-79.57,30.0,25.0,180,11,,6.21,29.822834,,,,,,,,,,,SCT,1700,,,,,,,VFR,,,,,,,,,,,,SPECI,6.0
MPDA 021700Z 21005KT 9999 SCT012 BKN090 29/25 Q1010,MPDA,2023-06-02T17:00:00Z,8.4,-82.43,29.0,25.0,210,5,,6.21,29.822834,,,,,,,,,,,SCT,1200,BKN,9000,,,,,VFR,,,,,,,,,,,,METAR,15.0
MPBO 021700Z 00000KT 9999 SCT020 SCT090 30/28 Q1009,MPBO,2023-06-02T17:00:00Z,9.35,-82.25,30.0,28.0,0,0,,6.21,29.793306,,,,,,,,,,,SCT,2000,SCT,9000,,,,,VFR,,,,,,,,,,,,METAR,2.0
MNRS 021700Z 21008KT 9999 FEW013CB BKN014 31/25 Q1009 CB/E/SE/S/SW,MNRS,2023-06-02T17:00:00Z,11.42,-85.82,31.0,25.0,210,8,,6.21,29.793306,,,,,,,,,,,FEW,1300,BKN,1400,,,,,MVFR,,,,,,,,,,,,METAR,53.0
MNPC 021700Z 00000KT 7000 FEW016 SCT300 32/27 Q1007 HZ,MNPC,2023-06-02T17:00:00Z,14.05,-83.38,32.0,27.0,0,0,,4.35,29.734253,,,,,,,,,,HZ,FEW,1600,SCT,30000,,,,,MVFR,,,,,,,,,,,,METAR,10.0
MNMG 021700Z 35006KT 9999 SCT023 SCT300 31/25 Q1009 A2980 NOSIG,MNMG,2023-06-02T17:00:00Z,12.15,-86.17,31.0,25.0,350,6,,6.21,29.793306,,,,,,TRUE,,,,,SCT,2300,SCT,30000,,,,,VFR,,,,,,,,,,,,METAR,59.0
MNJU 021700Z 23006KT 9999 SCT020 32/23 Q1009,MNJU,2023-06-02T17:00:00Z,12.08,-85.37,32.0,23.0,230,6,,6.21,29.793306,,,,,,,,,,,SCT,2000,,,,,,,VFR,,,,,,,,,,,,METAR,85.0
MNJG 021700Z 00000KT 9999 SCT016 27/19 Q1010,MNJG,2023-06-02T17:00:00Z,13.13,-86.02,27.0,19.0,0,0,,6.21,29.822834,,,,,,,,,,,SCT,1600,,,,,,,VFR,,,,,,,,,,,,METAR,981.0
MNCH 021700Z 35004KT 9999 FEW025 SCT300 32/24 Q1010,MNCH,2023-06-02T17:00:00Z,12.63,-87.13,32.0,24.0,350,4,,6.21,29.822834,,,,,,,,,,,FEW,2500,SCT,30000,,,,,VFR,,,,,,,,,,,,METAR,70.0
MNBL 021700Z 26006KT 9999 SCT019 SCT090 33/26 Q1008,MNBL,2023-06-02T17:00:00Z,12.0,-83.77,33.0,26.0,260,6,,6.21,29.763779,,,,,,,,,,,SCT,1900,SCT,9000,,,,,VFR,,,,,,,,,,,,METAR,10.0
MKJS 021700Z 19009KT 9999 -SHRA SCT022 SCT038 29/24 Q1008,MKJS,2023-06-02T17:00:00Z,18.5,-77.92,29.0,24.0,190,9,,6.21,29.763779,,,,,,,,,,-SHRA,SCT,2200,SCT,3800,,,,,VFR,,,,,,,,,,,,METAR,3.0
MKJP 021700Z 08005KT 9999 -RA VCSH FEW020 FEW022CB OVC100 26/24 Q1010,MKJP,2023-06-02T17:00:00Z,17.93,-76.78,26.0,24.0,80,5,,6.21,29.822834,,,,,,,,,,-RA VCSH,FEW,2000,FEW,2200,OVC,10000,,,VFR,,,,,,,,,,,,METAR,3.0
MHYR 021700Z 34004KT 9999 SCT025TCU 32/18,MHYR,2023-06-02T17:00:00Z,15.13,-87.13,32.0,18.0,340,4,,6.21,,,,,,,,,,,,SCT,2500,,,,,,,VFR,,,,,,,,,,,,METAR,682.0
MHTR 021700Z 00000KT 9999 FEW026TCU 32/25,MHTR,2023-06-02T17:00:00Z,15.93,-85.93,32.0,25.0,0,0,,6.21,,,,,,,,,,,,FEW,2600,,,,,,,VFR,,,,,,,,,,,,METAR,3.0
MHTG 021700Z 25005KT 9999 SCT036 29/17 Q1016 A3000 NOSIG,MHTG,2023-06-02T17:00:00Z,14.07,-87.22,29.0,17.0,250,5,,6.21,30.0,,,,,,TRUE,,,,,SCT,3600,,,,,,,VFR,,,,,,,,,,,,METAR,1001.0
MHTE 021700Z 36008KT 9999 FEW028 34/24 Q1006 A2971,MHTE,2023-06-02T17:00:00Z,15.78,-87.48,34.0,24.0,360,8,,6.21,29.704725,,,,,,,,,,,FEW,2800,,,,,,,VFR,,,,,,,,,,,,METAR,7.0
MHSR 021700Z 29008KT 9999 SCT030 30/14,MHSR,2023-06-02T17:00:00Z,14.78,-88.78,30.0,14.0,290,8,,6.21,,,,,,,,,,,,SCT,3000,,,,,,,VFR,,,,,,,,,,,,METAR,1087.0
MHRO 021700Z 18006KT 9999 SCT025 32/27 Q1008 A2977 NOSIG,MHRO,2023-06-02T17:00:00Z,16.32,-86.53,32.0,27.0,180,6,,6.21,29.763779,,,,,,TRUE,,,,,SCT,2500,,,,,,,VFR,,,,,,,,,,,,METAR,6.0
MHPR 021700Z 21010KT 9999 FEW048 30/19 Q1014 A2994 NOSIG,MHPR,2023-06-02T17:00:00Z,14.38,-87.62,30.0,19.0,210,10,,6.21,29.940945,,,,,,TRUE,,,,,FEW,4800,,,,,,,VFR,,,,,,,,,,,,METAR,628.0
MHPL 021700Z 04005KT 9999 SCT026TCU 32/25 Q1011,MHPL,2023-06-02T17:00:00Z,15.27,-83.78,32.0,25.0,40,5,,6.21,29.852362,,,,,,,,,,,SCT,2600,,,,,,,VFR,,,,,,,,,,,,METAR,13.0
MHNO 021700Z 18004KT 9999 FEW040 29/21,MHNO,2023-06-02T17:00:00Z,14.43,-89.18,29.0,21.0,180,4,,6.21,,,,,,,,,,,,FEW,4000,,,,,,,VFR,,,,,,,,,,,,METAR,790.0
MHLM 021700Z VRB06KT 9999 FEW028 36/21 Q1007 A2974 NOSIG,MHLM,2023-06-02T17:00:00Z,15.45,-87.93,36.0,21.0,0,6,,6.21,29.734253,,,,,,TRUE,,,,,FEW,2800,,,,,,,VFR,,,,,,,,,,,,METAR,32.0
MHLE 021700Z 20004KT 9999 SCT022TCU 24/15,MHLE,2023-06-02T17:00:00Z,14.28,-88.17,24.0,15.0,200,4,,6.21,,,,,,,,,,,,SCT,2200,,,,,,,VFR,,,,,,,,,,,,METAR,1688.0
MHLC 021700Z 02008KT 8000 FEW034 33/25 Q1008 A2977 NOSIG,MHLC,2023-06-02T17:00:00Z,15.75,-86.85,33.0,25.0,20,8,,4.97,29.763779,,,,,,TRUE,,,,,FEW,3400,,,,,,,MVFR,,,,,,,,,,,,METAR,13.0
MHGS 021700Z 00000KT 9999 FEW040 30/21,MHGS,2023-06-02T17:00:00Z,14.57,-88.6,30.0,21.0,0,0,,6.21,,,,,,,,,,,,FEW,4000,,,,,,,VFR,,,,,,,,,,,,METAR,913.0
MHCH 021700Z 20004KT 9999 BKN030TCU 32/25,MHCH,2023-06-02T17:00:00Z,13.32,-87.15,32.0,25.0,200,4,,6.21,,,,,,,,,,,,BKN,3000,,,,,,,MVFR,,,,,,,,,,,,METAR,58.0
MGZA 021700Z 30004KT 9999 FEW017 35/23 QFE 984.0,MGZA,2023-06-02T17:00:00Z,14.97,-89.53,35.0,23.0,300,4,,6.21,,,,,,,,,,,,FEW,1700,,,,,,,VFR,,,,,,,,,,,,METAR,195.0
MGTU 021700Z 27004KT 8000 SCT018 33/22 HZ,MGTU,2023-06-02T17:00:00Z,,,33.0,22.0,270,4,,4.97,,,,,,,,,,,HZ,SCT,1800,,,,,,,MVFR,,,,,,,,,,,,METAR,
MGRT 021700Z 27006KT 9999 SCT020 32/24 Q1012 A2988 VOL STA MARIA Y SANTIAGUITO EN ACTIVIDAD,MGRT,2023-06-02T17:00:00Z,14.53,-91.7,32.0,24.0,270,6,,6.21,29.88189,,,,,,,,,,SA,SCT,2000,,,,,,,VFR,,,,,,,,,,,,METAR,209.0
MGQZ 021700Z 18004KT 9999 FEW020 22/12 QFE 772.7,MGQZ,2023-06-02T17:00:00Z,14.87,-91.5,22.0,12.0,180,4,,6.21,,,,,,,,,,,,FEW,2000,,,,,,,VFR,,,,,,,,,,,,METAR,2378.0
MGPB 021700Z 36006KT 6000 FEW020 SCT200 34/26 Q1007 A2974 HZ,MGPB,2023-06-02T17:00:00Z,15.73,-88.58,34.0,26.0,360,6,,3.73,29.734253,,,,,,,,,,HZ,FEW,2000,SCT,20000,,,,,MVFR,,,,,,,,,,,,METAR,6.0
MGMT 021700Z 18004KT 9999 FEW015 32/27,MGMT,2023-06-02T17:00:00Z,,,32.0,27.0,180,4,,6.21,,,,,,,,,,,,FEW,1500,,,,,,,VFR,,,,,,,,,,,,METAR,
MGMM 021700Z 32006KT 8000 FEW026 32/25 Q1010 A2983 HZ,MGMM,2023-06-02T17:00:00Z,16.9,-89.87,32.0,25.0,320,6,,4.97,29.822834,,,,,,,,,,HZ,FEW,2600,,,,,,,MVFR,,,,,,,,,,,,METAR,105.0
MGHT 021700Z 00000KT 9999 FEW025 26/14,MGHT,2023-06-02T17:00:00Z,15.32,-91.5,26.0,14.0,0,0,,6.21,,,,,,,,,,,,FEW,2500,,,,,,,VFR,,,,,,,,,,,,METAR,1875.0
MGGT 021700Z 20010KT 9999 SCT020 26/18 Q1019 A3009,MGGT,2023-06-02T17:00:00Z,14.58,-90.53,26.0,18.0,200,10,,6.21,30.088583,,,,,,,,,,,SCT,2000,,,,,,,VFR,,,,,,,,,,,,METAR,1497.0
MGES 021700Z 00000KT 9000 BKN020 SCT200 29/20 QFE 907.9 HZ,MGES,2023-06-02T17:00:00Z,14.57,-89.32,29.0,20.0,0,0,,5.59,,,,,,,,,,,HZ,BKN,2000,SCT,20000,,,,,MVFR,,,,,,,,,,,,METAR,948.0
MGCB 021700Z 02006KT 9999 SCT018 30/20 QFE 869.2,MGCB,2023-06-02T17:00:00Z,15.48,-90.42,30.0,20.0,20,6,,6.21,,,,,,,,,,,,SCT,1800,,,,,,,VFR,,,,,,,,,,,,METAR,1323.0
MDST 021700Z 12013KT 080V160 9999 FEW024CB FEW026 BKN300 34/26 Q1009 CB/SE/S,MDST,2023-06-02T17:00:00Z,19.4,-70.6,34.0,26.0,120,13,,6.21,29.793306,,,,,,,,,,,FEW,2400,FEW,2600,BKN,30000,,,VFR,,,,,,,,,,,,METAR,175.0
MDSD 021700Z 18010KT 9999 FEW018CB SCT020 BKN300 31/26 Q1011 CB/NE,MDSD,2023-06-02T17:00:00Z,18.42,-69.67,31.0,26.0,180,10,,6.21,29.852362,,,,,,,,,,,FEW,1800,SCT,2000,BKN,30000,,,VFR,,,,,,,,,,,,METAR,18.0
MDPP 021700Z 12016KT 9999 FEW024 BKN300 35/26 Q1008,MDPP,2023-06-02T17:00:00Z,19.75,-70.57,35.0,26.0,120,16,,6.21,29.763779,,,,,,,,,,,FEW,2400,BKN,30000,,,,,VFR,,,,,,,,,,,,METAR,9.0
MDPC 021700Z 16014KT 9999 SCT021 BKN300 30/25 Q1012,MDPC,2023-06-02T17:00:00Z,18.57,-68.37,30.0,25.0,160,14,,6.21,29.88189,,,,,,,,,,,SCT,2100,BKN,30000,,,,,VFR,,,,,,,,,,,,METAR,10.0
MDLR 021700Z 19004KT 9999 FEW018CB SCT020 BKN300 31/27 Q1011 CB/NE,MDLR,2023-06-02T17:00:00Z,18.45,-68.92,31.0,27.0,190,4,,6.21,29.852362,,,,,,,,,,,FEW,1800,SCT,2000,BKN,30000,,,VFR,,,,,,,,,,,,METAR,66.0
MDJB 021700Z 15015KT 9999 FEW018 SCT018 31/26 Q1011 CB/NW,MDJB,2023-06-02T17:00:00Z,18.57,-69.98,31.0,26.0,150,15,,6.21,29.852362,,,,,,,,,,,FEW,1800,SCT,1800,,,,,VFR,,,,,,,,,,,,METAR,24.0
MDCY 021700Z 17008KT 9999 FEW020CB SCT022 SCT300 31/25 Q1009 CB/NE,MDCY,2023-06-02T17:00:00Z,19.27,-69.73,31.0,25.0,170,8,,6.21,29.793306,,,,,,,,,,,FEW,2000,SCT,2200,SCT,30000,,,VFR,,,,,,,,,,,,METAR,4.0
MDBH 021700Z 13010KT 8000 -RA FEW018CB SCT018 BKN080 29/27 Q1012 CB/NE/E/S/SW/N,MDBH,2023-06-02T17:00:00Z,18.25,-71.12,29.0,27.0,130,10,,4.97,29.88189,,,,,,,,,,-RA,FEW,1800,SCT,1800,BKN,8000,,,MVFR,,,,,,,,,,,,METAR,7.0
MDAB 021700Z 13006KT 8000 -RA FEW016CB BKN018 29/25 Q1011 CB/S,MDAB,2023-06-02T17:00:00Z,19.2,-69.43,29.0,25.0,130,6,,4.97,29.852362,,,,,,,,,,-RA,FEW,1600,BKN,1800,,,,,MVFR,,,,,,,,,,,,METAR,28.0
MBPV 021700Z 15005KT 9999 SCT 29/24 Q1009,MBPV,2023-06-02T17:00:00Z,21.77,-72.27,29.0,24.0,150,5,,6.21,29.793306,,,,,,,,,,,,,,,,,,,,,,,,,,,,,,,METAR,7.0
LTCD 021700Z 17005KT 140V210 9999 -TSRA FEW040CB SCT045 BKN090 21/08 Q1018 RETS NOSIG RMK RWY10 14009KT,LTCD,2023-06-02T17:00:00Z,39.72,39.52,21.0,8.0,170,5,,6.21,30.059055,,,,,,TRUE,,,,-TSRA,FEW,4000,SCT,4500,BKN,9000,,,VFR,,,,,,,,,,,,SPECI,1146.0
LPOV 021700Z 32008KT 300V360 9999 SCT022 SCT025 20/17 Q1012,LPOV,2023-06-02T17:00:00Z,40.92,-8.65,20.0,17.0,320,8,,6.21,29.88189,,,,,,,,,,,SCT,2200,SCT,2500,,,,,VFR,,,,,,,,,,,,METAR,16.0
LPMT 021700Z 29008KT 250V310 9999 FEW044 SCT048CB 26/15 Q1010,LPMT,2023-06-02T17:00:00Z,38.7,-9.05,26.0,15.0,290,8,,6.21,29.822834,,,,,,,,,,,FEW,4400,SCT,4800,,,,,VFR,,,,,,,,,,,,METAR,4.0
LPMR 021700Z 35009KT 320V020 9999 FEW020CB 20/14 Q1011,LPMR,2023-06-02T17:00:00Z,39.82,-8.88,20.0,14.0,350,9,,6.21,29.852362,,,,,,,,,,,FEW,2000,,,,,,,VFR,,,,,,,,,,,,METAR,50.0
LPLA 021700Z /////KT 9999 FEW016 SCT024 21/17 Q1013,LPLA,2023-06-02T17:00:00Z,38.77,-27.1,21.0,17.0,,,,6.21,29.911417,,,,,,,,,,,FEW,1600,SCT,2400,,,,,VFR,,,,,,,,,,,,METAR,60.0
LPBJ 021700Z 31007KT 9999 FEW045 19/13 Q1011,LPBJ,2023-06-02T17:00:00Z,38.08,-7.93,19.0,13.0,310,7,,6.21,29.852362,,,,,,,,,,,FEW,4500,,,,,,,VFR,,,,,,,,,,,,METAR,196.0
LOAV 021700Z 35010KT 9999 SCT050 25/13,LOAV,2023-06-02T17:00:00Z,47.97,16.27,25.0,13.0,350,10,,6.21,,,,,,,,,,,,SCT,5000,,,,,,,VFR,,,,,,,,,,,,METAR,232.0
LOAN 021700Z 36008KT 9999 SCT060,LOAN,2023-06-02T17:00:00Z,47.85,16.25,,,360,8,,6.21,,,,,,,,,,,,SCT,6000,,,,,,,VFR,,,,,,,,,,,,METAR,266.0
LKVO 021700Z 01006KT 300V080 CAVOK 18/06 Q1018,LKVO,2023-06-02T17:00:00Z,50.22,14.4,18.0,6.0,10,6,,6.21,30.059055,,,,,,,,,,,CAVOK,,,,,,,,VFR,,,,,,,,,,,,METAR,275.0
LKLN 021700Z AUTO 04005KT 330V110 9999 // FEW062 19/05 Q1017,LKLN,2023-06-02T17:00:00Z,49.68,13.27,19.0,5.0,40,5,,6.21,30.029528,,,TRUE,,,,,,,,FEW,6200,,,,,,,VFR,,,,,,,,,,,,METAR,353.0
LKKU 021700Z 02014KT CAVOK 20/08 Q1015,LKKU,2023-06-02T17:00:00Z,49.05,17.45,20.0,8.0,20,14,,6.21,29.970472,,,,,,,,,,,CAVOK,,,,,,,,VFR,,,,,,,,,,,,METAR,176.0
LKKB 021700Z 35008KT 330V040 CAVOK 18/07 Q1018 NOSIG,LKKB,2023-06-02T17:00:00Z,50.12,14.53,18.0,7.0,350,8,,6.21,30.059055,,,,,,TRUE,,,,,CAVOK,,,,,,,,VFR,,,,,,,,,,,,METAR,281.0
LDRI 021700Z 32004KT 270V010 9999 FEW036 24/15 Q1012,LDRI,2023-06-02T17:00:00Z,45.22,14.57,24.0,15.0,320,4,,6.21,29.88189,,,,,,,,,,,FEW,3600,,,,,,,VFR,,,,,,,,,,,,METAR,80.0
KW40 021700Z AUTO 03010KT 10SM BKN028 BKN034 BKN045 26/17 A2991 RMK AO2 T02550175,KW40,2023-06-02T17:00:00Z,35.22,-78.03,25.5,17.5,30,10,,10.0,29.911417,,,TRUE,TRUE,,,,,,,BKN,2800,BKN,3400,BKN,4500,,,MVFR,,,,,,,,,,,,METAR,50.0
KNEL 021700Z AUTO 07005KT CLR 32/13 A2988 RMK AO2 SLP115 T03170133 $,KNEL,2023-06-02T17:00:00Z,40.03,-74.33,31.7,13.3,70,5,,,29.878937,1011.5,,TRUE,TRUE,TRUE,,,,,,CLR,,,,,,,,,,,,,,,,,,,,METAR,26.0
KFMH 021700Z 233009KT 10SM CLR 26/14 A2990,KFMH,2023-06-02T17:00:00Z,41.65,-70.52,26.0,14.0,233,9,,10.0,29.899607,,,,,,,,,,,CLR,,,,,,,,VFR,,,,,,,,,,,,METAR,35.0
KEYW 021700Z 20005KT 10SM SCT25 BKN030 29/23 A2979,KEYW,2023-06-02T17:00:00Z,24.55,-81.75,29.0,23.0,200,5,,10.0,29.790354,,,,,,,,,,,BKN,3000,,,,,,,MVFR,,,,,,,,,,,,SPECI,1.0
KBOW 021700Z 02006KT 10SM BKN022 31/20 A2979,KBOW,2023-06-02T17:00:00Z,27.93,-81.77,31.0,20.0,20,6,,10.0,29.790354,,,,,,,,,,,BKN,2200,,,,,,,MVFR,,,,,,,,,,,,METAR,38.0
HUEN 021700Z 17007KT CAVOK 24/19 Q1016 NOSIG,HUEN,2023-06-02T17:00:00Z,0.03,32.45,24.0,19.0,170,7,,6.21,30.0,,,,,,TRUE,,,,,CAVOK,,,,,,,,VFR,,,,,,,,,,,,METAR,1147.0
HTZA 021700Z 00000KT 9999 SCT014 BKN070 25/22 Q1016,HTZA,2023-06-02T17:00:00Z,-6.22,39.22,25.0,22.0,0,0,,6.21,30.0,,,,,,,,,,,SCT,1400,BKN,7000,,,,,VFR,,,,,,,,,,,,METAR,19.0
HTTB 021700Z 12010KT 9999 FEW022 23/15 Q1018 NOSIG,HTTB,2023-06-02T17:00:00Z,-5.07,32.82,23.0,15.0,120,10,,6.21,30.059055,,,,,,TRUE,,,,,FEW,2200,,,,,,,VFR,,,,,,,,,,,,METAR,1185.0
HTSU 021700Z 00000KT 9999 FEW020 18/10 Q1025,HTSU,2023-06-02T17:00:00Z,-7.95,31.6,18.0,10.0,0,0,,6.21,30.265747,,,,,,,,,,,FEW,2000,,,,,,,VFR,,,,,,,,,,,,METAR,1820.0
HTSO 021700Z 00000KT 9999 FEW018 22/17 Q1022,HTSO,2023-06-02T17:00:00Z,-10.67,35.58,22.0,17.0,0,0,,6.21,30.177166,,,,,,,,,,,FEW,1800,,,,,,,VFR,,,,,,,,,,,,METAR,1058.0
HTMU 021700Z 00000KT 9999 FEW020 25/19 Q1017,HTMU,2023-06-02T17:00:00Z,-1.5,33.8,25.0,19.0,0,0,,6.21,30.029528,,,,,,,,,,,FEW,2000,,,,,,,VFR,,,,,,,,,,,,METAR,1154.0
HTMT 021700Z 16008KT 9999 FEW020 24/21 Q1017,HTMT,2023-06-02T17:00:00Z,-10.33,40.18,24.0,21.0,160,8,,6.21,30.029528,,,,,,,,,,,FEW,2000,,,,,,,VFR,,,,,,,,,,,,METAR,114.0
HTMG 021700Z 00000KT 9999 SCT020 BKN060 21/20 Q1018,HTMG,2023-06-02T17:00:00Z,-6.78,37.65,21.0,20.0,0,0,,6.21,30.059055,,,,,,,,,,,SCT,2000,BKN,6000,,,,,VFR,,,,,,,,,,,,METAR,512.0
HTKJ 021700Z 11006KT 9999 FEW026 22/18 Q1020 NOSIG,HTKJ,2023-06-02T17:00:00Z,-3.42,37.07,22.0,18.0,110,6,,6.21,30.11811,,,,,,TRUE,,,,,FEW,2600,,,,,,,VFR,,,,,,,,,,,,METAR,893.0
HTKA 021700Z 00000KT 9999 FEW021 25/20 Q1014 NOSIG,HTKA,2023-06-02T17:00:00Z,-4.88,29.67,25.0,20.0,0,0,,6.21,29.940945,,,,,,TRUE,,,,,FEW,2100,,,,,,,VFR,,,,,,,,,,,,METAR,819.0
HTIR 021700Z 00000KT 9999 FEW022 18/13 Q1022,HTIR,2023-06-02T17:00:00Z,-7.67,35.75,18.0,13.0,0,0,,6.21,30.177166,,,,,,,,,,,FEW,2200,,,,,,,VFR,,,,,,,,,,,,METAR,1432.0
HTIB 021700Z 16005KT 9999 FEW024 27/15 Q1015,HTIB,2023-06-02T17:00:00Z,,,27.0,15.0,160,5,,6.21,29.970472,,,,,,,,,,,FEW,2400,,,,,,,VFR,,,,,,,,,,,,METAR,
HTDO 021700Z 08015KT 9999 FEW025 SCT090 24/15 Q1020 NOSIG,HTDO,2023-06-02T17:00:00Z,-6.17,35.77,24.0,15.0,80,15,,6.21,30.11811,,,,,,TRUE,,,,,FEW,2500,SCT,9000,,,,,VFR,,,,,,,,,,,,METAR,1119.0
HTDA 021700Z 22005KT 9999 FEW012 BKN070 24/23 Q1017 NOSIG,HTDA,2023-06-02T17:00:00Z,-6.88,39.2,24.0,23.0,220,5,,6.21,30.029528,,,,,,TRUE,,,,,FEW,1200,BKN,7000,,,,,VFR,,,,,,,,,,,,METAR,53.0
HTBU 021700Z 00000KT 9999 FEW020 FEW022CB 24/18 Q1016,HTBU,2023-06-02T17:00:00Z,-1.32,31.82,24.0,18.0,0,0,,6.21,30.0,,,,,,,,,,,FEW,2000,FEW,2200,,,,,VFR,,,,,,,,,,,,METAR,1144.0
HTAR 021700Z 09008KT 9999 FEW028 19/16 Q1023 NOSIG,HTAR,2023-06-02T17:00:00Z,-3.37,36.63,19.0,16.0,90,8,,6.21,30.206694,,,,,,TRUE,,,,,FEW,2800,,,,,,,VFR,,,,,,,,,,,,METAR,1386.0
HKNW 021700Z 15009KT 9999 BKN022 21/13 Q1024,HKNW,2023-06-02T17:00:00Z,-1.32,36.82,21.0,13.0,150,9,,6.21,30.236221,,,,,,,,,,,BKN,2200,,,,,,,MVFR,,,,,,,,,,,,METAR,1666.0
HKNI 021700Z 21002KT 9999 BKN018 18/15,HKNI,2023-06-02T17:00:00Z,-0.33,36.92,18.0,15.0,210,2,,6.21,,,,,,,,,,,,BKN,1800,,,,,,,MVFR,,,,,,,,,,,,METAR,1769.0
HKML 021700Z 18006KT 9999 FEW020 26/23 Q1015,HKML,2023-06-02T17:00:00Z,-3.22,40.1,26.0,23.0,180,6,,6.21,29.970472,,,,,,,,,,,FEW,2000,,,,,,,VFR,,,,,,,,,,,,METAR,20.0
HKLO 021700Z 11005KT CAVOK 33/15 Q1007,HKLO,2023-06-02T17:00:00Z,3.12,35.62,33.0,15.0,110,5,,6.21,29.734253,,,,,,,,,,,CAVOK,,,,,,,,VFR,,,,,,,,,,,,METAR,503.0
HKKT 021700Z 00000KT 9999 FEW019CB 21/13,HKKT,2023-06-02T17:00:00Z,0.97,34.97,21.0,13.0,0,0,,6.21,,,,,,,,,,,,FEW,1900,,,,,,,VFR,,,,,,,,,,,,METAR,1829.0
HKJK 021700Z 09008KT 9999 BKN021 21/13 Q1022 NOSIG,HKJK,2023-06-02T17:00:00Z,-1.32,36.92,21.0,13.0,90,8,,6.21,30.177166,,,,,,TRUE,,,,,BKN,2100,,,,,,,MVFR,,,,,,,,,,,,METAR,1615.0
HKGO 021700Z AUTO 07006KT 15/11 Q1026 A30.31,HKGO,2023-06-02T17:00:00Z,,,15.0,11.0,70,6,,,30.295275,,,TRUE,,,,,,,,,,,,,,,,,,,,,,,,,,,,METAR,
HKGA 021700Z 15008KT CAVOK 31/20 Q1012,HKGA,2023-06-02T17:00:00Z,-0.47,39.65,31.0,20.0,150,8,,6.21,29.88189,,,,,,,,,,,CAVOK,,,,,,,,VFR,,,,,,,,,,,,METAR,147.0
HKEL 021700Z 21004KT 9999 FEW017 FEW018CB BKN080 16/13 Q1025,HKEL,2023-06-02T17:00:00Z,0.4,35.23,16.0,13.0,210,4,,6.21,30.265747,,,,,,,,,,,FEW,1700,FEW,1800,BKN,8000,,,VFR,,,,,,,,,,,,METAR,2116.0
HETR 021700Z 09011KT 6000 SCT025 36/15 Q1007,HETR,2023-06-02T17:00:00Z,28.22,33.65,36.0,15.0,90,11,,3.73,29.734253,,,,,,,,,,,SCT,2500,,,,,,,MVFR,,,,,,,,,,,,METAR,35.0
HESX 021700Z 30017KT CAVOK 35/06 Q1008 NOSIG,HESX,2023-06-02T17:00:00Z,,,35.0,6.0,300,17,,6.21,29.763779,,,,,,TRUE,,,,,CAVOK,,,,,,,,VFR,,,,,,,,,,,,METAR,
HESW 021700Z 34019KT CAVOK 29/15 Q1010,HESW,2023-06-02T17:00:00Z,29.35,25.5,29.0,15.0,340,19,,6.21,29.822834,,,,,,,,,,,CAVOK,,,,,,,,VFR,,,,,,,,,,,,METAR,101.0
HESN 021700Z 21005KT CAVOK 41/03 Q1006 NOSIG,HESN,2023-06-02T17:00:00Z,23.97,32.82,41.0,3.0,210,5,,6.21,29.704725,,,,,,TRUE,,,,,CAVOK,,,,,,,,VFR,,,,,,,,,,,,METAR,197.0
HESH 021700Z 17009KT CAVOK 37/09 Q1007 NOSIG,HESH,2023-06-02T17:00:00Z,27.97,34.38,37.0,9.0,170,9,,6.21,29.734253,,,,,,TRUE,,,,,CAVOK,,,,,,,,VFR,,,,,,,,,,,,METAR,50.0
HESG 021700Z 27006KT CAVOK 40/02 Q1006 NOSIG,HESG,2023-06-02T17:00:00Z,26.33,31.75,40.0,2.0,270,6,,6.21,29.704725,,,,,,TRUE,,,,,CAVOK,,,,,,,,VFR,,,,,,,,,,,,METAR,70.0
HEPS 021700Z 34011KT CAVOK 38/22 Q1007 NOSIG,HEPS,2023-06-02T17:00:00Z,31.28,32.25,38.0,22.0,340,11,,6.21,29.734253,,,,,,TRUE,,,,,CAVOK,,,,,,,,VFR,,,,,,,,,,,,METAR,2.0
HEMM 021700Z 29018KT 8000 BKN020 21/18 Q1011 NOSIG,HEMM,2023-06-02T17:00:00Z,31.32,27.22,21.0,18.0,290,18,,4.97,29.852362,,,,,,TRUE,,,,,BKN,2000,,,,,,,MVFR,,,,,,,,,,,,METAR,26.0
HEMA 021700Z 33005KT CAVOK 33/14 Q1008 NOSIG,HEMA,2023-06-02T17:00:00Z,25.55,34.58,33.0,14.0,330,5,,6.21,29.763779,,,,,,TRUE,,,,,CAVOK,,,,,,,,VFR,,,,,,,,,,,,METAR,77.0
HELX 021700Z 31002KT CAVOK 40/12 Q1007 NOSIG,HELX,2023-06-02T17:00:00Z,25.67,32.7,40.0,12.0,310,2,,6.21,29.734253,,,,,,TRUE,,,,,CAVOK,,,,,,,,VFR,,,,,,,,,,,,METAR,86.0
HEGN 021700Z 07005KT 4000 HZ NSC 33/14 Q1007 NOSIG,HEGN,2023-06-02T17:00:00Z,27.18,33.8,33.0,14.0,70,5,,2.49,29.734253,,,,,,TRUE,,,,HZ,CLR,,,,,,,,IFR,,,,,,,,,,,,METAR,14.0
HECP 021700Z 31014KT 4000 SA NSC 35/05 Q1009 NOSIG,HECP,2023-06-02T17:00:00Z,30.07,31.83,35.0,5.0,310,14,,2.49,29.793306,,,,,,TRUE,,,,SA,CLR,,,,,,,,IFR,,,,,,,,,,,,METAR,240.0
HEBL 021700Z 05004KT CAVOK 38/13 Q1006 NOSIG,HEBL,2023-06-02T17:00:00Z,22.38,31.62,38.0,13.0,50,4,,6.21,29.704725,,,,,,TRUE,,,,,CAVOK,,,,,,,,VFR,,,,,,,,,,,,METAR,184.0
HEBA 021700Z 28008KT 6000 NSC 30/15 Q1006 NOSIG,HEBA,2023-06-02T17:00:00Z,30.92,29.7,30.0,15.0,280,8,,3.73,29.704725,,,,,,TRUE,,,,,CLR,,,,,,,,MVFR,,,,,,,,,,,,METAR,41.0
HEAT 021700Z 31008KT CAVOK 41/06 Q1009 NOSIG,HEAT,2023-06-02T17:00:00Z,27.05,31.02,41.0,6.0,310,8,,6.21,29.793306,,,,,,TRUE,,,,,CAVOK,,,,,,,,VFR,,,,,,,,,,,,METAR,229.0
HDAM 021700Z 080/09KT 9999 SCT020 33/27 Q1009,HDAM,2023-06-02T17:00:00Z,11.55,43.17,33.0,27.0,,,,6.21,29.793306,,,,,,,,,,,SCT,2000,,,,,,,VFR,,,,,,,,,,,,METAR,6.0
GVSV 021700Z 04017KT 9999 FEW023 27/19 Q1013 NOSIG,GVSV,2023-06-02T17:00:00Z,16.83,-25.07,27.0,19.0,40,17,,6.21,29.911417,,,,,,TRUE,,,,,FEW,2300,,,,,,,VFR,,,,,,,,,,,,METAR,16.0
GVNP 021700Z 03018KT 9999 FEW015 27/19 Q1013 NOSIG,GVNP,2023-06-02T17:00:00Z,14.95,-23.48,27.0,19.0,30,18,,6.21,29.911417,,,,,,TRUE,,,,,FEW,1500,,,,,,,VFR,,,,,,,,,,,,METAR,70.0
GVBA 021700Z 04016KT 9999 SCT014 26/20 Q1013 NOSIG,GVBA,2023-06-02T17:00:00Z,16.13,-22.88,26.0,20.0,40,16,,6.21,29.911417,,,,,,TRUE,,,,,SCT,1400,,,,,,,VFR,,,,,,,,,,,,METAR,23.0
GVAC 021700Z 05015KT 9999 SCT014 26/19 Q1013 NOSIG,GVAC,2023-06-02T17:00:00Z,16.73,-22.93,26.0,19.0,50,15,,6.21,29.911417,,,,,,TRUE,,,,,SCT,1400,,,,,,,VFR,,,,,,,,,,,,METAR,54.0
GUCY 021700Z 21008KT 9999 BKN015 BKN110 29/25 Q1010 NOSIG,GUCY,2023-06-02T17:00:00Z,9.57,-13.62,29.0,25.0,210,8,,6.21,29.822834,,,,,,TRUE,,,,,BKN,1500,BKN,11000,,,,,MVFR,,,,,,,,,,,,METAR,10.0
GQPP 021700Z 35019KT 8000 NSC 23/18 Q1012 NOSIG,GQPP,2023-06-02T17:00:00Z,20.92,-17.02,23.0,18.0,350,19,,4.97,29.88189,,,,,,TRUE,,,,,CLR,,,,,,,,MVFR,,,,,,,,,,,,METAR,5.0
GOTT 021700Z 22006KT 9999 FEW013 BKN230 38/17 Q1008,GOTT,2023-06-02T17:00:00Z,13.73,-13.65,38.0,17.0,220,6,,6.21,29.763779,,,,,,,,,,,FEW,1300,BKN,23000,,,,,VFR,,,,,,,,,,,,METAR,53.0
GOTK 021700Z 26006KT 9999 FEW016 37/20 Q1008,GOTK,2023-06-02T17:00:00Z,12.57,-12.22,37.0,20.0,260,6,,6.21,29.763779,,,,,,,,,,,FEW,1600,,,,,,,VFR,,,,,,,,,,,,METAR,165.0
GOSS 021700Z 34012KT 290V040 CAVOK 28/22 Q1011,GOSS,2023-06-02T17:00:00Z,16.05,-16.45,28.0,22.0,340,12,,6.21,29.852362,,,,,,,,,,,CAVOK,,,,,,,,VFR,,,,,,,,,,,,METAR,3.0
GOSP 021700Z 04004KT CAVOK 41/14 Q1008,GOSP,2023-06-02T17:00:00Z,16.68,-14.97,41.0,14.0,40,4,,6.21,29.763779,,,,,,,,,,,CAVOK,,,,,,,,VFR,,,,,,,,,,,,METAR,10.0
GOSM 021700Z 32002KT CAVOK 44/13 Q1006,GOSM,2023-06-02T17:00:00Z,15.6,-13.33,44.0,13.0,320,2,,6.21,29.704725,,,,,,,,,,,CAVOK,,,,,,,,VFR,,,,,,,,,,,,METAR,28.0
GOOY 021700Z 34014KT CAVOK 26/21 Q1011,GOOY,2023-06-02T17:00:00Z,14.73,-17.5,26.0,21.0,340,14,,6.21,29.852362,,,,,,,,,,,CAVOK,,,,,,,,VFR,,,,,,,,,,,,METAR,21.0
GOOK 021700Z 32008KT CAVOK 39/19 Q1009,GOOK,2023-06-02T17:00:00Z,14.15,-16.07,39.0,19.0,320,8,,6.21,29.793306,,,,,,,,,,,CAVOK,,,,,,,,VFR,,,,,,,,,,,,METAR,8.0
GOOD 021700Z 36006KT CAVOK 40/17 Q1009,GOOD,2023-06-02T17:00:00Z,14.65,-16.22,40.0,17.0,360,6,,6.21,29.793306,,,,,,,,,,,CAVOK,,,,,,,,VFR,,,,,,,,,,,,METAR,9.0
GOGS 021700Z 28008KT CAVOK 29/20 Q1010,GOGS,2023-06-02T17:00:00Z,12.4,-16.75,29.0,20.0,280,8,,6.21,29.822834,,,,,,,,,,,CAVOK,,,,,,,,VFR,,,,,,,,,,,,METAR,13.0
GOGK 021700Z 22006KT CAVOK 38/19 Q1008,GOGK,2023-06-02T17:00:00Z,12.9,-14.97,38.0,19.0,220,6,,6.21,29.763779,,,,,,,,,,,CAVOK,,,,,,,,VFR,,,,,,,,,,,,METAR,37.0
GOGG 021700Z 32004KT CAVOK 33/23 Q1010,GOGG,2023-06-02T17:00:00Z,12.55,-16.27,33.0,23.0,320,4,,6.21,29.822834,,,,,,,,,,,CAVOK,,,,,,,,VFR,,,,,,,,,,,,METAR,24.0
GMTN 021700Z 09006KT 050V140 8000 BKN012 FEW030CB 23/20 Q1010 NOSIG RMK CB SECTEUR EST,GMTN,2023-06-02T17:00:00Z,35.58,-5.32,23.0,20.0,90,6,,4.97,29.822834,,,,,,TRUE,,,,,BKN,1200,FEW,3000,,,,,MVFR,,,,,,,,,,,,SPECI,10.0
GMTA 021700Z 31006KT 270V340 7000 TS -RA FEW010 FEW016TCU SCT030CB SCT060 21/16 Q1011 NOSIG,GMTA,2023-06-02T17:00:00Z,35.17,-3.85,21.0,16.0,310,6,,4.35,29.852362,,,,,,TRUE,,,,TS -RA,FEW,1000,FEW,1600,SCT,3000,SCT,6000,MVFR,,,,,,,,,,,,METAR,14.0
GMMZ 021700Z 20008KT 9999 SCT040 30/M03 Q1006 NOSIG,GMMZ,2023-06-02T17:00:00Z,30.93,-6.9,30.0,-3.0,200,8,,6.21,29.704725,,,,,,TRUE,,,,,SCT,4000,,,,,,,VFR,,,,,,,,,,,,METAR,1139.0
GMMW 021700Z 12005KT 080V140 9999 SCT020 FEW026TCU BKN098 21/13 Q1010 NOSIG,GMMW,2023-06-02T17:00:00Z,34.98,-3.02,21.0,13.0,120,5,,6.21,29.822834,,,,,,TRUE,,,,,SCT,2000,FEW,2600,BKN,9800,,,VFR,,,,,,,,,,,,METAR,174.0
GMML 021700Z 32013KT 8000 SCT033 25/17 Q1012 NOSIG,GMML,2023-06-02T17:00:00Z,27.13,-13.23,25.0,17.0,320,13,,4.97,29.88189,,,,,,TRUE,,,,,SCT,3300,,,,,,,MVFR,,,,,,,,,,,,METAR,63.0
GMMI 021700Z 32010KT 290V350 8000 SCT023 23/16 Q1011 NOSIG,GMMI,2023-06-02T17:00:00Z,31.4,-9.68,23.0,16.0,320,10,,4.97,29.852362,,,,,,TRUE,,,,,SCT,2300,,,,,,,MVFR,,,,,,,,,,,,METAR,102.0
GMMH 021700Z 36013KT CAVOK 23/18 Q1013 NOSIG,GMMH,2023-06-02T17:00:00Z,23.72,-15.93,23.0,18.0,360,13,,6.21,29.911417,,,,,,TRUE,,,,,CAVOK,,,,,,,,VFR,,,,,,,,,,,,METAR,11.0
GMMD 021700Z 16006KT 9999 SCT030 27/06 Q1008 NOSIG,GMMD,2023-06-02T17:00:00Z,32.4,-6.32,27.0,6.0,160,6,,6.21,29.763779,,,,,,TRUE,,,,,SCT,3000,,,,,,,VFR,,,,,,,,,,,,METAR,515.0
GMMC 021700Z 02008KT 8000 FEW016 23/16 Q1010,GMMC,2023-06-02T17:00:00Z,33.57,-7.67,23.0,16.0,20,8,,4.97,29.822834,,,,,,,,,,,FEW,1600,,,,,,,MVFR,,,,,,,,,,,,METAR,62.0
GMMB 021700Z 32010KT 290V360 9999 SCT010 22/15 Q1010 NOSIG,GMMB,2023-06-02T17:00:00Z,33.65,-7.22,22.0,15.0,320,10,,6.21,29.822834,,,,,,TRUE,,,,,SCT,1000,,,,,,,VFR,,,,,,,,,,,,METAR,191.0
GMFM 021700Z 07004KT 030V110 8000 -TS FEW016 BKN020 FEW030CB 21/15 Q1010 NOSIG,GMFM,2023-06-02T17:00:00Z,33.87,-5.52,21.0,15.0,70,4,,4.97,29.822834,,,,,,TRUE,,,,-TS,FEW,1600,BKN,2000,FEW,3000,,,MVFR,,,,,,,,,,,,METAR,569.0
GMFK 021700Z 35004KT 310V090 9999 SCT030 29/M01 Q1008 NOSIG,GMFK,2023-06-02T17:00:00Z,31.95,-4.4,29.0,-1.0,350,4,,6.21,29.763779,,,,,,TRUE,,,,,SCT,3000,,,,,,,VFR,,,,,,,,,,,,METAR,1033.0
GMFB 021700Z 17007KT 9999 SCT030TCU 28/01 Q1009 NOSIG,GMFB,2023-06-02T17:00:00Z,32.52,-1.98,28.0,1.0,170,7,,6.21,29.793306,,,,,,TRUE,,,,,SCT,3000,,,,,,,VFR,,,,,,,,,,,,METAR,1106.0
GMAZ 021700Z 28004KT CAVOK 32/02 Q1006 NOSIG,GMAZ,2023-06-02T17:00:00Z,30.32,-5.87,32.0,2.0,280,4,,6.21,29.704725,,,,,,TRUE,,,,,CAVOK,,,,,,,,VFR,,,,,,,,,,,,METAR,729.0
GMAT 021700Z 34014KT 9999 FEW016 SCT024 22/15 Q1010 NOSIG,GMAT,2023-06-02T17:00:00Z,28.43,-11.15,22.0,15.0,340,14,,6.21,29.822834,,,,,,TRUE,,,,,FEW,1600,SCT,2400,,,,,VFR,,,,,,,,,,,,METAR,192.0
GMAG 021700Z AUTO 31015KT 9000 24/13 Q1009,GMAG,2023-06-02T17:00:00Z,29.03,-10.05,24.0,13.0,310,15,,5.59,29.793306,,,TRUE,,,,,,,,,,,,,,,,,,,,,,,,,,,,METAR,333.0
GGOV 021700Z 23006KT 180V300 8000 FEW013 31/23 Q1010 NOSIG,GGOV,2023-06-02T17:00:00Z,11.88,-15.65,31.0,23.0,230,6,,4.97,29.822834,,,,,,TRUE,,,,,FEW,1300,,,,,,,MVFR,,,,,,,,,,,,METAR,31.0
GFLL 021700Z 27009KT 9999 BKN012 FEW027CB 28/24 Q1010 RMK CB NE/SE,GFLL,2023-06-02T17:00:00Z,8.62,-13.18,28.0,24.0,270,9,,6.21,29.822834,,,,,,,,,,,BKN,1200,FEW,2700,,,,,MVFR,,,,,,,,,,,,METAR,28.0
GCFV 021700Z 29016KT 270V330 9999 FEW040 26/16 Q1012,GCFV,2023-06-02T17:00:00Z,28.43,-13.87,26.0,16.0,290,16,,6.21,29.88189,,,,,,,,,,,FEW,4000,,,,,,,VFR,,,,,,,,,,,,METAR,11.0
GBYD 021700Z 30009KT CAVOK 32/21 Q1010,GBYD,2023-06-02T17:00:00Z,13.33,-16.65,32.0,21.0,300,9,,6.21,29.822834,,,,,,,,,,,CAVOK,,,,,,,,VFR,,,,,,,,,,,,METAR,29.0
GAKD 021700Z 33008KT CAVOK 42/10 Q1007,GAKD,2023-06-02T17:00:00Z,14.48,-11.4,42.0,10.0,330,8,,6.21,29.734253,,,,,,,,,,,CAVOK,,,,,,,,VFR,,,,,,,,,,,,METAR,53.0
FYWW 021700Z AUTO 28005KT //// // ////// 20/M00 Q1022,FYWW,2023-06-02T17:00:00Z,-22.57,17.1,20.0,0.0,280,5,,,30.177166,,,TRUE,,,,,,,,,,,,,,,,,,,,,,,,,,,,METAR,1672.0
FYWH 021700Z 30008KT CAVOK 21/03 Q1022 NOSIG,FYWH,2023-06-02T17:00:00Z,-22.47,17.47,21.0,3.0,300,8,,6.21,30.177166,,,,,,TRUE,,,,,CAVOK,,,,,,,,VFR,,,,,,,,,,,,METAR,1699.0
FYWE 021700Z 28006KT CAVOK 19/M03 Q1022,FYWE,2023-06-02T17:00:00Z,-22.62,17.08,19.0,-3.0,280,6,,6.21,30.177166,,,,,,,,,,,CAVOK,,,,,,,,VFR,,,,,,,,,,,,METAR,1700.0
FYWB 021700Z 33005KT 9999 OVC018 15/10 Q1018,FYWB,2023-06-02T17:00:00Z,-22.98,14.65,15.0,10.0,330,5,,6.21,30.059055,,,,,,,,,,,OVC,1800,,,,,,,MVFR,,,,,,,,,,,,METAR,87.0
FYOA 021700Z AUTO 24002KT //// // ////// 27/05 Q1015,FYOA,2023-06-02T17:00:00Z,-17.88,15.97,27.0,5.0,240,2,,,29.970472,,,TRUE,,,,,,,,,,,,,,,,,,,,,,,,,,,,METAR,1099.0
FYLZ 021700Z AUTO 36022G48KT //// // ////// 14/09 Q1016,FYLZ,2023-06-02T17:00:00Z,-26.68,15.25,14.0,9.0,360,22,48,,30.0,,,TRUE,,,,,,,,,,,,,,,,,,,,,,,,,,,,METAR,129.0
FYKT 021700Z AUTO 30010KT //// // ////// 23/M03 Q1015,FYKT,2023-06-02T17:00:00Z,-26.53,18.12,23.0,-3.0,300,10,,,29.970472,,,TRUE,,,,,,,,,,,,,,,,,,,,,,,,,,,,METAR,1064.0
FYKM 021700Z AUTO 00000KT //// // ////// 23/08 Q1017,FYKM,2023-06-02T17:00:00Z,-17.63,24.18,23.0,8.0,0,0,,,30.029528,,,TRUE,,,,,,,,,,,,,,,,,,,,,,,,,,,,METAR,959.0
FYGF 021700Z AUTO 34003KT //// // ////// 22/05 Q1020,FYGF,2023-06-02T17:00:00Z,-19.6,18.12,22.0,5.0,340,3,,,30.11811,,,TRUE,,,,,,,,,,,,,,,,,,,,,,,,,,,,METAR,1407.0
FWKI 021700Z 07005KT CAVOK 17/09 Q1022 NOSIG,FWKI,2023-06-02T17:00:00Z,-13.78,33.78,17.0,9.0,70,5,,6.21,30.177166,,,,,,TRUE,,,,,CAVOK,,,,,,,,VFR,,,,,,,,,,,,METAR,1225.0
FWCL 021700Z 14005KT CAVOK 23/16 Q1020 NOSIG,FWCL,2023-06-02T17:00:00Z,-15.67,34.97,23.0,16.0,140,5,,6.21,30.11811,,,,,,TRUE,,,,,CAVOK,,,,,,,,VFR,,,,,,,,,,,,METAR,774.0
FTTJ 021700Z 12004KT 4000 TS DU SCT040 FEW050CB 39/17 Q1005 TEMPO 06017G35KT 2500 BLDU,FTTJ,2023-06-02T17:00:00Z,12.13,15.03,39.0,17.0,120,4,,2.49,29.675198,,,,,,,,,,TS DU,SCT,4000,FEW,5000,,,,,IFR,,,,,,,,,,,,METAR,295.0
FTTA 021700Z 24006KT 9999 FEW040 29/23 Q1009,FTTA,2023-06-02T17:00:00Z,9.15,18.37,29.0,23.0,240,6,,6.21,29.793306,,,,,,,,,,,FEW,4000,,,,,,,VFR,,,,,,,,,,,,METAR,361.0
FSIA 021700Z 15010KT 9999 -SHRA BKN019 27/24 Q1013 NOSIG,FSIA,2023-06-02T17:00:00Z,-4.67,55.52,27.0,24.0,150,10,,6.21,29.911417,,,,,,TRUE,,,,-SHRA,BKN,1900,,,,,,,MVFR,,,,,,,,,,,,METAR,3.0
FQXA 021700Z 16004KT 9999 FEW020 21/20 Q1016,FQXA,2023-06-02T17:00:00Z,-25.05,33.62,21.0,20.0,160,4,,6.21,30.0,,,,,,,,,,,FEW,2000,,,,,,,VFR,,,,,,,,,,,,METAR,3.0
FQVL 021700Z 36003KT CAVOK 25/21 Q1016,FQVL,2023-06-02T17:00:00Z,-22.0,35.32,25.0,21.0,360,3,,6.21,30.0,,,,,,,,,,,CAVOK,,,,,,,,VFR,,,,,,,,,,,,METAR,15.0
FQTT 021700Z 00000KT CAVOK 23/13 Q1015,FQTT,2023-06-02T17:00:00Z,-16.1,33.63,23.0,13.0,0,0,,6.21,29.970472,,,,,,,,,,,CAVOK,,,,,,,,VFR,,,,,,,,,,,,METAR,146.0
FQQL 021700Z 10006KT CAVOK 26/23 Q1017,FQQL,2023-06-02T17:00:00Z,-17.87,36.87,26.0,23.0,100,6,,6.21,30.029528,,,,,,,,,,,CAVOK,,,,,,,,VFR,,,,,,,,,,,,METAR,5.0
FQPB 021700Z 11004KT 9999 FEW020 27/23 Q1017,FQPB,2023-06-02T17:00:00Z,-12.98,40.52,27.0,23.0,110,4,,6.21,30.029528,,,,,,,,,,,FEW,2000,,,,,,,VFR,,,,,,,,,,,,METAR,101.0
FQNP 021700Z 06009KT CAVOK 24/19 Q1019,FQNP,2023-06-02T17:00:00Z,-15.1,39.27,24.0,19.0,60,9,,6.21,30.088583,,,,,,,,,,,CAVOK,,,,,,,,VFR,,,,,,,,,,,,METAR,434.0
FQMA 021700Z 12004KT CAVOK 21/18 Q1018,FQMA,2023-06-02T17:00:00Z,-25.92,32.57,21.0,18.0,120,4,,6.21,30.059055,,,,,,,,,,,CAVOK,,,,,,,,VFR,,,,,,,,,,,,METAR,34.0
FQLC 021700Z 14003KT 9999 BKN016 20/15 Q1024,FQLC,2023-06-02T17:00:00Z,-13.27,35.25,20.0,15.0,140,3,,6.21,30.236221,,,,,,,,,,,BKN,1600,,,,,,,MVFR,,,,,,,,,,,,METAR,1362.0
FQIN 021700Z 06012KT 9999 TS FEW020 FEW030CB 26/23 Q1014 RMK DIST.LIT. TO S,FQIN,2023-06-02T17:00:00Z,-23.87,35.38,26.0,23.0,60,12,,6.21,29.940945,,,,,,,,,,TS,FEW,2000,FEW,3000,,,,,VFR,,,,,,,,,,,,METAR,10.0
FQCH 021700Z /////KT 9999 FEW020 23/16 Q1020,FQCH,2023-06-02T17:00:00Z,-19.15,33.43,23.0,16.0,,,,6.21,30.11811,,,,,,,,,,,FEW,2000,,,,,,,VFR,,,,,,,,,,,,METAR,695.0
FQBR 021700Z 09005KT 9999 FEW020 24/24 Q1014,FQBR,2023-06-02T17:00:00Z,-19.8,34.9,24.0,24.0,90,5,,6.21,29.940945,,,,,,,,,,,FEW,2000,,,,,,,VFR,,,,,,,,,,,,METAR,14.0
FOON 021700Z /////KT 9999 SCT013 26/23 Q1011,FOON,2023-06-02T17:00:00Z,-1.65,13.43,26.0,23.0,,,,6.21,29.852362,,,,,,,,,,,SCT,1300,,,,,,,VFR,,,,,,,,,,,,SPECI,440.0
FOOL 021700Z 26008KT 9999 FEW014 28/24 Q1010 NOSIG,FOOL,2023-06-02T17:00:00Z,0.45,9.42,28.0,24.0,260,8,,6.21,29.822834,,,,,,TRUE,,,,,FEW,1400,,,,,,,VFR,,,,,,,,,,,,METAR,9.0
FOOG 021700Z 19013KT 9999 FEW011 27/23 Q1010,FOOG,2023-06-02T17:00:00Z,-0.7,8.75,27.0,23.0,190,13,,6.21,29.822834,,,,,,,,,,,FEW,1100,,,,,,,VFR,,,,,,,,,,,,METAR,4.0
FMSD 021700Z 08019KT CAVOK 24/18 Q1020,FMSD,2023-06-02T17:00:00Z,-25.03,46.95,24.0,18.0,80,19,,6.21,30.11811,,,,,,,,,,,CAVOK,,,,,,,,VFR,,,,,,,,,,,,METAR,7.0
FMNM 021700Z VRB03KT 9999 FEW023 25/17 Q1018 NOSIG,FMNM,2023-06-02T17:00:00Z,-15.67,46.35,25.0,17.0,0,3,,6.21,30.059055,,,,,,TRUE,,,,,FEW,2300,,,,,,,VFR,,,,,,,,,,,,METAR,18.0
FMMT 021700Z 23008KT 9999 VCSH BKN017TCU SCT033 22/19 Q1021 TEMPO 4000 RA,FMMT,2023-06-02T17:00:00Z,-18.12,49.38,22.0,19.0,230,8,,6.21,30.147638,,,,,,,,,,VCSH,BKN,1700,SCT,3300,,,,,MVFR,,,,,,,,,,,,METAR,13.0
FMCH 021700Z 07006KT 9999 FEW023 26/20 Q1016 NOSIG,FMCH,2023-06-02T17:00:00Z,-11.53,43.27,26.0,20.0,70,6,,6.21,30.0,,,,,,TRUE,,,,,FEW,2300,,,,,,,VFR,,,,,,,,,,,,METAR,30.0
FIMP 021700Z 13013KT 9999 SCT017 24/15 Q1023,FIMP,2023-06-02T17:00:00Z,-20.43,57.68,24.0,15.0,130,13,,6.21,30.206694,,,,,,,,,,,SCT,1700,,,,,,,VFR,,,,,,,,,,,,METAR,57.0
FGSL 021700Z 26007KT 9999 FEW012 FEW020CB 27/25 Q1011 NOSIG,FGSL,2023-06-02T17:00:00Z,3.75,8.72,27.0,25.0,260,7,,6.21,29.852362,,,,,,TRUE,,,,,FEW,1200,FEW,2000,,,,,VFR,,,,,,,,,,,,METAR,23.0
FDST 021700Z AUTO 30006KT //// // ////// 20/16 Q1015,FDST,2023-06-02T17:00:00Z,-26.43,31.95,20.0,16.0,300,6,,,29.970472,,,TRUE,,,,,,,,,,,,,,,,,,,,,,,,,,,,METAR,642.0
FDSK 021700Z VRB02KT CAVOK 17/12 Q1016 NOSIG,FDSK,2023-06-02T17:00:00Z,-26.35,31.72,17.0,12.0,0,2,,6.21,30.0,,,,,,TRUE,,,,,CAVOK,,,,,,,,VFR,,,,,,,,,,,,METAR,323.0
FDPP 021700Z AUTO 06003KT //// // ////// ///// Q1022,FDPP,2023-06-02T17:00:00Z,-25.97,31.25,,,60,3,,,30.177166,,,TRUE,,,,,,,,,,,,,,,,,,,,,,,,,,,,METAR,1023.0
FDOT 021700Z AUTO 00000KT //// // ////// 15/11 Q1017,FDOT,2023-06-02T17:00:00Z,-26.7,31.43,15.0,11.0,0,0,,,30.029528,,,TRUE,,,,,,,,,,,,,,,,,,,,,,,,,,,,METAR,342.0
FDMY 021700Z AUTO 34002KT //// // ////// 14/10 Q1026,FDMY,2023-06-02T17:00:00Z,-25.88,31.52,14.0,10.0,340,2,,,30.295275,,,TRUE,,,,,,,,,,,,,,,,,,,,,,,,,,,,METAR,401.0
FDBB 021700Z AUTO 00000KT //// // ////// 15/12 Q1014,FDBB,2023-06-02T17:00:00Z,-26.8,31.93,15.0,12.0,0,0,,,29.940945,,,TRUE,,,,,,,,,,,,,,,,,,,,,,,,,,,,METAR,106.0
FBSK 021700Z 04007KT CAVOK 19/04 Q1018 NOSIG,FBSK,2023-06-02T17:00:00Z,-24.55,25.92,19.0,4.0,40,7,,6.21,30.059055,,,,,,TRUE,,,,,CAVOK,,,,,,,,VFR,,,,,,,,,,,,METAR,1007.0
FBPM 021700Z 02002KT CAVOK 17/M01 Q1019,FBPM,2023-06-02T17:00:00Z,-21.17,27.48,17.0,-1.0,20,2,,6.21,30.088583,,,,,,,,,,,CAVOK,,,,,,,,VFR,,,,,,,,,,,,METAR,1009.0
FBMN 021700Z VRB02KT CAVOK 23/07 Q1018,FBMN,2023-06-02T17:00:00Z,-19.97,23.42,23.0,7.0,0,2,,6.21,30.059055,,,,,,,,,,,CAVOK,,,,,,,,VFR,,,,,,,,,,,,METAR,946.0
FAWB 021700Z 12003KT CAVOK 11/04 Q1020,FAWB,2023-06-02T17:00:00Z,-25.65,28.22,11.0,4.0,120,3,,6.21,30.11811,,,,,,,,,,,CAVOK,,,,,,,,VFR,,,,,,,,,,,,METAR,1245.0
FAUT 021700Z 20004KT CAVOK 12/08 Q1013,FAUT,2023-06-02T17:00:00Z,-31.53,28.67,12.0,8.0,200,4,,6.21,29.911417,,,,,,,,,,,CAVOK,,,,,,,,VFR,,,,,,,,,,,,METAR,735.0
FAUP 021700Z 17002KT CAVOK 18/M00 Q1014 NOSIG,FAUP,2023-06-02T17:00:00Z,-28.38,21.27,18.0,0.0,170,2,,6.21,29.940945,,,,,,TRUE,,,,,CAVOK,,,,,,,,VFR,,,,,,,,,,,,METAR,845.0
FAPP 021700Z 21003KT CAVOK 14/03 Q1023 NOSIG,FAPP,2023-06-02T17:00:00Z,-23.83,29.45,14.0,3.0,210,3,,6.21,30.206694,,,,,,TRUE,,,,,CAVOK,,,,,,,,VFR,,,,,,,,,,,,METAR,1238.0
FAPN 021700Z AUTO 18002KT //// // ////// 18/02 Q1019,FAPN,2023-06-02T17:00:00Z,-25.33,27.17,18.0,2.0,180,2,,,30.088583,,,TRUE,,,,,,,,,,,,,,,,,,,,,,,,,,,,METAR,1045.0
FAPE 021700Z 35003KT 290V040 CAVOK 16/10 Q1008 NOSIG,FAPE,2023-06-02T17:00:00Z,-33.98,25.6,16.0,10.0,350,3,,6.21,29.763779,,,,,,TRUE,,,,,CAVOK,,,,,,,,VFR,,,,,,,,,,,,METAR,58.0
FAOR 021700Z 30004KT CAVOK 15/02 Q1023 NOSIG,FAOR,2023-06-02T17:00:00Z,-26.13,28.23,15.0,2.0,300,4,,6.21,30.206694,,,,,,TRUE,,,,,CAVOK,,,,,,,,VFR,,,,,,,,,,,,METAR,1684.0
FAMM 021700Z 01003KT CAVOK 15/M02 Q1020 NOSIG,FAMM,2023-06-02T17:00:00Z,-25.8,25.53,15.0,-2.0,10,3,,6.21,30.11811,,,,,,TRUE,,,,,CAVOK,,,,,,,,VFR,,,,,,,,,,,,METAR,1280.0
FALW 021700Z AUTO 36018KT //// // ////// 13/11 Q1009,FALW,2023-06-02T17:00:00Z,-32.97,18.17,13.0,11.0,360,18,,,29.793306,,,TRUE,,,,,,,,,,,,,,,,,,,,,,,,,,,,METAR,31.0
FALE 021700Z 01004KT CAVOK 17/12 Q1013 NOSIG,FALE,2023-06-02T17:00:00Z,-29.62,31.12,17.0,12.0,10,4,,6.21,29.911417,,,,,,TRUE,,,,,CAVOK,,,,,,,,VFR,,,,,,,,,,,,METAR,109.0
FALA 021700Z 21004KT CAVOK 16/02 Q1022 NOSIG,FALA,2023-06-02T17:00:00Z,-25.93,27.92,16.0,2.0,210,4,,6.21,30.177166,,,,,,TRUE,,,,,CAVOK,,,,,,,,VFR,,,,,,,,,,,,METAR,1365.0
FAKN 021700Z 07004KT 9999 FEW020 17/12 Q1019 NOSIG,FAKN,2023-06-02T17:00:00Z,-25.38,31.1,17.0,12.0,70,4,,6.21,30.088583,,,,,,TRUE,,,,,FEW,2000,,,,,,,VFR,,,,,,,,,,,,METAR,864.0
FAKM 021700Z 01003KT CAVOK 10/04 Q1016,FAKM,2023-06-02T17:00:00Z,-28.8,24.77,10.0,4.0,10,3,,6.21,30.0,,,,,,,,,,,CAVOK,,,,,,,,VFR,,,,,,,,,,,,METAR,1203.0
FAHS 021700Z AUTO 31004KT //// // ////// 20/07 Q1016,FAHS,2023-06-02T17:00:00Z,-24.37,31.03,20.0,7.0,310,4,,,30.0,,,TRUE,,,,,,,,,,,,,,,,,,,,,,,,,,,,METAR,532.0
FAGG 021700Z 10003KT CAVOK 20/07 Q1006,FAGG,2023-06-02T17:00:00Z,-34.0,22.37,20.0,7.0,100,3,,6.21,29.704725,,,,,,,,,,,CAVOK,,,,,,,,VFR,,,,,,,,,,,,METAR,196.0
FAEL 021700Z 04006KT CAVOK 18/10 Q1010,FAEL,2023-06-02T17:00:00Z,-33.03,27.82,18.0,10.0,40,6,,6.21,29.822834,,,,,,,,,,,CAVOK,,,,,,,,VFR,,,,,,,,,,,,METAR,127.0
FACT 021700Z 01020KT 9999 FEW020 BKN045 15/11 Q1008 NOSIG,FACT,2023-06-02T17:00:00Z,-33.97,18.6,15.0,11.0,10,20,,6.21,29.763779,,,,,,TRUE,,,,,FEW,2000,BKN,4500,,,,,VFR,,,,,,,,,,,,METAR,48.0
FABL 021700Z 06002KT CAVOK 10/02 Q1020 NOSIG,FABL,2023-06-02T17:00:00Z,-29.1,26.3,10.0,2.0,60,2,,6.21,30.11811,,,,,,TRUE,,,,,CAVOK,,,,,,,,VFR,,,,,,,,,,,,METAR,1348.0
EIWF 021700Z 08007KT 040V110 CAVOK 18/09 Q1024,EIWF,2023-06-02T17:00:00Z,52.18,-7.08,18.0,9.0,80,7,,6.21,30.236221,,,,,,,,,,,CAVOK,,,,,,,,VFR,,,,,,,,,,,,METAR,26.0
EIME 021700Z 09009KT 9999 FEW030 14/08 Q1025,EIME,2023-06-02T17:00:00Z,53.3,-6.45,14.0,8.0,90,9,,6.21,30.265747,,,,,,,,,,,FEW,3000,,,,,,,VFR,,,,,,,,,,,,METAR,90.0
EIKY 021700Z 26009KT 240V300 CAVOK 20/14 Q1023,EIKY,2023-06-02T17:00:00Z,52.18,-9.53,20.0,14.0,260,9,,6.21,30.206694,,,,,,,,,,,CAVOK,,,,,,,,VFR,,,,,,,,,,,,METAR,23.0
DTTZ 021700Z 35004KT 290V090 9999 SCT030 30/10 Q1010,DTTZ,2023-06-02T17:00:00Z,33.93,8.1,30.0,10.0,350,4,,6.21,29.822834,,,,,,,,,,,SCT,3000,,,,,,,VFR,,,,,,,,,,,,METAR,87.0
DTTX 021700Z 09005KT 060V130 9999 FEW030 23/17 Q1012,DTTX,2023-06-02T17:00:00Z,34.72,10.68,23.0,17.0,90,5,,6.21,29.88189,,,,,,,,,,,FEW,3000,,,,,,,VFR,,,,,,,,,,,,METAR,17.0
DTTR 021700Z 04006KT 340V090 CAVOK 32/04 Q1010,DTTR,2023-06-02T17:00:00Z,31.7,9.27,32.0,4.0,40,6,,6.21,29.822834,,,,,,,,,,,CAVOK,,,,,,,,VFR,,,,,,,,,,,,METAR,253.0
DTTN 021700Z /////KT 9999 SHRA SCT020 FEW023CB SCT030 19/16 Q1013,DTTN,2023-06-02T17:00:00Z,36.47,8.8,19.0,16.0,,,,6.21,29.911417,,,,,,,,,,SHRA,SCT,2000,FEW,2300,SCT,3000,,,VFR,,,,,,,,,,,,METAR,145.0
DTTL 021700Z 13004KT 040V210 9999 FEW020 22/18 Q1013,DTTL,2023-06-02T17:00:00Z,36.85,11.07,22.0,18.0,130,4,,6.21,29.911417,,,,,,,,,,,FEW,2000,,,,,,,VFR,,,,,,,,,,,,METAR,18.0
DTTK 021700Z VRB03KT 9999 SCT023 SCT030 26/16 Q1012,DTTK,2023-06-02T17:00:00Z,35.67,10.08,26.0,16.0,0,3,,6.21,29.88189,,,,,,,,,,,SCT,2300,SCT,3000,,,,,VFR,,,,,,,,,,,,METAR,65.0
DTTG 021700Z 07012KT 9999 SCT030 25/15 Q1012 NOSIG,DTTG,2023-06-02T17:00:00Z,33.73,9.92,25.0,15.0,70,12,,6.21,29.88189,,,,,,TRUE,,,,,SCT,3000,,,,,,,VFR,,,,,,,,,,,,METAR,120.0
DTTF 021700Z 08020KT 9999 BKN026 20/15 Q1014,DTTF,2023-06-02T17:00:00Z,34.42,8.82,20.0,15.0,80,20,,6.21,29.940945,,,,,,,,,,,BKN,2600,,,,,,,MVFR,,,,,,,,,,,,METAR,314.0
DTTD 021700Z 05004KT 350V110 9999 FEW026 30/09 Q1011,DTTD,2023-06-02T17:00:00Z,32.32,10.4,30.0,9.0,50,4,,6.21,29.852362,,,,,,,,,,,FEW,2600,,,,,,,VFR,,,,,,,,,,,,METAR,306.0
DTTB 021700Z 10012KT 9999 SCT020TCU 25/17 Q1011,DTTB,2023-06-02T17:00:00Z,37.25,9.8,25.0,17.0,100,12,,6.21,29.852362,,,,,,,,,,,SCT,2000,,,,,,,VFR,,,,,,,,,,,,METAR,4.0
DTKA 021700Z 24005KT 220V280 9999 SCT020 FEW023CB 22/18 Q1012 NOSIG,DTKA,2023-06-02T17:00:00Z,36.98,8.88,22.0,18.0,240,5,,6.21,29.88189,,,,,,TRUE,,,,,SCT,2000,FEW,2300,,,,,VFR,,,,,,,,,,,,METAR,70.0
DRZR 021700Z 34017KT 6000 TSRA SCT040CB 29/21 Q1009,DRZR,2023-06-02T17:00:00Z,13.77,8.98,29.0,21.0,340,17,,3.73,29.793306,,,,,,,,,,TSRA,SCT,4000,,,,,,,MVFR,,,,,,,,,,,,METAR,457.0
DRZA 021700Z 26012KT 9999 SCT040 41/16 Q1006,DRZA,2023-06-02T17:00:00Z,16.97,8.0,41.0,16.0,260,12,,6.21,29.704725,,,,,,,,,,,SCT,4000,,,,,,,VFR,,,,,,,,,,,,METAR,506.0
DRRT 021700Z 24006KT 9999 FEW040 40/16 Q1007,DRRT,2023-06-02T17:00:00Z,14.87,5.27,40.0,16.0,240,6,,6.21,29.734253,,,,,,,,,,,FEW,4000,,,,,,,VFR,,,,,,,,,,,,METAR,387.0
DRRN 021700Z 27005KT 340V210 9999 FEW040 40/12 Q1006 NOSIG,DRRN,2023-06-02T17:00:00Z,13.47,2.17,40.0,12.0,270,5,,6.21,29.704725,,,,,,TRUE,,,,,FEW,4000,,,,,,,VFR,,,,,,,,,,,,METAR,223.0
DRRM 021700Z 29016G26KT 260V330 7000 FEW033 CB 31/22 Q1009,DRRM,2023-06-02T17:00:00Z,13.5,7.12,31.0,22.0,290,16,26,4.35,29.793306,,,,,,,,,,,FEW,3300,,,,,,,MVFR,,,,,,,,,,,,METAR,374.0
DNYO 021700Z 27004KT 9999 SCT015 38/23 Q1008 N0SIG,DNYO,2023-06-02T17:00:00Z,9.27,12.42,38.0,23.0,270,4,,6.21,29.763779,,,,,,,,,,,SCT,1500,,,,,,,VFR,,,,,,,,,,,,METAR,178.0
DNSO 021700Z 16016KT 9999 FEW014 FEW023CB 36/23 Q1009 TEMPO TS,DNSO,2023-06-02T17:00:00Z,12.92,5.2,36.0,23.0,160,16,,6.21,29.793306,,,,,,,,,,,FEW,1400,FEW,2300,,,,,VFR,,,,,,,,,,,,METAR,302.0
DNMM 021700Z 21008KT 9999 SCT012 28/24 Q1011 NOSIG,DNMM,2023-06-02T17:00:00Z,6.57,3.32,28.0,24.0,210,8,,6.21,29.852362,,,,,,TRUE,,,,,SCT,1200,,,,,,,VFR,,,,,,,,,,,,METAR,27.0
DNKN 021700Z 26009KT 9999 SCT014 FEW020CB 36/23 Q1010 NOSIG,DNKN,2023-06-02T17:00:00Z,12.05,8.52,36.0,23.0,260,9,,6.21,29.822834,,,,,,TRUE,,,,,SCT,1400,FEW,2000,,,,,VFR,,,,,,,,,,,,METAR,471.0
DNIM 021700Z 16005KT 9999 BKN011 28/25 Q1010,DNIM,2023-06-02T17:00:00Z,5.43,7.2,28.0,25.0,160,5,,6.21,29.822834,,,,,,,,,,,BKN,1100,,,,,,,MVFR,,,,,,,,,,,,METAR,113.0
DNIL 021700Z 18009KT 9999 FEW013 32/23 Q1010,DNIL,2023-06-02T17:00:00Z,8.43,4.48,32.0,23.0,180,9,,6.21,29.822834,,,,,,,,,,,FEW,1300,,,,,,,VFR,,,,,,,,,,,,METAR,341.0
DNCA 021700Z 23007KT 9999 BKN011 FEW020CB 29/25 Q1010,DNCA,2023-06-02T17:00:00Z,4.97,8.33,29.0,25.0,230,7,,6.21,29.822834,,,,,,,,,,,BKN,1100,FEW,2000,,,,,MVFR,,,,,,,,,,,,METAR,64.0
DNAA 021700Z 22006KT 9999 FEW013 32/22 Q1010 NOSIG,DNAA,2023-06-02T17:00:00Z,9.0,7.27,32.0,22.0,220,6,,6.21,29.822834,,,,,,TRUE,,,,,FEW,1300,,,,,,,VFR,,,,,,,,,,,,METAR,338.0
DIYO 021700Z 24008KT 9999 FEW015 FEW020CB 32/24 Q1009 NOSIG,DIYO,2023-06-02T17:00:00Z,6.9,-5.35,32.0,24.0,240,8,,6.21,29.793306,,,,,,TRUE,,,,,FEW,1500,FEW,2000,,,,,VFR,,,,,,,,,,,,METAR,202.0
DIBK 021700Z 22008KT 9999 SCT016 29/22 Q1011 NNOSIG,DIBK,2023-06-02T17:00:00Z,7.73,-5.07,29.0,22.0,220,8,,6.21,29.852362,,,,,,TRUE,,,,,SCT,1600,,,,,,,VFR,,,,,,,,,,,,METAR,363.0
DGAA 021700Z 20016KT 9999 SCT019 BKN023 FEW030CB 28/25 Q1011 TEMPO 6000 TSRA,DGAA,2023-06-02T17:00:00Z,5.58,-0.17,28.0,25.0,200,16,,6.21,29.852362,,,,,,,,,,,SCT,1900,BKN,2300,FEW,3000,,,MVFR,,,,,,,,,,,,METAR,68.0
DFOO 021700Z 23007KT 200V270 9999 FEW020 34/23 Q1010,DFOO,2023-06-02T17:00:00Z,11.17,-4.32,34.0,23.0,230,7,,6.21,29.822834,,,,,,,,,,,FEW,2000,,,,,,,VFR,,,,,,,,,,,,METAR,461.0
DFFD 021700Z 16005KT 110V200 9999 FEW026 FEW040TCU 38/22 Q1008 NOSIG,DFFD,2023-06-02T17:00:00Z,12.35,-1.52,38.0,22.0,160,5,,6.21,29.763779,,,,,,TRUE,,,,,FEW,2600,FEW,4000,,,,,VFR,,,,,,,,,,,,METAR,309.0
DBBB 021700Z 20011KT 9999 TS BKN011 FEW020CB 27/25 Q1010 RETSRA BECMG NSW,DBBB,2023-06-02T17:00:00Z,6.35,2.38,27.0,25.0,200,11,,6.21,29.822834,,,,,,,,,,TS,BKN,1100,FEW,2000,,,,,MVFR,,,,,,,,,,,,METAR,4.0
DAUZ 021700Z 24004KT CAVOK 34/02 Q1009,DAUZ,2023-06-02T17:00:00Z,28.05,9.63,34.0,2.0,240,4,,6.21,29.793306,,,,,,,,,,,CAVOK,,,,,,,,VFR,,,,,,,,,,,,METAR,567.0
DAUU 021700Z 11006KT 9999 FEW046 34/04 Q1008,DAUU,2023-06-02T17:00:00Z,31.92,5.4,34.0,4.0,110,6,,6.21,29.763779,,,,,,,,,,,FEW,4600,,,,,,,VFR,,,,,,,,,,,,METAR,147.0
DAUT 021700Z 21015KT 8000 NSC 38/// Q1002,DAUT,2023-06-02T17:00:00Z,29.25,0.27,,,210,15,,4.97,29.586615,,,,,,,,,,,CLR,,,,,,,,MVFR,,,,,,,,,,,,METAR,307.0
DAUO 021700Z 04006KT 330V080 9999 FEW046 SCT200 31/10 Q1010,DAUO,2023-06-02T17:00:00Z,33.5,6.78,31.0,10.0,40,6,,6.21,29.822834,,,,,,,,,,,FEW,4600,SCT,20000,,,,,VFR,,,,,,,,,,,,METAR,55.0
DAUK 021700Z 05005KT 9999 SCT040 SCT233 31/08 Q1009,DAUK,2023-06-02T17:00:00Z,33.08,6.08,31.0,8.0,50,5,,6.21,29.793306,,,,,,,,,,,SCT,4000,SCT,23300,,,,,VFR,,,,,,,,,,,,METAR,83.0
DAUI 021700Z 03004KT CAVOK 39/// Q1003,DAUI,2023-06-02T17:00:00Z,27.25,2.52,,,30,4,,6.21,29.616142,,,,,,,,,,,CAVOK,,,,,,,,VFR,,,,,,,,,,,,METAR,271.0
DAUH 021700Z 09004KT CAVOK 34/05 Q1008,DAUH,2023-06-02T17:00:00Z,31.67,6.15,34.0,5.0,90,4,,6.21,29.763779,,,,,,,,,,,CAVOK,,,,,,,,VFR,,,,,,,,,,,,METAR,141.0
DAUG 021700Z 13013KT 9999 SCT040 SCT233 32/M00 Q1010,DAUG,2023-06-02T17:00:00Z,32.38,3.78,32.0,0.0,130,13,,6.21,29.822834,,,,,,,,,,,SCT,4000,SCT,23300,,,,,VFR,,,,,,,,,,,,METAR,444.0
DAUE 021700Z 12006KT CAVOK 35/00 Q1007,DAUE,2023-06-02T17:00:00Z,30.57,2.87,35.0,0.0,120,6,,6.21,29.734253,,,,,,,,,,,CAVOK,,,,,,,,VFR,,,,,,,,,,,,METAR,396.0
DAUB 021700Z 33004KT 9999 FEW033TCU SCT040 27/10 Q1011,DAUB,2023-06-02T17:00:00Z,34.78,5.73,27.0,10.0,330,4,,6.21,29.852362,,,,,,,,,,,FEW,3300,SCT,4000,,,,,VFR,,,,,,,,,,,,METAR,75.0
DAUA 021700Z 21012KT 170V230 CAVOK 39/// Q1002,DAUA,2023-06-02T17:00:00Z,27.83,-0.18,,,210,12,,6.21,29.586615,,,,,,,,,,,CAVOK,,,,,,,,VFR,,,,,,,,,,,,METAR,278.0
DATM 021700Z 27011KT CAVOK 39/// Q1006,DATM,2023-06-02T17:00:00Z,21.38,0.92,,,270,11,,6.21,29.704725,,,,,,,,,,,CAVOK,,,,,,,,VFR,,,,,,,,,,,,METAR,398.0
DAOY 021700Z 13014KT 9999 SCT026 SCT233 22/06 Q1012,DAOY,2023-06-02T17:00:00Z,33.72,1.08,22.0,6.0,130,14,,6.21,29.88189,,,,,,,,,,,SCT,2600,SCT,23300,,,,,VFR,,,,,,,,,,,,METAR,1340.0
DAOV 021700Z 31004KT 250V020 9999 FEW023CB SCT026 25/07 Q1012,DAOV,2023-06-02T17:00:00Z,35.2,0.15,25.0,7.0,310,4,,6.21,29.88189,,,,,,,,,,,FEW,2300,SCT,2600,,,,,VFR,,,,,,,,,,,,METAR,506.0
DAOL 021700Z 30006KT 9999 FEW026TCU SCT026 BKN100 23/12 Q1011,DAOL,2023-06-02T17:00:00Z,35.53,-0.52,23.0,12.0,300,6,,6.21,29.852362,,,,,,,,,,,FEW,2600,SCT,2600,BKN,10000,,,VFR,,,,,,,,,,,,METAR,103.0
DAOI 021700Z 36005KT 9999 FEW020 BKN026 25/12 Q1012,DAOI,2023-06-02T17:00:00Z,36.22,1.32,25.0,12.0,360,5,,6.21,29.88189,,,,,,,,,,,FEW,2000,BKN,2600,,,,,MVFR,,,,,,,,,,,,METAR,141.0
DAOF 021700Z 28018KT CAVOK 30/06 Q1005,DAOF,2023-06-02T17:00:00Z,27.7,-8.17,30.0,6.0,280,18,,6.21,29.675198,,,,,,,,,,,CAVOK,,,,,,,,VFR,,,,,,,,,,,,METAR,441.0
DAOB 021700Z 21004KT 9999 SCT026 SCT090 20/07 Q1014,DAOB,2023-06-02T17:00:00Z,35.33,1.47,20.0,7.0,210,4,,6.21,29.940945,,,,,,,,,,,SCT,2600,SCT,9000,,,,,VFR,,,,,,,,,,,,METAR,976.0
DAFH 021700Z 12012KT CAVOK 28/03 Q1012,DAFH,2023-06-02T17:00:00Z,32.93,3.32,28.0,3.0,120,12,,6.21,29.88189,,,,,,,,,,,CAVOK,,,,,,,,VFR,,,,,,,,,,,,METAR,774.0
DABT 021700Z 26012KT 9999 BKN020 21/06 Q1015,DABT,2023-06-02T17:00:00Z,35.75,6.32,21.0,6.0,260,12,,6.21,29.970472,,,,,,,,,,,BKN,2000,,,,,,,MVFR,,,,,,,,,,,,METAR,813.0
DABS 021700Z 09005KT 9999 BKN033 18/10 Q1015,DABS,2023-06-02T17:00:00Z,35.43,8.12,18.0,10.0,90,5,,6.21,29.970472,,,,,,,,,,,BKN,3300,,,,,,,VFR,,,,,,,,,,,,METAR,806.0
DAAY 021700Z 35016KT 6000 FEW033 SCT100 22/10 Q1013,DAAY,2023-06-02T17:00:00Z,33.53,-0.25,22.0,10.0,350,16,,3.73,29.911417,,,,,,,,,,,FEW,3300,SCT,10000,,,,,MVFR,,,,,,,,,,,,METAR,1116.0
DAAV 021700Z VRB02KT 9999 SCT016 FEW023CB SCT090 21/17 Q1012,DAAV,2023-06-02T17:00:00Z,36.8,5.88,21.0,17.0,0,2,,6.21,29.88189,,,,,,,,,,,SCT,1600,FEW,2300,SCT,9000,,,VFR,,,,,,,,,,,,METAR,11.0
DAAS 021700Z 35004KT 9999 -TSRA FEW023CB BKN026 16/10 Q1016,DAAS,2023-06-02T17:00:00Z,36.18,5.33,16.0,10.0,350,4,,6.21,30.0,,,,,,,,,,-TSRA,FEW,2300,BKN,2600,,,,,MVFR,,,,,,,,,,,,METAR,1012.0
DAAP 021700Z VRB02KT CAVOK 37/01 Q1007,DAAP,2023-06-02T17:00:00Z,26.72,8.62,37.0,1.0,0,2,,6.21,29.734253,,,,,,,,,,,CAVOK,,,,,,,,VFR,,,,,,,,,,,,METAR,542.0
DAAJ 021700Z 21004KT 8000 NSC 35/// Q1010,DAAJ,2023-06-02T17:00:00Z,24.28,9.47,,,210,4,,4.97,29.822834,,,,,,,,,,,CLR,,,,,,,,MVFR,,,,,,,,,,,,METAR,962.0
DAAE 021700Z 10005KT 8000 FEW006 SCT020 FEW023CB BKN090 21/18 Q1012,DAAE,2023-06-02T17:00:00Z,36.72,5.07,21.0,18.0,100,5,,4.97,29.88189,,,,,,,,,,,FEW,600,SCT,2000,FEW,2300,BKN,9000,MVFR,,,,,,,,,,,,METAR,1.0
DAAD 021700Z 04003KT 7000 FEW026 BKN030 22/13 Q1014,DAAD,2023-06-02T17:00:00Z,35.32,4.2,22.0,13.0,40,3,,4.35,29.940945,,,,,,,,,,,FEW,2600,BKN,3000,,,,,MVFR,,,,,,,,,,,,METAR,461.0
CZZJ 021700Z AUTO 05001KT 12/08 RMK AO1 SLP217 T01230083 50002,CZZJ,2023-06-02T17:00:00Z,53.58,-116.47,12.3,8.3,50,1,,,,1021.7,,TRUE,TRUE,,,,,,,,,,,,,,,,0.2,,,,,,,,,,,METAR,927.0
CZVL 021700Z AUTO VRB02KT 9SM CLR 19/06 A3008 RMK SLP193 DENSITY ALT 3100FT,CZVL,2023-06-02T17:00:00Z,53.67,-113.85,19.0,6.0,0,2,,9.0,30.079725,1019.3,,TRUE,,,,,,,,CLR,,,,,,,,VFR,,,,,,,,,,,,METAR,685.0
CZUM 021700Z AUTO 04013KT 010V070 9SM SCT034 08/M02 A3042 RMK SLP321,CZUM,2023-06-02T17:00:00Z,53.55,-64.1,8.0,-2.0,40,13,,9.0,30.41929,1032.1,,TRUE,,,,,,,,SCT,3400,,,,,,,VFR,,,,,,,,,,,,METAR,431.0
CZTB 021700Z AUTO 10010KT 22/16 RMK AO1 SLP223 T02220162 50000,CZTB,2023-06-02T17:00:00Z,48.37,-89.32,22.2,16.2,100,10,,,,1022.3,,TRUE,TRUE,,,,,,,,,,,,,,,,0.0,,,,,,,,,,,METAR,197.0
CZST 021700Z VRB02KT 15SM FEW025 SCT065 OVC090 11/09 A3002 RMK SC1SC3AS4 SLP168,CZST,2023-06-02T17:00:00Z,55.93,-129.98,11.0,9.0,0,2,,15.0,30.02067,1016.8,,,,,,,,,,FEW,2500,SCT,6500,OVC,9000,,,VFR,,,,,,,,,,,,METAR,10.0
CZSP 021700Z AUTO 03009KT 10/07 RMK AO1 SLP164 T00960074 52015,CZSP,2023-06-02T17:00:00Z,46.45,-62.58,9.6,7.4,30,9,,,,1016.4,,TRUE,TRUE,,,,,,,,,,,,,,,,1.5,,,,,,,,,,,METAR,31.0
CZSM 021700Z AUTO 04004KT 19/03 RMK AO1 SLP201 T01910033 50007,CZSM,2023-06-02T17:00:00Z,60.03,-111.93,19.1,3.3,40,4,,,,1020.1,,TRUE,TRUE,,,,,,,,,,,,,,,,0.7,,,,,,,,,,,METAR,203.0
CZSJ 021700Z AUTO 10005KT 060V140 9SM BKN081 22/18 A3010 RMK SLP200 DENSITY ALT 1800FT,CZSJ,2023-06-02T17:00:00Z,53.07,-93.35,22.0,18.0,100,5,,9.0,30.100393,1020.0,,TRUE,,,,,,,,BKN,8100,,,,,,,VFR,,,,,,,,,,,,METAR,286.0
CZPS 021700Z AUTO 33001KT 17/08 RMK AO1 T01670080,CZPS,2023-06-02T17:00:00Z,52.43,-113.6,16.7,8.0,330,1,,,,,,TRUE,TRUE,,,,,,,,,,,,,,,,,,,,,,,,,,,METAR,953.0
CZOL 021700Z AUTO 35003KT 19/07 RMK AO1 T01900074,CZOL,2023-06-02T17:00:00Z,53.65,-113.35,19.0,7.4,350,3,,,,,,TRUE,TRUE,,,,,,,,,,,,,,,,,,,,,,,,,,,METAR,645.0
CZMJ 021700Z AUTO 31004KT 18/16 RMK AO1 0PAST HR 3009 SLP176 P0004 T01840164 50010,CZMJ,2023-06-02T17:00:00Z,50.33,-105.53,18.4,16.4,310,4,,,,1017.6,,TRUE,TRUE,,,,,,,,,,,,,,,,1.0,,,,,0.04,,,,,,METAR,571.0
CZMD 021700Z AUTO 09008KT 9SM FEW100 BKN170 20/13 A3017 RMK SLP223 DENSITY ALT 1400FT,CZMD,2023-06-02T17:00:00Z,53.43,-91.77,20.0,13.0,90,8,,9.0,30.171259,1022.3,,TRUE,,,,,,,,FEW,10000,BKN,17000,,,,,VFR,,,,,,,,,,,,METAR,276.0
CZKD 021700Z AUTO 14006KT 19/12 RMK AO1 SLP200 T01870117 58012,CZKD,2023-06-02T17:00:00Z,56.03,-96.52,18.7,11.7,140,6,,,,1020.0,,TRUE,TRUE,,,,,,,,,,,,,,,,-1.2,,,,,,,,,,,METAR,190.0
CZHY 021700Z AUTO 32003KT 16/M01 RMK AO1 SLP206 T01631006 51004,CZHY,2023-06-02T17:00:00Z,60.83,-115.78,16.3,-0.6,320,3,,,,1020.6,,TRUE,TRUE,,,,,,,,,,,,,,,,0.4,,,,,,,,,,,METAR,159.0
CZFS 021700Z AUTO 17004KT 19/M01 RMK AO1 SLP186 T01881013 58001,CZFS,2023-06-02T17:00:00Z,61.77,-121.23,18.8,-1.3,170,4,,,,1018.6,,TRUE,TRUE,,,,,,,,,,,,,,,,-0.1,,,,,,,,,,,METAR,174.0
CZFM 021700Z 17009KT 130V200 35SM BKN130 BKN240 13/05 A2972 RMK AC6CS1 SLP067,CZFM,2023-06-02T17:00:00Z,67.4,-134.87,13.0,5.0,170,9,,35.0,29.719488,1006.7,,,,,,,,,,BKN,13000,BKN,24000,,,,,VFR,,,,,,,,,,,,METAR,33.0
CZFA 021700Z 10011G16KT 070V130 30SM BKN065 BKN085 BKN180 12/M00 A2990 RMK SC5AC2AC1 SLP146 DENSITY ALT 2600FT,CZFA,2023-06-02T17:00:00Z,62.2,-133.38,12.0,0.0,100,11,16,30.0,29.899607,1014.6,,,,,,,,,,BKN,6500,BKN,8500,BKN,18000,,,VFR,,,,,,,,,,,,METAR,702.0
CZEV 021700Z AUTO 18006KT 14/04 RMK AO1 SLP074 T01370042 56014,CZEV,2023-06-02T17:00:00Z,68.32,-133.48,13.7,4.2,180,6,,,,1007.4,,TRUE,TRUE,,,,,,,,,,,,,,,,-1.4,,,,,,,,,,,METAR,92.0
CZEM 021700Z 10014G19KT 15SM SKC 23/00 A3029 RMK SLP259 DENSITY ALT 600FT,CZEM,2023-06-02T17:00:00Z,52.22,-78.52,23.0,0.0,100,14,19,15.0,30.28937,1025.9,,,,,,,,,,SKC,,,,,,,,VFR,,,,,,,,,,,,METAR,9.0
CZEL 021700Z AUTO 35011G16KT 29/09 RMK AO1 PK WND 32017/1607 SLP179 T02920093 58013,CZEL,2023-06-02T17:00:00Z,43.65,-80.42,29.2,9.3,350,11,16,,,1017.9,,TRUE,TRUE,,,,,,,,,,,,,,,,-1.3,,,,,,,,,,,METAR,370.0
CZDB 021700Z AUTO 36014KT 14/08 RMK AO1 PK WND 00018/1656 SLP153 T01390081 51011,CZDB,2023-06-02T17:00:00Z,45.42,-63.47,13.9,8.1,360,14,,,,1015.3,,TRUE,TRUE,,,,,,,,,,,,,,,,1.1,,,,,,,,,,,METAR,38.0
CZCR 021700Z AUTO 11009KT 10/09 RMK AO1 6PAST HR 0003 SLP205 P0002 T00980092 50013,CZCR,2023-06-02T17:00:00Z,47.98,-66.33,9.8,9.2,110,9,,,,1020.5,,TRUE,TRUE,,,,,,,,,,,,,,,,1.3,,,,,0.02,,,,,,METAR,39.0
CZCP 021700Z AUTO 10013KT ////SM ////// 00/M01 A2993,CZCP,2023-06-02T17:00:00Z,70.17,-124.68,0.0,-1.0,100,13,,,29.929134,,,TRUE,,,,,,,,,,,,,,,,,,,,,,,,,,,,METAR,23.0
CYZY 021700Z AUTO 33004KT 300V050 9SM CLR 14/02 A3001 RMK SLP178 DENSITY ALT 2600FT,CYZY,2023-06-02T17:00:00Z,55.3,-123.13,14.0,2.0,330,4,,9.0,30.008858,1017.8,,TRUE,,,,,,,,CLR,,,,,,,,VFR,,,,,,,,,,,,SPECI,694.0
CYZX 021700Z 05015G20KT 12SM BKN100 18/11 A2996 RMK AC6 DENSITY ALT 566FT SLP147,CYZX,2023-06-02T17:00:00Z,44.98,-64.92,18.0,11.0,50,15,20,12.0,29.958662,1014.7,,,,,,,,,,BKN,10000,,,,,,,VFR,,,,,,,,,,,,SPECI,28.0
CYZW 021700Z 17004KT 140V210 30SM FEW050 FEW090 SCT120 BKN220 08/01 A2997 RMK CU1AC1AC1CI3 SLP170,CYZW,2023-06-02T17:00:00Z,60.17,-132.75,8.0,1.0,170,4,,30.0,29.970472,1017.0,,,,,,,,,,FEW,5000,FEW,9000,SCT,12000,BKN,22000,VFR,,,,,,,,,,,,METAR,700.0
CYZV 021700Z 16012KT 30SM FEW030 SCT047 SCT080 SCT260 10/06 A3027 RMK CU1SC3AC1CI1 CU TR CI TR SLP253,CYZV,2023-06-02T17:00:00Z,50.22,-66.27,10.0,6.0,160,12,,30.0,30.268702,1025.3,,,,,,,,,,FEW,3000,SCT,4700,SCT,8000,SCT,26000,VFR,,,,,,,,,,,,SPECI,43.0
CYZU 021700Z 11004KT 360V150 15SM FEW100 17/05 A3011 RMK AC1 AC TR SLP207 DENSITY ALT 3200FT,CYZU,2023-06-02T17:00:00Z,54.15,-115.78,17.0,5.0,110,4,,15.0,30.109253,1020.7,,,,,,,,,,FEW,10000,,,,,,,VFR,,,,,,,,,,,,METAR,785.0
CYZT 021700Z 07009KT 20SM FEW030 FEW110 SCT170 BKN210 13/09 A3007 RMK CF1AC2AC2CI2 CF TR SLP184,CYZT,2023-06-02T17:00:00Z,50.68,-127.37,13.0,9.0,70,9,,20.0,30.070866,1018.4,,,,,,,,,,FEW,3000,FEW,11000,SCT,17000,BKN,21000,VFR,,,,,,,,,,,,METAR,13.0
CYZS 021700Z 21018KT 15SM OVC130 01/M01 A3039 RMK AS8 SLP299,CYZS,2023-06-02T17:00:00Z,64.2,-83.35,1.0,-1.0,210,18,,15.0,30.389763,1029.9,,,,,,,,,,OVC,13000,,,,,,,VFR,,,,,,,,,,,,METAR,60.0
CYZR 021700Z AUTO 34008KT 9SM CLR 22/14 A3010 RMK SLP193 DENSITY ALT 1400FT,CYZR,2023-06-02T17:00:00Z,43.0,-82.3,22.0,14.0,340,8,,9.0,30.100393,1019.3,,TRUE,,,,,,,,CLR,,,,,,,,VFR,,,,,,,,,,,,METAR,181.0
CYZP 021700Z AUTO 14017G22KT 9SM CLR 12/10 A2991 RMK SLP131,CYZP,2023-06-02T17:00:00Z,53.25,-131.82,12.0,10.0,140,17,22,9.0,29.911417,1013.1,,TRUE,,,,,,,,CLR,,,,,,,,VFR,,,,,,,,,,,,METAR,7.0
CYZH 021700Z AUTO 34005KT 9SM CLR 15/09 A3010 RMK SLP203 DENSITY ALT 2200FT,CYZH,2023-06-02T17:00:00Z,55.28,-114.77,15.0,9.0,340,5,,9.0,30.100393,1020.3,,TRUE,,,,,,,,CLR,,,,,,,,VFR,,,,,,,,,,,,METAR,583.0
CYZG 021700Z 20013KT 15SM FEW062 BKN160 BKN190 05/M02 A3054 RMK SC2AS4CS1 SLP361,CYZG,2023-06-02T17:00:00Z,62.17,-75.67,5.0,-2.0,200,13,,15.0,30.540354,1036.1,,,,,,,,,,FEW,6200,BKN,16000,BKN,19000,,,VFR,,,,,,,,,,,,METAR,217.0
CYZF 021700Z 14008KT 15SM FEW030 FEW160 20/M02 A3010 RMK SC1AC2 SC TR SLP202 DENSITY ALT 1200FT,CYZF,2023-06-02T17:00:00Z,62.47,-114.45,20.0,-2.0,140,8,,15.0,30.100393,1020.2,,,,,,,,,,FEW,3000,FEW,16000,,,,,VFR,,,,,,,,,,,,SPECI,202.0
CYZE 021700Z AUTO 05005KT 9SM CLR 28/13 A3012 RMK SLP200 DENSITY ALT 2000FT,CYZE,2023-06-02T17:00:00Z,45.88,-82.57,28.0,13.0,50,5,,9.0,30.121063,1020.0,,TRUE,,,,,,,,CLR,,,,,,,,VFR,,,,,,,,,,,,METAR,189.0
CYYZ 021700Z 34011G20KT 15SM FEW050 SCT160 BKN220 32/13 A3002 RMK CU1AC3CI4 CU TR CONTRAILS SLP165 DENSITY ALT 2500FT,CYYZ,2023-06-02T17:00:00Z,43.67,-79.62,32.0,13.0,340,11,20,15.0,30.02067,1016.5,,,,,,,,,,FEW,5000,SCT,16000,BKN,22000,,,VFR,,,,,,,,,,,,SPECI,171.0
CYYY 021700Z 05026G33KT 15SM BKN009 OVC030 08/07 A3018 RMK SF6SC2 SLP223,CYYY,2023-06-02T17:00:00Z,48.6,-68.22,8.0,7.0,50,26,33,15.0,30.180119,1022.3,,,,,,,,,,BKN,900,OVC,3000,,,,,IFR,,,,,,,,,,,,METAR,43.0
CYYW 021700Z AUTO 13010G15KT 9SM BKN150 24/16 A3018 RMK SLP212 DENSITY ALT 2100FT,CYYW,2023-06-02T17:00:00Z,50.3,-88.9,24.0,16.0,130,10,15,9.0,30.180119,1021.2,,TRUE,,,,,,,,BKN,15000,,,,,,,VFR,,,,,,,,,,,,METAR,320.0
CYYU 021700Z 09008KT 350V130 15SM FEW140 25/09 A3022 RMK AC1 AC TR SLP236 DENSITY ALT 1800FT,CYYU,2023-06-02T17:00:00Z,49.42,-82.47,25.0,9.0,90,8,,15.0,30.221457,1023.6,,,,,,,,,,FEW,14000,,,,,,,VFR,,,,,,,,,,,,METAR,228.0
CYYT 021700Z 04007KT 1/8SM R16/0800V1000FT/N FG VV001 08/08 A3003 RMK FG8 SLP175,CYYT,2023-06-02T17:00:00Z,47.62,-52.73,8.0,8.0,40,7,,0.13,30.029528,1017.5,,,,,,,,,FG,OVX,0,,,,,,,LIFR,,,,,,,,,,,100,SPECI,128.0
CYYR 021700Z 06014G20KT 15SM OVC031 05/M02 A3047 RMK SC8 DENSITY ALT -1569FT SLP321,CYYR,2023-06-02T17:00:00Z,53.32,-60.42,5.0,-2.0,60,14,20,15.0,30.469488,1032.1,,,,,,,,,,OVC,3100,,,,,,,VFR,,,,,,,,,,,,SPECI,42.0
CYYQ 021700Z 13012KT 15SM FEW040 FEW070 SCT250 15/06 A3019 RMK SC1AC1CI2 SLP228,CYYQ,2023-06-02T17:00:00Z,58.75,-94.07,15.0,6.0,130,12,,15.0,30.188976,1022.8,,,,,,,,,,FEW,4000,FEW,7000,SCT,25000,,,VFR,,,,,,,,,,,,SPECI,20.0
CYYN 021700Z AUTO 36012KT 8SM BKN014 16/13 A3003 RMK SLP173 DENSITY ALT 3400FT,CYYN,2023-06-02T17:00:00Z,50.28,-107.68,16.0,13.0,360,12,,8.0,30.029528,1017.3,,TRUE,,,,,,,,BKN,1400,,,,,,,MVFR,,,,,,,,,,,,METAR,814.0
CYYL 021700Z AUTO 11009KT 9SM OVC013 17/14 A3006 RMK SLP190 DENSITY ALT 1500FT,CYYL,2023-06-02T17:00:00Z,56.87,-101.07,17.0,14.0,110,9,,9.0,30.059055,1019.0,,TRUE,,,,,,,,OVC,1300,,,,,,,MVFR,,,,,,,,,,,,METAR,351.0
CYYJ 021700Z 09006KT 30SM SCT250 16/07 A3009 RMK CI4 SLP192,CYYJ,2023-06-02T17:00:00Z,48.63,-123.42,16.0,7.0,90,6,,30.0,30.088583,1019.2,,,,,,,,,,SCT,25000,,,,,,,VFR,,,,,,,,,,,,SPECI,16.0
CYYG 021700Z 36010G20KT 4SM BR OVC007 09/07 A3001 RMK ST8 SLP165,CYYG,2023-06-02T17:00:00Z,46.28,-63.12,9.0,7.0,360,10,20,4.0,30.008858,1016.5,,,,,,,,,BR,OVC,700,,,,,,,IFR,,,,,,,,,,,,METAR,48.0
CYYF 021700Z 19004KT 15SM FEW075 20/06 A2998 RMK CF1 CF TR SLP154 DENSITY ALT 2000FT,CYYF,2023-06-02T17:00:00Z,49.47,-119.6,20.0,6.0,190,4,,15.0,29.97933,1015.4,,,,,,,,,,FEW,7500,,,,,,,VFR,,,,,,,,,,,,METAR,342.0
CYYE 021700Z 12003KT 350V160 3SM FU OVC018 14/02 A3006 RMK FU8 SLP192,CYYE,2023-06-02T17:00:00Z,58.83,-122.58,14.0,2.0,120,3,,3.0,30.059055,1019.2,,,,,,,,,FU,OVC,1800,,,,,,,MVFR,,,,,,,,,,,,METAR,379.0
CYYD 021700Z VRB02KT 25SM FEW080 SCT110 BKN220 14/04 A3000 RMK CF1AC3CI1 SLP166,CYYD,2023-06-02T17:00:00Z,54.82,-127.18,14.0,4.0,0,2,,25.0,30.0,1016.6,,,,,,,,,,FEW,8000,SCT,11000,BKN,22000,,,VFR,,,,,,,,,,,,METAR,527.0
CYYC 021700Z 02005KT 340V120 20SM SCT035 BKN250 16/06 A3012 RMK SC3CI3 TCU ASOCTD / CONTRAILS SLP213 DENSITY ALT 4300FT,CYYC,2023-06-02T17:00:00Z,51.12,-114.02,16.0,6.0,20,5,,20.0,30.121063,1021.3,,,,,,,,,,SCT,3500,BKN,25000,,,,,VFR,,,,,,,,,,,,SPECI,1085.0
CYYB 021700Z 36007KT 320V050 30SM FEW045 FEW140 BKN280 27/16 A3011 RMK CU1AC2CI5 CU TR SLP193 DENSITY ALT 2700FT,CYYB,2023-06-02T17:00:00Z,46.35,-79.42,27.0,16.0,360,7,,30.0,30.109253,1019.3,,,,,,,,,,FEW,4500,FEW,14000,BKN,28000,,,VFR,,,,,,,,,,,,METAR,360.0
CYXZ 021700Z 03007KT 330V080 15SM FEW040 BKN200 28/17 A3017 RMK CF1CI6 CF TR SLP219 DENSITY ALT 2400FT,CYXZ,2023-06-02T17:00:00Z,47.97,-84.77,28.0,17.0,30,7,,15.0,30.171259,1021.9,,,,,,,,,,FEW,4000,BKN,20000,,,,,VFR,,,,,,,,,,,,METAR,287.0
CYXY 021700Z 15011G16KT 40SM FEW060 SCT100 BKN260 11/M01 A2992 RMK CU1AC2CI4 SLP155,CYXY,2023-06-02T17:00:00Z,60.72,-135.07,11.0,-1.0,150,11,16,40.0,29.920275,1015.5,,,,,,,,,,FEW,6000,SCT,10000,BKN,26000,,,VFR,,,,,,,,,,,,SPECI,677.0
CYXX 021700Z 22006KT 200V290 30SM FEW050 FEW250 16/07 A3010 RMK SC1CI1 SC TR CI TR SLP196,CYXX,2023-06-02T17:00:00Z,49.03,-122.38,16.0,7.0,220,6,,30.0,30.100393,1019.6,,,,,,,,,,FEW,5000,FEW,25000,,,,,VFR,,,,,,,,,,,,SPECI,54.0
CYXU 021700Z 02007KT 340V060 15SM FEW090 BKN230 31/12 A3006 RMK CU2CI4 SLP177 DENSITY ALT 2800FT,CYXU,2023-06-02T17:00:00Z,43.03,-81.15,31.0,12.0,20,7,,15.0,30.059055,1017.7,,,,,,,,,,FEW,9000,BKN,23000,,,,,VFR,,,,,,,,,,,,SPECI,278.0
CYXT 021700Z 22003KT 190V350 20SM FEW030 FEW050 SCT080 BKN120 14/09 A3002 RMK CU1CF1AC3AC4 CU TR CF TR SLP171,CYXT,2023-06-02T17:00:00Z,54.47,-128.57,14.0,9.0,220,3,,20.0,30.02067,1017.1,,,,,,,,,,FEW,3000,FEW,5000,SCT,8000,BKN,12000,VFR,,,,,,,,,,,,METAR,213.0
CYXS 021700Z AUTO 15004KT 060V160 9SM FEW100 BKN120 13/04 A2999 RMK SLP173 DENSITY ALT 2500FT,CYXS,2023-06-02T17:00:00Z,53.88,-122.68,13.0,4.0,150,4,,9.0,29.991142,1017.3,,TRUE,,,,,,,,FEW,10000,BKN,12000,,,,,VFR,,,,,,,,,,,,METAR,685.0
CYXR 021700Z AUTO 01011KT 330V040 9SM CLR 27/15 A3013 RMK SLP206 DENSITY ALT 2200FT,CYXR,2023-06-02T17:00:00Z,47.7,-79.85,27.0,15.0,10,11,,9.0,30.129921,1020.6,,TRUE,,,,,,,,CLR,,,,,,,,VFR,,,,,,,,,,,,METAR,244.0
CYXQ 021700Z 07002KT 30SM FEW100 BKN240 10/M06 A2981 RMK AC1CI6 SLP114,CYXQ,2023-06-02T17:00:00Z,62.42,-140.87,10.0,-6.0,70,2,,30.0,29.811024,1011.4,,,,,,,,,,FEW,10000,BKN,24000,,,,,VFR,,,,,,,,,,,,METAR,663.0
CYXP 021700Z 24011KT 15SM FEW015 BKN210 00/M04 A3043 RMK SC1CS6 SC TR SLP308,CYXP,2023-06-02T17:00:00Z,66.15,-65.72,0.0,-4.0,240,11,,15.0,30.431103,1030.8,,,,,,,,,,FEW,1500,BKN,21000,,,,,VFR,,,,,,,,,,,,METAR,29.0
CYXN 021700Z 19019KT 15SM FEW015 03/M01 A3027 RMK SC1 SC TR SLP253,CYXN,2023-06-02T17:00:00Z,62.23,-92.58,3.0,-1.0,190,19,,15.0,30.268702,1025.3,,,,,,,,,,FEW,1500,,,,,,,VFR,,,,,,,,,,,,METAR,9.0
CYXL 021700Z 16005KT 110V250 15SM FEW090 SCT150 BKN220 26/19 A3013 RMK AC2AC2CI1 ACC ASOCTD SLP205 DENSITY ALT 2600FT,CYXL,2023-06-02T17:00:00Z,50.12,-91.9,26.0,19.0,160,5,,15.0,30.129921,1020.5,,,,,,,,,,FEW,9000,SCT,15000,BKN,22000,,,VFR,,,,,,,,,,,,METAR,381.0
CYXJ 021700Z 17005KT 130V200 60SM BKN100 16/05 A3007 RMK AC7 SLP195 DENSITY ALT 2800FT,CYXJ,2023-06-02T17:00:00Z,56.25,-120.73,16.0,5.0,170,5,,60.0,30.070866,1019.5,,,,,,,,,,BKN,10000,,,,,,,VFR,,,,,,,,,,,,METAR,700.0
CYXH 021700Z 05007KT 350V070 15SM FEW075 OVC270 17/09 A3008 RMK AC1CI7 SLP187 DENSITY ALT 3000FT,CYXH,2023-06-02T17:00:00Z,50.02,-110.72,17.0,9.0,50,7,,15.0,30.079725,1018.7,,,,,,,,,,FEW,7500,OVC,27000,,,,,VFR,,,,,,,,,,,,METAR,717.0
CYXE 021700Z 26007KT 240V310 12SM OVC022 21/15 A2998 RMK SC8 SLP160 DENSITY ALT 2700FT,CYXE,2023-06-02T17:00:00Z,52.17,-106.7,21.0,15.0,260,7,,12.0,29.97933,1016.0,,,,,,,,,,OVC,2200,,,,,,,MVFR,,,,,,,,,,,,METAR,504.0
CYXC 021700Z 09003KT 020V120 25SM FEW070 FEW240 20/07 A3004 RMK CU1CI2 CU TR SLP166 DENSITY ALT 4200FT,CYXC,2023-06-02T17:00:00Z,49.6,-115.78,20.0,7.0,90,3,,25.0,30.041338,1016.6,,,,,,,,,,FEW,7000,FEW,24000,,,,,VFR,,,,,,,,,,,,METAR,928.0
CYWL 021700Z 00000KT 15SM FEW048 BKN110 15/01 A3001 RMK CU2AC3 SLP167 DENSITY ALT 3700FT,CYWL,2023-06-02T17:00:00Z,52.18,-122.07,15.0,1.0,0,0,,15.0,30.008858,1016.7,,,,,,,,,,FEW,4800,BKN,11000,,,,,VFR,,,,,,,,,,,,METAR,942.0
CYWK 021700Z 01011G21KT 15SM FEW035 09/M00 A3038 RMK NS1 SLP311,CYWK,2023-06-02T17:00:00Z,52.92,-66.87,9.0,0.0,10,11,21,15.0,30.380905,1031.1,,,,,,,,,,FEW,3500,,,,,,,VFR,,,,,,,,,,,,SPECI,547.0
CYWJ 021700Z 12006KT 080V150 50SM FEW040 15/04 A2995 RMK CU1 CU TR SLP154,CYWJ,2023-06-02T17:00:00Z,65.22,-123.43,15.0,4.0,120,6,,50.0,29.949802,1015.4,,,,,,,,,,FEW,4000,,,,,,,VFR,,,,,,,,,,,,METAR,208.0
CYWH 021700Z 20009KT 15SM SCT240 12/08 A3011 RMK CI3 SLP197,CYWH,2023-06-02T17:00:00Z,48.42,-123.38,12.0,8.0,200,9,,15.0,30.109253,1019.7,,,,,,,,,,SCT,24000,,,,,,,VFR,,,,,,,,,,,,METAR,4.0
CYWG 021700Z 16008KT 15SM SCT072 SCT100 BKN250 29/17 A2998 RMK CU3AC1CI4 AC TR SLP153 DENSITY ALT 2500FT,CYWG,2023-06-02T17:00:00Z,49.9,-97.23,29.0,17.0,160,8,,15.0,29.97933,1015.3,,,,,,,,,,SCT,7200,SCT,10000,BKN,25000,,,VFR,,,,,,,,,,,,SPECI,238.0
CYWE 021700Z AUTO 23007KT 9SM CLR 16/00 A3010 RMK SLP210,CYWE,2023-06-02T17:00:00Z,64.18,-114.08,16.0,0.0,230,7,,9.0,30.100393,1021.0,,TRUE,,,,,,,,CLR,,,,,,,,VFR,,,,,,,,,,,,METAR,374.0
CYWA 021700Z 02005KT 340V060 8SM BKN100 OVC220 28/18 A3003 RMK AC7CI1 DENSITY ALT 2222FT FU NRN FSTFR SLP168,CYWA,2023-06-02T17:00:00Z,45.95,-77.32,28.0,18.0,20,5,,8.0,30.029528,1016.8,,,,,,,,,,BKN,10000,OVC,22000,,,,,VFR,,,,,,,,,,,,METAR,121.0
CYVV 021700Z 03006KT 15SM FEW100 BKN250 26/16 A3010 RMK AC1CS6 AC TR CC ASOCTD SLP193 DENSITY ALT 2000FT,CYVV,2023-06-02T17:00:00Z,44.75,-81.1,26.0,16.0,30,6,,15.0,30.100393,1019.3,,,,,,,,,,FEW,10000,BKN,25000,,,,,VFR,,,,,,,,,,,,METAR,221.0
CYVT 021700Z AUTO 32003KT 9SM SCT007 OVC023 17/16 A2998 RMK SLP163 DENSITY ALT 1900FT,CYVT,2023-06-02T17:00:00Z,55.83,-108.42,17.0,16.0,320,3,,9.0,29.97933,1016.3,,TRUE,,,,,,,,SCT,700,OVC,2300,,,,,MVFR,,,,,,,,,,,,METAR,438.0
CYVR 021700Z 12009KT 20SM FEW200 FEW220 16/09 A3010 RMK CC1CI1 CC TR SLP196,CYVR,2023-06-02T17:00:00Z,49.17,-123.17,16.0,9.0,120,9,,20.0,30.100393,1019.6,,,,,,,,,,FEW,20000,FEW,22000,,,,,VFR,,,,,,,,,,,,SPECI,2.0
CYVQ 021700Z 13007KT 080V150 30SM SKC 18/02 A2990 RMK SLP130 DENSITY ALT 700FT,CYVQ,2023-06-02T17:00:00Z,65.27,-126.78,18.0,2.0,130,7,,30.0,29.899607,1013.0,,,,,,,,,,SKC,,,,,,,,VFR,,,,,,,,,,,,METAR,63.0
CYVP 021700Z 11007KT 15SM FEW044 08/M02 A3064 RMK CF1 CF TR SLP380,CYVP,2023-06-02T17:00:00Z,58.12,-68.42,8.0,-2.0,110,7,,15.0,30.640747,1038.0,,,,,,,,,,FEW,4400,,,,,,,VFR,,,,,,,,,,,,SPECI,28.0
CYVO 021700Z 02011G20KT 330V040 15SM FEW300 26/10 A3014 RMK CI1 SLP209 DENSITY ALT 2400FT,CYVO,2023-06-02T17:00:00Z,48.07,-77.77,26.0,10.0,20,11,20,15.0,30.138779,1020.9,,,,,,,,,,FEW,30000,,,,,,,VFR,,,,,,,,,,,,METAR,329.0
CYVM 021700Z 21010KT 15SM FEW120 SCT250 00/M04 A3023 RMK AC1CS2 SLP239,CYVM,2023-06-02T17:00:00Z,67.55,-64.02,0.0,-4.0,210,10,,15.0,30.230314,1023.9,,,,,,,,,,FEW,12000,SCT,25000,,,,,VFR,,,,,,,,,,,,METAR,3.0
CYVL 021700Z AUTO 20007KT 170V240 9SM CLR 14/04 A2987 RMK SLP130 DENSITY ALT 1100FT,CYVL,2023-06-02T17:00:00Z,67.02,-126.13,14.0,4.0,200,7,,9.0,29.870079,1013.0,,TRUE,,,,,,,,CLR,,,,,,,,VFR,,,,,,,,,,,,METAR,261.0
CYUY 021700Z 01011G17KT 320V020 15SM FEW220 27/08 A3014 RMK CI1 CI TR SLP208 DENSITY ALT 2400FT,CYUY,2023-06-02T17:00:00Z,48.2,-78.82,27.0,8.0,10,11,17,15.0,30.138779,1020.8,,,,,,,,,,FEW,22000,,,,,,,VFR,,,,,,,,,,,,SPECI,304.0
CYUX 021700Z 23014KT 10SM BKN024 OVC030 01/01 A2999 RMK SC6SC2 SLP158,CYUX,2023-06-02T17:00:00Z,68.77,-81.22,1.0,1.0,230,14,,10.0,29.991142,1015.8,,,,,,,,,,BKN,2400,OVC,3000,,,,,MVFR,,,,,,,,,,,,METAR,8.0
CYUL 021700Z 33006KT 230V010 15SM FEW060TCU FEW250 30/15 A2995 RMK TCU1CI2 TCU TR TCU NW-N SLP143 DENSITY ALT 1900FT,CYUL,2023-06-02T17:00:00Z,45.47,-73.73,30.0,15.0,330,6,,15.0,29.949802,1014.3,,,,,,,,,,FEW,6000,FEW,25000,,,,,VFR,,,,,,,,,,,,SPECI,31.0
CYUB 021700Z 16011KT 15SM BKN094 BKN220 10/03 A2972 RMK AC5CI2 SLP066,CYUB,2023-06-02T17:00:00Z,69.43,-133.02,10.0,3.0,160,11,,15.0,29.719488,1006.6,,,,,,,,,,BKN,9400,BKN,22000,,,,,VFR,,,,,,,,,,,,METAR,5.0
CYTZ 021700Z AUTO 19007KT 9SM CLR 28/17 A3001 RMK SLP163 DENSITY ALT 1800FT,CYTZ,2023-06-02T17:00:00Z,43.63,-79.4,28.0,17.0,190,7,,9.0,30.008858,1016.3,,TRUE,,,,,,,,CLR,,,,,,,,VFR,,,,,,,,,,,,METAR,76.0
CYTS 021700Z 07008KT 340V090 15SM FEW200 26/14 A3020 RMK CI2 SLP229 DENSITY ALT 2200FT,CYTS,2023-06-02T17:00:00Z,48.57,-81.37,26.0,14.0,70,8,,15.0,30.200787,1022.9,,,,,,,,,,FEW,20000,,,,,,,VFR,,,,,,,,,,,,METAR,290.0
CYTR 021700Z 16003KT 120V200 15SM FEW050 FEW160 BKN250 31/16 A2999 RMK CU1AC1CI4 DENSITY ALT 2317FT SLP153,CYTR,2023-06-02T17:00:00Z,44.12,-77.52,31.0,16.0,160,3,,15.0,29.991142,1015.3,,,,,,,,,,FEW,5000,FEW,16000,BKN,25000,,,VFR,,,,,,,,,,,,SPECI,80.0
CYTQ 021700Z VRB03KT 15SM SKC 10/M04 A3061 RMK SLP372,CYTQ,2023-06-02T17:00:00Z,58.67,-69.95,10.0,-4.0,0,3,,15.0,30.611221,1037.2,,,,,,,,,,SKC,,,,,,,,VFR,,,,,,,,,,,,METAR,14.0
CYTL 021700Z AUTO 17010KT 9SM SCT130 21/09 A3021 RMK SLP238 DENSITY ALT 1400FT,CYTL,2023-06-02T17:00:00Z,53.82,-89.88,21.0,9.0,170,10,,9.0,30.209646,1023.8,,TRUE,,,,,,,,SCT,13000,,,,,,,VFR,,,,,,,,,,,,SPECI,218.0
CYTH 021700Z VRB02KT 15SM FEW020 FEW200 19/13 A3008 RMK SC1CC2 SC TR SLP195 DENSITY ALT 1200FT,CYTH,2023-06-02T17:00:00Z,55.8,-97.83,19.0,13.0,0,2,,15.0,30.079725,1019.5,,,,,,,,,,FEW,2000,FEW,20000,,,,,VFR,,,,,,,,,,,,METAR,212.0
CYTE 021700Z AUTO 23022G28KT 9SM CLR 00/M03 A3044 RMK SLP314,CYTE,2023-06-02T17:00:00Z,64.22,-76.52,0.0,-3.0,230,22,28,9.0,30.43996,1031.4,,TRUE,,,,,,,,CLR,,,,,,,,VFR,,,,,,,,,,,,METAR,49.0
CYSP 021700Z 11009G16KT 12SM FEW090 FEW170 SCT180 BKN190 BKN200 26/15 A3018 RMK AC1AC1AC2AC2CI2 HZ TR AC SLP223 DENSITY ALT 2300FT,CYSP,2023-06-02T17:00:00Z,48.75,-86.35,26.0,15.0,110,9,16,12.0,30.180119,1022.3,,,,,,,,,,FEW,9000,FEW,17000,SCT,18000,BKN,19000,VFR,,,,,,,,,,,,METAR,312.0
CYSN 021700Z 33005KT 270V340 15SM FEW050 FEW110 BKN250 29/15 A3001 RMK CF1AC1CI6 CF TR SLP164 DENSITY ALT 1900FT,CYSN,2023-06-02T17:00:00Z,43.2,-79.17,29.0,15.0,330,5,,15.0,30.008858,1016.4,,,,,,,,,,FEW,5000,FEW,11000,BKN,25000,,,VFR,,,,,,,,,,,,METAR,96.0
CYSM 021700Z 03007KT 010V080 6SM FU OVC100 19/03 A3009 RMK FU8AC1 SLP198 DENSITY ALT 1200FT,CYSM,2023-06-02T17:00:00Z,60.03,-111.92,19.0,3.0,30,7,,6.0,30.088583,1019.8,,,,,,,,,FU,OVC,10000,,,,,,,VFR,,,,,,,,,,,,METAR,203.0
CYSK 021700Z 08016KT 15SM FEW140 08/M00 A3051 RMK AS2 SLP337,CYSK,2023-06-02T17:00:00Z,56.53,-79.25,8.0,0.0,80,16,,15.0,30.510826,1033.7,,,,,,,,,,FEW,14000,,,,,,,VFR,,,,,,,,,,,,METAR,28.0
CYSJ 021700Z 02015G21KT 12SM BKN090 BKN140 17/10 A2999 RMK AC5AC2 SLP158 DENSITY ALT 600FT,CYSJ,2023-06-02T17:00:00Z,45.32,-65.88,17.0,10.0,20,15,21,12.0,29.991142,1015.8,,,,,,,,,,BKN,9000,BKN,14000,,,,,VFR,,,,,,,,,,,,SPECI,89.0
CYSC 021700Z AUTO VRB03KT 9SM CLR 28/16 A2996 RMK SLP145 DENSITY ALT 2400FT,CYSC,2023-06-02T17:00:00Z,45.43,-71.68,28.0,16.0,0,3,,9.0,29.958662,1014.5,,TRUE,,,,,,,,CLR,,,,,,,,VFR,,,,,,,,,,,,METAR,236.0
CYSB 021700Z CCA 05009G15KT 20SM FEW050 BKN170 BKN250 27/15 A3014 RMK CU2AC3CI2 SLP204 DENSITY ALT 2600FT,CYSB,2023-06-02T17:00:00Z,46.63,-80.8,27.0,15.0,50,9,15,20.0,30.138779,1020.4,,,,,,,,,,FEW,5000,BKN,17000,BKN,25000,,,VFR,,,,,,,,,,,,METAR,349.0
CYRV 021700Z AUTO 19006KT 9SM CLR 18/09 A2999 RMK SLP159 DENSITY ALT 2100FT,CYRV,2023-06-02T17:00:00Z,50.97,-118.17,18.0,9.0,190,6,,9.0,29.991142,1015.9,,TRUE,,,,,,,,CLR,,,,,,,,VFR,,,,,,,,,,,,METAR,456.0
CYRT 021700Z 18016KT 15SM FEW025 FEW160 BKN260 04/M01 A3027 RMK SC1AC2CI3 SC TR FU ALF SLP254,CYRT,2023-06-02T17:00:00Z,62.82,-92.12,4.0,-1.0,180,16,,15.0,30.268702,1025.4,,,,,,,,,,FEW,2500,FEW,16000,BKN,26000,,,VFR,,,,,,,,,,,,METAR,29.0
CYRQ 021700Z AUTO 07010G15KT 9SM CLR 27/18 A2997 RMK SLP151 DENSITY ALT 1700FT,CYRQ,2023-06-02T17:00:00Z,46.35,-72.68,27.0,18.0,70,10,15,9.0,29.970472,1015.1,,TRUE,,,,,,,,CLR,,,,,,,,VFR,,,,,,,,,,,,METAR,58.0
CYRL 021700Z 13008KT 15SM FEW030 SCT240 26/18 A3009 RMK CU1CI3 CU TR SLP191 DENSITY ALT 2600FT,CYRL,2023-06-02T17:00:00Z,51.07,-93.78,26.0,18.0,130,8,,15.0,30.088583,1019.1,,,,,,,,,,FEW,3000,SCT,24000,,,,,VFR,,,,,,,,,,,,METAR,370.0
CYRJ 021700Z 10008KT 040V140 20SM BKN034 20/14 A3009 RMK SC7 SLP193 DENSITY ALT 1100FT,CYRJ,2023-06-02T17:00:00Z,48.52,-72.27,20.0,14.0,100,8,,20.0,30.088583,1019.3,,,,,,,,,,BKN,3400,,,,,,,VFR,,,,,,,,,,,,METAR,173.0
CYRB 021700Z 11025KT 15SM -FZRA OVC019 M01/M02 A2978 RMK SC8 SLP092,CYRB,2023-06-02T17:00:00Z,74.72,-94.97,-1.0,-2.0,110,25,,15.0,29.778543,1009.2,,,,,,,,,-FZRA,OVC,1900,,,,,,,MVFR,,,,,,,,,,,,SPECI,59.0
CYRA 021700Z 21003KT 080V240 15SM SKC 16/02 A3009 RMK SLP199,CYRA,2023-06-02T17:00:00Z,64.12,-117.32,16.0,2.0,210,3,,15.0,30.088583,1019.9,,,,,,,,,,SKC,,,,,,,,VFR,,,,,,,,,,,,METAR,232.0
CYQZ 021700Z AUTO VRB02KT 9SM SCT120 14/04 A3000 RMK SLP173 DENSITY ALT 2000FT,CYQZ,2023-06-02T17:00:00Z,53.02,-122.52,14.0,4.0,0,2,,9.0,30.0,1017.3,,TRUE,,,,,,,,SCT,12000,,,,,,,VFR,,,,,,,,,,,,METAR,548.0
CYQY 021700Z 13007KT 15SM BKN010 BKN020 OVC080 12/10 A3002 RMK SC5SC2AC1 SLP169,CYQY,2023-06-02T17:00:00Z,46.17,-60.03,12.0,10.0,130,7,,15.0,30.02067,1016.9,,,,,,,,,,BKN,1000,BKN,2000,OVC,8000,,,MVFR,,,,,,,,,,,,SPECI,58.0
CYQW 021700Z AUTO 31008KT 9SM BKN012 OVC031 18/15 A3002 RMK SLP173 DENSITY ALT 2500FT,CYQW,2023-06-02T17:00:00Z,52.77,-108.25,18.0,15.0,310,8,,9.0,30.02067,1017.3,,TRUE,,,,,,,,BKN,1200,OVC,3100,,,,,MVFR,,,,,,,,,,,,METAR,545.0
CYQV 021700Z AUTO 13012G17KT 9SM FEW100 BKN150 23/18 A2998 RMK SLP157 DENSITY ALT 2900FT,CYQV,2023-06-02T17:00:00Z,51.27,-102.47,23.0,18.0,130,12,17,9.0,29.97933,1015.7,,TRUE,,,,,,,,FEW,10000,BKN,15000,,,,,VFR,,,,,,,,,,,,METAR,493.0
CYQU 021700Z 10012G19KT 25SM FEW180 19/06 A3006 RMK AC2 SLP189 DENSITY ALT 3000FT,CYQU,2023-06-02T17:00:00Z,55.18,-118.88,19.0,6.0,100,12,19,25.0,30.059055,1018.9,,,,,,,,,,FEW,18000,,,,,,,VFR,,,,,,,,,,,,METAR,668.0
CYQT 021700Z 09011KT 15SM FEW030 BKN270 23/16 A3017 RMK SC1CI4 SLP221 DENSITY ALT 1500FT,CYQT,2023-06-02T17:00:00Z,48.37,-89.32,23.0,16.0,90,11,,15.0,30.171259,1022.1,,,,,,,,,,FEW,3000,BKN,27000,,,,,VFR,,,,,,,,,,,,METAR,197.0
CYQR 021700Z 34006KT 10SM FEW020 OVC095 18/16 A3002 RMK SC2AC6 SLP172 DENSITY ALT 2600FT,CYQR,2023-06-02T17:00:00Z,50.43,-104.67,18.0,16.0,340,6,,10.0,30.02067,1017.2,,,,,,,,,,FEW,2000,OVC,9500,,,,,VFR,,,,,,,,,,,,METAR,576.0
CYQQ 021700Z 06003KT 20SM FEW035 FEW060 SCT250 16/08 A3008 RMK CU1SC1CI4 DENSITY ALT 143FT SLP188,CYQQ,2023-06-02T17:00:00Z,49.72,-124.9,16.0,8.0,60,3,,20.0,30.079725,1018.8,,,,,,,,,,FEW,3500,FEW,6000,SCT,25000,,,VFR,,,,,,,,,,,,SPECI,24.0
CYQL 021700Z VRB04KT 15SM FEW020 OVC030 14/08 A3012 RMK SC1SC7 SLP208 DENSITY ALT 3500FT,CYQL,2023-06-02T17:00:00Z,49.63,-112.8,14.0,8.0,0,4,,15.0,30.121063,1020.8,,,,,,,,,,FEW,2000,OVC,3000,,,,,MVFR,,,,,,,,,,,,METAR,923.0
CYQK 021700Z 13008KT 070V200 20SM FEW070 FEW120 SCT250 27/18 A3007 RMK AC1AC1CI3 AC TR SLP184 DENSITY ALT 2900FT,CYQK,2023-06-02T17:00:00Z,49.78,-94.37,27.0,18.0,130,8,,20.0,30.070866,1018.4,,,,,,,,,,FEW,7000,FEW,12000,SCT,25000,,,VFR,,,,,,,,,,,,METAR,413.0
CYQI 021700Z 28008KT 12SM FEW020 FEW100 SCT250 18/13 A2989 RMK SC1AC1CI2 SC TR HAZY SLP125 DENSITY ALT 600FT,CYQI,2023-06-02T17:00:00Z,43.83,-66.08,18.0,13.0,280,8,,12.0,29.890747,1012.5,,,,,,,,,,FEW,2000,FEW,10000,SCT,25000,,,VFR,,,,,,,,,,,,METAR,37.0
CYQH 021700Z 13007KT 40SM FEW020 OVC240 13/M01 A3001 RMK CU1CI7 SLP177 DENSITY ALT 2500FT,CYQH,2023-06-02T17:00:00Z,60.12,-128.82,13.0,-1.0,130,7,,40.0,30.008858,1017.7,,,,,,,,,,FEW,2000,OVC,24000,,,,,VFR,,,,,,,,,,,,METAR,692.0
CYQG 021700Z AUTO 04010G15KT 020V080 9SM CLR 29/13 A3009 RMK SLP188 DENSITY ALT 2200FT,CYQG,2023-06-02T17:00:00Z,42.27,-82.97,29.0,13.0,40,10,15,9.0,30.088583,1018.8,,TRUE,,,,,,,,CLR,,,,,,,,VFR,,,,,,,,,,,,SPECI,189.0
CYQF 021700Z AUTO VRB03KT 9SM CLR 16/07 A3012 RMK SLP214 DENSITY ALT 3600FT,CYQF,2023-06-02T17:00:00Z,52.17,-113.9,16.0,7.0,0,3,,9.0,30.121063,1021.4,,TRUE,,,,,,,,CLR,,,,,,,,VFR,,,,,,,,,,,,METAR,912.0
CYQD 021700Z AUTO 12008KT 9SM OVC010 18/15 A3003 RMK SLP174 DENSITY ALT 1400FT,CYQD,2023-06-02T17:00:00Z,53.97,-101.08,18.0,15.0,120,8,,9.0,30.029528,1017.4,,TRUE,,,,,,,,OVC,1000,,,,,,,MVFR,,,,,,,,,,,,METAR,268.0
CYQB 021700Z 08017G22KT 15SM FEW019 SCT078 BKN120 BKN240 16/11 A3005 RMK CF1AC3AC3CI1 CF TR TCU EMBD HAZY SLP179,CYQB,2023-06-02T17:00:00Z,46.78,-71.38,16.0,11.0,80,17,22,15.0,30.050198,1017.9,,,,,,,,,,FEW,1900,SCT,7800,BKN,12000,BKN,24000,VFR,,,,,,,,,,,,SPECI,73.0
CYQA 021700Z AUTO 30009KT 220V310 9SM CLR 28/18 A3006 RMK SLP179 DENSITY ALT 2500FT,CYQA,2023-06-02T17:00:00Z,44.97,-79.3,28.0,18.0,300,9,,9.0,30.059055,1017.9,,TRUE,,,,,,,,CLR,,,,,,,,VFR,,,,,,,,,,,,METAR,277.0
CYPX 021700Z AUTO VRB03KT 9SM CLR 11/M04 A3059 RMK SLP363,CYPX,2023-06-02T17:00:00Z,60.03,-77.27,11.0,-4.0,0,3,,9.0,30.590551,1036.3,,TRUE,,,,,,,,CLR,,,,,,,,VFR,,,,,,,,,,,,METAR,10.0
CYPW 021700Z 13006KT 110V180 30SM FEW030 FEW250 17/09 A3009 RMK CU1CI1 CU TR CI TR CONTRAILS SLP192,CYPW,2023-06-02T17:00:00Z,49.83,-124.5,17.0,9.0,130,6,,30.0,30.088583,1019.2,,,,,,,,,,FEW,3000,FEW,25000,,,,,VFR,,,,,,,,,,,,METAR,122.0
CYPQ 021700Z AUTO 01010KT 9SM CLR 28/15 A3002 RMK SLP166 DENSITY ALT 2200FT,CYPQ,2023-06-02T17:00:00Z,44.22,-78.37,28.0,15.0,10,10,,9.0,30.02067,1016.6,,TRUE,,,,,,,,CLR,,,,,,,,VFR,,,,,,,,,,,,METAR,190.0
CYPO 021700Z AUTO 10009KT 050V140 9SM CLR 18/04 A3035 RMK SLP281,CYPO,2023-06-02T17:00:00Z,54.98,-85.43,18.0,4.0,100,9,,9.0,30.351377,1028.1,,TRUE,,,,,,,,CLR,,,,,,,,VFR,,,,,,,,,,,,METAR,49.0
CYPH 021700Z AUTO 22010KT 9SM CLR 12/M02 A3055 RMK SLP350,CYPH,2023-06-02T17:00:00Z,58.47,-78.08,12.0,-2.0,220,10,,9.0,30.549213,1035.0,,TRUE,,,,,,,,CLR,,,,,,,,VFR,,,,,,,,,,,,METAR,24.0
CYPG 021700Z 16005KT 130V190 15SM FEW080 BKN280 28/18 A2998 RMK ACC2CI5 DENSITY ALT 2881FT CONTRAILS SLP147,CYPG,2023-06-02T17:00:00Z,49.9,-98.28,28.0,18.0,160,5,,15.0,29.97933,1014.7,,,,,,,,,,FEW,8000,BKN,28000,,,,,VFR,,,,,,,,,,,,METAR,270.0
CYPE 021700Z 07003KT 020V140 15SM SKC 19/01 A3010 RMK SLP203 DENSITY ALT 2600FT,CYPE,2023-06-02T17:00:00Z,56.22,-117.45,19.0,1.0,70,3,,15.0,30.100393,1020.3,,,,,,,,,,SKC,,,,,,,,VFR,,,,,,,,,,,,METAR,572.0
CYPD 021700Z AUTO 14008G17KT 100V190 9SM CLR 17/05 A2998 RMK SLP155 DENSITY ALT 600FT,CYPD,2023-06-02T17:00:00Z,45.67,-61.37,17.0,5.0,140,8,17,9.0,29.97933,1015.5,,TRUE,,,,,,,,CLR,,,,,,,,VFR,,,,,,,,,,,,METAR,106.0
CYPC 021700Z 17011G16KT 15SM FEW100 BKN140 11/04 A2993 RMK AC2AC3 SLP136,CYPC,2023-06-02T17:00:00Z,69.37,-124.07,11.0,4.0,170,11,16,15.0,29.929134,1013.6,,,,,,,,,,FEW,10000,BKN,14000,,,,,VFR,,,,,,,,,,,,METAR,5.0
CYPA 021700Z VRB04KT 8SM BKN020 BKN270 21/17 A2998 RMK SC5CI2 SLP159 DENSITY ALT 2400FT,CYPA,2023-06-02T17:00:00Z,53.22,-105.67,21.0,17.0,0,4,,8.0,29.97933,1015.9,,,,,,,,,,BKN,2000,BKN,27000,,,,,MVFR,,,,,,,,,,,,METAR,428.0
CYOY 021700Z 13011KT 15SM FEW040 BKN100 17/11 A3005 RMK CF1AC5 DENSITY ALT 956FT CVCTV CLD EMBD HAZY SLP177,CYOY,2023-06-02T17:00:00Z,46.88,-71.5,17.0,11.0,130,11,,15.0,30.050198,1017.7,,,,,,,,,,FEW,4000,BKN,10000,,,,,VFR,,,,,,,,,,,,METAR,167.0
CYOW 021700Z 33011G16KT 280V020 15SM FEW065 BKN250 32/12 A2999 RMK CU1CI5 CU TR SLP156 DENSITY ALT 2300FT,CYOW,2023-06-02T17:00:00Z,45.32,-75.67,32.0,12.0,330,11,16,15.0,29.991142,1015.6,,,,,,,,,,FEW,6500,BKN,25000,,,,,VFR,,,,,,,,,,,,SPECI,111.0
CYOO 021700Z AUTO 33012G18KT 310V030 9SM SCT140 30/16 A3001 RMK SLP162 DENSITY ALT 2300FT,CYOO,2023-06-02T17:00:00Z,43.92,-78.9,30.0,16.0,330,12,18,9.0,30.008858,1016.2,,TRUE,,,,,,,,SCT,14000,,,,,,,VFR,,,,,,,,,,,,METAR,136.0
CYOJ 021700Z 12004KT 080V190 15SM FEW076 20/M00 A3010 RMK CF1 CF TR FU SLP202 DENSITY ALT 1800FT,CYOJ,2023-06-02T17:00:00Z,58.62,-117.17,20.0,0.0,120,4,,15.0,30.100393,1020.2,,,,,,,,,,FEW,7600,,,,,,,VFR,,,,,,,,,,,,METAR,339.0
CYOD 021700Z 34008KT 3SM FU OVC012 15/13 A3003 RMK SC8 DENSITY ALT 2288FT SLP177,CYOD,2023-06-02T17:00:00Z,54.4,-110.28,15.0,13.0,340,8,,3.0,30.029528,1017.7,,,,,,,,,FU,OVC,1200,,,,,,,MVFR,,,,,,,,,,,,METAR,540.0
CYNM 021700Z AUTO 04009KT 360V090 9SM CLR 24/02 A3020 RMK SLP230 DENSITY ALT 1900FT,CYNM,2023-06-02T17:00:00Z,49.77,-77.78,24.0,2.0,40,9,,9.0,30.200787,1023.0,,TRUE,,,,,,,,CLR,,,,,,,,VFR,,,,,,,,,,,,METAR,276.0
CYNE 021700Z AUTO 35004KT 310V030 9SM CLR 23/16 A3005 RMK SLP182 DENSITY ALT 1700FT,CYNE,2023-06-02T17:00:00Z,53.97,-97.83,23.0,16.0,350,4,,9.0,30.050198,1018.2,,TRUE,,,,,,,,CLR,,,,,,,,VFR,,,,,,,,,,,,METAR,220.0
CYND 021700Z 35009KT 280V020 15SM FEW065 BKN240 32/16 A2997 RMK SC1CI7 SC TR SLP150 DENSITY ALT 2100FT,CYND,2023-06-02T17:00:00Z,45.52,-75.57,32.0,16.0,350,9,,15.0,29.970472,1015.0,,,,,,,,,,FEW,6500,BKN,24000,,,,,VFR,,,,,,,,,,,,METAR,57.0
CYNA 021700Z AUTO 05018G24KT 9SM OVC027 09/01 A3025 RMK SLP245,CYNA,2023-06-02T17:00:00Z,50.18,-61.78,9.0,1.0,50,18,24,9.0,30.250984,1024.5,,TRUE,,,,,,,,OVC,2700,,,,,,,MVFR,,,,,,,,,,,,METAR,9.0
CYMX 021700Z 11003KT 45SM FEW040 SCT250 29/18 A2996 RMK CU1CI2 SLP147 DENSITY ALT 2000FT,CYMX,2023-06-02T17:00:00Z,45.67,-74.03,29.0,18.0,110,3,,45.0,29.958662,1014.7,,,,,,,,,,FEW,4000,SCT,25000,,,,,VFR,,,,,,,,,,,,SPECI,78.0
CYMU 021700Z 08016G21KT 15SM FEW240 16/M04 A3051 RMK CI2 SLP336,CYMU,2023-06-02T17:00:00Z,56.53,-76.52,16.0,-4.0,80,16,21,15.0,30.510826,1033.6,,,,,,,,,,FEW,24000,,,,,,,VFR,,,,,,,,,,,,METAR,69.0
CYMT 021700Z AUTO 35014G21KT 9SM CLR 21/05 A3017 RMK SLP222 DENSITY ALT 2100FT,CYMT,2023-06-02T17:00:00Z,49.77,-74.52,21.0,5.0,350,14,21,9.0,30.171259,1022.2,,TRUE,,,,,,,,CLR,,,,,,,,VFR,,,,,,,,,,,,METAR,388.0
CYMO 021700Z AUTO 04010G16KT 010V070 9SM CLR 19/05 A3028 RMK SLP257,CYMO,2023-06-02T17:00:00Z,51.28,-80.62,19.0,5.0,40,10,16,9.0,30.280512,1025.7,,TRUE,,,,,,,,CLR,,,,,,,,VFR,,,,,,,,,,,,METAR,8.0
CYMM 021700Z AUTO 31003KT 240V340 3SM HZ CLR 19/11 A3006 RMK SLP187 DENSITY ALT 1800FT,CYMM,2023-06-02T17:00:00Z,56.65,-111.22,19.0,11.0,310,3,,3.0,30.059055,1018.7,,TRUE,,,,,,,HZ,CLR,,,,,,,,MVFR,,,,,,,,,,,,METAR,371.0
CYMA 021700Z VRB02KT 20SM FEW060 SCT220 11/M02 A2985 RMK CU2CI2 SLP128,CYMA,2023-06-02T17:00:00Z,63.62,-135.87,11.0,-2.0,0,2,,20.0,29.84941,1012.8,,,,,,,,,,FEW,6000,SCT,22000,,,,,VFR,,,,,,,,,,,,METAR,519.0
CYLW 021700Z AUTO 16004KT 090V230 9SM CLR 20/06 A2999 RMK SLP156 DENSITY ALT 2300FT,CYLW,2023-06-02T17:00:00Z,49.95,-119.37,20.0,6.0,160,4,,9.0,29.991142,1015.6,,TRUE,,,,,,,,CLR,,,,,,,,VFR,,,,,,,,,,,,METAR,420.0
CYLT 021700Z 08007KT 10SM FEW200 M03/M05 A3006 RMK CI2 SLP181,CYLT,2023-06-02T17:00:00Z,82.52,-62.32,-3.0,-5.0,80,7,,10.0,30.059055,1018.1,,,,,,,,,,FEW,20000,,,,,,,VFR,,,,,,,,,,,,METAR,9.0
CYLL 021700Z 33008G17KT 10SM BKN021 17/12 A3003 RMK SC7 CU SLP180 DENSITY ALT 2900FT,CYLL,2023-06-02T17:00:00Z,53.32,-110.07,17.0,12.0,330,8,17,10.0,30.029528,1018.0,,,,,,,,,,BKN,2100,,,,,,,MVFR,,,,,,,,,,,,METAR,664.0
CYLK 021700Z 04003KT 15SM SCT090 BKN180 BKN240 14/02 A3012 RMK AC3AC2CI1 FU SLP211,CYLK,2023-06-02T17:00:00Z,62.42,-110.67,14.0,2.0,40,3,,15.0,30.121063,1021.1,,,,,,,,,,SCT,9000,BKN,18000,BKN,24000,,,VFR,,,,,,,,,,,,METAR,183.0
CYLJ 021700Z 30008KT 9SM FEW013 OVC027 18/15 A2998 RMK CF2SC6 HZ SLP163 DENSITY ALT 2200FT,CYLJ,2023-06-02T17:00:00Z,54.12,-108.52,18.0,15.0,300,8,,9.0,29.97933,1016.3,,,,,,,,,,FEW,1300,OVC,2700,,,,,MVFR,,,,,,,,,,,,METAR,481.0
CYLH 021700Z AUTO 07010KT 9SM CLR 21/09 A3024 RMK SLP247 DENSITY ALT 1500FT,CYLH,2023-06-02T17:00:00Z,52.2,-87.93,21.0,9.0,70,10,,9.0,30.239174,1024.7,,TRUE,,,,,,,,CLR,,,,,,,,VFR,,,,,,,,,,,,METAR,245.0
CYLD 021700Z 08007KT 040V130 15SM FEW070 SCT230 26/15 A3020 RMK AC2CI2 SLP232 DENSITY ALT 2800FT,CYLD,2023-06-02T17:00:00Z,47.82,-83.35,26.0,15.0,80,7,,15.0,30.200787,1023.2,,,,,,,,,,FEW,7000,SCT,23000,,,,,VFR,,,,,,,,,,,,METAR,449.0
CYLC 021700Z 30008KT 15SM SCT150 04/M02 A3055 RMK AS3 SLP352,CYLC,2023-06-02T17:00:00Z,62.85,-69.87,4.0,-2.0,300,8,,15.0,30.549213,1035.2,,,,,,,,,,SCT,15000,,,,,,,VFR,,,,,,,,,,,,METAR,52.0
CYLA 021700Z VRB04KT 15SM SCT080 07/M04 A3062 RMK AS4 SLP373,CYLA,2023-06-02T17:00:00Z,59.3,-69.58,7.0,-4.0,0,4,,15.0,30.620079,1037.3,,,,,,,,,,SCT,8000,,,,,,,VFR,,,,,,,,,,,,METAR,35.0
CYKY 021700Z 33011G18KT 12SM FEW019 SCT180 BKN220 17/12 A3004 RMK CU1AC3CI3 CU TR SLP176 DENSITY ALT 3000FT,CYKY,2023-06-02T17:00:00Z,51.52,-109.17,17.0,12.0,330,11,18,12.0,30.041338,1017.6,,,,,,,,,,FEW,1900,SCT,18000,BKN,22000,,,VFR,,,,,,,,,,,,METAR,692.0
CYKQ 021700Z 08005G18KT 030V160 15SM FEW170 24/02 A3025 RMK AS1 AS TR SLP245 DENSITY ALT 800FT,CYKQ,2023-06-02T17:00:00Z,51.47,-78.75,24.0,2.0,80,5,18,15.0,30.250984,1024.5,,,,,,,,,,FEW,17000,,,,,,,VFR,,,,,,,,,,,,METAR,28.0
CYKP 021700Z AUTO 09007KT 060V170 9SM CLR 21/03 A3028 RMK SLP252 DENSITY ALT 1100FT,CYKP,2023-06-02T17:00:00Z,51.67,-85.9,21.0,3.0,90,7,,9.0,30.280512,1025.2,,TRUE,,,,,,,,CLR,,,,,,,,VFR,,,,,,,,,,,,METAR,181.0
CYKL 021700Z AUTO 05008G15KT 330V090 9SM FEW240 08/M02 A3046 RMK SLP344,CYKL,2023-06-02T17:00:00Z,54.8,-66.8,8.0,-2.0,50,8,15,9.0,30.46063,1034.4,,TRUE,,,,,,,,FEW,24000,,,,,,,VFR,,,,,,,,,,,,SPECI,507.0
CYKF 021700Z AUTO 33010G16KT 9SM CLR 30/11 A3006 RMK SLP176 DENSITY ALT 2900FT,CYKF,2023-06-02T17:00:00Z,43.47,-80.38,30.0,11.0,330,10,16,9.0,30.059055,1017.6,,TRUE,,,,,,,,CLR,,,,,,,,VFR,,,,,,,,,,,,METAR,312.0
CYKA 021700Z 16004KT 40SM FEW070 FEW110 19/04 A2999 RMK CU1AC1 CU TR AC TR SLP157 DENSITY ALT 1800FT,CYKA,2023-06-02T17:00:00Z,50.7,-120.45,19.0,4.0,160,4,,40.0,29.991142,1015.7,,,,,,,,,,FEW,7000,FEW,11000,,,,,VFR,,,,,,,,,,,,METAR,344.0
CYJT 021700Z 07016KT 12SM -RA FEW009 BKN023 OVC030 07/05 A3011 RMK SF1SC5SC3 SF TR SLP199,CYJT,2023-06-02T17:00:00Z,48.55,-58.57,7.0,5.0,70,16,,12.0,30.109253,1019.9,,,,,,,,,-RA,FEW,900,BKN,2300,OVC,3000,,,MVFR,,,,,,,,,,,,SPECI,7.0
CYJF 021700Z VRB02KT 15SM FEW120 FEW230 17/01 A3007 RMK AC1CI1 AC TR SLP188 DENSITY ALT 1000FT,CYJF,2023-06-02T17:00:00Z,60.23,-123.47,17.0,1.0,0,2,,15.0,30.070866,1018.8,,,,,,,,,,FEW,12000,FEW,23000,,,,,VFR,,,,,,,,,,,,METAR,215.0
CYIV 021700Z AUTO 12007KT 9SM CLR 22/17 A3008 RMK SLP194 DENSITY ALT 1600FT,CYIV,2023-06-02T17:00:00Z,53.85,-94.65,22.0,17.0,120,7,,9.0,30.079725,1019.4,,TRUE,,,,,,,,CLR,,,,,,,,VFR,,,,,,,,,,,,METAR,234.0
CYIO 021700Z 29003KT 280V350 40SM FEW023 FEW032 BKN055 BKN082 00/M03 A3002 RMK SC1SC1SC3AC2 SLP175,CYIO,2023-06-02T17:00:00Z,72.68,-77.97,0.0,-3.0,290,3,,40.0,30.02067,1017.5,,,,,,,,,,FEW,2300,FEW,3200,BKN,5500,BKN,8200,VFR,,,,,,,,,,,,METAR,61.0
CYIN 021700Z AUTO VRB03KT 9SM CLR 17/02 A3001 RMK SLP161 DENSITY ALT 4700FT,CYIN,2023-06-02T17:00:00Z,51.27,-121.68,17.0,2.0,0,3,,9.0,30.008858,1016.1,,TRUE,,,,,,,,CLR,,,,,,,,VFR,,,,,,,,,,,,METAR,1127.0
CYIK 021700Z 20016KT 15SM FEW170 OVC230 04/M03 A3055 RMK AC2CS6 SLP351,CYIK,2023-06-02T17:00:00Z,62.42,-77.93,4.0,-3.0,200,16,,15.0,30.549213,1035.1,,,,,,,,,,FEW,17000,OVC,23000,,,,,VFR,,,,,,,,,,,,METAR,44.0
CYHU 021700Z AUTO 31006KT 9SM CLR 30/15 A2994 RMK SLP141 DENSITY ALT 1900FT,CYHU,2023-06-02T17:00:00Z,45.52,-73.42,30.0,15.0,310,6,,9.0,29.940945,1014.1,,TRUE,,,,,,,,CLR,,,,,,,,VFR,,,,,,,,,,,,METAR,26.0
CYHM 021700Z 35004KT 290V060 15SM FEW065 BKN260 30/14 A3004 RMK CU1CI5 SLP171 DENSITY ALT 2600FT,CYHM,2023-06-02T17:00:00Z,43.17,-79.93,30.0,14.0,350,4,,15.0,30.041338,1017.1,,,,,,,,,,FEW,6500,BKN,26000,,,,,VFR,,,,,,,,,,,,METAR,237.0
CYHK 021700Z 23011KT 0SM FG VV002 02/02 A2992 RMK FG8 SLP139,CYHK,2023-06-02T17:00:00Z,68.62,-95.85,2.0,2.0,230,11,,0.0,29.920275,1013.9,,,,,,,,,FG,OVX,0,,,,,,,LIFR,,,,,,,,,,,200,METAR,36.0
CYHE 021700Z AUTO 26011KT 9SM CLR 18/10 A3007 RMK SLP184 DENSITY ALT 400FT,CYHE,2023-06-02T17:00:00Z,49.37,-121.5,18.0,10.0,260,11,,9.0,30.070866,1018.4,,TRUE,,,,,,,,CLR,,,,,,,,VFR,,,,,,,,,,,,METAR,43.0
CYHD 021700Z AUTO VRB02KT 9SM BKN130 24/20 A3011 RMK SLP201 DENSITY ALT 2600FT,CYHD,2023-06-02T17:00:00Z,49.82,-92.75,24.0,20.0,0,2,,9.0,30.109253,1020.1,,TRUE,,,,,,,,BKN,13000,,,,,,,VFR,,,,,,,,,,,,METAR,414.0
CYHA 021700Z 34007KT 15SM FEW010 SCT270 00/M03 A3061 RMK ST1CI3 ST TR SLP370,CYHA,2023-06-02T17:00:00Z,61.03,-69.62,0.0,-3.0,340,7,,15.0,30.611221,1037.0,,,,,,,,,,FEW,1000,SCT,27000,,,,,VFR,,,,,,,,,,,,METAR,31.0
CYGX 021700Z 05006KT 340V100 15SM FEW045 FEW220 BKN250 19/10 A3012 RMK SC1CI2CS5 SC TR SLP205 DENSITY ALT 800FT,CYGX,2023-06-02T17:00:00Z,56.35,-94.7,19.0,10.0,50,6,,15.0,30.121063,1020.5,,,,,,,,,,FEW,4500,FEW,22000,BKN,25000,,,VFR,,,,,,,,,,,,METAR,145.0
CYGW 021700Z AUTO 36009KT 330V030 9SM CLR 16/01 A3044 RMK SLP312,CYGW,2023-06-02T17:00:00Z,55.27,-77.77,16.0,1.0,360,9,,9.0,30.43996,1031.2,,TRUE,,,,,,,,CLR,,,,,,,,VFR,,,,,,,,,,,,METAR,13.0
CYGV 021700Z AUTO 06012G19KT 9SM OVC036 11/02 A3025 RMK SLP248,CYGV,2023-06-02T17:00:00Z,50.28,-63.62,11.0,2.0,60,12,19,9.0,30.250984,1024.8,,TRUE,,,,,,,,OVC,3600,,,,,,,VFR,,,,,,,,,,,,METAR,32.0
CYGT 021700Z 23011KT 15SM SCT022 BKN031 OVC039 01/M00 A2995 RMK SC3SC4SC1 SLP148,CYGT,2023-06-02T17:00:00Z,69.37,-81.82,1.0,0.0,230,11,,15.0,29.949802,1014.8,,,,,,,,,,SCT,2200,BKN,3100,OVC,3900,,,VFR,,,,,,,,,,,,METAR,49.0
CYGR 021700Z 04020G25KT 12SM FEW190 BKN280 12/08 A3006 RMK AC1CI5 SLP182,CYGR,2023-06-02T17:00:00Z,47.42,-61.77,12.0,8.0,40,20,25,12.0,30.059055,1018.2,,,,,,,,,,FEW,19000,BKN,28000,,,,,VFR,,,,,,,,,,,,METAR,4.0
CYGL 021700Z 08017G25KT 15SM FEW240 16/M03 A3040 RMK CI2 SLP305,CYGL,2023-06-02T17:00:00Z,53.62,-77.7,16.0,-3.0,80,17,25,15.0,30.398623,1030.5,,,,,,,,,,FEW,24000,,,,,,,VFR,,,,,,,,,,,,SPECI,192.0
CYGK 021700Z 17006KT 15SM FEW150 BKN250 25/18 A3000 RMK AC2CI4 SLP160 DENSITY ALT 1400FT,CYGK,2023-06-02T17:00:00Z,44.22,-76.58,25.0,18.0,170,6,,15.0,30.0,1016.0,,,,,,,,,,FEW,15000,BKN,25000,,,,,VFR,,,,,,,,,,,,METAR,91.0
CYGH 021700Z 19012KT 150V210 25SM FEW200 18/M02 A2984 RMK CI1 CI TR SLP110 DENSITY ALT 800FT,CYGH,2023-06-02T17:00:00Z,66.23,-128.63,18.0,-2.0,190,12,,25.0,29.840551,1011.0,,,,,,,,,,FEW,20000,,,,,,,VFR,,,,,,,,,,,,METAR,72.0
CYGE 021700Z VRB02KT 20SM SCT110 17/08 A3005 RMK AC3 SLP180 DENSITY ALT 3300FT,CYGE,2023-06-02T17:00:00Z,51.3,-116.98,17.0,8.0,0,2,,20.0,30.050198,1018.0,,,,,,,,,,SCT,11000,,,,,,,VFR,,,,,,,,,,,,METAR,786.0
CYFT 021700Z 35007KT 15SM BKN010 01/M02 A3053 RMK ST7 SLP347,CYFT,2023-06-02T17:00:00Z,55.07,-59.18,1.0,-2.0,350,7,,15.0,30.528543,1034.7,,,,,,,,,,BKN,1000,,,,,,,MVFR,,,,,,,,,,,,SPECI,65.0
CYFS 021700Z 20003KT 140V250 15SM FEW250 19/M01 A3006 RMK CI1 CI TR SLP187 DENSITY ALT 1000FT,CYFS,2023-06-02T17:00:00Z,61.75,-121.22,19.0,-1.0,200,3,,15.0,30.059055,1018.7,,,,,,,,,,FEW,25000,,,,,,,VFR,,,,,,,,,,,,METAR,174.0
CYFR 021700Z 35005KT 1 1/2SM FU VV040 12/02 A3013 RMK FU8 SLP212,CYFR,2023-06-02T17:00:00Z,61.17,-113.68,12.0,2.0,350,5,,1.5,30.129921,1021.2,,,,,,,,,FU,OVX,0,,,,,,,LIFR,,,,,,,,,,,4000,METAR,159.0
CYFO 021700Z 16006KT 130V190 15SM FEW016 FEW060 BKN110 19/15 A3002 RMK SF1SC2AC4 SF TR SLP174 DENSITY ALT 1600FT,CYFO,2023-06-02T17:00:00Z,54.67,-101.67,19.0,15.0,160,6,,15.0,30.02067,1017.4,,,,,,,,,,FEW,1600,FEW,6000,BKN,11000,,,VFR,,,,,,,,,,,,METAR,303.0
CYFC 021700Z AUTO 02013G23KT 9SM BKN091 BKN120 16/09 A3004 RMK SLP175,CYFC,2023-06-02T17:00:00Z,45.87,-66.53,16.0,9.0,20,13,23,9.0,30.041338,1017.5,,TRUE,,,,,,,,BKN,9100,BKN,12000,,,,,VFR,,,,,,,,,,,,SPECI,16.0
CYFB 021700Z 33009KT 30SM FEW018 FEW100 SCT250 03/M03 A3053 RMK SC1AC1CI4 SC TR AC TR SLP344,CYFB,2023-06-02T17:00:00Z,63.75,-68.55,3.0,-3.0,330,9,,30.0,30.528543,1034.4,,,,,,,,,,FEW,1800,FEW,10000,SCT,25000,,,VFR,,,,,,,,,,,,SPECI,23.0
CYEV 021700Z 20011KT 15SM SCT140 BKN260 14/04 A2972 RMK AC4CI2 SLP069,CYEV,2023-06-02T17:00:00Z,68.32,-133.5,14.0,4.0,200,11,,15.0,29.719488,1006.9,,,,,,,,,,SCT,14000,BKN,26000,,,,,VFR,,,,,,,,,,,,METAR,74.0
CYET 021700Z AUTO VRB02KT 9SM CLR 12/09 A3012 RMK SLP216,CYET,2023-06-02T17:00:00Z,53.57,-116.47,12.0,9.0,0,2,,9.0,30.121063,1021.6,,TRUE,,,,,,,,CLR,,,,,,,,VFR,,,,,,,,,,,,METAR,925.0
CYER 021700Z AUTO 08010G16KT 9SM FEW240 10/05 A3035 RMK SLP280,CYER,2023-06-02T17:00:00Z,56.02,-87.68,10.0,5.0,80,10,16,9.0,30.351377,1028.0,,TRUE,,,,,,,,FEW,24000,,,,,,,VFR,,,,,,,,,,,,METAR,11.0
CYEN 021700Z AUTO 11012G19KT 9SM FEW110 SCT160 26/17 A2994 RMK SLP135 DENSITY ALT 3700FT,CYEN,2023-06-02T17:00:00Z,49.22,-102.97,26.0,17.0,110,12,19,9.0,29.940945,1013.5,,TRUE,,,,,,,,FEW,11000,SCT,16000,,,,,VFR,,,,,,,,,,,,METAR,580.0
CYEK 021700Z 17013KT 15SM SKC 04/01 A3025 RMK SLP246,CYEK,2023-06-02T17:00:00Z,61.1,-94.07,4.0,1.0,170,13,,15.0,30.250984,1024.6,,,,,,,,,,SKC,,,,,,,,VFR,,,,,,,,,,,,METAR,7.0
CYEG 021700Z 30007KT 220V340 20SM FEW240 19/09 A3009 RMK CI2 SLP198 DENSITY ALT 3200FT,CYEG,2023-06-02T17:00:00Z,53.3,-113.58,19.0,9.0,300,7,,20.0,30.088583,1019.8,,,,,,,,,,FEW,24000,,,,,,,VFR,,,,,,,,,,,,SPECI,710.0
CYED 021700Z 35003KT 270V040 15SM FEW250 20/07 A3010 RMK CI1 DENSITY ALT 3353FT SLP195,CYED,2023-06-02T17:00:00Z,53.67,-113.47,20.0,7.0,350,3,,15.0,30.100393,1019.5,,,,,,,,,,FEW,25000,,,,,,,VFR,,,,,,,,,,,,METAR,688.0
CYDP 021700Z 09010KT 15SM FEW025 04/M02 A3055 RMK CF1 CF TR SLP348,CYDP,2023-06-02T17:00:00Z,56.53,-61.68,4.0,-2.0,90,10,,15.0,30.549213,1034.8,,,,,,,,,,FEW,2500,,,,,,,VFR,,,,,,,,,,,,METAR,14.0
CYDN 021700Z AUTO 30004KT 250V060 9SM CLR 23/19 A3000 RMK SLP163 DENSITY ALT 2100FT,CYDN,2023-06-02T17:00:00Z,51.1,-100.05,23.0,19.0,300,4,,9.0,30.0,1016.3,,TRUE,,,,,,,,CLR,,,,,,,,VFR,,,,,,,,,,,,METAR,302.0
CYDL 021700Z AUTO 07005KT 9SM SCT066 BKN094 08/01 A2999 RMK SLP165,CYDL,2023-06-02T17:00:00Z,58.42,-130.02,8.0,1.0,70,5,,9.0,29.991142,1016.5,,TRUE,,,,,,,,SCT,6600,BKN,9400,,,,,VFR,,,,,,,,,,,,METAR,804.0
CYDC 021700Z 00000KT 25SM FEW030 18/06 A3002 RMK CU1 SLP159 DENSITY ALT 3100FT,CYDC,2023-06-02T17:00:00Z,49.47,-120.52,18.0,6.0,0,0,,25.0,30.02067,1015.9,,,,,,,,,,FEW,3000,,,,,,,VFR,,,,,,,,,,,,METAR,703.0
CYDB 021700Z 12009G16KT 15SM FEW045 FEW170 SCT240 08/M02 A2983 RMK CU1AC1CI3 CU TR SLP131,CYDB,2023-06-02T17:00:00Z,61.37,-139.02,8.0,-2.0,120,9,16,15.0,29.828741,1013.1,,,,,,,,,,FEW,4500,FEW,17000,SCT,24000,,,VFR,,,,,,,,,,,,METAR,807.0
CYDA 021700Z 23005KT 160V260 20SM FEW050 FEW200 SCT230 10/04 A2982 RMK CU1CC1CI1 SLP114,CYDA,2023-06-02T17:00:00Z,64.03,-139.12,10.0,4.0,230,5,,20.0,29.819881,1011.4,,,,,,,,,,FEW,5000,FEW,20000,SCT,23000,,,VFR,,,,,,,,,,,,METAR,338.0
CYCY 021700Z 02007KT 15SM FEW012 FEW040 FEW100 BKN230 01/M05 A3008 RMK SF1SC1AC2CI4 SF TR SC TR SLP190,CYCY,2023-06-02T17:00:00Z,70.48,-68.52,1.0,-5.0,20,7,,15.0,30.079725,1019.0,,,,,,,,,,FEW,1200,FEW,4000,FEW,10000,BKN,23000,VFR,,,,,,,,,,,,METAR,73.0
CYCX 021700Z 03013G18KT 12SM FEW025 BKN150 15/09 A3005 RMK SC1AC6 DENSITY ALT 183FT SLP174,CYCX,2023-06-02T17:00:00Z,45.83,-66.45,15.0,9.0,30,13,18,12.0,30.050198,1017.4,,,,,,,,,,FEW,2500,BKN,15000,,,,,VFR,,,,,,,,,,,,METAR,46.0
CYCS 021700Z 19023G29KT 15SM SCT071 SCT160 07/00 A3025 RMK AC3AC1 SLP245,CYCS,2023-06-02T17:00:00Z,63.35,-90.72,7.0,0.0,190,23,29,15.0,30.250984,1024.5,,,,,,,,,,SCT,7100,SCT,16000,,,,,VFR,,,,,,,,,,,,METAR,7.0
CYCQ 021700Z VRB02KT 35SM FEW060 FEW100 FEW120 12/03 A3005 RMK CU1AC1AC1 CU TR AC TR FU VLY S+W SLP193,CYCQ,2023-06-02T17:00:00Z,55.7,-121.62,12.0,3.0,0,2,,35.0,30.050198,1019.3,,,,,,,,,,FEW,6000,FEW,10000,FEW,12000,,,VFR,,,,,,,,,,,,METAR,614.0
CYCP 021700Z VRB02KT 15SM FEW075TCU FEW080 FEW110 16/05 A3002 RMK TCU2CU1AC1 CU TR AC TR SLP175 DENSITY ALT 2900FT,CYCP,2023-06-02T17:00:00Z,52.13,-119.28,16.0,5.0,0,2,,15.0,30.02067,1017.5,,,,,,,,,,FEW,7500,FEW,8000,FEW,11000,,,VFR,,,,,,,,,,,,METAR,677.0
CYCO 021700Z 08006KT 15SM FEW011 BKN017 OVC080 07/04 A3010 RMK ST1SC6AC1 SLP197,CYCO,2023-06-02T17:00:00Z,67.82,-115.15,7.0,4.0,80,6,,15.0,30.100393,1019.7,,,,,,,,,,FEW,1100,BKN,1700,OVC,8000,,,MVFR,,,,,,,,,,,,METAR,20.0
CYCK 021700Z AUTO 02006KT 360V080 9SM CLR 31/09 A3006 RMK SLP177 DENSITY ALT 2500FT,CYCK,2023-06-02T17:00:00Z,42.3,-82.08,31.0,9.0,20,6,,9.0,30.059055,1017.7,,TRUE,,,,,,,,CLR,,,,,,,,VFR,,,,,,,,,,,,METAR,196.0
CYCG 021700Z VRB02KT 15SM FEW070 FEW260 19/06 A3000 RMK CF1CI1 CF TR SLP157 DENSITY ALT 2400FT,CYCG,2023-06-02T17:00:00Z,49.28,-117.63,19.0,6.0,0,2,,15.0,30.0,1015.7,,,,,,,,,,FEW,7000,FEW,26000,,,,,VFR,,,,,,,,,,,,METAR,487.0
CYCD 021700Z 07007KT 25SM FEW021 SCT240 17/11 A3008 RMK CF1CI2 SLP189,CYCD,2023-06-02T17:00:00Z,49.05,-123.87,17.0,11.0,70,7,,25.0,30.079725,1018.9,,,,,,,,,,FEW,2100,SCT,24000,,,,,VFR,,,,,,,,,,,,METAR,30.0
CYCB 021700Z 28022G28KT 15SM BKN007 02/00 A2998 RMK ST7 CIG VRB 5-9 SLP158,CYCB,2023-06-02T17:00:00Z,69.1,-105.12,2.0,0.0,280,22,28,15.0,29.97933,1015.8,,,,,,,,,,BKN,700,,,,,,,IFR,,,,,,,,,,,,METAR,19.0
CYBX 021700Z 05013G19KT 15SM BKN023 OVC041 05/01 A3030 RMK SC5SC3 SLP265,CYBX,2023-06-02T17:00:00Z,51.45,-57.18,5.0,1.0,50,13,19,15.0,30.301182,1026.5,,,,,,,,,,BKN,2300,OVC,4100,,,,,MVFR,,,,,,,,,,,,METAR,32.0
CYBW 021700Z AUTO VRB03KT 9SM CLR 16/08 A3012 RMK SLP211 DENSITY ALT 4700FT,CYBW,2023-06-02T17:00:00Z,51.1,-114.37,16.0,8.0,0,3,,9.0,30.121063,1021.1,,TRUE,,,,,,,,CLR,,,,,,,,VFR,,,,,,,,,,,,METAR,1197.0
CYBV 021700Z 27009KT 15SM FEW030 SCT250 22/18 A3002 RMK CU1CI3 CU TR WIND EST SLP171 DENSITY ALT 1600FT,CYBV,2023-06-02T17:00:00Z,52.35,-97.03,22.0,18.0,270,9,,15.0,30.02067,1017.1,,,,,,,,,,FEW,3000,SCT,25000,,,,,VFR,,,,,,,,,,,,METAR,219.0
CYBR 021700Z 10010KT 15SM FEW160 BKN250 29/16 A2996 RMK AC2CI5 SLP148 DENSITY ALT 3200FT,CYBR,2023-06-02T17:00:00Z,49.92,-99.95,29.0,16.0,100,10,,15.0,29.958662,1014.8,,,,,,,,,,FEW,16000,BKN,25000,,,,,VFR,,,,,,,,,,,,METAR,405.0
CYBQ 021700Z AUTO 11005KT 060V130 6SM HZ OVC049 17/08 A3011 RMK SLP209 DENSITY ALT 1200FT,CYBQ,2023-06-02T17:00:00Z,58.7,-98.5,17.0,8.0,110,5,,6.0,30.109253,1020.9,,TRUE,,,,,,,HZ,OVC,4900,,,,,,,VFR,,,,,,,,,,,,METAR,272.0
CYBL 021700Z 10005KT 050V160 30SM FEW050 FEW140 BKN250 17/07 A3007 RMK CU1AC1CI4 CC ASOCTD SLP187,CYBL,2023-06-02T17:00:00Z,49.95,-125.27,17.0,7.0,100,5,,30.0,30.070866,1018.7,,,,,,,,,,FEW,5000,FEW,14000,BKN,25000,,,VFR,,,,,,,,,,,,METAR,94.0
CYBK 021700Z 09003KT 070V130 20SM OVC007 07/04 A3013 RMK ST8 SLP207,CYBK,2023-06-02T17:00:00Z,64.3,-96.07,7.0,4.0,90,3,,20.0,30.129921,1020.7,,,,,,,,,,OVC,700,,,,,,,IFR,,,,,,,,,,,,METAR,14.0
CYBG 021700Z 12009G15KT 20SM BKN030 OVC120 16/10 A3013 RMK SC6AC2 DENSITY ALT 707FT SLP204,CYBG,2023-06-02T17:00:00Z,48.33,-70.98,16.0,10.0,120,9,15,20.0,30.129921,1020.4,,,,,,,,,,BKN,3000,OVC,12000,,,,,MVFR,,,,,,,,,,,,SPECI,151.0
CYBD 021700Z 28004KT 250V060 15SM FEW090 SCT160 BKN200 16/08 A3004 RMK AC1AC3CC2 ACSL E SLP175,CYBD,2023-06-02T17:00:00Z,52.38,-126.58,16.0,8.0,280,4,,15.0,30.041338,1017.5,,,,,,,,,,FEW,9000,SCT,16000,BKN,20000,,,VFR,,,,,,,,,,,,METAR,40.0
CYAZ 021700Z 19006KT 15SM FEW020 FEW220 12/09 A3012 RMK CU1CI1 SLP202,CYAZ,2023-06-02T17:00:00Z,49.08,-125.77,12.0,9.0,190,6,,15.0,30.121063,1020.2,,,,,,,,,,FEW,2000,FEW,22000,,,,,VFR,,,,,,,,,,,,METAR,26.0
CYAW 021700Z 11007KT 12SM BKN150 BKN250 15/10 A2993 RMK AC6CI1 DENSITY ALT 370FT SLP135,CYAW,2023-06-02T17:00:00Z,44.63,-63.5,15.0,10.0,110,7,,12.0,29.929134,1013.5,,,,,,,,,,BKN,15000,BKN,25000,,,,,VFR,,,,,,,,,,,,METAR,50.0
CYAT 021700Z AUTO 06006KT 9SM 16/07 A3036 RMK CLD MISG SLP282,CYAT,2023-06-02T17:00:00Z,52.93,-82.43,16.0,7.0,60,6,,9.0,30.360237,1028.2,,TRUE,,,,,,,,,,,,,,,,,,,,,,,,,,,,METAR,4.0
CYAS 021700Z 13009KT 15SM FEW160 03/M01 A3061 RMK AC1 AC TR SLP378,CYAS,2023-06-02T17:00:00Z,60.02,-70.0,3.0,-1.0,130,9,,15.0,30.611221,1037.8,,,,,,,,,,FEW,16000,,,,,,,VFR,,,,,,,,,,,,METAR,99.0
CYAM 021700Z 29009KT 15SM FEW038 FEW160 BKN280 27/11 A3013 RMK CU1ACC1CI4 ACC OHD STNR SLP207 DENSITY ALT 1900FT,CYAM,2023-06-02T17:00:00Z,46.48,-84.52,27.0,11.0,290,9,,15.0,30.129921,1020.7,,,,,,,,,,FEW,3800,FEW,16000,BKN,28000,,,VFR,,,,,,,,,,,,METAR,186.0
CYAH 021700Z AUTO 06012G18KT 020V100 9SM CLR 16/M04 A3043 RMK SLP318,CYAH,2023-06-02T17:00:00Z,53.75,-73.67,16.0,-4.0,60,12,18,9.0,30.431103,1031.8,,TRUE,,,,,,,,CLR,,,,,,,,VFR,,,,,,,,,,,,METAR,298.0
CYAB 021700Z 10014G21KT 060V160 15SM SCT050 OVC100 02/M02 A2991 RMK SC3AS5 SLP131,CYAB,2023-06-02T17:00:00Z,73.0,-85.02,2.0,-2.0,100,14,21,15.0,29.911417,1013.1,,,,,,,,,,SCT,5000,OVC,10000,,,,,VFR,,,,,,,,,,,,METAR,36.0
CXZV 021700Z AUTO 15007KT 11/06 RMK AO1 SLP248 T01060056 52011,CXZV,2023-06-02T17:00:00Z,50.22,-66.25,10.6,5.6,150,7,,,,1024.8,,TRUE,TRUE,,,,,,,,,,,,,,,,1.1,,,,,,,,,,,METAR,43.0
CXZC 021700Z AUTO 06006KT 20/04 RMK AO1 SLP262 T01980044 56003,CXZC,2023-06-02T17:00:00Z,51.3,-80.62,19.8,4.4,60,6,,,,1026.2,,TRUE,TRUE,,,,,,,,,,,,,,,,-0.3,,,,,,,,,,,METAR,8.0
CXYH 021700Z AUTO 21002KT 17/00 RMK AO1 SLP170 T01730000 58008,CXYH,2023-06-02T17:00:00Z,61.25,-123.75,17.3,0.0,210,2,,,,1017.0,,TRUE,TRUE,,,,,,,,,,,,,,,,-0.8,,,,,,,,,,,METAR,197.0
CXWN 021700Z AUTO 20002KT 31/15 RMK AO1 SLP153 T03140151 58003,CXWN,2023-06-02T17:00:00Z,49.88,-97.13,31.4,15.1,200,2,,,,1015.3,,TRUE,TRUE,,,,,,,,,,,,,,,,-0.3,,,,,,,,,,,METAR,232.0
CXWM 021700Z AUTO 35007KT 15/09 RMK AO1 T01450086,CXWM,2023-06-02T17:00:00Z,49.5,-112.12,14.5,8.6,350,7,,,,,,TRUE,TRUE,,,,,,,,,,,,,,,,,,,,,,,,,,,METAR,947.0
CXVW 021700Z AUTO 04004KT 18/06 RMK AO1 SLP191 T01800061 50000,CXVW,2023-06-02T17:00:00Z,55.1,-117.2,18.0,6.1,40,4,,,,1019.1,,TRUE,TRUE,,,,,,,,,,,,,,,,0.0,,,,,,,,,,,METAR,696.0
CXVN 021700Z AUTO 30001KT 29/13 RMK AO1 SLP166 T02910126 58013,CXVN,2023-06-02T17:00:00Z,43.18,-79.4,29.1,12.6,300,1,,,,1016.6,,TRUE,TRUE,,,,,,,,,,,,,,,,-1.3,,,,,,,,,,,METAR,86.0
CXVM 021700Z AUTO 34011KT 20/10 RMK AO1 PK WND 34018/1659 T01980100,CXVM,2023-06-02T17:00:00Z,53.35,-110.88,19.8,10.0,340,11,,,,,,TRUE,TRUE,,,,,,,,,,,,,,,,,,,,,,,,,,,METAR,622.0
CXTV 021700Z AUTO 19014G19KT 13/04 RMK AO1 PK WND 17020/1614 SLP066 T01340038 56019,CXTV,2023-06-02T17:00:00Z,68.75,-133.5,13.4,3.8,190,14,19,,,1006.6,,TRUE,TRUE,,,,,,,,,,,,,,,,-1.9,,,,,,,,,,,METAR,91.0
CXTP 021700Z AUTO 33005KT 08/07 RMK AO1 SLP190 T00790071 50000,CXTP,2023-06-02T17:00:00Z,48.55,-53.97,7.9,7.1,330,5,,,,1019.0,,TRUE,TRUE,,,,,,,,,,,,,,,,0.0,,,,,,,,,,,METAR,104.0
CXTO 021700Z AUTO 32/12 RMK AO1 SLP166 T03150116 58011,CXTO,2023-06-02T17:00:00Z,43.67,-79.4,31.5,11.6,,,,,,1016.6,,TRUE,TRUE,,,,,,,,,,,,,,,,-1.1,,,,,,,,,,,METAR,115.0
CXTN 021700Z AUTO 19019KT 05/02 RMK AO1 SOG 01 8003 PK WND 19023/1657 SLP165 T00470018,CXTN,2023-06-02T17:00:00Z,69.2,-122.35,4.7,1.8,190,19,,,,1016.5,,TRUE,TRUE,,,,,,,,,,,,,,,,,,,,,,,,,,,METAR,564.0
CXTH 021700Z AUTO 35011KT 19/12 RMK AO1 PK WND 34017/1642 T01890124,CXTH,2023-06-02T17:00:00Z,53.63,-111.68,18.9,12.4,350,11,,,,,,TRUE,TRUE,,,,,,,,,,,,,,,,,,,,,,,,,,,METAR,679.0
CXTD 021700Z AUTO 13006KT 16/06 RMK AO1 SLP164 T01560060 51009,CXTD,2023-06-02T17:00:00Z,45.62,-61.68,15.6,6.0,130,6,,,,1016.4,,TRUE,TRUE,,,,,,,,,,,,,,,,0.9,,,,,,,,,,,METAR,58.0
CXSP 021700Z AUTO 33012KT 18/11 RMK AO1 PK WND 33017/1649 T01840113,CXSP,2023-06-02T17:00:00Z,54.02,-111.27,18.4,11.3,330,12,,,,,,TRUE,TRUE,,,,,,,,,,,,,,,,,,,,,,,,,,,METAR,652.0
CXSL 021700Z AUTO 02006KT 18/12 RMK AO1 T01820115,CXSL,2023-06-02T17:00:00Z,54.28,-112.5,18.2,11.5,20,6,,,,,,TRUE,TRUE,,,,,,,,,,,,,,,,,,,,,,,,,,,METAR,680.0
CXSH 021700Z AUTO 10006KT 26/16 RMK AO1 6008 SLP154 T02640162 50002,CXSH,2023-06-02T17:00:00Z,46.55,-72.73,26.4,16.2,100,6,,,,1015.4,,TRUE,TRUE,,,,,,,,,,,,,,,,0.2,,,,,,,,,,,METAR,106.0
CXSE 021700Z AUTO 27017G22KT 01/M00 RMK AO1 SOG 13 1013 PK WND 27022/1700 SLP065 T00121004,CXSE,2023-06-02T17:00:00Z,73.77,-105.28,1.2,-0.4,270,17,22,,,1006.5,,TRUE,TRUE,,,,,,,,,,,,,,,,,,,,,,,,,,,METAR,11.0
CXSC 021700Z AUTO 32005KT 14/11 RMK AO1 T01440112,CXSC,2023-06-02T17:00:00Z,50.3,-110.08,14.4,11.2,320,5,,,,,,TRUE,TRUE,,,,,,,,,,,,,,,,,,,,,,,,,,,METAR,809.0
CXRL 021700Z AUTO 36008KT 17/11 RMK AO1 T01700113,CXRL,2023-06-02T17:00:00Z,54.5,-111.7,17.0,11.3,360,8,,,,,,TRUE,TRUE,,,,,,,,,,,,,,,,,,,,,,,,,,,METAR,585.0
CXRH 021700Z AUTO 10007KT 05/03 RMK AO1 0PAST HR 3011 SLP219 P0008 T00450027 50084,CXRH,2023-06-02T17:00:00Z,49.57,-57.88,4.5,2.7,100,7,,,,1021.9,,TRUE,TRUE,,,,,,,,,,,,,,,,8.4,,,,,0.08,,,,,,METAR,68.0
CXRB 021700Z AUTO 12024G29KT M00/M02 RMK AO1 SOG 10 5000 PK WND 12029/1657 SLP087 T10031018,CXRB,2023-06-02T17:00:00Z,74.72,-94.98,-0.3,-1.8,120,24,29,,,1008.7,,TRUE,TRUE,,,,,,,,,,,,,,,,,,,,,,,,,,,METAR,30.0
CXPL 021700Z AUTO 35004KT 18/08 RMK AO1 T01830075,CXPL,2023-06-02T17:00:00Z,51.13,-111.7,18.3,7.5,350,4,,,,,,TRUE,TRUE,,,,,,,,,,,,,,,,,,,,,,,,,,,METAR,735.0
CXPC 021700Z AUTO 24/16 RMK AO1 SLP190 T02440157 57007,CXPC,2023-06-02T17:00:00Z,45.35,-80.05,24.4,15.7,,,,,,1019.0,,TRUE,TRUE,,,,,,,,,,,,,,,,-0.7,,,,,,,,,,,METAR,176.0
CXPA 021700Z AUTO 10009KT 18/03 RMK AO1 T01840034,CXPA,2023-06-02T17:00:00Z,55.62,-118.3,18.4,3.4,100,9,,,,,,TRUE,TRUE,,,,,,,,,,,,,,,,,,,,,,,,,,,METAR,628.0
CXOY 021700Z AUTO 36009KT 18/11 RMK AO1 T01750110,CXOY,2023-06-02T17:00:00Z,51.35,-110.35,17.5,11.0,360,9,,,,,,TRUE,TRUE,,,,,,,,,,,,,,,,,,,,,,,,,,,METAR,784.0
CXOX 021700Z AUTO 09003KT 17/13 RMK AO1 SLP159 T01730133 53001,CXOX,2023-06-02T17:00:00Z,55.15,-105.27,17.3,13.3,90,3,,,,1015.9,,TRUE,TRUE,,,,,,,,,,,,,,,,0.1,,,,,,,,,,,METAR,381.0
CXOL 021700Z AUTO 01004KT 16/07 RMK AO1 T01570070,CXOL,2023-06-02T17:00:00Z,51.77,-114.08,15.7,7.0,10,4,,,,,,TRUE,TRUE,,,,,,,,,,,,,,,,,,,,,,,,,,,METAR,1026.0
CXNP 021700Z AUTO 02014KT 10/07 RMK AO1 PK WND 01023/1626 SLP167 T00950073 52010,CXNP,2023-06-02T17:00:00Z,45.75,-64.23,9.5,7.3,20,14,,,,1016.7,,TRUE,TRUE,,,,,,,,,,,,,,,,1.0,,,,,,,,,,,METAR,19.0
CXNM 021700Z AUTO 11010G15KT 16/03 RMK AO1 PK WND 11019/1606 T01580025,CXNM,2023-06-02T17:00:00Z,46.82,-60.67,15.8,2.5,110,10,15,,,,,TRUE,TRUE,,,,,,,,,,,,,,,,,,,,,,,,,,,METAR,452.0
CXMY 021700Z AUTO 19/10 RMK AO1 T01860103,CXMY,2023-06-02T17:00:00Z,44.98,-62.48,18.6,10.3,,,,,,,,TRUE,TRUE,,,,,,,,,,,,,,,,,,,,,,,,,,,METAR,37.0
CXMO 021700Z AUTO 06004KT 18/11 RMK AO1 T01810109,CXMO,2023-06-02T17:00:00Z,51.67,-112.68,18.1,10.9,60,4,,,,,,TRUE,TRUE,,,,,,,,,,,,,,,,,,,,,,,,,,,METAR,837.0
CXMM 021700Z AUTO 32004KT 19/11 RMK AO1 SLP186 T01890109 51006,CXMM,2023-06-02T17:00:00Z,56.65,-111.22,18.9,10.9,320,4,,,,1018.6,,TRUE,TRUE,,,,,,,,,,,,,,,,0.6,,,,,,,,,,,METAR,372.0
CXMI 021700Z AUTO 14011KT 12/09 RMK AO1 SLP130 T01150087 58007,CXMI,2023-06-02T17:00:00Z,44.6,-63.53,11.5,8.7,140,11,,,,1013.0,,TRUE,TRUE,,,,,,,,,,,,,,,,-0.7,,,,,,,,,,,METAR,15.0
CXMG 021700Z AUTO 21001KT 19/02 RMK AO1 T01850015,CXMG,2023-06-02T17:00:00Z,56.97,-117.45,18.5,1.5,210,1,,,,,,TRUE,TRUE,,,,,,,,,,,,,,,,,,,,,,,,,,,METAR,467.0
CXMD 021700Z AUTO 15007KT 29/17 RMK AO1 SLP149 T02930171 57006,CXMD,2023-06-02T17:00:00Z,49.18,-98.08,29.3,17.1,150,7,,,,1014.9,,TRUE,TRUE,,,,,,,,,,,,,,,,-0.6,,,,,,,,,,,METAR,297.0
CXLL 021700Z AUTO 18/01 RMK AO1 SLP187 T01830005 58003,CXLL,2023-06-02T17:00:00Z,61.12,-122.85,18.3,0.5,,,,,,1018.7,,TRUE,TRUE,,,,,,,,,,,,,,,,-0.3,,,,,,,,,,,METAR,180.0
CXLC 021700Z AUTO 28004KT 18/M01 RMK AO1 SLP207 T01771012 52006,CXLC,2023-06-02T17:00:00Z,63.6,-113.85,17.7,-1.2,280,4,,,,1020.7,,TRUE,TRUE,,,,,,,,,,,,,,,,0.6,,,,,,,,,,,METAR,370.0
CXLB 021700Z AUTO 14005KT 12/10 RMK AO1 SLP130 T01230099 50000,CXLB,2023-06-02T17:00:00Z,44.37,-64.3,12.3,9.9,140,5,,,,1013.0,,TRUE,TRUE,,,,,,,,,,,,,,,,0.0,,,,,,,,,,,METAR,4.0
CXKT 021700Z AUTO 03006KT 16/11 RMK AO1 SLP147 T01610106 50007,CXKT,2023-06-02T17:00:00Z,45.07,-64.48,16.1,10.6,30,6,,,,1014.7,,TRUE,TRUE,,,,,,,,,,,,,,,,0.7,,,,,,,,,,,METAR,48.0
CXKM 021700Z AUTO 35007KT 19/12 RMK AO1 T01930115,CXKM,2023-06-02T17:00:00Z,52.83,-111.87,19.3,11.5,350,7,,,,,,TRUE,TRUE,,,,,,,,,,,,,,,,,,,,,,,,,,,METAR,679.0
CXKI 021700Z AUTO 05004KT 26/11 RMK AO1 SLP204 T02570114 57008,CXKI,2023-06-02T17:00:00Z,48.13,-80.0,25.7,11.4,50,4,,,,1020.4,,TRUE,TRUE,,,,,,,,,,,,,,,,-0.8,,,,,,,,,,,METAR,328.0
CXKE 021700Z AUTO 03004KT 30/16 RMK AO1 SLP153 T03010155 58010,CXKE,2023-06-02T17:00:00Z,45.0,-75.63,30.1,15.5,30,4,,,,1015.3,,TRUE,TRUE,,,,,,,,,,,,,,,,-1.0,,,,,,,,,,,METAR,99.0
CXKA 021700Z AUTO 08005KT 24/08 RMK AO1 SLP239 T02350079 58010,CXKA,2023-06-02T17:00:00Z,49.4,-82.45,23.5,7.9,80,5,,,,1023.9,,TRUE,TRUE,,,,,,,,,,,,,,,,-1.0,,,,,,,,,,,METAR,221.0
CXIB 021700Z AUTO 07002KT 11/06 RMK AO1 SLP167 T01110055 51001,CXIB,2023-06-02T17:00:00Z,46.67,-60.4,11.1,5.5,70,2,,,,1016.7,,TRUE,TRUE,,,,,,,,,,,,,,,,0.1,,,,,,,,,,,METAR,6.0
CXHR 021700Z AUTO 01007KT 16/07 RMK AO1 T01590072,CXHR,2023-06-02T17:00:00Z,51.18,-112.5,15.9,7.2,10,7,,,,,,TRUE,TRUE,,,,,,,,,,,,,,,,,,,,,,,,,,,METAR,975.0
CXHP 021700Z AUTO 10004KT 19/03 RMK AO1 T01900032 50011,CXHP,2023-06-02T17:00:00Z,55.4,-116.48,19.0,3.2,100,4,,,,,,TRUE,TRUE,,,,,,,,,,,,,,,,1.1,,,,,,,,,,,METAR,601.0
CXHM 021700Z AUTO 09002KT 32/11 RMK AO1 SLP168 T03170112 58016,CXHM,2023-06-02T17:00:00Z,43.28,-79.9,31.7,11.2,90,2,,,,1016.8,,TRUE,TRUE,,,,,,,,,,,,,,,,-1.6,,,,,,,,,,,METAR,105.0
CXHD 021700Z AUTO 35007KT 19/11 RMK AO1 T01900111,CXHD,2023-06-02T17:00:00Z,53.18,-112.25,19.0,11.1,350,7,,,,,,TRUE,TRUE,,,,,,,,,,,,,,,,,,,,,,,,,,,METAR,688.0
CXHA 021700Z AUTO 13004KT 31/11 RMK AO1 SLP179 T03070110 58009,CXHA,2023-06-02T17:00:00Z,42.03,-82.9,30.7,11.0,130,4,,,,1017.9,,TRUE,TRUE,,,,,,,,,,,,,,,,-0.9,,,,,,,,,,,METAR,193.0
CXGH 021700Z AUTO 09005KT 22/18 RMK AO1 SLP165 T02180183 57001,CXGH,2023-06-02T17:00:00Z,50.63,-97.0,21.8,18.3,90,5,,,,1016.5,,TRUE,TRUE,,,,,,,,,,,,,,,,-0.1,,,,,,,,,,,METAR,217.0
CXFM 021700Z AUTO 35008KT 15/09 RMK AO1 T01540089,CXFM,2023-06-02T17:00:00Z,49.48,-111.48,15.4,8.9,350,8,,,,,,TRUE,TRUE,,,,,,,,,,,,,,,,,,,,,,,,,,,METAR,884.0
CXET 021700Z AUTO 33010G15KT 25/15 RMK AO1 SLP186 T02540149 57009,CXET,2023-06-02T17:00:00Z,44.23,-79.78,25.4,14.9,330,10,15,,,1018.6,,TRUE,TRUE,,,,,,,,,,,,,,,,-0.9,,,,,,,,,,,METAR,250.0
CXEG 021700Z AUTO 29004KT 18/08 RMK AO1 SLP197 T01750078 55004,CXEG,2023-06-02T17:00:00Z,53.3,-113.6,17.5,7.8,290,4,,,,1019.7,,TRUE,TRUE,,,,,,,,,,,,,,,,-0.4,,,,,,,,,,,METAR,706.0
CXEC 021700Z AUTO 30003KT 19/07 RMK AO1 SLP190 T01900070 56004,CXEC,2023-06-02T17:00:00Z,53.57,-113.52,19.0,7.0,300,3,,,,1019.0,,TRUE,TRUE,,,,,,,,,,,,,,,,-0.4,,,,,,,,,,,METAR,666.0
CXEA 021700Z AUTO 07007KT 24/18 RMK AO1 SLP185 T02350181 58002,CXEA,2023-06-02T17:00:00Z,50.63,-93.22,23.5,18.1,70,7,,,,1018.5,,TRUE,TRUE,,,,,,,,,,,,,,,,-0.2,,,,,,,,,,,METAR,351.0
CXDW 021700Z AUTO 15008KT 28/18 RMK AO1 SLP151 T02780176 58002,CXDW,2023-06-02T17:00:00Z,49.4,-98.32,27.8,17.6,150,8,,,,1015.1,,TRUE,TRUE,,,,,,,,,,,,,,,,-0.2,,,,,,,,,,,METAR,341.0
CXDK 021700Z AUTO 15/M03 RMK AO1 SLP186 T01531030 58013,CXDK,2023-06-02T17:00:00Z,61.27,-124.47,15.3,-3.0,,,,,,1018.6,,TRUE,TRUE,,,,,,,,,,,,,,,,-1.3,,,,,,,,,,,METAR,269.0
CXDI 021700Z AUTO 05004KT 32/10 RMK AO1 SLP171 T03160095 58013,CXDI,2023-06-02T17:00:00Z,42.87,-80.55,31.6,9.5,50,4,,,,1017.1,,TRUE,TRUE,,,,,,,,,,,,,,,,-1.3,,,,,,,,,,,METAR,234.0
CXDE 021700Z AUTO 12005KT 15/03 RMK AO1 SLP156 T01520026 58006,CXDE,2023-06-02T17:00:00Z,65.22,-123.43,15.2,2.6,120,5,,,,1015.6,,TRUE,TRUE,,,,,,,,,,,,,,,,-0.6,,,,,,,,,,,METAR,208.0
CXDB 021700Z AUTO 03003KT 13/08 RMK AO1 T01270083,CXDB,2023-06-02T17:00:00Z,49.05,-112.82,12.7,8.3,30,3,,,,,,TRUE,TRUE,,,,,,,,,,,,,,,,,,,,,,,,,,,METAR,1311.0
CXCS 021700Z AUTO 31011KT 19/09 RMK AO1 T01870092,CXCS,2023-06-02T17:00:00Z,51.93,-110.72,18.7,9.2,310,11,,,,,,TRUE,TRUE,,,,,,,,,,,,,,,,,,,,,,,,,,,METAR,771.0
CXCP 021700Z AUTO 01005KT 16/07 RMK AO1 T01560067,CXCP,2023-06-02T17:00:00Z,50.28,-113.35,15.6,6.7,10,5,,,,,,TRUE,TRUE,,,,,,,,,,,,,,,,,,,,,,,,,,,METAR,999.0
CXCK 021700Z AUTO 10008KT 12/M01 RMK AO1 SLP130 T01211009 58006,CXCK,2023-06-02T17:00:00Z,62.12,-136.2,12.1,-0.9,100,8,,,,1013.0,,TRUE,TRUE,,,,,,,,,,,,,,,,-0.6,,,,,,,,,,,METAR,526.0
CXCD 021700Z AUTO 06005KT 18/04 RMK AO1 T01750035,CXCD,2023-06-02T17:00:00Z,56.32,-119.75,17.5,3.5,60,5,,,,,,TRUE,TRUE,,,,,,,,,,,,,,,,,,,,,,,,,,,METAR,628.0
CXCA 021700Z AUTO 16007KT 27/17 RMK AO1 SLP216 T02730166 58004,CXCA,2023-06-02T17:00:00Z,49.15,-88.35,27.3,16.6,160,7,,,,1021.6,,TRUE,TRUE,,,,,,,,,,,,,,,,-0.4,,,,,,,,,,,METAR,228.0
CXBW 021700Z AUTO 33004KT 17/09 RMK AO1 T01690088,CXBW,2023-06-02T17:00:00Z,49.8,-112.3,16.9,8.8,330,4,,,,,,TRUE,TRUE,,,,,,,,,,,,,,,,,,,,,,,,,,,METAR,823.0
CXBR 021700Z AUTO 12006KT 15/08 RMK AO1 T01450077,CXBR,2023-06-02T17:00:00Z,49.62,-113.82,14.5,7.7,120,6,,,,,,TRUE,TRUE,,,,,,,,,,,,,,,,,,,,,,,,,,,METAR,1137.0
CXBO 021700Z AUTO 07019G27KT 15/10 RMK AO1 PK WND 08030/1636 T01480096 50003,CXBO,2023-06-02T17:00:00Z,46.83,-71.2,14.8,9.6,70,19,27,,,,,TRUE,TRUE,,,,,,,,,,,,,,,,0.3,,,,,,,,,,,METAR,8.0
CXBI 021700Z AUTO 32011G17KT 27/15 RMK AO1 PK WND 33017/1655 SLP186 T02710149 58007,CXBI,2023-06-02T17:00:00Z,44.48,-79.55,27.1,14.9,320,11,17,,,1018.6,,TRUE,TRUE,,,,,,,,,,,,,,,,-0.7,,,,,,,,,,,METAR,287.0
CXBA 021700Z AUTO 33012KT 19/11 RMK AO1 PK WND 34017/1700 T01930112,CXBA,2023-06-02T17:00:00Z,52.12,-110.1,19.3,11.2,330,12,,,,,,TRUE,TRUE,,,,,,,,,,,,,,,,,,,,,,,,,,,METAR,696.0
CXAK 021700Z AUTO 36005KT 18/09 RMK AO1 T01750092,CXAK,2023-06-02T17:00:00Z,52.35,-112.6,17.5,9.2,360,5,,,,,,TRUE,TRUE,,,,,,,,,,,,,,,,,,,,,,,,,,,METAR,799.0
CXAG 021700Z AUTO 36007KT 18/12 RMK AO1 T01840123,CXAG,2023-06-02T17:00:00Z,53.92,-112.28,18.4,12.3,360,7,,,,,,TRUE,TRUE,,,,,,,,,,,,,,,,,,,,,,,,,,,METAR,632.0
CXAF 021700Z AUTO 03004KT 18/11 RMK AO1 T01820106 50006,CXAF,2023-06-02T17:00:00Z,54.28,-112.97,18.2,10.6,30,4,,,,,,TRUE,TRUE,,,,,,,,,,,,,,,,0.6,,,,,,,,,,,METAR,667.0
CWZW 021700Z AUTO 19004KT 08/M00 RMK AO1 SLP172 T00751001 58007,CWZW,2023-06-02T17:00:00Z,60.17,-132.73,7.5,-0.1,190,4,,,,1017.2,,TRUE,TRUE,,,,,,,,,,,,,,,,-0.7,,,,,,,,,,,METAR,683.0
CWZQ 021700Z AUTO 24005KT 15/10 RMK AO1 SLP154 T01450104 53007,CWZQ,2023-06-02T17:00:00Z,46.53,-61.05,14.5,10.4,240,5,,,,1015.4,,TRUE,TRUE,,,,,,,,,,,,,,,,0.7,,,,,,,,,,,METAR,13.0
CWZO 021700Z AUTO 18009KT RMK AO1,CWZO,2023-06-02T17:00:00Z,48.57,-123.25,,,180,9,,,,,,TRUE,TRUE,,,,,,,,,,,,,,,,,,,,,,,,,,,METAR,5.0
CWZN 021700Z AUTO 04013KT 16/08 RMK AO1 SLP162 T01560075 58006,CWZN,2023-06-02T17:00:00Z,47.37,-55.8,15.6,7.5,40,13,,,,1016.2,,TRUE,TRUE,,,,,,,,,,,,,,,,-0.6,,,,,,,,,,,METAR,63.0
CWZL 021700Z AUTO 15016KT 10/10 RMK AO1 PK WND 15019/1643 SLP140 T01020096 52010,CWZL,2023-06-02T17:00:00Z,53.03,-131.6,10.2,9.6,150,16,,,,1014.0,,TRUE,TRUE,,,,,,,,,,,,,,,,1.0,,,,,,,,,,,METAR,17.0
CWZG 021700Z AUTO 08002KT 15/06 RMK AO1 SLP188 T01500058 58014,CWZG,2023-06-02T17:00:00Z,51.2,-115.55,15.0,5.8,80,2,,,,1018.8,,TRUE,TRUE,,,,,,,,,,,,,,,,-1.4,,,,,,,,,,,METAR,1402.0
CWZA 021700Z AUTO 25003KT 17/09 RMK AO1 SLP193 T01710087 50000,CWZA,2023-06-02T17:00:00Z,49.25,-121.77,17.1,8.7,250,3,,,,1019.3,,TRUE,TRUE,,,,,,,,,,,,,,,,0.0,,,,,,,,,,,METAR,18.0
CWYY 021700Z AUTO 22003KT 19/06 RMK AO1 SLP154 T01870055 58003,CWYY,2023-06-02T17:00:00Z,49.03,-119.43,18.7,5.5,220,3,,,,1015.4,,TRUE,TRUE,,,,,,,,,,,,,,,,-0.3,,,,,,,,,,,METAR,284.0
CWYL 021700Z AUTO 06005KT 16/07 RMK AO1 SLP187 T01550069 58006,CWYL,2023-06-02T17:00:00Z,51.45,-116.33,15.5,6.9,60,5,,,,1018.7,,TRUE,TRUE,,,,,,,,,,,,,,,,-0.6,,,,,,,,,,,METAR,1602.0
CWYJ 021700Z AUTO 23003KT 15/07 RMK AO1 SLP195 T01540074 51007,CWYJ,2023-06-02T17:00:00Z,48.45,-123.3,15.4,7.4,230,3,,,,1019.5,,TRUE,TRUE,,,,,,,,,,,,,,,,0.7,,,,,,,,,,,METAR,59.0
CWXL 021700Z AUTO 34005KT 16/10 RMK AO1 SLP194 T01620096 58006,CWXL,2023-06-02T17:00:00Z,49.73,-111.45,16.2,9.6,340,5,,,,1019.4,,TRUE,TRUE,,,,,,,,,,,,,,,,-0.6,,,,,,,,,,,METAR,815.0
CWXI 021700Z AUTO 04021KT 03/02 RMK AO1 PK WND 04027/1637 SLP247 T00320017 53008,CWXI,2023-06-02T17:00:00Z,51.02,-57.1,3.2,1.7,40,21,,,,1024.7,,TRUE,TRUE,,,,,,,,,,,,,,,,0.8,,,,,,,,,,,METAR,15.0
CWXC 021700Z AUTO 03005KT 16/11 RMK AO1 SLP206 T01620113 53021,CWXC,2023-06-02T17:00:00Z,48.88,-71.03,16.2,11.3,30,5,,,,1020.6,,TRUE,TRUE,,,,,,,,,,,,,,,,2.1,,,,,,,,,,,METAR,306.0
CWXA 021700Z AUTO 00006KT 16/06 RMK AO1 SLP218 T01600062 56009,CWXA,2023-06-02T17:00:00Z,51.07,-115.07,16.0,6.2,0,6,,,,1021.8,,TRUE,TRUE,,,,,,,,,,,,,,,,-0.9,,,,,,,,,,,METAR,1303.0
CWWZ 021700Z AUTO 20002KT 25/15 RMK AO1 SLP170 T02510148 58012,CWWZ,2023-06-02T17:00:00Z,43.25,-79.22,25.1,14.8,200,2,,,,1017.0,,TRUE,TRUE,,,,,,,,,,,,,,,,-1.2,,,,,,,,,,,METAR,75.0
CWWS 021700Z AUTO 34001KT 18/15 RMK AO1 SLP179 T01810147 51005,CWWS,2023-06-02T17:00:00Z,52.82,-97.62,18.1,14.7,340,1,,,,1017.9,,TRUE,TRUE,,,,,,,,,,,,,,,,0.5,,,,,,,,,,,METAR,220.0
CWWL 021700Z AUTO 13016G24KT 10/10 RMK AO1 8PAST HR 3003 PK WND 12027/1643 SLP149 P0003 T01040095 50048,CWWL,2023-06-02T17:00:00Z,53.5,-130.63,10.4,9.5,130,16,24,,,1014.9,,TRUE,TRUE,,,,,,,,,,,,,,,,4.8,,,,,0.03,,,,,,METAR,8.0
CWWK 021700Z AUTO 17003KT 16/09 RMK AO1 SLP203 T01600086 50005,CWWK,2023-06-02T17:00:00Z,49.02,-122.78,16.0,8.6,170,3,,,,1020.3,,TRUE,TRUE,,,,,,,,,,,,,,,,0.5,,,,,,,,,,,METAR,10.0
CWWF 021700Z AUTO 09010KT 21/17 RMK AO1 SLP140 T02140167 58007,CWWF,2023-06-02T17:00:00Z,49.7,-103.8,21.4,16.7,90,10,,,,1014.0,,TRUE,TRUE,,,,,,,,,,,,,,,,-0.7,,,,,,,,,,,METAR,583.0
CWWE 021700Z AUTO 03007KT RMK AO1 51003,CWWE,2023-06-02T17:00:00Z,43.98,-64.67,,,30,7,,,,,,TRUE,TRUE,,,,,,,,,,,,,,,,0.3,,,,,,,,,,,METAR,4.0
CWWB 021700Z AUTO 12007KT 27/13 RMK AO1 SLP167 T02660133 58015,CWWB,2023-06-02T17:00:00Z,43.3,-79.78,26.6,13.3,120,7,,,,1016.7,,TRUE,TRUE,,,,,,,,,,,,,,,,-1.5,,,,,,,,,,,METAR,77.0
CWWA 021700Z AUTO 16001KT 16/07 RMK AO1 SLP195 T01630067 51006,CWWA,2023-06-02T17:00:00Z,49.35,-123.18,16.3,6.7,160,1,,,,1019.5,,TRUE,TRUE,,,,,,,,,,,,,,,,0.6,,,,,,,,,,,METAR,172.0
CWVU 021700Z AUTO 01026G32KT 13/09 RMK AO1 PK WND 00032/1654 SLP121 T01270091 58003,CWVU,2023-06-02T17:00:00Z,44.28,-66.33,12.7,9.1,10,26,32,,,1012.1,,TRUE,TRUE,,,,,,,,,,,,,,,,-0.3,,,,,,,,,,,METAR,4.0
CWVT 021700Z AUTO 31003KT 17/15 RMK AO1 3006 SLP176 T01660147 50001,CWVT,2023-06-02T17:00:00Z,55.83,-108.42,16.6,14.7,310,3,,,,1017.6,,TRUE,TRUE,,,,,,,,,,,,,,,,0.1,,,,,,,,,,,METAR,431.0
CWVQ 021700Z AUTO 35004KT 30/15 RMK AO1 SLP146 T02960153 58011,CWVQ,2023-06-02T17:00:00Z,45.42,-73.92,29.6,15.3,350,4,,,,1014.6,,TRUE,TRUE,,,,,,,,,,,,,,,,-1.1,,,,,,,,,,,METAR,38.0
CWVP 021700Z AUTO 34007KT 11/10 RMK AO1 SLP183 T01060099 51005,CWVP,2023-06-02T17:00:00Z,49.63,-109.52,10.6,9.9,340,7,,,,1018.3,,TRUE,TRUE,,,,,,,,,,,,,,,,0.5,,,,,,,,,,,METAR,1269.0
CWVN 021700Z AUTO 02015KT 16/13 RMK AO1 PK WND 02019/1659 SLP158 T01590132 51006,CWVN,2023-06-02T17:00:00Z,49.07,-107.58,15.9,13.2,20,15,,,,1015.8,,TRUE,TRUE,,,,,,,,,,,,,,,,0.6,,,,,,,,,,,METAR,792.0
CWVI 021700Z AUTO 33009KT 19/11 RMK AO1 SLP182 T01930107 51002,CWVI,2023-06-02T17:00:00Z,53.52,-112.1,19.3,10.7,330,9,,,,1018.2,,TRUE,TRUE,,,,,,,,,,,,,,,,0.2,,,,,,,,,,,METAR,640.0
CWVF 021700Z AUTO 14013KT 13/09 RMK AO1 T01320090,CWVF,2023-06-02T17:00:00Z,49.1,-123.3,13.2,9.0,140,13,,,,,,TRUE,TRUE,,,,,,,,,,,,,,,,,,,,,,,,,,,METAR,13.0
CWUX 021700Z AUTO 11009KT 16/10 RMK AO1 PK WND 11017/1601 SLP204 T01570098 50019,CWUX,2023-06-02T17:00:00Z,48.3,-70.93,15.7,9.8,110,9,,,,1020.4,,TRUE,TRUE,,,,,,,,,,,,,,,,1.9,,,,,,,,,,,METAR,150.0
CWUW 021700Z AUTO 20026KT ////SM ////// M04/M05 A3015,CWUW,2023-06-02T17:00:00Z,68.62,-71.12,-4.0,-5.0,200,26,,,30.15059,,,TRUE,,,,,,,,,,,,,,,,,,,,,,,,,,,,METAR,173.0
CWUS 021700Z AUTO 08003KT 20/05 RMK AO1 SLP153 T02000054 58002,CWUS,2023-06-02T17:00:00Z,49.57,-119.65,20.0,5.4,80,3,,,,1015.3,,TRUE,TRUE,,,,,,,,,,,,,,,,-0.2,,,,,,,,,,,METAR,455.0
CWTY 021700Z AUTO 05008KT 23/16 RMK AO1 SLP156 T02300157 55000,CWTY,2023-06-02T17:00:00Z,46.35,-72.52,23.0,15.7,50,8,,,,1015.6,,TRUE,TRUE,,,,,,,,,,,,,,,,0.0,,,,,,,,,,,METAR,8.0
CWTT 021700Z AUTO 36003KT 28/15 RMK AO1 T02770149,CWTT,2023-06-02T17:00:00Z,45.27,-72.17,27.7,14.9,360,3,,,,,,TRUE,TRUE,,,,,,,,,,,,,,,,,,,,,,,,,,,METAR,210.0
CWTN 021700Z AUTO 07023G32KT 14/09 RMK AO1 PK WND 06033/1618 SLP180 T01430094 51002,CWTN,2023-06-02T17:00:00Z,47.07,-70.78,14.3,9.4,70,23,32,,,1018.0,,TRUE,TRUE,,,,,,,,,,,,,,,,0.2,,,,,,,,,,,METAR,5.0
CWTG 021700Z AUTO 05022G27KT 09/06 RMK AO1 PK WND 05031/1621 SLP237 T00860056 53015,CWTG,2023-06-02T17:00:00Z,49.32,-67.37,8.6,5.6,50,22,27,,,1023.7,,TRUE,TRUE,,,,,,,,,,,,,,,,1.5,,,,,,,,,,,METAR,6.0
CWTA 021700Z AUTO 03004KT 30/14 RMK AO1 SLP143 T02980143 58013,CWTA,2023-06-02T17:00:00Z,45.5,-73.58,29.8,14.3,30,4,,,,1014.3,,TRUE,TRUE,,,,,,,,,,,,,,,,-1.3,,,,,,,,,,,METAR,71.0
CWSW 021700Z VRB03KT 20SM FEW040 SCT260 BKN290 17/07 A3006 RMK CF1CC3CI2 DIST HZ ALQDS SLP174 DENSITY ALT 4800FT,CWSW,2023-06-02T17:00:00Z,49.83,-114.87,17.0,7.0,0,3,,20.0,30.059055,1017.4,,,,,,,,,,FEW,4000,SCT,26000,BKN,29000,,,VFR,,,,,,,,,,,,METAR,1173.0
CWST 021700Z AUTO 04015G32KT 10/06 RMK AO1 PK WND 04032/1659 SLP200 T01030064 53011,CWST,2023-06-02T17:00:00Z,47.35,-70.02,10.3,6.4,40,15,32,,,1020.0,,TRUE,TRUE,,,,,,,,,,,,,,,,1.1,,,,,,,,,,,METAR,31.0
CWSS 021700Z AUTO 05009G15KT 24/13 RMK AO1 SLP141 T02410133 53002,CWSS,2023-06-02T17:00:00Z,45.2,-67.25,24.1,13.3,50,9,15,,,1014.1,,TRUE,TRUE,,,,,,,,,,,,,,,,0.2,,,,,,,,,,,METAR,27.0
CWSR 021700Z AUTO 32009KT 18/13 RMK AO1 SLP161 T01780126 51011,CWSR,2023-06-02T17:00:00Z,53.37,-107.55,17.8,12.6,320,9,,,,1016.1,,TRUE,TRUE,,,,,,,,,,,,,,,,1.1,,,,,,,,,,,METAR,589.0
CWSP 021700Z AUTO 29016KT 10/08 RMK AO1 PK WND 29019/1612 SLP201 T01010078 53005,CWSP,2023-06-02T17:00:00Z,48.38,-123.92,10.1,7.8,290,16,,,,1020.1,,TRUE,TRUE,,,,,,,,,,,,,,,,0.5,,,,,,,,,,,METAR,2.0
CWSL 021700Z AUTO 36002KT 18/07 RMK AO1 SLP161 T01790070 58001,CWSL,2023-06-02T17:00:00Z,50.7,-119.28,17.9,7.0,360,2,,,,1016.1,,TRUE,TRUE,,,,,,,,,,,,,,,,-0.1,,,,,,,,,,,METAR,353.0
CWSK 021700Z AUTO 20006KT 18/08 RMK AO1 SLP183 T01820079 58003,CWSK,2023-06-02T17:00:00Z,49.78,-123.17,18.2,7.9,200,6,,,,1018.3,,TRUE,TRUE,,,,,,,,,,,,,,,,-0.3,,,,,,,,,,,METAR,59.0
CWSG 021700Z AUTO 07017G23KT 07/05 RMK AO1 1021 PK WND 07028/1620 SLP232 T00670054 50021,CWSG,2023-06-02T17:00:00Z,49.12,-66.65,6.7,5.4,70,17,23,,,1023.2,,TRUE,TRUE,,,,,,,,,,,,,,,,2.1,,,,,,,,,,,METAR,5.0
CWSF 021700Z AUTO 08017KT 07/04 RMK AO1 2PAST HR 1013 PK WND 07021/1632 SLP245 P0001 T00680042 50068,CWSF,2023-06-02T17:00:00Z,49.25,-65.32,6.8,4.2,80,17,,,,1024.5,,TRUE,TRUE,,,,,,,,,,,,,,,,6.8,,,,,0.01,,,,,,METAR,15.0
CWSD 021700Z AUTO 01021G27KT 08/07 RMK AO1 PK WND 01027/1645 SLP180 T00790068 51008,CWSD,2023-06-02T17:00:00Z,46.43,-63.85,7.9,6.8,10,21,27,,,1018.0,,TRUE,TRUE,,,,,,,,,,,,,,,,0.8,,,,,,,,,,,METAR,12.0
CWSA 021700Z AUTO 12013KT 9SM 12/09 A2992 RMK CLD MISG SLP132,CWSA,2023-06-02T17:00:00Z,43.93,-60.0,12.0,9.0,120,13,,9.0,29.920275,1013.2,,TRUE,,,,,,,,,,,,,,,,,,,,,,,,,,,,METAR,4.0
CWRZ 021700Z AUTO 05025KT 07/06 RMK AO1 PK WND 04030/1629 SLP221 T00720061 53004,CWRZ,2023-06-02T17:00:00Z,48.42,-64.32,7.2,6.1,50,25,,,,1022.1,,TRUE,TRUE,,,,,,,,,,,,,,,,0.4,,,,,,,,,,,METAR,16.0
CWRY 021700Z AUTO 35011KT 13/09 RMK AO1 SLP202 T01310088 50004,CWRY,2023-06-02T17:00:00Z,49.12,-112.05,13.1,8.8,350,11,,,,1020.2,,TRUE,TRUE,,,,,,,,,,,,,,,,0.4,,,,,,,,,,,METAR,1048.0
CWRX 021700Z AUTO ///// ////SM ////// 00/M01 A3002,CWRX,2023-06-02T17:00:00Z,69.07,-79.07,0.0,-1.0,,,,,30.02067,,,TRUE,,,,,,,,,,,,,,,,,,,,,,,,,,,,METAR,39.0
CWRU 021700Z AUTO 12022KT 11/ RMK AO1 PK WND 12029/1617 SLP178 T0109 55002,CWRU,2023-06-02T17:00:00Z,50.12,-127.93,10.9,,120,22,,,,1017.8,,TRUE,TRUE,,,,,,,,,,,,,,,,-0.2,,,,,,,,,,,METAR,76.0
CWRT 021700Z AUTO 13008KT 15/07 RMK AO1 SLP190 T01510067 56005,CWRT,2023-06-02T17:00:00Z,49.62,-114.47,15.1,6.7,130,8,,,,1019.0,,TRUE,TRUE,,,,,,,,,,,,,,,,-0.5,,,,,,,,,,,METAR,1311.0
CWRN 021700Z AUTO 08012G17KT 10/06 RMK AO1 PK WND 08017/1658 SLP163 T00970055 50012,CWRN,2023-06-02T17:00:00Z,45.35,-60.98,9.7,5.5,80,12,17,,,1016.3,,TRUE,TRUE,,,,,,,,,,,,,,,,1.2,,,,,,,,,,,METAR,8.0
CWRM 021700Z AUTO 15003KT 15/09 RMK AO1 SLP185 T01500089 58007,CWRM,2023-06-02T17:00:00Z,52.42,-114.92,15.0,8.9,150,3,,,,1018.5,,TRUE,TRUE,,,,,,,,,,,,,,,,-0.7,,,,,,,,,,,METAR,986.0
CWRK 021700Z AUTO 02004KT 28/13 RMK AO1 SLP173 T02830128 58008,CWRK,2023-06-02T17:00:00Z,45.07,-77.87,28.3,12.8,20,4,,,,1017.3,,TRUE,TRUE,,,,,,,,,,,,,,,,-0.8,,,,,,,,,,,METAR,328.0
CWRJ 021700Z AUTO 34008KT 17/12 RMK AO1 SLP169 T01690115 53007,CWRJ,2023-06-02T17:00:00Z,51.57,-107.92,16.9,11.5,340,8,,,,1016.9,,TRUE,TRUE,,,,,,,,,,,,,,,,0.7,,,,,,,,,,,METAR,586.0
CWRA 021700Z AUTO 04012KT 08/08 RMK AO1 PK WND 03018/1632 SLP153 T00780075 56005,CWRA,2023-06-02T17:00:00Z,46.65,-53.07,7.8,7.5,40,12,,,,1015.3,,TRUE,TRUE,,,,,,,,,,,,,,,,-0.5,,,,,,,,,,,METAR,4.0
CWQV 021700Z AUTO 09017KT 13/ RMK AO1 PK WND 10020/1659 T0129,CWQV,2023-06-02T17:00:00Z,48.27,-70.12,12.9,,90,17,,,,,,TRUE,TRUE,,,,,,,,,,,,,,,,,,,,,,,,,,,METAR,4.0
CWQS 021700Z AUTO 18008KT 08/07 RMK AO1 PK WND 16022/1607 SLP127 T00760066 53010,CWQS,2023-06-02T17:00:00Z,53.32,-132.77,7.6,6.6,180,8,,,,1012.7,,TRUE,TRUE,,,,,,,,,,,,,,,,1.0,,,,,,,,,,,METAR,10.0
CWQR 021700Z AUTO 13012KT 06/02 RMK AO1 T00640023,CWQR,2023-06-02T17:00:00Z,50.22,-64.22,6.4,2.3,130,12,,,,,,TRUE,TRUE,,,,,,,,,,,,,,,,,,,,,,,,,,,METAR,9.0
CWQP 021700Z AUTO 20005KT 23/17 RMK AO1 SLP164 T02280173 57005,CWQP,2023-06-02T17:00:00Z,43.83,-77.15,22.8,17.3,200,5,,,,1016.4,,TRUE,TRUE,,,,,,,,,,,,,,,,-0.5,,,,,,,,,,,METAR,77.0
CWQO 021700Z AUTO 05020G26KT 08/07 RMK AO1 PK WND 04030/1613 T00830066,CWQO,2023-06-02T17:00:00Z,48.42,-68.9,8.3,6.6,50,20,26,,,,,TRUE,TRUE,,,,,,,,,,,,,,,,,,,,,,,,,,,METAR,7.0
CWQK 021700Z AUTO 27020KT 10/08 RMK AO1 PK WND 27022/1631 SLP195 T01000078 50003,CWQK,2023-06-02T17:00:00Z,48.3,-123.53,10.0,7.8,270,20,,,,1019.5,,TRUE,TRUE,,,,,,,,,,,,,,,,0.3,,,,,,,,,,,METAR,5.0
CWQH 021700Z AUTO 36005KT 28/16 RMK AO1 SLP144 T02750158 58011,CWQH,2023-06-02T17:00:00Z,45.37,-71.82,27.5,15.8,360,5,,,,1014.4,,TRUE,TRUE,,,,,,,,,,,,,,,,-1.1,,,,,,,,,,,METAR,181.0
CWPZ 021700Z AUTO 10003KT 15/01 RMK AO1 SLP167 T01470014 58002,CWPZ,2023-06-02T17:00:00Z,54.38,-125.97,14.7,1.4,100,3,,,,1016.7,,TRUE,TRUE,,,,,,,,,,,,,,,,-0.2,,,,,,,,,,,METAR,715.0
CWPR 021700Z AUTO 15002KT 16/03 RMK AO1 SLP158 T01550032 58012,CWPR,2023-06-02T17:00:00Z,49.47,-120.52,15.5,3.2,150,2,,,,1015.8,,TRUE,TRUE,,,,,,,,,,,,,,,,-1.2,,,,,,,,,,,METAR,703.0
CWPO 021700Z AUTO 14011KT 29/16 RMK AO1 SLP156 T02900162 58004,CWPO,2023-06-02T17:00:00Z,49.2,-98.9,29.0,16.2,140,11,,,,1015.6,,TRUE,TRUE,,,,,,,,,,,,,,,,-0.4,,,,,,,,,,,METAR,471.0
CWPK 021700Z AUTO 02005KT 25/07 RMK AO1 4PAST HR 7002 SLP189 P0037 T02480066 50309,CWPK,2023-06-02T17:00:00Z,47.92,-74.62,24.8,6.6,20,5,,,,1018.9,,TRUE,TRUE,,,,,,,,,,,,,,,,0.0,,,,,0.37,,,,,,METAR,443.0
CWPE 021700Z AUTO 10009KT 13/10 RMK AO1 PK WND 04017/1602 SLP147 T01260098 53006,CWPE,2023-06-02T17:00:00Z,45.07,-66.47,12.6,9.8,100,9,,,,1014.7,,TRUE,TRUE,,,,,,,,,,,,,,,,0.6,,,,,,,,,,,METAR,9.0
CWPD 021700Z AUTO 02005KT 19/12 RMK AO1 SLP133 T01930123 55004,CWPD,2023-06-02T17:00:00Z,47.57,-71.22,19.3,12.3,20,5,,,,1013.3,,TRUE,TRUE,,,,,,,,,,,,,,,,-0.4,,,,,,,,,,,METAR,795.0
CWOY 021700Z AUTO 15003KT 21/14 RMK AO1 SLP166 T02130142 53013,CWOY,2023-06-02T17:00:00Z,51.77,-104.2,21.3,14.2,150,3,,,,1016.6,,TRUE,TRUE,,,,,,,,,,,,,,,,1.3,,,,,,,,,,,METAR,557.0
CWOD 021700Z AUTO 03012G17KT 22/14 RMK AO1 PK WND 03018/1644 SLP195 T02210140 53012,CWOD,2023-06-02T17:00:00Z,48.85,-72.55,22.1,14.0,30,12,17,,,1019.5,,TRUE,TRUE,,,,,,,,,,,,,,,,1.2,,,,,,,,,,,METAR,150.0
CWOC 021700Z AUTO 09006KT 08/07 RMK AO1 1PAST HR 1007 SLP215 P0016 T00780070 50055,CWOC,2023-06-02T17:00:00Z,48.02,-65.32,7.8,7.0,90,6,,,,1021.5,,TRUE,TRUE,,,,,,,,,,,,,,,,5.5,,,,,0.16,,,,,,METAR,42.0
CWOB 021700Z AUTO 26005KT 240V330 ////SM ////// ///// A3038,CWOB,2023-06-02T17:00:00Z,63.33,-64.15,,,260,5,,,30.380905,,,TRUE,,,,,,,,,,,,,,,,,,,,,,,,,,,,METAR,369.0
CWNZ 021700Z AUTO 09006KT 23/10 RMK AO1 SLP244 T02280095 57015,CWNZ,2023-06-02T17:00:00Z,49.75,-84.17,22.8,9.5,90,6,,,,1024.4,,TRUE,TRUE,,,,,,,,,,,,,,,,-1.5,,,,,,,,,,,METAR,261.0
CWNQ 021700Z AUTO 31007KT 26/18 RMK AO1 SLP148 T02640178 56006,CWNQ,2023-06-02T17:00:00Z,46.22,-72.65,26.4,17.8,310,7,,,,1014.8,,TRUE,TRUE,,,,,,,,,,,,,,,,-0.6,,,,,,,,,,,METAR,9.0
CWNP 021700Z AUTO 25001KT 19/09 RMK AO1 SLP156 T01940091 58002,CWNP,2023-06-02T17:00:00Z,50.27,-117.82,19.4,9.1,250,1,,,,1015.6,,TRUE,TRUE,,,,,,,,,,,,,,,,-0.2,,,,,,,,,,,METAR,517.0
CWNM 021700Z AUTO 02003KT 21/06 RMK AO1 SLP153 T02070063 58008,CWNM,2023-06-02T17:00:00Z,49.5,-117.3,20.7,6.3,20,3,,,,1015.3,,TRUE,TRUE,,,,,,,,,,,,,,,,-0.8,,,,,,,,,,,METAR,533.0
CWNK 021700Z AUTO 14007KT 30/17 RMK AO1 SLP147 T03030172 58004,CWNK,2023-06-02T17:00:00Z,49.5,-98.03,30.3,17.2,140,7,,,,1014.7,,TRUE,TRUE,,,,,,,,,,,,,,,,-0.4,,,,,,,,,,,METAR,271.0
CWNH 021700Z AUTO 02014G22KT 09/07 RMK AO1 PK WND 01025/1637 SLP205 T00870071 53013,CWNH,2023-06-02T17:00:00Z,47.8,-69.53,8.7,7.1,20,14,22,,,1020.5,,TRUE,TRUE,,,,,,,,,,,,,,,,1.3,,,,,,,,,,,METAR,147.0
CWNE 021700Z AUTO 03023KT 07/06 RMK AO1 PK WND 02032/1631 SLP192 T00710064 51011,CWNE,2023-06-02T17:00:00Z,47.07,-64.0,7.1,6.4,30,23,,,,1019.2,,TRUE,TRUE,,,,,,,,,,,,,,,,1.1,,,,,,,,,,,METAR,5.0
CWND 021700Z AUTO 12008KT 03/01 RMK AO1 SLP026 T00300007 56019,CWND,2023-06-02T17:00:00Z,69.63,-135.43,3.0,0.7,120,8,,,,1002.6,,TRUE,TRUE,,,,,,,,,,,,,,,,-1.9,,,,,,,,,,,METAR,14.0
CWNC 021700Z AUTO 27007KT 21/14 RMK AO1 SLP160 T02060135 57011,CWNC,2023-06-02T17:00:00Z,43.95,-78.17,20.6,13.5,270,7,,,,1016.0,,TRUE,TRUE,,,,,,,,,,,,,,,,-1.1,,,,,,,,,,,METAR,71.0
CWMT 021700Z AUTO 14005KT 19/M03 RMK AO1 SLP196 T01891030 50001,CWMT,2023-06-02T17:00:00Z,63.13,-117.25,18.9,-3.0,140,5,,,,1019.6,,TRUE,TRUE,,,,,,,,,,,,,,,,0.1,,,,,,,,,,,METAR,274.0
CWMQ 021700Z AUTO 29005KT 14/11 RMK AO1 SLP186 T01350113 51001,CWMQ,2023-06-02T17:00:00Z,49.9,-109.47,13.5,11.3,290,5,,,,1018.6,,TRUE,TRUE,,,,,,,,,,,,,,,,0.1,,,,,,,,,,,METAR,767.0
CWMM 021700Z AUTO 12003KT 17/07 RMK AO1 SLP200 T01700066 50004,CWMM,2023-06-02T17:00:00Z,49.22,-122.68,17.0,6.6,120,3,,,,1020.0,,TRUE,TRUE,,,,,,,,,,,,,,,,0.4,,,,,,,,,,,METAR,2.0
CWMJ 021700Z AUTO 36008KT 28/16 RMK AO1 SLP168 T02790156 58009,CWMJ,2023-06-02T17:00:00Z,46.27,-76.0,27.9,15.6,360,8,,,,1016.8,,TRUE,TRUE,,,,,,,,,,,,,,,,-0.9,,,,,,,,,,,METAR,198.0
CWME 021700Z AUTO 22005KT 13/08 RMK AO1 SLP176 T01310076 58003,CWME,2023-06-02T17:00:00Z,52.18,-127.47,13.1,7.6,220,5,,,,1017.6,,TRUE,TRUE,,,,,,,,,,,,,,,,-0.3,,,,,,,,,,,METAR,23.0
CWLY 021700Z AUTO 18012G20KT 9SM CLR 19/07 A2999 RMK SLP155 DENSITY ALT 1400FT,CWLY,2023-06-02T17:00:00Z,50.22,-121.58,19.0,7.0,180,12,20,9.0,29.991142,1015.5,,TRUE,,,,,,,,CLR,,,,,,,,VFR,,,,,,,,,,,,METAR,228.0
CWLX 021700Z AUTO ///// ////SM ////// M00/M01 A3013,CWLX,2023-06-02T17:00:00Z,68.9,-75.15,0.0,-1.0,,,,,30.129921,,,TRUE,,,,,,,,,,,,,,,,,,,,,,,,,,,,METAR,129.0
CWLS 021700Z AUTO 36010G17KT 29/09 RMK AO1 PK WND 00017/1659 SLP188 T02890091 58010,CWLS,2023-06-02T17:00:00Z,43.97,-80.75,28.9,9.1,360,10,17,,,1018.8,,TRUE,TRUE,,,,,,,,,,,,,,,,-1.0,,,,,,,,,,,METAR,413.0
CWLP 021700Z AUTO 09010KT 10/08 RMK AO1 SLP183 T00950083 58004,CWLP,2023-06-02T17:00:00Z,50.93,-127.63,9.5,8.3,90,10,,,,1018.3,,TRUE,TRUE,,,,,,,,,,,,,,,,-0.4,,,,,,,,,,,METAR,15.0
CWLM 021700Z AUTO 23011KT 13/08 RMK AO1 PK WND 23018/1632 SLP198 T01300079 51007,CWLM,2023-06-02T17:00:00Z,48.42,-123.32,13.0,7.9,230,11,,,,1019.8,,TRUE,TRUE,,,,,,,,,,,,,,,,0.7,,,,,,,,,,,METAR,62.0
CWLE 021700Z AUTO 31008KT 17/13 RMK AO1 SLP173 T01700128 50014,CWLE,2023-06-02T17:00:00Z,50.95,-107.15,17.0,12.8,310,8,,,,1017.3,,TRUE,TRUE,,,,,,,,,,,,,,,,1.4,,,,,,,,,,,METAR,666.0
CWLC 021700Z AUTO 12019KT 10/07 RMK AO1 PK WND 13029/1621 T01000073,CWLC,2023-06-02T17:00:00Z,54.3,-130.62,10.0,7.3,120,19,,,,,,TRUE,TRUE,,,,,,,,,,,,,,,,,,,,,,,,,,,METAR,27.0
CWLB 021700Z AUTO 01007KT 18/11 RMK AO1 SLP190 T01780107 52002,CWLB,2023-06-02T17:00:00Z,54.77,-112.02,17.8,10.7,10,7,,,,1019.0,,TRUE,TRUE,,,,,,,,,,,,,,,,0.2,,,,,,,,,,,METAR,561.0
CWKX 021700Z AUTO 07005KT 08/01 RMK AO1 SLP180 T00810011 58008,CWKX,2023-06-02T17:00:00Z,58.43,-130.02,8.1,1.1,70,5,,,,1018.0,,TRUE,TRUE,,,,,,,,,,,,,,,,-0.8,,,,,,,,,,,METAR,807.0
CWKO 021700Z AUTO 04006KT 18/14 RMK AO1 SLP157 T01770135 50001,CWKO,2023-06-02T17:00:00Z,49.17,-105.97,17.7,13.5,40,6,,,,1015.7,,TRUE,TRUE,,,,,,,,,,,,,,,,0.1,,,,,,,,,,,METAR,914.0
CWKH 021700Z AUTO 15/06 RMK AO1 SLP181 T01540062 51006,CWKH,2023-06-02T17:00:00Z,48.57,-123.55,15.4,6.2,,,,,,1018.1,,TRUE,TRUE,,,,,,,,,,,,,,,,0.6,,,,,,,,,,,METAR,327.0
CWKG 021700Z AUTO 03004KT 20/16 RMK AO1 SLP132 T01980160 56002,CWKG,2023-06-02T17:00:00Z,44.43,-65.2,19.8,16.0,30,4,,,,1013.2,,TRUE,TRUE,,,,,,,,,,,,,,,,-0.2,,,,,,,,,,,METAR,154.0
CWKD 021700Z AUTO 17/04 RMK AO1 SLP242 T01740037 51003,CWKD,2023-06-02T17:00:00Z,50.73,-71.02,17.4,3.7,,,,,,1024.2,,TRUE,TRUE,,,,,,,,,,,,,,,,0.3,,,,,,,,,,,METAR,496.0
CWJX 021700Z AUTO 32007KT 16/10 RMK AO1 SLP176 T01550102 58002,CWJX,2023-06-02T17:00:00Z,50.88,-109.5,15.5,10.2,320,7,,,,1017.6,,TRUE,TRUE,,,,,,,,,,,,,,,,-0.2,,,,,,,,,,,METAR,671.0
CWJW 021700Z AUTO 33002KT 15/05 RMK AO1 SOG 01 8015 SLP187 T01500047 50003,CWJW,2023-06-02T17:00:00Z,52.93,-118.03,15.0,4.7,330,2,,,,1018.7,,TRUE,TRUE,,,,,,,,,,,,,,,,0.3,,,,,,,,,,,METAR,1022.0
CWJV 021700Z AUTO 29002KT 20/06 RMK AO1 SLP153 T02020057 58002,CWJV,2023-06-02T17:00:00Z,50.22,-119.18,20.2,5.7,290,2,,,,1015.3,,TRUE,TRUE,,,,,,,,,,,,,,,,-0.2,,,,,,,,,,,METAR,487.0
CWJU 021700Z AUTO 14002KT 11/10 RMK AO1 SLP129 T01070102 53001,CWJU,2023-06-02T17:00:00Z,54.25,-133.07,10.7,10.2,140,2,,,,1012.9,,TRUE,TRUE,,,,,,,,,,,,,,,,0.1,,,,,,,,,,,METAR,47.0
CWJT 021700Z AUTO 24002KT 30/18 RMK AO1 SLP150 T03030178 58015,CWJT,2023-06-02T17:00:00Z,46.07,-74.57,30.3,17.8,240,2,,,,1015.0,,TRUE,TRUE,,,,,,,,,,,,,,,,-1.5,,,,,,,,,,,METAR,236.0
CWJR 021700Z AUTO 28003KT 20/07 RMK AO1 SLP157 T01980072 58005,CWJR,2023-06-02T17:00:00Z,49.03,-116.5,19.8,7.2,280,3,,,,1015.7,,TRUE,TRUE,,,,,,,,,,,,,,,,-0.5,,,,,,,,,,,METAR,642.0
CWJO 021700Z AUTO 00010KT 16/10 RMK AO1 SLP201 T01600100 51022,CWJO,2023-06-02T17:00:00Z,48.43,-71.15,16.0,10.0,0,10,,,,1020.1,,TRUE,TRUE,,,,,,,,,,,,,,,,2.2,,,,,,,,,,,METAR,113.0
CWJI 021700Z AUTO 02005KT 18/15 RMK AO1 SLP160 T01800146 51004,CWJI,2023-06-02T17:00:00Z,49.72,-105.93,18.0,14.6,20,5,,,,1016.0,,TRUE,TRUE,,,,,,,,,,,,,,,,0.4,,,,,,,,,,,METAR,724.0
CWJH 021700Z AUTO 09002KT 17/14 RMK AO1 SLP170 T01690140 58001,CWJH,2023-06-02T17:00:00Z,56.32,-103.27,16.9,14.0,90,2,,,,1017.0,,TRUE,TRUE,,,,,,,,,,,,,,,,-0.1,,,,,,,,,,,METAR,345.0
CWJD 021700Z AUTO 05003KT 13/11 RMK AO1 SLP186 T01310114 53006,CWJD,2023-06-02T17:00:00Z,53.18,-99.27,13.1,11.4,50,3,,,,1018.6,,TRUE,TRUE,,,,,,,,,,,,,,,,0.6,,,,,,,,,,,METAR,222.0
CWJC 021700Z AUTO 17005KT 14/14 RMK AO1 SLP209 T01420137 58004,CWJC,2023-06-02T17:00:00Z,61.13,-100.9,14.2,13.7,170,5,,,,1020.9,,TRUE,TRUE,,,,,,,,,,,,,,,,-0.4,,,,,,,,,,,METAR,340.0
CWJB 021700Z AUTO 15/11 RMK AO1 T01510110 50012,CWJB,2023-06-02T17:00:00Z,46.78,-71.28,15.1,11.0,,,,,,,,TRUE,TRUE,,,,,,,,,,,,,,,,1.2,,,,,,,,,,,METAR,90.0
CWIZ 021700Z AUTO 03005KT 31/14 RMK AO1 T03060135,CWIZ,2023-06-02T17:00:00Z,45.28,-73.33,30.6,13.5,30,5,,,,,,TRUE,TRUE,,,,,,,,,,,,,,,,,,,,,,,,,,,METAR,45.0
CWIW 021700Z AUTO 31004KT 20/16 RMK AO1 SLP162 T01950156 52016,CWIW,2023-06-02T17:00:00Z,51.67,-105.4,19.5,15.6,310,4,,,,1016.2,,TRUE,TRUE,,,,,,,,,,,,,,,,1.6,,,,,,,,,,,METAR,524.0
CWIT 021700Z AUTO 02006KT 30/14 RMK AO1 SLP141 T02990135 58012,CWIT,2023-06-02T17:00:00Z,45.17,-73.67,29.9,13.5,20,6,,,,1014.1,,TRUE,TRUE,,,,,,,,,,,,,,,,-1.2,,,,,,,,,,,METAR,53.0
CWIS 021700Z AUTO 06008KT 11/08 RMK AO1 PK WND 07017/1621 SLP193 T01110083 53005,CWIS,2023-06-02T17:00:00Z,47.28,-70.63,11.1,8.3,60,8,,,,1019.3,,TRUE,TRUE,,,,,,,,,,,,,,,,0.5,,,,,,,,,,,METAR,720.0
CWIP 021700Z AUTO 12007KT 10/05 RMK AO1 T00970047,CWIP,2023-06-02T17:00:00Z,50.17,-66.43,9.7,4.7,120,7,,,,,,TRUE,TRUE,,,,,,,,,,,,,,,,,,,,,,,,,,,METAR,27.0
CWIK 021700Z AUTO 11013KT 24/16 RMK AO1 PK WND 12017/1648 SLP150 T02420155 58010,CWIK,2023-06-02T17:00:00Z,50.37,-102.58,24.2,15.5,110,13,,,,1015.0,,TRUE,TRUE,,,,,,,,,,,,,,,,-1.0,,,,,,,,,,,METAR,597.0
CWIJ 021700Z AUTO 26008KT 14/02 RMK AO1 SLP211 T01380021 51011,CWIJ,2023-06-02T17:00:00Z,65.77,-111.23,13.8,2.1,260,8,,,,1021.1,,TRUE,TRUE,,,,,,,,,,,,,,,,1.1,,,,,,,,,,,METAR,490.0
CWII 021700Z AUTO 09009KT 26/18 RMK AO1 SLP161 T02570183 58003,CWII,2023-06-02T17:00:00Z,50.7,-96.57,25.7,18.3,90,9,,,,1016.1,,TRUE,TRUE,,,,,,,,,,,,,,,,-0.3,,,,,,,,,,,METAR,216.0
CWIG 021700Z AUTO 05033G44KT RMK AO1 PK WND 04044/1659,CWIG,2023-06-02T17:00:00Z,47.07,-70.53,,,50,33,44,,,,,TRUE,TRUE,,,,,,,,,,,,,,,,,,,,,,,,,,,METAR,12.0
CWID 021700Z AUTO 33002KT 21/M03 RMK AO1 SLP200 T02061031 51001,CWID,2023-06-02T17:00:00Z,61.32,-117.6,20.6,-3.1,330,2,,,,1020.0,,TRUE,TRUE,,,,,,,,,,,,,,,,0.1,,,,,,,,,,,METAR,160.0
CWHV 021700Z AUTO 34005KT 21/17 RMK AO1 SLP156 T02110169 56004,CWHV,2023-06-02T17:00:00Z,46.2,-70.78,21.1,16.9,340,5,,,,1015.6,,TRUE,TRUE,,,,,,,,,,,,,,,,-0.4,,,,,,,,,,,METAR,227.0
CWHT 021700Z AUTO 36003KT 11/M02 RMK AO1 SLP146 T01111015 58008,CWHT,2023-06-02T17:00:00Z,60.77,-137.58,11.1,-1.5,360,3,,,,1014.6,,TRUE,TRUE,,,,,,,,,,,,,,,,-0.8,,,,,,,,,,,METAR,601.0
CWHQ 021700Z AUTO 10010G18KT 18/12 RMK AO1 PK WND 10020/1634 T01780123,CWHQ,2023-06-02T17:00:00Z,46.68,-71.97,17.8,12.3,100,10,18,,,,,TRUE,TRUE,,,,,,,,,,,,,,,,,,,,,,,,,,,METAR,56.0
CWHP 021700Z AUTO 04031G37KT 05/03 RMK AO1 PK WND 04039/1648 SLP223 T00470034 51011,CWHP,2023-06-02T17:00:00Z,49.08,-61.7,4.7,3.4,40,31,37,,,1022.3,,TRUE,TRUE,,,,,,,,,,,,,,,,1.1,,,,,,,,,,,METAR,7.0
CWHO 021700Z AUTO 00000KT 02/M02 RMK AO1 SLP348 T00151019 53006,CWHO,2023-06-02T17:00:00Z,55.45,-60.22,1.5,-1.9,0,0,,,,1034.8,,TRUE,TRUE,,,,,,,,,,,,,,,,0.6,,,,,,,,,,,METAR,16.0
CWHL 021700Z AUTO 16017KT 11/07 RMK AO1 3005 PK WND 16021/1603 SLP153 T01060074 50002,CWHL,2023-06-02T17:00:00Z,54.17,-130.35,10.6,7.4,160,17,,,,1015.3,,TRUE,TRUE,,,,,,,,,,,,,,,,0.2,,,,,,,,,,,METAR,5.0
CWHI 021700Z AUTO 01005KT 16/08 RMK AO1 T01550075,CWHI,2023-06-02T17:00:00Z,51.7,-113.22,15.5,7.5,10,5,,,,,,TRUE,TRUE,,,,,,,,,,,,,,,,,,,,,,,,,,,METAR,906.0
CWGZ 021700Z 07007G16KT 020V190 15SM FEW040 FEW080 FEW160 FEW210 02/M10 A3001 RMK SC1AC1AS2CI1 SC TR AC TR CI TR SLP168,CWGZ,2023-06-02T17:00:00Z,76.42,-82.9,2.0,-10.0,70,7,16,15.0,30.008858,1016.8,,,,,,,,,,FEW,4000,FEW,8000,FEW,16000,FEW,21000,VFR,,,,,,,,,,,,METAR,24.0
CWGY 021700Z AUTO 35009KT 20/10 RMK AO1 SLP179 T01950102 50001,CWGY,2023-06-02T17:00:00Z,51.67,-110.2,19.5,10.2,350,9,,,,1017.9,,TRUE,TRUE,,,,,,,,,,,,,,,,0.1,,,,,,,,,,,METAR,709.0
CWGW 021700Z AUTO 04002KT 18/07 RMK AO1 SLP172 T01760066 58011,CWGW,2023-06-02T17:00:00Z,49.75,-114.9,17.6,6.6,40,2,,,,1017.2,,TRUE,TRUE,,,,,,,,,,,,,,,,-1.1,,,,,,,,,,,METAR,1137.0
CWGT 021700Z AUTO 12011KT 17/12 RMK AO1 SLP192 T01650122 51007,CWGT,2023-06-02T17:00:00Z,49.48,-124.43,16.5,12.2,120,11,,,,1019.2,,TRUE,TRUE,,,,,,,,,,,,,,,,0.7,,,,,,,,,,,METAR,5.0
CWGR 021700Z AUTO 04018G24KT 12/07 RMK AO1 PK WND 05024/1657 SLP176 T01160073 53014,CWGR,2023-06-02T17:00:00Z,47.42,-61.77,11.6,7.3,40,18,24,,,1017.6,,TRUE,TRUE,,,,,,,,,,,,,,,,1.4,,,,,,,,,,,METAR,4.0
CWGM 021700Z AUTO 08003KT 12/09 RMK AO1 SLP203 T01210088 53001,CWGM,2023-06-02T17:00:00Z,49.13,-113.8,12.1,8.8,80,3,,,,1020.3,,TRUE,TRUE,,,,,,,,,,,,,,,,0.1,,,,,,,,,,,METAR,1292.0
CWGL 021700Z AUTO 35010KT 26/15 RMK AO1 SLP164 T02640153 56008,CWGL,2023-06-02T17:00:00Z,44.53,-79.22,26.4,15.3,350,10,,,,1016.4,,TRUE,TRUE,,,,,,,,,,,,,,,,-0.8,,,,,,,,,,,METAR,220.0
CWGH 021700Z AUTO 18001KT 26/18 RMK AO1 SLP155 T02610178 58010,CWGH,2023-06-02T17:00:00Z,44.42,-75.85,26.1,17.8,180,1,,,,1015.5,,TRUE,TRUE,,,,,,,,,,,,,,,,-1.0,,,,,,,,,,,METAR,76.0
CWGD 021700Z AUTO 33010KT 24/13 RMK AO1 SLP189 T02400126 58009,CWGD,2023-06-02T17:00:00Z,43.77,-81.72,24.0,12.6,330,10,,,,1018.9,,TRUE,TRUE,,,,,,,,,,,,,,,,-0.9,,,,,,,,,,,METAR,214.0
CWGB 021700Z AUTO 11011KT 15/ RMK AO1 SLP186 T0151 51009,CWGB,2023-06-02T17:00:00Z,49.35,-124.13,15.1,,110,11,,,,1018.6,,TRUE,TRUE,,,,,,,,,,,,,,,,0.9,,,,,,,,,,,METAR,6.0
CWFQ 021700Z AUTO 35007KT 27/15 RMK AO1 SLP146 T02710152 58010,CWFQ,2023-06-02T17:00:00Z,45.03,-72.85,27.1,15.2,350,7,,,,1014.6,,TRUE,TRUE,,,,,,,,,,,,,,,,-1.0,,,,,,,,,,,METAR,190.0
CWFJ 021700Z AUTO 05004KT 14/08 RMK AO1 T01360075,CWFJ,2023-06-02T17:00:00Z,49.2,-113.27,13.6,7.5,50,4,,,,,,TRUE,TRUE,,,,,,,,,,,,,,,,,,,,,,,,,,,METAR,1142.0
CWFF 021700Z AUTO 26002KT 23/13 RMK AO1 SLP150 T02320130 53005,CWFF,2023-06-02T17:00:00Z,52.82,-104.6,23.2,13.0,260,2,,,,1015.0,,TRUE,TRUE,,,,,,,,,,,,,,,,0.5,,,,,,,,,,,METAR,482.0
CWEZ 021700Z AUTO 25009KT 15/08 RMK AO1 SLP191 T01490082 51008,CWEZ,2023-06-02T17:00:00Z,48.78,-123.05,14.9,8.2,250,9,,,,1019.1,,TRUE,TRUE,,,,,,,,,,,,,,,,0.8,,,,,,,,,,,METAR,23.0
CWEW 021700Z AUTO 08002KT 30/16 RMK AO1 SLP145 T03020157 58014,CWEW,2023-06-02T17:00:00Z,45.82,-73.43,30.2,15.7,80,2,,,,1014.5,,TRUE,TRUE,,,,,,,,,,,,,,,,-1.4,,,,,,,,,,,METAR,17.0
CWEU 021700Z 09006KT 030V100 15SM SCT240 00/M07 A2999 RMK CI3 CC ASOCTD SLP167,CWEU,2023-06-02T17:00:00Z,80.0,-85.93,0.0,-7.0,90,6,,15.0,29.991142,1016.7,,,,,,,,,,SCT,24000,,,,,,,VFR,,,,,,,,,,,,METAR,2.0
CWER 021700Z AUTO 06038G43KT RMK AO1 PK WND 06044/1600,CWER,2023-06-02T17:00:00Z,47.0,-70.82,,,60,38,43,,,,,TRUE,TRUE,,,,,,,,,,,,,,,,,,,,,,,,,,,METAR,4.0
CWEQ 021700Z AUTO 05006KT 19/18 RMK AO1 8012 SLP159 T01930176 50058,CWEQ,2023-06-02T17:00:00Z,52.12,-101.22,19.3,17.6,50,6,,,,1015.9,,TRUE,TRUE,,,,,,,,,,,,,,,,5.8,,,,,,,,,,,METAR,331.0
CWEP 021700Z AUTO 36011KT 12/08 RMK AO1 SLP162 T01150084 53007,CWEP,2023-06-02T17:00:00Z,46.45,-61.98,11.5,8.4,360,11,,,,1016.2,,TRUE,TRUE,,,,,,,,,,,,,,,,0.7,,,,,,,,,,,METAR,9.0
CWEL 021700Z AUTO 10013KT 14/11 RMK AO1 SLP187 T01420107 51006,CWEL,2023-06-02T17:00:00Z,49.22,-123.8,14.2,10.7,100,13,,,,1018.7,,TRUE,TRUE,,,,,,,,,,,,,,,,0.6,,,,,,,,,,,METAR,0.0
CWEH 021700Z AUTO 01013KT 13/11 RMK AO1 PK WND 01019/1635 SLP176 T01320107 51010,CWEH,2023-06-02T17:00:00Z,49.43,-108.98,13.2,10.7,10,13,,,,1017.6,,TRUE,TRUE,,,,,,,,,,,,,,,,1.0,,,,,,,,,,,METAR,1077.0
CWEF 021700Z AUTO 12004KT 10/07 RMK AO1 SLP170 T01020067 53008,CWEF,2023-06-02T17:00:00Z,47.22,-60.13,10.2,6.7,120,4,,,,1017.0,,TRUE,TRUE,,,,,,,,,,,,,,,,0.8,,,,,,,,,,,METAR,27.0
CWEE 021700Z AUTO 25/10 RMK AO1 SLP189 T02460101 52003,CWEE,2023-06-02T17:00:00Z,49.27,-73.35,24.6,10.1,,,,,,1018.9,,TRUE,TRUE,,,,,,,,,,,,,,,,0.3,,,,,,,,,,,METAR,302.0
CWEB 021700Z AUTO 00015KT 12/09 RMK AO1 SLP203 T01160094 52001,CWEB,2023-06-02T17:00:00Z,49.38,-126.55,11.6,9.4,0,15,,,,1020.3,,TRUE,TRUE,,,,,,,,,,,,,,,,0.1,,,,,,,,,,,METAR,1.0
CWDZ 021700Z AUTO 30002KT 19/07 RMK AO1 SLP190 T01910073 57008,CWDZ,2023-06-02T17:00:00Z,51.43,-112.67,19.1,7.3,300,2,,,,1019.0,,TRUE,TRUE,,,,,,,,,,,,,,,,-0.8,,,,,,,,,,,METAR,689.0
CWDV 021700Z AUTO 12006KT 27/16 RMK AO1 SLP210 T02730158 58007,CWDV,2023-06-02T17:00:00Z,49.02,-90.47,27.3,15.8,120,6,,,,1021.0,,TRUE,TRUE,,,,,,,,,,,,,,,,-0.7,,,,,,,,,,,METAR,487.0
CWDQ 021700Z AUTO 35008G15KT 27/14 RMK AO1 T02730140,CWDQ,2023-06-02T17:00:00Z,47.42,-72.78,27.3,14.0,350,8,15,,,,,TRUE,TRUE,,,,,,,,,,,,,,,,,,,,,,,,,,,METAR,174.0
CWDO 021700Z AUTO 04017G23KT 01/01 RMK AO1 2PAST HR 4000 PK WND 04024/1619 SLP205 P0001 T00120012 50007,CWDO,2023-06-02T17:00:00Z,49.68,-54.78,1.2,1.2,40,17,23,,,1020.5,,TRUE,TRUE,,,,,,,,,,,,,,,,0.7,,,,,0.01,,,,,,METAR,89.0
CWDM 021700Z AUTO 04016G23KT 05/03 RMK AO1 2007 PK WND 05025/1602 SLP249 T00470026 50006,CWDM,2023-06-02T17:00:00Z,50.47,-59.63,4.7,2.6,40,16,23,,,1024.9,,TRUE,TRUE,,,,,,,,,,,,,,,,0.6,,,,,,,,,,,METAR,2.0
CWDK 021700Z AUTO 06002KT 16/07 RMK AO1 SLP204 T01550072 55000,CWDK,2023-06-02T17:00:00Z,50.02,-113.62,15.5,7.2,60,2,,,,1020.4,,TRUE,TRUE,,,,,,,,,,,,,,,,0.0,,,,,,,,,,,METAR,1014.0
CWDJ 021700Z AUTO 34005KT 18/15 RMK AO1 3PAST HR 1014 SLP162 P0001 T01800147 50003,CWDJ,2023-06-02T17:00:00Z,50.4,-104.58,18.0,14.7,340,5,,,,1016.2,,TRUE,TRUE,,,,,,,,,,,,,,,,0.3,,,,,0.01,,,,,,METAR,576.0
CWDC 021700Z AUTO 05012G17KT 13/11 RMK AO1 5005 PK WND 06019/1610 SLP191 T01330107 50051,CWDC,2023-06-02T17:00:00Z,59.57,-108.48,13.3,10.7,50,12,17,,,1019.1,,TRUE,TRUE,,,,,,,,,,,,,,,,5.1,,,,,,,,,,,METAR,311.0
CWDA 021700Z AUTO 00034KT 03/ RMK AO1 T0027,CWDA,2023-06-02T17:00:00Z,50.72,-56.12,2.7,,0,34,,,,,,TRUE,TRUE,,,,,,,,,,,,,,,,,,,,,,,,,,,METAR,30.0
CWCT 021700Z AUTO 36006KT 18/10 RMK AO1 SLP201 T01820099 51003,CWCT,2023-06-02T17:00:00Z,52.07,-111.43,18.2,9.9,360,6,,,,1020.1,,TRUE,TRUE,,,,,,,,,,,,,,,,0.3,,,,,,,,,,,METAR,793.0
CWCO 021700Z AUTO 33010KT 20/16 RMK AO1 SLP193 T02030158 56008,CWCO,2023-06-02T17:00:00Z,44.5,-80.22,20.3,15.8,330,10,,,,1019.3,,TRUE,TRUE,,,,,,,,,,,,,,,,-0.8,,,,,,,,,,,METAR,182.0
CWCJ 021700Z AUTO 07005KT 24/18 RMK AO1 8004 SLP220 T02430177 50032,CWCJ,2023-06-02T17:00:00Z,48.6,-86.28,24.3,17.7,70,5,,,,1022.0,,TRUE,TRUE,,,,,,,,,,,,,,,,3.2,,,,,,,,,,,METAR,207.0
CWCI 021700Z AUTO 09006KT 18/12 RMK AO1 SLP215 T01820122 58001,CWCI,2023-06-02T17:00:00Z,47.33,-85.82,18.2,12.2,90,6,,,,1021.5,,TRUE,TRUE,,,,,,,,,,,,,,,,-0.1,,,,,,,,,,,METAR,167.0
CWCF 021700Z AUTO 27008KT 22/18 RMK AO1 SLP174 T02220180 50002,CWCF,2023-06-02T17:00:00Z,52.35,-97.03,22.2,18.0,270,8,,,,1017.4,,TRUE,TRUE,,,,,,,,,,,,,,,,0.2,,,,,,,,,,,METAR,219.0
CWBZ 021700Z AUTO 33002KT 31/16 RMK AO1 SLP145 T03070160 58012,CWBZ,2023-06-02T17:00:00Z,45.12,-74.28,30.7,16.0,330,2,,,,1014.5,,TRUE,TRUE,,,,,,,,,,,,,,,,-1.2,,,,,,,,,,,METAR,49.0
CWBY 021700Z AUTO 06016G23KT 09/02 RMK AO1 PK WND 06023/1653 SLP245 T00940017 51011,CWBY,2023-06-02T17:00:00Z,49.83,-64.28,9.4,1.7,60,16,23,,,1024.5,,TRUE,TRUE,,,,,,,,,,,,,,,,1.1,,,,,,,,,,,METAR,56.0
CWBV 021700Z AUTO 08018KT 09/07 RMK AO1 PK WND 09021/1608 SLP129 T00880067 55002,CWBV,2023-06-02T17:00:00Z,44.82,-62.33,8.8,6.7,80,18,,,,1012.9,,TRUE,TRUE,,,,,,,,,,,,,,,,-0.2,,,,,,,,,,,METAR,16.0
CWBU 021700Z AUTO 34001KT 22/16 RMK AO1 SLP147 T02160160 55000,CWBU,2023-06-02T17:00:00Z,53.33,-104.02,21.6,16.0,340,1,,,,1014.7,,TRUE,TRUE,,,,,,,,,,,,,,,,0.0,,,,,,,,,,,METAR,369.0
CWBT 021700Z AUTO 13006KT 11/03 RMK AO1 SLP247 T01060026 51004,CWBT,2023-06-02T17:00:00Z,50.27,-64.23,10.6,2.6,130,6,,,,1024.7,,TRUE,TRUE,,,,,,,,,,,,,,,,0.4,,,,,,,,,,,METAR,12.0
CWBS 021700Z AUTO 09007KT 24/16 RMK AO1 T02390159,CWBS,2023-06-02T17:00:00Z,46.18,-72.92,23.9,15.9,90,7,,,,,,TRUE,TRUE,,,,,,,,,,,,,,,,,,,,,,,,,,,METAR,3.0
CWBO 021700Z AUTO 36004KT 16/09 RMK AO1 SLP197 T01560089 58002,CWBO,2023-06-02T17:00:00Z,50.53,-111.83,15.6,8.9,360,4,,,,1019.7,,TRUE,TRUE,,,,,,,,,,,,,,,,-0.2,,,,,,,,,,,METAR,752.0
CWBK 021700Z AUTO 30018KT 10/08 RMK AO1 1009 PK WND 30020/1650 SLP157 T01010084 50001,CWBK,2023-06-02T17:00:00Z,45.77,-62.67,10.1,8.4,300,18,,,,1015.7,,TRUE,TRUE,,,,,,,,,,,,,,,,0.1,,,,,,,,,,,METAR,2.0
CWBA 021700Z AUTO 34007KT 26/15 RMK AO1 T02560151,CWBA,2023-06-02T17:00:00Z,46.72,-79.1,25.6,15.1,340,7,,,,,,TRUE,TRUE,,,,,,,,,,,,,,,,,,,,,,,,,,,METAR,181.0
CWAV 021700Z AUTO 10003KT 15/07 RMK AO1 SLP205 T01480067 57006,CWAV,2023-06-02T17:00:00Z,51.77,-114.67,14.8,6.7,100,3,,,,1020.5,,TRUE,TRUE,,,,,,,,,,,,,,,,-0.6,,,,,,,,,,,METAR,1115.0
CWAR 021700Z AUTO 35016KT 14/09 RMK AO1 PK WND 35019/1653 SLP168 T01360091 56004,CWAR,2023-06-02T17:00:00Z,47.28,-54.0,13.6,9.1,350,16,,,,1016.8,,TRUE,TRUE,,,,,,,,,,,,,,,,-0.4,,,,,,,,,,,METAR,6.0
CWAQ 021700Z AUTO 04007KT 19/16 RMK AO1 SLP149 T01880159 58001,CWAQ,2023-06-02T17:00:00Z,49.05,-105.48,18.8,15.9,40,7,,,,1014.9,,TRUE,TRUE,,,,,,,,,,,,,,,,-0.1,,,,,,,,,,,METAR,761.0
CWAJ 021700Z AUTO 08006KT RMK AO1 58010,CWAJ,2023-06-02T17:00:00Z,42.25,-81.9,,,80,6,,,,,,TRUE,TRUE,,,,,,,,,,,,,,,,-1.0,,,,,,,,,,,METAR,177.0
CWAF 021700Z AUTO 03021KT 07/05 RMK AO1 PK WND 02029/1614 T00690051,CWAF,2023-06-02T17:00:00Z,48.07,-69.55,6.9,5.1,30,21,,,,,,TRUE,TRUE,,,,,,,,,,,,,,,,,,,,,,,,,,,METAR,6.0
CTRA 021700Z AUTO 17005KT 26/17 RMK AO1 SLP188 T02620173 58003,CTRA,2023-06-02T17:00:00Z,49.67,-93.73,26.2,17.3,170,5,,,,1018.8,,TRUE,TRUE,,,,,,,,,,,,,,,,-0.3,,,,,,,,,,,METAR,432.0
CTNK 021700Z AUTO 05003KT 28/14 RMK AO1 SLP184 T02760135 57008,CTNK,2023-06-02T17:00:00Z,45.53,-78.27,27.6,13.5,50,3,,,,1018.4,,TRUE,TRUE,,,,,,,,,,,,,,,,-0.8,,,,,,,,,,,METAR,405.0
CTCK 021700Z AUTO 03004KT 30/14 RMK AO1 SLP143 T02980138 58009,CTCK,2023-06-02T17:00:00Z,45.25,-74.97,29.8,13.8,30,4,,,,1014.3,,TRUE,TRUE,,,,,,,,,,,,,,,,-0.9,,,,,,,,,,,METAR,84.0
CPSV 021700Z AUTO 01007KT 17/10 RMK AO1 T01710098,CPSV,2023-06-02T17:00:00Z,49.92,-110.92,17.1,9.8,10,7,,,,,,TRUE,TRUE,,,,,,,,,,,,,,,,,,,,,,,,,,,METAR,766.0
CPST 021700Z AUTO 05003KT 15/07 RMK AO1 T01460074,CPST,2023-06-02T17:00:00Z,51.03,-113.28,14.6,7.4,50,3,,,,,,TRUE,TRUE,,,,,,,,,,,,,,,,,,,,,,,,,,,METAR,1005.0
CPRY 021700Z AUTO 30003KT 14/08 RMK AO1 T01400084,CPRY,2023-06-02T17:00:00Z,49.48,-112.68,14.0,8.4,300,3,,,,,,TRUE,TRUE,,,,,,,,,,,,,,,,,,,,,,,,,,,METAR,947.0
CPRO 021700Z AUTO 35003KT 18/09 RMK AO1 T01830092,CPRO,2023-06-02T17:00:00Z,50.83,-112.05,18.3,9.2,350,3,,,,,,TRUE,TRUE,,,,,,,,,,,,,,,,,,,,,,,,,,,METAR,733.0
CPIN 021700Z AUTO 23009KT ////SM ////// ///// A////,CPIN,2023-06-02T17:00:00Z,,,,,230,9,,,,,,TRUE,,,,,,,,,,,,,,,,,,,,,,,,,,,,METAR,
CPFI 021700Z AUTO 36007KT 17/09 RMK AO1 T01670088,CPFI,2023-06-02T17:00:00Z,49.8,-112.03,16.7,8.8,360,7,,,,,,TRUE,TRUE,,,,,,,,,,,,,,,,,,,,,,,,,,,METAR,804.0
CPEH 021700Z AUTO 15/08 RMK AO1 T01500077,CPEH,2023-06-02T17:00:00Z,50.18,-112.43,15.0,7.7,,,,,,,,TRUE,TRUE,,,,,,,,,,,,,,,,,,,,,,,,,,,METAR,814.0
CPBT 021700Z AUTO 36003KT 14/08 RMK AO1 T01400082,CPBT,2023-06-02T17:00:00Z,49.53,-113.05,14.0,8.2,360,3,,,,,,TRUE,TRUE,,,,,,,,,,,,,,,,,,,,,,,,,,,METAR,998.0
CMGB 021700Z AUTO 35003KT 29/15 RMK AO1 SLP143 T02930151 58012,CMGB,2023-06-02T17:00:00Z,45.37,-72.77,29.3,15.1,350,3,,,,1014.3,,TRUE,TRUE,,,,,,,,,,,,,,,,-1.2,,,,,,,,,,,METAR,87.0
CMFM 021700Z AUTO 16003KT 18/17 RMK AO1 6PAST HR 5002 SLP167 P0010 T01750168 50026,CMFM,2023-06-02T17:00:00Z,47.32,-71.15,17.5,16.8,160,3,,,,1016.7,,TRUE,TRUE,,,,,,,,,,,,,,,,2.6,,,,,0.1,,,,,,METAR,663.0
CERM 021700Z AUTO 05002KT 13/12 RMK AO1 8PAST HR 1017 SLP187 P0011 T01330118 50045,CERM,2023-06-02T17:00:00Z,47.42,-68.32,13.3,11.8,50,2,,,,1018.7,,TRUE,TRUE,,,,,,,,,,,,,,,,4.5,,,,,0.11,,,,,,METAR,151.0
CBBC 021700Z AUTO 18006KT 140V220 9SM SCT030 SCT091 15/08 A3006 RMK SLP181,CBBC,2023-06-02T17:00:00Z,52.18,-128.15,15.0,8.0,180,6,,9.0,30.059055,1018.1,,TRUE,,,,,,,,SCT,3000,SCT,9100,,,,,VFR,,,,,,,,,,,,METAR,36.0
CBAR 021700Z AUTO 13009KT ////SM ////// ///// A////,CBAR,2023-06-02T17:00:00Z,,,,,130,9,,,,,,TRUE,,,,,,,,,,,,,,,,,,,,,,,,,,,,METAR,
CAHR 021700Z AUTO 36014G20KT 09/07 RMK AO1 PK WND 00021/1602 SLP168 T00870068 51010,CAHR,2023-06-02T17:00:00Z,46.35,-63.17,8.7,6.8,360,14,20,,,1016.8,,TRUE,TRUE,,,,,,,,,,,,,,,,1.0,,,,,,,,,,,METAR,52.0
BIVM 021700Z 30012KT 1000 BCFG SCT020 11/09 Q1029,BIVM,2023-06-02T17:00:00Z,63.42,-20.28,11.0,9.0,300,12,,0.62,30.383858,,,,,,,,,,BCFG,SCT,2000,,,,,,,LIFR,,,,,,,,,,,,METAR,93.0
BITN 021700Z 30009KT 9999 SCT025 BKN040 14/08 Q1025,BITN,2023-06-02T17:00:00Z,66.22,-15.33,14.0,8.0,300,9,,6.21,30.265747,,,,,,,,,,,SCT,2500,BKN,4000,,,,,VFR,,,,,,,,,,,,METAR,20.0
BIRK 021700Z 24003KT 220V280 9999 FEW007 SCT015 BKN052 10/09 Q1030,BIRK,2023-06-02T17:00:00Z,64.13,-21.93,10.0,9.0,240,3,,6.21,30.413385,,,,,,,,,,,FEW,700,SCT,1500,BKN,5200,,,VFR,,,,,,,,,,,,METAR,12.0
BIIS 021700Z 24014G24KT 210V270 9999 BKN030 OVC045 13/04 Q1025,BIIS,2023-06-02T17:00:00Z,66.05,-23.13,13.0,4.0,240,14,24,6.21,30.265747,,,,,,,,,,,BKN,3000,OVC,4500,,,,,MVFR,,,,,,,,,,,,METAR,3.0
BIHN 021700Z 31020KT 9999 FEW050 17/07 Q1025,BIHN,2023-06-02T17:00:00Z,64.3,-15.23,17.0,7.0,310,20,,6.21,30.265747,,,,,,,,,,,FEW,5000,,,,,,,VFR,,,,,,,,,,,,METAR,8.0
BIEG 021700Z 01006KT 9999 BKN045 BKN075 11/07 Q1025,BIEG,2023-06-02T17:00:00Z,65.27,-14.4,11.0,7.0,10,6,,6.21,30.265747,,,,,,,,,,,BKN,4500,BKN,7500,,,,,VFR,,,,,,,,,,,,METAR,20.0
BIBD 021700Z 20012KT 9999 FEW020 OVC028 11/07 Q1026,BIBD,2023-06-02T17:00:00Z,65.63,-23.55,11.0,7.0,200,12,,6.21,30.295275,,,,,,,,,,,FEW,2000,OVC,2800,,,,,MVFR,,,,,,,,,,,,METAR,10.0
BIAR 021700Z 20010KT 9999 BKN049 16/06 Q1025,BIAR,2023-06-02T17:00:00Z,65.67,-18.07,16.0,6.0,200,10,,6.21,30.265747,,,,,,,,,,,BKN,4900,,,,,,,VFR,,,,,,,,,,,,METAR,1.0
RODE 021659Z AUTO A2973 RMK AO2 SLPNO PWINO TSNO $,RODE,2023-06-02T16:59:00Z,26.72,127.77,,,,,,,29.731298,,,TRUE,TRUE,TRUE,,TRUE,,TRUE,,,,,,,,,,,,,,,,,,,,,,METAR,69.0
PASY 021659Z 27015KT 10SM BKN008 OVC012 05/04 A2967 RMK AO2A SLP051 T00480039 RVRNO PNO FZRANO $,PASY,2023-06-02T16:59:00Z,52.72,174.12,4.8,3.9,270,15,,10.0,29.66929,1005.1,,,TRUE,TRUE,,,TRUE,,,BKN,800,OVC,1200,,,,,IFR,,,,,,,,,,,,METAR,6.0
KNOZ 021659Z AUTO 17009KT 10SM CLR 27/12 A2989 RMK AO2 SLP070 T02670117,KNOZ,2023-06-02T16:59:00Z,32.53,-114.5,26.7,11.7,170,9,,10.0,29.890747,1007.0,,TRUE,TRUE,,,,,,,CLR,,,,,,,,VFR,,,,,,,,,,,,METAR,78.0
KNGU 021659Z VRB05KT 10SM SCT017 BKN250 24/18 A2995 RMK AO2 SLP140 T02390178 $,KNGU,2023-06-02T16:59:00Z,36.93,-76.27,23.9,17.8,0,5,,10.0,29.949802,1014.0,,,TRUE,TRUE,,,,,,SCT,1700,BKN,25000,,,,,VFR,,,,,,,,,,,,SPECI,3.0
KMTN 021659Z 12006KT 10SM CLR 29/18 A2993,KMTN,2023-06-02T16:59:00Z,39.32,-76.42,29.0,18.0,120,6,,10.0,29.929134,,,,,,,,,,,CLR,,,,,,,,VFR,,,,,,,,,,,,METAR,2.0
KAID 021659Z 03006KT 10SM CLR 30/04 A3006,KAID,2023-06-02T16:59:00Z,40.12,-85.62,30.0,4.0,30,6,,10.0,30.059055,,,,,,,,,,,CLR,,,,,,,,VFR,,,,,,,,,,,,METAR,277.0
K04W 021659Z AUTO 10003KT 10SM SCT037 SCT043 28/20 A3008 RMK AO2,K04W,2023-06-02T16:59:00Z,46.02,-92.9,28.0,20.0,100,3,,10.0,30.079725,,,TRUE,TRUE,,,,,,,SCT,3700,SCT,4300,,,,,VFR,,,,,,,,,,,,METAR,310.0
KROG 021658Z 12003KT 10SM SCT045 28/17 A3004 RMK AO2 SLP157 T02780172,KROG,2023-06-02T16:58:00Z,36.37,-94.1,27.8,17.2,120,3,,10.0,30.041338,1015.7,,,TRUE,,,,,,,SCT,4500,,,,,,,VFR,,,,,,,,,,,,METAR,407.0
KPRN 021658Z AUTO 04008G15KT 10SM FEW042 SCT050 28/17 A2990 RMK AO2 SLP070 T02830167,KPRN,2023-06-02T16:58:00Z,31.85,-86.62,28.3,16.7,40,8,15,10.0,29.899607,1007.0,,TRUE,TRUE,,,,,,,FEW,4200,SCT,5000,,,,,VFR,,,,,,,,,,,,METAR,137.0
KMEI 021658Z 36008KT 10SM SCT050 31/18 A2993 RMK AO2 SLP131 T03060183,KMEI,2023-06-02T16:58:00Z,32.33,-88.75,30.6,18.3,360,8,,10.0,29.929134,1013.1,,,TRUE,,,,,,,SCT,5000,,,,,,,VFR,,,,,,,,,,,,SPECI,90.0
KGEU 021658Z 22006KT 10SM SKC 28/02 A2989,KGEU,2023-06-02T16:58:00Z,33.53,-112.3,28.0,2.0,220,6,,10.0,29.890747,,,,,,,,,,,SKC,,,,,,,,VFR,,,,,,,,,,,,METAR,319.0
KEUF 021658Z AUTO VRB05KT 10SM SCT047 BKN055 28/18 A2990 RMK AO2 SLP121 T02830178 $,KEUF,2023-06-02T16:58:00Z,31.95,-85.13,28.3,17.8,0,5,,10.0,29.899607,1012.1,,TRUE,TRUE,TRUE,,,,,,SCT,4700,BKN,5500,,,,,VFR,,,,,,,,,,,,METAR,87.0
KBKF 021658Z 06004KT 10SM FEW070 SCT110 BKN220 19/06 A2995 RMK AO2A LTG DSNT W SLP080 T01890057,KBKF,2023-06-02T16:58:00Z,39.72,-104.75,18.9,5.7,60,4,,10.0,29.949802,1008.0,,,TRUE,,,,,,,FEW,7000,SCT,11000,BKN,22000,,,VFR,,,,,,,,,,,,METAR,1703.0
KBJC 021658Z 03004KT 10SM SCT090 SCT110 BKN200 19/07 A2998,KBJC,2023-06-02T16:58:00Z,39.9,-105.1,19.0,7.0,30,4,,10.0,29.97933,,,,,,,,,,,SCT,9000,SCT,11000,BKN,20000,,,VFR,,,,,,,,,,,,METAR,1694.0
KBCR 021658Z AUTO 07008G16KT 10SM SCT050 31/17 A2987 RMK AO2 SLP074 T03060167 $,KBCR,2023-06-02T16:58:00Z,30.85,-85.6,30.6,16.7,70,8,16,10.0,29.870079,1007.4,,TRUE,TRUE,TRUE,,,,,,SCT,5000,,,,,,,VFR,,,,,,,,,,,,METAR,26.0
K0J4 021658Z AUTO 06011KT 10SM SCT046 29/16 A2989 RMK AO2 SLP118 T02940161,K0J4,2023-06-02T16:58:00Z,31.05,-86.32,29.4,16.1,60,11,,10.0,29.890747,1011.8,,TRUE,TRUE,,,,,,,SCT,4600,,,,,,,VFR,,,,,,,,,,,,METAR,96.0
PHNG 021657Z 06009KT 10SM FEW023 SCT037 27/21 A3010 RMK AO2 SLP188 T02670206,PHNG,2023-06-02T16:57:00Z,21.43,-157.77,26.7,20.6,60,9,,10.0,30.100393,1018.8,,,TRUE,,,,,,,FEW,2300,SCT,3700,,,,,VFR,,,,,,,,,,,,METAR,1.0
PADG 021657Z 19010KT 1 3/4SM -SN BR OVC006 M03/M04 A2971,PADG,2023-06-02T16:57:00Z,68.03,-162.9,-3.0,-4.0,190,10,,1.75,29.71063,,,,,,,,,,-SN BR,OVC,600,,,,,,,IFR,,,,,,,,,,,,SPECI,296.0
KQOA 021657Z 21005KT 9000 FU FEW150 FEW190 FEW210 30/19 A2987 RMK AO2A SLP070 T03030190,KQOA,2023-06-02T16:57:00Z,,,30.3,19.0,210,5,,5.59,29.870079,1007.0,,,TRUE,,,,,,FU,FEW,15000,FEW,19000,FEW,21000,,,VFR,,,,,,,,,,,,METAR,
KNYL 021657Z 17007KT 7SM CLR 26/12 A2988 RMK AO2 SLP115 T02610122 $,KNYL,2023-06-02T16:57:00Z,32.65,-114.62,26.1,12.2,170,7,,7.0,29.878937,1011.5,,,TRUE,TRUE,,,,,,CLR,,,,,,,,VFR,,,,,,,,,,,,METAR,58.0
KNJW 021657Z AUTO 34003KT 10SM SCT047 BKN055 28/17 A2998 RMK AO2 SLP064 T02830172,KNJW,2023-06-02T16:57:00Z,32.78,-88.82,28.3,17.2,340,3,,10.0,29.97933,1006.4,,TRUE,TRUE,,,,,,,SCT,4700,BKN,5500,,,,,VFR,,,,,,,,,,,,SPECI,165.0
KMNM 021657Z AUTO 13005KT 10SM -RA CLR 26/16 A3013 RMK AO2 RAB46 SLP215 T02560156 PNO $,KMNM,2023-06-02T16:57:00Z,45.12,-87.63,25.6,15.6,130,5,,10.0,30.129921,1021.5,,TRUE,TRUE,TRUE,,,,,-RA,CLR,,,,,,,,VFR,,,,,,,,,,,,SPECI,188.0
KFLG 021657Z VRB06KT 10SM FEW100 18/01 A3014 RMK AO2 SLP112 T01830006,KFLG,2023-06-02T16:57:00Z,35.13,-111.67,18.3,0.6,0,6,,10.0,30.138779,1011.2,,,TRUE,,,,,,,FEW,10000,,,,,,,VFR,,,,,,,,,,,,METAR,2134.0
KAQV 021657Z AUTO 00000KT 10SM FEW060 32/17 A2993 RMK AO2 SLP130 T03170172,KAQV,2023-06-02T16:57:00Z,31.4,-93.3,31.7,17.2,0,0,,10.0,29.929134,1013.0,,TRUE,TRUE,,,,,,,FEW,6000,,,,,,,VFR,,,,,,,,,,,,METAR,123.0
TJSJ 021656Z 15009G18KT 10SM FEW026 SCT050 SCT090 33/24 A2990 RMK AO2 SLP123 T03280239,TJSJ,2023-06-02T16:56:00Z,18.43,-66.02,32.8,23.9,150,9,18,10.0,29.899607,1012.3,,,TRUE,,,,,,,FEW,2600,SCT,5000,SCT,9000,,,VFR,,,,,,,,,,,,METAR,3.0
RJOI 021656Z 29004KT 9SM FEW030 18/17 A2958 RMK AO2 SLP015 T01780167,RJOI,2023-06-02T16:56:00Z,34.13,132.23,17.8,16.7,290,4,,9.0,29.58071,1001.5,,,TRUE,,,,,,,FEW,3000,,,,,,,VFR,,,,,,,,,,,,METAR,2.0
PMDY 021656Z AUTO 10SM FEW015 22/20 A3024 RMK AO2 SLP243 T02170200 TSNO $,PMDY,2023-06-02T16:56:00Z,28.22,-177.37,21.7,20.0,,,,10.0,30.239174,1024.3,,TRUE,TRUE,TRUE,,TRUE,,,,FEW,1500,,,,,,,VFR,,,,,,,,,,,,METAR,6.0
PHNY 021656Z AUTO 05016G21KT 10SM CLR 21/19 A3015 RMK AO2 SLP189 T02110189,PHNY,2023-06-02T16:56:00Z,20.77,-156.95,21.1,18.9,50,16,21,10.0,30.15059,1018.9,,TRUE,TRUE,,,,,,,CLR,,,,,,,,VFR,,,,,,,,,,,,METAR,395.0
PFSH 021656Z AUTO 09005KT 10SM FEW070 OVC095 M01/M05 A2992 RMK AO2 SLP130 T10061050 FZRANO,PFSH,2023-06-02T16:56:00Z,64.37,-161.22,-0.6,-5.0,90,5,,10.0,29.920275,1013.0,,TRUE,TRUE,,,,TRUE,,,FEW,7000,OVC,9500,,,,,VFR,,,,,,,,,,,,METAR,6.0
PFKT 021656Z AUTO 09005KT 10SM M01/M03 A2985 RMK AO2 UPE00 SLP110 P0000 T10111033 FZRANO $,PFKT,2023-06-02T16:56:00Z,65.33,-166.47,-1.1,-3.3,90,5,,10.0,29.84941,1011.0,,TRUE,TRUE,TRUE,,,TRUE,,,,,,,,,,,,,,,,,0.005,,,,,,METAR,8.0
PFEL 021656Z AUTO 04004KT 10SM BKN020 OVC060 M01/M05 A2990 RMK AO2 SLP126 T10111050 FZRANO,PFEL,2023-06-02T16:56:00Z,64.62,-162.27,-1.1,-5.0,40,4,,10.0,29.899607,1012.6,,TRUE,TRUE,,,,TRUE,,,BKN,2000,OVC,6000,,,,,MVFR,,,,,,,,,,,,METAR,50.0
PFCL 021656Z AUTO 25011KT 10SM CLR 06/01 A2995 RMK AO2 SLP135 T00610011 TSNO,PFCL,2023-06-02T16:56:00Z,58.83,-158.53,6.1,1.1,250,11,,10.0,29.949802,1013.5,,TRUE,TRUE,,,TRUE,,,,CLR,,,,,,,,VFR,,,,,,,,,,,,METAR,23.0
PAZK 021656Z AUTO 22008KT 10SM CLR 03/M02 A2980 RMK AO2 SLP127 T00281017,PAZK,2023-06-02T16:56:00Z,61.93,-147.17,2.8,-1.7,220,8,,10.0,29.799213,1012.7,,TRUE,TRUE,,,,,,,CLR,,,,,,,,VFR,,,,,,,,,,,,METAR,1002.0
PAWS 021656Z AUTO 00000KT 10SM -RA OVC034 06/04 A2993 RMK AO2 SLP140 P0001 T00610039,PAWS,2023-06-02T16:56:00Z,61.57,-149.53,6.1,3.9,0,0,,10.0,29.929134,1014.0,,TRUE,TRUE,,,,,,-RA,OVC,3400,,,,,,,VFR,,,,,,0.01,,,,,,METAR,102.0
PAWM 021656Z AUTO 14005KT 8SM OVC060 M01/M05 A2988 RMK AO2 SLP124 T10061050 FZRANO,PAWM,2023-06-02T16:56:00Z,64.68,-163.42,-0.6,-5.0,140,5,,8.0,29.878937,1012.4,,TRUE,TRUE,,,,TRUE,,,OVC,6000,,,,,,,VFR,,,,,,,,,,,,METAR,80.0
PAWG 021656Z VRB05KT 10SM -RA BKN035 OVC060 11/08 A3002,PAWG,2023-06-02T16:56:00Z,56.48,-132.37,11.0,8.0,0,5,,10.0,30.02067,,,,,,,,,,-RA,BKN,3500,OVC,6000,,,,,VFR,,,,,,,,,,,,METAR,6.0
PAVD 021656Z 00000KT 10SM FEW030 SCT065 BKN095 07/04 RMK AO2 SLPNO A3008 T00720044 $,PAVD,2023-06-02T16:56:00Z,61.13,-146.25,7.2,4.4,0,0,,10.0,,,,,TRUE,TRUE,,,,,,FEW,3000,SCT,6500,BKN,9500,,,VFR,,,,,,,,,,,,METAR,21.0
PAVC 021656Z AUTO 12009KT 10SM OVC006 04/04 A2996 RMK AO2 SLP145 T00440044 PNO $,PAVC,2023-06-02T16:56:00Z,55.12,-162.27,4.4,4.4,120,9,,10.0,29.958662,1014.5,,TRUE,TRUE,TRUE,,,,,,OVC,600,,,,,,,IFR,,,,,,,,,,,,METAR,48.0
PAUN 021656Z AUTO 09005KT 10SM FEW010 01/M03 A2992 RMK AO2 SLP134 T00111028 FZRANO,PAUN,2023-06-02T16:56:00Z,63.88,-160.8,1.1,-2.8,90,5,,10.0,29.920275,1013.4,,TRUE,TRUE,,,,TRUE,,,FEW,1000,,,,,,,VFR,,,,,,,,,,,,METAR,4.0
PATG 021656Z AUTO 10SM CLR 03/02 A2997 RMK AO2 SLP148 T00330017 $,PATG,2023-06-02T16:56:00Z,59.05,-160.38,3.3,1.7,,,,10.0,29.970472,1014.8,,TRUE,TRUE,TRUE,,,,,,CLR,,,,,,,,VFR,,,,,,,,,,,,METAR,1.0
PATE 021656Z AUTO 18011KT 10SM OVC031 M01/M04 A2982 RMK AO2 SNE28 SLP105 P0000 T10061044 FZRANO,PATE,2023-06-02T16:56:00Z,65.23,-166.33,-0.6,-4.4,180,11,,10.0,29.819881,1010.5,,TRUE,TRUE,,,,TRUE,,,OVC,3100,,,,,,,VFR,,,,,,0.005,,,,,,METAR,93.0
PASX 021656Z AUTO 19009KT 10SM OVC028 09/03 A2993 RMK AO2 SLP141 T00940033,PASX,2023-06-02T16:56:00Z,60.48,-151.05,9.4,3.3,190,9,,10.0,29.929134,1014.1,,TRUE,TRUE,,,,,,,OVC,2800,,,,,,,MVFR,,,,,,,,,,,,METAR,28.0
PASM 021656Z AUTO 10008KT 10SM BKN028 02/M01 A2988 RMK AO2 SLP128 T00221011 FZRANO,PASM,2023-06-02T16:56:00Z,62.07,-163.3,2.2,-1.1,100,8,,10.0,29.878937,1012.8,,TRUE,TRUE,,,,TRUE,,,BKN,2800,,,,,,,MVFR,,,,,,,,,,,,METAR,108.0
PASD 021656Z 15006KT 10SM FEW070 FEW120 07/03 A2998 RMK AO2 SLP153 T00720033 PNO $,PASD,2023-06-02T16:56:00Z,55.33,-160.52,7.2,3.3,150,6,,10.0,29.97933,1015.3,,,TRUE,TRUE,,,,,,FEW,7000,FEW,12000,,,,,VFR,,,,,,,,,,,,METAR,6.0
PARY 021656Z AUTO VRB04KT 10SM OVC020 M01/M07 A2987 RMK AO2 SLP126 T10111067 FZRANO,PARY,2023-06-02T16:56:00Z,64.73,-155.47,-1.1,-6.7,0,4,,10.0,29.870079,1012.6,,TRUE,TRUE,,,,TRUE,,,OVC,2000,,,,,,,MVFR,,,,,,,,,,,,METAR,185.0
PAPM 021656Z AUTO 10004KT 10SM OVC004 02/01 A2995 RMK AO2 SLP145 T00170006 FZRANO,PAPM,2023-06-02T16:56:00Z,59.02,-161.82,1.7,0.6,100,4,,10.0,29.949802,1014.5,,TRUE,TRUE,,,,TRUE,,,OVC,400,,,,,,,LIFR,,,,,,,,,,,,METAR,4.0
PAPH 021656Z AUTO 09004KT 10SM CLR 06/M02 A2999 RMK AO2 SLP157 T00611017,PAPH,2023-06-02T16:56:00Z,56.95,-158.62,6.1,-1.7,90,4,,10.0,29.991142,1015.7,,TRUE,TRUE,,,,,,,CLR,,,,,,,,VFR,,,,,,,,,,,,METAR,29.0
PAOU 021656Z AUTO 10008KT 10SM CLR 06/04 A2993 RMK AO2 SLP135 T00610039 PNO $,PAOU,2023-06-02T16:56:00Z,56.0,-161.17,6.1,3.9,100,8,,10.0,29.929134,1013.5,,TRUE,TRUE,TRUE,,,,,,CLR,,,,,,,,VFR,,,,,,,,,,,,METAR,3.0
PAOH 021656Z AUTO 09004KT 10SM OVC038 10/07 A3001 RMK AO2 SLP164 T01000072 PNO $,PAOH,2023-06-02T16:56:00Z,58.1,-135.45,10.0,7.2,90,4,,10.0,30.008858,1016.4,,TRUE,TRUE,TRUE,,,,,,OVC,3800,,,,,,,VFR,,,,,,,,,,,,METAR,0.0
PANW 021656Z AUTO VRB04KT 10SM OVC100 06/01 A2994 RMK AO2 SLP143 T00560011,PANW,2023-06-02T16:56:00Z,59.45,-157.32,5.6,1.1,0,4,,10.0,29.940945,1014.3,,TRUE,TRUE,,,,,,,OVC,10000,,,,,,,VFR,,,,,,,,,,,,METAR,100.0
PANV 021656Z AUTO 14004KT 10SM 03/M03 A2988 RMK AO2 SLP204 T00281028 TSNO $,PANV,2023-06-02T16:56:00Z,62.65,-160.18,2.8,-2.8,140,4,,10.0,29.878937,1020.4,,TRUE,TRUE,TRUE,,TRUE,,,,,,,,,,,,,,,,,,,,,,,,METAR,91.0
PAMY 021656Z AUTO 17008KT 10SM OVC012 01/M02 A2987 RMK AO2 SLP112 T00061022 FZRANO,PAMY,2023-06-02T16:56:00Z,60.37,-166.27,0.6,-2.2,170,8,,10.0,29.870079,1011.2,,TRUE,TRUE,,,,TRUE,,,OVC,1200,,,,,,,MVFR,,,,,,,,,,,,METAR,14.0
PAMO 021656Z AUTO 09006KT 10SM OVC026 01/M02 A2988 RMK AO2 SLP122 T00111017 FZRANO,PAMO,2023-06-02T16:56:00Z,62.1,-163.68,1.1,-1.7,90,6,,10.0,29.878937,1012.2,,TRUE,TRUE,,,,TRUE,,,OVC,2600,,,,,,,MVFR,,,,,,,,,,,,METAR,93.0
PAMM 021656Z AUTO 11012G16KT 10SM -RA OVC030 12/07 A3000 RMK AO2 SLP252 P0000 T01170072 $,PAMM,2023-06-02T16:56:00Z,55.13,-131.58,11.7,7.2,110,12,16,10.0,30.0,1025.2,,TRUE,TRUE,TRUE,,,,,-RA,OVC,3000,,,,,,,MVFR,,,,,,0.005,,,,,,METAR,0.0
PAMK 021656Z AUTO 17004KT 10SM CLR 02/M01 A2990 RMK AO2 SLP126 T00171011 FZRANO,PAMK,2023-06-02T16:56:00Z,63.48,-162.12,1.7,-1.1,170,4,,10.0,29.899607,1012.6,,TRUE,TRUE,,,,TRUE,,,CLR,,,,,,,,VFR,,,,,,,,,,,,METAR,31.0
PAMB 021656Z AUTO 26005KT 8SM CLR 06/01 A2995 RMK AO2 SLP145 T00560006 $,PAMB,2023-06-02T16:56:00Z,58.98,-159.05,5.6,0.6,260,5,,8.0,29.949802,1014.5,,TRUE,TRUE,TRUE,,,,,,CLR,,,,,,,,VFR,,,,,,,,,,,,METAR,28.0
PALG 021656Z AUTO VRB04KT 5SM -RA BR BKN008 OVC016 03/03 A2991 RMK AO2 RAB54 CIG 005V011 SLP132 P0000 T00330028,PALG,2023-06-02T16:56:00Z,61.53,-160.33,3.3,2.8,0,4,,5.0,29.911417,1013.2,,TRUE,TRUE,,,,,,-RA BR,BKN,800,OVC,1600,,,,,IFR,,,,,,0.005,,,,,,METAR,13.0
PAKI 021656Z AUTO 10SM OVC009 02/00 A2990 RMK AO2 SLP129 T00170000 FZRANO $,PAKI,2023-06-02T16:56:00Z,59.93,-164.03,1.7,0.0,,,,10.0,29.899607,1012.9,,TRUE,TRUE,TRUE,,,TRUE,,,OVC,900,,,,,,,IFR,,,,,,,,,,,,METAR,4.0
PAKH 021656Z AUTO 10SM CLR 11/M02 A2999 RMK AO2 SLP154 T01111017 TSNO $,PAKH,2023-06-02T16:56:00Z,56.93,-154.18,11.1,-1.7,,,,10.0,29.991142,1015.4,,TRUE,TRUE,TRUE,,TRUE,,,,CLR,,,,,,,,VFR,,,,,,,,,,,,METAR,15.0
PAKF 021656Z AUTO 18015G21KT 10SM CLR 06/03 A2988 RMK AO2 SLP117 T00610033 PNO $,PAKF,2023-06-02T16:56:00Z,54.85,-163.42,6.1,3.3,180,15,21,10.0,29.878937,1011.7,,TRUE,TRUE,TRUE,,,,,,CLR,,,,,,,,VFR,,,,,,,,,,,,METAR,2.0
PAJZ 021656Z AUTO 12006KT 8SM OVC048 04/03 A2997 RMK AO2 SLP158 T00440028 $,PAJZ,2023-06-02T16:56:00Z,59.73,-157.27,4.4,2.8,120,6,,8.0,29.970472,1015.8,,TRUE,TRUE,TRUE,,,,,,OVC,4800,,,,,,,VFR,,,,,,,,,,,,METAR,80.0
PAHY 021656Z AUTO 13009KT 10SM RA BKN019 BKN025 OVC033 10/08 A2994 RMK AO2 SLP137 P0008 T01000083 $,PAHY,2023-06-02T16:56:00Z,55.2,-132.83,10.0,8.3,130,9,,10.0,29.940945,1013.7,,TRUE,TRUE,TRUE,,,,,RA,BKN,1900,BKN,2500,OVC,3300,,,MVFR,,,,,,0.08,,,,,,METAR,0.0
PAHL 021656Z AUTO 27007KT 10SM OVC028 M01/M06 A2987 RMK AO2 SLP118 T10111061 FZRANO,PAHL,2023-06-02T16:56:00Z,65.7,-156.35,-1.1,-6.1,270,7,,10.0,29.870079,1011.8,,TRUE,TRUE,,,,TRUE,,,OVC,2800,,,,,,,MVFR,,,,,,,,,,,,METAR,49.0
PAHC 021656Z AUTO 21003KT 10SM CLR 04/00 A2991 RMK AO2 SLP132 T00390000,PAHC,2023-06-02T16:56:00Z,62.18,-159.78,3.9,0.0,210,3,,10.0,29.911417,1013.2,,TRUE,TRUE,,,,,,,CLR,,,,,,,,VFR,,,,,,,,,,,,METAR,21.0
PAGS 021656Z AUTO 32003KT 10SM OVC042 09/07 A3003 RMK AO2 SLP167 T00940072,PAGS,2023-06-02T16:56:00Z,58.42,-135.7,9.4,7.2,320,3,,10.0,30.029528,1016.7,,TRUE,TRUE,,,,,,,OVC,4200,,,,,,,VFR,,,,,,,,,,,,METAR,9.0
PAFM 021656Z AUTO 25007G14KT 10SM OVC049 M01/M06 A2982 RMK AO2 SLP104 T10061061 FZRANO,PAFM,2023-06-02T16:56:00Z,67.1,-157.85,-0.6,-6.1,250,7,14,10.0,29.819881,1010.4,,TRUE,TRUE,,,,TRUE,,,OVC,4900,,,,,,,VFR,,,,,,,,,,,,METAR,79.0
PAFE 021656Z AUTO VRB04KT 10SM -RA FEW042 OVC055 11/09 A3001 RMK AO2 SLP176 P0000 T01060089 $,PAFE,2023-06-02T16:56:00Z,56.97,-133.92,10.6,8.9,0,4,,10.0,30.008858,1017.6,,TRUE,TRUE,TRUE,,,,,-RA,FEW,4200,OVC,5500,,,,,VFR,,,,,,0.005,,,,,,METAR,1.0
PADU 021656Z 13014KT 10SM -RA SCT020 BKN028 OVC034 07/04 A2973 RMK AO2 SLP071 P0000 T00670039 $,PADU,2023-06-02T16:56:00Z,53.9,-166.53,6.7,3.9,130,14,,10.0,29.731298,1007.1,,,TRUE,TRUE,,,,,-RA,SCT,2000,BKN,2800,OVC,3400,,,MVFR,,,,,,0.005,,,,,,METAR,4.0
PADL 021656Z 22009KT 10SM CLR 07/00 A2994 RMK AO2 SLP141 T00670000,PADL,2023-06-02T16:56:00Z,59.05,-158.5,6.7,0.0,220,9,,10.0,29.940945,1014.1,,,TRUE,,,,,,,CLR,,,,,,,,VFR,,,,,,,,,,,,METAR,20.0
PADK 021656Z AUTO 24009KT OVC006 06/05 A2963 RMK AO2 SLP032 T00560050 PWINO $,PADK,2023-06-02T16:56:00Z,51.88,-176.65,5.6,5.0,240,9,,,29.630905,1003.2,,TRUE,TRUE,TRUE,,,,TRUE,,OVC,600,,,,,,,,,,,,,,,,,,,METAR,3.0
PABV 021656Z AUTO 04004KT 10SM -RA OVC042 07/04 A2993 RMK AO2 SLP141 P0000 T00720044,PABV,2023-06-02T16:56:00Z,61.42,-149.52,7.2,4.4,40,4,,10.0,29.929134,1014.1,,TRUE,TRUE,,,,,,-RA,OVC,4200,,,,,,,VFR,,,,,,0.005,,,,,,METAR,21.0
PABL 021656Z AUTO 21009KT 10SM BKN026 M01/M06 A2989 RMK AO2 SLP122 T10061061 FZRANO,PABL,2023-06-02T16:56:00Z,65.98,-161.15,-0.6,-6.1,210,9,,10.0,29.890747,1012.2,,TRUE,TRUE,,,,TRUE,,,BKN,2600,,,,,,,MVFR,,,,,,,,,,,,METAR,7.0
KYKN 021656Z AUTO 14017G21KT 10SM CLR 29/16 A2999 RMK AO2 SLP157 T02890161,KYKN,2023-06-02T16:56:00Z,42.92,-97.37,28.9,16.1,140,17,21,10.0,29.991142,1015.7,,TRUE,TRUE,,,,,,,CLR,,,,,,,,VFR,,,,,,,,,,,,METAR,388.0
KY50 021656Z AUTO VRB03KT 10SM CLR 29/16 A3010 RMK AO2 SLP185 T02940161 $,KY50,2023-06-02T16:56:00Z,44.03,-89.3,29.4,16.1,0,3,,10.0,30.100393,1018.5,,TRUE,TRUE,TRUE,,,,,,CLR,,,,,,,,VFR,,,,,,,,,,,,METAR,261.0
KWWD 021656Z AUTO 26005KT 10SM CLR 26/16 A2993 RMK AO2 SLP138 T02560161 $,KWWD,2023-06-02T16:56:00Z,39.02,-74.92,25.6,16.1,260,5,,10.0,29.929134,1013.8,,TRUE,TRUE,TRUE,,,,,,CLR,,,,,,,,VFR,,,,,,,,,,,,METAR,4.0
KWVL 021656Z AUTO 05007KT 10SM FEW080 29/17 A2988 RMK AO2 SLP141 T02890167,KWVL,2023-06-02T16:56:00Z,44.52,-69.67,28.9,16.7,50,7,,10.0,29.878937,1014.1,,TRUE,TRUE,,,,,,,FEW,8000,,,,,,,VFR,,,,,,,,,,,,METAR,87.0
KWMC 021656Z AUTO VRB06KT 10SM CLR 17/07 A3006 RMK AO2 SLP151 T01720072,KWMC,2023-06-02T16:56:00Z,40.9,-117.8,17.2,7.2,0,6,,10.0,30.059055,1015.1,,TRUE,TRUE,,,,,,,CLR,,,,,,,,VFR,,,,,,,,,,,,METAR,1311.0
KWJF 021656Z VRB06KT 10SM CLR 24/06 A2994 RMK AO2 SLP128 T02390056,KWJF,2023-06-02T16:56:00Z,34.73,-118.22,23.9,5.6,0,6,,10.0,29.940945,1012.8,,,TRUE,,,,,,,CLR,,,,,,,,VFR,,,,,,,,,,,,METAR,712.0
KVPZ 021656Z AUTO 10SM SCT085 31/10 A3008 RMK AO2 SLP179 T03110100 $,KVPZ,2023-06-02T16:56:00Z,41.45,-87.0,31.1,10.0,,,,10.0,30.079725,1017.9,,TRUE,TRUE,TRUE,,,,,,SCT,8500,,,,,,,VFR,,,,,,,,,,,,SPECI,235.0
KVIS 021656Z AUTO VRB03KT 10SM CLR 21/12 A2997 RMK AO2 SLP152 T02060122,KVIS,2023-06-02T16:56:00Z,36.32,-119.4,20.6,12.2,0,3,,10.0,29.970472,1015.2,,TRUE,TRUE,,,,,,,CLR,,,,,,,,VFR,,,,,,,,,,,,METAR,92.0
KVBT 021656Z AUTO 11009KT 10SM CLR 29/18 A3004 RMK AO2 SLP162 T02890178,KVBT,2023-06-02T16:56:00Z,36.35,-94.22,28.9,17.8,110,9,,10.0,30.041338,1016.2,,TRUE,TRUE,,,,,,,CLR,,,,,,,,VFR,,,,,,,,,,,,METAR,390.0
KVBG 021656Z 01004KT 6SM BR OVC013 13/10 A3004 RMK AO2A SLP176 T01300104,KVBG,2023-06-02T16:56:00Z,34.73,-120.58,13.0,10.4,10,4,,6.0,30.041338,1017.6,,,TRUE,,,,,,BR,OVC,1300,,,,,,,MVFR,,,,,,,,,,,,SPECI,96.0
KUKI 021656Z AUTO VRB03KT 10SM CLR 19/07 A2999 RMK AO2 SLP147 T01890072,KUKI,2023-06-02T16:56:00Z,39.12,-123.2,18.9,7.2,0,3,,10.0,29.991142,1014.7,,TRUE,TRUE,,,,,,,CLR,,,,,,,,VFR,,,,,,,,,,,,METAR,183.0
KUDG 021656Z AUTO 02010KT 10SM BKN032 OVC042 25/18 A2991 RMK AO2 SLP128 T02500178,KUDG,2023-06-02T16:56:00Z,34.45,-79.88,25.0,17.8,20,10,,10.0,29.911417,1012.8,,TRUE,TRUE,,,,,,,BKN,3200,OVC,4200,,,,,VFR,,,,,,,,,,,,METAR,57.0
KUCP 021656Z AUTO VRB03KT 10SM CLR 29/13 A3004 RMK AO2 SLP180 T02940133,KUCP,2023-06-02T16:56:00Z,41.03,-80.42,29.4,13.3,0,3,,10.0,30.041338,1018.0,,TRUE,TRUE,,,,,,,CLR,,,,,,,,VFR,,,,,,,,,,,,METAR,313.0
KTVF 021656Z AUTO 14011G16KT 10SM FEW027 26/21 A3003 RMK AO2 SLP165 T02610211,KTVF,2023-06-02T16:56:00Z,48.07,-96.17,26.1,21.1,140,11,16,10.0,30.029528,1016.5,,TRUE,TRUE,,,,,,,FEW,2700,,,,,,,VFR,,,,,,,,,,,,METAR,339.0
KTPH 021656Z AUTO 02005KT 10SM CLR 20/04 A3006 RMK AO2 SLP120 T02000044,KTPH,2023-06-02T16:56:00Z,38.05,-117.08,20.0,4.4,20,5,,10.0,30.059055,1012.0,,TRUE,TRUE,,,,,,,CLR,,,,,,,,VFR,,,,,,,,,,,,METAR,1647.0
KSXT 021656Z AUTO A3010 RMK AO2 SLPNO PWINO PNO $,KSXT,2023-06-02T16:56:00Z,42.6,-123.37,,,,,,,30.100393,,,TRUE,TRUE,TRUE,,,,TRUE,,,,,,,,,,,,,,,,,,,,,,METAR,1151.0
KSUE 021656Z AUTO 34008KT 10SM CLR 24/17 A3013 RMK AO2 SLP198 T02390167,KSUE,2023-06-02T16:56:00Z,44.85,-87.42,23.9,16.7,340,8,,10.0,30.129921,1019.8,,TRUE,TRUE,,,,,,,CLR,,,,,,,,VFR,,,,,,,,,,,,METAR,215.0
KSRC 021656Z AUTO VRB04KT 10SM BKN046 32/19 A2999 RMK AO2 SLP151 T03220194,KSRC,2023-06-02T16:56:00Z,35.22,-91.73,32.2,19.4,0,4,,10.0,29.991142,1015.1,,TRUE,TRUE,,,,,,,BKN,4600,,,,,,,VFR,,,,,,,,,,,,METAR,80.0
KSQI 021656Z AUTO VRB03KT 10SM CLR 32/18 A3006 RMK AO2 SLP043 T03170183,KSQI,2023-06-02T16:56:00Z,41.75,-89.67,31.7,18.3,0,3,,10.0,30.059055,1004.3,,TRUE,TRUE,,,,,,,CLR,,,,,,,,VFR,,,,,,,,,,,,METAR,196.0
KSPD 021656Z AUTO 18016G25KT 22/13 A2997 RMK AO1 SLP093 T02220133,KSPD,2023-06-02T16:56:00Z,37.28,-102.62,22.2,13.3,180,16,25,,29.970472,1009.3,,TRUE,TRUE,,,,,,,,,,,,,,,,,,,,,,,,,,,METAR,1340.0
KSOP 021656Z AUTO 06009G16KT 10SM SCT037 26/17 A2993 RMK AO2 SLP137 T02560167,KSOP,2023-06-02T16:56:00Z,35.23,-79.4,25.6,16.7,60,9,16,10.0,29.929134,1013.7,,TRUE,TRUE,,,,,,,SCT,3700,,,,,,,VFR,,,,,,,,,,,,METAR,135.0
KSMP 021656Z AUTO VRB04KT 10SM CLR 11/04 A3010 RMK AO2 SLP191 T01060044,KSMP,2023-06-02T16:56:00Z,47.28,-121.33,10.6,4.4,0,4,,10.0,30.100393,1019.1,,TRUE,TRUE,,,,,,,CLR,,,,,,,,VFR,,,,,,,,,,,,METAR,1206.0
KSMN 021656Z AUTO 01003KT 10SM SCT060 SCT085 14/09 A3003 RMK AO2 SLP860 T01440094,KSMN,2023-06-02T16:56:00Z,45.12,-113.87,14.4,9.4,10,3,,10.0,30.029528,986.0,,TRUE,TRUE,,,,,,,SCT,6000,SCT,8500,,,,,VFR,,,,,,,,,,,,METAR,1228.0
KSLG 021656Z AUTO 16005KT 10SM CLR 29/18 A3002 RMK AO2 SLP154 T02890183,KSLG,2023-06-02T16:56:00Z,36.2,-94.48,28.9,18.3,160,5,,10.0,30.02067,1015.4,,TRUE,TRUE,,,,,,,CLR,,,,,,,,VFR,,,,,,,,,,,,METAR,361.0
KSLE 021656Z VRB03KT 10SM CLR 15/06 A3012 RMK AO2 SLP200 T01500061,KSLE,2023-06-02T16:56:00Z,44.9,-123.0,15.0,6.1,0,3,,10.0,30.121063,1020.0,,,TRUE,,,,,,,CLR,,,,,,,,VFR,,,,,,,,,,,,METAR,63.0
KSKX 021656Z AUTO 21007KT 10SM CLR 16/04 A3013 RMK AO2 SLP155 T01610044,KSKX,2023-06-02T16:56:00Z,36.45,-105.67,16.1,4.4,210,7,,10.0,30.129921,1015.5,,TRUE,TRUE,,,,,,,CLR,,,,,,,,VFR,,,,,,,,,,,,METAR,2163.0
KSHV 021656Z 08006G14KT 10SM SCT050 32/19 A2994 RMK SLPNO,KSHV,2023-06-02T16:56:00Z,32.45,-93.83,32.0,19.0,80,6,14,10.0,29.940945,,,,,,,,,,,SCT,5000,,,,,,,VFR,,,,,,,,,,,,METAR,70.0
KSGU 021656Z AUTO 05005KT 10SM CLR 25/08 A2994 RMK AO2 SLP104 T02500078,KSGU,2023-06-02T16:56:00Z,37.03,-113.52,25.0,7.8,50,5,,10.0,29.940945,1010.4,,TRUE,TRUE,,,,,,,CLR,,,,,,,,VFR,,,,,,,,,,,,METAR,877.0
KSGT 021656Z AUTO VRB03KT 10SM FEW050 29/19 A2998 RMK AO2 SLP149 T02940189,KSGT,2023-06-02T16:56:00Z,34.6,-91.57,29.4,18.9,0,3,,10.0,29.97933,1014.9,,TRUE,TRUE,,,,,,,FEW,5000,,,,,,,VFR,,,,,,,,,,,,METAR,67.0
KSGJ 021656Z 03013KT 10SM BKN012 26/21 A2986 RMK AO2 SLP110 T02610211 $,KSGJ,2023-06-02T16:56:00Z,29.97,-81.33,26.1,21.1,30,13,,10.0,29.861221,1011.0,,,TRUE,TRUE,,,,,,BKN,1200,,,,,,,MVFR,,,,,,,,,,,,METAR,2.0
KSGH 021656Z AUTO 02006KT 10SM CLR 30/11 A3004 RMK AO2 SLP167 T03000106,KSGH,2023-06-02T16:56:00Z,39.83,-83.83,30.0,10.6,20,6,,10.0,30.041338,1016.7,,TRUE,TRUE,,,,,,,CLR,,,,,,,,VFR,,,,,,,,,,,,METAR,318.0
KSFZ 021656Z AUTO 00000KT CLR 29/18 A2991 RMK AO2 SLP123 T02940183 PWINO $,KSFZ,2023-06-02T16:56:00Z,41.92,-71.5,29.4,18.3,0,0,,,29.911417,1012.3,,TRUE,TRUE,TRUE,,,,TRUE,,CLR,,,,,,,,,,,,,,,,,,,,METAR,129.0
KSFO 021656Z 05004KT 10SM FEW014 17/09 A3001 RMK AO2 SLP160 T01670094,KSFO,2023-06-02T16:56:00Z,37.62,-122.37,16.7,9.4,50,4,,10.0,30.008858,1016.0,,,TRUE,,,,,,,FEW,1400,,,,,,,VFR,,,,,,,,,,,,METAR,2.0
KSFM 021656Z AUTO 08006KT 10SM FEW120 31/16 A2990 RMK AO2 SLP124 T03060161,KSFM,2023-06-02T16:56:00Z,43.38,-70.72,30.6,16.1,80,6,,10.0,29.899607,1012.4,,TRUE,TRUE,,,,,,,FEW,12000,,,,,,,VFR,,,,,,,,,,,,METAR,70.0
KSDY 021656Z AUTO 06008KT 10SM CLR 23/17 A2991 RMK AO2 SLP124 T02280172,KSDY,2023-06-02T16:56:00Z,47.7,-104.2,22.8,17.2,60,8,,10.0,29.911417,1012.4,,TRUE,TRUE,,,,,,,CLR,,,,,,,,VFR,,,,,,,,,,,,SPECI,600.0
KSDF 021656Z 03005G16KT 10SM FEW250 31/12 A2999 RMK AO2 SLP151 T03060117,KSDF,2023-06-02T16:56:00Z,38.18,-85.73,30.6,11.7,30,5,16,10.0,29.991142,1015.1,,,TRUE,,,,,,,FEW,25000,,,,,,,VFR,,,,,,,,,,,,METAR,146.0
KRUT 021656Z AUTO 33008KT 10SM CLR 27/17 A2996 RMK AO2 SLP136 T02670167 $,KRUT,2023-06-02T16:56:00Z,43.53,-72.95,26.7,16.7,330,8,,10.0,29.958662,1013.6,,TRUE,TRUE,TRUE,,,,,,CLR,,,,,,,,VFR,,,,,,,,,,,,METAR,238.0
KRKD 021656Z AUTO 11009KT 10SM CLR 19/14 A2992 RMK AO2 SLP132 T01940139,KRKD,2023-06-02T16:56:00Z,44.07,-69.1,19.4,13.9,110,9,,10.0,29.920275,1013.2,,TRUE,TRUE,,,,,,,CLR,,,,,,,,VFR,,,,,,,,,,,,METAR,15.0
KRDM 021656Z VRB03KT 10SM CLR 17/02 A3008 RMK AO2 SLP172 T01720022,KRDM,2023-06-02T16:56:00Z,44.25,-121.15,17.2,2.2,0,3,,10.0,30.079725,1017.2,,,TRUE,,,,,,,CLR,,,,,,,,VFR,,,,,,,,,,,,METAR,930.0
KPWT 021656Z AUTO VRB04KT 10SM CLR 13/09 A3013 RMK AO2 SLP209 T01330089,KPWT,2023-06-02T16:56:00Z,47.5,-122.77,13.3,8.9,0,4,,10.0,30.129921,1020.9,,TRUE,TRUE,,,,,,,CLR,,,,,,,,VFR,,,,,,,,,,,,METAR,143.0
KPWG 021656Z AUTO 17011KT 9SM CLR 31/19 A2994 RMK AO2 SLPNO T03060194 $,KPWG,2023-06-02T16:56:00Z,31.48,-97.32,30.6,19.4,170,11,,9.0,29.940945,,,TRUE,TRUE,TRUE,,,,,,CLR,,,,,,,,VFR,,,,,,,,,,,,SPECI,178.0
KPVU 021656Z 03008KT 10SM -RA OVC065 14/11 A3005 RMK AO2 RAB28 SLP145 P0000 T01390106,KPVU,2023-06-02T16:56:00Z,40.22,-111.72,13.9,10.6,30,8,,10.0,30.050198,1014.5,,,TRUE,,,,,,-RA,OVC,6500,,,,,,,VFR,,,,,,0.005,,,,,,SPECI,1370.0
KPVC 021656Z AUTO 19010KT 10SM CLR 26/17 A2990 RMK AO2 SLP125 T02610167,KPVC,2023-06-02T16:56:00Z,42.07,-70.22,26.1,16.7,190,10,,10.0,29.899607,1012.5,,TRUE,TRUE,,,,,,,CLR,,,,,,,,VFR,,,,,,,,,,,,METAR,1.0
KPTV 021656Z AUTO 21007KT 10SM CLR 21/09 A2997 RMK AO2 SLP148 T02110094,KPTV,2023-06-02T16:56:00Z,36.02,-119.07,21.1,9.4,210,7,,10.0,29.970472,1014.8,,TRUE,TRUE,,,,,,,CLR,,,,,,,,VFR,,,,,,,,,,,,SPECI,132.0
KPTN 021656Z AUTO VRB06KT 10SM SCT045 29/19 A2992 RMK AO2 SLP132 T02940194 $,KPTN,2023-06-02T16:56:00Z,29.72,-91.33,29.4,19.4,0,6,,10.0,29.920275,1013.2,,TRUE,TRUE,TRUE,,,,,,SCT,4500,,,,,,,VFR,,,,,,,,,,,,METAR,2.0
KPRX 021656Z AUTO 10004KT 10SM 30/19 A2996 RMK AO2 SLP143 T03000194,KPRX,2023-06-02T16:56:00Z,33.63,-95.45,30.0,19.4,100,4,,10.0,29.958662,1014.3,,TRUE,TRUE,,,,,,,,,,,,,,,,,,,,,,,,,,,SPECI,165.0
KPQI 021656Z AUTO 07013KT 10SM SCT070 20/13 A3002 RMK AO2 SLP188 T02000128,KPQI,2023-06-02T16:56:00Z,46.68,-68.05,20.0,12.8,70,13,,10.0,30.02067,1018.8,,TRUE,TRUE,,,,,,,SCT,7000,,,,,,,VFR,,,,,,,,,,,,METAR,154.0
KPIB 021656Z AUTO VRB06KT 10SM FEW002 31/19 A2994 RMK AO2 SLP134 P0002 T03060189,KPIB,2023-06-02T16:56:00Z,31.47,-89.33,30.6,18.9,0,6,,10.0,29.940945,1013.4,,TRUE,TRUE,,,,,,,FEW,200,,,,,,,VFR,,,,,,0.02,,,,,,METAR,91.0
KP60 021656Z AUTO VRB05KT 11/04 A3010 RMK AO1 SLP138 T01060044,KP60,2023-06-02T16:56:00Z,44.55,-110.42,10.6,4.4,0,5,,,30.100393,1013.8,,TRUE,TRUE,,,,,,,,,,,,,,,,,,,,,,,,,,,METAR,2377.0
KP28 021656Z AUTO 16007G16KT 110V180 26/20 A2995 RMK AO1 SLP129 T02560200 $,KP28,2023-06-02T16:56:00Z,37.28,-98.55,25.6,20.0,160,7,16,,29.949802,1012.9,,TRUE,TRUE,TRUE,,,,,,,,,,,,,,,,,,,,,,,,,,METAR,469.0
KOWB 021656Z 06006KT 10SM CLR 31/15 A2998 RMK AO2 SLP149 T03110150,KOWB,2023-06-02T16:56:00Z,37.72,-87.17,31.1,15.0,60,6,,10.0,29.97933,1014.9,,,TRUE,,,,,,,CLR,,,,,,,,VFR,,,,,,,,,,,,METAR,121.0
KOTH 021656Z 35011G17KT 10SM CLR 14/08 A3017 RMK AO2 SLP215 T01390083,KOTH,2023-06-02T16:56:00Z,43.42,-124.25,13.9,8.3,350,11,17,10.0,30.171259,1021.5,,,TRUE,,,,,,,CLR,,,,,,,,VFR,,,,,,,,,,,,SPECI,3.0
KOTG 021656Z AUTO 16015G19KT 10SM FEW100 29/16 A3005 RMK AO2 SLP165 T02890156 PNO $,KOTG,2023-06-02T16:56:00Z,43.65,-95.57,28.9,15.6,160,15,19,10.0,30.050198,1016.5,,TRUE,TRUE,TRUE,,,,,,FEW,10000,,,,,,,VFR,,,,,,,,,,,,METAR,478.0
KOLU 021656Z AUTO 19010KT 10SM OVC100 25/17 A3003 RMK AO2 SLP161 T02500167,KOLU,2023-06-02T16:56:00Z,41.45,-97.33,25.0,16.7,190,10,,10.0,30.029528,1016.1,,TRUE,TRUE,,,,,,,OVC,10000,,,,,,,VFR,,,,,,,,,,,,METAR,438.0
KOKK 021656Z AUTO 12008KT 10SM CLR 31/08 A3007 RMK AO2 SLP174 T03060078 PNO $,KOKK,2023-06-02T16:56:00Z,40.53,-86.07,30.6,7.8,120,8,,10.0,30.070866,1017.4,,TRUE,TRUE,TRUE,,,,,,CLR,,,,,,,,VFR,,,,,,,,,,,,METAR,251.0
KOFK 021656Z AUTO 19014G21KT 10SM 28/14 A3001 RMK AO2 SLP149 T02830139,KOFK,2023-06-02T16:56:00Z,41.98,-97.43,28.3,13.9,190,14,21,10.0,30.008858,1014.9,,TRUE,TRUE,,,,,,,,,,,,,,,,,,,,,,,,,,,METAR,476.0
KOCH 021656Z AUTO 19005KT 10SM SCT060 29/19 A2995 RMK AO2 SLP143 T02940194,KOCH,2023-06-02T16:56:00Z,31.57,-94.72,29.4,19.4,190,5,,10.0,29.949802,1014.3,,TRUE,TRUE,,,,,,,SCT,6000,,,,,,,VFR,,,,,,,,,,,,METAR,105.0
KNYG 021656Z 18007KT 6SM BR CLR 26/20 A2995 RMK AO2 SLP144 T02560200 $,KNYG,2023-06-02T16:56:00Z,38.5,-77.3,25.6,20.0,180,7,,6.0,29.949802,1014.4,,,TRUE,TRUE,,,,,BR,CLR,,,,,,,,VFR,,,,,,,,,,,,METAR,2.0
KNXP 021656Z AUTO VRB04KT 10SM CLR 27/05 A2998 RMK AO2 SLP118 T02670050,KNXP,2023-06-02T16:56:00Z,34.28,-116.13,26.7,5.0,0,4,,10.0,29.97933,1011.8,,TRUE,TRUE,,,,,,,CLR,,,,,,,,VFR,,,,,,,,,,,,METAR,610.0
KNXF 021656Z AUTO 29008KT 10SM FEW010 OVC036 17/14 A2998 RMK AO2 SLP239 T01720144 $,KNXF,2023-06-02T16:56:00Z,33.28,-117.45,17.2,14.4,290,8,,10.0,29.97933,1023.9,,TRUE,TRUE,TRUE,,,,,,FEW,1000,OVC,3600,,,,,VFR,,,,,,,,,,,,METAR,28.0
KNTU 021656Z 03011KT 10SM SCT013 BKN019 23/18 A2992 RMK AO2 SLP133 T02280183,KNTU,2023-06-02T16:56:00Z,36.82,-76.02,22.8,18.3,30,11,,10.0,29.920275,1013.3,,,TRUE,,,,,,,SCT,1300,BKN,1900,,,,,MVFR,,,,,,,,,,,,METAR,6.0
KNSE 021656Z 06008G17KT 10SM BKN045 BKN250 31/18 A2987 RMK AO2 SLP100 T03060178 $,KNSE,2023-06-02T16:56:00Z,30.73,-87.02,30.6,17.8,60,8,17,10.0,29.870079,1010.0,,,TRUE,TRUE,,,,,,BKN,4500,BKN,25000,,,,,VFR,,,,,,,,,,,,METAR,56.0
KNQI 021656Z 13011KT 10SM SCT035 SCT250 32/22 A2989 RMK AO2 SLP118 T03220222 $,KNQI,2023-06-02T16:56:00Z,27.5,-97.82,32.2,22.2,130,11,,10.0,29.890747,1011.8,,,TRUE,TRUE,,,,,,SCT,3500,SCT,25000,,,,,VFR,,,,,,,,,,,,METAR,15.0
KNPA 021656Z 06010G18KT 10SM SCT048 SCT250 30/17 A2986 RMK AO2 SLP113 T03000167,KNPA,2023-06-02T16:56:00Z,30.35,-87.32,30.0,16.7,60,10,18,10.0,29.861221,1011.3,,,TRUE,,,,,,,SCT,4800,SCT,25000,,,,,VFR,,,,,,,,,,,,SPECI,6.0
KNOG 021656Z AUTO 12012G21KT 10SM FEW038 SCT048 31/21 A2991 RMK AO2 SLP107 T03110211 TSNO PNO $,KNOG,2023-06-02T16:56:00Z,27.9,-98.05,31.1,21.1,120,12,21,10.0,29.911417,1010.7,,TRUE,TRUE,TRUE,,TRUE,,,,FEW,3800,SCT,4800,,,,,VFR,,,,,,,,,,,,METAR,72.0
KNMM 021656Z 04006KT 10SM SCT050 31/18 A2994 RMK AO2 SLP144 T03110178 $,KNMM,2023-06-02T16:56:00Z,32.53,-88.53,31.1,17.8,40,6,,10.0,29.940945,1014.4,,,TRUE,TRUE,,,,,,SCT,5000,,,,,,,VFR,,,,,,,,,,,,METAR,94.0
KNLC 021656Z VRB04KT 10SM CLR 22/09 A2997 RMK AO2 SLP145 RH/42 T02220089,KNLC,2023-06-02T16:56:00Z,36.32,-119.95,22.2,8.9,0,4,,10.0,29.970472,1014.5,,,TRUE,,,,,,,CLR,,,,,,,,VFR,,,,,,,,,,,,METAR,69.0
KNJK 021656Z 05007KT 10SM CLR 27/14 A2989 RMK AO2 SLP136 T02670144 $,KNJK,2023-06-02T16:56:00Z,32.82,-115.67,26.7,14.4,50,7,,10.0,29.890747,1013.6,,,TRUE,TRUE,,,,,,CLR,,,,,,,,VFR,,,,,,,,,,,,METAR,-15.0
KNID 021656Z 00000KT 10SM CLR 24/08 A2992 RMK AO2 SLP113 T02440083 $,KNID,2023-06-02T16:56:00Z,35.68,-117.68,24.4,8.3,0,0,,10.0,29.920275,1011.3,,,TRUE,TRUE,,,,,,CLR,,,,,,,,VFR,,,,,,,,,,,,METAR,682.0
KNGP 021656Z 12014KT 10SM FEW025 SCT035 SCT250 32/22 A2991 RMK AO2 SLP127 T03170222,KNGP,2023-06-02T16:56:00Z,27.68,-97.28,31.7,22.2,120,14,,10.0,29.911417,1012.7,,,TRUE,,,,,,,FEW,2500,SCT,3500,SCT,25000,,,VFR,,,,,,,,,,,,METAR,5.0
KNFL 021656Z 00000KT 10SM SCT060 19/07 A3005 RMK AO2 SLP145 T01890067,KNFL,2023-06-02T16:56:00Z,39.42,-118.7,18.9,6.7,0,0,,10.0,30.050198,1014.5,,,TRUE,,,,,,,SCT,6000,,,,,,,VFR,,,,,,,,,,,,METAR,1199.0
KNFE 021656Z AUTO 04009KT 10SM OVC017 25/19 A2992 RMK AO2 SLP134 T02500194,KNFE,2023-06-02T16:56:00Z,36.7,-76.13,25.0,19.4,40,9,,10.0,29.920275,1013.4,,TRUE,TRUE,,,,,,,OVC,1700,,,,,,,MVFR,,,,,,,,,,,,METAR,4.0
KNDZ 021656Z 07011G20KT 10SM SCT040 SCT120 BKN250 29/17 A2987 RMK AO2 SLP099 T02940167 $,KNDZ,2023-06-02T16:56:00Z,30.7,-87.02,29.4,16.7,70,11,20,10.0,29.870079,1009.9,,,TRUE,TRUE,,,,,,SCT,4000,SCT,12000,BKN,25000,,,VFR,,,,,,,,,,,,METAR,51.0
KNCA 021656Z 03010KT 10SM BKN022 OVC028 24/19 A2987 RMK AO2 SLP118 T02390189,KNCA,2023-06-02T16:56:00Z,34.72,-77.45,23.9,18.9,30,10,,10.0,29.870079,1011.8,,,TRUE,,,,,,,BKN,2200,OVC,2800,,,,,MVFR,,,,,,,,,,,,METAR,9.0
KNBC 021656Z AUTO 36012KT 10SM FEW028 BKN047 27/18 A2987 RMK AO2 SLP116 T02720183 PNO $,KNBC,2023-06-02T16:56:00Z,32.47,-80.72,27.2,18.3,360,12,,10.0,29.870079,1011.6,,TRUE,TRUE,TRUE,,,,,,FEW,2800,BKN,4700,,,,,VFR,,,,,,,,,,,,METAR,9.0
KMVN 021656Z AUTO 07006KT 10SM CLR 32/16 A3000 RMK AO2 SLP159 T03170156,KMVN,2023-06-02T16:56:00Z,38.32,-88.87,31.7,15.6,70,6,,10.0,30.0,1015.9,,TRUE,TRUE,,,,,,,CLR,,,,,,,,VFR,,,,,,,,,,,,METAR,145.0
KMTW 021656Z AUTO 13007KT 10SM CLR 27/17 A3012 RMK AO2 SLP198 T02670172,KMTW,2023-06-02T16:56:00Z,44.12,-87.67,26.7,17.2,130,7,,10.0,30.121063,1019.8,,TRUE,TRUE,,,,,,,CLR,,,,,,,,VFR,,,,,,,,,,,,METAR,197.0
KMTC 021656Z 08008KT 10SM FEW100 BKN200 29/13 A3006 RMK AO2A SLP181 T02890131 $,KMTC,2023-06-02T16:56:00Z,42.62,-82.83,28.9,13.1,80,8,,10.0,30.059055,1018.1,,,TRUE,TRUE,,,,,,FEW,10000,BKN,20000,,,,,VFR,,,,,,,,,,,,METAR,177.0
KMSV 021656Z AUTO 34007G17KT 10SM CLR 32/13 A2997 RMK AO2 LTG DSNT S AND SW TSB01E16 SLP139 T03220128,KMSV,2023-06-02T16:56:00Z,41.7,-74.78,32.2,12.8,340,7,17,10.0,29.970472,1013.9,,TRUE,TRUE,,,,,,,CLR,,,,,,,,VFR,,,,,,,,,,,,METAR,427.0
KMRF 021656Z AUTO 27007G14KT 230V310 10SM CLR 27/08 A3002 RMK AO2 SLP094 T02670078,KMRF,2023-06-02T16:56:00Z,30.37,-104.02,26.7,7.8,270,7,14,10.0,30.02067,1009.4,,TRUE,TRUE,,,,,,,CLR,,,,,,,,VFR,,,,,,,,,,,,METAR,1476.0
KMQY 021656Z 04008KT 10SM CLR 31/17 A2997 RMK AO2 SLP150 T03110167,KMQY,2023-06-02T16:56:00Z,36.02,-86.52,31.1,16.7,40,8,,10.0,29.970472,1015.0,,,TRUE,,,,,,,CLR,,,,,,,,VFR,,,,,,,,,,,,METAR,156.0
KMOB 021656Z 02007G18KT 350V070 7SM BKN045 BKN250 31/16 A2990 RMK AO2 SLP122 T03060161,KMOB,2023-06-02T16:56:00Z,30.68,-88.25,30.6,16.1,20,7,18,7.0,29.899607,1012.2,,,TRUE,,,,,,,BKN,4500,BKN,25000,,,,,VFR,,,,,,,,,,,,METAR,67.0
KMML 021656Z AUTO 17014KT 10SM CLR 28/18 A3002 RMK AO2 SLP158 T02830183 $,KMML,2023-06-02T16:56:00Z,44.45,-95.82,28.3,18.3,170,14,,10.0,30.02067,1015.8,,TRUE,TRUE,TRUE,,,,,,CLR,,,,,,,,VFR,,,,,,,,,,,,METAR,358.0
KMKT 021656Z AUTO VRB05KT 10SM CLR 27/17 A3007 RMK AO2 SLP177 T02720172,KMKT,2023-06-02T16:56:00Z,44.22,-93.92,27.2,17.2,0,5,,10.0,30.070866,1017.7,,TRUE,TRUE,,,,,,,CLR,,,,,,,,VFR,,,,,,,,,,,,SPECI,309.0
KMHS 021656Z AUTO 00000KT 10SM CLR 19/04 A3006 RMK AO2 SLP176 T01890039,KMHS,2023-06-02T16:56:00Z,41.32,-122.32,18.9,3.9,0,0,,10.0,30.059055,1017.6,,TRUE,TRUE,,,,,,,CLR,,,,,,,,VFR,,,,,,,,,,,,METAR,1080.0
KMEH 021656Z AUTO VRB05KT 10SM CLR 16/03 A3008 RMK AO2 SLP177 T01560033,KMEH,2023-06-02T16:56:00Z,45.52,-118.42,15.6,3.3,0,5,,10.0,30.079725,1017.7,,TRUE,TRUE,,,,,,,CLR,,,,,,,,VFR,,,,,,,,,,,,METAR,1138.0
KMDT 021656Z 25005KT 10SM CLR 32/14 A2992 RMK AO2 SLP130 T03170144,KMDT,2023-06-02T16:56:00Z,40.2,-76.77,31.7,14.4,250,5,,10.0,29.920275,1013.0,,,TRUE,,,,,,,CLR,,,,,,,,VFR,,,,,,,,,,,,SPECI,91.0
KMBL 021656Z AUTO 23008KT 10SM CLR 26/17 A3010 RMK AO2 SLP189 T02610167,KMBL,2023-06-02T16:56:00Z,44.27,-86.25,26.1,16.7,230,8,,10.0,30.100393,1018.9,,TRUE,TRUE,,,,,,,CLR,,,,,,,,VFR,,,,,,,,,,,,METAR,187.0
KM19 021656Z AUTO 02006KT 10SM BKN060 BKN070 31/17 A2998 RMK AO2 SLP148 T03060172 PNO $,KM19,2023-06-02T16:56:00Z,35.65,-91.17,30.6,17.2,20,6,,10.0,29.97933,1014.8,,TRUE,TRUE,TRUE,,,,,,BKN,6000,BKN,7000,,,,,VFR,,,,,,,,,,,,METAR,72.0
KLZU 021656Z 09008KT 10SM FEW043 27/16 A2995 RMK AO2 SLP145 T02720161,KLZU,2023-06-02T16:56:00Z,33.98,-83.97,27.2,16.1,90,8,,10.0,29.949802,1014.5,,,TRUE,,,,,,,FEW,4300,,,,,,,VFR,,,,,,,,,,,,METAR,316.0
KLWS 021656Z 30006KT 10SM CLR 22/05 A3001 RMK AO2 SLP154 T02170050,KLWS,2023-06-02T16:56:00Z,46.37,-117.02,21.7,5.0,300,6,,10.0,30.008858,1015.4,,,TRUE,,,,,,,CLR,,,,,,,,VFR,,,,,,,,,,,,METAR,435.0
KLRD 021656Z 16012G17KT 10SM OVC035 30/22 A2988 RMK AO2 SLP113 T03000217,KLRD,2023-06-02T16:56:00Z,27.55,-99.47,30.0,21.7,160,12,17,10.0,29.878937,1011.3,,,TRUE,,,,,,,OVC,3500,,,,,,,VFR,,,,,,,,,,,,METAR,150.0
KLNR 021656Z AUTO 00000KT 10SM CLR 30/17 A3007 RMK AO2 SLP173 T03000167,KLNR,2023-06-02T16:56:00Z,43.22,-90.18,30.0,16.7,0,0,,10.0,30.070866,1017.3,,TRUE,TRUE,,,,,,,CLR,,,,,,,,VFR,,,,,,,,,,,,SPECI,218.0
KLGD 021656Z AUTO 31016KT 10SM CLR 19/04 A3003 RMK AO2 SLP156 T01890039,KLGD,2023-06-02T16:56:00Z,45.28,-118.0,18.9,3.9,310,16,,10.0,30.029528,1015.6,,TRUE,TRUE,,,,,,,CLR,,,,,,,,VFR,,,,,,,,,,,,SPECI,827.0
KLEW 021656Z AUTO 04008KT 10SM 29/16 A2990 RMK AO2 SLP128 T02940156 PNO $,KLEW,2023-06-02T16:56:00Z,44.03,-70.28,29.4,15.6,40,8,,10.0,29.899607,1012.8,,TRUE,TRUE,TRUE,,,,,,,,,,,,,,,,,,,,,,,,,,METAR,81.0
KLBT 021656Z AUTO 04009G16KT 10SM FEW035 SCT047 28/18 A2989 RMK AO2 SLP120 T02780178,KLBT,2023-06-02T16:56:00Z,34.6,-79.07,27.8,17.8,40,9,16,10.0,29.890747,1012.0,,TRUE,TRUE,,,,,,,FEW,3500,SCT,4700,,,,,VFR,,,,,,,,,,,,METAR,37.0
KLBL 021656Z AUTO 14012KT 10SM OVC013 21/18 A2998 RMK AO2 SLP128 T02110178,KLBL,2023-06-02T16:56:00Z,37.03,-100.97,21.1,17.8,140,12,,10.0,29.97933,1012.8,,TRUE,TRUE,,,,,,,OVC,1300,,,,,,,MVFR,,,,,,,,,,,,METAR,877.0
KLAS 021656Z 06003KT 10SM FEW120 28/04 A2989 RMK AO2 SLP098 T02780044,KLAS,2023-06-02T16:56:00Z,36.07,-115.17,27.8,4.4,60,3,,10.0,29.890747,1009.8,,,TRUE,,,,,,,FEW,12000,,,,,,,VFR,,,,,,,,,,,,METAR,662.0
KKLS 021656Z AUTO 00000KT CLR 13/06 A3015 RMK AO2 SLP215 T01330061 PWINO $,KKLS,2023-06-02T16:56:00Z,46.12,-122.9,13.3,6.1,0,0,,,30.15059,1021.5,,TRUE,TRUE,TRUE,,,,TRUE,,CLR,,,,,,,,,,,,,,,,,,,,SPECI,4.0
KJXN 021656Z 08007G18KT 10SM BKN080 26/10 A3009 RMK AO2 SLP188 T02560100 $,KJXN,2023-06-02T16:56:00Z,42.27,-84.47,25.6,10.0,80,7,18,10.0,30.088583,1018.8,,,TRUE,TRUE,,,,,,BKN,8000,,,,,,,VFR,,,,,,,,,,,,METAR,303.0
KJRB 021656Z AUTO 04008KT 270V060 10SM FEW100 30/13 A2991 RMK AO2 PK WND 27032/1655 SLP127 T03000133,KJRB,2023-06-02T16:56:00Z,40.7,-74.02,30.0,13.3,40,8,,10.0,29.911417,1012.7,,TRUE,TRUE,,,,,,,FEW,10000,,,,,,,VFR,,,,,,,,,,,,SPECI,2.0
KJHW 021656Z AUTO 12003KT 10SM SCT085 29/09 A3009 RMK AO2 SLP178 T02890094 PNO $,KJHW,2023-06-02T16:56:00Z,42.15,-79.27,28.9,9.4,120,3,,10.0,30.088583,1017.8,,TRUE,TRUE,TRUE,,,,,,SCT,8500,,,,,,,VFR,,,,,,,,,,,,METAR,520.0
KJAX 021656Z 07012G21KT 10SM SCT035 BKN250 28/18 A2984 RMK AO2 SLP106 T02780183,KJAX,2023-06-02T16:56:00Z,30.5,-81.68,27.8,18.3,70,12,21,10.0,29.840551,1010.6,,,TRUE,,,,,,,SCT,3500,BKN,25000,,,,,VFR,,,,,,,,,,,,METAR,8.0
KIWD 021656Z AUTO 13008KT 10SM CLR 25/18 A3016 RMK AO2 SLP207 T02500178,KIWD,2023-06-02T16:56:00Z,46.52,-90.12,25.0,17.8,130,8,,10.0,30.159449,1020.7,,TRUE,TRUE,,,,,,,CLR,,,,,,,,VFR,,,,,,,,,,,,METAR,373.0
KITH 021656Z 29008KT 10SM CLR 31/15 A3001 RMK AO2 SLP155 T03060150,KITH,2023-06-02T16:56:00Z,42.48,-76.45,30.6,15.0,290,8,,10.0,30.008858,1015.5,,,TRUE,,,,,,,CLR,,,,,,,,VFR,,,,,,,,,,,,METAR,338.0
KISP 021656Z 19008KT 10SM FEW050 FEW250 26/14 A2991 RMK AO2 SLP127 T02560139,KISP,2023-06-02T16:56:00Z,40.8,-73.1,25.6,13.9,190,8,,10.0,29.911417,1012.7,,,TRUE,,,,,,,FEW,5000,FEW,25000,,,,,VFR,,,,,,,,,,,,METAR,25.0
KISO 021656Z 02009KT 10SM SCT027 BKN037 25/19 A2991,KISO,2023-06-02T16:56:00Z,35.32,-77.62,25.0,19.0,20,9,,10.0,29.911417,,,,,,,,,,,SCT,2700,BKN,3700,,,,,VFR,,,,,,,,,,,,METAR,27.0
KISM 021656Z 05006KT 10SM FEW050 SCT080 30/21 A2980 RMK AO2 SLP090 T03000206 PNO $,KISM,2023-06-02T16:56:00Z,28.28,-81.43,30.0,20.6,50,6,,10.0,29.799213,1009.0,,,TRUE,TRUE,,,,,,FEW,5000,SCT,8000,,,,,VFR,,,,,,,,,,,,METAR,25.0
KINW 021656Z AUTO 31010KT 10SM CLR 23/02 A3004 RMK AO2 SLP104 T02330022,KINW,2023-06-02T16:56:00Z,35.03,-110.72,23.3,2.2,310,10,,10.0,30.041338,1010.4,,TRUE,TRUE,,,,,,,CLR,,,,,,,,VFR,,,,,,,,,,,,METAR,1492.0
KILE 021656Z AUTO 14009KT 10SM CLR 29/19 A2995 RMK AO2 SLP130 T02940194,KILE,2023-06-02T16:56:00Z,31.08,-97.68,29.4,19.4,140,9,,10.0,29.949802,1013.0,,TRUE,TRUE,,,,,,,CLR,,,,,,,,VFR,,,,,,,,,,,,METAR,256.0
KHYS 021656Z AUTO 20018G22KT 10SM VCTS FEW029 SCT038 BKN055 19/14 A2998 RMK AO2 LTG DSNT ALQDS TSE02B48RAB15E35 SLP143 P0000 T01940144 $,KHYS,2023-06-02T16:56:00Z,38.85,-99.27,19.4,14.4,200,18,22,10.0,29.97933,1014.3,,TRUE,TRUE,TRUE,,,,,VCTS,FEW,2900,SCT,3800,BKN,5500,,,VFR,,,,,,0.005,,,,,,METAR,607.0
KHYI 021656Z 17011G14KT 10SM BKN034 BKN046 30/21 A2995 RMK AO2 SLP132 T03000206,KHYI,2023-06-02T16:56:00Z,29.88,-97.87,30.0,20.6,170,11,14,10.0,29.949802,1013.2,,,TRUE,,,,,,,BKN,3400,BKN,4600,,,,,VFR,,,,,,,,,,,,METAR,180.0
KHYA 021656Z 20008KT 10SM CLR 23/15 A2990 RMK AO2 SLP125 T02330150,KHYA,2023-06-02T16:56:00Z,41.67,-70.27,23.3,15.0,200,8,,10.0,29.899607,1012.5,,,TRUE,,,,,,,CLR,,,,,,,,VFR,,,,,,,,,,,,METAR,11.0
KHWV 021656Z AUTO 19008KT 10SM CLR 26/12 A2992 RMK AO2 SLP131 T02610117,KHWV,2023-06-02T16:56:00Z,40.82,-72.87,26.1,11.7,190,8,,10.0,29.920275,1013.1,,TRUE,TRUE,,,,,,,CLR,,,,,,,,VFR,,,,,,,,,,,,METAR,20.0
KHPN 021656Z 15007KT 10SM FEW050 28/16 A2991 RMK AO2 SLP121 T02830161,KHPN,2023-06-02T16:56:00Z,41.07,-73.7,28.3,16.1,150,7,,10.0,29.911417,1012.1,,,TRUE,,,,,,,FEW,5000,,,,,,,VFR,,,,,,,,,,,,SPECI,113.0
KHND 021656Z 30004KT 10SM CLR 28/04 A2993 RMK AO2 SLP122 T02780039,KHND,2023-06-02T16:56:00Z,35.98,-115.13,27.8,3.9,300,4,,10.0,29.929134,1012.2,,,TRUE,,,,,,,CLR,,,,,,,,VFR,,,,,,,,,,,,SPECI,740.0
KHNB 021656Z AUTO 01008KT 10SM CLR 29/14 A3000 RMK AO2 SLP153 T02940139,KHNB,2023-06-02T16:56:00Z,38.25,-86.95,29.4,13.9,10,8,,10.0,30.0,1015.3,,TRUE,TRUE,,,,,,,CLR,,,,,,,,VFR,,,,,,,,,,,,METAR,159.0
KHEZ 021656Z AUTO 07008KT 10SM SCT044 29/19 A2995 RMK AO2 SLP141 T02940194,KHEZ,2023-06-02T16:56:00Z,31.62,-91.3,29.4,19.4,70,8,,10.0,29.949802,1014.1,,TRUE,TRUE,,,,,,,SCT,4400,,,,,,,VFR,,,,,,,,,,,,METAR,82.0
KHEF 021656Z 09003KT 10SM CLR 31/12 A2995 RMK AO2 SLP146 T03060117,KHEF,2023-06-02T16:56:00Z,38.72,-77.52,30.6,11.7,90,3,,10.0,29.949802,1014.6,,,TRUE,,,,,,,CLR,,,,,,,,VFR,,,,,,,,,,,,METAR,53.0
KGXY 021656Z AUTO VRB04KT 10SM CLR 19/10 A2995 RMK AO2 LTG DSNT W SLP115 T01940100,KGXY,2023-06-02T16:56:00Z,40.43,-104.62,19.4,10.0,0,4,,10.0,29.949802,1011.5,,TRUE,TRUE,,,,,,,CLR,,,,,,,,VFR,,,,,,,,,,,,METAR,1420.0
KGVQ 021656Z AUTO 32008KT 10SM FEW100 29/14 A3004 RMK AO2 SLP164 T02940139,KGVQ,2023-06-02T16:56:00Z,43.03,-78.17,29.4,13.9,320,8,,10.0,30.041338,1016.4,,TRUE,TRUE,,,,,,,FEW,10000,,,,,,,VFR,,,,,,,,,,,,METAR,279.0
KGUC 021656Z AUTO 23003KT 10SM -RA FEW029 BKN039 OVC049 06/03 A3017 RMK AO2 SLP185 P0000 T00610033,KGUC,2023-06-02T16:56:00Z,38.52,-106.93,6.1,3.3,230,3,,10.0,30.171259,1018.5,,TRUE,TRUE,,,,,,-RA,FEW,2900,BKN,3900,OVC,4900,,,VFR,,,,,,0.005,,,,,,METAR,2337.0
KGTU 021656Z 20009KT 10SM BKN039 29/18 A2996 RMK AO2 SLP140 T02890178,KGTU,2023-06-02T16:56:00Z,30.68,-97.68,28.9,17.8,200,9,,10.0,29.958662,1014.0,,,TRUE,,,,,,,BKN,3900,,,,,,,VFR,,,,,,,,,,,,METAR,232.0
KGTR 021656Z VRB05KT 10SM CLR 31/19 A2995 RMK AO2 SLP146 T03060189,KGTR,2023-06-02T16:56:00Z,33.45,-88.58,30.6,18.9,0,5,,10.0,29.949802,1014.6,,,TRUE,,,,,,,CLR,,,,,,,,VFR,,,,,,,,,,,,METAR,80.0
KGRD 021656Z AUTO 05007KT 10SM SCT041 SCT055 27/17 A2994 RMK AO2 SLP133 T02670167,KGRD,2023-06-02T16:56:00Z,34.25,-82.15,26.7,16.7,50,7,,10.0,29.940945,1013.3,,TRUE,TRUE,,,,,,,SCT,4100,SCT,5500,,,,,VFR,,,,,,,,,,,,METAR,188.0
KGPZ 021656Z AUTO 15009KT 10SM CLR 26/18 A3011 RMK AO2 SLP191 T02610178,KGPZ,2023-06-02T16:56:00Z,47.22,-93.52,26.1,17.8,150,9,,10.0,30.109253,1019.1,,TRUE,TRUE,,,,,,,CLR,,,,,,,,VFR,,,,,,,,,,,,METAR,410.0
KGON 021656Z 18005KT 10SM CLR 23/16 A2990 RMK AO2 SLP125 T02280161 $,KGON,2023-06-02T16:56:00Z,41.33,-72.05,22.8,16.1,180,5,,10.0,29.899607,1012.5,,,TRUE,TRUE,,,,,,CLR,,,,,,,,VFR,,,,,,,,,,,,METAR,2.0
KGNR 021656Z AUTO 34010G18KT 27/16 A2994 RMK AO1 SLP132 T02670156,KGNR,2023-06-02T16:56:00Z,45.47,-69.55,26.7,15.6,340,10,18,,29.940945,1013.2,,TRUE,TRUE,,,,,,,,,,,,,,,,,,,,,,,,,,,METAR,426.0
KGNA 021656Z AUTO 09007KT 12/09 A3017 RMK AO1 SLP220 T01170089,KGNA,2023-06-02T16:56:00Z,47.75,-90.35,11.7,8.9,90,7,,,30.171259,1022.0,,TRUE,TRUE,,,,,,,,,,,,,,,,,,,,,,,,,,,METAR,186.0
KGDV 021656Z AUTO 06013KT 10SM FEW120 22/17 A2990 RMK AO2 SLP113 T02170172 TSNO,KGDV,2023-06-02T16:56:00Z,47.13,-104.8,21.7,17.2,60,13,,10.0,29.899607,1011.3,,TRUE,TRUE,,,TRUE,,,,FEW,12000,,,,,,,VFR,,,,,,,,,,,,METAR,749.0
KGAI 021656Z AUTO VRB04KT 10SM CLR 31/13 A2997 RMK AO2 SLP156 T03110133,KGAI,2023-06-02T16:56:00Z,39.17,-77.17,31.1,13.3,0,4,,10.0,29.970472,1015.6,,TRUE,TRUE,,,,,,,CLR,,,,,,,,VFR,,,,,,,,,,,,METAR,151.0
KGAD 021656Z AUTO VRB04KT 10SM CLR 28/18 A2995 RMK AO2 SLP140 T02830178 PNO $,KGAD,2023-06-02T16:56:00Z,33.97,-86.08,28.3,17.8,0,4,,10.0,29.949802,1014.0,,TRUE,TRUE,TRUE,,,,,,CLR,,,,,,,,VFR,,,,,,,,,,,,METAR,169.0
KFSD 021656Z 17011G24KT 10SM FEW045 SCT250 30/16 A3000 RMK AO2 SLP147 T03000161,KFSD,2023-06-02T16:56:00Z,43.58,-96.75,30.0,16.1,170,11,24,10.0,30.0,1014.7,,,TRUE,,,,,,,FEW,4500,SCT,25000,,,,,VFR,,,,,,,,,,,,METAR,433.0
KFRM 021656Z AUTO 17009KT 10SM CLR 26/18 A3006 RMK AO2 SLP177 T02610183,KFRM,2023-06-02T16:56:00Z,43.63,-94.42,26.1,18.3,170,9,,10.0,30.059055,1017.7,,TRUE,TRUE,,,,,,,CLR,,,,,,,,VFR,,,,,,,,,,,,METAR,353.0
KFOD 021656Z AUTO VRB03KT 10SM FEW110 28/19 A3006 RMK AO2 SLP184 T02780194,KFOD,2023-06-02T16:56:00Z,42.53,-94.17,27.8,19.4,0,3,,10.0,30.059055,1018.4,,TRUE,TRUE,,,,,,,FEW,11000,,,,,,,VFR,,,,,,,,,,,,METAR,347.0
KFLP 021656Z AUTO 11005KT 10SM CLR 29/19 A3001 RMK AO2 SLP154 T02940189,KFLP,2023-06-02T16:56:00Z,36.28,-92.58,29.4,18.9,110,5,,10.0,30.008858,1015.4,,TRUE,TRUE,,,,,,,CLR,,,,,,,,VFR,,,,,,,,,,,,METAR,215.0
KFKL 021656Z AUTO 36008KT 10SM SCT070 29/11 A3007 RMK AO2 SLP173 T02890106,KFKL,2023-06-02T16:56:00Z,41.37,-79.87,28.9,10.6,360,8,,10.0,30.070866,1017.3,,TRUE,TRUE,,,,,,,SCT,7000,,,,,,,VFR,,,,,,,,,,,,METAR,468.0
KFCI 021656Z AUTO VRB06KT 10SM CLR 28/11 RMK AO2 SLPNO T02780111 $,KFCI,2023-06-02T16:56:00Z,37.4,-77.52,27.8,11.1,0,6,,10.0,,,,TRUE,TRUE,TRUE,,,,,,CLR,,,,,,,,VFR,,,,,,,,,,,,METAR,63.0
KFAM 021656Z AUTO 36005KT 10SM BKN049 BKN075 BKN095 31/18 A3002 RMK AO2 SLP165 T03060183,KFAM,2023-06-02T16:56:00Z,37.77,-90.42,30.6,18.3,360,5,,10.0,30.02067,1016.5,,TRUE,TRUE,,,,,,,BKN,4900,BKN,7500,BKN,9500,,,VFR,,,,,,,,,,,,METAR,276.0
KEWK 021656Z AUTO 14011KT 10SM BKN080 BKN090 27/19 A3000 RMK AO2 SLP144 T02720189,KEWK,2023-06-02T16:56:00Z,38.05,-97.27,27.2,18.9,140,11,,10.0,30.0,1014.4,,TRUE,TRUE,,,,,,,BKN,8000,BKN,9000,,,,,VFR,,,,,,,,,,,,METAR,468.0
KEUL 021656Z AUTO 10SM CLR 21/07 A2998 RMK AO2 SLP139 T02110067 $,KEUL,2023-06-02T16:56:00Z,43.63,-116.62,21.1,6.7,,,,10.0,29.97933,1013.9,,TRUE,TRUE,TRUE,,,,,,CLR,,,,,,,,VFR,,,,,,,,,,,,METAR,741.0
KESC 021656Z AUTO 16005KT 10SM CLR 26/14 A3013 RMK AO2 SLP202 T02610144,KESC,2023-06-02T16:56:00Z,45.72,-87.08,26.1,14.4,160,5,,10.0,30.129921,1020.2,,TRUE,TRUE,,,,,,,CLR,,,,,,,,VFR,,,,,,,,,,,,METAR,180.0
KENV 021656Z AUTO 33007KT 10SM CLR 21/06 A2999 RMK AO2 SLP126 T02110061 PNO $,KENV,2023-06-02T16:56:00Z,40.72,-114.02,21.1,6.1,330,7,,10.0,29.991142,1012.6,,TRUE,TRUE,TRUE,,,,,,CLR,,,,,,,,VFR,,,,,,,,,,,,SPECI,1291.0
KELZ 021656Z AUTO VRB06KT 10SM SCT080 28/11 A3009 RMK AO2 SLP176 T02830106,KELZ,2023-06-02T16:56:00Z,42.1,-77.98,28.3,10.6,0,6,,10.0,30.088583,1017.6,,TRUE,TRUE,,,,,,,SCT,8000,,,,,,,VFR,,,,,,,,,,,,SPECI,639.0
KEKY 021656Z AUTO VRB04KT 10SM SCT045 BKN055 28/17 A2995 RMK AO2 SLP988 T02830172,KEKY,2023-06-02T16:56:00Z,33.32,-86.93,28.3,17.2,0,4,,10.0,29.949802,998.8,,TRUE,TRUE,,,,,,,SCT,4500,BKN,5500,,,,,VFR,,,,,,,,,,,,METAR,213.0
KEKQ 021656Z AUTO 01006KT 10SM CLR 28/15 A3001 RMK AO2 SLP153 T02830150,KEKQ,2023-06-02T16:56:00Z,36.85,-84.85,28.3,15.0,10,6,,10.0,30.008858,1015.3,,TRUE,TRUE,,,,,,,CLR,,,,,,,,VFR,,,,,,,,,,,,METAR,291.0
KEKO 021656Z AUTO VRB05KT 10SM CLR 16/09 A3005 RMK AO2 SLP144 T01610089,KEKO,2023-06-02T16:56:00Z,40.82,-115.78,16.1,8.9,0,5,,10.0,30.050198,1014.4,,TRUE,TRUE,,,,,,,CLR,,,,,,,,VFR,,,,,,,,,,,,METAR,1541.0
KEHR 021656Z AUTO 08007KT 10SM CLR 31/16 A2998 RMK AO2 SLP150 T03110156,KEHR,2023-06-02T16:56:00Z,37.82,-87.67,31.1,15.6,80,7,,10.0,29.97933,1015.0,,TRUE,TRUE,,,,,,,CLR,,,,,,,,VFR,,,,,,,,,,,,METAR,117.0
KEGE 021656Z AUTO 05004KT 10SM -RA OVC031 08/06 A3013 RMK AO2 RAB17 SLP109 P0001 T00780056,KEGE,2023-06-02T16:56:00Z,39.63,-106.92,7.8,5.6,50,4,,10.0,30.129921,1010.9,,TRUE,TRUE,,,,,,-RA,OVC,3100,,,,,,,VFR,,,,,,0.01,,,,,,METAR,1993.0
KEED 021656Z AUTO 09008KT 10SM CLR 30/09 A2986 RMK AO2 SLP081 T03000089,KEED,2023-06-02T16:56:00Z,34.77,-114.62,30.0,8.9,90,8,,10.0,29.861221,1008.1,,TRUE,TRUE,,,,,,,CLR,,,,,,,,VFR,,,,,,,,,,,,METAR,271.0
KEAU 021656Z VRB05KT 10SM CLR 29/19 A3009 RMK AO2 SLP184 T02890189,KEAU,2023-06-02T16:56:00Z,44.87,-91.48,28.9,18.9,0,5,,10.0,30.088583,1018.4,,,TRUE,,,,,,,CLR,,,,,,,,VFR,,,,,,,,,,,,METAR,271.0
KEAR 021656Z AUTO 11014KT 10SM SCT008 OVC030 18/17 A3002 RMK AO2 LTG DSNT E RAE20 SLP153 P0000 T01830172,KEAR,2023-06-02T16:56:00Z,40.72,-99.0,18.3,17.2,110,14,,10.0,30.02067,1015.3,,TRUE,TRUE,,,,,,,SCT,800,OVC,3000,,,,,MVFR,,,,,,0.005,,,,,,METAR,649.0
KDYR 021656Z AUTO VRB03KT 9SM FEW047 SCT060 SCT080 30/19 A2998 RMK AO2 SLP152 T03000194,KDYR,2023-06-02T16:56:00Z,36.0,-89.4,30.0,19.4,0,3,,9.0,29.97933,1015.2,,TRUE,TRUE,,,,,,,FEW,4700,SCT,6000,SCT,8000,,,VFR,,,,,,,,,,,,METAR,98.0
KDWU 021656Z AUTO 11004KT 10SM CLR 29/14 A3001 RMK AO2 SLP158 T02940144,KDWU,2023-06-02T16:56:00Z,38.55,-82.73,29.4,14.4,110,4,,10.0,30.008858,1015.8,,TRUE,TRUE,,,,,,,CLR,,,,,,,,VFR,,,,,,,,,,,,METAR,165.0
KDVL 021656Z AUTO 14009KT 10SM CLR 27/18 A2998 RMK AO2 SLP157 T02720178,KDVL,2023-06-02T16:56:00Z,48.12,-98.92,27.2,17.8,140,9,,10.0,29.97933,1015.7,,TRUE,TRUE,,,,,,,CLR,,,,,,,,VFR,,,,,,,,,,,,METAR,439.0
KDUG 021656Z AUTO 17007KT 10SM CLR 23/M03 A3003 RMK AO2 SLP107 T02331033 TSNO,KDUG,2023-06-02T16:56:00Z,31.47,-109.6,23.3,-3.3,170,7,,10.0,30.029528,1010.7,,TRUE,TRUE,,,TRUE,,,,CLR,,,,,,,,VFR,,,,,,,,,,,,METAR,1260.0
KDIK 021656Z AUTO 13015G25KT 10SM SCT045 26/17 A2990 RMK AO2 SLP107 T02560167,KDIK,2023-06-02T16:56:00Z,46.8,-102.8,25.6,16.7,130,15,25,10.0,29.899607,1010.7,,TRUE,TRUE,,,,,,,SCT,4500,,,,,,,VFR,,,,,,,,,,,,METAR,788.0
KDIJ 021656Z AUTO 00000KT 10SM -RA OVC050 11/09 A3007 RMK AO2 SLP156 P0000 T01110089,KDIJ,2023-06-02T16:56:00Z,43.75,-111.1,11.1,8.9,0,0,,10.0,30.070866,1015.6,,TRUE,TRUE,,,,,,-RA,OVC,5000,,,,,,,VFR,,,,,,0.005,,,,,,METAR,1896.0
KDAY 021656Z 10005KT 10SM CLR 31/09 A3005 RMK AO2 SLP167 T03060089,KDAY,2023-06-02T16:56:00Z,39.9,-84.22,30.6,8.9,100,5,,10.0,30.050198,1016.7,,,TRUE,,,,,,,CLR,,,,,,,,VFR,,,,,,,,,,,,METAR,303.0
KD07 021656Z AUTO 15015G22KT 23/17 A2990 RMK AO1 SLP111 T02330167,KD07,2023-06-02T16:56:00Z,45.03,-102.02,23.3,16.7,150,15,22,,29.899607,1011.1,,TRUE,TRUE,,,,,,,,,,,,,,,,,,,,,,,,,,,METAR,786.0
KCXY 021656Z 35007KT 10SM CLR 33/13 A2994 RMK AO2 SLP137 T03330128,KCXY,2023-06-02T16:56:00Z,40.22,-76.85,33.3,12.8,350,7,,10.0,29.940945,1013.7,,,TRUE,,,,,,,CLR,,,,,,,,VFR,,,,,,,,,,,,METAR,102.0
KCWI 021656Z AUTO 15007KT 9SM CLR 31/16 A3006 RMK AO2 SLP177 T03110161,KCWI,2023-06-02T16:56:00Z,41.82,-90.32,31.1,16.1,150,7,,9.0,30.059055,1017.7,,TRUE,TRUE,,,,,,,CLR,,,,,,,,VFR,,,,,,,,,,,,METAR,212.0
KCVO 021656Z AUTO 00000KT 10SM CLR 14/07 A3014 RMK AO2 SLP206 T01440072,KCVO,2023-06-02T16:56:00Z,44.5,-123.28,14.4,7.2,0,0,,10.0,30.138779,1020.6,,TRUE,TRUE,,,,,,,CLR,,,,,,,,VFR,,,,,,,,,,,,SPECI,75.0
KCTB 021656Z AUTO 02010KT 10SM OVC020 14/08 A3011 RMK AO2 SLP189 T01390083,KCTB,2023-06-02T16:56:00Z,48.6,-112.37,13.9,8.3,20,10,,10.0,30.109253,1018.9,,TRUE,TRUE,,,,,,,OVC,2000,,,,,,,MVFR,,,,,,,,,,,,METAR,1172.0
KCOE 021656Z AUTO 29004KT 10SM CLR 20/05 A3003 RMK AO2 SLP175 T02000050 PNO $,KCOE,2023-06-02T16:56:00Z,47.77,-116.82,20.0,5.0,290,4,,10.0,30.029528,1017.5,,TRUE,TRUE,TRUE,,,,,,CLR,,,,,,,,VFR,,,,,,,,,,,,METAR,693.0
KCOD 021656Z AUTO 32007KT 10SM -RA OVC019 12/10 A3001 RMK AO2 SLP135 P0002 T01220100,KCOD,2023-06-02T16:56:00Z,44.52,-109.02,12.2,10.0,320,7,,10.0,30.008858,1013.5,,TRUE,TRUE,,,,,,-RA,OVC,1900,,,,,,,MVFR,,,,,,0.02,,,,,,METAR,1550.0
KCIU 021656Z AUTO 18004KT 10SM CLR 28/08 A3015 RMK AO2 SLP205 T02830083,KCIU,2023-06-02T16:56:00Z,46.25,-84.47,28.3,8.3,180,4,,10.0,30.15059,1020.5,,TRUE,TRUE,,,,,,,CLR,,,,,,,,VFR,,,,,,,,,,,,METAR,242.0
KCHS 021656Z 02008KT 10SM SCT035 BKN045 BKN250 27/17 A2987 RMK AO2 SLP114 T02670167,KCHS,2023-06-02T16:56:00Z,32.9,-80.03,26.7,16.7,20,8,,10.0,29.870079,1011.4,,,TRUE,,,,,,,SCT,3500,BKN,4500,BKN,25000,,,VFR,,,,,,,,,,,,METAR,12.0
KCGZ 021656Z AUTO 00000KT 10SM CLR 27/04 A2993 RMK AO2 SLP120 T02720044 PNO $,KCGZ,2023-06-02T16:56:00Z,32.95,-111.77,27.2,4.4,0,0,,10.0,29.929134,1012.0,,TRUE,TRUE,TRUE,,,,,,CLR,,,,,,,,VFR,,,,,,,,,,,,METAR,444.0
KCAE 021656Z 03006KT 10SM SCT041 BKN050 BKN250 27/17 A2990 RMK AO2 SLP121 T02670167,KCAE,2023-06-02T16:56:00Z,33.93,-81.12,26.7,16.7,30,6,,10.0,29.899607,1012.1,,,TRUE,,,,,,,SCT,4100,BKN,5000,BKN,25000,,,VFR,,,,,,,,,,,,METAR,69.0
KBTP 021656Z AUTO 05010KT 10SM CLR 29/11 A3004 RMK AO2 SLP171 T02890111 TSNO $,KBTP,2023-06-02T16:56:00Z,40.77,-79.95,28.9,11.1,50,10,,10.0,30.041338,1017.1,,TRUE,TRUE,TRUE,,TRUE,,,,CLR,,,,,,,,VFR,,,,,,,,,,,,METAR,375.0
KBOK 021656Z AUTO 20003KT 10SM OVC006 11/09 A3010 RMK AO2 SLP194 T01060094,KBOK,2023-06-02T16:56:00Z,42.07,-124.28,10.6,9.4,200,3,,10.0,30.100393,1019.4,,TRUE,TRUE,,,,,,,OVC,600,,,,,,,IFR,,,,,,,,,,,,METAR,140.0
KBMI 021656Z 11007KT 10SM SCT065 31/11 A3006 RMK AO2 SLP167 T03110106,KBMI,2023-06-02T16:56:00Z,40.47,-88.92,31.1,10.6,110,7,,10.0,30.059055,1016.7,,,TRUE,,,,,,,SCT,6500,,,,,,,VFR,,,,,,,,,,,,METAR,262.0
KBLM 021656Z AUTO 10007KT 10SM CLR 28/17 A2993 RMK AO2 SLP134 T02830167,KBLM,2023-06-02T16:56:00Z,40.17,-74.12,28.3,16.7,100,7,,10.0,29.929134,1013.4,,TRUE,TRUE,,,,,,,CLR,,,,,,,,VFR,,,,,,,,,,,,METAR,45.0
KBKX 021656Z AUTO 17010KT 10SM CLR 27/17 A3002 RMK AO2 SLP165 T02670172,KBKX,2023-06-02T16:56:00Z,44.3,-96.82,26.7,17.2,170,10,,10.0,30.02067,1016.5,,TRUE,TRUE,,,,,,,CLR,,,,,,,,VFR,,,,,,,,,,,,METAR,494.0
KBJJ 021656Z AUTO 03010G17KT 10SM CLR 30/12 A3005 RMK AO2 SLP170 T03000117,KBJJ,2023-06-02T16:56:00Z,40.87,-81.88,30.0,11.7,30,10,17,10.0,30.050198,1017.0,,TRUE,TRUE,,,,,,,CLR,,,,,,,,VFR,,,,,,,,,,,,METAR,338.0
KBIH 021656Z AUTO 33007KT 10SM CLR 23/03 A2999 RMK AO2 SLP113 T02330028,KBIH,2023-06-02T16:56:00Z,37.37,-118.35,23.3,2.8,330,7,,10.0,29.991142,1011.3,,TRUE,TRUE,,,,,,,CLR,,,,,,,,VFR,,,,,,,,,,,,METAR,1252.0
KBID 021656Z AUTO 18008KT 10SM CLR 21/14 A2993 RMK AO2 SLP136 T02060139,KBID,2023-06-02T16:56:00Z,41.17,-71.58,20.6,13.9,180,8,,10.0,29.929134,1013.6,,TRUE,TRUE,,,,,,,CLR,,,,,,,,VFR,,,,,,,,,,,,METAR,32.0
KBHB 021656Z AUTO 11007KT 10SM CLR 22/14 A2992 RMK AO2 SLP135 T02220139,KBHB,2023-06-02T16:56:00Z,44.45,-68.37,22.2,13.9,110,7,,10.0,29.920275,1013.5,,TRUE,TRUE,,,,,,,CLR,,,,,,,,VFR,,,,,,,,,,,,METAR,21.0
KAWO 021656Z AUTO VRB04KT 10SM CLR 15/08 A3013 RMK AO2 SLP206 T01500083,KAWO,2023-06-02T16:56:00Z,48.17,-122.17,15.0,8.3,0,4,,10.0,30.129921,1020.6,,TRUE,TRUE,,,,,,,CLR,,,,,,,,VFR,,,,,,,,,,,,METAR,38.0
KASH 021656Z VRB06KT 10SM CLR 33/14 A2988 RMK AO2 LTG DSNT W SLP120 T03280139,KASH,2023-06-02T16:56:00Z,42.78,-71.52,32.8,13.9,0,6,,10.0,29.878937,1012.0,,,TRUE,,,,,,,CLR,,,,,,,,VFR,,,,,,,,,,,,METAR,56.0
KART 021656Z AUTO 01010KT 10SM CLR 30/16 A2998 RMK AO2 SLP148 T03000156,KART,2023-06-02T16:56:00Z,43.98,-76.03,30.0,15.6,10,10,,10.0,29.97933,1014.8,,TRUE,TRUE,,,,,,,CLR,,,,,,,,VFR,,,,,,,,,,,,METAR,100.0
KARG 021656Z AUTO 09004KT 10SM FEW047 31/18 A2998 RMK AO2 SLP150 T03060183,KARG,2023-06-02T16:56:00Z,36.12,-90.92,30.6,18.3,90,4,,10.0,29.97933,1015.0,,TRUE,TRUE,,,,,,,FEW,4700,,,,,,,VFR,,,,,,,,,,,,METAR,82.0
KAND 021656Z AUTO 08005KT 10SM BKN047 28/17 A2994 RMK AO2 SLP127 T02780167,KAND,2023-06-02T16:56:00Z,34.5,-82.72,27.8,16.7,80,5,,10.0,29.940945,1012.7,,TRUE,TRUE,,,,,,,BKN,4700,,,,,,,VFR,,,,,,,,,,,,METAR,233.0
KALK 021656Z AUTO 01008KT 10SM CLR 23/M02 A3007 RMK AO2 SLP094 T02281017,KALK,2023-06-02T16:56:00Z,31.6,-110.43,22.8,-1.7,10,8,,10.0,30.070866,1009.4,,TRUE,TRUE,,,,,,,CLR,,,,,,,,VFR,,,,,,,,,,,,METAR,1451.0
KAJO 021656Z AUTO 00000KT 10SM OVC035 18/13 A3000 RMK AO2 SLP153 T01830128,KAJO,2023-06-02T16:56:00Z,33.9,-117.6,18.3,12.8,0,0,,10.0,30.0,1015.3,,TRUE,TRUE,,,,,,,OVC,3500,,,,,,,VFR,,,,,,,,,,,,METAR,161.0
KAIZ 021656Z AUTO VRB04KT 9SM SCT047 SCT055 29/19 RMK AO2 SLPNO T02890189 $,KAIZ,2023-06-02T16:56:00Z,38.1,-92.53,28.9,18.9,0,4,,9.0,,,,TRUE,TRUE,TRUE,,,,,,SCT,4700,SCT,5500,,,,,VFR,,,,,,,,,,,,METAR,263.0
KAFJ 021656Z AUTO 35004KT 10SM CLR 29/13 A3005 RMK AO2 SLP168 T02940133,KAFJ,2023-06-02T16:56:00Z,40.13,-80.28,29.4,13.3,350,4,,10.0,30.050198,1016.8,,TRUE,TRUE,,,,,,,CLR,,,,,,,,VFR,,,,,,,,,,,,METAR,360.0
KADF 021656Z AUTO VRB03KT 10SM 31/21 A2998 RMK AO2 SLP147 T03060211 $,KADF,2023-06-02T16:56:00Z,34.1,-93.07,30.6,21.1,0,3,,10.0,29.97933,1014.7,,TRUE,TRUE,TRUE,,,,,,,,,,,,,,,,,,,,,,,,,,METAR,54.0
K8D3 021656Z AUTO 16013G20KT 29/17 A2997 RMK AO1 SLP126 T02940172,K8D3,2023-06-02T16:56:00Z,45.67,-96.98,29.4,17.2,160,13,20,,29.970472,1012.6,,TRUE,TRUE,,,,,,,,,,,,,,,,,,,,,,,,,,,METAR,535.0
K79J 021656Z AUTO 06009G16KT 10SM SCT049 31/17 A2988 RMK AO2 SLP114 T03110167,K79J,2023-06-02T16:56:00Z,31.32,-86.4,31.1,16.7,60,9,16,10.0,29.878937,1011.4,,TRUE,TRUE,,,,,,,SCT,4900,,,,,,,VFR,,,,,,,,,,,,METAR,93.0
K2WX 021656Z AUTO 14015KT 24/17 A2985 RMK AO1 SLP089 T02440167,K2WX,2023-06-02T16:56:00Z,45.6,-103.55,24.4,16.7,140,15,,,29.84941,1008.9,,TRUE,TRUE,,,,,,,,,,,,,,,,,,,,,,,,,,,METAR,925.0
K1M4 021656Z AUTO VRB05KT 10SM SCT044 BKN060 29/18 A2999 RMK AO2 SLP138 T02890183,K1M4,2023-06-02T16:56:00Z,34.28,-87.6,28.9,18.3,0,5,,10.0,29.991142,1013.8,,TRUE,TRUE,,,,,,,SCT,4400,BKN,6000,,,,,VFR,,,,,,,,,,,,METAR,283.0
TNCE 021655Z AUTO 12008KT 060V190 //// // ///////// 31/24 Q1013 RE//,TNCE,2023-06-02T16:55:00Z,17.48,-62.97,31.0,24.0,120,8,,,29.911417,,,TRUE,,,,,,,,,,,,,,,,,,,,,,,,,,,,METAR,38.0
TNCB 021655Z 11015KT 080V140 9999 FEW016 32/25 Q1010,TNCB,2023-06-02T16:55:00Z,12.13,-68.28,32.0,25.0,110,15,,6.21,29.822834,,,,,,,,,,,FEW,1600,,,,,,,VFR,,,,,,,,,,,,METAR,6.0
RODN 021655Z COR AUTO 29004KT 10SM FEW013 SCT019 BKN024 24/21 A2968 RMK AO2 SLPNO FZRANO $ COR 1713,RODN,2023-06-02T16:55:00Z,26.35,127.77,24.0,21.0,290,4,,10.0,29.681103,,TRUE,TRUE,TRUE,TRUE,,,TRUE,,,FEW,1300,SCT,1900,BKN,2400,,,MVFR,,,,,,,,,,,,METAR,38.0
RKSO 021655Z 00000KT 5SM BR CLR 17/16 A2973 RMK AO2A SLP066 WND DATA ESTMD ALTSG/SLP ESTMD T01650163 $,RKSO,2023-06-02T16:55:00Z,37.08,127.02,16.5,16.3,0,0,,5.0,29.731298,1006.6,,,TRUE,TRUE,,,,,BR,CLR,,,,,,,,MVFR,,,,,,,,,,,,METAR,10.0
RKSG 021655Z 00000KT 10SM CLR 17/17 A2970 RMK AO2A SLP060 T01700168 $,RKSG,2023-06-02T16:55:00Z,36.97,127.02,17.0,16.8,0,0,,10.0,29.698818,1006.0,,,TRUE,TRUE,,,,,,CLR,,,,,,,,VFR,,,,,,,,,,,,METAR,12.0
RKJK 021655Z AUTO 00000KT 5SM BR CLR 16/16 A2970 RMK AO2 SLP061 T01580156 $,RKJK,2023-06-02T16:55:00Z,35.9,126.62,15.8,15.6,0,0,,5.0,29.698818,1006.1,,TRUE,TRUE,TRUE,,,,,BR,CLR,,,,,,,,MVFR,,,,,,,,,,,,METAR,8.0
PHSF 021655Z AUTO 00000KT 10SM CLR 12/10 A3041 RMK AO2 SLP194 T01200102 $,PHSF,2023-06-02T16:55:00Z,19.77,-155.55,12.0,10.2,0,0,,10.0,30.410433,1019.4,,TRUE,TRUE,TRUE,,,,,,CLR,,,,,,,,VFR,,,,,,,,,,,,METAR,1863.0
PALJ 021655Z 00000KT 10SM BKN020 OVC040 04/04 A2993 RMK EST PASS OPN NOSPECI,PALJ,2023-06-02T16:55:00Z,60.2,-154.3,4.0,4.0,0,0,,10.0,29.929134,,,,,,,,,,,BKN,2000,OVC,4000,,,,,MVFR,,,,,,,,,,,,SPECI,88.0
PAIM 021655Z AUTO 26010KT 200V290 10SM BKN016 M04/M06 A2978 RMK AO2 SLP104 P0000 T10361061,PAIM,2023-06-02T16:55:00Z,66.0,-153.7,-3.6,-6.1,260,10,,10.0,29.778543,1010.4,,TRUE,TRUE,,,,,,,BKN,1600,,,,,,,MVFR,,,,,,0.005,,,,,,METAR,309.0
PAEI 021655Z 21004KT 10SM -RA BKN011 OVC020 04/02 A2982 RMK AO2A SLP105 P0001 T00390024 $,PAEI,2023-06-02T16:55:00Z,64.67,-147.1,3.9,2.4,210,4,,10.0,29.819881,1010.5,,,TRUE,TRUE,,,,,-RA,BKN,1100,OVC,2000,,,,,MVFR,,,,,,0.01,,,,,,METAR,166.0
PAED 021655Z 18007KT 10SM -RA BKN037 OVC050 09/02 A2989 RMK AO2A SLP118 P0000 T00910022,PAED,2023-06-02T16:55:00Z,61.25,-149.83,9.1,2.2,180,7,,10.0,29.890747,1011.8,,,TRUE,,,,,,-RA,BKN,3700,OVC,5000,,,,,VFR,,,,,,0.005,,,,,,METAR,54.0
OTBH 021655Z 33011KT 9999 SCT200 33/08 A2970 Q1006 RMK AO2A SLP058 T03290077 FZRANO $,OTBH,2023-06-02T16:55:00Z,25.12,51.32,32.9,7.7,330,11,,6.21,29.704725,1005.8,,,TRUE,TRUE,,,TRUE,,,SCT,20000,,,,,,,VFR,,,,,,,,,,,,SPECI,40.0
OKAS 021655Z 33015KT 9999 CLR 37/04 A2978 RMK AO2A SLP079 T03650036 FZRANO $,OKAS,2023-06-02T16:55:00Z,29.35,47.52,36.5,3.6,330,15,,6.21,29.778543,1007.9,,,TRUE,TRUE,,,TRUE,,,CLR,,,,,,,,VFR,,,,,,,,,,,,METAR,144.0
OEPS 021655Z 01012KT 9999 CLR 37/05 A2993 RMK AO2A SLP112 WND DATA ESTMD T03660045,OEPS,2023-06-02T16:55:00Z,24.07,47.58,36.6,4.5,10,12,,6.21,29.929134,1011.2,,,TRUE,,,,,,,CLR,,,,,,,,VFR,,,,,,,,,,,,SPECI,503.0
MMAS 021655Z 14003KT 9SM SKC 26/M03 A3018 RMK HZY,MMAS,2023-06-02T16:55:00Z,21.7,-102.32,26.0,-3.0,140,3,,9.0,30.180119,,,,,,,,,,,SKC,,,,,,,,VFR,,,,,,,,,,,,METAR,1866.0
LIVT 021655Z AUTO VRB02KT //// 23/16 Q1012,LIVT,2023-06-02T16:55:00Z,45.68,13.75,23.0,16.0,0,2,,,29.88189,,,TRUE,,,,,,,,,,,,,,,,,,,,,,,,,,,,SPECI,20.0
LIVR 021655Z 03008KT 9999 FEW020TCU BKN025 10/03 Q1019 RERA RMK BKN MON CLD SCT VIS MIN 9999,LIVR,2023-06-02T16:55:00Z,46.28,11.78,10.0,3.0,30,8,,6.21,30.088583,,,,,,,,,,,FEW,2000,BKN,2500,,,,,MVFR,,,,,,,,,,,,SPECI,1997.0
LIVP 021655Z 19007KT 9999 SCT010 14/07 Q1020,LIVP,2023-06-02T16:55:00Z,46.15,11.03,14.0,7.0,190,7,,6.21,30.11811,,,,,,,,,,,SCT,1000,,,,,,,VFR,,,,,,,,,,,,METAR,2099.0
LIVM 021655Z AUTO /////KT //// 27/// Q////,LIVM,2023-06-02T16:55:00Z,44.45,12.3,,,,,,,,,,TRUE,,,,,,,,,,,,,,,,,,,,,,,,,,,,SPECI,6.0
LIVF 021655Z 00000KT 9999 FEW035TCU 20/14 Q1013,LIVF,2023-06-02T16:55:00Z,43.52,12.72,20.0,14.0,0,0,,6.21,29.911417,,,,,,,,,,,FEW,3500,,,,,,,VFR,,,,,,,,,,,,METAR,549.0
LIVE 021655Z 08004KT 9999 SCT020 19/03 Q0956 RMK SCT VIS MIN 9999,LIVE,2023-06-02T16:55:00Z,46.82,10.5,19.0,3.0,80,4,,6.21,28.228346,,,,,,,,,,,SCT,2000,,,,,,,VFR,,,,,,,,,,,,SPECI,1684.0
LIVD 021655Z AUTO 19003KT //// 18/07 Q1017,LIVD,2023-06-02T16:55:00Z,46.72,12.22,18.0,7.0,190,3,,,30.029528,,,TRUE,,,,,,,,,,,,,,,,,,,,,,,,,,,,SPECI,1221.0
LIVC 021655Z AUTO 20009KT //// 07/02 Q1020,LIVC,2023-06-02T16:55:00Z,44.2,10.68,7.0,2.0,200,9,,,30.11811,,,TRUE,,,,,,,,,,,,,,,,,,,,,,,,,,,,SPECI,2139.0
LIRX 021655Z 01003KT CAVOK 23/19 Q1013 RMK SCT SCT200 VIS MIN 9999 VIS MAR 15 KM,LIRX,2023-06-02T16:55:00Z,42.73,10.38,23.0,19.0,10,3,,6.21,29.911417,,,,,,,,,,,CAVOK,,,,,,,,VFR,,,,,,,,,,,,SPECI,397.0
LIRV 021655Z 24002KT 9999 FEW035 21/17 Q1013 RMK BKN BKN060 MON E SE LIB NC VIS MIN 9999 WIND THR04 24005KT BLU,LIRV,2023-06-02T16:55:00Z,42.42,12.07,21.0,17.0,240,2,,6.21,29.911417,,,,,,,,,,,FEW,3500,,,,,,,VFR,,,,,,,,,,,,SPECI,294.0
LIRT 021655Z 29010KT 9999 SCT003 SCT010 14/11 Q1015,LIRT,2023-06-02T16:55:00Z,41.03,15.22,14.0,11.0,290,10,,6.21,29.970472,,,,,,,,,,,SCT,300,SCT,1000,,,,,VFR,,,,,,,,,,,,METAR,1058.0
LIRS 021655Z 23009KT 9999 FEW025 FEW026CB FEW030TCU 24/21 Q1012 RMK SCT SCT200 VIS MIN 9999 WIND THR03 24009KT WIND THR21 23009KT BLU,LIRS,2023-06-02T16:55:00Z,42.75,11.07,24.0,21.0,230,9,,6.21,29.88189,,,,,,,,,,,FEW,2500,FEW,2600,FEW,3000,,,VFR,,,,,,,,,,,,SPECI,3.0
LIRM 021655Z 22006KT 9999 FEW025CB SCT070 22/19 Q1012 RMK BKN VIS MIN 9999 WIND THR06 25005KT BLU,LIRM,2023-06-02T16:55:00Z,41.05,14.07,22.0,19.0,220,6,,6.21,29.88189,,,,,,,,,,,FEW,2500,SCT,7000,,,,,VFR,,,,,,,,,,,,METAR,6.0
LIRK 021655Z AUTO /////KT //// ///// Q////,LIRK,2023-06-02T16:55:00Z,42.47,12.97,,,,,,,,,,TRUE,,,,,,,,,,,,,,,,,,,,,,,,,,,,SPECI,1721.0
LIRE 021655Z 29010KT CAVOK 23/20 Q1012 RMK SKC VIS MIN 9999 WIND THR13 31008KT WIND THR31 /////KT BLU,LIRE,2023-06-02T16:55:00Z,41.65,12.43,23.0,20.0,290,10,,6.21,29.88189,,,,,,,,,,,CAVOK,,,,,,,,VFR,,,,,,,,,,,,SPECI,16.0
LIQC 021655Z 00000KT 9999 SCT020 23/17 Q1014 RMK SCT QUK 1 QUL 0 VIS MAR 20 KM VIS MIN 9999,LIQC,2023-06-02T16:55:00Z,40.55,14.2,23.0,17.0,0,0,,6.21,29.940945,,,,,,,,,,,SCT,2000,,,,,,,VFR,,,,,,,,,,,,METAR,154.0
LIPS 021655Z 15004KT 9999 FEW025TCU SCT030 29/15 Q1011 RMK BKN VIS MIN 9999 WIND THR26 15004KT WIND THR08 16004KT BLU,LIPS,2023-06-02T16:55:00Z,45.68,12.1,29.0,15.0,150,4,,6.21,29.852362,,,,,,,,,,,FEW,2500,SCT,3000,,,,,VFR,,,,,,,,,,,,METAR,42.0
LIPL 021655Z 15004KT 9999 FEW040TCU 26/19 Q1010 RMK SCT SCT200 VIS MIN 9999 WIND THR31 /////KT WIND THR13 15004KT BLU,LIPL,2023-06-02T16:55:00Z,45.42,10.27,26.0,19.0,150,4,,6.21,29.822834,,,,,,,,,,,FEW,4000,,,,,,,VFR,,,,,,,,,,,,METAR,96.0
LIPI 021655Z 34007KT 9999 -TSRA SCT035CB SCT050 20/16 Q1011 RERA RMK BKN VIS MIN 5000NW WIND THR06 36007KT WIND THR24 34003KT WHT,LIPI,2023-06-02T16:55:00Z,45.97,13.05,20.0,16.0,340,7,,6.21,29.852362,,,,,,,,,,-TSRA,SCT,3500,SCT,5000,,,,,VFR,,,,,,,,,,,,METAR,49.0
LIPC 021655Z 12005KT CAVOK 25/16 Q1012 RMK SCT FEW150 SCT200 VIS MIN 9999 WIND THR11 13006KT WIND THR29 12005KT BLU,LIPC,2023-06-02T16:55:00Z,44.22,12.3,25.0,16.0,120,5,,6.21,29.88189,,,,,,,,,,,CAVOK,,,,,,,,VFR,,,,,,,,,,,,METAR,10.0
LIMU 021655Z VRB03KT 9999 FEW035TCU 21/17 Q1013 RMK FEW QUK 2 QUL 1 S VIS MAR 30 KM VIS MIN 9999,LIMU,2023-06-02T16:55:00Z,43.95,8.17,21.0,17.0,0,3,,6.21,29.911417,,,,,,,,,,,FEW,3500,,,,,,,VFR,,,,,,,,,,,,METAR,215.0
LIMS 021655Z 27008KT CAVOK 24/18 Q1010 RMK BKN BKN100 VIS MIN 9999 WIND THR30 24005KT BLU,LIMS,2023-06-02T16:55:00Z,44.92,9.72,24.0,18.0,270,8,,6.21,29.822834,,,,,,,,,,,CAVOK,,,,,,,,VFR,,,,,,,,,,,,METAR,132.0
LIMK 021655Z 19006KT 9999 SCT020CB FEW030TCU 18/17 Q1013,LIMK,2023-06-02T16:55:00Z,45.02,7.72,18.0,17.0,190,6,,6.21,29.911417,,,,,,,,,,,SCT,2000,FEW,3000,,,,,VFR,,,,,,,,,,,,METAR,693.0
LIED 021655Z 16007KT 9999 FEW020 FEW023CB 23/17 Q1011 RMK BKN SCT200 VIS MIN 9999 WIND THR35 /////KT WIND THR17 16005KT BLU,LIED,2023-06-02T16:55:00Z,39.35,8.97,23.0,17.0,160,7,,6.21,29.852362,,,,,,,,,,,FEW,2000,FEW,2300,,,,,VFR,,,,,,,,,,,,SPECI,26.0
LIEB 021655Z 18008KT 9999 SCT025 FEW040CB 20/17 Q1013 RETS RMK BKN QUK 2 QUL 0 VIS MAR 12 KM MON INVIS VIS MIN 9999,LIEB,2023-06-02T16:55:00Z,39.93,9.72,20.0,17.0,180,8,,6.21,29.911417,,,,,,,,,,,SCT,2500,FEW,4000,,,,,VFR,,,,,,,,,,,,SPECI,126.0
LICZ 021655Z 30008KT 9999 -RA FEW020CB SCT030 BKN060 18/18 Q1012 RETS RMK BKN VIS MIN 6000N WIND THR28 30009KT WIND THR10 32008KT A2990 WHT,LICZ,2023-06-02T16:55:00Z,37.4,14.92,18.0,18.0,300,8,,6.21,29.88189,,,,,,,,,,-RA,FEW,2000,SCT,3000,BKN,6000,,,VFR,,,,,,,,,,,,METAR,22.0
LICT 021655Z 33007KT 9999 SCT020TCU 23/21 Q1013 RMK BKN BKN160 VIS MIN 9999 WIND THR13 35007KT BLU,LICT,2023-06-02T16:55:00Z,37.92,12.5,23.0,21.0,330,7,,6.21,29.911417,,,,,,,,,,,SCT,2000,,,,,,,VFR,,,,,,,,,,,,METAR,4.0
LICF 021655Z 24003KT 9999 FEW030CB 24/18 Q1012 RMK BKN SCT080 QUK 2 QUL 0 VIS MAR 20 KM MON E CLD SCT NC MON W LIB VAR RAPID VIS MIN 9999,LICF,2023-06-02T16:55:00Z,38.2,15.55,24.0,18.0,240,3,,6.21,29.88189,,,,,,,,,,,FEW,3000,,,,,,,VFR,,,,,,,,,,,,SPECI,66.0
LIBY 021655Z 29007KT 9999 SCT025 21/17 Q1011 RMK BKN SCT080 QUK 2 QUL 1 W VIS MAR 10 KM VIS MIN 9999,LIBY,2023-06-02T16:55:00Z,39.82,18.35,21.0,17.0,290,7,,6.21,29.852362,,,,,,,,,,,SCT,2500,,,,,,,VFR,,,,,,,,,,,,SPECI,105.0
LIBV 021655Z 26003KT 9999 FEW040 19/14 Q1012 RMK BKN SCT100 BKN220 VIS MIN 9999 WIND THR32 28006KT WIND THR14 /////KT BLU,LIBV,2023-06-02T16:55:00Z,40.77,16.93,19.0,14.0,260,3,,6.21,29.88189,,,,,,,,,,,FEW,4000,,,,,,,VFR,,,,,,,,,,,,SPECI,344.0
LIBQ 021655Z AUTO /////KT //// 12/05 Q1018,LIBQ,2023-06-02T16:55:00Z,39.32,16.38,12.0,5.0,,,,,30.059055,,,TRUE,,,,,,,,,,,,,,,,,,,,,,,,,,,,SPECI,1660.0
LIBN 021655Z 25005KT 9999 FEW040 23/19 Q1012 RETS RMK BKN SCT080 BKN180 VIS MIN 9999 WIND THR14 23004KT WIND THR32 24005KT BLU,LIBN,2023-06-02T16:55:00Z,40.23,18.13,23.0,19.0,250,5,,6.21,29.88189,,,,,,,,,,,FEW,4000,,,,,,,VFR,,,,,,,,,,,,SPECI,46.0
LIBA 021655Z 10010KT 9999 FEW040 FEW045CB 24/15 Q1012 RMK SCT SCT110 VIS MIN 9999 WIND THR11 10010KT WIND THR29 /////KT BLU,LIBA,2023-06-02T16:55:00Z,41.53,15.72,24.0,15.0,100,10,,6.21,29.88189,,,,,,,,,,,FEW,4000,FEW,4500,,,,,VFR,,1.0,,,,,,,,,,SPECI,55.0
KXNO 021655Z AUTO 02012KT 10SM FEW032 BKN039 BKN130 BKN220 25/25 A2989 RMK AO2 SLP122 T02540254 $,KXNO,2023-06-02T16:55:00Z,33.62,-81.07,25.4,25.4,20,12,,10.0,29.890747,1012.2,,TRUE,TRUE,TRUE,,,,,,FEW,3200,BKN,3900,BKN,13000,BKN,22000,VFR,,,,,,,,,,,,METAR,94.0
KXIF 021655Z AUTO 06003KT 10SM CLR 30/09 A2997 RMK AO2 SLP146 T03030092 $,KXIF,2023-06-02T16:55:00Z,,,30.3,9.2,60,3,,10.0,29.970472,1014.6,,TRUE,TRUE,TRUE,,,,,,CLR,,,,,,,,VFR,,,,,,,,,,,,METAR,
KWRI 021655Z AUTO 00000KT 10SM CLR 32/15 A2989 RMK AO2 SLP121 T03210147,KWRI,2023-06-02T16:55:00Z,40.02,-74.58,32.1,14.7,0,0,,10.0,29.890747,1012.1,,TRUE,TRUE,,,,,,,CLR,,,,,,,,VFR,,,,,,,,,,,,SPECI,35.0
KWRB 021655Z AUTO 01006KT 10SM SCT039 27/19 A2989 RMK AO2 SLP122 T02720185,KWRB,2023-06-02T16:55:00Z,32.63,-83.58,27.2,18.5,10,6,,10.0,29.890747,1012.2,,TRUE,TRUE,,,,,,,SCT,3900,,,,,,,VFR,,,,,,,,,,,,METAR,82.0
KWDG 021655Z 17010G17KT 10SM SCT038 29/20 A2995,KWDG,2023-06-02T16:55:00Z,36.37,-97.78,29.0,20.0,170,10,17,10.0,29.949802,,,,,,,,,,,SCT,3800,,,,,,,VFR,,,,,,,,,,,,METAR,352.0
KVOK 021655Z 10004KT 10SM FEW050 FEW140 SCT170 30/17 A3007 RMK AO2A SLP181 T02950166,KVOK,2023-06-02T16:55:00Z,43.93,-90.27,29.5,16.6,100,4,,10.0,30.070866,1018.1,,,TRUE,,,,,,,FEW,5000,FEW,14000,SCT,17000,,,VFR,,,,,,,,,,,,SPECI,278.0
KVAD 021655Z AUTO 06006KT 10SM SCT040 SCT140 BKN170 28/17 A2985 RMK AO2 SLP109 T02750173 $,KVAD,2023-06-02T16:55:00Z,30.97,-83.2,27.5,17.3,60,6,,10.0,29.84941,1010.9,,TRUE,TRUE,TRUE,,,,,,SCT,4000,SCT,14000,BKN,17000,,,VFR,,,,,,,,,,,,METAR,70.0
KTIK 021655Z AUTO 20009KT 10SM FEW039 28/19 A2994 RMK AO2 SLP133 T02840187 $,KTIK,2023-06-02T16:55:00Z,35.4,-97.38,28.4,18.7,200,9,,10.0,29.940945,1013.3,,TRUE,TRUE,TRUE,,,,,,FEW,3900,,,,,,,VFR,,,,,,,,,,,,METAR,387.0
KTFP 021655Z AUTO 15011G15KT 2 1/2SM SCT028 31/22 A2990 RMK AO2 T03050219,KTFP,2023-06-02T16:55:00Z,27.92,-97.22,30.5,21.9,150,11,15,2.5,29.899607,,,TRUE,TRUE,,,,,,,SCT,2800,,,,,,,IFR,,,,,,,,,,,,SPECI,5.0
KTDR 021655Z AUTO 05014KT 10SM CLR 30/17 A2980 RMK AO2 SLP095 T02970165 $,KTDR,2023-06-02T16:55:00Z,30.05,-85.52,29.7,16.5,50,14,,10.0,29.799213,1009.5,,TRUE,TRUE,TRUE,,,,,,CLR,,,,,,,,VFR,,,,,,,,,,,,METAR,4.0
KTCM 021655Z AUTO 00000KT 10SM CLR 14/08 A3012 RMK AO2 SLP203 T01410076 $,KTCM,2023-06-02T16:55:00Z,47.13,-122.47,14.1,7.6,0,0,,10.0,30.121063,1020.3,,TRUE,TRUE,TRUE,,,,,,CLR,,,,,,,,VFR,,,,,,,,,,,,METAR,87.0
KTBN 021655Z AUTO 12005KT 10SM CLR 29/17 A3001 RMK AO2 SLP154 T02910169,KTBN,2023-06-02T16:55:00Z,37.73,-92.13,29.1,16.9,120,5,,10.0,30.008858,1015.4,,TRUE,TRUE,,,,,,,CLR,,,,,,,,VFR,,,,,,,,,,,,METAR,349.0
KSZL 021655Z 16006KT 10SM BKN060 29/18 A3000 RMK AO2A SLP154 T02920180 $,KSZL,2023-06-02T16:55:00Z,38.73,-93.53,29.2,18.0,160,6,,10.0,30.0,1015.4,,,TRUE,TRUE,,,,,,BKN,6000,,,,,,,VFR,,,,,,,,,,,,METAR,259.0
KSVN 021655Z AUTO 05006KT 10SM FEW034 FEW049 BKN065 BKN120 26/16 A2983 RMK AO2 SLP104 T02610155 $,KSVN,2023-06-02T16:55:00Z,32.02,-81.12,26.1,15.5,50,6,,10.0,29.828741,1010.4,,TRUE,TRUE,TRUE,,,,,,FEW,3400,FEW,4900,BKN,6500,BKN,12000,VFR,,,,,,,,,,,,METAR,13.0
KSUU 021655Z AUTO 25012KT 10SM CLR 18/09 A2995 RMK AO2 SLP148 T01810094 $,KSUU,2023-06-02T16:55:00Z,38.27,-121.93,18.1,9.4,250,12,,10.0,29.949802,1014.8,,TRUE,TRUE,TRUE,,,,,,CLR,,,,,,,,VFR,,,,,,,,,,,,METAR,9.0
KSSC 021655Z 03009KT 10SM BKN025 OVC250 24/18 A2989 RMK AO2A SLP121 T02410176,KSSC,2023-06-02T16:55:00Z,33.97,-80.47,24.1,17.6,30,9,,10.0,29.890747,1012.1,,,TRUE,,,,,,,BKN,2500,OVC,25000,,,,,MVFR,,,,,,,,,,,,METAR,71.0
KSLI 021655Z 00000KT 10SM FEW028 OVC041 19/12 A2996 RMK AO2A SLP148 T01890122,KSLI,2023-06-02T16:55:00Z,33.78,-118.03,18.9,12.2,0,0,,10.0,29.958662,1014.8,,,TRUE,,,,,,,FEW,2800,OVC,4100,,,,,VFR,,,,,,,,,,,,METAR,8.0
KSKA 021655Z AUTO 27005KT 10SM CLR 20/04 A3001 RMK AO2 SLP151 T02040036 $,KSKA,2023-06-02T16:55:00Z,47.62,-117.67,20.4,3.6,270,5,,10.0,30.008858,1015.1,,TRUE,TRUE,TRUE,,,,,,CLR,,,,,,,,VFR,,,,,,,,,,,,METAR,754.0
KSHM 021655Z AUTO 17006KT 10SM CLR 18/04 A2998 RMK AO2 SLP096 T01760035 $,KSHM,2023-06-02T16:55:00Z,38.8,-104.52,17.6,3.5,170,6,,10.0,29.97933,1009.6,,TRUE,TRUE,TRUE,,,,,,CLR,,,,,,,,VFR,,,,,,,,,,,,METAR,1900.0
KSEQ 021655Z AUTO 16008KT 10SM BKN035 29/20 A2991 RMK AO2 SLP124 T02850197,KSEQ,2023-06-02T16:55:00Z,29.57,-97.9,28.5,19.7,160,8,,10.0,29.911417,1012.4,,TRUE,TRUE,,,,,,,BKN,3500,,,,,,,VFR,,,,,,,,,,,,METAR,160.0
KSCK 021655Z VRB04KT 10SM CLR 21/09 A2996 RMK AO2 SLP145 T02110094,KSCK,2023-06-02T16:55:00Z,37.88,-121.22,21.1,9.4,0,4,,10.0,29.958662,1014.5,,,TRUE,,,,,,,CLR,,,,,,,,VFR,,,,,,,,,,,,METAR,8.0
KRYM 021655Z AUTO 15012KT 10SM BKN160 28/19 A3003 RMK AO2 SLP166 T02800187 $,KRYM,2023-06-02T16:55:00Z,46.08,-94.37,28.0,18.7,150,12,,10.0,30.029528,1016.6,,TRUE,TRUE,TRUE,,,,,,BKN,16000,,,,,,,VFR,,,,,,,,,,,,METAR,344.0
KRNO 021655Z VRB03KT 10SM FEW070 18/03 A3007 RMK AO2 SLP143 T01830028,KRNO,2023-06-02T16:55:00Z,39.5,-119.77,18.3,2.8,0,3,,10.0,30.070866,1014.3,,,TRUE,,,,,,,FEW,7000,,,,,,,VFR,,,,,,,,,,,,METAR,1344.0
KRIV 021655Z 32003KT 10SM OVC021 16/11 A2999 RMK AO2A SLP149 T01610108 $,KRIV,2023-06-02T16:55:00Z,33.87,-117.23,16.1,10.8,320,3,,10.0,29.991142,1014.9,,,TRUE,TRUE,,,,,,OVC,2100,,,,,,,MVFR,,,,,,,,,,,,METAR,454.0
KRDR 021655Z 11006KT 6SM HZ FU SCT000 BKN200 28/20 A2995 RMK AO2A HZ SCT000 SLP143 T02750198 $,KRDR,2023-06-02T16:55:00Z,47.93,-97.4,27.5,19.8,110,6,,6.0,29.949802,1014.3,,,TRUE,TRUE,,,,,HZ FU,SCT,0,BKN,20000,,,,,VFR,,,,,,,,,,,,METAR,276.0
KRCA 021655Z AUTO 17010KT 10SM FEW018 21/16 A2988 RMK AO2 SLP103 T02130156 $,KRCA,2023-06-02T16:55:00Z,44.15,-103.12,21.3,15.6,170,10,,10.0,29.878937,1010.3,,TRUE,TRUE,TRUE,,,,,,FEW,1800,,,,,,,VFR,,,,,,,,,,,,SPECI,993.0
KQVF 021655Z AUTO 00000KT 9999 CLR 25/24 A2997 RMK AO2 SLP151 WND DATA ESTMD T02470237,KQVF,2023-06-02T16:55:00Z,,,24.7,23.7,0,0,,6.21,29.970472,1015.1,,TRUE,TRUE,,,,,,,CLR,,,,,,,,VFR,,,,,,,,,,,,METAR,
KQTZ 021655Z 02007KT 9999 FEW250 34/07 A2985 RMK SLP114,KQTZ,2023-06-02T16:55:00Z,,,34.0,7.0,20,7,,6.21,29.84941,1011.4,,,,,,,,,,FEW,25000,,,,,,,VFR,,,,,,,,,,,,METAR,
KQRH 021655Z AUTO VRB05KT 9999 CLR 32/27 A2975 RMK AO2 LTG DSNT S SLP077 WND DATA ESTMD T03180269,KQRH,2023-06-02T16:55:00Z,,,31.8,26.9,0,5,,6.21,29.749016,1007.7,,TRUE,TRUE,,,,,,,CLR,,,,,,,,VFR,,,,,,,,,,,,METAR,
KQN3 021655Z VRB02KT 9999 FEW120 SCT300 40/16 A2974 RMK AO2A SLP053 T03980163,KQN3,2023-06-02T16:55:00Z,,,39.8,16.3,0,2,,6.21,29.740158,1005.3,,,TRUE,,,,,,,FEW,12000,SCT,30000,,,,,VFR,,,,,,,,,,,,METAR,
KQHY 021655Z AUTO 08004KT 10SM FEW055 30/16 A2986 RMK AO2 SLP118 T03010157,KQHY,2023-06-02T16:55:00Z,,,30.1,15.7,80,4,,10.0,29.861221,1011.8,,TRUE,TRUE,,,,,,,FEW,5500,,,,,,,VFR,,,,,,,,,,,,METAR,
KQD3 021655Z AUTO 08006KT 9999 FEW017 32/27 A2980 RMK AO2 LTG DSNT S SLP076 WND DATA ESTMD T03160271,KQD3,2023-06-02T16:55:00Z,,,31.6,27.1,80,6,,6.21,29.799213,1007.6,,TRUE,TRUE,,,,,,,FEW,1700,,,,,,,VFR,,,,,,,,,,,,METAR,
KQBL 021655Z AUTO VRB03KT 10SM FEW055 31/16 A2988 RMK AO2 SLP116 WND DATA ESTMD T03050160,KQBL,2023-06-02T16:55:00Z,,,30.5,16.0,0,3,,10.0,29.878937,1011.6,,TRUE,TRUE,,,,,,,FEW,5500,,,,,,,VFR,,,,,,,,,,,,METAR,
KQAZ 021655Z AUTO 26008G15KT 9999 CLR 42/10 A2972 RMK AO2 SLP055 WND DATA ESTMD T04150098,KQAZ,2023-06-02T16:55:00Z,,,41.5,9.8,260,8,15,6.21,29.719488,1005.5,,TRUE,TRUE,,,,,,,CLR,,,,,,,,VFR,,,,,,,,,,,,METAR,
KPSM 021655Z 11007KT 10SM FEW050 BKN200 29/16 A2987 RMK AO2A SLP117 T02910159,KPSM,2023-06-02T16:55:00Z,43.08,-70.82,29.1,15.9,110,7,,10.0,29.870079,1011.7,,,TRUE,,,,,,,FEW,5000,BKN,20000,,,,,VFR,,,,,,,,,,,,METAR,34.0
KPOE 021655Z AUTO 07003KT 10SM SCT044 BKN060 BKN090 30/19 A2992 RMK AO2 SLP131 T03020189,KPOE,2023-06-02T16:55:00Z,31.05,-93.2,30.2,18.9,70,3,,10.0,29.920275,1013.1,,TRUE,TRUE,,,,,,,SCT,4400,BKN,6000,BKN,9000,,,VFR,,,,,,,,,,,,METAR,98.0
KPAM 021655Z 08009KT 10SM FEW100 SCT200 28/16 A2984 RMK AO2A SLP108 T02830155 $,KPAM,2023-06-02T16:55:00Z,30.07,-85.57,28.3,15.5,80,9,,10.0,29.840551,1010.8,,,TRUE,TRUE,,,,,,FEW,10000,SCT,20000,,,,,VFR,,,,,,,,,,,,METAR,4.0
KP58 021655Z AUTO 00000KT 20/14 A3012 RMK AO1 SLP195 T02000139,KP58,2023-06-02T16:55:00Z,44.02,-82.8,20.0,13.9,0,0,,,30.121063,1019.5,,TRUE,TRUE,,,,,,,,,,,,,,,,,,,,,,,,,,,METAR,180.0
KOZR 021655Z AUTO 06012KT 10SM FEW160 29/16 A2987 RMK AO2 SLP115 T02850161 $,KOZR,2023-06-02T16:55:00Z,31.28,-85.72,28.5,16.1,60,12,,10.0,29.870079,1011.5,,TRUE,TRUE,TRUE,,,,,,FEW,16000,,,,,,,VFR,,,,,,,,,,,,METAR,90.0
KOFF 021655Z 12008KT 10SM FEW044 29/18 A3002 RMK AO2A SLP162 T02930184 $,KOFF,2023-06-02T16:55:00Z,41.12,-95.92,29.3,18.4,120,8,,10.0,30.02067,1016.2,,,TRUE,TRUE,,,,,,FEW,4400,,,,,,,VFR,,,,,,,,,,,,SPECI,308.0
KNTD 021655Z 00000KT 5SM HZ FEW021 OVC035 18/13 A3000 RMK AO2 SLP159 T01780133 VISNO S $,KNTD,2023-06-02T16:55:00Z,34.12,-119.12,17.8,13.3,0,0,,5.0,30.0,1015.9,,,TRUE,TRUE,,,,,HZ,FEW,2100,OVC,3500,,,,,MVFR,,,,,,,,,,,,METAR,1.0
KNKX 021655Z 32007KT 10SM FEW014 OVC029 17/12 A2999 RMK AO2 SLP150 T01720122,KNKX,2023-06-02T16:55:00Z,32.87,-117.13,17.2,12.2,320,7,,10.0,29.991142,1015.0,,,TRUE,,,,,,,FEW,1400,OVC,2900,,,,,MVFR,,,,,,,,,,,,METAR,138.0
KNBG 021655Z 06011KT 10SM FEW030 FEW250 30/18 A2991 RMK AO2 SLP127 T03000178 $,KNBG,2023-06-02T16:55:00Z,29.83,-90.02,30.0,17.8,60,11,,10.0,29.911417,1012.7,,,TRUE,TRUE,,,,,,FEW,3000,FEW,25000,,,,,VFR,,,,,,,,,,,,SPECI,0.0
KMXF 021655Z AUTO 01008KT 10SM SCT047 29/14 A2989 RMK AO2 SLP123 T02880142,KMXF,2023-06-02T16:55:00Z,32.38,-86.37,28.8,14.2,10,8,,10.0,29.890747,1012.3,,TRUE,TRUE,,,,,,,SCT,4700,,,,,,,VFR,,,,,,,,,,,,METAR,47.0
KMUO 021655Z AUTO 30017G22KT 10SM CLR 21/04 A2995 RMK AO2 SLP123 T02120043 $,KMUO,2023-06-02T16:55:00Z,43.03,-115.87,21.2,4.3,300,17,22,10.0,29.949802,1012.3,,TRUE,TRUE,TRUE,,,,,,CLR,,,,,,,,VFR,,,,,,,,,,,,METAR,915.0
KMUI 021655Z 05005KT 10SM SCT075 33/08 A2992 RMK AO2A SLP131 T03300077,KMUI,2023-06-02T16:55:00Z,40.43,-76.57,33.0,7.7,50,5,,10.0,29.920275,1013.1,,,TRUE,,,,,,,SCT,7500,,,,,,,VFR,,,,,,,,,,,,METAR,146.0
KMMT 021655Z AUTO 02006KT 10SM BKN043 26/18 A2988 RMK AO2 SLP119 T02560180 $,KMMT,2023-06-02T16:55:00Z,33.92,-80.8,25.6,18.0,20,6,,10.0,29.878937,1011.9,,TRUE,TRUE,TRUE,,,,,,BKN,4300,,,,,,,VFR,,,,,,,,,,,,SPECI,76.0
KMKG 021655Z VRB05KT 10SM FEW080 SCT100 BKN250 32/08 A3011 RMK AO2 SLP190 T03170078 $,KMKG,2023-06-02T16:55:00Z,43.17,-86.23,31.7,7.8,0,5,,10.0,30.109253,1019.0,,,TRUE,TRUE,,,,,,FEW,8000,SCT,10000,BKN,25000,,,VFR,,,,,,,,,,,,METAR,190.0
KMIB 021655Z 15007KT 10SM BKN120 27/18 A2991 RMK AO2A SLP125 T02710175 $,KMIB,2023-06-02T16:55:00Z,48.42,-101.35,27.1,17.5,150,7,,10.0,29.911417,1012.5,,,TRUE,TRUE,,,,,,BKN,12000,,,,,,,VFR,,,,,,,,,,,,METAR,505.0
KMGE 021655Z 09004KT 10SM SCT030 SCT160 27/15 A2993 RMK AO2A SLP127 T02730146 $,KMGE,2023-06-02T16:55:00Z,33.92,-84.52,27.3,14.6,90,4,,10.0,29.929134,1012.7,,,TRUE,TRUE,,,,,,SCT,3000,SCT,16000,,,,,VFR,,,,,,,,,,,,METAR,309.0
KMCF 021655Z AUTO 06007KT 10SM SCT032 BKN160 30/21 A2974 RMK AO2 SLP074 T02980214 FZRANO $,KMCF,2023-06-02T16:55:00Z,27.85,-82.52,29.8,21.4,60,7,,10.0,29.740158,1007.4,,TRUE,TRUE,TRUE,,,TRUE,,,SCT,3200,BKN,16000,,,,,VFR,,,,,,,,,,,,METAR,3.0
KLUF 021655Z AUTO 19010KT 10SM FEW190 28/02 A2989 RMK AO2 SLP108 T02770020 $,KLUF,2023-06-02T16:55:00Z,33.53,-112.37,27.7,2.0,190,10,,10.0,29.890747,1010.8,,TRUE,TRUE,TRUE,,,,,,FEW,19000,,,,,,,VFR,,,,,,,,,,,,METAR,333.0
KLSV 021655Z AUTO 00000KT 10SM CLR 30/05 A2985 RMK AO2 SLP084 T02990045 $,KLSV,2023-06-02T16:55:00Z,36.23,-115.05,29.9,4.5,0,0,,10.0,29.84941,1008.4,,TRUE,TRUE,TRUE,,,,,,CLR,,,,,,,,VFR,,,,,,,,,,,,METAR,563.0
KLSF 021655Z AUTO 06004KT 10SM FEW130 FEW190 29/17 A2988 RMK AO2 SLP121 T02880167 $,KLSF,2023-06-02T16:55:00Z,32.32,-84.97,28.8,16.7,60,4,,10.0,29.878937,1012.1,,TRUE,TRUE,TRUE,,,,,,FEW,13000,FEW,19000,,,,,VFR,,,,,,,,,,,,METAR,68.0
KLRF 021655Z AUTO 10009KT 10SM SCT050 SCT200 32/18 A2994 RMK AO2 SLP138 T03150181 $,KLRF,2023-06-02T16:55:00Z,34.92,-92.12,31.5,18.1,100,9,,10.0,29.940945,1013.8,,TRUE,TRUE,TRUE,,,,,,SCT,5000,SCT,20000,,,,,VFR,,,,,,,,,,,,METAR,85.0
KLLJ 021655Z AUTO 00000KT 10SM FEW120 15/08 A3002 RMK AO2 SLP129 T01500083,KLLJ,2023-06-02T16:55:00Z,44.52,-114.22,15.0,8.3,0,0,,10.0,30.02067,1012.9,,TRUE,TRUE,,,,,,,FEW,12000,,,,,,,VFR,,,,,,,,,,,,SPECI,1535.0
KLIC 021655Z AUTO 19011G22KT 10SM CLR 22/06 A2996 RMK AO2 SLP085 T02170056,KLIC,2023-06-02T16:55:00Z,39.27,-103.67,21.7,5.6,190,11,22,10.0,29.958662,1008.5,,TRUE,TRUE,,,,,,,CLR,,,,,,,,VFR,,,,,,,,,,,,METAR,1635.0
KLHW 021655Z 01006KT 10SM SCT038 BKN049 BKN060 27/18 A2983 RMK AO2A SLP104 T02650181 $,KLHW,2023-06-02T16:55:00Z,31.88,-81.57,26.5,18.1,10,6,,10.0,29.828741,1010.4,,,TRUE,TRUE,,,,,,SCT,3800,BKN,4900,BKN,6000,,,VFR,,,,,,,,,,,,METAR,14.0
KLGF 021655Z AUTO 21006KT M M CLR 27/09 A2988 RMK AO2 SLP115 T02700093 RVRNO PWINO TSNO $,KLGF,2023-06-02T16:55:00Z,32.87,-114.4,27.0,9.3,210,6,,,29.878937,1011.5,,TRUE,TRUE,TRUE,,TRUE,,TRUE,,CLR,,,,,,,,,,,,,,,,,,,,METAR,118.0
KLFI 021655Z 05007KT 10SM FEW200 24/21 A2993 RMK AO2A SLP142 T02430212 $,KLFI,2023-06-02T16:55:00Z,37.08,-76.33,24.3,21.2,50,7,,10.0,29.929134,1014.2,,,TRUE,TRUE,,,,,,FEW,20000,,,,,,,VFR,,,,,,,,,,,,METAR,2.0
KLCK 021655Z AUTO 08009G17KT 10SM CLR 32/10 A3001 RMK AO2 T03180101,KLCK,2023-06-02T16:55:00Z,39.82,-82.92,31.8,10.1,80,9,17,10.0,30.008858,,,TRUE,TRUE,,,,,,,CLR,,,,,,,,VFR,,,,,,,,,,,,SPECI,225.0
KJKA 021655Z 08007G14KT 10SM FEW049 30/18 A2987,KJKA,2023-06-02T16:55:00Z,30.28,-87.67,30.0,18.0,80,7,14,10.0,29.870079,,,,,,,,,,,FEW,4900,,,,,,,VFR,,,,,,,,,,,,METAR,5.0
KIRK 021655Z AUTO VRB05KT 10SM CLR 31/17 A3004 RMK AO2 SLP168 T03060172,KIRK,2023-06-02T16:55:00Z,40.1,-92.55,30.6,17.2,0,5,,10.0,30.041338,1016.8,,TRUE,TRUE,,,,,,,CLR,,,,,,,,VFR,,,,,,,,,,,,METAR,292.0
KINS 021655Z AUTO 06004KT 10SM CLR 26/03 A2993 RMK AO2 SLP089 T02610033 $,KINS,2023-06-02T16:55:00Z,36.58,-115.68,26.1,3.3,60,4,,10.0,29.929134,1008.9,,TRUE,TRUE,TRUE,,,,,,CLR,,,,,,,,VFR,,,,,,,,,,,,METAR,954.0
KIAB 021655Z AUTO 18012KT 10SM CLR 27/18 A2996 RMK AO2 SLP137 T02740184 $,KIAB,2023-06-02T16:55:00Z,37.62,-97.27,27.4,18.4,180,12,,10.0,29.958662,1013.7,,TRUE,TRUE,TRUE,,,,,,CLR,,,,,,,,VFR,,,,,,,,,,,,METAR,413.0
KHUA 021655Z AUTO 03007KT 10SM SCT048 30/18 A2994 RMK AO2 SLP133 T02960177,KHUA,2023-06-02T16:55:00Z,34.68,-86.68,29.6,17.7,30,7,,10.0,29.940945,1013.3,,TRUE,TRUE,,,,,,,SCT,4800,,,,,,,VFR,,,,,,,,,,,,METAR,200.0
KHST 021655Z AUTO 11004KT 10SM FEW170 FEW200 28/21 A2977 RMK AO2 LTG DSNT W TSE19 SLP084 T02820210,KHST,2023-06-02T16:55:00Z,25.48,-80.37,28.2,21.0,110,4,,10.0,29.769686,1008.4,,TRUE,TRUE,,,,,,,FEW,17000,FEW,20000,,,,,VFR,,,,,,,,,,,,METAR,1.0
KHOP 021655Z AUTO 04008KT 10SM FEW060 FEW170 30/18 A2996 RMK AO2 SLP142 T03020183,KHOP,2023-06-02T16:55:00Z,36.67,-87.5,30.2,18.3,40,8,,10.0,29.958662,1014.2,,TRUE,TRUE,,,,,,,FEW,6000,FEW,17000,,,,,VFR,,,,,,,,,,,,METAR,170.0
KHON 021655Z AUTO 16008G20KT 10SM SCT043 SCT050 28/18 A2995 RMK AO2 SLP132 T02830183,KHON,2023-06-02T16:55:00Z,44.38,-98.23,28.3,18.3,160,8,20,10.0,29.949802,1013.2,,TRUE,TRUE,,,,,,,SCT,4300,SCT,5000,,,,,VFR,,,,,,,,,,,,METAR,391.0
KHMN 021655Z AUTO 26010G15KT 10SM CLR 28/M04 A2999 RMK AO2 SLP086 T02761044 $,KHMN,2023-06-02T16:55:00Z,32.85,-106.1,27.6,-4.4,260,10,15,10.0,29.991142,1008.6,,TRUE,TRUE,TRUE,,,,,,CLR,,,,,,,,VFR,,,,,,,,,,,,METAR,1240.0
KHLR 021655Z AUTO 16012KT 7SM CLR 29/17 A2995 RMK AO2 SLP131 T02930171,KHLR,2023-06-02T16:55:00Z,31.13,-97.72,29.3,17.1,160,12,,7.0,29.949802,1013.1,,TRUE,TRUE,,,,,,,CLR,,,,,,,,VFR,,,,,,,,,,,,METAR,271.0
KHIF 021655Z 25004KT 10SM FEW035 SCT065 BKN080 17/09 A2999 RMK AO2A SLP115 T01710085,KHIF,2023-06-02T16:55:00Z,41.12,-111.97,17.1,8.5,250,4,,10.0,29.991142,1011.5,,,TRUE,,,,,,,FEW,3500,SCT,6500,BKN,8000,,,VFR,,,,,,,,,,,,METAR,1461.0
KHFF 021655Z AUTO 06008KT 10SM FEW034 SCT046 26/17 A2989 RMK AO2 SLP122 T02620170 $,KHFF,2023-06-02T16:55:00Z,35.03,-79.5,26.2,17.0,60,8,,10.0,29.890747,1012.2,,TRUE,TRUE,TRUE,,,,,,FEW,3400,SCT,4600,,,,,VFR,,,,,,,,,,,,METAR,100.0
KGXF 021655Z AUTO 00000KT 10SM CLR 27/02 A2990 RMK AO2 SLP114 T02720016 FZRANO $,KGXF,2023-06-02T16:55:00Z,32.88,-112.72,27.2,1.6,0,0,,10.0,29.899607,1011.4,,TRUE,TRUE,TRUE,,,TRUE,,,CLR,,,,,,,,VFR,,,,,,,,,,,,METAR,261.0
KGXA 021655Z AUTO 31005KT 10SM CLR 22/05 A2994 RMK AO2 SLP115 WND DATA ESTMD T02150046,KGXA,2023-06-02T16:55:00Z,34.57,-117.67,21.5,4.6,310,5,,10.0,29.940945,1011.5,,TRUE,TRUE,,,,,,,CLR,,,,,,,,VFR,,,,,,,,,,,,METAR,927.0
KGUS 021655Z 12008KT 10SM FEW190 30/07 A3004 RMK AO2A SLP169 T03010073 $,KGUS,2023-06-02T16:55:00Z,40.63,-86.15,30.1,7.3,120,8,,10.0,30.041338,1016.9,,,TRUE,TRUE,,,,,,FEW,19000,,,,,,,VFR,,,,,,,,,,,,SPECI,245.0
KGUR 021655Z AUTO 14007KT 10SM SCT024 19/14 A2991 RMK AO2 SLP118 T01910143,KGUR,2023-06-02T16:55:00Z,42.25,-104.72,19.1,14.3,140,7,,10.0,29.911417,1011.8,,TRUE,TRUE,,,,,,,SCT,2400,,,,,,,VFR,,,,,,,,,,,,METAR,1341.0
KGTB 021655Z AUTO 35004KT 10SM SCT140 BKN190 28/17 A2997 RMK AO2 SLP145 T02800172,KGTB,2023-06-02T16:55:00Z,44.07,-75.72,28.0,17.2,350,4,,10.0,29.970472,1014.5,,TRUE,TRUE,,,,,,,SCT,14000,BKN,19000,,,,,VFR,,,,,,,,,,,,METAR,206.0
KGSB 021655Z 05010KT 10SM BKN029 25/18 A2988 RMK AO2A SLP121 WND DATA ESTMD T02540183 $,KGSB,2023-06-02T16:55:00Z,35.33,-77.93,25.4,18.3,50,10,,10.0,29.878937,1012.1,,,TRUE,TRUE,,,,,,BKN,2900,,,,,,,MVFR,,,,,,,,,,,,METAR,33.0
KGRK 021655Z AUTO 14010KT 10SM FEW039 29/19 A2994 RMK AO2 SLP128 T02860186,KGRK,2023-06-02T16:55:00Z,31.07,-97.83,28.6,18.6,140,10,,10.0,29.940945,1012.8,,TRUE,TRUE,,,,,,,FEW,3900,,,,,,,VFR,,,,,,,,,,,,METAR,311.0
KGRF 021655Z 23004KT 10SM CLR 14/06 A3011 RMK AO2A SLP200 T01360062 $,KGRF,2023-06-02T16:55:00Z,47.07,-122.57,13.6,6.2,230,4,,10.0,30.109253,1020.0,,,TRUE,TRUE,,,,,,CLR,,,,,,,,VFR,,,,,,,,,,,,METAR,91.0
KGPI 021655Z VRB06KT 10SM CLR 21/10 A3002 RMK AO2 SLP157 T02060100,KGPI,2023-06-02T16:55:00Z,48.32,-114.25,20.6,10.0,0,6,,10.0,30.02067,1015.7,,,TRUE,,,,,,,CLR,,,,,,,,VFR,,,,,,,,,,,,METAR,903.0
KGOV 021655Z AUTO 32003KT 10SM FEW280 SCT310 30/09 A3012 RMK AO2 SLP202 T02980093 $,KGOV,2023-06-02T16:55:00Z,44.68,-84.73,29.8,9.3,320,3,,10.0,30.121063,1020.2,,TRUE,TRUE,TRUE,,,,,,FEW,28000,SCT,31000,,,,,VFR,,,,,,,,,,,,METAR,350.0
KGFA 021655Z AUTO 34004KT 5SM RA BR OVC008 12/11 A3008 RMK AO2 OVC V BKN SLP188 P0018 T01180112 $,KGFA,2023-06-02T16:55:00Z,47.5,-111.18,11.8,11.2,340,4,,5.0,30.079725,1018.8,,TRUE,TRUE,TRUE,,,,,RA BR,OVC,800,,,,,,,IFR,,,,,,0.18,,,,,,METAR,1058.0
KFTK 021655Z AUTO 36004KT 10SM CLR 29/13 A2999 RMK AO2 SLP152 T02880130,KFTK,2023-06-02T16:55:00Z,37.9,-85.97,28.8,13.0,360,4,,10.0,29.991142,1015.2,,TRUE,TRUE,,,,,,,CLR,,,,,,,,VFR,,,,,,,,,,,,METAR,225.0
KFSI 021655Z AUTO 17011KT 10SM M 28/20 A2991 RMK AO2 SLP120 T02810198 FZRANO $,KFSI,2023-06-02T16:55:00Z,34.65,-98.4,28.1,19.8,170,11,,10.0,29.911417,1012.0,,TRUE,TRUE,TRUE,,,TRUE,,,,,,,,,,,,,,,,,,,,,,,METAR,360.0
KFRI 021655Z 12006KT 10SM FEW040 SCT140 28/20 A2998 RMK AO2A SLP142 T02780201 $,KFRI,2023-06-02T16:55:00Z,39.05,-96.77,27.8,20.1,120,6,,10.0,29.97933,1014.2,,,TRUE,TRUE,,,,,,FEW,4000,SCT,14000,,,,,VFR,,,,,,,,,,,,METAR,232.0
KFHU 021655Z AUTO 09007KT 10SM CLR 22/M03 A3007 RMK AO2 SLP126 T02231032,KFHU,2023-06-02T16:55:00Z,31.58,-110.35,22.3,-3.2,90,7,,10.0,30.070866,1012.6,,TRUE,TRUE,,,,,,,CLR,,,,,,,,VFR,,,,,,,,,,,,METAR,1424.0
KFFO 021655Z AUTO 00000KT 10SM CLR 30/09 A3000 RMK AO2 SLP157 T03010085,KFFO,2023-06-02T16:55:00Z,39.83,-84.03,30.1,8.5,0,0,,10.0,30.0,1015.7,,TRUE,TRUE,,,,,,,CLR,,,,,,,,VFR,,,,,,,,,,,,METAR,250.0
KFEW 021655Z 23003KT 10SM BKN050 15/06 A3001 RMK AO2A SLP109 T01460064 $,KFEW,2023-06-02T16:55:00Z,41.13,-104.87,14.6,6.4,230,3,,10.0,30.008858,1010.9,,,TRUE,TRUE,,,,,,BKN,5000,,,,,,,VFR,,,,,,,,,,,,METAR,1877.0
KFCS 021655Z 07011KT 10SM CLR 20/05 A2997 RMK AO2A SLP030 T02030039,KFCS,2023-06-02T16:55:00Z,38.67,-104.77,20.3,5.0,70,11,,10.0,29.970472,1003.0,,,TRUE,,,,,,,CLR,,,,,,,,VFR,,,,,,,,,,,,METAR,1789.0
KFBG 021655Z AUTO 01007KT 10SM BKN035 BKN047 27/18 A2988 RMK AO2 SLP119 T02650178 $,KFBG,2023-06-02T16:55:00Z,35.12,-78.92,26.5,17.8,10,7,,10.0,29.878937,1011.9,,TRUE,TRUE,TRUE,,,,,,BKN,3500,BKN,4700,,,,,VFR,,,,,,,,,,,,METAR,69.0
KFAF 021655Z 04005KT 10SM SCT020 26/18 A2991 RMK AO2A SLP132 T02600181 $,KFAF,2023-06-02T16:55:00Z,37.13,-76.62,26.0,18.1,40,5,,10.0,29.911417,1013.2,,,TRUE,TRUE,,,,,,SCT,2000,,,,,,,VFR,,,,,,,,,,,,METAR,3.0
KEND 021655Z COR AUTO 15011KT 10SM SCT040 SCT100 28/19 A2993 RMK AO2 SLP126 T02780193 COR 1719,KEND,2023-06-02T16:55:00Z,36.33,-97.92,27.8,19.3,150,11,,10.0,29.929134,1012.6,TRUE,TRUE,TRUE,,,,,,,SCT,4000,SCT,10000,,,,,VFR,,,,,,,,,,,,SPECI,392.0
KEGI 021655Z AUTO 05013G17KT 10SM SCT048 SCT150 BKN200 29/17 A2986 RMK AO2 SLP111 T02900165 $,KEGI,2023-06-02T16:55:00Z,30.65,-86.52,29.0,16.5,50,13,17,10.0,29.861221,1011.1,,TRUE,TRUE,TRUE,,,,,,SCT,4800,SCT,15000,BKN,20000,,,VFR,,,,,,,,,,,,METAR,59.0
KEDW 021655Z 22004KT 50SM CLR 22/07 A2993 RMK AO2A SLP120 T02160067,KEDW,2023-06-02T16:55:00Z,34.9,-117.87,21.6,6.7,220,4,,50.0,29.929134,1012.0,,,TRUE,,,,,,,CLR,,,,,,,,VFR,,,,,,,,,,,,METAR,698.0
KEAT 021655Z AUTO 34008KT 10SM CLR 19/07 A3001 RMK AO2 SLP157 T01940072,KEAT,2023-06-02T16:55:00Z,47.4,-120.2,19.4,7.2,340,8,,10.0,30.008858,1015.7,,TRUE,TRUE,,,,,,,CLR,,,,,,,,VFR,,,,,,,,,,,,METAR,375.0
KDOV 021655Z AUTO 10007KT 10SM CLR 28/14 A2991 RMK AO2 SLP132 T02810140,KDOV,2023-06-02T16:55:00Z,39.12,-75.47,28.1,14.0,100,7,,10.0,29.911417,1013.2,,TRUE,TRUE,,,,,,,CLR,,,,,,,,VFR,,,,,,,,,,,,METAR,6.0
KDMA 021655Z AUTO 00000KT 10SM CLR 25/03 A2995 RMK AO2 SLP144 T02510031 $,KDMA,2023-06-02T16:55:00Z,32.17,-110.88,25.1,3.1,0,0,,10.0,29.949802,1014.4,,TRUE,TRUE,TRUE,,,,,,CLR,,,,,,,,VFR,,,,,,,,,,,,SPECI,804.0
KDLH 021655Z 10008KT 10SM CLR 22/16 A3013 RMK AO2 SLP202 T02220156,KDLH,2023-06-02T16:55:00Z,46.85,-92.2,22.2,15.6,100,8,,10.0,30.129921,1020.2,,,TRUE,,,,,,,CLR,,,,,,,,VFR,,,,,,,,,,,,METAR,434.0
KDAA 021655Z AUTO 00000KT 10SM CLR 30/15 A2992 RMK AO2 SLP134 T03030148 $,KDAA,2023-06-02T16:55:00Z,38.72,-77.17,30.3,14.8,0,0,,10.0,29.920275,1013.4,,TRUE,TRUE,TRUE,,,,,,CLR,,,,,,,,VFR,,,,,,,,,,,,METAR,17.0
KCWN 021655Z AUTO 11009KT 10SM FEW060 FEW080 18/07 A3007 RMK AO2 SLP022 T01820067 $,KCWN,2023-06-02T16:55:00Z,38.75,-104.85,18.2,6.7,110,9,,10.0,30.070866,1002.2,,TRUE,TRUE,TRUE,,,,,,FEW,6000,FEW,8000,,,,,VFR,,,,,,,,,,,,METAR,2040.0
KCOF 021655Z AUTO 04011KT 10SM CLR 29/23 A2978 RMK AO2 SLP089 T02870229 $,KCOF,2023-06-02T16:55:00Z,28.23,-80.6,28.7,22.9,40,11,,10.0,29.778543,1008.9,,TRUE,TRUE,TRUE,,,,,,CLR,,,,,,,,VFR,,,,,,,,,,,,METAR,1.0
KCNK 021655Z AUTO 15012G19KT 10SM BKN085 28/17 A2999 RMK AO2 LTG DSNT NW SLP138 T02830167,KCNK,2023-06-02T16:55:00Z,39.55,-97.65,28.3,16.7,150,12,19,10.0,29.991142,1013.8,,TRUE,TRUE,,,,,,,BKN,8500,,,,,,,VFR,,,,,,,,,,,,METAR,445.0
KCMY 021655Z AUTO 00000KT 10SM CLR 30/17 A3007 RMK AO2 SLP181 T03000167 FZRANO $,KCMY,2023-06-02T16:55:00Z,43.97,-90.73,30.0,16.7,0,0,,10.0,30.070866,1018.1,,TRUE,TRUE,TRUE,,,TRUE,,,CLR,,,,,,,,VFR,,,,,,,,,,,,METAR,253.0
KCMA 021655Z 27003KT 8SM OVC035 18/13 A2999 RMK AO2 SLP163 T01780128,KCMA,2023-06-02T16:55:00Z,34.22,-119.1,17.8,12.8,270,3,,8.0,29.991142,1016.3,,,TRUE,,,,,,,OVC,3500,,,,,,,VFR,,,,,,,,,,,,METAR,20.0
KCEF 021655Z 35004KT 10SM FEW070 FEW100 32/13 A2985 RMK AO2A LTG DSNT SW-NW SLP112 T03200132,KCEF,2023-06-02T16:55:00Z,42.2,-72.52,32.0,13.2,350,4,,10.0,29.84941,1011.2,,,TRUE,,,,,,,FEW,7000,FEW,10000,,,,,VFR,,,,,,,,,,,,SPECI,72.0
KCBM 021655Z 02005KT 10SM SCT046 29/16 A2990 RMK AO2A SLP129 ALSTG/SLP ESTMD $,KCBM,2023-06-02T16:55:00Z,33.65,-88.45,29.0,16.0,20,5,,10.0,29.899607,1012.9,,,TRUE,TRUE,,,,,,SCT,4600,,,,,,,VFR,,,,,,,,,,,,METAR,59.0
KBYS 021655Z AUTO 15004KT 10SM CLR 23/07 A2991 RMK AO2 SLP105 T02300067 $,KBYS,2023-06-02T16:55:00Z,35.28,-116.63,23.0,6.7,150,4,,10.0,29.911417,1010.5,,TRUE,TRUE,TRUE,,,,,,CLR,,,,,,,,VFR,,,,,,,,,,,,METAR,717.0
KBLV 021655Z 12007KT 10SM SCT060 31/16 A2999 RMK AO2A SLP155 T03060162 $,KBLV,2023-06-02T16:55:00Z,38.53,-89.83,30.6,16.2,120,7,,10.0,29.991142,1015.5,,,TRUE,TRUE,,,,,,SCT,6000,,,,,,,VFR,,,,,,,,,,,,METAR,134.0
KBLI 021655Z 18012G19KT 10SM FEW050 14/10 A3011 RMK AO2 T01440100,KBLI,2023-06-02T16:55:00Z,48.8,-122.53,14.4,10.0,180,12,19,10.0,30.109253,,,,TRUE,,,,,,,FEW,5000,,,,,,,VFR,,,,,,,,,,,,METAR,46.0
KBIX 021655Z AUTO 12005KT 10SM FEW047 SCT060 30/17 A2987 RMK AO2 SLP118 T03020173,KBIX,2023-06-02T16:55:00Z,30.42,-88.92,30.2,17.3,120,5,,10.0,29.870079,1011.8,,TRUE,TRUE,,,,,,,FEW,4700,SCT,6000,,,,,VFR,,,,,,,,,,,,METAR,4.0
KBAD 021655Z AUTO 11007KT 10SM SCT049 32/18 A2994 RMK AO2 SLP141 T03190177,KBAD,2023-06-02T16:55:00Z,32.5,-93.67,31.9,17.7,110,7,,10.0,29.940945,1014.1,,TRUE,TRUE,,,,,,,SCT,4900,,,,,,,VFR,,,,,,,,,,,,METAR,49.0
KBAB 021655Z 22005KT 10SM CLR 21/10 A2995 RMK AO2A SLP145 T02060104 $,KBAB,2023-06-02T16:55:00Z,39.13,-121.43,20.6,10.4,220,5,,10.0,29.949802,1014.5,,,TRUE,TRUE,,,,,,CLR,,,,,,,,VFR,,,,,,,,,,,,METAR,31.0
KAPG 021655Z 16009KT 10SM CLR 32/18 A2991 RMK AO2A SLP131 T03150181 $,KAPG,2023-06-02T16:55:00Z,39.47,-76.17,31.5,18.1,160,9,,10.0,29.911417,1013.1,,,TRUE,TRUE,,,,,,CLR,,,,,,,,VFR,,,,,,,,,,,,SPECI,18.0
KANJ 021655Z AUTO 00000KT 10SM CLR 30/13 A3012 RMK AO2 SLP195 T03000133,KANJ,2023-06-02T16:55:00Z,46.47,-84.37,30.0,13.3,0,0,,10.0,30.121063,1019.5,,TRUE,TRUE,,,,,,,CLR,,,,,,,,VFR,,,,,,,,,,,,METAR,220.0
KAFF 021655Z 16010KT 10SM SCT080 18/03 A2999 RMK AO2A SLP085 T01840034,KAFF,2023-06-02T16:55:00Z,38.97,-104.82,18.4,3.4,160,10,,10.0,29.991142,1008.5,,,TRUE,,,,,,,SCT,8000,,,,,,,VFR,,,,,,,,,,,,METAR,2003.0
KADW 021655Z AUTO 00000KT 10SM FEW170 FEW200 28/16 A2992 RMK AO2 SLP137 T02840160 $,KADW,2023-06-02T16:55:00Z,38.82,-76.87,28.4,16.0,0,0,,10.0,29.920275,1013.7,,TRUE,TRUE,TRUE,,,,,,FEW,17000,FEW,20000,,,,,VFR,,,,,,,,,,,,SPECI,87.0
KABH 021655Z AUTO 17011KT 10SM FEW190 18/02 A3002 RMK AO2 SLP114 T01840018,KABH,2023-06-02T16:55:00Z,38.75,-104.3,18.4,1.8,170,11,,10.0,30.02067,1011.4,,TRUE,TRUE,,,,,,,FEW,19000,,,,,,,VFR,,,,,,,,,,,,METAR,1838.0
KAAT 021655Z AUTO 20003KT 10SM CLR 14/07 A3010 RMK AO2 SLP172 T01390067,KAAT,2023-06-02T16:55:00Z,41.48,-120.57,13.9,6.7,200,3,,10.0,30.100393,1017.2,,TRUE,TRUE,,,,,,,CLR,,,,,,,,VFR,,,,,,,,,,,,METAR,1336.0
K9L2 021655Z AUTO 18006KT 10SM CLR 22/06 A2994 RMK AO2 SLP123 T02210059,K9L2,2023-06-02T16:55:00Z,34.98,-117.87,22.1,5.9,180,6,,10.0,29.940945,1012.3,,TRUE,TRUE,,,,,,,CLR,,,,,,,,VFR,,,,,,,,,,,,METAR,697.0
K4MR 021655Z AUTO 27013G19KT 10SM CLR 38/34 A2993 RMK AO2 LTG DSNT SE SLPNO T03830337 $,K4MR,2023-06-02T16:55:00Z,34.3,-103.8,38.3,33.7,270,13,19,10.0,29.929134,,,TRUE,TRUE,TRUE,,,,,,CLR,,,,,,,,VFR,,,,,,,,,,,,METAR,1339.0
K1YT 021655Z AUTO 00000KT 10SM CLR 20/02 A2998 RMK AO2 SLP152 T01980017 $,K1YT,2023-06-02T16:55:00Z,46.67,-120.45,19.8,1.7,0,0,,10.0,29.97933,1015.2,,TRUE,TRUE,TRUE,,,,,,CLR,,,,,,,,VFR,,,,,,,,,,,,METAR,423.0
K1OW 021655Z AUTO 33004KT 10SM SCT031 BKN041 18/10 A3007 RMK AO2 SLP139 T01770103 $,K1OW,2023-06-02T16:55:00Z,40.88,-104.0,17.7,10.3,330,4,,10.0,30.070866,1013.9,,TRUE,TRUE,TRUE,,,,,,SCT,3100,BKN,4100,,,,,VFR,,,,,,,,,,,,METAR,1650.0
K1ON 021655Z AUTO 13011KT 10SM CLR 28/18 A2992 RMK AO2 SLP130 T02770181 $,K1ON,2023-06-02T16:55:00Z,,,27.7,18.1,130,11,,10.0,29.920275,1013.0,,TRUE,TRUE,TRUE,,,,,,CLR,,,,,,,,VFR,,,,,,,,,,,,METAR,
K1NW 021655Z AUTO 18005KT 10SM M 19/12 A2993 RMK AO2 SLP089 T01910119 $,K1NW,2023-06-02T16:55:00Z,40.63,-103.83,19.1,11.9,180,5,,10.0,29.929134,1008.9,,TRUE,TRUE,TRUE,,,,,,,,,,,,,,,,,,,,,,,,,,METAR,1461.0
K1NN 021655Z AUTO 11008KT 10SM FEW130 26/18 A2993 RMK AO2 SLP130 T02630176 $,K1NN,2023-06-02T16:55:00Z,,,26.3,17.6,110,8,,10.0,29.929134,1013.0,,TRUE,TRUE,TRUE,,,,,,FEW,13000,,,,,,,VFR,,,,,,,,,,,,METAR,
K1MW 021655Z AUTO 15004KT 10SM FEW025 20/13 A2992 RMK AO2 SLP094 T01970134 $,K1MW,2023-06-02T16:55:00Z,40.7,-103.48,19.7,13.4,150,4,,10.0,29.920275,1009.4,,TRUE,TRUE,TRUE,,,,,,FEW,2500,,,,,,,VFR,,,,,,,,,,,,METAR,1338.0
K1MN 021655Z AUTO 12012KT 10SM FEW130 26/18 A2992 RMK AO2 SLP126 T02610182 $,K1MN,2023-06-02T16:55:00Z,,,26.1,18.2,120,12,,10.0,29.920275,1012.6,,TRUE,TRUE,TRUE,,,,,,FEW,13000,,,,,,,VFR,,,,,,,,,,,,METAR,
K1KN 021655Z AUTO 12007KT 10SM SCT100 26/16 A2995 RMK AO2 SLP133 T02570160 $,K1KN,2023-06-02T16:55:00Z,,,25.7,16.0,120,7,,10.0,29.949802,1013.3,,TRUE,TRUE,TRUE,,,,,,SCT,10000,,,,,,,VFR,,,,,,,,,,,,METAR,
K1JW 021655Z AUTO 15007KT 10SM SCT024 19/14 M RMK AO2 SLPNO T01900140 $,K1JW,2023-06-02T16:55:00Z,40.97,-103.2,19.0,14.0,150,7,,10.0,,,,TRUE,TRUE,TRUE,,,,,,SCT,2400,,,,,,,VFR,,,,,,,,,,,,METAR,1382.0
K1JN 021655Z AUTO 09009KT 10SM SCT090 25/19 A2993 RMK AO2 SLP131 T02520186 $,K1JN,2023-06-02T16:55:00Z,,,25.2,18.6,90,9,,10.0,29.929134,1013.1,,TRUE,TRUE,TRUE,,,,,,SCT,9000,,,,,,,VFR,,,,,,,,,,,,METAR,
K1IW 021655Z AUTO 20004KT 10SM SCT019 SCT030 19/15 A2992 RMK AO2 SLP097 T01910148 $,K1IW,2023-06-02T16:55:00Z,41.05,-102.87,19.1,14.8,200,4,,10.0,29.920275,1009.7,,TRUE,TRUE,TRUE,,,,,,SCT,1900,SCT,3000,,,,,VFR,,,,,,,,,,,,METAR,1294.0
K1IN 021655Z AUTO 13009KT 10SM SCT095 26/16 A2993 RMK AO2 SLP129 T02590164 $,K1IN,2023-06-02T16:55:00Z,,,25.9,16.4,130,9,,10.0,29.929134,1012.9,,TRUE,TRUE,TRUE,,,,,,SCT,9500,,,,,,,VFR,,,,,,,,,,,,METAR,
K1HW 021655Z AUTO 13006KT 10SM BKN013 OVC019 18/15 A2991 RMK AO2 BKN V OVC SLP099 T01750151 $,K1HW,2023-06-02T16:55:00Z,41.32,-102.83,17.5,15.1,130,6,,10.0,29.911417,1009.9,,TRUE,TRUE,TRUE,,,,,,BKN,1300,OVC,1900,,,,,MVFR,,,,,,,,,,,,METAR,1265.0
K1HN 021655Z AUTO 16011KT 10SM OVC150 28/16 A2990 RMK AO2 SLP120 T02750164 $,K1HN,2023-06-02T16:55:00Z,,,27.5,16.4,160,11,,10.0,29.899607,1012.0,,TRUE,TRUE,TRUE,,,,,,OVC,15000,,,,,,,VFR,,,,,,,,,,,,METAR,
K1GN 021655Z AUTO 16009G16KT 9SM SCT110 27/16 A2991 RMK AO2 SLP129 T02670160 $,K1GN,2023-06-02T16:55:00Z,,,26.7,16.0,160,9,16,9.0,29.911417,1012.9,,TRUE,TRUE,TRUE,,,,,,SCT,11000,,,,,,,VFR,,,,,,,,,,,,METAR,
K1FW 021655Z AUTO 00000KT 10SM CLR 19/13 A2993 RMK AO2 SLP093 T01930125 $,K1FW,2023-06-02T16:55:00Z,41.37,-103.48,19.3,12.5,0,0,,10.0,29.929134,1009.3,,TRUE,TRUE,TRUE,,,,,,CLR,,,,,,,,VFR,,,,,,,,,,,,METAR,1451.0
K1EW 021655Z AUTO 00000KT 10SM SCT032 18/10 A2995 RMK AO2 SLP103 T01760097 $,K1EW,2023-06-02T16:55:00Z,41.12,-103.98,17.6,9.7,0,0,,10.0,29.949802,1010.3,,TRUE,TRUE,TRUE,,,,,,SCT,3200,,,,,,,VFR,,,,,,,,,,,,METAR,1609.0
K1EN 021655Z AUTO 17010KT 10SM BKN130 27/13 A2971 RMK AO2 SLP059 T02710134 $,K1EN,2023-06-02T16:55:00Z,,,27.1,13.4,170,10,,10.0,29.71063,1005.9,,TRUE,TRUE,TRUE,,,,,,BKN,13000,,,,,,,VFR,,,,,,,,,,,,METAR,
K1DW 021655Z AUTO 33007KT 10SM SCT040 SCT048 19/11 A2996 RMK AO2 SLP108 T01920107 $,K1DW,2023-06-02T16:55:00Z,41.37,-103.8,19.2,10.7,330,7,,10.0,29.958662,1010.8,,TRUE,TRUE,TRUE,,,,,,SCT,4000,SCT,4800,,,,,VFR,,,,,,,,,,,,METAR,1539.0
K1DN 021655Z AUTO 15008KT 10SM CLR 28/14 A2848 RMK AO2 SLP631 T02780141 $,K1DN,2023-06-02T16:55:00Z,,,27.8,14.1,150,8,,10.0,28.47933,963.1,,TRUE,TRUE,TRUE,,,,,,CLR,,,,,,,,VFR,,,,,,,,,,,,METAR,
K1CW 021655Z AUTO 03003KT 10SM CLR 19/13 A2994 RMK AO2 SLP105 T01870129 $,K1CW,2023-06-02T16:55:00Z,41.58,-103.57,18.7,12.9,30,3,,10.0,29.940945,1010.5,,TRUE,TRUE,TRUE,,,,,,CLR,,,,,,,,VFR,,,,,,,,,,,,METAR,1370.0
K1CN 021655Z AUTO 16012KT 10SM FEW075 28/16 A2992 RMK AO2 SLP123 T02810157 $,K1CN,2023-06-02T16:55:00Z,,,28.1,15.7,160,12,,10.0,29.920275,1012.3,,TRUE,TRUE,TRUE,,,,,,FEW,7500,,,,,,,VFR,,,,,,,,,,,,METAR,
K1BW 021655Z AUTO 32004KT 10SM BKN055 BKN090 17/09 A3000 RMK AO2 SLP121 T01690093 $,K1BW,2023-06-02T16:55:00Z,41.52,-104.0,16.9,9.3,320,4,,10.0,30.0,1012.1,,TRUE,TRUE,TRUE,,,,,,BKN,5500,BKN,9000,,,,,VFR,,,,,,,,,,,,METAR,1606.0
K1BN 021655Z AUTO 14009KT 10SM CLR 27/18 A2992 RMK AO2 SLP125 T02690179 $,K1BN,2023-06-02T16:55:00Z,,,26.9,17.9,140,9,,10.0,29.920275,1012.5,,TRUE,TRUE,TRUE,,,,,,CLR,,,,,,,,VFR,,,,,,,,,,,,METAR,
K1AN 021655Z AUTO 13007KT 10SM CLR 28/17 A2987 RMK AO2 SLP125 T02820174 $,K1AN,2023-06-02T16:55:00Z,,,28.2,17.4,130,7,,10.0,29.870079,1012.5,,TRUE,TRUE,TRUE,,,,,,CLR,,,,,,,,VFR,,,,,,,,,,,,METAR,
FJDG 021655Z 17005KT 9999 FEW022 SCT250 27/24 A2995 RMK SLP139 T02650239,FJDG,2023-06-02T16:55:00Z,-7.32,72.42,26.5,23.9,170,5,,6.21,29.949802,1013.9,,,,,,,,,,FEW,2200,SCT,25000,,,,,VFR,,,,,,,,,,,,METAR,3.0
ETOU 021655Z AUTO 01009KT 9999 CLR 21/20 A3005 RMK AO2 SLP178 T02060204,ETOU,2023-06-02T16:55:00Z,50.03,8.32,20.6,20.4,10,9,,6.21,30.050198,1017.8,,TRUE,TRUE,,,,,,,CLR,,,,,,,,VFR,,,,,,,,,,,,METAR,141.0
ETIK 021655Z 03010KT 9999 CLR 20/05 A3002 RMK AO2A SLP167 T01960049,ETIK,2023-06-02T16:55:00Z,49.47,10.38,19.6,4.9,30,10,,6.21,30.02067,1016.7,,,TRUE,,,,,,,CLR,,,,,,,,VFR,,,,,,,,,,,,METAR,326.0
ETIH 021655Z AUTO 05009KT 9999 SCT055 22/09 A2999 RMK AO2 SLP154 T02180087,ETIH,2023-06-02T16:55:00Z,49.22,11.83,21.8,8.7,50,9,,6.21,29.991142,1015.4,,TRUE,TRUE,,,,,,,SCT,5500,,,,,,,VFR,,,,,,,,,,,,METAR,436.0
ETIC 021655Z AUTO 06003KT 9999 OVC055 20/08 A2999 RMK AO2 SLP158 T02020082 $,ETIC,2023-06-02T16:55:00Z,49.7,11.93,20.2,8.2,60,3,,6.21,29.991142,1015.8,,TRUE,TRUE,TRUE,,,,,,OVC,5500,,,,,,,VFR,,,,,,,,,,,,METAR,414.0
ETEB 021655Z AUTO 01010G16KT 9999 CLR 19/06 A3001 RMK AO2 SLP175 T01920063 $,ETEB,2023-06-02T16:55:00Z,49.32,10.63,19.2,6.3,10,10,16,6.21,30.008858,1017.5,,TRUE,TRUE,TRUE,,,,,,CLR,,,,,,,,VFR,,,,,,,,,,,,METAR,466.0
ETAR 021655Z AUTO 04012KT 9999 CLR 20/06 A3001 RMK AO2 SLP166 T02020058,ETAR,2023-06-02T16:55:00Z,49.43,7.58,20.2,5.8,40,12,,6.21,30.008858,1016.6,,TRUE,TRUE,,,,,,,CLR,,,,,,,,VFR,,,,,,,,,,,,METAR,231.0
ETAD 021655Z AUTO 05013KT 9999 CLR 18/06 A3004 RMK AO2 SLP164 T01840059,ETAD,2023-06-02T16:55:00Z,49.98,6.7,18.4,5.9,50,13,,6.21,30.041338,1016.4,,TRUE,TRUE,,,,,,,CLR,,,,,,,,VFR,,,,,,,,,,,,METAR,365.0
EGVA 021655Z AUTO 04011KT 9999 CLR 18/06 A3020 RMK AO2 SLP230 T01780057 FZRANO $,EGVA,2023-06-02T16:55:00Z,51.67,-1.78,17.8,5.7,40,11,,6.21,30.200787,1023.0,,TRUE,TRUE,TRUE,,,TRUE,,,CLR,,,,,,,,VFR,,,,,,,,,,,,METAR,84.0
EGUN 021655Z 05013KT 9999 SCT037 15/08 A3024 RMK AO2A SLP243 T01480081 $,EGUN,2023-06-02T16:55:00Z,52.37,0.48,14.8,8.1,50,13,,6.21,30.239174,1024.3,,,TRUE,TRUE,,,,,,SCT,3700,,,,,,,VFR,,,,,,,,,,,,METAR,10.0
BK12 021655Z 35015G20KT 9999 SCT055 BKN075 21/11 A2996 RMK AO2 SLP125 WND DATA ESTMD T02060102,BK12,2023-06-02T16:55:00Z,,,20.6,10.2,350,15,20,6.21,29.958662,1012.5,,,TRUE,,,,,,,SCT,5500,BKN,7500,,,,,VFR,,,,,,,,,,,,METAR,
BGTL 021655Z AUTO 00000KT 9999 CLR M00/M08 A3008 RMK AO2 SLP172 T10021079 TSNO $,BGTL,2023-06-02T16:55:00Z,76.53,-68.75,-0.2,-7.9,0,0,,6.21,30.079725,1017.2,,TRUE,TRUE,TRUE,,TRUE,,,,CLR,,,,,,,,VFR,,,,,,,,,,,,METAR,79.0
PHOG 021654Z 02008KT 10SM FEW015 SCT035 24/19 A3011 RMK AO2 SLP202 T02390194,PHOG,2023-06-02T16:54:00Z,20.9,-156.43,23.9,19.4,20,8,,10.0,30.109253,1020.2,,,TRUE,,,,,,,FEW,1500,SCT,3500,,,,,VFR,,,,,,,,,,,,METAR,14.0
PHMK 021654Z VRB05KT 10SM SCT030 23/20 A3012 RMK AO2 SLP204 T02280200 $,PHMK,2023-06-02T16:54:00Z,21.15,-157.1,22.8,20.0,0,5,,10.0,30.121063,1020.4,,,TRUE,TRUE,,,,,,SCT,3000,,,,,,,VFR,,,,,,,,,,,,METAR,135.0
PGUM 021654Z 14007G15KT 6SM -RA BR SCT006 BKN016 OVC044 26/25 A2987 RMK AO2 RAB53 SLP105 OCNL LTGICCC DSNT W P0000 T02610250,PGUM,2023-06-02T16:54:00Z,13.48,144.8,26.1,25.0,140,7,15,6.0,29.870079,1010.5,,,TRUE,,,,,,-RA BR,SCT,600,BKN,1600,OVC,4400,,,MVFR,,,,,,0.005,,,,,,METAR,74.0
PGSN 021654Z 10011KT 10SM SCT018 SCT023 27/26 A2988 RMK AO2 RAB03E13 SLP140 P0000 T02720256 $,PGSN,2023-06-02T16:54:00Z,15.12,145.72,27.2,25.6,100,11,,10.0,29.878937,1014.0,,,TRUE,TRUE,,,,,,SCT,1800,SCT,2300,,,,,VFR,,,,,,0.005,,,,,,METAR,65.0
PAHN 021654Z AUTO 00000KT OVC055 11/06 A3001 RMK AO2 SLP165 T01110056 TSNO $,PAHN,2023-06-02T16:54:00Z,59.25,-135.52,11.1,5.6,0,0,,,30.008858,1016.5,,TRUE,TRUE,TRUE,,TRUE,,,,OVC,5500,,,,,,,,,,,,,,,,,,,METAR,15.0
PAEH 021654Z 01004KT 10SM CLR 04/01 A2993 RMK AO2A SLP143 BWC LOW,PAEH,2023-06-02T16:54:00Z,58.65,-162.07,4.0,1.0,10,4,,10.0,29.929134,1014.3,,,TRUE,,,,,,,CLR,,,,,,,,VFR,,,,,,,,,,,,METAR,101.0
MTCH 021654Z VRB02KT 9000 SCT024CB BKN060 30/24 Q1009 RMK/CB/SW,MTCH,2023-06-02T16:54:00Z,19.75,-72.18,30.0,24.0,0,2,,5.59,29.793306,,,,,,,,,,,SCT,2400,BKN,6000,,,,,VFR,,,,,,,,,,,,SPECI,3.0
KWLD 021654Z AUTO 16012G18KT 10SM CLR 28/20 A2999 RMK AO2 SLP144 T02830200,KWLD,2023-06-02T16:54:00Z,37.17,-97.03,28.3,20.0,160,12,18,10.0,29.991142,1014.4,,TRUE,TRUE,,,,,,,CLR,,,,,,,,VFR,,,,,,,,,,,,METAR,351.0
KWAL 021654Z 08008KT 10SM FEW250 24/18 A2993 RMK AO2 SLP133 T02440183,KWAL,2023-06-02T16:54:00Z,37.93,-75.47,24.4,18.3,80,8,,10.0,29.929134,1013.3,,,TRUE,,,,,,,FEW,25000,,,,,,,VFR,,,,,,,,,,,,METAR,10.0
KVTA 021654Z AUTO VRB05KT 10SM FEW075 31/14 A3002 RMK AO2 SLP159 T03110139,KVTA,2023-06-02T16:54:00Z,40.02,-82.47,31.1,13.9,0,5,,10.0,30.02067,1015.9,,TRUE,TRUE,,,,,,,FEW,7500,,,,,,,VFR,,,,,,,,,,,,METAR,268.0
KVSF 021654Z AUTO 32007G16KT 290V360 10SM CLR 32/13 A2992 RMK AO2 SLP129 T03170128,KVSF,2023-06-02T16:54:00Z,43.35,-72.52,31.7,12.8,320,7,16,10.0,29.920275,1012.9,,TRUE,TRUE,,,,,,,CLR,,,,,,,,VFR,,,,,,,,,,,,METAR,176.0
KVAY 021654Z AUTO 16003KT 10SM CLR 32/14 A2990 RMK AO2 SLP123 T03170139,KVAY,2023-06-02T16:54:00Z,39.93,-74.83,31.7,13.9,160,3,,10.0,29.899607,1012.3,,TRUE,TRUE,,,,,,,CLR,,,,,,,,VFR,,,,,,,,,,,,METAR,15.0
KUZA 021654Z AUTO VRB04KT 10SM CLR 27/15 A2994 RMK AO2 SLP126 T02720150,KUZA,2023-06-02T16:54:00Z,34.98,-81.05,27.2,15.0,0,4,,10.0,29.940945,1012.6,,TRUE,TRUE,,,,,,,CLR,,,,,,,,VFR,,,,,,,,,,,,METAR,198.0
KUIN 021654Z AUTO 10004KT 10SM BKN065 29/18 A3003 RMK AO2 SLP161 T02940178,KUIN,2023-06-02T16:54:00Z,39.95,-91.2,29.4,17.8,100,4,,10.0,30.029528,1016.1,,TRUE,TRUE,,,,,,,BKN,6500,,,,,,,VFR,,,,,,,,,,,,METAR,233.0
KTQE 021654Z AUTO 16012KT 10SM FEW045 31/18 A3000 RMK AO2 SLP146 T03110178,KTQE,2023-06-02T16:54:00Z,41.77,-96.18,31.1,17.8,160,12,,10.0,30.0,1014.6,,TRUE,TRUE,,,,,,,FEW,4500,,,,,,,VFR,,,,,,,,,,,,METAR,312.0
KTAD 021654Z AUTO 23007KT 180V260 10SM CLR 21/07 A3000 RMK AO2 SLP094 T02110067,KTAD,2023-06-02T16:54:00Z,37.27,-104.33,21.1,6.7,230,7,,10.0,30.0,1009.4,,TRUE,TRUE,,,,,,,CLR,,,,,,,,VFR,,,,,,,,,,,,METAR,1751.0
KSYR 021654Z 32006KT 10SM SCT110 BKN200 31/15 A2998 RMK AO2 SLP145 MOD CU NE-E T03060150,KSYR,2023-06-02T16:54:00Z,43.12,-76.1,30.6,15.0,320,6,,10.0,29.97933,1014.5,,,TRUE,,,,,,,SCT,11000,BKN,20000,,,,,VFR,,,,,,,,,,,,METAR,125.0
KSUS 021654Z VRB04KT 10SM CLR 32/16 A2999 RMK AO2 SLP146 T03170161,KSUS,2023-06-02T16:54:00Z,38.65,-90.65,31.7,16.1,0,4,,10.0,29.991142,1014.6,,,TRUE,,,,,,,CLR,,,,,,,,VFR,,,,,,,,,,,,METAR,140.0
KSLC 021654Z 35003KT 10SM FEW050CB BKN065 BKN080 BKN220 19/10 A3000 RMK AO2 RAB05E16 SLP112 CB NW MOV E VCSH P0000 T01940100,KSLC,2023-06-02T16:54:00Z,40.77,-111.97,19.4,10.0,350,3,,10.0,30.0,1011.2,,,TRUE,,,,,,,FEW,5000,BKN,6500,BKN,8000,BKN,22000,VFR,,,,,,0.005,,,,,,METAR,1286.0
KSET 021654Z AUTO VRB06G15KT 10SM CLR 32/14 A2999 RMK AO2 SLP152 T03220139,KSET,2023-06-02T16:54:00Z,38.93,-90.43,32.2,13.9,0,6,15,10.0,29.991142,1015.2,,TRUE,TRUE,,,,,,,CLR,,,,,,,,VFR,,,,,,,,,,,,METAR,133.0
KSBY 021654Z 02006KT 10SM CLR 29/13 A2992 RMK AO2 SLP133 T02890128,KSBY,2023-06-02T16:54:00Z,38.33,-75.5,28.9,12.8,20,6,,10.0,29.920275,1013.3,,,TRUE,,,,,,,CLR,,,,,,,,VFR,,,,,,,,,,,,METAR,14.0
KSBN 021654Z VRB06KT 10SM CLR 32/10 A3008 RMK AO2 SLP179 T03220100,KSBN,2023-06-02T16:54:00Z,41.7,-86.32,32.2,10.0,0,6,,10.0,30.079725,1017.9,,,TRUE,,,,,,,CLR,,,,,,,,VFR,,,,,,,,,,,,METAR,236.0
KRST 021654Z 21005KT 10SM FEW110 28/18 A3008 RMK AO2 SLP180 T02780183,KRST,2023-06-02T16:54:00Z,43.9,-92.5,27.8,18.3,210,5,,10.0,30.079725,1018.0,,,TRUE,,,,,,,FEW,11000,,,,,,,VFR,,,,,,,,,,,,METAR,398.0
KRSP 021654Z AUTO 06007KT 030V100 10SM CLR 34/09 A3003 RMK AO2 SLP153 T03390089 $,KRSP,2023-06-02T16:54:00Z,39.65,-77.47,33.9,8.9,60,7,,10.0,30.029528,1015.3,,TRUE,TRUE,TRUE,,,,,,CLR,,,,,,,,VFR,,,,,,,,,,,,METAR,555.0
KROC 021654Z 35007KT 10SM FEW080 FEW250 30/16 A3002 RMK AO2 SLP165 T03000156,KROC,2023-06-02T16:54:00Z,43.12,-77.68,30.0,15.6,350,7,,10.0,30.02067,1016.5,,,TRUE,,,,,,,FEW,8000,FEW,25000,,,,,VFR,,,,,,,,,,,,METAR,166.0
KROA 021654Z VRB04KT 10SM CLR 28/12 A3001 RMK AO2 SLP151 T02830122,KROA,2023-06-02T16:54:00Z,37.32,-79.97,28.3,12.2,0,4,,10.0,30.008858,1015.1,,,TRUE,,,,,,,CLR,,,,,,,,VFR,,,,,,,,,,,,METAR,349.0
KRKS 021654Z AUTO 24012KT 10SM OVC017 10/07 A3004 RMK AO2 SLP129 T01000072,KRKS,2023-06-02T16:54:00Z,41.6,-109.07,10.0,7.2,240,12,,10.0,30.041338,1012.9,,TRUE,TRUE,,,,,,,OVC,1700,,,,,,,MVFR,,,,,,,,,,,,METAR,2062.0
KRIC 021654Z 02008KT 10SM FEW250 28/12 A2994 RMK AO2 SLP143 T02830117,KRIC,2023-06-02T16:54:00Z,37.52,-77.32,28.3,11.7,20,8,,10.0,29.940945,1014.3,,,TRUE,,,,,,,FEW,25000,,,,,,,VFR,,,,,,,,,,,,METAR,51.0
KRFD 021654Z 08006KT 10SM FEW055 FEW250 30/17 A3008 RMK AO2 SLP181 T03000167 $,KRFD,2023-06-02T16:54:00Z,42.2,-89.1,30.0,16.7,80,6,,10.0,30.079725,1018.1,,,TRUE,TRUE,,,,,,FEW,5500,FEW,25000,,,,,VFR,,,,,,,,,,,,METAR,222.0
KRDG 021654Z 05004KT 10SM FEW085 33/12 A2990 RMK AO2 SLP128 T03330122,KRDG,2023-06-02T16:54:00Z,40.37,-75.97,33.3,12.2,50,4,,10.0,29.899607,1012.8,,,TRUE,,,,,,,FEW,8500,,,,,,,VFR,,,,,,,,,,,,METAR,101.0
KRBL 021654Z AUTO VRB04KT 10SM CLR 24/07 A2996 RMK AO2 SLP140 T02440067,KRBL,2023-06-02T16:54:00Z,40.15,-122.25,24.4,6.7,0,4,,10.0,29.958662,1014.0,,TRUE,TRUE,,,,,,,CLR,,,,,,,,VFR,,,,,,,,,,,,METAR,107.0
KPTW 021654Z AUTO VRB06KT 10SM CLR 32/13 A2992 RMK AO2 SLP128 T03220128,KPTW,2023-06-02T16:54:00Z,40.23,-75.55,32.2,12.8,0,6,,10.0,29.920275,1012.8,,TRUE,TRUE,,,,,,,CLR,,,,,,,,VFR,,,,,,,,,,,,METAR,88.0
KPSF 021654Z AUTO 33009KT 290V360 10SM CLR 31/13 A2993 RMK AO2 LTG DSNT NE-SE SLP106 T03110133,KPSF,2023-06-02T16:54:00Z,42.43,-73.28,31.1,13.3,330,9,,10.0,29.929134,1010.6,,TRUE,TRUE,,,,,,,CLR,,,,,,,,VFR,,,,,,,,,,,,METAR,352.0
KPNE 021654Z 13004KT 10SM CLR 33/14 A2991 RMK AO2 SLP127 T03280139,KPNE,2023-06-02T16:54:00Z,40.08,-75.02,32.8,13.9,130,4,,10.0,29.911417,1012.7,,,TRUE,,,,,,,CLR,,,,,,,,VFR,,,,,,,,,,,,METAR,32.0
KPLN 021654Z AUTO 05007KT 10SM CLR 29/12 A3013 RMK AO2 SLP202 T02940122,KPLN,2023-06-02T16:54:00Z,45.57,-84.8,29.4,12.2,50,7,,10.0,30.129921,1020.2,,TRUE,TRUE,,,,,,,CLR,,,,,,,,VFR,,,,,,,,,,,,METAR,215.0
KPIA 021654Z VRB04KT 10SM CLR 32/16 A3003 RMK AO2 SLP164 T03220161,KPIA,2023-06-02T16:54:00Z,40.67,-89.68,32.2,16.1,0,4,,10.0,30.029528,1016.4,,,TRUE,,,,,,,CLR,,,,,,,,VFR,,,,,,,,,,,,METAR,200.0
KPHL 021654Z 13006KT 10SM FEW080 32/13 A2989 RMK AO2 SLP122 T03220128,KPHL,2023-06-02T16:54:00Z,39.87,-75.23,32.2,12.8,130,6,,10.0,29.890747,1012.2,,,TRUE,,,,,,,FEW,8000,,,,,,,VFR,,,,,,,,,,,,METAR,2.0
KPHF 021654Z VRB06KT 10SM CLR 26/18 A2994 RMK AO2 SLP136 T02610183,KPHF,2023-06-02T16:54:00Z,37.13,-76.5,26.1,18.3,0,6,,10.0,29.940945,1013.6,,,TRUE,,,,,,,CLR,,,,,,,,VFR,,,,,,,,,,,,METAR,12.0
KORH 021654Z VRB04KT 10SM CLR 31/14 A2992 RMK AO2 LTG DSNT N SLP126 T03060144,KORH,2023-06-02T16:54:00Z,42.27,-71.87,30.6,14.4,0,4,,10.0,29.920275,1012.6,,,TRUE,,,,,,,CLR,,,,,,,,VFR,,,,,,,,,,,,METAR,306.0
KOLS 021654Z AUTO VRB04KT 10SM CLR 23/M01 A3002 RMK AO2 SLP104 T02331006 $,KOLS,2023-06-02T16:54:00Z,31.42,-110.85,23.3,-0.6,0,4,,10.0,30.02067,1010.4,,TRUE,TRUE,TRUE,,,,,,CLR,,,,,,,,VFR,,,,,,,,,,,,METAR,1194.0
KOLM 021654Z 00000KT 10SM CLR 14/06 A3013 RMK AO2 SLP204 T01390061,KOLM,2023-06-02T16:54:00Z,46.97,-122.9,13.9,6.1,0,0,,10.0,30.129921,1020.4,,,TRUE,,,,,,,CLR,,,,,,,,VFR,,,,,,,,,,,,METAR,58.0
KOFP 021654Z AUTO VRB06KT 9SM CLR 29/14 A2996 RMK AO2 SLP142 T02890139,KOFP,2023-06-02T16:54:00Z,37.7,-77.43,28.9,13.9,0,6,,9.0,29.958662,1014.2,,TRUE,TRUE,,,,,,,CLR,,,,,,,,VFR,,,,,,,,,,,,METAR,63.0
KNAK 021654Z AUTO 13010KT 10SM CLR 26/21 A2993 RMK AO2 SLP138 T02560206,KNAK,2023-06-02T16:54:00Z,38.98,-76.48,25.6,20.6,130,10,,10.0,29.929134,1013.8,,TRUE,TRUE,,,,,,,CLR,,,,,,,,VFR,,,,,,,,,,,,METAR,2.0
KMVL 021654Z AUTO 31008KT 280V340 10SM CLR 31/14 A2997 RMK AO2 SLP144 T03060139,KMVL,2023-06-02T16:54:00Z,44.53,-72.62,30.6,13.9,310,8,,10.0,29.970472,1014.4,,TRUE,TRUE,,,,,,,CLR,,,,,,,,VFR,,,,,,,,,,,,METAR,226.0
KMTP 021654Z AUTO VRB05KT 24/14 A2993 RMK AO1 SLP133 T02390144,KMTP,2023-06-02T16:54:00Z,41.07,-71.92,23.9,14.4,0,5,,,29.929134,1013.3,,TRUE,TRUE,,,,,,,,,,,,,,,,,,,,,,,,,,,METAR,2.0
KMRY 021654Z 29007KT 10SM BKN021 13/08 A3005 RMK AO2 SLP188 T01280083,KMRY,2023-06-02T16:54:00Z,36.58,-121.85,12.8,8.3,290,7,,10.0,30.050198,1018.8,,,TRUE,,,,,,,BKN,2100,,,,,,,MVFR,,,,,,,,,,,,METAR,51.0
KMOT 021654Z 11009KT 10SM CLR 28/17 A2993 RMK AO2 SLP126 T02780167,KMOT,2023-06-02T16:54:00Z,48.25,-101.27,27.8,16.7,110,9,,10.0,29.929134,1012.6,,,TRUE,,,,,,,CLR,,,,,,,,VFR,,,,,,,,,,,,METAR,507.0
KMKC 021654Z 15008G14KT 10SM CLR 30/19 A3000 RMK AO2 SLP149 T03000189,KMKC,2023-06-02T16:54:00Z,39.12,-94.6,30.0,18.9,150,8,14,10.0,30.0,1014.9,,,TRUE,,,,,,,CLR,,,,,,,,VFR,,,,,,,,,,,,METAR,228.0
KMIV 021654Z AUTO VRB03KT 10SM CLR 28/17 A2992 RMK AO2 SLP129 T02830172,KMIV,2023-06-02T16:54:00Z,39.37,-75.08,28.3,17.2,0,3,,10.0,29.920275,1012.9,,TRUE,TRUE,,,,,,,CLR,,,,,,,,VFR,,,,,,,,,,,,METAR,18.0
KMGJ 021654Z AUTO 05007KT 10SM CLR 32/14 A2990 RMK AO2 LTG DSNT W SLP122 T03170139,KMGJ,2023-06-02T16:54:00Z,41.52,-74.27,31.7,13.9,50,7,,10.0,29.899607,1012.2,,TRUE,TRUE,,,,,,,CLR,,,,,,,,VFR,,,,,,,,,,,,METAR,106.0
KMFI 021654Z AUTO 21007KT 10SM CLR 29/18 A3011 RMK AO2 SLP188 T02890178,KMFI,2023-06-02T16:54:00Z,44.63,-90.18,28.9,17.8,210,7,,10.0,30.109253,1018.8,,TRUE,TRUE,,,,,,,CLR,,,,,,,,VFR,,,,,,,,,,,,METAR,383.0
KMEM 021654Z 04006KT 10SM SCT045 SCT250 29/18 A2997 RMK AO2 SLP143 T02940178,KMEM,2023-06-02T16:54:00Z,35.07,-89.98,29.4,17.8,40,6,,10.0,29.970472,1014.3,,,TRUE,,,,,,,SCT,4500,SCT,25000,,,,,VFR,,,,,,,,,,,,METAR,78.0
KLYH 021654Z 04013G19KT 10SM CLR 28/12 A2997 RMK AO2 SLP140 T02830117,KLYH,2023-06-02T16:54:00Z,37.32,-79.2,28.3,11.7,40,13,19,10.0,29.970472,1014.0,,,TRUE,,,,,,,CLR,,,,,,,,VFR,,,,,,,,,,,,METAR,282.0
KLWM 021654Z VRB03KT 10SM CLR 32/16 A2989 RMK AO2 SLP119 T03220161 $,KLWM,2023-06-02T16:54:00Z,42.72,-71.13,32.2,16.1,0,3,,10.0,29.890747,1011.9,,,TRUE,TRUE,,,,,,CLR,,,,,,,,VFR,,,,,,,,,,,,METAR,42.0
KLNK 021654Z 20009KT 10SM CLR 29/18 A3001 RMK AO2 SLP150 T02940183,KLNK,2023-06-02T16:54:00Z,40.85,-96.77,29.4,18.3,200,9,,10.0,30.008858,1015.0,,,TRUE,,,,,,,CLR,,,,,,,,VFR,,,,,,,,,,,,METAR,357.0
KLEX 021654Z 02012KT 10SM CLR 31/11 A3002 RMK AO2 SLP154 T03060106,KLEX,2023-06-02T16:54:00Z,38.03,-84.6,30.6,10.6,20,12,,10.0,30.02067,1015.4,,,TRUE,,,,,,,CLR,,,,,,,,VFR,,,,,,,,,,,,METAR,294.0
KLAF 021654Z VRB05KT 10SM CLR 31/06 A3003 RMK AO2 SLP164 T03060061,KLAF,2023-06-02T16:54:00Z,40.42,-86.93,30.6,6.1,0,5,,10.0,30.029528,1016.4,,,TRUE,,,,,,,CLR,,,,,,,,VFR,,,,,,,,,,,,METAR,182.0
KJST 021654Z AUTO 05007G15KT 10SM CLR 28/06 A3006 RMK AO2 SLP162 T02780061,KJST,2023-06-02T16:54:00Z,40.32,-78.83,27.8,6.1,50,7,15,10.0,30.059055,1016.2,,TRUE,TRUE,,,,,,,CLR,,,,,,,,VFR,,,,,,,,,,,,METAR,695.0
KJAN 021654Z 06006KT 10SM SCT048 31/18 A2994 RMK AO2 SLP134 T03110178,KJAN,2023-06-02T16:54:00Z,32.32,-90.08,31.1,17.8,60,6,,10.0,29.940945,1013.4,,,TRUE,,,,,,,SCT,4800,,,,,,,VFR,,,,,,,,,,,,METAR,92.0
KIZG 021654Z AUTO 07004KT 10SM CLR 31/13 A2990 RMK AO2 SLP124 T03110128,KIZG,2023-06-02T16:54:00Z,43.98,-70.95,31.1,12.8,70,4,,10.0,29.899607,1012.4,,TRUE,TRUE,,,,,,,CLR,,,,,,,,VFR,,,,,,,,,,,,METAR,138.0
KISW 021654Z AUTO 15005KT 10SM CLR 29/18 A3011 RMK AO2 SLP191 T02940178,KISW,2023-06-02T16:54:00Z,44.37,-89.83,29.4,17.8,150,5,,10.0,30.109253,1019.1,,TRUE,TRUE,,,,,,,CLR,,,,,,,,VFR,,,,,,,,,,,,METAR,311.0
KIPT 021654Z 35008KT 10SM FEW090 34/11 A2995 RMK AO2 SLP136 T03390106,KIPT,2023-06-02T16:54:00Z,41.25,-76.92,33.9,10.6,350,8,,10.0,29.949802,1013.6,,,TRUE,,,,,,,FEW,9000,,,,,,,VFR,,,,,,,,,,,,METAR,160.0
KINT 021654Z 06011G18KT 10SM CLR 28/10 A2996 RMK AO2 SLP136 T02780100,KINT,2023-06-02T16:54:00Z,36.13,-80.22,27.8,10.0,60,11,18,10.0,29.958662,1013.6,,,TRUE,,,,,,,CLR,,,,,,,,VFR,,,,,,,,,,,,METAR,292.0
KINL 021654Z AUTO 15007KT 10SM SCT040 27/18 A3007 RMK AO2 SLP179 T02720178,KINL,2023-06-02T16:54:00Z,48.57,-93.4,27.2,17.8,150,7,,10.0,30.070866,1017.9,,TRUE,TRUE,,,,,,,SCT,4000,,,,,,,VFR,,,,,,,,,,,,METAR,353.0
KIND 021654Z 05009G17KT 10SM CLR 30/09 A3004 RMK AO2 SLP163 T03000094,KIND,2023-06-02T16:54:00Z,39.72,-86.27,30.0,9.4,50,9,17,10.0,30.041338,1016.3,,,TRUE,,,,,,,CLR,,,,,,,,VFR,,,,,,,,,,,,METAR,242.0
KIMT 021654Z AUTO 16007KT 10SM CLR 31/09 A3013 RMK AO2 SLP198 T03110094,KIMT,2023-06-02T16:54:00Z,45.82,-88.12,31.1,9.4,160,7,,10.0,30.129921,1019.8,,TRUE,TRUE,,,,,,,CLR,,,,,,,,VFR,,,,,,,,,,,,METAR,343.0
KILN 021654Z AUTO 07007KT 10SM CLR 31/10 A3002 RMK AO2 SLP157 T03060100,KILN,2023-06-02T16:54:00Z,39.43,-83.8,30.6,10.0,70,7,,10.0,30.02067,1015.7,,TRUE,TRUE,,,,,,,CLR,,,,,,,,VFR,,,,,,,,,,,,METAR,325.0
KHWD 021654Z VRB06KT 10SM CLR 16/09 A3001 RMK AO2 SLP172 T01560094,KHWD,2023-06-02T16:54:00Z,37.67,-122.12,15.6,9.4,0,6,,10.0,30.008858,1017.2,,,TRUE,,,,,,,CLR,,,,,,,,VFR,,,,,,,,,,,,METAR,9.0
KGSO 021654Z 04012KT 10SM FEW250 27/09 A2995 RMK AO2 SLP131 T02670094,KGSO,2023-06-02T16:54:00Z,36.1,-79.95,26.7,9.4,40,12,,10.0,29.949802,1013.1,,,TRUE,,,,,,,FEW,25000,,,,,,,VFR,,,,,,,,,,,,METAR,275.0
KGED 021654Z AUTO 34004KT 10SM CLR 29/12 A2992 RMK AO2 SLP132 T02890117,KGED,2023-06-02T16:54:00Z,38.68,-75.37,28.9,11.7,340,4,,10.0,29.920275,1013.2,,TRUE,TRUE,,,,,,,CLR,,,,,,,,VFR,,,,,,,,,,,,METAR,15.0
KGCN 021654Z VRB06KT 10SM FU SCT120 19/02 A3012 RMK AO2 SLP112 T01940017,KGCN,2023-06-02T16:54:00Z,35.95,-112.15,19.4,1.7,0,6,,10.0,30.121063,1011.2,,,TRUE,,,,,,FU,SCT,12000,,,,,,,VFR,,,,,,,,,,,,METAR,1993.0
KGCK 021654Z 11014KT 10SM CLR 18/14 A2995 RMK AO2 SLP119 T01780139,KGCK,2023-06-02T16:54:00Z,37.92,-100.72,17.8,13.9,110,14,,10.0,29.949802,1011.9,,,TRUE,,,,,,,CLR,,,,,,,,VFR,,,,,,,,,,,,METAR,877.0
KFZY 021654Z AUTO 32006KT 10SM CLR 25/17 A3000 RMK AO2 SLP158 T02500172,KFZY,2023-06-02T16:54:00Z,43.35,-76.38,25.0,17.2,320,6,,10.0,30.0,1015.8,,TRUE,TRUE,,,,,,,CLR,,,,,,,,VFR,,,,,,,,,,,,METAR,143.0
KFWA 021654Z 06012G18KT 10SM FEW080 FEW300 32/09 A3007 RMK AO2 SLP178 T03170094,KFWA,2023-06-02T16:54:00Z,40.98,-85.2,31.7,9.4,60,12,18,10.0,30.070866,1017.8,,,TRUE,,,,,,,FEW,8000,FEW,30000,,,,,VFR,,,,,,,,,,,,METAR,243.0
KFIG 021654Z AUTO 07009KT 10SM SCT085 31/09 A3004 RMK AO2 SLP163 T03060094,KFIG,2023-06-02T16:54:00Z,41.05,-78.42,30.6,9.4,70,9,,10.0,30.041338,1016.3,,TRUE,TRUE,,,,,,,SCT,8500,,,,,,,VFR,,,,,,,,,,,,METAR,461.0
KFFZ 021654Z 10SM CLR 27/04 A2990 RMK AO2 SLP103 T02720039,KFFZ,2023-06-02T16:54:00Z,33.47,-111.72,27.2,3.9,,,,10.0,29.899607,1010.3,,,TRUE,,,,,,,CLR,,,,,,,,VFR,,,,,,,,,,,,METAR,420.0
KEWN 021654Z 04011KT 10SM BKN022 OVC028 24/19 A2989 RMK AO2 SLP122 T02440189,KEWN,2023-06-02T16:54:00Z,35.07,-77.05,24.4,18.9,40,11,,10.0,29.890747,1012.2,,,TRUE,,,,,,,BKN,2200,OVC,2800,,,,,MVFR,,,,,,,,,,,,METAR,3.0
KEVV 021654Z 10SM CLR 32/14 A2999 RMK AO2 SLP150 T03170139 $,KEVV,2023-06-02T16:54:00Z,38.05,-87.52,31.7,13.9,,,,10.0,29.991142,1015.0,,,TRUE,TRUE,,,,,,CLR,,,,,,,,VFR,,,,,,,,,,,,METAR,123.0
KEUG 021654Z 31004KT 10SM CLR 15/07 A3013 RMK AO2 SLP203 T01500067,KEUG,2023-06-02T16:54:00Z,44.13,-123.22,15.0,6.7,310,4,,10.0,30.129921,1020.3,,,TRUE,,,,,,,CLR,,,,,,,,VFR,,,,,,,,,,,,METAR,109.0
KDYL 021654Z AUTO VRB03KT 10SM CLR 33/13 A2991 RMK AO2 SLP121 T03330128,KDYL,2023-06-02T16:54:00Z,40.33,-75.12,33.3,12.8,0,3,,10.0,29.911417,1012.1,,TRUE,TRUE,,,,,,,CLR,,,,,,,,VFR,,,,,,,,,,,,METAR,121.0
KDSV 021654Z AUTO VRB06KT 10SM CLR 33/12 A3001 RMK AO2 SLP166 T03280122,KDSV,2023-06-02T16:54:00Z,42.57,-77.72,32.8,12.2,0,6,,10.0,30.008858,1016.6,,TRUE,TRUE,,,,,,,CLR,,,,,,,,VFR,,,,,,,,,,,,METAR,195.0
KDSM 021654Z VRB03KT 10SM FEW035 FEW250 28/20 A3004 RMK AO2 SLP165 TCU DSNT SE T02830200,KDSM,2023-06-02T16:54:00Z,41.53,-93.67,28.3,20.0,0,3,,10.0,30.041338,1016.5,,,TRUE,,,,,,,FEW,3500,FEW,25000,,,,,VFR,,,,,,,,,,,,METAR,286.0
KDMH 021654Z AUTO 33/13 A2992 RMK AO1 SLP130 T03330128,KDMH,2023-06-02T16:54:00Z,39.28,-76.62,33.3,12.8,,,,,29.920275,1013.0,,TRUE,TRUE,,,,,,,,,,,,,,,,,,,,,,,,,,,METAR,4.0
KDEC 021654Z 06008KT 10SM CLR 32/15 A3003 RMK AO2 SLP163 T03220150,KDEC,2023-06-02T16:54:00Z,39.83,-88.87,32.2,15.0,60,8,,10.0,30.029528,1016.3,,,TRUE,,,,,,,CLR,,,,,,,,VFR,,,,,,,,,,,,METAR,205.0
KDDH 021654Z AUTO 34010KT 10SM CLR 30/ A2994 RMK AO2 LTG DSNT E AND SE SLP132 T0300 $,KDDH,2023-06-02T16:54:00Z,42.9,-73.25,30.0,,340,10,,10.0,29.940945,1013.2,,TRUE,TRUE,TRUE,,,,,,CLR,,,,,,,,VFR,,,,,,,,,,,,METAR,241.0
KCRW 021654Z 09004KT 10SM CLR 28/12 A3001 RMK AO2 SLP153 T02830117 $,KCRW,2023-06-02T16:54:00Z,38.38,-81.58,28.3,11.7,90,4,,10.0,30.008858,1015.3,,,TRUE,TRUE,,,,,,CLR,,,,,,,,VFR,,,,,,,,,,,,METAR,278.0
KCOU 021654Z 11006KT 10SM CLR 31/18 A3002 RMK AO2 SLP157 T03060183,KCOU,2023-06-02T16:54:00Z,38.82,-92.22,30.6,18.3,110,6,,10.0,30.02067,1015.7,,,TRUE,,,,,,,CLR,,,,,,,,VFR,,,,,,,,,,,,METAR,272.0
KCOS 021654Z 16008KT 10SM FEW085 SCT180 BKN250 19/06 A3001 RMK AO2 SLP102 T01890056,KCOS,2023-06-02T16:54:00Z,38.82,-104.68,18.9,5.6,160,8,,10.0,30.008858,1010.2,,,TRUE,,,,,,,FEW,8500,SCT,18000,BKN,25000,,,VFR,,,,,,,,,,,,METAR,1886.0
KCEU 021654Z AUTO VRB04KT 10SM FEW049 27/16 A2995 RMK AO2 SLP130 T02720161,KCEU,2023-06-02T16:54:00Z,34.67,-82.88,27.2,16.1,0,4,,10.0,29.949802,1013.0,,TRUE,TRUE,,,,,,,FEW,4900,,,,,,,VFR,,,,,,,,,,,,METAR,270.0
KBWI 021654Z 00000KT 10SM CLR 33/11 A2991 RMK AO2 SLP128 T03330111,KBWI,2023-06-02T16:54:00Z,39.17,-76.68,33.3,11.1,0,0,,10.0,29.911417,1012.8,,,TRUE,,,,,,,CLR,,,,,,,,VFR,,,,,,,,,,,,METAR,42.0
KBUY 021654Z AUTO 03009G15KT 10SM CLR 27/13 A2994 RMK AO2 SLP133 T02670128,KBUY,2023-06-02T16:54:00Z,36.05,-79.47,26.7,12.8,30,9,15,10.0,29.940945,1013.3,,TRUE,TRUE,,,,,,,CLR,,,,,,,,VFR,,,,,,,,,,,,METAR,185.0
KBUF 021654Z 30004G15KT 10SM FEW100 FEW170 SCT250 BKN300 31/12 A3003 RMK AO2 SLP163 T03110122,KBUF,2023-06-02T16:54:00Z,42.93,-78.73,31.1,12.2,300,4,15,10.0,30.029528,1016.3,,,TRUE,,,,,,,FEW,10000,FEW,17000,SCT,25000,BKN,30000,VFR,,,,,,,,,,,,METAR,217.0
KBTV 021654Z 34011KT 10SM FEW090 SCT170 30/14 A2996 RMK AO2 SLP142 T03000144,KBTV,2023-06-02T16:54:00Z,44.47,-73.15,30.0,14.4,340,11,,10.0,29.958662,1014.2,,,TRUE,,,,,,,FEW,9000,SCT,17000,,,,,VFR,,,,,,,,,,,,METAR,101.0
KBOS 021654Z 13008KT 10SM FEW050 FEW150 FEW250 26/16 A2988 RMK AO2 SLP118 T02610161,KBOS,2023-06-02T16:54:00Z,42.37,-71.02,26.1,16.1,130,8,,10.0,29.878937,1011.8,,,TRUE,,,,,,,FEW,5000,FEW,15000,FEW,25000,,,VFR,,,,,,,,,,,,METAR,4.0
KBFL 021654Z VRB05KT 5SM HZ CLR 22/07 A2995 RMK AO2 SLP138 T02220072,KBFL,2023-06-02T16:54:00Z,35.43,-119.05,22.2,7.2,0,5,,5.0,29.949802,1013.8,,,TRUE,,,,,,HZ,CLR,,,,,,,,MVFR,,,,,,,,,,,,METAR,146.0
KAVP 021654Z 35009KT 310V020 10SM CLR 33/12 A2996 RMK AO2 SLP134 T03280122,KAVP,2023-06-02T16:54:00Z,41.33,-75.72,32.8,12.2,350,9,,10.0,29.958662,1013.4,,,TRUE,,,,,,,CLR,,,,,,,,VFR,,,,,,,,,,,,METAR,290.0
KAVL 021654Z VRB04KT 10SM CLR 26/14 A3000 RMK AO2 SLP135 T02560139,KAVL,2023-06-02T16:54:00Z,35.43,-82.53,25.6,13.9,0,4,,10.0,30.0,1013.5,,,TRUE,,,,,,,CLR,,,,,,,,VFR,,,,,,,,,,,,METAR,646.0
KAUW 021654Z AUTO 18003KT 10SM SCT090 30/16 A3010 RMK AO2 SLP189 T03000156,KAUW,2023-06-02T16:54:00Z,44.93,-89.62,30.0,15.6,180,3,,10.0,30.100393,1018.9,,TRUE,TRUE,,,,,,,SCT,9000,,,,,,,VFR,,,,,,,,,,,,METAR,367.0
KAPN 021654Z AUTO VRB04KT 10SM CLR 31/11 A3013 RMK AO2 SLP201 T03060106,KAPN,2023-06-02T16:54:00Z,45.07,-83.57,30.6,10.6,0,4,,10.0,30.129921,1020.1,,TRUE,TRUE,,,,,,,CLR,,,,,,,,VFR,,,,,,,,,,,,METAR,208.0
KAPC 021654Z COR 23008KT 10SM SCT020 16/10 A3000 RMK AO2 SLP151 T01610100,KAPC,2023-06-02T16:54:00Z,38.2,-122.28,16.1,10.0,230,8,,10.0,30.0,1015.1,TRUE,,TRUE,,,,,,,SCT,2000,,,,,,,VFR,,,,,,,,,,,,METAR,5.0
KALO 021654Z 14011G15KT 10SM CLR 30/19 A3006 RMK AO2 SLP171 T03000189,KALO,2023-06-02T16:54:00Z,42.55,-92.4,30.0,18.9,140,11,15,10.0,30.059055,1017.1,,,TRUE,,,,,,,CLR,,,,,,,,VFR,,,,,,,,,,,,METAR,264.0
KAKR 021654Z AUTO 02012KT 5SM HZ CLR 32/10 A3003 RMK AO2 SLPNO T03170100 PWINO,KAKR,2023-06-02T16:54:00Z,41.03,-81.47,31.7,10.0,20,12,,5.0,30.029528,,,TRUE,TRUE,,,,,TRUE,HZ,CLR,,,,,,,,MVFR,,,,,,,,,,,,METAR,319.0
KAKQ 021654Z AUTO VRB04KT 10SM BKN030 26/19 A2993 RMK AO2 SLP134 T02610189,KAKQ,2023-06-02T16:54:00Z,36.98,-77.0,26.1,18.9,0,4,,10.0,29.929134,1013.4,,TRUE,TRUE,,,,,,,BKN,3000,,,,,,,MVFR,,,,,,,,,,,,METAR,34.0
KAKH 021654Z AUTO 04008G18KT 10SM CLR 27/16 A2994 RMK AO2 SLP132 T02720156,KAKH,2023-06-02T16:54:00Z,35.2,-81.15,27.2,15.6,40,8,18,10.0,29.940945,1013.2,,TRUE,TRUE,,,,,,,CLR,,,,,,,,VFR,,,,,,,,,,,,METAR,242.0
KACY 021654Z VRB06KT 10SM CLR 29/13 A2991 RMK AO2 SLP129 T02890133,KACY,2023-06-02T16:54:00Z,39.45,-74.57,28.9,13.3,0,6,,10.0,29.911417,1012.9,,,TRUE,,,,,,,CLR,,,,,,,,VFR,,,,,,,,,,,,METAR,18.0
KAAO 021654Z AUTO 15012G17KT 10SM CLR 28/18 A2998 RMK AO2 SLP141 T02830178,KAAO,2023-06-02T16:54:00Z,37.75,-97.22,28.3,17.8,150,12,17,10.0,29.97933,1014.1,,TRUE,TRUE,,,,,,,CLR,,,,,,,,VFR,,,,,,,,,,,,METAR,429.0
K1V4 021654Z AUTO 26/14 A2994 RMK AO1 SLP128 T02610144,K1V4,2023-06-02T16:54:00Z,44.42,-72.02,26.1,14.4,,,,,29.940945,1012.8,,TRUE,TRUE,,,,,,,,,,,,,,,,,,,,,,,,,,,METAR,213.0
K12N 021654Z AUTO VRB03KT 34/13 A2992 RMK AO1 SLP121 T03440133,K12N,2023-06-02T16:54:00Z,41.02,-74.73,34.4,13.3,0,3,,,29.920275,1012.1,,TRUE,TRUE,,,,,,,,,,,,,,,,,,,,,,,,,,,METAR,178.0
TJNR 021653Z AUTO 15011KT 10SM BKN017 30/26 A2993 RMK AO2 SLP135 T03000256,TJNR,2023-06-02T16:53:00Z,18.25,-65.63,30.0,25.6,150,11,,10.0,29.929134,1013.5,,TRUE,TRUE,,,,,,,BKN,1700,,,,,,,MVFR,,,,,,,,,,,,SPECI,7.0
TISX 021653Z 13012KT 10SM FEW020 SCT035 31/24 A2994 RMK AO2 SLP136 T03110244,TISX,2023-06-02T16:53:00Z,17.7,-64.8,31.1,24.4,130,12,,10.0,29.940945,1013.6,,,TRUE,,,,,,,FEW,2000,SCT,3500,,,,,VFR,,,,,,,,,,,,METAR,16.0
PHNL 021653Z 02007KT 10SM FEW025 SCT040 SCT080 25/20 A3010 RMK AO2 SLP193 T02500200 $,PHNL,2023-06-02T16:53:00Z,21.33,-157.93,25.0,20.0,20,7,,10.0,30.100393,1019.3,,,TRUE,TRUE,,,,,,FEW,2500,SCT,4000,SCT,8000,,,VFR,,,,,,,,,,,,METAR,2.0
PHLI 021653Z 06012KT 10SM SCT016 BKN036 OVC090 24/22 A3014 RMK AO2 RAB14E35 SLP202 P0004 T02390217 $,PHLI,2023-06-02T16:53:00Z,21.97,-159.33,23.9,21.7,60,12,,10.0,30.138779,1020.2,,,TRUE,TRUE,,,,,,SCT,1600,BKN,3600,OVC,9000,,,VFR,,,,,,0.04,,,,,,METAR,32.0
PHKO 021653Z 15010KT 10SM SCT045 OVC070 24/21 A3007 RMK AO2 SLP182 T02440206,PHKO,2023-06-02T16:53:00Z,19.73,-156.05,24.4,20.6,150,10,,10.0,30.070866,1018.2,,,TRUE,,,,,,,SCT,4500,OVC,7000,,,,,VFR,,,,,,,,,,,,METAR,11.0
PHJR 021653Z 04005KT 10SM SCT085 24/18 A3012 RMK AO2 SLP204 T02440183,PHJR,2023-06-02T16:53:00Z,21.32,-158.07,24.4,18.3,40,5,,10.0,30.121063,1020.4,,,TRUE,,,,,,,SCT,8500,,,,,,,VFR,,,,,,,,,,,,METAR,9.0
PAYA 021653Z AUTO 11003KT 10SM OVC060 10/04 A3000 RMK AO2 SLP160 T01000044 TSNO,PAYA,2023-06-02T16:53:00Z,59.52,-139.67,10.0,4.4,110,3,,10.0,30.0,1016.0,,TRUE,TRUE,,,TRUE,,,,OVC,6000,,,,,,,VFR,,,,,,,,,,,,METAR,9.0
PAWD 021653Z AUTO 19008KT 10SM FEW027 BKN034 OVC050 07/04 A2999 RMK AO2 SLP155 T00720039 TSNO,PAWD,2023-06-02T16:53:00Z,60.12,-149.42,7.2,3.9,190,8,,10.0,29.991142,1015.5,,TRUE,TRUE,,,TRUE,,,,FEW,2700,BKN,3400,OVC,5000,,,VFR,,,,,,,,,,,,METAR,3.0
PATK 021653Z 17010KT 10SM BKN024 BKN030 OVC035 06/04 A2988 RMK AO2 SLP121 T00610039,PATK,2023-06-02T16:53:00Z,62.32,-150.1,6.1,3.9,170,10,,10.0,29.878937,1012.1,,,TRUE,,,,,,,BKN,2400,BKN,3000,OVC,3500,,,MVFR,,,,,,,,,,,,METAR,107.0
PASO 021653Z AUTO 18008KT 10SM OVC055 08/07 A2995 RMK AO2 RAB06E40 SLP141 P0000 T00780067 TSNO,PASO,2023-06-02T16:53:00Z,59.45,-151.7,7.8,6.7,180,8,,10.0,29.949802,1014.1,,TRUE,TRUE,,,TRUE,,,,OVC,5500,,,,,,,VFR,,,,,,0.005,,,,,,METAR,20.0
PASN 021653Z AUTO 12012KT 10SM OVC070 04/03 A2969 RMK AO2 SLP054 T00440028 TSNO $,PASN,2023-06-02T16:53:00Z,57.15,-170.22,4.4,2.8,120,12,,10.0,29.68996,1005.4,,TRUE,TRUE,TRUE,,TRUE,,,,OVC,7000,,,,,,,VFR,,,,,,,,,,,,METAR,8.0
PASI 021653Z 13010KT 10SM SCT039 BKN080 12/06 A2994 RMK AO2 SLP138 T01220061 $,PASI,2023-06-02T16:53:00Z,57.03,-135.35,12.2,6.1,130,10,,10.0,29.940945,1013.8,,,TRUE,TRUE,,,,,,SCT,3900,BKN,8000,,,,,VFR,,,,,,,,,,,,METAR,2.0
PASC 021653Z 06013KT 3SM -SN BR BKN010 BKN046 OVC070 M01/M03 A2965 RMK AO2 SLP040 SNB47 P0000 T10111033,PASC,2023-06-02T16:53:00Z,70.2,-148.47,-1.1,-3.3,60,13,,3.0,29.648623,1004.0,,,TRUE,,,,,,-SN BR,BKN,1000,BKN,4600,OVC,7000,,,MVFR,,,,,,0.005,,,,,,METAR,17.0
PAQT 021653Z AUTO 09014KT 10SM OVC010 M02/M04 A2969 RMK AO2 SLP053 T10171039 $,PAQT,2023-06-02T16:53:00Z,70.22,-151.0,-1.7,-3.9,90,14,,10.0,29.68996,1005.3,,TRUE,TRUE,TRUE,,,,,,OVC,1000,,,,,,,MVFR,,,,,,,,,,,,METAR,11.0
PAPB 021653Z AUTO 14015KT 6SM -RA BKN014 OVC028 07/03 A2967 RMK AO2 PK WND 14027/1625 RAB1558E09B32 SLP036 P0000 T00720033 TSNO $,PAPB,2023-06-02T16:53:00Z,56.58,-169.67,7.2,3.3,140,15,,6.0,29.66929,1003.6,,TRUE,TRUE,TRUE,,TRUE,,,-RA,BKN,1400,OVC,2800,,,,,MVFR,,,,,,0.005,,,,,,SPECI,33.0
PAOT 021653Z 23010KT 9SM OVC060 M03/M04 A2982 RMK AO2 SLP099 T10331039,PAOT,2023-06-02T16:53:00Z,66.88,-162.6,-3.3,-3.9,230,10,,9.0,29.819881,1009.9,,,TRUE,,,,,,,OVC,6000,,,,,,,VFR,,,,,,,,,,,,METAR,3.0
PAOR 021653Z 01004KT 10SM FEW060 09/00 A2982 RMK AO2 SLP105 T00940000,PAOR,2023-06-02T16:53:00Z,62.97,-141.93,9.4,0.0,10,4,,10.0,29.819881,1010.5,,,TRUE,,,,,,,FEW,6000,,,,,,,VFR,,,,,,,,,,,,METAR,524.0
PAOM 021653Z 11008KT 10SM SCT013 OVC060 00/M03 A2986 RMK AO2 SLP110 T00001028,PAOM,2023-06-02T16:53:00Z,64.5,-165.43,0.0,-2.8,110,8,,10.0,29.861221,1011.0,,,TRUE,,,,,,,SCT,1300,OVC,6000,,,,,VFR,,,,,,,,,,,,METAR,6.0
PANN 021653Z AUTO 10SM BKN060 04/02 A2982 RMK AO2 SLP106 T00440017 TSNO,PANN,2023-06-02T16:53:00Z,64.55,-149.08,4.4,1.7,,,,10.0,29.819881,1010.6,,TRUE,TRUE,,,TRUE,,,,BKN,6000,,,,,,,VFR,,,,,,,,,,,,METAR,110.0
PANC 021653Z 15012G20KT 10SM OVC041 08/03 A2990 RMK AO2 RAE41 SLP125 P0000 T00780028,PANC,2023-06-02T16:53:00Z,61.17,-150.02,7.8,2.8,150,12,20,10.0,29.899607,1012.5,,,TRUE,,,,,,,OVC,4100,,,,,,,VFR,,,,,,0.005,,,,,,METAR,39.0
PAMR 021653Z 15007KT 10SM -RA OVC038 09/01 A2990 RMK AO2 RAB1554E03B44 SLP127 P0000 T00940011,PAMR,2023-06-02T16:53:00Z,61.22,-149.85,9.4,1.1,150,7,,10.0,29.899607,1012.7,,,TRUE,,,,,,-RA,OVC,3800,,,,,,,VFR,,,,,,0.005,,,,,,METAR,43.0
PAMC 021653Z AUTO 27003KT 10SM OVC050 03/M01 A2991 RMK AO2 SLP133 T00331011 TSNO,PAMC,2023-06-02T16:53:00Z,62.97,-155.62,3.3,-1.1,270,3,,10.0,29.911417,1013.3,,TRUE,TRUE,,,TRUE,,,,OVC,5000,,,,,,,VFR,,,,,,,,,,,,METAR,101.0
PALH 021653Z 17007KT 10SM -RA OVC042 08/02 A2991 RMK AO2 RAB01E23B51 SLP129 P0000 T00830022,PALH,2023-06-02T16:53:00Z,61.18,-149.97,8.3,2.2,170,7,,10.0,29.911417,1012.9,,,TRUE,,,,,,-RA,OVC,4200,,,,,,,VFR,,,,,,0.005,,,,,,METAR,26.0
PAKW 021653Z AUTO VRB05KT 10SM FEW025 SCT036 OVC050 13/08 A2992 RMK AO2 RAB15E25 SLP132 P0000 T01280083 TSNO $,PAKW,2023-06-02T16:53:00Z,55.58,-133.07,12.8,8.3,0,5,,10.0,29.920275,1013.2,,TRUE,TRUE,TRUE,,TRUE,,,,FEW,2500,SCT,3600,OVC,5000,,,VFR,,,,,,0.005,,,,,,METAR,7.0
PAKV 021653Z AUTO 25004KT 10SM OVC120 01/M07 A2992 RMK AO2 SLP133 T00111072 TSNO $,PAKV,2023-06-02T16:53:00Z,64.33,-158.72,1.1,-7.2,250,4,,10.0,29.920275,1013.3,,TRUE,TRUE,TRUE,,TRUE,,,,OVC,12000,,,,,,,VFR,,,,,,,,,,,,METAR,53.0
PAKT 021653Z COR 16008KT 6SM -RA BR SCT010 SCT022 OVC035 11/08 A2999 RMK AO2 SLP156 HARBOR WIND 11015KT P0008 T01060083,PAKT,2023-06-02T16:53:00Z,55.35,-131.72,10.6,8.3,160,8,,6.0,29.991142,1015.6,TRUE,,TRUE,,,,,,-RA BR,SCT,1000,SCT,2200,OVC,3500,,,VFR,,-1.5,,,,0.08,,,,,,METAR,27.0
PAJN 021653Z 26003KT 10SM > FEW006 SCT050 BKN110 OVC220 10/07 A3001 RMK AO2 SLP163 T01000072,PAJN,2023-06-02T16:53:00Z,58.35,-134.55,10.0,7.2,260,3,,10.0,30.008858,1016.3,,,TRUE,,,,,,,FEW,600,SCT,5000,BKN,11000,OVC,22000,VFR,,,,,,,,,,,,METAR,6.0
PAIL 021653Z 00000KT 10SM BKN017 OVC024 04/03 A2998 RMK AO2 SLP152 T00440028,PAIL,2023-06-02T16:53:00Z,59.75,-154.92,4.4,2.8,0,0,,10.0,29.97933,1015.2,,,TRUE,,,,,,,BKN,1700,OVC,2400,,,,,MVFR,,,,,,,,,,,,METAR,44.0
PAHO 021653Z 18004KT 10SM SCT033 OVC055 09/04 A2995 RMK AO2 RAB30E44 SLP143 P0000 T00890039,PAHO,2023-06-02T16:53:00Z,59.63,-151.48,8.9,3.9,180,4,,10.0,29.949802,1014.3,,,TRUE,,,,,,,SCT,3300,OVC,5500,,,,,VFR,,,,,,0.005,,,,,,METAR,6.0
PAGY 021653Z AUTO 22005KT 10SM OVC080 09/06 A3000 RMK AO2 SLP159 T00940061 TSNO,PAGY,2023-06-02T16:53:00Z,59.47,-135.32,9.4,6.1,220,5,,10.0,30.0,1015.9,,TRUE,TRUE,,,TRUE,,,,OVC,8000,,,,,,,VFR,,,,,,,,,,,,METAR,7.0
PAFA 021653Z 20006KT 6SM -RA BR FEW010 BKN017 OVC030 05/03 A2983 RMK AO2 DZB22E50RAB50 SLP107 P0000 T00500028,PAFA,2023-06-02T16:53:00Z,64.8,-147.87,5.0,2.8,200,6,,6.0,29.828741,1010.7,,,TRUE,,,,,,-RA BR,FEW,1000,BKN,1700,OVC,3000,,,MVFR,,,,,,0.005,,,,,,METAR,130.0
PAEN 021653Z 20015KT 10SM OVC023 08/04 A2990 RMK AO2 SLP127 T00830044,PAEN,2023-06-02T16:53:00Z,60.57,-151.25,8.3,4.4,200,15,,10.0,29.899607,1012.7,,,TRUE,,,,,,,OVC,2300,,,,,,,MVFR,,,,,,,,,,,,METAR,30.0
PAEG 021653Z AUTO VRB04KT 10SM OVC100 10/00 A2977 RMK AO2 SLP084 T01000000 TSNO,PAEG,2023-06-02T16:53:00Z,64.78,-141.15,10.0,0.0,0,4,,10.0,29.769686,1008.4,,TRUE,TRUE,,,TRUE,,,,OVC,10000,,,,,,,VFR,,,,,,,,,,,,METAR,273.0
PADE 021653Z AUTO 21004KT 10SM OVC050 00/M06 A2983 RMK AO2 SLP103 T00001061 TSNO $,PADE,2023-06-02T16:53:00Z,66.07,-162.77,0.0,-6.1,210,4,,10.0,29.828741,1010.3,,TRUE,TRUE,TRUE,,TRUE,,,,OVC,5000,,,,,,,VFR,,,,,,,,,,,,METAR,5.0
PACV 021653Z VRB03KT 10SM FEW050 OVC070 10/04 A3001 RMK AO2 SLP162 T01000044,PACV,2023-06-02T16:53:00Z,60.5,-145.47,10.0,4.4,0,3,,10.0,30.008858,1016.2,,,TRUE,,,,,,,FEW,5000,OVC,7000,,,,,VFR,,,,,,,,,,,,METAR,15.0
PACD 021653Z 15019G25KT 10SM CLR 06/03 A2987,PACD,2023-06-02T16:53:00Z,55.22,-162.72,6.0,3.0,150,19,25,10.0,29.870079,,,,,,,,,,,CLR,,,,,,,,VFR,,,,,,,,,,,,METAR,23.0
PABT 021653Z 22010KT 10SM FEW005 BKN018 BKN080 01/M03 A2973 RMK AO2 SLP081 T00061028,PABT,2023-06-02T16:53:00Z,66.92,-151.52,0.6,-2.8,220,10,,10.0,29.731298,1008.1,,,TRUE,,,,,,,FEW,500,BKN,1800,BKN,8000,,,MVFR,,,,,,,,,,,,METAR,195.0
PAAQ 021653Z 34005KT 10SM OVC060 08/04 A2990 RMK AO2 RAB1554E35 SLP129 P0000 T00830039,PAAQ,2023-06-02T16:53:00Z,61.6,-149.08,8.3,3.9,340,5,,10.0,29.899607,1012.9,,,TRUE,,,,,,,OVC,6000,,,,,,,VFR,,,,,,0.005,,,,,,METAR,68.0
MMLM 021653Z 11007KT 10SM SCT018 OVC220 27/18 A2988 RMK 8/107,MMLM,2023-06-02T16:53:00Z,25.68,-109.08,27.0,18.0,110,7,,10.0,29.878937,,,,,,,,,,,SCT,1800,OVC,22000,,,,,VFR,,,,,,,,,,,,METAR,6.0
KZZV 021653Z AUTO 03004KT 10SM CLR 30/14 A3003 RMK AO2 SLP162 T03000139,KZZV,2023-06-02T16:53:00Z,39.95,-81.9,30.0,13.9,30,4,,10.0,30.029528,1016.2,,TRUE,TRUE,,,,,,,CLR,,,,,,,,VFR,,,,,,,,,,,,METAR,268.0
KYKM 021653Z AUTO 26004KT 10SM CLR 20/04 A3003 RMK AO2 SLP164 T02000044,KYKM,2023-06-02T16:53:00Z,46.57,-120.53,20.0,4.4,260,4,,10.0,30.029528,1016.4,,TRUE,TRUE,,,,,,,CLR,,,,,,,,VFR,,,,,,,,,,,,METAR,319.0
KYIP 021653Z 05009KT 10SM CLR 32/11 A3008 RMK AO2 SLP179 T03170111,KYIP,2023-06-02T16:53:00Z,42.23,-83.53,31.7,11.1,50,9,,10.0,30.079725,1017.9,,,TRUE,,,,,,,CLR,,,,,,,,VFR,,,,,,,,,,,,METAR,215.0
KXNA 021653Z 18005KT 10SM BKN049 28/16 A3002 RMK AO2 SLP152 T02780161,KXNA,2023-06-02T16:53:00Z,36.28,-94.3,27.8,16.1,180,5,,10.0,30.02067,1015.2,,,TRUE,,,,,,,BKN,4900,,,,,,,VFR,,,,,,,,,,,,METAR,390.0
KWVI 021653Z AUTO 00000KT 10SM OVC018 13/08 A3004 RMK AO2 SLP172 T01330083,KWVI,2023-06-02T16:53:00Z,36.93,-121.78,13.3,8.3,0,0,,10.0,30.041338,1017.2,,TRUE,TRUE,,,,,,,OVC,1800,,,,,,,MVFR,,,,,,,,,,,,METAR,47.0
KWST 021653Z AUTO 26007KT 10SM CLR 25/14 A2991 RMK AO2 SLP128 T02500144,KWST,2023-06-02T16:53:00Z,41.35,-71.8,25.0,14.4,260,7,,10.0,29.911417,1012.8,,TRUE,TRUE,,,,,,,CLR,,,,,,,,VFR,,,,,,,,,,,,METAR,20.0
KWRL 021653Z AUTO 33010KT 10SM OVC017 14/11 A2993 RMK AO2 SLP114 T01390106,KWRL,2023-06-02T16:53:00Z,43.97,-107.95,13.9,10.6,330,10,,10.0,29.929134,1011.4,,TRUE,TRUE,,,,,,,OVC,1700,,,,,,,MVFR,,,,,,,,,,,,METAR,1281.0
KVUO 021653Z AUTO 28004KT 10SM CLR 14/07 A3015 RMK AO2 SLP208 T01440072,KVUO,2023-06-02T16:53:00Z,45.62,-122.65,14.4,7.2,280,4,,10.0,30.15059,1020.8,,TRUE,TRUE,,,,,,,CLR,,,,,,,,VFR,,,,,,,,,,,,METAR,7.0
KVRB 021653Z 06007G14KT 10SM CLR 29/22 A2980 RMK AO2 SLP089 T02890217,KVRB,2023-06-02T16:53:00Z,27.65,-80.42,28.9,21.7,60,7,14,10.0,29.799213,1008.9,,,TRUE,,,,,,,CLR,,,,,,,,VFR,,,,,,,,,,,,METAR,7.0
KVLD 021653Z 01010KT 10SM BKN040 BKN049 29/18 A2986 RMK AO1 SLP117 T02890178,KVLD,2023-06-02T16:53:00Z,30.78,-83.27,28.9,17.8,10,10,,10.0,29.861221,1011.7,,,TRUE,,,,,,,BKN,4000,BKN,4900,,,,,VFR,,,,,,,,,,,,METAR,59.0
KVIH 021653Z AUTO 10SM SCT050 31/17 A3003 RMK AO2 SLP158 T03060167,KVIH,2023-06-02T16:53:00Z,38.13,-91.77,30.6,16.7,,,,10.0,30.029528,1015.8,,TRUE,TRUE,,,,,,,SCT,5000,,,,,,,VFR,,,,,,,,,,,,METAR,342.0
KVGT 021653Z 15004KT 10SM CLR 28/04 A2989 RMK AO2 SLP110 T02830044,KVGT,2023-06-02T16:53:00Z,36.22,-115.2,28.3,4.4,150,4,,10.0,29.890747,1011.0,,,TRUE,,,,,,,CLR,,,,,,,,VFR,,,,,,,,,,,,METAR,664.0
KVEL 021653Z AUTO 08004KT 10SM -RA OVC065 13/10 A3003 RMK AO2 SLP126 P0004 T01280100,KVEL,2023-06-02T16:53:00Z,40.45,-109.52,12.8,10.0,80,4,,10.0,30.029528,1012.6,,TRUE,TRUE,,,,,,-RA,OVC,6500,,,,,,,VFR,,,,,,0.04,,,,,,METAR,1604.0
KVCB 021653Z AUTO 00000KT 10SM CLR 20/11 A2997 RMK AO2 SLP148 T02000106,KVCB,2023-06-02T16:53:00Z,38.38,-121.95,20.0,10.6,0,0,,10.0,29.970472,1014.8,,TRUE,TRUE,,,,,,,CLR,,,,,,,,VFR,,,,,,,,,,,,METAR,30.0
KUUU 021653Z AUTO 19008KT 10SM CLR 24/13 A2991 RMK AO2 SLP128 T02390128,KUUU,2023-06-02T16:53:00Z,41.53,-71.28,23.9,12.8,190,8,,10.0,29.911417,1012.8,,TRUE,TRUE,,,,,,,CLR,,,,,,,,VFR,,,,,,,,,,,,METAR,45.0
KUTS 021653Z AUTO 00000KT 10SM FEW047 31/18 A2995 RMK AO2 SLP135 T03060183,KUTS,2023-06-02T16:53:00Z,30.75,-95.58,30.6,18.3,0,0,,10.0,29.949802,1013.5,,TRUE,TRUE,,,,,,,FEW,4700,,,,,,,VFR,,,,,,,,,,,,METAR,103.0
KUNV 021653Z 02008KT 330V070 10SM CLR 30/12 A3002,KUNV,2023-06-02T16:53:00Z,40.85,-77.83,30.0,12.0,20,8,,10.0,30.02067,,,,,,,,,,,CLR,,,,,,,,VFR,,,,,,,,,,,,METAR,365.0
KUNO 021653Z AUTO 10007KT 10SM FEW045 29/17 A3004 RMK AO2 SLP158 T02890167 $,KUNO,2023-06-02T16:53:00Z,36.88,-91.9,28.9,16.7,100,7,,10.0,30.041338,1015.8,,TRUE,TRUE,TRUE,,,,,,FEW,4500,,,,,,,VFR,,,,,,,,,,,,METAR,376.0
KUIL 021653Z AUTO 00000KT 10SM FEW022 14/08 A3013 RMK AO2 SLP204 T01440078,KUIL,2023-06-02T16:53:00Z,47.93,-124.55,14.4,7.8,0,0,,10.0,30.129921,1020.4,,TRUE,TRUE,,,,,,,FEW,2200,,,,,,,VFR,,,,,,,,,,,,METAR,58.0
KUAO 021653Z 06005KT 10SM CLR 15/07 A3014 RMK AO2 SLP205 T01500072,KUAO,2023-06-02T16:53:00Z,45.25,-122.77,15.0,7.2,60,5,,10.0,30.138779,1020.5,,,TRUE,,,,,,,CLR,,,,,,,,VFR,,,,,,,,,,,,METAR,60.0
KTYS 021653Z VRB06KT 10SM FEW045 FEW250 29/15 A2995 RMK AO2 SLP131 T02890150,KTYS,2023-06-02T16:53:00Z,35.82,-83.98,28.9,15.0,0,6,,10.0,29.949802,1013.1,,,TRUE,,,,,,,FEW,4500,FEW,25000,,,,,VFR,,,,,,,,,,,,METAR,300.0
KTYR 021653Z 08005KT 10SM SCT048 31/18 A2994 RMK AO2 SLP132 T03060183,KTYR,2023-06-02T16:53:00Z,32.37,-95.4,30.6,18.3,80,5,,10.0,29.940945,1013.2,,,TRUE,,,,,,,SCT,4800,,,,,,,VFR,,,,,,,,,,,,METAR,161.0
KTXK 021653Z 00000KT 10SM FEW047 33/18 A2996 RMK AO2 SLP141 T03280178,KTXK,2023-06-02T16:53:00Z,33.45,-93.98,32.8,17.8,0,0,,10.0,29.958662,1014.1,,,TRUE,,,,,,,FEW,4700,,,,,,,VFR,,,,,,,,,,,,METAR,118.0
KTWF 021653Z 30014G21KT 10SM CLR 18/06 A3001 RMK AO2 SLP120 T01830061,KTWF,2023-06-02T16:53:00Z,42.48,-114.48,18.3,6.1,300,14,21,10.0,30.008858,1012.0,,,TRUE,,,,,,,CLR,,,,,,,,VFR,,,,,,,,,,,,METAR,1269.0
KTVR 021653Z AUTO A2995 RMK AO2 SLPNO PWINO $,KTVR,2023-06-02T16:53:00Z,32.35,-91.03,,,,,,,29.949802,,,TRUE,TRUE,TRUE,,,,TRUE,,,,,,,,,,,,,,,,,,,,,,METAR,25.0
KTVL 021653Z AUTO 07003KT 10SM CLR 13/01 A3012 RMK AO2 SLP164 T01280006,KTVL,2023-06-02T16:53:00Z,38.9,-120.0,12.8,0.6,70,3,,10.0,30.121063,1016.4,,TRUE,TRUE,,,,,,,CLR,,,,,,,,VFR,,,,,,,,,,,,METAR,1907.0
KTVC 021653Z 01004KT 10SM FEW080 OVC250 28/14 A3009 RMK AO2 SLP186 T02830139,KTVC,2023-06-02T16:53:00Z,44.73,-85.58,28.3,13.9,10,4,,10.0,30.088583,1018.6,,,TRUE,,,,,,,FEW,8000,OVC,25000,,,,,VFR,,,,,,,,,,,,METAR,188.0
KTUS 021653Z 00000KT 10SM CLR 26/04 A2997 RMK AO2 SLP104 T02610039,KTUS,2023-06-02T16:53:00Z,32.13,-110.95,26.1,3.9,0,0,,10.0,29.970472,1010.4,,,TRUE,,,,,,,CLR,,,,,,,,VFR,,,,,,,,,,,,METAR,776.0
KTUP 021653Z 05007G14KT 10SM FEW047 31/18 A2995 RMK AO2 SLP137 T03060178,KTUP,2023-06-02T16:53:00Z,34.27,-88.77,30.6,17.8,50,7,14,10.0,29.949802,1013.7,,,TRUE,,,,,,,FEW,4700,,,,,,,VFR,,,,,,,,,,,,METAR,107.0
KTUL 021653Z 16008KT 10SM SCT050 SCT170 30/18 A2997 RMK AO2 SLP140 T03000183,KTUL,2023-06-02T16:53:00Z,36.2,-95.88,30.0,18.3,160,8,,10.0,29.970472,1014.0,,,TRUE,,,,,,,SCT,5000,SCT,17000,,,,,VFR,,,,,,,,,,,,METAR,196.0
KTTN 021653Z VRB05KT 10SM CLR 32/13 A2990 RMK AO2 SLP116 T03220133,KTTN,2023-06-02T16:53:00Z,40.28,-74.82,32.2,13.3,0,5,,10.0,29.899607,1011.6,,,TRUE,,,,,,,CLR,,,,,,,,VFR,,,,,,,,,,,,METAR,58.0
KTTD 021653Z VRB03KT 10SM CLR 15/07 A3013 RMK AO2 SLP202 T01500072,KTTD,2023-06-02T16:53:00Z,45.55,-122.42,15.0,7.2,0,3,,10.0,30.129921,1020.2,,,TRUE,,,,,,,CLR,,,,,,,,VFR,,,,,,,,,,,,METAR,8.0
KTRL 021653Z AUTO VRB06KT 10SM CLR 30/18 A2995 RMK AO2 SLP134 T03000183,KTRL,2023-06-02T16:53:00Z,32.72,-96.27,30.0,18.3,0,6,,10.0,29.949802,1013.4,,TRUE,TRUE,,,,,,,CLR,,,,,,,,VFR,,,,,,,,,,,,METAR,144.0
KTRI 021653Z VRB05KT 10SM FEW040 FEW100 28/12 A2999 RMK AO2 SLP131 T02780117,KTRI,2023-06-02T16:53:00Z,36.48,-82.4,27.8,11.7,0,5,,10.0,29.991142,1013.1,,,TRUE,,,,,,,FEW,4000,FEW,10000,,,,,VFR,,,,,,,,,,,,METAR,456.0
KTPA 021653Z 05006KT 10SM FEW032 31/22 A2979 RMK AO2 LTG DSNT S AND SW SLP086 T03060217,KTPA,2023-06-02T16:53:00Z,27.97,-82.53,30.6,21.7,50,6,,10.0,29.790354,1008.6,,,TRUE,,,,,,,FEW,3200,,,,,,,VFR,,,,,,,,,,,,METAR,2.0
KTOR 021653Z AUTO 18006KT 10SM FEW029 19/14 A2991 RMK AO2 SLP095 T01940139,KTOR,2023-06-02T16:53:00Z,42.07,-104.15,19.4,13.9,180,6,,10.0,29.911417,1009.5,,TRUE,TRUE,,,,,,,FEW,2900,,,,,,,VFR,,,,,,,,,,,,METAR,1285.0
KTOI 021653Z AUTO VRB06KT 10SM FEW045 SCT055 29/17 A2991 RMK AO2 SLP123 T02940172,KTOI,2023-06-02T16:53:00Z,31.85,-86.02,29.4,17.2,0,6,,10.0,29.911417,1012.3,,TRUE,TRUE,,,,,,,FEW,4500,SCT,5500,,,,,VFR,,,,,,,,,,,,METAR,120.0
KTLH 021653Z 06012KT 10SM FEW000 FEW048 SCT250 29/17 A2985 RMK AO2 SLP106 FU FEW000 SW T02940167,KTLH,2023-06-02T16:53:00Z,30.4,-84.35,29.4,16.7,60,12,,10.0,29.84941,1010.6,,,TRUE,,,,,,,FEW,0,FEW,4800,SCT,25000,,,VFR,,,,,,,,,,,,METAR,17.0
KTKI 021653Z 15008KT 10SM CLR 29/18 A2995 RMK AO2 SLP135 T02940183,KTKI,2023-06-02T16:53:00Z,33.18,-96.58,29.4,18.3,150,8,,10.0,29.949802,1013.5,,,TRUE,,,,,,,CLR,,,,,,,,VFR,,,,,,,,,,,,METAR,173.0
KTIW 021653Z VRB04KT 10SM CLR 13/07 A3014 RMK AO2 SLP204 T01330072,KTIW,2023-06-02T16:53:00Z,47.27,-122.58,13.3,7.2,0,4,,10.0,30.138779,1020.4,,,TRUE,,,,,,,CLR,,,,,,,,VFR,,,,,,,,,,,,METAR,89.0
KTHV 021653Z AUTO VRB05KT 10SM CLR 32/13 A2994 RMK AO2 SLP138 T03220128,KTHV,2023-06-02T16:53:00Z,39.92,-76.88,32.2,12.8,0,5,,10.0,29.940945,1013.8,,TRUE,TRUE,,,,,,,CLR,,,,,,,,VFR,,,,,,,,,,,,METAR,141.0
KTDZ 021653Z AUTO 06011KT 10SM CLR 32/12 A3008 RMK AO2 SLP179 T03170117,KTDZ,2023-06-02T16:53:00Z,41.57,-83.48,31.7,11.7,60,11,,10.0,30.079725,1017.9,,TRUE,TRUE,,,,,,,CLR,,,,,,,,VFR,,,,,,,,,,,,METAR,189.0
KTCS 021653Z AUTO 16007KT 10SM FEW110 26/M05 A2999 RMK AO2 SLP071 T02561050,KTCS,2023-06-02T16:53:00Z,33.23,-107.27,25.6,-5.0,160,7,,10.0,29.991142,1007.1,,TRUE,TRUE,,,,,,,FEW,11000,,,,,,,VFR,,,,,,,,,,,,METAR,1471.0
KTCL 021653Z VRB03KT 10SM FEW055 FEW075 29/17 A2992 RMK AO2 SLP130 T02940172,KTCL,2023-06-02T16:53:00Z,33.22,-87.62,29.4,17.2,0,3,,10.0,29.920275,1013.0,,,TRUE,,,,,,,FEW,5500,FEW,7500,,,,,VFR,,,,,,,,,,,,METAR,48.0
KTCC 021653Z AUTO 26006KT 10SM CLR 21/16 A2994 RMK AO2 SLP092 T02060156,KTCC,2023-06-02T16:53:00Z,35.18,-103.6,20.6,15.6,260,6,,10.0,29.940945,1009.2,,TRUE,TRUE,,,,,,,CLR,,,,,,,,VFR,,,,,,,,,,,,METAR,1233.0
KSWO 021653Z 18011KT 10SM FEW048 30/18 A2997 RMK AO2 SLP135 T03000178,KSWO,2023-06-02T16:53:00Z,36.17,-97.08,30.0,17.8,180,11,,10.0,29.970472,1013.5,,,TRUE,,,,,,,FEW,4800,,,,,,,VFR,,,,,,,,,,,,METAR,293.0
KSUN 021653Z 30007KT 10SM SCT070 BKN080 15/08 A3004,KSUN,2023-06-02T16:53:00Z,43.5,-114.28,15.0,8.0,300,7,,10.0,30.041338,,,,,,,,,,,SCT,7000,BKN,8000,,,,,VFR,,,,,,,,,,,,METAR,1619.0
KSTS 021653Z 21004KT 9SM CLR 17/09 A3000 RMK AO2 SLP152 T01670089,KSTS,2023-06-02T16:53:00Z,38.5,-122.82,16.7,8.9,210,4,,9.0,30.0,1015.2,,,TRUE,,,,,,,CLR,,,,,,,,VFR,,,,,,,,,,,,METAR,35.0
KSTP 021653Z 09004KT 10SM CLR 28/18 A3006 RMK AO2 SLP172 T02830183,KSTP,2023-06-02T16:53:00Z,44.93,-93.05,28.3,18.3,90,4,,10.0,30.059055,1017.2,,,TRUE,,,,,,,CLR,,,,,,,,VFR,,,,,,,,,,,,METAR,213.0
KSTJ 021653Z 16011G16KT 10SM CLR 32/18 A3000 RMK AO2 SLP150 T03170178,KSTJ,2023-06-02T16:53:00Z,39.77,-94.92,31.7,17.8,160,11,16,10.0,30.0,1015.0,,,TRUE,,,,,,,CLR,,,,,,,,VFR,,,,,,,,,,,,METAR,247.0
KSTC 021653Z 15009KT 10SM CLR 26/18 A3006 RMK AO2 SLP181 T02610178,KSTC,2023-06-02T16:53:00Z,45.55,-94.05,26.1,17.8,150,9,,10.0,30.059055,1018.1,,,TRUE,,,,,,,CLR,,,,,,,,VFR,,,,,,,,,,,,METAR,302.0
KSSI 021653Z AUTO 03011G19KT 360V060 10SM CLR 29/19 A2986 RMK AO2 SLP111 T02890189,KSSI,2023-06-02T16:53:00Z,31.15,-81.38,28.9,18.9,30,11,19,10.0,29.861221,1011.1,,TRUE,TRUE,,,,,,,CLR,,,,,,,,VFR,,,,,,,,,,,,METAR,6.0
KSSF 021653Z 16008KT 10SM SCT032 BKN042 BKN055 28/21 A2991 RMK AO2 SLP116 T02830211 $,KSSF,2023-06-02T16:53:00Z,29.33,-98.47,28.3,21.1,160,8,,10.0,29.911417,1011.6,,,TRUE,TRUE,,,,,,SCT,3200,BKN,4200,BKN,5500,,,VFR,,,,,,,,,,,,METAR,175.0
KSPW 021653Z AUTO 16011KT 10SM BKN100 29/17 A3005 RMK AO2 SLP164 T02940167,KSPW,2023-06-02T16:53:00Z,43.17,-95.22,29.4,16.7,160,11,,10.0,30.050198,1016.4,,TRUE,TRUE,,,,,,,BKN,10000,,,,,,,VFR,,,,,,,,,,,,METAR,407.0
KSPB 021653Z AUTO VRB04KT 10SM CLR 16/08 A3013 RMK AO2 SLP201 T01610078,KSPB,2023-06-02T16:53:00Z,45.77,-122.87,16.1,7.8,0,4,,10.0,30.129921,1020.1,,TRUE,TRUE,,,,,,,CLR,,,,,,,,VFR,,,,,,,,,,,,METAR,15.0
KSNY 021653Z AUTO 00000KT 10SM BKN015 BKN020 18/14 A2994 RMK AO2 SLP101 T01830144,KSNY,2023-06-02T16:53:00Z,41.1,-102.98,18.3,14.4,0,0,,10.0,29.940945,1010.1,,TRUE,TRUE,,,,,,,BKN,1500,BKN,2000,,,,,MVFR,,,,,,,,,,,,METAR,1307.0
KSNS 021653Z VRB03KT 10SM OVC024 16/08 A3003 RMK AO2 SLP179 T01560078,KSNS,2023-06-02T16:53:00Z,36.67,-121.6,15.6,7.8,0,3,,10.0,30.029528,1017.9,,,TRUE,,,,,,,OVC,2400,,,,,,,MVFR,,,,,,,,,,,,METAR,20.0
KSNA 021653Z VRB03KT 10SM SCT023 OVC040 20/12 A2998 RMK AO2 SLP151 T02000122,KSNA,2023-06-02T16:53:00Z,33.67,-117.87,20.0,12.2,0,3,,10.0,29.97933,1015.1,,,TRUE,,,,,,,SCT,2300,OVC,4000,,,,,VFR,,,,,,,,,,,,METAR,14.0
KSMQ 021653Z AUTO VRB04KT 10SM CLR 34/14 A2987 RMK AO2 SLP114 T03390139,KSMQ,2023-06-02T16:53:00Z,40.62,-74.67,33.9,13.9,0,4,,10.0,29.870079,1011.4,,TRUE,TRUE,,,,,,,CLR,,,,,,,,VFR,,,,,,,,,,,,METAR,30.0
KSMF 021653Z 21003KT 10SM CLR 19/11 A2996 RMK AO2 SLP144 T01890111,KSMF,2023-06-02T16:53:00Z,38.7,-121.6,18.9,11.1,210,3,,10.0,29.958662,1014.4,,,TRUE,,,,,,,CLR,,,,,,,,VFR,,,,,,,,,,,,METAR,7.0
KSLN 021653Z 16015G23KT 10SM BKN080 28/16 A2998 RMK AO2 SLP138 T02830156,KSLN,2023-06-02T16:53:00Z,38.8,-97.65,28.3,15.6,160,15,23,10.0,29.97933,1013.8,,,TRUE,,,,,,,BKN,8000,,,,,,,VFR,,,,,,,,,,,,METAR,377.0
KSJC 021653Z 17007KT 10SM FEW015 16/09 A3001 RMK AO2 SLP161 T01610089,KSJC,2023-06-02T16:53:00Z,37.37,-121.92,16.1,8.9,170,7,,10.0,30.008858,1016.1,,,TRUE,,,,,,,FEW,1500,,,,,,,VFR,,,,,,,,,,,,METAR,13.0
KSIY 021653Z AUTO VRB03KT 10SM CLR 17/03 A3008 RMK AO2 SLP185 T01670033,KSIY,2023-06-02T16:53:00Z,41.77,-122.47,16.7,3.3,0,3,,10.0,30.079725,1018.5,,TRUE,TRUE,,,,,,,CLR,,,,,,,,VFR,,,,,,,,,,,,METAR,807.0
KSHN 021653Z AUTO 22005KT 10SM CLR 13/07 A3011 RMK AO2 SLP198 T01330072,KSHN,2023-06-02T16:53:00Z,47.23,-123.13,13.3,7.2,220,5,,10.0,30.109253,1019.8,,TRUE,TRUE,,,,,,,CLR,,,,,,,,VFR,,,,,,,,,,,,METAR,84.0
KSGR 021653Z 18008KT 160V220 10SM CLR 31/21 A2993 RMK AO2 SLP135 T03060206,KSGR,2023-06-02T16:53:00Z,29.62,-95.65,30.6,20.6,180,8,,10.0,29.929134,1013.5,,,TRUE,,,,,,,CLR,,,,,,,,VFR,,,,,,,,,,,,METAR,22.0
KSFF 021653Z 00000KT 10SM FEW080 19/06 A3003 RMK AO2 SLP160 T01940056,KSFF,2023-06-02T16:53:00Z,47.68,-117.32,19.4,5.6,0,0,,10.0,30.029528,1016.0,,,TRUE,,,,,,,FEW,8000,,,,,,,VFR,,,,,,,,,,,,METAR,593.0
KSFB 021653Z 03011KT 10SM FEW039 29/21 A2980 RMK AO2 SLP088 T02940211,KSFB,2023-06-02T16:53:00Z,28.77,-81.23,29.4,21.1,30,11,,10.0,29.799213,1008.8,,,TRUE,,,,,,,FEW,3900,,,,,,,VFR,,,,,,,,,,,,METAR,16.0
KSEG 021653Z AUTO VRB03KT 10SM CLR 32/13 A2995 RMK AO2 SLP139 T03220128,KSEG,2023-06-02T16:53:00Z,40.82,-76.87,32.2,12.8,0,3,,10.0,29.949802,1013.9,,TRUE,TRUE,,,,,,,CLR,,,,,,,,VFR,,,,,,,,,,,,METAR,136.0
KSEA 021653Z 20006KT 10SM FEW015 SCT250 14/06 A3013 RMK AO2 SLP208 T01390061,KSEA,2023-06-02T16:53:00Z,47.45,-122.32,13.9,6.1,200,6,,10.0,30.129921,1020.8,,,TRUE,,,,,,,FEW,1500,SCT,25000,,,,,VFR,,,,,,,,,,,,METAR,115.0
KSDM 021653Z VRB06KT 10SM BKN020 OVC029 18/12 A2998 RMK AO2 SLP149 T01780117,KSDM,2023-06-02T16:53:00Z,32.58,-117.0,17.8,11.7,0,6,,10.0,29.97933,1014.9,,,TRUE,,,,,,,BKN,2000,OVC,2900,,,,,MVFR,,,,,,,,,,,,METAR,161.0
KSDL 021653Z AUTO VRB04KT 10SM CLR 27/03 A2992 RMK AO2 SLP109 T02720028,KSDL,2023-06-02T16:53:00Z,33.62,-111.92,27.2,2.8,0,4,,10.0,29.920275,1010.9,,TRUE,TRUE,,,,,,,CLR,,,,,,,,VFR,,,,,,,,,,,,METAR,438.0
KSBM 021653Z AUTO 07010KT 10SM CLR 29/17 A3011 RMK AO2 SLP192 T02890167,KSBM,2023-06-02T16:53:00Z,43.78,-87.85,28.9,16.7,70,10,,10.0,30.109253,1019.2,,TRUE,TRUE,,,,,,,CLR,,,,,,,,VFR,,,,,,,,,,,,METAR,225.0
KSBA 021653Z 15007KT 10SM CLR 18/12 A2998 RMK AO2 SLP153 T01830117 $,KSBA,2023-06-02T16:53:00Z,34.43,-119.85,18.3,11.7,150,7,,10.0,29.97933,1015.3,,,TRUE,TRUE,,,,,,CLR,,,,,,,,VFR,,,,,,,,,,,,METAR,2.0
KSAV 021653Z 04008KT 10SM SCT030 BKN037 BKN250 28/17 A2986 RMK AO2 SLP111 T02830167,KSAV,2023-06-02T16:53:00Z,32.12,-81.2,28.3,16.7,40,8,,10.0,29.861221,1011.1,,,TRUE,,,,,,,SCT,3000,BKN,3700,BKN,25000,,,VFR,,,,,,,,,,,,METAR,10.0
KSAF 021653Z 16009KT 10SM CLR 19/03 A3007 RMK AO2 LTG DSNT NW SLP100 T01940028,KSAF,2023-06-02T16:53:00Z,35.62,-106.1,19.4,2.8,160,9,,10.0,30.070866,1010.0,,,TRUE,,,,,,,CLR,,,,,,,,VFR,,,,,,,,,,,,METAR,1918.0
KSAC 021653Z 00000KT 10SM CLR 19/12 A2997 RMK AO2 SLP147 T01890117,KSAC,2023-06-02T16:53:00Z,38.5,-121.5,18.9,11.7,0,0,,10.0,29.970472,1014.7,,,TRUE,,,,,,,CLR,,,,,,,,VFR,,,,,,,,,,,,METAR,5.0
KRXE 021653Z AUTO 00000KT 10SM BKN100 16/09 A3001 RMK AO2 SLP131 T01610094,KRXE,2023-06-02T16:53:00Z,43.83,-111.8,16.1,9.4,0,0,,10.0,30.008858,1013.1,,TRUE,TRUE,,,,,,,BKN,10000,,,,,,,VFR,,,,,,,,,,,,METAR,1483.0
KRWI 021653Z AUTO 01007KT 10SM SCT030 SCT037 26/17 A2992 RMK AO2 SLP129 T02560172,KRWI,2023-06-02T16:53:00Z,35.85,-77.9,25.6,17.2,10,7,,10.0,29.920275,1012.9,,TRUE,TRUE,,,,,,,SCT,3000,SCT,3700,,,,,VFR,,,,,,,,,,,,METAR,46.0
KRWF 021653Z AUTO 16007KT 10SM FEW044 28/18 A3003 RMK AO2 SLP161 T02830183,KRWF,2023-06-02T16:53:00Z,44.55,-95.08,28.3,18.3,160,7,,10.0,30.029528,1016.1,,TRUE,TRUE,,,,,,,FEW,4400,,,,,,,VFR,,,,,,,,,,,,METAR,312.0
KRVS 021653Z 15008KT 10SM CLR 31/17 A2997 RMK AO2 SLP152 T03060172,KRVS,2023-06-02T16:53:00Z,36.05,-95.98,30.6,17.2,150,8,,10.0,29.970472,1015.2,,,TRUE,,,,,,,CLR,,,,,,,,VFR,,,,,,,,,,,,METAR,191.0
KRUE 021653Z AUTO 16005KT 10SM CLR 31/18 A2998 RMK AO2 SLP142 T03110178,KRUE,2023-06-02T16:53:00Z,35.25,-93.1,31.1,17.8,160,5,,10.0,29.97933,1014.2,,TRUE,TRUE,,,,,,,CLR,,,,,,,,VFR,,,,,,,,,,,,METAR,119.0
KRTN 021653Z AUTO 20012G15KT 10SM FEW023 18/11 A3006 RMK AO2 SLP112 T01780111,KRTN,2023-06-02T16:53:00Z,36.73,-104.5,17.8,11.1,200,12,15,10.0,30.059055,1011.2,,TRUE,TRUE,,,,,,,FEW,2300,,,,,,,VFR,,,,,,,,,,,,METAR,1939.0
KRQE 021653Z AUTO 22004KT 10SM FEW110 14/04 A3013 RMK AO2 SLP129 T01390044,KRQE,2023-06-02T16:53:00Z,35.65,-109.07,13.9,4.4,220,4,,10.0,30.129921,1012.9,,TRUE,TRUE,,,,,,,FEW,11000,,,,,,,VFR,,,,,,,,,,,,METAR,2056.0
KRNT 021653Z 20005KT 10SM CLR 16/08 A3012 RMK AO2 SLP204 T01610078,KRNT,2023-06-02T16:53:00Z,47.5,-122.22,16.1,7.8,200,5,,10.0,30.121063,1020.4,,,TRUE,,,,,,,CLR,,,,,,,,VFR,,,,,,,,,,,,METAR,7.0
KRNM 021653Z 31006KT 6SM HZ BKN009 OVC017 16/12 A2999 RMK AO2 SLP147 T01560117,KRNM,2023-06-02T16:53:00Z,33.03,-116.92,15.6,11.7,310,6,,6.0,29.991142,1014.7,,,TRUE,,,,,,HZ,BKN,900,OVC,1700,,,,,IFR,,,,,,,,,,,,METAR,423.0
KRMG 021653Z AUTO 00000KT 10SM FEW050 28/16 A2994 RMK AO2 SLP128 T02780156,KRMG,2023-06-02T16:53:00Z,34.35,-85.17,27.8,15.6,0,0,,10.0,29.940945,1012.8,,TRUE,TRUE,,,,,,,FEW,5000,,,,,,,VFR,,,,,,,,,,,,METAR,196.0
KRME 021653Z 26007KT 10SM CLR 29/16 A2996 RMK AO2 SLP141 T02940161,KRME,2023-06-02T16:53:00Z,43.22,-75.4,29.4,16.1,260,7,,10.0,29.958662,1014.1,,,TRUE,,,,,,,CLR,,,,,,,,VFR,,,,,,,,,,,,METAR,146.0
KRKP 021653Z AUTO 14009KT 6SM HZ CLR 30/22 A2992 RMK AO2 SLP132 T03000217,KRKP,2023-06-02T16:53:00Z,28.08,-97.05,30.0,21.7,140,9,,6.0,29.920275,1013.2,,TRUE,TRUE,,,,,,HZ,CLR,,,,,,,,VFR,,,,,,,,,,,,METAR,8.0
KRIL 021653Z AUTO 09004KT 10SM -RA OVC040 09/07 A3009 RMK AO2 SLP157 P0000 T00940072,KRIL,2023-06-02T16:53:00Z,39.53,-107.73,9.4,7.2,90,4,,10.0,30.088583,1015.7,,TRUE,TRUE,,,,,,-RA,OVC,4000,,,,,,,VFR,,,,,,0.005,,,,,,METAR,1683.0
KRDD 021653Z 01005KT 10SM CLR 25/08 A2994 RMK AO2 SLP133 T02500078,KRDD,2023-06-02T16:53:00Z,40.52,-122.3,25.0,7.8,10,5,,10.0,29.940945,1013.3,,,TRUE,,,,,,,CLR,,,,,,,,VFR,,,,,,,,,,,,METAR,152.0
KRBG 021653Z AUTO 00000KT 10SM CLR 15/06 A3012 RMK AO2 SLP198 T01500056,KRBG,2023-06-02T16:53:00Z,43.23,-123.35,15.0,5.6,0,0,,10.0,30.121063,1019.8,,TRUE,TRUE,,,,,,,CLR,,,,,,,,VFR,,,,,,,,,,,,METAR,152.0
KRBD 021653Z 14008G19KT 10SM FEW043 30/19 A2993 RMK AO2 SLP127 T03000194,KRBD,2023-06-02T16:53:00Z,32.68,-96.87,30.0,19.4,140,8,19,10.0,29.929134,1012.7,,,TRUE,,,,,,,FEW,4300,,,,,,,VFR,,,,,,,,,,,,METAR,200.0
KRAL 021653Z 26004KT 10SM OVC031 17/12 A2999 RMK AO2 SLP143 T01720117,KRAL,2023-06-02T16:53:00Z,33.95,-117.45,17.2,11.7,260,4,,10.0,29.991142,1014.3,,,TRUE,,,,,,,OVC,3100,,,,,,,VFR,,,,,,,,,,,,METAR,254.0
KRAC 021653Z AUTO 11003KT 10SM CLR 27/15 A3012 RMK AO2 SLP194 T02670150,KRAC,2023-06-02T16:53:00Z,42.77,-87.82,26.7,15.0,110,3,,10.0,30.121063,1019.4,,TRUE,TRUE,,,,,,,CLR,,,,,,,,VFR,,,,,,,,,,,,METAR,203.0
KPWA 021653Z 14010KT 10SM SCT043 SCT060 28/19 A2996 RMK AO2 SLP132 T02780189,KPWA,2023-06-02T16:53:00Z,35.53,-97.65,27.8,18.9,140,10,,10.0,29.958662,1013.2,,,TRUE,,,,,,,SCT,4300,SCT,6000,,,,,VFR,,,,,,,,,,,,METAR,390.0
KPUW 021653Z AUTO VRB06KT 10SM CLR 18/04 A3006 RMK AO2 SLP172 T01780044,KPUW,2023-06-02T16:53:00Z,46.75,-117.12,17.8,4.4,0,6,,10.0,30.059055,1017.2,,TRUE,TRUE,,,,,,,CLR,,,,,,,,VFR,,,,,,,,,,,,METAR,774.0
KPUC 021653Z AUTO VRB03KT 10SM CLR 18/03 A3002 RMK AO2 SLP108 T01830028,KPUC,2023-06-02T16:53:00Z,39.62,-110.75,18.3,2.8,0,3,,10.0,30.02067,1010.8,,TRUE,TRUE,,,,,,,CLR,,,,,,,,VFR,,,,,,,,,,,,METAR,1777.0
KPUB 021653Z 13004KT 10SM CLR 21/07 A2995 RMK AO2 SLP096 T02060067,KPUB,2023-06-02T16:53:00Z,38.28,-104.5,20.6,6.7,130,4,,10.0,29.949802,1009.6,,,TRUE,,,,,,,CLR,,,,,,,,VFR,,,,,,,,,,,,METAR,1441.0
KPTK 021653Z 03005KT 10SM FEW070 FEW100 OVC250 30/12 A3010 RMK SLPNO,KPTK,2023-06-02T16:53:00Z,42.67,-83.42,30.0,12.0,30,5,,10.0,30.100393,,,,,,,,,,,FEW,7000,FEW,10000,OVC,25000,,,VFR,,,,,,,,,,,,METAR,295.0
KPSX 021653Z AUTO 13009KT 10SM FEW032 30/21 A2992 RMK AO2 SLP132 T03000211,KPSX,2023-06-02T16:53:00Z,28.72,-96.25,30.0,21.1,130,9,,10.0,29.920275,1013.2,,TRUE,TRUE,,,,,,,FEW,3200,,,,,,,VFR,,,,,,,,,,,,METAR,4.0
KPSP 021653Z 34007KT 320V030 10SM CLR 26/10 A2989 RMK AO2 SLP119 T02610100,KPSP,2023-06-02T16:53:00Z,33.82,-116.5,26.1,10.0,340,7,,10.0,29.890747,1011.9,,,TRUE,,,,,,,CLR,,,,,,,,VFR,,,,,,,,,,,,METAR,123.0
KPSC 021653Z 21005KT 10SM CLR 21/07 A3003 RMK AO2 SLP168 T02060067,KPSC,2023-06-02T16:53:00Z,46.27,-119.12,20.6,6.7,210,5,,10.0,30.029528,1016.8,,,TRUE,,,,,,,CLR,,,,,,,,VFR,,,,,,,,,,,,METAR,121.0
KPRC 021653Z VRB03KT 10SM CLR 21/03 A3007 RMK AO2 SLP111 T02060033,KPRC,2023-06-02T16:53:00Z,34.65,-112.42,20.6,3.3,0,3,,10.0,30.070866,1011.1,,,TRUE,,,,,,,CLR,,,,,,,,VFR,,,,,,,,,,,,METAR,1528.0
KPQL 021653Z 07007KT 030V110 10SM SCT055 31/18 A2989 RMK AO2 SLP122 T03110178,KPQL,2023-06-02T16:53:00Z,30.47,-88.53,31.1,17.8,70,7,,10.0,29.890747,1012.2,,,TRUE,,,,,,,SCT,5500,,,,,,,VFR,,,,,,,,,,,,METAR,4.0
KPOU 021653Z 34009KT 310V020 10SM CLR 33/15 A2988 RMK AO2 LTG DSNT E SLP114 T03330150,KPOU,2023-06-02T16:53:00Z,41.63,-73.88,33.3,15.0,340,9,,10.0,29.878937,1011.4,,,TRUE,,,,,,,CLR,,,,,,,,VFR,,,,,,,,,,,,METAR,45.0
KPOF 021653Z AUTO VRB04KT 10SM CLR 31/17 A2997 RMK AO2 SLP143 T03060172,KPOF,2023-06-02T16:53:00Z,36.77,-90.32,30.6,17.2,0,4,,10.0,29.970472,1014.3,,TRUE,TRUE,,,,,,,CLR,,,,,,,,VFR,,,,,,,,,,,,METAR,99.0
KPNS 021653Z 03009KT 8SM CLR 30/17 A2986 RMK AO2 SLP113 T03000167,KPNS,2023-06-02T16:53:00Z,30.48,-87.18,30.0,16.7,30,9,,8.0,29.861221,1011.3,,,TRUE,,,,,,,CLR,,,,,,,,VFR,,,,,,,,,,,,METAR,34.0
KPNC 021653Z AUTO 15009KT 10SM SCT041 29/20 A2997 RMK AO2 SLP136 T02890200,KPNC,2023-06-02T16:53:00Z,36.73,-97.1,28.9,20.0,150,9,,10.0,29.970472,1013.6,,TRUE,TRUE,,,,,,,SCT,4100,,,,,,,VFR,,,,,,,,,,,,METAR,304.0
KPMP 021653Z 07008KT 10SM SCT035 SCT150 31/21 A2977 RMK AO2 SLP082 T03060211,KPMP,2023-06-02T16:53:00Z,26.25,-80.12,30.6,21.1,70,8,,10.0,29.769686,1008.2,,,TRUE,,,,,,,SCT,3500,SCT,15000,,,,,VFR,,,,,,,,,,,,METAR,4.0
KPMD 021653Z VRB03KT 10SM CLR 22/06 A2995 RMK AO2 SLP125 T02170056,KPMD,2023-06-02T16:53:00Z,34.63,-118.08,21.7,5.6,0,3,,10.0,29.949802,1012.5,,,TRUE,,,,,,,CLR,,,,,,,,VFR,,,,,,,,,,,,METAR,764.0
KPKD 021653Z AUTO 17009KT 10SM SCT033 BKN043 OVC050 26/18 A3004 RMK AO2 SLP166 T02610178,KPKD,2023-06-02T16:53:00Z,46.9,-95.07,26.1,17.8,170,9,,10.0,30.041338,1016.6,,TRUE,TRUE,,,,,,,SCT,3300,BKN,4300,OVC,5000,,,VFR,,,,,,,,,,,,METAR,439.0
KPKB 021653Z VRB03KT 10SM CLR 31/13 A3002 RMK AO2 SLP158 T03060133,KPKB,2023-06-02T16:53:00Z,39.35,-81.43,30.6,13.3,0,3,,10.0,30.02067,1015.8,,,TRUE,,,,,,,CLR,,,,,,,,VFR,,,,,,,,,,,,METAR,245.0
KPIR 021653Z AUTO 18012KT 10SM CLR 26/18 A2991 RMK AO2 SLP115 T02610178,KPIR,2023-06-02T16:53:00Z,44.38,-100.28,26.1,17.8,180,12,,10.0,29.911417,1011.5,,TRUE,TRUE,,,,,,,CLR,,,,,,,,VFR,,,,,,,,,,,,METAR,524.0
KPIL 021653Z AUTO 10014G21KT 10SM FEW028 30/23 A2990 RMK AO2 SLP124 T03000233,KPIL,2023-06-02T16:53:00Z,26.17,-97.33,30.0,23.3,100,14,21,10.0,29.899607,1012.4,,TRUE,TRUE,,,,,,,FEW,2800,,,,,,,VFR,,,,,,,,,,,,METAR,5.0
KPIH 021653Z 22010KT 10SM BKN060 14/07 A3003 RMK AO2 SLP136 T01440072,KPIH,2023-06-02T16:53:00Z,42.92,-112.57,14.4,7.2,220,10,,10.0,30.029528,1013.6,,,TRUE,,,,,,,BKN,6000,,,,,,,VFR,,,,,,,,,,,,METAR,1357.0
KPHD 021653Z AUTO 01013G20KT 10SM CLR 32/09 A3002 RMK AO2 SLP159 T03220089,KPHD,2023-06-02T16:53:00Z,40.47,-81.42,32.2,8.9,10,13,20,10.0,30.02067,1015.9,,TRUE,TRUE,,,,,,,CLR,,,,,,,,VFR,,,,,,,,,,,,METAR,272.0
KPGD 021653Z 09005KT 10SM FEW035 FEW050 29/21 A2977 RMK AO2 SLP081 T02940211,KPGD,2023-06-02T16:53:00Z,26.92,-82.0,29.4,21.1,90,5,,10.0,29.769686,1008.1,,,TRUE,,,,,,,FEW,3500,FEW,5000,,,,,VFR,,,,,,,,,,,,METAR,7.0
KPGA 021653Z AUTO VRB06KT 10SM CLR 24/04 A2996 RMK AO2 SLP083 T02440039,KPGA,2023-06-02T16:53:00Z,36.92,-111.45,24.4,3.9,0,6,,10.0,29.958662,1008.3,,TRUE,TRUE,,,,,,,CLR,,,,,,,,VFR,,,,,,,,,,,,METAR,1310.0
KPEO 021653Z AUTO 32008KT 10SM FEW080 32/27 A3002 RMK AO2 SLP155 T03220267,KPEO,2023-06-02T16:53:00Z,42.65,-77.05,32.2,26.7,320,8,,10.0,30.02067,1015.5,,TRUE,TRUE,,,,,,,FEW,8000,,,,,,,VFR,,,,,,,,,,,,METAR,268.0
KPDX 021653Z 29005KT 10SM FEW020 FEW250 15/07 A3014 RMK AO2 SLP203 T01500072,KPDX,2023-06-02T16:53:00Z,45.6,-122.62,15.0,7.2,290,5,,10.0,30.138779,1020.3,,,TRUE,,,,,,,FEW,2000,FEW,25000,,,,,VFR,,,,,,,,,,,,METAR,7.0
KPDT 021653Z 30007G16KT 10SM CLR 19/04 A3005 RMK AO2 SLP166 T01940044,KPDT,2023-06-02T16:53:00Z,45.7,-118.83,19.4,4.4,300,7,16,10.0,30.050198,1016.6,,,TRUE,,,,,,,CLR,,,,,,,,VFR,,,,,,,,,,,,METAR,453.0
KPDK 021653Z 36008KT 10SM SCT055 27/16 A2994 RMK AO2 SLP125 T02720156,KPDK,2023-06-02T16:53:00Z,33.88,-84.3,27.2,15.6,360,8,,10.0,29.940945,1012.5,,,TRUE,,,,,,,SCT,5500,,,,,,,VFR,,,,,,,,,,,,METAR,299.0
KPBG 021653Z AUTO 04008KT 10SM CLR 29/16 A2995 RMK AO2 SLP141 T02890156,KPBG,2023-06-02T16:53:00Z,44.65,-73.47,28.9,15.6,40,8,,10.0,29.949802,1014.1,,TRUE,TRUE,,,,,,,CLR,,,,,,,,VFR,,,,,,,,,,,,METAR,61.0
KPBF 021653Z AUTO 02003KT 10SM FEW047 BKN060 31/18 A2997 RMK AO2 SLP146 T03110178,KPBF,2023-06-02T16:53:00Z,34.18,-91.93,31.1,17.8,20,3,,10.0,29.970472,1014.6,,TRUE,TRUE,,,,,,,FEW,4700,BKN,6000,,,,,VFR,,,,,,,,,,,,METAR,63.0
KPAH 021653Z 09007KT 10SM FEW055 32/17 A2996 RMK AO2 SLP141 T03170167,KPAH,2023-06-02T16:53:00Z,37.07,-88.77,31.7,16.7,90,7,,10.0,29.958662,1014.1,,,TRUE,,,,,,,FEW,5500,,,,,,,VFR,,,,,,,,,,,,METAR,125.0
KPAE 021653Z 35004KT 10SM CLR 14/08 A3013 RMK AO2 SLP202 T01390078,KPAE,2023-06-02T16:53:00Z,47.92,-122.28,13.9,7.8,350,4,,10.0,30.129921,1020.2,,,TRUE,,,,,,,CLR,,,,,,,,VFR,,,,,,,,,,,,METAR,166.0
KP68 021653Z AUTO 34007KT 17/06 A3008 RMK AO1 SLP127 T01670061,KP68,2023-06-02T16:53:00Z,39.6,-116.0,16.7,6.1,340,7,,,30.079725,1012.7,,TRUE,TRUE,,,,,,,,,,,,,,,,,,,,,,,,,,,METAR,1813.0
KOXB 021653Z AUTO 10007KT 10SM CLR 24/17 A2993 RMK AO2 SLP136 T02440167,KOXB,2023-06-02T16:53:00Z,38.32,-75.12,24.4,16.7,100,7,,10.0,29.929134,1013.6,,TRUE,TRUE,,,,,,,CLR,,,,,,,,VFR,,,,,,,,,,,,METAR,2.0
KOWD 021653Z 00000KT 10SM CLR 32/16 A2987 RMK AO2 SLP115 T03220161,KOWD,2023-06-02T16:53:00Z,42.18,-71.17,32.2,16.1,0,0,,10.0,29.870079,1011.5,,,TRUE,,,,,,,CLR,,,,,,,,VFR,,,,,,,,,,,,METAR,14.0
KOVS 021653Z AUTO 00000KT 10SM CLR 32/17 A3007 RMK AO2 SLP177 T03170167,KOVS,2023-06-02T16:53:00Z,43.15,-90.68,31.7,16.7,0,0,,10.0,30.070866,1017.7,,TRUE,TRUE,,,,,,,CLR,,,,,,,,VFR,,,,,,,,,,,,METAR,205.0
KOTM 021653Z AUTO 13008G16KT 10SM CLR 29/18 A3003 RMK AO2 SLP163 T02940178,KOTM,2023-06-02T16:53:00Z,41.1,-92.45,29.4,17.8,130,8,16,10.0,30.029528,1016.3,,TRUE,TRUE,,,,,,,CLR,,,,,,,,VFR,,,,,,,,,,,,METAR,254.0
KOSU 021653Z 10SM CLR 32/09 A3003 RMK AO2 SLP159 T03170094,KOSU,2023-06-02T16:53:00Z,40.08,-83.08,31.7,9.4,,,,10.0,30.029528,1015.9,,,TRUE,,,,,,,CLR,,,,,,,,VFR,,,,,,,,,,,,METAR,276.0
KOSH 021653Z 06007KT 10SM CLR 28/17 A3010 RMK AO2 SLP181 T02830167,KOSH,2023-06-02T16:53:00Z,43.98,-88.55,28.3,16.7,60,7,,10.0,30.100393,1018.1,,,TRUE,,,,,,,CLR,,,,,,,,VFR,,,,,,,,,,,,METAR,239.0
KORL 021653Z 02006KT 10SM FEW040 31/21 A2979 RMK AO2 SLP090 T03060206,KORL,2023-06-02T16:53:00Z,28.55,-81.33,30.6,20.6,20,6,,10.0,29.790354,1009.0,,,TRUE,,,,,,,FEW,4000,,,,,,,VFR,,,,,,,,,,,,METAR,32.0
KOQT 021653Z AUTO VRB03KT 10SM CLR 28/17 A2997 RMK AO2 SLP136 T02830167,KOQT,2023-06-02T16:53:00Z,36.02,-84.23,28.3,16.7,0,3,,10.0,29.970472,1013.6,,TRUE,TRUE,,,,,,,CLR,,,,,,,,VFR,,,,,,,,,,,,METAR,276.0
KOPF 021653Z 05003KT 10SM CLR 31/21 A2977 RMK AO2 SLP081 T03110211,KOPF,2023-06-02T16:53:00Z,25.92,-80.28,31.1,21.1,50,3,,10.0,29.769686,1008.1,,,TRUE,,,,,,,CLR,,,,,,,,VFR,,,,,,,,,,,,METAR,1.0
KONT 021653Z 00000KT 7SM FEW015 OVC031 17/12 A2999 RMK AO2 SLP147 T01670122,KONT,2023-06-02T16:53:00Z,34.05,-117.58,16.7,12.2,0,0,,7.0,29.991142,1014.7,,,TRUE,,,,,,,FEW,1500,OVC,3100,,,,,VFR,,,,,,,,,,,,METAR,279.0
KONO 021653Z AUTO 30009KT 10SM CLR 23/08 A2998 RMK AO2 SLP142 T02280078 $,KONO,2023-06-02T16:53:00Z,44.02,-117.02,22.8,7.8,300,9,,10.0,29.97933,1014.2,,TRUE,TRUE,TRUE,,,,,,CLR,,,,,,,,VFR,,,,,,,,,,,,METAR,668.0
KOMK 021653Z AUTO VRB03KT 10SM CLR 20/04 A3001 RMK AO2 SLP160 T02000044,KOMK,2023-06-02T16:53:00Z,48.47,-119.52,20.0,4.4,0,3,,10.0,30.008858,1016.0,,TRUE,TRUE,,,,,,,CLR,,,,,,,,VFR,,,,,,,,,,,,METAR,395.0
KOLF 021653Z AUTO 06009KT 10SM FEW017 SCT110 21/17 A2992 RMK AO2 SLP125 T02110172,KOLF,2023-06-02T16:53:00Z,48.1,-105.58,21.1,17.2,60,9,,10.0,29.920275,1012.5,,TRUE,TRUE,,,,,,,FEW,1700,SCT,11000,,,,,VFR,,,,,,,,,,,,METAR,605.0
KOJC 021653Z COR 16010KT 10SM BKN042 29/18 A3001 RMK AO2 SLP151 T02890183 $,KOJC,2023-06-02T16:53:00Z,38.85,-94.73,28.9,18.3,160,10,,10.0,30.008858,1015.1,TRUE,,TRUE,TRUE,,,,,,BKN,4200,,,,,,,VFR,,,,,,,,,,,,METAR,328.0
KOGD 021653Z 19009KT 10SM SCT070 BKN120 19/08 A3000 RMK AO2 SLP112 T01940078,KOGD,2023-06-02T16:53:00Z,41.2,-112.02,19.4,7.8,190,9,,10.0,30.0,1011.2,,,TRUE,,,,,,,SCT,7000,BKN,12000,,,,,VFR,,,,,,,,,,,,METAR,1356.0
KOGB 021653Z AUTO 04010G18KT 10SM SCT036 SCT042 26/17 A2990 RMK AO2 SLP124 T02610172,KOGB,2023-06-02T16:53:00Z,33.47,-80.85,26.1,17.2,40,10,18,10.0,29.899607,1012.4,,TRUE,TRUE,,,,,,,SCT,3600,SCT,4200,,,,,VFR,,,,,,,,,,,,METAR,59.0
KODO 021653Z AUTO 16017KT 10SM FEW026 OVC036 26/18 A2994 RMK AO2 SLP089 T02610183 $,KODO,2023-06-02T16:53:00Z,31.92,-102.4,26.1,18.3,160,17,,10.0,29.940945,1008.9,,TRUE,TRUE,TRUE,,,,,,FEW,2600,OVC,3600,,,,,VFR,,,,,,,,,,,,METAR,912.0
KOAK 021653Z 21005KT 10SM FEW018 15/09 A3003 RMK AO2 SLP170 T01500089,KOAK,2023-06-02T16:53:00Z,37.72,-122.23,15.0,8.9,210,5,,10.0,30.029528,1017.0,,,TRUE,,,,,,,FEW,1800,,,,,,,VFR,,,,,,,,,,,,METAR,3.0
KNUW 021653Z 24010KT 10SM FEW025 SCT220 13/08 A3014 RMK AO2 SLP209 T01280083 $,KNUW,2023-06-02T16:53:00Z,48.35,-122.65,12.8,8.3,240,10,,10.0,30.138779,1020.9,,,TRUE,TRUE,,,,,,FEW,2500,SCT,22000,,,,,VFR,,,,,,,,,,,,METAR,14.0
KNUI 021653Z AUTO VRB04KT 9SM CLR 27/13 A2993 RMK AO2 SLP135 T02670133,KNUI,2023-06-02T16:53:00Z,38.15,-76.43,26.7,13.3,0,4,,9.0,29.929134,1013.5,,TRUE,TRUE,,,,,,,CLR,,,,,,,,VFR,,,,,,,,,,,,METAR,4.0
KNRS 021653Z 31011KT 10SM FEW018 BKN032 18/12 A3000 RMK AO2 SLP157 T01830117 $,KNRS,2023-06-02T16:53:00Z,32.57,-117.12,18.3,11.7,310,11,,10.0,30.0,1015.7,,,TRUE,TRUE,,,,,,FEW,1800,BKN,3200,,,,,VFR,,,,,,,,,,,,METAR,15.0
KNQX 021653Z 18008KT 10SM FEW020 BKN090 30/23 A2978 RMK AO2 SLP084 T03000233 $,KNQX,2023-06-02T16:53:00Z,24.57,-81.67,30.0,23.3,180,8,,10.0,29.778543,1008.4,,,TRUE,TRUE,,,,,,FEW,2000,BKN,9000,,,,,VFR,,,,,,,,,,,,METAR,2.0
KNIP 021653Z 03010KT 10SM BKN034 BKN250 27/19 A2985 RMK AO2 SLP104 T02720189,KNIP,2023-06-02T16:53:00Z,30.23,-81.67,27.2,18.9,30,10,,10.0,29.84941,1010.4,,,TRUE,,,,,,,BKN,3400,BKN,25000,,,,,VFR,,,,,,,,,,,,METAR,3.0
KNFG 021653Z 00000KT 10SM SCT015 OVC037 19/14 A2998 RMK AO2 SLP153 T01890139 $,KNFG,2023-06-02T16:53:00Z,33.3,-117.35,18.9,13.9,0,0,,10.0,29.97933,1015.3,,,TRUE,TRUE,,,,,,SCT,1500,OVC,3700,,,,,VFR,,,,,,,,,,,,METAR,21.0
KNEW 021653Z 02007KT 10SM CLR 30/19 A2992 RMK AO2 SLP125 T03000194,KNEW,2023-06-02T16:53:00Z,30.05,-90.03,30.0,19.4,20,7,,10.0,29.920275,1012.5,,,TRUE,,,,,,,CLR,,,,,,,,VFR,,,,,,,,,,,,METAR,1.0
KMYV 021653Z AUTO VRB03KT 10SM CLR 21/10 A2997 RMK AO2 SLP151 T02110100,KMYV,2023-06-02T16:53:00Z,39.1,-121.57,21.1,10.0,0,3,,10.0,29.970472,1015.1,,TRUE,TRUE,,,,,,,CLR,,,,,,,,VFR,,,,,,,,,,,,METAR,18.0
KMYF 021653Z COR 30007KT 10SM BKN020 OVC027 17/12 A2999 RMK AO2 SLP153 T01720122,KMYF,2023-06-02T16:53:00Z,32.82,-117.13,17.2,12.2,300,7,,10.0,29.991142,1015.3,TRUE,,TRUE,,,,,,,BKN,2000,OVC,2700,,,,,MVFR,,,,,,,,,,,,SPECI,128.0
KMWT 021653Z AUTO VRB03KT 10SM CLR 31/18 A2997 RMK AO2 SLP138 T03060178,KMWT,2023-06-02T16:53:00Z,34.55,-93.58,30.6,17.8,0,3,,10.0,29.970472,1013.8,,TRUE,TRUE,,,,,,,CLR,,,,,,,,VFR,,,,,,,,,,,,METAR,220.0
KMWL 021653Z AUTO 13011G22KT 10SM FEW037 30/19 A2993 RMK AO2 SLP118 T03000189,KMWL,2023-06-02T16:53:00Z,32.78,-98.07,30.0,18.9,130,11,22,10.0,29.929134,1011.8,,TRUE,TRUE,,,,,,,FEW,3700,,,,,,,VFR,,,,,,,,,,,,METAR,288.0
KMVY 021653Z 21010KT 10SM CLR 24/14 A2992 RMK AO2 SLP132 T02390144,KMVY,2023-06-02T16:53:00Z,41.4,-70.62,23.9,14.4,210,10,,10.0,29.920275,1013.2,,,TRUE,,,,,,,CLR,,,,,,,,VFR,,,,,,,,,,,,METAR,18.0
KMTO 021653Z AUTO VRB03KT 10SM FEW070 31/13 A3001 RMK AO2 SLP156 T03110128,KMTO,2023-06-02T16:53:00Z,39.47,-88.27,31.1,12.8,0,3,,10.0,30.008858,1015.6,,TRUE,TRUE,,,,,,,FEW,7000,,,,,,,VFR,,,,,,,,,,,,METAR,216.0
KMTJ 021653Z AUTO 33006KT 10SM CLR 14/06 A3007 RMK AO2 SLP133 T01440056,KMTJ,2023-06-02T16:53:00Z,38.5,-107.9,14.4,5.6,330,6,,10.0,30.070866,1013.3,,TRUE,TRUE,,,,,,,CLR,,,,,,,,VFR,,,,,,,,,,,,METAR,1755.0
KMSY 021653Z 06009G18KT 10SM FEW035 30/18 A2992 RMK AO2 SLP133 T03000178,KMSY,2023-06-02T16:53:00Z,30.0,-90.25,30.0,17.8,60,9,18,10.0,29.920275,1013.3,,,TRUE,,,,,,,FEW,3500,,,,,,,VFR,,,,,,,,,,,,METAR,0.0
KMSS 021653Z AUTO 03008KT 10SM CLR 29/16 A2999 RMK AO2 SLP154 T02940156,KMSS,2023-06-02T16:53:00Z,44.93,-74.85,29.4,15.6,30,8,,10.0,29.991142,1015.4,,TRUE,TRUE,,,,,,,CLR,,,,,,,,VFR,,,,,,,,,,,,METAR,60.0
KMSP 021653Z 22005KT 10SM FEW050 SCT130 BKN170 28/17 A3007 RMK AO2 SLP176 T02830167,KMSP,2023-06-02T16:53:00Z,44.88,-93.23,28.3,16.7,220,5,,10.0,30.070866,1017.6,,,TRUE,,,,,,,FEW,5000,SCT,13000,BKN,17000,,,VFR,,,,,,,,,,,,METAR,255.0
KMSO 021653Z 31004KT 10SM OVC055 18/12 A3002 RMK AO2 SLP151 T01830122,KMSO,2023-06-02T16:53:00Z,46.92,-114.1,18.3,12.2,310,4,,10.0,30.02067,1015.1,,,TRUE,,,,,,,OVC,5500,,,,,,,VFR,,,,,,,,,,,,METAR,974.0
KMSN 021653Z 00000KT 10SM FEW055 SCT250 29/15 A3008 RMK AO2 SLP182 T02940150,KMSN,2023-06-02T16:53:00Z,43.13,-89.35,29.4,15.0,0,0,,10.0,30.079725,1018.2,,,TRUE,,,,,,,FEW,5500,SCT,25000,,,,,VFR,,,,,,,,,,,,METAR,262.0
KMSL 021653Z AUTO 05004KT 10SM BKN044 BKN060 29/19 A2995 RMK AO2 SLP135 T02940189,KMSL,2023-06-02T16:53:00Z,34.75,-87.6,29.4,18.9,50,4,,10.0,29.949802,1013.5,,TRUE,TRUE,,,,,,,BKN,4400,BKN,6000,,,,,VFR,,,,,,,,,,,,METAR,170.0
KMRB 021653Z 00000KT 10SM CLR 29/11 A2997 RMK AO2 SLP144 T02940111,KMRB,2023-06-02T16:53:00Z,39.4,-77.98,29.4,11.1,0,0,,10.0,29.970472,1014.4,,,TRUE,,,,,,,CLR,,,,,,,,VFR,,,,,,,,,,,,METAR,165.0
KMPO 021653Z AUTO 35015KT 10SM CLR 30/10 A3000 RMK AO2 LTG DSNT NE SLP145 T03000100,KMPO,2023-06-02T16:53:00Z,41.13,-75.38,30.0,10.0,350,15,,10.0,30.0,1014.5,,TRUE,TRUE,,,,,,,CLR,,,,,,,,VFR,,,,,,,,,,,,METAR,576.0
KMOD 021653Z 30007KT 10SM CLR 19/09 A2995 RMK AO2 SLP143 T01940094,KMOD,2023-06-02T16:53:00Z,37.62,-120.95,19.4,9.4,300,7,,10.0,29.949802,1014.3,,,TRUE,,,,,,,CLR,,,,,,,,VFR,,,,,,,,,,,,METAR,25.0
KMNN 021653Z AUTO 05008KT 10SM CLR 30/09 A3004 RMK AO2 SLP168 T03000094,KMNN,2023-06-02T16:53:00Z,40.62,-83.07,30.0,9.4,50,8,,10.0,30.041338,1016.8,,TRUE,TRUE,,,,,,,CLR,,,,,,,,VFR,,,,,,,,,,,,METAR,301.0
KMMV 021653Z AUTO 00000KT 10SM CLR 15/06 A3013 RMK AO2 SLP201 T01500061,KMMV,2023-06-02T16:53:00Z,45.2,-123.13,15.0,6.1,0,0,,10.0,30.129921,1020.1,,TRUE,TRUE,,,,,,,CLR,,,,,,,,VFR,,,,,,,,,,,,METAR,48.0
KMMK 021653Z AUTO 00000KT 10SM CLR 31/14 A2989 RMK AO2 LTG DSNT NW SLP118 T03110144 $,KMMK,2023-06-02T16:53:00Z,41.52,-72.83,31.1,14.4,0,0,,10.0,29.890747,1011.8,,TRUE,TRUE,TRUE,,,,,,CLR,,,,,,,,VFR,,,,,,,,,,,,METAR,30.0
KMLU 021653Z 07003KT 10SM CLR 31/18 A2996 RMK AO2 SLP143 T03110183,KMLU,2023-06-02T16:53:00Z,32.52,-92.03,31.1,18.3,70,3,,10.0,29.958662,1014.3,,,TRUE,,,,,,,CLR,,,,,,,,VFR,,,,,,,,,,,,METAR,22.0
KMLT 021653Z AUTO 06009KT 10SM CLR 27/16 A2994 RMK AO2 LTG DSNT SW AND NW SLP143 T02670161,KMLT,2023-06-02T16:53:00Z,45.65,-68.7,26.7,16.1,60,9,,10.0,29.940945,1014.3,,TRUE,TRUE,,,,,,,CLR,,,,,,,,VFR,,,,,,,,,,,,METAR,121.0
KMLS 021653Z AUTO 08016G19KT 10SM SCT034 23/15 A2986 RMK AO2 SLP094 T02330150,KMLS,2023-06-02T16:53:00Z,46.43,-105.88,23.3,15.0,80,16,19,10.0,29.861221,1009.4,,TRUE,TRUE,,,,,,,SCT,3400,,,,,,,VFR,,,,,,,,,,,,METAR,800.0
KMLP 021653Z AUTO 00000KT 10SM FEW050 OVC085 12/07 A3011 RMK AO2 SLP121 T01170067,KMLP,2023-06-02T16:53:00Z,47.45,-115.67,11.7,6.7,0,0,,10.0,30.109253,1012.1,,TRUE,TRUE,,,,,,,FEW,5000,OVC,8500,,,,,VFR,,,,,,,,,,,,METAR,1837.0
KMLC 021653Z AUTO 14005KT 10SM CLR 30/19 A2997 RMK AO2 SLP139 T03000189,KMLC,2023-06-02T16:53:00Z,34.88,-95.78,30.0,18.9,140,5,,10.0,29.970472,1013.9,,TRUE,TRUE,,,,,,,CLR,,,,,,,,VFR,,,,,,,,,,,,METAR,231.0
KMLB 021653Z 05011KT 10SM CLR 29/23 A2979 RMK AO2 SLP088 T02890228,KMLB,2023-06-02T16:53:00Z,28.1,-80.65,28.9,22.8,50,11,,10.0,29.790354,1008.8,,,TRUE,,,,,,,CLR,,,,,,,,VFR,,,,,,,,,,,,METAR,7.0
KMKO 021653Z AUTO 10SM FEW045 30/19 A3000 RMK AO2 SLP150 T03000194,KMKO,2023-06-02T16:53:00Z,35.65,-95.37,30.0,19.4,,,,10.0,30.0,1015.0,,TRUE,TRUE,,,,,,,FEW,4500,,,,,,,VFR,,,,,,,,,,,,METAR,184.0
KMKL 021653Z VRB04KT 10SM FEW047 29/18 A2997 RMK AO2 SLP146 T02890183,KMKL,2023-06-02T16:53:00Z,35.6,-88.92,28.9,18.3,0,4,,10.0,29.970472,1014.6,,,TRUE,,,,,,,FEW,4700,,,,,,,VFR,,,,,,,,,,,,METAR,130.0
KMIW 021653Z AUTO 16006KT 10SM CLR 28/19 A3005 RMK AO2 SLP168 T02830194,KMIW,2023-06-02T16:53:00Z,42.12,-92.92,28.3,19.4,160,6,,10.0,30.050198,1016.8,,TRUE,TRUE,,,,,,,CLR,,,,,,,,VFR,,,,,,,,,,,,METAR,296.0
KMIE 021653Z 03012KT 10SM CLR 31/08 A3005 RMK AO2 WSHFT 1636 SLP164 T03110083,KMIE,2023-06-02T16:53:00Z,40.23,-85.4,31.1,8.3,30,12,,10.0,30.050198,1016.4,,,TRUE,,,,,,,CLR,,,,,,,,VFR,,,,,,,,,,,,METAR,286.0
KMIC 021653Z 20008KT 10SM SCT120 28/17 A3005 RMK AO2 SLP171 T02830172,KMIC,2023-06-02T16:53:00Z,45.07,-93.35,28.3,17.2,200,8,,10.0,30.050198,1017.1,,,TRUE,,,,,,,SCT,12000,,,,,,,VFR,,,,,,,,,,,,METAR,263.0
KMIA 021653Z 13008KT 10SM -RA FEW034 FEW060 BKN090 BKN150 BKN200 28/22 A2977 RMK AO2 LTG DSNT S AND SW SLP082 TSE28 P0000 T02780217 $,KMIA,2023-06-02T16:53:00Z,25.8,-80.32,27.8,21.7,130,8,,10.0,29.769686,1008.2,,,TRUE,TRUE,,,,,-RA,FEW,3400,FEW,6000,BKN,9000,BKN,15000,VFR,,,,,,0.005,,,,,,METAR,1.0
KMHT 021653Z VRB03KT 10SM FEW050 SCT150 33/14 A2987 RMK AO2 LTG DSNT W SLP121 T03280139,KMHT,2023-06-02T16:53:00Z,42.93,-71.43,32.8,13.9,0,3,,10.0,29.870079,1012.1,,,TRUE,,,,,,,FEW,5000,SCT,15000,,,,,VFR,,,,,,,,,,,,METAR,68.0
KMHE 021653Z AUTO 21010G18KT 10SM FEW049 29/16 A2997 RMK AO2 SLP137 T02890161,KMHE,2023-06-02T16:53:00Z,43.77,-98.03,28.9,16.1,210,10,18,10.0,29.970472,1013.7,,TRUE,TRUE,,,,,,,FEW,4900,,,,,,,VFR,,,,,,,,,,,,METAR,397.0
KMGY 021653Z AUTO 04008KT 10SM CLR 31/09 A3003 RMK AO2 SLP159 T03060094,KMGY,2023-06-02T16:53:00Z,39.6,-84.23,30.6,9.4,40,8,,10.0,30.029528,1015.9,,TRUE,TRUE,,,,,,,CLR,,,,,,,,VFR,,,,,,,,,,,,METAR,290.0
KMGW 021653Z 35007KT 10SM FEW095 30/11 A3003 RMK AO2 SLP160 T03000106,KMGW,2023-06-02T16:53:00Z,39.65,-79.92,30.0,10.6,350,7,,10.0,30.029528,1016.0,,,TRUE,,,,,,,FEW,9500,,,,,,,VFR,,,,,,,,,,,,METAR,375.0
KMGM 021653Z 03009KT 10SM SCT049 29/17 A2991 RMK AO2 SLP125 T02940172,KMGM,2023-06-02T16:53:00Z,32.3,-86.4,29.4,17.2,30,9,,10.0,29.911417,1012.5,,,TRUE,,,,,,,SCT,4900,,,,,,,VFR,,,,,,,,,,,,METAR,64.0
KMFR 021653Z 35004KT 10SM CLR 16/05 A3008 RMK AO2 SLP180 T01610050,KMFR,2023-06-02T16:53:00Z,42.38,-122.87,16.1,5.0,350,4,,10.0,30.079725,1018.0,,,TRUE,,,,,,,CLR,,,,,,,,VFR,,,,,,,,,,,,METAR,397.0
KMFE 021653Z 14011KT 10SM SCT037 SCT047 31/23 A2988 RMK AO2 SLP116 T03110233,KMFE,2023-06-02T16:53:00Z,26.18,-98.25,31.1,23.3,140,11,,10.0,29.878937,1011.6,,,TRUE,,,,,,,SCT,3700,SCT,4700,,,,,VFR,,,,,,,,,,,,METAR,29.0
KMER 021653Z 00000KT 10SM CLR 23/09 A2996,KMER,2023-06-02T16:53:00Z,37.38,-120.57,23.0,9.0,0,0,,10.0,29.958662,,,,,,,,,,,CLR,,,,,,,,VFR,,,,,,,,,,,,METAR,58.0
KMDW 021653Z 08006KT 10SM BKN090 BKN250 31/10 A3007 RMK AO2 SLP170 T03110100,KMDW,2023-06-02T16:53:00Z,41.78,-87.75,31.1,10.0,80,6,,10.0,30.070866,1017.0,,,TRUE,,,,,,,BKN,9000,BKN,25000,,,,,VFR,,,,,,,,,,,,METAR,186.0
KMCW 021653Z AUTO 14005KT 10SM CLR 27/18 A3008 RMK AO2 SLP175 T02720178,KMCW,2023-06-02T16:53:00Z,43.15,-93.33,27.2,17.8,140,5,,10.0,30.079725,1017.5,,TRUE,TRUE,,,,,,,CLR,,,,,,,,VFR,,,,,,,,,,,,METAR,363.0
KMCO 021653Z 08007KT 10SM SCT037TCU SCT250 31/21 A2979 RMK AO2 SLP084 TCU SE-S T03110206,KMCO,2023-06-02T16:53:00Z,28.42,-81.33,31.1,20.6,80,7,,10.0,29.790354,1008.4,,,TRUE,,,,,,,SCT,3700,SCT,25000,,,,,VFR,,,,,,,,,,,,METAR,27.0
KMCN 021653Z 04010G16KT 10SM BKN040 BKN050 28/18 A2991 RMK AO2 SLP123 T02780178,KMCN,2023-06-02T16:53:00Z,32.68,-83.65,27.8,17.8,40,10,16,10.0,29.911417,1012.3,,,TRUE,,,,,,,BKN,4000,BKN,5000,,,,,VFR,,,,,,,,,,,,METAR,104.0
KMCK 021653Z AUTO 17008G19KT 9SM OVC019 21/17 A2996 RMK AO2 SLP126 T02060167,KMCK,2023-06-02T16:53:00Z,40.2,-100.58,20.6,16.7,170,8,19,9.0,29.958662,1012.6,,TRUE,TRUE,,,,,,,OVC,1900,,,,,,,MVFR,,,,,,,,,,,,METAR,780.0
KMCI 021653Z 15007KT 10SM FEW030 28/19 A3001 RMK AO2 SLP152 T02830194,KMCI,2023-06-02T16:53:00Z,39.3,-94.73,28.3,19.4,150,7,,10.0,30.008858,1015.2,,,TRUE,,,,,,,FEW,3000,,,,,,,VFR,,,,,,,,,,,,METAR,308.0
KMCE 021653Z AUTO VRB06KT 10SM CLR 21/10 A2996 RMK AO2 SLP143 T02060100 $,KMCE,2023-06-02T16:53:00Z,37.28,-120.5,20.6,10.0,0,6,,10.0,29.958662,1014.3,,TRUE,TRUE,TRUE,,,,,,CLR,,,,,,,,VFR,,,,,,,,,,,,METAR,49.0
KMCB 021653Z AUTO 05007KT 10SM FEW046 29/17 A2994 RMK AO2 SLP131 T02940167,KMCB,2023-06-02T16:53:00Z,31.18,-90.47,29.4,16.7,50,7,,10.0,29.940945,1013.1,,TRUE,TRUE,,,,,,,FEW,4600,,,,,,,VFR,,,,,,,,,,,,METAR,124.0
KMBS 021653Z 05007KT 10SM CLR 27/13 A3013 RMK AO2 SLP198 T02670128,KMBS,2023-06-02T16:53:00Z,43.53,-84.08,26.7,12.8,50,7,,10.0,30.129921,1019.8,,,TRUE,,,,,,,CLR,,,,,,,,VFR,,,,,,,,,,,,METAR,201.0
KMAI 021653Z AUTO 06014G20KT 10SM CLR 29/16 A2986 RMK AO2 SLP110 T02890161,KMAI,2023-06-02T16:53:00Z,30.83,-85.18,28.9,16.1,60,14,20,10.0,29.861221,1011.0,,TRUE,TRUE,,,,,,,CLR,,,,,,,,VFR,,,,,,,,,,,,METAR,33.0
KMAF 021653Z 17017KT 10SM SCT025 BKN038 26/19 A2993 RMK AO2 SLP087 T02610189,KMAF,2023-06-02T16:53:00Z,31.95,-102.2,26.1,18.9,170,17,,10.0,29.929134,1008.7,,,TRUE,,,,,,,SCT,2500,BKN,3800,,,,,VFR,,,,,,,,,,,,METAR,874.0
KMAE 021653Z AUTO 32005KT 10SM CLR 21/10 A2997 RMK AO2 SLP145 T02060100,KMAE,2023-06-02T16:53:00Z,36.98,-120.12,20.6,10.0,320,5,,10.0,29.970472,1014.5,,TRUE,TRUE,,,,,,,CLR,,,,,,,,VFR,,,,,,,,,,,,METAR,77.0
KLXT 021653Z AUTO 17008KT 10SM BKN046 BKN055 28/19 A3002 RMK AO2 SLP156 T02780189,KLXT,2023-06-02T16:53:00Z,38.97,-94.37,27.8,18.9,170,8,,10.0,30.02067,1015.6,,TRUE,TRUE,,,,,,,BKN,4600,BKN,5500,,,,,VFR,,,,,,,,,,,,METAR,306.0
KLWV 021653Z AUTO 08010G20KT 10SM CLR 33/08 A3000 RMK AO2 SLP154 T03330083,KLWV,2023-06-02T16:53:00Z,38.77,-87.6,33.3,8.3,80,10,20,10.0,30.0,1015.4,,TRUE,TRUE,,,,,,,CLR,,,,,,,,VFR,,,,,,,,,,,,METAR,128.0
KLWD 021653Z AUTO VRB05KT 10SM CLR 29/18 A3004 RMK AO2 SLP163 T02890178,KLWD,2023-06-02T16:53:00Z,40.63,-93.9,28.9,17.8,0,5,,10.0,30.041338,1016.3,,TRUE,TRUE,,,,,,,CLR,,,,,,,,VFR,,,,,,,,,,,,METAR,345.0
KLVS 021653Z AUTO 10SM CLR 17/07 A3010 RMK AO2 SLP105 T01670072,KLVS,2023-06-02T16:53:00Z,35.65,-105.13,16.7,7.2,,,,10.0,30.100393,1010.5,,TRUE,TRUE,,,,,,,CLR,,,,,,,,VFR,,,,,,,,,,,,METAR,2095.0
KLVM 021653Z AUTO 33012KT 10SM -RA FEW017 OVC060 14/12 A3002 RMK AO2 SLP140 P0001 T01390117,KLVM,2023-06-02T16:53:00Z,45.7,-110.43,13.9,11.7,330,12,,10.0,30.02067,1014.0,,TRUE,TRUE,,,,,,-RA,FEW,1700,OVC,6000,,,,,VFR,,,,,,0.01,,,,,,METAR,1418.0
KLVK 021653Z VRB04KT 10SM CLR 16/09 A2999 RMK AO2 SLP155 T01610089,KLVK,2023-06-02T16:53:00Z,37.7,-121.82,16.1,8.9,0,4,,10.0,29.991142,1015.5,,,TRUE,,,,,,,CLR,,,,,,,,VFR,,,,,,,,,,,,METAR,120.0
KLVJ 021653Z AUTO 12008KT 9SM SCT039 31/20 A2994 RMK AO2 SLP137 T03110200,KLVJ,2023-06-02T16:53:00Z,29.52,-95.25,31.1,20.0,120,8,,9.0,29.940945,1013.7,,TRUE,TRUE,,,,,,,SCT,3900,,,,,,,VFR,,,,,,,,,,,,METAR,11.0
KLUK 021653Z 05009KT 10SM CLR 31/14 A3001 RMK AO2 SLP157 T03110139,KLUK,2023-06-02T16:53:00Z,39.1,-84.42,31.1,13.9,50,9,,10.0,30.008858,1015.7,,,TRUE,,,,,,,CLR,,,,,,,,VFR,,,,,,,,,,,,METAR,144.0
KLSE 021653Z 18006KT 10SM CLR 31/16 A3007 RMK AO2 SLP170 T03060161 $,KLSE,2023-06-02T16:53:00Z,43.88,-91.25,30.6,16.1,180,6,,10.0,30.070866,1017.0,,,TRUE,TRUE,,,,,,CLR,,,,,,,,VFR,,,,,,,,,,,,METAR,198.0
KLPR 021653Z AUTO 06011KT 10SM CLR 30/12 A3007 RMK AO2 SLP176 T03000122,KLPR,2023-06-02T16:53:00Z,41.35,-82.18,30.0,12.2,60,11,,10.0,30.070866,1017.6,,TRUE,TRUE,,,,,,,CLR,,,,,,,,VFR,,,,,,,,,,,,METAR,241.0
KLOZ 021653Z AUTO 02010KT 350V050 10SM CLR 29/14 A3000 RMK AO2 SLP147 T02940144,KLOZ,2023-06-02T16:53:00Z,37.08,-84.07,29.4,14.4,20,10,,10.0,30.0,1014.7,,TRUE,TRUE,,,,,,,CLR,,,,,,,,VFR,,,,,,,,,,,,METAR,361.0
KLOU 021653Z 08009KT 10SM CLR 30/12 A3000 RMK AO2 SLP153 T03000117,KLOU,2023-06-02T16:53:00Z,38.22,-85.67,30.0,11.7,80,9,,10.0,30.0,1015.3,,,TRUE,,,,,,,CLR,,,,,,,,VFR,,,,,,,,,,,,METAR,165.0
KLOL 021653Z AUTO 08003KT 10SM CLR 17/07 A3005 RMK AO2 SLP152 T01720072,KLOL,2023-06-02T16:53:00Z,40.07,-118.57,17.2,7.2,80,3,,10.0,30.050198,1015.2,,TRUE,TRUE,,,,,,,CLR,,,,,,,,VFR,,,,,,,,,,,,METAR,1191.0
KLNS 021653Z 03008KT 10SM SCT075 34/12 A2992 RMK AO2 SLP128 T03390122,KLNS,2023-06-02T16:53:00Z,40.12,-76.3,33.9,12.2,30,8,,10.0,29.920275,1012.8,,,TRUE,,,,,,,SCT,7500,,,,,,,VFR,,,,,,,,,,,,METAR,122.0
KLND 021653Z AUTO 24005KT 10SM OVC040 12/09 A2998 RMK AO2 SLP116 T01220094,KLND,2023-06-02T16:53:00Z,42.82,-108.73,12.2,9.4,240,5,,10.0,29.97933,1011.6,,TRUE,TRUE,,,,,,,OVC,4000,,,,,,,VFR,,,,,,,,,,,,METAR,1700.0
KLMT 021653Z 00000KT 10SM CLR 14/06 A3009 RMK AO2 SLP168 T01440061,KLMT,2023-06-02T16:53:00Z,42.15,-121.72,14.4,6.1,0,0,,10.0,30.088583,1016.8,,,TRUE,,,,,,,CLR,,,,,,,,VFR,,,,,,,,,,,,METAR,1246.0
KLLQ 021653Z AUTO VRB03KT 10SM SCT046 BKN060 29/18 A2996 RMK AO2 SLP143 T02940183,KLLQ,2023-06-02T16:53:00Z,33.63,-91.75,29.4,18.3,0,3,,10.0,29.958662,1014.3,,TRUE,TRUE,,,,,,,SCT,4600,BKN,6000,,,,,VFR,,,,,,,,,,,,METAR,86.0
KLKV 021653Z AUTO 35005KT 10SM FEW025 14/08 A3011 RMK AO2 SLP186 T01440078,KLKV,2023-06-02T16:53:00Z,42.17,-120.4,14.4,7.8,350,5,,10.0,30.109253,1018.6,,TRUE,TRUE,,,,,,,FEW,2500,,,,,,,VFR,,,,,,,,,,,,METAR,1440.0
KLIT 021653Z 16003KT 10SM SCT050 32/18 A2997 RMK AO2 SLP148 T03170183,KLIT,2023-06-02T16:53:00Z,34.73,-92.23,31.7,18.3,160,3,,10.0,29.970472,1014.8,,,TRUE,,,,,,,SCT,5000,,,,,,,VFR,,,,,,,,,,,,METAR,77.0
KLHX 021653Z AUTO 13007KT 10SM CLR 22/08 A2994 RMK AO2 SLP087 T02220083 $,KLHX,2023-06-02T16:53:00Z,38.05,-103.52,22.2,8.3,130,7,,10.0,29.940945,1008.7,,TRUE,TRUE,TRUE,,,,,,CLR,,,,,,,,VFR,,,,,,,,,,,,METAR,1289.0
KLHQ 021653Z AUTO 04014G17KT 7SM CLR 31/11 A3003 RMK AO2 SLP161 T03110106,KLHQ,2023-06-02T16:53:00Z,39.75,-82.67,31.1,10.6,40,14,17,7.0,30.029528,1016.1,,TRUE,TRUE,,,,,,,CLR,,,,,,,,VFR,,,,,,,,,,,,METAR,259.0
KLGB 021653Z 35003KT 10SM OVC041 19/11 A2998 RMK AO2 SLP153 T01940111,KLGB,2023-06-02T16:53:00Z,33.82,-118.15,19.4,11.1,350,3,,10.0,29.97933,1015.3,,,TRUE,,,,,,,OVC,4100,,,,,,,VFR,,,,,,,,,,,,METAR,10.0
KLFT 021653Z 09004KT 10SM CLR 31/18 A2992 RMK AO2 SLP131 T03060178,KLFT,2023-06-02T16:53:00Z,30.2,-91.97,30.6,17.8,90,4,,10.0,29.920275,1013.1,,,TRUE,,,,,,,CLR,,,,,,,,VFR,,,,,,,,,,,,METAR,9.0
KLFK 021653Z AUTO 00000KT 10SM FEW035 30/21 A2994 RMK AO2 SLP135 T03000211,KLFK,2023-06-02T16:53:00Z,31.23,-94.75,30.0,21.1,0,0,,10.0,29.940945,1013.5,,TRUE,TRUE,,,,,,,FEW,3500,,,,,,,VFR,,,,,,,,,,,,METAR,87.0
KLEE 021653Z 02009G17KT 10SM BKN040 BKN050 29/19 A2980 RMK AO2 SLP091 T02940194,KLEE,2023-06-02T16:53:00Z,28.82,-81.82,29.4,19.4,20,9,17,10.0,29.799213,1009.1,,,TRUE,,,,,,,BKN,4000,BKN,5000,,,,,VFR,,,,,,,,,,,,METAR,21.0
KLEB 021653Z VRB03KT 10SM CLR 31/16 A2992 RMK AO2 SLP121 T03110156,KLEB,2023-06-02T16:53:00Z,43.63,-72.3,31.1,15.6,0,3,,10.0,29.920275,1012.1,,,TRUE,,,,,,,CLR,,,,,,,,VFR,,,,,,,,,,,,METAR,169.0
KLCH 021653Z VRB04KT 10SM FEW037 29/21 A2992 RMK AO2 SLP140 T02940206,KLCH,2023-06-02T16:53:00Z,30.13,-93.22,29.4,20.6,0,4,,10.0,29.920275,1014.0,,,TRUE,,,,,,,FEW,3700,,,,,,,VFR,,,,,,,,,,,,METAR,2.0
KLBX 021653Z AUTO 18007KT 10SM FEW040 31/21 A2993 RMK AO2 SLP135 T03060211,KLBX,2023-06-02T16:53:00Z,29.12,-95.47,30.6,21.1,180,7,,10.0,29.929134,1013.5,,TRUE,TRUE,,,,,,,FEW,4000,,,,,,,VFR,,,,,,,,,,,,METAR,4.0
KLBF 021653Z AUTO 13008G19KT 10SM OVC025 21/16 A2996 RMK AO2 SLP126 T02060156,KLBF,2023-06-02T16:53:00Z,41.12,-100.67,20.6,15.6,130,8,19,10.0,29.958662,1012.6,,TRUE,TRUE,,,,,,,OVC,2500,,,,,,,MVFR,,,,,,,,,,,,METAR,843.0
KLBB 021653Z 17014KT 8SM FEW010 BKN015 BKN024 BKN250 22/18 A2997 RMK AO2 DZE10 SLP105 P0000 T02220183,KLBB,2023-06-02T16:53:00Z,33.67,-101.82,22.2,18.3,170,14,,8.0,29.970472,1010.5,,,TRUE,,,,,,,FEW,1000,BKN,1500,BKN,2400,BKN,25000,MVFR,,,,,,0.005,,,,,,METAR,996.0
KLAX 021653Z 23007KT 210V280 10SM FEW014 FEW032 SCT045 19/12 A2999 RMK AO2 SLP153 T01890117,KLAX,2023-06-02T16:53:00Z,33.93,-118.38,18.9,11.7,230,7,,10.0,29.991142,1015.3,,,TRUE,,,,,,,FEW,1400,FEW,3200,SCT,4500,,,VFR,,,,,,,,,,,,METAR,30.0
KLAW 021653Z 14016G20KT 10SM BKN045 30/19 A2994 RMK AO2 SLP125 T03000189,KLAW,2023-06-02T16:53:00Z,34.55,-98.42,30.0,18.9,140,16,20,10.0,29.940945,1012.5,,,TRUE,,,,,,,BKN,4500,,,,,,,VFR,,,,,,,,,,,,METAR,328.0
KLAR 021653Z AUTO 23011KT 9SM -RA FEW037 BKN049 OVC060 08/07 A3004 RMK AO2 SLP105 T00830072 PNO $,KLAR,2023-06-02T16:53:00Z,41.32,-105.67,8.3,7.2,230,11,,9.0,30.041338,1010.5,,TRUE,TRUE,TRUE,,,,,-RA,FEW,3700,BKN,4900,OVC,6000,,,VFR,,,,,,,,,,,,METAR,2217.0
KLAN 021653Z 05011G14KT 10SM CLR 32/11 A3011 RMK AO2 SLP189 T03170111,KLAN,2023-06-02T16:53:00Z,42.78,-84.58,31.7,11.1,50,11,14,10.0,30.109253,1018.9,,,TRUE,,,,,,,CLR,,,,,,,,VFR,,,,,,,,,,,,METAR,261.0
KLAA 021653Z AUTO 16014KT 10SM FEW039 SCT049 25/12 A2991 RMK AO2 SLP084 T02500122,KLAA,2023-06-02T16:53:00Z,38.07,-102.68,25.0,12.2,160,14,,10.0,29.911417,1008.4,,TRUE,TRUE,,,,,,,FEW,3900,SCT,4900,,,,,VFR,,,,,,,,,,,,METAR,1129.0
KJLN 021653Z 15008KT 10SM SCT040 30/18 A3001 RMK AO2 SLP150 T03000178,KJLN,2023-06-02T16:53:00Z,37.15,-94.5,30.0,17.8,150,8,,10.0,30.008858,1015.0,,,TRUE,,,,,,,SCT,4000,,,,,,,VFR,,,,,,,,,,,,METAR,297.0
KJKL 021653Z AUTO 00000KT 10SM CLR 28/15 A3002 RMK AO2 SLP149 T02830150 $,KJKL,2023-06-02T16:53:00Z,37.6,-83.32,28.3,15.0,0,0,,10.0,30.02067,1014.9,,TRUE,TRUE,TRUE,,,,,,CLR,,,,,,,,VFR,,,,,,,,,,,,METAR,414.0
KJER 021653Z AUTO 27013G22KT 10SM CLR 19/06 A3000 RMK AO2 SLP130 T01890056,KJER,2023-06-02T16:53:00Z,42.72,-114.45,18.9,5.6,270,13,22,10.0,30.0,1013.0,,TRUE,TRUE,,,,,,,CLR,,,,,,,,VFR,,,,,,,,,,,,METAR,1226.0
KJEF 021653Z VRB03KT 10SM SCT060 30/18 A3000 RMK AO2 SLP146 T03000183,KJEF,2023-06-02T16:53:00Z,38.6,-92.15,30.0,18.3,0,3,,10.0,30.0,1014.6,,,TRUE,,,,,,,SCT,6000,,,,,,,VFR,,,,,,,,,,,,METAR,167.0
KJBR 021653Z AUTO 04006KT 10SM CLR 32/17 A2998 RMK AO2 SLP147 T03170172 $,KJBR,2023-06-02T16:53:00Z,35.83,-90.65,31.7,17.2,40,6,,10.0,29.97933,1014.7,,TRUE,TRUE,TRUE,,,,,,CLR,,,,,,,,VFR,,,,,,,,,,,,METAR,79.0
KIXD 021653Z 12008KT 080V150 10SM FEW048 FEW060 30/18 A3002 RMK AO2 SLP152 T03000183,KIXD,2023-06-02T16:53:00Z,38.82,-94.88,30.0,18.3,120,8,,10.0,30.02067,1015.2,,,TRUE,,,,,,,FEW,4800,FEW,6000,,,,,VFR,,,,,,,,,,,,METAR,322.0
KIWI 021653Z AUTO 15008KT 110V180 10SM CLR 29/16 A2990 RMK AO2 SLP123 T02940161,KIWI,2023-06-02T16:53:00Z,43.97,-69.72,29.4,16.1,150,8,,10.0,29.899607,1012.3,,TRUE,TRUE,,,,,,,CLR,,,,,,,,VFR,,,,,,,,,,,,METAR,16.0
KITR 021653Z AUTO 17015G21KT 10SM FEW033 BKN041 BKN049 22/14 A2996 RMK AO2 SLP100 T02220139,KITR,2023-06-02T16:53:00Z,39.23,-102.28,22.2,13.9,170,15,21,10.0,29.958662,1010.0,,TRUE,TRUE,,,,,,,FEW,3300,BKN,4100,BKN,4900,,,VFR,,,,,,,,,,,,METAR,1285.0
KIPL 021653Z AUTO 00000KT 10SM CLR 26/15 A2987 RMK AO2 SLP113 T02560150,KIPL,2023-06-02T16:53:00Z,32.83,-115.58,25.6,15.0,0,0,,10.0,29.870079,1011.3,,TRUE,TRUE,,,,,,,CLR,,,,,,,,VFR,,,,,,,,,,,,METAR,-16.0
KINK 021653Z AUTO 16014G22KT 10SM CLR 29/17 A2986 RMK AO2 SLP064 T02890167,KINK,2023-06-02T16:53:00Z,31.78,-103.2,28.9,16.7,160,14,22,10.0,29.861221,1006.4,,TRUE,TRUE,,,,,,,CLR,,,,,,,,VFR,,,,,,,,,,,,METAR,857.0
KIML 021653Z AUTO 15019G30KT 10SM SCT027 22/16 A2993 RMK AO2 PK WND 14032/1636 SLP112 T02220161,KIML,2023-06-02T16:53:00Z,40.52,-101.62,22.2,16.1,150,19,30,10.0,29.929134,1011.2,,TRUE,TRUE,,,,,,,SCT,2700,,,,,,,VFR,,,,,,,,,,,,METAR,997.0
KIDA 021653Z 22004KT 10SM FEW065 SCT110 16/09 A3002 RMK AO2 SLP136 T01560094,KIDA,2023-06-02T16:53:00Z,43.52,-112.07,15.6,9.4,220,4,,10.0,30.02067,1013.6,,,TRUE,,,,,,,FEW,6500,SCT,11000,,,,,VFR,,,,,,,,,,,,METAR,1444.0
KICT 021653Z 18011G22KT 10SM FEW045 SCT110 SCT200 28/18 A2998 RMK AO2 SLP138 T02830183,KICT,2023-06-02T16:53:00Z,37.65,-97.43,28.3,18.3,180,11,22,10.0,29.97933,1013.8,,,TRUE,,,,,,,FEW,4500,SCT,11000,SCT,20000,,,VFR,,,,,,,,,,,,METAR,428.0
KIAH 021653Z 12007KT 10SM FEW045 SCT250 30/18 A2993 RMK AO2 SLP134 T03000183,KIAH,2023-06-02T16:53:00Z,30.0,-95.37,30.0,18.3,120,7,,10.0,29.929134,1013.4,,,TRUE,,,,,,,FEW,4500,SCT,25000,,,,,VFR,,,,,,,,,,,,METAR,27.0
KIAG 021653Z 32007KT 10SM CLR 31/14 A3003 RMK AO2 SLP160 T03110144,KIAG,2023-06-02T16:53:00Z,43.12,-78.93,31.1,14.4,320,7,,10.0,30.029528,1016.0,,,TRUE,,,,,,,CLR,,,,,,,,VFR,,,,,,,,,,,,METAR,179.0
KHZY 021653Z AUTO VRB04KT 10SM CLR 29/12 A3006 RMK AO2 SLP174 T02940122,KHZY,2023-06-02T16:53:00Z,41.78,-80.7,29.4,12.2,0,4,,10.0,30.059055,1017.4,,TRUE,TRUE,,,,,,,CLR,,,,,,,,VFR,,,,,,,,,,,,METAR,279.0
KHYR 021653Z AUTO 00000KT 10SM CLR 29/16 A3011 RMK AO2 SLP192 T02890156,KHYR,2023-06-02T16:53:00Z,46.02,-91.45,28.9,15.6,0,0,,10.0,30.109253,1019.2,,TRUE,TRUE,,,,,,,CLR,,,,,,,,VFR,,,,,,,,,,,,METAR,369.0
KHWO 021653Z 00000KT FEW038 FEW050 31/21 A2977 RMK AO2 SLP082 T03060206,KHWO,2023-06-02T16:53:00Z,26.0,-80.23,30.6,20.6,0,0,,,29.769686,1008.2,,,TRUE,,,,,,,FEW,3800,FEW,5000,,,,,,,,,,,,,,,,,METAR,2.0
KHVR 021653Z AUTO 36009KT 4SM -RA BR OVC013 14/13 A3005 RMK AO2 SLP169 P0003 T01440128,KHVR,2023-06-02T16:53:00Z,48.55,-109.77,14.4,12.8,360,9,,4.0,30.050198,1016.9,,TRUE,TRUE,,,,,,-RA BR,OVC,1300,,,,,,,MVFR,,,,,,0.03,,,,,,METAR,789.0
KHVN 021653Z 16008KT 8SM CLR 27/18 A2990 RMK AO2 SLP125 T02670178,KHVN,2023-06-02T16:53:00Z,41.27,-72.88,26.7,17.8,160,8,,8.0,29.899607,1012.5,,,TRUE,,,,,,,CLR,,,,,,,,VFR,,,,,,,,,,,,METAR,4.0
KHUL 021653Z AUTO 07009G17KT 040V110 10SM CLR 22/12 A2999 RMK AO2 SLP154 T02220122,KHUL,2023-06-02T16:53:00Z,46.12,-67.8,22.2,12.2,70,9,17,10.0,29.991142,1015.4,,TRUE,TRUE,,,,,,,CLR,,,,,,,,VFR,,,,,,,,,,,,METAR,148.0
KHUF 021653Z 09005KT 10SM CLR 31/12 A3002 RMK AO2 SLP160 T03110117,KHUF,2023-06-02T16:53:00Z,39.45,-87.32,31.1,11.7,90,5,,10.0,30.02067,1016.0,,,TRUE,,,,,,,CLR,,,,,,,,VFR,,,,,,,,,,,,METAR,174.0
KHTL 021653Z AUTO VRB05KT 10SM CLR 30/14 A3013 RMK AO2 SLP197 T03000139,KHTL,2023-06-02T16:53:00Z,44.35,-84.67,30.0,13.9,0,5,,10.0,30.129921,1019.7,,TRUE,TRUE,,,,,,,CLR,,,,,,,,VFR,,,,,,,,,,,,METAR,350.0
KHSV 021653Z 08011KT 10SM SCT050TCU SCT060 SCT250 31/17 A2994 RMK AO2 SLP131 TCU NE AND S T03110172,KHSV,2023-06-02T16:53:00Z,34.65,-86.78,31.1,17.2,80,11,,10.0,29.940945,1013.1,,,TRUE,,,,,,,SCT,5000,SCT,6000,SCT,25000,,,VFR,,,,,,,,,,,,METAR,190.0
KHRI 021653Z AUTO 26010KT 10SM CLR 20/06 A3004 RMK AO2 SLP170 T02000056,KHRI,2023-06-02T16:53:00Z,45.83,-119.27,20.0,5.6,260,10,,10.0,30.041338,1017.0,,TRUE,TRUE,,,,,,,CLR,,,,,,,,VFR,,,,,,,,,,,,METAR,194.0
KHOU 021653Z 14006KT 10SM SCT040 SCT250 31/19 A2992 RMK AO2 SLP136 T03110194,KHOU,2023-06-02T16:53:00Z,29.63,-95.28,31.1,19.4,140,6,,10.0,29.920275,1013.6,,,TRUE,,,,,,,SCT,4000,SCT,25000,,,,,VFR,,,,,,,,,,,,METAR,13.0
KHOT 021653Z AUTO 11008KT 10SM SCT050 31/17 A2999 RMK AO2 SLP147 T03060167,KHOT,2023-06-02T16:53:00Z,34.48,-93.1,30.6,16.7,110,8,,10.0,29.991142,1014.7,,TRUE,TRUE,,,,,,,SCT,5000,,,,,,,VFR,,,,,,,,,,,,METAR,153.0
KHLN 021653Z 27006KT 4SM -RA BR BKN038 OVC050 13/11 A3008 RMK AO2 SLP190 P0005 T01280106,KHLN,2023-06-02T16:53:00Z,46.6,-111.98,12.8,10.6,270,6,,4.0,30.079725,1019.0,,,TRUE,,,,,,-RA BR,BKN,3800,OVC,5000,,,,,MVFR,,,,,,0.05,,,,,,METAR,1178.0
KHLG 021653Z 02006KT 10SM CLR 29/12 A3003 RMK AO2 SLP160 T02940117,KHLG,2023-06-02T16:53:00Z,40.17,-80.65,29.4,11.7,20,6,,10.0,30.029528,1016.0,,,TRUE,,,,,,,CLR,,,,,,,,VFR,,,,,,,,,,,,METAR,365.0
KHLC 021653Z AUTO 17014G23KT 10SM FEW027 25/17 A2996 RMK AO2 SLP124 T02500167,KHLC,2023-06-02T16:53:00Z,39.37,-99.83,25.0,16.7,170,14,23,10.0,29.958662,1012.4,,TRUE,TRUE,,,,,,,FEW,2700,,,,,,,VFR,,,,,,,,,,,,METAR,667.0
KHKY 021653Z 04007G18KT 10SM CLR 27/10 A2997 RMK AO2 SLP126 T02720100,KHKY,2023-06-02T16:53:00Z,35.75,-81.38,27.2,10.0,40,7,18,10.0,29.970472,1012.6,,,TRUE,,,,,,,CLR,,,,,,,,VFR,,,,,,,,,,,,METAR,357.0
KHKS 021653Z 35003KT 10SM SCT050 BKN060 BKN075 29/18 A2995 RMK AO2 SLP132 T02890178,KHKS,2023-06-02T16:53:00Z,32.33,-90.22,28.9,17.8,350,3,,10.0,29.949802,1013.2,,,TRUE,,,,,,,SCT,5000,BKN,6000,BKN,7500,,,VFR,,,,,,,,,,,,METAR,103.0
KHKA 021653Z AUTO 03006KT 10SM SCT050 32/19 A2995 RMK AO2 SLP140 T03170189 $,KHKA,2023-06-02T16:53:00Z,35.93,-89.83,31.7,18.9,30,6,,10.0,29.949802,1014.0,,TRUE,TRUE,TRUE,,,,,,SCT,5000,,,,,,,VFR,,,,,,,,,,,,METAR,78.0
KHJO 021653Z AUTO VRB03KT 10SM CLR 21/09 A2997 RMK AO2 SLP148 T02110094,KHJO,2023-06-02T16:53:00Z,36.32,-119.62,21.1,9.4,0,3,,10.0,29.970472,1014.8,,TRUE,TRUE,,,,,,,CLR,,,,,,,,VFR,,,,,,,,,,,,METAR,73.0
KHIO 021653Z 00000KT 10SM CLR 14/06 A3013 RMK AO2 SLP202 T01440061,KHIO,2023-06-02T16:53:00Z,45.55,-122.95,14.4,6.1,0,0,,10.0,30.129921,1020.2,,,TRUE,,,,,,,CLR,,,,,,,,VFR,,,,,,,,,,,,METAR,62.0
KHIB 021653Z AUTO 13007KT 10SM CLR 23/17 A3011 RMK AO2 SLP194 T02330172,KHIB,2023-06-02T16:53:00Z,47.38,-92.83,23.3,17.2,130,7,,10.0,30.109253,1019.4,,TRUE,TRUE,,,,,,,CLR,,,,,,,,VFR,,,,,,,,,,,,METAR,409.0
KHHR 021653Z VRB04KT 10SM BKN030 BKN042 20/11 A2999 RMK AO2 SLP153 T02000106,KHHR,2023-06-02T16:53:00Z,33.92,-118.33,20.0,10.6,0,4,,10.0,29.991142,1015.3,,,TRUE,,,,,,,BKN,3000,BKN,4200,,,,,MVFR,,,,,,,,,,,,METAR,21.0
KHGR 021653Z VRB03KT 10SM CLR 31/11 A2997 RMK AO2 SLP152 T03110111,KHGR,2023-06-02T16:53:00Z,39.7,-77.73,31.1,11.1,0,3,,10.0,29.970472,1015.2,,,TRUE,,,,,,,CLR,,,,,,,,VFR,,,,,,,,,,,,METAR,206.0
KHFD 021653Z 13004KT 10SM CLR 31/17 A2987 RMK AO2 LTG DSNT W AND NW SLP115 T03110172,KHFD,2023-06-02T16:53:00Z,41.73,-72.65,31.1,17.2,130,4,,10.0,29.870079,1011.5,,,TRUE,,,,,,,CLR,,,,,,,,VFR,,,,,,,,,,,,METAR,3.0
KHEI 021653Z AUTO 13014G25KT 10SM CLR 26/17 A2990 RMK AO2 PK WND 11026/1642 SLP108 T02560167,KHEI,2023-06-02T16:53:00Z,46.02,-102.65,25.6,16.7,130,14,25,10.0,29.899607,1010.8,,TRUE,TRUE,,,,,,,CLR,,,,,,,,VFR,,,,,,,,,,,,METAR,824.0
KHBR 021653Z AUTO 18012G22KT 10SM FEW049 29/19 A2996 RMK AO2 LTG DSNT W SLP127 T02940194,KHBR,2023-06-02T16:53:00Z,34.98,-99.05,29.4,19.4,180,12,22,10.0,29.958662,1012.7,,TRUE,TRUE,,,,,,,FEW,4900,,,,,,,VFR,,,,,,,,,,,,METAR,475.0
KHBG 021653Z AUTO 01006KT 10SM BKN049 BKN070 30/18 A2993 RMK AO2 SLP130 T03000178,KHBG,2023-06-02T16:53:00Z,31.27,-89.25,30.0,17.8,10,6,,10.0,29.929134,1013.0,,TRUE,TRUE,,,,,,,BKN,4900,BKN,7000,,,,,VFR,,,,,,,,,,,,METAR,45.0
KHAO 021653Z AUTO 02009KT 10SM CLR 32/11 A3003 RMK AO2 SLP164 T03170111,KHAO,2023-06-02T16:53:00Z,39.37,-84.52,31.7,11.1,20,9,,10.0,30.029528,1016.4,,TRUE,TRUE,,,,,,,CLR,,,,,,,,VFR,,,,,,,,,,,,METAR,185.0
KGZH 021653Z AUTO 07011G17KT 10SM FEW049 28/17 A2990 RMK AO2 SLP121 T02830167,KGZH,2023-06-02T16:53:00Z,31.42,-87.05,28.3,16.7,70,11,17,10.0,29.899607,1012.1,,TRUE,TRUE,,,,,,,FEW,4900,,,,,,,VFR,,,,,,,,,,,,METAR,77.0
KGWO 021653Z AUTO VRB03KT 10SM FEW045 SCT090 32/19 A2994 RMK AO2 SLP138 T03170189,KGWO,2023-06-02T16:53:00Z,33.5,-90.08,31.7,18.9,0,3,,10.0,29.940945,1013.8,,TRUE,TRUE,,,,,,,FEW,4500,SCT,9000,,,,,VFR,,,,,,,,,,,,METAR,42.0
KGVL 021653Z AUTO 00000KT 10SM BKN042 BKN049 BKN060 27/16 A2998 RMK AO2 SLP137 T02720156 $,KGVL,2023-06-02T16:53:00Z,34.27,-83.83,27.2,15.6,0,0,,10.0,29.97933,1013.7,,TRUE,TRUE,TRUE,,,,,,BKN,4200,BKN,4900,BKN,6000,,,VFR,,,,,,,,,,,,METAR,387.0
KGUP 021653Z AUTO VRB03KT 10SM FEW110 16/02 A3013 RMK AO2 SLP106 T01560022,KGUP,2023-06-02T16:53:00Z,35.52,-108.8,15.6,2.2,0,3,,10.0,30.129921,1010.6,,TRUE,TRUE,,,,,,,FEW,11000,,,,,,,VFR,,,,,,,,,,,,METAR,1972.0
KGSP 021653Z 02006KT 10SM SCT047 27/15 A2995 RMK AO2 SLP132 T02670150,KGSP,2023-06-02T16:53:00Z,34.9,-82.22,26.7,15.0,20,6,,10.0,29.949802,1013.2,,,TRUE,,,,,,,SCT,4700,,,,,,,VFR,,,,,,,,,,,,METAR,285.0
KGSH 021653Z AUTO 10007G16KT 10SM CLR 32/09 A3007 RMK AO2 SLP176 T03170094,KGSH,2023-06-02T16:53:00Z,41.53,-85.78,31.7,9.4,100,7,16,10.0,30.070866,1017.6,,TRUE,TRUE,,,,,,,CLR,,,,,,,,VFR,,,,,,,,,,,,METAR,252.0
KGRR 021653Z 14005KT 10SM FEW085 SCT250 31/10 A3010 RMK AO2 SLP188 T03060100 $,KGRR,2023-06-02T16:53:00Z,42.88,-85.52,30.6,10.0,140,5,,10.0,30.100393,1018.8,,,TRUE,TRUE,,,,,,FEW,8500,SCT,25000,,,,,VFR,,,,,,,,,,,,METAR,239.0
KGRB 021653Z 04006KT 10SM CLR 28/14 A3012 RMK AO2 SLP195 T02830144,KGRB,2023-06-02T16:53:00Z,44.48,-88.13,28.3,14.4,40,6,,10.0,30.121063,1019.5,,,TRUE,,,,,,,CLR,,,,,,,,VFR,,,,,,,,,,,,METAR,209.0
KGPT 021653Z 08008KT 10SM SCT046 31/19 A2989 RMK AO2 SLP121 T03110189,KGPT,2023-06-02T16:53:00Z,30.42,-89.08,31.1,18.9,80,8,,10.0,29.890747,1012.1,,,TRUE,,,,,,,SCT,4600,,,,,,,VFR,,,,,,,,,,,,METAR,5.0
KGOK 021653Z AUTO 15010KT 10SM SCT042 28/18 A2995 RMK AO2 SLP133 T02830178,KGOK,2023-06-02T16:53:00Z,35.85,-97.4,28.3,17.8,150,10,,10.0,29.949802,1013.3,,TRUE,TRUE,,,,,,,SCT,4200,,,,,,,VFR,,,,,,,,,,,,METAR,326.0
KGNV 021653Z 05008KT 10SM SCT037 BKN046 28/19 A2985 RMK AO2 SLP105 T02780189,KGNV,2023-06-02T16:53:00Z,29.7,-82.28,27.8,18.9,50,8,,10.0,29.84941,1010.5,,,TRUE,,,,,,,SCT,3700,BKN,4600,,,,,VFR,,,,,,,,,,,,METAR,41.0
KGMU 021653Z 05008G15KT 010V080 10SM CLR 27/15 A2995 RMK AO2 SLP133 T02720150,KGMU,2023-06-02T16:53:00Z,34.85,-82.35,27.2,15.0,50,8,15,10.0,29.949802,1013.3,,,TRUE,,,,,,,CLR,,,,,,,,VFR,,,,,,,,,,,,METAR,309.0
KGLR 021653Z AUTO VRB05KT 10SM CLR 31/09 A3014 RMK AO2 SLP198 T03060094,KGLR,2023-06-02T16:53:00Z,45.02,-84.68,30.6,9.4,0,5,,10.0,30.138779,1019.8,,TRUE,TRUE,,,,,,,CLR,,,,,,,,VFR,,,,,,,,,,,,METAR,403.0
KGLH 021653Z VRB06KT 10SM FEW050 32/19 A2995 RMK AO2 SLP145 T03170189,KGLH,2023-06-02T16:53:00Z,33.47,-90.98,31.7,18.9,0,6,,10.0,29.949802,1014.5,,,TRUE,,,,,,,FEW,5000,,,,,,,VFR,,,,,,,,,,,,METAR,40.0
KGLD 021653Z AUTO 19017G27KT 10SM FEW033 FEW042 24/13 A2993 RMK AO2 PK WND 16030/1638 SLP098 T02390128,KGLD,2023-06-02T16:53:00Z,39.37,-101.7,23.9,12.8,190,17,27,10.0,29.929134,1009.8,,TRUE,TRUE,,,,,,,FEW,3300,FEW,4200,,,,,VFR,,,,,,,,,,,,METAR,1111.0
KGKY 021653Z 15007G18KT 10SM BKN038 BKN050 31/18 A2993 RMK AO2 SLP126 T03060183,KGKY,2023-06-02T16:53:00Z,32.67,-97.1,30.6,18.3,150,7,18,10.0,29.929134,1012.6,,,TRUE,,,,,,,BKN,3800,BKN,5000,,,,,VFR,,,,,,,,,,,,METAR,189.0
KGKJ 021653Z AUTO 06008KT 10SM CLR 29/08 A3006 RMK AO2 SLP169 T02940078,KGKJ,2023-06-02T16:53:00Z,41.63,-80.22,29.4,7.8,60,8,,10.0,30.059055,1016.9,,TRUE,TRUE,,,,,,,CLR,,,,,,,,VFR,,,,,,,,,,,,METAR,428.0
KGJT 021653Z 10009KT 8SM FEW085 17/07 A3001 RMK AO2 SLP112 T01670072,KGJT,2023-06-02T16:53:00Z,39.13,-108.53,16.7,7.2,100,9,,8.0,30.008858,1011.2,,,TRUE,,,,,,,FEW,8500,,,,,,,VFR,,,,,,,,,,,,METAR,1475.0
KGIF 021653Z AUTO 09006KT 10SM FEW036 29/21 A2980 RMK AO2 SLP089 T02940211,KGIF,2023-06-02T16:53:00Z,28.07,-81.75,29.4,21.1,90,6,,10.0,29.799213,1008.9,,TRUE,TRUE,,,,,,,FEW,3600,,,,,,,VFR,,,,,,,,,,,,METAR,44.0
KGGW 021653Z AUTO 04011KT 10SM BKN080 OVC095 19/16 A2993 RMK AO2 RAB11E30 SLP127 P0000 T01940161,KGGW,2023-06-02T16:53:00Z,48.22,-106.62,19.4,16.1,40,11,,10.0,29.929134,1012.7,,TRUE,TRUE,,,,,,,BKN,8000,OVC,9500,,,,,VFR,,,,,,0.005,,,,,,METAR,698.0
KGGG 021653Z VRB04KT 10SM FEW040 31/19 A2994 RMK AO2 SLP131 T03060189,KGGG,2023-06-02T16:53:00Z,32.38,-94.72,30.6,18.9,0,4,,10.0,29.940945,1013.1,,,TRUE,,,,,,,FEW,4000,,,,,,,VFR,,,,,,,,,,,,METAR,107.0
KGFL 021653Z AUTO 04008KT 10SM CLR 31/14 A2992 RMK AO2 SLP131 T03060139,KGFL,2023-06-02T16:53:00Z,43.33,-73.62,30.6,13.9,40,8,,10.0,29.920275,1013.1,,TRUE,TRUE,,,,,,,CLR,,,,,,,,VFR,,,,,,,,,,,,METAR,99.0
KGFK 021653Z 15009KT 10SM FEW035 BKN180 BKN250 28/19 A2997 RMK AO2 SLP144 T02830189,KGFK,2023-06-02T16:53:00Z,47.95,-97.18,28.3,18.9,150,9,,10.0,29.970472,1014.4,,,TRUE,,,,,,,FEW,3500,BKN,18000,BKN,25000,,,VFR,,,,,,,,,,,,METAR,256.0
KGEZ 021653Z AUTO 05007G17KT 10SM CLR 33/07 A3002 RMK AO2 SLP159 T03280067,KGEZ,2023-06-02T16:53:00Z,39.58,-85.8,32.8,6.7,50,7,17,10.0,30.02067,1015.9,,TRUE,TRUE,,,,,,,CLR,,,,,,,,VFR,,,,,,,,,,,,METAR,245.0
KGEY 021653Z AUTO 31017KT 10SM -RA FEW017 OVC070 15/13 A2991 RMK AO2 SLP106 P0001 T01500133,KGEY,2023-06-02T16:53:00Z,44.52,-108.08,15.0,13.3,310,17,,10.0,29.911417,1010.6,,TRUE,TRUE,,,,,,-RA,FEW,1700,OVC,7000,,,,,VFR,,,,,,0.01,,,,,,METAR,1191.0
KGEG 021653Z 32006KT 10SM BKN250 21/03 A3002 RMK AO2 SLP154 T02060028,KGEG,2023-06-02T16:53:00Z,47.62,-117.53,20.6,2.8,320,6,,10.0,30.02067,1015.4,,,TRUE,,,,,,,BKN,25000,,,,,,,VFR,,,,,,,,,,,,METAR,718.0
KGCC 021653Z AUTO VRB05KT 10SM FEW022 SCT035 BKN090 18/13 A2990 RMK AO2 SLP091 T01780133 $,KGCC,2023-06-02T16:53:00Z,44.33,-105.55,17.8,13.3,0,5,,10.0,29.899607,1009.1,,TRUE,TRUE,TRUE,,,,,,FEW,2200,SCT,3500,BKN,9000,,,VFR,,,,,,,,,,,,METAR,1328.0
KGAG 021653Z AUTO 19015G21KT 10SM CLR 28/19 A2995 RMK AO2 LTG DSNT N SLP118 T02780189,KGAG,2023-06-02T16:53:00Z,36.3,-99.77,27.8,18.9,190,15,21,10.0,29.949802,1011.8,,TRUE,TRUE,,,,,,,CLR,,,,,,,,VFR,,,,,,,,,,,,METAR,670.0
KFYV 021653Z VRB03KT 10SM BKN049 OVC065 28/16 A3002 RMK AO2 SLP151 T02830161,KFYV,2023-06-02T16:53:00Z,36.02,-94.17,28.3,16.1,0,3,,10.0,30.02067,1015.1,,,TRUE,,,,,,,BKN,4900,OVC,6500,,,,,VFR,,,,,,,,,,,,METAR,377.0
KFXE 021653Z 12005KT 10SM SCT041 31/22 A2977 RMK AO2 SLP082 T03110217,KFXE,2023-06-02T16:53:00Z,26.2,-80.18,31.1,21.7,120,5,,10.0,29.769686,1008.2,,,TRUE,,,,,,,SCT,4100,,,,,,,VFR,,,,,,,,,,,,METAR,3.0
KFUL 021653Z 00000KT 10SM OVC041 18/12 A2998 RMK AO2 SLP150 T01830117,KFUL,2023-06-02T16:53:00Z,33.87,-117.98,18.3,11.7,0,0,,10.0,29.97933,1015.0,,,TRUE,,,,,,,OVC,4100,,,,,,,VFR,,,,,,,,,,,,METAR,23.0
KFTY 021653Z 10SM SCT055 28/16 A2994 RMK AO2 SLP128 T02780156,KFTY,2023-06-02T16:53:00Z,33.78,-84.52,27.8,15.6,,,,10.0,29.940945,1012.8,,,TRUE,,,,,,,SCT,5500,,,,,,,VFR,,,,,,,,,,,,METAR,245.0
KFTW 021653Z 13011G16KT 10SM BKN046 31/19 A2992 RMK AO2 SLP124 T03060194,KFTW,2023-06-02T16:53:00Z,32.83,-97.37,30.6,19.4,130,11,16,10.0,29.920275,1012.4,,,TRUE,,,,,,,BKN,4600,,,,,,,VFR,,,,,,,,,,,,METAR,213.0
KFST 021653Z AUTO 10SM BKN041 BKN050 28/18 A2989 RMK AO2 LTG DSNT W SLP070 T02780178,KFST,2023-06-02T16:53:00Z,30.92,-102.92,27.8,17.8,,,,10.0,29.890747,1007.0,,TRUE,TRUE,,,,,,,BKN,4100,BKN,5000,,,,,VFR,,,,,,,,,,,,METAR,917.0
KFSM 021653Z 09005KT 10SM FEW047 31/18 A2997 RMK AO2 SLP144 T03060183 $,KFSM,2023-06-02T16:53:00Z,35.33,-94.37,30.6,18.3,90,5,,10.0,29.970472,1014.4,,,TRUE,TRUE,,,,,,FEW,4700,,,,,,,VFR,,,,,,,,,,,,METAR,136.0
KFRG 021653Z 17009KT 10SM CLR 26/16 A2991 RMK AO2 SLP129 T02610156,KFRG,2023-06-02T16:53:00Z,40.73,-73.42,26.1,15.6,170,9,,10.0,29.911417,1012.9,,,TRUE,,,,,,,CLR,,,,,,,,VFR,,,,,,,,,,,,METAR,23.0
KFPR 021653Z 03007KT 10SM FEW022 29/21 A2979 RMK AO2 SLP086 T02890211,KFPR,2023-06-02T16:53:00Z,27.5,-80.38,28.9,21.1,30,7,,10.0,29.790354,1008.6,,,TRUE,,,,,,,FEW,2200,,,,,,,VFR,,,,,,,,,,,,METAR,7.0
KFOK 021653Z 20009KT 10SM CLR 26/11 A2993 RMK AO2 SLP134 T02560106,KFOK,2023-06-02T16:53:00Z,40.85,-72.62,25.6,10.6,200,9,,10.0,29.929134,1013.4,,,TRUE,,,,,,,CLR,,,,,,,,VFR,,,,,,,,,,,,METAR,13.0
KFNT 021653Z 07009KT 10SM CLR 31/13 A3010 RMK AO2 SLP188 T03060133,KFNT,2023-06-02T16:53:00Z,42.97,-83.75,30.6,13.3,70,9,,10.0,30.100393,1018.8,,,TRUE,,,,,,,CLR,,,,,,,,VFR,,,,,,,,,,,,METAR,235.0
KFNB 021653Z AUTO 16004KT 10SM FEW042 29/19 A3000 RMK AO2 SLP149 T02940194,KFNB,2023-06-02T16:53:00Z,40.07,-95.58,29.4,19.4,160,4,,10.0,30.0,1014.9,,TRUE,TRUE,,,,,,,FEW,4200,,,,,,,VFR,,,,,,,,,,,,METAR,301.0
KFMN 021653Z 09006KT 10SM CLR 19/01 A3004 RMK AO2 SLP132 T01890006,KFMN,2023-06-02T16:53:00Z,36.75,-108.23,18.9,0.6,90,6,,10.0,30.041338,1013.2,,,TRUE,,,,,,,CLR,,,,,,,,VFR,,,,,,,,,,,,METAR,1677.0
KFLO 021653Z 07011KT 10SM SCT034 SCT044 26/17 A2990 RMK AO2 SLP121 T02610167,KFLO,2023-06-02T16:53:00Z,34.18,-79.73,26.1,16.7,70,11,,10.0,29.899607,1012.1,,,TRUE,,,,,,,SCT,3400,SCT,4400,,,,,VFR,,,,,,,,,,,,METAR,43.0
KFLL 021653Z 07007KT 10SM -RA BKN039 BKN090 BKN150 28/22 A2976 RMK AO2 RAB50 SLP077 CB DSNT E P0000 T02830222,KFLL,2023-06-02T16:53:00Z,26.07,-80.15,28.3,22.2,70,7,,10.0,29.760826,1007.7,,,TRUE,,,,,,-RA,BKN,3900,BKN,9000,BKN,15000,,,VFR,,,,,,0.005,,,,,,METAR,1.0
KFLD 021653Z AUTO 03007KT 10SM -RA CLR 30/18 A3010 RMK AO2 RAB52 SLP189 P0000 T03000183,KFLD,2023-06-02T16:53:00Z,43.77,-88.48,30.0,18.3,30,7,,10.0,30.100393,1018.9,,TRUE,TRUE,,,,,,-RA,CLR,,,,,,,,VFR,,,,,,0.005,,,,,,METAR,242.0
KFHR 021653Z AUTO 23008KT 10SM CLR 14/08 A3013 RMK AO2 SLP203 T01390083,KFHR,2023-06-02T16:53:00Z,48.52,-123.03,13.9,8.3,230,8,,10.0,30.129921,1020.3,,TRUE,TRUE,,,,,,,CLR,,,,,,,,VFR,,,,,,,,,,,,METAR,34.0
KFFT 021653Z AUTO 04007G17KT 10SM CLR 31/11 A3001 RMK AO2 SLP153 T03060111,KFFT,2023-06-02T16:53:00Z,38.18,-84.9,30.6,11.1,40,7,17,10.0,30.008858,1015.3,,TRUE,TRUE,,,,,,,CLR,,,,,,,,VFR,,,,,,,,,,,,METAR,235.0
KFFC 021653Z AUTO 09007KT 060V120 10SM FEW046 FEW060 27/16 A2994 RMK AO2 SLP132 T02720156,KFFC,2023-06-02T16:53:00Z,33.35,-84.57,27.2,15.6,90,7,,10.0,29.940945,1013.2,,TRUE,TRUE,,,,,,,FEW,4600,FEW,6000,,,,,VFR,,,,,,,,,,,,METAR,242.0
KFDY 021653Z AUTO 10008KT 10SM FEW085 31/11 A3004 RMK AO2 SLP163 T03110111,KFDY,2023-06-02T16:53:00Z,41.02,-83.67,31.1,11.1,100,8,,10.0,30.041338,1016.3,,TRUE,TRUE,,,,,,,FEW,8500,,,,,,,VFR,,,,,,,,,,,,METAR,247.0
KFDR 021653Z AUTO 15012G19KT 10SM FEW033 SCT050 30/19 A2991 RMK AO2 SLP109 T03000189 $,KFDR,2023-06-02T16:53:00Z,34.35,-98.98,30.0,18.9,150,12,19,10.0,29.911417,1010.9,,TRUE,TRUE,TRUE,,,,,,FEW,3300,SCT,5000,,,,,VFR,,,,,,,,,,,,METAR,378.0
KFCM 021653Z 12003KT 10SM -RA FEW055 BKN095 OVC110 25/19 A3006 RMK AO2 RAB13 SLP175 P0000 T02500189,KFCM,2023-06-02T16:53:00Z,44.83,-93.47,25.0,18.9,120,3,,10.0,30.059055,1017.5,,,TRUE,,,,,,-RA,FEW,5500,BKN,9500,OVC,11000,,,VFR,,,,,,0.005,,,,,,METAR,276.0
KFAY 021653Z 02011G20KT 10SM BKN036 27/18 A2990 RMK AO2 SLP118 T02670178,KFAY,2023-06-02T16:53:00Z,34.98,-78.88,26.7,17.8,20,11,20,10.0,29.899607,1011.8,,,TRUE,,,,,,,BKN,3600,,,,,,,VFR,,,,,,,,,,,,METAR,57.0
KFAT 021653Z 29003KT 10SM CLR 21/10 A2996 RMK AO2 SLP142 MTNS OBSC HZ DSNT N-E-S T02110100,KFAT,2023-06-02T16:53:00Z,36.78,-119.72,21.1,10.0,290,3,,10.0,29.958662,1014.2,,,TRUE,,,,,,,CLR,,,,,,,,VFR,,,,,,,,,,,,METAR,102.0
KFAR 021653Z 13010KT 10SM CLR 31/19 A2996 RMK AO2 SLP140 T03060189,KFAR,2023-06-02T16:53:00Z,46.9,-96.82,30.6,18.9,130,10,,10.0,29.958662,1014.0,,,TRUE,,,,,,,CLR,,,,,,,,VFR,,,,,,,,,,,,METAR,276.0
KEYE 021653Z AUTO 04008KT 10SM CLR 30/10 A3004 RMK AO2 SLP165 T03000100,KEYE,2023-06-02T16:53:00Z,39.83,-86.3,30.0,10.0,40,8,,10.0,30.041338,1016.5,,TRUE,TRUE,,,,,,,CLR,,,,,,,,VFR,,,,,,,,,,,,METAR,248.0
KEWB 021653Z 22007KT 10SM CLR 27/16 A2989 RMK AO2 SLP121 T02720156,KEWB,2023-06-02T16:53:00Z,41.68,-70.95,27.2,15.6,220,7,,10.0,29.890747,1012.1,,,TRUE,,,,,,,CLR,,,,,,,,VFR,,,,,,,,,,,,METAR,22.0
KEVW 021653Z AUTO 25006KT 10SM BKN065 OVC075 10/07 A3009 RMK AO2 SLP127 T01000067,KEVW,2023-06-02T16:53:00Z,41.27,-111.03,10.0,6.7,250,6,,10.0,30.088583,1012.7,,TRUE,TRUE,,,,,,,BKN,6500,OVC,7500,,,,,VFR,,,,,,,,,,,,METAR,2178.0
KESF 021653Z AUTO VRB04KT 10SM CLR 31/18 A2993 RMK AO2 SLP134 T03110178,KESF,2023-06-02T16:53:00Z,31.4,-92.28,31.1,17.8,0,4,,10.0,29.929134,1013.4,,TRUE,TRUE,,,,,,,CLR,,,,,,,,VFR,,,,,,,,,,,,METAR,27.0
KEQY 021653Z AUTO 02009KT 340V050 10SM SCT046 26/16 A2992 RMK AO2 SLP131 T02560156,KEQY,2023-06-02T16:53:00Z,35.02,-80.62,25.6,15.6,20,9,,10.0,29.920275,1013.1,,TRUE,TRUE,,,,,,,SCT,4600,,,,,,,VFR,,,,,,,,,,,,METAR,205.0
KEPH 021653Z AUTO VRB03KT 10SM CLR 21/04 A3000 RMK AO2 SLP155 T02110039,KEPH,2023-06-02T16:53:00Z,47.3,-119.52,21.1,3.9,0,3,,10.0,30.0,1015.5,,TRUE,TRUE,,,,,,,CLR,,,,,,,,VFR,,,,,,,,,,,,METAR,382.0
KENW 021653Z 09007KT 10SM CLR 29/13 A3010 RMK AO2 SLP187 T02940133,KENW,2023-06-02T16:53:00Z,42.6,-87.93,29.4,13.3,90,7,,10.0,30.100393,1018.7,,,TRUE,,,,,,,CLR,,,,,,,,VFR,,,,,,,,,,,,METAR,222.0
KEMP 021653Z AUTO 14011KT 10SM SCT120 28/18 A3000 RMK AO2 SLP149 T02830183,KEMP,2023-06-02T16:53:00Z,38.33,-96.2,28.3,18.3,140,11,,10.0,30.0,1014.9,,TRUE,TRUE,,,,,,,SCT,12000,,,,,,,VFR,,,,,,,,,,,,METAR,366.0
KELY 021653Z AUTO 00000KT 10SM CLR 17/06 A3008 RMK AO2 SLP107 T01720056,KELY,2023-06-02T16:53:00Z,39.3,-114.85,17.2,5.6,0,0,,10.0,30.079725,1010.7,,TRUE,TRUE,,,,,,,CLR,,,,,,,,VFR,,,,,,,,,,,,METAR,1906.0
KELN 021653Z AUTO 31008KT 10SM CLR 20/07 A3002 RMK AO2 SLP161 T02000067,KELN,2023-06-02T16:53:00Z,47.03,-120.53,20.0,6.7,310,8,,10.0,30.02067,1016.1,,TRUE,TRUE,,,,,,,CLR,,,,,,,,VFR,,,,,,,,,,,,METAR,532.0
KELM 021653Z 02011G17KT 350V060 10SM CLR 33/09 A2999 RMK AO2 SLP149 T03330089,KELM,2023-06-02T16:53:00Z,42.15,-76.9,33.3,8.9,20,11,17,10.0,29.991142,1014.9,,,TRUE,,,,,,,CLR,,,,,,,,VFR,,,,,,,,,,,,METAR,287.0
KELD 021653Z AUTO 08007KT 060V120 10SM FEW044 30/19 A2996 RMK AO2 SLP142 T03000194,KELD,2023-06-02T16:53:00Z,33.22,-92.82,30.0,19.4,80,7,,10.0,29.958662,1014.2,,TRUE,TRUE,,,,,,,FEW,4400,,,,,,,VFR,,,,,,,,,,,,METAR,76.0
KEET 021653Z AUTO VRB06KT 10SM FEW046 29/18 A2994 RMK AO2 SLP130 T02890178,KEET,2023-06-02T16:53:00Z,33.18,-86.78,28.9,17.8,0,6,,10.0,29.940945,1013.0,,TRUE,TRUE,,,,,,,FEW,4600,,,,,,,VFR,,,,,,,,,,,,METAR,172.0
KEEO 021653Z AUTO 09007KT 10SM -RA OVC020 09/06 A3008 RMK AO2 RAB15 SLP143 P0000 T00890056,KEEO,2023-06-02T16:53:00Z,40.05,-107.88,8.9,5.6,90,7,,10.0,30.079725,1014.3,,TRUE,TRUE,,,,,,-RA,OVC,2000,,,,,,,MVFR,,,,,,0.005,,,,,,METAR,1957.0
KECP 021653Z 02012G20KT 10SM CLR 29/17 A2984 RMK AO1 SLP115 T02940167,KECP,2023-06-02T16:53:00Z,30.35,-85.8,29.4,16.7,20,12,20,10.0,29.840551,1011.5,,,TRUE,,,,,,,CLR,,,,,,,,VFR,,,,,,,,,,,,METAR,17.0
KDXR 021653Z 09005KT 10SM CLR 31/16 A2991 RMK AO2 LTG DSNT NE SLP124 T03110161,KDXR,2023-06-02T16:53:00Z,41.37,-73.48,31.1,16.1,90,5,,10.0,29.911417,1012.4,,,TRUE,,,,,,,CLR,,,,,,,,VFR,,,,,,,,,,,,METAR,138.0
KDWH 021653Z 00000KT 10SM CLR 31/19 A2993 RMK AO2 SLP134 T03060194,KDWH,2023-06-02T16:53:00Z,30.07,-95.55,30.6,19.4,0,0,,10.0,29.929134,1013.4,,,TRUE,,,,,,,CLR,,,,,,,,VFR,,,,,,,,,,,,METAR,46.0
KDVT 021653Z 24007KT 10SM CLR 27/03 A2992 RMK AO2 SLP108 T02670033,KDVT,2023-06-02T16:53:00Z,33.68,-112.07,26.7,3.3,240,7,,10.0,29.920275,1010.8,,,TRUE,,,,,,,CLR,,,,,,,,VFR,,,,,,,,,,,,METAR,454.0
KDUJ 021653Z AUTO A3006 RMK AO2 SLPNO PWINO $,KDUJ,2023-06-02T16:53:00Z,41.17,-78.9,,,,,,,30.059055,,,TRUE,TRUE,TRUE,,,,TRUE,,,,,,,,,,,,,,,,,,,,,,METAR,552.0
KDTW 021653Z 09004G14KT 10SM FEW050 FEW095 SCT250 31/11 A3008 RMK AO2 SLP180 T03060111,KDTW,2023-06-02T16:53:00Z,42.23,-83.33,30.6,11.1,90,4,14,10.0,30.079725,1018.0,,,TRUE,,,,,,,FEW,5000,FEW,9500,SCT,25000,,,VFR,,,,,,,,,,,,METAR,192.0
KDTS 021653Z 07011G21KT 10SM CLR 29/16 A2986 RMK AO2 SLP110 T02940161,KDTS,2023-06-02T16:53:00Z,30.4,-86.47,29.4,16.1,70,11,21,10.0,29.861221,1011.0,,,TRUE,,,,,,,CLR,,,,,,,,VFR,,,,,,,,,,,,METAR,5.0
KDTO 021653Z 13009G16KT 10SM FEW047 31/19 A2994 RMK AO2 SLP128 T03110189,KDTO,2023-06-02T16:53:00Z,33.2,-97.2,31.1,18.9,130,9,16,10.0,29.940945,1012.8,,,TRUE,,,,,,,FEW,4700,,,,,,,VFR,,,,,,,,,,,,METAR,199.0
KDTN 021653Z VRB05KT 10SM FEW050 31/18 A2995 RMK AO2 SLP137 T03110183,KDTN,2023-06-02T16:53:00Z,32.55,-93.75,31.1,18.3,0,5,,10.0,29.949802,1013.7,,,TRUE,,,,,,,FEW,5000,,,,,,,VFR,,,,,,,,,,,,METAR,53.0
KDRT 021653Z AUTO 13013G19KT 10SM OVC019 26/22 A2987 RMK AO2 SLP104 T02610217,KDRT,2023-06-02T16:53:00Z,29.37,-100.92,26.1,21.7,130,13,19,10.0,29.870079,1010.4,,TRUE,TRUE,,,,,,,OVC,1900,,,,,,,MVFR,,,,,,,,,,,,METAR,303.0
KDRO 021653Z AUTO 13006KT 10SM BKN100 15/03 A3010 RMK AO2 SLP143 T01500033,KDRO,2023-06-02T16:53:00Z,37.15,-107.77,15.0,3.3,130,6,,10.0,30.100393,1014.3,,TRUE,TRUE,,,,,,,BKN,10000,,,,,,,VFR,,,,,,,,,,,,METAR,2021.0
KDRA 021653Z AUTO 23009KT 10SM CLR 26/05 A2994 RMK AO2 SLP093 T02610050,KDRA,2023-06-02T16:53:00Z,36.62,-116.03,26.1,5.0,230,9,,10.0,29.940945,1009.3,,TRUE,TRUE,,,,,,,CLR,,,,,,,,VFR,,,,,,,,,,,,METAR,988.0
KDNL 021653Z AUTO 07010G17KT 10SM FEW046 BKN055 27/16 A2991 RMK AO2 SLP124 T02670161,KDNL,2023-06-02T16:53:00Z,33.47,-82.03,26.7,16.1,70,10,17,10.0,29.911417,1012.4,,TRUE,TRUE,,,,,,,FEW,4600,BKN,5500,,,,,VFR,,,,,,,,,,,,METAR,126.0
KDMO 021653Z AUTO 15009G17KT 10SM FEW049 31/18 A3003 RMK AO2 SLP158 T03060178,KDMO,2023-06-02T16:53:00Z,38.72,-93.17,30.6,17.8,150,9,17,10.0,30.029528,1015.8,,TRUE,TRUE,,,,,,,FEW,4900,,,,,,,VFR,,,,,,,,,,,,METAR,271.0
KDMN 021653Z AUTO VRB06KT 10SM CLR 25/00 A3001 RMK AO2 SLP091 T02500000,KDMN,2023-06-02T16:53:00Z,32.27,-107.72,25.0,0.0,0,6,,10.0,30.008858,1009.1,,TRUE,TRUE,,,,,,,CLR,,,,,,,,VFR,,,,,,,,,,,,METAR,1310.0
KDLS 021653Z AUTO 27005KT 10SM CLR 21/07 A3004 RMK AO2 SLP171 T02060067,KDLS,2023-06-02T16:53:00Z,45.62,-121.17,20.6,6.7,270,5,,10.0,30.041338,1017.1,,TRUE,TRUE,,,,,,,CLR,,,,,,,,VFR,,,,,,,,,,,,METAR,71.0
KDKK 021653Z AUTO VRB03KT 10SM SCT100 29/12 A3005 RMK AO2 SLP171 T02940122,KDKK,2023-06-02T16:53:00Z,42.5,-79.28,29.4,12.2,0,3,,10.0,30.050198,1017.1,,TRUE,TRUE,,,,,,,SCT,10000,,,,,,,VFR,,,,,,,,,,,,METAR,205.0
KDHN 021653Z 06012G18KT 10SM FEW045 29/17 A2992 RMK AO2 SLP126 T02890167,KDHN,2023-06-02T16:53:00Z,31.32,-85.45,28.9,16.7,60,12,18,10.0,29.920275,1012.6,,,TRUE,,,,,,,FEW,4500,,,,,,,VFR,,,,,,,,,,,,METAR,113.0
KDGW 021653Z AUTO VRB03KT 10SM CLR 18/11 A2993 RMK AO2 SLP092 T01830106,KDGW,2023-06-02T16:53:00Z,42.8,-105.38,18.3,10.6,0,3,,10.0,29.929134,1009.2,,TRUE,TRUE,,,,,,,CLR,,,,,,,,VFR,,,,,,,,,,,,METAR,1503.0
KDFW 021653Z 17007G16KT 10SM SCT043 SCT095 BKN250 31/21 A2992 RMK AO2 SLP123 TCU DSNT ALQDS T03060206,KDFW,2023-06-02T16:53:00Z,32.9,-97.02,30.6,20.6,170,7,16,10.0,29.920275,1012.3,,,TRUE,,,,,,,SCT,4300,SCT,9500,BKN,25000,,,VFR,,,,,,,,,,,,METAR,168.0
KDFI 021653Z AUTO 07011G16KT 10SM CLR 31/11 A3006 RMK AO2 SLP174 T03110111,KDFI,2023-06-02T16:53:00Z,41.33,-84.43,31.1,11.1,70,11,16,10.0,30.059055,1017.4,,TRUE,TRUE,,,,,,,CLR,,,,,,,,VFR,,,,,,,,,,,,METAR,215.0
KDEW 021653Z AUTO 17004KT 10SM CLR 19/06 A3003 RMK AO2 SLP164 T01940061,KDEW,2023-06-02T16:53:00Z,47.97,-117.43,19.4,6.1,170,4,,10.0,30.029528,1016.4,,TRUE,TRUE,,,,,,,CLR,,,,,,,,VFR,,,,,,,,,,,,METAR,672.0
KDET 021653Z 09007KT 10SM CLR 31/10 A3008 RMK AO2 SLP182 T03060100,KDET,2023-06-02T16:53:00Z,42.4,-83.02,30.6,10.0,90,7,,10.0,30.079725,1018.2,,,TRUE,,,,,,,CLR,,,,,,,,VFR,,,,,,,,,,,,METAR,190.0
KDEQ 021653Z AUTO 05004KT 10SM SCT047 31/18 A2995 RMK AO2 SLP136 T03060178,KDEQ,2023-06-02T16:53:00Z,34.05,-94.4,30.6,17.8,50,4,,10.0,29.949802,1013.6,,TRUE,TRUE,,,,,,,SCT,4700,,,,,,,VFR,,,,,,,,,,,,METAR,107.0
KDEN 021653Z 24007KT 10SM FEW040 SCT080 SCT150 19/07 A2995 RMK AO2 SLP080 T01890072,KDEN,2023-06-02T16:53:00Z,39.85,-104.65,18.9,7.2,240,7,,10.0,29.949802,1008.0,,,TRUE,,,,,,,FEW,4000,SCT,8000,SCT,15000,,,VFR,,,,,,,,,,,,METAR,1656.0
KDCU 021653Z AUTO 10SM BKN050 BKN065 32/18 A2995 RMK AO2 SLP134 T03170178,KDCU,2023-06-02T16:53:00Z,34.65,-86.95,31.7,17.8,,,,10.0,29.949802,1013.4,,TRUE,TRUE,,,,,,,BKN,5000,BKN,6500,,,,,VFR,,,,,,,,,,,,METAR,180.0
KDBQ 021653Z 12003KT 10SM CLR 29/17 A3008 RMK AO2 SLP180 T02940167,KDBQ,2023-06-02T16:53:00Z,42.4,-90.7,29.4,16.7,120,3,,10.0,30.079725,1018.0,,,TRUE,,,,,,,CLR,,,,,,,,VFR,,,,,,,,,,,,METAR,317.0
KDAN 021653Z AUTO 04009G14KT 020V080 10SM CLR 27/12 A2996 RMK AO2 SLP134 T02720122,KDAN,2023-06-02T16:53:00Z,36.57,-79.33,27.2,12.2,40,9,14,10.0,29.958662,1013.4,,TRUE,TRUE,,,,,,,CLR,,,,,,,,VFR,,,,,,,,,,,,METAR,170.0
KDAL 021653Z 17008KT 10SM SCT041TCU SCT090 SCT250 30/19 A2993 RMK AO2 SLP127 TCU N-E-SE T03000189,KDAL,2023-06-02T16:53:00Z,32.85,-96.85,30.0,18.9,170,8,,10.0,29.929134,1012.7,,,TRUE,,,,,,,SCT,4100,SCT,9000,SCT,25000,,,VFR,,,,,,,,,,,,METAR,148.0
KCYS 021653Z AUTO 28006KT 10SM BKN050 BKN060 15/07 A3000 RMK AO2 RAE00 SLP096 P0000 T01500072,KCYS,2023-06-02T16:53:00Z,41.15,-104.8,15.0,7.2,280,6,,10.0,30.0,1009.6,,TRUE,TRUE,,,,,,,BKN,5000,BKN,6000,,,,,VFR,,,,,,0.005,,,,,,METAR,1868.0
KCXO 021653Z VRB03KT 10SM CLR 31/19 A2995 RMK AO2 SLP136 T03060189,KCXO,2023-06-02T16:53:00Z,30.35,-95.42,30.6,18.9,0,3,,10.0,29.949802,1013.6,,,TRUE,,,,,,,CLR,,,,,,,,VFR,,,,,,,,,,,,METAR,69.0
KCUT 021653Z AUTO 09011KT 10SM FEW020 17/12 A2998 RMK AO2 SLP101 T01720117,KCUT,2023-06-02T16:53:00Z,43.73,-103.62,17.2,11.7,90,11,,10.0,29.97933,1010.1,,TRUE,TRUE,,,,,,,FEW,2000,,,,,,,VFR,,,,,,,,,,,,METAR,1700.0
KCUB 021653Z AUTO VRB05KT 10SM SCT042 BKN050 26/16 A2991 RMK AO2 SLP126 T02610156,KCUB,2023-06-02T16:53:00Z,33.97,-81.0,26.1,15.6,0,5,,10.0,29.911417,1012.6,,TRUE,TRUE,,,,,,,SCT,4200,BKN,5000,,,,,VFR,,,,,,,,,,,,METAR,55.0
KCSV 021653Z AUTO 03007KT 10SM SCT055 26/16 A3002 RMK AO2 SLP146 T02610156,KCSV,2023-06-02T16:53:00Z,35.95,-85.08,26.1,15.6,30,7,,10.0,30.02067,1014.6,,TRUE,TRUE,,,,,,,SCT,5500,,,,,,,VFR,,,,,,,,,,,,METAR,569.0
KCSM 021653Z 14014KT 10SM FEW024 SCT038 SCT050 26/20 A2997 RMK AO2 LTG DSNT N AND SW SLP128 T02610200,KCSM,2023-06-02T16:53:00Z,35.35,-99.2,26.1,20.0,140,14,,10.0,29.970472,1012.8,,,TRUE,,,,,,,FEW,2400,SCT,3800,SCT,5000,,,VFR,,,,,,,,,,,,METAR,586.0
KCRS 021653Z AUTO 12008KT 10SM SCT037 31/20 A2995 RMK AO2 SLP137 T03060200,KCRS,2023-06-02T16:53:00Z,32.03,-96.4,30.6,20.0,120,8,,10.0,29.949802,1013.7,,TRUE,TRUE,,,,,,,SCT,3700,,,,,,,VFR,,,,,,,,,,,,METAR,136.0
KCRQ 021653Z AUTO 26004KT 10SM SCT010 OVC014 16/14 A2998 RMK AO2 SLP150 T01610139,KCRQ,2023-06-02T16:53:00Z,33.13,-117.28,16.1,13.9,260,4,,10.0,29.97933,1015.0,,TRUE,TRUE,,,,,,,SCT,1000,OVC,1400,,,,,MVFR,,,,,,,,,,,,METAR,96.0
KCRG 021653Z 04008KT 360V080 10SM BKN019 BKN026 BKN036 27/21 A2986 RMK AO2 SLP110 T02670206,KCRG,2023-06-02T16:53:00Z,30.33,-81.52,26.7,20.6,40,8,,10.0,29.861221,1011.0,,,TRUE,,,,,,,BKN,1900,BKN,2600,BKN,3600,,,MVFR,,,,,,,,,,,,METAR,12.0
KCQC 021653Z AUTO 23007G15KT 10SM BKN100 18/01 A3012 RMK AO2 SLP120 T01830011,KCQC,2023-06-02T16:53:00Z,35.0,-105.67,18.3,1.1,230,7,15,10.0,30.121063,1012.0,,TRUE,TRUE,,,,,,,BKN,10000,,,,,,,VFR,,,,,,,,,,,,METAR,2163.0
KCPS 021653Z 05004KT 10SM CLR 32/17 A3000 RMK AO2 SLP154 T03220172,KCPS,2023-06-02T16:53:00Z,38.53,-90.15,32.2,17.2,50,4,,10.0,30.0,1015.4,,,TRUE,,,,,,,CLR,,,,,,,,VFR,,,,,,,,,,,,METAR,125.0
KCOT 021653Z AUTO 14009G16KT 10SM BKN060 31/21 A2989 RMK AO2 SLP114 T03060211,KCOT,2023-06-02T16:53:00Z,28.45,-99.22,30.6,21.1,140,9,16,10.0,29.890747,1011.4,,TRUE,TRUE,,,,,,,BKN,6000,,,,,,,VFR,,,,,,,,,,,,METAR,144.0
KCNY 021653Z AUTO 10005KT 10SM BKN110 20/04 A2995 RMK AO2 SLP095 T02000039,KCNY,2023-06-02T16:53:00Z,38.77,-109.75,20.0,3.9,100,5,,10.0,29.949802,1009.5,,TRUE,TRUE,,,,,,,BKN,11000,,,,,,,VFR,,,,,,,,,,,,METAR,1392.0
KCNO 021653Z VRB03KT 7SM OVC032 18/12 A3000 RMK AO2 SLP154 T01830117,KCNO,2023-06-02T16:53:00Z,33.98,-117.62,18.3,11.7,0,3,,7.0,30.0,1015.4,,,TRUE,,,,,,,OVC,3200,,,,,,,VFR,,,,,,,,,,,,METAR,191.0
KCNM 021653Z AUTO 35005KT 10SM CLR 26/13 A2991 RMK AO2 SLP074 T02610133,KCNM,2023-06-02T16:53:00Z,32.33,-104.25,26.1,13.3,350,5,,10.0,29.911417,1007.4,,TRUE,TRUE,,,,,,,CLR,,,,,,,,VFR,,,,,,,,,,,,METAR,993.0
KCMX 021653Z AUTO 12004KT 10SM CLR 23/17 A3016 RMK AO2 SLP211 T02330167,KCMX,2023-06-02T16:53:00Z,47.17,-88.48,23.3,16.7,120,4,,10.0,30.159449,1021.1,,TRUE,TRUE,,,,,,,CLR,,,,,,,,VFR,,,,,,,,,,,,METAR,326.0
KCMI 021653Z 08010G17KT 10SM CLR 33/10 A3003 RMK AO2 SLP163 T03280100,KCMI,2023-06-02T16:53:00Z,40.03,-88.27,32.8,10.0,80,10,17,10.0,30.029528,1016.3,,,TRUE,,,,,,,CLR,,,,,,,,VFR,,,,,,,,,,,,METAR,227.0
KCLM 021653Z AUTO 31008G15KT 10SM CLR 13/07 A3013 RMK AO2 SLP204 T01330072,KCLM,2023-06-02T16:53:00Z,48.12,-123.5,13.3,7.2,310,8,15,10.0,30.129921,1020.4,,TRUE,TRUE,,,,,,,CLR,,,,,,,,VFR,,,,,,,,,,,,METAR,81.0
KCLL 021653Z 19004KT 10SM CLR 31/18 A2994 RMK AO2 SLP132 T03060183,KCLL,2023-06-02T16:53:00Z,30.58,-96.37,30.6,18.3,190,4,,10.0,29.940945,1013.2,,,TRUE,,,,,,,CLR,,,,,,,,VFR,,,,,,,,,,,,METAR,96.0
KCKB 021653Z 36007KT 10SM CLR 29/11 A3002 RMK AO2 SLP153 T02890111,KCKB,2023-06-02T16:53:00Z,39.3,-80.22,28.9,11.1,360,7,,10.0,30.02067,1015.3,,,TRUE,,,,,,,CLR,,,,,,,,VFR,,,,,,,,,,,,METAR,368.0
KCHO 021653Z 05014KT 10SM CLR 32/10 A2997 RMK AO2 SLP140 T03170100,KCHO,2023-06-02T16:53:00Z,38.13,-78.45,31.7,10.0,50,14,,10.0,29.970472,1014.0,,,TRUE,,,,,,,CLR,,,,,,,,VFR,,,,,,,,,,,,METAR,193.0
KCHA 021653Z 33008KT 10SM SCT046TCU SCT200 29/17 A2995 RMK AO2 SLP132 TCU NW-N DSNT SW MDT CU W T02940167,KCHA,2023-06-02T16:53:00Z,35.03,-85.2,29.4,16.7,330,8,,10.0,29.949802,1013.2,,,TRUE,,,,,,,SCT,4600,SCT,20000,,,,,VFR,,,,,,,,,,,,METAR,203.0
KCGI 021653Z 07007KT 10SM SCT050 32/20 A2997 RMK AO2 SLP145 T03170200,KCGI,2023-06-02T16:53:00Z,37.23,-89.58,31.7,20.0,70,7,,10.0,29.970472,1014.5,,,TRUE,,,,,,,SCT,5000,,,,,,,VFR,,,,,,,,,,,,METAR,103.0
KCEZ 021653Z AUTO 23009G14KT 10SM CLR 18/02 A3005 RMK AO2 SLP124 T01830017,KCEZ,2023-06-02T16:53:00Z,37.3,-108.63,18.3,1.7,230,9,14,10.0,30.050198,1012.4,,TRUE,TRUE,,,,,,,CLR,,,,,,,,VFR,,,,,,,,,,,,METAR,1801.0
KCEW 021653Z AUTO VRB06KT 10SM BKN045 BKN050 29/17 A2989 RMK AO2 SLP117 T02940172,KCEW,2023-06-02T16:53:00Z,30.78,-86.52,29.4,17.2,0,6,,10.0,29.890747,1011.7,,TRUE,TRUE,,,,,,,BKN,4500,BKN,5000,,,,,VFR,,,,,,,,,,,,METAR,47.0
KCDW 021653Z 00000KT 10SM CLR 33/12 A2989 RMK AO2 SLP124 T03330122,KCDW,2023-06-02T16:53:00Z,40.88,-74.28,33.3,12.2,0,0,,10.0,29.890747,1012.4,,,TRUE,,,,,,,CLR,,,,,,,,VFR,,,,,,,,,,,,METAR,52.0
KCDS 021653Z AUTO 19010G16KT 10SM SCT060 BKN075 28/20 A2994 RMK AO2 SLP114 T02780200,KCDS,2023-06-02T16:53:00Z,34.43,-100.28,27.8,20.0,190,10,16,10.0,29.940945,1011.4,,TRUE,TRUE,,,,,,,SCT,6000,BKN,7500,,,,,VFR,,,,,,,,,,,,METAR,595.0
KCDR 021653Z AUTO VRB05KT 10SM BKN020 BKN027 19/14 A2991 RMK AO2 SLP115 T01940144,KCDR,2023-06-02T16:53:00Z,42.83,-103.1,19.4,14.4,0,5,,10.0,29.911417,1011.5,,TRUE,TRUE,,,,,,,BKN,2000,BKN,2700,,,,,MVFR,,,,,,,,,,,,METAR,1002.0
KCDC 021653Z AUTO 27004KT 10SM CLR 18/07 A3006 RMK AO2 SLP117 T01830072,KCDC,2023-06-02T16:53:00Z,37.7,-113.1,18.3,7.2,270,4,,10.0,30.059055,1011.7,,TRUE,TRUE,,,,,,,CLR,,,,,,,,VFR,,,,,,,,,,,,METAR,1703.0
KCCR 021653Z 19008KT 10SM CLR 18/09 A2999 RMK AO2 SLP140 T01780094,KCCR,2023-06-02T16:53:00Z,38.0,-122.05,17.8,9.4,190,8,,10.0,29.991142,1014.0,,,TRUE,,,,,,,CLR,,,,,,,,VFR,,,,,,,,,,,,METAR,6.0
KBYI 021653Z AUTO 26007KT 10SM BKN090 17/08 A3000 RMK AO2 SLP128 T01670078,KBYI,2023-06-02T16:53:00Z,42.55,-113.77,16.7,7.8,260,7,,10.0,30.0,1012.8,,TRUE,TRUE,,,,,,,BKN,9000,,,,,,,VFR,,,,,,,,,,,,METAR,1263.0
KBWG 021653Z AUTO 08009G17KT 10SM FEW060 31/15 A2998 RMK AO2 SLP146 T03060150,KBWG,2023-06-02T16:53:00Z,36.97,-86.42,30.6,15.0,80,9,17,10.0,29.97933,1014.6,,TRUE,TRUE,,,,,,,FEW,6000,,,,,,,VFR,,,,,,,,,,,,METAR,159.0
KBVY 021653Z VRB06KT 10SM CLR 30/18 A2987 RMK AO2 SLP110 T03000183,KBVY,2023-06-02T16:53:00Z,42.58,-70.92,30.0,18.3,0,6,,10.0,29.870079,1011.0,,,TRUE,,,,,,,CLR,,,,,,,,VFR,,,,,,,,,,,,METAR,28.0
KBVO 021653Z AUTO 17007KT 10SM FEW048 29/19 A2999 RMK AO2 SLP144 T02940189,KBVO,2023-06-02T16:53:00Z,36.77,-96.02,29.4,18.9,170,7,,10.0,29.991142,1014.4,,TRUE,TRUE,,,,,,,FEW,4800,,,,,,,VFR,,,,,,,,,,,,METAR,210.0
KBUR 021653Z VRB03KT 10SM FEW022 OVC034 18/12 A2998 RMK AO2 SLP144 T01780117,KBUR,2023-06-02T16:53:00Z,34.2,-118.37,17.8,11.7,0,3,,10.0,29.97933,1014.4,,,TRUE,,,,,,,FEW,2200,OVC,3400,,,,,VFR,,,,,,,,,,,,METAR,221.0
KBTR 021653Z 04007KT 10SM CLR 31/19 A2992 RMK AO2 SLP130 T03110189,KBTR,2023-06-02T16:53:00Z,30.53,-91.15,31.1,18.9,40,7,,10.0,29.920275,1013.0,,,TRUE,,,,,,,CLR,,,,,,,,VFR,,,,,,,,,,,,METAR,20.0
KBTL 021653Z 06009G16KT 10SM CLR 32/10 A3010 RMK AO2 SLP184 T03170100,KBTL,2023-06-02T16:53:00Z,42.32,-85.25,31.7,10.0,60,9,16,10.0,30.100393,1018.4,,,TRUE,,,,,,,CLR,,,,,,,,VFR,,,,,,,,,,,,METAR,282.0
KBRO 021653Z 11010G18KT 10SM SCT036 BKN047 BKN055 31/23 A2989 RMK AO2 SLP121 T03060233,KBRO,2023-06-02T16:53:00Z,25.92,-97.42,30.6,23.3,110,10,18,10.0,29.890747,1012.1,,,TRUE,,,,,,,SCT,3600,BKN,4700,BKN,5500,,,VFR,,,,,,,,,,,,METAR,6.0
KBRL 021653Z AUTO 14005KT 10SM BKN110 30/17 A3004 RMK AO2 SLP166 T03000167,KBRL,2023-06-02T16:53:00Z,40.77,-91.13,30.0,16.7,140,5,,10.0,30.041338,1016.6,,TRUE,TRUE,,,,,,,BKN,11000,,,,,,,VFR,,,,,,,,,,,,METAR,208.0
KBRD 021653Z AUTO 15007KT 9SM 27/18 A3006 RMK AO2 SLP175 T02670183 $,KBRD,2023-06-02T16:53:00Z,46.4,-94.13,26.7,18.3,150,7,,9.0,30.059055,1017.5,,TRUE,TRUE,TRUE,,,,,,,,,,,,,,,,,,,,,,,,,,METAR,372.0
KBPT 021653Z 01005KT 10SM CLR 32/20 A2992 RMK AO2 SLP132 T03170200,KBPT,2023-06-02T16:53:00Z,29.95,-94.03,31.7,20.0,10,5,,10.0,29.920275,1013.2,,,TRUE,,,,,,,CLR,,,,,,,,VFR,,,,,,,,,,,,METAR,6.0
KBPK 021653Z AUTO 18008KT 10SM FEW044 29/17 A3001 RMK AO2 SLP149 T02890172,KBPK,2023-06-02T16:53:00Z,36.37,-92.47,28.9,17.2,180,8,,10.0,30.008858,1014.9,,TRUE,TRUE,,,,,,,FEW,4400,,,,,,,VFR,,,,,,,,,,,,METAR,279.0
KBPI 021653Z AUTO 35010KT 10SM OVC039 11/08 A3004 RMK AO2 RAE1554 SLP112 P0000 T01110083,KBPI,2023-06-02T16:53:00Z,42.58,-110.1,11.1,8.3,350,10,,10.0,30.041338,1011.2,,TRUE,TRUE,,,,,,,OVC,3900,,,,,,,VFR,,,,,,0.005,,,,,,METAR,2120.0
KBOI 021653Z 35010G17KT 10SM CLR 20/06 A2999 RMK AO2 SLP136 T02000056,KBOI,2023-06-02T16:53:00Z,43.57,-116.23,20.0,5.6,350,10,17,10.0,29.991142,1013.6,,,TRUE,,,,,,,CLR,,,,,,,,VFR,,,,,,,,,,,,METAR,860.0
KBNO 021653Z AUTO 11005KT 10SM OVC090 16/08 A3008 RMK AO2 SLP169 T01560078,KBNO,2023-06-02T16:53:00Z,43.6,-118.95,15.6,7.8,110,5,,10.0,30.079725,1016.9,,TRUE,TRUE,,,,,,,OVC,9000,,,,,,,VFR,,,,,,,,,,,,METAR,1263.0
KBNA 021653Z 06007G15KT 10SM SCT055 SCT070 31/16 A2997 RMK AO2 SLP141 T03110156,KBNA,2023-06-02T16:53:00Z,36.12,-86.68,31.1,15.6,60,7,15,10.0,29.970472,1014.1,,,TRUE,,,,,,,SCT,5500,SCT,7000,,,,,VFR,,,,,,,,,,,,METAR,168.0
KBMQ 021653Z AUTO 15007G17KT 10SM CLR 28/18 A2997 RMK AO2 SLP130 T02780183,KBMQ,2023-06-02T16:53:00Z,30.73,-98.23,27.8,18.3,150,7,17,10.0,29.970472,1013.0,,TRUE,TRUE,,,,,,,CLR,,,,,,,,VFR,,,,,,,,,,,,METAR,387.0
KBMG 021653Z 06009KT 10SM CLR 31/10 A3003 RMK AO2 SLP161 T03060100,KBMG,2023-06-02T16:53:00Z,39.15,-86.62,30.6,10.0,60,9,,10.0,30.029528,1016.1,,,TRUE,,,,,,,CLR,,,,,,,,VFR,,,,,,,,,,,,METAR,254.0
KBKV 021653Z VRB05KT 10SM SCT037 BKN047 BKN060 26/21 A2980 RMK AO2 SLP090 T02560211,KBKV,2023-06-02T16:53:00Z,28.47,-82.45,25.6,21.1,0,5,,10.0,29.799213,1009.0,,,TRUE,,,,,,,SCT,3700,BKN,4700,BKN,6000,,,VFR,,,,,,,,,,,,METAR,21.0
KBKL 021653Z 33005KT 10SM CLR 22/18 A3005 RMK AO2 SLP174 T02220178,KBKL,2023-06-02T16:53:00Z,41.53,-81.67,22.2,17.8,330,5,,10.0,30.050198,1017.4,,,TRUE,,,,,,,CLR,,,,,,,,VFR,,,,,,,,,,,,METAR,177.0
KBKE 021653Z AUTO 34010G17KT 10SM CLR 18/04 A3003 RMK AO2 SLP155 T01830044,KBKE,2023-06-02T16:53:00Z,44.85,-117.82,18.3,4.4,340,10,17,10.0,30.029528,1015.5,,TRUE,TRUE,,,,,,,CLR,,,,,,,,VFR,,,,,,,,,,,,METAR,1025.0
KBIV 021653Z AUTO 30005KT 10SM CLR 31/13 A3010 RMK AO2 SLP187 T03110128,KBIV,2023-06-02T16:53:00Z,42.75,-86.1,31.1,12.8,300,5,,10.0,30.100393,1018.7,,TRUE,TRUE,,,,,,,CLR,,,,,,,,VFR,,,,,,,,,,,,METAR,207.0
KBHM 021653Z 09006KT 10SM SCT045 BKN120 29/17 A2996 RMK AO2 SLP137 T02890172,KBHM,2023-06-02T16:53:00Z,33.57,-86.75,28.9,17.2,90,6,,10.0,29.958662,1013.7,,,TRUE,,,,,,,SCT,4500,BKN,12000,,,,,VFR,,,,,,,,,,,,METAR,191.0
KBGR 021653Z 04007KT 10SM FEW047 SCT100 28/17 A2990 RMK AO2 SLP122 T02830172,KBGR,2023-06-02T16:53:00Z,44.8,-68.82,28.3,17.2,40,7,,10.0,29.899607,1012.2,,,TRUE,,,,,,,FEW,4700,SCT,10000,,,,,VFR,,,,,,,,,,,,METAR,45.0
KBGM 021653Z 36010KT 10SM FEW090 32/11 A3001 RMK AO2 SLP147 T03170111,KBGM,2023-06-02T16:53:00Z,42.22,-75.98,31.7,11.1,360,10,,10.0,30.008858,1014.7,,,TRUE,,,,,,,FEW,9000,,,,,,,VFR,,,,,,,,,,,,METAR,485.0
KBFM 021653Z 05007KT 10SM FEW040 30/16 A2990 RMK AO2 SLP124 T03000161,KBFM,2023-06-02T16:53:00Z,30.62,-88.07,30.0,16.1,50,7,,10.0,29.899607,1012.4,,,TRUE,,,,,,,FEW,4000,,,,,,,VFR,,,,,,,,,,,,METAR,7.0
KBFI 021653Z 26006KT 10SM CLR 15/08 A3012 RMK AO2 SLP200 T01500083 $,KBFI,2023-06-02T16:53:00Z,47.55,-122.32,15.0,8.3,260,6,,10.0,30.121063,1020.0,,,TRUE,TRUE,,,,,,CLR,,,,,,,,VFR,,,,,,,,,,,,METAR,7.0
KBFD 021653Z AUTO 05008KT 10SM SCT080 29/09 A3009 RMK AO2 SLP170 T02940094,KBFD,2023-06-02T16:53:00Z,41.8,-78.63,29.4,9.4,50,8,,10.0,30.088583,1017.0,,TRUE,TRUE,,,,,,,SCT,8000,,,,,,,VFR,,,,,,,,,,,,METAR,642.0
KBEH 021653Z AUTO 32006KT 10SM CLR 29/14 A3009 RMK AO2 SLP184 T02890139,KBEH,2023-06-02T16:53:00Z,42.13,-86.42,28.9,13.9,320,6,,10.0,30.088583,1018.4,,TRUE,TRUE,,,,,,,CLR,,,,,,,,VFR,,,,,,,,,,,,METAR,196.0
KBDE 021653Z AUTO 12009KT 10SM SCT033 28/20 A3005 RMK AO2 SLP173 T02780200,KBDE,2023-06-02T16:53:00Z,48.73,-94.62,27.8,20.0,120,9,,10.0,30.050198,1017.3,,TRUE,TRUE,,,,,,,SCT,3300,,,,,,,VFR,,,,,,,,,,,,METAR,330.0
KBCT 021653Z 09007KT 10SM SCT040 31/21 A2978,KBCT,2023-06-02T16:53:00Z,26.38,-80.1,31.0,21.0,90,7,,10.0,29.778543,,,,,,,,,,,SCT,4000,,,,,,,VFR,,,,,,,,,,,,METAR,3.0
KBCE 021653Z AUTO 28011G19KT 10SM FEW045 14/03 A3013 RMK AO2 SLP108 T01440033,KBCE,2023-06-02T16:53:00Z,37.7,-112.15,14.4,3.3,280,11,19,10.0,30.129921,1010.8,,TRUE,TRUE,,,,,,,FEW,4500,,,,,,,VFR,,,,,,,,,,,,METAR,2311.0
KAZO 021653Z 03007KT 10SM CLR 33/09 A3009 RMK AO2 SLP183 T03280089,KAZO,2023-06-02T16:53:00Z,42.23,-85.55,32.8,8.9,30,7,,10.0,30.088583,1018.3,,,TRUE,,,,,,,CLR,,,,,,,,VFR,,,,,,,,,,,,METAR,264.0
KAXN 021653Z AUTO 17011G19KT 10SM CLR 28/17 A3004 RMK AO2 SLP167 T02780172,KAXN,2023-06-02T16:53:00Z,45.87,-95.4,27.8,17.2,170,11,19,10.0,30.041338,1016.7,,TRUE,TRUE,,,,,,,CLR,,,,,,,,VFR,,,,,,,,,,,,METAR,433.0
KAWM 021653Z AUTO 36004KT 10SM CLR 31/18 A2995 RMK AO2 SLP137 T03060183,KAWM,2023-06-02T16:53:00Z,35.13,-90.23,30.6,18.3,360,4,,10.0,29.949802,1013.7,,TRUE,TRUE,,,,,,,CLR,,,,,,,,VFR,,,,,,,,,,,,METAR,64.0
KAUS 021653Z 14010G19KT 10SM SCT040 SCT250 29/19 A2993 RMK AO2 SLP125 T02940194,KAUS,2023-06-02T16:53:00Z,30.18,-97.68,29.4,19.4,140,10,19,10.0,29.929134,1012.5,,,TRUE,,,,,,,SCT,4000,SCT,25000,,,,,VFR,,,,,,,,,,,,METAR,148.0
KAUG 021653Z AUTO 03005KT 10SM CLR 31/14 A2991 RMK AO2 SLP125 T03060144,KAUG,2023-06-02T16:53:00Z,44.32,-69.8,30.6,14.4,30,5,,10.0,29.911417,1012.5,,TRUE,TRUE,,,,,,,CLR,,,,,,,,VFR,,,,,,,,,,,,METAR,107.0
KATY 021653Z AUTO 19011G20KT 10SM FEW036 28/17 A3000 RMK AO2 SLP146 T02780172,KATY,2023-06-02T16:53:00Z,44.9,-97.15,27.8,17.2,190,11,20,10.0,30.0,1014.6,,TRUE,TRUE,,,,,,,FEW,3600,,,,,,,VFR,,,,,,,,,,,,METAR,531.0
KASX 021653Z AUTO 35007KT 10SM CLR 23/18 A3013 RMK AO2 SLP202 T02330178,KASX,2023-06-02T16:53:00Z,46.55,-90.92,23.3,17.8,350,7,,10.0,30.129921,1020.2,,TRUE,TRUE,,,,,,,CLR,,,,,,,,VFR,,,,,,,,,,,,METAR,249.0
KASE 021653Z 36005KT 10SM -RA BKN035 OVC045 06/04 A3012 RMK AO2 SLP133 P0001 T00610044,KASE,2023-06-02T16:53:00Z,39.23,-106.87,6.1,4.4,360,5,,10.0,30.121063,1013.3,,,TRUE,,,,,,-RA,BKN,3500,OVC,4500,,,,,VFR,,,,,,0.01,,,,,,METAR,2384.0
KASD 021653Z AUTO 02008KT 10SM BKN047 30/20 A2991 RMK AO2 SLP128 T03000200,KASD,2023-06-02T16:53:00Z,30.35,-89.82,30.0,20.0,20,8,,10.0,29.911417,1012.8,,TRUE,TRUE,,,,,,,BKN,4700,,,,,,,VFR,,,,,,,,,,,,METAR,8.0
KARB 021653Z 05007KT 10SM FEW085 31/13 A3008 RMK AO2 SLP180 T03060128,KARB,2023-06-02T16:53:00Z,42.22,-83.73,30.6,12.8,50,7,,10.0,30.079725,1018.0,,,TRUE,,,,,,,FEW,8500,,,,,,,VFR,,,,,,,,,,,,METAR,251.0
KARA 021653Z VRB06KT 10SM CLR 31/17 A2991 RMK AO2 SLP129 T03110172,KARA,2023-06-02T16:53:00Z,30.03,-91.88,31.1,17.2,0,6,,10.0,29.911417,1012.9,,,TRUE,,,,,,,CLR,,,,,,,,VFR,,,,,,,,,,,,METAR,5.0
KAPA 021653Z COR 00000KT 10SM SCT100 SCT170 19/03 A2996 RMK AO2 LTG DSNT W SLP092 T01890028,KAPA,2023-06-02T16:53:00Z,39.57,-104.85,18.9,2.8,0,0,,10.0,29.958662,1009.2,TRUE,,TRUE,,,,,,,SCT,10000,SCT,17000,,,,,VFR,,,,,,,,,,,,METAR,1791.0
KAOO 021653Z AUTO 02007KT 10SM CLR 30/09 A3003 RMK AO2 SLP159 T03000094,KAOO,2023-06-02T16:53:00Z,40.3,-78.32,30.0,9.4,20,7,,10.0,30.029528,1015.9,,TRUE,TRUE,,,,,,,CLR,,,,,,,,VFR,,,,,,,,,,,,METAR,450.0
KAOH 021653Z AUTO 09012G20KT 10SM CLR 31/09 A3006 RMK AO2 SLP170 T03060089,KAOH,2023-06-02T16:53:00Z,40.7,-84.02,30.6,8.9,90,12,20,10.0,30.059055,1017.0,,TRUE,TRUE,,,,,,,CLR,,,,,,,,VFR,,,,,,,,,,,,METAR,294.0
KANB 021653Z AUTO 04004KT 10SM FEW042 28/17 A2994 RMK AO2 SLP131 T02830172,KANB,2023-06-02T16:53:00Z,33.58,-85.85,28.3,17.2,40,4,,10.0,29.940945,1013.1,,TRUE,TRUE,,,,,,,FEW,4200,,,,,,,VFR,,,,,,,,,,,,METAR,187.0
KAMW 021653Z AUTO 14004KT 10SM CLR 28/20 A3004 RMK AO2 SLP165 T02830200,KAMW,2023-06-02T16:53:00Z,41.98,-93.62,28.3,20.0,140,4,,10.0,30.041338,1016.5,,TRUE,TRUE,,,,,,,CLR,,,,,,,,VFR,,,,,,,,,,,,METAR,282.0
KAMG 021653Z AUTO 01006KT 10SM SCT042 SCT050 28/18 A2987 RMK AO2 SLP112 T02830178,KAMG,2023-06-02T16:53:00Z,31.53,-82.5,28.3,17.8,10,6,,10.0,29.870079,1011.2,,TRUE,TRUE,,,,,,,SCT,4200,SCT,5000,,,,,VFR,,,,,,,,,,,,METAR,61.0
KALW 021653Z 23007G15KT 10SM CLR 19/04 A3004 RMK AO2 SLP169 T01890044,KALW,2023-06-02T16:53:00Z,46.1,-118.28,18.9,4.4,230,7,15,10.0,30.041338,1016.9,,,TRUE,,,,,,,CLR,,,,,,,,VFR,,,,,,,,,,,,METAR,355.0
KALI 021653Z AUTO 14010G19KT 10SM BKN039 BKN047 OVC065 31/21 A2989 RMK AO2 SLP118 T03060211,KALI,2023-06-02T16:53:00Z,27.73,-98.02,30.6,21.1,140,10,19,10.0,29.890747,1011.8,,TRUE,TRUE,,,,,,,BKN,3900,BKN,4700,OVC,6500,,,VFR,,,,,,,,,,,,METAR,52.0
KAKO 021653Z AUTO 10SM 19/11 A2996 RMK AO2 SLP101 T01940111,KAKO,2023-06-02T16:53:00Z,40.17,-103.22,19.4,11.1,,,,10.0,29.958662,1010.1,,TRUE,TRUE,,,,,,,,,,,,,,,,,,,,,,,,,,,METAR,1431.0
KAGS 021653Z 04009KT 10SM BKN040 BKN060 26/17 A2989 RMK AO2 SLP118 T02560167,KAGS,2023-06-02T16:53:00Z,33.37,-81.97,25.6,16.7,40,9,,10.0,29.890747,1011.8,,,TRUE,,,,,,,BKN,4000,BKN,6000,,,,,VFR,,,,,,,,,,,,METAR,40.0
KAGC 021653Z VRB03KT 10SM CLR 29/11 A3003 RMK AO2 SLP161 T02940111,KAGC,2023-06-02T16:53:00Z,40.35,-79.92,29.4,11.1,0,3,,10.0,30.029528,1016.1,,,TRUE,,,,,,,CLR,,,,,,,,VFR,,,,,,,,,,,,METAR,380.0
KAFW 021653Z 15010G17KT 10SM FEW035 SCT080 SCT100 BKN250 30/19 A2992 RMK AO2 SLP118 T03000194,KAFW,2023-06-02T16:53:00Z,32.97,-97.32,30.0,19.4,150,10,17,10.0,29.920275,1011.8,,,TRUE,,,,,,,FEW,3500,SCT,8000,SCT,10000,BKN,25000,VFR,,,,,,,,,,,,METAR,208.0
KAEX 021653Z 09008KT 9SM CLR 31/17 A2993 RMK AO2 SLP137 T03110167,KAEX,2023-06-02T16:53:00Z,31.33,-92.57,31.1,16.7,90,8,,9.0,29.929134,1013.7,,,TRUE,,,,,,,CLR,,,,,,,,VFR,,,,,,,,,,,,METAR,25.0
KADG 021653Z AUTO 08010KT 10SM CLR 32/09 A3008 RMK AO2 SLP182 T03170089,KADG,2023-06-02T16:53:00Z,41.87,-84.08,31.7,8.9,80,10,,10.0,30.079725,1018.2,,TRUE,TRUE,,,,,,,CLR,,,,,,,,VFR,,,,,,,,,,,,METAR,244.0
KACK 021653Z 20006KT 10SM OVC003 18/16 A2993 RMK AO2 SLP136 T01830161,KACK,2023-06-02T16:53:00Z,41.25,-70.07,18.3,16.1,200,6,,10.0,29.929134,1013.6,,,TRUE,,,,,,,OVC,300,,,,,,,LIFR,,,,,,,,,,,,METAR,12.0
KABY 021653Z 06012G16KT 10SM BKN049 28/16 A2990 RMK AO2 SLP122 T02780156,KABY,2023-06-02T16:53:00Z,31.53,-84.2,27.8,15.6,60,12,16,10.0,29.899607,1012.2,,,TRUE,,,,,,,BKN,4900,,,,,,,VFR,,,,,,,,,,,,METAR,60.0
KABR 021653Z AUTO 16014G19KT 10SM FEW039 29/19 A2995 RMK AO2 SLP135 T02890189,KABR,2023-06-02T16:53:00Z,45.45,-98.42,28.9,18.9,160,14,19,10.0,29.949802,1013.5,,TRUE,TRUE,,,,,,,FEW,3900,,,,,,,VFR,,,,,,,,,,,,METAR,397.0
KAAF 021653Z AUTO 08009KT 10SM CLR 28/17 A2983 RMK AO2 SLP102 T02830167,KAAF,2023-06-02T16:53:00Z,29.73,-85.03,28.3,16.7,80,9,,10.0,29.828741,1010.2,,TRUE,TRUE,,,,,,,CLR,,,,,,,,VFR,,,,,,,,,,,,METAR,5.0
PKMR 021652Z 07003KT 15SM FEW015 SCT050 BKN120 BKN300 28/25 A2982 RMK SLP100 T02780248,PKMR,2023-06-02T16:52:00Z,7.08,171.38,27.8,24.8,70,3,,15.0,29.819881,1010.0,,,,,,,,,,FEW,1500,SCT,5000,BKN,12000,BKN,30000,VFR,,,,,,,,,,,,METAR,7.0
PAEL 021652Z 09007KT 15SM SCT015 BKN050 10/06 A2998 RMK MIN 7.1 SPB E03010KT NOSPECI,PAEL,2023-06-02T16:52:00Z,58.2,-136.35,10.0,6.0,90,7,,15.0,29.97933,,,,,,,,,,,SCT,1500,BKN,5000,,,,,VFR,,,,,,,,,,,,METAR,8.0
PABA 021652Z AUTO 05013KT 1/2SM UP FZFG OVC003 M01/M01 A2959 RMK AO2 UPB19SNE19 SLP028 P0000 T10111011 FZRANO,PABA,2023-06-02T16:52:00Z,70.13,-143.58,-1.1,-1.1,50,13,,0.5,29.589567,1002.8,,TRUE,TRUE,,,,TRUE,,FZFG UP,OVC,300,,,,,,,LIFR,,,,,,0.005,,,,,,METAR,1.0
KVTN 021652Z AUTO 16017G22KT 10SM FEW026 22/15 A2995 RMK AO2 SLP128 T02220150,KVTN,2023-06-02T16:52:00Z,42.87,-100.55,22.2,15.0,160,17,22,10.0,29.949802,1012.8,,TRUE,TRUE,,,,,,,FEW,2600,,,,,,,VFR,,,,,,,,,,,,METAR,790.0
KTRM 021652Z AUTO 31007KT 280V340 9SM CLR 26/11 A2986 RMK AO2 SLP113 T02610106 $,KTRM,2023-06-02T16:52:00Z,33.63,-116.17,26.1,10.6,310,7,,9.0,29.861221,1011.3,,TRUE,TRUE,TRUE,,,,,,CLR,,,,,,,,VFR,,,,,,,,,,,,METAR,-39.0
KTOL 021652Z 06012KT 10SM CLR 33/09 A3007 RMK AO2 SLP176 T03280094,KTOL,2023-06-02T16:52:00Z,41.58,-83.8,32.8,9.4,60,12,,10.0,30.070866,1017.6,,,TRUE,,,,,,,CLR,,,,,,,,VFR,,,,,,,,,,,,METAR,206.0
KTAN 021652Z AUTO VRB06KT 10SM CLR 30/13 A2988 RMK AO2 SLP118 T03000133,KTAN,2023-06-02T16:52:00Z,41.88,-71.02,30.0,13.3,0,6,,10.0,29.878937,1011.8,,TRUE,TRUE,,,,,,,CLR,,,,,,,,VFR,,,,,,,,,,,,METAR,8.0
KSUX 021652Z 17014G22KT 10SM FEW046 FEW060 29/18 A3000 RMK AO2 SLP150 T02890183,KSUX,2023-06-02T16:52:00Z,42.38,-96.38,28.9,18.3,170,14,22,10.0,30.0,1015.0,,,TRUE,,,,,,,FEW,4600,FEW,6000,,,,,VFR,,,,,,,,,,,,METAR,332.0
KSPS 021652Z 15009KT 10SM SCT041 31/20 A2993 RMK AO2 SLP120 T03060200,KSPS,2023-06-02T16:52:00Z,33.98,-98.5,30.6,20.0,150,9,,10.0,29.929134,1012.0,,,TRUE,,,,,,,SCT,4100,,,,,,,VFR,,,,,,,,,,,,METAR,310.0
KSPI 021652Z 00000KT 10SM SCT070 32/16 A3002 RMK AO2 SLP160 T03170161,KSPI,2023-06-02T16:52:00Z,39.85,-89.68,31.7,16.1,0,0,,10.0,30.02067,1016.0,,,TRUE,,,,,,,SCT,7000,,,,,,,VFR,,,,,,,,,,,,METAR,179.0
KSGF 021652Z 16005KT 10SM FEW055 SCT075 27/18 A3002 RMK AO2 SLP154 T02720178,KSGF,2023-06-02T16:52:00Z,37.23,-93.38,27.2,17.8,160,5,,10.0,30.02067,1015.4,,,TRUE,,,,,,,FEW,5500,SCT,7500,,,,,VFR,,,,,,,,,,,,METAR,387.0
KREO 021652Z AUTO 14008KT 10/07 A3009 RMK AO1 WSHFT 1608 SLP180 T01000067 $,KREO,2023-06-02T16:52:00Z,42.58,-117.87,10.0,6.7,140,8,,,30.088583,1018.0,,TRUE,TRUE,TRUE,,,,,,,,,,,,,,,,,,,,,,,,,,METAR,1237.0
KRAP 021652Z 15008KT 10SM FEW018 21/17 A2990 RMK AO2 SLP106 T02110167,KRAP,2023-06-02T16:52:00Z,44.05,-103.05,21.1,16.7,150,8,,10.0,29.899607,1010.6,,,TRUE,,,,,,,FEW,1800,,,,,,,VFR,,,,,,,,,,,,METAR,965.0
KPYM 021652Z AUTO 18006KT 10SM CLR 30/16 A2988 RMK AO2 SLP119 T03000161,KPYM,2023-06-02T16:52:00Z,41.92,-70.73,30.0,16.1,180,6,,10.0,29.878937,1011.9,,TRUE,TRUE,,,,,,,CLR,,,,,,,,VFR,,,,,,,,,,,,METAR,42.0
KPWK 021652Z 08005KT 10SM CLR 30/11 A3009 RMK AO2 SLP185 T03000111,KPWK,2023-06-02T16:52:00Z,42.12,-87.9,30.0,11.1,80,5,,10.0,30.088583,1018.5,,,TRUE,,,,,,,CLR,,,,,,,,VFR,,,,,,,,,,,,METAR,194.0
KPPF 021652Z AUTO VRB06KT 10SM CLR 29/19 A3001 RMK AO2 SLP151 T02940189,KPPF,2023-06-02T16:52:00Z,37.33,-95.5,29.4,18.9,0,6,,10.0,30.008858,1015.1,,TRUE,TRUE,,,,,,,CLR,,,,,,,,VFR,,,,,,,,,,,,METAR,265.0
KP69 021652Z AUTO 00000KT 21/10 A2999 RMK AO1 SLP143 T02060100,KP69,2023-06-02T16:52:00Z,46.15,-115.6,20.6,10.0,0,0,,,29.991142,1014.3,,TRUE,TRUE,,,,,,,,,,,,,,,,,,,,,,,,,,,METAR,447.0
KOMA 021652Z 14012KT 10SM FEW035 FEW160 29/19 A3001 RMK AO2 SLP152 T02890189,KOMA,2023-06-02T16:52:00Z,41.32,-95.9,28.9,18.9,140,12,,10.0,30.008858,1015.2,,,TRUE,,,,,,,FEW,3500,FEW,16000,,,,,VFR,,,,,,,,,,,,METAR,299.0
KOKC 021652Z 16009KT 10SM SCT044 SCT055 28/19 A2997 RMK AO2 SLP133 T02780189,KOKC,2023-06-02T16:52:00Z,35.38,-97.6,27.8,18.9,160,9,,10.0,29.970472,1013.3,,,TRUE,,,,,,,SCT,4400,SCT,5500,,,,,VFR,,,,,,,,,,,,METAR,391.0
KNZY 021652Z 29010KT 10SM FEW020 BKN035 18/12 A2998 RMK AO2 SLP152 T01830117,KNZY,2023-06-02T16:52:00Z,32.7,-117.22,18.3,11.7,290,10,,10.0,29.97933,1015.2,,,TRUE,,,,,,,FEW,2000,BKN,3500,,,,,VFR,,,,,,,,,,,,METAR,4.0
KNRB 021652Z 03011KT 10SM SCT015 SCT030 BKN250 27/21 A2986 RMK AO2 SLP110 T02720211,KNRB,2023-06-02T16:52:00Z,30.38,-81.42,27.2,21.1,30,11,,10.0,29.861221,1011.0,,,TRUE,,,,,,,SCT,1500,SCT,3000,BKN,25000,,,VFR,,,,,,,,,,,,METAR,4.0
KNHK 021652Z VRB04KT 10SM FEW260 28/12 A2994 RMK AO2 SLP138 T02830122 $,KNHK,2023-06-02T16:52:00Z,38.28,-76.4,28.3,12.2,0,4,,10.0,29.940945,1013.8,,,TRUE,TRUE,,,,,,FEW,26000,,,,,,,VFR,,,,,,,,,,,,METAR,5.0
KNFW 021652Z 12012G18KT 10SM SCT045 BKN100 BKN250 31/19 A2993 RMK AO2 SLP120 T03060189 VISNO S $,KNFW,2023-06-02T16:52:00Z,32.78,-97.43,30.6,18.9,120,12,18,10.0,29.929134,1012.0,,,TRUE,TRUE,,,,,,SCT,4500,BKN,10000,BKN,25000,,,VFR,,,,,,,,,,,,METAR,188.0
KN60 021652Z AUTO 16009G17KT 28/14 A2992 RMK AO1 SLP122 T02780144,KN60,2023-06-02T16:52:00Z,47.65,-101.43,27.8,14.4,160,9,17,,29.920275,1012.2,,TRUE,TRUE,,,,,,,,,,,,,,,,,,,,,,,,,,,METAR,582.0
KMWN 021652Z 30007KT 50SM BKN008TCU BKN060 BKN100 16/11 RMK TCU DSNT SW ACSL DSNT E,KMWN,2023-06-02T16:52:00Z,44.27,-71.3,16.0,11.0,300,7,,50.0,,,,,,,,,,,,BKN,800,BKN,6000,BKN,10000,,,IFR,,,,,,,,,,,,METAR,1911.0
KMWH 021652Z 22004KT 10SM CLR 19/04 A3002 RMK AO2 SLP162 T01890039,KMWH,2023-06-02T16:52:00Z,47.2,-119.32,18.9,3.9,220,4,,10.0,30.02067,1016.2,,,TRUE,,,,,,,CLR,,,,,,,,VFR,,,,,,,,,,,,METAR,355.0
KMLI 021652Z 14005KT 10SM CLR 33/15 A3003 RMK AO2 SLP165 T03280150,KMLI,2023-06-02T16:52:00Z,41.45,-90.52,32.8,15.0,140,5,,10.0,30.029528,1016.5,,,TRUE,,,,,,,CLR,,,,,,,,VFR,,,,,,,,,,,,METAR,174.0
KMLF 021652Z AUTO 17009KT 10SM OVC090 20/07 A3002 RMK AO2 SLP111 T02000067,KMLF,2023-06-02T16:52:00Z,38.42,-113.02,20.0,6.7,170,9,,10.0,30.02067,1011.1,,TRUE,TRUE,,,,,,,OVC,9000,,,,,,,VFR,,,,,,,,,,,,METAR,1537.0
KMKE 021652Z 09007KT 10SM BKN250 26/16 A3010 RMK AO2 SLP188 T02560156,KMKE,2023-06-02T16:52:00Z,42.95,-87.9,25.6,15.6,90,7,,10.0,30.100393,1018.8,,,TRUE,,,,,,,BKN,25000,,,,,,,VFR,,,,,,,,,,,,METAR,203.0
KMHK 021652Z 14006KT 10SM FEW110 27/19 A2999 RMK AO2 SLP146 T02720194,KMHK,2023-06-02T16:52:00Z,39.13,-96.68,27.2,19.4,140,6,,10.0,29.991142,1014.6,,,TRUE,,,,,,,FEW,11000,,,,,,,VFR,,,,,,,,,,,,METAR,320.0
KMFD 021652Z 06009KT 10SM FEW075 31/11 A3007 RMK AO2 SLP173 T03060111,KMFD,2023-06-02T16:52:00Z,40.82,-82.52,30.6,11.1,60,9,,10.0,30.070866,1017.3,,,TRUE,,,,,,,FEW,7500,,,,,,,VFR,,,,,,,,,,,,METAR,394.0
KMEB 021652Z AUTO 10SM FEW036 FEW047 27/17 A2991 RMK AO2 SLP125 T02720167,KMEB,2023-06-02T16:52:00Z,34.78,-79.37,27.2,16.7,,,,10.0,29.911417,1012.5,,TRUE,TRUE,,,,,,,FEW,3600,FEW,4700,,,,,VFR,,,,,,,,,,,,METAR,65.0
KMDH 021652Z 07007KT 050V110 10SM CLR 32/17 A2998 RMK AO2 SLP147 T03220172,KMDH,2023-06-02T16:52:00Z,37.78,-89.25,32.2,17.2,70,7,,10.0,29.97933,1014.7,,,TRUE,,,,,,,CLR,,,,,,,,VFR,,,,,,,,,,,,METAR,122.0
KMBG 021652Z AUTO 14012KT 10SM CLR 28/19 A2989 RMK AO2 SLP109 T02780194,KMBG,2023-06-02T16:52:00Z,45.55,-100.42,27.8,19.4,140,12,,10.0,29.890747,1010.9,,TRUE,TRUE,,,,,,,CLR,,,,,,,,VFR,,,,,,,,,,,,METAR,515.0
KLWC 021652Z AUTO 09007KT 9SM CLR 30/20 A3000 RMK AO1 SLP149 T03000200,KLWC,2023-06-02T16:52:00Z,39.02,-95.22,30.0,20.0,90,7,,9.0,30.0,1014.9,,TRUE,TRUE,,,,,,,CLR,,,,,,,,VFR,,,,,,,,,,,,METAR,252.0
KIOW 021652Z AUTO 13007KT 10SM CLR 30/17 A3006 RMK AO2 SLP174 T03000172,KIOW,2023-06-02T16:52:00Z,41.63,-91.55,30.0,17.2,130,7,,10.0,30.059055,1017.4,,TRUE,TRUE,,,,,,,CLR,,,,,,,,VFR,,,,,,,,,,,,METAR,199.0
KIJD 021652Z AUTO 15005KT 10SM CLR 31/17 A2989 RMK AO2 SLP118 T03060172,KIJD,2023-06-02T16:52:00Z,41.75,-72.18,30.6,17.2,150,5,,10.0,29.890747,1011.8,,TRUE,TRUE,,,,,,,CLR,,,,,,,,VFR,,,,,,,,,,,,METAR,73.0
KIAD 021652Z VRB04KT 10SM CLR 32/12 A2995 RMK AO2 SLP140 T03170117,KIAD,2023-06-02T16:52:00Z,38.93,-77.45,31.7,11.7,0,4,,10.0,29.949802,1014.0,,,TRUE,,,,,,,CLR,,,,,,,,VFR,,,,,,,,,,,,METAR,90.0
KHUT 021652Z 15017KT 10SM FEW042 27/18 A2998 RMK AO2 SLP130 T02720178,KHUT,2023-06-02T16:52:00Z,38.07,-97.87,27.2,17.8,150,17,,10.0,29.97933,1013.0,,,TRUE,,,,,,,FEW,4200,,,,,,,VFR,,,,,,,,,,,,METAR,464.0
KHRL 021652Z 13010G17KT 10SM SCT034 BKN043 BKN060 30/23 A2988 RMK AO2 SLP118 T03000228,KHRL,2023-06-02T16:52:00Z,26.23,-97.65,30.0,22.8,130,10,17,10.0,29.878937,1011.8,,,TRUE,,,,,,,SCT,3400,BKN,4300,BKN,6000,,,VFR,,,,,,,,,,,,METAR,9.0
KHIE 021652Z AUTO 01004KT 10SM CLR 27/15 A2996 RMK AO2 SLP143 T02670150,KHIE,2023-06-02T16:52:00Z,44.37,-71.55,26.7,15.0,10,4,,10.0,29.958662,1014.3,,TRUE,TRUE,,,,,,,CLR,,,,,,,,VFR,,,,,,,,,,,,METAR,321.0
KGLS 021652Z 10007KT 10SM CLR 29/21 A2995 RMK AO2 SLP140 T02890211,KGLS,2023-06-02T16:52:00Z,29.27,-94.87,28.9,21.1,100,7,,10.0,29.949802,1014.0,,,TRUE,,,,,,,CLR,,,,,,,,VFR,,,,,,,,,,,,METAR,2.0
KEST 021652Z AUTO 16010KT 10SM FEW055 BKN095 27/18 A3005 RMK AO2 SLP168 T02720178,KEST,2023-06-02T16:52:00Z,43.4,-94.75,27.2,17.8,160,10,,10.0,30.050198,1016.8,,TRUE,TRUE,,,,,,,FEW,5500,BKN,9500,,,,,VFR,,,,,,,,,,,,METAR,401.0
KDVN 021652Z AUTO 12005KT 10SM CLR 31/16 A3007 RMK AO2 SLP172 T03110156,KDVN,2023-06-02T16:52:00Z,41.62,-90.58,31.1,15.6,120,5,,10.0,30.070866,1017.2,,TRUE,TRUE,,,,,,,CLR,,,,,,,,VFR,,,,,,,,,,,,METAR,227.0
KDPA 021652Z 10009KT 10SM CLR 31/11 A3007 RMK AO2 SLP177 T03110106,KDPA,2023-06-02T16:52:00Z,41.88,-88.25,31.1,10.6,100,9,,10.0,30.070866,1017.7,,,TRUE,,,,,,,CLR,,,,,,,,VFR,,,,,,,,,,,,METAR,228.0
KDCA 021652Z 00000KT 10SM FEW040 32/13 A2993 RMK AO2 SLP136 T03170133,KDCA,2023-06-02T16:52:00Z,38.85,-77.03,31.7,13.3,0,0,,10.0,29.929134,1013.6,,,TRUE,,,,,,,FEW,4000,,,,,,,VFR,,,,,,,,,,,,METAR,4.0
KCVG 021652Z 05009G16KT 10SM CLR 31/12 A3002 RMK AO2 SLP154 T03060117,KCVG,2023-06-02T16:52:00Z,39.05,-84.67,30.6,11.7,50,9,16,10.0,30.02067,1015.4,,,TRUE,,,,,,,CLR,,,,,,,,VFR,,,,,,,,,,,,METAR,264.0
KCQX 021652Z AUTO VRB06KT 10SM CLR 23/17 A2993 RMK AO2 SLP134 T02280172,KCQX,2023-06-02T16:52:00Z,41.68,-70.0,22.8,17.2,0,6,,10.0,29.929134,1013.4,,TRUE,TRUE,,,,,,,CLR,,,,,,,,VFR,,,,,,,,,,,,METAR,17.0
KCNU 021652Z AUTO 13007KT 10SM CLR 30/19 A3000 RMK AO2 SLP145 T03000189,KCNU,2023-06-02T16:52:00Z,37.67,-95.48,30.0,18.9,130,7,,10.0,30.0,1014.5,,TRUE,TRUE,,,,,,,CLR,,,,,,,,VFR,,,,,,,,,,,,METAR,301.0
KCLT 021652Z 04008G16KT 10SM FEW050 SCT250 28/13 A2994 RMK AO2 SLP143 T02780133,KCLT,2023-06-02T16:52:00Z,35.22,-80.95,27.8,13.3,40,8,16,10.0,29.940945,1014.3,,,TRUE,,,,,,,FEW,5000,SCT,25000,,,,,VFR,,,,,,,,,,,,METAR,223.0
KCKV 021652Z AUTO 08009KT 10SM FEW055 32/16 A2997 RMK AO2 SLP143 T03170161,KCKV,2023-06-02T16:52:00Z,36.62,-87.42,31.7,16.1,80,9,,10.0,29.970472,1014.3,,TRUE,TRUE,,,,,,,FEW,5500,,,,,,,VFR,,,,,,,,,,,,METAR,166.0
KCID 021652Z 17009KT 10SM CLR 30/17 A3005 RMK AO2 SLP170 T03000167,KCID,2023-06-02T16:52:00Z,41.88,-91.72,30.0,16.7,170,9,,10.0,30.050198,1017.0,,,TRUE,,,,,,,CLR,,,,,,,,VFR,,,,,,,,,,,,METAR,257.0
KCFV 021652Z AUTO 15007KT 10SM CLR 29/19 A2998 RMK AO2 SLP144 T02890194,KCFV,2023-06-02T16:52:00Z,37.08,-95.57,28.9,19.4,150,7,,10.0,29.97933,1014.4,,TRUE,TRUE,,,,,,,CLR,,,,,,,,VFR,,,,,,,,,,,,METAR,228.0
KBML 021652Z AUTO 33006KT 10SM CLR 27/16 A2996 RMK AO2 SLP141 T02720156,KBML,2023-06-02T16:52:00Z,44.58,-71.18,27.2,15.6,330,6,,10.0,29.958662,1014.1,,TRUE,TRUE,,,,,,,CLR,,,,,,,,VFR,,,,,,,,,,,,METAR,344.0
KBLU 021652Z AUTO VRB04KT 10SM CLR 16/03 A3011 RMK AO2 SLP138 T01610033,KBLU,2023-06-02T16:52:00Z,39.28,-120.7,16.1,3.3,0,4,,10.0,30.109253,1013.8,,TRUE,TRUE,,,,,,,CLR,,,,,,,,VFR,,,,,,,,,,,,METAR,1605.0
KBLH 021652Z AUTO 22008KT 170V240 10SM CLR 28/12 A2987 RMK AO2 SLP108 T02830117,KBLH,2023-06-02T16:52:00Z,33.62,-114.72,28.3,11.7,220,8,,10.0,29.870079,1010.8,,TRUE,TRUE,,,,,,,CLR,,,,,,,,VFR,,,,,,,,,,,,METAR,119.0
KBLF 021652Z AUTO 06008G16KT 020V090 10SM CLR 23/08 A3009 RMK AO2 SLP156 T02280083,KBLF,2023-06-02T16:52:00Z,37.3,-81.2,22.8,8.3,60,8,16,10.0,30.088583,1015.6,,TRUE,TRUE,,,,,,,CLR,,,,,,,,VFR,,,,,,,,,,,,METAR,871.0
KBKB 021652Z AUTO 00000KT BKN042 31/18 A2991 RMK AO2 SLP154 T03060183 $,KBKB,2023-06-02T16:52:00Z,31.02,-92.92,30.6,18.3,0,0,,,29.911417,1015.4,,TRUE,TRUE,TRUE,,,,,,BKN,4200,,,,,,,,,,,,,,,,,,,METAR,74.0
KBIS 021652Z 13008KT 10SM BKN095 26/18 A2992 RMK AO2 SLP124 T02610178,KBIS,2023-06-02T16:52:00Z,46.77,-100.75,26.1,17.8,130,8,,10.0,29.920275,1012.4,,,TRUE,,,,,,,BKN,9500,,,,,,,VFR,,,,,,,,,,,,METAR,506.0
KBDR 021652Z 17005KT 10SM CLR 26/16 A2990 RMK AO2 SLP125 T02610161,KBDR,2023-06-02T16:52:00Z,41.17,-73.13,26.1,16.1,170,5,,10.0,29.899607,1012.5,,,TRUE,,,,,,,CLR,,,,,,,,VFR,,,,,,,,,,,,METAR,5.0
KBAN 021652Z AUTO 00000KT 10SM CLR 13/M08 A3011 RMK AO2 SLP132 T01281083 PWINO $,KBAN,2023-06-02T16:52:00Z,38.35,-119.52,12.8,-8.3,0,0,,10.0,30.109253,1013.2,,TRUE,TRUE,TRUE,,,,TRUE,,CLR,,,,,,,,VFR,,,,,,,,,,,,METAR,2067.0
KATL 021652Z 02011G16KT 10SM SCT048 SCT250 29/16 A2994 RMK AO2 SLP129 MDT CU ALQDS T02890156,KATL,2023-06-02T16:52:00Z,33.63,-84.45,28.9,15.6,20,11,16,10.0,29.940945,1012.9,,,TRUE,,,,,,,SCT,4800,SCT,25000,,,,,VFR,,,,,,,,,,,,METAR,309.0
KARR 021652Z 07006KT 9SM BKN250 32/12 A3006 RMK AO2 SLP174 T03170122,KARR,2023-06-02T16:52:00Z,41.77,-88.48,31.7,12.2,70,6,,9.0,30.059055,1017.4,,,TRUE,,,,,,,BKN,25000,,,,,,,VFR,,,,,,,,,,,,METAR,213.0
KALS 021652Z AUTO 19004KT 10SM CLR 13/05 A3011 RMK AO2 LTG DSNT W SLP139 T01280050,KALS,2023-06-02T16:52:00Z,37.43,-105.87,12.8,5.0,190,4,,10.0,30.109253,1013.9,,TRUE,TRUE,,,,,,,CLR,,,,,,,,VFR,,,,,,,,,,,,METAR,2299.0
KABQ 021652Z VRB03KT 10SM FEW080 FEW100 SCT250 22/03 A3004 RMK AO2 LTG DSNT SW SLP100 TCU DSNT NE AND E CB DSNT S T02170028,KABQ,2023-06-02T16:52:00Z,35.05,-106.62,21.7,2.8,0,3,,10.0,30.041338,1010.0,,,TRUE,,,,,,,FEW,8000,FEW,10000,SCT,25000,,,VFR,,,,,,,,,,,,METAR,1620.0
PTYA 021651Z 00000KT 12SM SCT016 BKN130 OVC300 25/25 A2978 RMK SLP084 T02530248,PTYA,2023-06-02T16:51:00Z,9.48,138.08,25.3,24.8,0,0,,12.0,29.778543,1008.4,,,,,,,,,,SCT,1600,BKN,13000,OVC,30000,,,VFR,,,,,,,,,,,,METAR,4.0
PHBK 021651Z AUTO 07003KT 10SM FEW070 OVC080 23/20 A3010 RMK AO2 SLP194 T02330200,PHBK,2023-06-02T16:51:00Z,22.03,-159.78,23.3,20.0,70,3,,10.0,30.100393,1019.4,,TRUE,TRUE,,,,,,,FEW,7000,OVC,8000,,,,,VFR,,,,,,,,,,,,METAR,5.0
PAMD 021651Z AUTO 09006KT 10SM CLR 09/05 A3000 RMK AO2 SLP148 T00890050 PNO $,PAMD,2023-06-02T16:51:00Z,59.43,-146.3,8.9,5.0,90,6,,10.0,30.0,1014.8,,TRUE,TRUE,TRUE,,,,,,CLR,,,,,,,,VFR,,,,,,,,,,,,METAR,20.0
MUGM 021651Z 13013KT 10SM SCT010 BKN030 OVC060 27/ A2983 RMK AO2 RAE38 SLP102 P0001 T02670239 $,MUGM,2023-06-02T16:51:00Z,19.9,-75.2,26.7,,130,13,,10.0,29.828741,1010.2,,,TRUE,TRUE,,,,,,SCT,1000,BKN,3000,OVC,6000,,,MVFR,,,,,,0.01,,,,,,SPECI,21.0
MUCF 021651Z 22011KT 180V240 9999 SCT025 31/23 Q1008,MUCF,2023-06-02T16:51:00Z,22.15,-80.4,31.0,23.0,220,11,,6.21,29.763779,,,,,,,,,,,SCT,2500,,,,,,,VFR,,,,,,,,,,,,METAR,35.0
MMML 021651Z 17004KT 10SM SKC 26/16 A2988,MMML,2023-06-02T16:51:00Z,32.62,-115.23,26.0,16.0,170,4,,10.0,29.878937,,,,,,,,,,,SKC,,,,,,,,VFR,,,,,,,,,,,,METAR,21.0
MMIO 021651Z 36008KT 10SM SKC 25/06 A3010,MMIO,2023-06-02T16:51:00Z,25.55,-100.93,25.0,6.0,360,8,,10.0,30.100393,,,,,,,,,,,SKC,,,,,,,,VFR,,,,,,,,,,,,METAR,1430.0
KYNG 021651Z 08005KT 10SM SCT250 30/12 A3005 RMK AO2 SLP165 T03000117,KYNG,2023-06-02T16:51:00Z,41.25,-80.67,30.0,11.7,80,5,,10.0,30.050198,1016.5,,,TRUE,,,,,,,SCT,25000,,,,,,,VFR,,,,,,,,,,,,METAR,356.0
KXWA 021651Z AUTO 05008KT 10SM BKN110 21/17 A2994 RMK AO2 SLP136 T02110167,KXWA,2023-06-02T16:51:00Z,48.27,-103.75,21.1,16.7,50,8,,10.0,29.940945,1013.6,,TRUE,TRUE,,,,,,,BKN,11000,,,,,,,VFR,,,,,,,,,,,,METAR,717.0
KVNY 021651Z 00000KT 10SM OVC030 19/11 A2997 RMK AO2 SLP144 T01890111,KVNY,2023-06-02T16:51:00Z,34.22,-118.48,18.9,11.1,0,0,,10.0,29.970472,1014.4,,,TRUE,,,,,,,OVC,3000,,,,,,,MVFR,,,,,,,,,,,,METAR,241.0
KVCT 021651Z 13009KT 10SM SCT041 31/22 A2992 RMK AO2 SLP129 T03060217,KVCT,2023-06-02T16:51:00Z,28.87,-96.93,30.6,21.7,130,9,,10.0,29.920275,1012.9,,,TRUE,,,,,,,SCT,4100,,,,,,,VFR,,,,,,,,,,,,METAR,33.0
KUGN 021651Z 12004KT 10SM CLR 28/12 A3009 RMK AO2 SLP179 T02780117,KUGN,2023-06-02T16:51:00Z,42.42,-87.87,27.8,11.7,120,4,,10.0,30.088583,1017.9,,,TRUE,,,,,,,CLR,,,,,,,,VFR,,,,,,,,,,,,METAR,217.0
KTPL 021651Z AUTO 16008KT CLR 29/19 A2995 RMK AO2 SLP131 T02940189 PWINO RVRNO $,KTPL,2023-06-02T16:51:00Z,31.15,-97.4,29.4,18.9,160,8,,,29.949802,1013.1,,TRUE,TRUE,TRUE,,,,TRUE,,CLR,,,,,,,,,,,,,,,,,,,,METAR,206.0
KTEB 021651Z VRB06KT 10SM CLR 32/16 A2988 RMK AO2 SLP117 T03220161,KTEB,2023-06-02T16:51:00Z,40.87,-74.05,32.2,16.1,0,6,,10.0,29.878937,1011.7,,,TRUE,,,,,,,CLR,,,,,,,,VFR,,,,,,,,,,,,METAR,3.0
KSTL 021651Z VRB06G15KT 10SM FEW060 FEW250 32/15 A3001 RMK AO2 SLP149 T03220150,KSTL,2023-06-02T16:51:00Z,38.75,-90.37,32.2,15.0,0,6,15,10.0,30.008858,1014.9,,,TRUE,,,,,,,FEW,6000,FEW,25000,,,,,VFR,,,,,,,,,,,,METAR,163.0
KSNT 021651Z AUTO 00000KT 11/06 A3008 RMK AO1 SLP124 T01060056,KSNT,2023-06-02T16:51:00Z,44.17,-114.93,10.6,5.6,0,0,,,30.079725,1012.4,,TRUE,TRUE,,,,,,,,,,,,,,,,,,,,,,,,,,,METAR,1980.0
KSMX 021651Z VRB03KT 10SM BKN017 14/09 A3002 RMK AO2 SLP169 T01390094,KSMX,2023-06-02T16:51:00Z,34.9,-120.45,13.9,9.4,0,3,,10.0,30.02067,1016.9,,,TRUE,,,,,,,BKN,1700,,,,,,,MVFR,,,,,,,,,,,,METAR,73.0
KSMO 021651Z 21008KT 10SM SCT026 BKN040 18/12 A2999 RMK AO2 SLP153 T01830117,KSMO,2023-06-02T16:51:00Z,34.02,-118.45,18.3,11.7,210,8,,10.0,29.991142,1015.3,,,TRUE,,,,,,,SCT,2600,BKN,4000,,,,,VFR,,,,,,,,,,,,METAR,56.0
KSLK 021651Z AUTO 05007G14KT 10SM FEW060 29/13 A3001 RMK AO2 SLP153 T02890128,KSLK,2023-06-02T16:51:00Z,44.4,-74.2,28.9,12.8,50,7,14,10.0,30.008858,1015.3,,TRUE,TRUE,,,,,,,FEW,6000,,,,,,,VFR,,,,,,,,,,,,METAR,502.0
KSJT 021651Z 19012G19KT 10SM FEW030 SCT036 BKN043 27/19 A2993 RMK AO2 SLP115 T02670189,KSJT,2023-06-02T16:51:00Z,31.37,-100.5,26.7,18.9,190,12,19,10.0,29.929134,1011.5,,,TRUE,,,,,,,FEW,3000,SCT,3600,BKN,4300,,,VFR,,,,,,,,,,,,METAR,582.0
KSDB 021651Z AUTO 34015G23KT 10SM CLR 19/02 A3004 RMK AO2 SLP135 T01890022,KSDB,2023-06-02T16:51:00Z,34.75,-118.72,18.9,2.2,340,15,23,10.0,30.041338,1013.5,,TRUE,TRUE,,,,,,,CLR,,,,,,,,VFR,,,,,,,,,,,,METAR,1377.0
KSBD 021651Z 00000KT 5SM HZ SCT018 OVC024 17/10 A2999,KSBD,2023-06-02T16:51:00Z,34.08,-117.25,17.0,10.0,0,0,,5.0,29.991142,,,,,,,,,,HZ,SCT,1800,OVC,2400,,,,,MVFR,,,,,,,,,,,,METAR,353.0
KSAT 021651Z 14013KT 10SM BKN035 BKN045 BKN250 29/19 A2994 RMK AO2 SLP118 T02940189,KSAT,2023-06-02T16:51:00Z,29.53,-98.48,29.4,18.9,140,13,,10.0,29.940945,1011.8,,,TRUE,,,,,,,BKN,3500,BKN,4500,BKN,25000,,,VFR,,,,,,,,,,,,METAR,246.0
KSAN 021651Z 31008KT 10SM FEW021 OVC032 18/12 A3000 RMK AO2 SLP159 T01780117,KSAN,2023-06-02T16:51:00Z,32.73,-117.18,17.8,11.7,310,8,,10.0,30.0,1015.9,,,TRUE,,,,,,,FEW,2100,OVC,3200,,,,,VFR,,,,,,,,,,,,METAR,3.0
KSAD 021651Z AUTO 32005KT 10SM CLR 26/02 A2995 RMK AO2 SLP090 T02610017,KSAD,2023-06-02T16:51:00Z,32.85,-109.63,26.1,1.7,320,5,,10.0,29.949802,1009.0,,TRUE,TRUE,,,,,,,CLR,,,,,,,,VFR,,,,,,,,,,,,METAR,937.0
KROW 021651Z 02010KT 10SM CLR 27/14 A2992 RMK AO2 SLP064 T02720139,KROW,2023-06-02T16:51:00Z,33.3,-104.5,27.2,13.9,20,10,,10.0,29.920275,1006.4,,,TRUE,,,,,,,CLR,,,,,,,,VFR,,,,,,,,,,,,METAR,1105.0
KRDU 021651Z 05009G18KT 10SM FEW030 SCT250 27/15 A2994 RMK AO2 SLP133 T02670150,KRDU,2023-06-02T16:51:00Z,35.9,-78.78,26.7,15.0,50,9,18,10.0,29.940945,1013.3,,,TRUE,,,,,,,FEW,3000,SCT,25000,,,,,VFR,,,,,,,,,,,,METAR,121.0
KPWM 021651Z 09009KT 10SM SCT120 BKN250 28/16 A2989 RMK AO2 SLP120 T02830161,KPWM,2023-06-02T16:51:00Z,43.65,-70.3,28.3,16.1,90,9,,10.0,29.890747,1012.0,,,TRUE,,,,,,,SCT,12000,BKN,25000,,,,,VFR,,,,,,,,,,,,METAR,15.0
KPVD 021651Z 17009KT 10SM FEW038 26/17 A2990 RMK AO2 SLP124 T02560167,KPVD,2023-06-02T16:51:00Z,41.72,-71.43,25.6,16.7,170,9,,10.0,29.899607,1012.4,,,TRUE,,,,,,,FEW,3800,,,,,,,VFR,,,,,,,,,,,,METAR,15.0
KPIT 021651Z 05008KT 10SM FEW040 SCT250 29/11 A3003 RMK AO2 SLP166 T02940106,KPIT,2023-06-02T16:51:00Z,40.47,-80.2,29.4,10.6,50,8,,10.0,30.029528,1016.6,,,TRUE,,,,,,,FEW,4000,SCT,25000,,,,,VFR,,,,,,,,,,,,METAR,339.0
KPHX 021651Z 00000KT 10SM FEW120 FEW250 28/02 A2989 RMK AO2 SLP103 FU VC E-SE T02830022,KPHX,2023-06-02T16:51:00Z,33.43,-112.02,28.3,2.2,0,0,,10.0,29.890747,1010.3,,,TRUE,,,,,,,FEW,12000,FEW,25000,,,,,VFR,,,,,,,,,,,,METAR,338.0
KP59 021651Z AUTO 04004KT 10/07 A3016 RMK AO1 SLP216 T01000072,KP59,2023-06-02T16:51:00Z,47.47,-87.88,10.0,7.2,40,4,,,30.159449,1021.6,,TRUE,TRUE,,,,,,,,,,,,,,,,,,,,,,,,,,,METAR,185.0
KOXR 021651Z 30007KT 10SM OVC033 17/12 A2999 RMK AO2 SLP155 T01670122,KOXR,2023-06-02T16:51:00Z,34.2,-119.2,16.7,12.2,300,7,,10.0,29.991142,1015.5,,,TRUE,,,,,,,OVC,3300,,,,,,,VFR,,,,,,,,,,,,METAR,12.0
KOXC 021651Z COR 08004KT 10SM FEW050 30/16 A2993 RMK AO2 SLP140 T03000156,KOXC,2023-06-02T16:51:00Z,41.47,-73.13,30.0,15.6,80,4,,10.0,29.929134,1014.0,TRUE,,TRUE,,,,,,,FEW,5000,,,,,,,VFR,,,,,,,,,,,,METAR,211.0
KORF 021651Z 03007KT 10SM CLR 23/19 A2993 RMK AO2 SLP133 T02280189,KORF,2023-06-02T16:51:00Z,36.9,-76.2,22.8,18.9,30,7,,10.0,29.929134,1013.3,,,TRUE,,,,,,,CLR,,,,,,,,VFR,,,,,,,,,,,,METAR,5.0
KORD 021651Z 06006KT 10SM BKN250 32/11 A3007 RMK AO2 SLP176 T03170106,KORD,2023-06-02T16:51:00Z,41.95,-87.93,31.7,10.6,60,6,,10.0,30.070866,1017.6,,,TRUE,,,,,,,BKN,25000,,,,,,,VFR,,,,,,,,,,,,METAR,202.0
KOCF 021651Z 03008KT 10SM SCT040 29/20 A2982 RMK AO2 SLP096 T02890200 $,KOCF,2023-06-02T16:51:00Z,29.17,-82.22,28.9,20.0,30,8,,10.0,29.819881,1009.6,,,TRUE,TRUE,,,,,,SCT,4000,,,,,,,VFR,,,,,,,,,,,,METAR,24.0
KNYC 021651Z AUTO 11003KT 10SM SCT110 31/13 A2993 RMK AO2 SLP124 T03060133 $,KNYC,2023-06-02T16:51:00Z,40.78,-73.97,30.6,13.3,110,3,,10.0,29.929134,1012.4,,TRUE,TRUE,TRUE,,,,,,SCT,11000,,,,,,,VFR,,,,,,,,,,,,METAR,33.0
KNBT 021651Z AUTO 02012G20KT 10SM SCT037 BKN045 OVC055 27/20 A2988 RMK AO2 SLP122 T02670200,KNBT,2023-06-02T16:51:00Z,35.02,-76.47,26.7,20.0,20,12,20,10.0,29.878937,1012.2,,TRUE,TRUE,,,,,,,SCT,3700,BKN,4500,OVC,5500,,,VFR,,,,,,,,,,,,METAR,5.0
KMYL 021651Z AUTO 10SM FEW047 15/07 A3001 RMK AO2 SLP131 T01500067,KMYL,2023-06-02T16:51:00Z,44.9,-116.1,15.0,6.7,,,,10.0,30.008858,1013.1,,TRUE,TRUE,,,,,,,FEW,4700,,,,,,,VFR,,,,,,,,,,,,METAR,1532.0
KMPV 021651Z AUTO 00000KT 10SM CLR 27/14 A3002 RMK AO2 SLP160 T02670139,KMPV,2023-06-02T16:51:00Z,44.2,-72.57,26.7,13.9,0,0,,10.0,30.02067,1016.0,,TRUE,TRUE,,,,,,,CLR,,,,,,,,VFR,,,,,,,,,,,,METAR,336.0
KLWB 021651Z 06004KT 10SM CLR 26/11 A3005,KLWB,2023-06-02T16:51:00Z,37.87,-80.4,26.0,11.0,60,4,,10.0,30.050198,,,,,,,,,,,CLR,,,,,,,,VFR,,,,,,,,,,,,METAR,702.0
KLGU 021651Z AUTO 01006KT 10SM OVC110 15/09 A3001 RMK AO2 SLP131 T01500094,KLGU,2023-06-02T16:51:00Z,41.78,-111.85,15.0,9.4,10,6,,10.0,30.008858,1013.1,,TRUE,TRUE,,,,,,,OVC,11000,,,,,,,VFR,,,,,,,,,,,,METAR,1359.0
KLGA 021651Z 10007KT 10SM FEW060 FEW250 31/13 A2989 RMK AO2 SLP122 T03060133,KLGA,2023-06-02T16:51:00Z,40.78,-73.88,30.6,13.3,100,7,,10.0,29.890747,1012.2,,,TRUE,,,,,,,FEW,6000,FEW,25000,,,,,VFR,,,,,,,,,,,,METAR,9.0
KJFK 021651Z 18008KT 10SM FEW045 FEW095 24/16 A2992 RMK AO2 SLP132 T02440156,KJFK,2023-06-02T16:51:00Z,40.63,-73.77,24.4,15.6,180,8,,10.0,29.920275,1013.2,,,TRUE,,,,,,,FEW,4500,FEW,9500,,,,,VFR,,,,,,,,,,,,METAR,3.0
KJCT 021651Z AUTO 15011G21KT 10SM OVC039 27/19 A2995 RMK AO2 SLP105 T02670189,KJCT,2023-06-02T16:51:00Z,30.5,-99.77,26.7,18.9,150,11,21,10.0,29.949802,1010.5,,TRUE,TRUE,,,,,,,OVC,3900,,,,,,,VFR,,,,,,,,,,,,METAR,522.0
KILG 021651Z 15010KT 10SM CLR 32/16 A2991 RMK AO2 SLP127 T03170156,KILG,2023-06-02T16:51:00Z,39.67,-75.6,31.7,15.6,150,10,,10.0,29.911417,1012.7,,,TRUE,,,,,,,CLR,,,,,,,,VFR,,,,,,,,,,,,METAR,22.0
KIGM 021651Z AUTO 23011KT 10SM CLR 26/05 A2998 RMK AO2 SLP086 T02560050,KIGM,2023-06-02T16:51:00Z,35.25,-113.93,25.6,5.0,230,11,,10.0,29.97933,1008.6,,TRUE,TRUE,,,,,,,CLR,,,,,,,,VFR,,,,,,,,,,,,METAR,1045.0
KHTS 021651Z VRB04KT 10SM CLR 28/12 A3001 RMK AO2 SLP153 T02830122,KHTS,2023-06-02T16:51:00Z,38.37,-82.55,28.3,12.2,0,4,,10.0,30.008858,1015.3,,,TRUE,,,,,,,CLR,,,,,,,,VFR,,,,,,,,,,,,METAR,252.0
KHSE 021651Z AUTO 01009G16KT 10SM OVC006 22/20 A2987 RMK AO2 SLP116 T02170200,KHSE,2023-06-02T16:51:00Z,35.23,-75.62,21.7,20.0,10,9,16,10.0,29.870079,1011.6,,TRUE,TRUE,,,,,,,OVC,600,,,,,,,IFR,,,,,,,,,,,,METAR,4.0
KHDO 021651Z AUTO 15011KT 10SM SCT027 SCT035 BKN046 28/22 A2993 RMK AO2 SLP121 T02830217,KHDO,2023-06-02T16:51:00Z,29.37,-99.17,28.3,21.7,150,11,,10.0,29.929134,1012.1,,TRUE,TRUE,,,,,,,SCT,2700,SCT,3500,BKN,4600,,,VFR,,,,,,,,,,,,METAR,280.0
KGDP 021651Z AUTO 23009KT 7SM CLR 24/M06 RMK AO2 SLPNO T02441056,KGDP,2023-06-02T16:51:00Z,31.83,-104.82,24.4,-5.6,230,9,,7.0,,,,TRUE,TRUE,,,,,,,CLR,,,,,,,,VFR,,,,,,,,,,,,METAR,1664.0
KEWR 021651Z 09009KT 10SM FEW065 FEW090 32/12 A2989 RMK AO2 SLP120 T03170122,KEWR,2023-06-02T16:51:00Z,40.68,-74.17,31.7,12.2,90,9,,10.0,29.890747,1012.0,,,TRUE,,,,,,,FEW,6500,FEW,9000,,,,,VFR,,,,,,,,,,,,METAR,2.0
KERI 021651Z 34008KT 10SM CLR 26/16 A3006 RMK AO2 SLP174 T02560161,KERI,2023-06-02T16:51:00Z,42.08,-80.18,25.6,16.1,340,8,,10.0,30.059055,1017.4,,,TRUE,,,,,,,CLR,,,,,,,,VFR,,,,,,,,,,,,METAR,222.0
KELP 021651Z 26012KT 10SM FEW120 FEW160 28/M03 A2998 RMK AO2 SLP072 T02831028,KELP,2023-06-02T16:51:00Z,31.82,-106.35,28.3,-2.8,260,12,,10.0,29.97933,1007.2,,,TRUE,,,,,,,FEW,12000,FEW,16000,,,,,VFR,,,,,,,,,,,,METAR,1205.0
KEKN 021651Z AUTO 34010KT 10SM CLR 28/11 A3004 RMK AO2 SLP167 T02830106,KEKN,2023-06-02T16:51:00Z,38.88,-79.85,28.3,10.6,340,10,,10.0,30.041338,1016.7,,TRUE,TRUE,,,,,,,CLR,,,,,,,,VFR,,,,,,,,,,,,METAR,596.0
KDAW 021651Z AUTO 35006KT 10SM CLR 32/16 A2988 RMK AO2 SLP114 T03220161,KDAW,2023-06-02T16:51:00Z,43.28,-70.92,32.2,16.1,350,6,,10.0,29.878937,1011.4,,TRUE,TRUE,,,,,,,CLR,,,,,,,,VFR,,,,,,,,,,,,METAR,100.0
KCSG 021651Z 06005KT 10SM SCT055 28/15 A2991 RMK AO2 SLP122 T02780150,KCSG,2023-06-02T16:51:00Z,32.52,-84.95,27.8,15.0,60,5,,10.0,29.911417,1012.2,,,TRUE,,,,,,,SCT,5500,,,,,,,VFR,,,,,,,,,,,,METAR,120.0
KCRP 021651Z 13010G17KT 10SM SCT033 SCT048 SCT250 31/23 A2990 RMK AO2 SLP125 T03110228,KCRP,2023-06-02T16:51:00Z,27.77,-97.5,31.1,22.8,130,10,17,10.0,29.899607,1012.5,,,TRUE,,,,,,,SCT,3300,SCT,4800,SCT,25000,,,VFR,,,,,,,,,,,,METAR,11.0
KCON 021651Z AUTO 31006KT 10SM CLR 33/13 A2988 RMK AO2 SLP117 T03280128,KCON,2023-06-02T16:51:00Z,43.2,-71.5,32.8,12.8,310,6,,10.0,29.878937,1011.7,,TRUE,TRUE,,,,,,,CLR,,,,,,,,VFR,,,,,,,,,,,,METAR,102.0
KCMH 021651Z VRB06KT 10SM FEW050 32/09 A3002 RMK AO2 SLP157 T03220089,KCMH,2023-06-02T16:51:00Z,40.0,-82.88,32.2,8.9,0,6,,10.0,30.02067,1015.7,,,TRUE,,,,,,,FEW,5000,,,,,,,VFR,,,,,,,,,,,,METAR,257.0
KCLE 021651Z 02009KT 10SM FEW250 28/14 A3006,KCLE,2023-06-02T16:51:00Z,41.42,-81.85,28.0,14.0,20,9,,10.0,30.059055,,,,,,,,,,,FEW,25000,,,,,,,VFR,,,,,,,,,,,,METAR,237.0
KCDJ 021651Z AUTO 11006KT 29/19 A3002 RMK AO1 SLP154 T02940189,KCDJ,2023-06-02T16:51:00Z,39.82,-93.57,29.4,18.9,110,6,,,30.02067,1015.4,,TRUE,TRUE,,,,,,,,,,,,,,,,,,,,,,,,,,,METAR,234.0
KCAK 021651Z 02014G19KT 10SM FEW050 SCT250 31/12 A3004 RMK AO2 SLP164 T03060122,KCAK,2023-06-02T16:51:00Z,40.92,-81.45,30.6,12.2,20,14,19,10.0,30.041338,1016.4,,,TRUE,,,,,,,FEW,5000,SCT,25000,,,,,VFR,,,,,,,,,,,,METAR,369.0
KBKW 021651Z AUTO 01008KT 10SM CLR 26/11 A3006 RMK AO2 SLP150 T02610111,KBKW,2023-06-02T16:51:00Z,37.8,-81.12,26.1,11.1,10,8,,10.0,30.059055,1015.0,,TRUE,TRUE,,,,,,,CLR,,,,,,,,VFR,,,,,,,,,,,,METAR,762.0
KBHK 021651Z AUTO 12015KT 10SM OVC110 23/17 A2990 RMK AO2 SLP104 T02330167,KBHK,2023-06-02T16:51:00Z,46.35,-104.25,23.3,16.7,120,15,,10.0,29.899607,1010.4,,TRUE,TRUE,,,,,,,OVC,11000,,,,,,,VFR,,,,,,,,,,,,METAR,904.0
KBGD 021651Z AUTO 15008KT 10SM FEW022 OVC029 23/18 A2998 RMK AO2 SLP118 T02280178,KBGD,2023-06-02T16:51:00Z,35.7,-101.4,22.8,17.8,150,8,,10.0,29.97933,1011.8,,TRUE,TRUE,,,,,,,FEW,2200,OVC,2900,,,,,MVFR,,,,,,,,,,,,METAR,928.0
KBED 021651Z 00000KT 10SM CLR 33/18 A2986 RMK AO2 SLP123 T03280178,KBED,2023-06-02T16:51:00Z,42.47,-71.3,32.8,17.8,0,0,,10.0,29.861221,1012.3,,,TRUE,,,,,,,CLR,,,,,,,,VFR,,,,,,,,,,,,METAR,39.0
KBDL 021651Z VRB04KT 10SM FEW060 FEW120 32/16 A2988 RMK AO2 LTG DSNT NW SLP118 CB DSNT NW MOV S T03220161,KBDL,2023-06-02T16:51:00Z,41.93,-72.68,32.2,16.1,0,4,,10.0,29.878937,1011.8,,,TRUE,,,,,,,FEW,6000,FEW,12000,,,,,VFR,,,,,,,,,,,,METAR,52.0
KBAZ 021651Z 15010KT 10SM FEW039 30/21 A2993 RMK AO2 SLP125 T03000206,KBAZ,2023-06-02T16:51:00Z,29.72,-98.05,30.0,20.6,150,10,,10.0,29.929134,1012.5,,,TRUE,,,,,,,FEW,3900,,,,,,,VFR,,,,,,,,,,,,METAR,199.0
KATT 021651Z AUTO VRB05KT 10SM SCT041 31/19 A2995 RMK AO2 SLP126 T03060194,KATT,2023-06-02T16:51:00Z,30.32,-97.77,30.6,19.4,0,5,,10.0,29.949802,1012.6,,TRUE,TRUE,,,,,,,SCT,4100,,,,,,,VFR,,,,,,,,,,,,METAR,203.0
KALB 021651Z COR 36006KT 10SM FEW060 FEW110 SCT250 BKN300 31/14 A2993 RMK AO2 LTG DSNT NW SLP135 CB DSNT NW MOV S T03110144,KALB,2023-06-02T16:51:00Z,42.75,-73.8,31.1,14.4,360,6,,10.0,29.929134,1013.5,TRUE,,TRUE,,,,,,,FEW,6000,FEW,11000,SCT,25000,BKN,30000,VFR,,,,,,,,,,,,METAR,82.0
KAHN 021651Z 07006KT 10SM FEW055 27/17 A2994 RMK AO2 SLP132 T02670172,KAHN,2023-06-02T16:51:00Z,33.95,-83.33,26.7,17.2,70,6,,10.0,29.940945,1013.2,,,TRUE,,,,,,,FEW,5500,,,,,,,VFR,,,,,,,,,,,,METAR,241.0
KACT 021651Z 15011KT 10SM FEW035 29/21 A2993 RMK AO2 SLP129 T02940211,KACT,2023-06-02T16:51:00Z,31.62,-97.23,29.4,21.1,150,11,,10.0,29.929134,1012.9,,,TRUE,,,,,,,FEW,3500,,,,,,,VFR,,,,,,,,,,,,METAR,150.0
KABE 021651Z 07009G20KT 10SM CLR 34/10 A2991 RMK AO2 SLP126 T03390100,KABE,2023-06-02T16:51:00Z,40.65,-75.45,33.9,10.0,70,9,20,10.0,29.911417,1012.6,,,TRUE,,,,,,,CLR,,,,,,,,VFR,,,,,,,,,,,,METAR,117.0
K6R6 021651Z AUTO 11008G17KT 27/23 A2993 RMK AO1 SLP098 T02720233,K6R6,2023-06-02T16:51:00Z,30.05,-102.22,27.2,23.3,110,8,17,,29.929134,1009.8,,TRUE,TRUE,,,,,,,,,,,,,,,,,,,,,,,,,,,METAR,702.0
TJBQ 021650Z 02005KT 10SM SCT030 BKN037 30/24 A2990,TJBQ,2023-06-02T16:50:00Z,18.5,-67.13,30.0,24.0,20,5,,10.0,29.899607,,,,,,,,,,,SCT,3000,BKN,3700,,,,,VFR,,,,,,,,,,,,METAR,69.0
TIST 021650Z 14012KT 10SM FEW025 31/26 A2992,TIST,2023-06-02T16:50:00Z,18.33,-64.98,31.0,26.0,140,12,,10.0,29.920275,,,,,,,,,,,FEW,2500,,,,,,,VFR,,,,,,,,,,,,METAR,5.0
PTTP 021650Z 00000KT 15SM FEW018 FEW130 BKN300 25/25 A2982 RMK RAE18 SLP098 T02510248,PTTP,2023-06-02T16:50:00Z,6.97,158.22,25.1,24.8,0,0,,15.0,29.819881,1009.8,,,,,,,,,,FEW,1800,FEW,13000,BKN,30000,,,VFR,,,,,,,,,,,,METAR,36.0
PTRO 021650Z 29004KT 10SM -TSRA BKN013CB OVC100 24/22 A2981 RMK OCNL LTGICCA SE-S AND OHD TS NE-SE-S AND OHD CB ALQDS AND OHD,PTRO,2023-06-02T16:50:00Z,7.37,134.55,24.0,22.0,290,4,,10.0,29.811024,,,,,,,,,,-TSRA,BKN,1300,OVC,10000,,,,,MVFR,,,,,,,,,,,,METAR,30.0
PTKK 021650Z VRB04KT 15SM FEW014 SCT120 OVC280 28/25 A2979 RMK SLP091 T02770250,PTKK,2023-06-02T16:50:00Z,7.47,151.85,27.7,25.0,0,4,,15.0,29.790354,1009.1,,,,,,,,,,FEW,1400,SCT,12000,OVC,28000,,,VFR,,,,,,,,,,,,METAR,3.0
PFYU 021650Z 22010KT 10SM SCT030 06/ A2975,PFYU,2023-06-02T16:50:00Z,66.57,-145.23,6.0,,220,10,,10.0,29.749016,,,,,,,,,,,SCT,3000,,,,,,,VFR,,,,,,,,,,,,METAR,130.0
OOSA 021650Z 18005KT CAVOK 30/26 Q1010 NOSIG,OOSA,2023-06-02T16:50:00Z,17.03,54.1,30.0,26.0,180,5,,6.21,29.822834,,,,,,TRUE,,,,,CAVOK,,,,,,,,VFR,,,,,,,,,,,,METAR,20.0
OOMS 021650Z 07003KT CAVOK 37/18 Q1003 NOSIG,OOMS,2023-06-02T16:50:00Z,23.58,58.28,37.0,18.0,70,3,,6.21,29.616142,,,,,,TRUE,,,,,CAVOK,,,,,,,,VFR,,,,,,,,,,,,METAR,8.0
OODQ 021650Z AUTO 20021KT CAVOK ////// 30/24 Q1008 NOSIG RMK RH73? 0,OODQ,2023-06-02T16:50:00Z,19.52,57.65,30.0,24.0,200,21,,6.21,29.763779,,,TRUE,,,TRUE,,,,,CAVOK,,,,,,,,VFR,,,,,,,,,,,,METAR,116.0
OOAD 021650Z AUTO 29019KT 9000 // SCT033 OVC040 37/03 Q1008 NOSIG,OOAD,2023-06-02T16:50:00Z,22.5,57.37,37.0,3.0,290,19,,5.59,29.763779,,,TRUE,,,TRUE,,,,,SCT,3300,OVC,4000,,,,,VFR,,,,,,,,,,,,METAR,327.0
NSTU 021650Z 13011KT 10SM SCT018TCU BKN040 27/26 A2988 RMK TCU NW-NE SLP119 T02720256,NSTU,2023-06-02T16:50:00Z,-14.33,-170.72,27.2,25.6,130,11,,10.0,29.878937,1011.9,,,,,,,,,,SCT,1800,BKN,4000,,,,,VFR,,,,,,,,,,,,METAR,8.0
MUVR 021650Z VRB02KT 9000 BKN020 30/23 Q1008,MUVR,2023-06-02T16:50:00Z,23.03,-81.43,30.0,23.0,0,2,,5.59,29.763779,,,,,,,,,,,BKN,2000,,,,,,,MVFR,,,,,,,,,,,,METAR,65.0
MUSC 021650Z 07004KT 360V170 9000 BKN020 30/22 Q1009,MUSC,2023-06-02T16:50:00Z,22.5,-79.92,30.0,22.0,70,4,,5.59,29.793306,,,,,,,,,,,BKN,2000,,,,,,,MVFR,,,,,,,,,,,,METAR,97.0
MUHG 021650Z VRB03KT 9000 -RA FEW010 SCT030 BKN120 26/23 Q1009,MUHG,2023-06-02T16:50:00Z,20.78,-76.32,26.0,23.0,0,3,,5.59,29.793306,,,,,,,,,,-RA,FEW,1000,SCT,3000,BKN,12000,,,VFR,,,,,,,,,,,,METAR,100.0
MUHA 021650Z 23005KT 160V270 8000 VCSH FEW018CB BKN020 31/21 Q1008,MUHA,2023-06-02T16:50:00Z,22.98,-82.42,31.0,21.0,230,5,,4.97,29.763779,,,,,,,,,,VCSH,FEW,1800,BKN,2000,,,,,MVFR,,,,,,,,,,,,METAR,61.0
MUCU 021650Z 11008KT 8000 -RA SCT018CB BKN050 26/24 Q1009,MUCU,2023-06-02T16:50:00Z,19.97,-75.83,26.0,24.0,110,8,,4.97,29.793306,,,,,,,,,,-RA,SCT,1800,BKN,5000,,,,,MVFR,,,,,,,,,,,,METAR,70.0
MUCM 021650Z 13004KT 080V160 8000 -RA BKN015 24/23 Q1009,MUCM,2023-06-02T16:50:00Z,21.42,-77.85,24.0,23.0,130,4,,4.97,29.793306,,,,,,,,,,-RA,BKN,1500,,,,,,,MVFR,,,,,,,,,,,,METAR,125.0
MUCL 021650Z 22007KT 170V270 9999 FEW030 30/23 Q1008,MUCL,2023-06-02T16:50:00Z,21.63,-81.55,30.0,23.0,220,7,,6.21,29.763779,,,,,,,,,,,FEW,3000,,,,,,,VFR,,,,,,,,,,,,METAR,5.0
MUCC 021650Z 18006KT 140V220 9000 SCT020CB 28/23 Q1008,MUCC,2023-06-02T16:50:00Z,22.47,-78.33,28.0,23.0,180,6,,5.59,29.763779,,,,,,,,,,,SCT,2000,,,,,,,VFR,,,,,,,,,,,,METAR,7.0
MSSS 021650Z 12005KT 5000 HZ BKN027 28/23 Q1014 A2995,MSSS,2023-06-02T16:50:00Z,13.7,-89.12,28.0,23.0,120,5,,3.11,29.940945,,,,,,,,,,HZ,BKN,2700,,,,,,,MVFR,,,,,,,,,,,,METAR,611.0
MSSM 021650Z 23005KT 9999 SCT030 31/27 Q1009 A2981,MSSM,2023-06-02T16:50:00Z,13.43,-88.12,31.0,27.0,230,5,,6.21,29.793306,,,,,,,,,,,SCT,3000,,,,,,,VFR,,,,,,,,,,,,METAR,92.0
MSSA 021650Z 08002KT 9999 SCT027 31/22 Q1016 A3001,MSSA,2023-06-02T16:50:00Z,13.97,-89.53,31.0,22.0,80,2,,6.21,30.0,,,,,,,,,,,SCT,2700,,,,,,,VFR,,,,,,,,,,,,METAR,656.0
MSLU 021650Z 13004KT 9999 SCT030 31/25 Q1009 A2981,MSLU,2023-06-02T16:50:00Z,13.33,-87.88,31.0,25.0,130,4,,6.21,29.793306,,,,,,,,,,,SCT,3000,,,,,,,VFR,,,,,,,,,,,,METAR,5.0
MSLP 021650Z 24007KT 180V280 9999 FEW023 32/25 Q1009 A2981 NOSIG,MSLP,2023-06-02T16:50:00Z,13.43,-89.05,32.0,25.0,240,7,,6.21,29.793306,,,,,,TRUE,,,,,FEW,2300,,,,,,,VFR,,,,,,,,,,,,METAR,25.0
MSAC 021650Z 22003KT CAVOK 30/24 Q1008 A2978,MSAC,2023-06-02T16:50:00Z,13.57,-89.83,30.0,24.0,220,3,,6.21,29.763779,,,,,,,,,,,CAVOK,,,,,,,,VFR,,,,,,,,,,,,METAR,14.0
MMCL 021650Z 00000KT 8SM SCT010 OVC020 27/20 A2986 RMK 8/5// BINOVC,MMCL,2023-06-02T16:50:00Z,24.77,-107.47,27.0,20.0,0,0,,8.0,29.861221,,,,,,,,,,,SCT,1000,OVC,2000,,,,,MVFR,,,,,,,,,,,,METAR,35.0
LTFO 021650Z 07008KT 8000 -SHRA FEW020CB BKN028 21/17 Q1014,LTFO,2023-06-02T16:50:00Z,41.18,40.85,21.0,17.0,70,8,,4.97,29.940945,,,,,,,,,,-SHRA,FEW,2000,BKN,2800,,,,,MVFR,,,,,,,,,,,,METAR,5.0
LTFH 021650Z 10005KT 060V130 9999 FEW015 SCT130 20/17 Q1013 NOSIG,LTFH,2023-06-02T16:50:00Z,41.27,36.57,20.0,17.0,100,5,,6.21,29.911417,,,,,,TRUE,,,,,FEW,1500,SCT,13000,,,,,VFR,,,,,,,,,,,,METAR,7.0
LTFG 021650Z 24005KT 160V270 CAVOK 23/20 Q1006,LTFG,2023-06-02T16:50:00Z,36.3,32.3,23.0,20.0,240,5,,6.21,29.704725,,,,,,,,,,,CAVOK,,,,,,,,VFR,,,,,,,,,,,,METAR,26.0
LTFD 021650Z 27004KT 7000 -TSRA SCT020CB SCT030 19/18 Q1011,LTFD,2023-06-02T16:50:00Z,39.55,27.02,19.0,18.0,270,4,,4.35,29.852362,,,,,,,,,,-TSRA,SCT,2000,SCT,3000,,,,,MVFR,,,,,,,,,,,,METAR,15.0
LTFB 021650Z VRB02KT 9999 -SHRA SCT035 BKN100 20/20 Q1009,LTFB,2023-06-02T16:50:00Z,37.95,27.33,20.0,20.0,0,2,,6.21,29.793306,,,,,,,,,,-SHRA,SCT,3500,BKN,10000,,,,,VFR,,,,,,,,,,,,METAR,3.0
LTDA 021650Z 02005KT 9999 FEW040 30/12 Q1009 NOSIG,LTDA,2023-06-02T16:50:00Z,36.37,36.28,30.0,12.0,20,5,,6.21,29.793306,,,,,,TRUE,,,,,FEW,4000,,,,,,,VFR,,,,,,,,,,,,METAR,80.0
LTCW 021650Z 08004KT 9999 FEW040 BKN100 BKN180 15/07 Q1024,LTCW,2023-06-02T16:50:00Z,37.55,44.23,15.0,7.0,80,4,,6.21,30.236221,,,,,,,,,,,FEW,4000,BKN,10000,BKN,18000,,,VFR,,,,,,,,,,,,METAR,1852.0
LTCV 021650Z 21004KT 9999 FEW040 SCT100 24/10 Q1016,LTCV,2023-06-02T16:50:00Z,37.37,42.07,24.0,10.0,210,4,,6.21,30.0,,,,,,,,,,,FEW,4000,SCT,10000,,,,,VFR,,,,,,,,,,,,METAR,620.0
LTCT 021650Z 34005KT 290V030 9999 FEW025CB SCT040 BKN080 25/07 Q1016,LTCT,2023-06-02T16:50:00Z,39.98,43.87,25.0,7.0,340,5,,6.21,30.0,,,,,,,,,,,FEW,2500,SCT,4000,BKN,8000,,,VFR,,,,,,,,,,,,METAR,936.0
LTCR 021650Z 00000KT CAVOK 25/11 Q1015,LTCR,2023-06-02T16:50:00Z,37.22,40.63,25.0,11.0,0,0,,6.21,29.970472,,,,,,,,,,,CAVOK,,,,,,,,VFR,,,,,,,,,,,,METAR,529.0
LTCP 021650Z 11006KT CAVOK 24/08 Q1015,LTCP,2023-06-02T16:50:00Z,37.73,38.47,24.0,8.0,110,6,,6.21,29.970472,,,,,,,,,,,CAVOK,,,,,,,,VFR,,,,,,,,,,,,METAR,672.0
LTCN 021650Z 25004KT 9999 FEW040 SCT180 25/13 Q1013,LTCN,2023-06-02T16:50:00Z,37.53,36.95,25.0,13.0,250,4,,6.21,29.911417,,,,,,,,,,,FEW,4000,SCT,18000,,,,,VFR,,,,,,,,,,,,METAR,505.0
LTCI 021650Z 03005KT 350V060 9999 SCT040 BKN180 16/09 Q1025 NOSIG,LTCI,2023-06-02T16:50:00Z,38.47,43.33,16.0,9.0,30,5,,6.21,30.265747,,,,,,TRUE,,,,,SCT,4000,BKN,18000,,,,,VFR,,,,,,,,,,,,METAR,1654.0
LTCF 021650Z 20010KT 9999 FEW025CB SCT035 BKN070 14/08 Q1021 NOSIG,LTCF,2023-06-02T16:50:00Z,40.57,43.12,14.0,8.0,200,10,,6.21,30.147638,,,,,,TRUE,,,,,FEW,2500,SCT,3500,BKN,7000,,,VFR,,,,,,,,,,,,METAR,1794.0
LTCB 021650Z 02007KT 360V160 8000 SCT008 BKN033 19/18 Q1013 NOSIG,LTCB,2023-06-02T16:50:00Z,40.97,38.07,19.0,18.0,20,7,,4.97,29.911417,,,,,,TRUE,,,,,SCT,800,BKN,3300,,,,,MVFR,,,,,,,,,,,,METAR,5.0
LTCA 021650Z 10004KT 9999 FEW035 SCT100 22/11 Q1016 NOSIG,LTCA,2023-06-02T16:50:00Z,38.6,39.28,22.0,11.0,100,4,,6.21,30.0,,,,,,TRUE,,,,,FEW,3500,SCT,10000,,,,,VFR,,,,,,,,,,,,METAR,887.0
LTBY 021650Z 36004KT 340V050 9999 SCT035 BKN100 17/14 Q1012 RESHRA,LTBY,2023-06-02T16:50:00Z,39.82,30.52,17.0,14.0,360,4,,6.21,29.88189,,,,,,,,,,,SCT,3500,BKN,10000,,,,,VFR,,,,,,,,,,,,METAR,788.0
LTBQ 021650Z 07004KT 9999 SCT040 SCT100 21/14 Q1011 NOSIG,LTBQ,2023-06-02T16:50:00Z,40.73,30.07,21.0,14.0,70,4,,6.21,29.852362,,,,,,TRUE,,,,,SCT,4000,SCT,10000,,,,,VFR,,,,,,,,,,,,METAR,51.0
LTBH 021650Z 10004KT 9999 SCT035 BKN180 23/11 Q1010,LTBH,2023-06-02T16:50:00Z,40.13,26.42,23.0,11.0,100,4,,6.21,29.822834,,,,,,,,,,,SCT,3500,BKN,18000,,,,,VFR,,,,,,,,,,,,METAR,8.0
LTBF 021650Z 05004KT 9999 -SHRA SCT035 BKN100 18/18 Q1012 RETSRA NOSIG,LTBF,2023-06-02T16:50:00Z,39.62,27.92,18.0,18.0,50,4,,6.21,29.88189,,,,,,TRUE,,,,-SHRA,SCT,3500,BKN,10000,,,,,VFR,,,,,,,,,,,,METAR,95.0
LTBD 021650Z 25008KT 9999 -SHRA FEW010 BKN030 BKN080 20/18 Q1008,LTBD,2023-06-02T16:50:00Z,37.82,27.88,20.0,18.0,250,8,,6.21,29.763779,,,,,,,,,,-SHRA,FEW,1000,BKN,3000,BKN,8000,,,MVFR,,,,,,,,,,,,METAR,29.0
LTAY 021650Z 14004KT 9999 SCT035 BKN100 20/14 Q1011 NOSIG,LTAY,2023-06-02T16:50:00Z,37.78,29.7,20.0,14.0,140,4,,6.21,29.852362,,,,,,TRUE,,,,,SCT,3500,BKN,10000,,,,,VFR,,,,,,,,,,,,METAR,851.0
LTAR 021650Z 24009KT 9999 SCT030 BKN090 14/10 Q1019 RESHRA,LTAR,2023-06-02T16:50:00Z,39.8,36.9,14.0,10.0,240,9,,6.21,30.088583,,,,,,,,,,,SCT,3000,BKN,9000,,,,,VFR,,,,,,,,,,,,METAR,1601.0
LTAN 021650Z 21002KT 9999 SCT040 BKN100 19/13 Q1014 NOSIG,LTAN,2023-06-02T16:50:00Z,37.97,32.55,19.0,13.0,210,2,,6.21,29.940945,,,,,,TRUE,,,,,SCT,4000,BKN,10000,,,,,VFR,,,,,,,,,,,,METAR,1029.0
LTAL 021650Z 00000KT 9999 FEW025CB SCT035 BKN100 18/14 Q1014,LTAL,2023-06-02T16:50:00Z,41.32,33.8,18.0,14.0,0,0,,6.21,29.940945,,,,,,,,,,,FEW,2500,SCT,3500,BKN,10000,,,VFR,,,,,,,,,,,,METAR,1074.0
LTAE 021650Z 04003KT 9999 SCT040 SCT100 19/15 Q1013 RETSRA NOSIG RMK RWY21 05003KT,LTAE,2023-06-02T16:50:00Z,40.07,32.57,19.0,15.0,40,3,,6.21,29.911417,,,,,,TRUE,,,,,SCT,4000,SCT,10000,,,,,VFR,,,,,,,,,,,,METAR,836.0
LOXZ 021650Z 07008KT 020V090 9999 FEW060 SCT060CB SCT120 20/12 Q1015 RETS,LOXZ,2023-06-02T16:50:00Z,47.2,14.75,20.0,12.0,70,8,,6.21,29.970472,,,,,,,,,,,FEW,6000,SCT,6000,SCT,12000,,,VFR,,,,,,,,,,,,METAR,678.0
LIRU 021650Z 25007KT 210V280 CAVOK 25/15 Q1012,LIRU,2023-06-02T16:50:00Z,41.95,12.5,25.0,15.0,250,7,,6.21,29.88189,,,,,,,,,,,CAVOK,,,,,,,,VFR,,,,,,,,,,,,METAR,16.0
LIRI 021650Z 06004KT 9999 SCT040 21/16 Q1013 RETS,LIRI,2023-06-02T16:50:00Z,40.62,14.92,21.0,16.0,60,4,,6.21,29.911417,,,,,,,,,,,SCT,4000,,,,,,,VFR,,,,,,,,,,,,METAR,31.0
LIQN 021650Z VRB01KT 9999 VCSH FEW060CB 20/15 Q1014,LIQN,2023-06-02T16:50:00Z,42.42,12.83,20.0,15.0,0,1,,6.21,29.940945,,,,,,,,,,VCSH,FEW,6000,,,,,,,VFR,,,,,,,,,,,,METAR,387.0
LIPK 021650Z 17004KT 9999 FEW040 23/16 Q1011,LIPK,2023-06-02T16:50:00Z,44.2,12.07,23.0,16.0,170,4,,6.21,29.852362,,,,,,,,,,,FEW,4000,,,,,,,VFR,,,,,,,,,,,,METAR,24.0
LIPB 021650Z 18007KT 150V230 9999 SCT100 28/08 Q1010,LIPB,2023-06-02T16:50:00Z,46.47,11.32,28.0,8.0,180,7,,6.21,29.822834,,,,,,,,,,,SCT,10000,,,,,,,VFR,,,,,,,,,,,,METAR,239.0
LIMP 021650Z 22011KT 9999 VCTS SCT030CB 25/15 Q1011,LIMP,2023-06-02T16:50:00Z,44.82,10.3,25.0,15.0,220,11,,6.21,29.852362,,,,,,,,,,VCTS,SCT,3000,,,,,,,VFR,,,,,,,,,,,,METAR,41.0
LIMG 021650Z 04009KT CAVOK 23/17 Q1012,LIMG,2023-06-02T16:50:00Z,44.03,8.12,23.0,17.0,40,9,,6.21,29.88189,,,,,,,,,,,CAVOK,,,,,,,,VFR,,,,,,,,,,,,METAR,41.0
LIMA 021650Z 20005KT CAVOK 19/16 Q1011 RETSRA RETSGR,LIMA,2023-06-02T16:50:00Z,45.08,7.6,19.0,16.0,200,5,,6.21,29.852362,,,,,,,,,,TSGR,CAVOK,,,,,,,,VFR,,,,,,,,,,,,METAR,285.0
LICG 021650Z 01004KT 9999 FEW020 20/16 Q1014,LICG,2023-06-02T16:50:00Z,36.82,11.97,20.0,16.0,10,4,,6.21,29.940945,,,,,,,,,,,FEW,2000,,,,,,,VFR,,,,,,,,,,,,METAR,192.0
LIBG 021650Z 28003KT 240V340 CAVOK 22/19 Q1012,LIBG,2023-06-02T16:50:00Z,40.52,17.4,22.0,19.0,280,3,,6.21,29.88189,,,,,,,,,,,CAVOK,,,,,,,,VFR,,,,,,,,,,,,METAR,64.0
LIBC 021650Z 22009KT CAVOK 22/16 Q1012,LIBC,2023-06-02T16:50:00Z,39.0,17.07,22.0,16.0,220,9,,6.21,29.88189,,,,,,,,,,,CAVOK,,,,,,,,VFR,,,,,,,,,,,,METAR,158.0
LGZA 021650Z VRB03KT 9999 FEW020 26/12 Q1011,LGZA,2023-06-02T16:50:00Z,37.75,20.88,26.0,12.0,0,3,,6.21,29.852362,,,,,,,,,,,FEW,2000,,,,,,,VFR,,,,,,,,,,,,METAR,3.0
LGSM 021650Z 02006KT 9999 FEW018 SCT025 19/17 Q1009,LGSM,2023-06-02T16:50:00Z,37.68,26.92,19.0,17.0,20,6,,6.21,29.793306,,,,,,,,,,,FEW,1800,SCT,2500,,,,,VFR,,,,,,,,,,,,METAR,5.0
LGSK 021650Z 03004KT 9999 FEW025 22/16 Q1011,LGSK,2023-06-02T16:50:00Z,39.18,23.5,22.0,16.0,30,4,,6.21,29.852362,,,,,,,,,,,FEW,2500,,,,,,,VFR,,,,,,,,,,,,METAR,13.0
LGNX 021650Z 36005KT 9000 FEW006 SCT025 18/16 Q1010,LGNX,2023-06-02T16:50:00Z,37.08,25.37,18.0,16.0,360,5,,5.59,29.822834,,,,,,,,,,,FEW,600,SCT,2500,,,,,VFR,,,,,,,,,,,,METAR,3.0
LGKF 021650Z 32007KT CAVOK 24/15 Q1011,LGKF,2023-06-02T16:50:00Z,38.12,20.5,24.0,15.0,320,7,,6.21,29.852362,,,,,,,,,,,CAVOK,,,,,,,,VFR,,,,,,,,,,,,METAR,14.0
LGKC 021650Z 27005KT 9999 FEW025 19/17 Q1013,LGKC,2023-06-02T16:50:00Z,36.28,23.02,19.0,17.0,270,5,,6.21,29.911417,,,,,,,,,,,FEW,2500,,,,,,,VFR,,,,,,,,,,,,METAR,313.0
LGHI 021650Z 01006KT 9999 FEW010 SCT030 20/19 Q1009,LGHI,2023-06-02T16:50:00Z,38.33,26.13,20.0,19.0,10,6,,6.21,29.793306,,,,,,,,,,,FEW,1000,SCT,3000,,,,,VFR,,,,,,,,,,,,METAR,6.0
KSEE 021650Z VRB04KT 10SM BKN018 OVC027 17/12 A2999,KSEE,2023-06-02T16:50:00Z,32.82,-116.97,17.0,12.0,0,4,,10.0,29.991142,,,,,,,,,,,BKN,1800,OVC,2700,,,,,MVFR,,,,,,,,,,,,METAR,113.0
KRYY 021650Z VRB05KT 10SM BKN047 28/16 A2996 RMK AO2 SLP134 T02780156 $,KRYY,2023-06-02T16:50:00Z,34.02,-84.6,27.8,15.6,0,5,,10.0,29.958662,1013.4,,,TRUE,TRUE,,,,,,BKN,4700,,,,,,,VFR,,,,,,,,,,,,METAR,306.0
KOQU 021650Z 17015KT 10SM SKC 26/13 A2991,KOQU,2023-06-02T16:50:00Z,41.6,-71.42,26.0,13.0,170,15,,10.0,29.911417,,,,,,,,,,,SKC,,,,,,,,VFR,,,,,,,,,,,,METAR,6.0
KOMN 021650Z 36010G17KT 7SM BKN017 26/23 A2983,KOMN,2023-06-02T16:50:00Z,29.3,-81.12,26.0,23.0,360,10,17,7.0,29.828741,,,,,,,,,,,BKN,1700,,,,,,,MVFR,,,,,,,,,,,,METAR,7.0
KNQA 021650Z 05006KT 10SM FEW045 30/19 A2995,KNQA,2023-06-02T16:50:00Z,35.35,-89.87,30.0,19.0,50,6,,10.0,29.949802,,,,,,,,,,,FEW,4500,,,,,,,VFR,,,,,,,,,,,,METAR,90.0
KLAL 021650Z 12007KT 10SM SCT033 BKN055 29/20 A2980,KLAL,2023-06-02T16:50:00Z,27.98,-82.02,29.0,20.0,120,7,,10.0,29.799213,,,,,,,,,,,SCT,3300,BKN,5500,,,,,VFR,,,,,,,,,,,,METAR,39.0
KJWN 021650Z 00000KT 10SM CLR 30/16 A2995,KJWN,2023-06-02T16:50:00Z,36.18,-86.88,30.0,16.0,0,0,,10.0,29.949802,,,,,,,,,,,CLR,,,,,,,,VFR,,,,,,,,,,,,METAR,149.0
KJQF 021650Z 03009KT 10SM CLR 27/13 A2996,KJQF,2023-06-02T16:50:00Z,35.38,-80.72,27.0,13.0,30,9,,10.0,29.958662,,,,,,,,,,,CLR,,,,,,,,VFR,,,,,,,,,,,,METAR,204.0
KHXD 021650Z 03009KT 10SM FEW036 27/19 A2988,KHXD,2023-06-02T16:50:00Z,32.22,-80.7,27.0,19.0,30,9,,10.0,29.878937,,,,,,,,,,,FEW,3600,,,,,,,VFR,,,,,,,,,,,,METAR,5.0
KHQZ 021650Z 15006KT 10SM CLR 32/20 A2995,KHQZ,2023-06-02T16:50:00Z,32.75,-96.53,32.0,20.0,150,6,,10.0,29.949802,,,,,,,,,,,CLR,,,,,,,,VFR,,,,,,,,,,,,METAR,136.0
KHOB 021650Z 14005KT 10SM FEW021 SCT025 OVC040 23/17 A2996,KHOB,2023-06-02T16:50:00Z,32.67,-103.22,23.0,17.0,140,5,,10.0,29.958662,,,,,,,,,,,FEW,2100,SCT,2500,OVC,4000,,,VFR,,,,,,,,,,,,METAR,1112.0
KGYI 021650Z 16005KT 10SM CLR 32/18 A2997,KGYI,2023-06-02T16:50:00Z,33.72,-96.67,32.0,18.0,160,5,,10.0,29.970472,,,,,,,,,,,CLR,,,,,,,,VFR,,,,,,,,,,,,METAR,227.0
KGPM 021650Z 15007KT 10SM SCT038 SCT050 29/19 A2995,KGPM,2023-06-02T16:50:00Z,32.7,-97.05,29.0,19.0,150,7,,10.0,29.949802,,,,,,,,,,,SCT,3800,SCT,5000,,,,,VFR,,,,,,,,,,,,METAR,178.0
KFIN 021650Z 03010KT 10SM BKN021 BKN028 27/21 A2984,KFIN,2023-06-02T16:50:00Z,29.47,-81.2,27.0,21.0,30,10,,10.0,29.840551,,,,,,,,,,,BKN,2100,BKN,2800,,,,,MVFR,,,,,,,,,,,,METAR,10.0
KDAG 021650Z AUTO 31011KT 10SM CLR 24/06 A2992 RMK AO2 SLP111 T02390061,KDAG,2023-06-02T16:50:00Z,34.85,-116.78,23.9,6.1,310,11,,10.0,29.920275,1011.1,,TRUE,TRUE,,,,,,,CLR,,,,,,,,VFR,,,,,,,,,,,,METAR,584.0
KANE 021650Z 16009KT 10SM SCT050 BKN150 29/17 A3006,KANE,2023-06-02T16:50:00Z,45.15,-93.22,29.0,17.0,160,9,,10.0,30.059055,,,,,,,,,,,SCT,5000,BKN,15000,,,,,VFR,,,,,,,,,,,,METAR,276.0
KALN 021650Z 06008KT 10SM CLR 31/15 A3001,KALN,2023-06-02T16:50:00Z,38.88,-90.03,31.0,15.0,60,8,,10.0,30.008858,,,,,,,,,,,CLR,,,,,,,,VFR,,,,,,,,,,,,METAR,159.0
KAEG 021650Z 36004KT 10SM SCT110 22/M02 A3007,KAEG,2023-06-02T16:50:00Z,35.13,-106.8,22.0,-2.0,360,4,,10.0,30.070866,,,,,,,,,,,SCT,11000,,,,,,,VFR,,,,,,,,,,,,METAR,1771.0
KADM 021650Z 13007KT 10SM SCT044 31/19 A2994,KADM,2023-06-02T16:50:00Z,34.3,-97.02,31.0,19.0,130,7,,10.0,29.940945,,,,,,,,,,,SCT,4400,,,,,,,VFR,,,,,,,,,,,,METAR,223.0
ENOA 021650Z 01012KT CAVOK 10/06 Q1027 W///S3,ENOA,2023-06-02T16:50:00Z,60.5,2.83,10.0,6.0,10,12,,6.21,30.324802,,,,,,,,,,,CAVOK,,,,,,,,VFR,,,,,,,,,,,,METAR,5.0
EGYP 021650Z 03026KT 4000 3000NW -DZ BKN003 05/04 Q1000,EGYP,2023-06-02T16:50:00Z,-51.82,-58.45,5.0,4.0,30,26,,2.49,29.52756,,,,,,,,,,-DZ,BKN,300,,,,,,,LIFR,,,,,,,,,,,,METAR,70.0
EGYE 021650Z AUTO 04012KT //// ///////// ///// Q////,EGYE,2023-06-02T16:50:00Z,52.97,-0.57,,,40,12,,,,,,TRUE,,,,,,,,,,,,,,,,,,,,,,,,,,,,METAR,105.0
EGXC 021650Z 03011KT 9999 FEW028 14/06 Q1026 NOSIG RMK BLU BLU,EGXC,2023-06-02T16:50:00Z,53.1,-0.17,14.0,6.0,30,11,,6.21,30.295275,,,,,,TRUE,,,,,FEW,2800,,,,,,,VFR,,,,,,,,,,,,METAR,9.0
EGTC 021650Z 03013KT 9999 FEW031 14/07 Q1024,EGTC,2023-06-02T16:50:00Z,52.07,-0.62,14.0,7.0,30,13,,6.21,30.236221,,,,,,,,,,,FEW,3100,,,,,,,VFR,,,,,,,,,,,,METAR,110.0
EGQS 021650Z 08010KT 9999 FEW040 13/09 Q1027 RMK BLU,EGQS,2023-06-02T16:50:00Z,57.72,-3.32,13.0,9.0,80,10,,6.21,30.324802,,,,,,,,,,,FEW,4000,,,,,,,VFR,,,,,,,,,,,,METAR,6.0
EGQL 021650Z 10010KT 9999 SKC 13/07 Q1027 RMK BLU,EGQL,2023-06-02T16:50:00Z,56.38,-2.87,13.0,7.0,100,10,,6.21,30.324802,,,,,,,,,,,SKC,,,,,,,,VFR,,,,,,,,,,,,METAR,11.0
EGKA 021650Z 03014KT 010V070 CAVOK 17/08 Q1022,EGKA,2023-06-02T16:50:00Z,50.83,-0.3,17.0,8.0,30,14,,6.21,30.177166,,,,,,,,,,,CAVOK,,,,,,,,VFR,,,,,,,,,,,,METAR,2.0
EGHC 021650Z 02009KT 340V080 9999 FEW018 SCT020 15/11 Q1022,EGHC,2023-06-02T16:50:00Z,50.1,-5.67,15.0,11.0,20,9,,6.21,30.177166,,,,,,,,,,,FEW,1800,SCT,2000,,,,,VFR,,,,,,,,,,,,METAR,117.0
EEEI 021650Z 35007KT 310V020 9999 FEW019 SCT042 09/04 Q1017 TEMPO FEW040TCU,EEEI,2023-06-02T16:50:00Z,59.27,24.2,9.0,4.0,350,7,,6.21,30.029528,,,,,,,,,,,FEW,1900,SCT,4200,,,,,VFR,,,,,,,,,,,,METAR,19.0
BGSF 021650Z AUTO 18005KT 130V230 9999NDV SCT032/// BKN038/// BKN047/// 04/M05 Q1026,BGSF,2023-06-02T16:50:00Z,67.0,-50.72,4.0,-5.0,180,5,,,30.295275,,,TRUE,,,,,,,,SCT,3200,BKN,3800,BKN,4700,,,,,,,,,,,,,,,METAR,75.0
BGKK 021650Z 08009KT 4000 -SHRA BCFG BKN004 BKN007 02/01 Q1018,BGKK,2023-06-02T16:50:00Z,65.57,-37.13,2.0,1.0,80,9,,2.49,30.059055,,,,,,,,,,-SHRA BCFG,BKN,400,BKN,700,,,,,LIFR,,,,,,,,,,,,METAR,37.0
BGJN 021650Z 23010KT 9999 BKN009 BKN050 M00/M02 Q1025,BGJN,2023-06-02T16:50:00Z,69.25,-51.07,0.0,-2.0,230,10,,6.21,30.265747,,,,,,,,,,,BKN,900,BKN,5000,,,,,IFR,,,,,,,,,,,,METAR,22.0
BGGH 021650Z 01010KT 9999 BKN021 03/M02 Q1024,BGGH,2023-06-02T16:50:00Z,64.2,-51.68,3.0,-2.0,10,10,,6.21,30.236221,,,,,,,,,,,BKN,2100,,,,,,,MVFR,,,,,,,,,,,,METAR,76.0
BGBW 021650Z 24005KT 9999 FEW001 SCT003 BKN010 08/07 Q1018,BGBW,2023-06-02T16:50:00Z,61.17,-45.42,8.0,7.0,240,5,,6.21,30.059055,,,,,,,,,,,FEW,100,SCT,300,BKN,1000,,,MVFR,,,,,,,,,,,,METAR,49.0
MMTC 021648Z 11007KT 6SM BKN100 32/12 A2996 RMK 8/070 HZY ISOL CI,MMTC,2023-06-02T16:48:00Z,25.57,-103.4,32.0,12.0,110,7,,6.0,29.958662,,,,,,,,,,,BKN,10000,,,,,,,VFR,,,,,,,,,,,,SPECI,1128.0
MMCT 021648Z 00000KT 8SM SCT020 32/21 A2976 RMK 8/100 CI,MMCT,2023-06-02T16:48:00Z,20.63,-88.45,32.0,21.0,0,0,,8.0,29.760826,,,,,,,,,,,SCT,2000,,,,,,,VFR,,,,,,,,,,,,METAR,29.0
KJDN 021648Z AUTO 04010KT 18/16 A2992 RMK AO1 SLP120 T01830156,KJDN,2023-06-02T16:48:00Z,47.33,-106.95,18.3,15.6,40,10,,,29.920275,1012.0,,TRUE,TRUE,,,,,,,,,,,,,,,,,,,,,,,,,,,METAR,802.0
KASG 021648Z 16006KT 10SM CLR 29/19 A3003,KASG,2023-06-02T16:48:00Z,36.17,-94.12,29.0,19.0,160,6,,10.0,30.029528,,,,,,,,,,,CLR,,,,,,,,VFR,,,,,,,,,,,,METAR,410.0
MMLT 021647Z 00000KT 10SM FEW240 27/16 A2986 RMK 8/001,MMLT,2023-06-02T16:47:00Z,25.98,-111.33,27.0,16.0,0,0,,10.0,29.861221,,,,,,,,,,,FEW,24000,,,,,,,VFR,,,,,,,,,,,,METAR,4.0
KTOA 021647Z 26010KT 10SM FEW015 SCT025 21/12 A2999,KTOA,2023-06-02T16:47:00Z,33.8,-118.33,21.0,12.0,260,10,,10.0,29.991142,,,,,,,,,,,FEW,1500,SCT,2500,,,,,VFR,,,,,,,,,,,,METAR,30.0
KTIX 021647Z 07010KT 7SM SCT025 30/21 A2981,KTIX,2023-06-02T16:47:00Z,28.5,-80.8,30.0,21.0,70,10,,7.0,29.811024,,,,,,,,,,,SCT,2500,,,,,,,VFR,,,,,,,,,,,,METAR,10.0
KSQL 021647Z 00000KT 10SM CLR 15/09 A3002,KSQL,2023-06-02T16:47:00Z,37.52,-122.25,15.0,9.0,0,0,,10.0,30.02067,,,,,,,,,,,CLR,,,,,,,,VFR,,,,,,,,,,,,METAR,1.0
KRHV 021647Z 16008KT 10SM SKC 16/08 A3001,KRHV,2023-06-02T16:47:00Z,37.33,-121.82,16.0,8.0,160,8,,10.0,30.008858,,,,,,,,,,,SKC,,,,,,,,VFR,,,,,,,,,,,,METAR,37.0
KPOC 021647Z 25005KT 4SM BR OVC030 16/12 A3000,KPOC,2023-06-02T16:47:00Z,34.1,-117.77,16.0,12.0,250,5,,4.0,30.0,,,,,,,,,,BR,OVC,3000,,,,,,,MVFR,,,,,,,,,,,,METAR,304.0
KLBE 021647Z 36013KT 10SM CLR 30/13 A3003,KLBE,2023-06-02T16:47:00Z,40.27,-79.4,30.0,13.0,360,13,,10.0,30.029528,,,,,,,,,,,CLR,,,,,,,,VFR,,,,,,,,,,,,METAR,345.0
KIWA 021647Z VRB05KT 10SM FU CLR 27/04 A2993,KIWA,2023-06-02T16:47:00Z,33.3,-111.65,27.0,4.0,0,5,,10.0,29.929134,,,,,,,,,,FU,CLR,,,,,,,,VFR,,,,,,,,,,,,METAR,420.0
KIFP 021647Z 21008KT 10SM CLR 29/06 A2985,KIFP,2023-06-02T16:47:00Z,35.15,-114.57,29.0,6.0,210,8,,10.0,29.84941,,,,,,,,,,,CLR,,,,,,,,VFR,,,,,,,,,,,,METAR,210.0
KHUM 021647Z 08012G16KT 7SM SKC 29/18 A2992,KHUM,2023-06-02T16:47:00Z,29.57,-90.67,29.0,18.0,80,12,16,7.0,29.920275,,,,,,,,,,,SKC,,,,,,,,VFR,,,,,,,,,,,,METAR,1.0
KHSA 021647Z VRB06KT 10SM SCT045 BKN055 BKN065 30/18 A2990,KHSA,2023-06-02T16:47:00Z,30.37,-89.45,30.0,18.0,0,6,,10.0,29.899607,,,,,,,,,,,SCT,4500,BKN,5500,BKN,6500,,,VFR,,,,,,,,,,,,METAR,6.0
KGYR 021647Z 27007KT 10SM FEW100 FEW250 27/04 A2991,KGYR,2023-06-02T16:47:00Z,33.42,-112.37,27.0,4.0,270,7,,10.0,29.911417,,,,,,,,,,,FEW,10000,FEW,25000,,,,,VFR,,,,,,,,,,,,METAR,292.0
KGYH 021647Z 04008KT 10SM SCT045 27/16 A2995,KGYH,2023-06-02T16:47:00Z,34.75,-82.38,27.0,16.0,40,8,,10.0,29.949802,,,,,,,,,,,SCT,4500,,,,,,,VFR,,,,,,,,,,,,METAR,283.0
KFWS 021647Z 15008KT 10SM BKN037 30/19 A2995,KFWS,2023-06-02T16:47:00Z,32.57,-97.3,30.0,19.0,150,8,,10.0,29.949802,,,,,,,,,,,BKN,3700,,,,,,,VFR,,,,,,,,,,,,METAR,211.0
KFDK 021647Z 00000KT 10SM CLR 33/11 A2996,KFDK,2023-06-02T16:47:00Z,39.42,-77.37,33.0,11.0,0,0,,10.0,29.958662,,,,,,,,,,,CLR,,,,,,,,VFR,,,,,,,,,,,,METAR,82.0
KEVB 021647Z 02013G20KT 10SM BKN015 27/23 A2982,KEVB,2023-06-02T16:47:00Z,29.05,-80.95,27.0,23.0,20,13,20,10.0,29.819881,,,,,,,,,,,BKN,1500,,,,,,,MVFR,,,,,,,,,,,,METAR,2.0
KCWA 021647Z 09003KT 10SM CLR 28/18 A3014,KCWA,2023-06-02T16:47:00Z,44.78,-89.67,28.0,18.0,90,3,,10.0,30.138779,,,,,,,,,,,CLR,,,,,,,,VFR,,,,,,,,,,,,METAR,387.0
KCQT 021647Z AUTO 00000KT 10SM FEW027 OVC042 20/12 A2999 RMK AO2 SLP153 T02000117,KCQT,2023-06-02T16:47:00Z,34.02,-118.28,20.0,11.7,0,0,,10.0,29.991142,1015.3,,TRUE,TRUE,,,,,,,FEW,2700,OVC,4200,,,,,VFR,,,,,,,,,,,,METAR,51.0
KCHD 021647Z 00000KT 10SM CLR 28/03 A2991,KCHD,2023-06-02T16:47:00Z,33.27,-111.82,28.0,3.0,0,0,,10.0,29.911417,,,,,,,,,,,CLR,,,,,,,,VFR,,,,,,,,,,,,METAR,378.0
KCFO 021647Z 11006KT 10SM SKC 19/08 A2998,KCFO,2023-06-02T16:47:00Z,39.78,-104.55,19.0,8.0,110,6,,10.0,29.97933,,,,,,,,,,,SKC,,,,,,,,VFR,,,,,,,,,,,,METAR,1672.0
KADS 021647Z 14012KT 10SM SCT046 31/17 A2995,KADS,2023-06-02T16:47:00Z,32.97,-96.83,31.0,17.0,140,12,,10.0,29.949802,,,,,,,,,,,SCT,4600,,,,,,,VFR,,,,,,,,,,,,METAR,198.0
MMSM 021646Z 28006KT 190V360 6SM SKC 26/09 A3028 RMK HZY DSNT CU S AND W,MMSM,2023-06-02T16:46:00Z,19.75,-99.02,26.0,9.0,280,6,,6.0,30.280512,,,,,,,,,,,SKC,,,,,,,,VFR,,,,,,,,,,,,METAR,2250.0
MMPA 021646Z 09006KT 4SM BKN020 OVC070 29/25 A2986 RMK 8/27/ HZY LWR SC,MMPA,2023-06-02T16:46:00Z,20.6,-97.47,29.0,25.0,90,6,,4.0,29.861221,,,,,,,,,,,BKN,2000,OVC,7000,,,,,MVFR,,,,,,,,,,,,METAR,153.0
MMCM 021646Z 00000KT 6SM SCT020 SCT100 32/25 A2978 RMK 8/530,MMCM,2023-06-02T16:46:00Z,18.5,-88.33,32.0,25.0,0,0,,6.0,29.778543,,,,,,,,,,,SCT,2000,SCT,10000,,,,,VFR,,,,,,,,,,,,METAR,10.0
TJIG 021645Z 17013G18KT 10SM SCT035 BKN070 33/23 A2988,TJIG,2023-06-02T16:45:00Z,18.45,-66.1,33.0,23.0,170,13,18,10.0,29.878937,,,,,,,,,,,SCT,3500,BKN,7000,,,,,VFR,,,,,,,,,,,,METAR,3.0
PALP 021645Z 06012KT 10SM BKN012 M01/M04 A2968,PALP,2023-06-02T16:45:00Z,70.33,-150.93,-1.0,-4.0,60,12,,10.0,29.681103,,,,,,,,,,,BKN,1200,,,,,,,MVFR,,,,,,,,,,,,METAR,4.0
PAKU 021645Z 07015KT 10SM R06/P6000FT OVC011 M02/M03 A2966,PAKU,2023-06-02T16:45:00Z,70.32,-149.6,-2.0,-3.0,70,15,,10.0,29.660433,,,,,,,,,,,OVC,1100,,,,,,,MVFR,,,,,,,,,,,,METAR,23.0
MMSD 021645Z 35008KT 10SM BKN250 29/16 A2988 RMK 8/008,MMSD,2023-06-02T16:45:00Z,23.15,-109.72,29.0,16.0,350,8,,10.0,29.878937,,,,,,,,,,,BKN,25000,,,,,,,VFR,,,,,,,,,,,,METAR,107.0
MMPR 021645Z 24010KT 8SM SKC 29/20 A2983 RMK HZY,MMPR,2023-06-02T16:45:00Z,20.67,-105.25,29.0,20.0,240,10,,8.0,29.828741,,,,,,,,,,,SKC,,,,,,,,VFR,,,,,,,,,,,,METAR,6.0
MMMX 021645Z 11005KT 5SM SKC 26/09 A3029 NOSIG RMK HZY ISOL CU,MMMX,2023-06-02T16:45:00Z,19.43,-99.08,26.0,9.0,110,5,,5.0,30.28937,,,,,,TRUE,,,,,SKC,,,,,,,,MVFR,,,,,,,,,,,,METAR,2224.0
MMMD 021645Z 00000KT 7SM BKN020 32/21 A2981 RMK 8/100,MMMD,2023-06-02T16:45:00Z,20.95,-89.65,32.0,21.0,0,0,,7.0,29.811024,,,,,,,,,,,BKN,2000,,,,,,,MVFR,,,,,,,,,,,,METAR,10.0
MMCU 021645Z 03006KT 10SM SCT200 27/M01 A3005 RMK 8/008,MMCU,2023-06-02T16:45:00Z,28.7,-105.97,27.0,-1.0,30,6,,10.0,30.050198,,,,,,,,,,,SCT,20000,,,,,,,VFR,,,,,,,,,,,,METAR,1349.0
MMCE 021645Z 19004KT 6SM SCT015 BKN280 30/23 A2983 RMK 8/508 HZY,MMCE,2023-06-02T16:45:00Z,18.65,-91.8,30.0,23.0,190,4,,6.0,29.828741,,,,,,,,,,,SCT,1500,BKN,28000,,,,,VFR,,,,,,,,,,,,METAR,5.0
KTRK 021645Z 00000KT 10SM CLR 12/02 A3014,KTRK,2023-06-02T16:45:00Z,39.32,-120.13,12.0,2.0,0,0,,10.0,30.138779,,,,,,,,,,,CLR,,,,,,,,VFR,,,,,,,,,,,,METAR,1800.0
KMWC 021645Z 10006KT 10SM CLR 27/11 A3012,KMWC,2023-06-02T16:45:00Z,43.12,-88.03,27.0,11.0,100,6,,10.0,30.121063,,,,,,,,,,,CLR,,,,,,,,VFR,,,,,,,,,,,,METAR,225.0
KMWA 021645Z 09005KT 10SM SCT065 30/19 A2999,KMWA,2023-06-02T16:45:00Z,37.77,-89.02,30.0,19.0,90,5,,10.0,29.991142,,,,,,,,,,,SCT,6500,,,,,,,VFR,,,,,,,,,,,,METAR,142.0
KMMU 021645Z 09008KT 10SM SKC 33/14 A2990,KMMU,2023-06-02T16:45:00Z,40.78,-74.42,33.0,14.0,90,8,,10.0,29.899607,,,,,,,,,,,SKC,,,,,,,,VFR,,,,,,,,,,,,METAR,55.0
KJVL 021645Z 06004KT 10SM BKN250 31/15 A3008,KJVL,2023-06-02T16:45:00Z,42.62,-89.05,31.0,15.0,60,4,,10.0,30.079725,,,,,,,,,,,BKN,25000,,,,,,,VFR,,,,,,,,,,,,METAR,244.0
KCWF 021645Z 02006KT 10SM CLR 26/21 A2993,KCWF,2023-06-02T16:45:00Z,30.22,-93.15,26.0,21.0,20,6,,10.0,29.929134,,,,,,,,,,,CLR,,,,,,,,VFR,,,,,,,,,,,,METAR,4.0
KCGF 021645Z 03007KT 10SM CLR 28/16 A3006,KCGF,2023-06-02T16:45:00Z,41.57,-81.47,28.0,16.0,30,7,,10.0,30.059055,,,,,,,,,,,CLR,,,,,,,,VFR,,,,,,,,,,,,METAR,265.0
KBBG 021645Z 00000KT 10SM FEW045 SCT065 28/18 A3005,KBBG,2023-06-02T16:45:00Z,36.53,-93.2,28.0,18.0,0,0,,10.0,30.050198,,,,,,,,,,,FEW,4500,SCT,6500,,,,,VFR,,,,,,,,,,,,METAR,403.0
KATW 021645Z VRB04KT 10SM SCT120 29/16 A3011,KATW,2023-06-02T16:45:00Z,44.27,-88.52,29.0,16.0,0,4,,10.0,30.109253,,,,,,,,,,,SCT,12000,,,,,,,VFR,,,,,,,,,,,,METAR,266.0
MMVA 021644Z 03007KT 6SM FEW018 33/23 A2983 RMK 8/100 HZLYR OVR STN,MMVA,2023-06-02T16:44:00Z,18.0,-92.82,33.0,23.0,30,7,,6.0,29.828741,,,,,,,,,,,FEW,1800,,,,,,,VFR,,,,,,,,,,,,METAR,13.0
MMMA 021644Z 13011KT 10SM BKN018TCU BKN080 30/22 A2990 RMK 8/250,MMMA,2023-06-02T16:44:00Z,25.77,-97.52,30.0,22.0,130,11,,10.0,29.899607,,,,,,,,,,,BKN,1800,BKN,8000,,,,,MVFR,,,,,,,,,,,,METAR,7.0
MMEP 021644Z 00000KT 12SM SKC 26/13 A3001,MMEP,2023-06-02T16:44:00Z,21.42,-104.85,26.0,13.0,0,0,,12.0,30.008858,,,,,,,,,,,SKC,,,,,,,,VFR,,,,,,,,,,,,METAR,921.0
MMCB 021644Z 19005KT 5SM SKC 28/17 A3006 RMK CU N HZY,MMCB,2023-06-02T16:44:00Z,18.83,-99.27,28.0,17.0,190,5,,5.0,30.059055,,,,,,,,,,,SKC,,,,,,,,MVFR,,,,,,,,,,,,METAR,1281.0
MMZH 021643Z 24007KT 7SM SKC 31/23 A2982 RMK HZY,MMZH,2023-06-02T16:43:00Z,17.6,-101.47,31.0,23.0,240,7,,7.0,29.819881,,,,,,,,,,,SKC,,,,,,,,VFR,,,,,,,,,,,,METAR,9.0
MMSP 021643Z 12004KT 7SM SKC 24/12 A3018 RMK HZY,MMSP,2023-06-02T16:43:00Z,22.25,-100.93,24.0,12.0,120,4,,7.0,30.180119,,,,,,,,,,,SKC,,,,,,,,VFR,,,,,,,,,,,,SPECI,1841.0
MMQT 021643Z 32012KT 6SM SKC 27/08 A3024,MMQT,2023-06-02T16:43:00Z,20.62,-100.18,27.0,8.0,320,12,,6.0,30.239174,,,,,,,,,,,SKC,,,,,,,,VFR,,,,,,,,,,,,METAR,1909.0
MMPS 021643Z 24007KT 10SM SKC 32/26 A2984 RMK HZY,MMPS,2023-06-02T16:43:00Z,15.87,-97.08,32.0,26.0,240,7,,10.0,29.840551,,,,,,,,,,,SKC,,,,,,,,VFR,,,,,,,,,,,,METAR,65.0
RJOP 021642Z 35011KT 5000 BR FEW003 BKN025 20/19 Q1000 RMK 1ST003 7CU025 A2954,RJOP,2023-06-02T16:42:00Z,34.0,134.62,20.0,19.0,350,11,,3.11,29.52756,,,,,,,,,,BR,FEW,300,BKN,2500,,,,,MVFR,,,,,,,,,,,,METAR,3.0
MMUN 021642Z 27005KT 7SM BKN015 32/22 A2977 RMK 8/100,MMUN,2023-06-02T16:42:00Z,21.03,-86.85,32.0,22.0,270,5,,7.0,29.769686,,,,,,,,,,,BKN,1500,,,,,,,MVFR,,,,,,,,,,,,METAR,13.0
MMTO 021642Z 32009KT 5SM FEW020 22/08 A3038 RMK 8/100 HZY,MMTO,2023-06-02T16:42:00Z,19.35,-99.57,22.0,8.0,320,9,,5.0,30.380905,,,,,,,,,,,FEW,2000,,,,,,,MVFR,,,,,,,,,,,,METAR,2582.0
MMMV 021642Z 00000KT 8SM BKN060 29/20 A2990 RMK 8/200 HZY,MMMV,2023-06-02T16:42:00Z,26.95,-101.47,29.0,20.0,0,0,,8.0,29.899607,,,,,,,,,,,BKN,6000,,,,,,,VFR,,,,,,,,,,,,METAR,567.0
MMMM 021642Z 12002KT 7SM SKC 29/07 A3019 RMK HZY,MMMM,2023-06-02T16:42:00Z,19.85,-101.03,29.0,7.0,120,2,,7.0,30.188976,,,,,,,,,,,SKC,,,,,,,,VFR,,,,,,,,,,,,METAR,1840.0
MMBT 021642Z 26005KT 5SM BKN020 BKN200 33/24 A2987 RMK 8/106 HZY CU S,MMBT,2023-06-02T16:42:00Z,15.77,-96.27,33.0,24.0,260,5,,5.0,29.870079,,,,,,,,,,,BKN,2000,BKN,20000,,,,,MVFR,,,,,,,,,,,,METAR,137.0
MMAA 021642Z 22007KT 6SM SKC 32/25 A2981 RMK HZY ISOL CU,MMAA,2023-06-02T16:42:00Z,16.75,-99.75,32.0,25.0,220,7,,6.0,29.811024,,,,,,,,,,,SKC,,,,,,,,VFR,,,,,,,,,,,,METAR,5.0
MMTM 021641Z E11006KT 10SM SCT015 31/23 A2986 RMK 8/100,MMTM,2023-06-02T16:41:00Z,22.28,-97.87,31.0,23.0,110,6,,10.0,29.861221,,,,,,,,,,,SCT,1500,,,,,,,VFR,,,,,,,,,,,,METAR,21.0
MMPQ 021641Z 00000KT 6SM FEW200 32/23 A2971 RMK 8/008 HZY,MMPQ,2023-06-02T16:41:00Z,17.53,-92.02,32.0,23.0,0,0,,6.0,29.71063,,,,,,,,,,,FEW,20000,,,,,,,VFR,,,,,,,,,,,,METAR,48.0
MMMZ 021641Z 24008KT 15SM FEW010 29/21 A2985 RMK 8/100,MMMZ,2023-06-02T16:41:00Z,23.17,-106.27,29.0,21.0,240,8,,15.0,29.84941,,,,,,,,,,,FEW,1000,,,,,,,VFR,,,,,,,,,,,,METAR,7.0
MMZO 021640Z 24008KT 10SM SKC 28/23 A2984 RMK HZY,MMZO,2023-06-02T16:40:00Z,19.13,-104.57,28.0,23.0,240,8,,10.0,29.840551,,,,,,,,,,,SKC,,,,,,,,VFR,,,,,,,,,,,,SPECI,11.0
MMZC 021640Z E27005KT 10SM SKC 26/04 A3022,MMZC,2023-06-02T16:40:00Z,22.9,-102.68,26.0,4.0,270,5,,10.0,30.221457,,,,,,,,,,,SKC,,,,,,,,VFR,,,,,,,,,,,,METAR,2175.0
MMVR 021640Z 08008KT 5SM BKN015CB 29/25 A2985 RMK 8/300 HZY DSNT RA 3RD QUAD,MMVR,2023-06-02T16:40:00Z,19.15,-96.18,29.0,25.0,80,8,,5.0,29.84941,,,,,,,,,,,BKN,1500,,,,,,,MVFR,,,,,,,,,,,,METAR,26.0
MMTP 021640Z 25005KT 8SM SCT025TCU 32/26 A2983 RMK 8/200 HZY,MMTP,2023-06-02T16:40:00Z,14.78,-92.37,32.0,26.0,250,5,,8.0,29.828741,,,,,,,,,,,SCT,2500,,,,,,,VFR,,,,,,,,,,,,METAR,27.0
MMTG 021640Z 32003KT 8SM SCT040TCU 32/19 A2989 RMK 8/200,MMTG,2023-06-02T16:40:00Z,16.57,-93.03,32.0,19.0,320,3,,8.0,29.890747,,,,,,,,,,,SCT,4000,,,,,,,VFR,,,,,,,,,,,,METAR,463.0
MMSL 021640Z 20006KT 10SM BKN210 24/15 A2989 RMK 8/001,MMSL,2023-06-02T16:40:00Z,22.95,-109.93,24.0,15.0,200,6,,10.0,29.890747,,,,,,,,,,,BKN,21000,,,,,,,VFR,,,,,,,,,,,,METAR,205.0
MMRX 021640Z 14008KT 7SM SCT030 BKN080 31/21 A2989 RMK 8/530 HZY,MMRX,2023-06-02T16:40:00Z,26.02,-98.22,31.0,21.0,140,8,,7.0,29.890747,,,,,,,,,,,SCT,3000,BKN,8000,,,,,VFR,,,,,,,,,,,,METAR,45.0
MMPN 021640Z 18006KT 8SM SKC 27/14 A3014 RMK HZY,MMPN,2023-06-02T16:40:00Z,19.38,-102.03,27.0,14.0,180,6,,8.0,30.138779,,,,,,,,,,,SKC,,,,,,,,VFR,,,,,,,,,,,,METAR,1602.0
MMPG 021640Z 12010KT 8SM OVC018 27/23 A2990 RMK 8/5// HZY,MMPG,2023-06-02T16:40:00Z,28.62,-100.53,27.0,23.0,120,10,,8.0,29.899607,,,,,,,,,,,OVC,1800,,,,,,,MVFR,,,,,,,,,,,,METAR,224.0
MMPB 021640Z 00000KT 5SM SKC 24/11 A3029 RMK HZ,MMPB,2023-06-02T16:40:00Z,19.17,-98.37,24.0,11.0,0,0,,5.0,30.28937,,,,,,,,,,,SKC,,,,,,,,MVFR,,,,,,,,,,,,METAR,2250.0
MMOX 021640Z 20003KT 6SM FEW030 25/16 A3016 RMK 8/100 HZY,MMOX,2023-06-02T16:40:00Z,17.0,-96.72,25.0,16.0,200,3,,6.0,30.159449,,,,,,,,,,,FEW,3000,,,,,,,VFR,,,,,,,,,,,,METAR,1528.0
MMNL 021640Z 17010KT 8SM OVC030 29/22 A2989 RMK 8/5// BINOVC,MMNL,2023-06-02T16:40:00Z,27.43,-99.57,29.0,22.0,170,10,,8.0,29.890747,,,,,,,,,,,OVC,3000,,,,,,,MVFR,,,,,,,,,,,,METAR,146.0
MMMY 021640Z 12008KT 2SM BR OVC008 24/24 A2990 RMK 8/6// DZ INTMT,MMMY,2023-06-02T16:40:00Z,25.77,-100.1,24.0,24.0,120,8,,2.0,29.899607,,,,,,,,,,BR,OVC,800,,,,,,,IFR,,,,,,,,,,,,METAR,382.0
MMMT 021640Z 00000KT 4SM BKN025 BKN070 30/26 A2980 RMK 8/120 HZY,MMMT,2023-06-02T16:40:00Z,18.1,-94.57,30.0,26.0,0,0,,4.0,29.799213,,,,,,,,,,,BKN,2500,BKN,7000,,,,,MVFR,,,,,,,,,,,,METAR,15.0
MMLP 021640Z 33007KT 10SM FEW100 SCT200 25/05 A2989 RMK 8/088 HZY ISOL CU,MMLP,2023-06-02T16:40:00Z,24.07,-110.37,25.0,5.0,330,7,,10.0,29.890747,,,,,,,,,,,FEW,10000,SCT,20000,,,,,VFR,,,,,,,,,,,,METAR,16.0
MMLO 021640Z 18004KT 8SM SKC 28/06 A3023 RMK HZY,MMLO,2023-06-02T16:40:00Z,21.0,-101.47,28.0,6.0,180,4,,8.0,30.230314,,,,,,,,,,,SKC,,,,,,,,VFR,,,,,,,,,,,,METAR,1805.0
MMIA 021640Z 22006KT 6SM SKC 30/16 A2994 RMK HZY,MMIA,2023-06-02T16:40:00Z,19.27,-103.57,30.0,16.0,220,6,,6.0,29.940945,,,,,,,,,,,SKC,,,,,,,,VFR,,,,,,,,,,,,METAR,744.0
MMHO 021640Z 00000KT 10SM SKC 28/14 A2992 RMK HZY,MMHO,2023-06-02T16:40:00Z,29.08,-111.05,28.0,14.0,0,0,,10.0,29.920275,,,,,,,,,,,SKC,,,,,,,,VFR,,,,,,,,,,,,METAR,186.0
MMGM 021640Z 00000KT 10SM FEW025 28/22 A2984 RMK 8/100,MMGM,2023-06-02T16:40:00Z,27.95,-110.92,28.0,22.0,0,0,,10.0,29.840551,,,,,,,,,,,FEW,2500,,,,,,,VFR,,,,,,,,,,,,METAR,13.0
MMGL 021640Z 31005KT 7SM SKC 29/02 A3012 RMK HZY,MMGL,2023-06-02T16:40:00Z,20.52,-103.32,29.0,2.0,310,5,,7.0,30.121063,,,,,,,,,,,SKC,,,,,,,,VFR,,,,,,,,,,,,METAR,1531.0
MMDO 021640Z 12006KT 10SM FEW200 27/M05 A3019 RMK 8/004,MMDO,2023-06-02T16:40:00Z,24.12,-104.52,27.0,-5.0,120,6,,10.0,30.188976,,,,,,,,,,,FEW,20000,,,,,,,VFR,,,,,,,,,,,,METAR,1863.0
MMCZ 021640Z 14006KT 8SM SKC 31/25 A2977 RMK VC TCU,MMCZ,2023-06-02T16:40:00Z,20.52,-86.92,31.0,25.0,140,6,,8.0,29.769686,,,,,,,,,,,SKC,,,,,,,,VFR,,,,,,,,,,,,METAR,7.0
MMCS 021640Z 28011KT 10SM SKC 27/M02 A3000,MMCS,2023-06-02T16:40:00Z,31.63,-106.42,27.0,-2.0,280,11,,10.0,30.0,,,,,,,,,,,SKC,,,,,,,,VFR,,,,,,,,,,,,METAR,1194.0
MMCP 021640Z 32010KT 7SM FEW030 32/21 A2981 RMK 8/100,MMCP,2023-06-02T16:40:00Z,19.82,-90.5,32.0,21.0,320,10,,7.0,29.811024,,,,,,,,,,,FEW,3000,,,,,,,VFR,,,,,,,,,,,,METAR,9.0
MMCN 021640Z 23006KT 10SM FEW020 29/11 A2985 RMK 8/100 FULYR NW,MMCN,2023-06-02T16:40:00Z,27.4,-109.83,29.0,11.0,230,6,,10.0,29.84941,,,,,,,,,,,FEW,2000,,,,,,,VFR,,,,,,,,,,,,METAR,57.0
MMAN 021640Z 11007KT 4SM OVC008 26/23 A2993 RMK 8/5// HZY,MMAN,2023-06-02T16:40:00Z,25.87,-100.23,26.0,23.0,110,7,,4.0,29.929134,,,,,,,,,,,OVC,800,,,,,,,IFR,,,,,,,,,,,,METAR,447.0
KETH 021635Z AUTO 14010G16KT 10SM CLR 30/16 A2999 RMK AO2,KETH,2023-06-02T16:35:00Z,45.78,-96.55,30.0,16.0,140,10,16,10.0,29.991142,,,TRUE,TRUE,,,,,,,CLR,,,,,,,,VFR,,,,,,,,,,,,SPECI,309.0
