No errors
No warnings
132 ms
data source=metars
4913 results
raw_text,station_id,observation_time,latitude,longitude,temp_c,dewpoint_c,wind_dir_degrees,wind_speed_kt,wind_gust_kt,visibility_statute_mi,altim_in_hg,sea_level_pressure_mb,corrected,auto,auto_station,maintenance_indicator_on,no_signal,lightning_sensor_off,freezing_rain_sensor_off,present_weather_sensor_off,wx_string,sky_cover,cloud_base_ft_agl,sky_cover,cloud_base_ft_agl,sky_cover,cloud_base_ft_agl,sky_cover,cloud_base_ft_agl,flight_category,three_hr_pressure_tendency_mb,maxT_c,minT_c,maxT24hr_c,minT24hr_c,precip_in,pcp3hr_in,pcp6hr_in,pcp24hr_in,snow_in,vert_vis_ft,metar_type,elevation_m
KQFX 090340Z AUTO 18001KT 9999 CLR 27/13 A2966 RMK A02 TSNO,KQFX,2023-06-09T03:40:00Z,,,27.0,13.0,180,1,,6.21,29.660433,,,TRUE,TRUE,,,TRUE,,,,CLR,,,,,,,,VFR,,,,,,,,,,,,METAR,
KQFV 090340Z AUTO 22003KT 9999 FEW1100 25/11 A2972 RMK A02 TSNO,KQFV,2023-06-09T03:40:00Z,,,25.0,11.0,220,3,,6.21,29.719488,,,TRUE,TRUE,,,TRUE,,,,,,,,,,,,,,,,,,,,,,,,METAR,
KQFU 090340Z AUTO 15002KT 9999 FEW190 SCT210 25/13 A2971 RMK A02 TSNO,KQFU,2023-06-09T03:40:00Z,,,25.0,13.0,150,2,,6.21,29.71063,,,TRUE,TRUE,,,TRUE,,,,FEW,19000,SCT,21000,,,,,VFR,,,,,,,,,,,,METAR,
KQEW 090340Z AUTO 24002KT 9999 // SCT055 27/13 A2966 RMK A02 TSNO,KQEW,2023-06-09T03:40:00Z,,,27.0,13.0,240,2,,6.21,29.660433,,,TRUE,TRUE,,,TRUE,,,,SCT,5500,,,,,,,VFR,,,,,,,,,,,,METAR,
KQEQ 090340Z AUTO 24005KT 9999 FEW190 23/14 A2971 RMK A02 TSNO,KQEQ,2023-06-09T03:40:00Z,,,23.0,14.0,240,5,,6.21,29.71063,,,TRUE,TRUE,,,TRUE,,,,FEW,19000,,,,,,,VFR,,,,,,,,,,,,METAR,
KQEP 090340Z AUTO 25002KT 9999 CLR 27/12 A2969 RMK A02 TSNO,KQEP,2023-06-09T03:40:00Z,,,27.0,12.0,250,2,,6.21,29.68996,,,TRUE,TRUE,,,TRUE,,,,CLR,,,,,,,,VFR,,,,,,,,,,,,METAR,
KQEN 090340Z AUTO 24004KT 9999 FEW055 21/07 A2974 RMK A02 TSNO,KQEN,2023-06-09T03:40:00Z,,,21.0,7.0,240,4,,6.21,29.740158,,,TRUE,TRUE,,,TRUE,,,,FEW,5500,,,,,,,VFR,,,,,,,,,,,,METAR,
KQEI 090340Z AUTO 16001KT 9999 FEW045 25/11 A2967 RMK A02 TSNO,KQEI,2023-06-09T03:40:00Z,,,25.0,11.0,160,1,,6.21,29.66929,,,TRUE,TRUE,,,TRUE,,,,FEW,4500,,,,,,,VFR,,,,,,,,,,,,METAR,
KMTK 090340Z AUTO 30013KT 10SM CLR 28/22 A2984 RMK A01,KMTK,2023-06-09T03:40:00Z,,,28.0,22.0,300,13,,10.0,29.840551,,,TRUE,TRUE,,,,,,,CLR,,,,,,,,VFR,,,,,,,,,,,,METAR,
KIKT 090340Z AUTO 23009KT 10SM CLR 27/24 A2983 RMK A01,KIKT,2023-06-09T03:40:00Z,28.52,-88.28,27.0,24.0,230,9,,10.0,29.828741,,,TRUE,TRUE,,,,,,,CLR,,,,,,,,VFR,,,,,,,,,,,,METAR,36.0
KIER 090340Z AUTO 00000KT 10SM SCT070 24/23 A2983 RMK AO2 T02350225,KIER,2023-06-09T03:40:00Z,31.73,-93.1,23.5,22.5,0,0,,10.0,29.828741,,,TRUE,TRUE,,,,,,,SCT,7000,,,,,,,VFR,,,,,,,,,,,,SPECI,35.0
KHRF 090340Z AUTO 06004KT 10SM FEW045 BKN060 OVC070 15/14 A2998 RMK AO2,KHRF,2023-06-09T03:40:00Z,46.25,-114.13,15.0,14.0,60,4,,10.0,29.97933,,,TRUE,TRUE,,,,,,,FEW,4500,BKN,6000,OVC,7000,,,VFR,,,,,,,,,,,,METAR,1112.0
KGUL 090340Z AUTO 00000KT 10SM 28/22 A2987 RMK A01,KGUL,2023-06-09T03:40:00Z,27.3,-93.53,28.0,22.0,0,0,,10.0,29.870079,,,TRUE,TRUE,,,,,,,,,,,,,,,,,,,,,,,,,,,METAR,20.0
KATP 090340Z AUTO 29010KT 7SM FEW019 28/23 A2987 RMK A01,KATP,2023-06-09T03:40:00Z,27.2,-90.03,28.0,23.0,290,10,,7.0,29.870079,,,TRUE,TRUE,,,,,,,FEW,1900,,,,,,,VFR,,,,,,,,,,,,SPECI,50.0
CYBC 090340Z AUTO 06006KT 5SM -RA BR OVC016 10/09 A2989 RMK PCPN 0.8MM PAST HR RVR MISG SLP125,CYBC,2023-06-09T03:40:00Z,49.13,-68.2,10.0,9.0,60,6,,5.0,29.890747,1012.5,,TRUE,,,,,,,-RA BR,OVC,1600,,,,,,,MVFR,,,,,,,,,,,,SPECI,20.0
CYYR 090339Z 04011G16KT 15SM BKN009 BKN031 04/02 A3008 RMK SF5SC2 DENSITY ALT -1196FT SLP190,CYYR,2023-06-09T03:39:00Z,53.32,-60.42,4.0,2.0,40,11,16,15.0,30.079725,1019.0,,,,,,,,,,BKN,900,BKN,3100,,,,,IFR,,,,,,,,,,,,SPECI,42.0
KSAW 090338Z AUTO 36003KT 10SM CLR 08/01 A2995 RMK AO2 T00820007,KSAW,2023-06-09T03:38:00Z,46.35,-87.4,8.2,0.7,360,3,,10.0,29.949802,,,TRUE,TRUE,,,,,,,CLR,,,,,,,,VFR,,,,,,,,,,,,METAR,359.0
CYDF 090338Z 05009KT 15SM BKN012 OVC060 04/04 A2991 RMK SC6SC2 SLP130,CYDF,2023-06-09T03:38:00Z,49.22,-57.4,4.0,4.0,50,9,,15.0,29.911417,1013.0,,,,,,,,,,BKN,1200,OVC,6000,,,,,MVFR,,,,,,,,,,,,SPECI,15.0
KSAN 090337Z 31006KT 10SM BKN016 BKN250 17/13 A3005 RMK AO2 T01720133 $,KSAN,2023-06-09T03:37:00Z,32.73,-117.18,17.2,13.3,310,6,,10.0,30.050198,,,,TRUE,TRUE,,,,,,BKN,1600,BKN,25000,,,,,MVFR,,,,,,,,,,,,METAR,3.0
KBHB 090337Z AUTO 09004KT 1/4SM FG OVC001 09/09 A2977 RMK AO2 RVRNO,KBHB,2023-06-09T03:37:00Z,44.45,-68.37,9.0,9.0,90,4,,0.25,29.769686,,,TRUE,TRUE,,,,,,FG,OVC,100,,,,,,,LIFR,,,,,,,,,,,,SPECI,21.0
KBBB 090337Z AUTO 16003KT 10SM CLR 19/13 A2991 RMK AO2,KBBB,2023-06-09T03:37:00Z,45.32,-95.65,19.0,13.0,160,3,,10.0,29.911417,,,TRUE,TRUE,,,,,,,CLR,,,,,,,,VFR,,,,,,,,,,,,METAR,315.0
KADC 090337Z AUTO 09005KT 10SM CLR 19/10 A2992 RMK AO2 PWINO TSNO,KADC,2023-06-09T03:37:00Z,46.45,-95.22,19.0,10.0,90,5,,10.0,29.920275,,,TRUE,TRUE,,,TRUE,,TRUE,,CLR,,,,,,,,VFR,,,,,,,,,,,,METAR,416.0
CYCY 090337Z AUTO 10008KT 5SM -SN SCT004 BKN009 BKN014 OVC020 M01/M01 A2973 RMK SLP073,CYCY,2023-06-09T03:37:00Z,70.48,-68.52,-1.0,-1.0,100,8,,5.0,29.731298,1007.3,,TRUE,,,,,,,-SN,SCT,400,BKN,900,BKN,1400,OVC,2000,IFR,,,,,,,,,,,,SPECI,73.0
RCSS 090336Z 32007KT 260V350 9999 -SHRA FEW012 FEW020TCU BKN028 BKN080 31/26 Q1004 WS R28 NOSIG RMK 31008KT/R10 TCU SE-S A2967,RCSS,2023-06-09T03:36:00Z,25.07,121.55,31.0,26.0,320,7,,6.21,29.64567,,,,,,TRUE,,,,-SHRA,FEW,1200,FEW,2000,BKN,2800,BKN,8000,MVFR,,,,,,,,,,,,SPECI,8.0
KSKA 090336Z 35005KT 10SM OVC100 17/16 A2991 RMK AO2A RAB25E36 SLP115 $,KSKA,2023-06-09T03:36:00Z,47.62,-117.67,17.0,16.0,350,5,,10.0,29.911417,1011.5,,,TRUE,TRUE,,,,,,OVC,10000,,,,,,,VFR,,,,,,,,,,,,SPECI,754.0
KRKD 090336Z AUTO 11006KT 1/2SM FG OVC003 10/10 A2976 RMK AO2,KRKD,2023-06-09T03:36:00Z,44.07,-69.1,10.0,10.0,110,6,,0.5,29.760826,,,TRUE,TRUE,,,,,,FG,OVC,300,,,,,,,LIFR,,,,,,,,,,,,SPECI,15.0
KMPV 090336Z AUTO 00000KT 10SM SCT002 BKN023 OVC030 11/09 A2977 RMK AO2 T01060089,KMPV,2023-06-09T03:36:00Z,44.2,-72.57,10.6,8.9,0,0,,10.0,29.769686,,,TRUE,TRUE,,,,,,,SCT,200,BKN,2300,OVC,3000,,,MVFR,,,,,,,,,,,,SPECI,336.0
KI69 090336Z AUTO 24004KT 10SM OVC085 15/07 A2987 RMK AO1 T01500068,KI69,2023-06-09T03:36:00Z,39.08,-84.22,15.0,6.8,240,4,,10.0,29.870079,,,TRUE,TRUE,,,,,,,OVC,8500,,,,,,,VFR,,,,,,,,,,,,SPECI,238.0
KCQM 090336Z AUTO 00000KT 10SM SCT070 16/04 A2994 RMK AO2,KCQM,2023-06-09T03:36:00Z,47.82,-92.68,16.0,4.0,0,0,,10.0,29.940945,,,TRUE,TRUE,,,,,,,SCT,7000,,,,,,,VFR,,,,,,,,,,,,SPECI,406.0
KCKC 090336Z AUTO 00000KT 10SM CLR 09/M01 A2996 RMK AO2,KCKC,2023-06-09T03:36:00Z,47.83,-90.38,9.0,-1.0,0,0,,10.0,29.958662,,,TRUE,TRUE,,,,,,,CLR,,,,,,,,VFR,,,,,,,,,,,,SPECI,544.0
EKYT 090336Z AUTO 00000KT 7000 VV004 07/07 Q1019,EKYT,2023-06-09T03:36:00Z,57.1,9.87,7.0,7.0,0,0,,4.35,30.088583,,,TRUE,,,,,,,,OVX,0,,,,,,,LIFR,,,,,,,,,,,400,SPECI,2.0
CZBF 090336Z AUTO 01003KT 320V040 5/8SM -RA BR OVC002 07/07 A2988 RMK SLP123,CZBF,2023-06-09T03:36:00Z,47.62,-65.75,7.0,7.0,10,3,,0.63,29.878937,1012.3,,TRUE,,,,,,,-RA BR,OVC,200,,,,,,,LIFR,,,,,,,,,,,,METAR,60.0
CYSC 090336Z AUTO 06003KT 360V080 9SM FEW006 SCT034 BKN044 OVC100 11/10 A2974 RMK SLP076,CYSC,2023-06-09T03:36:00Z,45.43,-71.68,11.0,10.0,60,3,,9.0,29.740158,1007.6,,TRUE,,,,,,,,FEW,600,SCT,3400,BKN,4400,OVC,10000,VFR,,,,,,,,,,,,SPECI,236.0
CYMH 090336Z AUTO 01010G16KT 340V040 2SM -RA BR OVC007 02/02 A3005 RMK PCPN 1.0MM PAST HR SLP179,CYMH,2023-06-09T03:36:00Z,52.3,-55.82,2.0,2.0,10,10,16,2.0,30.050198,1017.9,,TRUE,,,,,,,-RA BR,OVC,700,,,,,,,IFR,,,,,,,,,,,,METAR,18.0
TJPS 090335Z AUTO 00000KT 10SM 26/23 A3006 RMK AO2 TSNO,TJPS,2023-06-09T03:35:00Z,18.02,-66.57,26.0,23.0,0,0,,10.0,30.059055,,,TRUE,TRUE,,,TRUE,,,,,,,,,,,,,,,,,,,,,,,,METAR,12.0
SBFN 090335Z AUTO 12014KT 080V140 9999 FEW010 SCT017 BKN040 26/24 Q1015,SBFN,2023-06-09T03:35:00Z,-3.85,-32.42,26.0,24.0,120,14,,6.21,29.970472,,,TRUE,,,,,,,,FEW,1000,SCT,1700,BKN,4000,,,VFR,,,,,,,,,,,,SPECI,52.0
PAKX 090335Z AUTO 07005G17KT 10SM OVC060 16/05 A2956 RMK AO2,PAKX,2023-06-09T03:35:00Z,60.2,-154.32,16.0,5.0,70,5,17,10.0,29.56004,,,TRUE,TRUE,,,,,,,OVC,6000,,,,,,,VFR,,,,,,,,,,,,METAR,88.0
PAAD 090335Z 07017KT 10SM OVC003 M01/M01 A2995 RMK AO2 T10111015 PWINO,PAAD,2023-06-09T03:35:00Z,70.13,-146.28,-1.1,-1.5,70,17,,10.0,29.949802,,,,TRUE,,,,,TRUE,,OVC,300,,,,,,,LIFR,,,,,,,,,,,,SPECI,8.0
KZPH 090335Z AUTO 26004KT 10SM CLR 24/21 A2985 RMK A02 T02410213,KZPH,2023-06-09T03:35:00Z,28.23,-82.15,24.1,21.3,260,4,,10.0,29.84941,,,TRUE,TRUE,,,,,,,CLR,,,,,,,,VFR,,,,,,,,,,,,SPECI,26.0
KY70 090335Z AUTO 05004KT 10SM CLR 15/05 A2989 RMK AO2 T01540047,KY70,2023-06-09T03:35:00Z,42.93,-85.07,15.4,4.7,50,4,,10.0,29.890747,,,TRUE,TRUE,,,,,,,CLR,,,,,,,,VFR,,,,,,,,,,,,METAR,247.0
KY63 090335Z AUTO 13005KT 10SM CLR 21/13 A2990 RMK AO2 T02100126,KY63,2023-06-09T03:35:00Z,45.98,-96.0,21.0,12.6,130,5,,10.0,29.899607,,,TRUE,TRUE,,,,,,,CLR,,,,,,,,VFR,,,,,,,,,,,,METAR,367.0
KY51 090335Z AUTO 00000KT 10SM CLR 18/03 A2995 RMK AO1 T01820026,KY51,2023-06-09T03:35:00Z,43.58,-90.9,18.2,2.6,0,0,,10.0,29.949802,,,TRUE,TRUE,,,,,,,CLR,,,,,,,,VFR,,,,,,,,,,,,METAR,390.0
KY49 090335Z AUTO 00000KT 10SM CLR 18/12 A2993 RMK AO2 T01770115,KY49,2023-06-09T03:35:00Z,47.15,-94.65,17.7,11.5,0,0,,10.0,29.929134,,,TRUE,TRUE,,,,,,,CLR,,,,,,,,VFR,,,,,,,,,,,,METAR,413.0
KY31 090335Z AUTO 00000KT 10SM OVC080 11/07 A2990 RMK AO2 T01050072,KY31,2023-06-09T03:35:00Z,44.25,-84.18,10.5,7.2,0,0,,10.0,29.899607,,,TRUE,TRUE,,,,,,,OVC,8000,,,,,,,VFR,,,,,,,,,,,,METAR,264.0
KY23 090335Z AUTO 00000KT 10SM CLR 14/09 A2995 RMK AO2 T01400087,KY23,2023-06-09T03:35:00Z,45.3,-91.63,14.0,8.7,0,0,,10.0,29.949802,,,TRUE,TRUE,,,,,,,CLR,,,,,,,,VFR,,,,,,,,,,,,METAR,322.0
KY19 090335Z AUTO 02007KT 10SM BKN120 20/19 A2989 RMK AO2,KY19,2023-06-09T03:35:00Z,46.77,-100.9,20.0,19.0,20,7,,10.0,29.890747,,,TRUE,TRUE,,,,,,,BKN,12000,,,,,,,VFR,,,,,,,,,,,,METAR,591.0
KXSA 090335Z AUTO 22004KT 7SM TSRA SCT070 BKN085 OVC120 16/16 A2980 RMK AO2 T01590158,KXSA,2023-06-09T03:35:00Z,37.87,-76.9,15.9,15.8,220,4,,7.0,29.799213,,,TRUE,TRUE,,,,,,TSRA,SCT,7000,BKN,8500,OVC,12000,,,VFR,,,,,,,,,,,,METAR,41.0
KXNX 090335Z AUTO 00000KT 10SM FEW041 SCT050 BKN060 16/12 A2987 RMK A01,KXNX,2023-06-09T03:35:00Z,36.38,-86.42,16.0,12.0,0,0,,10.0,29.870079,,,TRUE,TRUE,,,,,,,FEW,4100,SCT,5000,BKN,6000,,,VFR,,,,,,,,,,,,METAR,178.0
KX60 090335Z AUTO 00000KT 10SM CLR 22/21 A2982 RMK AO2 T02240209,KX60,2023-06-09T03:35:00Z,29.35,-82.47,22.4,20.9,0,0,,10.0,29.819881,,,TRUE,TRUE,,,,,,,CLR,,,,,,,,VFR,,,,,,,,,,,,METAR,21.0
KX07 090335Z AUTO 00000KT 10SM CLR 23/22 A2984 RMK A01,KX07,2023-06-09T03:35:00Z,27.9,-81.62,23.0,22.0,0,0,,10.0,29.840551,,,TRUE,TRUE,,,,,,,CLR,,,,,,,,VFR,,,,,,,,,,,,METAR,36.0
KWYS 090335Z AUTO 21009KT 10SM SCT070 BKN080 14/10 A3009 RMK AO2,KWYS,2023-06-09T03:35:00Z,44.68,-111.12,14.0,10.0,210,9,,10.0,30.088583,,,TRUE,TRUE,,,,,,,SCT,7000,BKN,8000,,,,,VFR,,,,,,,,,,,,METAR,2025.0
KWWR 090335Z AUTO 14003KT 10SM CLR 21/16 A2992 RMK AO2,KWWR,2023-06-09T03:35:00Z,36.45,-99.52,21.0,16.0,140,3,,10.0,29.920275,,,TRUE,TRUE,,,,,,,CLR,,,,,,,,VFR,,,,,,,,,,,,SPECI,664.0
KWDG 090335Z AUTO 00000KT 10SM 22/20 A2982 RMK AO2,KWDG,2023-06-09T03:35:00Z,36.37,-97.78,22.0,20.0,0,0,,10.0,29.819881,,,TRUE,TRUE,,,,,,,,,,,,,,,,,,,,,,,,,,,SPECI,352.0
KW96 090335Z AUTO 00000KT 5SM OVC039 13/12 A2978 RMK AO1 T01260124,KW96,2023-06-09T03:35:00Z,37.5,-77.12,12.6,12.4,0,0,,5.0,29.778543,,,TRUE,TRUE,,,,,,,OVC,3900,,,,,,,MVFR,,,,,,,,,,,,METAR,35.0
KW81 090335Z AUTO 00000KT 5SM SCT100 13/12 A2979 RMK AO1 T01310117,KW81,2023-06-09T03:35:00Z,37.18,-78.1,13.1,11.7,0,0,,5.0,29.790354,,,TRUE,TRUE,,,,,,,SCT,10000,,,,,,,MVFR,,,,,,,,,,,,METAR,121.0
KW78 090335Z AUTO 00000KT 10SM SCT110 13/11 A2981 RMK AO1 T01320108,KW78,2023-06-09T03:35:00Z,36.7,-78.85,13.2,10.8,0,0,,10.0,29.811024,,,TRUE,TRUE,,,,,,,SCT,11000,,,,,,,VFR,,,,,,,,,,,,METAR,120.0
KW75 090335Z AUTO 19003KT 7SM OVC048 14/13 A2978 RMK AO1 T01400131,KW75,2023-06-09T03:35:00Z,37.6,-76.45,14.0,13.1,190,3,,7.0,29.778543,,,TRUE,TRUE,,,,,,,OVC,4800,,,,,,,VFR,,,,,,,,,,,,SPECI,8.0
KW63 090335Z AUTO 00000KT 7SM CLR 13/13 A2980 RMK AO1,KW63,2023-06-09T03:35:00Z,36.6,-78.55,13.0,13.0,0,0,,7.0,29.799213,,,TRUE,TRUE,,,,,,,CLR,,,,,,,,VFR,,,,,,,,,,,,SPECI,126.0
KW31 090335Z AUTO 00000KT 10SM SCT100 16/13 A2980 RMK AO1 T01630134,KW31,2023-06-09T03:35:00Z,36.95,-78.18,16.3,13.4,0,0,,10.0,29.799213,,,TRUE,TRUE,,,,,,,SCT,10000,,,,,,,VFR,,,,,,,,,,,,METAR,159.0
KW13 090335Z AUTO 00000KT 10SM SCT120 12/04 A2985 RMK AO1 T01210043,KW13,2023-06-09T03:35:00Z,38.08,-78.95,12.1,4.3,0,0,,10.0,29.84941,,,TRUE,TRUE,,,,,,,SCT,12000,,,,,,,VFR,,,,,,,,,,,,SPECI,440.0
KVWU 090335Z AUTO 00000KT 10SM CLR 19/12 A2992 RMK AO2,KVWU,2023-06-09T03:35:00Z,48.15,-94.52,19.0,12.0,0,0,,10.0,29.920275,,,TRUE,TRUE,,,,,,,CLR,,,,,,,,VFR,,,,,,,,,,,,METAR,359.0
KVTP 090335Z AUTO 27005KT 10SM CLR 10/M06 A3034 RMK AO2,KVTP,2023-06-09T03:35:00Z,37.5,-105.17,10.0,-6.0,270,5,,10.0,30.339567,,,TRUE,TRUE,,,,,,,CLR,,,,,,,,VFR,,,,,,,,,,,,METAR,3086.0
KVTI 090335Z AUTO 00000KT 10SM CLR 18/07 A2993 RMK AO2 T01750069,KVTI,2023-06-09T03:35:00Z,42.22,-92.02,17.5,6.9,0,0,,10.0,29.929134,,,TRUE,TRUE,,,,,,,CLR,,,,,,,,VFR,,,,,,,,,,,,METAR,256.0
KVQQ 090335Z AUTO 21005KT 10SM CLR 24/21 A2979 RMK AO2,KVQQ,2023-06-09T03:35:00Z,30.22,-81.88,24.0,21.0,210,5,,10.0,29.790354,,,TRUE,TRUE,,,,,,,CLR,,,,,,,,VFR,,,,,,,,,,,,METAR,21.0
KVOA 090335Z AUTO 23013KT 10SM CLR 29/24 A2983 RMK A01,KVOA,2023-06-09T03:35:00Z,29.23,-87.78,29.0,24.0,230,13,,10.0,29.828741,,,TRUE,TRUE,,,,,,,CLR,,,,,,,,VFR,,,,,,,,,,,,METAR,53.0
KVNW 090335Z AUTO 32006KT 10SM CLR 17/03 A2988 RMK AO2,KVNW,2023-06-09T03:35:00Z,40.87,-84.62,17.0,3.0,320,6,,10.0,29.878937,,,TRUE,TRUE,,,,,,,CLR,,,,,,,,VFR,,,,,,,,,,,,METAR,238.0
KVNC 090335Z AUTO 24005KT 10SM CLR 27/24 A2985 RMK AO2,KVNC,2023-06-09T03:35:00Z,27.07,-82.43,27.0,24.0,240,5,,10.0,29.84941,,,TRUE,TRUE,,,,,,,CLR,,,,,,,,VFR,,,,,,,,,,,,METAR,4.0
KVLL 090335Z AUTO 04004KT 10SM OVC095 16/08 A2990 RMK AO2 T01620075,KVLL,2023-06-09T03:35:00Z,42.55,-83.18,16.2,7.5,40,4,,10.0,29.899607,,,TRUE,TRUE,,,,,,,OVC,9500,,,,,,,VFR,,,,,,,,,,,,METAR,214.0
KVKY 090335Z AUTO 27011KT 10SM CLR A2984 RMK A01,KVKY,2023-06-09T03:35:00Z,29.25,-88.43,,,270,11,,10.0,29.840551,,,TRUE,TRUE,,,,,,,CLR,,,,,,,,VFR,,,,,,,,,,,,METAR,32.0
KVHN 090335Z AUTO 30005KT 10SM CLR 24/06 A3001 RMK AO2 T02430061,KVHN,2023-06-09T03:35:00Z,31.07,-104.78,24.3,6.1,300,5,,10.0,30.008858,,,TRUE,TRUE,,,,,,,CLR,,,,,,,,VFR,,,,,,,,,,,,METAR,1200.0
KVGC 090335Z AUTO 00000KT 10SM SCT033 BKN050 BKN080 10/08 A2978 RMK AO2,KVGC,2023-06-09T03:35:00Z,42.85,-75.57,10.0,8.0,0,0,,10.0,29.778543,,,TRUE,TRUE,,,,,,,SCT,3300,BKN,5000,BKN,8000,,,VFR,,,,,,,,,,,,METAR,346.0
KVER 090335Z AUTO 07004KT 10SM CLR 19/12 A2989 RMK AO2 T01940123,KVER,2023-06-09T03:35:00Z,38.95,-92.68,19.4,12.3,70,4,,10.0,29.890747,,,TRUE,TRUE,,,,,,,CLR,,,,,,,,VFR,,,,,,,,,,,,SPECI,209.0
KVDI 090335Z AUTO 06004KT 10SM VCTS CLR 23/21 A2977 RMK AO2 LTG DSNT SW,KVDI,2023-06-09T03:35:00Z,32.2,-82.37,23.0,21.0,60,4,,10.0,29.769686,,,TRUE,TRUE,,,,,,VCTS,CLR,,,,,,,,VFR,,,,,,,,,,,,METAR,81.0
KVDF 090335Z AUTO 00000KT CLR 25/22 A2985 RMK AO2 PWINO,KVDF,2023-06-09T03:35:00Z,28.02,-82.33,25.0,22.0,0,0,,,29.84941,,,TRUE,TRUE,,,,,TRUE,,CLR,,,,,,,,,,,,,,,,,,,,SPECI,5.0
KVCV 090335Z AUTO 24008KT 10SM CLR 20/07 A3003 RMK AO2,KVCV,2023-06-09T03:35:00Z,34.58,-117.38,20.0,7.0,240,8,,10.0,30.029528,,,TRUE,TRUE,,,,,,,CLR,,,,,,,,VFR,,,,,,,,,,,,METAR,871.0
KVBW 090335Z AUTO 00000KT 10SM OVC120 16/06 A2983 RMK AO1 T01630056,KVBW,2023-06-09T03:35:00Z,38.37,-78.97,16.3,5.6,0,0,,10.0,29.828741,,,TRUE,TRUE,,,,,,,OVC,12000,,,,,,,VFR,,,,,,,,,,,,METAR,362.0
KVBG 090335Z AUTO 32005KT 8SM BKN006 14/13 A3006 RMK AO2 CIG 006V008 SLP182 TSNO $,KVBG,2023-06-09T03:35:00Z,34.73,-120.58,14.0,13.0,320,5,,8.0,30.059055,1018.2,,TRUE,TRUE,TRUE,,TRUE,,,,BKN,600,,,,,,,IFR,,,,,,,,,,,,SPECI,96.0
KVAF 090335Z AUTO VRB03KT 10SM CLR 27/20 A2989 RMK A01,KVAF,2023-06-09T03:35:00Z,27.35,-94.63,27.0,20.0,0,3,,10.0,29.890747,,,TRUE,TRUE,,,,,,,CLR,,,,,,,,VFR,,,,,,,,,,,,METAR,38.0
KUXL 090335Z AUTO 00000KT 10SM CLR 24/22 A2986 RMK AO2 T02420216,KUXL,2023-06-09T03:35:00Z,30.13,-93.38,24.2,21.6,0,0,,10.0,29.861221,,,TRUE,TRUE,,,,,,,CLR,,,,,,,,VFR,,,,,,,,,,,,METAR,2.0
KUVA 090335Z AUTO 08006KT CLR 26/21 A2987 RMK AO2 T02600211 PWINO,KUVA,2023-06-09T03:35:00Z,29.22,-99.75,26.0,21.1,80,6,,,29.870079,,,TRUE,TRUE,,,,,TRUE,,CLR,,,,,,,,,,,,,,,,,,,,METAR,285.0
KUUV 090335Z AUTO 00000KT 10SM CLR 14/10 A2992 RMK AO2,KUUV,2023-06-09T03:35:00Z,38.23,-91.17,14.0,10.0,0,0,,10.0,29.920275,,,TRUE,TRUE,,,,,,,CLR,,,,,,,,VFR,,,,,,,,,,,,SPECI,284.0
KUTA 090335Z AUTO 00000KT 10SM SCT190 21/21 A2984 RMK AO2 T02110206 $,KUTA,2023-06-09T03:35:00Z,34.68,-90.35,21.1,20.6,0,0,,10.0,29.840551,,,TRUE,TRUE,TRUE,,,,,,SCT,19000,,,,,,,VFR,,,,,,,,,,,,METAR,58.0
KUSE 090335Z AUTO 00000KT 10SM FEW055 BKN100 19/05 A2986 RMK AO2,KUSE,2023-06-09T03:35:00Z,41.62,-84.13,19.0,5.0,0,0,,10.0,29.861221,,,TRUE,TRUE,,,,,,,FEW,5500,BKN,10000,,,,,VFR,,,,,,,,,,,,METAR,237.0
KUOX 090335Z AUTO 00000KT 7SM CLR 21/21 A2985 RMK AO2,KUOX,2023-06-09T03:35:00Z,34.38,-89.53,21.0,21.0,0,0,,7.0,29.84941,,,TRUE,TRUE,,,,,,,CLR,,,,,,,,VFR,,,,,,,,,,,,METAR,123.0
KUNV 090335Z AUTO 00000KT 10SM SCT049 SCT060 OVC090 14/07 A2983 RMK AO2 LTG DSNT S T01350071,KUNV,2023-06-09T03:35:00Z,40.85,-77.83,13.5,7.1,0,0,,10.0,29.828741,,,TRUE,TRUE,,,,,,,SCT,4900,SCT,6000,OVC,9000,,,VFR,,,,,,,,,,,,METAR,365.0
KUNU 090335Z AUTO 00000KT 10SM CLR 15/04 A2995 RMK AO2 T01450035,KUNU,2023-06-09T03:35:00Z,43.42,-88.7,14.5,3.5,0,0,,10.0,29.949802,,,TRUE,TRUE,,,,,,,CLR,,,,,,,,VFR,,,,,,,,,,,,METAR,281.0
KUNI 090335Z AUTO 00000KT 10SM OVC095 12/08 A2986 RMK AO2 LTG DSNT SE T01200083,KUNI,2023-06-09T03:35:00Z,39.22,-82.23,12.0,8.3,0,0,,10.0,29.861221,,,TRUE,TRUE,,,,,,,OVC,9500,,,,,,,VFR,,,,,,,,,,,,METAR,232.0
KULM 090335Z AUTO 00000KT 10SM CLR 19/12 A2991 RMK AO2,KULM,2023-06-09T03:35:00Z,44.32,-94.5,19.0,12.0,0,0,,10.0,29.911417,,,TRUE,TRUE,,,,,,,CLR,,,,,,,,VFR,,,,,,,,,,,,METAR,305.0
KUKT 090335Z AUTO 00000KT 10SM FEW080 BKN095 15/08 A2978 RMK A01,KUKT,2023-06-09T03:35:00Z,40.43,-75.38,15.0,8.0,0,0,,10.0,29.778543,,,TRUE,TRUE,,,,,,,FEW,8000,BKN,9500,,,,,VFR,,,,,,,,,,,,METAR,156.0
KUES 090335Z AUTO 00000KT 10SM CLR 10/01 A2995 RMK AO2,KUES,2023-06-09T03:35:00Z,43.05,-88.25,10.0,1.0,0,0,,10.0,29.949802,,,TRUE,TRUE,,,,,,,CLR,,,,,,,,VFR,,,,,,,,,,,,METAR,273.0
KUCY 090335Z AUTO 00000KT 10SM BKN100 18/12 A2982 RMK A01,KUCY,2023-06-09T03:35:00Z,36.38,-88.98,18.0,12.0,0,0,,10.0,29.819881,,,TRUE,TRUE,,,,,,,BKN,10000,,,,,,,VFR,,,,,,,,,,,,METAR,97.0
KUBE 090335Z AUTO 00000KT 10SM CLR 13/10 A2996 RMK AO2,KUBE,2023-06-09T03:35:00Z,45.5,-91.98,13.0,10.0,0,0,,10.0,29.958662,,,TRUE,TRUE,,,,,,,CLR,,,,,,,,VFR,,,,,,,,,,,,METAR,376.0
KU69 090335Z AUTO 27011KT 10SM CLR 15/05 A3006 RMK A01,KU69,2023-06-09T03:35:00Z,40.2,-110.38,15.0,5.0,270,11,,10.0,30.059055,,,TRUE,TRUE,,,,,,,CLR,,,,,,,,VFR,,,,,,,,,,,,METAR,1776.0
KU64 090335Z AUTO 25010KT 10SM CLR 12/M08 A3013 RMK AO2 T01191081 $,KU64,2023-06-09T03:35:00Z,,,11.9,-8.1,250,10,,10.0,30.129921,,,TRUE,TRUE,TRUE,,,,,,CLR,,,,,,,,VFR,,,,,,,,,,,,METAR,
KU55 090335Z AUTO 13003KT 10SM OVC100 14/M02 A3015 RMK A01,KU55,2023-06-09T03:35:00Z,37.85,-112.38,14.0,-2.0,130,3,,10.0,30.15059,,,TRUE,TRUE,,,,,,,OVC,10000,,,,,,,VFR,,,,,,,,,,,,METAR,2060.0
KU42 090335Z AUTO 16005KT 10SM SCT120 18/02 A3003 RMK AO1 T01830023,KU42,2023-06-09T03:35:00Z,40.62,-111.98,18.3,2.3,160,5,,10.0,30.029528,,,TRUE,TRUE,,,,,,,SCT,12000,,,,,,,VFR,,,,,,,,,,,,METAR,1399.0
KTYL 090335Z AUTO 24005KT 10SM CLR 18/M12 A3015 RMK AO2,KTYL,2023-06-09T03:35:00Z,34.45,-110.12,18.0,-12.0,240,5,,10.0,30.15059,,,TRUE,TRUE,,,,,,,CLR,,,,,,,,VFR,,,,,,,,,,,,METAR,1748.0
KTWT 090335Z AUTO 00000KT 10SM CLR 15/10 A2985 RMK AO2,KTWT,2023-06-09T03:35:00Z,37.55,-87.95,15.0,10.0,0,0,,10.0,29.84941,,,TRUE,TRUE,,,,,,,CLR,,,,,,,,VFR,,,,,,,,,,,,METAR,113.0
KTWM 090335Z AUTO 00000KT 10SM CLR 08/05 A2996 RMK AO2,KTWM,2023-06-09T03:35:00Z,47.05,-91.75,8.0,5.0,0,0,,10.0,29.958662,,,TRUE,TRUE,,,,,,,CLR,,,,,,,,VFR,,,,,,,,,,,,METAR,331.0
KTVY 090335Z AUTO 18006KT 10SM CLR 17/04 A3001 RMK AO2,KTVY,2023-06-09T03:35:00Z,40.62,-112.35,17.0,4.0,180,6,,10.0,30.008858,,,TRUE,TRUE,,,,,,,CLR,,,,,,,,VFR,,,,,,,,,,,,METAR,1310.0
KTVK 090335Z AUTO 00000KT 9SM CLR 16/07 A2993 RMK AO2,KTVK,2023-06-09T03:35:00Z,40.68,-92.9,16.0,7.0,0,0,,9.0,29.929134,,,TRUE,TRUE,,,,,,,CLR,,,,,,,,VFR,,,,,,,,,,,,METAR,311.0
KTTF 090335Z AUTO 04003KT 10SM SCT110 16/08 A2986 RMK AO2 T01630077,KTTF,2023-06-09T03:35:00Z,41.93,-83.42,16.3,7.7,40,3,,10.0,29.861221,,,TRUE,TRUE,,,,,,,SCT,11000,,,,,,,VFR,,,,,,,,,,,,METAR,186.0
KTSP 090335Z AUTO 27011KT 8SM CLR 15/10 A3008 RMK AO2,KTSP,2023-06-09T03:35:00Z,35.13,-118.43,15.0,10.0,270,11,,8.0,30.079725,,,TRUE,TRUE,,,,,,,CLR,,,,,,,,VFR,,,,,,,,,,,,METAR,1209.0
KTQV 090335Z AUTO 00000KT 10SM SCT095 20/08 A2981 RMK A01,KTQV,2023-06-09T03:35:00Z,36.0,-78.93,20.0,8.0,0,0,,10.0,29.811024,,,TRUE,TRUE,,,,,,,SCT,9500,,,,,,,VFR,,,,,,,,,,,,METAR,230.0
KTQH 090335Z AUTO 00000KT 10SM CLR 22/20 A2984 RMK AO2,KTQH,2023-06-09T03:35:00Z,35.93,-95.0,22.0,20.0,0,0,,10.0,29.840551,,,TRUE,TRUE,,,,,,,CLR,,,,,,,,VFR,,,,,,,,,,,,METAR,265.0
KTPF 090335Z AUTO 24003KT 10SM BKN022 26/23 A2984 RMK AO2,KTPF,2023-06-09T03:35:00Z,27.92,-82.45,26.0,23.0,240,3,,10.0,29.840551,,,TRUE,TRUE,,,,,,,BKN,2200,,,,,,,MVFR,,,,,,,,,,,,METAR,1.0
KTOB 090335Z AUTO 11005KT 10SM CLR 17/05 A2995 RMK AO2,KTOB,2023-06-09T03:35:00Z,44.02,-92.82,17.0,5.0,110,5,,10.0,29.949802,,,TRUE,TRUE,,,,,,,CLR,,,,,,,,VFR,,,,,,,,,,,,METAR,394.0
KTNB 090335Z AUTO 00000KT 10SM CLR 08/04 A2993 RMK AO2 T00770043,KTNB,2023-06-09T03:35:00Z,36.2,-81.65,7.7,4.3,0,0,,10.0,29.929134,,,TRUE,TRUE,,,,,,,CLR,,,,,,,,VFR,,,,,,,,,,,,METAR,958.0
KTMT 090335Z AUTO 29007KT 10SM BKN110 14/04 A3010 RMK AO2 T01410035,KTMT,2023-06-09T03:35:00Z,39.47,-117.2,14.1,3.5,290,7,,10.0,30.100393,,,TRUE,TRUE,,,,,,,BKN,11000,,,,,,,VFR,,,,,,,,,,,,METAR,1748.0
KTME 090335Z AUTO 17006KT 10SM CLR 22/19 A2988 RMK AO2,KTME,2023-06-09T03:35:00Z,29.8,-95.9,22.0,19.0,170,6,,10.0,29.878937,,,TRUE,TRUE,,,,,,,CLR,,,,,,,,VFR,,,,,,,,,,,,METAR,49.0
KTMA 090335Z AUTO 21003KT 9SM FEW070 BKN095 OVC110 25/19 A2979 RMK AO2 T02490193 $,KTMA,2023-06-09T03:35:00Z,31.43,-83.48,24.9,19.3,210,3,,9.0,29.790354,,,TRUE,TRUE,TRUE,,,,,,FEW,7000,BKN,9500,OVC,11000,,,VFR,,,,,,,,,,,,METAR,105.0
KTKX 090335Z AUTO 04007KT 2 1/2SM HZ FEW095 FEW120 24/10 A2983 RMK AO2,KTKX,2023-06-09T03:35:00Z,36.22,-90.03,24.0,10.0,40,7,,2.5,29.828741,,,TRUE,TRUE,,,,,,HZ,FEW,9500,FEW,12000,,,,,IFR,,,,,,,,,,,,METAR,73.0
KTKV 090335Z AUTO 00000KT 10SM CLR 13/04 A2997 RMK AO2 T01320039 PWINO,KTKV,2023-06-09T03:35:00Z,45.47,-89.82,13.2,3.9,0,0,,10.0,29.970472,,,TRUE,TRUE,,,,,TRUE,,CLR,,,,,,,,VFR,,,,,,,,,,,,METAR,449.0
KTKC 090335Z AUTO 15004KT 9SM CLR 20/18 A2991 RMK AO2,KTKC,2023-06-09T03:35:00Z,44.25,-95.62,20.0,18.0,150,4,,9.0,29.911417,,,TRUE,TRUE,,,,,,,CLR,,,,,,,,VFR,,,,,,,,,,,,METAR,408.0
KTHA 090335Z AUTO 00000KT 10SM FEW055 FEW065 16/13 A2984 RMK A01,KTHA,2023-06-09T03:35:00Z,35.38,-86.25,16.0,13.0,0,0,,10.0,29.840551,,,TRUE,TRUE,,,,,,,FEW,5500,FEW,6500,,,,,VFR,,,,,,,,,,,,METAR,333.0
KTEW 090335Z AUTO 05004KT 10SM OVC110 18/05 A2989 RMK AO2 T01750047,KTEW,2023-06-09T03:35:00Z,42.57,-84.42,17.5,4.7,50,4,,10.0,29.890747,,,TRUE,TRUE,,,,,,,OVC,11000,,,,,,,VFR,,,,,,,,,,,,METAR,281.0
KTCY 090335Z AUTO 33006KT 10SM CLR 21/12 A2997 RMK A01,KTCY,2023-06-09T03:35:00Z,37.68,-121.43,21.0,12.0,330,6,,10.0,29.970472,,,TRUE,TRUE,,,,,,,CLR,,,,,,,,VFR,,,,,,,,,,,,METAR,51.0
KTAZ 090335Z AUTO 00000KT 10SM CLR 16/07 A2988 RMK AO2 T01580068 PWINO,KTAZ,2023-06-09T03:35:00Z,39.53,-89.33,15.8,6.8,0,0,,10.0,29.878937,,,TRUE,TRUE,,,,,TRUE,,CLR,,,,,,,,VFR,,,,,,,,,,,,METAR,188.0
KT89 090335Z AUTO 00000KT 10SM CLR 29/05 A2987 RMK A01,KT89,2023-06-09T03:35:00Z,29.27,-103.68,29.0,5.0,0,0,,10.0,29.870079,,,TRUE,TRUE,,,,,,,CLR,,,,,,,,VFR,,,,,,,,,,,,METAR,801.0
KT82 090335Z AUTO 00000KT 10SM CLR 23/20 A2991 RMK AO2 T02330200,KT82,2023-06-09T03:35:00Z,30.25,-98.92,23.3,20.0,0,0,,10.0,29.911417,,,TRUE,TRUE,,,,,,,CLR,,,,,,,,VFR,,,,,,,,,,,,METAR,509.0
KT78 090335Z AUTO 00000KT 8SM SCT042 SCT049 21/21 A2984 RMK AO2,KT78,2023-06-09T03:35:00Z,30.08,-94.7,21.0,21.0,0,0,,8.0,29.840551,,,TRUE,TRUE,,,,,,,SCT,4200,SCT,4900,,,,,VFR,,,,,,,,,,,,METAR,21.0
KT74 090335Z AUTO 10SM CLR 23/20 A2986 RMK AO2 T02300201,KT74,2023-06-09T03:35:00Z,30.57,-97.45,23.0,20.1,,,,10.0,29.861221,,,TRUE,TRUE,,,,,,,CLR,,,,,,,,VFR,,,,,,,,,,,,METAR,169.0
KT69 090335Z AUTO 16004KT 10SM CLR 25/24 A2985 RMK A01,KT69,2023-06-09T03:35:00Z,28.03,-97.55,25.0,24.0,160,4,,10.0,29.84941,,,TRUE,TRUE,,,,,,,CLR,,,,,,,,VFR,,,,,,,,,,,,METAR,15.0
KT41 090335Z AUTO 15003KT 10SM CLR 21/20 A2986 RMK AO2 T02100197,KT41,2023-06-09T03:35:00Z,29.67,-95.07,21.0,19.7,150,3,,10.0,29.861221,,,TRUE,TRUE,,,,,,,CLR,,,,,,,,VFR,,,,,,,,,,,,METAR,8.0
KSZY 090335Z AUTO 00000KT 10SM CLR 19/13 A2983 RMK A01,KSZY,2023-06-09T03:35:00Z,35.2,-88.5,19.0,13.0,0,0,,10.0,29.828741,,,TRUE,TRUE,,,,,,,CLR,,,,,,,,VFR,,,,,,,,,,,,METAR,184.0
KSYM 090335Z AUTO 16004KT 10SM SCT070 BKN075 14/05 A2988 RMK AO2,KSYM,2023-06-09T03:35:00Z,38.22,-83.58,14.0,5.0,160,4,,10.0,29.878937,,,TRUE,TRUE,,,,,,,SCT,7000,BKN,7500,,,,,VFR,,,,,,,,,,,,METAR,307.0
KSYI 090335Z AUTO 11003KT 10SM CLR 16/13 A2983 RMK A01,KSYI,2023-06-09T03:35:00Z,35.57,-86.45,16.0,13.0,110,3,,10.0,29.828741,,,TRUE,TRUE,,,,,,,CLR,,,,,,,,VFR,,,,,,,,,,,,METAR,244.0
KSXU 090335Z AUTO 16004KT 10SM CLR 20/11 A3001 RMK AO2 T02020111,KSXU,2023-06-09T03:35:00Z,34.93,-104.65,20.2,11.1,160,4,,10.0,30.008858,,,TRUE,TRUE,,,,,,,CLR,,,,,,,,VFR,,,,,,,,,,,,METAR,1465.0
KSXK 090335Z AUTO 12010KT 10SM SCT046 OVC050 20/16 A2988 RMK AO2,KSXK,2023-06-09T03:35:00Z,42.98,-96.17,20.0,16.0,120,10,,10.0,29.878937,,,TRUE,TRUE,,,,,,,SCT,4600,OVC,5000,,,,,VFR,,,,,,,,,,,,METAR,430.0
KSVE 090335Z AUTO 00000KT 10SM OVC039 17/09 A3006 RMK AO2,KSVE,2023-06-09T03:35:00Z,40.37,-120.57,17.0,9.0,0,0,,10.0,30.059055,,,TRUE,TRUE,,,,,,,OVC,3900,,,,,,,VFR,,,,,,,,,,,,METAR,1263.0
KSVC 090335Z AUTO 31008KT 10SM CLR 22/M06 A3009 RMK AO2 T02151061,KSVC,2023-06-09T03:35:00Z,32.63,-108.15,21.5,-6.1,310,8,,10.0,30.088583,,,TRUE,TRUE,,,,,,,CLR,,,,,,,,VFR,,,,,,,,,,,,METAR,1638.0
KSUZ 090335Z AUTO 00000KT 10SM CLR 22/20 A2985 RMK A01,KSUZ,2023-06-09T03:35:00Z,34.58,-92.48,22.0,20.0,0,0,,10.0,29.84941,,,TRUE,TRUE,,,,,,,CLR,,,,,,,,VFR,,,,,,,,,,,,METAR,114.0
KSUW 090335Z AUTO 00000KT 10SM CLR 06/03 A2997 RMK AO2 T00630032,KSUW,2023-06-09T03:35:00Z,46.68,-92.1,6.3,3.2,0,0,,10.0,29.970472,,,TRUE,TRUE,,,,,,,CLR,,,,,,,,VFR,,,,,,,,,,,,METAR,205.0
KSUA 090335Z AUTO 20006KT 10SM CLR 26/21 A2984 RMK AO2 T02570214,KSUA,2023-06-09T03:35:00Z,27.18,-80.22,25.7,21.4,200,6,,10.0,29.840551,,,TRUE,TRUE,,,,,,,CLR,,,,,,,,VFR,,,,,,,,,,,,SPECI,4.0
KSTK 090335Z AUTO 00000KT 10SM CLR 18/12 A2998 RMK AO2 LTG DSNT SW,KSTK,2023-06-09T03:35:00Z,40.62,-103.27,18.0,12.0,0,0,,10.0,29.97933,,,TRUE,TRUE,,,,,,,CLR,,,,,,,,VFR,,,,,,,,,,,,METAR,1228.0
KSTF 090335Z AUTO 00000KT 10SM OVC036 M04/ A2981 RMK AO2,KSTF,2023-06-09T03:35:00Z,33.43,-88.85,-4.0,,0,0,,10.0,29.811024,,,TRUE,TRUE,,,,,,,OVC,3600,,,,,,,VFR,,,,,,,,,,,,METAR,99.0
KSTE 090335Z AUTO 00000KT 10SM -RA CLR 13/03 A2994 RMK AO2 T01330032,KSTE,2023-06-09T03:35:00Z,44.55,-89.53,13.3,3.2,0,0,,10.0,29.940945,,,TRUE,TRUE,,,,,,-RA,CLR,,,,,,,,VFR,,,,,,,,,,,,METAR,335.0
KSRR 090335Z AUTO 25010KT 10SM CLR 17/M04 A3019 RMK AO2 LTG DSNT W,KSRR,2023-06-09T03:35:00Z,33.47,-105.52,17.0,-4.0,250,10,,10.0,30.188976,,,TRUE,TRUE,,,,,,,CLR,,,,,,,,VFR,,,,,,,,,,,,METAR,2063.0
KSRE 090335Z AUTO 00000KT 10SM CLR 23/18 A2983 RMK AO2,KSRE,2023-06-09T03:35:00Z,35.27,-96.68,23.0,18.0,0,0,,10.0,29.828741,,,TRUE,TRUE,,,,,,,CLR,,,,,,,,VFR,,,,,,,,,,,,METAR,306.0
KSRB 090335Z AUTO 00000KT 10SM FEW042 FEW050 SCT060 11/10 A2985 RMK AO2,KSRB,2023-06-09T03:35:00Z,36.05,-85.53,11.0,10.0,0,0,,10.0,29.84941,,,TRUE,TRUE,,,,,,,FEW,4200,FEW,5000,SCT,6000,,,VFR,,,,,,,,,,,,METAR,303.0
KSPK 090335Z AUTO 20004KT 10SM FEW110 15/08 A3005 RMK AO2,KSPK,2023-06-09T03:35:00Z,40.15,-111.67,15.0,8.0,200,4,,10.0,30.050198,,,TRUE,TRUE,,,,,,,FEW,11000,,,,,,,VFR,,,,,,,,,,,,METAR,1381.0
KSPA 090335Z AUTO 00000KT 10SM OVC090 18/06 A2984 RMK AO2,KSPA,2023-06-09T03:35:00Z,34.92,-81.95,18.0,6.0,0,0,,10.0,29.840551,,,TRUE,TRUE,,,,,,,OVC,9000,,,,,,,VFR,,,,,,,,,,,,METAR,242.0
KSOW 090335Z AUTO 00000KT 10SM CLR 16/M09 A3019 RMK AO2,KSOW,2023-06-09T03:35:00Z,34.27,-110.0,16.0,-9.0,0,0,,10.0,30.188976,,,TRUE,TRUE,,,,,,,CLR,,,,,,,,VFR,,,,,,,,,,,,METAR,1954.0
KSNK 090335Z AUTO 11004KT 10SM CLR 24/14 A2992 RMK AO2 T02390142,KSNK,2023-06-09T03:35:00Z,32.7,-100.95,23.9,14.2,110,4,,10.0,29.920275,,,TRUE,TRUE,,,,,,,CLR,,,,,,,,VFR,,,,,,,,,,,,METAR,738.0
KSNH 090335Z AUTO 00000KT 10SM FEW036 SCT045 BKN055 19/16 A2982 RMK A01,KSNH,2023-06-09T03:35:00Z,35.17,-88.22,19.0,16.0,0,0,,10.0,29.819881,,,TRUE,TRUE,,,,,,,FEW,3600,SCT,4500,BKN,5500,,,VFR,,,,,,,,,,,,METAR,142.0
KSNC 090335Z AUTO 00000KT 6SM BR CLR 11/11 A2973 RMK AO2,KSNC,2023-06-09T03:35:00Z,41.38,-72.5,11.0,11.0,0,0,,6.0,29.731298,,,TRUE,TRUE,,,,,,BR,CLR,,,,,,,,VFR,,,,,,,,,,,,METAR,114.0
KSMS 090335Z AUTO 00000KT 9SM SCT070 BKN080 BKN095 19/18 A2981 RMK AO2,KSMS,2023-06-09T03:35:00Z,34.0,-80.37,19.0,18.0,0,0,,9.0,29.811024,,,TRUE,TRUE,,,,,,,SCT,7000,BKN,8000,BKN,9500,,,VFR,,,,,,,,,,,,METAR,53.0
KSME 090335Z AUTO 00000KT 9SM CLR 13/13 A2986 RMK AO2,KSME,2023-06-09T03:35:00Z,37.05,-84.62,13.0,13.0,0,0,,9.0,29.861221,,,TRUE,TRUE,,,,,,,CLR,,,,,,,,VFR,,,,,,,,,,,,METAR,279.0
KSLH 090335Z AUTO 27004KT 10SM SCT080 12/06 A2991 RMK AO2,KSLH,2023-06-09T03:35:00Z,45.65,-84.52,12.0,6.0,270,4,,10.0,29.911417,,,TRUE,TRUE,,,,,,,SCT,8000,,,,,,,VFR,,,,,,,,,,,,METAR,193.0
KSJX 090335Z AUTO 00000KT 10SM CLR 12/06 A2994 RMK AO2 T01180057,KSJX,2023-06-09T03:35:00Z,45.7,-85.57,11.8,5.7,0,0,,10.0,29.940945,,,TRUE,TRUE,,,,,,,CLR,,,,,,,,VFR,,,,,,,,,,,,METAR,202.0
KSIK 090335Z AUTO 00000KT 10SM SCT100 20/11 A2985 RMK AO2,KSIK,2023-06-09T03:35:00Z,36.9,-89.57,20.0,11.0,0,0,,10.0,29.84941,,,TRUE,TRUE,,,,,,,SCT,10000,,,,,,,VFR,,,,,,,,,,,,METAR,95.0
KSHD 090335Z AUTO 00000KT 10SM TS OVC120 15/05 A2986 RMK AO2 LTG DSNT SE T01540046,KSHD,2023-06-09T03:35:00Z,38.27,-78.9,15.4,4.6,0,0,,10.0,29.861221,,,TRUE,TRUE,,,,,,TS,OVC,12000,,,,,,,VFR,,,,,,,,,,,,METAR,360.0
KSGS 090335Z AUTO 00000KT 10SM CLR 21/06 A2992 RMK AO2 T02110063,KSGS,2023-06-09T03:35:00Z,44.87,-93.03,21.1,6.3,0,0,,10.0,29.920275,,,TRUE,TRUE,,,,,,,CLR,,,,,,,,VFR,,,,,,,,,,,,METAR,250.0
KSFQ 090335Z AUTO 00000KT 10SM VCTS BKN050 BKN060 13/12 A2980 RMK AO2 LTG DSNT NW T01250121,KSFQ,2023-06-09T03:35:00Z,36.68,-76.6,12.5,12.1,0,0,,10.0,29.799213,,,TRUE,TRUE,,,,,,VCTS,BKN,5000,BKN,6000,,,,,VFR,,,,,,,,,,,,METAR,19.0
KSEZ 090335Z AUTO 15007KT 10SM CLR 20/M09 A3009 RMK AO2,KSEZ,2023-06-09T03:35:00Z,34.85,-111.78,20.0,-9.0,150,7,,10.0,30.088583,,,TRUE,TRUE,,,,,,,CLR,,,,,,,,VFR,,,,,,,,,,,,METAR,1455.0
KSEP 090335Z AUTO 19003KT 5SM CLR 23/17 A2989 RMK AO2 T02250173,KSEP,2023-06-09T03:35:00Z,32.22,-98.17,22.5,17.3,190,3,,5.0,29.890747,,,TRUE,TRUE,,,,,,,CLR,,,,,,,,MVFR,,,,,,,,,,,,METAR,399.0
KSEM 090335Z AUTO 00000KT 10SM FEW055 23/22 A2978 RMK AO2,KSEM,2023-06-09T03:35:00Z,32.35,-86.98,23.0,22.0,0,0,,10.0,29.778543,,,TRUE,TRUE,,,,,,,FEW,5500,,,,,,,VFR,,,,,,,,,,,,METAR,48.0
KSDC 090335Z AUTO 00000KT 10SM OVC085 12/09 A2980 RMK AO2,KSDC,2023-06-09T03:35:00Z,43.23,-77.12,12.0,9.0,0,0,,10.0,29.799213,,,TRUE,TRUE,,,,,,,OVC,8500,,,,,,,VFR,,,,,,,,,,,,METAR,127.0
KSCX 090335Z AUTO 00000KT 10SM FEW046 OVC055 14/10 A2988 RMK A01,KSCX,2023-06-09T03:35:00Z,36.45,-84.58,14.0,10.0,0,0,,10.0,29.878937,,,TRUE,TRUE,,,,,,,FEW,4600,OVC,5500,,,,,VFR,,,,,,,,,,,,METAR,462.0
KSCD 090335Z AUTO 00000KT 10SM BKN095 OVC110 21/16 A2982 RMK AO2 T02070158,KSCD,2023-06-09T03:35:00Z,33.17,-86.3,20.7,15.8,0,0,,10.0,29.819881,,,TRUE,TRUE,,,,,,,BKN,9500,OVC,11000,,,,,VFR,,,,,,,,,,,,METAR,164.0
KSBS 090335Z AUTO 12004KT 10SM SCT120 15/05 A3009 RMK AO1 T01510046,KSBS,2023-06-09T03:35:00Z,40.52,-106.87,15.1,4.6,120,4,,10.0,30.088583,,,TRUE,TRUE,,,,,,,SCT,12000,,,,,,,VFR,,,,,,,,,,,,METAR,2097.0
KSAZ 090335Z AUTO 00000KT 10SM CLR 21/08 A2993 RMK AO2,KSAZ,2023-06-09T03:35:00Z,46.37,-94.8,21.0,8.0,0,0,,10.0,29.929134,,,TRUE,TRUE,,,,,,,CLR,,,,,,,,VFR,,,,,,,,,,,,METAR,391.0
KSAA 090335Z AUTO 14009KT 10SM CLR 13/07 A3013 RMK AO2 LTG DSNT W,KSAA,2023-06-09T03:35:00Z,41.45,-106.8,13.0,7.0,140,9,,10.0,30.129921,,,TRUE,TRUE,,,,,,,CLR,,,,,,,,VFR,,,,,,,,,,,,METAR,2093.0
KS39 090335Z AUTO 31007G12KT 10SM OVC085 20/10 A2996 RMK AO2,KS39,2023-06-09T03:35:00Z,44.28,-120.9,20.0,10.0,310,7,12,10.0,29.958662,,,TRUE,TRUE,,,,,,,OVC,8500,,,,,,,VFR,,,,,,,,,,,,METAR,987.0
KS33 090335Z AUTO 32007KT 10SM -RA OVC090 20/11 A2994 RMK AO2,KS33,2023-06-09T03:35:00Z,44.67,-121.15,20.0,11.0,320,7,,10.0,29.940945,,,TRUE,TRUE,,,,,,-RA,OVC,9000,,,,,,,VFR,,,,,,,,,,,,METAR,739.0
KS32 090335Z AUTO 25016KT 8SM -RA OVC046 23/19 A2992 RMK AO2 TSNO,KS32,2023-06-09T03:35:00Z,47.42,-98.1,23.0,19.0,250,16,,8.0,29.920275,,,TRUE,TRUE,,,TRUE,,,-RA,OVC,4600,,,,,,,VFR,,,,,,,,,,,,METAR,435.0
KS25 090335Z AUTO 09008KT 10SM SCT110 20/20 A2991 RMK AO2,KS25,2023-06-09T03:35:00Z,47.8,-103.25,20.0,20.0,90,8,,10.0,29.911417,,,TRUE,TRUE,,,,,,,SCT,11000,,,,,,,VFR,,,,,,,,,,,,METAR,632.0
KS24 090335Z AUTO 00000KT 10SM OVC110 16/08 A2985 RMK AO2,KS24,2023-06-09T03:35:00Z,41.3,-83.03,16.0,8.0,0,0,,10.0,29.84941,,,TRUE,TRUE,,,,,,,OVC,11000,,,,,,,VFR,,,,,,,,,,,,METAR,203.0
KS21 090335Z AUTO 22004KT 10SM FEW050 BKN090 BKN110 13/12 A3006 RMK AO2,KS21,2023-06-09T03:35:00Z,43.88,-121.45,13.0,12.0,220,4,,10.0,30.059055,,,TRUE,TRUE,,,,,,,FEW,5000,BKN,9000,BKN,11000,,,VFR,,,,,,,,,,,,METAR,1269.0
KS12 090335Z AUTO 27004KT 10SM CLR 20/11 A2998 RMK AO2,KS12,2023-06-09T03:35:00Z,,,20.0,11.0,270,4,,10.0,29.97933,,,TRUE,TRUE,,,,,,,CLR,,,,,,,,VFR,,,,,,,,,,,,METAR,
KRZR 090335Z AUTO 00000KT 9SM CLR 14/13 A2983 RMK A01,KRZR,2023-06-09T03:35:00Z,35.22,-84.8,14.0,13.0,0,0,,9.0,29.828741,,,TRUE,TRUE,,,,,,,CLR,,,,,,,,VFR,,,,,,,,,,,,METAR,259.0
KRZN 090335Z AUTO 00000KT 10SM CLR 12/07 A2996 RMK AO2 T01170070,KRZN,2023-06-09T03:35:00Z,45.82,-92.37,11.7,7.0,0,0,,10.0,29.958662,,,TRUE,TRUE,,,,,,,CLR,,,,,,,,VFR,,,,,,,,,,,,METAR,301.0
KRZL 090335Z AUTO 32004KT 10SM CLR 13/01 A2992 RMK AO2,KRZL,2023-06-09T03:35:00Z,40.95,-87.18,13.0,1.0,320,4,,10.0,29.920275,,,TRUE,TRUE,,,,,,,CLR,,,,,,,,VFR,,,,,,,,,,,,METAR,210.0
KRYW 090335Z AUTO 15004KT 1/4SM HZ VV002 25/21 A2989 RMK AO2 T02500205,KRYW,2023-06-09T03:35:00Z,30.5,-97.97,25.0,20.5,150,4,,0.25,29.890747,,,TRUE,TRUE,,,,,,HZ,OVX,0,,,,,,,LIFR,,,,,,,,,,,200,METAR,370.0
KRYN 090335Z AUTO 24005G17KT 10SM CLR 27/M04 A2994 RMK AO2,KRYN,2023-06-09T03:35:00Z,32.15,-111.17,27.0,-4.0,240,5,17,10.0,29.940945,,,TRUE,TRUE,,,,,,,CLR,,,,,,,,VFR,,,,,,,,,,,,METAR,731.0
KRVL 090335Z AUTO 00000KT 10SM CLR 14/08 A2980 RMK AO2,KRVL,2023-06-09T03:35:00Z,40.68,-77.63,14.0,8.0,0,0,,10.0,29.799213,,,TRUE,TRUE,,,,,,,CLR,,,,,,,,VFR,,,,,,,,,,,,METAR,250.0
KRVJ 090335Z AUTO 00000KT 10SM VCTS SCT060 SCT110 23/22 A2977 RMK AO2 LTG DSNT SW T02250217,KRVJ,2023-06-09T03:35:00Z,32.07,-82.15,22.5,21.7,0,0,,10.0,29.769686,,,TRUE,TRUE,,,,,,VCTS,SCT,6000,SCT,11000,,,,,VFR,,,,,,,,,,,,METAR,60.0
KRVF 090335Z AUTO 01007KT 10SM BKN050 OVC090 16/14 A3003 RMK AO2,KRVF,2023-06-09T03:35:00Z,45.53,-112.3,16.0,14.0,10,7,,10.0,30.029528,,,TRUE,TRUE,,,,,,,BKN,5000,OVC,9000,,,,,VFR,,,,,,,,,,,,METAR,1445.0
KRUG 090335Z AUTO 09007KT 10SM BKN120 20/19 A2988 RMK AO2,KRUG,2023-06-09T03:35:00Z,48.38,-100.02,20.0,19.0,90,7,,10.0,29.878937,,,TRUE,TRUE,,,,,,,BKN,12000,,,,,,,VFR,,,,,,,,,,,,METAR,469.0
KRTS 090335Z AUTO 00000KT 10SM BKN060 BKN070 14/09 A3010 RMK AO2,KRTS,2023-06-09T03:35:00Z,39.67,-119.88,14.0,9.0,0,0,,10.0,30.100393,,,TRUE,TRUE,,,,,,,BKN,6000,BKN,7000,,,,,VFR,,,,,,,,,,,,METAR,1537.0
KRSN 090335Z AUTO 00000KT 9SM CLR 22/22 A2982 RMK AO2 T02220222 $,KRSN,2023-06-09T03:35:00Z,32.52,-92.58,22.2,22.2,0,0,,9.0,29.819881,,,TRUE,TRUE,TRUE,,,,,,CLR,,,,,,,,VFR,,,,,,,,,,,,METAR,86.0
KRRT 090335Z AUTO 00000KT 10SM CLR 18/16 A2991 RMK AO2,KRRT,2023-06-09T03:35:00Z,48.93,-95.33,18.0,16.0,0,0,,10.0,29.911417,,,TRUE,TRUE,,,,,,,CLR,,,,,,,,VFR,,,,,,,,,,,,METAR,327.0
KRRL 090335Z AUTO 05003KT 10SM CLR 11/07 A2994 RMK AO2 T01120067 TSNO,KRRL,2023-06-09T03:35:00Z,45.2,-89.72,11.2,6.7,50,3,,10.0,29.940945,,,TRUE,TRUE,,,TRUE,,,,CLR,,,,,,,,VFR,,,,,,,,,,,,SPECI,397.0
KRQB 090335Z AUTO 00000KT 10SM SCT060 15/06 A2992 RMK AO2 T01460055,KRQB,2023-06-09T03:35:00Z,43.72,-85.5,14.6,5.5,0,0,,10.0,29.920275,,,TRUE,TRUE,,,,,,,SCT,6000,,,,,,,VFR,,,,,,,,,,,,METAR,282.0
KRPH 090335Z AUTO 00000KT 10SM CLR 23/20 A2983 RMK AO2 T02260204 $,KRPH,2023-06-09T03:35:00Z,33.12,-98.55,22.6,20.4,0,0,,10.0,29.828741,,,TRUE,TRUE,TRUE,,,,,,CLR,,,,,,,,VFR,,,,,,,,,,,,METAR,341.0
KRPD 090335Z AUTO 00000KT 10SM CLR 13/11 A2996 RMK AO2 T01260105,KRPD,2023-06-09T03:35:00Z,45.42,-91.77,12.6,10.5,0,0,,10.0,29.958662,,,TRUE,TRUE,,,,,,,CLR,,,,,,,,VFR,,,,,,,,,,,,METAR,334.0
KROX 090335Z AUTO 00000KT 10SM CLR 19/16 A2991 RMK AO2,KROX,2023-06-09T03:35:00Z,48.85,-95.7,19.0,16.0,0,0,,10.0,29.911417,,,TRUE,TRUE,,,,,,,CLR,,,,,,,,VFR,,,,,,,,,,,,METAR,320.0
KROS 090335Z AUTO 00000KT 10SM BKN110 16/10 A2994 RMK AO2 T01570101,KROS,2023-06-09T03:35:00Z,45.7,-92.95,15.7,10.1,0,0,,10.0,29.940945,,,TRUE,TRUE,,,,,,,BKN,11000,,,,,,,VFR,,,,,,,,,,,,METAR,282.0
KRNP 090335Z AUTO 04003KT 10SM BKN090 BKN110 16/04 A2990 RMK AO2 T01610043,KRNP,2023-06-09T03:35:00Z,43.0,-84.13,16.1,4.3,40,3,,10.0,29.899607,,,TRUE,TRUE,,,,,,,BKN,9000,BKN,11000,,,,,VFR,,,,,,,,,,,,METAR,224.0
KRNH 090335Z AUTO 00000KT 10SM CLR 17/11 A2995 RMK AO2 T01700111,KRNH,2023-06-09T03:35:00Z,45.15,-92.53,17.0,11.1,0,0,,10.0,29.949802,,,TRUE,TRUE,,,,,,,CLR,,,,,,,,VFR,,,,,,,,,,,,METAR,302.0
KRNC 090335Z AUTO 00000KT 10SM CLR 15/12 A2985 RMK A01,KRNC,2023-06-09T03:35:00Z,35.7,-85.85,15.0,12.0,0,0,,10.0,29.84941,,,TRUE,TRUE,,,,,,,CLR,,,,,,,,VFR,,,,,,,,,,,,METAR,310.0
KRMY 090335Z AUTO 00000KT 10SM CLR 16/04 A2988 RMK AO2 T01570040,KRMY,2023-06-09T03:35:00Z,42.25,-84.95,15.7,4.0,0,0,,10.0,29.878937,,,TRUE,TRUE,,,,,,,CLR,,,,,,,,VFR,,,,,,,,,,,,METAR,285.0
KRMN 090335Z AUTO 00000KT 4SM TSHZ CLR 16/10 A2979 RMK AO2 LTG DSNT SW T01640104,KRMN,2023-06-09T03:35:00Z,38.4,-77.45,16.4,10.4,0,0,,4.0,29.790354,,,TRUE,TRUE,,,,,,SH,CLR,,,,,,,,MVFR,,,,,,,,,,,,METAR,50.0
KRKW 090335Z AUTO 00000KT 10SM FEW049 14/07 A2988 RMK A01,KRKW,2023-06-09T03:35:00Z,35.92,-84.68,14.0,7.0,0,0,,10.0,29.878937,,,TRUE,TRUE,,,,,,,FEW,4900,,,,,,,VFR,,,,,,,,,,,,METAR,505.0
KRKR 090335Z AUTO 18003KT 10SM SCT110 22/18 A2983 RMK AO2,KRKR,2023-06-09T03:35:00Z,35.02,-94.62,22.0,18.0,180,3,,10.0,29.828741,,,TRUE,TRUE,,,,,,,SCT,11000,,,,,,,VFR,,,,,,,,,,,,METAR,136.0
KRID 090335Z AUTO 32003KT 10SM CLR 16/03 A2988 RMK AO2,KRID,2023-06-09T03:35:00Z,39.75,-84.85,16.0,3.0,320,3,,10.0,29.878937,,,TRUE,TRUE,,,,,,,CLR,,,,,,,,VFR,,,,,,,,,,,,SPECI,346.0
KRGK 090335Z AUTO 00000KT 10SM CLR 16/08 A2992 RMK AO2,KRGK,2023-06-09T03:35:00Z,44.58,-92.48,16.0,8.0,0,0,,10.0,29.920275,,,TRUE,TRUE,,,,,,,CLR,,,,,,,,VFR,,,,,,,,,,,,METAR,238.0
KRFI 090335Z AUTO 00000KT 10SM CLR 23/20 A2987 RMK AO2 T02300200,KRFI,2023-06-09T03:35:00Z,32.15,-94.85,23.0,20.0,0,0,,10.0,29.870079,,,TRUE,TRUE,,,,,,,CLR,,,,,,,,VFR,,,,,,,,,,,,METAR,133.0
KRCX 090335Z AUTO 00000KT 10SM CLR 16/10 A2997 RMK AO2 T01550101,KRCX,2023-06-09T03:35:00Z,45.5,-91.0,15.5,10.1,0,0,,10.0,29.970472,,,TRUE,TRUE,,,,,,,CLR,,,,,,,,VFR,,,,,,,,,,,,METAR,373.0
KRCV 090335Z AUTO 26009KT 10SM CLR 15/M04 A3020 RMK AO2 LTG DSNT NE T01471040,KRCV,2023-06-09T03:35:00Z,37.72,-106.35,14.7,-4.0,260,9,,10.0,30.200787,,,TRUE,TRUE,,,,,,,CLR,,,,,,,,VFR,,,,,,,,,,,,METAR,2418.0
KRCM 090335Z AUTO 07004KT 10SM SCT050 BKN100 BKN120 18/13 A2989 RMK AO2,KRCM,2023-06-09T03:35:00Z,38.78,-93.8,18.0,13.0,70,4,,10.0,29.890747,,,TRUE,TRUE,,,,,,,SCT,5000,BKN,10000,BKN,12000,,,VFR,,,,,,,,,,,,SPECI,242.0
KRCE 090335Z AUTO 16003KT 10SM CLR 24/17 A2984 RMK AO2,KRCE,2023-06-09T03:35:00Z,35.48,-97.82,24.0,17.0,160,3,,10.0,29.840551,,,TRUE,TRUE,,,,,,,CLR,,,,,,,,VFR,,,,,,,,,,,,METAR,412.0
KRBW 090335Z AUTO 09003KT 10SM CLR 20/19 A2980 RMK AO2 LTG DSNT SE,KRBW,2023-06-09T03:35:00Z,32.92,-80.63,20.0,19.0,90,3,,10.0,29.799213,,,TRUE,TRUE,,,,,,,CLR,,,,,,,,VFR,,,,,,,,,,,,METAR,30.0
KRBO 090335Z AUTO 14005KT 10SM CLR 25/23 A2984 RMK AO2 T02500225,KRBO,2023-06-09T03:35:00Z,27.78,-97.68,25.0,22.5,140,5,,10.0,29.840551,,,TRUE,TRUE,,,,,,,CLR,,,,,,,,VFR,,,,,,,,,,,,METAR,24.0
KRAW 090335Z AUTO 09004KT 10SM OVC090 17/13 A2990 RMK AO2,KRAW,2023-06-09T03:35:00Z,38.35,-93.35,17.0,13.0,90,4,,10.0,29.899607,,,TRUE,TRUE,,,,,,,OVC,9000,,,,,,,VFR,,,,,,,,,,,,SPECI,285.0
KRAS 090335Z AUTO 14009KT 10SM CLR 28/23 A2986 RMK AO2 T02810234,KRAS,2023-06-09T03:35:00Z,27.82,-97.08,28.1,23.4,140,9,,10.0,29.861221,,,TRUE,TRUE,,,,,,,CLR,,,,,,,,VFR,,,,,,,,,,,,METAR,3.0
KPZZ 090335Z AUTO 28014KT 10SM CLR 27/22 A2985 RMK A01,KPZZ,2023-06-09T03:35:00Z,28.43,-91.03,27.0,22.0,280,14,,10.0,29.84941,,,TRUE,TRUE,,,,,,,CLR,,,,,,,,VFR,,,,,,,,,,,,METAR,25.0
KPZQ 090335Z AUTO 28003KT 10SM CLR 12/07 A2992 RMK AO2 T01200066,KPZQ,2023-06-09T03:35:00Z,45.4,-83.82,12.0,6.6,280,3,,10.0,29.920275,,,TRUE,TRUE,,,,,,,CLR,,,,,,,,VFR,,,,,,,,,,,,METAR,199.0
KPYX 090335Z AUTO 14003KT 10SM CLR 18/12 A2993 RMK AO2 T01790120,KPYX,2023-06-09T03:35:00Z,36.42,-100.75,17.9,12.0,140,3,,10.0,29.929134,,,TRUE,TRUE,,,,,,,CLR,,,,,,,,VFR,,,,,,,,,,,,METAR,890.0
KPXE 090335Z AUTO 03005KT 10SM SCT065 24/13 A2980 RMK AO2 LTG DSNT SE T02390130,KPXE,2023-06-09T03:35:00Z,32.52,-83.77,23.9,13.0,30,5,,10.0,29.799213,,,TRUE,TRUE,,,,,,,SCT,6500,,,,,,,VFR,,,,,,,,,,,,METAR,126.0
KPWD 090335Z AUTO 05007KT 10SM CLR 20/16 A2993 RMK AO2,KPWD,2023-06-09T03:35:00Z,48.78,-104.52,20.0,16.0,50,7,,10.0,29.929134,,,TRUE,TRUE,,,,,,,CLR,,,,,,,,VFR,,,,,,,,,,,,METAR,690.0
KPWC 090335Z AUTO 00000KT 10SM CLR 16/11 A2997 RMK AO2,KPWC,2023-06-09T03:35:00Z,46.72,-94.38,16.0,11.0,0,0,,10.0,29.970472,,,TRUE,TRUE,,,,,,,CLR,,,,,,,,VFR,,,,,,,,,,,,METAR,394.0
KPVJ 090335Z AUTO 00000KT 10SM CLR 23/18 A2983 RMK AO2 T02280181,KPVJ,2023-06-09T03:35:00Z,34.72,-97.22,22.8,18.1,0,0,,10.0,29.828741,,,TRUE,TRUE,,,,,,,CLR,,,,,,,,VFR,,,,,,,,,,,,METAR,287.0
KPVF 090335Z AUTO 28004KT 10SM CLR 18/10 A3007 RMK AO1,KPVF,2023-06-09T03:35:00Z,38.72,-120.75,18.0,10.0,280,4,,10.0,30.070866,,,TRUE,TRUE,,,,,,,CLR,,,,,,,,VFR,,,,,,,,,,,,METAR,788.0
KPVE 090335Z AUTO 00000KT 10SM CLR 18/15 A2983 RMK A01,KPVE,2023-06-09T03:35:00Z,35.65,-88.2,18.0,15.0,0,0,,10.0,29.828741,,,TRUE,TRUE,,,,,,,CLR,,,,,,,,VFR,,,,,,,,,,,,SPECI,146.0
KPVB 090335Z AUTO 08006KT 10SM CLR 16/M02 A2995 RMK AO1 T01621016,KPVB,2023-06-09T03:35:00Z,42.68,-90.43,16.2,-1.6,80,6,,10.0,29.949802,,,TRUE,TRUE,,,,,,,CLR,,,,,,,,VFR,,,,,,,,,,,,SPECI,311.0
KPUJ 090335Z AUTO 00000KT 7SM CLR 20/10 A2984 RMK AO2,KPUJ,2023-06-09T03:35:00Z,33.92,-84.93,20.0,10.0,0,0,,7.0,29.840551,,,TRUE,TRUE,,,,,,,CLR,,,,,,,,VFR,,,,,,,,,,,,METAR,385.0
KPTS 090335Z AUTO 08004KT 10SM SCT090 23/20 A2983 RMK AO2 T02260195 PWINO,KPTS,2023-06-09T03:35:00Z,37.45,-94.73,22.6,19.5,80,4,,10.0,29.828741,,,TRUE,TRUE,,,,,TRUE,,SCT,9000,,,,,,,VFR,,,,,,,,,,,,METAR,286.0
KPTD 090335Z AUTO 00000KT 10SM OVC060 11/11 A2977 RMK AO2,KPTD,2023-06-09T03:35:00Z,44.68,-74.95,11.0,11.0,0,0,,10.0,29.769686,,,TRUE,TRUE,,,,,,,OVC,6000,,,,,,,VFR,,,,,,,,,,,,METAR,144.0
KPTB 090335Z AUTO 00000KT 5SM BR OVC048 12/11 A2979 RMK AO2 T01170111,KPTB,2023-06-09T03:35:00Z,37.17,-77.52,11.7,11.1,0,0,,5.0,29.790354,,,TRUE,TRUE,,,,,,BR,OVC,4800,,,,,,,MVFR,,,,,,,,,,,,METAR,56.0
KPSO 090335Z AUTO 32003KT 10SM CLR 14/M01 A3021 RMK AO2 T01441014,KPSO,2023-06-09T03:35:00Z,37.28,-107.05,14.4,-1.4,320,3,,10.0,30.209646,,,TRUE,TRUE,,,,,,,CLR,,,,,,,,VFR,,,,,,,,,,,,METAR,2332.0
KPSK 090335Z AUTO 27005KT 10SM CLR 12/03 A2989 RMK AO2 LTG DSNT E T01160032,KPSK,2023-06-09T03:35:00Z,37.13,-80.67,11.6,3.2,270,5,,10.0,29.890747,,,TRUE,TRUE,,,,,,,CLR,,,,,,,,VFR,,,,,,,,,,,,METAR,629.0
KPRS 090335Z AUTO 02006KT 10SM CLR 30/07 A2991 RMK AO2 T03040072,KPRS,2023-06-09T03:35:00Z,29.63,-104.35,30.4,7.2,20,6,,10.0,29.911417,,,TRUE,TRUE,,,,,,,CLR,,,,,,,,VFR,,,,,,,,,,,,METAR,890.0
KPPO 090335Z AUTO 00000KT 10SM CLR 10/06 A2992 RMK AO2 T00990055,KPPO,2023-06-09T03:35:00Z,41.57,-86.73,9.9,5.5,0,0,,10.0,29.920275,,,TRUE,TRUE,,,,,,,CLR,,,,,,,,VFR,,,,,,,,,,,,METAR,242.0
KPOV 090335Z AUTO 00000KT 10SM SCT120 15/05 A2984 RMK AO2 T01460047 PWINO,KPOV,2023-06-09T03:35:00Z,41.22,-81.25,14.6,4.7,0,0,,10.0,29.840551,,,TRUE,TRUE,,,,,TRUE,,SCT,12000,,,,,,,VFR,,,,,,,,,,,,METAR,363.0
KPO1 090335Z AUTO 21011G18KT 10SM SCT055 BKN090 24/15 A2991 RMK AO2 LTG DSNT SE-SW,KPO1,2023-06-09T03:35:00Z,48.13,-105.17,24.0,15.0,210,11,18,10.0,29.911417,,,TRUE,TRUE,,,,,,,SCT,5500,BKN,9000,,,,,VFR,,,,,,,,,,,,SPECI,621.0
KPNM 090335Z AUTO 00000KT 10SM CLR 18/08 A2994 RMK AO2,KPNM,2023-06-09T03:35:00Z,45.53,-93.6,18.0,8.0,0,0,,10.0,29.940945,,,TRUE,TRUE,,,,,,,CLR,,,,,,,,VFR,,,,,,,,,,,,METAR,298.0
KPMV 090335Z AUTO 12007KT 10SM CLR 20/15 A2989 RMK AO2 T02040147,KPMV,2023-06-09T03:35:00Z,40.95,-95.92,20.4,14.7,120,7,,10.0,29.890747,,,TRUE,TRUE,,,,,,,CLR,,,,,,,,VFR,,,,,,,,,,,,METAR,365.0
KPLU 090335Z AUTO 00000KT 10SM CLR 20/12 A2995 RMK AO2,KPLU,2023-06-09T03:35:00Z,47.1,-122.28,20.0,12.0,0,0,,10.0,29.949802,,,TRUE,TRUE,,,,,,,CLR,,,,,,,,VFR,,,,,,,,,,,,METAR,164.0
KPLR 090335Z AUTO 00000KT 10SM SCT032 SCT041 SCT048 18/15 A2983 RMK A01,KPLR,2023-06-09T03:35:00Z,33.57,-86.25,18.0,15.0,0,0,,10.0,29.828741,,,TRUE,TRUE,,,,,,,SCT,3200,SCT,4100,SCT,4800,,,VFR,,,,,,,,,,,,METAR,145.0
KPLD 090335Z AUTO 35007KT 10SM CLR A2988 RMK AO2,KPLD,2023-06-09T03:35:00Z,40.45,-84.98,,,350,7,,10.0,29.878937,,,TRUE,TRUE,,,,,,,CLR,,,,,,,,VFR,,,,,,,,,,,,METAR,282.0
KPKV 090335Z AUTO 17004KT 10SM CLR 25/22 A2985 RMK AO2 T02520221,KPKV,2023-06-09T03:35:00Z,28.65,-96.68,25.2,22.1,170,4,,10.0,29.84941,,,TRUE,TRUE,,,,,,,CLR,,,,,,,,VFR,,,,,,,,,,,,METAR,8.0
KPJC 090335Z AUTO 00000KT 10SM SCT085 SCT100 11/08 A2983 RMK AO2 LTG DSNT S,KPJC,2023-06-09T03:35:00Z,40.8,-80.17,11.0,8.0,0,0,,10.0,29.828741,,,TRUE,TRUE,,,,,,,SCT,8500,SCT,10000,,,,,VFR,,,,,,,,,,,,METAR,273.0
KPHN 090335Z AUTO 00000KT 10SM CLR 10/07 A2988 RMK AO2,KPHN,2023-06-09T03:35:00Z,42.92,-82.52,10.0,7.0,0,0,,10.0,29.878937,,,TRUE,TRUE,,,,,,,CLR,,,,,,,,VFR,,,,,,,,,,,,METAR,195.0
KPEZ 090335Z AUTO 09006KT 10SM CLR 27/22 A2985 RMK AO2 T02740220,KPEZ,2023-06-09T03:35:00Z,28.95,-98.52,27.4,22.0,90,6,,10.0,29.84941,,,TRUE,TRUE,,,,,,,CLR,,,,,,,,VFR,,,,,,,,,,,,METAR,126.0
KPEX 090335Z AUTO 00000KT 10SM CLR 17/11 A2992 RMK AO2,KPEX,2023-06-09T03:35:00Z,45.37,-94.73,17.0,11.0,0,0,,10.0,29.920275,,,TRUE,TRUE,,,,,,,CLR,,,,,,,,VFR,,,,,,,,,,,,SPECI,359.0
KPDC 090335Z AUTO 00000KT 10SM CLR 15/07 A2993 RMK AO2 T01540065,KPDC,2023-06-09T03:35:00Z,43.02,-91.12,15.4,6.5,0,0,,10.0,29.929134,,,TRUE,TRUE,,,,,,,CLR,,,,,,,,VFR,,,,,,,,,,,,METAR,201.0
KPCZ 090335Z AUTO 13005KT 10SM CLR 16/06 A2994 RMK AO2 T01640055,KPCZ,2023-06-09T03:35:00Z,44.33,-89.02,16.4,5.5,130,5,,10.0,29.940945,,,TRUE,TRUE,,,,,,,CLR,,,,,,,,VFR,,,,,,,,,,,,METAR,248.0
KPCW 090335Z AUTO 07007KT 10SM FEW060 OVC110 18/09 A2985 RMK AO2,KPCW,2023-06-09T03:35:00Z,41.52,-82.87,18.0,9.0,70,7,,10.0,29.84941,,,TRUE,TRUE,,,,,,,FEW,6000,OVC,11000,,,,,VFR,,,,,,,,,,,,SPECI,179.0
KPCM 090335Z AUTO 00000KT 10SM CLR 26/24 A2986 RMK AO2,KPCM,2023-06-09T03:35:00Z,28.0,-82.17,26.0,24.0,0,0,,10.0,29.861221,,,TRUE,TRUE,,,,,,,CLR,,,,,,,,VFR,,,,,,,,,,,,SPECI,43.0
KPBH 090335Z AUTO 00000KT 10SM CLR 10/05 A2996 RMK AO2 T01020047,KPBH,2023-06-09T03:35:00Z,45.7,-90.4,10.2,4.7,0,0,,10.0,29.958662,,,TRUE,TRUE,,,,,,,CLR,,,,,,,,VFR,,,,,,,,,,,,METAR,445.0
KPAN 090335Z AUTO 00000KT 10SM CLR 19/M13 A3013 RMK AO2 PWINO TSNO,KPAN,2023-06-09T03:35:00Z,34.25,-111.33,19.0,-13.0,0,0,,10.0,30.129921,,,TRUE,TRUE,,,TRUE,,TRUE,,CLR,,,,,,,,VFR,,,,,,,,,,,,METAR,1575.0
KP52 090335Z AUTO 22007KT 10SM CLR 22/M06 A3001 RMK AO2,KP52,2023-06-09T03:35:00Z,34.73,-112.03,22.0,-6.0,220,7,,10.0,30.008858,,,TRUE,TRUE,,,,,,,CLR,,,,,,,,VFR,,,,,,,,,,,,METAR,1085.0
KP08 090335Z AUTO 00000KT 10SM CLR 28/M07 A2990 RMK AO2,KP08,2023-06-09T03:35:00Z,32.93,-111.43,28.0,-7.0,0,0,,10.0,29.899607,,,TRUE,TRUE,,,,,,,CLR,,,,,,,,VFR,,,,,,,,,,,,SPECI,477.0
KOZW 090335Z AUTO 03003KT 10SM OVC110 16/06 A2989 RMK AO2 T01630060,KOZW,2023-06-09T03:35:00Z,42.62,-83.98,16.3,6.0,30,3,,10.0,29.890747,,,TRUE,TRUE,,,,,,,OVC,11000,,,,,,,VFR,,,,,,,,,,,,METAR,288.0
KOZS 090335Z AUTO 08003KT 10SM BKN090 OVC120 17/13 A2990 RMK AO2,KOZS,2023-06-09T03:35:00Z,37.97,-92.68,17.0,13.0,80,3,,10.0,29.899607,,,TRUE,TRUE,,,,,,,BKN,9000,OVC,12000,,,,,VFR,,,,,,,,,,,,METAR,321.0
KOYM 090335Z AUTO 00000KT 10SM SCT050 BKN065 OVC080 11/08 A2986 RMK AO2 LTG DSNT S PWINO,KOYM,2023-06-09T03:35:00Z,41.42,-78.5,11.0,8.0,0,0,,10.0,29.861221,,,TRUE,TRUE,,,,,TRUE,,SCT,5000,BKN,6500,OVC,8000,,,VFR,,,,,,,,,,,,METAR,582.0
KOXV 090335Z AUTO 06003KT 10SM CLR 20/07 A2991 RMK AO2,KOXV,2023-06-09T03:35:00Z,41.28,-93.12,20.0,7.0,60,3,,10.0,29.911417,,,TRUE,TRUE,,,,,,,CLR,,,,,,,,VFR,,,,,,,,,,,,METAR,280.0
KOXI 090335Z AUTO 00000KT 10SM CLR 10/03 A2991 RMK AO1,KOXI,2023-06-09T03:35:00Z,41.33,-86.67,10.0,3.0,0,0,,10.0,29.911417,,,TRUE,TRUE,,,,,,,CLR,,,,,,,,VFR,,,,,,,,,,,,METAR,208.0
KOWP 090335Z AUTO 00000KT 10SM CLR 25/21 A2984 RMK AO2 T02510209,KOWP,2023-06-09T03:35:00Z,36.18,-96.15,25.1,20.9,0,0,,10.0,29.840551,,,TRUE,TRUE,,,,,,,CLR,,,,,,,,VFR,,,,,,,,,,,,METAR,267.0
KOWI 090335Z AUTO 08007KT 10SM OVC110 22/19 A2985 RMK AO2 PWINO,KOWI,2023-06-09T03:35:00Z,38.53,-95.25,22.0,19.0,80,7,,10.0,29.84941,,,TRUE,TRUE,,,,,TRUE,,OVC,11000,,,,,,,VFR,,,,,,,,,,,,SPECI,292.0
KOVL 090335Z AUTO 00000KT 10SM CLR 19/14 A2991 RMK AO2,KOVL,2023-06-09T03:35:00Z,44.78,-95.03,19.0,14.0,0,0,,10.0,29.911417,,,TRUE,TRUE,,,,,,,CLR,,,,,,,,VFR,,,,,,,,,,,,METAR,329.0
KOSC 090335Z AUTO 00000KT 10SM BKN085 13/07 A2989 RMK AO2 T01280065,KOSC,2023-06-09T03:35:00Z,44.45,-83.4,12.8,6.5,0,0,,10.0,29.890747,,,TRUE,TRUE,,,,,,,BKN,8500,,,,,,,VFR,,,,,,,,,,,,METAR,191.0
KOSA 090335Z AUTO 22005KT 10SM CLR 23/19 A2984 RMK AO2 T02350194,KOSA,2023-06-09T03:35:00Z,33.1,-94.97,23.5,19.4,220,5,,10.0,29.840551,,,TRUE,TRUE,,,,,,,CLR,,,,,,,,VFR,,,,,,,,,,,,METAR,108.0
KORS 090335Z AUTO 18015G22KT 10SM CLR 16/10 A2988 RMK AO2,KORS,2023-06-09T03:35:00Z,48.7,-122.92,16.0,10.0,180,15,22,10.0,29.878937,,,TRUE,TRUE,,,,,,,CLR,,,,,,,,VFR,,,,,,,,,,,,METAR,7.0
KORK 090335Z AUTO 00000KT 10SM SCT034 SCT050 OVC060 21/19 A2985 RMK AO2,KORK,2023-06-09T03:35:00Z,34.83,-92.25,21.0,19.0,0,0,,10.0,29.84941,,,TRUE,TRUE,,,,,,,SCT,3400,SCT,5000,OVC,6000,,,VFR,,,,,,,,,,,,METAR,166.0
KOQN 090335Z AUTO 34003KT 10SM CLR 17/07 A2978 RMK AO2 LTG DSNT SW,KOQN,2023-06-09T03:35:00Z,39.98,-75.58,17.0,7.0,340,3,,10.0,29.778543,,,TRUE,TRUE,,,,,,,CLR,,,,,,,,VFR,,,,,,,,,,,,SPECI,141.0
KOPL 090335Z AUTO 11006KT 10SM CLR 24/20 A2984 RMK AO2 T02360195,KOPL,2023-06-09T03:35:00Z,30.55,-92.1,23.6,19.5,110,6,,10.0,29.840551,,,TRUE,TRUE,,,,,,,CLR,,,,,,,,VFR,,,,,,,,,,,,METAR,22.0
KONZ 090335Z AUTO 05006KT 10SM OVC120 16/08 A2987 RMK AO2 T01610078,KONZ,2023-06-09T03:35:00Z,42.1,-83.15,16.1,7.8,50,6,,10.0,29.870079,,,TRUE,TRUE,,,,,,,OVC,12000,,,,,,,VFR,,,,,,,,,,,,METAR,179.0
KONP 090335Z AUTO 00000KT 10SM OVC013 12/10 A3009 RMK AO2,KONP,2023-06-09T03:35:00Z,44.57,-124.05,12.0,10.0,0,0,,10.0,30.088583,,,TRUE,TRUE,,,,,,,OVC,1300,,,,,,,MVFR,,,,,,,,,,,,METAR,43.0
KONM 090335Z AUTO 18003KT 10SM CLR 22/M07 A3001 RMK AO2 T02181071,KONM,2023-06-09T03:35:00Z,34.02,-106.9,21.8,-7.1,180,3,,10.0,30.008858,,,TRUE,TRUE,,,,,,,CLR,,,,,,,,VFR,,,,,,,,,,,,METAR,1467.0
KONA 090335Z AUTO 00000KT 10SM CLR 15/10 A2994 RMK AO2,KONA,2023-06-09T03:35:00Z,44.07,-91.7,15.0,10.0,0,0,,10.0,29.940945,,,TRUE,TRUE,,,,,,,CLR,,,,,,,,VFR,,,,,,,,,,,,METAR,200.0
KOMH 090335Z AUTO 00000KT 10SM CLR 15/07 A2982 RMK AO2,KOMH,2023-06-09T03:35:00Z,38.25,-78.05,15.0,7.0,0,0,,10.0,29.819881,,,TRUE,TRUE,,,,,,,CLR,,,,,,,,VFR,,,,,,,,,,,,METAR,136.0
KOLV 090335Z AUTO 00000KT 10SM FEW060 22/17 A2983 RMK A01,KOLV,2023-06-09T03:35:00Z,34.98,-89.78,22.0,17.0,0,0,,10.0,29.828741,,,TRUE,TRUE,,,,,,,FEW,6000,,,,,,,VFR,,,,,,,,,,,,METAR,124.0
KOLG 090335Z AUTO 00000KT 10SM CLR 10/01 A2996 RMK AO1,KOLG,2023-06-09T03:35:00Z,46.3,-91.82,10.0,1.0,0,0,,10.0,29.958662,,,TRUE,TRUE,,,,,,,CLR,,,,,,,,VFR,,,,,,,,,,,,SPECI,334.0
KOKV 090335Z AUTO 32003KT 10SM VCTS BKN120 16/06 A2981 RMK AO2,KOKV,2023-06-09T03:35:00Z,39.13,-78.15,16.0,6.0,320,3,,10.0,29.811024,,,TRUE,TRUE,,,,,,VCTS,BKN,12000,,,,,,,VFR,,,,,,,,,,,,METAR,213.0
KOJA 090335Z AUTO 00000KT 10SM CLR 23/18 A2986 RMK AO2 T02310181,KOJA,2023-06-09T03:35:00Z,35.55,-98.67,23.1,18.1,0,0,,10.0,29.861221,,,TRUE,TRUE,,,,,,,CLR,,,,,,,,VFR,,,,,,,,,,,,METAR,490.0
KOIN 090335Z AUTO 10003KT 10SM CLR 22/15 A2996 RMK AO1 T02160150,KOIN,2023-06-09T03:35:00Z,39.83,-100.53,21.6,15.0,100,3,,10.0,29.958662,,,TRUE,TRUE,,,,,,,CLR,,,,,,,,VFR,,,,,,,,,,,,METAR,810.0
KOIC 090335Z AUTO 00000KT 10SM SCT025 BKN030 OVC045 10/10 A2981 RMK AO2 T01000095,KOIC,2023-06-09T03:35:00Z,42.57,-75.52,10.0,9.5,0,0,,10.0,29.811024,,,TRUE,TRUE,,,,,,,SCT,2500,BKN,3000,OVC,4500,,,MVFR,,,,,,,,,,,,METAR,311.0
KOEO 090335Z AUTO 00000KT 10SM CLR 15/11 A2997 RMK AO2 T01530111,KOEO,2023-06-09T03:35:00Z,45.32,-92.7,15.3,11.1,0,0,,10.0,29.970472,,,TRUE,TRUE,,,,,,,CLR,,,,,,,,VFR,,,,,,,,,,,,METAR,269.0
KOEL 090335Z AUTO 16004KT 4SM HZ CLR 21/13 A2992 RMK AO1 T02050126,KOEL,2023-06-09T03:35:00Z,39.12,-100.82,20.5,12.6,160,4,,4.0,29.920275,,,TRUE,TRUE,,,,,,HZ,CLR,,,,,,,,MVFR,,,,,,,,,,,,SPECI,924.0
KOEB 090335Z AUTO 26004KT 10SM OVC100 13/04 A2988 RMK AO2 T01270044,KOEB,2023-06-09T03:35:00Z,41.92,-85.05,12.7,4.4,260,4,,10.0,29.878937,,,TRUE,TRUE,,,,,,,OVC,10000,,,,,,,VFR,,,,,,,,,,,,SPECI,291.0
KOCQ 090335Z AUTO 00000KT 10SM CLR 09/07 A2994 RMK AO1 T00890073,KOCQ,2023-06-09T03:35:00Z,44.87,-87.92,8.9,7.3,0,0,,10.0,29.940945,,,TRUE,TRUE,,,,,,,CLR,,,,,,,,VFR,,,,,,,,,,,,METAR,181.0
KOAR 090335Z AUTO 28008KT 10SM CLR 13/11 A3006 RMK AO2 PWINO,KOAR,2023-06-09T03:35:00Z,36.67,-121.77,13.0,11.0,280,8,,10.0,30.059055,,,TRUE,TRUE,,,,,TRUE,,CLR,,,,,,,,VFR,,,,,,,,,,,,METAR,41.0
KO69 090335Z AUTO 28007KT 10SM SCT017 13/10 A3005 RMK A01,KO69,2023-06-09T03:35:00Z,38.25,-122.6,13.0,10.0,280,7,,10.0,30.050198,,,TRUE,TRUE,,,,,,,SCT,1700,,,,,,,VFR,,,,,,,,,,,,METAR,26.0
KO32 090335Z AUTO 25004KT 7SM CLR 23/16 A2992 RMK AO2 T02310159 $,KO32,2023-06-09T03:35:00Z,36.67,-119.45,23.1,15.9,250,4,,7.0,29.920275,,,TRUE,TRUE,TRUE,,,,,,CLR,,,,,,,,VFR,,,,,,,,,,,,METAR,117.0
KO22 090335Z AUTO 28005KT 10SM BKN050 20/11 A3001 RMK A01,KO22,2023-06-09T03:35:00Z,38.03,-120.42,20.0,11.0,280,5,,10.0,30.008858,,,TRUE,TRUE,,,,,,,BKN,5000,,,,,,,VFR,,,,,,,,,,,,METAR,637.0
KNUQ 090335Z AUTO 32008G16KT 10SM CLR 16/11 A3004 RMK AO2,KNUQ,2023-06-09T03:35:00Z,37.4,-122.05,16.0,11.0,320,8,16,10.0,30.041338,,,TRUE,TRUE,,,,,,,CLR,,,,,,,,VFR,,,,,,,,,,,,METAR,9.0
KN79 090335Z AUTO 31003KT 9SM FEW050 SCT070 13/12 A2979 RMK AO2 RAB0251E0302 P0000 T01300115,KN79,2023-06-09T03:35:00Z,,,13.0,11.5,310,3,,9.0,29.790354,,,TRUE,TRUE,,,,,,,FEW,5000,SCT,7000,,,,,VFR,,,,,,0.005,,,,,,METAR,
KN38 090335Z AUTO 29006KT 4SM BR FEW036 SCT050 BKN060 09/09 A2981 RMK AO2,KN38,2023-06-09T03:35:00Z,41.73,-77.4,9.0,9.0,290,6,,4.0,29.811024,,,TRUE,TRUE,,,,,,BR,FEW,3600,SCT,5000,BKN,6000,,,MVFR,,,,,,,,,,,,METAR,576.0
KN03 090335Z AUTO 00000KT 7SM BKN050 OVC065 07/07 A2980 RMK AO2,KN03,2023-06-09T03:35:00Z,42.6,-76.22,7.0,7.0,0,0,,7.0,29.799213,,,TRUE,TRUE,,,,,,,BKN,5000,OVC,6500,,,,,VFR,,,,,,,,,,,,METAR,361.0
KMZJ 090335Z AUTO 27007KT 10SM FEW055 27/M07 A2993 RMK AO2,KMZJ,2023-06-09T03:35:00Z,32.52,-111.32,27.0,-7.0,270,7,,10.0,29.929134,,,TRUE,TRUE,,,,,,,FEW,5500,,,,,,,VFR,,,,,,,,,,,,METAR,574.0
KMZH 090335Z AUTO 00000KT 10SM CLR 12/04 A2996 RMK AO2,KMZH,2023-06-09T03:35:00Z,46.42,-92.8,12.0,4.0,0,0,,10.0,29.958662,,,TRUE,TRUE,,,,,,,CLR,,,,,,,,VFR,,,,,,,,,,,,SPECI,331.0
KMYJ 090335Z AUTO 00000KT 10SM CLR 13/12 A2990 RMK AO2,KMYJ,2023-06-09T03:35:00Z,39.15,-91.82,13.0,12.0,0,0,,10.0,29.899607,,,TRUE,TRUE,,,,,,,CLR,,,,,,,,VFR,,,,,,,,,,,,METAR,249.0
KMWO 090335Z AUTO 36003KT 10SM OVC090 13/08 A2986 RMK AO2 LTG DSNT E T01350075,KMWO,2023-06-09T03:35:00Z,39.53,-84.4,13.5,7.5,360,3,,10.0,29.861221,,,TRUE,TRUE,,,,,,,OVC,9000,,,,,,,VFR,,,,,,,,,,,,METAR,197.0
KMWM 090335Z AUTO 00000KT 10SM CLR 18/13 A2992 RMK AO2,KMWM,2023-06-09T03:35:00Z,43.9,-95.1,18.0,13.0,0,0,,10.0,29.920275,,,TRUE,TRUE,,,,,,,CLR,,,,,,,,VFR,,,,,,,,,,,,METAR,427.0
KMWC 090335Z AUTO 00000KT 10SM CLR 13/00 A2995 RMK AO2,KMWC,2023-06-09T03:35:00Z,43.12,-88.03,13.0,0.0,0,0,,10.0,29.949802,,,TRUE,TRUE,,,,,,,CLR,,,,,,,,VFR,,,,,,,,,,,,METAR,225.0
KMWA 090335Z AUTO 00000KT 10SM CLR 12/10 A2987 RMK AO2 T01230095,KMWA,2023-06-09T03:35:00Z,37.77,-89.02,12.3,9.5,0,0,,10.0,29.870079,,,TRUE,TRUE,,,,,,,CLR,,,,,,,,VFR,,,,,,,,,,,,METAR,142.0
KMVE 090335Z AUTO 00000KT 10SM CLR 20/17 A2991 RMK AO2,KMVE,2023-06-09T03:35:00Z,44.97,-95.72,20.0,17.0,0,0,,10.0,29.911417,,,TRUE,TRUE,,,,,,,CLR,,,,,,,,VFR,,,,,,,,,,,,METAR,319.0
KMTV 090335Z AUTO 00000KT 10SM CLR 10/05 A2987 RMK AO2 LTG DSNT NE T00990045,KMTV,2023-06-09T03:35:00Z,36.63,-80.02,9.9,4.5,0,0,,10.0,29.870079,,,TRUE,TRUE,,,,,,,CLR,,,,,,,,VFR,,,,,,,,,,,,SPECI,276.0
KMRJ 090335Z AUTO 10005KT 10SM CLR 19/M02 A2997 RMK AO2 PWINO,KMRJ,2023-06-09T03:35:00Z,42.88,-90.23,19.0,-2.0,100,5,,10.0,29.970472,,,TRUE,TRUE,,,,,TRUE,,CLR,,,,,,,,VFR,,,,,,,,,,,,METAR,350.0
KMRC 090335Z AUTO 00000KT 10SM CLR 17/16 A2982 RMK A01,KMRC,2023-06-09T03:35:00Z,35.55,-87.18,17.0,16.0,0,0,,10.0,29.819881,,,TRUE,TRUE,,,,,,,CLR,,,,,,,,VFR,,,,,,,,,,,,SPECI,205.0
KMQS 090335Z AUTO 00000KT 10SM CLR 16/08 A2979 RMK AO2,KMQS,2023-06-09T03:35:00Z,39.98,-75.87,16.0,8.0,0,0,,10.0,29.790354,,,TRUE,TRUE,,,,,,,CLR,,,,,,,,VFR,,,,,,,,,,,,METAR,200.0
KMQJ 090335Z AUTO 35005KT 10SM CLR 14/04 A2989 RMK AO1,KMQJ,2023-06-09T03:35:00Z,39.85,-85.9,14.0,4.0,350,5,,10.0,29.890747,,,TRUE,TRUE,,,,,,,CLR,,,,,,,,VFR,,,,,,,,,,,,METAR,262.0
KMPR 090335Z AUTO 18005KT 10SM CLR 25/15 A2983 RMK AO2 T02480154,KMPR,2023-06-09T03:35:00Z,38.35,-97.68,24.8,15.4,180,5,,10.0,29.828741,,,TRUE,TRUE,,,,,,,CLR,,,,,,,,VFR,,,,,,,,,,,,METAR,455.0
KMOX 090335Z AUTO 14005KT 10SM CLR 20/11 A2990 RMK AO2,KMOX,2023-06-09T03:35:00Z,45.57,-95.97,20.0,11.0,140,5,,10.0,29.899607,,,TRUE,TRUE,,,,,,,CLR,,,,,,,,VFR,,,,,,,,,,,,METAR,346.0
KMOP 090335Z AUTO 00000KT 10SM CLR 13/09 A2991 RMK AO2 T01300085,KMOP,2023-06-09T03:35:00Z,43.62,-84.73,13.0,8.5,0,0,,10.0,29.911417,,,TRUE,TRUE,,,,,,,CLR,,,,,,,,VFR,,,,,,,,,,,,METAR,229.0
KMNZ 090335Z AUTO 19005KT 10SM CLR 22/20 A2989 RMK AO2 T02180195,KMNZ,2023-06-09T03:35:00Z,31.67,-98.15,21.8,19.5,190,5,,10.0,29.890747,,,TRUE,TRUE,,,,,,,CLR,,,,,,,,VFR,,,,,,,,,,,,METAR,397.0
KMNI 090335Z AUTO 00000KT 10SM CLR 17/16 A2979 RMK AO2,KMNI,2023-06-09T03:35:00Z,33.58,-80.22,17.0,16.0,0,0,,10.0,29.790354,,,TRUE,TRUE,,,,,,,CLR,,,,,,,,VFR,,,,,,,,,,,,METAR,29.0
KMNH 090335Z AUTO 32014KT 10SM -TSRA BKN060 BKN070 OVC095 12/06 A3018 RMK AO2 LTG DSNT ALQS,KMNH,2023-06-09T03:35:00Z,39.22,-104.65,12.0,6.0,320,14,,10.0,30.180119,,,TRUE,TRUE,,,,,,-TSRA,BKN,6000,BKN,7000,OVC,9500,,,VFR,,,,,,,,,,,,METAR,2152.0
KMMU 090335Z AUTO 00000KT 10SM SCT090 OVC110 15/08 A2976 RMK AO2,KMMU,2023-06-09T03:35:00Z,40.78,-74.42,15.0,8.0,0,0,,10.0,29.760826,,,TRUE,TRUE,,,,,,,SCT,9000,OVC,11000,,,,,VFR,,,,,,,,,,,,SPECI,55.0
KMMI 090335Z AUTO 00000KT 10SM SCT060 BKN075 14/12 A2987 RMK A01,KMMI,2023-06-09T03:35:00Z,35.4,-84.57,14.0,12.0,0,0,,10.0,29.870079,,,TRUE,TRUE,,,,,,,SCT,6000,BKN,7500,,,,,VFR,,,,,,,,,,,,SPECI,252.0
KMMH 090335Z AUTO 32006KT 10SM BKN055 10/02 A3019 RMK AO2 T00990018,KMMH,2023-06-09T03:35:00Z,37.62,-118.83,9.9,1.8,320,6,,10.0,30.188976,,,TRUE,TRUE,,,,,,,BKN,5500,,,,,,,VFR,,,,,,,,,,,,METAR,2167.0
KMKS 090335Z AUTO 00000KT 10SM CLR 18/17 A2979 RMK AO2 LTG DSNT S,KMKS,2023-06-09T03:35:00Z,33.18,-80.03,18.0,17.0,0,0,,10.0,29.790354,,,TRUE,TRUE,,,,,,,CLR,,,,,,,,VFR,,,,,,,,,,,,METAR,22.0
KMKN 090335Z AUTO 17003KT 10SM 23/17 A2989 RMK AO2 T02250171,KMKN,2023-06-09T03:35:00Z,31.92,-98.6,22.5,17.1,170,3,,10.0,29.890747,,,TRUE,TRUE,,,,,,,,,,,,,,,,,,,,,,,,,,,METAR,428.0
KMKJ 090335Z AUTO 00000KT 10SM CLR 08/06 A2994 RMK AO2 T00780055,KMKJ,2023-06-09T03:35:00Z,36.88,-81.33,7.8,5.5,0,0,,10.0,29.940945,,,TRUE,TRUE,,,,,,,CLR,,,,,,,,VFR,,,,,,,,,,,,METAR,777.0
KMJQ 090335Z AUTO 00000KT 10SM CLR 18/12 A2993 RMK AO2 PWINO,KMJQ,2023-06-09T03:35:00Z,43.63,-94.98,18.0,12.0,0,0,,10.0,29.929134,,,TRUE,TRUE,,,,,TRUE,,CLR,,,,,,,,VFR,,,,,,,,,,,,METAR,439.0
KMJD 090335Z AUTO 00000KT 10SM CLR 23/23 A2982 RMK AO2,KMJD,2023-06-09T03:35:00Z,30.48,-89.65,23.0,23.0,0,0,,10.0,29.819881,,,TRUE,TRUE,,,,,,,CLR,,,,,,,,VFR,,,,,,,,,,,,SPECI,17.0
KMIO 090335Z AUTO 05004KT 10SM BKN100 24/20 A2981 RMK AO2,KMIO,2023-06-09T03:35:00Z,36.92,-94.88,24.0,20.0,50,4,,10.0,29.811024,,,TRUE,TRUE,,,,,,,BKN,10000,,,,,,,VFR,,,,,,,,,,,,SPECI,245.0
KMHR 090335Z AUTO 23012KT 10SM CLR 21/11 A2996 RMK AO2,KMHR,2023-06-09T03:35:00Z,38.55,-121.28,21.0,11.0,230,12,,10.0,29.958662,,,TRUE,TRUE,,,,,,,CLR,,,,,,,,VFR,,,,,,,,,,,,METAR,30.0
KMHL 090335Z AUTO 00000KT 10SM CLR 18/12 A2990 RMK AO2,KMHL,2023-06-09T03:35:00Z,39.1,-93.2,18.0,12.0,0,0,,10.0,29.899607,,,TRUE,TRUE,,,,,,,CLR,,,,,,,,VFR,,,,,,,,,,,,SPECI,236.0
KMGR 090335Z AUTO 26007KT 10SM FEW090 26/22 A2980 RMK AO2 T02640220,KMGR,2023-06-09T03:35:00Z,31.08,-83.8,26.4,22.0,260,7,,10.0,29.799213,,,TRUE,TRUE,,,,,,,FEW,9000,,,,,,,VFR,,,,,,,,,,,,METAR,86.0
KMGN 090335Z AUTO 00000KT 10SM SCT055 BKN080 12/07 A2992 RMK AO2 T01260080,KMGN,2023-06-09T03:35:00Z,45.43,-84.92,12.6,8.0,0,0,,10.0,29.920275,,,TRUE,TRUE,,,,,,,SCT,5500,BKN,8000,,,,,VFR,,,,,,,,,,,,METAR,205.0
KMGG 090335Z AUTO 07004KT 7SM CLR 18/09 A2993 RMK AO2 T01770089,KMGG,2023-06-09T03:35:00Z,45.23,-93.98,17.7,8.9,70,4,,7.0,29.929134,,,TRUE,TRUE,,,,,,,CLR,,,,,,,,VFR,,,,,,,,,,,,METAR,310.0
KMFV 090335Z AUTO 00000KT 5SM BR CLR 11/10 A2978 RMK AO2 LTG DSNT W T01050099,KMFV,2023-06-09T03:35:00Z,37.63,-75.77,10.5,9.9,0,0,,5.0,29.778543,,,TRUE,TRUE,,,,,,BR,CLR,,,,,,,,MVFR,,,,,,,,,,,,METAR,13.0
KMEZ 090335Z AUTO 00000KT 10SM CLR 22/19 A2987 RMK AO2 T02170189,KMEZ,2023-06-09T03:35:00Z,34.55,-94.2,21.7,18.9,0,0,,10.0,29.870079,,,TRUE,TRUE,,,,,,,CLR,,,,,,,,VFR,,,,,,,,,,,,METAR,320.0
KMEV 090335Z AUTO 32006KT 10SM CLR 13/09 A3008 RMK AO2,KMEV,2023-06-09T03:35:00Z,38.98,-119.75,13.0,9.0,320,6,,10.0,30.079725,,,TRUE,TRUE,,,,,,,CLR,,,,,,,,VFR,,,,,,,,,,,,SPECI,1437.0
KMDZ 090335Z AUTO 00000KT 10SM CLR 11/06 A2995 RMK AO2 T01050055 PWINO,KMDZ,2023-06-09T03:35:00Z,45.1,-90.3,10.5,5.5,0,0,,10.0,29.949802,,,TRUE,TRUE,,,,,TRUE,,CLR,,,,,,,,VFR,,,,,,,,,,,,METAR,446.0
KMDS 090335Z AUTO 13011KT 10SM CLR 22/20 A2989 RMK AO2,KMDS,2023-06-09T03:35:00Z,44.02,-97.08,22.0,20.0,130,11,,10.0,29.890747,,,TRUE,TRUE,,,,,,,CLR,,,,,,,,VFR,,,,,,,,,,,,METAR,524.0
KMCJ 090335Z AUTO 22004KT 10SM FEW048 23/18 A2984 RMK A01,KMCJ,2023-06-09T03:35:00Z,29.72,-95.4,23.0,18.0,220,4,,10.0,29.840551,,,TRUE,TRUE,,,,,,,FEW,4800,,,,,,,VFR,,,,,,,,,,,,METAR,70.0
KMCD 090335Z AUTO 35005KT 10SM CLR 11/05 A2992 RMK AO2 T01110046,KMCD,2023-06-09T03:35:00Z,45.85,-84.63,11.1,4.6,350,5,,10.0,29.920275,,,TRUE,TRUE,,,,,,,CLR,,,,,,,,VFR,,,,,,,,,,,,METAR,228.0
KMCC 090335Z AUTO 22009G18KT 10SM CLR 21/11 A2995 RMK AO2,KMCC,2023-06-09T03:35:00Z,38.67,-121.4,21.0,11.0,220,9,18,10.0,29.949802,,,TRUE,TRUE,,,,,,,CLR,,,,,,,,VFR,,,,,,,,,,,,METAR,21.0
KMBY 090335Z AUTO 00000KT 10SM CLR 15/08 A2991 RMK AO2,KMBY,2023-06-09T03:35:00Z,39.47,-92.43,15.0,8.0,0,0,,10.0,29.911417,,,TRUE,TRUE,,,,,,,CLR,,,,,,,,VFR,,,,,,,,,,,,METAR,263.0
KMBT 090335Z AUTO 00000KT 10SM SCT045 BKN060 BKN070 18/10 A2982 RMK A01,KMBT,2023-06-09T03:35:00Z,35.88,-86.38,18.0,10.0,0,0,,10.0,29.819881,,,TRUE,TRUE,,,,,,,SCT,4500,BKN,6000,BKN,7000,,,VFR,,,,,,,,,,,,SPECI,187.0
KMAW 090335Z AUTO 02004KT 10SM CLR 23/09 A2985 RMK AO1,KMAW,2023-06-09T03:35:00Z,36.6,-90.0,23.0,9.0,20,4,,10.0,29.84941,,,TRUE,TRUE,,,,,,,CLR,,,,,,,,VFR,,,,,,,,,,,,SPECI,88.0
KMAO 090335Z AUTO 00000KT 10SM SCT100 16/16 A2980 RMK AO2 LTG DSNT N,KMAO,2023-06-09T03:35:00Z,34.18,-79.33,16.0,16.0,0,0,,10.0,29.799213,,,TRUE,TRUE,,,,,,,SCT,10000,,,,,,,VFR,,,,,,,,,,,,METAR,27.0
KMAN 090335Z AUTO 18003KT 10SM CLR 17/14 A2992 RMK A01,KMAN,2023-06-09T03:35:00Z,43.58,-116.52,17.0,14.0,180,3,,10.0,29.920275,,,TRUE,TRUE,,,,,,,CLR,,,,,,,,VFR,,,,,,,,,,,,METAR,773.0
KM75 090335Z AUTO 04008KT 10SM CLR 23/18 A2991 RMK A01,KM75,2023-06-09T03:35:00Z,48.37,-107.92,23.0,18.0,40,8,,10.0,29.911417,,,TRUE,TRUE,,,,,,,CLR,,,,,,,,VFR,,,,,,,,,,,,SPECI,687.0
KM54 090335Z AUTO 00000KT 10SM SCT045 BKN055 OVC070 16/11 A2982 RMK A01,KM54,2023-06-09T03:35:00Z,36.18,-86.32,16.0,11.0,0,0,,10.0,29.819881,,,TRUE,TRUE,,,,,,,SCT,4500,BKN,5500,OVC,7000,,,VFR,,,,,,,,,,,,SPECI,168.0
KM40 090335Z AUTO 00000KT 2SM BR FEW003 20/21 A2984 RMK AO2,KM40,2023-06-09T03:35:00Z,33.87,-88.48,20.0,21.0,0,0,,2.0,29.840551,,,TRUE,TRUE,,,,,,BR,FEW,300,,,,,,,IFR,,,,,,,,,,,,METAR,68.0
KM30 090335Z AUTO 00000KT 10SM CLR 15/09 A2986 RMK AO2 T01460090,KM30,2023-06-09T03:35:00Z,37.18,-88.75,14.6,9.0,0,0,,10.0,29.861221,,,TRUE,TRUE,,,,,,,CLR,,,,,,,,VFR,,,,,,,,,,,,SPECI,116.0
KM25 090335Z AUTO 00000KT 10SM CLR 17/10 A2985 RMK AO2 PWINO,KM25,2023-06-09T03:35:00Z,36.77,-88.58,17.0,10.0,0,0,,10.0,29.84941,,,TRUE,TRUE,,,,,TRUE,,CLR,,,,,,,,VFR,,,,,,,,,,,,METAR,157.0
KM21 090335Z AUTO 00000KT 10SM CLR 15/10 A2985 RMK AO2 T01450098,KM21,2023-06-09T03:35:00Z,37.22,-87.15,14.5,9.8,0,0,,10.0,29.84941,,,TRUE,TRUE,,,,,,,CLR,,,,,,,,VFR,,,,,,,,,,,,METAR,127.0
KM08 090335Z AUTO 00000KT 10SM FEW048 OVC060 18/17 A2982 RMK A01,KM08,2023-06-09T03:35:00Z,35.22,-89.05,18.0,17.0,0,0,,10.0,29.819881,,,TRUE,TRUE,,,,,,,FEW,4800,OVC,6000,,,,,VFR,,,,,,,,,,,,SPECI,149.0
KM04 090335Z AUTO 06004KT 10SM 22/14 A2982 RMK A01,KM04,2023-06-09T03:35:00Z,35.58,-89.58,22.0,14.0,60,4,,10.0,29.819881,,,TRUE,TRUE,,,,,,,,,,,,,,,,,,,,,,,,,,,SPECI,83.0
KM02 090335Z AUTO 00000KT 10SM FEW034 SCT046 OVC050 18/09 A2984 RMK A01,KM02,2023-06-09T03:35:00Z,36.13,-87.43,18.0,9.0,0,0,,10.0,29.840551,,,TRUE,TRUE,,,,,,,FEW,3400,SCT,4600,OVC,5000,,,VFR,,,,,,,,,,,,SPECI,268.0
KM01 090335Z AUTO 30003KT 10SM CLR 22/21 A2980 RMK AO2 T02180209 $,KM01,2023-06-09T03:35:00Z,35.2,-90.05,21.8,20.9,300,3,,10.0,29.799213,,,TRUE,TRUE,TRUE,,,,,,CLR,,,,,,,,VFR,,,,,,,,,,,,METAR,68.0
KLYV 090335Z AUTO 13007KT 10SM CLR 20/15 A2990 RMK AO2,KLYV,2023-06-09T03:35:00Z,43.62,-96.22,20.0,15.0,130,7,,10.0,29.899607,,,TRUE,TRUE,,,,,,,CLR,,,,,,,,VFR,,,,,,,,,,,,METAR,435.0
KLXY 090335Z AUTO 00000KT 10SM CLR 21/21 A2984 RMK AO2 T02120209,KLXY,2023-06-09T03:35:00Z,31.63,-96.52,21.2,20.9,0,0,,10.0,29.840551,,,TRUE,TRUE,,,,,,,CLR,,,,,,,,VFR,,,,,,,,,,,,METAR,164.0
KLXL 090335Z AUTO 11005KT 10SM CLR 18/08 A2992 RMK AO2,KLXL,2023-06-09T03:35:00Z,45.95,-94.33,18.0,8.0,110,5,,10.0,29.920275,,,TRUE,TRUE,,,,,,,CLR,,,,,,,,VFR,,,,,,,,,,,,METAR,335.0
KLWB 090335Z AUTO 00000KT 10SM VCTS CLR 09/05 A2989 RMK AO2 T00900048,KLWB,2023-06-09T03:35:00Z,37.87,-80.4,9.0,4.8,0,0,,10.0,29.890747,,,TRUE,TRUE,,,,,,VCTS,CLR,,,,,,,,VFR,,,,,,,,,,,,METAR,702.0
KLWA 090335Z AUTO 00000KT 10SM CLR 10/09 A2989 RMK AO2 T00980091,KLWA,2023-06-09T03:35:00Z,42.35,-86.25,9.8,9.1,0,0,,10.0,29.890747,,,TRUE,TRUE,,,,,,,CLR,,,,,,,,VFR,,,,,,,,,,,,METAR,199.0
KLVN 090335Z AUTO 00000KT 7SM CLR 19/07 A2993 RMK AO2,KLVN,2023-06-09T03:35:00Z,44.63,-93.23,19.0,7.0,0,0,,7.0,29.929134,,,TRUE,TRUE,,,,,,,CLR,,,,,,,,VFR,,,,,,,,,,,,METAR,292.0
KLVL 090335Z AUTO 00000KT 7SM SCT100 BKN120 16/14 A2981 RMK AO1 T01570141,KLVL,2023-06-09T03:35:00Z,36.78,-77.8,15.7,14.1,0,0,,7.0,29.811024,,,TRUE,TRUE,,,,,,,SCT,10000,BKN,12000,,,,,VFR,,,,,,,,,,,,METAR,98.0
KLUX 090335Z AUTO 03004KT 10SM OVC065 19/13 A2983 RMK AO2 LTG DSNT NE,KLUX,2023-06-09T03:35:00Z,34.5,-81.95,19.0,13.0,30,4,,10.0,29.828741,,,TRUE,TRUE,,,,,,,OVC,6500,,,,,,,VFR,,,,,,,,,,,,METAR,213.0
KLUM 090335Z 00000KT 10SM CLR 18/01 A2995 RMK AO2 T01820008 PWINO,KLUM,2023-06-09T03:35:00Z,44.9,-91.87,18.2,0.8,0,0,,10.0,29.949802,,,,TRUE,,,,,TRUE,,CLR,,,,,,,,VFR,,,,,,,,,,,,METAR,271.0
KLUL 090335Z AUTO 29003KT 10SM SCT070 SCT085 23/20 A2983 RMK A02 T02330196,KLUL,2023-06-09T03:35:00Z,31.67,-89.17,23.3,19.6,290,3,,10.0,29.828741,,,TRUE,TRUE,,,,,,,SCT,7000,SCT,8500,,,,,VFR,,,,,,,,,,,,SPECI,74.0
KLUG 090335Z AUTO 00000KT 10SM CLR 15/13 A2983 RMK A01,KLUG,2023-06-09T03:35:00Z,35.52,-86.8,15.0,13.0,0,0,,10.0,29.828741,,,TRUE,TRUE,,,,,,,CLR,,,,,,,,VFR,,,,,,,,,,,,SPECI,218.0
KLUD 090335Z AUTO 19007KT 7SM CLR 25/18 A2984 RMK AO2 T02500183,KLUD,2023-06-09T03:35:00Z,33.25,-97.58,25.0,18.3,190,7,,7.0,29.840551,,,TRUE,TRUE,,,,,,,CLR,,,,,,,,VFR,,,,,,,,,,,,METAR,319.0
KLUA 090335Z AUTO 00000KT 10SM VCTS SCT120 16/05 A2983 RMK AO2 LTG DSNT SE,KLUA,2023-06-09T03:35:00Z,38.67,-78.5,16.0,5.0,0,0,,10.0,29.828741,,,TRUE,TRUE,,,,,,VCTS,SCT,12000,,,,,,,VFR,,,,,,,,,,,,METAR,273.0
KLRY 090335Z AUTO 10003KT 10SM OVC042 20/14 A2990 RMK AO2 PWINO,KLRY,2023-06-09T03:35:00Z,38.62,-94.35,20.0,14.0,100,3,,10.0,29.899607,,,TRUE,TRUE,,,,,TRUE,,OVC,4200,,,,,,,VFR,,,,,,,,,,,,SPECI,272.0
KLRU 090335Z AUTO 26008KT 10SM CLR 25/M06 A3003 RMK AO2 T02451057,KLRU,2023-06-09T03:35:00Z,32.28,-106.92,24.5,-5.7,260,8,,10.0,30.029528,,,TRUE,TRUE,,,,,,,CLR,,,,,,,,VFR,,,,,,,,,,,,METAR,1355.0
KLRO 090335Z AUTO 00000KT 5SM BR BKN070 OVC085 21/21 A2979 RMK AO2 LTG DSNT N AND SE,KLRO,2023-06-09T03:35:00Z,32.9,-79.78,21.0,21.0,0,0,,5.0,29.790354,,,TRUE,TRUE,,,,,,BR,BKN,7000,OVC,8500,,,,,MVFR,,,,,,,,,,,,METAR,3.0
KLQK 090335Z AUTO 06003KT 10SM BKN075 19/09 A2985 RMK AO2 T01880087,KLQK,2023-06-09T03:35:00Z,34.82,-82.7,18.8,8.7,60,3,,10.0,29.84941,,,TRUE,TRUE,,,,,,,BKN,7500,,,,,,,VFR,,,,,,,,,,,,SPECI,291.0
KLNP 090335Z AUTO 00000KT 10SM CLR 11/06 A2993 RMK AO2 LTG DSNT NE,KLNP,2023-06-09T03:35:00Z,36.98,-82.52,11.0,6.0,0,0,,10.0,29.929134,,,TRUE,TRUE,,,,,,,CLR,,,,,,,,VFR,,,,,,,,,,,,METAR,817.0
KLNL 090335Z AUTO 00000KT 10SM CLR 06/04 A2999 RMK AO2 T00640043,KLNL,2023-06-09T03:35:00Z,46.15,-89.22,6.4,4.3,0,0,,10.0,29.991142,,,TRUE,TRUE,,,,,,,CLR,,,,,,,,VFR,,,,,,,,,,,,METAR,517.0
KLNC 090335Z AUTO 00000KT 10SM CLR 21/20 A2984 RMK AO2 T02070195,KLNC,2023-06-09T03:35:00Z,32.58,-96.72,20.7,19.5,0,0,,10.0,29.840551,,,TRUE,TRUE,,,,,,,CLR,,,,,,,,VFR,,,,,,,,,,,,METAR,152.0
KLMS 090335Z AUTO 00000KT 10SM FEW120 21/19 A2986 RMK AO2,KLMS,2023-06-09T03:35:00Z,,,21.0,19.0,0,0,,10.0,29.861221,,,TRUE,TRUE,,,,,,,FEW,12000,,,,,,,VFR,,,,,,,,,,,,SPECI,
KLMO 090335Z AUTO 17007KT 10SM BKN070 BKN090 BKN120 20/12 A3008 RMK AO2 T01950118,KLMO,2023-06-09T03:35:00Z,40.17,-105.17,19.5,11.8,170,7,,10.0,30.079725,,,TRUE,TRUE,,,,,,,BKN,7000,BKN,9000,BKN,12000,,,VFR,,,,,,,,,,,,METAR,1535.0
KLKU 090335Z AUTO 00000KT 10SM TS OVC090 15/10 A2981 RMK AO2 LTG DSNT S AND SW T01470104,KLKU,2023-06-09T03:35:00Z,38.02,-77.97,14.7,10.4,0,0,,10.0,29.811024,,,TRUE,TRUE,,,,,,TS,OVC,9000,,,,,,,VFR,,,,,,,,,,,,METAR,146.0
KLKR 090335Z AUTO 00000KT 10SM OVC090 16/13 A2983 RMK AO2,KLKR,2023-06-09T03:35:00Z,34.72,-80.85,16.0,13.0,0,0,,10.0,29.828741,,,TRUE,TRUE,,,,,,,OVC,9000,,,,,,,VFR,,,,,,,,,,,,METAR,166.0
KLJF 090335Z AUTO 00000KT 10SM CLR 18/06 A2992 RMK AO2,KLJF,2023-06-09T03:35:00Z,45.1,-94.52,18.0,6.0,0,0,,10.0,29.920275,,,TRUE,TRUE,,,,,,,CLR,,,,,,,,VFR,,,,,,,,,,,,METAR,347.0
KLHM 090335Z AUTO 18007KT 10SM CLR 22/11 A2995 RMK AO1,KLHM,2023-06-09T03:35:00Z,38.92,-121.35,22.0,11.0,180,7,,10.0,29.949802,,,TRUE,TRUE,,,,,,,CLR,,,,,,,,VFR,,,,,,,,,,,,METAR,36.0
KLHB 090335Z AUTO 00000KT 10SM CLR 22/21 A2986 RMK AO2 T02200207,KLHB,2023-06-09T03:35:00Z,30.87,-96.62,22.0,20.7,0,0,,10.0,29.861221,,,TRUE,TRUE,,,,,,,CLR,,,,,,,,VFR,,,,,,,,,,,,METAR,83.0
KLDM 090335Z AUTO 04003KT 10SM CLR 14/03 A2991 RMK AO2 T01350025,KLDM,2023-06-09T03:35:00Z,43.97,-86.4,13.5,2.5,40,3,,10.0,29.911417,,,TRUE,TRUE,,,,,,,CLR,,,,,,,,VFR,,,,,,,,,,,,METAR,194.0
KLCG 090335Z AUTO 12008KT 10SM CLR 22/17 A2988 RMK AO2 T02220170,KLCG,2023-06-09T03:35:00Z,42.25,-96.98,22.2,17.0,120,8,,10.0,29.878937,,,TRUE,TRUE,,,,,,,CLR,,,,,,,,VFR,,,,,,,,,,,,SPECI,434.0
KLBO 090335Z AUTO 09004KT 10SM SCT055 SCT100 18/12 A2991 RMK AO2,KLBO,2023-06-09T03:35:00Z,37.65,-92.65,18.0,12.0,90,4,,10.0,29.911417,,,TRUE,TRUE,,,,,,,SCT,5500,SCT,10000,,,,,VFR,,,,,,,,,,,,METAR,399.0
KLBE 090335Z AUTO 00000KT 9SM SCT080 SCT100 SCT120 11/11 A2983 RMK AO2,KLBE,2023-06-09T03:35:00Z,40.27,-79.4,11.0,11.0,0,0,,9.0,29.828741,,,TRUE,TRUE,,,,,,,SCT,8000,SCT,10000,SCT,12000,,,VFR,,,,,,,,,,,,METAR,345.0
KL35 090335Z AUTO 30008KT 10SM CLR 11/M03 A3018 RMK AO2,KL35,2023-06-09T03:35:00Z,34.27,-116.85,11.0,-3.0,300,8,,10.0,30.180119,,,TRUE,TRUE,,,,,,,CLR,,,,,,,,VFR,,,,,,,,,,,,METAR,2062.0
KL18 090335Z AUTO 19003KT 10SM CLR 15/13 A3003 RMK AO2,KL18,2023-06-09T03:35:00Z,33.35,-117.25,15.0,13.0,190,3,,10.0,30.029528,,,TRUE,TRUE,,,,,,,CLR,,,,,,,,VFR,,,,,,,,,,,,SPECI,215.0
KL08 090335Z AUTO 33012KT 10SM CLR 28/09 A2985 RMK AO2,KL08,2023-06-09T03:35:00Z,33.27,-116.32,28.0,9.0,330,12,,10.0,29.84941,,,TRUE,TRUE,,,,,,,CLR,,,,,,,,VFR,,,,,,,,,,,,METAR,156.0
KKY8 090335Z AUTO 00000KT 10SM CLR 16/13 A2986 RMK A01,KKY8,2023-06-09T03:35:00Z,37.95,-86.87,16.0,13.0,0,0,,10.0,29.861221,,,TRUE,TRUE,,,,,,,CLR,,,,,,,,VFR,,,,,,,,,,,,METAR,124.0
KKNB 090335Z AUTO 28006KT 10SM BKN110 20/M01 A3006 RMK A01,KKNB,2023-06-09T03:35:00Z,37.02,-112.53,20.0,-1.0,280,6,,10.0,30.059055,,,TRUE,TRUE,,,,,,,BKN,11000,,,,,,,VFR,,,,,,,,,,,,METAR,1476.0
KK88 090335Z AUTO 00000KT 10SM SCT110 22/19 A2986 RMK AO1 T02180186,KK88,2023-06-09T03:35:00Z,37.87,-95.38,21.8,18.6,0,0,,10.0,29.861221,,,TRUE,TRUE,,,,,,,SCT,11000,,,,,,,VFR,,,,,,,,,,,,SPECI,308.0
KK70 090335Z AUTO VRB06KT 10SM FEW065 SCT075 BKN085 25/23 A2985 RMK AO2,KK70,2023-06-09T03:35:00Z,25.32,-80.28,25.0,23.0,0,6,,10.0,29.84941,,,TRUE,TRUE,,,,,,,FEW,6500,SCT,7500,BKN,8500,,,VFR,,,,,,,,,,,,SPECI,20.0
KJZI 090335Z AUTO 00000KT 10SM SCT050 BKN080 OVC095 22/21 A2979 RMK AO2 LTG DSNT N AND SE,KJZI,2023-06-09T03:35:00Z,32.7,-80.0,22.0,21.0,0,0,,10.0,29.790354,,,TRUE,TRUE,,,,,,,SCT,5000,BKN,8000,OVC,9500,,,VFR,,,,,,,,,,,,METAR,5.0
KJYO 090335Z AUTO 34004KT 10SM VCTS SCT110 17/08 A2981 RMK AO2 LTG DSNT SW,KJYO,2023-06-09T03:35:00Z,39.07,-77.57,17.0,8.0,340,4,,10.0,29.811024,,,TRUE,TRUE,,,,,,VCTS,SCT,11000,,,,,,,VFR,,,,,,,,,,,,METAR,112.0
KJYM 090335Z AUTO 30003KT 10SM SCT090 BKN110 15/04 A2987 RMK AO2 T01450040,KJYM,2023-06-09T03:35:00Z,41.92,-84.58,14.5,4.0,300,3,,10.0,29.870079,,,TRUE,TRUE,,,,,,,SCT,9000,BKN,11000,,,,,VFR,,,,,,,,,,,,METAR,357.0
KJYG 090335Z AUTO 00000KT 10SM CLR 19/14 A2991 RMK AO2 TSNO,KJYG,2023-06-09T03:35:00Z,43.98,-94.55,19.0,14.0,0,0,,10.0,29.911417,,,TRUE,TRUE,,,TRUE,,,,CLR,,,,,,,,VFR,,,,,,,,,,,,METAR,323.0
KJWY 090335Z AUTO 00000KT 10SM CLR 21/20 A2986 RMK AO2 T02070196,KJWY,2023-06-09T03:35:00Z,32.45,-96.92,20.7,19.6,0,0,,10.0,29.861221,,,TRUE,TRUE,,,,,,,CLR,,,,,,,,VFR,,,,,,,,,,,,METAR,211.0
KJWN 090335Z AUTO 00000KT 10SM BKN060 17/09 A2982 RMK AO2,KJWN,2023-06-09T03:35:00Z,36.18,-86.88,17.0,9.0,0,0,,10.0,29.819881,,,TRUE,TRUE,,,,,,,BKN,6000,,,,,,,VFR,,,,,,,,,,,,SPECI,149.0
KJWG 090335Z AUTO 00000KT 10SM CLR 22/18 A2988 RMK AO2 T02220184,KJWG,2023-06-09T03:35:00Z,35.87,-98.42,22.2,18.4,0,0,,10.0,29.878937,,,TRUE,TRUE,,,,,,,CLR,,,,,,,,VFR,,,,,,,,,,,,SPECI,469.0
KJVY 090335Z AUTO 00000KT 10SM CLR 13/12 A2985 RMK AO2 PWINO,KJVY,2023-06-09T03:35:00Z,38.37,-85.73,13.0,12.0,0,0,,10.0,29.84941,,,TRUE,TRUE,,,,,TRUE,,CLR,,,,,,,,VFR,,,,,,,,,,,,SPECI,141.0
KJVW 090335Z AUTO 00000KT 10SM CLR 23/23 A2982 RMK AO2,KJVW,2023-06-09T03:35:00Z,32.3,-90.42,23.0,23.0,0,0,,10.0,29.819881,,,TRUE,TRUE,,,,,,,CLR,,,,,,,,VFR,,,,,,,,,,,,SPECI,73.0
KJTC 090335Z AUTO 09005KT 10SM CLR 18/M05 A3020 RMK AO2,KJTC,2023-06-09T03:35:00Z,34.13,-109.32,18.0,-5.0,90,5,,10.0,30.200787,,,TRUE,TRUE,,,,,,,CLR,,,,,,,,VFR,,,,,,,,,,,,SPECI,2148.0
KJSO 090335Z AUTO 00000KT 10SM CLR 22/19 A2987 RMK AO2 T02210187 TSNO,KJSO,2023-06-09T03:35:00Z,31.87,-95.22,22.1,18.7,0,0,,10.0,29.870079,,,TRUE,TRUE,,,TRUE,,,,CLR,,,,,,,,VFR,,,,,,,,,,,,METAR,204.0
KJOT 090335Z AUTO 00000KT 10SM CLR 13/06 A2993 RMK AO2 T01310060,KJOT,2023-06-09T03:35:00Z,41.52,-88.18,13.1,6.0,0,0,,10.0,29.929134,,,TRUE,TRUE,,,,,,,CLR,,,,,,,,VFR,,,,,,,,,,,,SPECI,175.0
KJMR 090335Z AUTO 00000KT 10SM CLR 14/08 A2999 RMK AO2,KJMR,2023-06-09T03:35:00Z,45.88,-93.27,14.0,8.0,0,0,,10.0,29.991142,,,TRUE,TRUE,,,,,,,CLR,,,,,,,,VFR,,,,,,,,,,,,METAR,301.0
KJKJ 090335Z AUTO 12003KT 10SM CLR 22/15 A2988 RMK AO2 TSNO,KJKJ,2023-06-09T03:35:00Z,46.83,-96.67,22.0,15.0,120,3,,10.0,29.878937,,,TRUE,TRUE,,,TRUE,,,,CLR,,,,,,,,VFR,,,,,,,,,,,,METAR,280.0
KJHN 090335Z AUTO 17005KT 10SM CLR 21/14 A2995 RMK AO2 T02100140,KJHN,2023-06-09T03:35:00Z,37.58,-101.73,21.0,14.0,170,5,,10.0,29.949802,,,TRUE,TRUE,,,,,,,CLR,,,,,,,,VFR,,,,,,,,,,,,SPECI,1013.0
KJFZ 090335Z AUTO 00000KT 10SM CLR 12/06 A2992 RMK AO2 LTG DSNT E T01200060,KJFZ,2023-06-09T03:35:00Z,37.07,-81.8,12.0,6.0,0,0,,10.0,29.920275,,,TRUE,TRUE,,,,,,,CLR,,,,,,,,VFR,,,,,,,,,,,,SPECI,809.0
KJFX 090335Z AUTO 00000KT 10SM CLR 19/18 A2982 RMK AO2,KJFX,2023-06-09T03:35:00Z,33.9,-87.32,19.0,18.0,0,0,,10.0,29.819881,,,TRUE,TRUE,,,,,,,CLR,,,,,,,,VFR,,,,,,,,,,,,METAR,144.0
KJAQ 090335Z AUTO 30007KT 10SM CLR 19/10 A3002 RMK AO1 T01920103,KJAQ,2023-06-09T03:35:00Z,38.37,-120.8,19.2,10.3,300,7,,10.0,30.02067,,,TRUE,TRUE,,,,,,,CLR,,,,,,,,VFR,,,,,,,,,,,,METAR,518.0
KIYA 090335Z AUTO 00000KT 7SM CLR 24/17 A2984 RMK AO2 LTG DSNT SE AND SW T02410170,KIYA,2023-06-09T03:35:00Z,29.98,-92.08,24.1,17.0,0,0,,7.0,29.840551,,,TRUE,TRUE,,,,,,,CLR,,,,,,,,VFR,,,,,,,,,,,,SPECI,4.0
KIUA 090335Z AUTO 00000KT 10SM BKN060 OVC085 12/08 A2980 RMK AO2 T01150080,KIUA,2023-06-09T03:35:00Z,42.92,-77.33,11.5,8.0,0,0,,10.0,29.799213,,,TRUE,TRUE,,,,,,,BKN,6000,OVC,8500,,,,,VFR,,,,,,,,,,,,SPECI,248.0
KISQ 090335Z AUTO 00000KT 10SM CLR 10/01 A2994 RMK AO2 T01010010,KISQ,2023-06-09T03:35:00Z,45.97,-86.17,10.1,1.0,0,0,,10.0,29.940945,,,TRUE,TRUE,,,,,,,CLR,,,,,,,,VFR,,,,,,,,,,,,METAR,206.0
KIRS 090335Z AUTO 00000KT 10SM CLR 14/M01 A2988 RMK AO2 T01351008,KIRS,2023-06-09T03:35:00Z,41.8,-85.43,13.5,-0.8,0,0,,10.0,29.878937,,,TRUE,TRUE,,,,,,,CLR,,,,,,,,VFR,,,,,,,,,,,,SPECI,282.0
KIOB 090335Z AUTO 00000KT 10SM CLR 11/09 A2989 RMK AO2 PWINO,KIOB,2023-06-09T03:35:00Z,38.05,-83.98,11.0,9.0,0,0,,10.0,29.890747,,,TRUE,TRUE,,,,,TRUE,,CLR,,,,,,,,VFR,,,,,,,,,,,,SPECI,301.0
KINJ 090335Z AUTO 00000KT 10SM CLR 20/20 A2983 RMK AO2 T02000195,KINJ,2023-06-09T03:35:00Z,32.08,-97.1,20.0,19.5,0,0,,10.0,29.828741,,,TRUE,TRUE,,,,,,,CLR,,,,,,,,VFR,,,,,,,,,,,,METAR,208.0
KINF 090335Z AUTO 00000KT 7SM CLR 22/22 A2984 RMK AO2,KINF,2023-06-09T03:35:00Z,28.8,-82.32,22.0,22.0,0,0,,7.0,29.840551,,,TRUE,TRUE,,,,,,,CLR,,,,,,,,VFR,,,,,,,,,,,,METAR,14.0
KIMS 090335Z AUTO 00000KT 10SM CLR 13/11 A2988 RMK AO2,KIMS,2023-06-09T03:35:00Z,38.75,-85.47,13.0,11.0,0,0,,10.0,29.878937,,,TRUE,TRUE,,,,,,,CLR,,,,,,,,VFR,,,,,,,,,,,,SPECI,244.0
KIKW 090335Z AUTO 35003KT 10SM SCT085 11/09 A2991 RMK AO2 T01080087,KIKW,2023-06-09T03:35:00Z,43.67,-84.27,10.8,8.7,350,3,,10.0,29.911417,,,TRUE,TRUE,,,,,,,SCT,8500,,,,,,,VFR,,,,,,,,,,,,METAR,190.0
KIGQ 090335Z AUTO 00000KT 10SM CLR 12/06 A2992 RMK AO2 T01160055,KIGQ,2023-06-09T03:35:00Z,41.53,-87.53,11.6,5.5,0,0,,10.0,29.920275,,,TRUE,TRUE,,,,,,,CLR,,,,,,,,VFR,,,,,,,,,,,,SPECI,187.0
KIFP 090335Z AUTO 17010KT 10SM CLR 32/01 A2981 RMK AO2,KIFP,2023-06-09T03:35:00Z,35.15,-114.57,32.0,1.0,170,10,,10.0,29.811024,,,TRUE,TRUE,,,,,,,CLR,,,,,,,,VFR,,,,,,,,,,,,SPECI,210.0
KIFA 090335Z AUTO 00000KT 10SM CLR 18/12 A2994 RMK AO2 T01760124,KIFA,2023-06-09T03:35:00Z,42.47,-93.27,17.6,12.4,0,0,,10.0,29.940945,,,TRUE,TRUE,,,,,,,CLR,,,,,,,,VFR,,,,,,,,,,,,SPECI,344.0
KIDI 090335Z AUTO 00000KT 10SM SCT055 BKN075 OVC110 13/09 A2986 RMK A01,KIDI,2023-06-09T03:35:00Z,40.63,-79.1,13.0,9.0,0,0,,10.0,29.861221,,,TRUE,TRUE,,,,,,,SCT,5500,BKN,7500,OVC,11000,,,VFR,,,,,,,,,,,,METAR,425.0
KICL 090335Z AUTO 00000KT 10SM CLR 18/16 A2992 RMK AO2,KICL,2023-06-09T03:35:00Z,40.72,-95.02,18.0,16.0,0,0,,10.0,29.920275,,,TRUE,TRUE,,,,,,,CLR,,,,,,,,VFR,,,,,,,,,,,,SPECI,299.0
KIBM 090335Z AUTO 00000KT 10SM CLR 16/11 A3004 RMK AO2 T01560110,KIBM,2023-06-09T03:35:00Z,41.18,-103.68,15.6,11.0,0,0,,10.0,30.041338,,,TRUE,TRUE,,,,,,,CLR,,,,,,,,VFR,,,,,,,,,,,,SPECI,1494.0
KI75 090335Z AUTO 00000KT 10SM CLR 17/12 A2992 RMK AO2 T01650115,KI75,2023-06-09T03:35:00Z,41.05,-93.68,16.5,11.5,0,0,,10.0,29.920275,,,TRUE,TRUE,,,,,,,CLR,,,,,,,,VFR,,,,,,,,,,,,SPECI,336.0
KI68 090335Z AUTO 00000KT 10SM SCT095 17/06 A2985 RMK AO2 LTG DSNT E,KI68,2023-06-09T03:35:00Z,39.47,-84.25,17.0,6.0,0,0,,10.0,29.84941,,,TRUE,TRUE,,,,,,,SCT,9500,,,,,,,VFR,,,,,,,,,,,,METAR,274.0
KI67 090335Z AUTO 00000KT 10SM SCT090 13/07 A2986 RMK AO1,KI67,2023-06-09T03:35:00Z,39.25,-84.78,13.0,7.0,0,0,,10.0,29.861221,,,TRUE,TRUE,,,,,,,SCT,9000,,,,,,,VFR,,,,,,,,,,,,SPECI,177.0
KI35 090335Z AUTO 00000KT 10SM CLR 12/12 A2991 RMK AO2 T01220122,KI35,2023-06-09T03:35:00Z,36.87,-83.37,12.2,12.2,0,0,,10.0,29.911417,,,TRUE,TRUE,,,,,,,CLR,,,,,,,,VFR,,,,,,,,,,,,SPECI,467.0
KI23 090335Z AUTO 00000KT 10SM OVC100 17/06 A2985 RMK AO1,KI23,2023-06-09T03:35:00Z,39.57,-83.42,17.0,6.0,0,0,,10.0,29.84941,,,TRUE,TRUE,,,,,,,OVC,10000,,,,,,,VFR,,,,,,,,,,,,METAR,298.0
KI19 090335Z AUTO 13003KT 10SM OVC090 16/09 A2985 RMK AO2,KI19,2023-06-09T03:35:00Z,39.7,-83.98,16.0,9.0,130,3,,10.0,29.84941,,,TRUE,TRUE,,,,,,,OVC,9000,,,,,,,VFR,,,,,,,,,,,,METAR,285.0
KHZX 090335Z AUTO 00000KT 10SM CLR 13/03 A2996 RMK AO2,KHZX,2023-06-09T03:35:00Z,46.62,-93.32,13.0,3.0,0,0,,10.0,29.958662,,,TRUE,TRUE,,,,,,,CLR,,,,,,,,VFR,,,,,,,,,,,,SPECI,374.0
KHZL 090335Z AUTO 00000KT 3SM BR OVC095 10/09 A2982 RMK AO2 LTG DSNT S,KHZL,2023-06-09T03:35:00Z,40.98,-76.0,10.0,9.0,0,0,,3.0,29.819881,,,TRUE,TRUE,,,,,,BR,OVC,9500,,,,,,,MVFR,,,,,,,,,,,,METAR,481.0
KHZE 090335Z AUTO 12004KT 10SM FEW060 20/18 A2989 RMK AO2,KHZE,2023-06-09T03:35:00Z,47.28,-101.58,20.0,18.0,120,4,,10.0,29.890747,,,TRUE,TRUE,,,,,,,FEW,6000,,,,,,,VFR,,,,,,,,,,,,METAR,542.0
KHYX 090335Z AUTO 00000KT 10SM CLR 14/08 A2991 RMK AO2 T01360077,KHYX,2023-06-09T03:35:00Z,43.43,-83.87,13.6,7.7,0,0,,10.0,29.911417,,,TRUE,TRUE,,,,,,,CLR,,,,,,,,VFR,,,,,,,,,,,,METAR,181.0
KHXD 090335Z AUTO VRB03G10KT 6SM -RA SCT030 BKN075 OVC110 24/21 A2979 RMK AO2 LTG DSNT E AND S,KHXD,2023-06-09T03:35:00Z,32.22,-80.7,24.0,21.0,0,3,10,6.0,29.790354,,,TRUE,TRUE,,,,,,-RA,SCT,3000,BKN,7500,OVC,11000,,,VFR,,,,,,,,,,,,METAR,5.0
KHWY 090335Z AUTO 00000KT 10SM VCTS BKN120 16/08 A2981 RMK AO2 T01610077,KHWY,2023-06-09T03:35:00Z,38.58,-77.72,16.1,7.7,0,0,,10.0,29.811024,,,TRUE,TRUE,,,,,,VCTS,BKN,12000,,,,,,,VFR,,,,,,,,,,,,SPECI,93.0
KHVS 090335Z AUTO 04005KT 10SM OVC090 22/09 A2981 RMK AO2,KHVS,2023-06-09T03:35:00Z,34.4,-80.12,22.0,9.0,40,5,,10.0,29.811024,,,TRUE,TRUE,,,,,,,OVC,9000,,,,,,,VFR,,,,,,,,,,,,METAR,110.0
KHVE 090335Z AUTO 16003KT 10SM CLR 22/M06 A2997 RMK AO2,KHVE,2023-06-09T03:35:00Z,38.42,-110.7,22.0,-6.0,160,3,,10.0,29.970472,,,TRUE,TRUE,,,,,,,CLR,,,,,,,,VFR,,,,,,,,,,,,METAR,1351.0
KHVC 090335Z AUTO 00000KT 10SM CLR 14/10 A2983 RMK AO2,KHVC,2023-06-09T03:35:00Z,,,14.0,10.0,0,0,,10.0,29.828741,,,TRUE,TRUE,,,,,,,CLR,,,,,,,,VFR,,,,,,,,,,,,METAR,
KHTH 090335Z AUTO 01010KT 10SM BKN095 BKN120 18/07 A3005 RMK A01,KHTH,2023-06-09T03:35:00Z,38.55,-118.63,18.0,7.0,10,10,,10.0,30.050198,,,TRUE,TRUE,,,,,,,BKN,9500,BKN,12000,,,,,VFR,,,,,,,,,,,,METAR,1281.0
KHSG 090335Z AUTO 03008KT 10SM CLR 17/12 A3001 RMK AO2 LTG DSNT W T01680121,KHSG,2023-06-09T03:35:00Z,43.72,-108.38,16.8,12.1,30,8,,10.0,30.008858,,,TRUE,TRUE,,,,,,,CLR,,,,,,,,VFR,,,,,,,,,,,,METAR,1497.0
KHSD 090335Z AUTO 21004KT 10SM CLR 24/17 A2983 RMK A01,KHSD,2023-06-09T03:35:00Z,35.6,-97.72,24.0,17.0,210,4,,10.0,29.828741,,,TRUE,TRUE,,,,,,,CLR,,,,,,,,VFR,,,,,,,,,,,,SPECI,358.0
KHSB 090335Z AUTO 35005KT 10SM CLR 19/02 A2986 RMK AO2 T01920024,KHSB,2023-06-09T03:35:00Z,37.82,-88.55,19.2,2.4,350,5,,10.0,29.861221,,,TRUE,TRUE,,,,,,,CLR,,,,,,,,VFR,,,,,,,,,,,,METAR,118.0
KHQU 090335Z AUTO 00000KT 7SM SCT075 19/18 A2980 RMK AO2 T01900177,KHQU,2023-06-09T03:35:00Z,33.53,-82.52,19.0,17.7,0,0,,7.0,29.799213,,,TRUE,TRUE,,,,,,,SCT,7500,,,,,,,VFR,,,,,,,,,,,,METAR,141.0
KHOE 090335Z AUTO 21003KT 10SM SCT090 SCT120 25/21 A2979 RMK AO2 T02500211,KHOE,2023-06-09T03:35:00Z,31.05,-82.78,25.0,21.1,210,3,,10.0,29.790354,,,TRUE,TRUE,,,,,,,SCT,9000,SCT,12000,,,,,VFR,,,,,,,,,,,,METAR,56.0
KHOB 090335Z AUTO 13007KT 10SM CLR 22/13 A2995 RMK AO2,KHOB,2023-06-09T03:35:00Z,32.67,-103.22,22.0,13.0,130,7,,10.0,29.949802,,,TRUE,TRUE,,,,,,,CLR,,,,,,,,VFR,,,,,,,,,,,,METAR,1112.0
KHMT 090335Z AUTO 23009KT 10SM CLR 17/13 A3002 RMK AO2 T01650126,KHMT,2023-06-09T03:35:00Z,33.73,-117.02,16.5,12.6,230,9,,10.0,30.02067,,,TRUE,TRUE,,,,,,,CLR,,,,,,,,VFR,,,,,,,,,,,,METAR,462.0
KHLX 090335Z AUTO 31007KT 10SM CLR 13/01 A2989 RMK AO2 LTG DSNT NE T01290011,KHLX,2023-06-09T03:35:00Z,36.77,-80.82,12.9,1.1,310,7,,10.0,29.890747,,,TRUE,TRUE,,,,,,,CLR,,,,,,,,VFR,,,,,,,,,,,,SPECI,819.0
KHLB 090335Z AUTO 00000KT 10SM FEW055 12/05 A2987 RMK A01,KHLB,2023-06-09T03:35:00Z,39.35,-85.27,12.0,5.0,0,0,,10.0,29.870079,,,TRUE,TRUE,,,,,,,FEW,5500,,,,,,,VFR,,,,,,,,,,,,SPECI,297.0
KHHF 090335Z AUTO 00000KT 10SM CLR 19/16 A2991 RMK AO2 T01930162,KHHF,2023-06-09T03:35:00Z,35.9,-100.4,19.3,16.2,0,0,,10.0,29.911417,,,TRUE,TRUE,,,,,,,CLR,,,,,,,,VFR,,,,,,,,,,,,METAR,729.0
KHFJ 090335Z AUTO 00000KT 10SM OVC110 22/19 A2986 RMK AO2,KHFJ,2023-06-09T03:35:00Z,36.9,-94.02,22.0,19.0,0,0,,10.0,29.861221,,,TRUE,TRUE,,,,,,,OVC,11000,,,,,,,VFR,,,,,,,,,,,,METAR,398.0
KHEG 090335Z AUTO 21005KT 10SM CLR 25/19 A2980 RMK AO2,KHEG,2023-06-09T03:35:00Z,30.28,-81.8,25.0,19.0,210,5,,10.0,29.799213,,,TRUE,TRUE,,,,,,,CLR,,,,,,,,VFR,,,,,,,,,,,,METAR,25.0
KHDC 090335Z AUTO 32003KT 10SM CLR 22/21 A2984 RMK AO2 T02220206,KHDC,2023-06-09T03:35:00Z,30.52,-90.42,22.2,20.6,320,3,,10.0,29.840551,,,TRUE,TRUE,,,,,,,CLR,,,,,,,,VFR,,,,,,,,,,,,METAR,12.0
KHCR 090335Z AUTO 00000KT 10SM CLR 10/06 A3010 RMK AO2,KHCR,2023-06-09T03:35:00Z,40.48,-111.43,10.0,6.0,0,0,,10.0,30.100393,,,TRUE,TRUE,,,,,,,CLR,,,,,,,,VFR,,,,,,,,,,,,METAR,1708.0
KHCO 090335Z AUTO 12005KT 10SM CLR 23/18 A2988 RMK AO2,KHCO,2023-06-09T03:35:00Z,48.75,-96.93,23.0,18.0,120,5,,10.0,29.878937,,,TRUE,TRUE,,,,,,,CLR,,,,,,,,VFR,,,,,,,,,,,,SPECI,250.0
KHCD 090335Z AUTO 00000KT 10SM CLR 21/11 A2993 RMK AO2 T02130106,KHCD,2023-06-09T03:35:00Z,44.87,-94.38,21.3,10.6,0,0,,10.0,29.929134,,,TRUE,TRUE,,,,,,,CLR,,,,,,,,VFR,,,,,,,,,,,,METAR,320.0
KHBV 090335Z AUTO 19003KT 10SM CLR 28/22 A2985 RMK AO2 T02750215,KHBV,2023-06-09T03:35:00Z,27.35,-98.73,27.5,21.5,190,3,,10.0,29.84941,,,TRUE,TRUE,,,,,,,CLR,,,,,,,,VFR,,,,,,,,,,,,METAR,200.0
KHAI 090335Z AUTO 00000KT 10SM CLR 13/04 A2989 RMK AO2 T01300036,KHAI,2023-06-09T03:35:00Z,41.97,-85.6,13.0,3.6,0,0,,10.0,29.890747,,,TRUE,TRUE,,,,,,,CLR,,,,,,,,VFR,,,,,,,,,,,,SPECI,250.0
KHAF 090335Z AUTO 00000KT 8SM BKN020 14/11 A3006 RMK AO2,KHAF,2023-06-09T03:35:00Z,37.52,-122.5,14.0,11.0,0,0,,8.0,30.059055,,,TRUE,TRUE,,,,,,,BKN,2000,,,,,,,MVFR,,,,,,,,,,,,SPECI,11.0
KHAE 090335Z AUTO 00000KT 10SM CLR 13/05 A2990 RMK AO2,KHAE,2023-06-09T03:35:00Z,39.73,-91.45,13.0,5.0,0,0,,10.0,29.899607,,,TRUE,TRUE,,,,,,,CLR,,,,,,,,VFR,,,,,,,,,,,,SPECI,230.0
KGZS 090335Z AUTO 00000KT 10SM OVC095 16/14 A2983 RMK A01,KGZS,2023-06-09T03:35:00Z,35.15,-87.05,16.0,14.0,0,0,,10.0,29.828741,,,TRUE,TRUE,,,,,,,OVC,9500,,,,,,,VFR,,,,,,,,,,,,SPECI,198.0
KGYL 090335Z AUTO 00000KT 10SM CLR 19/09 A2991 RMK AO2 T01850091,KGYL,2023-06-09T03:35:00Z,44.77,-94.08,18.5,9.1,0,0,,10.0,29.911417,,,TRUE,TRUE,,,,,,,CLR,,,,,,,,VFR,,,,,,,,,,,,SPECI,304.0
KGYI 090335Z AUTO 18006KT 10SM CLR 25/20 A2985 RMK AO2 T02460200 TSNO,KGYI,2023-06-09T03:35:00Z,33.72,-96.67,24.6,20.0,180,6,,10.0,29.84941,,,TRUE,TRUE,,,TRUE,,,,CLR,,,,,,,,VFR,,,,,,,,,,,,METAR,227.0
KGYF 090335Z AUTO 15005KT 10SM CLR 27/21 A2987 RMK AO2 T02710209,KGYF,2023-06-09T03:35:00Z,26.13,-94.9,27.1,20.9,150,5,,10.0,29.870079,,,TRUE,TRUE,,,,,,,CLR,,,,,,,,VFR,,,,,,,,,,,,METAR,65.0
KGYB 090335Z AUTO 00000KT 7SM CLR 23/20 A2986 RMK AO2 T02300201,KGYB,2023-06-09T03:35:00Z,30.17,-96.98,23.0,20.1,0,0,,7.0,29.861221,,,TRUE,TRUE,,,,,,,CLR,,,,,,,,VFR,,,,,,,,,,,,METAR,140.0
KGWR 090335Z AUTO 13007KT 10SM FEW045 BKN090 23/23 A2987 RMK A01,KGWR,2023-06-09T03:35:00Z,46.22,-97.65,23.0,23.0,130,7,,10.0,29.870079,,,TRUE,TRUE,,,,,,,FEW,4500,BKN,9000,,,,,VFR,,,,,,,,,,,,SPECI,381.0
KGWB 090335Z AUTO 30005KT 10SM CLR 14/05 A2988 RMK AO2,KGWB,2023-06-09T03:35:00Z,41.3,-85.07,14.0,5.0,300,5,,10.0,29.878937,,,TRUE,TRUE,,,,,,,CLR,,,,,,,,VFR,,,,,,,,,,,,METAR,268.0
KGVE 090335Z AUTO 00000KT 10SM CLR 14/10 A2981 RMK AO1 T01400095,KGVE,2023-06-09T03:35:00Z,38.15,-78.17,14.0,9.5,0,0,,10.0,29.811024,,,TRUE,TRUE,,,,,,,CLR,,,,,,,,VFR,,,,,,,,,,,,SPECI,138.0
KGRY 090335Z AUTO VRB04KT 10SM FEW021 FEW029 SCT036 27/22 A2987 RMK A01,KGRY,2023-06-09T03:35:00Z,27.63,-90.45,27.0,22.0,0,4,,10.0,29.870079,,,TRUE,TRUE,,,,,,,FEW,2100,FEW,2900,SCT,3600,,,VFR,,,,,,,,,,,,SPECI,58.0
KGRN 090335Z AUTO 24012G19KT 10SM SCT090 23/13 A2995 RMK AO2 LTG DSNT SW THRU NW T02290127,KGRN,2023-06-09T03:35:00Z,42.8,-102.17,22.9,12.7,240,12,19,10.0,29.949802,,,TRUE,TRUE,,,,,,,SCT,9000,,,,,,,VFR,,,,,,,,,,,,METAR,1080.0
KGPM 090335Z AUTO 21004KT 10SM CLR 23/20 A2984 RMK AO2 T02300195,KGPM,2023-06-09T03:35:00Z,32.7,-97.05,23.0,19.5,210,4,,10.0,29.840551,,,TRUE,TRUE,,,,,,,CLR,,,,,,,,VFR,,,,,,,,,,,,METAR,178.0
KGPH 090335Z AUTO 00000KT 10SM SCT048 SCT100 20/13 A2989 RMK AO2,KGPH,2023-06-09T03:35:00Z,39.33,-94.32,20.0,13.0,0,0,,10.0,29.890747,,,TRUE,TRUE,,,,,,,SCT,4800,SCT,10000,,,,,VFR,,,,,,,,,,,,METAR,233.0
KGPC 090335Z AUTO 01007KT 10SM CLR 17/03 A2989 RMK AO2 T01690034,KGPC,2023-06-09T03:35:00Z,39.63,-86.82,16.9,3.4,10,7,,10.0,29.890747,,,TRUE,TRUE,,,,,,,CLR,,,,,,,,VFR,,,,,,,,,,,,METAR,254.0
KGNT 090335Z AUTO 33003KT 10SM CLR 18/M07 A3015 RMK AO2 T01831075,KGNT,2023-06-09T03:35:00Z,35.17,-107.9,18.3,-7.5,330,3,,10.0,30.15059,,,TRUE,TRUE,,,,,,,CLR,,,,,,,,VFR,,,,,,,,,,,,METAR,1988.0
KGNG 090335Z AUTO 12006KT 10SM CLR 15/13 A3002 RMK AO2,KGNG,2023-06-09T03:35:00Z,42.92,-114.77,15.0,13.0,120,6,,10.0,30.02067,,,TRUE,TRUE,,,,,,,CLR,,,,,,,,VFR,,,,,,,,,,,,METAR,1128.0
KGLY 090335Z AUTO 06005KT 9SM OVC050 18/14 A2988 RMK AO2,KGLY,2023-06-09T03:35:00Z,38.35,-93.68,18.0,14.0,60,5,,9.0,29.878937,,,TRUE,TRUE,,,,,,,OVC,5000,,,,,,,VFR,,,,,,,,,,,,SPECI,247.0
KGKT 090335Z AUTO 00000KT 10SM FEW050 FEW060 FEW080 15/11 A2987 RMK A01,KGKT,2023-06-09T03:35:00Z,35.85,-83.53,15.0,11.0,0,0,,10.0,29.870079,,,TRUE,TRUE,,,,,,,FEW,5000,FEW,6000,FEW,8000,,,VFR,,,,,,,,,,,,SPECI,305.0
KGHW 090335Z AUTO 09003KT 10SM CLR 18/14 A2992 RMK AO2,KGHW,2023-06-09T03:35:00Z,45.63,-95.32,18.0,14.0,90,3,,10.0,29.920275,,,TRUE,TRUE,,,,,,,CLR,,,,,,,,VFR,,,,,,,,,,,,SPECI,423.0
KGHG 090335Z AUTO 00000KT 10SM FEW046 BKN065 OVC100 11/10 A2972 RMK AO2,KGHG,2023-06-09T03:35:00Z,42.1,-70.67,11.0,10.0,0,0,,10.0,29.719488,,,TRUE,TRUE,,,,,,,FEW,4600,BKN,6500,OVC,10000,,,VFR,,,,,,,,,,,,SPECI,3.0
KGGI 090335Z AUTO 00000KT 10SM CLR 19/09 A2993 RMK AO2 T01930090,KGGI,2023-06-09T03:35:00Z,41.72,-92.73,19.3,9.0,0,0,,10.0,29.929134,,,TRUE,TRUE,,,,,,,CLR,,,,,,,,VFR,,,,,,,,,,,,METAR,305.0
KGGE 090335Z AUTO 00000KT 10SM CLR 17/17 A2980 RMK AO2 LTG DSNT N,KGGE,2023-06-09T03:35:00Z,33.32,-79.32,17.0,17.0,0,0,,10.0,29.799213,,,TRUE,TRUE,,,,,,,CLR,,,,,,,,VFR,,,,,,,,,,,,SPECI,9.0
KGDJ 090335Z AUTO 00000KT 10SM CLR 23/18 A2986 RMK AO2 T02300184,KGDJ,2023-06-09T03:35:00Z,32.45,-97.82,23.0,18.4,0,0,,10.0,29.861221,,,TRUE,TRUE,,,,,,,CLR,,,,,,,,VFR,,,,,,,,,,,,METAR,235.0
KGDB 090335Z AUTO 13004KT 10SM CLR 22/17 A2991 RMK AO2 T02150170,KGDB,2023-06-09T03:35:00Z,44.75,-95.55,21.5,17.0,130,4,,10.0,29.911417,,,TRUE,TRUE,,,,,,,CLR,,,,,,,,VFR,,,,,,,,,,,,SPECI,316.0
KGDA 090335Z AUTO 00000KT 10SM CLR 15/08 A2985 RMK AO2 T01450082 PWINO,KGDA,2023-06-09T03:35:00Z,37.33,-88.1,14.5,8.2,0,0,,10.0,29.84941,,,TRUE,TRUE,,,,,TRUE,,CLR,,,,,,,,VFR,,,,,,,,,,,,METAR,199.0
KGCY 090335Z AUTO VRB04KT 10SM CLR 15/07 A2988 RMK A01,KGCY,2023-06-09T03:35:00Z,36.2,-82.82,15.0,7.0,0,4,,10.0,29.878937,,,TRUE,TRUE,,,,,,,CLR,,,,,,,,VFR,,,,,,,,,,,,SPECI,488.0
KGAO 090335Z AUTO 00000KT 10SM CLR 24/22 A2983 RMK AO2 T02400215,KGAO,2023-06-09T03:35:00Z,29.45,-90.27,24.0,21.5,0,0,,10.0,29.828741,,,TRUE,TRUE,,,,,,,CLR,,,,,,,,VFR,,,,,,,,,,,,METAR,0.0
KGAF 090335Z AUTO 12007KT 8SM CLR 22/18 A2988 RMK AO2,KGAF,2023-06-09T03:35:00Z,48.4,-97.37,22.0,18.0,120,7,,8.0,29.878937,,,TRUE,TRUE,,,,,,,CLR,,,,,,,,VFR,,,,,,,,,,,,METAR,250.0
KFYJ 090335Z AUTO 00000KT 10SM CLR 14/13 A2979 RMK AO1 T01350131,KFYJ,2023-06-09T03:35:00Z,37.52,-76.77,13.5,13.1,0,0,,10.0,29.790354,,,TRUE,TRUE,,,,,,,CLR,,,,,,,,VFR,,,,,,,,,,,,SPECI,3.0
KFYG 090335Z AUTO 00000KT 10SM CLR 14/14 A2988 RMK AO2,KFYG,2023-06-09T03:35:00Z,38.58,-91.0,14.0,14.0,0,0,,10.0,29.878937,,,TRUE,TRUE,,,,,,,CLR,,,,,,,,VFR,,,,,,,,,,,,SPECI,147.0
KFYE 090335Z AUTO 00000KT 10SM FEW050 SCT060 20/18 A2982 RMK A01,KFYE,2023-06-09T03:35:00Z,35.2,-89.38,20.0,18.0,0,0,,10.0,29.819881,,,TRUE,TRUE,,,,,,,FEW,5000,SCT,6000,,,,,VFR,,,,,,,,,,,,SPECI,133.0
KFWS 090335Z AUTO 19004KT 10SM CLR 22/19 A2984 RMK AO2 T02160192,KFWS,2023-06-09T03:35:00Z,32.57,-97.3,21.6,19.2,190,4,,10.0,29.840551,,,TRUE,TRUE,,,,,,,CLR,,,,,,,,VFR,,,,,,,,,,,,METAR,211.0
KFWB 090335Z AUTO 00000KT 10SM FEW024 SCT060 OVC100 22/20 A2988 RMK AO2,KFWB,2023-06-09T03:35:00Z,36.7,-93.4,22.0,20.0,0,0,,10.0,29.878937,,,TRUE,TRUE,,,,,,,FEW,2400,SCT,6000,OVC,10000,,,VFR,,,,,,,,,,,,SPECI,392.0
KFTN 090335Z AUTO 14005KT 10SM CLR 28/22 A2984 RMK A01,KFTN,2023-06-09T03:35:00Z,28.22,-100.02,28.0,22.0,140,5,,10.0,29.840551,,,TRUE,TRUE,,,,,,,CLR,,,,,,,,VFR,,,,,,,,,,,,METAR,236.0
KFSE 090335Z AUTO 10003KT 10SM OVC065 18/16 A2991 RMK AO2,KFSE,2023-06-09T03:35:00Z,47.58,-95.77,18.0,16.0,100,3,,10.0,29.911417,,,TRUE,TRUE,,,,,,,OVC,6500,,,,,,,VFR,,,,,,,,,,,,SPECI,389.0
KFRR 090335Z AUTO 00000KT 10SM OVC100 16/07 A2981 RMK AO1,KFRR,2023-06-09T03:35:00Z,38.92,-78.25,16.0,7.0,0,0,,10.0,29.811024,,,TRUE,TRUE,,,,,,,OVC,10000,,,,,,,VFR,,,,,,,,,,,,SPECI,213.0
KFRH 090335Z AUTO 00000KT 10SM CLR 15/06 A2987 RMK AO1,KFRH,2023-06-09T03:35:00Z,38.5,-86.63,15.0,6.0,0,0,,10.0,29.870079,,,TRUE,TRUE,,,,,,,CLR,,,,,,,,VFR,,,,,,,,,,,,SPECI,241.0
KFPK 090335Z AUTO 06004KT 10SM CLR 15/05 A2989 RMK AO2 T01530046,KFPK,2023-06-09T03:35:00Z,42.57,-84.82,15.3,4.6,60,4,,10.0,29.890747,,,TRUE,TRUE,,,,,,,CLR,,,,,,,,VFR,,,,,,,,,,,,SPECI,269.0
KFOT 090335Z AUTO 32006KT 1 3/4SM BKN002 OVC007 11/11 A3007 RMK AO1,KFOT,2023-06-09T03:35:00Z,40.55,-124.13,11.0,11.0,320,6,,1.75,30.070866,,,TRUE,TRUE,,,,,,,BKN,200,OVC,700,,,,,LIFR,,,,,,,,,,,,SPECI,118.0
KFOA 090335Z AUTO 00000KT 7SM HZ CLR 16/08 A2987 RMK AO2,KFOA,2023-06-09T03:35:00Z,38.67,-88.45,16.0,8.0,0,0,,7.0,29.870079,,,TRUE,TRUE,,,,,,HZ,CLR,,,,,,,,VFR,,,,,,,,,,,,METAR,141.0
KFLY 090335Z AUTO 21005KT 10SM TS 15/09 A3016 RMK AO2 LTG DSNT N THRU S T01450088,KFLY,2023-06-09T03:35:00Z,38.95,-104.57,14.5,8.8,210,5,,10.0,30.159449,,,TRUE,TRUE,,,,,,TS,,,,,,,,,,,,,,,,,,,,,METAR,2096.0
KFKS 090335Z AUTO 03003KT 10SM CLR 13/07 A2992 RMK AO2 T01340068,KFKS,2023-06-09T03:35:00Z,44.63,-86.2,13.4,6.8,30,3,,10.0,29.920275,,,TRUE,TRUE,,,,,,,CLR,,,,,,,,VFR,,,,,,,,,,,,METAR,189.0
KFKN 090335Z AUTO 00000KT 10SM VCTS CLR 12/11 A2980 RMK AO2 LTG DSNT NW T01170111,KFKN,2023-06-09T03:35:00Z,36.7,-76.9,11.7,11.1,0,0,,10.0,29.799213,,,TRUE,TRUE,,,,,,VCTS,CLR,,,,,,,,VFR,,,,,,,,,,,,SPECI,9.0
KFKA 090335Z AUTO 18004KT 10SM CLR 17/06 A2995 RMK AO2,KFKA,2023-06-09T03:35:00Z,43.68,-92.17,17.0,6.0,180,4,,10.0,29.949802,,,TRUE,TRUE,,,,,,,CLR,,,,,,,,VFR,,,,,,,,,,,,SPECI,388.0
KFIN 090335Z AUTO 26005KT 10SM CLR 25/20 A2981 RMK AO2 T02450202,KFIN,2023-06-09T03:35:00Z,29.47,-81.2,24.5,20.2,260,5,,10.0,29.811024,,,TRUE,TRUE,,,,,,,CLR,,,,,,,,VFR,,,,,,,,,,,,SPECI,10.0
KFFX 090335Z AUTO 01005KT 10SM CLR 15/06 A2991 RMK AO2 T01460062,KFFX,2023-06-09T03:35:00Z,43.43,-86.0,14.6,6.2,10,5,,10.0,29.911417,,,TRUE,TRUE,,,,,,,CLR,,,,,,,,VFR,,,,,,,,,,,,METAR,234.0
KFFM 090335Z AUTO 14004KT 10SM CLR 22/14 A2989 RMK AO2,KFFM,2023-06-09T03:35:00Z,46.28,-96.15,22.0,14.0,140,4,,10.0,29.890747,,,TRUE,TRUE,,,,,,,CLR,,,,,,,,VFR,,,,,,,,,,,,SPECI,362.0
KFEP 090335Z AUTO 13003KT 10SM CLR 15/07 A2996 RMK AO2 T01460069,KFEP,2023-06-09T03:35:00Z,42.25,-89.58,14.6,6.9,130,3,,10.0,29.958662,,,TRUE,TRUE,,,,,,,CLR,,,,,,,,VFR,,,,,,,,,,,,METAR,255.0
KFDW 090335Z AUTO 00000KT 10SM OVC080 21/11 A2981 RMK AO1,KFDW,2023-06-09T03:35:00Z,34.32,-81.12,21.0,11.0,0,0,,10.0,29.811024,,,TRUE,TRUE,,,,,,,OVC,8000,,,,,,,VFR,,,,,,,,,,,,SPECI,174.0
KFBL 090335Z AUTO 10005KT 10SM CLR 20/06 A2993 RMK AO2,KFBL,2023-06-09T03:35:00Z,44.33,-93.32,20.0,6.0,100,5,,10.0,29.929134,,,TRUE,TRUE,,,,,,,CLR,,,,,,,,VFR,,,,,,,,,,,,SPECI,318.0
KF70 090335Z AUTO 17008KT 10SM CLR 16/12 A3003 RMK AO2,KF70,2023-06-09T03:35:00Z,33.57,-117.13,16.0,12.0,170,8,,10.0,30.029528,,,TRUE,TRUE,,,,,,,CLR,,,,,,,,VFR,,,,,,,,,,,,SPECI,406.0
KF46 090335Z AUTO 00000KT 10SM CLR 24/19 A2984 RMK AO2 T02370187,KF46,2023-06-09T03:35:00Z,32.93,-96.43,23.7,18.7,0,0,,10.0,29.840551,,,TRUE,TRUE,,,,,,,CLR,,,,,,,,VFR,,,,,,,,,,,,METAR,175.0
KF44 090335Z AUTO 00000KT 10SM CLR 21/18 A2983 RMK AO2,KF44,2023-06-09T03:35:00Z,32.17,-95.83,21.0,18.0,0,0,,10.0,29.828741,,,TRUE,TRUE,,,,,,,CLR,,,,,,,,VFR,,,,,,,,,,,,METAR,137.0
KF17 090335Z AUTO 00000KT 10SM CLR 23/20 A2986 RMK AO2,KF17,2023-06-09T03:35:00Z,31.83,-94.15,23.0,20.0,0,0,,10.0,29.861221,,,TRUE,TRUE,,,,,,,CLR,,,,,,,,VFR,,,,,,,,,,,,METAR,93.0
KF05 090335Z AUTO 25005KT 10SM CLR 24/19 A2985 RMK AO2 T02380186,KF05,2023-06-09T03:35:00Z,34.23,-99.28,23.8,18.6,250,5,,10.0,29.84941,,,TRUE,TRUE,,,,,,,CLR,,,,,,,,VFR,,,,,,,,,,,,METAR,384.0
KF00 090335Z AUTO 19004KT 10SM CLR 23/20 A2984 RMK AO2 T02260201,KF00,2023-06-09T03:35:00Z,33.62,-96.18,22.6,20.1,190,4,,10.0,29.840551,,,TRUE,TRUE,,,,,,,CLR,,,,,,,,VFR,,,,,,,,,,,,METAR,189.0
KEZZ 090335Z AUTO 11005KT 10SM SCT075 18/13 A2991 RMK AO2 T01810132,KEZZ,2023-06-09T03:35:00Z,39.72,-94.28,18.1,13.2,110,5,,10.0,29.911417,,,TRUE,TRUE,,,,,,,SCT,7500,,,,,,,VFR,,,,,,,,,,,,METAR,317.0
KEZP 090335Z AUTO 29009KT 10SM FEW050 27/23 A2987 RMK A01,KEZP,2023-06-09T03:35:00Z,28.22,-92.8,27.0,23.0,290,9,,10.0,29.870079,,,TRUE,TRUE,,,,,,,FEW,5000,,,,,,,VFR,,,,,,,,,,,,METAR,30.0
KEZM 090335Z AUTO 01004KT 10SM BKN070 BKN080 24/16 A2979 RMK AO2 LTG DSNT SE,KEZM,2023-06-09T03:35:00Z,32.22,-83.13,24.0,16.0,10,4,,10.0,29.790354,,,TRUE,TRUE,,,,,,,BKN,7000,BKN,8000,,,,,VFR,,,,,,,,,,,,SPECI,86.0
KEZF 090335Z AUTO 00000KT 5SM HZ CLR 16/13 A2978 RMK AO2 T01590130,KEZF,2023-06-09T03:35:00Z,38.27,-77.45,15.9,13.0,0,0,,5.0,29.778543,,,TRUE,TRUE,,,,,,HZ,CLR,,,,,,,,MVFR,,,,,,,,,,,,SPECI,26.0
KEVU 090335Z AUTO 13003KT 7SM BKN038 20/15 A2990 RMK AO2 T02000150,KEVU,2023-06-09T03:35:00Z,40.35,-94.92,20.0,15.0,130,3,,7.0,29.899607,,,TRUE,TRUE,,,,,,,BKN,3800,,,,,,,VFR,,,,,,,,,,,,SPECI,351.0
KETB 090335Z AUTO 00000KT 10SM CLR 11/03 A2994 RMK AO2,KETB,2023-06-09T03:35:00Z,43.42,-88.13,11.0,3.0,0,0,,10.0,29.940945,,,TRUE,TRUE,,,,,,,CLR,,,,,,,,VFR,,,,,,,,,,,,METAR,269.0
KERY 090335Z AUTO 32003KT 10SM CLR 12/00 A2994 RMK AO2 T01160002,KERY,2023-06-09T03:35:00Z,46.3,-85.45,11.6,0.2,320,3,,10.0,29.940945,,,TRUE,TRUE,,,,,,,CLR,,,,,,,,VFR,,,,,,,,,,,,METAR,261.0
KERV 090335Z AUTO 10004KT 10SM CLR 24/20 A2991 RMK AO2 T02440200,KERV,2023-06-09T03:35:00Z,29.98,-99.08,24.4,20.0,100,4,,10.0,29.911417,,,TRUE,TRUE,,,,,,,CLR,,,,,,,,VFR,,,,,,,,,,,,METAR,483.0
KEQA 090335Z AUTO 01003KT 10SM BKN110 26/16 A2984 RMK AO2,KEQA,2023-06-09T03:35:00Z,37.78,-96.82,26.0,16.0,10,3,,10.0,29.840551,,,TRUE,TRUE,,,,,,,BKN,11000,,,,,,,VFR,,,,,,,,,,,,SPECI,422.0
KEOE 090335Z AUTO 05006KT 10SM CLR 20/11 A2985 RMK AO2 LTG DSNT NE,KEOE,2023-06-09T03:35:00Z,34.32,-81.63,20.0,11.0,50,6,,10.0,29.84941,,,TRUE,TRUE,,,,,,,CLR,,,,,,,,VFR,,,,,,,,,,,,SPECI,166.0
KEMV 090335Z AUTO 00000KT 4SM VCTS BR BKN050 12/12 A2981 RMK AO2 T01160116,KEMV,2023-06-09T03:35:00Z,36.68,-77.48,11.6,11.6,0,0,,4.0,29.811024,,,TRUE,TRUE,,,,,,VCTS BR,BKN,5000,,,,,,,MVFR,,,,,,,,,,,,SPECI,35.0
KEMM 090335Z AUTO 33007KT 10SM CLR 09/04 A3017 RMK AO2 TSNO,KEMM,2023-06-09T03:35:00Z,41.82,-110.55,9.0,4.0,330,7,,10.0,30.171259,,,TRUE,TRUE,,,TRUE,,,,CLR,,,,,,,,VFR,,,,,,,,,,,,METAR,2219.0
KELO 090335Z AUTO 00000KT 10SM CLR 14/02 A2996 RMK AO2,KELO,2023-06-09T03:35:00Z,47.82,-91.83,14.0,2.0,0,0,,10.0,29.958662,,,TRUE,TRUE,,,,,,,CLR,,,,,,,,VFR,,,,,,,,,,,,SPECI,438.0
KELK 090335Z AUTO 00000KT 4SM HZ CLR 23/19 A2988 RMK AO2 SLP406 T02290195 $,KELK,2023-06-09T03:35:00Z,35.43,-99.4,22.9,19.5,0,0,,4.0,29.878937,1040.6,,TRUE,TRUE,TRUE,,,,,HZ,CLR,,,,,,,,MVFR,,,,,,,,,,,,METAR,603.0
KELA 090335Z AUTO 15005KT 10SM CLR 23/18 A2986 RMK AO2 T02290184,KELA,2023-06-09T03:35:00Z,29.6,-96.32,22.9,18.4,150,5,,10.0,29.861221,,,TRUE,TRUE,,,,,,,CLR,,,,,,,,VFR,,,,,,,,,,,,METAR,56.0
KEKX 090335Z AUTO 00000KT 10SM CLR 14/10 A2987 RMK AO2 T01350100,KEKX,2023-06-09T03:35:00Z,37.68,-85.92,13.5,10.0,0,0,,10.0,29.870079,,,TRUE,TRUE,,,,,,,CLR,,,,,,,,VFR,,,,,,,,,,,,METAR,234.0
KEKS 090335Z AUTO 00000KT 10SM CLR 12/12 A3009 RMK AO2 LTG DSNT SE AND S,KEKS,2023-06-09T03:35:00Z,45.27,-111.65,12.0,12.0,0,0,,10.0,30.088583,,,TRUE,TRUE,,,,,,,CLR,,,,,,,,VFR,,,,,,,,,,,,SPECI,1636.0
KEKM 090335Z 29003KT 8SM CLR 13/03 A2990 RMK AO2 T01330035 $,KEKM,2023-06-09T03:35:00Z,41.72,-86.0,13.3,3.5,290,3,,8.0,29.899607,,,,TRUE,TRUE,,,,,,CLR,,,,,,,,VFR,,,,,,,,,,,,METAR,236.0
KEKE 090335Z AUTO 25005KT 10SM CLR 27/23 A2979 RMK A01,KEKE,2023-06-09T03:35:00Z,28.5,-91.58,27.0,23.0,250,5,,10.0,29.790354,,,TRUE,TRUE,,,,,,,CLR,,,,,,,,VFR,,,,,,,,,,,,SPECI,31.0
KEIK 090335Z AUTO 30005KT 10SM OVC110 18/12 A3007 RMK AO2 LTG DSNT ALQS T01800120,KEIK,2023-06-09T03:35:00Z,40.02,-105.05,18.0,12.0,300,5,,10.0,30.070866,,,TRUE,TRUE,,,,,,,OVC,11000,,,,,,,VFR,,,,,,,,,,,,METAR,1551.0
KEGT 090335Z AUTO 00000KT 10SM CLR 23/17 A2983 RMK AO2 T02270169,KEGT,2023-06-09T03:35:00Z,37.32,-97.38,22.7,16.9,0,0,,10.0,29.828741,,,TRUE,TRUE,,,,,,,CLR,,,,,,,,VFR,,,,,,,,,,,,METAR,387.0
KEFT 090335Z AUTO 13005KT 10SM CLR 17/02 A2994 RMK AO2 T01660015,KEFT,2023-06-09T03:35:00Z,42.62,-89.6,16.6,1.5,130,5,,10.0,29.940945,,,TRUE,TRUE,,,,,,,CLR,,,,,,,,VFR,,,,,,,,,,,,METAR,332.0
KEFK 090335Z AUTO 00000KT 10SM BKN005 BKN012 OVC022 11/11 A2975 RMK AO2 T01100105,KEFK,2023-06-09T03:35:00Z,44.88,-72.23,11.0,10.5,0,0,,10.0,29.749016,,,TRUE,TRUE,,,,,,,BKN,500,BKN,1200,OVC,2200,,,IFR,,,,,,,,,,,,SPECI,282.0
KEDU 090335Z AUTO 21008KT 10SM CLR 20/10 A2996 RMK AO1,KEDU,2023-06-09T03:35:00Z,38.53,-121.78,20.0,10.0,210,8,,10.0,29.958662,,,TRUE,TRUE,,,,,,,CLR,,,,,,,,VFR,,,,,,,,,,,,METAR,20.0
KEDN 090335Z AUTO 00000KT 10SM CLR 23/20 A2980 RMK AO2 T02300197 PWINO,KEDN,2023-06-09T03:35:00Z,31.3,-85.9,23.0,19.7,0,0,,10.0,29.799213,,,TRUE,TRUE,,,,,TRUE,,CLR,,,,,,,,VFR,,,,,,,,,,,,METAR,103.0
KEDJ 090335Z AUTO 00000KT 10SM OVC090 17/08 A2986 RMK A01,KEDJ,2023-06-09T03:35:00Z,40.37,-83.82,17.0,8.0,0,0,,10.0,29.861221,,,TRUE,TRUE,,,,,,,OVC,9000,,,,,,,VFR,,,,,,,,,,,,SPECI,341.0
KEDC 090335Z AUTO 00000KT 23/22 A2985 RMK AO2,KEDC,2023-06-09T03:35:00Z,30.4,-97.57,23.0,22.0,0,0,,,29.84941,,,TRUE,TRUE,,,,,,,,,,,,,,,,,,,,,,,,,,,SPECI,184.0
KECS 090335Z AUTO 02004KT 10SM SCT090 SCT120 20/06 A2999 RMK AO2 LTG DSNT N AND SE,KECS,2023-06-09T03:35:00Z,43.88,-104.32,20.0,6.0,20,4,,10.0,29.991142,,,TRUE,TRUE,,,,,,,SCT,9000,SCT,12000,,,,,VFR,,,,,,,,,,,,METAR,1273.0
KEBG 090335Z AUTO 14005KT 10SM CLR 26/23 A2984 RMK AO2 T02620228,KEBG,2023-06-09T03:35:00Z,26.45,-98.13,26.2,22.8,140,5,,10.0,29.840551,,,TRUE,TRUE,,,,,,,CLR,,,,,,,,VFR,,,,,,,,,,,,METAR,21.0
KE77 090335Z AUTO 00000KT 10SM CLR 21/M07 A3006 RMK AO2,KE77,2023-06-09T03:35:00Z,,,21.0,-7.0,0,0,,10.0,30.059055,,,TRUE,TRUE,,,,,,,CLR,,,,,,,,VFR,,,,,,,,,,,,METAR,
KE42 090335Z AUTO 13005KT 10SM CLR 20/17 A2995 RMK AO2 T02030169,KE42,2023-06-09T03:35:00Z,36.22,-101.2,20.3,16.9,130,5,,10.0,29.949802,,,TRUE,TRUE,,,,,,,CLR,,,,,,,,VFR,,,,,,,,,,,,METAR,942.0
KDZJ 090335Z AUTO 00000KT 7SM CLR 11/10 A2990 RMK AO2 LTG DSNT SE T01150102,KDZJ,2023-06-09T03:35:00Z,34.85,-84.0,11.5,10.2,0,0,,7.0,29.899607,,,TRUE,TRUE,,,,,,,CLR,,,,,,,,VFR,,,,,,,,,,,,SPECI,578.0
KDZB 090335Z AUTO 16004KT 10SM CLR 25/18 A2988 RMK AO2 T02500183,KDZB,2023-06-09T03:35:00Z,30.53,-98.37,25.0,18.3,160,4,,10.0,29.878937,,,TRUE,TRUE,,,,,,,CLR,,,,,,,,VFR,,,,,,,,,,,,METAR,329.0
KDYT 090335Z AUTO 03006KT 10SM SCT038 SCT045 BKN050 10/04 A2996 RMK AO2,KDYT,2023-06-09T03:35:00Z,46.72,-92.03,10.0,4.0,30,6,,10.0,29.958662,,,TRUE,TRUE,,,,,,,SCT,3800,SCT,4500,BKN,5000,,,VFR,,,,,,,,,,,,SPECI,185.0
KDYB 090335Z AUTO 00000KT 6SM BR CLR 20/20 A2978 RMK AO2 LTG DSNT N AND SE,KDYB,2023-06-09T03:35:00Z,33.07,-80.28,20.0,20.0,0,0,,6.0,29.778543,,,TRUE,TRUE,,,,,,BR,CLR,,,,,,,,VFR,,,,,,,,,,,,SPECI,15.0
KDYA 090335Z AUTO 33003KT 10SM CLR 24/19 A2980 RMK AO2 T02390191,KDYA,2023-06-09T03:35:00Z,32.47,-87.95,23.9,19.1,330,3,,10.0,29.799213,,,TRUE,TRUE,,,,,,,CLR,,,,,,,,VFR,,,,,,,,,,,,METAR,33.0
KDXX 090335Z AUTO 13005KT 10SM CLR 22/16 A2991 RMK AO2,KDXX,2023-06-09T03:35:00Z,44.98,-96.18,22.0,16.0,130,5,,10.0,29.911417,,,TRUE,TRUE,,,,,,,CLR,,,,,,,,VFR,,,,,,,,,,,,SPECI,327.0
KDWX 090335Z AUTO 02005KT 10SM VCTS CLR 13/07 A3010 RMK AO2 LTG DSNT NW T01310067,KDWX,2023-06-09T03:35:00Z,41.03,-107.5,13.1,6.7,20,5,,10.0,30.100393,,,TRUE,TRUE,,,,,,VCTS,CLR,,,,,,,,VFR,,,,,,,,,,,,METAR,1974.0
KDWA 090335Z AUTO 00000KT 10SM CLR 21/11 A2997 RMK AO2,KDWA,2023-06-09T03:35:00Z,38.58,-121.85,21.0,11.0,0,0,,10.0,29.970472,,,TRUE,TRUE,,,,,,,CLR,,,,,,,,VFR,,,,,,,,,,,,METAR,28.0
KDUX 090335Z AUTO 12005KT 10SM CLR 19/17 A2998 RMK AO2 T01900165,KDUX,2023-06-09T03:35:00Z,35.85,-102.02,19.0,16.5,120,5,,10.0,29.97933,,,TRUE,TRUE,,,,,,,CLR,,,,,,,,VFR,,,,,,,,,,,,METAR,1129.0
KDUH 090335Z AUTO 00000KT 10SM OVC100 17/08 A2985 RMK AO2 T01740084,KDUH,2023-06-09T03:35:00Z,41.73,-83.65,17.4,8.4,0,0,,10.0,29.84941,,,TRUE,TRUE,,,,,,,OVC,10000,,,,,,,VFR,,,,,,,,,,,,METAR,203.0
KDUC 090335Z AUTO 09005KT 10SM BKN070 OVC080 26/19 A2985 RMK AO2 T02560191,KDUC,2023-06-09T03:35:00Z,34.47,-97.97,25.6,19.1,90,5,,10.0,29.84941,,,TRUE,TRUE,,,,,,,BKN,7000,OVC,8000,,,,,VFR,,,,,,,,,,,,SPECI,339.0
KDUA 090335Z AUTO 00000KT 10SM CLR 23/18 A2985 RMK AO2,KDUA,2023-06-09T03:35:00Z,33.95,-96.4,23.0,18.0,0,0,,10.0,29.84941,,,TRUE,TRUE,,,,,,,CLR,,,,,,,,VFR,,,,,,,,,,,,SPECI,209.0
KDTL 090335Z AUTO 14005KT 10SM FEW034 OVC042 19/13 A2990 RMK AO2,KDTL,2023-06-09T03:35:00Z,46.82,-95.88,19.0,13.0,140,5,,10.0,29.899607,,,TRUE,TRUE,,,,,,,FEW,3400,OVC,4200,,,,,VFR,,,,,,,,,,,,METAR,425.0
KDTA 090335Z AUTO 05012KT 10SM CLR 16/03 A3003 RMK AO1,KDTA,2023-06-09T03:35:00Z,39.38,-112.5,16.0,3.0,50,12,,10.0,30.029528,,,TRUE,TRUE,,,,,,,CLR,,,,,,,,VFR,,,,,,,,,,,,METAR,1452.0
KDRM 090335Z AUTO 00000KT 10SM CLR 11/09 A2990 RMK AO2 T01110086,KDRM,2023-06-09T03:35:00Z,46.0,-83.75,11.1,8.6,0,0,,10.0,29.899607,,,TRUE,TRUE,,,,,,,CLR,,,,,,,,VFR,,,,,,,,,,,,SPECI,201.0
KDRI 090335Z AUTO 00000KT 10SM CLR 23/22 A2986 RMK AO2 T02300222 $,KDRI,2023-06-09T03:35:00Z,30.83,-93.33,23.0,22.2,0,0,,10.0,29.861221,,,TRUE,TRUE,TRUE,,,,,,CLR,,,,,,,,VFR,,,,,,,,,,,,METAR,59.0
KDNV 090335Z AUTO 03007KT 10SM CLR 16/02 A2991 RMK AO2 T01580019,KDNV,2023-06-09T03:35:00Z,40.2,-87.6,15.8,1.9,30,7,,10.0,29.911417,,,TRUE,TRUE,,,,,,,CLR,,,,,,,,VFR,,,,,,,,,,,,SPECI,208.0
KDNN 090335Z AUTO 00000KT 9SM CLR 16/13 A2984 RMK AO2 T01600128,KDNN,2023-06-09T03:35:00Z,34.72,-84.87,16.0,12.8,0,0,,9.0,29.840551,,,TRUE,TRUE,,,,,,,CLR,,,,,,,,VFR,,,,,,,,,,,,METAR,216.0
KDNA 090335Z AUTO 22003KT 10SM CLR 27/M06 A2999 RMK AO2,KDNA,2023-06-09T03:35:00Z,31.88,-106.7,27.0,-6.0,220,3,,10.0,29.991142,,,TRUE,TRUE,,,,,,,CLR,,,,,,,,VFR,,,,,,,,,,,,METAR,1254.0
KDLZ 090335Z AUTO 00000KT 10SM OVC100 16/05 A2985 RMK AO2,KDLZ,2023-06-09T03:35:00Z,40.28,-83.12,16.0,5.0,0,0,,10.0,29.84941,,,TRUE,TRUE,,,,,,,OVC,10000,,,,,,,VFR,,,,,,,,,,,,METAR,287.0
KDLP 090335Z AUTO 29008G14KT 230V330 10SM CLR 28/24 A2973 RMK A01,KDLP,2023-06-09T03:35:00Z,29.12,-89.55,28.0,24.0,290,8,14,10.0,29.731298,,,TRUE,TRUE,,,,,,,CLR,,,,,,,,VFR,,,,,,,,,,,,SPECI,31.0
KDLO 090335Z AUTO 00000KT 10SM CLR 23/13 A2994 RMK AO2 T02330131,KDLO,2023-06-09T03:35:00Z,35.75,-119.23,23.3,13.1,0,0,,10.0,29.940945,,,TRUE,TRUE,,,,,,,CLR,,,,,,,,VFR,,,,,,,,,,,,METAR,97.0
KDLL 090335Z AUTO 00000KT 10SM CLR 14/06 A2994 RMK AO2 T01420055,KDLL,2023-06-09T03:35:00Z,43.52,-89.77,14.2,5.5,0,0,,10.0,29.940945,,,TRUE,TRUE,,,,,,,CLR,,,,,,,,VFR,,,,,,,,,,,,METAR,297.0
KDKX 090335Z AUTO 00000KT 10SM CLR 14/12 A2986 RMK A01,KDKX,2023-06-09T03:35:00Z,35.97,-83.87,14.0,12.0,0,0,,10.0,29.861221,,,TRUE,TRUE,,,,,,,CLR,,,,,,,,VFR,,,,,,,,,,,,SPECI,253.0
KDEH 090335Z AUTO 00000KT 10SM OVC050 16/07 A2993 RMK AO2,KDEH,2023-06-09T03:35:00Z,43.27,-91.73,16.0,7.0,0,0,,10.0,29.929134,,,TRUE,TRUE,,,,,,,OVC,5000,,,,,,,VFR,,,,,,,,,,,,SPECI,348.0
KDCM 090335Z AUTO 36003KT 10SM BKN090 BKN110 18/10 A2985 RMK AO2 LTG DSNT NE AND SE,KDCM,2023-06-09T03:35:00Z,34.78,-81.2,18.0,10.0,360,3,,10.0,29.84941,,,TRUE,TRUE,,,,,,,BKN,9000,BKN,11000,,,,,VFR,,,,,,,,,,,,SPECI,191.0
KD95 090335Z AUTO 00000KT 10SM CLR 13/06 A2990 RMK AO2 T01300060,KD95,2023-06-09T03:35:00Z,43.07,-83.27,13.0,6.0,0,0,,10.0,29.899607,,,TRUE,TRUE,,,,,,,CLR,,,,,,,,VFR,,,,,,,,,,,,METAR,253.0
KD60 090335Z AUTO 07010KT 10SM CLR 19/19 A2993 RMK AO2,KD60,2023-06-09T03:35:00Z,48.38,-102.9,19.0,19.0,70,10,,10.0,29.929134,,,TRUE,TRUE,,,,,,,CLR,,,,,,,,VFR,,,,,,,,,,,,METAR,682.0
KD57 090335Z AUTO 05005KT 10SM BKN110 20/16 A2987 RMK AO2,KD57,2023-06-09T03:35:00Z,46.82,-101.87,20.0,16.0,50,5,,10.0,29.870079,,,TRUE,TRUE,,,,,,,BKN,11000,,,,,,,VFR,,,,,,,,,,,,METAR,636.0
KD55 090335Z AUTO 00000KT 6SM BR FEW041 FEW050 BKN110 21/21 A2991 RMK AO2,KD55,2023-06-09T03:35:00Z,48.75,-98.4,21.0,21.0,0,0,,6.0,29.911417,,,TRUE,TRUE,,,,,,BR,FEW,4100,FEW,5000,BKN,11000,,,VFR,,,,,,,,,,,,METAR,488.0
KD39 090335Z AUTO 00000KT 10SM CLR 18/12 A2992 RMK AO2 T01840119,KD39,2023-06-09T03:35:00Z,45.7,-94.93,18.4,11.9,0,0,,10.0,29.920275,,,TRUE,TRUE,,,,,,,CLR,,,,,,,,VFR,,,,,,,,,,,,METAR,378.0
KD25 090335Z AUTO 00000KT 10SM CLR 09/04 A2997 RMK AO2 T00870044,KD25,2023-06-09T03:35:00Z,46.12,-89.88,8.7,4.4,0,0,,10.0,29.970472,,,TRUE,TRUE,,,,,,,CLR,,,,,,,,VFR,,,,,,,,,,,,SPECI,490.0
KCZL 090335Z AUTO 00000KT 10SM CLR 16/12 A2986 RMK AO2,KCZL,2023-06-09T03:35:00Z,34.47,-84.93,16.0,12.0,0,0,,10.0,29.861221,,,TRUE,TRUE,,,,,,,CLR,,,,,,,,VFR,,,,,,,,,,,,SPECI,197.0
KCXW 090335Z AUTO 04005KT 10SM 20/M21 A2985 RMK A01,KCXW,2023-06-09T03:35:00Z,35.02,-92.55,20.0,-21.0,40,5,,10.0,29.84941,,,TRUE,TRUE,,,,,,,,,,,,,,,,,,,,,,,,,,,SPECI,84.0
KCXU 090335Z AUTO 23003KT 10SM CLR 26/20 A2979 RMK AO1 T02600202,KCXU,2023-06-09T03:35:00Z,31.22,-84.23,26.0,20.2,230,3,,10.0,29.790354,,,TRUE,TRUE,,,,,,,CLR,,,,,,,,VFR,,,,,,,,,,,,SPECI,48.0
KCXP 090335Z AUTO 32004KT 10SM CLR 15/06 A3010 RMK AO2 LTG DSNT NW,KCXP,2023-06-09T03:35:00Z,39.18,-119.73,15.0,6.0,320,4,,10.0,30.100393,,,TRUE,TRUE,,,,,,,CLR,,,,,,,,VFR,,,,,,,,,,,,SPECI,1431.0
KCXE 090335Z AUTO 7SM SCT100 14/13 A2981 RMK AO1 T01410129,KCXE,2023-06-09T03:35:00Z,36.78,-78.5,14.1,12.9,,,,7.0,29.811024,,,TRUE,TRUE,,,,,,,SCT,10000,,,,,,,VFR,,,,,,,,,,,,SPECI,154.0
KCWC 090335Z AUTO 17004KT 10SM CLR 25/19 A2984 RMK AO2 T02490185,KCWC,2023-06-09T03:35:00Z,33.85,-98.48,24.9,18.5,170,4,,10.0,29.840551,,,TRUE,TRUE,,,,,,,CLR,,,,,,,,VFR,,,,,,,,,,,,METAR,304.0
KCWA 090335Z AUTO 34005KT 10SM CLR 15/03 A2995 RMK AO2,KCWA,2023-06-09T03:35:00Z,44.78,-89.67,15.0,3.0,340,5,,10.0,29.949802,,,TRUE,TRUE,,,,,,,CLR,,,,,,,,VFR,,,,,,,,,,,,METAR,387.0
KCVX 090335Z AUTO 02004KT 10SM CLR 16/02 A2993 RMK AO2 T01560021,KCVX,2023-06-09T03:35:00Z,45.3,-85.27,15.6,2.1,20,4,,10.0,29.929134,,,TRUE,TRUE,,,,,,,CLR,,,,,,,,VFR,,,,,,,,,,,,METAR,196.0
KCVH 090335Z AUTO 24015KT 10SM CLR 15/11 A3004 RMK A01,KCVH,2023-06-09T03:35:00Z,36.9,-121.42,15.0,11.0,240,15,,10.0,30.041338,,,TRUE,TRUE,,,,,,,CLR,,,,,,,,VFR,,,,,,,,,,,,METAR,68.0
KCVC 090335Z AUTO 00000KT 10SM CLR 20/09 A2981 RMK AO2,KCVC,2023-06-09T03:35:00Z,33.63,-83.85,20.0,9.0,0,0,,10.0,29.811024,,,TRUE,TRUE,,,,,,,CLR,,,,,,,,VFR,,,,,,,,,,,,SPECI,240.0
KCVB 090335Z AUTO 09003KT 10SM CLR 28/21 A2988 RMK AO2 T02780205,KCVB,2023-06-09T03:35:00Z,29.35,-98.85,27.8,20.5,90,3,,10.0,29.878937,,,TRUE,TRUE,,,,,,,CLR,,,,,,,,VFR,,,,,,,,,,,,METAR,234.0
KCUH 090335Z AUTO 00000KT 10SM CLR 23/18 A2981 RMK AO2 T02310182,KCUH,2023-06-09T03:35:00Z,35.95,-96.77,23.1,18.2,0,0,,10.0,29.811024,,,TRUE,TRUE,,,,,,,CLR,,,,,,,,VFR,,,,,,,,,,,,SPECI,274.0
KCTY 090335Z AUTO 20004KT 10SM CLR 23/22 A2982 RMK AO2,KCTY,2023-06-09T03:35:00Z,29.63,-83.1,23.0,22.0,200,4,,10.0,29.819881,,,TRUE,TRUE,,,,,,,CLR,,,,,,,,VFR,,,,,,,,,,,,METAR,12.0
KCSQ 090335Z AUTO 12003KT 10SM CLR 18/16 A2991 RMK AO2,KCSQ,2023-06-09T03:35:00Z,41.02,-94.37,18.0,16.0,120,3,,10.0,29.911417,,,TRUE,TRUE,,,,,,,CLR,,,,,,,,VFR,,,,,,,,,,,,SPECI,394.0
KCRX 090335Z AUTO 00000KT 10SM CLR 20/15 A2983 RMK AO2,KCRX,2023-06-09T03:35:00Z,34.92,-88.6,20.0,15.0,0,0,,10.0,29.828741,,,TRUE,TRUE,,,,,,,CLR,,,,,,,,VFR,,,,,,,,,,,,SPECI,128.0
KCQW 090335Z AUTO 00000KT 10SM BKN110 17/10 A2980 RMK AO2,KCQW,2023-06-09T03:35:00Z,34.72,-79.95,17.0,10.0,0,0,,10.0,29.799213,,,TRUE,TRUE,,,,,,,BKN,11000,,,,,,,VFR,,,,,,,,,,,,METAR,67.0
KCQF 090335Z AUTO 00000KT 10SM CLR 23/22 A2981 RMK AO2,KCQF,2023-06-09T03:35:00Z,30.47,-87.88,23.0,22.0,0,0,,10.0,29.811024,,,TRUE,TRUE,,,,,,,CLR,,,,,,,,VFR,,,,,,,,,,,,SPECI,21.0
KCPU 090335Z AUTO 32005KT 10SM CLR 21/11 A3000 RMK AO2 T02080105,KCPU,2023-06-09T03:35:00Z,38.15,-120.65,20.8,10.5,320,5,,10.0,30.0,,,TRUE,TRUE,,,,,,,CLR,,,,,,,,VFR,,,,,,,,,,,,METAR,400.0
KCPT 090335Z AUTO 22003KT 10SM CLR 21/21 A2985 RMK A01,KCPT,2023-06-09T03:35:00Z,32.35,-97.43,21.0,21.0,220,3,,10.0,29.84941,,,TRUE,TRUE,,,,,,,CLR,,,,,,,,VFR,,,,,,,,,,,,METAR,260.0
KCPP 090335Z AUTO 00000KT 10SM CLR 18/11 A2980 RMK AO2 LTG DSNT SE,KCPP,2023-06-09T03:35:00Z,,,18.0,11.0,0,0,,10.0,29.799213,,,TRUE,TRUE,,,,,,,CLR,,,,,,,,VFR,,,,,,,,,,,,SPECI,
KCPK 090335Z AUTO 00000KT 10SM VCTS OVC060 11/10 A2979 RMK AO2 T01060098,KCPK,2023-06-09T03:35:00Z,36.67,-76.32,10.6,9.8,0,0,,10.0,29.790354,,,TRUE,TRUE,,,,,,VCTS,OVC,6000,,,,,,,VFR,,,,,,,,,,,,SPECI,4.0
KCPF 090335Z AUTO 00000KT 10SM CLR 11/09 A2989 RMK AO2,KCPF,2023-06-09T03:35:00Z,37.38,-83.27,11.0,9.0,0,0,,10.0,29.890747,,,TRUE,TRUE,,,,,,,CLR,,,,,,,,VFR,,,,,,,,,,,,METAR,382.0
KCOQ 090335Z AUTO 00000KT 10SM CLR 12/M01 A2996 RMK AO2 TSNO,KCOQ,2023-06-09T03:35:00Z,46.7,-92.5,12.0,-1.0,0,0,,10.0,29.958662,,,TRUE,TRUE,,,TRUE,,,,CLR,,,,,,,,VFR,,,,,,,,,,,,METAR,390.0
KCNC 090335Z AUTO 08004KT 10SM CLR 18/08 A2991 RMK AO2,KCNC,2023-06-09T03:35:00Z,41.02,-93.37,18.0,8.0,80,4,,10.0,29.911417,,,TRUE,TRUE,,,,,,,CLR,,,,,,,,VFR,,,,,,,,,,,,SPECI,319.0
KCNB 090335Z AUTO 09005KT 10SM CLR 21/17 A2991 RMK AO2 T02110165,KCNB,2023-06-09T03:35:00Z,44.73,-96.27,21.1,16.5,90,5,,10.0,29.911417,,,TRUE,TRUE,,,,,,,CLR,,,,,,,,VFR,,,,,,,,,,,,METAR,363.0
KCMR 090335Z AUTO 21006KT 10SM CLR 14/M07 A3019 RMK AO2,KCMR,2023-06-09T03:35:00Z,35.3,-112.2,14.0,-7.0,210,6,,10.0,30.188976,,,TRUE,TRUE,,,,,,,CLR,,,,,,,,VFR,,,,,,,,,,,,METAR,2039.0
KCLW 090335Z AUTO 27005KT 10SM SCT022 SCT029 25/21 A2985 RMK AO2,KCLW,2023-06-09T03:35:00Z,27.98,-82.75,25.0,21.0,270,5,,10.0,29.84941,,,TRUE,TRUE,,,,,,,SCT,2200,SCT,2900,,,,,VFR,,,,,,,,,,,,METAR,21.0
KCLS 090335Z AUTO VRB03KT 10SM CLR 18/12 A2997 RMK AO2,KCLS,2023-06-09T03:35:00Z,46.68,-122.98,18.0,12.0,0,3,,10.0,29.970472,,,TRUE,TRUE,,,,,,,CLR,,,,,,,,VFR,,,,,,,,,,,,METAR,52.0
KCLK 090335Z AUTO 00000KT 10SM CLR 23/18 A2987 RMK AO2,KCLK,2023-06-09T03:35:00Z,35.53,-98.93,23.0,18.0,0,0,,10.0,29.870079,,,TRUE,TRUE,,,,,,,CLR,,,,,,,,VFR,,,,,,,,,,,,METAR,489.0
KCLI 090335Z AUTO 00000KT 10SM CLR 14/05 A2995 RMK AO2 T01400054,KCLI,2023-06-09T03:35:00Z,44.62,-88.73,14.0,5.4,0,0,,10.0,29.949802,,,TRUE,TRUE,,,,,,,CLR,,,,,,,,VFR,,,,,,,,,,,,METAR,248.0
KCKZ 090335Z AUTO 33003KT 7SM BKN075 OVC090 15/08 A2978 RMK AO2,KCKZ,2023-06-09T03:35:00Z,40.38,-75.28,15.0,8.0,330,3,,7.0,29.778543,,,TRUE,TRUE,,,,,,,BKN,7500,OVC,9000,,,,,VFR,,,,,,,,,,,,SPECI,160.0
KCKN 090335Z AUTO 09004KT 10SM BKN060 23/16 A2988 RMK AO2,KCKN,2023-06-09T03:35:00Z,47.85,-96.62,23.0,16.0,90,4,,10.0,29.878937,,,TRUE,TRUE,,,,,,,BKN,6000,,,,,,,VFR,,,,,,,,,,,,SPECI,272.0
KCKM 090335Z AUTO 00000KT 10SM 24/22 A2984 RMK A01,KCKM,2023-06-09T03:35:00Z,34.3,-90.52,24.0,22.0,0,0,,10.0,29.840551,,,TRUE,TRUE,,,,,,,,,,,,,,,,,,,,,,,,,,,METAR,52.0
KCKI 090335Z AUTO 00000KT 10SM CLR 17/15 A2980 RMK AO2,KCKI,2023-06-09T03:35:00Z,33.72,-79.85,17.0,15.0,0,0,,10.0,29.799213,,,TRUE,TRUE,,,,,,,CLR,,,,,,,,VFR,,,,,,,,,,,,METAR,19.0
KCJR 090335Z AUTO 00000KT 10SM TS CLR 16/07 A2982 RMK AO2 LTG DSNT SW T01610071,KCJR,2023-06-09T03:35:00Z,38.53,-77.87,16.1,7.1,0,0,,10.0,29.819881,,,TRUE,TRUE,,,,,,TS,CLR,,,,,,,,VFR,,,,,,,,,,,,SPECI,90.0
KCGC 090335Z AUTO 00000KT 10SM CLR 22/20 A2983 RMK AO2,KCGC,2023-06-09T03:35:00Z,28.87,-82.57,22.0,20.0,0,0,,10.0,29.828741,,,TRUE,TRUE,,,,,,,CLR,,,,,,,,VFR,,,,,,,,,,,,METAR,3.0
KCFS 090335Z AUTO 00000KT 10SM CLR 12/06 A2990 RMK AO2 T01170057,KCFS,2023-06-09T03:35:00Z,43.47,-83.45,11.7,5.7,0,0,,10.0,29.899607,,,TRUE,TRUE,,,,,,,CLR,,,,,,,,VFR,,,,,,,,,,,,METAR,214.0
KCFO 090335Z AUTO 25030G34KT 10SM VCTS SCT045 BKN050 OVC120 17/06 A3010 RMK AO2 LTG DSNT ALQS T01710060,KCFO,2023-06-09T03:35:00Z,39.78,-104.55,17.1,6.0,250,30,34,10.0,30.100393,,,TRUE,TRUE,,,,,,VCTS,SCT,4500,BKN,5000,OVC,12000,,,VFR,,,,,,,,,,,,METAR,1672.0
KCFJ 090335Z AUTO 01007KT 10SM CLR 16/M01 A2990 RMK AO2 T01561015,KCFJ,2023-06-09T03:35:00Z,39.98,-86.92,15.6,-1.5,10,7,,10.0,29.899607,,,TRUE,TRUE,,,,,,,CLR,,,,,,,,VFR,,,,,,,,,,,,METAR,243.0
KCFE 090335Z AUTO 10005KT 10SM FEW029 BKN037 OVC110 19/09 A2992 RMK AO2,KCFE,2023-06-09T03:35:00Z,45.17,-93.85,19.0,9.0,100,5,,10.0,29.920275,,,TRUE,TRUE,,,,,,,FEW,2900,BKN,3700,OVC,11000,,,VFR,,,,,,,,,,,,METAR,292.0
KCFD 090335Z AUTO 00000KT 10SM CLR 21/21 A2987 RMK AO2 T02050205,KCFD,2023-06-09T03:35:00Z,30.72,-96.33,20.5,20.5,0,0,,10.0,29.870079,,,TRUE,TRUE,,,,,,,CLR,,,,,,,,VFR,,,,,,,,,,,,METAR,106.0
KCEY 090335Z AUTO 00000KT 10SM CLR 17/09 A2985 RMK A01,KCEY,2023-06-09T03:35:00Z,36.67,-88.37,17.0,9.0,0,0,,10.0,29.84941,,,TRUE,TRUE,,,,,,,CLR,,,,,,,,VFR,,,,,,,,,,,,METAR,172.0
KCEF 090335Z AUTO 02003KT 4SM BR BKN090 09/09 A2971 RMK AO2 VIS 2 1/2 RWY05 SLP067,KCEF,2023-06-09T03:35:00Z,42.2,-72.52,9.0,9.0,20,3,,4.0,29.71063,1006.7,,TRUE,TRUE,,,,,,BR,BKN,9000,,,,,,,MVFR,,,,,,,,,,,,SPECI,72.0
KCDN 090335Z AUTO 00000KT 10SM BKN075 OVC080 21/12 A2981 RMK AO2,KCDN,2023-06-09T03:35:00Z,34.28,-80.57,21.0,12.0,0,0,,10.0,29.811024,,,TRUE,TRUE,,,,,,,BKN,7500,OVC,8000,,,,,VFR,,,,,,,,,,,,METAR,90.0
KCDI 090335Z AUTO 00000KT 10SM SCT120 10/08 A2986 RMK AO2 LTG DSNT SE T00960079,KCDI,2023-06-09T03:35:00Z,39.97,-81.58,9.6,7.9,0,0,,10.0,29.861221,,,TRUE,TRUE,,,,,,,SCT,12000,,,,,,,VFR,,,,,,,,,,,,METAR,241.0
KCDH 090335Z AUTO 00000KT 9SM CLR 23/22 A2983 RMK AO2,KCDH,2023-06-09T03:35:00Z,33.62,-92.77,23.0,22.0,0,0,,9.0,29.828741,,,TRUE,TRUE,,,,,,,CLR,,,,,,,,VFR,,,,,,,,,,,,SPECI,38.0
KCDA 090335Z AUTO 00000KT 10SM OVC055 09/09 A2975 RMK AO2 T00940086,KCDA,2023-06-09T03:35:00Z,44.57,-72.02,9.4,8.6,0,0,,10.0,29.749016,,,TRUE,TRUE,,,,,,,OVC,5500,,,,,,,VFR,,,,,,,,,,,,METAR,357.0
KCCU 090335Z AUTO 26003KT 10SM CLR 07/M02 A3047 RMK AO2,KCCU,2023-06-09T03:35:00Z,39.48,-106.15,7.0,-2.0,260,3,,10.0,30.469488,,,TRUE,TRUE,,,,,,,CLR,,,,,,,,VFR,,,,,,,,,,,,METAR,3672.0
KCCB 090335Z AUTO 26010KT 10SM 17/11 A3001 RMK AO2,KCCB,2023-06-09T03:35:00Z,34.12,-117.68,17.0,11.0,260,10,,10.0,30.008858,,,TRUE,TRUE,,,,,,,,,,,,,,,,,,,,,,,,,,,METAR,440.0
KCCA 090335Z AUTO 00000KT 4SM BR OVC003 20/20 A2988 RMK AO2,KCCA,2023-06-09T03:35:00Z,35.6,-92.45,20.0,20.0,0,0,,4.0,29.878937,,,TRUE,TRUE,,,,,,BR,OVC,300,,,,,,,LIFR,,,,,,,,,,,,METAR,152.0
KCBG 090335Z AUTO 00000KT 10SM CLR 17/06 A2994 RMK AO2,KCBG,2023-06-09T03:35:00Z,45.57,-93.27,17.0,6.0,0,0,,10.0,29.940945,,,TRUE,TRUE,,,,,,,CLR,,,,,,,,VFR,,,,,,,,,,,,METAR,285.0
KCAD 090335Z AUTO 00000KT 10SM SCT065 10/03 A2992 RMK AO2 T00950034,KCAD,2023-06-09T03:35:00Z,44.27,-85.42,9.5,3.4,0,0,,10.0,29.920275,,,TRUE,TRUE,,,,,,,SCT,6500,,,,,,,VFR,,,,,,,,,,,,METAR,397.0
KC62 090335Z AUTO 00000KT 10SM CLR 14/04 A2989 RMK AO2 T01440046,KC62,2023-06-09T03:35:00Z,41.47,-85.25,14.4,4.6,0,0,,10.0,29.890747,,,TRUE,TRUE,,,,,,,CLR,,,,,,,,VFR,,,,,,,,,,,,METAR,304.0
KC35 090335Z AUTO 00000KT 10SM CLR 13/05 A2994 RMK AO2 T01330049 PWINO,KC35,2023-06-09T03:35:00Z,43.53,-89.98,13.3,4.9,0,0,,10.0,29.940945,,,TRUE,TRUE,,,,,TRUE,,CLR,,,,,,,,VFR,,,,,,,,,,,,METAR,272.0
KC29 090335Z AUTO 00000KT 10SM CLR 12/05 A2995 RMK AO1 T01190045,KC29,2023-06-09T03:35:00Z,43.12,-89.53,11.9,4.5,0,0,,10.0,29.949802,,,TRUE,TRUE,,,,,,,CLR,,,,,,,,VFR,,,,,,,,,,,,METAR,282.0
KC09 090335Z AUTO 09004KT 10SM CLR 16/03 A2993 RMK AO2 T01640025,KC09,2023-06-09T03:35:00Z,41.43,-88.42,16.4,2.5,90,4,,10.0,29.929134,,,TRUE,TRUE,,,,,,,CLR,,,,,,,,VFR,,,,,,,,,,,,METAR,179.0
KBYY 090335Z AUTO 14004KT 10SM SCT100 22/20 A2987 RMK AO2 T02290200,KBYY,2023-06-09T03:35:00Z,28.97,-95.87,22.9,20.0,140,4,,10.0,29.870079,,,TRUE,TRUE,,,,,,,SCT,10000,,,,,,,VFR,,,,,,,,,,,,METAR,12.0
KBXK 090335Z AUTO 28005KT 10SM CLR 28/M04 A2987 RMK A01,KBXK,2023-06-09T03:35:00Z,33.42,-112.68,28.0,-4.0,280,5,,10.0,29.870079,,,TRUE,TRUE,,,,,,,CLR,,,,,,,,VFR,,,,,,,,,,,,METAR,303.0
KBXA 090335Z AUTO 00000KT 10SM CLR 21/19 A2984 RMK AO2 T02090193,KBXA,2023-06-09T03:35:00Z,30.82,-89.87,20.9,19.3,0,0,,10.0,29.840551,,,TRUE,TRUE,,,,,,,CLR,,,,,,,,VFR,,,,,,,,,,,,METAR,35.0
KBWW 090335Z AUTO 11010KT 10SM CLR 21/17 A2989 RMK AO2,KBWW,2023-06-09T03:35:00Z,46.17,-103.3,21.0,17.0,110,10,,10.0,29.890747,,,TRUE,TRUE,,,,,,,CLR,,,,,,,,VFR,,,,,,,,,,,,METAR,911.0
KBWP 090335Z AUTO 14007KT 10SM FEW044 FEW050 22/15 A2987 RMK AO2,KBWP,2023-06-09T03:35:00Z,46.25,-96.62,22.0,15.0,140,7,,10.0,29.870079,,,TRUE,TRUE,,,,,,,FEW,4400,FEW,5000,,,,,VFR,,,,,,,,,,,,SPECI,294.0
KBVU 090335Z AUTO 21008KT 10SM CLR 28/M00 A2987 RMK AO2,KBVU,2023-06-09T03:35:00Z,35.95,-114.87,28.0,0.0,210,8,,10.0,29.870079,,,TRUE,TRUE,,,,,,,CLR,,,,,,,,VFR,,,,,,,,,,,,METAR,654.0
KBVI 090335Z AUTO 00000KT 10SM CLR 16/05 A2984 RMK AO2 LTG DSNT S T01590052,KBVI,2023-06-09T03:35:00Z,40.77,-80.37,15.9,5.2,0,0,,10.0,29.840551,,,TRUE,TRUE,,,,,,,CLR,,,,,,,,VFR,,,,,,,,,,,,METAR,387.0
KBUU 090335Z AUTO 00000KT 10SM CLR 10/04 A2994 RMK AO2 T01030036 PWINO,KBUU,2023-06-09T03:35:00Z,42.68,-88.3,10.3,3.6,0,0,,10.0,29.940945,,,TRUE,TRUE,,,,,TRUE,,CLR,,,,,,,,VFR,,,,,,,,,,,,SPECI,238.0
KBTN 090335Z AUTO 12008KT 10SM OVC095 23/19 A2985 RMK AO2,KBTN,2023-06-09T03:35:00Z,45.82,-97.75,23.0,19.0,120,8,,10.0,29.84941,,,TRUE,TRUE,,,,,,,OVC,9500,,,,,,,VFR,,,,,,,,,,,,SPECI,400.0
KBTA 090335Z AUTO 12005KT 10SM CLR 21/14 A2989 RMK AO2 T02060142,KBTA,2023-06-09T03:35:00Z,41.42,-96.12,20.6,14.2,120,5,,10.0,29.890747,,,TRUE,TRUE,,,,,,,CLR,,,,,,,,VFR,,,,,,,,,,,,METAR,400.0
KBRY 090335Z AUTO 00000KT 10SM FEW085 15/14 A2984 RMK AO2 T01480140,KBRY,2023-06-09T03:35:00Z,37.82,-85.5,14.8,14.0,0,0,,10.0,29.840551,,,TRUE,TRUE,,,,,,,FEW,8500,,,,,,,VFR,,,,,,,,,,,,METAR,192.0
KBRG 090335Z AUTO 18009KT 10SM CLR 23/M07 A3003 RMK AO2 T02311072,KBRG,2023-06-09T03:35:00Z,34.65,-106.83,23.1,-7.2,180,9,,10.0,30.029528,,,TRUE,TRUE,,,,,,,CLR,,,,,,,,VFR,,,,,,,,,,,,METAR,1585.0
KBQX 090335Z AUTO 17012KT 10SM OVC042 28/22 A2987 RMK A01,KBQX,2023-06-09T03:35:00Z,28.5,-95.72,28.0,22.0,170,12,,10.0,29.870079,,,TRUE,TRUE,,,,,,,OVC,4200,,,,,,,VFR,,,,,,,,,,,,SPECI,34.0
KBQK 090335Z AUTO 24004KT 10SM SCT075 BKN100 26/21 A2976 RMK AO2 LTG DSNT E AND NW T02560209,KBQK,2023-06-09T03:35:00Z,31.25,-81.47,25.6,20.9,240,4,,10.0,29.760826,,,TRUE,TRUE,,,,,,,SCT,7500,BKN,10000,,,,,VFR,,,,,,,,,,,,METAR,7.0
KBPG 090335Z AUTO 10007KT 10SM CLR 23/15 A2992 RMK AO2 T02330153,KBPG,2023-06-09T03:35:00Z,32.22,-101.52,23.3,15.3,100,7,,10.0,29.920275,,,TRUE,TRUE,,,,,,,CLR,,,,,,,,VFR,,,,,,,,,,,,METAR,782.0
KBPC 090335Z AUTO 00000KT 10SM CLR 21/16 A2993 RMK AO2,KBPC,2023-06-09T03:35:00Z,35.88,-101.03,21.0,16.0,0,0,,10.0,29.929134,,,TRUE,TRUE,,,,,,,CLR,,,,,,,,VFR,,,,,,,,,,,,METAR,844.0
KBOW 090335Z AUTO 26005KT 10SM CLR 25/21 A2984 RMK AO2,KBOW,2023-06-09T03:35:00Z,27.93,-81.77,25.0,21.0,260,5,,10.0,29.840551,,,TRUE,TRUE,,,,,,,CLR,,,,,,,,VFR,,,,,,,,,,,,METAR,38.0
KBNL 090335Z AUTO 00000KT 10SM SCT085 21/17 A2979 RMK AO2 LTG DSNT NE AND SE AND SW,KBNL,2023-06-09T03:35:00Z,33.25,-81.38,21.0,17.0,0,0,,10.0,29.790354,,,TRUE,TRUE,,,,,,,SCT,8500,,,,,,,VFR,,,,,,,,,,,,SPECI,76.0
KBKT 090335Z AUTO 00000KT 10SM OVC110 16/13 A2980 RMK AO1 T01550125,KBKT,2023-06-09T03:35:00Z,37.07,-77.95,15.5,12.5,0,0,,10.0,29.799213,,,TRUE,TRUE,,,,,,,OVC,11000,,,,,,,VFR,,,,,,,,,,,,METAR,134.0
KBKS 090335Z AUTO 15007KT 8SM -RA CLR 28/23 A2982 RMK AO2 SLP059 P0000 T02780227 $,KBKS,2023-06-09T03:35:00Z,27.2,-98.12,27.8,22.7,150,7,,8.0,29.819881,1005.9,,TRUE,TRUE,TRUE,,,,,-RA,CLR,,,,,,,,VFR,,,,,,0.005,,,,,,METAR,34.0
KBKN 090335Z AUTO 19005KT CLR 24/19 A2982 RMK AO2,KBKN,2023-06-09T03:35:00Z,36.75,-97.35,24.0,19.0,190,5,,,29.819881,,,TRUE,TRUE,,,,,,,CLR,,,,,,,,,,,,,,,,,,,,METAR,208.0
KBKD 090335Z AUTO 00000KT 1/2SM HZ VV005 25/17 A2986 RMK AO2 T02480168,KBKD,2023-06-09T03:35:00Z,32.72,-98.88,24.8,16.8,0,0,,0.5,29.861221,,,TRUE,TRUE,,,,,,HZ,OVX,0,,,,,,,LIFR,,,,,,,,,,,500,METAR,383.0
KBJI 090335Z AUTO 00000KT 10SM OVC060 17/13 A2993 RMK AO2 T01730128,KBJI,2023-06-09T03:35:00Z,47.5,-94.92,17.3,12.8,0,0,,10.0,29.929134,,,TRUE,TRUE,,,,,,,OVC,6000,,,,,,,VFR,,,,,,,,,,,,METAR,422.0
KBIJ 090335Z AUTO 00000KT 10SM SCT090 22/18 A2979 RMK AO2,KBIJ,2023-06-09T03:35:00Z,31.4,-84.9,22.0,18.0,0,0,,10.0,29.790354,,,TRUE,TRUE,,,,,,,SCT,9000,,,,,,,VFR,,,,,,,,,,,,METAR,63.0
KBIE 090335Z AUTO 12004KT 10SM CLR 22/18 A2988 RMK AO2 T02200180,KBIE,2023-06-09T03:35:00Z,40.28,-96.75,22.0,18.0,120,4,,10.0,29.878937,,,TRUE,TRUE,,,,,,,CLR,,,,,,,,VFR,,,,,,,,,,,,METAR,398.0
KBGF 090335Z AUTO 28004KT 10SM FEW055 BKN065 17/14 A2984 RMK A01,KBGF,2023-06-09T03:35:00Z,35.18,-86.07,17.0,14.0,280,4,,10.0,29.840551,,,TRUE,TRUE,,,,,,,FEW,5500,BKN,6500,,,,,VFR,,,,,,,,,,,,SPECI,295.0
KBGE 090335Z AUTO 23008KT 10SM CLR 25/22 A2979 RMK AO2 T02540224,KBGE,2023-06-09T03:35:00Z,30.97,-84.63,25.4,22.4,230,8,,10.0,29.790354,,,TRUE,TRUE,,,,,,,CLR,,,,,,,,VFR,,,,,,,,,,,,METAR,40.0
KBEA 090335Z AUTO 10005KT 10SM CLR 25/22 A2985 RMK AO2 T02520221,KBEA,2023-06-09T03:35:00Z,28.37,-97.78,25.2,22.1,100,5,,10.0,29.84941,,,TRUE,TRUE,,,,,,,CLR,,,,,,,,VFR,,,,,,,,,,,,METAR,83.0
KBDN 090335Z AUTO 24004KT 10SM FEW085 19/12 A2997 RMK AO2,KBDN,2023-06-09T03:35:00Z,44.1,-121.2,19.0,12.0,240,4,,10.0,29.970472,,,TRUE,TRUE,,,,,,,FEW,8500,,,,,,,VFR,,,,,,,,,,,,SPECI,1044.0
KBDH 090335Z AUTO 00000KT 10SM CLR 21/13 A2995 RMK AO2,KBDH,2023-06-09T03:35:00Z,45.12,-95.13,21.0,13.0,0,0,,10.0,29.949802,,,TRUE,TRUE,,,,,,,CLR,,,,,,,,VFR,,,,,,,,,,,,METAR,341.0
KBCK 090335Z AUTO 00000KT 10SM CLR 08/04 A2994 RMK AO2 T00750041,KBCK,2023-06-09T03:35:00Z,44.25,-90.85,7.5,4.1,0,0,,10.0,29.940945,,,TRUE,TRUE,,,,,,,CLR,,,,,,,,VFR,,,,,,,,,,,,METAR,256.0
KBCB 090335Z AUTO 00000KT 10SM CLR 11/04 A2991 RMK AO2 LTG DSNT E T01100044,KBCB,2023-06-09T03:35:00Z,37.22,-80.42,11.0,4.4,0,0,,10.0,29.911417,,,TRUE,TRUE,,,,,,,CLR,,,,,,,,VFR,,,,,,,,,,,,SPECI,642.0
KBBP 090335Z AUTO 00000KT 10SM SCT110 14/13 A2980 RMK AO2 LTG DSNT N,KBBP,2023-06-09T03:35:00Z,34.62,-79.73,14.0,13.0,0,0,,10.0,29.799213,,,TRUE,TRUE,,,,,,,SCT,11000,,,,,,,VFR,,,,,,,,,,,,SPECI,44.0
KBBG 090335Z AUTO 00000KT 10SM FEW042 SCT065 OVC100 21/20 A2989 RMK AO2,KBBG,2023-06-09T03:35:00Z,36.53,-93.2,21.0,20.0,0,0,,10.0,29.890747,,,TRUE,TRUE,,,,,,,FEW,4200,SCT,6500,OVC,10000,,,VFR,,,,,,,,,,,,METAR,403.0
KBAX 090335Z AUTO 00000KT 10SM OVC090 10/09 A2989 RMK AO2 T01040089,KBAX,2023-06-09T03:35:00Z,43.78,-82.98,10.4,8.9,0,0,,10.0,29.890747,,,TRUE,TRUE,,,,,,,OVC,9000,,,,,,,VFR,,,,,,,,,,,,METAR,229.0
KBAM 090335Z AUTO 25010KT 10SM BKN090 15/08 A3005 RMK AO1,KBAM,2023-06-09T03:35:00Z,40.6,-116.87,15.0,8.0,250,10,,10.0,30.050198,,,TRUE,TRUE,,,,,,,BKN,9000,,,,,,,VFR,,,,,,,,,,,,METAR,1381.0
KBAC 090335Z AUTO 00000KT 10SM OVC080 24/21 A2989 RMK AO2 LTG DSNT W AND NW,KBAC,2023-06-09T03:35:00Z,46.93,-98.02,24.0,21.0,0,0,,10.0,29.890747,,,TRUE,TRUE,,,,,,,OVC,8000,,,,,,,VFR,,,,,,,,,,,,METAR,423.0
KAZC 090335Z AUTO 25007KT 10SM CLR 22/M01 A3007 RMK AO2,KAZC,2023-06-09T03:35:00Z,36.97,-113.02,22.0,-1.0,250,7,,10.0,30.070866,,,TRUE,TRUE,,,,,,,CLR,,,,,,,,VFR,,,,,,,,,,,,METAR,1476.0
KAXX 090335Z AUTO 00000KT 10SM CLR 09/03 A3026 RMK AO2 T00930029,KAXX,2023-06-09T03:35:00Z,36.42,-105.28,9.3,2.9,0,0,,10.0,30.259842,,,TRUE,TRUE,,,,,,,CLR,,,,,,,,VFR,,,,,,,,,,,,METAR,2543.0
KAXV 090335Z AUTO 33010G14KT 10SM BKN090 18/03 A2986 RMK AO2,KAXV,2023-06-09T03:35:00Z,40.5,-84.3,18.0,3.0,330,10,14,10.0,29.861221,,,TRUE,TRUE,,,,,,,BKN,9000,,,,,,,VFR,,,,,,,,,,,,METAR,278.0
KAXH 090335Z AUTO 00000KT 10SM CLR 21/20 A2987 RMK AO2 T02060198,KAXH,2023-06-09T03:35:00Z,29.52,-95.48,20.6,19.8,0,0,,10.0,29.870079,,,TRUE,TRUE,,,,,,,CLR,,,,,,,,VFR,,,,,,,,,,,,METAR,18.0
KAVQ 090335Z AUTO 27005KT 10SM 27/M07 A2992 RMK AO2 T02721071,KAVQ,2023-06-09T03:35:00Z,32.4,-111.22,27.2,-7.1,270,5,,10.0,29.920275,,,TRUE,TRUE,,,,,,,,,,,,,,,,,,,,,,,,,,,METAR,618.0
KAVC 090335Z AUTO 00000KT 10SM VCTS OVC120 15/15 A2985 RMK AO2 LTG DSNT N T01510145,KAVC,2023-06-09T03:35:00Z,36.68,-78.05,15.1,14.5,0,0,,10.0,29.84941,,,TRUE,TRUE,,,,,,VCTS,OVC,12000,,,,,,,VFR,,,,,,,,,,,,METAR,119.0
KAUM 090335Z AUTO 11006KT 10SM CLR 19/07 A2994 RMK AO2,KAUM,2023-06-09T03:35:00Z,43.67,-92.92,19.0,7.0,110,6,,10.0,29.940945,,,TRUE,TRUE,,,,,,,CLR,,,,,,,,VFR,,,,,,,,,,,,SPECI,376.0
KATS 090335Z AUTO 27012KT 10SM CLR 26/M06 A2994 RMK AO2,KATS,2023-06-09T03:35:00Z,32.85,-104.47,26.0,-6.0,270,12,,10.0,29.940945,,,TRUE,TRUE,,,,,,,CLR,,,,,,,,VFR,,,,,,,,,,,,METAR,1073.0
KATA 090335Z AUTO 28004KT 7SM CLR 25/20 A2982 RMK AO2 SLP997 T02450204 $,KATA,2023-06-09T03:35:00Z,33.1,-94.2,24.5,20.4,280,4,,7.0,29.819881,999.7,,TRUE,TRUE,TRUE,,,,,,CLR,,,,,,,,VFR,,,,,,,,,,,,SPECI,85.0
KASN 090335Z AUTO 00000KT 10SM CLR 20/14 A2982 RMK AO2 T01960142,KASN,2023-06-09T03:35:00Z,33.57,-86.05,19.6,14.2,0,0,,10.0,29.819881,,,TRUE,TRUE,,,,,,,CLR,,,,,,,,VFR,,,,,,,,,,,,METAR,159.0
KASL 090335Z AUTO 00000KT 10SM CLR 22/21 A2983 RMK AO2 T02230205 $,KASL,2023-06-09T03:35:00Z,32.52,-94.3,22.3,20.5,0,0,,10.0,29.828741,,,TRUE,TRUE,TRUE,,,,,,CLR,,,,,,,,VFR,,,,,,,,,,,,METAR,104.0
KARW 090335Z AUTO 09006KT 10SM SCT085 22/20 A2977 RMK AO2 LTG DSNT SE,KARW,2023-06-09T03:35:00Z,32.42,-80.63,22.0,20.0,90,6,,10.0,29.769686,,,TRUE,TRUE,,,,,,,SCT,8500,,,,,,,VFR,,,,,,,,,,,,SPECI,2.0
KARV 090335Z AUTO 00000KT 10SM CLR 11/03 A2997 RMK AO2 T01120029,KARV,2023-06-09T03:35:00Z,45.92,-89.72,11.2,2.9,0,0,,10.0,29.970472,,,TRUE,TRUE,,,,,,,CLR,,,,,,,,VFR,,,,,,,,,,,,METAR,494.0
KARM 090335Z AUTO 17004KT 10SM CLR 23/22 A2987 RMK AO2 T02250216 TSNO,KARM,2023-06-09T03:35:00Z,29.25,-96.15,22.5,21.6,170,4,,10.0,29.870079,,,TRUE,TRUE,,,TRUE,,,,CLR,,,,,,,,VFR,,,,,,,,,,,,METAR,29.0
KAQX 090335Z AUTO 00000KT 10SM SCT070 22/18 A2978 RMK AO2 LTG DSNT NE AND SW,KAQX,2023-06-09T03:35:00Z,32.98,-81.27,22.0,18.0,0,0,,10.0,29.778543,,,TRUE,TRUE,,,,,,,SCT,7000,,,,,,,VFR,,,,,,,,,,,,SPECI,48.0
KANQ 090335Z AUTO 00000KT 10SM FEW040 SCT055 BKN065 15/04 A2988 RMK AO2,KANQ,2023-06-09T03:35:00Z,41.63,-85.08,15.0,4.0,0,0,,10.0,29.878937,,,TRUE,TRUE,,,,,,,FEW,4000,SCT,5500,BKN,6500,,,VFR,,,,,,,,,,,,SPECI,299.0
KANE 090335Z AUTO 00000KT 10SM CLR 19/08 A2993 RMK AO2,KANE,2023-06-09T03:35:00Z,45.15,-93.22,19.0,8.0,0,0,,10.0,29.929134,,,TRUE,TRUE,,,,,,,CLR,,,,,,,,VFR,,,,,,,,,,,,SPECI,276.0
KAMN 090335Z AUTO 02004KT 10SM SCT090 15/08 A2991 RMK AO2 T01490081,KAMN,2023-06-09T03:35:00Z,43.32,-84.68,14.9,8.1,20,4,,10.0,29.911417,,,TRUE,TRUE,,,,,,,SCT,9000,,,,,,,VFR,,,,,,,,,,,,SPECI,228.0
KALX 090335Z AUTO 00000KT 10SM CLR 23/15 A2981 RMK AO2 T02310149,KALX,2023-06-09T03:35:00Z,32.92,-85.97,23.1,14.9,0,0,,10.0,29.811024,,,TRUE,TRUE,,,,,,,CLR,,,,,,,,VFR,,,,,,,,,,,,METAR,198.0
KALM 090335Z AUTO 00000KT 10SM CLR 20/M01 A2999 RMK AO2,KALM,2023-06-09T03:35:00Z,32.83,-105.98,20.0,-1.0,0,0,,10.0,29.991142,,,TRUE,TRUE,,,,,,,CLR,,,,,,,,VFR,,,,,,,,,,,,SPECI,1267.0
KAJZ 090335Z AUTO 24006KT 10SM CLR 24/M13 A3002 RMK AO2 T02361135 PWINO,KAJZ,2023-06-09T03:35:00Z,38.78,-108.07,23.6,-13.5,240,6,,10.0,30.02067,,,TRUE,TRUE,,,,,TRUE,,CLR,,,,,,,,VFR,,,,,,,,,,,,METAR,1583.0
KAJG 090335Z AUTO 00000KT 10SM CLR 17/10 A2986 RMK AO2 T01700100,KAJG,2023-06-09T03:35:00Z,38.62,-87.73,17.0,10.0,0,0,,10.0,29.861221,,,TRUE,TRUE,,,,,,,CLR,,,,,,,,VFR,,,,,,,,,,,,METAR,130.0
KAIK 090335Z AUTO 03003KT 10SM CLR 18/16 A2981 RMK AO2 LTG DSNT N AND SE T01850157,KAIK,2023-06-09T03:35:00Z,33.65,-81.68,18.5,15.7,30,3,,10.0,29.811024,,,TRUE,TRUE,,,,,,,CLR,,,,,,,,VFR,,,,,,,,,,,,METAR,155.0
KAIG 090335Z AUTO 00000KT 10SM CLR 13/05 A2997 RMK AO2 T01280048,KAIG,2023-06-09T03:35:00Z,45.15,-89.12,12.8,4.8,0,0,,10.0,29.970472,,,TRUE,TRUE,,,,,,,CLR,,,,,,,,VFR,,,,,,,,,,,,METAR,462.0
KAID 090335Z AUTO 00000KT 10SM CLR 17/00 A2989 RMK AO2 T01701001,KAID,2023-06-09T03:35:00Z,40.12,-85.62,17.0,-0.1,0,0,,10.0,29.890747,,,TRUE,TRUE,,,,,,,CLR,,,,,,,,VFR,,,,,,,,,,,,METAR,277.0
KAGO 090335Z AUTO 00000KT 10SM FEW065 SCT075 BKN110 24/20 A2982 RMK A01,KAGO,2023-06-09T03:35:00Z,33.23,-93.22,24.0,20.0,0,0,,10.0,29.819881,,,TRUE,TRUE,,,,,,,FEW,6500,SCT,7500,BKN,11000,,,VFR,,,,,,,,,,,,SPECI,91.0
KAGI 090335Z AUTO 29008KT 10SM CLR 28/21 A2987 RMK AO2 T02760205,KAGI,2023-06-09T03:35:00Z,27.55,-92.45,27.6,20.5,290,8,,10.0,29.870079,,,TRUE,TRUE,,,,,,,CLR,,,,,,,,VFR,,,,,,,,,,,,METAR,41.0
KAEL 090335Z AUTO 36003KT 10SM CLR 18/10 A2993 RMK AO2,KAEL,2023-06-09T03:35:00Z,43.68,-93.37,18.0,10.0,360,3,,10.0,29.929134,,,TRUE,TRUE,,,,,,,CLR,,,,,,,,VFR,,,,,,,,,,,,METAR,382.0
KAEJ 090335Z AUTO 32005KT 10SM CLR 12/02 A3021 RMK AO2 LTG DSNT NE T01180016,KAEJ,2023-06-09T03:35:00Z,38.82,-106.12,11.8,1.6,320,5,,10.0,30.209646,,,TRUE,TRUE,,,,,,,CLR,,,,,,,,VFR,,,,,,,,,,,,METAR,2420.0
KADS 090335Z AUTO 00000KT 10SM CLR 25/18 A2985 RMK AO2 T02450175,KADS,2023-06-09T03:35:00Z,32.97,-96.83,24.5,17.5,0,0,,10.0,29.84941,,,TRUE,TRUE,,,,,,,CLR,,,,,,,,VFR,,,,,,,,,,,,METAR,198.0
KACQ 090335Z AUTO 10SM CLR 17/06 A2994 RMK AO2,KACQ,2023-06-09T03:35:00Z,44.07,-93.55,17.0,6.0,,,,10.0,29.940945,,,TRUE,TRUE,,,,,,,CLR,,,,,,,,VFR,,,,,,,,,,,,SPECI,339.0
KACP 090335Z AUTO 00000KT 7SM SCT090 22/20 A2983 RMK AO2 TSNO,KACP,2023-06-09T03:35:00Z,30.75,-92.68,22.0,20.0,0,0,,7.0,29.828741,,,TRUE,TRUE,,,TRUE,,,,SCT,9000,,,,,,,VFR,,,,,,,,,,,,METAR,31.0
KACJ 090335Z AUTO 34003KT 10SM FEW060 SCT095 24/20 A2980 RMK AO2 T02420204,KACJ,2023-06-09T03:35:00Z,32.12,-84.18,24.2,20.4,340,3,,10.0,29.799213,,,TRUE,TRUE,,,,,,,FEW,6000,SCT,9500,,,,,VFR,,,,,,,,,,,,METAR,140.0
KACB 090335Z AUTO 00000KT 10SM SCT085 11/08 A2992 RMK AO2 T01070077,KACB,2023-06-09T03:35:00Z,44.98,-85.2,10.7,7.7,0,0,,10.0,29.920275,,,TRUE,TRUE,,,,,,,SCT,8500,,,,,,,VFR,,,,,,,,,,,,SPECI,189.0
KAAS 090335Z AUTO 07004KT 10SM CLR 14/09 A2991 RMK AO1,KAAS,2023-06-09T03:35:00Z,37.35,-85.32,14.0,9.0,70,4,,10.0,29.911417,,,TRUE,TRUE,,,,,,,CLR,,,,,,,,VFR,,,,,,,,,,,,METAR,270.0
K9S9 090335Z AUTO 00000KT 10SM BKN095 22/12 A2990 RMK AO2 PWINO,K9S9,2023-06-09T03:35:00Z,45.45,-119.68,22.0,12.0,0,0,,10.0,29.899607,,,TRUE,TRUE,,,,,TRUE,,BKN,9500,,,,,,,VFR,,,,,,,,,,,,METAR,498.0
K9MN 090335Z AUTO 12003KT 10SM CLR 19/05 A2995 RMK AO1 T01920050,K9MN,2023-06-09T03:35:00Z,44.02,-92.48,19.2,5.0,120,3,,10.0,29.949802,,,TRUE,TRUE,,,,,,,CLR,,,,,,,,VFR,,,,,,,,,,,,METAR,308.0
K9D7 090335Z AUTO 27004KT 2SM BR BKN110 20/20 A2992 RMK AO2 TSNO,K9D7,2023-06-09T03:35:00Z,48.48,-99.23,20.0,20.0,270,4,,2.0,29.920275,,,TRUE,TRUE,,,TRUE,,,BR,BKN,11000,,,,,,,IFR,,,,,,,,,,,,SPECI,451.0
K9A5 090335Z AUTO 00000KT 7SM CLR 15/13 A2985 RMK AO2 T01510126,K9A5,2023-06-09T03:35:00Z,34.68,-85.28,15.1,12.6,0,0,,7.0,29.84941,,,TRUE,TRUE,,,,,,,CLR,,,,,,,,VFR,,,,,,,,,,,,METAR,234.0
K96D 090335Z AUTO 00000KT 10SM BKN120 24/19 A2987 RMK AO2,K96D,2023-06-09T03:35:00Z,48.93,-97.9,24.0,19.0,0,0,,10.0,29.870079,,,TRUE,TRUE,,,,,,,BKN,12000,,,,,,,VFR,,,,,,,,,,,,SPECI,290.0
K8W2 090335Z AUTO 35003KT 10SM BKN120 16/06 A2984 RMK AO1 T01630057,K8W2,2023-06-09T03:35:00Z,38.65,-78.7,16.3,5.7,350,3,,10.0,29.840551,,,TRUE,TRUE,,,,,,,BKN,12000,,,,,,,VFR,,,,,,,,,,,,SPECI,295.0
K8B0 090335Z AUTO 00000KT 8SM SCT003 BKN007 OVC014 09/09 A2975 RMK AO2,K8B0,2023-06-09T03:35:00Z,44.98,-70.65,9.0,9.0,0,0,,8.0,29.749016,,,TRUE,TRUE,,,,,,,SCT,300,BKN,700,OVC,1400,,,IFR,,,,,,,,,,,,SPECI,552.0
K82C 090335Z AUTO 00000KT 10SM CLR 11/05 A2993 RMK AO2 T01050049,K82C,2023-06-09T03:35:00Z,43.83,-90.13,10.5,4.9,0,0,,10.0,29.929134,,,TRUE,TRUE,,,,,,,CLR,,,,,,,,VFR,,,,,,,,,,,,SPECI,273.0
K81R 090335Z AUTO 12003KT 10SM CLR 24/19 A2989 RMK AO2 T02400191,K81R,2023-06-09T03:35:00Z,31.23,-98.72,24.0,19.1,120,3,,10.0,29.890747,,,TRUE,TRUE,,,,,,,CLR,,,,,,,,VFR,,,,,,,,,,,,METAR,381.0
K7W4 090335Z AUTO 7SM OVC090 16/12 A2980 RMK AO1 T01560123,K7W4,2023-06-09T03:35:00Z,37.97,-77.75,15.6,12.3,,,,7.0,29.799213,,,TRUE,TRUE,,,,,,,OVC,9000,,,,,,,VFR,,,,,,,,,,,,METAR,115.0
K7L2 090335Z AUTO 10006KT 10SM CLR 20/20 A2989 RMK AO2 LTG DSNT SE,K7L2,2023-06-09T03:35:00Z,46.22,-100.25,20.0,20.0,100,6,,10.0,29.890747,,,TRUE,TRUE,,,,,,,CLR,,,,,,,,VFR,,,,,,,,,,,,SPECI,541.0
K77S 090335Z AUTO 30004KT 10SM SCT070 21/11 A2997 RMK A01,K77S,2023-06-09T03:35:00Z,43.93,-123.0,21.0,11.0,300,4,,10.0,29.970472,,,TRUE,TRUE,,,,,,,SCT,7000,,,,,,,VFR,,,,,,,,,,,,METAR,161.0
K6S2 090335Z AUTO VRB03KT 4SM BR OVC014 13/13 A3007 RMK AO2,K6S2,2023-06-09T03:35:00Z,43.98,-124.12,13.0,13.0,0,3,,4.0,30.070866,,,TRUE,TRUE,,,,,,BR,OVC,1400,,,,,,,MVFR,,,,,,,,,,,,METAR,16.0
K6S0 090335Z AUTO 31005KT 10SM SCT025 OVC035 16/14 A3002 RMK A01,K6S0,2023-06-09T03:35:00Z,45.8,-109.97,16.0,14.0,310,5,,10.0,30.02067,,,TRUE,TRUE,,,,,,,SCT,2500,OVC,3500,,,,,VFR,,,,,,,,,,,,METAR,1364.0
K6L4 090335Z AUTO 00000KT 10SM CLR 14/05 A2988 RMK AO2,K6L4,2023-06-09T03:35:00Z,37.85,-81.92,14.0,5.0,0,0,,10.0,29.878937,,,TRUE,TRUE,,,,,,,CLR,,,,,,,,VFR,,,,,,,,,,,,METAR,504.0
K6B9 090335Z AUTO 00000KT 10SM FEW048 SCT060 BKN070 11/11 A2979 RMK AO2,K6B9,2023-06-09T03:35:00Z,42.92,-76.43,11.0,11.0,0,0,,10.0,29.790354,,,TRUE,TRUE,,,,,,,FEW,4800,SCT,6000,BKN,7000,,,VFR,,,,,,,,,,,,SPECI,306.0
K6B0 090335Z AUTO 00000KT 10SM SCT017 OVC026 10/10 A2975 RMK AO2 T01020102,K6B0,2023-06-09T03:35:00Z,43.98,-73.1,10.2,10.2,0,0,,10.0,29.749016,,,TRUE,TRUE,,,,,,,SCT,1700,OVC,2600,,,,,MVFR,,,,,,,,,,,,METAR,149.0
K6A2 090335Z AUTO 00000KT 10SM CLR 19/11 A2983 RMK AO2,K6A2,2023-06-09T03:35:00Z,33.23,-84.27,19.0,11.0,0,0,,10.0,29.828741,,,TRUE,TRUE,,,,,,,CLR,,,,,,,,VFR,,,,,,,,,,,,METAR,290.0
K65S 090335Z AUTO 00000KT 10SM CLR 20/14 A2992 RMK AO2,K65S,2023-06-09T03:35:00Z,48.73,-116.3,20.0,14.0,0,0,,10.0,29.920275,,,TRUE,TRUE,,,,,,,CLR,,,,,,,,VFR,,,,,,,,,,,,SPECI,708.0
K63S 090335Z AUTO 00000KT 10SM CLR 17/16 A2995 RMK A01,K63S,2023-06-09T03:35:00Z,48.53,-117.88,17.0,16.0,0,0,,10.0,29.949802,,,TRUE,TRUE,,,,,,,CLR,,,,,,,,VFR,,,,,,,,,,,,METAR,571.0
K5T9 090335Z AUTO 17004KT 10SM CLR 25/23 A2981 RMK A01,K5T9,2023-06-09T03:35:00Z,28.85,-100.52,25.0,23.0,170,4,,10.0,29.811024,,,TRUE,TRUE,,,,,,,CLR,,,,,,,,VFR,,,,,,,,,,,,SPECI,269.0
K5H4 090335Z AUTO 10008G16KT 3SM HZ FEW032 FEW039 OVC120 20/16 A2989 RMK AO2 LTG DSNT E AND SE,K5H4,2023-06-09T03:35:00Z,47.78,-99.93,20.0,16.0,100,8,16,3.0,29.890747,,,TRUE,TRUE,,,,,,HZ,FEW,3200,FEW,3900,OVC,12000,,,MVFR,,,,,,,,,,,,METAR,490.0
K5A6 090335Z AUTO 00000KT 10SM 21/19 A2984 RMK AO2 T02060191,K5A6,2023-06-09T03:35:00Z,33.47,-89.73,20.6,19.1,0,0,,10.0,29.840551,,,TRUE,TRUE,,,,,,,,,,,,,,,,,,,,,,,,,,,SPECI,109.0
K57C 090335Z AUTO 00000KT CLR 11/04 A2994 RMK AO2 T01130037 PWINO,K57C,2023-06-09T03:35:00Z,42.8,-88.37,11.3,3.7,0,0,,,29.940945,,,TRUE,TRUE,,,,,TRUE,,CLR,,,,,,,,,,,,,,,,,,,,SPECI,454.0
K54J 090335Z AUTO 22003KT 10SM CLR 23/21 A2981 RMK AO2 T02300212,K54J,2023-06-09T03:35:00Z,30.73,-86.15,23.0,21.2,220,3,,10.0,29.811024,,,TRUE,TRUE,,,,,,,CLR,,,,,,,,VFR,,,,,,,,,,,,METAR,87.0
K54A 090335Z AUTO 00000KT 10SM SCT022 26/23 A2983 RMK AO2,K54A,2023-06-09T03:35:00Z,26.85,-82.25,26.0,23.0,0,0,,10.0,29.828741,,,TRUE,TRUE,,,,,,,SCT,2200,,,,,,,VFR,,,,,,,,,,,,SPECI,2.0
K4V0 090335Z AUTO 00000KT 10SM CLR 18/00 A2999 RMK AO2 LTG DSNT N T01761002,K4V0,2023-06-09T03:35:00Z,40.1,-108.77,17.6,-0.2,0,0,,10.0,29.991142,,,TRUE,TRUE,,,,,,,CLR,,,,,,,,VFR,,,,,,,,,,,,METAR,1602.0
K4S2 090335Z AUTO 33008KT 10SM SCT100 20/09 A2988 RMK AO2,K4S2,2023-06-09T03:35:00Z,45.68,-121.55,20.0,9.0,330,8,,10.0,29.878937,,,TRUE,TRUE,,,,,,,SCT,10000,,,,,,,VFR,,,,,,,,,,,,SPECI,183.0
K4S1 090335Z AUTO 19007KT 12/12 A3007 RMK AO2 PWINO,K4S1,2023-06-09T03:35:00Z,42.42,-124.42,12.0,12.0,190,7,,,30.070866,,,TRUE,TRUE,,,,,TRUE,,,,,,,,,,,,,,,,,,,,,,METAR,7.0
K4R5 090335Z AUTO 00000KT 10SM SCT090 OVC110 05/05 A2996 RMK AO2 T00490046,K4R5,2023-06-09T03:35:00Z,46.78,-90.77,4.9,4.6,0,0,,10.0,29.958662,,,TRUE,TRUE,,,,,,,SCT,9000,OVC,11000,,,,,VFR,,,,,,,,,,,,SPECI,195.0
K4O4 090335Z AUTO 00000KT 6SM HZ SCT046 BKN055 24/20 A2983 RMK AO2,K4O4,2023-06-09T03:35:00Z,33.92,-94.87,24.0,20.0,0,0,,6.0,29.828741,,,TRUE,TRUE,,,,,,HZ,SCT,4600,BKN,5500,,,,,VFR,,,,,,,,,,,,SPECI,148.0
K4M9 090335Z AUTO 04008KT 10SM SCT120 23/14 A2985 RMK AO2 PWINO,K4M9,2023-06-09T03:35:00Z,36.4,-90.65,23.0,14.0,40,8,,10.0,29.84941,,,TRUE,TRUE,,,,,TRUE,,SCT,12000,,,,,,,VFR,,,,,,,,,,,,METAR,86.0
K4I3 090335Z AUTO 00000KT 10SM SCT100 13/06 A2986 RMK AO2 LTG DSNT SE,K4I3,2023-06-09T03:35:00Z,40.33,-82.53,13.0,6.0,0,0,,10.0,29.861221,,,TRUE,TRUE,,,,,,,SCT,10000,,,,,,,VFR,,,,,,,,,,,,METAR,361.0
K4A9 090335Z AUTO 04003KT 10SM CLR 16/13 A2983 RMK AO2 T01600131,K4A9,2023-06-09T03:35:00Z,34.47,-85.72,16.0,13.1,40,3,,10.0,29.828741,,,TRUE,TRUE,,,,,,,CLR,,,,,,,,VFR,,,,,,,,,,,,METAR,273.0
K4A6 090335Z AUTO 00000KT 10SM FEW065 OVC100 18/16 A2984 RMK AO2,K4A6,2023-06-09T03:35:00Z,34.68,-86.0,18.0,16.0,0,0,,10.0,29.840551,,,TRUE,TRUE,,,,,,,FEW,6500,OVC,10000,,,,,VFR,,,,,,,,,,,,METAR,191.0
K48A 090335Z AUTO 01005KT 10SM SCT065 BKN085 25/14 A2979 RMK AO2 LTG DSNT SE T02480135,K48A,2023-06-09T03:35:00Z,32.4,-83.27,24.8,13.5,10,5,,10.0,29.790354,,,TRUE,TRUE,,,,,,,SCT,6500,BKN,8500,,,,,VFR,,,,,,,,,,,,METAR,115.0
K46U 090335Z AUTO 26004KT 10SM FEW120 11/09 A3015 RMK A01,K46U,2023-06-09T03:35:00Z,43.18,-111.05,11.0,9.0,260,4,,10.0,30.15059,,,TRUE,TRUE,,,,,,,FEW,12000,,,,,,,VFR,,,,,,,,,,,,SPECI,1718.0
K46D 090335Z AUTO 06018G24KT 10SM VCTS DZ SCT014 SCT065 BKN100 21/19 A2994 RMK AO2 LTG DSNT NW-E,K46D,2023-06-09T03:35:00Z,47.45,-99.15,21.0,19.0,60,18,24,10.0,29.940945,,,TRUE,TRUE,,,,,,VCTS DZ,SCT,1400,SCT,6500,BKN,10000,,,VFR,,,,,,,,,,,,METAR,488.0
K42J 090335Z AUTO 24006KT 10SM BKN046 OVC055 23/21 A2981 RMK A01,K42J,2023-06-09T03:35:00Z,29.85,-82.05,23.0,21.0,240,6,,10.0,29.811024,,,TRUE,TRUE,,,,,,,BKN,4600,OVC,5500,,,,,VFR,,,,,,,,,,,,METAR,57.0
K41U 090335Z AUTO 09004KT 10SM CLR 13/03 A3008 RMK AO1 T01340028,K41U,2023-06-09T03:35:00Z,39.33,-111.6,13.4,2.8,90,4,,10.0,30.079725,,,TRUE,TRUE,,,,,,,CLR,,,,,,,,VFR,,,,,,,,,,,,METAR,1676.0
K40U 090335Z AUTO 00000KT 10SM CLR 13/06 A3013 RMK AO2 LTG DSNT E T01310060,K40U,2023-06-09T03:35:00Z,40.98,-109.68,13.1,6.0,0,0,,10.0,30.129921,,,TRUE,TRUE,,,,,,,CLR,,,,,,,,VFR,,,,,,,,,,,,METAR,1882.0
K3T5 090335Z AUTO 16004KT 10SM CLR 23/21 A2984 RMK AO2 T02330215 $,K3T5,2023-06-09T03:35:00Z,29.9,-96.95,23.3,21.5,160,4,,10.0,29.840551,,,TRUE,TRUE,TRUE,,,,,,CLR,,,,,,,,VFR,,,,,,,,,,,,METAR,96.0
K3S8 090335Z AUTO 00000KT 10SM CLR 22/16 A2998 RMK AO2,K3S8,2023-06-09T03:35:00Z,42.5,-123.4,22.0,16.0,0,0,,10.0,29.97933,,,TRUE,TRUE,,,,,,,CLR,,,,,,,,VFR,,,,,,,,,,,,SPECI,339.0
K3R7 090335Z AUTO 00000KT 10SM CLR 24/18 A2984 RMK AO2 LTG DSNT S T02370181,K3R7,2023-06-09T03:35:00Z,30.25,-92.67,23.7,18.1,0,0,,10.0,29.840551,,,TRUE,TRUE,,,,,,,CLR,,,,,,,,VFR,,,,,,,,,,,,METAR,5.0
K3N8 090335Z AUTO 12003KT 10SM CLR 20/13 A2990 RMK AO2 T01990132,K3N8,2023-06-09T03:35:00Z,47.25,-95.92,19.9,13.2,120,3,,10.0,29.899607,,,TRUE,TRUE,,,,,,,CLR,,,,,,,,VFR,,,,,,,,,,,,METAR,379.0
K3LF 090335Z AUTO 33003KT 10SM CLR 15/08 A2989 RMK AO2 T01530078,K3LF,2023-06-09T03:35:00Z,39.17,-89.67,15.3,7.8,330,3,,10.0,29.890747,,,TRUE,TRUE,,,,,,,CLR,,,,,,,,VFR,,,,,,,,,,,,METAR,207.0
K3D2 090335Z AUTO 02003KT 10SM CLR 14/00 A2994 RMK AO2 T01391001,K3D2,2023-06-09T03:35:00Z,45.13,-87.18,13.9,-0.1,20,3,,10.0,29.940945,,,TRUE,TRUE,,,,,,,CLR,,,,,,,,VFR,,,,,,,,,,,,SPECI,233.0
K3AU 090335Z AUTO 00000KT 10SM CLR 23/15 A2983 RMK AO2,K3AU,2023-06-09T03:35:00Z,37.67,-97.08,23.0,15.0,0,0,,10.0,29.828741,,,TRUE,TRUE,,,,,,,CLR,,,,,,,,VFR,,,,,,,,,,,,SPECI,403.0
K35A 090335Z AUTO 04004KT 10SM OVC090 20/10 A2987 RMK A02 LTG DSNT NE T01980102,K35A,2023-06-09T03:35:00Z,34.68,-81.63,19.8,10.2,40,4,,10.0,29.870079,,,TRUE,TRUE,,,,,,,OVC,9000,,,,,,,VFR,,,,,,,,,,,,SPECI,186.0
K33V 090335Z AUTO 00000KT 10SM CLR 10/06 A3021 RMK AO1,K33V,2023-06-09T03:35:00Z,40.75,-106.28,10.0,6.0,0,0,,10.0,30.209646,,,TRUE,TRUE,,,,,,,CLR,,,,,,,,VFR,,,,,,,,,,,,METAR,2486.0
K33N 090335Z AUTO 27005KT 6SM HZ BKN040 BKN050 OVC060 15/11 A2976 RMK A01,K33N,2023-06-09T03:35:00Z,39.22,-75.6,15.0,11.0,270,5,,6.0,29.760826,,,TRUE,TRUE,,,,,,HZ,BKN,4000,BKN,5000,OVC,6000,,,VFR,,,,,,,,,,,,SPECI,17.0
K2V5 090335Z AUTO 31007KT 10SM CLR 17/12 A2996 RMK AO2,K2V5,2023-06-09T03:35:00Z,40.1,-102.25,17.0,12.0,310,7,,10.0,29.958662,,,TRUE,TRUE,,,,,,,CLR,,,,,,,,VFR,,,,,,,,,,,,METAR,1117.0
K2P2 090335Z AUTO 04005KT 10SM BKN090 OVC120 14/05 A2993 RMK AO2 T01410054,K2P2,2023-06-09T03:35:00Z,45.38,-86.92,14.1,5.4,40,5,,10.0,29.929134,,,TRUE,TRUE,,,,,,,BKN,9000,OVC,12000,,,,,VFR,,,,,,,,,,,,SPECI,182.0
K2M2 090335Z AUTO 00000KT 10SM OVC085 17/13 A2983 RMK A01,K2M2,2023-06-09T03:35:00Z,35.23,-87.25,17.0,13.0,0,0,,10.0,29.828741,,,TRUE,TRUE,,,,,,,OVC,8500,,,,,,,VFR,,,,,,,,,,,,SPECI,286.0
K2J9 090335Z AUTO 25007KT 10SM FEW060 25/23 A2982 RMK AO2,K2J9,2023-06-09T03:35:00Z,30.6,-84.55,25.0,23.0,250,7,,10.0,29.819881,,,TRUE,TRUE,,,,,,,FEW,6000,,,,,,,VFR,,,,,,,,,,,,SPECI,62.0
K2IS 090335Z AUTO 24006KT 10SM CLR 25/23 A2985 RMK AO2 T02460226,K2IS,2023-06-09T03:35:00Z,26.73,-81.05,24.6,22.6,240,6,,10.0,29.84941,,,TRUE,TRUE,,,,,,,CLR,,,,,,,,VFR,,,,,,,,,,,,METAR,5.0
K2G2 090335Z AUTO 27003KT 10SM 15/06 A2983 RMK A01,K2G2,2023-06-09T03:35:00Z,40.37,-80.7,15.0,6.0,270,3,,10.0,29.828741,,,TRUE,TRUE,,,,,,,,,,,,,,,,,,,,,,,,,,,SPECI,365.0
K2DP 090335Z AUTO 29004KT 2SM BR M M A2976 RMK AO2 LTG DSNT NW SLPNO ALSTG ESTMD $,K2DP,2023-06-09T03:35:00Z,35.68,-75.9,,,290,4,,2.0,29.760826,,,TRUE,TRUE,TRUE,,,,,BR,,,,,,,,,,,,,,,,,,,,,METAR,1.0
K2D5 090335Z AUTO 11007KT 9SM FEW046 BKN090 23/19 A2987 RMK AO2 LTG DSNT SW-N,K2D5,2023-06-09T03:35:00Z,46.17,-98.08,23.0,19.0,110,7,,9.0,29.870079,,,TRUE,TRUE,,,,,,,FEW,4600,BKN,9000,,,,,VFR,,,,,,,,,,,,METAR,407.0
K2C8 090335Z AUTO 13004KT 10SM BKN043 OVC050 24/20 A2987 RMK AO2,K2C8,2023-06-09T03:35:00Z,48.78,-97.63,24.0,20.0,130,4,,10.0,29.870079,,,TRUE,TRUE,,,,,,,BKN,4300,OVC,5000,,,,,VFR,,,,,,,,,,,,METAR,271.0
K2A0 090335Z AUTO 00000KT 10SM SCT080 15/11 A2984 RMK A01,K2A0,2023-06-09T03:35:00Z,35.48,-84.93,15.0,11.0,0,0,,10.0,29.840551,,,TRUE,TRUE,,,,,,,SCT,8000,,,,,,,VFR,,,,,,,,,,,,SPECI,219.0
K28J 090335Z AUTO 25006KT 10SM FEW060 22/18 A2981 RMK AO2,K28J,2023-06-09T03:35:00Z,29.65,-81.68,22.0,18.0,250,6,,10.0,29.811024,,,TRUE,TRUE,,,,,,,FEW,6000,,,,,,,VFR,,,,,,,,,,,,METAR,9.0
K24J 090335Z AUTO 19003KT 10SM CLR 24/23 A2979 RMK A01,K24J,2023-06-09T03:35:00Z,30.3,-83.03,24.0,23.0,190,3,,10.0,29.790354,,,TRUE,TRUE,,,,,,,CLR,,,,,,,,VFR,,,,,,,,,,,,METAR,30.0
K22N 090335Z AUTO 00000KT 10SM OVC100 13/08 A2978 RMK AO2,K22N,2023-06-09T03:35:00Z,40.8,-75.77,13.0,8.0,0,0,,10.0,29.778543,,,TRUE,TRUE,,,,,,,OVC,10000,,,,,,,VFR,,,,,,,,,,,,METAR,159.0
K21D 090335Z AUTO 00000KT 10SM CLR 15/09 A2994 RMK AO2,K21D,2023-06-09T03:35:00Z,45.0,-92.85,15.0,9.0,0,0,,10.0,29.940945,,,TRUE,TRUE,,,,,,,CLR,,,,,,,,VFR,,,,,,,,,,,,METAR,281.0
K20U 090335Z AUTO 02010KT 10SM CLR 21/18 A2992 RMK AO2 LTG DSNT N,K20U,2023-06-09T03:35:00Z,46.93,-103.98,21.0,18.0,20,10,,10.0,29.920275,,,TRUE,TRUE,,,,,,,CLR,,,,,,,,VFR,,,,,,,,,,,,METAR,839.0
K1V6 090335Z AUTO 00000KT 10SM CLR 17/11 A3006 RMK AO2 LTG DSNT N THRU E,K1V6,2023-06-09T03:35:00Z,38.43,-105.1,17.0,11.0,0,0,,10.0,30.059055,,,TRUE,TRUE,,,,,,,CLR,,,,,,,,VFR,,,,,,,,,,,,METAR,1658.0
K1U7 090335Z AUTO 33007KT 10SM CLR 12/09 A3011 RMK A01,K1U7,2023-06-09T03:35:00Z,42.25,-111.33,12.0,9.0,330,7,,10.0,30.109253,,,TRUE,TRUE,,,,,,,CLR,,,,,,,,VFR,,,,,,,,,,,,METAR,1808.0
K1S5 090335Z AUTO 07013KT 10SM OVC110 24/14 A2981 RMK AO2 T02430138,K1S5,2023-06-09T03:35:00Z,46.33,-119.97,24.3,13.8,70,13,,10.0,29.811024,,,TRUE,TRUE,,,,,,,OVC,11000,,,,,,,VFR,,,,,,,,,,,,SPECI,228.0
K1R7 090335Z AUTO 00000KT 10SM CLR 23/23 A2986 RMK AO2 PWINO,K1R7,2023-06-09T03:35:00Z,31.6,-90.42,23.0,23.0,0,0,,10.0,29.861221,,,TRUE,TRUE,,,,,TRUE,,CLR,,,,,,,,VFR,,,,,,,,,,,,METAR,142.0
K1P1 090335Z AUTO 00000KT 1SM BR OVC001 10/10 A2973 RMK AO2 T01020097,K1P1,2023-06-09T03:35:00Z,43.78,-71.75,10.2,9.7,0,0,,1.0,29.731298,,,TRUE,TRUE,,,,,,BR,OVC,100,,,,,,,LIFR,,,,,,,,,,,,SPECI,155.0
K1M5 090335Z AUTO 00000KT 10SM FEW043 BKN055 BKN070 15/11 A2984 RMK A01,K1M5,2023-06-09T03:35:00Z,36.6,-86.48,15.0,11.0,0,0,,10.0,29.840551,,,TRUE,TRUE,,,,,,,FEW,4300,BKN,5500,BKN,7000,,,VFR,,,,,,,,,,,,SPECI,239.0
K1F0 090335Z AUTO 00000KT 10SM CLR 23/20 A2983 RMK AO2 T02330204,K1F0,2023-06-09T03:35:00Z,34.15,-97.12,23.3,20.4,0,0,,10.0,29.828741,,,TRUE,TRUE,,,,,,,CLR,,,,,,,,VFR,,,,,,,,,,,,METAR,256.0
K1D8 090335Z AUTO 13009KT 10SM FEW100 26/19 A2983 RMK AO2,K1D8,2023-06-09T03:35:00Z,,,26.0,19.0,130,9,,10.0,29.828741,,,TRUE,TRUE,,,,,,,FEW,10000,,,,,,,VFR,,,,,,,,,,,,SPECI,
K18H 090335Z AUTO 32004KT 10SM CLR 27/21 A2987 RMK A01,K18H,2023-06-09T03:35:00Z,26.13,-92.03,27.0,21.0,320,4,,10.0,29.870079,,,TRUE,TRUE,,,,,,,CLR,,,,,,,,VFR,,,,,,,,,,,,METAR,30.0
K15M 090335Z AUTO 00000KT 10SM CLR 19/12 A2984 RMK AO2 T01920121 $,K15M,2023-06-09T03:35:00Z,34.77,-88.17,19.2,12.1,0,0,,10.0,29.840551,,,TRUE,TRUE,TRUE,,,,,,CLR,,,,,,,,VFR,,,,,,,,,,,,METAR,192.0
K14Y 090335Z AUTO 00000KT 10SM CLR 17/11 A2993 RMK AO2,K14Y,2023-06-09T03:35:00Z,45.9,-94.87,17.0,11.0,0,0,,10.0,29.929134,,,TRUE,TRUE,,,,,,,CLR,,,,,,,,VFR,,,,,,,,,,,,METAR,404.0
K13K 090335Z AUTO 07004KT 10SM CLR 23/19 A2984 RMK AO2 T02320189,K13K,2023-06-09T03:35:00Z,37.85,-96.3,23.2,18.9,70,4,,10.0,29.840551,,,TRUE,TRUE,,,,,,,CLR,,,,,,,,VFR,,,,,,,,,,,,METAR,367.0
K11R 090335Z AUTO 00000KT 10SM CLR 22/19 A2986 RMK AO2 T02160192,K11R,2023-06-09T03:35:00Z,30.22,-96.37,21.6,19.2,0,0,,10.0,29.861221,,,TRUE,TRUE,,,,,,,CLR,,,,,,,,VFR,,,,,,,,,,,,METAR,87.0
K10G 090335Z AUTO 00000KT 10SM CLR 17/01 A2986 RMK AO2,K10G,2023-06-09T03:35:00Z,40.53,-81.95,17.0,1.0,0,0,,10.0,29.861221,,,TRUE,TRUE,,,,,,,CLR,,,,,,,,VFR,,,,,,,,,,,,METAR,371.0
K0VG 090335Z AUTO 00000KT 10SM CLR 11/10 A2990 RMK AO2,K0VG,2023-06-09T03:35:00Z,36.65,-83.22,11.0,10.0,0,0,,10.0,29.899607,,,TRUE,TRUE,,,,,,,CLR,,,,,,,,VFR,,,,,,,,,,,,METAR,426.0
K0V4 090335Z AUTO 04003KT 10SM BKN095 16/04 A2980 RMK AO1,K0V4,2023-06-09T03:35:00Z,37.15,-79.02,16.0,4.0,40,3,,10.0,29.799213,,,TRUE,TRUE,,,,,,,BKN,9500,,,,,,,VFR,,,,,,,,,,,,METAR,186.0
K0S9 090335Z AUTO 00000KT 10SM CLR 15/10 A2993 RMK AO2,K0S9,2023-06-09T03:35:00Z,48.05,-122.82,15.0,10.0,0,0,,10.0,29.929134,,,TRUE,TRUE,,,,,,,CLR,,,,,,,,VFR,,,,,,,,,,,,METAR,33.0
K0R0 090335Z AUTO 00000KT A2987 RMK AO2 PWINO TSNO,K0R0,2023-06-09T03:35:00Z,31.3,-89.82,,,0,0,,,29.870079,,,TRUE,TRUE,,,TRUE,,TRUE,,,,,,,,,,,,,,,,,,,,,,SPECI,76.0
K0D8 090335Z AUTO 08017KT 10SM CLR 22/18 A2986 RMK A01,K0D8,2023-06-09T03:35:00Z,44.98,-99.95,22.0,18.0,80,17,,10.0,29.861221,,,TRUE,TRUE,,,,,,,CLR,,,,,,,,VFR,,,,,,,,,,,,METAR,629.0
K0A9 090335Z AUTO 00000KT 10SM FEW038 SCT047 BKN055 11/08 A2989 RMK AO2,K0A9,2023-06-09T03:35:00Z,36.37,-82.17,11.0,8.0,0,0,,10.0,29.890747,,,TRUE,TRUE,,,,,,,FEW,3800,SCT,4700,BKN,5500,,,VFR,,,,,,,,,,,,SPECI,479.0
K0A0 090335Z AUTO 22005KT 10SM CLR 22/M10 A3001 RMK AO2,K0A0,2023-06-09T03:35:00Z,32.98,-106.97,22.0,-10.0,220,5,,10.0,30.008858,,,TRUE,TRUE,,,,,,,CLR,,,,,,,,VFR,,,,,,,,,,,,SPECI,1401.0
K08D 090335Z AUTO 04010KT 10SM CLR 19/19 A2992 RMK AO2,K08D,2023-06-09T03:35:00Z,48.3,-102.4,19.0,19.0,40,10,,10.0,29.920275,,,TRUE,TRUE,,,,,,,CLR,,,,,,,,VFR,,,,,,,,,,,,METAR,683.0
K06D 090335Z AUTO 00000KT 10SM SCT075 SCT085 OVC120 20/19 A2991 RMK AO2,K06D,2023-06-09T03:35:00Z,48.88,-99.62,20.0,19.0,0,0,,10.0,29.911417,,,TRUE,TRUE,,,,,,,SCT,7500,SCT,8500,OVC,12000,,,VFR,,,,,,,,,,,,METAR,554.0
ETNH 090335Z 28003KT 4000 VCFG MIFG SCT310 05/04 Q1018 GRN,ETNH,2023-06-09T03:35:00Z,54.32,9.55,5.0,4.0,280,3,,2.49,30.059055,,,,,,,,,,VCFG MIFG,SCT,31000,,,,,,,IFR,,,,,,,,,,,,SPECI,6.0
EGVA 090335Z AUTO 05009KT 9999 SCT011 10/10 A2995 RMK AO2 SLP145 FZRANO $,EGVA,2023-06-09T03:35:00Z,51.67,-1.78,10.0,10.0,50,9,,6.21,29.949802,1014.5,,TRUE,TRUE,TRUE,,,TRUE,,,SCT,1100,,,,,,,VFR,,,,,,,,,,,,METAR,84.0
RJTY 090334Z 05005KT 10SM BKN010 OVC016 21/18 A2966 RMK SLP045 $,RJTY,2023-06-09T03:34:00Z,35.75,139.33,21.0,18.0,50,5,,10.0,29.660433,1004.5,,,,TRUE,,,,,,BKN,1000,OVC,1600,,,,,MVFR,,,,,,,,,,,,METAR,136.0
PAWI 090334Z AUTO 04019G25KT 10SM BKN005 02/M01 A2998 RMK AO2 PK WND 03026/0321 T00171006 TSNO $,PAWI,2023-06-09T03:34:00Z,70.63,-160.02,1.7,-0.6,40,19,25,10.0,29.97933,,,TRUE,TRUE,TRUE,,TRUE,,,,BKN,500,,,,,,,IFR,,,,,,,,,,,,METAR,12.0
PAMB 090334Z AUTO 07004KT 7SM FEW022 BKN034 OVC055 12/11 A2948 RMK AO2 RAE33 P0000 $,PAMB,2023-06-09T03:34:00Z,58.98,-159.05,12.0,11.0,70,4,,7.0,29.480314,,,TRUE,TRUE,TRUE,,,,,,FEW,2200,BKN,3400,OVC,5500,,,VFR,,,,,,0.005,,,,,,SPECI,28.0
KSFO 090334Z 28009KT 10SM BKN018 BKN200 16/11 A3004 RMK AO2 T01610106,KSFO,2023-06-09T03:34:00Z,37.62,-122.37,16.1,10.6,280,9,,10.0,30.041338,,,,TRUE,,,,,,,BKN,1800,BKN,20000,,,,,MVFR,,,,,,,,,,,,SPECI,2.0
KCDD 090334Z AUTO 00000KT 10SM CLR 11/09 A2995 RMK AO2 PWINO,KCDD,2023-06-09T03:34:00Z,48.27,-92.48,11.0,9.0,0,0,,10.0,29.949802,,,TRUE,TRUE,,,,,TRUE,,CLR,,,,,,,,VFR,,,,,,,,,,,,METAR,344.0
CYVM 090334Z AUTO 21006KT 9SM -RA SCT009 OVC071 01/M01 A2968 RMK SLP054,CYVM,2023-06-09T03:34:00Z,67.55,-64.02,1.0,-1.0,210,6,,9.0,29.681103,1005.4,,TRUE,,,,,,,-RA,SCT,900,OVC,7100,,,,,VFR,,,,,,,,,,,,SPECI,3.0
CYUX 090334Z AUTO 36015KT 3SM BR OVC002 00/ A2962 RMK DP MISG SLP032,CYUX,2023-06-09T03:34:00Z,68.77,-81.22,0.0,,360,15,,3.0,29.619095,1003.2,,TRUE,,,,,,,BR,OVC,200,,,,,,,LIFR,,,,,,,,,,,,SPECI,8.0
CYNA 090334Z AUTO 00000KT 1SM BR VV012 07/07 A2991 RMK SLP131,CYNA,2023-06-09T03:34:00Z,50.18,-61.78,7.0,7.0,0,0,,1.0,29.911417,1013.1,,TRUE,,,,,,,BR,OVX,0,,,,,,,LIFR,,,,,,,,,,,1200,SPECI,9.0
SBFL 090333Z 33010KT 9999 BKN008 20/20 Q1017,SBFL,2023-06-09T03:33:00Z,-27.67,-48.53,20.0,20.0,330,10,,6.21,30.029528,,,,,,,,,,,BKN,800,,,,,,,IFR,,,,,,,,,,,,SPECI,5.0
KXVG 090333Z AUTO 00000KT 10SM CLR 13/09 A2994 RMK AO2,KXVG,2023-06-09T03:33:00Z,46.98,-94.2,13.0,9.0,0,0,,10.0,29.940945,,,TRUE,TRUE,,,,,,,CLR,,,,,,,,VFR,,,,,,,,,,,,METAR,407.0
KOWA 090333Z AUTO 11005KT 10SM CLR 19/07 A2993 RMK AO2,KOWA,2023-06-09T03:33:00Z,44.12,-93.25,19.0,7.0,110,5,,10.0,29.929134,,,TRUE,TRUE,,,,,,,CLR,,,,,,,,VFR,,,,,,,,,,,,METAR,345.0
KORB 090333Z AUTO 00000KT 10SM CLR 12/08 A2993 RMK AO2,KORB,2023-06-09T03:33:00Z,48.02,-92.87,12.0,8.0,0,0,,10.0,29.929134,,,TRUE,TRUE,,,,,,,CLR,,,,,,,,VFR,,,,,,,,,,,,METAR,407.0
KFOZ 090333Z AUTO 00000KT 10SM CLR 13/11 A2999 RMK AO2,KFOZ,2023-06-09T03:33:00Z,47.77,-93.65,13.0,11.0,0,0,,10.0,29.991142,,,TRUE,TRUE,,,,,,,CLR,,,,,,,,VFR,,,,,,,,,,,,METAR,412.0
KDVP 090333Z AUTO 13006KT 7SM +RA CLR 19/16 A2993 RMK AO2 T01870161,KDVP,2023-06-09T03:33:00Z,43.98,-95.78,18.7,16.1,130,6,,7.0,29.929134,,,TRUE,TRUE,,,,,,+RA,CLR,,,,,,,,VFR,,,,,,,,,,,,METAR,493.0
KAUG 090333Z AUTO 12004KT 10SM FEW005 OVC043 12/10 A2976 RMK AO2 T01170100,KAUG,2023-06-09T03:33:00Z,44.32,-69.8,11.7,10.0,120,4,,10.0,29.760826,,,TRUE,TRUE,,,,,,,FEW,500,OVC,4300,,,,,VFR,,,,,,,,,,,,SPECI,107.0
KAQP 090333Z AUTO 17003KT 10SM 21/15 A2989 RMK AO2,KAQP,2023-06-09T03:33:00Z,45.22,-96.0,21.0,15.0,170,3,,10.0,29.890747,,,TRUE,TRUE,,,,,,,,,,,,,,,,,,,,,,,,,,,METAR,312.0
YSCB 090332Z AUTO 27022G32KT 9999 // NCD 13/04 Q1013 RF00/0/000/0,YSCB,2023-06-09T03:32:00Z,-35.3,149.18,13.0,4.0,270,22,32,6.21,29.911417,,,TRUE,,,,,,,,CLR,,,,,,,,VFR,,,,,,,,,,,,SPECI,577.0
KELM 090332Z 00000KT 1/4SM R24/2200VP6000FT FG FU FEW004 SCT085 10/10 A2980 RMK AO2 T01000100,KELM,2023-06-09T03:32:00Z,42.15,-76.9,10.0,10.0,0,0,,0.25,29.799213,,,,TRUE,,,,,,FG FU,FEW,400,SCT,8500,,,,,LIFR,,,,,,,,,,,,SPECI,287.0
KBTM 090332Z AUTO 00000KT 10SM BKN016 OVC070 14/11 A3006 RMK AO2 T01390111,KBTM,2023-06-09T03:32:00Z,45.97,-112.5,13.9,11.1,0,0,,10.0,30.059055,,,TRUE,TRUE,,,,,,,BKN,1600,OVC,7000,,,,,MVFR,,,,,,,,,,,,SPECI,1680.0
CYUL 090332Z 04012KT 15SM FEW037 FEW060 SCT100 BKN140 14/10 A2976 RMK SC1SC1AC1AC2 SLP079,CYUL,2023-06-09T03:32:00Z,45.47,-73.73,14.0,10.0,40,12,,15.0,29.760826,1007.9,,,,,,,,,,FEW,3700,FEW,6000,SCT,10000,BKN,14000,VFR,,,,,,,,,,,,SPECI,31.0
CYGV 090332Z AUTO 04002KT 1SM -RA BR FEW004 OVC010 07/07 A2993 RMK SLP138,CYGV,2023-06-09T03:32:00Z,50.28,-63.62,7.0,7.0,40,2,,1.0,29.929134,1013.8,,TRUE,,,,,,,-RA BR,FEW,400,OVC,1000,,,,,IFR,,,,,,,,,,,,SPECI,32.0
CYBK 090332Z 33025G35KT 15SM BKN011 04/02 A2982 RMK ST7 SLP102,CYBK,2023-06-09T03:32:00Z,64.3,-96.07,4.0,2.0,330,25,35,15.0,29.819881,1010.2,,,,,,,,,,BKN,1100,,,,,,,MVFR,,,,,,,,,,,,SPECI,14.0
CWKM 090332Z AUTO 07014KT ////SM FEW009 03/01 A3000,CWKM,2023-06-09T03:32:00Z,69.6,-140.17,3.0,1.0,70,14,,,30.0,,,TRUE,,,,,,,,FEW,900,,,,,,,,,,,,,,,,,,,SPECI,8.0
PAKF 090331Z AUTO 12007KT 10SM BKN013 OVC027 07/06 A2941 RMK AO2,PAKF,2023-06-09T03:31:00Z,54.85,-163.42,7.0,6.0,120,7,,10.0,29.409449,,,TRUE,TRUE,,,,,,,BKN,1300,OVC,2700,,,,,MVFR,,,,,,,,,,,,SPECI,2.0
KAFP 090331Z AUTO 00000KT 10SM SCT110 14/11 A2982 RMK AO2 T01420114,KAFP,2023-06-09T03:31:00Z,35.02,-80.08,14.2,11.4,0,0,,10.0,29.819881,,,TRUE,TRUE,,,,,,,SCT,11000,,,,,,,VFR,,,,,,,,,,,,METAR,91.0
ZYTX 090330Z 23003MPS 200V260 9999 FEW040 24/12 Q0999 NOSIG,ZYTX,2023-06-09T03:30:00Z,41.63,123.48,24.0,12.0,230,6,,6.21,29.498032,,,,,,TRUE,,,,,FEW,4000,,,,,,,VFR,,,,,,,,,,,,METAR,56.0
ZYTL 090330Z 19010G15MPS 150V220 CAVOK 26/06 Q1000 NOSIG,ZYTL,2023-06-09T03:30:00Z,38.97,121.55,26.0,6.0,190,19,29,6.21,29.52756,,,,,,TRUE,,,,,CAVOK,,,,,,,,VFR,,,,,,,,,,,,METAR,33.0
ZWWW 090330Z 31003MPS 270V340 CAVOK 34/05 Q1015 NOSIG,ZWWW,2023-06-09T03:30:00Z,43.9,87.47,34.0,5.0,310,6,,6.21,29.970472,,,,,,TRUE,,,,,CAVOK,,,,,,,,VFR,,,,,,,,,,,,METAR,654.0
ZSSS 090330Z 21003MPS 150V240 CAVOK 32/20 Q1004 NOSIG,ZSSS,2023-06-09T03:30:00Z,31.2,121.33,32.0,20.0,210,6,,6.21,29.64567,,,,,,TRUE,,,,,CAVOK,,,,,,,,VFR,,,,,,,,,,,,METAR,2.0
ZSPD 090330Z 19004MPS 140V230 CAVOK 32/23 Q1004 NOSIG,ZSPD,2023-06-09T03:30:00Z,31.15,121.8,32.0,23.0,190,8,,6.21,29.64567,,,,,,TRUE,,,,,CAVOK,,,,,,,,VFR,,,,,,,,,,,,METAR,4.0
ZSHC 090330Z 11002MPS 030V170 9999 FEW020 33/22 Q1004 NOSIG,ZSHC,2023-06-09T03:30:00Z,30.22,120.43,33.0,22.0,110,4,,6.21,29.64567,,,,,,TRUE,,,,,FEW,2000,,,,,,,VFR,,,,,,,,,,,,METAR,8.0
ZMCK 090330Z 34009MPS 310V010 9999 FEW033 21/01 Q1014 NOSIG RMK QFE645.5 26 MOP,ZMCK,2023-06-09T03:30:00Z,47.65,106.82,21.0,1.0,340,17,,6.21,29.940945,,,,,,TRUE,,,,,FEW,3300,,,,,,,VFR,,,,,,,,,,,,METAR,1366.0
ZGGG 090330Z 12002MPS 080V210 9999 BKN026 31/27 Q1005 NOSIG,ZGGG,2023-06-09T03:30:00Z,23.4,113.3,31.0,27.0,120,4,,6.21,29.675198,,,,,,TRUE,,,,,BKN,2600,,,,,,,MVFR,,,,,,,,,,,,METAR,11.0
ZBYN 090330Z 22003MPS 140V280 CAVOK 29/04 Q1006 NOSIG,ZBYN,2023-06-09T03:30:00Z,37.73,112.63,29.0,4.0,220,6,,6.21,29.704725,,,,,,TRUE,,,,,CAVOK,,,,,,,,VFR,,,,,,,,,,,,METAR,778.0
ZBTJ 090330Z 31007G12MPS 280V360 CAVOK 32/02 Q0999 NOSIG,ZBTJ,2023-06-09T03:30:00Z,39.12,117.35,32.0,2.0,310,14,23,6.21,29.498032,,,,,,TRUE,,,,,CAVOK,,,,,,,,VFR,,,,,,,,,,,,METAR,4.0
ZBAD 090330Z 33007G12MPS CAVOK 34/01 Q1000 NOSIG,ZBAD,2023-06-09T03:30:00Z,39.5,116.42,34.0,1.0,330,14,23,6.21,29.52756,,,,,,TRUE,,,,,CAVOK,,,,,,,,VFR,,,,,,,,,,,,METAR,25.0
ZBAA 090330Z 33009G14MPS CAVOK 34/M00 Q0999 NOSIG,ZBAA,2023-06-09T03:30:00Z,40.07,116.6,34.0,0.0,330,17,27,6.21,29.498032,,,,,,TRUE,,,,,CAVOK,,,,,,,,VFR,,,,,,,,,,,,METAR,31.0
YWLM 090330Z 29019KT CAVOK 19/06 Q1015,YWLM,2023-06-09T03:30:00Z,-32.8,151.83,19.0,6.0,290,19,,6.21,29.970472,,,,,,,,,,,CAVOK,,,,,,,,VFR,,,,,,,,,,,,METAR,7.0
YSTW 090330Z AUTO 31008KT 9999 // NCD 17/06 Q1019 RF00.0/000.0,YSTW,2023-06-09T03:30:00Z,-31.08,150.85,17.0,6.0,310,8,,6.21,30.088583,,,TRUE,,,,,,,,CLR,,,,,,,,VFR,,,,,,,,,,,,SPECI,404.0
YSSY 090330Z 31015KT CAVOK 19/05 Q1014,YSSY,2023-06-09T03:30:00Z,-33.95,151.17,19.0,5.0,310,15,,6.21,29.940945,,,,,,,,,,,CAVOK,,,,,,,,VFR,,,,,,,,,,,,METAR,3.0
YSRI 090330Z AUTO 26012KT 9999 // SCT063 20/09 Q1015 RF00.0/000.0,YSRI,2023-06-09T03:30:00Z,-33.6,150.77,20.0,9.0,260,12,,6.21,29.970472,,,TRUE,,,,,,,,SCT,6300,,,,,,,VFR,,,,,,,,,,,,SPECI,19.0
YSDU 090330Z AUTO 30009KT 9999 // NCD 16/07 Q1018 RF00.0/000.2,YSDU,2023-06-09T03:30:00Z,-32.22,148.57,16.0,7.0,300,9,,6.21,30.059055,,,TRUE,,,,,,,,CLR,,,,,,,,VFR,,,,,,,,,,,,SPECI,285.0
YPXM 090330Z AUTO 12014KT 9999 // BKN013 OVC016 26/23 Q1014,YPXM,2023-06-09T03:30:00Z,-10.45,105.68,26.0,23.0,120,14,,6.21,29.940945,,,TRUE,,,,,,,,BKN,1300,OVC,1600,,,,,MVFR,,,,,,,,,,,,SPECI,262.0
YPWR 090330Z AUTO 24009KT 9999 // SCT054 17/06 Q1020 RF00.0/000.0,YPWR,2023-06-09T03:30:00Z,-31.15,136.82,17.0,6.0,240,9,,6.21,30.11811,,,TRUE,,,,,,,,SCT,5400,,,,,,,VFR,,,,,,,,,,,,METAR,169.0
YPTN 090330Z AUTO 08011KT 9999 // SCT045 SCT052 32/19 Q1013,YPTN,2023-06-09T03:30:00Z,-14.52,132.38,32.0,19.0,80,11,,6.21,29.911417,,,TRUE,,,,,,,,SCT,4500,SCT,5200,,,,,VFR,,,,,,,,,,,,SPECI,135.0
YPPD 090330Z AUTO 11012KT 9999 // SCT078 SCT088 28/02 Q1016,YPPD,2023-06-09T03:30:00Z,-20.37,118.62,28.0,2.0,110,12,,6.21,30.0,,,TRUE,,,,,,,,SCT,7800,SCT,8800,,,,,VFR,,,,,,,,,,,,SPECI,6.0
YPLM 090330Z AUTO 06005KT 9999 // NCD 21/07 Q1017 RF00.0/000.0,YPLM,2023-06-09T03:30:00Z,-22.23,114.08,21.0,7.0,60,5,,6.21,30.029528,,,TRUE,,,,,,,,CLR,,,,,,,,VFR,,,,,,,,,,,,SPECI,5.0
YPKU 090330Z AUTO 09011KT 9999 // NCD 32/17 Q1013 RF00.0/000.0,YPKU,2023-06-09T03:30:00Z,-15.77,128.7,32.0,17.0,90,11,,6.21,29.911417,,,TRUE,,,,,,,,CLR,,,,,,,,VFR,,,,,,,,,,,,SPECI,42.0
YPKG 090330Z AUTO 06003KT 9999 // OVC048 15/06 Q1022 RF00.0/000.0,YPKG,2023-06-09T03:30:00Z,-30.78,121.45,15.0,6.0,60,3,,6.21,30.177166,,,TRUE,,,,,,,,OVC,4800,,,,,,,VFR,,,,,,,,,,,,SPECI,372.0
YPJT 090330Z AUTO 36008KT 9999 // SCT007 BKN010 BKN018 16/15 Q1021,YPJT,2023-06-09T03:30:00Z,-32.1,115.88,16.0,15.0,360,8,,6.21,30.147638,,,TRUE,,,,,,,,SCT,700,BKN,1000,BKN,1800,,,MVFR,,,,,,,,,,,,METAR,29.0
YPGV 090330Z AUTO 10011KT 9999 // SCT020 SCT026 BKN032 28/22 Q1012,YPGV,2023-06-09T03:30:00Z,-12.27,136.82,28.0,22.0,100,11,,6.21,29.88189,,,TRUE,,,,,,,,SCT,2000,SCT,2600,BKN,3200,,,VFR,,,,,,,,,,,,SPECI,53.0
YPEA 090330Z 34009KT 9999 FEW010 SCT030 BKN040 18/13 Q1020 RF00.0/000.0,YPEA,2023-06-09T03:30:00Z,-31.67,116.02,18.0,13.0,340,9,,6.21,30.11811,,,,,,,,,,,FEW,1000,SCT,3000,BKN,4000,,,VFR,,,,,,,,,,,,SPECI,38.0
YPCC 090330Z AUTO 03019KT 9999 // SCT024 SCT037 BKN044 27/23 Q1013,YPCC,2023-06-09T03:30:00Z,-12.18,96.83,27.0,23.0,30,19,,6.21,29.911417,,,TRUE,,,,,,,,SCT,2400,SCT,3700,BKN,4400,,,VFR,,,,,,,,,,,,SPECI,3.0
YPAD 090330Z 26014KT 9999 FEW028 SCT056 15/08 Q1018 RF00.0/000.2,YPAD,2023-06-09T03:30:00Z,-34.95,138.52,15.0,8.0,260,14,,6.21,30.059055,,,,,,,,,,,FEW,2800,SCT,5600,,,,,VFR,,,,,,,,,,,,SPECI,2.0
YMML 090330Z 29016KT CAVOK 14/04 Q1014,YMML,2023-06-09T03:30:00Z,-37.67,144.82,14.0,4.0,290,16,,6.21,29.940945,,,,,,,,,,,CAVOK,,,,,,,,VFR,,,,,,,,,,,,METAR,115.0
YMLT 090330Z AUTO 31015KT 9999 // SCT036 BKN047 OVC072 10/03 Q1005,YMLT,2023-06-09T03:30:00Z,-41.53,147.2,10.0,3.0,310,15,,6.21,29.675198,,,TRUE,,,,,,,,SCT,3600,BKN,4700,OVC,7200,,,VFR,,,,,,,,,,,,SPECI,167.0
YMHB 090330Z 33011KT 9999 FEW036 SCT045 11/03 Q1002 RF00.0/000.0,YMHB,2023-06-09T03:30:00Z,-42.83,147.52,11.0,3.0,330,11,,6.21,29.586615,,,,,,,,,,,FEW,3600,SCT,4500,,,,,VFR,,,,,,,,,,,,SPECI,2.0
YMAV 090330Z AUTO 29017G28KT 9999 // BKN045 BKN059 BKN068 13/05 Q1013,YMAV,2023-06-09T03:30:00Z,-38.03,144.48,13.0,5.0,290,17,28,6.21,29.911417,,,TRUE,,,,,,,,BKN,4500,BKN,5900,BKN,6800,,,VFR,,,,,,,,,,,,SPECI,11.0
YLHI 090330Z AUTO 24013KT 9999 // SCT019 BKN027 20/15 Q1013,YLHI,2023-06-09T03:30:00Z,-31.53,159.07,20.0,15.0,240,13,,6.21,29.911417,,,TRUE,,,,,,,,SCT,1900,BKN,2700,,,,,MVFR,,,,,,,,,,,,METAR,2.0
YHID 090330Z AUTO 11018KT 9999 // SCT024 29/22 Q1010 RF00.0/000.0,YHID,2023-06-09T03:30:00Z,-10.58,142.3,29.0,22.0,110,18,,6.21,29.822834,,,TRUE,,,,,,,,SCT,2400,,,,,,,VFR,,,,,,,,,,,,METAR,5.0
YGLA 090330Z AUTO 06007KT 9999 // NCD 27/14 Q1015 RF00.0/000.0,YGLA,2023-06-09T03:30:00Z,-23.87,151.22,27.0,14.0,60,7,,6.21,29.970472,,,TRUE,,,,,,,,CLR,,,,,,,,VFR,,,,,,,,,,,,METAR,17.0
YGEL 090330Z AUTO 02009KT 9999 // NCD 19/11 Q1020 RF00.0/000.0,YGEL,2023-06-09T03:30:00Z,-28.8,114.7,19.0,11.0,20,9,,6.21,30.11811,,,TRUE,,,,,,,,CLR,,,,,,,,VFR,,,,,,,,,,,,METAR,32.0
YFRT 090330Z AUTO 28005KT 9999 // SCT026 BKN034 BKN040 17/10 Q1022,YFRT,2023-06-09T03:30:00Z,-30.83,128.12,17.0,10.0,280,5,,6.21,30.177166,,,TRUE,,,,,,,,SCT,2600,BKN,3400,BKN,4000,,,VFR,,,,,,,,,,,,SPECI,159.0
YCIN 090330Z AUTO 08008KT 040V100 9999 // NCD 32/14 Q1012 RF00.0/000.0,YCIN,2023-06-09T03:30:00Z,-17.58,123.83,32.0,14.0,80,8,,6.21,29.88189,,,TRUE,,,,,,,,CLR,,,,,,,,VFR,,,,,,,,,,,,SPECI,83.0
YCFS 090330Z AUTO 05008KT 9999 // NCD 21/10 Q1016 RF00.0/000.0,YCFS,2023-06-09T03:30:00Z,-30.32,153.12,21.0,10.0,50,8,,6.21,30.0,,,TRUE,,,,,,,,CLR,,,,,,,,VFR,,,,,,,,,,,,METAR,2.0
YBWW 090330Z AUTO 24011KT 9999 // SCT044 19/07 Q1018 RF00.0/002.0,YBWW,2023-06-09T03:30:00Z,-27.55,151.8,19.0,7.0,240,11,,6.21,30.059055,,,TRUE,,,,,,,,SCT,4400,,,,,,,VFR,,,,,,,,,,,,METAR,460.0
YBTL 090330Z AUTO 06011KT 9999 // NCD 26/17 Q1014 RF00.0/000.0,YBTL,2023-06-09T03:30:00Z,-19.25,146.75,26.0,17.0,60,11,,6.21,29.940945,,,TRUE,,,,,,,,CLR,,,,,,,,VFR,,,,,,,,,,,,SPECI,4.0
YBSU 090330Z AUTO 23008KT 200V260 9999 // NCD 24/10 Q1016 RF00.0/000.2,YBSU,2023-06-09T03:30:00Z,-26.6,153.08,24.0,10.0,230,8,,6.21,30.0,,,TRUE,,,,,,,,CLR,,,,,,,,VFR,,,,,,,,,,,,METAR,4.0
YBRM 090330Z AUTO 10009KT 9999 // NCD 32/13 Q1013 RF00.0/000.0,YBRM,2023-06-09T03:30:00Z,-17.93,122.23,32.0,13.0,100,9,,6.21,29.911417,,,TRUE,,,,,,,,CLR,,,,,,,,VFR,,,,,,,,,,,,SPECI,11.0
YBRK 090330Z AUTO 08003KT 9999 // NCD 27/13 Q1015 RF00.0/000.0,YBRK,2023-06-09T03:30:00Z,-23.37,150.47,27.0,13.0,80,3,,6.21,29.970472,,,TRUE,,,,,,,,CLR,,,,,,,,VFR,,,,,,,,,,,,SPECI,10.0
YBMA 090330Z AUTO 17010KT 9999 // NCD 25/05 Q1017 RF00.0/000.0,YBMA,2023-06-09T03:30:00Z,-20.67,139.48,25.0,5.0,170,10,,6.21,30.029528,,,TRUE,,,,,,,,CLR,,,,,,,,VFR,,,,,,,,,,,,SPECI,346.0
YBLN 090330Z AUTO 01001KT 9999 // BKN027 BKN035 OVC054 15/11 Q1020,YBLN,2023-06-09T03:30:00Z,-33.68,115.4,15.0,11.0,10,1,,6.21,30.11811,,,TRUE,,,,,,,,BKN,2700,BKN,3500,OVC,5400,,,MVFR,,,,,,,,,,,,METAR,17.0
YBHM 090330Z AUTO 15012KT 9999 // SCT019 23/19 Q1015 RF00.0/000.0,YBHM,2023-06-09T03:30:00Z,-20.35,148.95,23.0,19.0,150,12,,6.21,29.970472,,,TRUE,,,,,,,,SCT,1900,,,,,,,VFR,,,,,,,,,,,,SPECI,4.0
YBCS 090330Z AUTO 13009KT 9999 // SCT035 BKN059 27/19 Q1013,YBCS,2023-06-09T03:30:00Z,-16.87,145.75,27.0,19.0,130,9,,6.21,29.911417,,,TRUE,,,,,,,,SCT,3500,BKN,5900,,,,,VFR,,,,,,,,,,,,SPECI,2.0
YBCG 090330Z AUTO 15008KT 9999 // NCD 23/08 Q1016 RF00.0/000.0,YBCG,2023-06-09T03:30:00Z,-28.17,153.5,23.0,8.0,150,8,,6.21,30.0,,,TRUE,,,,,,,,CLR,,,,,,,,VFR,,,,,,,,,,,,SPECI,5.0
YBBN 090330Z 24009KT 230V290 9999 FEW045 23/09 Q1016 RF00/0/000/0,YBBN,2023-06-09T03:30:00Z,-27.38,153.13,23.0,9.0,240,9,,6.21,30.0,,,,,,,,,,,FEW,4500,,,,,,,VFR,,,,,,,,,,,,METAR,3.0
YBAS 090330Z AUTO 07006KT 030V110 9999 // NCD 20/02 Q1020 RF00.0/000.0,YBAS,2023-06-09T03:30:00Z,-23.8,133.9,20.0,2.0,70,6,,6.21,30.11811,,,TRUE,,,,,,,,CLR,,,,,,,,VFR,,,,,,,,,,,,SPECI,549.0
YAMB 090330Z 28005KT 9999 FEW045 23/08 Q1016 SMOKE SE,YAMB,2023-06-09T03:30:00Z,-27.63,152.72,23.0,8.0,280,5,,6.21,30.0,,,,,,,,,,,FEW,4500,,,,,,,VFR,,,,,,,,,,,,SPECI,26.0
WSSS 090330Z 13006KT 070V180 9999 SCT018 BKN170 31/25 Q1010 NOSIG,WSSS,2023-06-09T03:30:00Z,1.37,103.97,31.0,25.0,130,6,,6.21,29.822834,,,,,,TRUE,,,,,SCT,1800,BKN,17000,,,,,VFR,,,,,,,,,,,,METAR,17.0
WMKP 090330Z 21007KT 170V240 8000 FEW020 33/25 Q1009 NOSIG,WMKP,2023-06-09T03:30:00Z,5.28,100.27,33.0,25.0,210,7,,4.97,29.793306,,,,,,TRUE,,,,,FEW,2000,,,,,,,MVFR,,,,,,,,,,,,METAR,4.0
WMKK 090330Z VRB05KT 9999 FEW018 30/26 Q1009 NOSIG,WMKK,2023-06-09T03:30:00Z,2.75,101.72,30.0,26.0,0,5,,6.21,29.793306,,,,,,TRUE,,,,,FEW,1800,,,,,,,VFR,,,,,,,,,,,,METAR,21.0
WIPP 090330Z 12008KT 090V150 8000 BKN010 29/25 Q1010 NOSIG,WIPP,2023-06-09T03:30:00Z,-2.88,104.7,29.0,25.0,120,8,,4.97,29.822834,,,,,,TRUE,,,,,BKN,1000,,,,,,,MVFR,,,,,,,,,,,,METAR,7.0
WIOO 090330Z 08005KT 9999 SCT011 27/25 Q1011 NOSIG,WIOO,2023-06-09T03:30:00Z,-0.15,109.4,27.0,25.0,80,5,,6.21,29.852362,,,,,,TRUE,,,,,SCT,1100,,,,,,,VFR,,,,,,,,,,,,METAR,4.0
WIMM 090330Z 12004KT 9999 SCT018 31/25 Q1009 NOSIG,WIMM,2023-06-09T03:30:00Z,3.57,98.67,31.0,25.0,120,4,,6.21,29.793306,,,,,,TRUE,,,,,SCT,1800,,,,,,,VFR,,,,,,,,,,,,METAR,27.0
WILL 090330Z 06008KT 9999 SCT018 31/24 Q1011 NOSIG,WILL,2023-06-09T03:30:00Z,-5.25,105.18,31.0,24.0,60,8,,6.21,29.852362,,,,,,TRUE,,,,,SCT,1800,,,,,,,VFR,,,,,,,,,,,,METAR,83.0
WIII 090330Z 05011KT 9999 FEW020 32/23 Q1010 NOSIG,WIII,2023-06-09T03:30:00Z,-6.13,106.67,32.0,23.0,50,11,,6.21,29.822834,,,,,,TRUE,,,,,FEW,2000,,,,,,,VFR,,,,,,,,,,,,METAR,9.0
WIHH 090330Z 06010KT 6000 FEW022 32/22 Q1010 NOSIG METAR ,WIHH,2023-06-09T03:30:00Z,-6.27,106.88,32.0,22.0,60,10,,3.73,29.822834,,,,,,TRUE,,,,,FEW,2200,,,,,,,MVFR,,,,,,,,,,,,METAR,26.0
WIEE 090330Z VRB02KT 9999 FEW029 BKN035 30/26 Q1010 NOSIG,WIEE,2023-06-09T03:30:00Z,-0.78,100.28,30.0,26.0,0,2,,6.21,29.822834,,,,,,TRUE,,,,,FEW,2900,BKN,3500,,,,,VFR,,,,,,,,,,,,METAR,5.0
WIDN 090330Z 15013KT 9999 SCT015 31/26 Q1010 NOSIG,WIDN,2023-06-09T03:30:00Z,0.92,104.53,31.0,26.0,150,13,,6.21,29.822834,,,,,,TRUE,,,,,SCT,1500,,,,,,,VFR,,,,,,,,,,,,METAR,18.0
WIDD 090330Z 16010KT 9999 SCT014 31/25 Q1011 NOSIG,WIDD,2023-06-09T03:30:00Z,1.12,104.12,31.0,25.0,160,10,,6.21,29.852362,,,,,,TRUE,,,,,SCT,1400,,,,,,,VFR,,,,,,,,,,,,METAR,26.0
WBSB 090330Z 18005KT 9999 FEW015 FEW016CB SCT140 BKN300 32/27 Q1010 NOSIG,WBSB,2023-06-09T03:30:00Z,4.93,114.92,32.0,27.0,180,5,,6.21,29.822834,,,,,,TRUE,,,,,FEW,1500,FEW,1600,SCT,14000,BKN,30000,VFR,,,,,,,,,,,,METAR,15.0
WBKK 090330Z VRB03KT 9999 FEW014 FEW016CB 33/26 Q1009 NOSIG,WBKK,2023-06-09T03:30:00Z,5.93,116.05,33.0,26.0,0,3,,6.21,29.793306,,,,,,TRUE,,,,,FEW,1400,FEW,1600,,,,,VFR,,,,,,,,,,,,METAR,9.0
WBGG 090330Z 13003KT 070V230 9999 FEW018 30/25 Q1011 NOSIG,WBGG,2023-06-09T03:30:00Z,1.48,110.35,30.0,25.0,130,3,,6.21,29.852362,,,,,,TRUE,,,,,FEW,1800,,,,,,,VFR,,,,,,,,,,,,METAR,26.0
WATT 090330Z 09014G23KT 8000 BKN016 OVC080 27/24 Q1012 NOSIG,WATT,2023-06-09T03:30:00Z,-10.17,123.67,27.0,24.0,90,14,23,4.97,29.88189,,,,,,TRUE,,,,,BKN,1600,OVC,8000,,,,,MVFR,,,,,,,,,,,,METAR,104.0
WARR 090330Z 07006KT 9999 FEW020 31/25 Q1010 NOSIG ,WARR,2023-06-09T03:30:00Z,-7.37,112.78,31.0,25.0,70,6,,6.21,29.822834,,,,,,TRUE,,,,,FEW,2000,,,,,,,VFR,,,,,,,,,,,,METAR,3.0
WAQQ 090330Z 22005KT 9999 FEW015 31/26 Q1009,WAQQ,2023-06-09T03:30:00Z,3.33,117.57,31.0,26.0,220,5,,6.21,29.793306,,,,,,,,,,,FEW,1500,,,,,,,VFR,,,,,,,,,,,,METAR,6.0
WAPP 090330Z 18005KT 150V220 9999 SCT017 32/26 Q1009 NOSIG,WAPP,2023-06-09T03:30:00Z,-3.7,128.08,32.0,26.0,180,5,,6.21,29.793306,,,,,,TRUE,,,,,SCT,1700,,,,,,,VFR,,,,,,,,,,,,METAR,20.0
WAOO 090330Z 19005KT 9999 SCT018 31/22 Q1010 NOSIG,WAOO,2023-06-09T03:30:00Z,-3.45,114.77,31.0,22.0,190,5,,6.21,29.822834,,,,,,TRUE,,,,,SCT,1800,,,,,,,VFR,,,,,,,,,,,,METAR,23.0
WAMM 090330Z 33004KT 240V030 9999 SCT020 33/23 Q1008 NOSIG METAR WIBB NIL,WAMM,2023-06-09T03:30:00Z,1.55,124.92,33.0,23.0,330,4,,6.21,29.763779,,,,,,TRUE,,,,,SCT,2000,,,,,,,VFR,,,,,,,,,,,,METAR,86.0
WALL 090330Z 22007KT 9999 FEW018 31/26 Q1010 NOSIG,WALL,2023-06-09T03:30:00Z,-1.27,116.9,31.0,26.0,220,7,,6.21,29.822834,,,,,,TRUE,,,,,FEW,1800,,,,,,,VFR,,,,,,,,,,,,METAR,3.0
WAKK 090330Z 13009KT 9999 FEW015 31/21 Q1009 NOSIG,WAKK,2023-06-09T03:30:00Z,-8.52,140.42,31.0,21.0,130,9,,6.21,29.793306,,,,,,TRUE,,,,,FEW,1500,,,,,,,VFR,,,,,,,,,,,,METAR,5.0
WAJJ 090330Z 10005KT 9999 SCT013 34/23 Q1007 NOSIG,WAJJ,2023-06-09T03:30:00Z,-2.58,140.52,34.0,23.0,100,5,,6.21,29.734253,,,,,,TRUE,,,,,SCT,1300,,,,,,,VFR,,,,,,,,,,,,METAR,93.0
WAHS 090330Z 11007KT 7000 FEW014 33/21 Q1009 NOSIG,WAHS,2023-06-09T03:30:00Z,-6.98,110.38,33.0,21.0,110,7,,4.35,29.793306,,,,,,TRUE,,,,,FEW,1400,,,,,,,MVFR,,,,,,,,,,,,METAR,3.0
WADL 090330Z 13010KT 100V180 9999 SCT016 30/22 Q1012 NOSIG,WADL,2023-06-09T03:30:00Z,-8.75,116.28,30.0,22.0,130,10,,6.21,29.88189,,,,,,TRUE,,,,,SCT,1600,,,,,,,VFR,,,,,,,,,,,,METAR,97.0
WADD 090330Z 10008KT 9999 SCT016 29/24 Q1012 NOSIG,WADD,2023-06-09T03:30:00Z,-8.73,115.17,29.0,24.0,100,8,,6.21,29.88189,,,,,,TRUE,,,,,SCT,1600,,,,,,,VFR,,,,,,,,,,,,METAR,3.0
WABB 090330Z 04005KT 230V040 9000 FEW018CB SCT018 28/25 Q1009 RERA NOSIG RMK CB AT NE,WABB,2023-06-09T03:30:00Z,-1.18,136.12,28.0,25.0,40,5,,5.59,29.793306,,,,,,TRUE,,,,,FEW,1800,SCT,1800,,,,,VFR,,,,,,,,,,,,METAR,12.0
WAAA 090330Z 31006KT 280V360 9999 FEW019 32/22 Q1009 NOSIG,WAAA,2023-06-09T03:30:00Z,-5.07,119.55,32.0,22.0,310,6,,6.21,29.793306,,,,,,TRUE,,,,,FEW,1900,,,,,,,VFR,,,,,,,,,,,,METAR,13.0
VYYY 090330Z 22005KT 7000 BKN016 FEW020CB BKN100 30/25 Q1005,VYYY,2023-06-09T03:30:00Z,16.9,96.13,30.0,25.0,220,5,,4.35,29.675198,,,,,,,,,,,BKN,1600,FEW,2000,BKN,10000,,,MVFR,,,,,,,,,,,,METAR,31.0
VYMD 090330Z 18004KT 7000 BKN018 FEW020CB BKN100 31/25 Q1004,VYMD,2023-06-09T03:30:00Z,21.7,95.98,31.0,25.0,180,4,,4.35,29.64567,,,,,,,,,,,BKN,1800,FEW,2000,BKN,10000,,,MVFR,,,,,,,,,,,,METAR,87.0
VVVD 090330Z VRB02KT 9999 -RA FEW030 27/25 Q1005 NOSIG,VVVD,2023-06-09T03:30:00Z,21.12,107.42,27.0,25.0,0,2,,6.21,29.675198,,,,,,TRUE,,,,-RA,FEW,3000,,,,,,,VFR,,,,,,,,,,,,METAR,8.0
VVTS 090330Z 27010KT 240V300 9999 BKN015 31/27 Q1009 NOSIG,VVTS,2023-06-09T03:30:00Z,10.82,106.67,31.0,27.0,270,10,,6.21,29.793306,,,,,,TRUE,,,,,BKN,1500,,,,,,,MVFR,,,,,,,,,,,,METAR,10.0
VVPQ 090330Z VRB02KT 9999 SCT015 BKN040 ///// Q1010 NOSIG,VVPQ,2023-06-09T03:30:00Z,10.23,103.97,,,0,2,,6.21,29.822834,,,,,,TRUE,,,,,SCT,1500,BKN,4000,,,,,VFR,,,,,,,,,,,,METAR,8.0
VVPB 090330Z 35008KT 9999 FEW017 33/25 Q1006 NOSIG,VVPB,2023-06-09T03:30:00Z,16.38,107.7,33.0,25.0,350,8,,6.21,29.704725,,,,,,TRUE,,,,,FEW,1700,,,,,,,VFR,,,,,,,,,,,,METAR,15.0
VVNB 090330Z 28010KT 9999 SCT016 29/26 Q1005 NOSIG,VVNB,2023-06-09T03:30:00Z,21.22,105.8,29.0,26.0,280,10,,6.21,29.675198,,,,,,TRUE,,,,,SCT,1600,,,,,,,VFR,,,,,,,,,,,,METAR,6.0
VVDN 090330Z 34003KT 360V080 9999 FEW015 SCT070 34/22 Q1005 NOSIG,VVDN,2023-06-09T03:30:00Z,16.03,108.2,34.0,22.0,340,3,,6.21,29.675198,,,,,,TRUE,,,,,FEW,1500,SCT,7000,,,,,VFR,,,,,,,,,,,,METAR,7.0
VVCT 090330Z 26007KT 220V310 9999 BKN013 FEW015CB 30/25 Q1009 NOSIG,VVCT,2023-06-09T03:30:00Z,10.08,105.72,30.0,25.0,260,7,,6.21,29.793306,,,,,,TRUE,,,,,BKN,1300,FEW,1500,,,,,MVFR,,,,,,,,,,,,METAR,6.0
VVCR 090330Z 08005KT 9999 FEW015 34/25 Q1007 NOSIG,VVCR,2023-06-09T03:30:00Z,12.0,109.22,34.0,25.0,80,5,,6.21,29.734253,,,,,,TRUE,,,,,FEW,1500,,,,,,,VFR,,,,,,,,,,,,METAR,12.0
VVCI 090330Z 32007KT 9999 FEW015 BKN070 29/26 Q1005 NOSIG,VVCI,2023-06-09T03:30:00Z,20.82,106.73,29.0,26.0,320,7,,6.21,29.675198,,,,,,TRUE,,,,,FEW,1500,BKN,7000,,,,,VFR,,,,,,,,,,,,METAR,6.0
VTSS 090330Z VRB05KT 9999 FEW020 33/24 Q1009 NOSIG,VTSS,2023-06-09T03:30:00Z,6.92,100.38,33.0,24.0,0,5,,6.21,29.793306,,,,,,TRUE,,,,,FEW,2000,,,,,,,VFR,,,,,,,,,,,,METAR,28.0
VTSP 090330Z 29005KT 250V320 9999 FEW020 31/26 Q1009 NOSIG,VTSP,2023-06-09T03:30:00Z,8.12,98.32,31.0,26.0,290,5,,6.21,29.793306,,,,,,TRUE,,,,,FEW,2000,,,,,,,VFR,,,,,,,,,,,,METAR,12.0
VTCC 090330Z VRB04KT 9999 BKN035 30/23 Q1008 NOSIG,VTCC,2023-06-09T03:30:00Z,18.77,98.97,30.0,23.0,0,4,,6.21,29.763779,,,,,,TRUE,,,,,BKN,3500,,,,,,,VFR,,,,,,,,,,,,METAR,308.0
VTBU 090330Z 21009KT 7000 -RA FEW018 SCT040 BKN100 26/25 Q1010 NOSIG,VTBU,2023-06-09T03:30:00Z,12.68,101.0,26.0,25.0,210,9,,4.35,29.822834,,,,,,TRUE,,,,-RA,FEW,1800,SCT,4000,BKN,10000,,,MVFR,,,,,,,,,,,,METAR,12.0
VTBS 090330Z 22013KT 9999 FEW018CB SCT030 31/23 Q1008 NOSIG,VTBS,2023-06-09T03:30:00Z,13.68,100.75,31.0,23.0,220,13,,6.21,29.763779,,,,,,TRUE,,,,,FEW,1800,SCT,3000,,,,,VFR,,,,,,,,,,,,METAR,1.0
VTBD 090330Z 22010KT 9999 FEW020TCU SCT035 32/25 Q1008 NOSIG,VTBD,2023-06-09T03:30:00Z,13.92,100.6,32.0,25.0,220,10,,6.21,29.763779,,,,,,TRUE,,,,,FEW,2000,SCT,3500,,,,,VFR,,,,,,,,,,,,METAR,6.0
VQPR 090330Z 14009KT 090V200 9999 FEW040 BKN080 19/12 Q1018,VQPR,2023-06-09T03:30:00Z,27.4,89.43,19.0,12.0,140,9,,6.21,30.059055,,,,,,,,,,,FEW,4000,BKN,8000,,,,,VFR,,,,,,,,,,,,METAR,2227.0
VOVZ 090330Z 23010KT 3500 BR SCT016 SCT080 33/29 Q1001 NOSIG,VOVZ,2023-06-09T03:30:00Z,17.72,83.22,33.0,29.0,230,10,,2.17,29.557087,,,,,,TRUE,,,,BR,SCT,1600,SCT,8000,,,,,IFR,,,,,,,,,,,,METAR,4.0
VOTV 090330Z 32008KT 6000 FEW015 FEW025TCU 31/24 Q1010 NOSIG,VOTV,2023-06-09T03:30:00Z,8.48,76.92,31.0,24.0,320,8,,3.73,29.822834,,,,,,TRUE,,,,,FEW,1500,FEW,2500,,,,,MVFR,,,,,,,,,,,,METAR,9.0
VOTR 090330Z 26015G25KT 7000 FEW016 SCT100 32/23 Q1007 NOSIG,VOTR,2023-06-09T03:30:00Z,10.77,78.72,32.0,23.0,260,15,25,4.35,29.734253,,,,,,TRUE,,,,,FEW,1600,SCT,10000,,,,,MVFR,,,,,,,,,,,,METAR,90.0
VORY 090330Z 26006KT 6000 NSC 36/24 Q1002 NOSIG,VORY,2023-06-09T03:30:00Z,17.1,81.82,36.0,24.0,260,6,,3.73,29.586615,,,,,,TRUE,,,,,CLR,,,,,,,,MVFR,,,,,,,,,,,,METAR,47.0
VOPB 090330Z 22015G25KT 5000 VCSH SCT014 BKN080 31/27 Q1007 TEMPO 3500 RA,VOPB,2023-06-09T03:30:00Z,11.63,92.73,31.0,27.0,220,15,25,3.11,29.734253,,,,,,,,,,VCSH,SCT,1400,BKN,8000,,,,,MVFR,,,,,,,,,,,,METAR,1.0
VOND 090330Z 30004KT 9999 NSC 34/19 Q1008 NOSIG,VOND,2023-06-09T03:30:00Z,19.18,77.32,34.0,19.0,300,4,,6.21,29.763779,,,,,,TRUE,,,,,CLR,,,,,,,,VFR,,,,,,,,,,,,METAR,86.0
VOMY 090330Z 27010KT 8000 SCT012 26/21 Q1014,VOMY,2023-06-09T03:30:00Z,12.23,76.65,26.0,21.0,270,10,,4.97,29.940945,,,,,,,,,,,SCT,1200,,,,,,,MVFR,,,,,,,,,,,,METAR,727.0
VOMM 090330Z 29014KT 8000 FEW020 34/25 Q1004 NOSIG,VOMM,2023-06-09T03:30:00Z,13.0,80.17,34.0,25.0,290,14,,4.97,29.64567,,,,,,TRUE,,,,,FEW,2000,,,,,,,MVFR,,,,,,,,,,,,METAR,7.0
VOML 090330Z 11006KT 8000 TS FEW015 FEW025CB 30/24 Q1009 NOSIG,VOML,2023-06-09T03:30:00Z,12.97,74.88,30.0,24.0,110,6,,4.97,29.793306,,,,,,TRUE,,,,TS,FEW,1500,FEW,2500,,,,,MVFR,,,,,,,,,,,,METAR,100.0
VOMD 090330Z 32003KT 9999 FEW020 32/22 Q1008 NOSIG,VOMD,2023-06-09T03:30:00Z,9.83,78.08,32.0,22.0,320,3,,6.21,29.763779,,,,,,TRUE,,,,,FEW,2000,,,,,,,VFR,,,,,,,,,,,,METAR,135.0
VOKN 090330Z 24003KT 6000 FEW012 FEW025CB SCT080 29/26 Q1010 NOSIG,VOKN,2023-06-09T03:30:00Z,11.92,75.55,29.0,26.0,240,3,,3.73,29.822834,,,,,,TRUE,,,,,FEW,1200,FEW,2500,SCT,8000,,,MVFR,,,,,,,,,,,,METAR,105.0
VOHY 090330Z 28014KT 6000 NSC 30/20 Q1010 NOSIG,VOHY,2023-06-09T03:30:00Z,17.45,78.47,30.0,20.0,280,14,,3.73,29.822834,,,,,,TRUE,,,,,CLR,,,,,,,,MVFR,,,,,,,,,,,,METAR,540.0
VOHS 090330Z 28010G20KT 6000 SCT020 30/22 Q1010 NOSIG,VOHS,2023-06-09T03:30:00Z,17.23,78.43,30.0,22.0,280,10,20,3.73,29.822834,,,,,,TRUE,,,,,SCT,2000,,,,,,,MVFR,,,,,,,,,,,,METAR,607.0
VOHB 090330Z 24010KT 9999 SCT012 27/24 Q1011,VOHB,2023-06-09T03:30:00Z,15.37,75.08,27.0,24.0,240,10,,6.21,29.852362,,,,,,,,,,,SCT,1200,,,,,,,VFR,,,,,,,,,,,,METAR,661.0
VOGO 090330Z 21010KT 6000 SCT018 SCT080 31/26 Q1007 NOSIG,VOGO,2023-06-09T03:30:00Z,15.38,73.83,31.0,26.0,210,10,,3.73,29.734253,,,,,,TRUE,,,,,SCT,1800,SCT,8000,,,,,MVFR,,,,,,,,,,,,METAR,56.0
VOGB 090330Z 28012G20KT 8000 NSC 31/23 Q1010,VOGB,2023-06-09T03:30:00Z,17.35,76.85,31.0,23.0,280,12,20,4.97,29.822834,,,,,,,,,,,CLR,,,,,,,,MVFR,,,,,,,,,,,,METAR,458.0
VOCP 090330Z 27017KT 6000 FEW020 32/20 Q1007 NOSIG,VOCP,2023-06-09T03:30:00Z,14.5,78.77,32.0,20.0,270,17,,3.73,29.734253,,,,,,TRUE,,,,,FEW,2000,,,,,,,MVFR,,,,,,,,,,,,METAR,134.0
VOCL 090330Z 08003KT 6000 FEW008 SCT012 FEW025CB BKN080 27/24 Q1010 NOSIG,VOCL,2023-06-09T03:30:00Z,11.13,75.95,27.0,24.0,80,3,,3.73,29.822834,,,,,,TRUE,,,,,FEW,800,SCT,1200,FEW,2500,BKN,8000,MVFR,,,,,,,,,,,,METAR,104.0
VOCI 090330Z 20003KT 4000 BR FEW020 FEW025CB SCT080 28/25 Q1010 NOSIG,VOCI,2023-06-09T03:30:00Z,10.15,76.4,28.0,25.0,200,3,,2.49,29.822834,,,,,,TRUE,,,,BR,FEW,2000,FEW,2500,SCT,8000,,,IFR,,,,,,,,,,,,METAR,8.0
VOCB 090330Z 23009KT 6000 FEW015 SCT080 29/22 Q1011 NOSIG,VOCB,2023-06-09T03:30:00Z,11.02,77.03,29.0,22.0,230,9,,3.73,29.852362,,,,,,TRUE,,,,,FEW,1500,SCT,8000,,,,,MVFR,,,,,,,,,,,,METAR,394.0
VOBZ 090330Z 31010G20KT 6000 NSC 35/22 Q1002 NOSIG,VOBZ,2023-06-09T03:30:00Z,16.52,80.78,35.0,22.0,310,10,20,3.73,29.586615,,,,,,TRUE,,,,,CLR,,,,,,,,MVFR,,,,,,,,,,,,METAR,26.0
VOBM 090330Z 24010KT 6000 SCT012 28/22 Q1013,VOBM,2023-06-09T03:30:00Z,15.85,74.62,28.0,22.0,240,10,,3.73,29.911417,,,,,,,,,,,SCT,1200,,,,,,,MVFR,,,,,,,,,,,,METAR,758.0
VOBL 090330Z 27013KT 8000 FEW010 SCT012 25/20 Q1014 NOSIG,VOBL,2023-06-09T03:30:00Z,13.2,77.7,25.0,20.0,270,13,,4.97,29.940945,,,,,,TRUE,,,,,FEW,1000,SCT,1200,,,,,MVFR,,,,,,,,,,,,METAR,908.0
VOBG 090330Z 25011KT 9999 SCT008 SCT012 26/21 Q1014 NOSIG,VOBG,2023-06-09T03:30:00Z,12.95,77.65,26.0,21.0,250,11,,6.21,29.940945,,,,,,TRUE,,,,,SCT,800,SCT,1200,,,,,VFR,,,,,,,,,,,,METAR,884.0
VNKT 090330Z 01003KT 7000 FEW015 27/16 Q1011 NOSIG,VNKT,2023-06-09T03:30:00Z,27.68,85.37,27.0,16.0,10,3,,4.35,29.852362,,,,,,TRUE,,,,,FEW,1500,,,,,,,MVFR,,,,,,,,,,,,METAR,1334.0
VMMC 090330Z 15005KT 120V190 9999 FEW012 SCT025 29/25 Q1005 NOSIG,VMMC,2023-06-09T03:30:00Z,22.15,113.58,29.0,25.0,150,5,,6.21,29.675198,,,,,,TRUE,,,,,FEW,1200,SCT,2500,,,,,VFR,,,,,,,,,,,,METAR,1.0
VISM 090330Z 00000KT 6000 FEW060 25/12 Q1013,VISM,2023-06-09T03:30:00Z,31.08,77.07,25.0,12.0,0,0,,3.73,29.911417,,,,,,,,,,,FEW,6000,,,,,,,MVFR,,,,,,,,,,,,METAR,1537.0
VIPT 090330Z 15003KT 5000 HZ NSC 32/17 Q1002,VIPT,2023-06-09T03:30:00Z,29.03,79.47,32.0,17.0,150,3,,3.11,29.586615,,,,,,,,,,HZ,CLR,,,,,,,,MVFR,,,,,,,,,,,,METAR,236.0
VILK 090330Z 33007KT 5000 HZ FEW020 35/22 Q1001 NOSIG,VILK,2023-06-09T03:30:00Z,26.75,80.88,35.0,22.0,330,7,,3.11,29.557087,,,,,,TRUE,,,,HZ,FEW,2000,,,,,,,MVFR,,,,,,,,,,,,METAR,121.0
VIJP 090330Z 29010KT 5000 HZ NSC 32/23 Q1006 NOSIG,VIJP,2023-06-09T03:30:00Z,26.82,75.8,32.0,23.0,290,10,,3.11,29.704725,,,,,,TRUE,,,,HZ,CLR,,,,,,,,MVFR,,,,,,,,,,,,METAR,383.0
VIGG 090330Z 00000KT 6000 NSC 29/19 Q1007,VIGG,2023-06-09T03:30:00Z,32.17,76.25,29.0,19.0,0,0,,3.73,29.734253,,,,,,,,,,,CLR,,,,,,,,MVFR,,,,,,,,,,,,METAR,760.0
VIDP 090330Z 27006KT 3500 HZ NSC 34/19 Q1003 NOSIG,VIDP,2023-06-09T03:30:00Z,28.57,77.12,34.0,19.0,270,6,,2.17,29.616142,,,,,,TRUE,,,,HZ,CLR,,,,,,,,IFR,,,,,,,,,,,,METAR,236.0
VIBR 090330Z 00000KT 7000 FEW080 20/13 Q1012,VIBR,2023-06-09T03:30:00Z,31.82,77.15,20.0,13.0,0,0,,4.35,29.88189,,,,,,,,,,,FEW,8000,,,,,,,MVFR,,,,,,,,,,,,METAR,1089.0
VIAR 090330Z 07004KT 4000 HZ NSC 33/22 Q1003 NOSIG,VIAR,2023-06-09T03:30:00Z,31.7,74.8,33.0,22.0,70,4,,2.49,29.616142,,,,,,TRUE,,,,HZ,CLR,,,,,,,,IFR,,,,,,,,,,,,METAR,226.0
VHHH 090330Z 06008KT 9999 FEW010 SCT025 31/25 Q1005 TEMPO 20010KT 3000 SHRA FEW010CB SCT020,VHHH,2023-06-09T03:30:00Z,22.32,113.92,31.0,25.0,60,8,,6.21,29.675198,,,,,,,,,,,FEW,1000,SCT,2500,,,,,VFR,,,1.0,,,,,,,,,METAR,9.0
VGHS 090330Z 00000KT 4000 HZ SCT015 BKN100 32/25 Q1001 NOSIG,VGHS,2023-06-09T03:30:00Z,23.85,90.4,32.0,25.0,0,0,,2.49,29.557087,,,,,,TRUE,,,,HZ,SCT,1500,BKN,10000,,,,,IFR,,,,,,,,,,,,METAR,11.0
VETJ 090330Z 00000KT 5000 HZ SCT018 FEW025CB BKN100 34/26 Q1001 NOSIG,VETJ,2023-06-09T03:30:00Z,27.93,96.13,34.0,26.0,0,0,,3.11,29.557087,,,,,,TRUE,,,,HZ,SCT,1800,FEW,2500,BKN,10000,,,MVFR,,,,,,,,,,,,METAR,244.0
VERP 090330Z 28005KT 4000 HZ FEW025 SCT100 38/14 Q1003 NOSIG,VERP,2023-06-09T03:30:00Z,21.18,81.73,38.0,14.0,280,5,,2.49,29.616142,,,,,,TRUE,,,,HZ,FEW,2500,SCT,10000,,,,,IFR,,,,,,,,,,,,METAR,318.0
VERC 090330Z 32004KT 5000 HZ FEW100 36/13 Q1005 NOSIG,VERC,2023-06-09T03:30:00Z,23.32,85.32,36.0,13.0,320,4,,3.11,29.675198,,,,,,TRUE,,,,HZ,FEW,10000,,,,,,,MVFR,,,,,,,,,,,,METAR,646.0
VEPT 090330Z 30004KT 4500 HZ NSC 37/19 Q0999 NOSIG,VEPT,2023-06-09T03:30:00Z,25.6,85.08,37.0,19.0,300,4,,2.8,29.498032,,,,,,TRUE,,,,HZ,CLR,,,,,,,,IFR,,,,,,,,,,,,METAR,53.0
VEMN 090330Z 09005KT 5000 HZ SCT018 FEW025CB BKN100 31/25 Q1002 NOSIG,VEMN,2023-06-09T03:30:00Z,27.47,95.02,31.0,25.0,90,5,,3.11,29.586615,,,,,,TRUE,,,,HZ,SCT,1800,FEW,2500,BKN,10000,,,MVFR,,,,,,,,,,,,METAR,111.0
VELP 090330Z 05003KT 1500 BR SCT018 SCT025 BKN100 29/26 Q1004 NOSIG,VELP,2023-06-09T03:30:00Z,23.83,92.62,29.0,26.0,50,3,,0.93,29.64567,,,,,,TRUE,,,,BR,SCT,1800,SCT,2500,BKN,10000,,,LIFR,,,,,,,,,,,,METAR,429.0
VEJR 090330Z 34002KT 3500 HZ FEW025 32/18 Q1006,VEJR,2023-06-09T03:30:00Z,19.07,82.03,32.0,18.0,340,2,,2.17,29.704725,,,,,,,,,,HZ,FEW,2500,,,,,,,IFR,,,,,,,,,,,,METAR,555.0
VEIM 090330Z 27002KT 5000 BR FEW010 SCT018 BKN100 29/25 Q1007 NOSIG,VEIM,2023-06-09T03:30:00Z,24.77,93.9,29.0,25.0,270,2,,3.11,29.734253,,,,,,TRUE,,,,BR,FEW,1000,SCT,1800,BKN,10000,,,MVFR,,,,,,,,,,,,METAR,777.0
VEHO 090330Z 00000KT 5000 BR FEW020 SCT100 33/27 Q1002 NOSIG,VEHO,2023-06-09T03:30:00Z,,,33.0,27.0,0,0,,3.11,29.586615,,,,,,TRUE,,,,BR,FEW,2000,SCT,10000,,,,,MVFR,,,,,,,,,,,,METAR,
VEGT 090330Z 05005KT 3500 BR SCT018 BKN100 30/28 Q1002 NOSIG,VEGT,2023-06-09T03:30:00Z,26.1,91.58,30.0,28.0,50,5,,2.17,29.586615,,,,,,TRUE,,,,BR,SCT,1800,BKN,10000,,,,,IFR,,,,,,,,,,,,METAR,50.0
VEDG 090330Z 22003KT 3500 HZ FEW100 34/27 Q1000 NOSIG,VEDG,2023-06-09T03:30:00Z,23.62,87.25,34.0,27.0,220,3,,2.17,29.52756,,,,,,TRUE,,,,HZ,FEW,10000,,,,,,,IFR,,,,,,,,,,,,METAR,88.0
VECC 090330Z 18008KT 3200 HZ SCT018 BKN100 32/28 Q1000 NOSIG,VECC,2023-06-09T03:30:00Z,22.65,88.43,32.0,28.0,180,8,,1.99,29.52756,,,,,,TRUE,,,,HZ,SCT,1800,BKN,10000,,,,,IFR,,,,,,,,,,,,METAR,11.0
VEBS 090330Z 06002KT 3000 HZ SCT018 BKN100 31/29 Q1000 NOSIG,VEBS,2023-06-09T03:30:00Z,20.25,85.82,31.0,29.0,60,2,,1.86,29.52756,,,,,,TRUE,,,,HZ,SCT,1800,BKN,10000,,,,,IFR,,,,,,,,,,,,METAR,42.0
VEAT 090330Z 10004KT 3000 BR SCT018 FEW030CB BKN100 28/26 Q1002 NOSIG,VEAT,2023-06-09T03:30:00Z,23.88,91.25,28.0,26.0,100,4,,1.86,29.586615,,,,,,TRUE,,,,BR,SCT,1800,FEW,3000,BKN,10000,,,IFR,,,,,,,,,,,,METAR,20.0
VDSV 090330Z 04005KT 020V100 9000 -RA SCT015 BKN040 26/25 Q1009,VDSV,2023-06-09T03:30:00Z,10.58,103.63,26.0,25.0,40,5,,5.59,29.793306,,,,,,,,,,-RA,SCT,1500,BKN,4000,,,,,VFR,,,,,,,,,,,,METAR,1.0
VDSR 090330Z 21007KT 9999 SCT015 SCT040 30/25 Q1008,VDSR,2023-06-09T03:30:00Z,13.42,103.8,30.0,25.0,210,7,,6.21,29.763779,,,,,,,,,,,SCT,1500,SCT,4000,,,,,VFR,,,,,,,,,,,,METAR,16.0
VDPP 090330Z 27007KT 220V310 9000 -RA SCT015 BKN040 30/25 Q1008,VDPP,2023-06-09T03:30:00Z,11.55,104.83,30.0,25.0,270,7,,5.59,29.763779,,,,,,,,,,-RA,SCT,1500,BKN,4000,,,,,VFR,,,,,,,,,,,,METAR,10.0
VAUD 090330Z 22008KT 6000 NSC 31/21 Q1008 NOSIG,VAUD,2023-06-09T03:30:00Z,24.62,73.9,31.0,21.0,220,8,,3.73,29.763779,,,,,,TRUE,,,,,CLR,,,,,,,,MVFR,,,,,,,,,,,,METAR,506.0
VASU 090330Z 17008KT 6000 SCT025 32/25 Q1007 NOSIG,VASU,2023-06-09T03:30:00Z,21.12,72.73,32.0,25.0,170,8,,3.73,29.734253,,,,,,TRUE,,,,,SCT,2500,,,,,,,MVFR,,,,,,,,,,,,METAR,6.0
VAPR 090330Z 19008KT 6000 FEW020 SCT025 32/26 Q1006 NOSIG,VAPR,2023-06-09T03:30:00Z,21.63,69.67,32.0,26.0,190,8,,3.73,29.704725,,,,,,TRUE,,,,,FEW,2000,SCT,2500,,,,,MVFR,,,,,,,,,,,,METAR,8.0
VANP 090330Z 32010KT 5000 HZ FEW020 BKN100 35/19 Q1006 NOSIG,VANP,2023-06-09T03:30:00Z,21.08,79.05,35.0,19.0,320,10,,3.11,29.704725,,,,,,TRUE,,,,HZ,FEW,2000,BKN,10000,,,,,MVFR,,,,,,,,,,,,METAR,309.0
VAJJ 090330Z 17003KT 4000 HZ FEW020 SCT025 32/26 Q1007 BECMG 5000 HZ,VAJJ,2023-06-09T03:30:00Z,19.08,72.83,32.0,26.0,170,3,,2.49,29.734253,,,,,,,,,,HZ,FEW,2000,SCT,2500,,,,,IFR,,,,,,,,,,,,METAR,1.0
VAID 090330Z 28011KT 6000 NSC 30/21 Q1010 NOSIG,VAID,2023-06-09T03:30:00Z,22.72,75.8,30.0,21.0,280,11,,3.73,29.822834,,,,,,TRUE,,,,,CLR,,,,,,,,MVFR,,,,,,,,,,,,METAR,564.0
VABP 090330Z 27010G20KT 6000 FEW100 32/18 Q1008 NOSIG,VABP,2023-06-09T03:30:00Z,23.28,77.33,32.0,18.0,270,10,20,3.73,29.763779,,,,,,TRUE,,,,,FEW,10000,,,,,,,MVFR,,,,,,,,,,,,METAR,520.0
VABO 090330Z 26010KT 6000 SCT020 32/24 Q1007 NOSIG,VABO,2023-06-09T03:30:00Z,22.33,73.22,32.0,24.0,260,10,,3.73,29.734253,,,,,,TRUE,,,,,SCT,2000,,,,,,,MVFR,,,,,,,,,,,,METAR,36.0
VABB 090330Z 17005KT 4000 HZ FEW020 SCT025 31/26 Q1007 NOSIG,VABB,2023-06-09T03:30:00Z,19.1,72.87,31.0,26.0,170,5,,2.49,29.734253,,,,,,TRUE,,,,HZ,FEW,2000,SCT,2500,,,,,IFR,,,,,,,,,,,,METAR,14.0
VAAH 090330Z 23011KT 6000 FEW020 32/23 Q1006 NOSIG,VAAH,2023-06-09T03:30:00Z,23.07,72.63,32.0,23.0,230,11,,3.73,29.704725,,,,,,TRUE,,,,,FEW,2000,,,,,,,MVFR,,,,,,,,,,,,METAR,52.0
UWWW 090330Z 10002MPS 050V140 CAVOK 15/06 Q1020 R33/CLRD60 NOSIG RMK QFE754/1006,UWWW,2023-06-09T03:30:00Z,53.5,50.17,15.0,6.0,100,4,,6.21,30.11811,,,,,,TRUE,,,,,CAVOK,,,,,,,,VFR,,,,,,,,,,,,SPECI,124.0
UWUU 090330Z 33003MPS 300V010 9999 BKN040 14/08 Q1019 R32L/0///60 NOSIG,UWUU,2023-06-09T03:30:00Z,54.57,55.87,14.0,8.0,330,6,,6.21,30.088583,,,,,,TRUE,,,,,BKN,4000,,,,,,,VFR,,,,,,,,,,,,SPECI,137.0
UWSG 090330Z VRB01MPS CAVOK 17/12 Q1019 R08/CLRD70 NOSIG RMK QFE762/1016,UWSG,2023-06-09T03:30:00Z,51.72,46.17,17.0,12.0,0,2,,6.21,30.088583,,,,,,TRUE,,,,,CAVOK,,,,,,,,VFR,,,,,,,,,,,,METAR,31.0
UWPS 090330Z 16001MPS 9999 BKN040 15/13 Q1018 R20/CLRD60 NOSIG RMK QFE746,UWPS,2023-06-09T03:30:00Z,54.12,45.2,15.0,13.0,160,2,,6.21,30.059055,,,,,,TRUE,,,,,BKN,4000,,,,,,,VFR,,,,,,,,,,,,METAR,206.0
UWOO 090330Z 30002MPS 250V350 9999 FEW049 18/10 Q1019 R26/CLRD60 NOSIG RMK QFE753/1005,UWOO,2023-06-09T03:30:00Z,51.8,55.47,18.0,10.0,300,4,,6.21,30.088583,,,,,,TRUE,,,,,FEW,4900,,,,,,,VFR,,,,,,,,,,,,SPECI,90.0
UWLL 090330Z 00000MPS CAVOK 14/08 Q1020 R02/090065 NOSIG RMK QFE752/1003,UWLL,2023-06-09T03:30:00Z,54.27,48.23,14.0,8.0,0,0,,6.21,30.11811,,,,,,TRUE,,,,,CAVOK,,,,,,,,VFR,,,,,,,,,,,,SPECI,119.0
UWKS 090330Z 19003MPS CAVOK 13/08 Q1019 R06/010060 NOSIG RMK QFE749,UWKS,2023-06-09T03:30:00Z,56.08,47.35,13.0,8.0,190,6,,6.21,30.088583,,,,,,TRUE,,,,,CAVOK,,,,,,,,VFR,,,,,,,,,,,,METAR,165.0
UWKE 090330Z VRB01MPS 9999 FEW026 13/08 Q1020 R21/090070 NOSIG RMK QFE748/0998,UWKE,2023-06-09T03:30:00Z,55.57,52.08,13.0,8.0,0,2,,6.21,30.11811,,,,,,TRUE,,,,,FEW,2600,,,,,,,VFR,,,,,,,,,,,,SPECI,193.0
UWKD 090330Z 12003MPS CAVOK 14/06 Q1020 R29/CLRD70 NOSIG RMK QFE754/1005,UWKD,2023-06-09T03:30:00Z,55.62,49.28,14.0,6.0,120,6,,6.21,30.11811,,,,,,TRUE,,,,,CAVOK,,,,,,,,VFR,,,,,,,,,,,,SPECI,114.0
UWGG 090330Z 17005MPS CAVOK 14/07 Q1017 R36R/090070 NOSIG,UWGG,2023-06-09T03:30:00Z,56.23,43.78,14.0,7.0,170,10,,6.21,30.029528,,,,,,TRUE,,,,,CAVOK,,,,,,,,VFR,,,,,,,,,,,,SPECI,73.0
UUYY 090330Z 19003MPS CAVOK 08/04 Q1016 R18/61D NOSIG RMK QFE754/1005,UUYY,2023-06-09T03:30:00Z,61.65,50.83,8.0,4.0,190,6,,6.21,30.0,,,,,,TRUE,,,,,CAVOK,,,,,,,,VFR,,,,,,,,,,,,METAR,107.0
UUWW 090330Z 22003MPS CAVOK 14/12 Q1016 R24/000070 NOSIG,UUWW,2023-06-09T03:30:00Z,55.6,37.27,14.0,12.0,220,6,,6.21,30.0,,,,,,TRUE,,,,,CAVOK,,,,,,,,VFR,,,,,,,,,,,,METAR,195.0
UUOO 090330Z 00000MPS CAVOK 18/12 Q1019 R30/010070 NOSIG RMK QFE750,UUOO,2023-06-09T03:30:00Z,51.82,39.23,18.0,12.0,0,0,,6.21,30.088583,,,,,,TRUE,,,,,CAVOK,,,,,,,,VFR,,,,,,,,,,,,SPECI,154.0
UUOL 090330Z AUTO 00000MPS 9999 -RA NCD 16/13 Q1018,UUOL,2023-06-09T03:30:00Z,52.7,39.53,16.0,13.0,0,0,,6.21,30.059055,,,TRUE,,,,,,,-RA,CLR,,,,,,,,VFR,,,,,,,,,,,,METAR,176.0
UUOK 090330Z 14001MPS CAVOK 15/13 Q1019 R12/090060 NOSIG RMK QFE746/0995,UUOK,2023-06-09T03:30:00Z,51.75,36.28,15.0,13.0,140,2,,6.21,30.088583,,,,,,TRUE,,,,,CAVOK,,,,,,,,VFR,,,,,,,,,,,,METAR,203.0
UUOB 090330Z 07002MPS 9000 NSC 16/13 Q1019 R29/010070 NOSIG,UUOB,2023-06-09T03:30:00Z,50.65,36.58,16.0,13.0,70,4,,5.59,30.088583,,,,,,TRUE,,,,,CLR,,,,,,,,VFR,,,,,,,,,,,,METAR,218.0
UUMO 090330Z 24002MPS CAVOK 14/11 Q1016 R25/CLRD60 NOSIG RMK QFE746/0995,UUMO,2023-06-09T03:30:00Z,55.52,37.5,14.0,11.0,240,4,,6.21,30.0,,,,,,TRUE,,,,,CAVOK,,,,,,,,VFR,,,,,,,,,,,,METAR,167.0
UUEE 090330Z 23003MPS CAVOK 15/11 Q1015 R24L/CLRD62 R24C/CLRD62 NOSIG,UUEE,2023-06-09T03:30:00Z,55.97,37.42,15.0,11.0,230,6,,6.21,29.970472,,,,,,TRUE,,,,,CAVOK,,,,,,,,VFR,,,,,,,,,,,,SPECI,186.0
UUDL 090330Z 18002MPS 130V210 CAVOK 13/08 Q1013 R23/010060 NOSIG RMK QFE752,UUDL,2023-06-09T03:30:00Z,57.57,40.17,13.0,8.0,180,4,,6.21,29.911417,,,,,,TRUE,,,,,CAVOK,,,,,,,,VFR,,,,,,,,,,,,METAR,88.0
UUDD 090330Z 25003MPS 210V270 CAVOK 16/11 Q1016 R32L/CLRD60 NOSIG,UUDD,2023-06-09T03:30:00Z,55.4,37.9,16.0,11.0,250,6,,6.21,30.0,,,,,,TRUE,,,,,CAVOK,,,,,,,,VFR,,,,,,,,,,,,METAR,165.0
UUBW 090330Z 24004MPS CAVOK 16/11 Q1016 R30/010060 NOSIG RMK QFE751,UUBW,2023-06-09T03:30:00Z,55.55,38.15,16.0,11.0,240,8,,6.21,30.0,,,,,,TRUE,,,,,CAVOK,,,,,,,,VFR,,,,,,,,,,,,METAR,111.0
UUBP 090330Z 21001MPS CAVOK 14/11 Q1019 R34/////// NOSIG RMK QFE746/0995,UUBP,2023-06-09T03:30:00Z,53.22,34.18,14.0,11.0,210,2,,6.21,30.088583,,,,,,TRUE,,,,,CAVOK,,,,,,,,VFR,,,,,,,,,,,,SPECI,197.0
UUBC 090330Z 00000MPS 9999 SCT/// 14/13 Q1017 R13/CLRD60 NOSIG RMK QFE745/0993,UUBC,2023-06-09T03:30:00Z,54.55,36.37,14.0,13.0,0,0,,6.21,30.029528,,,,,,TRUE,,,,,,,,,,,,,,,,,,,,,,,,,METAR,198.0
UTTT 090330Z 19004KT 150V220 CAVOK 33/06 Q1008 R08R/CLRD70 NOSIG,UTTT,2023-06-09T03:30:00Z,41.27,69.27,33.0,6.0,190,4,,6.21,29.763779,,,,,,TRUE,,,,,CAVOK,,,,,,,,VFR,,,,,,,,,,,,SPECI,429.0
UTST 090330Z 25020KT 0500 R25/0500N +DS NSC 30/09 Q1008 R25/CLRD70 TEMPO 25023G33KT 0300 +DS VV002,UTST,2023-06-09T03:30:00Z,37.28,67.32,30.0,9.0,250,20,,0.31,29.763779,,,,,,,,,,+DS,CLR,,,,,,,,LIFR,,,,,,,,,,,,METAR,311.0
UTSS 090330Z 09006KT 050V120 9999 NSC 29/10 Q1009 R09/70D NOSIG,UTSS,2023-06-09T03:30:00Z,39.7,66.98,29.0,10.0,90,6,,6.21,29.793306,,,,,,TRUE,,,,,CLR,,,,,,,,VFR,,,,,,,,,,,,METAR,665.0
UTSK 090330Z VRB02KT CAVOK 29/08 Q1006 R16/CLRD70,UTSK,2023-06-09T03:30:00Z,38.8,65.77,29.0,8.0,0,2,,6.21,29.704725,,,,,,,,,,,CAVOK,,,,,,,,VFR,,,,,,,,,,,,SPECI,399.0
UTSB 090330Z 35016G26KT 6000 -DS NSC 30/09 Q1009 R01/CLRD70 NOSIG,UTSB,2023-06-09T03:30:00Z,39.77,64.48,30.0,9.0,350,16,26,3.73,29.793306,,,,,,TRUE,,,,-DS,CLR,,,,,,,,MVFR,,,,,,,,,,,,SPECI,225.0
UTSA 090330Z 01018KT 5000 -DS NSC 29/05 Q1009 R07/CLRD70 NOSIG,UTSA,2023-06-09T03:30:00Z,40.12,65.17,29.0,5.0,10,18,,3.11,29.793306,,,,,,TRUE,,,,-DS,CLR,,,,,,,,MVFR,,,,,,,,,,,,SPECI,346.0
UTNU 090330Z 35008KT 9999 FEW066CB OVC100 19/15 Q1016 R31/290150 NOSIG,UTNU,2023-06-09T03:30:00Z,41.58,60.63,19.0,15.0,350,8,,6.21,30.0,,,,,,TRUE,,,,,FEW,6600,OVC,10000,,,,,VFR,,,,,,,,,,,,SPECI,97.0
UTNN 090330Z 34006KT CAVOK 24/10 Q1016 R33/CLRD60 NOSIG,UTNN,2023-06-09T03:30:00Z,42.48,59.63,24.0,10.0,340,6,,6.21,30.0,,,,,,TRUE,,,,,CAVOK,,,,,,,,VFR,,,,,,,,,,,,SPECI,76.0
UTFN 090330Z VRB02KT 9999 NSC 32/07 Q1008 R28/CLRD70 NOSIG,UTFN,2023-06-09T03:30:00Z,40.98,71.57,32.0,7.0,0,2,,6.21,29.763779,,,,,,TRUE,,,,,CLR,,,,,,,,VFR,,,,,,,,,,,,METAR,477.0
UTFF 090330Z 36002KT 9999 NSC 31/08 Q1009 R18/CLRD70,UTFF,2023-06-09T03:30:00Z,40.37,71.73,31.0,8.0,360,2,,6.21,29.793306,,,,,,,,,,,CLR,,,,,,,,VFR,,,,,,,,,,,,METAR,612.0
UTDT 090330Z 22002MPS 190V260 9999 NSC 31/13 Q1007 R35/CLRD70 RMK QFE716/0955,UTDT,2023-06-09T03:30:00Z,37.87,68.87,31.0,13.0,220,4,,6.21,29.734253,,,,,,,,,,,CLR,,,,,,,,VFR,,,,,,,,,,,,METAR,443.0
UTDL 090330Z 06004MPS 9999 NSC 29/11 Q1008 R08/CLRD70 NOSIG RMK QFE717/0957,UTDL,2023-06-09T03:30:00Z,40.22,69.7,29.0,11.0,60,8,,6.21,29.763779,,,,,,TRUE,,,,,CLR,,,,,,,,VFR,,,,,,,,,,,,SPECI,436.0
UTDK 090330Z VRB02MPS 9999 NSC 32/09 Q1010 R01/09//70 RMK QFE700/0934,UTDK,2023-06-09T03:30:00Z,37.98,69.8,32.0,9.0,0,4,,6.21,29.822834,,,,,,,,,,,CLR,,,,,,,,VFR,,,,,,,,,,,,METAR,675.0
UTDD 090330Z 11003MPS 080V150 9999 NSC 29/10 Q1011 R09/D NOSIG RMK QFE690/0920,UTDD,2023-06-09T03:30:00Z,38.53,68.82,29.0,10.0,110,6,,6.21,29.852362,,,,,,TRUE,,,,,CLR,,,,,,,,VFR,,,,,,,,,,,,METAR,785.0
USTR 090330Z 30005MPS 9999 OVC015 12/08 Q1015 R30/090065 R21/090065 TEMPO BKN007 BKN020,USTR,2023-06-09T03:30:00Z,57.18,65.32,12.0,8.0,300,10,,6.21,29.970472,,,,,,,,,,,OVC,1500,,,,,,,MVFR,,,,,,,,,,,,SPECI,93.0
USSS 090330Z 32005MPS 9999 BKN025 12/07 Q1018 R26L/010060 NOSIG RMK QFE742/0990,USSS,2023-06-09T03:30:00Z,56.75,60.78,12.0,7.0,320,10,,6.21,30.059055,,,,,,TRUE,,,,,BKN,2500,,,,,,,MVFR,,,,,,,,,,,,SPECI,222.0
USRR 090330Z 08002MPS 350V130 CAVOK 13/03 Q1014 R07/CLRD60 NOSIG RMK QFE756,USRR,2023-06-09T03:30:00Z,61.33,73.42,13.0,3.0,80,4,,6.21,29.940945,,,,,,TRUE,,,,,CAVOK,,,,,,,,VFR,,,,,,,,,,,,SPECI,52.0
USPP 090330Z VRB01MPS CAVOK 12/08 Q1019 R21/090060 NOSIG RMK QFE754,USPP,2023-06-09T03:30:00Z,57.92,56.02,12.0,8.0,0,2,,6.21,30.088583,,,,,,TRUE,,,,,CAVOK,,,,,,,,VFR,,,,,,,,,,,,SPECI,120.0
USNN 090330Z 36003MPS 9999 BKN029 11/03 Q1013 R03/0///65 NOSIG RMK QFE756,USNN,2023-06-09T03:30:00Z,60.95,76.48,11.0,3.0,360,6,,6.21,29.911417,,,,,,TRUE,,,,,BKN,2900,,,,,,,MVFR,,,,,,,,,,,,SPECI,52.0
USHH 090330Z 06002MPS 010V110 CAVOK 12/05 Q1014 R06/010060 NOSIG,USHH,2023-06-09T03:30:00Z,61.03,69.08,12.0,5.0,60,4,,6.21,29.940945,,,,,,TRUE,,,,,CAVOK,,,,,,,,VFR,,,,,,,,,,,,METAR,46.0
USDA 090330Z 32005MPS 9999 SCT033 03/M03 Q1012 R22/CLRD60 NOSIG RMK QFE758/1011,USDA,2023-06-09T03:30:00Z,71.2,72.05,3.0,-3.0,320,10,,6.21,29.88189,,,,,,TRUE,,,,,SCT,3300,,,,,,,VFR,,,,,,,,,,,,METAR,5.0
USCM 090330Z 10002MPS 070V160 9999 SCT040 16/09 Q1018 R36/////// NOSIG RMK QFE725,USCM,2023-06-09T03:30:00Z,53.4,58.75,16.0,9.0,100,4,,6.21,30.059055,,,,,,TRUE,,,,,SCT,4000,,,,,,,VFR,,,,,,,,,,,,METAR,425.0
USCC 090330Z 34004MPS 9999 SCT016 12/09 Q1017 R27/000060 NOSIG RMK QFE743,USCC,2023-06-09T03:30:00Z,55.3,61.5,12.0,9.0,340,8,,6.21,30.029528,,,,,,TRUE,,,,,SCT,1600,,,,,,,VFR,,,,,,,,,,,,SPECI,227.0
URWW 090330Z 06002MPS CAVOK 21/07 Q1019 R05/010070 NOSIG,URWW,2023-06-09T03:30:00Z,48.78,44.33,21.0,7.0,60,4,,6.21,30.088583,,,,,,TRUE,,,,,CAVOK,,,,,,,,VFR,,,,,,,,,,,,SPECI,131.0
URWI 090330Z AUTO 07002MPS 9999 // ///////// 20/10 Q1018,URWI,2023-06-09T03:30:00Z,46.37,44.33,20.0,10.0,70,4,,6.21,30.059055,,,TRUE,,,,,,,,,,,,,,,,,,,,,,,,,,,,SPECI,145.0
URWA 090330Z 03003MPS CAVOK 22/12 Q1019 R27/010070 NOSIG RMK QFE766/1022,URWA,2023-06-09T03:30:00Z,46.28,47.98,22.0,12.0,30,6,,6.21,30.088583,,,,,,TRUE,,,,,CAVOK,,,,,,,,VFR,,,,,,,,,,,,SPECI,-19.0
URSS 090330Z 04004MPS 9999 NSC 20/15 Q1010 R02/010070 R06/010070 NOSIG RMK R06/00000MPS QFE756,URSS,2023-06-09T03:30:00Z,43.45,39.92,20.0,15.0,40,8,,6.21,29.822834,,,,,,TRUE,,,,,CLR,,,,,,,,VFR,,,,,,,,,,,,METAR,4.0
URRP 090330Z 07004MPS CAVOK 18/10 Q1018 R05/CLRD70 NOSIG RMK QFE758/1011,URRP,2023-06-09T03:30:00Z,47.5,39.92,18.0,10.0,70,8,,6.21,30.059055,,,,,,TRUE,,,,,CAVOK,,,,,,,,VFR,,,,,,,,,,,,METAR,73.0
URMT 090330Z 11005MPS CAVOK 14/08 Q1017 R07/010070 NOSIG RMK QFE722,URMT,2023-06-09T03:30:00Z,45.12,42.12,14.0,8.0,110,10,,6.21,30.029528,,,,,,TRUE,,,,,CAVOK,,,,,,,,VFR,,,,,,,,,,,,SPECI,448.0
URMO 090330Z VRB01MPS 9999 NSC 15/11 Q1016 R09/010070 NOSIG RMK QFE718/0958,URMO,2023-06-09T03:30:00Z,43.2,44.6,15.0,11.0,0,2,,6.21,30.0,,,,,,TRUE,,,,,CLR,,,,,,,,VFR,,,,,,,,,,,,METAR,505.0
URMM 090330Z 09004MPS 9999 NSC 15/11 Q1017 R12/090070 NOSIG RMK QFE734/0979,URMM,2023-06-09T03:30:00Z,44.22,43.07,15.0,11.0,90,8,,6.21,30.029528,,,,,,TRUE,,,,,CLR,,,,,,,,VFR,,,,,,,,,,,,SPECI,318.0
URML 090330Z 15006MPS 9999 NSC 22/13 Q1016 R14/01//70 NOSIG RMK QFE762/1016,URML,2023-06-09T03:30:00Z,42.82,47.65,22.0,13.0,150,12,,6.21,30.0,,,,,,TRUE,,,,,CLR,,,,,,,,VFR,,,,,,,,,,,,SPECI,4.0
URMG 090330Z 11003MPS CAVOK 15/12 Q1016 R08/090070 NOSIG RMK QFE747/0996,URMG,2023-06-09T03:30:00Z,43.38,45.7,15.0,12.0,110,6,,6.21,30.0,,,,,,TRUE,,,,,CAVOK,,,,,,,,VFR,,,,,,,,,,,,METAR,160.0
URKK 090330Z 08005MPS CAVOK 18/12 Q1012 R05R/CLRD70 NOSIG RMK QFE756,URKK,2023-06-09T03:30:00Z,45.03,39.15,18.0,12.0,80,10,,6.21,29.88189,,,,,,TRUE,,,,,CAVOK,,,,,,,,VFR,,,,,,,,,,,,SPECI,29.0
URKA 090330Z 09006MPS CAVOK 17/12 Q1010 R04/010070 TEMPO SCT040 RMK QFE754/1005,URKA,2023-06-09T03:30:00Z,45.0,37.35,17.0,12.0,90,12,,6.21,29.822834,,,,,,,,,,,CAVOK,,,,,,,,VFR,,,,,,,,,,,,SPECI,41.0
UOOO 090330Z 36009MPS CAVOK 05/01 Q1005 R01/CLRD60 NOSIG RMK QFE739/0986,UOOO,2023-06-09T03:30:00Z,69.32,87.33,5.0,1.0,360,17,,6.21,29.675198,,,,,,TRUE,,,,,CAVOK,,,,,,,,VFR,,,,,,,,,,,,SPECI,177.0
UNWW 090330Z 19005MPS CAVOK 28/11 Q1006 R19/09//60 NOSIG RMK QFE727,UNWW,2023-06-09T03:30:00Z,53.82,86.88,28.0,11.0,190,10,,6.21,29.704725,,,,,,TRUE,,,,,CAVOK,,,,,,,,VFR,,,,,,,,,,,,SPECI,307.0
UNTT 090330Z 35004MPS CAVOK 26/16 Q1002 R03/090060 NOSIG RMK QFE735,UNTT,2023-06-09T03:30:00Z,56.38,85.22,26.0,16.0,350,8,,6.21,29.586615,,,,,,TRUE,,,,,CAVOK,,,,,,,,VFR,,,,,,,,,,,,METAR,179.0
UNOO 090330Z 04004MPS 9999 BKN040 19/09 Q1013 R25/CLRD60 NOSIG RMK QFE752,UNOO,2023-06-09T03:30:00Z,54.97,73.32,19.0,9.0,40,8,,6.21,29.911417,,,,,,TRUE,,,,,BKN,4000,,,,,,,VFR,,,,,,,,,,,,SPECI,85.0
UNNT 090330Z 35007MPS 9999 SCT023CB 22/17 Q1004 R25/090070 R34/090070 NOSIG RMK QFE743/0991,UNNT,2023-06-09T03:30:00Z,55.02,82.65,22.0,17.0,350,14,,6.21,29.64567,,,,,,TRUE,,,,,SCT,2300,,,,,,,VFR,,,,,,,,,,,,SPECI,106.0
UNKL 090330Z 19001MPS 9000 NSC 28/15 Q1006 R29/CLRD65 NOSIG RMK QFE729,UNKL,2023-06-09T03:30:00Z,56.17,92.48,28.0,15.0,190,2,,5.59,29.704725,,,,,,TRUE,,,,,CLR,,,,,,,,VFR,,,,,,,,,,,,SPECI,278.0
UNEE 090330Z 15005MPS CAVOK 28/14 Q1003 R23/CLRD60 NOSIG RMK QFE730,UNEE,2023-06-09T03:30:00Z,55.27,86.1,28.0,14.0,150,10,,6.21,29.616142,,,,,,TRUE,,,,,CAVOK,,,,,,,,VFR,,,,,,,,,,,,SPECI,261.0
UNBB 090330Z 26007MPS CAVOK 27/12 Q1006 R24/CLRD66 NOSIG RMK QFE732,UNBB,2023-06-09T03:30:00Z,53.37,83.53,27.0,12.0,260,14,,6.21,29.704725,,,,,,TRUE,,,,,CAVOK,,,,,,,,VFR,,,,,,,,,,,,SPECI,249.0
UNAA 090330Z 15003MPS 120V200 CAVOK 26/16 Q1007 R20/CLRD67 NOSIG RMK QFE733,UNAA,2023-06-09T03:30:00Z,53.75,91.4,26.0,16.0,150,6,,6.21,29.734253,,,,,,TRUE,,,,,CAVOK,,,,,,,,VFR,,,,,,,,,,,,SPECI,249.0
UMMS 090330Z VRB01MPS CAVOK 16/11 Q1018 NOSIG,UMMS,2023-06-09T03:30:00Z,53.88,28.03,16.0,11.0,0,2,,6.21,30.059055,,,,,,TRUE,,,,,CAVOK,,,,,,,,VFR,,,,,,,,,,,,METAR,196.0
UMKK 090330Z 05001MPS CAVOK 13/11 Q1017 R24/CLRD95 NOSIG RMK QFE762/1016,UMKK,2023-06-09T03:30:00Z,54.88,20.57,13.0,11.0,50,2,,6.21,30.029528,,,,,,TRUE,,,,,CAVOK,,,,,,,,VFR,,,,,,,,,,,,SPECI,6.0
UMIO 090330Z 24003MPS CAVOK 16/11 Q1017 NOSIG RMK QFE745/0994,UMIO,2023-06-09T03:30:00Z,54.43,30.3,16.0,11.0,240,6,,6.21,30.029528,,,,,,TRUE,,,,,CAVOK,,,,,,,,VFR,,,,,,,,,,,,METAR,189.0
UMGG 090330Z VRB01MPS 7000 NSC 14/13 Q1019 NOSIG,UMGG,2023-06-09T03:30:00Z,52.53,31.02,14.0,13.0,0,2,,4.35,30.088583,,,,,,TRUE,,,,,CLR,,,,,,,,MVFR,,,,,,,,,,,,METAR,135.0
ULWC 090330Z 26001MPS 9999 SCT026CB 11/09 Q1012 NOSIG RMK QFE749/0999,ULWC,2023-06-09T03:30:00Z,59.28,38.02,11.0,9.0,260,2,,6.21,29.88189,,,,,,TRUE,,,,,SCT,2600,,,,,,,VFR,,,,,,,,,,,,METAR,113.0
ULOO 090330Z 34003MPS 300V020 CAVOK 10/07 Q1019 R01/090060 NOSIG RMK QFE760,ULOO,2023-06-09T03:30:00Z,57.78,28.4,10.0,7.0,340,6,,6.21,30.088583,,,,,,TRUE,,,,,CAVOK,,,,,,,,VFR,,,,,,,,,,,,SPECI,46.0
ULMM 090330Z 32004MPS 9999 -SHRA BKN012CB 03/03 Q1019 R31/190070 NOSIG RMK QFE757,ULMM,2023-06-09T03:30:00Z,68.78,32.75,3.0,3.0,320,8,,6.21,30.088583,,,,,,TRUE,,,,-SHRA,BKN,1200,,,,,,,MVFR,,,,,,,,,,,,SPECI,79.0
ULLI 090330Z 32006MPS CAVOK 10/07 Q1018 R28L/090060 NOSIG,ULLI,2023-06-09T03:30:00Z,59.8,30.27,10.0,7.0,320,12,,6.21,30.059055,,,,,,TRUE,,,,,CAVOK,,,,,,,,VFR,,,,,,,,,,,,SPECI,25.0
UIUU 090330Z 09002MPS 9999 NSC 24/01 Q1011 R08/CLRD60 NOSIG RMK QFE713/0951,UIUU,2023-06-09T03:30:00Z,51.8,107.45,24.0,1.0,90,4,,6.21,29.852362,,,,,,TRUE,,,,,CLR,,,,,,,,VFR,,,,,,,,,,,,SPECI,508.0
UIII 090330Z 17005MPS 140V200 CAVOK 24/10 Q1011 R12/60D NOSIG RMK QFE716/0955,UIII,2023-06-09T03:30:00Z,52.27,104.37,24.0,10.0,170,10,,6.21,29.852362,,,,,,TRUE,,,,,CAVOK,,,,,,,,VFR,,,,,,,,,,,,METAR,480.0
UIBB 090330Z 13004MPS 080V180 9999 NSC 25/13 Q1008 R12/CLRD60 NOSIG RMK QFE713/0951,UIBB,2023-06-09T03:30:00Z,56.37,101.7,25.0,13.0,130,8,,6.21,29.763779,,,,,,TRUE,,,,,CLR,,,,,,,,VFR,,,,,,,,,,,,SPECI,485.0
UIAA 090330Z VRB01MPS 9999 SCT050CB 20/04 Q1010 R29/CLRD70 NOSIG RMK QFE699/0932,UIAA,2023-06-09T03:30:00Z,52.02,113.32,20.0,4.0,0,2,,6.21,29.822834,,,,,,TRUE,,,,,SCT,5000,,,,,,,VFR,,,,,,,,,,,,SPECI,650.0
UHWW 090330Z 17005MPS 9999 -SHRA SCT010 BKN026CB 17/15 Q1003 R25L/290160 NOSIG RMK QFE751,UHWW,2023-06-09T03:30:00Z,43.4,132.15,17.0,15.0,170,10,,6.21,29.616142,,,,,,TRUE,,,,-SHRA,SCT,1000,BKN,2600,,,,,MVFR,,,,,,,,,,,,METAR,11.0
UHSS 090330Z 36006MPS 9999 NSC 15/10 Q1016 R01/70D NOSIG RMK QFE761/1014,UHSS,2023-06-09T03:30:00Z,46.88,142.72,15.0,10.0,360,12,,6.21,30.0,,,,,,TRUE,,,,,CLR,,,,,,,,VFR,,,,,,,,,,,,METAR,14.0
UHPP 090330Z 17008MPS 9999 BKN094 17/06 Q1015 R16R/CLRD57 NOSIG RMK MT OBSC QFE758/1011,UHPP,2023-06-09T03:30:00Z,53.17,158.45,17.0,6.0,170,16,,6.21,29.970472,,,,,,TRUE,,,,,BKN,9400,,,,,,,VFR,,,,,,,,,,,,METAR,33.0
UHMM 090330Z 23003MPS 190V260 9999 -SHRA BKN040CB 15/08 Q1010 R10/70D RMK QFE743 R28/29004MPS,UHMM,2023-06-09T03:30:00Z,59.92,150.72,15.0,8.0,230,6,,6.21,29.822834,,,,,,,,,,-SHRA,BKN,4000,,,,,,,VFR,,,,,,,,,,,,METAR,175.0
UHMD 090330Z 20003MPS 9999 FEW030 BKN060 06/02 Q1006 RMK QFE754/1005,UHMD,2023-06-09T03:30:00Z,64.38,-173.23,6.0,2.0,200,6,,6.21,29.704725,,,,,,,,,,,FEW,3000,BKN,6000,,,,,VFR,,,,,,,,,,,,SPECI,40.0
UHMA 090330Z 20004MPS CAVOK 11/03 Q1011 R01/70D NOSIG RMK MID 21005MPS END R01/22002MPS QFE754/1006,UHMA,2023-06-09T03:30:00Z,64.73,177.73,11.0,3.0,200,8,,6.21,29.852362,,,,,,TRUE,,,,,CAVOK,,,,,,,,VFR,,,-0.5,,,,,,,,,METAR,53.0
UHHH 090330Z 09005MPS 9999 FEW030CB 21/13 Q1009 R88/090060 NOSIG RMK QFE750/1001,UHHH,2023-06-09T03:30:00Z,48.52,135.18,21.0,13.0,90,10,,6.21,29.793306,,,,,,TRUE,,,,,FEW,3000,,,,,,,VFR,,,,,,,,,,,,METAR,74.0
UHBB 090330Z 12007MPS 9999 -SHRA SCT010 BKN026CB 17/16 Q1005 R36/290250 NOSIG RMK QBB300 QFE736/0982,UHBB,2023-06-09T03:30:00Z,50.43,127.42,17.0,16.0,120,14,,6.21,29.675198,,,,,,TRUE,,,,-SHRA,SCT,1000,BKN,2600,,,,,MVFR,,,,,,,,,,,,METAR,185.0
UGTB 090330Z 15006KT 9999 OVC060 18/15 Q1020 NOSIG,UGTB,2023-06-09T03:30:00Z,41.67,44.95,18.0,15.0,150,6,,6.21,30.11811,,,,,,TRUE,,,,,OVC,6000,,,,,,,VFR,,,,,,,,,,,,METAR,468.0
UGSB 090330Z 13006KT 9999 BKN025 20/18 Q1010 NOSIG,UGSB,2023-06-09T03:30:00Z,41.62,41.6,20.0,18.0,130,6,,6.21,29.822834,,,,,,TRUE,,,,,BKN,2500,,,,,,,MVFR,,,,,,,,,,,,METAR,32.0
UGMS 090330Z AUTO VRB02KT //// ////// 09/07 Q1021,UGMS,2023-06-09T03:30:00Z,43.05,42.75,9.0,7.0,0,2,,,30.147638,,,TRUE,,,,,,,,,,,,,,,,,,,,,,,,,,,,METAR,1442.0
UGKO 090330Z AUTO 07025G40KT 040V100 CAVOK 24/14 Q1009 NOSIG,UGKO,2023-06-09T03:30:00Z,42.18,42.48,24.0,14.0,70,25,40,6.21,29.793306,,,TRUE,,,TRUE,,,,,CAVOK,,,,,,,,VFR,,,,,,,,,,,,METAR,44.0
UGAM 090330Z AUTO 09013G25KT //// ////// 18/11 Q1016,UGAM,2023-06-09T03:30:00Z,42.53,43.13,18.0,11.0,90,13,25,,30.0,,,TRUE,,,,,,,,,,,,,,,,,,,,,,,,,,,,METAR,544.0
UERR 090330Z 24003MPS CAVOK 21/04 Q1010 R25/CLRD60 NOSIG RMK QFE727/0969,UERR,2023-06-09T03:30:00Z,62.53,114.05,21.0,4.0,240,6,,6.21,29.822834,,,,,,TRUE,,,,,CAVOK,,,,,,,,VFR,,,,,,,,,,,,SPECI,352.0
UERP 090330Z 17005MPS CAVOK 17/03 Q1006 R17/090060 NOSIG RMK QFE710,UERP,2023-06-09T03:30:00Z,66.4,112.03,17.0,3.0,170,10,,6.21,29.704725,,,,,,TRUE,,,,,CAVOK,,,,,,,,VFR,,,,,,,,,,,,SPECI,514.0
UEEE 090330Z 21002MPS 9999 SCT040CB 15/13 Q1014 R05/190059 NOSIG RMK QFE751,UEEE,2023-06-09T03:30:00Z,62.08,129.77,15.0,13.0,210,4,,6.21,29.940945,,,,,,TRUE,,,,,SCT,4000,,,,,,,VFR,,,,,,,,,,,,METAR,106.0
UDYZ 090330Z VRB01KT 9999 NSC 22/09 Q1017 NOSIG,UDYZ,2023-06-09T03:30:00Z,40.15,44.4,22.0,9.0,0,1,,6.21,30.029528,,,,,,TRUE,,,,,CLR,,,,,,,,VFR,,,,,,,,,,,,METAR,851.0
UDSG 090330Z 33003KT 9999 NSC 13/10 Q1021 NOSIG,UDSG,2023-06-09T03:30:00Z,40.75,43.87,13.0,10.0,330,3,,6.21,30.147638,,,,,,TRUE,,,,,CLR,,,,,,,,VFR,,,,,,,,,,,,METAR,1515.0
UCFO 090330Z 03002MPS CAVOK 29/14 Q1010 NOSIG,UCFO,2023-06-09T03:30:00Z,40.6,72.8,29.0,14.0,30,4,,6.21,29.822834,,,,,,TRUE,,,,,CAVOK,,,,,,,,VFR,,,,,,,,,,,,METAR,881.0
UCFM 090330Z 08003MPS CAVOK 31/10 Q1009 NOSIG,UCFM,2023-06-09T03:30:00Z,43.07,74.48,31.0,10.0,80,6,,6.21,29.793306,,,,,,TRUE,,,,,CAVOK,,,,,,,,VFR,,,,,,,,,,,,METAR,632.0
UBBZ 090330Z 31004KT 240V360 9999 SCT053 19/12 Q1020 NOSIG RMK MT OP,UBBZ,2023-06-09T03:30:00Z,39.1,46.73,19.0,12.0,310,4,,6.21,30.11811,,,,,,TRUE,,,,,SCT,5300,,,,,,,VFR,,,,,,,,,,,,METAR,489.0
UBBN 090330Z 15010KT 9999 NSC 21/10 Q1017 NOSIG RMK MT OP QFE687,UBBN,2023-06-09T03:30:00Z,39.18,45.45,21.0,10.0,150,10,,6.21,30.029528,,,,,,TRUE,,,,,CLR,,,,,,,,VFR,,,,,,,,,,,,METAR,857.0
UBBG 090330Z 28006KT 9999 FEW100 17/15 Q1018 NOSIG,UBBG,2023-06-09T03:30:00Z,40.73,46.32,17.0,15.0,280,6,,6.21,30.059055,,,,,,TRUE,,,,,FEW,10000,,,,,,,VFR,,,,,,,,,,,,METAR,333.0
UBBF 090330Z 34006KT 9999 ///100 FEW/// 20/12 Q1018 NOSIG RMK MT OP,UBBF,2023-06-09T03:30:00Z,39.6,47.2,20.0,12.0,340,6,,6.21,30.059055,,,,,,TRUE,,,,,,,,,,,,,,,,,,,,,,,,,METAR,370.0
UBBB 090330Z 00000KT CAVOK 22/12 Q1018 NOSIG,UBBB,2023-06-09T03:30:00Z,40.47,50.07,22.0,12.0,0,0,,6.21,30.059055,,,,,,TRUE,,,,,CAVOK,,,,,,,,VFR,,,,,,,,,,,,METAR,94.0
UAUU 090330Z 02006MPS 350V050 CAVOK 19/10 Q1015 NOSIG RMK QFE746/0995,UAUU,2023-06-09T03:30:00Z,53.2,63.55,19.0,10.0,20,12,,6.21,29.970472,,,,,,TRUE,,,,,CAVOK,,,,,,,,VFR,,,,,,,,,,,,SPECI,177.0
UATT 090330Z 32003MPS 280V340 CAVOK 21/06 Q1019 NOSIG RMK QFE744/0992,UATT,2023-06-09T03:30:00Z,50.25,57.2,21.0,6.0,320,6,,6.21,30.088583,,,,,,TRUE,,,,,CAVOK,,,,,,,,VFR,,,,,,,,,,,,METAR,217.0
UATG 090330Z 01002MPS 340V050 CAVOK 21/07 Q1019 NOSIG RMK QFE766/1021,UATG,2023-06-09T03:30:00Z,47.12,51.83,21.0,7.0,10,4,,6.21,30.088583,,,,,,TRUE,,,,,CAVOK,,,,,,,,VFR,,,,,,,,,,,,SPECI,-23.0
UATE 090330Z 07006MPS CAVOK 22/08 Q1018 NOSIG RMK QFE762/1016,UATE,2023-06-09T03:30:00Z,43.87,51.1,22.0,8.0,70,12,,6.21,30.059055,,,,,,TRUE,,,,,CAVOK,,,,,,,,VFR,,,,,,,,,,,,METAR,21.0
UASS 090330Z VRB01MPS CAVOK 30/13 Q1009 NOSIG RMK QFE736/0982,UASS,2023-06-09T03:30:00Z,50.35,80.23,30.0,13.0,0,2,,6.21,29.793306,,,,,,TRUE,,,,,CAVOK,,,,,,,,VFR,,,,,,,,,,,,SPECI,215.0
UASP 090330Z 35003MPS 300V020 6000 NSC 24/16 Q1009 NOSIG RMK QFE746/0995,UASP,2023-06-09T03:30:00Z,52.2,77.07,24.0,16.0,350,6,,3.73,29.793306,,,,,,TRUE,,,,,CLR,,,,,,,,MVFR,,,,,,,,,,,,SPECI,122.0
UASK 090330Z 13002MPS 060V220 9999 SCT040 28/14 Q1010 NOSIG RMK QFE733/0977,UASK,2023-06-09T03:30:00Z,50.03,82.5,28.0,14.0,130,4,,6.21,29.822834,,,,,,TRUE,,,,,SCT,4000,,,,,,,VFR,,,,,,,,,,,,METAR,285.0
UARR 090330Z 34003MPS CAVOK 18/10 Q1019 NOSIG RMK QFE761/1015,UARR,2023-06-09T03:30:00Z,51.15,51.53,18.0,10.0,340,6,,6.21,30.088583,,,,,,TRUE,,,,,CAVOK,,,,,,,,VFR,,,,,,,,,,,,SPECI,33.0
UAOO 090330Z 32004MPS 9999 BKN046CB 24/12 Q1013 NOSIG RMK QFE748/0998,UAOO,2023-06-09T03:30:00Z,44.7,65.6,24.0,12.0,320,8,,6.21,29.911417,,,,,,TRUE,,,,,BKN,4600,,,,,,,VFR,,,,,,,,,,,,SPECI,130.0
UAKK 090330Z 03002MPS 350V090 CAVOK 22/14 Q1012 NOSIG RMK QFE712/0949,UAKK,2023-06-09T03:30:00Z,49.68,73.35,22.0,14.0,30,4,,6.21,29.88189,,,,,,TRUE,,,,,CAVOK,,,,,,,,VFR,,,,,,,,,,,,SPECI,532.0
UAKD 090330Z 33004MPS 9999 SCT046CB 23/11 Q1011 NOSIG RMK QFE725/0967,UAKD,2023-06-09T03:30:00Z,47.7,67.73,23.0,11.0,330,8,,6.21,29.852362,,,,,,TRUE,,,,,SCT,4600,,,,,,,VFR,,,,,,,,,,,,SPECI,379.0
UAIT 090330Z 05005G10MPS 010V080 CAVOK 37/07 Q1007 NOSIG RMK QFE730/0974,UAIT,2023-06-09T03:30:00Z,43.32,68.55,37.0,7.0,50,10,19,6.21,29.734253,,,,,,TRUE,,,,,CAVOK,,,,,,,,VFR,,,,,,,,,,,,METAR,301.0
UAII 090330Z 28002MPS 250V330 CAVOK 32/10 Q1007 NOSIG RMK QFE720/0961,UAII,2023-06-09T03:30:00Z,42.37,69.48,32.0,10.0,280,4,,6.21,29.734253,,,,,,TRUE,,,,,CAVOK,,,,,,,,VFR,,,,,,,,,,,,SPECI,410.0
UADD 090330Z 25005MPS 9999 NSC 28/09 Q1010 NOSIG RMK QFE701/0935,UADD,2023-06-09T03:30:00Z,42.85,71.3,28.0,9.0,250,10,,6.21,29.822834,,,,,,TRUE,,,,,CLR,,,,,,,,VFR,,,,,,,,,,,,SPECI,663.0
UACP 090330Z 24003MPS 190V270 CAVOK 19/11 Q1014 NOSIG RMK QFE748/0997,UACP,2023-06-09T03:30:00Z,54.78,69.18,19.0,11.0,240,6,,6.21,29.940945,,,,,,TRUE,,,,,CAVOK,,,,,,,,VFR,,,,,,,,,,,,SPECI,134.0
UACK 090330Z 04003MPS 350V100 CAVOK 20/10 Q1014 NOSIG RMK QFE737/0983,UACK,2023-06-09T03:30:00Z,53.32,69.58,20.0,10.0,40,6,,6.21,29.940945,,,,,,TRUE,,,,,CAVOK,,,,,,,,VFR,,,,,,,,,,,,SPECI,261.0
UACC 090330Z 08004MPS 9999 FEW010 19/13 Q1013 NOSIG RMK QFE728/0971,UACC,2023-06-09T03:30:00Z,51.02,71.47,19.0,13.0,80,8,,6.21,29.911417,,,,,,TRUE,,,,,FEW,1000,,,,,,,VFR,,,,,,,,,,,,METAR,354.0
UAAT 090330Z 16002MPS 110V180 9999 NSC 32/08 Q1011 NOSIG RMK QFE707/0943,UAAT,2023-06-09T03:30:00Z,45.12,78.45,32.0,8.0,160,4,,6.21,29.852362,,,,,,TRUE,,,,,CLR,,,,,,,,VFR,,,,,,,,,,,,METAR,588.0
UAAH 090330Z 19004MPS CAVOK 32/11 Q1010 NOSIG RMK QFE719/0959,UAAH,2023-06-09T03:30:00Z,46.9,75.0,32.0,11.0,190,8,,6.21,29.822834,,,,,,TRUE,,,,,CAVOK,,,,,,,,VFR,,,,,,,,,,,,SPECI,427.0
UAAA 090330Z VRB01MPS 9999 FEW100 29/11 Q1011 NOSIG,UAAA,2023-06-09T03:30:00Z,43.35,77.03,29.0,11.0,0,2,,6.21,29.852362,,,,,,TRUE,,,,,FEW,10000,,,,,,,VFR,,,,,,,,,,,,METAR,673.0
TFFR 090330Z AUTO 08006KT 9999 FEW016 27/25 Q1018 TEMPO 4000 SHRA SCT018CB,TFFR,2023-06-09T03:30:00Z,16.27,-61.53,27.0,25.0,80,6,,6.21,30.059055,,,TRUE,,,,,,,,FEW,1600,,,,,,,VFR,,,,,,,,,,,,METAR,6.0
TFFF 090330Z AUTO 12007KT 9999 BKN020/// BKN027/// BKN038/// ///TCU 28/25 Q1017 TEMPO 4000 SHRA,TFFF,2023-06-09T03:30:00Z,14.6,-61.0,28.0,25.0,120,7,,6.21,30.029528,,,TRUE,,,,,,,,BKN,2000,BKN,2700,BKN,3800,,,MVFR,,,,,,,,,,,,METAR,3.0
SPZO 090330Z VRB02KT 9999 NSC 09/01 Q1034 NOSIG RMK BIRD HAZARD RWY 10/28,SPZO,2023-06-09T03:30:00Z,-13.55,-71.93,9.0,1.0,0,2,,6.21,30.531496,,,,,,TRUE,,,,,CLR,,,,,,,,VFR,,,,,,,,,,,,SPECI,3249.0
SOCA 090330Z AUTO 00000KT 9999 FEW019 OVC080 23/23 Q1015 TEMPO 2000 SHRA SCT010 BKN012CB,SOCA,2023-06-09T03:30:00Z,4.82,-52.37,23.0,23.0,0,0,,6.21,29.970472,,,TRUE,,,,,,,,FEW,1900,OVC,8000,,,,,VFR,,,,,,,,,,,,METAR,7.0
ROAH 090330Z 19010KT 9999 FEW012 BKN/// 29/26 Q1006,ROAH,2023-06-09T03:30:00Z,26.18,127.65,29.0,26.0,190,10,,6.21,29.704725,,,,,,,,,,,FEW,1200,,,,,,,VFR,,,,,,,,,,,,METAR,6.0
RKSI 090330Z 24008KT 190V270 9999 FEW010 BKN160 21/17 Q1005 NOSIG,RKSI,2023-06-09T03:30:00Z,37.47,126.45,21.0,17.0,240,8,,6.21,29.675198,,,,,,TRUE,,,,,FEW,1000,BKN,16000,,,,,VFR,,,,,,,,,,,,METAR,7.0
RJTT 090330Z 28006KT 9999 FEW004 BKN008 BKN010 21/20 Q1003 BECMG FM0400 22015KT FEW008 BKN018,RJTT,2023-06-09T03:30:00Z,35.55,139.77,21.0,20.0,280,6,,6.21,29.616142,,,,,,,,,,,FEW,400,BKN,800,BKN,1000,,,IFR,,,,,,,,,,,,SPECI,5.0
RJTR 090330Z AUTO 00000KT 9SM -RA OVC015 20/20 A2964 RMK AO2 RAE01RAB30 SLP038 $,RJTR,2023-06-09T03:30:00Z,35.52,139.4,20.0,20.0,0,0,,9.0,29.639763,1003.8,,TRUE,TRUE,TRUE,,,,,-RA,OVC,1500,,,,,,,MVFR,,,,,,,,,,,,SPECI,106.0
RJGG 090330Z 25016KT 9999 FEW020 BKN/// 23/19 Q1005 NOSIG,RJGG,2023-06-09T03:30:00Z,34.87,136.8,23.0,19.0,250,16,,6.21,29.675198,,,,,,TRUE,,,,,FEW,2000,,,,,,,VFR,,,,,,,,,,,,SPECI,5.0
RJFF 090330Z 16006KT 130V210 9999 FEW035 BKN/// 26/18 Q1005 BECMG 32011KT,RJFF,2023-06-09T03:30:00Z,33.58,130.45,26.0,18.0,160,6,,6.21,29.675198,,,,,,,,,,,FEW,3500,,,,,,,VFR,,,,,,,,,,,,METAR,7.0
RJCC 090330Z 15015KT 6000 -SHRA FEW005 SCT008 BKN050 15/14 Q1011,RJCC,2023-06-09T03:30:00Z,42.77,141.68,15.0,14.0,150,15,,3.73,29.852362,,,,,,,,,,-SHRA,FEW,500,SCT,800,BKN,5000,,,MVFR,,,,,,,,,,,,METAR,19.0
RJBB 090330Z 22003KT 150V320 9999 FEW015 BKN/// 23/19 Q1006 NOSIG,RJBB,2023-06-09T03:30:00Z,34.43,135.25,23.0,19.0,220,3,,6.21,29.704725,,,,,,TRUE,,,,,FEW,1500,,,,,,,VFR,,,,,,,,,,,,SPECI,8.0
RJAA 090330Z 20011KT 170V250 9999 VCSH FEW008 BKN013 23/22 Q1002 TEMPO 20015G25KT BECMG SCT013 BKN020,RJAA,2023-06-09T03:30:00Z,35.77,140.38,23.0,22.0,200,11,,6.21,29.586615,,,,,,,,,,VCSH,FEW,800,BKN,1300,,,,,MVFR,,,1.5,,,,,,,,,SPECI,36.0
RCTP 090330Z 28015KT 9999 FEW012 SCT020 BKN080 32/28 Q1005 NOSIG RMK A2970,RCTP,2023-06-09T03:30:00Z,25.07,121.22,32.0,28.0,280,15,,6.21,29.675198,,,,,,TRUE,,,,,FEW,1200,SCT,2000,BKN,8000,,,VFR,,,,,,,,,,,,METAR,33.0
RCNN 090330Z 25006KT 9999 FEW012 SCT030 BKN200 33/24 Q1006 NOSIG RMK A2972,RCNN,2023-06-09T03:30:00Z,22.93,120.2,33.0,24.0,250,6,,6.21,29.704725,,,,,,TRUE,,,,,FEW,1200,SCT,3000,BKN,20000,,,VFR,,,,,,,,,,,,METAR,15.0
RCMQ 090330Z 22004KT 8000 -RA SCT008 BKN016 BKN040 28/26 Q1007 NOSIG RMK A2975,RCMQ,2023-06-09T03:30:00Z,24.27,120.62,28.0,26.0,220,4,,4.97,29.734253,,,,,,TRUE,,,,-RA,SCT,800,BKN,1600,BKN,4000,,,MVFR,,,,,,,,,,,,METAR,202.0
RCKH 090330Z 26010KT 210V320 9999 SCT010 FEW012CB SCT024 BKN200 31/25 Q1005 NOSIG RMK CB NE A2970,RCKH,2023-06-09T03:30:00Z,22.57,120.33,31.0,25.0,260,10,,6.21,29.675198,,,,,,TRUE,,,,,SCT,1000,FEW,1200,SCT,2400,BKN,20000,VFR,,,,,,,,,,,,METAR,6.0
RCFN 090330Z 15004KT 090V200 9999 VCSH SCT016 BKN050 BKN250 30/27 Q1006 NOSIG RMK A2973,RCFN,2023-06-09T03:30:00Z,22.77,121.1,30.0,27.0,150,4,,6.21,29.704725,,,,,,TRUE,,,,VCSH,SCT,1600,BKN,5000,BKN,25000,,,VFR,,,,,,,,,,,,METAR,42.0
PAPM 090330Z AUTO VRB03KT 9SM -RA BKN027 BKN037 OVC044 09/07 A2948 RMK AO2 P0001,PAPM,2023-06-09T03:30:00Z,59.02,-161.82,9.0,7.0,0,3,,9.0,29.480314,,,TRUE,TRUE,,,,,,-RA,BKN,2700,BKN,3700,OVC,4400,,,MVFR,,,,,,0.01,,,,,,METAR,4.0
OTBD 090330Z 26007KT CAVOK 37/13 Q1002 NOSIG,OTBD,2023-06-09T03:30:00Z,25.25,51.57,37.0,13.0,260,7,,6.21,29.586615,,,,,,TRUE,,,,,CAVOK,,,,,,,,VFR,,,,,,,,,,,,METAR,13.0
OPMT 090330Z 23012KT 4000 FU NSC 34/24 Q1000 NOSIG,OPMT,2023-06-09T03:30:00Z,30.2,71.42,34.0,24.0,230,12,,2.49,29.52756,,,,,,TRUE,,,,FU,CLR,,,,,,,,IFR,,,,,,,,,,,,METAR,122.0
OPKC 090330Z 23015KT 6000 BKN030 31/24 Q1004 NOSIG,OPKC,2023-06-09T03:30:00Z,24.9,67.13,31.0,24.0,230,15,,3.73,29.64567,,,,,,TRUE,,,,,BKN,3000,,,,,,,MVFR,,,,,,,,,,,,METAR,20.0
OPIS 090330Z 09010KT 5000 FU NSC 32/19 Q1004 NOSIG,OPIS,2023-06-09T03:30:00Z,33.55,72.83,32.0,19.0,90,10,,3.11,29.64567,,,,,,TRUE,,,,FU,CLR,,,,,,,,MVFR,,,,,,,,,,,,METAR,542.0
OJAM 090330Z VRB02KT 4000 TSRA SCT040CB SCT100 SCT200 23/09 Q1013 NOSIG,OJAM,2023-06-09T03:30:00Z,31.98,35.98,23.0,9.0,0,2,,2.49,29.911417,,,,,,TRUE,,,,TSRA,SCT,4000,SCT,10000,SCT,20000,,,IFR,,,,,,,,,,,,SPECI,765.0
OIZH 090330Z 04004KT 7000 NSC 30/07 Q1014 A2996 NOSIG,OIZH,2023-06-09T03:30:00Z,29.47,60.92,30.0,7.0,40,4,,4.35,29.940945,,,,,,TRUE,,,,,CLR,,,,,,,,MVFR,,,,,,,,,,,,METAR,1378.0
OIYY 090330Z 31004KT 9999 FEW045 20/14 Q1019,OIYY,2023-06-09T03:30:00Z,31.9,54.28,20.0,14.0,310,4,,6.21,30.088583,,,,,,,,,,,FEW,4500,,,,,,,VFR,,,,,,,,,,,,METAR,1226.0
OITT 090330Z 08012KT 9999 FEW032 SCT190 17/09 Q1020 A3014,OITT,2023-06-09T03:30:00Z,38.13,46.23,17.0,9.0,80,12,,6.21,30.11811,,,,,,,,,,,FEW,3200,SCT,19000,,,,,VFR,,,,,,,,,,,,METAR,1353.0
OITR 090330Z 00000KT CAVOK 17/11 Q1019 A3009,OITR,2023-06-09T03:30:00Z,37.67,45.07,17.0,11.0,0,0,,6.21,30.088583,,,,,,,,,,,CAVOK,,,,,,,,VFR,,,,,,,,,,,,METAR,1312.0
OITL 090330Z 00000KT 0100 R15/0150N FG VV002 08/08 Q1021,OITL,2023-06-09T03:30:00Z,38.33,48.42,8.0,8.0,0,0,,0.06,30.147638,,,,,,,,,,FG,OVX,0,,,,,,,LIFR,,,,,,,,,,,200,METAR,1314.0
OISS 090330Z 06004KT CAVOK 24/08 Q1016 A3001,OISS,2023-06-09T03:30:00Z,29.53,52.58,24.0,8.0,60,4,,6.21,30.0,,,,,,,,,,,CAVOK,,,,,,,,VFR,,,,,,,,,,,,METAR,1484.0
OIMN 090330Z 25004KT 9999 FEW012 BKN025 OVC090 17/14 Q1020,OIMN,2023-06-09T03:30:00Z,37.48,57.3,17.0,14.0,250,4,,6.21,30.11811,,,,,,,,,,,FEW,1200,BKN,2500,OVC,9000,,,MVFR,,,,,,,,,,,,METAR,1065.0
OIMM 090330Z 16008KT CAVOK 23/15 Q1018 A3008,OIMM,2023-06-09T03:30:00Z,36.23,59.63,23.0,15.0,160,8,,6.21,30.059055,,,,,,,,,,,CAVOK,,,,,,,,VFR,,,,,,,,,,,,METAR,995.0
OIKB 090330Z 04006KT 4000 BR NSC 29/26 Q1001 A2958,OIKB,2023-06-09T03:30:00Z,27.22,56.37,29.0,26.0,40,6,,2.49,29.557087,,,,,,,,,,BR,CLR,,,,,,,,IFR,,,,,,,,,,,,METAR,6.0
OIII 090330Z 27006KT 9999 FEW100 19/12 Q1018 A3006,OIII,2023-06-09T03:30:00Z,35.68,51.3,19.0,12.0,270,6,,6.21,30.059055,,,,,,,,,,,FEW,10000,,,,,,,VFR,,,,,,,,,,,,METAR,1182.0
OIGG 090330Z 00000KT 7000 FEW030 BKN080 20/20 Q1017,OIGG,2023-06-09T03:30:00Z,37.33,49.6,20.0,20.0,0,0,,4.35,30.029528,,,,,,,,,,,FEW,3000,BKN,8000,,,,,MVFR,,,,,,,,,,,,METAR,-16.0
OIFM 090330Z 00000KT 6000 NSC 17/13 Q1020 A3014,OIFM,2023-06-09T03:30:00Z,32.75,51.87,17.0,13.0,0,0,,3.73,30.11811,,,,,,,,,,,CLR,,,,,,,,MVFR,,,,,,,,,,,,METAR,1539.0
OICI 090330Z 11002KT CAVOK 24/07 Q1016 A3002,OICI,2023-06-09T03:30:00Z,33.58,46.4,24.0,7.0,110,2,,6.21,30.0,,,,,,,,,,,CAVOK,,,,,,,,VFR,,,,,,,,,,,,METAR,1323.0
OICC 090330Z 04004KT CAVOK 19/06 Q1017 A3005,OICC,2023-06-09T03:30:00Z,34.35,47.17,19.0,6.0,40,4,,6.21,30.029528,,,,,,,,,,,CAVOK,,,,,,,,VFR,,,,,,,,,,,,METAR,1310.0
OIBK 090330Z 33010KT 8000 NSC 32/24 Q1002,OIBK,2023-06-09T03:30:00Z,26.53,53.98,32.0,24.0,330,10,,4.97,29.586615,,,,,,,,,,,CLR,,,,,,,,MVFR,,,,,,,,,,,,METAR,27.0
OIBB 090330Z 06006KT 8000 NSC 31/22 Q1002 A2959,OIBB,2023-06-09T03:30:00Z,28.93,50.83,31.0,22.0,60,6,,4.97,29.586615,,,,,,,,,,,CLR,,,,,,,,MVFR,,,,,,,,,,,,METAR,15.0
OIAW 090330Z 00000KT 9999 FEW040 33/16 Q1001,OIAW,2023-06-09T03:30:00Z,31.33,48.77,33.0,16.0,0,0,,6.21,29.557087,,,,,,,,,,,FEW,4000,,,,,,,VFR,,,,,,,,,,,,METAR,25.0
OBBI 090330Z 26003KT 220V300 CAVOK 36/18 Q1002 NOSIG,OBBI,2023-06-09T03:30:00Z,26.27,50.63,36.0,18.0,260,3,,6.21,29.586615,,,,,,TRUE,,,,,CAVOK,,,,,,,,VFR,,,,,,,,,,,,METAR,6.0
NZWN 090330Z AUTO 16009KT 130V220 9999 BKN040/// 14/10 Q1021,NZWN,2023-06-09T03:30:00Z,-41.32,174.8,14.0,10.0,160,9,,6.21,30.147638,,,TRUE,,,,,,,,BKN,4000,,,,,,,VFR,,,,,,,,,,,,METAR,12.0
NZCH 090330Z AUTO 07008KT 9999 SCT015/// OVC020/// 10/07 Q1022,NZCH,2023-06-09T03:30:00Z,-43.48,172.52,10.0,7.0,70,8,,6.21,30.177166,,,TRUE,,,,,,,,SCT,1500,OVC,2000,,,,,MVFR,,,,,,,,,,,,METAR,36.0
NZAA 090330Z AUTO 15008KT 9999 NCD 16/08 Q1016,NZAA,2023-06-09T03:30:00Z,-37.02,174.8,16.0,8.0,150,8,,6.21,30.0,,,TRUE,,,,,,,,CLR,,,,,,,,VFR,,,,,,,,,,,,METAR,7.0
NWWW 090330Z AUTO 16009KT 130V190 9999 FEW045 25/14 Q1013 NOSIG,NWWW,2023-06-09T03:30:00Z,-22.02,166.22,25.0,14.0,160,9,,6.21,29.911417,,,TRUE,,,TRUE,,,,,FEW,4500,,,,,,,VFR,,,,,,,,,,,,METAR,16.0
NTAA 090330Z 23006KT 9999 FEW028 SCT053 27/18 Q1015 WS R22 NOSIG,NTAA,2023-06-09T03:30:00Z,-17.55,-149.62,27.0,18.0,230,6,,6.21,29.970472,,,,,,TRUE,,,,,FEW,2800,SCT,5300,,,,,VFR,,,,,,,,,,,,METAR,2.0
NLWW 090330Z 08003KT 020V120 9999 FEW023 SCT250 29/25 Q1009 NOSIG,NLWW,2023-06-09T03:30:00Z,-13.23,-176.18,29.0,25.0,80,3,,6.21,29.793306,,,,,,TRUE,,,,,FEW,2300,SCT,25000,,,,,VFR,,,,,,,,,,,,METAR,24.0
NCRG 090330Z AUTO 06010KT 9999 NCD 26/21 Q1013,NCRG,2023-06-09T03:30:00Z,-21.2,-159.82,26.0,21.0,60,10,,6.21,29.911417,,,TRUE,,,,,,,,CLR,,,,,,,,VFR,,,,,,,,,,,,METAR,7.0
LZZI 090330Z 07003KT 8000 OVC003 15/14 Q1014,LZZI,2023-06-09T03:30:00Z,49.23,18.62,15.0,14.0,70,3,,4.97,29.940945,,,,,,,,,,,OVC,300,,,,,,,LIFR,,,,,,,,,,,,METAR,311.0
LZTT 090330Z 23003KT 180V260 0700 R27/0750U FG OVC001 13/13 Q1015,LZTT,2023-06-09T03:30:00Z,49.07,20.25,13.0,13.0,230,3,,0.43,29.970472,,,,,,,,,,FG,OVC,100,,,,,,,LIFR,,,,,,,,,,,,SPECI,693.0
LZPP 090330Z AUTO 01004KT 340V040 6000 OVC003/// 15/15 Q1013,LZPP,2023-06-09T03:30:00Z,48.62,17.83,15.0,15.0,10,4,,3.73,29.911417,,,TRUE,,,,,,,,OVC,300,,,,,,,LIFR,,,,,,,,,,,,METAR,160.0
LZKZ 090330Z 01004KT 9999 SCT040 16/15 Q1013 NOSIG,LZKZ,2023-06-09T03:30:00Z,48.67,21.23,16.0,15.0,10,4,,6.21,29.911417,,,,,,TRUE,,,,,SCT,4000,,,,,,,VFR,,,,,,,,,,,,METAR,227.0
LZIB 090330Z VRB02KT 9999 -SHRA FEW007 FEW017TCU BKN018 17/16 Q1012 NOSIG,LZIB,2023-06-09T03:30:00Z,48.17,17.22,17.0,16.0,0,2,,6.21,29.88189,,,,,,TRUE,,,,-SHRA,FEW,700,FEW,1700,BKN,1800,,,MVFR,,,,,,,,,,,,METAR,129.0
LYVR 090330Z AUTO 05005KT 010V080 CAVOK 17/16 Q1013,LYVR,2023-06-09T03:30:00Z,45.13,21.32,17.0,16.0,50,5,,6.21,29.911417,,,TRUE,,,,,,,,CAVOK,,,,,,,,VFR,,,,,,,,,,,,METAR,82.0
LYTV 090330Z AUTO VRB01KT CAVOK 16/15 Q1012,LYTV,2023-06-09T03:30:00Z,42.4,18.72,16.0,15.0,0,1,,6.21,29.88189,,,TRUE,,,,,,,,CAVOK,,,,,,,,VFR,,,,,,,,,,,,METAR,3.0
LYPG 090330Z VRB02KT 9999 FEW016 18/14 Q1012 NOSIG,LYPG,2023-06-09T03:30:00Z,42.37,19.25,18.0,14.0,0,2,,6.21,29.88189,,,,,,TRUE,,,,,FEW,1600,,,,,,,VFR,,,,,,,,,,,,METAR,32.0
LYNI 090330Z 06001KT CAVOK 16/15 Q1013 NOSIG,LYNI,2023-06-09T03:30:00Z,43.33,21.85,16.0,15.0,60,1,,6.21,29.911417,,,,,,TRUE,,,,,CAVOK,,,,,,,,VFR,,,,,,,,,,,,METAR,197.0
LYKV 090330Z 00000KT 7000 SCT004 14/14 Q1013 NOSIG,LYKV,2023-06-09T03:30:00Z,43.82,20.58,14.0,14.0,0,0,,4.35,29.911417,,,,,,TRUE,,,,,SCT,400,,,,,,,MVFR,,,,,,,,,,,,METAR,209.0
LYBT 090330Z 23001KT 0400 R12/1700D R30/0325N FG NSC 16/16 Q1012 NOSIG,LYBT,2023-06-09T03:30:00Z,44.93,20.25,16.0,16.0,230,1,,0.25,29.88189,,,,,,TRUE,,,,FG,CLR,,,,,,,,LIFR,,,,,,,,,,,,METAR,78.0
LYBE 090330Z VRB01KT 3500 BR NSC 17/17 Q1012 TEMPO 1000,LYBE,2023-06-09T03:30:00Z,44.82,20.28,17.0,17.0,0,1,,2.17,29.88189,,,,,,,,,,BR,CLR,,,,,,,,IFR,,,,,,,,,,,,SPECI,93.0
LWSK 090330Z 20001KT CAVOK 14/13 Q1014 NOSIG,LWSK,2023-06-09T03:30:00Z,41.97,21.63,14.0,13.0,200,1,,6.21,29.940945,,,,,,TRUE,,,,,CAVOK,,,,,,,,VFR,,,,,,,,,,,,METAR,232.0
LUKK 090330Z 26004KT CAVOK 14/11 Q1015 NOSIG,LUKK,2023-06-09T03:30:00Z,46.93,28.93,14.0,11.0,260,4,,6.21,29.970472,,,,,,TRUE,,,,,CAVOK,,,,,,,,VFR,,,,,,,,,,,,METAR,102.0
LRTR 090330Z 07003KT 030V100 8000 -RA FEW049 FEW055CB 17/17 Q1013,LRTR,2023-06-09T03:30:00Z,45.82,21.33,17.0,17.0,70,3,,4.97,29.911417,,,,,,,,,,-RA,FEW,4900,FEW,5500,,,,,MVFR,,,,,,,,,,,,METAR,104.0
LRTM 090330Z AUTO 10001KT 8000 FEW065/// BKN190/// 14/13 Q1014,LRTM,2023-06-09T03:30:00Z,46.47,24.42,14.0,13.0,100,1,,4.97,29.940945,,,TRUE,,,,,,,,FEW,6500,BKN,19000,,,,,MVFR,,,,,,,,,,,,METAR,289.0
LRTC 090330Z AUTO 00000KT 5000 BR NCD 13/11 Q1014,LRTC,2023-06-09T03:30:00Z,45.07,28.72,13.0,11.0,0,0,,3.11,29.940945,,,TRUE,,,,,,,BR,CLR,,,,,,,,MVFR,,,,,,,,,,,,METAR,52.0
LRSV 090330Z 19006KT CAVOK 18/11 Q1015,LRSV,2023-06-09T03:30:00Z,47.68,26.35,18.0,11.0,190,6,,6.21,29.970472,,,,,,,,,,,CAVOK,,,,,,,,VFR,,,,,,,,,,,,METAR,406.0
LRSM 090330Z AUTO 16010KT 9999 TS SCT025/// BKN031/// OVC055/// 18/16 Q1013,LRSM,2023-06-09T03:30:00Z,47.7,22.88,18.0,16.0,160,10,,6.21,29.911417,,,TRUE,,,,,,,TS,SCT,2500,BKN,3100,OVC,5500,,,VFR,,,,,,,,,,,,METAR,123.0
LRSB 090330Z 00000KT CAVOK 14/13 Q1014,LRSB,2023-06-09T03:30:00Z,45.78,24.08,14.0,13.0,0,0,,6.21,29.940945,,,,,,,,,,,CAVOK,,,,,,,,VFR,,,,,,,,,,,,METAR,442.0
LROP 090330Z 07003KT CAVOK 14/11 Q1015 NOSIG,LROP,2023-06-09T03:30:00Z,44.57,26.1,14.0,11.0,70,3,,6.21,29.970472,,,,,,TRUE,,,,,CAVOK,,,,,,,,VFR,,,,,,,,,,,,METAR,92.0
LROD 090330Z AUTO 15006KT 9999 -SHRA BKN150/// 16/15 Q1013,LROD,2023-06-09T03:30:00Z,47.03,21.88,16.0,15.0,150,6,,6.21,29.911417,,,TRUE,,,,,,,-SHRA,BKN,15000,,,,,,,VFR,,,,,,,,,,,,METAR,132.0
LRIA 090330Z 08005KT 070V130 CAVOK 18/10 Q1015,LRIA,2023-06-09T03:30:00Z,47.17,27.62,18.0,10.0,80,5,,6.21,29.970472,,,,,,,,,,,CAVOK,,,,,,,,VFR,,,,,,,,,,,,METAR,71.0
LRCV 090330Z 05006KT CAVOK 13/13 Q1013,LRCV,2023-06-09T03:30:00Z,44.32,23.88,13.0,13.0,50,6,,6.21,29.911417,,,,,,,,,,,CAVOK,,,,,,,,VFR,,,,,,,,,,,,METAR,192.0
LRCL 090330Z 27003KT 230V320 CAVOK 14/14 Q1014,LRCL,2023-06-09T03:30:00Z,46.78,23.68,14.0,14.0,270,3,,6.21,29.940945,,,,,,,,,,,CAVOK,,,,,,,,VFR,,,,,,,,,,,,METAR,313.0
LRCK 090330Z 34006KT CAVOK 14/12 Q1014 NOSIG,LRCK,2023-06-09T03:30:00Z,44.37,28.48,14.0,12.0,340,6,,6.21,29.940945,,,,,,TRUE,,,,,CAVOK,,,,,,,,VFR,,,,,,,,,,,,METAR,108.0
LRBS 090330Z 08001KT CAVOK 14/11 Q1015 NOSIG,LRBS,2023-06-09T03:30:00Z,44.5,26.08,14.0,11.0,80,1,,6.21,29.970472,,,,,,TRUE,,,,,CAVOK,,,,,,,,VFR,,,,,,,,,,,,METAR,91.0
LRBM 090330Z AUTO 11004KT 070V160 9999 SHRA FEW041/// BKN047/// 17/15 Q1014,LRBM,2023-06-09T03:30:00Z,47.67,23.47,17.0,15.0,110,4,,6.21,29.940945,,,TRUE,,,,,,,SHRA,FEW,4100,BKN,4700,,,,,VFR,,,,,,,,,,,,METAR,180.0
LRBC 090330Z 06003KT CAVOK 15/10 Q1015,LRBC,2023-06-09T03:30:00Z,46.52,26.92,15.0,10.0,60,3,,6.21,29.970472,,,,,,,,,,,CAVOK,,,,,,,,VFR,,,,,,,,,,,,METAR,183.0
LRAR 090330Z 15005KT 9000 -RA SCT019 18/16 Q1013,LRAR,2023-06-09T03:30:00Z,46.18,21.27,18.0,16.0,150,5,,5.59,29.911417,,,,,,,,,,-RA,SCT,1900,,,,,,,VFR,,,,,,,,,,,,METAR,102.0
LQTZ 090330Z 29003KT 0400 R09/0400N FG BKN002 13/13 Q1013,LQTZ,2023-06-09T03:30:00Z,44.47,18.73,13.0,13.0,290,3,,0.25,29.911417,,,,,,,,,,FG,BKN,200,,,,,,,LIFR,,,,,,,,,,,,METAR,242.0
LQSA 090330Z 12003KT 050V180 5000 BR BKN004 11/11 Q1014,LQSA,2023-06-09T03:30:00Z,43.82,18.32,11.0,11.0,120,3,,3.11,29.940945,,,,,,,,,,BR,BKN,400,,,,,,,LIFR,,,,,,,,,,,,METAR,505.0
LQMO 090330Z VRB01KT CAVOK 15/14 Q1012,LQMO,2023-06-09T03:30:00Z,43.28,17.83,15.0,14.0,0,1,,6.21,29.88189,,,,,,,,,,,CAVOK,,,,,,,,VFR,,,,,,,,,,,,METAR,49.0
LQBK 090330Z 17004KT 2000 BR BKN003 15/15 Q1013 NOSIG,LQBK,2023-06-09T03:30:00Z,44.93,17.3,15.0,15.0,170,4,,1.24,29.911417,,,,,,TRUE,,,,BR,BKN,300,,,,,,,LIFR,,,,,,,,,,,,METAR,114.0
LPPT 090330Z 23008KT 9999 SCT005 SCT008 BKN011 18/18 Q1007,LPPT,2023-06-09T03:30:00Z,38.77,-9.13,18.0,18.0,230,8,,6.21,29.734253,,,,,,,,,,,SCT,500,SCT,800,BKN,1100,,,MVFR,,,,,,,,,,,,METAR,98.0
LPPS 090330Z 26009KT 9999 FEW015 20/15 Q1013,LPPS,2023-06-09T03:30:00Z,33.07,-16.35,20.0,15.0,260,9,,6.21,29.911417,,,,,,,,,,,FEW,1500,,,,,,,VFR,,,,,,,,,,,,METAR,89.0
LPPR 090330Z 19015KT 9999 BKN004 18/18 Q1005,LPPR,2023-06-09T03:30:00Z,41.23,-8.68,18.0,18.0,190,15,,6.21,29.675198,,,,,,,,,,,BKN,400,,,,,,,LIFR,,,,,,,,,,,,METAR,64.0
LPPD 090330Z 27008KT 9999 FEW016 17/15 Q1011,LPPD,2023-06-09T03:30:00Z,37.73,-25.68,17.0,15.0,270,8,,6.21,29.852362,,,,,,,,,,,FEW,1600,,,,,,,VFR,,,,,,,,,,,,METAR,62.0
LPMA 090330Z 32003KT 290V350 9999 SCT015 19/15 Q1013,LPMA,2023-06-09T03:30:00Z,32.7,-16.77,19.0,15.0,320,3,,6.21,29.911417,,,,,,,,,,,SCT,1500,,,,,,,VFR,,,,,,,,,,,,METAR,54.0
LPFR 090330Z 21010KT 9999 FEW012 SCT025 20/18 Q1010,LPFR,2023-06-09T03:30:00Z,37.02,-7.97,20.0,18.0,210,10,,6.21,29.822834,,,,,,,,,,,FEW,1200,SCT,2500,,,,,VFR,,,,,,,,,,,,METAR,3.0
LPAZ 090330Z 27008KT 9999 FEW018 18/14 Q1011,LPAZ,2023-06-09T03:30:00Z,36.97,-25.17,18.0,14.0,270,8,,6.21,29.852362,,,,,,,,,,,FEW,1800,,,,,,,VFR,,,,,,,,,,,,METAR,96.0
LKTB 090330Z 36003KT 320V040 CAVOK 14/13 Q1013 NOSIG,LKTB,2023-06-09T03:30:00Z,49.15,16.68,14.0,13.0,360,3,,6.21,29.911417,,,,,,TRUE,,,,,CAVOK,,,,,,,,VFR,,,,,,,,,,,,METAR,233.0
LKPR 090330Z 31004KT CAVOK 14/12 Q1014 NOSIG,LKPR,2023-06-09T03:30:00Z,50.1,14.27,14.0,12.0,310,4,,6.21,29.940945,,,,,,TRUE,,,,,CAVOK,,,,,,,,VFR,,,,,,,,,,,,METAR,364.0
LKPD 090330Z VRB01KT CAVOK 12/11 Q1013 RMK BLU,LKPD,2023-06-09T03:30:00Z,50.02,15.73,12.0,11.0,0,1,,6.21,29.911417,,,,,,,,,,,CAVOK,,,,,,,,VFR,,,,,,,,,,,,METAR,226.0
LKNA 090330Z 35005KT CAVOK 14/12 Q1013 RMK BLU,LKNA,2023-06-09T03:30:00Z,49.17,16.12,14.0,12.0,350,5,,6.21,29.911417,,,,,,,,,,,CAVOK,,,,,,,,VFR,,,,,,,,,,,,METAR,460.0
LKMT 090330Z 00000KT CAVOK 15/14 Q1014 NOSIG,LKMT,2023-06-09T03:30:00Z,49.68,18.12,15.0,14.0,0,0,,6.21,29.940945,,,,,,TRUE,,,,,CAVOK,,,,,,,,VFR,,,,,,,,,,,,METAR,251.0
LKCV 090330Z VRB01KT CAVOK 13/12 Q1013 NOSIG RMK BLU BLU,LKCV,2023-06-09T03:30:00Z,49.93,15.38,13.0,12.0,0,1,,6.21,29.911417,,,,,,TRUE,,,,,CAVOK,,,,,,,,VFR,,,,,,,,,,,,METAR,234.0
LJPZ 090330Z AUTO 12007KT 9999 NCD 16/15 Q1011,LJPZ,2023-06-09T03:30:00Z,45.47,13.62,16.0,15.0,120,7,,6.21,29.852362,,,TRUE,,,,,,,,CLR,,,,,,,,VFR,,,,,,,,,,,,METAR,2.0
LJMB 090330Z AUTO 34001KT 5000 NSC 12/11 Q1013,LJMB,2023-06-09T03:30:00Z,46.47,15.67,12.0,11.0,340,1,,3.11,29.911417,,,TRUE,,,,,,,,CLR,,,,,,,,MVFR,,,,,,,,,,,,METAR,263.0
LJLJ 090330Z VRB02KT 9999 FEW001 12/12 Q1013 NOSIG,LJLJ,2023-06-09T03:30:00Z,46.22,14.47,12.0,12.0,0,2,,6.21,29.911417,,,,,,TRUE,,,,,FEW,100,,,,,,,VFR,,,,,,,,,,,,METAR,363.0
LJCE 090330Z AUTO VRB02KT 1700 BR VV004 14/14 Q1013,LJCE,2023-06-09T03:30:00Z,45.9,15.52,14.0,14.0,0,2,,1.06,29.911417,,,TRUE,,,,,,,BR,OVX,0,,,,,,,LIFR,,,,,,,,,,,400,METAR,153.0
LHDC 090330Z AUTO VRB04KT 9999 -TSRA BKN032 //////CB 18/16 Q1013,LHDC,2023-06-09T03:30:00Z,47.48,21.62,18.0,16.0,0,4,,6.21,29.911417,,,TRUE,,,,,,,-TSRA,BKN,3200,,,,,,,VFR,,,,,,,,,,,,SPECI,105.0
LHBP 090330Z 32003KT 4000 BR FEW009 BKN095 17/17 Q1012 TEMPO 3000 SHRA BKN009 SCT035CB BKN090,LHBP,2023-06-09T03:30:00Z,47.43,19.27,17.0,17.0,320,3,,2.49,29.88189,,,,,,,,,,BR,FEW,900,BKN,9500,,,,,IFR,,,,,,,,,,,,SPECI,141.0
LGKP 090330Z AUTO 31014KT //// // ////// 20/19 Q1008 RE//,LGKP,2023-06-09T03:30:00Z,35.42,27.15,20.0,19.0,310,14,,,29.763779,,,TRUE,,,,,,,,,,,,,,,,,,,,,,,,,,,,METAR,20.0
LFVP 090330Z AUTO 03006KT 0800 0750 R26/1100D FG VV/// 06/06 Q1010,LFVP,2023-06-09T03:30:00Z,46.77,-56.18,6.0,6.0,30,6,,0.5,29.822834,,,TRUE,,,,,,,FG,OVX,0,,,,,,,LIFR,,,,,,,,,,,,SPECI,5.0
LFTW 090330Z AUTO 07004KT CAVOK 19/18 Q1011 NOSIG,LFTW,2023-06-09T03:30:00Z,43.75,4.42,19.0,18.0,70,4,,6.21,29.852362,,,TRUE,,,TRUE,,,,,CAVOK,,,,,,,,VFR,,,,,,,,,,,,METAR,91.0
LFTH 090330Z AUTO 02003KT 9999 FEW014/// BKN130/// OVC150/// //////TCU 18/17 Q1011 TEMPO BKN010,LFTH,2023-06-09T03:30:00Z,43.1,6.15,18.0,17.0,20,3,,6.21,29.852362,,,TRUE,,,,,,,,FEW,1400,BKN,13000,OVC,15000,,,VFR,,,,,,,,,,,,METAR,3.0
LFSX 090330Z AUTO 04001KT CAVOK 14/10 Q1011,LFSX,2023-06-09T03:30:00Z,47.77,6.35,14.0,10.0,40,1,,6.21,29.852362,,,TRUE,,,,,,,,CAVOK,,,,,,,,VFR,,,,,,,,,,,,METAR,266.0
LFST 090330Z AUTO 33004KT CAVOK 12/10 Q1012 NOSIG,LFST,2023-06-09T03:30:00Z,48.53,7.63,12.0,10.0,330,4,,6.21,29.88189,,,TRUE,,,TRUE,,,,,CAVOK,,,,,,,,VFR,,,,,,,,,,,,METAR,149.0
LFSO 090330Z AUTO 08003KT CAVOK 13/09 Q1012,LFSO,2023-06-09T03:30:00Z,48.57,5.97,13.0,9.0,80,3,,6.21,29.88189,,,TRUE,,,,,,,,CAVOK,,,,,,,,VFR,,,,,,,,,,,,METAR,328.0
LFSN 090330Z AUTO VRB01KT CAVOK 13/10 Q1012,LFSN,2023-06-09T03:30:00Z,48.68,6.22,13.0,10.0,0,1,,6.21,29.88189,,,TRUE,,,,,,,,CAVOK,,,,,,,,VFR,,,,,,,,,,,,METAR,214.0
LFSL 090330Z AUTO 12006KT CAVOK 17/13 Q1008 NOSIG,LFSL,2023-06-09T03:30:00Z,45.03,1.48,17.0,13.0,120,6,,6.21,29.763779,,,TRUE,,,TRUE,,,,,CAVOK,,,,,,,,VFR,,,,,,,,,,,,METAR,300.0
LFSI 090330Z AUTO 12005KT CAVOK 16/10 Q1011,LFSI,2023-06-09T03:30:00Z,48.62,4.9,16.0,10.0,120,5,,6.21,29.852362,,,TRUE,,,,,,,,CAVOK,,,,,,,,VFR,,,,,,,,,,,,METAR,136.0
LFSG 090330Z AUTO 02004KT CAVOK 13/09 Q1012,LFSG,2023-06-09T03:30:00Z,48.33,6.07,13.0,9.0,20,4,,6.21,29.88189,,,TRUE,,,,,,,,CAVOK,,,,,,,,VFR,,,,,,,,,,,,METAR,320.0
LFSD 090330Z AUTO 34005KT CAVOK 14/12 Q1010,LFSD,2023-06-09T03:30:00Z,47.27,5.08,14.0,12.0,340,5,,6.21,29.822834,,,TRUE,,,,,,,,CAVOK,,,,,,,,VFR,,,,,,,,,,,,METAR,218.0
LFSB 090330Z AUTO 26003KT CAVOK 12/11 Q1012 NOSIG,LFSB,2023-06-09T03:30:00Z,47.6,7.52,12.0,11.0,260,3,,6.21,29.88189,,,TRUE,,,TRUE,,,,,CAVOK,,,,,,,,VFR,,,,,,,,,,,,METAR,262.0
LFRZ 090330Z AUTO 26004KT 220V320 9999 //////CB 20/16 Q1006 TEMPO VRB15G25KT 2500 TSRA,LFRZ,2023-06-09T03:30:00Z,47.32,-2.17,20.0,16.0,260,4,,6.21,29.704725,,,TRUE,,,,,,,,,,,,,,,,,,,,,,,,,,,,SPECI,2.0
LFRV 090330Z AUTO 09011KT 9999 VCTS ///CB 18/15 Q1006,LFRV,2023-06-09T03:30:00Z,47.72,-2.72,18.0,15.0,90,11,,6.21,29.704725,,,TRUE,,,,,,,VCTS,,,,,,,,,,,,,,,,,,,,,METAR,132.0
LFRT 090330Z AUTO 04005KT 4900 BR NSC 16/15 Q1008,LFRT,2023-06-09T03:30:00Z,48.53,-2.85,16.0,15.0,40,5,,3.04,29.763779,,,TRUE,,,,,,,BR,CLR,,,,,,,,MVFR,,,,,,,,,,,,METAR,134.0
LFRS 090330Z AUTO 08005KT 9999 FEW048 BKN130 OVC160 20/16 Q1006 TEMPO VRB15G25KT 2500 TSRA BKN060CB,LFRS,2023-06-09T03:30:00Z,47.17,-1.6,20.0,16.0,80,5,,6.21,29.704725,,,TRUE,,,,,,,,FEW,4800,BKN,13000,OVC,16000,,,VFR,,,,,,,,,,,,METAR,26.0
LFRQ 090330Z AUTO 06006KT CAVOK 18/15 Q1006,LFRQ,2023-06-09T03:30:00Z,47.97,-4.17,18.0,15.0,60,6,,6.21,29.704725,,,TRUE,,,,,,,,CAVOK,,,,,,,,VFR,,,,,,,,,,,,METAR,94.0
LFRN 090330Z AUTO 09006KT CAVOK 21/12 Q1007 TEMPO SHRA SCT080CB,LFRN,2023-06-09T03:30:00Z,48.07,-1.73,21.0,12.0,90,6,,6.21,29.734253,,,TRUE,,,,,,,,CAVOK,,,,,,,,VFR,,,,,,,,,,,,METAR,35.0
LFRM 090330Z AUTO 04005KT CAVOK 20/11 Q1007,LFRM,2023-06-09T03:30:00Z,47.95,0.2,20.0,11.0,40,5,,6.21,29.734253,,,TRUE,,,,,,,,CAVOK,,,,,,,,VFR,,,,,,,,,,,,METAR,51.0
LFRL 090330Z AUTO 08007KT 8000 NSC 18/16 Q1006,LFRL,2023-06-09T03:30:00Z,48.27,-4.43,18.0,16.0,80,7,,4.97,29.704725,,,TRUE,,,,,,,,CLR,,,,,,,,MVFR,,,,,,,,,,,,METAR,80.0
LFRK 090330Z AUTO 03003KT 350V060 8000 NSC 15/14 Q1009,LFRK,2023-06-09T03:30:00Z,49.17,-0.45,15.0,14.0,30,3,,4.97,29.793306,,,TRUE,,,,,,,,CLR,,,,,,,,MVFR,,,,,,,,,,,,METAR,66.0
LFRJ 090330Z AUTO 07007KT 5000 BR NSC 15/15 Q1007,LFRJ,2023-06-09T03:30:00Z,48.52,-4.15,15.0,15.0,70,7,,3.11,29.734253,,,TRUE,,,,,,,BR,CLR,,,,,,,,MVFR,,,,,,,,,,,,METAR,109.0
LFRI 090330Z AUTO 16007KT 9999 -RA //////CB 20/16 Q1006,LFRI,2023-06-09T03:30:00Z,46.7,-1.37,20.0,16.0,160,7,,6.21,29.704725,,,TRUE,,,,,,,-RA,,,,,,,,,,,,,,,,,,,,,METAR,89.0
LFRH 090330Z AUTO 06007KT 9999 //////CB 18/16 Q1006 TEMPO 3000 TSRA,LFRH,2023-06-09T03:30:00Z,47.77,-3.45,18.0,16.0,60,7,,6.21,29.704725,,,TRUE,,,,,,,,,,,,,,,,,,,,,,,,,,,,SPECI,46.0
LFRG 090330Z AUTO 06006KT 020V100 CAVOK 15/13 Q1010,LFRG,2023-06-09T03:30:00Z,49.37,0.15,15.0,13.0,60,6,,6.21,29.822834,,,TRUE,,,,,,,,CAVOK,,,,,,,,VFR,,,,,,,,,,,,METAR,146.0
LFRD 090330Z AUTO 06008KT CAVOK 18/15 Q1007 TEMPO SHRA SCT080CB,LFRD,2023-06-09T03:30:00Z,48.58,-2.07,18.0,15.0,60,8,,6.21,29.734253,,,TRUE,,,,,,,,CAVOK,,,,,,,,VFR,,,,,,,,,,,,METAR,56.0
LFRC 090330Z AUTO 09010KT 050V110 5000 BR OVC004 13/13 Q1011,LFRC,2023-06-09T03:30:00Z,49.63,-1.47,13.0,13.0,90,10,,3.11,29.852362,,,TRUE,,,,,,,BR,OVC,400,,,,,,,LIFR,,,,,,,,,,,,METAR,137.0
LFRB 090330Z AUTO 05006KT 9000 NSC 18/16 Q1007 TEMPO 4000 BR BKN060CB,LFRB,2023-06-09T03:30:00Z,48.45,-4.42,18.0,16.0,50,6,,5.59,29.734253,,,TRUE,,,,,,,,CLR,,,,,,,,VFR,,,,,,,,,,,,SPECI,91.0
LFQQ 090330Z AUTO 03006KT CAVOK 17/13 Q1012 NOSIG,LFQQ,2023-06-09T03:30:00Z,50.57,3.1,17.0,13.0,30,6,,6.21,29.88189,,,TRUE,,,TRUE,,,,,CAVOK,,,,,,,,VFR,,,,,,,,,,,,METAR,43.0
LFQB 090330Z AUTO 08002KT CAVOK 13/11 Q1010,LFQB,2023-06-09T03:30:00Z,48.32,4.02,13.0,11.0,80,2,,6.21,29.822834,,,TRUE,,,,,,,,CAVOK,,,,,,,,VFR,,,,,,,,,,,,METAR,107.0
LFQA 090330Z AUTO VRB01KT CAVOK 10/09 Q1011,LFQA,2023-06-09T03:30:00Z,49.2,4.15,10.0,9.0,0,1,,6.21,29.852362,,,TRUE,,,,,,,,CAVOK,,,,,,,,VFR,,,,,,,,,,,,METAR,92.0
LFPV 090330Z AUTO 04005KT CAVOK 18/13 Q1010 NOSIG,LFPV,2023-06-09T03:30:00Z,48.77,2.2,18.0,13.0,40,5,,6.21,29.822834,,,TRUE,,,TRUE,,,,,CAVOK,,,,,,,,VFR,,,,,,,,,,,,METAR,171.0
LFPT 090330Z AUTO 06004KT CAVOK 13/12 Q1010,LFPT,2023-06-09T03:30:00Z,49.1,2.03,13.0,12.0,60,4,,6.21,29.822834,,,TRUE,,,,,,,,CAVOK,,,,,,,,VFR,,,,,,,,,,,,METAR,91.0
LFPO 090330Z AUTO 04004KT CAVOK 18/12 Q1010 NOSIG,LFPO,2023-06-09T03:30:00Z,48.72,2.38,18.0,12.0,40,4,,6.21,29.822834,,,TRUE,,,TRUE,,,,,CAVOK,,,,,,,,VFR,,,,,,,,,,,,METAR,88.0
LFPN 090330Z AUTO VRB02KT CAVOK 16/13 Q1010,LFPN,2023-06-09T03:30:00Z,48.75,2.12,16.0,13.0,0,2,,6.21,29.822834,,,TRUE,,,,,,,,CAVOK,,,,,,,,VFR,,,,,,,,,,,,METAR,152.0
LFPM 090330Z AUTO 09003KT CAVOK 14/10 Q1009,LFPM,2023-06-09T03:30:00Z,48.62,2.67,14.0,10.0,90,3,,6.21,29.793306,,,TRUE,,,,,,,,CAVOK,,,,,,,,VFR,,,,,,,,,,,,METAR,91.0
LFPG 090330Z 03007KT 010V100 CAVOK 16/13 Q1010 NOSIG,LFPG,2023-06-09T03:30:00Z,49.02,2.53,16.0,13.0,30,7,,6.21,29.822834,,,,,,TRUE,,,,,CAVOK,,,,,,,,VFR,,,,,,,,,,,,METAR,107.0
LFPB 090330Z AUTO 35005KT 330V030 CAVOK 16/13 Q1010 NOSIG,LFPB,2023-06-09T03:30:00Z,48.97,2.42,16.0,13.0,350,5,,6.21,29.822834,,,TRUE,,,TRUE,,,,,CAVOK,,,,,,,,VFR,,,,,,,,,,,,METAR,50.0
LFOZ 090330Z AUTO 06004KT CAVOK 15/11 Q1009,LFOZ,2023-06-09T03:30:00Z,47.9,2.17,15.0,11.0,60,4,,6.21,29.793306,,,TRUE,,,,,,,,CAVOK,,,,,,,,VFR,,,,,,,,,,,,METAR,121.0
LFOV 090330Z AUTO 02006KT CAVOK 20/11 Q1007,LFOV,2023-06-09T03:30:00Z,48.03,-0.75,20.0,11.0,20,6,,6.21,29.734253,,,TRUE,,,,,,,,CAVOK,,,,,,,,VFR,,,,,,,,,,,,METAR,99.0
LFOT 090330Z AUTO 09007KT CAVOK 18/12 Q1007 NOSIG,LFOT,2023-06-09T03:30:00Z,47.43,0.72,18.0,12.0,90,7,,6.21,29.734253,,,TRUE,,,TRUE,,,,,CAVOK,,,,,,,,VFR,,,,,,,,,,,,METAR,107.0
LFOP 090330Z AUTO 04009KT CAVOK 15/13 Q1010,LFOP,2023-06-09T03:30:00Z,49.37,1.17,15.0,13.0,40,9,,6.21,29.822834,,,TRUE,,,,,,,,CAVOK,,,,,,,,VFR,,,,,,,,,,,,METAR,149.0
LFOK 090330Z AUTO 36004KT 340V050 CAVOK 13/11 Q1011 NOSIG,LFOK,2023-06-09T03:30:00Z,48.78,4.15,13.0,11.0,360,4,,6.21,29.852362,,,TRUE,,,TRUE,,,,,CAVOK,,,,,,,,VFR,,,,,,,,,,,,METAR,166.0
LFOJ 090330Z AUTO 04005KT CAVOK 14/12 Q1008 NOSIG,LFOJ,2023-06-09T03:30:00Z,47.98,1.75,14.0,12.0,40,5,,6.21,29.763779,,,TRUE,,,TRUE,,,,,CAVOK,,,,,,,,VFR,,,,,,,,,,,,METAR,122.0
LFOH 090330Z AUTO 09008KT 9000 NSC 14/13 Q1010,LFOH,2023-06-09T03:30:00Z,49.52,0.08,14.0,13.0,90,8,,5.59,29.822834,,,TRUE,,,,,,,,CLR,,,,,,,,VFR,,,,,,,,,,,,METAR,87.0
LFOE 090330Z AUTO 06006KT CAVOK 16/13 Q1010 NOSIG,LFOE,2023-06-09T03:30:00Z,49.02,1.22,16.0,13.0,60,6,,6.21,29.822834,,,TRUE,,,TRUE,,,,,CAVOK,,,,,,,,VFR,,,,,,,,,,,,METAR,132.0
LFOB 090330Z AUTO 35004KT CAVOK 13/12 Q1011 NOSIG,LFOB,2023-06-09T03:30:00Z,49.47,2.12,13.0,12.0,350,4,,6.21,29.852362,,,TRUE,,,TRUE,,,,,CAVOK,,,,,,,,VFR,,,,,,,,,,,,METAR,99.0
LFOA 090330Z AUTO 09006KT CAVOK 17/13 Q1008,LFOA,2023-06-09T03:30:00Z,47.05,2.63,17.0,13.0,90,6,,6.21,29.763779,,,TRUE,,,,,,,,CAVOK,,,,,,,,VFR,,,,,,,,,,,,METAR,174.0
LFMY 090330Z AUTO 04002KT CAVOK 18/17 Q1011,LFMY,2023-06-09T03:30:00Z,43.6,5.1,18.0,17.0,40,2,,6.21,29.852362,,,TRUE,,,,,,,,CAVOK,,,,,,,,VFR,,,,,,,,,,,,METAR,57.0
LFMV 090330Z AUTO VRB02KT CAVOK 19/17 Q1011 NOSIG,LFMV,2023-06-09T03:30:00Z,43.9,4.9,19.0,17.0,0,2,,6.21,29.852362,,,TRUE,,,TRUE,,,,,CAVOK,,,,,,,,VFR,,,,,,,,,,,,METAR,33.0
LFMU 090330Z AUTO 13010KT 9999 BKN013 BKN018 BKN029 22/19 Q1010 NOSIG,LFMU,2023-06-09T03:30:00Z,43.32,3.35,22.0,19.0,130,10,,6.21,29.822834,,,TRUE,,,TRUE,,,,,BKN,1300,BKN,1800,BKN,2900,,,MVFR,,,,,,,,,,,,METAR,14.0
LFMT 090330Z AUTO 15009KT 9999 FEW017 OVC080 22/19 Q1010 TEMPO BKN012 BKN025 BKN100,LFMT,2023-06-09T03:30:00Z,43.57,3.97,22.0,19.0,150,9,,6.21,29.822834,,,TRUE,,,,,,,,FEW,1700,OVC,8000,,,,,VFR,,,,,,,,,,,,SPECI,1.0
LFMP 090330Z AUTO VRB03KT CAVOK 19/17 Q1008 NOSIG,LFMP,2023-06-09T03:30:00Z,42.73,2.87,19.0,17.0,0,3,,6.21,29.763779,,,TRUE,,,TRUE,,,,,CAVOK,,,,,,,,VFR,,,,,,,,,,,,METAR,41.0
LFMO 090330Z AUTO VRB03KT CAVOK 19/18 Q1011 NOSIG,LFMO,2023-06-09T03:30:00Z,44.13,4.87,19.0,18.0,0,3,,6.21,29.852362,,,TRUE,,,TRUE,,,,,CAVOK,,,,,,,,VFR,,,,,,,,,,,,METAR,56.0
LFMN 090330Z 03004KT 9999 FEW012 SCT120 BKN140 21/16 Q1012 NOSIG,LFMN,2023-06-09T03:30:00Z,43.65,7.2,21.0,16.0,30,4,,6.21,29.88189,,,,,,TRUE,,,,,FEW,1200,SCT,12000,BKN,14000,,,VFR,,,,,,,,,,,,METAR,4.0
LFML 090330Z AUTO 11002KT CAVOK 20/17 Q1011 NOSIG,LFML,2023-06-09T03:30:00Z,43.45,5.22,20.0,17.0,110,2,,6.21,29.852362,,,TRUE,,,TRUE,,,,,CAVOK,,,,,,,,VFR,,,,,,,,,,,,METAR,20.0
LFMK 090330Z AUTO 08013KT 060V120 9999 OVC013 21/18 Q1008 NOSIG,LFMK,2023-06-09T03:30:00Z,43.22,2.32,21.0,18.0,80,13,,6.21,29.763779,,,TRUE,,,TRUE,,,,,OVC,1300,,,,,,,MVFR,,,,,,,,,,,,METAR,124.0
LFMI 090330Z AUTO 10005KT 9999 FEW020 OVC092 21/18 Q1010 NOSIG,LFMI,2023-06-09T03:30:00Z,43.52,4.93,21.0,18.0,100,5,,6.21,29.822834,,,TRUE,,,TRUE,,,,,FEW,2000,OVC,9200,,,,,VFR,,,,,,,,,,,,METAR,20.0
LFMH 090330Z AUTO VRB02KT 9999 2800 NSC 14/11 Q1010,LFMH,2023-06-09T03:30:00Z,45.52,4.28,14.0,11.0,0,2,,6.21,29.822834,,,TRUE,,,,,,,,CLR,,,,,,,,VFR,,,,,,,,,,,,SPECI,400.0
LFMD 090330Z AUTO VRB02KT 9999 FEW013 BKN035 OVC041 19/17 Q1012 TEMPO BKN014,LFMD,2023-06-09T03:30:00Z,43.53,6.95,19.0,17.0,0,2,,6.21,29.88189,,,TRUE,,,,,,,,FEW,1300,BKN,3500,OVC,4100,,,VFR,,,,,,,,,,,,SPECI,2.0
LFMC 090330Z AUTO 00000KT 9000 ////// 17/16 Q1012,LFMC,2023-06-09T03:30:00Z,43.37,6.38,17.0,16.0,0,0,,5.59,29.88189,,,TRUE,,,,,,,,,,,,,,,,,,,,,,,,,,,,METAR,79.0
LFLY 090330Z AUTO VRB02KT CAVOK 17/15 Q1010 NOSIG,LFLY,2023-06-09T03:30:00Z,45.72,4.95,17.0,15.0,0,2,,6.21,29.822834,,,TRUE,,,TRUE,,,,,CAVOK,,,,,,,,VFR,,,,,,,,,,,,METAR,197.0
LFLX 090330Z AUTO 00000KT CAVOK 15/13 Q1008 NOSIG,LFLX,2023-06-09T03:30:00Z,46.87,1.73,15.0,13.0,0,0,,6.21,29.763779,,,TRUE,,,TRUE,,,,,CAVOK,,,,,,,,VFR,,,,,,,,,,,,METAR,157.0
LFLW 090330Z AUTO 09008KT CAVOK 15/11 Q1010,LFLW,2023-06-09T03:30:00Z,44.88,2.42,15.0,11.0,90,8,,6.21,29.822834,,,TRUE,,,,,,,,CAVOK,,,,,,,,VFR,,,,,,,,,,,,METAR,638.0
LFLS 090330Z AUTO 06003KT 9999 FEW015 BKN110 15/14 Q1011 TEMPO BKN012,LFLS,2023-06-09T03:30:00Z,45.37,5.32,15.0,14.0,60,3,,6.21,29.852362,,,TRUE,,,,,,,,FEW,1500,BKN,11000,,,,,VFR,,,,,,,,,,,,SPECI,386.0
LFLP 090330Z AUTO 02003KT CAVOK 14/13 Q1013 NOSIG,LFLP,2023-06-09T03:30:00Z,45.92,6.1,14.0,13.0,20,3,,6.21,29.911417,,,TRUE,,,TRUE,,,,,CAVOK,,,,,,,,VFR,,,,,,,,,,,,METAR,460.0
LFLN 090330Z AUTO 05002KT CAVOK 15/13 Q1009,LFLN,2023-06-09T03:30:00Z,46.42,4.02,15.0,13.0,50,2,,6.21,29.793306,,,TRUE,,,,,,,,CAVOK,,,,,,,,VFR,,,,,,,,,,,,METAR,238.0
LFLL 090330Z 15006KT CAVOK 19/14 Q1010 NOSIG,LFLL,2023-06-09T03:30:00Z,45.72,5.07,19.0,14.0,150,6,,6.21,29.822834,,,,,,TRUE,,,,,CAVOK,,,,,,,,VFR,,,,,,,,,,,,METAR,234.0
LFLC 090330Z AUTO 17003KT 150V210 CAVOK 16/13 Q1010 NOSIG,LFLC,2023-06-09T03:30:00Z,45.78,3.17,16.0,13.0,170,3,,6.21,29.822834,,,TRUE,,,TRUE,,,,,CAVOK,,,,,,,,VFR,,,,,,,,,,,,METAR,325.0
LFLB 090330Z AUTO 14002KT CAVOK 15/15 Q1011 NOSIG,LFLB,2023-06-09T03:30:00Z,45.63,5.87,15.0,15.0,140,2,,6.21,29.852362,,,TRUE,,,TRUE,,,,,CAVOK,,,,,,,,VFR,,,,,,,,,,,,METAR,234.0
LFKS 090330Z AUTO 29004KT 250V320 CAVOK 18/14 Q1012,LFKS,2023-06-09T03:30:00Z,41.92,9.4,18.0,14.0,290,4,,6.21,29.88189,,,TRUE,,,,,,,,CAVOK,,,,,,,,VFR,,,,,,,,,,,,METAR,22.0
LFKJ 090330Z AUTO 04006KT CAVOK 17/13 Q1011 NOSIG,LFKJ,2023-06-09T03:30:00Z,41.92,8.8,17.0,13.0,40,6,,6.21,29.852362,,,TRUE,,,TRUE,,,,,CAVOK,,,,,,,,VFR,,,,,,,,,,,,METAR,9.0
LFKF 090330Z AUTO 08010KT CAVOK 19/16 Q1011 NOSIG,LFKF,2023-06-09T03:30:00Z,41.5,9.08,19.0,16.0,80,10,,6.21,29.852362,,,TRUE,,,TRUE,,,,,CAVOK,,,,,,,,VFR,,,,,,,,,,,,METAR,15.0
LFKC 090330Z AUTO 18005KT CAVOK 17/13 Q1011 NOSIG,LFKC,2023-06-09T03:30:00Z,42.52,8.8,17.0,13.0,180,5,,6.21,29.852362,,,TRUE,,,TRUE,,,,,CAVOK,,,,,,,,VFR,,,,,,,,,,,,METAR,38.0
LFKB 090330Z AUTO 23003KT CAVOK 16/16 Q1012 NOSIG,LFKB,2023-06-09T03:30:00Z,42.55,9.48,16.0,16.0,230,3,,6.21,29.88189,,,TRUE,,,TRUE,,,,,CAVOK,,,,,,,,VFR,,,,,,,,,,,,METAR,7.0
LFJR 090330Z AUTO 07006KT CAVOK 21/11 Q1007,LFJR,2023-06-09T03:30:00Z,47.57,-0.32,21.0,11.0,70,6,,6.21,29.734253,,,TRUE,,,,,,,,CAVOK,,,,,,,,VFR,,,,,,,,,,,,METAR,50.0
LFJL 090330Z AUTO 03007KT CAVOK 14/10 Q1013 NOSIG,LFJL,2023-06-09T03:30:00Z,48.97,6.25,14.0,10.0,30,7,,6.21,29.911417,,,TRUE,,,TRUE,,,,,CAVOK,,,,,,,,VFR,,,,,,,,,,,,METAR,259.0
LFGJ 090330Z AUTO 07005KT CAVOK 14/13 Q1010,LFGJ,2023-06-09T03:30:00Z,47.05,5.43,14.0,13.0,70,5,,6.21,29.822834,,,TRUE,,,,,,,,CAVOK,,,,,,,,VFR,,,,,,,,,,,,METAR,191.0
LFGA 090330Z AUTO 28003KT 9999 FEW001 13/09 Q1012,LFGA,2023-06-09T03:30:00Z,48.1,7.35,13.0,9.0,280,3,,6.21,29.88189,,,TRUE,,,,,,,,FEW,100,,,,,,,VFR,,,,,,,,,,,,METAR,191.0
LFCR 090330Z AUTO 12012KT CAVOK 18/13 Q1009 NOSIG,LFCR,2023-06-09T03:30:00Z,44.4,2.47,18.0,13.0,120,12,,6.21,29.793306,,,TRUE,,,TRUE,,,,,CAVOK,,,,,,,,VFR,,,,,,,,,,,,METAR,576.0
LFCK 090330Z AUTO 13023KT CAVOK 21/16 Q1007,LFCK,2023-06-09T03:30:00Z,43.55,2.28,21.0,16.0,130,23,,6.21,29.734253,,,TRUE,,,,,,,,CAVOK,,,,,,,,VFR,,,,,,,,,,,,METAR,223.0
LFBZ 090330Z AUTO 15002KT 9999 ///TCU 20/16 Q1005 TEMPO 21015G25KT 2000 TSRA BKN050CB,LFBZ,2023-06-09T03:30:00Z,43.47,-1.53,20.0,16.0,150,2,,6.21,29.675198,,,TRUE,,,,,,,,,,,,,,,,,,,-1.5,,,,,,,,,SPECI,70.0
LFBY 090330Z AUTO VRB03KT //// // ////// 20/19 Q1005,LFBY,2023-06-09T03:30:00Z,43.68,-1.07,20.0,19.0,0,3,,,29.675198,,,TRUE,,,,,,,,,,,,,,,,,,,,,,,,,,,,METAR,32.0
LFBX 090330Z AUTO 08001KT CAVOK 17/15 Q1007,LFBX,2023-06-09T03:30:00Z,45.2,0.82,17.0,15.0,80,1,,6.21,29.734253,,,TRUE,,,,,,,,CAVOK,,,,,,,,VFR,,,,,,,,,,,,METAR,97.0
LFBU 090330Z AUTO 11005KT 070V150 CAVOK 19/14 Q1007,LFBU,2023-06-09T03:30:00Z,45.72,0.22,19.0,14.0,110,5,,6.21,29.734253,,,TRUE,,,,,,,,CAVOK,,,,,,,,VFR,,,,,,,,,,,,METAR,124.0
LFBT 090330Z AUTO VRB02KT 9999 FEW078/// OVC100/// //////TCU 17/16 Q1007 NOSIG,LFBT,2023-06-09T03:30:00Z,43.18,0.0,17.0,16.0,0,2,,6.21,29.734253,,,TRUE,,,TRUE,,,,,FEW,7800,OVC,10000,,,,,VFR,,,,,,,,,,,,METAR,359.0
LFBP 090330Z AUTO VRB02KT 9999 -RA BKN080/// BKN110/// OVC140/// ///CB 20/19 Q1006 NOSIG,LFBP,2023-06-09T03:30:00Z,43.38,-0.42,20.0,19.0,0,2,,6.21,29.704725,,,TRUE,,,TRUE,,,,-RA,BKN,8000,BKN,11000,OVC,14000,,,VFR,,,,,,,,,,,,SPECI,182.0
LFBO 090330Z AUTO 13008KT 100V160 9999 BKN020 BKN110 20/17 Q1007 TEMPO BKN013,LFBO,2023-06-09T03:30:00Z,43.62,1.37,20.0,17.0,130,8,,6.21,29.734253,,,TRUE,,,,,,,,BKN,2000,BKN,11000,,,,,MVFR,,,,,,,,,,,,SPECI,150.0
LFBM 090330Z AUTO 09004KT CAVOK 20/18 Q1005 NOSIG,LFBM,2023-06-09T03:30:00Z,43.92,-0.5,20.0,18.0,90,4,,6.21,29.675198,,,TRUE,,,TRUE,,,,,CAVOK,,,,,,,,VFR,,,,,,,,,,,,METAR,56.0
LFBL 090330Z AUTO 09004KT 050V120 CAVOK 18/13 Q1009 NOSIG,LFBL,2023-06-09T03:30:00Z,45.87,1.17,18.0,13.0,90,4,,6.21,29.793306,,,TRUE,,,TRUE,,,,,CAVOK,,,,,,,,VFR,,,,,,,,,,,,METAR,402.0
LFBI 090330Z AUTO 15004KT CAVOK 19/16 Q1007 TEMPO VRB15G25KT 4500 -SHRA BKN070CB,LFBI,2023-06-09T03:30:00Z,46.58,0.32,19.0,16.0,150,4,,6.21,29.734253,,,TRUE,,,,,,,,CAVOK,,,,,,,,VFR,,,,,,,,,,,,SPECI,117.0
LFBH 090330Z AUTO 11010KT 9999 -TSRA FEW019/// SCT074/// OVC100/// ///CB 18/17 Q1006 TEMPO VRB15G25KT 2500 TSRA,LFBH,2023-06-09T03:30:00Z,46.18,-1.2,18.0,17.0,110,10,,6.21,29.704725,,,TRUE,,,,,,,-TSRA,FEW,1900,SCT,7400,OVC,10000,,,VFR,,,,,,,,,,,,SPECI,18.0
LFBG 090330Z AUTO VRB02KT 9999 FEW045 SCT110 OVC190 20/16 Q1007,LFBG,2023-06-09T03:30:00Z,45.67,-0.32,20.0,16.0,0,2,,6.21,29.734253,,,TRUE,,,,,,,,FEW,4500,SCT,11000,OVC,19000,,,VFR,,,,,,,,,,,,METAR,28.0
LFBE 090330Z AUTO 07002KT CAVOK 17/15 Q1007 TEMPO 4000 SHRA BKN014 SCT040CB BKN050TCU,LFBE,2023-06-09T03:30:00Z,44.82,0.52,17.0,15.0,70,2,,6.21,29.734253,,,TRUE,,,,,,,,CAVOK,,,,,,,,VFR,,,,,,,,,,,,METAR,49.0
LFBD 090330Z AUTO 02003KT 360V060 CAVOK 20/17 Q1006 TEMPO VRB15G25KT 2000 TSRA BKN010 BKN040CB,LFBD,2023-06-09T03:30:00Z,44.82,-0.7,20.0,17.0,20,3,,6.21,29.704725,,,TRUE,,,,,,,,CAVOK,,,,,,,,VFR,,,,,,,,,,,,SPECI,48.0
LFBC 090330Z AUTO 07004KT CAVOK 19/18 Q1006,LFBC,2023-06-09T03:30:00Z,44.52,-1.12,19.0,18.0,70,4,,6.21,29.704725,,,TRUE,,,,,,,,CAVOK,,,,,,,,VFR,,,,,,,,,,,,METAR,22.0
LFBA 090330Z AUTO 12005KT CAVOK 19/15 Q1006,LFBA,2023-06-09T03:30:00Z,44.17,0.6,19.0,15.0,120,5,,6.21,29.704725,,,TRUE,,,,,,,,CAVOK,,,,,,,,VFR,,,,,,,,,,,,METAR,68.0
LFAT 090330Z AUTO 11007KT 060V140 CAVOK 15/13 Q1012,LFAT,2023-06-09T03:30:00Z,50.52,1.62,15.0,13.0,110,7,,6.21,29.88189,,,TRUE,,,,,,,,CAVOK,,,,,,,,VFR,,,,,,,,,,,,METAR,2.0
LFAQ 090330Z AUTO 03005KT 8000 NSC 15/14 Q1011,LFAQ,2023-06-09T03:30:00Z,49.97,2.7,15.0,14.0,30,5,,4.97,29.852362,,,TRUE,,,,,,,,CLR,,,,,,,,MVFR,,,,,,,,,,,,METAR,107.0
LEZL 090330Z 18005KT 150V210 9999 BKN007 21/20 Q1011 NOSIG,LEZL,2023-06-09T03:30:00Z,37.42,-5.9,21.0,20.0,180,5,,6.21,29.852362,,,,,,TRUE,,,,,BKN,700,,,,,,,IFR,,,,,,,,,,,,METAR,26.0
LEZG 090330Z 11006KT 9000 -RA SCT060CB BKN080 19/18 Q1009,LEZG,2023-06-09T03:30:00Z,41.67,-1.02,19.0,18.0,110,6,,5.59,29.793306,,,,,,,,,,-RA,SCT,6000,BKN,8000,,,,,VFR,,,,,,,,,,,,METAR,245.0
LEXJ 090330Z 22010G21KT 150V260 CAVOK 23/14 Q1003,LEXJ,2023-06-09T03:30:00Z,43.42,-3.82,23.0,14.0,220,10,21,6.21,29.616142,,,,,,,,,,,CAVOK,,,,,,,,VFR,,,,,,,,,,,,METAR,1.0
LEVX 090330Z 19006KT 140V220 6000 -DZ BCFG FEW002 BKN003 BKN005 16/16 Q1004 NOSIG,LEVX,2023-06-09T03:30:00Z,42.23,-8.62,16.0,16.0,190,6,,3.73,29.64567,,,,,,TRUE,,,,-DZ BCFG,FEW,200,BKN,300,BKN,500,,,LIFR,,,,,,,,,,,,METAR,253.0
LEVT 090330Z 24003KT 9999 SCT045 17/14 Q1008,LEVT,2023-06-09T03:30:00Z,42.87,-2.72,17.0,14.0,240,3,,6.21,29.763779,,,,,,,,,,,SCT,4500,,,,,,,VFR,,,,,,,,,,,,METAR,501.0
LEVS 090330Z AUTO 24005KT 200V270 9999 FEW022 SCT037 BKN046 15/12 Q1012,LEVS,2023-06-09T03:30:00Z,40.37,-3.78,15.0,12.0,240,5,,6.21,29.88189,,,TRUE,,,,,,,,FEW,2200,SCT,3700,BKN,4600,,,VFR,,,,,,,,,,,,METAR,683.0
LEVD 090330Z AUTO 20005KT 170V230 9999 FEW044 13/12 Q1010,LEVD,2023-06-09T03:30:00Z,41.72,-4.85,13.0,12.0,200,5,,6.21,29.822834,,,TRUE,,,,,,,,FEW,4400,,,,,,,VFR,,,,,,,,,,,,METAR,844.0
LEVC 090330Z 26003KT 220V310 9999 FEW060 19/18 Q1010 NOSIG,LEVC,2023-06-09T03:30:00Z,39.5,-0.47,19.0,18.0,260,3,,6.21,29.822834,,,,,,TRUE,,,,,FEW,6000,,,,,,,VFR,,,,,,,,,,,,METAR,58.0
LETU 090330Z AUTO 15006KT 110V170 9999 FEW035/// 19/16 Q1008,LETU,2023-06-09T03:30:00Z,,,19.0,16.0,150,6,,6.21,29.763779,,,TRUE,,,,,,,,FEW,3500,,,,,,,VFR,,,,,,,,,,,,METAR,
LETO 090330Z 21004KT 6000 SCT045 BKN050 BKN060 16/14 Q1011 NOSIG,LETO,2023-06-09T03:30:00Z,40.48,-3.47,16.0,14.0,210,4,,3.73,29.852362,,,,,,TRUE,,,,,SCT,4500,BKN,5000,BKN,6000,,,MVFR,,,,,,,,,,,,METAR,598.0
LETL 090330Z AUTO 13005KT CAVOK 13/12 Q1012,LETL,2023-06-09T03:30:00Z,40.42,-1.22,13.0,12.0,130,5,,6.21,29.88189,,,TRUE,,,,,,,,CAVOK,,,,,,,,VFR,,,,,,,,,,,,METAR,1024.0
LEST 090330Z 16008KT 8000 -SHRA FEW010 SCT025TCU BKN035 16/15 Q1004 TEMPO 3000 SHRA,LEST,2023-06-09T03:30:00Z,42.88,-8.42,16.0,15.0,160,8,,4.97,29.64567,,,,,,,,,,-SHRA,FEW,1000,SCT,2500,BKN,3500,,,MVFR,,,,,,,,,,,,SPECI,363.0
LESO 090330Z VRB01KT CAVOK 22/19 Q1005,LESO,2023-06-09T03:30:00Z,43.35,-1.8,22.0,19.0,0,1,,6.21,29.675198,,,,,,,,,,,CAVOK,,,,,,,,VFR,,,,,,,,,,,,METAR,3.0
LESB 090330Z AUTO VRB01KT CAVOK 20/18 Q1011,LESB,2023-06-09T03:30:00Z,39.6,2.7,20.0,18.0,0,1,,6.21,29.852362,,,TRUE,,,,,,,,CAVOK,,,,,,,,VFR,,,,,,,,,,,,METAR,48.0
LESA 090330Z AUTO 22009KT 190V260 9999 SCT039 SCT045 14/12 Q1010,LESA,2023-06-09T03:30:00Z,40.95,-5.5,14.0,12.0,220,9,,6.21,29.822834,,,TRUE,,,,,,,,SCT,3900,SCT,4500,,,,,VFR,,,,,,,,,,,,METAR,788.0
LERT 090330Z 18005KT 140V220 7000 BKN020 20/19 Q1011 NOSIG,LERT,2023-06-09T03:30:00Z,36.63,-6.33,20.0,19.0,180,5,,4.35,29.852362,,,,,,TRUE,,,,,BKN,2000,,,,,,,MVFR,,,,,,,,,,,,METAR,27.0
LERS 090330Z AUTO 01004KT 350V100 9999 FEW026 OVC048 19/17 Q1009,LERS,2023-06-09T03:30:00Z,41.13,1.17,19.0,17.0,10,4,,6.21,29.793306,,,TRUE,,,,,,,,FEW,2600,OVC,4800,,,,,VFR,,,,,,,,,,,,METAR,68.0
LEPP 090330Z 12010KT 9999 SCT027 BKN052 19/14 Q1008,LEPP,2023-06-09T03:30:00Z,42.77,-1.65,19.0,14.0,120,10,,6.21,29.763779,,,,,,,,,,,SCT,2700,BKN,5200,,,,,VFR,,,,,,,,,,,,METAR,448.0
LEPA 090330Z 07003KT 030V100 9999 FEW030 20/19 Q1010 NOSIG,LEPA,2023-06-09T03:30:00Z,39.55,2.73,20.0,19.0,70,3,,6.21,29.822834,,,,,,TRUE,,,,,FEW,3000,,,,,,,VFR,,,,,,,,,,,,METAR,8.0
LEMO 090330Z 20006KT 170V240 9999 SCT060 17/16 Q1012 NOSIG,LEMO,2023-06-09T03:30:00Z,37.17,-5.62,17.0,16.0,200,6,,6.21,29.88189,,,,,,TRUE,,,,,SCT,6000,,,,,,,VFR,,,,,,,,,,,,METAR,82.0
LEMI 090330Z AUTO 26003KT 230V310 8000 NCD 18/17 Q1011,LEMI,2023-06-09T03:30:00Z,37.8,-1.12,18.0,17.0,260,3,,4.97,29.852362,,,TRUE,,,,,,,,CLR,,,,,,,,MVFR,,,,,,,,,,,,METAR,193.0
LEMH 090330Z AUTO 08004KT 9999 FEW008/// SCT014/// BKN021/// 20/20 Q1011,LEMH,2023-06-09T03:30:00Z,39.87,4.22,20.0,20.0,80,4,,6.21,29.852362,,,TRUE,,,,,,,,FEW,800,SCT,1400,BKN,2100,,,MVFR,,,,,,,,,,,,METAR,82.0
LEMG 090330Z 30004KT 6000 -RA SCT020 SCT033 17/17 Q1012 NOSIG,LEMG,2023-06-09T03:30:00Z,36.67,-4.47,17.0,17.0,300,4,,3.73,29.88189,,,,,,TRUE,,,,-RA,SCT,2000,SCT,3300,,,,,MVFR,,,,,,,,,,,,METAR,5.0
LEMD 090330Z 19004KT 9999 -RA FEW025TCU SCT028 BKN040 17/14 Q1011 NOSIG,LEMD,2023-06-09T03:30:00Z,40.45,-3.57,17.0,14.0,190,4,,6.21,29.852362,,,,,,TRUE,,,,-RA,FEW,2500,SCT,2800,BKN,4000,,,VFR,,,,,,,,,,,,METAR,589.0
LELO 090330Z AUTO 00000KT CAVOK 17/14 Q1007,LELO,2023-06-09T03:30:00Z,42.45,-2.32,17.0,14.0,0,0,,6.21,29.734253,,,TRUE,,,,,,,,CAVOK,,,,,,,,VFR,,,,,,,,,,,,METAR,352.0
LELN 090330Z AUTO 15006KT 9999 OVC003 13/13 Q1009,LELN,2023-06-09T03:30:00Z,42.58,-5.65,13.0,13.0,150,6,,6.21,29.793306,,,TRUE,,,,,,,,OVC,300,,,,,,,LIFR,,,,,,,,,,,,METAR,911.0
LELL 090330Z AUTO 00000KT 9999 FEW055 SCT070 20/17 Q1010,LELL,2023-06-09T03:30:00Z,41.52,2.1,20.0,17.0,0,0,,6.21,29.822834,,,TRUE,,,,,,,,FEW,5500,SCT,7000,,,,,VFR,,,,,,,,,,,,METAR,136.0
LELC 090330Z AUTO 24004KT 8000 NCD 20/19 Q1011,LELC,2023-06-09T03:30:00Z,37.77,-0.8,20.0,19.0,240,4,,4.97,29.852362,,,TRUE,,,,,,,,CLR,,,,,,,,MVFR,,,,,,,,,,,,METAR,3.0
LEJR 090330Z 16004KT 120V200 9999 FEW065 18/18 Q1011,LEJR,2023-06-09T03:30:00Z,36.75,-6.07,18.0,18.0,160,4,,6.21,29.852362,,,,,,,,,,,FEW,6500,,,,,,,VFR,,,,,,,,,,,,METAR,25.0
LEIB 090330Z 00000KT 9999 FEW010 20/18 Q1010 NOSIG,LEIB,2023-06-09T03:30:00Z,38.87,1.38,20.0,18.0,0,0,,6.21,29.822834,,,,,,TRUE,,,,,FEW,1000,,,,,,,VFR,,,,,,,,,,,,METAR,4.0
LEHC 090330Z AUTO 09005KT 060V120 9999 BKN025 BKN050 BKN060 17/15 Q1010,LEHC,2023-06-09T03:30:00Z,42.08,-0.32,17.0,15.0,90,5,,6.21,29.822834,,,TRUE,,,,,,,,BKN,2500,BKN,5000,BKN,6000,,,MVFR,,,,,,,,,,,,METAR,540.0
LEGR 090330Z AUTO VRB02KT 9999 BKN041 OVC050 15/14 Q1014,LEGR,2023-06-09T03:30:00Z,37.18,-3.78,15.0,14.0,0,2,,6.21,29.940945,,,TRUE,,,,,,,,BKN,4100,OVC,5000,,,,,VFR,,,,,,,,,,,,METAR,560.0
LEGE 090330Z 19005KT 9999 FEW015 19/17 Q1009,LEGE,2023-06-09T03:30:00Z,41.9,2.77,19.0,17.0,190,5,,6.21,29.793306,,,,,,,,,,,FEW,1500,,,,,,,VFR,,,,,,,,,,,,METAR,140.0
LEDA 090330Z AUTO 07006KT 9999 OVC043 18/15 Q1009,LEDA,2023-06-09T03:30:00Z,41.73,0.53,18.0,15.0,70,6,,6.21,29.793306,,,TRUE,,,,,,,,OVC,4300,,,,,,,VFR,,,,,,,,,,,,METAR,352.0
LECO 090330Z 18006KT 130V240 CAVOK 18/16 Q1003 NOSIG,LECO,2023-06-09T03:30:00Z,43.3,-8.37,18.0,16.0,180,6,,6.21,29.616142,,,,,,TRUE,,,,,CAVOK,,,,,,,,VFR,,,,,,,,,,,,METAR,80.0
LECH 090330Z AUTO 23002KT 7000 FEW023 17/15 Q1010,LECH,2023-06-09T03:30:00Z,40.2,0.07,17.0,15.0,230,2,,4.35,29.822834,,,TRUE,,,,,,,,FEW,2300,,,,,,,MVFR,,,,,,,,,,,,METAR,360.0
LEBT 090330Z AUTO VRB02KT 9999 SCT008 BKN015 17/16 Q1010,LEBT,2023-06-09T03:30:00Z,39.58,-0.45,17.0,16.0,0,2,,6.21,29.822834,,,TRUE,,,,,,,,SCT,800,BKN,1500,,,,,MVFR,,,,,,,,,,,,METAR,50.0
LEBR 090330Z AUTO 11013KT 9999 SCT080/// 19/16 Q1008,LEBR,2023-06-09T03:30:00Z,42.2,-1.43,19.0,16.0,110,13,,6.21,29.763779,,,TRUE,,,,,,,,SCT,8000,,,,,,,VFR,,,,,,,,,,,,METAR,347.0
LEBL 090330Z 00000KT 9999 FEW012 SCT022 21/19 Q1009 NOSIG,LEBL,2023-06-09T03:30:00Z,41.28,2.07,21.0,19.0,0,0,,6.21,29.793306,,,,,,TRUE,,,,,FEW,1200,SCT,2200,,,,,VFR,,,,,,,,,,,,METAR,2.0
LEBG 090330Z AUTO 20009KT 160V240 CAVOK 14/13 Q1010,LEBG,2023-06-09T03:30:00Z,42.37,-3.62,14.0,13.0,200,9,,6.21,29.822834,,,TRUE,,,,,,,,CAVOK,,,,,,,,VFR,,,,,,,,,,,,METAR,892.0
LEBB 090330Z 18008KT 140V240 CAVOK 20/16 Q1005 NOSIG,LEBB,2023-06-09T03:30:00Z,43.28,-2.92,20.0,16.0,180,8,,6.21,29.675198,,,,,,TRUE,,,,,CAVOK,,,,,,,,VFR,,,,,,,,,,,,METAR,38.0
LEBA 090330Z AUTO 24003KT 210V270 CAVOK 18/17 Q1012,LEBA,2023-06-09T03:30:00Z,37.85,-4.83,18.0,17.0,240,3,,6.21,29.88189,,,TRUE,,,,,,,,CAVOK,,,,,,,,VFR,,,,,,,,,,,,METAR,88.0
LEAS 090330Z AUTO 22006KT 190V250 CAVOK 18/18 Q1004,LEAS,2023-06-09T03:30:00Z,43.57,-6.03,18.0,18.0,220,6,,6.21,29.64567,,,TRUE,,,,,,,,CAVOK,,,,,,,,VFR,,,,,,,,,,,,METAR,120.0
LEAM 090330Z 25008KT 9999 FEW015 20/18 Q1011,LEAM,2023-06-09T03:30:00Z,36.85,-2.37,20.0,18.0,250,8,,6.21,29.852362,,,,,,,,,,,FEW,1500,,,,,,,VFR,,,,,,,,,,,,METAR,16.0
LEAL 090330Z 27004KT CAVOK 19/18 Q1010 NOSIG,LEAL,2023-06-09T03:30:00Z,38.27,-0.55,19.0,18.0,270,4,,6.21,29.822834,,,,,,TRUE,,,,,CAVOK,,,,,,,,VFR,,,,,,,,,,,,METAR,26.0
LEAG 090330Z AUTO 19007KT 9999 -RA BKN033/// 20/18 Q1012,LEAG,2023-06-09T03:30:00Z,36.12,-5.45,20.0,18.0,190,7,,6.21,29.88189,,,TRUE,,,,,,,-RA,BKN,3300,,,,,,,VFR,,,,,,,,,,,,METAR,4.0
LEAB 090330Z VRB02KT 9999 FEW025 15/15 Q1013 NOSIG,LEAB,2023-06-09T03:30:00Z,38.95,-1.85,15.0,15.0,0,2,,6.21,29.911417,,,,,,TRUE,,,,,FEW,2500,,,,,,,VFR,,,,,,,,,,,,METAR,704.0
LDZD 090330Z 14003KT 110V170 0400 R13/0500U FG NSC 16/15 Q1012 TEMPO 0800,LDZD,2023-06-09T03:30:00Z,44.1,15.33,16.0,15.0,140,3,,0.25,29.88189,,,,,,,,,,FG,CLR,,,,,,,,LIFR,,,,,,,,,,,,SPECI,82.0
LDZA 090330Z 22002KT CAVOK 13/12 Q1013 NOSIG,LDZA,2023-06-09T03:30:00Z,45.72,16.07,13.0,12.0,220,2,,6.21,29.911417,,,,,,TRUE,,,,,CAVOK,,,,,,,,VFR,,,,,,,,,,,,METAR,103.0
LDSP 090330Z 00000KT CAVOK 18/16 Q1012 NOSIG,LDSP,2023-06-09T03:30:00Z,43.53,16.3,18.0,16.0,0,0,,6.21,29.88189,,,,,,TRUE,,,,,CAVOK,,,,,,,,VFR,,,,,,,,,,,,METAR,16.0
LDRI 090330Z 10002KT CAVOK 17/15 Q1012,LDRI,2023-06-09T03:30:00Z,45.22,14.57,17.0,15.0,100,2,,6.21,29.88189,,,,,,,,,,,CAVOK,,,,,,,,VFR,,,,,,,,,,,,METAR,80.0
LDPL 090330Z 07004KT CAVOK 15/14 Q1012 NOSIG,LDPL,2023-06-09T03:30:00Z,44.88,13.92,15.0,14.0,70,4,,6.21,29.88189,,,,,,TRUE,,,,,CAVOK,,,,,,,,VFR,,,,,,,,,,,,METAR,63.0
LDOS 090330Z 22004KT 6000 FEW040 16/15 Q1012,LDOS,2023-06-09T03:30:00Z,45.47,18.82,16.0,15.0,220,4,,3.73,29.88189,,,,,,,,,,,FEW,4000,,,,,,,MVFR,,,,,,,,,,,,METAR,82.0
LDDU 090330Z 08005KT CAVOK 18/16 Q1012 NOSIG,LDDU,2023-06-09T03:30:00Z,42.57,18.27,18.0,16.0,80,5,,6.21,29.88189,,,,,,TRUE,,,,,CAVOK,,,,,,,,VFR,,,,,,,,,,,,METAR,156.0
LCPH 090330Z 01004KT CAVOK 23/13 Q1007 NOSIG,LCPH,2023-06-09T03:30:00Z,34.72,32.47,23.0,13.0,10,4,,6.21,29.734253,,,,,,TRUE,,,,,CAVOK,,,,,,,,VFR,,,,,,,,,,,,METAR,8.0
LCLK 090330Z VRB02KT CAVOK 22/19 Q1007 NOSIG,LCLK,2023-06-09T03:30:00Z,34.87,33.62,22.0,19.0,0,2,,6.21,29.734253,,,,,,TRUE,,,,,CAVOK,,,,,,,,VFR,,,,,,,,,,,,METAR,2.0
LBWN 090330Z AUTO VRB02KT 9999 NCD 12/10 Q1013 NOSIG,LBWN,2023-06-09T03:30:00Z,43.22,27.82,12.0,10.0,0,2,,6.21,29.911417,,,TRUE,,,TRUE,,,,,CLR,,,,,,,,VFR,,,,,,,,,,,,METAR,74.0
LBSF 090330Z 14005KT CAVOK 13/09 Q1015 NOSIG,LBSF,2023-06-09T03:30:00Z,42.65,23.37,13.0,9.0,140,5,,6.21,29.970472,,,,,,TRUE,,,,,CAVOK,,,,,,,,VFR,,,,,,,,,,,,METAR,592.0
LBPD 090330Z AUTO VRB02KT 9999 NCD 14/11 Q1014 NOSIG,LBPD,2023-06-09T03:30:00Z,42.05,24.85,14.0,11.0,0,2,,6.21,29.940945,,,TRUE,,,TRUE,,,,,CLR,,,,,,,,VFR,,,,,,,,,,,,METAR,182.0
LBGO 090330Z AUTO 09004KT 9999 NCD 10/10 Q1014 NOSIG,LBGO,2023-06-09T03:30:00Z,43.15,25.72,10.0,10.0,90,4,,6.21,29.940945,,,TRUE,,,TRUE,,,,,CLR,,,,,,,,VFR,,,,,,,,,,,,METAR,84.0
LBBG 090330Z AUTO 26004KT 250V310 9999 NCD 15/13 Q1013 NOSIG,LBBG,2023-06-09T03:30:00Z,42.57,27.52,15.0,13.0,260,4,,6.21,29.911417,,,TRUE,,,TRUE,,,,,CLR,,,,,,,,VFR,,,,,,,,,,,,METAR,41.0
KSUT 090330Z AUTO 33003KT 10SM CLR 12/10 A2980 RMK AO2 T01230101,KSUT,2023-06-09T03:30:00Z,33.93,-78.08,12.3,10.1,330,3,,10.0,29.799213,,,TRUE,TRUE,,,,,,,CLR,,,,,,,,VFR,,,,,,,,,,,,METAR,6.0
KS71 090330Z AUTO 11017G21KT 10SM 22/17 A2997 ,KS71,2023-06-09T03:30:00Z,48.6,-109.25,22.0,17.0,110,17,21,10.0,29.970472,,,TRUE,,,,,,,,,,,,,,,,,,,,,,,,,,,,METAR,736.0
KS59 090330Z AUTO 00000KT 10SM 19/18 A2993 ,KS59,2023-06-09T03:30:00Z,48.28,-115.48,19.0,18.0,0,0,,10.0,29.929134,,,TRUE,,,,,,,,,,,,,,,,,,,,,,,,,,,,METAR,793.0
KRHP 090330Z AUTO 00000KT 10SM CLR 11/08 A2989 RMK AO2 T01110080,KRHP,2023-06-09T03:30:00Z,35.18,-83.85,11.1,8.0,0,0,,10.0,29.890747,,,TRUE,TRUE,,,,,,,CLR,,,,,,,,VFR,,,,,,,,,,,,METAR,515.0
KRCZ 090330Z AUTO 00000KT 10SM CLR 16/10 A2981 RMK AO2 T01550099,KRCZ,2023-06-09T03:30:00Z,34.88,-79.77,15.5,9.9,0,0,,10.0,29.811024,,,TRUE,TRUE,,,,,,,CLR,,,,,,,,VFR,,,,,,,,,,,,METAR,110.0
KQFW 090330Z AUTO 16003KT 9999 CLR 24/14 A2952 RMK A02 TSNO,KQFW,2023-06-09T03:30:00Z,,,24.0,14.0,160,3,,6.21,29.518702,,,TRUE,TRUE,,,TRUE,,,,CLR,,,,,,,,VFR,,,,,,,,,,,,METAR,
KQFT 090330Z AUTO 18003KT 9999 FEW040 27/13 A2966 RMK A02 TSNO,KQFT,2023-06-09T03:30:00Z,,,27.0,13.0,180,3,,6.21,29.660433,,,TRUE,TRUE,,,TRUE,,,,FEW,4000,,,,,,,VFR,,,,,,,,,,,,METAR,
KQFB 090330Z AUTO 29002KT 9999 SCT048 27/15 A2971 RMK A02 TSNO,KQFB,2023-06-09T03:30:00Z,,,27.0,15.0,290,2,,6.21,29.71063,,,TRUE,TRUE,,,TRUE,,,,SCT,4800,,,,,,,VFR,,,,,,,,,,,,METAR,
KQEY 090330Z AUTO 27004KT 9999 CLR 25/11 A2941 RMK A02 TSNO,KQEY,2023-06-09T03:30:00Z,,,25.0,11.0,270,4,,6.21,29.409449,,,TRUE,TRUE,,,TRUE,,,,CLR,,,,,,,,VFR,,,,,,,,,,,,METAR,
KQEX 090330Z AUTO 29004KT 9999 CLR 28/12 A2959 RMK A02 TSNO,KQEX,2023-06-09T03:30:00Z,,,28.0,12.0,290,4,,6.21,29.589567,,,TRUE,TRUE,,,TRUE,,,,CLR,,,,,,,,VFR,,,,,,,,,,,,METAR,
KQEV 090330Z AUTO 23002KT 9999 CLR 28/11 A2965 RMK A02 TSNO,KQEV,2023-06-09T03:30:00Z,,,28.0,11.0,230,2,,6.21,29.648623,,,TRUE,TRUE,,,TRUE,,,,CLR,,,,,,,,VFR,,,,,,,,,,,,METAR,
KQER 090330Z AUTO 17002KT 9999 CLR 24/14 A2965 RMK A02 TSNO,KQER,2023-06-09T03:30:00Z,,,24.0,14.0,170,2,,6.21,29.648623,,,TRUE,TRUE,,,TRUE,,,,CLR,,,,,,,,VFR,,,,,,,,,,,,METAR,
KQEJ 090330Z AUTO 18002KT 4000 HZ FEW040 24/12 A2965 RMK A02 TSNO,KQEJ,2023-06-09T03:30:00Z,,,24.0,12.0,180,2,,2.49,29.648623,,,TRUE,TRUE,,,TRUE,,,HZ,FEW,4000,,,,,,,IFR,,,,,,,,,,,,METAR,
KPTN 090330Z AUTO 27005KT 10SM VCTS CLR 23/20 A2983 RMK AO2 LTG DSNT SE AND S TSE08B09E17B23E25B28E29B30RAE00 P0000 $,KPTN,2023-06-09T03:30:00Z,29.72,-91.33,23.0,20.0,270,5,,10.0,29.828741,,,TRUE,TRUE,TRUE,,,,,VCTS,CLR,,,,,,,,VFR,,,,,,0.005,,,,,,METAR,2.0
KPHT 090330Z AUTO 00000KT 10SM 18/11 A2983 RMK A01,KPHT,2023-06-09T03:30:00Z,36.33,-88.38,18.0,11.0,0,0,,10.0,29.828741,,,TRUE,TRUE,,,,,,,,,,,,,,,,,,,,,,,,,,,SPECI,172.0
KO86 090330Z AUTO 00000KT 10SM 16/16 A3003 RMK A01,KO86,2023-06-09T03:30:00Z,40.98,-122.7,16.0,16.0,0,0,,10.0,30.029528,,,TRUE,TRUE,,,,,,,,,,,,,,,,,,,,,,,,,,,METAR,729.0
KMQI 090330Z AUTO 00000KT 10SM CLR 15/13 A2979 RMK AO2 T01450131,KMQI,2023-06-09T03:30:00Z,35.92,-75.7,14.5,13.1,0,0,,10.0,29.790354,,,TRUE,TRUE,,,,,,,CLR,,,,,,,,VFR,,,,,,,,,,,,METAR,3.0
KMNV 090330Z AUTO 00000KT 10SM CLR 15/11 A2986 RMK A01,KMNV,2023-06-09T03:30:00Z,35.55,-84.38,15.0,11.0,0,0,,10.0,29.861221,,,TRUE,TRUE,,,,,,,CLR,,,,,,,,VFR,,,,,,,,,,,,SPECI,306.0
KM91 090330Z AUTO 00000KT 10SM FEW048 BKN060 BKN120 16/10 A2983 RMK A01,KM91,2023-06-09T03:30:00Z,36.53,-86.92,16.0,10.0,0,0,,10.0,29.828741,,,TRUE,TRUE,,,,,,,FEW,4800,BKN,6000,BKN,12000,,,VFR,,,,,,,,,,,,SPECI,214.0
KLHZ 090330Z AUTO 00000KT 7SM CLR 12/11 A2982 RMK AO2,KLHZ,2023-06-09T03:30:00Z,36.02,-78.33,12.0,11.0,0,0,,7.0,29.819881,,,TRUE,TRUE,,,,,,,CLR,,,,,,,,VFR,,,,,,,,,,,,METAR,104.0
KLEB 090330Z 17004KT 2SM BR FEW001 SCT008 OVC075 11/09 A2973 RMK AO2 T01060094,KLEB,2023-06-09T03:30:00Z,43.63,-72.3,10.6,9.4,170,4,,2.0,29.731298,,,,TRUE,,,,,,BR,FEW,100,SCT,800,OVC,7500,,,IFR,,,,,,,,,,,,METAR,169.0
KIXA 090330Z AUTO 00000KT 7SM CLR 12/12 A2979 RMK AO2,KIXA,2023-06-09T03:30:00Z,36.33,-77.63,12.0,12.0,0,0,,7.0,29.790354,,,TRUE,TRUE,,,,,,,CLR,,,,,,,,VFR,,,,,,,,,,,,METAR,43.0
KHNZ 090330Z AUTO 00000KT 7SM CLR 12/12 A2980 RMK AO2 T01240122,KHNZ,2023-06-09T03:30:00Z,36.37,-78.53,12.4,12.2,0,0,,7.0,29.799213,,,TRUE,TRUE,,,,,,,CLR,,,,,,,,VFR,,,,,,,,,,,,METAR,158.0
KGWW 090330Z AUTO 00000KT 7SM SCT090 15/13 A2980 RMK AO2 T01500132,KGWW,2023-06-09T03:30:00Z,35.47,-77.97,15.0,13.2,0,0,,7.0,29.799213,,,TRUE,TRUE,,,,,,,SCT,9000,,,,,,,VFR,,,,,,,,,,,,METAR,40.0
KGOO 090330Z AUTO 00000KT 10SM CLR 17/11 A3005 RMK A01,KGOO,2023-06-09T03:30:00Z,39.22,-121.0,17.0,11.0,0,0,,10.0,30.050198,,,TRUE,TRUE,,,,,,,CLR,,,,,,,,VFR,,,,,,,,,,,,SPECI,950.0
KFYM 090330Z AUTO 01005KT 10SM FEW055 19/12 A2985 RMK A01,KFYM,2023-06-09T03:30:00Z,35.07,-86.57,19.0,12.0,10,5,,10.0,29.84941,,,TRUE,TRUE,,,,,,,FEW,5500,,,,,,,VFR,,,,,,,,,,,,SPECI,297.0
KFFA 090330Z AUTO 00000KT 7SM CLR 15/14 A2978 RMK AO2 T01460138,KFFA,2023-06-09T03:30:00Z,36.02,-75.67,14.6,13.8,0,0,,7.0,29.778543,,,TRUE,TRUE,,,,,,,CLR,,,,,,,,VFR,,,,,,,,,,,,METAR,2.0
KFDK 090330Z AUTO 00000KT 10SM CLR 15/10 A2980 RMK AO2,KFDK,2023-06-09T03:30:00Z,39.42,-77.37,15.0,10.0,0,0,,10.0,29.799213,,,TRUE,TRUE,,,,,,,CLR,,,,,,,,VFR,,,,,,,,,,,,METAR,82.0
KEYF 090330Z AUTO 00000KT 10SM CLR 17/12 A2981 RMK AO2 T01680119,KEYF,2023-06-09T03:30:00Z,34.6,-78.58,16.8,11.9,0,0,,10.0,29.811024,,,TRUE,TRUE,,,,,,,CLR,,,,,,,,VFR,,,,,,,,,,,,METAR,39.0
KEXX 090330Z AUTO 00000KT 10SM CLR 13/08 A2984 RMK AO2 T01330084,KEXX,2023-06-09T03:30:00Z,35.78,-80.3,13.3,8.4,0,0,,10.0,29.840551,,,TRUE,TRUE,,,,,,,CLR,,,,,,,,VFR,,,,,,,,,,,,METAR,221.0
KDEN 090330Z 22027G45KT 10SM -TSRA SCT070CB BKN110 OVC200 16/07 A3007 RMK AO2 PK WND 24045/0322 LTG DSNT S-NW RAB28 TSB28 CONS LTGICCCCG S-NW TS S-NW MOV NE P0000 T01560072,KDEN,2023-06-09T03:30:00Z,39.85,-104.65,15.6,7.2,220,27,45,10.0,30.070866,,,,TRUE,,,,,,-TSRA,SCT,7000,BKN,11000,OVC,20000,,,VFR,,,,,,0.005,,,,,,METAR,1656.0
KCGS 090330Z AUTO 33004KT 10SM CLR 19/07 A2979 RMK AO2 T01880075,KCGS,2023-06-09T03:30:00Z,38.98,-76.92,18.8,7.5,330,4,,10.0,29.790354,,,TRUE,TRUE,,,,,,,CLR,,,,,,,,VFR,,,,,,,,,,,,METAR,15.0
K7W6 090330Z AUTO 00000KT 5SM BR CLR 15/15 A2979 RMK AO2 T01540150,K7W6,2023-06-09T03:30:00Z,35.55,-75.95,15.4,15.0,0,0,,5.0,29.790354,,,TRUE,TRUE,,,,,,BR,CLR,,,,,,,,MVFR,,,,,,,,,,,,METAR,1.0
K3U3 090330Z AUTO 00000KT 10SM 13/13 A3004 ,K3U3,2023-06-09T03:30:00Z,46.15,-112.87,13.0,13.0,0,0,,10.0,30.041338,,,TRUE,,,,,,,,,,,,,,,,,,,,,,,,,,,,METAR,1534.0
K38S 090330Z AUTO 00000KT 10SM 14/14 A3006 ,K38S,2023-06-09T03:30:00Z,46.38,-112.77,14.0,14.0,0,0,,10.0,30.059055,,,TRUE,,,,,,,,,,,,,,,,,,,,,,,,,,,,METAR,1430.0
K1S3 090330Z AUTO 25006KT 10SM 19/17 A2987 ,K1S3,2023-06-09T03:30:00Z,46.27,-106.62,19.0,17.0,250,6,,10.0,29.870079,,,TRUE,,,,,,,,,,,,,,,,,,,,,,,,,,,,METAR,831.0
K1A5 090330Z AUTO 00000KT 10SM CLR 10/08 A2993 RMK AO2 T01010082,K1A5,2023-06-09T03:30:00Z,35.22,-83.42,10.1,8.2,0,0,,10.0,29.929134,,,TRUE,TRUE,,,,,,,CLR,,,,,,,,VFR,,,,,,,,,,,,METAR,611.0
HRYR 090330Z 35002KT 9999 SCT025 SCT100 18/13 Q1023 NOSIG,HRYR,2023-06-09T03:30:00Z,-1.97,30.13,18.0,13.0,350,2,,6.21,30.206694,,,,,,TRUE,,,,,SCT,2500,SCT,10000,,,,,VFR,,,,,,,,,,,,METAR,1493.0
HECA 090330Z 02008KT 6000 NSC 27/13 Q1005 NOSIG,HECA,2023-06-09T03:30:00Z,30.12,31.4,27.0,13.0,20,8,,3.73,29.675198,,,,,,TRUE,,,,,CLR,,,,,,,,MVFR,,,,,,,,,,,,METAR,68.0
GQNO 090330Z 35017KT 7000 NSC 25/20 Q1011 NOSIG,GQNO,2023-06-09T03:30:00Z,18.3,-15.97,25.0,20.0,350,17,,4.35,29.852362,,,,,,TRUE,,,,,CLR,,,,,,,,MVFR,,,,,,,,,,,,METAR,1.0
GOBD 090330Z 30005KT 9999 FEW009 24/24 Q1012 NOSIG,GOBD,2023-06-09T03:30:00Z,14.67,-17.07,24.0,24.0,300,5,,6.21,29.88189,,,,,,TRUE,,,,,FEW,900,,,,,,,VFR,,,,,,,,,,,,METAR,90.0
GMTT 090330Z 18006KT 140V210 8000 SCT010 SCT023 BKN043 20/20 Q1012 NOSIG,GMTT,2023-06-09T03:30:00Z,35.72,-5.9,20.0,20.0,180,6,,4.97,29.88189,,,,,,TRUE,,,,,SCT,1000,SCT,2300,BKN,4300,,,MVFR,,,,,,,,,,,,METAR,19.0
GMMX 090330Z 24003KT 9999 FEW026 SCT100 19/14 Q1014 NOSIG,GMMX,2023-06-09T03:30:00Z,31.62,-8.03,19.0,14.0,240,3,,6.21,29.940945,,,,,,TRUE,,,,,FEW,2600,SCT,10000,,,,,VFR,,,,,,,,,,,,METAR,465.0
GMMN 090330Z 16004KT 130V190 9999 FEW020 17/16 Q1013 NOSIG,GMMN,2023-06-09T03:30:00Z,33.37,-7.58,17.0,16.0,160,4,,6.21,29.911417,,,,,,TRUE,,,,,FEW,2000,,,,,,,VFR,,,,,,,,,,,,METAR,196.0
GMME 090330Z 23005KT 5000 SCT020 18/17 Q1013 NOSIG,GMME,2023-06-09T03:30:00Z,34.05,-6.77,18.0,17.0,230,5,,3.11,29.911417,,,,,,TRUE,,,,,SCT,2000,,,,,,,MVFR,,,,,,,,,,,,METAR,84.0
GMFO 090330Z 26002KT 9999 SCT020 SCT023 BKN090 20/19 Q1015 NOSIG,GMFO,2023-06-09T03:30:00Z,34.78,-1.92,20.0,19.0,260,2,,6.21,29.970472,,,,,,TRUE,,,,,SCT,2000,SCT,2300,BKN,9000,,,VFR,,,,,,,,,,,,METAR,452.0
GMFF 090330Z 08002KT 9999 SCT030 SCT100 17/17 Q1015 NOSIG,GMFF,2023-06-09T03:30:00Z,33.92,-4.97,17.0,17.0,80,2,,6.21,29.970472,,,,,,TRUE,,,,,SCT,3000,SCT,10000,,,,,VFR,,,,,,,,,,,,METAR,575.0
GMAD 090330Z 17005KT 9999 SCT010 BKN016 19/18 Q1013 NOSIG,GMAD,2023-06-09T03:30:00Z,30.32,-9.42,19.0,18.0,170,5,,6.21,29.911417,,,,,,TRUE,,,,,SCT,1000,BKN,1600,,,,,MVFR,,,,,,,,,,,,METAR,66.0
GEML 090330Z AUTO VRB02KT 9999 FEW035 BKN045 21/20 Q1013,GEML,2023-06-09T03:30:00Z,35.27,-2.95,21.0,20.0,0,2,,6.21,29.911417,,,TRUE,,,,,,,,FEW,3500,BKN,4500,,,,,VFR,,,,,,,,,,,,METAR,48.0
GECE 090330Z AUTO VRB01KT 9999 FEW023/// 20/17 Q1012,GECE,2023-06-09T03:30:00Z,35.88,-5.3,20.0,17.0,0,1,,6.21,29.88189,,,TRUE,,,,,,,,FEW,2300,,,,,,,VFR,,,,,,,,,,,,METAR,2.0
GCXO 090330Z AUTO 28004KT CAVOK 16/14 Q1016,GCXO,2023-06-09T03:30:00Z,28.48,-16.35,16.0,14.0,280,4,,6.21,30.0,,,TRUE,,,,,,,,CAVOK,,,,,,,,VFR,,,,,,,,,,,,METAR,623.0
GCTS 090330Z VRB02KT 9999 BKN030 22/18 Q1015 NOSIG,GCTS,2023-06-09T03:30:00Z,28.05,-16.57,22.0,18.0,0,2,,6.21,29.970472,,,,,,TRUE,,,,,BKN,3000,,,,,,,MVFR,,,,,,,,,,,,METAR,59.0
GCRR 090330Z AUTO 28004KT CAVOK 20/17 Q1014,GCRR,2023-06-09T03:30:00Z,28.95,-13.58,20.0,17.0,280,4,,6.21,29.940945,,,TRUE,,,,,,,,CAVOK,,,,,,,,VFR,,,,,,,,,,,,METAR,9.0
GCLP 090330Z 31004KT 9999 FEW040 20/15 Q1015 NOSIG,GCLP,2023-06-09T03:30:00Z,27.92,-15.38,20.0,15.0,310,4,,6.21,29.970472,,,,,,TRUE,,,,,FEW,4000,,,,,,,VFR,,,,,,,,,,,,METAR,16.0
GCLA 090330Z AUTO 27005KT 9999 SCT034 BKN043 BKN049 20/15 Q1015,GCLA,2023-06-09T03:30:00Z,28.62,-17.75,20.0,15.0,270,5,,6.21,29.970472,,,TRUE,,,,,,,,SCT,3400,BKN,4300,BKN,4900,,,VFR,,,,,,,,,,,,METAR,20.0
GCHI 090330Z AUTO 28009KT CAVOK 21/13 Q1015,GCHI,2023-06-09T03:30:00Z,27.82,-17.88,21.0,13.0,280,9,,6.21,29.970472,,,TRUE,,,,,,,,CAVOK,,,,,,,,VFR,,,,,,,,,,,,METAR,21.0
GCGM 090330Z AUTO 00000KT CAVOK 19/14 Q1016 RMK R09/32004KT ARP/VRB02KT,GCGM,2023-06-09T03:30:00Z,28.03,-17.22,19.0,14.0,0,0,,6.21,30.0,,,TRUE,,,,,,,,CAVOK,,,,,,,,VFR,,,,,,,,,,,,METAR,217.0
GCFV 090330Z AUTO 29004KT CAVOK 21/16 Q1014,GCFV,2023-06-09T03:30:00Z,28.43,-13.87,21.0,16.0,290,4,,6.21,29.940945,,,TRUE,,,,,,,,CAVOK,,,,,,,,VFR,,,,,,,,,,,,METAR,11.0
GABS 090330Z 22007KT CAVOK 28/23 Q1012 NOSIG,GABS,2023-06-09T03:30:00Z,12.53,-7.95,28.0,23.0,220,7,,6.21,29.88189,,,,,,TRUE,,,,,CAVOK,,,,,,,,VFR,,,,,,,,,,,,METAR,375.0
FMCZ 090330Z AUTO 25006KT CAVOK 23/22 Q1016 NOSIG,FMCZ,2023-06-09T03:30:00Z,-12.8,45.27,23.0,22.0,250,6,,6.21,30.0,,,TRUE,,,TRUE,,,,,CAVOK,,,,,,,,VFR,,,,,,,,,,,,METAR,7.0
FAOR 090330Z 29003KT 270V340 CAVOK 11/M06 Q1022 NOSIG,FAOR,2023-06-09T03:30:00Z,-26.13,28.23,11.0,-6.0,290,3,,6.21,30.177166,,,,,,TRUE,,,,,CAVOK,,,,,,,,VFR,,,,,,,,,,,,METAR,1684.0
EPZG 090330Z VRB01KT CAVOK 13/09 Q1015,EPZG,2023-06-09T03:30:00Z,52.13,15.77,13.0,9.0,0,1,,6.21,29.970472,,,,,,,,,,,CAVOK,,,,,,,,VFR,,,,,,,,,,,,METAR,59.0
EPWR 090330Z 36003KT 340V050 CAVOK 12/11 Q1015,EPWR,2023-06-09T03:30:00Z,51.1,16.88,12.0,11.0,360,3,,6.21,29.970472,,,,,,,,,,,CAVOK,,,,,,,,VFR,,,,,,,,,,,,METAR,118.0
EPWA 090330Z 07004KT CAVOK 17/13 Q1016 NOSIG,EPWA,2023-06-09T03:30:00Z,52.17,20.97,17.0,13.0,70,4,,6.21,30.0,,,,,,TRUE,,,,,CAVOK,,,,,,,,VFR,,,,,,,,,,,,METAR,107.0
EPSY 090330Z VRB01KT CAVOK 10/07 Q1017,EPSY,2023-06-09T03:30:00Z,53.47,20.93,10.0,7.0,0,1,,6.21,30.029528,,,,,,,,,,,CAVOK,,,,,,,,VFR,,,,,,,,,,,,METAR,136.0
EPSC 090330Z 02006KT 340V050 CAVOK 13/10 Q1017,EPSC,2023-06-09T03:30:00Z,53.58,14.9,13.0,10.0,20,6,,6.21,30.029528,,,,,,,,,,,CAVOK,,,,,,,,VFR,,,,,,,,,,,,METAR,47.0
EPRZ 090330Z 05004KT 8000 NSC 15/15 Q1014,EPRZ,2023-06-09T03:30:00Z,50.1,22.02,15.0,15.0,50,4,,4.97,29.940945,,,,,,,,,,,CLR,,,,,,,,MVFR,,,,,,,,,,,,METAR,206.0
EPPO 090330Z 09002KT CAVOK 13/11 Q1015,EPPO,2023-06-09T03:30:00Z,52.42,16.83,13.0,11.0,90,2,,6.21,29.970472,,,,,,,,,,,CAVOK,,,,,,,,VFR,,,,,,,,,,,,METAR,87.0
EPMO 090330Z 05003KT CAVOK 14/12 Q1016,EPMO,2023-06-09T03:30:00Z,52.45,20.65,14.0,12.0,50,3,,6.21,30.0,,,,,,,,,,,CAVOK,,,,,,,,VFR,,,,,,,,,,,,METAR,102.0
EPLL 090330Z VRB01KT CAVOK 13/10 Q1015,EPLL,2023-06-09T03:30:00Z,51.72,19.4,13.0,10.0,0,1,,6.21,29.970472,,,,,,,,,,,CAVOK,,,,,,,,VFR,,,,,,,,,,,,METAR,176.0
EPLB 090330Z 03003KT CAVOK 16/15 Q1015,EPLB,2023-06-09T03:30:00Z,51.23,22.72,16.0,15.0,30,3,,6.21,29.970472,,,,,,,,,,,CAVOK,,,,,,,,VFR,,,,,,,,,,,,METAR,206.0
EPKT 090330Z VRB01KT 9999 -SHRA SCT049CB 14/13 Q1014,EPKT,2023-06-09T03:30:00Z,50.47,19.08,14.0,13.0,0,1,,6.21,29.940945,,,,,,,,,,-SHRA,SCT,4900,,,,,,,VFR,,,,,,,,,,,,METAR,296.0
EPKK 090330Z 05005KT 9999 FEW004 OVC005 16/15 Q1014,EPKK,2023-06-09T03:30:00Z,50.07,19.8,16.0,15.0,50,5,,6.21,29.940945,,,,,,,,,,,FEW,400,OVC,500,,,,,IFR,,,,,,,,,,,,METAR,237.0
EPGD 090330Z 35003KT 320V030 CAVOK 15/13 Q1016,EPGD,2023-06-09T03:30:00Z,54.37,18.47,15.0,13.0,350,3,,6.21,30.0,,,,,,,,,,,CAVOK,,,,,,,,VFR,,,,,,,,,,,,METAR,136.0
EPBY 090330Z 10003KT CAVOK 14/10 Q1015,EPBY,2023-06-09T03:30:00Z,53.1,18.0,14.0,10.0,100,3,,6.21,29.970472,,,,,,,,,,,CAVOK,,,,,,,,VFR,,,,,,,,,,,,METAR,66.0
EINN 090330Z 04005KT CAVOK 11/09 Q1012 NOSIG,EINN,2023-06-09T03:30:00Z,52.7,-8.92,11.0,9.0,40,5,,6.21,29.88189,,,,,,TRUE,,,,,CAVOK,,,,,,,,VFR,,,,,,,,,,,,METAR,20.0
EIDW 090330Z 08010KT 9999 FEW018 BKN210 11/10 Q1015 NOSIG,EIDW,2023-06-09T03:30:00Z,53.42,-6.28,11.0,10.0,80,10,,6.21,29.970472,,,,,,TRUE,,,,,FEW,1800,BKN,21000,,,,,VFR,,,,,,,,,,,,METAR,75.0
EICK 090330Z 08012KT 9999 FEW040 BKN170 15/11 Q1011 NOSIG,EICK,2023-06-09T03:30:00Z,51.85,-8.47,15.0,11.0,80,12,,6.21,29.852362,,,,,,TRUE,,,,,FEW,4000,BKN,17000,,,,,VFR,,,,,,,,,,,,METAR,158.0
DTTJ 090330Z 14006KT CAVOK 22/19 Q1010 NOSIG,DTTJ,2023-06-09T03:30:00Z,33.87,10.77,22.0,19.0,140,6,,6.21,29.822834,,,,,,TRUE,,,,,CAVOK,,,,,,,,VFR,,,,,,,,,,,,METAR,3.0
DTTA 090330Z VRB02KT 9999 SCT023 23/20 Q1010,DTTA,2023-06-09T03:30:00Z,36.85,10.22,23.0,20.0,0,2,,6.21,29.822834,,,,,,,,,,,SCT,2300,,,,,,,VFR,,,,,,,,,,,,METAR,4.0
DTNH 090330Z 14003KT 9999 FEW033 20/17 Q1011,DTNH,2023-06-09T03:30:00Z,36.07,10.43,20.0,17.0,140,3,,6.21,29.852362,,,,,,,,,,,FEW,3300,,,,,,,VFR,,,,,,,,,,,,METAR,1.0
DTMB 090330Z 18004KT 9999 FEW026 22/19 Q1011,DTMB,2023-06-09T03:30:00Z,35.77,10.75,22.0,19.0,180,4,,6.21,29.852362,,,,,,,,,,,FEW,2600,,,,,,,VFR,,,,,,,,,,,,METAR,1.0
DIAP 090330Z 30002KT 9999 FEW012 26/26 Q1012 NOSIG,DIAP,2023-06-09T03:30:00Z,5.25,-3.92,26.0,26.0,300,2,,6.21,29.88189,,,,,,TRUE,,,,,FEW,1200,,,,,,,VFR,,,,,,,,,,,,METAR,4.0
DAOO 090330Z 19007KT 9999 BKN026 FEW030CB SCT100 20/19 Q1012,DAOO,2023-06-09T03:30:00Z,35.62,-0.62,20.0,19.0,190,7,,6.21,29.88189,,,,,,,,,,,BKN,2600,FEW,3000,SCT,10000,,,MVFR,,,,,,,,,,,,METAR,87.0
DAON 090330Z 22003KT 8000 BKN026 SCT100 20/20 Q1014,DAON,2023-06-09T03:30:00Z,35.02,-1.47,20.0,20.0,220,3,,4.97,29.940945,,,,,,,,,,,BKN,2600,SCT,10000,,,,,MVFR,,,,,,,,,,,,METAR,245.0
DABC 090330Z VRB02KT CAVOK 22/14 Q1013,DABC,2023-06-09T03:30:00Z,36.27,6.62,22.0,14.0,0,2,,6.21,29.911417,,,,,,,,,,,CAVOK,,,,,,,,VFR,,,,,,,,,,,,METAR,686.0
DABB 090330Z 03014KT 8000 NSC 22/21 Q1009,DABB,2023-06-09T03:30:00Z,36.82,7.82,22.0,21.0,30,14,,4.97,29.793306,,,,,,,,,,,CLR,,,,,,,,MVFR,,,,,,,,,,,,METAR,3.0
DAAT 090330Z 12004KT CAVOK 23/M07 Q1017,DAAT,2023-06-09T03:30:00Z,22.82,5.47,23.0,-7.0,120,4,,6.21,30.029528,,,,,,,,,,,CAVOK,,,,,,,,VFR,,,,,,,,,,,,METAR,1376.0
DAAG 090330Z 28013KT 6000 -RA FEW015 FEW026CB SCT040 BKN090 21/20 Q1012,DAAG,2023-06-09T03:30:00Z,36.68,3.22,21.0,20.0,280,13,,3.73,29.88189,,,,,,,,,,-RA,FEW,1500,FEW,2600,SCT,4000,BKN,9000,MVFR,,,,,,,,,,,,METAR,18.0
CZSJ 090330Z AUTO 00000KT 9SM CLR 15/15 A2981 RMK SLP101 DENSITY ALT 1400FT,CZSJ,2023-06-09T03:30:00Z,53.07,-93.35,15.0,15.0,0,0,,9.0,29.811024,1010.1,,TRUE,,,,,,,,CLR,,,,,,,,VFR,,,,,,,,,,,,SPECI,286.0
CWPF 090330Z AUTO 24009KT 18/07 RMK AO1 SLP118 T01830071 53003,CWPF,2023-06-09T03:30:00Z,48.43,-123.43,18.3,7.1,240,9,,,,1011.8,,TRUE,TRUE,,,,,,,,,,,,,,,,0.3,,,,,,,,,,,METAR,5.0
BKPR 090330Z 03004KT 0150 R17/0400D R35/0400N FG BKN002 12/12 Q1015 NOSIG,BKPR,2023-06-09T03:30:00Z,42.58,21.03,12.0,12.0,30,4,,0.09,29.970472,,,,,,TRUE,,,,FG,BKN,200,,,,,,,LIFR,,,,,,,,,,,,SPECI,545.0
BIKF 090330Z 17020KT 9999 -RA BKN007 BKN024 OVC039 09/08 Q1008,BIKF,2023-06-09T03:30:00Z,63.98,-22.6,9.0,8.0,170,20,,6.21,29.763779,,,,,,,,,,-RA,BKN,700,BKN,2400,OVC,3900,,,IFR,,,,,,,,,,,,METAR,49.0
PAEH 090329Z AUTO 35003KT M1/4SM -SHRA FG VV004 07/ A2948 RMK AO2 SLP987,PAEH,2023-06-09T03:29:00Z,58.65,-162.07,7.0,,350,3,,0.25,29.480314,998.7,,TRUE,TRUE,,,,,,-SHRA FG,OVX,0,,,,,,,LIFR,,,,,,,,,,,400,SPECI,101.0
PACM 090329Z AUTO 25012KT BKN015 BKN027 BKN075 13/13 A2952 RMK AO2 PWINO $,PACM,2023-06-09T03:29:00Z,61.85,-165.57,13.0,13.0,250,12,,,29.518702,,,TRUE,TRUE,TRUE,,,,TRUE,,BKN,1500,BKN,2700,BKN,7500,,,,,,,,,,,,,,,METAR,3.0
KQD3 090329Z AUTO 00000KT 3200 HZ FEW160 33/21 A2972 RMK AO2 VIS 3200V6000 SLPNO WND DATA ESTMD,KQD3,2023-06-09T03:29:00Z,,,33.0,21.0,0,0,,1.99,29.719488,,,TRUE,TRUE,,,,,,HZ,FEW,16000,,,,,,,IFR,,,,,,,,,,,,SPECI,
KMTN 090329Z AUTO 31003KT 7SM SCT095 17/09 A2979 RMK AO2,KMTN,2023-06-09T03:29:00Z,39.32,-76.42,17.0,9.0,310,3,,7.0,29.790354,,,TRUE,TRUE,,,,,,,SCT,9500,,,,,,,VFR,,,,,,,,,,,,METAR,2.0
KIEN 090329Z AUTO 21009G18KT 10SM OVC095 21/13 A2994 RMK AO2 LTG DSNT S AND W TSB22E23 T02110128,KIEN,2023-06-09T03:29:00Z,43.03,-102.52,21.1,12.8,210,9,18,10.0,29.940945,,,TRUE,TRUE,,,,,,,OVC,9500,,,,,,,VFR,,,,,,,,,,,,METAR,1002.0
KFME 090329Z AUTO 00000KT 13/12 A2981 RMK AO1,KFME,2023-06-09T03:29:00Z,39.08,-76.77,13.0,12.0,0,0,,,29.811024,,,TRUE,TRUE,,,,,,,,,,,,,,,,,,,,,,,,,,,METAR,43.0
K2W6 090329Z AUTO 00000KT 10SM CLR 15/13 A2979 RMK AO1,K2W6,2023-06-09T03:29:00Z,38.32,-76.55,15.0,13.0,0,0,,10.0,29.790354,,,TRUE,TRUE,,,,,,,CLR,,,,,,,,VFR,,,,,,,,,,,,METAR,40.0
CYAY 090329Z AUTO 02014G22KT 3SM -RA BR OVC003 02/02 A2997 RMK SLP151,CYAY,2023-06-09T03:29:00Z,51.38,-56.07,2.0,2.0,20,14,22,3.0,29.970472,1015.1,,TRUE,,,,,,,-RA BR,OVC,300,,,,,,,LIFR,,,,,,,,,,,,SPECI,23.0
PATG 090328Z AUTO 2 1/2SM -RA BR BKN013 BKN020 OVC026 09/09 A2949 RMK AO2 VIS 1 3/4V4 P0002 $,PATG,2023-06-09T03:28:00Z,59.05,-160.38,9.0,9.0,,,,2.5,29.489174,,,TRUE,TRUE,TRUE,,,,,-RA BR,BKN,1300,BKN,2000,OVC,2600,,,IFR,,,,,,0.02,,,,,,METAR,1.0
MPTO 090328Z 01003KT 9000 -TSRA SCT005 BKN015CB OVC080 24/24 Q1012 NOSIG,MPTO,2023-06-09T03:28:00Z,9.05,-79.38,24.0,24.0,10,3,,5.59,29.88189,,,,,,TRUE,,,,-TSRA,SCT,500,BKN,1500,OVC,8000,,,MVFR,,,,,,,,,,,,SPECI,7.0
KGFA 090328Z AUTO 17005KT 9SM TSRA FEW015 SCT023 SCT034 BKN041 BKN048 OVC060 16/15 A2998 RMK AO2 RAB10 TSB28 PRESRR SLP144 $,KGFA,2023-06-09T03:28:00Z,47.5,-111.18,16.0,15.0,170,5,,9.0,29.97933,1014.4,,TRUE,TRUE,TRUE,,,,,TSRA,FEW,1500,SCT,2300,SCT,3400,BKN,4100,VFR,,,,,,,,,,,,SPECI,1058.0
PASN 090327Z AUTO 06/04 A2945 RMK AO2 T00560044 PWINO TSNO PNO $,PASN,2023-06-09T03:27:00Z,57.15,-170.22,5.6,4.4,,,,,29.450787,,,TRUE,TRUE,TRUE,,TRUE,,TRUE,,,,,,,,,,,,,,,,,,,,,,SPECI,8.0
PAKH 090327Z AUTO 10SM OVC006 07/07 A2958 RMK AO2 RAB07E22 P0000 $,PAKH,2023-06-09T03:27:00Z,56.93,-154.18,7.0,7.0,,,,10.0,29.58071,,,TRUE,TRUE,TRUE,,,,,,OVC,600,,,,,,,IFR,,,,,,0.005,,,,,,SPECI,15.0
KTPH 090327Z AUTO 28022G31KT 10SM -RA OVC085 18/04 A3004 RMK AO2 PK WND 26037/0310 WSHFT 0307 RAB22 P0000 T01830044,KTPH,2023-06-09T03:27:00Z,38.05,-117.08,18.3,4.4,280,22,31,10.0,30.041338,,,TRUE,TRUE,,,,,,-RA,OVC,8500,,,,,,,VFR,,,,,,0.005,,,,,,SPECI,1647.0
KSHR 090327Z AUTO 28010KT 9SM -RA OVC090 17/14 A2999 RMK AO2 LTG DSNT NW-NE TSE04B06E07B14E16B20E21 P0002 T01720139,KSHR,2023-06-09T03:27:00Z,44.77,-106.97,17.2,13.9,280,10,,9.0,29.991142,,,TRUE,TRUE,,,,,,-RA,OVC,9000,,,,,,,VFR,,,,,,0.02,,,,,,SPECI,1212.0
CYQX 090327Z 36006KT 3/8SM R13/4500VP6000FT/D R03/5500V6000FT/N -DZ FG OVC002 06/06 A2988 RMK FG6ST2 CIG VRB 001-003 SLP125,CYQX,2023-06-09T03:27:00Z,48.95,-54.58,6.0,6.0,360,6,,0.38,29.878937,1012.5,,,,,,,,,-DZ FG,OVC,200,,,,,,,LIFR,,,,,,,,,,,,SPECI,144.0
KCOS 090326Z 19018G26KT 10SM VCTS FEW070CB BKN110 BKN250 16/07 A3013 RMK AO2 PK WND 19026/0322 LTG DSNT N AND NE AND S RAE25 TSE25 FRQ LTGICCG VC SE TS VC SE MOV NE P0000 T01610072,KCOS,2023-06-09T03:26:00Z,38.82,-104.68,16.1,7.2,190,18,26,10.0,30.129921,,,,TRUE,,,,,,VCTS,FEW,7000,BKN,11000,BKN,25000,,,VFR,,,,,,0.005,,,,,,SPECI,1886.0
CYQI 090326Z 11005KT 2SM BR OVC001 10/09 A2977 RMK ST8 SLP084,CYQI,2023-06-09T03:26:00Z,43.83,-66.08,10.0,9.0,110,5,,2.0,29.769686,1008.4,,,,,,,,,BR,OVC,100,,,,,,,LIFR,,,,,,,,,,,,SPECI,37.0
CYQB 090326Z 06009KT 15SM -DZ BKN009 OVC065 10/09 A2980 RMK ST7SC1 SLP094,CYQB,2023-06-09T03:26:00Z,46.78,-71.38,10.0,9.0,60,9,,15.0,29.799213,1009.4,,,,,,,,,-DZ,BKN,900,OVC,6500,,,,,IFR,,,,,,,,,,,,SPECI,73.0
CYMT 090326Z AUTO 11004KT 9SM OVC025 11/09 A2986 RMK SLP124,CYMT,2023-06-09T03:26:00Z,49.77,-74.52,11.0,9.0,110,4,,9.0,29.861221,1012.4,,TRUE,,,,,,,,OVC,2500,,,,,,,MVFR,,,,,,,,,,,,SPECI,388.0
CWSA 090326Z AUTO 11004KT 3SM BR 06/06 A2982 RMK CLD MISG SLP098,CWSA,2023-06-09T03:26:00Z,43.93,-60.0,6.0,6.0,110,4,,3.0,29.819881,1009.8,,TRUE,,,,,,,BR,,,,,,,,,,,,,,,,,,,,,SPECI,4.0
PAWD 090325Z AUTO 15009KT 10SM BKN028 OVC048 09/08 A2976 RMK AO2 RAE10 P0000 T00890078 TSNO,PAWD,2023-06-09T03:25:00Z,60.12,-149.42,8.9,7.8,150,9,,10.0,29.760826,,,TRUE,TRUE,,,TRUE,,,,BKN,2800,OVC,4800,,,,,MVFR,,,,,,0.005,,,,,,SPECI,3.0
PACZ 090325Z AUTO 03014KT 10SM FEW006 BKN070 BKN110 10/10 A2950 RMK AO2 SLP990,PACZ,2023-06-09T03:25:00Z,61.78,-166.03,10.0,10.0,30,14,,10.0,29.500984,999.0,,TRUE,TRUE,,,,,,,FEW,600,BKN,7000,BKN,11000,,,VFR,,,,,,,,,,,,METAR,129.0
OPPS 090325Z 05006KT 4000 HZ NSC 31/19 Q1003,OPPS,2023-06-09T03:25:00Z,33.98,71.52,31.0,19.0,50,6,,2.49,29.616142,,,,,,,,,,HZ,CLR,,,,,,,,IFR,,,,,,,,,,,,METAR,356.0
OPLA 090325Z 06004KT 2000 DU NSC 33/20 Q1003 NOSIG RMK QFE977 A29.62,OPLA,2023-06-09T03:25:00Z,31.52,74.4,33.0,20.0,60,4,,1.24,29.616142,,,,,,TRUE,,,,DU,CLR,,,,,,,,IFR,,,,,,,,,,,,METAR,217.0
KW29 090325Z AUTO 00000KT 5SM HZ CLR 18/12 A2978 RMK AO2 T01810120,KW29,2023-06-09T03:25:00Z,38.98,-76.33,18.1,12.0,0,0,,5.0,29.778543,,,TRUE,TRUE,,,,,,HZ,CLR,,,,,,,,MVFR,,,,,,,,,,,,METAR,1.0
KVUJ 090325Z AUTO 00000KT 10SM CLR 12/09 A2987 RMK AO2 T01170092,KVUJ,2023-06-09T03:25:00Z,35.42,-80.15,11.7,9.2,0,0,,10.0,29.870079,,,TRUE,TRUE,,,,,,,CLR,,,,,,,,VFR,,,,,,,,,,,,METAR,174.0
KUKF 090325Z AUTO 31004KT 10SM CLR 13/05 A2992 RMK AO2,KUKF,2023-06-09T03:25:00Z,36.22,-81.1,13.0,5.0,310,4,,10.0,29.920275,,,TRUE,TRUE,,,,,,,CLR,,,,,,,,VFR,,,,,,,,,,,,METAR,383.0
KTTA 090325Z AUTO 00000KT 10SM CLR 13/13 A2981 RMK AO2 T01260126,KTTA,2023-06-09T03:25:00Z,35.58,-79.1,12.6,12.6,0,0,,10.0,29.811024,,,TRUE,TRUE,,,,,,,CLR,,,,,,,,VFR,,,,,,,,,,,,METAR,71.0
KTDF 090325Z AUTO 00000KT 10SM CLR 11/08 A2984 RMK AO2,KTDF,2023-06-09T03:25:00Z,36.28,-78.98,11.0,8.0,0,0,,10.0,29.840551,,,TRUE,TRUE,,,,,,,CLR,,,,,,,,VFR,,,,,,,,,,,,METAR,180.0
KSVH 090325Z AUTO 33004KT 10SM CLR 16/06 A2985 RMK AO2 T01640059,KSVH,2023-06-09T03:25:00Z,35.75,-80.95,16.4,5.9,330,4,,10.0,29.84941,,,TRUE,TRUE,,,,,,,CLR,,,,,,,,VFR,,,,,,,,,,,,METAR,286.0
KSIF 090325Z AUTO 00000KT 10SM CLR 13/05 A2983 RMK AO2 T01330049,KSIF,2023-06-09T03:25:00Z,36.43,-79.85,13.3,4.9,0,0,,10.0,29.828741,,,TRUE,TRUE,,,,,,,CLR,,,,,,,,VFR,,,,,,,,,,,,METAR,206.0
KSHM 090325Z AUTO 23010KT 10SM VCTS -RA FEW060 BKN075 OVC100 18/04 A3010 RMK AO2 RAB17 TSB10E25 SLP122 $,KSHM,2023-06-09T03:25:00Z,38.8,-104.52,18.0,4.0,230,10,,10.0,30.100393,1012.2,,TRUE,TRUE,TRUE,,,,,VCTS -RA,FEW,6000,BKN,7500,OVC,10000,,,VFR,,,,,,,,,,,,METAR,1900.0
KSCR 090325Z AUTO 00000KT 10SM CLR 11/11 A2983 RMK AO2 T01050105,KSCR,2023-06-09T03:25:00Z,35.7,-79.5,10.5,10.5,0,0,,10.0,29.828741,,,TRUE,TRUE,,,,,,,CLR,,,,,,,,VFR,,,,,,,,,,,,METAR,182.0
KS85 090325Z AUTO 07008KT 10SM 22/20 A2988 RMK A01 Culbertson ,KS85,2023-06-09T03:25:00Z,48.15,-104.5,22.0,20.0,70,8,,10.0,29.878937,,,TRUE,TRUE,,,,,,,,,,,,,,,,,,,,,,,,,,,METAR,596.0
KRUQ 090325Z AUTO 00000KT 10SM CLR 12/10 A2984 RMK AO2 T01240095,KRUQ,2023-06-09T03:25:00Z,35.65,-80.52,12.4,9.5,0,0,,10.0,29.840551,,,TRUE,TRUE,,,,,,,CLR,,,,,,,,VFR,,,,,,,,,,,,METAR,231.0
KQVF 090325Z AUTO 00000KT 9000 -SHRA SCT021 BKN080 25/24 A2998 RMK AO2 SHRAB25 SLPNO WND DATA ESTMD,KQVF,2023-06-09T03:25:00Z,,,25.0,24.0,0,0,,5.59,29.97933,,,TRUE,TRUE,,,,,,-SHRA,SCT,2100,BKN,8000,,,,,VFR,,,,,,,,,,,,SPECI,
KPGV 090325Z AUTO 00000KT 10SM SCT110 15/15 A2979 RMK AO2,KPGV,2023-06-09T03:25:00Z,35.63,-77.4,15.0,15.0,0,0,,10.0,29.790354,,,TRUE,TRUE,,,,,,,SCT,11000,,,,,,,VFR,,,,,,,,,,,,METAR,6.0
KONX 090325Z AUTO 00000KT 13/13 A2978 RMK AO2 T01310131 PWINO,KONX,2023-06-09T03:25:00Z,36.4,-76.02,13.1,13.1,0,0,,,29.778543,,,TRUE,TRUE,,,,,TRUE,,,,,,,,,,,,,,,,,,,,,,METAR,4.0
KOCW 090325Z AUTO 00000KT 10SM CLR 16/14 A2980 RMK AO2 T01630140,KOCW,2023-06-09T03:25:00Z,35.57,-77.05,16.3,14.0,0,0,,10.0,29.799213,,,TRUE,TRUE,,,,,,,CLR,,,,,,,,VFR,,,,,,,,,,,,METAR,10.0
KMWK 090325Z AUTO 00000KT 10SM CLR 12/05 A2988 RMK AO2 T01220053,KMWK,2023-06-09T03:25:00Z,36.47,-80.55,12.2,5.3,0,0,,10.0,29.878937,,,TRUE,TRUE,,,,,,,CLR,,,,,,,,VFR,,,,,,,,,,,,METAR,374.0
KMRN 090325Z AUTO 00000KT 10SM CLR 12/08 A2988 RMK AO2 T01200082,KMRN,2023-06-09T03:25:00Z,35.82,-81.62,12.0,8.2,0,0,,10.0,29.878937,,,TRUE,TRUE,,,,,,,CLR,,,,,,,,VFR,,,,,,,,,,,,METAR,375.0
KJNX 090325Z AUTO 00000KT 10SM CLR 15/14 A2980 RMK AO2,KJNX,2023-06-09T03:25:00Z,35.53,-78.38,15.0,14.0,0,0,,10.0,29.799213,,,TRUE,TRUE,,,,,,,CLR,,,,,,,,VFR,,,,,,,,,,,,METAR,41.0
KJAU 090325Z AUTO 00000KT 10SM CLR 13/11 A2991 RMK A01,KJAU,2023-06-09T03:25:00Z,36.33,-84.17,13.0,11.0,0,0,,10.0,29.911417,,,TRUE,TRUE,,,,,,,CLR,,,,,,,,VFR,,,,,,,,,,,,SPECI,350.0
KISO 090325Z AUTO 00000KT 10SM CLR 16/13 A2981 RMK AO2 T01560133,KISO,2023-06-09T03:25:00Z,35.32,-77.62,15.6,13.3,0,0,,10.0,29.811024,,,TRUE,TRUE,,,,,,,CLR,,,,,,,,VFR,,,,,,,,,,,,METAR,27.0
KIPJ 090325Z AUTO 00000KT 10SM SCT100 13/11 A2985 RMK AO2 T01260108,KIPJ,2023-06-09T03:25:00Z,35.48,-81.17,12.6,10.8,0,0,,10.0,29.84941,,,TRUE,TRUE,,,,,,,SCT,10000,,,,,,,VFR,,,,,,,,,,,,METAR,266.0
KHRJ 090325Z AUTO 00000KT 10SM CLR 15/13 A2981 RMK AO2 T01520128,KHRJ,2023-06-09T03:25:00Z,35.38,-78.73,15.2,12.8,0,0,,10.0,29.811024,,,TRUE,TRUE,,,,,,,CLR,,,,,,,,VFR,,,,,,,,,,,,METAR,55.0
KHBI 090325Z AUTO 00000KT 10SM CLR 13/09 A2985 RMK AO2 T01250085,KHBI,2023-06-09T03:25:00Z,35.65,-79.9,12.5,8.5,0,0,,10.0,29.84941,,,TRUE,TRUE,,,,,,,CLR,,,,,,,,VFR,,,,,,,,,,,,METAR,199.0
KGEV 090325Z AUTO 32006KT 10SM CLR 12/02 A2992 RMK AO2 T01150024,KGEV,2023-06-09T03:25:00Z,36.43,-81.42,11.5,2.4,320,6,,10.0,29.920275,,,TRUE,TRUE,,,,,,,CLR,,,,,,,,VFR,,,,,,,,,,,,METAR,961.0
KFQD 090325Z AUTO 00000KT 10SM SCT090 17/05 A2987 RMK AO2,KFQD,2023-06-09T03:25:00Z,35.42,-81.93,17.0,5.0,0,0,,10.0,29.870079,,,TRUE,TRUE,,,,,,,SCT,9000,,,,,,,VFR,,,,,,,,,,,,METAR,325.0
KESN 090325Z AUTO 00000KT 9SM OVC120 15/12 A2977 RMK AO2 T01500118,KESN,2023-06-09T03:25:00Z,38.8,-76.07,15.0,11.8,0,0,,9.0,29.769686,,,TRUE,TRUE,,,,,,,OVC,12000,,,,,,,VFR,,,,,,,,,,,,METAR,14.0
KEHO 090325Z AUTO 02003KT 10SM SCT100 17/07 A2985 RMK AO2 T01660073,KEHO,2023-06-09T03:25:00Z,35.25,-81.6,16.6,7.3,20,3,,10.0,29.84941,,,TRUE,TRUE,,,,,,,SCT,10000,,,,,,,VFR,,,,,,,,,,,,METAR,261.0
KEDE 090325Z AUTO 00000KT 10SM CLR 15/15 A2981 RMK AO2 T01460146,KEDE,2023-06-09T03:25:00Z,36.03,-76.57,14.6,14.6,0,0,,10.0,29.811024,,,TRUE,TRUE,,,,,,,CLR,,,,,,,,VFR,,,,,,,,,,,,METAR,4.0
KDPL 090325Z AUTO 00000KT 7SM BR CLR 13/12 A2981 RMK AO2,KDPL,2023-06-09T03:25:00Z,35.0,-77.97,13.0,12.0,0,0,,7.0,29.811024,,,TRUE,TRUE,,,,,,BR,CLR,,,,,,,,VFR,,,,,,,,,,,,METAR,39.0
KDMW 090325Z AUTO 00000KT 10SM CLR 18/07 A2980 RMK AO2,KDMW,2023-06-09T03:25:00Z,39.6,-77.0,18.0,7.0,0,0,,10.0,29.799213,,,TRUE,TRUE,,,,,,,CLR,,,,,,,,VFR,,,,,,,,,,,,METAR,239.0
KCTZ 090325Z AUTO 00000KT 10SM CLR 16/14 A2981 RMK AO2 T01610136,KCTZ,2023-06-09T03:25:00Z,34.98,-78.37,16.1,13.6,0,0,,10.0,29.811024,,,TRUE,TRUE,,,,,,,CLR,,,,,,,,VFR,,,,,,,,,,,,METAR,43.0
KCPC 090325Z AUTO 00000KT 10SM CLR 16/13 A2981 RMK AO2 T01600133,KCPC,2023-06-09T03:25:00Z,34.28,-78.72,16.0,13.3,0,0,,10.0,29.811024,,,TRUE,TRUE,,,,,,,CLR,,,,,,,,VFR,,,,,,,,,,,,METAR,27.0
KCII 090325Z AUTO 36009KT 2 1/2SM BR 15/15 A2999 RMK A01 ,KCII,2023-06-09T03:25:00Z,47.83,-112.17,15.0,15.0,360,9,,2.5,29.991142,,,TRUE,TRUE,,,,,,BR,,,,,,,,,,,,,,,,,,,,,METAR,1202.0
KCGE 090325Z AUTO 00000KT 10SM BKN033 BKN043 OVC070 14/14 A2977 RMK A01,KCGE,2023-06-09T03:25:00Z,38.53,-76.03,14.0,14.0,0,0,,10.0,29.769686,,,TRUE,TRUE,,,,,,,BKN,3300,BKN,4300,OVC,7000,,,VFR,,,,,,,,,,,,METAR,5.0
KCBE 090325Z AUTO 01003KT 10SM OVC120 15/08 A2987 RMK AO2 T01540076,KCBE,2023-06-09T03:25:00Z,39.62,-78.77,15.4,7.6,10,3,,10.0,29.870079,,,TRUE,TRUE,,,,,,,OVC,12000,,,,,,,VFR,,,,,,,,,,,,METAR,226.0
KBAF 090325Z AUTO 00000KT 8SM BKN085 09/08 A2973 RMK AO2 T00940083,KBAF,2023-06-09T03:25:00Z,42.17,-72.72,9.4,8.3,0,0,,8.0,29.731298,,,TRUE,TRUE,,,,,,,BKN,8500,,,,,,,VFR,,,,,,,,,,,,SPECI,80.0
KASJ 090325Z AUTO 00000KT 5SM BR CLR 12/12 A2980 RMK AO2 T01190119,KASJ,2023-06-09T03:25:00Z,36.28,-77.17,11.9,11.9,0,0,,5.0,29.799213,,,TRUE,TRUE,,,,,,BR,CLR,,,,,,,,MVFR,,,,,,,,,,,,METAR,20.0
KACZ 090325Z AUTO 00000KT 7SM CLR 15/14 A2980 RMK AO2 T01470137,KACZ,2023-06-09T03:25:00Z,,,14.7,13.7,0,0,,7.0,29.799213,,,TRUE,TRUE,,,,,,,CLR,,,,,,,,VFR,,,,,,,,,,,,METAR,
K6S8 090325Z AUTO 05007KT 10SM 17/17 A2997 RMK A01 LAUREL,K6S8,2023-06-09T03:25:00Z,45.7,-108.77,17.0,17.0,50,7,,10.0,29.970472,,,TRUE,TRUE,,,,,,,,,,,,,,,,,,,,,,,,,,,METAR,1072.0
K4U6 090325Z AUTO 36005KT 10SM 18/16 A2988 RMK A01 P0002 Circle ,K4U6,2023-06-09T03:25:00Z,47.42,-105.57,18.0,16.0,360,5,,10.0,29.878937,,,TRUE,TRUE,,,,,,,,,,,,,,,,,,,,,0.02,,,,,,METAR,739.0
K2G4 090325Z AUTO 26004KT 10SM SCT080 11/06 A2987 RMK AO2,K2G4,2023-06-09T03:25:00Z,39.58,-79.33,11.0,6.0,260,4,,10.0,29.870079,,,TRUE,TRUE,,,,,,,SCT,8000,,,,,,,VFR,,,,,,,,,,,,METAR,908.0
K24A 090325Z AUTO 00000KT 10SM CLR 13/05 A2993 RMK AO2 T01340052,K24A,2023-06-09T03:25:00Z,35.32,-83.2,13.4,5.2,0,0,,10.0,29.929134,,,TRUE,TRUE,,,,,,,CLR,,,,,,,,VFR,,,,,,,,,,,,METAR,864.0
ETSI 090325Z 19003KT 0100 FG FEW060 11/10 Q1014 RED,ETSI,2023-06-09T03:25:00Z,48.72,11.53,11.0,10.0,190,3,,0.06,29.940945,,,,,,,,,,FG,FEW,6000,,,,,,,LIFR,,,,,,,,,,,,SPECI,366.0
EHWO 090325Z AUTO 06010KT 010V080 9999 NCD 14/10 Q1014 BLU,EHWO,2023-06-09T03:25:00Z,51.45,4.33,14.0,10.0,60,10,,6.21,29.940945,,,TRUE,,,,,,,,CLR,,,,,,,,VFR,,,,,,,,,,,,METAR,15.0
EHVL 090325Z AUTO 05012KT 9999 NCD 11/10 Q1017 BLU,EHVL,2023-06-09T03:25:00Z,53.28,5.08,11.0,10.0,50,12,,6.21,30.029528,,,TRUE,,,,,,,,CLR,,,,,,,,VFR,,,,,,,,,,,,SPECI,2.0
EHVK 090325Z AUTO 02003KT 9999 NCD 14/10 Q1014 BLU,EHVK,2023-06-09T03:25:00Z,51.65,5.7,14.0,10.0,20,3,,6.21,29.940945,,,TRUE,,,,,,,,CLR,,,,,,,,VFR,,,,,,,,,,,,SPECI,20.0
EHSC 090325Z AUTO 05019KT 9999 ///////// 14/13 Q1015 W15/H14,EHSC,2023-06-09T03:25:00Z,51.93,3.67,14.0,13.0,50,19,,6.21,29.970472,,,TRUE,,,,,,,,,,,,,,,,,,,,,,,,,,,,METAR,19.0
EHSA 090325Z AUTO 04019KT 9999 ///////// 14/11 Q1014 W12/H16,EHSA,2023-06-09T03:25:00Z,52.0,3.28,14.0,11.0,40,19,,6.21,29.940945,,,TRUE,,,,,,,,,,,,,,,,,,,,,,,,,,,,METAR,18.0
EHRD 090325Z AUTO 05009KT 020V080 9999 NCD 13/09 Q1014 NOSIG,EHRD,2023-06-09T03:25:00Z,51.95,4.45,13.0,9.0,50,9,,6.21,29.940945,,,TRUE,,,TRUE,,,,,CLR,,,,,,,,VFR,,,,,,,,,,,,METAR,-4.0
EHPG 090325Z AUTO 05024KT 9999 NCD 13/12 Q1015,EHPG,2023-06-09T03:25:00Z,52.37,3.35,13.0,12.0,50,24,,6.21,29.970472,,,TRUE,,,,,,,,CLR,,,,,,,,VFR,,,,,,,,,,,,METAR,24.0
EHMG 090325Z AUTO 05019KT 9999 FEW006 11/09 Q1018,EHMG,2023-06-09T03:25:00Z,53.62,4.97,11.0,9.0,50,19,,6.21,30.059055,,,TRUE,,,,,,,,FEW,600,,,,,,,VFR,,,,,,,,,,,,METAR,30.0
EHMA 090325Z AUTO 05016KT 9999 FEW006 12/10 Q1017,EHMA,2023-06-09T03:25:00Z,53.5,5.95,12.0,10.0,50,16,,6.21,30.029528,,,TRUE,,,,,,,,FEW,600,,,,,,,VFR,,,,,,,,,,,,METAR,27.0
EHLW 090325Z AUTO 05010KT 360V100 9999 FEW071 11/10 Q1017 BLU,EHLW,2023-06-09T03:25:00Z,53.22,5.75,11.0,10.0,50,10,,6.21,30.029528,,,TRUE,,,,,,,,FEW,7100,,,,,,,VFR,,,,,,,,,,,,SPECI,1.0
EHLE 090325Z AUTO 05008KT 9999 NSC 12/09 Q1016,EHLE,2023-06-09T03:25:00Z,52.45,5.52,12.0,9.0,50,8,,6.21,30.0,,,TRUE,,,,,,,,CLR,,,,,,,,VFR,,,,,,,,,,,,METAR,-3.0
EHKV 090325Z AUTO 05021KT 9999 FEW006 11/10 Q1017,EHKV,2023-06-09T03:25:00Z,53.27,3.63,11.0,10.0,50,21,,6.21,30.029528,,,TRUE,,,,,,,,FEW,600,,,,,,,VFR,,,,,,,,,,,,METAR,28.0
EHKD 090325Z AUTO 06014KT 9999 NCD 13/11 Q1016 BLU,EHKD,2023-06-09T03:25:00Z,52.92,4.77,13.0,11.0,60,14,,6.21,30.0,,,TRUE,,,,,,,,CLR,,,,,,,,VFR,,,,,,,,,,,,METAR,1.0
EHJR 090325Z AUTO 06018KT //// // ///////// 12/10 Q1017 RE// W13/H14,EHJR,2023-06-09T03:25:00Z,53.22,3.22,12.0,10.0,60,18,,,30.029528,,,TRUE,,,,,,,,,,,,,,,,,,,,,,,,,,,,METAR,31.0
EHJA 090325Z AUTO 04022KT 9999 BKN009/// BKN010/// 11/09 Q1018,EHJA,2023-06-09T03:25:00Z,53.82,2.95,11.0,9.0,40,22,,6.21,30.059055,,,TRUE,,,,,,,,BKN,900,BKN,1000,,,,,IFR,,,,,,,,,,,,METAR,34.0
EHHW 090325Z AUTO 05017KT 9999 BKN006/// 11/08 Q1018,EHHW,2023-06-09T03:25:00Z,54.03,6.03,11.0,8.0,50,17,,6.21,30.059055,,,TRUE,,,,,,,,BKN,600,,,,,,,IFR,,,,,,,,,,,,METAR,10.0
EHGR 090325Z AUTO 03006KT 340V070 9999 NCD 13/10 Q1014 BLU,EHGR,2023-06-09T03:25:00Z,51.55,4.93,13.0,10.0,30,6,,6.21,29.940945,,,TRUE,,,,,,,,CLR,,,,,,,,VFR,,,,,,,,,,,,SPECI,12.0
EHGG 090325Z AUTO 04008KT 010V070 9999 NCD 11/10 Q1017,EHGG,2023-06-09T03:25:00Z,53.12,6.57,11.0,10.0,40,8,,6.21,30.029528,,,TRUE,,,,,,,,CLR,,,,,,,,VFR,,,,,,,,,,,,METAR,2.0
EHFS 090325Z AUTO 04010KT 9999 NCD 15/11 Q1013,EHFS,2023-06-09T03:25:00Z,51.45,3.6,15.0,11.0,40,10,,6.21,29.911417,,,TRUE,,,,,,,,CLR,,,,,,,,VFR,,,,,,,,,,,,METAR,1.0
EHFD 090325Z AUTO 04011KT 9999 BKN009/// OVC010/// 10/08 Q1019,EHFD,2023-06-09T03:25:00Z,54.85,4.7,10.0,8.0,40,11,,6.21,30.088583,,,TRUE,,,,,,,,BKN,900,OVC,1000,,,,,IFR,,,,,,,,,,,,METAR,24.0
EHEH 090325Z AUTO 04006KT 010V070 9999 NCD 15/09 Q1014 BLU,EHEH,2023-06-09T03:25:00Z,51.45,5.38,15.0,9.0,40,6,,6.21,29.940945,,,TRUE,,,,,,,,CLR,,,,,,,,VFR,,,,,,,,,,,,METAR,20.0
EHDV 090325Z AUTO 04019KT 9999 BKN009/// 10/08 Q1019,EHDV,2023-06-09T03:25:00Z,54.32,2.93,10.0,8.0,40,19,,6.21,30.088583,,,TRUE,,,,,,,,BKN,900,,,,,,,IFR,,,,,,,,,,,,METAR,36.0
EHDL 090325Z AUTO VRB05KT 9999 NCD 12/09 Q1015 BLU,EHDL,2023-06-09T03:25:00Z,52.07,5.88,12.0,9.0,0,5,,6.21,29.970472,,,TRUE,,,,,,,,CLR,,,,,,,,VFR,,,,,,,,,,,,METAR,49.0
EHBK 090325Z AUTO 06007KT 9999 NCD 14/12 Q1013,EHBK,2023-06-09T03:25:00Z,50.92,5.77,14.0,12.0,60,7,,6.21,29.911417,,,TRUE,,,,,,,,CLR,,,,,,,,VFR,,,,,,,,,,,,METAR,112.0
EHAM 090325Z 05010KT 010V080 CAVOK 14/10 Q1015 NOSIG,EHAM,2023-06-09T03:25:00Z,52.32,4.78,14.0,10.0,50,10,,6.21,29.970472,,,,,,TRUE,,,,,CAVOK,,,,,,,,VFR,,,,,,,,,,,,METAR,-2.0
EHAK 090325Z AUTO 05013KT 9999 OVC012/// 10/07 Q1020,EHAK,2023-06-09T03:25:00Z,55.38,3.82,10.0,7.0,50,13,,6.21,30.11811,,,TRUE,,,,,,,,OVC,1200,,,,,,,MVFR,,,,,,,,,,,,METAR,33.0
EBLB 090325Z AUTO VRB02KT 9999 NCD 08/08 Q1015 BLU,EBLB,2023-06-09T03:25:00Z,50.47,6.17,8.0,8.0,0,2,,6.21,29.970472,,,TRUE,,,,,,,,CLR,,,,,,,,VFR,,,,,,,,,,,,METAR,563.0
EBFS 090325Z AUTO 10004KT 9999 BKN160/// 14/11 Q1013 BLU,EBFS,2023-06-09T03:25:00Z,50.23,4.65,14.0,11.0,100,4,,6.21,29.911417,,,TRUE,,,,,,,,BKN,16000,,,,,,,VFR,,,,,,,,,,,,METAR,276.0
EBFN 090325Z AUTO 05006KT 9999 NCD 14/12 Q1013 BLU,EBFN,2023-06-09T03:25:00Z,51.08,2.65,14.0,12.0,50,6,,6.21,29.911417,,,TRUE,,,,,,,,CLR,,,,,,,,VFR,,,,,,,,,,,,METAR,9.0
EBDT 090325Z AUTO 03004KT 9999 NCD 15/12 Q1013 BLU,EBDT,2023-06-09T03:25:00Z,51.02,5.07,15.0,12.0,30,4,,6.21,29.911417,,,TRUE,,,,,,,,CLR,,,,,,,,VFR,,,,,,,,,,,,METAR,25.0
EBCV 090325Z AUTO 07004KT 9999 FEW085/// BKN100/// BKN120/// 15/13 Q1012 BLU,EBCV,2023-06-09T03:25:00Z,50.57,3.82,15.0,13.0,70,4,,6.21,29.88189,,,TRUE,,,,,,,,FEW,8500,BKN,10000,BKN,12000,,,VFR,,,,,,,,,,,,METAR,56.0
EBBL 090325Z AUTO 05005KT 9999 NCD 15/12 Q1014 BLU,EBBL,2023-06-09T03:25:00Z,51.17,5.47,15.0,12.0,50,5,,6.21,29.940945,,,TRUE,,,,,,,,CLR,,,,,,,,VFR,,,,,,,,,,,,METAR,50.0
EBBE 090325Z AUTO 09003KT 9999 NCD 15/12 Q1013 BLU,EBBE,2023-06-09T03:25:00Z,50.75,4.77,15.0,12.0,90,3,,6.21,29.911417,,,TRUE,,,,,,,,CLR,,,,,,,,VFR,,,,,,,,,,,,METAR,127.0
CYXX 090325Z 22010KT 30SM FEW140 SCT220 BKN240 19/09 A2990 RMK AC1CC4CI3 AC TR HZ SLP126 DENSITY ALT 800FT,CYXX,2023-06-09T03:25:00Z,49.03,-122.38,19.0,9.0,220,10,,30.0,29.899607,1012.6,,,,,,,,,,FEW,14000,SCT,22000,BKN,24000,,,VFR,,,,,,,,,,,,SPECI,54.0
UTO8 M M M 072/23/01/1407/M/M SOG 02 1003 23MM,UTO8,2023-06-09T03:24:09Z,,,,,,,,,,,,,,,,,,,,,,,,,,,,,,,,,,,,,,,,METAR,
PAKN 090324Z 17008KT 1 1/4SM R12/5000VP6000FT -RA BR FEW005 BKN014 OVC030 12/10 A2947 RMK AO2 RAB12 P0002 T01170100,PAKN,2023-06-09T03:24:00Z,58.68,-156.65,11.7,10.0,170,8,,1.25,29.471457,,,,TRUE,,,,,,-RA BR,FEW,500,BKN,1400,OVC,3000,,,IFR,,,,,,0.02,,,,,,SPECI,20.0
KVVV 090324Z AUTO 13006KT 10SM CLR 22/17 A2989 RMK AO2,KVVV,2023-06-09T03:24:00Z,45.3,-96.42,22.0,17.0,130,6,,10.0,29.890747,,,TRUE,TRUE,,,,,,,CLR,,,,,,,,VFR,,,,,,,,,,,,METAR,334.0
KGTF 090324Z 17003KT 4SM RA BR FEW043 BKN060 OVC070 15/14 A2998 RMK AO2 LTG DSNT E TSB06E08B15E17B18E19B23E24 P0009 T01500144,KGTF,2023-06-09T03:24:00Z,47.47,-111.38,15.0,14.4,170,3,,4.0,29.97933,,,,TRUE,,,,,,RA BR,FEW,4300,BKN,6000,OVC,7000,,,MVFR,,,,,,0.09,,,,,,SPECI,1117.0
KDVL 090324Z AUTO 20011KT 10SM -RA FEW065 BKN090 OVC110 19/17 A2988 RMK AO2 LTG DSNT SE-SW TSE05B06E12B23E24 P0003,KDVL,2023-06-09T03:24:00Z,48.12,-98.92,19.0,17.0,200,11,,10.0,29.878937,,,TRUE,TRUE,,,,,,-RA,FEW,6500,BKN,9000,OVC,11000,,,VFR,,,,,,0.03,,,,,,SPECI,439.0
PHNG 090323Z 07006KT 10SM FEW020 BKN028 BKN043 28/22 A3003 RMK AO2 T02780217 $,PHNG,2023-06-09T03:23:00Z,21.43,-157.77,27.8,21.7,70,6,,10.0,30.029528,,,,TRUE,TRUE,,,,,,FEW,2000,BKN,2800,BKN,4300,,,MVFR,,,,,,,,,,,,SPECI,1.0
PADQ 090323Z 10005KT 10SM FEW012 BKN044 OVC050 09/08 A2957 RMK AO2 T00940078,PADQ,2023-06-09T03:23:00Z,57.75,-152.5,9.4,7.8,100,5,,10.0,29.568897,,,,TRUE,,,,,,,FEW,1200,BKN,4400,OVC,5000,,,VFR,,,,,,,,,,,,SPECI,5.0
LTAD 090323Z VRB02KT 9999 SCT040 BKN100 15/12 Q1013 RESHRA NOSIG RMK RWY29 00000KT,LTAD,2023-06-09T03:23:00Z,39.95,32.68,15.0,12.0,0,2,,6.21,29.911417,,,,,,TRUE,,,,,SCT,4000,BKN,10000,,,,,VFR,,,,,,,,,,,,SPECI,813.0
KSYN 090323Z AUTO 12003KT 10SM CLR 20/06 A2993 RMK AO2,KSYN,2023-06-09T03:23:00Z,44.47,-93.02,20.0,6.0,120,3,,10.0,29.929134,,,TRUE,TRUE,,,,,,,CLR,,,,,,,,VFR,,,,,,,,,,,,SPECI,280.0
KEVM 090323Z AUTO 00000KT 10SM CLR 10/06 A2998 RMK AO2,KEVM,2023-06-09T03:23:00Z,47.42,-92.5,10.0,6.0,0,0,,10.0,29.97933,,,TRUE,TRUE,,,,,,,CLR,,,,,,,,VFR,,,,,,,,,,,,SPECI,419.0
KAPA 090323Z 22003KT 8SM -TSRA SCT036CB BKN075 OVC090 09/09 A3013 RMK AO2 GRE01 OCNL LTGICCG OHD TS OHD MOV NE P0047 T00940089,KAPA,2023-06-09T03:23:00Z,39.57,-104.85,9.4,8.9,220,3,,8.0,30.129921,,,,TRUE,,,,,,-TSRA,SCT,3600,BKN,7500,OVC,9000,,,VFR,,,,,,0.47,,,,,,SPECI,1791.0
CYYW 090323Z AUTO 00000KT 6SM HZ BKN240 13/05 A2989 RMK SLP121,CYYW,2023-06-09T03:23:00Z,50.3,-88.9,13.0,5.0,0,0,,6.0,29.890747,1012.1,,TRUE,,,,,,,HZ,BKN,24000,,,,,,,VFR,,,,,,,,,,,,SPECI,320.0
PAIM 090322Z AUTO 13009KT 10SM TS FEW070 BKN100 19/06 A2959 RMK AO2 SLP010,PAIM,2023-06-09T03:22:00Z,66.0,-153.7,19.0,6.0,130,9,,10.0,29.589567,1001.0,,TRUE,TRUE,,,,,,TS,FEW,7000,BKN,10000,,,,,VFR,,,,,,,,,,,,SPECI,309.0
KLCI 090322Z AUTO 00000KT 10SM SCT002 OVC065 A2973 RMK AO2 FZRANO $,KLCI,2023-06-09T03:22:00Z,43.57,-71.42,,,0,0,,10.0,29.731298,,,TRUE,TRUE,TRUE,,,TRUE,,,SCT,200,OVC,6500,,,,,VFR,,,,,,,,,,,,SPECI,166.0
KCEC 090322Z AUTO 18003KT 6SM BR OVC009 11/11 A3008 RMK AO2 T01110106,KCEC,2023-06-09T03:22:00Z,41.78,-124.23,11.1,10.6,180,3,,6.0,30.079725,,,TRUE,TRUE,,,,,,BR,OVC,900,,,,,,,IFR,,,,,,,,,,,,SPECI,17.0
KAIT 090322Z AUTO 00000KT 10SM CLR 13/08 A2995 RMK AO2,KAIT,2023-06-09T03:22:00Z,46.53,-93.67,13.0,8.0,0,0,,10.0,29.949802,,,TRUE,TRUE,,,,,,,CLR,,,,,,,,VFR,,,,,,,,,,,,SPECI,367.0
KAIA 090322Z AUTO 29006KT 10SM FEW002 17/11 A2996 RMK AO2 LTG DSNT NW T01720111,KAIA,2023-06-09T03:22:00Z,42.05,-102.8,17.2,11.1,290,6,,10.0,29.958662,,,TRUE,TRUE,,,,,,,FEW,200,,,,,,,VFR,,,,,,,,,,,,SPECI,1198.0
CYYB 090322Z AUTO 36004KT 9SM BKN071 BKN096 14/10 A2981 RMK SLP100 DENSITY ALT 1500FT,CYYB,2023-06-09T03:22:00Z,46.35,-79.42,14.0,10.0,360,4,,9.0,29.811024,1010.0,,TRUE,,,,,,,,BKN,7100,BKN,9600,,,,,VFR,,,,,,,,,,,,SPECI,360.0
PAAK 090321Z AUTO 32014KT 10SM BKN027 OVC033 07/04 A2939 RMK AO2,PAAK,2023-06-09T03:21:00Z,52.22,-174.2,7.0,4.0,320,14,,10.0,29.388779,,,TRUE,TRUE,,,,,,,BKN,2700,OVC,3300,,,,,MVFR,,,,,,,,,,,,SPECI,11.0
MRLB 090321Z 16003KT 4000 BR SCT001 OVC100 25/24 A2993,MRLB,2023-06-09T03:21:00Z,10.6,-85.55,25.0,24.0,160,3,,2.49,29.929134,,,,,,,,,,BR,SCT,100,OVC,10000,,,,,IFR,,,,,,,,,,,,SPECI,79.0
KTRK 090321Z AUTO 22003KT 10SM OVC033 13/08 A3015 RMK AO2 LTG DSNT NE,KTRK,2023-06-09T03:21:00Z,39.32,-120.13,13.0,8.0,220,3,,10.0,30.15059,,,TRUE,TRUE,,,,,,,OVC,3300,,,,,,,VFR,,,,,,,,,,,,SPECI,1800.0
KSLR 090321Z AUTO 22004KT 10SM CLR 24/19 A2985 RMK AO2,KSLR,2023-06-09T03:21:00Z,33.17,-95.62,24.0,19.0,220,4,,10.0,29.84941,,,TRUE,TRUE,,,,,,,CLR,,,,,,,,VFR,,,,,,,,,,,,SPECI,144.0
KSBY 090321Z AUTO 02004KT 5SM BR BKN047 12/11 A2977 RMK AO2 T01170106,KSBY,2023-06-09T03:21:00Z,38.33,-75.5,11.7,10.6,20,4,,5.0,29.769686,,,TRUE,TRUE,,,,,,BR,BKN,4700,,,,,,,MVFR,,,,,,,,,,,,SPECI,14.0
KRUT 090321Z AUTO 00000KT 10SM SCT019 BKN080 11/11 A2975 RMK AO2 $,KRUT,2023-06-09T03:21:00Z,43.53,-72.95,11.0,11.0,0,0,,10.0,29.749016,,,TRUE,TRUE,TRUE,,,,,,SCT,1900,BKN,8000,,,,,VFR,,,,,,,,,,,,SPECI,238.0
KOXB 090321Z AUTO 00000KT 3SM BR FEW055 12/11 A2978 RMK AO2 T01170106,KOXB,2023-06-09T03:21:00Z,38.32,-75.12,11.7,10.6,0,0,,3.0,29.778543,,,TRUE,TRUE,,,,,,BR,FEW,5500,,,,,,,MVFR,,,,,,,,,,,,SPECI,2.0
KCRQ 090321Z AUTO 28004KT 10SM BKN016 17/13 A3002 RMK AO2 T01720133,KCRQ,2023-06-09T03:21:00Z,33.13,-117.28,17.2,13.3,280,4,,10.0,30.02067,,,TRUE,TRUE,,,,,,,BKN,1600,,,,,,,MVFR,,,,,,,,,,,,SPECI,96.0
CYER 090321Z AUTO 22006KT 9SM -RA FEW043 SCT060 BKN076 OVC110 19/15 A2971 RMK LTNG DIST W NW SLP063 DENSITY ALT 800FT,CYER,2023-06-09T03:21:00Z,56.02,-87.68,19.0,15.0,220,6,,9.0,29.71063,1006.3,,TRUE,,,,,,,-RA,FEW,4300,SCT,6000,BKN,7600,OVC,11000,VFR,,,,,,,,,,,,SPECI,11.0
SBCJ 090320Z 00000KT CAVOK 20/19 Q1019,SBCJ,2023-06-09T03:20:00Z,-6.12,-50.0,20.0,19.0,0,0,,6.21,30.088583,,,,,,,,,,,CAVOK,,,,,,,,VFR,,,,,,,,,,,,SPECI,634.0
PKWA 090320Z AUTO 09012KT 10SM SCT019 SCT027 SCT033 31/25 A2977 RMK AO2 T03130253 TSNO,PKWA,2023-06-09T03:20:00Z,8.72,167.72,31.3,25.3,90,12,,10.0,29.769686,,,TRUE,TRUE,,,TRUE,,,,SCT,1900,SCT,2700,SCT,3300,,,VFR,,,,,,,,,,,,SPECI,6.0
LXGB 090320Z AUTO 21007KT 9999 -DZ SCT007/// OVC028/// 20/18 Q1012,LXGB,2023-06-09T03:20:00Z,36.15,-5.33,20.0,18.0,210,7,,6.21,29.88189,,,TRUE,,,,,,,-DZ,SCT,700,OVC,2800,,,,,MVFR,,,,,,,,,,,,METAR,5.0
LTFM 090320Z 02013KT 9999 BKN007 BKN022 19/16 Q1012 NOSIG RMK RWY17L 02013KT RWY34L 01014KT RWY16R 01011KT RWY36 02013KT RWY18 02011KT,LTFM,2023-06-09T03:20:00Z,41.27,28.75,19.0,16.0,20,13,,6.21,29.88189,,,,,,TRUE,,,,,BKN,700,BKN,2200,,,,,IFR,,,,,,,,,,,,METAR,99.0
LTFJ 090320Z 05006KT 9999 BKN024 18/17 Q1012 NOSIG RMK RWY24 05004KT,LTFJ,2023-06-09T03:20:00Z,40.9,29.3,18.0,17.0,50,6,,6.21,29.88189,,,,,,TRUE,,,,,BKN,2400,,,,,,,MVFR,,,,,,,,,,,,METAR,83.0
LTFE 090320Z 36002KT 6000 FEW035 SCT100 18/17 Q1009 NOSIG RMK RWY10 VRB01KT,LTFE,2023-06-09T03:20:00Z,37.25,27.67,18.0,17.0,360,2,,3.73,29.793306,,,,,,TRUE,,,,,FEW,3500,SCT,10000,,,,,MVFR,,,,,,,,,,,,METAR,6.0
LTFC 090320Z 34004KT 9999 SCT035 BKN080 14/13 Q1012 RMK RWY23 VRB02KT,LTFC,2023-06-09T03:20:00Z,37.87,30.38,14.0,13.0,340,4,,6.21,29.88189,,,,,,,,,,,SCT,3500,BKN,8000,,,,,VFR,,,,,,,,,,,,METAR,862.0
LTCS 090320Z 34005KT 9999 SCT040 BKN100 24/10 Q1010 RMK RWY22 32004KT 290V360 3CU040 6AC100,LTCS,2023-06-09T03:20:00Z,37.45,38.9,24.0,10.0,340,5,,6.21,29.822834,,,,,,,,,,,SCT,4000,BKN,10000,,,,,VFR,,,,,,,,,,,,METAR,825.0
LTCJ 090320Z 02007KT 9999 FEW040 BKN200 21/12 Q1009 NOSIG RMK RWY20 36007KT 1CU040 5CI200,LTCJ,2023-06-09T03:20:00Z,37.93,41.12,21.0,12.0,20,7,,6.21,29.793306,,,,,,TRUE,,,,,FEW,4000,BKN,20000,,,,,VFR,,,,,,,,,,,,METAR,559.0
LTCG 090320Z 00000KT 9999 SCT035 BKN180 20/18 Q1010 NOSIG RMK RWY29 30002KT,LTCG,2023-06-09T03:20:00Z,41.0,39.77,20.0,18.0,0,0,,6.21,29.822834,,,,,,TRUE,,,,,SCT,3500,BKN,18000,,,,,VFR,,,,,,,,,,,,METAR,28.0
LTCE 090320Z 08011KT CAVOK 15/09 Q1019 NOSIG RMK RWY08R 15003KT 090V180 RWY26R 08013KT RWY08L VRB02KT 2AC080,LTCE,2023-06-09T03:20:00Z,39.95,41.17,15.0,9.0,80,11,,6.21,30.088583,,,,,,TRUE,,,,,CAVOK,,,,,,,,VFR,,,,,,,,,,,,METAR,1758.0
LTCC 090320Z 34004KT 260V020 CAVOK 22/11 Q1010 NOSIG RMK RWY16 VRB02KT 5AC100,LTCC,2023-06-09T03:20:00Z,37.88,40.2,22.0,11.0,340,4,,6.21,29.822834,,,,,,TRUE,,,,,CAVOK,,,,,,,,VFR,,,,,,,,,,,,METAR,676.0
LTBU 090320Z 35005KT 9999 BKN020 17/15 Q1012 RMK RWY22 36006KT,LTBU,2023-06-09T03:20:00Z,41.13,27.92,17.0,15.0,350,5,,6.21,29.88189,,,,,,,,,,,BKN,2000,,,,,,,MVFR,,,,,,,,,,,,METAR,165.0
LTBS 090320Z 35002KT CAVOK 19/18 Q1008 NOSIG RMK RWY19 34002KT 3CI180,LTBS,2023-06-09T03:20:00Z,36.7,28.78,19.0,18.0,350,2,,6.21,29.763779,,,,,,TRUE,,,,,CAVOK,,,,,,,,VFR,,,,,,,,,,,,METAR,2.0
LTBR 090320Z VRB01KT 7000 FEW015 SCT030 18/17 Q1011 NOSIG RMK RWY07 26003KT 210V290,LTBR,2023-06-09T03:20:00Z,40.25,29.57,18.0,17.0,0,1,,4.35,29.852362,,,,,,TRUE,,,,,FEW,1500,SCT,3000,,,,,MVFR,,,,,,,,,,,,METAR,233.0
LTBJ 090320Z 18002KT 6000 SCT030 BKN100 16/16 Q1010 NOSIG RMK RWY16 00000KT,LTBJ,2023-06-09T03:20:00Z,38.28,27.15,16.0,16.0,180,2,,3.73,29.822834,,,,,,TRUE,,,,,SCT,3000,BKN,10000,,,,,MVFR,,,,,,,,,,,,METAR,123.0
LTBA 090320Z 05009KT 9999 BKN028 BKN100 19/15 Q1011 RMK RWY23 05009KT,LTBA,2023-06-09T03:20:00Z,40.97,28.82,19.0,15.0,50,9,,6.21,29.852362,,,,,,,,,,,BKN,2800,BKN,10000,,,,,MVFR,,,,,,,,,,,,METAR,33.0
LTAZ 090320Z 13004KT 9999 SCT035 BKN090 15/12 Q1012 RMK RWY29 19003KT 160V230,LTAZ,2023-06-09T03:20:00Z,38.77,34.52,15.0,12.0,130,4,,6.21,29.88189,,,,,,,,,,,SCT,3500,BKN,9000,,,,,VFR,,,,,,,,,,,,METAR,944.0
LTAU 090320Z 09008KT 9999 FEW040 SCT100 17/12 Q1012 NOSIG RMK RWY07 04009KT,LTAU,2023-06-09T03:20:00Z,38.77,35.48,17.0,12.0,90,8,,6.21,29.88189,,,,,,TRUE,,,,,FEW,4000,SCT,10000,,,,,VFR,,,,,,,,,,,,METAR,1053.0
LTAT 090320Z 27001KT 9999 BKN035 BKN100 19/14 Q1012 NOSIG RMK RWY03 25003KT 170V300,LTAT,2023-06-09T03:20:00Z,38.43,38.08,19.0,14.0,270,1,,6.21,29.88189,,,,,,TRUE,,,,,BKN,3500,BKN,10000,,,,,VFR,,,,,,,,,,,,METAR,850.0
LTAP 090320Z VRB01KT 6000 -SHRA FEW033CB SCT040 BKN090 16/15 Q1012 NOSIG RMK RWY23 31004KT 290V020,LTAP,2023-06-09T03:20:00Z,40.83,35.52,16.0,15.0,0,1,,3.73,29.88189,,,,,,TRUE,,,,-SHRA,FEW,3300,SCT,4000,BKN,9000,,,MVFR,,,,,,,,,,,,METAR,536.0
LTAJ 090320Z 00000KT 9999 FEW040 BKN120 23/12 Q1009 RESHRA NOSIG RMK RWY10 VRB06KT 2CU040 5AC120,LTAJ,2023-06-09T03:20:00Z,36.95,37.48,23.0,12.0,0,0,,6.21,29.793306,,,,,,TRUE,,,,,FEW,4000,BKN,12000,,,,,VFR,,,,,,,,,,,,METAR,684.0
LTAI 090320Z VRB04KT CAVOK 21/16 Q1008 NOSIG RMK RWY18C 32004KT RWY36R 36004KT RWY18L VRB02KT,LTAI,2023-06-09T03:20:00Z,36.9,30.8,21.0,16.0,0,4,,6.21,29.763779,,,,,,TRUE,,,,,CAVOK,,,,,,,,VFR,,,,,,,,,,,,METAR,50.0
LTAG 090320Z 02008KT 0400 R05/0400N R23/0400N FG VV004 20/20 Q1007 BECMG TL0500 4000 BR RMK,LTAG,2023-06-09T03:20:00Z,37.0,35.42,20.0,20.0,20,8,,0.25,29.734253,,,,,,,,,,FG,OVX,0,,,,,,,LIFR,,,,,,,,,,,400,METAR,62.0
LTAF 090320Z VRB01KT 4500 BR FEW007 BKN200 22/21 Q1007 BECMG TL0420 9999 NSW RMK RWY23 26002KT 1ST007 5CI200,LTAF,2023-06-09T03:20:00Z,36.98,35.28,22.0,21.0,0,1,,2.8,29.734253,,,,,,,,,,BR,FEW,700,BKN,20000,,,,,IFR,,,,,,,,,,,,METAR,19.0
LTAC 090320Z 21002KT 9999 FEW040 SCT180 13/09 Q1012 NOSIG RMK RWY21L 00000KT RWY03L VRB01KT RWY21R VRB01KT,LTAC,2023-06-09T03:20:00Z,40.12,32.98,13.0,9.0,210,2,,6.21,29.88189,,,,,,TRUE,,,,,FEW,4000,SCT,18000,,,,,VFR,,,,,,,,,,,,METAR,952.0
LSZS 090320Z AUTO 14002KT 0250 FG VV001 05/05 Q1018,LSZS,2023-06-09T03:20:00Z,46.53,9.88,5.0,5.0,140,2,,0.16,30.059055,,,TRUE,,,,,,,FG,OVX,0,,,,,,,LIFR,,,,,,,,,,,100,METAR,1708.0
LSZR 090320Z AUTO VRB01KT CAVOK 11/11 Q1013,LSZR,2023-06-09T03:20:00Z,47.48,9.57,11.0,11.0,0,1,,6.21,29.911417,,,TRUE,,,,,,,,CAVOK,,,,,,,,VFR,,,,,,,,,,,,METAR,396.0
LSZL 090320Z AUTO 08003KT 9999NDV FEW062 BKN130 16/14 Q1013 RMK,LSZL,2023-06-09T03:20:00Z,46.17,8.88,16.0,14.0,80,3,,,29.911417,,,TRUE,,,,,,,,FEW,6200,BKN,13000,,,,,,,,,,,,,,,,,SPECI,198.0
LSZH 090320Z AUTO VRB01KT CAVOK 11/10 Q1013 NOSIG,LSZH,2023-06-09T03:20:00Z,47.48,8.53,11.0,10.0,0,1,,6.21,29.911417,,,TRUE,,,TRUE,,,,,CAVOK,,,,,,,,VFR,,,,,,,,,,,,METAR,424.0
LSZG 090320Z AUTO 05004KT CAVOK 11/11 Q1013,LSZG,2023-06-09T03:20:00Z,47.17,7.42,11.0,11.0,50,4,,6.21,29.911417,,,TRUE,,,,,,,,CAVOK,,,,,,,,VFR,,,,,,,,,,,,METAR,428.0
LSZC 090320Z AUTO 28003KT CAVOK 13/10 Q1013,LSZC,2023-06-09T03:20:00Z,46.97,8.38,13.0,10.0,280,3,,6.21,29.911417,,,TRUE,,,,,,,,CAVOK,,,,,,,,VFR,,,,,,,,,,,,METAR,445.0
LSZB 090320Z AUTO 09005KT CAVOK 11/10 Q1013,LSZB,2023-06-09T03:20:00Z,46.92,7.5,11.0,10.0,90,5,,6.21,29.911417,,,TRUE,,,,,,,,CAVOK,,,,,,,,VFR,,,,,,,,,,,,METAR,510.0
LSZA 090320Z AUTO VRB01KT 9999 -RA BR BKN100 16/15 Q1013,LSZA,2023-06-09T03:20:00Z,46.0,8.92,16.0,15.0,0,1,,6.21,29.911417,,,TRUE,,,,,,,-RA BR,BKN,10000,,,,,,,VFR,,,,,,,,,,,,METAR,276.0
LSMP 090320Z AUTO 00000KT 9999NDV NCD 12/10 Q1013 RMK,LSMP,2023-06-09T03:20:00Z,46.83,6.92,12.0,10.0,0,0,,,29.911417,,,TRUE,,,,,,,,CLR,,,,,,,,,,,,,,,,,,,,METAR,490.0
LSMM 090320Z AUTO 00000KT 9999NDV FEW210 10/10 Q1014 RMK,LSMM,2023-06-09T03:20:00Z,46.75,8.12,10.0,10.0,0,0,,,29.940945,,,TRUE,,,,,,,,FEW,21000,,,,,,,,,,,,,,,,,,,METAR,570.0
LSME 090320Z AUTO 00000KT 7000NDV NCD 11/// Q1013 RMK,LSME,2023-06-09T03:20:00Z,47.1,8.3,,,0,0,,,29.911417,,,TRUE,,,,,,,,CLR,,,,,,,,,,0.0,,,,,,,,,,METAR,427.0
LSMD 090320Z AUTO 00000KT 9999NDV NCD 11/11 Q1013 RMK,LSMD,2023-06-09T03:20:00Z,47.4,8.65,11.0,11.0,0,0,,,29.911417,,,TRUE,,,,,,,,CLR,,,,,,,,,,,,,,,,,,,,METAR,436.0
LSMA 090320Z AUTO VRB02KT 9999NDV NCD 10/08 Q1013 RMK,LSMA,2023-06-09T03:20:00Z,46.95,8.28,10.0,8.0,0,2,,,29.911417,,,TRUE,,,,,,,,CLR,,,,,,,,,,,,,,,,,,,,METAR,441.0
LSGS 090320Z AUTO 11002KT CAVOK 16/11 Q1014,LSGS,2023-06-09T03:20:00Z,46.22,7.32,16.0,11.0,110,2,,6.21,29.940945,,,TRUE,,,,,,,,CAVOK,,,,,,,,VFR,,,,,,,,,,,,METAR,482.0
LSGG 090320Z AUTO VRB02KT CAVOK 14/13 Q1012 NOSIG,LSGG,2023-06-09T03:20:00Z,46.25,6.12,14.0,13.0,0,2,,6.21,29.88189,,,TRUE,,,TRUE,,,,,CAVOK,,,,,,,,VFR,,,,,,,,,,,,METAR,411.0
LSGC 090320Z AUTO VRB01KT 9999 NSC 08/08 Q1014,LSGC,2023-06-09T03:20:00Z,47.08,6.8,8.0,8.0,0,1,,6.21,29.940945,,,TRUE,,,,,,,,CLR,,,,,,,,VFR,,,,,,,,,,,,METAR,1018.0
LOWW 090320Z 35003KT 9999 FEW042 16/14 Q1013 NOSIG,LOWW,2023-06-09T03:20:00Z,48.12,16.57,16.0,14.0,350,3,,6.21,29.911417,,,,,,TRUE,,,,,FEW,4200,,,,,,,VFR,,,,,,,,,,,,METAR,179.0
LOWS 090320Z AUTO 13002KT 9999 FEW050 11/10 Q1014,LOWS,2023-06-09T03:20:00Z,47.78,13.02,11.0,10.0,130,2,,6.21,29.940945,,,TRUE,,,,,,,,FEW,5000,,,,,,,VFR,,,,,,,,,,,,METAR,427.0
LOWL 090320Z AUTO 25004KT 9999 FEW042 SCT044 14/13 Q1014 TEMPO SHRA,LOWL,2023-06-09T03:20:00Z,48.22,14.18,14.0,13.0,250,4,,6.21,29.940945,,,TRUE,,,,,,,,FEW,4200,SCT,4400,,,,,VFR,,,,,,,,,,,,METAR,290.0
LOWK 090320Z AUTO 32003KT 280V340 9999 FEW009 SCT011 12/12 Q1014,LOWK,2023-06-09T03:20:00Z,46.65,14.32,12.0,12.0,320,3,,6.21,29.940945,,,TRUE,,,,,,,,FEW,900,SCT,1100,,,,,VFR,,,,,,,,,,,,METAR,450.0
LOWI 090320Z AUTO VRB01KT 9999 NCD 11/09 Q1015,LOWI,2023-06-09T03:20:00Z,47.27,11.33,11.0,9.0,0,1,,6.21,29.970472,,,TRUE,,,,,,,,CLR,,,,,,,,VFR,,,,,,,,,,,,METAR,570.0
LOWG 090320Z AUTO VRB02KT 0700 R16/1000D R34/0650D BCFG BKN001 13/13 Q1013,LOWG,2023-06-09T03:20:00Z,47.0,15.43,13.0,13.0,0,2,,0.43,29.911417,,,TRUE,,,,,,,BCFG,BKN,100,,,,,,,LIFR,,,,,,,,,,,,METAR,337.0
LLBG 090320Z VRB05KT 9999 FEW050TCU 25/18 Q1007 RETSRA RMK BKN070,LLBG,2023-06-09T03:20:00Z,32.0,34.88,25.0,18.0,0,5,,6.21,29.734253,,,,,,,,,,,FEW,5000,,,,,,,VFR,,,,,,,,,,,,METAR,35.0
LIRZ 090320Z AUTO 08003KT 9999 NCD 16/15 Q1013,LIRZ,2023-06-09T03:20:00Z,43.1,12.5,16.0,15.0,80,3,,6.21,29.911417,,,TRUE,,,,,,,,CLR,,,,,,,,VFR,,,,,,,,,,,,METAR,206.0
LIRQ 090320Z 18003KT CAVOK 16/15 Q1013,LIRQ,2023-06-09T03:20:00Z,43.8,11.2,16.0,15.0,180,3,,6.21,29.911417,,,,,,,,,,,CAVOK,,,,,,,,VFR,,,,,,,,,,,,METAR,33.0
LIRN 090320Z VRB01KT CAVOK 19/17 Q1014 NOSIG,LIRN,2023-06-09T03:20:00Z,40.88,14.3,19.0,17.0,0,1,,6.21,29.940945,,,,,,TRUE,,,,,CAVOK,,,,,,,,VFR,,,,,,,,,,,,METAR,76.0
LIRF 090320Z 10003KT 9999 SCT030 17/17 Q1013 NOSIG,LIRF,2023-06-09T03:20:00Z,41.78,12.23,17.0,17.0,100,3,,6.21,29.911417,,,,,,TRUE,,,,,SCT,3000,,,,,,,VFR,,,,,,,,,,,,METAR,2.0
LIRA 090320Z VRB01KT CAVOK 17/15 Q1013,LIRA,2023-06-09T03:20:00Z,41.8,12.58,17.0,15.0,0,1,,6.21,29.911417,,,,,,,,,,,CAVOK,,,,,,,,VFR,,,,,,,,,,,,METAR,101.0
LIPZ 090320Z 01005KT CAVOK 17/16 Q1011 NOSIG,LIPZ,2023-06-09T03:20:00Z,45.5,12.35,17.0,16.0,10,5,,6.21,29.852362,,,,,,TRUE,,,,,CAVOK,,,,,,,,VFR,,,,,,,,,,,,METAR,3.0
LIPY 090320Z AUTO 00000KT 9999 NCD 17/16 Q1011,LIPY,2023-06-09T03:20:00Z,43.62,13.37,17.0,16.0,0,0,,6.21,29.852362,,,TRUE,,,,,,,,CLR,,,,,,,,VFR,,,,,,,,,,,,METAR,11.0
LIPX 090320Z 35005KT 9999 FEW050 18/15 Q1011,LIPX,2023-06-09T03:20:00Z,45.38,10.87,18.0,15.0,350,5,,6.21,29.852362,,,,,,,,,,,FEW,5000,,,,,,,VFR,,,,,,,,,,,,METAR,67.0
LIPR 090320Z AUTO 27003KT 9999 NCD 17/15 Q1011,LIPR,2023-06-09T03:20:00Z,44.02,12.62,17.0,15.0,270,3,,6.21,29.852362,,,TRUE,,,,,,,,CLR,,,,,,,,VFR,,,,,,,,,,,,METAR,10.0
LIPQ 090320Z AUTO 03004KT 9999 NCD 15/15 Q1012,LIPQ,2023-06-09T03:20:00Z,45.82,13.47,15.0,15.0,30,4,,6.21,29.88189,,,TRUE,,,,,,,,CLR,,,,,,,,VFR,,,,,,,,,,,,METAR,6.0
LIPO 090320Z AUTO 02006KT 9999 BKN100/// BKN120/// 19/16 Q1011,LIPO,2023-06-09T03:20:00Z,45.42,10.33,19.0,16.0,20,6,,6.21,29.852362,,,TRUE,,,,,,,,BKN,10000,BKN,12000,,,,,VFR,,,,,,,,,,,,METAR,104.0
LIPH 090320Z AUTO 01003KT 330V040 9999 FEW190/// 16/15 Q1011,LIPH,2023-06-09T03:20:00Z,45.63,12.18,16.0,15.0,10,3,,6.21,29.852362,,,TRUE,,,,,,,,FEW,19000,,,,,,,VFR,,,,,,,,,,,,METAR,10.0
LIPE 090320Z 22004KT CAVOK 17/14 Q1012,LIPE,2023-06-09T03:20:00Z,44.52,11.3,17.0,14.0,220,4,,6.21,29.88189,,,,,,,,,,,CAVOK,,,,,,,,VFR,,,,,,,,,,,,METAR,37.0
LIMZ 090320Z AUTO VRB01KT 9999 BKN068/// 16/15 Q1012,LIMZ,2023-06-09T03:20:00Z,44.53,7.62,16.0,15.0,0,1,,6.21,29.88189,,,TRUE,,,,,,,,BKN,6800,,,,,,,VFR,,,,,,,,,,,,METAR,377.0
LIMW 090320Z AUTO VRB02KT 9999 FEW036/// BKN045/// OVC052/// 17/14 Q1014,LIMW,2023-06-09T03:20:00Z,45.73,7.37,17.0,14.0,0,2,,6.21,29.940945,,,TRUE,,,,,,,,FEW,3600,BKN,4500,OVC,5200,,,VFR,,,,,,,,,,,,METAR,554.0
LIML 090320Z VRB01KT CAVOK 18/16 Q1012 NOSIG,LIML,2023-06-09T03:20:00Z,45.47,9.27,18.0,16.0,0,1,,6.21,29.88189,,,,,,TRUE,,,,,CAVOK,,,,,,,,VFR,,,,,,,,,,,,METAR,109.0
LIMJ 090320Z 03002KT CAVOK 19/15 Q1012,LIMJ,2023-06-09T03:20:00Z,44.42,8.83,19.0,15.0,30,2,,6.21,29.88189,,,,,,,,,,,CAVOK,,,,,,,,VFR,,,,,,,,,,,,METAR,3.0
LIMF 090320Z 21003KT 190V250 9999 BKN045 BKN110 19/17 Q1012,LIMF,2023-06-09T03:20:00Z,45.22,7.65,19.0,17.0,210,3,,6.21,29.88189,,,,,,,,,,,BKN,4500,BKN,11000,,,,,VFR,,,,,,,,,,,,METAR,295.0
LIME 090320Z AUTO VRB01KT 9999 FEW110/// 18/15 Q1012,LIME,2023-06-09T03:20:00Z,45.67,9.7,18.0,15.0,0,1,,6.21,29.88189,,,TRUE,,,,,,,,FEW,11000,,,,,,,VFR,,,,,,,,,,,,METAR,239.0
LIMC 090320Z 05005KT 020V080 9999 SCT050 19/15 Q1012 NOSIG,LIMC,2023-06-09T03:20:00Z,45.62,8.72,19.0,15.0,50,5,,6.21,29.88189,,,,,,TRUE,,,,,SCT,5000,,,,,,,VFR,,,,,,,,,,,,METAR,221.0
LIEO 090320Z 26002KT CAVOK 17/17 Q1012,LIEO,2023-06-09T03:20:00Z,40.88,9.52,17.0,17.0,260,2,,6.21,29.88189,,,,,,,,,,,CAVOK,,,,,,,,VFR,,,,,,,,,,,,METAR,8.0
LIEE 090320Z 08003KT CAVOK 19/16 Q1011,LIEE,2023-06-09T03:20:00Z,39.25,9.07,19.0,16.0,80,3,,6.21,29.852362,,,,,,,,,,,CAVOK,,,,,,,,VFR,,,,,,,,,,,,METAR,1.0
LIEA 090320Z 27003KT CAVOK 18/18 Q1011,LIEA,2023-06-09T03:20:00Z,40.62,8.28,18.0,18.0,270,3,,6.21,29.852362,,,,,,,,,,,CAVOK,,,,,,,,VFR,,,,,,,,,,,,METAR,22.0
LICR 090320Z AUTO 01008KT 9999 NCD 20/13 Q1013,LICR,2023-06-09T03:20:00Z,38.07,15.65,20.0,13.0,10,8,,6.21,29.911417,,,TRUE,,,,,,,,CLR,,,,,,,,VFR,,,,,,,,,,,,METAR,16.0
LICJ 090320Z VRB01KT CAVOK 18/16 Q1013,LICJ,2023-06-09T03:20:00Z,38.17,13.08,18.0,16.0,0,1,,6.21,29.911417,,,,,,,,,,,CAVOK,,,,,,,,VFR,,,,,,,,,,,,METAR,20.0
LICD 090320Z AUTO 14009KT 9999 NCD 21/19 Q1012,LICD,2023-06-09T03:20:00Z,35.5,12.62,21.0,19.0,140,9,,6.21,29.88189,,,TRUE,,,,,,,,CLR,,,,,,,,VFR,,,,,,,,,,,,METAR,20.0
LICC 090320Z 23007KT CAVOK 17/16 Q1013,LICC,2023-06-09T03:20:00Z,37.47,15.05,17.0,16.0,230,7,,6.21,29.911417,,,,,,,,,,,CAVOK,,,,,,,,VFR,,,,,,,,,,,,METAR,6.0
LICB 090320Z AUTO 06005KT 9999 NCD 14/12 Q1014,LICB,2023-06-09T03:20:00Z,37.0,14.62,14.0,12.0,60,5,,6.21,29.940945,,,TRUE,,,,,,,,CLR,,,,,,,,VFR,,,,,,,,,,,,METAR,212.0
LICA 090320Z AUTO 04003KT 9999 FEW015/// 17/17 Q1014,LICA,2023-06-09T03:20:00Z,38.9,16.25,17.0,17.0,40,3,,6.21,29.940945,,,TRUE,,,,,,,,FEW,1500,,,,,,,VFR,,,,,,,,,,,,METAR,7.0
LIBR 090320Z 24004KT CAVOK 17/15 Q1012,LIBR,2023-06-09T03:20:00Z,40.65,17.95,17.0,15.0,240,4,,6.21,29.88189,,,,,,,,,,,CAVOK,,,,,,,,VFR,,,,,,,,,,,,METAR,5.0
LIBP 090320Z AUTO 23003KT 9999 NCD 16/15 Q1012,LIBP,2023-06-09T03:20:00Z,42.42,14.18,16.0,15.0,230,3,,6.21,29.88189,,,TRUE,,,,,,,,CLR,,,,,,,,VFR,,,,,,,,,,,,METAR,10.0
LIBD 090320Z 23003KT CAVOK 17/15 Q1012,LIBD,2023-06-09T03:20:00Z,41.13,16.77,17.0,15.0,230,3,,6.21,29.88189,,,,,,,,,,,CAVOK,,,,,,,,VFR,,,,,,,,,,,,METAR,42.0
LGTS 090320Z 11005KT CAVOK 16/14 Q1012 NOSIG,LGTS,2023-06-09T03:20:00Z,40.52,22.97,16.0,14.0,110,5,,6.21,29.88189,,,,,,TRUE,,,,,CAVOK,,,,,,,,VFR,,,,,,,,,,,,METAR,4.0
LGSR 090320Z VRB03KT CAVOK 20/15 Q1010,LGSR,2023-06-09T03:20:00Z,36.4,25.48,20.0,15.0,0,3,,6.21,29.822834,,,,,,,,,,,CAVOK,,,,,,,,VFR,,,,,,,,,,,,METAR,31.0
LGSA 090320Z 00000KT 9999 FEW020 19/18 Q1010,LGSA,2023-06-09T03:20:00Z,35.53,24.13,19.0,18.0,0,0,,6.21,29.822834,,,,,,,,,,,FEW,2000,,,,,,,VFR,,,,,,,,,,,,METAR,122.0
LGRX 090320Z 00000KT 9999 FEW015 16/15 Q1011,LGRX,2023-06-09T03:20:00Z,38.17,21.42,16.0,15.0,0,0,,6.21,29.852362,,,,,,,,,,,FEW,1500,,,,,,,VFR,,,,,,,,,,,,METAR,16.0
LGRP 090320Z 22006KT 9999 FEW015 21/19 Q1007 NOSIG,LGRP,2023-06-09T03:20:00Z,36.4,28.08,21.0,19.0,220,6,,6.21,29.734253,,,,,,TRUE,,,,,FEW,1500,,,,,,,VFR,,,,,,,,,,,,METAR,3.0
LGPZ 090320Z 00000KT 9999 FEW025 20/19 Q1011,LGPZ,2023-06-09T03:20:00Z,38.92,20.77,20.0,19.0,0,0,,6.21,29.852362,,,,,,,,,,,FEW,2500,,,,,,,VFR,,,,,,,,,,,,METAR,3.0
LGNX 090320Z 00000KT CAVOK 19/14 Q1010,LGNX,2023-06-09T03:20:00Z,37.08,25.37,19.0,14.0,0,0,,6.21,29.822834,,,,,,,,,,,CAVOK,,,,,,,,VFR,,,,,,,,,,,,METAR,3.0
LGMT 090320Z 26004KT CAVOK 20/18 Q1010,LGMT,2023-06-09T03:20:00Z,39.05,26.6,20.0,18.0,260,4,,6.21,29.822834,,,,,,,,,,,CAVOK,,,,,,,,VFR,,,,,,,,,,,,METAR,4.0
LGMK 090320Z VRB02KT CAVOK 19/14 Q1010,LGMK,2023-06-09T03:20:00Z,37.43,25.35,19.0,14.0,0,2,,6.21,29.822834,,,,,,,,,,,CAVOK,,,,,,,,VFR,,,,,,,,,,,,METAR,126.0
LGLM 090320Z 04010KT CAVOK 18/16 Q1011,LGLM,2023-06-09T03:20:00Z,39.92,25.23,18.0,16.0,40,10,,6.21,29.852362,,,,,,,,,,,CAVOK,,,,,,,,VFR,,,,,,,,,,,,METAR,4.0
LGKZ 090320Z AUTO 34004KT //// // ////// 12/10 Q1014 RE//,LGKZ,2023-06-09T03:20:00Z,40.28,21.83,12.0,10.0,340,4,,,29.940945,,,TRUE,,,,,,,,,,,,,,,,,,,,,,,,,,,,SPECI,615.0
LGKV 090320Z 05004KT 9999 FEW080 15/12 Q1012,LGKV,2023-06-09T03:20:00Z,40.92,24.62,15.0,12.0,50,4,,6.21,29.88189,,,,,,,,,,,FEW,8000,,,,,,,VFR,,,,,,,,,,,,METAR,5.0
LGKR 090320Z 00000KT 9999 FEW025 19/16 Q1012 NOSIG,LGKR,2023-06-09T03:20:00Z,39.62,19.92,19.0,16.0,0,0,,6.21,29.88189,,,,,,TRUE,,,,,FEW,2500,,,,,,,VFR,,,,,,,,,,,,METAR,2.0
LGKO 090320Z 35005KT 9999 FEW010 19/16 Q1009,LGKO,2023-06-09T03:20:00Z,36.8,27.08,19.0,16.0,350,5,,6.21,29.793306,,,,,,,,,,,FEW,1000,,,,,,,VFR,,,,,,,,,,,,METAR,130.0
LGKL 090320Z 32004KT 9999 FEW080 16/15 Q1011,LGKL,2023-06-09T03:20:00Z,37.07,22.02,16.0,15.0,320,4,,6.21,29.852362,,,,,,,,,,,FEW,8000,,,,,,,VFR,,,,,,,,,,,,METAR,4.0
LGIR 090320Z 17003KT 9999 FEW020 18/17 Q1011 NOSIG,LGIR,2023-06-09T03:20:00Z,35.33,25.17,18.0,17.0,170,3,,6.21,29.852362,,,,,,TRUE,,,,,FEW,2000,,,,,,,VFR,,,,,,,,,,,,METAR,37.0
LGIO 090320Z AUTO VRB02KT //// // ////// 13/13 Q1014 RE//,LGIO,2023-06-09T03:20:00Z,39.7,20.82,13.0,13.0,0,2,,,29.940945,,,TRUE,,,,,,,,,,,,,,,,,,,,,,,,,,,,METAR,476.0
LGEL 090320Z 33007KT 9999 FEW030 22/09 Q1011,LGEL,2023-06-09T03:20:00Z,38.07,23.55,22.0,9.0,330,7,,6.21,29.852362,,,,,,,,,,,FEW,3000,,,,,,,VFR,,,,,,,,,,,,METAR,21.0
LGBL 090320Z 26005KT CAVOK 15/13 Q1012,LGBL,2023-06-09T03:20:00Z,39.22,22.8,15.0,13.0,260,5,,6.21,29.88189,,,,,,,,,,,CAVOK,,,,,,,,VFR,,,,,,,,,,,,METAR,13.0
LGAV 090320Z VRB01KT 9999 FEW030 17/12 Q1011 NOSIG,LGAV,2023-06-09T03:20:00Z,37.93,23.95,17.0,12.0,0,1,,6.21,29.852362,,,,,,TRUE,,,,,FEW,3000,,,,,,,VFR,,,,,,,,,,,,METAR,83.0
LGAL 090320Z 03004KT 9999 FEW030 15/12 Q1012,LGAL,2023-06-09T03:20:00Z,40.85,25.95,15.0,12.0,30,4,,6.21,29.88189,,,,,,,,,,,FEW,3000,,,,,,,VFR,,,,,,,,,,,,METAR,5.0
LGAD 090320Z 00000KT 9999 FEW020 17/16 Q1011,LGAD,2023-06-09T03:20:00Z,37.92,21.28,17.0,16.0,0,0,,6.21,29.852362,,,,,,,,,,,FEW,2000,,,,,,,VFR,,,,,,,,,,,,METAR,8.0
LCRA 090320Z 05007KT CAVOK 22/20 Q1007 NOSIG,LCRA,2023-06-09T03:20:00Z,34.58,32.98,22.0,20.0,50,7,,6.21,29.734253,,,,,,TRUE,,,,,CAVOK,,,,,,,,VFR,,,,,,,,,,,,METAR,23.0
LATI 090320Z VRB02KT 9999 FEW010 BKN030 18/17 Q1012 NOSIG,LATI,2023-06-09T03:20:00Z,41.42,19.72,18.0,17.0,0,2,,6.21,29.88189,,,,,,TRUE,,,,,FEW,1000,BKN,3000,,,,,MVFR,,,,,,,,,,,,METAR,32.0
KW40 090320Z AUTO 00000KT 7SM BR CLR 15/13 A2980 RMK AO2 T01460128,KW40,2023-06-09T03:20:00Z,35.22,-78.03,14.6,12.8,0,0,,7.0,29.799213,,,TRUE,TRUE,,,,,,BR,CLR,,,,,,,,VFR,,,,,,,,,,,,METAR,50.0
KRSW 090320Z 22003KT 10SM BKN019 26/24 A2984 RMK AO2 T02610239,KRSW,2023-06-09T03:20:00Z,26.53,-81.75,26.1,23.9,220,3,,10.0,29.840551,,,,TRUE,,,,,,,BKN,1900,,,,,,,MVFR,,,,,,,,,,,,SPECI,8.0
KMHV 090320Z AUTO 30024KT 10SM CLR 20/09 A2996 RMK AO2,KMHV,2023-06-09T03:20:00Z,35.07,-118.15,20.0,9.0,300,24,,10.0,29.958662,,,TRUE,TRUE,,,,,,,CLR,,,,,,,,VFR,,,,,,,,,,,,SPECI,841.0
KMCZ 090320Z AUTO 00000KT 10SM CLR 15/13 A2980 RMK AO2 T01480131,KMCZ,2023-06-09T03:20:00Z,,,14.8,13.1,0,0,,10.0,29.799213,,,TRUE,TRUE,,,,,,,CLR,,,,,,,,VFR,,,,,,,,,,,,METAR,
KGZN 090320Z AUTO 00000KT 10SM CLR 24/19 A2987 RMK AO2,KGZN,2023-06-09T03:20:00Z,32.37,-99.02,24.0,19.0,0,0,,10.0,29.870079,,,TRUE,TRUE,,,,,,,CLR,,,,,,,,VFR,,,,,,,,,,,,METAR,522.0
KETC 090320Z AUTO 00000KT 4SM BR SCT110 13/13 A2980 RMK AO2 T01340128,KETC,2023-06-09T03:20:00Z,35.93,-77.55,13.4,12.8,0,0,,4.0,29.799213,,,TRUE,TRUE,,,,,,BR,SCT,11000,,,,,,,MVFR,,,,,,,,,,,,METAR,15.0
KDUB 090320Z AUTO 24022G26KT 10SM CLR 12/03 A3011 RMK AO2,KDUB,2023-06-09T03:20:00Z,43.55,-109.68,12.0,3.0,240,22,26,10.0,30.109253,,,TRUE,TRUE,,,,,,,CLR,,,,,,,,VFR,,,,,,,,,,,,METAR,2205.0
EYVI 090320Z 17003KT CAVOK 13/10 Q1017 NOSIG,EYVI,2023-06-09T03:20:00Z,54.63,25.28,13.0,10.0,170,3,,6.21,30.029528,,,,,,TRUE,,,,,CAVOK,,,,,,,,VFR,,,,,,,,,,,,METAR,180.0
EYSA 090320Z 36009KT CAVOK 12/10 Q1018 NOSIG,EYSA,2023-06-09T03:20:00Z,55.9,23.4,12.0,10.0,360,9,,6.21,30.059055,,,,,,TRUE,,,,,CAVOK,,,,,,,,VFR,,,,,,,,,,,,METAR,135.0
EYPA 090320Z 07007KT CAVOK 12/09 Q1019,EYPA,2023-06-09T03:20:00Z,55.97,21.08,12.0,9.0,70,7,,6.21,30.088583,,,,,,,,,,,CAVOK,,,,,,,,VFR,,,,,,,,,,,,METAR,15.0
EYKA 090320Z VRB01KT CAVOK 14/08 Q1017,EYKA,2023-06-09T03:20:00Z,54.97,24.08,14.0,8.0,0,1,,6.21,30.029528,,,,,,,,,,,CAVOK,,,,,,,,VFR,,,,,,,,,,,,METAR,68.0
EVVA 090320Z AUTO 04007KT CAVOK 12/09 Q1021,EVVA,2023-06-09T03:20:00Z,57.35,21.55,12.0,9.0,40,7,,6.21,30.147638,,,TRUE,,,,,,,,CAVOK,,,,,,,,VFR,,,,,,,,,,,,METAR,1.0
EVRA 090320Z 01011KT CAVOK 13/09 Q1019 NOSIG,EVRA,2023-06-09T03:20:00Z,56.92,23.97,13.0,9.0,10,11,,6.21,30.088583,,,,,,TRUE,,,,,CAVOK,,,,,,,,VFR,,,,,,,,,,,,METAR,7.0
EVLA 090320Z AUTO 05006KT CAVOK 10/09 Q1019,EVLA,2023-06-09T03:20:00Z,56.52,21.1,10.0,9.0,50,6,,6.21,30.088583,,,TRUE,,,,,,,,CAVOK,,,,,,,,VFR,,,,,,,,,,,,METAR,5.0
EVGA 090320Z 02007KT CAVOK 12/08 Q1018 NOSIG,EVGA,2023-06-09T03:20:00Z,56.78,24.85,12.0,8.0,20,7,,6.21,30.059055,,,,,,TRUE,,,,,CAVOK,,,,,,,,VFR,,,,,,,,,,,,METAR,61.0
ETWM 090320Z AUTO 02005KT //// // ////// 10/10 Q1016 ///,ETWM,2023-06-09T03:20:00Z,52.72,7.33,10.0,10.0,20,5,,,30.0,,,TRUE,,,,,,,,,,,,,,,,,,,,,,,,,,,,METAR,18.0
ETSN 090320Z 01001KT 2000 VCFG MIFG FEW100 11/11 Q1014 YLO,ETSN,2023-06-09T03:20:00Z,48.72,11.22,11.0,11.0,10,1,,1.24,29.940945,,,,,,,,,,VCFG MIFG,FEW,10000,,,,,,,IFR,,,,,,,,,,,,METAR,378.0
ETSL 090320Z AUTO 00000KT 1000 // ////// 10/09 Q1014 ///,ETSL,2023-06-09T03:20:00Z,48.18,10.87,10.0,9.0,0,0,,0.62,29.940945,,,TRUE,,,,,,,,,,,,,,,,,,,,,,,,,,,,METAR,548.0
ETSH 090320Z 35003KT 9999 FEW090 SCT130 14/09 Q1015 BLU+BLU TEMPO BLU+,ETSH,2023-06-09T03:20:00Z,51.77,13.17,14.0,9.0,350,3,,6.21,29.970472,,,,,,,,,,,FEW,9000,SCT,13000,,,,,VFR,,,,,,,,,,,,METAR,79.0
ETSB 090320Z AUTO 07008KT //// // ////// 13/11 Q1014 ///,ETSB,2023-06-09T03:20:00Z,50.17,7.07,13.0,11.0,70,8,,,29.940945,,,TRUE,,,,,,,,,,,,,,,,,,,,,,,,,,,,METAR,477.0
ETNW 090320Z 06005KT 9999 VCSH FEW090 BKN120 18/13 Q1016 BLU,ETNW,2023-06-09T03:20:00Z,52.45,9.42,18.0,13.0,60,5,,6.21,30.0,,,,,,,,,,VCSH,FEW,9000,BKN,12000,,,,,VFR,,,,,,,,,,,,METAR,57.0
ETNT 090320Z AUTO 04006KT //// // ////// 12/11 Q1017 ///,ETNT,2023-06-09T03:20:00Z,53.53,7.67,12.0,11.0,40,6,,,30.029528,,,TRUE,,,,,,,,,,,,,,,,,,,,,,,,,,,,METAR,5.0
ETNS 090320Z 30002KT 9999 MIFG SCT290 08/07 Q1018 BLU+,ETNS,2023-06-09T03:20:00Z,54.47,9.52,8.0,7.0,300,2,,6.21,30.059055,,,,,,,,,,MIFG,SCT,29000,,,,,,,VFR,,,,,,,,,,,,METAR,22.0
ETNN 090320Z AUTO VRB01KT 5000 // ////// 13/12 Q1014 ///,ETNN,2023-06-09T03:20:00Z,50.82,6.67,13.0,12.0,0,1,,3.11,29.940945,,,TRUE,,,,,,,,,,,,,,,,,,,,,,,,,,,,METAR,108.0
ETNL 090320Z 29002KT 5000 VCFG MIFG FEW230 09/09 Q1017 WHT,ETNL,2023-06-09T03:20:00Z,53.92,12.27,9.0,9.0,290,2,,3.11,30.029528,,,,,,,,,,VCFG MIFG,FEW,23000,,,,,,,MVFR,,,,,,,,,,,,METAR,40.0
ETMN 090320Z 06005KT 9999 SCT320 10/09 Q1017 BLU+,ETMN,2023-06-09T03:20:00Z,53.77,8.67,10.0,9.0,60,5,,6.21,30.029528,,,,,,,,,,,SCT,32000,,,,,,,VFR,,,,,,,,,,,,METAR,23.0
ETHS 090320Z 05005KT 9999 BKN090 15/05 Q1016 BLACKBLU,ETHS,2023-06-09T03:20:00Z,52.92,10.18,15.0,5.0,50,5,,6.21,30.0,,,,,,,,,,,BKN,9000,,,,,,,VFR,,,,,,,,,,,,METAR,71.0
ETHN 090320Z 10006KT 9999 FEW110 12/11 Q1014 BLU+,ETHN,2023-06-09T03:20:00Z,49.38,9.97,12.0,11.0,100,6,,6.21,29.940945,,,,,,,,,,,FEW,11000,,,,,,,VFR,,,,,,,,,,,,METAR,466.0
ETHL 090320Z 07005KT 9999 11/10 Q1014 BLU+,ETHL,2023-06-09T03:20:00Z,48.22,9.92,11.0,10.0,70,5,,6.21,29.940945,,,,,,,,,,,,,,,,,,,,,,,,,,,,,,,METAR,536.0
ETHF 090320Z 30004KT 9999 FEW140 12/11 Q1015 BLU+,ETHF,2023-06-09T03:20:00Z,51.12,9.28,12.0,11.0,300,4,,6.21,29.970472,,,,,,,,,,,FEW,14000,,,,,,,VFR,,,,,,,,,,,,METAR,171.0
ETHC 090320Z 05002KT 9999 BKN100 18/11 Q1016 BLU,ETHC,2023-06-09T03:20:00Z,52.6,10.02,18.0,11.0,50,2,,6.21,30.0,,,,,,,,,,,BKN,10000,,,,,,,VFR,,,,,,,,,,,,METAR,35.0
ETHB 090320Z 21002KT 9999 FEW100 BKN130 14/13 Q1016 BLU,ETHB,2023-06-09T03:20:00Z,52.27,9.07,14.0,13.0,210,2,,6.21,30.0,,,,,,,,,,,FEW,10000,BKN,13000,,,,,VFR,,,,,,,,,,,,METAR,69.0
ETHA 090320Z AUTO 26002KT 6000 // ////// 09/09 Q1014 ///,ETHA,2023-06-09T03:20:00Z,47.83,10.87,9.0,9.0,260,2,,3.73,29.940945,,,TRUE,,,,,,,,,,,,,,,,,,,,,,,,,,,,METAR,738.0
ETGG 090320Z AUTO 36007KT 9999 // ////// 08/08 Q1018 ///,ETGG,2023-06-09T03:20:00Z,54.83,9.5,8.0,8.0,360,7,,6.21,30.059055,,,TRUE,,,,,,,,,,,,,,,,,,,,,,,,,,,,METAR,33.0
ESUT 090320Z AUTO VRB02KT 9999 NCD 01/M02 Q1026,ESUT,2023-06-09T03:20:00Z,65.8,15.08,1.0,-2.0,0,2,,6.21,30.295275,,,TRUE,,,,,,,,CLR,,,,,,,,VFR,,,,,,,,,,,,METAR,457.0
ESUP 090320Z 33007KT 300V360 9999 OVC054 05/M01 Q1025,ESUP,2023-06-09T03:20:00Z,67.25,23.07,5.0,-1.0,330,7,,6.21,30.265747,,,,,,,,,,,OVC,5400,,,,,,,VFR,,,,,,,,,,,,METAR,164.0
ESTL 090320Z AUTO 11009KT 9999 OVC013/// 14/14 Q1019,ESTL,2023-06-09T03:20:00Z,56.07,13.2,14.0,14.0,110,9,,6.21,30.088583,,,TRUE,,,,,,,,OVC,1300,,,,,,,MVFR,,,,,,,,,,,,METAR,39.0
ESTA 090320Z AUTO 10006KT 9999 R14///// R32/P1500N SCT011/// BKN014/// 12/10 Q1019,ESTA,2023-06-09T03:20:00Z,56.28,12.83,12.0,10.0,100,6,,6.21,30.088583,,,TRUE,,,,,,,,SCT,1100,BKN,1400,,,,,MVFR,,,,,,,,,,,,METAR,19.0
ESSV 090320Z AUTO 06009KT 9999 NCD 11/05 Q1022,ESSV,2023-06-09T03:20:00Z,57.67,18.35,11.0,5.0,60,9,,6.21,30.177166,,,TRUE,,,,,,,,CLR,,,,,,,,VFR,,,,,,,,,,,,METAR,38.0
ESST 090320Z AUTO 32003KT 9999 NCD 07/04 Q1026,ESST,2023-06-09T03:20:00Z,60.15,12.98,7.0,4.0,320,3,,6.21,30.295275,,,TRUE,,,,,,,,CLR,,,,,,,,VFR,,,,,,,,,,,,METAR,110.0
ESSP 090320Z AUTO 06004KT 9999 NCD 07/02 Q1024,ESSP,2023-06-09T03:20:00Z,58.58,16.25,7.0,2.0,60,4,,6.21,30.236221,,,TRUE,,,,,,,,CLR,,,,,,,,VFR,,,,,,,,,,,,METAR,3.0
ESSL 090320Z AUTO VRB02KT 9999 SCT072/// 09/03 Q1024,ESSL,2023-06-09T03:20:00Z,58.4,15.67,9.0,3.0,0,2,,6.21,30.236221,,,TRUE,,,,,,,,SCT,7200,,,,,,,VFR,,,,,,,,,,,,METAR,51.0
ESSD 090320Z AUTO 26005KT 9999 NCD 04/03 Q1026,ESSD,2023-06-09T03:20:00Z,60.42,15.5,4.0,3.0,260,5,,6.21,30.295275,,,TRUE,,,,,,,,CLR,,,,,,,,VFR,,,,,,,,,,,,METAR,151.0
ESSB 090320Z AUTO VRB02KT 9999 NCD 07/02 Q1025,ESSB,2023-06-09T03:20:00Z,59.35,17.93,7.0,2.0,0,2,,6.21,30.265747,,,TRUE,,,,,,,,CLR,,,,,,,,VFR,,,,,,,,,,,,METAR,14.0
ESSA 090320Z 01004KT CAVOK 04/01 Q1025 NOSIG,ESSA,2023-06-09T03:20:00Z,59.65,17.93,4.0,1.0,10,4,,6.21,30.265747,,,,,,TRUE,,,,,CAVOK,,,,,,,,VFR,,,,,,,,,,,,METAR,36.0
ESPE 090320Z AUTO 30003KT 9999 NCD 05/M00 Q1027,ESPE,2023-06-09T03:20:00Z,65.88,20.15,5.0,0.0,300,3,,6.21,30.324802,,,TRUE,,,,,,,,CLR,,,,,,,,VFR,,,,,,,,,,,,METAR,182.0
ESPA 090320Z AUTO 32008KT 9999 NCD 06/M01 Q1026,ESPA,2023-06-09T03:20:00Z,65.53,22.12,6.0,-1.0,320,8,,6.21,30.295275,,,TRUE,,,,,,,,CLR,,,,,,,,VFR,,,,,,,,,,,,METAR,12.0
ESOW 090320Z AUTO 36004KT 9999 NCD 05/01 Q1026,ESOW,2023-06-09T03:20:00Z,59.58,16.63,5.0,1.0,360,4,,6.21,30.295275,,,TRUE,,,,,,,,CLR,,,,,,,,VFR,,,,,,,,,,,,METAR,7.0
ESOK 090320Z AUTO 07005KT 9999 NCD 09/04 Q1025,ESOK,2023-06-09T03:20:00Z,59.45,13.33,9.0,4.0,70,5,,6.21,30.265747,,,TRUE,,,,,,,,CLR,,,,,,,,VFR,,,,,,,,,,,,METAR,101.0
ESOH 090320Z AUTO VRB02KT 9999 NCD 05/03 Q1025,ESOH,2023-06-09T03:20:00Z,60.02,13.58,5.0,3.0,0,2,,6.21,30.265747,,,TRUE,,,,,,,,CLR,,,,,,,,VFR,,,,,,,,,,,,METAR,145.0
ESOE 090320Z AUTO 36007KT 9999 NCD 06/03 Q1025,ESOE,2023-06-09T03:20:00Z,59.22,15.05,6.0,3.0,360,7,,6.21,30.265747,,,TRUE,,,,,,,,CLR,,,,,,,,VFR,,,,,,,,,,,,METAR,57.0
ESNZ 090320Z AUTO 02003KT 9999 NCD 04/M09 Q1026,ESNZ,2023-06-09T03:20:00Z,63.18,14.5,4.0,-9.0,20,3,,6.21,30.295275,,,TRUE,,,,,,,,CLR,,,,,,,,VFR,,,,,,,,,,,,METAR,360.0
ESNX 090320Z AUTO VRB03KT 9999 NCD 04/M01 Q1026,ESNX,2023-06-09T03:20:00Z,65.58,19.28,4.0,-1.0,0,3,,6.21,30.295275,,,TRUE,,,,,,,,CLR,,,,,,,,VFR,,,,,,,,,,,,METAR,380.0
ESNV 090320Z AUTO VRB02KT 9999 NCD 02/M02 Q1027,ESNV,2023-06-09T03:20:00Z,64.58,16.83,2.0,-2.0,0,2,,6.21,30.324802,,,TRUE,,,,,,,,CLR,,,,,,,,VFR,,,,,,,,,,,,METAR,348.0
ESNU 090320Z 31003KT CAVOK 07/04 Q1026,ESNU,2023-06-09T03:20:00Z,63.78,20.28,7.0,4.0,310,3,,6.21,30.295275,,,,,,,,,,,CAVOK,,,,,,,,VFR,,,,,,,,,,,,METAR,8.0
ESNS 090320Z AUTO 33005KT 290V360 9999 NCD 07/02 Q1026,ESNS,2023-06-09T03:20:00Z,64.62,21.07,7.0,2.0,330,5,,6.21,30.295275,,,TRUE,,,,,,,,CLR,,,,,,,,VFR,,,,,,,,,,,,METAR,41.0
ESNQ 090320Z AUTO 35006KT 9999 NCD 03/M02 Q1025,ESNQ,2023-06-09T03:20:00Z,67.82,20.33,3.0,-2.0,350,6,,6.21,30.265747,,,TRUE,,,,,,,,CLR,,,,,,,,VFR,,,,,,,,,,,,METAR,447.0
ESNO 090320Z AUTO VRB03KT 9999 NCD 06/03 Q1026,ESNO,2023-06-09T03:20:00Z,63.4,18.97,6.0,3.0,0,3,,6.21,30.295275,,,TRUE,,,,,,,,CLR,,,,,,,,VFR,,,,,,,,,,,,METAR,100.0
ESNN 090320Z AUTO 32004KT 290V020 9999 NCD 05/01 Q1027,ESNN,2023-06-09T03:20:00Z,62.52,17.43,5.0,1.0,320,4,,6.21,30.324802,,,TRUE,,,,,,,,CLR,,,,,,,,VFR,,,,,,,,,,,,METAR,4.0
ESNL 090320Z AUTO 26003KT 9999 NCD 05/M01 Q1027,ESNL,2023-06-09T03:20:00Z,64.55,18.72,5.0,-1.0,260,3,,6.21,30.324802,,,TRUE,,,,,,,,CLR,,,,,,,,VFR,,,,,,,,,,,,METAR,220.0
ESNK 090320Z AUTO 33004KT 9999 NCD ///// Q1027,ESNK,2023-06-09T03:20:00Z,63.03,17.77,,,330,4,,6.21,30.324802,,,TRUE,,,,,,,,CLR,,,,,,,,VFR,,,,,,,,,,,,SPECI,4.0
ESNG 090320Z 33007KT 9999 NSC 05/M02 Q1026,ESNG,2023-06-09T03:20:00Z,67.13,20.82,5.0,-2.0,330,7,,6.21,30.295275,,,,,,,,,,,CLR,,,,,,,,VFR,,,,,,,,,,,,METAR,300.0
ESND 090320Z AUTO 29002KT 9999 NCD 01/M00 Q1026,ESND,2023-06-09T03:20:00Z,62.05,14.42,1.0,0.0,290,2,,6.21,30.295275,,,TRUE,,,,,,,,CLR,,,,,,,,VFR,,,,,,,,,,,,METAR,352.0
ESMX 090320Z AUTO 06006KT 340V100 9999 FEW094/// 10/04 Q1021,ESMX,2023-06-09T03:20:00Z,56.92,14.72,10.0,4.0,60,6,,6.21,30.147638,,,TRUE,,,,,,,,FEW,9400,,,,,,,VFR,,,,,,,,,,,,METAR,176.0
ESMT 090320Z AUTO 08004KT 9999 FEW017/// 12/09 Q1020,ESMT,2023-06-09T03:20:00Z,56.68,12.82,12.0,9.0,80,4,,6.21,30.11811,,,TRUE,,,,,,,,FEW,1700,,,,,,,VFR,,,,,,,,,,,,METAR,24.0
ESMS 090320Z AUTO 09013KT 9000 NCD 14/13 Q1018,ESMS,2023-06-09T03:20:00Z,55.53,13.37,14.0,13.0,90,13,,5.59,30.059055,,,TRUE,,,,,,,,CLR,,,,,,,,VFR,,,,,,,,,,,,METAR,68.0
ESMQ 090320Z AUTO 04008KT 360V060 9999 NCD 12/06 Q1021,ESMQ,2023-06-09T03:20:00Z,56.68,16.3,12.0,6.0,40,8,,6.21,30.147638,,,TRUE,,,,,,,,CLR,,,,,,,,VFR,,,,,,,,,,,,METAR,3.0
ESMK 090320Z AUTO 09012KT 9999 OVC012/// 13/10 Q1020,ESMK,2023-06-09T03:20:00Z,55.92,14.08,13.0,10.0,90,12,,6.21,30.11811,,,TRUE,,,,,,,,OVC,1200,,,,,,,MVFR,,,,,,,,,,,,METAR,20.0
ESKS 090320Z AUTO 03005KT 9999 NCD 04/M00 Q1025,ESKS,2023-06-09T03:20:00Z,61.17,12.83,4.0,0.0,30,5,,6.21,30.265747,,,TRUE,,,,,,,,CLR,,,,,,,,VFR,,,,,,,,,,,,METAR,503.0
ESKN 090320Z 02005KT 350V050 CAVOK 08/01 Q1024,ESKN,2023-06-09T03:20:00Z,58.78,16.92,8.0,1.0,20,5,,6.21,30.236221,,,,,,,,,,,CAVOK,,,,,,,,VFR,,,,,,,,,,,,METAR,41.0
ESKM 090320Z AUTO 35005KT 9999 NCD 04/01 Q1026,ESKM,2023-06-09T03:20:00Z,60.97,14.52,4.0,1.0,350,5,,6.21,30.295275,,,TRUE,,,,,,,,CLR,,,,,,,,VFR,,,,,,,,,,,,METAR,184.0
ESIB 090320Z AUTO 09007KT 9999 NCD 10/01 Q1022,ESIB,2023-06-09T03:20:00Z,58.42,12.7,10.0,1.0,90,7,,6.21,30.177166,,,TRUE,,,,,,,,CLR,,,,,,,,VFR,,,,,,,,,,,,METAR,51.0
ESIA 090320Z AUTO 08009KT 9999 NCD 11/04 Q1024,ESIA,2023-06-09T03:20:00Z,58.52,14.5,11.0,4.0,80,9,,6.21,30.236221,,,TRUE,,,,,,,,CLR,,,,,,,,VFR,,,,,,,,,,,,METAR,94.0
ESGT 090320Z AUTO 07004KT 030V110 9999 R15///// R33///// BKN055/// 11/01 Q1023,ESGT,2023-06-09T03:20:00Z,58.32,12.33,11.0,1.0,70,4,,6.21,30.206694,,,TRUE,,,,,,,,BKN,5500,,,,,,,VFR,,,,,,,,,,,,METAR,40.0
ESGP 090320Z AUTO 10008KT 070V130 9999 FEW084/// 13/M00 Q1021,ESGP,2023-06-09T03:20:00Z,57.77,11.87,13.0,0.0,100,8,,6.21,30.147638,,,TRUE,,,,,,,,FEW,8400,,,,,,,VFR,,,,,,,,,,,,METAR,15.0
ESGJ 090320Z AUTO 09007KT 060V120 9999 NCD 10/03 Q1022,ESGJ,2023-06-09T03:20:00Z,57.77,14.07,10.0,3.0,90,7,,6.21,30.177166,,,TRUE,,,,,,,,CLR,,,,,,,,VFR,,,,,,,,,,,,METAR,224.0
ESGG 090320Z 09010KT CAVOK 11/M00 Q1021,ESGG,2023-06-09T03:20:00Z,57.67,12.3,11.0,0.0,90,10,,6.21,30.147638,,,,,,,,,,,CAVOK,,,,,,,,VFR,,,,,,,,,,,,METAR,152.0
ESDF 090320Z AUTO 06010KT 9999 NCD 11/08 Q1020,ESDF,2023-06-09T03:20:00Z,56.27,15.27,11.0,8.0,60,10,,6.21,30.11811,,,TRUE,,,,,,,,CLR,,,,,,,,VFR,,,,,,,,,,,,METAR,52.0
ESCM 090320Z AUTO 00000KT 9999 NCD 03/01 Q1025,ESCM,2023-06-09T03:20:00Z,59.88,17.6,3.0,1.0,0,0,,6.21,30.265747,,,TRUE,,,,,,,,CLR,,,,,,,,VFR,,,,,,,,,,,,METAR,21.0
ESCF 090320Z AUTO 06007KT 9999 SCT074/// 10/02 Q1024,ESCF,2023-06-09T03:20:00Z,58.38,15.52,10.0,2.0,60,7,,6.21,30.236221,,,TRUE,,,,,,,,SCT,7400,,,,,,,VFR,,,,,,,,,,,,METAR,86.0
ENZV 090320Z 00000KT CAVOK 07/06 Q1020,ENZV,2023-06-09T03:20:00Z,58.88,5.63,7.0,6.0,0,0,,6.21,30.11811,,,,,,,,,,,CAVOK,,,,,,,,VFR,,,,,,,,,,,,METAR,7.0
ENWV 090320Z AUTO 36009KT 9999NDV BKN015/// 09/07 Q1020 W///S3,ENWV,2023-06-09T03:20:00Z,56.28,3.4,9.0,7.0,360,9,,,30.11811,,,TRUE,,,,,,,,BKN,1500,,,,,,,,,,,,,,,,,,,METAR,30.0
ENVD 090320Z 32008KT 290V350 9999 SCT036 BKN066 04/M01 Q1021,ENVD,2023-06-09T03:20:00Z,70.07,29.85,4.0,-1.0,320,8,,6.21,30.147638,,,,,,,,,,,SCT,3600,BKN,6600,,,,,VFR,,,,,,,,,,,,METAR,39.0
ENVA 090320Z 12009KT CAVOK 05/02 Q1024 RMK WIND 670FT 12008KT,ENVA,2023-06-09T03:20:00Z,63.47,10.92,5.0,2.0,120,9,,6.21,30.236221,,,,,,,,,,,CAVOK,,,,,,,,VFR,,,,,,,,,,,,SPECI,12.0
ENUN 090320Z AUTO 07007KT 9999NDV OVC035/// 07/00 Q1028 W07/S3,ENUN,2023-06-09T03:20:00Z,,,7.0,0.0,70,7,,,30.35433,,,TRUE,,,,,,,,OVC,3500,,,,,,,,,,,,,,,,,,,METAR,
ENUG 090320Z AUTO 32015KT 9999NDV BKN023/// 04/00 Q1024 W///S4,ENUG,2023-06-09T03:20:00Z,71.3,22.25,4.0,0.0,320,15,,,30.236221,,,TRUE,,,,,,,,BKN,2300,,,,,,,,,,,,,,,,,,,METAR,30.0
ENTO 090320Z AUTO 10006KT 050V140 9999 OVC076/// 15/07 Q1023,ENTO,2023-06-09T03:20:00Z,59.2,10.27,15.0,7.0,100,6,,6.21,30.206694,,,TRUE,,,,,,,,OVC,7600,,,,,,,VFR,,,,,,,,,,,,METAR,84.0
ENTC 090320Z 28006KT 9999 BKN024 BKN032 04/01 Q1028 RMK WIND 2600FT 30009KT,ENTC,2023-06-09T03:20:00Z,69.68,18.92,4.0,1.0,280,6,,6.21,30.35433,,,,,,,,,,,BKN,2400,BKN,3200,,,,,MVFR,,,,,,,,,,,,SPECI,9.0
ENST 090320Z 07007KT CAVOK 06/03 Q1027 RMK WIND 300FT 06010KT,ENST,2023-06-09T03:20:00Z,65.97,12.47,6.0,3.0,70,7,,6.21,30.324802,,,,,,,,,,,CAVOK,,,,,,,,VFR,,,,,,,,,,,,SPECI,17.0
ENSS 090320Z AUTO 34017KT 9999 FEW013/// SCT017/// OVC031/// 04/01 Q1020 RMK WIND 0500FT 34024KT,ENSS,2023-06-09T03:20:00Z,70.35,31.05,4.0,1.0,340,17,,6.21,30.11811,,,TRUE,,,,,,,,FEW,1300,SCT,1700,OVC,3100,,,VFR,,,,,,,,,,,,SPECI,13.0
ENSR 090320Z AUTO 32007KT 290V350 9999 BKN027/// OVC034/// 06/01 Q1027 RMK WIND RWY32 32006KT WIND 1118FT 31019KT,ENSR,2023-06-09T03:20:00Z,69.78,20.97,6.0,1.0,320,7,,6.21,30.324802,,,TRUE,,,,,,,,BKN,2700,OVC,3400,,,,,MVFR,,,,,,,,,,,,SPECI,5.0
ENSL 090320Z AUTO 34013KT 9999NDV BKN013/// 09/06 Q1021 W08/S3,ENSL,2023-06-09T03:20:00Z,58.37,1.9,9.0,6.0,340,13,,,30.147638,,,TRUE,,,,,,,,BKN,1300,,,,,,,,,,,,,,,,,,,METAR,50.0
ENSK 090320Z AUTO 08003KT 040V110 9999 OVC036/// 05/M00 Q1029,ENSK,2023-06-09T03:20:00Z,68.57,15.02,5.0,0.0,80,3,,6.21,30.383858,,,TRUE,,,,,,,,OVC,3600,,,,,,,VFR,,,,,,,,,,,,METAR,3.0
ENSH 090320Z AUTO 02004KT 9999 OVC040/// 06/01 Q1028 RMK WIND 0150FT 01005KT,ENSH,2023-06-09T03:20:00Z,68.25,14.67,6.0,1.0,20,4,,6.21,30.35433,,,TRUE,,,,,,,,OVC,4000,,,,,,,VFR,,,,,,,,,,,,SPECI,9.0
ENSG 090320Z AUTO 07004KT 020V110 9999 SCT055/// 12/00 Q1021 RMK WIND 3806FT 11013KT,ENSG,2023-06-09T03:20:00Z,61.15,7.13,12.0,0.0,70,4,,6.21,30.147638,,,TRUE,,,,,,,,SCT,5500,,,,,,,VFR,,-1.3,,,,,,,,,,SPECI,493.0
ENSF 090320Z AUTO 02019KT 9999NDV SCT012/// ///// Q//// W///S4,ENSF,2023-06-09T03:20:00Z,61.25,1.85,,,20,19,,,,,,TRUE,,,,,,,,SCT,1200,,,,,,,,,,,,,,,,,,,METAR,15.0
ENSE 090320Z AUTO 02022KT //// BKN012/// 08/06 Q1021 W///S4,ENSE,2023-06-09T03:20:00Z,61.45,2.15,8.0,6.0,20,22,,,30.147638,,,TRUE,,,,,,,,BKN,1200,,,,,,,,,,,,,,,,,,,METAR,10.0
ENSD 090320Z AUTO 00000KT 9999 NCD 08/05 Q1021 RMK WIND RWY26 VRB02KT WIND 1140FT 08005KT,ENSD,2023-06-09T03:20:00Z,61.82,6.12,8.0,5.0,0,0,,6.21,30.147638,,,TRUE,,,,,,,,CLR,,,,,,,,VFR,,,,,,,,,,,,SPECI,61.0
ENSB 090320Z 26011KT 9999 -RADZ FEW007 SCT011 BKN019 01/M00 Q1019 RMK WIND 1400FT 25010KT,ENSB,2023-06-09T03:20:00Z,78.25,15.47,1.0,0.0,260,11,,6.21,30.088583,,,,,,,,,,-RA -DZ,FEW,700,SCT,1100,BKN,1900,,,MVFR,,,,,,,,,,,,SPECI,30.0
ENRY 090320Z AUTO 08003KT 020V100 9999 FEW080/// 13/07 Q1024,ENRY,2023-06-09T03:20:00Z,59.37,10.77,13.0,7.0,80,3,,6.21,30.236221,,,TRUE,,,,,,,,FEW,8000,,,,,,,VFR,,,,,,,,,,,,METAR,45.0
ENRS 090320Z AUTO 05004KT 9999 NCD 07/02 Q1028,ENRS,2023-06-09T03:20:00Z,67.52,12.1,7.0,2.0,50,4,,6.21,30.35433,,,TRUE,,,,,,,,CLR,,,,,,,,VFR,,,,,,,,,,,,METAR,4.0
ENRO 090320Z AUTO VRB01KT 9999 NCD M01/M03 Q1025,ENRO,2023-06-09T03:20:00Z,62.57,11.33,-1.0,-3.0,0,1,,6.21,30.265747,,,TRUE,,,,,,,,CLR,,,,,,,,VFR,,,,,,,,,,,,METAR,624.0
ENRM 090320Z AUTO 08003KT 050V120 9999 NCD 05/03 Q1026,ENRM,2023-06-09T03:20:00Z,64.83,11.13,5.0,3.0,80,3,,6.21,30.295275,,,TRUE,,,,,,,,CLR,,,,,,,,VFR,,,,,,,,,,,,METAR,4.0
ENRA 090320Z AUTO VRB01KT 9999 NCD 02/M00 Q1028,ENRA,2023-06-09T03:20:00Z,66.37,14.3,2.0,0.0,0,1,,6.21,30.35433,,,TRUE,,,,,,,,CLR,,,,,,,,VFR,,,,,,,,,,,,METAR,66.0
ENQR 090320Z AUTO 03019KT 9999NDV BKN012/// 09/06 Q1021 W10/S3,ENQR,2023-06-09T03:20:00Z,61.52,2.22,9.0,6.0,30,19,,,30.147638,,,TRUE,,,,,,,,BKN,1200,,,,,,,,,,,,,,,,,,,METAR,10.0
ENQC 090320Z AUTO 34015KT 9999NDV NCD 09/08 Q1019 W///S4,ENQC,2023-06-09T03:20:00Z,60.88,3.62,9.0,8.0,340,15,,,30.088583,,,TRUE,,,,,,,,CLR,,,,,,,,,,,,,,,,,,,,METAR,20.0
ENQA 090320Z AUTO 36012KT 9999NDV NCD 09/08 Q1020 W12/S4,ENQA,2023-06-09T03:20:00Z,60.65,3.72,9.0,8.0,360,12,,,30.11811,,,TRUE,,,,,,,,CLR,,,,,,,,,,,,,,,,,,,,METAR,90.0
ENOV 090320Z AUTO 00000KT 9999 NCD 05/04 Q1020 RMK WIND RWY24 00000KT WIND 2090FT 14017KT,ENOV,2023-06-09T03:20:00Z,62.17,6.07,5.0,4.0,0,0,,6.21,30.11811,,,TRUE,,,,,,,,CLR,,,,,,,,VFR,,,,,,,,,,,,SPECI,72.0
ENOL 090320Z 06003KT CAVOK 08/03 Q1023,ENOL,2023-06-09T03:20:00Z,63.7,9.6,8.0,3.0,60,3,,6.21,30.206694,,,,,,,,,,,CAVOK,,,,,,,,VFR,,,,,,,,,,,,METAR,9.0
ENOA 090320Z 01018KT 9999 SCT010 09/07 Q1020 W///S4,ENOA,2023-06-09T03:20:00Z,60.5,2.83,9.0,7.0,10,18,,6.21,30.11811,,,,,,,,,,,SCT,1000,,,,,,,VFR,,,,,,,,,,,,SPECI,5.0
ENNM 090320Z AUTO 06012KT 9999 NCD 03/02 Q1026,ENNM,2023-06-09T03:20:00Z,64.47,11.57,3.0,2.0,60,12,,6.21,30.295275,,,TRUE,,,,,,,,CLR,,,,,,,,VFR,,,,,,,,,,,,METAR,2.0
ENNE 090320Z 09008KT CAVOK 07/02 Q1027 W///S3,ENNE,2023-06-09T03:20:00Z,66.03,8.08,7.0,2.0,90,8,,6.21,30.324802,,,,,,,,,,,CAVOK,,,,,,,,VFR,,,,,,,,,,,,METAR,10.0
ENNA 090320Z AUTO 34015KT 9999 FEW021/// OVC048/// 05/01 Q1025 RMK WIND 1800FT 32028KT,ENNA,2023-06-09T03:20:00Z,70.07,24.97,5.0,1.0,340,15,,6.21,30.265747,,,TRUE,,,,,,,,FEW,2100,OVC,4800,,,,,VFR,,,,,,,,,,,,SPECI,12.0
ENMS 090320Z AUTO 15003KT 120V180 9999 NCD 01/M00 Q1028 RMK WIND 412FT VRB01KT,ENMS,2023-06-09T03:20:00Z,65.78,13.22,1.0,0.0,150,3,,6.21,30.35433,,,TRUE,,,,,,,,CLR,,,,,,,,VFR,,,,,,,,,,,,SPECI,44.0
ENML 090320Z AUTO 30003KT 9999NDV NCD 08/04 Q1021,ENML,2023-06-09T03:20:00Z,62.75,7.27,8.0,4.0,300,3,,,30.147638,,,TRUE,,,,,,,,CLR,,,,,,,,,,,,,,,,,,,,SPECI,3.0
ENMH 090320Z 34015KT 9999 BKN034 05/M01 Q1022,ENMH,2023-06-09T03:20:00Z,71.02,27.82,5.0,-1.0,340,15,,6.21,30.177166,,,,,,,,,,,BKN,3400,,,,,,,VFR,,,,,,,,,,,,METAR,10.0
ENLK 090320Z 03005KT 9999 FEW035 SCT150 03/03 Q1028,ENLK,2023-06-09T03:20:00Z,68.15,13.62,3.0,3.0,30,5,,6.21,30.35433,,,,,,,,,,,FEW,3500,SCT,15000,,,,,VFR,,,,,,,,,,,,METAR,26.0
ENLE 090320Z 34012KT 9999 BKN016 09/06 Q1020 W11/S4,ENLE,2023-06-09T03:20:00Z,56.53,3.22,9.0,6.0,340,12,,6.21,30.11811,,,,,,,,,,,BKN,1600,,,,,,,MVFR,,,,,,,,,,,,METAR,10.0
ENLA 090320Z AUTO 32009KT 9999NDV BKN015/// 10/06 Q1020 W///S3,ENLA,2023-06-09T03:20:00Z,57.1,2.83,10.0,6.0,320,9,,,30.11811,,,TRUE,,,,,,,,BKN,1500,,,,,,,,,,,,,,,,,,,METAR,10.0
ENKR 090320Z 34011KT 9999 VCSH FEW006 SCT020 BKN031 03/M00 Q1021 RMK WIND 731FT 33012KT,ENKR,2023-06-09T03:20:00Z,69.72,29.88,3.0,0.0,340,11,,6.21,30.147638,,,,,,,,,,VCSH,FEW,600,SCT,2000,BKN,3100,,,VFR,,,,,,,,,,,,SPECI,86.0
ENKB 090320Z AUTO 06007KT 9999 NCD 09/03 Q1021 RMK WIND 745FT 09013KT,ENKB,2023-06-09T03:20:00Z,63.12,7.82,9.0,3.0,60,7,,6.21,30.147638,,,TRUE,,,,,,,,CLR,,,,,,,,VFR,,,,,,,,,,,,SPECI,62.0
ENJS 090320Z 36013KT 9999 BKN012 09/07 Q1021 W11/S/,ENJS,2023-06-09T03:20:00Z,,,9.0,7.0,360,13,,6.21,30.147638,,,,,,,,,,,BKN,1200,,,,,,,MVFR,,,,,,,,,,,,METAR,
ENHV 090320Z 33013KT 310V010 9999 -DZ FEW013 SCT019 OVC037 05/01 Q1024 REDZ,ENHV,2023-06-09T03:20:00Z,71.02,25.97,5.0,1.0,330,13,,6.21,30.236221,,,,,,,,,,-DZ,FEW,1300,SCT,1900,OVC,3700,,,VFR,,,,,,,,,,,,SPECI,13.0
ENHM 090320Z AUTO 36013KT //// BKN014/// 09/09 Q1021 W10/S/,ENHM,2023-06-09T03:20:00Z,59.57,2.23,9.0,9.0,360,13,,,30.147638,,,TRUE,,,,,,,,BKN,1400,,,,,,,,,,,,,,,,,,,METAR,10.0
ENHK 090320Z AUTO 31011KT 9999 OVC044/// 05/01 Q1026,ENHK,2023-06-09T03:20:00Z,70.48,22.13,5.0,1.0,310,11,,6.21,30.295275,,,TRUE,,,,,,,,OVC,4400,,,,,,,VFR,,,,,,,,,,,,METAR,6.0
ENHF 090320Z VRB05KT 9999 VCSH FEW015 SCT020 BKN026 04/01 Q1024 RESHRA RMK WIND 1254FT 32018KT,ENHF,2023-06-09T03:20:00Z,70.67,23.67,4.0,1.0,0,5,,6.21,30.236221,,,,,,,,,,VCSH,FEW,1500,SCT,2000,BKN,2600,,,MVFR,,,,,,,,,,,,SPECI,79.0
ENHE 090320Z 09019KT CAVOK 07/02 Q1026 W///S3,ENHE,2023-06-09T03:20:00Z,65.33,2.33,7.0,2.0,90,19,,6.21,30.295275,,,,,,,,,,,CAVOK,,,,,,,,VFR,,,,,,,,,,,,METAR,10.0
ENHD 090320Z AUTO 08003KT 1700 BCFG FEW072/// 07/05 Q1020,ENHD,2023-06-09T03:20:00Z,59.35,5.22,7.0,5.0,80,3,,1.06,30.11811,,,TRUE,,,,,,,BCFG,FEW,7200,,,,,,,IFR,,,,,,,,,,,,METAR,22.0
ENGM 090320Z VRB01KT 9999 SCT049 10/01 Q1024,ENGM,2023-06-09T03:20:00Z,60.2,11.07,10.0,1.0,0,1,,6.21,30.236221,,,,,,,,,,,SCT,4900,,,,,,,VFR,,,,,,,,,,,,METAR,204.0
ENGC 090320Z 02021KT 9999 SCT010 09/06 Q1021 W08/S4,ENGC,2023-06-09T03:20:00Z,61.02,2.02,9.0,6.0,20,21,,6.21,30.147638,,,,,,,,,,,SCT,1000,,,,,,,VFR,,,,,,,,,,,,METAR,10.0
ENFL 090320Z AUTO 11004KT 9999NDV NCD 10/08 Q1020,ENFL,2023-06-09T03:20:00Z,61.57,5.02,10.0,8.0,110,4,,,30.11811,,,TRUE,,,,,,,,CLR,,,,,,,,,,,,,,,,,,,,SPECI,1.0
ENFB 090320Z AUTO 02019KT 9999NDV BKN013/// ///// Q//// W///S4,ENFB,2023-06-09T03:20:00Z,61.2,1.83,,,20,19,,,,,,TRUE,,,,,,,,BKN,1300,,,,,,,,,,,,,,,,,,,SPECI,10.0
ENEV 090320Z VRB03KT 9999 BKN039 05/02 Q1029 RMK WIND 1400FT 03004KT,ENEV,2023-06-09T03:20:00Z,68.48,16.67,5.0,2.0,0,3,,6.21,30.383858,,,,,,,,,,,BKN,3900,,,,,,,VFR,,,,,,,,,,,,SPECI,26.0
ENDU 090320Z VRB03KT 9999 FEW025 BKN040 04/M00 Q1028 RMK WIND 1100FT 29005KT WIND 2200FT 29007KT,ENDU,2023-06-09T03:20:00Z,69.05,18.55,4.0,0.0,0,3,,6.21,30.35433,,,,,,,,,,,FEW,2500,BKN,4000,,,,,VFR,,,,,,,,,,,,SPECI,65.0
ENDR 090320Z AUTO 07025KT 9999NDV NCD 08/03 Q1025 W///S3,ENDR,2023-06-09T03:20:00Z,64.35,7.77,8.0,3.0,70,25,,,30.265747,,,TRUE,,,,,,,,CLR,,,,,,,,,,,,,,,,,,,,SPECI,10.0
ENCN 090320Z AUTO 05009KT 9999 NCD 13/10 Q1020,ENCN,2023-06-09T03:20:00Z,58.2,8.07,13.0,10.0,50,9,,6.21,30.11811,,,TRUE,,,,,,,,CLR,,,,,,,,VFR,,,,,,,,,,,,METAR,17.0
ENBV 090320Z AUTO 32018KT 9999 FEW026/// OVC038/// 04/00 Q1022,ENBV,2023-06-09T03:20:00Z,70.87,29.02,4.0,0.0,320,18,,6.21,30.177166,,,TRUE,,,,,,,,FEW,2600,OVC,3800,,,,,VFR,,,,,,,,,,,,METAR,13.0
ENBS 090320Z AUTO 33020KT 9999 -DZ FEW013/// SCT017/// BKN022/// 02/M01 Q1021,ENBS,2023-06-09T03:20:00Z,70.62,29.68,2.0,-1.0,330,20,,6.21,30.147638,,,TRUE,,,,,,,-DZ,FEW,1300,SCT,1700,BKN,2200,,,MVFR,,,,,,,,,,,,METAR,144.0
ENBR 090320Z 13002KT CAVOK 09/09 Q1020 RMK WIND 1200FT 16013KT,ENBR,2023-06-09T03:20:00Z,60.28,5.22,9.0,9.0,130,2,,6.21,30.11811,,,,,,,,,,,CAVOK,,,,,,,,VFR,,,,,,,,,,,,SPECI,49.0
ENBO 090320Z 08004KT 9999 FEW025 SCT040 06/02 Q1028,ENBO,2023-06-09T03:20:00Z,67.27,14.37,6.0,2.0,80,4,,6.21,30.35433,,,,,,,,,,,FEW,2500,SCT,4000,,,,,VFR,,,,,,,,,,,,METAR,13.0
ENBN 090320Z AUTO 02005KT 9999NDV NCD 06/02 Q1027,ENBN,2023-06-09T03:20:00Z,65.47,12.22,6.0,2.0,20,5,,,30.324802,,,TRUE,,,,,,,,CLR,,,,,,,,,,,,,,,,,,,,SPECI,3.0
ENBL 090320Z AUTO VRB02KT 9999 NCD 11/03 Q1020,ENBL,2023-06-09T03:20:00Z,61.4,5.77,11.0,3.0,0,2,,6.21,30.11811,,,TRUE,,,,,,,,CLR,,,,,,,,VFR,,,,,,,,,,,,METAR,313.0
ENAT 090320Z AUTO 35015KT 9999 BKN043/// 06/00 Q1025 RMK WIND 700FT 34015KT,ENAT,2023-06-09T03:20:00Z,69.97,23.37,6.0,0.0,350,15,,6.21,30.265747,,,TRUE,,,,,,,,BKN,4300,,,,,,,VFR,,,,,,,,,,,,SPECI,3.0
ENAN 090320Z VRB03KT 9999 -DZ BKN019 04/01 Q1029,ENAN,2023-06-09T03:20:00Z,69.3,16.13,4.0,1.0,0,3,,6.21,30.383858,,,,,,,,,,-DZ,BKN,1900,,,,,,,MVFR,,,,,,,,,,,,METAR,13.0
ENAL 090320Z AUTO 07006KT 9999 NCD 08/06 Q1020,ENAL,2023-06-09T03:20:00Z,62.57,6.12,8.0,6.0,70,6,,6.21,30.11811,,,TRUE,,,,,,,,CLR,,,,,,,,VFR,,,,,,,,,,,,METAR,21.0
ELLX 090320Z 05007KT CAVOK 13/10 Q1013 NOSIG,ELLX,2023-06-09T03:20:00Z,49.63,6.2,13.0,10.0,50,7,,6.21,29.911417,,,,,,TRUE,,,,,CAVOK,,,,,,,,VFR,,,,,,,,,,,,METAR,374.0
EKVG 090320Z AUTO 12013KT 9999 FEW013/// OVC054/// 08/06 Q1023 RMK OVC053/// WIND SKEID 12017KT,EKVG,2023-06-09T03:20:00Z,62.07,-7.27,8.0,6.0,120,13,,6.21,30.206694,,,TRUE,,,,,,,,FEW,1300,OVC,5400,,,,,VFR,,,,,,,,,,,,SPECI,89.0
EKVD 090320Z AUTO 36005KT 330V030 //// ///////// 07/07 Q1019,EKVD,2023-06-09T03:20:00Z,55.43,9.32,7.0,7.0,360,5,,,30.088583,,,TRUE,,,,,,,,,,,,,,,,,,,,,,,,,,,,SPECI,41.0
EKSP 090320Z 01002KT 0200 R10/0450N R28/0450N FG VV002 07/07 Q1019,EKSP,2023-06-09T03:20:00Z,55.22,9.27,7.0,7.0,10,2,,0.12,30.088583,,,,,,,,,,FG,OVX,0,,,,,,,LIFR,,,,,,,,,,,200,SPECI,40.0
EKSB 090320Z AUTO 33008KT 9000 BKN004/// 10/10 Q1018,EKSB,2023-06-09T03:20:00Z,54.97,9.8,10.0,10.0,330,8,,5.59,30.059055,,,TRUE,,,,,,,,BKN,400,,,,,,,LIFR,,,,,,,,,,,,METAR,23.0
EKRS 090320Z AUTO 08001KT 9999 NCD 07/07 Q1018,EKRS,2023-06-09T03:20:00Z,55.42,11.8,7.0,7.0,80,1,,6.21,30.059055,,,TRUE,,,,,,,,CLR,,,,,,,,VFR,,,,,,,,,,,,METAR,34.0
EKRN 090320Z AUTO 06012KT 9999 FEW009/// 14/13 Q1018,EKRN,2023-06-09T03:20:00Z,55.07,14.75,14.0,13.0,60,12,,6.21,30.059055,,,TRUE,,,,,,,,FEW,900,,,,,,,VFR,,,,,,,,,,,,METAR,14.0
EKRK 090320Z AUTO 04002KT 9999 NCD 11/08 Q1018,EKRK,2023-06-09T03:20:00Z,55.58,12.13,11.0,8.0,40,2,,6.21,30.059055,,,TRUE,,,,,,,,CLR,,,,,,,,VFR,,,,,,,,,,,,METAR,40.0
EKKA 090320Z AUTO 22001KT 9999 NCD 07/06 Q1019,EKKA,2023-06-09T03:20:00Z,56.3,9.12,7.0,6.0,220,1,,6.21,30.088583,,,TRUE,,,,,,,,CLR,,,,,,,,VFR,,,,,,,,,,,,METAR,50.0
EKEB 090320Z AUTO 03004KT 350V070 9999 OVC007/// 09/08 Q1019,EKEB,2023-06-09T03:20:00Z,55.52,8.55,9.0,8.0,30,4,,6.21,30.088583,,,TRUE,,,,,,,,OVC,700,,,,,,,IFR,,,,,,,,,,,,METAR,29.0
EKCH 090320Z AUTO 06005KT 9999 NCD 14/11 Q1019 NOSIG,EKCH,2023-06-09T03:20:00Z,55.62,12.67,14.0,11.0,60,5,,6.21,30.088583,,,TRUE,,,TRUE,,,,,CLR,,,,,,,,VFR,,,,,,,,,,,,METAR,4.0
EKBI 090320Z AUTO 01003KT 9999 OVC003/// 07/07 Q1019,EKBI,2023-06-09T03:20:00Z,55.73,9.15,7.0,7.0,10,3,,6.21,30.088583,,,TRUE,,,,,,,,OVC,300,,,,,,,LIFR,,,,,,,,,,,,METAR,67.0
EKAH 090320Z AUTO 31002KT 9999 OVC002/// 10/09 Q1019,EKAH,2023-06-09T03:20:00Z,56.28,10.62,10.0,9.0,310,2,,6.21,30.088583,,,TRUE,,,,,,,,OVC,200,,,,,,,LIFR,,,,,,,,,,,,METAR,25.0
EGYM 090320Z AUTO 05008KT //// // BKN010/// 10/09 Q1017,EGYM,2023-06-09T03:20:00Z,52.63,0.57,10.0,9.0,50,8,,,30.029528,,,TRUE,,,,,,,,BKN,1000,,,,,,,,,,,,,,,,,,,METAR,25.0
EGYH 090320Z AUTO 07016KT //// // OVC012/// 12/09 Q1017,EGYH,2023-06-09T03:20:00Z,52.87,0.15,12.0,9.0,70,16,,,30.029528,,,TRUE,,,,,,,,OVC,1200,,,,,,,,,,,,,,,,,,,METAR,5.0
EGYE 090320Z AUTO 06010KT //// ///////// ///// Q////,EGYE,2023-06-09T03:20:00Z,52.97,-0.57,,,60,10,,,,,,TRUE,,,,,,,,,,,,,,,,,,,,,,,,,,,,METAR,105.0
EGYD 090320Z AUTO 05010KT 9999 OVC013/// 11/08 Q1018,EGYD,2023-06-09T03:20:00Z,53.03,-0.5,11.0,8.0,50,10,,6.21,30.059055,,,TRUE,,,,,,,,OVC,1300,,,,,,,MVFR,,,,,,,,,,,,METAR,65.0
EGXZ 090320Z AUTO 07003KT 9999 OVC020/// 10/06 Q1020,EGXZ,2023-06-09T03:20:00Z,54.2,-1.38,10.0,6.0,70,3,,6.21,30.11811,,,TRUE,,,,,,,,OVC,2000,,,,,,,MVFR,,,,,,,,,,,,METAR,24.0
EGXW 090320Z AUTO 05008KT 9999 OVC014/// 10/08 Q1018,EGXW,2023-06-09T03:20:00Z,53.18,-0.52,10.0,8.0,50,8,,6.21,30.059055,,,TRUE,,,,,,,,OVC,1400,,,,,,,MVFR,,,,,,,,,,,,METAR,70.0
EGXV 090320Z AUTO 07008KT 9999 OVC017/// 11/07 Q1019,EGXV,2023-06-09T03:20:00Z,53.87,-0.45,11.0,7.0,70,8,,6.21,30.088583,,,TRUE,,,,,,,,OVC,1700,,,,,,,MVFR,,,,,,,,,,,,METAR,6.0
EGXT 090320Z AUTO 04014KT 9999 OVC011/// 11/09 Q1017,EGXT,2023-06-09T03:20:00Z,52.62,-0.47,11.0,9.0,40,14,,6.21,30.029528,,,TRUE,,,,,,,,OVC,1100,,,,,,,MVFR,,,,,,,,,,,,METAR,74.0
EGXS 090320Z AUTO 05014KT 9999 OVC013/// 11/08 Q1018,EGXS,2023-06-09T03:20:00Z,53.48,0.15,11.0,8.0,50,14,,6.21,30.059055,,,TRUE,,,,,,,,OVC,1300,,,,,,,MVFR,,,,,,,,,,,,METAR,6.0
EGXE 090320Z AUTO 05003KT 9999 OVC021/// 10/06 Q1020,EGXE,2023-06-09T03:20:00Z,54.28,-1.52,10.0,6.0,50,3,,6.21,30.11811,,,TRUE,,,,,,,,OVC,2100,,,,,,,MVFR,,,,,,,,,,,,METAR,30.0
EGWU 090320Z AUTO 06010KT 9999 OVC009/// 11/09 Q1015,EGWU,2023-06-09T03:20:00Z,51.55,-0.42,11.0,9.0,60,10,,6.21,29.970472,,,TRUE,,,,,,,,OVC,900,,,,,,,IFR,,,,,,,,,,,,METAR,33.0
EGWC 090320Z AUTO 07004KT //// ///////// ///// Q////,EGWC,2023-06-09T03:20:00Z,52.63,-2.3,,,70,4,,,,,,TRUE,,,,,,,,,,,,,,,,,,,,,,,,,,,,METAR,79.0
EGVP 090320Z AUTO 04011KT 9999 BKN056/// 11/08 Q1013,EGVP,2023-06-09T03:20:00Z,51.13,-1.57,11.0,8.0,40,11,,6.21,29.911417,,,TRUE,,,,,,,,BKN,5600,,,,,,,VFR,,,,,,,,,,,,METAR,80.0
EGVO 090320Z AUTO 04009KT 9999 OVC009/// 11/09 Q1014,EGVO,2023-06-09T03:20:00Z,51.23,-0.95,11.0,9.0,40,9,,6.21,29.940945,,,TRUE,,,,,,,,OVC,900,,,,,,,IFR,,,,,,,,,,,,METAR,118.0
EGVN 090320Z 05009KT 9999 BKN009 10/08 Q1015 NOSIG RMK GRN GRN,EGVN,2023-06-09T03:20:00Z,51.77,-1.58,10.0,8.0,50,9,,6.21,29.970472,,,,,,TRUE,,,,,BKN,900,,,,,,,IFR,,,,,,,,,,,,METAR,83.0
EGUW 090320Z AUTO 05012KT 9999 OVC005/// 11/10 Q1015,EGUW,2023-06-09T03:20:00Z,52.12,0.97,11.0,10.0,50,12,,6.21,29.970472,,,TRUE,,,,,,,,OVC,500,,,,,,,IFR,,,,,,,,,,,,METAR,86.0
EGUB 090320Z AUTO 01006KT 9999 FEW006/// 09/08 Q1015,EGUB,2023-06-09T03:20:00Z,51.62,-1.08,9.0,8.0,10,6,,6.21,29.970472,,,TRUE,,,,,,,,FEW,600,,,,,,,VFR,,,,,,,,,,,,METAR,56.0
EGSY 090320Z AUTO 07014KT 9999 NCD 11/07 Q1013,EGSY,2023-06-09T03:20:00Z,51.4,-3.43,11.0,7.0,70,14,,6.21,29.911417,,,TRUE,,,,,,,,CLR,,,,,,,,VFR,,,,,,,,,,,,METAR,46.0
EGSS 090320Z AUTO 03007KT 9000 OVC006 10/09 Q1016,EGSS,2023-06-09T03:20:00Z,51.88,0.22,10.0,9.0,30,7,,5.59,30.0,,,TRUE,,,,,,,,OVC,600,,,,,,,IFR,,,,,,,,,,,,METAR,101.0
EGSH 090320Z AUTO 04009KT 9999 OVC008/// 12/10 Q1017,EGSH,2023-06-09T03:20:00Z,52.68,1.28,12.0,10.0,40,9,,6.21,30.029528,,,TRUE,,,,,,,,OVC,800,,,,,,,IFR,,,,,,,,,,,,METAR,21.0
EGQM 090320Z AUTO 11007KT 9999 OVC022/// 11/07 Q1020,EGQM,2023-06-09T03:20:00Z,55.42,-1.6,11.0,7.0,110,7,,6.21,30.11811,,,TRUE,,,,,,,,OVC,2200,,,,,,,MVFR,,,,,,,,,,,,METAR,24.0
EGQK 090320Z AUTO 11004KT 9999 NCD 05/04 Q1020,EGQK,2023-06-09T03:20:00Z,57.65,-3.57,5.0,4.0,110,4,,6.21,30.11811,,,TRUE,,,,,,,,CLR,,,,,,,,VFR,,,,,,,,,,,,METAR,5.0
EGQA 090320Z AUTO 13001KT 9999 NCD 05/03 Q1020,EGQA,2023-06-09T03:20:00Z,57.83,-3.95,5.0,3.0,130,1,,6.21,30.11811,,,TRUE,,,,,,,,CLR,,,,,,,,VFR,,,,,,,,,,,,METAR,4.0
EGPU 090320Z AUTO 11015KT 9999 NCD 11/07 Q1018,EGPU,2023-06-09T03:20:00Z,56.5,-6.88,11.0,7.0,110,15,,6.21,30.059055,,,TRUE,,,,,,,,CLR,,,,,,,,VFR,,,,,,,,,,,,METAR,12.0
EGPO 090320Z AUTO 11005KT 9999 NCD 11/09 Q1019,EGPO,2023-06-09T03:20:00Z,58.22,-6.32,11.0,9.0,110,5,,6.21,30.088583,,,TRUE,,,,,,,,CLR,,,,,,,,VFR,,,,,,,,,,,,METAR,10.0
EGPL 090320Z AUTO VRB02KT 9999 NCD 08/08 Q1018,EGPL,2023-06-09T03:20:00Z,57.47,-7.37,8.0,8.0,0,2,,6.21,30.059055,,,TRUE,,,,,,,,CLR,,,,,,,,VFR,,,,,,,,,,,,METAR,3.0
EGPK 090320Z AUTO 05006KT 9999 NCD 07/05 Q1019,EGPK,2023-06-09T03:20:00Z,55.5,-4.58,7.0,5.0,50,6,,6.21,30.088583,,,TRUE,,,,,,,,CLR,,,,,,,,VFR,,,,,,,,,,,,METAR,14.0
EGPI 090320Z AUTO 09017KT 9999 NCD 10/06 Q1017,EGPI,2023-06-09T03:20:00Z,55.68,-6.25,10.0,6.0,90,17,,6.21,30.029528,,,TRUE,,,,,,,,CLR,,,,,,,,VFR,,,,,,,,,,,,METAR,17.0
EGPH 090320Z 09007KT 9999 OVC022 11/06 Q1020,EGPH,2023-06-09T03:20:00Z,55.95,-3.35,11.0,6.0,90,7,,6.21,30.11811,,,,,,,,,,,OVC,2200,,,,,,,MVFR,,,,,,,,,,,,METAR,29.0
EGPF 090320Z AUTO 06005KT 9999 BKN024 09/06 Q1020,EGPF,2023-06-09T03:20:00Z,55.87,-4.42,9.0,6.0,60,5,,6.21,30.11811,,,TRUE,,,,,,,,BKN,2400,,,,,,,MVFR,,,,,,,,,,,,METAR,8.0
EGPE 090320Z 23002KT 9999 MIFG NSC 03/03 Q1020,EGPE,2023-06-09T03:20:00Z,57.53,-4.05,3.0,3.0,230,2,,6.21,30.11811,,,,,,,,,,MIFG,CLR,,,,,,,,VFR,,,,,,,,,,,,METAR,7.0
EGPD 090320Z AUTO 01002KT 9999 OVC023 09/08 Q1021,EGPD,2023-06-09T03:20:00Z,57.2,-2.22,9.0,8.0,10,2,,6.21,30.147638,,,TRUE,,,,,,,,OVC,2300,,,,,,,MVFR,,,,,,,,,,,,METAR,65.0
EGPC 090320Z AUTO 08009KT 9999 OVC025/// 09/06 Q1021,EGPC,2023-06-09T03:20:00Z,58.45,-3.08,9.0,6.0,80,9,,6.21,30.147638,,,TRUE,,,,,,,,OVC,2500,,,,,,,MVFR,,,,,,,,,,,,METAR,38.0
EGPB 090320Z AUTO 07006KT 9999 OVC021/// 09/04 Q1023,EGPB,2023-06-09T03:20:00Z,59.87,-1.3,9.0,4.0,70,6,,6.21,30.206694,,,TRUE,,,,,,,,OVC,2100,,,,,,,MVFR,,,,,,,,,,,,METAR,2.0
EGPA 090320Z AUTO 11002KT 9999 OVC022/// 08/05 Q1022,EGPA,2023-06-09T03:20:00Z,58.95,-2.9,8.0,5.0,110,2,,6.21,30.177166,,,TRUE,,,,,,,,OVC,2200,,,,,,,MVFR,,,,,,,,,,,,METAR,15.0
EGOV 090320Z AUTO 07009KT 9999 NCD 11/08 Q1014,EGOV,2023-06-09T03:20:00Z,53.25,-4.53,11.0,8.0,70,9,,6.21,29.940945,,,TRUE,,,,,,,,CLR,,,,,,,,VFR,,,,,,,,,,,,METAR,11.0
EGOS 090320Z AUTO 05004KT 9999 OVC015/// 10/07 Q1017,EGOS,2023-06-09T03:20:00Z,52.8,-2.67,10.0,7.0,50,4,,6.21,30.029528,,,TRUE,,,,,,,,OVC,1500,,,,,,,MVFR,,,,,,,,,,,,METAR,76.0
EGOP 090320Z AUTO 05006KT 9999 NCD 12/08 Q1013,EGOP,2023-06-09T03:20:00Z,51.72,-4.37,12.0,8.0,50,6,,6.21,29.911417,,,TRUE,,,,,,,,CLR,,,,,,,,VFR,,,,,,,,,,,,METAR,8.0
EGOM 090320Z AUTO 10009KT 9999 OVC012/// 08/06 Q1019,EGOM,2023-06-09T03:20:00Z,55.05,-2.55,8.0,6.0,100,9,,6.21,30.088583,,,TRUE,,,,,,,,OVC,1200,,,,,,,MVFR,,,,,,,,,,,,METAR,286.0
EGNX 090320Z 05012KT 9999 BKN014 10/07 Q1018,EGNX,2023-06-09T03:20:00Z,52.82,-1.32,10.0,7.0,50,12,,6.21,30.059055,,,,,,,,,,,BKN,1400,,,,,,,MVFR,,,,,,,,,,,,METAR,91.0
EGNT 090320Z 13004KT 080V180 9999 BKN020 10/06 Q1020,EGNT,2023-06-09T03:20:00Z,55.03,-1.7,10.0,6.0,130,4,,6.21,30.11811,,,,,,,,,,,BKN,2000,,,,,,,MVFR,,,,,,,,,,,,METAR,77.0
EGNM 090320Z 08006KT 050V110 9999 BKN014 09/06 Q1019,EGNM,2023-06-09T03:20:00Z,53.87,-1.65,9.0,6.0,80,6,,6.21,30.088583,,,,,,,,,,,BKN,1400,,,,,,,MVFR,,,,,,,,,,,,METAR,221.0
EGNJ 090320Z AUTO 06010KT 9999 OVC014/// 11/09 Q1019,EGNJ,2023-06-09T03:20:00Z,53.57,-0.35,11.0,9.0,60,10,,6.21,30.088583,,,TRUE,,,,,,,,OVC,1400,,,,,,,MVFR,,,,,,,,,,,,METAR,23.0
EGMD 090320Z AUTO 02008KT 9999 NCD 12/12 Q1014,EGMD,2023-06-09T03:20:00Z,50.95,0.93,12.0,12.0,20,8,,6.21,29.940945,,,TRUE,,,,,,,,CLR,,,,,,,,VFR,,,,,,,,,,,,METAR,4.0
EGLL 090320Z AUTO 06009KT 9999 OVC011 12/09 Q1015,EGLL,2023-06-09T03:20:00Z,51.48,-0.45,12.0,9.0,60,9,,6.21,29.970472,,,TRUE,,,,,,,,OVC,1100,,,,,,,MVFR,,,,,,,,,,,,METAR,26.0
EGLF 090320Z AUTO 05010KT 360V080 9999 OVC009/// 12/09 Q1014,EGLF,2023-06-09T03:20:00Z,51.28,-0.77,12.0,9.0,50,10,,6.21,29.940945,,,TRUE,,,,,,,,OVC,900,,,,,,,IFR,,,,,,,,,,,,METAR,65.0
EGLC 090320Z AUTO 05006KT 360V080 9999 OVC009 12/10 Q1016,EGLC,2023-06-09T03:20:00Z,51.5,0.05,12.0,10.0,50,6,,6.21,30.0,,,TRUE,,,,,,,,OVC,900,,,,,,,IFR,,,,,,,,,,,,METAR,10.0
EGKK 090320Z 04010KT 9999 BKN010 13/11 Q1014,EGKK,2023-06-09T03:20:00Z,51.13,-0.18,13.0,11.0,40,10,,6.21,29.940945,,,,,,,,,,,BKN,1000,,,,,,,MVFR,,,,,,,,,,,,METAR,58.0
EGJJ 090320Z AUTO 08015KT 9999 NCD 15/14 Q1009,EGJJ,2023-06-09T03:20:00Z,49.22,-2.2,15.0,14.0,80,15,,6.21,29.793306,,,TRUE,,,,,,,,CLR,,,,,,,,VFR,,,,,,,,,,,,METAR,84.0
EGJB 090320Z 06012KT CAVOK 14/13 Q1009,EGJB,2023-06-09T03:20:00Z,49.42,-2.6,14.0,13.0,60,12,,6.21,29.793306,,,,,,,,,,,CAVOK,,,,,,,,VFR,,,,,,,,,,,,METAR,102.0
EGHQ 090320Z AUTO 10015KT 9999 NCD 16/12 Q1010 RERA,EGHQ,2023-06-09T03:20:00Z,50.43,-5.0,16.0,12.0,100,15,,6.21,29.822834,,,TRUE,,,,,,,,CLR,,,,,,,,VFR,,,,,,,,,,,,METAR,101.0
EGGW 090320Z AUTO 04008KT 8000 OVC003 09/09 Q1016,EGGW,2023-06-09T03:20:00Z,51.87,-0.37,9.0,9.0,40,8,,4.97,30.0,,,TRUE,,,,,,,,OVC,300,,,,,,,LIFR,,,,,,,,,,,,METAR,159.0
EGGP 090320Z AUTO 09005KT 9999 NCD 08/06 Q1018,EGGP,2023-06-09T03:20:00Z,53.33,-2.85,8.0,6.0,90,5,,6.21,30.059055,,,TRUE,,,,,,,,CLR,,,,,,,,VFR,,,,,,,,,,,,METAR,23.0
EGGD 090320Z AUTO 05017KT 9999 NCD 10/08 Q1014,EGGD,2023-06-09T03:20:00Z,51.37,-2.72,10.0,8.0,50,17,,6.21,29.940945,,,TRUE,,,,,,,,CLR,,,,,,,,VFR,,,,,,,,,,,,METAR,182.0
EGFF 090320Z AUTO 07017KT 9999 NCD 11/08 Q1013,EGFF,2023-06-09T03:20:00Z,51.38,-3.35,11.0,8.0,70,17,,6.21,29.911417,,,TRUE,,,,,,,,CLR,,,,,,,,VFR,,,,,,,,,,,,METAR,65.0
EGDY 090320Z AUTO 05011KT 9999 NCD 11/08 Q1013,EGDY,2023-06-09T03:20:00Z,51.0,-2.63,11.0,8.0,50,11,,6.21,29.911417,,,TRUE,,,,,,,,CLR,,,,,,,,VFR,,,,,,,,,,,,METAR,21.0
EGDR 090320Z AUTO 08016KT 9999 // BKN063/// BKN095/// 15/12 Q1009,EGDR,2023-06-09T03:20:00Z,50.08,-5.25,15.0,12.0,80,16,,6.21,29.793306,,,TRUE,,,,,,,,BKN,6300,BKN,9500,,,,,VFR,,,,,,,,,,,,METAR,74.0
EGDM 090320Z AUTO 06010KT 9999 FEW053/// 11/08 Q1013,EGDM,2023-06-09T03:20:00Z,51.17,-1.75,11.0,8.0,60,10,,6.21,29.911417,,,TRUE,,,,,,,,FEW,5300,,,,,,,VFR,,,,,,,,,,,,METAR,122.0
EGCK 090320Z AUTO VRB01KT 9999 NCD 10/06 Q1015,EGCK,2023-06-09T03:20:00Z,53.1,-4.33,10.0,6.0,0,1,,6.21,29.970472,,,TRUE,,,,,,,,CLR,,,,,,,,VFR,,,,,,,,,,,,METAR,6.0
EGCC 090320Z AUTO 05006KT 9999 NCD 09/06 Q1018,EGCC,2023-06-09T03:20:00Z,53.35,-2.27,9.0,6.0,50,6,,6.21,30.059055,,,TRUE,,,,,,,,CLR,,,,,,,,VFR,,,,,,,,,,,,METAR,78.0
EGBB 090320Z 06007KT 030V090 9999 BKN013 10/08 Q1017,EGBB,2023-06-09T03:20:00Z,52.47,-1.75,10.0,8.0,60,7,,6.21,30.029528,,,,,,,,,,,BKN,1300,,,,,,,MVFR,,,,,,,,,,,,METAR,91.0
EGAC 090320Z AUTO 09005KT 020V150 9999 BKN012 11/08 Q1017,EGAC,2023-06-09T03:20:00Z,54.62,-5.87,11.0,8.0,90,5,,6.21,30.029528,,,TRUE,,,,,,,,BKN,1200,,,,,,,MVFR,,,,,,,,,,,,METAR,2.0
EGAA 090320Z AUTO 10007KT 9999 NCD 10/08 Q1017,EGAA,2023-06-09T03:20:00Z,54.65,-6.22,10.0,8.0,100,7,,6.21,30.029528,,,TRUE,,,,,,,,CLR,,,,,,,,VFR,,,,,,,,,,,,METAR,65.0
EFVA 090320Z AUTO 35005KT CAVOK 07/04 Q1025,EFVA,2023-06-09T03:20:00Z,63.05,21.77,7.0,4.0,350,5,,6.21,30.265747,,,TRUE,,,,,,,,CAVOK,,,,,,,,VFR,,,,,,,,,,,,METAR,4.0
EFUT 090320Z 34009KT 310V010 CAVOK 07/04 Q1020,EFUT,2023-06-09T03:20:00Z,60.88,26.93,7.0,4.0,340,9,,6.21,30.11811,,,,,,,,,,,CAVOK,,,,,,,,VFR,,,,,,,,,,,,METAR,104.0
EFTU 090320Z AUTO 01003KT 330V050 CAVOK 06/03 Q1024,EFTU,2023-06-09T03:20:00Z,60.52,22.27,6.0,3.0,10,3,,6.21,30.236221,,,TRUE,,,,,,,,CAVOK,,,,,,,,VFR,,,,,,,,,,,,METAR,47.0
EFTP 090320Z AUTO 34005KT CAVOK 06/03 Q1023,EFTP,2023-06-09T03:20:00Z,61.42,23.62,6.0,3.0,340,5,,6.21,30.206694,,,TRUE,,,,,,,,CAVOK,,,,,,,,VFR,,,,,,,,,,,,METAR,111.0
EFSI 090320Z AUTO 31004KT CAVOK 06/04 Q1025,EFSI,2023-06-09T03:20:00Z,62.7,22.83,6.0,4.0,310,4,,6.21,30.265747,,,TRUE,,,,,,,,CAVOK,,,,,,,,VFR,,,,,,,,,,,,METAR,90.0
EFSA 090320Z AUTO 34011KT 9999 OVC028 08/05 Q1019,EFSA,2023-06-09T03:20:00Z,61.95,28.93,8.0,5.0,340,11,,6.21,30.088583,,,TRUE,,,,,,,,OVC,2800,,,,,,,MVFR,,,,,,,,,,,,METAR,90.0
EFRO 090320Z AUTO 34010KT 310V030 CAVOK 04/M02 Q1023,EFRO,2023-06-09T03:20:00Z,66.57,25.82,4.0,-2.0,340,10,,6.21,30.206694,,,TRUE,,,,,,,,CAVOK,,,,,,,,VFR,,,,,,,,,,,,METAR,201.0
EFPO 090320Z AUTO 31004KT 290V350 9999 SHRA //////CB 07/04 Q1025,EFPO,2023-06-09T03:20:00Z,61.47,21.8,7.0,4.0,310,4,,6.21,30.265747,,,TRUE,,,,,,,SHRA,,,,,,,,,,,,,,,,,,,,,SPECI,10.0
EFOU 090320Z AUTO 36010KT CAVOK 08/01 Q1023,EFOU,2023-06-09T03:20:00Z,64.92,25.37,8.0,1.0,360,10,,6.21,30.206694,,,TRUE,,,,,,,,CAVOK,,,,,,,,VFR,,,,,,,,,,,,METAR,15.0
EFMI 090320Z AUTO 32004KT 260V020 CAVOK 07/04 Q1020,EFMI,2023-06-09T03:20:00Z,61.68,27.2,7.0,4.0,320,4,,6.21,30.11811,,,TRUE,,,,,,,,CAVOK,,,,,,,,VFR,,,,,,,,,,,,METAR,99.0
EFMA 090320Z AUTO 01005KT CAVOK 08/06 Q1025,EFMA,2023-06-09T03:20:00Z,60.12,19.9,8.0,6.0,10,5,,6.21,30.265747,,,TRUE,,,,,,,,CAVOK,,,,,,,,VFR,,,,,,,,,,,,METAR,6.0
EFLP 090320Z AUTO 35010KT 310V020 9999 BKN021 08/05 Q1019,EFLP,2023-06-09T03:20:00Z,61.03,28.15,8.0,5.0,350,10,,6.21,30.088583,,,TRUE,,,,,,,,BKN,2100,,,,,,,MVFR,,,,,,,,,,,,METAR,102.0
EFKU 090320Z AUTO 34010KT CAVOK 07/03 Q1020,EFKU,2023-06-09T03:20:00Z,63.02,27.8,7.0,3.0,340,10,,6.21,30.11811,,,TRUE,,,,,,,,CAVOK,,,,,,,,VFR,,,,,,,,,,,,METAR,92.0
EFKT 090320Z AUTO 34008KT 9999 OVC047 04/M00 Q1024,EFKT,2023-06-09T03:20:00Z,67.7,24.85,4.0,0.0,340,8,,6.21,30.236221,,,TRUE,,,,,,,,OVC,4700,,,,,,,VFR,,,,,,,,,,,,METAR,190.0
EFKS 090320Z AUTO 35008KT 9999 BKN031 BKN049 04/M01 Q1020,EFKS,2023-06-09T03:20:00Z,66.0,29.23,4.0,-1.0,350,8,,6.21,30.11811,,,TRUE,,,,,,,,BKN,3100,BKN,4900,,,,,VFR,,,,,,,,,,,,METAR,270.0
EFKK 090320Z AUTO 35008KT CAVOK 08/02 Q1025,EFKK,2023-06-09T03:20:00Z,63.72,23.13,8.0,2.0,350,8,,6.21,30.265747,,,TRUE,,,,,,,,CAVOK,,,,,,,,VFR,,,,,,,,,,,,METAR,25.0
EFKI 090320Z AUTO 34010KT CAVOK 06/01 Q1021,EFKI,2023-06-09T03:20:00Z,64.27,27.67,6.0,1.0,340,10,,6.21,30.147638,,,TRUE,,,,,,,,CAVOK,,,,,,,,VFR,,,,,,,,,,,,METAR,132.0
EFKE 090320Z 35012KT CAVOK 07/M00 Q1024,EFKE,2023-06-09T03:20:00Z,65.78,24.57,7.0,0.0,350,12,,6.21,30.236221,,,,,,,,,,,CAVOK,,,,,,,,VFR,,,,,,,,,,,,METAR,15.0
EFJY 090320Z AUTO 33009KT CAVOK 07/03 Q1022,EFJY,2023-06-09T03:20:00Z,62.4,25.68,7.0,3.0,330,9,,6.21,30.177166,,,TRUE,,,,,,,,CAVOK,,,,,,,,VFR,,,,,,,,,,,,METAR,139.0
EFJO 090320Z AUTO 36008KT 320V040 9999 FEW019 07/03 Q1018,EFJO,2023-06-09T03:20:00Z,62.67,29.62,7.0,3.0,360,8,,6.21,30.059055,,,TRUE,,,,,,,,FEW,1900,,,,,,,VFR,,,,,,,,,,,,METAR,118.0
EFIV 090320Z AUTO 34008KT 300V010 9999 -SHRA FEW006 BKN022 03/01 Q1022,EFIV,2023-06-09T03:20:00Z,68.62,27.42,3.0,1.0,340,8,,6.21,30.177166,,,TRUE,,,,,,,-SHRA,FEW,600,BKN,2200,,,,,MVFR,,,,,,,,,,,,METAR,145.0
EFHK 090320Z 33008KT CAVOK 07/03 Q1022 NOSIG,EFHK,2023-06-09T03:20:00Z,60.32,24.97,7.0,3.0,330,8,,6.21,30.177166,,,,,,TRUE,,,,,CAVOK,,,,,,,,VFR,,,,,,,,,,,,METAR,56.0
EFHA 090320Z AUTO 31006KT CAVOK 06/03 Q1022,EFHA,2023-06-09T03:20:00Z,61.85,24.8,6.0,3.0,310,6,,6.21,30.177166,,,TRUE,,,,,,,,CAVOK,,,,,,,,VFR,,,,,,,,,,,,METAR,144.0
EFET 090320Z AUTO 33010KT 9999 BKN027 04/M01 Q1024,EFET,2023-06-09T03:20:00Z,68.37,23.43,4.0,-1.0,330,10,,6.21,30.236221,,,TRUE,,,,,,,,BKN,2700,,,,,,,MVFR,,,,,,,,,,,,METAR,300.0
EETU 090320Z AUTO 36007KT 330V030 9999 NCD 11/05 Q1020,EETU,2023-06-09T03:20:00Z,58.32,26.68,11.0,5.0,360,7,,6.21,30.11811,,,TRUE,,,,,,,,CLR,,,,,,,,VFR,,,,,,,,,,,,METAR,67.0
EETN 090320Z 02008KT CAVOK 10/04 Q1022,EETN,2023-06-09T03:20:00Z,59.4,24.82,10.0,4.0,20,8,,6.21,30.177166,,,,,,,,,,,CAVOK,,,,,,,,VFR,,,,,,,,,,,,METAR,41.0
EEPU 090320Z AUTO 01004KT 330V030 9999 NCD 08/06 Q1021,EEPU,2023-06-09T03:20:00Z,58.42,24.47,8.0,6.0,10,4,,6.21,30.147638,,,TRUE,,,,,,,,CLR,,,,,,,,VFR,,,,,,,,,,,,METAR,13.0
EEKE 090320Z AUTO 02006KT 9999NDV NCD 09/06 Q1022,EEKE,2023-06-09T03:20:00Z,58.23,22.52,9.0,6.0,20,6,,,30.177166,,,TRUE,,,,,,,,CLR,,,,,,,,,,,,,,,,,,,,METAR,4.0
EEKA 090320Z 02015KT CAVOK 11/06 Q1023,EEKA,2023-06-09T03:20:00Z,58.98,22.83,11.0,6.0,20,15,,6.21,30.206694,,,,,,,,,,,CAVOK,,,,,,,,VFR,,,,,,,,,,,,METAR,6.0
EDXW 090320Z AUTO 02008KT 9999 // BKN007/// 09/08 Q1019,EDXW,2023-06-09T03:20:00Z,54.92,8.33,9.0,8.0,20,8,,6.21,30.088583,,,TRUE,,,,,,,,BKN,700,,,,,,,IFR,,,,,,,,,,,,METAR,8.0
EDWE 090320Z AUTO 02007KT 8000 // FEW005/// 10/09 Q1017,EDWE,2023-06-09T03:20:00Z,53.38,7.23,10.0,9.0,20,7,,4.97,30.029528,,,TRUE,,,,,,,,FEW,500,,,,,,,MVFR,,,,,,,,,,,,SPECI,0.0
EDVK 090320Z VRB01KT CAVOK 12/11 Q1016,EDVK,2023-06-09T03:20:00Z,51.4,9.37,12.0,11.0,0,1,,6.21,30.0,,,,,,,,,,,CAVOK,,,,,,,,VFR,,,,,,,,,,,,METAR,277.0
EDVE 090320Z AUTO 08003KT 050V110 9999 BKN120/// OVC150/// 17/12 Q1016,EDVE,2023-06-09T03:20:00Z,52.32,10.55,17.0,12.0,80,3,,6.21,30.0,,,TRUE,,,,,,,,BKN,12000,OVC,15000,,,,,VFR,,,,,,,,,,,,METAR,83.0
EDTY 090320Z AUTO VRB01KT 6000 // NCD 11/10 Q1014,EDTY,2023-06-09T03:20:00Z,49.12,9.78,11.0,10.0,0,1,,3.73,29.940945,,,TRUE,,,,,,,,CLR,,,,,,,,MVFR,,,,,,,,,,,,SPECI,398.0
EDTL 090320Z AUTO VRB02KT 9999 // NCD 14/11 Q1012,EDTL,2023-06-09T03:20:00Z,48.37,7.83,14.0,11.0,0,2,,6.21,29.88189,,,TRUE,,,,,,,,CLR,,,,,,,,VFR,,,,,,,,,,,,METAR,152.0
EDSB 090320Z 02006KT CAVOK 14/11 Q1011,EDSB,2023-06-09T03:20:00Z,48.78,8.08,14.0,11.0,20,6,,6.21,29.852362,,,,,,,,,,,CAVOK,,,,,,,,VFR,,,,,,,,,,,,METAR,122.0
EDQM 090320Z AUTO 36004KT 330V030 9999 // OVC100/// 12/11 Q1016,EDQM,2023-06-09T03:20:00Z,50.3,11.85,12.0,11.0,360,4,,6.21,30.0,,,TRUE,,,,,,,,OVC,10000,,,,,,,VFR,,,,,,,,,,,,METAR,578.0
EDNY 090320Z AUTO 05006KT 9999 NCD 12/10 Q1013,EDNY,2023-06-09T03:20:00Z,47.67,9.52,12.0,10.0,50,6,,6.21,29.911417,,,TRUE,,,,,,,,CLR,,,,,,,,VFR,,,,,,,,,,,,METAR,411.0
EDMO 090320Z AUTO 00000KT 9999 // NCD 09/09 Q1014,EDMO,2023-06-09T03:20:00Z,48.07,11.27,9.0,9.0,0,0,,6.21,29.940945,,,TRUE,,,,,,,,CLR,,,,,,,,VFR,,,,,,,,,,,,METAR,587.0
EDMA 090320Z AUTO 00000KT 8000 // NCD 10/10 Q1014,EDMA,2023-06-09T03:20:00Z,48.42,10.92,10.0,10.0,0,0,,4.97,29.940945,,,TRUE,,,,,,,,CLR,,,,,,,,MVFR,,,,,,,,,,,,METAR,462.0
EDLW 090320Z 06002KT CAVOK 14/12 Q1015,EDLW,2023-06-09T03:20:00Z,51.52,7.62,14.0,12.0,60,2,,6.21,29.970472,,,,,,,,,,,CAVOK,,,,,,,,VFR,,,,,,,,,,,,METAR,122.0
EDLV 090320Z 04005KT 360V080 CAVOK 15/10 Q1014,EDLV,2023-06-09T03:20:00Z,51.6,6.15,15.0,10.0,40,5,,6.21,29.940945,,,,,,,,,,,CAVOK,,,,,,,,VFR,,,,,,,,,,,,METAR,27.0
EDLP 090320Z 12005KT CAVOK 12/10 Q1015,EDLP,2023-06-09T03:20:00Z,51.62,8.62,12.0,10.0,120,5,,6.21,29.970472,,,,,,,,,,,CAVOK,,,,,,,,VFR,,,,,,,,,,,,METAR,211.0
EDLN 090320Z AUTO VRB01KT 9999 // NCD 12/11 Q1014,EDLN,2023-06-09T03:20:00Z,51.23,6.5,12.0,11.0,0,1,,6.21,29.940945,,,TRUE,,,,,,,,CLR,,,,,,,,VFR,,,,,,,,,,,,METAR,38.0
EDJA 090320Z AUTO 05005KT 010V070 9999 // FEW140/// 09/08 Q1014,EDJA,2023-06-09T03:20:00Z,47.98,10.23,9.0,8.0,50,5,,6.21,29.940945,,,TRUE,,,,,,,,FEW,14000,,,,,,,VFR,,,,,,,,,,,,SPECI,625.0
EDHL 090320Z AUTO 35002KT 9999 // FEW005/// 08/08 Q1018,EDHL,2023-06-09T03:20:00Z,53.8,10.72,8.0,8.0,350,2,,6.21,30.059055,,,TRUE,,,,,,,,FEW,500,,,,,,,VFR,,,,,,,,,,,,METAR,13.0
EDHI 090320Z AUTO 05004KT 9999 // NCD 14/10 Q1017,EDHI,2023-06-09T03:20:00Z,53.53,9.83,14.0,10.0,50,4,,6.21,30.029528,,,TRUE,,,,,,,,CLR,,,,,,,,VFR,,,,,,,,,,,,METAR,5.0
EDGS 090320Z AUTO 09007KT 9999 // NCD 13/10 Q1016,EDGS,2023-06-09T03:20:00Z,50.7,8.08,13.0,10.0,90,7,,6.21,30.0,,,TRUE,,,,,,,,CLR,,,,,,,,VFR,,,,,,,,,,,,SPECI,595.0
EDFM 090320Z AUTO 36002KT 9999 // NCD 14/12 Q1013,EDFM,2023-06-09T03:20:00Z,49.47,8.52,14.0,12.0,360,2,,6.21,29.911417,,,TRUE,,,,,,,,CLR,,,,,,,,VFR,,,,,,,,,,,,SPECI,94.0
EDFH 090320Z 11004KT 050V160 CAVOK 12/10 Q1014,EDFH,2023-06-09T03:20:00Z,49.95,7.27,12.0,10.0,110,4,,6.21,29.940945,,,,,,,,,,,CAVOK,,,,,,,,VFR,,,,,,,,,,,,METAR,494.0
EDDW 090320Z AUTO 04004KT CAVOK 13/10 Q1017,EDDW,2023-06-09T03:20:00Z,53.03,8.8,13.0,10.0,40,4,,6.21,30.029528,,,TRUE,,,,,,,,CAVOK,,,,,,,,VFR,,,,,,,,,,,,METAR,5.0
EDDV 090320Z AUTO 09003KT CAVOK 17/13 Q1016,EDDV,2023-06-09T03:20:00Z,52.47,9.68,17.0,13.0,90,3,,6.21,30.0,,,TRUE,,,,,,,,CAVOK,,,,,,,,VFR,,,,,,,,,,,,METAR,53.0
EDDS 090320Z AUTO 29003KT CAVOK 10/08 Q1013,EDDS,2023-06-09T03:20:00Z,48.68,9.22,10.0,8.0,290,3,,6.21,29.911417,,,TRUE,,,,,,,,CAVOK,,,,,,,,VFR,,,,,,,,,,,,METAR,374.0
EDDR 090320Z AUTO 05008KT 020V080 CAVOK 13/10 Q1013,EDDR,2023-06-09T03:20:00Z,49.22,7.1,13.0,10.0,50,8,,6.21,29.911417,,,TRUE,,,,,,,,CAVOK,,,,,,,,VFR,,,,,,,,,,,,METAR,317.0
EDDP 090320Z AUTO VRB01KT CAVOK 13/11 Q1015 NOSIG,EDDP,2023-06-09T03:20:00Z,51.43,12.23,13.0,11.0,0,1,,6.21,29.970472,,,TRUE,,,TRUE,,,,,CAVOK,,,,,,,,VFR,,,,,,,,,,,,METAR,129.0
EDDN 090320Z AUTO VRB02KT 4500 BR NSC 12/12 Q1014,EDDN,2023-06-09T03:20:00Z,49.5,11.05,12.0,12.0,0,2,,2.8,29.940945,,,TRUE,,,,,,,BR,CLR,,,,,,,,IFR,,,,,,,,,,,,METAR,312.0
EDDM 090320Z AUTO VRB01KT CAVOK 12/12 Q1014 NOSIG,EDDM,2023-06-09T03:20:00Z,48.35,11.82,12.0,12.0,0,1,,6.21,29.940945,,,TRUE,,,TRUE,,,,,CAVOK,,,,,,,,VFR,,,,,,,,,,,,METAR,445.0
EDDL 090320Z AUTO 05002KT CAVOK 15/12 Q1014 NOSIG,EDDL,2023-06-09T03:20:00Z,51.3,6.77,15.0,12.0,50,2,,6.21,29.940945,,,TRUE,,,TRUE,,,,,CAVOK,,,,,,,,VFR,,,,,,,,,,,,METAR,37.0
EDDK 090320Z AUTO VRB02KT CAVOK 12/12 Q1014 NOSIG,EDDK,2023-06-09T03:20:00Z,50.87,7.15,12.0,12.0,0,2,,6.21,29.940945,,,TRUE,,,TRUE,,,,,CAVOK,,,,,,,,VFR,,,,,,,,,,,,METAR,92.0
EDDH 090320Z AUTO 36003KT 340V040 CAVOK 11/09 Q1017 NOSIG,EDDH,2023-06-09T03:20:00Z,53.63,10.0,11.0,9.0,360,3,,6.21,30.029528,,,TRUE,,,TRUE,,,,,CAVOK,,,,,,,,VFR,,,,,,,,,,,,METAR,8.0
EDDG 090320Z AUTO 04005KT 360V080 CAVOK 15/12 Q1015 NOSIG,EDDG,2023-06-09T03:20:00Z,52.13,7.7,15.0,12.0,40,5,,6.21,29.970472,,,TRUE,,,TRUE,,,,,CAVOK,,,,,,,,VFR,,,,,,,,,,,,METAR,46.0
EDDF 090320Z AUTO 07004KT CAVOK 15/12 Q1014 NOSIG,EDDF,2023-06-09T03:20:00Z,50.05,8.6,15.0,12.0,70,4,,6.21,29.940945,,,TRUE,,,TRUE,,,,,CAVOK,,,,,,,,VFR,,,,,,,,,,,,METAR,113.0
EDDE 090320Z AUTO 20004KT CAVOK 12/11 Q1016,EDDE,2023-06-09T03:20:00Z,50.98,10.97,12.0,11.0,200,4,,6.21,30.0,,,TRUE,,,,,,,,CAVOK,,,,,,,,VFR,,,,,,,,,,,,METAR,314.0
EDDC 090320Z AUTO VRB02KT CAVOK 13/12 Q1015,EDDC,2023-06-09T03:20:00Z,51.13,13.75,13.0,12.0,0,2,,6.21,29.970472,,,TRUE,,,,,,,,CAVOK,,,,,,,,VFR,,,,,,,,,,,,METAR,227.0
EDDB 090320Z AUTO 02005KT CAVOK 16/08 Q1015 NOSIG,EDDB,2023-06-09T03:20:00Z,52.38,13.53,16.0,8.0,20,5,,6.21,29.970472,,,TRUE,,,TRUE,,,,,CAVOK,,,,,,,,VFR,,,,,,,,,,,,METAR,48.0
EDBC 090320Z AUTO 35006KT 9999 // NCD 14/11 Q1016,EDBC,2023-06-09T03:20:00Z,51.85,11.42,14.0,11.0,350,6,,6.21,30.0,,,TRUE,,,,,,,,CLR,,,,,,,,VFR,,,,,,,,,,,,METAR,178.0
EDAH 090320Z AUTO 01004KT 7000 // FEW003/// 13/12 Q1017,EDAH,2023-06-09T03:20:00Z,53.87,14.15,13.0,12.0,10,4,,4.35,30.029528,,,TRUE,,,,,,,,FEW,300,,,,,,,MVFR,,,,,,,,,,,,METAR,22.0
EDAC 090320Z AUTO VRB02KT 9999 // BKN130/// 12/11 Q1015,EDAC,2023-06-09T03:20:00Z,50.98,12.5,12.0,11.0,0,2,,6.21,29.970472,,,TRUE,,,,,,,,BKN,13000,,,,,,,VFR,,,,,,,,,,,,METAR,193.0
EBOS 090320Z 06009KT CAVOK 14/12 Q1013 NOSIG,EBOS,2023-06-09T03:20:00Z,51.2,2.87,14.0,12.0,60,9,,6.21,29.911417,,,,,,TRUE,,,,,CAVOK,,,,,,,,VFR,,,,,,,,,,,,METAR,5.0
EBLG 090320Z 11003KT CAVOK 15/11 Q1013 NOSIG,EBLG,2023-06-09T03:20:00Z,50.63,5.45,15.0,11.0,110,3,,6.21,29.911417,,,,,,TRUE,,,,,CAVOK,,,,,,,,VFR,,,,,,,,,,,,METAR,187.0
EBCI 090320Z 06006KT CAVOK 14/11 Q1013 NOSIG,EBCI,2023-06-09T03:20:00Z,50.47,4.45,14.0,11.0,60,6,,6.21,29.911417,,,,,,TRUE,,,,,CAVOK,,,,,,,,VFR,,,,,,,,,,,,METAR,176.0
EBBR 090320Z VRB02KT CAVOK 15/12 Q1013 NOSIG,EBBR,2023-06-09T03:20:00Z,50.9,4.52,15.0,12.0,0,2,,6.21,29.911417,,,,,,TRUE,,,,,CAVOK,,,,,,,,VFR,,,,,,,,,,,,METAR,49.0
EBAW 090320Z AUTO 04004KT 010V070 9999 // VV/// 15/10 Q1014,EBAW,2023-06-09T03:20:00Z,51.2,4.47,15.0,10.0,40,4,,6.21,29.940945,,,TRUE,,,,,,,,OVX,0,,,,,,,LIFR,,,,,,,,,,,,METAR,7.0
KSRQ 090319Z 26006KT 10SM SCT022 27/22 A2982 RMK AO2 T02670222,KSRQ,2023-06-09T03:19:00Z,27.4,-82.57,26.7,22.2,260,6,,10.0,29.819881,,,,TRUE,,,,,,,SCT,2200,,,,,,,VFR,,,,,,,,,,,,SPECI,5.0
KMSO 090319Z 17004KT 10SM -RA OVC029 18/17 A2995 RMK AO2 RAB13 P0000 T01830167,KMSO,2023-06-09T03:19:00Z,46.92,-114.1,18.3,16.7,170,4,,10.0,29.949802,,,,TRUE,,,,,,-RA,OVC,2900,,,,,,,MVFR,,,,,,0.005,,,,,,SPECI,974.0
KMRT 090319Z AUTO 00000KT 10SM SCT100 17/04 A2985 RMK AO1,KMRT,2023-06-09T03:19:00Z,40.22,-83.35,17.0,4.0,0,0,,10.0,29.84941,,,TRUE,TRUE,,,,,,,SCT,10000,,,,,,,VFR,,,,,,,,,,,,SPECI,302.0
KLND 090319Z AUTO 22009KT 10SM SCT090 BKN110 14/09 A3003 RMK AO2 LTG DSNT NW RAE14 P0000 T01390094,KLND,2023-06-09T03:19:00Z,42.82,-108.73,13.9,9.4,220,9,,10.0,30.029528,,,TRUE,TRUE,,,,,,,SCT,9000,BKN,11000,,,,,VFR,,,,,,0.005,,,,,,SPECI,1700.0
KACV 090319Z AUTO 00000KT 2 1/2SM BR SCT006 OVC011 13/11 A3007 RMK AO2 T01280111,KACV,2023-06-09T03:19:00Z,40.98,-124.1,12.8,11.1,0,0,,2.5,30.070866,,,TRUE,TRUE,,,,,,BR,SCT,600,OVC,1100,,,,,IFR,,,,,,,,,,,,SPECI,63.0
K2V6 090319Z AUTO 16003KT 10SM 15/08 A2998 RMK AO2,K2V6,2023-06-09T03:19:00Z,40.1,-102.72,15.0,8.0,160,3,,10.0,29.97933,,,TRUE,TRUE,,,,,,,,,,,,,,,,,,,,,,,,,,,METAR,1257.0
EGUL 090319Z AUTO 05004KT 9999 FEW010 10/10 A3001 RMK AO2 SLP166 $,EGUL,2023-06-09T03:19:00Z,52.42,0.57,10.0,10.0,50,4,,6.21,30.008858,1016.6,,TRUE,TRUE,TRUE,,,,,,FEW,1000,,,,,,,VFR,,,,,,,,,,,,SPECI,8.0
KSFY 090318Z AUTO 02003KT 10SM CLR 14/08 A2993 RMK AO2,KSFY,2023-06-09T03:18:00Z,42.05,-90.12,14.0,8.0,20,3,,10.0,29.929134,,,TRUE,TRUE,,,,,,,CLR,,,,,,,,VFR,,,,,,,,,,,,SPECI,188.0
KRNO 090318Z 29005KT 10SM TS FEW070 BKN100CB BKN200 18/07 A3007 RMK AO2 TSB15 OCNL LTGICCG W TS W MOV E T01780067,KRNO,2023-06-09T03:18:00Z,39.5,-119.77,17.8,6.7,290,5,,10.0,30.070866,,,,TRUE,,,,,,TS,FEW,7000,BKN,10000,BKN,20000,,,VFR,,,,,,,,,,,,SPECI,1344.0
KMQB 090318Z AUTO 36004KT 10SM CLR 18/06 A2993 RMK AO2,KMQB,2023-06-09T03:18:00Z,40.52,-90.65,18.0,6.0,360,4,,10.0,29.929134,,,TRUE,TRUE,,,,,,,CLR,,,,,,,,VFR,,,,,,,,,,,,SPECI,205.0
KCWN 090318Z AUTO 25007KT 10SM VCTS -RA BKN095 OVC120 16/04 A3000 RMK AO2 RAB18 TSE00 PRESRR SLP986 $,KCWN,2023-06-09T03:18:00Z,38.75,-104.85,16.0,4.0,250,7,,10.0,30.0,998.6,,TRUE,TRUE,TRUE,,,,,VCTS -RA,BKN,9500,OVC,12000,,,,,VFR,,,,,,,,,,,,METAR,2040.0
CYTE 090318Z AUTO 19011KT 9SM -RA OVC041 07/04 A2958 RMK SLP021,CYTE,2023-06-09T03:18:00Z,64.22,-76.52,7.0,4.0,190,11,,9.0,29.58071,1002.1,,TRUE,,,,,,,-RA,OVC,4100,,,,,,,VFR,,,,,,,,,,,,SPECI,49.0
PADK 090317Z AUTO 36010KT SCT011 BKN030 OVC036 08/05 A2942 RMK AO2 PWINO $,PADK,2023-06-09T03:17:00Z,51.88,-176.65,8.0,5.0,360,10,,,29.421259,,,TRUE,TRUE,TRUE,,,,TRUE,,SCT,1100,BKN,3000,OVC,3600,,,,,,,,,,,,,,,METAR,3.0
KMNE 090317Z AUTO 00000KT 10SM CLR 24/21 A2984 RMK AO2 LTG DSNT NW,KMNE,2023-06-09T03:17:00Z,32.65,-93.3,24.0,21.0,0,0,,10.0,29.840551,,,TRUE,TRUE,,,,,,,CLR,,,,,,,,VFR,,,,,,,,,,,,SPECI,84.0
KJAC 090317Z AUTO 17010KT 10SM -RA BKN047 OVC055 09/08 A3020 RMK AO2 TSB05E07B15E17 PNO $,KJAC,2023-06-09T03:17:00Z,43.62,-110.73,9.0,8.0,170,10,,10.0,30.200787,,,TRUE,TRUE,TRUE,,,,,-RA,BKN,4700,OVC,5500,,,,,VFR,,,,,,,,,,,,SPECI,1967.0
KBKF 090317Z 26014G25KT 6SM -TSRA SCT025 BKN080 OVC140 13/08 A3011 RMK AO2A SLP144,KBKF,2023-06-09T03:17:00Z,39.72,-104.75,13.0,8.0,260,14,25,6.0,30.109253,1014.4,,,TRUE,,,,,,-TSRA,SCT,2500,BKN,8000,OVC,14000,,,VFR,,,,,,,,,,,,SPECI,1703.0
KW99 090316Z AUTO 00000KT 10SM OVC110 14/09 A2985 RMK AO2,KW99,2023-06-09T03:16:00Z,39.0,-79.15,14.0,9.0,0,0,,10.0,29.84941,,,TRUE,TRUE,,,,,,,OVC,11000,,,,,,,VFR,,,,,,,,,,,,SPECI,288.0
KHLN 090316Z 26005KT 10SM SCT006 OVC019 16/14 A2998 RMK AO2 T01610139,KHLN,2023-06-09T03:16:00Z,46.6,-111.98,16.1,13.9,260,5,,10.0,29.97933,,,,TRUE,,,,,,,SCT,600,OVC,1900,,,,,MVFR,,,,,,,,,,,,SPECI,1178.0
KBOK 090316Z AUTO 17003KT 6SM BR OVC003 12/12 A3009 RMK AO2 RAE14 P0000,KBOK,2023-06-09T03:16:00Z,42.07,-124.28,12.0,12.0,170,3,,6.0,30.088583,,,TRUE,TRUE,,,,,,BR,OVC,300,,,,,,,LIFR,,,,,,0.005,,,,,,METAR,140.0
KAPS 090316Z AUTO 00000KT 10SM CLR 23/21 A2983 RMK AO2,KAPS,2023-06-09T03:16:00Z,30.08,-90.58,23.0,21.0,0,0,,10.0,29.828741,,,TRUE,TRUE,,,,,,,CLR,,,,,,,,VFR,,,,,,,,,,,,SPECI,1.0
K40B 090316Z AUTO 00000KT 10/ A2978 RMK AO1 SLP088 T0102 52003 P0002 60008,K40B,2023-06-09T03:16:00Z,46.62,-69.52,10.2,,0,0,,,29.778543,1008.8,,TRUE,TRUE,,,,,,,,,,,,,,,,0.3,,,,,0.02,0.08,,,,,METAR,344.0
LMML 090315Z 09001KT CAVOK 18/16 Q1013 NOSIG,LMML,2023-06-09T03:15:00Z,35.85,14.47,18.0,16.0,90,1,,6.21,29.911417,,,,,,TRUE,,,,,CAVOK,,,,,,,,VFR,,,,,,,,,,,,METAR,78.0
LIRP 090315Z 13006KT CAVOK 14/13 Q1012 NOSIG,LIRP,2023-06-09T03:15:00Z,43.68,10.38,14.0,13.0,130,6,,6.21,29.88189,,,,,,TRUE,,,,,CAVOK,,,,,,,,VFR,,,,,,,,,,,,METAR,1.0
LHSN 090315Z VRB02KT 9999 FEW050TCU SCT055 16/15 Q1012 TEMPO -SHRA -TSRA RMK BLU,LHSN,2023-06-09T03:15:00Z,47.12,20.23,16.0,15.0,0,2,,6.21,29.88189,,,,,,,,,,,FEW,5000,SCT,5500,,,,,VFR,,,,,,,,,,,,METAR,89.0
LHSM 090315Z AUTO VRB02KT 9999 FEW009 15/15 Q1012,LHSM,2023-06-09T03:15:00Z,46.68,17.17,15.0,15.0,0,2,,6.21,29.88189,,,TRUE,,,,,,,,FEW,900,,,,,,,VFR,,,,,,,,,,,,METAR,119.0
LHPR 090315Z AUTO VRB02KT 3000 BR OVC004 //////CB 17/17 Q1012,LHPR,2023-06-09T03:15:00Z,47.63,17.82,17.0,17.0,0,2,,1.86,29.88189,,,TRUE,,,,,,,BR,OVC,400,,,,,,,LIFR,,,,,,,,,,,,METAR,127.0
LHPP 090315Z AUTO 26003KT CAVOK 15/15 Q1013,LHPP,2023-06-09T03:15:00Z,45.98,18.23,15.0,15.0,260,3,,6.21,29.911417,,,TRUE,,,,,,,,CAVOK,,,,,,,,VFR,,,,,,,,,,,,METAR,193.0
LHPA 090315Z 00000KT 5000 BR BKN005 OVC083 16/16 Q1012 TEMPO -RA RMK YLO,LHPA,2023-06-09T03:15:00Z,47.35,17.5,16.0,16.0,0,0,,3.11,29.88189,,,,,,,,,,BR,BKN,500,OVC,8300,,,,,IFR,,,,,,,,,,,,METAR,143.0
LHKE 090315Z 11004KT 8000 FEW050TCU BKN070 BKN096 16/16 Q1012 TEMPO -SHRA RMK BLU,LHKE,2023-06-09T03:15:00Z,46.92,19.75,16.0,16.0,110,4,,4.97,29.88189,,,,,,,,,,,FEW,5000,BKN,7000,BKN,9600,,,MVFR,,,,,,,,,,,,METAR,113.0
KZER 090315Z AUTO 32004KT 10SM BKN060 BKN090 11/07 A2980 RMK AO2,KZER,2023-06-09T03:15:00Z,40.7,-76.37,11.0,7.0,320,4,,10.0,29.799213,,,TRUE,TRUE,,,,,,,BKN,6000,BKN,9000,,,,,VFR,,,,,,,,,,,,SPECI,518.0
KXLL 090315Z AUTO 00000KT 10SM BKN075 BKN090 15/08 A2979 RMK AO2,KXLL,2023-06-09T03:15:00Z,40.57,-75.48,15.0,8.0,0,0,,10.0,29.790354,,,TRUE,TRUE,,,,,,,BKN,7500,BKN,9000,,,,,VFR,,,,,,,,,,,,SPECI,118.0
KWDR 090315Z AUTO 00000KT 10SM CLR 18/09 A2984 RMK AO2 LTG DSNT SE,KWDR,2023-06-09T03:15:00Z,33.98,-83.67,18.0,9.0,0,0,,10.0,29.840551,,,TRUE,TRUE,,,,,,,CLR,,,,,,,,VFR,,,,,,,,,,,,SPECI,280.0
KW43 090315Z AUTO 19009KT 10SM CLR 20/11 A2998 RMK AO2 LTG DSNT E S AND NW,KW43,2023-06-09T03:15:00Z,44.67,-104.57,20.0,11.0,190,9,,10.0,29.97933,,,TRUE,TRUE,,,,,,,CLR,,,,,,,,VFR,,,,,,,,,,,,METAR,1292.0
KW22 090315Z AUTO 21003KT 10SM OVC100 14/08 A2986 RMK AO2,KW22,2023-06-09T03:15:00Z,39.0,-80.27,14.0,8.0,210,3,,10.0,29.861221,,,TRUE,TRUE,,,,,,,OVC,10000,,,,,,,VFR,,,,,,,,,,,,SPECI,497.0
KVYS 090315Z AUTO 10005KT 10SM CLR 18/03 A2992 RMK AO2 T01790030,KVYS,2023-06-09T03:15:00Z,41.35,-89.15,17.9,3.0,100,5,,10.0,29.920275,,,TRUE,TRUE,,,,,,,CLR,,,,,,,,VFR,,,,,,,,,,,,SPECI,198.0
KVPC 090315Z AUTO 00000KT 10SM BKN050 BKN060 19/12 A2984 RMK AO2,KVPC,2023-06-09T03:15:00Z,34.1,-84.85,19.0,12.0,0,0,,10.0,29.840551,,,TRUE,TRUE,,,,,,,BKN,5000,BKN,6000,,,,,VFR,,,,,,,,,,,,SPECI,234.0
KVKS 090315Z AUTO 00000KT 10SM CLR 24/M37 A2981 RMK A01,KVKS,2023-06-09T03:15:00Z,32.23,-90.93,24.0,-37.0,0,0,,10.0,29.811024,,,TRUE,TRUE,,,,,,,CLR,,,,,,,,VFR,,,,,,,,,,,,SPECI,31.0
KUYF 090315Z AUTO 00000KT 10SM OVC100 16/01 A2986 RMK AO2,KUYF,2023-06-09T03:15:00Z,39.93,-83.47,16.0,1.0,0,0,,10.0,29.861221,,,TRUE,TRUE,,,,,,,OVC,10000,,,,,,,VFR,,,,,,,,,,,,SPECI,326.0
KUMP 090315Z AUTO 01005KT 10SM CLR 18/05 A2989 RMK AO2 T01780047,KUMP,2023-06-09T03:15:00Z,39.93,-86.05,17.8,4.7,10,5,,10.0,29.890747,,,TRUE,TRUE,,,,,,,CLR,,,,,,,,VFR,,,,,,,,,,,,SPECI,247.0
KUKL 090315Z AUTO 10006KT 10SM SCT110 21/18 A2985 RMK AO2 T02140182,KUKL,2023-06-09T03:15:00Z,38.3,-95.73,21.4,18.2,100,6,,10.0,29.84941,,,TRUE,TRUE,,,,,,,SCT,11000,,,,,,,VFR,,,,,,,,,,,,SPECI,357.0
KTZR 090315Z AUTO 00000KT 10SM OVC100 17/05 A2985 RMK AO2 T01700051,KTZR,2023-06-09T03:15:00Z,39.9,-83.13,17.0,5.1,0,0,,10.0,29.84941,,,TRUE,TRUE,,,,,,,OVC,10000,,,,,,,VFR,,,,,,,,,,,,SPECI,275.0
KTYQ 090315Z AUTO 36007KT 10SM CLR 17/02 A2990 RMK AO2 T01660019,KTYQ,2023-06-09T03:15:00Z,40.03,-86.25,16.6,1.9,360,7,,10.0,29.899607,,,TRUE,TRUE,,,,,,,CLR,,,,,,,,VFR,,,,,,,,,,,,SPECI,279.0
KTXW 090315Z AUTO 15006KT 10SM CLR 28/22 A2983 RMK AO2,KTXW,2023-06-09T03:15:00Z,26.18,-97.97,28.0,22.0,150,6,,10.0,29.828741,,,TRUE,TRUE,,,,,,,CLR,,,,,,,,VFR,,,,,,,,,,,,METAR,21.0
KTVI 090315Z AUTO 24003KT 10SM SCT100 24/23 A2980 RMK AO2,KTVI,2023-06-09T03:15:00Z,30.9,-83.88,24.0,23.0,240,3,,10.0,29.799213,,,TRUE,TRUE,,,,,,,SCT,10000,,,,,,,VFR,,,,,,,,,,,,SPECI,74.0
KTQK 090315Z AUTO 17008KT 10SM SCT085 22/15 A2993 RMK AO2 T02180146,KTQK,2023-06-09T03:15:00Z,38.47,-100.88,21.8,14.6,170,8,,10.0,29.929134,,,TRUE,TRUE,,,,,,,SCT,8500,,,,,,,VFR,,,,,,,,,,,,SPECI,906.0
KTOC 090315Z AUTO 00000KT 10SM CLR 18/12 A2985 RMK AO2 T01770120,KTOC,2023-06-09T03:15:00Z,34.6,-83.3,17.7,12.0,0,0,,10.0,29.84941,,,TRUE,TRUE,,,,,,,CLR,,,,,,,,VFR,,,,,,,,,,,,SPECI,292.0
KTNU 090315Z AUTO 00000KT 10SM CLR 18/12 A2992 RMK A01,KTNU,2023-06-09T03:15:00Z,41.67,-93.02,18.0,12.0,0,0,,10.0,29.920275,,,TRUE,TRUE,,,,,,,CLR,,,,,,,,VFR,,,,,,,,,,,,SPECI,287.0
KTMK 090315Z AUTO 26006KT 10SM OVC022 14/11 A3005 RMK AO2,KTMK,2023-06-09T03:15:00Z,45.42,-123.82,14.0,11.0,260,6,,10.0,30.050198,,,TRUE,TRUE,,,,,,,OVC,2200,,,,,,,MVFR,,,,,,,,,,,,METAR,8.0
KTIP 090315Z AUTO 04009KT 10SM CLR 17/01 A2991 RMK AO2 T01710005,KTIP,2023-06-09T03:15:00Z,40.28,-88.15,17.1,0.5,40,9,,10.0,29.911417,,,TRUE,TRUE,,,,,,,CLR,,,,,,,,VFR,,,,,,,,,,,,SPECI,224.0
KTIF 090315Z AUTO 00000KT 10SM CLR 20/16 A2991 RMK AO2 T02010155,KTIF,2023-06-09T03:15:00Z,41.97,-100.57,20.1,15.5,0,0,,10.0,29.911417,,,TRUE,TRUE,,,,,,,CLR,,,,,,,,VFR,,,,,,,,,,,,SPECI,888.0
KTGI 090315Z AUTO 23010KT 10SM CLR 19/16 A2978 RMK AO1 T01870156,KTGI,2023-06-09T03:15:00Z,37.82,-75.98,18.7,15.6,230,10,,10.0,29.778543,,,TRUE,TRUE,,,,,,,CLR,,,,,,,,VFR,,,,,,,,,,,,SPECI,1.0
KTEX 090315Z AUTO 00000KT 10SM CLR 12/M09 A3030 RMK AO2,KTEX,2023-06-09T03:15:00Z,37.95,-107.9,12.0,-9.0,0,0,,10.0,30.301182,,,TRUE,TRUE,,,,,,,CLR,,,,,,,,VFR,,,,,,,,,,,,METAR,2760.0
KTBX 090315Z AUTO 10SM CLR 14/06 A3021 RMK AO2,KTBX,2023-06-09T03:15:00Z,43.47,-108.23,14.0,6.0,,,,10.0,30.209646,,,TRUE,TRUE,,,,,,,CLR,,,,,,,,VFR,,,,,,,,,,,,SPECI,2230.0
KTBR 090315Z AUTO 08004KT 10SM CLR 23/19 A2979 RMK AO2 LTG DSNT E T02260194 PWINO,KTBR,2023-06-09T03:15:00Z,32.48,-81.73,22.6,19.4,80,4,,10.0,29.790354,,,TRUE,TRUE,,,,,TRUE,,CLR,,,,,,,,VFR,,,,,,,,,,,,SPECI,54.0
KT35 090315Z AUTO 16004KT 10SM CLR 22/21 A2985 RMK AO2 T02230206,KT35,2023-06-09T03:15:00Z,30.88,-96.97,22.3,20.6,160,4,,10.0,29.84941,,,TRUE,TRUE,,,,,,,CLR,,,,,,,,VFR,,,,,,,,,,,,METAR,122.0
KT20 090315Z AUTO 11004KT 10SM CLR 26/22 A2985 RMK AO2 T02600221,KT20,2023-06-09T03:15:00Z,29.52,-97.47,26.0,22.1,110,4,,10.0,29.84941,,,TRUE,TRUE,,,,,,,CLR,,,,,,,,VFR,,,,,,,,,,,,METAR,107.0
KSZT 090315Z AUTO 22003KT 10SM CLR 18/15 A2993 RMK AO2,KSZT,2023-06-09T03:15:00Z,48.3,-116.57,18.0,15.0,220,3,,10.0,29.929134,,,TRUE,TRUE,,,,,,,CLR,,,,,,,,VFR,,,,,,,,,,,,METAR,649.0
KSYF 090315Z AUTO 15003KT 10SM CLR 17/13 A2994 RMK AO2 T01730125 PWINO,KSYF,2023-06-09T03:15:00Z,39.77,-101.8,17.3,12.5,150,3,,10.0,29.940945,,,TRUE,TRUE,,,,,TRUE,,CLR,,,,,,,,VFR,,,,,,,,,,,,SPECI,1041.0
KSWW 090315Z AUTO 14004KT 10SM CLR 25/15 A2994 RMK AO2 T02460145,KSWW,2023-06-09T03:15:00Z,32.47,-100.47,24.6,14.5,140,4,,10.0,29.940945,,,TRUE,TRUE,,,,,,,CLR,,,,,,,,VFR,,,,,,,,,,,,SPECI,718.0
KSOA 090315Z AUTO 07004KT 10SM 28/14 A2994 RMK AO2,KSOA,2023-06-09T03:15:00Z,30.58,-100.65,28.0,14.0,70,4,,10.0,29.940945,,,TRUE,TRUE,,,,,,,,,,,,,,,,,,,,,,,,,,,METAR,654.0
KSNL 090315Z AUTO 20003KT 10SM CLR 25/18 A2983 RMK AO2 T02500181,KSNL,2023-06-09T03:15:00Z,35.35,-96.95,25.0,18.1,200,3,,10.0,29.828741,,,TRUE,TRUE,,,,,,,CLR,,,,,,,,VFR,,,,,,,,,,,,SPECI,327.0
KSLB 090315Z AUTO 14006KT 10SM CLR 18/13 A2992 RMK AO2,KSLB,2023-06-09T03:15:00Z,42.6,-95.23,18.0,13.0,140,6,,10.0,29.920275,,,TRUE,TRUE,,,,,,,CLR,,,,,,,,VFR,,,,,,,,,,,,SPECI,450.0
KSJS 090315Z AUTO 00000KT 10SM CLR 13/09 A2989 RMK AO2 T01330089,KSJS,2023-06-09T03:15:00Z,37.75,-82.63,13.3,8.9,0,0,,10.0,29.890747,,,TRUE,TRUE,,,,,,,CLR,,,,,,,,VFR,,,,,,,,,,,,METAR,359.0
KSHL 090315Z AUTO 12007G13KT 10SM CLR 20/16 A2989 RMK AO2,KSHL,2023-06-09T03:15:00Z,43.22,-95.83,20.0,16.0,120,7,13,10.0,29.890747,,,TRUE,TRUE,,,,,,,CLR,,,,,,,,VFR,,,,,,,,,,,,SPECI,430.0
KSEF 090315Z AUTO 20005KT 10SM CLR 25/24 A2984 RMK AO2 T02470242,KSEF,2023-06-09T03:15:00Z,27.45,-81.35,24.7,24.2,200,5,,10.0,29.840551,,,TRUE,TRUE,,,,,,,CLR,,,,,,,,VFR,,,,,,,,,,,,SPECI,17.0
KSDA 090315Z AUTO 11003KT 10SM FEW050 20/15 A2988 RMK AO2,KSDA,2023-06-09T03:15:00Z,40.75,-95.42,20.0,15.0,110,3,,10.0,29.878937,,,TRUE,TRUE,,,,,,,FEW,5000,,,,,,,VFR,,,,,,,,,,,,SPECI,293.0
KSBO 090315Z AUTO 09003KT 10SM SCT047 BKN070 OVC080 25/19 A2979 RMK AO2,KSBO,2023-06-09T03:15:00Z,32.62,-82.37,25.0,19.0,90,3,,10.0,29.790354,,,TRUE,TRUE,,,,,,,SCT,4700,BKN,7000,OVC,8000,,,VFR,,,,,,,,,,,,SPECI,98.0
KSAR 090315Z AUTO 00000KT 10SM CLR 17/10 A2988 RMK AO2 T01720098,KSAR,2023-06-09T03:15:00Z,38.15,-89.7,17.2,9.8,0,0,,10.0,29.878937,,,TRUE,TRUE,,,,,,,CLR,,,,,,,,VFR,,,,,,,,,,,,SPECI,162.0
KS52 090315Z AUTO 15003KT 10SM BKN095 OVC120 25/12 A2979 RMK AO2 T02510117,KS52,2023-06-09T03:15:00Z,48.42,-120.15,25.1,11.7,150,3,,10.0,29.790354,,,TRUE,TRUE,,,,,,,BKN,9500,OVC,12000,,,,,VFR,,,,,,,,,,,,METAR,517.0
KRZT 090315Z AUTO 00000KT 10SM OVC095 13/08 A2986 RMK AO2 PWINO,KRZT,2023-06-09T03:15:00Z,39.43,-83.02,13.0,8.0,0,0,,10.0,29.861221,,,TRUE,TRUE,,,,,TRUE,,OVC,9500,,,,,,,VFR,,,,,,,,,,,,SPECI,217.0
KRWV 090315Z AUTO 17003KT 21/20 RMK AO2,KRWV,2023-06-09T03:15:00Z,30.52,-96.7,21.0,20.0,170,3,,,,,,TRUE,TRUE,,,,,,,,,,,,,,,,,,,,,,,,,,,METAR,116.0
KRQO 090315Z AUTO 20003KT CLR 23/18 A2986 RMK AO2 T02330181,KRQO,2023-06-09T03:15:00Z,35.47,-98.0,23.3,18.1,200,3,,,29.861221,,,TRUE,TRUE,,,,,,,CLR,,,,,,,,,,,,,,,,,,,,SPECI,431.0
KRPJ 090315Z AUTO 08006KT 10SM CLR 16/00 A2994 RMK AO2 T01600003 TSNO,KRPJ,2023-06-09T03:15:00Z,41.88,-89.08,16.0,0.3,80,6,,10.0,29.940945,,,TRUE,TRUE,,,TRUE,,,,CLR,,,,,,,,VFR,,,,,,,,,,,,SPECI,234.0
KRLD 090315Z AUTO 20003KT 10SM BKN100 OVC110 27/12 A2980 RMK AO2 T02650122,KRLD,2023-06-09T03:15:00Z,46.3,-119.3,26.5,12.2,200,3,,10.0,29.799213,,,TRUE,TRUE,,,,,,,BKN,10000,OVC,11000,,,,,VFR,,,,,,,,,,,,SPECI,118.0
KRGA 090315Z AUTO 16003KT 10SM CLR 13/10 A2989 RMK AO2,KRGA,2023-06-09T03:15:00Z,37.63,-84.33,13.0,10.0,160,3,,10.0,29.890747,,,TRUE,TRUE,,,,,,,CLR,,,,,,,,VFR,,,,,,,,,,,,SPECI,301.0
KREG 090315Z AUTO 00000KT 10SM CLR 23/21 A2982 RMK AO2 T02320214,KREG,2023-06-09T03:15:00Z,30.17,-90.93,23.2,21.4,0,0,,10.0,29.819881,,,TRUE,TRUE,,,,,,,CLR,,,,,,,,VFR,,,,,,,,,,,,SPECI,3.0
KRDK 090315Z AUTO 11005KT 10SM CLR 20/16 A2990 RMK AO2,KRDK,2023-06-09T03:15:00Z,41.02,-95.27,20.0,16.0,110,5,,10.0,29.899607,,,TRUE,TRUE,,,,,,,CLR,,,,,,,,VFR,,,,,,,,,,,,SPECI,317.0
KRCR 090315Z AUTO 00000KT 10SM BKN048 14/04 A2990 RMK AO2,KRCR,2023-06-09T03:15:00Z,41.07,-86.18,14.0,4.0,0,0,,10.0,29.899607,,,TRUE,TRUE,,,,,,,BKN,4800,,,,,,,VFR,,,,,,,,,,,,SPECI,240.0
KPVW 090315Z AUTO 11008KT 10SM CLR 21/16 A2996 RMK AO2 T02090156 TSNO,KPVW,2023-06-09T03:15:00Z,34.17,-101.72,20.9,15.6,110,8,,10.0,29.958662,,,TRUE,TRUE,,,TRUE,,,,CLR,,,,,,,,VFR,,,,,,,,,,,,SPECI,1029.0
KPTT 090315Z AUTO 21005KT 10SM CLR 25/17 A2987 RMK AO2 T02470165,KPTT,2023-06-09T03:15:00Z,37.7,-98.75,24.7,16.5,210,5,,10.0,29.870079,,,TRUE,TRUE,,,,,,,CLR,,,,,,,,VFR,,,,,,,,,,,,SPECI,594.0
KPSN 090315Z AUTO 00000KT 10SM CLR 21/20 A2983 RMK AO2,KPSN,2023-06-09T03:15:00Z,31.78,-95.7,21.0,20.0,0,0,,10.0,29.828741,,,TRUE,TRUE,,,,,,,CLR,,,,,,,,VFR,,,,,,,,,,,,SPECI,124.0
KPRO 090315Z AUTO 00000KT 10SM CLR 19/13 A2992 RMK AO2 T01870128,KPRO,2023-06-09T03:15:00Z,41.83,-94.17,18.7,12.8,0,0,,10.0,29.920275,,,TRUE,TRUE,,,,,,,CLR,,,,,,,,VFR,,,,,,,,,,,,SPECI,308.0
KPRG 090315Z AUTO 03008KT 10SM CLR 18/05 A2990 RMK AO2 T01810046,KPRG,2023-06-09T03:15:00Z,39.7,-87.67,18.1,4.6,30,8,,10.0,29.899607,,,TRUE,TRUE,,,,,,,CLR,,,,,,,,VFR,,,,,,,,,,,,SPECI,197.0
KPPQ 090315Z AUTO 00000KT 10SM CLR 14/11 A2990 RMK AO2 T01440107,KPPQ,2023-06-09T03:15:00Z,39.63,-90.78,14.4,10.7,0,0,,10.0,29.899607,,,TRUE,TRUE,,,,,,,CLR,,,,,,,,VFR,,,,,,,,,,,,SPECI,215.0
KPPA 090315Z AUTO 14004KT 10SM 22/18 A2996 RMK AO2 T02190184,KPPA,2023-06-09T03:15:00Z,35.62,-101.0,21.9,18.4,140,4,,10.0,29.958662,,,TRUE,TRUE,,,,,,,,,,,,,,,,,,,,,,,,,,,SPECI,989.0
KPOY 090315Z AUTO 32004KT 10SM CLR 17/11 A3001 RMK AO2 LTG DSNT E AND W,KPOY,2023-06-09T03:15:00Z,44.87,-108.8,17.0,11.0,320,4,,10.0,30.008858,,,TRUE,TRUE,,,,,,,CLR,,,,,,,,VFR,,,,,,,,,,,,SPECI,1547.0
KPNT 090315Z AUTO 08005KT 10SM CLR 14/00 A2992 RMK AO2 T01411002,KPNT,2023-06-09T03:15:00Z,40.92,-88.62,14.1,-0.2,80,5,,10.0,29.920275,,,TRUE,TRUE,,,,,,,CLR,,,,,,,,VFR,,,,,,,,,,,,SPECI,199.0
KPNA 090315Z AUTO 23005KT 10SM BKN090 BKN120 11/05 A3018 RMK AO2 LTG DSNT NE,KPNA,2023-06-09T03:15:00Z,42.8,-109.8,11.0,5.0,230,5,,10.0,30.180119,,,TRUE,TRUE,,,,,,,BKN,9000,BKN,12000,,,,,VFR,,,,,,,,,,,,SPECI,2158.0
KPMU 090315Z AUTO 00000KT 5SM BR BKN048 22/21 A2982 RMK AO2,KPMU,2023-06-09T03:15:00Z,34.37,-89.9,22.0,21.0,0,0,,5.0,29.819881,,,TRUE,TRUE,,,,,,BR,BKN,4800,,,,,,,MVFR,,,,,,,,,,,,SPECI,67.0
KPIM 090315Z AUTO 00000KT 10SM CLR 21/14 A2983 RMK AO2 T02060144,KPIM,2023-06-09T03:15:00Z,32.83,-84.88,20.6,14.4,0,0,,10.0,29.828741,,,TRUE,TRUE,,,,,,,CLR,,,,,,,,VFR,,,,,,,,,,,,SPECI,274.0
KPEQ 090315Z AUTO 00000KT 10SM CLR 27/04 A2987 RMK AO2 T02650040,KPEQ,2023-06-09T03:15:00Z,31.38,-103.52,26.5,4.0,0,0,,10.0,29.870079,,,TRUE,TRUE,,,,,,,CLR,,,,,,,,VFR,,,,,,,,,,,,SPECI,794.0
KPEA 090315Z AUTO 00000KT 10SM CLR 17/10 A2992 RMK AO2 T01690097,KPEA,2023-06-09T03:15:00Z,41.4,-92.95,16.9,9.7,0,0,,10.0,29.920275,,,TRUE,TRUE,,,,,,,CLR,,,,,,,,VFR,,,,,,,,,,,,SPECI,264.0
KPBX 090315Z AUTO 00000KT 10SM CLR 15/06 A2989 RMK AO2 T01510062,KPBX,2023-06-09T03:15:00Z,37.57,-82.57,15.1,6.2,0,0,,10.0,29.890747,,,TRUE,TRUE,,,,,,,CLR,,,,,,,,VFR,,,,,,,,,,,,SPECI,447.0
KOZA 090315Z AUTO 00000KT 10SM CLR 27/07 A2993 RMK AO2,KOZA,2023-06-09T03:15:00Z,30.73,-101.2,27.0,7.0,0,0,,10.0,29.929134,,,TRUE,TRUE,,,,,,,CLR,,,,,,,,VFR,,,,,,,,,,,,METAR,721.0
KOWX 090315Z AUTO 09003KT 10SM OVC100 16/02 A2987 RMK AO1,KOWX,2023-06-09T03:15:00Z,41.03,-83.98,16.0,2.0,90,3,,10.0,29.870079,,,TRUE,TRUE,,,,,,,OVC,10000,,,,,,,VFR,,,,,,,,,,,,SPECI,232.0
KOUN 090315Z AUTO 17003KT 10SM CLR 26/17 A2982 RMK AO2 T02570167,KOUN,2023-06-09T03:15:00Z,35.25,-97.47,25.7,16.7,170,3,,10.0,29.819881,,,TRUE,TRUE,,,,,,,CLR,,,,,,,,VFR,,,,,,,,,,,,METAR,359.0
KORG 090315Z AUTO 00000KT 10SM CLR 25/19 A2986 RMK AO2 LTG DSNT E T02450190,KORG,2023-06-09T03:15:00Z,30.07,-93.8,24.5,19.0,0,0,,10.0,29.861221,,,TRUE,TRUE,,,,,,,CLR,,,,,,,,VFR,,,,,,,,,,,,SPECI,2.0
KOPN 090315Z AUTO 00000KT 10SM CLR 21/10 A2983 RMK AO2,KOPN,2023-06-09T03:15:00Z,32.95,-84.27,21.0,10.0,0,0,,10.0,29.828741,,,TRUE,TRUE,,,,,,,CLR,,,,,,,,VFR,,,,,,,,,,,,SPECI,241.0
KOOA 090315Z AUTO 12003KT 10SM CLR 19/08 A2992 RMK AO2 T01910081,KOOA,2023-06-09T03:15:00Z,41.23,-92.5,19.1,8.1,120,3,,10.0,29.920275,,,TRUE,TRUE,,,,,,,CLR,,,,,,,,VFR,,,,,,,,,,,,SPECI,256.0
KONL 090315Z AUTO 17003KT 10SM CLR 24/16 A2986 RMK AO2 T02360158,KONL,2023-06-09T03:15:00Z,42.47,-98.68,23.6,15.8,170,3,,10.0,29.861221,,,TRUE,TRUE,,,,,,,CLR,,,,,,,,VFR,,,,,,,,,,,,SPECI,619.0
KOMK 090315Z AUTO 15020G40KT 5SM -RA SCT005 BKN120 27/13 A2984 RMK AO2 PK WND 13042/0301 RAB07 P0000 T02670133,KOMK,2023-06-09T03:15:00Z,48.47,-119.52,26.7,13.3,150,20,40,5.0,29.840551,,,TRUE,TRUE,,,,,,-RA,SCT,500,BKN,12000,,,,,MVFR,,,,,,0.005,,,,,,METAR,395.0
KOLZ 090315Z AUTO 11003KT 10SM CLR 18/05 A2993 RMK A01,KOLZ,2023-06-09T03:15:00Z,42.67,-91.97,18.0,5.0,110,3,,10.0,29.929134,,,TRUE,TRUE,,,,,,,CLR,,,,,,,,VFR,,,,,,,,,,,,SPECI,328.0
KOLY 090315Z AUTO 00000KT 10SM CLR 16/07 A2987 RMK AO2 T01640072 PWINO,KOLY,2023-06-09T03:15:00Z,38.72,-88.18,16.4,7.2,0,0,,10.0,29.870079,,,TRUE,TRUE,,,,,TRUE,,CLR,,,,,,,,VFR,,,,,,,,,,,,SPECI,144.0
KOKZ 090315Z AUTO 00000KT 10SM OVC065 24/13 A2980 RMK AO2 T02440129,KOKZ,2023-06-09T03:15:00Z,32.97,-82.83,24.4,12.9,0,0,,10.0,29.799213,,,TRUE,TRUE,,,,,,,OVC,6500,,,,,,,VFR,,,,,,,,,,,,SPECI,128.0
KOKM 090315Z AUTO 00000KT 10SM CLR 23/21 A2982 RMK AO2 T02320213,KOKM,2023-06-09T03:15:00Z,35.67,-95.95,23.2,21.3,0,0,,10.0,29.819881,,,TRUE,TRUE,,,,,,,CLR,,,,,,,,VFR,,,,,,,,,,,,SPECI,215.0
KOGS 090315Z AUTO 00000KT 10SM SCT065 OVC090 11/10 A2975 RMK AO2,KOGS,2023-06-09T03:15:00Z,44.67,-75.47,11.0,10.0,0,0,,10.0,29.749016,,,TRUE,TRUE,,,,,,,SCT,6500,OVC,9000,,,,,VFR,,,,,,,,,,,,SPECI,88.0
KOGA 090315Z AUTO 00000KT 10SM CLR 21/13 A2993 RMK AO2 T02130132,KOGA,2023-06-09T03:15:00Z,41.12,-101.77,21.3,13.2,0,0,,10.0,29.929134,,,TRUE,TRUE,,,,,,,CLR,,,,,,,,VFR,,,,,,,,,,,,SPECI,991.0
KOBE 090315Z AUTO 00000KT 10SM CLR 23/23 A2983 RMK AO2,KOBE,2023-06-09T03:15:00Z,27.27,-80.85,23.0,23.0,0,0,,10.0,29.828741,,,TRUE,TRUE,,,,,,,CLR,,,,,,,,VFR,,,,,,,,,,,,SPECI,11.0
KNRN 090315Z AUTO 14004KT 10SM CLR 22/15 A2992 RMK AO2,KNRN,2023-06-09T03:15:00Z,39.85,-99.9,22.0,15.0,140,4,,10.0,29.920275,,,TRUE,TRUE,,,,,,,CLR,,,,,,,,VFR,,,,,,,,,,,,SPECI,726.0
KNOW 090315Z AUTO 28019KT 10SM CLR 12/10 A2994 RMK AO2 T01150096,KNOW,2023-06-09T03:15:00Z,48.13,-123.4,11.5,9.6,280,19,,10.0,29.940945,,,TRUE,TRUE,,,,,,,CLR,,,,,,,,VFR,,,,,,,,,,,,METAR,3.0
KMZZ 090315Z AUTO 35004KT 10SM CLR 16/02 A2990 RMK AO2 T01620024,KMZZ,2023-06-09T03:15:00Z,40.48,-85.68,16.2,2.4,350,4,,10.0,29.899607,,,TRUE,TRUE,,,,,,,CLR,,,,,,,,VFR,,,,,,,,,,,,SPECI,260.0
KMYZ 090315Z AUTO 12003KT 10SM CLR 21/18 A2986 RMK AO2,KMYZ,2023-06-09T03:15:00Z,39.85,-96.63,21.0,18.0,120,3,,10.0,29.861221,,,TRUE,TRUE,,,,,,,CLR,,,,,,,,VFR,,,,,,,,,,,,SPECI,388.0
KMUT 090315Z AUTO 27003KT 10SM CLR 17/06 A2992 RMK AO2,KMUT,2023-06-09T03:15:00Z,41.37,-91.15,17.0,6.0,270,3,,10.0,29.920275,,,TRUE,TRUE,,,,,,,CLR,,,,,,,,VFR,,,,,,,,,,,,SPECI,166.0
KMQW 090315Z AUTO 24006KT 10SM OVC070 25/19 A2978 RMK AO2 LTG DSNT S T02520189,KMQW,2023-06-09T03:15:00Z,32.1,-82.88,25.2,18.9,240,6,,10.0,29.778543,,,TRUE,TRUE,,,,,,,OVC,7000,,,,,,,VFR,,,,,,,,,,,,SPECI,62.0
KMPZ 090315Z AUTO 00000KT 10SM CLR 18/06 A2991 RMK AO2,KMPZ,2023-06-09T03:15:00Z,40.95,-91.52,18.0,6.0,0,0,,10.0,29.911417,,,TRUE,TRUE,,,,,,,CLR,,,,,,,,VFR,,,,,,,,,,,,SPECI,222.0
KMLJ 090315Z AUTO 00000KT 10SM SCT060 24/12 A2979 RMK AO2,KMLJ,2023-06-09T03:15:00Z,33.15,-83.25,24.0,12.0,0,0,,10.0,29.790354,,,TRUE,TRUE,,,,,,,SCT,6000,,,,,,,VFR,,,,,,,,,,,,SPECI,115.0
KMLE 090315Z AUTO 13004KT 10SM CLR 22/15 A2988 RMK AO2 T02200153,KMLE,2023-06-09T03:15:00Z,41.2,-96.12,22.0,15.3,130,4,,10.0,29.878937,,,TRUE,TRUE,,,,,,,CLR,,,,,,,,VFR,,,,,,,,,,,,SPECI,318.0
KMHP 090315Z AUTO 06006KT 7SM HZ CLR 23/ A2978 RMK AO2 T0226////,KMHP,2023-06-09T03:15:00Z,32.37,-82.08,22.6,,60,6,,7.0,29.778543,,,TRUE,TRUE,,,,,,HZ,CLR,,,,,,,,VFR,,,,,,,,,,,,SPECI,60.0
KMDQ 090315Z AUTO 00000KT 10SM CLR 18/12 A2983 RMK A02 T01820124,KMDQ,2023-06-09T03:15:00Z,34.87,-86.55,18.2,12.4,0,0,,10.0,29.828741,,,TRUE,TRUE,,,,,,,CLR,,,,,,,,VFR,,,,,,,,,,,,SPECI,221.0
KLZZ 090315Z AUTO 00000KT 10SM CLR 24/20 A2984 RMK AO2 T02390200,KLZZ,2023-06-09T03:15:00Z,31.1,-98.2,23.9,20.0,0,0,,10.0,29.840551,,,TRUE,TRUE,,,,,,,CLR,,,,,,,,VFR,,,,,,,,,,,,METAR,356.0
KLYO 090315Z AUTO 14005KT 10SM SCT120 24/16 A2985 RMK AO2 T02400160,KLYO,2023-06-09T03:15:00Z,38.35,-98.23,24.0,16.0,140,5,,10.0,29.84941,,,TRUE,TRUE,,,,,,,SCT,12000,,,,,,,VFR,,,,,,,,,,,,SPECI,515.0
KLXN 090315Z AUTO 15004KT 10SM CLR 22/16 A2989 RMK AO2 T02160155,KLXN,2023-06-09T03:15:00Z,40.78,-99.77,21.6,15.5,150,4,,10.0,29.890747,,,TRUE,TRUE,,,,,,,CLR,,,,,,,,VFR,,,,,,,,,,,,SPECI,734.0
KLUV 090315Z AUTO 10007KT 10SM CLR 22/18 A2994 RMK AO2,KLUV,2023-06-09T03:15:00Z,32.75,-101.92,22.0,18.0,100,7,,10.0,29.940945,,,TRUE,TRUE,,,,,,,CLR,,,,,,,,VFR,,,,,,,,,,,,METAR,910.0
KLRJ 090315Z AUTO 10007KT 10SM CLR 22/18 A2987 RMK AO2,KLRJ,2023-06-09T03:15:00Z,42.77,-96.2,22.0,18.0,100,7,,10.0,29.870079,,,TRUE,TRUE,,,,,,,CLR,,,,,,,,VFR,,,,,,,,,,,,SPECI,363.0
KLOT 090315Z AUTO 05003KT 10SM FEW080 16/03 A2994 RMK AO2,KLOT,2023-06-09T03:15:00Z,41.6,-88.1,16.0,3.0,50,3,,10.0,29.940945,,,TRUE,TRUE,,,,,,,FEW,8000,,,,,,,VFR,,,,,,,,,,,,SPECI,205.0
KLOM 090315Z AUTO 00000KT 10SM OVC085 16/08 A2977 RMK AO2 T01630078,KLOM,2023-06-09T03:15:00Z,40.13,-75.27,16.3,7.8,0,0,,10.0,29.769686,,,TRUE,TRUE,,,,,,,OVC,8500,,,,,,,VFR,,,,,,,,,,,,SPECI,87.0
KLNQ 090315Z AUTO 00000KT 10SM CLR 28/21 A2984 RMK AO2 T02750213,KLNQ,2023-06-09T03:15:00Z,29.35,-89.43,27.5,21.3,0,0,,10.0,29.840551,,,TRUE,TRUE,,,,,,,CLR,,,,,,,,VFR,,,,,,,,,,,,SPECI,1.0
KLNN 090315Z AUTO 00000KT 10SM SCT090 OVC120 14/11 A2984 RMK AO1 T01380107,KLNN,2023-06-09T03:15:00Z,41.68,-81.38,13.8,10.7,0,0,,10.0,29.840551,,,TRUE,TRUE,,,,,,,SCT,9000,OVC,12000,,,,,VFR,,,,,,,,,,,,SPECI,190.0
KLNA 090315Z AUTO 22003KT 10SM CLR 27/23 A2985 RMK AO2 LTG DSNT SW T02710233,KLNA,2023-06-09T03:15:00Z,26.6,-80.08,27.1,23.3,220,3,,10.0,29.84941,,,TRUE,TRUE,,,,,,,CLR,,,,,,,,VFR,,,,,,,,,,,,SPECI,3.0
KLLN 090315Z AUTO 14007KT 10SM CLR 23/14 A2996 RMK AO2,KLLN,2023-06-09T03:15:00Z,33.55,-102.37,23.0,14.0,140,7,,10.0,29.958662,,,TRUE,TRUE,,,,,,,CLR,,,,,,,,VFR,,,,,,,,,,,,SPECI,1071.0
KLGC 090315Z AUTO 00000KT 10SM CLR 20/14 A2982 RMK AO2 T02030143,KLGC,2023-06-09T03:15:00Z,33.0,-85.07,20.3,14.3,0,0,,10.0,29.819881,,,TRUE,TRUE,,,,,,,CLR,,,,,,,,VFR,,,,,,,,,,,,SPECI,209.0
KLCQ 090315Z AUTO 21005KT 10SM CLR 23/21 A2981 RMK AO2,KLCQ,2023-06-09T03:15:00Z,30.18,-82.58,23.0,21.0,210,5,,10.0,29.811024,,,TRUE,TRUE,,,,,,,CLR,,,,,,,,VFR,,,,,,,,,,,,SPECI,59.0
KLAM 090315Z AUTO 27008KT 10SM FEW220 19/M05 A3015 RMK AO2 T01941049 $,KLAM,2023-06-09T03:15:00Z,35.87,-106.27,19.4,-4.9,270,8,,10.0,30.15059,,,TRUE,TRUE,TRUE,,,,,,FEW,22000,,,,,,,VFR,,,,,,,,,,,,SPECI,2166.0
KK82 090315Z AUTO 08006KT 10SM SCT110 23/18 A2986 RMK AO2 T02270179,KK82,2023-06-09T03:15:00Z,39.77,-98.8,22.7,17.9,80,6,,10.0,29.861221,,,TRUE,TRUE,,,,,,,SCT,11000,,,,,,,VFR,,,,,,,,,,,,SPECI,548.0
KK62 090315Z AUTO 00000KT 10SM CLR 13/04 A2986 RMK AO2,KK62,2023-06-09T03:15:00Z,38.7,-84.4,13.0,4.0,0,0,,10.0,29.861221,,,TRUE,TRUE,,,,,,,CLR,,,,,,,,VFR,,,,,,,,,,,,SPECI,274.0
KJZP 090315Z AUTO 00000KT 10SM CLR 17/10 A2987 RMK AO2 T01730105,KJZP,2023-06-09T03:15:00Z,34.45,-84.47,17.3,10.5,0,0,,10.0,29.870079,,,TRUE,TRUE,,,,,,,CLR,,,,,,,,VFR,,,,,,,,,,,,SPECI,462.0
KJYR 090315Z AUTO 14003G10KT 10SM CLR 23/18 A2987 RMK AO2,KJYR,2023-06-09T03:15:00Z,40.9,-97.62,23.0,18.0,140,3,10,10.0,29.870079,,,TRUE,TRUE,,,,,,,CLR,,,,,,,,VFR,,,,,,,,,,,,SPECI,508.0
KJVL 090315Z AUTO 00000KT 10SM CLR 16/00 A2994 RMK AO2,KJVL,2023-06-09T03:15:00Z,42.62,-89.05,16.0,0.0,0,0,,10.0,29.940945,,,TRUE,TRUE,,,,,,,CLR,,,,,,,,VFR,,,,,,,,,,,,SPECI,244.0
KJSV 090315Z AUTO 09005KT 10SM CLR 25/22 A2980 RMK AO2,KJSV,2023-06-09T03:15:00Z,35.43,-94.8,25.0,22.0,90,5,,10.0,29.799213,,,TRUE,TRUE,,,,,,,CLR,,,,,,,,VFR,,,,,,,,,,,,SPECI,158.0
KJPX 090315Z AUTO 00000KT 7SM CLR 10/09 A2973 RMK AO2 T01000087,KJPX,2023-06-09T03:15:00Z,40.95,-72.25,10.0,8.7,0,0,,7.0,29.731298,,,TRUE,TRUE,,,,,,,CLR,,,,,,,,VFR,,,,,,,,,,,,SPECI,10.0
KJKA 090315Z AUTO 26005KT 10SM CLR 26/24 A2979 RMK AO2,KJKA,2023-06-09T03:15:00Z,30.28,-87.67,26.0,24.0,260,5,,10.0,29.790354,,,TRUE,TRUE,,,,,,,CLR,,,,,,,,VFR,,,,,,,,,,,,SPECI,5.0
KJES 090315Z AUTO 00000KT 10SM SCT070 BKN080 BKN110 25/22 A2979 RMK AO2,KJES,2023-06-09T03:15:00Z,31.55,-81.88,25.0,22.0,0,0,,10.0,29.790354,,,TRUE,TRUE,,,,,,,SCT,7000,BKN,8000,BKN,11000,,,VFR,,,,,,,,,,,,SPECI,26.0
KJDD 090315Z AUTO 00000KT 10SM CLR 22/20 A2984 RMK AO2,KJDD,2023-06-09T03:15:00Z,32.75,-95.5,22.0,20.0,0,0,,10.0,29.840551,,,TRUE,TRUE,,,,,,,CLR,,,,,,,,VFR,,,,,,,,,,,,SPECI,127.0
KJCA 090315Z AUTO 36004KT 10SM CLR 17/09 A2984 RMK AO2 T01720094,KJCA,2023-06-09T03:15:00Z,34.18,-83.57,17.2,9.4,360,4,,10.0,29.840551,,,TRUE,TRUE,,,,,,,CLR,,,,,,,,VFR,,,,,,,,,,,,SPECI,287.0
KJAS 090315Z AUTO 00000KT 10SM FEW037 BKN045 BKN050 23/22 A2983 RMK AO2,KJAS,2023-06-09T03:15:00Z,30.88,-94.03,23.0,22.0,0,0,,10.0,29.828741,,,TRUE,TRUE,,,,,,,FEW,3700,BKN,4500,BKN,5000,,,VFR,,,,,,,,,,,,SPECI,60.0
KIZA 090315Z AUTO 26009KT 10SM OVC026 16/13 A3003 RMK AO2,KIZA,2023-06-09T03:15:00Z,34.6,-120.07,16.0,13.0,260,9,,10.0,30.029528,,,TRUE,TRUE,,,,,,,OVC,2600,,,,,,,MVFR,,,,,,,,,,,,SPECI,200.0
KIKV 090315Z AUTO 00000KT 9SM CLR 15/12 A2992 RMK AO2,KIKV,2023-06-09T03:15:00Z,41.68,-93.57,15.0,12.0,0,0,,9.0,29.920275,,,TRUE,TRUE,,,,,,,CLR,,,,,,,,VFR,,,,,,,,,,,,SPECI,270.0
KIKK 090315Z AUTO 06005KT 10SM CLR 13/02 A2993 RMK AO2 T01270020 PWINO,KIKK,2023-06-09T03:15:00Z,41.07,-87.85,12.7,2.0,60,5,,10.0,29.929134,,,TRUE,TRUE,,,,,TRUE,,CLR,,,,,,,,VFR,,,,,,,,,,,,SPECI,188.0
KIKG 090315Z AUTO 10006KT 10SM CLR 27/22 A2983 RMK AO2 T02650215,KIKG,2023-06-09T03:15:00Z,27.55,-98.03,26.5,21.5,100,6,,10.0,29.828741,,,TRUE,TRUE,,,,,,,CLR,,,,,,,,VFR,,,,,,,,,,,,SPECI,37.0
KIJX 090315Z AUTO 00000KT 10SM CLR 16/07 A2989 RMK AO2 T01590073,KIJX,2023-06-09T03:15:00Z,39.77,-90.25,15.9,7.3,0,0,,10.0,29.890747,,,TRUE,TRUE,,,,,,,CLR,,,,,,,,VFR,,,,,,,,,,,,SPECI,187.0
KIIY 090315Z AUTO 34005KT 10SM CLR 19/13 A2981 RMK AO2 T01930128,KIIY,2023-06-09T03:15:00Z,33.78,-82.82,19.3,12.8,340,5,,10.0,29.811024,,,TRUE,TRUE,,,,,,,CLR,,,,,,,,VFR,,,,,,,,,,,,SPECI,192.0
KIIB 090315Z AUTO 10004KT 10SM CLR 17/06 A2995 RMK AO2 T01700061,KIIB,2023-06-09T03:15:00Z,42.45,-91.95,17.0,6.1,100,4,,10.0,29.949802,,,TRUE,TRUE,,,,,,,CLR,,,,,,,,VFR,,,,,,,,,,,,SPECI,294.0
KIDP 090315Z AUTO 07004KT 10SM CLR 25/19 A2981 RMK AO2 T02480191,KIDP,2023-06-09T03:15:00Z,37.17,-95.78,24.8,19.1,70,4,,10.0,29.811024,,,TRUE,TRUE,,,,,,,CLR,,,,,,,,VFR,,,,,,,,,,,,SPECI,252.0
KI95 090315Z AUTO 23003KT 10SM OVC090 16/07 A2984 RMK A01,KI95,2023-06-09T03:15:00Z,,,16.0,7.0,230,3,,10.0,29.840551,,,TRUE,TRUE,,,,,,,OVC,9000,,,,,,,VFR,,,,,,,,,,,,SPECI,
KI74 090315Z AUTO 00000KT 10SM OVC100 16/07 A2986 RMK AO2,KI74,2023-06-09T03:15:00Z,40.12,-83.75,16.0,7.0,0,0,,10.0,29.861221,,,TRUE,TRUE,,,,,,,OVC,10000,,,,,,,VFR,,,,,,,,,,,,SPECI,322.0
KI63 090315Z AUTO 36003KT 10SM CLR 15/08 A2989 RMK AO2 T01520082,KI63,2023-06-09T03:15:00Z,39.98,-90.8,15.2,8.2,360,3,,10.0,29.890747,,,TRUE,TRUE,,,,,,,CLR,,,,,,,,VFR,,,,,,,,,,,,SPECI,221.0
KI16 090315Z AUTO 10SM CLR 10/07 A2995 RMK AO2 T00970072 PNO,KI16,2023-06-09T03:15:00Z,37.6,-81.57,9.7,7.2,,,,10.0,29.949802,,,TRUE,TRUE,,,,,,,CLR,,,,,,,,VFR,,,,,,,,,,,,SPECI,528.0
KHYW 090315Z AUTO 00000KT 10SM CLR 16/16 A2980 RMK AO2 LTG DSNT S,KHYW,2023-06-09T03:15:00Z,33.83,-79.12,16.0,16.0,0,0,,10.0,29.799213,,,TRUE,TRUE,,,,,,,CLR,,,,,,,,VFR,,,,,,,,,,,,METAR,10.0
KHUM 090315Z AUTO 05006KT 7SM CLR 23/20 A2983 RMK AO2 T02330203,KHUM,2023-06-09T03:15:00Z,29.57,-90.67,23.3,20.3,50,6,,7.0,29.828741,,,TRUE,TRUE,,,,,,,CLR,,,,,,,,VFR,,,,,,,,,,,,METAR,1.0
KHSP 090315Z AUTO 30008KT 10SM CLR 11/02 A2991 RMK AO2 T01130020,KHSP,2023-06-09T03:15:00Z,37.95,-79.82,11.3,2.0,300,8,,10.0,29.911417,,,TRUE,TRUE,,,,,,,CLR,,,,,,,,VFR,,,,,,,,,,,,SPECI,1148.0
KHRX 090315Z AUTO 10SM CLR 21/18 A2998 RMK AO2 T02050175 TSNO,KHRX,2023-06-09T03:15:00Z,34.87,-102.33,20.5,17.5,,,,10.0,29.97933,,,TRUE,TRUE,,,TRUE,,,,CLR,,,,,,,,VFR,,,,,,,,,,,,SPECI,1153.0
KHQZ 090315Z AUTO 00000KT 10SM CLR 23/17 A2983 RMK AO1 T02290174,KHQZ,2023-06-09T03:15:00Z,32.75,-96.53,22.9,17.4,0,0,,10.0,29.828741,,,TRUE,TRUE,,,,,,,CLR,,,,,,,,VFR,,,,,,,,,,,,SPECI,136.0
KHQG 090315Z AUTO 17006KT 10SM CLR 21/14 A2994 RMK AO2 T02050144 PWINO,KHQG,2023-06-09T03:15:00Z,37.17,-101.37,20.5,14.4,170,6,,10.0,29.940945,,,TRUE,TRUE,,,,,TRUE,,CLR,,,,,,,,VFR,,,,,,,,,,,,SPECI,956.0
KHQG 090315Z AUTO 17006KT 10SM CLR 21/14 A2994 RMK AO2 T02050144 PWINO,KHQG,2023-06-09T03:15:00Z,37.17,-101.37,20.5,14.4,170,6,,10.0,29.940945,,,TRUE,TRUE,,,,,TRUE,,CLR,,,,,,,,VFR,,,,,,,,,,,,SPECI,956.0
KHPT 090315Z AUTO 23003KT 10SM CLR 15/10 A2992 RMK AO2,KHPT,2023-06-09T03:15:00Z,42.72,-93.23,15.0,10.0,230,3,,10.0,29.920275,,,TRUE,TRUE,,,,,,,CLR,,,,,,,,VFR,,,,,,,,,,,,SPECI,354.0
KHNR 090315Z AUTO 14004KT 10SM CLR 19/18 A2990 RMK A01,KHNR,2023-06-09T03:15:00Z,41.58,-95.33,19.0,18.0,140,4,,10.0,29.899607,,,TRUE,TRUE,,,,,,,CLR,,,,,,,,VFR,,,,,,,,,,,,SPECI,364.0
KHMZ 090315Z AUTO 00000KT 10SM SCT060 11/07 A2983 RMK AO2 T01120065,KHMZ,2023-06-09T03:15:00Z,40.08,-78.52,11.2,6.5,0,0,,10.0,29.828741,,,TRUE,TRUE,,,,,,,SCT,6000,,,,,,,VFR,,,,,,,,,,,,SPECI,351.0
KHMP 090315Z AUTO 00000KT 10SM CLR 17/13 A2986 RMK AO2 T01670135,KHMP,2023-06-09T03:15:00Z,33.38,-84.33,16.7,13.5,0,0,,10.0,29.861221,,,TRUE,TRUE,,,,,,,CLR,,,,,,,,VFR,,,,,,,,,,,,SPECI,263.0
KHJH 090315Z AUTO 12005KT 10SM CLR 24/20 A2987 RMK AO2 T02390196,KHJH,2023-06-09T03:15:00Z,40.15,-97.58,23.9,19.6,120,5,,10.0,29.870079,,,TRUE,TRUE,,,,,,,CLR,,,,,,,,VFR,,,,,,,,,,,,SPECI,449.0
KHIE 090315Z AUTO 00000KT 10SM FEW001 SCT042 OVC060 09/08 A2973 RMK AO2 T00890083,KHIE,2023-06-09T03:15:00Z,44.37,-71.55,8.9,8.3,0,0,,10.0,29.731298,,,TRUE,TRUE,,,,,,,FEW,100,SCT,4200,OVC,6000,,,VFR,,,,,,,,,,,,METAR,321.0
KHHW 090315Z AUTO 00000KT 10SM CLR 24/18 A2982 RMK AO2,KHHW,2023-06-09T03:15:00Z,34.03,-95.55,24.0,18.0,0,0,,10.0,29.819881,,,TRUE,TRUE,,,,,,,CLR,,,,,,,,VFR,,,,,,,,,,,,SPECI,178.0
KHHG 090315Z AUTO 33003KT 10SM CLR 16/03 A2989 RMK AO2 T01600032,KHHG,2023-06-09T03:15:00Z,40.85,-85.45,16.0,3.2,330,3,,10.0,29.890747,,,TRUE,TRUE,,,,,,,CLR,,,,,,,,VFR,,,,,,,,,,,,SPECI,247.0
KHEQ 090315Z AUTO 26003KT 10SM CLR 19/13 A2996 RMK AO2,KHEQ,2023-06-09T03:15:00Z,40.57,-102.28,19.0,13.0,260,3,,10.0,29.958662,,,TRUE,TRUE,,,,,,,CLR,,,,,,,,VFR,,,,,,,,,,,,SPECI,1136.0
KHDL 090315Z AUTO 31004KT 10SM SCT047 BKN055 25/19 A2979 RMK AO2,KHDL,2023-06-09T03:15:00Z,31.37,-85.32,25.0,19.0,310,4,,10.0,29.790354,,,TRUE,TRUE,,,,,,,SCT,4700,BKN,5500,,,,,VFR,,,,,,,,,,,,SPECI,109.0
KHDE 090315Z AUTO 16004KT 10SM CLR 22/16 A2988 RMK AO2 T02190156,KHDE,2023-06-09T03:15:00Z,40.45,-99.33,21.9,15.6,160,4,,10.0,29.878937,,,TRUE,TRUE,,,,,,,CLR,,,,,,,,VFR,,,,,,,,,,,,SPECI,703.0
KGZL 090315Z AUTO 00000KT 9SM 26/19 A2981 RMK AO2,KGZL,2023-06-09T03:15:00Z,35.28,-95.1,26.0,19.0,0,0,,9.0,29.811024,,,TRUE,TRUE,,,,,,,,,,,,,,,,,,,,,,,,,,,SPECI,176.0
KGYY 090315Z AUTO 26003KT 10SM BKN060 OVC100 09/08 A2992 RMK AO2,KGYY,2023-06-09T03:15:00Z,41.62,-87.42,9.0,8.0,260,3,,10.0,29.920275,,,TRUE,TRUE,,,,,,,BKN,6000,OVC,10000,,,,,VFR,,,,,,,,,,,,SPECI,179.0
KGYH 090315Z AUTO 04007KT 10SM BKN080 OVC090 20/07 A2985 RMK A02 T02020071,KGYH,2023-06-09T03:15:00Z,34.75,-82.38,20.2,7.1,40,7,,10.0,29.84941,,,TRUE,TRUE,,,,,,,BKN,8000,OVC,9000,,,,,VFR,,,,,,,,,,,,SPECI,283.0
KGVT 090315Z AUTO 17006KT 10SM CLR 23/19 A2984 RMK AO2 TSNO T02290192,KGVT,2023-06-09T03:15:00Z,33.07,-96.07,22.9,19.2,170,6,,10.0,29.840551,,,TRUE,TRUE,,,TRUE,,,,CLR,,,,,,,,VFR,,,,,,,,,,,,SPECI,165.0
KGNB 090315Z AUTO 14012G23KT 10SM SCT100 11/03 A3022 RMK AO2 T01140033,KGNB,2023-06-09T03:15:00Z,40.08,-105.92,11.4,3.3,140,12,23,10.0,30.221457,,,TRUE,TRUE,,,,,,,SCT,10000,,,,,,,VFR,,,,,,,,,,,,SPECI,2500.0
KGMJ 090315Z AUTO 00000KT 8SM CLR 25/21 A2981 RMK AO2,KGMJ,2023-06-09T03:15:00Z,36.6,-94.73,25.0,21.0,0,0,,8.0,29.811024,,,TRUE,TRUE,,,,,,,CLR,,,,,,,,VFR,,,,,,,,,,,,SPECI,251.0
KGLW 090315Z AUTO 07003KT 10SM CLR 16/09 A2985 RMK AO2 T01610094,KGLW,2023-06-09T03:15:00Z,37.03,-85.95,16.1,9.4,70,3,,10.0,29.84941,,,TRUE,TRUE,,,,,,,CLR,,,,,,,,VFR,,,,,,,,,,,,SPECI,216.0
KGLE 090315Z AUTO 16004KT 10SM CLR 23/20 A2986 RMK AO2 T02340196 PWINO,KGLE,2023-06-09T03:15:00Z,33.65,-97.2,23.4,19.6,160,4,,10.0,29.861221,,,TRUE,TRUE,,,,,TRUE,,CLR,,,,,,,,VFR,,,,,,,,,,,,SPECI,250.0
KGIC 090315Z AUTO 11005KT 10SM SCT034 BKN048 OVC095 16/14 A2996 RMK AO1,KGIC,2023-06-09T03:15:00Z,45.95,-116.12,16.0,14.0,110,5,,10.0,29.958662,,,TRUE,TRUE,,,,,,,SCT,3400,BKN,4800,OVC,9500,,,VFR,,,,,,,,,,,,SPECI,1002.0
KGGP 090315Z AUTO 35004KT 10SM CLR 14/01 A2991 RMK AO2,KGGP,2023-06-09T03:15:00Z,40.72,-86.37,14.0,1.0,350,4,,10.0,29.911417,,,TRUE,TRUE,,,,,,,CLR,,,,,,,,VFR,,,,,,,,,,,,SPECI,224.0
KGGF 090315Z AUTO 26003KT 10SM CLR 19/15 A2993 RMK AO2,KGGF,2023-06-09T03:15:00Z,40.87,-101.73,19.0,15.0,260,3,,10.0,29.929134,,,TRUE,TRUE,,,,,,,CLR,,,,,,,,VFR,,,,,,,,,,,,SPECI,1044.0
KGCM 090315Z AUTO 00000KT 10SM CLR 22/21 A2980 RMK AO2,KGCM,2023-06-09T03:15:00Z,36.3,-95.48,22.0,21.0,0,0,,10.0,29.799213,,,TRUE,TRUE,,,,,,,CLR,,,,,,,,VFR,,,,,,,,,,,,SPECI,215.0
KGCD 090315Z AUTO 08005KT 10SM OVC065 17/13 A2997 RMK AO2 T01720126,KGCD,2023-06-09T03:15:00Z,44.4,-118.97,17.2,12.6,80,5,,10.0,29.970472,,,TRUE,TRUE,,,,,,,OVC,6500,,,,,,,VFR,,,,,,,,,,,,SPECI,1122.0
KGBG 090315Z AUTO 03004KT 10SM CLR 13/00 A2993 RMK AO2 T01320001 TSNO,KGBG,2023-06-09T03:15:00Z,40.93,-90.43,13.2,0.1,30,4,,10.0,29.929134,,,TRUE,TRUE,,,TRUE,,,,CLR,,,,,,,,VFR,,,,,,,,,,,,SPECI,230.0
KFZG 090315Z AUTO 00000KT 10SM SCT070 BKN110 25/18 A2978 RMK AO2 T02510178,KFZG,2023-06-09T03:15:00Z,31.68,-83.27,25.1,17.8,0,0,,10.0,29.778543,,,TRUE,TRUE,,,,,,,SCT,7000,BKN,11000,,,,,VFR,,,,,,,,,,,,SPECI,105.0
KFXY 090315Z AUTO 00000KT 10SM CLR 15/12 A2993 RMK AO2,KFXY,2023-06-09T03:15:00Z,43.23,-93.62,15.0,12.0,0,0,,10.0,29.929134,,,TRUE,TRUE,,,,,,,CLR,,,,,,,,VFR,,,,,,,,,,,,SPECI,366.0
KFWC 090315Z AUTO 00000KT 10SM CLR 17/08 A2985 RMK AO1 T01650080,KFWC,2023-06-09T03:15:00Z,38.38,-88.42,16.5,8.0,0,0,,10.0,29.84941,,,TRUE,TRUE,,,,,,,CLR,,,,,,,,VFR,,,,,,,,,,,,SPECI,131.0
KFSW 090315Z AUTO 00000KT 10SM 17/10 A2990 RMK AO2,KFSW,2023-06-09T03:15:00Z,40.67,-91.32,17.0,10.0,0,0,,10.0,29.899607,,,TRUE,TRUE,,,,,,,,,,,,,,,,,,,,,,,,,,,SPECI,219.0
KFPY 090315Z AUTO 00000KT 10SM CLR 24/23 A2981 RMK AO2 T02440227,KFPY,2023-06-09T03:15:00Z,30.07,-83.57,24.4,22.7,0,0,,10.0,29.811024,,,TRUE,TRUE,,,,,,,CLR,,,,,,,,VFR,,,,,,,,,,,,SPECI,12.0
KFMM 090315Z AUTO 10SM CLR 18/15 A3001 RMK AO2 LTG DSNT S,KFMM,2023-06-09T03:15:00Z,40.33,-103.8,18.0,15.0,,,,10.0,30.008858,,,TRUE,TRUE,,,,,,,CLR,,,,,,,,VFR,,,,,,,,,,,,SPECI,1376.0
KFKR 090315Z AUTO 36006KT 10SM FEW029 BKN037 OVC043 16/02 A2989 RMK AO2,KFKR,2023-06-09T03:15:00Z,40.27,-86.57,16.0,2.0,360,6,,10.0,29.890747,,,TRUE,TRUE,,,,,,,FEW,2900,BKN,3700,OVC,4300,,,VFR,,,,,,,,,,,,SPECI,260.0
KFHB 090315Z AUTO 23005KT 10SM CLR 24/23 A2977 RMK AO2,KFHB,2023-06-09T03:15:00Z,30.62,-81.47,24.0,23.0,230,5,,10.0,29.769686,,,TRUE,TRUE,,,,,,,CLR,,,,,,,,VFR,,,,,,,,,,,,SPECI,4.0
KFGX 090315Z AUTO 20003KT 10SM CLR 16/03 A2988 RMK AO2 T01600028,KFGX,2023-06-09T03:15:00Z,38.55,-83.75,16.0,2.8,200,3,,10.0,29.878937,,,TRUE,TRUE,,,,,,,CLR,,,,,,,,VFR,,,,,,,,,,,,SPECI,279.0
KFFL 090315Z AUTO 03005KT 10SM FEW044 SCT055 BKN070 16/06 A2991 RMK A01,KFFL,2023-06-09T03:15:00Z,41.05,-91.97,16.0,6.0,30,5,,10.0,29.911417,,,TRUE,TRUE,,,,,,,FEW,4400,SCT,5500,BKN,7000,,,VFR,,,,,,,,,,,,SPECI,240.0
KFET 090315Z AUTO 10007KT 10SM CLR 23/16 A2988 RMK AO2 T02270162,KFET,2023-06-09T03:15:00Z,41.45,-96.52,22.7,16.2,100,7,,10.0,29.878937,,,TRUE,TRUE,,,,,,,CLR,,,,,,,,VFR,,,,,,,,,,,,SPECI,366.0
KFBR 090315Z AUTO 10SM CLR 13/05 A3019 RMK AO2 T01250045,KFBR,2023-06-09T03:15:00Z,41.4,-110.4,12.5,4.5,,,,10.0,30.188976,,,TRUE,TRUE,,,,,,,CLR,,,,,,,,VFR,,,,,,,,,,,,METAR,2140.0
KETN 090315Z AUTO 00000KT 10SM CLR 21/18 A2987 RMK AO2 T02050183,KETN,2023-06-09T03:15:00Z,32.42,-98.82,20.5,18.3,0,0,,10.0,29.870079,,,TRUE,TRUE,,,,,,,CLR,,,,,,,,VFR,,,,,,,,,,,,SPECI,445.0
KEOK 090315Z AUTO 00000KT 10SM SCT050 BKN060 15/11 A2990 RMK A01,KEOK,2023-06-09T03:15:00Z,40.47,-91.42,15.0,11.0,0,0,,10.0,29.899607,,,TRUE,TRUE,,,,,,,SCT,5000,BKN,6000,,,,,VFR,,,,,,,,,,,,SPECI,206.0
KECU 090315Z AUTO 14005KT 10SM FEW090 26/16 A2996 RMK AO2,KECU,2023-06-09T03:15:00Z,29.95,-100.17,26.0,16.0,140,5,,10.0,29.958662,,,TRUE,TRUE,,,,,,,FEW,9000,,,,,,,VFR,,,,,,,,,,,,SPECI,725.0
KEBS 090315Z AUTO 10005KT 10SM CLR 16/10 A2991 RMK AO2,KEBS,2023-06-09T03:15:00Z,42.43,-93.87,16.0,10.0,100,5,,10.0,29.911417,,,TRUE,TRUE,,,,,,,CLR,,,,,,,,VFR,,,,,,,,,,,,SPECI,340.0
KEBA 090315Z AUTO 00000KT 10SM CLR 18/14 A2982 RMK AO2 T01800143,KEBA,2023-06-09T03:15:00Z,34.1,-82.82,18.0,14.3,0,0,,10.0,29.819881,,,TRUE,TRUE,,,,,,,CLR,,,,,,,,VFR,,,,,,,,,,,,SPECI,180.0
KE41 090315Z AUTO 10007KT 10SM CLR 28/11 A2993 RMK AO2 T02760107,KE41,2023-06-09T03:15:00Z,31.2,-101.47,27.6,10.7,100,7,,10.0,29.929134,,,TRUE,TRUE,,,,,,,CLR,,,,,,,,VFR,,,,,,,,,,,,SPECI,825.0
KE38 090315Z AUTO 00000KT 10SM CLR 25/07 A3008 RMK AO2 T02510068,KE38,2023-06-09T03:15:00Z,30.38,-103.68,25.1,6.8,0,0,,10.0,30.079725,,,TRUE,TRUE,,,,,,,CLR,,,,,,,,VFR,,,,,,,,,,,,SPECI,1372.0
KE16 090315Z AUTO 33011G15KT 10SM CLR 20/12 A3003 RMK AO2 PWINO PNO,KE16,2023-06-09T03:15:00Z,37.08,-121.6,20.0,12.0,330,11,15,10.0,30.029528,,,TRUE,TRUE,,,,,TRUE,,CLR,,,,,,,,VFR,,,,,,,,,,,,SPECI,84.0
KDVO 090315Z AUTO 32008KT 10SM CLR 15/11 A3003 RMK AO2,KDVO,2023-06-09T03:15:00Z,38.15,-122.55,15.0,11.0,320,8,,10.0,30.029528,,,TRUE,TRUE,,,,,,,CLR,,,,,,,,VFR,,,,,,,,,,,,SPECI,1.0
KDQH 090315Z AUTO 28004KT 10SM SCT075 OVC090 26/18 A2980 RMK AO2 LTG DSNT NE T02580181,KDQH,2023-06-09T03:15:00Z,31.48,-82.87,25.8,18.1,280,4,,10.0,29.799213,,,TRUE,TRUE,,,,,,,SCT,7500,OVC,9000,,,,,VFR,,,,,,,,,,,,SPECI,76.0
KDNS 090315Z AUTO 12005KT 10SM CLR 19/19 A2992 RMK AO2,KDNS,2023-06-09T03:15:00Z,41.98,-95.37,19.0,19.0,120,5,,10.0,29.920275,,,TRUE,TRUE,,,,,,,CLR,,,,,,,,VFR,,,,,,,,,,,,SPECI,382.0
KDKR 090315Z AUTO 00000KT 5SM BR FEW200 OVC220 21/21 A2983 RMK AO2,KDKR,2023-06-09T03:15:00Z,31.3,-95.4,21.0,21.0,0,0,,5.0,29.828741,,,TRUE,TRUE,,,,,,BR,FEW,20000,OVC,22000,,,,,MVFR,,,,,,,,,,,,SPECI,105.0
KDKB 090315Z AUTO 07004KT 10SM CLR 14/04 A2995 RMK AO2 T01430035,KDKB,2023-06-09T03:15:00Z,41.93,-88.7,14.3,3.5,70,4,,10.0,29.949802,,,TRUE,TRUE,,,,,,,CLR,,,,,,,,VFR,,,,,,,,,,,,SPECI,277.0
KDCY 090315Z AUTO 00000KT 10SM SCT090 15/11 A2986 RMK AO2 T01490105,KDCY,2023-06-09T03:15:00Z,38.7,-87.13,14.9,10.5,0,0,,10.0,29.861221,,,TRUE,TRUE,,,,,,,SCT,9000,,,,,,,VFR,,,,,,,,,,,,SPECI,143.0
KDBN 090315Z AUTO 03003KT 10SM BKN070 OVC085 26/12 A2981 RMK AO2,KDBN,2023-06-09T03:15:00Z,32.57,-82.98,26.0,12.0,30,3,,10.0,29.811024,,,TRUE,TRUE,,,,,,,BKN,7000,OVC,8500,,,,,VFR,,,,,,,,,,,,METAR,90.0
KD73 090315Z AUTO 00000KT 10SM CLR 19/10 A2983 RMK AO2 T01860104,KD73,2023-06-09T03:15:00Z,33.78,-83.7,18.6,10.4,0,0,,10.0,29.828741,,,TRUE,TRUE,,,,,,,CLR,,,,,,,,VFR,,,,,,,,,,,,SPECI,254.0
KCYD 090315Z AUTO 29011KT 10SM CLR 28/22 A2986 RMK A02 T02800222,KCYD,2023-06-09T03:15:00Z,28.17,-89.22,28.0,22.2,290,11,,10.0,29.861221,,,TRUE,TRUE,,,,,,,CLR,,,,,,,,VFR,,,,,,,,,,,,METAR,30.0
KCWV 090315Z AUTO 08003KT 7SM CLR 23/22 A2977 RMK AO2 LTG DSNT E T02320220,KCWV,2023-06-09T03:15:00Z,32.2,-81.87,23.2,22.0,80,3,,7.0,29.769686,,,TRUE,TRUE,,,,,,,CLR,,,,,,,,VFR,,,,,,,,,,,,SPECI,32.0
KCWF 090315Z AUTO 00000KT 10SM CLR 24/21 A2984 RMK AO2 LTG DSNT SE T02430206,KCWF,2023-06-09T03:15:00Z,30.22,-93.15,24.3,20.6,0,0,,10.0,29.840551,,,TRUE,TRUE,,,,,,,CLR,,,,,,,,VFR,,,,,,,,,,,,SPECI,4.0
KCTJ 090315Z AUTO 00000KT 10SM SCT110 17/13 A2987 RMK AO2 T01680127,KCTJ,2023-06-09T03:15:00Z,33.63,-85.15,16.8,12.7,0,0,,10.0,29.870079,,,TRUE,TRUE,,,,,,,SCT,11000,,,,,,,VFR,,,,,,,,,,,,SPECI,351.0
KCQB 090315Z AUTO 23004KT 10SM CLR 25/19 A2983 RMK AO2 T02540190,KCQB,2023-06-09T03:15:00Z,35.72,-96.82,25.4,19.0,230,4,,10.0,29.828741,,,TRUE,TRUE,,,,,,,CLR,,,,,,,,VFR,,,,,,,,,,,,SPECI,298.0
KCPW 090315Z AUTO 24010KT 10SM CLR 05/M08 A3050 RMK AO2,KCPW,2023-06-09T03:15:00Z,37.45,-106.8,5.0,-8.0,240,10,,10.0,30.499016,,,TRUE,TRUE,,,,,,,CLR,,,,,,,,VFR,,,,,,,,,,,,SPECI,3570.0
KCOM 090315Z AUTO 00000KT 10SM CLR 24/18 A2989 RMK AO2 T02430181,KCOM,2023-06-09T03:15:00Z,31.83,-99.4,24.3,18.1,0,0,,10.0,29.890747,,,TRUE,TRUE,,,,,,,CLR,,,,,,,,VFR,,,,,,,,,,,,SPECI,516.0
KCNI 090315Z AUTO 04004KT 10SM CLR 17/11 A2985 RMK AO2 LTG DSNT NW T01660111,KCNI,2023-06-09T03:15:00Z,34.32,-84.42,16.6,11.1,40,4,,10.0,29.84941,,,TRUE,TRUE,,,,,,,CLR,,,,,,,,VFR,,,,,,,,,,,,SPECI,371.0
KCMD 090315Z AUTO 00000KT 10SM CLR 17/15 A2985 RMK AO2,KCMD,2023-06-09T03:15:00Z,34.27,-86.85,17.0,15.0,0,0,,10.0,29.84941,,,TRUE,TRUE,,,,,,,CLR,,,,,,,,VFR,,,,,,,,,,,,SPECI,294.0
KCKP 090315Z AUTO 12006KT 10SM CLR 19/15 A2991 RMK AO2 T01890146,KCKP,2023-06-09T03:15:00Z,42.73,-95.55,18.9,14.6,120,6,,10.0,29.911417,,,TRUE,TRUE,,,,,,,CLR,,,,,,,,VFR,,,,,,,,,,,,SPECI,369.0
KCKF 090315Z AUTO 00000KT 10SM SCT065 SCT080 BKN120 24/18 A2979 RMK AO2 T02420182,KCKF,2023-06-09T03:15:00Z,31.98,-83.77,24.2,18.2,0,0,,10.0,29.790354,,,TRUE,TRUE,,,,,,,SCT,6500,SCT,8000,BKN,12000,,,VFR,,,,,,,,,,,,SPECI,92.0
KCIN 090315Z AUTO 11004KT 10SM SCT042 BKN048 17/16 A2991 RMK AO2,KCIN,2023-06-09T03:15:00Z,42.03,-94.78,17.0,16.0,110,4,,10.0,29.911417,,,TRUE,TRUE,,,,,,,SCT,4200,BKN,4800,,,,,VFR,,,,,,,,,,,,SPECI,365.0
KCHK 090315Z AUTO 13004KT 10SM CLR 25/18 A2981 RMK AO2 T02470181,KCHK,2023-06-09T03:15:00Z,35.1,-97.97,24.7,18.1,130,4,,10.0,29.811024,,,TRUE,TRUE,,,,,,,CLR,,,,,,,,VFR,,,,,,,,,,,,SPECI,346.0
KCGF 090315Z AUTO 00000KT 10SM OVC120 13/09 A2986 RMK AO2 T01330092,KCGF,2023-06-09T03:15:00Z,41.57,-81.47,13.3,9.2,0,0,,10.0,29.861221,,,TRUE,TRUE,,,,,,,OVC,12000,,,,,,,VFR,,,,,,,,,,,,SPECI,265.0
KCCY 090315Z AUTO 11006KT 10SM CLR 18/06 A2993 RMK AO2,KCCY,2023-06-09T03:15:00Z,43.07,-92.62,18.0,6.0,110,6,,10.0,29.929134,,,TRUE,TRUE,,,,,,,CLR,,,,,,,,VFR,,,,,,,,,,,,SPECI,340.0
KCCO 090315Z AUTO 00000KT 10SM CLR 21/12 A2984 RMK AO2 T02120120,KCCO,2023-06-09T03:15:00Z,33.32,-84.77,21.2,12.0,0,0,,10.0,29.840551,,,TRUE,TRUE,,,,,,,CLR,,,,,,,,VFR,,,,,,,,,,,,SPECI,290.0
KCBK 090315Z AUTO 19003KT 10SM CLR 23/11 A2994 RMK AO2 T02340113,KCBK,2023-06-09T03:15:00Z,39.43,-101.05,23.4,11.3,190,3,,10.0,29.940945,,,TRUE,TRUE,,,,,,,CLR,,,,,,,,VFR,,,,,,,,,,,,SPECI,970.0
KCBF 090315Z AUTO 13005KT 10SM CLR 20/13 A2987 RMK AO2,KCBF,2023-06-09T03:15:00Z,41.27,-95.77,20.0,13.0,130,5,,10.0,29.870079,,,TRUE,TRUE,,,,,,,CLR,,,,,,,,VFR,,,,,,,,,,,,SPECI,379.0
KCAV 090315Z AUTO 14006KT 10SM FEW047 BKN075 BKN095 18/09 A2992 RMK A01,KCAV,2023-06-09T03:15:00Z,42.75,-93.77,18.0,9.0,140,6,,10.0,29.920275,,,TRUE,TRUE,,,,,,,FEW,4700,BKN,7500,BKN,9500,,,VFR,,,,,,,,,,,,SPECI,352.0
KC75 090315Z AUTO 11010G16KT 050V130 10SM CLR 18/02 A2991 RMK AO2 T01770017,KC75,2023-06-09T03:15:00Z,41.02,-89.38,17.7,1.7,110,10,16,10.0,29.911417,,,TRUE,TRUE,,,,,,,CLR,,,,,,,,VFR,,,,,,,,,,,,SPECI,166.0
KC65 090315Z AUTO 00000KT 10SM BKN035 OVC044 12/05 A2990 RMK A01,KC65,2023-06-09T03:15:00Z,41.37,-86.3,12.0,5.0,0,0,,10.0,29.899607,,,TRUE,TRUE,,,,,,,BKN,3500,OVC,4400,,,,,VFR,,,,,,,,,,,,SPECI,241.0
KC07 090315Z AUTO 00000KT 10SM CLR 10/01 A3035 RMK AO2,KC07,2023-06-09T03:15:00Z,40.35,-106.7,10.0,1.0,0,0,,10.0,30.351377,,,TRUE,TRUE,,,,,,,CLR,,,,,,,,VFR,,,,,,,,,,,,SPECI,3224.0
KBYL 090315Z AUTO 00000KT 10SM CLR 12/11 A2989 RMK AO1,KBYL,2023-06-09T03:15:00Z,36.8,-84.2,12.0,11.0,0,0,,10.0,29.890747,,,TRUE,TRUE,,,,,,,CLR,,,,,,,,VFR,,,,,,,,,,,,SPECI,355.0
KBWD 090315Z AUTO 00000KT 10SM CLR 22/18 A2988 RMK AO1,KBWD,2023-06-09T03:15:00Z,31.8,-98.95,22.0,18.0,0,0,,10.0,29.878937,,,TRUE,TRUE,,,,,,,CLR,,,,,,,,VFR,,,,,,,,,,,,METAR,420.0
KBVS 090315Z AUTO 22005KT 10SM CLR 16/11 A2994 RMK A01,KBVS,2023-06-09T03:15:00Z,48.47,-122.42,16.0,11.0,220,5,,10.0,29.940945,,,TRUE,TRUE,,,,,,,CLR,,,,,,,,VFR,,,,,,,,,,,,SPECI,31.0
KBVN 090315Z AUTO 12007KT 10SM CLR 24/17 A2986 RMK AO2 T02410171,KBVN,2023-06-09T03:15:00Z,41.73,-98.05,24.1,17.1,120,7,,10.0,29.861221,,,TRUE,TRUE,,,,,,,CLR,,,,,,,,VFR,,,,,,,,,,,,SPECI,547.0
KBQP 090315Z AUTO 00000KT CLR 25/20 A2983 RMK AO2 T02500197 PWINO,KBQP,2023-06-09T03:15:00Z,32.75,-91.88,25.0,19.7,0,0,,,29.828741,,,TRUE,TRUE,,,,,TRUE,,CLR,,,,,,,,,,,,,,,,,,,,METAR,50.0
KBNW 090315Z AUTO 13003KT 10SM CLR 18/11 A2991 RMK AO2,KBNW,2023-06-09T03:15:00Z,42.03,-93.83,18.0,11.0,130,3,,10.0,29.911417,,,TRUE,TRUE,,,,,,,CLR,,,,,,,,VFR,,,,,,,,,,,,SPECI,350.0
KBMT 090315Z AUTO 00000KT 10SM SCT120 24/19 A2985 RMK AO2 T02360185,KBMT,2023-06-09T03:15:00Z,30.07,-94.22,23.6,18.5,0,0,,10.0,29.84941,,,TRUE,TRUE,,,,,,,SCT,12000,,,,,,,VFR,,,,,,,,,,,,SPECI,8.0
KBHC 090315Z AUTO 10004KT 10SM VCTS BKN080 25/19 A2976 RMK AO2 LTG DSNT NW,KBHC,2023-06-09T03:15:00Z,31.72,-82.4,25.0,19.0,100,4,,10.0,29.760826,,,TRUE,TRUE,,,,,,VCTS,BKN,8000,,,,,,,VFR,,,,,,,,,,,,METAR,61.0
KBEC 090315Z AUTO 30003KT 10SM SCT095 28/15 A2983 RMK AO2 T02770150,KBEC,2023-06-09T03:15:00Z,37.7,-97.22,27.7,15.0,300,3,,10.0,29.828741,,,TRUE,TRUE,,,,,,,SCT,9500,,,,,,,VFR,,,,,,,,,,,,METAR,421.0
KBDU 090315Z AUTO 25012G19KT 10SM BKN120 18/07 A3006 RMK AO2 LTG DSNT NE THRU S,KBDU,2023-06-09T03:15:00Z,40.03,-105.23,18.0,7.0,250,12,19,10.0,30.059055,,,TRUE,TRUE,,,,,,,BKN,12000,,,,,,,VFR,,,,,,,,,,,,SPECI,1614.0
KBDG 090315Z AUTO 26003KT 10SM 19/M08 A3013 RMK AO1 T01891080,KBDG,2023-06-09T03:15:00Z,37.58,-109.47,18.9,-8.0,260,3,,10.0,30.129921,,,TRUE,TRUE,,,,,,,,,,,,,,,,,,,,,,,,,,,METAR,1778.0
KBBD 090315Z AUTO 00000KT 10SM CLR 24/19 A2989 RMK AO2,KBBD,2023-06-09T03:15:00Z,31.18,-99.32,24.0,19.0,0,0,,10.0,29.890747,,,TRUE,TRUE,,,,,,,CLR,,,,,,,,VFR,,,,,,,,,,,,SPECI,554.0
KAZE 090315Z AUTO 35008KT 320V030 2 1/2SM +VCTSRA SCT033 BKN060 OVC070 23/21 A2979 RMK AO2 LTG DSNT N S AND SW T02250205,KAZE,2023-06-09T03:15:00Z,31.88,-82.65,22.5,20.5,350,8,,2.5,29.790354,,,TRUE,TRUE,,,,,,VCTS +RA,SCT,3300,BKN,6000,OVC,7000,,,IFR,,,,,,,,,,,,SPECI,78.0
KAYS 090315Z AUTO 25005KT 10SM BKN075 BKN085 BKN100 26/23 A2976 RMK AO2 T02630230,KAYS,2023-06-09T03:15:00Z,31.25,-82.4,26.3,23.0,250,5,,10.0,29.760826,,,TRUE,TRUE,,,,,,,BKN,7500,BKN,8500,BKN,10000,,,VFR,,,,,,,,,,,,METAR,42.0
KAXA 090315Z AUTO 00000KT 10SM CLR 19/13 A2991 RMK A01,KAXA,2023-06-09T03:15:00Z,43.07,-94.27,19.0,13.0,0,0,,10.0,29.911417,,,TRUE,TRUE,,,,,,,CLR,,,,,,,,VFR,,,,,,,,,,,,SPECI,371.0
KAWG 090315Z AUTO 08004KT 10SM CLR 18/07 A2990 RMK AO2,KAWG,2023-06-09T03:15:00Z,41.27,-91.67,18.0,7.0,80,4,,10.0,29.899607,,,TRUE,TRUE,,,,,,,CLR,,,,,,,,VFR,,,,,,,,,,,,SPECI,229.0
KAUN 090315Z AUTO 21005KT 10SM CLR 21/13 A3001 RMK A01,KAUN,2023-06-09T03:15:00Z,38.95,-121.08,21.0,13.0,210,5,,10.0,30.008858,,,TRUE,TRUE,,,,,,,CLR,,,,,,,,VFR,,,,,,,,,,,,SPECI,453.0
KAUH 090315Z AUTO 14005KT 10SM CLR 23/16 A2987 RMK AO2 T02250161,KAUH,2023-06-09T03:15:00Z,40.88,-98.0,22.5,16.1,140,5,,10.0,29.870079,,,TRUE,TRUE,,,,,,,CLR,,,,,,,,VFR,,,,,,,,,,,,SPECI,549.0
KASW 090315Z AUTO 27003KT 10SM CLR 13/02 A2990 RMK AO2 T01310030,KASW,2023-06-09T03:15:00Z,41.27,-85.83,13.1,3.0,270,3,,10.0,29.899607,,,TRUE,TRUE,,,,,,,CLR,,,,,,,,VFR,,,,,,,,,,,,SPECI,253.0
KAQW 090315Z AUTO 00000KT 10SM SCT021 10/08 A2975 RMK AO2 T01000078,KAQW,2023-06-09T03:15:00Z,42.7,-73.17,10.0,7.8,0,0,,10.0,29.749016,,,TRUE,TRUE,,,,,,,SCT,2100,,,,,,,VFR,,,,,,,,,,,,METAR,196.0
KAQO 090315Z AUTO 12004KT 10SM SCT055 24/18 A2987 RMK AO2,KAQO,2023-06-09T03:15:00Z,30.78,-98.67,24.0,18.0,120,4,,10.0,29.870079,,,TRUE,TRUE,,,,,,,SCT,5500,,,,,,,VFR,,,,,,,,,,,,SPECI,334.0
KAPY 090315Z AUTO 11003KT 10SM CLR 30/22 A2982 RMK AO2 T02970217 TSNO,KAPY,2023-06-09T03:15:00Z,26.97,-99.25,29.7,21.7,110,3,,10.0,29.819881,,,TRUE,TRUE,,,TRUE,,,,CLR,,,,,,,,VFR,,,,,,,,,,,,SPECI,129.0
KANW 090315Z AUTO 22003KT 10SM CLR 21/16 A2988 RMK AO2 T02090156,KANW,2023-06-09T03:15:00Z,42.57,-100.0,20.9,15.6,220,3,,10.0,29.878937,,,TRUE,TRUE,,,,,,,CLR,,,,,,,,VFR,,,,,,,,,,,,SPECI,788.0
KALN 090315Z AUTO 00000KT 10SM CLR 15/08 A2988 RMK AO2 T01460082,KALN,2023-06-09T03:15:00Z,38.88,-90.03,14.6,8.2,0,0,,10.0,29.878937,,,TRUE,TRUE,,,,,,,CLR,,,,,,,,VFR,,,,,,,,,,,,SPECI,159.0
KAJR 090315Z AUTO 04003KT 7SM CLR 18/09 A2985 RMK AO2 T01770091,KAJR,2023-06-09T03:15:00Z,34.5,-83.55,17.7,9.1,40,3,,7.0,29.84941,,,TRUE,TRUE,,,,,,,CLR,,,,,,,,VFR,,,,,,,,,,,,METAR,441.0
KAIO 090315Z AUTO 10006KT 10SM CLR 19/18 A2989 RMK AO2,KAIO,2023-06-09T03:15:00Z,41.4,-95.03,19.0,18.0,100,6,,10.0,29.890747,,,TRUE,TRUE,,,,,,,CLR,,,,,,,,VFR,,,,,,,,,,,,SPECI,349.0
KAHQ 090315Z AUTO 13007KT 10SM 22/17 A2987 RMK AO2 T02200171,KAHQ,2023-06-09T03:15:00Z,41.23,-96.6,22.0,17.1,130,7,,10.0,29.870079,,,TRUE,TRUE,,,,,,,,,,,,,,,,,,,,,,,,,,,SPECI,372.0
KAFO 090315Z AUTO 02004KT 10SM CLR 10/07 A3014 RMK AO2,KAFO,2023-06-09T03:15:00Z,42.72,-110.95,10.0,7.0,20,4,,10.0,30.138779,,,TRUE,TRUE,,,,,,,CLR,,,,,,,,VFR,,,,,,,,,,,,METAR,1881.0
KAFK 090315Z AUTO 13007KT 10SM CLR 21/16 A2989 RMK AO2 T02050160,KAFK,2023-06-09T03:15:00Z,40.6,-95.85,20.5,16.0,130,7,,10.0,29.890747,,,TRUE,TRUE,,,,,,,CLR,,,,,,,,VFR,,,,,,,,,,,,SPECI,353.0
KADU 090315Z AUTO 00000KT 10SM SCT007 SCT050 BKN070 17/14 A2991 RMK AO2 PWINO,KADU,2023-06-09T03:15:00Z,41.7,-94.92,17.0,14.0,0,0,,10.0,29.911417,,,TRUE,TRUE,,,,,TRUE,,SCT,700,SCT,5000,BKN,7000,,,VFR,,,,,,,,,,,,SPECI,391.0
KADT 090315Z AUTO 30003KT 10SM SCT120 22/13 A2997 RMK AO2 T02240133,KADT,2023-06-09T03:15:00Z,39.83,-101.05,22.4,13.3,300,3,,10.0,29.970472,,,TRUE,TRUE,,,,,,,SCT,12000,,,,,,,VFR,,,,,,,,,,,,SPECI,899.0
KADH 090315Z AUTO 00000KT 10SM CLR 22/20 A2985 RMK AO2,KADH,2023-06-09T03:15:00Z,34.8,-96.67,22.0,20.0,0,0,,10.0,29.84941,,,TRUE,TRUE,,,,,,,CLR,,,,,,,,VFR,,,,,,,,,,,,SPECI,301.0
KAAA 090315Z AUTO 00000KT 10SM CLR 17/05 A2990 RMK AO2 T01680051,KAAA,2023-06-09T03:15:00Z,40.17,-89.33,16.8,5.1,0,0,,10.0,29.899607,,,TRUE,TRUE,,,,,,,CLR,,,,,,,,VFR,,,,,,,,,,,,SPECI,179.0
KA39 090315Z AUTO 30004KT 10SM CLR 27/M04 A2991 RMK AO2,KA39,2023-06-09T03:15:00Z,32.98,-111.92,27.0,-4.0,300,4,,10.0,29.911417,,,TRUE,TRUE,,,,,,,CLR,,,,,,,,VFR,,,,,,,,,,,,METAR,391.0
K9V9 090315Z AUTO 11005KT 10SM CLR 24/18 A2982 RMK AO2 T02430175,K9V9,2023-06-09T03:15:00Z,43.77,-99.32,24.3,17.5,110,5,,10.0,29.819881,,,TRUE,TRUE,,,,,,,CLR,,,,,,,,VFR,,,,,,,,,,,,SPECI,511.0
K8T6 090315Z AUTO 12006KT 10SM CLR 27/23 A2983 RMK AO2,K8T6,2023-06-09T03:15:00Z,28.37,-98.12,27.0,23.0,120,6,,10.0,29.828741,,,TRUE,TRUE,,,,,,,CLR,,,,,,,,VFR,,,,,,,,,,,,METAR,39.0
K8A0 090315Z AUTO 08003KT 10SM CLR 19/12 A2984 RMK AO2,K8A0,2023-06-09T03:15:00Z,34.23,-86.25,19.0,12.0,80,3,,10.0,29.840551,,,TRUE,TRUE,,,,,,,CLR,,,,,,,,VFR,,,,,,,,,,,,METAR,313.0
K82V 090315Z AUTO 11003KT 10SM 16/11 A3005 RMK AO2,K82V,2023-06-09T03:15:00Z,41.15,-104.13,16.0,11.0,110,3,,10.0,30.050198,,,TRUE,TRUE,,,,,,,,,,,,,,,,,,,,,,,,,,,SPECI,1563.0
K7BM 090315Z AUTO 25012G17KT 10SM CLR 12/M02 A3032 RMK AO2 LTG DSNT NE,K7BM,2023-06-09T03:15:00Z,38.78,-106.22,12.0,-2.0,250,12,17,10.0,30.318897,,,TRUE,TRUE,,,,,,,CLR,,,,,,,,VFR,,,,,,,,,,,,SPECI,2996.0
K6R3 090315Z AUTO 00000KT 4SM BR CLR 21/20 A2986 RMK AO2 T02100203,K6R3,2023-06-09T03:15:00Z,30.35,-95.0,21.0,20.3,0,0,,4.0,29.861221,,,TRUE,TRUE,,,,,,BR,CLR,,,,,,,,MVFR,,,,,,,,,,,,SPECI,44.0
K6P9 090315Z AUTO 20007KT 10SM CLR 23/18 A2988 RMK AO2 T02270175,K6P9,2023-06-09T03:15:00Z,32.43,-98.6,22.7,17.5,200,7,,10.0,29.878937,,,TRUE,TRUE,,,,,,,CLR,,,,,,,,VFR,,,,,,,,,,,,METAR,451.0
K6I2 090315Z AUTO 10003KT 10SM CLR 17/08 A2988 RMK AO2,K6I2,2023-06-09T03:15:00Z,37.63,-85.25,17.0,8.0,100,3,,10.0,29.878937,,,TRUE,TRUE,,,,,,,CLR,,,,,,,,VFR,,,,,,,,,,,,SPECI,258.0
K6A1 090315Z AUTO 00000KT 10SM CLR 23/15 A2982 RMK AO2 T02340145,K6A1,2023-06-09T03:15:00Z,32.57,-84.25,23.4,14.5,0,0,,10.0,29.819881,,,TRUE,TRUE,,,,,,,CLR,,,,,,,,VFR,,,,,,,,,,,,METAR,198.0
K66R 090315Z AUTO 00000KT 10SM CLR 23/18 A2987 RMK AO2 T02260180,K66R,2023-06-09T03:15:00Z,29.65,-96.52,22.6,18.0,0,0,,10.0,29.870079,,,TRUE,TRUE,,,,,,,CLR,,,,,,,,VFR,,,,,,,,,,,,SPECI,70.0
K5SM 090315Z AUTO 22010G16KT 10SM CLR 05/M03 A3039 RMK AO2 LTG DSNT N,K5SM,2023-06-09T03:15:00Z,39.43,-107.38,5.0,-3.0,220,10,16,10.0,30.389763,,,TRUE,TRUE,,,,,,,CLR,,,,,,,,VFR,,,,,,,,,,,,SPECI,3229.0
K5R8 090315Z AUTO 00000KT 10SM CLR 23/20 A2984 RMK AO2 T02300200,K5R8,2023-06-09T03:15:00Z,30.43,-93.47,23.0,20.0,0,0,,10.0,29.840551,,,TRUE,TRUE,,,,,,,CLR,,,,,,,,VFR,,,,,,,,,,,,METAR,26.0
K5C1 090315Z AUTO 00000KT 10SM CLR 25/18 A2990 RMK AO1,K5C1,2023-06-09T03:15:00Z,29.72,-98.7,25.0,18.0,0,0,,10.0,29.899607,,,TRUE,TRUE,,,,,,,CLR,,,,,,,,VFR,,,,,,,,,,,,SPECI,422.0
K4V1 090315Z AUTO 05006KT 10SM SCT120 19/07 A3007 RMK AO2 T01850070,K4V1,2023-06-09T03:15:00Z,37.7,-104.78,18.5,7.0,50,6,,10.0,30.070866,,,TRUE,TRUE,,,,,,,SCT,12000,,,,,,,VFR,,,,,,,,,,,,METAR,1847.0
K4F2 090315Z AUTO 00000KT 10SM CLR 22/20 A2985 RMK AO2 T02200199,K4F2,2023-06-09T03:15:00Z,32.18,-94.3,22.0,19.9,0,0,,10.0,29.84941,,,TRUE,TRUE,,,,,,,CLR,,,,,,,,VFR,,,,,,,,,,,,METAR,76.0
K4BM 090315Z AUTO 05005KT 10SM CLR 07/03 A3044 RMK AO2 LTG DSNT N AND NW,K4BM,2023-06-09T03:15:00Z,39.05,-105.52,7.0,3.0,50,5,,10.0,30.43996,,,TRUE,TRUE,,,,,,,CLR,,,,,,,,VFR,,,,,,,,,,,,SPECI,3432.0
K49A 090315Z AUTO 00000KT 10SM BKN110 14/12 A2986 RMK AO2,K49A,2023-06-09T03:15:00Z,34.63,-84.53,14.0,12.0,0,0,,10.0,29.861221,,,TRUE,TRUE,,,,,,,BKN,11000,,,,,,,VFR,,,,,,,,,,,,METAR,449.0
K3K3 090315Z AUTO 13006KT 10SM 20/15 A2994 RMK AO2,K3K3,2023-06-09T03:15:00Z,38.0,-101.75,20.0,15.0,130,6,,10.0,29.940945,,,TRUE,TRUE,,,,,,,,,,,,,,,,,,,,,,,,,,,METAR,1010.0
K3F3 090315Z AUTO 00000KT 10SM CLR 25/20 A2988 RMK AO2 T02480203,K3F3,2023-06-09T03:15:00Z,32.07,-93.77,24.8,20.3,0,0,,10.0,29.878937,,,TRUE,TRUE,,,,,,,CLR,,,,,,,,VFR,,,,,,,,,,,,METAR,96.0
K2R9 090315Z AUTO 10008KT 10SM CLR 27/20 A2986 RMK AO2 T02720205,K2R9,2023-06-09T03:15:00Z,28.82,-97.87,27.2,20.5,100,8,,10.0,29.861221,,,TRUE,TRUE,,,,,,,CLR,,,,,,,,VFR,,,,,,,,,,,,SPECI,88.0
K2J5 090315Z AUTO 00000KT 10SM SCT075 22/19 A2979 RMK AO2 T02250186,K2J5,2023-06-09T03:15:00Z,32.9,-81.97,22.5,18.6,0,0,,10.0,29.790354,,,TRUE,TRUE,,,,,,,SCT,7500,,,,,,,VFR,,,,,,,,,,,,METAR,72.0
K2J3 090315Z AUTO 05003KT 7SM BKN080 22/19 A2979 RMK AO2 T02200195,K2J3,2023-06-09T03:15:00Z,32.98,-82.38,22.0,19.5,50,3,,7.0,29.790354,,,TRUE,TRUE,,,,,,,BKN,8000,,,,,,,VFR,,,,,,,,,,,,METAR,97.0
K2I0 090315Z AUTO 00000KT 10SM CLR 18/09 A2985 RMK AO2 T01800088,K2I0,2023-06-09T03:15:00Z,37.35,-87.4,18.0,8.8,0,0,,10.0,29.84941,,,TRUE,TRUE,,,,,,,CLR,,,,,,,,VFR,,,,,,,,,,,,METAR,127.0
K2G9 090315Z AUTO 24004KT 10SM BKN050 BKN065 08/07 A2985 RMK AO2,K2G9,2023-06-09T03:15:00Z,40.03,-79.02,8.0,7.0,240,4,,10.0,29.84941,,,TRUE,TRUE,,,,,,,BKN,5000,BKN,6500,,,,,VFR,,,,,,,,,,,,SPECI,677.0
K20V 090315Z AUTO 20010KT 10SM SCT120 15/02 A3016 RMK AO2,K20V,2023-06-09T03:15:00Z,40.05,-106.37,15.0,2.0,200,10,,10.0,30.159449,,,TRUE,TRUE,,,,,,,SCT,12000,,,,,,,VFR,,,,,,,,,,,,SPECI,2259.0
K1R8 090315Z AUTO 00000KT 10SM FEW041 BKN060 OVC075 23/21 A2979 RMK AO2,K1R8,2023-06-09T03:15:00Z,30.87,-87.82,23.0,21.0,0,0,,10.0,29.790354,,,TRUE,TRUE,,,,,,,FEW,4100,BKN,6000,OVC,7500,,,VFR,,,,,,,,,,,,SPECI,76.0
K1H2 090315Z AUTO 00000KT 10SM CLR 15/10 A2989 RMK AO2 T01530095,K1H2,2023-06-09T03:15:00Z,39.07,-88.53,15.3,9.5,0,0,,10.0,29.890747,,,TRUE,TRUE,,,,,,,CLR,,,,,,,,VFR,,,,,,,,,,,,SPECI,174.0
K1A9 090315Z AUTO 00000KT 10SM CLR 23/19 A2979 RMK AO2 T02250192,K1A9,2023-06-09T03:15:00Z,32.43,-86.52,22.5,19.2,0,0,,10.0,29.790354,,,TRUE,TRUE,,,,,,,CLR,,,,,,,,VFR,,,,,,,,,,,,METAR,65.0
K1A6 090315Z AUTO 00000KT 10SM CLR 13/09 A2991 RMK AO2 T01250092,K1A6,2023-06-09T03:15:00Z,36.62,-83.73,12.5,9.2,0,0,,10.0,29.911417,,,TRUE,TRUE,,,,,,,CLR,,,,,,,,VFR,,,,,,,,,,,,METAR,348.0
K19S 090315Z AUTO 17007KT 10SM CLR 22/16 A2993 RMK AO2 T02220160,K19S,2023-06-09T03:15:00Z,37.48,-100.83,22.2,16.0,170,7,,10.0,29.929134,,,TRUE,TRUE,,,,,,,CLR,,,,,,,,VFR,,,,,,,,,,,,METAR,886.0
K18A 090315Z AUTO 05005KT 10SM CLR 19/09 A2990 RMK AO2 T01930093,K18A,2023-06-09T03:15:00Z,34.35,-83.13,19.3,9.3,50,5,,10.0,29.899607,,,TRUE,TRUE,,,,,,,CLR,,,,,,,,VFR,,,,,,,,,,,,SPECI,260.0
K17J 090315Z AUTO 25004KT 10SM CLR 26/20 A2980 RMK AO2 T02590198,K17J,2023-06-09T03:15:00Z,31.0,-84.87,25.9,19.8,250,4,,10.0,29.799213,,,TRUE,TRUE,,,,,,,CLR,,,,,,,,VFR,,,,,,,,,,,,METAR,42.0
K0F2 090315Z AUTO 00000KT 10SM CLR 23/21 A2984 RMK AO2 T02310205,K0F2,2023-06-09T03:15:00Z,33.6,-97.78,23.1,20.5,0,0,,10.0,29.840551,,,TRUE,TRUE,,,,,,,CLR,,,,,,,,VFR,,,,,,,,,,,,SPECI,330.0
K06C 090315Z AUTO 00000KT 10SM CLR 14/07 A2993 RMK AO2 T01430067,K06C,2023-06-09T03:15:00Z,41.98,-88.1,14.3,6.7,0,0,,10.0,29.929134,,,TRUE,TRUE,,,,,,,CLR,,,,,,,,VFR,,,,,,,,,,,,SPECI,243.0
K04V 090315Z AUTO 32009KT 10SM 13/02 A3021 RMK AO2,K04V,2023-06-09T03:15:00Z,38.1,-106.17,13.0,2.0,320,9,,10.0,30.209646,,,TRUE,TRUE,,,,,,,,,,,,,,,,,,,,,,,,,,,METAR,2389.0
CYET 090315Z AUTO 06011KT 5SM HZ CLR 23/08 A2999 RMK SLP142 DENSITY ALT 4600FT,CYET,2023-06-09T03:15:00Z,53.57,-116.47,23.0,8.0,60,11,,5.0,29.991142,1014.2,,TRUE,,,,,,,HZ,CLR,,,,,,,,MVFR,,,,,,,,,,,,SPECI,925.0
SBBV 090314Z 27002KT 9999 BKN005 FEW040TCU BKN080 24/23 Q1015,SBBV,2023-06-09T03:14:00Z,2.85,-60.7,24.0,23.0,270,2,,6.21,29.970472,,,,,,,,,,,BKN,500,FEW,4000,BKN,8000,,,IFR,,,,,,,,,,,,SPECI,80.0
KAKQ 090314Z AUTO 00000KT 4SM BR CLR 13/12 A2979 RMK AO2 T01330122,KAKQ,2023-06-09T03:14:00Z,36.98,-77.0,13.3,12.2,0,0,,4.0,29.790354,,,TRUE,TRUE,,,,,,BR,CLR,,,,,,,,MVFR,,,,,,,,,,,,METAR,34.0
RJTK 090313Z 21026KT 7000 FEW005 SCT008 BKN050 23/21 Q1002 RMK 1ST005 4ST008 6SC050 A2961 MAX WIND 33KT,RJTK,2023-06-09T03:13:00Z,35.38,139.92,23.0,21.0,210,26,,4.35,29.586615,,,,,,,,,,,FEW,500,SCT,800,BKN,5000,,,MVFR,,,,,,,,,,,,SPECI,2.0
KSVN 090313Z AUTO 07004KT 10SM SCT060 SCT100 BKN120 22/21 A2973 RMK AO2 LTG DSNT NE RAE13 PRESFR SLPNO $,KSVN,2023-06-09T03:13:00Z,32.02,-81.12,22.0,21.0,70,4,,10.0,29.731298,,,TRUE,TRUE,TRUE,,,,,,SCT,6000,SCT,10000,BKN,12000,,,VFR,,,,,,,,,,,,SPECI,13.0
KSLK 090313Z AUTO VRB03KT 10SM FEW009 BKN032 OVC050 10/09 A2975 RMK AO2 T01000089,KSLK,2023-06-09T03:13:00Z,44.4,-74.2,10.0,8.9,0,3,,10.0,29.749016,,,TRUE,TRUE,,,,,,,FEW,900,BKN,3200,OVC,5000,,,VFR,,,,,,,,,,,,SPECI,502.0
K1HN 090311Z AUTO 03010KT 10SM FEW120 BKN200 21/19 A2986 RMK AO2 RAE11 PRESRR SLP110 $,K1HN,2023-06-09T03:11:00Z,,,21.0,19.0,30,10,,10.0,29.861221,1011.0,,TRUE,TRUE,TRUE,,,,,,FEW,12000,BKN,20000,,,,,VFR,,,,,,,,,,,,SPECI,
VCRI 090310Z 25015KT 9999 FEW018 30/26 Q1009 NOSIG,VCRI,2023-06-09T03:10:00Z,6.28,81.13,30.0,26.0,250,15,,6.21,29.793306,,,,,,TRUE,,,,,FEW,1800,,,,,,,VFR,,,,,,,,,,,,METAR,50.0
VCBI 090310Z 24009KT 9999 FEW016 30/26 Q1010 NOSIG,VCBI,2023-06-09T03:10:00Z,7.17,79.88,30.0,26.0,240,9,,6.21,29.822834,,,,,,TRUE,,,,,FEW,1600,,,,,,,VFR,,,,,,,,,,,,METAR,10.0
KXBP 090310Z AUTO 19004KT 10SM CLR 24/18 A2985 RMK AO2 T02400183,KXBP,2023-06-09T03:10:00Z,33.18,-97.83,24.0,18.3,190,4,,10.0,29.84941,,,TRUE,TRUE,,,,,,,CLR,,,,,,,,VFR,,,,,,,,,,,,METAR,256.0
KVVS 090310Z AUTO 00000KT 10SM OVC090 13/09 A2984 RMK AO2 T01260092,KVVS,2023-06-09T03:10:00Z,39.95,-79.65,12.6,9.2,0,0,,10.0,29.840551,,,TRUE,TRUE,,,,,,,OVC,9000,,,,,,,VFR,,,,,,,,,,,,SPECI,386.0
KVES 090310Z AUTO 00000KT 10SM OVC090 15/05 A2986 RMK AO2,KVES,2023-06-09T03:10:00Z,40.2,-84.53,15.0,5.0,0,0,,10.0,29.861221,,,TRUE,TRUE,,,,,,,OVC,9000,,,,,,,VFR,,,,,,,,,,,,SPECI,308.0
KU68 090310Z AUTO 00000KT 10SM VCTS CLR 20/12 A2996 RMK AO2 LTG DSNT E AND W,KU68,2023-06-09T03:10:00Z,44.92,-108.45,20.0,12.0,0,0,,10.0,29.958662,,,TRUE,TRUE,,,,,,VCTS,CLR,,,,,,,,VFR,,,,,,,,,,,,METAR,1244.0
KOZR 090310Z AUTO 20007KT 10SM CLR 24/19 A2979 RMK AO2 PRESRR SLPNO,KOZR,2023-06-09T03:10:00Z,31.28,-85.72,24.0,19.0,200,7,,10.0,29.790354,,,TRUE,TRUE,,,,,,,CLR,,,,,,,,VFR,,,,,,,,,,,,METAR,90.0
KNYG 090310Z AUTO 29005KT 3SM HZ CLR 19/11 A2980 RMK AO2 T01890111 $,KNYG,2023-06-09T03:10:00Z,38.5,-77.3,18.9,11.1,290,5,,3.0,29.799213,,,TRUE,TRUE,TRUE,,,,,HZ,CLR,,,,,,,,MVFR,,,,,,,,,,,,SPECI,2.0
KGNC 090310Z AUTO 10004KT 10SM CLR 24/16 A2997 RMK AO2 T02440157,KGNC,2023-06-09T03:10:00Z,32.68,-102.65,24.4,15.7,100,4,,10.0,29.970472,,,TRUE,TRUE,,,,,,,CLR,,,,,,,,VFR,,,,,,,,,,,,SPECI,1002.0
KFSK 090310Z AUTO 11004KT 10SM SCT085 OVC110 23/19 A2984 RMK AO2 T02300190,KFSK,2023-06-09T03:10:00Z,37.8,-94.77,23.0,19.0,110,4,,10.0,29.840551,,,TRUE,TRUE,,,,,,,SCT,8500,OVC,11000,,,,,VFR,,,,,,,,,,,,SPECI,276.0
KEHA 090310Z AUTO 20007KT 10SM CLR 18/15 A2998 RMK AO2 T01830146,KEHA,2023-06-09T03:10:00Z,37.0,-101.87,18.3,14.6,200,7,,10.0,29.97933,,,TRUE,TRUE,,,,,,,CLR,,,,,,,,VFR,,,,,,,,,,,,SPECI,1103.0
KEAN 090310Z AUTO 17007KT 10SM CLR 17/11 A3000 RMK AO2 T01700113,KEAN,2023-06-09T03:10:00Z,42.05,-104.93,17.0,11.3,170,7,,10.0,30.0,,,TRUE,TRUE,,,,,,,CLR,,,,,,,,VFR,,,,,,,,,,,,METAR,1452.0
KDVK 090310Z AUTO 00000KT 10SM CLR 12/09 A2989 RMK AO2,KDVK,2023-06-09T03:10:00Z,37.58,-84.77,12.0,9.0,0,0,,10.0,29.890747,,,TRUE,TRUE,,,,,,,CLR,,,,,,,,VFR,,,,,,,,,,,,SPECI,309.0
KDED 090310Z AUTO 26004KT 10SM CLR 25/20 A2983 RMK AO2 T02520197,KDED,2023-06-09T03:10:00Z,29.07,-81.28,25.2,19.7,260,4,,10.0,29.828741,,,TRUE,TRUE,,,,,,,CLR,,,,,,,,VFR,,,,,,,,,,,,SPECI,21.0
KBMC 090310Z AUTO 01007KT 10SM CLR 20/07 A3003 RMK AO1 T01950071,KBMC,2023-06-09T03:10:00Z,41.55,-112.07,19.5,7.1,10,7,,10.0,30.029528,,,TRUE,TRUE,,,,,,,CLR,,,,,,,,VFR,,,,,,,,,,,,SPECI,1289.0
KANK 090310Z AUTO 25005KT 10SM CLR 14/03 A3025 RMK AO1 T01390032,KANK,2023-06-09T03:10:00Z,38.53,-106.05,13.9,3.2,250,5,,10.0,30.250984,,,TRUE,TRUE,,,,,,,CLR,,,,,,,,VFR,,,,,,,,,,,,METAR,2293.0
K1MN 090310Z AUTO 05005KT 4SM BR SCT005 19/19 A2988 RMK AO2 SLP116 $,K1MN,2023-06-09T03:10:00Z,,,19.0,19.0,50,5,,4.0,29.878937,1011.6,,TRUE,TRUE,TRUE,,,,,BR,SCT,500,,,,,,,MVFR,,,,,,,,,,,,SPECI,
CYRT 090310Z 34015KT 3SM -RA BR OVC004 04/03 A2955 RMK FG1SC7 SLP010,CYRT,2023-06-09T03:10:00Z,62.82,-92.12,4.0,3.0,340,15,,3.0,29.551182,1001.0,,,,,,,,,-RA BR,OVC,400,,,,,,,LIFR,,,,,,,,,,,,SPECI,29.0
KQDG 090309Z AUTO 13011KT 9999 BKN004 BKN080 BKN090 17/15 A2976 RMK AO2 RAE09 CIG 004V080 BKN004 V SCT SLP079 $,KQDG,2023-06-09T03:09:00Z,,,17.0,15.0,130,11,,6.21,29.760826,1007.9,,TRUE,TRUE,TRUE,,,,,,BKN,400,BKN,8000,BKN,9000,,,LIFR,,,,,,,,,,,,SPECI,
KMVL 090309Z AUTO 00000KT 10SM SCT002 BKN046 OVC065 10/08 A2975 RMK AO2 T01000083,KMVL,2023-06-09T03:09:00Z,44.53,-72.62,10.0,8.3,0,0,,10.0,29.749016,,,TRUE,TRUE,,,,,,,SCT,200,BKN,4600,OVC,6500,,,VFR,,,,,,,,,,,,SPECI,226.0
KHUL 090309Z AUTO 09003KT 10SM OVC009 11/09 A2979 RMK AO2 CIG 008V014 T01110089,KHUL,2023-06-09T03:09:00Z,46.12,-67.8,11.1,8.9,90,3,,10.0,29.790354,,,TRUE,TRUE,,,,,,,OVC,900,,,,,,,IFR,,,,,,,,,,,,SPECI,148.0
KCTB 090309Z AUTO 05010KT 8SM -RA FEW021 SCT038 OVC075 15/14 A3004 RMK AO2 WSHFT 0249 P0001 T01500139,KCTB,2023-06-09T03:09:00Z,48.6,-112.37,15.0,13.9,50,10,,8.0,30.041338,,,TRUE,TRUE,,,,,,-RA,FEW,2100,SCT,3800,OVC,7500,,,VFR,,,,,,0.01,,,,,,METAR,1172.0
CYQM 090309Z 02007KT 12SM -DZ FEW005 BKN070 10/09 A2981 RMK ST2AC4 SLP098,CYQM,2023-06-09T03:09:00Z,46.12,-64.67,10.0,9.0,20,7,,12.0,29.811024,1009.8,,,,,,,,,-DZ,FEW,500,BKN,7000,,,,,VFR,,,,,,,,,,,,SPECI,67.0
KVSF 090308Z AUTO 00000KT 1/2SM FG VV002 11/10 A2974 RMK AO2 T01060100,KVSF,2023-06-09T03:08:00Z,43.35,-72.52,10.6,10.0,0,0,,0.5,29.740158,,,TRUE,TRUE,,,,,,FG,OVX,0,,,,,,,LIFR,,,,,,,,,,,200,METAR,176.0
KBIH 090307Z AUTO 04010KT 10SM -RA FEW070 OVC095 21/07 A2999 RMK AO2 WSHFT 0247 PRESRR P0000 T02060067,KBIH,2023-06-09T03:07:00Z,37.37,-118.35,20.6,6.7,40,10,,10.0,29.991142,,,TRUE,TRUE,,,,,,-RA,FEW,7000,OVC,9500,,,,,VFR,,,,,,0.005,,,,,,SPECI,1252.0
KPUB 090306Z AUTO 33010KT 10SM TS OVC100 23/09 A3000 RMK AO2 LTG DSNT W-N TSB01 PRESRR T02280094,KPUB,2023-06-09T03:06:00Z,38.28,-104.5,22.8,9.4,330,10,,10.0,30.0,,,TRUE,TRUE,,,,,,TS,OVC,10000,,,,,,,VFR,,,,,,,,,,,,METAR,1441.0
KJMS 090306Z AUTO 29023G36KT 10SM VCTS -RA BKN037 OVC044 21/16 A2990 RMK AO2 PK WND 29036/0304 LTG DSNT ALQDS RAB00 P0000 T02060161,KJMS,2023-06-09T03:06:00Z,46.93,-98.67,20.6,16.1,290,23,36,10.0,29.899607,,,TRUE,TRUE,,,,,,VCTS -RA,BKN,3700,OVC,4400,,,,,VFR,,,,,,0.005,,,,,,METAR,455.0
KDAW 090306Z AUTO 00000KT 1/2SM FG VV002 11/10 A2972 RMK AO2 T01110100,KDAW,2023-06-09T03:06:00Z,43.28,-70.92,11.1,10.0,0,0,,0.5,29.719488,,,TRUE,TRUE,,,,,,FG,OVX,0,,,,,,,LIFR,,,,,,,,,,,200,METAR,100.0
SBIP 090305Z AUTO 21002KT 0550 FG NSC 11/08 Q1022,SBIP,2023-06-09T03:05:00Z,-19.47,-42.48,11.0,8.0,210,2,,0.34,30.177166,,,TRUE,,,,,,,FG,CLR,,,,,,,,LIFR,,,,,,,,,,,,SPECI,240.0
PAOU 090304Z AUTO 15013KT 10SM SCT022 BKN049 OVC075 09/05 A2943 RMK AO2 PNO $,PAOU,2023-06-09T03:04:00Z,56.0,-161.17,9.0,5.0,150,13,,10.0,29.430119,,,TRUE,TRUE,TRUE,,,,,,SCT,2200,BKN,4900,OVC,7500,,,VFR,,,,,,,,,,,,METAR,3.0
SVVL 090303Z AUTO ///01KT NCD ///// Q////,SVVL,2023-06-09T03:03:00Z,9.33,-70.58,,,,,,,,,,TRUE,,,,,,,,CLR,,,,,,,,,,,,,,,,,,,,METAR,575.0
SVVA 090303Z AUTO 34001KT NCD 26/22 Q1017,SVVA,2023-06-09T03:03:00Z,10.15,-67.92,26.0,22.0,340,1,,,30.029528,,,TRUE,,,,,,,,CLR,,,,,,,,,,,,,,,,,,,,METAR,428.0
SVSR 090303Z AUTO NIL,SVSR,2023-06-09T03:03:00Z,7.87,-67.43,,,,,,,,,,TRUE,,,,,,,,,,,,,,,,,,,,,,,,,,,,METAR,49.0
SVSA 090303Z AUTO NIL,SVSA,2023-06-09T03:03:00Z,7.83,-72.45,,,,,,,,,,TRUE,,,,,,,,,,,,,,,,,,,,,,,,,,,,METAR,383.0
SVPR 090303Z AUTO 12006KT NCD 26/22 Q1017,SVPR,2023-06-09T03:03:00Z,8.3,-62.77,26.0,22.0,120,6,,,30.029528,,,TRUE,,,,,,,,CLR,,,,,,,,,,,,,,,,,,,,METAR,140.0
SVPA 090303Z AUTO NIL,SVPA,2023-06-09T03:03:00Z,5.62,-67.6,,,,,,,,,,TRUE,,,,,,,,,,,,,,,,,,,,,,,,,,,,METAR,77.0
SVMT 090303Z AUTO 07003KT NCD 26/26 Q1016,SVMT,2023-06-09T03:03:00Z,9.75,-63.17,26.0,26.0,70,3,,,30.0,,,TRUE,,,,,,,,CLR,,,,,,,,,,,,,,,,,,,,METAR,67.0
SVMI 090303Z AUTO 07007KT NCD 27/23 Q1017,SVMI,2023-06-09T03:03:00Z,10.6,-67.0,27.0,23.0,70,7,,,30.029528,,,TRUE,,,,,,,,CLR,,,,,,,,,,,,,,,,,,,,METAR,48.0
SVMG 090303Z AUTO 10011KT NCD 28/26 Q1016,SVMG,2023-06-09T03:03:00Z,10.92,-63.97,28.0,26.0,100,11,,,30.0,,,TRUE,,,,,,,,CLR,,,,,,,,,,,,,,,,,,,,METAR,16.0
SVMC 090303Z AUTO 02009KT NCD 29/24 Q1012,SVMC,2023-06-09T03:03:00Z,10.57,-71.72,29.0,24.0,20,9,,,29.88189,,,TRUE,,,,,,,,CLR,,,,,,,,,,,,,,,,,,,,METAR,76.0
SVLO 090303Z AUTO NIL,SVLO,2023-06-09T03:03:00Z,11.8,-66.18,,,,,,,,,,TRUE,,,,,,,,,,,,,,,,,,,,,,,,,,,,METAR,3.0
SVJM 090303Z AUTO 02001KT NCD 23/21 Q1016,SVJM,2023-06-09T03:03:00Z,9.92,-67.38,23.0,21.0,20,1,,,30.0,,,TRUE,,,,,,,,CLR,,,,,,,,,,,,,,,,,,,,METAR,448.0
SVGU 090303Z AUTO 19005KT NCD 26/23 Q1016,SVGU,2023-06-09T03:03:00Z,9.03,-69.75,26.0,23.0,190,5,,,30.0,,,TRUE,,,,,,,,CLR,,,,,,,,,,,,,,,,,,,,METAR,165.0
SVGD 090303Z AUTO 29004KT NCD 23/23 Q1016,SVGD,2023-06-09T03:03:00Z,7.22,-70.75,23.0,23.0,290,4,,,30.0,,,TRUE,,,,,,,,CLR,,,,,,,,,,,,,,,,,,,,METAR,129.0
SVFM 090303Z AUTO NIL,SVFM,2023-06-09T03:03:00Z,10.48,-66.83,,,,,,,,,,TRUE,,,,,,,,,,,,,,,,,,,,,,,,,,,,METAR,852.0
SVCS 090303Z AUTO 06006KT NCD 23/19 Q1020,SVCS,2023-06-09T03:03:00Z,10.3,-66.82,23.0,19.0,60,6,,,30.11811,,,TRUE,,,,,,,,CLR,,,,,,,,,,,,,,,,,,,,METAR,656.0
SVCB 090303Z AUTO 09004KT NCD 28/22 Q1014,SVCB,2023-06-09T03:03:00Z,8.12,-63.53,28.0,22.0,90,4,,,29.940945,,,TRUE,,,,,,,,CLR,,,,,,,,,,,,,,,,,,,,METAR,47.0
SVBS 090303Z AUTO 05003KT NCD 24/18 Q1018,SVBS,2023-06-09T03:03:00Z,10.25,-67.65,24.0,18.0,50,3,,,30.059055,,,TRUE,,,,,,,,CLR,,,,,,,,,,,,,,,,,,,,METAR,435.0
SVBM 090303Z AUTO 11007KT NCD 24/18 Q1018,SVBM,2023-06-09T03:03:00Z,10.05,-69.37,24.0,18.0,110,7,,,30.059055,,,TRUE,,,,,,,,CLR,,,,,,,,,,,,,,,,,,,,METAR,624.0
SVBI 090303Z AUTO /////KT NCD 24/24 Q1020,SVBI,2023-06-09T03:03:00Z,8.62,-70.22,24.0,24.0,,,,,30.11811,,,TRUE,,,,,,,,CLR,,,,,,,,,,,,,,,,,,,,METAR,185.0
SVBC 090303Z AUTO 23003KT NCD 28/27 Q1015,SVBC,2023-06-09T03:03:00Z,10.12,-64.68,28.0,27.0,230,3,,,29.970472,,,TRUE,,,,,,,,CLR,,,,,,,,,,,,,,,,,,,,METAR,7.0
RKSV 090303Z 19004KT 0400 FG VV001 18/17 A2975 RMK CIG001,RKSV,2023-06-09T03:03:00Z,37.77,126.37,18.0,17.0,190,4,,0.25,29.749016,,,,,,,,,,FG,OVX,0,,,,,,,LIFR,,,,,,,,,,,100,SPECI,250.0
KDIJ 090303Z AUTO 16011KT 10SM -RA FEW034 SCT046 OVC055 11/07 A3020 RMK AO2 TSB0258E0259B00E01B02E03 P0000,KDIJ,2023-06-09T03:03:00Z,43.75,-111.1,11.0,7.0,160,11,,10.0,30.200787,,,TRUE,TRUE,,,,,,-RA,FEW,3400,SCT,4600,OVC,5500,,,VFR,,,,,,0.005,,,,,,METAR,1896.0
KBVX 090303Z AUTO 00000KT 4SM BR SCT008 SCT013 21/21 A2985 RMK AO2,KBVX,2023-06-09T03:03:00Z,35.73,-91.65,21.0,21.0,0,0,,4.0,29.84941,,,TRUE,TRUE,,,,,,BR,SCT,800,SCT,1300,,,,,MVFR,,,,,,,,,,,,METAR,137.0
EGUN 090303Z 04003KT 8000 BR BKN013 10/10 A3002 RMK AO2A BKN V SCT SLP169 T00990099 $,EGUN,2023-06-09T03:03:00Z,52.37,0.48,9.9,9.9,40,3,,4.97,30.02067,1016.9,,,TRUE,TRUE,,,,,BR,BKN,1300,,,,,,,MVFR,,,,,,,,,,,,METAR,10.0
RJTL 090302Z VRB02KT 3100 -SHRA BR SCT003 BKN006 21/20 Q1002 RMK 3ST003 7ST006 A2961,RJTL,2023-06-09T03:02:00Z,35.78,140.02,21.0,20.0,0,2,,1.93,29.586615,,,,,,,,,,-SHRA BR,SCT,300,BKN,600,,,,,IFR,,,,,,,,,,,,SPECI,29.0
PAYA 090302Z AUTO 10004KT 10SM -RA FEW008 SCT015 OVC065 12/11 A2997 RMK AO2 P0000 T01170106 TSNO,PAYA,2023-06-09T03:02:00Z,59.52,-139.67,11.7,10.6,100,4,,10.0,29.970472,,,TRUE,TRUE,,,TRUE,,,-RA,FEW,800,SCT,1500,OVC,6500,,,VFR,,,,,,0.005,,,,,,METAR,9.0
PAMD 090302Z AUTO 12010KT 10SM BKN007 BKN011 OVC038 08/08 A2980 RMK AO2 PNO $,PAMD,2023-06-09T03:02:00Z,59.43,-146.3,8.0,8.0,120,10,,10.0,29.799213,,,TRUE,TRUE,TRUE,,,,,,BKN,700,BKN,1100,OVC,3800,,,IFR,,,,,,,,,,,,METAR,20.0
PAHX 090302Z AUTO 00000KT 10SM CLR 19/07 A2951 RMK AO2 SLP993 60001 T01890067 56009,PAHX,2023-06-09T03:02:00Z,62.7,-159.57,18.9,6.7,0,0,,10.0,29.509842,999.3,,TRUE,TRUE,,,,,,,CLR,,,,,,,,VFR,-0.9,,,,,,0.01,,,,,METAR,20.0
TNCC 090301Z 10012KT 9999 FEW018 28/25 Q1015 NOSIG,TNCC,2023-06-09T03:01:00Z,12.2,-68.97,28.0,25.0,100,12,,6.21,29.970472,,,,,,TRUE,,,,,FEW,1800,,,,,,,VFR,,,,,,,,,,,,METAR,10.0
PASD 090301Z AUTO 16007KT 10SM FEW019 OVC038 07/05 A2946 RMK AO2 PNO $,PASD,2023-06-09T03:01:00Z,55.33,-160.52,7.0,5.0,160,7,,10.0,29.459646,,,TRUE,TRUE,TRUE,,,,,,FEW,1900,OVC,3800,,,,,VFR,,,,,,,,,,,,SPECI,6.0
PAFS 090301Z AUTO 13007KT 070V180 10SM CLR 21/04 A2954 RMK AO2 SLP006 T02110044 58001,PAFS,2023-06-09T03:01:00Z,63.02,-154.35,21.1,4.4,130,7,,10.0,29.53937,1000.6,,TRUE,TRUE,,,,,,,CLR,,,,,,,,VFR,-0.1,,,,,,,,,,,METAR,131.0
ZYHB 090300Z 10004MPS 060V140 CAVOK 22/11 Q0999 NOSIG,ZYHB,2023-06-09T03:00:00Z,45.62,126.25,22.0,11.0,100,8,,6.21,29.498032,,,,,,TRUE,,,,,CAVOK,,,,,,,,VFR,,,,,,,,,,,,METAR,134.0
ZYCC 090300Z 15005MPS 130V200 9999 FEW030TCU SCT030 22/09 Q0999 BECMG TL0430 TS,ZYCC,2023-06-09T03:00:00Z,43.98,125.68,22.0,9.0,150,10,,6.21,29.498032,,,,,,,,,,,FEW,3000,SCT,3000,,,,,VFR,,,,,,,,,,,,SPECI,211.0
ZWSH 090300Z 32004MPS 280V350 CAVOK 29/M00 Q1018 NOSIG,ZWSH,2023-06-09T03:00:00Z,39.55,76.02,29.0,0.0,320,8,,6.21,30.059055,,,,,,TRUE,,,,,CAVOK,,,,,,,,VFR,,,,,,,,,,,,METAR,1374.0
ZUUU 090300Z VRB01MPS CAVOK 27/19 Q1012 NOSIG,ZUUU,2023-06-09T03:00:00Z,30.58,103.95,27.0,19.0,0,2,,6.21,29.88189,,,,,,TRUE,,,,,CAVOK,,,,,,,,VFR,,,,,,,,,,,,METAR,494.0
ZUTF 090300Z 26002MPS 220V300 CAVOK 27/19 Q1011 NOSIG,ZUTF,2023-06-09T03:00:00Z,30.3,104.43,27.0,19.0,260,4,,6.21,29.852362,,,,,,TRUE,,,,,CAVOK,,,,,,,,VFR,,,,,,,,,,,,METAR,443.0
ZUGY 090300Z 01003MPS 340V080 CAVOK 24/16 Q1014 NOSIG,ZUGY,2023-06-09T03:00:00Z,26.53,106.8,24.0,16.0,10,6,,6.21,29.940945,,,,,,TRUE,,,,,CAVOK,,,,,,,,VFR,,,,,,,,,,,,METAR,1130.0
ZUCK 090300Z 11002MPS 070V230 3000 BR FEW020 27/21 Q1012 NOSIG,ZUCK,2023-06-09T03:00:00Z,29.72,106.63,27.0,21.0,110,4,,1.86,29.88189,,,,,,TRUE,,,,BR,FEW,2000,,,,,,,IFR,,,,,,,,,,,,METAR,416.0
ZSQD 090300Z 16008MPS CAVOK 29/13 Q1000 NOSIG,ZSQD,2023-06-09T03:00:00Z,36.27,120.38,29.0,13.0,160,16,,6.21,29.52756,,,,,,TRUE,,,,,CAVOK,,,,,,,,VFR,,,,,,,,,,,,METAR,8.0
ZSOF 090300Z 23003MPS 200V270 CAVOK 33/20 Q1004 NOSIG,ZSOF,2023-06-09T03:00:00Z,31.98,116.97,33.0,20.0,230,6,,6.21,29.64567,,,,,,TRUE,,,,,CAVOK,,,,,,,,VFR,,,,,,,,,,,,METAR,23.0
ZSNJ 090300Z 26003MPS 230V290 CAVOK 33/22 Q1003 NOSIG,ZSNJ,2023-06-09T03:00:00Z,31.75,118.87,33.0,22.0,260,6,,6.21,29.616142,,,,,,TRUE,,,,,CAVOK,,,,,,,,VFR,,,,,,,,,,,,METAR,27.0
ZSNB 090300Z VRB01MPS 9999 FEW030 30/23 Q1005 NOSIG,ZSNB,2023-06-09T03:00:00Z,29.83,121.47,30.0,23.0,0,2,,6.21,29.675198,,,,,,TRUE,,,,,FEW,3000,,,,,,,VFR,,,,,,,,,,,,METAR,5.0
ZSFZ 090300Z 26002MPS 220V290 9999 FEW013 BKN050 29/25 Q1006 NOSIG,ZSFZ,2023-06-09T03:00:00Z,25.93,119.67,29.0,25.0,260,4,,6.21,29.704725,,,,,,TRUE,,,,,FEW,1300,BKN,5000,,,,,VFR,,,,,,,,,,,,METAR,14.0
ZSAM 090300Z 36002MPS 320V060 9999 SCT025 FEW025TCU 31/27 Q1005 NOSIG,ZSAM,2023-06-09T03:00:00Z,24.53,118.13,31.0,27.0,360,4,,6.21,29.675198,,,,,,TRUE,,,,,SCT,2500,FEW,2500,,,,,VFR,,,,,,,,,,,,METAR,13.0
ZPPP 090300Z 05006MPS 9999 SCT023 BKN043 18/10 Q1022 NOSIG,ZPPP,2023-06-09T03:00:00Z,25.0,102.65,18.0,10.0,50,12,,6.21,30.177166,,,,,,TRUE,,,,,SCT,2300,BKN,4300,,,,,VFR,,,,,,,,,,,,METAR,1885.0
ZMUB 090300Z 35007MPS 310V030 9999 FEW033 21/01 Q1014 NOSIG RMK QFE653.5 26 MOP,ZMUB,2023-06-09T03:00:00Z,47.83,106.75,21.0,1.0,350,14,,6.21,29.940945,,,,,,TRUE,,,,,FEW,3300,,,,,,,VFR,,,,,,,,,,,,METAR,1300.0
ZLXY 090300Z 22002MPS 180V260 CAVOK 29/18 Q1008 NOSIG,ZLXY,2023-06-09T03:00:00Z,34.43,108.75,29.0,18.0,220,4,,6.21,29.763779,,,,,,TRUE,,,,,CAVOK,,,,,,,,VFR,,,,,,,,,,,,METAR,478.0
ZLLL 090300Z 22004MPS 170V260 9999 FEW023 25/M01 Q1020 NOSIG,ZLLL,2023-06-09T03:00:00Z,36.52,103.62,25.0,-1.0,220,8,,6.21,30.11811,,,,,,TRUE,,,,,FEW,2300,,,,,,,VFR,,,,,,,,,,,,METAR,1939.0
ZJSY 090300Z 24003MPS 170V280 9999 FEW017 FEW026TCU 31/27 Q1005 BECMG AT0350 SCT018 FEW025CB,ZJSY,2023-06-09T03:00:00Z,18.3,109.42,31.0,27.0,240,6,,6.21,29.675198,,,,,,,,,,,FEW,1700,FEW,2600,,,,,VFR,,,,,,,,,,,,SPECI,27.0
ZJHK 090300Z 29004MPS 9999 SCT020 33/25 Q1004 NOSIG,ZJHK,2023-06-09T03:00:00Z,19.93,110.43,33.0,25.0,290,8,,6.21,29.64567,,,,,,TRUE,,,,,SCT,2000,,,,,,,VFR,,,,,,,,,,,,METAR,21.0
ZHHH 090300Z 23003MPS 180V290 CAVOK 32/23 Q1004 NOSIG,ZHHH,2023-06-09T03:00:00Z,30.78,114.22,32.0,23.0,230,6,,6.21,29.64567,,,,,,TRUE,,,,,CAVOK,,,,,,,,VFR,,,,,,,,,,,,METAR,33.0
ZHCC 090300Z 30005MPS CAVOK 36/11 Q1002 NOSIG,ZHCC,2023-06-09T03:00:00Z,34.52,113.83,36.0,11.0,300,10,,6.21,29.586615,,,,,,TRUE,,,,,CAVOK,,,,,,,,VFR,,,,,,,,,,,,METAR,149.0
ZGSZ 090300Z 14002MPS 100V180 9999 SCT020 30/26 Q1005 NOSIG,ZGSZ,2023-06-09T03:00:00Z,22.63,113.8,30.0,26.0,140,4,,6.21,29.675198,,,,,,TRUE,,,,,SCT,2000,,,,,,,VFR,,,,,,,,,,,,METAR,18.0
ZGOW 090300Z 17003MPS 130V230 9999 FEW023TCU SCT040 33/26 Q1005 NOSIG,ZGOW,2023-06-09T03:00:00Z,23.55,116.5,33.0,26.0,170,6,,6.21,29.675198,,,,,,TRUE,,,,,FEW,2300,SCT,4000,,,,,VFR,,,,,,,,,,,,METAR,4.0
ZGNN 090300Z 35005MPS 3500 -SHRA BR FEW007 SCT011 FEW026CB BKN033 25/25 Q1005 NOSIG,ZGNN,2023-06-09T03:00:00Z,22.62,108.17,25.0,25.0,350,10,,2.17,29.675198,,,,,,TRUE,,,,-SHRA BR,FEW,700,SCT,1100,FEW,2600,BKN,3300,IFR,,,,,,,,,,,,METAR,128.0
ZGKL 090300Z 34002MPS 310V010 9999 FEW010 SCT023 BKN050 26/25 Q1007 NOSIG,ZGKL,2023-06-09T03:00:00Z,25.22,110.03,26.0,25.0,340,4,,6.21,29.734253,,,,,,TRUE,,,,,FEW,1000,SCT,2300,BKN,5000,,,VFR,,,,,,,,,,,,METAR,151.0
ZGHA 090300Z VRB01MPS CAVOK 31/23 Q1006 NOSIG,ZGHA,2023-06-09T03:00:00Z,28.18,113.22,31.0,23.0,0,2,,6.21,29.704725,,,,,,TRUE,,,,,CAVOK,,,,,,,,VFR,,,,,,,,,,,,METAR,61.0
ZBSJ 090300Z VRB01MPS CAVOK 34/04 Q1000 NOSIG,ZBSJ,2023-06-09T03:00:00Z,38.28,114.7,34.0,4.0,0,2,,6.21,29.52756,,,,,,TRUE,,,,,CAVOK,,,,,,,,VFR,,,,,,,,,,,,METAR,70.0
ZBHH 090300Z 34006MPS 300V040 9999 BKN040 26/01 Q1008 NOSIG,ZBHH,2023-06-09T03:00:00Z,40.85,111.82,26.0,1.0,340,12,,6.21,29.763779,,,,,,TRUE,,,,,BKN,4000,,,,,,,VFR,,,,,,,,,,,,METAR,1081.0
YSNF 090300Z 16008KT 9999 FEW025 SCT058 17/12 Q1016 RF00.0/000.2,YSNF,2023-06-09T03:00:00Z,-29.03,167.93,17.0,12.0,160,8,,6.21,30.0,,,,,,,,,,,FEW,2500,SCT,5800,,,,,VFR,,,,,,,,,,,,METAR,113.0
YPDN 090300Z 08011KT CAVOK 33/20 Q1012,YPDN,2023-06-09T03:00:00Z,-12.42,130.9,33.0,20.0,80,11,,6.21,29.88189,,,,,,,,,,,CAVOK,,,,,,,,VFR,,,,,,,,,,,,METAR,32.0
WSSL 090300Z 18007KT 9999 SCT018 BKN160 30/25 Q1010,WSSL,2023-06-09T03:00:00Z,1.42,103.87,30.0,25.0,180,7,,6.21,29.822834,,,,,,,,,,,SCT,1800,BKN,16000,,,,,VFR,,,,,,,,,,,,METAR,11.0
WSAP 090300Z 14006KT 9999 SCT018 BKN150 31/25 Q1010,WSAP,2023-06-09T03:00:00Z,1.37,103.92,31.0,25.0,140,6,,6.21,29.822834,,,,,,,,,,,SCT,1800,BKN,15000,,,,,VFR,,,,,,,,,,,,METAR,20.0
WMSA 090300Z 14006KT 070V190 9999 FEW017CB 32/25 Q1010,WMSA,2023-06-09T03:00:00Z,3.13,101.55,32.0,25.0,140,6,,6.21,29.822834,,,,,,,,,,,FEW,1700,,,,,,,VFR,,,,,,,,,,,,METAR,19.0
WMKN 090300Z VRB03KT 9999 FEW020 31/26 Q1009,WMKN,2023-06-09T03:00:00Z,5.37,103.1,31.0,26.0,0,3,,6.21,29.793306,,,,,,,,,,,FEW,2000,,,,,,,VFR,,,,,,,,,,,,METAR,12.0
WMKM 090300Z 16008KT 110V210 9999 SCT021 30/26 Q1010,WMKM,2023-06-09T03:00:00Z,2.27,102.25,30.0,26.0,160,8,,6.21,29.822834,,,,,,,,,,,SCT,2100,,,,,,,VFR,,,,,,,,,,,,METAR,9.0
WMKL 090300Z VRB02KT 9999 FEW020 31/26 Q1010,WMKL,2023-06-09T03:00:00Z,6.32,99.72,31.0,26.0,0,2,,6.21,29.822834,,,,,,,,,,,FEW,2000,,,,,,,VFR,,,,,,,,,,,,METAR,4.0
WMKJ 090300Z 15005KT 070V230 9999 SCT018 31/26 Q1009,WMKJ,2023-06-09T03:00:00Z,1.63,103.67,31.0,26.0,150,5,,6.21,29.793306,,,,,,,,,,,SCT,1800,,,,,,,VFR,,,,,,,,,,,,METAR,38.0
WMKI 090300Z VRB02KT 9000 FEW020 31/25 Q1010,WMKI,2023-06-09T03:00:00Z,4.57,101.08,31.0,25.0,0,2,,5.59,29.822834,,,,,,,,,,,FEW,2000,,,,,,,VFR,,,,,,,,,,,,METAR,37.0
WMKE 090300Z VRB04KT 9999 SCT017 31/26 Q1009,WMKE,2023-06-09T03:00:00Z,4.53,103.43,31.0,26.0,0,4,,6.21,29.793306,,,,,,,,,,,SCT,1700,,,,,,,VFR,,,,,,,,,,,,METAR,5.0
WMKD 090300Z VRB03KT 9999 FEW020 31/25 Q1009 NOSIG,WMKD,2023-06-09T03:00:00Z,3.77,103.22,31.0,25.0,0,3,,6.21,29.793306,,,,,,TRUE,,,,,FEW,2000,,,,,,,VFR,,,,,,,,,,,,METAR,18.0
WMKC 090300Z 22003KT 140V270 9999 FEW018 30/25 Q1009,WMKC,2023-06-09T03:00:00Z,6.17,102.28,30.0,25.0,220,3,,6.21,29.793306,,,,,,,,,,,FEW,1800,,,,,,,VFR,,,,,,,,,,,,METAR,7.0
WMKB 090300Z 20006KT 150V240 6000 FEW020 31/24 Q1009 NOSIG,WMKB,2023-06-09T03:00:00Z,5.47,100.38,31.0,24.0,200,6,,3.73,29.793306,,,,,,TRUE,,,,,FEW,2000,,,,,,,MVFR,,,,,,,,,,,,METAR,4.0
WMKA 090300Z VRB01KT 9000 FEW017CB 31/25 Q1009,WMKA,2023-06-09T03:00:00Z,6.2,100.4,31.0,25.0,0,1,,5.59,29.793306,,,,,,,,,,,FEW,1700,,,,,,,VFR,,,,,,,,,,,,METAR,5.0
WMBA 090300Z 08003KT 340V140 9999 FEW021 32/26 Q1009,WMBA,2023-06-09T03:00:00Z,4.22,100.7,32.0,26.0,80,3,,6.21,29.793306,,,,,,,,,,,FEW,2100,,,,,,,VFR,,,,,,,,,,,,METAR,9.0
WMAU 090300Z VRB05KT 8000 SCT020 32/28 Q1010,WMAU,2023-06-09T03:00:00Z,2.38,103.88,32.0,28.0,0,5,,4.97,29.822834,,,,,,,,,,,SCT,2000,,,,,,,MVFR,,,,,,,,,,,,METAR,5.0
WIBB 090300Z 18010KT 9999 BKN011 30/25 Q1009 NOSIG,WIBB,2023-06-09T03:00:00Z,0.47,101.45,30.0,25.0,180,10,,6.21,29.793306,,,,,,TRUE,,,,,BKN,1100,,,,,,,MVFR,,,,,,,,,,,,METAR,41.0
WBKW 090300Z VRB08KT 9999 SCT016 32/26 Q1009,WBKW,2023-06-09T03:00:00Z,4.32,118.12,32.0,26.0,0,8,,6.21,29.793306,,,,,,,,,,,SCT,1600,,,,,,,VFR,,,,,,,,,,,,METAR,17.0
WBKT 090300Z VRB03KT 9999 FEW015 32/27 Q1009,WBKT,2023-06-09T03:00:00Z,6.92,116.83,32.0,27.0,0,3,,6.21,29.793306,,,,,,,,,,,FEW,1500,,,,,,,VFR,,,,,,,,,,,,METAR,11.0
WBKS 090300Z VRB03KT 9999 SCT015 32/26 Q1009,WBKS,2023-06-09T03:00:00Z,5.9,118.07,32.0,26.0,0,3,,6.21,29.793306,,,,,,,,,,,SCT,1500,,,,,,,VFR,,,,,,,,,,,,METAR,13.0
WBKL 090300Z VRB04KT 9999 FEW014 31/25 Q1010,WBKL,2023-06-09T03:00:00Z,5.3,115.25,31.0,25.0,0,4,,6.21,29.822834,,,,,,,,,,,FEW,1400,,,,,,,VFR,,,,,,,,,,,,METAR,29.0
WBGY 090300Z VRB03KT 9999 SCT018 27/25 Q1012,WBGY,2023-06-09T03:00:00Z,1.22,111.45,27.0,25.0,0,3,,6.21,29.88189,,,,,,,,,,,SCT,1800,,,,,,,VFR,,,,,,,,,,,,METAR,13.0
WBGS 090300Z 17004KT 090V260 9999 FEW014 29/26 Q1012,WBGS,2023-06-09T03:00:00Z,2.27,111.98,29.0,26.0,170,4,,6.21,29.88189,,,,,,,,,,,FEW,1400,,,,,,,VFR,,,,,,,,,,,,METAR,26.0
WBGR 090300Z VRB02KT 9999 SCT016 32/27 Q1010,WBGR,2023-06-09T03:00:00Z,4.32,113.98,32.0,27.0,0,2,,6.21,29.822834,,,,,,,,,,,SCT,1600,,,,,,,VFR,,,,,,,,,,,,METAR,18.0
WBGB 090300Z 26012KT 6000 TSRA SCT014 FEW015CB 26/24 Q1011,WBGB,2023-06-09T03:00:00Z,3.12,113.02,26.0,24.0,260,12,,3.73,29.852362,,,,,,,,,,TSRA,SCT,1400,FEW,1500,,,,,MVFR,,,,,,,,,,,,METAR,34.0
WAYY 090300Z 10007KT 9999 BKN013 29/27 Q1011 NOSIG,WAYY,2023-06-09T03:00:00Z,-4.53,136.88,29.0,27.0,100,7,,6.21,29.852362,,,,,,TRUE,,,,,BKN,1300,,,,,,,MVFR,,,,,,,,,,,,METAR,32.0
VYNT 090300Z 19010KT 7000 SCT020 FEW025TCU SCT120 30/22 Q1006 NOSIG,VYNT,2023-06-09T03:00:00Z,19.62,96.2,30.0,22.0,190,10,,4.35,29.704725,,,,,,TRUE,,,,,SCT,2000,FEW,2500,SCT,12000,,,MVFR,,,,,,,,,,,,METAR,610.0
VTUW 090300Z VRB01KT 9999 SCT015 BKN030 28/26 Q1007 NOSIG,VTUW,2023-06-09T03:00:00Z,17.38,104.63,28.0,26.0,0,1,,6.21,29.734253,,,,,,TRUE,,,,,SCT,1500,BKN,3000,,,,,MVFR,,,,,,,,,,,,METAR,167.0
VTUV 090300Z 21007KT 180V250 8000 BKN015 BKN060 29/25 Q1008 NOSIG,VTUV,2023-06-09T03:00:00Z,16.12,103.78,29.0,25.0,210,7,,4.97,29.763779,,,,,,TRUE,,,,,BKN,1500,BKN,6000,,,,,MVFR,,,,,,,,,,,,METAR,136.0
VTUU 090300Z 21006KT 180V240 9999 SCT020 29/26 Q1008 NOSIG,VTUU,2023-06-09T03:00:00Z,15.25,104.87,29.0,26.0,210,6,,6.21,29.763779,,,,,,TRUE,,,,,SCT,2000,,,,,,,VFR,,,,,,,,,,,,METAR,119.0
VTUQ 090300Z 24007KT 210V290 9999 SCT025 32/24 Q1008 NOSIG,VTUQ,2023-06-09T03:00:00Z,14.95,102.32,32.0,24.0,240,7,,6.21,29.763779,,,,,,TRUE,,,,,SCT,2500,,,,,,,VFR,,,,,,,,,,,,METAR,225.0
VTUO 090300Z 23006KT 190V270 9999 FEW020 30/24 Q1008 NOSIG,VTUO,2023-06-09T03:00:00Z,15.23,103.25,30.0,24.0,230,6,,6.21,29.763779,,,,,,TRUE,,,,,FEW,2000,,,,,,,VFR,,,,,,,,,,,,METAR,182.0
VTUL 090300Z VRB01KT 9999 BKN025 29/25 Q1008 NOSIG,VTUL,2023-06-09T03:00:00Z,17.43,101.72,29.0,25.0,0,1,,6.21,29.763779,,,,,,TRUE,,,,,BKN,2500,,,,,,,MVFR,,,,,,,,,,,,METAR,257.0
VTUK 090300Z 25006KT 230V300 9999 FEW030 BKN100 29/24 Q1008 NOSIG,VTUK,2023-06-09T03:00:00Z,16.47,102.78,29.0,24.0,250,6,,6.21,29.763779,,,,,,TRUE,,,,,FEW,3000,BKN,10000,,,,,VFR,,,,,,,,,,,,METAR,190.0
VTUI 090300Z 20004KT 170V250 9999 SCT025 BKN100 29/25 Q1007 NOSIG,VTUI,2023-06-09T03:00:00Z,17.2,104.12,29.0,25.0,200,4,,6.21,29.734253,,,,,,TRUE,,,,,SCT,2500,BKN,10000,,,,,VFR,,,,,,,,,,,,METAR,162.0
VTUD 090300Z 14004KT 100V190 9999 FEW030 BKN100 29/25 Q1007 NOSIG,VTUD,2023-06-09T03:00:00Z,17.37,102.78,29.0,25.0,140,4,,6.21,29.734253,,,,,,TRUE,,,,,FEW,3000,BKN,10000,,,,,VFR,,,,,,,,,,,,METAR,177.0
VTSY 090300Z 00000KT 9999 FEW030 28/24 Q1011 NOSIG,VTSY,2023-06-09T03:00:00Z,5.78,101.15,28.0,24.0,0,0,,6.21,29.852362,,,,,,TRUE,,,,,FEW,3000,,,,,,,VFR,,,,,,,,,,,,METAR,225.0
VTST 090300Z VRB02KT 9999 FEW030 31/27 Q1009 NOSIG,VTST,2023-06-09T03:00:00Z,7.52,99.62,31.0,27.0,0,2,,6.21,29.793306,,,,,,TRUE,,,,,FEW,3000,,,,,,,VFR,,,,,,,,,,,,METAR,17.0
VTSR 090300Z 18004KT 110V230 9999 FEW020 30/25 Q1009 NOSIG,VTSR,2023-06-09T03:00:00Z,9.78,98.58,30.0,25.0,180,4,,6.21,29.793306,,,,,,TRUE,,,,,FEW,2000,,,,,,,VFR,,,,,,,,,,,,METAR,23.0
VTSM 090300Z 28008G20KT 230V290 9999 FEW020 32/23 Q1010 NOSIG,VTSM,2023-06-09T03:00:00Z,9.55,100.07,32.0,23.0,280,8,20,6.21,29.822834,,,,,,TRUE,,,,,FEW,2000,,,,,,,VFR,,,,,,,,,,,,METAR,12.0
VTSG 090300Z 21006KT 180V240 9999 SCT022 32/26 Q1010 NOSIG,VTSG,2023-06-09T03:00:00Z,8.1,98.98,32.0,26.0,210,6,,6.21,29.822834,,,,,,TRUE,,,,,SCT,2200,,,,,,,VFR,,,,,,,,,,,,METAR,32.0
VTSF 090300Z VRB03KT 9999 FEW018 35/26 Q1009 NOSIG,VTSF,2023-06-09T03:00:00Z,8.53,99.95,35.0,26.0,0,3,,6.21,29.793306,,,,,,TRUE,,,,,FEW,1800,,,,,,,VFR,,,,,,,,,,,,METAR,6.0
VTSE 090300Z 23004KT 200V270 9999 FEW020 BKN100 28/25 Q1009 NOSIG,VTSE,2023-06-09T03:00:00Z,10.72,99.37,28.0,25.0,230,4,,6.21,29.793306,,,,,,TRUE,,,,,FEW,2000,BKN,10000,,,,,VFR,,,,,,,,,,,,METAR,8.0
VTSC 090300Z VRB03KT 9999 FEW022 30/24 Q1010 NOSIG,VTSC,2023-06-09T03:00:00Z,6.52,101.75,30.0,24.0,0,3,,6.21,29.822834,,,,,,TRUE,,,,,FEW,2200,,,,,,,VFR,,,,,,,,,,,,METAR,5.0
VTSB 090300Z 19006KT 9999 FEW020 29/27 Q1009 NOSIG,VTSB,2023-06-09T03:00:00Z,9.12,99.15,29.0,27.0,190,6,,6.21,29.793306,,,,,,TRUE,,,,,FEW,2000,,,,,,,VFR,,,,,,,,,,,,METAR,10.0
VTPT 090300Z /////KT 9999 BKN024 28/25 Q1007 NOSIG,VTPT,2023-06-09T03:00:00Z,16.88,99.25,28.0,25.0,,,,6.21,29.734253,,,,,,TRUE,,,,,BKN,2400,,,,,,,MVFR,,,,,,,,,,,,METAR,148.0
VTPP 090300Z 10003KT 040V150 9999 FEW030 30/24 Q1007 NOSIG,VTPP,2023-06-09T03:00:00Z,16.78,100.28,30.0,24.0,100,3,,6.21,29.734253,,,,,,TRUE,,,,,FEW,3000,,,,,,,VFR,,,,,,,,,,,,METAR,45.0
VTPO 090300Z 18003KT 9999 SCT030 BKN100 27/25 Q1007 NOSIG,VTPO,2023-06-09T03:00:00Z,17.23,99.82,27.0,25.0,180,3,,6.21,29.734253,,,,,,TRUE,,,,,SCT,3000,BKN,10000,,,,,VFR,,,,,,,,,,,,METAR,58.0
VTPM 090300Z VRB02KT 9999 FEW010 BKN030 27/26 Q1007 NOSIG,VTPM,2023-06-09T03:00:00Z,16.7,98.53,27.0,26.0,0,2,,6.21,29.734253,,,,,,TRUE,,,,,FEW,1000,BKN,3000,,,,,MVFR,,,,,,,,,,,,METAR,211.0
VTPH 090300Z 21003KT 130V280 9999 SCT030 29/24 Q1009 NOSIG,VTPH,2023-06-09T03:00:00Z,12.63,99.95,29.0,24.0,210,3,,6.21,29.793306,,,,,,TRUE,,,,,SCT,3000,,,,,,,VFR,,,,,,,,,,,,METAR,12.0
VTPB 090300Z 17004KT 130V200 8000 FEW030 29/26 Q1008 NOSIG,VTPB,2023-06-09T03:00:00Z,16.67,101.2,29.0,26.0,170,4,,4.97,29.763779,,,,,,TRUE,,,,,FEW,3000,,,,,,,MVFR,,,,,,,,,,,,METAR,134.0
VTCT 090300Z 21005KT 170V270 9999 BKN020 29/24 Q1008 NOSIG,VTCT,2023-06-09T03:00:00Z,19.95,99.88,29.0,24.0,210,5,,6.21,29.763779,,,,,,TRUE,,,,,BKN,2000,,,,,,,MVFR,,,,,,,,,,,,METAR,389.0
VTCP 090300Z 22004KT 160V310 9999 FEW020 29/24 Q1008 NOSIG,VTCP,2023-06-09T03:00:00Z,18.13,100.17,29.0,24.0,220,4,,6.21,29.763779,,,,,,TRUE,,,,,FEW,2000,,,,,,,VFR,,,,,,,,,,,,METAR,166.0
VTCN 090300Z 21006KT 140V270 9999 SCT025 30/24 Q1007 NOSIG,VTCN,2023-06-09T03:00:00Z,18.82,100.78,30.0,24.0,210,6,,6.21,29.734253,,,,,,TRUE,,,,,SCT,2500,,,,,,,VFR,,,,,,,,,,,,METAR,211.0
VTCL 090300Z 26003KT 190V320 9999 FEW025 30/24 Q1007 NOSIG,VTCL,2023-06-09T03:00:00Z,18.27,99.52,30.0,24.0,260,3,,6.21,29.734253,,,,,,TRUE,,,,,FEW,2500,,,,,,,VFR,,,,,,,,,,,,METAR,240.0
VTCH 090300Z VRB01KT 8000 FEW018 29/23 Q1007 NOSIG,VTCH,2023-06-09T03:00:00Z,19.3,97.98,29.0,23.0,0,1,,4.97,29.734253,,,,,,TRUE,,,,,FEW,1800,,,,,,,MVFR,,,,,,,,,,,,METAR,266.0
VTBO 090300Z 22009KT 8000 FEW018TCU SCT020 BKN100 29/25 Q1009,VTBO,2023-06-09T03:00:00Z,12.28,102.32,29.0,25.0,220,9,,4.97,29.793306,,,,,,,,,,,FEW,1800,SCT,2000,BKN,10000,,,MVFR,,,,,,,,,,,,METAR,25.0
VRMM 090300Z 25012KT 9999 FEW018TCU OVC260 30/27 Q1011 NOSIG,VRMM,2023-06-09T03:00:00Z,4.2,73.52,30.0,27.0,250,12,,6.21,29.852362,,,,,,TRUE,,,,,FEW,1800,OVC,26000,,,,,VFR,,,,,,,,,,,,METAR,2.0
VRMH 090300Z 25008KT 9999 FEW018TCU BKN120 30/26 Q1010,VRMH,2023-06-09T03:00:00Z,6.75,73.17,30.0,26.0,250,8,,6.21,29.822834,,,,,,,,,,,FEW,1800,BKN,12000,,,,,VFR,,,,,,,,,,,,METAR,1.0
VRMG 090300Z VRB01KT 9999 FEW019 SCT130 BKN270 30/25 Q1011 NOSIG,VRMG,2023-06-09T03:00:00Z,-0.7,73.15,30.0,25.0,0,1,,6.21,29.852362,,,,,,TRUE,,,,,FEW,1900,SCT,13000,BKN,27000,,,VFR,,,,,,,,,,,,METAR,2.0
VOTP 090300Z 31004KT 6000 FEW020 33/21 Q1005 NOSIG,VOTP,2023-06-09T03:00:00Z,13.63,79.55,33.0,21.0,310,4,,3.73,29.675198,,,,,,TRUE,,,,,FEW,2000,,,,,,,MVFR,,,,,,,,,,,,METAR,103.0
VOTK 090300Z 29012KT 6000 FEW020 SCT100 30/23 Q1007 NOSIG,VOTK,2023-06-09T03:00:00Z,8.72,78.02,30.0,23.0,290,12,,3.73,29.734253,,,,,,TRUE,,,,,FEW,2000,SCT,10000,,,,,MVFR,,,,,,,,,,,,METAR,25.0
VOSM 090300Z 24003KT 6000 SCT020 28/22 Q1009 NOSIG,VOSM,2023-06-09T03:00:00Z,11.78,78.07,28.0,22.0,240,3,,3.73,29.793306,,,,,,TRUE,,,,,SCT,2000,,,,,,,MVFR,,,,,,,,,,,,METAR,301.0
VOJV 090300Z 28006KT 7000 FEW015 28/23 Q1011,VOJV,2023-06-09T03:00:00Z,15.17,76.63,28.0,23.0,280,6,,4.35,29.852362,,,,,,,,,,,FEW,1500,,,,,,,MVFR,,,,,,,,,,,,METAR,508.0
VOGA 090300Z 17008KT 5000 HZ FEW015 FEW020 SCT090 30/27 Q1008 NOSIG,VOGA,2023-06-09T03:00:00Z,,,30.0,27.0,170,8,,3.11,29.763779,,,,,,TRUE,,,,HZ,FEW,1500,FEW,2000,SCT,9000,,,MVFR,,,,,,,,,,,,METAR,
VOAR 090300Z 27010KT 4500 HZ FEW020 SCT100 32/22 Q1005 BECMG 6000,VOAR,2023-06-09T03:00:00Z,13.07,79.68,32.0,22.0,270,10,,2.8,29.675198,,,,,,,,,,HZ,FEW,2000,SCT,10000,,,,,IFR,,,,,,,,,,,,METAR,81.0
VIUT 090300Z 20007KT 6000 FEW025 31/21 Q1004 NOSIG,VIUT,2023-06-09T03:00:00Z,25.82,71.48,31.0,21.0,200,7,,3.73,29.64567,,,,,,TRUE,,,,,FEW,2500,,,,,,,MVFR,,,,,,,,,,,,METAR,152.0
VISR 090300Z VRB02KT 6000 FEW025 22/15 Q1015 NOSIG,VISR,2023-06-09T03:00:00Z,33.98,74.77,22.0,15.0,0,2,,3.73,29.970472,,,,,,TRUE,,,,,FEW,2500,,,,,,,MVFR,,,,,,,,,,,,METAR,1655.0
VISP 090300Z 27004KT 6000 SKC 30/19 Q1003 NOSIG,VISP,2023-06-09T03:00:00Z,30.0,77.42,30.0,19.0,270,4,,3.73,29.616142,,,,,,TRUE,,,,,SKC,,,,,,,,MVFR,,,,,,,,,,,,METAR,272.0
VILH 090300Z VRB02KT 6000 FEW070 SCT150 15/M00 Q1028 NOSIG,VILH,2023-06-09T03:00:00Z,34.13,77.55,15.0,0.0,0,2,,3.73,30.35433,,,,,,TRUE,,,,,FEW,7000,SCT,15000,,,,,MVFR,,,,,,,,,,,,METAR,3256.0
VIJU 090300Z 02005KT 6000 SKC 32/17 Q1004 NOSIG,VIJU,2023-06-09T03:00:00Z,32.68,74.83,32.0,17.0,20,5,,3.73,29.64567,,,,,,TRUE,,,,,SKC,,,,,,,,MVFR,,,,,,,,,,,,METAR,285.0
VIJR 090300Z 20013G23KT 6000 FEW250 29/25 Q1003 TEMPO 20015G25KT,VIJR,2023-06-09T03:00:00Z,26.88,70.87,29.0,25.0,200,13,23,3.73,29.616142,,,,,,,,,,,FEW,25000,,,,,,,MVFR,,,1.5,,,,,,,,,METAR,229.0
VIJO 090300Z 25010KT 6000 FEW250 32/20 Q1005 NOSIG,VIJO,2023-06-09T03:00:00Z,26.25,73.05,32.0,20.0,250,10,,3.73,29.675198,,,,,,TRUE,,,,,FEW,25000,,,,,,,MVFR,,,,,,,,,,,,METAR,215.0
VIGR 090300Z 27009KT 6000 FEW025 FEW030CB 35/17 Q1003 TEMPO 30025KT TS,VIGR,2023-06-09T03:00:00Z,26.28,78.22,35.0,17.0,270,9,,3.73,29.616142,,,,,,,,,,,FEW,2500,FEW,3000,,,,,MVFR,,,,,,,,,,,,METAR,187.0
VIDN 090300Z 26004KT 6000 NSC 29/12 Q1005,VIDN,2023-06-09T03:00:00Z,30.2,78.18,29.0,12.0,260,4,,3.73,29.675198,,,,,,,,,,,CLR,,,,,,,,MVFR,,,,,,,,,,,,METAR,550.0
VICG 090300Z VRB02KT 6000 FEW100 33/17 Q1004 NOSIG,VICG,2023-06-09T03:00:00Z,30.67,76.78,33.0,17.0,0,2,,3.73,29.64567,,,,,,TRUE,,,,,FEW,10000,,,,,,,MVFR,,,,,,,,,,,,METAR,316.0
VIBY 090300Z 29006KT 6000 SKC 30/18 Q1001 NOSIG,VIBY,2023-06-09T03:00:00Z,28.42,79.45,30.0,18.0,290,6,,3.73,29.557087,,,,,,TRUE,,,,,SKC,,,,,,,,MVFR,,,,,,,,,,,,METAR,175.0
VIAG 090300Z 25005KT 6000 TS SCT030 FEW035CB BKN090 30/21 Q1003 TEMPO 23025KT 2000 TSRA,VIAG,2023-06-09T03:00:00Z,27.15,77.97,30.0,21.0,250,5,,3.73,29.616142,,,,,,,,,,TS,SCT,3000,FEW,3500,BKN,9000,,,MVFR,,,,,,,,,,,,METAR,159.0
VGEG 090300Z 00000KT 5000 SCT016 BKN100 30/25 Q1001 NOSIG,VGEG,2023-06-09T03:00:00Z,22.23,91.82,30.0,25.0,0,0,,3.11,29.557087,,,,,,TRUE,,,,,SCT,1600,BKN,10000,,,,,MVFR,,,,,,,,,,,,METAR,7.0
VETZ 090300Z 27005KT 4000 -TSRA BKN006 SCT020 FEW025CB BKN080 26/26 Q1003 TEMPO 2000,VETZ,2023-06-09T03:00:00Z,26.72,92.78,26.0,26.0,270,5,,2.49,29.616142,,,,,,,,,,-TSRA,BKN,600,SCT,2000,FEW,2500,BKN,8000,IFR,,,,,,,,,,,,METAR,73.0
VEPY 090300Z 00000KT 5000 HZ SCT015 SCT100 25/19 Q1012 NOSIG,VEPY,2023-06-09T03:00:00Z,27.22,88.58,25.0,19.0,0,0,,3.11,29.88189,,,,,,TRUE,,,,HZ,SCT,1500,SCT,10000,,,,,MVFR,,,,,,,,,,,,METAR,1399.0
VELR 090300Z 23003KT 4000 BR SCT020 OVC080 31/28 Q1002,VELR,2023-06-09T03:00:00Z,27.3,94.1,31.0,28.0,230,3,,2.49,29.586615,,,,,,,,,,BR,SCT,2000,OVC,8000,,,,,IFR,,,,,,,,,,,,METAR,101.0
VEKU 090300Z VRB02KT 6000 FEW010 SCT020 BKN090 31/26 Q1003 NOSIG,VEKU,2023-06-09T03:00:00Z,24.92,92.98,31.0,26.0,0,2,,3.73,29.616142,,,,,,TRUE,,,,,FEW,1000,SCT,2000,BKN,9000,,,MVFR,,,,,,,,,,,,METAR,107.0
VEKO 090300Z 27003KT 4000 HZ NSC 35/17 Q1003,VEKO,2023-06-09T03:00:00Z,24.82,79.92,35.0,17.0,270,3,,2.49,29.616142,,,,,,,,,,HZ,CLR,,,,,,,,IFR,,,,,,,,,,,,METAR,222.0
VEKI 090300Z 33006KT 5000 HZ NSC 33/15 Q1000 NOSIG,VEKI,2023-06-09T03:00:00Z,26.78,83.88,33.0,15.0,330,6,,3.11,29.52756,,,,,,TRUE,,,,HZ,CLR,,,,,,,,MVFR,,,,,,,,,,,,METAR,81.0
VEJT 090300Z VRB02KT 6000 FEW025 BKN090 31/27 Q1002 TEMPO RA,VEJT,2023-06-09T03:00:00Z,26.73,94.17,31.0,27.0,0,2,,3.73,29.586615,,,,,,,,,,,FEW,2500,BKN,9000,,,,,MVFR,,,,,,,,,,,,METAR,95.0
VEJS 090300Z 31002KT 2500 HZ SCT100 33/24 Q1001,VEJS,2023-06-09T03:00:00Z,22.82,86.17,33.0,24.0,310,2,,1.55,29.557087,,,,,,,,,,HZ,SCT,10000,,,,,,,IFR,,,,,,,,,,,,METAR,151.0
VEHX 090300Z 02004KT 4000 -TSRABR SCT010 SCT025 FEW030CB BKN090 25/25 Q1003 NOSIG,VEHX,2023-06-09T03:00:00Z,,,25.0,25.0,20,4,,2.49,29.616142,,,,,,TRUE,,,,-TSRA BR,SCT,1000,SCT,2500,FEW,3000,BKN,9000,IFR,,,,,,,,,,,,METAR,
VEGY 090300Z 26005KT 4000 HZ NSC 36/14 Q1000,VEGY,2023-06-09T03:00:00Z,24.75,84.95,36.0,14.0,260,5,,2.49,29.52756,,,,,,,,,,HZ,CLR,,,,,,,,IFR,,,,,,,,,,,,METAR,115.0
VEGK 090300Z 32006KT 6000 SKC 36/18 Q1000 NOSIG,VEGK,2023-06-09T03:00:00Z,26.75,83.45,36.0,18.0,320,6,,3.73,29.52756,,,,,,TRUE,,,,,SKC,,,,,,,,MVFR,,,,,,,,,,,,METAR,83.0
VECX 090300Z 25004KT 6000 FEW100 36/21 Q1002 NOSIG,VECX,2023-06-09T03:00:00Z,9.15,92.82,36.0,21.0,250,4,,3.73,29.586615,,,,,,TRUE,,,,,FEW,10000,,,,,,,MVFR,,,,,,,,,,,,METAR,14.0
VECO 090300Z 11003KT 2500 TSRA BKN010 FEW030CB 24/24 Q1003 NOSIG,VECO,2023-06-09T03:00:00Z,26.33,89.47,24.0,24.0,110,3,,1.55,29.616142,,,,,,TRUE,,,,TSRA,BKN,1000,FEW,3000,,,,,IFR,,,,,,,,,,,,METAR,48.0
VEBN 090300Z VRB02KT 3000 HZ NSC 38/18 Q1001 NOSIG,VEBN,2023-06-09T03:00:00Z,25.45,82.85,38.0,18.0,0,2,,1.86,29.557087,,,,,,TRUE,,,,HZ,CLR,,,,,,,,IFR,,,,,,,,,,,,METAR,81.0
VEBI 090300Z 00000KT 2000 -RA FEW008 SCT018 FEW025CB OVC080 22/22 Q1008 NOSIG,VEBI,2023-06-09T03:00:00Z,25.7,91.98,22.0,22.0,0,0,,1.24,29.763779,,,,,,TRUE,,,,-RA,FEW,800,SCT,1800,FEW,2500,OVC,8000,IFR,,,,,,,,,,,,METAR,892.0
VEBD 090300Z 05008KT 6000 SCT030 BKN100 32/24 Q1002 NOSIG,VEBD,2023-06-09T03:00:00Z,26.68,88.33,32.0,24.0,50,8,,3.73,29.586615,,,,,,TRUE,,,,,SCT,3000,BKN,10000,,,,,MVFR,,,,,,,,,,,,METAR,126.0
VEAB 090300Z 29006KT 6000 SKC 35/17 Q1002 NOSIG,VEAB,2023-06-09T03:00:00Z,25.43,81.73,35.0,17.0,290,6,,3.73,29.586615,,,,,,TRUE,,,,,SKC,,,,,,,,MVFR,,,,,,,,,,,,METAR,98.0
VARK 090300Z 23011KT 6000 SCT020 30/25 Q1006 NOSIG,VARK,2023-06-09T03:00:00Z,22.3,70.77,30.0,25.0,230,11,,3.73,29.704725,,,,,,TRUE,,,,,SCT,2000,,,,,,,MVFR,,,,,,,,,,,,METAR,125.0
VAPO 090300Z 29006KT 6000 FEW030 29/21 Q1012 NOSIG,VAPO,2023-06-09T03:00:00Z,18.57,73.92,29.0,21.0,290,6,,3.73,29.88189,,,,,,TRUE,,,,,FEW,3000,,,,,,,MVFR,,,,,,,,,,,,METAR,593.0
VAJM 090300Z 18008KT 6000 SCT020 33/26 Q1005 NOSIG,VAJM,2023-06-09T03:00:00Z,22.43,70.07,33.0,26.0,180,8,,3.73,29.675198,,,,,,TRUE,,,,,SCT,2000,,,,,,,MVFR,,,,,,,,,,,,METAR,20.0
VAJB 090300Z 30007KT 5000 HZ NSC 33/18 Q1006 NOSIG,VAJB,2023-06-09T03:00:00Z,23.18,80.05,33.0,18.0,300,7,,3.11,29.704725,,,,,,TRUE,,,,HZ,CLR,,,,,,,,MVFR,,,,,,,,,,,,METAR,489.0
VABV 090300Z 20008KT 6000 FEW020 SCT025 31/26 Q1007,VABV,2023-06-09T03:00:00Z,21.75,72.2,31.0,26.0,200,8,,3.73,29.734253,,,,,,,,,,,FEW,2000,SCT,2500,,,,,MVFR,,,,,,,,,,,,METAR,8.0
VABJ 090300Z 20008KT 6000 SCT020 30/27 Q1005 NOSIG,VABJ,2023-06-09T03:00:00Z,23.28,69.67,30.0,27.0,200,8,,3.73,29.675198,,,,,,TRUE,,,,,SCT,2000,,,,,,,MVFR,,,,,,,,,,,,METAR,79.0
UWOR 090300Z 30005MPS CAVOK 18/08 Q1018 R25/CLRD65 NOSIG RMK QFE740/0986,UWOR,2023-06-09T03:00:00Z,51.07,58.6,18.0,8.0,300,10,,6.21,30.059055,,,,,,TRUE,,,,,CAVOK,,,,,,,,VFR,,,,,,,,,,,,SPECI,270.0
UWLW 090300Z 13003MPS CAVOK 14/08 Q1020 R02/CLRD60 NOSIG RMK QFE758/1011,UWLW,2023-06-09T03:00:00Z,54.4,48.8,14.0,8.0,130,6,,6.21,30.11811,,,,,,TRUE,,,,,CAVOK,,,,,,,,VFR,,,,,,,,,,,,SPECI,67.0
UTAV 090300Z 35024G36KT 2300 BLDU NSC 29/08 Q1009 R31/CLRD70 NOSIG,UTAV,2023-06-09T03:00:00Z,39.08,63.62,29.0,8.0,350,24,36,1.43,29.793306,,,,,,TRUE,,,,BLDU,CLR,,,,,,,,IFR,,,,,,,,,,,,SPECI,187.0
UTAT 090300Z 00000KT CAVOK 22/16 Q1016 R26/CLRD70 NOSIG,UTAT,2023-06-09T03:00:00Z,41.77,59.83,22.0,16.0,0,0,,6.21,30.0,,,,,,TRUE,,,,,CAVOK,,,,,,,,VFR,,,,,,,,,,,,SPECI,84.0
UTAM 090300Z 34010G20KT 4300 HZ SCT100 BKN230 24/13 Q1013 R88/CLRD70 NOSIG,UTAM,2023-06-09T03:00:00Z,37.62,61.9,24.0,13.0,340,10,20,2.67,29.911417,,,,,,TRUE,,,,HZ,SCT,10000,BKN,23000,,,,,IFR,,,,,,,,,,,,SPECI,218.0
UTAK 090300Z 35002KT CAVOK 20/11 Q1017 R316R/CLRD70 NOSIG,UTAK,2023-06-09T03:00:00Z,40.05,53.0,20.0,11.0,350,2,,6.21,30.029528,,,,,,TRUE,,,,,CAVOK,,,,,,,,VFR,,,,,,,,,,,,SPECI,83.0
UTAA 090300Z 30004KT 260V330 9999 FEW023CB OVC023 20/18 Q1018 R88/290060 NOSIG,UTAA,2023-06-09T03:00:00Z,37.98,58.37,20.0,18.0,300,4,,6.21,30.059055,,,,,,TRUE,,,,,FEW,2300,OVC,2300,,,,,MVFR,,,,,,,,,,,,METAR,207.0
URMN 090300Z 31001MPS 9999 NSC 14/13 Q1015 R24/////// NOSIG RMK QFE725,URMN,2023-06-09T03:00:00Z,43.52,43.63,14.0,13.0,310,2,,6.21,29.970472,,,,,,TRUE,,,,,CLR,,,,,,,,VFR,,,,,,,,,,,,SPECI,424.0
UMMG 090300Z VRB01MPS CAVOK 14/10 Q1017 NOSIG,UMMG,2023-06-09T03:00:00Z,53.6,24.05,14.0,10.0,0,2,,6.21,30.029528,,,,,,TRUE,,,,,CAVOK,,,,,,,,VFR,,,,,,,,,,,,METAR,125.0
ULPB 090300Z AUTO 30005MPS 9999 // 09/06 Q1013 RMK QFE756/1008,ULPB,2023-06-09T03:00:00Z,61.88,34.15,9.0,6.0,300,10,,6.21,29.911417,,,TRUE,,,,,,,,,,,,,,,,,,,,,,,,,,,,METAR,41.0
UCFL 090300Z 16002MPS 110V200 9999 NSC 21/04 Q1022,UCFL,2023-06-09T03:00:00Z,42.58,76.7,21.0,4.0,160,4,,6.21,30.177166,,,,,,,,,,,CLR,,,,,,,,VFR,,,,,,,,,,,,METAR,1654.0
UBEE 090300Z 22003KT 9999 FEW046 BKN076 20/15 Q1018 NOSIG,UBEE,2023-06-09T03:00:00Z,40.63,47.13,20.0,15.0,220,3,,6.21,30.059055,,,,,,TRUE,,,,,FEW,4600,BKN,7600,,,,,VFR,,,,,,,,,,,,METAR,14.0
UBBY 090300Z VRB02KT 9999 BKN040 18/15 Q1022 NOSIG RMK MT OP,UBBY,2023-06-09T03:00:00Z,41.57,46.67,18.0,15.0,0,2,,6.21,30.177166,,,,,,TRUE,,,,,BKN,4000,,,,,,,VFR,,,,,,,,,,,,METAR,383.0
UBBQ 090300Z 00000KT 9999 NSC 16/13 Q1019 NOSIG RMK MT OP,UBBQ,2023-06-09T03:00:00Z,40.82,47.72,16.0,13.0,0,0,,6.21,30.088583,,,,,,TRUE,,,,,CLR,,,,,,,,VFR,,,,,,,,,,,,METAR,339.0
UBBL 090300Z 00000KT 9999 BKN080 18/18 Q1018 NOSIG RMK MT OP,UBBL,2023-06-09T03:00:00Z,38.75,48.82,18.0,18.0,0,0,,6.21,30.059055,,,,,,TRUE,,,,,BKN,8000,,,,,,,VFR,,,,,,,,,,,,METAR,-11.0
TTPP 090300Z 00000KT 9999 FEW015 27/24 Q1015 NOSIG,TTPP,2023-06-09T03:00:00Z,10.58,-61.35,27.0,24.0,0,0,,6.21,29.970472,,,,,,TRUE,,,,,FEW,1500,,,,,,,VFR,,,,,,,,,,,,METAR,11.0
TTCP 090300Z 10010KT 9999 FEW016 28/25 Q1016 NOSIG,TTCP,2023-06-09T03:00:00Z,11.15,-60.85,28.0,25.0,100,10,,6.21,30.0,,,,,,TRUE,,,,,FEW,1600,,,,,,,VFR,,,,,,,,,,,,METAR,13.0
TNCM 090300Z 07008KT 9999 SCT016 29/25 Q1020 ,TNCM,2023-06-09T03:00:00Z,18.05,-63.12,29.0,25.0,70,8,,6.21,30.11811,,,,,,,,,,,SCT,1600,,,,,,,VFR,,,,,,,,,,,,METAR,9.0
TNCA 090300Z 09019KT 9999 FEW017 28/24 Q1014 NOSIG,TNCA,2023-06-09T03:00:00Z,12.5,-70.0,28.0,24.0,90,19,,6.21,29.940945,,,,,,TRUE,,,,,FEW,1700,,,,,,,VFR,,,,,,,,,,,,METAR,7.0
TLPL 090300Z 10013KT 9999 SCT025 28/23 Q1017 NOSIG,TLPL,2023-06-09T03:00:00Z,13.75,-60.95,28.0,23.0,100,13,,6.21,30.029528,,,,,,TRUE,,,,,SCT,2500,,,,,,,VFR,,,,,,,,,,,,METAR,13.0
TBPB 090300Z 08008KT 9999 FEW018 28/25 Q1016 NOSIG,TBPB,2023-06-09T03:00:00Z,13.07,-59.48,28.0,25.0,80,8,,6.21,30.0,,,,,,TRUE,,,,,FEW,1800,,,,,,,VFR,,,,,,,,,,,,METAR,55.0
TAPA 090300Z 08008KT 040V130 9999 BKN020 28/24 Q1019 NOSIG,TAPA,2023-06-09T03:00:00Z,17.13,-61.78,28.0,24.0,80,8,,6.21,30.088583,,,,,,TRUE,,,,,BKN,2000,,,,,,,MVFR,,,,,,,,,,,,METAR,15.0
SYCJ 090300Z VRB02KT 5000 BR FEW007 25/25 Q1015 NOSIG,SYCJ,2023-06-09T03:00:00Z,6.5,-58.25,25.0,25.0,0,2,,3.11,29.970472,,,,,,TRUE,,,,BR,FEW,700,,,,,,,MVFR,,,,,,,,,,,,METAR,30.0
SUMU 090300Z 36014KT CAVOK 20/19 Q1006 NOSIG,SUMU,2023-06-09T03:00:00Z,-34.83,-56.02,20.0,19.0,360,14,,6.21,29.704725,,,,,,TRUE,,,,,CAVOK,,,,,,,,VFR,,,,,,,,,,,,METAR,32.0
SULS 090300Z 34014KT CAVOK 22/17 Q1006,SULS,2023-06-09T03:00:00Z,-34.87,-55.1,22.0,17.0,340,14,,6.21,29.704725,,,,,,,,,,,CAVOK,,,,,,,,VFR,,,,,,,,,,,,METAR,22.0
SPYL 090300Z 15011KT CAVOK 26/21 Q1015 RMK PP000,SPYL,2023-06-09T03:00:00Z,-4.57,-81.25,26.0,21.0,150,11,,6.21,29.970472,,,,,,,,,,,CAVOK,,,,,,,,VFR,,,,,,,,,,,,METAR,89.0
SPUR 090300Z 16007KT CAVOK 24/20 Q1015 RMK BIRD HAZARD RWY 19/01 PP000,SPUR,2023-06-09T03:00:00Z,-5.17,-80.58,24.0,20.0,160,7,,6.21,29.970472,,,,,,,,,,,CAVOK,,,,,,,,VFR,,,,,,,,,,,,SPECI,55.0
SPTN 090300Z 21004KT 9999 OVC025 16/13 Q1020 RMK PP000,SPTN,2023-06-09T03:00:00Z,-18.03,-70.28,16.0,13.0,210,4,,6.21,30.11811,,,,,,,,,,,OVC,2500,,,,,,,MVFR,,,,,,,,,,,,SPECI,459.0
SPSO 090300Z 21010KT 8000 OVC026 20/17 Q1016 RMK BR PP000,SPSO,2023-06-09T03:00:00Z,-13.73,-76.22,20.0,17.0,210,10,,4.97,30.0,,,,,,,,,,,OVC,2600,,,,,,,MVFR,,,,,,,,,,,,SPECI,8.0
SPRU 090300Z 14007KT 5000 BR OVC035 23/21 Q1015 RMK PP000,SPRU,2023-06-09T03:00:00Z,-8.08,-79.12,23.0,21.0,140,7,,3.11,29.970472,,,,,,,,,,BR,OVC,3500,,,,,,,MVFR,,,,,,,,,,,,SPECI,23.0
SPQU 090300Z 03007KT CAVOK 11/M03 Q1031 RMK PP000,SPQU,2023-06-09T03:00:00Z,-16.33,-71.57,11.0,-3.0,30,7,,6.21,30.442913,,,,,,,,,,,CAVOK,,,,,,,,VFR,,,,,,,,,,,,SPECI,2527.0
SPQT 090300Z VRB01KT CAVOK 25/24 Q1014 NOSIG RMK PP000,SPQT,2023-06-09T03:00:00Z,-3.78,-73.32,25.0,24.0,0,1,,6.21,29.940945,,,,,,TRUE,,,,,CAVOK,,,,,,,,VFR,,,,,,,,,,,,SPECI,92.0
SPME 090300Z 31003KT 8000 -RA FEW012 BKN015 24/24 Q1014 RMK BIRD HAZARD RWY 32/14 PP021,SPME,2023-06-09T03:00:00Z,-3.55,-80.4,24.0,24.0,310,3,,4.97,29.940945,,,,,,,,,,-RA,FEW,1200,BKN,1500,,,,,MVFR,,,,,,,,,,,,SPECI,26.0
SPJC 090300Z 16013KT 9999 FEW015 OVC025 22/18 Q1016 NOSIG RMK PP000,SPJC,2023-06-09T03:00:00Z,-12.02,-77.12,22.0,18.0,160,13,,6.21,30.0,,,,,,TRUE,,,,,FEW,1500,OVC,2500,,,,,MVFR,,,,,,,,,,,,SPECI,26.0
SPHI 090300Z 16007KT 120V180 9999 SCT040 24/20 Q1015 RMK BIRD HAZARD RWY 19/01 PP000,SPHI,2023-06-09T03:00:00Z,-6.78,-79.82,24.0,20.0,160,7,,6.21,29.970472,,,,,,,,,,,SCT,4000,,,,,,,VFR,,,,,,,,,,,,SPECI,33.0
SPCL 090300Z 03002KT 9999 FEW020 SCT080 26/24 Q1015 RMK PP000,SPCL,2023-06-09T03:00:00Z,-8.38,-74.58,26.0,24.0,30,2,,6.21,29.970472,,,,,,,,,,,FEW,2000,SCT,8000,,,,,VFR,,,,,,,,,,,,SPECI,154.0
SMJP 090300Z 07002KT 9999 FEW010 25/24 Q1015 NOSIG,SMJP,2023-06-09T03:00:00Z,5.45,-55.18,25.0,24.0,70,2,,6.21,29.970472,,,,,,TRUE,,,,,FEW,1000,,,,,,,VFR,,,,,,,,,,,,METAR,14.0
SKVP 090300Z 03005KT 9999 RA SCT015 BKN070 26/26 Q1016 RMK A3000,SKVP,2023-06-09T03:00:00Z,10.43,-73.25,26.0,26.0,30,5,,6.21,30.0,,,,,,,,,,RA,SCT,1500,BKN,7000,,,,,VFR,,,,,,,,,,,,METAR,137.0
SKUC 090300Z VRB02KT 9999 OVC008 23/23 Q1015 RMK A2999,SKUC,2023-06-09T03:00:00Z,7.07,-70.73,23.0,23.0,0,2,,6.21,29.970472,,,,,,,,,,,OVC,800,,,,,,,IFR,,,,,,,,,,,,METAR,127.0
SKSP 090300Z VRB02KT 9999 FEW017 28/25 Q1012 RMK A2989,SKSP,2023-06-09T03:00:00Z,12.58,-81.72,28.0,25.0,0,2,,6.21,29.88189,,,,,,,,,,,FEW,1700,,,,,,,VFR,,,,,,,,,,,,METAR,6.0
SKSM 090300Z 17007KT 9999 FEW025 OVC070 25/23 Q1014 RMK A2995,SKSM,2023-06-09T03:00:00Z,11.12,-74.22,25.0,23.0,170,7,,6.21,29.940945,,,,,,,,,,,FEW,2500,OVC,7000,,,,,VFR,,,,,,,,,,,,METAR,5.0
SKRG 090300Z 29004KT 9999 SCT013 BKN080 15/15 Q1029 NOSIG RMK A3039,SKRG,2023-06-09T03:00:00Z,6.17,-75.42,15.0,15.0,290,4,,6.21,30.383858,,,,,,TRUE,,,,,SCT,1300,BKN,8000,,,,,VFR,,,,,,,,,,,,METAR,2132.0
SKPE 090300Z VRB02KT 9000 VCFG BKN015 OVC080 19/18 Q1021 RMK A3017,SKPE,2023-06-09T03:00:00Z,4.82,-75.73,19.0,18.0,0,2,,5.59,30.147638,,,,,,,,,,VCFG,BKN,1500,OVC,8000,,,,,MVFR,,,,,,,,,,,,METAR,1341.0
SKNV 090300Z VRB02KT 9999 FEW020 SCT100 26/21 Q1014 RMK A2997,SKNV,2023-06-09T03:00:00Z,2.93,-75.28,26.0,21.0,0,2,,6.21,29.940945,,,,,,,,,,,FEW,2000,SCT,10000,,,,,VFR,,,,,,,,,,,,METAR,449.0
SKMR 090300Z 00000KT 9999 SCT015 BKN100 27/25 Q1013 RMK A2994,SKMR,2023-06-09T03:00:00Z,8.82,-75.83,27.0,25.0,0,0,,6.21,29.911417,,,,,,,,,,,SCT,1500,BKN,10000,,,,,VFR,,,,,,,,,,,,METAR,12.0
SKLT 090300Z VRB02KT CAVOK 24/23 Q1012 RMK A2995,SKLT,2023-06-09T03:00:00Z,-4.2,-69.93,24.0,23.0,0,2,,6.21,29.88189,,,,,,,,,,,CAVOK,,,,,,,,VFR,,,,,,,,,,,,METAR,78.0
SKCL 090300Z 12005KT 9999 SCT025 BKN100 22/19 Q1019 NOSIG RMK A3010,SKCL,2023-06-09T03:00:00Z,3.53,-76.37,22.0,19.0,120,5,,6.21,30.088583,,,,,,TRUE,,,,,SCT,2500,BKN,10000,,,,,VFR,,,,,,,,,,,,METAR,967.0
SKCG 090300Z 09003KT 9999 SCT015 BKN090 26/25 Q1013 RMK A2992,SKCG,2023-06-09T03:00:00Z,10.43,-75.52,26.0,25.0,90,3,,6.21,29.911417,,,,,,,,,,,SCT,1500,BKN,9000,,,,,VFR,,,,,,,,,,,,METAR,6.0
SKCC 090300Z 18015KT 9999 SCT018 BKN050 26/20 Q1016 RMK A3000,SKCC,2023-06-09T03:00:00Z,7.92,-72.52,26.0,20.0,180,15,,6.21,30.0,,,,,,,,,,,SCT,1800,BKN,5000,,,,,VFR,,,,,,,,,,,,METAR,308.0
SKBQ 090300Z 23005KT 9999 SCT015 24/24 Q1013 NOSIG RMK A2993,SKBQ,2023-06-09T03:00:00Z,10.87,-74.77,24.0,24.0,230,5,,6.21,29.911417,,,,,,TRUE,,,,,SCT,1500,,,,,,,VFR,,,,,,,,,,,,METAR,23.0
SKBO 090300Z 05006KT 020V080 9999 FEW010 BKN080 12/10 Q1030 NOSIG RMK A3044,SKBO,2023-06-09T03:00:00Z,4.7,-74.15,12.0,10.0,50,6,,6.21,30.413385,,,,,,TRUE,,,,,FEW,1000,BKN,8000,,,,,VFR,,,,,,,,,,,,METAR,2547.0
SKBG 090300Z 16004KT 9999 SCT010 BKN070 19/19 Q1019 RMK A3011,SKBG,2023-06-09T03:00:00Z,7.13,-73.18,19.0,19.0,160,4,,6.21,30.088583,,,,,,,,,,,SCT,1000,BKN,7000,,,,,VFR,,,,,,,,,,,,METAR,1187.0
SKAR 090300Z 00000KT 9999 -DZ BKN017 BKN100 20/19 Q1020 RMK A3014,SKAR,2023-06-09T03:00:00Z,4.45,-75.77,20.0,19.0,0,0,,6.21,30.11811,,,,,,,,,,-DZ,BKN,1700,BKN,10000,,,,,MVFR,,,,,,,,,,,,METAR,1214.0
SGES 090300Z 10003KT CAVOK 17/15 Q1016,SGES,2023-06-09T03:00:00Z,-25.45,-54.85,17.0,15.0,100,3,,6.21,30.0,,,,,,,,,,,CAVOK,,,,,,,,VFR,,,,,,,,,,,,METAR,256.0
SGAS 090300Z 07006KT CAVOK 20/17 Q1014,SGAS,2023-06-09T03:00:00Z,-25.25,-57.52,20.0,17.0,70,6,,6.21,29.940945,,,,,,,,,,,CAVOK,,,,,,,,VFR,,,,,,,,,,,,METAR,83.0
SEQM 090300Z 02002KT 9999 FEW005 BKN013 BKN030 14/13 Q1029 NOSIG RMK A3041,SEQM,2023-06-09T03:00:00Z,-0.12,-78.35,14.0,13.0,20,2,,6.21,30.383858,,,,,,TRUE,,,,,FEW,500,BKN,1300,BKN,3000,,,MVFR,,,,,,,,,,,,SPECI,2386.0
SEMT 090300Z 24007KT 8000 VCSH BKN020 OVC100 27/24 Q1014 RMK A2997,SEMT,2023-06-09T03:00:00Z,-0.95,-80.67,27.0,24.0,240,7,,4.97,29.940945,,,,,,,,,,VCSH,BKN,2000,OVC,10000,,,,,MVFR,,,,,,,,,,,,SPECI,13.0
SELT 090300Z 16002KT 9999 SCT030 08/08 Q1033,SELT,2023-06-09T03:00:00Z,-0.92,-78.62,8.0,8.0,160,2,,6.21,30.501968,,,,,,,,,,,SCT,3000,,,,,,,VFR,,,,,,,,,,,,METAR,2779.0
SEGU 090300Z 33004KT 9999 FEW007 BKN023 BKN100 26/24 Q1014 NOSIG RMK A2994,SEGU,2023-06-09T03:00:00Z,-2.15,-79.88,26.0,24.0,330,4,,6.21,29.940945,,,,,,TRUE,,,,,FEW,700,BKN,2300,BKN,10000,,,MVFR,,,,,,,,,,,,METAR,6.0
SECU 090300Z 13002KT 9999 FEW033 14/11 Q1029,SECU,2023-06-09T03:00:00Z,-2.88,-78.98,14.0,11.0,130,2,,6.21,30.383858,,,,,,,,,,,FEW,3300,,,,,,,VFR,,,,,,,,,,,,METAR,2516.0
SCVM 090300Z VRB02KT 9999 OVC013 14/13 Q1022,SCVM,2023-06-09T03:00:00Z,-32.95,-71.48,14.0,13.0,0,2,,6.21,30.177166,,,,,,,,,,,OVC,1300,,,,,,,MVFR,,,,,,,,,,,,METAR,136.0
SCVD 090300Z AUTO 30004KT 9999 -RA BKN043 06/05 Q1015,SCVD,2023-06-09T03:00:00Z,-39.65,-73.08,6.0,5.0,300,4,,6.21,29.970472,,,TRUE,,,,,,,-RA,BKN,4300,,,,,,,VFR,,,,,,,,,,,,METAR,19.0
SCTN 090300Z AUTO 31007KT 9999 FEW044 06/03 Q1011,SCTN,2023-06-09T03:00:00Z,-42.92,-72.7,6.0,3.0,310,7,,6.21,29.852362,,,TRUE,,,,,,,,FEW,4400,,,,,,,VFR,,,,,,,,,,,,METAR,8.0
SCTE 090300Z VRB06KT 9999 -SHRA SCT015 BKN040 04/04 Q1013 NOSIG,SCTE,2023-06-09T03:00:00Z,-41.43,-73.08,4.0,4.0,0,6,,6.21,29.911417,,,,,,TRUE,,,,-SHRA,SCT,1500,BKN,4000,,,,,VFR,,,,,,,,,,,,METAR,85.0
SCSN 090300Z AUTO 36005KT 320V030 9999 -RA OVC022 15/13 Q1020,SCSN,2023-06-09T03:00:00Z,-33.65,-71.62,15.0,13.0,360,5,,6.21,30.11811,,,TRUE,,,,,,,-RA,OVC,2200,,,,,,,MVFR,,,,,,,,,,,,METAR,73.0
SCSE 090300Z 09006KT 9999 SCT014 14/11 Q1021,SCSE,2023-06-09T03:00:00Z,-29.92,-71.2,14.0,11.0,90,6,,6.21,30.147638,,,,,,,,,,,SCT,1400,,,,,,,VFR,,,,,,,,,,,,METAR,141.0
SCRM 090300Z 11030KT 9999 BKN020 M06/M09 Q0995 NOSIG,SCRM,2023-06-09T03:00:00Z,-62.18,-58.98,-6.0,-9.0,110,30,,6.21,29.379921,,,,,,TRUE,,,,,BKN,2000,,,,,,,MVFR,,,,,,,,,,,,METAR,45.0
SCQP 090300Z 36004KT CAVOK 06/05 Q1016,SCQP,2023-06-09T03:00:00Z,-38.92,-72.65,6.0,5.0,360,4,,6.21,30.0,,,,,,,,,,,CAVOK,,,,,,,,VFR,,,,,,,,,,,,METAR,97.0
SCPQ 090300Z AUTO 35006KT //// R35/P2000N NCD 02/01 Q1010,SCPQ,2023-06-09T03:00:00Z,-42.33,-73.72,2.0,1.0,350,6,,1.24,29.822834,,,TRUE,,,,,,,,CLR,,,,,,,,IFR,,,,,,,,,,,,METAR,166.0
SCON 090300Z AUTO 27005KT 230V310 9999 FEW046/// 04/03 Q1010,SCON,2023-06-09T03:00:00Z,-43.13,-73.62,4.0,3.0,270,5,,6.21,29.822834,,,TRUE,,,,,,,,FEW,4600,,,,,,,VFR,,,,,,,,,,,,METAR,11.0
SCMK 090300Z AUTO 22008KT 190V280 //// // SCT022/// BKN033/// BKN083/// 06/04 Q1008,SCMK,2023-06-09T03:00:00Z,-43.9,-73.73,6.0,4.0,220,8,,,29.763779,,,TRUE,,,,,,,,SCT,2200,BKN,3300,BKN,8300,,,,,,,,,,,,,,,METAR,22.0
SCJO 090300Z AUTO VRB01KT 9999 FEW061/// 02/01 Q1014,SCJO,2023-06-09T03:00:00Z,-40.6,-73.05,2.0,1.0,0,1,,6.21,29.940945,,,TRUE,,,,,,,,FEW,6100,,,,,,,VFR,,,,,,,,,,,,METAR,61.0
SCIP 090300Z 10011KT 9999 SCT015 16/12 Q1023 RESHRA NOSIG,SCIP,2023-06-09T03:00:00Z,-27.17,-109.43,16.0,12.0,100,11,,6.21,30.206694,,,,,,TRUE,,,,,SCT,1500,,,,,,,VFR,,,,,,,,,,,,METAR,48.0
SCIE 090300Z 19005KT 9999 BKN045 11/08 Q1018,SCIE,2023-06-09T03:00:00Z,-36.77,-73.07,11.0,8.0,190,5,,6.21,30.059055,,,,,,,,,,,BKN,4500,,,,,,,VFR,,,,,,,,,,,,METAR,8.0
SCIC 090300Z AUTO 33013G24KT 300V360 //// R/////// BKN015 BKN033 14/13 Q1017,SCIC,2023-06-09T03:00:00Z,-34.97,-71.22,14.0,13.0,330,13,24,,30.029528,,,TRUE,,,,,,,,BKN,1500,BKN,3300,,,,,,,,,,,,,,,,,METAR,230.0
SCFT 090300Z AUTO 27013KT 250V310 9999 -SHRA FEW038/// BKN063/// 03/M00 Q1006,SCFT,2023-06-09T03:00:00Z,-43.18,-71.85,3.0,0.0,270,13,,6.21,29.704725,,,TRUE,,,,,,,-SHRA,FEW,3800,BKN,6300,,,,,VFR,,,,,,,,,,,,METAR,345.0
SCFA 090300Z 21010KT 9999 OVC019 16/11 Q1019 NOSIG,SCFA,2023-06-09T03:00:00Z,-23.43,-70.43,16.0,11.0,210,10,,6.21,30.088583,,,,,,TRUE,,,,,OVC,1900,,,,,,,MVFR,,,,,,,,,,,,METAR,113.0
SCEL 090300Z 15004KT 100V190 9999 FEW050 BKN090 13/10 Q1020 NOSIG,SCEL,2023-06-09T03:00:00Z,-33.38,-70.78,13.0,10.0,150,4,,6.21,30.11811,,,,,,TRUE,,,,,FEW,5000,BKN,9000,,,,,VFR,,,,,,,,,,,,METAR,478.0
SCDA 090300Z 17003KT 110V250 9999 OVC031 19/12 Q1019,SCDA,2023-06-09T03:00:00Z,-20.53,-70.17,19.0,12.0,170,3,,6.21,30.088583,,,,,,,,,,,OVC,3100,,,,,,,VFR,,,,,,,,,,,,METAR,41.0
SCCY 090300Z AUTO VRB03KT 9999 OVC049 03/M02 Q1001,SCCY,2023-06-09T03:00:00Z,-45.58,-72.1,3.0,-2.0,0,3,,6.21,29.557087,,,TRUE,,,,,,,,OVC,4900,,,,,,,VFR,,,,,,,,,,,,METAR,301.0
SCCI 090300Z 25008KT 9999 FEW045 01/M02 Q0992 NOSIG,SCCI,2023-06-09T03:00:00Z,-53.0,-70.85,1.0,-2.0,250,8,,6.21,29.291338,,,,,,TRUE,,,,,FEW,4500,,,,,,,VFR,,,,,,,,,,,,METAR,37.0
SCCF 090300Z AUTO 11015KT 9999 NCD 05/M21 Q1031,SCCF,2023-06-09T03:00:00Z,-22.5,-68.9,5.0,-21.0,110,15,,6.21,30.442913,,,TRUE,,,,,,,,CLR,,,,,,,,VFR,,,,,,,,,,,,METAR,2290.0
SCBA 090300Z AUTO 30019KT 9999 SCT059/// 01/M03 Q0998,SCBA,2023-06-09T03:00:00Z,-45.92,-71.68,1.0,-3.0,300,19,,6.21,29.468504,,,TRUE,,,,,,,,SCT,5900,,,,,,,VFR,,,,,,,,,,,,METAR,516.0
SCAT 090300Z AUTO 18003KT 9999 OVC013/// 13/11 Q1020,SCAT,2023-06-09T03:00:00Z,-27.27,-70.77,13.0,11.0,180,3,,6.21,30.11811,,,TRUE,,,,,,,,OVC,1300,,,,,,,MVFR,,,,,,,,,,,,METAR,209.0
SCAR 090300Z 17004KT 9999 OVC022 19/14 Q1019,SCAR,2023-06-09T03:00:00Z,-18.35,-70.33,19.0,14.0,170,4,,6.21,30.088583,,,,,,,,,,,OVC,2200,,,,,,,MVFR,,,,,,,,,,,,METAR,57.0
SCAP 090300Z AUTO 23009KT 200V260 9999 -SHRA ////// 02/M01 Q1009,SCAP,2023-06-09T03:00:00Z,-43.62,-71.8,2.0,-1.0,230,9,,6.21,29.793306,,,TRUE,,,,,,,-SHRA,,,,,,,,,,,,,,,,,,,,,METAR,252.0
SBVT 090300Z VRB02KT CAVOK 18/17 Q1021,SBVT,2023-06-09T03:00:00Z,-20.25,-40.28,18.0,17.0,0,2,,6.21,30.147638,,,,,,,,,,,CAVOK,,,,,,,,VFR,,,,,,,,,,,,METAR,4.0
SBUR 090300Z 04005KT 8000 NSC 18/10 Q1022,SBUR,2023-06-09T03:00:00Z,-19.77,-47.97,18.0,10.0,40,5,,4.97,30.177166,,,,,,,,,,,CLR,,,,,,,,MVFR,,,,,,,,,,,,METAR,807.0
SBUL 090300Z 10007KT CAVOK 17/09 Q1023,SBUL,2023-06-09T03:00:00Z,-18.87,-48.22,17.0,9.0,100,7,,6.21,30.206694,,,,,,,,,,,CAVOK,,,,,,,,VFR,,,,,,,,,,,,METAR,945.0
SBTE 090300Z 16006KT 9999 BKN025 FEW025TCU BKN090 25/23 Q1014,SBTE,2023-06-09T03:00:00Z,-5.05,-42.82,25.0,23.0,160,6,,6.21,29.940945,,,,,,,,,,,BKN,2500,FEW,2500,BKN,9000,,,MVFR,,,,,,,,,,,,METAR,60.0
SBTA 090300Z 00000KT 8000 BCFG NSC 11/11 Q1021,SBTA,2023-06-09T03:00:00Z,-23.03,-45.5,11.0,11.0,0,0,,4.97,30.147638,,,,,,,,,,BCFG,CLR,,,,,,,,MVFR,,,,,,,,,,,,METAR,578.0
SBSV 090300Z 16011KT 9999 FEW010 BKN015 BKN080 25/23 Q1018,SBSV,2023-06-09T03:00:00Z,-12.9,-38.32,25.0,23.0,160,11,,6.21,30.059055,,,,,,,,,,,FEW,1000,BKN,1500,BKN,8000,,,MVFR,,,,,,,,,,,,METAR,9.0
SBSR 090300Z 00000KT CAVOK 17/12 Q1020,SBSR,2023-06-09T03:00:00Z,-20.8,-49.4,17.0,12.0,0,0,,6.21,30.11811,,,,,,,,,,,CAVOK,,,,,,,,VFR,,,,,,,,,,,,METAR,537.0
SBSP 090300Z AUTO 04003KT CAVOK 17/13 Q1022,SBSP,2023-06-09T03:00:00Z,-23.62,-46.65,17.0,13.0,40,3,,6.21,30.177166,,,TRUE,,,,,,,,CAVOK,,,,,,,,VFR,,,,,,,,,,,,METAR,802.0
SBSN 090300Z 00000KT CAVOK 25/25 Q1014,SBSN,2023-06-09T03:00:00Z,-2.42,-54.78,25.0,25.0,0,0,,6.21,29.940945,,,,,,,,,,,CAVOK,,,,,,,,VFR,,,,,,,,,,,,METAR,57.0
SBSM 090300Z VRB02KT CAVOK 17/14 Q1014,SBSM,2023-06-09T03:00:00Z,-29.72,-53.7,17.0,14.0,0,2,,6.21,29.940945,,,,,,,,,,,CAVOK,,,,,,,,VFR,,,,,,,,,,,,METAR,86.0
SBSL 090300Z 06002KT 9999 SCT017 26/25 Q1015,SBSL,2023-06-09T03:00:00Z,-2.58,-44.23,26.0,25.0,60,2,,6.21,29.970472,,,,,,,,,,,SCT,1700,,,,,,,VFR,,,,,,,,,,,,METAR,53.0
SBSG 090300Z 17004KT 140V210 9999 SCT020 25/23 Q1015,SBSG,2023-06-09T03:00:00Z,-5.77,-35.37,25.0,23.0,170,4,,6.21,29.970472,,,,,,,,,,,SCT,2000,,,,,,,VFR,,,,,,,,,,,,METAR,83.0
SBSC 090300Z 35005KT CAVOK 16/15 Q1020,SBSC,2023-06-09T03:00:00Z,-22.92,-43.72,16.0,15.0,350,5,,6.21,30.11811,,,,,,,,,,,CAVOK,,,,,,,,VFR,,,,,,,,,,,,METAR,6.0
SBRP 090300Z 11006KT CAVOK 16/14 Q1021,SBRP,2023-06-09T03:00:00Z,-21.13,-47.77,16.0,14.0,110,6,,6.21,30.147638,,,,,,,,,,,CAVOK,,,,,,,,VFR,,,,,,,,,,,,METAR,550.0
SBRJ 090300Z 35003KT CAVOK 21/18 Q1019,SBRJ,2023-06-09T03:00:00Z,-22.9,-43.17,21.0,18.0,350,3,,6.21,30.088583,,,,,,,,,,,CAVOK,,,,,,,,VFR,,,,,,,,,,,,METAR,6.0
SBRF 090300Z 20004KT 170V240 9999 SCT018 BKN021 BKN070 24/23 Q1016,SBRF,2023-06-09T03:00:00Z,-8.13,-34.92,24.0,23.0,200,4,,6.21,30.0,,,,,,,,,,,SCT,1800,BKN,2100,BKN,7000,,,MVFR,,,,,,,,,,,,METAR,10.0
SBRB 090300Z 00000KT CAVOK 23/23 Q1015,SBRB,2023-06-09T03:00:00Z,-9.87,-67.88,23.0,23.0,0,0,,6.21,29.970472,,,,,,,,,,,CAVOK,,,,,,,,VFR,,,,,,,,,,,,METAR,190.0
SBPV 090300Z 31002KT CAVOK 24/23 Q1014,SBPV,2023-06-09T03:00:00Z,-8.72,-63.9,24.0,23.0,310,2,,6.21,29.940945,,,,,,,,,,,CAVOK,,,,,,,,VFR,,,,,,,,,,,,METAR,89.0
SBPS 090300Z 12003KT 9999 SCT009 OVC020 22/21 Q1020,SBPS,2023-06-09T03:00:00Z,-16.43,-39.07,22.0,21.0,120,3,,6.21,30.11811,,,,,,,,,,,SCT,900,OVC,2000,,,,,MVFR,,,,,,,,,,,,METAR,44.0
SBPL 090300Z 18006KT CAVOK 23/22 Q1019,SBPL,2023-06-09T03:00:00Z,-9.37,-40.57,23.0,22.0,180,6,,6.21,30.088583,,,,,,,,,,,CAVOK,,,,,,,,VFR,,,,,,,,,,,,METAR,386.0
SBPJ 090300Z 12003KT CAVOK 23/19 Q1016,SBPJ,2023-06-09T03:00:00Z,-10.28,-48.37,23.0,19.0,120,3,,6.21,30.0,,,,,,,,,,,CAVOK,,,,,,,,VFR,,,,,,,,,,,,METAR,226.0
SBPA 090300Z 00000KT 6000 NSC 17/16 Q1015,SBPA,2023-06-09T03:00:00Z,-30.0,-51.17,17.0,16.0,0,0,,3.73,29.970472,,,,,,,,,,,CLR,,,,,,,,MVFR,,,,,,,,,,,,METAR,3.0
SBNT 090300Z 17008KT 9999 SCT018 BKN040 25/24 Q1015,SBNT,2023-06-09T03:00:00Z,-5.92,-35.25,25.0,24.0,170,8,,6.21,29.970472,,,,,,,,,,,SCT,1800,BKN,4000,,,,,VFR,,,,,,,,,,,,METAR,51.0
SBMQ 090300Z 06005KT 9999 FEW018 27/26 Q1014,SBMQ,2023-06-09T03:00:00Z,0.05,-51.07,27.0,26.0,60,5,,6.21,29.940945,,,,,,,,,,,FEW,1800,,,,,,,VFR,,,,,,,,,,,,METAR,15.0
SBMO 090300Z 27004KT 9999 FEW019 22/22 Q1018,SBMO,2023-06-09T03:00:00Z,-9.52,-35.78,22.0,22.0,270,4,,6.21,30.059055,,,,,,,,,,,FEW,1900,,,,,,,VFR,,,,,,,,,,,,METAR,116.0
SBMN 090300Z 04004KT CAVOK 27/25 Q1015,SBMN,2023-06-09T03:00:00Z,-3.13,-59.98,27.0,25.0,40,4,,6.21,29.970472,,,,,,,,,,,CAVOK,,,,,,,,VFR,,,,,,,,,,,,METAR,71.0
SBMK 090300Z 27002KT CAVOK 16/11 Q1022,SBMK,2023-06-09T03:00:00Z,-16.7,-43.82,16.0,11.0,270,2,,6.21,30.177166,,,,,,,,,,,CAVOK,,,,,,,,VFR,,,,,,,,,,,,METAR,665.0
SBMG 090300Z 09008KT CAVOK 20/12 Q1019,SBMG,2023-06-09T03:00:00Z,-23.48,-52.02,20.0,12.0,90,8,,6.21,30.088583,,,,,,,,,,,CAVOK,,,,,,,,VFR,,,,,,,,,,,,METAR,543.0
SBME 090300Z 33002KT CAVOK 16/16 Q1020,SBME,2023-06-09T03:00:00Z,-22.35,-41.77,16.0,16.0,330,2,,6.21,30.11811,,,,,,,,,,,CAVOK,,,,,,,,VFR,,,,,,,,,,,,METAR,2.0
SBMA 090300Z 00000KT CAVOK 24/24 Q1014,SBMA,2023-06-09T03:00:00Z,-5.37,-49.13,24.0,24.0,0,0,,6.21,29.940945,,,,,,,,,,,CAVOK,,,,,,,,VFR,,,,,,,,,,,,METAR,110.0
SBLO 090300Z 21001KT CAVOK 18/13 Q1020,SBLO,2023-06-09T03:00:00Z,-23.33,-51.12,18.0,13.0,210,1,,6.21,30.11811,,,,,,,,,,,CAVOK,,,,,,,,VFR,,,,,,,,,,,,METAR,563.0
SBLE 090300Z AUTO 16002KT 9999 OVC021 21/19 Q1021,SBLE,2023-06-09T03:00:00Z,-12.48,-41.28,21.0,19.0,160,2,,6.21,30.147638,,,TRUE,,,,,,,,OVC,2100,,,,,,,MVFR,,,,,,,,,,,,METAR,495.0
SBKP 090300Z 12008KT CAVOK 16/12 Q1021,SBKP,2023-06-09T03:00:00Z,-23.0,-47.13,16.0,12.0,120,8,,6.21,30.147638,,,,,,,,,,,CAVOK,,,,,,,,VFR,,,,,,,,,,,,METAR,659.0
SBKG 090300Z 15001KT CAVOK 21/20 Q1019,SBKG,2023-06-09T03:00:00Z,-7.27,-35.88,21.0,20.0,150,1,,6.21,30.088583,,,,,,,,,,,CAVOK,,,,,,,,VFR,,,,,,,,,,,,METAR,499.0
SBJU 090300Z 00000KT CAVOK 24/20 Q1020,SBJU,2023-06-09T03:00:00Z,-7.22,-39.27,24.0,20.0,0,0,,6.21,30.11811,,,,,,,,,,,CAVOK,,,,,,,,VFR,,,,,,,,,,,,METAR,407.0
SBJP 090300Z 17007KT 4000 -RA BKN010 24/24 Q1016,SBJP,2023-06-09T03:00:00Z,-7.15,-34.95,24.0,24.0,170,7,,2.49,30.0,,,,,,,,,,-RA,BKN,1000,,,,,,,IFR,,,,,,,,,,,,METAR,66.0
SBGR 090300Z 08005KT CAVOK 14/13 Q1022,SBGR,2023-06-09T03:00:00Z,-23.42,-46.47,14.0,13.0,80,5,,6.21,30.177166,,,,,,,,,,,CAVOK,,,,,,,,VFR,,,,,,,,,,,,METAR,745.0
SBGO 090300Z 13005KT CAVOK 18/14 Q1021,SBGO,2023-06-09T03:00:00Z,-16.62,-49.22,18.0,14.0,130,5,,6.21,30.147638,,,,,,,,,,,CAVOK,,,,,,,,VFR,,,,,,,,,,,,METAR,740.0
SBGL 090300Z 09003KT CAVOK 17/15 Q1020,SBGL,2023-06-09T03:00:00Z,-22.82,-43.25,17.0,15.0,90,3,,6.21,30.11811,,,,,,,,,,,CAVOK,,,,,,,,VFR,,,,,,,,,,,,METAR,3.0
SBFZ 090300Z 10008KT 9999 BKN017 28/25 Q1015,SBFZ,2023-06-09T03:00:00Z,-3.77,-38.52,28.0,25.0,100,8,,6.21,29.970472,,,,,,,,,,,BKN,1700,,,,,,,MVFR,,,,,,,,,,,,METAR,32.0
SBFI 090300Z 10004KT CAVOK 18/15 Q1016,SBFI,2023-06-09T03:00:00Z,-25.6,-54.48,18.0,15.0,100,4,,6.21,30.0,,,,,,,,,,,CAVOK,,,,,,,,VFR,,,,,,,,,,,,METAR,233.0
SBEG 090300Z 01002KT 9999 FEW010 25/25 Q1015,SBEG,2023-06-09T03:00:00Z,-3.03,-60.03,25.0,25.0,10,2,,6.21,29.970472,,,,,,,,,,,FEW,1000,,,,,,,VFR,,,,,,,,,,,,METAR,69.0
SBDN 090300Z 13004KT CAVOK 18/13 Q1019,SBDN,2023-06-09T03:00:00Z,-22.18,-51.43,18.0,13.0,130,4,,6.21,30.088583,,,,,,,,,,,CAVOK,,,,,,,,VFR,,,,,,,,,,,,METAR,438.0
SBCY 090300Z 08001KT CAVOK 23/19 Q1015,SBCY,2023-06-09T03:00:00Z,-15.65,-56.12,23.0,19.0,80,1,,6.21,29.970472,,,,,,,,,,,CAVOK,,,,,,,,VFR,,,,,,,,,,,,METAR,182.0
SBCT 090300Z 05003KT 6000 NSC 11/10 Q1022,SBCT,2023-06-09T03:00:00Z,-25.52,-49.17,11.0,10.0,50,3,,3.73,30.177166,,,,,,,,,,,CLR,,,,,,,,MVFR,,,,,,,,,,,,METAR,914.0
SBCP 090300Z 32002KT CAVOK 18/17 Q1021,SBCP,2023-06-09T03:00:00Z,-21.7,-41.3,18.0,17.0,320,2,,6.21,30.147638,,,,,,,,,,,CAVOK,,,,,,,,VFR,,,,,,,,,,,,METAR,15.0
SBCO 090300Z 00000KT 7000 NSC 14/14 Q1015,SBCO,2023-06-09T03:00:00Z,-29.95,-51.15,14.0,14.0,0,0,,4.35,29.970472,,,,,,,,,,,CLR,,,,,,,,MVFR,,,,,,,,,,,,METAR,8.0
SBCG 090300Z 06007KT CAVOK 16/10 Q1018,SBCG,2023-06-09T03:00:00Z,-20.47,-54.67,16.0,10.0,60,7,,6.21,30.059055,,,,,,,,,,,CAVOK,,,,,,,,VFR,,,,,,,,,,,,METAR,556.0
SBCF 090300Z 14003KT CAVOK 15/11 Q1024,SBCF,2023-06-09T03:00:00Z,-19.63,-43.97,15.0,11.0,140,3,,6.21,30.236221,,,,,,,,,,,CAVOK,,,,,,,,VFR,,,,,,,,,,,,METAR,825.0
SBBR 090300Z 20003KT CAVOK 19/11 Q1023,SBBR,2023-06-09T03:00:00Z,-15.87,-47.92,19.0,11.0,200,3,,6.21,30.206694,,,,,,,,,,,CAVOK,,,,,,,,VFR,,,,,,,,,,,,METAR,1051.0
SBBH 090300Z 10004KT CAVOK 15/09 Q1024,SBBH,2023-06-09T03:00:00Z,-19.85,-43.95,15.0,9.0,100,4,,6.21,30.236221,,,,,,,,,,,CAVOK,,,,,,,,VFR,,,,,,,,,,,,METAR,799.0
SBBE 090300Z 07006KT CAVOK 25/24 Q1014,SBBE,2023-06-09T03:00:00Z,-1.37,-48.47,25.0,24.0,70,6,,6.21,29.940945,,,,,,,,,,,CAVOK,,,,,,,,VFR,,,,,,,,,,,,METAR,16.0
SBAR 090300Z 25002KT 9999 FEW029 23/22 Q1017,SBAR,2023-06-09T03:00:00Z,-10.98,-37.07,23.0,22.0,250,2,,6.21,30.029528,,,,,,,,,,,FEW,2900,,,,,,,VFR,,,,,,,,,,,,METAR,4.0
SBAN 090300Z 09007KT CAVOK 18/12 Q1023,SBAN,2023-06-09T03:00:00Z,-16.22,-48.97,18.0,12.0,90,7,,6.21,30.206694,,,,,,,,,,,CAVOK,,,,,,,,VFR,,,,,,,,,,,,METAR,1131.0
SAZS 090300Z 29022G33KT 9999 SCT020 BKN035 01/M01 Q1006 RMK PP///,SAZS,2023-06-09T03:00:00Z,-41.15,-71.17,1.0,-1.0,290,22,33,6.21,29.704725,,,,,,,,,,,SCT,2000,BKN,3500,,,,,VFR,,,,,,,,,,,,SPECI,843.0
SAZN 090300Z 25011G23KT CAVOK 11/02 Q1007,SAZN,2023-06-09T03:00:00Z,-38.95,-68.15,11.0,2.0,250,11,23,6.21,29.734253,,,,,,,,,,,CAVOK,,,,,,,,VFR,,,,,,,,,,,,METAR,273.0
SAZM 090300Z 32015KT 7000 SCT007 BKN028 BKN200 19/18 Q0999 RMK PP///,SAZM,2023-06-09T03:00:00Z,-37.92,-57.57,19.0,18.0,320,15,,4.35,29.498032,,,,,,,,,,,SCT,700,BKN,2800,BKN,20000,,,MVFR,,,,,,,,,,,,SPECI,17.0
SAWH 090300Z 25013KT CAVOK 02/M02 Q0989 RMK PP000,SAWH,2023-06-09T03:00:00Z,-54.85,-68.3,2.0,-2.0,250,13,,6.21,29.202755,,,,,,,,,,,CAVOK,,,,,,,,VFR,,,,,,,,,,,,METAR,22.0
SAWG 090300Z 23016KT CAVOK 00/M02 Q0991,SAWG,2023-06-09T03:00:00Z,-51.62,-69.27,0.0,-2.0,230,16,,6.21,29.26181,,,,,,,,,,,CAVOK,,,,,,,,VFR,,,,,,,,,,,,METAR,15.0
SAWE 090300Z 24011KT CAVOK M04/M05 Q0990 RMK PP000,SAWE,2023-06-09T03:00:00Z,-53.78,-67.75,-4.0,-5.0,240,11,,6.21,29.232283,,,,,,,,,,,CAVOK,,,,,,,,VFR,,,,,,,,,,,,SPECI,22.0
SAVC 090300Z 25026G37KT CAVOK 06/M05 Q0993 RMK PP000,SAVC,2023-06-09T03:00:00Z,-45.78,-67.47,6.0,-5.0,250,26,37,6.21,29.320866,,,,,,,,,,,CAVOK,,,,,,,,VFR,,,,,,,,,,,,SPECI,58.0
SASJ 090300Z 29005KT 270V330 CAVOK 16/14 Q1013 RMK PP000,SASJ,2023-06-09T03:00:00Z,-24.38,-65.1,16.0,14.0,290,5,,6.21,29.911417,,,,,,,,,,,CAVOK,,,,,,,,VFR,,,,,,,,,,,,SPECI,913.0
SASA 090300Z 26007KT CAVOK 12/10 Q1014 PP000,SASA,2023-06-09T03:00:00Z,-24.85,-65.48,12.0,10.0,260,7,,6.21,29.940945,,,,,,,,,,,CAVOK,,,,,,,,VFR,,,,,,,,,,,,SPECI,1235.0
SARL 090300Z 02005KT CAVOK 19/16 Q1012,SARL,2023-06-09T03:00:00Z,-29.68,-57.15,19.0,16.0,20,5,,6.21,29.88189,,,,,,,,,,,CAVOK,,,,,,,,VFR,,,,,,,,,,,,METAR,70.0
SARI 090300Z 08004KT CAVOK 18/15 Q1016 RMK PP000,SARI,2023-06-09T03:00:00Z,-25.73,-54.47,18.0,15.0,80,4,,6.21,30.0,,,,,,,,,,,CAVOK,,,,,,,,VFR,,,,,,,,,,,,SPECI,268.0
SARF 090300Z 02008KT CAVOK 20/16 Q1012,SARF,2023-06-09T03:00:00Z,-26.22,-58.22,20.0,16.0,20,8,,6.21,29.88189,,,,,,,,,,,CAVOK,,,,,,,,VFR,,,,,,,,,,,,METAR,65.0
SARE 090300Z 02008KT CAVOK 19/16 Q1011 RMK PP///,SARE,2023-06-09T03:00:00Z,-27.43,-59.05,19.0,16.0,20,8,,6.21,29.852362,,,,,,,,,,,CAVOK,,,,,,,,VFR,,,,,,,,,,,,SPECI,52.0
SARC 090300Z 07010KT CAVOK 21/16 Q1011,SARC,2023-06-09T03:00:00Z,-27.43,-58.77,21.0,16.0,70,10,,6.21,29.852362,,,,,,,,,,,CAVOK,,,,,,,,VFR,,,,,,,,,,,,METAR,60.0
SAOC 090300Z 32005KT CAVOK 18/13 Q1002,SAOC,2023-06-09T03:00:00Z,-33.08,-64.27,18.0,13.0,320,5,,6.21,29.586615,,,,,,,,,,,CAVOK,,,,,,,,VFR,,,,,,,,,,,,METAR,422.0
SANT 090300Z 35006KT 5000 BR NSC 15/15 Q1007 RMK PP000,SANT,2023-06-09T03:00:00Z,-26.85,-65.1,15.0,15.0,350,6,,3.11,29.734253,,,,,,,,,,BR,CLR,,,,,,,,MVFR,,,,,,,,,,,,SPECI,446.0
SAME 090300Z 32008KT CAVOK 14/08 Q1004,SAME,2023-06-09T03:00:00Z,-32.82,-68.78,14.0,8.0,320,8,,6.21,29.64567,,,,,,,,,,,CAVOK,,,,,,,,VFR,,,,,,,,,,,,METAR,709.0
SAEZ 090300Z 36012KT CAVOK 22/17 Q1003 NOSIG RMK PP000,SAEZ,2023-06-09T03:00:00Z,-34.82,-58.53,22.0,17.0,360,12,,6.21,29.616142,,,,,,TRUE,,,,,CAVOK,,,,,,,,VFR,,,,,,,,,,,,SPECI,16.0
SADF 090300Z 01009KT CAVOK 21/17 Q1004 RMK PP000,SADF,2023-06-09T03:00:00Z,-34.45,-58.58,21.0,17.0,10,9,,6.21,29.64567,,,,,,,,,,,CAVOK,,,,,,,,VFR,,,,,,,,,,,,METAR,4.0
SACO 090300Z 36005KT CAVOK 15/14 Q1005 NOSIG RMK PP000,SACO,2023-06-09T03:00:00Z,-31.32,-64.22,15.0,14.0,360,5,,6.21,29.675198,,,,,,TRUE,,,,,CAVOK,,,,,,,,VFR,,,,,,,,,,,,SPECI,474.0
SABE 090300Z 34009KT CAVOK 21/18 Q1004 NOSIG RMK PP000,SABE,2023-06-09T03:00:00Z,-34.57,-58.42,21.0,18.0,340,9,,6.21,29.64567,,,,,,TRUE,,,,,CAVOK,,,,,,,,VFR,,,,,,,,,,,,SPECI,3.0
SAAR 090300Z 02012KT CAVOK 22/18 Q1004 RMK PP000,SAAR,2023-06-09T03:00:00Z,-32.92,-60.77,22.0,18.0,20,12,,6.21,29.64567,,,,,,,,,,,CAVOK,,,,,,,,VFR,,,,,,,,,,,,SPECI,24.0
RPVP 090300Z 30010KT 9999 FEW019 BKN080 31/25 Q1008 RMK A2977,RPVP,2023-06-09T03:00:00Z,9.75,118.75,31.0,25.0,300,10,,6.21,29.763779,,,,,,,,,,,FEW,1900,BKN,8000,,,,,VFR,,,,,,,,,,,,METAR,15.0
RPVM 090300Z 19011KT 150V210 9999 FEW020 SCT300 33/24 Q1008 NOSIG RMK A2977,RPVM,2023-06-09T03:00:00Z,10.32,123.98,33.0,24.0,190,11,,6.21,29.763779,,,,,,TRUE,,,,,FEW,2000,SCT,30000,,,,,VFR,,,,,,,,,,,,METAR,9.0
RPVD 090300Z 22004KT 9999 VCSH FEW014CB SCT015 28/25 Q1008 RETS RMK A2977 CB/VCSH SE-NW,RPVD,2023-06-09T03:00:00Z,9.33,123.3,28.0,25.0,220,4,,6.21,29.763779,,,,,,,,,,VCSH,FEW,1400,SCT,1500,,,,,VFR,,,,,,,,,,,,METAR,11.0
RPMZ 090300Z 26009KT 230V300 9999 FEW017TCU 32/24 Q1009 RMK A2980 TCU S,RPMZ,2023-06-09T03:00:00Z,6.92,122.07,32.0,24.0,260,9,,6.21,29.793306,,,,,,,,,,,FEW,1700,,,,,,,VFR,,,,,,,,,,,,METAR,8.0
RPMR 090300Z 11007KT 080V150 9999 FEW018 30/23 Q1009 RMK A2980,RPMR,2023-06-09T03:00:00Z,6.05,125.1,30.0,23.0,110,7,,6.21,29.793306,,,,,,,,,,,FEW,1800,,,,,,,VFR,,,,,,,,,,,,METAR,47.0
RPMD 090300Z 05006KT 010V100 9999 FEW020 32/25 Q1008 RMK A2977,RPMD,2023-06-09T03:00:00Z,7.12,125.65,32.0,25.0,50,6,,6.21,29.763779,,,,,,,,,,,FEW,2000,,,,,,,VFR,,,,,,,,,,,,METAR,19.0
RPLL 090300Z 27014KT 9999 FEW025 31/26 Q1007 NOSIG RMK A2974,RPLL,2023-06-09T03:00:00Z,14.52,121.0,31.0,26.0,270,14,,6.21,29.734253,,,,,,TRUE,,,,,FEW,2500,,,,,,,VFR,,,,,,,,,,,,METAR,15.0
RPLI 090300Z 23008KT 200V270 9999 FEW017CB SCT018 32/26 Q1007 NOSIG RMK A2974 CB SW,RPLI,2023-06-09T03:00:00Z,18.17,120.52,32.0,26.0,230,8,,6.21,29.734253,,,,,,TRUE,,,,,FEW,1700,SCT,1800,,,,,VFR,,,,,,,,,,,,METAR,5.0
RPLC 090300Z 18008KT 8000 SCT020 BKN300 33/26 Q1008 NOSIG RMK A2977,RPLC,2023-06-09T03:00:00Z,15.18,120.55,33.0,26.0,180,8,,4.97,29.763779,,,,,,TRUE,,,,,SCT,2000,BKN,30000,,,,,MVFR,,,,,,,,,,,,METAR,138.0
RPLB 090300Z 24009KT 9999 SCT018 31/26 Q1008 NOSIG RMK A2977,RPLB,2023-06-09T03:00:00Z,14.8,120.27,31.0,26.0,240,9,,6.21,29.763779,,,,,,TRUE,,,,,SCT,1800,,,,,,,VFR,,,,,,,,,,,,METAR,19.0
ROYN 090300Z AUTO 18013KT 9999 FEW016 SCT029 BKN050 29/25 Q1006,ROYN,2023-06-09T03:00:00Z,24.47,122.97,29.0,25.0,180,13,,6.21,29.704725,,,TRUE,,,,,,,,FEW,1600,SCT,2900,BKN,5000,,,VFR,,,,,,,,,,,,METAR,21.0
RORY 090300Z AUTO 18007KT 9999 FEW016 SCT160 28/26 Q1007,RORY,2023-06-09T03:00:00Z,27.05,128.4,28.0,26.0,180,7,,6.21,29.734253,,,TRUE,,,,,,,,FEW,1600,SCT,16000,,,,,VFR,,,,,,,,,,,,METAR,13.0
RORT 090300Z AUTO 19010KT 9999 FEW013 29/25 Q1007,RORT,2023-06-09T03:00:00Z,24.63,124.7,29.0,25.0,190,10,,6.21,29.734253,,,TRUE,,,,,,,,FEW,1300,,,,,,,VFR,,,,,,,,,,,,METAR,9.0
RORS 090300Z 22006KT 160V280 9999 FEW012 BKN/// 29/25 Q1006,RORS,2023-06-09T03:00:00Z,24.82,125.15,29.0,25.0,220,6,,6.21,29.704725,,,,,,,,,,,FEW,1200,,,,,,,VFR,,,,,,,,,,,,METAR,13.0
RORK 090300Z AUTO 15006KT 9000 FEW009 SCT020 29/26 Q1008,RORK,2023-06-09T03:00:00Z,25.93,131.32,29.0,26.0,150,6,,5.59,29.763779,,,TRUE,,,,,,,,FEW,900,SCT,2000,,,,,VFR,,,,,,,,,,,,METAR,11.0
ROMY 090300Z 23010KT 9999 SCT016 BKN/// 29/25 Q1007,ROMY,2023-06-09T03:00:00Z,24.78,125.27,29.0,25.0,230,10,,6.21,29.734253,,,,,,,,,,,SCT,1600,,,,,,,VFR,,,,,,,,,,,,METAR,38.0
ROMD 090300Z AUTO 15007KT 100V180 9999 NCD 29/27 Q1009,ROMD,2023-06-09T03:00:00Z,25.83,131.25,29.0,27.0,150,7,,6.21,29.793306,,,TRUE,,,,,,,,CLR,,,,,,,,VFR,,,,,,,,,,,,METAR,45.0
ROIG 090300Z 21010KT 9999 FEW014 BKN/// 28/25 Q1006,ROIG,2023-06-09T03:00:00Z,24.38,124.23,28.0,25.0,210,10,,6.21,29.704725,,,,,,,,,,,FEW,1400,,,,,,,VFR,,,,,,,,,,,,METAR,37.0
RKTU 090300Z 20004KT 9999 FEW040 27/14 Q1005,RKTU,2023-06-09T03:00:00Z,36.7,127.5,27.0,14.0,200,4,,6.21,29.675198,,,,,,,,,,,FEW,4000,,,,,,,VFR,,,,,,,,,,,,METAR,46.0
RKTN 090300Z 32008KT 9999 FEW050 28/13 Q1004,RKTN,2023-06-09T03:00:00Z,35.88,128.65,28.0,13.0,320,8,,6.21,29.64567,,,,,,,,,,,FEW,5000,,,,,,,VFR,,,,,,,,,,,,METAR,25.0
RKSS 090300Z 30009KT 260V330 9999 SCT030 25/18 Q1005 NOSIG,RKSS,2023-06-09T03:00:00Z,37.55,126.78,25.0,18.0,300,9,,6.21,29.675198,,,,,,TRUE,,,,,SCT,3000,,,,,,,VFR,,,,,,,,,,,,METAR,18.0
RKSM 090300Z 28005KT 9999 FEW040 FEW200 26/14 A2966,RKSM,2023-06-09T03:00:00Z,37.43,127.12,26.0,14.0,280,5,,6.21,29.660433,,,,,,,,,,,FEW,4000,FEW,20000,,,,,VFR,,,,,,,,,,,,METAR,18.0
RKPK 090300Z 19011KT 9999 FEW030 25/17 Q1004,RKPK,2023-06-09T03:00:00Z,35.17,128.93,25.0,17.0,190,11,,6.21,29.64567,,,,,,,,,,,FEW,3000,,,,,,,VFR,,,,,,,,,,,,METAR,3.0
RKPC 090300Z 31006KT 230V360 CAVOK 23/19 Q1006 NOSIG,RKPC,2023-06-09T03:00:00Z,33.5,126.48,23.0,19.0,310,6,,6.21,29.704725,,,,,,TRUE,,,,,CAVOK,,,,,,,,VFR,,,,,,,,,,,,METAR,23.0
RKNY 090300Z 12008KT 070V170 9999 FEW070 19/15 Q1003 NOSIG,RKNY,2023-06-09T03:00:00Z,38.07,128.67,19.0,15.0,120,8,,6.21,29.616142,,,,,,TRUE,,,,,FEW,7000,,,,,,,VFR,,,,,,,,,,,,METAR,76.0
RKJB 090300Z 29003KT 290V080 9000 NSC 26/18 Q1005 NOSIG,RKJB,2023-06-09T03:00:00Z,34.98,126.38,26.0,18.0,290,3,,5.59,29.675198,,,,,,TRUE,,,,,CLR,,,,,,,,VFR,,,,,,,,,,,,METAR,16.0
RJTO 090300Z 22018G28KT 9999 -SHRA FEW005 SCT020 BKN150 22/21 Q1004,RJTO,2023-06-09T03:00:00Z,34.77,139.37,22.0,21.0,220,18,28,6.21,29.64567,,,,,,,,,,-SHRA,FEW,500,SCT,2000,BKN,15000,,,VFR,,,,,,,,,,,,METAR,37.0
RJTI 090300Z 30006KT 240V360 6000 -SHRA FEW005 BKN010 21/20 Q1002,RJTI,2023-06-09T03:00:00Z,35.63,139.83,21.0,20.0,300,6,,3.73,29.586615,,,,,,,,,,-SHRA,FEW,500,BKN,1000,,,,,MVFR,,,,,,,,,,,,METAR,4.0
RJTF 090300Z 35004KT 310V030 4000 -SHRA BR FEW005 BKN006 BKN008 20/19 Q1003,RJTF,2023-06-09T03:00:00Z,35.67,139.52,20.0,19.0,350,4,,2.49,29.616142,,,,,,,,,,-SHRA BR,FEW,500,BKN,600,BKN,800,,,IFR,,,,,,,,,,,,METAR,37.0
RJSY 090300Z 10017KT 9999 FEW015 SCT050 BKN070 22/16 Q1003,RJSY,2023-06-09T03:00:00Z,38.82,139.78,22.0,16.0,100,17,,6.21,29.616142,,,,,,,,,,,FEW,1500,SCT,5000,BKN,7000,,,VFR,,,,,,,,,,,,METAR,17.0
RJSS 090300Z 07017G27KT 2500 -RA BR FEW004 BKN006 BKN010 18/17 Q1006,RJSS,2023-06-09T03:00:00Z,38.13,140.92,18.0,17.0,70,17,27,1.55,29.704725,,,,,,,,,,-RA BR,FEW,400,BKN,600,BKN,1000,,,IFR,,,,,,,,,,,,METAR,5.0
RJSR 090300Z 04005KT 360V090 9999 -RA FEW010 SCT040 BKN060 21/17 Q1004,RJSR,2023-06-09T03:00:00Z,40.18,140.37,21.0,17.0,40,5,,6.21,29.64567,,,,,,,,,,-RA,FEW,1000,SCT,4000,BKN,6000,,,VFR,,,,,,,,,,,,METAR,83.0
RJSN 090300Z 18013KT 9999 VCSH FEW020 SCT040 BKN060 24/18 Q1003,RJSN,2023-06-09T03:00:00Z,37.95,139.12,24.0,18.0,180,13,,6.21,29.616142,,,,,,,,,,VCSH,FEW,2000,SCT,4000,BKN,6000,,,VFR,,,,,,,,,,,,METAR,4.0
RJSM 090300Z 11017KT 9999 -RA FEW002 BKN003 BKN050 17/15 Q1008,RJSM,2023-06-09T03:00:00Z,40.7,141.37,17.0,15.0,110,17,,6.21,29.763779,,,,,,,,,,-RA,FEW,200,BKN,300,BKN,5000,,,LIFR,,,,,,,,,,,,METAR,31.0
RJSK 090300Z 12017G29KT 090V150 9999 -RA FEW015 BKN050 BKN060 21/15 Q1004,RJSK,2023-06-09T03:00:00Z,39.62,140.22,21.0,15.0,120,17,29,6.21,29.64567,,,,,,,,,,-RA,FEW,1500,BKN,5000,BKN,6000,,,VFR,,,,,,,,,,,,METAR,95.0
RJSI 090300Z 19006KT 150V220 9999 -RA FEW005 SCT025 BKN030 18/17 Q1007,RJSI,2023-06-09T03:00:00Z,39.42,141.13,18.0,17.0,190,6,,6.21,29.734253,,,,,,,,,,-RA,FEW,500,SCT,2500,BKN,3000,,,MVFR,,,,,,,,,,,,METAR,89.0
RJSF 090300Z 35012KT 1500 R01/P2000N -SHRA BCFG BR FEW001 SCT002 BKN004 17/17 Q1005,RJSF,2023-06-09T03:00:00Z,37.22,140.42,17.0,17.0,350,12,,0.93,29.675198,,,,,,,,,,-SHRA BCFG BR,FEW,100,SCT,200,BKN,400,,,LIFR,,,,,,,,,,,,METAR,373.0
RJSC 090300Z 04006KT 9999 FEW010 SCT020 BKN030 20/16 Q1005,RJSC,2023-06-09T03:00:00Z,38.42,140.37,20.0,16.0,40,6,,6.21,29.675198,,,,,,,,,,,FEW,1000,SCT,2000,BKN,3000,,,MVFR,,,,,,,,,,,,METAR,104.0
RJSA 090300Z 14009KT 080V180 9999 FEW008 BKN035 BKN070 20/14 Q1005,RJSA,2023-06-09T03:00:00Z,40.72,140.68,20.0,14.0,140,9,,6.21,29.675198,,,,,,,,,,,FEW,800,BKN,3500,BKN,7000,,,VFR,,,,,,,,,,,,METAR,196.0
RJOY 090300Z 25007KT 180V300 9999 FEW015 SCT020 BKN/// 24/19 Q1006,RJOY,2023-06-09T03:00:00Z,34.6,135.6,24.0,19.0,250,7,,6.21,29.704725,,,,,,,,,,,FEW,1500,SCT,2000,,,,,VFR,,,,,,,,,,,,METAR,10.0
RJOW 090300Z 30008KT 9999 FEW020 SCT160 BKN/// 23/18 Q1006,RJOW,2023-06-09T03:00:00Z,34.67,131.8,23.0,18.0,300,8,,6.21,29.704725,,,,,,,,,,,FEW,2000,SCT,16000,,,,,VFR,,,,,,,,,,,,METAR,54.0
RJOT 090300Z 30005KT 250V010 9999 FEW020 BKN/// 24/18 Q1006,RJOT,2023-06-09T03:00:00Z,34.22,134.02,24.0,18.0,300,5,,6.21,29.704725,,,,,,,,,,,FEW,2000,,,,,,,VFR,,,,,,,,,,,,METAR,181.0
RJOS 090300Z 03009KT 9999 FEW020 SCT030 BKN/// 25/17 Q1006,RJOS,2023-06-09T03:00:00Z,34.12,134.62,25.0,17.0,30,9,,6.21,29.704725,,,,,,,,,,,FEW,2000,SCT,3000,,,,,VFR,,,,,,,,,,,,METAR,3.0
RJOR 090300Z 33005KT 9999 FEW030 BKN/// 22/18 Q1005,RJOR,2023-06-09T03:00:00Z,35.52,134.17,22.0,18.0,330,5,,6.21,29.675198,,,,,,,,,,,FEW,3000,,,,,,,VFR,,,,,,,,,,,,METAR,11.0
RJOO 090300Z 21005KT 140V300 9999 FEW015 SCT025 BKN/// 24/19 Q1006,RJOO,2023-06-09T03:00:00Z,34.78,135.43,24.0,19.0,210,5,,6.21,29.704725,,,,,,,,,,,FEW,1500,SCT,2500,,,,,VFR,,,,,,,,,,,,METAR,11.0
RJOM 090300Z 29006KT 260V350 9999 FEW015 BKN/// 21/19 Q1006,RJOM,2023-06-09T03:00:00Z,33.82,132.68,21.0,19.0,290,6,,6.21,29.704725,,,,,,,,,,,FEW,1500,,,,,,,VFR,,,,,,,,,,,,METAR,3.0
RJOK 090300Z 13006KT 9999 FEW010 BKN/// 23/21 Q1005,RJOK,2023-06-09T03:00:00Z,33.53,133.67,23.0,21.0,130,6,,6.21,29.675198,,,,,,,,,,,FEW,1000,,,,,,,VFR,,,,,,,,,,,,METAR,7.0
RJOH 090300Z 20004KT 160V250 9999 FEW020 SCT040 BKN250 24/18 Q1005,RJOH,2023-06-09T03:00:00Z,35.48,133.25,24.0,18.0,200,4,,6.21,29.675198,,,,,,,,,,,FEW,2000,SCT,4000,BKN,25000,,,VFR,,,,,,,,,,,,METAR,6.0
RJOC 090300Z 26010KT 9999 FEW015 BKN/// 23/18 Q1005,RJOC,2023-06-09T03:00:00Z,35.42,132.88,23.0,18.0,260,10,,6.21,29.675198,,,,,,,,,,,FEW,1500,,,,,,,VFR,,,,,,,,,,,,METAR,2.0
RJOB 090300Z 23006KT 180V290 9999 FEW015 SCT025 BKN/// 24/19 Q1006,RJOB,2023-06-09T03:00:00Z,34.75,133.85,24.0,19.0,230,6,,6.21,29.704725,,,,,,,,,,,FEW,1500,SCT,2500,,,,,VFR,,,,,,,,,,,,METAR,242.0
RJOA 090300Z 21003KT 150V280 9999 FEW020 BKN/// 21/17 Q1007,RJOA,2023-06-09T03:00:00Z,34.43,132.92,21.0,17.0,210,3,,6.21,29.734253,,,,,,,,,,,FEW,2000,,,,,,,VFR,,,,,,,,,,,,METAR,318.0
RJNW 090300Z 24010KT 9999 -SHRA FEW003 SCT005 BKN007 19/19 Q1005,RJNW,2023-06-09T03:00:00Z,37.3,136.97,19.0,19.0,240,10,,6.21,29.675198,,,,,,,,,,-SHRA,FEW,300,SCT,500,BKN,700,,,IFR,,,,,,,,,,,,METAR,222.0
RJNT 090300Z 28010KT 240V330 9999 FEW005 SCT015 BKN060 24/19 Q1004,RJNT,2023-06-09T03:00:00Z,36.63,137.18,24.0,19.0,280,10,,6.21,29.64567,,,,,,,,,,,FEW,500,SCT,1500,BKN,6000,,,VFR,,,,,,,,,,,,METAR,30.0
RJNS 090300Z 23011KT 9999 FEW005 SCT007 BKN040 22/21 Q1005,RJNS,2023-06-09T03:00:00Z,34.8,138.18,22.0,21.0,230,11,,6.21,29.675198,,,,,,,,,,,FEW,500,SCT,700,BKN,4000,,,VFR,,,,,,,,,,,,METAR,133.0
RJNK 090300Z 24015KT 9999 FEW008 BKN010 BKN030 22/19 Q1005,RJNK,2023-06-09T03:00:00Z,36.38,136.42,22.0,19.0,240,15,,6.21,29.675198,,,,,,,,,,,FEW,800,BKN,1000,BKN,3000,,,MVFR,,,,,,,,,,,,METAR,7.0
RJKI 090300Z AUTO 22008KT 190V250 9999 FEW005 BKN100 OVC110 26/25 Q1007,RJKI,2023-06-09T03:00:00Z,28.32,129.92,26.0,25.0,220,8,,6.21,29.734253,,,TRUE,,,,,,,,FEW,500,BKN,10000,OVC,11000,,,VFR,,,,,,,,,,,,METAR,6.0
RJKA 090300Z 21011KT 9999 FEW008 SCT100 BKN120 27/25 Q1007,RJKA,2023-06-09T03:00:00Z,28.42,129.72,27.0,25.0,210,11,,6.21,29.734253,,,,,,,,,,,FEW,800,SCT,10000,BKN,12000,,,VFR,,,,,,,,,,,,METAR,7.0
RJFU 090300Z 30004KT 280V060 9999 FEW025 BKN/// 24/19 Q1006,RJFU,2023-06-09T03:00:00Z,32.92,129.92,24.0,19.0,300,4,,6.21,29.704725,,,,,,,,,,,FEW,2500,,,,,,,VFR,,,,,,,,,,,,METAR,2.0
RJFT 090300Z VRB03KT 9999 FEW015 BKN/// 24/18 Q1007,RJFT,2023-06-09T03:00:00Z,32.83,130.85,24.0,18.0,0,3,,6.21,29.734253,,,,,,,,,,,FEW,1500,,,,,,,VFR,,,,,,,,,,,,METAR,188.0
RJFS 090300Z 21005KT 170V240 9999 FEW030 BKN/// 22/19 Q1006,RJFS,2023-06-09T03:00:00Z,33.15,130.3,22.0,19.0,210,5,,6.21,29.704725,,,,,,,,,,,FEW,3000,,,,,,,VFR,,,,,,,,,,,,METAR,2.0
RJFR 090300Z 10005KT 9999 FEW015 BKN/// 22/18 Q1006,RJFR,2023-06-09T03:00:00Z,33.83,131.03,22.0,18.0,100,5,,6.21,29.704725,,,,,,,,,,,FEW,1500,,,,,,,VFR,,,,,,,,,,,,METAR,9.0
RJFO 090300Z 09005KT 9999 FEW015 BKN/// 21/18 Q1006,RJFO,2023-06-09T03:00:00Z,33.47,131.73,21.0,18.0,90,5,,6.21,29.704725,,,,,,,,,,,FEW,1500,,,,,,,VFR,,,,,,,,,,,,METAR,3.0
RJFM 090300Z 06007KT 9999 FEW010 SCT190 BKN/// 23/20 Q1006,RJFM,2023-06-09T03:00:00Z,31.87,131.43,23.0,20.0,60,7,,6.21,29.704725,,,,,,,,,,,FEW,1000,SCT,19000,,,,,VFR,,,,,,,,,,,,METAR,10.0
RJFK 090300Z 15003KT 090V200 9999 FEW015 BKN/// 23/19 Q1008,RJFK,2023-06-09T03:00:00Z,31.8,130.72,23.0,19.0,150,3,,6.21,29.763779,,,,,,,,,,,FEW,1500,,,,,,,VFR,,,,,,,,,,,,METAR,271.0
RJFG 090300Z 27005KT 240V300 9999 -RA FEW015 SCT100 BKN130 22/21 Q1007,RJFG,2023-06-09T03:00:00Z,30.62,130.98,22.0,21.0,270,5,,6.21,29.734253,,,,,,,,,,-RA,FEW,1500,SCT,10000,BKN,13000,,,VFR,,,,,,,,,,,,METAR,234.0
RJFE 090300Z 16008KT 130V190 9999 FEW010 SCT020 BKN/// 23/20 Q1007,RJFE,2023-06-09T03:00:00Z,32.67,128.82,23.0,20.0,160,8,,6.21,29.734253,,,,,,,,,,,FEW,1000,SCT,2000,,,,,VFR,,,,,,,,,,,,METAR,80.0
RJEC 090300Z 19008KT 9999 FEW020 SCT080 BKN/// 19/14 Q1011,RJEC,2023-06-09T03:00:00Z,43.67,142.43,19.0,14.0,190,8,,6.21,29.852362,,,,,,,,,,,FEW,2000,SCT,8000,,,,,VFR,,,,,,,,,,,,METAR,209.0
RJEB 090300Z 35008KT 9999 FEW002 SCT007 BKN015 13/13 Q1013,RJEB,2023-06-09T03:00:00Z,44.3,143.4,13.0,13.0,350,8,,6.21,29.911417,,,,,,,,,,,FEW,200,SCT,700,BKN,1500,,,MVFR,,,,,,,,,,,,METAR,24.0
RJDT 090300Z VRB04KT 9999 SCT020 BKN/// 26/20 Q1005,RJDT,2023-06-09T03:00:00Z,34.28,129.32,26.0,20.0,0,4,,6.21,29.675198,,,,,,,,,,,SCT,2000,,,,,,,VFR,,,,,,,,,,,,METAR,61.0
RJDC 090300Z 15005KT 9999 FEW025 BKN/// 23/18 Q1006,RJDC,2023-06-09T03:00:00Z,33.92,131.27,23.0,18.0,150,5,,6.21,29.704725,,,,,,,,,,,FEW,2500,,,,,,,VFR,,,,,,,,,,,,METAR,5.0
RJDB 090300Z AUTO 21007KT 180V250 9999 NSC 23/19 Q1006,RJDB,2023-06-09T03:00:00Z,33.75,129.78,23.0,19.0,210,7,,6.21,29.704725,,,TRUE,,,,,,,,CLR,,,,,,,,VFR,,,,,,,,,,,,METAR,13.0
RJCW 090300Z 11013G23KT 080V140 7000 PRFG FEW001 BKN003 BKN004 11/09 Q1012,RJCW,2023-06-09T03:00:00Z,45.4,141.8,11.0,9.0,110,13,23,4.35,29.88189,,,,,,,,,,PRFG,FEW,100,BKN,300,BKN,400,,,LIFR,,,,,,,,,,,,METAR,11.0
RJCO 090300Z 14013KT 9999 -SHRA FEW007 BKN012 BKN040 18/17 Q1012,RJCO,2023-06-09T03:00:00Z,43.12,141.37,18.0,17.0,140,13,,6.21,29.88189,,,,,,,,,,-SHRA,FEW,700,BKN,1200,BKN,4000,,,MVFR,,,,,,,,,,,,METAR,7.0
RJCN 090300Z 03007KT 2000 BR FEW001 BKN002 BKN003 14/14 Q1016,RJCN,2023-06-09T03:00:00Z,43.57,144.97,14.0,14.0,30,7,,1.24,30.0,,,,,,,,,,BR,FEW,100,BKN,200,BKN,300,,,LIFR,,,,,,,,,,,,METAR,62.0
RJCM 090300Z 16016KT 9999 FEW015 SCT050 BKN060 19/14 Q1014,RJCM,2023-06-09T03:00:00Z,43.88,144.17,19.0,14.0,160,16,,6.21,29.940945,,,,,,,,,,,FEW,1500,SCT,5000,BKN,6000,,,VFR,,,,,,,,,,,,METAR,30.0
RJCK 090300Z 14008KT 3200 BR FEW002 BKN003 BKN004 15/15 Q1015,RJCK,2023-06-09T03:00:00Z,43.03,144.18,15.0,15.0,140,8,,1.99,29.970472,,,,,,,,,,BR,FEW,200,BKN,300,BKN,400,,,LIFR,,,,,,,,,,,,METAR,94.0
RJCH 090300Z 11018KT 9999 -SHRA FEW006 BKN012 BKN090 18/16 Q1008,RJCH,2023-06-09T03:00:00Z,41.77,140.82,18.0,16.0,110,18,,6.21,29.763779,,,,,,,,,,-SHRA,FEW,600,BKN,1200,BKN,9000,,,MVFR,,,,,,,,,,,,METAR,36.0
RJCB 090300Z 15012KT 9999 FEW006 SCT009 BKN020 16/14 Q1014,RJCB,2023-06-09T03:00:00Z,42.72,143.22,16.0,14.0,150,12,,6.21,29.940945,,,,,,,,,,,FEW,600,SCT,900,BKN,2000,,,MVFR,,,,,,,,,,,,METAR,149.0
RJBT 090300Z VRB03KT 9999 FEW010 BKN/// 24/17 Q1005,RJBT,2023-06-09T03:00:00Z,35.5,134.8,24.0,17.0,0,3,,6.21,29.675198,,,,,,,,,,,FEW,1000,,,,,,,VFR,,,,,,,,,,,,METAR,172.0
RJBE 090300Z 27010KT 9999 FEW020 BKN/// 24/19 Q1006,RJBE,2023-06-09T03:00:00Z,34.63,135.23,24.0,19.0,270,10,,6.21,29.704725,,,,,,,,,,,FEW,2000,,,,,,,VFR,,,,,,,,,,,,METAR,5.0
RJBD 090300Z 31005KT 9999 FEW025 SCT180 BKN/// 23/18 Q1006,RJBD,2023-06-09T03:00:00Z,33.67,135.37,23.0,18.0,310,5,,6.21,29.704725,,,,,,,,,,,FEW,2500,SCT,18000,,,,,VFR,,,,,,,,,,,,METAR,91.0
RJAW 090300Z 12010KT 090V150 9999 VCSH SCT020 29/23 Q1011 RMK 3CU020 A2986 WIND BY EQPT/25,RJAW,2023-06-09T03:00:00Z,24.78,141.32,29.0,23.0,120,10,,6.21,29.852362,,,,,,,,,,VCSH,SCT,2000,,,,,,,VFR,,,,,,,,,,,,METAR,116.0
RJAH 090300Z 21007KT 180V240 7000 -SHRA FEW004 BKN006 BKN015 22/22 Q1002,RJAH,2023-06-09T03:00:00Z,36.17,140.42,22.0,22.0,210,7,,4.35,29.586615,,,,,,,,,,-SHRA,FEW,400,BKN,600,BKN,1500,,,IFR,,,,,,,,,,,,METAR,31.0
RJAF 090300Z 35006KT 9999 FEW015 SCT035 BKN/// 21/18 Q1005,RJAF,2023-06-09T03:00:00Z,36.17,137.92,21.0,18.0,350,6,,6.21,29.675198,,,,,,,,,,,FEW,1500,SCT,3500,,,,,VFR,,,,,,,,,,,,METAR,652.0
PLCH 090300Z 12007KT 9999 SCT018TCU 29/25 Q1007,PLCH,2023-06-09T03:00:00Z,1.98,-157.35,29.0,25.0,120,7,,6.21,29.734253,,,,,,,,,,,SCT,1800,,,,,,,VFR,,,,,,,,,,,,METAR,5.0
PHLI 090300Z 05009KT 10SM FEW021 SCT027 BKN045 27/21 A3007 RMK AO2 T02670211,PHLI,2023-06-09T03:00:00Z,21.97,-159.33,26.7,21.1,50,9,,10.0,30.070866,,,,TRUE,,,,,,,FEW,2100,SCT,2700,BKN,4500,,,VFR,,,,,,,,,,,,SPECI,32.0
OTHH 090300Z VRB02KT CAVOK 33/17 Q1002 NOSIG,OTHH,2023-06-09T03:00:00Z,25.27,51.6,33.0,17.0,0,2,,6.21,29.586615,,,,,,TRUE,,,,,CAVOK,,,,,,,,VFR,,,,,,,,,,,,METAR,3.0
OSLK 090300Z VRB03KT CAVOK 19/14 Q1008,OSLK,2023-06-09T03:00:00Z,35.4,35.95,19.0,14.0,0,3,,6.21,29.763779,,,,,,,,,,,CAVOK,,,,,,,,VFR,,,,,,,,,,,,METAR,47.0
OSDI 090300Z 29002KT CAVOK 18/04 Q1010,OSDI,2023-06-09T03:00:00Z,33.42,36.52,18.0,4.0,290,2,,6.21,29.822834,,,,,,,,,,,CAVOK,,,,,,,,VFR,,,,,,,,,,,,METAR,614.0
ORSU 090300Z 05015KT CAVOK 26/06 Q1014,ORSU,2023-06-09T03:00:00Z,35.57,45.32,26.0,6.0,50,15,,6.21,29.940945,,,,,,,,,,,CAVOK,,,,,,,,VFR,,,,,,,,,,,,METAR,760.0
ORNI 090300Z 25005KT 8000 NSC 28/13 Q1005,ORNI,2023-06-09T03:00:00Z,31.98,44.4,28.0,13.0,250,5,,4.97,29.675198,,,,,,,,,,,CLR,,,,,,,,MVFR,,,,,,,,,,,,METAR,33.0
ORMM 090300Z 27006KT CAVOK 29/13 Q1003 NOSIG,ORMM,2023-06-09T03:00:00Z,30.53,47.67,29.0,13.0,270,6,,6.21,29.616142,,,,,,TRUE,,,,,CAVOK,,,,,,,,VFR,,,,,,,,,,,,METAR,2.0
ORER 090300Z 35003KT 9000 NSC 29/05 Q1010,ORER,2023-06-09T03:00:00Z,36.23,43.97,29.0,5.0,350,3,,5.59,29.822834,,,,,,,,,,,CLR,,,,,,,,VFR,,,,,,,,,,,,METAR,399.0
ORBI 090300Z 31002KT CAVOK 28/11 Q1005 NOSIG,ORBI,2023-06-09T03:00:00Z,33.27,44.23,28.0,11.0,310,2,,6.21,29.675198,,,,,,TRUE,,,,,CAVOK,,,,,,,,VFR,,,,,,,,,,,,METAR,37.0
OPST 090300Z 09006KT 4000 FU NSC 30/21 Q1003 NOSIG RH59,OPST,2023-06-09T03:00:00Z,32.53,74.37,30.0,21.0,90,6,,2.49,29.616142,,,,,,TRUE,,,,FU,CLR,,,,,,,,IFR,,,,,,,,,,,,METAR,234.0
OPSK 090300Z 13010KT 4000 HZ NSC 31/24 Q1000 NOSIG,OPSK,2023-06-09T03:00:00Z,27.72,68.8,31.0,24.0,130,10,,2.49,29.52756,,,,,,TRUE,,,,HZ,CLR,,,,,,,,IFR,,,,,,,,,,,,METAR,62.0
OPNH 090300Z 18012KT 7000 NSC 31/25 Q1000,OPNH,2023-06-09T03:00:00Z,26.22,68.38,31.0,25.0,180,12,,4.35,29.52756,,,,,,,,,,,CLR,,,,,,,,MVFR,,,,,,,,,,,,METAR,30.0
OPFA 090300Z 00000KT 5000 FU NSC 33/21 Q1002 NOSIG,OPFA,2023-06-09T03:00:00Z,31.37,73.0,33.0,21.0,0,0,,3.11,29.586615,,,,,,TRUE,,,,FU,CLR,,,,,,,,MVFR,,,,,,,,,,,,METAR,180.0
OMSJ 090300Z VRB03KT CAVOK 30/14 Q1002 NOSIG,OMSJ,2023-06-09T03:00:00Z,25.32,55.52,30.0,14.0,0,3,,6.21,29.586615,,,,,,TRUE,,,,,CAVOK,,,,,,,,VFR,,,,,,,,,,,,METAR,33.0
OMRK 090300Z VRB01KT 110V210 CAVOK 30/17 Q1002 A2961,OMRK,2023-06-09T03:00:00Z,25.62,55.93,30.0,17.0,0,1,,6.21,29.586615,,,,,,,,,,,CAVOK,,,,,,,,VFR,,,,,,,,,,,,METAR,18.0
OMFJ 090300Z 02011KT 7000 NSC 29/23 Q1002 A2959,OMFJ,2023-06-09T03:00:00Z,25.1,56.32,29.0,23.0,20,11,,4.35,29.586615,,,,,,,,,,,CLR,,,,,,,,MVFR,,,,,,,,,,,,METAR,27.0
OMDW 090300Z 18009KT CAVOK 30/14 Q1003 NOSIG,OMDW,2023-06-09T03:00:00Z,24.9,55.17,30.0,14.0,180,9,,6.21,29.616142,,,,,,TRUE,,,,,CAVOK,,,,,,,,VFR,,,,,,,,,,,,METAR,34.0
OMDB 090300Z 19006KT CAVOK 31/16 Q1002 NOSIG,OMDB,2023-06-09T03:00:00Z,25.25,55.37,31.0,16.0,190,6,,6.21,29.586615,,,,,,TRUE,,,,,CAVOK,,,,,,,,VFR,,,,,,,,,,,,METAR,5.0
OMAL 090300Z 10005KT CAVOK 32/12 Q1004 NOSIG,OMAL,2023-06-09T03:00:00Z,24.25,55.6,32.0,12.0,100,5,,6.21,29.64567,,,,,,TRUE,,,,,CAVOK,,,,,,,,VFR,,,,,,,,,,,,METAR,247.0
OMAD 090300Z 16004KT 110V230 CAVOK 32/13 Q1002 NOSIG,OMAD,2023-06-09T03:00:00Z,24.42,54.47,32.0,13.0,160,4,,6.21,29.586615,,,,,,TRUE,,,,,CAVOK,,,,,,,,VFR,,,,,,,,,,,,METAR,9.0
OMAA 090300Z 17005KT CAVOK 31/11 Q1002 NOSIG,OMAA,2023-06-09T03:00:00Z,24.42,54.65,31.0,11.0,170,5,,6.21,29.586615,,,,,,TRUE,,,,,CAVOK,,,,,,,,VFR,,,,,,,,,,,,METAR,13.0
OLBA 090300Z 36004KT 340V050 6000 NSC 26/11 Q1008 NOSIG,OLBA,2023-06-09T03:00:00Z,33.82,35.48,26.0,11.0,360,4,,3.73,29.763779,,,,,,TRUE,,,,,CLR,,,,,,,,MVFR,,,,,,,,,,,,METAR,29.0
OKKK 090300Z 36012KT CAVOK 34/09 Q1004 NOSIG,OKKK,2023-06-09T03:00:00Z,,,34.0,9.0,360,12,,6.21,29.64567,,,,,,TRUE,,,,,CAVOK,,,,,,,,VFR,,,,,,,,,,,,METAR,
OJAQ 090300Z 10003KT 3500 TS SCT035 OVC065 30/14 Q1005 NOSIG,OJAQ,2023-06-09T03:00:00Z,29.62,35.02,30.0,14.0,100,3,,2.17,29.675198,,,,,,TRUE,,,,TS,SCT,3500,OVC,6500,,,,,IFR,,,,,,,,,,,,METAR,45.0
OJAI 090300Z 04008KT 5000 HZ NSC 20/06 Q1012 NOSIG,OJAI,2023-06-09T03:00:00Z,31.72,36.0,20.0,6.0,40,8,,3.11,29.88189,,,,,,TRUE,,,,HZ,CLR,,,,,,,,MVFR,,,,,,,,,,,,METAR,723.0
OIZJ 090300Z 00000KT 6000 NSC 30/28 Q1000,OIZJ,2023-06-09T03:00:00Z,25.65,57.8,30.0,28.0,0,0,,3.73,29.52756,,,,,,,,,,,CLR,,,,,,,,MVFR,,,,,,,,,,,,METAR,6.0
OIZI 090300Z 00000KT CAVOK 33/05 Q1007,OIZI,2023-06-09T03:00:00Z,27.23,60.72,33.0,5.0,0,0,,6.21,29.734253,,,,,,,,,,,CAVOK,,,,,,,,VFR,,,,,,,,,,,,METAR,622.0
OIZC 090300Z 11008KT 6000 NSC 31/27 Q1000 A2956,OIZC,2023-06-09T03:00:00Z,25.45,60.38,31.0,27.0,110,8,,3.73,29.52756,,,,,,,,,,,CLR,,,,,,,,MVFR,,,,,,,,,,,,METAR,13.0
OIZB 090300Z 35039G51KT 0800 DS NSC 29/12 Q1006,OIZB,2023-06-09T03:00:00Z,31.1,61.55,29.0,12.0,350,39,51,0.5,29.704725,,,,,,,,,,DS,CLR,,,,,,,,LIFR,,,,,,,,,,,,METAR,483.0
OITZ 090300Z 35002KT 9999 FEW020 12/11 Q1021 A3015,OITZ,2023-06-09T03:00:00Z,36.77,48.37,12.0,11.0,350,2,,6.21,30.147638,,,,,,,,,,,FEW,2000,,,,,,,VFR,,,,,,,,,,,,METAR,1630.0
OITP 090300Z 00000KT CAVOK 17/15 Q1016,OITP,2023-06-09T03:00:00Z,39.6,47.88,17.0,15.0,0,0,,6.21,30.0,,,,,,,,,,,CAVOK,,,,,,,,VFR,,,,,,,,,,,,METAR,72.0
OITM 090300Z 09008KT CAVOK 17/08 Q1019,OITM,2023-06-09T03:00:00Z,37.35,46.15,17.0,8.0,90,8,,6.21,30.088583,,,,,,,,,,,CAVOK,,,,,,,,VFR,,,,,,,,,,,,METAR,1340.0
OISY 090300Z 00000KT CAVOK 17/05 Q1022,OISY,2023-06-09T03:00:00Z,30.7,51.55,17.0,5.0,0,0,,6.21,30.177166,,,,,,,,,,,CAVOK,,,,,,,,VFR,,,,,,,,,,,,METAR,1800.0
OISR 090300Z 00000KT CAVOK 27/11 Q1005 A2970,OISR,2023-06-09T03:00:00Z,27.37,53.2,27.0,11.0,0,0,,6.21,29.675198,,,,,,,,,,,CAVOK,,,,,,,,VFR,,,,,,,,,,,,METAR,402.0
OISL 090300Z 00000KT CAVOK 28/11 Q1007 A2974,OISL,2023-06-09T03:00:00Z,27.67,54.37,28.0,11.0,0,0,,6.21,29.734253,,,,,,,,,,,CAVOK,,,,,,,,VFR,,,,,,,,,,,,METAR,804.0
OISF 090300Z 00000KT CAVOK 24/08 Q1014 A2996,OISF,2023-06-09T03:00:00Z,28.9,53.72,24.0,8.0,0,0,,6.21,29.940945,,,,,,,,,,,CAVOK,,,,,,,,VFR,,,,,,,,,,,,METAR,1305.0
OINZ 090300Z 24002KT 9999 FEW040 OVC090 19/18 Q1017,OINZ,2023-06-09T03:00:00Z,36.63,53.2,19.0,18.0,240,2,,6.21,30.029528,,,,,,,,,,,FEW,4000,OVC,9000,,,,,VFR,,,,,,,,,,,,METAR,8.0
OINR 090300Z 24002KT 9999 FEW022CB SCT027 BKN090 20/17 Q1016,OINR,2023-06-09T03:00:00Z,36.9,50.67,20.0,17.0,240,2,,6.21,30.0,,,,,,,,,,,FEW,2200,SCT,2700,BKN,9000,,,VFR,,,,,,,,,,,,METAR,-19.0
OINN 090300Z 00000KT 9999 FEW020CB BKN025 OVC080 20/18 Q1016,OINN,2023-06-09T03:00:00Z,36.67,51.47,20.0,18.0,0,0,,6.21,30.0,,,,,,,,,,,FEW,2000,BKN,2500,OVC,8000,,,MVFR,,,,,,,,,,,,METAR,-25.0
OING 090300Z 21004KT 9999 SCT025 OVC070 21/18 Q1019,OING,2023-06-09T03:00:00Z,36.9,54.4,21.0,18.0,210,4,,6.21,30.088583,,,,,,,,,,,SCT,2500,OVC,7000,,,,,VFR,,,,,,,,,,,,METAR,0.0
OINE 090300Z 00000KT 5000 -DZ BR BKN020 OVC070 19/18 Q1017,OINE,2023-06-09T03:00:00Z,37.38,55.45,19.0,18.0,0,0,,3.11,30.029528,,,,,,,,,,-DZ BR,BKN,2000,OVC,7000,,,,,MVFR,,,,,,,,,,,,METAR,125.0
OIMT 090300Z AUTO 35008KT //// // ////// 26/12 Q1011,OIMT,2023-06-09T03:00:00Z,33.67,56.88,26.0,12.0,350,8,,,29.852362,,,TRUE,,,,,,,,,,,,,,,,,,,,,,,,,,,,METAR,693.0
OIMS 090300Z 00000KT 9999 FEW035 BKN200 24/14 Q1016,OIMS,2023-06-09T03:00:00Z,36.17,57.6,24.0,14.0,0,0,,6.21,30.0,,,,,,,,,,,FEW,3500,BKN,20000,,,,,VFR,,,,,,,,,,,,METAR,920.0
OIMJ 090300Z 03019KT 9999 FEW030 BKN180 19/10 Q1018,OIMJ,2023-06-09T03:00:00Z,36.43,55.1,19.0,10.0,30,19,,6.21,30.059055,,,,,,,,,,,FEW,3000,BKN,18000,,,,,VFR,,,,,,,,,,,,METAR,1285.0
OIMB 090300Z 10006KT 6000 FEW040 BKN100 26/03 Q1015 A2998,OIMB,2023-06-09T03:00:00Z,32.9,59.28,26.0,3.0,100,6,,3.73,29.970472,,,,,,,,,,,FEW,4000,BKN,10000,,,,,MVFR,,,,,,,,,,,,METAR,1512.0
OIKQ 090300Z 00000KT 3000 BR NSC 29/28 Q1001 NOSIG,OIKQ,2023-06-09T03:00:00Z,26.75,55.9,29.0,28.0,0,0,,1.86,29.557087,,,,,,TRUE,,,,BR,CLR,,,,,,,,IFR,,,,,,,,,,,,METAR,9.0
OIKK 090300Z 23008KT 8000 NSC 19/09 Q1019 A3012,OIKK,2023-06-09T03:00:00Z,30.25,56.97,19.0,9.0,230,8,,4.97,30.088583,,,,,,,,,,,CLR,,,,,,,,MVFR,,,,,,,,,,,,METAR,1749.0
OIIP 090300Z 31012KT 3000 HZ FEW040 14/13 Q1018 A3007,OIIP,2023-06-09T03:00:00Z,35.78,50.83,14.0,13.0,310,12,,1.86,30.059055,,,,,,,,,,HZ,FEW,4000,,,,,,,IFR,,,,,,,,,,,,METAR,1270.0
OIIK 090300Z 14002KT 0400 FG VV003 12/12 Q1019,OIIK,2023-06-09T03:00:00Z,36.25,50.05,12.0,12.0,140,2,,0.25,30.088583,,,,,,,,,,FG,OVX,0,,,,,,,LIFR,,,,,,,,,,,300,METAR,1278.0
OIIE 090300Z 31012KT CAVOK 17/12 Q1017,OIIE,2023-06-09T03:00:00Z,35.42,51.15,17.0,12.0,310,12,,6.21,30.029528,,,,,,,,,,,CAVOK,,,,,,,,VFR,,,,,,,,,,,,METAR,993.0
OIHH 090300Z 05002KT CAVOK 13/11 Q1020 A3014,OIHH,2023-06-09T03:00:00Z,34.87,48.55,13.0,11.0,50,2,,6.21,30.11811,,,,,,,,,,,CAVOK,,,,,,,,VFR,,,,,,,,,,,,METAR,1742.0
OIFS 090300Z 31004KT CAVOK 14/05 Q1022,OIFS,2023-06-09T03:00:00Z,32.28,50.85,14.0,5.0,310,4,,6.21,30.177166,,,,,,,,,,,CAVOK,,,,,,,,VFR,,,,,,,,,,,,METAR,2042.0
OICS 090300Z 00000KT CAVOK 12/08 Q1020 A3012,OICS,2023-06-09T03:00:00Z,35.25,47.02,12.0,8.0,0,0,,6.21,30.11811,,,,,,,,,,,CAVOK,,,,,,,,VFR,,,,,,,,,,,,METAR,1369.0
OICK 090300Z 10006KT CAVOK 21/08 Q1014 A2996,OICK,2023-06-09T03:00:00Z,33.43,48.28,21.0,8.0,100,6,,6.21,29.940945,,,,,,,,,,,CAVOK,,,,,,,,VFR,,,,,,,,,,,,METAR,1156.0
OIBV 090300Z 28012KT 5000 BR NSC 30/27 Q1001,OIBV,2023-06-09T03:00:00Z,26.82,53.35,30.0,27.0,280,12,,3.11,29.557087,,,,,,,,,,BR,CLR,,,,,,,,MVFR,,,,,,,,,,,,METAR,23.0
OIBS 090300Z 00000KT 4000 BR NSC 31/29 Q1002,OIBS,2023-06-09T03:00:00Z,25.9,54.55,31.0,29.0,0,0,,2.49,29.586615,,,,,,,,,,BR,CLR,,,,,,,,IFR,,,,,,,,,,,,METAR,4.0
OIBQ 090300Z 00000KT 4000 HZ NSC 31/26 Q1002,OIBQ,2023-06-09T03:00:00Z,29.27,50.32,31.0,26.0,0,0,,2.49,29.586615,,,,,,,,,,HZ,CLR,,,,,,,,IFR,,,,,,,,,,,,METAR,3.0
OIBP 090300Z 28004KT CAVOK 29/23 Q1001 A2957,OIBP,2023-06-09T03:00:00Z,27.38,52.73,29.0,23.0,280,4,,6.21,29.557087,,,,,,,,,,,CAVOK,,,,,,,,VFR,,,,,,,,,,,,METAR,13.0
OIBL 090300Z 03004KT 4000 BR NSC 29/28 Q1001,OIBL,2023-06-09T03:00:00Z,26.53,54.82,29.0,28.0,30,4,,2.49,29.557087,,,,,,,,,,BR,CLR,,,,,,,,IFR,,,,,,,,,,,,METAR,25.0
OIBJ 090300Z AUTO 00000KT //// // ////// 30/11 Q////,OIBJ,2023-06-09T03:00:00Z,27.82,52.35,30.0,11.0,0,0,,,,,,TRUE,,,,,,,,,,,,,,,,,,,,,,,,,,,,METAR,647.0
OIBH 090300Z 00000KT CAVOK 28/20 Q1002 A2959,OIBH,2023-06-09T03:00:00Z,27.2,54.32,28.0,20.0,0,0,,6.21,29.586615,,,,,,,,,,,CAVOK,,,,,,,,VFR,,,,,,,,,,,,METAR,412.0
OIBA 090300Z 25006KT 5000 BR NSC 31/27 Q1000,OIBA,2023-06-09T03:00:00Z,25.88,55.03,31.0,27.0,250,6,,3.11,29.52756,,,,,,,,,,BR,CLR,,,,,,,,MVFR,,,,,,,,,,,,METAR,7.0
OIAM 090300Z 00000KT CAVOK 31/25 Q1001,OIAM,2023-06-09T03:00:00Z,30.55,49.15,31.0,25.0,0,0,,6.21,29.557087,,,,,,,,,,,CAVOK,,,,,,,,VFR,,,,,,,,,,,,METAR,7.0
OIAH 090300Z 00000KT CAVOK 26/10 Q1009,OIAH,2023-06-09T03:00:00Z,30.33,50.83,26.0,10.0,0,0,,6.21,29.793306,,,,,,,,,,,CAVOK,,,,,,,,VFR,,,,,,,,,,,,METAR,730.0
OIAG 090300Z VRB02KT 8000 NSC 30/14 Q1002,OIAG,2023-06-09T03:00:00Z,30.73,49.68,30.0,14.0,0,2,,4.97,29.586615,,,,,,,,,,,CLR,,,,,,,,MVFR,,,,,,,,,,,,METAR,17.0
OIAA 090300Z 31008KT CAVOK 31/07 Q1002,OIAA,2023-06-09T03:00:00Z,30.35,48.22,31.0,7.0,310,8,,6.21,29.586615,,,,,,,,,,,CAVOK,,,,,,,,VFR,,,,,,,,,,,,METAR,4.0
OEYN 090300Z 00000KT CAVOK 30/15 Q1003 NOSIG,OEYN,2023-06-09T03:00:00Z,24.13,38.07,30.0,15.0,0,0,,6.21,29.616142,,,,,,TRUE,,,,,CAVOK,,,,,,,,VFR,,,,,,,,,,,,METAR,20.0
OEWJ 090300Z 01005KT CAVOK 30/16 Q1005 NOSIG,OEWJ,2023-06-09T03:00:00Z,26.18,36.47,30.0,16.0,10,5,,6.21,29.675198,,,,,,TRUE,,,,,CAVOK,,,,,,,,VFR,,,,,,,,,,,,METAR,8.0
OEWD 090300Z 13006KT 9999 SCT030 28/05 Q1009,OEWD,2023-06-09T03:00:00Z,20.5,45.2,28.0,5.0,130,6,,6.21,29.793306,,,,,,,,,,,SCT,3000,,,,,,,VFR,,,,,,,,,,,,METAR,629.0
OETR 090300Z 00000KT CAVOK 23/07 Q1012 NOSIG,OETR,2023-06-09T03:00:00Z,31.7,38.73,23.0,7.0,0,0,,6.21,29.88189,,,,,,TRUE,,,,,CAVOK,,,,,,,,VFR,,,,,,,,,,,,METAR,854.0
OETF 090300Z 00000KT CAVOK 22/09 Q1019 NOSIG,OETF,2023-06-09T03:00:00Z,21.47,40.53,22.0,9.0,0,0,,6.21,30.088583,,,,,,TRUE,,,,,CAVOK,,,,,,,,VFR,,,,,,,,,,,,METAR,1460.0
OETB 090300Z 00000KT CAVOK 27/05 Q1012 NOSIG,OETB,2023-06-09T03:00:00Z,28.37,36.62,27.0,5.0,0,0,,6.21,29.88189,,,,,,TRUE,,,,,CAVOK,,,,,,,,VFR,,,,,,,,,,,,METAR,770.0
OESK 090300Z 24006KT CAVOK 24/01 Q1014 NOSIG,OESK,2023-06-09T03:00:00Z,29.78,40.1,24.0,1.0,240,6,,6.21,29.940945,,,,,,TRUE,,,,,CAVOK,,,,,,,,VFR,,,,,,,,,,,,METAR,671.0
OESH 090300Z 20006KT CAVOK 28/15 Q1010 NOSIG,OESH,2023-06-09T03:00:00Z,17.47,47.12,28.0,15.0,200,6,,6.21,29.822834,,,,,,TRUE,,,,,CAVOK,,,,,,,,VFR,,,,,,,,,,,,METAR,720.0
OERR 090300Z 35006KT CAVOK 26/02 Q1010 NOSIG,OERR,2023-06-09T03:00:00Z,30.9,41.13,26.0,2.0,350,6,,6.21,29.822834,,,,,,TRUE,,,,,CAVOK,,,,,,,,VFR,,,,,,,,,,,,METAR,554.0
OERK 090300Z 28008KT CAVOK 29/M02 Q1010 NOSIG,OERK,2023-06-09T03:00:00Z,24.95,46.72,29.0,-2.0,280,8,,6.21,29.822834,,,,,,TRUE,,,,,CAVOK,,,,,,,,VFR,,,,,,,,,,,,METAR,618.0
OERF 090300Z 00000KT CAVOK 26/02 Q1009 NOSIG,OERF,2023-06-09T03:00:00Z,29.62,43.48,26.0,2.0,0,0,,6.21,29.793306,,,,,,TRUE,,,,,CAVOK,,,,,,,,VFR,,,,,,,,,,,,METAR,441.0
OEPA 090300Z 36008KT CAVOK 30/10 Q1007 NOSIG,OEPA,2023-06-09T03:00:00Z,28.33,46.12,30.0,10.0,360,8,,6.21,29.734253,,,,,,TRUE,,,,,CAVOK,,,,,,,,VFR,,,,,,,,,,,,METAR,361.0
OENG 090300Z 00000KT CAVOK 26/08 Q1014 NOSIG,OENG,2023-06-09T03:00:00Z,17.62,44.42,26.0,8.0,0,0,,6.21,29.940945,,,,,,TRUE,,,,,CAVOK,,,,,,,,VFR,,,,,,,,,,,,METAR,1210.0
OEMN 090300Z 00000KT 9000 NSC 31/15 Q1007,OEMN,2023-06-09T03:00:00Z,,,31.0,15.0,0,0,,5.59,29.734253,,,,,,,,,,,CLR,,,,,,,,VFR,,,,,,,,,,,,METAR,
OEMA 090300Z VRB02KT CAVOK 31/02 Q1013 NOSIG,OEMA,2023-06-09T03:00:00Z,24.55,39.7,31.0,2.0,0,2,,6.21,29.911417,,,,,,TRUE,,,,,CAVOK,,,,,,,,VFR,,,,,,,,,,,,METAR,639.0
OEKM 090300Z 00000KT CAVOK 20/08 Q1023 NOSIG,OEKM,2023-06-09T03:00:00Z,18.3,42.78,20.0,8.0,0,0,,6.21,30.206694,,,,,,TRUE,,,,,CAVOK,,,,,,,,VFR,,,,,,,,,,,,METAR,2038.0
OEKJ 090300Z 28008KT CAVOK 32/M05 Q1010,OEKJ,2023-06-09T03:00:00Z,24.07,47.58,32.0,-5.0,280,8,,6.21,29.822834,,,,,,,,,,,CAVOK,,,,,,,,VFR,,,,,,,,,,,,METAR,487.0
OEJN 090300Z 34002KT CAVOK 31/12 Q1004 NOSIG,OEJN,2023-06-09T03:00:00Z,21.68,39.15,31.0,12.0,340,2,,6.21,29.64567,,,,,,TRUE,,,,,CAVOK,,,,,,,,VFR,,,,,,,,,,,,METAR,8.0
OEHL 090300Z 18002KT CAVOK 21/04 Q1015,OEHL,2023-06-09T03:00:00Z,27.43,41.68,21.0,4.0,180,2,,6.21,29.970472,,,,,,,,,,,CAVOK,,,,,,,,VFR,,,,,,,,,,,,METAR,1002.0
OEGT 090300Z 31007KT 9999 SCT040 22/04 Q1010 NOSIG,OEGT,2023-06-09T03:00:00Z,31.42,37.27,22.0,4.0,310,7,,6.21,29.822834,,,,,,TRUE,,,,,SCT,4000,,,,,,,VFR,,,,,,,,,,,,METAR,512.0
OEGS 090300Z 27002KT CAVOK 25/01 Q1011,OEGS,2023-06-09T03:00:00Z,26.3,43.77,25.0,1.0,270,2,,6.21,29.852362,,,,,,,,,,,CAVOK,,,,,,,,VFR,,,,,,,,,,,,METAR,647.0
OEGN 090300Z 16005KT 6000 SCT030 33/28 Q1005 NOSIG,OEGN,2023-06-09T03:00:00Z,16.9,42.58,33.0,28.0,160,5,,3.73,29.675198,,,,,,TRUE,,,,,SCT,3000,,,,,,,MVFR,,,,,,,,,,,,METAR,5.0
OEDR 090300Z 28005KT 6000 NSC 28/23 Q1000,OEDR,2023-06-09T03:00:00Z,26.27,50.17,28.0,23.0,280,5,,3.73,29.52756,,,,,,,,,,,CLR,,,,,,,,MVFR,,,,,,,,,,,,METAR,17.0
OEDM 090300Z 00000KT CAVOK 23/M03 Q1013,OEDM,2023-06-09T03:00:00Z,24.45,44.12,23.0,-3.0,0,0,,6.21,29.911417,,,,,,,,,,,CAVOK,,,,,,,,VFR,,,,,,,,,,,,METAR,922.0
OEDF 090300Z 27009KT CAVOK 30/02 Q1001 NOSIG,OEDF,2023-06-09T03:00:00Z,26.43,49.82,30.0,2.0,270,9,,6.21,29.557087,,,,,,TRUE,,,,,CAVOK,,,,,,,,VFR,,,,,,,,,,,,METAR,15.0
OEBH 090300Z 00000KT CAVOK 26/07 Q1014 NOSIG,OEBH,2023-06-09T03:00:00Z,19.98,42.62,26.0,7.0,0,0,,6.21,29.940945,,,,,,TRUE,,,,,CAVOK,,,,,,,,VFR,,,,,,,,,,,,METAR,1167.0
OEBA 090300Z 23005KT CAVOK 23/09 Q1019 NOSIG,OEBA,2023-06-09T03:00:00Z,20.3,41.63,23.0,9.0,230,5,,6.21,30.088583,,,,,,TRUE,,,,,CAVOK,,,,,,,,VFR,,,,,,,,,,,,METAR,1659.0
OEAO 090300Z 00000KT CAVOK 29/04 Q1011 NOSIG,OEAO,2023-06-09T03:00:00Z,26.48,38.12,29.0,4.0,0,0,,6.21,29.852362,,,,,,TRUE,,,,,CAVOK,,,,,,,,VFR,,,,,,,,,,,,METAR,615.0
OEAH 090300Z 18003KT CAVOK 30/M04 Q1003 NOSIG,OEAH,2023-06-09T03:00:00Z,25.28,49.48,30.0,-4.0,180,3,,6.21,29.616142,,,,,,TRUE,,,,,CAVOK,,,,,,,,VFR,,,,,,,,,,,,METAR,180.0
OEAB 090300Z 00000KT CAVOK 20/07 Q1023 NOSIG,OEAB,2023-06-09T03:00:00Z,18.23,42.65,20.0,7.0,0,0,,6.21,30.206694,,,,,,TRUE,,,,,CAVOK,,,,,,,,VFR,,,,,,,,,,,,METAR,2092.0
NVVW 090300Z 18008KT 9999 FEW020 26/16 Q1012,NVVW,2023-06-09T03:00:00Z,-19.45,169.22,26.0,16.0,180,8,,6.21,29.88189,,,,,,,,,,,FEW,2000,,,,,,,VFR,,,,,,,,,,,,METAR,5.0
NVVV 090300Z 12009KT 9999 SCT025 26/17 Q1011,NVVV,2023-06-09T03:00:00Z,-17.68,168.3,26.0,17.0,120,9,,6.21,29.852362,,,,,,,,,,,SCT,2500,,,,,,,VFR,,,,,,,,,,,,METAR,23.0
NVVA 090300Z 17005KT 9999 FEW025 25/17 Q1013,NVVA,2023-06-09T03:00:00Z,-20.25,169.77,25.0,17.0,170,5,,6.21,29.911417,,,,,,,,,,,FEW,2500,,,,,,,VFR,,,,,,,,,,,,METAR,7.0
NVSS 090300Z 14007KT 9999 SCT025 27/18 Q1010,NVSS,2023-06-09T03:00:00Z,-15.52,167.22,27.0,18.0,140,7,,6.21,29.822834,,,,,,,,,,,SCT,2500,,,,,,,VFR,,,,,,,,,,,,METAR,47.0
NVSG 090300Z 15013KT 9999 FEW020 27/21 Q1011,NVSG,2023-06-09T03:00:00Z,-15.3,167.97,27.0,21.0,150,13,,6.21,29.852362,,,,,,,,,,,FEW,2000,,,,,,,VFR,,,,,,,,,,,,METAR,31.0
NVSC 090300Z 12008KT 9999 BKN020 29/24 Q1010,NVSC,2023-06-09T03:00:00Z,-13.85,167.55,29.0,24.0,120,8,,6.21,29.822834,,,,,,,,,,,BKN,2000,,,,,,,MVFR,,,,,,,,,,,,METAR,11.0
NSFA 090300Z VRB03KT 9999 SCT022 BKN170 32/27 Q1010,NSFA,2023-06-09T03:00:00Z,-13.83,-172.0,32.0,27.0,0,3,,6.21,29.822834,,,,,,,,,,,SCT,2200,BKN,17000,,,,,VFR,,,,,,,,,,,,METAR,6.0
NIUE 090300Z 14009KT 9999 SCT017 BKN029 BKN100 23/21 Q1011 RMK VCSH TO THE NORTH AND SPECI CONDX CEASED,NIUE,2023-06-09T03:00:00Z,-19.07,-169.92,23.0,21.0,140,9,,6.21,29.852362,,,,,,,,,,,SCT,1700,BKN,2900,BKN,10000,,,MVFR,,,,,,,,,,,,SPECI,22.0
NGTA 090300Z 19004KT 9999 FEW018TCU SCT019 BKN300 30/26 Q1006,NGTA,2023-06-09T03:00:00Z,1.37,173.13,30.0,26.0,190,4,,6.21,29.704725,,,,,,,,,,,FEW,1800,SCT,1900,BKN,30000,,,VFR,,,,,,,,,,,,METAR,8.0
NGFU 080300Z 12010KT 9999 SCT020 BKN300 32/28 Q1007,NGFU,2023-06-09T03:00:00Z,-8.52,179.18,32.0,28.0,120,10,,6.21,29.734253,,,,,,,,,,,SCT,2000,BKN,30000,,,,,VFR,,,,,,,,,,,,METAR,2.0
NFTV 090300Z 00000KT 9999 FEW017 SCT035 BKN110 25/21 Q1011,NFTV,2023-06-09T03:00:00Z,-18.58,-173.97,25.0,21.0,0,0,,6.21,29.852362,,,,,,,,,,,FEW,1700,SCT,3500,BKN,11000,,,VFR,,,,,,,,,,,,METAR,71.0
NFTL 090300Z 30009KT 9999 SCT008 SCT016 OVC100 23/21 Q1011,NFTL,2023-06-09T03:00:00Z,-19.78,-174.33,23.0,21.0,300,9,,6.21,29.852362,,,,,,,,,,,SCT,800,SCT,1600,OVC,10000,,,VFR,,,,,,,,,,,,METAR,10.0
NFTF 090300Z 36009KT 9999 FEW008 BKN100 20/19 Q1011,NFTF,2023-06-09T03:00:00Z,-21.23,-175.15,20.0,19.0,360,9,,6.21,29.852362,,,,,,,,,,,FEW,800,BKN,10000,,,,,VFR,,,,,,,,,,,,METAR,38.0
NFNS 090300Z 14009KT 9999 SCT018 OVC045 25/24 Q1010,NFNS,2023-06-09T03:00:00Z,-16.82,179.33,25.0,24.0,140,9,,6.21,29.822834,,,,,,,,,,,SCT,1800,OVC,4500,,,,,VFR,,,,,,,,,,,,METAR,4.0
NFNM 090300Z 15008KT 9999 VCSH FEW018TCU SCT045 27/23 Q1009,NFNM,2023-06-09T03:00:00Z,-16.68,-179.87,27.0,23.0,150,8,,6.21,29.793306,,,,,,,,,,VCSH,FEW,1800,SCT,4500,,,,,VFR,,,,,,,,,,,,METAR,21.0
NFNL 090300Z 00000KT 9999 -SHRA SCT022 SCT046 26/25 Q1010,NFNL,2023-06-09T03:00:00Z,-16.47,179.33,26.0,25.0,0,0,,6.21,29.822834,,,,,,,,,,-SHRA,SCT,2200,SCT,4600,,,,,VFR,,,,,,,,,,,,METAR,17.0
NFNA 090300Z 21007KT 170V250 9999 SCT020 BKN048 26/20 Q1010,NFNA,2023-06-09T03:00:00Z,-18.05,178.57,26.0,20.0,210,7,,6.21,29.822834,,,,,,,,,,,SCT,2000,BKN,4800,,,,,VFR,,,,,,,,,,,,METAR,6.0
NFFN 090300Z 18007KT 9999 SCT027 27/19 Q1011 NOSIG,NFFN,2023-06-09T03:00:00Z,-17.75,177.45,27.0,19.0,180,7,,6.21,29.852362,,,,,,TRUE,,,,,SCT,2700,,,,,,,VFR,,,,,,,,,,,,METAR,14.0
NCSW 090300Z AUTO NIL,NCSW,2023-06-09T03:00:00Z,,,,,,,,,,,,TRUE,,,,,,,,,,,,,,,,,,,,,,,,,,,,METAR,
NCRK 090300Z AUTO NIL,NCRK,2023-06-09T03:00:00Z,-10.02,-161.1,,,,,,,,,,TRUE,,,,,,,,,,,,,,,,,,,,,,,,,,,,METAR,7.0
NCPY 090300Z AUTO 05011KT //// ////// 30/25 Q1008,NCPY,2023-06-09T03:00:00Z,-9.02,-158.03,30.0,25.0,50,11,,,29.763779,,,TRUE,,,,,,,,,,,,,,,,,,,,,,,,,,,,METAR,2.0
NCPL 090300Z AUTO NIL,NCPL,2023-06-09T03:00:00Z,1.98,-157.48,,,,,,,,,,TRUE,,,,,,,,,,,,,,,,,,,,,,,,,,,,METAR,3.0
NCPK 090300Z AUTO 10004KT //// ////// 31/26 Q1008,NCPK,2023-06-09T03:00:00Z,-10.9,-165.83,31.0,26.0,100,4,,,29.763779,,,TRUE,,,,,,,,,,,,,,,,,,,,,,,,,,,,METAR,5.0
NCNS 090300Z AUTO NIL,NCNS,2023-06-09T03:00:00Z,,,,,,,,,,,,TRUE,,,,,,,,,,,,,,,,,,,,,,,,,,,,METAR,
NCMR 090300Z AUTO 03008KT //// ////// ///// Q1013,NCMR,2023-06-09T03:00:00Z,-19.85,-157.7,,,30,8,,,29.911417,,,TRUE,,,,,,,,,,,,,,,,,,,,,,,,,,,,METAR,8.0
NCMK 090300Z AUTO 05006KT //// ////// 26/22 Q1013,NCMK,2023-06-09T03:00:00Z,-20.15,-157.33,26.0,22.0,50,6,,,29.911417,,,TRUE,,,,,,,,,,,,,,,,,,,,,,,,,,,,METAR,13.0
NCMH 090300Z AUTO NIL,NCMH,2023-06-09T03:00:00Z,-10.38,-161.0,,,,,,,,,,TRUE,,,,,,,,,,,,,,,,,,,,,,,,,,,,METAR,1.0
NCMG 090300Z AUTO 02004KT //// ////// ///// Q////,NCMG,2023-06-09T03:00:00Z,-21.88,-157.9,,,20,4,,,,,,TRUE,,,,,,,,,,,,,,,,,,,,,,,,,,,,METAR,14.0
NCAT 090300Z AUTO NIL,NCAT,2023-06-09T03:00:00Z,-19.97,-158.12,,,,,,,,,,TRUE,,,,,,,,,,,,,,,,,,,,,,,,,,,,METAR,11.0
NCAI 090300Z AUTO 10004KT //// ////// 28/23 Q1013,NCAI,2023-06-09T03:00:00Z,-18.82,-159.77,28.0,23.0,100,4,,,29.911417,,,TRUE,,,,,,,,,,,,,,,,,,,,,,,,,,,,METAR,7.0
MYSM 090300Z AUTO 21008KT 9999 -SHRA FEW070/// SCT110/// BKN150/// 26/25 A2997,MYSM,2023-06-09T03:00:00Z,24.05,-74.52,26.0,25.0,210,8,,6.21,29.970472,,,TRUE,,,,,,,-SHRA,FEW,7000,SCT,11000,BKN,15000,,,VFR,,,,,,,,,,,,METAR,5.0
MYNN 090300Z 19008KT 9999 VCTS SCT018CB BKN100 28/26 A2991,MYNN,2023-06-09T03:00:00Z,25.03,-77.47,28.0,26.0,190,8,,6.21,29.911417,,,,,,,,,,VCTS,SCT,1800,BKN,10000,,,,,VFR,,,,,,,,,,,,METAR,5.0
MYIG 090300Z AUTO 10006KT CAVOK 28/26 A2998,MYIG,2023-06-09T03:00:00Z,20.97,-73.67,28.0,26.0,100,6,,6.21,29.97933,,,TRUE,,,,,,,,CAVOK,,,,,,,,VFR,,,,,,,,,,,,METAR,2.0
MYGF 090300Z AUTO 20007KT 9999 // BKN250/// 28/21 A2985,MYGF,2023-06-09T03:00:00Z,26.55,-78.7,28.0,21.0,200,7,,6.21,29.84941,,,TRUE,,,,,,,,BKN,25000,,,,,,,VFR,,,,,,,,,,,,METAR,2.0
MYCB 090300Z AUTO 18006KT 9999 // //////TCU 27/24 A2995,MYCB,2023-06-09T03:00:00Z,24.32,-75.45,27.0,24.0,180,6,,6.21,29.949802,,,TRUE,,,,,,,,,,,,,,,,,,,,,,,,,,,,METAR,2.0
MWCR 090300Z 16005KT 9999 FEW016 29/26 Q1012,MWCR,2023-06-09T03:00:00Z,19.3,-81.37,29.0,26.0,160,5,,6.21,29.88189,,,,,,,,,,,FEW,1600,,,,,,,VFR,,,,,,,,,,,,METAR,4.0
MROC 090300Z 23004KT 190V280 9999 0800SW -RA BCFG FEW002 OVC120 21/20 A3010 NOSIG,MROC,2023-06-09T03:00:00Z,10.0,-84.22,21.0,20.0,230,4,,6.21,30.100393,,,,,,TRUE,,,,BCFG -RA,FEW,200,OVC,12000,,,,,VFR,,,,,,,,,,,,METAR,900.0
MPMG 090300Z AUTO VRB03KT //// R01///// // FEW043/// BKN069/// OVC085/// 26/25 Q1013,MPMG,2023-06-09T03:00:00Z,8.98,-79.57,26.0,25.0,0,3,,,29.911417,,,TRUE,,,,,,,,FEW,4300,BKN,6900,OVC,8500,,,,,,,,,,,,,,,METAR,6.0
MPDA 090300Z 32005KT 7000 -TSRA SCT013CB BKN080 24/24 Q1013,MPDA,2023-06-09T03:00:00Z,8.4,-82.43,24.0,24.0,320,5,,4.35,29.911417,,,,,,,,,,-TSRA,SCT,1300,BKN,8000,,,,,MVFR,,,,,,,,,,,,METAR,15.0
MNMG 090300Z 20004KT 8000 FEW020CB SCT022 26/25 Q1011 A2988 BR CB/SE/W/NW FL NOSIG,MNMG,2023-06-09T03:00:00Z,12.15,-86.17,26.0,25.0,200,4,,4.97,29.852362,,,,,,TRUE,,,,BR,FEW,2000,SCT,2200,,,,,MVFR,,,,,,,,,,,,METAR,59.0
MKJS 090300Z 10003KT 9999 FEW022 27/25 Q1013,MKJS,2023-06-09T03:00:00Z,18.5,-77.92,27.0,25.0,100,3,,6.21,29.911417,,,,,,,,,,,FEW,2200,,,,,,,VFR,,,,,,,,,,,,METAR,3.0
MKJP 090300Z 14016KT 9999 FEW020 29/26 Q1013,MKJP,2023-06-09T03:00:00Z,17.93,-76.78,29.0,26.0,140,16,,6.21,29.911417,,,,,,,,,,,FEW,2000,,,,,,,VFR,,,,,,,,,,,,METAR,3.0
MHTG 090300Z 15005KT 9999 SCT034 23/20 Q1019 A3009 NOSIG,MHTG,2023-06-09T03:00:00Z,14.07,-87.22,23.0,20.0,150,5,,6.21,30.088583,,,,,,TRUE,,,,,SCT,3400,,,,,,,VFR,,,,,,,,,,,,METAR,1001.0
MHRO 090300Z 10012KT 9999 FEW025 30/27 Q1010 A2983 NOSIG,MHRO,2023-06-09T03:00:00Z,16.32,-86.53,30.0,27.0,100,12,,6.21,29.822834,,,,,,TRUE,,,,,FEW,2500,,,,,,,VFR,,,,,,,,,,,,METAR,6.0
MHPR 090300Z 14004KT 8000 SCT048 FEW050CB BKN100 25/22 Q1016 A3002 RETS NOSIG,MHPR,2023-06-09T03:00:00Z,14.38,-87.62,25.0,22.0,140,4,,4.97,30.0,,,,,,TRUE,,,,,SCT,4800,FEW,5000,BKN,10000,,,MVFR,,,,,,,,,,,,METAR,628.0
MHLM 090300Z 35006KT 9999 FEW025 29/24 Q1009 A2980 NOSIG,MHLM,2023-06-09T03:00:00Z,15.45,-87.93,29.0,24.0,350,6,,6.21,29.793306,,,,,,TRUE,,,,,FEW,2500,,,,,,,VFR,,,,,,,,,,,,METAR,32.0
MHLC 090300Z VRB02KT 9999 FEW040CB 27/25 Q1010 A2983 NOSIG,MHLC,2023-06-09T03:00:00Z,15.75,-86.85,27.0,25.0,0,2,,6.21,29.822834,,,,,,TRUE,,,,,FEW,4000,,,,,,,VFR,,,,,,,,,,,,METAR,13.0
MHCA 090300Z 09003KT 9999 FEW028TCU FEW030CB BKN080 27/22 RMK CB E S,MHCA,2023-06-09T03:00:00Z,14.87,-85.78,27.0,22.0,90,3,,6.21,,,,,,,,,,,,FEW,2800,FEW,3000,BKN,8000,,,VFR,,,,,,,,,,,,METAR,386.0
MGPB 090300Z 00000KT 9000 SKC 28/26 Q1008 A2977 HZ,MGPB,2023-06-09T03:00:00Z,15.73,-88.58,28.0,26.0,0,0,,5.59,29.763779,,,,,,,,,,HZ,SKC,,,,,,,,VFR,,,,,,,,,,,,METAR,6.0
MGMM 090300Z 08006KT CAVOK 30/24 Q1010 A2983 FEW090,MGMM,2023-06-09T03:00:00Z,16.9,-89.87,30.0,24.0,80,6,,6.21,29.822834,,,,,,,,,,,FEW,9000,,,,,,,VFR,,,,,,,,,,,,METAR,105.0
MGHT 090300Z 00000KT CAVOK 16/16 OVC090,MGHT,2023-06-09T03:00:00Z,15.32,-91.5,16.0,16.0,0,0,,6.21,,,,,,,,,,,,OVC,9000,,,,,,,VFR,,,,,,,,,,,,METAR,1875.0
MGGT 090300Z 21006KT 5000 -DZ BR FEW004 SCT016 BKN080 20/19 Q1022 A3018,MGGT,2023-06-09T03:00:00Z,14.58,-90.53,20.0,19.0,210,6,,3.11,30.177166,,,,,,,,,,-DZ BR,FEW,400,SCT,1600,BKN,8000,,,MVFR,,,,,,,,,,,,METAR,1497.0
MDST 090300Z 09006KT 050V130 9999 FEW018 SCT300 27/24 Q1016 NOSIG,MDST,2023-06-09T03:00:00Z,19.4,-70.6,27.0,24.0,90,6,,6.21,30.0,,,,,,TRUE,,,,,FEW,1800,SCT,30000,,,,,VFR,,,,,,,,,,,,METAR,175.0
MDSD 090300Z 14008KT 130V190 9999 SCT018 SCT300 27/25 Q1017,MDSD,2023-06-09T03:00:00Z,18.42,-69.67,27.0,25.0,140,8,,6.21,30.029528,,,,,,,,,,,SCT,1800,SCT,30000,,,,,VFR,,,,,,,,,,,,METAR,18.0
MDPP 090300Z 00000KT 9999 FEW018 27/24 Q1014,MDPP,2023-06-09T03:00:00Z,19.75,-70.57,27.0,24.0,0,0,,6.21,29.940945,,,,,,,,,,,FEW,1800,,,,,,,VFR,,,,,,,,,,,,METAR,9.0
MDPC 090300Z 15006KT 9999 FEW018 29/26 Q1018,MDPC,2023-06-09T03:00:00Z,18.57,-68.37,29.0,26.0,150,6,,6.21,30.059055,,,,,,,,,,,FEW,1800,,,,,,,VFR,,,,,,,,,,,,METAR,10.0
MDLR 090300Z 00000KT 9999 FEW016 SCT300 27/25 Q1016,MDLR,2023-06-09T03:00:00Z,18.45,-68.92,27.0,25.0,0,0,,6.21,30.0,,,,,,,,,,,FEW,1600,SCT,30000,,,,,VFR,,,,,,,,,,,,METAR,66.0
MDJB 090300Z 00000KT 9999 FEW016 24/23 Q1017,MDJB,2023-06-09T03:00:00Z,18.57,-69.98,24.0,23.0,0,0,,6.21,30.029528,,,,,,,,,,,FEW,1600,,,,,,,VFR,,,,,,,,,,,,METAR,24.0
LPMT 090300Z 20007KT 9999 -RA FEW009 BKN024 FEW026TCU 19/18 Q1007,LPMT,2023-06-09T03:00:00Z,38.7,-9.05,19.0,18.0,200,7,,6.21,29.734253,,,,,,,,,,-RA,FEW,900,BKN,2400,FEW,2600,,,MVFR,,,,,,,,,,,,METAR,4.0
LPMR 090300Z 18006KT 9999 BKN012 19/18 Q1006,LPMR,2023-06-09T03:00:00Z,39.82,-8.88,19.0,18.0,180,6,,6.21,29.704725,,,,,,,,,,,BKN,1200,,,,,,,MVFR,,,,,,,,,,,,METAR,50.0
LPLA 090300Z /////KT 9999 FEW020 18/16 Q1011,LPLA,2023-06-09T03:00:00Z,38.77,-27.1,18.0,16.0,,,,6.21,29.852362,,,,,,,,,,,FEW,2000,,,,,,,VFR,,,,,,,,,,,,METAR,60.0
LPBJ 090300Z 15005KT 9999 FEW024 BKN035 16/15 Q1010,LPBJ,2023-06-09T03:00:00Z,38.08,-7.93,16.0,15.0,150,5,,6.21,29.822834,,,,,,,,,,,FEW,2400,BKN,3500,,,,,VFR,,,,,,,,,,,,METAR,196.0
LKLN 090300Z AUTO 00000KT 2200 // BKN079 BKN200 13/12 Q1015,LKLN,2023-06-09T03:00:00Z,49.68,13.27,13.0,12.0,0,0,,1.37,29.970472,,,TRUE,,,,,,,,BKN,7900,BKN,20000,,,,,IFR,,,,,,,,,,,,SPECI,353.0
LKKV 090300Z VRB02KT 9999 MIFG NSC 11/10 Q1015,LKKV,2023-06-09T03:00:00Z,50.2,12.92,11.0,10.0,0,2,,6.21,29.970472,,,,,,,,,,MIFG,CLR,,,,,,,,VFR,,,,,,,,,,,,METAR,600.0
LKKB 090300Z 29003KT CAVOK 15/12 Q1014,LKKB,2023-06-09T03:00:00Z,50.12,14.53,15.0,12.0,290,3,,6.21,29.940945,,,,,,,,,,,CAVOK,,,,,,,,VFR,,,,,,,,,,,,METAR,281.0
LBPL 090300Z 15002KT 9999 SCT100 13/11 Q1013,LBPL,2023-06-09T03:00:00Z,43.45,24.5,13.0,11.0,150,2,,6.21,29.911417,,,,,,,,,,,SCT,10000,,,,,,,VFR,,,,,,,,,,,,METAR,93.0
LBPG 090300Z 05002KT 9999 SCT100 13/11 Q1014,LBPG,2023-06-09T03:00:00Z,42.28,24.72,13.0,11.0,50,2,,6.21,29.940945,,,,,,,,,,,SCT,10000,,,,,,,VFR,,,,,,,,,,,,METAR,198.0
LBIA 090300Z 00000KT 9999 SCT200 10/09 Q1014,LBIA,2023-06-09T03:00:00Z,42.45,26.35,10.0,9.0,0,0,,6.21,29.940945,,,,,,,,,,,SCT,20000,,,,,,,VFR,,,,,,,,,,,,METAR,155.0
KNEL 090300Z AUTO 00000KT 14/10 A2974 RMK AO2 SLP069 6//// T01390100 $,KNEL,2023-06-09T03:00:00Z,40.03,-74.33,13.9,10.0,0,0,,,29.740158,1006.9,,TRUE,TRUE,TRUE,,,,,,,,,,,,,,,,,,,,,,,,,,SPECI,26.0
KMLT 090300Z AUTO 09003KT 8SM -RA BKN007 BKN013 OVC020 12/12 A2978 RMK AO2 CIG 005V010 P0001 T01170117,KMLT,2023-06-09T03:00:00Z,45.65,-68.7,11.7,11.7,90,3,,8.0,29.778543,,,TRUE,TRUE,,,,,,-RA,BKN,700,BKN,1300,OVC,2000,,,IFR,,,,,,0.01,,,,,,METAR,121.0
KIWI 090300Z AUTO 00000KT 10SM BKN004 OVC070 11/09 A2976 RMK AO2 T01110094,KIWI,2023-06-09T03:00:00Z,43.97,-69.72,11.1,9.4,0,0,,10.0,29.760826,,,TRUE,TRUE,,,,,,,BKN,400,OVC,7000,,,,,LIFR,,,,,,,,,,,,METAR,16.0
HTZA 090300Z 00000KT 99999 BKN012 25/23 Q1017 NOSIG,HTZA,2023-06-09T03:00:00Z,-6.22,39.22,25.0,23.0,0,0,,6.21,30.029528,,,,,,TRUE,,,,,BKN,1200,,,,,,,MVFR,,,,,,,,,,,,METAR,19.0
HTTB 090300Z 00000KT 9999 FEW014 SCT070 16/14 Q1022 NOSIG,HTTB,2023-06-09T03:00:00Z,-5.07,32.82,16.0,14.0,0,0,,6.21,30.177166,,,,,,TRUE,,,,,FEW,1400,SCT,7000,,,,,VFR,,,,,,,,,,,,METAR,1185.0
HTSU 090300Z 00000KT 9999 FEW018 14/12 Q1026,HTSU,2023-06-09T03:00:00Z,-7.95,31.6,14.0,12.0,0,0,,6.21,30.295275,,,,,,,,,,,FEW,1800,,,,,,,VFR,,,,,,,,,,,,METAR,1820.0
HTSO 090300Z 00000KT 9999 SCT016 18/17 Q1023,HTSO,2023-06-09T03:00:00Z,-10.67,35.58,18.0,17.0,0,0,,6.21,30.206694,,,,,,,,,,,SCT,1600,,,,,,,VFR,,,,,,,,,,,,METAR,1058.0
HTMW 090300Z 17007KT 9999 FEW020 FEW021CB 21/15 Q1019 NOSIG,HTMW,2023-06-09T03:00:00Z,-2.43,32.92,21.0,15.0,170,7,,6.21,30.088583,,,,,,TRUE,,,,,FEW,2000,FEW,2100,,,,,VFR,,,,,,,,,,,,METAR,1144.0
HTMU 090300Z 00000KT 9999 FEW019 FEW021CB SCT080 21/18 Q1020,HTMU,2023-06-09T03:00:00Z,-1.5,33.8,21.0,18.0,0,0,,6.21,30.11811,,,,,,,,,,,FEW,1900,FEW,2100,SCT,8000,,,VFR,,,,,,,,,,,,METAR,1154.0
HTMT 090300Z 21012KT 9999 FEW018 FEW019CB 23/22 Q1017,HTMT,2023-06-09T03:00:00Z,-10.33,40.18,23.0,22.0,210,12,,6.21,30.029528,,,,,,,,,,,FEW,1800,FEW,1900,,,,,VFR,,,,,,,,,,,,METAR,114.0
HTMP 090300Z 00000KT 9999 FEW019 15/14 Q1022,HTMP,2023-06-09T03:00:00Z,-6.35,31.08,15.0,14.0,0,0,,6.21,30.177166,,,,,,,,,,,FEW,1900,,,,,,,VFR,,,,,,,,,,,,METAR,1073.0
HTMG 090300Z 00000KT 9999 BKN020 21/20 Q1019,HTMG,2023-06-09T03:00:00Z,-6.78,37.65,21.0,20.0,0,0,,6.21,30.088583,,,,,,,,,,,BKN,2000,,,,,,,MVFR,,,,,,,,,,,,METAR,512.0
HTKJ 090300Z 00000KT 9999 BKN023 20/18 Q1022 NOSIG,HTKJ,2023-06-09T03:00:00Z,-3.42,37.07,20.0,18.0,0,0,,6.21,30.177166,,,,,,TRUE,,,,,BKN,2300,,,,,,,MVFR,,,,,,,,,,,,METAR,893.0
HTKA 090300Z 00000KT 9999 SKC 17/15 Q1018 NOSIG,HTKA,2023-06-09T03:00:00Z,-4.88,29.67,17.0,15.0,0,0,,6.21,30.059055,,,,,,TRUE,,,,,SKC,,,,,,,,VFR,,,,,,,,,,,,METAR,819.0
HTIR 090300Z 00000KT 9999 BKN020 17/14 Q1023,HTIR,2023-06-09T03:00:00Z,-7.67,35.75,17.0,14.0,0,0,,6.21,30.206694,,,,,,,,,,,BKN,2000,,,,,,,MVFR,,,,,,,,,,,,METAR,1432.0
HTIB 090300Z 00000KT CAVOK 18/15 Q1019,HTIB,2023-06-09T03:00:00Z,,,18.0,15.0,0,0,,6.21,30.088583,,,,,,,,,,,CAVOK,,,,,,,,VFR,,,,,,,,,,,,METAR,
HTDO 090300Z 05008KT 9999 FEW018 SCT070 18/16 Q1021 NOSIG,HTDO,2023-06-09T03:00:00Z,-6.17,35.77,18.0,16.0,50,8,,6.21,30.147638,,,,,,TRUE,,,,,FEW,1800,SCT,7000,,,,,VFR,,,,,,,,,,,,METAR,1119.0
HTDA 090300Z 23005KT 9999 FEW011 23/22 Q1017 NOSIG,HTDA,2023-06-09T03:00:00Z,-6.88,39.2,23.0,22.0,230,5,,6.21,30.029528,,,,,,TRUE,,,,,FEW,1100,,,,,,,VFR,,,,,,,,,,,,METAR,53.0
HTBU 090300Z 18005KT 9999 FEW018 FEW020CB 22/16 Q1019,HTBU,2023-06-09T03:00:00Z,-1.32,31.82,22.0,16.0,180,5,,6.21,30.088583,,,,,,,,,,,FEW,1800,FEW,2000,,,,,VFR,,,,,,,,,,,,METAR,1144.0
HTAR 090300Z 12008KT 9999 BKN020 CT080 17/16 Q1025 NOSIG,HTAR,2023-06-09T03:00:00Z,-3.37,36.63,17.0,16.0,120,8,,6.21,30.265747,,,,,,TRUE,,,,,BKN,2000,,,,,,,MVFR,,,,,,,,,,,,SPECI,1386.0
HKNK 090300Z 00000KT CAVOK 15/12,HKNK,2023-06-09T03:00:00Z,-0.3,36.17,15.0,12.0,0,0,,6.21,,,,,,,,,,,,CAVOK,,,,,,,,VFR,,,,,,,,,,,,METAR,1900.0
HKML 090300Z 19010KT 9999 SCT020 26/22 Q1015,HKML,2023-06-09T03:00:00Z,-3.22,40.1,26.0,22.0,190,10,,6.21,29.970472,,,,,,,,,,,SCT,2000,,,,,,,VFR,,,,,,,,,,,,METAR,20.0
HKLO 090300Z 00000KT CAVOK 28/17 Q1011,HKLO,2023-06-09T03:00:00Z,3.12,35.62,28.0,17.0,0,0,,6.21,29.852362,,,,,,,,,,,CAVOK,,,,,,,,VFR,,,,,,,,,,,,METAR,503.0
HKKT 090300Z 00000KT CAVOK 13/12,HKKT,2023-06-09T03:00:00Z,0.97,34.97,13.0,12.0,0,0,,6.21,,,,,,,,,,,,CAVOK,,,,,,,,VFR,,,,,,,,,,,,METAR,1829.0
HKKI 090300Z 04003KT CAVOK 18/17 Q1019,HKKI,2023-06-09T03:00:00Z,-0.1,34.75,18.0,17.0,40,3,,6.21,30.088583,,,,,,,,,,,CAVOK,,,,,,,,VFR,,,,,,,,,,,,METAR,1152.0
HKJK 090300Z 16005KT 9999 BKN015 17/15 Q1024 NOSIG,HKJK,2023-06-09T03:00:00Z,-1.32,36.92,17.0,15.0,160,5,,6.21,30.236221,,,,,,TRUE,,,,,BKN,1500,,,,,,,MVFR,,,,,,,,,,,,METAR,1615.0
HKGO 090300Z AUTO 09004KT 13/13 Q1029 A30.40,HKGO,2023-06-09T03:00:00Z,,,13.0,13.0,90,4,,,30.383858,,,TRUE,,,,,,,,,,,,,,,,,,,,,,,,,,,,METAR,
HKEM 090300Z 00000KT 9999 OVC015 17/15,HKEM,2023-06-09T03:00:00Z,-0.57,37.48,17.0,15.0,0,0,,6.21,,,,,,,,,,,,OVC,1500,,,,,,,MVFR,,,,,,,,,,,,METAR,1265.0
HKEL 090300Z VRB02KT CAVOK 11/09 Q1026,HKEL,2023-06-09T03:00:00Z,0.4,35.23,11.0,9.0,0,2,,6.21,30.295275,,,,,,,,,,,CAVOK,,,,,,,,VFR,,,,,,,,,,,,METAR,2116.0
HETR 090300Z 33012KT 3000 SA NSC 30/17 Q1005,HETR,2023-06-09T03:00:00Z,28.22,33.65,30.0,17.0,330,12,,1.86,29.675198,,,,,,,,,,SA,CLR,,,,,,,,IFR,,,,,,,,,,,,SPECI,35.0
HESW 090300Z 36013KT 8000 NSC 21/15 Q1008,HESW,2023-06-09T03:00:00Z,29.35,25.5,21.0,15.0,360,13,,4.97,29.763779,,,,,,,,,,,CLR,,,,,,,,MVFR,,,,,,,,,,,,SPECI,101.0
HESN 090300Z 17005KT CAVOK 32/22 Q1006 NOSIG,HESN,2023-06-09T03:00:00Z,23.97,32.82,32.0,22.0,170,5,,6.21,29.704725,,,,,,TRUE,,,,,CAVOK,,,,,,,,VFR,,,,,,,,,,,,METAR,197.0
HESH 090300Z 02006KT 6000 FEW025 BKN100 30/16 Q1005 NOSIG,HESH,2023-06-09T03:00:00Z,27.97,34.38,30.0,16.0,20,6,,3.73,29.675198,,,,,,TRUE,,,,,FEW,2500,BKN,10000,,,,,MVFR,,,,,,,,,,,,METAR,50.0
HESG 090300Z 16005KT 6000 NSC 33/07 Q1003 NOSIG,HESG,2023-06-09T03:00:00Z,26.33,31.75,33.0,7.0,160,5,,3.73,29.616142,,,,,,TRUE,,,,,CLR,,,,,,,,MVFR,,,,,,,,,,,,METAR,70.0
HEPS 090300Z 08009KT 9999 SCT025 SCT030 25/20 Q1005 NOSIG,HEPS,2023-06-09T03:00:00Z,31.28,32.25,25.0,20.0,80,9,,6.21,29.675198,,,,,,TRUE,,,,,SCT,2500,SCT,3000,,,,,VFR,,,,,,,,,,,,METAR,2.0
HEMM 090300Z 32010KT CAVOK 22/20 Q1008 NOSIG,HEMM,2023-06-09T03:00:00Z,31.32,27.22,22.0,20.0,320,10,,6.21,29.763779,,,,,,TRUE,,,,,CAVOK,,,,,,,,VFR,,,,,,,,,,,,METAR,26.0
HEMA 090300Z 35014KT CAVOK 32/15 Q1007 NOSIG,HEMA,2023-06-09T03:00:00Z,25.55,34.58,32.0,15.0,350,14,,6.21,29.734253,,,,,,TRUE,,,,,CAVOK,,,,,,,,VFR,,,,,,,,,,,,METAR,77.0
HELX 090300Z 14003KT 6000 NSC 32/09 Q1004 NOSIG,HELX,2023-06-09T03:00:00Z,25.67,32.7,32.0,9.0,140,3,,3.73,29.64567,,,,,,TRUE,,,,,CLR,,,,,,,,MVFR,,,,,,,,,,,,METAR,86.0
HEGN 090300Z 00000KT 3000 DU NSC 30/11 Q1005 NOSIG,HEGN,2023-06-09T03:00:00Z,27.18,33.8,30.0,11.0,0,0,,1.86,29.675198,,,,,,TRUE,,,,DU,CLR,,,,,,,,IFR,,,,,,,,,,,,METAR,14.0
HEBL 090300Z 00000KT CAVOK 32/12 Q1006 NOSIG,HEBL,2023-06-09T03:00:00Z,22.38,31.62,32.0,12.0,0,0,,6.21,29.704725,,,,,,TRUE,,,,,CAVOK,,,,,,,,VFR,,,,,,,,,,,,METAR,184.0
HEBA 090300Z 06010KT 9999 SCT020 24/16 Q1004 NOSIG,HEBA,2023-06-09T03:00:00Z,30.92,29.7,24.0,16.0,60,10,,6.21,29.64567,,,,,,TRUE,,,,,SCT,2000,,,,,,,VFR,,,,,,,,,,,,METAR,41.0
HEAT 090300Z 01007KT CAVOK 31/09 Q1006 NOSIG,HEAT,2023-06-09T03:00:00Z,27.05,31.02,31.0,9.0,10,7,,6.21,29.704725,,,,,,TRUE,,,,,CAVOK,,,,,,,,VFR,,,,,,,,,,,,METAR,229.0
HAAB 090300Z 00000KT 9999 SCT025 13/11 Q1026 NOSIG,HAAB,2023-06-09T03:00:00Z,8.97,38.78,13.0,11.0,0,0,,6.21,30.295275,,,,,,TRUE,,,,,SCT,2500,,,,,,,VFR,,,,,,,,,,,,METAR,2319.0
GVSV 090300Z 05006KT 9999 BKN022 26/20 Q1016 NOSIG,GVSV,2023-06-09T03:00:00Z,16.83,-25.07,26.0,20.0,50,6,,6.21,30.0,,,,,,TRUE,,,,,BKN,2200,,,,,,,MVFR,,,,,,,,,,,,METAR,16.0
GVNP 090300Z 04008KT 9999 SCT018 24/20 Q1016 NOSIG,GVNP,2023-06-09T03:00:00Z,14.95,-23.48,24.0,20.0,40,8,,6.21,30.0,,,,,,TRUE,,,,,SCT,1800,,,,,,,VFR,,,,,,,,,,,,METAR,70.0
GVAC 090300Z 36008KT 9999 BKN014 25/21 Q1016 NOSIG,GVAC,2023-06-09T03:00:00Z,16.73,-22.93,25.0,21.0,360,8,,6.21,30.0,,,,,,TRUE,,,,,BKN,1400,,,,,,,MVFR,,,,,,,,,,,,METAR,54.0
GQPP 090300Z 35010KT 8000 FEW005 22/21 Q1015 NOSIG,GQPP,2023-06-09T03:00:00Z,20.92,-17.02,22.0,21.0,350,10,,4.97,29.970472,,,,,,TRUE,,,,,FEW,500,,,,,,,MVFR,,,,,,,,,,,,METAR,5.0
GOSS 090300Z 36006KT 310V040 CAVOK 24/22 Q1012,GOSS,2023-06-09T03:00:00Z,16.05,-16.45,24.0,22.0,360,6,,6.21,29.88189,,,,,,,,,,,CAVOK,,,,,,,,VFR,,,,,,,,,,,,METAR,3.0
GOSP 090300Z 28004KT CAVOK 30/21 Q1010,GOSP,2023-06-09T03:00:00Z,16.68,-14.97,30.0,21.0,280,4,,6.21,29.822834,,,,,,,,,,,CAVOK,,,,,,,,VFR,,,,,,,,,,,,METAR,10.0
GOSM 090300Z 08002KT CAVOK 35/15 Q1008,GOSM,2023-06-09T03:00:00Z,15.6,-13.33,35.0,15.0,80,2,,6.21,29.763779,,,,,,,,,,,CAVOK,,,,,,,,VFR,,,,,,,,,,,,METAR,28.0
GOOY 090300Z 34006KT 9999 SCT010 25/23 Q1013,GOOY,2023-06-09T03:00:00Z,14.73,-17.5,25.0,23.0,340,6,,6.21,29.911417,,,,,,,,,,,SCT,1000,,,,,,,VFR,,,,,,,,,,,,METAR,21.0
GOGG 090300Z 00000KT 9999 FEW015 26/25 Q1013,GOGG,2023-06-09T03:00:00Z,12.55,-16.27,26.0,25.0,0,0,,6.21,29.911417,,,,,,,,,,,FEW,1500,,,,,,,VFR,,,,,,,,,,,,METAR,24.0
GMTN 090300Z 28006KT 9999 FEW016 SCT050 19/17 Q1012 NOSIG,GMTN,2023-06-09T03:00:00Z,35.58,-5.32,19.0,17.0,280,6,,6.21,29.88189,,,,,,TRUE,,,,,FEW,1600,SCT,5000,,,,,VFR,,,,,,,,,,,,METAR,10.0
GMTA 090300Z 19003KT 150V250 9999 SCT010 21/17 Q1012 NOSIG,GMTA,2023-06-09T03:00:00Z,35.17,-3.85,21.0,17.0,190,3,,6.21,29.88189,,,,,,TRUE,,,,,SCT,1000,,,,,,,VFR,,,,,,,,,,,,METAR,14.0
GMMZ 090300Z 30003KT 270V340 CAVOK 19/07 Q1012 NOSIG,GMMZ,2023-06-09T03:00:00Z,30.93,-6.9,19.0,7.0,300,3,,6.21,29.88189,,,,,,TRUE,,,,,CAVOK,,,,,,,,VFR,,,,,,,,,,,,METAR,1139.0
GMMW 090300Z 33003KT 4000 TSRA SCT014 FEW030CB BKN098 20/19 Q1013 NOSIG,GMMW,2023-06-09T03:00:00Z,34.98,-3.02,20.0,19.0,330,3,,2.49,29.911417,,,,,,TRUE,,,,TSRA,SCT,1400,FEW,3000,BKN,9800,,,IFR,,,,,,,,,,,,METAR,174.0
GMML 090300Z 04005KT 8000 NSC 20/20 Q1015 NPSIG,GMML,2023-06-09T03:00:00Z,27.13,-13.23,20.0,20.0,40,5,,4.97,29.970472,,,,,,,,,,,CLR,,,,,,,,MVFR,,,,,,,,,,,,SPECI,63.0
GMMI 090300Z AUTO 15004KT 8000 SCT013 19/// Q1014 NOSIG,GMMI,2023-06-09T03:00:00Z,31.4,-9.68,,,150,4,,4.97,29.940945,,,TRUE,,,TRUE,,,,,SCT,1300,,,,,,,MVFR,,,,,,,,,,,,METAR,102.0
GMMB 090300Z AUTO 17006KT 9999 NSC 17/17 Q1013 NOSIG,GMMB,2023-06-09T03:00:00Z,33.65,-7.22,17.0,17.0,170,6,,6.21,29.911417,,,TRUE,,,TRUE,,,,,CLR,,,,,,,,VFR,,,,,,,,,,,,METAR,191.0
GMFM 090300Z 10003KT 9999 FEW020 SCT200 16/14 Q1015 NOSIG,GMFM,2023-06-09T03:00:00Z,33.87,-5.52,16.0,14.0,100,3,,6.21,29.970472,,,,,,TRUE,,,,,FEW,2000,SCT,20000,,,,,VFR,,,,,,,,,,,,METAR,569.0
GMFK 090300Z 36012KT CAVOK 25/11 Q1013 NOSIG,GMFK,2023-06-09T03:00:00Z,31.95,-4.4,25.0,11.0,360,12,,6.21,29.911417,,,,,,TRUE,,,,,CAVOK,,,,,,,,VFR,,,,,,,,,,,,METAR,1033.0
GBYD 090300Z 29004KT CAVOK 26/24 Q1012,GBYD,2023-06-09T03:00:00Z,13.33,-16.65,26.0,24.0,290,4,,6.21,29.88189,,,,,,,,,,,CAVOK,,,,,,,,VFR,,,,,,,,,,,,METAR,29.0
GANR 090300Z 00000KT CAVOK 30/10 Q1010,GANR,2023-06-09T03:00:00Z,15.23,-9.58,30.0,10.0,0,0,,6.21,29.822834,,,,,,,,,,,CAVOK,,,,,,,,VFR,,,,,,,,,,,,METAR,237.0
GAMB 090300Z 22008KT CAVOK 30/18 Q1009,GAMB,2023-06-09T03:00:00Z,14.52,-4.08,30.0,18.0,220,8,,6.21,29.793306,,,,,,,,,,,CAVOK,,,,,,,,VFR,,,,,,,,,,,,METAR,271.0
GAKD 090300Z 32008KT CAVOK 35/18 Q1009,GAKD,2023-06-09T03:00:00Z,14.48,-11.4,35.0,18.0,320,8,,6.21,29.793306,,,,,,,,,,,CAVOK,,,,,,,,VFR,,,,,,,,,,,,METAR,53.0
FZAA 090300Z 00000KT 6000 SCT016 25/21 Q1015 NOSIG,FZAA,2023-06-09T03:00:00Z,-4.38,15.45,25.0,21.0,0,0,,3.73,29.970472,,,,,,TRUE,,,,,SCT,1600,,,,,,,MVFR,,,,,,,,,,,,METAR,309.0
FYWW 090300Z AUTO 11004KT //// // ////// 11/M08 Q1024,FYWW,2023-06-09T03:00:00Z,-22.57,17.1,11.0,-8.0,110,4,,,30.236221,,,TRUE,,,,,,,,,,,,,,,,,,,,,,,,,,,,METAR,1672.0
FYWE 090300Z 15004KT CAVOK 04/M08 Q1025,FYWE,2023-06-09T03:00:00Z,-22.62,17.08,4.0,-8.0,150,4,,6.21,30.265747,,,,,,,,,,,CAVOK,,,,,,,,VFR,,,,,,,,,,,,METAR,1700.0
FYWB 090300Z 09006KT CAVOK 07/07 Q1020,FYWB,2023-06-09T03:00:00Z,-22.98,14.65,7.0,7.0,90,6,,6.21,30.11811,,,,,,,,,,,CAVOK,,,,,,,,VFR,,,,,,,,,,,,METAR,87.0
FYOA 090300Z AUTO 16002KT //// // ////// 14/M00 Q1018,FYOA,2023-06-09T03:00:00Z,-17.88,15.97,14.0,0.0,160,2,,,30.059055,,,TRUE,,,,,,,,,,,,,,,,,,,,,,,,,,,,METAR,1099.0
FYLZ 090300Z AUTO /////KT //// // ////// 12/09 Q1020,FYLZ,2023-06-09T03:00:00Z,-26.68,15.25,12.0,9.0,,,,,30.11811,,,TRUE,,,,,,,,,,,,,,,,,,,,,,,,,,,,METAR,129.0
FYKT 090300Z AUTO 24004KT //// // ////// 07/05 Q1022,FYKT,2023-06-09T03:00:00Z,-26.53,18.12,7.0,5.0,240,4,,,30.177166,,,TRUE,,,,,,,,,,,,,,,,,,,,,,,,,,,,METAR,1064.0
FYKM 090300Z AUTO 05001KT //// // ////// 13/08 Q1018,FYKM,2023-06-09T03:00:00Z,-17.63,24.18,13.0,8.0,50,1,,,30.059055,,,TRUE,,,,,,,,,,,,,,,,,,,,,,,,,,,,METAR,959.0
FYGF 090300Z AUTO 26005KT //// // ////// 12/M01 Q1023,FYGF,2023-06-09T03:00:00Z,-19.6,18.12,12.0,-1.0,260,5,,,30.206694,,,TRUE,,,,,,,,,,,,,,,,,,,,,,,,,,,,METAR,1407.0
FTTJ 090300Z 27006KT 6000 NSC 27/22 Q1011 NOSIG,FTTJ,2023-06-09T03:00:00Z,12.13,15.03,27.0,22.0,270,6,,3.73,29.852362,,,,,,TRUE,,,,,CLR,,,,,,,,MVFR,,,,,,,,,,,,METAR,295.0
FSIA 090300Z 12014KT 100V160 9999 BKN021 28/23 Q1012 NOSIG,FSIA,2023-06-09T03:00:00Z,-4.67,55.52,28.0,23.0,120,14,,6.21,29.88189,,,,,,TRUE,,,,,BKN,2100,,,,,,,MVFR,,,,,,,,,,,,METAR,3.0
FQXA 090300Z 36008KT CAVOK 19/18 Q1014,FQXA,2023-06-09T03:00:00Z,-25.05,33.62,19.0,18.0,360,8,,6.21,29.940945,,,,,,,,,,,CAVOK,,,,,,,,VFR,,,,,,,,,,,,METAR,3.0
FQTT 090300Z 03002KT CAVOK 15/14 Q1016,FQTT,2023-06-09T03:00:00Z,-16.1,33.63,15.0,14.0,30,2,,6.21,30.0,,,,,,,,,,,CAVOK,,,,,,,,VFR,,,,,,,,,,,,METAR,146.0
FQPB 090300Z 24003KT 9999 FEW020 22/22 Q1017,FQPB,2023-06-09T03:00:00Z,-12.98,40.52,22.0,22.0,240,3,,6.21,30.029528,,,,,,,,,,,FEW,2000,,,,,,,VFR,,,,,,,,,,,,METAR,101.0
FQNP 090300Z 02006KT 0200 FG ////// 19/19 Q1019,FQNP,2023-06-09T03:00:00Z,-15.1,39.27,19.0,19.0,20,6,,0.12,30.088583,,,,,,,,,,FG,,,,,,,,,,,,,,,,,,,,,METAR,434.0
FQMA 090300Z 23009KT 9999 BKN020 18/16 Q1013 NOSIG,FQMA,2023-06-09T03:00:00Z,-25.92,32.57,18.0,16.0,230,9,,6.21,29.911417,,,,,,TRUE,,,,,BKN,2000,,,,,,,MVFR,,,,,,,,,,,,METAR,34.0
FQLC 090300Z 07003KT 9999 FEW025 15/13 Q1024,FQLC,2023-06-09T03:00:00Z,-13.27,35.25,15.0,13.0,70,3,,6.21,30.236221,,,,,,,,,,,FEW,2500,,,,,,,VFR,,,,,,,,,,,,METAR,1362.0
FQBR 090300Z 06004KT CAVOK 19/09 Q1014,FQBR,2023-06-09T03:00:00Z,-19.8,34.9,19.0,9.0,60,4,,6.21,29.940945,,,,,,,,,,,CAVOK,,,,,,,,VFR,,,,,,,,,,,,METAR,14.0
FOOL 090300Z 16005KT 130V210 9999 SCT011 26/22 Q1014 NOSIG,FOOL,2023-06-09T03:00:00Z,0.45,9.42,26.0,22.0,160,5,,6.21,29.940945,,,,,,TRUE,,,,,SCT,1100,,,,,,,VFR,,,,,,,,,,,,METAR,9.0
FNUE 090300Z AUTO 20005KT 9999 NCD 14/09 Q1023,FNUE,2023-06-09T03:00:00Z,-11.77,19.9,14.0,9.0,200,5,,6.21,30.206694,,,TRUE,,,,,,,,CLR,,,,,,,,VFR,,,,,,,,,,,,METAR,1354.0
FNUB 090300Z AUTO 27002KT 9999 NCD 12/05 Q1026,FNUB,2023-06-09T03:00:00Z,-14.93,13.57,12.0,5.0,270,2,,6.21,30.295275,,,TRUE,,,,,,,,CLR,,,,,,,,VFR,,,,,,,,,,,,METAR,1749.0
FNLU 090300Z VRB03KT 8000 BKN020 21/20 Q1014 NOSIG,FNLU,2023-06-09T03:00:00Z,-8.85,13.22,21.0,20.0,0,3,,4.97,29.940945,,,,,,TRUE,,,,,BKN,2000,,,,,,,MVFR,,,,,,,,,,,,METAR,75.0
FNHU 090300Z AUTO 27004KT 9999 // NCD 15/07 Q1024,FNHU,2023-06-09T03:00:00Z,-12.82,15.77,15.0,7.0,270,4,,6.21,30.236221,,,TRUE,,,,,,,,CLR,,,,,,,,VFR,,,,,,,,,,,,METAR,1697.0
FNGI 090300Z AUTO 18002KT 9999 // ////// 14/03 Q1020,FNGI,2023-06-09T03:00:00Z,-17.05,15.68,14.0,3.0,180,2,,6.21,30.11811,,,TRUE,,,,,,,,,,,,,,,,,,,,,,,,,,,,METAR,1116.0
FNCT 090300Z AUTO 15004KT //// ////// ///// Q////,FNCT,2023-06-09T03:00:00Z,-12.48,13.48,,,150,4,,,,,,TRUE,,,,,,,,,,,,,,,,,,,,,,,,,,,,METAR,6.0
FNCA 090300Z AUTO 18003KT 9999 SCT033 OVC043 25/23 Q1014,FNCA,2023-06-09T03:00:00Z,-5.58,12.18,25.0,23.0,180,3,,6.21,29.940945,,,TRUE,,,,,,,,SCT,3300,OVC,4300,,,,,VFR,,,,,,,,,,,,METAR,14.0
FMSD 090300Z 32004KT CAVOK 18/18 Q1016,FMSD,2023-06-09T03:00:00Z,-25.03,46.95,18.0,18.0,320,4,,6.21,30.0,,,,,,,,,,,CAVOK,,,,,,,,VFR,,,,,,,,,,,,METAR,7.0
FMNN 090300Z 20002KT 9999 SCT020 21/// Q1017,FMNN,2023-06-09T03:00:00Z,-13.32,48.32,,,200,2,,6.21,30.029528,,,,,,,,,,,SCT,2000,,,,,,,VFR,,,0.0,,,,,,,,,METAR,10.0
FMNM 090300Z 18004KT 150V210 9999 FEW040 21/18 Q1017 NOSIG,FMNM,2023-06-09T03:00:00Z,-15.67,46.35,21.0,18.0,180,4,,6.21,30.029528,,,,,,TRUE,,,,,FEW,4000,,,,,,,VFR,,,,,,,,,,,,METAR,18.0
FMNA 090300Z 14014KT 9999 VCSH BKN020 22/19 Q1016,FMNA,2023-06-09T03:00:00Z,-12.33,49.28,22.0,19.0,140,14,,6.21,30.0,,,,,,,,,,VCSH,BKN,2000,,,,,,,MVFR,,,,,,,,,,,,METAR,108.0
FMMT 090300Z 27004KT 9999 VCSH SCT017TCU BKN033 21/20 Q1019 NOSIG,FMMT,2023-06-09T03:00:00Z,-18.12,49.38,21.0,20.0,270,4,,6.21,30.088583,,,,,,TRUE,,,,VCSH,SCT,1700,BKN,3300,,,,,VFR,,,,,,,,,,,,METAR,13.0
FMMI 090300Z 13004KT 090V170 9999 FEW010 BKN020 15/14 Q1024 NOSIG,FMMI,2023-06-09T03:00:00Z,-18.8,47.47,15.0,14.0,130,4,,6.21,30.236221,,,,,,TRUE,,,,,FEW,1000,BKN,2000,,,,,MVFR,,,,,,,,,,,,METAR,1269.0
FMEP 090300Z AUTO 04007KT CAVOK 21/13 Q1020 NOSIG,FMEP,2023-06-09T03:00:00Z,-21.32,55.42,21.0,13.0,40,7,,6.21,30.11811,,,TRUE,,,TRUE,,,,,CAVOK,,,,,,,,VFR,,,,,,,,,,,,METAR,21.0
FMEE 090300Z AUTO 19006KT 150V220 CAVOK 20/14 Q1020 NOSIG,FMEE,2023-06-09T03:00:00Z,-20.88,55.52,20.0,14.0,190,6,,6.21,30.11811,,,TRUE,,,TRUE,,,,,CAVOK,,,,,,,,VFR,,,,,,,,,,,,METAR,20.0
FMCH 090300Z 09005KT 9999 -RA FEW018TCU BKN025 25/22 Q1016 NOSIG,FMCH,2023-06-09T03:00:00Z,-11.53,43.27,25.0,22.0,90,5,,6.21,30.0,,,,,,TRUE,,,,-RA,FEW,1800,BKN,2500,,,,,MVFR,,,,,,,,,,,,METAR,30.0
FKKD 090300Z VRB03KT 9999 BKN012 FEW015CB 24/24 Q1013 NOSIG,FKKD,2023-06-09T03:00:00Z,4.0,9.72,24.0,24.0,0,3,,6.21,29.911417,,,,,,TRUE,,,,,BKN,1200,FEW,1500,,,,,MVFR,,,,,,,,,,,,METAR,10.0
FIMP 090300Z VRB03KT 9999 VCSH FEW008 BKN016 21/20 Q1020,FIMP,2023-06-09T03:00:00Z,-20.43,57.68,21.0,20.0,0,3,,6.21,30.11811,,,,,,,,,,VCSH,FEW,800,BKN,1600,,,,,MVFR,,,,,,,,,,,,METAR,57.0
FGSL 090300Z 25001KT 9999 FEW010 23/23 Q1014 NOSIG,FGSL,2023-06-09T03:00:00Z,3.75,8.72,23.0,23.0,250,1,,6.21,29.940945,,,,,,TRUE,,,,,FEW,1000,,,,,,,VFR,,,,,,,,,,,,METAR,23.0
FEFF 090300Z VRB02KT 6000 -TSRA BKN005 FEW033CB 25/22 Q1015 BECMG SCT007,FEFF,2023-06-09T03:00:00Z,4.4,18.52,25.0,22.0,0,2,,3.73,29.970472,,,,,,,,,,-TSRA,BKN,500,FEW,3300,,,,,IFR,,,,,,,,,,,,SPECI,364.0
FCPP 090300Z 17004KT 9999 FEW008 BKN023 24/22 Q1014 NOSIG,FCPP,2023-06-09T03:00:00Z,-4.82,11.9,24.0,22.0,170,4,,6.21,29.940945,,,,,,TRUE,,,,,FEW,800,BKN,2300,,,,,MVFR,,,,,,,,,,,,METAR,18.0
FCBB 090300Z 05004KT 8000 SCT021 FEW030CB 23/21 Q1016 BECMG TS,FCBB,2023-06-09T03:00:00Z,-4.25,15.25,23.0,21.0,50,4,,4.97,30.0,,,,,,,,,,,SCT,2100,FEW,3000,,,,,MVFR,,,,,,,,,,,,SPECI,316.0
FBSK 090300Z 27005KT CAVOK 06/02 Q1019 NOSIG,FBSK,2023-06-09T03:00:00Z,-24.55,25.92,6.0,2.0,270,5,,6.21,30.088583,,,,,,TRUE,,,,,CAVOK,,,,,,,,VFR,,,,,,,,,,,,METAR,1007.0
FBPM 090300Z /////KT CAVOK ///// Q1019,FBPM,2023-06-09T03:00:00Z,-21.17,27.48,,,,,,6.21,30.088583,,,,,,,,,,,CAVOK,,,,,,,,VFR,,,,,,,,,,,,METAR,1009.0
FBMN 090300Z 08003KT CAVOK 11/06 Q1019,FBMN,2023-06-09T03:00:00Z,-19.97,23.42,11.0,6.0,80,3,,6.21,30.088583,,,,,,,,,,,CAVOK,,,,,,,,VFR,,,,,,,,,,,,METAR,946.0
FBKE 090300Z 06003KT 300V100 CAVOK 14/12 Q1020,FBKE,2023-06-09T03:00:00Z,-17.82,25.17,14.0,12.0,60,3,,6.21,30.11811,,,,,,,,,,,CAVOK,,,,,,,,VFR,,,,,,,,,,,,METAR,999.0
FAVV 090300Z AUTO 28003KT //// // ////// 09/M03 Q1023,FAVV,2023-06-09T03:00:00Z,-26.57,27.97,9.0,-3.0,280,3,,,30.206694,,,TRUE,,,,,,,,,,,,,,,,,,,,,,,,,,,,SPECI,1480.0
FAUP 090300Z 27003KT CAVOK 05/03 Q1021 NOSIG,FAUP,2023-06-09T03:00:00Z,-28.38,21.27,5.0,3.0,270,3,,6.21,30.147638,,,,,,TRUE,,,,,CAVOK,,,,,,,,VFR,,,,,,,,,,,,METAR,845.0
FASI 090300Z AUTO 01003KT //// // ////// 07/M00 Q1025,FASI,2023-06-09T03:00:00Z,-26.25,28.4,7.0,0.0,10,3,,,30.265747,,,TRUE,,,,,,,,,,,,,,,,,,,,,,,,,,,,SPECI,1627.0
FAPP 090300Z AUTO 21005KT //// // ////// 09/05 Q1022,FAPP,2023-06-09T03:00:00Z,-23.83,29.45,9.0,5.0,210,5,,,30.177166,,,TRUE,,,,,,,,,,,,,,,,,,,,,,,,,,,,METAR,1238.0
FAPN 090300Z AUTO 00000KT //// // ////// 05/04 Q1019,FAPN,2023-06-09T03:00:00Z,-25.33,27.17,5.0,4.0,0,0,,,30.088583,,,TRUE,,,,,,,,,,,,,,,,,,,,,,,,,,,,METAR,1045.0
FAPE 090300Z 32003KT CAVOK 15/09 Q1011 NOSIG,FAPE,2023-06-09T03:00:00Z,-33.98,25.6,15.0,9.0,320,3,,6.21,29.852362,,,,,,TRUE,,,,,CAVOK,,,,,,,,VFR,,,,,,,,,,,,METAR,58.0
FAMM 090300Z AUTO 09002KT //// // ////// 07/M03 Q1021,FAMM,2023-06-09T03:00:00Z,-25.8,25.53,7.0,-3.0,90,2,,,30.147638,,,TRUE,,,,,,,,,,,,,,,,,,,,,,,,,,,,METAR,1280.0
FALW 090300Z AUTO 06002KT //// // ////// 13/12 Q1018,FALW,2023-06-09T03:00:00Z,-32.97,18.17,13.0,12.0,60,2,,,30.059055,,,TRUE,,,,,,,,,,,,,,,,,,,,,,,,,,,,SPECI,31.0
FALE 090300Z 20005KT CAVOK 15/10 Q1014 NOSIG,FALE,2023-06-09T03:00:00Z,-29.62,31.12,15.0,10.0,200,5,,6.21,29.940945,,,,,,TRUE,,,,,CAVOK,,,,,,,,VFR,,,,,,,,,,,,METAR,109.0
FALA 090300Z 16004KT CAVOK 08/02 Q1021 NOSIG,FALA,2023-06-09T03:00:00Z,-25.93,27.92,8.0,2.0,160,4,,6.21,30.147638,,,,,,TRUE,,,,,CAVOK,,,,,,,,VFR,,,,,,,,,,,,METAR,1365.0
FAKN 090300Z AUTO 26003KT //// // ////// 17/07 Q1018,FAKN,2023-06-09T03:00:00Z,-25.38,31.1,17.0,7.0,260,3,,,30.059055,,,TRUE,,,,,,,,,,,,,,,,,,,,,,,,,,,,METAR,864.0
FAKM 090300Z 35002KT CAVOK 00/M00 Q1021,FAKM,2023-06-09T03:00:00Z,-28.8,24.77,0.0,0.0,350,2,,6.21,30.147638,,,,,,,,,,,CAVOK,,,,,,,,VFR,,,,,,,,,,,,METAR,1203.0
FAJB 090300Z AUTO 04001KT //// // ////// 09/M03 Q1021,FAJB,2023-06-09T03:00:00Z,-26.15,28.0,9.0,-3.0,40,1,,,30.147638,,,TRUE,,,,,,,,,,,,,,,,,,,,,,,,,,,,SPECI,1626.0
FAHS 090300Z AUTO 25003KT //// // ////// 16/11 Q1014,FAHS,2023-06-09T03:00:00Z,-24.37,31.03,16.0,11.0,250,3,,,29.940945,,,TRUE,,,,,,,,,,,,,,,,,,,,,,,,,,,,METAR,532.0
FAGG 090300Z 27016KT 8000 -RA SCT024 BKN032 13/12 Q1014,FAGG,2023-06-09T03:00:00Z,-34.0,22.37,13.0,12.0,270,16,,4.97,29.940945,,,,,,,,,,-RA,SCT,2400,BKN,3200,,,,,MVFR,,,,,,,,,,,,METAR,196.0
FAEL 090300Z 34007KT CAVOK 15/07 Q1012,FAEL,2023-06-09T03:00:00Z,-33.03,27.82,15.0,7.0,340,7,,6.21,29.88189,,,,,,,,,,,CAVOK,,,,,,,,VFR,,,,,,,,,,,,METAR,127.0
FACT 090300Z 05003KT 9999 SCT040 12/11 Q1018 NOSIG,FACT,2023-06-09T03:00:00Z,-33.97,18.6,12.0,11.0,50,3,,6.21,30.059055,,,,,,TRUE,,,,,SCT,4000,,,,,,,VFR,,,,,,,,,,,,METAR,48.0
FABL 090300Z AUTO 16003KT //// R02///// // ///////// 00/M01 Q1021,FABL,2023-06-09T03:00:00Z,-29.1,26.3,0.0,-1.0,160,3,,,30.147638,,,TRUE,,,,,,,,,,,,,,,,,,,,,,,,,,,,SPECI,1348.0
EIME 090300Z 09007KT 9999 FEW006 SCT240 12/11 Q1015,EIME,2023-06-09T03:00:00Z,53.3,-6.45,12.0,11.0,90,7,,6.21,29.970472,,,,,,,,,,,FEW,600,SCT,24000,,,,,VFR,,,,,,,,,,,,METAR,90.0
DXXX 090300Z VRB01KT 9999 FEW012 24/23 Q1013 NOSIG,DXXX,2023-06-09T03:00:00Z,6.17,1.25,24.0,23.0,0,1,,6.21,29.911417,,,,,,TRUE,,,,,FEW,1200,,,,,,,VFR,,,,,,,,,,,,METAR,22.0
DXSK 090300Z 00000KT 9999 FEW010 BKN120 BKN260 24/24 Q////,DXSK,2023-06-09T03:00:00Z,9.0,1.15,24.0,24.0,0,0,,6.21,,,,,,,,,,,,FEW,1000,BKN,12000,BKN,26000,,,VFR,,,,,,,,,,,,METAR,381.0
DXNG 090300Z 18002KT CAVOK 24/22 Q1013,DXNG,2023-06-09T03:00:00Z,9.77,1.1,24.0,22.0,180,2,,6.21,29.911417,,,,,,,,,,,CAVOK,,,,,,,,VFR,,,,,,,,,,,,METAR,343.0
DTTZ 090300Z 09014KT 8000 NSC 27/16 Q1009,DTTZ,2023-06-09T03:00:00Z,33.93,8.1,27.0,16.0,90,14,,4.97,29.793306,,,,,,,,,,,CLR,,,,,,,,MVFR,,,,,,,,,,,,METAR,87.0
DTTN 090300Z /////KT 8000 SCT020 SCT030 24/19 Q1010,DTTN,2023-06-09T03:00:00Z,36.47,8.8,24.0,19.0,,,,4.97,29.822834,,,,,,,,,,,SCT,2000,SCT,3000,,,,,MVFR,,,,,,,,,,,,METAR,145.0
DTTL 090300Z 16006KT 110V240 9999 FEW016 21/20 Q1011,DTTL,2023-06-09T03:00:00Z,36.85,11.07,21.0,20.0,160,6,,6.21,29.852362,,,,,,,,,,,FEW,1600,,,,,,,VFR,,,,,,,,,,,,METAR,18.0
DTTK 090300Z 13002KT 8000 FEW023 22/17 Q1011,DTTK,2023-06-09T03:00:00Z,35.67,10.08,22.0,17.0,130,2,,4.97,29.852362,,,,,,,,,,,FEW,2300,,,,,,,MVFR,,,,,,,,,,,,METAR,65.0
DTTG 090300Z 23003KT CAVOK 23/14 Q1010 NOSIG,DTTG,2023-06-09T03:00:00Z,33.73,9.92,23.0,14.0,230,3,,6.21,29.822834,,,,,,TRUE,,,,,CAVOK,,,,,,,,VFR,,,,,,,,,,,,METAR,120.0
DTTF 090300Z VRB01KT CAVOK 24/17 Q1011 NOSIG,DTTF,2023-06-09T03:00:00Z,34.42,8.82,24.0,17.0,0,1,,6.21,29.852362,,,,,,TRUE,,,,,CAVOK,,,,,,,,VFR,,,,,,,,,,,,METAR,314.0
DTTD 090300Z AUTO 29002KT NCD 24/12 Q1012,DTTD,2023-06-09T03:00:00Z,32.32,10.4,24.0,12.0,290,2,,,29.88189,,,TRUE,,,,,,,,CLR,,,,,,,,,,,,,,,,,,,,METAR,306.0
DTTB 090300Z VRB02KT 8000 FEW020 23/20 Q1009,DTTB,2023-06-09T03:00:00Z,37.25,9.8,23.0,20.0,0,2,,4.97,29.793306,,,,,,,,,,,FEW,2000,,,,,,,MVFR,,,,,,,,,,,,METAR,4.0
DTKA 090300Z 09006KT 9999 FEW020 23/20 Q1009 NOSIG,DTKA,2023-06-09T03:00:00Z,36.98,8.88,23.0,20.0,90,6,,6.21,29.793306,,,,,,TRUE,,,,,FEW,2000,,,,,,,VFR,,,,,,,,,,,,METAR,70.0
DRRN 090300Z 22012KT CAVOK 31/19 Q1010 NOSIG,DRRN,2023-06-09T03:00:00Z,13.47,2.17,31.0,19.0,220,12,,6.21,29.822834,,,,,,TRUE,,,,,CAVOK,,,,,,,,VFR,,,,,,,,,,,,METAR,223.0
DNPO 090300Z 00000KT 6000 BKN007 24/23 Q1012 TEMPO 5000 BR,DNPO,2023-06-09T03:00:00Z,4.83,7.02,24.0,23.0,0,0,,3.73,29.88189,,,,,,,,,,,BKN,700,,,,,,,IFR,,,,,,,,,,,,METAR,17.0
DNMM 090300Z VRB02KT 9999 FEW009 25/24 Q1014 NOSIG,DNMM,2023-06-09T03:00:00Z,6.57,3.32,25.0,24.0,0,2,,6.21,29.940945,,,,,,TRUE,,,,,FEW,900,,,,,,,VFR,,,,,,,,,,,,METAR,27.0
DNKN 090300Z 22009KT CAVOK 24/22 Q1015 NOSIG,DNKN,2023-06-09T03:00:00Z,12.05,8.52,24.0,22.0,220,9,,6.21,29.970472,,,,,,TRUE,,,,,CAVOK,,,,,,,,VFR,,,,,,,,,,,,METAR,471.0
DNEN 090300Z 00000KT 9999 BKN009 24/23 Q1014 NOSIG,DNEN,2023-06-09T03:00:00Z,6.47,7.55,24.0,23.0,0,0,,6.21,29.940945,,,,,,TRUE,,,,,BKN,900,,,,,,,IFR,,,,,,,,,,,,METAR,142.0
DNAA 090300Z 18007KT CAVOK 23/22 Q1015 NOSIG,DNAA,2023-06-09T03:00:00Z,9.0,7.27,23.0,22.0,180,7,,6.21,29.970472,,,,,,TRUE,,,,,CAVOK,,,,,,,,VFR,,,,,,,,,,,,METAR,338.0
DFOO 090300Z 21011KT CAVOK 27/22 Q1012,DFOO,2023-06-09T03:00:00Z,11.17,-4.32,27.0,22.0,210,11,,6.21,29.88189,,,,,,,,,,,CAVOK,,,,,,,,VFR,,,,,,,,,,,,METAR,461.0
DAUZ 090300Z 06005KT 8000 NSC 24/03 Q1013,DAUZ,2023-06-09T03:00:00Z,28.05,9.63,24.0,3.0,60,5,,4.97,29.911417,,,,,,,,,,,CLR,,,,,,,,MVFR,,,,,,,,,,,,METAR,567.0
DAUU 090300Z 14012KT 8000 NSC 30/07 Q1007,DAUU,2023-06-09T03:00:00Z,31.92,5.4,30.0,7.0,140,12,,4.97,29.734253,,,,,,,,,,,CLR,,,,,,,,MVFR,,,,,,,,,,,,METAR,147.0
DAUT 090300Z 26010KT CAVOK 32/08 Q1007,DAUT,2023-06-09T03:00:00Z,29.25,0.27,32.0,8.0,260,10,,6.21,29.734253,,,,,,,,,,,CAVOK,,,,,,,,VFR,,,,,,,,,,,,METAR,307.0
DAUL 090300Z 17013KT 5000 HZ NSC 24/11 Q1010,DAUL,2023-06-09T03:00:00Z,33.77,2.92,24.0,11.0,170,13,,3.11,29.822834,,,,,,,,,,HZ,CLR,,,,,,,,MVFR,,,,,,,,,,,,METAR,755.0
DAUK 090300Z 14012KT 8000 NSC 31/09 Q1007,DAUK,2023-06-09T03:00:00Z,33.08,6.08,31.0,9.0,140,12,,4.97,29.734253,,,,,,,,,,,CLR,,,,,,,,MVFR,,,,,,,,,,,,METAR,83.0
DAUI 090300Z 33005KT 8000 NSC 29/02 Q1008,DAUI,2023-06-09T03:00:00Z,27.25,2.52,29.0,2.0,330,5,,4.97,29.763779,,,,,,,,,,,CLR,,,,,,,,MVFR,,,,,,,,,,,,METAR,271.0
DAUH 090300Z 12005KT 8000 NSC 30/07 Q1008,DAUH,2023-06-09T03:00:00Z,31.67,6.15,30.0,7.0,120,5,,4.97,29.763779,,,,,,,,,,,CLR,,,,,,,,MVFR,,,,,,,,,,,,METAR,141.0
DAUG 090300Z 18010KT CAVOK 30/04 Q1010,DAUG,2023-06-09T03:00:00Z,32.38,3.78,30.0,4.0,180,10,,6.21,29.822834,,,,,,,,,,,CAVOK,,,,,,,,VFR,,,,,,,,,,,,METAR,444.0
DAUE 090300Z 14003KT CAVOK 29/08 Q1009,DAUE,2023-06-09T03:00:00Z,30.57,2.87,29.0,8.0,140,3,,6.21,29.793306,,,,,,,,,,,CAVOK,,,,,,,,VFR,,,,,,,,,,,,METAR,396.0
DAUB 090300Z 11010KT CAVOK 31/10 Q1008,DAUB,2023-06-09T03:00:00Z,34.78,5.73,31.0,10.0,110,10,,6.21,29.763779,,,,,,,,,,,CAVOK,,,,,,,,VFR,,,,,,,,,,,,METAR,75.0
DAUA 090300Z 19007KT 7000 NSC 31/07 Q1007,DAUA,2023-06-09T03:00:00Z,27.83,-0.18,31.0,7.0,190,7,,4.35,29.734253,,,,,,,,,,,CLR,,,,,,,,MVFR,,,,,,,,,,,,METAR,278.0
DAOY 090300Z 35012KT 9999 SCT030 SCT233 17/15 Q1016,DAOY,2023-06-09T03:00:00Z,33.72,1.08,17.0,15.0,350,12,,6.21,30.0,,,,,,,,,,,SCT,3000,SCT,23300,,,,,VFR,,,,,,,,,,,,METAR,1340.0
DAOV 090300Z 28004KT 8000 TS FEW023CB BKN030 18/17 Q1015,DAOV,2023-06-09T03:00:00Z,35.2,0.15,18.0,17.0,280,4,,4.97,29.970472,,,,,,,,,,TS,FEW,2300,BKN,3000,,,,,MVFR,,,,,,,,,,,,METAR,506.0
DAOR 090300Z VRB02KT 3000 DU FEW033 SCT233 24/14 Q1011,DAOR,2023-06-09T03:00:00Z,31.65,-2.27,24.0,14.0,0,2,,1.86,29.852362,,,,,,,,,,DU,FEW,3300,SCT,23300,,,,,IFR,,,,,,,,,,,,METAR,809.0
DAOI 090300Z 01006KT 8000 TS FEW023 FEW026CB BKN030 20/20 Q1010 RERA,DAOI,2023-06-09T03:00:00Z,36.22,1.32,20.0,20.0,10,6,,4.97,29.822834,,,,,,,,,,TS,FEW,2300,FEW,2600,BKN,3000,,,MVFR,,,,,,,,,,,,METAR,141.0
DAOF 090300Z 28017KT CAVOK 19/10 Q1011,DAOF,2023-06-09T03:00:00Z,27.7,-8.17,19.0,10.0,280,17,,6.21,29.852362,,,,,,,,,,,CAVOK,,,,,,,,VFR,,,,,,,,,,,,METAR,441.0
DAOB 090300Z 24003KT 9999 FEW026CB SCT026 16/15 Q1015 RETS,DAOB,2023-06-09T03:00:00Z,35.33,1.47,16.0,15.0,240,3,,6.21,29.970472,,,,,,,,,,,FEW,2600,SCT,2600,,,,,VFR,,,,,,,,,,,,METAR,976.0
DABT 090300Z 05009KT 9999 FEW023 23/10 Q1013,DABT,2023-06-09T03:00:00Z,35.75,6.32,23.0,10.0,50,9,,6.21,29.911417,,,,,,,,,,,FEW,2300,,,,,,,VFR,,,,,,,,,,,,METAR,813.0
DABS 090300Z 16009KT CAVOK 26/08 Q1013,DABS,2023-06-09T03:00:00Z,35.43,8.12,26.0,8.0,160,9,,6.21,29.911417,,,,,,,,,,,CAVOK,,,,,,,,VFR,,,,,,,,,,,,METAR,806.0
DAAV 090300Z 12003KT 9999 SCT033 BKN090 24/21 Q1008,DAAV,2023-06-09T03:00:00Z,36.8,5.88,24.0,21.0,120,3,,6.21,29.763779,,,,,,,,,,,SCT,3300,BKN,9000,,,,,VFR,,,,,,,,,,,,METAR,11.0
DAAS 090300Z 20010KT 8000 FEW026 SCT100 24/07 Q1014,DAAS,2023-06-09T03:00:00Z,36.18,5.33,24.0,7.0,200,10,,4.97,29.940945,,,,,,,,,,,FEW,2600,SCT,10000,,,,,MVFR,,,,,,,,,,,,METAR,1012.0
DAAP 090300Z 11005KT CAVOK 28/05 Q1012,DAAP,2023-06-09T03:00:00Z,26.72,8.62,28.0,5.0,110,5,,6.21,29.88189,,,,,,,,,,,CAVOK,,,,,,,,VFR,,,,,,,,,,,,METAR,542.0
DAAJ 090300Z 11012KT 8000 NSC 28/05 Q1014,DAAJ,2023-06-09T03:00:00Z,24.28,9.47,28.0,5.0,110,12,,4.97,29.940945,,,,,,,,,,,CLR,,,,,,,,MVFR,,,,,,,,,,,,METAR,962.0
DAAE 090300Z 28004KT 7000 NSC 24/21 Q1010,DAAE,2023-06-09T03:00:00Z,36.72,5.07,24.0,21.0,280,4,,4.35,29.822834,,,,,,,,,,,CLR,,,,,,,,MVFR,,,,,,,,,,,,METAR,1.0
CZZJ 090300Z AUTO 06010G16KT 23/07 RMK AO1 PK WND 06017/0204 SLP150 T02320073 53006,CZZJ,2023-06-09T03:00:00Z,53.58,-116.47,23.2,7.3,60,10,16,,,1015.0,,TRUE,TRUE,,,,,,,,,,,,,,,,0.6,,,,,,,,,,,METAR,927.0
CZVL 090300Z AUTO 06010KT 8SM CLR 24/07 A3000 RMK SLP156 DENSITY ALT 3700FT,CZVL,2023-06-09T03:00:00Z,53.67,-113.85,24.0,7.0,60,10,,8.0,30.0,1015.6,,TRUE,,,,,,,,CLR,,,,,,,,VFR,,,,,,,,,,,,METAR,685.0
CZUM 090300Z AUTO 09006KT 9SM OVC042 09/06 A3003 RMK SLP186,CZUM,2023-06-09T03:00:00Z,53.55,-64.1,9.0,6.0,90,6,,9.0,30.029528,1018.6,,TRUE,,,,,,,,OVC,4200,,,,,,,VFR,,,,,,,,,,,,METAR,431.0
CZTB 090300Z AUTO 05002KT 12/05 RMK AO1 SLP140 T01230046 53005,CZTB,2023-06-09T03:00:00Z,48.37,-89.32,12.3,4.6,50,2,,,,1014.0,,TRUE,TRUE,,,,,,,,,,,,,,,,0.5,,,,,,,,,,,METAR,197.0
CZSP 090300Z AUTO 07002KT 09/09 RMK AO1 SLP100 T00920088 50001,CZSP,2023-06-09T03:00:00Z,46.45,-62.58,9.2,8.8,70,2,,,,1010.0,,TRUE,TRUE,,,,,,,,,,,,,,,,0.1,,,,,,,,,,,METAR,31.0
CZSM 090300Z AUTO 01001KT 17/07 RMK AO1 SLP199 T01720071 55002,CZSM,2023-06-09T03:00:00Z,60.03,-111.93,17.2,7.1,10,1,,,,1019.9,,TRUE,TRUE,,,,,,,,,,,,,,,,-0.2,,,,,,,,,,,METAR,203.0
CZPS 090300Z AUTO 10008KT 24/13 RMK AO1 T02370126,CZPS,2023-06-09T03:00:00Z,52.43,-113.6,23.7,12.6,100,8,,,,,,TRUE,TRUE,,,,,,,,,,,,,,,,,,,,,,,,,,,METAR,953.0
CZPC 090300Z AUTO 10004KT 9SM FEW210 SCT230 20/12 A3003 RMK SLP149 DENSITY ALT 5300FT,CZPC,2023-06-09T03:00:00Z,49.52,-114.0,20.0,12.0,100,4,,9.0,30.029528,1014.9,,TRUE,,,,,,,,FEW,21000,SCT,23000,,,,,VFR,,,,,,,,,,,,METAR,1187.0
CZOL 090300Z AUTO 09005KT 24/08 RMK AO1 T02420076,CZOL,2023-06-09T03:00:00Z,53.65,-113.35,24.2,7.6,90,5,,,,,,TRUE,TRUE,,,,,,,,,,,,,,,,,,,,,,,,,,,METAR,645.0
CZMJ 090300Z AUTO 03006KT 23/12 RMK AO1 SLP150 T02270122 53007,CZMJ,2023-06-09T03:00:00Z,50.33,-105.53,22.7,12.2,30,6,,,,1015.0,,TRUE,TRUE,,,,,,,,,,,,,,,,0.7,,,,,,,,,,,METAR,571.0
CZMD 090300Z AUTO 23002KT 9SM CLR 18/17 A2980 RMK SLP097 DENSITY ALT 1600FT,CZMD,2023-06-09T03:00:00Z,53.43,-91.77,18.0,17.0,230,2,,9.0,29.799213,1009.7,,TRUE,,,,,,,,CLR,,,,,,,,VFR,,,,,,,,,,,,METAR,276.0
CZKD 090300Z AUTO 33008KT 18/07 RMK AO1 SLP128 T01810070 53019,CZKD,2023-06-09T03:00:00Z,56.03,-96.52,18.1,7.0,330,8,,,,1012.8,,TRUE,TRUE,,,,,,,,,,,,,,,,1.9,,,,,,,,,,,METAR,190.0
CZFS 090300Z AUTO 10006KT 22/10 RMK AO1 SLP143 T02190096 56009,CZFS,2023-06-09T03:00:00Z,61.77,-121.23,21.9,9.6,100,6,,,,1014.3,,TRUE,TRUE,,,,,,,,,,,,,,,,-0.9,,,,,,,,,,,METAR,174.0
CZEV 090300Z AUTO 01010KT 15/02 RMK AO1 SLP123 T01500018 56005,CZEV,2023-06-09T03:00:00Z,68.32,-133.48,15.0,1.8,10,10,,,,1012.3,,TRUE,TRUE,,,,,,,,,,,,,,,,-0.5,,,,,,,,,,,METAR,92.0
CZEL 090300Z AUTO 35003KT 13/07 RMK AO1 SLP106 T01310071 51006,CZEL,2023-06-09T03:00:00Z,43.65,-80.42,13.1,7.1,350,3,,,,1010.6,,TRUE,TRUE,,,,,,,,,,,,,,,,0.6,,,,,,,,,,,METAR,370.0
CZDB 090300Z AUTO 10002KT 12/11 RMK AO1 0000 SLP097 T01160109 50008,CZDB,2023-06-09T03:00:00Z,45.42,-63.47,11.6,10.9,100,2,,,,1009.7,,TRUE,TRUE,,,,,,,,,,,,,,,,0.8,,,,,,,,,,,METAR,38.0
CZCR 090300Z AUTO 11008KT 08/08 RMK AO1 2PAST HR 1004 SLP120 P0001 T00820082 50007,CZCR,2023-06-09T03:00:00Z,47.98,-66.33,8.2,8.2,110,8,,,,1012.0,,TRUE,TRUE,,,,,,,,,,,,,,,,0.7,,,,,0.01,,,,,,METAR,39.0
CZCP 090300Z AUTO 05008KT 010V080 ////SM ////// 02/00 A2996,CZCP,2023-06-09T03:00:00Z,70.17,-124.68,2.0,0.0,50,8,,,29.958662,,,TRUE,,,,,,,,,,,,,,,,,,,,,,,,,,,,METAR,23.0
CYZY 090300Z AUTO 07009G16KT 040V100 6SM HZ CLR 28/08 A2984 RMK SLP105 DENSITY ALT 4300FT,CYZY,2023-06-09T03:00:00Z,55.3,-123.13,28.0,8.0,70,9,16,6.0,29.840551,1010.5,,TRUE,,,,,,,HZ,CLR,,,,,,,,VFR,,,,,,,,,,,,METAR,694.0
CYZX 090300Z 00000KT 15SM SCT060 OVC100 12/10 A2980 RMK SC3AC5 DENSITY ALT -1FT SLP093,CYZX,2023-06-09T03:00:00Z,44.98,-64.92,12.0,10.0,0,0,,15.0,29.799213,1009.3,,,,,,,,,,SCT,6000,OVC,10000,,,,,VFR,,,,,,,,,,,,METAR,28.0
CYZV 090300Z 00000KT 15SM -DZ FEW003 BKN010 BKN023 OVC030 09/09 A2994 RMK SF2SC3SC2SC1 SLP143,CYZV,2023-06-09T03:00:00Z,50.22,-66.27,9.0,9.0,0,0,,15.0,29.940945,1014.3,,,,,,,,,-DZ,FEW,300,BKN,1000,BKN,2300,OVC,3000,MVFR,,,,,,,,,,,,METAR,43.0
CYZU 090300Z 08010G16KT 10SM BKN240 22/08 A3001 RMK CI7 SLP165 DENSITY ALT 3900FT,CYZU,2023-06-09T03:00:00Z,54.15,-115.78,22.0,8.0,80,10,16,10.0,30.008858,1016.5,,,,,,,,,,BKN,24000,,,,,,,VFR,,,,,,,,,,,,METAR,785.0
CYZT 090300Z 33008KT 20SM SCT210 16/07 A2998 RMK CI3 SLP154,CYZT,2023-06-09T03:00:00Z,50.68,-127.37,16.0,7.0,330,8,,20.0,29.97933,1015.4,,,,,,,,,,SCT,21000,,,,,,,VFR,,,,,,,,,,,,METAR,13.0
CYZS 090300Z VRB02KT 1/4SM FG VV003 01/01 A2953 RMK FG8 SLP007,CYZS,2023-06-09T03:00:00Z,64.2,-83.35,1.0,1.0,0,2,,0.25,29.530512,1000.7,,,,,,,,,FG,OVX,0,,,,,,,LIFR,,,,,,,,,,,300,METAR,60.0
CYZR 090300Z AUTO 36006KT 9SM FEW086 SCT230 13/10 A2987 RMK SLP117,CYZR,2023-06-09T03:00:00Z,43.0,-82.3,13.0,10.0,360,6,,9.0,29.870079,1011.7,,TRUE,,,,,,,,FEW,8600,SCT,23000,,,,,VFR,,,,,,,,,,,,METAR,181.0
CYZP 090300Z AUTO 00000KT 9SM BKN096 14/11 A2996 RMK SLP147,CYZP,2023-06-09T03:00:00Z,53.25,-131.82,14.0,11.0,0,0,,9.0,29.958662,1014.7,,TRUE,,,,,,,,BKN,9600,,,,,,,VFR,,,,,,,,,,,,METAR,7.0
CYZH 090300Z AUTO 11007KT 9SM CLR 22/09 A3004 RMK SLP178 DENSITY ALT 3000FT,CYZH,2023-06-09T03:00:00Z,55.28,-114.77,22.0,9.0,110,7,,9.0,30.041338,1017.8,,TRUE,,,,,,,,CLR,,,,,,,,VFR,,,,,,,,,,,,METAR,583.0
CYZF 090300Z 17009KT 15SM FEW036 FEW120 FEW200 13/07 A3010 RMK SC1AC1CI1 SC TR AC TR CI TR SLP203,CYZF,2023-06-09T03:00:00Z,62.47,-114.45,13.0,7.0,170,9,,15.0,30.100393,1020.3,,,,,,,,,,FEW,3600,FEW,12000,FEW,20000,,,VFR,,,,,,,,,,,,METAR,202.0
CYZE 090300Z AUTO 31005KT 270V020 9SM CLR 12/09 A2987 RMK SLP118,CYZE,2023-06-09T03:00:00Z,45.88,-82.57,12.0,9.0,310,5,,9.0,29.870079,1011.8,,TRUE,,,,,,,,CLR,,,,,,,,VFR,,,,,,,,,,,,METAR,189.0
CYYZ 090300Z 35009KT 15SM FEW070 SCT180 14/10 A2981 RMK AC2AC2 SLP098 DENSITY ALT 800FT,CYYZ,2023-06-09T03:00:00Z,43.67,-79.62,14.0,10.0,350,9,,15.0,29.811024,1009.8,,,,,,,,,,FEW,7000,SCT,18000,,,,,VFR,,,,,,,,,,,,METAR,171.0
CYYY 090300Z 07007KT 10SM FEW004 OVC047 08/08 A2987 RMK SF2SC6 SLP119,CYYY,2023-06-09T03:00:00Z,48.6,-68.22,8.0,8.0,70,7,,10.0,29.870079,1011.9,,,,,,,,,,FEW,400,OVC,4700,,,,,VFR,,,,,,,,,,,,METAR,43.0
CYYU 090300Z 33003KT 15SM FEW210 13/09 A2985 RMK CS2 SLP115,CYYU,2023-06-09T03:00:00Z,49.42,-82.47,13.0,9.0,330,3,,15.0,29.84941,1011.5,,,,,,,,,,FEW,21000,,,,,,,VFR,,,,,,,,,,,,METAR,228.0
CYYT 090300Z 26002KT 15SM SCT060 11/10 A2986 RMK SC4 SLP117,CYYT,2023-06-09T03:00:00Z,47.62,-52.73,11.0,10.0,260,2,,15.0,29.861221,1011.7,,,,,,,,,,SCT,6000,,,,,,,VFR,,,,,,,,,,,,METAR,128.0
CYYQ 090300Z 33016G22KT 15SM BKN030 08/05 A2984 RMK SC7 SLP108,CYYQ,2023-06-09T03:00:00Z,58.75,-94.07,8.0,5.0,330,16,22,15.0,29.840551,1010.8,,,,,,,,,,BKN,3000,,,,,,,MVFR,,,,,,,,,,,,METAR,20.0
CYYN 090300Z AUTO 09005KT 9SM CLR 21/14 A3000 RMK SLP149 DENSITY ALT 4000FT,CYYN,2023-06-09T03:00:00Z,50.28,-107.68,21.0,14.0,90,5,,9.0,30.0,1014.9,,TRUE,,,,,,,,CLR,,,,,,,,VFR,,,,,,,,,,,,METAR,814.0
CYYL 090300Z AUTO 32006KT 9SM CLR 15/08 A3000 RMK SLP170,CYYL,2023-06-09T03:00:00Z,56.87,-101.07,15.0,8.0,320,6,,9.0,30.0,1017.0,,TRUE,,,,,,,,CLR,,,,,,,,VFR,,,,,,,,,,,,METAR,351.0
CYYJ 090300Z 08006KT 30SM FEW110 FEW200 BKN250 17/10 A2987 RMK AC1CC1CI5 AC TR SLP117 DENSITY ALT 400FT,CYYJ,2023-06-09T03:00:00Z,48.63,-123.42,17.0,10.0,80,6,,30.0,29.870079,1011.7,,,,,,,,,,FEW,11000,FEW,20000,BKN,25000,,,VFR,,,,,,,,,,,,METAR,16.0
CYYH 090300Z 32003KT 15SM VCSH FEW011 BKN014 OVC025 01/00 A2989 RMK SC2SC4SC2 SLP127,CYYH,2023-06-09T03:00:00Z,69.53,-93.57,1.0,0.0,320,3,,15.0,29.890747,1012.7,,,,,,,,,VCSH,FEW,1100,BKN,1400,OVC,2500,,,MVFR,,,,,,,,,,,,METAR,19.0
CYYG 090300Z 00000KT 15SM FEW055 BKN078 10/09 A2982 RMK SC2AC5 SLP102,CYYG,2023-06-09T03:00:00Z,46.28,-63.12,10.0,9.0,0,0,,15.0,29.819881,1010.2,,,,,,,,,,FEW,5500,BKN,7800,,,,,VFR,,,,,,,,,,,,METAR,48.0
CYYF 090300Z VRB02KT 15SM BKN170 OVC230 29/07 A2973 RMK AC5CI3 SLP063 DENSITY ALT 3200FT,CYYF,2023-06-09T03:00:00Z,49.47,-119.6,29.0,7.0,0,2,,15.0,29.731298,1006.3,,,,,,,,,,BKN,17000,OVC,23000,,,,,VFR,,,,,,,,,,,,METAR,342.0
CYYE 090300Z 07006KT 3SM FU VV043 25/10 A2990 RMK FU8 SLP132 DENSITY ALT 2800FT,CYYE,2023-06-09T03:00:00Z,58.83,-122.58,25.0,10.0,70,6,,3.0,29.899607,1013.2,,,,,,,,,FU,OVX,0,,,,,,,LIFR,,,,,,,,,,,4300,METAR,379.0
CYYD 090300Z 36007KT 25SM BKN230 25/03 A2987 RMK CI5 SLP116 DENSITY ALT 3400FT,CYYD,2023-06-09T03:00:00Z,54.82,-127.18,25.0,3.0,360,7,,25.0,29.870079,1011.6,,,,,,,,,,BKN,23000,,,,,,,VFR,,,,,,,,,,,,METAR,527.0
CYYC 090300Z 12011KT 20SM SCT100 SCT250 25/07 A3001 RMK AC3CI1 SH DIST N-NE SLP148 DENSITY ALT 5500FT,CYYC,2023-06-09T03:00:00Z,51.12,-114.02,25.0,7.0,120,11,,20.0,30.008858,1014.8,,,,,,,,,,SCT,10000,SCT,25000,,,,,VFR,,,,,,,,,,,,METAR,1085.0
CYXY 090300Z 18017G24KT 40SM FEW080 BKN130 BKN160 20/00 A2985 RMK CU1AC4AC2 SLP120 DENSITY ALT 3500FT,CYXY,2023-06-09T03:00:00Z,60.72,-135.07,20.0,0.0,180,17,24,40.0,29.84941,1012.0,,,,,,,,,,FEW,8000,BKN,13000,BKN,16000,,,VFR,,,,,,,,,,,,METAR,677.0
CYXU 090300Z 01004KT 15SM OVC095 14/08 A2984 RMK AC8 SLP106 DENSITY ALT 1200FT,CYXU,2023-06-09T03:00:00Z,43.03,-81.15,14.0,8.0,10,4,,15.0,29.840551,1010.6,,,,,,,,,,OVC,9500,,,,,,,VFR,,,,,,,,,,,,METAR,278.0
CYXT 090300Z 18012KT 20SM FEW180 BKN220 25/04 A2992 RMK AC1CI4 SLP134 DENSITY ALT 2000FT,CYXT,2023-06-09T03:00:00Z,54.47,-128.57,25.0,4.0,180,12,,20.0,29.920275,1013.4,,,,,,,,,,FEW,18000,BKN,22000,,,,,VFR,,,,,,,,,,,,METAR,213.0
CYXS 090300Z AUTO 10006KT 9SM CLR 27/08 A2981 RMK SLP095 DENSITY ALT 4300FT,CYXS,2023-06-09T03:00:00Z,53.88,-122.68,27.0,8.0,100,6,,9.0,29.811024,1009.5,,TRUE,,,,,,,,CLR,,,,,,,,VFR,,,,,,,,,,,,METAR,685.0
CYXR 090300Z AUTO 30006KT 9SM BKN081 BKN100 15/08 A2980 RMK SLP096 DENSITY ALT 1200FT,CYXR,2023-06-09T03:00:00Z,47.7,-79.85,15.0,8.0,300,6,,9.0,29.799213,1009.6,,TRUE,,,,,,,,BKN,8100,BKN,10000,,,,,VFR,,,,,,,,,,,,METAR,244.0
CYXL 090300Z 15003KT 15SM FEW070 BKN110 BKN200 17/11 A2990 RMK AC1AC5CI1 SLP131 DENSITY ALT 1800FT,CYXL,2023-06-09T03:00:00Z,50.12,-91.9,17.0,11.0,150,3,,15.0,29.899607,1013.1,,,,,,,,,,FEW,7000,BKN,11000,BKN,20000,,,VFR,,,,,,,,,,,,METAR,381.0
CYXJ 090300Z 09008KT 7SM SCT035 BKN200 22/08 A2997 RMK FU2ST2CI2 SLP153 DENSITY ALT 3600FT,CYXJ,2023-06-09T03:00:00Z,56.25,-120.73,22.0,8.0,90,8,,7.0,29.970472,1015.3,,,,,,,,,,SCT,3500,BKN,20000,,,,,VFR,,,,,,,,,,,,METAR,700.0
CYXH 090300Z 13009KT 30SM FEW050 SCT120 OVC270 24/14 A2997 RMK SC1ACC2CI5 LAST STFD OBS/NXT 091300Z SLP140 DENSITY ALT 3900FT,CYXH,2023-06-09T03:00:00Z,50.02,-110.72,24.0,14.0,130,9,,30.0,29.970472,1014.0,,,,,,,,,,FEW,5000,SCT,12000,OVC,27000,,,VFR,,,,,,,,,,,,METAR,717.0
CYXE 090300Z 01011KT 3SM FU SCT300 21/10 A3000 RMK CI4 SLP162 DENSITY ALT 2700FT,CYXE,2023-06-09T03:00:00Z,52.17,-106.7,21.0,10.0,10,11,,3.0,30.0,1016.2,,,,,,,,,FU,SCT,30000,,,,,,,MVFR,,,,,,,,,,,,METAR,504.0
CYXC 090300Z 14004KT 25SM FEW080 SCT140 BKN230 25/09 A2994 RMK AC1AC2CI4 SLP120 DENSITY ALT 5000FT,CYXC,2023-06-09T03:00:00Z,49.6,-115.78,25.0,9.0,140,4,,25.0,29.940945,1012.0,,,,,,,,,,FEW,8000,SCT,14000,BKN,23000,,,VFR,,,,,,,,,,,,METAR,928.0
CYWL 090300Z 01005KT 15SM BKN230 29/02 A2986 RMK CI6 SLP097 DENSITY ALT 5500FT,CYWL,2023-06-09T03:00:00Z,52.18,-122.07,29.0,2.0,10,5,,15.0,29.861221,1009.7,,,,,,,,,,BKN,23000,,,,,,,VFR,,,,,,,,,,,,METAR,942.0
CYWK 090300Z AUTO 10007KT 060V130 9SM OVC011 08/06 A3000 RMK SLP178,CYWK,2023-06-09T03:00:00Z,52.92,-66.87,8.0,6.0,100,7,,9.0,30.0,1017.8,,TRUE,,,,,,,,OVC,1100,,,,,,,MVFR,,,,,,,,,,,,METAR,547.0
CYWH 090300Z 22009KT 15SM BKN240 17/09 A2988 RMK CI5 SLP120 DENSITY ALT 300FT,CYWH,2023-06-09T03:00:00Z,48.42,-123.38,17.0,9.0,220,9,,15.0,29.878937,1012.0,,,,,,,,,,BKN,24000,,,,,,,VFR,,,,,,,,,,,,METAR,4.0
CYWG 090300Z 08005KT 15SM FEW150 BKN250 22/18 A2987 RMK AC1CI6 SLP118 DENSITY ALT 1900FT,CYWG,2023-06-09T03:00:00Z,49.9,-97.23,22.0,18.0,80,5,,15.0,29.870079,1011.8,,,,,,,,,,FEW,15000,BKN,25000,,,,,VFR,,,,,,,,,,,,METAR,238.0
CYWE 090300Z AUTO 19006KT 9SM CLR 15/04 A3006 RMK SLP197,CYWE,2023-06-09T03:00:00Z,64.18,-114.08,15.0,4.0,190,6,,9.0,30.059055,1019.7,,TRUE,,,,,,,,CLR,,,,,,,,VFR,,,,,,,,,,,,METAR,374.0
CYVV 090300Z 00000KT 15SM BKN060 13/11 A2984 RMK SC6 SLP110,CYVV,2023-06-09T03:00:00Z,44.75,-81.1,13.0,11.0,0,0,,15.0,29.840551,1011.0,,,,,,,,,,BKN,6000,,,,,,,VFR,,,,,,,,,,,,METAR,221.0
CYVT 090300Z AUTO 02003KT 9SM CLR 18/10 A3006 RMK SLP189 DENSITY ALT 2000FT,CYVT,2023-06-09T03:00:00Z,55.83,-108.42,18.0,10.0,20,3,,9.0,30.059055,1018.9,,TRUE,,,,,,,,CLR,,,,,,,,VFR,,,,,,,,,,,,METAR,438.0
CYVR 090300Z 11009KT 20SM FEW100 FEW140 FEW230 20/10 A2988 RMK AC1AC1CI2 AC TR AC TR SLP120 DENSITY ALT 700FT,CYVR,2023-06-09T03:00:00Z,49.17,-123.17,20.0,10.0,110,9,,20.0,29.878937,1012.0,,,,,,,,,,FEW,10000,FEW,14000,FEW,23000,,,VFR,,,,,,,,,,,,METAR,2.0
CYVQ 090300Z 12011G16KT 30SM FEW250 24/11 A2978 RMK CI1 SLP087 DENSITY ALT 1600FT,CYVQ,2023-06-09T03:00:00Z,65.27,-126.78,24.0,11.0,120,11,16,30.0,29.778543,1008.7,,,,,,,,,,FEW,25000,,,,,,,VFR,,,,,,,,,,,,METAR,63.0
CYVP 090300Z 33004KT 15SM SCT200 BKN260 10/01 A2992 RMK CI3CI4 SLP135,CYVP,2023-06-09T03:00:00Z,58.12,-68.42,10.0,1.0,330,4,,15.0,29.920275,1013.5,,,,,,,,,,SCT,20000,BKN,26000,,,,,VFR,,,,,,,,,,,,METAR,28.0
CYVO 090300Z AUTO 15005KT 7SM -RA BKN071 OVC081 12/11 A2980 RMK SLP099,CYVO,2023-06-09T03:00:00Z,48.07,-77.77,12.0,11.0,150,5,,7.0,29.799213,1009.9,,TRUE,,,,,,,-RA,BKN,7100,OVC,8100,,,,,VFR,,,,,,,,,,,,METAR,329.0
CYVL 090300Z AUTO 15008KT 9SM CLR 20/07 A2983 RMK SLP112 DENSITY ALT 1800FT,CYVL,2023-06-09T03:00:00Z,67.02,-126.13,20.0,7.0,150,8,,9.0,29.828741,1011.2,,TRUE,,,,,,,,CLR,,,,,,,,VFR,,,,,,,,,,,,METAR,261.0
CYVC 090300Z 36005KT 6SM FU FEW070 BKN250 18/08 A3004 RMK AC2CI3 SLP178 DENSITY ALT 1800FT,CYVC,2023-06-09T03:00:00Z,55.15,-105.27,18.0,8.0,360,5,,6.0,30.041338,1017.8,,,,,,,,,FU,FEW,7000,BKN,25000,,,,,VFR,,,,,,,,,,,,METAR,378.0
CYUY 090300Z 00000KT 15SM BKN072 15/11 A2980 RMK AC7 SLP096 DENSITY ALT 1400FT,CYUY,2023-06-09T03:00:00Z,48.2,-78.82,15.0,11.0,0,0,,15.0,29.799213,1009.6,,,,,,,,,,BKN,7200,,,,,,,VFR,,,,,,,,,,,,METAR,304.0
CYUB 090300Z 04012KT 15SM FEW005 BKN092 05/01 A2995 RMK SC1AC7 SC TR SLP143,CYUB,2023-06-09T03:00:00Z,69.43,-133.02,5.0,1.0,40,12,,15.0,29.949802,1014.3,,,,,,,,,,FEW,500,BKN,9200,,,,,VFR,,,,,,,,,,,,METAR,5.0
CYUA 090300Z AUTO 35007KT 310V030 ////SM OVC004 01/M00 A2997,CYUA,2023-06-09T03:00:00Z,68.92,-137.23,1.0,0.0,350,7,,,29.970472,,,TRUE,,,,,,,,OVC,400,,,,,,,,,,,,,,,,,,,METAR,25.0
CYTZ 090300Z AUTO 32006KT 280V350 9SM CLR 15/10 A2981 RMK SLP097 DENSITY ALT 500FT,CYTZ,2023-06-09T03:00:00Z,43.63,-79.4,15.0,10.0,320,6,,9.0,29.811024,1009.7,,TRUE,,,,,,,,CLR,,,,,,,,VFR,,,,,,,,,,,,METAR,76.0
CYTS 090300Z 28005KT 15SM SCT230 13/08 A2985 RMK CS3 SLP116,CYTS,2023-06-09T03:00:00Z,48.57,-81.37,13.0,8.0,280,5,,15.0,29.84941,1011.6,,,,,,,,,,SCT,23000,,,,,,,VFR,,,,,,,,,,,,METAR,290.0
CYTR 090300Z 00000KT 10SM BKN065 13/12 A2978 RMK SC5 DENSITY ALT 472FT SLP084,CYTR,2023-06-09T03:00:00Z,44.12,-77.52,13.0,12.0,0,0,,10.0,29.778543,1008.4,,,,,,,,,,BKN,6500,,,,,,,VFR,,,,,,,,,,,,METAR,80.0
CYTL 090300Z AUTO 25004KT 9SM FEW060 BKN100 20/14 A2977 RMK SLP088 DENSITY ALT 1700FT,CYTL,2023-06-09T03:00:00Z,53.82,-89.88,20.0,14.0,250,4,,9.0,29.769686,1008.8,,TRUE,,,,,,,,FEW,6000,BKN,10000,,,,,VFR,,,,,,,,,,,,METAR,218.0
CYTH 090300Z 35008G17KT 15SM SCT250 18/07 A2991 RMK CI4 SLP135 DENSITY ALT 1300FT,CYTH,2023-06-09T03:00:00Z,55.8,-97.83,18.0,7.0,350,8,17,15.0,29.911417,1013.5,,,,,,,,,,SCT,25000,,,,,,,VFR,,,,,,,,,,,,METAR,212.0
CYSM 090300Z 03005KT 10SM FEW070 FEW280 17/07 A3008 RMK FU1CI1 CI TR FU SLP195 DENSITY ALT 900FT,CYSM,2023-06-09T03:00:00Z,60.03,-111.92,17.0,7.0,30,5,,10.0,30.079725,1019.5,,,,,,,,,,FEW,7000,FEW,28000,,,,,VFR,,,,,,,,,,,,METAR,203.0
CYSJ 090300Z 08004KT 15SM SCT006 BKN023 BKN090 12/11 A2979 RMK SF3SC3AC1 SLP092,CYSJ,2023-06-09T03:00:00Z,45.32,-65.88,12.0,11.0,80,4,,15.0,29.790354,1009.2,,,,,,,,,,SCT,600,BKN,2300,BKN,9000,,,MVFR,,,,,,,,,,,,METAR,89.0
CYSF 090300Z AUTO 34004KT 290V020 9SM OVC055 16/09 A3005 RMK SLP187,CYSF,2023-06-09T03:00:00Z,59.25,-105.83,16.0,9.0,340,4,,9.0,30.050198,1018.7,,TRUE,,,,,,,,OVC,5500,,,,,,,VFR,,,,,,,,,,,,METAR,238.0
CYSB 090300Z 29004KT 15SM SKC 12/09 A2984 RMK SLP112,CYSB,2023-06-09T03:00:00Z,46.63,-80.8,12.0,9.0,290,4,,15.0,29.840551,1011.2,,,,,,,,,,SKC,,,,,,,,VFR,,,,,,,,,,,,METAR,349.0
CYRV 090300Z AUTO VRB02KT 9SM CLR 23/13 A2971 RMK SLP058 DENSITY ALT 3000FT,CYRV,2023-06-09T03:00:00Z,50.97,-118.17,23.0,13.0,0,2,,9.0,29.71063,1005.8,,TRUE,,,,,,,,CLR,,,,,,,,VFR,,,,,,,,,,,,METAR,456.0
CYRQ 090300Z AUTO 05007KT 9SM BKN150 OVC170 11/09 A2978 RMK SLP088,CYRQ,2023-06-09T03:00:00Z,46.35,-72.68,11.0,9.0,50,7,,9.0,29.778543,1008.8,,TRUE,,,,,,,,BKN,15000,OVC,17000,,,,,VFR,,,,,,,,,,,,METAR,58.0
CYRJ 090300Z 11004KT 25SM OVC029 11/10 A2985 RMK SC8 SLP113,CYRJ,2023-06-09T03:00:00Z,48.52,-72.27,11.0,10.0,110,4,,25.0,29.84941,1011.3,,,,,,,,,,OVC,2900,,,,,,,MVFR,,,,,,,,,,,,METAR,173.0
CYRB 090300Z 13015KT 2SM R35/4000V6000FT/D -SHSN OVC018 M01/M02 A2980 RMK SN4SC4 SLP101,CYRB,2023-06-09T03:00:00Z,74.72,-94.97,-1.0,-2.0,130,15,,2.0,29.799213,1010.1,,,,,,,,,-SHSN,OVC,1800,,,,,,,IFR,,,,,,,,,,,,METAR,59.0
CYQZ 090300Z AUTO 00000KT 9SM CLR 29/10 A2978 RMK SLP084 DENSITY ALT 4000FT,CYQZ,2023-06-09T03:00:00Z,53.02,-122.52,29.0,10.0,0,0,,9.0,29.778543,1008.4,,TRUE,,,,,,,,CLR,,,,,,,,VFR,,,,,,,,,,,,METAR,548.0
CYQY 090300Z 34002KT 1/4SM R06/2000V2400FT/N FG VV002 07/07 A2984 RMK FG8 SLP108,CYQY,2023-06-09T03:00:00Z,46.17,-60.03,7.0,7.0,340,2,,0.25,29.840551,1010.8,,,,,,,,,FG,OVX,0,,,,,,,LIFR,,,,,,,,,,,200,METAR,58.0
CYQW 090300Z AUTO 04009KT 4SM HZ CLR 21/10 A3005 RMK SLP176 DENSITY ALT 2800FT,CYQW,2023-06-09T03:00:00Z,52.77,-108.25,21.0,10.0,40,9,,4.0,30.050198,1017.6,,TRUE,,,,,,,HZ,CLR,,,,,,,,MVFR,,,,,,,,,,,,METAR,545.0
CYQV 090300Z AUTO 23003KT 9SM CLR 23/17 A2992 RMK SLP135 DENSITY ALT 2900FT,CYQV,2023-06-09T03:00:00Z,51.27,-102.47,23.0,17.0,230,3,,9.0,29.920275,1013.5,,TRUE,,,,,,,,CLR,,,,,,,,VFR,,,,,,,,,,,,METAR,493.0
CYQU 090300Z 07012G17KT 10SM SCT120 23/09 A2994 RMK FU2AC1 FU SLP143 DENSITY ALT 3700FT,CYQU,2023-06-09T03:00:00Z,55.18,-118.88,23.0,9.0,70,12,17,10.0,29.940945,1014.3,,,,,,,,,,SCT,12000,,,,,,,VFR,,,,,,,,,,,,METAR,668.0
CYQT 090300Z 03004KT 15SM FEW180 FEW300 11/04 A2993 RMK AC1CI1 SLP140,CYQT,2023-06-09T03:00:00Z,48.37,-89.32,11.0,4.0,30,4,,15.0,29.929134,1014.0,,,,,,,,,,FEW,18000,FEW,30000,,,,,VFR,,,,,,,,,,,,METAR,197.0
CYQR 090300Z 02003KT 15SM FEW110 SCT290 24/16 A2995 RMK AC1CI3 AC TR SLP142 DENSITY ALT 3400FT,CYQR,2023-06-09T03:00:00Z,50.43,-104.67,24.0,16.0,20,3,,15.0,29.949802,1014.2,,,,,,,,,,FEW,11000,SCT,29000,,,,,VFR,,,,,,,,,,,,METAR,576.0
CYQQ 090300Z 06002KT 20SM FEW020 SCT250 23/04 A2985 RMK FU1CI2 DENSITY ALT 1226FT SLP109,CYQQ,2023-06-09T03:00:00Z,49.72,-124.9,23.0,4.0,60,2,,20.0,29.84941,1010.9,,,,,,,,,,FEW,2000,SCT,25000,,,,,VFR,,,,,,,,,,,,METAR,24.0
CYQL 090300Z 09007KT 30SM FEW090 BKN280 23/13 A2999 RMK AC1CI6 SLP142 DENSITY ALT 4600FT,CYQL,2023-06-09T03:00:00Z,49.63,-112.8,23.0,13.0,90,7,,30.0,29.991142,1014.2,,,,,,,,,,FEW,9000,BKN,28000,,,,,VFR,,,,,,,,,,,,METAR,923.0
CYQK 090300Z 22003KT 15SM SCT060 BKN100 BKN240 20/06 A2991 RMK SC3AC2CI2 SLP132 DENSITY ALT 2300FT,CYQK,2023-06-09T03:00:00Z,49.78,-94.37,20.0,6.0,220,3,,15.0,29.911417,1013.2,,,,,,,,,,SCT,6000,BKN,10000,BKN,24000,,,VFR,,,,,,,,,,,,METAR,413.0
CYQH 090300Z 13006KT 30SM FEW060 BKN110 OVC220 25/05 A2985 RMK CU2AC3CI3 SLP111 DENSITY ALT 4000FT,CYQH,2023-06-09T03:00:00Z,60.12,-128.82,25.0,5.0,130,6,,30.0,29.84941,1011.1,,,,,,,,,,FEW,6000,BKN,11000,OVC,22000,,,VFR,,,,,,,,,,,,METAR,692.0
CYQG 090300Z AUTO 03009KT 9SM OVC120 16/08 A2988 RMK SLP119 DENSITY ALT 1000FT,CYQG,2023-06-09T03:00:00Z,42.27,-82.97,16.0,8.0,30,9,,9.0,29.878937,1011.9,,TRUE,,,,,,,,OVC,12000,,,,,,,VFR,,,,,,,,,,,,METAR,189.0
CYQF 090300Z AUTO 12009KT 9SM CLR 25/08 A2999 RMK SLP152 DENSITY ALT 4800FT,CYQF,2023-06-09T03:00:00Z,52.17,-113.9,25.0,8.0,120,9,,9.0,29.991142,1015.2,,TRUE,,,,,,,,CLR,,,,,,,,VFR,,,,,,,,,,,,METAR,912.0
CYQD 090300Z AUTO 29005KT 9SM CLR 22/11 A2991 RMK SLP132 DENSITY ALT 1900FT,CYQD,2023-06-09T03:00:00Z,53.97,-101.08,22.0,11.0,290,5,,9.0,29.911417,1013.2,,TRUE,,,,,,,,CLR,,,,,,,,VFR,,,,,,,,,,,,METAR,268.0
CYQA 090300Z AUTO 35004KT 9SM BKN071 OVC100 12/10 A2981 RMK SLP099,CYQA,2023-06-09T03:00:00Z,44.97,-79.3,12.0,10.0,350,4,,9.0,29.811024,1009.9,,TRUE,,,,,,,,BKN,7100,OVC,10000,,,,,VFR,,,,,,,,,,,,METAR,277.0
CYPY 090300Z AUTO 27003KT 9SM CLR 18/09 A3006 RMK SLP187 DENSITY ALT 1200FT,CYPY,2023-06-09T03:00:00Z,58.77,-111.12,18.0,9.0,270,3,,9.0,30.059055,1018.7,,TRUE,,,,,,,,CLR,,,,,,,,VFR,,,,,,,,,,,,METAR,225.0
CYPX 090300Z AUTO 19006KT 9SM FEW230 SCT250 08/01 A2979 RMK SLP091,CYPX,2023-06-09T03:00:00Z,60.03,-77.27,8.0,1.0,190,6,,9.0,29.790354,1009.1,,TRUE,,,,,,,,FEW,23000,SCT,25000,,,,,VFR,,,,,,,,,,,,METAR,10.0
CYPR 090300Z AUTO 32007KT 9SM BKN170 17/06 A2998 RMK SLP153 DENSITY ALT 400FT,CYPR,2023-06-09T03:00:00Z,54.28,-130.45,17.0,6.0,320,7,,9.0,29.97933,1015.3,,TRUE,,,,,,,,BKN,17000,,,,,,,VFR,,,,,,,,,,,,METAR,30.0
CYPQ 090300Z AUTO 28003KT 9SM BKN081 OVC150 11/10 A2979 RMK SLP093,CYPQ,2023-06-09T03:00:00Z,44.22,-78.37,11.0,10.0,280,3,,9.0,29.790354,1009.3,,TRUE,,,,,,,,BKN,8100,OVC,15000,,,,,VFR,,,,,,,,,,,,METAR,190.0
CYPO 090300Z AUTO 19006KT 9SM BKN200 BKN220 BKN250 19/07 A2975 RMK SLP075 DENSITY ALT 900FT,CYPO,2023-06-09T03:00:00Z,54.98,-85.43,19.0,7.0,190,6,,9.0,29.749016,1007.5,,TRUE,,,,,,,,BKN,20000,BKN,22000,BKN,25000,,,VFR,,,,,,,,,,,,METAR,49.0
CYPL 090300Z AUTO 23007KT 9SM FEW130 19/08 A2988 RMK SLP121 DENSITY ALT 2200FT,CYPL,2023-06-09T03:00:00Z,51.43,-90.22,19.0,8.0,230,7,,9.0,29.878937,1012.1,,TRUE,,,,,,,,FEW,13000,,,,,,,VFR,,,,,,,,,,,,METAR,390.0
CYPH 090300Z AUTO 21009KT 9SM CLR 09/01 A2982 RMK SLP101,CYPH,2023-06-09T03:00:00Z,58.47,-78.08,9.0,1.0,210,9,,9.0,29.819881,1010.1,,TRUE,,,,,,,,CLR,,,,,,,,VFR,,,,,,,,,,,,METAR,24.0
CYPG 090300Z 00000KT 12SM FEW060 BKN130 OVC250 24/18 A2989 RMK SC1AC6CI1 DENSITY ALT 2482FT SLP118,CYPG,2023-06-09T03:00:00Z,49.9,-98.28,24.0,18.0,0,0,,12.0,29.890747,1011.8,,,,,,,,,,FEW,6000,BKN,13000,OVC,25000,,,VFR,,,,,,,,,,,,METAR,270.0
CYPE 090300Z 08007KT 12SM BKN240 21/09 A3001 RMK CI6 SLP168 DENSITY ALT 3000FT,CYPE,2023-06-09T03:00:00Z,56.22,-117.45,21.0,9.0,80,7,,12.0,30.008858,1016.8,,,,,,,,,,BKN,24000,,,,,,,VFR,,,,,,,,,,,,METAR,572.0
CYPD 090300Z AUTO 05005KT 5SM BR BKN003 OVC071 09/08 A2982 RMK SLP101,CYPD,2023-06-09T03:00:00Z,45.67,-61.37,9.0,8.0,50,5,,5.0,29.819881,1010.1,,TRUE,,,,,,,BR,BKN,300,OVC,7100,,,,,LIFR,,,,,,,,,,,,METAR,106.0
CYPA 090300Z 34004KT 5SM FU OVC270 19/09 A3003 RMK FU2CI6 SLP172 DENSITY ALT 2200FT,CYPA,2023-06-09T03:00:00Z,53.22,-105.67,19.0,9.0,340,4,,5.0,30.029528,1017.2,,,,,,,,,FU,OVC,27000,,,,,,,MVFR,,,,,,,,,,,,METAR,428.0
CYOW 090300Z 35004KT 15SM BKN065 OVC150 13/11 A2977 RMK SC6AC2 SLP085,CYOW,2023-06-09T03:00:00Z,45.32,-75.67,13.0,11.0,350,4,,15.0,29.769686,1008.5,,,,,,,,,,BKN,6500,OVC,15000,,,,,VFR,,,,,,,,,,,,METAR,111.0
CYOO 090300Z AUTO 33003KT 9SM SCT120 12/09 A2980 RMK SLP094,CYOO,2023-06-09T03:00:00Z,43.92,-78.9,12.0,9.0,330,3,,9.0,29.799213,1009.4,,TRUE,,,,,,,,SCT,12000,,,,,,,VFR,,,,,,,,,,,,METAR,136.0
CYOJ 090300Z 00000KT 15SM FEW250 20/10 A3001 RMK CI2 FU SLP173 DENSITY ALT 1900FT,CYOJ,2023-06-09T03:00:00Z,58.62,-117.17,20.0,10.0,0,0,,15.0,30.008858,1017.3,,,,,,,,,,FEW,25000,,,,,,,VFR,,,,,,,,,,,,METAR,339.0
CYOD 090300Z 06004KT 8SM SCT230 19/09 A3006 RMK FU3 DENSITY ALT 2714FT SLP182,CYOD,2023-06-09T03:00:00Z,54.4,-110.28,19.0,9.0,60,4,,8.0,30.059055,1018.2,,,,,,,,,,SCT,23000,,,,,,,VFR,,,,,,,,,,,,METAR,540.0
CYNM 090300Z AUTO 01004KT 9SM OVC076 14/08 A2980 RMK SLP099 DENSITY ALT 1200FT,CYNM,2023-06-09T03:00:00Z,49.77,-77.78,14.0,8.0,10,4,,9.0,29.799213,1009.9,,TRUE,,,,,,,,OVC,7600,,,,,,,VFR,,,,,,,,,,,,METAR,276.0
CYNE 090300Z AUTO 35004KT 9SM CLR 21/12 A2985 RMK SLP113 DENSITY ALT 1800FT,CYNE,2023-06-09T03:00:00Z,53.97,-97.83,21.0,12.0,350,4,,9.0,29.84941,1011.3,,TRUE,,,,,,,,CLR,,,,,,,,VFR,,,,,,,,,,,,METAR,220.0
CYMX 090300Z 05004KT 20SM VCSH SCT035 BKN088 12/11 A2977 RMK CU3AC4 SLP085,CYMX,2023-06-09T03:00:00Z,45.67,-74.03,12.0,11.0,50,4,,20.0,29.769686,1008.5,,,,,,,,,VCSH,SCT,3500,BKN,8800,,,,,VFR,,,,,,,,,,,,METAR,78.0
CYMO 090300Z AUTO 06002KT 9SM CLR 09/06 A2986 RMK SLP114,CYMO,2023-06-09T03:00:00Z,51.28,-80.62,9.0,6.0,60,2,,9.0,29.861221,1011.4,,TRUE,,,,,,,,CLR,,,,,,,,VFR,,,,,,,,,,,,METAR,8.0
CYMM 090300Z AUTO 22003KT 9SM CLR 19/08 A3005 RMK SLP186 DENSITY ALT 1900FT,CYMM,2023-06-09T03:00:00Z,56.65,-111.22,19.0,8.0,220,3,,9.0,30.050198,1018.6,,TRUE,,,,,,,,CLR,,,,,,,,VFR,,,,,,,,,,,,METAR,371.0
CYMA 090300Z VRB03KT 20SM FEW065TCU SCT095 OVC140 25/04 A2971 RMK TCU1AC3AS4 SLP067 DENSITY ALT 3400FT,CYMA,2023-06-09T03:00:00Z,63.62,-135.87,25.0,4.0,0,3,,20.0,29.71063,1006.7,,,,,,,,,,FEW,6500,SCT,9500,OVC,14000,,,VFR,,,,,,,,,,,,METAR,519.0
CYLW 090300Z AUTO 21003KT 9SM FEW130 31/09 A2974 RMK SLP064 DENSITY ALT 3800FT,CYLW,2023-06-09T03:00:00Z,49.95,-119.37,31.0,9.0,210,3,,9.0,29.740158,1006.4,,TRUE,,,,,,,,FEW,13000,,,,,,,VFR,,,,,,,,,,,,METAR,420.0
CYLL 090300Z 05007KT 5SM FU FEW260 19/10 A3006 RMK CI2 SLP181 DENSITY ALT 3100FT,CYLL,2023-06-09T03:00:00Z,53.32,-110.07,19.0,10.0,50,7,,5.0,30.059055,1018.1,,,,,,,,,FU,FEW,26000,,,,,,,MVFR,,,,,,,,,,,,METAR,664.0
CYLH 090300Z AUTO 27006KT 9SM FEW130 17/09 A2982 RMK SLP105 DENSITY ALT 1500FT,CYLH,2023-06-09T03:00:00Z,52.2,-87.93,17.0,9.0,270,6,,9.0,29.819881,1010.5,,TRUE,,,,,,,,FEW,13000,,,,,,,VFR,,,,,,,,,,,,METAR,245.0
CYKY 090300Z 08007KT 15SM FEW100 SCT260 25/11 A3000 RMK AC1CI3 SLP150 DENSITY ALT 3900FT,CYKY,2023-06-09T03:00:00Z,51.52,-109.17,25.0,11.0,80,7,,15.0,30.0,1015.0,,,,,,,,,,FEW,10000,SCT,26000,,,,,VFR,,,,,,,,,,,,METAR,692.0
CYKP 090300Z AUTO 14004KT 9SM CLR 18/02 A2984 RMK SLP104 DENSITY ALT 1200FT,CYKP,2023-06-09T03:00:00Z,51.67,-85.9,18.0,2.0,140,4,,9.0,29.840551,1010.4,,TRUE,,,,,,,,CLR,,,,,,,,VFR,,,,,,,,,,,,METAR,181.0
CYKL 090300Z AUTO 16006KT 9SM CLR 08/06 A3001 RMK SLP182,CYKL,2023-06-09T03:00:00Z,54.8,-66.8,8.0,6.0,160,6,,9.0,30.008858,1018.2,,TRUE,,,,,,,,CLR,,,,,,,,VFR,,,,,,,,,,,,METAR,507.0
CYKJ 090300Z AUTO 36003KT 9SM CLR 16/07 A3006 RMK SLP194 DENSITY ALT 2100FT,CYKJ,2023-06-09T03:00:00Z,57.25,-105.62,16.0,7.0,360,3,,9.0,30.059055,1019.4,,TRUE,,,,,,,,CLR,,,,,,,,VFR,,,,,,,,,,,,METAR,519.0
CYKF 090300Z AUTO 35004KT 9SM BKN055 OVC080 13/08 A2984 RMK SLP105,CYKF,2023-06-09T03:00:00Z,43.47,-80.38,13.0,8.0,350,4,,9.0,29.840551,1010.5,,TRUE,,,,,,,,BKN,5500,OVC,8000,,,,,VFR,,,,,,,,,,,,METAR,312.0
CYKA 090300Z 00000KT 40SM SCT180 BKN240 32/06 A2971 RMK AC3CI3 SLP058 DENSITY ALT 3600FT,CYKA,2023-06-09T03:00:00Z,50.7,-120.45,32.0,6.0,0,0,,40.0,29.71063,1005.8,,,,,,,,,,SCT,18000,BKN,24000,,,,,VFR,,,,,,,,,,,,METAR,344.0
CYJT 090300Z 26003KT 15SM FEW045 SCT075 07/07 A2984 RMK SC2AC1 SLP106,CYJT,2023-06-09T03:00:00Z,48.55,-58.57,7.0,7.0,260,3,,15.0,29.840551,1010.6,,,,,,,,,,FEW,4500,SCT,7500,,,,,VFR,,,,,,,,,,,,METAR,7.0
CYIV 090300Z AUTO 33005KT 200V340 9SM CLR 20/17 A2978 RMK SLP091 DENSITY ALT 1800FT,CYIV,2023-06-09T03:00:00Z,53.85,-94.65,20.0,17.0,330,5,,9.0,29.778543,1009.1,,TRUE,,,,,,,,CLR,,,,,,,,VFR,,,,,,,,,,,,METAR,234.0
CYIO 090300Z AUTO 05013G19KT 9SM CLR M01/M04 A2976 RMK SLP085,CYIO,2023-06-09T03:00:00Z,72.68,-77.97,-1.0,-4.0,50,13,19,9.0,29.760826,1008.5,,TRUE,,,,,,,,CLR,,,,,,,,VFR,,,,,,,,,,,,METAR,61.0
CYIN 090300Z AUTO 14002KT 9SM CLR 25/03 A2990 RMK SLP098 DENSITY ALT 5800FT,CYIN,2023-06-09T03:00:00Z,51.27,-121.68,25.0,3.0,140,2,,9.0,29.899607,1009.8,,TRUE,,,,,,,,CLR,,,,,,,,VFR,,,,,,,,,,,,METAR,1127.0
CYHZ 090300Z 13006KT 15SM FEW051 BKN081 10/09 A2981 RMK SC1AC7 SC TR SLP099,CYHZ,2023-06-09T03:00:00Z,44.87,-63.5,10.0,9.0,130,6,,15.0,29.811024,1009.9,,,,,,,,,,FEW,5100,BKN,8100,,,,,VFR,,,,,,,,,,,,METAR,136.0
CYHY 090300Z 07007KT 14SM FEW250 10/05 A3007 RMK CI1 SLP192,CYHY,2023-06-09T03:00:00Z,60.83,-115.77,10.0,5.0,70,7,,14.0,30.070866,1019.2,,,,,,,,,,FEW,25000,,,,,,,VFR,,,,,,,,,,,,METAR,159.0
CYHU 090300Z AUTO 04005KT 9SM FEW041 12/09 A2976 RMK SLP080,CYHU,2023-06-09T03:00:00Z,45.52,-73.42,12.0,9.0,40,5,,9.0,29.760826,1008.0,,TRUE,,,,,,,,FEW,4100,,,,,,,VFR,,,,,,,,,,,,METAR,26.0
CYHM 090300Z 26002KT 15SM OVC051 13/10 A2983 RMK SC8 SLP104,CYHM,2023-06-09T03:00:00Z,43.17,-79.93,13.0,10.0,260,2,,15.0,29.828741,1010.4,,,,,,,,,,OVC,5100,,,,,,,VFR,,,,,,,,,,,,METAR,237.0
CYHK 090300Z AUTO 34007KT 9SM OVC017 03/01 A2991 RMK SLP135,CYHK,2023-06-09T03:00:00Z,68.62,-95.85,3.0,1.0,340,7,,9.0,29.911417,1013.5,,TRUE,,,,,,,,OVC,1700,,,,,,,MVFR,,,,,,,,,,,,METAR,36.0
CYHE 090300Z AUTO 28008KT 250V340 9SM SCT170 23/11 A2984 RMK SLP106 DENSITY ALT 1300FT,CYHE,2023-06-09T03:00:00Z,49.37,-121.5,23.0,11.0,280,8,,9.0,29.840551,1010.6,,TRUE,,,,,,,,SCT,17000,,,,,,,VFR,,,,,,,,,,,,METAR,43.0
CYHD 090300Z AUTO 21005KT 9SM BKN076 BKN099 20/07 A2991 RMK SLP132 DENSITY ALT 2300FT,CYHD,2023-06-09T03:00:00Z,49.82,-92.75,20.0,7.0,210,5,,9.0,29.911417,1013.2,,TRUE,,,,,,,,BKN,7600,BKN,9900,,,,,VFR,,,,,,,,,,,,METAR,414.0
CYGX 090300Z 35016G23KT 15SM FEW180 18/09 A2984 RMK AS2 SLP110 DENSITY ALT 1100FT,CYGX,2023-06-09T03:00:00Z,56.35,-94.7,18.0,9.0,350,16,23,15.0,29.840551,1011.0,,,,,,,,,,FEW,18000,,,,,,,VFR,,,,,,,,,,,,METAR,145.0
CYGW 090300Z AUTO 00000KT 8SM CLR 07/03 A2984 RMK SLP109,CYGW,2023-06-09T03:00:00Z,55.27,-77.77,7.0,3.0,0,0,,8.0,29.840551,1010.9,,TRUE,,,,,,,,CLR,,,,,,,,VFR,,,,,,,,,,,,METAR,13.0
CYGP 090300Z 00000KT 15SM FEW020 OVC035 08/08 A2991 RMK SC1SC7 SLP131,CYGP,2023-06-09T03:00:00Z,48.77,-64.47,8.0,8.0,0,0,,15.0,29.911417,1013.1,,,,,,,,,,FEW,2000,OVC,3500,,,,,VFR,,,,,,,,,,,,METAR,31.0
CYGL 090300Z 00000KT 15SM BKN060 14/09 A2984 RMK SC7 SLP112,CYGL,2023-06-09T03:00:00Z,53.62,-77.7,14.0,9.0,0,0,,15.0,29.840551,1011.2,,,,,,,,,,BKN,6000,,,,,,,VFR,,,,,,,,,,,,METAR,192.0
CYGK 090300Z 32003KT 15SM -SHRA FEW040 OVC060 13/11 A2978 RMK SC2SC6 CVCTV CLD ASOCTD LAST STFD OBS/NXT 091000Z SLP087,CYGK,2023-06-09T03:00:00Z,44.22,-76.58,13.0,11.0,320,3,,15.0,29.778543,1008.7,,,,,,,,,-SHRA,FEW,4000,OVC,6000,,,,,VFR,,,,,,,,,,,,METAR,91.0
CYFS 090300Z 10004KT 030V170 15SM FEW250 22/10 A2994 RMK CI1 CI TR TR FU ALQDS SLP144 DENSITY ALT 1600FT,CYFS,2023-06-09T03:00:00Z,61.75,-121.22,22.0,10.0,100,4,,15.0,29.940945,1014.4,,,,,,,,,,FEW,25000,,,,,,,VFR,,,,,,,,,,,,METAR,174.0
CYFC 090300Z AUTO 04009KT 9SM OVC007 11/10 A2980 RMK SLP094,CYFC,2023-06-09T03:00:00Z,45.87,-66.53,11.0,10.0,40,9,,9.0,29.799213,1009.4,,TRUE,,,,,,,,OVC,700,,,,,,,IFR,,,,,,,,,,,,METAR,16.0
CYFB 090300Z VRB02KT 30SM OVC088 02/01 A2984 RMK AC8 SLP110,CYFB,2023-06-09T03:00:00Z,63.75,-68.55,2.0,1.0,0,2,,30.0,29.840551,1011.0,,,,,,,,,,OVC,8800,,,,,,,VFR,,,,,,,,,,,,METAR,23.0
CYEV 090300Z 36011KT 15SM FEW090 FEW250 15/02 A2986 RMK AC1CI1 AC TR CI TR SLP117,CYEV,2023-06-09T03:00:00Z,68.32,-133.5,15.0,2.0,360,11,,15.0,29.861221,1011.7,,,,,,,,,,FEW,9000,FEW,25000,,,,,VFR,,,,,,,,,,,,METAR,74.0
CYEN 090300Z AUTO 10005KT 9SM CLR 21/17 A2992 RMK SLP132 DENSITY ALT 3000FT,CYEN,2023-06-09T03:00:00Z,49.22,-102.97,21.0,17.0,100,5,,9.0,29.920275,1013.2,,TRUE,,,,,,,,CLR,,,,,,,,VFR,,,,,,,,,,,,METAR,580.0
CYEK 090300Z AUTO 32030G40KT 9SM OVC010 06/05 A2971 RMK SLP062,CYEK,2023-06-09T03:00:00Z,61.1,-94.07,6.0,5.0,320,30,40,9.0,29.71063,1006.2,,TRUE,,,,,,,,OVC,1000,,,,,,,MVFR,,,,,,,,,,,,METAR,7.0
CYEG 090300Z 07011KT 12SM FEW068 FEW250 24/08 A2999 RMK CU1CI2 CU TR FU SLP150 DENSITY ALT 4000FT,CYEG,2023-06-09T03:00:00Z,53.3,-113.58,24.0,8.0,70,11,,12.0,29.991142,1015.0,,,,,,,,,,FEW,6800,FEW,25000,,,,,VFR,,,,,,,,,,,,METAR,710.0
CYED 090300Z 04010G16KT 8SM BKN250 23/08 A3002 RMK CI5 DENSITY ALT 3794FT FU SLP161,CYED,2023-06-09T03:00:00Z,53.67,-113.47,23.0,8.0,40,10,16,8.0,30.02067,1016.1,,,,,,,,,,BKN,25000,,,,,,,VFR,,,,,,,,,,,,METAR,688.0
CYDQ 090300Z AUTO VRB02KT 8SM CLR 19/10 A2995 RMK SLP152 DENSITY ALT 3100FT,CYDQ,2023-06-09T03:00:00Z,55.75,-120.18,19.0,10.0,0,2,,8.0,29.949802,1015.2,,TRUE,,,,,,,,CLR,,,,,,,,VFR,,,,,,,,,,,,METAR,658.0
CYDN 090300Z AUTO 25005KT 9SM CLR 20/18 A2988 RMK SLP120 DENSITY ALT 2000FT,CYDN,2023-06-09T03:00:00Z,51.1,-100.05,20.0,18.0,250,5,,9.0,29.878937,1012.0,,TRUE,,,,,,,,CLR,,,,,,,,VFR,,,,,,,,,,,,METAR,302.0
CYDL 090300Z AUTO 24004KT 200V310 9SM CLR 20/04 A2992 RMK SLP133 DENSITY ALT 3900FT,CYDL,2023-06-09T03:00:00Z,58.42,-130.02,20.0,4.0,240,4,,9.0,29.920275,1013.3,,TRUE,,,,,,,,CLR,,,,,,,,VFR,,,,,,,,,,,,METAR,804.0
CYDB 090300Z AUTO 13023G32KT 9SM CLR 15/02 A2973 RMK SLP088 DENSITY ALT 3500FT,CYDB,2023-06-09T03:00:00Z,61.37,-139.02,15.0,2.0,130,23,32,9.0,29.731298,1008.8,,TRUE,,,,,,,,CLR,,,,,,,,VFR,,,,,,,,,,,,METAR,807.0
CYCO 090300Z 24014KT 15SM FEW080 18/04 A2993 RMK AS1 AS TR SLP139 DENSITY ALT 500FT,CYCO,2023-06-09T03:00:00Z,67.82,-115.15,18.0,4.0,240,14,,15.0,29.929134,1013.9,,,,,,,,,,FEW,8000,,,,,,,VFR,,,,,,,,,,,,METAR,20.0
CYCK 090300Z AUTO 01007KT 9SM SCT091 BKN110 15/07 A2985 RMK SLP111 DENSITY ALT 900FT,CYCK,2023-06-09T03:00:00Z,42.3,-82.08,15.0,7.0,10,7,,9.0,29.84941,1011.1,,TRUE,,,,,,,,SCT,9100,BKN,11000,,,,,VFR,,,,,,,,,,,,METAR,196.0
CYCG 090300Z 17014G23KT 15SM BKN140 OVC230 28/12 A2982 RMK AC6CI2 SLP093 DENSITY ALT 3600FT,CYCG,2023-06-09T03:00:00Z,49.28,-117.63,28.0,12.0,170,14,23,15.0,29.819881,1009.3,,,,,,,,,,BKN,14000,OVC,23000,,,,,VFR,,,,,,,,,,,,METAR,487.0
CYCD 090300Z 16007KT 20SM FEW250 23/11 A2986 RMK CI1 FU SLP113 DENSITY ALT 1200FT,CYCD,2023-06-09T03:00:00Z,49.05,-123.87,23.0,11.0,160,7,,20.0,29.861221,1011.3,,,,,,,,,,FEW,25000,,,,,,,VFR,,,,,,,,,,,,METAR,30.0
CYCA 090300Z AUTO 05007KT 9SM OVC005 01/01 A3015 RMK SLP212,CYCA,2023-06-09T03:00:00Z,53.68,-57.03,1.0,1.0,50,7,,9.0,30.15059,1021.2,,TRUE,,,,,,,,OVC,500,,,,,,,IFR,,,,,,,,,,,,METAR,12.0
CYBX 090300Z 06019G26KT 8SM -RA FEW014 SCT022 BKN034 OVC049 06/05 A2994 RMK ST2SC2SC3SC1 SLP142,CYBX,2023-06-09T03:00:00Z,51.45,-57.18,6.0,5.0,60,19,26,8.0,29.940945,1014.2,,,,,,,,,-RA,FEW,1400,SCT,2200,BKN,3400,OVC,4900,VFR,,,,,,,,,,,,METAR,32.0
CYBW 090300Z AUTO 14007KT 9SM CLR 24/06 A3003 RMK SLP154 DENSITY ALT 5800FT,CYBW,2023-06-09T03:00:00Z,51.1,-114.37,24.0,6.0,140,7,,9.0,30.029528,1015.4,,TRUE,,,,,,,,CLR,,,,,,,,VFR,,,,,,,,,,,,METAR,1197.0
CYBU 090300Z AUTO 35005KT 4SM HZ CLR 19/10 A2999 RMK SLP160 DENSITY ALT 1900FT,CYBU,2023-06-09T03:00:00Z,53.32,-104.0,19.0,10.0,350,5,,4.0,29.991142,1016.0,,TRUE,,,,,,,HZ,CLR,,,,,,,,MVFR,,,,,,,,,,,,METAR,369.0
CYBR 090300Z 03004KT 15SM SCT100 BKN160 21/21 A2990 RMK AC3AC2 SLP128 DENSITY ALT 2400FT,CYBR,2023-06-09T03:00:00Z,49.92,-99.95,21.0,21.0,30,4,,15.0,29.899607,1012.8,,,,,,,,,,SCT,10000,BKN,16000,,,,,VFR,,,,,,,,,,,,METAR,405.0
CYBL 090300Z 13003KT 30SM FEW020 FEW250 24/09 A2986 RMK FU1CI1 FU TR SLP112 DENSITY ALT 1600FT,CYBL,2023-06-09T03:00:00Z,49.95,-125.27,24.0,9.0,130,3,,30.0,29.861221,1011.2,,,,,,,,,,FEW,2000,FEW,25000,,,,,VFR,,,,,,,,,,,,METAR,94.0
CYBG 090300Z 13006KT 25SM BKN040 OVC100 11/08 A2985 RMK SC5AC3 DENSITY ALT 331FT SLP112,CYBG,2023-06-09T03:00:00Z,48.33,-70.98,11.0,8.0,130,6,,25.0,29.84941,1011.2,,,,,,,,,,BKN,4000,OVC,10000,,,,,VFR,,,,,,,,,,,,METAR,151.0
CYAT 090300Z AUTO 13004KT 9SM 15/08 A2984 RMK CLD MISG SLP107,CYAT,2023-06-09T03:00:00Z,52.93,-82.43,15.0,8.0,130,4,,9.0,29.840551,1010.7,,TRUE,,,,,,,,,,,,,,,,,,,,,,,,,,,,METAR,4.0
CYAM 090300Z 29011KT 20SM FEW077 SCT230 10/05 A2992 RMK AC2CI1 SLP136,CYAM,2023-06-09T03:00:00Z,46.48,-84.52,10.0,5.0,290,11,,20.0,29.920275,1013.6,,,,,,,,,,FEW,7700,SCT,23000,,,,,VFR,,,,,,,,,,,,METAR,186.0
CYAH 090300Z AUTO 09006KT 9SM CLR 14/06 A2987 RMK SLP123,CYAH,2023-06-09T03:00:00Z,53.75,-73.67,14.0,6.0,90,6,,9.0,29.870079,1012.3,,TRUE,,,,,,,,CLR,,,,,,,,VFR,,,,,,,,,,,,METAR,298.0
CXZV 090300Z AUTO 11001KT 09/09 RMK AO1 5001 SLP139 T00910088 50002,CXZV,2023-06-09T03:00:00Z,50.22,-66.25,9.1,8.8,110,1,,,,1013.9,,TRUE,TRUE,,,,,,,,,,,,,,,,0.2,,,,,,,,,,,METAR,43.0
CXZC 090300Z AUTO 04002KT 09/05 RMK AO1 SLP119 T00940046 58003,CXZC,2023-06-09T03:00:00Z,51.3,-80.62,9.4,4.6,40,2,,,,1011.9,,TRUE,TRUE,,,,,,,,,,,,,,,,-0.3,,,,,,,,,,,METAR,8.0
CXYH 090300Z AUTO 20002KT 24/09 RMK AO1 SLP108 T02430094 56007,CXYH,2023-06-09T03:00:00Z,61.25,-123.75,24.3,9.4,200,2,,,,1010.8,,TRUE,TRUE,,,,,,,,,,,,,,,,-0.7,,,,,,,,,,,METAR,197.0
CXWN 090300Z AUTO 07001KT 24/17 RMK AO1 SLP117 T02360171 55000,CXWN,2023-06-09T03:00:00Z,49.88,-97.13,23.6,17.1,70,1,,,,1011.7,,TRUE,TRUE,,,,,,,,,,,,,,,,0.0,,,,,,,,,,,METAR,232.0
CXWM 090300Z AUTO 15012KT 19/13 RMK AO1 PK WND 14019/0224 T01860133,CXWM,2023-06-09T03:00:00Z,49.5,-112.12,18.6,13.3,150,12,,,,,,TRUE,TRUE,,,,,,,,,,,,,,,,,,,,,,,,,,,METAR,947.0
CXVW 090300Z AUTO 06011KT 22/09 RMK AO1 PK WND 06017/0209 SLP146 T02230092 55002,CXVW,2023-06-09T03:00:00Z,55.1,-117.2,22.3,9.2,60,11,,,,1014.6,,TRUE,TRUE,,,,,,,,,,,,,,,,-0.2,,,,,,,,,,,METAR,696.0
CXVN 090300Z AUTO 24005KT 13/11 RMK AO1 3003 SLP098 T01250114 50002,CXVN,2023-06-09T03:00:00Z,43.18,-79.4,12.5,11.4,240,5,,,,1009.8,,TRUE,TRUE,,,,,,,,,,,,,,,,0.2,,,,,,,,,,,METAR,86.0
CXVM 090300Z AUTO 06007KT 22/08 RMK AO1 T02180082,CXVM,2023-06-09T03:00:00Z,53.35,-110.88,21.8,8.2,60,7,,,,,,TRUE,TRUE,,,,,,,,,,,,,,,,,,,,,,,,,,,METAR,622.0
CXTV 090300Z AUTO 03017KT 08/M00 RMK AO1 8004 PK WND 03022/0201 SLP130 T00781003 50006,CXTV,2023-06-09T03:00:00Z,68.75,-133.5,7.8,-0.3,30,17,,,,1013.0,,TRUE,TRUE,,,,,,,,,,,,,,,,0.6,,,,,,,,,,,METAR,91.0
CXTP 090300Z AUTO 00000KT 07/07 RMK AO1 SLP114 T00740073 58001,CXTP,2023-06-09T03:00:00Z,48.55,-53.97,7.4,7.3,0,0,,,,1011.4,,TRUE,TRUE,,,,,,,,,,,,,,,,-0.1,,,,,,,,,,,METAR,104.0
CXTO 090300Z AUTO 14/10 RMK AO1 SLP096 T01420095 51005,CXTO,2023-06-09T03:00:00Z,43.67,-79.4,14.2,9.5,,,,,,1009.6,,TRUE,TRUE,,,,,,,,,,,,,,,,0.5,,,,,,,,,,,METAR,115.0
CXTN 090300Z AUTO 05012KT 10/M00 RMK AO1 SLP153 T00971002 50004,CXTN,2023-06-09T03:00:00Z,69.2,-122.35,9.7,-0.2,50,12,,,,1015.3,,TRUE,TRUE,,,,,,,,,,,,,,,,0.4,,,,,,,,,,,METAR,564.0
CXTH 090300Z AUTO 08010KT 21/08 RMK AO1 T02140077,CXTH,2023-06-09T03:00:00Z,53.63,-111.68,21.4,7.7,80,10,,,,,,TRUE,TRUE,,,,,,,,,,,,,,,,,,,,,,,,,,,METAR,679.0
CXTD 090300Z AUTO 19004KT 11/09 RMK AO1 SLP110 T01090091 50000,CXTD,2023-06-09T03:00:00Z,45.62,-61.68,10.9,9.1,190,4,,,,1011.0,,TRUE,TRUE,,,,,,,,,,,,,,,,0.0,,,,,,,,,,,METAR,58.0
CXSP 090300Z AUTO 08003KT 20/09 RMK AO1 T02030092,CXSP,2023-06-09T03:00:00Z,54.02,-111.27,20.3,9.2,80,3,,,,,,TRUE,TRUE,,,,,,,,,,,,,,,,,,,,,,,,,,,METAR,652.0
CXSL 090300Z AUTO 05003KT 20/10 RMK AO1 T01970101,CXSL,2023-06-09T03:00:00Z,54.28,-112.5,19.7,10.1,50,3,,,,,,TRUE,TRUE,,,,,,,,,,,,,,,,,,,,,,,,,,,METAR,680.0
CXSH 090300Z AUTO 06003KT 11/10 RMK AO1 SLP093 T01090099 50003,CXSH,2023-06-09T03:00:00Z,46.55,-72.73,10.9,9.9,60,3,,,,1009.3,,TRUE,TRUE,,,,,,,,,,,,,,,,0.3,,,,,,,,,,,METAR,106.0
CXSE 090300Z AUTO 28015KT M00/M01 RMK AO1 PK WND 29020/0230 SLP090 T10031006 55002,CXSE,2023-06-09T03:00:00Z,73.77,-105.28,-0.3,-0.6,280,15,,,,1009.0,,TRUE,TRUE,,,,,,,,,,,,,,,,-0.2,,,,,,,,,,,METAR,11.0
CXSC 090300Z AUTO 10006KT 23/14 RMK AO1 T02310141,CXSC,2023-06-09T03:00:00Z,50.3,-110.08,23.1,14.1,100,6,,,,,,TRUE,TRUE,,,,,,,,,,,,,,,,,,,,,,,,,,,METAR,809.0
CXRL 090300Z AUTO 05003KT 21/09 RMK AO1 T02060088,CXRL,2023-06-09T03:00:00Z,54.5,-111.7,20.6,8.8,50,3,,,,,,TRUE,TRUE,,,,,,,,,,,,,,,,,,,,,,,,,,,METAR,585.0
CXRH 090300Z AUTO 12003KT 08/07 RMK AO1 SLP110 T00830067 50002,CXRH,2023-06-09T03:00:00Z,49.57,-57.88,8.3,6.7,120,3,,,,1011.0,,TRUE,TRUE,,,,,,,,,,,,,,,,0.2,,,,,,,,,,,METAR,68.0
CXRB 090300Z AUTO 14012KT M01/M02 RMK AO1 SOG 04 7021 PK WND 14017/0221 SLP097 T10091015,CXRB,2023-06-09T03:00:00Z,74.72,-94.98,-0.9,-1.5,140,12,,,,1009.7,,TRUE,TRUE,,,,,,,,,,,,,,,,,,,,,,,,,,,METAR,30.0
CXPL 090300Z AUTO 10011KT 27/09 RMK AO1 PK WND 09017/0200 T02700088,CXPL,2023-06-09T03:00:00Z,51.13,-111.7,27.0,8.8,100,11,,,,,,TRUE,TRUE,,,,,,,,,,,,,,,,,,,,,,,,,,,METAR,735.0
CXPC 090300Z AUTO 13/11 RMK AO1 SLP102 T01260107 50000,CXPC,2023-06-09T03:00:00Z,45.35,-80.05,12.6,10.7,,,,,,1010.2,,TRUE,TRUE,,,,,,,,,,,,,,,,0.0,,,,,,,,,,,METAR,176.0
CXPA 090300Z AUTO 07004KT 20/09 RMK AO1 T02030089,CXPA,2023-06-09T03:00:00Z,55.62,-118.3,20.3,8.9,70,4,,,,,,TRUE,TRUE,,,,,,,,,,,,,,,,,,,,,,,,,,,METAR,628.0
CXOY 090300Z AUTO 12007KT 22/11 RMK AO1 T02150108,CXOY,2023-06-09T03:00:00Z,51.35,-110.35,21.5,10.8,120,7,,,,,,TRUE,TRUE,,,,,,,,,,,,,,,,,,,,,,,,,,,METAR,784.0
CXOX 090300Z AUTO 01005KT 19/06 RMK AO1 SLP171 T01880064 53010,CXOX,2023-06-09T03:00:00Z,55.15,-105.27,18.8,6.4,10,5,,,,1017.1,,TRUE,TRUE,,,,,,,,,,,,,,,,1.0,,,,,,,,,,,METAR,381.0
CXOL 090300Z AUTO 11005KT 24/09 RMK AO1 T02360092,CXOL,2023-06-09T03:00:00Z,51.77,-114.08,23.6,9.2,110,5,,,,,,TRUE,TRUE,,,,,,,,,,,,,,,,,,,,,,,,,,,METAR,1026.0
CXNP 090300Z AUTO 00000KT 11/11 RMK AO1 SLP091 T01140108 50000,CXNP,2023-06-09T03:00:00Z,45.75,-64.23,11.4,10.8,0,0,,,,1009.1,,TRUE,TRUE,,,,,,,,,,,,,,,,0.0,,,,,,,,,,,METAR,19.0
CXNM 090300Z AUTO 09005KT 07/07 RMK AO1 T00720072,CXNM,2023-06-09T03:00:00Z,46.82,-60.67,7.2,7.2,90,5,,,,,,TRUE,TRUE,,,,,,,,,,,,,,,,,,,,,,,,,,,METAR,452.0
CXMY 090300Z AUTO 08/08 RMK AO1 T00810078,CXMY,2023-06-09T03:00:00Z,44.98,-62.48,8.1,7.8,,,,,,,,TRUE,TRUE,,,,,,,,,,,,,,,,,,,,,,,,,,,METAR,37.0
CXMO 090300Z AUTO 11012KT 26/13 RMK AO1 PK WND 13019/0222 T02580134,CXMO,2023-06-09T03:00:00Z,51.67,-112.68,25.8,13.4,110,12,,,,,,TRUE,TRUE,,,,,,,,,,,,,,,,,,,,,,,,,,,METAR,837.0
CXMM 090300Z AUTO 23002KT 19/09 RMK AO1 SLP188 T01880091 56005,CXMM,2023-06-09T03:00:00Z,56.65,-111.22,18.8,9.1,230,2,,,,1018.8,,TRUE,TRUE,,,,,,,,,,,,,,,,-0.5,,,,,,,,,,,METAR,372.0
CXMI 090300Z AUTO 00000KT 10/09 RMK AO1 SLP092 T00970091 50000,CXMI,2023-06-09T03:00:00Z,44.6,-63.53,9.7,9.1,0,0,,,,1009.2,,TRUE,TRUE,,,,,,,,,,,,,,,,0.0,,,,,,,,,,,METAR,15.0
CXMG 090300Z AUTO 05003KT 22/10 RMK AO1 T02230104,CXMG,2023-06-09T03:00:00Z,56.97,-117.45,22.3,10.4,50,3,,,,,,TRUE,TRUE,,,,,,,,,,,,,,,,,,,,,,,,,,,METAR,467.0
CXMD 090300Z AUTO 11004KT 24/16 RMK AO1 SLP116 T02380164 51002,CXMD,2023-06-09T03:00:00Z,49.18,-98.08,23.8,16.4,110,4,,,,1011.6,,TRUE,TRUE,,,,,,,,,,,,,,,,0.2,,,,,,,,,,,METAR,297.0
CXLL 090300Z AUTO 24/14 RMK AO1 SLP126 T02410144 56011,CXLL,2023-06-09T03:00:00Z,61.12,-122.85,24.1,14.4,,,,,,1012.6,,TRUE,TRUE,,,,,,,,,,,,,,,,-1.1,,,,,,,,,,,METAR,180.0
CXLC 090300Z AUTO 18007KT 16/04 RMK AO1 SLP197 T01610044 57006,CXLC,2023-06-09T03:00:00Z,63.6,-113.85,16.1,4.4,180,7,,,,1019.7,,TRUE,TRUE,,,,,,,,,,,,,,,,-0.6,,,,,,,,,,,METAR,370.0
CXLB 090300Z AUTO 04002KT 10/09 RMK AO1 SLP092 T00970091 51002,CXLB,2023-06-09T03:00:00Z,44.37,-64.3,9.7,9.1,40,2,,,,1009.2,,TRUE,TRUE,,,,,,,,,,,,,,,,0.2,,,,,,,,,,,METAR,4.0
CXKT 090300Z AUTO 00000KT 11/09 RMK AO1 SLP093 T01080093 52004,CXKT,2023-06-09T03:00:00Z,45.07,-64.48,10.8,9.3,0,0,,,,1009.3,,TRUE,TRUE,,,,,,,,,,,,,,,,0.4,,,,,,,,,,,METAR,48.0
CXKM 090300Z AUTO 09009KT 24/09 RMK AO1 T02380087,CXKM,2023-06-09T03:00:00Z,52.83,-111.87,23.8,8.7,90,9,,,,,,TRUE,TRUE,,,,,,,,,,,,,,,,,,,,,,,,,,,METAR,679.0
CXKI 090300Z AUTO 00000KT 10/08 RMK AO1 SLP092 T00960083 55000,CXKI,2023-06-09T03:00:00Z,48.13,-80.0,9.6,8.3,0,0,,,,1009.2,,TRUE,TRUE,,,,,,,,,,,,,,,,0.0,,,,,,,,,,,METAR,328.0
CXKE 090300Z AUTO 00000KT 10/09 RMK AO1 SLP083 T00970088 50006,CXKE,2023-06-09T03:00:00Z,45.0,-75.63,9.7,8.8,0,0,,,,1008.3,,TRUE,TRUE,,,,,,,,,,,,,,,,0.6,,,,,,,,,,,METAR,99.0
CXKA 090300Z AUTO 27002KT 13/08 RMK AO1 SLP119 T01330080 53002,CXKA,2023-06-09T03:00:00Z,49.4,-82.45,13.3,8.0,270,2,,,,1011.9,,TRUE,TRUE,,,,,,,,,,,,,,,,0.2,,,,,,,,,,,METAR,221.0
CXIB 090300Z AUTO 35001KT 08/07 RMK AO1 SLP103 T00760073 50002,CXIB,2023-06-09T03:00:00Z,46.67,-60.4,7.6,7.3,350,1,,,,1010.3,,TRUE,TRUE,,,,,,,,,,,,,,,,0.2,,,,,,,,,,,METAR,6.0
CXHR 090300Z AUTO 11009KT 24/07 RMK AO1 PK WND 11017/0219 T02390068,CXHR,2023-06-09T03:00:00Z,51.18,-112.5,23.9,6.8,110,9,,,,,,TRUE,TRUE,,,,,,,,,,,,,,,,,,,,,,,,,,,METAR,975.0
CXHP 090300Z AUTO 08010KT 21/09 RMK AO1 PK WND 07017/0202 T02130090,CXHP,2023-06-09T03:00:00Z,55.4,-116.48,21.3,9.0,80,10,,,,,,TRUE,TRUE,,,,,,,,,,,,,,,,,,,,,,,,,,,METAR,601.0
CXHM 090300Z AUTO 31001KT 13/10 RMK AO1 SLP101 T01340100 53005,CXHM,2023-06-09T03:00:00Z,43.28,-79.9,13.4,10.0,310,1,,,,1010.1,,TRUE,TRUE,,,,,,,,,,,,,,,,0.5,,,,,,,,,,,METAR,105.0
CXHD 090300Z AUTO 08012KT 23/09 RMK AO1 PK WND 08018/0201 T02310089,CXHD,2023-06-09T03:00:00Z,53.18,-112.25,23.1,8.9,80,12,,,,,,TRUE,TRUE,,,,,,,,,,,,,,,,,,,,,,,,,,,METAR,688.0
CXHA 090300Z AUTO 04002KT 15/08 RMK AO1 SLP113 T01540075 53014,CXHA,2023-06-09T03:00:00Z,42.03,-82.9,15.4,7.5,40,2,,,,1011.3,,TRUE,TRUE,,,,,,,,,,,,,,,,1.4,,,,,,,,,,,METAR,193.0
CXGH 090300Z AUTO 26002KT 23/20 RMK AO1 SLP117 T02340198 53001,CXGH,2023-06-09T03:00:00Z,50.63,-97.0,23.4,19.8,260,2,,,,1011.7,,TRUE,TRUE,,,,,,,,,,,,,,,,0.1,,,,,,,,,,,METAR,217.0
CXFR 090300Z AUTO 08010KT 22/06 RMK AO1 T02200061,CXFR,2023-06-09T03:00:00Z,56.08,-118.43,22.0,6.1,80,10,,,,,,TRUE,TRUE,,,,,,,,,,,,,,,,,,,,,,,,,,,METAR,657.0
CXFM 090300Z AUTO 14006KT 19/14 RMK AO1 T01870135,CXFM,2023-06-09T03:00:00Z,49.48,-111.48,18.7,13.5,140,6,,,,,,TRUE,TRUE,,,,,,,,,,,,,,,,,,,,,,,,,,,METAR,884.0
CXET 090300Z AUTO 33001KT 12/10 RMK AO1 SLP104 T01180097 51004,CXET,2023-06-09T03:00:00Z,44.23,-79.78,11.8,9.7,330,1,,,,1010.4,,TRUE,TRUE,,,,,,,,,,,,,,,,0.4,,,,,,,,,,,METAR,250.0
CXEC 090300Z AUTO 09010KT 25/07 RMK AO1 PK WND 09019/0224 SLP152 T02540071 53005,CXEC,2023-06-09T03:00:00Z,53.57,-113.52,25.4,7.1,90,10,,,,1015.2,,TRUE,TRUE,,,,,,,,,,,,,,,,0.5,,,,,,,,,,,METAR,666.0
CXEA 090300Z AUTO 11001KT 16/11 RMK AO1 SLP113 T01640113 58002,CXEA,2023-06-09T03:00:00Z,50.63,-93.22,16.4,11.3,110,1,,,,1011.3,,TRUE,TRUE,,,,,,,,,,,,,,,,-0.2,,,,,,,,,,,METAR,351.0
CXDW 090300Z AUTO 32004KT 21/18 RMK AO1 SLP119 T02090182 53002,CXDW,2023-06-09T03:00:00Z,49.4,-98.32,20.9,18.2,320,4,,,,1011.9,,TRUE,TRUE,,,,,,,,,,,,,,,,0.2,,,,,,,,,,,METAR,341.0
CXDK 090300Z AUTO 26/09 RMK AO1 SLP116 T02560092 56004,CXDK,2023-06-09T03:00:00Z,61.27,-124.47,25.6,9.2,,,,,,1011.6,,TRUE,TRUE,,,,,,,,,,,,,,,,-0.4,,,,,,,,,,,METAR,269.0
CXDI 090300Z AUTO 02001KT 13/11 RMK AO1 5PAST HR 1010 SLP102 P0002 T01300108 50005,CXDI,2023-06-09T03:00:00Z,42.87,-80.55,13.0,10.8,20,1,,,,1010.2,,TRUE,TRUE,,,,,,,,,,,,,,,,0.5,,,,,0.02,,,,,,METAR,234.0
CXDE 090300Z AUTO 10007KT 18/07 RMK AO1 SLP124 T01820067 56010,CXDE,2023-06-09T03:00:00Z,65.22,-123.43,18.2,6.7,100,7,,,,1012.4,,TRUE,TRUE,,,,,,,,,,,,,,,,-1.0,,,,,,,,,,,METAR,208.0
CXDB 090300Z AUTO 07011KT 16/12 RMK AO1 PK WND 07024/0255 T01610124,CXDB,2023-06-09T03:00:00Z,49.05,-112.82,16.1,12.4,70,11,,,,,,TRUE,TRUE,,,,,,,,,,,,,,,,,,,,,,,,,,,METAR,1311.0
CXCS 090300Z AUTO 07007KT 24/10 RMK AO1 T02380101,CXCS,2023-06-09T03:00:00Z,51.93,-110.72,23.8,10.1,70,7,,,,,,TRUE,TRUE,,,,,,,,,,,,,,,,,,,,,,,,,,,METAR,771.0
CXCP 090300Z AUTO 13008KT 24/06 RMK AO1 T02360055,CXCP,2023-06-09T03:00:00Z,50.28,-113.35,23.6,5.5,130,8,,,,,,TRUE,TRUE,,,,,,,,,,,,,,,,,,,,,,,,,,,METAR,999.0
CXCK 090300Z AUTO 19010G17KT 23/01 RMK AO1 PK WND 20017/0214 SLP086 T02330013 53005,CXCK,2023-06-09T03:00:00Z,62.12,-136.2,23.3,1.3,190,10,17,,,1008.6,,TRUE,TRUE,,,,,,,,,,,,,,,,0.5,,,,,,,,,,,METAR,526.0
CXCD 090300Z AUTO 10005KT 23/07 RMK AO1 T02300070,CXCD,2023-06-09T03:00:00Z,56.32,-119.75,23.0,7.0,100,5,,,,,,TRUE,TRUE,,,,,,,,,,,,,,,,,,,,,,,,,,,METAR,628.0
CXCA 090300Z AUTO 35001KT 10/03 RMK AO1 SLP132 T01030026 55002,CXCA,2023-06-09T03:00:00Z,49.15,-88.35,10.3,2.6,350,1,,,,1013.2,,TRUE,TRUE,,,,,,,,,,,,,,,,-0.2,,,,,,,,,,,METAR,228.0
CXBW 090300Z AUTO 12006KT 23/14 RMK AO1 T02340143,CXBW,2023-06-09T03:00:00Z,49.8,-112.3,23.4,14.3,120,6,,,,,,TRUE,TRUE,,,,,,,,,,,,,,,,,,,,,,,,,,,METAR,823.0
CXBR 090300Z AUTO 11004KT 22/12 RMK AO1 T02160118,CXBR,2023-06-09T03:00:00Z,49.62,-113.82,21.6,11.8,110,4,,,,,,TRUE,TRUE,,,,,,,,,,,,,,,,,,,,,,,,,,,METAR,1137.0
CXBO 090300Z AUTO 08013KT 11/10 RMK AO1 PK WND 08018/0245 T01120095,CXBO,2023-06-09T03:00:00Z,46.83,-71.2,11.2,9.5,80,13,,,,,,TRUE,TRUE,,,,,,,,,,,,,,,,,,,,,,,,,,,METAR,8.0
CXBK 090300Z AUTO 02006KT 21/18 RMK AO1 SLP142 T02140181 53006,CXBK,2023-06-09T03:00:00Z,50.2,-104.7,21.4,18.1,20,6,,,,1014.2,,TRUE,TRUE,,,,,,,,,,,,,,,,0.6,,,,,,,,,,,METAR,585.0
CXBI 090300Z AUTO 33004KT 12/08 RMK AO1 SLP106 T01150083 51003,CXBI,2023-06-09T03:00:00Z,44.48,-79.55,11.5,8.3,330,4,,,,1010.6,,TRUE,TRUE,,,,,,,,,,,,,,,,0.3,,,,,,,,,,,METAR,287.0
CXBA 090300Z AUTO 07006KT 23/13 RMK AO1 PK WND 05017/0217 T02290129,CXBA,2023-06-09T03:00:00Z,52.12,-110.1,22.9,12.9,70,6,,,,,,TRUE,TRUE,,,,,,,,,,,,,,,,,,,,,,,,,,,METAR,696.0
CXAK 090300Z AUTO 07006KT 24/10 RMK AO1 T02440096,CXAK,2023-06-09T03:00:00Z,52.35,-112.6,24.4,9.6,70,6,,,,,,TRUE,TRUE,,,,,,,,,,,,,,,,,,,,,,,,,,,METAR,799.0
CXAJ 090300Z AUTO 08003KT 20/09 RMK AO1 T02020092,CXAJ,2023-06-09T03:00:00Z,54.78,-112.82,20.2,9.2,80,3,,,,,,TRUE,TRUE,,,,,,,,,,,,,,,,,,,,,,,,,,,METAR,586.0
CXAG 090300Z AUTO 07006KT 21/08 RMK AO1 T02130075,CXAG,2023-06-09T03:00:00Z,53.92,-112.28,21.3,7.5,70,6,,,,,,TRUE,TRUE,,,,,,,,,,,,,,,,,,,,,,,,,,,METAR,632.0
CXAF 090300Z AUTO 06005KT 20/10 RMK AO1 T02000095,CXAF,2023-06-09T03:00:00Z,54.28,-112.97,20.0,9.5,60,5,,,,,,TRUE,TRUE,,,,,,,,,,,,,,,,,,,,,,,,,,,METAR,667.0
CWZW 090300Z AUTO 27007KT 20/04 RMK AO1 SLP128 T02000039 53002,CWZW,2023-06-09T03:00:00Z,60.17,-132.73,20.0,3.9,270,7,,,,1012.8,,TRUE,TRUE,,,,,,,,,,,,,,,,0.2,,,,,,,,,,,METAR,683.0
CWZQ 090300Z AUTO 24003KT 11/10 RMK AO1 SLP099 T01070098 50002,CWZQ,2023-06-09T03:00:00Z,46.53,-61.05,10.7,9.8,240,3,,,,1009.9,,TRUE,TRUE,,,,,,,,,,,,,,,,0.2,,,,,,,,,,,METAR,13.0
CWZO 090300Z AUTO 16014KT RMK AO1 PK WND 15017/0200,CWZO,2023-06-09T03:00:00Z,48.57,-123.25,,,160,14,,,,,,TRUE,TRUE,,,,,,,,,,,,,,,,,,,,,,,,,,,METAR,5.0
CWZN 090300Z AUTO 11012KT 09/09 RMK AO1 SLP102 T00910090 58003,CWZN,2023-06-09T03:00:00Z,47.37,-55.8,9.1,9.0,110,12,,,,1010.2,,TRUE,TRUE,,,,,,,,,,,,,,,,-0.3,,,,,,,,,,,METAR,63.0
CWZL 090300Z AUTO 18009KT 13/10 RMK AO1 SLP155 T01320099 53004,CWZL,2023-06-09T03:00:00Z,53.03,-131.6,13.2,9.9,180,9,,,,1015.5,,TRUE,TRUE,,,,,,,,,,,,,,,,0.4,,,,,,,,,,,METAR,17.0
CWZG 090300Z AUTO 04003KT 24/01 RMK AO1 SLP140 T02360014 53011,CWZG,2023-06-09T03:00:00Z,51.2,-115.55,23.6,1.4,40,3,,,,1014.0,,TRUE,TRUE,,,,,,,,,,,,,,,,1.1,,,,,,,,,,,METAR,1402.0
CWZA 090300Z AUTO 21004KT 23/11 RMK AO1 SLP117 T02340107 53005,CWZA,2023-06-09T03:00:00Z,49.25,-121.77,23.4,10.7,210,4,,,,1011.7,,TRUE,TRUE,,,,,,,,,,,,,,,,0.5,,,,,,,,,,,METAR,18.0
CWYY 090300Z AUTO 00000KT 27/17 RMK AO1 SLP058 T02730166 55004,CWYY,2023-06-09T03:00:00Z,49.03,-119.43,27.3,16.6,0,0,,,,1005.8,,TRUE,TRUE,,,,,,,,,,,,,,,,-0.4,,,,,,,,,,,METAR,284.0
CWYL 090300Z AUTO 06004KT 20/01 RMK AO1 SLP132 T02030007 53007,CWYL,2023-06-09T03:00:00Z,51.45,-116.33,20.3,0.7,60,4,,,,1013.2,,TRUE,TRUE,,,,,,,,,,,,,,,,0.7,,,,,,,,,,,METAR,1602.0
CWYJ 090300Z AUTO 24002KT 20/07 RMK AO1 SLP118 T02030073 55002,CWYJ,2023-06-09T03:00:00Z,48.45,-123.3,20.3,7.3,240,2,,,,1011.8,,TRUE,TRUE,,,,,,,,,,,,,,,,-0.2,,,,,,,,,,,METAR,59.0
CWXL 090300Z AUTO 16006KT 21/13 RMK AO1 PK WND 16017/0204 SLP145 T02100134 53008,CWXL,2023-06-09T03:00:00Z,49.73,-111.45,21.0,13.4,160,6,,,,1014.5,,TRUE,TRUE,,,,,,,,,,,,,,,,0.8,,,,,,,,,,,METAR,815.0
CWXI 090300Z AUTO 07017G22KT 03/02 RMK AO1 PK WND 06023/0216 SLP131 T00290024 58007,CWXI,2023-06-09T03:00:00Z,51.02,-57.1,2.9,2.4,70,17,22,,,1013.1,,TRUE,TRUE,,,,,,,,,,,,,,,,-0.7,,,,,,,,,,,METAR,15.0
CWXC 090300Z AUTO 01002KT 11/08 RMK AO1 SLP114 T01070082 51005,CWXC,2023-06-09T03:00:00Z,48.88,-71.03,10.7,8.2,10,2,,,,1011.4,,TRUE,TRUE,,,,,,,,,,,,,,,,0.5,,,,,,,,,,,METAR,306.0
CWXA 090300Z AUTO 00010KT 24/04 RMK AO1 SLP168 T02350035 53008,CWXA,2023-06-09T03:00:00Z,51.07,-115.07,23.5,3.5,0,10,,,,1016.8,,TRUE,TRUE,,,,,,,,,,,,,,,,0.8,,,,,,,,,,,METAR,1303.0
CWWZ 090300Z AUTO 26008KT 15/12 RMK AO1 SLP098 T01480115 51004,CWWZ,2023-06-09T03:00:00Z,43.25,-79.22,14.8,11.5,260,8,,,,1009.8,,TRUE,TRUE,,,,,,,,,,,,,,,,0.4,,,,,,,,,,,METAR,75.0
CWWS 090300Z AUTO 21009KT 17/16 RMK AO1 SLP106 T01690157 56003,CWWS,2023-06-09T03:00:00Z,52.82,-97.62,16.9,15.7,210,9,,,,1010.6,,TRUE,TRUE,,,,,,,,,,,,,,,,-0.3,,,,,,,,,,,METAR,220.0
CWWL 090300Z AUTO 14014KT 12/11 RMK AO1 PK WND 13018/0210 SLP152 T01220109 55002,CWWL,2023-06-09T03:00:00Z,53.5,-130.63,12.2,10.9,140,14,,,,1015.2,,TRUE,TRUE,,,,,,,,,,,,,,,,-0.2,,,,,,,,,,,METAR,8.0
CWWK 090300Z AUTO 17002KT 20/11 RMK AO1 SLP129 T01980113 55001,CWWK,2023-06-09T03:00:00Z,49.02,-122.78,19.8,11.3,170,2,,,,1012.9,,TRUE,TRUE,,,,,,,,,,,,,,,,-0.1,,,,,,,,,,,METAR,10.0
CWWF 090300Z AUTO 06005KT 21/16 RMK AO1 4PAST HR 3004 SLP133 P0002 T02130161 50008,CWWF,2023-06-09T03:00:00Z,49.7,-103.8,21.3,16.1,60,5,,,,1013.3,,TRUE,TRUE,,,,,,,,,,,,,,,,0.8,,,,,0.02,,,,,,METAR,583.0
CWWE 090300Z AUTO 03002KT RMK AO1 50001,CWWE,2023-06-09T03:00:00Z,43.98,-64.67,,,30,2,,,,,,TRUE,TRUE,,,,,,,,,,,,,,,,0.1,,,,,,,,,,,METAR,4.0
CWWB 090300Z AUTO 26002KT 16/11 RMK AO1 SLP101 T01580106 52004,CWWB,2023-06-09T03:00:00Z,43.3,-79.78,15.8,10.6,260,2,,,,1010.1,,TRUE,TRUE,,,,,,,,,,,,,,,,0.4,,,,,,,,,,,METAR,77.0
CWWA 090300Z AUTO 00000KT 21/11 RMK AO1 SLP122 T02060108 55003,CWWA,2023-06-09T03:00:00Z,49.35,-123.18,20.6,10.8,0,0,,,,1012.2,,TRUE,TRUE,,,,,,,,,,,,,,,,-0.3,,,,,,,,,,,METAR,172.0
CWVU 090300Z AUTO 12003KT 10/10 RMK AO1 SLP079 T01030095 51005,CWVU,2023-06-09T03:00:00Z,44.28,-66.33,10.3,9.5,120,3,,,,1007.9,,TRUE,TRUE,,,,,,,,,,,,,,,,0.5,,,,,,,,,,,METAR,4.0
CWVT 090300Z AUTO 02002KT 18/09 RMK AO1 SLP204 T01840092 55001,CWVT,2023-06-09T03:00:00Z,55.83,-108.42,18.4,9.2,20,2,,,,1020.4,,TRUE,TRUE,,,,,,,,,,,,,,,,-0.1,,,,,,,,,,,METAR,431.0
CWVQ 090300Z AUTO 02007KT 14/11 RMK AO1 SLP079 T01390107 51007,CWVQ,2023-06-09T03:00:00Z,45.42,-73.92,13.9,10.7,20,7,,,,1007.9,,TRUE,TRUE,,,,,,,,,,,,,,,,0.7,,,,,,,,,,,METAR,38.0
CWVP 090300Z AUTO 08005KT 19/13 RMK AO1 SLP156 T01870129 53007,CWVP,2023-06-09T03:00:00Z,49.63,-109.52,18.7,12.9,80,5,,,,1015.6,,TRUE,TRUE,,,,,,,,,,,,,,,,0.7,,,,,,,,,,,METAR,1269.0
CWVN 090300Z AUTO 06004KT 21/17 RMK AO1 SLP138 T02090167 53007,CWVN,2023-06-09T03:00:00Z,49.07,-107.58,20.9,16.7,60,4,,,,1013.8,,TRUE,TRUE,,,,,,,,,,,,,,,,0.7,,,,,,,,,,,METAR,792.0
CWVI 090300Z AUTO 07010KT 23/06 RMK AO1 4PAST HR 2005 PK WND 06017/0201 SLP160 P0002 T02280058 50004,CWVI,2023-06-09T03:00:00Z,53.52,-112.1,22.8,5.8,70,10,,,,1016.0,,TRUE,TRUE,,,,,,,,,,,,,,,,0.4,,,,,0.02,,,,,,METAR,640.0
CWVF 090300Z AUTO 13012KT 18/12 RMK AO1 T01760121,CWVF,2023-06-09T03:00:00Z,49.1,-123.3,17.6,12.1,130,12,,,,,,TRUE,TRUE,,,,,,,,,,,,,,,,,,,,,,,,,,,METAR,13.0
CWUX 090300Z AUTO 12006KT 10/08 RMK AO1 SLP115 T01020082 50007,CWUX,2023-06-09T03:00:00Z,48.3,-70.93,10.2,8.2,120,6,,,,1011.5,,TRUE,TRUE,,,,,,,,,,,,,,,,0.7,,,,,,,,,,,METAR,150.0
CWUW 090300Z AUTO 16016KT ////SM ////// M01/M02 A2954,CWUW,2023-06-09T03:00:00Z,68.62,-71.12,-1.0,-2.0,160,16,,,29.53937,,,TRUE,,,,,,,,,,,,,,,,,,,,,,,,,,,,METAR,173.0
CWUS 090300Z AUTO 10001KT 28/09 RMK AO1 SLP067 T02750089 56002,CWUS,2023-06-09T03:00:00Z,49.57,-119.65,27.5,8.9,100,1,,,,1006.7,,TRUE,TRUE,,,,,,,,,,,,,,,,-0.2,,,,,,,,,,,METAR,455.0
CWTY 090300Z AUTO 05008KT 13/10 RMK AO1 PK WND 06017/0204 SLP089 T01280095 50005,CWTY,2023-06-09T03:00:00Z,46.35,-72.52,12.8,9.5,50,8,,,,1008.9,,TRUE,TRUE,,,,,,,,,,,,,,,,0.5,,,,,,,,,,,METAR,8.0
CWTT 090300Z AUTO 01003KT 09/08 RMK AO1 T00850082,CWTT,2023-06-09T03:00:00Z,45.27,-72.17,8.5,8.2,10,3,,,,,,TRUE,TRUE,,,,,,,,,,,,,,,,,,,,,,,,,,,METAR,210.0
CWTN 090300Z AUTO 05008KT 10/09 RMK AO1 SLP093 T01030092 54000,CWTN,2023-06-09T03:00:00Z,47.07,-70.78,10.3,9.2,50,8,,,,1009.3,,TRUE,TRUE,,,,,,,,,,,,,,,,,,,,,,,,,,,METAR,5.0
CWTG 090300Z AUTO 03010KT 09/08 RMK AO1 8PAST HR 1006 SLP126 P0003 T00900082 50022,CWTG,2023-06-09T03:00:00Z,49.32,-67.37,9.0,8.2,30,10,,,,1012.6,,TRUE,TRUE,,,,,,,,,,,,,,,,2.2,,,,,0.03,,,,,,METAR,6.0
CWTA 090300Z AUTO 02004KT 14/10 RMK AO1 SLP079 T01410099 51009,CWTA,2023-06-09T03:00:00Z,45.5,-73.58,14.1,9.9,20,4,,,,1007.9,,TRUE,TRUE,,,,,,,,,,,,,,,,0.9,,,,,,,,,,,METAR,71.0
CWST 090300Z AUTO 05006KT 07/07 RMK AO1 6PAST HR 1002 SLP100 P0002 T00720069 50022,CWST,2023-06-09T03:00:00Z,47.35,-70.02,7.2,6.9,50,6,,,,1010.0,,TRUE,TRUE,,,,,,,,,,,,,,,,2.2,,,,,0.02,,,,,,METAR,31.0
CWSS 090300Z AUTO 00000KT 11/10 RMK AO1 SLP085 T01060096 51004,CWSS,2023-06-09T03:00:00Z,45.2,-67.25,10.6,9.6,0,0,,,,1008.5,,TRUE,TRUE,,,,,,,,,,,,,,,,0.4,,,,,,,,,,,METAR,27.0
CWSR 090300Z AUTO 05005KT 19/07 RMK AO1 SLP180 T01850074 53007,CWSR,2023-06-09T03:00:00Z,53.37,-107.55,18.5,7.4,50,5,,,,1018.0,,TRUE,TRUE,,,,,,,,,,,,,,,,0.7,,,,,,,,,,,METAR,589.0
CWSP 090300Z AUTO 29032KT 11/09 RMK AO1 PK WND 29037/0245 SLP130 T01090086 55000,CWSP,2023-06-09T03:00:00Z,48.38,-123.92,10.9,8.6,290,32,,,,1013.0,,TRUE,TRUE,,,,,,,,,,,,,,,,0.0,,,,,,,,,,,METAR,2.0
CWSL 090300Z AUTO 19003KT 29/12 RMK AO1 SLP066 T02920122 53001,CWSL,2023-06-09T03:00:00Z,50.7,-119.28,29.2,12.2,190,3,,,,1006.6,,TRUE,TRUE,,,,,,,,,,,,,,,,0.1,,,,,,,,,,,METAR,353.0
CWSK 090300Z AUTO 19004KT 21/10 RMK AO1 SLP107 T02120095 53004,CWSK,2023-06-09T03:00:00Z,49.78,-123.17,21.2,9.5,190,4,,,,1010.7,,TRUE,TRUE,,,,,,,,,,,,,,,,0.4,,,,,,,,,,,METAR,59.0
CWSG 090300Z AUTO 08008KT 06/05 RMK AO1 SLP123 T00550052 52007,CWSG,2023-06-09T03:00:00Z,49.12,-66.65,5.5,5.2,80,8,,,,1012.3,,TRUE,TRUE,,,,,,,,,,,,,,,,0.7,,,,,,,,,,,METAR,5.0
CWSF 090300Z AUTO 13005KT 07/07 RMK AO1 SLP127 T00710066 51002,CWSF,2023-06-09T03:00:00Z,49.25,-65.32,7.1,6.6,130,5,,,,1012.7,,TRUE,TRUE,,,,,,,,,,,,,,,,0.2,,,,,,,,,,,METAR,15.0
CWSD 090300Z AUTO 03008KT 09/09 RMK AO1 SLP104 T00940094 51005,CWSD,2023-06-09T03:00:00Z,46.43,-63.85,9.4,9.4,30,8,,,,1010.4,,TRUE,TRUE,,,,,,,,,,,,,,,,0.5,,,,,,,,,,,METAR,12.0
CWRZ 090300Z AUTO 08010KT 07/07 RMK AO1 SLP123 T00710067 51004,CWRZ,2023-06-09T03:00:00Z,48.42,-64.32,7.1,6.7,80,10,,,,1012.3,,TRUE,TRUE,,,,,,,,,,,,,,,,0.4,,,,,,,,,,,METAR,16.0
CWRY 090300Z AUTO 12008KT 16/13 RMK AO1 PK WND 10024/0202 SLP150 T01580127 50008,CWRY,2023-06-09T03:00:00Z,49.12,-112.05,15.8,12.7,120,8,,,,1015.0,,TRUE,TRUE,,,,,,,,,,,,,,,,0.8,,,,,,,,,,,METAR,1048.0
CWRX 090300Z AUTO ///// ////SM ////// M00/M00 A2954,CWRX,2023-06-09T03:00:00Z,69.07,-79.07,0.0,0.0,,,,,29.53937,,,TRUE,,,,,,,,,,,,,,,,,,,,,,,,,,,,METAR,39.0
CWRU 090300Z AUTO 01017KT 10/ RMK AO1 PK WND 00020/0257 SLP156 T0103 56007,CWRU,2023-06-09T03:00:00Z,50.12,-127.93,10.3,,10,17,,,,1015.6,,TRUE,TRUE,,,,,,,,,,,,,,,,-0.7,,,,,,,,,,,METAR,76.0
CWRT 090300Z AUTO 10008G15KT 22/07 RMK AO1 SLP143 T02190068 53004,CWRT,2023-06-09T03:00:00Z,49.62,-114.47,21.9,6.8,100,8,15,,,1014.3,,TRUE,TRUE,,,,,,,,,,,,,,,,0.4,,,,,,,,,,,METAR,1311.0
CWRO 090300Z AUTO 18010KT 13/ RMK AO1 SLP151 T0132 53001,CWRO,2023-06-09T03:00:00Z,54.17,-131.67,13.2,,180,10,,,,1015.1,,TRUE,TRUE,,,,,,,,,,,,,,,,0.1,,,,,,,,,,,METAR,7.0
CWRN 090300Z AUTO 14002KT 06/06 RMK AO1 SLP107 T00640063 51001,CWRN,2023-06-09T03:00:00Z,45.35,-60.98,6.4,6.3,140,2,,,,1010.7,,TRUE,TRUE,,,,,,,,,,,,,,,,0.1,,,,,,,,,,,METAR,8.0
CWRM 090300Z AUTO 14005KT 24/11 RMK AO1 SLP120 T02360106 53002,CWRM,2023-06-09T03:00:00Z,52.42,-114.92,23.6,10.6,140,5,,,,1012.0,,TRUE,TRUE,,,,,,,,,,,,,,,,0.2,,,,,,,,,,,METAR,986.0
CWRK 090300Z AUTO 00000KT 10/09 RMK AO1 SLP095 T00980087 51003,CWRK,2023-06-09T03:00:00Z,45.07,-77.87,9.8,8.7,0,0,,,,1009.5,,TRUE,TRUE,,,,,,,,,,,,,,,,0.3,,,,,,,,,,,METAR,328.0
CWRJ 090300Z AUTO 08005KT 24/13 RMK AO1 SLP150 T02360128 53007,CWRJ,2023-06-09T03:00:00Z,51.57,-107.92,23.6,12.8,80,5,,,,1015.0,,TRUE,TRUE,,,,,,,,,,,,,,,,0.7,,,,,,,,,,,METAR,586.0
CWRA 090300Z AUTO 04006KT 06/06 RMK AO1 SLP112 T00590059 58007,CWRA,2023-06-09T03:00:00Z,46.65,-53.07,5.9,5.9,40,6,,,,1011.2,,TRUE,TRUE,,,,,,,,,,,,,,,,-0.7,,,,,,,,,,,METAR,4.0
CWQV 090300Z AUTO 07007KT 11/ RMK AO1 T0109,CWQV,2023-06-09T03:00:00Z,48.27,-70.12,10.9,,70,7,,,,,,TRUE,TRUE,,,,,,,,,,,,,,,,,,,,,,,,,,,METAR,4.0
CWQS 090300Z AUTO 15010KT 12/09 RMK AO1 SLP152 T01160094 53002,CWQS,2023-06-09T03:00:00Z,53.32,-132.77,11.6,9.4,150,10,,,,1015.2,,TRUE,TRUE,,,,,,,,,,,,,,,,0.2,,,,,,,,,,,METAR,10.0
CWQR 090300Z AUTO 06005KT 07/06 RMK AO1 T00660063,CWQR,2023-06-09T03:00:00Z,50.22,-64.22,6.6,6.3,60,5,,,,,,TRUE,TRUE,,,,,,,,,,,,,,,,,,,,,,,,,,,METAR,9.0
CWQP 090300Z AUTO 28005KT 11/10 RMK AO1 2PAST HR 0000 SLP088 P0001 T01090099 50002,CWQP,2023-06-09T03:00:00Z,43.83,-77.15,10.9,9.9,280,5,,,,1008.8,,TRUE,TRUE,,,,,,,,,,,,,,,,0.2,,,,,0.01,,,,,,METAR,77.0
CWQO 090300Z AUTO 05012G17KT 07/06 RMK AO1 PK WND 06017/0253 T00650055,CWQO,2023-06-09T03:00:00Z,48.42,-68.9,6.5,5.5,50,12,17,,,,,TRUE,TRUE,,,,,,,,,,,,,,,,,,,,,,,,,,,METAR,7.0
CWQK 090300Z AUTO 27036KT 12/08 RMK AO1 PK WND 27038/0259 SLP113 T01190075 55005,CWQK,2023-06-09T03:00:00Z,48.3,-123.53,11.9,7.5,270,36,,,,1011.3,,TRUE,TRUE,,,,,,,,,,,,,,,,-0.5,,,,,,,,,,,METAR,5.0
CWQH 090300Z AUTO 36002KT 11/10 RMK AO1 SLP075 T01080104 52006,CWQH,2023-06-09T03:00:00Z,45.37,-71.82,10.8,10.4,360,2,,,,1007.5,,TRUE,TRUE,,,,,,,,,,,,,,,,0.6,,,,,,,,,,,METAR,181.0
CWPZ 090300Z AUTO 30006KT 26/01 RMK AO1 SLP115 T02600005 51008,CWPZ,2023-06-09T03:00:00Z,54.38,-125.97,26.0,0.5,300,6,,,,1011.5,,TRUE,TRUE,,,,,,,,,,,,,,,,0.8,,,,,,,,,,,METAR,715.0
CWPR 090300Z AUTO 29009KT 30/05 RMK AO1 SLP074 T02960046 53008,CWPR,2023-06-09T03:00:00Z,49.47,-120.52,29.6,4.6,290,9,,,,1007.4,,TRUE,TRUE,,,,,,,,,,,,,,,,0.8,,,,,,,,,,,METAR,703.0
CWPO 090300Z AUTO 04004KT 21/21 RMK AO1 SLP130 T02080208 50002,CWPO,2023-06-09T03:00:00Z,49.2,-98.9,20.8,20.8,40,4,,,,1013.0,,TRUE,TRUE,,,,,,,,,,,,,,,,0.2,,,,,,,,,,,METAR,471.0
CWPK 090300Z AUTO 00000KT 09/08 RMK AO1 SLP106 T00860078 50001,CWPK,2023-06-09T03:00:00Z,47.92,-74.62,8.6,7.8,0,0,,,,1010.6,,TRUE,TRUE,,,,,,,,,,,,,,,,0.1,,,,,,,,,,,METAR,443.0
CWPE 090300Z AUTO 06004KT 12/10 RMK AO1 SLP087 T01160095 52006,CWPE,2023-06-09T03:00:00Z,45.07,-66.47,11.6,9.5,60,4,,,,1008.7,,TRUE,TRUE,,,,,,,,,,,,,,,,0.6,,,,,,,,,,,METAR,9.0
CWPD 090300Z AUTO 01003KT 07/06 RMK AO1 SLP081 T00660063 50002,CWPD,2023-06-09T03:00:00Z,47.57,-71.22,6.6,6.3,10,3,,,,1008.1,,TRUE,TRUE,,,,,,,,,,,,,,,,0.2,,,,,,,,,,,METAR,795.0
CWOY 090300Z AUTO 36006KT 22/10 RMK AO1 SLP148 T02230102 53008,CWOY,2023-06-09T03:00:00Z,51.77,-104.2,22.3,10.2,360,6,,,,1014.8,,TRUE,TRUE,,,,,,,,,,,,,,,,0.8,,,,,,,,,,,METAR,557.0
CWOD 090300Z AUTO 04004KT 11/10 RMK AO1 SLP116 T01090095 53002,CWOD,2023-06-09T03:00:00Z,48.85,-72.55,10.9,9.5,40,4,,,,1011.6,,TRUE,TRUE,,,,,,,,,,,,,,,,0.2,,,,,,,,,,,METAR,150.0
CWOC 090300Z AUTO 07004KT 08/08 RMK AO1 1PAST HR 1003 SLP119 P0000 T00780075 50004,CWOC,2023-06-09T03:00:00Z,48.02,-65.32,7.8,7.5,70,4,,,,1011.9,,TRUE,TRUE,,,,,,,,,,,,,,,,0.4,,,,,0.005,,,,,,METAR,42.0
CWOB 090300Z AUTO 28007KT ////SM ////// ///// A2982,CWOB,2023-06-09T03:00:00Z,63.33,-64.15,,,280,7,,,29.819881,,,TRUE,,,,,,,,,,,,,,,,,,,,,,,,,,,,METAR,369.0
CWNZ 090300Z AUTO 35002KT 12/08 RMK AO1 T01230081 57001,CWNZ,2023-06-09T03:00:00Z,49.75,-84.17,12.3,8.1,350,2,,,,,,TRUE,TRUE,,,,,,,,,,,,,,,,-0.1,,,,,,,,,,,METAR,261.0
CWNQ 090300Z AUTO 06006KT 11/09 RMK AO1 SLP085 T01050088 50006,CWNQ,2023-06-09T03:00:00Z,46.22,-72.65,10.5,8.8,60,6,,,,1008.5,,TRUE,TRUE,,,,,,,,,,,,,,,,0.6,,,,,,,,,,,METAR,9.0
CWNP 090300Z AUTO 07002KT 25/15 RMK AO1 SLP062 T02460152 55003,CWNP,2023-06-09T03:00:00Z,50.27,-117.82,24.6,15.2,70,2,,,,1006.2,,TRUE,TRUE,,,,,,,,,,,,,,,,-0.3,,,,,,,,,,,METAR,517.0
CWNM 090300Z AUTO 07004KT 30/08 RMK AO1 SLP087 T02990081 53027,CWNM,2023-06-09T03:00:00Z,49.5,-117.3,29.9,8.1,70,4,,,,1008.7,,TRUE,TRUE,,,,,,,,,,,,,,,,2.7,,,,,,,,,,,METAR,533.0
CWNK 090300Z AUTO 08004KT 23/17 RMK AO1 SLP116 T02280169 53002,CWNK,2023-06-09T03:00:00Z,49.5,-98.03,22.8,16.9,80,4,,,,1011.6,,TRUE,TRUE,,,,,,,,,,,,,,,,0.2,,,,,,,,,,,METAR,271.0
CWNH 090300Z AUTO 03004KT 07/07 RMK AO1 SLP107 T00730073 51004,CWNH,2023-06-09T03:00:00Z,47.8,-69.53,7.3,7.3,30,4,,,,1010.7,,TRUE,TRUE,,,,,,,,,,,,,,,,0.4,,,,,,,,,,,METAR,147.0
CWNE 090300Z AUTO 05008KT 07/07 RMK AO1 SLP109 T00710071 51002,CWNE,2023-06-09T03:00:00Z,47.07,-64.0,7.1,7.1,50,8,,,,1010.9,,TRUE,TRUE,,,,,,,,,,,,,,,,0.2,,,,,,,,,,,METAR,5.0
CWND 090300Z AUTO 04015KT 01/01 RMK AO1 PK WND 04018/0259 SLP135 T00100005 50001,CWND,2023-06-09T03:00:00Z,69.63,-135.43,1.0,0.5,40,15,,,,1013.5,,TRUE,TRUE,,,,,,,,,,,,,,,,0.1,,,,,,,,,,,METAR,14.0
CWNC 090300Z AUTO 36002KT 14/10 RMK AO1 SLP085 T01380099 50001,CWNC,2023-06-09T03:00:00Z,43.95,-78.17,13.8,9.9,360,2,,,,1008.5,,TRUE,TRUE,,,,,,,,,,,,,,,,0.1,,,,,,,,,,,METAR,71.0
CWMT 090300Z AUTO 15006KT 15/07 RMK AO1 SLP186 T01490066 56007,CWMT,2023-06-09T03:00:00Z,63.13,-117.25,14.9,6.6,150,6,,,,1018.6,,TRUE,TRUE,,,,,,,,,,,,,,,,-0.7,,,,,,,,,,,METAR,274.0
CWMQ 090300Z AUTO 16002KT 19/16 RMK AO1 SLP148 T01930156 53008,CWMQ,2023-06-09T03:00:00Z,49.9,-109.47,19.3,15.6,160,2,,,,1014.8,,TRUE,TRUE,,,,,,,,,,,,,,,,0.8,,,,,,,,,,,METAR,767.0
CWMM 090300Z AUTO 23002KT 22/08 RMK AO1 SLP125 T02230080 53001,CWMM,2023-06-09T03:00:00Z,49.22,-122.68,22.3,8.0,230,2,,,,1012.5,,TRUE,TRUE,,,,,,,,,,,,,,,,0.1,,,,,,,,,,,METAR,2.0
CWMJ 090300Z AUTO 34001KT 11/11 RMK AO1 0005 SLP093 T01130112 50004,CWMJ,2023-06-09T03:00:00Z,46.27,-76.0,11.3,11.2,340,1,,,,1009.3,,TRUE,TRUE,,,,,,,,,,,,,,,,0.4,,,,,,,,,,,METAR,198.0
CWME 090300Z AUTO 21008G16KT 20/10 RMK AO1 PK WND 24019/0207 SLP141 T01990103 53002,CWME,2023-06-09T03:00:00Z,52.18,-127.47,19.9,10.3,210,8,16,,,1014.1,,TRUE,TRUE,,,,,,,,,,,,,,,,0.2,,,,,,,,,,,METAR,23.0
CWLY 090300Z AUTO 19014G22KT 8SM BKN150 BKN170 32/08 A2969 RMK SLP052 DENSITY ALT 3100FT,CWLY,2023-06-09T03:00:00Z,50.22,-121.58,32.0,8.0,190,14,22,8.0,29.68996,1005.2,,TRUE,,,,,,,,BKN,15000,BKN,17000,,,,,VFR,,,,,,,,,,,,METAR,228.0
CWLX 090300Z AUTO ///// ////SM ////// M01/M01 A2954,CWLX,2023-06-09T03:00:00Z,68.9,-75.15,-1.0,-1.0,,,,,29.53937,,,TRUE,,,,,,,,,,,,,,,,,,,,,,,,,,,,METAR,129.0
CWLS 090300Z AUTO 34002KT 13/07 RMK AO1 SLP109 T01250074 51006,CWLS,2023-06-09T03:00:00Z,43.97,-80.75,12.5,7.4,340,2,,,,1010.9,,TRUE,TRUE,,,,,,,,,,,,,,,,0.6,,,,,,,,,,,METAR,413.0
CWLP 090300Z AUTO 29014KT 11/10 RMK AO1 PK WND 29018/0221 SLP160 T01140098 51002,CWLP,2023-06-09T03:00:00Z,50.93,-127.63,11.4,9.8,290,14,,,,1016.0,,TRUE,TRUE,,,,,,,,,,,,,,,,0.2,,,,,,,,,,,METAR,15.0
CWLM 090300Z AUTO 24014G19KT 17/07 RMK AO1 PK WND 26021/0249 SLP119 T01720073 55004,CWLM,2023-06-09T03:00:00Z,48.42,-123.32,17.2,7.3,240,14,19,,,1011.9,,TRUE,TRUE,,,,,,,,,,,,,,,,-0.4,,,,,,,,,,,METAR,62.0
CWLE 090300Z AUTO 04007KT 21/10 RMK AO1 SLP156 T02110098 51013,CWLE,2023-06-09T03:00:00Z,50.95,-107.15,21.1,9.8,40,7,,,,1015.6,,TRUE,TRUE,,,,,,,,,,,,,,,,1.3,,,,,,,,,,,METAR,666.0
CWLC 090300Z AUTO 17004KT 15/06 RMK AO1 T01470063,CWLC,2023-06-09T03:00:00Z,54.3,-130.62,14.7,6.3,170,4,,,,,,TRUE,TRUE,,,,,,,,,,,,,,,,,,,,,,,,,,,METAR,27.0
CWLB 090300Z AUTO 03003KT 21/11 RMK AO1 SLP181 T02080112 56001,CWLB,2023-06-09T03:00:00Z,54.77,-112.02,20.8,11.2,30,3,,,,1018.1,,TRUE,TRUE,,,,,,,,,,,,,,,,-0.1,,,,,,,,,,,METAR,561.0
CWKX 090300Z AUTO 25003KT 20/04 RMK AO1 SLP147 T02000042 56002,CWKX,2023-06-09T03:00:00Z,58.43,-130.02,20.0,4.2,250,3,,,,1014.7,,TRUE,TRUE,,,,,,,,,,,,,,,,-0.2,,,,,,,,,,,METAR,807.0
CWKO 090300Z AUTO 03005KT 22/14 RMK AO1 SLP148 T02150140 53003,CWKO,2023-06-09T03:00:00Z,49.17,-105.97,21.5,14.0,30,5,,,,1014.8,,TRUE,TRUE,,,,,,,,,,,,,,,,0.3,,,,,,,,,,,METAR,914.0
CWKH 090300Z AUTO 21/10 RMK AO1 SLP113 T02080102 55003,CWKH,2023-06-09T03:00:00Z,48.57,-123.55,20.8,10.2,,,,,,1011.3,,TRUE,TRUE,,,,,,,,,,,,,,,,-0.3,,,,,,,,,,,METAR,327.0
CWKG 090300Z AUTO 08003KT 09/08 RMK AO1 SLP091 T00880084 52004,CWKG,2023-06-09T03:00:00Z,44.43,-65.2,8.8,8.4,80,3,,,,1009.1,,TRUE,TRUE,,,,,,,,,,,,,,,,0.4,,,,,,,,,,,METAR,154.0
CWKD 090300Z AUTO 09/07 RMK AO1 SLP139 T00900071 52004,CWKD,2023-06-09T03:00:00Z,50.73,-71.02,9.0,7.1,,,,,,1013.9,,TRUE,TRUE,,,,,,,,,,,,,,,,0.4,,,,,,,,,,,METAR,496.0
CWJX 090300Z AUTO 07008KT 23/06 RMK AO1 SLP145 T02250055 52009,CWJX,2023-06-09T03:00:00Z,50.88,-109.5,22.5,5.5,70,8,,,,1014.5,,TRUE,TRUE,,,,,,,,,,,,,,,,0.9,,,,,,,,,,,METAR,671.0
CWJW 090300Z AUTO 29006KT 27/07 RMK AO1 SLP107 T02720068 53006,CWJW,2023-06-09T03:00:00Z,52.93,-118.03,27.2,6.8,290,6,,,,1010.7,,TRUE,TRUE,,,,,,,,,,,,,,,,0.6,,,,,,,,,,,METAR,1022.0
CWJV 090300Z AUTO 22003KT 29/09 RMK AO1 SLP065 T02930092 50003,CWJV,2023-06-09T03:00:00Z,50.22,-119.18,29.3,9.2,220,3,,,,1006.5,,TRUE,TRUE,,,,,,,,,,,,,,,,0.3,,,,,,,,,,,METAR,487.0
CWJU 090300Z AUTO 20009G16KT 12/10 RMK AO1 PK WND 19017/0225 SLP156 T01200102 53002,CWJU,2023-06-09T03:00:00Z,54.25,-133.07,12.0,10.2,200,9,16,,,1015.6,,TRUE,TRUE,,,,,,,,,,,,,,,,0.2,,,,,,,,,,,METAR,47.0
CWJT 090300Z AUTO 00000KT 11/10 RMK AO1 SLP087 T01090095 52006,CWJT,2023-06-09T03:00:00Z,46.07,-74.57,10.9,9.5,0,0,,,,1008.7,,TRUE,TRUE,,,,,,,,,,,,,,,,0.6,,,,,,,,,,,METAR,236.0
CWJR 090300Z AUTO 17002KT 23/14 RMK AO1 SLP111 T02320140 51014,CWJR,2023-06-09T03:00:00Z,49.03,-116.5,23.2,14.0,170,2,,,,1011.1,,TRUE,TRUE,,,,,,,,,,,,,,,,1.4,,,,,,,,,,,METAR,642.0
CWJO 090300Z AUTO 00014KT 10/08 RMK AO1 SLP111 T01030078 50004,CWJO,2023-06-09T03:00:00Z,48.43,-71.15,10.3,7.8,0,14,,,,1011.1,,TRUE,TRUE,,,,,,,,,,,,,,,,0.4,,,,,,,,,,,METAR,113.0
CWJI 090300Z AUTO 04008KT 22/15 RMK AO1 SLP138 T02230150 53003,CWJI,2023-06-09T03:00:00Z,49.72,-105.93,22.3,15.0,40,8,,,,1013.8,,TRUE,TRUE,,,,,,,,,,,,,,,,0.3,,,,,,,,,,,METAR,724.0
CWJH 090300Z AUTO 01002KT 16/08 RMK AO1 SLP177 T01630079 53013,CWJH,2023-06-09T03:00:00Z,56.32,-103.27,16.3,7.9,10,2,,,,1017.7,,TRUE,TRUE,,,,,,,,,,,,,,,,1.3,,,,,,,,,,,METAR,345.0
CWJD 090300Z AUTO 35004KT 23/11 RMK AO1 SLP110 T02340107 53012,CWJD,2023-06-09T03:00:00Z,53.18,-99.27,23.4,10.7,350,4,,,,1011.0,,TRUE,TRUE,,,,,,,,,,,,,,,,1.2,,,,,,,,,,,METAR,222.0
CWJC 090300Z AUTO 36021G27KT 06/03 RMK AO1 PK WND 00027/0258 SLP191 T00580034 51016,CWJC,2023-06-09T03:00:00Z,61.13,-100.9,5.8,3.4,360,21,27,,,1019.1,,TRUE,TRUE,,,,,,,,,,,,,,,,1.6,,,,,,,,,,,METAR,340.0
CWJB 090300Z AUTO 10/09 RMK AO1 T01040092,CWJB,2023-06-09T03:00:00Z,46.78,-71.28,10.4,9.2,,,,,,,,TRUE,TRUE,,,,,,,,,,,,,,,,,,,,,,,,,,,METAR,90.0
CWIZ 090300Z AUTO 36001KT 12/12 RMK AO1 T01230115 50003,CWIZ,2023-06-09T03:00:00Z,45.28,-73.33,12.3,11.5,360,1,,,,,,TRUE,TRUE,,,,,,,,,,,,,,,,0.3,,,,,,,,,,,METAR,45.0
CWIW 090300Z AUTO 36006KT 23/13 RMK AO1 SLP148 T02260133 53009,CWIW,2023-06-09T03:00:00Z,51.67,-105.4,22.6,13.3,360,6,,,,1014.8,,TRUE,TRUE,,,,,,,,,,,,,,,,0.9,,,,,,,,,,,METAR,524.0
CWIT 090300Z AUTO 09003KT 13/11 RMK AO1 3007 SLP074 T01270109 50003,CWIT,2023-06-09T03:00:00Z,45.17,-73.67,12.7,10.9,90,3,,,,1007.4,,TRUE,TRUE,,,,,,,,,,,,,,,,0.3,,,,,,,,,,,METAR,53.0
CWIS 090300Z AUTO 03006KT 06/06 RMK AO1 4PAST HR 1002 SLP105 P0005 T00600059 50026,CWIS,2023-06-09T03:00:00Z,47.28,-70.63,6.0,5.9,30,6,,,,1010.5,,TRUE,TRUE,,,,,,,,,,,,,,,,2.6,,,,,0.05,,,,,,METAR,720.0
CWIP 090300Z AUTO 07002KT 09/09 RMK AO1 2PAST HR M P0001 T00900089 50002,CWIP,2023-06-09T03:00:00Z,50.17,-66.43,9.0,8.9,70,2,,,,,,TRUE,TRUE,,,,,,,,,,,,,,,,0.2,,,,,0.01,,,,,,METAR,27.0
CWIL 090300Z AUTO ///// ////SM OVC007 M01/M02 A2999,CWIL,2023-06-09T03:00:00Z,68.32,-100.07,-1.0,-2.0,,,,,29.991142,,,TRUE,,,,,,,,OVC,700,,,,,,,,,,,,,,,,,,,METAR,28.0
CWIK 090300Z AUTO 07003KT 20/17 RMK AO1 SLP140 T01990169 52004,CWIK,2023-06-09T03:00:00Z,50.37,-102.58,19.9,16.9,70,3,,,,1014.0,,TRUE,TRUE,,,,,,,,,,,,,,,,0.4,,,,,,,,,,,METAR,597.0
CWIJ 090300Z AUTO 25009KT 12/02 RMK AO1 SLP205 T01150022 55003,CWIJ,2023-06-09T03:00:00Z,65.77,-111.23,11.5,2.2,250,9,,,,1020.5,,TRUE,TRUE,,,,,,,,,,,,,,,,-0.3,,,,,,,,,,,METAR,490.0
CWII 090300Z AUTO 15001KT 22/18 RMK AO1 SLP117 T02220184 55000,CWII,2023-06-09T03:00:00Z,50.7,-96.57,22.2,18.4,150,1,,,,1011.7,,TRUE,TRUE,,,,,,,,,,,,,,,,0.0,,,,,,,,,,,METAR,216.0
CWIG 090300Z AUTO 05022G28KT RMK AO1 PK WND 05031/0249,CWIG,2023-06-09T03:00:00Z,47.07,-70.53,,,50,22,28,,,,,TRUE,TRUE,,,,,,,,,,,,,,,,,,,,,,,,,,,METAR,12.0
CWID 090300Z AUTO 32003KT 16/09 RMK AO1 SLP183 T01570086 56003,CWID,2023-06-09T03:00:00Z,61.32,-117.6,15.7,8.6,320,3,,,,1018.3,,TRUE,TRUE,,,,,,,,,,,,,,,,-0.3,,,,,,,,,,,METAR,160.0
CWHV 090300Z AUTO 32003KT 10/10 RMK AO1 SLP079 T00950099 51004,CWHV,2023-06-09T03:00:00Z,46.2,-70.78,9.5,9.9,320,3,,,,1007.9,,TRUE,TRUE,,,,,,,,,,,,,,,,0.4,,,,,,,,,,,METAR,227.0
CWHT 090300Z AUTO 30006KT 17/05 RMK AO1 SLP120 T01740046 51007,CWHT,2023-06-09T03:00:00Z,60.77,-137.58,17.4,4.6,300,6,,,,1012.0,,TRUE,TRUE,,,,,,,,,,,,,,,,0.7,,,,,,,,,,,METAR,601.0
CWHQ 090300Z AUTO 07001KT 11/08 RMK AO1 T01060075,CWHQ,2023-06-09T03:00:00Z,46.68,-71.97,10.6,7.5,70,1,,,,,,TRUE,TRUE,,,,,,,,,,,,,,,,,,,,,,,,,,,METAR,56.0
CWHP 090300Z AUTO 02011KT 05/05 RMK AO1 SLP118 T00480047 55002,CWHP,2023-06-09T03:00:00Z,49.08,-61.7,4.8,4.7,20,11,,,,1011.8,,TRUE,TRUE,,,,,,,,,,,,,,,,-0.2,,,,,,,,,,,METAR,7.0
CWHO 090300Z AUTO 00008KT 01/M00 RMK AO1 SLP201 T00111004 58017,CWHO,2023-06-09T03:00:00Z,55.45,-60.22,1.1,-0.4,0,8,,,,1020.1,,TRUE,TRUE,,,,,,,,,,,,,,,,-1.7,,,,,,,,,,,METAR,16.0
CWHL 090300Z AUTO 33010KT 15/08 RMK AO1 SLP145 T01450076 53002,CWHL,2023-06-09T03:00:00Z,54.17,-130.35,14.5,7.6,330,10,,,,1014.5,,TRUE,TRUE,,,,,,,,,,,,,,,,0.2,,,,,,,,,,,METAR,5.0
CWHI 090300Z AUTO 10011KT 26/09 RMK AO1 PK WND 09019/0200 T02640090,CWHI,2023-06-09T03:00:00Z,51.7,-113.22,26.4,9.0,100,11,,,,,,TRUE,TRUE,,,,,,,,,,,,,,,,,,,,,,,,,,,METAR,906.0
CWGY 090300Z AUTO 08008KT 24/09 RMK AO1 SLP150 T02360086 51008,CWGY,2023-06-09T03:00:00Z,51.67,-110.2,23.6,8.6,80,8,,,,1015.0,,TRUE,TRUE,,,,,,,,,,,,,,,,0.8,,,,,,,,,,,METAR,709.0
CWGW 090300Z AUTO 02002KT 21/12 RMK AO1 SLP144 T02090115 55002,CWGW,2023-06-09T03:00:00Z,49.75,-114.9,20.9,11.5,20,2,,,,1014.4,,TRUE,TRUE,,,,,,,,,,,,,,,,-0.2,,,,,,,,,,,METAR,1137.0
CWGT 090300Z AUTO 13012KT 19/11 RMK AO1 SLP113 T01920110 55005,CWGT,2023-06-09T03:00:00Z,49.48,-124.43,19.2,11.0,130,12,,,,1011.3,,TRUE,TRUE,,,,,,,,,,,,,,,,-0.5,,,,,,,,,,,METAR,5.0
CWGR 090300Z AUTO 06009KT 07/07 RMK AO1 SLP108 T00690066 50004,CWGR,2023-06-09T03:00:00Z,47.42,-61.77,6.9,6.6,60,9,,,,1010.8,,TRUE,TRUE,,,,,,,,,,,,,,,,0.4,,,,,,,,,,,METAR,4.0
CWGM 090300Z AUTO 02002KT 18/12 RMK AO1 SLP144 T01840120 50004,CWGM,2023-06-09T03:00:00Z,49.13,-113.8,18.4,12.0,20,2,,,,1014.4,,TRUE,TRUE,,,,,,,,,,,,,,,,0.4,,,,,,,,,,,METAR,1292.0
CWGL 090300Z AUTO 35004KT 14/08 RMK AO1 SLP083 T01380084 50004,CWGL,2023-06-09T03:00:00Z,44.53,-79.22,13.8,8.4,350,4,,,,1008.3,,TRUE,TRUE,,,,,,,,,,,,,,,,0.4,,,,,,,,,,,METAR,220.0
CWGH 090300Z AUTO 00000KT 12/10 RMK AO1 SLP080 T01230098 51004,CWGH,2023-06-09T03:00:00Z,44.42,-75.85,12.3,9.8,0,0,,,,1008.0,,TRUE,TRUE,,,,,,,,,,,,,,,,0.4,,,,,,,,,,,METAR,76.0
CWGD 090300Z AUTO 01005KT 13/09 RMK AO1 SLP113 T01270089 53006,CWGD,2023-06-09T03:00:00Z,43.77,-81.72,12.7,8.9,10,5,,,,1011.3,,TRUE,TRUE,,,,,,,,,,,,,,,,0.6,,,,,,,,,,,METAR,214.0
CWGB 090300Z AUTO 09007KT 18/ RMK AO1 SLP108 T0182 55006,CWGB,2023-06-09T03:00:00Z,49.35,-124.13,18.2,,90,7,,,,1010.8,,TRUE,TRUE,,,,,,,,,,,,,,,,-0.6,,,,,,,,,,,METAR,6.0
CWFQ 090300Z AUTO 34001KT 10/10 RMK AO1 SLP074 T01030100 51005,CWFQ,2023-06-09T03:00:00Z,45.03,-72.85,10.3,10.0,340,1,,,,1007.4,,TRUE,TRUE,,,,,,,,,,,,,,,,0.5,,,,,,,,,,,METAR,190.0
CWFJ 090300Z AUTO 20003KT 20/13 RMK AO1 T01960130,CWFJ,2023-06-09T03:00:00Z,49.2,-113.27,19.6,13.0,200,3,,,,,,TRUE,TRUE,,,,,,,,,,,,,,,,,,,,,,,,,,,METAR,1142.0
CWFF 090300Z AUTO 06002KT 19/07 RMK AO1 SLP162 T01890066 53018,CWFF,2023-06-09T03:00:00Z,52.82,-104.6,18.9,6.6,60,2,,,,1016.2,,TRUE,TRUE,,,,,,,,,,,,,,,,1.8,,,,,,,,,,,METAR,482.0
CWEZ 090300Z AUTO 26007KT 16/10 RMK AO1 SLP115 T01590098 55004,CWEZ,2023-06-09T03:00:00Z,48.78,-123.05,15.9,9.8,260,7,,,,1011.5,,TRUE,TRUE,,,,,,,,,,,,,,,,-0.4,,,,,,,,,,,METAR,23.0
CWEW 090300Z AUTO 01004KT 13/12 RMK AO1 SLP087 T01260116 51009,CWEW,2023-06-09T03:00:00Z,45.82,-73.43,12.6,11.6,10,4,,,,1008.7,,TRUE,TRUE,,,,,,,,,,,,,,,,0.9,,,,,,,,,,,METAR,17.0
CWEU 090300Z 14021G28KT 15SM FEW017 FEW030 BKN040 OVC110 M00/M04 A2978 RMK SC1SC1SC6AC1 SC TR LAST OBS/NXT 090600Z SLP096,CWEU,2023-06-09T03:00:00Z,80.0,-85.93,0.0,-4.0,140,21,28,15.0,29.778543,1009.6,,,,,,,,,,FEW,1700,FEW,3000,BKN,4000,OVC,11000,VFR,,,,,,,,,,,,METAR,2.0
CWER 090300Z AUTO 06025KT RMK AO1 PK WND 06032/0212,CWER,2023-06-09T03:00:00Z,47.0,-70.82,,,60,25,,,,,,TRUE,TRUE,,,,,,,,,,,,,,,,,,,,,,,,,,,METAR,4.0
CWEQ 090300Z AUTO 03012KT 24/12 RMK AO1 PK WND 02019/0242 SLP120 T02410115 53009,CWEQ,2023-06-09T03:00:00Z,52.12,-101.22,24.1,11.5,30,12,,,,1012.0,,TRUE,TRUE,,,,,,,,,,,,,,,,0.9,,,,,,,,,,,METAR,331.0
CWEP 090300Z AUTO 33004KT 09/08 RMK AO1 SLP103 T00870083 50000,CWEP,2023-06-09T03:00:00Z,46.45,-61.98,8.7,8.3,330,4,,,,1010.3,,TRUE,TRUE,,,,,,,,,,,,,,,,0.0,,,,,,,,,,,METAR,9.0
CWEL 090300Z AUTO 10012KT 18/14 RMK AO1 SLP109 T01770139 55007,CWEL,2023-06-09T03:00:00Z,49.22,-123.8,17.7,13.9,100,12,,,,1010.9,,TRUE,TRUE,,,,,,,,,,,,,,,,-0.7,,,,,,,,,,,METAR,0.0
CWEH 090300Z AUTO 06009KT 20/13 RMK AO1 SLP151 T02030127 53008,CWEH,2023-06-09T03:00:00Z,49.43,-108.98,20.3,12.7,60,9,,,,1015.1,,TRUE,TRUE,,,,,,,,,,,,,,,,0.8,,,,,,,,,,,METAR,1077.0
CWEF 090300Z AUTO 16006KT 06/06 RMK AO1 SLP101 T00610060 51004,CWEF,2023-06-09T03:00:00Z,47.22,-60.13,6.1,6.0,160,6,,,,1010.1,,TRUE,TRUE,,,,,,,,,,,,,,,,0.4,,,,,,,,,,,METAR,27.0
CWEE 090300Z AUTO 09/08 RMK AO1 SLP109 T00860075 53002,CWEE,2023-06-09T03:00:00Z,49.27,-73.35,8.6,7.5,,,,,,1010.9,,TRUE,TRUE,,,,,,,,,,,,,,,,0.2,,,,,,,,,,,METAR,302.0
CWEB 090300Z AUTO 00032KT 12/10 RMK AO1 SLP162 T01160097 55004,CWEB,2023-06-09T03:00:00Z,49.38,-126.55,11.6,9.7,0,32,,,,1016.2,,TRUE,TRUE,,,,,,,,,,,,,,,,-0.4,,,,,,,,,,,METAR,1.0
CWDZ 090300Z AUTO 08009G15KT 28/10 RMK AO1 SLP132 T02790098 53006,CWDZ,2023-06-09T03:00:00Z,51.43,-112.67,27.9,9.8,80,9,15,,,1013.2,,TRUE,TRUE,,,,,,,,,,,,,,,,0.6,,,,,,,,,,,METAR,689.0
CWDV 090300Z AUTO 26001KT 13/07 RMK AO1 SLP137 T01300072 55000,CWDV,2023-06-09T03:00:00Z,49.02,-90.47,13.0,7.2,260,1,,,,1013.7,,TRUE,TRUE,,,,,,,,,,,,,,,,0.0,,,,,,,,,,,METAR,487.0
CWDQ 090300Z AUTO 34003KT 11/09 RMK AO1 SLP097 T01120091 51004,CWDQ,2023-06-09T03:00:00Z,47.42,-72.78,11.2,9.1,340,3,,,,1009.7,,TRUE,TRUE,,,,,,,,,,,,,,,,0.4,,,,,,,,,,,METAR,174.0
CWDO 090300Z AUTO 31008KT 02/02 RMK AO1 SLP116 T00150015 58001,CWDO,2023-06-09T03:00:00Z,49.68,-54.78,1.5,1.5,310,8,,,,1011.6,,TRUE,TRUE,,,,,,,,,,,,,,,,-0.1,,,,,,,,,,,METAR,89.0
CWDM 090300Z AUTO 06013G20KT 06/05 RMK AO1 PK WND 05024/0211 SLP131 T00570053 50000,CWDM,2023-06-09T03:00:00Z,50.47,-59.63,5.7,5.3,60,13,20,,,1013.1,,TRUE,TRUE,,,,,,,,,,,,,,,,0.0,,,,,,,,,,,METAR,2.0
CWDK 090300Z AUTO 13005KT 22/09 RMK AO1 SLP145 T02220093 53007,CWDK,2023-06-09T03:00:00Z,50.02,-113.62,22.2,9.3,130,5,,,,1014.5,,TRUE,TRUE,,,,,,,,,,,,,,,,0.7,,,,,,,,,,,METAR,1014.0
CWDJ 090300Z AUTO 03004KT 24/15 RMK AO1 SLP137 T02350150 53006,CWDJ,2023-06-09T03:00:00Z,50.4,-104.58,23.5,15.0,30,4,,,,1013.7,,TRUE,TRUE,,,,,,,,,,,,,,,,0.6,,,,,,,,,,,METAR,576.0
CWDC 090300Z AUTO 31004KT 15/07 RMK AO1 SLP202 T01540066 52001,CWDC,2023-06-09T03:00:00Z,59.57,-108.48,15.4,6.6,310,4,,,,1020.2,,TRUE,TRUE,,,,,,,,,,,,,,,,0.1,,,,,,,,,,,METAR,311.0
CWDA 090300Z AUTO 00034KT 04/ RMK AO1 2PAST HR M P0001 T0042 50007,CWDA,2023-06-09T03:00:00Z,50.72,-56.12,4.2,,0,34,,,,,,TRUE,TRUE,,,,,,,,,,,,,,,,0.7,,,,,0.01,,,,,,METAR,30.0
CWCT 090300Z AUTO 09006KT 22/12 RMK AO1 SLP162 T02180116 53004,CWCT,2023-06-09T03:00:00Z,52.07,-111.43,21.8,11.6,90,6,,,,1016.2,,TRUE,TRUE,,,,,,,,,,,,,,,,0.4,,,,,,,,,,,METAR,793.0
CWCO 090300Z AUTO 32005KT 14/10 RMK AO1 SLP104 T01420098 50005,CWCO,2023-06-09T03:00:00Z,44.5,-80.22,14.2,9.8,320,5,,,,1010.4,,TRUE,TRUE,,,,,,,,,,,,,,,,0.5,,,,,,,,,,,METAR,182.0
CWCJ 090300Z AUTO 19002KT 08/02 RMK AO1 SLP135 T00820017 56003,CWCJ,2023-06-09T03:00:00Z,48.6,-86.28,8.2,1.7,190,2,,,,1013.5,,TRUE,TRUE,,,,,,,,,,,,,,,,-0.3,,,,,,,,,,,METAR,207.0
CWCF 090300Z AUTO 22001KT 19/18 RMK AO1 SLP110 T01940180 58002,CWCF,2023-06-09T03:00:00Z,52.35,-97.03,19.4,18.0,220,1,,,,1011.0,,TRUE,TRUE,,,,,,,,,,,,,,,,-0.2,,,,,,,,,,,METAR,219.0
CWBZ 090300Z AUTO 32002KT 12/12 RMK AO1 0002 SLP075 T01230118 50029,CWBZ,2023-06-09T03:00:00Z,45.12,-74.28,12.3,11.8,320,2,,,,1007.5,,TRUE,TRUE,,,,,,,,,,,,,,,,2.9,,,,,,,,,,,METAR,49.0
CWBY 090300Z AUTO 06005KT 08/07 RMK AO1 SLP136 T00840070 51003,CWBY,2023-06-09T03:00:00Z,49.83,-64.28,8.4,7.0,60,5,,,,1013.6,,TRUE,TRUE,,,,,,,,,,,,,,,,0.3,,,,,,,,,,,METAR,56.0
CWBV 090300Z AUTO 13004KT 07/07 RMK AO1 SLP086 T00710071 58001,CWBV,2023-06-09T03:00:00Z,44.82,-62.33,7.1,7.1,130,4,,,,1008.6,,TRUE,TRUE,,,,,,,,,,,,,,,,-0.1,,,,,,,,,,,METAR,16.0
CWBU 090300Z AUTO 02004KT 18/08 RMK AO1 SLP156 T01830075 53012,CWBU,2023-06-09T03:00:00Z,53.33,-104.02,18.3,7.5,20,4,,,,1015.6,,TRUE,TRUE,,,,,,,,,,,,,,,,1.2,,,,,,,,,,,METAR,369.0
CWBT 090300Z AUTO 08002KT 07/07 RMK AO1 1003 SLP144 T00730073 50010,CWBT,2023-06-09T03:00:00Z,50.27,-64.23,7.3,7.3,80,2,,,,1014.4,,TRUE,TRUE,,,,,,,,,,,,,,,,1.0,,,,,,,,,,,METAR,12.0
CWBS 090300Z AUTO 06012KT 13/10 RMK AO1 PK WND 08020/0217 T01330104,CWBS,2023-06-09T03:00:00Z,46.18,-72.92,13.3,10.4,60,12,,,,,,TRUE,TRUE,,,,,,,,,,,,,,,,,,,,,,,,,,,METAR,3.0
CWBO 090300Z AUTO 10005KT 23/09 RMK AO1 SLP140 T02270093 53006,CWBO,2023-06-09T03:00:00Z,50.53,-111.83,22.7,9.3,100,5,,,,1014.0,,TRUE,TRUE,,,,,,,,,,,,,,,,0.6,,,,,,,,,,,METAR,752.0
CWBK 090300Z AUTO 34003KT 11/10 RMK AO1 SLP097 T01070098 58001,CWBK,2023-06-09T03:00:00Z,45.77,-62.67,10.7,9.8,340,3,,,,1009.7,,TRUE,TRUE,,,,,,,,,,,,,,,,-0.1,,,,,,,,,,,METAR,2.0
CWBA 090300Z AUTO 34001KT 14/11 RMK AO1 T01430109,CWBA,2023-06-09T03:00:00Z,46.72,-79.1,14.3,10.9,340,1,,,,,,TRUE,TRUE,,,,,,,,,,,,,,,,,,,,,,,,,,,METAR,181.0
CWAV 090300Z AUTO 12005KT 24/08 RMK AO1 SLP147 T02410079 53006,CWAV,2023-06-09T03:00:00Z,51.77,-114.67,24.1,7.9,120,5,,,,1014.7,,TRUE,TRUE,,,,,,,,,,,,,,,,0.6,,,,,,,,,,,METAR,1115.0
CWAR 090300Z AUTO 33003KT 11/09 RMK AO1 SLP110 T01120094 58003,CWAR,2023-06-09T03:00:00Z,47.28,-54.0,11.2,9.4,330,3,,,,1011.0,,TRUE,TRUE,,,,,,,,,,,,,,,,-0.3,,,,,,,,,,,METAR,6.0
CWAQ 090300Z AUTO 36005KT 21/16 RMK AO1 SLP135 T02060162 53006,CWAQ,2023-06-09T03:00:00Z,49.05,-105.48,20.6,16.2,360,5,,,,1013.5,,TRUE,TRUE,,,,,,,,,,,,,,,,0.6,,,,,,,,,,,METAR,761.0
CWAF 090300Z AUTO 04016G21KT 08/07 RMK AO1 PK WND 05022/0201 T00780071,CWAF,2023-06-09T03:00:00Z,48.07,-69.55,7.8,7.1,40,16,21,,,,,TRUE,TRUE,,,,,,,,,,,,,,,,,,,,,,,,,,,METAR,6.0
CTRA 090300Z AUTO 20002KT 18/08 RMK AO1 SLP133 T01810078 53001,CTRA,2023-06-09T03:00:00Z,49.67,-93.73,18.1,7.8,200,2,,,,1013.3,,TRUE,TRUE,,,,,,,,,,,,,,,,0.1,,,,,,,,,,,METAR,432.0
CTNK 090300Z AUTO 00000KT 09/08 RMK AO1 0000 SLP101 T00930082 50003,CTNK,2023-06-09T03:00:00Z,45.53,-78.27,9.3,8.2,0,0,,,,1010.1,,TRUE,TRUE,,,,,,,,,,,,,,,,0.3,,,,,,,,,,,METAR,405.0
CTCK 090300Z AUTO 00000KT 12/11 RMK AO1 SLP077 T01180114 50001,CTCK,2023-06-09T03:00:00Z,45.25,-74.97,11.8,11.4,0,0,,,,1007.7,,TRUE,TRUE,,,,,,,,,,,,,,,,0.1,,,,,,,,,,,METAR,84.0
CPSV 090300Z AUTO 14006KT 23/14 RMK AO1 T02290135,CPSV,2023-06-09T03:00:00Z,49.92,-110.92,22.9,13.5,140,6,,,,,,TRUE,TRUE,,,,,,,,,,,,,,,,,,,,,,,,,,,METAR,766.0
CPST 090300Z AUTO 11006KT 25/08 RMK AO1 T02500075,CPST,2023-06-09T03:00:00Z,51.03,-113.28,25.0,7.5,110,6,,,,,,TRUE,TRUE,,,,,,,,,,,,,,,,,,,,,,,,,,,METAR,1005.0
CPRY 090300Z AUTO 12011KT 22/14 RMK AO1 PK WND 13024/0256 T02170135,CPRY,2023-06-09T03:00:00Z,49.48,-112.68,21.7,13.5,120,11,,,,,,TRUE,TRUE,,,,,,,,,,,,,,,,,,,,,,,,,,,METAR,947.0
CPRO 090300Z AUTO 12010KT 26/08 RMK AO1 T02570076,CPRO,2023-06-09T03:00:00Z,50.83,-112.05,25.7,7.6,120,10,,,,,,TRUE,TRUE,,,,,,,,,,,,,,,,,,,,,,,,,,,METAR,733.0
CPIN 090300Z AUTO 23013KT ////SM ////// ///// A////,CPIN,2023-06-09T03:00:00Z,,,,,230,13,,,,,,TRUE,,,,,,,,,,,,,,,,,,,,,,,,,,,,METAR,
CPFI 090300Z AUTO 16010KT 22/14 RMK AO1 PK WND 14017/0244 T02170144,CPFI,2023-06-09T03:00:00Z,49.8,-112.03,21.7,14.4,160,10,,,,,,TRUE,TRUE,,,,,,,,,,,,,,,,,,,,,,,,,,,METAR,804.0
CPEH 090300Z AUTO 22/12 RMK AO1 T02150118,CPEH,2023-06-09T03:00:00Z,50.18,-112.43,21.5,11.8,,,,,,,,TRUE,TRUE,,,,,,,,,,,,,,,,,,,,,,,,,,,METAR,814.0
CPBT 090300Z AUTO 11001KT 20/14 RMK AO1 T01990143,CPBT,2023-06-09T03:00:00Z,49.53,-113.05,19.9,14.3,110,1,,,,,,TRUE,TRUE,,,,,,,,,,,,,,,,,,,,,,,,,,,METAR,998.0
CMGB 090300Z AUTO 02004KT 12/11 RMK AO1 SLP076 T01210106 52005,CMGB,2023-06-09T03:00:00Z,45.37,-72.77,12.1,10.6,20,4,,,,1007.6,,TRUE,TRUE,,,,,,,,,,,,,,,,0.5,,,,,,,,,,,METAR,87.0
CMFM 090300Z AUTO 01003KT 08/06 RMK AO1 SLP097 T00790058 50000,CMFM,2023-06-09T03:00:00Z,47.32,-71.15,7.9,5.8,10,3,,,,1009.7,,TRUE,TRUE,,,,,,,,,,,,,,,,0.0,,,,,,,,,,,METAR,663.0
CERM 090300Z AUTO 07004KT 11/08 RMK AO1 SLP104 T01100077 51009,CERM,2023-06-09T03:00:00Z,47.42,-68.32,11.0,7.7,70,4,,,,1010.4,,TRUE,TRUE,,,,,,,,,,,,,,,,0.9,,,,,,,,,,,METAR,151.0
CBBC 090300Z AUTO 33006KT 290V350 9SM CLR 17/09 A2999 RMK SLP159 DENSITY ALT 400FT,CBBC,2023-06-09T03:00:00Z,52.18,-128.15,17.0,9.0,330,6,,9.0,29.991142,1015.9,,TRUE,,,,,,,,CLR,,,,,,,,VFR,,,,,,,,,,,,METAR,36.0
CBAR 090300Z AUTO 05017KT ////SM ////// ///// A////,CBAR,2023-06-09T03:00:00Z,,,,,50,17,,,,,,TRUE,,,,,,,,,,,,,,,,,,,,,,,,,,,,METAR,
CAHR 090300Z AUTO 00000KT 09/09 RMK AO1 SLP102 T00880087 51003,CAHR,2023-06-09T03:00:00Z,46.35,-63.17,8.8,8.7,0,0,,,,1010.2,,TRUE,TRUE,,,,,,,,,,,,,,,,0.3,,,,,,,,,,,METAR,52.0
BIRK 090300Z 17014KT 9999 -RA FEW003 SCT021 BKN025 10/08 Q1009,BIRK,2023-06-09T03:00:00Z,64.13,-21.93,10.0,8.0,170,14,,6.21,29.793306,,,,,,,,,,-RA,FEW,300,SCT,2100,BKN,2500,,,MVFR,,,,,,,,,,,,METAR,12.0
BIEG 090300Z 22010KT 9999 FEW050 SCT070 BKN080 10/05 Q1014,BIEG,2023-06-09T03:00:00Z,65.27,-14.4,10.0,5.0,220,10,,6.21,29.940945,,,,,,,,,,,FEW,5000,SCT,7000,BKN,8000,,,VFR,,,,,,,,,,,,METAR,20.0
BIAR 090300Z 15006KT 9999 SCT042 10/06 Q1012,BIAR,2023-06-09T03:00:00Z,65.67,-18.07,10.0,6.0,150,6,,6.21,29.88189,,,,,,,,,,,SCT,4200,,,,,,,VFR,,,,,,,,,,,,METAR,1.0
AYPY 090300Z 16015G20KT 9999 SCT030 30/23 Q1009,AYPY,2023-06-09T03:00:00Z,-9.43,147.22,30.0,23.0,160,15,20,6.21,29.793306,,,,,,,,,,,SCT,3000,,,,,,,VFR,,,,,,,,,,,,METAR,44.0
AYNZ 090300Z 07010G15KT 9999 SCT030 SCT050 31/22 Q1009,AYNZ,2023-06-09T03:00:00Z,-6.57,146.72,31.0,22.0,70,10,15,6.21,29.793306,,,,,,,,,,,SCT,3000,SCT,5000,,,,,VFR,,,,,,,,,,,,METAR,74.0
AYMH 090300Z VRB04KT 9999 HZ SCT030 26/16 Q1019,AYMH,2023-06-09T03:00:00Z,-5.83,144.3,26.0,16.0,0,4,,6.21,30.088583,,,,,,,,,,HZ,SCT,3000,,,,,,,VFR,,,,,,,,,,,,METAR,1634.0
ANYN 090300Z VRB02KT 9999 FEW02 BKN300 27/25 Q1008,ANYN,2023-06-09T03:00:00Z,-0.55,166.92,27.0,25.0,0,2,,6.21,29.763779,,,,,,,,,,,BKN,30000,,,,,,,VFR,,,,,,,,,,,,METAR,7.0
AGGH 090300Z 07006KT 9999 FEW020TCU FEW021CB SCT300 31/25 Q1007,AGGH,2023-06-09T03:00:00Z,-9.42,160.05,31.0,25.0,70,6,,6.21,29.734253,,,,,,,,,,,FEW,2000,FEW,2100,SCT,30000,,,VFR,,,,,,,,,,,,METAR,6.0
RODE 090259Z AUTO 21008KT CLR 28/27 A2975 RMK AO2 SLP112 T02830272 58007 $,RODE,2023-06-09T02:59:00Z,26.72,127.77,28.3,27.2,210,8,,,29.749016,1011.2,,TRUE,TRUE,TRUE,,,,,,CLR,,,,,,,,,-0.7,,,,,,,,,,,METAR,69.0
RKSO 090259Z 18004KT 7SM BR FEW240 FEW320 25/17 A2967 RMK SLP051 T02490166 $,RKSO,2023-06-09T02:59:00Z,37.08,127.02,24.9,16.6,180,4,,7.0,29.66929,1005.1,,,,TRUE,,,,,BR,FEW,24000,FEW,32000,,,,,VFR,,,,,,,,,,,,METAR,10.0
PKMJ 090259Z 06010KT 15SM FEW015 SCT050 OVC300 30/25 A2977,PKMJ,2023-06-09T02:59:00Z,7.07,171.27,30.0,25.0,60,10,,15.0,29.769686,,,,,,,,,,,FEW,1500,SCT,5000,OVC,30000,,,VFR,,,,,,,,,,,,METAR,2.0
MTPP 090259Z AUTO 10013KT 9000 ////// 28/24 Q1014 A2997 NOSIG,MTPP,2023-06-09T02:59:00Z,18.57,-72.3,28.0,24.0,100,13,,5.59,29.940945,,,TRUE,,,TRUE,,,,,,,,,,,,,,,,,,,,,,,,,METAR,36.0
KPMH 090259Z AUTO 00000KT 10SM CLR 13/09 A2987 RMK AO2,KPMH,2023-06-09T02:59:00Z,38.83,-82.85,13.0,9.0,0,0,,10.0,29.870079,,,TRUE,TRUE,,,,,,,CLR,,,,,,,,VFR,,,,,,,,,,,,METAR,200.0
KP92 090259Z AUTO VRB04KT 26/20 A2983 RMK AO1 SLP100 T02560200 53020,KP92,2023-06-09T02:59:00Z,29.57,-91.53,25.6,20.0,0,4,,,29.828741,1010.0,,TRUE,TRUE,,,,,,,,,,,,,,,,2.0,,,,,,,,,,,METAR,1.0
KOXD 090259Z AUTO 00000KT 10SM BKN090 21/M03 A2987 RMK AO2,KOXD,2023-06-09T02:59:00Z,39.5,-84.78,21.0,-3.0,0,0,,10.0,29.870079,,,TRUE,TRUE,,,,,,,BKN,9000,,,,,,,VFR,,,,,,,,,,,,METAR,317.0
KNOZ 090259Z AUTO 15009KT 10SM CLR 30/00 A2985 RMK AO2 SLP057 T03000000 53005,KNOZ,2023-06-09T02:59:00Z,32.53,-114.5,30.0,0.0,150,9,,10.0,29.84941,1005.7,,TRUE,TRUE,,,,,,,CLR,,,,,,,,VFR,0.5,,,,,,,,,,,METAR,78.0
KNGU 090259Z 00000KT 5SM HZ SCT280 14/12 A2980 RMK AO2 SLP091 T01390122 51015 $,KNGU,2023-06-09T02:59:00Z,36.93,-76.27,13.9,12.2,0,0,,5.0,29.799213,1009.1,,,TRUE,TRUE,,,,,HZ,SCT,28000,,,,,,,MVFR,1.5,,,,,,,,,,,METAR,3.0
K04W 090259Z AUTO 00000KT 10SM CLR 16/09 A2995 RMK AO2,K04W,2023-06-09T02:59:00Z,46.02,-92.9,16.0,9.0,0,0,,10.0,29.949802,,,TRUE,TRUE,,,,,,,CLR,,,,,,,,VFR,,,,,,,,,,,,METAR,310.0
KROG 090258Z AUTO 13004KT 10SM CLR 23/19 A2986 RMK AO2 SLPNO T02330189 51012 TSNO,KROG,2023-06-09T02:58:00Z,36.37,-94.1,23.3,18.9,130,4,,10.0,29.861221,,,TRUE,TRUE,,,TRUE,,,,CLR,,,,,,,,VFR,1.2,,,,,,,,,,,METAR,407.0
KPRN 090258Z AUTO 00000KT 8SM CLR 22/21 A2979 RMK AO2 SLP033 T02170206 53017 $,KPRN,2023-06-09T02:58:00Z,31.85,-86.62,21.7,20.6,0,0,,8.0,29.790354,1003.3,,TRUE,TRUE,TRUE,,,,,,CLR,,,,,,,,VFR,1.7,,,,,,,,,,,METAR,137.0
KMRH 090258Z AUTO 04005KT 10SM CLR 18/16 A2978 RMK AO2 SLP085 T01830161 51023,KMRH,2023-06-09T02:58:00Z,34.73,-76.65,18.3,16.1,40,5,,10.0,29.778543,1008.5,,TRUE,TRUE,,,,,,,CLR,,,,,,,,VFR,2.3,,,,,,,,,,,SPECI,2.0
KMEI 090258Z 24004KT 10SM CLR 24/20 A2983 RMK AO2 SLP095 T02440200 53025,KMEI,2023-06-09T02:58:00Z,32.33,-88.75,24.4,20.0,240,4,,10.0,29.828741,1009.5,,,TRUE,,,,,,,CLR,,,,,,,,VFR,2.5,,,,,,,,,,,METAR,90.0
KEUF 090258Z AUTO 29003KT 10SM FEW070 22/21 A2979 RMK AO2 SLP083 T02220206 51019,KEUF,2023-06-09T02:58:00Z,31.95,-85.13,22.2,20.6,290,3,,10.0,29.790354,1008.3,,TRUE,TRUE,,,,,,,FEW,7000,,,,,,,VFR,1.9,,,,,,,,,,,METAR,87.0
KBCR 090258Z AUTO 21003KT 10SM CLR 25/22 A2980 RMK AO2 SLP048 T02500217 51021,KBCR,2023-06-09T02:58:00Z,30.85,-85.6,25.0,21.7,210,3,,10.0,29.799213,1004.8,,TRUE,TRUE,,,,,,,CLR,,,,,,,,VFR,2.1,,,,,,,,,,,METAR,26.0
K0J4 090258Z AUTO 20003KT 10SM CLR 24/19 A2981 RMK AO2 SLP089 T02440189 52020,K0J4,2023-06-09T02:58:00Z,31.05,-86.32,24.4,18.9,200,3,,10.0,29.811024,1008.9,,TRUE,TRUE,,,,,,,CLR,,,,,,,,VFR,2.0,,,,,,,,,,,METAR,96.0
KQOA 090257Z COR 12004KT 9000 FU VCTS BKN070CB 25/23 A2996 RMK AO2A DSNT LTG NW SLP103 T02520227 52021 LAST COR 0322,KQOA,2023-06-09T02:57:00Z,,,25.2,22.7,120,4,,5.59,29.958662,1010.3,TRUE,,TRUE,,,,,,FU VCTS,BKN,7000,,,,,,,VFR,2.1,,,,,,,,,,,METAR,
KNYL 090257Z 21006KT 7SM SCT200 30/07 A2983 RMK AO2 SLP098 T03000067 53005,KNYL,2023-06-09T02:57:00Z,32.65,-114.62,30.0,6.7,210,6,,7.0,29.828741,1009.8,,,TRUE,,,,,,,SCT,20000,,,,,,,VFR,0.5,,,,,,,,,,,METAR,58.0
KNJW 090257Z AUTO 21003KT 10SM CLR 22/18 A2986 RMK AO2 SLP024 T02170178 53012,KNJW,2023-06-09T02:57:00Z,32.78,-88.82,21.7,17.8,210,3,,10.0,29.861221,1002.4,,TRUE,TRUE,,,,,,,CLR,,,,,,,,VFR,1.2,,,,,,,,,,,METAR,165.0
KNJM 090257Z AUTO 02005KT 6SM HZ CLR 19/13 A2979 RMK AO2 SLP092 T01940133 51021,KNJM,2023-06-09T02:57:00Z,34.68,-77.02,19.4,13.3,20,5,,6.0,29.790354,1009.2,,TRUE,TRUE,,,,,,HZ,CLR,,,,,,,,VFR,2.1,,,,,,,,,,,METAR,5.0
KMNM 090257Z AUTO 00000KT 10SM CLR 14/04 A2994 RMK AO2 SLP156 6//// T01440044 51006 PNO $,KMNM,2023-06-09T02:57:00Z,45.12,-87.63,14.4,4.4,0,0,,10.0,29.940945,1015.6,,TRUE,TRUE,TRUE,,,,,,CLR,,,,,,,,VFR,0.6,,,,,,,,,,,METAR,188.0
KFLG 090257Z AUTO 00000KT 10SM CLR 13/M08 A3020 RMK AO2 SLP143 T01331083 53005,KFLG,2023-06-09T02:57:00Z,35.13,-111.67,13.3,-8.3,0,0,,10.0,30.200787,1014.3,,TRUE,TRUE,,,,,,,CLR,,,,,,,,VFR,0.5,,,,,,,,,,,METAR,2134.0
KAQV 090257Z AUTO 00000KT 10SM FEW065 24/19 A2981 RMK AO2 SLP092 T02440189 51018,KAQV,2023-06-09T02:57:00Z,31.4,-93.3,24.4,18.9,0,0,,10.0,29.811024,1009.2,,TRUE,TRUE,,,,,,,FEW,6500,,,,,,,VFR,1.8,,,,,,,,,,,METAR,123.0
TJSJ 090256Z 09009KT 10SM FEW030 28/25 A3008 RMK AO2 SLP185 T02830250 $,TJSJ,2023-06-09T02:56:00Z,18.43,-66.02,28.3,25.0,90,9,,10.0,30.079725,1018.5,,,TRUE,TRUE,,,,,,FEW,3000,,,,,,,VFR,,,,,,,,,,,,METAR,3.0
ROTM 090256Z 17011KT 9999 SCT025 BKN080 31/24 A2975 RMK SLP058 T03060244 58008,ROTM,2023-06-09T02:56:00Z,26.27,127.75,30.6,24.4,170,11,,6.21,29.749016,1005.8,,,,,,,,,,SCT,2500,BKN,8000,,,,,VFR,-0.8,,,,,,,,,,,METAR,80.0
PPIZ 090256Z AUTO 01023G29KT 10SM CLR 05/03 A2989 RMK AO2 PK WND 01029/0249 SLP125 T00500028 56004,PPIZ,2023-06-09T02:56:00Z,69.73,-163.0,5.0,2.8,10,23,29,10.0,29.890747,1012.5,,TRUE,TRUE,,,,,,,CLR,,,,,,,,VFR,-0.4,,,,,,,,,,,METAR,5.0
PMDY 090256Z AUTO 10SM BKN090 OVC100 26/19 A3006 RMK AO2 SLP179 T02560189 56014 $,PMDY,2023-06-09T02:56:00Z,28.22,-177.37,25.6,18.9,,,,10.0,30.059055,1017.9,,TRUE,TRUE,TRUE,,,,,,BKN,9000,OVC,10000,,,,,VFR,-1.4,,,,,,,,,,,SPECI,6.0
PHNY 090256Z AUTO 21007KT 10SM -RA BKN015 OVC029 23/20 A3009 RMK AO2 RAB43 SLP171 P0000 60000 T02330200 55003,PHNY,2023-06-09T02:56:00Z,20.77,-156.95,23.3,20.0,210,7,,10.0,30.088583,1017.1,,TRUE,TRUE,,,,,,-RA,BKN,1500,OVC,2900,,,,,MVFR,-0.3,,,,,0.005,0.005,,,,,METAR,395.0
PFYU 090256Z VRB04KT 6SM HZ SCT100 28/08 A2954 RMK AO2 SLP011 T02780083 56015,PFYU,2023-06-09T02:56:00Z,66.57,-145.23,27.8,8.3,0,4,,6.0,29.53937,1001.1,,,TRUE,,,,,,HZ,SCT,10000,,,,,,,VFR,-1.5,,,,,,,,,,,METAR,130.0
PFSH 090256Z AUTO 14009KT 9SM -RA OVC065 13/12 A2952 RMK AO2 SLP996 P0001 6//// T01280122 50001,PFSH,2023-06-09T02:56:00Z,64.37,-161.22,12.8,12.2,140,9,,9.0,29.518702,999.6,,TRUE,TRUE,,,,,,-RA,OVC,6500,,,,,,,VFR,0.1,,,,,0.01,,,,,,METAR,6.0
PFNO 090256Z AUTO 02009KT 10SM FEW060 BKN075 19/09 A2958 RMK AO2 RAB0158E12B40E54 SLP097 P0000 60000 T01890089 58009 $,PFNO,2023-06-09T02:56:00Z,66.82,-161.02,18.9,8.9,20,9,,10.0,29.58071,1009.7,,TRUE,TRUE,TRUE,,,,,,FEW,6000,BKN,7500,,,,,VFR,-0.9,,,,,0.005,0.005,,,,,METAR,14.0
PFKW 090256Z AUTO 13010KT 10SM -RA OVC075 14/09 A2949 RMK AO2 RAB37 SLP984 P0000 60000 T01390094 53003,PFKW,2023-06-09T02:56:00Z,60.8,-161.43,13.9,9.4,130,10,,10.0,29.489174,998.4,,TRUE,TRUE,,,,,,-RA,OVC,7500,,,,,,,VFR,0.3,,,,,0.005,0.005,,,,,METAR,4.0
PFEL 090256Z AUTO 06007KT 10SM BKN048 15/09 A2954 RMK AO2 RAE00 SLPNO P0000 60000 T01500094 55000,PFEL,2023-06-09T02:56:00Z,64.62,-162.27,15.0,9.4,60,7,,10.0,29.53937,,,TRUE,TRUE,,,,,,,BKN,4800,,,,,,,VFR,0.0,,,,,0.005,0.005,,,,,METAR,50.0
PFCL 090256Z AUTO 23006KT 5SM -RA BR FEW016 BKN027 OVC034 12/12 A2947 RMK AO2 RAE0157B27 SLPNO P0000 60000 T01170117 58002 TSNO,PFCL,2023-06-09T02:56:00Z,58.83,-158.53,11.7,11.7,230,6,,5.0,29.471457,,,TRUE,TRUE,,,TRUE,,,-RA BR,FEW,1600,BKN,2700,OVC,3400,,,MVFR,-0.2,,,,,0.005,0.005,,,,,METAR,23.0
PAZK 090256Z AUTO 12008G14KT 10SM CLR 12/M01 A2968 RMK AO2 SLP070 T01221006 56003,PAZK,2023-06-09T02:56:00Z,61.93,-147.17,12.2,-0.6,120,8,14,10.0,29.681103,1007.0,,TRUE,TRUE,,,,,,,CLR,,,,,,,,VFR,-0.3,,,,,,,,,,,METAR,1002.0
PAWS 090256Z AUTO 01003KT 10SM CLR 16/06 A2971 RMK AO2 SLP062 T01610061 51011,PAWS,2023-06-09T02:56:00Z,61.57,-149.53,16.1,6.1,10,3,,10.0,29.71063,1006.2,,TRUE,TRUE,,,,,,,CLR,,,,,,,,VFR,1.1,,,,,,,,,,,METAR,102.0
PAWM 090256Z AUTO 03008KT 9SM SCT120 20/08 A2952 RMK AO2 SLP998 T02000078 58018,PAWM,2023-06-09T02:56:00Z,64.68,-163.42,20.0,7.8,30,8,,9.0,29.518702,999.8,,TRUE,TRUE,,,,,,,SCT,12000,,,,,,,VFR,-1.8,,,,,,,,,,,METAR,80.0
PAVD 090256Z 00000KT 8SM -RA SCT015 BKN050 BKN070 11/09 RMK AO2 SLPNO A2992 P0000 60000 T01110089 $,PAVD,2023-06-09T02:56:00Z,61.13,-146.25,11.1,8.9,0,0,,8.0,,,,,TRUE,TRUE,,,,,-RA,SCT,1500,BKN,5000,BKN,7000,,,VFR,,,,,,0.005,0.005,,,,,METAR,21.0
PAVC 090256Z AUTO 14009KT 10SM BKN004 BKN013 OVC030 07/07 A2945 RMK AO2 SLP972 6//// T00670067 53002 PNO $,PAVC,2023-06-09T02:56:00Z,55.12,-162.27,6.7,6.7,140,9,,10.0,29.450787,997.2,,TRUE,TRUE,TRUE,,,,,,BKN,400,BKN,1300,OVC,3000,,,LIFR,0.2,,,,,,,,,,,METAR,48.0
PAUN 090256Z AUTO 06008KT 10SM SCT050 SCT070 13/12 A2955 RMK AO2 RAE47 SLP008 6//// T01330117 53004 PNO $,PAUN,2023-06-09T02:56:00Z,63.88,-160.8,13.3,11.7,60,8,,10.0,29.551182,1000.8,,TRUE,TRUE,TRUE,,,,,,SCT,5000,SCT,7000,,,,,VFR,0.4,,,,,,,,,,,METAR,4.0
PATQ 090256Z AUTO 06020KT 7SM CLR 06/00 A2998 RMK AO2 SLP156 T00560000 56007 TSNO,PATQ,2023-06-09T02:56:00Z,70.47,-157.43,5.6,0.0,60,20,,7.0,29.97933,1015.6,,TRUE,TRUE,,,TRUE,,,,CLR,,,,,,,,VFR,-0.7,,,,,,,,,,,METAR,28.0
PASX 090256Z AUTO 09014G22KT 10SM FEW085 16/04 A2968 RMK AO2 SLP056 T01560044 53014,PASX,2023-06-09T02:56:00Z,60.48,-151.05,15.6,4.4,90,14,22,10.0,29.681103,1005.6,,TRUE,TRUE,,,,,,,FEW,8500,,,,,,,VFR,1.4,,,,,,,,,,,METAR,28.0
PASM 090256Z AUTO 14008KT 10SM CLR 20/06 A2950 RMK AO2 SLP996 T02000056 56009,PASM,2023-06-09T02:56:00Z,62.07,-163.3,20.0,5.6,140,8,,10.0,29.500984,999.6,,TRUE,TRUE,,,,,,,CLR,,,,,,,,VFR,-0.9,,,,,,,,,,,METAR,108.0
PASL 090256Z AUTO 15004KT 10SM OVC080 19/06 A2955 RMK AO2 SLP997 T01940061 56004,PASL,2023-06-09T02:56:00Z,61.68,-157.15,19.4,6.1,150,4,,10.0,29.551182,999.7,,TRUE,TRUE,,,,,,,OVC,8000,,,,,,,VFR,-0.4,,,,,,,,,,,METAR,64.0
PASK 090256Z AUTO 02007KT 10SM BKN060 OVC100 17/08 A2956 RMK AO2 SLP008 60000 T01670083 56022,PASK,2023-06-09T02:56:00Z,66.6,-160.0,16.7,8.3,20,7,,10.0,29.56004,1000.8,,TRUE,TRUE,,,,,,,BKN,6000,OVC,10000,,,,,VFR,-2.2,,,,,,0.005,,,,,METAR,3.0
PARY 090256Z AUTO 16007KT 10SM CLR 20/04 A2952 RMK AO2 SLP003 6//// T02000044 55003 PNO $,PARY,2023-06-09T02:56:00Z,64.73,-155.47,20.0,4.4,160,7,,10.0,29.518702,1000.3,,TRUE,TRUE,TRUE,,,,,,CLR,,,,,,,,VFR,-0.3,,,,,,,,,,,METAR,185.0
PARS 090256Z AUTO 15003KT 10SM FEW120 20/07 A2948 RMK AO2 SLP985 T02000067 56009 $,PARS,2023-06-09T02:56:00Z,61.77,-161.32,20.0,6.7,150,3,,10.0,29.480314,998.5,,TRUE,TRUE,TRUE,,,,,,FEW,12000,,,,,,,VFR,-0.9,,,,,,,,,,,METAR,15.0
PARC 090256Z AUTO 10SM CLR 20/04 A2968 RMK AO2 SLP068 T02000044 56006 $,PARC,2023-06-09T02:56:00Z,68.12,-145.58,20.0,4.4,,,,10.0,29.681103,1006.8,,TRUE,TRUE,TRUE,,,,,,CLR,,,,,,,,VFR,-0.6,,,,,,,,,,,METAR,626.0
PAPN 090256Z AUTO 14007KT 9SM BKN050 OVC070 11/08 A2946 RMK AO2 RAE41 SLP977 P0000 60000 T01110083 53006,PAPN,2023-06-09T02:56:00Z,57.58,-157.57,11.1,8.3,140,7,,9.0,29.459646,997.7,,TRUE,TRUE,,,,,,,BKN,5000,OVC,7000,,,,,VFR,0.6,,,,,0.005,0.005,,,,,METAR,19.0
PAPH 090256Z AUTO 15015KT 10SM BKN065 13/07 A2944 RMK AO2 SLP970 6//// T01280072 56003 PNO $,PAPH,2023-06-09T02:56:00Z,56.95,-158.62,12.8,7.2,150,15,,10.0,29.438976,997.0,,TRUE,TRUE,TRUE,,,,,,BKN,6500,,,,,,,VFR,-0.3,,,,,,,,,,,METAR,29.0
PAPG 090256Z 06003KT 10SM FEW120 17/09 A2997 RMK AO2 SLP151 T01670094 51010,PAPG,2023-06-09T02:56:00Z,56.82,-132.93,16.7,9.4,60,3,,10.0,29.970472,1015.1,,,TRUE,,,,,,,FEW,12000,,,,,,,VFR,1.0,,,,,,,,,,,METAR,24.0
PAOO 090256Z AUTO OVC050 16/07 A2948 RMK AO2 SLP989 T01610067 56006 PWINO $,PAOO,2023-06-09T02:56:00Z,60.53,-165.08,16.1,6.7,,,,,29.480314,998.9,,TRUE,TRUE,TRUE,,,,TRUE,,OVC,5000,,,,,,,,-0.6,,,,,,,,,,,METAR,15.0
PAOH 090256Z AUTO 00000KT 10SM OVC110 15/09 A2994 RMK AO2 SLP140 6//// T01500089 53014 PNO $,PAOH,2023-06-09T02:56:00Z,58.1,-135.45,15.0,8.9,0,0,,10.0,29.940945,1014.0,,TRUE,TRUE,TRUE,,,,,,OVC,11000,,,,,,,VFR,1.4,,,,,,,,,,,METAR,0.0
PANW 090256Z AUTO 09019G27KT 10SM OVC055 12/07 A2952 RMK AO2 PK WND 09031/0213 SLP000 60000 T01170067 57004,PANW,2023-06-09T02:56:00Z,59.45,-157.32,11.7,6.7,90,19,27,10.0,29.518702,1000.0,,TRUE,TRUE,,,,,,,OVC,5500,,,,,,,VFR,-0.4,,,,,,0.005,,,,,METAR,100.0
PANV 090256Z AUTO 15007KT 10SM 20/03 A2949 RMK AO2 SLP028 T02000033 58006 TSNO $,PANV,2023-06-09T02:56:00Z,62.65,-160.18,20.0,3.3,150,7,,10.0,29.489174,1002.8,,TRUE,TRUE,TRUE,,TRUE,,,,,,,,,,,,,-0.6,,,,,,,,,,,METAR,91.0
PANI 090256Z AUTO 15006KT 9SM OVC075 19/05 A2953 RMK AO2 SLP993 T01940050 57004 $,PANI,2023-06-09T02:56:00Z,61.58,-159.53,19.4,5.0,150,6,,9.0,29.530512,999.3,,TRUE,TRUE,TRUE,,,,,,OVC,7500,,,,,,,VFR,-0.4,,,,,,,,,,,METAR,21.0
PAMY 090256Z AUTO 36008KT 10SM CLR 10/06 A2949 RMK AO2 SLP984 6//// T01000061 58005 PNO $,PAMY,2023-06-09T02:56:00Z,60.37,-166.27,10.0,6.1,360,8,,10.0,29.489174,998.4,,TRUE,TRUE,TRUE,,,,,,CLR,,,,,,,,VFR,-0.5,,,,,,,,,,,METAR,14.0
PAMO 090256Z AUTO 12009KT 10SM FEW060 19/06 A2950 RMK AO2 SLP991 T01890056 58008,PAMO,2023-06-09T02:56:00Z,62.1,-163.68,18.9,5.6,120,9,,10.0,29.500984,999.1,,TRUE,TRUE,,,,,,,FEW,6000,,,,,,,VFR,-0.8,,,,,,,,,,,METAR,93.0
PAMM 090256Z AUTO 15006KT 10SM OVC120 16/03 A3001 RMK AO2 SLP254 T01610028 53003 $,PAMM,2023-06-09T02:56:00Z,55.13,-131.58,16.1,2.8,150,6,,10.0,30.008858,1025.4,,TRUE,TRUE,TRUE,,,,,,OVC,12000,,,,,,,VFR,0.3,,,,,,,,,,,METAR,0.0
PAMK 090256Z AUTO 09007KT 10SM OVC095 12/08 A2954 RMK AO2 SLP005 60000 T01220083 56004,PAMK,2023-06-09T02:56:00Z,63.48,-162.12,12.2,8.3,90,7,,10.0,29.53937,1000.5,,TRUE,TRUE,,,,,,,OVC,9500,,,,,,,VFR,-0.4,,,,,,0.005,,,,,METAR,31.0
PAMH 090256Z AUTO VRB03KT 10SM CLR 22/06 A2955 RMK AO2 SLP002 T02170056 56007,PAMH,2023-06-09T02:56:00Z,63.9,-152.28,21.7,5.6,0,3,,10.0,29.551182,1000.2,,TRUE,TRUE,,,,,,,CLR,,,,,,,,VFR,-0.7,,,,,,,,,,,METAR,200.0
PALG 090256Z AUTO VRB05KT 10SM OVC080 19/06 A2948 RMK AO2 SLP984 T01940061 56006,PALG,2023-06-09T02:56:00Z,61.53,-160.33,19.4,6.1,0,5,,10.0,29.480314,998.4,,TRUE,TRUE,,,,,,,OVC,8000,,,,,,,VFR,-0.6,,,,,,,,,,,METAR,13.0
PAKP 090256Z AUTO 03012KT 9SM -RA OVC003 04/04 A2978 RMK AO2 RAB08 SLP119 P0001 60001 T00440039 51008,PAKP,2023-06-09T02:56:00Z,68.13,-151.73,4.4,3.9,30,12,,9.0,29.778543,1011.9,,TRUE,TRUE,,,,,,-RA,OVC,300,,,,,,,LIFR,0.8,,,,,0.01,0.01,,,,,METAR,649.0
PAJZ 090256Z AUTO 10012KT 6SM -RA BR OVC060 11/09 A2959 RMK AO2 PK WND 12029/0221 RAB33 SLP029 P0000 60000 T01110089 53003 $,PAJZ,2023-06-09T02:56:00Z,59.73,-157.27,11.1,8.9,100,12,,6.0,29.589567,1002.9,,TRUE,TRUE,TRUE,,,,,-RA BR,OVC,6000,,,,,,,VFR,0.3,,,,,0.005,0.005,,,,,METAR,80.0
PAIK 090256Z AUTO 34011KT 10SM FEW080 18/09 A2960 RMK AO2 SLP025 60000 T01830089 58012,PAIK,2023-06-09T02:56:00Z,66.98,-160.43,18.3,8.9,340,11,,10.0,29.601377,1002.5,,TRUE,TRUE,,,,,,,FEW,8000,,,,,,,VFR,-1.2,,,,,,0.005,,,,,METAR,49.0
PAIG 090256Z AUTO 09018G30KT 10SM FEW035 BKN050 12/06 A2954 RMK AO2 PK WND 11030/0251 SLP009 6//// T01220061 52005 PNO $,PAIG,2023-06-09T02:56:00Z,59.32,-155.9,12.2,6.1,90,18,30,10.0,29.53937,1000.9,,TRUE,TRUE,TRUE,,,,,,FEW,3500,BKN,5000,,,,,VFR,0.5,,,,,,,,,,,METAR,24.0
PAHY 090256Z AUTO 18003KT 10SM FEW120 16/09 A2997 RMK AO2 SLP146 T01560094 51004 $,PAHY,2023-06-09T02:56:00Z,55.2,-132.83,15.6,9.4,180,3,,10.0,29.970472,1014.6,,TRUE,TRUE,TRUE,,,,,,FEW,12000,,,,,,,VFR,0.4,,,,,,,,,,,METAR,0.0
PAHL 090256Z AUTO 10008G16KT 10SM SCT080 BKN120 22/08 A2953 RMK AO2 SLP000 T02170083 55000,PAHL,2023-06-09T02:56:00Z,65.7,-156.35,21.7,8.3,100,8,16,10.0,29.530512,1000.0,,TRUE,TRUE,,,,,,,SCT,8000,BKN,12000,,,,,VFR,0.0,,,,,,,,,,,METAR,49.0
PAHC 090256Z AUTO VRB03KT 10SM BKN085 21/06 A2949 RMK AO2 SLP990 T02110061 56004,PAHC,2023-06-09T02:56:00Z,62.18,-159.78,21.1,6.1,0,3,,10.0,29.489174,999.0,,TRUE,TRUE,,,,,,,BKN,8500,,,,,,,VFR,-0.4,,,,,,,,,,,METAR,21.0
PAGS 090256Z AUTO 20005KT 10SM SCT070 BKN085 OVC120 12/09 A2997 RMK AO2 RAE05 SLP150 P0000 60000 T01220089 51015,PAGS,2023-06-09T02:56:00Z,58.42,-135.7,12.2,8.9,200,5,,10.0,29.970472,1015.0,,TRUE,TRUE,,,,,,,SCT,7000,BKN,8500,OVC,12000,,,VFR,1.5,,,,,0.005,0.005,,,,,METAR,9.0
PAGN 090256Z AUTO 18003KT 10SM OVC100 14/06 A2998 RMK AO2 SLP140 T01390061 51007,PAGN,2023-06-09T02:56:00Z,57.5,-134.58,13.9,6.1,180,3,,10.0,29.97933,1014.0,,TRUE,TRUE,,,,,,,OVC,10000,,,,,,,VFR,0.7,,,,,,,,,,,METAR,2.0
PAGH 090256Z AUTO 09012KT 10SM FEW110 19/10 A2956 RMK AO2 SLP015 60000 T01940100 55011,PAGH,2023-06-09T02:56:00Z,66.88,-157.17,19.4,10.0,90,12,,10.0,29.56004,1001.5,,TRUE,TRUE,,,,,,,FEW,11000,,,,,,,VFR,-1.1,,,,,,0.005,,,,,METAR,56.0
PAFM 090256Z AUTO 01015G22KT 10SM CLR 17/07 A2960 RMK AO2 SLP028 T01720067 56015,PAFM,2023-06-09T02:56:00Z,67.1,-157.85,17.2,6.7,10,15,22,10.0,29.601377,1002.8,,TRUE,TRUE,,,,,,,CLR,,,,,,,,VFR,-1.5,,,,,,,,,,,METAR,79.0
PADU 090256Z 12011KT 10SM FEW036 09/03 A2936 RMK AO2 SLP947 T00890033 55000 $,PADU,2023-06-09T02:56:00Z,53.9,-166.53,8.9,3.3,120,11,,10.0,29.359253,994.7,,,TRUE,TRUE,,,,,,FEW,3600,,,,,,,VFR,0.0,,,,,,,,,,,METAR,4.0
PADM 090256Z AUTO 01006KT 10SM OVC070 19/06 A2952 RMK AO2 SLP001 T01940056 56006,PADM,2023-06-09T02:56:00Z,61.87,-162.03,19.4,5.6,10,6,,10.0,29.518702,1000.1,,TRUE,TRUE,,,,,,,OVC,7000,,,,,,,VFR,-0.6,,,,,,,,,,,METAR,17.0
PADL 090256Z 05005KT 10SM -RA OVC029 12/11 A2948 RMK AO2 RAB05 SLP983 P0003 60003 T01170111 56005,PADL,2023-06-09T02:56:00Z,59.05,-158.5,11.7,11.1,50,5,,10.0,29.480314,998.3,,,TRUE,,,,,,-RA,OVC,2900,,,,,,,MVFR,-0.5,,,,,0.03,0.03,,,,,METAR,20.0
PABV 090256Z AUTO 23004KT 10SM OVC100 15/09 A2970 RMK AO2 SLP062 T01500094 53009,PABV,2023-06-09T02:56:00Z,61.42,-149.52,15.0,9.4,230,4,,10.0,29.698818,1006.2,,TRUE,TRUE,,,,,,,OVC,10000,,,,,,,VFR,0.9,,,,,,,,,,,METAR,21.0
PABL 090256Z AUTO 33007KT 10SM FEW036 10/08 A2958 RMK AO2 RAE51 SLP019 P0000 60000 T01000083 56005,PABL,2023-06-09T02:56:00Z,65.98,-161.15,10.0,8.3,330,7,,10.0,29.58071,1001.9,,TRUE,TRUE,,,,,,,FEW,3600,,,,,,,VFR,-0.5,,,,,0.005,0.005,,,,,METAR,7.0
KYKN 090256Z AUTO 11007KT 10SM CLR 25/18 A2985 RMK AO2 SLP111 T02500183 53017,KYKN,2023-06-09T02:56:00Z,42.92,-97.37,25.0,18.3,110,7,,10.0,29.84941,1011.1,,TRUE,TRUE,,,,,,,CLR,,,,,,,,VFR,1.7,,,,,,,,,,,METAR,388.0
KY50 090256Z AUTO 00000KT 10SM CLR 14/06 A2992 RMK AO2 SLP130 6//// T01390056 53006 $,KY50,2023-06-09T02:56:00Z,44.03,-89.3,13.9,5.6,0,0,,10.0,29.920275,1013.0,,TRUE,TRUE,TRUE,,,,,,CLR,,,,,,,,VFR,0.6,,,,,,,,,,,METAR,261.0
KWWD 090256Z AUTO 00000KT 8SM OVC042 13/12 A2977 RMK AO2 SLP082 T01280117 51016 $,KWWD,2023-06-09T02:56:00Z,39.02,-74.92,12.8,11.7,0,0,,8.0,29.769686,1008.2,,TRUE,TRUE,TRUE,,,,,,OVC,4200,,,,,,,VFR,1.6,,,,,,,,,,,METAR,4.0
KWVL 090256Z AUTO 00000KT 10SM OVC043 11/11 A2973 RMK AO2 RAE16 SLP095 P0001 60048 T01110106 51010,KWVL,2023-06-09T02:56:00Z,44.52,-69.67,11.1,10.6,0,0,,10.0,29.731298,1009.5,,TRUE,TRUE,,,,,,,OVC,4300,,,,,,,VFR,1.0,,,,,0.01,0.48,,,,,METAR,87.0
KWMC 090256Z AUTO 14004KT 10SM BKN080 18/08 A3003 RMK AO2 RAB01E20 SLP134 P0000 60000 T01780083 53014,KWMC,2023-06-09T02:56:00Z,40.9,-117.8,17.8,8.3,140,4,,10.0,30.029528,1013.4,,TRUE,TRUE,,,,,,,BKN,8000,,,,,,,VFR,1.4,,,,,0.005,0.005,,,,,METAR,1311.0
KWJF 090256Z 24015KT 10SM CLR 19/11 A2999 RMK AO2 SLP144 T01940111 53012,KWJF,2023-06-09T02:56:00Z,34.73,-118.22,19.4,11.1,240,15,,10.0,29.991142,1014.4,,,TRUE,,,,,,,CLR,,,,,,,,VFR,1.2,,,,,,,,,,,METAR,712.0
KVPZ 090256Z AUTO 28004KT 10SM CLR 13/ A2992 RMK AO2 SLP130 T0128 53004 PWINO $,KVPZ,2023-06-09T02:56:00Z,41.45,-87.0,12.8,,280,4,,10.0,29.920275,1013.0,,TRUE,TRUE,TRUE,,,,TRUE,,CLR,,,,,,,,VFR,0.4,,,,,,,,,,,METAR,235.0
KVIS 090256Z AUTO 31005KT 10SM CLR 26/13 A2994 RMK AO2 SLP143 T02610133 55000,KVIS,2023-06-09T02:56:00Z,36.32,-119.4,26.1,13.3,310,5,,10.0,29.940945,1014.3,,TRUE,TRUE,,,,,,,CLR,,,,,,,,VFR,0.0,,,,,,,,,,,METAR,92.0
KVBT 090256Z AUTO 14004KT 10SM CLR 24/19 A2986 RMK AO2 SLP100 T02390189 53012,KVBT,2023-06-09T02:56:00Z,36.35,-94.22,23.9,18.9,140,4,,10.0,29.861221,1010.0,,TRUE,TRUE,,,,,,,CLR,,,,,,,,VFR,1.2,,,,,,,,,,,METAR,390.0
KUKI 090256Z AUTO 35008KT 10SM CLR 17/11 A3001 RMK AO2 SLP156 T01720111 51021,KUKI,2023-06-09T02:56:00Z,39.12,-123.2,17.2,11.1,350,8,,10.0,30.008858,1015.6,,TRUE,TRUE,,,,,,,CLR,,,,,,,,VFR,2.1,,,,,,,,,,,METAR,183.0
KUDG 090256Z AUTO 02006KT 10SM BKN110 19/12 A2981 RMK AO2 SLP093 T01940117 51016,KUDG,2023-06-09T02:56:00Z,34.45,-79.88,19.4,11.7,20,6,,10.0,29.811024,1009.3,,TRUE,TRUE,,,,,,,BKN,11000,,,,,,,VFR,1.6,,,,,,,,,,,METAR,57.0
KUCP 090256Z AUTO 00000KT 10SM CLR 13/08 A2984 RMK AO2 SLP118 T01330078 51007,KUCP,2023-06-09T02:56:00Z,41.03,-80.42,13.3,7.8,0,0,,10.0,29.840551,1011.8,,TRUE,TRUE,,,,,,,CLR,,,,,,,,VFR,0.7,,,,,,,,,,,METAR,313.0
KTVF 090256Z AUTO 08003KT 10SM CLR 20/19 A2991 RMK AO2 SLP128 T02000189 53004,KTVF,2023-06-09T02:56:00Z,48.07,-96.17,20.0,18.9,80,3,,10.0,29.911417,1012.8,,TRUE,TRUE,,,,,,,CLR,,,,,,,,VFR,0.4,,,,,,,,,,,METAR,339.0
KSXT 090256Z AUTO VRB03KT 10SM BKN036 BKN046 15/12 A3004 RMK AO2 SLP144 60005 T01500117 53009 $,KSXT,2023-06-09T02:56:00Z,42.6,-123.37,15.0,11.7,0,3,,10.0,30.041338,1014.4,,TRUE,TRUE,TRUE,,,,,,BKN,3600,BKN,4600,,,,,VFR,0.9,,,,,,0.05,,,,,METAR,1151.0
KSUE 090256Z AUTO 00000KT 10SM CLR 13/04 A2994 RMK AO2 SLP139 T01330039 51006,KSUE,2023-06-09T02:56:00Z,44.85,-87.42,13.3,3.9,0,0,,10.0,29.940945,1013.9,,TRUE,TRUE,,,,,,,CLR,,,,,,,,VFR,0.6,,,,,,,,,,,METAR,215.0
KSRC 090256Z AUTO 00000KT 9SM CLR 20/20 A2985 RMK AO2 SLP105 60001 T02000200 51023,KSRC,2023-06-09T02:56:00Z,35.22,-91.73,20.0,20.0,0,0,,9.0,29.84941,1010.5,,TRUE,TRUE,,,,,,,CLR,,,,,,,,VFR,2.3,,,,,,0.01,,,,,METAR,80.0
KSQI 090256Z AUTO 10006KT 10SM CLR 17/06 A2993 RMK AO2 SLP998 T01670056 53014,KSQI,2023-06-09T02:56:00Z,41.75,-89.67,16.7,5.6,100,6,,10.0,29.929134,999.8,,TRUE,TRUE,,,,,,,CLR,,,,,,,,VFR,1.4,,,,,,,,,,,METAR,196.0
KSPD 090256Z AUTO 15007KT 19/13 A2998 RMK AO1 SLP095 T01890128 51013,KSPD,2023-06-09T02:56:00Z,37.28,-102.62,18.9,12.8,150,7,,,29.97933,1009.5,,TRUE,TRUE,,,,,,,,,,,,,,,,1.3,,,,,,,,,,,METAR,1340.0
KSOP 090256Z AUTO 00000KT 10SM CLR 14/11 A2982 RMK AO2 SLP099 T01390106 51012,KSOP,2023-06-09T02:56:00Z,35.23,-79.4,13.9,10.6,0,0,,10.0,29.819881,1009.9,,TRUE,TRUE,,,,,,,CLR,,,,,,,,VFR,1.2,,,,,,,,,,,METAR,135.0
KSMP 090256Z AUTO VRB05KT 10SM OVC075 14/09 A3001 RMK AO2 SLP148 T01390094 53006,KSMP,2023-06-09T02:56:00Z,47.28,-121.33,13.9,9.4,0,5,,10.0,30.008858,1014.8,,TRUE,TRUE,,,,,,,OVC,7500,,,,,,,VFR,0.6,,,,,,,,,,,METAR,1206.0
KSMN 090256Z AUTO 11003KT 10SM BKN100 17/13 A2998 RMK AO2 SLP845 T01720128 56005,KSMN,2023-06-09T02:56:00Z,45.12,-113.87,17.2,12.8,110,3,,10.0,29.97933,984.5,,TRUE,TRUE,,,,,,,BKN,10000,,,,,,,VFR,-0.5,,,,,,,,,,,METAR,1228.0
KSLG 090256Z AUTO 00000KT 10SM CLR 24/19 A2984 RMK AO2 SLP091 T02390194 51014,KSLG,2023-06-09T02:56:00Z,36.2,-94.48,23.9,19.4,0,0,,10.0,29.840551,1009.1,,TRUE,TRUE,,,,,,,CLR,,,,,,,,VFR,1.4,,,,,,,,,,,METAR,361.0
KSLE 090256Z 27003KT 10SM CLR 21/11 A2995 RMK AO2 SLP142 T02060106 53001,KSLE,2023-06-09T02:56:00Z,44.9,-123.0,20.6,10.6,270,3,,10.0,29.949802,1014.2,,,TRUE,,,,,,,CLR,,,,,,,,VFR,0.1,,,,,,,,,,,METAR,63.0
KSKX 090256Z AUTO 29005KT 10SM CLR 17/M04 A3016 RMK AO2 SLP152 T01721044 53009,KSKX,2023-06-09T02:56:00Z,36.45,-105.67,17.2,-4.4,290,5,,10.0,30.159449,1015.2,,TRUE,TRUE,,,,,,,CLR,,,,,,,,VFR,0.9,,,,,,,,,,,METAR,2163.0
KSHV 090256Z 26008KT 10SM FEW065 27/20 A2982 RMK SLPNO,KSHV,2023-06-09T02:56:00Z,32.45,-93.83,27.0,20.0,260,8,,10.0,29.819881,,,,,,,,,,,FEW,6500,,,,,,,VFR,,,,,,,,,,,,METAR,70.0
KSGU 090256Z AUTO 26008KT 10SM CLR 28/00 A2990 RMK AO2 SLP093 T02780000 53008,KSGU,2023-06-09T02:56:00Z,37.03,-113.52,27.8,0.0,260,8,,10.0,29.899607,1009.3,,TRUE,TRUE,,,,,,,CLR,,,,,,,,VFR,0.8,,,,,,,,,,,METAR,877.0
KSGT 090256Z AUTO 00000KT 10SM CLR 24/19 A2984 RMK AO2 SLP104 T02390194 53018,KSGT,2023-06-09T02:56:00Z,34.6,-91.57,23.9,19.4,0,0,,10.0,29.840551,1010.4,,TRUE,TRUE,,,,,,,CLR,,,,,,,,VFR,1.8,,,,,,,,,,,METAR,67.0
KSGJ 090256Z AUTO 24008KT 10SM 27/20 A2979 RMK AO2 SLP087 T02670200 53022 $,KSGJ,2023-06-09T02:56:00Z,29.97,-81.33,26.7,20.0,240,8,,10.0,29.790354,1008.7,,TRUE,TRUE,TRUE,,,,,,,,,,,,,,,2.2,,,,,,,,,,,METAR,2.0
KSGH 090256Z AUTO 23003KT 10SM OVC090 17/08 A2986 RMK AO2 SLP109 T01670078 52011,KSGH,2023-06-09T02:56:00Z,39.83,-83.83,16.7,7.8,230,3,,10.0,29.861221,1010.9,,TRUE,TRUE,,,,,,,OVC,9000,,,,,,,VFR,1.1,,,,,,,,,,,METAR,318.0
KSFZ 090256Z AUTO 00000KT 8SM CLR 09/09 A2973 RMK AO2 SLP069 T00940089 50007,KSFZ,2023-06-09T02:56:00Z,41.92,-71.5,9.4,8.9,0,0,,8.0,29.731298,1006.9,,TRUE,TRUE,,,,,,,CLR,,,,,,,,VFR,0.7,,,,,,,,,,,METAR,129.0
KSFM 090256Z AUTO 00000KT 7SM OVC070 09/09 A2974 RMK AO2 RAE02 SLP072 P0000 60002 T00940094 51006,KSFM,2023-06-09T02:56:00Z,43.38,-70.72,9.4,9.4,0,0,,7.0,29.740158,1007.2,,TRUE,TRUE,,,,,,,OVC,7000,,,,,,,VFR,0.6,,,,,0.005,0.02,,,,,METAR,70.0
KSDY 090256Z AUTO 20005KT 10SM TSRA FEW050 BKN060 BKN120 22/18 A2990 RMK AO2 LTG DSNT ALQDS RAB33 SLP117 6//// T02220178 53016 PNO $,KSDY,2023-06-09T02:56:00Z,47.7,-104.2,22.2,17.8,200,5,,10.0,29.899607,1011.7,,TRUE,TRUE,TRUE,,,,,TSRA,FEW,5000,BKN,6000,BKN,12000,,,VFR,1.6,,,,,,,,,,,METAR,600.0
KSDF 090256Z 00000KT 10SM CLR 21/08 A2985 RMK AO2 SLP105 T02060083 51009,KSDF,2023-06-09T02:56:00Z,38.18,-85.73,20.6,8.3,0,0,,10.0,29.84941,1010.5,,,TRUE,,,,,,,CLR,,,,,,,,VFR,0.9,,,,,,,,,,,METAR,146.0
KSBP 090256Z 33011KT 10SM CLR 16/11 A3003 RMK AO2 SLP166 T01610111 53007,KSBP,2023-06-09T02:56:00Z,35.23,-120.63,16.1,11.1,330,11,,10.0,30.029528,1016.6,,,TRUE,,,,,,,CLR,,,,,,,,VFR,0.7,,,,,,,,,,,METAR,52.0
KSBD 090256Z 25010KT 10SM CLR 21/10 A2999,KSBD,2023-06-09T02:56:00Z,34.08,-117.25,21.0,10.0,250,10,,10.0,29.991142,,,,,,,,,,,CLR,,,,,,,,VFR,,,,,,,,,,,,METAR,353.0
KRDM 090256Z 32007KT 10SM BKN085 OVC110 22/11 A2994 RMK AO2 SLP116 T02170106 53006,KRDM,2023-06-09T02:56:00Z,44.25,-121.15,21.7,10.6,320,7,,10.0,29.940945,1011.6,,,TRUE,,,,,,,BKN,8500,OVC,11000,,,,,VFR,0.6,,,,,,,,,,,METAR,930.0
KPWT 090256Z AUTO 24009KT 10SM CLR 20/11 A2994 RMK AO2 SLP141 T02000111 53002,KPWT,2023-06-09T02:56:00Z,47.5,-122.77,20.0,11.1,240,9,,10.0,29.940945,1014.1,,TRUE,TRUE,,,,,,,CLR,,,,,,,,VFR,0.2,,,,,,,,,,,METAR,143.0
KPWG 090256Z AUTO 00000KT 10SM CLR 23/21 A2984 RMK AO2 SLP097 T02280211 53001,KPWG,2023-06-09T02:56:00Z,31.48,-97.32,22.8,21.1,0,0,,10.0,29.840551,1009.7,,TRUE,TRUE,,,,,,,CLR,,,,,,,,VFR,0.1,,,,,,,,,,,METAR,178.0
KPVU 090256Z 01008KT 10SM CLR 18/07 A3006 RMK AO2 SLP137 60000 T01780072 53013,KPVU,2023-06-09T02:56:00Z,40.22,-111.72,17.8,7.2,10,8,,10.0,30.059055,1013.7,,,TRUE,,,,,,,CLR,,,,,,,,VFR,1.3,,,,,,0.005,,,,,METAR,1370.0
KPVG 090256Z AUTO 5SM BR CLR 09/09 A2980 RMK AO2 SLP093 T00940094 51015 $,KPVG,2023-06-09T02:56:00Z,36.78,-76.45,9.4,9.4,,,,5.0,29.799213,1009.3,,TRUE,TRUE,TRUE,,,,,BR,CLR,,,,,,,,MVFR,1.5,,,,,,,,,,,METAR,7.0
KPVC 090256Z AUTO 16004KT 10SM SCT070 BKN095 14/13 A2973 RMK AO2 SLP067 T01390128 50004,KPVC,2023-06-09T02:56:00Z,42.07,-70.22,13.9,12.8,160,4,,10.0,29.731298,1006.7,,TRUE,TRUE,,,,,,,SCT,7000,BKN,9500,,,,,VFR,0.4,,,,,,,,,,,METAR,1.0
KPTV 090256Z AUTO 27004KT 10SM CLR 24/15 A2995 RMK AO2 SLP140 T02440150 53002,KPTV,2023-06-09T02:56:00Z,36.02,-119.07,24.4,15.0,270,4,,10.0,29.949802,1014.0,,TRUE,TRUE,,,,,,,CLR,,,,,,,,VFR,0.2,,,,,,,,,,,METAR,132.0
KPRX 090256Z AUTO 20004KT 10SM CLR 24/21 A2982 RMK AO2 SLP093 T02390206 53011,KPRX,2023-06-09T02:56:00Z,33.63,-95.45,23.9,20.6,200,4,,10.0,29.819881,1009.3,,TRUE,TRUE,,,,,,,CLR,,,,,,,,VFR,1.1,,,,,,,,,,,METAR,165.0
KPQI 090256Z AUTO 05004KT 10SM OVC020 11/09 A2982 RMK AO2 SLP124 6//// T01110094 51010 PNO $,KPQI,2023-06-09T02:56:00Z,46.68,-68.05,11.1,9.4,50,4,,10.0,29.819881,1012.4,,TRUE,TRUE,TRUE,,,,,,OVC,2000,,,,,,,MVFR,1.0,,,,,,,,,,,METAR,154.0
KPIB 090256Z AUTO 27003KT 9SM BKN070 BKN085 22/22 A2984 RMK AO2 RAE21 SLP100 P0001 60004 T02170217 52027,KPIB,2023-06-09T02:56:00Z,31.47,-89.33,21.7,21.7,270,3,,9.0,29.840551,1010.0,,TRUE,TRUE,,,,,,,BKN,7000,BKN,8500,,,,,VFR,2.7,,,,,0.01,0.04,,,,,METAR,91.0
KP60 090256Z AUTO 00000KT 08/08 A3020 RMK AO1 SLP176 T00830078 53005,KP60,2023-06-09T02:56:00Z,44.55,-110.42,8.3,7.8,0,0,,,30.200787,1017.6,,TRUE,TRUE,,,,,,,,,,,,,,,,0.5,,,,,,,,,,,METAR,2377.0
KP53 090256Z AUTO 18003KT 09/04 A2995 RMK AO1 SLP144 T00890044 53001,KP53,2023-06-09T02:56:00Z,46.42,-86.65,8.9,4.4,180,3,,,29.949802,1014.4,,TRUE,TRUE,,,,,,,,,,,,,,,,0.1,,,,,,,,,,,METAR,185.0
KP28 090256Z AUTO 00000KT 27/18 A2983 RMK AO1 SLP083 T02670178 51011 $,KP28,2023-06-09T02:56:00Z,37.28,-98.55,26.7,17.8,0,0,,,29.828741,1008.3,,TRUE,TRUE,TRUE,,,,,,,,,,,,,,,1.1,,,,,,,,,,,METAR,469.0
KOWB 090256Z 03003KT 10SM HZ CLR 21/09 A2985 RMK AO2 SLP107 T02110094 51010,KOWB,2023-06-09T02:56:00Z,37.72,-87.17,21.1,9.4,30,3,,10.0,29.84941,1010.7,,,TRUE,,,,,,HZ,CLR,,,,,,,,VFR,1.0,,,,,,,,,,,METAR,121.0
KOTH 090256Z 28004KT 10SM OVC018 13/12 A3008 RMK AO2 SLP185 T01330117 53009,KOTH,2023-06-09T02:56:00Z,43.42,-124.25,13.3,11.7,280,4,,10.0,30.079725,1018.5,,,TRUE,,,,,,,OVC,1800,,,,,,,MVFR,0.9,,,,,,,,,,,METAR,3.0
KOTG 090256Z AUTO 13006KT 10SM CLR 19/17 A2993 RMK AO2 SLP131 6//// T01890167 52014 PNO $,KOTG,2023-06-09T02:56:00Z,43.65,-95.57,18.9,16.7,130,6,,10.0,29.929134,1013.1,,TRUE,TRUE,TRUE,,,,,,CLR,,,,,,,,VFR,1.4,,,,,,,,,,,METAR,478.0
KOLU 090256Z AUTO 11007KT 10SM 24/18 A2986 RMK AO2 SLP104 T02440183 53012,KOLU,2023-06-09T02:56:00Z,41.45,-97.33,24.4,18.3,110,7,,10.0,29.861221,1010.4,,TRUE,TRUE,,,,,,,,,,,,,,,,1.2,,,,,,,,,,,METAR,438.0
KOKK 090256Z AUTO 35008KT 10SM CLR 17/02 A2990 RMK AO2 SLP123 6//// T01670017 51015 PNO $,KOKK,2023-06-09T02:56:00Z,40.53,-86.07,16.7,1.7,350,8,,10.0,29.899607,1012.3,,TRUE,TRUE,TRUE,,,,,,CLR,,,,,,,,VFR,1.5,,,,,,,,,,,METAR,251.0
KOFK 090256Z AUTO 12008KT 10SM 25/17 A2985 RMK AO2 SLP094 T02500172 53019,KOFK,2023-06-09T02:56:00Z,41.98,-97.43,25.0,17.2,120,8,,10.0,29.84941,1009.4,,TRUE,TRUE,,,,,,,,,,,,,,,,1.9,,,,,,,,,,,METAR,476.0
KOCH 090256Z AUTO 00000KT 10SM CLR 22/21 A2985 RMK AO2 SLP108 T02170211 53012,KOCH,2023-06-09T02:56:00Z,31.57,-94.72,21.7,21.1,0,0,,10.0,29.84941,1010.8,,TRUE,TRUE,,,,,,,CLR,,,,,,,,VFR,1.2,,,,,,,,,,,METAR,105.0
KOAJ 090256Z AUTO 00000KT 10SM CLR 16/14 A2980 RMK AO2 SLP094 T01560139 51020,KOAJ,2023-06-09T02:56:00Z,34.82,-77.62,15.6,13.9,0,0,,10.0,29.799213,1009.4,,TRUE,TRUE,,,,,,,CLR,,,,,,,,VFR,2.0,,,,,,,,,,,METAR,26.0
KNXP 090256Z AUTO 23015KT 10SM CLR 27/M01 A2995 RMK AO2 SLP109 T02721006 53002,KNXP,2023-06-09T02:56:00Z,34.28,-116.13,27.2,-0.6,230,15,,10.0,29.949802,1010.9,,TRUE,TRUE,,,,,,,CLR,,,,,,,,VFR,0.2,,,,,,,,,,,METAR,610.0
KNXF 090256Z AUTO 31010KT 9SM CLR 17/14 A3001 RMK AO2 SLP248 T01720139 53005 $,KNXF,2023-06-09T02:56:00Z,33.28,-117.45,17.2,13.9,310,10,,9.0,30.008858,1024.8,,TRUE,TRUE,TRUE,,,,,,CLR,,,,,,,,VFR,0.5,,,,,,,,,,,METAR,28.0
KNTU 090256Z 00000KT 5SM BR CLR 13/12 A2978 RMK AO2 VIS 2 RWY 5R SLP086 T01280117 51013,KNTU,2023-06-09T02:56:00Z,36.82,-76.02,12.8,11.7,0,0,,5.0,29.778543,1008.6,,,TRUE,,,,,,BR,CLR,,,,,,,,MVFR,1.3,,,,,,,,,,,METAR,6.0
KNSE 090256Z 25005KT 10SM FEW250 25/21 A2979 RMK SLP072 T02500211 51019,KNSE,2023-06-09T02:56:00Z,30.73,-87.02,25.0,21.1,250,5,,10.0,29.790354,1007.2,,,,,,,,,,FEW,25000,,,,,,,VFR,1.9,,,,,,,,,,,SPECI,56.0
KNQI 090256Z 14006KT 10SM CLR 28/23 A2982 RMK AO2 SLP094 T02780228 51018 $,KNQI,2023-06-09T02:56:00Z,27.5,-97.82,27.8,22.8,140,6,,10.0,29.819881,1009.4,,,TRUE,TRUE,,,,,,CLR,,,,,,,,VFR,1.8,,,,,,,,,,,METAR,15.0
KNPA 090256Z 26003KT 10SM CLR 26/22 A2978 RMK AO2 SLP087 T02610217 51017,KNPA,2023-06-09T02:56:00Z,30.35,-87.32,26.1,21.7,260,3,,10.0,29.778543,1008.7,,,TRUE,,,,,,,CLR,,,,,,,,VFR,1.7,,,,,,,,,,,METAR,6.0
KNOG 090256Z AUTO 14009KT 10SM CLR 26/20 A2983 RMK AO2 SLP081 T02610200 51019 TSNO $,KNOG,2023-06-09T02:56:00Z,27.9,-98.05,26.1,20.0,140,9,,10.0,29.828741,1008.1,,TRUE,TRUE,TRUE,,TRUE,,,,CLR,,,,,,,,VFR,1.9,,,,,,,,,,,METAR,72.0
KNMM 090256Z 27006KT 10SM SCT100 SCT200 23/19 A2982 RMK AO2 SLP105 T02280194 53020,KNMM,2023-06-09T02:56:00Z,32.53,-88.53,22.8,19.4,270,6,,10.0,29.819881,1010.5,,,TRUE,,,,,,,SCT,10000,SCT,20000,,,,,VFR,2.0,,,,,,,,,,,METAR,94.0
KNLC 090256Z 33007KT 10SM FEW085 26/12 A2993 RMK AO2 SLP134 RH/36 T02560117 55001,KNLC,2023-06-09T02:56:00Z,36.32,-119.95,25.6,11.7,330,7,,10.0,29.929134,1013.4,,,TRUE,,,,,,,FEW,8500,,,,,,,VFR,-0.1,,,,,,,,,,,METAR,69.0
KNKT 090256Z 04005KT 9SM CLR 19/18 A2980 RMK AO2 SLP086 T01890178 51024,KNKT,2023-06-09T02:56:00Z,34.9,-76.88,18.9,17.8,40,5,,9.0,29.799213,1008.6,,,TRUE,,,,,,,CLR,,,,,,,,VFR,2.4,,,,,,,,,,,METAR,8.0
KNJK 090256Z 24007KT 10SM FEW150 BKN250 31/07 A2983 RMK AO2 SLP116 T03110072 53006 $,KNJK,2023-06-09T02:56:00Z,32.82,-115.67,31.1,7.2,240,7,,10.0,29.828741,1011.6,,,TRUE,TRUE,,,,,,FEW,15000,BKN,25000,,,,,VFR,0.6,,,,,,,,,,,METAR,-15.0
KNID 090256Z 25010KT 10SM FEW100 FEW250 26/08 A2988 RMK AO2 SLP104 T02560078 53006 $,KNID,2023-06-09T02:56:00Z,35.68,-117.68,25.6,7.8,250,10,,10.0,29.878937,1010.4,,,TRUE,TRUE,,,,,,FEW,10000,FEW,25000,,,,,VFR,0.6,,,,,,,,,,,SPECI,682.0
KNGP 090256Z 15011KT 10SM FEW023 FEW300 29/23 A2982 RMK AO2 SLP098 T02940233 53013,KNGP,2023-06-09T02:56:00Z,27.68,-97.28,29.4,23.3,150,11,,10.0,29.819881,1009.8,,,TRUE,,,,,,,FEW,2300,FEW,30000,,,,,VFR,1.3,,,,,,,,,,,METAR,5.0
KNFL 090256Z 27009KT 10SM SCT070 BKN100 OVC150 21/06 A3003 RMK AO2 SLP137 T02060061 51022 $,KNFL,2023-06-09T02:56:00Z,39.42,-118.7,20.6,6.1,270,9,,10.0,30.029528,1013.7,,,TRUE,TRUE,,,,,,SCT,7000,BKN,10000,OVC,15000,,,VFR,2.2,,,,,,,,,,,METAR,1199.0
KNFE 090256Z AUTO 00000KT 5SM HZ CLR 13/10 A2979 RMK AO2 SLP088 T01330100 51012,KNFE,2023-06-09T02:56:00Z,36.7,-76.13,13.3,10.0,0,0,,5.0,29.790354,1008.8,,TRUE,TRUE,,,,,,HZ,CLR,,,,,,,,MVFR,1.2,,,,,,,,,,,METAR,4.0
KNDZ 090256Z 00000KT 10SM FEW250 24/21 A2979 RMK AO2 SLP073 T02440211 51019 $,KNDZ,2023-06-09T02:56:00Z,30.7,-87.02,24.4,21.1,0,0,,10.0,29.790354,1007.3,,,TRUE,TRUE,,,,,,FEW,25000,,,,,,,VFR,1.9,,,,,,,,,,,METAR,51.0
KNCA 090256Z 02003KT 10SM CLR 19/13 A2978 RMK AO2 SLP087 T01890133 51021,KNCA,2023-06-09T02:56:00Z,34.72,-77.45,18.9,13.3,20,3,,10.0,29.778543,1008.7,,,TRUE,,,,,,,CLR,,,,,,,,VFR,2.1,,,,,,,,,,,METAR,9.0
KNBC 090256Z 00000KT 9SM BKN080 23/21 A2978 RMK AO2 SLP084 60029 T02280211 51017,KNBC,2023-06-09T02:56:00Z,32.47,-80.72,22.8,21.1,0,0,,9.0,29.778543,1008.4,,,TRUE,,,,,,,BKN,8000,,,,,,,VFR,1.7,,,,,,0.29,,,,,METAR,9.0
KMYR 090256Z AUTO 00000KT 10SM CLR 21/19 A2980 RMK AO2 SLP090 T02060194 51016,KMYR,2023-06-09T02:56:00Z,33.68,-78.92,20.6,19.4,0,0,,10.0,29.799213,1009.0,,TRUE,TRUE,,,,,,,CLR,,,,,,,,VFR,1.6,,,,,,,,,,,METAR,7.0
KMWN 090256Z 02005KT 80SM BKN/// SCT/// SCT005 BKN060 00/M01 RMK DZE30 SH DSNT NE-SE W TPS LWR BKN020 TPS LWR SCT060 PTCHY VLY FG NW-N,KMWN,2023-06-09T02:56:00Z,44.27,-71.3,0.0,-1.0,20,5,,80.0,,,,,,,,,,,,SCT,500,BKN,6000,,,,,VFR,,,,,,,,,,,,METAR,1911.0
KMVN 090256Z AUTO 00000KT 10SM CLR 12/11 A2987 RMK AO2 SLP118 T01170106 53009,KMVN,2023-06-09T02:56:00Z,38.32,-88.87,11.7,10.6,0,0,,10.0,29.870079,1011.8,,TRUE,TRUE,,,,,,,CLR,,,,,,,,VFR,0.9,,,,,,,,,,,METAR,145.0
KMTW 090256Z AUTO 27003KT 10SM CLR 13/04 A2994 RMK AO2 SLP139 T01280044 53006,KMTW,2023-06-09T02:56:00Z,44.12,-87.67,12.8,4.4,270,3,,10.0,29.940945,1013.9,,TRUE,TRUE,,,,,,,CLR,,,,,,,,VFR,0.6,,,,,,,,,,,METAR,197.0
KMTC 090256Z 02007KT 10SM BKN090 OVC100 15/07 A2985 RMK AO2A SLP112 T01470068 52013,KMTC,2023-06-09T02:56:00Z,42.62,-82.83,14.7,6.8,20,7,,10.0,29.84941,1011.2,,,TRUE,,,,,,,BKN,9000,OVC,10000,,,,,VFR,1.3,,,,,,,,,,,METAR,177.0
KMSV 090256Z AUTO 30005KT 10SM FEW070 BKN110 11/09 A2977 RMK AO2 SLP082 T01060089 50005,KMSV,2023-06-09T02:56:00Z,41.7,-74.78,10.6,8.9,300,5,,10.0,29.769686,1008.2,,TRUE,TRUE,,,,,,,FEW,7000,BKN,11000,,,,,VFR,0.5,,,,,,,,,,,METAR,427.0
KMRF 090256Z AUTO 28005KT 10SM CLR 22/03 A3007 RMK AO2 SLP118 T02220033 53008,KMRF,2023-06-09T02:56:00Z,30.37,-104.02,22.2,3.3,280,5,,10.0,30.070866,1011.8,,TRUE,TRUE,,,,,,,CLR,,,,,,,,VFR,0.8,,,,,,,,,,,METAR,1476.0
KMQY 090256Z AUTO 00000KT 10SM CLR 18/11 A2984 RMK AO2 SLP109 T01830106 53008,KMQY,2023-06-09T02:56:00Z,36.02,-86.52,18.3,10.6,0,0,,10.0,29.840551,1010.9,,TRUE,TRUE,,,,,,,CLR,,,,,,,,VFR,0.8,,,,,,,,,,,METAR,156.0
KMOB 090256Z 00000KT 7SM FEW100 24/19 A2980 RMK AO2 SLP089 T02440189 51016,KMOB,2023-06-09T02:56:00Z,30.68,-88.25,24.4,18.9,0,0,,7.0,29.799213,1008.9,,,TRUE,,,,,,,FEW,10000,,,,,,,VFR,1.6,,,,,,,,,,,METAR,67.0
KMML 090256Z AUTO 13007KT 10SM CLR 21/18 A2989 RMK AO2 SLP120 T02110178 51009 $,KMML,2023-06-09T02:56:00Z,44.45,-95.82,21.1,17.8,130,7,,10.0,29.890747,1012.0,,TRUE,TRUE,TRUE,,,,,,CLR,,,,,,,,VFR,0.9,,,,,,,,,,,METAR,358.0
KMKY 090256Z AUTO 10SM CLR 27/23 A2985 RMK AO2 SLP108 6//// T02670233 53006 TSNO PNO $,KMKY,2023-06-09T02:56:00Z,26.0,-81.67,26.7,23.3,,,,10.0,29.84941,1010.8,,TRUE,TRUE,TRUE,,TRUE,,,,CLR,,,,,,,,VFR,0.6,,,,,,,,,,,METAR,2.0
KMKT 090256Z AUTO 15003KT 10SM CLR 22/10 A2991 RMK AO2 SLP127 T02170100 53010,KMKT,2023-06-09T02:56:00Z,44.22,-93.92,21.7,10.0,150,3,,10.0,29.911417,1012.7,,TRUE,TRUE,,,,,,,CLR,,,,,,,,VFR,1.0,,,,,,,,,,,METAR,309.0
KMHS 090256Z AUTO 00000KT 10SM SCT090 16/13 A3003 RMK AO2 RAE04 SLP169 P0000 60000 T01610128 51014,KMHS,2023-06-09T02:56:00Z,41.32,-122.32,16.1,12.8,0,0,,10.0,30.029528,1016.9,,TRUE,TRUE,,,,,,,SCT,9000,,,,,,,VFR,1.4,,,,,0.005,0.005,,,,,METAR,1080.0
KMEH 090256Z AUTO 00000KT 10SM -RA OVC017 16/13 A2997 RMK AO2 RAB44 SLP133 P0000 60000 T01610133 53005,KMEH,2023-06-09T02:56:00Z,45.52,-118.42,16.1,13.3,0,0,,10.0,29.970472,1013.3,,TRUE,TRUE,,,,,,-RA,OVC,1700,,,,,,,MVFR,0.5,,,,,0.005,0.005,,,,,METAR,1138.0
KMDT 090256Z 35004KT 10SM OVC100 18/07 A2978 RMK AO2 SLP082 T01830072 51013 $,KMDT,2023-06-09T02:56:00Z,40.2,-76.77,18.3,7.2,350,4,,10.0,29.778543,1008.2,,,TRUE,TRUE,,,,,,OVC,10000,,,,,,,VFR,1.3,,,,,,,,,,,METAR,91.0
KMBL 090256Z AUTO 09003KT 10SM CLR 09/06 A2991 RMK AO2 SLP130 T00940056 51008,KMBL,2023-06-09T02:56:00Z,44.27,-86.25,9.4,5.6,90,3,,10.0,29.911417,1013.0,,TRUE,TRUE,,,,,,,CLR,,,,,,,,VFR,0.8,,,,,,,,,,,METAR,187.0
KM19 090256Z AUTO 24003KT 5SM BR CLR 22/21 A2984 RMK AO2 SLP101 6//// T02170211 53018 PNO $,KM19,2023-06-09T02:56:00Z,35.65,-91.17,21.7,21.1,240,3,,5.0,29.840551,1010.1,,TRUE,TRUE,TRUE,,,,,BR,CLR,,,,,,,,MVFR,1.8,,,,,,,,,,,METAR,72.0
KLZU 090256Z AUTO 00000KT 10SM CLR 19/10 A2983 RMK AO2 SLP104 T01890100 51015,KLZU,2023-06-09T02:56:00Z,33.98,-83.97,18.9,10.0,0,0,,10.0,29.828741,1010.4,,TRUE,TRUE,,,,,,,CLR,,,,,,,,VFR,1.5,,,,,,,,,,,METAR,316.0
KLWS 090256Z 00000KT 10SM OVC110 21/18 A2988 RMK AO2 RAE27 SLP110 P0001 60001 T02060178 51016,KLWS,2023-06-09T02:56:00Z,46.37,-117.02,20.6,17.8,0,0,,10.0,29.878937,1011.0,,,TRUE,,,,,,,OVC,11000,,,,,,,VFR,1.6,,,,,0.01,0.01,,,,,METAR,435.0
KLRD 090256Z 12006KT 10SM CLR 31/22 A2980 RMK AO2 SLP088 T03060222 52015,KLRD,2023-06-09T02:56:00Z,27.55,-99.47,30.6,22.2,120,6,,10.0,29.799213,1008.8,,,TRUE,,,,,,,CLR,,,,,,,,VFR,1.5,,,,,,,,,,,METAR,150.0
KLNR 090256Z AUTO 00000KT 10SM CLR 13/07 A2993 RMK AO2 SLP129 T01330067 53012,KLNR,2023-06-09T02:56:00Z,43.22,-90.18,13.3,6.7,0,0,,10.0,29.929134,1012.9,,TRUE,TRUE,,,,,,,CLR,,,,,,,,VFR,1.2,,,,,,,,,,,METAR,218.0
KLGD 090256Z AUTO 32008KT 10SM -RA SCT050 OVC070 19/14 A2992 RMK AO2 RAB43 SLP120 P0000 60000 T01890139 53007,KLGD,2023-06-09T02:56:00Z,45.28,-118.0,18.9,13.9,320,8,,10.0,29.920275,1012.0,,TRUE,TRUE,,,,,,-RA,SCT,5000,OVC,7000,,,,,VFR,0.7,,,,,0.005,0.005,,,,,METAR,827.0
KLEW 090256Z AUTO 00000KT 10SM BKN049 OVC070 11/11 A2975 RMK AO2 SLP079 T01110106 51008,KLEW,2023-06-09T02:56:00Z,44.03,-70.28,11.1,10.6,0,0,,10.0,29.749016,1007.9,,TRUE,TRUE,,,,,,,BKN,4900,OVC,7000,,,,,VFR,0.8,,,,,,,,,,,METAR,81.0
KLBT 090256Z AUTO 00000KT 9SM CLR 15/13 A2980 RMK AO2 SLP089 T01500133 51017 $,KLBT,2023-06-09T02:56:00Z,34.6,-79.07,15.0,13.3,0,0,,9.0,29.799213,1008.9,,TRUE,TRUE,TRUE,,,,,,CLR,,,,,,,,VFR,1.7,,,,,,,,,,,METAR,37.0
KLBL 090256Z AUTO 15006KT 10SM CLR 22/15 A2993 RMK AO2 SLP106 T02170150 53014,KLBL,2023-06-09T02:56:00Z,37.03,-100.97,21.7,15.0,150,6,,10.0,29.929134,1010.6,,TRUE,TRUE,,,,,,,CLR,,,,,,,,VFR,1.4,,,,,,,,,,,METAR,877.0
KLAS 090256Z 24011KT 10SM FEW110 FEW160 SCT220 28/03 A2986 RMK AO2 SLP089 T02830028 53005,KLAS,2023-06-09T02:56:00Z,36.07,-115.17,28.3,2.8,240,11,,10.0,29.861221,1008.9,,,TRUE,,,,,,,FEW,11000,FEW,16000,SCT,22000,,,VFR,0.5,,,,,,,,,,,METAR,662.0
KKLS 090256Z AUTO 32007KT CLR 17/11 A2999 RMK AO2 SLP159 T01720106 53008 PWINO $,KKLS,2023-06-09T02:56:00Z,46.12,-122.9,17.2,10.6,320,7,,,29.991142,1015.9,,TRUE,TRUE,TRUE,,,,TRUE,,CLR,,,,,,,,,0.8,,,,,,,,,,,METAR,4.0
KJXN 090256Z AUTO 02009KT 10SM CLR 18/04 A2987 RMK AO2 SLP112 T01780044 53015,KJXN,2023-06-09T02:56:00Z,42.27,-84.47,17.8,4.4,20,9,,10.0,29.870079,1011.2,,TRUE,TRUE,,,,,,,CLR,,,,,,,,VFR,1.5,,,,,,,,,,,METAR,303.0
KJRB 090256Z AUTO VRB03KT 10SM BKN100 18/09 A2975 RMK AO2 SLP074 T01830089 51009,KJRB,2023-06-09T02:56:00Z,40.7,-74.02,18.3,8.9,0,3,,10.0,29.749016,1007.4,,TRUE,TRUE,,,,,,,BKN,10000,,,,,,,VFR,0.9,,,,,,,,,,,METAR,2.0
KJHW 090256Z AUTO 02003KT 10SM OVC035 12/08 A2985 RMK AO2 SLP111 6//// T01170078 53006 PNO $,KJHW,2023-06-09T02:56:00Z,42.15,-79.27,11.7,7.8,20,3,,10.0,29.84941,1011.1,,TRUE,TRUE,TRUE,,,,,,OVC,3500,,,,,,,VFR,0.6,,,,,,,,,,,METAR,520.0
KJAX 090256Z 24009G14KT 10SM SCT250 25/18 A2976 RMK AO2 SLP079 T02500183 53019,KJAX,2023-06-09T02:56:00Z,30.5,-81.68,25.0,18.3,240,9,14,10.0,29.760826,1007.9,,,TRUE,,,,,,,SCT,25000,,,,,,,VFR,1.9,,,,,,,,,,,METAR,8.0
KIWD 090256Z AUTO 00000KT 10SM CLR 07/04 A2997 RMK AO2 SLP151 T00670044 53001,KIWD,2023-06-09T02:56:00Z,46.52,-90.12,6.7,4.4,0,0,,10.0,29.970472,1015.1,,TRUE,TRUE,,,,,,,CLR,,,,,,,,VFR,0.1,,,,,,,,,,,METAR,373.0
KITH 090256Z AUTO 00000KT 10SM CLR 09/09 A2981 RMK AO2 SLP094 T00890089 51010,KITH,2023-06-09T02:56:00Z,42.48,-76.45,8.9,8.9,0,0,,10.0,29.811024,1009.4,,TRUE,TRUE,,,,,,,CLR,,,,,,,,VFR,1.0,,,,,,,,,,,METAR,338.0
KISP 090256Z 00000KT 8SM FEW100 BKN250 15/08 A2973 RMK AO2 SLP067 T01500083 50008,KISP,2023-06-09T02:56:00Z,40.8,-73.1,15.0,8.3,0,0,,8.0,29.731298,1006.7,,,TRUE,,,,,,,FEW,10000,BKN,25000,,,,,VFR,0.8,,,,,,,,,,,METAR,25.0
KISM 090256Z AUTO 00000KT 10SM CLR 24/23 RMK AO2 SLPNO 6//// T02440228 PNO $,KISM,2023-06-09T02:56:00Z,28.28,-81.43,24.4,22.8,0,0,,10.0,,,,TRUE,TRUE,TRUE,,,,,,CLR,,,,,,,,VFR,,,,,,,,,,,,METAR,25.0
KINW 090256Z AUTO 25008KT 10SM CLR 22/M13 A3006 RMK AO2 SLP121 T02171128 51012 $,KINW,2023-06-09T02:56:00Z,35.03,-110.72,21.7,-12.8,250,8,,10.0,30.059055,1012.1,,TRUE,TRUE,TRUE,,,,,,CLR,,,,,,,,VFR,1.2,,,,,,,,,,,METAR,1492.0
KILE 090256Z AUTO 10003KT 10SM CLR 24/20 A2986 RMK AO2 SLP099 T02440200 53010,KILE,2023-06-09T02:56:00Z,31.08,-97.68,24.4,20.0,100,3,,10.0,29.861221,1009.9,,TRUE,TRUE,,,,,,,CLR,,,,,,,,VFR,1.0,,,,,,,,,,,METAR,256.0
KHYS 090256Z AUTO 09007KT 10SM CLR 23/16 A2987 RMK AO2 SLP096 T02330156 53015 $,KHYS,2023-06-09T02:56:00Z,38.85,-99.27,23.3,15.6,90,7,,10.0,29.870079,1009.6,,TRUE,TRUE,TRUE,,,,,,CLR,,,,,,,,VFR,1.5,,,,,,,,,,,METAR,607.0
KHYI 090256Z AUTO 00000KT 10SM CLR 23/22 A2986 RMK AO2 SLP101 T02330222 51017,KHYI,2023-06-09T02:56:00Z,29.88,-97.87,23.3,22.2,0,0,,10.0,29.861221,1010.1,,TRUE,TRUE,,,,,,,CLR,,,,,,,,VFR,1.7,,,,,,,,,,,METAR,180.0
KHYA 090256Z AUTO 26003KT 7SM BKN085 14/12 A2971 RMK AO2 SLP062 T01440117 50006,KHYA,2023-06-09T02:56:00Z,41.67,-70.27,14.4,11.7,260,3,,7.0,29.71063,1006.2,,TRUE,TRUE,,,,,,,BKN,8500,,,,,,,VFR,0.6,,,,,,,,,,,METAR,11.0
KHWV 090256Z AUTO 00000KT 5SM HZ OVC100 14/11 A2974 RMK AO2 SLP070 T01390111 50008,KHWV,2023-06-09T02:56:00Z,40.82,-72.87,13.9,11.1,0,0,,5.0,29.740158,1007.0,,TRUE,TRUE,,,,,,HZ,OVC,10000,,,,,,,MVFR,0.8,,,,,,,,,,,METAR,20.0
KHPN 090256Z 29003KT 10SM FU BKN080 BKN090 14/09 A2974 RMK AO2 SLP068 T01390094 50009,KHPN,2023-06-09T02:56:00Z,41.07,-73.7,13.9,9.4,290,3,,10.0,29.740158,1006.8,,,TRUE,,,,,,FU,BKN,8000,BKN,9000,,,,,VFR,0.9,,,,,,,,,,,METAR,113.0
KHND 090256Z AUTO 24012KT 10SM CLR 28/03 A2990 RMK AO2 SLP115 T02830028 53007,KHND,2023-06-09T02:56:00Z,35.98,-115.13,28.3,2.8,240,12,,10.0,29.899607,1011.5,,TRUE,TRUE,,,,,,,CLR,,,,,,,,VFR,0.7,,,,,,,,,,,METAR,740.0
KHNB 090256Z AUTO 02004KT 10SM CLR 17/10 A2986 RMK AO2 SLP110 T01670100 53009,KHNB,2023-06-09T02:56:00Z,38.25,-86.95,16.7,10.0,20,4,,10.0,29.861221,1011.0,,TRUE,TRUE,,,,,,,CLR,,,,,,,,VFR,0.9,,,,,,,,,,,METAR,159.0
KHEZ 090256Z AUTO 00000KT 10SM CLR 23/21 A2983 RMK AO2 SLP098 T02280211 53016,KHEZ,2023-06-09T02:56:00Z,31.62,-91.3,22.8,21.1,0,0,,10.0,29.828741,1009.8,,TRUE,TRUE,,,,,,,CLR,,,,,,,,VFR,1.6,,,,,,,,,,,METAR,82.0
KHEF 090256Z AUTO 34007KT 6SM HZ OVC110 19/07 A2980 RMK AO2 SLP095 T01940067 51020,KHEF,2023-06-09T02:56:00Z,38.72,-77.52,19.4,6.7,340,7,,6.0,29.799213,1009.5,,TRUE,TRUE,,,,,,HZ,OVC,11000,,,,,,,VFR,2.0,,,,,,,,,,,METAR,53.0
KHDN 090256Z AUTO 00000KT 10SM BKN100 19/06 A3009 RMK AO2 SLP119 T01890061 53005,KHDN,2023-06-09T02:56:00Z,40.48,-107.22,18.9,6.1,0,0,,10.0,30.088583,1011.9,,TRUE,TRUE,,,,,,,BKN,10000,,,,,,,VFR,0.5,,,,,,,,,,,METAR,2012.0
KGXY 090256Z AUTO 05006KT 10SM FEW070 20/12 A3001 RMK AO2 LTG DSNT SW SLP127 T02000122 53010,KGXY,2023-06-09T02:56:00Z,40.43,-104.62,20.0,12.2,50,6,,10.0,30.008858,1012.7,,TRUE,TRUE,,,,,,,FEW,7000,,,,,,,VFR,1.0,,,,,,,,,,,METAR,1420.0
KGVQ 090256Z AUTO 29005KT 10SM SCT048 OVC060 14/08 A2981 RMK AO2 SLP094 T01390083 53005,KGVQ,2023-06-09T02:56:00Z,43.03,-78.17,13.9,8.3,290,5,,10.0,29.811024,1009.4,,TRUE,TRUE,,,,,,,SCT,4800,OVC,6000,,,,,VFR,0.5,,,,,,,,,,,METAR,279.0
KGUC 090256Z AUTO 30003KT 10SM CLR 13/05 A3020 RMK AO2 SLP166 60001 T01280050 51012,KGUC,2023-06-09T02:56:00Z,38.52,-106.93,12.8,5.0,300,3,,10.0,30.200787,1016.6,,TRUE,TRUE,,,,,,,CLR,,,,,,,,VFR,1.2,,,,,,0.01,,,,,METAR,2337.0
KGTU 090256Z 14004KT 10SM CLR 26/20 A2987 RMK AO2 SLP108 T02560200 52012,KGTU,2023-06-09T02:56:00Z,30.68,-97.68,25.6,20.0,140,4,,10.0,29.870079,1010.8,,,TRUE,,,,,,,CLR,,,,,,,,VFR,1.2,,,,,,,,,,,METAR,232.0
KGTR 090256Z AUTO 32003KT 10SM CLR 21/20 A2981 RMK AO2 SLP100 T02060200 51010,KGTR,2023-06-09T02:56:00Z,33.45,-88.58,20.6,20.0,320,3,,10.0,29.811024,1010.0,,TRUE,TRUE,,,,,,,CLR,,,,,,,,VFR,1.0,,,,,,,,,,,METAR,80.0
KGRD 090256Z AUTO 00000KT 8SM BKN060 OVC085 20/15 A2984 RMK AO2 SLP097 T02000150 52024,KGRD,2023-06-09T02:56:00Z,34.25,-82.15,20.0,15.0,0,0,,8.0,29.840551,1009.7,,TRUE,TRUE,,,,,,,BKN,6000,OVC,8500,,,,,VFR,2.4,,,,,,,,,,,METAR,188.0
KGPZ 090256Z AUTO 14004KT 10SM CLR 15/07 A2997 RMK AO2 SLP150 T01500067 53009,KGPZ,2023-06-09T02:56:00Z,47.22,-93.52,15.0,6.7,140,4,,10.0,29.970472,1015.0,,TRUE,TRUE,,,,,,,CLR,,,,,,,,VFR,0.9,,,,,,,,,,,METAR,410.0
KGON 090256Z AUTO 00000KT 7SM FU CLR 14/09 A2972 RMK AO2 SLP065 T01440089 50009 $,KGON,2023-06-09T02:56:00Z,41.33,-72.05,14.4,8.9,0,0,,7.0,29.719488,1006.5,,TRUE,TRUE,TRUE,,,,,FU,CLR,,,,,,,,VFR,0.9,,,,,,,,,,,METAR,2.0
KGNR 090256Z AUTO 08005KT 09/09 A2973 RMK AO1 SLP073 P0001 60009 T00940089 51005,KGNR,2023-06-09T02:56:00Z,45.47,-69.55,9.4,8.9,80,5,,,29.731298,1007.3,,TRUE,TRUE,,,,,,,,,,,,,,,,0.5,,,,,0.01,0.09,,,,,METAR,426.0
KGDV 090256Z AUTO 03009KT 10SM CLR 21/15 A2987 RMK AO2 SLP098 6//// T02060150 58004 TSNO PNO $,KGDV,2023-06-09T02:56:00Z,47.13,-104.8,20.6,15.0,30,9,,10.0,29.870079,1009.8,,TRUE,TRUE,TRUE,,TRUE,,,,CLR,,,,,,,,VFR,-0.4,,,,,,,,,,,METAR,749.0
KGBD 090256Z AUTO 08005KT 10SM CLR 26/16 A2986 RMK AO2 RAB00E10B27E40 SLP092 P0000 60000 T02560161 53013,KGBD,2023-06-09T02:56:00Z,38.35,-98.87,25.6,16.1,80,5,,10.0,29.861221,1009.2,,TRUE,TRUE,,,,,,,CLR,,,,,,,,VFR,1.3,,,,,0.005,0.005,,,,,METAR,573.0
KGAI 090256Z AUTO 00000KT 10SM BKN100 17/08 A2981 RMK AO2 SLP105 T01670078 51018,KGAI,2023-06-09T02:56:00Z,39.17,-77.17,16.7,7.8,0,0,,10.0,29.811024,1010.5,,TRUE,TRUE,,,,,,,BKN,10000,,,,,,,VFR,1.8,,,,,,,,,,,METAR,151.0
KGAD 090256Z AUTO 00000KT 10SM CLR 19/14 A2982 RMK AO2 SLP098 6//// T01890144 51012 PNO $,KGAD,2023-06-09T02:56:00Z,33.97,-86.08,18.9,14.4,0,0,,10.0,29.819881,1009.8,,TRUE,TRUE,TRUE,,,,,,CLR,,,,,,,,VFR,1.2,,,,,,,,,,,METAR,169.0
KFSD 090256Z 14010KT 10SM FEW080 24/17 A2987 RMK AO2 SLP105 T02440167 51015,KFSD,2023-06-09T02:56:00Z,43.58,-96.75,24.4,16.7,140,10,,10.0,29.870079,1010.5,,,TRUE,,,,,,,FEW,8000,,,,,,,VFR,1.5,,,,,,,,,,,METAR,433.0
KFRM 090256Z AUTO 16004KT 10SM CLR 19/15 A2993 RMK AO2 SLP135 T01940150 53011,KFRM,2023-06-09T02:56:00Z,43.63,-94.42,19.4,15.0,160,4,,10.0,29.929134,1013.5,,TRUE,TRUE,,,,,,,CLR,,,,,,,,VFR,1.1,,,,,,,,,,,METAR,353.0
KFOD 090256Z AUTO 00000KT 10SM CLR 17/13 A2993 RMK AO2 SLP145 T01670128 53012,KFOD,2023-06-09T02:56:00Z,42.53,-94.17,16.7,12.8,0,0,,10.0,29.929134,1014.5,,TRUE,TRUE,,,,,,,CLR,,,,,,,,VFR,1.2,,,,,,,,,,,METAR,347.0
KFNL 090256Z 05005KT 10SM CLR 21/09 A3003 RMK AO2 LTG DSNT S AND SW SLP114 T02060089 51007,KFNL,2023-06-09T02:56:00Z,40.45,-105.02,20.6,8.9,50,5,,10.0,30.029528,1011.4,,,TRUE,,,,,,,CLR,,,,,,,,VFR,0.7,,,,,,,,,,,METAR,1529.0
KFLP 090256Z AUTO 00000KT 8SM CLR 21/19 A2986 RMK AO2 SLP104 T02060194 53014,KFLP,2023-06-09T02:56:00Z,36.28,-92.58,20.6,19.4,0,0,,8.0,29.861221,1010.4,,TRUE,TRUE,,,,,,,CLR,,,,,,,,VFR,1.4,,,,,,,,,,,METAR,215.0
KFKL 090256Z AUTO 25003KT 10SM BKN080 OVC110 12/10 A2984 RMK AO2 PK WND 01044/0233 RAE18 SLP105 P0000 60000 T01220100 50005,KFKL,2023-06-09T02:56:00Z,41.37,-79.87,12.2,10.0,250,3,,10.0,29.840551,1010.5,,TRUE,TRUE,,,,,,,BKN,8000,OVC,11000,,,,,VFR,0.5,,,,,0.005,0.005,,,,,METAR,468.0
KFCI 090256Z AUTO 00000KT 7SM BKN042 OVC120 14/14 A2979 RMK AO2 SLP096 T01440139,KFCI,2023-06-09T02:56:00Z,37.4,-77.52,14.4,13.9,0,0,,7.0,29.790354,1009.6,,TRUE,TRUE,,,,,,,BKN,4200,OVC,12000,,,,,VFR,,,,,,,,,,,,METAR,63.0
KFAM 090256Z AUTO 35003KT 10SM CLR 17/11 A2989 RMK AO2 SLP123 T01720106 53004,KFAM,2023-06-09T02:56:00Z,37.77,-90.42,17.2,10.6,350,3,,10.0,29.890747,1012.3,,TRUE,TRUE,,,,,,,CLR,,,,,,,,VFR,0.4,,,,,,,,,,,METAR,276.0
KEWK 090256Z AUTO 04005KT 10SM CLR 26/16 A2984 RMK AO2 SLP087 T02560161 51014,KEWK,2023-06-09T02:56:00Z,38.05,-97.27,25.6,16.1,40,5,,10.0,29.840551,1008.7,,TRUE,TRUE,,,,,,,CLR,,,,,,,,VFR,1.4,,,,,,,,,,,METAR,468.0
KEUL 090256Z AUTO 12009KT 10SM FEW090 18/13 A2992 RMK AO2 SLP119 T01780128 52013,KEUL,2023-06-09T02:56:00Z,43.63,-116.62,17.8,12.8,120,9,,10.0,29.920275,1011.9,,TRUE,TRUE,,,,,,,FEW,9000,,,,,,,VFR,1.3,,,,,,,,,,,METAR,741.0
KESC 090256Z AUTO 02003KT 10SM CLR 13/02 A2994 RMK AO2 SLP144 T01330017 53007,KESC,2023-06-09T02:56:00Z,45.72,-87.08,13.3,1.7,20,3,,10.0,29.940945,1014.4,,TRUE,TRUE,,,,,,,CLR,,,,,,,,VFR,0.7,,,,,,,,,,,METAR,180.0
KENV 090256Z AUTO 19010KT 10SM CLR 23/02 A2997 RMK AO2 SLP113 6//// T02280017 53005 PNO $,KENV,2023-06-09T02:56:00Z,40.72,-114.02,22.8,1.7,190,10,,10.0,29.970472,1011.3,,TRUE,TRUE,TRUE,,,,,,CLR,,,,,,,,VFR,0.5,,,,,,,,,,,METAR,1291.0
KELZ 090256Z AUTO 29006KT 9SM CLR 09/07 A2983 RMK AO2 SLP105 T00890067 51005,KELZ,2023-06-09T02:56:00Z,42.1,-77.98,8.9,6.7,290,6,,9.0,29.828741,1010.5,,TRUE,TRUE,,,,,,,CLR,,,,,,,,VFR,0.5,,,,,,,,,,,METAR,639.0
KEKY 090256Z AUTO 00000KT 10SM SCT050 21/16 A2982 RMK AO2 SLP945 T02060161 53013,KEKY,2023-06-09T02:56:00Z,33.32,-86.93,20.6,16.1,0,0,,10.0,29.819881,994.5,,TRUE,TRUE,,,,,,,SCT,5000,,,,,,,VFR,1.3,,,,,,,,,,,METAR,213.0
KEKQ 090256Z AUTO 00000KT 10SM CLR 13/12 A2989 RMK AO2 SLP118 T01280122 51012,KEKQ,2023-06-09T02:56:00Z,36.85,-84.85,12.8,12.2,0,0,,10.0,29.890747,1011.8,,TRUE,TRUE,,,,,,,CLR,,,,,,,,VFR,1.2,,,,,,,,,,,METAR,291.0
KEKO 090256Z AUTO 22011G21KT 10SM BKN100 BKN120 18/04 A3001 RMK AO2 SLP123 T01830044 53014,KEKO,2023-06-09T02:56:00Z,40.82,-115.78,18.3,4.4,220,11,21,10.0,30.008858,1012.3,,TRUE,TRUE,,,,,,,BKN,10000,BKN,12000,,,,,VFR,1.4,,,,,,,,,,,METAR,1541.0
KEHR 090256Z AUTO 00000KT 10SM CLR 14/11 A2985 RMK AO2 SLP107 T01440111 53009 $,KEHR,2023-06-09T02:56:00Z,37.82,-87.67,14.4,11.1,0,0,,10.0,29.84941,1010.7,,TRUE,TRUE,TRUE,,,,,,CLR,,,,,,,,VFR,0.9,,,,,,,,,,,METAR,117.0
KEGE 090256Z AUTO 07008KT 10SM CLR 17/04 A3011 RMK AO2 SLP102 T01720044 53011,KEGE,2023-06-09T02:56:00Z,39.63,-106.92,17.2,4.4,70,8,,10.0,30.109253,1010.2,,TRUE,TRUE,,,,,,,CLR,,,,,,,,VFR,1.1,,,,,,,,,,,METAR,1993.0
KEEN 090256Z AUTO 00000KT 10SM BKN075 11/10 A2973 RMK AO2 RAB0159E23 SLP072 P0000 60000 T01060100 50007 $,KEEN,2023-06-09T02:56:00Z,42.88,-72.27,10.6,10.0,0,0,,10.0,29.731298,1007.2,,TRUE,TRUE,TRUE,,,,,,BKN,7500,,,,,,,VFR,0.7,,,,,0.005,0.005,,,,,METAR,143.0
KEED 090256Z AUTO 17011KT 10SM CLR 33/01 A2982 RMK AO2 SLP066 T03280011 53001,KEED,2023-06-09T02:56:00Z,34.77,-114.62,32.8,1.1,170,11,,10.0,29.819881,1006.6,,TRUE,TRUE,,,,,,,CLR,,,,,,,,VFR,0.1,,,,,,,,,,,METAR,271.0
KEAU 090256Z AUTO 00000KT 10SM CLR 16/03 A2992 RMK AO2 SLP132 T01610033 53006,KEAU,2023-06-09T02:56:00Z,44.87,-91.48,16.1,3.3,0,0,,10.0,29.920275,1013.2,,TRUE,TRUE,,,,,,,CLR,,,,,,,,VFR,0.6,,,,,,,,,,,METAR,271.0
KEAR 090256Z AUTO 10005KT 10SM CLR 24/18 A2987 RMK AO2 SLP095 T02390178 53007,KEAR,2023-06-09T02:56:00Z,40.72,-99.0,23.9,17.8,100,5,,10.0,29.870079,1009.5,,TRUE,TRUE,,,,,,,CLR,,,,,,,,VFR,0.7,,,,,,,,,,,METAR,649.0
KDYR 090256Z AUTO 03004KT 10SM CLR 23/10 A2984 RMK AO2 SLP106 T02280100 53011,KDYR,2023-06-09T02:56:00Z,36.0,-89.4,22.8,10.0,30,4,,10.0,29.840551,1010.6,,TRUE,TRUE,,,,,,,CLR,,,,,,,,VFR,1.1,,,,,,,,,,,METAR,98.0
KDWU 090256Z AUTO 00000KT 10SM CLR 13/11 A2987 RMK AO2 SLP114 T01330111 53014,KDWU,2023-06-09T02:56:00Z,38.55,-82.73,13.3,11.1,0,0,,10.0,29.870079,1011.4,,TRUE,TRUE,,,,,,,CLR,,,,,,,,VFR,1.4,,,,,,,,,,,METAR,165.0
KDUG 090256Z AUTO 25010KT 10SM CLR 26/M01 A3003 RMK AO2 SLP102 T02611006 53009 TSNO,KDUG,2023-06-09T02:56:00Z,31.47,-109.6,26.1,-0.6,250,10,,10.0,30.029528,1010.2,,TRUE,TRUE,,,TRUE,,,,CLR,,,,,,,,VFR,0.9,,,,,,,,,,,METAR,1260.0
KDIK 090256Z AUTO 08007KT 10SM SCT120 21/17 A2986 RMK AO2 LTG DSNT E AND S SLP093 T02110167 50005,KDIK,2023-06-09T02:56:00Z,46.8,-102.8,21.1,16.7,80,7,,10.0,29.861221,1009.3,,TRUE,TRUE,,,,,,,SCT,12000,,,,,,,VFR,0.5,,,,,,,,,,,METAR,788.0
KDAY 090256Z 32003KT 10SM BKN090 19/04 A2987 RMK AO2 SLP107 T01940039 53011,KDAY,2023-06-09T02:56:00Z,39.9,-84.22,19.4,3.9,320,3,,10.0,29.870079,1010.7,,,TRUE,,,,,,,BKN,9000,,,,,,,VFR,1.1,,,,,,,,,,,METAR,303.0
KD07 090256Z AUTO 14007KT 27/12 A2984 RMK AO1 SLP084 T02720122 50011,KD07,2023-06-09T02:56:00Z,45.03,-102.02,27.2,12.2,140,7,,,29.840551,1008.4,,TRUE,TRUE,,,,,,,,,,,,,,,,1.1,,,,,,,,,,,METAR,786.0
KCXY 090256Z AUTO 32005KT 10SM FU BKN100 19/07 A2978 RMK AO2 SLP085 T01890072 51012,KCXY,2023-06-09T02:56:00Z,40.22,-76.85,18.9,7.2,320,5,,10.0,29.778543,1008.5,,TRUE,TRUE,,,,,,FU,BKN,10000,,,,,,,VFR,1.2,,,,,,,,,,,METAR,102.0
KCWI 090256Z AUTO 06005KT 10SM CLR 17/03 A2993 RMK AO2 SLP135 T01670033 53012,KCWI,2023-06-09T02:56:00Z,41.82,-90.32,16.7,3.3,60,5,,10.0,29.929134,1013.5,,TRUE,TRUE,,,,,,,CLR,,,,,,,,VFR,1.2,,,,,,,,,,,METAR,212.0
KCVO 090256Z AUTO 32012G19KT 10SM CLR 18/11 A2998 RMK AO2 SLP152 T01780106 53007,KCVO,2023-06-09T02:56:00Z,44.5,-123.28,17.8,10.6,320,12,19,10.0,29.97933,1015.2,,TRUE,TRUE,,,,,,,CLR,,,,,,,,VFR,0.7,,,,,,,,,,,METAR,75.0
KCVN 090256Z AUTO 12005KT 10SM CLR 23/12 A3000 RMK AO2 SLP117 T02280117 53010,KCVN,2023-06-09T02:56:00Z,34.42,-103.07,22.8,11.7,120,5,,10.0,30.0,1011.7,,TRUE,TRUE,,,,,,,CLR,,,,,,,,VFR,1.0,,,,,,,,,,,METAR,1278.0
KCOE 090256Z AUTO 00000KT 10SM CLR 18/16 A2994 RMK AO2 RAE49 SLP142 6//// T01780161 50014 PNO $,KCOE,2023-06-09T02:56:00Z,47.77,-116.82,17.8,16.1,0,0,,10.0,29.940945,1014.2,,TRUE,TRUE,TRUE,,,,,,CLR,,,,,,,,VFR,1.4,,,,,,,,,,,METAR,693.0
KCOD 090256Z AUTO 31004KT 10SM FEW110 18/09 A3002 RMK AO2 SLP127 6//// T01780089 53008 PNO $,KCOD,2023-06-09T02:56:00Z,44.52,-109.02,17.8,8.9,310,4,,10.0,30.02067,1012.7,,TRUE,TRUE,TRUE,,,,,,FEW,11000,,,,,,,VFR,0.8,,,,,,,,,,,METAR,1550.0
KCIU 090256Z AUTO 33007KT 10SM BKN080 11/01 A2992 RMK AO2 SLP133 T01060006 51003,KCIU,2023-06-09T02:56:00Z,46.25,-84.47,10.6,0.6,330,7,,10.0,29.920275,1013.3,,TRUE,TRUE,,,,,,,BKN,8000,,,,,,,VFR,0.3,,,,,,,,,,,METAR,242.0
KCHS 090256Z 00000KT 10SM SCT070 SCT080 23/20 A2979 RMK AO2 SLP087 T02280200 51017,KCHS,2023-06-09T02:56:00Z,32.9,-80.03,22.8,20.0,0,0,,10.0,29.790354,1008.7,,,TRUE,,,,,,,SCT,7000,SCT,8000,,,,,VFR,1.7,,,,,,,,,,,METAR,12.0
KCGZ 090256Z AUTO 30007KT 10SM CLR 30/M05 A2988 RMK AO2 SLP105 6//// T03001050 53006 PNO $,KCGZ,2023-06-09T02:56:00Z,32.95,-111.77,30.0,-5.0,300,7,,10.0,29.878937,1010.5,,TRUE,TRUE,TRUE,,,,,,CLR,,,,,,,,VFR,0.6,,,,,,,,,,,METAR,444.0
KCAE 090256Z 06003KT 9SM SCT060 BKN085 23/16 A2979 RMK AO2 SLP085 T02280161 51018,KCAE,2023-06-09T02:56:00Z,33.93,-81.12,22.8,16.1,60,3,,9.0,29.790354,1008.5,,,TRUE,,,,,,,SCT,6000,BKN,8500,,,,,VFR,1.8,,,,,,,,,,,METAR,69.0
KBZN 090256Z 04003KT 10SM CLR 15/14 A2999 RMK AO2 SLP131 60001 T01500139 58006,KBZN,2023-06-09T02:56:00Z,45.78,-111.17,15.0,13.9,40,3,,10.0,29.991142,1013.1,,,TRUE,,,,,,,CLR,,,,,,,,VFR,-0.6,,,,,,0.01,,,,,METAR,1349.0
KBTP 090256Z AUTO 00000KT 10SM BKN070 OVC095 14/08 A2984 RMK AO2 SLP108 T01390078 51007 TSNO $,KBTP,2023-06-09T02:56:00Z,40.77,-79.95,13.9,7.8,0,0,,10.0,29.840551,1010.8,,TRUE,TRUE,TRUE,,TRUE,,,,BKN,7000,OVC,9500,,,,,VFR,0.7,,,,,,,,,,,METAR,375.0
KBMI 090256Z 06009KT 10SM CLR 17/03 A2992 RMK AO2 SLP127 T01670033 53020,KBMI,2023-06-09T02:56:00Z,40.47,-88.92,16.7,3.3,60,9,,10.0,29.920275,1012.7,,,TRUE,,,,,,,CLR,,,,,,,,VFR,2.0,,,,,,,,,,,METAR,262.0
KBLM 090256Z AUTO 24003KT 3SM BR BKN120 A2976 RMK AO2 SLPNO 60005 53010 FZRANO $,KBLM,2023-06-09T02:56:00Z,40.17,-74.12,,,240,3,,3.0,29.760826,,,TRUE,TRUE,TRUE,,,TRUE,,BR,BKN,12000,,,,,,,MVFR,1.0,,,,,,0.05,,,,,METAR,45.0
KBKX 090256Z AUTO 12009KT 10SM CLR 23/17 A2989 RMK AO2 PRESRR SLP124 T02280167 53015,KBKX,2023-06-09T02:56:00Z,44.3,-96.82,22.8,16.7,120,9,,10.0,29.890747,1012.4,,TRUE,TRUE,,,,,,,CLR,,,,,,,,VFR,1.5,,,,,,,,,,,METAR,494.0
KBJJ 090256Z AUTO 33003KT 10SM BKN100 14/07 A2986 RMK AO2 SLP108 T01440067 51009,KBJJ,2023-06-09T02:56:00Z,40.87,-81.88,14.4,6.7,330,3,,10.0,29.861221,1010.8,,TRUE,TRUE,,,,,,,BKN,10000,,,,,,,VFR,0.9,,,,,,,,,,,METAR,338.0
KBID 090256Z AUTO 23006KT 6SM BR CLR 13/12 A2974 RMK AO2 SLP071 T01330117 50006,KBID,2023-06-09T02:56:00Z,41.17,-71.58,13.3,11.7,230,6,,6.0,29.740158,1007.1,,TRUE,TRUE,,,,,,BR,CLR,,,,,,,,VFR,0.6,,,,,,,,,,,METAR,32.0
KAWO 090256Z AUTO 31008KT 10SM CLR 19/11 A2993 RMK AO2 SLP139 T01940106 53006,KAWO,2023-06-09T02:56:00Z,48.17,-122.17,19.4,10.6,310,8,,10.0,29.929134,1013.9,,TRUE,TRUE,,,,,,,CLR,,,,,,,,VFR,0.6,,,,,,,,,,,METAR,38.0
KASH 090256Z AUTO 29004KT 10SM SCT100 11/11 A2973 RMK AO2 SLP072 T01110111 53005,KASH,2023-06-09T02:56:00Z,42.78,-71.52,11.1,11.1,290,4,,10.0,29.731298,1007.2,,TRUE,TRUE,,,,,,,SCT,10000,,,,,,,VFR,0.5,,,,,,,,,,,METAR,56.0
KART 090256Z AUTO 15003KT 10SM FEW060 BKN070 OVC090 11/10 A2977 RMK AO2 SLP080 T01110100 51005,KART,2023-06-09T02:56:00Z,43.98,-76.03,11.1,10.0,150,3,,10.0,29.769686,1008.0,,TRUE,TRUE,,,,,,,FEW,6000,BKN,7000,OVC,9000,,,VFR,0.5,,,,,,,,,,,METAR,100.0
KARG 090256Z AUTO 29003KT 10SM FEW100 23/19 A2983 RMK AO2 SLP098 T02330194 53009,KARG,2023-06-09T02:56:00Z,36.12,-90.92,23.3,19.4,290,3,,10.0,29.828741,1009.8,,TRUE,TRUE,,,,,,,FEW,10000,,,,,,,VFR,0.9,,,,,,,,,,,METAR,82.0
KAND 090256Z AUTO VRB04KT 10SM BKN065 OVC080 22/09 A2983 RMK AO2 SLP093 T02220089 51027,KAND,2023-06-09T02:56:00Z,34.5,-82.72,22.2,8.9,0,4,,10.0,29.828741,1009.3,,TRUE,TRUE,,,,,,,BKN,6500,OVC,8000,,,,,VFR,2.7,,,,,,,,,,,METAR,233.0
KALK 090256Z AUTO 22009KT 10SM CLR 23/M04 A3010 RMK AO2 SLP104 T02281044 53011,KALK,2023-06-09T02:56:00Z,31.6,-110.43,22.8,-4.4,220,9,,10.0,30.100393,1010.4,,TRUE,TRUE,,,,,,,CLR,,,,,,,,VFR,1.1,,,,,,,,,,,METAR,1451.0
KAJO 090256Z AUTO 28012KT 10SM CLR 19/12 A3000 RMK AO2 SLP152 T01890122 53007,KAJO,2023-06-09T02:56:00Z,33.9,-117.6,18.9,12.2,280,12,,10.0,30.0,1015.2,,TRUE,TRUE,,,,,,,CLR,,,,,,,,VFR,0.7,,,,,,,,,,,METAR,161.0
KAIZ 090256Z AUTO 05003KT 10SM CLR 18/16 RMK AO2 SLPNO T01830156 $,KAIZ,2023-06-09T02:56:00Z,38.1,-92.53,18.3,15.6,50,3,,10.0,,,,TRUE,TRUE,TRUE,,,,,,CLR,,,,,,,,VFR,,,,,,,,,,,,METAR,263.0
KAFJ 090256Z AUTO 00000KT 10SM FEW110 13/09 A2987 RMK AO2 SLP111 T01330094 53009,KAFJ,2023-06-09T02:56:00Z,40.13,-80.28,13.3,9.4,0,0,,10.0,29.870079,1011.1,,TRUE,TRUE,,,,,,,FEW,11000,,,,,,,VFR,0.9,,,,,,,,,,,METAR,360.0
KADF 090256Z AUTO 00000KT 8SM CLR 21/21 A2986 RMK AO2 SLP108 60000 T02110211 51024,KADF,2023-06-09T02:56:00Z,34.1,-93.07,21.1,21.1,0,0,,8.0,29.861221,1010.8,,TRUE,TRUE,,,,,,,CLR,,,,,,,,VFR,2.4,,,,,,0.005,,,,,METAR,54.0
K8D3 090256Z AUTO 13009KT 23/17 A2986 RMK AO1 SLP097 T02280172 53014,K8D3,2023-06-09T02:56:00Z,45.67,-96.98,22.8,17.2,130,9,,,29.861221,1009.7,,TRUE,TRUE,,,,,,,,,,,,,,,,1.4,,,,,,,,,,,METAR,535.0
K79J 090256Z AUTO 00000KT 10SM CLR 26/19 A2979 RMK AO2 SLP081 T02610194 53018,K79J,2023-06-09T02:56:00Z,31.32,-86.4,26.1,19.4,0,0,,10.0,29.790354,1008.1,,TRUE,TRUE,,,,,,,CLR,,,,,,,,VFR,1.8,,,,,,,,,,,SPECI,93.0
K2WX 090256Z AUTO 08008KT 25/14 A2984 RMK AO1 SLP074 T02500139 51010,K2WX,2023-06-09T02:56:00Z,45.6,-103.55,25.0,13.9,80,8,,,29.840551,1007.4,,TRUE,TRUE,,,,,,,,,,,,,,,,1.0,,,,,,,,,,,METAR,925.0
K1M4 090256Z AUTO 00000KT 10SM CLR 20/13 A2986 RMK AO2 SLP098 6//// T02000133 53012 PNO $,K1M4,2023-06-09T02:56:00Z,34.28,-87.6,20.0,13.3,0,0,,10.0,29.861221,1009.8,,TRUE,TRUE,TRUE,,,,,,CLR,,,,,,,,VFR,1.2,,,,,,,,,,,METAR,283.0
TXKF 090255Z 22018KT 9999 SCT007 SCT016 BKN220 23/23 Q1011 ,TXKF,2023-06-09T02:55:00Z,32.37,-64.68,23.0,23.0,220,18,,6.21,29.852362,,,,,,,,,,,SCT,700,SCT,1600,BKN,22000,,,VFR,,,,,,,,,,,,METAR,4.0
TNCE 090255Z AUTO 07013KT //// // ///////// 28/25 Q1018 RE//,TNCE,2023-06-09T02:55:00Z,17.48,-62.97,28.0,25.0,70,13,,,30.059055,,,TRUE,,,,,,,,,,,,,,,,,,,,,,,,,,,,METAR,38.0
TNCB 090255Z AUTO 08016KT 9999 FEW017/// 28/24 Q1015,TNCB,2023-06-09T02:55:00Z,12.13,-68.28,28.0,24.0,80,16,,6.21,29.970472,,,TRUE,,,,,,,,FEW,1700,,,,,,,VFR,,,,,,,,,,,,METAR,6.0
RODN 090255Z 23006KT 10SM BKN180 BKN210 30/24 A2971 RMK AO2A SLP066 T03020238 57009 FZRANO $,RODN,2023-06-09T02:55:00Z,26.35,127.77,30.2,23.8,230,6,,10.0,29.71063,1006.6,,,TRUE,TRUE,,,TRUE,,,BKN,18000,BKN,21000,,,,,VFR,-0.9,,,,,,,,,,,SPECI,38.0
RKSG 090255Z 24006KT 10SM FEW200 26/19 A2965 RMK AO2A SLP043 T02580194 50002 $,RKSG,2023-06-09T02:55:00Z,36.97,127.02,25.8,19.4,240,6,,10.0,29.648623,1004.3,,,TRUE,TRUE,,,,,,FEW,20000,,,,,,,VFR,0.2,,,,,,,,,,,SPECI,12.0
RKJK 090255Z 28007KT 4SM HZ FEW160 SCT190 SCT210 23/17 A2967 RMK AO2A SLP051 T02300172 53004 $,RKJK,2023-06-09T02:55:00Z,35.9,126.62,23.0,17.2,280,7,,4.0,29.66929,1005.1,,,TRUE,TRUE,,,,,HZ,FEW,16000,SCT,19000,SCT,21000,,,MVFR,0.4,,,,,,,,,,,SPECI,8.0
PWAK 090255Z AUTO 07009KT 9SM CLR 30/23 A2988 RMK AO2 SLP124 T03020233 57016,PWAK,2023-06-09T02:55:00Z,19.28,166.62,30.2,23.3,70,9,,9.0,29.878937,1012.4,,TRUE,TRUE,,,,,,,CLR,,,,,,,,VFR,-1.6,,,,,,,,,,,SPECI,7.0
PTKK 090255Z VRB03KT 15SM FEW013 BKN120 OVC280 29/26 A2978 RMK SLP086 60016 8/128 T02850256 57024,PTKK,2023-06-09T02:55:00Z,7.47,151.85,28.5,25.6,0,3,,15.0,29.778543,1008.6,,,,,,,,,,FEW,1300,BKN,12000,OVC,28000,,,VFR,-2.4,,,,,,,,,,,SPECI,3.0
PHSF 090255Z AUTO 28009KT 8SM SCT011 OVC018 17/14 A3035 RMK AO2 SLP178 T01720139 55004 $,PHSF,2023-06-09T02:55:00Z,19.77,-155.55,17.2,13.9,280,9,,8.0,30.351377,1017.8,,TRUE,TRUE,TRUE,,,,,,SCT,1100,OVC,1800,,,,,MVFR,-0.4,,,,,,,,,,,SPECI,1863.0
PHHI 090255Z AUTO 07012KT 10SM CLR 26/19 A3006 RMK AO2 SLP171 T02600186 55004 $,PHHI,2023-06-09T02:55:00Z,21.48,-158.05,26.0,18.6,70,12,,10.0,30.059055,1017.1,,TRUE,TRUE,TRUE,,,,,,CLR,,,,,,,,VFR,-0.4,,,,,,,,,,,SPECI,246.0
PGUA 090255Z VRB06KT 10SM SCT012 29/26 A2983 RMK SCT V BKN SLPNO WND DATA/ALSTG ESTMD RVRNO,PGUA,2023-06-09T02:55:00Z,13.57,144.92,29.0,26.0,0,6,,10.0,29.828741,,,,,,,,,,,SCT,1200,,,,,,,VFR,,,,,,,,,,,,SPECI,159.0
PAWG 090255Z VRB04KT 10SM OVC150 21/09 A2996,PAWG,2023-06-09T02:55:00Z,56.48,-132.37,21.0,9.0,0,4,,10.0,29.958662,,,,,,,,,,,OVC,15000,,,,,,,VFR,,,,,,,,,,,,METAR,6.0
PATL 090255Z AUTO 00000KT 10SM BKN075 18/06 A2957 RMK AO2 SHRAB0228E0245 SLP009 T01760055 54001,PATL,2023-06-09T02:55:00Z,62.9,-155.97,17.6,5.5,0,0,,10.0,29.568897,1000.9,,TRUE,TRUE,,,,,,,BKN,7500,,,,,,,VFR,,,,,,,,,,,,METAR,261.0
PATC 090255Z AUTO 02034KT 10SM SCT003 01/00 A2960 RMK AO2 PK WND 02038/0241 SLP028 T00120004 57010,PATC,2023-06-09T02:55:00Z,65.57,-167.92,1.2,0.4,20,34,,10.0,29.601377,1002.8,,TRUE,TRUE,,,,,,,SCT,300,,,,,,,VFR,-1.0,,,,,,,,,,,METAR,77.0
PASY 090255Z AUTO M M M M 06/04 A2966,PASY,2023-06-09T02:55:00Z,52.72,174.12,6.0,4.0,,,,,29.660433,,,TRUE,,,,,,,,,,,,,,,,,,,,,,,,,,,,METAR,6.0
PASV 090255Z AUTO 13010KT 10SM OVC055 14/03 A2956 RMK AO2 RAB0142E0214SHRAB0214E0226 SLP008 T01380034 50005,PASV,2023-06-09T02:55:00Z,61.1,-155.57,13.8,3.4,130,10,,10.0,29.56004,1000.8,,TRUE,TRUE,,,,,,,OVC,5500,,,,,,,VFR,0.5,,,,,,,,,,,METAR,462.0
PALU 090255Z AUTO 09011G18KT 10SM FEW014 06/02 A2987 RMK AO2 SLP113 T00560022 56005,PALU,2023-06-09T02:55:00Z,68.88,-166.1,5.6,2.2,90,11,18,10.0,29.870079,1011.3,,TRUE,TRUE,,,,,,,FEW,1400,,,,,,,VFR,-0.5,,,,,,,,,,,METAR,8.0
PAFR 090255Z AUTO 00000KT 10SM OVC090 14/08 A2969 RMK AO2 SLP060 T01400082 52007 $,PAFR,2023-06-09T02:55:00Z,61.27,-149.65,14.0,8.2,0,0,,10.0,29.68996,1006.0,,TRUE,TRUE,TRUE,,,,,,OVC,9000,,,,,,,VFR,0.7,,,,,,,,,,,METAR,106.0
PAFB 090255Z AUTO 08008KT 10SM CLR 22/09 A2956 RMK AO2 SLP015 T02200088 57010 FZRANO $,PAFB,2023-06-09T02:55:00Z,64.83,-147.62,22.0,8.8,80,8,,10.0,29.56004,1001.5,,TRUE,TRUE,TRUE,,,TRUE,,,CLR,,,,,,,,VFR,-1.0,,,,,,,,,,,METAR,137.0
PAEI 090255Z 03007KT 10SM FEW085 BKN220 23/08 A2953 RMK AO2A SLP002 T02300079 57012 $,PAEI,2023-06-09T02:55:00Z,64.67,-147.1,23.0,7.9,30,7,,10.0,29.530512,1000.2,,,TRUE,TRUE,,,,,,FEW,8500,BKN,22000,,,,,VFR,-1.2,,,,,,,,,,,METAR,166.0
PAED 090255Z 26004KT 10SM FEW050 BKN080 OVC100 13/09 A2967 RMK AO2A RAB0108E40 SLP044 P0000 60000 T01260092 51006 $,PAED,2023-06-09T02:55:00Z,61.25,-149.83,12.6,9.2,260,4,,10.0,29.66929,1004.4,,,TRUE,TRUE,,,,,,FEW,5000,BKN,8000,OVC,10000,,,VFR,0.6,,,,,0.005,0.005,,,,,METAR,54.0
OTBH 090255Z 26003KT 9999 CLR 32/20 A2958 Q1001 RMK AO2A SLP017 T03150201 FZRANO $,OTBH,2023-06-09T02:55:00Z,25.12,51.32,31.5,20.1,260,3,,6.21,29.557087,1001.7,,,TRUE,TRUE,,,TRUE,,,CLR,,,,,,,,VFR,,,,,,,,,,,,METAR,40.0
OKAS 090255Z 33011KT 9999 CLR 32/04 A2965 RMK AO2A SLP034 T03190038 53011 FZRANO $,OKAS,2023-06-09T02:55:00Z,29.35,47.52,31.9,3.8,330,11,,6.21,29.648623,1003.4,,,TRUE,TRUE,,,TRUE,,,CLR,,,,,,,,VFR,1.1,,,,,,,,,,,METAR,144.0
OEPS 090255Z VRB04KT 9999 CLR 30/M03 A2983 RMK AO2A SLP077 WND DATA ESTMD T03011026 51007,OEPS,2023-06-09T02:55:00Z,24.07,47.58,30.1,-2.6,0,4,,6.21,29.828741,1007.7,,,TRUE,,,,,,,CLR,,,,,,,,VFR,0.7,,,,,,,,,,,METAR,503.0
NZCM 090255Z AUTO 15033G42KT 6000 BLSN SCT012 BKN036 BKN044 OVC160 M08/M11 A2925 RMK AO2 PK WND 15052/0218 SLP911 T10841107 53037,NZCM,2023-06-09T02:55:00Z,-77.85,166.67,-8.4,-10.7,150,33,42,3.73,29.25,991.1,,TRUE,TRUE,,,,,,BLSN,SCT,1200,BKN,3600,BKN,4400,OVC,16000,MVFR,3.7,,,,,,,,,,,METAR,24.0
LIVT 090255Z AUTO 06003KT //// 19/16 Q1011,LIVT,2023-06-09T02:55:00Z,45.68,13.75,19.0,16.0,60,3,,,29.852362,,,TRUE,,,,,,,,,,,,,,,,,,,,,,,,,,,,METAR,20.0
LIVR 090255Z 34003KT CAVOK 07/03 Q1019 RMK SCT SCT170 MON LIB VIS MIN 9999,LIVR,2023-06-09T02:55:00Z,46.28,11.78,7.0,3.0,340,3,,6.21,30.088583,,,,,,,,,,,CAVOK,,,,,,,,VFR,,,,,,,,,,,,METAR,1997.0
LIVP 090255Z 20004KT CAVOK 07/02 Q1018,LIVP,2023-06-09T02:55:00Z,46.15,11.03,7.0,2.0,200,4,,6.21,30.059055,,,,,,,,,,,CAVOK,,,,,,,,VFR,,,,,,,,,,,,METAR,2099.0
LIVM 090255Z AUTO 23002KT //// 19/16 Q1011,LIVM,2023-06-09T02:55:00Z,44.45,12.3,19.0,16.0,230,2,,,29.852362,,,TRUE,,,,,,,,,,,,,,,,,,,,,,,,,,,,METAR,6.0
LIVF 090255Z 18003KT CAVOK 17/14 Q1014 RMK SKC MON LIB VAL W CLD SCT VIS MIN 9999,LIVF,2023-06-09T02:55:00Z,43.52,12.72,17.0,14.0,180,3,,6.21,29.940945,,,,,,,,,,,CAVOK,,,,,,,,VFR,,,,,,,,,,,,METAR,549.0
LIVD 090255Z AUTO VRB02KT //// 05/05 Q1018,LIVD,2023-06-09T02:55:00Z,46.72,12.22,5.0,5.0,0,2,,,30.059055,,,TRUE,,,,,,,,,,,,,,,,,,,,,,,,,,,,METAR,1221.0
LIVC 090255Z AUTO 28005KT //// 08/02 Q1020,LIVC,2023-06-09T02:55:00Z,44.2,10.68,8.0,2.0,280,5,,,30.11811,,,TRUE,,,,,,,,,,,,,,,,,,,,,,,,,,,,METAR,2139.0
LIRS 090255Z 06004KT 9999 FEW010 16/14 Q1012 RMK SCT VIS MIN 9999 WIND THR03 07003KT WIND THR21 VRB01KT BLU,LIRS,2023-06-09T02:55:00Z,42.75,11.07,16.0,14.0,60,4,,6.21,29.88189,,,,,,,,,,,FEW,1000,,,,,,,VFR,,,,,,,,,,,,METAR,3.0
LIRM 090255Z 05003KT 8000 SCT060 17/16 Q1013 RMK SCT VIS MIN 8000 WIND THR06 07003KT BLU,LIRM,2023-06-09T02:55:00Z,41.05,14.07,17.0,16.0,50,3,,4.97,29.911417,,,,,,,,,,,SCT,6000,,,,,,,MVFR,,,,,,,,,,,,METAR,6.0
LIRK 090255Z AUTO /////KT //// ///// Q////,LIRK,2023-06-09T02:55:00Z,42.47,12.97,,,,,,,,,,TRUE,,,,,,,,,,,,,,,,,,,,,,,,,,,,METAR,1721.0
LIQO 090255Z AUTO 36000KT //// ///// Q////,LIQO,2023-06-09T02:55:00Z,42.38,11.17,,,360,0,,,,,,TRUE,,,,,,,,,,,,,,,,,,,,,,,,,,,,METAR,627.0
LIQC 090255Z 00000KT CAVOK 21/19 Q1015 RMK SKC QUK / QUL / VIS MAR 20 KM VIS MIN 9999,LIQC,2023-06-09T02:55:00Z,40.55,14.2,21.0,19.0,0,0,,6.21,29.970472,,,,,,,,,,,CAVOK,,,,,,,,VFR,,,,,,,,,,,,METAR,154.0
LIPS 090255Z 00000KT CAVOK 15/14 Q1012 RMK SKC VIS MIN 9999 WIND THR26 00000KT WIND THR08 00000KT BLU,LIPS,2023-06-09T02:55:00Z,45.68,12.1,15.0,14.0,0,0,,6.21,29.88189,,,,,,,,,,,CAVOK,,,,,,,,VFR,,,,,,,,,,,,METAR,42.0
LIPL 090255Z 04004KT 9999 SCT080 19/19 Q1011 RMK SCT VIS MIN 9999 WIND THR31 /////KT WIND THR13 02005KT BLU,LIPL,2023-06-09T02:55:00Z,45.42,10.27,19.0,19.0,40,4,,6.21,29.852362,,,,,,,,,,,SCT,8000,,,,,,,VFR,,,,,,,,,,,,METAR,96.0
LIPI 090255Z 34004KT CAVOK 15/12 Q1011 RMK FEW FEW180 VIS MIN 9999 WIND THR06 02005KT WIND THR24 35004KT BLU,LIPI,2023-06-09T02:55:00Z,45.97,13.05,15.0,12.0,340,4,,6.21,29.852362,,,,,,,,,,,CAVOK,,,,,,,,VFR,,,,,,,,,,,,METAR,49.0
LIPC 090255Z 27004KT CAVOK 17/15 Q1012 RMK SKC VIS MIN 9999 WIND THR11 27003KT WIND THR29 28004KT BLU,LIPC,2023-06-09T02:55:00Z,44.22,12.3,17.0,15.0,270,4,,6.21,29.88189,,,,,,,,,,,CAVOK,,,,,,,,VFR,,,,,,,,,,,,METAR,10.0
LIED 090255Z 06005KT CAVOK 18/16 Q1011 RMK BKN BKN200 VIS MIN 9999 WIND THR35 /////KT WIND THR17 07004KT BLU,LIED,2023-06-09T02:55:00Z,39.35,8.97,18.0,16.0,60,5,,6.21,29.852362,,,,,,,,,,,CAVOK,,,,,,,,VFR,,,,,,,,,,,,METAR,26.0
LIEB 090255Z 29010KT 9999 SCT025 18/16 Q1012 RMK BKN SCT070 QUK / QUL / VIS MAR 20 KM MON INVIS VIS MIN 9999,LIEB,2023-06-09T02:55:00Z,39.93,9.72,18.0,16.0,290,10,,6.21,29.88189,,,,,,,,,,,SCT,2500,,,,,,,VFR,,,,,,,,,,,,METAR,126.0
LICZ 090255Z 27004KT CAVOK 16/16 Q1012 RMK SKC VIS MIN 9999 WIND THR28 27004KT WIND THR10 28005KT A2994 BLU,LICZ,2023-06-09T02:55:00Z,37.4,14.92,16.0,16.0,270,4,,6.21,29.88189,,,,,,,,,,,CAVOK,,,,,,,,VFR,,,,,,,,,,,,METAR,22.0
LICT 090255Z 18002KT CAVOK 15/13 Q1013 RMK SKC VIS MIN 9999 WIND THR13 16005KT BLU,LICT,2023-06-09T02:55:00Z,37.92,12.5,15.0,13.0,180,2,,6.21,29.911417,,,,,,,,,,,CAVOK,,,,,,,,VFR,,,,,,,,,,,,METAR,4.0
LIBV 090255Z 12003KT CAVOK 14/14 Q1012 RMK SKC VIS MIN 9999 WIND THR32 22001KT WIND THR14 /////KT BLU,LIBV,2023-06-09T02:55:00Z,40.77,16.93,14.0,14.0,120,3,,6.21,29.88189,,,,,,,,,,,CAVOK,,,,,,,,VFR,,,,,,,,,,,,METAR,344.0
LIBQ 090255Z AUTO 08004KT //// 13/08 Q1019,LIBQ,2023-06-09T02:55:00Z,39.32,16.38,13.0,8.0,80,4,,,30.088583,,,TRUE,,,,,,,,,,,,,,,,,,,,,,,,,,,,METAR,1660.0
LIBN 090255Z 34003KT 3000 BR FEW006 17/16 Q1012 RMK FEW VIS MIN 3000 WIND THR14 29005KT WIND THR32 /////KT YLO,LIBN,2023-06-09T02:55:00Z,40.23,18.13,17.0,16.0,340,3,,1.86,29.88189,,,,,,,,,,BR,FEW,600,,,,,,,IFR,,,,,,,,,,,,METAR,46.0
LIBA 090255Z 24004KT CAVOK 17/15 Q1012 RMK SKC VIS MIN 9999 WIND THR11 24002KT WIND THR29 /////KT BLU,LIBA,2023-06-09T02:55:00Z,41.53,15.72,17.0,15.0,240,4,,6.21,29.88189,,,,,,,,,,,CAVOK,,,,,,,,VFR,,,,,,,,,,,,METAR,55.0
KXNO 090255Z AUTO 00000KT 10SM CLR 18/18 A2979 RMK AO2 SLPNO T01840184 52019 $,KXNO,2023-06-09T02:55:00Z,33.62,-81.07,18.4,18.4,0,0,,10.0,29.790354,,,TRUE,TRUE,TRUE,,,,,,CLR,,,,,,,,VFR,1.9,,,,,,,,,,,METAR,94.0
KXIF 090255Z AUTO 00000KT 10SM BKN095 12/07 A2979 RMK AO2 SLP089 T01240071 52015 $,KXIF,2023-06-09T02:55:00Z,,,12.4,7.1,0,0,,10.0,29.790354,1008.9,,TRUE,TRUE,TRUE,,,,,,BKN,9500,,,,,,,VFR,1.5,,,,,,,,,,,METAR,
KWRI 090255Z AUTO 33005KT 10SM BKN090 17/08 A2974 RMK AO2 SLP070 T01740077 52013,KWRI,2023-06-09T02:55:00Z,40.02,-74.58,17.4,7.7,330,5,,10.0,29.740158,1007.0,,TRUE,TRUE,,,,,,,BKN,9000,,,,,,,VFR,1.3,,,,,,,,,,,METAR,35.0
KWRB 090255Z AUTO 36003KT 10SM FEW075 24/14 A2977 RMK AO2 SLPNO T02390143 52024,KWRB,2023-06-09T02:55:00Z,32.63,-83.58,23.9,14.3,360,3,,10.0,29.769686,,,TRUE,TRUE,,,,,,,FEW,7500,,,,,,,VFR,2.4,,,,,,,,,,,METAR,82.0
KVPS 090255Z AUTO 26006KT 10SM CLR 26/23 A2979 RMK AO2 SLPNO T02580227 52018 $,KVPS,2023-06-09T02:55:00Z,30.47,-86.52,25.8,22.7,260,6,,10.0,29.790354,,,TRUE,TRUE,TRUE,,,,,,CLR,,,,,,,,VFR,1.8,,,,,,,,,,,METAR,21.0
KVOK 090255Z AUTO 28004KT 10SM CLR 10/05 A2991 RMK AO2 SLP132 T00960046 51009,KVOK,2023-06-09T02:55:00Z,43.93,-90.27,9.6,4.6,280,4,,10.0,29.911417,1013.2,,TRUE,TRUE,,,,,,,CLR,,,,,,,,VFR,0.9,,,,,,,,,,,METAR,278.0
KVAD 090255Z AUTO 23007KT 10SM CLR 25/21 A2976 RMK AO2 SLPNO T02530214 52019 $,KVAD,2023-06-09T02:55:00Z,30.97,-83.2,25.3,21.4,230,7,,10.0,29.760826,,,TRUE,TRUE,TRUE,,,,,,CLR,,,,,,,,VFR,1.9,,,,,,,,,,,METAR,70.0
KTTS 090255Z AUTO 22005KT 10SM CLR 24/22 A2979 RMK AO2 SLPNO T02430218 52019 $,KTTS,2023-06-09T02:55:00Z,28.58,-80.67,24.3,21.8,220,5,,10.0,29.790354,,,TRUE,TRUE,TRUE,,,,,,CLR,,,,,,,,VFR,1.9,,,,,,,,,,,METAR,1.0
KTIK 090255Z AUTO 21004KT 10SM CLR 25/16 A2980 RMK AO2 SLPNO T02490155 52013 $,KTIK,2023-06-09T02:55:00Z,35.4,-97.38,24.9,15.5,210,4,,10.0,29.799213,,,TRUE,TRUE,TRUE,,,,,,CLR,,,,,,,,VFR,1.3,,,,,,,,,,,METAR,387.0
KTHM 090255Z AUTO 00000KT 10SM 18/17 A3000 RMK Thompson Falls ,KTHM,2023-06-09T02:55:00Z,47.57,-115.28,18.0,17.0,0,0,,10.0,30.0,,,TRUE,,,,,,,,,,,,,,,,,,,,,,,,,,,,METAR,751.0
KTDR 090255Z AUTO 26008KT 10SM CLR 26/24 A2977 RMK AO2 SLPNO T02590235 52018 $,KTDR,2023-06-09T02:55:00Z,30.05,-85.52,25.9,23.5,260,8,,10.0,29.769686,,,TRUE,TRUE,TRUE,,,,,,CLR,,,,,,,,VFR,1.8,,,,,,,,,,,METAR,4.0
KTCM 090255Z AUTO 29006KT 10SM FEW190 21/11 A2993 RMK AO2 SLP138 T02060110 53001 $,KTCM,2023-06-09T02:55:00Z,47.13,-122.47,20.6,11.0,290,6,,10.0,29.929134,1013.8,,TRUE,TRUE,TRUE,,,,,,FEW,19000,,,,,,,VFR,0.1,,,,,,,,,,,METAR,87.0
KTBN 090255Z AUTO 07003KT 10SM BKN034 OVC130 19/12 A2986 RMK AO2 SLPNO 60000 T01860123 53008,KTBN,2023-06-09T02:55:00Z,37.73,-92.13,18.6,12.3,70,3,,10.0,29.861221,,,TRUE,TRUE,,,,,,,BKN,3400,OVC,13000,,,,,VFR,0.8,,,,,,0.005,,,,,METAR,349.0
KSZL 090255Z AUTO 07004KT 10SM OVC055 18/15 A2986 RMK AO2 SLPNO T01830148 53009,KSZL,2023-06-09T02:55:00Z,38.73,-93.53,18.3,14.8,70,4,,10.0,29.861221,,,TRUE,TRUE,,,,,,,OVC,5500,,,,,,,VFR,0.9,,,,,,,,,,,SPECI,259.0
KSXS 090255Z AUTO 02003KT 10SM CLR 25/20 A2977 RMK AO2 SLPNO T02510197 52018,KSXS,2023-06-09T02:55:00Z,31.37,-85.85,25.1,19.7,20,3,,10.0,29.769686,,,TRUE,TRUE,,,,,,,CLR,,,,,,,,VFR,1.8,,,,,,,,,,,METAR,120.0
KSUU 090255Z AUTO 24019KT 10SM CLR 19/11 A2996 RMK AO2 SLP152 T01880106 52005 $,KSUU,2023-06-09T02:55:00Z,38.27,-121.93,18.8,10.6,240,19,,10.0,29.958662,1015.2,,TRUE,TRUE,TRUE,,,,,,CLR,,,,,,,,VFR,0.5,,,,,,,,,,,METAR,9.0
KSUN 090255Z 30013KT 10SM -RA OVC110 11/09 A3010,KSUN,2023-06-09T02:55:00Z,43.5,-114.28,11.0,9.0,300,13,,10.0,30.100393,,,,,,,,,,-RA,OVC,11000,,,,,,,VFR,,,,,,,,,,,,METAR,1619.0
KSSC 090255Z 00000KT 10SM FEW065 BKN075 20/16 A2978 RMK AO2A SLPNO 60000 T02040164 52018,KSSC,2023-06-09T02:55:00Z,33.97,-80.47,20.4,16.4,0,0,,10.0,29.778543,,,,TRUE,,,,,,,FEW,6500,BKN,7500,,,,,VFR,1.8,,,,,,0.005,,,,,METAR,71.0
KSLI 090255Z 29008KT 10SM FEW020 FEW250 17/13 A2998 RMK AO2A SLP155 T01730126 53006,KSLI,2023-06-09T02:55:00Z,33.78,-118.03,17.3,12.6,290,8,,10.0,29.97933,1015.5,,,TRUE,,,,,,,FEW,2000,FEW,25000,,,,,VFR,0.6,,,,,,,,,,,METAR,8.0
KSKF 090255Z AUTO 07005KT 10SM CLR 28/24 A2982 RMK AO2 SLPNO T02750241 52016 $,KSKF,2023-06-09T02:55:00Z,29.38,-98.57,27.5,24.1,70,5,,10.0,29.819881,,,TRUE,TRUE,TRUE,,,,,,CLR,,,,,,,,VFR,1.6,,,,,,,,,,,METAR,214.0
KSEQ 090255Z AUTO 09005KT 10SM CLR 25/23 A2982 RMK AO2 SLP093 T02500234 52016,KSEQ,2023-06-09T02:55:00Z,29.57,-97.9,25.0,23.4,90,5,,10.0,29.819881,1009.3,,TRUE,TRUE,,,,,,,CLR,,,,,,,,VFR,1.6,,,,,,,,,,,METAR,160.0
KSCK 090255Z 32009KT 10SM CLR 23/12 A2996 RMK AO2 SLP145 T02280117 53003,KSCK,2023-06-09T02:55:00Z,37.88,-121.22,22.8,11.7,320,9,,10.0,29.958662,1014.5,,,TRUE,,,,,,,CLR,,,,,,,,VFR,0.3,,,,,,,,,,,METAR,8.0
KRYM 090255Z AUTO 11005KT 10SM CLR 20/09 A2990 RMK AO2 SLP127 T01960092 52013 $,KRYM,2023-06-09T02:55:00Z,46.08,-94.37,19.6,9.2,110,5,,10.0,29.899607,1012.7,,TRUE,TRUE,TRUE,,,,,,CLR,,,,,,,,VFR,1.3,,,,,,,,,,,METAR,344.0
KRND 090255Z AUTO 00000KT 10SM CLR 25/23 A2982 RMK AO2 SLP090 T02530231 52017 $,KRND,2023-06-09T02:55:00Z,29.53,-98.27,25.3,23.1,0,0,,10.0,29.819881,1009.0,,TRUE,TRUE,TRUE,,,,,,CLR,,,,,,,,VFR,1.7,,,,,,,,,,,METAR,224.0
KRIV 090255Z AUTO 31010KT 10SM CLR 19/12 A3000 RMK AO2 SLP152 T01860121 53008,KRIV,2023-06-09T02:55:00Z,33.87,-117.23,18.6,12.1,310,10,,10.0,30.0,1015.2,,TRUE,TRUE,,,,,,,CLR,,,,,,,,VFR,0.8,,,,,,,,,,,METAR,454.0
KRDR 090255Z AUTO 08004KT 10SM SCT120 24/16 A2984 RMK AO2 SLP106 T02410163 52008 $,KRDR,2023-06-09T02:55:00Z,47.93,-97.4,24.1,16.3,80,4,,10.0,29.840551,1010.6,,TRUE,TRUE,TRUE,,,,,,SCT,12000,,,,,,,VFR,0.8,,,,,,,,,,,METAR,276.0
KRCA 090255Z AUTO 15004KT 10SM CLR 25/13 A2987 RMK AO2 SLP089 T02460132 52013 $,KRCA,2023-06-09T02:55:00Z,44.15,-103.12,24.6,13.2,150,4,,10.0,29.870079,1008.9,,TRUE,TRUE,TRUE,,,,,,CLR,,,,,,,,VFR,1.3,,,,,,,,,,,METAR,993.0
KQTZ 090255Z VRB02KT 9999 FEW220 29/09 A2968 RMK SLP046 51003,KQTZ,2023-06-09T02:55:00Z,,,29.0,9.0,0,2,,6.21,29.681103,1004.6,,,,,,,,,,FEW,22000,,,,,,,VFR,0.3,,,,,,,,,,,SPECI,
KQRH 090255Z AUTO 00000KT 9000 HZ BKN150 33/22 A2965 RMK AO2 SLP043 WND DATA ESTMD T03290217 51003,KQRH,2023-06-09T02:55:00Z,,,32.9,21.7,0,0,,5.59,29.648623,1004.3,,TRUE,TRUE,,,,,,HZ,BKN,15000,,,,,,,VFR,0.3,,,,,,,,,,,METAR,
KQN3 090255Z 21011KT 9999 CLR 32/21 A2986 RMK AO2A SLP092 T03150207 57004,KQN3,2023-06-09T02:55:00Z,,,31.5,20.7,210,11,,6.21,29.861221,1009.2,,,TRUE,,,,,,,CLR,,,,,,,,VFR,-0.4,,,,,,,,,,,METAR,
KQAZ 090255Z 20005KT 9999 CLR 33/19 A2987 RMK SLPNO WND DATA ESTMD,KQAZ,2023-06-09T02:55:00Z,,,33.0,19.0,200,5,,6.21,29.870079,,,,,,,,,,,CLR,,,,,,,,VFR,,,,,,,,,,,,METAR,
KPSM 090255Z 14003KT 10SM FEW025 SCT060 BKN130 11/10 A2972 RMK AO2A SLP067 T01120103 52006,KPSM,2023-06-09T02:55:00Z,43.08,-70.82,11.2,10.3,140,3,,10.0,29.719488,1006.7,,,TRUE,,,,,,,FEW,2500,SCT,6000,BKN,13000,,,VFR,0.6,,,,,,,,,,,METAR,34.0
KPOE 090255Z AUTO 00000KT 10SM CLR 25/19 A2982 RMK AO2 SLPNO T02510192 51021,KPOE,2023-06-09T02:55:00Z,31.05,-93.2,25.1,19.2,0,0,,10.0,29.819881,,,TRUE,TRUE,,,,,,,CLR,,,,,,,,VFR,2.1,,,,,,,,,,,METAR,98.0
KPOB 090255Z AUTO 24003KT 10SM CLR 18/10 A2979 RMK AO2 SLPNO T01750099 52015 $,KPOB,2023-06-09T02:55:00Z,35.17,-79.02,17.5,9.9,240,3,,10.0,29.790354,,,TRUE,TRUE,TRUE,,,,,,CLR,,,,,,,,VFR,1.5,,,,,,,,,,,METAR,57.0
KPHP 090255Z AUTO 00000KT 10SM CLR 27/13 A2982 RMK AO2 SLP073 T02670133 53010,KPHP,2023-06-09T02:55:00Z,44.05,-101.6,26.7,13.3,0,0,,10.0,29.819881,1007.3,,TRUE,TRUE,,,,,,,CLR,,,,,,,,VFR,1.0,,,,,,,,,,,METAR,673.0
KPAM 090255Z AUTO 27008KT 10SM CLR 26/23 A2980 RMK AO2 SLPNO T02580225 52019 $,KPAM,2023-06-09T02:55:00Z,30.07,-85.57,25.8,22.5,270,8,,10.0,29.799213,,,TRUE,TRUE,TRUE,,,,,,CLR,,,,,,,,VFR,1.9,,,,,,,,,,,METAR,4.0
KP58 090255Z AUTO VRB06KT 15/11 A2987 RMK AO1 SLP115 T01500111 53003,KP58,2023-06-09T02:55:00Z,44.02,-82.8,15.0,11.1,0,6,,,29.870079,1011.5,,TRUE,TRUE,,,,,,,,,,,,,,,,0.3,,,,,,,,,,,METAR,180.0
KOFF 090255Z 09008KT 10SM FEW250 22/15 A2989 RMK AO2A SLP120 T02180147 52012 $,KOFF,2023-06-09T02:55:00Z,41.12,-95.92,21.8,14.7,90,8,,10.0,29.890747,1012.0,,,TRUE,TRUE,,,,,,FEW,25000,,,,,,,VFR,1.2,,,,,,,,,,,METAR,308.0
KNTD 090255Z 28007KT 10SM FEW014 FEW024 BKN280 16/14 A3002 RMK AO2 SLP166 T01610139 53001 VISNO S $,KNTD,2023-06-09T02:55:00Z,34.12,-119.12,16.1,13.9,280,7,,10.0,30.02067,1016.6,,,TRUE,TRUE,,,,,,FEW,1400,FEW,2400,BKN,28000,,,VFR,0.1,,,,,,,,,,,METAR,1.0
KNKX 090255Z 29007KT 10SM SCT015 16/12 A3002 RMK AO2 SLP163 T01610122 53007,KNKX,2023-06-09T02:55:00Z,32.87,-117.13,16.1,12.2,290,7,,10.0,30.02067,1016.3,,,TRUE,,,,,,,SCT,1500,,,,,,,VFR,0.7,,,,,,,,,,,METAR,138.0
KNBG 090255Z VRB03KT 10SM FEW030 SCT100 BKN250 23/22 A2981 RMK AO2 SLP094 OCNL LTGIC DSNT W CB DSNT W T02330217 53012 $,KNBG,2023-06-09T02:55:00Z,29.83,-90.02,23.3,21.7,0,3,,10.0,29.811024,1009.4,,,TRUE,TRUE,,,,,,FEW,3000,SCT,10000,BKN,25000,,,VFR,1.2,,,,,,,,,,,METAR,0.0
KMXF 090255Z AUTO 00000KT 10SM CLR 24/17 A2976 RMK AO2 SLPNO T02370172 52014,KMXF,2023-06-09T02:55:00Z,32.38,-86.37,23.7,17.2,0,0,,10.0,29.760826,,,TRUE,TRUE,,,,,,,CLR,,,,,,,,VFR,1.4,,,,,,,,,,,METAR,47.0
KMUO 090255Z VRB05KT 10SM FEW080 SCT150 BKN190 16/12 A2992 RMK AO2A RAB0159E00 SLP115 P0000 60007 T01600120 58003 $,KMUO,2023-06-09T02:55:00Z,43.03,-115.87,16.0,12.0,0,5,,10.0,29.920275,1011.5,,,TRUE,TRUE,,,,,,FEW,8000,SCT,15000,BKN,19000,,,VFR,-0.3,,,,,0.005,0.07,,,,,METAR,915.0
KMUI 090255Z AUTO 36003KT 10SM OVC090 16/06 A2977 RMK AO2 SLP082 T01610062 52011,KMUI,2023-06-09T02:55:00Z,40.43,-76.57,16.1,6.2,360,3,,10.0,29.769686,1008.2,,TRUE,TRUE,,,,,,,OVC,9000,,,,,,,VFR,1.1,,,,,,,,,,,METAR,146.0
KMMT 090255Z AUTO 00000KT 10SM SCT070 18/17 A2977 RMK AO2 SLPNO 60000 T01760166 52018 $,KMMT,2023-06-09T02:55:00Z,33.92,-80.8,17.6,16.6,0,0,,10.0,29.769686,,,TRUE,TRUE,TRUE,,,,,,SCT,7000,,,,,,,VFR,1.8,,,,,,0.005,,,,,METAR,76.0
KMKG 090255Z 01007KT 10SM CLR 17/04 A2990 RMK AO2 SLP122 LAST T01720039 53007,KMKG,2023-06-09T02:55:00Z,43.17,-86.23,17.2,3.9,10,7,,10.0,29.899607,1012.2,,,TRUE,,,,,,,CLR,,,,,,,,VFR,0.7,,,,,,,,,,,METAR,190.0
KMIB 090255Z 00000KT 10SM BKN170 19/17 A2986 RMK AO2A SLP111 60003 T01930172 50004 $,KMIB,2023-06-09T02:55:00Z,48.42,-101.35,19.3,17.2,0,0,,10.0,29.861221,1011.1,,,TRUE,TRUE,,,,,,BKN,17000,,,,,,,VFR,0.4,,,,,,0.03,,,,,METAR,505.0
KMGE 090255Z 01004KT 10SM FEW120 SCT250 21/08 A2981 RMK AO2A SLP089 T02060079 52016 $,KMGE,2023-06-09T02:55:00Z,33.92,-84.52,20.6,7.9,10,4,,10.0,29.811024,1008.9,,,TRUE,TRUE,,,,,,FEW,12000,SCT,25000,,,,,VFR,1.6,,,,,,,,,,,METAR,309.0
KMCF 090255Z AUTO 26003KT 10SM CLR 26/22 A2978 RMK AO2 SLP087 T02580218 52016 FZRANO $,KMCF,2023-06-09T02:55:00Z,27.85,-82.52,25.8,21.8,260,3,,10.0,29.778543,1008.7,,TRUE,TRUE,TRUE,,,TRUE,,,CLR,,,,,,,,VFR,1.6,,,,,,,,,,,METAR,3.0
KLUF 090255Z 25006KT 10SM BKN220 32/M02 A2983 RMK AO2A SLP087 T03171024 55002 $,KLUF,2023-06-09T02:55:00Z,33.53,-112.37,31.7,-2.4,250,6,,10.0,29.828741,1008.7,,,TRUE,TRUE,,,,,,BKN,22000,,,,,,,VFR,-0.2,,,,,,,,,,,METAR,333.0
KLTS 090255Z 03002KT 10SM SKC 24/18 A2981 RMK AO2A SLP083 $,KLTS,2023-06-09T02:55:00Z,34.67,-99.27,24.0,18.0,30,2,,10.0,29.811024,1008.3,,,TRUE,TRUE,,,,,,SKC,,,,,,,,VFR,,,,,,,,,,,,METAR,416.0
KLSV 090255Z AUTO 21011KT 10SM CLR 30/02 A2981 RMK AO2 SLP072 T02970020 53002 $,KLSV,2023-06-09T02:55:00Z,36.23,-115.05,29.7,2.0,210,11,,10.0,29.811024,1007.2,,TRUE,TRUE,TRUE,,,,,,CLR,,,,,,,,VFR,0.2,,,,,,,,,,,SPECI,563.0
KLSF 090255Z AUTO 00000KT 10SM CLR 22/19 A2976 RMK AO2 SLPNO T02150194 52020 $,KLSF,2023-06-09T02:55:00Z,32.32,-84.97,21.5,19.4,0,0,,10.0,29.760826,,,TRUE,TRUE,TRUE,,,,,,CLR,,,,,,,,VFR,2.0,,,,,,,,,,,METAR,68.0
KLRF 090255Z AUTO 00000KT 10SM CLR 20/18 A2982 RMK AO2 SLPNO T02040183 52022 $,KLRF,2023-06-09T02:55:00Z,34.92,-92.12,20.4,18.3,0,0,,10.0,29.819881,,,TRUE,TRUE,TRUE,,,,,,CLR,,,,,,,,VFR,2.2,,,,,,,,,,,METAR,85.0
KLOR 090255Z AUTO 00000KT 10SM CLR 22/20 A2978 RMK AO2 SLPNO T02240197 52021 $,KLOR,2023-06-09T02:55:00Z,31.35,-85.75,22.4,19.7,0,0,,10.0,29.778543,,,TRUE,TRUE,TRUE,,,,,,CLR,,,,,,,,VFR,2.1,,,,,,,,,,,METAR,92.0
KLLJ 090255Z AUTO 16020G27KT 10SM SCT041 SCT049 BKN055 16/07 A3005 RMK AO2 PK WND 17027/0254 SLP129 T01560072 53016,KLLJ,2023-06-09T02:55:00Z,44.52,-114.22,15.6,7.2,160,20,27,10.0,30.050198,1012.9,,TRUE,TRUE,,,,,,,SCT,4100,SCT,4900,BKN,5500,,,VFR,1.6,,,,,,,,,,,METAR,1535.0
KLIC 090255Z AUTO 05007KT 10SM SCT080 18/12 A3005 RMK AO2 SLP108 T01780117 53016,KLIC,2023-06-09T02:55:00Z,39.27,-103.67,17.8,11.7,50,7,,10.0,30.050198,1010.8,,TRUE,TRUE,,,,,,,SCT,8000,,,,,,,VFR,1.6,,,,,,,,,,,METAR,1635.0
KLHW 090255Z AUTO 00000KT 10SM FEW140 22/20 A2973 RMK AO2 SLPNO T02170198 52018 $,KLHW,2023-06-09T02:55:00Z,31.88,-81.57,21.7,19.8,0,0,,10.0,29.731298,,,TRUE,TRUE,TRUE,,,,,,FEW,14000,,,,,,,VFR,1.8,,,,,,,,,,,METAR,14.0
KLGF 090255Z AUTO 22010KT M M CLR 32/M07 A2983 RMK AO2 SLP098 T03161067 53004 RVRNO PWINO TSNO $,KLGF,2023-06-09T02:55:00Z,32.87,-114.4,31.6,-6.7,220,10,,,29.828741,1009.8,,TRUE,TRUE,TRUE,,TRUE,,TRUE,,CLR,,,,,,,,,0.4,,,,,,,,,,,METAR,118.0
KLFI 090255Z AUTO 23004KT 8SM CLR 14/14 A2978 RMK AO2 SLP091 T01380136 52014 $,KLFI,2023-06-09T02:55:00Z,37.08,-76.33,13.8,13.6,230,4,,8.0,29.778543,1009.1,,TRUE,TRUE,TRUE,,,,,,CLR,,,,,,,,VFR,1.4,,,,,,,,,,,METAR,2.0
KLCK 090255Z AUTO 00000KT 10SM OVC095 18/07 A2984 RMK AO2 T01780066,KLCK,2023-06-09T02:55:00Z,39.82,-82.92,17.8,6.6,0,0,,10.0,29.840551,,,TRUE,TRUE,,,,,,,OVC,9500,,,,,,,VFR,,,,,,,,,,,,METAR,225.0
KIRK 090255Z AUTO 02003KT 10SM CLR 13/10 A2991 RMK AO2 SLP128 T01330100 53007,KIRK,2023-06-09T02:55:00Z,40.1,-92.55,13.3,10.0,20,3,,10.0,29.911417,1012.8,,TRUE,TRUE,,,,,,,CLR,,,,,,,,VFR,0.7,,,,,,,,,,,METAR,292.0
KINS 090255Z AUTO 18007KT 10SM SCT100 26/00 A2990 RMK AO2 SLP085 T02570003 53002 $,KINS,2023-06-09T02:55:00Z,36.58,-115.68,25.7,0.3,180,7,,10.0,29.899607,1008.5,,TRUE,TRUE,TRUE,,,,,,SCT,10000,,,,,,,VFR,0.2,,,,,,,,,,,METAR,954.0
KIAB 090255Z AUTO 24003KT 10SM CLR 26/17 A2979 RMK AO2 SLPNO T02630165 52011 $,KIAB,2023-06-09T02:55:00Z,37.62,-97.27,26.3,16.5,240,3,,10.0,29.790354,,,TRUE,TRUE,TRUE,,,,,,CLR,,,,,,,,VFR,1.1,,,,,,,,,,,METAR,413.0
KHUA 090255Z AUTO 03004KT 10SM CLR 21/12 A2981 RMK AO2 SLPNO T02060118 51008,KHUA,2023-06-09T02:55:00Z,34.68,-86.68,20.6,11.8,30,4,,10.0,29.811024,,,TRUE,TRUE,,,,,,,CLR,,,,,,,,VFR,0.8,,,,,,,,,,,METAR,200.0
KHST 090255Z AUTO 19004KT 10SM SCT170 25/22 A2986 RMK AO2 SLPNO T02450218 52010,KHST,2023-06-09T02:55:00Z,25.48,-80.37,24.5,21.8,190,4,,10.0,29.861221,,,TRUE,TRUE,,,,,,,SCT,17000,,,,,,,VFR,1.0,,,,,,,,,,,METAR,1.0
KHRT 090255Z 00000KT 10SM CLR 27/23 A2978 RMK AO2A SLPNO T02650229 52020,KHRT,2023-06-09T02:55:00Z,30.42,-86.68,26.5,22.9,0,0,,10.0,29.778543,,,,TRUE,,,,,,,CLR,,,,,,,,VFR,2.0,,,,,,,,,,,METAR,10.0
KHOP 090255Z AUTO 00000KT 10SM CLR 19/06 A2982 RMK AO2 SLP096 T01850063 50005,KHOP,2023-06-09T02:55:00Z,36.67,-87.5,18.5,6.3,0,0,,10.0,29.819881,1009.6,,TRUE,TRUE,,,,,,,CLR,,,,,,,,VFR,0.5,,,,,,,,,,,METAR,170.0
KHON 090255Z AUTO 11011KT 10SM FEW070 27/18 A2982 RMK AO2 LTG DSNT W AND NW SLP087 T02670183 53018,KHON,2023-06-09T02:55:00Z,44.38,-98.23,26.7,18.3,110,11,,10.0,29.819881,1008.7,,TRUE,TRUE,,,,,,,FEW,7000,,,,,,,VFR,1.8,,,,,,,,,,,METAR,391.0
KHMN 090255Z AUTO 24007KT 10SM CLR 26/M03 A3000 RMK AO2 SLP091 T02641033 53010 $,KHMN,2023-06-09T02:55:00Z,32.85,-106.1,26.4,-3.3,240,7,,10.0,30.0,1009.1,,TRUE,TRUE,TRUE,,,,,,CLR,,,,,,,,VFR,1.0,,,,,,,,,,,METAR,1240.0
KHLR 090255Z AUTO 12005KT 10SM CLR 25/19 A2985 RMK AO2 SLPNO T02510194 52012,KHLR,2023-06-09T02:55:00Z,31.13,-97.72,25.1,19.4,120,5,,10.0,29.84941,,,TRUE,TRUE,,,,,,,CLR,,,,,,,,VFR,1.2,,,,,,,,,,,METAR,271.0
KHIF 090255Z 20011KT 10SM SCT120 18/08 A3003 RMK AO2A SLP126 T01750078 53007,KHIF,2023-06-09T02:55:00Z,41.12,-111.97,17.5,7.8,200,11,,10.0,30.029528,1012.6,,,TRUE,,,,,,,SCT,12000,,,,,,,VFR,0.7,,,,,,,,,,,METAR,1461.0
KHFF 090255Z AUTO 00000KT 10SM CLR 14/11 A2978 RMK AO2 SLPNO T01420113 51014 $,KHFF,2023-06-09T02:55:00Z,35.03,-79.5,14.2,11.3,0,0,,10.0,29.778543,,,TRUE,TRUE,TRUE,,,,,,CLR,,,,,,,,VFR,1.4,,,,,,,,,,,METAR,100.0
KHEY 090255Z AUTO 00000KT 9SM CLR 24/20 A2975 RMK AO2 SLPNO T02390202 52018,KHEY,2023-06-09T02:55:00Z,31.35,-85.65,23.9,20.2,0,0,,9.0,29.749016,,,TRUE,TRUE,,,,,,,CLR,,,,,,,,VFR,1.8,,,,,,,,,,,METAR,95.0
KGXF 090255Z COR 21011KT 10SM FEW180 SCT250 31/M09 A2986 RMK AO2A SLP099 T03091089 53005 FZRANO $ COR 0319,KGXF,2023-06-09T02:55:00Z,32.88,-112.72,30.9,-8.9,210,11,,10.0,29.861221,1009.9,TRUE,,TRUE,TRUE,,,TRUE,,,FEW,18000,SCT,25000,,,,,VFR,0.5,,,,,,,,,,,SPECI,261.0
KGXA 090255Z AUTO 31011KT 10SM CLR 20/08 A2996 RMK AO2 SLP124 WND DATA ESTMD T02030084 53011,KGXA,2023-06-09T02:55:00Z,34.57,-117.67,20.3,8.4,310,11,,10.0,29.958662,1012.4,,TRUE,TRUE,,,,,,,CLR,,,,,,,,VFR,1.1,,,,,,,,,,,METAR,927.0
KGUS 090255Z AUTO 35005KT 10SM CLR 16/02 A2988 RMK AO2 SLP119 T01580022 52014 $,KGUS,2023-06-09T02:55:00Z,40.63,-86.15,15.8,2.2,350,5,,10.0,29.878937,1011.9,,TRUE,TRUE,TRUE,,,,,,CLR,,,,,,,,VFR,1.4,,,,,,,,,,,METAR,245.0
KGUR 090255Z AUTO 00000KT 9SM FEW170 18/14 A2996 RMK AO2 SLP127 T01770138 50000,KGUR,2023-06-09T02:55:00Z,42.25,-104.72,17.7,13.8,0,0,,9.0,29.958662,1012.7,,TRUE,TRUE,,,,,,,FEW,17000,,,,,,,VFR,0.0,,,,,,,,,,,METAR,1341.0
KGTB 090255Z AUTO 28004KT 10SM SCT070 OVC085 12/11 A2975 RMK AO2 SLP075 T01240105 52005,KGTB,2023-06-09T02:55:00Z,44.07,-75.72,12.4,10.5,280,4,,10.0,29.749016,1007.5,,TRUE,TRUE,,,,,,,SCT,7000,OVC,8500,,,,,VFR,0.5,,,,,,,,,,,METAR,206.0
KGSB 090255Z 00000KT 6SM HZ FEW080 17/13 A2977 RMK AO2A SLPNO WND DATA ESTMD T01730126 52017 $,KGSB,2023-06-09T02:55:00Z,35.33,-77.93,17.3,12.6,0,0,,6.0,29.769686,,,,TRUE,TRUE,,,,,HZ,FEW,8000,,,,,,,VFR,1.7,,,,,,,,,,,METAR,33.0
KGRK 090255Z AUTO 16005KT 10SM CLR 24/20 A2984 RMK AO2 SLPNO T02400201 52008,KGRK,2023-06-09T02:55:00Z,31.07,-97.83,24.0,20.1,160,5,,10.0,29.840551,,,TRUE,TRUE,,,,,,,CLR,,,,,,,,VFR,0.8,,,,,,,,,,,METAR,311.0
KGRF 090255Z 25011KT 10SM BKN190 20/10 A2992 RMK AO2A SLP135 T02000104 53003 $,KGRF,2023-06-09T02:55:00Z,47.07,-122.57,20.0,10.4,250,11,,10.0,29.920275,1013.5,,,TRUE,TRUE,,,,,,BKN,19000,,,,,,,VFR,0.3,,,,,,,,,,,METAR,91.0
KGPI 090255Z 01004KT 10SM FEW075 OVC095 17/16 A2996 RMK AO2 RAE17B38E50 SLP132 P0001 60001 T01720156 50009,KGPI,2023-06-09T02:55:00Z,48.32,-114.25,17.2,15.6,10,4,,10.0,29.958662,1013.2,,,TRUE,,,,,,,FEW,7500,OVC,9500,,,,,VFR,0.9,,,,,0.01,0.01,,,,,METAR,903.0
KGOV 090255Z AUTO 00000KT 10SM OVC080 12/07 A2992 RMK AO2 SLP137 T01220067 53007 $,KGOV,2023-06-09T02:55:00Z,44.68,-84.73,12.2,6.7,0,0,,10.0,29.920275,1013.7,,TRUE,TRUE,TRUE,,,,,,OVC,8000,,,,,,,VFR,0.7,,,,,,,,,,,METAR,350.0
KFTK 090255Z AUTO 01004KT 10SM CLR 13/10 A2985 RMK AO2 SLP108 T01340102 52009,KFTK,2023-06-09T02:55:00Z,37.9,-85.97,13.4,10.2,10,4,,10.0,29.84941,1010.8,,TRUE,TRUE,,,,,,,CLR,,,,,,,,VFR,0.9,,,,,,,,,,,METAR,225.0
KFSI 090255Z AUTO 13004KT 10SM SCT065 26/18 A2979 RMK AO2 SLPNO T02560178 52011 FZRANO $,KFSI,2023-06-09T02:55:00Z,34.65,-98.4,25.6,17.8,130,4,,10.0,29.790354,,,TRUE,TRUE,TRUE,,,TRUE,,,SCT,6500,,,,,,,VFR,1.1,,,,,,,,,,,METAR,360.0
KFRI 090255Z 08006KT 10SM CLR 24/21 A2982 RMK AO2A SLPNO T02380205 52013 $,KFRI,2023-06-09T02:55:00Z,39.05,-96.77,23.8,20.5,80,6,,10.0,29.819881,,,,TRUE,TRUE,,,,,,CLR,,,,,,,,VFR,1.3,,,,,,,,,,,METAR,232.0
KFMH 090255Z 00000KT 10SM SCT080 BKN095 13/11 A2973,KFMH,2023-06-09T02:55:00Z,41.65,-70.52,13.0,11.0,0,0,,10.0,29.731298,,,,,,,,,,,SCT,8000,BKN,9500,,,,,VFR,,,,,,,,,,,,METAR,35.0
KFHU 090255Z AUTO 23010KT 10SM BKN230 25/M08 A3009 RMK AO2 SLP128 T02471078 52008,KFHU,2023-06-09T02:55:00Z,31.58,-110.35,24.7,-7.8,230,10,,10.0,30.088583,1012.8,,TRUE,TRUE,,,,,,,BKN,23000,,,,,,,VFR,0.8,,,,,,,,,,,METAR,1424.0
KFFO 090255Z AUTO 00000KT 10SM BKN100 17/08 A2982 RMK AO2 SLP098 T01650079 52010,KFFO,2023-06-09T02:55:00Z,39.83,-84.03,16.5,7.9,0,0,,10.0,29.819881,1009.8,,TRUE,TRUE,,,,,,,BKN,10000,,,,,,,VFR,1.0,,,,,,,,,,,METAR,250.0
KFEW 090255Z 00000KT 10SM FEW190 SCT210 15/10 A3010 RMK AO2A SLP128 T01450099 53004 $,KFEW,2023-06-09T02:55:00Z,41.13,-104.87,14.5,9.9,0,0,,10.0,30.100393,1012.8,,,TRUE,TRUE,,,,,,FEW,19000,SCT,21000,,,,,VFR,0.4,,,,,,,,,,,METAR,1877.0
KFCS 090255Z 16012G28KT 10SM -TSRA FEW060 BKN100 17/08 A3010 RMK AO2A PK WND 16028/03 OCNL LTGICCCCG TSB0228E10 SLP275 T01650079 $,KFCS,2023-06-09T02:55:00Z,38.67,-104.77,16.5,7.9,160,12,28,10.0,30.100393,1027.5,,,TRUE,TRUE,,,,,-TSRA,FEW,6000,BKN,10000,,,,,VFR,,,,,,,,,,,,METAR,1789.0
KFBG 090255Z AUTO 00000KT 10SM CLR 18/09 A2978 RMK AO2 SLPNO T01820093 52015 $,KFBG,2023-06-09T02:55:00Z,35.12,-78.92,18.2,9.3,0,0,,10.0,29.778543,,,TRUE,TRUE,TRUE,,,,,,CLR,,,,,,,,VFR,1.5,,,,,,,,,,,METAR,69.0
KFAF 090255Z 00000KT 10SM CLR 16/13 A2976 RMK AO2A SLP081 T01590132 52015 $,KFAF,2023-06-09T02:55:00Z,37.13,-76.62,15.9,13.2,0,0,,10.0,29.760826,1008.1,,,TRUE,TRUE,,,,,,CLR,,,,,,,,VFR,1.5,,,,,,,,,,,METAR,3.0
KEND 090255Z AUTO 10004KT 10SM CLR 25/18 A2980 RMK AO2 SLPNO T02480177 52015 $,KEND,2023-06-09T02:55:00Z,36.33,-97.92,24.8,17.7,100,4,,10.0,29.799213,,,TRUE,TRUE,TRUE,,,,,,CLR,,,,,,,,VFR,1.5,,,,,,,,,,,SPECI,392.0
KEGI 090255Z AUTO 16004KT 10SM CLR 24/21 A2979 RMK AO2 SLPNO T02420205 52021 $,KEGI,2023-06-09T02:55:00Z,30.65,-86.52,24.2,20.5,160,4,,10.0,29.790354,,,TRUE,TRUE,TRUE,,,,,,CLR,,,,,,,,VFR,2.1,,,,,,,,,,,SPECI,59.0
KEDW 090255Z 24019KT 50SM FEW060 SCT250 21/11 A2994 RMK AO2A PK WND 24026/02 SLP125 T02100113 52011,KEDW,2023-06-09T02:55:00Z,34.9,-117.87,21.0,11.3,240,19,,50.0,29.940945,1012.5,,,TRUE,,,,,,,FEW,6000,SCT,25000,,,,,VFR,1.1,,,,,,,,,,,METAR,698.0
KEAT 090255Z AUTO 11005KT 10SM FEW075 SCT120 27/13 A2977 RMK AO2 SLP071 60000 T02670128 55000,KEAT,2023-06-09T02:55:00Z,47.4,-120.2,26.7,12.8,110,5,,10.0,29.769686,1007.1,,TRUE,TRUE,,,,,,,FEW,7500,SCT,12000,,,,,VFR,0.0,,,,,,0.005,,,,,METAR,375.0
KDYS 090255Z AUTO 08004KT 10SM CLR 26/16 A2985 RMK AO2 SLPNO T02630159 52015,KDYS,2023-06-09T02:55:00Z,32.42,-99.83,26.3,15.9,80,4,,10.0,29.84941,,,TRUE,TRUE,,,,,,,CLR,,,,,,,,VFR,1.5,,,,,,,,,,,SPECI,544.0
KDOV 090255Z 29007KT 6SM FU OVC120 18/07 A2975 RMK AO2A SLP078 T01830074 52016,KDOV,2023-06-09T02:55:00Z,39.12,-75.47,18.3,7.4,290,7,,6.0,29.749016,1007.8,,,TRUE,,,,,,FU,OVC,12000,,,,,,,VFR,1.6,,,,,,,,,,,METAR,6.0
KDMA 090255Z 25010KT 10SM CLR 30/M08 A2993 RMK AO2A SLP091 T02951082 52012 $,KDMA,2023-06-09T02:55:00Z,32.17,-110.88,29.5,-8.2,250,10,,10.0,29.929134,1009.1,,,TRUE,TRUE,,,,,,CLR,,,,,,,,VFR,1.2,,,,,,,,,,,METAR,804.0
KDLH 090255Z 00000KT 10SM CLR 14/01 A2996 RMK AO2 SLP150 T01390006 53005,KDLH,2023-06-09T02:55:00Z,46.85,-92.2,13.9,0.6,0,0,,10.0,29.958662,1015.0,,,TRUE,,,,,,,CLR,,,,,,,,VFR,0.5,,,,,,,,,,,METAR,434.0
KDLF 090255Z AUTO 15005KT 10SM CLR 28/20 A2978 RMK AO2 SLPNO T02770197 52011 $,KDLF,2023-06-09T02:55:00Z,29.37,-100.78,27.7,19.7,150,5,,10.0,29.778543,,,TRUE,TRUE,TRUE,,,,,,CLR,,,,,,,,VFR,1.1,,,,,,,,,,,METAR,328.0
KDAA 090255Z AUTO 32005KT 10SM OVC120 20/06 A2976 RMK AO2 SLP080 T02020058 52017 $,KDAA,2023-06-09T02:55:00Z,38.72,-77.17,20.2,5.8,320,5,,10.0,29.760826,1008.0,,TRUE,TRUE,TRUE,,,,,,OVC,12000,,,,,,,VFR,1.7,,,,,,,,,,,METAR,17.0
KCVS 090255Z AUTO 10003KT 10SM CLR 23/14 A2997 RMK AO2 SLP091 T02270140 53009 $,KCVS,2023-06-09T02:55:00Z,34.37,-103.32,22.7,14.0,100,3,,10.0,29.970472,1009.1,,TRUE,TRUE,TRUE,,,,,,CLR,,,,,,,,VFR,0.9,,,,,,,,,,,METAR,1305.0
KCOF 090255Z AUTO 20009KT 10SM CLR 26/22 A2978 RMK AO2 SLPNO T02550222 52013 $,KCOF,2023-06-09T02:55:00Z,28.23,-80.6,25.5,22.2,200,9,,10.0,29.778543,,,TRUE,TRUE,TRUE,,,,,,CLR,,,,,,,,VFR,1.3,,,,,,,,,,,METAR,1.0
KCNW 090255Z 00000KT 10SM SKC 21/20 A2983,KCNW,2023-06-09T02:55:00Z,31.63,-97.07,21.0,20.0,0,0,,10.0,29.828741,,,,,,,,,,,SKC,,,,,,,,VFR,,,,,,,,,,,,METAR,139.0
KCNK 090255Z AUTO 00000KT 10SM CLR 23/17 A2984 RMK AO2 SLP088 60000 T02280167 51011,KCNK,2023-06-09T02:55:00Z,39.55,-97.65,22.8,16.7,0,0,,10.0,29.840551,1008.8,,TRUE,TRUE,,,,,,,CLR,,,,,,,,VFR,1.1,,,,,,0.005,,,,,METAR,445.0
KCMY 090255Z AUTO 00000KT 10SM CLR 09/08 A2992 RMK AO2 SLP136 T00920075 53010 FZRANO $,KCMY,2023-06-09T02:55:00Z,43.97,-90.73,9.2,7.5,0,0,,10.0,29.920275,1013.6,,TRUE,TRUE,TRUE,,,TRUE,,,CLR,,,,,,,,VFR,1.0,,,,,,,,,,,METAR,253.0
KCMA 090255Z 26009KT 10SM FEW023 17/12 A3001 RMK AO2 SLP170 T01720122 53002,KCMA,2023-06-09T02:55:00Z,34.22,-119.1,17.2,12.2,260,9,,10.0,30.008858,1017.0,,,TRUE,,,,,,,FEW,2300,,,,,,,VFR,0.2,,,,,,,,,,,METAR,20.0
KCBM 090255Z 27004KT 10SM CLR 21/19 A2978 RMK AO2A SLPNO ALSTG ESTMD 60000 52015 $,KCBM,2023-06-09T02:55:00Z,33.65,-88.45,21.0,19.0,270,4,,10.0,29.778543,,,,TRUE,TRUE,,,,,,CLR,,,,,,,,VFR,1.5,,,,,,0.005,,,,,METAR,59.0
KCAO 090255Z AUTO 30009KT 10SM CLR 18/14 A3004 RMK AO2 SLP116 T01780144 53019,KCAO,2023-06-09T02:55:00Z,36.45,-103.15,17.8,14.4,300,9,,10.0,30.041338,1011.6,,TRUE,TRUE,,,,,,,CLR,,,,,,,,VFR,1.9,,,,,,,,,,,METAR,1517.0
KBYS 090255Z AUTO 25018KT 10SM CLR 27/03 A2986 RMK AO2 SLP088 T02690027 53002 $,KBYS,2023-06-09T02:55:00Z,35.28,-116.63,26.9,2.7,250,18,,10.0,29.861221,1008.8,,TRUE,TRUE,TRUE,,,,,,CLR,,,,,,,,VFR,0.2,,,,,,,,,,,METAR,717.0
KBLV 090255Z 00000KT 10SM CLR 16/08 A2985 RMK AO2A SLP109 T01560081 52008 $,KBLV,2023-06-09T02:55:00Z,38.53,-89.83,15.6,8.1,0,0,,10.0,29.84941,1010.9,,,TRUE,TRUE,,,,,,CLR,,,,,,,,VFR,0.8,,,,,,,,,,,METAR,134.0
KBIX 090255Z AUTO 00000KT 10SM CLR 25/21 A2978 RMK AO2 SLPNO T02480213 52018,KBIX,2023-06-09T02:55:00Z,30.42,-88.92,24.8,21.3,0,0,,10.0,29.778543,,,TRUE,TRUE,,,,,,,CLR,,,,,,,,VFR,1.8,,,,,,,,,,,METAR,4.0
KBIF 090255Z 27006KT 7SM SCT200 30/M05 A2996 RMK SLPNO ALSTG WND DAT ESTMD,KBIF,2023-06-09T02:55:00Z,31.85,-106.38,30.0,-5.0,270,6,,7.0,29.958662,,,,,,,,,,,SCT,20000,,,,,,,VFR,,,,,,,,,,,,METAR,1201.0
KBAD 090255Z AUTO 24007KT 10SM CLR 28/19 A2981 RMK AO2 SLPNO T02800189 53019,KBAD,2023-06-09T02:55:00Z,32.5,-93.67,28.0,18.9,240,7,,10.0,29.811024,,,TRUE,TRUE,,,,,,,CLR,,,,,,,,VFR,1.9,,,,,,,,,,,METAR,49.0
KBAB 090255Z AUTO 19010KT 10SM OVC070 25/12 A2993 RMK AO2 SLP138 T02480117 53001 $,KBAB,2023-06-09T02:55:00Z,39.13,-121.43,24.8,11.7,190,10,,10.0,29.929134,1013.8,,TRUE,TRUE,TRUE,,,,,,OVC,7000,,,,,,,VFR,0.1,,,,,,,,,,,METAR,31.0
KAST 090255Z AUTO 23008KT 10SM CLR 13/09 A3001 RMK AO2 SLP163 T01330094 53003,KAST,2023-06-09T02:55:00Z,46.15,-123.88,13.3,9.4,230,8,,10.0,30.008858,1016.3,,TRUE,TRUE,,,,,,,CLR,,,,,,,,VFR,0.3,,,,,,,,,,,METAR,3.0
KANJ 090255Z AUTO 27004KT 10SM FEW075 10/04 A2991 RMK AO2 SLP127 T01000044 51002,KANJ,2023-06-09T02:55:00Z,46.47,-84.37,10.0,4.4,270,4,,10.0,29.911417,1012.7,,TRUE,TRUE,,,,,,,FEW,7500,,,,,,,VFR,0.2,,,,,,,,,,,METAR,220.0
KAFF 090255Z 13003KT 10SM VCSH BKN090 16/08 A3010 RMK AO2A SLP112 60001 T01590079 50010,KAFF,2023-06-09T02:55:00Z,38.97,-104.82,15.9,7.9,130,3,,10.0,30.100393,1011.2,,,TRUE,,,,,,VCSH,BKN,9000,,,,,,,VFR,1.0,,,,,,0.01,,,,,METAR,2003.0
KADW 090255Z 00000KT 4SM HZ SCT120 17/12 A2976 RMK AO2A SLP083 T01680117 52018 $,KADW,2023-06-09T02:55:00Z,38.82,-76.87,16.8,11.7,0,0,,4.0,29.760826,1008.3,,,TRUE,TRUE,,,,,HZ,SCT,12000,,,,,,,MVFR,1.8,,,,,,,,,,,METAR,87.0
KABH 090255Z AUTO 30007KT 10SM FEW080 SCT140 17/11 A3011 RMK AO2 LTG DSNT N AND W SLP130 T01720112 53017,KABH,2023-06-09T02:55:00Z,38.75,-104.3,17.2,11.2,300,7,,10.0,30.109253,1013.0,,TRUE,TRUE,,,,,,,FEW,8000,SCT,14000,,,,,VFR,1.7,,,,,,,,,,,METAR,1838.0
KAAT 090255Z AUTO 33008KT 10SM -RA SCT046 BKN055 OVC070 13/10 A3007 RMK AO2 LTG DSNT SW RAB10 TSB0158E00B17E18B19E24B26E27B47E48 PRESRR SLP158 P0001 60001 T01280100 53016,KAAT,2023-06-09T02:55:00Z,41.48,-120.57,12.8,10.0,330,8,,10.0,30.070866,1015.8,,TRUE,TRUE,,,,,,-RA,SCT,4600,BKN,5500,OVC,7000,,,VFR,1.6,,,,,0.01,0.01,,,,,METAR,1336.0
K9L2 090255Z AUTO 22011KT 9SM CLR 22/10 A2994 RMK AO2 SLP124 T02180100 53012,K9L2,2023-06-09T02:55:00Z,34.98,-117.87,21.8,10.0,220,11,,9.0,29.940945,1012.4,,TRUE,TRUE,,,,,,,CLR,,,,,,,,VFR,1.2,,,,,,,,,,,METAR,697.0
K4MR 090255Z AUTO 14007KT 10SM CLR 21/14 A2994 RMK AO2 SLP062 T02060135 53007 $,K4MR,2023-06-09T02:55:00Z,34.3,-103.8,20.6,13.5,140,7,,10.0,29.940945,1006.2,,TRUE,TRUE,TRUE,,,,,,CLR,,,,,,,,VFR,0.7,,,,,,,,,,,METAR,1339.0
K1YT 090255Z AUTO 15003KT 10SM OVC110 27/07 A2976 RMK AO2 SLP071 T02670072 55000 $,K1YT,2023-06-09T02:55:00Z,46.67,-120.45,26.7,7.2,150,3,,10.0,29.760826,1007.1,,TRUE,TRUE,TRUE,,,,,,OVC,11000,,,,,,,VFR,0.0,,,,,,,,,,,METAR,423.0
K1OW 090255Z AUTO 04004KT 10SM OVC160 17/12 A3015 RMK AO2 SLP155 T01660115 50008 $,K1OW,2023-06-09T02:55:00Z,40.88,-104.0,16.6,11.5,40,4,,10.0,30.15059,1015.5,,TRUE,TRUE,TRUE,,,,,,OVC,16000,,,,,,,VFR,0.8,,,,,,,,,,,METAR,1650.0
K1ON 090255Z AUTO 03005KT 6SM BR CLR 20/19 A2988 RMK AO2 SLP118 60000 T01970185 55004 $,K1ON,2023-06-09T02:55:00Z,,,19.7,18.5,30,5,,6.0,29.878937,1011.8,,TRUE,TRUE,TRUE,,,,,BR,CLR,,,,,,,,VFR,-0.4,,,,,,0.005,,,,,METAR,
K1OM 090255Z AUTO 34006KT 10SM FEW090 BKN140 19/17 A2993 RMK AO2 LTG DSNT E-S RAE05 SLP120 P0000 60002 T01880173 53003 $,K1OM,2023-06-09T02:55:00Z,47.33,-108.93,18.8,17.3,340,6,,10.0,29.929134,1012.0,,TRUE,TRUE,TRUE,,,,,,FEW,9000,BKN,14000,,,,,VFR,0.3,,,,,0.005,0.02,,,,,METAR,1088.0
K1NW 090255Z AUTO 36003KT 10SM M 18/13 A2999 RMK AO2 RAE0159RAB01E38 SLP103 P0001 60001 T01820126 50011 $,K1NW,2023-06-09T02:55:00Z,40.63,-103.83,18.2,12.6,360,3,,10.0,29.991142,1010.3,,TRUE,TRUE,TRUE,,,,,,,,,,,,,,,1.1,,,,,0.01,0.01,,,,,METAR,1461.0
K1NN 090255Z AUTO 04005KT 8SM CLR 20/19 A2989 RMK AO2 SLP118 60000 T01980186 50003 $,K1NN,2023-06-09T02:55:00Z,,,19.8,18.6,40,5,,8.0,29.890747,1011.8,,TRUE,TRUE,TRUE,,,,,,CLR,,,,,,,,VFR,0.3,,,,,,0.005,,,,,METAR,
K1MW 090255Z AUTO 34004KT 10SM BKN160 20/12 A2998 RMK AO2 SLP106 T01950115 52012 $,K1MW,2023-06-09T02:55:00Z,40.7,-103.48,19.5,11.5,340,4,,10.0,29.97933,1010.6,,TRUE,TRUE,TRUE,,,,,,BKN,16000,,,,,,,VFR,1.2,,,,,,,,,,,METAR,1338.0
K1MM 090255Z AUTO 16003KT 10SM -RA OVC130 15/13 A2997 RMK AO2 LTG DSNT E-SE AND NW TSE05 SLP134 P0012 60076 T01520132 50012 $,K1MM,2023-06-09T02:55:00Z,47.02,-109.63,15.2,13.2,160,3,,10.0,29.970472,1013.4,,TRUE,TRUE,TRUE,,,,,-RA,OVC,13000,,,,,,,VFR,1.2,,,,,0.12,0.76,,,,,METAR,1256.0
K1LN 090255Z AUTO 11006KT 8SM CLR 20/20 A2990 RMK AO2 SLP120 60000 T02000198 53004 $,K1LN,2023-06-09T02:55:00Z,,,20.0,19.8,110,6,,8.0,29.899607,1012.0,,TRUE,TRUE,TRUE,,,,,,CLR,,,,,,,,VFR,0.4,,,,,,0.005,,,,,METAR,
K1LM 090255Z AUTO 33007KT 10SM SCT035 BKN045 BKN060 BKN080 OVC100 15/14 A3000 RMK AO2 LTG DSNT E RAB30E51 SLP135 P0000 60003 T01490141 53004 $,K1LM,2023-06-09T02:55:00Z,46.7,-109.73,14.9,14.1,330,7,,10.0,30.0,1013.5,,TRUE,TRUE,TRUE,,,,,,SCT,3500,BKN,4500,BKN,6000,BKN,8000,VFR,0.4,,,,,0.005,0.03,,,,,METAR,1417.0
K1KW 090255Z AUTO 00000KT 10SM FEW150 OVC190 17/12 M RMK AO2 SLPNO T01690118 $,K1KW,2023-06-09T02:55:00Z,41.13,-103.48,16.9,11.8,0,0,,10.0,,,,TRUE,TRUE,TRUE,,,,,,FEW,15000,OVC,19000,,,,,VFR,,,,,,,,,,,,METAR,1443.0
K1JW 090255Z AUTO 32005KT 10SM OVC170 18/11 M RMK AO2 SLPNO T01830109 $,K1JW,2023-06-09T02:55:00Z,40.97,-103.2,18.3,10.9,320,5,,10.0,,,,TRUE,TRUE,TRUE,,,,,,OVC,17000,,,,,,,VFR,,,,,,,,,,,,METAR,1382.0
K1JN 090255Z AUTO 05006KT 9SM BKN180 BKN210 18/18 A2989 RMK AO2 SLP121 60013 T01840184 55001 $,K1JN,2023-06-09T02:55:00Z,,,18.4,18.4,50,6,,9.0,29.890747,1012.1,,TRUE,TRUE,TRUE,,,,,,BKN,18000,BKN,21000,,,,,VFR,-0.1,,,,,,0.13,,,,,METAR,
K1JM 090255Z AUTO 03006KT 10SM FEW024 FEW055 BKN100 17/14 A2995 RMK AO2 LTG DSNT E SLP126 60000 T01680144 50004 $,K1JM,2023-06-09T02:55:00Z,47.75,-111.55,16.8,14.4,30,6,,10.0,29.949802,1012.6,,TRUE,TRUE,TRUE,,,,,,FEW,2400,FEW,5500,BKN,10000,,,VFR,0.4,,,,,,0.005,,,,,METAR,1154.0
K1IW 090255Z AUTO 31006KT 10SM FEW090 OVC110 20/14 A2997 RMK AO2 SLP102 T02010144 53010 $,K1IW,2023-06-09T02:55:00Z,41.05,-102.87,20.1,14.4,310,6,,10.0,29.970472,1010.2,,TRUE,TRUE,TRUE,,,,,,FEW,9000,OVC,11000,,,,,VFR,1.0,,,,,,,,,,,METAR,1294.0
K1IN 090255Z AUTO 05009KT 10SM FEW190 SCT210 20/19 A2989 RMK AO2 RAB09E34 SLP120 P0000 60011 T01950188 50009 $,K1IN,2023-06-09T02:55:00Z,,,19.5,18.8,50,9,,10.0,29.890747,1012.0,,TRUE,TRUE,TRUE,,,,,,FEW,19000,SCT,21000,,,,,VFR,0.9,,,,,0.005,0.11,,,,,METAR,
K1IM 090255Z AUTO 11005KT 8SM VCTS -RA SCT044 BKN100 OVC140 15/15 A2994 RMK AO2 SLP131 P0016 60016 T01530151 52008 $,K1IM,2023-06-09T02:55:00Z,47.32,-111.47,15.3,15.1,110,5,,8.0,29.940945,1013.1,,TRUE,TRUE,TRUE,,,,,VCTS -RA,SCT,4400,BKN,10000,OVC,14000,,,VFR,0.8,,,,,0.16,0.16,,,,,METAR,1110.0
K1HW 090255Z AUTO 32008KT 10SM SCT120 18/12 A2995 RMK AO2 SLP101 T01790121 52012 $,K1HW,2023-06-09T02:55:00Z,41.32,-102.83,17.9,12.1,320,8,,10.0,29.949802,1010.1,,TRUE,TRUE,TRUE,,,,,,SCT,12000,,,,,,,VFR,1.2,,,,,,,,,,,METAR,1265.0
K1HM 090255Z AUTO 23009KT 8SM RA BKN025 BKN031 OVC065 16/14 A2996 RMK AO2 RAE00RAB38 SLP132 P0007 60010 T01580143 50002 $,K1HM,2023-06-09T02:55:00Z,47.7,-111.95,15.8,14.3,230,9,,8.0,29.958662,1013.2,,TRUE,TRUE,TRUE,,,,,RA,BKN,2500,BKN,3100,OVC,6500,,,MVFR,0.2,,,,,0.07,0.1,,,,,METAR,1181.0
K1GN 090255Z AUTO 05014KT 10SM BKN160 20/19 A2986 RMK AO2 RAE34 SLP114 P0000 60000 T02010194 50005 $,K1GN,2023-06-09T02:55:00Z,,,20.1,19.4,50,14,,10.0,29.861221,1011.4,,TRUE,TRUE,TRUE,,,,,,BKN,16000,,,,,,,VFR,0.5,,,,,0.005,0.005,,,,,METAR,
K1GM 090255Z AUTO 31008KT 10SM OVC017 15/14 M RMK AO2 LTG DSNT E RAE02 OVC V BKN SLPNO P0000 60002 T01470136 $,K1GM,2023-06-09T02:55:00Z,47.33,-112.1,14.7,13.6,310,8,,10.0,,,,TRUE,TRUE,TRUE,,,,,,OVC,1700,,,,,,,MVFR,,,,,,0.005,0.02,,,,,METAR,1317.0
K1FW 090255Z AUTO 00000KT 10SM FEW110 BKN180 17/10 A2998 RMK AO2 SLP101 60000 T01730102 50009 $,K1FW,2023-06-09T02:55:00Z,41.37,-103.48,17.3,10.2,0,0,,10.0,29.97933,1010.1,,TRUE,TRUE,TRUE,,,,,,FEW,11000,BKN,18000,,,,,VFR,0.9,,,,,,0.005,,,,,METAR,1451.0
K1FM 090255Z AUTO 36009KT 10SM -RA BKN070 OVC090 15/15 A2999 RMK AO2 SLP133 P0003 60044 T01480146 57007 $,K1FM,2023-06-09T02:55:00Z,47.6,-112.32,14.8,14.6,360,9,,10.0,29.991142,1013.3,,TRUE,TRUE,TRUE,,,,,-RA,BKN,7000,OVC,9000,,,,,VFR,-0.7,,,,,0.03,0.44,,,,,METAR,1344.0
K1EW 090255Z AUTO 16004KT 10SM BKN110 BKN130 17/12 A3002 RMK AO2 SLP113 T01650120 51003 $,K1EW,2023-06-09T02:55:00Z,41.12,-103.98,16.5,12.0,160,4,,10.0,30.02067,1011.3,,TRUE,TRUE,TRUE,,,,,,BKN,11000,BKN,13000,,,,,VFR,0.3,,,,,,,,,,,METAR,1609.0
K1EN 090255Z AUTO 12009KT 10SM CLR 21/17 A2966 RMK AO2 SLP043 T02080174 50014 $,K1EN,2023-06-09T02:55:00Z,,,20.8,17.4,120,9,,10.0,29.660433,1004.3,,TRUE,TRUE,TRUE,,,,,,CLR,,,,,,,,VFR,1.4,,,,,,,,,,,METAR,
K1EM 090255Z AUTO 11004KT 10SM BKN043 BKN050 BKN140 19/16 A2996 RMK AO2 LTG DSNT E-SE AND W SLP125 T01930157 53006 $,K1EM,2023-06-09T02:55:00Z,47.45,-109.42,19.3,15.7,110,4,,10.0,29.958662,1012.5,,TRUE,TRUE,TRUE,,,,,,BKN,4300,BKN,5000,BKN,14000,,,VFR,0.6,,,,,,,,,,,METAR,1118.0
K1DM 090255Z AUTO 22008KT 10SM VCTS -RA FEW060 BKN100 OVC110 17/16 A2997 RMK AO2 RAB05 TSB12E46 SLP138 P0004 60006 T01680158 52008 $,K1DM,2023-06-09T02:55:00Z,47.37,-109.8,16.8,15.8,220,8,,10.0,29.970472,1013.8,,TRUE,TRUE,TRUE,,,,,VCTS -RA,FEW,6000,BKN,10000,OVC,11000,,,VFR,0.8,,,,,0.04,0.06,,,,,METAR,1093.0
K1CW 090255Z AUTO 00000KT 10SM OVC150 17/12 A2999 RMK AO2 SLP113 60019 T01680117 50009 $,K1CW,2023-06-09T02:55:00Z,41.58,-103.57,16.8,11.7,0,0,,10.0,29.991142,1011.3,,TRUE,TRUE,TRUE,,,,,,OVC,15000,,,,,,,VFR,0.9,,,,,,0.19,,,,,METAR,1370.0
K1CN 090255Z AUTO 11009KT 10SM CLR 20/16 A2986 RMK AO2 SLP105 T01980158 50017 $,K1CN,2023-06-09T02:55:00Z,,,19.8,15.8,110,9,,10.0,29.861221,1010.5,,TRUE,TRUE,TRUE,,,,,,CLR,,,,,,,,VFR,1.7,,,,,,,,,,,METAR,
K1CM 090255Z AUTO 32003KT 10SM -RA FEW028 SCT065 BKN085 OVC110 15/15 A3001 RMK AO2 LTG DSNT E AND NW SLP144 P0002 60012 T01490146 50010 $,K1CM,2023-06-09T02:55:00Z,47.1,-110.17,14.9,14.6,320,3,,10.0,30.008858,1014.4,,TRUE,TRUE,TRUE,,,,,-RA,FEW,2800,SCT,6500,BKN,8500,OVC,11000,VFR,1.0,,,,,0.02,0.12,,,,,METAR,1338.0
K1BW 090255Z AUTO 00000KT 10SM OVC220 16/11 A3006 RMK AO2 SLP131 60002 T01570105 58005 $,K1BW,2023-06-09T02:55:00Z,41.52,-104.0,15.7,10.5,0,0,,10.0,30.059055,1013.1,,TRUE,TRUE,TRUE,,,,,,OVC,22000,,,,,,,VFR,-0.5,,,,,,0.02,,,,,METAR,1606.0
K1AN 090255Z AUTO 13006KT 10SM FEW150 SCT170 20/16 A2979 RMK AO2 SLP101 60017 T02040156 50005 $,K1AN,2023-06-09T02:55:00Z,,,20.4,15.6,130,6,,10.0,29.790354,1010.1,,TRUE,TRUE,TRUE,,,,,,FEW,15000,SCT,17000,,,,,VFR,0.5,,,,,,0.17,,,,,METAR,
K1AM 090255Z AUTO 09007KT 3SM VCTS RA BR BKN050 OVC070 15/14 A2999 RMK AO2 PK WND 11027/07 RAB05 TSB25E41 SLP139 P0017 60017 T01530137 53015 $,K1AM,2023-06-09T02:55:00Z,47.28,-110.8,15.3,13.7,90,7,,3.0,29.991142,1013.9,,TRUE,TRUE,TRUE,,,,,VCTS RA BR,BKN,5000,OVC,7000,,,,,MVFR,1.5,,,,,0.17,0.17,,,,,METAR,1228.0
FJDG 090255Z 15018G24KT 9999 SCT018 SCT050 BKN080 27/26 A2990 RMK SLP122 P0001 60001 8/870 T02720256 52017,FJDG,2023-06-09T02:55:00Z,-7.32,72.42,27.2,25.6,150,18,24,6.21,29.899607,1012.2,,,,,,,,,,SCT,1800,SCT,5000,BKN,8000,,,VFR,1.7,,,,,0.01,0.01,,,,,METAR,3.0
ETOU 090255Z AUTO 00000KT 9999 CLR 13/12 A2994 RMK AO2 SLP140 T01260124 58002,ETOU,2023-06-09T02:55:00Z,50.03,8.32,12.6,12.4,0,0,,6.21,29.940945,1014.0,,TRUE,TRUE,,,,,,,CLR,,,,,,,,VFR,-0.2,,,,,,,,,,,METAR,141.0
ETIK 090255Z AUTO 00000KT 9000 BR OVC100 12/11 A2996 RMK AO2 SLP148 T01160114 55002,ETIK,2023-06-09T02:55:00Z,49.47,10.38,11.6,11.4,0,0,,5.59,29.958662,1014.8,,TRUE,TRUE,,,,,,BR,OVC,10000,,,,,,,VFR,-0.2,,,,,,,,,,,METAR,326.0
ETIH 090255Z AUTO 00000KT 9999 BKN080 OVC110 11/10 A2996 RMK AO2 SLP144 T01090095 57005,ETIH,2023-06-09T02:55:00Z,49.22,11.83,10.9,9.5,0,0,,6.21,29.958662,1014.4,,TRUE,TRUE,,,,,,,BKN,8000,OVC,11000,,,,,VFR,-0.5,,,,,,,,,,,METAR,436.0
ETIC 090255Z AUTO 00000KT 9999 FEW075 BKN100 OVC120 11/10 A2994 RMK AO2 SLP138 T01090104 56006 $,ETIC,2023-06-09T02:55:00Z,49.7,11.93,10.9,10.4,0,0,,6.21,29.940945,1013.8,,TRUE,TRUE,TRUE,,,,,,FEW,7500,BKN,10000,OVC,12000,,,VFR,-0.6,,,,,,,,,,,METAR,414.0
ETEB 090255Z AUTO 06004KT 9999 FEW090 BKN110 13/12 A2995 RMK AO2 SLP154 T01330115 55003 $,ETEB,2023-06-09T02:55:00Z,49.32,10.63,13.3,11.5,60,4,,6.21,29.949802,1015.4,,TRUE,TRUE,TRUE,,,,,,FEW,9000,BKN,11000,,,,,VFR,-0.3,,,,,,,,,,,METAR,466.0
ETAR 090255Z AUTO 00000KT 9999 CLR 08/07 A2992 RMK AO2 SLP135 T00800072 57006,ETAR,2023-06-09T02:55:00Z,49.43,7.58,8.0,7.2,0,0,,6.21,29.920275,1013.5,,TRUE,TRUE,,,,,,,CLR,,,,,,,,VFR,-0.6,,,,,,,,,,,METAR,231.0
ETAD 090255Z AUTO 00000KT 9999 CLR 12/12 A2992 RMK AO2 SLP121 T01230117 56007,ETAD,2023-06-09T02:55:00Z,49.98,6.7,12.3,11.7,0,0,,6.21,29.920275,1012.1,,TRUE,TRUE,,,,,,,CLR,,,,,,,,VFR,-0.7,,,,,,,,,,,METAR,365.0
BGTL 090255Z AUTO 17008KT 9999 BKN034 OVC055 M00/M07 A2996 RMK AO2 FZDZB08E10 SLP131 P0000 60000 T10021070 57012 TSNO $,BGTL,2023-06-09T02:55:00Z,76.53,-68.75,-0.2,-7.0,170,8,,6.21,29.958662,1013.1,,TRUE,TRUE,TRUE,,TRUE,,,,BKN,3400,OVC,5500,,,,,VFR,-1.2,,,,,0.005,,,,,,SPECI,79.0
PTYA 090254Z 31007KT 12SM FEW016 SCT130 BKN300 30/27 A2979 RMK SLP088 8/171 T03030266 57008,PTYA,2023-06-09T02:54:00Z,9.48,138.08,30.3,26.6,310,7,,12.0,29.790354,1008.8,,,,,,,,,,FEW,1600,SCT,13000,BKN,30000,,,VFR,-0.8,,,,,,,,,,,SPECI,4.0
PTTP 090254Z 12003KT 15SM BKN017 BKN130 OVC300 29/25 A2980 RMK SLP090 60020 8/171 T02880247 57024,PTTP,2023-06-09T02:54:00Z,6.97,158.22,28.8,24.7,120,3,,15.0,29.799213,1009.0,,,,,,,,,,BKN,1700,BKN,13000,OVC,30000,,,MVFR,-2.4,,,,,,,,,,,SPECI,36.0
PHOG 090254Z 04021KT 10SM FEW030 SCT065 28/19 A3001 RMK AO2 PK WND 04029/0231 SLP166 60000 T02830194 55004,PHOG,2023-06-09T02:54:00Z,20.9,-156.43,28.3,19.4,40,21,,10.0,30.008858,1016.6,,,TRUE,,,,,,,FEW,3000,SCT,6500,,,,,VFR,-0.4,,,,,,0.005,,,,,METAR,14.0
PHMK 090254Z 03014G25KT 10SM FEW028 SCT035 SCT055 26/20 A3005 RMK AO2 SLP176 T02610200 55002,PHMK,2023-06-09T02:54:00Z,21.15,-157.1,26.1,20.0,30,14,25,10.0,30.050198,1017.6,,,TRUE,,,,,,,FEW,2800,SCT,3500,SCT,5500,,,VFR,-0.2,,,,,,,,,,,SPECI,135.0
PGSN 090254Z 07009KT 10SM SCT017 31/26 A2977 RMK AO2 SLP101 T03110256 58017,PGSN,2023-06-09T02:54:00Z,15.12,145.72,31.1,25.6,70,9,,10.0,29.769686,1010.1,,,TRUE,,,,,,,SCT,1700,,,,,,,VFR,-1.7,,,,,,,,,,,SPECI,65.0
PAHN 090254Z AUTO 13008KT SCT080 OVC110 19/09 A2990 RMK AO2 SLP127 T01890089 53006 PWINO TSNO $,PAHN,2023-06-09T02:54:00Z,59.25,-135.52,18.9,8.9,130,8,,,29.899607,1012.7,,TRUE,TRUE,TRUE,,TRUE,,TRUE,,SCT,8000,OVC,11000,,,,,,0.6,,,,,,,,,,,METAR,15.0
KWLD 090254Z AUTO 19003KT 10SM CLR 24/18 A2982 RMK AO2 SLP085 T02390183 51011,KWLD,2023-06-09T02:54:00Z,37.17,-97.03,23.9,18.3,190,3,,10.0,29.819881,1008.5,,TRUE,TRUE,,,,,,,CLR,,,,,,,,VFR,1.1,,,,,,,,,,,METAR,351.0
KWAL 090254Z AUTO 00000KT 6SM BR CLR 14/12 A2978 RMK AO2 SLP080 T01440122 51016,KWAL,2023-06-09T02:54:00Z,37.93,-75.47,14.4,12.2,0,0,,6.0,29.778543,1008.0,,TRUE,TRUE,,,,,,BR,CLR,,,,,,,,VFR,1.6,,,,,,,,,,,METAR,10.0
KVTA 090254Z AUTO 00000KT 9SM CLR 12/08 A2985 RMK AO2 SLP104 T01170078 51013,KVTA,2023-06-09T02:54:00Z,40.02,-82.47,11.7,7.8,0,0,,9.0,29.84941,1010.4,,TRUE,TRUE,,,,,,,CLR,,,,,,,,VFR,1.3,,,,,,,,,,,METAR,268.0
KVAY 090254Z AUTO 00000KT 10SM BKN095 16/08 A2976 RMK AO2 SLP076 T01610083 51014,KVAY,2023-06-09T02:54:00Z,39.93,-74.83,16.1,8.3,0,0,,10.0,29.760826,1007.6,,TRUE,TRUE,,,,,,,BKN,9500,,,,,,,VFR,1.4,,,,,,,,,,,METAR,15.0
KUZA 090254Z AUTO 00000KT 9SM BKN095 17/11 A2983 RMK AO2 SLP094 T01720111 52019,KUZA,2023-06-09T02:54:00Z,34.98,-81.05,17.2,11.1,0,0,,9.0,29.828741,1009.4,,TRUE,TRUE,,,,,,,BKN,9500,,,,,,,VFR,1.9,,,,,,,,,,,METAR,198.0
KUIN 090254Z AUTO 06004KT 10SM CLR 19/07 A2989 RMK AO2 SLP116 T01890067 53008,KUIN,2023-06-09T02:54:00Z,39.95,-91.2,18.9,6.7,60,4,,10.0,29.890747,1011.6,,TRUE,TRUE,,,,,,,CLR,,,,,,,,VFR,0.8,,,,,,,,,,,METAR,233.0
KTQE 090254Z AUTO 11009KT 10SM CLR 23/16 A2987 RMK AO2 SLP101 T02280156 52013,KTQE,2023-06-09T02:54:00Z,41.77,-96.18,22.8,15.6,110,9,,10.0,29.870079,1010.1,,TRUE,TRUE,,,,,,,CLR,,,,,,,,VFR,1.3,,,,,,,,,,,METAR,312.0
KTAD 090254Z AUTO 14005KT 10SM CLR 19/06 A3002 RMK AO2 SLP094 T01940056 50005,KTAD,2023-06-09T02:54:00Z,37.27,-104.33,19.4,5.6,140,5,,10.0,30.02067,1009.4,,TRUE,TRUE,,,,,,,CLR,,,,,,,,VFR,0.5,,,,,,,,,,,METAR,1751.0
KSYR 090254Z 29004KT 10SM FEW038 BKN070 OVC090 14/08 A2979 RMK AO2 SLP084 T01390078 51008,KSYR,2023-06-09T02:54:00Z,43.12,-76.1,13.9,7.8,290,4,,10.0,29.790354,1008.4,,,TRUE,,,,,,,FEW,3800,BKN,7000,OVC,9000,,,VFR,0.8,,,,,,,,,,,METAR,125.0
KSUS 090254Z 00000KT 5SM BR CLR 14/12 A2987 RMK AO2 SLP111 T01390117 53009,KSUS,2023-06-09T02:54:00Z,38.65,-90.65,13.9,11.7,0,0,,5.0,29.870079,1011.1,,,TRUE,,,,,,BR,CLR,,,,,,,,MVFR,0.9,,,,,,,,,,,METAR,140.0
KSLC 090254Z 23008KT 10SM SCT095 BKN120 BKN200 21/06 A3002 RMK AO2 SLP119 VIRGA SH DSNT SW T02110061 53007 $,KSLC,2023-06-09T02:54:00Z,40.77,-111.97,21.1,6.1,230,8,,10.0,30.02067,1011.9,,,TRUE,TRUE,,,,,,SCT,9500,BKN,12000,BKN,20000,,,VFR,0.7,,,,,,,,,,,METAR,1286.0
KSET 090254Z AUTO 02005KT 10SM CLR 18/08 A2986 RMK AO2 SLP109 T01830078 53008,KSET,2023-06-09T02:54:00Z,38.93,-90.43,18.3,7.8,20,5,,10.0,29.861221,1010.9,,TRUE,TRUE,,,,,,,CLR,,,,,,,,VFR,0.8,,,,,,,,,,,METAR,133.0
KSBN 090254Z 31006KT 10SM CLR 11/04 A2992 RMK AO2 SLP130 T01110039 53005,KSBN,2023-06-09T02:54:00Z,41.7,-86.32,11.1,3.9,310,6,,10.0,29.920275,1013.0,,,TRUE,,,,,,,CLR,,,,,,,,VFR,0.5,,,,,,,,,,,METAR,236.0
KRST 090254Z 11005KT 10SM CLR 18/06 A2994 RMK AO2 SLP134 T01780061 53012,KRST,2023-06-09T02:54:00Z,43.9,-92.5,17.8,6.1,110,5,,10.0,29.940945,1013.4,,,TRUE,,,,,,,CLR,,,,,,,,VFR,1.2,,,,,,,,,,,METAR,398.0
KRSP 090254Z AUTO 34005KT 10SM FEW120 14/06 A2981 RMK AO2 SLP090 T01390056 51011 $,KRSP,2023-06-09T02:54:00Z,39.65,-77.47,13.9,5.6,340,5,,10.0,29.811024,1009.0,,TRUE,TRUE,TRUE,,,,,,FEW,12000,,,,,,,VFR,1.1,,,,,,,,,,,METAR,555.0
KROC 090254Z 31003KT 10SM OVC085 13/08 A2980 RMK AO2 SLP096 T01330083 53002,KROC,2023-06-09T02:54:00Z,43.12,-77.68,13.3,8.3,310,3,,10.0,29.799213,1009.6,,,TRUE,,,,,,,OVC,8500,,,,,,,VFR,0.2,,,,,,,,,,,METAR,166.0
KROA 090254Z AUTO 00000KT 10SM CLR 17/03 A2986 RMK AO2 SLP104 T01720028 51020,KROA,2023-06-09T02:54:00Z,37.32,-79.97,17.2,2.8,0,0,,10.0,29.861221,1010.4,,TRUE,TRUE,,,,,,,CLR,,,,,,,,VFR,2.0,,,,,,,,,,,METAR,349.0
KRKS 090254Z AUTO 32007KT 10SM CLR 13/06 A3013 RMK AO2 SLP145 60001 T01280056 51015,KRKS,2023-06-09T02:54:00Z,41.6,-109.07,12.8,5.6,320,7,,10.0,30.129921,1014.5,,TRUE,TRUE,,,,,,,CLR,,,,,,,,VFR,1.5,,,,,,0.01,,,,,METAR,2062.0
KRIC 090254Z 00000KT 5SM HZ CLR 16/12 A2978 RMK AO2 SLP087 T01560122 51013,KRIC,2023-06-09T02:54:00Z,37.52,-77.32,15.6,12.2,0,0,,5.0,29.778543,1008.7,,,TRUE,,,,,,HZ,CLR,,,,,,,,MVFR,1.3,,,,,,,,,,,METAR,51.0
KRFD 090254Z 00000KT 10SM CLR 17/03 A2995 RMK AO2 SLP138 T01720033 53016 $,KRFD,2023-06-09T02:54:00Z,42.2,-89.1,17.2,3.3,0,0,,10.0,29.949802,1013.8,,,TRUE,TRUE,,,,,,CLR,,,,,,,,VFR,1.6,,,,,,,,,,,METAR,222.0
KRDG 090254Z 32005KT 8SM BKN110 17/08 A2976 RMK AO2 SLP082 T01720078 $,KRDG,2023-06-09T02:54:00Z,40.37,-75.97,17.2,7.8,320,5,,8.0,29.760826,1008.2,,,TRUE,TRUE,,,,,,BKN,11000,,,,,,,VFR,,,,,,,,,,,,METAR,101.0
KRBL 090254Z AUTO 17008KT 10SM SCT100 26/14 A2993 RMK AO2 SLP132 T02610139 53005,KRBL,2023-06-09T02:54:00Z,40.15,-122.25,26.1,13.9,170,8,,10.0,29.929134,1013.2,,TRUE,TRUE,,,,,,,SCT,10000,,,,,,,VFR,0.5,,,,,,,,,,,METAR,107.0
KPTW 090254Z AUTO 35004KT 6SM HZ OVC095 16/08 A2979 RMK AO2 SLP084 T01560078 53015,KPTW,2023-06-09T02:54:00Z,40.23,-75.55,15.6,7.8,350,4,,6.0,29.790354,1008.4,,TRUE,TRUE,,,,,,HZ,OVC,9500,,,,,,,VFR,1.5,,,,,,,,,,,METAR,88.0
KPSF 090254Z AUTO 26004KT 10SM CLR 08/07 A2974 RMK AO2 SLP062 T00830067 51007,KPSF,2023-06-09T02:54:00Z,42.43,-73.28,8.3,6.7,260,4,,10.0,29.740158,1006.2,,TRUE,TRUE,,,,,,,CLR,,,,,,,,VFR,0.7,,,,,,,,,,,METAR,352.0
KPNE 090254Z 00000KT 10SM BKN110 17/07 A2977 RMK AO2 SLP082 T01720072 51015,KPNE,2023-06-09T02:54:00Z,40.08,-75.02,17.2,7.2,0,0,,10.0,29.769686,1008.2,,,TRUE,,,,,,,BKN,11000,,,,,,,VFR,1.5,,,,,,,,,,,METAR,32.0
KPLN 090254Z AUTO 26003KT 10SM BKN060 OVC080 12/07 A2993 RMK AO2 SLP136 T01220072 53008,KPLN,2023-06-09T02:54:00Z,45.57,-84.8,12.2,7.2,260,3,,10.0,29.929134,1013.6,,TRUE,TRUE,,,,,,,BKN,6000,OVC,8000,,,,,VFR,0.8,,,,,,,,,,,METAR,215.0
KPIA 090254Z 04003KT 10SM CLR 18/03 A2989 RMK AO2 SLP120 T01830033 51012,KPIA,2023-06-09T02:54:00Z,40.67,-89.68,18.3,3.3,40,3,,10.0,29.890747,1012.0,,,TRUE,,,,,,,CLR,,,,,,,,VFR,1.2,,,,,,,,,,,METAR,200.0
KPHL 090254Z 33007KT 8SM OVC110 19/06 A2976 RMK AO2 SLP078 T01940056 51014 $,KPHL,2023-06-09T02:54:00Z,39.87,-75.23,19.4,5.6,330,7,,8.0,29.760826,1007.8,,,TRUE,TRUE,,,,,,OVC,11000,,,,,,,VFR,1.4,,,,,,,,,,,METAR,2.0
KPHF 090254Z 00000KT 10SM FU FEW045 13/13 A2979 RMK AO2 SLP086 T01280128 51014,KPHF,2023-06-09T02:54:00Z,37.13,-76.5,12.8,12.8,0,0,,10.0,29.790354,1008.6,,,TRUE,,,,,,FU,FEW,4500,,,,,,,VFR,1.4,,,,,,,,,,,METAR,12.0
KORH 090254Z 26004KT 10SM CLR 11/08 A2973 RMK AO2 SLP070 T01060078 51007,KORH,2023-06-09T02:54:00Z,42.27,-71.87,10.6,7.8,260,4,,10.0,29.731298,1007.0,,,TRUE,,,,,,,CLR,,,,,,,,VFR,0.7,,,,,,,,,,,METAR,306.0
KOLS 090254Z AUTO 25007KT 10SM CLR 25/M06 A3004 RMK AO2 SLP107 T02501061 53007,KOLS,2023-06-09T02:54:00Z,31.42,-110.85,25.0,-6.1,250,7,,10.0,30.041338,1010.7,,TRUE,TRUE,,,,,,,CLR,,,,,,,,VFR,0.7,,,,,,,,,,,METAR,1194.0
KOLM 090254Z AUTO 23005KT 10SM CLR 20/11 A2994 RMK AO2 SLP139 T02000106 53003,KOLM,2023-06-09T02:54:00Z,46.97,-122.9,20.0,10.6,230,5,,10.0,29.940945,1013.9,,TRUE,TRUE,,,,,,,CLR,,,,,,,,VFR,0.3,,,,,,,,,,,METAR,58.0
KOFP 090254Z AUTO 00000KT 5SM HZ SCT045 BKN090 BKN110 16/13 A2979 RMK AO2 SLP086 T01610128 51016,KOFP,2023-06-09T02:54:00Z,37.7,-77.43,16.1,12.8,0,0,,5.0,29.790354,1008.6,,TRUE,TRUE,,,,,,HZ,SCT,4500,BKN,9000,BKN,11000,,,MVFR,1.6,,,,,,,,,,,METAR,63.0
KNAK 090254Z AUTO 00000KT 4SM HZ CLR 18/12 A2977 RMK AO2 RAB15E23 SLP084 P0007 60007 T01830117 51016,KNAK,2023-06-09T02:54:00Z,38.98,-76.48,18.3,11.7,0,0,,4.0,29.769686,1008.4,,TRUE,TRUE,,,,,,HZ,CLR,,,,,,,,MVFR,1.6,,,,,0.07,0.07,,,,,METAR,2.0
KMTP 090254Z AUTO 00000KT 14/10 A2974 RMK AO1 SLP072 T01390100 50007,KMTP,2023-06-09T02:54:00Z,41.07,-71.92,13.9,10.0,0,0,,,29.740158,1007.2,,TRUE,TRUE,,,,,,,,,,,,,,,,0.7,,,,,,,,,,,METAR,2.0
KMRY 090254Z AUTO 27008KT 10SM CLR 15/11 A3006 RMK AO2 SLP190 T01500111 53008,KMRY,2023-06-09T02:54:00Z,36.58,-121.85,15.0,11.1,270,8,,10.0,30.059055,1019.0,,TRUE,TRUE,,,,,,,CLR,,,,,,,,VFR,0.8,,,,,,,,,,,METAR,51.0
KMOT 090254Z 00000KT 10SM BKN034 20/16 A2988 RMK AO2 PK WND 35027/0159 SLP112 T02000161 51008,KMOT,2023-06-09T02:54:00Z,48.25,-101.27,20.0,16.1,0,0,,10.0,29.878937,1011.2,,,TRUE,,,,,,,BKN,3400,,,,,,,VFR,0.8,,,,,,,,,,,METAR,507.0
KMKC 090254Z 08007KT 10SM FEW043 22/14 A2986 RMK AO2 SLP106 T02170144 53012,KMKC,2023-06-09T02:54:00Z,39.12,-94.6,21.7,14.4,80,7,,10.0,29.861221,1010.6,,,TRUE,,,,,,,FEW,4300,,,,,,,VFR,1.2,,,,,,,,,,,METAR,228.0
KMIV 090254Z AUTO 00000KT 5SM HZ SCT047 13/10 A2975 RMK AO2 SLP074 T01280100 51013,KMIV,2023-06-09T02:54:00Z,39.37,-75.08,12.8,10.0,0,0,,5.0,29.749016,1007.4,,TRUE,TRUE,,,,,,HZ,SCT,4700,,,,,,,MVFR,1.3,,,,,,,,,,,METAR,18.0
KMGJ 090254Z AUTO 00000KT 10SM CLR 10/07 A2974 RMK AO2 SLP071 T01000072 53010,KMGJ,2023-06-09T02:54:00Z,41.52,-74.27,10.0,7.2,0,0,,10.0,29.740158,1007.1,,TRUE,TRUE,,,,,,,CLR,,,,,,,,VFR,1.0,,,,,,,,,,,METAR,106.0
KMFI 090254Z AUTO 00000KT 10SM CLR 15/04 A2994 RMK AO2 SLP136 T01500044 53005,KMFI,2023-06-09T02:54:00Z,44.63,-90.18,15.0,4.4,0,0,,10.0,29.940945,1013.6,,TRUE,TRUE,,,,,,,CLR,,,,,,,,VFR,0.5,,,,,,,,,,,METAR,383.0
KMEM 090254Z 31005KT 10SM FEW220 23/19 A2981 RMK AO2 SLP091 T02280194 53008,KMEM,2023-06-09T02:54:00Z,35.07,-89.98,22.8,19.4,310,5,,10.0,29.811024,1009.1,,,TRUE,,,,,,,FEW,22000,,,,,,,VFR,0.8,,,,,,,,,,,METAR,78.0
KLYH 090254Z AUTO 31004KT 10SM CLR 16/04 A2982 RMK AO2 SLP089 T01560039 53021,KLYH,2023-06-09T02:54:00Z,37.32,-79.2,15.6,3.9,310,4,,10.0,29.819881,1008.9,,TRUE,TRUE,,,,,,,CLR,,,,,,,,VFR,2.1,,,,,,,,,,,METAR,282.0
KLWT 090254Z AUTO 09003KT 10SM -RA SCT070 OVC090 16/14 A3000 RMK AO2 RAE0158B04 TSB0156E0158B0159E01B07E09 SLP135 P0002 60038 T01560144 50006,KLWT,2023-06-09T02:54:00Z,47.05,-109.47,15.6,14.4,90,3,,10.0,30.0,1013.5,,TRUE,TRUE,,,,,,-RA,SCT,7000,OVC,9000,,,,,VFR,0.6,,,,,0.02,0.38,,,,,METAR,1254.0
KLWM 090254Z AUTO 00000KT 10SM OVC080 13/11 A2974 RMK AO2 SLP069 T01280106 51007,KLWM,2023-06-09T02:54:00Z,42.72,-71.13,12.8,10.6,0,0,,10.0,29.740158,1006.9,,TRUE,TRUE,,,,,,,OVC,8000,,,,,,,VFR,0.7,,,,,,,,,,,METAR,42.0
KLNK 090254Z 11008KT 10SM CLR 24/18 A2986 RMK AO2 SLP101 T02440183 53012,KLNK,2023-06-09T02:54:00Z,40.85,-96.77,24.4,18.3,110,8,,10.0,29.861221,1010.1,,,TRUE,,,,,,,CLR,,,,,,,,VFR,1.2,,,,,,,,,,,METAR,357.0
KLEX 090254Z 00000KT 10SM CLR 17/07 A2987 RMK AO2 SLP109 T01670072 51009 $,KLEX,2023-06-09T02:54:00Z,38.03,-84.6,16.7,7.2,0,0,,10.0,29.870079,1010.9,,,TRUE,TRUE,,,,,,CLR,,,,,,,,VFR,0.9,,,,,,,,,,,METAR,294.0
KLAF 090254Z AUTO 01006KT 10SM CLR 17/02 A2989 RMK AO2 SLP120 T01670017 51017,KLAF,2023-06-09T02:54:00Z,40.42,-86.93,16.7,1.7,10,6,,10.0,29.890747,1012.0,,TRUE,TRUE,,,,,,,CLR,,,,,,,,VFR,1.7,,,,,,,,,,,METAR,182.0
KJST 090254Z AUTO 24004KT 10SM FEW043 SCT070 BKN100 11/07 A2983 RMK AO2 SLP100 T01060072 53008,KJST,2023-06-09T02:54:00Z,40.32,-78.83,10.6,7.2,240,4,,10.0,29.828741,1010.0,,TRUE,TRUE,,,,,,,FEW,4300,SCT,7000,BKN,10000,,,VFR,0.8,,,,,,,,,,,METAR,695.0
KJAN 090254Z 00000KT 10SM FEW070 24/20 A2982 RMK AO2 SLP092 60000 T02440200 51022,KJAN,2023-06-09T02:54:00Z,32.32,-90.08,24.4,20.0,0,0,,10.0,29.819881,1009.2,,,TRUE,,,,,,,FEW,7000,,,,,,,VFR,2.2,,,,,,0.005,,,,,METAR,92.0
KIZG 090254Z AUTO 00000KT 10SM BKN010 OVC065 11/10 A2974 RMK AO2 SLP072 T01060100 51007,KIZG,2023-06-09T02:54:00Z,43.98,-70.95,10.6,10.0,0,0,,10.0,29.740158,1007.2,,TRUE,TRUE,,,,,,,BKN,1000,OVC,6500,,,,,MVFR,0.7,,,,,,,,,,,METAR,138.0
KIPT 090254Z AUTO 01004KT 10SM BKN065 OVC080 14/11 A2980 RMK AO2 SLP090 T01390106 51010,KIPT,2023-06-09T02:54:00Z,41.25,-76.92,13.9,10.6,10,4,,10.0,29.799213,1009.0,,TRUE,TRUE,,,,,,,BKN,6500,OVC,8000,,,,,VFR,1.0,,,,,,,,,,,METAR,160.0
KINT 090254Z AUTO 34004KT 10SM CLR 17/05 A2985 RMK AO2 SLP101 T01720050 51020,KINT,2023-06-09T02:54:00Z,36.13,-80.22,17.2,5.0,340,4,,10.0,29.84941,1010.1,,TRUE,TRUE,,,,,,,CLR,,,,,,,,VFR,2.0,,,,,,,,,,,METAR,292.0
KINL 090254Z AUTO 00000KT 10SM CLR 14/08 A2992 RMK AO2 SLP134 T01390083 53005,KINL,2023-06-09T02:54:00Z,48.57,-93.4,13.9,8.3,0,0,,10.0,29.920275,1013.4,,TRUE,TRUE,,,,,,,CLR,,,,,,,,VFR,0.5,,,,,,,,,,,METAR,353.0
KIND 090254Z 36011KT 10SM CLR 19/03 A2988 RMK AO2 SLP113 T01940028 53016,KIND,2023-06-09T02:54:00Z,39.72,-86.27,19.4,2.8,360,11,,10.0,29.878937,1011.3,,,TRUE,,,,,,,CLR,,,,,,,,VFR,1.6,,,,,,,,,,,METAR,242.0
KIMT 090254Z AUTO 00000KT 10SM CLR 11/02 A2994 RMK AO2 SLP140 T01060022 53011,KIMT,2023-06-09T02:54:00Z,45.82,-88.12,10.6,2.2,0,0,,10.0,29.940945,1014.0,,TRUE,TRUE,,,,,,,CLR,,,,,,,,VFR,1.1,,,,,,,,,,,METAR,343.0
KILN 090254Z AUTO 23003KT 7SM BKN095 15/06 A2986 RMK AO2 SLP110 T01500061 53010,KILN,2023-06-09T02:54:00Z,39.43,-83.8,15.0,6.1,230,3,,7.0,29.861221,1011.0,,TRUE,TRUE,,,,,,,BKN,9500,,,,,,,VFR,1.0,,,,,,,,,,,METAR,325.0
KHWD 090254Z 29013KT 10SM FEW017 16/11 A3004 RMK AO2 SLP182 T01560111 53010,KHWD,2023-06-09T02:54:00Z,37.67,-122.12,15.6,11.1,290,13,,10.0,30.041338,1018.2,,,TRUE,,,,,,,FEW,1700,,,,,,,VFR,1.0,,,,,,,,,,,METAR,9.0
KGSO 090254Z 00000KT 10SM FEW090 16/06 A2983 RMK AO2 SLP094 T01610061 53019,KGSO,2023-06-09T02:54:00Z,36.1,-79.95,16.1,6.1,0,0,,10.0,29.828741,1009.4,,,TRUE,,,,,,,FEW,9000,,,,,,,VFR,1.9,,,,,,,,,,,METAR,275.0
KGED 090254Z AUTO 00000KT 3SM BR CLR 14/12 A2977 RMK AO2 SLP079 6//// T01390122 51017 PNO $,KGED,2023-06-09T02:54:00Z,38.68,-75.37,13.9,12.2,0,0,,3.0,29.769686,1007.9,,TRUE,TRUE,TRUE,,,,,BR,CLR,,,,,,,,MVFR,1.7,,,,,,,,,,,METAR,15.0
KGCN 090254Z AUTO 21009KT 10SM CLR 17/M06 A3015 RMK AO2 SLP122 T01721061 53008,KGCN,2023-06-09T02:54:00Z,35.95,-112.15,17.2,-6.1,210,9,,10.0,30.15059,1012.2,,TRUE,TRUE,,,,,,,CLR,,,,,,,,VFR,0.8,,,,,,,,,,,METAR,1993.0
KGCK 090254Z AUTO 14007KT 10SM CLR 23/15 A2990 RMK AO2 SLP093 T02280150 51014,KGCK,2023-06-09T02:54:00Z,37.92,-100.72,22.8,15.0,140,7,,10.0,29.899607,1009.3,,TRUE,TRUE,,,,,,,CLR,,,,,,,,VFR,1.4,,,,,,,,,,,METAR,877.0
KFZY 090254Z AUTO 29004KT 9SM OVC085 12/10 A2979 RMK AO2 SLP088 60000 T01170100 51005,KFZY,2023-06-09T02:54:00Z,43.35,-76.38,11.7,10.0,290,4,,9.0,29.790354,1008.8,,TRUE,TRUE,,,,,,,OVC,8500,,,,,,,VFR,0.5,,,,,,0.005,,,,,METAR,143.0
KFWA 090254Z 33009KT 10SM CLR 17/03 A2988 RMK AO2 SLP116 T01720028 53014,KFWA,2023-06-09T02:54:00Z,40.98,-85.2,17.2,2.8,330,9,,10.0,29.878937,1011.6,,,TRUE,,,,,,,CLR,,,,,,,,VFR,1.4,,,,,,,,,,,METAR,243.0
KFIG 090254Z AUTO 34003KT 10SM OVC100 12/08 A2983 RMK AO2 SLP100 T01170083 53008,KFIG,2023-06-09T02:54:00Z,41.05,-78.42,11.7,8.3,340,3,,10.0,29.828741,1010.0,,TRUE,TRUE,,,,,,,OVC,10000,,,,,,,VFR,0.8,,,,,,,,,,,METAR,461.0
KFFZ 090254Z 29005KT 10SM CLR 31/M03 A2986 RMK AO2 SLP088 T03111033 53000,KFFZ,2023-06-09T02:54:00Z,33.47,-111.72,31.1,-3.3,290,5,,10.0,29.861221,1008.8,,,TRUE,,,,,,,CLR,,,,,,,,VFR,0.0,,,,,,,,,,,METAR,420.0
KEWN 090254Z AUTO 00000KT 9SM CLR 18/15 A2980 RMK AO2 SLP091 T01830150 51024,KEWN,2023-06-09T02:54:00Z,35.07,-77.05,18.3,15.0,0,0,,9.0,29.799213,1009.1,,TRUE,TRUE,,,,,,,CLR,,,,,,,,VFR,2.4,,,,,,,,,,,METAR,3.0
KEVV 090254Z 00000KT 8SM CLR 18/08 A2986 RMK AO2 SLP107 T01780083 53009 $,KEVV,2023-06-09T02:54:00Z,38.05,-87.52,17.8,8.3,0,0,,8.0,29.861221,1010.7,,,TRUE,TRUE,,,,,,CLR,,,,,,,,VFR,0.9,,,,,,,,,,,METAR,123.0
KEUG 090254Z 03004KT 10SM FEW100 BKN150 BKN250 22/13 A2996 RMK AO2 SLP145 T02170128 53004,KEUG,2023-06-09T02:54:00Z,44.13,-123.22,21.7,12.8,30,4,,10.0,29.958662,1014.5,,,TRUE,,,,,,,FEW,10000,BKN,15000,BKN,25000,,,VFR,0.4,,,,,,,,,,,METAR,109.0
KEFD 090254Z 00000KT 10SM FEW055 21/19 A2984,KEFD,2023-06-09T02:54:00Z,29.6,-95.17,21.0,19.0,0,0,,10.0,29.840551,,,,,,,,,,,FEW,5500,,,,,,,VFR,,,,,,,,,,,,METAR,9.0
KECG 090254Z 00000KT 7SM CLR 15/13 A2979 RMK AO2 SLP086 T01500133 51013,KECG,2023-06-09T02:54:00Z,36.27,-76.18,15.0,13.3,0,0,,7.0,29.790354,1008.6,,,TRUE,,,,,,,CLR,,,,,,,,VFR,1.3,,,,,,,,,,,METAR,2.0
KDYL 090254Z AUTO 00000KT 10SM OVC095 17/07 A2976 RMK AO2 SLP076 T01670072 53014,KDYL,2023-06-09T02:54:00Z,40.33,-75.12,16.7,7.2,0,0,,10.0,29.760826,1007.6,,TRUE,TRUE,,,,,,,OVC,9500,,,,,,,VFR,1.4,,,,,,,,,,,METAR,121.0
KDSV 090254Z AUTO 15004KT 10SM OVC085 11/09 A2982 RMK AO2 SLP107 T01110094 52008,KDSV,2023-06-09T02:54:00Z,42.57,-77.72,11.1,9.4,150,4,,10.0,29.819881,1010.7,,TRUE,TRUE,,,,,,,OVC,8500,,,,,,,VFR,0.8,,,,,,,,,,,METAR,195.0
KDSM 090254Z 08005KT 10SM FEW250 21/09 A2991 RMK AO2 SLP123 T02060089 53008,KDSM,2023-06-09T02:54:00Z,41.53,-93.67,20.6,8.9,80,5,,10.0,29.911417,1012.3,,,TRUE,,,,,,,FEW,25000,,,,,,,VFR,0.8,,,,,,,,,,,METAR,286.0
KDMH 090254Z AUTO 21/06 A2978 RMK AO1 SLP086 T02060061 53016,KDMH,2023-06-09T02:54:00Z,39.28,-76.62,20.6,6.1,,,,,29.778543,1008.6,,TRUE,TRUE,,,,,,,,,,,,,,,,1.6,,,,,,,,,,,METAR,4.0
KDEC 090254Z 04008KT 10SM CLR 17/06 A2989 RMK AO2 SLP117 T01720061 53013,KDEC,2023-06-09T02:54:00Z,39.83,-88.87,17.2,6.1,40,8,,10.0,29.890747,1011.7,,,TRUE,,,,,,,CLR,,,,,,,,VFR,1.3,,,,,,,,,,,METAR,205.0
KDDH 090254Z AUTO 00000KT 10SM OVC080 11/09 A2974 RMK AO2 SLP071 T01110094 50006,KDDH,2023-06-09T02:54:00Z,42.9,-73.25,11.1,9.4,0,0,,10.0,29.740158,1007.1,,TRUE,TRUE,,,,,,,OVC,8000,,,,,,,VFR,0.6,,,,,,,,,,,METAR,241.0
KCRW 090254Z 00000KT 10SM CLR 13/06 A2986 RMK AO2 SLP108 T01330061 53013,KCRW,2023-06-09T02:54:00Z,38.38,-81.58,13.3,6.1,0,0,,10.0,29.861221,1010.8,,,TRUE,,,,,,,CLR,,,,,,,,VFR,1.3,,,,,,,,,,,METAR,278.0
KCOU 090254Z AUTO 06003KT 10SM CLR 19/09 A2989 RMK AO2 SLP115 T01940089 53009,KCOU,2023-06-09T02:54:00Z,38.82,-92.22,19.4,8.9,60,3,,10.0,29.890747,1011.5,,TRUE,TRUE,,,,,,,CLR,,,,,,,,VFR,0.9,,,,,,,,,,,METAR,272.0
KCEU 090254Z AUTO 03005KT 10SM OVC070 21/08 A2984 RMK AO2 SLP098 T02060083 51028,KCEU,2023-06-09T02:54:00Z,34.67,-82.88,20.6,8.3,30,5,,10.0,29.840551,1009.8,,TRUE,TRUE,,,,,,,OVC,7000,,,,,,,VFR,2.8,,,,,,,,,,,METAR,270.0
KCAR 090254Z AUTO 07006KT 10SM OVC021 11/09 A2981 RMK AO2 SLP098 T01110089 51010,KCAR,2023-06-09T02:54:00Z,46.87,-68.02,11.1,8.9,70,6,,10.0,29.811024,1009.8,,TRUE,TRUE,,,,,,,OVC,2100,,,,,,,MVFR,1.0,,,,,,,,,,,METAR,189.0
KBWI 090254Z 32004KT 5SM HZ FEW100 SCT120 19/09 A2977 RMK AO2 SLP080 T01890089 51016,KBWI,2023-06-09T02:54:00Z,39.17,-76.68,18.9,8.9,320,4,,5.0,29.769686,1008.0,,,TRUE,,,,,,HZ,FEW,10000,SCT,12000,,,,,MVFR,1.6,,,,,,,,,,,METAR,42.0
KBUY 090254Z AUTO 25003KT 10SM OVC100 15/10 A2982 RMK AO2 SLP093 T01500100 53018,KBUY,2023-06-09T02:54:00Z,36.05,-79.47,15.0,10.0,250,3,,10.0,29.819881,1009.3,,TRUE,TRUE,,,,,,,OVC,10000,,,,,,,VFR,1.8,,,,,,,,,,,METAR,185.0
KBUF 090254Z 25005KT 10SM SCT050 BKN070 OVC095 14/09 A2982 RMK AO2 SLP097 T01390089 53006,KBUF,2023-06-09T02:54:00Z,42.93,-78.73,13.9,8.9,250,5,,10.0,29.819881,1009.7,,,TRUE,,,,,,,SCT,5000,BKN,7000,OVC,9500,,,VFR,0.6,,,,,,,,,,,METAR,217.0
KBTV 090254Z 00000KT 10SM BKN007 BKN075 13/12 A2974 RMK AO2 SLP070 T01280117 50002,KBTV,2023-06-09T02:54:00Z,44.47,-73.15,12.8,11.7,0,0,,10.0,29.740158,1007.0,,,TRUE,,,,,,,BKN,700,BKN,7500,,,,,IFR,0.2,,,,,,,,,,,METAR,101.0
KBOS 090254Z 00000KT 10SM BKN065 BKN100 14/11 A2972 RMK AO2 SLP065 T01440111 51007,KBOS,2023-06-09T02:54:00Z,42.37,-71.02,14.4,11.1,0,0,,10.0,29.719488,1006.5,,,TRUE,,,,,,,BKN,6500,BKN,10000,,,,,VFR,0.7,,,,,,,,,,,METAR,4.0
KBFL 090254Z 31006KT 5SM HZ CLR 25/14 A2994 RMK AO2 SLP132 T02500139 53002,KBFL,2023-06-09T02:54:00Z,35.43,-119.05,25.0,13.9,310,6,,5.0,29.940945,1013.2,,,TRUE,,,,,,HZ,CLR,,,,,,,,MVFR,0.2,,,,,,,,,,,METAR,146.0
KAVP 090254Z 00000KT 8SM BKN042 OVC060 12/10 A2979 RMK AO2 SLP084 60000 T01170100 50006,KAVP,2023-06-09T02:54:00Z,41.33,-75.72,11.7,10.0,0,0,,8.0,29.790354,1008.4,,,TRUE,,,,,,,BKN,4200,OVC,6000,,,,,VFR,0.6,,,,,,0.005,,,,,METAR,290.0
KAVL 090254Z AUTO 33006KT 10SM CLR 16/07 A2990 RMK AO2 SLP105 T01610072 51016,KAVL,2023-06-09T02:54:00Z,35.43,-82.53,16.1,7.2,330,6,,10.0,29.899607,1010.5,,TRUE,TRUE,,,,,,,CLR,,,,,,,,VFR,1.6,,,,,,,,,,,METAR,646.0
KAUW 090254Z AUTO 32004KT 10SM CLR 18/07 A2992 RMK AO2 SLP132 T01830072 53006,KAUW,2023-06-09T02:54:00Z,44.93,-89.62,18.3,7.2,320,4,,10.0,29.920275,1013.2,,TRUE,TRUE,,,,,,,CLR,,,,,,,,VFR,0.6,,,,,,,,,,,METAR,367.0
KAPN 090254Z AUTO 32003KT 10SM BKN080 14/06 A2990 RMK AO2 SLP125 T01440061 51005,KAPN,2023-06-09T02:54:00Z,45.07,-83.57,14.4,6.1,320,3,,10.0,29.899607,1012.5,,TRUE,TRUE,,,,,,,BKN,8000,,,,,,,VFR,0.5,,,,,,,,,,,METAR,208.0
KAPC 090254Z AUTO 26012KT 10SM CLR A3002 RMK AO2 SLP159 53012 $,KAPC,2023-06-09T02:54:00Z,38.2,-122.28,,,260,12,,10.0,30.02067,1015.9,,TRUE,TRUE,TRUE,,,,,,CLR,,,,,,,,VFR,1.2,,,,,,,,,,,METAR,5.0
KALO 090254Z AUTO 05004KT 10SM CLR 18/09 A2991 RMK AO2 SLP125 T01830089 53014,KALO,2023-06-09T02:54:00Z,42.55,-92.4,18.3,8.9,50,4,,10.0,29.911417,1012.5,,TRUE,TRUE,,,,,,,CLR,,,,,,,,VFR,1.4,,,,,,,,,,,METAR,264.0
KAKR 090254Z AUTO 00000KT 10SM BKN100 OVC120 17/05 A2984 RMK AO2 SLP101 T01670050 51007,KAKR,2023-06-09T02:54:00Z,41.03,-81.47,16.7,5.0,0,0,,10.0,29.840551,1010.1,,TRUE,TRUE,,,,,,,BKN,10000,OVC,12000,,,,,VFR,0.7,,,,,,,,,,,METAR,319.0
KAKH 090254Z AUTO 36004KT 10SM OVC100 17/08 A2984 RMK AO2 SLP100 T01720083 53020,KAKH,2023-06-09T02:54:00Z,35.2,-81.15,17.2,8.3,360,4,,10.0,29.840551,1010.0,,TRUE,TRUE,,,,,,,OVC,10000,,,,,,,VFR,2.0,,,,,,,,,,,METAR,242.0
KACY 090254Z 00000KT 5SM HZ BKN120 14/09 A2975 RMK AO2 SLP073 T01390094 51015,KACY,2023-06-09T02:54:00Z,39.45,-74.57,13.9,9.4,0,0,,5.0,29.749016,1007.3,,,TRUE,,,,,,HZ,BKN,12000,,,,,,,MVFR,1.5,,,,,,,,,,,METAR,18.0
KAAO 090254Z AUTO 34003KT 10SM FEW100 26/16 A2982 RMK AO2 SLP084 T02610156 53013,KAAO,2023-06-09T02:54:00Z,37.75,-97.22,26.1,15.6,340,3,,10.0,29.819881,1008.4,,TRUE,TRUE,,,,,,,FEW,10000,,,,,,,VFR,1.3,,,,,,,,,,,METAR,429.0
K1V4 090254Z AUTO 10/09 A2972 RMK AO1 SLP062 T01000089 51006,K1V4,2023-06-09T02:54:00Z,44.42,-72.02,10.0,8.9,,,,,29.719488,1006.2,,TRUE,TRUE,,,,,,,,,,,,,,,,0.6,,,,,,,,,,,METAR,213.0
K12N 090254Z AUTO 35003KT 15/07 A2976 RMK AO1 SLP075 T01500072 51009,K12N,2023-06-09T02:54:00Z,41.02,-74.73,15.0,7.2,350,3,,,29.760826,1007.5,,TRUE,TRUE,,,,,,,,,,,,,,,,0.9,,,,,,,,,,,METAR,178.0
TJNR 090253Z AUTO 10006KT 9SM OVC015 28/25 A3010 RMK AO2 SLP191 T02780250 51010,TJNR,2023-06-09T02:53:00Z,18.25,-65.63,27.8,25.0,100,6,,9.0,30.100393,1019.1,,TRUE,TRUE,,,,,,,OVC,1500,,,,,,,MVFR,1.0,,,,,,,,,,,METAR,7.0
TISX 090253Z AUTO 09012KT 10SM FEW020 SCT027 SCT040 28/25 A3008 RMK AO2 SLP186 T02830250 51012,TISX,2023-06-09T02:53:00Z,17.7,-64.8,28.3,25.0,90,12,,10.0,30.079725,1018.6,,TRUE,TRUE,,,,,,,FEW,2000,SCT,2700,SCT,4000,,,VFR,1.2,,,,,,,,,,,METAR,16.0
TIST 090253Z AUTO 08008KT 10SM CLR 29/24 A3007 RMK AO2 SLP184 T02890244 50010,TIST,2023-06-09T02:53:00Z,18.33,-64.98,28.9,24.4,80,8,,10.0,30.070866,1018.4,,TRUE,TRUE,,,,,,,CLR,,,,,,,,VFR,1.0,,,,,,,,,,,METAR,5.0
PHTO 090253Z 05007KT 10SM SCT030 26/20 A3005 RMK AO2 SLP175 T02610200 55004,PHTO,2023-06-09T02:53:00Z,19.72,-155.05,26.1,20.0,50,7,,10.0,30.050198,1017.5,,,TRUE,,,,,,,SCT,3000,,,,,,,VFR,-0.4,,,,,,,,,,,METAR,9.0
PHNL 090253Z 05011KT 10SM FEW025 FEW045 FEW250 29/19 A3003 RMK AO2 SLP169 T02890194 55005,PHNL,2023-06-09T02:53:00Z,21.33,-157.93,28.9,19.4,50,11,,10.0,30.029528,1016.9,,,TRUE,,,,,,,FEW,2500,FEW,4500,FEW,25000,,,VFR,-0.5,,,,,,,,,,,METAR,2.0
PHKO 090253Z 21008KT 10SM SCT055 OVC080 27/20 A3000 RMK AO2 SLP157 T02720200 55007,PHKO,2023-06-09T02:53:00Z,19.73,-156.05,27.2,20.0,210,8,,10.0,30.0,1015.7,,,TRUE,,,,,,,SCT,5500,OVC,8000,,,,,VFR,-0.7,,,,,,,,,,,METAR,11.0
PHJR 090253Z 06009G14KT 020V090 10SM CLR 29/18 A3004 RMK AO2 SLP179 T02940183 55008 $,PHJR,2023-06-09T02:53:00Z,21.32,-158.07,29.4,18.3,60,9,14,10.0,30.041338,1017.9,,,TRUE,TRUE,,,,,,CLR,,,,,,,,VFR,-0.8,,,,,,,,,,,SPECI,9.0
PAVL 090253Z AUTO 08009KT 10SM CLR 18/06 A2960 RMK AO2 SLP024 T01780061 56011 TSNO,PAVL,2023-06-09T02:53:00Z,67.73,-164.55,17.8,6.1,80,9,,10.0,29.601377,1002.4,,TRUE,TRUE,,,TRUE,,,,CLR,,,,,,,,VFR,-1.1,,,,,,,,,,,METAR,6.0
PATO 090253Z AUTO 13015G28KT 100V170 5SM RA BR FEW030 BKN040 OVC060 09/07 A2979 RMK AO2 PK WND 14028/0252 SLP088 P0006 60023 T00940072 53002 TSNO,PATO,2023-06-09T02:53:00Z,60.78,-148.85,9.4,7.2,130,15,28,5.0,29.790354,1008.8,,TRUE,TRUE,,,TRUE,,,RA BR,FEW,3000,BKN,4000,OVC,6000,,,MVFR,0.2,,,,,0.06,0.23,,,,,METAR,47.0
PATK 090253Z 20010KT 10SM OVC070 19/06 A2965 RMK AO2 SLP043 T01890056 53002,PATK,2023-06-09T02:53:00Z,62.32,-150.1,18.9,5.6,200,10,,10.0,29.648623,1004.3,,,TRUE,,,,,,,OVC,7000,,,,,,,VFR,0.2,,,,,,,,,,,METAR,107.0
PASO 090253Z AUTO 19009G17KT 10SM SCT048 14/07 A2963 RMK AO2 SLP033 T01390072 51008 TSNO,PASO,2023-06-09T02:53:00Z,59.45,-151.7,13.9,7.2,190,9,17,10.0,29.630905,1003.3,,TRUE,TRUE,,,TRUE,,,,SCT,4800,,,,,,,VFR,0.8,,,,,,,,,,,METAR,20.0
PASI 090253Z 33005KT 10SM FEW020 BKN075 BKN120 13/09 A2997 RMK AO2 SLP150 T01280089 53003,PASI,2023-06-09T02:53:00Z,57.03,-135.35,12.8,8.9,330,5,,10.0,29.970472,1015.0,,,TRUE,,,,,,,FEW,2000,BKN,7500,BKN,12000,,,VFR,0.3,,,,,,,,,,,METAR,2.0
PASC 090253Z 05019KT 10SM OVC003 00/M02 A2996 RMK AO2 PK WND 06026/0230 SLP148 T00001017 56007,PASC,2023-06-09T02:53:00Z,70.2,-148.47,0.0,-1.7,50,19,,10.0,29.958662,1014.8,,,TRUE,,,,,,,OVC,300,,,,,,,LIFR,-0.7,,,,,,,,,,,METAR,17.0
PAQT 090253Z AUTO 05015KT 10SM OVC009 02/M01 A2999 RMK AO2 SLP157 T00171011 56006,PAQT,2023-06-09T02:53:00Z,70.22,-151.0,1.7,-1.1,50,15,,10.0,29.991142,1015.7,,TRUE,TRUE,,,,,,,OVC,900,,,,,,,IFR,-0.6,,,,,,,,,,,METAR,11.0
PAPT 090253Z 18012G22KT 25SM BKN050 12/08 A2965 RMK NO SPECI. LAST,PAPT,2023-06-09T02:53:00Z,62.1,-152.72,12.0,8.0,180,12,22,25.0,29.648623,,,,,,,,,,,BKN,5000,,,,,,,VFR,,,,,,,,,,,,METAR,577.0
PAPB 090253Z AUTO 07013KT 10SM OVC005 08/05 A2942 RMK AO2 SLP951 T00830050 58001 TSNO $,PAPB,2023-06-09T02:53:00Z,56.58,-169.67,8.3,5.0,70,13,,10.0,29.421259,995.1,,TRUE,TRUE,TRUE,,TRUE,,,,OVC,500,,,,,,,IFR,-0.1,,,,,,,,,,,METAR,33.0
PAOT 090253Z 33004KT 10SM -RA FEW065 OVC080 09/06 A2960 RMK AO2 RAB22 SLP022 P0000 60000 T00890061 56008,PAOT,2023-06-09T02:53:00Z,66.88,-162.6,8.9,6.1,330,4,,10.0,29.601377,1002.2,,,TRUE,,,,,,-RA,FEW,6500,OVC,8000,,,,,VFR,-0.8,,,,,0.005,0.005,,,,,METAR,3.0
PAOR 090253Z AUTO 11004KT 4SM -RA FU BKN047 OVC065 15/10 A2969 RMK AO2 RAB30 SLP053 P0008 60008 T01500100 53012 TSNO,PAOR,2023-06-09T02:53:00Z,62.97,-141.93,15.0,10.0,110,4,,4.0,29.68996,1005.3,,TRUE,TRUE,,,TRUE,,,-RA FU,BKN,4700,OVC,6500,,,,,MVFR,1.2,,,,,0.08,0.08,,,,,METAR,524.0
PAOM 090253Z 02010KT 10SM BKN075 19/08 A2954 RMK AO2 SLP001 60000 T01890083 56015,PAOM,2023-06-09T02:53:00Z,64.5,-165.43,18.9,8.3,20,10,,10.0,29.53937,1000.1,,,TRUE,,,,,,,BKN,7500,,,,,,,VFR,-1.5,,,,,,0.005,,,,,METAR,6.0
PANN 090253Z AUTO 21009G18KT 180V260 10SM FEW095 SCT110 21/04 A2955 RMK AO2 SLP010 T02110044 55006 TSNO,PANN,2023-06-09T02:53:00Z,64.55,-149.08,21.1,4.4,210,9,18,10.0,29.551182,1001.0,,TRUE,TRUE,,,TRUE,,,,FEW,9500,SCT,11000,,,,,VFR,-0.6,,,,,,,,,,,METAR,110.0
PANC 090253Z 15012G18KT 10SM SCT070 OVC100 13/06 A2968 RMK AO2 PK WND 16026/0228 RAE01 SLP052 P0000 60000 T01280056 53006 $,PANC,2023-06-09T02:53:00Z,61.17,-150.02,12.8,5.6,150,12,18,10.0,29.681103,1005.2,,,TRUE,TRUE,,,,,,SCT,7000,OVC,10000,,,,,VFR,0.6,,,,,0.005,0.005,,,,,METAR,39.0
PAMR 090253Z COR 22005KT 10SM -RA FEW070 OVC090 13/08 A2968 RMK AO2 SLP052 P0002 60003 T01280078 50004,PAMR,2023-06-09T02:53:00Z,61.22,-149.85,12.8,7.8,220,5,,10.0,29.681103,1005.2,TRUE,,TRUE,,,,,,-RA,FEW,7000,OVC,9000,,,,,VFR,0.4,,,,,0.02,0.03,,,,,METAR,43.0
PAMC 090253Z AUTO 24003KT 10SM OVC090 20/06 A2952 RMK AO2 SLP999 60000 T02000056 56001 TSNO,PAMC,2023-06-09T02:53:00Z,62.97,-155.62,20.0,5.6,240,3,,10.0,29.518702,999.9,,TRUE,TRUE,,,TRUE,,,,OVC,9000,,,,,,,VFR,-0.1,,,,,,0.005,,,,,METAR,101.0
PALH 090253Z AUTO VRB03KT 10SM OVC110 13/05 A2969 RMK AO2 RAB0157E06 SLP055 P0000 60000 T01330050 53006 TSNO,PALH,2023-06-09T02:53:00Z,61.18,-149.97,13.3,5.0,0,3,,10.0,29.68996,1005.5,,TRUE,TRUE,,,TRUE,,,,OVC,11000,,,,,,,VFR,0.6,,,,,0.005,0.005,,,,,METAR,26.0
PAKV 090253Z AUTO 23006KT 10SM -RA OVC060 16/09 A2956 RMK AO2 RAB46 SLP010 P0000 60000 T01610094 55002 TSNO,PAKV,2023-06-09T02:53:00Z,64.33,-158.72,16.1,9.4,230,6,,10.0,29.56004,1001.0,,TRUE,TRUE,,,TRUE,,,-RA,OVC,6000,,,,,,,VFR,-0.2,,,,,0.005,0.005,,,,,METAR,53.0
PAKT 090253Z 13009KT 10SM OVC120 17/02 A3000 RMK HARBOR WIND 12008KT,PAKT,2023-06-09T02:53:00Z,55.35,-131.72,17.0,2.0,130,9,,10.0,30.0,,,,,,,,,,,OVC,12000,,,,,,,VFR,,,,,,,,,,,,METAR,27.0
PAJN 090253Z 08007KT 10SM SCT085 BKN160 BKN250 18/08 A2992 RMK AO2 SLP132 T01830083 53009,PAJN,2023-06-09T02:53:00Z,58.35,-134.55,18.3,8.3,80,7,,10.0,29.920275,1013.2,,,TRUE,,,,,,,SCT,8500,BKN,16000,BKN,25000,,,VFR,0.9,,,,,,,,,,,METAR,6.0
PAIL 090253Z AUTO 14017G26KT 10SM BKN049 OVC065 08/06 A2959 RMK AO2 PK WND 14026/0252 SLP022 T00830056 52007 TSNO,PAIL,2023-06-09T02:53:00Z,59.75,-154.92,8.3,5.6,140,17,26,10.0,29.589567,1002.2,,TRUE,TRUE,,,TRUE,,,,BKN,4900,OVC,6500,,,,,VFR,0.7,,,,,,,,,,,METAR,44.0
PAHO 090253Z 13008KT 10SM CLR 13/04 A2965 RMK AO2 SLP039 T01330044 51013,PAHO,2023-06-09T02:53:00Z,59.63,-151.48,13.3,4.4,130,8,,10.0,29.648623,1003.9,,,TRUE,,,,,,,CLR,,,,,,,,VFR,1.3,,,,,,,,,,,METAR,6.0
PAGY 090253Z AUTO 22011KT 10SM SCT085 16/08 A2987 RMK AO2 SLP113 T01560083 53007 TSNO,PAGY,2023-06-09T02:53:00Z,59.47,-135.32,15.6,8.3,220,11,,10.0,29.870079,1011.3,,TRUE,TRUE,,,TRUE,,,,SCT,8500,,,,,,,VFR,0.7,,,,,,,,,,,METAR,7.0
PAGK 090253Z AUTO 20009KT 10SM BKN120 16/03 A2974 RMK AO2 SLP074 T01560033 56002 TSNO,PAGK,2023-06-09T02:53:00Z,62.15,-145.45,15.6,3.3,200,9,,10.0,29.740158,1007.4,,TRUE,TRUE,,,TRUE,,,,BKN,12000,,,,,,,VFR,-0.2,,,,,,,,,,,METAR,481.0
PAFA 090253Z 06007KT 10SM FEW065 FEW080 BKN120 BKN170 22/10 A2956 RMK AO2 SLP013 T02220100 58007,PAFA,2023-06-09T02:53:00Z,64.8,-147.87,22.2,10.0,60,7,,10.0,29.56004,1001.3,,,TRUE,,,,,,,FEW,6500,FEW,8000,BKN,12000,BKN,17000,VFR,-0.7,,,,,,,,,,,METAR,130.0
PAEN 090253Z 10021G26KT 10SM CLR 16/04 A2966 RMK AO2 PK WND 09031/0156 SLP043 T01560039 53012,PAEN,2023-06-09T02:53:00Z,60.57,-151.25,15.6,3.9,100,21,26,10.0,29.660433,1004.3,,,TRUE,,,,,,,CLR,,,,,,,,VFR,1.2,,,,,,,,,,,METAR,30.0
PAEG 090253Z AUTO 00000KT 10SM SCT075 BKN100 BKN120 24/07 A2960 RMK AO2 PK WND 11029/0158 RAB06E15 SLP022 P0000 60000 T02390072 53006 TSNO,PAEG,2023-06-09T02:53:00Z,64.78,-141.15,23.9,7.2,0,0,,10.0,29.601377,1002.2,,TRUE,TRUE,,,TRUE,,,,SCT,7500,BKN,10000,BKN,12000,,,VFR,0.6,,,,,0.005,0.005,,,,,METAR,273.0
PADE 090253Z AUTO 33007KT 10SM FEW060 BKN075 BKN100 07/03 A2959 RMK AO2 RAB08E25 SLP019 P0000 60000 T00720033 TSNO $,PADE,2023-06-09T02:53:00Z,66.07,-162.77,7.2,3.3,330,7,,10.0,29.589567,1001.9,,TRUE,TRUE,TRUE,,TRUE,,,,FEW,6000,BKN,7500,BKN,10000,,,VFR,,,,,,0.005,0.005,,,,,METAR,5.0
PACV 090253Z 13008KT 4SM -RA BR SCT008 BKN019 OVC026 10/09 A2986 RMK AO2 SLP111 P0006 60011 T01000089 53010,PACV,2023-06-09T02:53:00Z,60.5,-145.47,10.0,8.9,130,8,,4.0,29.861221,1011.1,,,TRUE,,,,,,-RA BR,SCT,800,BKN,1900,OVC,2600,,,MVFR,1.0,,,,,0.06,0.11,,,,,METAR,15.0
PACD 090253Z AUTO 15016KT 10SM FEW014 BKN060 OVC110 09/06 A2940 RMK AO2 SLP955 60000 T00890056 55001 TSNO,PACD,2023-06-09T02:53:00Z,55.22,-162.72,8.9,5.6,150,16,,10.0,29.40059,995.5,,TRUE,TRUE,,,TRUE,,,,FEW,1400,BKN,6000,OVC,11000,,,VFR,-0.1,,,,,,0.005,,,,,METAR,23.0
PABT 090253Z 22003KT 10SM -TSRA SCT075CB BKN090 OVC100 19/12 A2961 RMK AO2 RAB10E19B51 TSB38 SLP034 OCNL LTGCG VC SE TS VC SE MOV NW FU ALQDS P0000 60000 T01940117 50000,PABT,2023-06-09T02:53:00Z,66.92,-151.52,19.4,11.7,220,3,,10.0,29.610237,1003.4,,,TRUE,,,,,,-TSRA,SCT,7500,BKN,9000,OVC,10000,,,VFR,0.0,,,,,0.005,0.005,,,,,METAR,195.0
PABR 090253Z 06014KT 10SM OVC006 01/M02 A3005 RMK AO2 SLP176 T00111017 58005,PABR,2023-06-09T02:53:00Z,71.28,-156.78,1.1,-1.7,60,14,,10.0,30.050198,1017.6,,,TRUE,,,,,,,OVC,600,,,,,,,IFR,-0.5,,,,,,,,,,,METAR,6.0
PABI 090253Z 17021G31KT 10SM FEW060 SCT090 BKN120 BKN200 18/05 A2963 RMK AO2 PK WND 16039/0228 SLP031 ACSL DSNT N SE-SW T01830050 56008,PABI,2023-06-09T02:53:00Z,64.0,-145.72,18.3,5.0,170,21,31,10.0,29.630905,1003.1,,,TRUE,,,,,,,FEW,6000,SCT,9000,BKN,12000,BKN,20000,VFR,-0.8,,,,,,,,,,,METAR,388.0
PABE 090253Z 12017G24KT 10SM SCT060 BKN075 OVC095 17/08 A2949 RMK AO2 RAB0159E24 SLP986 P0000 60000 T01670078 55000,PABE,2023-06-09T02:53:00Z,60.78,-161.83,16.7,7.8,120,17,24,10.0,29.489174,998.6,,,TRUE,,,,,,,SCT,6000,BKN,7500,OVC,9500,,,VFR,0.0,,,,,0.005,0.005,,,,,METAR,28.0
PAAQ 090253Z AUTO 15016G25KT 10SM OVC100 16/03 A2968 RMK AO2 PK WND 15028/0205 SLP052 T01560033 51008 TSNO,PAAQ,2023-06-09T02:53:00Z,61.6,-149.08,15.6,3.3,150,16,25,10.0,29.681103,1005.2,,TRUE,TRUE,,,TRUE,,,,OVC,10000,,,,,,,VFR,0.8,,,,,,,,,,,METAR,68.0
KZZV 090253Z AUTO 00000KT 10SM BKN100 14/07 A2985 RMK AO2 SLP105 T01390072 51010,KZZV,2023-06-09T02:53:00Z,39.95,-81.9,13.9,7.2,0,0,,10.0,29.84941,1010.5,,TRUE,TRUE,,,,,,,BKN,10000,,,,,,,VFR,1.0,,,,,,,,,,,METAR,268.0
KYKM 090253Z AUTO 10003KT 10SM BKN110 27/11 A2979 RMK AO2 SLP078 T02720106 55001,KYKM,2023-06-09T02:53:00Z,46.57,-120.53,27.2,10.6,100,3,,10.0,29.790354,1007.8,,TRUE,TRUE,,,,,,,BKN,11000,,,,,,,VFR,-0.1,,,,,,,,,,,METAR,319.0
KYIP 090253Z 07005KT 10SM FEW110 16/07 A2988 RMK AO2 SLP113 T01560072 53017,KYIP,2023-06-09T02:53:00Z,42.23,-83.53,15.6,7.2,70,5,,10.0,29.878937,1011.3,,,TRUE,,,,,,,FEW,11000,,,,,,,VFR,1.7,,,,,,,,,,,METAR,215.0
KXNA 090253Z 09003KT 10SM CLR 24/19 A2984 RMK AO2 SLP089 T02440189 53012,KXNA,2023-06-09T02:53:00Z,36.28,-94.3,24.4,18.9,90,3,,10.0,29.840551,1008.9,,,TRUE,,,,,,,CLR,,,,,,,,VFR,1.2,,,,,,,,,,,METAR,390.0
KWVI 090253Z AUTO 27008KT 10SM CLR 14/11 A3004 RMK AO2 SLP173 T01440106 53005,KWVI,2023-06-09T02:53:00Z,36.93,-121.78,14.4,10.6,270,8,,10.0,30.041338,1017.3,,TRUE,TRUE,,,,,,,CLR,,,,,,,,VFR,0.5,,,,,,,,,,,METAR,47.0
KWST 090253Z AUTO 00000KT 5SM HZ CLR 13/10 A2973 RMK AO2 SLP066 T01330100 50008,KWST,2023-06-09T02:53:00Z,41.35,-71.8,13.3,10.0,0,0,,5.0,29.731298,1006.6,,TRUE,TRUE,,,,,,HZ,CLR,,,,,,,,MVFR,0.8,,,,,,,,,,,METAR,20.0
KVUO 090253Z AUTO 36003KT 8SM CLR 22/12 A2997 RMK AO2 SLP148 T02170117 53003,KVUO,2023-06-09T02:53:00Z,45.62,-122.65,21.7,11.7,360,3,,8.0,29.970472,1014.8,,TRUE,TRUE,,,,,,,CLR,,,,,,,,VFR,0.3,,,,,,,,,,,METAR,7.0
KVRB 090253Z AUTO 19004KT 10SM CLR 24/22 A2983 RMK AO2 SLP100 60000 T02440222 53006 $,KVRB,2023-06-09T02:53:00Z,27.65,-80.42,24.4,22.2,190,4,,10.0,29.828741,1010.0,,TRUE,TRUE,TRUE,,,,,,CLR,,,,,,,,VFR,0.6,,,,,,0.005,,,,,METAR,7.0
KVLD 090253Z AUTO 00000KT 10SM CLR 24/22 A2978 RMK AO1 SLP090 T02440217 53018,KVLD,2023-06-09T02:53:00Z,30.78,-83.27,24.4,21.7,0,0,,10.0,29.778543,1009.0,,TRUE,TRUE,,,,,,,CLR,,,,,,,,VFR,1.8,,,,,,,,,,,METAR,59.0
KVIH 090253Z AUTO 07004KT 10SM CLR 18/11 A2989 RMK AO2 SLP114 T01780106 53006,KVIH,2023-06-09T02:53:00Z,38.13,-91.77,17.8,10.6,70,4,,10.0,29.890747,1011.4,,TRUE,TRUE,,,,,,,CLR,,,,,,,,VFR,0.6,,,,,,,,,,,METAR,342.0
KVGT 090253Z 23011KT 10SM CLR 29/03 A2985 RMK AO2 SLP102 T02940028 53005,KVGT,2023-06-09T02:53:00Z,36.22,-115.2,29.4,2.8,230,11,,10.0,29.84941,1010.2,,,TRUE,,,,,,,CLR,,,,,,,,VFR,0.5,,,,,,,,,,,METAR,664.0
KVEL 090253Z AUTO 29005KT 10SM CLR 22/02 A2998 RMK AO2 SLP094 60000 T02170017 53005,KVEL,2023-06-09T02:53:00Z,40.45,-109.52,21.7,1.7,290,5,,10.0,29.97933,1009.4,,TRUE,TRUE,,,,,,,CLR,,,,,,,,VFR,0.5,,,,,,0.005,,,,,METAR,1604.0
KVCB 090253Z AUTO 21009G15KT 10SM CLR 22/11 A2997 RMK AO2 SLP149 T02170106 53005,KVCB,2023-06-09T02:53:00Z,38.38,-121.95,21.7,10.6,210,9,15,10.0,29.970472,1014.9,,TRUE,TRUE,,,,,,,CLR,,,,,,,,VFR,0.5,,,,,,,,,,,METAR,30.0
KUUU 090253Z AUTO 00000KT 5SM BR CLR 13/11 A2973 RMK AO2 SLP064 T01330111 50008,KUUU,2023-06-09T02:53:00Z,41.53,-71.28,13.3,11.1,0,0,,5.0,29.731298,1006.4,,TRUE,TRUE,,,,,,BR,CLR,,,,,,,,MVFR,0.8,,,,,,,,,,,METAR,45.0
KUTS 090253Z AUTO 00000KT 10SM FEW055 SCT110 23/20 A2983 RMK AO2 SLP098 T02280200 51012,KUTS,2023-06-09T02:53:00Z,30.75,-95.58,22.8,20.0,0,0,,10.0,29.828741,1009.8,,TRUE,TRUE,,,,,,,FEW,5500,SCT,11000,,,,,VFR,1.2,,,,,,,,,,,METAR,103.0
KUNO 090253Z AUTO 04007KT 10SM FEW110 21/18 A2988 RMK AO2 SLP106 T02060178 53012,KUNO,2023-06-09T02:53:00Z,36.88,-91.9,20.6,17.8,40,7,,10.0,29.878937,1010.6,,TRUE,TRUE,,,,,,,FEW,11000,,,,,,,VFR,1.2,,,,,,,,,,,METAR,376.0
KUIL 090253Z AUTO 28006KT 10SM BKN013 13/09 A3000 RMK AO2 SLP160 T01280089 53004,KUIL,2023-06-09T02:53:00Z,47.93,-124.55,12.8,8.9,280,6,,10.0,30.0,1016.0,,TRUE,TRUE,,,,,,,BKN,1300,,,,,,,MVFR,0.4,,,,,,,,,,,METAR,58.0
KUAO 090253Z 00000KT 10SM CLR 21/11 A2997 RMK AO2 SLP146 T02060106 55000,KUAO,2023-06-09T02:53:00Z,45.25,-122.77,20.6,10.6,0,0,,10.0,29.970472,1014.6,,,TRUE,,,,,,,CLR,,,,,,,,VFR,0.0,,,,,,,,,,,METAR,60.0
KTYS 090253Z 03004KT 10SM CLR 18/08 A2986 RMK AO2 SLP102 T01780078 51017,KTYS,2023-06-09T02:53:00Z,35.82,-83.98,17.8,7.8,30,4,,10.0,29.861221,1010.2,,,TRUE,,,,,,,CLR,,,,,,,,VFR,1.7,,,,,,,,,,,METAR,300.0
KTYR 090253Z AUTO 00000KT 10SM CLR 23/20 A2983 RMK AO2 SLP094 60000 T02280200 53001,KTYR,2023-06-09T02:53:00Z,32.37,-95.4,22.8,20.0,0,0,,10.0,29.828741,1009.4,,TRUE,TRUE,,,,,,,CLR,,,,,,,,VFR,0.1,,,,,,0.005,,,,,METAR,161.0
KTXK 090253Z AUTO 06014G24KT 10SM BKN065 BKN075 OVC090 27/18 A2984 RMK AO2 LTG DSNT N AND E SLP100 T02670183 53028,KTXK,2023-06-09T02:53:00Z,33.45,-93.98,26.7,18.3,60,14,24,10.0,29.840551,1010.0,,TRUE,TRUE,,,,,,,BKN,6500,BKN,7500,OVC,9000,,,VFR,2.8,,,,,,,,,,,METAR,118.0
KTWF 090253Z 33005KT 10SM CLR 16/10 A3003 RMK AO2 SLP126 T01560100 53008 $,KTWF,2023-06-09T02:53:00Z,42.48,-114.48,15.6,10.0,330,5,,10.0,30.029528,1012.6,,,TRUE,TRUE,,,,,,CLR,,,,,,,,VFR,0.8,,,,,,,,,,,METAR,1269.0
KTVR 090253Z AUTO 00000KT 9SM CLR 24/21 A2981 RMK AO2 SLP101 T02390211 53021,KTVR,2023-06-09T02:53:00Z,32.35,-91.03,23.9,21.1,0,0,,9.0,29.811024,1010.1,,TRUE,TRUE,,,,,,,CLR,,,,,,,,VFR,2.1,,,,,,,,,,,METAR,25.0
KTVL 090253Z AUTO 21004KT 10SM CLR 12/06 A3013 RMK AO2 SLP166 T01220056 55004,KTVL,2023-06-09T02:53:00Z,38.9,-120.0,12.2,5.6,210,4,,10.0,30.129921,1016.6,,TRUE,TRUE,,,,,,,CLR,,,,,,,,VFR,-0.4,,,,,,,,,,,METAR,1907.0
KTVC 090253Z AUTO 00000KT 10SM CLR 14/07 A2991 RMK AO2 SLP127 T01390072 53007,KTVC,2023-06-09T02:53:00Z,44.73,-85.58,13.9,7.2,0,0,,10.0,29.911417,1012.7,,TRUE,TRUE,,,,,,,CLR,,,,,,,,VFR,0.7,,,,,,,,,,,METAR,188.0
KTUS 090253Z 30007KT 10SM CLR 31/M06 A2995 RMK AO2 SLP096 T03061056 53012,KTUS,2023-06-09T02:53:00Z,32.13,-110.95,30.6,-5.6,300,7,,10.0,29.949802,1009.6,,,TRUE,,,,,,,CLR,,,,,,,,VFR,1.2,,,,,,,,,,,METAR,776.0
KTUP 090253Z 00000KT 9SM CLR 24/20 A2981 RMK AO2 SLP090 T02390200 53011,KTUP,2023-06-09T02:53:00Z,34.27,-88.77,23.9,20.0,0,0,,9.0,29.811024,1009.0,,,TRUE,,,,,,,CLR,,,,,,,,VFR,1.1,,,,,,,,,,,METAR,107.0
KTUL 090253Z 19006KT 10SM FEW150 SCT250 27/19 A2979 RMK AO2 SLP078 T02720194 51009,KTUL,2023-06-09T02:53:00Z,36.2,-95.88,27.2,19.4,190,6,,10.0,29.790354,1007.8,,,TRUE,,,,,,,FEW,15000,SCT,25000,,,,,VFR,0.9,,,,,,,,,,,METAR,196.0
KTTN 090253Z AUTO 29003KT 7SM CLR 16/07 A2976 RMK AO2 SLP069 T01610072 51015,KTTN,2023-06-09T02:53:00Z,40.28,-74.82,16.1,7.2,290,3,,7.0,29.760826,1006.9,,TRUE,TRUE,,,,,,,CLR,,,,,,,,VFR,1.5,,,,,,,,,,,METAR,58.0
KTTD 090253Z 10003KT 10SM SCT110 20/11 A2996 RMK AO2 SLP144 T02000111 55000,KTTD,2023-06-09T02:53:00Z,45.55,-122.42,20.0,11.1,100,3,,10.0,29.958662,1014.4,,,TRUE,,,,,,,SCT,11000,,,,,,,VFR,0.0,,,,,,,,,,,METAR,8.0
KTRL 090253Z AUTO 20003KT 10SM CLR 23/18 A2983 RMK AO2 SLP093 T02330178 51007,KTRL,2023-06-09T02:53:00Z,32.72,-96.27,23.3,17.8,200,3,,10.0,29.828741,1009.3,,TRUE,TRUE,,,,,,,CLR,,,,,,,,VFR,0.7,,,,,,,,,,,METAR,144.0
KTRI 090253Z 00000KT 10SM CLR 12/08 A2989 RMK AO2 SLP104 T01220083 51016,KTRI,2023-06-09T02:53:00Z,36.48,-82.4,12.2,8.3,0,0,,10.0,29.890747,1010.4,,,TRUE,,,,,,,CLR,,,,,,,,VFR,1.6,,,,,,,,,,,METAR,456.0
KTPA 090253Z 24007KT 10SM SCT022 26/22 A2983 RMK AO2 SLP101 T02610217 51016,KTPA,2023-06-09T02:53:00Z,27.97,-82.53,26.1,21.7,240,7,,10.0,29.828741,1010.1,,,TRUE,,,,,,,SCT,2200,,,,,,,VFR,1.6,,,,,,,,,,,METAR,2.0
KTOR 090253Z AUTO 36003KT 10SM SCT120 18/13 A2995 RMK AO2 RAB0154E11 SLP101 P0000 60011 T01780128 57010,KTOR,2023-06-09T02:53:00Z,42.07,-104.15,17.8,12.8,360,3,,10.0,29.949802,1010.1,,TRUE,TRUE,,,,,,,SCT,12000,,,,,,,VFR,-1.0,,,,,0.005,0.11,,,,,METAR,1285.0
KTOP 090253Z AUTO 07006KT 10SM CLR 23/17 A2984 RMK AO2 SLP097 T02280172 53011,KTOP,2023-06-09T02:53:00Z,39.07,-95.63,22.8,17.2,70,6,,10.0,29.840551,1009.7,,TRUE,TRUE,,,,,,,CLR,,,,,,,,VFR,1.1,,,,,,,,,,,METAR,268.0
KTOI 090253Z AUTO 00000KT 9SM CLR 23/20 A2980 RMK AO2 SLP084 T02330200 53016,KTOI,2023-06-09T02:53:00Z,31.85,-86.02,23.3,20.0,0,0,,9.0,29.799213,1008.4,,TRUE,TRUE,,,,,,,CLR,,,,,,,,VFR,1.6,,,,,,,,,,,METAR,120.0
KTMB 090253Z 19005KT 10SM CLR 26/23 A2986 RMK AO2 SLP112 60000 T02560228 53008,KTMB,2023-06-09T02:53:00Z,25.65,-80.43,25.6,22.8,190,5,,10.0,29.861221,1011.2,,,TRUE,,,,,,,CLR,,,,,,,,VFR,0.8,,,,,,0.005,,,,,METAR,2.0
KTLH 090253Z 26007KT 10SM CLR 26/23 A2979 RMK AO2 SLP086 T02610228 51023,KTLH,2023-06-09T02:53:00Z,30.4,-84.35,26.1,22.8,260,7,,10.0,29.790354,1008.6,,,TRUE,,,,,,,CLR,,,,,,,,VFR,2.3,,,,,,,,,,,METAR,17.0
KTKI 090253Z AUTO 26003KT 10SM CLR 26/18 A2982 RMK AO2 SLP092 T02610183 51012,KTKI,2023-06-09T02:53:00Z,33.18,-96.58,26.1,18.3,260,3,,10.0,29.819881,1009.2,,TRUE,TRUE,,,,,,,CLR,,,,,,,,VFR,1.2,,,,,,,,,,,METAR,173.0
KTIW 090253Z 26006KT 10SM CLR 20/11 A2993 RMK AO2 SLP134 T02000106 55000,KTIW,2023-06-09T02:53:00Z,47.27,-122.58,20.0,10.6,260,6,,10.0,29.929134,1013.4,,,TRUE,,,,,,,CLR,,,,,,,,VFR,0.0,,,,,,,,,,,METAR,89.0
KTHV 090253Z AUTO 26003KT 10SM BKN100 16/07 A2979 RMK AO2 SLP087 T01560072 51014,KTHV,2023-06-09T02:53:00Z,39.92,-76.88,15.6,7.2,260,3,,10.0,29.790354,1008.7,,TRUE,TRUE,,,,,,,BKN,10000,,,,,,,VFR,1.4,,,,,,,,,,,METAR,141.0
KTDZ 090253Z AUTO 07004KT 10SM OVC110 19/07 A2986 RMK AO2 SLP106 T01890067 53013,KTDZ,2023-06-09T02:53:00Z,41.57,-83.48,18.9,6.7,70,4,,10.0,29.861221,1010.6,,TRUE,TRUE,,,,,,,OVC,11000,,,,,,,VFR,1.3,,,,,,,,,,,METAR,189.0
KTCS 090253Z AUTO 25012KT 10SM CLR 27/M09 A2999 RMK AO2 SLP066 T02671089 53011,KTCS,2023-06-09T02:53:00Z,33.23,-107.27,26.7,-8.9,250,12,,10.0,29.991142,1006.6,,TRUE,TRUE,,,,,,,CLR,,,,,,,,VFR,1.1,,,,,,,,,,,METAR,1471.0
KTCL 090253Z AUTO 31003KT 8SM CLR 22/20 A2980 RMK AO2 SLP090 60001 T02220200 53013,KTCL,2023-06-09T02:53:00Z,33.22,-87.62,22.2,20.0,310,3,,8.0,29.799213,1009.0,,TRUE,TRUE,,,,,,,CLR,,,,,,,,VFR,1.3,,,,,,0.01,,,,,METAR,48.0
KTCC 090253Z AUTO 18007KT 10SM CLR 21/14 A2993 RMK AO2 SLP084 T02060139 53007,KTCC,2023-06-09T02:53:00Z,35.18,-103.6,20.6,13.9,180,7,,10.0,29.929134,1008.4,,TRUE,TRUE,,,,,,,CLR,,,,,,,,VFR,0.7,,,,,,,,,,,METAR,1233.0
KSWO 090253Z 00000KT 10SM CLR 25/19 A2981 RMK AO2 SLP082 T02500189 51013,KSWO,2023-06-09T02:53:00Z,36.17,-97.08,25.0,18.9,0,0,,10.0,29.811024,1008.2,,,TRUE,,,,,,,CLR,,,,,,,,VFR,1.3,,,,,,,,,,,METAR,293.0
KSTS 090253Z AUTO 21006KT 10SM CLR 16/09 A3003 RMK AO2 SLP162 T01610094 51009,KSTS,2023-06-09T02:53:00Z,38.5,-122.82,16.1,9.4,210,6,,10.0,30.029528,1016.2,,TRUE,TRUE,,,,,,,CLR,,,,,,,,VFR,0.9,,,,,,,,,,,METAR,35.0
KSTP 090253Z AUTO 08004KT 10SM CLR 22/08 A2992 RMK AO2 SLP127 T02170083 53014,KSTP,2023-06-09T02:53:00Z,44.93,-93.05,21.7,8.3,80,4,,10.0,29.920275,1012.7,,TRUE,TRUE,,,,,,,CLR,,,,,,,,VFR,1.4,,,,,,,,,,,METAR,213.0
KSTJ 090253Z AUTO 09006KT 10SM CLR 21/14 A2988 RMK AO2 SLP111 T02110139 53014,KSTJ,2023-06-09T02:53:00Z,39.77,-94.92,21.1,13.9,90,6,,10.0,29.878937,1011.1,,TRUE,TRUE,,,,,,,CLR,,,,,,,,VFR,1.4,,,,,,,,,,,METAR,247.0
KSTC 090253Z 00000KT 10SM CLR 18/09 A2992 RMK AO2 SLP138 T01830089 53016 $,KSTC,2023-06-09T02:53:00Z,45.55,-94.05,18.3,8.9,0,0,,10.0,29.920275,1013.8,,,TRUE,TRUE,,,,,,CLR,,,,,,,,VFR,1.6,,,,,,,,,,,METAR,302.0
KSSI 090253Z AUTO 32008KT 10SM FEW080 OVC095 28/21 A2976 RMK AO2 SLP077 T02830206 53023,KSSI,2023-06-09T02:53:00Z,31.15,-81.38,28.3,20.6,320,8,,10.0,29.760826,1007.7,,TRUE,TRUE,,,,,,,FEW,8000,OVC,9500,,,,,VFR,2.3,,,,,,,,,,,METAR,6.0
KSSF 090253Z AUTO 08005KT 10SM CLR 28/22 A2982 RMK AO2 SLP086 T02830217 53018 $,KSSF,2023-06-09T02:53:00Z,29.33,-98.47,28.3,21.7,80,5,,10.0,29.819881,1008.6,,TRUE,TRUE,TRUE,,,,,,CLR,,,,,,,,VFR,1.8,,,,,,,,,,,METAR,175.0
KSPW 090253Z AUTO 14006KT 10SM CLR 19/14 A2991 RMK AO2 SLP125 T01940139 51012,KSPW,2023-06-09T02:53:00Z,43.17,-95.22,19.4,13.9,140,6,,10.0,29.911417,1012.5,,TRUE,TRUE,,,,,,,CLR,,,,,,,,VFR,1.2,,,,,,,,,,,METAR,407.0
KSPG 090253Z AUTO 24005KT 10SM FEW021 FEW027 27/23 A2981 RMK AO2 SLP094 T02670233 51014,KSPG,2023-06-09T02:53:00Z,27.77,-82.63,26.7,23.3,240,5,,10.0,29.811024,1009.4,,TRUE,TRUE,,,,,,,FEW,2100,FEW,2700,,,,,VFR,1.4,,,,,,,,,,,METAR,1.0
KSPB 090253Z AUTO 06003KT 10SM CLR 21/13 A2995 RMK AO2 SLP141 T02060133 55000,KSPB,2023-06-09T02:53:00Z,45.77,-122.87,20.6,13.3,60,3,,10.0,29.949802,1014.1,,TRUE,TRUE,,,,,,,CLR,,,,,,,,VFR,0.0,,,,,,,,,,,METAR,15.0
KSNY 090253Z AUTO 32007KT 10SM CLR 17/13 A2998 RMK AO2 SLP109 T01670128 52010,KSNY,2023-06-09T02:53:00Z,41.1,-102.98,16.7,12.8,320,7,,10.0,29.97933,1010.9,,TRUE,TRUE,,,,,,,CLR,,,,,,,,VFR,1.0,,,,,,,,,,,METAR,1307.0
KSNS 090253Z 30011KT 10SM CLR 17/11 A3004 RMK AO2 SLP181 T01720106 53006,KSNS,2023-06-09T02:53:00Z,36.67,-121.6,17.2,10.6,300,11,,10.0,30.041338,1018.1,,,TRUE,,,,,,,CLR,,,,,,,,VFR,0.6,,,,,,,,,,,METAR,20.0
KSNA 090253Z 26006KT 10SM FEW025 FEW065 19/13 A3001 RMK AO2 SLP162 T01890128 53006,KSNA,2023-06-09T02:53:00Z,33.67,-117.87,18.9,12.8,260,6,,10.0,30.008858,1016.2,,,TRUE,,,,,,,FEW,2500,FEW,6500,,,,,VFR,0.6,,,,,,,,,,,METAR,14.0
KSMQ 090253Z AUTO 33004KT 6SM HZ BKN085 14/11 A2974 RMK AO2 SLPNO T01390106 51015 $,KSMQ,2023-06-09T02:53:00Z,40.62,-74.67,13.9,10.6,330,4,,6.0,29.740158,,,TRUE,TRUE,TRUE,,,,,HZ,BKN,8500,,,,,,,VFR,1.5,,,,,,,,,,,METAR,30.0
KSMF 090253Z 19013KT 10SM BKN250 23/12 A2994 RMK AO2 SLP138 T02330122 53000,KSMF,2023-06-09T02:53:00Z,38.7,-121.6,23.3,12.2,190,13,,10.0,29.940945,1013.8,,,TRUE,,,,,,,BKN,25000,,,,,,,VFR,0.0,,,,,,,,,,,METAR,7.0
KSLN 090253Z 08005KT 10SM CLR 26/17 A2983 RMK AO2 SLP086 T02560167 53006,KSLN,2023-06-09T02:53:00Z,38.8,-97.65,25.6,16.7,80,5,,10.0,29.828741,1008.6,,,TRUE,,,,,,,CLR,,,,,,,,VFR,0.6,,,,,,,,,,,METAR,377.0
KSJC 090253Z 34016G21KT 10SM FEW044 SCT250 17/12 A3002 RMK AO2 SLP166 T01720117 53012,KSJC,2023-06-09T02:53:00Z,37.37,-121.92,17.2,11.7,340,16,21,10.0,30.02067,1016.6,,,TRUE,,,,,,,FEW,4400,SCT,25000,,,,,VFR,1.2,,,,,,,,,,,METAR,13.0
KSIY 090253Z AUTO 23011KT 10SM SCT046 OVC090 20/12 A2999 RMK AO2 SLP149 T02000122 53011,KSIY,2023-06-09T02:53:00Z,41.77,-122.47,20.0,12.2,230,11,,10.0,29.991142,1014.9,,TRUE,TRUE,,,,,,,SCT,4600,OVC,9000,,,,,VFR,1.1,,,,,,,,,,,METAR,807.0
KSHN 090253Z AUTO 25015G24KT 10SM CLR 17/09 A2993 RMK AO2 SLP137 T01720094 53004,KSHN,2023-06-09T02:53:00Z,47.23,-123.13,17.2,9.4,250,15,24,10.0,29.929134,1013.7,,TRUE,TRUE,,,,,,,CLR,,,,,,,,VFR,0.4,,,,,,,,,,,METAR,84.0
KSGR 090253Z AUTO 14003KT 10SM CLR 22/19 A2985 RMK AO2 SLP109 T02220189 53017,KSGR,2023-06-09T02:53:00Z,29.62,-95.65,22.2,18.9,140,3,,10.0,29.84941,1010.9,,TRUE,TRUE,,,,,,,CLR,,,,,,,,VFR,1.7,,,,,,,,,,,METAR,22.0
KSFF 090253Z 00000KT 10SM FEW090 BKN110 18/17 A2993 RMK AO2 RAE20B38E53 SLP123 P0004 60024 T01830167 50006,KSFF,2023-06-09T02:53:00Z,47.68,-117.32,18.3,16.7,0,0,,10.0,29.929134,1012.3,,,TRUE,,,,,,,FEW,9000,BKN,11000,,,,,VFR,0.6,,,,,0.04,0.24,,,,,METAR,593.0
KSFB 090253Z AUTO 24004KT 10SM CLR 26/19 A2981 RMK AO2 SLP093 T02610194 52022,KSFB,2023-06-09T02:53:00Z,28.77,-81.23,26.1,19.4,240,4,,10.0,29.811024,1009.3,,TRUE,TRUE,,,,,,,CLR,,,,,,,,VFR,2.2,,,,,,,,,,,METAR,16.0
KSEG 090253Z AUTO 35003KT 10SM OVC080 14/11 A2980 RMK AO2 SLP091 T01390106 51011,KSEG,2023-06-09T02:53:00Z,40.82,-76.87,13.9,10.6,350,3,,10.0,29.799213,1009.1,,TRUE,TRUE,,,,,,,OVC,8000,,,,,,,VFR,1.1,,,,,,,,,,,METAR,136.0
KSEA 090253Z 23005KT 10SM BKN140 BKN200 21/11 A2994 RMK AO2 SLP143 T02110106 55001,KSEA,2023-06-09T02:53:00Z,47.45,-122.32,21.1,10.6,230,5,,10.0,29.940945,1014.3,,,TRUE,,,,,,,BKN,14000,BKN,20000,,,,,VFR,-0.1,,,,,,,,,,,METAR,115.0
KSDM 090253Z 28007KT 10SM BKN022 17/12 A3002 RMK AO2 SLP164 T01720117 53007,KSDM,2023-06-09T02:53:00Z,32.58,-117.0,17.2,11.7,280,7,,10.0,30.02067,1016.4,,,TRUE,,,,,,,BKN,2200,,,,,,,MVFR,0.7,,,,,,,,,,,METAR,161.0
KSDL 090253Z 28003KT 10SM CLR 31/M05 A2989 RMK AO2 SLP095 T03111050 55000,KSDL,2023-06-09T02:53:00Z,33.62,-111.92,31.1,-5.0,280,3,,10.0,29.890747,1009.5,,,TRUE,,,,,,,CLR,,,,,,,,VFR,0.0,,,,,,,,,,,METAR,438.0
KSBM 090253Z AUTO 00000KT 10SM CLR 12/03 A2993 RMK AO2 SLP133 T01220028 51004,KSBM,2023-06-09T02:53:00Z,43.78,-87.85,12.2,2.8,0,0,,10.0,29.929134,1013.3,,TRUE,TRUE,,,,,,,CLR,,,,,,,,VFR,0.4,,,,,,,,,,,METAR,225.0
KSBA 090253Z 26010KT 10SM BKN027 17/13 A3001 RMK AO2 SLP161 T01720128 53001 $,KSBA,2023-06-09T02:53:00Z,34.43,-119.85,17.2,12.8,260,10,,10.0,30.008858,1016.1,,,TRUE,TRUE,,,,,,BKN,2700,,,,,,,MVFR,0.1,,,,,,,,,,,METAR,2.0
KSAV 090253Z 09005KT 6SM -RA BR SCT035 SCT060 BKN110 23/21 A2976 RMK AO2 LTG DSNT NW RAB31 SLP078 P0001 60002 T02280206 53010,KSAV,2023-06-09T02:53:00Z,32.12,-81.2,22.8,20.6,90,5,,6.0,29.760826,1007.8,,,TRUE,,,,,,-RA BR,SCT,3500,SCT,6000,BKN,11000,,,VFR,1.0,,,,,0.01,0.02,,,,,METAR,10.0
KSAF 090253Z AUTO 15003KT 10SM CLR 21/M04 A3009 RMK AO2 SLP093 T02111039 53005,KSAF,2023-06-09T02:53:00Z,35.62,-106.1,21.1,-3.9,150,3,,10.0,30.088583,1009.3,,TRUE,TRUE,,,,,,,CLR,,,,,,,,VFR,0.5,,,,,,,,,,,METAR,1918.0
KSAC 090253Z AUTO 21009G17KT 10SM CLR 21/12 A2996,KSAC,2023-06-09T02:53:00Z,38.5,-121.5,21.0,12.0,210,9,17,10.0,29.958662,,,TRUE,,,,,,,,CLR,,,,,,,,VFR,,,,,,,,,,,,METAR,5.0
KRXE 090253Z AUTO 20010KT 8SM -RA SCT055 BKN070 OVC090 14/11 A3009 RMK AO2 PK WND 23028/0205 LTG DSNT E RAB11 SLP165 P0010 60010 T01390106 53035,KRXE,2023-06-09T02:53:00Z,43.83,-111.8,13.9,10.6,200,10,,8.0,30.088583,1016.5,,TRUE,TRUE,,,,,,-RA,SCT,5500,BKN,7000,OVC,9000,,,VFR,3.5,,,,,0.1,0.1,,,,,METAR,1483.0
KRWL 090253Z AUTO 02005KT 10SM CLR 16/09 A3009 RMK AO2 SLP115 T01560094 58001,KRWL,2023-06-09T02:53:00Z,41.8,-107.2,15.6,9.4,20,5,,10.0,30.088583,1011.5,,TRUE,TRUE,,,,,,,CLR,,,,,,,,VFR,-0.1,,,,,,,,,,,METAR,2066.0
KRWI 090253Z AUTO 00000KT 8SM CLR 15/12 A2980 RMK AO2 SLP090 T01500117 53015,KRWI,2023-06-09T02:53:00Z,35.85,-77.9,15.0,11.7,0,0,,8.0,29.799213,1009.0,,TRUE,TRUE,,,,,,,CLR,,,,,,,,VFR,1.5,,,,,,,,,,,METAR,46.0
KRWF 090253Z AUTO 15004KT 10SM CLR 20/16 A2990 RMK AO2 SLP121 T02000156 53010,KRWF,2023-06-09T02:53:00Z,44.55,-95.08,20.0,15.6,150,4,,10.0,29.899607,1012.1,,TRUE,TRUE,,,,,,,CLR,,,,,,,,VFR,1.0,,,,,,,,,,,METAR,312.0
KRVS 090253Z 00000KT 10SM CLR 24/19 A2980 RMK AO2 SLP092 LAST T02440189 51013,KRVS,2023-06-09T02:53:00Z,36.05,-95.98,24.4,18.9,0,0,,10.0,29.799213,1009.2,,,TRUE,,,,,,,CLR,,,,,,,,VFR,1.3,,,,,,,,,,,METAR,191.0
KRUE 090253Z AUTO 00000KT 10SM BKN070 21/18 A2983 RMK AO2 SLP094 T02110183 53019,KRUE,2023-06-09T02:53:00Z,35.25,-93.1,21.1,18.3,0,0,,10.0,29.828741,1009.4,,TRUE,TRUE,,,,,,,BKN,7000,,,,,,,VFR,1.9,,,,,,,,,,,METAR,119.0
KRTN 090253Z AUTO 02005KT 10SM CLR 16/06 A3008 RMK AO2 SLP113 60000 T01610061 53004 PNO $,KRTN,2023-06-09T02:53:00Z,36.73,-104.5,16.1,6.1,20,5,,10.0,30.079725,1011.3,,TRUE,TRUE,TRUE,,,,,,CLR,,,,,,,,VFR,0.4,,,,,,0.005,,,,,METAR,1939.0
KRSL 090253Z AUTO 11010KT 10SM CLR 24/16 A2984 RMK AO2 SLP085 T02390161 51015,KRSL,2023-06-09T02:53:00Z,38.87,-98.82,23.9,16.1,110,10,,10.0,29.840551,1008.5,,TRUE,TRUE,,,,,,,CLR,,,,,,,,VFR,1.5,,,,,,,,,,,METAR,569.0
KRQE 090253Z AUTO 21005KT 10SM CLR 16/M07 A3014 RMK AO2 SLP113 T01561067 53008,KRQE,2023-06-09T02:53:00Z,35.65,-109.07,15.6,-6.7,210,5,,10.0,30.138779,1011.3,,TRUE,TRUE,,,,,,,CLR,,,,,,,,VFR,0.8,,,,,,,,,,,METAR,2056.0
KRNT 090253Z 21004KT 10SM CLR 23/11 A2992 RMK AO2 SLP135 T02330111 55001,KRNT,2023-06-09T02:53:00Z,47.5,-122.22,23.3,11.1,210,4,,10.0,29.920275,1013.5,,,TRUE,,,,,,,CLR,,,,,,,,VFR,-0.1,,,,,,,,,,,METAR,7.0
KRNM 090253Z 28006KT 10SM SCT015 15/12 A3002 RMK AO2 SLP158 T01500117 53009,KRNM,2023-06-09T02:53:00Z,33.03,-116.92,15.0,11.7,280,6,,10.0,30.02067,1015.8,,,TRUE,,,,,,,SCT,1500,,,,,,,VFR,0.9,,,,,,,,,,,METAR,423.0
KRMG 090253Z AUTO 00000KT 9SM CLR 18/13 A2982 RMK AO2 SLP090 T01830133 53016,KRMG,2023-06-09T02:53:00Z,34.35,-85.17,18.3,13.3,0,0,,9.0,29.819881,1009.0,,TRUE,TRUE,,,,,,,CLR,,,,,,,,VFR,1.6,,,,,,,,,,,METAR,196.0
KRME 090253Z AUTO 00000KT 10SM SCT070 BKN090 11/10 A2978 RMK AO2 SLP084 T01060100 51008,KRME,2023-06-09T02:53:00Z,43.22,-75.4,10.6,10.0,0,0,,10.0,29.778543,1008.4,,TRUE,TRUE,,,,,,,SCT,7000,BKN,9000,,,,,VFR,0.8,,,,,,,,,,,METAR,146.0
KRKP 090253Z AUTO 14009KT 7SM CLR 28/23 A2983 RMK AO2 SLP102 T02780233 53019,KRKP,2023-06-09T02:53:00Z,28.08,-97.05,27.8,23.3,140,9,,7.0,29.828741,1010.2,,TRUE,TRUE,,,,,,,CLR,,,,,,,,VFR,1.9,,,,,,,,,,,METAR,8.0
KRIW 090253Z AUTO 30004KT 10SM CLR 18/10 A3002 RMK AO2 LTG DSNT SW SLP115 T01780100 53004,KRIW,2023-06-09T02:53:00Z,43.07,-108.43,17.8,10.0,300,4,,10.0,30.02067,1011.5,,TRUE,TRUE,,,,,,,CLR,,,,,,,,VFR,0.4,,,,,,,,,,,METAR,1662.0
KRIL 090253Z AUTO 22007KT 10SM CLR 19/M01 A3000 RMK AO2 SLP108 T01941011 53010,KRIL,2023-06-09T02:53:00Z,39.53,-107.73,19.4,-1.1,220,7,,10.0,30.0,1010.8,,TRUE,TRUE,,,,,,,CLR,,,,,,,,VFR,1.0,,,,,,,,,,,METAR,1683.0
KRHI 090253Z AUTO 00000KT 10SM CLR 15/03 A2998 RMK AO2 SLP151 T01500028 53014,KRHI,2023-06-09T02:53:00Z,45.63,-89.48,15.0,2.8,0,0,,10.0,29.97933,1015.1,,TRUE,TRUE,,,,,,,CLR,,,,,,,,VFR,1.4,,,,,,,,,,,METAR,493.0
KRDD 090253Z 20009KT 10SM OVC055 26/14 A2992 RMK AO2 SLP128 T02610144 53011,KRDD,2023-06-09T02:53:00Z,40.52,-122.3,26.1,14.4,200,9,,10.0,29.920275,1012.8,,,TRUE,,,,,,,OVC,5500,,,,,,,VFR,1.1,,,,,,,,,,,METAR,152.0
KRBG 090253Z AUTO 34007G17KT 300V360 10SM FEW110 23/12 A2996 RMK AO2 SLP142 T02280117 53017,KRBG,2023-06-09T02:53:00Z,43.23,-123.35,22.8,11.7,340,7,17,10.0,29.958662,1014.2,,TRUE,TRUE,,,,,,,FEW,11000,,,,,,,VFR,1.7,,,,,,,,,,,METAR,152.0
KRBD 090253Z AUTO 23005KT 10SM CLR 22/19 A2981 RMK AO2 SLP087 60011 T02170194 58001,KRBD,2023-06-09T02:53:00Z,32.68,-96.87,21.7,19.4,230,5,,10.0,29.811024,1008.7,,TRUE,TRUE,,,,,,,CLR,,,,,,,,VFR,-0.1,,,,,,0.11,,,,,METAR,200.0
KRAL 090253Z 27012KT 10SM CLR 19/12 A2999 RMK AO2 SLP143 T01890117 53008 $,KRAL,2023-06-09T02:53:00Z,33.95,-117.45,18.9,11.7,270,12,,10.0,29.991142,1014.3,,,TRUE,TRUE,,,,,,CLR,,,,,,,,VFR,0.8,,,,,,,,,,,METAR,254.0
KRAC 090253Z AUTO 00000KT 10SM CLR 12/06 A2994 RMK AO2 SLP139 T01170061 53003,KRAC,2023-06-09T02:53:00Z,42.77,-87.82,11.7,6.1,0,0,,10.0,29.940945,1013.9,,TRUE,TRUE,,,,,,,CLR,,,,,,,,VFR,0.3,,,,,,,,,,,METAR,203.0
KPWA 090253Z 17006KT 10SM CLR 23/16 A2983 RMK AO2 SLP086 T02330161 53013,KPWA,2023-06-09T02:53:00Z,35.53,-97.65,23.3,16.1,170,6,,10.0,29.828741,1008.6,,,TRUE,,,,,,,CLR,,,,,,,,VFR,1.3,,,,,,,,,,,METAR,390.0
KPUW 090253Z AUTO 34003KT 8SM OVC100 17/16 A2992 RMK AO2 RAE42 SLP121 P0002 60009 T01720161 50001,KPUW,2023-06-09T02:53:00Z,46.75,-117.12,17.2,16.1,340,3,,8.0,29.920275,1012.1,,TRUE,TRUE,,,,,,,OVC,10000,,,,,,,VFR,0.1,,,,,0.02,0.09,,,,,METAR,774.0
KPUC 090253Z AUTO 34010KT 10SM CLR 18/01 A3004 RMK AO2 SLP114 T01830011 53010,KPUC,2023-06-09T02:53:00Z,39.62,-110.75,18.3,1.1,340,10,,10.0,30.041338,1011.4,,TRUE,TRUE,,,,,,,CLR,,,,,,,,VFR,1.0,,,,,,,,,,,METAR,1777.0
KPTK 090253Z 36004KT 10SM BKN090 16/08 A2988 RMK SLPNO,KPTK,2023-06-09T02:53:00Z,42.67,-83.42,16.0,8.0,360,4,,10.0,29.878937,,,,,,,,,,,BKN,9000,,,,,,,VFR,,,,,,,,,,,,METAR,295.0
KPSX 090253Z AUTO 17007KT 10SM CLR 28/22 A2984 RMK AO2 SLP104 T02780217 53017,KPSX,2023-06-09T02:53:00Z,28.72,-96.25,27.8,21.7,170,7,,10.0,29.840551,1010.4,,TRUE,TRUE,,,,,,,CLR,,,,,,,,VFR,1.7,,,,,,,,,,,METAR,4.0
KPSP 090253Z 32015KT 10SM CLR 29/11 A2984 RMK AO2 SLP103 T02940111 53003,KPSP,2023-06-09T02:53:00Z,33.82,-116.5,29.4,11.1,320,15,,10.0,29.840551,1010.3,,,TRUE,,,,,,,CLR,,,,,,,,VFR,0.3,,,,,,,,,,,METAR,123.0
KPSC 090253Z 00000KT 10SM OVC100 27/11 A2979 RMK AO2 RAE0157 SLP086 P0000 60000 T02720111 53002,KPSC,2023-06-09T02:53:00Z,46.27,-119.12,27.2,11.1,0,0,,10.0,29.790354,1008.6,,,TRUE,,,,,,,OVC,10000,,,,,,,VFR,0.2,,,,,0.005,0.005,,,,,METAR,121.0
KPRC 090253Z 21004KT 10SM CLR 19/M03 A3009 RMK AO2 SLP120 T01941028 52004,KPRC,2023-06-09T02:53:00Z,34.65,-112.42,19.4,-2.8,210,4,,10.0,30.088583,1012.0,,,TRUE,,,,,,,CLR,,,,,,,,VFR,0.4,,,,,,,,,,,METAR,1528.0
KPRB 090253Z AUTO 20013KT 10SM BKN070 18/11 A2998 RMK AO2 SLP148 T01830111 53007,KPRB,2023-06-09T02:53:00Z,35.67,-120.63,18.3,11.1,200,13,,10.0,29.97933,1014.8,,TRUE,TRUE,,,,,,,BKN,7000,,,,,,,VFR,0.7,,,,,,,,,,,METAR,249.0
KPQL 090253Z AUTO 00000KT 10SM CLR 22/20 A2980 RMK AO2 SLP091 T02170200 51015,KPQL,2023-06-09T02:53:00Z,30.47,-88.53,21.7,20.0,0,0,,10.0,29.799213,1009.1,,TRUE,TRUE,,,,,,,CLR,,,,,,,,VFR,1.5,,,,,,,,,,,METAR,4.0
KPOU 090253Z AUTO 00000KT 10SM CLR 11/09 A2974 RMK AO2 SLP068 T01060089 53010,KPOU,2023-06-09T02:53:00Z,41.63,-73.88,10.6,8.9,0,0,,10.0,29.740158,1006.8,,TRUE,TRUE,,,,,,,CLR,,,,,,,,VFR,1.0,,,,,,,,,,,METAR,45.0
KPOF 090253Z AUTO 05004KT 10SM FEW075 22/11 A2983 RMK AO2 SLP097 60000 T02220106 51010,KPOF,2023-06-09T02:53:00Z,36.77,-90.32,22.2,10.6,50,4,,10.0,29.828741,1009.7,,TRUE,TRUE,,,,,,,FEW,7500,,,,,,,VFR,1.0,,,,,,0.005,,,,,METAR,99.0
KPNS 090253Z 25005KT 10SM CLR 25/22 A2979 RMK AO2 SLP087 T02500222 51019,KPNS,2023-06-09T02:53:00Z,30.48,-87.18,25.0,22.2,250,5,,10.0,29.790354,1008.7,,,TRUE,,,,,,,CLR,,,,,,,,VFR,1.9,,,,,,,,,,,METAR,34.0
KPNC 090253Z AUTO 00000KT 10SM CLR 25/18 A2980 RMK AO2 SLP080 T02500183 51013,KPNC,2023-06-09T02:53:00Z,36.73,-97.1,25.0,18.3,0,0,,10.0,29.799213,1008.0,,TRUE,TRUE,,,,,,,CLR,,,,,,,,VFR,1.3,,,,,,,,,,,METAR,304.0
KPMP 090253Z AUTO 19005KT 10SM CLR 27/22 A2984 RMK AO2 SLP107 T02670222 53007,KPMP,2023-06-09T02:53:00Z,26.25,-80.12,26.7,22.2,190,5,,10.0,29.840551,1010.7,,TRUE,TRUE,,,,,,,CLR,,,,,,,,VFR,0.7,,,,,,,,,,,METAR,4.0
KPMD 090253Z 23010KT 10SM CLR 20/08 A2999 RMK AO2 SLP137 T02000083 53011,KPMD,2023-06-09T02:53:00Z,34.63,-118.08,20.0,8.3,230,10,,10.0,29.991142,1013.7,,,TRUE,,,,,,,CLR,,,,,,,,VFR,1.1,,,,,,,,,,,METAR,764.0
KPKD 090253Z AUTO 15003KT 10SM CLR 21/11 A2992 RMK AO2 SLP129 T02110106 51010,KPKD,2023-06-09T02:53:00Z,46.9,-95.07,21.1,10.6,150,3,,10.0,29.920275,1012.9,,TRUE,TRUE,,,,,,,CLR,,,,,,,,VFR,1.0,,,,,,,,,,,METAR,439.0
KPKB 090253Z 00000KT 10SM FEW100 13/09 A2985 RMK AO2 SLP107 T01280089 51010,KPKB,2023-06-09T02:53:00Z,39.35,-81.43,12.8,8.9,0,0,,10.0,29.84941,1010.7,,,TRUE,,,,,,,FEW,10000,,,,,,,VFR,1.0,,,,,,,,,,,METAR,245.0
KPIR 090253Z AUTO 08005KT 10SM SCT110 27/16 A2980 RMK AO2 LTG DSNT N SLP073 T02670161 53016,KPIR,2023-06-09T02:53:00Z,44.38,-100.28,26.7,16.1,80,5,,10.0,29.799213,1007.3,,TRUE,TRUE,,,,,,,SCT,11000,,,,,,,VFR,1.6,,,,,,,,,,,METAR,524.0
KPIL 090253Z AUTO 14006KT 10SM CLR 26/23 A2983 RMK AO2 SLP101 T02610228 53015,KPIL,2023-06-09T02:53:00Z,26.17,-97.33,26.1,22.8,140,6,,10.0,29.828741,1010.1,,TRUE,TRUE,,,,,,,CLR,,,,,,,,VFR,1.5,,,,,,,,,,,METAR,5.0
KPIH 090253Z 02008KT 10SM FEW120 14/09 A3006 RMK AO2 RAE07 SLP149 P0000 60000 T01440094 53014,KPIH,2023-06-09T02:53:00Z,42.92,-112.57,14.4,9.4,20,8,,10.0,30.059055,1014.9,,,TRUE,,,,,,,FEW,12000,,,,,,,VFR,1.4,,,,,0.005,0.005,,,,,METAR,1357.0
KPIE 090253Z 24005KT 10SM CLR 25/23 A2983 RMK AO2 SLP099 T02500228 51015,KPIE,2023-06-09T02:53:00Z,27.92,-82.68,25.0,22.8,240,5,,10.0,29.828741,1009.9,,,TRUE,,,,,,,CLR,,,,,,,,VFR,1.5,,,,,,,,,,,METAR,1.0
KPHD 090253Z AUTO 00000KT 8SM CLR 15/06 A2985 RMK AO2 SLP105 T01500061 51008,KPHD,2023-06-09T02:53:00Z,40.47,-81.42,15.0,6.1,0,0,,8.0,29.84941,1010.5,,TRUE,TRUE,,,,,,,CLR,,,,,,,,VFR,0.8,,,,,,,,,,,METAR,272.0
KPGD 090253Z AUTO 20003KT 10SM CLR 27/23 A2985 RMK AO2 SLP106 T02670228 53013,KPGD,2023-06-09T02:53:00Z,26.92,-82.0,26.7,22.8,200,3,,10.0,29.84941,1010.6,,TRUE,TRUE,,,,,,,CLR,,,,,,,,VFR,1.3,,,,,,,,,,,METAR,7.0
KPGA 090253Z AUTO 25006KT 10SM CLR 27/M04 A2994 RMK AO2 SLP077 T02671044 53005,KPGA,2023-06-09T02:53:00Z,36.92,-111.45,26.7,-4.4,250,6,,10.0,29.940945,1007.7,,TRUE,TRUE,,,,,,,CLR,,,,,,,,VFR,0.5,,,,,,,,,,,METAR,1310.0
KPEO 090253Z AUTO 00000KT 10SM BKN060 OVC085 13/08 A2981 RMK AO2 SLP093 T01280083 51008,KPEO,2023-06-09T02:53:00Z,42.65,-77.05,12.8,8.3,0,0,,10.0,29.811024,1009.3,,TRUE,TRUE,,,,,,,BKN,6000,OVC,8500,,,,,VFR,0.8,,,,,,,,,,,METAR,268.0
KPDX 090253Z 00000KT 10SM FEW140 SCT170 OVC260 22/11 A2996 RMK AO2 SLP143 T02170106 53001,KPDX,2023-06-09T02:53:00Z,45.6,-122.62,21.7,10.6,0,0,,10.0,29.958662,1014.3,,,TRUE,,,,,,,FEW,14000,SCT,17000,OVC,26000,,,VFR,0.1,,,,,,,,,,,METAR,7.0
KPDT 090253Z 09007KT 10SM OVC090 22/16 A2986 RMK AO2 SLP097 60000 T02170156 53001,KPDT,2023-06-09T02:53:00Z,45.7,-118.83,21.7,15.6,90,7,,10.0,29.861221,1009.7,,,TRUE,,,,,,,OVC,9000,,,,,,,VFR,0.1,,,,,,0.005,,,,,METAR,453.0
KPDK 090253Z 02005KT 10SM CLR 18/09 A2983 RMK AO2 SLP088 T01830094 51015 $,KPDK,2023-06-09T02:53:00Z,33.88,-84.3,18.3,9.4,20,5,,10.0,29.828741,1008.8,,,TRUE,TRUE,,,,,,CLR,,,,,,,,VFR,1.5,,,,,,,,,,,METAR,299.0
KPBI 090253Z 20003KT 10SM FEW040 FEW080 BKN180 26/23 A2984 RMK AO2 SLP105 T02610228 53006 $,KPBI,2023-06-09T02:53:00Z,26.68,-80.1,26.1,22.8,200,3,,10.0,29.840551,1010.5,,,TRUE,TRUE,,,,,,FEW,4000,FEW,8000,BKN,18000,,,VFR,0.6,,,,,,,,,,,METAR,4.0
KPBG 090253Z AUTO 31003KT 10SM FEW032 OVC065 12/11 A2974 RMK AO2 SLP071 60002 T01170106 53002,KPBG,2023-06-09T02:53:00Z,44.65,-73.47,11.7,10.6,310,3,,10.0,29.740158,1007.1,,TRUE,TRUE,,,,,,,FEW,3200,OVC,6500,,,,,VFR,0.2,,,,,,0.02,,,,,METAR,61.0
KPBF 090253Z AUTO 00000KT 10SM CLR 24/20 A2984 RMK AO2 SLP100 T02440200 52021 $,KPBF,2023-06-09T02:53:00Z,34.18,-91.93,24.4,20.0,0,0,,10.0,29.840551,1010.0,,TRUE,TRUE,TRUE,,,,,,CLR,,,,,,,,VFR,2.1,,,,,,,,,,,METAR,63.0
KPAH 090253Z 00000KT 10SM CLR 17/11 A2983 RMK AO2 SLP097 T01670106 53003,KPAH,2023-06-09T02:53:00Z,37.07,-88.77,16.7,10.6,0,0,,10.0,29.828741,1009.7,,,TRUE,,,,,,,CLR,,,,,,,,VFR,0.3,,,,,,,,,,,METAR,125.0
KPAE 090253Z 34005KT 10SM CLR 18/11 A2994 RMK AO2 SLP138 T01780106 53001,KPAE,2023-06-09T02:53:00Z,47.92,-122.28,17.8,10.6,340,5,,10.0,29.940945,1013.8,,,TRUE,,,,,,,CLR,,,,,,,,VFR,0.1,,,,,,,,,,,METAR,166.0
KP68 090253Z AUTO 21004KT 14/04 A3007 RMK AO1 SLP123 T01390044 53001,KP68,2023-06-09T02:53:00Z,39.6,-116.0,13.9,4.4,210,4,,,30.070866,1012.3,,TRUE,TRUE,,,,,,,,,,,,,,,,0.1,,,,,,,,,,,METAR,1813.0
KOWD 090253Z AUTO 00000KT 9SM SCT065 OVC085 13/10 A2973 RMK AO2 SLP066 T01280100 51008,KOWD,2023-06-09T02:53:00Z,42.18,-71.17,12.8,10.0,0,0,,9.0,29.731298,1006.6,,TRUE,TRUE,,,,,,,SCT,6500,OVC,8500,,,,,VFR,0.8,,,,,,,,,,,METAR,14.0
KOVS 090253Z AUTO 00000KT 10SM CLR 13/06 A2993 RMK AO2 SLP136 T01330056 53012,KOVS,2023-06-09T02:53:00Z,43.15,-90.68,13.3,5.6,0,0,,10.0,29.929134,1013.6,,TRUE,TRUE,,,,,,,CLR,,,,,,,,VFR,1.2,,,,,,,,,,,METAR,205.0
KOVE 090253Z AUTO 18008KT 10SM BKN085 27/13 A2994 RMK AO2 SLP140 T02670133 56001,KOVE,2023-06-09T02:53:00Z,39.5,-121.62,26.7,13.3,180,8,,10.0,29.940945,1014.0,,TRUE,TRUE,,,,,,,BKN,8500,,,,,,,VFR,-0.1,,,,,,,,,,,METAR,56.0
KOTM 090253Z AUTO 08003KT 10SM CLR 15/07 A2991 RMK AO2 SLP125 T01500072 52015,KOTM,2023-06-09T02:53:00Z,41.1,-92.45,15.0,7.2,80,3,,10.0,29.911417,1012.5,,TRUE,TRUE,,,,,,,CLR,,,,,,,,VFR,1.5,,,,,,,,,,,METAR,254.0
KOSU 090253Z 00000KT 9SM OVC100 19/06 A2984 RMK AO2 SLP100 T01940056 52009,KOSU,2023-06-09T02:53:00Z,40.08,-83.08,19.4,5.6,0,0,,9.0,29.840551,1010.0,,,TRUE,,,,,,,OVC,10000,,,,,,,VFR,0.9,,,,,,,,,,,METAR,276.0
KOSH 090253Z 14007KT 10SM CLR 17/04 A2993 RMK AO2 SLP127 T01670039 53010,KOSH,2023-06-09T02:53:00Z,43.98,-88.55,16.7,3.9,140,7,,10.0,29.929134,1012.7,,,TRUE,,,,,,,CLR,,,,,,,,VFR,1.0,,,,,,,,,,,METAR,239.0
KORL 090253Z AUTO 22006KT 10SM CLR 26/22 A2982 RMK AO2 SLP100 T02560222 53021,KORL,2023-06-09T02:53:00Z,28.55,-81.33,25.6,22.2,220,6,,10.0,29.819881,1010.0,,TRUE,TRUE,,,,,,,CLR,,,,,,,,VFR,2.1,,,,,,,,,,,METAR,32.0
KOQT 090253Z AUTO 00000KT 10SM CLR 17/10 A2988 RMK AO2 SLP109 T01670100 52018,KOQT,2023-06-09T02:53:00Z,36.02,-84.23,16.7,10.0,0,0,,10.0,29.878937,1010.9,,TRUE,TRUE,,,,,,,CLR,,,,,,,,VFR,1.8,,,,,,,,,,,METAR,276.0
KOPF 090253Z 19006KT 10SM CLR 26/23 A2986 RMK AO2 SLP113 60000 T02560233 53007,KOPF,2023-06-09T02:53:00Z,25.92,-80.28,25.6,23.3,190,6,,10.0,29.861221,1011.3,,,TRUE,,,,,,,CLR,,,,,,,,VFR,0.7,,,,,,0.005,,,,,METAR,1.0
KONT 090253Z 25010KT 10SM SCT250 19/12 A2999 RMK AO2 SLP149 T01940117 53008,KONT,2023-06-09T02:53:00Z,34.05,-117.58,19.4,11.7,250,10,,10.0,29.991142,1014.9,,,TRUE,,,,,,,SCT,25000,,,,,,,VFR,0.8,,,,,,,,,,,METAR,279.0
KONO 090253Z AUTO 21005KT 10SM SCT055 BKN095 24/14 A2990 RMK AO2 SLP111 T02390144 53007,KONO,2023-06-09T02:53:00Z,44.02,-117.02,23.9,14.4,210,5,,10.0,29.899607,1011.1,,TRUE,TRUE,,,,,,,SCT,5500,BKN,9500,,,,,VFR,0.7,,,,,,,,,,,METAR,668.0
KOLF 090253Z AUTO 05007KT 10SM CLR 25/16 A2988 RMK AO2 LTG DSNT SE AND S SLP109 T02500156 52009,KOLF,2023-06-09T02:53:00Z,48.1,-105.58,25.0,15.6,50,7,,10.0,29.878937,1010.9,,TRUE,TRUE,,,,,,,CLR,,,,,,,,VFR,0.9,,,,,,,,,,,METAR,605.0
KOJC 090253Z AUTO 08007KT 10SM CLR 21/15 A2987 RMK AO2 SLP103 T02110150 53012,KOJC,2023-06-09T02:53:00Z,38.85,-94.73,21.1,15.0,80,7,,10.0,29.870079,1010.3,,TRUE,TRUE,,,,,,,CLR,,,,,,,,VFR,1.2,,,,,,,,,,,METAR,328.0
KOGD 090253Z AUTO 19011KT 10SM CLR 20/08 A3003 RMK AO2 SLP119 T02000078 53007,KOGD,2023-06-09T02:53:00Z,41.2,-112.02,20.0,7.8,190,11,,10.0,30.029528,1011.9,,TRUE,TRUE,,,,,,,CLR,,,,,,,,VFR,0.7,,,,,,,,,,,METAR,1356.0
KOGB 090253Z AUTO 00000KT 10SM CLR 19/17 A2979 RMK AO2 SLP087 T01890167 51019,KOGB,2023-06-09T02:53:00Z,33.47,-80.85,18.9,16.7,0,0,,10.0,29.790354,1008.7,,TRUE,TRUE,,,,,,,CLR,,,,,,,,VFR,1.9,,,,,,,,,,,METAR,59.0
KODO 090253Z AUTO 09010KT 10SM CLR 28/12 A2992 RMK AO2 SLP083 T02780117 53014,KODO,2023-06-09T02:53:00Z,31.92,-102.4,27.8,11.7,90,10,,10.0,29.920275,1008.3,,TRUE,TRUE,,,,,,,CLR,,,,,,,,VFR,1.4,,,,,,,,,,,METAR,912.0
KOAK 090253Z 29011KT 10SM FEW018 FEW180 BKN250 16/11 A3004 RMK AO2 SLP174 T01610106 53009,KOAK,2023-06-09T02:53:00Z,37.72,-122.23,16.1,10.6,290,11,,10.0,30.041338,1017.4,,,TRUE,,,,,,,FEW,1800,FEW,18000,BKN,25000,,,VFR,0.9,,,,,,,,,,,METAR,3.0
KNUW 090253Z 22009KT 10SM SCT100 SCT160 BKN250 14/09 A2995 RMK AO2 SLP146 T01390094 53004 VISNO $,KNUW,2023-06-09T02:53:00Z,48.35,-122.65,13.9,9.4,220,9,,10.0,29.949802,1014.6,,,TRUE,TRUE,,,,,,SCT,10000,SCT,16000,BKN,25000,,,VFR,0.4,,,,,,,,,,,METAR,14.0
KNUI 090253Z AUTO 24005KT 6SM HZ SCT110 17/12 A2977 RMK AO2 SLP081 T01720122 52018,KNUI,2023-06-09T02:53:00Z,38.15,-76.43,17.2,12.2,240,5,,6.0,29.769686,1008.1,,TRUE,TRUE,,,,,,HZ,SCT,11000,,,,,,,VFR,1.8,,,,,,,,,,,METAR,4.0
KNSI 090253Z AUTO 29009KT 10SM CLR 15/11 A3003 RMK AO2 SLP164 T01500111 53001 $,KNSI,2023-06-09T02:53:00Z,33.23,-119.45,15.0,11.1,290,9,,10.0,30.029528,1016.4,,TRUE,TRUE,TRUE,,,,,,CLR,,,,,,,,VFR,0.1,,,,,,,,,,,METAR,161.0
KNRS 090253Z 32008KT 10SM FEW020 BKN028 BKN250 19/13 A3004 RMK AO2 SLP170 T01890133 51004,KNRS,2023-06-09T02:53:00Z,32.57,-117.12,18.9,13.3,320,8,,10.0,30.041338,1017.0,,,TRUE,,,,,,,FEW,2000,BKN,2800,BKN,25000,,,MVFR,0.4,,,,,,,,,,,METAR,15.0
KNQX 090253Z AUTO 19013KT 10SM FEW017 SCT110 A2987 RMK AO2 SLP115 53013 $,KNQX,2023-06-09T02:53:00Z,24.57,-81.67,,,190,13,,10.0,29.870079,1011.5,,TRUE,TRUE,TRUE,,,,,,FEW,1700,SCT,11000,,,,,VFR,1.3,,,,,,,,,,,METAR,2.0
KNIP 090253Z 26009KT 10SM FEW060 SCT120 BKN250 28/18 A2978 RMK AO2 SLP080 T02830183 52024,KNIP,2023-06-09T02:53:00Z,30.23,-81.67,28.3,18.3,260,9,,10.0,29.778543,1008.0,,,TRUE,,,,,,,FEW,6000,SCT,12000,BKN,25000,,,VFR,2.4,,,,,,,,,,,METAR,3.0
KNFG 090253Z 00000KT 10SM FEW025 FEW230 18/13 A3001 RMK AO2 SLP162 T01780128 53007 $,KNFG,2023-06-09T02:53:00Z,33.3,-117.35,17.8,12.8,0,0,,10.0,30.008858,1016.2,,,TRUE,TRUE,,,,,,FEW,2500,FEW,23000,,,,,VFR,0.7,,,,,,,,,,,METAR,21.0
KNEW 090253Z AUTO 26009KT 10SM CLR 28/21 A2981 RMK AO2 SLP089 T02830211 53008,KNEW,2023-06-09T02:53:00Z,30.05,-90.03,28.3,21.1,260,9,,10.0,29.811024,1008.9,,TRUE,TRUE,,,,,,,CLR,,,,,,,,VFR,0.8,,,,,,,,,,,METAR,1.0
KMYV 090253Z AUTO 18010KT 10SM -RA BKN070 24/11 A2993 RMK AO2 SLP140 P0000 60000 T02440106 52000,KMYV,2023-06-09T02:53:00Z,39.1,-121.57,24.4,10.6,180,10,,10.0,29.929134,1014.0,,TRUE,TRUE,,,,,,-RA,BKN,7000,,,,,,,VFR,0.0,,,,,0.005,0.005,,,,,METAR,18.0
KMYF 090253Z 29008KT 10SM BKN020 17/12 A3003 RMK AO2 SLP165 T01670122 53008,KMYF,2023-06-09T02:53:00Z,32.82,-117.13,16.7,12.2,290,8,,10.0,30.029528,1016.5,,,TRUE,,,,,,,BKN,2000,,,,,,,MVFR,0.8,,,,,,,,,,,METAR,128.0
KMWT 090253Z AUTO 00000KT 10SM CLR 23/19 A2984 RMK AO2 SLP090 T02330189 53018 $,KMWT,2023-06-09T02:53:00Z,34.55,-93.58,23.3,18.9,0,0,,10.0,29.840551,1009.0,,TRUE,TRUE,TRUE,,,,,,CLR,,,,,,,,VFR,1.8,,,,,,,,,,,METAR,220.0
KMWL 090253Z AUTO 15008KT 10SM CLR 23/18 A2982 RMK AO2 SLP086 T02330183 51015,KMWL,2023-06-09T02:53:00Z,32.78,-98.07,23.3,18.3,150,8,,10.0,29.819881,1008.6,,TRUE,TRUE,,,,,,,CLR,,,,,,,,VFR,1.5,,,,,,,,,,,METAR,288.0
KMVY 090253Z AUTO 23003KT 4SM BR OVC100 11/10 A2972 RMK AO2 SLP064 T01110100 50005,KMVY,2023-06-09T02:53:00Z,41.4,-70.62,11.1,10.0,230,3,,4.0,29.719488,1006.4,,TRUE,TRUE,,,,,,BR,OVC,10000,,,,,,,MVFR,0.5,,,,,,,,,,,METAR,18.0
KMTO 090253Z AUTO 00000KT 10SM FEW095 17/08 A2986 RMK AO2 SLP108 T01670078 53009,KMTO,2023-06-09T02:53:00Z,39.47,-88.27,16.7,7.8,0,0,,10.0,29.861221,1010.8,,TRUE,TRUE,,,,,,,FEW,9500,,,,,,,VFR,0.9,,,,,,,,,,,METAR,216.0
KMTJ 090253Z AUTO 26005KT 10SM CLR 22/M07 A3006 RMK AO2 SLP111 T02171072 53012,KMTJ,2023-06-09T02:53:00Z,38.5,-107.9,21.7,-7.2,260,5,,10.0,30.059055,1011.1,,TRUE,TRUE,,,,,,,CLR,,,,,,,,VFR,1.2,,,,,,,,,,,METAR,1755.0
KMTH 090253Z AUTO 18006KT 10SM BKN060 28/23 A2987 RMK AO2 SLP115 T02830233 53014,KMTH,2023-06-09T02:53:00Z,24.73,-81.05,28.3,23.3,180,6,,10.0,29.870079,1011.5,,TRUE,TRUE,,,,,,,BKN,6000,,,,,,,VFR,1.4,,,,,,,,,,,METAR,1.0
KMSY 090253Z 00000KT 10SM FEW055 FEW100 BKN150 OVC240 24/23 A2982 RMK AO2 RAB02E18 SLP101 P0000 60003 T02390228 53014,KMSY,2023-06-09T02:53:00Z,30.0,-90.25,23.9,22.8,0,0,,10.0,29.819881,1010.1,,,TRUE,,,,,,,FEW,5500,FEW,10000,BKN,15000,OVC,24000,VFR,1.4,,,,,0.005,0.03,,,,,METAR,0.0
KMSS 090253Z AUTO 00000KT 10SM OVC065 12/11 A2977 RMK AO2 SLP084 60016 T01220106 55000,KMSS,2023-06-09T02:53:00Z,44.93,-74.85,12.2,10.6,0,0,,10.0,29.769686,1008.4,,TRUE,TRUE,,,,,,,OVC,6500,,,,,,,VFR,0.0,,,,,,0.16,,,,,METAR,60.0
KMSP 090253Z 13006KT 10SM SCT250 23/08 A2991 RMK AO2 SLP126 T02330078 53014,KMSP,2023-06-09T02:53:00Z,44.88,-93.23,23.3,7.8,130,6,,10.0,29.911417,1012.6,,,TRUE,,,,,,,SCT,25000,,,,,,,VFR,1.4,,,,,,,,,,,METAR,255.0
KMSN 090253Z 18005KT 10SM CLR 18/03 A2993 RMK AO2 SLP131 T01780033 53009,KMSN,2023-06-09T02:53:00Z,43.13,-89.35,17.8,3.3,180,5,,10.0,29.929134,1013.1,,,TRUE,,,,,,,CLR,,,,,,,,VFR,0.9,,,,,,,,,,,METAR,262.0
KMSL 090253Z AUTO 00000KT 10SM CLR 22/12 A2981 RMK AO2 SLP090 T02170122 51008,KMSL,2023-06-09T02:53:00Z,34.75,-87.6,21.7,12.2,0,0,,10.0,29.811024,1009.0,,TRUE,TRUE,,,,,,,CLR,,,,,,,,VFR,0.8,,,,,,,,,,,METAR,170.0
KMRB 090253Z AUTO 00000KT 10SM CLR 16/06 A2979 RMK AO2 SLP086 T01610061 51014,KMRB,2023-06-09T02:53:00Z,39.4,-77.98,16.1,6.1,0,0,,10.0,29.790354,1008.6,,TRUE,TRUE,,,,,,,CLR,,,,,,,,VFR,1.4,,,,,,,,,,,METAR,165.0
KMPO 090253Z AUTO 30009KT 10SM OVC090 10/07 A2977 RMK AO2 SLP081 T01000072 50004,KMPO,2023-06-09T02:53:00Z,41.13,-75.38,10.0,7.2,300,9,,10.0,29.769686,1008.1,,TRUE,TRUE,,,,,,,OVC,9000,,,,,,,VFR,0.4,,,,,,,,,,,METAR,576.0
KMOD 090253Z 30010KT 10SM CLR 25/13 A2994 RMK AO2 SLP137 T02500128 53001,KMOD,2023-06-09T02:53:00Z,37.62,-120.95,25.0,12.8,300,10,,10.0,29.940945,1013.7,,,TRUE,,,,,,,CLR,,,,,,,,VFR,0.1,,,,,,,,,,,METAR,25.0
KMNN 090253Z AUTO 00000KT 8SM BKN095 15/04 A2985 RMK AO2 SLP107 T01500044 53011,KMNN,2023-06-09T02:53:00Z,40.62,-83.07,15.0,4.4,0,0,,8.0,29.84941,1010.7,,TRUE,TRUE,,,,,,,BKN,9500,,,,,,,VFR,1.1,,,,,,,,,,,METAR,301.0
KMMV 090253Z AUTO 21007KT 10SM CLR 18/12 A2995 RMK AO2 SLP143 T01830117 55000,KMMV,2023-06-09T02:53:00Z,45.2,-123.13,18.3,11.7,210,7,,10.0,29.949802,1014.3,,TRUE,TRUE,,,,,,,CLR,,,,,,,,VFR,0.0,,,,,,,,,,,METAR,48.0
KMMK 090253Z AUTO 00000KT 10SM OVC085 11/09 A2974 RMK AO2 SLP069 T01060089 51011,KMMK,2023-06-09T02:53:00Z,41.52,-72.83,10.6,8.9,0,0,,10.0,29.740158,1006.9,,TRUE,TRUE,,,,,,,OVC,8500,,,,,,,VFR,1.1,,,,,,,,,,,METAR,30.0
KMLU 090253Z 00000KT 8SM HZ CLR 25/21 A2982 RMK AO2 SLP097 T02500206 53020,KMLU,2023-06-09T02:53:00Z,32.52,-92.03,25.0,20.6,0,0,,8.0,29.819881,1009.7,,,TRUE,,,,,,HZ,CLR,,,,,,,,VFR,2.0,,,,,,,,,,,METAR,22.0
KMLS 090253Z AUTO 13003KT 10SM CLR 22/18 A2987 RMK AO2 LTG DSNT W SLP093 T02220178 51014,KMLS,2023-06-09T02:53:00Z,46.43,-105.88,22.2,17.8,130,3,,10.0,29.870079,1009.3,,TRUE,TRUE,,,,,,,CLR,,,,,,,,VFR,1.4,,,,,,,,,,,METAR,800.0
KMLP 090253Z AUTO 12005KT 10SM -RA BKN080 OVC090 11/09 A3007 RMK AO2 SLP101 P0001 60015 T01060094 58004,KMLP,2023-06-09T02:53:00Z,47.45,-115.67,10.6,9.4,120,5,,10.0,30.070866,1010.1,,TRUE,TRUE,,,,,,-RA,BKN,8000,OVC,9000,,,,,VFR,-0.4,,,,,0.01,0.15,,,,,METAR,1837.0
KMLC 090253Z AUTO 00000KT 10SM FEW070 23/20 A2982 RMK AO2 SLP088 T02280200 51014,KMLC,2023-06-09T02:53:00Z,34.88,-95.78,22.8,20.0,0,0,,10.0,29.819881,1008.8,,TRUE,TRUE,,,,,,,FEW,7000,,,,,,,VFR,1.4,,,,,,,,,,,METAR,231.0
KMLB 090253Z 18006KT 10SM CLR 24/21 A2981 RMK AO2 SLP094 T02440211 53012,KMLB,2023-06-09T02:53:00Z,28.1,-80.65,24.4,21.1,180,6,,10.0,29.811024,1009.4,,,TRUE,,,,,,,CLR,,,,,,,,VFR,1.2,,,,,,,,,,,METAR,7.0
KMKO 090253Z AUTO 00000KT 10SM CLR 26/18 A2982 RMK AO2 SLP088 T02560178 51014,KMKO,2023-06-09T02:53:00Z,35.65,-95.37,25.6,17.8,0,0,,10.0,29.819881,1008.8,,TRUE,TRUE,,,,,,,CLR,,,,,,,,VFR,1.4,,,,,,,,,,,METAR,184.0
KMKL 090253Z AUTO 00000KT 10SM CLR 18/14 A2983 RMK AO2 SLP096 T01830139 53010,KMKL,2023-06-09T02:53:00Z,35.6,-88.92,18.3,13.9,0,0,,10.0,29.828741,1009.6,,TRUE,TRUE,,,,,,,CLR,,,,,,,,VFR,1.0,,,,,,,,,,,METAR,130.0
KMIW 090253Z AUTO 00000KT 10SM CLR 19/08 A2991 RMK AO2 SLP125 T01940078 53008,KMIW,2023-06-09T02:53:00Z,42.12,-92.92,19.4,7.8,0,0,,10.0,29.911417,1012.5,,TRUE,TRUE,,,,,,,CLR,,,,,,,,VFR,0.8,,,,,,,,,,,METAR,296.0
KMIE 090253Z AUTO 35008KT 10SM CLR 19/03 A2988 RMK AO2 SLP110 T01890028 53015,KMIE,2023-06-09T02:53:00Z,40.23,-85.4,18.9,2.8,350,8,,10.0,29.878937,1011.0,,TRUE,TRUE,,,,,,,CLR,,,,,,,,VFR,1.5,,,,,,,,,,,METAR,286.0
KMIC 090253Z AUTO 08004KT 10SM CLR 22/08 A2991 RMK AO2 SLP123 T02220078 53014,KMIC,2023-06-09T02:53:00Z,45.07,-93.35,22.2,7.8,80,4,,10.0,29.911417,1012.3,,TRUE,TRUE,,,,,,,CLR,,,,,,,,VFR,1.4,,,,,,,,,,,METAR,263.0
KMIA 090253Z 21004KT 10SM BKN110 OVC250 27/23 A2986 RMK AO2 SLP112 T02670233 53007,KMIA,2023-06-09T02:53:00Z,25.8,-80.32,26.7,23.3,210,4,,10.0,29.861221,1011.2,,,TRUE,,,,,,,BKN,11000,OVC,25000,,,,,VFR,0.7,,,,,,,,,,,METAR,1.0
KMHT 090253Z 00000KT 10SM FEW060 11/09 A2971 RMK AO2 SLP074 T01110094 51006,KMHT,2023-06-09T02:53:00Z,42.93,-71.43,11.1,9.4,0,0,,10.0,29.71063,1007.4,,,TRUE,,,,,,,FEW,6000,,,,,,,VFR,0.6,,,,,,,,,,,METAR,68.0
KMHE 090253Z AUTO 13011G19KT 10SM CLR 27/17 A2982 RMK AO2 SLP088 T02670167 53017,KMHE,2023-06-09T02:53:00Z,43.77,-98.03,26.7,16.7,130,11,19,10.0,29.819881,1008.8,,TRUE,TRUE,,,,,,,CLR,,,,,,,,VFR,1.7,,,,,,,,,,,METAR,397.0
KMGY 090253Z AUTO 00000KT 10SM BKN095 18/05 A2985 RMK AO2 SLP103 T01830050 53010,KMGY,2023-06-09T02:53:00Z,39.6,-84.23,18.3,5.0,0,0,,10.0,29.84941,1010.3,,TRUE,TRUE,,,,,,,BKN,9500,,,,,,,VFR,1.0,,,,,,,,,,,METAR,290.0
KMGW 090253Z 17003KT 10SM CLR 13/09 A2985 RMK AO2 SLP105 T01330094 53008,KMGW,2023-06-09T02:53:00Z,39.65,-79.92,13.3,9.4,170,3,,10.0,29.84941,1010.5,,,TRUE,,,,,,,CLR,,,,,,,,VFR,0.8,,,,,,,,,,,METAR,375.0
KMGM 090253Z 21003KT 10SM CLR 24/20 A2978 RMK AO2 SLP082 T02390200 53014,KMGM,2023-06-09T02:53:00Z,32.3,-86.4,23.9,20.0,210,3,,10.0,29.778543,1008.2,,,TRUE,,,,,,,CLR,,,,,,,,VFR,1.4,,,,,,,,,,,METAR,64.0
KMFR 090253Z 04006KT 10SM SCT080 20/15 A2995 RMK AO2 TSE0154 SLP133 T02000150 51021,KMFR,2023-06-09T02:53:00Z,42.38,-122.87,20.0,15.0,40,6,,10.0,29.949802,1013.3,,,TRUE,,,,,,,SCT,8000,,,,,,,VFR,2.1,,,,,,,,,,,METAR,397.0
KMFE 090253Z 14009KT 10SM CLR 28/23 A2982 RMK AO2 SLP097 T02830228 51023,KMFE,2023-06-09T02:53:00Z,26.18,-98.25,28.3,22.8,140,9,,10.0,29.819881,1009.7,,,TRUE,,,,,,,CLR,,,,,,,,VFR,2.3,,,,,,,,,,,METAR,29.0
KMDW 090253Z 36004KT 10SM CLR 18/03 A2992 RMK AO2 SLP126 T01830028 51005,KMDW,2023-06-09T02:53:00Z,41.78,-87.75,18.3,2.8,360,4,,10.0,29.920275,1012.6,,,TRUE,,,,,,,CLR,,,,,,,,VFR,0.5,,,,,,,,,,,METAR,186.0
KMCW 090253Z AUTO 21004KT 10SM CLR 18/09 A2993 RMK AO2 SLP128 T01830089 53009,KMCW,2023-06-09T02:53:00Z,43.15,-93.33,18.3,8.9,210,4,,10.0,29.929134,1012.8,,TRUE,TRUE,,,,,,,CLR,,,,,,,,VFR,0.9,,,,,,,,,,,METAR,363.0
KMCO 090253Z 19006KT 10SM FEW250 24/22 A2982 RMK AO2 SLP097 T02440217 53020,KMCO,2023-06-09T02:53:00Z,28.42,-81.33,24.4,21.7,190,6,,10.0,29.819881,1009.7,,,TRUE,,,,,,,FEW,25000,,,,,,,VFR,2.0,,,,,,,,,,,METAR,27.0
KMCN 090253Z AUTO 01008KT 10SM SCT070 25/12 A2978 RMK AO2 SLP080 T02500117 53024,KMCN,2023-06-09T02:53:00Z,32.68,-83.65,25.0,11.7,10,8,,10.0,29.778543,1008.0,,TRUE,TRUE,,,,,,,SCT,7000,,,,,,,VFR,2.4,,,,,,,,,,,METAR,104.0
KMCK 090253Z AUTO 09007KT 10SM CLR 25/14 A2988 RMK AO2 SLP092 T02500139 53011,KMCK,2023-06-09T02:53:00Z,40.2,-100.58,25.0,13.9,90,7,,10.0,29.878937,1009.2,,TRUE,TRUE,,,,,,,CLR,,,,,,,,VFR,1.1,,,,,,,,,,,METAR,780.0
KMCI 090253Z 08011KT 10SM SCT040 21/14 A2987 RMK AO2 SLP107 T02060139 53010,KMCI,2023-06-09T02:53:00Z,39.3,-94.73,20.6,13.9,80,11,,10.0,29.870079,1010.7,,,TRUE,,,,,,,SCT,4000,,,,,,,VFR,1.0,,,,,,,,,,,METAR,308.0
KMCE 090253Z AUTO 32008KT 10SM CLR 26/13 A2993 RMK AO2 SLP133 T02610128 55003,KMCE,2023-06-09T02:53:00Z,37.28,-120.5,26.1,12.8,320,8,,10.0,29.929134,1013.3,,TRUE,TRUE,,,,,,,CLR,,,,,,,,VFR,-0.3,,,,,,,,,,,METAR,49.0
KMCB 090253Z AUTO 00000KT 10SM CLR 23/19 A2982 RMK AO2 SLP093 T02280189 53014,KMCB,2023-06-09T02:53:00Z,31.18,-90.47,22.8,18.9,0,0,,10.0,29.819881,1009.3,,TRUE,TRUE,,,,,,,CLR,,,,,,,,VFR,1.4,,,,,,,,,,,METAR,124.0
KMBS 090253Z AUTO 06004KT 10SM CLR 14/08 A2991 RMK AO2 SLP127 T01440078 53011,KMBS,2023-06-09T02:53:00Z,43.53,-84.08,14.4,7.8,60,4,,10.0,29.911417,1012.7,,TRUE,TRUE,,,,,,,CLR,,,,,,,,VFR,1.1,,,,,,,,,,,METAR,201.0
KMAI 090253Z AUTO 23006KT 10SM CLR 26/22 A2978 RMK AO2 SLP082 T02560217 53022,KMAI,2023-06-09T02:53:00Z,30.83,-85.18,25.6,21.7,230,6,,10.0,29.778543,1008.2,,TRUE,TRUE,,,,,,,CLR,,,,,,,,VFR,2.2,,,,,,,,,,,METAR,33.0
KMAF 090253Z 10009KT 10SM CLR 27/12 A2991 RMK AO2 SLP081 T02720122 53015,KMAF,2023-06-09T02:53:00Z,31.95,-102.2,27.2,12.2,100,9,,10.0,29.911417,1008.1,,,TRUE,,,,,,,CLR,,,,,,,,VFR,1.5,,,,,,,,,,,METAR,874.0
KMAE 090253Z AUTO 29006KT 10SM CLR 26/14 A2994 RMK AO2 SLP135 T02560144 55002,KMAE,2023-06-09T02:53:00Z,36.98,-120.12,25.6,14.4,290,6,,10.0,29.940945,1013.5,,TRUE,TRUE,,,,,,,CLR,,,,,,,,VFR,-0.2,,,,,,,,,,,METAR,77.0
KLXV 090253Z AUTO 00000KT 10SM CLR 08/01 A3031 RMK AO2 SLP123 T00830006 51010,KLXV,2023-06-09T02:53:00Z,39.23,-106.32,8.3,0.6,0,0,,10.0,30.31004,1012.3,,TRUE,TRUE,,,,,,,CLR,,,,,,,,VFR,1.0,,,,,,,,,,,METAR,3027.0
KLXT 090253Z AUTO 08007KT 10SM SCT044 SCT110 19/14 A2988 RMK AO2 SLP111 T01940139 53009,KLXT,2023-06-09T02:53:00Z,38.97,-94.37,19.4,13.9,80,7,,10.0,29.878937,1011.1,,TRUE,TRUE,,,,,,,SCT,4400,SCT,11000,,,,,VFR,0.9,,,,,,,,,,,METAR,306.0
KLWV 090253Z AUTO 35003KT 10SM CLR 17/10 A2986 RMK AO2 SLP109 T01720100 52009,KLWV,2023-06-09T02:53:00Z,38.77,-87.6,17.2,10.0,350,3,,10.0,29.861221,1010.9,,TRUE,TRUE,,,,,,,CLR,,,,,,,,VFR,0.9,,,,,,,,,,,METAR,128.0
KLWD 090253Z AUTO 10003KT 10SM CLR 20/11 A2990 RMK AO2 SLP119 T02000111 51006,KLWD,2023-06-09T02:53:00Z,40.63,-93.9,20.0,11.1,100,3,,10.0,29.899607,1011.9,,TRUE,TRUE,,,,,,,CLR,,,,,,,,VFR,0.6,,,,,,,,,,,METAR,345.0
KLVS 090253Z AUTO 20009KT 10SM CLR 16/M01 A3013 RMK AO2 SLP104 T01561006 53011,KLVS,2023-06-09T02:53:00Z,35.65,-105.13,15.6,-0.6,200,9,,10.0,30.129921,1010.4,,TRUE,TRUE,,,,,,,CLR,,,,,,,,VFR,1.1,,,,,,,,,,,METAR,2095.0
KLVM 090253Z AUTO 24004KT 10SM FEW120 17/13 A3000 RMK AO2 RAE01 SLP123 P0000 60000 T01720133 53002,KLVM,2023-06-09T02:53:00Z,45.7,-110.43,17.2,13.3,240,4,,10.0,30.0,1012.3,,TRUE,TRUE,,,,,,,FEW,12000,,,,,,,VFR,0.2,,,,,0.005,0.005,,,,,METAR,1418.0
KLVK 090253Z 27013KT 10SM CLR 17/10 A3001 RMK AO2 SLP159 T01670100 53011,KLVK,2023-06-09T02:53:00Z,37.7,-121.82,16.7,10.0,270,13,,10.0,30.008858,1015.9,,,TRUE,,,,,,,CLR,,,,,,,,VFR,1.1,,,,,,,,,,,METAR,120.0
KLVJ 090253Z AUTO 00000KT 10SM CLR 22/19 A2986 RMK AO2 SLP111 T02220194 53000,KLVJ,2023-06-09T02:53:00Z,29.52,-95.25,22.2,19.4,0,0,,10.0,29.861221,1011.1,,TRUE,TRUE,,,,,,,CLR,,,,,,,,VFR,0.0,,,,,,,,,,,METAR,11.0
KLUK 090253Z 00000KT 7SM CLR 13/08 A2986 RMK AO2 SLP111 T01330083 53015,KLUK,2023-06-09T02:53:00Z,39.1,-84.42,13.3,8.3,0,0,,7.0,29.861221,1011.1,,,TRUE,,,,,,,CLR,,,,,,,,VFR,1.5,,,,,,,,,,,METAR,144.0
KLSE 090253Z AUTO 10006KT 10SM CLR 19/06 A2992 RMK AO2 SLP126 T01890061 53011,KLSE,2023-06-09T02:53:00Z,43.88,-91.25,18.9,6.1,100,6,,10.0,29.920275,1012.6,,TRUE,TRUE,,,,,,,CLR,,,,,,,,VFR,1.1,,,,,,,,,,,METAR,198.0
KLPR 090253Z AUTO 00000KT 10SM BKN100 OVC120 16/07 A2986 RMK AO2 SLP107 T01560072 53009,KLPR,2023-06-09T02:53:00Z,41.35,-82.18,15.6,7.2,0,0,,10.0,29.861221,1010.7,,TRUE,TRUE,,,,,,,BKN,10000,OVC,12000,,,,,VFR,0.9,,,,,,,,,,,METAR,241.0
KLOZ 090253Z AUTO 00000KT 10SM CLR 14/10 A2988 RMK AO2 SLP111 T01440100 51012,KLOZ,2023-06-09T02:53:00Z,37.08,-84.07,14.4,10.0,0,0,,10.0,29.878937,1011.1,,TRUE,TRUE,,,,,,,CLR,,,,,,,,VFR,1.2,,,,,,,,,,,METAR,361.0
KLOU 090253Z AUTO 00000KT 10SM CLR 15/09 A2985 RMK AO2 SLP106 T01500094 53007,KLOU,2023-06-09T02:53:00Z,38.22,-85.67,15.0,9.4,0,0,,10.0,29.84941,1010.6,,TRUE,TRUE,,,,,,,CLR,,,,,,,,VFR,0.7,,,,,,,,,,,METAR,165.0
KLOL 090253Z AUTO 29013KT 10SM CLR 19/06 A3001 RMK AO2 SLP135 T01890061 51022,KLOL,2023-06-09T02:53:00Z,40.07,-118.57,18.9,6.1,290,13,,10.0,30.008858,1013.5,,TRUE,TRUE,,,,,,,CLR,,,,,,,,VFR,2.2,,,,,,,,,,,METAR,1191.0
KLNS 090253Z 34005KT 10SM CLR 18/07 A2978 RMK AO2 SLP082 T01780067 51014 $,KLNS,2023-06-09T02:53:00Z,40.12,-76.3,17.8,6.7,340,5,,10.0,29.778543,1008.2,,,TRUE,TRUE,,,,,,CLR,,,,,,,,VFR,1.4,,,,,,,,,,,METAR,122.0
KLMT 090253Z 34012KT 10SM SCT055 BKN080 OVC100 18/09 A3002 RMK AO2 RAB20E34 SLP135 LAST P0000 60000 T01780089 53010,KLMT,2023-06-09T02:53:00Z,42.15,-121.72,17.8,8.9,340,12,,10.0,30.02067,1013.5,,,TRUE,,,,,,,SCT,5500,BKN,8000,OVC,10000,,,VFR,1.0,,,,,0.005,0.005,,,,,METAR,1246.0
KLLQ 090253Z AUTO 24004KT 10SM FEW095 FEW120 25/19 A2984 RMK AO2 SLP099 T02500194 53022,KLLQ,2023-06-09T02:53:00Z,33.63,-91.75,25.0,19.4,240,4,,10.0,29.840551,1009.9,,TRUE,TRUE,,,,,,,FEW,9500,FEW,12000,,,,,VFR,2.2,,,,,,,,,,,METAR,86.0
KLKV 090253Z AUTO 17010KT 10SM OVC085 14/10 A3004 RMK AO2 RAB12E30 SLP157 P0000 60001 T01390100 50009,KLKV,2023-06-09T02:53:00Z,42.17,-120.4,13.9,10.0,170,10,,10.0,30.041338,1015.7,,TRUE,TRUE,,,,,,,OVC,8500,,,,,,,VFR,0.9,,,,,0.005,0.01,,,,,METAR,1440.0
KLIT 090253Z 00000KT 10SM BKN250 23/18 A2985 RMK AO2 SLP106 T02330178 53023,KLIT,2023-06-09T02:53:00Z,34.73,-92.23,23.3,17.8,0,0,,10.0,29.84941,1010.6,,,TRUE,,,,,,,BKN,25000,,,,,,,VFR,2.3,,,,,,,,,,,METAR,77.0
KLHX 090253Z AUTO 09009KT 10SM CLR 21/12 A2997 RMK AO2 SLP095 T02060122 53017,KLHX,2023-06-09T02:53:00Z,38.05,-103.52,20.6,12.2,90,9,,10.0,29.970472,1009.5,,TRUE,TRUE,,,,,,,CLR,,,,,,,,VFR,1.7,,,,,,,,,,,METAR,1289.0
KLHQ 090253Z AUTO 00000KT 9SM OVC100 15/09 A2986 RMK AO2 SLP107 T01500089 52014,KLHQ,2023-06-09T02:53:00Z,39.75,-82.67,15.0,8.9,0,0,,9.0,29.861221,1010.7,,TRUE,TRUE,,,,,,,OVC,10000,,,,,,,VFR,1.4,,,,,,,,,,,METAR,259.0
KLGB 090253Z 30010KT 10SM CLR 18/12 A3001 RMK AO2 SLP161 T01830117 53006,KLGB,2023-06-09T02:53:00Z,33.82,-118.15,18.3,11.7,300,10,,10.0,30.008858,1016.1,,,TRUE,,,,,,,CLR,,,,,,,,VFR,0.6,,,,,,,,,,,METAR,10.0
KLFT 090253Z 00000KT 10SM FEW070 BKN100 24/22 A2983 RMK AO2 RAB09E52 SLP101 P0001 60001 T02440222 51014,KLFT,2023-06-09T02:53:00Z,30.2,-91.97,24.4,22.2,0,0,,10.0,29.828741,1010.1,,,TRUE,,,,,,,FEW,7000,BKN,10000,,,,,VFR,1.4,,,,,0.01,0.01,,,,,METAR,9.0
KLFK 090253Z AUTO 00000KT 10SM CLR 23/21 A2984 RMK AO2 SLP100 T02330211 53013,KLFK,2023-06-09T02:53:00Z,31.23,-94.75,23.3,21.1,0,0,,10.0,29.840551,1010.0,,TRUE,TRUE,,,,,,,CLR,,,,,,,,VFR,1.3,,,,,,,,,,,METAR,87.0
KLEE 090253Z AUTO 26005KT 10SM CLR 25/21 A2983 RMK AO2 SLP098 T02500211 51019,KLEE,2023-06-09T02:53:00Z,28.82,-81.82,25.0,21.1,260,5,,10.0,29.828741,1009.8,,TRUE,TRUE,,,,,,,CLR,,,,,,,,VFR,1.9,,,,,,,,,,,METAR,21.0
KLCH 090253Z 03004KT 10SM FEW100 24/21 A2983 RMK AO2 LTG DSNT SE AND S SLP109 T02440206 51023 $,KLCH,2023-06-09T02:53:00Z,30.13,-93.22,24.4,20.6,30,4,,10.0,29.828741,1010.9,,,TRUE,TRUE,,,,,,FEW,10000,,,,,,,VFR,2.3,,,,,,,,,,,METAR,2.0
KLBF 090253Z AUTO 10004KT 10SM CLR 21/17 A2989 RMK AO2 SLP096 T02060167 53012,KLBF,2023-06-09T02:53:00Z,41.12,-100.67,20.6,16.7,100,4,,10.0,29.890747,1009.6,,TRUE,TRUE,,,,,,,CLR,,,,,,,,VFR,1.2,,,,,,,,,,,METAR,843.0
KLBB 090253Z 17008KT 10SM FEW250 26/15 A2993 RMK AO2 SLP087 T02560150 53008,KLBB,2023-06-09T02:53:00Z,33.67,-101.82,25.6,15.0,170,8,,10.0,29.929134,1008.7,,,TRUE,,,,,,,FEW,25000,,,,,,,VFR,0.8,,,,,,,,,,,METAR,996.0
KLAX 090253Z 27016KT 10SM FEW015 FEW250 17/13 A3001 RMK AO2 SLP162 T01670128 53002,KLAX,2023-06-09T02:53:00Z,33.93,-118.38,16.7,12.8,270,16,,10.0,30.008858,1016.2,,,TRUE,,,,,,,FEW,1500,FEW,25000,,,,,VFR,0.2,,,,,,,,,,,METAR,30.0
KLAW 090253Z AUTO 10004KT 10SM BKN070 OVC095 27/18 A2982 RMK AO2 SLP084 T02670183 53010,KLAW,2023-06-09T02:53:00Z,34.55,-98.42,26.7,18.3,100,4,,10.0,29.819881,1008.4,,TRUE,TRUE,,,,,,,BKN,7000,OVC,9500,,,,,VFR,1.0,,,,,,,,,,,METAR,328.0
KLAR 090253Z AUTO 00000KT 10SM CLR 13/09 A3014 RMK AO2 SLP122 T01280089 53001,KLAR,2023-06-09T02:53:00Z,41.32,-105.67,12.8,8.9,0,0,,10.0,30.138779,1012.2,,TRUE,TRUE,,,,,,,CLR,,,,,,,,VFR,0.1,,,,,,,,,,,METAR,2217.0
KLAN 090253Z 05006KT 10SM OVC110 17/06 A2989 RMK AO2 SLP120 T01670056 51021,KLAN,2023-06-09T02:53:00Z,42.78,-84.58,16.7,5.6,50,6,,10.0,29.890747,1012.0,,,TRUE,,,,,,,OVC,11000,,,,,,,VFR,2.1,,,,,,,,,,,METAR,261.0
KLAA 090253Z AUTO 15010KT 10SM CLR 21/12 A2993 RMK AO2 SLP091 T02110122 53013,KLAA,2023-06-09T02:53:00Z,38.07,-102.68,21.1,12.2,150,10,,10.0,29.929134,1009.1,,TRUE,TRUE,,,,,,,CLR,,,,,,,,VFR,1.3,,,,,,,,,,,METAR,1129.0
KJLN 090253Z AUTO 07004KT 10SM OVC100 24/20 A2983 RMK AO2 SLP091 60000 T02440200 53013,KJLN,2023-06-09T02:53:00Z,37.15,-94.5,24.4,20.0,70,4,,10.0,29.828741,1009.1,,TRUE,TRUE,,,,,,,OVC,10000,,,,,,,VFR,1.3,,,,,,0.005,,,,,METAR,297.0
KJKL 090253Z AUTO 00000KT 10SM CLR 17/04 A2989 RMK AO2 SLP110 T01670044 53012,KJKL,2023-06-09T02:53:00Z,37.6,-83.32,16.7,4.4,0,0,,10.0,29.890747,1011.0,,TRUE,TRUE,,,,,,,CLR,,,,,,,,VFR,1.2,,,,,,,,,,,METAR,414.0
KJER 090253Z AUTO 03004KT 10SM CLR 16/11 A3002 RMK AO2 SLP141 T01560111 51014,KJER,2023-06-09T02:53:00Z,42.72,-114.45,15.6,11.1,30,4,,10.0,30.02067,1014.1,,TRUE,TRUE,,,,,,,CLR,,,,,,,,VFR,1.4,,,,,,,,,,,METAR,1226.0
KJEF 090253Z AUTO 00000KT 10SM BKN110 20/11 A2988 RMK AO2 SLP105 T02000111 53010 $,KJEF,2023-06-09T02:53:00Z,38.6,-92.15,20.0,11.1,0,0,,10.0,29.878937,1010.5,,TRUE,TRUE,TRUE,,,,,,BKN,11000,,,,,,,VFR,1.0,,,,,,,,,,,METAR,167.0
KJBR 090253Z AUTO 00000KT 9SM FEW110 23/18 A2982 RMK AO2 SLP095 6//// T02330183 53007 PNO $,KJBR,2023-06-09T02:53:00Z,35.83,-90.65,23.3,18.3,0,0,,9.0,29.819881,1009.5,,TRUE,TRUE,TRUE,,,,,,FEW,11000,,,,,,,VFR,0.7,,,,,,,,,,,METAR,79.0
KIXD 090253Z 08007KT 10SM CLR 21/16 A2987 RMK AO2 SLP103 T02110161 53010,KIXD,2023-06-09T02:53:00Z,38.82,-94.88,21.1,16.1,80,7,,10.0,29.870079,1010.3,,,TRUE,,,,,,,CLR,,,,,,,,VFR,1.0,,,,,,,,,,,METAR,322.0
KITR 090253Z AUTO 12004KT 10SM CLR 21/12 A2998 RMK AO2 SLP100 T02060117 53008,KITR,2023-06-09T02:53:00Z,39.23,-102.28,20.6,11.7,120,4,,10.0,29.97933,1010.0,,TRUE,TRUE,,,,,,,CLR,,,,,,,,VFR,0.8,,,,,,,,,,,METAR,1285.0
KIPL 090253Z AUTO 14009KT 10SM CLR 31/09 A2980 RMK AO2 SLP092 T03110094 53003,KIPL,2023-06-09T02:53:00Z,32.83,-115.58,31.1,9.4,140,9,,10.0,29.799213,1009.2,,TRUE,TRUE,,,,,,,CLR,,,,,,,,VFR,0.3,,,,,,,,,,,METAR,-16.0
KINK 090253Z AUTO 11005KT 10SM CLR 29/06 A2987 RMK AO2 SLP067 T02940056 53008,KINK,2023-06-09T02:53:00Z,31.78,-103.2,29.4,5.6,110,5,,10.0,29.870079,1006.7,,TRUE,TRUE,,,,,,,CLR,,,,,,,,VFR,0.8,,,,,,,,,,,METAR,857.0
KIML 090253Z AUTO 28004KT 9SM CLR 22/13 A2992 RMK AO2 SLP100 T02220133 51012,KIML,2023-06-09T02:53:00Z,40.52,-101.62,22.2,13.3,280,4,,9.0,29.920275,1010.0,,TRUE,TRUE,,,,,,,CLR,,,,,,,,VFR,1.2,,,,,,,,,,,METAR,997.0
KILM 090253Z AUTO 00000KT 9SM CLR 17/16 A2979 RMK AO2 SLP088 LAST T01720156 51022,KILM,2023-06-09T02:53:00Z,34.27,-77.9,17.2,15.6,0,0,,9.0,29.790354,1008.8,,TRUE,TRUE,,,,,,,CLR,,,,,,,,VFR,2.2,,,,,,,,,,,METAR,9.0
KIDA 090253Z 18007KT 10SM BKN110 16/10 A3010 RMK AO2 SLP164 T01560100 51035,KIDA,2023-06-09T02:53:00Z,43.52,-112.07,15.6,10.0,180,7,,10.0,30.100393,1016.4,,,TRUE,,,,,,,BKN,11000,,,,,,,VFR,3.5,,,,,,,,,,,METAR,1444.0
KICT 090253Z 21004KT 10SM FEW110 FEW250 24/17 A2981 RMK AO2 SLP080 T02390172 51011,KICT,2023-06-09T02:53:00Z,37.65,-97.43,23.9,17.2,210,4,,10.0,29.811024,1008.0,,,TRUE,,,,,,,FEW,11000,FEW,25000,,,,,VFR,1.1,,,,,,,,,,,METAR,428.0
KICR 090253Z AUTO 17004KT 10SM CLR 26/17 A2983 RMK AO2 SLP081 T02610172 53010,KICR,2023-06-09T02:53:00Z,43.38,-99.85,26.1,17.2,170,4,,10.0,29.828741,1008.1,,TRUE,TRUE,,,,,,,CLR,,,,,,,,VFR,1.0,,,,,,,,,,,METAR,618.0
KIAH 090253Z 21004KT 10SM BKN130 BKN250 22/19 A2985 RMK AO2 SLP106 60004 T02170194 53015,KIAH,2023-06-09T02:53:00Z,30.0,-95.37,21.7,19.4,210,4,,10.0,29.84941,1010.6,,,TRUE,,,,,,,BKN,13000,BKN,25000,,,,,VFR,1.5,,,,,,0.04,,,,,METAR,27.0
KIAG 090253Z 30005KT 9SM FEW050 OVC095 13/09 A2981 RMK AO2 SLP097 T01280094 53004 $,KIAG,2023-06-09T02:53:00Z,43.12,-78.93,12.8,9.4,300,5,,9.0,29.811024,1009.7,,,TRUE,TRUE,,,,,,FEW,5000,OVC,9500,,,,,VFR,0.4,,,,,,,,,,,METAR,179.0
KHZY 090253Z AUTO 00000KT 10SM OVC110 13/09 A2984 RMK AO2 SLP102 T01330089 51007,KHZY,2023-06-09T02:53:00Z,41.78,-80.7,13.3,8.9,0,0,,10.0,29.840551,1010.2,,TRUE,TRUE,,,,,,,OVC,11000,,,,,,,VFR,0.7,,,,,,,,,,,METAR,279.0
KHYR 090253Z AUTO 00000KT 10SM CLR 12/07 A2996 RMK AO2 SLP146 T01220067 53008,KHYR,2023-06-09T02:53:00Z,46.02,-91.45,12.2,6.7,0,0,,10.0,29.958662,1014.6,,TRUE,TRUE,,,,,,,CLR,,,,,,,,VFR,0.8,,,,,,,,,,,METAR,369.0
KHWO 090253Z 16003KT CLR 26/23 A2987 RMK AO2 SLP113 T02610233 53007 $,KHWO,2023-06-09T02:53:00Z,26.0,-80.23,26.1,23.3,160,3,,,29.870079,1011.3,,,TRUE,TRUE,,,,,,CLR,,,,,,,,,0.7,,,,,,,,,,,METAR,2.0
KHVR 090253Z AUTO 04005KT 10SM OVC100 22/17 A2995 RMK AO2 SLP128 T02220172 53004,KHVR,2023-06-09T02:53:00Z,48.55,-109.77,22.2,17.2,40,5,,10.0,29.949802,1012.8,,TRUE,TRUE,,,,,,,OVC,10000,,,,,,,VFR,0.4,,,,,,,,,,,METAR,789.0
KHVN 090253Z AUTO 00000KT 4SM HZ BKN095 13/11 A2973 RMK AO2 SLP067 T01330106 50008,KHVN,2023-06-09T02:53:00Z,41.27,-72.88,13.3,10.6,0,0,,4.0,29.731298,1006.7,,TRUE,TRUE,,,,,,HZ,BKN,9500,,,,,,,MVFR,0.8,,,,,,,,,,,METAR,4.0
KHUF 090253Z 00000KT 10SM CLR 15/08 A2987 RMK AO2 SLP111 T01500083 52010,KHUF,2023-06-09T02:53:00Z,39.45,-87.32,15.0,8.3,0,0,,10.0,29.870079,1011.1,,,TRUE,,,,,,,CLR,,,,,,,,VFR,1.0,,,,,,,,,,,METAR,174.0
KHSV 090253Z 02006KT 10SM SCT250 22/12 A2982 RMK AO2 SLP089 T02220122 53008,KHSV,2023-06-09T02:53:00Z,34.65,-86.78,22.2,12.2,20,6,,10.0,29.819881,1008.9,,,TRUE,,,,,,,SCT,25000,,,,,,,VFR,0.8,,,,,,,,,,,METAR,190.0
KHSI 090253Z AUTO 00000KT 10SM CLR 23/17 A2987 RMK AO2 SLP097 60000 T02280167 53007,KHSI,2023-06-09T02:53:00Z,40.6,-98.43,22.8,16.7,0,0,,10.0,29.870079,1009.7,,TRUE,TRUE,,,,,,,CLR,,,,,,,,VFR,0.7,,,,,,0.005,,,,,METAR,592.0
KHRO 090253Z AUTO 15003KT 10SM CLR 19/19 A2987 RMK AO2 SLP101 T01940189 53014,KHRO,2023-06-09T02:53:00Z,36.27,-93.15,19.4,18.9,150,3,,10.0,29.870079,1010.1,,TRUE,TRUE,,,,,,,CLR,,,,,,,,VFR,1.4,,,,,,,,,,,METAR,417.0
KHRI 090253Z AUTO 10005KT 10SM OVC100 24/16 A2982 RMK AO2 SLP091 T02390156 53003,KHRI,2023-06-09T02:53:00Z,45.83,-119.27,23.9,15.6,100,5,,10.0,29.819881,1009.1,,TRUE,TRUE,,,,,,,OVC,10000,,,,,,,VFR,0.3,,,,,,,,,,,METAR,194.0
KHQM 090253Z AUTO 24009KT 10SM BKN018 14/09 A3001 RMK AO2 SLP166 T01390094 53000,KHQM,2023-06-09T02:53:00Z,46.97,-123.93,13.9,9.4,240,9,,10.0,30.008858,1016.6,,TRUE,TRUE,,,,,,,BKN,1800,,,,,,,MVFR,0.0,,,,,,,,,,,METAR,4.0
KHOU 090253Z 16003KT 10SM FEW060 BKN160 BKN250 22/19 A2984 RMK AO2 SLP111 60000 T02220194 53008 $,KHOU,2023-06-09T02:53:00Z,29.63,-95.28,22.2,19.4,160,3,,10.0,29.840551,1011.1,,,TRUE,TRUE,,,,,,FEW,6000,BKN,16000,BKN,25000,,,VFR,0.8,,,,,,0.005,,,,,METAR,13.0
KHOT 090253Z AUTO 00000KT 9SM FEW027 24/19 A2986 RMK AO2 SLP103 T02440194 53023,KHOT,2023-06-09T02:53:00Z,34.48,-93.1,24.4,19.4,0,0,,9.0,29.861221,1010.3,,TRUE,TRUE,,,,,,,FEW,2700,,,,,,,VFR,2.3,,,,,,,,,,,METAR,153.0
KHLG 090253Z AUTO 31003KT 10SM BKN085 BKN110 17/04 A2984 RMK AO2 SLP104 T01670044 51009,KHLG,2023-06-09T02:53:00Z,40.17,-80.65,16.7,4.4,310,3,,10.0,29.840551,1010.4,,TRUE,TRUE,,,,,,,BKN,8500,BKN,11000,,,,,VFR,0.9,,,,,,,,,,,METAR,365.0
KHLC 090253Z AUTO 08005KT 10SM CLR 23/14 A2988 RMK AO2 SLP094 T02330144 53017,KHLC,2023-06-09T02:53:00Z,39.37,-99.83,23.3,14.4,80,5,,10.0,29.878937,1009.4,,TRUE,TRUE,,,,,,,CLR,,,,,,,,VFR,1.7,,,,,,,,,,,METAR,667.0
KHKY 090253Z AUTO 00000KT 10SM CLR 16/07 A2986 RMK AO2 SLP092 T01560067 51019,KHKY,2023-06-09T02:53:00Z,35.75,-81.38,15.6,6.7,0,0,,10.0,29.861221,1009.2,,TRUE,TRUE,,,,,,,CLR,,,,,,,,VFR,1.9,,,,,,,,,,,METAR,357.0
KHKS 090253Z AUTO 15003KT 10SM FEW070 25/19 A2982 RMK AO2 RAE0154 SLP088 P0000 60000 T02500189 51022,KHKS,2023-06-09T02:53:00Z,32.33,-90.22,25.0,18.9,150,3,,10.0,29.819881,1008.8,,TRUE,TRUE,,,,,,,FEW,7000,,,,,,,VFR,2.2,,,,,0.005,0.005,,,,,METAR,103.0
KHKA 090253Z AUTO 07004KT CLR 24/10 A2981 RMK AO2 SLP093 T02440100 53010 $,KHKA,2023-06-09T02:53:00Z,35.93,-89.83,24.4,10.0,70,4,,,29.811024,1009.3,,TRUE,TRUE,TRUE,,,,,,CLR,,,,,,,,,1.0,,,,,,,,,,,METAR,78.0
KHJO 090253Z AUTO 4SM HZ CLR 27/13 A2993 RMK AO2 SLPNO T02670128 55002,KHJO,2023-06-09T02:53:00Z,36.32,-119.62,26.7,12.8,,,,4.0,29.929134,,,TRUE,TRUE,,,,,,HZ,CLR,,,,,,,,MVFR,-0.2,,,,,,,,,,,METAR,73.0
KHIO 090253Z 36003KT 10SM CLR 20/13 A2995 RMK AO2 SLP140 T02000128 55001,KHIO,2023-06-09T02:53:00Z,45.55,-122.95,20.0,12.8,360,3,,10.0,29.949802,1014.0,,,TRUE,,,,,,,CLR,,,,,,,,VFR,-0.1,,,,,,,,,,,METAR,62.0
KHIB 090253Z AUTO 15003KT 10SM CLR 11/03 A2995 RMK AO2 SLP147 T01110033 53008,KHIB,2023-06-09T02:53:00Z,47.38,-92.83,11.1,3.3,150,3,,10.0,29.949802,1014.7,,TRUE,TRUE,,,,,,,CLR,,,,,,,,VFR,0.8,,,,,,,,,,,METAR,409.0
KHHR 090253Z 28007G16KT 10SM CLR 19/12 A3001 RMK AO2 SLP162 T01890122 53002,KHHR,2023-06-09T02:53:00Z,33.92,-118.33,18.9,12.2,280,7,16,10.0,30.008858,1016.2,,,TRUE,,,,,,,CLR,,,,,,,,VFR,0.2,,,,,,,,,,,METAR,21.0
KHGR 090253Z AUTO 31003KT 10SM CLR 16/07 A2980 RMK AO2 SLP099 T01610072 51013,KHGR,2023-06-09T02:53:00Z,39.7,-77.73,16.1,7.2,310,3,,10.0,29.799213,1009.9,,TRUE,TRUE,,,,,,,CLR,,,,,,,,VFR,1.3,,,,,,,,,,,METAR,206.0
KHFD 090253Z 00000KT 8SM FU CLR 13/11 A2973 RMK AO2 SLP068 T01330106 51012,KHFD,2023-06-09T02:53:00Z,41.73,-72.65,13.3,10.6,0,0,,8.0,29.731298,1006.8,,,TRUE,,,,,,FU,CLR,,,,,,,,VFR,1.2,,,,,,,,,,,METAR,3.0
KHEI 090253Z AUTO 08011KT 10SM FEW120 22/16 A2987 RMK AO2 SLP092 T02220161 50010,KHEI,2023-06-09T02:53:00Z,46.02,-102.65,22.2,16.1,80,11,,10.0,29.870079,1009.2,,TRUE,TRUE,,,,,,,FEW,12000,,,,,,,VFR,1.0,,,,,,,,,,,METAR,824.0
KHBR 090253Z AUTO VRB06KT 10SM CLR 23/18 A2985 RMK AO2 SLP089 T02330178 53012,KHBR,2023-06-09T02:53:00Z,34.98,-99.05,23.3,17.8,0,6,,10.0,29.84941,1008.9,,TRUE,TRUE,,,,,,,CLR,,,,,,,,VFR,1.2,,,,,,,,,,,METAR,475.0
KHBG 090253Z AUTO 21006KT 10SM BKN070 BKN080 26/20 A2982 RMK AO2 SLP095 T02560200 51026 PWINO $,KHBG,2023-06-09T02:53:00Z,31.27,-89.25,25.6,20.0,210,6,,10.0,29.819881,1009.5,,TRUE,TRUE,TRUE,,,,TRUE,,BKN,7000,BKN,8000,,,,,VFR,2.6,,,,,,,,,,,METAR,45.0
KHAO 090253Z AUTO 00000KT 10SM OVC095 15/09 A2987 RMK AO2 SLP111 T01500094 53013,KHAO,2023-06-09T02:53:00Z,39.37,-84.52,15.0,9.4,0,0,,10.0,29.870079,1011.1,,TRUE,TRUE,,,,,,,OVC,9500,,,,,,,VFR,1.3,,,,,,,,,,,METAR,185.0
KGZH 090253Z AUTO 00000KT 8SM BKN085 23/21 A2979 RMK AO2 SLP085 T02330211 53018,KGZH,2023-06-09T02:53:00Z,31.42,-87.05,23.3,21.1,0,0,,8.0,29.790354,1008.5,,TRUE,TRUE,,,,,,,BKN,8500,,,,,,,VFR,1.8,,,,,,,,,,,METAR,77.0
KGWO 090253Z AUTO 00000KT 10SM CLR 23/20 A2982 RMK AO2 SLP095 T02280200 52017,KGWO,2023-06-09T02:53:00Z,33.5,-90.08,22.8,20.0,0,0,,10.0,29.819881,1009.5,,TRUE,TRUE,,,,,,,CLR,,,,,,,,VFR,1.7,,,,,,,,,,,METAR,42.0
KGVL 090253Z AUTO 36005KT 10SM CLR 20/08 A2986 RMK AO2 SLP099 T02000083 52019,KGVL,2023-06-09T02:53:00Z,34.27,-83.83,20.0,8.3,360,5,,10.0,29.861221,1009.9,,TRUE,TRUE,,,,,,,CLR,,,,,,,,VFR,1.9,,,,,,,,,,,METAR,387.0
KGUY 090253Z AUTO 12004KT 10SM CLR 23/14 A2992 RMK AO2 SLP088 T02330144 53013,KGUY,2023-06-09T02:53:00Z,36.68,-101.5,23.3,14.4,120,4,,10.0,29.920275,1008.8,,TRUE,TRUE,,,,,,,CLR,,,,,,,,VFR,1.3,,,,,,,,,,,METAR,950.0
KGUP 090253Z AUTO 24008KT 10SM CLR 18/M06 A3012 RMK AO2 SLP067 T01831056 53006,KGUP,2023-06-09T02:53:00Z,35.52,-108.8,18.3,-5.6,240,8,,10.0,30.121063,1006.7,,TRUE,TRUE,,,,,,,CLR,,,,,,,,VFR,0.6,,,,,,,,,,,METAR,1972.0
KGSP 090253Z 02004KT 10SM SCT080 BKN095 18/07 A2985 RMK AO2 SLP100 T01780072 53022,KGSP,2023-06-09T02:53:00Z,34.9,-82.22,17.8,7.2,20,4,,10.0,29.84941,1010.0,,,TRUE,,,,,,,SCT,8000,BKN,9500,,,,,VFR,2.2,,,,,,,,,,,METAR,285.0
KGSH 090253Z AUTO 32004KT 10SM CLR 14/03 A2989 RMK AO2 SLP120 T01390033 51008,KGSH,2023-06-09T02:53:00Z,41.53,-85.78,13.9,3.3,320,4,,10.0,29.890747,1012.0,,TRUE,TRUE,,,,,,,CLR,,,,,,,,VFR,0.8,,,,,,,,,,,METAR,252.0
KGRR 090253Z 05006KT 10SM FEW110 FEW250 17/05 A2989 RMK AO2 SLP118 T01720050 53016,KGRR,2023-06-09T02:53:00Z,42.88,-85.52,17.2,5.0,50,6,,10.0,29.890747,1011.8,,,TRUE,,,,,,,FEW,11000,FEW,25000,,,,,VFR,1.6,,,,,,,,,,,METAR,239.0
KGRI 090253Z AUTO 15004KT 10SM CLR 23/17 A2987 RMK AO2 SLP100 T02330167 53010,KGRI,2023-06-09T02:53:00Z,40.97,-98.32,23.3,16.7,150,4,,10.0,29.870079,1010.0,,TRUE,TRUE,,,,,,,CLR,,,,,,,,VFR,1.0,,,,,,,,,,,METAR,562.0
KGRB 090253Z 00000KT 10SM CLR 15/02 A2993 RMK AO2 SLP136 T01500022 53012,KGRB,2023-06-09T02:53:00Z,44.48,-88.13,15.0,2.2,0,0,,10.0,29.929134,1013.6,,,TRUE,,,,,,,CLR,,,,,,,,VFR,1.2,,,,,,,,,,,METAR,209.0
KGPT 090253Z 32003KT 10SM CLR 24/22 A2980 RMK AO2 SLP089 T02390217 51017,KGPT,2023-06-09T02:53:00Z,30.42,-89.08,23.9,21.7,320,3,,10.0,29.799213,1008.9,,,TRUE,,,,,,,CLR,,,,,,,,VFR,1.7,,,,,,,,,,,METAR,5.0
KGOK 090253Z AUTO 16005KT 10SM CLR 23/18 A2981 RMK AO2 SLP084 T02330178 53014 $,KGOK,2023-06-09T02:53:00Z,35.85,-97.4,23.3,17.8,160,5,,10.0,29.811024,1008.4,,TRUE,TRUE,TRUE,,,,,,CLR,,,,,,,,VFR,1.4,,,,,,,,,,,METAR,326.0
KGNV 090253Z 24006KT 10SM CLR 25/20 A2983 RMK AO2 SLP097 T02500200 51021,KGNV,2023-06-09T02:53:00Z,29.7,-82.28,25.0,20.0,240,6,,10.0,29.828741,1009.7,,,TRUE,,,,,,,CLR,,,,,,,,VFR,2.1,,,,,,,,,,,METAR,41.0
KGMU 090253Z AUTO 03006KT 10SM BKN075 OVC095 21/08 A2985 RMK AO2 SLP101 T02060078 53023,KGMU,2023-06-09T02:53:00Z,34.85,-82.35,20.6,7.8,30,6,,10.0,29.84941,1010.1,,TRUE,TRUE,,,,,,,BKN,7500,OVC,9500,,,,,VFR,2.3,,,,,,,,,,,METAR,309.0
KGLR 090253Z AUTO 01003KT 10SM OVC075 16/07 A2993 RMK AO2 SLP132 T01610067 53006,KGLR,2023-06-09T02:53:00Z,45.02,-84.68,16.1,6.7,10,3,,10.0,29.929134,1013.2,,TRUE,TRUE,,,,,,,OVC,7500,,,,,,,VFR,0.6,,,,,,,,,,,METAR,403.0
KGLH 090253Z 06005KT 10SM CLR 25/21 A2981 RMK AO2 SLP098 T02500211 51017,KGLH,2023-06-09T02:53:00Z,33.47,-90.98,25.0,21.1,60,5,,10.0,29.811024,1009.8,,,TRUE,,,,,,,CLR,,,,,,,,VFR,1.7,,,,,,,,,,,METAR,40.0
KGLD 090253Z AUTO 29004KT 10SM CLR 19/14 A2994 RMK AO2 SLP099 T01890144 53011,KGLD,2023-06-09T02:53:00Z,39.37,-101.7,18.9,14.4,290,4,,10.0,29.940945,1009.9,,TRUE,TRUE,,,,,,,CLR,,,,,,,,VFR,1.1,,,,,,,,,,,METAR,1111.0
KGKY 090253Z 16004KT 10SM CLR 23/18 A2982 RMK AO2 SLP087 60002 T02330183 50006,KGKY,2023-06-09T02:53:00Z,32.67,-97.1,23.3,18.3,160,4,,10.0,29.819881,1008.7,,,TRUE,,,,,,,CLR,,,,,,,,VFR,0.6,,,,,,0.02,,,,,METAR,189.0
KGKJ 090253Z AUTO 00000KT 10SM OVC120 13/08 A2983 RMK AO2 SLP098 60000 T01330078 51005,KGKJ,2023-06-09T02:53:00Z,41.63,-80.22,13.3,7.8,0,0,,10.0,29.828741,1009.8,,TRUE,TRUE,,,,,,,OVC,12000,,,,,,,VFR,0.5,,,,,,0.005,,,,,METAR,428.0
KGJT 090253Z 18007KT 10SM CLR 24/M10 A2996 RMK AO2 SLP080 T02391100 53008,KGJT,2023-06-09T02:53:00Z,39.13,-108.53,23.9,-10.0,180,7,,10.0,29.958662,1008.0,,,TRUE,,,,,,,CLR,,,,,,,,VFR,0.8,,,,,,,,,,,METAR,1475.0
KGIF 090253Z AUTO 24005KT 10SM CLR 26/21 A2984 RMK AO2 SLP101 T02560211 53019,KGIF,2023-06-09T02:53:00Z,28.07,-81.75,25.6,21.1,240,5,,10.0,29.840551,1010.1,,TRUE,TRUE,,,,,,,CLR,,,,,,,,VFR,1.9,,,,,,,,,,,METAR,44.0
KGGW 090253Z AUTO 06010KT 10SM CLR 24/18 A2989 RMK AO2 SLP112 T02440178 53003,KGGW,2023-06-09T02:53:00Z,48.22,-106.62,24.4,17.8,60,10,,10.0,29.890747,1011.2,,TRUE,TRUE,,,,,,,CLR,,,,,,,,VFR,0.3,,,,,,,,,,,METAR,698.0
KGGG 090253Z AUTO 00000KT 10SM CLR 23/19 A2983 RMK AO2 SLP093 T02330189 53013,KGGG,2023-06-09T02:53:00Z,32.38,-94.72,23.3,18.9,0,0,,10.0,29.828741,1009.3,,TRUE,TRUE,,,,,,,CLR,,,,,,,,VFR,1.3,,,,,,,,,,,METAR,107.0
KGFL 090253Z AUTO 34003KT 10SM FEW065 OVC090 12/11 A2974 RMK AO2 RAB0159E14 SLP073 P0000 60000 T01220106 50005,KGFL,2023-06-09T02:53:00Z,43.33,-73.62,12.2,10.6,340,3,,10.0,29.740158,1007.3,,TRUE,TRUE,,,,,,,FEW,6500,OVC,9000,,,,,VFR,0.5,,,,,0.005,0.005,,,,,METAR,99.0
KGFK 090253Z 11007KT 10SM FEW160 24/16 A2986 RMK AO2 SLP107 T02440161 53009,KGFK,2023-06-09T02:53:00Z,47.95,-97.18,24.4,16.1,110,7,,10.0,29.861221,1010.7,,,TRUE,,,,,,,FEW,16000,,,,,,,VFR,0.9,,,,,,,,,,,METAR,256.0
KGEZ 090253Z AUTO 02003KT 10SM CLR 17/03 A2986 RMK AO2 SLP107 T01720028 53012,KGEZ,2023-06-09T02:53:00Z,39.58,-85.8,17.2,2.8,20,3,,10.0,29.861221,1010.7,,TRUE,TRUE,,,,,,,CLR,,,,,,,,VFR,1.2,,,,,,,,,,,METAR,245.0
KGEY 090253Z AUTO 05013KT 9SM -RA BKN075 OVC090 16/13 A2994 RMK AO2 PK WND 11030/0218 LTG DSNT N AND NE TSB0154E0156B05E07B18E19B24E25B30E32 SLP115 P0003 60003 T01610128 53015,KGEY,2023-06-09T02:53:00Z,44.52,-108.08,16.1,12.8,50,13,,9.0,29.940945,1011.5,,TRUE,TRUE,,,,,,-RA,BKN,7500,OVC,9000,,,,,VFR,1.5,,,,,0.03,0.03,,,,,METAR,1191.0
KGEG 090253Z 36004KT 10SM FEW004 SCT050 OVC100 17/16 A2992 RMK AO2 RAE49 SLP120 P0004 60038 T01720156 50006 $,KGEG,2023-06-09T02:53:00Z,47.62,-117.53,17.2,15.6,360,4,,10.0,29.920275,1012.0,,,TRUE,TRUE,,,,,,FEW,400,SCT,5000,OVC,10000,,,VFR,0.6,,,,,0.04,0.38,,,,,METAR,718.0
KGCC 090253Z AUTO 27003KT 10SM CLR 16/13 A2994 RMK AO2 RAE11 SLP101 P0001 60008 T01560133 50003,KGCC,2023-06-09T02:53:00Z,44.33,-105.55,15.6,13.3,270,3,,10.0,29.940945,1010.1,,TRUE,TRUE,,,,,,,CLR,,,,,,,,VFR,0.3,,,,,0.01,0.08,,,,,METAR,1328.0
KGAG 090253Z AUTO 06003KT 10SM CLR 24/17 A2988 RMK AO2 SLP091 T02440167 53015,KGAG,2023-06-09T02:53:00Z,36.3,-99.77,24.4,16.7,60,3,,10.0,29.878937,1009.1,,TRUE,TRUE,,,,,,,CLR,,,,,,,,VFR,1.5,,,,,,,,,,,METAR,670.0
KFYV 090253Z AUTO 00000KT 10SM CLR 22/19 A2985 RMK AO2 SLP091 T02220194 53014,KFYV,2023-06-09T02:53:00Z,36.02,-94.17,22.2,19.4,0,0,,10.0,29.84941,1009.1,,TRUE,TRUE,,,,,,,CLR,,,,,,,,VFR,1.4,,,,,,,,,,,METAR,377.0
KFXE 090253Z 19004KT 10SM CLR 26/23 A2984 RMK AO2 SLP108 T02610233 53007,KFXE,2023-06-09T02:53:00Z,26.2,-80.18,26.1,23.3,190,4,,10.0,29.840551,1010.8,,,TRUE,,,,,,,CLR,,,,,,,,VFR,0.7,,,,,,,,,,,METAR,3.0
KFWN 090253Z AUTO 00000KT 10SM CLR 13/09 A2977 RMK AO2 SLP078 T01330089 51008,KFWN,2023-06-09T02:53:00Z,41.2,-74.63,13.3,8.9,0,0,,10.0,29.769686,1007.8,,TRUE,TRUE,,,,,,,CLR,,,,,,,,VFR,0.8,,,,,,,,,,,METAR,129.0
KFVE 090253Z AUTO 05008KT 10SM OVC019 09/08 A2982 RMK AO2 RAE0157B13E32 SLP100 P0000 60001 T00940078 53004,KFVE,2023-06-09T02:53:00Z,47.28,-68.3,9.4,7.8,50,8,,10.0,29.819881,1010.0,,TRUE,TRUE,,,,,,,OVC,1900,,,,,,,MVFR,0.4,,,,,0.005,0.01,,,,,METAR,299.0
KFUL 090253Z 26007KT 230V290 10SM CLR 18/12 A3000 RMK AO2 SLP157 T01830122 53008,KFUL,2023-06-09T02:53:00Z,33.87,-117.98,18.3,12.2,260,7,,10.0,30.0,1015.7,,,TRUE,,,,,,,CLR,,,,,,,,VFR,0.8,,,,,,,,,,,METAR,23.0
KFTY 090253Z 00000KT 10SM CLR 20/11 A2982 RMK AO2 SLP091 T02000111 53017,KFTY,2023-06-09T02:53:00Z,33.78,-84.52,20.0,11.1,0,0,,10.0,29.819881,1009.1,,,TRUE,,,,,,,CLR,,,,,,,,VFR,1.7,,,,,,,,,,,METAR,245.0
KFTW 090253Z 19004KT 10SM CLR 23/19 A2982 RMK AO2 SLP088 T02330194 50010,KFTW,2023-06-09T02:53:00Z,32.83,-97.37,23.3,19.4,190,4,,10.0,29.819881,1008.8,,,TRUE,,,,,,,CLR,,,,,,,,VFR,1.0,,,,,,,,,,,METAR,213.0
KFST 090253Z AUTO 13006KT 10SM CLR 30/08 A2991 RMK AO2 SLP076 T03000078 53011,KFST,2023-06-09T02:53:00Z,30.92,-102.92,30.0,7.8,130,6,,10.0,29.911417,1007.6,,TRUE,TRUE,,,,,,,CLR,,,,,,,,VFR,1.1,,,,,,,,,,,METAR,917.0
KFSM 090253Z 07007KT 10SM CLR 25/20 A2981 RMK AO2 SLP088 T02500200 51022,KFSM,2023-06-09T02:53:00Z,35.33,-94.37,25.0,20.0,70,7,,10.0,29.811024,1008.8,,,TRUE,,,,,,,CLR,,,,,,,,VFR,2.2,,,,,,,,,,,METAR,136.0
KFRG 090253Z 33003KT 7SM FU OVC060 16/09 A2974 RMK AO2 SLP070 T01610089 50008,KFRG,2023-06-09T02:53:00Z,40.73,-73.42,16.1,8.9,330,3,,7.0,29.740158,1007.0,,,TRUE,,,,,,FU,OVC,6000,,,,,,,VFR,0.8,,,,,,,,,,,METAR,23.0
KFPR 090253Z AUTO 00000KT 10SM CLR 23/22 A2983 RMK AO2 SLP101 60000 T02330222 53009,KFPR,2023-06-09T02:53:00Z,27.5,-80.38,23.3,22.2,0,0,,10.0,29.828741,1010.1,,TRUE,TRUE,,,,,,,CLR,,,,,,,,VFR,0.9,,,,,,0.005,,,,,METAR,7.0
KFOK 090253Z AUTO 00000KT 4SM BR BKN100 10/09 A2975 RMK AO2 SLP074 T01000089 50007,KFOK,2023-06-09T02:53:00Z,40.85,-72.62,10.0,8.9,0,0,,4.0,29.749016,1007.4,,TRUE,TRUE,,,,,,BR,BKN,10000,,,,,,,MVFR,0.7,,,,,,,,,,,METAR,13.0
KFOE 090253Z 08005KT 10SM SCT110 22/18 A2984 RMK AO2 SLP095 T02170183 53011,KFOE,2023-06-09T02:53:00Z,38.93,-95.65,21.7,18.3,80,5,,10.0,29.840551,1009.5,,,TRUE,,,,,,,SCT,11000,,,,,,,VFR,1.1,,,,,,,,,,,METAR,315.0
KFNT 090253Z 02008KT 10SM BKN090 OVC110 17/06 A2989 RMK AO2 SLP121 T01670061 53019,KFNT,2023-06-09T02:53:00Z,42.97,-83.75,16.7,6.1,20,8,,10.0,29.890747,1012.1,,,TRUE,,,,,,,BKN,9000,OVC,11000,,,,,VFR,1.9,,,,,,,,,,,METAR,235.0
KFNB 090253Z AUTO 10006KT 10SM CLR 21/17 A2986 RMK AO2 SLP104 T02060167 53013,KFNB,2023-06-09T02:53:00Z,40.07,-95.58,20.6,16.7,100,6,,10.0,29.861221,1010.4,,TRUE,TRUE,,,,,,,CLR,,,,,,,,VFR,1.3,,,,,,,,,,,METAR,301.0
KFMY 090253Z AUTO 25004KT 10SM CLR 27/24 A2983 RMK AO2 SLP102 T02720239 53009,KFMY,2023-06-09T02:53:00Z,26.58,-81.87,27.2,23.9,250,4,,10.0,29.828741,1010.2,,TRUE,TRUE,,,,,,,CLR,,,,,,,,VFR,0.9,,,,,,,,,,,METAR,4.0
KFMN 090253Z VRB04KT 10SM CLR 23/M08 A3002 RMK AO2 SLP113 T02331078 53001,KFMN,2023-06-09T02:53:00Z,36.75,-108.23,23.3,-7.8,0,4,,10.0,30.02067,1011.3,,,TRUE,,,,,,,CLR,,,,,,,,VFR,0.1,,,,,,,,,,,METAR,1677.0
KFLO 090253Z AUTO 00000KT 9SM SCT095 19/13 A2980 RMK AO2 SLP089 T01890133 51017,KFLO,2023-06-09T02:53:00Z,34.18,-79.73,18.9,13.3,0,0,,9.0,29.799213,1008.9,,TRUE,TRUE,,,,,,,SCT,9500,,,,,,,VFR,1.7,,,,,,,,,,,METAR,43.0
KFLL 090253Z 19006KT 10SM FEW038 SCT130 BKN250 26/24 A2984 RMK AO2 SLP105 T02610239 53006,KFLL,2023-06-09T02:53:00Z,26.07,-80.15,26.1,23.9,190,6,,10.0,29.840551,1010.5,,,TRUE,,,,,,,FEW,3800,SCT,13000,BKN,25000,,,VFR,0.6,,,,,,,,,,,METAR,1.0
KFLD 090253Z AUTO 15005KT 10SM CLR 14/06 A2993 RMK AO2 SLP134 60000 T01440056 53009,KFLD,2023-06-09T02:53:00Z,43.77,-88.48,14.4,5.6,150,5,,10.0,29.929134,1013.4,,TRUE,TRUE,,,,,,,CLR,,,,,,,,VFR,0.9,,,,,,0.005,,,,,METAR,242.0
KFHR 090253Z AUTO 12005KT 10SM CLR 19/09 A2991 RMK AO2 SLP126 T01940094 55003,KFHR,2023-06-09T02:53:00Z,48.52,-123.03,19.4,9.4,120,5,,10.0,29.911417,1012.6,,TRUE,TRUE,,,,,,,CLR,,,,,,,,VFR,-0.3,,,,,,,,,,,METAR,34.0
KFFT 090253Z AUTO 00000KT 10SM CLR 13/09 A2986 RMK AO2 SLP106 T01280094 51008,KFFT,2023-06-09T02:53:00Z,38.18,-84.9,12.8,9.4,0,0,,10.0,29.861221,1010.6,,TRUE,TRUE,,,,,,,CLR,,,,,,,,VFR,0.8,,,,,,,,,,,METAR,235.0
KFFC 090253Z AUTO 00000KT 10SM CLR 19/14 A2982 RMK AO2 SLP094 T01890139 51020,KFFC,2023-06-09T02:53:00Z,33.35,-84.57,18.9,13.9,0,0,,10.0,29.819881,1009.4,,TRUE,TRUE,,,,,,,CLR,,,,,,,,VFR,2.0,,,,,,,,,,,METAR,242.0
KFDY 090253Z AUTO 09007KT 10SM BKN100 19/05 A2984 RMK AO2 SLP096 T01890050 53010,KFDY,2023-06-09T02:53:00Z,41.02,-83.67,18.9,5.0,90,7,,10.0,29.840551,1009.6,,TRUE,TRUE,,,,,,,BKN,10000,,,,,,,VFR,1.0,,,,,,,,,,,METAR,247.0
KFDR 090253Z AUTO 00000KT 10SM CLR 26/18 A2980 RMK AO2 SLP072 T02560178 53012 $,KFDR,2023-06-09T02:53:00Z,34.35,-98.98,25.6,17.8,0,0,,10.0,29.799213,1007.2,,TRUE,TRUE,TRUE,,,,,,CLR,,,,,,,,VFR,1.2,,,,,,,,,,,METAR,378.0
KFCM 090253Z AUTO 10005KT 10SM CLR 23/08 A2990 RMK AO2 SLP122 T02280083 53013,KFCM,2023-06-09T02:53:00Z,44.83,-93.47,22.8,8.3,100,5,,10.0,29.899607,1012.2,,TRUE,TRUE,,,,,,,CLR,,,,,,,,VFR,1.3,,,,,,,,,,,METAR,276.0
KFAY 090253Z 30004KT 10SM CLR 21/10 A2979 RMK AO2 SLP082 T02060100 51016,KFAY,2023-06-09T02:53:00Z,34.98,-78.88,20.6,10.0,300,4,,10.0,29.790354,1008.2,,,TRUE,,,,,,,CLR,,,,,,,,VFR,1.6,,,,,,,,,,,METAR,57.0
KFAT 090253Z 29009KT 10SM FEW080 SCT130 SCT200 27/12 A2993 RMK AO2 SLP131 TCU DSNT SE MTNS OBSC HZ DSNT N-E-S T02720122 55002,KFAT,2023-06-09T02:53:00Z,36.78,-119.72,27.2,12.2,290,9,,10.0,29.929134,1013.1,,,TRUE,,,,,,,FEW,8000,SCT,13000,SCT,20000,,,VFR,-0.2,,,,,,,,,,,METAR,102.0
KFAR 090253Z 10006KT 10SM CLR 25/16 A2985 RMK AO2 SLP105 T02500156 51007,KFAR,2023-06-09T02:53:00Z,46.9,-96.82,25.0,15.6,100,6,,10.0,29.84941,1010.5,,,TRUE,,,,,,,CLR,,,,,,,,VFR,0.7,,,,,,,,,,,METAR,276.0
KEYW 090253Z AUTO 19010KT 10SM FEW100 28/24 A2987 RMK AO2 SLP120 T02830239 53009,KEYW,2023-06-09T02:53:00Z,24.55,-81.75,28.3,23.9,190,10,,10.0,29.870079,1012.0,,TRUE,TRUE,,,,,,,FEW,10000,,,,,,,VFR,0.9,,,,,,,,,,,METAR,1.0
KEYE 090253Z AUTO 36008KT 10SM CLR 18/03 A2987 RMK AO2 SLP112 T01830033 53015,KEYE,2023-06-09T02:53:00Z,39.83,-86.3,18.3,3.3,360,8,,10.0,29.870079,1011.2,,TRUE,TRUE,,,,,,,CLR,,,,,,,,VFR,1.5,,,,,,,,,,,METAR,248.0
KEWB 090253Z AUTO 00000KT 5SM BR FEW095 10/10 A2972 RMK AO2 SLP064 T01000100 50008,KEWB,2023-06-09T02:53:00Z,41.68,-70.95,10.0,10.0,0,0,,5.0,29.719488,1006.4,,TRUE,TRUE,,,,,,BR,FEW,9500,,,,,,,MVFR,0.8,,,,,,,,,,,METAR,22.0
KEVW 090253Z AUTO 23006KT 10SM CLR 11/04 A3016 RMK AO2 SLP147 T01110039 55000,KEVW,2023-06-09T02:53:00Z,41.27,-111.03,11.1,3.9,230,6,,10.0,30.159449,1014.7,,TRUE,TRUE,,,,,,,CLR,,,,,,,,VFR,0.0,,,,,,,,,,,METAR,2178.0
KESF 090253Z AUTO 00000KT 6SM BR CLR 23/23 A2981 RMK AO2 SLP093 T02330228 53016,KESF,2023-06-09T02:53:00Z,31.4,-92.28,23.3,22.8,0,0,,6.0,29.811024,1009.3,,TRUE,TRUE,,,,,,BR,CLR,,,,,,,,VFR,1.6,,,,,,,,,,,METAR,27.0
KEQY 090253Z AUTO 00000KT 10SM BKN100 17/09 A2982 RMK AO2 SLP101 T01720089 51020,KEQY,2023-06-09T02:53:00Z,35.02,-80.62,17.2,8.9,0,0,,10.0,29.819881,1010.1,,TRUE,TRUE,,,,,,,BKN,10000,,,,,,,VFR,2.0,,,,,,,,,,,METAR,205.0
KEPH 090253Z AUTO 12013KT 10SM OVC100 26/12 A2982 RMK AO2 RAB04E14 SLP090 P0000 60000 T02560117 53015,KEPH,2023-06-09T02:53:00Z,47.3,-119.52,25.6,11.7,120,13,,10.0,29.819881,1009.0,,TRUE,TRUE,,,,,,,OVC,10000,,,,,,,VFR,1.5,,,,,0.005,0.005,,,,,METAR,382.0
KENW 090253Z AUTO 28003KT 10SM CLR 12/03 A2993 RMK AO2 SLP135 T01170028 53004,KENW,2023-06-09T02:53:00Z,42.6,-87.93,11.7,2.8,280,3,,10.0,29.929134,1013.5,,TRUE,TRUE,,,,,,,CLR,,,,,,,,VFR,0.4,,,,,,,,,,,METAR,222.0
KEMP 090253Z AUTO 09008KT 10SM CLR 24/20 A2983 RMK AO2 SLP091 60000 T02390200 53018,KEMP,2023-06-09T02:53:00Z,38.33,-96.2,23.9,20.0,90,8,,10.0,29.828741,1009.1,,TRUE,TRUE,,,,,,,CLR,,,,,,,,VFR,1.8,,,,,,0.005,,,,,METAR,366.0
KELY 090253Z AUTO 20007KT 10SM CLR 13/03 A3010 RMK AO2 SLP126 T01280033 53000,KELY,2023-06-09T02:53:00Z,39.3,-114.85,12.8,3.3,200,7,,10.0,30.100393,1012.6,,TRUE,TRUE,,,,,,,CLR,,,,,,,,VFR,0.0,,,,,,,,,,,METAR,1906.0
KELN 090253Z AUTO 31014KT 10SM BKN110 25/11 A2981 RMK AO2 SLP082 T02500106 53002,KELN,2023-06-09T02:53:00Z,47.03,-120.53,25.0,10.6,310,14,,10.0,29.811024,1008.2,,TRUE,TRUE,,,,,,,BKN,11000,,,,,,,VFR,0.2,,,,,,,,,,,METAR,532.0
KELD 090253Z AUTO 35004KT 10SM FEW075 FEW120 22/21 A2986 RMK AO2 RAE23 SLP106 P0001 60001 T02220206 53032,KELD,2023-06-09T02:53:00Z,33.22,-92.82,22.2,20.6,350,4,,10.0,29.861221,1010.6,,TRUE,TRUE,,,,,,,FEW,7500,FEW,12000,,,,,VFR,3.2,,,,,0.01,0.01,,,,,METAR,76.0
KEET 090253Z AUTO 00000KT 10SM CLR 24/14 A2981 RMK AO2 SLP085 T02440144 53014,KEET,2023-06-09T02:53:00Z,33.18,-86.78,24.4,14.4,0,0,,10.0,29.811024,1008.5,,TRUE,TRUE,,,,,,,CLR,,,,,,,,VFR,1.4,,,,,,,,,,,METAR,172.0
KEEO 090253Z AUTO 00000KT 10SM CLR 16/00 A3006 RMK AO2 SLP113 T01560000 53006,KEEO,2023-06-09T02:53:00Z,40.05,-107.88,15.6,0.0,0,0,,10.0,30.059055,1011.3,,TRUE,TRUE,,,,,,,CLR,,,,,,,,VFR,0.6,,,,,,,,,,,METAR,1957.0
KECP 090253Z AUTO 22006KT 10SM CLR 26/23 A2979 RMK AO1 SLP098 T02560233 53019,KECP,2023-06-09T02:53:00Z,30.35,-85.8,25.6,23.3,220,6,,10.0,29.790354,1009.8,,TRUE,TRUE,,,,,,,CLR,,,,,,,,VFR,1.9,,,,,,,,,,,METAR,17.0
KDXR 090253Z 00000KT 10SM OVC095 13/09 A2975 RMK AO2 SLP072 T01280094 51010 $,KDXR,2023-06-09T02:53:00Z,41.37,-73.48,12.8,9.4,0,0,,10.0,29.749016,1007.2,,,TRUE,TRUE,,,,,,OVC,9500,,,,,,,VFR,1.0,,,,,,,,,,,METAR,138.0
KDWH 090253Z AUTO 15003KT 10SM CLR 22/20 A2985 RMK AO2 SLP105 60002 T02170200 53019,KDWH,2023-06-09T02:53:00Z,30.07,-95.55,21.7,20.0,150,3,,10.0,29.84941,1010.5,,TRUE,TRUE,,,,,,,CLR,,,,,,,,VFR,1.9,,,,,,0.02,,,,,METAR,46.0
KDVT 090253Z 24005KT 10SM CLR 30/M04 A2988 RMK AO2 SLP093 T03001039 56001,KDVT,2023-06-09T02:53:00Z,33.68,-112.07,30.0,-3.9,240,5,,10.0,29.878937,1009.3,,,TRUE,,,,,,,CLR,,,,,,,,VFR,-0.1,,,,,,,,,,,METAR,454.0
KDUJ 090253Z AUTO 02004KT 10SM OVC110 13/07 A2982 RMK AO2 SLP097 T01330072 51006,KDUJ,2023-06-09T02:53:00Z,41.17,-78.9,13.3,7.2,20,4,,10.0,29.819881,1009.7,,TRUE,TRUE,,,,,,,OVC,11000,,,,,,,VFR,0.6,,,,,,,,,,,METAR,552.0
KDTW 090253Z 06004KT 10SM BKN110 OVC250 17/08 A2988 RMK AO2 SLP115 T01670078 53017,KDTW,2023-06-09T02:53:00Z,42.23,-83.33,16.7,7.8,60,4,,10.0,29.878937,1011.5,,,TRUE,,,,,,,BKN,11000,OVC,25000,,,,,VFR,1.7,,,,,,,,,,,METAR,192.0
KDTS 090253Z AUTO VRB06KT 10SM CLR 27/24 A2979 RMK AO2 SLP087 T02720239 51018,KDTS,2023-06-09T02:53:00Z,30.4,-86.47,27.2,23.9,0,6,,10.0,29.790354,1008.7,,TRUE,TRUE,,,,,,,CLR,,,,,,,,VFR,1.8,,,,,,,,,,,METAR,5.0
KDTO 090253Z 19004KT 10SM CLR 24/19 A2982 RMK AO2 SLP089 T02440194 51012,KDTO,2023-06-09T02:53:00Z,33.2,-97.2,24.4,19.4,190,4,,10.0,29.819881,1008.9,,,TRUE,,,,,,,CLR,,,,,,,,VFR,1.2,,,,,,,,,,,METAR,199.0
KDTN 090253Z 26009KT 10SM CLR 27/20 A2983 RMK AO2 SLP097 T02720200 53020,KDTN,2023-06-09T02:53:00Z,32.55,-93.75,27.2,20.0,260,9,,10.0,29.828741,1009.7,,,TRUE,,,,,,,CLR,,,,,,,,VFR,2.0,,,,,,,,,,,METAR,53.0
KDRT 090253Z AUTO 13003KT 10SM CLR 30/18 A2980 RMK AO2 SLP079 T03000178 53012,KDRT,2023-06-09T02:53:00Z,29.37,-100.92,30.0,17.8,130,3,,10.0,29.799213,1007.9,,TRUE,TRUE,,,,,,,CLR,,,,,,,,VFR,1.2,,,,,,,,,,,METAR,303.0
KDRO 090253Z AUTO 04004KT 10SM CLR 15/03 A3012 RMK AO2 SLP137 T01500033 51004,KDRO,2023-06-09T02:53:00Z,37.15,-107.77,15.0,3.3,40,4,,10.0,30.121063,1013.7,,TRUE,TRUE,,,,,,,CLR,,,,,,,,VFR,0.4,,,,,,,,,,,METAR,2021.0
KDRA 090253Z AUTO 21006KT 10SM CLR 25/02 A2992 RMK AO2 SLP091 T02500022 53004,KDRA,2023-06-09T02:53:00Z,36.62,-116.03,25.0,2.2,210,6,,10.0,29.920275,1009.1,,TRUE,TRUE,,,,,,,CLR,,,,,,,,VFR,0.4,,,,,,,,,,,METAR,988.0
KDNL 090253Z AUTO 08006KT 10SM CLR 23/17 A2980 RMK AO2 SLP085 T02330167 51020,KDNL,2023-06-09T02:53:00Z,33.47,-82.03,23.3,16.7,80,6,,10.0,29.799213,1008.5,,TRUE,TRUE,,,,,,,CLR,,,,,,,,VFR,2.0,,,,,,,,,,,METAR,126.0
KDMO 090253Z AUTO 09003KT 10SM SCT110 19/13 A2989 RMK AO2 SLP116 T01890133 53008 $,KDMO,2023-06-09T02:53:00Z,38.72,-93.17,18.9,13.3,90,3,,10.0,29.890747,1011.6,,TRUE,TRUE,TRUE,,,,,,SCT,11000,,,,,,,VFR,0.8,,,,,,,,,,,METAR,271.0
KDMN 090253Z AUTO 27006KT 10SM CLR 27/M03 A3001 RMK AO2 SLP083 T02671033 53010,KDMN,2023-06-09T02:53:00Z,32.27,-107.72,26.7,-3.3,270,6,,10.0,30.008858,1008.3,,TRUE,TRUE,,,,,,,CLR,,,,,,,,VFR,1.0,,,,,,,,,,,METAR,1310.0
KDLS 090253Z AUTO 32014G24KT 10SM CLR 21/09 A2982 RMK AO2 PK WND 32027/0217 SLP096 60000 T02110094 55004,KDLS,2023-06-09T02:53:00Z,45.62,-121.17,21.1,9.4,320,14,24,10.0,29.819881,1009.6,,TRUE,TRUE,,,,,,,CLR,,,,,,,,VFR,-0.4,,,,,,0.005,,,,,METAR,71.0
KDLN 090253Z AUTO 35006KT 10SM CLR 13/13 A3001 RMK AO2 SLP126 T01330128 53001,KDLN,2023-06-09T02:53:00Z,45.25,-112.55,13.3,12.8,350,6,,10.0,30.008858,1012.6,,TRUE,TRUE,,,,,,,CLR,,,,,,,,VFR,0.1,,,,,,,,,,,METAR,1586.0
KDKK 090253Z AUTO 16005KT 10SM FEW038 OVC050 14/10 A2983 RMK AO2 SLP101 60000 T01390100 50006,KDKK,2023-06-09T02:53:00Z,42.5,-79.28,13.9,10.0,160,5,,10.0,29.828741,1010.1,,TRUE,TRUE,,,,,,,FEW,3800,OVC,5000,,,,,VFR,0.6,,,,,,0.005,,,,,METAR,205.0
KDHT 090253Z AUTO 12006KT 10SM CLR 20/16 A2998 RMK AO2 SLP101 T02000156 51012,KDHT,2023-06-09T02:53:00Z,36.02,-102.55,20.0,15.6,120,6,,10.0,29.97933,1010.1,,TRUE,TRUE,,,,,,,CLR,,,,,,,,VFR,1.2,,,,,,,,,,,METAR,1217.0
KDHN 090253Z AUTO 33004KT 10SM CLR 27/19 A2982 RMK AO2 SLP091 T02670189 51021,KDHN,2023-06-09T02:53:00Z,31.32,-85.45,26.7,18.9,330,4,,10.0,29.819881,1009.1,,TRUE,TRUE,,,,,,,CLR,,,,,,,,VFR,2.1,,,,,,,,,,,METAR,113.0
KDGW 090253Z AUTO 17003KT 8SM CLR 16/10 A3000 RMK AO2 SLP113 T01560100 58000 $,KDGW,2023-06-09T02:53:00Z,42.8,-105.38,15.6,10.0,170,3,,8.0,30.0,1011.3,,TRUE,TRUE,TRUE,,,,,,CLR,,,,,,,,VFR,0.0,,,,,,,,,,,METAR,1503.0
KDFW 090253Z 21009KT 10SM FEW120 FEW180 BKN250 24/19 A2980 RMK AO2 SLP082 T02440194 50009 $,KDFW,2023-06-09T02:53:00Z,32.9,-97.02,24.4,19.4,210,9,,10.0,29.799213,1008.2,,,TRUE,TRUE,,,,,,FEW,12000,FEW,18000,BKN,25000,,,VFR,0.9,,,,,,,,,,,METAR,168.0
KDFI 090253Z AUTO 32009KT 10SM FEW090 SCT120 18/06 A2986 RMK AO2 SLP107 T01830056 53013,KDFI,2023-06-09T02:53:00Z,41.33,-84.43,18.3,5.6,320,9,,10.0,29.861221,1010.7,,TRUE,TRUE,,,,,,,FEW,9000,SCT,12000,,,,,VFR,1.3,,,,,,,,,,,METAR,215.0
KDET 090253Z 03007KT 10SM FEW095 OVC110 17/06 A2988 RMK AO2 SLP116 T01720061 53017,KDET,2023-06-09T02:53:00Z,42.4,-83.02,17.2,6.1,30,7,,10.0,29.878937,1011.6,,,TRUE,,,,,,,FEW,9500,OVC,11000,,,,,VFR,1.7,,,,,,,,,,,METAR,190.0
KDEQ 090253Z AUTO 08008KT 050V120 10SM -RA FEW060 FEW080 OVC110 23/20 A2981 RMK AO2 LTG DSNT SE RAB47 SLP087 P0000 60001 T02330200 51023,KDEQ,2023-06-09T02:53:00Z,34.05,-94.4,23.3,20.0,80,8,,10.0,29.811024,1008.7,,TRUE,TRUE,,,,,,-RA,FEW,6000,FEW,8000,OVC,11000,,,VFR,2.3,,,,,0.005,0.01,,,,,METAR,107.0
KDCU 090253Z AUTO 03003KT 9SM CLR 21/13 A2982 RMK AO2 SLP092 T02060128 53007,KDCU,2023-06-09T02:53:00Z,34.65,-86.95,20.6,12.8,30,3,,9.0,29.819881,1009.2,,TRUE,TRUE,,,,,,,CLR,,,,,,,,VFR,0.7,,,,,,,,,,,METAR,180.0
KDBQ 090253Z 00000KT 10SM CLR 15/05 A2993 RMK AO2 SLP135 T01500050 53009,KDBQ,2023-06-09T02:53:00Z,42.4,-90.7,15.0,5.0,0,0,,10.0,29.929134,1013.5,,,TRUE,,,,,,,CLR,,,,,,,,VFR,0.9,,,,,,,,,,,METAR,317.0
KDAN 090253Z AUTO 00000KT 10SM CLR 17/06 A2981 RMK AO2 SLP086 T01670061 52019,KDAN,2023-06-09T02:53:00Z,36.57,-79.33,16.7,6.1,0,0,,10.0,29.811024,1008.6,,TRUE,TRUE,,,,,,,CLR,,,,,,,,VFR,1.9,,,,,,,,,,,METAR,170.0
KDAL 090253Z 24005KT 10SM SCT170 BKN250 24/19 A2981 RMK AO2 SLP089 T02440189 51009,KDAL,2023-06-09T02:53:00Z,32.85,-96.85,24.4,18.9,240,5,,10.0,29.811024,1008.9,,,TRUE,,,,,,,SCT,17000,BKN,25000,,,,,VFR,0.9,,,,,,,,,,,METAR,148.0
KDAB 090253Z 25006KT 10SM CLR 25/19 A2980 RMK AO2 SLP090 T02500194 51021,KDAB,2023-06-09T02:53:00Z,29.18,-81.07,25.0,19.4,250,6,,10.0,29.799213,1009.0,,,TRUE,,,,,,,CLR,,,,,,,,VFR,2.1,,,,,,,,,,,METAR,8.0
KCYS 090253Z AUTO 00000KT 10SM CLR 16/11 A3009 RMK AO2 SLP114 T01610106 53004,KCYS,2023-06-09T02:53:00Z,41.15,-104.8,16.1,10.6,0,0,,10.0,30.088583,1011.4,,TRUE,TRUE,,,,,,,CLR,,,,,,,,VFR,0.4,,,,,,,,,,,METAR,1868.0
KCXO 090253Z AUTO 12004KT 9SM CLR 21/21 A2986 RMK AO2 SLP107 60001 T02110206 53017,KCXO,2023-06-09T02:53:00Z,30.35,-95.42,21.1,20.6,120,4,,9.0,29.861221,1010.7,,TRUE,TRUE,,,,,,,CLR,,,,,,,,VFR,1.7,,,,,,0.01,,,,,METAR,69.0
KCUT 090253Z AUTO 27008KT 10SM CLR 18/09 A3006 RMK AO2 LTG DSNT S AND W SLP113 T01780089 53016,KCUT,2023-06-09T02:53:00Z,43.73,-103.62,17.8,8.9,270,8,,10.0,30.059055,1011.3,,TRUE,TRUE,,,,,,,CLR,,,,,,,,VFR,1.6,,,,,,,,,,,METAR,1700.0
KCUB 090253Z AUTO 00000KT 9SM SCT070 OVC090 22/16 A2980 RMK AO2 SLP088 T02220156 51019,KCUB,2023-06-09T02:53:00Z,33.97,-81.0,22.2,15.6,0,0,,9.0,29.799213,1008.8,,TRUE,TRUE,,,,,,,SCT,7000,OVC,9000,,,,,VFR,1.9,,,,,,,,,,,METAR,55.0
KCSV 090253Z AUTO 05003KT 9SM CLR 15/07 A2989 RMK AO2 SLP108 T01500072 51010,KCSV,2023-06-09T02:53:00Z,35.95,-85.08,15.0,7.2,50,3,,9.0,29.890747,1010.8,,TRUE,TRUE,,,,,,,CLR,,,,,,,,VFR,1.0,,,,,,,,,,,METAR,569.0
KCSM 090253Z 00000KT 10SM CLR 22/18 A2987 RMK AO2 SLP095 T02220178 53013,KCSM,2023-06-09T02:53:00Z,35.35,-99.2,22.2,17.8,0,0,,10.0,29.870079,1009.5,,,TRUE,,,,,,,CLR,,,,,,,,VFR,1.3,,,,,,,,,,,METAR,586.0
KCRS 090253Z AUTO 00000KT 10SM CLR 22/21 A2984 RMK AO2 SLP098 T02220206 50007,KCRS,2023-06-09T02:53:00Z,32.03,-96.4,22.2,20.6,0,0,,10.0,29.840551,1009.8,,TRUE,TRUE,,,,,,,CLR,,,,,,,,VFR,0.7,,,,,,,,,,,METAR,136.0
KCRG 090253Z AUTO 25006KT 10SM CLR 28/19 A2977 RMK AO2 SLP081 T02830189 53022,KCRG,2023-06-09T02:53:00Z,30.33,-81.52,28.3,18.9,250,6,,10.0,29.769686,1008.1,,TRUE,TRUE,,,,,,,CLR,,,,,,,,VFR,2.2,,,,,,,,,,,METAR,12.0
KCRE 090253Z AUTO 00000KT 9SM CLR 18/17 A2979 RMK AO1 SLP089 T01830172 52018,KCRE,2023-06-09T02:53:00Z,33.82,-78.72,18.3,17.2,0,0,,9.0,29.790354,1008.9,,TRUE,TRUE,,,,,,,CLR,,,,,,,,VFR,1.8,,,,,,,,,,,METAR,9.0
KCQC 090253Z AUTO 26007KT 10SM CLR 15/04 A3017 RMK AO2 SLP132 T01500039 53008,KCQC,2023-06-09T02:53:00Z,35.0,-105.67,15.0,3.9,260,7,,10.0,30.171259,1013.2,,TRUE,TRUE,,,,,,,CLR,,,,,,,,VFR,0.8,,,,,,,,,,,METAR,2163.0
KCPS 090253Z AUTO 00000KT 10SM CLR 14/10 A2986 RMK AO2 SLP110 T01390100 53008,KCPS,2023-06-09T02:53:00Z,38.53,-90.15,13.9,10.0,0,0,,10.0,29.861221,1011.0,,TRUE,TRUE,,,,,,,CLR,,,,,,,,VFR,0.8,,,,,,,,,,,METAR,125.0
KCPR 090253Z 00000KT 10SM CLR 13/12 A3000 RMK AO2 SLP110 T01280117 58002,KCPR,2023-06-09T02:53:00Z,42.9,-106.47,12.8,11.7,0,0,,10.0,30.0,1011.0,,,TRUE,,,,,,,CLR,,,,,,,,VFR,-0.2,,,,,,,,,,,METAR,1623.0
KCOT 090253Z AUTO 17003KT 10SM CLR 31/20 A2980 RMK AO2 SLP083 T03110200 53016,KCOT,2023-06-09T02:53:00Z,28.45,-99.22,31.1,20.0,170,3,,10.0,29.799213,1008.3,,TRUE,TRUE,,,,,,,CLR,,,,,,,,VFR,1.6,,,,,,,,,,,METAR,144.0
KCNY 090253Z AUTO 25010KT 10SM CLR 23/M09 A2993 RMK AO2 SLP081 T02281094 53007,KCNY,2023-06-09T02:53:00Z,38.77,-109.75,22.8,-9.4,250,10,,10.0,29.929134,1008.1,,TRUE,TRUE,,,,,,,CLR,,,,,,,,VFR,0.7,,,,,,,,,,,METAR,1392.0
KCNO 090253Z 26011KT 10SM FEW100 19/11 A3000 RMK AO2 SLP156 T01890111 53008,KCNO,2023-06-09T02:53:00Z,33.98,-117.62,18.9,11.1,260,11,,10.0,30.0,1015.6,,,TRUE,,,,,,,FEW,10000,,,,,,,VFR,0.8,,,,,,,,,,,METAR,191.0
KCNM 090253Z AUTO 23009KT 10SM CLR 27/M05 A2988 RMK AO2 SLP061 T02721050 53010,KCNM,2023-06-09T02:53:00Z,32.33,-104.25,27.2,-5.0,230,9,,10.0,29.878937,1006.1,,TRUE,TRUE,,,,,,,CLR,,,,,,,,VFR,1.0,,,,,,,,,,,METAR,993.0
KCMX 090253Z AUTO 32003KT 10SM CLR 12/02 A2995 RMK AO2 SLP141 T01220017 55001,KCMX,2023-06-09T02:53:00Z,47.17,-88.48,12.2,1.7,320,3,,10.0,29.949802,1014.1,,TRUE,TRUE,,,,,,,CLR,,,,,,,,VFR,-0.1,,,,,,,,,,,METAR,326.0
KCMI 090253Z 04010KT 10SM CLR 19/02 A2990 RMK AO2 SLP122 T01940022 53019,KCMI,2023-06-09T02:53:00Z,40.03,-88.27,19.4,2.2,40,10,,10.0,29.899607,1012.2,,,TRUE,,,,,,,CLR,,,,,,,,VFR,1.9,,,,,,,,,,,METAR,227.0
KCLM 090253Z AUTO 28010G20KT 10SM CLR 13/08 A2995 RMK AO2 SLP141 T01330083 53002,KCLM,2023-06-09T02:53:00Z,48.12,-123.5,13.3,8.3,280,10,20,10.0,29.949802,1014.1,,TRUE,TRUE,,,,,,,CLR,,,,,,,,VFR,0.2,,,,,,,,,,,METAR,81.0
KCLL 090253Z AUTO 00000KT 10SM CLR 23/21 A2985 RMK AO2 SLP102 T02280211 53015,KCLL,2023-06-09T02:53:00Z,30.58,-96.37,22.8,21.1,0,0,,10.0,29.84941,1010.2,,TRUE,TRUE,,,,,,,CLR,,,,,,,,VFR,1.5,,,,,,,,,,,METAR,96.0
KCKB 090253Z 00000KT 10SM OVC100 15/07 A2984 RMK AO2 SLP096 T01500072 51006,KCKB,2023-06-09T02:53:00Z,39.3,-80.22,15.0,7.2,0,0,,10.0,29.840551,1009.6,,,TRUE,,,,,,,OVC,10000,,,,,,,VFR,0.6,,,,,,,,,,,METAR,368.0
KCHO 090253Z 00000KT 9SM CLR 17/05 A2980 RMK AO2 SLP087 T01720050 51013,KCHO,2023-06-09T02:53:00Z,38.13,-78.45,17.2,5.0,0,0,,9.0,29.799213,1008.7,,,TRUE,,,,,,,CLR,,,,,,,,VFR,1.3,,,,,,,,,,,METAR,193.0
KCHA 090253Z 34004KT 10SM FEW080 19/12 A2984 RMK AO2 SLP096 T01940117 53013,KCHA,2023-06-09T02:53:00Z,35.03,-85.2,19.4,11.7,340,4,,10.0,29.840551,1009.6,,,TRUE,,,,,,,FEW,8000,,,,,,,VFR,1.3,,,,,,,,,,,METAR,203.0
KCGI 090253Z AUTO 00000KT 10SM CLR 17/11 A2984 RMK AO2 SLP101 T01720106 53005,KCGI,2023-06-09T02:53:00Z,37.23,-89.58,17.2,10.6,0,0,,10.0,29.840551,1010.1,,TRUE,TRUE,,,,,,,CLR,,,,,,,,VFR,0.5,,,,,,,,,,,METAR,103.0
KCEZ 090253Z AUTO 00000KT 10SM CLR 17/03 A3007 RMK AO2 SLP117 T01670033 53000,KCEZ,2023-06-09T02:53:00Z,37.3,-108.63,16.7,3.3,0,0,,10.0,30.070866,1011.7,,TRUE,TRUE,,,,,,,CLR,,,,,,,,VFR,0.0,,,,,,,,,,,METAR,1801.0
KCEW 090253Z AUTO 00000KT 10SM CLR 25/21 A2981 RMK AO2 SLP090 T02500211 53021,KCEW,2023-06-09T02:53:00Z,30.78,-86.52,25.0,21.1,0,0,,10.0,29.811024,1009.0,,TRUE,TRUE,,,,,,,CLR,,,,,,,,VFR,2.1,,,,,,,,,,,METAR,47.0
KCDW 090253Z 00000KT 10SM OVC085 17/07 A2976 RMK AO2 SLP081 T01670067 51014,KCDW,2023-06-09T02:53:00Z,40.88,-74.28,16.7,6.7,0,0,,10.0,29.760826,1008.1,,,TRUE,,,,,,,OVC,8500,,,,,,,VFR,1.4,,,,,,,,,,,METAR,52.0
KCDS 090253Z AUTO 21006KT 10SM CLR 23/18 A2986 RMK AO2 SLP090 T02280178 53012,KCDS,2023-06-09T02:53:00Z,34.43,-100.28,22.8,17.8,210,6,,10.0,29.861221,1009.0,,TRUE,TRUE,,,,,,,CLR,,,,,,,,VFR,1.2,,,,,,,,,,,METAR,595.0
KCDR 090253Z AUTO 22010KT 10SM SCT100 19/14 A2991 RMK AO2 LTG DSNT ALQDS RAE00 TSE0155B0156E0157B0158E0159 SLP109 P0000 60000 T01940139 53018 $,KCDR,2023-06-09T02:53:00Z,42.83,-103.1,19.4,13.9,220,10,,10.0,29.911417,1010.9,,TRUE,TRUE,TRUE,,,,,,SCT,10000,,,,,,,VFR,1.8,,,,,0.005,0.005,,,,,METAR,1002.0
KCDC 090253Z AUTO 21009KT 10SM BKN110 19/M01 A3005 RMK AO2 SLP120 T01891006 53007 $,KCDC,2023-06-09T02:53:00Z,37.7,-113.1,18.9,-0.6,210,9,,10.0,30.050198,1012.0,,TRUE,TRUE,TRUE,,,,,,BKN,11000,,,,,,,VFR,0.7,,,,,,,,,,,METAR,1703.0
KCCR 090253Z 23011KT 10SM CLR 18/11 A3002 RMK AO2 SLP151 T01830106 53012,KCCR,2023-06-09T02:53:00Z,38.0,-122.05,18.3,10.6,230,11,,10.0,30.02067,1015.1,,,TRUE,,,,,,,CLR,,,,,,,,VFR,1.2,,,,,,,,,,,METAR,6.0
KCAG 090253Z AUTO 20003KT 10SM FEW100 16/04 A3004 RMK AO2 SLP118 T01560039 53006,KCAG,2023-06-09T02:53:00Z,40.5,-107.52,15.6,3.9,200,3,,10.0,30.041338,1011.8,,TRUE,TRUE,,,,,,,FEW,10000,,,,,,,VFR,0.6,,,,,,,,,,,METAR,1888.0
KBYI 090253Z AUTO 35003KT 10SM CLR 17/10 A3002 RMK AO2 SLP137 T01670100 53012,KBYI,2023-06-09T02:53:00Z,42.55,-113.77,16.7,10.0,350,3,,10.0,30.02067,1013.7,,TRUE,TRUE,,,,,,,CLR,,,,,,,,VFR,1.2,,,,,,,,,,,METAR,1263.0
KBYG 090253Z AUTO 18005KT 10SM FEW070 SCT110 16/12 A3001 RMK AO2 LTG DSNT N AND NW TSE0154B0157E00B09E10 SLP111 60045 T01610122 53013,KBYG,2023-06-09T02:53:00Z,44.38,-106.72,16.1,12.2,180,5,,10.0,30.008858,1011.1,,TRUE,TRUE,,,,,,,FEW,7000,SCT,11000,,,,,VFR,1.3,,,,,,0.45,,,,,METAR,1503.0
KBWG 090253Z AUTO 00000KT 10SM BKN085 19/08 A2984 RMK AO2 SLP099 T01890083 51008,KBWG,2023-06-09T02:53:00Z,36.97,-86.42,18.9,8.3,0,0,,10.0,29.840551,1009.9,,TRUE,TRUE,,,,,,,BKN,8500,,,,,,,VFR,0.8,,,,,,,,,,,METAR,159.0
KBVY 090253Z AUTO 00000KT 10SM OVC070 11/11 A2971 RMK AO2 SLP057 T01110106 50006,KBVY,2023-06-09T02:53:00Z,42.58,-70.92,11.1,10.6,0,0,,10.0,29.71063,1005.7,,TRUE,TRUE,,,,,,,OVC,7000,,,,,,,VFR,0.6,,,,,,,,,,,METAR,28.0
KBVO 090253Z AUTO 00000KT 10SM FEW100 22/21 A2980 RMK AO2 SLP081 60029 T02220211 51013,KBVO,2023-06-09T02:53:00Z,36.77,-96.02,22.2,21.1,0,0,,10.0,29.799213,1008.1,,TRUE,TRUE,,,,,,,FEW,10000,,,,,,,VFR,1.3,,,,,,0.29,,,,,METAR,210.0
KBUR 090253Z 16007KT 10SM CLR 18/12 A3000 RMK AO2 SLP150 T01780117 53006,KBUR,2023-06-09T02:53:00Z,34.2,-118.37,17.8,11.7,160,7,,10.0,30.0,1015.0,,,TRUE,,,,,,,CLR,,,,,,,,VFR,0.6,,,,,,,,,,,METAR,221.0
KBTR 090253Z 14004KT 10SM CLR 25/19 A2982 RMK AO2 SLP094 T02500194 53010,KBTR,2023-06-09T02:53:00Z,30.53,-91.15,25.0,19.4,140,4,,10.0,29.819881,1009.4,,,TRUE,,,,,,,CLR,,,,,,,,VFR,1.0,,,,,,,,,,,METAR,20.0
KBTL 090253Z 30007KT 10SM CLR 16/04 A2988 RMK AO2 SLP114 60000 T01560039 53008,KBTL,2023-06-09T02:53:00Z,42.32,-85.25,15.6,3.9,300,7,,10.0,29.878937,1011.4,,,TRUE,,,,,,,CLR,,,,,,,,VFR,0.8,,,,,,0.005,,,,,METAR,282.0
KBRO 090253Z 12004KT 10SM CLR 27/23 A2983 RMK AO2 SLP100 T02670228 53016,KBRO,2023-06-09T02:53:00Z,25.92,-97.42,26.7,22.8,120,4,,10.0,29.828741,1010.0,,,TRUE,,,,,,,CLR,,,,,,,,VFR,1.6,,,,,,,,,,,METAR,6.0
KBRL 090253Z AUTO 05005KT 10SM CLR 19/07 A2990 RMK AO2 SLP122 T01890067 53012,KBRL,2023-06-09T02:53:00Z,40.77,-91.13,18.9,6.7,50,5,,10.0,29.899607,1012.2,,TRUE,TRUE,,,,,,,CLR,,,,,,,,VFR,1.2,,,,,,,,,,,METAR,208.0
KBRD 090253Z AUTO 00000KT 10SM CLR 17/10 A2993 RMK AO2 SLP135 T01670100 53010,KBRD,2023-06-09T02:53:00Z,46.4,-94.13,16.7,10.0,0,0,,10.0,29.929134,1013.5,,TRUE,TRUE,,,,,,,CLR,,,,,,,,VFR,1.0,,,,,,,,,,,METAR,372.0
KBPT 090253Z AUTO 24003KT 10SM BKN120 24/19 A2983 RMK AO2 SLP100 T02440189 51018,KBPT,2023-06-09T02:53:00Z,29.95,-94.03,24.4,18.9,240,3,,10.0,29.828741,1010.0,,TRUE,TRUE,,,,,,,BKN,12000,,,,,,,VFR,1.8,,,,,,,,,,,METAR,6.0
KBPK 090253Z AUTO 00000KT 6SM BR CLR 20/19 A2985 RMK AO2 SLP098 T02000189 53012,KBPK,2023-06-09T02:53:00Z,36.37,-92.47,20.0,18.9,0,0,,6.0,29.84941,1009.8,,TRUE,TRUE,,,,,,BR,CLR,,,,,,,,VFR,1.2,,,,,,,,,,,METAR,279.0
KBPI 090253Z AUTO 34008KT 10SM SCT100 10/07 A3016 RMK AO2 SLP147 60000 T01000072 53003,KBPI,2023-06-09T02:53:00Z,42.58,-110.1,10.0,7.2,340,8,,10.0,30.159449,1014.7,,TRUE,TRUE,,,,,,,SCT,10000,,,,,,,VFR,0.3,,,,,,0.005,,,,,METAR,2120.0
KBOI 090253Z 10007KT 10SM FEW046 18/12 A2989 RMK AO2 PK WND 08027/0219 SLP100 P0004 60004 T01780122 58011,KBOI,2023-06-09T02:53:00Z,43.57,-116.23,17.8,12.2,100,7,,10.0,29.890747,1010.0,,,TRUE,,,,,,,FEW,4600,,,,,,,VFR,-1.1,,,,,0.04,0.04,,,,,METAR,860.0
KBNO 090253Z AUTO 20005KT 6SM -RA SCT025 BKN050 OVC080 15/12 A3001 RMK AO2 RAB03 SLP141 P0003 60003 T01500122 53008,KBNO,2023-06-09T02:53:00Z,43.6,-118.95,15.0,12.2,200,5,,6.0,30.008858,1014.1,,TRUE,TRUE,,,,,,-RA,SCT,2500,BKN,5000,OVC,8000,,,VFR,0.8,,,,,0.03,0.03,,,,,METAR,1263.0
KBNA 090253Z 02005KT 10SM CLR 21/07 A2984 RMK AO2 SLP100 T02110072 53009,KBNA,2023-06-09T02:53:00Z,36.12,-86.68,21.1,7.2,20,5,,10.0,29.840551,1010.0,,,TRUE,,,,,,,CLR,,,,,,,,VFR,0.9,,,,,,,,,,,METAR,168.0
KBMQ 090253Z AUTO 00000KT 10SM CLR 26/17 A2988 RMK AO2 SLP101 T02610172 51014,KBMQ,2023-06-09T02:53:00Z,30.73,-98.23,26.1,17.2,0,0,,10.0,29.878937,1010.1,,TRUE,TRUE,,,,,,,CLR,,,,,,,,VFR,1.4,,,,,,,,,,,METAR,387.0
KBMG 090253Z AUTO 00000KT 10SM CLR 14/09 A2987 RMK AO2 SLP109 T01440094 52009,KBMG,2023-06-09T02:53:00Z,39.15,-86.62,14.4,9.4,0,0,,10.0,29.870079,1010.9,,TRUE,TRUE,,,,,,,CLR,,,,,,,,VFR,0.9,,,,,,,,,,,METAR,254.0
KBLI 090253Z 18011G20KT 10SM CLR 17/12 A2990 RMK AO2 SLP131 T01720117 53001,KBLI,2023-06-09T02:53:00Z,48.8,-122.53,17.2,11.7,180,11,20,10.0,29.899607,1013.1,,,TRUE,,,,,,,CLR,,,,,,,,VFR,0.1,,,,,,,,,,,METAR,46.0
KBKV 090253Z AUTO 24003KT 10SM CLR 22/21 A2984 RMK AO2 SLP101 T02220211 53017,KBKV,2023-06-09T02:53:00Z,28.47,-82.45,22.2,21.1,240,3,,10.0,29.840551,1010.1,,TRUE,TRUE,,,,,,,CLR,,,,,,,,VFR,1.7,,,,,,,,,,,METAR,21.0
KBKL 090253Z 00000KT 8SM BKN110 17/11 A2984 RMK AO2 SLP102 T01720106 52007,KBKL,2023-06-09T02:53:00Z,41.53,-81.67,17.2,10.6,0,0,,8.0,29.840551,1010.2,,,TRUE,,,,,,,BKN,11000,,,,,,,VFR,0.7,,,,,,,,,,,METAR,177.0
KBKE 090253Z AUTO 35009KT 10SM OVC060 18/12 A2994 RMK AO2 SLP120 T01780117 53006,KBKE,2023-06-09T02:53:00Z,44.85,-117.82,17.8,11.7,350,9,,10.0,29.940945,1012.0,,TRUE,TRUE,,,,,,,OVC,6000,,,,,,,VFR,0.6,,,,,,,,,,,METAR,1025.0
KBIV 090253Z AUTO 00000KT 10SM CLR 13/04 A2989 RMK AO2 SLP122 T01330044 53005,KBIV,2023-06-09T02:53:00Z,42.75,-86.1,13.3,4.4,0,0,,10.0,29.890747,1012.2,,TRUE,TRUE,,,,,,,CLR,,,,,,,,VFR,0.5,,,,,,,,,,,METAR,207.0
KBIL 090253Z 21005KT 10SM BKN110 18/15 A2995 RMK AO2 RAE18 TSE14 SLP117 FRQ LTG CB DSNT N-SE SHRA DSNT ALQDS P0007 60009 T01830150 51014 $,KBIL,2023-06-09T02:53:00Z,45.8,-108.55,18.3,15.0,210,5,,10.0,29.949802,1011.7,,,TRUE,TRUE,,,,,,BKN,11000,,,,,,,VFR,1.4,,,,,0.07,0.09,,,,,METAR,1089.0
KBHM 090253Z 04003KT 10SM CLR 23/12 A2983 RMK AO2 SLP092 T02280122 53010,KBHM,2023-06-09T02:53:00Z,33.57,-86.75,22.8,12.2,40,3,,10.0,29.828741,1009.2,,,TRUE,,,,,,,CLR,,,,,,,,VFR,1.0,,,,,,,,,,,METAR,191.0
KBGR 090253Z 00000KT 10SM BKN032 OVC075 11/10 A2976 RMK AO2 SLP077 T01110100 51008,KBGR,2023-06-09T02:53:00Z,44.8,-68.82,11.1,10.0,0,0,,10.0,29.760826,1007.7,,,TRUE,,,,,,,BKN,3200,OVC,7500,,,,,VFR,0.8,,,,,,,,,,,METAR,45.0
KBGM 090253Z AUTO 28005KT 10SM SCT023 BKN042 OVC060 11/09 A2978 RMK AO2 RAE46 SLP087 P0001 60028 T01060089 51007,KBGM,2023-06-09T02:53:00Z,42.22,-75.98,10.6,8.9,280,5,,10.0,29.778543,1008.7,,TRUE,TRUE,,,,,,,SCT,2300,BKN,4200,OVC,6000,,,VFR,0.7,,,,,0.01,0.28,,,,,METAR,485.0
KBFM 090253Z AUTO 26005KT 10SM CLR 26/21 A2980 RMK AO2 SLP091 T02560211 51016,KBFM,2023-06-09T02:53:00Z,30.62,-88.07,25.6,21.1,260,5,,10.0,29.799213,1009.1,,TRUE,TRUE,,,,,,,CLR,,,,,,,,VFR,1.6,,,,,,,,,,,METAR,7.0
KBFI 090253Z 21003KT 10SM CLR 22/12 A2992 RMK AO2 SLP131 T02170117 55001,KBFI,2023-06-09T02:53:00Z,47.55,-122.32,21.7,11.7,210,3,,10.0,29.920275,1013.1,,,TRUE,,,,,,,CLR,,,,,,,,VFR,-0.1,,,,,,,,,,,METAR,7.0
KBFF 090253Z AUTO 00000KT 10SM CLR 19/12 A2996 RMK AO2 LTG DSNT NE RAE30 SLP107 P0000 60059 T01890117 $,KBFF,2023-06-09T02:53:00Z,41.87,-103.6,18.9,11.7,0,0,,10.0,29.958662,1010.7,,TRUE,TRUE,TRUE,,,,,,CLR,,,,,,,,VFR,,,,,,0.005,0.59,,,,,METAR,1204.0
KBFD 090253Z AUTO 30003KT 8SM OVC045 12/08 A2983 RMK AO2 SLP099 T01170083 51006,KBFD,2023-06-09T02:53:00Z,41.8,-78.63,11.7,8.3,300,3,,8.0,29.828741,1009.9,,TRUE,TRUE,,,,,,,OVC,4500,,,,,,,VFR,0.6,,,,,,,,,,,METAR,642.0
KBDE 090253Z AUTO 07003KT 10SM CLR 20/10 A2991 RMK AO2 SLP128 T02000100 53004,KBDE,2023-06-09T02:53:00Z,48.73,-94.62,20.0,10.0,70,3,,10.0,29.911417,1012.8,,TRUE,TRUE,,,,,,,CLR,,,,,,,,VFR,0.4,,,,,,,,,,,METAR,330.0
KBCT 090253Z 23010KT 10SM SCT050 27/22 A2985,KBCT,2023-06-09T02:53:00Z,26.38,-80.1,27.0,22.0,230,10,,10.0,29.84941,,,,,,,,,,,SCT,5000,,,,,,,VFR,,,,,,,,,,,,METAR,3.0
KBCE 090253Z AUTO 20003KT 10SM BKN110 11/01 A3017 RMK AO2 SLP121 T01060011 53004,KBCE,2023-06-09T02:53:00Z,37.7,-112.15,10.6,1.1,200,3,,10.0,30.171259,1012.1,,TRUE,TRUE,,,,,,,BKN,11000,,,,,,,VFR,0.4,,,,,,,,,,,METAR,2311.0
KBBW 090253Z AUTO 00000KT 10SM CLR 21/19 A2988 RMK AO2 SLP091 T02110189 53005,KBBW,2023-06-09T02:53:00Z,41.43,-99.63,21.1,18.9,0,0,,10.0,29.878937,1009.1,,TRUE,TRUE,,,,,,,CLR,,,,,,,,VFR,0.5,,,,,,,,,,,METAR,771.0
KAZO 090253Z 31006KT 10SM CLR 16/03 A2988 RMK AO2 SLP117 T01610028 53005,KAZO,2023-06-09T02:53:00Z,42.23,-85.55,16.1,2.8,310,6,,10.0,29.878937,1011.7,,,TRUE,,,,,,,CLR,,,,,,,,VFR,0.5,,,,,,,,,,,METAR,264.0
KAXN 090253Z AUTO 17003KT 10SM CLR 21/12 A2993 RMK AO2 SLP131 T02110122 53010,KAXN,2023-06-09T02:53:00Z,45.87,-95.4,21.1,12.2,170,3,,10.0,29.929134,1013.1,,TRUE,TRUE,,,,,,,CLR,,,,,,,,VFR,1.0,,,,,,,,,,,METAR,433.0
KAWM 090253Z AUTO 31003KT 7SM CLR 22/20 A2981 RMK AO2 SLP090 60000 T02170200 53010,KAWM,2023-06-09T02:53:00Z,35.13,-90.23,21.7,20.0,310,3,,7.0,29.811024,1009.0,,TRUE,TRUE,,,,,,,CLR,,,,,,,,VFR,1.0,,,,,,0.005,,,,,METAR,64.0
KAUS 090253Z 00000KT 10SM FEW200 24/21 A2984 RMK AO2 SLP096 T02390211 53016 $,KAUS,2023-06-09T02:53:00Z,30.18,-97.68,23.9,21.1,0,0,,10.0,29.840551,1009.6,,,TRUE,TRUE,,,,,,FEW,20000,,,,,,,VFR,1.6,,,,,,,,,,,METAR,148.0
KATY 090253Z AUTO 11006KT 10SM CLR 23/17 A2988 RMK AO2 SLP108 T02330167 53014,KATY,2023-06-09T02:53:00Z,44.9,-97.15,23.3,16.7,110,6,,10.0,29.878937,1010.8,,TRUE,TRUE,,,,,,,CLR,,,,,,,,VFR,1.4,,,,,,,,,,,METAR,531.0
KASX 090253Z AUTO 00000KT 10SM CLR 08/07 A2996 RMK AO2 SLP148 T00830072 53001,KASX,2023-06-09T02:53:00Z,46.55,-90.92,8.3,7.2,0,0,,10.0,29.958662,1014.8,,TRUE,TRUE,,,,,,,CLR,,,,,,,,VFR,0.1,,,,,,,,,,,METAR,249.0
KASE 090253Z AUTO 18006KT 10SM CLR 12/00 A3016 RMK AO2 SLP124 T01170000 53007,KASE,2023-06-09T02:53:00Z,39.23,-106.87,11.7,0.0,180,6,,10.0,30.159449,1012.4,,TRUE,TRUE,,,,,,,CLR,,,,,,,,VFR,0.7,,,,,,,,,,,METAR,2384.0
KASD 090253Z AUTO 00000KT 10SM CLR 23/22 A2981 RMK AO2 SLP094 T02280222 53009,KASD,2023-06-09T02:53:00Z,30.35,-89.82,22.8,22.2,0,0,,10.0,29.811024,1009.4,,TRUE,TRUE,,,,,,,CLR,,,,,,,,VFR,0.9,,,,,,,,,,,METAR,8.0
KARB 090253Z AUTO 06004KT 10SM OVC090 17/08 A2987 RMK AO2 SLP112 T01720078 53017,KARB,2023-06-09T02:53:00Z,42.22,-83.73,17.2,7.8,60,4,,10.0,29.870079,1011.2,,TRUE,TRUE,,,,,,,OVC,9000,,,,,,,VFR,1.7,,,,,,,,,,,METAR,251.0
KARA 090253Z 13004KT 10SM FEW070 SCT080 BKN110 24/20 A2982 RMK AO2 RAE16 TSE0154B0155E03B04E05B06E10B12E14B23E25 SLP097 P0003 60246 T02440200 51011 $,KARA,2023-06-09T02:53:00Z,30.03,-91.88,24.4,20.0,130,4,,10.0,29.819881,1009.7,,,TRUE,TRUE,,,,,,FEW,7000,SCT,8000,BKN,11000,,,VFR,1.1,,,,,0.03,2.46,,,,,METAR,5.0
KAPF 090253Z AUTO 22006KT 10SM FEW020 FEW029 28/24 A2984 RMK AO2 SLP103 T02830239 53007 PWINO,KAPF,2023-06-09T02:53:00Z,26.15,-81.77,28.3,23.9,220,6,,10.0,29.840551,1010.3,,TRUE,TRUE,,,,,TRUE,,FEW,2000,FEW,2900,,,,,VFR,0.7,,,,,,,,,,,METAR,2.0
KAOO 090253Z AUTO 22003KT 10SM SCT050 SCT090 13/07 A2982 RMK AO2 SLP095 T01330072 53009,KAOO,2023-06-09T02:53:00Z,40.3,-78.32,13.3,7.2,220,3,,10.0,29.819881,1009.5,,TRUE,TRUE,,,,,,,SCT,5000,SCT,9000,,,,,VFR,0.9,,,,,,,,,,,METAR,450.0
KAOH 090253Z AUTO 00000KT 8SM OVC095 18/06 A2985 RMK AO2 SLP103 T01780056 53008,KAOH,2023-06-09T02:53:00Z,40.7,-84.02,17.8,5.6,0,0,,8.0,29.84941,1010.3,,TRUE,TRUE,,,,,,,OVC,9500,,,,,,,VFR,0.8,,,,,,,,,,,METAR,294.0
KANB 090253Z AUTO 00000KT 10SM CLR 19/14 A2982 RMK AO2 SLP090 T01940144 51018,KANB,2023-06-09T02:53:00Z,33.58,-85.85,19.4,14.4,0,0,,10.0,29.819881,1009.0,,TRUE,TRUE,,,,,,,CLR,,,,,,,,VFR,1.8,,,,,,,,,,,METAR,187.0
KAMW 090253Z AUTO 00000KT 10SM CLR 18/09 A2991 RMK AO2 SLP124 T01780094 53010,KAMW,2023-06-09T02:53:00Z,41.98,-93.62,17.8,9.4,0,0,,10.0,29.911417,1012.4,,TRUE,TRUE,,,,,,,CLR,,,,,,,,VFR,1.0,,,,,,,,,,,METAR,282.0
KAMG 090253Z AUTO 00000KT 8SM FEW080 FEW095 24/19 A2975 RMK AO2 SLP070 T02390194 51018,KAMG,2023-06-09T02:53:00Z,31.53,-82.5,23.9,19.4,0,0,,8.0,29.749016,1007.0,,TRUE,TRUE,,,,,,,FEW,8000,FEW,9500,,,,,VFR,1.8,,,,,,,,,,,METAR,61.0
KAMA 090253Z 08007KT 10SM CLR 21/16 A2995 RMK AO2 SLP095 T02110156 53011,KAMA,2023-06-09T02:53:00Z,35.22,-101.72,21.1,15.6,80,7,,10.0,29.949802,1009.5,,,TRUE,,,,,,,CLR,,,,,,,,VFR,1.1,,,,,,,,,,,METAR,1102.0
KALW 090253Z AUTO 14003KT 10SM BKN080 OVC095 23/13 A2985 RMK AO2 RAB0159E10 SLP100 P0000 60000 T02330133 53004,KALW,2023-06-09T02:53:00Z,46.1,-118.28,23.3,13.3,140,3,,10.0,29.84941,1010.0,,TRUE,TRUE,,,,,,,BKN,8000,OVC,9500,,,,,VFR,0.4,,,,,0.005,0.005,,,,,METAR,355.0
KALI 090253Z AUTO 13006KT 10SM CLR 24/22 A2981 RMK AO2 SLP093 60000 T02440217 51021,KALI,2023-06-09T02:53:00Z,27.73,-98.02,24.4,21.7,130,6,,10.0,29.811024,1009.3,,TRUE,TRUE,,,,,,,CLR,,,,,,,,VFR,2.1,,,,,,0.005,,,,,METAR,52.0
KAKO 090253Z AUTO 19007KT 10SM CLR 18/11 A3000 RMK AO2 SLP111 T01780106 53003,KAKO,2023-06-09T02:53:00Z,40.17,-103.22,17.8,10.6,190,7,,10.0,30.0,1011.1,,TRUE,TRUE,,,,,,,CLR,,,,,,,,VFR,0.3,,,,,,,,,,,METAR,1431.0
KAGS 090253Z 00000KT 6SM BR CLR 19/18 A2977 RMK AO2 SLP079 T01890178 51021,KAGS,2023-06-09T02:53:00Z,33.37,-81.97,18.9,17.8,0,0,,6.0,29.769686,1007.9,,,TRUE,,,,,,BR,CLR,,,,,,,,VFR,2.1,,,,,,,,,,,METAR,40.0
KAGC 090253Z 00000KT 8SM FEW090 16/07 A2982 RMK AO2 SLP100 T01560072 51008,KAGC,2023-06-09T02:53:00Z,40.35,-79.92,15.6,7.2,0,0,,8.0,29.819881,1010.0,,,TRUE,,,,,,,FEW,9000,,,,,,,VFR,0.8,,,,,,,,,,,METAR,380.0
KAFW 090253Z 20007KT 10SM SCT140 BKN250 25/19 A2981 RMK AO2 SLP081 T02500189 50012,KAFW,2023-06-09T02:53:00Z,32.97,-97.32,25.0,18.9,200,7,,10.0,29.811024,1008.1,,,TRUE,,,,,,,SCT,14000,BKN,25000,,,,,VFR,1.2,,,,,,,,,,,METAR,208.0
KAEX 090253Z 00000KT 9SM CLR 25/20 A2982 RMK AO2 SLP099 T02500200 53016,KAEX,2023-06-09T02:53:00Z,31.33,-92.57,25.0,20.0,0,0,,9.0,29.819881,1009.9,,,TRUE,,,,,,,CLR,,,,,,,,VFR,1.6,,,,,,,,,,,METAR,25.0
KADG 090253Z AUTO 29007KT 10SM FEW090 OVC100 17/07 A2986 RMK AO2 SLP112 T01720072 53013,KADG,2023-06-09T02:53:00Z,41.87,-84.08,17.2,7.2,290,7,,10.0,29.861221,1011.2,,TRUE,TRUE,,,,,,,FEW,9000,OVC,10000,,,,,VFR,1.3,,,,,,,,,,,METAR,244.0
KACK 090253Z AUTO 21003KT 6SM BR SCT095 11/11 A2973 RMK AO2 SLP068 T01110106 50005 $,KACK,2023-06-09T02:53:00Z,41.25,-70.07,11.1,10.6,210,3,,6.0,29.731298,1006.8,,TRUE,TRUE,TRUE,,,,,BR,SCT,9500,,,,,,,VFR,0.5,,,,,,,,,,,METAR,12.0
KABY 090253Z AUTO 00000KT 9SM CLR 25/17 A2978 RMK AO2 SLP081 T02500172 51018,KABY,2023-06-09T02:53:00Z,31.53,-84.2,25.0,17.2,0,0,,9.0,29.778543,1008.1,,TRUE,TRUE,,,,,,,CLR,,,,,,,,VFR,1.8,,,,,,,,,,,METAR,60.0
KABR 090253Z AUTO 09006KT 10SM CLR 27/18 A2984 RMK AO2 LTG DSNT SW AND W SLP095 T02670178 53017,KABR,2023-06-09T02:53:00Z,45.45,-98.42,26.7,17.8,90,6,,10.0,29.840551,1009.5,,TRUE,TRUE,,,,,,,CLR,,,,,,,,VFR,1.7,,,,,,,,,,,METAR,397.0
KAAF 090253Z AUTO 29006KT 10SM CLR 26/23 A2980 RMK AO2 SLP091 T02560233 53015,KAAF,2023-06-09T02:53:00Z,29.73,-85.03,25.6,23.3,290,6,,10.0,29.799213,1009.1,,TRUE,TRUE,,,,,,,CLR,,,,,,,,VFR,1.5,,,,,,,,,,,METAR,5.0
PATA 090252Z 00000KT 10SM BKN075CB 21/08 A2954 RMK VIAGRA NW -N CB NW-N,PATA,2023-06-09T02:52:00Z,65.17,-152.1,21.0,8.0,0,0,,10.0,29.53937,,,,,,,,,,,BKN,7500,,,,,,,VFR,,,,,,,,,,,,METAR,62.0
PABA 090252Z AUTO 07015KT 10SM OVC005 00/M01 A3000 RMK AO2 SLP167 T00001011 56008 FZRANO,PABA,2023-06-09T02:52:00Z,70.13,-143.58,0.0,-1.1,70,15,,10.0,30.0,1016.7,,TRUE,TRUE,,,,TRUE,,,OVC,500,,,,,,,IFR,-0.8,,,,,,,,,,,METAR,1.0
KVTN 090252Z AUTO 00000KT 10SM CLR 22/14 A2986 RMK AO2 SLP090 T02220144 51005,KVTN,2023-06-09T02:52:00Z,42.87,-100.55,22.2,14.4,0,0,,10.0,29.861221,1009.0,,TRUE,TRUE,,,,,,,CLR,,,,,,,,VFR,0.5,,,,,,,,,,,METAR,790.0
KTRM 090252Z AUTO VRB04KT 8SM CLR 29/07 A2979 RMK AO2 SLP100 T02890072 53001 $,KTRM,2023-06-09T02:52:00Z,33.63,-116.17,28.9,7.2,0,4,,8.0,29.790354,1010.0,,TRUE,TRUE,TRUE,,,,,,CLR,,,,,,,,VFR,0.1,,,,,,,,,,,METAR,-39.0
KTOL 090252Z 00000KT 10SM BKN110 17/07 A2984 RMK AO2 SLP103 T01720072 53011,KTOL,2023-06-09T02:52:00Z,41.58,-83.8,17.2,7.2,0,0,,10.0,29.840551,1010.3,,,TRUE,,,,,,,BKN,11000,,,,,,,VFR,1.1,,,,,,,,,,,METAR,206.0
KTAN 090252Z AUTO 00000KT 4SM BR SCT055 BKN070 10/08 A2972 RMK AO2 SLP064 T01000083 50008,KTAN,2023-06-09T02:52:00Z,41.88,-71.02,10.0,8.3,0,0,,4.0,29.719488,1006.4,,TRUE,TRUE,,,,,,BR,SCT,5500,BKN,7000,,,,,MVFR,0.8,,,,,,,,,,,METAR,8.0
KSUX 090252Z AUTO 13008KT 10SM CLR 23/17 A2987 RMK AO2 SLP106 T02280172 53014,KSUX,2023-06-09T02:52:00Z,42.38,-96.38,22.8,17.2,130,8,,10.0,29.870079,1010.6,,TRUE,TRUE,,,,,,,CLR,,,,,,,,VFR,1.4,,,,,,,,,,,METAR,332.0
KSPS 090252Z 18006KT 10SM SCT250 24/19 A2981 RMK AO2 SLP081 T02440189 53008,KSPS,2023-06-09T02:52:00Z,33.98,-98.5,24.4,18.9,180,6,,10.0,29.811024,1008.1,,,TRUE,,,,,,,SCT,25000,,,,,,,VFR,0.8,,,,,,,,,,,METAR,310.0
KSPI 090252Z AUTO 36005KT 10SM CLR 15/05 A2988 RMK AO2 SLP116 T01500050 51010,KSPI,2023-06-09T02:52:00Z,39.85,-89.68,15.0,5.0,360,5,,10.0,29.878937,1011.6,,TRUE,TRUE,,,,,,,CLR,,,,,,,,VFR,1.0,,,,,,,,,,,METAR,179.0
KSGF 090252Z 13006KT 10SM BKN120 22/18 A2985 RMK AO2 SLP098 T02170183 53013 $,KSGF,2023-06-09T02:52:00Z,37.23,-93.38,21.7,18.3,130,6,,10.0,29.84941,1009.8,,,TRUE,TRUE,,,,,,BKN,12000,,,,,,,VFR,1.3,,,,,,,,,,,METAR,387.0
KREO 090252Z AUTO 28004KT 18/09 A2997 RMK AO1 SLP125 T01830094 55003,KREO,2023-06-09T02:52:00Z,42.58,-117.87,18.3,9.4,280,4,,,29.970472,1012.5,,TRUE,TRUE,,,,,,,,,,,,,,,,-0.3,,,,,,,,,,,METAR,1237.0
KRAP 090252Z 09005KT 10SM CLR 22/15 A2988 RMK AO2 SLP091 T02170150 53012,KRAP,2023-06-09T02:52:00Z,44.05,-103.05,21.7,15.0,90,5,,10.0,29.878937,1009.1,,,TRUE,,,,,,,CLR,,,,,,,,VFR,1.2,,,,,,,,,,,METAR,965.0
KPYM 090252Z AUTO 00000KT 10SM FEW095 12/10 A2972 RMK AO2 SLP065 T01170100 50006,KPYM,2023-06-09T02:52:00Z,41.92,-70.73,11.7,10.0,0,0,,10.0,29.719488,1006.5,,TRUE,TRUE,,,,,,,FEW,9500,,,,,,,VFR,0.6,,,,,,,,,,,METAR,42.0
KPWK 090252Z 00000KT 10SM CLR 14/06 A2994 RMK AO2 SLP137 T01440056 53006,KPWK,2023-06-09T02:52:00Z,42.12,-87.9,14.4,5.6,0,0,,10.0,29.940945,1013.7,,,TRUE,,,,,,,CLR,,,,,,,,VFR,0.6,,,,,,,,,,,METAR,194.0
KP69 090252Z AUTO 18/17 A2989 RMK AO1 SLP109 60015 T01780172 51004,KP69,2023-06-09T02:52:00Z,46.15,-115.6,17.8,17.2,,,,,29.890747,1010.9,,TRUE,TRUE,,,,,,,,,,,,,,,,0.4,,,,,,0.15,,,,,METAR,447.0
KORE 090252Z AUTO 00000KT 10SM SCT055 09/08 A2974 RMK AO2 SLP071 T00940083 50006,KORE,2023-06-09T02:52:00Z,42.57,-72.28,9.4,8.3,0,0,,10.0,29.740158,1007.1,,TRUE,TRUE,,,,,,,SCT,5500,,,,,,,VFR,0.6,,,,,,,,,,,METAR,165.0
KOMA 090252Z 12008KT 10SM FEW250 23/14 A2987 RMK AO2 SLP108 T02280139 51014,KOMA,2023-06-09T02:52:00Z,41.32,-95.9,22.8,13.9,120,8,,10.0,29.870079,1010.8,,,TRUE,,,,,,,FEW,25000,,,,,,,VFR,1.4,,,,,,,,,,,METAR,299.0
KOKC 090252Z 00000KT 10SM FEW150 SCT250 24/17 A2983 RMK AO2 SLP086 T02390172 51012,KOKC,2023-06-09T02:52:00Z,35.38,-97.6,23.9,17.2,0,0,,10.0,29.828741,1008.6,,,TRUE,,,,,,,FEW,15000,SCT,25000,,,,,VFR,1.2,,,,,,,,,,,METAR,391.0
KOKB 090252Z AUTO 28007KT 10SM FEW016 17/14 A3001 RMK AO2 SLP161 T01720139 53006,KOKB,2023-06-09T02:52:00Z,33.22,-117.35,17.2,13.9,280,7,,10.0,30.008858,1016.1,,TRUE,TRUE,,,,,,,FEW,1600,,,,,,,VFR,0.6,,,,,,,,,,,METAR,7.0
KNZY 090252Z 31009KT 10SM SCT018 SCT250 18/14 A3002 RMK AO2 SLP164 T01780139 53007,KNZY,2023-06-09T02:52:00Z,32.7,-117.22,17.8,13.9,310,9,,10.0,30.02067,1016.4,,,TRUE,,,,,,,SCT,1800,SCT,25000,,,,,VFR,0.7,,,,,,,,,,,METAR,4.0
KNRB 090252Z 24007KT 10SM SCT100 BKN250 29/22 A2977 RMK AO2 SLP079 T02890217 53020,KNRB,2023-06-09T02:52:00Z,30.38,-81.42,28.9,21.7,240,7,,10.0,29.769686,1007.9,,,TRUE,,,,,,,SCT,10000,BKN,25000,,,,,VFR,2.0,,,,,,,,,,,METAR,4.0
KNHK 090252Z 22007KT 7SM FEW110 17/14 A2977 RMK AO2 SLP081 T01720144 53016 $,KNHK,2023-06-09T02:52:00Z,38.28,-76.4,17.2,14.4,220,7,,7.0,29.769686,1008.1,,,TRUE,TRUE,,,,,,FEW,11000,,,,,,,VFR,1.6,,,,,,,,,,,METAR,5.0
KNFW 090252Z 16007KT 10SM SCT250 24/18 A2982 RMK AO2 SLP082 T02390183 50009 VISNO S $,KNFW,2023-06-09T02:52:00Z,32.78,-97.43,23.9,18.3,160,7,,10.0,29.819881,1008.2,,,TRUE,TRUE,,,,,,SCT,25000,,,,,,,VFR,0.9,,,,,,,,,,,METAR,188.0
KN60 090252Z AUTO 09010KT 22/17 A2988 RMK AO1 SLP105 T02220172 50019,KN60,2023-06-09T02:52:00Z,47.65,-101.43,22.2,17.2,90,10,,,29.878937,1010.5,,TRUE,TRUE,,,,,,,,,,,,,,,,1.9,,,,,,,,,,,METAR,582.0
KMWH 090252Z 14015KT 10SM OVC100 24/13 A2983 RMK AO2 SLP094 T02440133 53011,KMWH,2023-06-09T02:52:00Z,47.2,-119.32,24.4,13.3,140,15,,10.0,29.828741,1009.4,,,TRUE,,,,,,,OVC,10000,,,,,,,VFR,1.1,,,,,,,,,,,METAR,355.0
KMLI 090252Z 00000KT 10SM CLR 16/05 A2990 RMK AO2 SLP124 T01610050 53013,KMLI,2023-06-09T02:52:00Z,41.45,-90.52,16.1,5.0,0,0,,10.0,29.899607,1012.4,,,TRUE,,,,,,,CLR,,,,,,,,VFR,1.3,,,,,,,,,,,METAR,174.0
KMLF 090252Z AUTO 24007KT 10SM SCT110 19/M02 A3001 RMK AO2 SLP108 T01941017 53010,KMLF,2023-06-09T02:52:00Z,38.42,-113.02,19.4,-1.7,240,7,,10.0,30.008858,1010.8,,TRUE,TRUE,,,,,,,SCT,11000,,,,,,,VFR,1.0,,,,,,,,,,,METAR,1537.0
KMKE 090252Z 32003KT 10SM CLR 16/05 A2992 RMK AO2 SLP131 T01560050 53004,KMKE,2023-06-09T02:52:00Z,42.95,-87.9,15.6,5.0,320,3,,10.0,29.920275,1013.1,,,TRUE,,,,,,,CLR,,,,,,,,VFR,0.4,,,,,,,,,,,METAR,203.0
KMHK 090252Z 08005KT 10SM CLR 24/19 A2983 RMK AO2 SLP092 T02440194 53015,KMHK,2023-06-09T02:52:00Z,39.13,-96.68,24.4,19.4,80,5,,10.0,29.828741,1009.2,,,TRUE,,,,,,,CLR,,,,,,,,VFR,1.5,,,,,,,,,,,METAR,320.0
KMFD 090252Z AUTO 00000KT 10SM OVC100 16/05 A2986 RMK AO2 SLP106 T01610050 51009,KMFD,2023-06-09T02:52:00Z,40.82,-82.52,16.1,5.0,0,0,,10.0,29.861221,1010.6,,TRUE,TRUE,,,,,,,OVC,10000,,,,,,,VFR,0.9,,,,,,,,,,,METAR,394.0
KMEB 090252Z AUTO 00000KT 9SM CLR 16/11 A2981 RMK AO2 SLP091 T01610111 51017,KMEB,2023-06-09T02:52:00Z,34.78,-79.37,16.1,11.1,0,0,,9.0,29.811024,1009.1,,TRUE,TRUE,,,,,,,CLR,,,,,,,,VFR,1.7,,,,,,,,,,,METAR,65.0
KMDH 090252Z AUTO 00000KT 6SM HZ CLR 16/09 A2985 RMK AO2 SLP107 T01560094 53007,KMDH,2023-06-09T02:52:00Z,37.78,-89.25,15.6,9.4,0,0,,6.0,29.84941,1010.7,,TRUE,TRUE,,,,,,HZ,CLR,,,,,,,,VFR,0.7,,,,,,,,,,,METAR,122.0
KMBG 090252Z AUTO 07014KT 10SM CLR 25/14 A2982 RMK AO2 PK WND 06027/0213 LTG DSNT N SLP084 T02500139 50018,KMBG,2023-06-09T02:52:00Z,45.55,-100.42,25.0,13.9,70,14,,10.0,29.819881,1008.4,,TRUE,TRUE,,,,,,,CLR,,,,,,,,VFR,1.8,,,,,,,,,,,METAR,515.0
KLWC 090252Z AUTO 09004KT 9SM CLR 22/16 A2985 RMK AO1 SLP100 T02170161 53011,KLWC,2023-06-09T02:52:00Z,39.02,-95.22,21.7,16.1,90,4,,9.0,29.84941,1010.0,,TRUE,TRUE,,,,,,,CLR,,,,,,,,VFR,1.1,,,,,,,,,,,METAR,252.0
KIOW 090252Z AUTO 00000KT 10SM CLR 21/06 A2992 RMK AO2 SLP129 T02060061 53014,KIOW,2023-06-09T02:52:00Z,41.63,-91.55,20.6,6.1,0,0,,10.0,29.920275,1012.9,,TRUE,TRUE,,,,,,,CLR,,,,,,,,VFR,1.4,,,,,,,,,,,METAR,199.0
KIJD 090252Z AUTO 00000KT 7SM BKN044 BKN055 12/11 A2974 RMK AO2 SLP072 T01170106 51013,KIJD,2023-06-09T02:52:00Z,41.75,-72.18,11.7,10.6,0,0,,7.0,29.740158,1007.2,,TRUE,TRUE,,,,,,,BKN,4400,BKN,5500,,,,,VFR,1.3,,,,,,,,,,,METAR,73.0
KIAD 090252Z 34007KT 10SM BKN100 21/06 A2979 RMK AO2 SLP087 T02060061 51019,KIAD,2023-06-09T02:52:00Z,38.93,-77.45,20.6,6.1,340,7,,10.0,29.790354,1008.7,,,TRUE,,,,,,,BKN,10000,,,,,,,VFR,1.9,,,,,,,,,,,METAR,90.0
KHUT 090252Z 12003KT 10SM CLR 23/16 A2982 RMK AO2 SLP076 T02330161 51014,KHUT,2023-06-09T02:52:00Z,38.07,-97.87,23.3,16.1,120,3,,10.0,29.819881,1007.6,,,TRUE,,,,,,,CLR,,,,,,,,VFR,1.4,,,,,,,,,,,METAR,464.0
KHRL 090252Z 15007KT 10SM CLR 25/22 A2982 RMK AO2 SLP098 T02500222 52018,KHRL,2023-06-09T02:52:00Z,26.23,-97.65,25.0,22.2,150,7,,10.0,29.819881,1009.8,,,TRUE,,,,,,,CLR,,,,,,,,VFR,1.8,,,,,,,,,,,METAR,9.0
KGLS 090252Z AUTO 00000KT 10SM FEW100 24/22 A2986 RMK AO2 RAE52 SLP112 P0001 60071 T02390222 $,KGLS,2023-06-09T02:52:00Z,29.27,-94.87,23.9,22.2,0,0,,10.0,29.861221,1011.2,,TRUE,TRUE,TRUE,,,,,,FEW,10000,,,,,,,VFR,,,,,,0.01,0.71,,,,,METAR,2.0
KFIT 090252Z AUTO 00000KT 10SM SCT080 12/09 A2973 RMK AO2 SLP068 T01170089 51006,KFIT,2023-06-09T02:52:00Z,42.55,-71.75,11.7,8.9,0,0,,10.0,29.731298,1006.8,,TRUE,TRUE,,,,,,,SCT,8000,,,,,,,VFR,0.6,,,,,,,,,,,METAR,102.0
KEST 090252Z AUTO 19004KT 10SM CLR 19/14 A2992 RMK AO2 SLP126 T01940139 53011,KEST,2023-06-09T02:52:00Z,43.4,-94.75,19.4,13.9,190,4,,10.0,29.920275,1012.6,,TRUE,TRUE,,,,,,,CLR,,,,,,,,VFR,1.1,,,,,,,,,,,METAR,401.0
KDVN 090252Z AUTO 06006KT 10SM CLR 18/02 A2993 RMK AO2 SLP129 T01780017 53012,KDVN,2023-06-09T02:52:00Z,41.62,-90.58,17.8,1.7,60,6,,10.0,29.929134,1012.9,,TRUE,TRUE,,,,,,,CLR,,,,,,,,VFR,1.2,,,,,,,,,,,METAR,227.0
KDPA 090252Z 00000KT 10SM CLR 16/03 A2993 RMK AO2 SLP132 T01560028 51011,KDPA,2023-06-09T02:52:00Z,41.88,-88.25,15.6,2.8,0,0,,10.0,29.929134,1013.2,,,TRUE,,,,,,,CLR,,,,,,,,VFR,1.1,,,,,,,,,,,METAR,228.0
KDDC 090252Z AUTO 19005KT 8SM CLR 23/16 A2989 RMK AO2 SLP092 T02330156 51014,KDDC,2023-06-09T02:52:00Z,37.77,-99.97,23.3,15.6,190,5,,8.0,29.890747,1009.2,,TRUE,TRUE,,,,,,,CLR,,,,,,,,VFR,1.4,,,,,,,,,,,METAR,786.0
KDCA 090252Z 35013KT 6SM HZ BKN130 OVC250 21/07 A2979 RMK AO2 SLP086 T02110067 51019,KDCA,2023-06-09T02:52:00Z,38.85,-77.03,21.1,6.7,350,13,,6.0,29.790354,1008.6,,,TRUE,,,,,,HZ,BKN,13000,OVC,25000,,,,,VFR,1.9,,,,,,,,,,,METAR,4.0
KCVG 090252Z 27003KT 8SM CLR 16/06 A2986 RMK AO2 SLP104 T01560056 53012,KCVG,2023-06-09T02:52:00Z,39.05,-84.67,15.6,5.6,270,3,,8.0,29.861221,1010.4,,,TRUE,,,,,,,CLR,,,,,,,,VFR,1.2,,,,,,,,,,,METAR,264.0
KCQX 090252Z AUTO 00000KT 6SM HZ OVC085 17/12 A2973 RMK AO2 SLP067 T01720122 50003,KCQX,2023-06-09T02:52:00Z,41.68,-70.0,17.2,12.2,0,0,,6.0,29.731298,1006.7,,TRUE,TRUE,,,,,,HZ,OVC,8500,,,,,,,VFR,0.3,,,,,,,,,,,METAR,17.0
KCNU 090252Z AUTO 11007KT 10SM BKN100 25/19 A2982 RMK AO2 SLP086 T02500194 53015,KCNU,2023-06-09T02:52:00Z,37.67,-95.48,25.0,19.4,110,7,,10.0,29.819881,1008.6,,TRUE,TRUE,,,,,,,BKN,10000,,,,,,,VFR,1.5,,,,,,,,,,,METAR,301.0
KCLT 090252Z 35004KT 9SM BKN100 19/09 A2984 RMK AO2 SLP112 T01890089 52021,KCLT,2023-06-09T02:52:00Z,35.22,-80.95,18.9,8.9,350,4,,9.0,29.840551,1011.2,,,TRUE,,,,,,,BKN,10000,,,,,,,VFR,2.1,,,,,,,,,,,METAR,223.0
KCKV 090252Z AUTO 00000KT 10SM CLR 19/06 A2983 RMK AO2 SLP098 T01890061 53006,KCKV,2023-06-09T02:52:00Z,36.62,-87.42,18.9,6.1,0,0,,10.0,29.828741,1009.8,,TRUE,TRUE,,,,,,,CLR,,,,,,,,VFR,0.6,,,,,,,,,,,METAR,166.0
KCID 090252Z 09007KT 10SM CLR 18/06 A2990 RMK AO2 SLP122 T01830061 53013,KCID,2023-06-09T02:52:00Z,41.88,-91.72,18.3,6.1,90,7,,10.0,29.899607,1012.2,,,TRUE,,,,,,,CLR,,,,,,,,VFR,1.3,,,,,,,,,,,METAR,257.0
KBML 090252Z AUTO 00000KT 10SM OVC002 10/09 A2973 RMK AO2 SLP071 60008 T01000094 51006,KBML,2023-06-09T02:52:00Z,44.58,-71.18,10.0,9.4,0,0,,10.0,29.731298,1007.1,,TRUE,TRUE,,,,,,,OVC,200,,,,,,,LIFR,0.6,,,,,,0.08,,,,,METAR,344.0
KBLU 090252Z AUTO 00000KT 10SM BKN013 OVC032 12/09 A3015 RMK AO2 SLP164 T01220094 53005,KBLU,2023-06-09T02:52:00Z,39.28,-120.7,12.2,9.4,0,0,,10.0,30.15059,1016.4,,TRUE,TRUE,,,,,,,BKN,1300,OVC,3200,,,,,MVFR,0.5,,,,,,,,,,,METAR,1605.0
KBLH 090252Z AUTO 22007KT 10SM CLR 32/03 A2981 RMK AO2 SLP089 T03220028 53001,KBLH,2023-06-09T02:52:00Z,33.62,-114.72,32.2,2.8,220,7,,10.0,29.811024,1008.9,,TRUE,TRUE,,,,,,,CLR,,,,,,,,VFR,0.1,,,,,,,,,,,METAR,119.0
KBLF 090252Z AUTO 26003KT 10SM CLR 11/02 A2992 RMK AO2 SLP116 T01060022 53013,KBLF,2023-06-09T02:52:00Z,37.3,-81.2,10.6,2.2,260,3,,10.0,29.920275,1011.6,,TRUE,TRUE,,,,,,,CLR,,,,,,,,VFR,1.3,,,,,,,,,,,METAR,871.0
KBKB 090252Z AUTO 00000KT 10SM CLR 23/19 A2980 RMK AO2 SLP117 T02330189 51018,KBKB,2023-06-09T02:52:00Z,31.02,-92.92,23.3,18.9,0,0,,10.0,29.799213,1011.7,,TRUE,TRUE,,,,,,,CLR,,,,,,,,VFR,1.8,,,,,,,,,,,METAR,74.0
KBIS 090252Z 02006KT 10SM FEW100 21/17 A2986 RMK AO2 RAE20 SLP104 P0000 60000 T02110172 51009 $,KBIS,2023-06-09T02:52:00Z,46.77,-100.75,21.1,17.2,20,6,,10.0,29.861221,1010.4,,,TRUE,TRUE,,,,,,FEW,10000,,,,,,,VFR,0.9,,,,,0.005,0.005,,,,,METAR,506.0
KBDR 090252Z AUTO 31003KT 9SM SCT100 15/11 A2973 RMK AO2 SLP067 T01500106 50009,KBDR,2023-06-09T02:52:00Z,41.17,-73.13,15.0,10.6,310,3,,9.0,29.731298,1006.7,,TRUE,TRUE,,,,,,,SCT,10000,,,,,,,VFR,0.9,,,,,,,,,,,METAR,5.0
KBAN 090252Z AUTO 07004KT 10SM SCT120 11/04 A3014 RMK AO2 RAB04E16 SLP167 P0000 60000 T01110039 56002 $,KBAN,2023-06-09T02:52:00Z,38.35,-119.52,11.1,3.9,70,4,,10.0,30.138779,1016.7,,TRUE,TRUE,TRUE,,,,,,SCT,12000,,,,,,,VFR,-0.2,,,,,0.005,0.005,,,,,METAR,2067.0
KATL 090252Z 03007KT 10SM FEW250 24/08 A2982 RMK AO2 SLP090 T02390078 53016,KATL,2023-06-09T02:52:00Z,33.63,-84.45,23.9,7.8,30,7,,10.0,29.819881,1009.0,,,TRUE,,,,,,,FEW,25000,,,,,,,VFR,1.6,,,,,,,,,,,METAR,309.0
KARR 090252Z AUTO 05007KT 9SM CLR 14/02 A2992 RMK AO2 SLP131 T01440022 53013,KARR,2023-06-09T02:52:00Z,41.77,-88.48,14.4,2.2,50,7,,9.0,29.920275,1013.1,,TRUE,TRUE,,,,,,,CLR,,,,,,,,VFR,1.3,,,,,,,,,,,METAR,213.0
KALS 090252Z AUTO 27007KT 10SM CLR 16/M01 A3015 RMK AO2 SLP128 T01561006 53009,KALS,2023-06-09T02:52:00Z,37.43,-105.87,15.6,-0.6,270,7,,10.0,30.15059,1012.8,,TRUE,TRUE,,,,,,,CLR,,,,,,,,VFR,0.9,,,,,,,,,,,METAR,2299.0
KAFN 090252Z AUTO 00000KT 10SM SCT001 OVC050 10/09 A2973 RMK AO2 SLP075 T01000089 50007,KAFN,2023-06-09T02:52:00Z,42.8,-72.0,10.0,8.9,0,0,,10.0,29.731298,1007.5,,TRUE,TRUE,,,,,,,SCT,100,OVC,5000,,,,,VFR,0.7,,,,,,,,,,,METAR,308.0
KABQ 090252Z 18005KT 10SM FEW130 SCT250 27/M07 A3003 RMK AO2 SLP084 T02671067 53004,KABQ,2023-06-09T02:52:00Z,35.05,-106.62,26.7,-6.7,180,5,,10.0,30.029528,1008.4,,,TRUE,,,,,,,FEW,13000,SCT,25000,,,,,VFR,0.4,,,,,,,,,,,METAR,1620.0
KABI 090252Z 11005KT 10SM CLR 26/19 A2989 RMK AO2 SLP096 T02610189 52016 PNO $,KABI,2023-06-09T02:52:00Z,32.42,-99.68,26.1,18.9,110,5,,10.0,29.890747,1009.6,,,TRUE,TRUE,,,,,,CLR,,,,,,,,VFR,1.6,,,,,,,,,,,METAR,543.0
YPPH 090251Z AUTO 02009KT 9999 // SCT006 SCT023 BKN030 15/14 Q1021,YPPH,2023-06-09T02:51:00Z,-31.93,115.98,15.0,14.0,20,9,,6.21,30.147638,,,TRUE,,,,,,,,SCT,600,SCT,2300,BKN,3000,,,MVFR,,,,,,,,,,,,METAR,16.0
PKMR 090251Z 06009KT 15SM FEW015 SCT050 OVC300 31/25 A2975 RMK SLP076 8/808 T03070249 57010,PKMR,2023-06-09T02:51:00Z,7.08,171.38,30.7,24.9,60,9,,15.0,29.749016,1007.6,,,,,,,,,,FEW,1500,SCT,5000,OVC,30000,,,VFR,-1.0,,,,,,,,,,,SPECI,7.0
PHBK 090251Z AUTO 31010KT 10SM CLR 28/20 A3002 RMK AO2 SLP169 T02830200 56009,PHBK,2023-06-09T02:51:00Z,22.03,-159.78,28.3,20.0,310,10,,10.0,30.02067,1016.9,,TRUE,TRUE,,,,,,,CLR,,,,,,,,VFR,-0.9,,,,,,,,,,,SPECI,5.0
MUGM 090251Z 10010KT 10SM FEW150 BKN250 29/27 A2997 RMK AO2 SLP147 T02940267 51016 $,MUGM,2023-06-09T02:51:00Z,19.9,-75.2,29.4,26.7,100,10,,10.0,29.970472,1014.7,,,TRUE,TRUE,,,,,,FEW,15000,BKN,25000,,,,,VFR,1.6,,,,,,,,,,,METAR,21.0
MMIO 090251Z 02008KT 10SM SKC 24/09 A3008 RMK SC,MMIO,2023-06-09T02:51:00Z,25.55,-100.93,24.0,9.0,20,8,,10.0,30.079725,,,,,,,,,,,SKC,,,,,,,,VFR,,,,,,,,,,,,SPECI,1430.0
KYNG 090251Z 28004KT 10SM SCT100 OVC120 15/06 A2984 RMK AO2 SLP101 T01500056 51006,KYNG,2023-06-09T02:51:00Z,41.25,-80.67,15.0,5.6,280,4,,10.0,29.840551,1010.1,,,TRUE,,,,,,,SCT,10000,OVC,12000,,,,,VFR,0.6,,,,,,,,,,,METAR,356.0
KXWA 090251Z AUTO 08010KT 10SM CLR 22/16 A2991 RMK AO2 LTG DSNT SW SLP121 T02220161 51014,KXWA,2023-06-09T02:51:00Z,48.27,-103.75,22.2,16.1,80,10,,10.0,29.911417,1012.1,,TRUE,TRUE,,,,,,,CLR,,,,,,,,VFR,1.4,,,,,,,,,,,METAR,717.0
KVNY 090251Z 00000KT 10SM CLR 19/12 A2999 RMK AO2 SLP149 T01940122 53008,KVNY,2023-06-09T02:51:00Z,34.22,-118.48,19.4,12.2,0,0,,10.0,29.991142,1014.9,,,TRUE,,,,,,,CLR,,,,,,,,VFR,0.8,,,,,,,,,,,METAR,241.0
KVCT 090251Z AUTO 15005KT 10SM CLR 26/21 A2984 RMK AO2 SLP104 T02560211 53019,KVCT,2023-06-09T02:51:00Z,28.87,-96.93,25.6,21.1,150,5,,10.0,29.840551,1010.4,,TRUE,TRUE,,,,,,,CLR,,,,,,,,VFR,1.9,,,,,,,,,,,METAR,33.0
KUGN 090251Z AUTO 00000KT 10SM CLR 12/04 A2992 RMK AO2 SLP130 T01170039 53004,KUGN,2023-06-09T02:51:00Z,42.42,-87.87,11.7,3.9,0,0,,10.0,29.920275,1013.0,,TRUE,TRUE,,,,,,,CLR,,,,,,,,VFR,0.4,,,,,,,,,,,METAR,217.0
KTPL 090251Z AUTO 14007KT CLR 23/21 A2985 RMK AO2 SLP096 T02330206 51012 PWINO RVRNO $,KTPL,2023-06-09T02:51:00Z,31.15,-97.4,23.3,20.6,140,7,,,29.84941,1009.6,,TRUE,TRUE,TRUE,,,,TRUE,,CLR,,,,,,,,,1.2,,,,,,,,,,,METAR,206.0
KTEB 090251Z 31005KT 8SM BKN095 16/08 A2973 RMK AO2 SLP068 T01610083 50010,KTEB,2023-06-09T02:51:00Z,40.87,-74.05,16.1,8.3,310,5,,8.0,29.731298,1006.8,,,TRUE,,,,,,,BKN,9500,,,,,,,VFR,1.0,,,,,,,,,,,METAR,3.0
KSTL 090251Z 00000KT 10SM FEW250 19/08 A2988 RMK AO2 SLP110 T01940083 53008,KSTL,2023-06-09T02:51:00Z,38.75,-90.37,19.4,8.3,0,0,,10.0,29.878937,1011.0,,,TRUE,,,,,,,FEW,25000,,,,,,,VFR,0.8,,,,,,,,,,,METAR,163.0
KSNT 090251Z AUTO 15012G24KT 11/05 A3012 RMK AO1 PK WND 13033/0155 SLP130 T01060050 53033,KSNT,2023-06-09T02:51:00Z,44.17,-114.93,10.6,5.0,150,12,24,,30.121063,1013.0,,TRUE,TRUE,,,,,,,,,,,,,,,,3.3,,,,,,,,,,,METAR,1980.0
KSMX 090251Z 30010KT 8SM CLR 15/12 A3003 RMK AO2 SLP172 T01500122 53006,KSMX,2023-06-09T02:51:00Z,34.9,-120.45,15.0,12.2,300,10,,8.0,30.029528,1017.2,,,TRUE,,,,,,,CLR,,,,,,,,VFR,0.6,,,,,,,,,,,METAR,73.0
KSMO 090251Z 24009KT 10SM CLR 17/13 A3001 RMK AO2 SLP161 T01670128 53002,KSMO,2023-06-09T02:51:00Z,34.02,-118.45,16.7,12.8,240,9,,10.0,30.008858,1016.1,,,TRUE,,,,,,,CLR,,,,,,,,VFR,0.2,,,,,,,,,,,METAR,56.0
KSJT 090251Z AUTO 08006KT 10SM CLR 26/17 A2988 RMK AO2 SLP094 T02610172 53016,KSJT,2023-06-09T02:51:00Z,31.37,-100.5,26.1,17.2,80,6,,10.0,29.878937,1009.4,,TRUE,TRUE,,,,,,,CLR,,,,,,,,VFR,1.6,,,,,,,,,,,METAR,582.0
KSDB 090251Z AUTO VRB06KT 10SM OVC020 15/09 A3009 RMK AO2 SLP151 T01500089 53005,KSDB,2023-06-09T02:51:00Z,34.75,-118.72,15.0,8.9,0,6,,10.0,30.088583,1015.1,,TRUE,TRUE,,,,,,,OVC,2000,,,,,,,MVFR,0.5,,,,,,,,,,,METAR,1377.0
KSAT 090251Z 08005KT 10SM FEW050 FEW250 27/21 A2986 RMK AO2 SLP091 T02670206 53018,KSAT,2023-06-09T02:51:00Z,29.53,-98.48,26.7,20.6,80,5,,10.0,29.861221,1009.1,,,TRUE,,,,,,,FEW,5000,FEW,25000,,,,,VFR,1.8,,,,,,,,,,,METAR,246.0
KSAD 090251Z AUTO 30015G24KT 10SM CLR 29/00 A2992 RMK AO2 SLP079 T02890000 53008,KSAD,2023-06-09T02:51:00Z,32.85,-109.63,28.9,0.0,300,15,24,10.0,29.920275,1007.9,,TRUE,TRUE,,,,,,,CLR,,,,,,,,VFR,0.8,,,,,,,,,,,METAR,937.0
KROW 090251Z 01006KT 10SM CLR 28/07 A2990 RMK AO2 SLP061 T02780072 53008,KROW,2023-06-09T02:51:00Z,33.3,-104.5,27.8,7.2,10,6,,10.0,29.899607,1006.1,,,TRUE,,,,,,,CLR,,,,,,,,VFR,0.8,,,,,,,,,,,METAR,1105.0
KRDU 090251Z 00000KT 6SM HZ CLR 17/10 A2981 RMK AO2 SLP091 T01670100 53018,KRDU,2023-06-09T02:51:00Z,35.9,-78.78,16.7,10.0,0,0,,6.0,29.811024,1009.1,,,TRUE,,,,,,HZ,CLR,,,,,,,,VFR,1.8,,,,,,,,,,,METAR,121.0
KPWM 090251Z 09004KT 10SM FEW015 SCT060 BKN070 12/11 A2974 RMK AO2 SLP070 T01170111 51008,KPWM,2023-06-09T02:51:00Z,43.65,-70.3,11.7,11.1,90,4,,10.0,29.740158,1007.0,,,TRUE,,,,,,,FEW,1500,SCT,6000,BKN,7000,,,VFR,0.8,,,,,,,,,,,METAR,15.0
KPVD 090251Z 28003KT 7SM FEW050 BKN065 13/11 A2973 RMK AO2 SLP068 T01330111 51009,KPVD,2023-06-09T02:51:00Z,41.72,-71.43,13.3,11.1,280,3,,7.0,29.731298,1006.8,,,TRUE,,,,,,,FEW,5000,BKN,6500,,,,,VFR,0.9,,,,,,,,,,,METAR,15.0
KPIT 090251Z 36003KT 10SM BKN090 OVC130 17/06 A2983 RMK AO2 SLP105 T01670056 52009,KPIT,2023-06-09T02:51:00Z,40.47,-80.2,16.7,5.6,360,3,,10.0,29.828741,1010.5,,,TRUE,,,,,,,BKN,9000,OVC,13000,,,,,VFR,0.9,,,,,,,,,,,METAR,339.0
KPHX 090251Z 30010KT 10SM FEW180 BKN220 BKN250 33/M05 A2984 RMK AO2 SLP086 T03281050 55000,KPHX,2023-06-09T02:51:00Z,33.43,-112.02,32.8,-5.0,300,10,,10.0,29.840551,1008.6,,,TRUE,,,,,,,FEW,18000,BKN,22000,BKN,25000,,,VFR,0.0,,,,,,,,,,,METAR,338.0
KP59 090251Z AUTO 00000KT 08/04 A2993 RMK AO1 SLP139 T00830044 55001,KP59,2023-06-09T02:51:00Z,47.47,-87.88,8.3,4.4,0,0,,,29.929134,1013.9,,TRUE,TRUE,,,,,,,,,,,,,,,,-0.1,,,,,,,,,,,METAR,185.0
KOXR 090251Z 29013KT 10SM BKN023 17/13 A3001 RMK AO2 SLP160 T01720133 55000,KOXR,2023-06-09T02:51:00Z,34.2,-119.2,17.2,13.3,290,13,,10.0,30.008858,1016.0,,,TRUE,,,,,,,BKN,2300,,,,,,,MVFR,0.0,,,,,,,,,,,METAR,12.0
KOXC 090251Z AUTO 00000KT 10SM FU BKN090 11/09 A2975 RMK AO2 SLP086 T01060089 51010,KOXC,2023-06-09T02:51:00Z,41.47,-73.13,10.6,8.9,0,0,,10.0,29.749016,1008.6,,TRUE,TRUE,,,,,,FU,BKN,9000,,,,,,,VFR,1.0,,,,,,,,,,,METAR,211.0
KORF 090251Z 00000KT 6SM BR CLR 15/13 A2978 RMK AO2 SLP084 T01500133 51014,KORF,2023-06-09T02:51:00Z,36.9,-76.2,15.0,13.3,0,0,,6.0,29.778543,1008.4,,,TRUE,,,,,,BR,CLR,,,,,,,,VFR,1.4,,,,,,,,,,,METAR,5.0
KORD 090251Z 34004KT 10SM CLR 17/03 A2992 RMK AO2 SLP127 T01670033 51005,KORD,2023-06-09T02:51:00Z,41.95,-87.93,16.7,3.3,340,4,,10.0,29.920275,1012.7,,,TRUE,,,,,,,CLR,,,,,,,,VFR,0.5,,,,,,,,,,,METAR,202.0
KOCF 090251Z AUTO 23005KT 10SM CLR 23/21 A2983 RMK AO2 SLP100 T02280206 51019 $,KOCF,2023-06-09T02:51:00Z,29.17,-82.22,22.8,20.6,230,5,,10.0,29.828741,1010.0,,TRUE,TRUE,TRUE,,,,,,CLR,,,,,,,,VFR,1.9,,,,,,,,,,,METAR,24.0
KNYC 090251Z AUTO 00000KT 8SM OVC100 17/07 A2977 RMK AO2 SLP072 T01720072 51010 $,KNYC,2023-06-09T02:51:00Z,40.78,-73.97,17.2,7.2,0,0,,8.0,29.769686,1007.2,,TRUE,TRUE,TRUE,,,,,,OVC,10000,,,,,,,VFR,1.0,,,,,,,,,,,METAR,33.0
KNBT 090251Z AUTO 04007KT 10SM BKN085 23/18 A2978 RMK AO2 SLP089 T02280178 51026,KNBT,2023-06-09T02:51:00Z,35.02,-76.47,22.8,17.8,40,7,,10.0,29.778543,1008.9,,TRUE,TRUE,,,,,,,BKN,8500,,,,,,,VFR,2.6,,,,,,,,,,,METAR,5.0
KMYL 090251Z AUTO 28005KT 10SM -RA BKN043 OVC075 15/12 A2999 RMK AO2 LTG DSNT S RAB27 SLP128 P0000 60000 T01500122 53006,KMYL,2023-06-09T02:51:00Z,44.9,-116.1,15.0,12.2,280,5,,10.0,29.991142,1012.8,,TRUE,TRUE,,,,,,-RA,BKN,4300,OVC,7500,,,,,VFR,0.6,,,,,0.005,0.005,,,,,METAR,1532.0
KLGU 090251Z AUTO 32006KT 10SM CLR 15/11 A3003 RMK AO2 SLP133 T01500106 53005,KLGU,2023-06-09T02:51:00Z,41.78,-111.85,15.0,10.6,320,6,,10.0,30.029528,1013.3,,TRUE,TRUE,,,,,,,CLR,,,,,,,,VFR,0.5,,,,,,,,,,,METAR,1359.0
KLGA 090251Z 34006KT 10SM BKN100 BKN250 18/08 A2973 RMK AO2 SLP069 T01830078 50008,KLGA,2023-06-09T02:51:00Z,40.78,-73.88,18.3,7.8,340,6,,10.0,29.731298,1006.9,,,TRUE,,,,,,,BKN,10000,BKN,25000,,,,,VFR,0.8,,,,,,,,,,,METAR,9.0
KJFK 090251Z 11003KT 5SM FU HZ FEW043 BKN160 16/10 A2975 RMK AO2 SLP073 T01610100 51009,KJFK,2023-06-09T02:51:00Z,40.63,-73.77,16.1,10.0,110,3,,5.0,29.749016,1007.3,,,TRUE,,,,,,FU HZ,FEW,4300,BKN,16000,,,,,MVFR,0.9,,,,,,,,,,,METAR,3.0
KJCT 090251Z AUTO 08006KT 10SM CLR 28/19 A2989 RMK AO2 SLP081 T02780194 53020,KJCT,2023-06-09T02:51:00Z,30.5,-99.77,27.8,19.4,80,6,,10.0,29.890747,1008.1,,TRUE,TRUE,,,,,,,CLR,,,,,,,,VFR,2.0,,,,,,,,,,,METAR,522.0
KILG 090251Z AUTO 31004KT 10SM FU OVC095 18/07 A2977 RMK AO2 SLP080 T01780072 51014,KILG,2023-06-09T02:51:00Z,39.67,-75.6,17.8,7.2,310,4,,10.0,29.769686,1008.0,,TRUE,TRUE,,,,,,FU,OVC,9500,,,,,,,VFR,1.4,,,,,,,,,,,METAR,22.0
KIGM 090251Z AUTO 23012KT 10SM CLR 24/01 A2999 RMK AO2 SLP087 T02390006 53005,KIGM,2023-06-09T02:51:00Z,35.25,-113.93,23.9,0.6,230,12,,10.0,29.991142,1008.7,,TRUE,TRUE,,,,,,,CLR,,,,,,,,VFR,0.5,,,,,,,,,,,METAR,1045.0
KHTS 090251Z 00000KT 10SM CLR 14/07 A2986 RMK AO2 SLP108 T01440067 53013,KHTS,2023-06-09T02:51:00Z,38.37,-82.55,14.4,6.7,0,0,,10.0,29.861221,1010.8,,,TRUE,,,,,,,CLR,,,,,,,,VFR,1.3,,,,,,,,,,,METAR,252.0
KHSE 090251Z AUTO VRB03KT 8SM FEW060 FEW070 SCT110 19/17 A2978 RMK AO2 SLP084 T01890172 53027,KHSE,2023-06-09T02:51:00Z,35.23,-75.62,18.9,17.2,0,3,,8.0,29.778543,1008.4,,TRUE,TRUE,,,,,,,FEW,6000,FEW,7000,SCT,11000,,,VFR,2.7,,,,,,,,,,,METAR,4.0
KHDO 090251Z AUTO 09005KT 10SM CLR 27/22 A2984 RMK AO2 SLP089 T02670217 53018,KHDO,2023-06-09T02:51:00Z,29.37,-99.17,26.7,21.7,90,5,,10.0,29.840551,1008.9,,TRUE,TRUE,,,,,,,CLR,,,,,,,,VFR,1.8,,,,,,,,,,,METAR,280.0
KGDP 090251Z AUTO 25016KT 8SM CLR 24/M04 RMK AO2 SLPNO T02441039 $,KGDP,2023-06-09T02:51:00Z,31.83,-104.82,24.4,-3.9,250,16,,8.0,,,,TRUE,TRUE,TRUE,,,,,,CLR,,,,,,,,VFR,,,,,,,,,,,,METAR,1664.0
KEWR 090251Z 32008KT 10SM FEW070 SCT100 BKN140 19/08 A2974 RMK AO2 SLP071 T01890078 51012,KEWR,2023-06-09T02:51:00Z,40.68,-74.17,18.9,7.8,320,8,,10.0,29.740158,1007.1,,,TRUE,,,,,,,FEW,7000,SCT,10000,BKN,14000,,,VFR,1.2,,,,,,,,,,,METAR,2.0
KERI 090251Z 00000KT 9SM FEW075 OVC110 15/11 A2982 RMK AO2 SLP098 60000 T01500106 51006,KERI,2023-06-09T02:51:00Z,42.08,-80.18,15.0,10.6,0,0,,9.0,29.819881,1009.8,,,TRUE,,,,,,,FEW,7500,OVC,11000,,,,,VFR,0.6,,,,,,0.005,,,,,METAR,222.0
KELP 090251Z 25007KT 10SM FEW140 FEW200 FEW250 31/M06 A2996 RMK AO2 SLP064 T03061061 53008,KELP,2023-06-09T02:51:00Z,31.82,-106.35,30.6,-6.1,250,7,,10.0,29.958662,1006.4,,,TRUE,,,,,,,FEW,14000,FEW,20000,FEW,25000,,,VFR,0.8,,,,,,,,,,,METAR,1205.0
KEKN 090251Z AUTO 00000KT 10SM OVC100 12/07 A2987 RMK AO2 SLP115 60000 T01220067 51009,KEKN,2023-06-09T02:51:00Z,38.88,-79.85,12.2,6.7,0,0,,10.0,29.870079,1011.5,,TRUE,TRUE,,,,,,,OVC,10000,,,,,,,VFR,0.9,,,,,,0.005,,,,,METAR,596.0
KCSG 090251Z AUTO 00000KT 10SM FEW070 26/16 A2978 RMK AO2 SLP079 T02610161 51021,KCSG,2023-06-09T02:51:00Z,32.52,-84.95,26.1,16.1,0,0,,10.0,29.778543,1007.9,,TRUE,TRUE,,,,,,,FEW,7000,,,,,,,VFR,2.1,,,,,,,,,,,METAR,120.0
KCRP 090251Z 16006KT 10SM FEW035 FEW060 FEW250 26/23 A2982 RMK AO2 SLP095 T02610233 53016,KCRP,2023-06-09T02:51:00Z,27.77,-97.5,26.1,23.3,160,6,,10.0,29.819881,1009.5,,,TRUE,,,,,,,FEW,3500,FEW,6000,FEW,25000,,,VFR,1.6,,,,,,,,,,,METAR,11.0
KCON 090251Z AUTO 00000KT 10SM CLR 10/09 A2972 RMK AO2 SLP067 T01000094 51007,KCON,2023-06-09T02:51:00Z,43.2,-71.5,10.0,9.4,0,0,,10.0,29.719488,1006.7,,TRUE,TRUE,,,,,,,CLR,,,,,,,,VFR,0.7,,,,,,,,,,,METAR,102.0
KCMH 090251Z 12003KT 9SM OVC100 18/07 A2984 RMK AO2 SLP101 T01780067 51011,KCMH,2023-06-09T02:51:00Z,40.0,-82.88,17.8,6.7,120,3,,9.0,29.840551,1010.1,,,TRUE,,,,,,,OVC,10000,,,,,,,VFR,1.1,,,,,,,,,,,METAR,257.0
KCLE 090251Z 02004KT 9SM SCT095 OVC120 17/08 A2984 RMK AO2 SLP116 T01720078 53009,KCLE,2023-06-09T02:51:00Z,41.42,-81.85,17.2,7.8,20,4,,9.0,29.840551,1011.6,,,TRUE,,,,,,,SCT,9500,OVC,12000,,,,,VFR,0.9,,,,,,,,,,,METAR,237.0
KCDJ 090251Z AUTO 00000KT 18/13 A2990 RMK AO1 SLP115 T01780133 53008,KCDJ,2023-06-09T02:51:00Z,39.82,-93.57,17.8,13.3,0,0,,,29.899607,1011.5,,TRUE,TRUE,,,,,,,,,,,,,,,,0.8,,,,,,,,,,,METAR,234.0
KCAK 090251Z 34003KT 9SM OVC120 15/04 A2985 RMK AO2 SLP105 T01500044 51007,KCAK,2023-06-09T02:51:00Z,40.92,-81.45,15.0,4.4,340,3,,9.0,29.84941,1010.5,,,TRUE,,,,,,,OVC,12000,,,,,,,VFR,0.7,,,,,,,,,,,METAR,369.0
KBKW 090251Z AUTO 17004KT 9SM CLR 10/04 A2991 RMK AO2 SLP117 T01000039 53013,KBKW,2023-06-09T02:51:00Z,37.8,-81.12,10.0,3.9,170,4,,9.0,29.911417,1011.7,,TRUE,TRUE,,,,,,,CLR,,,,,,,,VFR,1.3,,,,,,,,,,,METAR,762.0
KBHK 090251Z AUTO 09006KT 10SM CLR 21/13 A2988 RMK AO2 SLP095 T02060133 58007,KBHK,2023-06-09T02:51:00Z,46.35,-104.25,20.6,13.3,90,6,,10.0,29.878937,1009.5,,TRUE,TRUE,,,,,,,CLR,,,,,,,,VFR,-0.7,,,,,,,,,,,METAR,904.0
KBGD 090251Z AUTO 00000KT 10SM CLR 26/14 A2994 RMK AO2 SLP100 T02610139 53011,KBGD,2023-06-09T02:51:00Z,35.7,-101.4,26.1,13.9,0,0,,10.0,29.940945,1010.0,,TRUE,TRUE,,,,,,,CLR,,,,,,,,VFR,1.1,,,,,,,,,,,METAR,928.0
KBED 090251Z 00000KT 10SM R11/3000VP6000FT MIFG FEW080 11/11 A2971 RMK AO2 SLP074 T01110111 51007,KBED,2023-06-09T02:51:00Z,42.47,-71.3,11.1,11.1,0,0,,10.0,29.71063,1007.4,,,TRUE,,,,,,MIFG,FEW,8000,,,,,,,VFR,0.7,,,,,,,,,,,METAR,39.0
KBDL 090251Z 00000KT 8SM FEW120 12/10 A2973 RMK AO2 VIS 1/4 RWY 6-24 SLP066 60000 T01220100 50007,KBDL,2023-06-09T02:51:00Z,41.93,-72.68,12.2,10.0,0,0,,8.0,29.731298,1006.6,,,TRUE,,,,,,,FEW,12000,,,,,,,VFR,0.7,,,,,,0.005,,,,,METAR,52.0
KBAZ 090251Z AUTO 00000KT 10SM CLR 26/22 A2984 RMK AO2 SLP094 T02560222 53016,KBAZ,2023-06-09T02:51:00Z,29.72,-98.05,25.6,22.2,0,0,,10.0,29.840551,1009.4,,TRUE,TRUE,,,,,,,CLR,,,,,,,,VFR,1.6,,,,,,,,,,,METAR,199.0
KAVX 090251Z AUTO 25011KT 10SM BKN003 13/11 A3003 RMK AO2 SLP164 T01280111 53003 $,KAVX,2023-06-09T02:51:00Z,33.4,-118.42,12.8,11.1,250,11,,10.0,30.029528,1016.4,,TRUE,TRUE,TRUE,,,,,,BKN,300,,,,,,,LIFR,0.3,,,,,,,,,,,METAR,482.0
KATT 090251Z AUTO 13003KT 10SM CLR 26/21 A2986 RMK AO2 SLP097 T02610206 51015,KATT,2023-06-09T02:51:00Z,30.32,-97.77,26.1,20.6,130,3,,10.0,29.861221,1009.7,,TRUE,TRUE,,,,,,,CLR,,,,,,,,VFR,1.5,,,,,,,,,,,METAR,203.0
KALB 090251Z 00000KT 10SM -RA FEW034 BKN080 BKN110 13/09 A2976 RMK AO2 RAB48 SLP076 P0000 60000 T01280094 51008,KALB,2023-06-09T02:51:00Z,42.75,-73.8,12.8,9.4,0,0,,10.0,29.760826,1007.6,,,TRUE,,,,,,-RA,FEW,3400,BKN,8000,BKN,11000,,,VFR,0.8,,,,,0.005,0.005,,,,,METAR,82.0
KAHN 090251Z AUTO 32005KT 10SM CLR 20/08 A2981 RMK AO2 SLP090 T02000083 51021,KAHN,2023-06-09T02:51:00Z,33.95,-83.33,20.0,8.3,320,5,,10.0,29.811024,1009.0,,TRUE,TRUE,,,,,,,CLR,,,,,,,,VFR,2.1,,,,,,,,,,,METAR,241.0
KACT 090251Z 00000KT 8SM CLR 21/21 A2983 RMK AO2 RAB08E33 SLP093 P0000 60001 T02060206 56003,KACT,2023-06-09T02:51:00Z,31.62,-97.23,20.6,20.6,0,0,,8.0,29.828741,1009.3,,,TRUE,,,,,,,CLR,,,,,,,,VFR,-0.3,,,,,0.005,0.01,,,,,METAR,150.0
KABE 090251Z 32005KT 10SM FU FEW095 15/07 A2977 RMK AO2 SLP079 T01500072 53012,KABE,2023-06-09T02:51:00Z,40.65,-75.45,15.0,7.2,320,5,,10.0,29.769686,1007.9,,,TRUE,,,,,,FU,FEW,9500,,,,,,,VFR,1.2,,,,,,,,,,,METAR,117.0
K6R6 090251Z AUTO 10005KT 27/14 A2992 RMK AO1 SLP095 T02670144 53001,K6R6,2023-06-09T02:51:00Z,30.05,-102.22,26.7,14.4,100,5,,,29.920275,1009.5,,TRUE,TRUE,,,,,,,,,,,,,,,,0.1,,,,,,,,,,,METAR,702.0
PTRO 090250Z 16007KT 14SM SCT015CB BKN130 BKN300 27/24 A2978 RMK CB E-SE,PTRO,2023-06-09T02:50:00Z,7.37,134.55,27.0,24.0,160,7,,14.0,29.778543,,,,,,,,,,,SCT,1500,BKN,13000,BKN,30000,,,VFR,,,,,,,,,,,,SPECI,30.0
PGWT 090250Z 08010KT 7SM BKN016 30/24,PGWT,2023-06-09T02:50:00Z,14.98,145.62,30.0,24.0,80,10,,7.0,,,,,,,,,,,,BKN,1600,,,,,,,MVFR,,,,,,,,,,,,METAR,84.0
PGRO 090250Z 06008KT 7SM BKN011 BKN100 29/23 A2974,PGRO,2023-06-09T02:50:00Z,14.18,145.25,29.0,23.0,60,8,,7.0,29.740158,,,,,,,,,,,BKN,1100,BKN,10000,,,,,MVFR,,,,,,,,,,,,METAR,181.0
OOSA 090250Z 01004KT CAVOK 29/25 Q1006 NOSI90304 LOWMYZYA SAFR32 LFPW 090300 RRA METAR ,OOSA,2023-06-09T02:50:00Z,17.03,54.1,29.0,25.0,10,4,,6.21,29.704725,,,,,,,,,,RA SA,CAVOK,,,,,,,,VFR,,,,,,,,,,,,METAR,20.0
OOMS 090250Z 19003KT 140V220 CAVOK 35/14 Q1002 NOSIG,OOMS,2023-06-09T02:50:00Z,23.58,58.28,35.0,14.0,190,3,,6.21,29.586615,,,,,,TRUE,,,,,CAVOK,,,,,,,,VFR,,,,,,,,,,,,METAR,8.0
OOKB 090250Z 02004KT CAVOK 32/24 Q1002 NOSIG,OOKB,2023-06-09T02:50:00Z,26.17,56.23,32.0,24.0,20,4,,6.21,29.586615,,,,,,TRUE,,,,,CAVOK,,,,,,,,VFR,,,,,,,,,,,,METAR,30.0
OODQ 090250Z AUTO 33012KT 290V350 9999 FEW030 29/20 Q1005 NOSIG RMK RH59? 0,OODQ,2023-06-09T02:50:00Z,19.52,57.65,29.0,20.0,330,12,,6.21,29.675198,,,TRUE,,,TRUE,,,,,FEW,3000,,,,,,,VFR,,,,,,,,,,,,METAR,116.0
OOAD 090250Z AUTO 06006KT 9999 // NCD 31/21 Q1006 NOSIG,OOAD,2023-06-09T02:50:00Z,22.5,57.37,31.0,21.0,60,6,,6.21,29.704725,,,TRUE,,,TRUE,,,,,CLR,,,,,,,,VFR,,,,,,,,,,,,METAR,327.0
NSTU 090250Z VRB04KT 12SM SCT020TCU SCT040 BKN100 30/26 A2981 RMK TCU ALQDS SLP095 8/170 T03030263 57008,NSTU,2023-06-09T02:50:00Z,-14.33,-170.72,30.3,26.3,0,4,,12.0,29.811024,1009.5,,,,,,,,,,SCT,2000,SCT,4000,BKN,10000,,,VFR,-0.8,,,,,,,,,,,SPECI,8.0
MUVR 090250Z 15006KT 9000 FEW030 OVC060 23/22 Q1013,MUVR,2023-06-09T02:50:00Z,23.03,-81.43,23.0,22.0,150,6,,5.59,29.911417,,,,,,,,,,,FEW,3000,OVC,6000,,,,,VFR,,,,,,,,,,,,METAR,65.0
MUSC 090250Z 36005KT 8000 SCT018 BKN050 22/21 Q1014,MUSC,2023-06-09T02:50:00Z,22.5,-79.92,22.0,21.0,360,5,,4.97,29.940945,,,,,,,,,,,SCT,1800,BKN,5000,,,,,MVFR,,,,,,,,,,,,METAR,97.0
MUHG 090250Z 10002KT 8000 -RA SCT027 OVC090 25/25 Q1015,MUHG,2023-06-09T02:50:00Z,20.78,-76.32,25.0,25.0,100,2,,4.97,29.970472,,,,,,,,,,-RA,SCT,2700,OVC,9000,,,,,MVFR,,,,,,,,,,,,METAR,100.0
MUHA 090250Z 25002KT 9000 BKN030 24/23 Q1012,MUHA,2023-06-09T02:50:00Z,22.98,-82.42,24.0,23.0,250,2,,5.59,29.88189,,,,,,,,,,,BKN,3000,,,,,,,MVFR,,,,,,,,,,,,METAR,61.0
MUCU 090250Z 19008KT 150V230 9000 SCT018 SCT060 29/26 Q1014,MUCU,2023-06-09T02:50:00Z,19.97,-75.83,29.0,26.0,190,8,,5.59,29.940945,,,,,,,,,,,SCT,1800,SCT,6000,,,,,VFR,,,,,,,,,,,,METAR,70.0
MUCM 090250Z 12003KT 080V150 9000 FEW025 25/24 Q1014,MUCM,2023-06-09T02:50:00Z,21.42,-77.85,25.0,24.0,120,3,,5.59,29.940945,,,,,,,,,,,FEW,2500,,,,,,,VFR,,,,,,,,,,,,METAR,125.0
MUCL 090250Z AUTO 18008KT 29/24 Q1012,MUCL,2023-06-09T02:50:00Z,21.63,-81.55,29.0,24.0,180,8,,,29.88189,,,TRUE,,,,,,,,,,,,,,,,,,,,,,,,,,,,METAR,5.0
MUCC 090250Z 12004KT 9000 BKN020 26/26 Q1013,MUCC,2023-06-09T02:50:00Z,22.47,-78.33,26.0,26.0,120,4,,5.59,29.911417,,,,,,,,,,,BKN,2000,,,,,,,MVFR,,,,,,,,,,,,METAR,7.0
MSLP 090250Z 07003KT 030V110 9999 FEW023 27/25 Q1012 A2989 NOSIG,MSLP,2023-06-09T02:50:00Z,13.43,-89.05,27.0,25.0,70,3,,6.21,29.88189,,,,,,TRUE,,,,,FEW,2300,,,,,,,VFR,,,,,,,,,,,,METAR,25.0
MMSD 090250Z 23002KT 12SM SKC 26/14 A2993 RMK SLP118 52007 918,MMSD,2023-06-09T02:50:00Z,23.15,-109.72,26.0,14.0,230,2,,12.0,29.929134,1011.8,,,,,,,,,,SKC,,,,,,,,VFR,0.7,,,,,,,,,,,METAR,107.0
MMLM 090250Z 21005KT 10SM SKC 25/18 A2990 RMK SLP126 ISOL AC,MMLM,2023-06-09T02:50:00Z,25.68,-109.08,25.0,18.0,210,5,,10.0,29.899607,1012.6,,,,,,,,,,SKC,,,,,,,,VFR,,,,,,,,,,,,SPECI,6.0
LTFO 090250Z 00000KT 9999 SCT015 BKN033 21/18 Q1009,LTFO,2023-06-09T02:50:00Z,41.18,40.85,21.0,18.0,0,0,,6.21,29.793306,,,,,,,,,,,SCT,1500,BKN,3300,,,,,VFR,,,,,,,,,,,,METAR,5.0
LTFH 090250Z 22005KT 190V260 9999 FEW023CB SCT030 BKN100 18/17 Q1011 NOSIG,LTFH,2023-06-09T02:50:00Z,41.27,36.57,18.0,17.0,220,5,,6.21,29.852362,,,,,,TRUE,,,,,FEW,2300,SCT,3000,BKN,10000,,,VFR,,,,,,,,,,,,METAR,7.0
LTFG 090250Z 09004KT CAVOK 18/16 Q1008,LTFG,2023-06-09T02:50:00Z,36.3,32.3,18.0,16.0,90,4,,6.21,29.763779,,,,,,,,,,,CAVOK,,,,,,,,VFR,,,,,,,,,,,,METAR,26.0
LTFD 090250Z 07010KT CAVOK 19/14 Q1010,LTFD,2023-06-09T02:50:00Z,39.55,27.02,19.0,14.0,70,10,,6.21,29.822834,,,,,,,,,,,CAVOK,,,,,,,,VFR,,,,,,,,,,,,METAR,15.0
LTDA 090250Z 24009KT 9999 FEW040 SCT180 22/17 Q1007 NOSIG,LTDA,2023-06-09T02:50:00Z,36.37,36.28,22.0,17.0,240,9,,6.21,29.734253,,,,,,TRUE,,,,,FEW,4000,SCT,18000,,,,,VFR,,,,,,,,,,,,METAR,80.0
LTCW 090250Z VRB01KT 9999 FEW040 SCT180 10/08 Q1022,LTCW,2023-06-09T02:50:00Z,37.55,44.23,10.0,8.0,0,1,,6.21,30.177166,,,,,,,,,,,FEW,4000,SCT,18000,,,,,VFR,,,,,,,,,,,,METAR,1852.0
LTCV 090250Z 21003KT 170V230 9999 FEW040 BKN100 21/10 Q1010,LTCV,2023-06-09T02:50:00Z,37.37,42.07,21.0,10.0,210,3,,6.21,29.822834,,,,,,,,,,,FEW,4000,BKN,10000,,,,,VFR,,,,,,,,,,,,METAR,620.0
LTCU 090250Z 12003KT 9999 SCT035 BKN100 13/11 Q1014,LTCU,2023-06-09T02:50:00Z,38.87,40.58,13.0,11.0,120,3,,6.21,29.940945,,,,,,,,,,,SCT,3500,BKN,10000,,,,,VFR,,,,,,,,,,,,METAR,1061.0
LTCT 090250Z 32004KT CAVOK 20/10 Q1018,LTCT,2023-06-09T02:50:00Z,39.98,43.87,20.0,10.0,320,4,,6.21,30.059055,,,,,,,,,,,CAVOK,,,,,,,,VFR,,,,,,,,,,,,METAR,936.0
LTCR 090250Z 07005KT 9999 FEW040 BKN100 24/09 Q1008,LTCR,2023-06-09T02:50:00Z,37.22,40.63,24.0,9.0,70,5,,6.21,29.763779,,,,,,,,,,,FEW,4000,BKN,10000,,,,,VFR,,,,,,,,,,,,METAR,529.0
LTCP 090250Z 28003KT 240V020 9999 SCT035 BKN100 23/09 Q1009,LTCP,2023-06-09T02:50:00Z,37.73,38.47,23.0,9.0,280,3,,6.21,29.793306,,,,,,,,,,,SCT,3500,BKN,10000,,,,,VFR,,,,,,,,,,,,METAR,672.0
LTCN 090250Z 12003KT 060V170 9999 SCT040 BKN100 21/17 Q1009,LTCN,2023-06-09T02:50:00Z,37.53,36.95,21.0,17.0,120,3,,6.21,29.793306,,,,,,,,,,,SCT,4000,BKN,10000,,,,,VFR,,,,,,,,,,,,METAR,505.0
LTCK 090250Z VRB01KT CAVOK 13/11 Q1016,LTCK,2023-06-09T02:50:00Z,38.75,41.67,13.0,11.0,0,1,,6.21,30.0,,,,,,,,,,,CAVOK,,,,,,,,VFR,,,,,,,,,,,,METAR,1267.0
LTCI 090250Z 36003KT 9999 FEW030 SCT180 15/08 Q1021 NOSIG,LTCI,2023-06-09T02:50:00Z,38.47,43.33,15.0,8.0,360,3,,6.21,30.147638,,,,,,TRUE,,,,,FEW,3000,SCT,18000,,,,,VFR,,,,,,,,,,,,METAR,1654.0
LTCF 090250Z VRB01KT CAVOK 08/07 Q1022 NOSIG,LTCF,2023-06-09T02:50:00Z,40.57,43.12,8.0,7.0,0,1,,6.21,30.177166,,,,,,TRUE,,,,,CAVOK,,,,,,,,VFR,,,,,,,,,,,,METAR,1794.0
LTCD 090250Z 00000KT 9999 SCT045 BKN080 14/12 Q1014 NOSIG,LTCD,2023-06-09T02:50:00Z,39.72,39.52,14.0,12.0,0,0,,6.21,29.940945,,,,,,TRUE,,,,,SCT,4500,BKN,8000,,,,,VFR,,,,,,,,,,,,METAR,1146.0
LTCB 090250Z 29005KT 180V350 9999 SCT012 BKN033 20/17 Q1010 NOSIG,LTCB,2023-06-09T02:50:00Z,40.97,38.07,20.0,17.0,290,5,,6.21,29.822834,,,,,,TRUE,,,,,SCT,1200,BKN,3300,,,,,VFR,,,,,,,,,,,,METAR,5.0
LTCA 090250Z 08004KT 030V150 9999 FEW035 BKN100 20/13 Q1011 NOSIG,LTCA,2023-06-09T02:50:00Z,38.6,39.28,20.0,13.0,80,4,,6.21,29.852362,,,,,,TRUE,,,,,FEW,3500,BKN,10000,,,,,VFR,,,,,,,,,,,,METAR,887.0
LTBY 090250Z 25006KT 180V310 5000 -SHRA BR SCT015 BKN035 16/16 Q1012,LTBY,2023-06-09T02:50:00Z,39.82,30.52,16.0,16.0,250,6,,3.11,29.88189,,,,,,,,,,-SHRA BR,SCT,1500,BKN,3500,,,,,MVFR,,,,,,,,,,,,METAR,788.0
LTBQ 090250Z VRB02KT 4500 BR SCT010 BKN021 17/16 Q1012 BECMG BKN010 OVC018,LTBQ,2023-06-09T02:50:00Z,40.73,30.07,17.0,16.0,0,2,,2.8,29.88189,,,,,,,,,,BR,SCT,1000,BKN,2100,,,,,IFR,,,,,,,,,,,,METAR,51.0
LTBO 090250Z 32002KT 9999 SCT035 BKN100 13/12 Q1012,LTBO,2023-06-09T02:50:00Z,38.67,29.47,13.0,12.0,320,2,,6.21,29.88189,,,,,,,,,,,SCT,3500,BKN,10000,,,,,VFR,,,,,,,,,,,,METAR,868.0
LTBH 090250Z 09006KT CAVOK 15/14 Q1011,LTBH,2023-06-09T02:50:00Z,40.13,26.42,15.0,14.0,90,6,,6.21,29.852362,,,,,,,,,,,CAVOK,,,,,,,,VFR,,,,,,,,,,,,METAR,8.0
LTBF 090250Z 00000KT 9999 SCT015 SCT035 17/16 Q1012 NOSIG,LTBF,2023-06-09T02:50:00Z,39.62,27.92,17.0,16.0,0,0,,6.21,29.88189,,,,,,TRUE,,,,,SCT,1500,SCT,3500,,,,,VFR,,,,,,,,,,,,METAR,95.0
LTBD 090250Z 09003KT 4000 BR SCT030 BKN100 18/18 Q1009,LTBD,2023-06-09T02:50:00Z,37.82,27.88,18.0,18.0,90,3,,2.49,29.793306,,,,,,,,,,BR,SCT,3000,BKN,10000,,,,,IFR,,,,,,,,,,,,METAR,29.0
LTAY 090250Z 21005KT CAVOK 13/13 Q1012 NOSIG,LTAY,2023-06-09T02:50:00Z,37.78,29.7,13.0,13.0,210,5,,6.21,29.88189,,,,,,TRUE,,,,,CAVOK,,,,,,,,VFR,,,,,,,,,,,,METAR,851.0
LTAS 090250Z 00000KT 6000 SCT010 BKN030 BKN080 17/16 Q1011,LTAS,2023-06-09T02:50:00Z,41.52,32.08,17.0,16.0,0,0,,3.73,29.852362,,,,,,,,,,,SCT,1000,BKN,3000,BKN,8000,,,MVFR,,,,,,,,,,,,METAR,13.0
LTAR 090250Z 33004KT 300V360 8000 -SHRA FEW027CB BKN035 BKN090 12/11 Q1017,LTAR,2023-06-09T02:50:00Z,39.8,36.9,12.0,11.0,330,4,,4.97,30.029528,,,,,,,,,,-SHRA,FEW,2700,BKN,3500,BKN,9000,,,MVFR,,,,,,,,,,,,METAR,1601.0
LTAN 090250Z 36005KT 9999 FEW040 SCT100 14/11 Q1012 NOSIG,LTAN,2023-06-09T02:50:00Z,37.97,32.55,14.0,11.0,360,5,,6.21,29.88189,,,,,,TRUE,,,,,FEW,4000,SCT,10000,,,,,VFR,,,,,,,,,,,,METAR,1029.0
LTAE 090250Z VRB02KT 9999 FEW040 SCT100 14/11 Q1012 NOSIG RMK RWY21 04005KT,LTAE,2023-06-09T02:50:00Z,40.07,32.57,14.0,11.0,0,2,,6.21,29.88189,,,,,,TRUE,,,,,FEW,4000,SCT,10000,,,,,VFR,,,,,,,,,,,,METAR,836.0
LOXZ 090250Z 00000KT 9999 FEW006 SCT010 10/10 Q1015,LOXZ,2023-06-09T02:50:00Z,47.2,14.75,10.0,10.0,0,0,,6.21,29.970472,,,,,,,,,,,FEW,600,SCT,1000,,,,,VFR,,,,,,,,,,,,METAR,678.0
LLIB 090250Z AUTO 31005KT CAVOK 24/08 Q1007,LLIB,2023-06-09T02:50:00Z,32.98,35.57,24.0,8.0,310,5,,6.21,29.734253,,,TRUE,,,,,,,,CAVOK,,,,,,,,VFR,,,,,,,,,,,,METAR,268.0
LGZA 090250Z 00000KT CAVOK 17/14 Q1011,LGZA,2023-06-09T02:50:00Z,37.75,20.88,17.0,14.0,0,0,,6.21,29.852362,,,,,,,,,,,CAVOK,,,,,,,,VFR,,,,,,,,,,,,METAR,3.0
LGSO 090250Z 27007KT CAVOK 19/15 Q1010,LGSO,2023-06-09T02:50:00Z,37.42,24.95,19.0,15.0,270,7,,6.21,29.822834,,,,,,,,,,,CAVOK,,,,,,,,VFR,,,,,,,,,,,,METAR,71.0
LGSM 090250Z VRB03KT 9999 SCT025 19/17 Q1009,LGSM,2023-06-09T02:50:00Z,37.68,26.92,19.0,17.0,0,3,,6.21,29.793306,,,,,,,,,,,SCT,2500,,,,,,,VFR,,,,,,,,,,,,METAR,5.0
LGPA 090250Z 01003KT CAVOK 18/14 Q1010,LGPA,2023-06-09T02:50:00Z,37.02,25.1,18.0,14.0,10,3,,6.21,29.822834,,,,,,,,,,,CAVOK,,,,,,,,VFR,,,,,,,,,,,,METAR,42.0
LGHI 090250Z 03003KT 9999 FEW030 20/18 Q1009,LGHI,2023-06-09T02:50:00Z,38.33,26.13,20.0,18.0,30,3,,6.21,29.793306,,,,,,,,,,,FEW,3000,,,,,,,VFR,,,,,,,,,,,,METAR,6.0
LCEN 090250Z 24005KT 9999 FEW025 SCT100 21/15 Q1008 NOSIG RMK RWY11 27006KT,LCEN,2023-06-09T02:50:00Z,35.15,33.5,21.0,15.0,240,5,,6.21,29.763779,,,,,,TRUE,,,,,FEW,2500,SCT,10000,,,,,VFR,,,,,,,,,,,,METAR,91.0
KRYY 090250Z AUTO 00000KT 10SM CLR 20/10 A2985 RMK AO2 SLP096 T02000100 51016 $,KRYY,2023-06-09T02:50:00Z,34.02,-84.6,20.0,10.0,0,0,,10.0,29.84941,1009.6,,TRUE,TRUE,TRUE,,,,,,CLR,,,,,,,,VFR,1.6,,,,,,,,,,,METAR,306.0
KOQU 090250Z 00000KT 5SM BR BKN090 16/05 A2974 RMK LAST,KOQU,2023-06-09T02:50:00Z,41.6,-71.42,16.0,5.0,0,0,,5.0,29.740158,,,,,,,,,,BR,BKN,9000,,,,,,,MVFR,,,,,,,,,,,,METAR,6.0
KNQA 090250Z 00000KT 10SM CLR 22/18 A2980,KNQA,2023-06-09T02:50:00Z,35.35,-89.87,22.0,18.0,0,0,,10.0,29.799213,,,,,,,,,,,CLR,,,,,,,,VFR,,,,,,,,,,,,METAR,90.0
KLAL 090250Z 25005KT 10SM SKC 26/21 A2983,KLAL,2023-06-09T02:50:00Z,27.98,-82.02,26.0,21.0,250,5,,10.0,29.828741,,,,,,,,,,,SKC,,,,,,,,VFR,,,,,,,,,,,,METAR,39.0
KJQF 090250Z 00000KT 10SM BKN100 16/11 A2986,KJQF,2023-06-09T02:50:00Z,35.38,-80.72,16.0,11.0,0,0,,10.0,29.861221,,,,,,,,,,,BKN,10000,,,,,,,VFR,,,,,,,,,,,,METAR,204.0
KGEU 090250Z 23004KT 10SM BKN250 32/M02 A2983,KGEU,2023-06-09T02:50:00Z,33.53,-112.3,32.0,-2.0,230,4,,10.0,29.828741,,,,,,,,,,,BKN,25000,,,,,,,VFR,,,,,,,,,,,,METAR,319.0
KDAG 090250Z AUTO 25018KT 10SM CLR 28/03 A2988 RMK AO2 SLP098 T02780028 53008,KDAG,2023-06-09T02:50:00Z,34.85,-116.78,27.8,2.8,250,18,,10.0,29.878937,1009.8,,TRUE,TRUE,,,,,,,CLR,,,,,,,,VFR,0.8,,,,,,,,,,,METAR,584.0
KADM 090250Z 00000KT 10SM CLR 25/19 A2981,KADM,2023-06-09T02:50:00Z,34.3,-97.02,25.0,19.0,0,0,,10.0,29.811024,,,,,,,,,,,CLR,,,,,,,,VFR,,,,,,,,,,,,METAR,223.0
ETNG 090250Z 10004KT CAVOK 14/12 Q1014,ETNG,2023-06-09T02:50:00Z,50.97,6.03,14.0,12.0,100,4,,6.21,29.940945,,,,,,,,,,,CAVOK,,,,,,,,VFR,,,,,,,,,,,,METAR,76.0
EGYP 090250Z 12024KT 7000 -RA SCT006 BKN008 02/01 Q0974,EGYP,2023-06-09T02:50:00Z,-51.82,-58.45,2.0,1.0,120,24,,4.35,28.759842,,,,,,,,,,-RA,SCT,600,BKN,800,,,,,IFR,,,,,,,,,,,,METAR,70.0
EGXC 090250Z 05009KT 9999 BKN015 11/08 Q1018 RMK WHT,EGXC,2023-06-09T02:50:00Z,53.1,-0.17,11.0,8.0,50,9,,6.21,30.059055,,,,,,,,,,,BKN,1500,,,,,,,MVFR,,,,,,,,,,,,SPECI,9.0
EGQS 090250Z 11006KT 9999 FEW025 09/06 Q1021 RMK BLU,EGQS,2023-06-09T02:50:00Z,57.72,-3.32,9.0,6.0,110,6,,6.21,30.147638,,,,,,,,,,,FEW,2500,,,,,,,VFR,,,,,,,,,,,,METAR,6.0
EGQL 090250Z 14007KT 9999 BKN024 12/07 Q1021 RMK WHT,EGQL,2023-06-09T02:50:00Z,56.38,-2.87,12.0,7.0,140,7,,6.21,30.147638,,,,,,,,,,,BKN,2400,,,,,,,MVFR,,,,,,,,,,,,METAR,11.0
EGNS 090250Z 09017KT 9999 FEW015 11/07 Q1017,EGNS,2023-06-09T02:50:00Z,54.08,-4.63,11.0,7.0,90,17,,6.21,30.029528,,,,,,,,,,,FEW,1500,,,,,,,VFR,,,,,,,,,,,,METAR,18.0
EEEI 090250Z AUTO 36005KT CAVOK 09/05 Q1022,EEEI,2023-06-09T02:50:00Z,59.27,24.2,9.0,5.0,360,5,,6.21,30.177166,,,TRUE,,,,,,,,CAVOK,,,,,,,,VFR,,,,,,,,,,,,METAR,19.0
BGSF 090250Z AUTO 06007KT 9999NDV BKN050/// BKN065/// 03/M04 Q1013,BGSF,2023-06-09T02:50:00Z,67.0,-50.72,3.0,-4.0,60,7,,,29.911417,,,TRUE,,,,,,,,BKN,5000,BKN,6500,,,,,,,,,,,,,,,,,SPECI,75.0
BGKK 090250Z AUTO 00000KT 9999NDV -SHRASN OVC029/// 01/M02 Q1007,BGKK,2023-06-09T02:50:00Z,65.57,-37.13,1.0,-2.0,0,0,,,29.734253,,,TRUE,,,,,,,-SHRA SN,OVC,2900,,,,,,,,,,,,,,,,,,,SPECI,37.0
BGJN 090250Z AUTO 10014KT 9999NDV NCD 01/M09 Q1014,BGJN,2023-06-09T02:50:00Z,69.25,-51.07,1.0,-9.0,100,14,,,29.940945,,,TRUE,,,,,,,,CLR,,,,,,,,,,,,,,,,,,,,SPECI,22.0
BGGH 090250Z AUTO 22004KT 0550 FG VV002 01/01 Q1014,BGGH,2023-06-09T02:50:00Z,64.2,-51.68,1.0,1.0,220,4,,0.34,29.940945,,,TRUE,,,,,,,FG,OVX,0,,,,,,,LIFR,,,,,,,,,,,200,METAR,76.0
BGBW 090250Z AUTO 10004KT 9999NDV NCD 05/M01 Q1011,BGBW,2023-06-09T02:50:00Z,61.17,-45.42,5.0,-1.0,100,4,,,29.852362,,,TRUE,,,,,,,,CLR,,,,,,,,,,,,,,,,,,,,SPECI,49.0
RKNN 090249Z 09010KT 9999 FEW080 22/14 A2966,RKNN,2023-06-09T02:49:00Z,37.75,128.93,22.0,14.0,90,10,,6.21,29.660433,,,,,,,,,,,FEW,8000,,,,,,,VFR,,,,,,,,,,,,SPECI,11.0
MMTM 090249Z 15010KT 7SM SKC 28/25 A2982 RMK SLP098 52018 911 ISOL CU,MMTM,2023-06-09T02:49:00Z,22.28,-97.87,28.0,25.0,150,10,,7.0,29.819881,1009.8,,,,,,,,,,SKC,,,,,,,,VFR,1.8,,,,,,,,,,,METAR,21.0
MMTG 090249Z 10005KT 8SM SCT300 27/20 A2991 RMK SLP092 52033 913 8/002 ISOLD AC,MMTG,2023-06-09T02:49:00Z,16.57,-93.03,27.0,20.0,100,5,,8.0,29.911417,1009.2,,,,,,,,,,SCT,30000,,,,,,,VFR,3.3,,,,,,,,,,,METAR,463.0
MMPR 090249Z 24004KT 10SM OVC030 27/23 A2990 RMK SLP124 52013 907 8/5// HZY,MMPR,2023-06-09T02:49:00Z,20.67,-105.25,27.0,23.0,240,4,,10.0,29.899607,1012.4,,,,,,,,,,OVC,3000,,,,,,,MVFR,1.3,,,,,,,,,,,SPECI,6.0
KAEG 090249Z 17006KT 10SM CLR 20/M09 A3006,KAEG,2023-06-09T02:49:00Z,35.13,-106.8,20.0,-9.0,170,6,,10.0,30.059055,,,,,,,,,,,CLR,,,,,,,,VFR,,,,,,,,,,,,METAR,1771.0
SAVT 090248Z 26032G44KT CAVOK 09/M07 Q0995 RMK PP000,SAVT,2023-06-09T02:48:00Z,-43.2,-65.27,9.0,-7.0,260,32,44,6.21,29.379921,,,,,,,,,,,CAVOK,,,,,,,,VFR,,,,,,,,,,,,SPECI,37.0
PALP 090248Z 06015KT 10SM BKN005 00/M02 A3000,PALP,2023-06-09T02:48:00Z,70.33,-150.93,0.0,-2.0,60,15,,10.0,30.0,,,,,,,,,,,BKN,500,,,,,,,IFR,,,,,,,,,,,,METAR,4.0
PAEL 090248Z VRB04KT 20SM SCT030 OVC040 11/09 A2996 RMK SEA 0 SWELL 2 SW NOSPECI LAST,PAEL,2023-06-09T02:48:00Z,58.2,-136.35,11.0,9.0,0,4,,20.0,29.958662,,,,,,,,,,,SCT,3000,OVC,4000,,,,,VFR,,,,,,,,,,,,METAR,8.0
MMSM 090248Z 16006KT 7SM FEW020 SCT080 SCT200 23/12 A3028 RMK 8/463 HZY DSNT CB E,MMSM,2023-06-09T02:48:00Z,19.75,-99.02,23.0,12.0,160,6,,7.0,30.280512,,,,,,,,,,,FEW,2000,SCT,8000,SCT,20000,,,VFR,,,,,,,,,,,,METAR,2250.0
MMMM 090248Z 23004KT 7SM FEW300 24/11 A3018 RMK SLP040 52010 916 8/001 HZY,MMMM,2023-06-09T02:48:00Z,19.85,-101.03,24.0,11.0,230,4,,7.0,30.180119,1004.0,,,,,,,,,,FEW,30000,,,,,,,VFR,1.0,,,,,,,,,,,METAR,1840.0
MMCL 090248Z 24002KT 10SM SKC 25/19 A2991 RMK SLP125 52009 909 HZY,MMCL,2023-06-09T02:48:00Z,24.77,-107.47,25.0,19.0,240,2,,10.0,29.911417,1012.5,,,,,,,,,,SKC,,,,,,,,VFR,0.9,,,,,,,,,,,METAR,35.0
KJDN 090248Z AUTO 01009KT 22/18 A2989 RMK AO1 SLP108 T02220183 52000,KJDN,2023-06-09T02:48:00Z,47.33,-106.95,22.2,18.3,10,9,,,29.890747,1010.8,,TRUE,TRUE,,,,,,,,,,,,,,,,0.0,,,,,,,,,,,METAR,802.0
MMVA 090247Z 00000KT 6SM SKC 29/25 A2984 RMK SLP103 52020 907 HZY,MMVA,2023-06-09T02:47:00Z,18.0,-92.82,29.0,25.0,0,0,,6.0,29.840551,1010.3,,,,,,,,,,SKC,,,,,,,,VFR,2.0,,,,,,,,,,,METAR,13.0
MMTP 090247Z 06003KT 8SM SCT020CB BKN070 28/28 A2989 RMK SLP145 52023 908 8/370 CB 1ST QUAD OCNL LTGCG,MMTP,2023-06-09T02:47:00Z,14.78,-92.37,28.0,28.0,60,3,,8.0,29.890747,1014.5,,,,,,,,,,SCT,2000,BKN,7000,,,,,VFR,2.3,,,,,,,,,,,METAR,27.0
MMMX 090247Z 12008KT 9SM FEW020 22/13 A3029 NOSIG RMK SLP069 52019 961 8/400 HZY,MMMX,2023-06-09T02:47:00Z,19.43,-99.08,22.0,13.0,120,8,,9.0,30.28937,1006.9,,,,,TRUE,,,,,FEW,2000,,,,,,,VFR,1.9,,,,,,,,,,,METAR,2224.0
MMLP 090247Z 19013KT 10SM SKC 23/10 A2994 RMK SLP139 52018 910 ISOL CI,MMLP,2023-06-09T02:47:00Z,24.07,-110.37,23.0,10.0,190,13,,10.0,29.940945,1013.9,,,,,,,,,,SKC,,,,,,,,VFR,1.8,,,,,,,,,,,METAR,16.0
MMGL 090247Z 28004G17KT 10SM SKC 27/01 A3012 RMK SLP050 52014 919,MMGL,2023-06-09T02:47:00Z,20.52,-103.32,27.0,1.0,280,4,17,10.0,30.121063,1005.0,,,,,,,,,,SKC,,,,,,,,VFR,1.4,,,,,,,,,,,SPECI,1531.0
KSEE 090247Z 27008KT 10SM SCT029 17/13 A3003,KSEE,2023-06-09T02:47:00Z,32.82,-116.97,17.0,13.0,270,8,,10.0,30.029528,,,,,,,,,,,SCT,2900,,,,,,,VFR,,,,,,,,,,,,METAR,113.0
KRHV 090247Z 31012KT 10SM FEW050 18/11 A3002,KRHV,2023-06-09T02:47:00Z,37.33,-121.82,18.0,11.0,310,12,,10.0,30.02067,,,,,,,,,,,FEW,5000,,,,,,,VFR,,,,,,,,,,,,METAR,37.0
KPOC 090247Z 26009KT 10SM CLR 18/12 A3001,KPOC,2023-06-09T02:47:00Z,34.1,-117.77,18.0,12.0,260,9,,10.0,30.008858,,,,,,,,,,,CLR,,,,,,,,VFR,,,,,,,,,,,,METAR,304.0
KIWA 090247Z 34010KT 10SM OVC250 31/M07 A2987,KIWA,2023-06-09T02:47:00Z,33.3,-111.65,31.0,-7.0,340,10,,10.0,29.870079,,,,,,,,,,,OVC,25000,,,,,,,VFR,,,,,,,,,,,,METAR,420.0
KGYR 090247Z 25004KT 10SM SCT180 BKN250 31/00 A2985,KGYR,2023-06-09T02:47:00Z,33.42,-112.37,31.0,0.0,250,4,,10.0,29.84941,,,,,,,,,,,SCT,18000,BKN,25000,,,,,VFR,,,,,,,,,,,,METAR,292.0
KCQT 090247Z AUTO VRB03KT 10SM CLR 18/12 A3001 RMK AO2 SLP162 T01830122 53004,KCQT,2023-06-09T02:47:00Z,34.02,-118.28,18.3,12.2,0,3,,10.0,30.008858,1016.2,,TRUE,TRUE,,,,,,,CLR,,,,,,,,VFR,0.4,,,,,,,,,,,SPECI,51.0
KCHD 090247Z 31006G18KT 10SM CLR 32/M07 A2986,KCHD,2023-06-09T02:47:00Z,33.27,-111.82,32.0,-7.0,310,6,18,10.0,29.861221,,,,,,,,,,,CLR,,,,,,,,VFR,,,,,,,,,,,,METAR,378.0
PTSA 090245Z VRB03KT 10SM -SHRA SCT017 BKN130 OVC300 27/24 A2976 ,PTSA,2023-06-09T02:45:00Z,5.35,162.95,27.0,24.0,0,3,,10.0,29.760826,,,,,,,,,,-SHRA,SCT,1700,BKN,13000,OVC,30000,,,VFR,,,,,,,,,,,,METAR,3.0
PAKU 090245Z 05018KT 10SM R06/P6000FT OVC004 M00/M01 A2998,PAKU,2023-06-09T02:45:00Z,70.32,-149.6,0.0,-1.0,50,18,,10.0,29.97933,,,,,,,,,,,OVC,400,,,,,,,LIFR,,,,,,,,,,,,METAR,23.0
MMVR 090245Z 10004KT 4SM SCT250 29/26 A2983 RMK SLP090 52014 909 8/008 HZY,MMVR,2023-06-09T02:45:00Z,19.15,-96.18,29.0,26.0,100,4,,4.0,29.828741,1009.0,,,,,,,,,,SCT,25000,,,,,,,MVFR,1.4,,,,,,,,,,,METAR,26.0
MMDO 090245Z 22008KT 7SM SKC 26/M01 A3016 RMK HZY,MMDO,2023-06-09T02:45:00Z,24.12,-104.52,26.0,-1.0,220,8,,7.0,30.159449,,,,,,,,,,,SKC,,,,,,,,VFR,,,,,,,,,,,,METAR,1863.0
KSWF 090245Z 00000KT 7SM SCT050 11/08 A2975,KSWF,2023-06-09T02:45:00Z,41.5,-74.08,11.0,8.0,0,0,,7.0,29.749016,,,,,,,,,,,SCT,5000,,,,,,,VFR,,,,,,,,,,,,METAR,139.0
KBJC 090245Z 27010KT 10SM -TSRA SCT040 BKN060 20/03 A3006 RMK FREQ LTG ALQDS TSB45 TS NORTH/ TS SOUTH MOV E,KBJC,2023-06-09T02:45:00Z,39.9,-105.1,20.0,3.0,270,10,,10.0,30.059055,,,,,,,,,,-TSRA,SCT,4000,BKN,6000,,,,,VFR,,,,,,,,,,,,METAR,1694.0
KATW 090245Z 08006KT 10SM CLR 18/03 A2992,KATW,2023-06-09T02:45:00Z,44.27,-88.52,18.0,3.0,80,6,,10.0,29.920275,,,,,,,,,,,CLR,,,,,,,,VFR,,,,,,,,,,,,METAR,266.0
MMTO 090244Z 07004KT 8SM FEW025 18/09 A3039 RMK SLP076 52016 953 8/100 HZY,MMTO,2023-06-09T02:44:00Z,19.35,-99.57,18.0,9.0,70,4,,8.0,30.389763,1007.6,,,,,,,,,,FEW,2500,,,,,,,VFR,1.6,,,,,,,,,,,METAR,2582.0
MMSP 090244Z 10005KT 8SM FEW025 23/12 A3012 RMK SLP013 57019 962 8/400,MMSP,2023-06-09T02:44:00Z,22.25,-100.93,23.0,12.0,100,5,,8.0,30.121063,1001.3,,,,,,,,,,FEW,2500,,,,,,,VFR,-1.9,,,,,,,,,,,METAR,1841.0
MMSL 090243Z 29007KT 7SM SKC 23/14 A2992,MMSL,2023-06-09T02:43:00Z,22.95,-109.93,23.0,14.0,290,7,,7.0,29.920275,,,,,,,,,,,SKC,,,,,,,,VFR,,,,,,,,,,,,METAR,205.0
MMMZ 090243Z 33004KT 10SM SKC 26/21 A2990 RMK SLP125 52007 903 ISOL CU,MMMZ,2023-06-09T02:43:00Z,23.17,-106.27,26.0,21.0,330,4,,10.0,29.899607,1012.5,,,,,,,,,,SKC,,,,,,,,VFR,0.7,,,,,,,,,,,METAR,7.0
MMAA 090243Z 26009KT 6SM FEW015 SCT300 30/24 A2987 RMK SLP114 52030 908 8/101 HZY,MMAA,2023-06-09T02:43:00Z,16.75,-99.75,30.0,24.0,260,9,,6.0,29.870079,1011.4,,,,,,,,,,FEW,1500,SCT,30000,,,,,VFR,3.0,,,,,,,,,,,METAR,5.0
MMUN 090242Z 00000KT 7SM SKC 25/24 A2986 RMK SLP109 52005 907 CI,MMUN,2023-06-09T02:42:00Z,21.03,-86.85,25.0,24.0,0,0,,7.0,29.861221,1010.9,,,,,,,,,,SKC,,,,,,,,VFR,0.5,,,,,,,,,,,METAR,13.0
MMPS 090242Z 27008KT 7SM SCT030 30/23 A2988 RMK 8/100 HZY,MMPS,2023-06-09T02:42:00Z,15.87,-97.08,30.0,23.0,270,8,,7.0,29.878937,,,,,,,,,,,SCT,3000,,,,,,,VFR,,,,,,,,,,,,METAR,65.0
MMZC 090241Z E24009KT 10SM FEW200 30/M01 A3021 RMK 8/001,MMZC,2023-06-09T02:41:00Z,22.9,-102.68,30.0,-1.0,240,9,,10.0,30.209646,,,,,,,,,,,FEW,20000,,,,,,,VFR,,,,,,,,,,,,METAR,2175.0
MMCU 090241Z 12003KT 10SM SCT200 26/M01 A3001 RMK SLP051 52010 923 8/002,MMCU,2023-06-09T02:41:00Z,28.7,-105.97,26.0,-1.0,120,3,,10.0,30.008858,1005.1,,,,,,,,,,SCT,20000,,,,,,,VFR,1.0,,,,,,,,,,,METAR,1349.0
MMCE 090241Z 03009KT 7SM SKC 29/25 A2982 RMK SLP095 52010 904,MMCE,2023-06-09T02:41:00Z,18.65,-91.8,29.0,25.0,30,9,,7.0,29.819881,1009.5,,,,,,,,,,SKC,,,,,,,,VFR,1.0,,,,,,,,,,,METAR,5.0
MMAS 090241Z 21007KT 9SM SKC 23/M11 A3014,MMAS,2023-06-09T02:41:00Z,21.7,-102.32,23.0,-11.0,210,7,,9.0,30.138779,,,,,,,,,,,SKC,,,,,,,,VFR,,,,,,,,,,,,METAR,1866.0
MMTJ 090240Z 27011KT 8SM OVC020 17/14 A3005 RMK SLP184 52007 925 8/5// HZY,MMTJ,2023-06-09T02:40:00Z,32.53,-116.97,17.0,14.0,270,11,,8.0,30.050198,1018.4,,,,,,,,,,OVC,2000,,,,,,,MVFR,0.7,,,,,,,,,,,METAR,150.0
MMTC 090240Z 00000KT 8SM SKC 31/01 A2995 RMK SLP028 52003 920 HZY,MMTC,2023-06-09T02:40:00Z,25.57,-103.4,31.0,1.0,0,0,,8.0,29.949802,1002.8,,,,,,,,,,SKC,,,,,,,,VFR,0.3,,,,,,,,,,,METAR,1128.0
MMRX 090240Z 17010KT 8SM SKC 27/22 A2982 RMK SLP/// 5//// 9// HZY,MMRX,2023-06-09T02:40:00Z,26.02,-98.22,27.0,22.0,170,10,,8.0,29.819881,,,,,,,,,,,SKC,,,,,,,,VFR,,,,,,,,,,,,METAR,45.0
MMQT 090240Z 31003KT 8SM FEW030 24/00 A3021 RMK 8/500,MMQT,2023-06-09T02:40:00Z,20.62,-100.18,24.0,0.0,310,3,,8.0,30.209646,,,,,,,,,,,FEW,3000,,,,,,,VFR,,,,,,,,,,,,METAR,1909.0
MMMY 090240Z 12005KT 7SM SKC 28/21 A2983 RMK SLP/// 5//// 9//,MMMY,2023-06-09T02:40:00Z,25.77,-100.1,28.0,21.0,120,5,,7.0,29.828741,,,,,,,,,,,SKC,,,,,,,,VFR,,,,,,,,,,,,METAR,382.0
MMML 090240Z 18005KT 10SM SCT200 29/05 A2983 RMK SLP102 54000 917 8/008,MMML,2023-06-09T02:40:00Z,32.62,-115.23,29.0,5.0,180,5,,10.0,29.828741,1010.2,,,,,,,,,,SCT,20000,,,,,,,VFR,,,,,,,,,,,,METAR,21.0
MMMD 090240Z 02004KT 6SM SKC 28/22 A2985 RMK SLP109 53014 907 HZY FQT LGTIC DSNT SE,MMMD,2023-06-09T02:40:00Z,20.95,-89.65,28.0,22.0,20,4,,6.0,29.84941,1010.9,,,,,,,,,,SKC,,,,,,,,VFR,1.4,,,,,,,,,,,METAR,10.0
MMLO 090240Z 23005KT 8SM SKC 25/M05 A3019 RMK SLP069 52011 966,MMLO,2023-06-09T02:40:00Z,21.0,-101.47,25.0,-5.0,230,5,,8.0,30.188976,1006.9,,,,,,,,,,SKC,,,,,,,,VFR,1.1,,,,,,,,,,,METAR,1805.0
MMHO 090240Z 24006KT 10SM SCT200 30/07 A2993 RMK SLP129 52013 917 8/008 HZY,MMHO,2023-06-09T02:40:00Z,29.08,-111.05,30.0,7.0,240,6,,10.0,29.929134,1012.9,,,,,,,,,,SCT,20000,,,,,,,VFR,1.3,,,,,,,,,,,METAR,186.0
MMCZ 090240Z 14004KT 7SM FEW015 24/23 A2984 RMK SLP111 57004 9// 8/400,MMCZ,2023-06-09T02:40:00Z,20.52,-86.92,24.0,23.0,140,4,,7.0,29.840551,1011.1,,,,,,,,,,FEW,1500,,,,,,,VFR,-0.4,,,,,,,,,,,METAR,7.0
MMCS 090240Z 26006KT 10SM SCT250 30/M04 A2998 RMK SLP029 53005 919 8/008 ISOL AC NW,MMCS,2023-06-09T02:40:00Z,31.63,-106.42,30.0,-4.0,260,6,,10.0,29.97933,1002.9,,,,,,,,,,SCT,25000,,,,,,,VFR,0.5,,,,,,,,,,,METAR,1194.0
MMCP 090240Z 01006KT 7SM SKC 28/24 A2983,MMCP,2023-06-09T02:40:00Z,19.82,-90.5,28.0,24.0,10,6,,7.0,29.828741,,,,,,,,,,,SKC,,,,,,,,VFR,,,,,,,,,,,,METAR,9.0
MMBT 090240Z 22008KT 7SM FEW100 29/24 A2991 RMK 8/030,MMBT,2023-06-09T02:40:00Z,15.77,-96.27,29.0,24.0,220,8,,7.0,29.911417,,,,,,,,,,,FEW,10000,,,,,,,VFR,,,,,,,,,,,,METAR,137.0
MMAN 090240Z 11004KT 8SM SKC 29/21 A2987 RMK SLP/// 5//// 9// HZY,MMAN,2023-06-09T02:40:00Z,25.87,-100.23,29.0,21.0,110,4,,8.0,29.870079,,,,,,,,,,,SKC,,,,,,,,VFR,,,,,,,,,,,,METAR,447.0
RJTE 090238Z 23013G23KT 200V260 9999 -SHRA SCT008 BKN015 BKN050 23/22 Q1004 RMK 4ST008 5CU015 7SC050 A2967,RJTE,2023-06-09T02:38:00Z,34.98,139.82,23.0,22.0,230,13,23,6.21,29.64567,,,,,,,,,,-SHRA,SCT,800,BKN,1500,BKN,5000,,,MVFR,,,,,,,,,,,,METAR,3.0
RKSP 090233Z 17008KT 4800 BR FEW004 SCT150 16/16 A2967,RKSP,2023-06-09T02:33:00Z,37.97,124.67,16.0,16.0,170,8,,2.98,29.66929,,,,,,,,,,BR,FEW,400,SCT,15000,,,,,IFR,,,,,,,,,,,,SPECI,171.0
KRPX 090232Z AUTO 10SM 17/13 A2987 RMK Roundup ,KRPX,2023-06-09T02:32:00Z,46.47,-108.55,17.0,13.0,,,,10.0,29.870079,,,TRUE,,,,,,,,,,,,,,,,,,,,,,,,,,,,METAR,1062.0
FASB 090231Z 31005KT 9999 OVC008 08/08 Q1021,FASB,2023-06-09T02:31:00Z,-29.68,17.93,8.0,8.0,310,5,,6.21,30.147638,,,,,,,,,,,OVC,800,,,,,,,IFR,,,,,,,,,,,,SPECI,811.0
SBSJ 090230Z 00000KT CAVOK 14/13 Q1022,SBSJ,2023-06-09T02:30:00Z,-23.22,-45.87,14.0,13.0,0,0,,6.21,30.177166,,,,,,,,,,,CAVOK,,,,,,,,VFR,,,,,,,,,,,,SPECI,640.0
HKMO 090230Z 20006KT 9999 FEW020 24/23 Q1015 NOSIG,HKMO,2023-06-09T02:30:00Z,-4.02,39.62,24.0,23.0,200,6,,6.21,29.970472,,,,,,TRUE,,,,,FEW,2000,,,,,,,VFR,,,,,,,,,,,,METAR,55.0
GOTT 090230Z 24010KT CAVOK 30/23 Q1010,GOTT,2023-06-09T02:30:00Z,13.73,-13.65,30.0,23.0,240,10,,6.21,29.822834,,,,,,,,,,,CAVOK,,,,,,,,VFR,,,,,,,,,,,,METAR,53.0
